##########################################################
# Query made at 05/15/2024 12:36:38 UTC
# Time interval: from 05/01/2024 12:00  to 05/14/2024 12:59  UTC
##########################################################

##########################################################
# ESMX, Vaxjo (Sweden)
# WMO index: 02641. WIGOS ID: 0-20000-0-02648
# Latitude 56-51N. Longitude 014-50E. Altitude 199 m.
##########################################################

202405141250 METAR ESMX 141250Z 12007KT 030V180 CAVOK 22/07 Q1018=
202405141220 METAR ESMX 141220Z 14009KT 090V160 CAVOK 22/06 Q1019=
202405141150 METAR ESMX 141150Z 12009KT 050V160 CAVOK 22/06 Q1019=
202405141120 METAR ESMX 141120Z 15007KT 090V210 CAVOK 22/06 Q1019=
202405141050 METAR ESMX 141050Z 12007KT 060V150 CAVOK 21/07 Q1019=
202405141020 METAR ESMX 141020Z 16008KT 120V200 CAVOK 21/07 Q1019=
202405140950 METAR ESMX 140950Z 11005KT 030V170 CAVOK 20/06 Q1019=
202405140920 METAR ESMX 140920Z 18004KT CAVOK 20/06 Q1020=
202405140850 METAR ESMX 140850Z VRB03KT CAVOK 19/05 Q1020=
202405140820 METAR ESMX 140820Z 15003KT 070V210 CAVOK 18/06 Q1020=
202405140750 METAR ESMX 140750Z 14005KT 110V170 CAVOK 18/05 Q1020=
202405140720 METAR ESMX 140720Z 14004KT 080V180 CAVOK 17/04 Q1020=
202405140650 METAR ESMX 140650Z 13005KT CAVOK 16/03 Q1020=
202405140620 METAR ESMX 140620Z VRB03KT CAVOK 15/04 Q1020=
202405140550 METAR ESMX 140550Z VRB02KT CAVOK 14/04 Q1020=
202405140520 METAR ESMX 140520Z 00000KT CAVOK 14/09 Q1020=
202405140450 METAR COR ESMX 140450Z 00000KT CAVOK 12/10 Q1020=
202405140420 METAR ESMX 140420Z 15002KT CAVOK 07/07 Q1020=
202405140350 METAR ESMX 140350Z 15001KT CAVOK 05/05 Q1020=
202405140320 METAR ESMX 140320Z AUTO 00000KT 9999 NCD 04/04 Q1020=
202405140250 METAR ESMX 140250Z AUTO 00000KT 9999 NCD 04/04 Q1020=
202405140220 METAR ESMX 140220Z AUTO 00000KT 9999 NCD 05/05 Q1020=
202405140150 METAR ESMX 140150Z AUTO 15001KT 9999 NCD 05/05 Q1019=
202405140120 METAR ESMX 140120Z AUTO 14002KT 9999 NCD 06/06 Q1019=
202405140050 METAR ESMX 140050Z AUTO 00000KT 9999 NCD 05/05 Q1019=
202405140020 METAR ESMX 140020Z AUTO 00000KT 9999 NCD 05/05 Q1019=
202405132350 METAR ESMX 132350Z AUTO 00000KT 9999 NCD 06/05 Q1019=
202405132320 METAR ESMX 132320Z 00000KT CAVOK 06/05 Q1019=
202405132250 METAR ESMX 132250Z 00000KT CAVOK 07/05 Q1020=
202405132220 METAR ESMX 132220Z 00000KT CAVOK 08/06 Q1019=
202405132150 METAR ESMX 132150Z 15001KT CAVOK 09/06 Q1019=
202405132120 METAR ESMX 132120Z 14002KT CAVOK 10/06 Q1019=
202405132050 METAR ESMX 132050Z 15003KT CAVOK 12/06 Q1019=
202405132020 METAR ESMX 132020Z 15004KT CAVOK 12/05 Q1019=
202405131950 METAR ESMX 131950Z 17002KT CAVOK 12/06 Q1019=
202405131920 METAR ESMX 131920Z 19004KT CAVOK 16/05 Q1019=
202405131850 METAR ESMX 131850Z 19005KT CAVOK 18/04 Q1019=
202405131820 METAR ESMX 131820Z 19005KT CAVOK 19/04 Q1019=
202405131750 METAR ESMX 131750Z 17006KT CAVOK 20/04 Q1019=
202405131720 METAR ESMX 131720Z 16006KT CAVOK 20/04 Q1019=
202405131650 METAR ESMX 131650Z 16008KT CAVOK 21/05 Q1019=
202405131620 METAR ESMX 131620Z 19007KT CAVOK 21/05 Q1019=
202405131550 METAR ESMX 131550Z 19005KT CAVOK 21/05 Q1019=
202405131520 METAR ESMX 131520Z 18007KT CAVOK 22/05 Q1020=
202405131450 METAR ESMX 131450Z 22006KT CAVOK 22/04 Q1020=
202405131420 METAR ESMX 131420Z 19006KT CAVOK 22/04 Q1020=
202405131350 METAR ESMX 131350Z 17006KT 130V210 CAVOK 22/04 Q1020=
202405131320 METAR ESMX 131320Z 18004KT 080V230 CAVOK 22/05 Q1020=
202405131250 METAR ESMX 131250Z 18005KT 110V210 CAVOK 21/04 Q1021=
202405131220 METAR ESMX 131220Z 18006KT 100V220 CAVOK 22/05 Q1021=
202405131150 METAR ESMX 131150Z 18005KT 150V230 CAVOK 21/05 Q1021=
202405131120 METAR ESMX 131120Z 18006KT CAVOK 21/05 Q1021=
202405131050 METAR ESMX 131050Z 17005KT 130V190 CAVOK 21/05 Q1021=
202405131020 METAR ESMX 131020Z 16005KT 120V180 CAVOK 21/05 Q1022=
202405130950 METAR ESMX 130950Z 17004KT 110V170 CAVOK 20/05 Q1022=
202405130920 METAR ESMX 130920Z VRB03KT CAVOK 20/06 Q1022=
202405130850 METAR ESMX 130850Z 16003KT CAVOK 19/05 Q1022=
202405130820 METAR ESMX 130820Z 17004KT CAVOK 18/03 Q1022=
202405130750 METAR ESMX 130750Z 19003KT CAVOK 17/02 Q1022=
202405130720 METAR ESMX 130720Z 19001KT CAVOK 16/06 Q1022=
202405130650 METAR ESMX 130650Z 00000KT CAVOK 16/09 Q1023=
202405130620 METAR ESMX 130620Z 00000KT CAVOK 14/08 Q1023=
202405130550 METAR ESMX 130550Z 00000KT CAVOK 12/07 Q1023=
202405130520 METAR ESMX 130520Z 00000KT CAVOK 11/08 Q1023=
202405130450 METAR ESMX 130450Z 00000KT CAVOK 10/07 Q1023=
202405130420 METAR ESMX 130420Z 00000KT CAVOK 05/05 Q1023=
202405130350 METAR ESMX 130350Z 00000KT CAVOK 04/04 Q1023=
202405130320 METAR ESMX 130320Z AUTO 00000KT 9999 NCD 04/04 Q1023=
202405130250 METAR ESMX 130250Z AUTO 00000KT 9999 NCD 04/03 Q1023=
202405130220 METAR ESMX 130220Z AUTO 00000KT 9999 NCD 05/04 Q1023=
202405130150 METAR ESMX 130150Z AUTO 00000KT 9999 NCD 04/03 Q1023=
202405130120 METAR ESMX 130120Z AUTO 00000KT 9999 NCD 06/04 Q1023=
202405130050 METAR ESMX 130050Z AUTO 00000KT 9999 NCD 07/04 Q1023=
202405130020 METAR ESMX 130020Z AUTO 00000KT 9999 NCD 07/04 Q1023=
202405122350 METAR ESMX 122350Z AUTO 19001KT 9999 NCD 08/04 Q1023=
202405122320 METAR ESMX 122320Z AUTO 19004KT 9999 NCD 09/04 Q1023=
202405122250 METAR ESMX 122250Z AUTO 19005KT 9999 NCD 09/04 Q1023=
202405122220 METAR ESMX 122220Z AUTO 19005KT 9999 NCD 10/04 Q1023=
202405122150 METAR ESMX 122150Z AUTO 19006KT 9999 NCD 11/04 Q1023=
202405122120 METAR ESMX 122120Z AUTO 20004KT 9999 NCD 12/04 Q1023=
202405122050 METAR ESMX 122050Z AUTO 20005KT 9999 NCD 12/05 Q1023=
202405122020 METAR ESMX 122020Z AUTO 20006KT 9999 NCD 13/05 Q1023=
202405121950 METAR ESMX 121950Z AUTO 20007KT 9999 NCD 13/06 Q1023=
202405121920 METAR ESMX 121920Z AUTO 20006KT 9999 NCD 14/06 Q1023=
202405121850 METAR ESMX 121850Z AUTO 20005KT 9999 NCD 15/07 Q1023=
202405121820 METAR ESMX 121820Z AUTO 20003KT 9999 NCD 17/07 Q1023=
202405121750 METAR ESMX 121750Z AUTO 20004KT 9999 NCD 18/06 Q1023=
202405121720 METAR ESMX 121720Z AUTO 20005KT 9999 NCD 19/06 Q1023=
202405121650 METAR ESMX 121650Z AUTO 20002KT 9999 NCD 20/05 Q1023=
202405121620 METAR ESMX 121620Z 00000KT CAVOK 20/04 Q1023=
202405121550 METAR ESMX 121550Z 20003KT CAVOK 20/05 Q1023=
202405121520 METAR ESMX 121520Z 21005KT CAVOK 20/05 Q1023=
202405121450 METAR ESMX 121450Z 16002KT CAVOK 20/05 Q1024=
202405121420 METAR ESMX 121420Z 00000KT CAVOK 20/05 Q1024=
202405121350 METAR ESMX 121350Z AUTO 00000KT 9999 NCD 19/06 Q1024=
202405121320 METAR ESMX 121320Z 31004KT 280V010 CAVOK 19/06 Q1024=
202405121250 METAR ESMX 121250Z VRB02KT CAVOK 19/05 Q1024=
202405121220 METAR ESMX 121220Z 08005KT 360V130 CAVOK 19/05 Q1025=
202405121150 METAR ESMX 121150Z 15004KT 120V180 CAVOK 19/05 Q1025=
202405121120 METAR ESMX 121120Z AUTO 24004KT 200V320 9999 NCD 19/05 Q1025=
202405121050 METAR ESMX 121050Z AUTO VRB03KT 9999 FEW048/// 19/07 Q1025=
202405121020 METAR ESMX 121020Z VRB02KT CAVOK 18/07 Q1026=
202405120950 METAR ESMX 120950Z 29003KT 220V350 CAVOK 17/07 Q1026=
202405120920 METAR ESMX 120920Z 23004KT 200V300 CAVOK 17/08 Q1026=
202405120850 METAR ESMX 120850Z 23004KT 200V270 CAVOK 16/07 Q1026=
202405120820 METAR ESMX 120820Z 23004KT CAVOK 15/07 Q1026=
202405120750 METAR ESMX 120750Z 23003KT CAVOK 13/06 Q1026=
202405120720 METAR ESMX 120720Z VRB02KT CAVOK 12/06 Q1026=
202405120650 METAR ESMX 120650Z AUTO 24003KT 210V300 9999 NCD 11/06 Q1026=
202405120620 METAR ESMX 120620Z AUTO 23004KT 210V280 9999 NCD 11/06 Q1026=
202405120550 METAR ESMX 120550Z AUTO VRB02KT 9999 NCD 09/04 Q1027=
202405120520 METAR ESMX 120520Z AUTO 22003KT 9999 SCT008/// 07/04 Q1027=
202405120450 METAR ESMX 120450Z AUTO 00000KT 9999 NCD 06/04 Q1027=
202405120420 METAR ESMX 120420Z AUTO 00000KT 9999 NCD 03/03 Q1026=
202405120350 METAR ESMX 120350Z AUTO 00000KT 9999 NCD 02/02 Q1026=
202405120320 METAR ESMX 120320Z AUTO 00000KT 9999 NCD 00/00 Q1026=
202405120250 METAR ESMX 120250Z AUTO 00000KT 9999 NCD 01/01 Q1026=
202405120220 METAR ESMX 120220Z AUTO 00000KT 9999 NCD 01/01 Q1026=
202405120150 METAR ESMX 120150Z AUTO 00000KT 9999 NCD 02/02 Q1026=
202405120120 METAR ESMX 120120Z AUTO 00000KT 9999 NCD 02/02 Q1026=
202405120050 METAR ESMX 120050Z AUTO 00000KT 9999 FEW170/// 03/03 Q1026=
202405120020 METAR ESMX 120020Z AUTO 00000KT 9999 FEW170/// 03/03 Q1026=
202405112350 METAR ESMX 112350Z AUTO 00000KT 9999 NCD 04/03 Q1026=
202405112320 METAR ESMX 112320Z AUTO 00000KT 9999 NCD 04/04 Q1026=
202405112250 METAR ESMX 112250Z AUTO 21002KT 9999 NCD 05/04 Q1026=
202405112220 METAR ESMX 112220Z AUTO 21005KT 9999 NCD 05/03 Q1026=
202405112150 METAR ESMX 112150Z AUTO 21005KT 9999 NCD 06/04 Q1026=
202405112120 METAR ESMX 112120Z AUTO 20005KT 9999 NCD 07/05 Q1026=
202405112050 METAR ESMX 112050Z AUTO 21006KT 9999 NCD 07/05 Q1026=
202405112020 METAR ESMX 112020Z AUTO 18006KT 9999 NCD 08/06 Q1026=
202405111950 METAR ESMX 111950Z AUTO 16005KT 9999 NCD 10/07 Q1026=
202405111920 METAR ESMX 111920Z AUTO 15004KT 9999 NCD 11/08 Q1026=
202405111850 METAR ESMX 111850Z AUTO 00000KT 9999 NCD 12/09 Q1025=
202405111820 METAR ESMX 111820Z AUTO 15003KT 9999 NCD 12/09 Q1025=
202405111750 METAR ESMX 111750Z AUTO 15003KT 9999 NCD 13/09 Q1025=
202405111720 METAR ESMX 111720Z AUTO 15003KT 9999 NCD 13/09 Q1025=
202405111650 METAR ESMX 111650Z AUTO 14004KT 070V150 9999 NCD 13/09 Q1025=
202405111620 METAR ESMX 111620Z AUTO 14005KT 080V150 9999 NCD 13/09 Q1025=
202405111550 METAR ESMX 111550Z AUTO 15004KT 080V160 9999 NCD 13/09 Q1025=
202405111520 METAR ESMX 111520Z AUTO 15005KT 9999 NCD 13/08 Q1025=
202405111450 METAR ESMX 111450Z AUTO 15005KT 070V160 9999 SCT017/// 13/09 Q1025=
202405111420 METAR ESMX 111420Z AUTO 16003KT 9999 FEW014/// 12/09 Q1026=
202405111350 METAR ESMX 111350Z AUTO 14003KT 9999 BKN015/// 13/10 Q1026=
202405111320 METAR ESMX 111320Z AUTO 15003KT 9999 SCT018/// OVC100/// 12/09 Q1026=
202405111250 METAR ESMX 111250Z AUTO VRB03KT 9999 SCT011/// OVC016/// 12/09 Q1026=
202405111220 METAR ESMX 111220Z AUTO 00000KT 9999 BKN010/// OVC012/// 11/09 Q1026=
202405111150 METAR ESMX 111150Z AUTO 15002KT 9999 SCT009/// OVC012/// 10/09 Q1026=
202405111120 METAR ESMX 111120Z AUTO 15001KT 9999 BKN007/// OVC008/// 10/09 Q1026=
202405111050 METAR ESMX 111050Z AUTO 16003KT 9999 OVC004/// 10/09 Q1025=
202405111020 METAR ESMX 111020Z AUTO 15003KT 8000 OVC004/// 10/10 Q1025=
202405110950 METAR ESMX 110950Z AUTO 15002KT 8000 OVC003/// 09/09 Q1025=
202405110920 METAR ESMX 110920Z AUTO 16002KT 5000 BR OVC003/// 09/09 Q1025=
202405110850 METAR ESMX 110850Z AUTO 16001KT 6000 OVC003/// 09/09 Q1025=
202405110820 METAR ESMX 110820Z 16002KT 5000 BR OVC003 09/09 Q1025=
202405110750 METAR ESMX 110750Z 14001KT 3700 BR OVC002 09/09 Q1025=
202405110720 METAR ESMX 110720Z 00000KT 4200 BR OVC002 08/08 Q1024=
202405110650 METAR ESMX 110650Z 15001KT 7000 BR OVC002 08/08 Q1024=
202405110620 METAR ESMX 110620Z AUTO 00000KT 4000 BR OVC002/// 08/08 Q1024=
202405110550 METAR ESMX 110550Z AUTO 00000KT 9999 OVC002/// 08/08 Q1024=
202405110520 METAR ESMX 110520Z AUTO 15001KT 7000 OVC002/// 08/08 Q1024=
202405110450 METAR ESMX 110450Z AUTO 15002KT 3800 BR OVC001/// 08/08 Q1023=
202405110420 METAR ESMX 110420Z AUTO 12003KT 070V140 1800 BR OVC001/// 08/08 Q1023=
202405110350 METAR ESMX 110350Z AUTO 00000KT 2100 BR OVC002/// 08/08 Q1023=
202405110320 METAR ESMX 110320Z AUTO VRB01KT 3800 BR OVC002/// 08/08 Q1023=
202405110250 METAR ESMX 110250Z AUTO 13002KT 3300 BR OVC002/// 08/08 Q1023=
202405110220 METAR ESMX 110220Z AUTO 00000KT 4300 BR OVC002/// 08/08 Q1023=
202405110150 METAR ESMX 110150Z AUTO 14003KT 4600 BR OVC002/// 08/08 Q1023=
202405110120 METAR ESMX 110120Z AUTO VRB01KT 5000 BR OVC003/// 08/08 Q1023 REDZ=
202405110050 METAR ESMX 110050Z AUTO 16004KT 9000 OVC003/// 09/09 Q1022=
202405110020 METAR ESMX 110020Z AUTO 16004KT 8000 OVC003/// 09/09 Q1022 REDZ=
202405102350 METAR ESMX 102350Z AUTO 15003KT 4200 DZ BKN003/// OVC004/// 09/09 Q1022=
202405102320 METAR ESMX 102320Z AUTO 15003KT 8000 DZ OVC003/// 09/09 Q1022=
202405102250 METAR ESMX 102250Z AUTO 16004KT 110V170 7000 DZ BKN003/// OVC004/// 10/10 Q1022=
202405102220 METAR ESMX 102220Z AUTO 20003KT 3600 +DZ BKN003/// OVC005/// 11/11 Q1022=
202405102150 METAR ESMX 102150Z AUTO 21002KT 4100 +DZ FEW007/// SCT012/// BKN013/// 11/11 Q1022 REDZ=
202405102120 METAR ESMX 102120Z AUTO 22003KT 9999 -RA FEW005/// BKN008/// OVC010/// 12/11 Q1022=
202405102050 METAR ESMX 102050Z AUTO 22004KT 9999 OVC009/// 12/11 Q1022=
202405102020 METAR ESMX 102020Z AUTO 21005KT 9999 BKN009/// OVC030/// 12/11 Q1022=
202405101950 METAR ESMX 101950Z AUTO 21005KT 9999 FEW011/// SCT016/// OVC029/// 12/11 Q1022=
202405101920 METAR ESMX 101920Z AUTO 22005KT 9999 FEW026/// BKN033/// OVC059/// 12/11 Q1022=
202405101850 METAR ESMX 101850Z AUTO 22004KT 9999 OVC026/// 13/11 Q1021=
202405101820 METAR ESMX 101820Z AUTO 24005KT 9999 SCT030/// OVC057/// 13/11 Q1021=
202405101750 METAR ESMX 101750Z AUTO 22006KT 9999 FEW022/// BKN061/// 14/11 Q1021=
202405101720 METAR ESMX 101720Z AUTO 22007KT 9999 SCT021/// BKN027/// BKN036/// 14/11 Q1021=
202405101650 METAR ESMX 101650Z AUTO 22005KT 9999 FEW032/// 15/11 Q1021=
202405101620 METAR ESMX 101620Z AUTO 24004KT 210V280 9999 BKN026/// 15/11 Q1021=
202405101550 METAR ESMX 101550Z AUTO 23005KT 9999 FEW020/// 15/11 Q1021=
202405101520 METAR ESMX 101520Z AUTO 24006KT 210V270 9999 FEW022/// SCT064/// 15/11 Q1021=
202405101450 METAR ESMX 101450Z AUTO 23004KT 200V300 9999 BKN021/// BKN190/// 15/11 Q1021=
202405101420 METAR ESMX 101420Z AUTO 23006KT 9999 FEW019/// SCT044/// BKN062/// 15/11 Q1021=
202405101350 METAR ESMX 101350Z AUTO 24006KT 9999 FEW018/// BKN040/// BKN049/// 15/12 Q1021=
202405101320 METAR ESMX 101320Z AUTO 23005KT 9999 SCT024/// OVC033/// 14/11 Q1021=
202405101250 METAR ESMX 101250Z AUTO 23005KT 200V270 9999 FEW018/// OVC031/// 14/11 Q1021=
202405101220 METAR ESMX 101220Z AUTO VRB03KT 9999 SCT015/// BKN020/// OVC033/// 14/11 Q1021=
202405101150 METAR ESMX 101150Z AUTO 00000KT 9999 SCT013/// OVC031/// 13/11 Q1021=
202405101120 METAR ESMX 101120Z AUTO 25003KT 9999 SCT010/// BKN012/// OVC031/// 13/12 Q1021=
202405101050 METAR ESMX 101050Z AUTO 00000KT 9999 BKN008/// OVC010/// 13/11 Q1021=
202405101020 METAR ESMX 101020Z AUTO 00000KT 9999 BKN007/// OVC009/// 12/11 Q1021=
202405100950 METAR ESMX 100950Z AUTO 29003KT 9999 OVC006/// 12/11 Q1021=
202405100920 METAR ESMX 100920Z AUTO 28004KT 260V330 9999 FEW003/// BKN005/// OVC007/// 12/11 Q1021=
202405100850 METAR ESMX 100850Z AUTO 00000KT 9999 BKN008/// OVC011/// 12/11 Q1021=
202405100820 METAR ESMX 100820Z AUTO 00000KT 4700 BR BKN006/// OVC011/// 11/11 Q1020=
202405100750 METAR ESMX 100750Z AUTO 30003KT 6000 SCT004/// OVC006/// 11/11 Q1020=
202405100720 METAR ESMX 100720Z AUTO 29003KT 260V320 5000 BR BKN004/// OVC007/// 11/11 Q1020=
202405100650 METAR ESMX 100650Z AUTO 30003KT 260V340 9999 BKN006/// OVC009/// 11/11 Q1020=
202405100620 METAR ESMX 100620Z AUTO VRB03KT 9999 OVC005/// 11/11 Q1019=
202405100550 METAR ESMX 100550Z AUTO VRB02KT 9999 OVC005/// 11/11 Q1019=
202405100520 METAR ESMX 100520Z AUTO 29004KT 260V320 9999 OVC005/// 11/11 Q1019=
202405100450 METAR ESMX 100450Z AUTO 00000KT 9999 SCT007/// BKN009/// OVC015/// 11/11 Q1019=
202405100420 METAR ESMX 100420Z AUTO 00000KT 9999 FEW006/// SCT008/// BKN013/// 11/11 Q1018=
202405100350 METAR ESMX 100350Z AUTO 00000KT 9999 SCT007/// BKN021/// OVC055/// 11/11 Q1018=
202405100320 METAR ESMX 100320Z AUTO 27003KT 9999 OVC022/// 11/11 Q1018=
202405100250 METAR ESMX 100250Z AUTO 26003KT 9999 OVC024/// 11/11 Q1018 REDZ=
202405100220 METAR ESMX 100220Z AUTO 30001KT 5000 BR BKN005/// OVC026/// 11/11 Q1018 REDZ=
202405100150 METAR ESMX 100150Z AUTO 29005KT 3800 -DZ BKN005/// OVC009/// 11/11 Q1018 REDZ=
202405100120 METAR ESMX 100120Z AUTO 27004KT 240V310 7000 VV006 11/11 Q1018=
202405100050 METAR ESMX 100050Z AUTO 26005KT 230V290 5000 BR VV006 11/11 Q1018=
202405100020 METAR ESMX 100020Z AUTO 27005KT 240V300 2500 DZ BKN004/// OVC009/// 11/11 Q1018=
202405092350 METAR ESMX 092350Z AUTO 26006KT 230V290 3600 -DZ OVC004/// 11/11 Q1018=
202405092320 METAR ESMX 092320Z AUTO 27007KT 240V300 5000 -RA OVC004/// 11/11 Q1018=
202405092250 METAR ESMX 092250Z AUTO 26006KT 240V300 3200 BR OVC004/// 11/11 Q1018=
202405092220 METAR ESMX 092220Z AUTO 26007KT 210V290 5000 BR OVC005/// 11/11 Q1018 REDZ=
202405092150 METAR ESMX 092150Z AUTO 26006KT 230V290 8000 BKN006/// OVC008/// 11/11 Q1018 REDZ=
202405092120 METAR ESMX 092120Z AUTO 25006KT 9999 OVC008/// 11/11 Q1018=
202405092050 METAR ESMX 092050Z AUTO 25005KT 220V280 9999 -RA BKN007/// BKN009/// OVC010/// 11/11 Q1018 REDZ=
202405092020 METAR ESMX 092020Z AUTO 25006KT 210V280 9999 DZ BKN008/// OVC015/// 11/11 Q1018=
202405091950 METAR ESMX 091950Z AUTO 25006KT 210V280 9999 DZ BKN008/// OVC015/// 11/11 Q1019=
202405091920 METAR ESMX 091920Z AUTO 24006KT 200V260 9999 DZ BKN009/// OVC011/// 11/11 Q1019=
202405091850 METAR ESMX 091850Z AUTO 24007KT 9999 -RA OVC011/// 11/11 Q1019 REDZ=
202405091820 METAR ESMX 091820Z AUTO 24009KT 210V280 9999 -DZ OVC014/// 12/11 Q1019=
202405091750 METAR ESMX 091750Z AUTO 25009KT 210V270 9999 -DZ OVC016/// 12/10 Q1019=
202405091720 METAR ESMX 091720Z 25008KT 220V280 9999 BKN016 12/09 Q1020=
202405091650 METAR COR ESMX 091650Z 25008KT 210V280 9999 BKN016 12/09 Q1020=
202405091620 METAR ESMX 091620Z 26009KT 9999 BKN020 13/09 Q1020=
202405091550 METAR ESMX 091550Z 26011KT 9999 BKN022 13/08 Q1021=
202405091520 METAR ESMX 091520Z 26010KT 230V300 9999 BKN022 13/08 Q1021=
202405091450 METAR ESMX 091450Z 26009KT 210V280 9999 BKN024 13/08 Q1021=
202405091420 METAR ESMX 091420Z 26011KT 9999 BKN025 14/08 Q1021=
202405091350 METAR ESMX 091350Z 26009KT 230V290 9999 BKN023 14/08 Q1021=
202405091320 METAR ESMX 091320Z 24010KT 9999 BKN022 13/09 Q1022=
202405091250 METAR ESMX 091250Z 26010KT 230V290 9999 BKN024 13/08 Q1022=
202405091220 METAR ESMX 091220Z 26010KT 9999 BKN027 13/08 Q1022=
202405091150 METAR ESMX 091150Z 28009KT 240V310 9999 BKN029 13/07 Q1022=
202405091120 METAR ESMX 091120Z 27009KT 240V300 9999 BKN030 13/06 Q1022=
202405091050 METAR ESMX 091050Z 25009KT 210V290 9999 SCT031 BKN130 14/07 Q1023=
202405091020 METAR ESMX 091020Z 25009KT 210V280 9999 BKN027 13/07 Q1023=
202405090950 METAR ESMX 090950Z 26010KT 220V290 9999 BKN027 13/07 Q1023=
202405090920 METAR ESMX 090920Z 23010KT 9999 BKN016 12/08 Q1023=
202405090850 METAR ESMX 090850Z 24008KT 9999 BKN016 12/09 Q1023=
202405090820 METAR ESMX 090820Z 25008KT 210V290 9999 BKN017 12/08 Q1023=
202405090750 METAR ESMX 090750Z 25006KT 210V280 9999 SCT012 BKN025 12/09 Q1024=
202405090720 METAR ESMX 090720Z AUTO 24008KT 210V270 9999 BKN014/// OVC022/// 11/09 Q1024=
202405090650 METAR ESMX 090650Z AUTO 25005KT 210V290 9999 FEW008/// SCT012/// OVC016/// 11/09 Q1024=
202405090620 METAR ESMX 090620Z AUTO 24005KT 210V280 9999 OVC008/// 10/10 Q1024=
202405090550 METAR ESMX 090550Z AUTO 25006KT 220V280 9999 OVC006/// 10/10 Q1024=
202405090520 METAR ESMX 090520Z AUTO 26007KT 230V290 9999 OVC004/// 10/09 Q1024=
202405090450 METAR ESMX 090450Z AUTO VRB02KT 9999 BKN005/// OVC007/// 10/09 Q1024=
202405090420 METAR ESMX 090420Z AUTO 22003KT 9999 BKN007/// OVC150/// 09/09 Q1024=
202405090350 METAR ESMX 090350Z AUTO 21003KT 9999 OVC160/// 09/08 Q1024=
202405090320 METAR ESMX 090320Z AUTO 21002KT 9999 FEW160/// 08/08 Q1024=
202405090250 METAR ESMX 090250Z AUTO 00000KT 9999 SCT072/// 08/08 Q1025=
202405090220 METAR ESMX 090220Z AUTO 22003KT 9999 BKN074/// 09/08 Q1025=
202405090150 METAR ESMX 090150Z AUTO 00000KT 9999 OVC074/// 09/08 Q1025=
202405090120 METAR ESMX 090120Z AUTO 00000KT 9999 OVC074/// 09/09 Q1025=
202405090050 METAR ESMX 090050Z AUTO 24001KT 9999 OVC074/// 09/09 Q1025=
202405090020 METAR ESMX 090020Z AUTO 00000KT 9999 BKN076/// 09/09 Q1025=
202405082350 METAR ESMX 082350Z AUTO 00000KT 9999 FEW076/// 08/08 Q1025=
202405082320 METAR ESMX 082320Z AUTO 00000KT 9999 FEW084/// 09/09 Q1025=
202405082250 METAR ESMX 082250Z AUTO 26003KT 9999 BKN086/// 10/09 Q1025=
202405082220 METAR ESMX 082220Z AUTO 26005KT 9999 FEW072/// BKN090/// 11/09 Q1026=
202405082150 METAR ESMX 082150Z AUTO 27003KT 9999 OVC090/// 11/09 Q1025=
202405082120 METAR ESMX 082120Z AUTO 26005KT 9999 BKN094/// 11/09 Q1025=
202405082050 METAR ESMX 082050Z AUTO 26006KT 9999 OVC098/// 12/09 Q1025=
202405082020 METAR ESMX 082020Z AUTO 26004KT 9999 FEW053/// OVC098/// 13/09 Q1025=
202405081950 METAR ESMX 081950Z AUTO 27005KT 9999 SCT057/// OVC098/// 13/08 Q1025=
202405081920 METAR ESMX 081920Z 28001KT 9999 FEW035 13/08 Q1025=
202405081850 METAR ESMX 081850Z 00000KT CAVOK 14/07 Q1025=
202405081820 METAR ESMX 081820Z 28005KT 260V320 CAVOK 14/07 Q1025=
202405081750 METAR ESMX 081750Z 26007KT 230V290 CAVOK 15/07 Q1024=
202405081720 METAR ESMX 081720Z 27007KT 240V300 CAVOK 15/07 Q1024=
202405081650 METAR ESMX 081650Z 28010KT 9999 FEW045 15/06 Q1024=
202405081620 METAR ESMX 081620Z 26010KT CAVOK 17/06 Q1024=
202405081550 METAR ESMX 081550Z AUTO 28010KT 250V310 9999 OVC059/// 18/05 Q1024=
202405081520 METAR ESMX 081520Z 27007KT CAVOK 18/05 Q1024=
202405081450 METAR ESMX 081450Z 28010KT 250V310 CAVOK 18/04 Q1024=
202405081420 METAR ESMX 081420Z 29009KT 260V320 CAVOK 17/05 Q1024=
202405081350 METAR ESMX 081350Z 25009KT 210V290 CAVOK 19/05 Q1024=
202405081320 METAR ESMX 081320Z 27007KT 220V350 CAVOK 18/05 Q1024=
202405081250 METAR ESMX 081250Z 27008KT 230V300 CAVOK 17/05 Q1024=
202405081220 METAR ESMX 081220Z 28009KT 230V330 CAVOK 18/05 Q1025=
202405081150 METAR ESMX 081150Z 25009KT 200V280 CAVOK 18/05 Q1024=
202405081120 METAR ESMX 081120Z 27008KT 230V330 CAVOK 18/05 Q1025=
202405081050 METAR ESMX 081050Z 26008KT 210V310 9999 FEW048 18/05 Q1025=
202405081020 METAR ESMX 081020Z 24005KT 190V310 CAVOK 17/05 Q1025=
202405080950 METAR ESMX 080950Z 24007KT 200V260 CAVOK 16/05 Q1025=
202405080920 METAR ESMX 080920Z 22005KT CAVOK 15/06 Q1025=
202405080850 METAR ESMX 080850Z 28005KT 250V340 CAVOK 14/06 Q1025=
202405080820 METAR ESMX 080820Z 00000KT CAVOK 14/07 Q1025=
202405080750 METAR ESMX 080750Z 25004KT 210V330 CAVOK 13/06 Q1025=
202405080720 METAR ESMX 080720Z 24003KT 200V290 CAVOK 13/08 Q1025=
202405080650 METAR ESMX 080650Z 20002KT CAVOK 12/07 Q1025=
202405080620 METAR ESMX 080620Z 00000KT CAVOK 10/07 Q1025=
202405080550 METAR ESMX 080550Z 20003KT CAVOK 09/06 Q1025=
202405080520 METAR ESMX 080520Z 00000KT CAVOK 08/06 Q1025=
202405080450 METAR ESMX 080450Z 20003KT CAVOK 07/06 Q1025=
202405080420 METAR ESMX 080420Z 00000KT CAVOK 07/06 Q1025=
202405080350 METAR ESMX 080350Z 00000KT CAVOK 07/05 Q1025=
202405080320 METAR ESMX 080320Z AUTO 00000KT 9999 SCT049/// OVC061/// 07/06 Q1025=
202405080250 METAR ESMX 080250Z AUTO 00000KT 9999 BKN045/// OVC059/// 07/05 Q1025=
202405080220 METAR ESMX 080220Z AUTO 00000KT 9999 OVC046/// 07/05 Q1025 REDZ REUP=
202405080150 METAR ESMX 080150Z AUTO 00000KT 9999 UP OVC045/// 07/05 Q1024=
202405080120 METAR ESMX 080120Z AUTO 00000KT 9999 BKN049/// OVC076/// 07/04 Q1024=
202405080050 METAR ESMX 080050Z AUTO 00000KT 9999 BKN045/// OVC053/// 07/04 Q1024=
202405080020 METAR ESMX 080020Z AUTO 00000KT 9999 OVC044/// 07/04 Q1024=
202405072350 METAR ESMX 072350Z AUTO 00000KT 9999 BKN044/// BKN076/// 07/04 Q1024=
202405072320 METAR ESMX 072320Z 20003KT 9999 FEW045 BKN076 07/04 Q1024=
202405072250 METAR ESMX 072250Z 20005KT 9999 BKN049 07/04 Q1024=
202405072220 METAR ESMX 072220Z AUTO 19006KT 9999 OVC049/// 08/04 Q1024=
202405072150 METAR ESMX 072150Z 18006KT 9999 BKN047 OVC072 08/05 Q1024=
202405072120 METAR ESMX 072120Z AUTO 18007KT 9999 OVC051/// 08/04 Q1024=
202405072050 METAR ESMX 072050Z AUTO 16007KT 9999 OVC051/// 09/05 Q1024=
202405072020 METAR ESMX 072020Z 04004KT 020V080 9999 BKN049 OVC074 11/04 Q1023=
202405071950 METAR ESMX 071950Z 01003KT CAVOK 11/05 Q1023=
202405071920 METAR ESMX 071920Z AUTO 00000KT 9999 OVC070/// 11/05 Q1023=
202405071850 METAR ESMX 071850Z AUTO 35005KT 9999 OVC068/// 11/05 Q1023=
202405071820 METAR ESMX 071820Z AUTO 36004KT 9999 OVC070/// 12/04 Q1023=
202405071750 METAR ESMX 071750Z AUTO 01002KT 9999 BKN068/// 14/03 Q1022=
202405071720 METAR ESMX 071720Z 00000KT CAVOK 14/02 Q1022=
202405071650 METAR ESMX 071650Z 01004KT 330V050 CAVOK 14/01 Q1022=
202405071620 METAR ESMX 071620Z 01003KT 330V060 CAVOK 14/02 Q1022=
202405071550 METAR ESMX 071550Z 04006KT 010V070 CAVOK 14/01 Q1022=
202405071520 METAR ESMX 071520Z 01005KT 340V040 CAVOK 14/01 Q1022=
202405071450 METAR ESMX 071450Z VRB03KT CAVOK 14/01 Q1022=
202405071420 METAR ESMX 071420Z VRB04KT CAVOK 14/00 Q1022=
202405071350 METAR ESMX 071350Z 01004KT 330V130 CAVOK 14/01 Q1022=
202405071320 METAR ESMX 071320Z VRB05KT CAVOK 13/00 Q1022=
202405071250 METAR ESMX 071250Z VRB01KT CAVOK 14/00 Q1022=
202405071220 METAR ESMX 071220Z VRB02KT CAVOK 13/M01 Q1022=
202405071150 METAR ESMX 071150Z VRB04KT CAVOK 13/M00 Q1022=
202405071120 METAR ESMX 071120Z VRB02KT CAVOK 12/M01 Q1022=
202405071050 METAR ESMX 071050Z VRB04KT CAVOK 12/M01 Q1022=
202405071020 METAR ESMX 071020Z 34004KT 250V040 CAVOK 11/00 Q1022=
202405070950 METAR ESMX 070950Z VRB03KT CAVOK 11/M01 Q1022=
202405070920 METAR ESMX 070920Z 02004KT 300V080 CAVOK 10/M00 Q1021=
202405070850 METAR ESMX 070850Z 34004KT 300V020 CAVOK 09/M00 Q1021=
202405070820 METAR ESMX 070820Z 36006KT 310V050 CAVOK 09/01 Q1021=
202405070750 METAR ESMX 070750Z 36006KT 330V030 CAVOK 08/M00 Q1021=
202405070720 METAR ESMX 070720Z VRB03KT CAVOK 07/M00 Q1021=
202405070650 METAR ESMX 070650Z 36007KT CAVOK 06/M00 Q1020=
202405070620 METAR ESMX 070620Z 36006KT CAVOK 06/00 Q1020=
202405070550 METAR ESMX 070550Z 02008KT 350V050 CAVOK 05/M00 Q1020=
202405070520 METAR ESMX 070520Z 36007KT CAVOK 05/00 Q1019=
202405070450 METAR ESMX 070450Z 01005KT 350V050 CAVOK 04/01 Q1019=
202405070420 METAR ESMX 070420Z 02007KT CAVOK 04/01 Q1019=
202405070350 METAR ESMX 070350Z 02007KT CAVOK 03/02 Q1018=
202405062350 METAR ESMX 062350Z 03006KT 360V080 CAVOK 05/03 Q1017=
202405062320 METAR ESMX 062320Z 04008KT 020V080 CAVOK 05/03 Q1016=
202405062250 METAR ESMX 062250Z 03008KT CAVOK 04/03 Q1016=
202405062220 METAR ESMX 062220Z 04008KT CAVOK 05/03 Q1016=
202405062150 METAR ESMX 062150Z 04008KT 010V070 CAVOK 05/03 Q1015=
202405062120 METAR ESMX 062120Z 04009KT 020V080 CAVOK 06/03 Q1015=
202405062050 METAR ESMX 062050Z 04006KT 350V080 CAVOK 06/04 Q1014=
202405062020 METAR ESMX 062020Z 03004KT 9999 FEW018 06/05 Q1014=
202405061950 METAR ESMX 061950Z 03008KT 9999 FEW018 07/05 Q1013=
202405061920 METAR ESMX 061920Z 04010KT 9999 SCT018 07/05 Q1013=
202405061850 METAR ESMX 061850Z 05011KT 010V080 9999 FEW017 OVC078 07/05 Q1013=
202405061820 METAR ESMX 061820Z 04013KT 9999 FEW014 SCT078 08/05 Q1012=
202405061750 METAR ESMX 061750Z 03012KT 360V060 9999 SCT017 BKN086 08/06 Q1012=
202405061720 METAR ESMX 061720Z 04011KT 010V070 9999 BKN015 08/06 Q1012=
202405061650 METAR ESMX 061650Z 04012KT 010V080 9999 FEW011 BKN013 BKN068 08/07 Q1011=
202405061620 METAR ESMX 061620Z 04011KT 9999 BKN009 08/07 Q1011=
202405061550 METAR ESMX 061550Z 03011KT 010V080 9999 -RA BKN010 08/08 Q1010=
202405061520 METAR ESMX 061520Z 04012KT 9999 BKN010 09/08 Q1010=
202405061450 METAR ESMX 061450Z 03010KT 010V090 9999 FEW007 BKN010 09/08 Q1009=
202405061420 METAR ESMX 061420Z 03011KT 010V070 9999 -DZ BKN010 09/08 Q1009=
202405061350 METAR ESMX 061350Z 03011KT 010V070 9999 SCT009 BKN013 09/08 Q1009=
202405061320 METAR ESMX 061320Z 03009KT 9999 BKN012 09/09 Q1008=
202405061250 METAR ESMX 061250Z 04004KT 010V070 9999 BKN011 09/09 Q1008=
202405061220 METAR ESMX 061220Z 03008KT 350V050 9000 -RA BKN008 09/08 Q1008=
202405061150 METAR ESMX 061150Z 03008KT 9999 BKN007 09/08 Q1007=
202405061120 METAR ESMX 061120Z 03007KT 360V070 9999 BKN007 09/08 Q1007=
202405061050 METAR ESMX 061050Z 02007KT 9999 BKN007 09/08 Q1007=
202405061020 METAR ESMX 061020Z 04009KT 9999 BKN006 09/08 Q1007=
202405060950 METAR ESMX 060950Z 03007KT 360V060 9999 BKN005 09/09 Q1006=
202405060920 METAR ESMX 060920Z 03006KT 350V050 9999 BKN004 09/09 Q1006=
202405060850 METAR ESMX 060850Z 02006KT 8000 BKN003 09/09 Q1006=
202405060820 METAR ESMX 060820Z 02005KT 8000 -DZ BKN004 08/08 Q1006=
202405060750 METAR ESMX 060750Z 03007KT 9999 BKN005 08/08 Q1005=
202405060720 METAR ESMX 060720Z 03008KT 9000 BKN004 08/08 Q1005=
202405060650 METAR ESMX 060650Z 03005KT 010V070 9000 BKN003 09/09 Q1005=
202405060620 METAR ESMX 060620Z 03005KT 010V070 6000 BR BKN003 09/09 Q1005=
202405060550 METAR ESMX 060550Z 00000KT 6000 BR BKN003 09/09 Q1005=
202405060520 METAR ESMX 060520Z VRB02KT 6000 BR BKN003 09/09 Q1004=
202405060450 METAR ESMX 060450Z 00000KT 6000 BKN004 09/09 Q1005=
202405060420 METAR ESMX 060420Z 05003KT 030V100 6000 BKN004 09/09 Q1004=
202405060350 METAR ESMX 060350Z 00000KT 7000 BR BKN003 09/09 Q1004=
202405051720 METAR ESMX 051720Z 00000KT 9999 FEW021 BKN030 16/13 Q1005=
202405051650 METAR ESMX 051650Z 16003KT 9999 BKN043 16/12 Q1005=
202405051620 METAR ESMX 051620Z 16003KT 9999 BKN043 16/12 Q1005=
202405051520 METAR ESMX 051520Z 15005KT 9999 BKN040 16/12 Q1005=
202405051020 METAR ESMX 051020Z 06004KT 030V120 9999 R01/2000 R19/2000 SCT088 BKN180 16/11 Q1008=
202405050950 METAR ESMX 050950Z VRB02KT 9999 FEW047 16/11 Q1008=
202405050920 METAR ESMX 050920Z 18003KT 9999 FEW021 16/11 Q1009=
202405050850 METAR ESMX 050850Z 19006KT 9999 FEW021 16/12 Q1009=
202405050820 METAR ESMX 050820Z 16004KT 9999 BKN019 BKN029 15/11 Q1010=
202405050750 METAR ESMX 050750Z 00000KT 9999 FEW019 15/11 Q1009=
202405050720 METAR ESMX 050720Z 00000KT 9999 BKN015 14/11 Q1009=
202405050650 METAR ESMX 050650Z AUTO 00000KT 9999 SCT110/// 14/11 Q1009=
202405050620 METAR ESMX 050620Z AUTO 00000KT 9999 FEW022/// 13/11 Q1010=
202405050550 METAR ESMX 050550Z AUTO 00000KT 9999 FEW005/// BKN021/// 12/11 Q1010=
202405050520 METAR ESMX 050520Z AUTO 00000KT 6000 BKN004/// OVC019/// 11/11 Q1010=
202405050450 METAR ESMX 050450Z AUTO 00000KT 4400 BR BKN003/// OVC017/// 11/11 Q1010=
202405050420 METAR ESMX 050420Z AUTO 00000KT 2500 BR OVC002/// 11/11 Q1010=
202405050350 METAR ESMX 050350Z AUTO 00000KT 3300 BR OVC003/// 10/10 Q1010=
202405050320 METAR ESMX 050320Z AUTO 00000KT 5000 BR OVC005/// 11/11 Q1010=
202405050250 METAR ESMX 050250Z AUTO 00000KT 5000 BR SCT006/// OVC022/// 11/11 Q1010=
202405050220 METAR ESMX 050220Z AUTO 00000KT 3600 BR OVC006/// 11/11 Q1011=
202405050150 METAR ESMX 050150Z AUTO 00000KT 5000 BR BKN004/// OVC006/// 11/11 Q1011=
202405050120 METAR ESMX 050120Z AUTO VRB03KT 3900 OVC003/// 11/11 Q1011=
202405050050 METAR ESMX 050050Z AUTO 27005KT 2900 OVC001/// 10/10 Q1012=
202405050020 METAR ESMX 050020Z AUTO 27003KT 250V310 0600 R01/P2000N R19/1700U FG BKN002/// OVC004/// 10/10 Q1012=
202405042350 METAR ESMX 042350Z AUTO VRB02KT 8000 FEW004/// 09/09 Q1012=
202405042320 METAR ESMX 042320Z AUTO 00000KT 9999 NCD 09/09 Q1012=
202405042250 METAR ESMX 042250Z AUTO 00000KT 9999 NCD 10/10 Q1012=
202405042220 METAR ESMX 042220Z AUTO 00000KT 9999 NCD 11/10 Q1013=
202405042150 METAR ESMX 042150Z AUTO 00000KT 9999 NCD 11/10 Q1013=
202405042120 METAR ESMX 042120Z AUTO 26002KT 9999 NCD 12/11 Q1013=
202405042050 METAR ESMX 042050Z AUTO 25005KT 9999 NCD 12/11 Q1013=
202405042020 METAR ESMX 042020Z AUTO 25003KT 9999 NCD 13/11 Q1013=
202405041950 METAR ESMX 041950Z AUTO 24003KT 9999 FEW036/// 14/12 Q1013=
202405041920 METAR ESMX 041920Z AUTO 00000KT 9999 FEW038/// 15/12 Q1013=
202405041850 METAR ESMX 041850Z AUTO 00000KT 9999 NCD 16/12 Q1013=
202405041820 METAR ESMX 041820Z AUTO 00000KT 9999 FEW120/// 17/12 Q1013=
202405041750 METAR ESMX 041750Z AUTO 26003KT 9999 FEW110/// 18/12 Q1013=
202405041720 METAR ESMX 041720Z AUTO 27005KT 220V290 9999 SCT110/// 19/12 Q1013=
202405041650 METAR ESMX 041650Z AUTO 27007KT 240V300 9999 FEW053/// OVC100/// 20/12 Q1013=
202405041620 METAR ESMX 041620Z AUTO 17008KT 9999 FEW057/// BKN120/// 21/10 Q1012=
202405041550 METAR ESMX 041550Z AUTO 19007KT 140V210 9999 SCT120/// 22/10 Q1012=
202405041520 METAR ESMX 041520Z AUTO 15009KT 9999 NCD 22/10 Q1013=
202405041450 METAR ESMX 041450Z AUTO 16009KT 120V200 9999 FEW140/// 22/11 Q1013=
202405041420 METAR ESMX 041420Z AUTO 14007KT 9999 BKN140/// 22/10 Q1013=
202405041350 METAR ESMX 041350Z AUTO 17009KT 9999 BKN120/// 22/11 Q1013=
202405041320 METAR ESMX 041320Z AUTO 20010KT 9999 OVC120/// 22/12 Q1014=
202405041250 METAR ESMX 041250Z AUTO 20011KT 9999 BKN100/// BKN130/// 22/12 Q1014=
202405041220 METAR ESMX 041220Z AUTO 21007KT 180V240 9999 FEW072/// BKN098/// BKN150/// 23/11 Q1014 REDZ=
202405041150 METAR ESMX 041150Z AUTO 21008KT 9999 OVC100/// 22/11 Q1014=
202405041120 METAR ESMX 041120Z AUTO 19007KT 170V230 9999 BKN100/// OVC120/// 22/11 Q1014=
202405041050 METAR ESMX 041050Z AUTO 14004KT 070V160 9999 BKN100/// OVC120/// 22/11 Q1014=
202405041020 METAR ESMX 041020Z 14006KT 070V180 CAVOK 22/10 Q1014=
202405040950 METAR ESMX 040950Z 15006KT 110V190 CAVOK 22/10 Q1014=
202405040920 METAR ESMX 040920Z 16006KT 100V200 CAVOK 21/10 Q1014=
202405040850 METAR ESMX 040850Z 15004KT CAVOK 21/09 Q1014=
202405040820 METAR ESMX 040820Z 16006KT CAVOK 19/09 Q1014=
202405040750 METAR ESMX 040750Z VRB02KT CAVOK 18/08 Q1015=
202405040720 METAR ESMX 040720Z 00000KT CAVOK 16/08 Q1015=
202405040650 METAR ESMX 040650Z VRB01KT CAVOK 14/07 Q1015=
202405040620 METAR ESMX 040620Z AUTO VRB03KT 9999 NCD 13/06 Q1015=
202405040550 METAR ESMX 040550Z AUTO VRB01KT 9999 FEW084/// 12/06 Q1015=
202405040520 METAR ESMX 040520Z AUTO 00000KT 9999 BKN082/// 11/07 Q1014=
202405040450 METAR ESMX 040450Z AUTO 00000KT 9999 NCD 10/06 Q1014=
202405040420 METAR ESMX 040420Z AUTO 00000KT 9999 FEW180/// 09/06 Q1014=
202405040350 METAR ESMX 040350Z AUTO 00000KT 9999 BKN068/// 09/05 Q1014=
202405040320 METAR ESMX 040320Z AUTO 04003KT 9999 BKN072/// 10/05 Q1014=
202405040250 METAR ESMX 040250Z AUTO 00000KT 9999 BKN076/// BKN092/// 10/05 Q1014=
202405040220 METAR ESMX 040220Z AUTO 00000KT 9999 FEW062/// BKN092/// 09/06 Q1014=
202405040150 METAR ESMX 040150Z AUTO VRB03KT 9999 -DZ SCT084/// BKN110/// OVC130/// 10/05 Q1015 RERA=
202405040120 METAR ESMX 040120Z AUTO 04004KT 9999 -DZ SCT086/// 10/05 Q1015=
202405040050 METAR ESMX 040050Z AUTO 05003KT 9999 FEW120/// 10/05 Q1015=
202405040020 METAR ESMX 040020Z AUTO 07003KT 020V100 9999 FEW080/// 10/05 Q1015=
202405032350 METAR ESMX 032350Z AUTO VRB03KT 9999 FEW082/// 10/05 Q1015=
202405032320 METAR ESMX 032320Z AUTO 07003KT 020V100 9999 NCD 10/05 Q1015=
202405032250 METAR ESMX 032250Z AUTO 05005KT 020V080 9999 NCD 11/05 Q1015=
202405032220 METAR ESMX 032220Z AUTO 04006KT 020V080 9999 NCD 11/05 Q1015=
202405032150 METAR ESMX 032150Z AUTO 05005KT 9999 NCD 11/05 Q1015=
202405032120 METAR ESMX 032120Z AUTO 06004KT 9999 NCD 12/05 Q1016=
202405032050 METAR ESMX 032050Z AUTO 06002KT 9999 NCD 12/05 Q1016=
202405032020 METAR ESMX 032020Z AUTO 06002KT 9999 NCD 12/05 Q1016=
202405031950 METAR ESMX 031950Z AUTO 06003KT 040V100 9999 NCD 13/05 Q1016=
202405031920 METAR ESMX 031920Z AUTO 06005KT 030V090 9999 NCD 13/05 Q1016=
202405031850 METAR ESMX 031850Z AUTO 06006KT 030V100 9999 NCD 14/05 Q1016=
202405031820 METAR ESMX 031820Z AUTO 06006KT 030V110 9999 NCD 15/05 Q1015=
202405031750 METAR ESMX 031750Z AUTO 06009KT 030V090 9999 NCD 16/05 Q1015=
202405031720 METAR ESMX 031720Z AUTO 07008KT 020V110 9999 NCD 17/05 Q1015=
202405031650 METAR ESMX 031650Z AUTO 07007KT 030V120 9999 NCD 18/06 Q1015=
202405031620 METAR ESMX 031620Z AUTO 07008KT 010V120 9999 NCD 19/05 Q1014=
202405031550 METAR ESMX 031550Z AUTO 07008KT 030V120 9999 NCD 20/05 Q1015=
202405031520 METAR ESMX 031520Z AUTO 06008KT 020V110 9999 NCD 20/05 Q1014=
202405031450 METAR ESMX 031450Z AUTO 06010KT 030V120 9999 NCD 20/06 Q1015=
202405031420 METAR ESMX 031420Z 05010KT 020V110 CAVOK 20/05 Q1014=
202405031350 METAR ESMX 031350Z 06010KT 030V120 CAVOK 21/06 Q1014=
202405031320 METAR ESMX 031320Z 07011KT 030V120 CAVOK 22/06 Q1014=
202405031250 METAR ESMX 031250Z 05010KT 020V080 CAVOK 21/05 Q1014=
202405031220 METAR ESMX 031220Z 07010KT 030V110 CAVOK 21/06 Q1014=
202405031150 METAR ESMX 031150Z 06008KT 030V100 CAVOK 21/06 Q1014=
202405031120 METAR ESMX 031120Z 06010KT 020V110 CAVOK 20/06 Q1015=
202405031050 METAR ESMX 031050Z 06011KT 350V120 CAVOK 20/06 Q1015=
202405031020 METAR ESMX 031020Z 05010KT 020V100 CAVOK 20/06 Q1015=
202405030950 METAR ESMX 030950Z 06011KT 030V100 CAVOK 20/06 Q1015=
202405030920 METAR ESMX 030920Z 06010KT 350V120 CAVOK 19/06 Q1015=
202405030850 METAR ESMX 030850Z 06010KT 030V100 CAVOK 18/06 Q1015=
202405030820 METAR ESMX 030820Z 05010KT 030V100 CAVOK 17/06 Q1015=
202405030750 METAR ESMX 030750Z 04010KT 010V100 CAVOK 16/06 Q1015=
202405030720 METAR ESMX 030720Z 05008KT 020V090 CAVOK 15/06 Q1015=
202405030650 METAR ESMX 030650Z 04007KT CAVOK 14/06 Q1015=
202405030620 METAR ESMX 030620Z 04006KT 010V090 CAVOK 12/05 Q1015=
202405030550 METAR ESMX 030550Z AUTO 04007KT 020V080 9999 NCD 11/04 Q1014=
202405030520 METAR ESMX 030520Z 04009KT 010V070 CAVOK 10/04 Q1015=
202405030450 METAR ESMX 030450Z 03008KT CAVOK 08/04 Q1014=
202405030420 METAR ESMX 030420Z AUTO 03008KT 9999 NCD 08/04 Q1014=
202405030350 METAR ESMX 030350Z AUTO 02007KT 9999 NCD 07/04 Q1014=
202405030320 METAR ESMX 030320Z AUTO 03008KT 9999 NCD 07/04 Q1014=
202405030250 METAR ESMX 030250Z AUTO 03007KT 9999 NCD 07/04 Q1014=
202405030220 METAR ESMX 030220Z AUTO 03006KT 9999 NCD 07/04 Q1015=
202405030150 METAR ESMX 030150Z AUTO 03006KT 9999 NCD 07/04 Q1015=
202405030120 METAR ESMX 030120Z AUTO 03007KT 010V070 9999 NCD 08/04 Q1015=
202405030050 METAR ESMX 030050Z AUTO 04007KT 9999 NCD 08/04 Q1015=
202405030020 METAR ESMX 030020Z AUTO 03008KT 9999 NCD 08/03 Q1015=
202405022350 METAR ESMX 022350Z 04009KT CAVOK 08/03 Q1015=
202405022320 METAR ESMX 022320Z 04008KT CAVOK 09/03 Q1015=
202405022250 METAR ESMX 022250Z 04008KT 010V070 CAVOK 09/04 Q1016=
202405022220 METAR ESMX 022220Z 03009KT CAVOK 09/04 Q1016=
202405022150 METAR ESMX 022150Z 03010KT CAVOK 10/04 Q1015=
202405022120 METAR ESMX 022120Z 04011KT CAVOK 10/04 Q1015=
202405022050 METAR ESMX 022050Z 04011KT CAVOK 11/04 Q1015=
202405022020 METAR ESMX 022020Z 04010KT CAVOK 12/04 Q1015=
202405021950 METAR ESMX 021950Z AUTO 04010KT 9999 NCD 13/04 Q1015=
202405021920 METAR ESMX 021920Z AUTO 05010KT 020V080 9999 NCD 14/04 Q1016=
202405021850 METAR ESMX 021850Z AUTO 05008KT 020V090 9999 NCD 15/05 Q1015=
202405021820 METAR ESMX 021820Z AUTO 07006KT 020V110 9999 NCD 15/05 Q1015=
202405021750 METAR ESMX 021750Z AUTO 06010KT 030V100 9999 NCD 16/06 Q1015=
202405021720 METAR ESMX 021720Z 06009KT 020V090 CAVOK 17/06 Q1015=
202405021650 METAR ESMX 021650Z 07009KT 030V120 CAVOK 18/06 Q1014=
202405021620 METAR ESMX 021620Z 06011KT 030V110 CAVOK 19/06 Q1014=
202405021550 METAR ESMX 021550Z AUTO 06009KT 030V110 9999 NCD 19/06 Q1014=
202405021520 METAR ESMX 021520Z 06011G22KT 030V090 CAVOK 20/06 Q1014=
202405021450 METAR ESMX 021450Z 06010KT 030V090 CAVOK 21/05 Q1014=
202405021420 METAR ESMX 021420Z AUTO 06009KT 020V130 9999 NCD 22/06 Q1014=
202405021350 METAR ESMX 021350Z 08011KT 030V110 CAVOK 22/06 Q1014=
202405021320 METAR ESMX 021320Z 09009G19KT 030V140 CAVOK 22/05 Q1014=
202405021250 METAR ESMX 021250Z 07010KT 030V140 CAVOK 22/06 Q1014=
202405021220 METAR ESMX 021220Z 06013KT 010V140 CAVOK 22/06 Q1015=
202405021150 METAR ESMX 021150Z 06010KT 030V110 CAVOK 22/06 Q1015=
202405021120 METAR ESMX 021120Z 05010KT 020V110 CAVOK 21/06 Q1015=
202405021050 METAR ESMX 021050Z 06009KT 020V110 CAVOK 21/07 Q1015=
202405021020 METAR ESMX 021020Z 04011KT 020V080 CAVOK 20/07 Q1016=
202405020950 METAR ESMX 020950Z 04011KT CAVOK 20/08 Q1016=
202405020920 METAR ESMX 020920Z 04010KT 010V090 CAVOK 19/07 Q1016=
202405020850 METAR ESMX 020850Z 05010KT 010V090 CAVOK 18/07 Q1016=
202405020820 METAR ESMX 020820Z 04009KT CAVOK 17/07 Q1016=
202405020750 METAR ESMX 020750Z 04010KT 020V080 CAVOK 16/07 Q1016=
202405020720 METAR ESMX 020720Z 04011KT CAVOK 15/06 Q1016=
202405020650 METAR ESMX 020650Z 04009KT 010V080 CAVOK 14/06 Q1016=
202405020620 METAR ESMX 020620Z 04009KT CAVOK 12/06 Q1017=
202405020550 METAR ESMX 020550Z 03008KT CAVOK 11/05 Q1017=
202405020520 METAR ESMX 020520Z 03007KT 010V070 CAVOK 10/05 Q1017=
202405020450 METAR ESMX 020450Z 03008KT 360V060 CAVOK 10/05 Q1017=
202405020420 METAR ESMX 020420Z 03008KT CAVOK 09/04 Q1017=
202405020350 METAR ESMX 020350Z 04008KT CAVOK 09/04 Q1017=
202405020320 METAR ESMX 020320Z AUTO 03010KT 9999 NCD 09/04 Q1017=
202405020250 METAR ESMX 020250Z AUTO 03010KT 9999 NCD 09/04 Q1017=
202405020220 METAR ESMX 020220Z AUTO 03010KT 9999 NCD 09/04 Q1018=
202405020150 METAR ESMX 020150Z AUTO 03007KT 360V060 9999 SCT084/// 09/05 Q1018=
202405020120 METAR ESMX 020120Z AUTO 03007KT 9999 SCT084/// 09/05 Q1018=
202405020050 METAR ESMX 020050Z AUTO 03007KT 9999 NCD 09/05 Q1018=
202405020020 METAR ESMX 020020Z AUTO 03006KT 350V050 9999 NCD 09/04 Q1018=
202405012350 METAR ESMX 012350Z AUTO 02007KT 9999 NCD 09/04 Q1019=
202405012320 METAR ESMX 012320Z AUTO 03007KT 9999 FEW082/// 09/04 Q1019=
202405012250 METAR ESMX 012250Z AUTO 03009KT 010V070 9999 NCD 10/04 Q1019=
202405012220 METAR ESMX 012220Z AUTO 03010KT 9999 NCD 10/04 Q1019=
202405012150 METAR ESMX 012150Z AUTO 04010KT 9999 NCD 10/05 Q1020=
202405012120 METAR ESMX 012120Z AUTO 04009KT 9999 NCD 11/05 Q1020=
202405012050 METAR ESMX 012050Z AUTO 04010KT 9999 NCD 11/05 Q1019=
202405012020 METAR ESMX 012020Z AUTO 04010KT 9999 NCD 12/06 Q1019=
202405011950 METAR ESMX 011950Z AUTO 04011KT 9999 NCD 13/07 Q1020=
202405011920 METAR ESMX 011920Z 04011KT CAVOK 14/07 Q1020=
202405011850 METAR ESMX 011850Z 04009KT CAVOK 15/08 Q1019=
202405011820 METAR ESMX 011820Z 05008KT 020V080 CAVOK 16/08 Q1019=
202405011750 METAR ESMX 011750Z 06007KT 030V100 CAVOK 17/08 Q1019=
202405011720 METAR ESMX 011720Z 07008KT 030V110 CAVOK 18/08 Q1019=
202405011650 METAR ESMX 011650Z 07007KT 030V110 CAVOK 19/08 Q1019=
202405011620 METAR ESMX 011620Z 08009KT 030V110 CAVOK 20/08 Q1019=
202405011550 METAR ESMX 011550Z 07009KT 020V110 CAVOK 21/08 Q1019=
202405011520 METAR ESMX 011520Z 05010KT 030V090 CAVOK 21/07 Q1019=
202405011450 METAR ESMX 011450Z 05010KT 020V100 CAVOK 21/08 Q1019=
202405011420 METAR ESMX 011420Z AUTO 06011KT 020V100 9999 NCD 21/08 Q1019=
202405011350 METAR ESMX 011350Z AUTO 07010KT 030V110 9999 NCD 22/08 Q1019=
202405011320 METAR ESMX 011320Z AUTO 08009KT 050V120 9999 NCD 22/08 Q1020=
202405011250 METAR ESMX 011250Z AUTO 07010KT 030V120 9999 NCD 22/08 Q1020=
202405011220 METAR ESMX 011220Z AUTO 07010KT 030V130 9999 NCD 22/08 Q1020=
