##########################################################
# Query made at 04/19/2024 20:46:48 UTC
# Time interval: from 09/01/2005 12:00  to 09/30/2005 12:59  UTC
##########################################################

##########################################################
# ESMX, Vaxjo (Sweden)
# WMO index: 02641. WIGOS ID: 0-20000-0-02648
# Latitude 56-51N. Longitude 014-50E. Altitude 199 m.
##########################################################

200509301250 METAR ESMX 301250Z VRB02KT CAVOK 14/07 Q1017=
200509301220 METAR ESMX 301220Z 25004KT 220V290 CAVOK 14/07 Q1017=
200509301150 METAR ESMX 301150Z 29004KT 250V330 9999 FEW045 SCT060 14/08 Q1017=
200509301120 METAR ESMX 301120Z VRB01KT 9999 SCT045 13/08 Q1017=
200509301050 METAR ESMX 301050Z VRB03KT 9999 FEW025 14/09 Q1017=
200509301020 METAR ESMX 301020Z VRB03KT 9999 FEW025 14/09 Q1017=
200509300950 METAR ESMX 300950Z VRB02KT 9999 FEW020 13/08 Q1017=
200509300920 METAR ESMX 300920Z VRB02KT 9999 FEW020 13/09 Q1016=
200509300850 METAR ESMX 300850Z VRB01KT CAVOK 10/09 Q1016=
200509300820 METAR ESMX 300820Z VRB01KT 9999 FEW025 SCT065 09/08 Q1016=
200509300750 METAR ESMX 300750Z VRB03KT 9999 FEW037 SCT059 10/09 Q1015=
200509300720 METAR ESMX 300720Z VRB03KT 9999 SCT046 BKN063 11/10 Q1015=
200509300650 METAR ESMX 300650Z VRB01KT 9999 BKN036 O 09/09 Q1015=
200509300620 METAR ESMX 300620Z VRB01KT 9999 SCT038 BKN053 08/08 Q1015=
200509300550 METAR ESMX 300550Z VRB01KT 9999 FEW037 BKN042 07/07 Q1014=
200509300520 METAR ESMX 300520Z VRB01KT 9999 BKN040 06/06 Q1014=
200509300450 METAR ESMX 300450Z 00000KT 2800 SCT039 BKN048 06/05 Q1014=
200509300420 METAR ESMX 300420Z 00000KT 9999 R19/P1500D BCFG FEW042 BKN061 05/05 Q1013=
200509300350 METAR ESMX 300350Z VRB01KT 2500 R19/P1500N BCFG FEW043 05/05 Q1013=
200509300320 METAR ESMX 300320Z AUTO VRB01KT 0800 R01/P1500N R19/P1500N FG BKN059 06/05 Q1013=
200509300250 METAR ESMX 300250Z AUTO VRB01KT 0150 R01/0600V1400U R19/1000VP1500U FG SCT057 06/05 Q1012=
200509300220 METAR ESMX 300220Z AUTO VRB02KT 0900 R01/P1500N R19/P1500N FG BKN055 07/07 Q1012=
200509300150 METAR ESMX 300150Z AUTO VRB02KT 1600 BR OVC048 07/07 Q1012=
200509300120 METAR ESMX 300120Z AUTO VRB03KT 2600 BR NSC 07/07 Q1012=
200509300050 METAR ESMX 300050Z AUTO VRB03KT 6000 BR SCT054 07/07 Q1012=
200509300020 METAR ESMX 300020Z AUTO VRB02KT 4800 BR FEW058 08/07 Q1012=
200509292350 METAR ESMX 292350Z VRB02KT 9999 BKN045 08/07 Q1012=
200509292320 METAR ESMX 292320Z VRB02KT 9999 BKN046 BKN078 08/07 Q1012=
200509292250 METAR ESMX 292250Z VRB01KT 9999 -SHRA BKN048 BKN078 08/07 Q1012=
200509292220 METAR ESMX 292220Z VRB01KT 9999 BKN047 08/08 Q1012=
200509292150 METAR ESMX 292150Z VRB02KT 9999 BKN045 09/08 Q1012=
200509292120 METAR ESMX 292120Z VRB02KT 9999 -RA BKN044 09/08 Q1012=
200509292050 METAR ESMX 292050Z VRB03KT 9999 -RA FEW045 BKN066 09/08 Q1012=
200509292020 METAR ESMX 292020Z 14004KT 100V170 9999 -RA FEW020 BKN053 10/07 Q1011=
200509291950 METAR ESMX 291950Z 14004KT 9999 FEW020 SCT060 10/08 Q1011=
200509291920 METAR ESMX 291920Z 15004KT 120V190 9999 FEW020 SCT065 10/08 Q1011=
200509291850 METAR ESMX 291850Z 14004KT 110V170 9999 FEW019 10/08 Q1011=
200509291750 METAR ESMX 291750Z 16004KT 9999 FEW035 SCT064 11/08 Q1011=
200509291720 METAR ESMX 291720Z 14004KT 110V170 9999 FEW025 SCT073 11/07 Q1011=
200509291650 METAR ESMX 291650Z 16004KT 110V200 9999 FEW030 FEW070 11/07 Q1011=
200509291620 METAR ESMX 291620Z 14005KT 110V190 9999 FEW030 SCT080 12/08 Q1010=
200509291550 METAR ESMX 291550Z 14004KT 9999 FEW030 SCT060 12/08 Q1010=
200509291520 METAR ESMX 291520Z 15006KT 110V190 9999 FEW029 13/07 Q1011=
200509291450 METAR ESMX 291450Z 15007KT 120V200 9999 FEW025 13/07 Q1010=
200509291420 METAR ESMX 291420Z 15007KT 110V170 9999 FEW025 13/07 Q1011=
200509291350 METAR ESMX 291350Z 16006KT 130V230 9999 SCT025 13/08 Q1011=
200509291320 METAR ESMX 291320Z 15006KT 100V180 9999 SCT035 13/08 Q1011=
200509291250 METAR ESMX 291250Z 17006KT 140V210 9999 SCT035 13/08 Q1011=
200509291220 METAR ESMX 291220Z 15006KT 120V190 9999 SCT025 13/08 Q1011=
200509291150 METAR ESMX 291150Z 17007KT 110V210 9999 FEW024 SCT030 13/08 Q1011=
200509291120 METAR ESMX 291120Z 18008KT 150V210 9999 SCT020 13/08 Q1012=
200509291050 METAR ESMX 291050Z 17007KT 120V200 9999 FEW016 SCT050 13/09 Q1012=
200509291020 METAR ESMX 291020Z 15006KT 9999 FEW044 SCT079 12/09 Q1012=
200509290950 METAR ESMX 290950Z 17006KT 130V200 9999 FEW021 BKN049 11/09 Q1012=
200509290920 METAR ESMX 290920Z 16005KT 120V190 9999 SCT022 11/09 Q1012=
200509290850 METAR ESMX 290850Z 16005KT CAVOK 10/09 Q1012=
200509290820 METAR ESMX 290820Z 16005KT 130V200 CAVOK 10/09 Q1012=
200509290750 METAR ESMX 290750Z 16005KT CAVOK 09/08 Q1012=
200509290720 METAR ESMX 290720Z 16004KT CAVOK 08/08 Q1013=
200509290650 METAR ESMX 290650Z VRB03KT 9999 FEW002 07/07 Q1012=
200509290620 METAR ESMX 290620Z VRB03KT 9999 FEW001 06/06 Q1012=
200509290550 METAR ESMX 290550Z 19004KT 8000 BR MIFG NSC 06/05 Q1013=
200509290520 METAR ESMX 290520Z 19004KT 8000 BR FEW035 05/05 Q1013=
200509290450 METAR ESMX 290450Z 19006KT 8000 BR FEW040 05/05 Q1013=
200509290420 METAR ESMX 290420Z 18005KT 6000 MIFG NSC 05/05 Q1013=
200509290350 METAR ESMX 290350Z 19007KT 4000 BR FEW000 05/05 Q1013=
200509290320 METAR ESMX 290320Z AUTO 18005KT 0350 R01/0800VP1500U R19/0650V0900D FG VV000 03/03 Q1012=
200509290250 METAR ESMX 290250Z AUTO 17005KT 0250 R01/0900V1100N R19/0800V1300D FG VV000 05/05 Q1012=
200509290220 METAR ESMX 290220Z AUTO VRB03KT 0500 R01/P1500D R19/0800VP1500D FG NSC 06/06 Q1012=
200509290150 METAR ESMX 290150Z AUTO 20005KT 9999 NSC 05/05 Q1013=
200509290120 METAR ESMX 290120Z AUTO 19005KT 2000 BR NSC 05/05 Q1013=
200509290050 METAR ESMX 290050Z AUTO 20006KT 3700 BR NSC 05/05 Q1013=
200509290020 METAR ESMX 290020Z AUTO 20005KT 3200 BR NSC 06/05 Q1013=
200509282350 METAR ESMX 282350Z 20005KT CAVOK 06/06 Q1013=
200509282320 METAR ESMX 282320Z 20004KT CAVOK 07/06 Q1013=
200509282250 METAR ESMX 282250Z 22005KT 9999 FEW045 07/06 Q1013=
200509282220 METAR ESMX 282220Z 23005KT 9999 FEW045 07/07 Q1013=
200509282150 METAR ESMX 282150Z 23005KT 9999 FEW035 08/07 Q1013=
200509282120 METAR ESMX 282120Z 20006KT 9999 FEW035 BKN062 08/08 Q1012=
200509282020 METAR ESMX 282020Z 20005KT 9999 FEW023 08/07 Q1012=
200509281950 METAR ESMX 281950Z 19006KT 9999 FEW022 SCT055 08/08 Q1012=
200509281920 METAR ESMX 281920Z 19005KT 9999 FEW025 SCT057 09/08 Q1012=
200509281850 METAR ESMX 281850Z 21005KT 8000 BR NSC 09/08 Q1012=
200509281820 METAR ESMX 281820Z 22005KT CAVOK 09/09 Q1011=
200509281750 METAR ESMX 281750Z 20004KT CAVOK 09/08 Q1011=
200509281720 METAR ESMX 281720Z 20004KT 9999 FEW046 SCT053 10/09 Q1011=
200509281650 METAR ESMX 281650Z 23004KT 9999 FEW041 SCT060 10/10 Q1011 RERA=
200509281620 METAR ESMX 281620Z 18004KT CAVOK 11/10 Q1011=
200509281550 METAR ESMX 281550Z 19005KT 9999 RA FEW012 SCT036 BKN045 11/10 Q1011=
200509281520 METAR ESMX 281520Z 20005KT 9000 -SHRA FEW021 SCT047 BKN056 11/11 Q1011=
200509281450 METAR ESMX 281450Z 23005KT 9000 -SHRA FEW015 SCT050 11/10 Q1011=
200509281420 METAR ESMX 281420Z 23005KT 6000 -RA FEW027 SCT036 11/11 Q1011=
200509281350 METAR ESMX 281350Z 23004KT 9999 -RA FEW007 BKN030 12/10 Q1011=
200509281320 METAR ESMX 281320Z 22006KT 180V260 6000 SHRA FEW009 SCT020 BKN025 13/12 Q1011=
200509281250 METAR ESMX 281250Z 21007KT 9999 SHRA FEW010 SCT025 BKN040 14/11 Q1011=
200509281220 METAR ESMX 281220Z 21007KT 160V230 9999 FEW020 BKN035 14/11 Q1011=
200509281150 METAR ESMX 281150Z 19008KT 9999 FEW019 BKN040 14/11 Q1011=
200509281120 METAR ESMX 281120Z 21007KT 170V240 9999 FEW015 SCT024 15/11 Q1011=
200509281050 METAR ESMX 281050Z 21007KT 160V230 9999 FEW013 BKN025 14/11 Q1011=
200509281020 METAR ESMX 281020Z 19008KT 9999 FEW013 13/11 Q1011=
200509280950 METAR ESMX 280950Z 20008KT 9999 FEW008 SCT012 13/12 Q1011=
200509280920 METAR ESMX 280920Z 21006KT 170V240 9999 FEW008 SCT015 BKN017 13/12 Q1012=
200509280850 METAR ESMX 280850Z 22005KT 190V250 9999 FEW008 BKN016 13/12 Q1012=
200509280820 METAR ESMX 280820Z 21005KT 190V250 9999 FEW006 SCT010 BKN012 13/12 Q1012=
200509280750 METAR ESMX 280750Z 23004KT 9999 FEW005 BKN007 13/12 Q1012=
200509280720 METAR ESMX 280720Z 22005KT 190V250 9999 FEW005 BKN008 12/12 Q1012=
200509280650 METAR ESMX 280650Z 21004KT 170V240 9999 FEW002 SCT005 BKN006 12/11 Q1012=
200509280620 METAR ESMX 280620Z 18004KT 8000 BR BKN003 OVC012 12/11 Q1011=
200509280550 METAR ESMX 280550Z 18004KT 9999 SCT002 BKN004 11/11 Q1011=
200509280520 METAR ESMX 280520Z VRB03KT 9999 BKN048 11/11 Q1011=
200509280450 METAR ESMX 280450Z VRB02KT 9999 -SHRA FEW031 SCT038 BKN044 11/11 Q1011=
200509280420 METAR ESMX 280420Z VRB02KT 7000 DZ FEW028 11/11 Q1011=
200509280350 METAR ESMX 280350Z 23004KT 210V280 4100 -RA FEW015 SCT018 12/11 Q1011=
200509280320 METAR ESMX 280320Z AUTO 29006KT 250V320 3500 -RA FEW003 SCT007 OVC014 12/11 Q1011=
200509280250 METAR ESMX 280250Z AUTO 18006KT 160V220 2600 RA FEW004 BKN005 OVC007 13/13 Q1011=
200509280220 METAR ESMX 280220Z AUTO 16007KT 130V190 4500 DZ FEW004 BKN006 OVC008 13/13 Q1011=
200509280150 METAR ESMX 280150Z AUTO 16007KT 140V200 5000 -RA FEW006 BKN008 OVC011 13/13 Q1011=
200509280120 METAR ESMX 280120Z AUTO 17006KT 6000 RA FEW009 BKN047 13/13 Q1012=
200509280050 METAR ESMX 280050Z AUTO 18007KT 160V230 8000 -RA OVC012 14/13 Q1012=
200509280020 METAR ESMX 280020Z AUTO 17008KT 140V200 9000 -RA OVC013 14/12 Q1012=
200509272350 METAR ESMX 272350Z AUTO 17007KT 130V190 9999 -SHRA BKN014 14/12 Q1012=
200509272320 METAR ESMX 272320Z AUTO 17008KT 130V210 9999 -SHRA OVC015 14/12 Q1013=
200509272250 METAR ESMX 272250Z 17007KT 9999 -SHRA BKN016 14/12 Q1013=
200509272220 METAR ESMX 272220Z AUTO 17009KT 120V190 9999 -SHRA FEW017 14/12 Q1013=
200509272150 METAR ESMX 272150Z 17009KT 9999 -SHRA FEW020 14/12 Q1013=
200509272120 METAR ESMX 272120Z 17010KT 9999 FEW020 SCT045 14/12 Q1013=
200509272050 METAR ESMX 272050Z 17010KT 9999 SCT045 14/12 Q1013=
200509272020 METAR ESMX 272020Z 17009KT 9999 BR FEW043 14/12 Q1013=
200509271950 METAR ESMX 271950Z 17010KT 8000 BR FEW011 SCT039 14/12 Q1014=
200509271920 METAR ESMX 271920Z 16010KT 8000 BR BKN012 14/12 Q1014=
200509271850 METAR ESMX 271850Z 18010KT 150V210 9000 FEW011 SCT015 14/12 Q1014=
200509271820 METAR ESMX 271820Z 18009KT 130V200 9000 BR FEW013 SCT016 BKN200 14/12 Q1014=
200509271750 METAR ESMX 271750Z 16008KT 120V200 CAVOK 14/11 Q1014=
200509271720 METAR ESMX 271720Z 17010KT 9999 SCT025 BKN110 14/11 Q1014=
200509271650 METAR ESMX 271650Z 17008KT 9999 SCT020 BKN200 15/11 Q1014=
200509271620 METAR ESMX 271620Z 18009KT 9999 FEW027 SCT033 15/11 Q1014=
200509271550 METAR ESMX 271550Z 16008KT 9999 SCT030 BKN200 16/12 Q1014=
200509271520 METAR ESMX 271520Z 17009KT 9999 FEW027 SCT040 16/11 Q1014=
200509271450 METAR ESMX 271450Z 18010KT 150V210 9999 SCT025 16/11 Q1015=
200509271420 METAR ESMX 271420Z 16010KT 9999 FEW026 SCT032 16/11 Q1015=
200509271350 METAR ESMX 271350Z 17011KT 140V200 9999 SCT029 16/11 Q1015=
200509271320 METAR ESMX 271320Z 20012KT 9999 SCT030 17/11 Q1015=
200509271250 METAR ESMX 271250Z 19009KT 150V220 9999 FEW028 SCT037 17/11 Q1016=
200509271150 METAR ESMX 271150Z 19013KT 9999 SCT035 BKN100 17/11 Q1016=
200509271120 METAR ESMX 271120Z 17013KT 9999 FEW028 BKN036 17/11 Q1016=
200509271050 METAR ESMX 271050Z 18014KT 9999 SCT027 BKN035 17/11 Q1016=
200509271020 METAR ESMX 271020Z 17012KT 130V200 9999 FEW021 SCT026 BKN033 16/11 Q1016=
200509270950 METAR ESMX 270950Z 16011KT 9999 FEW018 SCT020 15/11 Q1016=
200509270920 METAR ESMX 270920Z 18010KT 140V210 9999 FEW016 SCT020 16/11 Q1017=
200509270850 METAR ESMX 270850Z 17010KT 130V200 9999 FEW013 SCT020 15/11 Q1017=
200509270820 METAR ESMX 270820Z 17009KT 130V200 9999 SCT016 14/11 Q1017=
200509270750 METAR ESMX 270750Z 18009KT 9999 SCT011 14/11 Q1017=
200509270720 METAR ESMX 270720Z 17007KT 9999 SCT008 13/11 Q1017=
200509270650 METAR ESMX 270650Z 16007KT 110V200 9999 FEW007 BKN011 13/11 Q1017=
200509270550 METAR ESMX 270550Z 16004KT 130V200 9999 BKN018 12/11 Q1017=
200509270520 METAR ESMX 270520Z 18005KT 9999 BKN019 12/11 Q1017=
200509270450 METAR ESMX 270450Z 17005KT 140V200 8000 BR FEW016 BKN020 12/11 Q1017=
200509270420 METAR ESMX 270420Z 19008KT 9999 BR BKN008 OVC014 13/11 Q1017=
200509270350 METAR ESMX 270350Z 18006KT 7000 BR FEW009 OVC011 13/11 Q1017=
200509270320 METAR ESMX 270320Z AUTO 18007KT 6000 BR BKN007 OVC011 13/12 Q1017=
200509270250 METAR ESMX 270250Z AUTO 19008KT 5000 BR OVC006 13/12 Q1017=
200509270220 METAR ESMX 270220Z AUTO 20007KT 3800 BR FEW006 OVC008 13/12 Q1017=
200509270150 METAR ESMX 270150Z AUTO 19005KT 2000 BR FEW007 BKN008 12/12 Q1017=
200509270120 METAR ESMX 270120Z AUTO 17004KT 2800 BR FEW006 BKN008 13/12 Q1017=
200509270050 METAR ESMX 270050Z AUTO 18004KT 2700 BR FEW004 SCT006 BKN008 13/13 Q1017=
200509270020 METAR ESMX 270020Z AUTO 20008KT 2600 OVC001 13/13 Q1017=
200509262350 METAR ESMX 262350Z AUTO 19004KT 150V210 1500 OVC001 13/13 Q1017=
200509262320 METAR ESMX 262320Z AUTO 17004KT 0900 R01/P1500N R19/P1500N FG VV001 13/13 Q1017=
200509262250 METAR ESMX 262250Z 18006KT 0300 R01/0900V1300U R19/1000U FG VV002 13/13 Q1017=
200509262220 METAR ESMX 262220Z 16005KT 0150 R01/0600N R19/0650N FG VV002 13/12 Q1017=
200509262150 METAR ESMX 262150Z 17005KT 0350 R01/P1500D R19/1000VP1500D FG VV001 13/12 Q1017=
200509262120 METAR ESMX 262120Z AUTO VRB03KT 1900 BR NSC 12/12 Q1017=
200509262050 METAR ESMX 262050Z VRB03KT 3700 BR NSC 11/11 Q1017=
200509262020 METAR ESMX 262020Z VRB02KT 4800 BR NSC 12/11 Q1017=
200509261950 METAR ESMX 261950Z 15004KT 110V180 8000 BR NSC 14/12 Q1017=
200509261920 METAR ESMX 261920Z 16004KT CAVOK 13/12 Q1017=
200509261850 METAR ESMX 261850Z 17004KT CAVOK 14/12 Q1017=
200509261820 METAR ESMX 261820Z 16004KT CAVOK 13/11 Q1017=
200509261750 METAR ESMX 261750Z 16005KT CAVOK 17/13 Q1017=
200509261720 METAR ESMX 261720Z 14005KT CAVOK 16/13 Q1017=
200509261650 METAR ESMX 261650Z VRB03KT CAVOK 16/13 Q1017=
200509261620 METAR ESMX 261620Z 15004KT CAVOK 18/13 Q1016=
200509261550 METAR ESMX 261550Z 16005KT 120V200 CAVOK 19/12 Q1016=
200509261520 METAR ESMX 261520Z 15005KT 120V190 9999 FEW040 SCT080 20/13 Q1016=
200509261450 METAR ESMX 261450Z 18006KT 9999 FEW040 BKN080 20/13 Q1016=
200509261420 METAR ESMX 261420Z 15007KT 110V180 9999 FEW040 BKN080 20/13 Q1016=
200509261350 METAR ESMX 261350Z 17008KT 140V200 9999 FEW040 SCT080 21/13 Q1016=
200509261320 METAR ESMX 261320Z 16008KT 100V200 9999 FEW035 21/13 Q1016=
200509260950 METAR ESMX 260950Z 16009KT 130V210 CAVOK 18/14 Q1017=
200509260850 METAR ESMX 260850Z 15004KT 5000 BR SCT004 15/14 Q1016=
200509260820 METAR ESMX 260820Z 12004KT 2000 BR SCT001 BKN002 14/13 Q1016=
200509260750 METAR ESMX 260750Z VRB03KT 1200 R01/1300N R19/P1500U BR SCT001 BKN002 13/13 Q1016=
200509260720 METAR ESMX 260720Z 12005KT 080V150 0500 R01/0800N R19/0900V1300U FG VV002 13/13 Q1016=
200509260650 METAR ESMX 260650Z 15004KT 0350 R01/0700N R19/0900N FG VV002 13/13 Q1016=
200509260620 METAR ESMX 260620Z 16004KT 0300 R01/0650N R19/0650N FG VV002 13/12 Q1016=
200509260550 METAR ESMX 260550Z VRB03KT 0250 R01/0550N R19/0600N FG VV002 12/12 Q1016=
200509260520 METAR ESMX 260520Z 15004KT 0200 R01/0550N R19/0700N FG VV002 12/12 Q1016=
200509260450 METAR ESMX 260450Z VRB03KT 0250 R01/0600N R19/0650N FG VV002 12/12 Q1016=
200509260420 METAR ESMX 260420Z 14004KT 110V210 0250 R01/0650N R19/0800N FG VV002 12/12 Q1016=
200509260350 METAR ESMX 260350Z VRB03KT 0300 R01/0800N R19/1100D FG VV002 12/12 Q1015=
200509260320 METAR ESMX 260320Z VRB03KT 0300 R01/0900N R19/1100U FG VV002 12/12 Q1016=
200509260250 METAR ESMX 260250Z AUTO VRB02KT 0200 R01/0700N R19/1000D FG VV001 12/12 Q1016=
200509260220 METAR ESMX 260220Z AUTO VRB02KT 0250 R01/0800N R19/1300D FG VV001 12/12 Q1016=
200509260150 METAR ESMX 260150Z AUTO VRB02KT 0350 R01/1200N R19/P1500N FG VV001 12/12 Q1016=
200509260120 METAR ESMX 260120Z AUTO VRB02KT 0500 R01/P1500N R19/P1500N FG VV001 12/12 Q1016=
200509260050 METAR ESMX 260050Z AUTO VRB02KT 0400 R01/1300N R19/1400N FG VV001 12/11 Q1016=
200509260020 METAR ESMX 260020Z VRB02KT 0350 R01/0800V1000N R19/0800V1300N FG VV002 12/11 Q1016=
200509252350 METAR ESMX 252350Z VRB02KT 0400 R01/0800N R19/1000D FG VV002 12/11 Q1016=
200509252320 METAR ESMX 252320Z VRB02KT 0500 R01/1000N R19/P1500N FG VV002 12/11 Q1016=
200509252250 METAR ESMX 252250Z VRB03KT 0600 R01/P1500U R19/P1500U FG VV002 12/12 Q1016=
200509252220 METAR ESMX 252220Z VRB02KT 1200 R01/P1500N R19/P1500N BR BKN002 12/12 Q1016=
200509252150 METAR ESMX 252150Z VRB03KT 1200 R01/P1500N R19/P1500N BR BKN002 12/12 Q1016=
200509252120 METAR ESMX 252120Z VRB03KT 2000 BR BKN003 12/11 Q1016=
200509252050 METAR ESMX 252050Z 12004KT 3000 BR SCT003 12/11 Q1016=
200509252020 METAR ESMX 252020Z 12004KT 100V160 4600 BR NSC 12/12 Q1016=
200509251950 METAR ESMX 251950Z VRB03KT 6000 BR NSC 13/12 Q1016=
200509251920 METAR ESMX 251920Z 12004KT 080V160 8000 BR NSC 14/12 Q1016=
200509251850 METAR ESMX 251850Z VRB03KT 9000 BR NSC 14/12 Q1016=
200509251820 METAR ESMX 251820Z 13004KT 090V170 CAVOK 15/12 Q1016=
200509251750 METAR ESMX 251750Z 14004KT 070V170 CAVOK 15/12 Q1016=
200509251720 METAR ESMX 251720Z VRB03KT 9000 BR SKC 15/11 Q1016=
200509251650 METAR ESMX 251650Z 14005KT 100V170 CAVOK 17/11 Q1016=
200509251550 METAR ESMX 251550Z 16005KT 9999 FEW040 19/11 Q1016=
200509251520 METAR ESMX 251520Z 16007KT 130V200 9999 FEW040 20/11 Q1016=
200509251450 METAR ESMX 251450Z 15007KT 120V200 9999 FEW040 20/10 Q1016=
200509251420 METAR ESMX 251420Z 15007KT 110V190 9999 SCT045 20/11 Q1016=
200509251350 METAR ESMX 251350Z 17008KT 9999 SCT040 20/10 Q1016=
200509251320 METAR ESMX 251320Z 16007KT 120V200 9999 FEW040 21/11 Q1016=
200509251250 METAR ESMX 251250Z 16008KT 9999 FEW040 21/11 Q1017=
200509251220 METAR ESMX 251220Z AUTO 16008KT 120V210 9999 NSC 21/11 Q1017=
200509251150 METAR ESMX 251150Z AUTO 15009KT 110V200 9999 NSC 20/11 Q1017=
200509251120 METAR ESMX 251120Z AUTO 16007KT 100V200 9999 NSC 20/12 Q1017=
200509251050 METAR ESMX 251050Z AUTO 15006KT 100V210 9999 NSC 19/12 Q1018=
200509251020 METAR ESMX 251020Z AUTO 14006KT 100V190 9999 NSC 19/12 Q1018=
200509250950 METAR ESMX 250950Z AUTO 15006KT 080V170 9999 NSC 17/12 Q1018=
200509250920 METAR ESMX 250920Z AUTO 14005KT 110V180 9999 NSC 16/13 Q1018=
200509250850 METAR ESMX 250850Z AUTO 14004KT 070V200 7000 NSC 15/13 Q1018=
200509250820 METAR ESMX 250820Z AUTO 14005KT 100V180 2700 NSC 13/13 Q1018=
200509250750 METAR ESMX 250750Z AUTO 14004KT 100V180 0600 R01/0900U R19/P1500U FG FEW002 12/12 Q1018=
200509250720 METAR ESMX 250720Z AUTO 14005KT 110V170 0400 R01/0650D R19/P1500D FG FEW002 12/11 Q1018=
200509250650 METAR ESMX 250650Z AUTO VRB03KT 2500 NSC 11/11 Q1018=
200509250620 METAR ESMX 250620Z AUTO VRB02KT 3200 NSC 08/08 Q1018=
200509250550 METAR ESMX 250550Z AUTO VRB01KT 0200 R01/0450N R19/0375V0550N FG NSC 07/07 Q1018=
200509250520 METAR ESMX 250520Z AUTO 00000KT 0150 R01/0350N R19/0325N FG NSC 07/06 Q1018=
200509250450 METAR ESMX 250450Z AUTO 00000KT 0050 R01/0250N R19/0375N FG NSC 07/07 Q1018=
200509250420 METAR ESMX 250420Z AUTO 00000KT 0050 R01/0250N R19/0275N FG NSC 08/08 Q1018=
200509250350 METAR ESMX 250350Z AUTO 00000KT 0050 R01/0300N R19/0300N FG SCT000 08/08 Q1018=
200509250320 METAR ESMX 250320Z AUTO 00000KT 0050 R01/0250N R19/0375N FG VV000 09/08 Q1018=
200509250250 METAR ESMX 250250Z AUTO 00000KT 0050 R01/0300N R19/0450N FG VV000 09/09 Q1018=
200509250220 METAR ESMX 250220Z AUTO 00000KT 0100 R01/0400N R19/0450N FG VV000 10/09 Q1018=
200509250150 METAR ESMX 250150Z AUTO VRB01KT 0050 R01/0350N R19/0400N FG VV000 10/10 Q1019=
200509250120 METAR ESMX 250120Z AUTO VRB01KT 0050 R01/0350N R19/0350N FG VV000 10/10 Q1019=
200509250050 METAR ESMX 250050Z AUTO VRB01KT 0100 R01/0400N R19/0400V0600N FG VV000 11/10 Q1019=
200509250020 METAR ESMX 250020Z AUTO VRB01KT 0150 R01/0650N R19/0550N FG VV001 11/11 Q1019=
200509242350 METAR ESMX 242350Z AUTO VRB01KT 0100 R01/0550N R19/0700D FG VV001 11/11 Q1019=
200509242320 METAR ESMX 242320Z AUTO VRB01KT 0100 R01/0550N R19/0600V0900N FG VV000 12/11 Q1019=
200509242250 METAR ESMX 242250Z AUTO VRB03KT 0200 R01/0750N R19/1000U FG VV001 12/11 Q1019=
200509242220 METAR ESMX 242220Z AUTO VRB02KT 0150 R01/0700VP1500U R19/0400VP1500U FG NSC 11/10 Q1019=
200509242150 METAR ESMX 242150Z AUTO VRB0NSC 11/10 Q1019=
200509242120 METAR ESMX 242120Z AUTO VRB03KT 2800 BR NSC 11/11 Q1019=
200509242050 METAR ESMX 242050Z AUTO VRB02KT 6000 BR NSC 11/10 Q1019=
200509242020 METAR ESMX 242020Z AUTO 14005KT 110V170 8000 BR NSC 13/12 Q1019=
200509241950 METAR ESMX 241950Z AUTO 15005KT 9000 BR NSC 13/12 Q1019=
200509241920 METAR ESMX 241920Z AUTO 16004KT 9999 NSC 13/11 Q1019=
200509241850 METAR ESMX 241850Z AUTO 16004KT 9999 NSC 14/12 Q1019=
200509241820 METAR ESMX 241820Z AUTO 17004KT 9999 NSC 13/11 Q1019=
200509241750 METAR ESMX 241750Z AUTO 17004KT 9999 NSC 16/12 Q1018=
200509241720 METAR ESMX 241720Z AUTO 16005KT 9999 NSC 17/13 Q1018=
200509241650 METAR ESMX 241650Z AUTO 14005KT 9999 NSC 16/13 Q1018=
200509241620 METAR ESMX 241620Z AUTO 15005KT 110V190 9999 NSC 18/13 Q1018=
200509241550 METAR ESMX 241550Z AUTO 16005KT 9999 NSC 19/13 Q1018=
200509241520 METAR ESMX 241520Z AUTO 18005KT 9999 NSC 20/13 Q1017=
200509241450 METAR ESMX 241450Z AUTO 16005KT 9999 FEW037 19/13 Q1017=
200509241420 METAR ESMX 241420Z AUTO 14005KT 110V190 9999 FEW041 SCT059 20/13 Q1017=
200509241350 METAR ESMX 241350Z AUTO 16006KT 9999 FEW032 20/13 Q1018=
200509241320 METAR ESMX 241320Z AUTO 17008KT 140V200 9999 NSC 21/13 Q1017=
200509241250 METAR ESMX 241250Z AUTO 15006KT 120V190 9999 NSC 20/13 Q1017=
200509241220 METAR ESMX 241220Z AUTO 16008KT 120V190 9999 NSC 20/12 Q1017=
200509241150 METAR ESMX 241150Z AUTO 16008KT 110V200 9999 NSC 20/13 Q1017=
200509241120 METAR ESMX 241120Z AUTO 16008KT 120V190 9999 NSC 20/12 Q1018=
200509241050 METAR ESMX 241050Z AUTO 15008KT 120V190 9999 NSC 20/12 Q1018=
200509241020 METAR ESMX 241020Z AUTO 16008KT 9999 NSC 19/12 Q1018=
200509240950 METAR ESMX 240950Z AUTO 16007KT 130V200 9999 NSC 18/13 Q1018=
200509240920 METAR ESMX 240920Z 16006KT CAVOK 17/13 Q1018=
200509240850 METAR ESMX 240850Z 16006KT 100V190 CAVOK 16/13 Q1017=
200509240820 METAR ESMX 240820Z 15006KT 9999 FEW020 15/13 Q1017=
200509240750 METAR ESMX 240750Z 16006KT 9999 BR NSC 14/13 Q1017=
200509240720 METAR ESMX 240720Z 16005KT 3700 SCT004 12/12 Q1017=
200509240650 METAR ESMX 240650Z 15005KT 120V190 1800 BR BKN002 12/11 Q1017=
200509240620 METAR ESMX 240620Z AUTO 16005KT 130V190 0700 R01/1000N R19/P1500N FG FEW001 11/11 Q1017=
200509240550 METAR ESMX 240550Z AUTO 15006KT 120V190 1200 R01/P1500D R19/P1500D BR FEW002 11/11 Q1017=
200509240520 METAR ESMX 240520Z AUTO 15004KT 120V190 2000 BR NSC 11/10 Q1016=
200509240450 METAR ESMX 240450Z AUTO 16005KT 130V200 3100 BR NSC 11/10 Q1016=
200509240420 METAR ESMX 240420Z AUTO 15005KT 110V170 3100 BR NSC 11/10 Q1016=
200509240350 METAR ESMX 240350Z AUTO 16005KT 3600 BR NSC 11/11 Q1016=
200509240320 METAR ESMX 240320Z AUTO 15006KT 4700 BR NSC 11/10 Q1016=
200509240250 METAR ESMX 240250Z AUTO 15005KT 120V190 5000 BR NSC 11/10 Q1016=
200509240220 METAR ESMX 240220Z AUTO 15005KT 6000 BR NSC 11/10 Q1017=
200509240150 METAR ESMX 240150Z AUTO 16005KT 8000 BR NSC 11/10 Q1017=
200509240120 METAR ESMX 240120Z AUTO 15006KT 9000 NSC 11/10 Q1017=
200509240050 METAR ESMX 240050Z AUTO 15006KT 120V180 9000 NSC 11/10 Q1017=
200509240020 METAR ESMX 240020Z AUTO 15005KT 110V170 9999 NSC 11/10 Q1017=
200509232350 METAR ESMX 232350Z AUTO 15005KT 9999 NSC 11/10 Q1017=
200509232320 METAR ESMX 232320Z AUTO 14006KT 100V170 9999 NSC 11/10 Q1017=
200509232250 METAR ESMX 232250Z AUTO 14006KT 110V190 9999 NSC 11/10 Q1018=
200509232220 METAR ESMX 232220Z AUTO 14005KT 090V170 9999 NSC 11/10 Q1018=
200509232150 METAR ESMX 232150Z AUTO 13005KT 100V160 9999 NSC 11/10 Q1018=
200509232120 METAR ESMX 232120Z AUTO 15005KT 9999 NSC 11/10 Q1018=
200509232050 METAR ESMX 232050Z AUTO 14005KT 110V190 9999 NSC 11/10 Q1018=
200509232020 METAR ESMX 232020Z AUTO 15005KT 9999 NSC 12/10 Q1018=
200509231950 METAR ESMX 231950Z 14005KT 110V170 CAVOK 12/10 Q1019=
200509231920 METAR ESMX 231920Z 14005KT 100V170 CAVOK 12/11 Q1019=
200509231850 METAR ESMX 231850Z 14005KT 100V180 CAVOK 13/11 Q1019=
200509231820 METAR ESMX 231820Z 16006KT CAVOK 13/11 Q1019=
200509231750 METAR ESMX 231750Z 16006KT CAVOK 14/11 Q1019=
200509231720 METAR ESMX 231720Z 16006KT 120V210 CAVOK 14/10 Q1019=
200509231650 METAR ESMX 231650Z 16005KT CAVOK 15/10 Q1019=
200509231620 METAR ESMX 231620Z 15006KT CAVOK 16/10 Q1019=
200509231550 METAR ESMX 231550Z 15007KT 110V170 CAVOK 17/10 Q1019=
200509231520 METAR ESMX 231520Z 16007KT 120V190 CAVOK 17/10 Q1019=
200509231450 METAR ESMX 231450Z 17009KT 140V200 9999 FEW037 18/10 Q1019=
200509231420 METAR ESMX 231420Z 17007KT 140V200 9999 FEW035 SCT041 18/11 Q1020=
200509231350 METAR ESMX 231350Z 17007KT 140V210 9999 SCT035 18/10 Q1020=
200509231320 METAR ESMX 231320Z 17009KT 130V200 9999 FEW034 SCT041 18/11 Q1020=
200509231250 METAR ESMX 231250Z 16007KT 110V210 9999 SCT035 18/11 Q1021=
200509231220 METAR ESMX 231220Z 15008KT 100V190 9999 SCT035 18/11 Q1021=
200509231150 METAR ESMX 231150Z 16008KT 120V200 9999 SCT025 18/11 Q1021=
200509231120 METAR ESMX 231120Z 14008KT 080V170 9999 FEW016 SCT028 18/12 Q1021=
200509231050 METAR ESMX 231050Z 16006KT 120V210 9999 FEW014 SCT017 17/13 Q1022=
200509231020 METAR ESMX 231020Z 15005KT 120V180 9999 FEW009 BKN011 15/12 Q1022=
200509230950 METAR ESMX 230950Z 15005KT 090V210 9999 FEW007 SCT009 BKN011 15/12 Q1022=
200509230920 METAR ESMX 230920Z 15004KT 120V190 8000 BR FEW004 BKN005 OVC007 13/12 Q1023=
200509230850 METAR ESMX 230850Z 15005KT 120V180 5000 BR BKN003 13/12 Q1023=
200509230820 METAR ESMX 230820Z 13004KT 060V170 2700 BR OVC002 12/12 Q1023=
200509230750 METAR ESMX 230750Z 13004KT 090V180 3300 BR OVC002 12/11 Q1023=
200509230720 METAR ESMX 230720Z 16004KT 120V190 4900 BR BKN003 11/11 Q1023=
200509230650 METAR ESMX 230650Z 15004KT 2000 BR BKN002 11/11 Q1023=
200509230620 METAR ESMX 230620Z VRB03KT 0750 R01/1100N R19/1100N FG VV002 11/11 Q1023=
200509230550 METAR ESMX 230550Z VRB03KT 0500 R01/0800V1100D R19/0900V1400N FG VV002 11/11 Q1023=
200509230520 METAR ESMX 230520Z 16005KT 110V190 0600 R01/1100VP1500N R19/1100VP150 0N FG VV002 11/11 Q1023=
200509230450 METAR ESMX 230450Z VRB03KT 0550 R19/P1500N FG VV0012 11/11 Q1023=
200509230420 METAR ESMX 230420Z VRB03KT 0800 R19/P1500N FG VV002 11/10 Q1024=
200509230350 METAR ESMX 230350Z VRB03KT 1500 BR OVC000 11/11 Q1024=
200509230320 METAR ESMX 230320Z AUTO VRB03KT 1000 R01/P1500N R19/P1500N OVC001 11/11 Q1024=
200509230250 METAR ESMX 230250Z AUTO VRB03KT 0900 R01/P1500N R19/P1500N FG OVC001 11/11 Q1024=
200509230220 METAR ESMX 230220Z AUTO VRB03KT 1800 OVC000 11/11 Q1024=
200509230150 METAR ESMX 230150Z AUTO 17004KT 0450 R01/1400U R19/1400D FG VV001 11/11 Q1024=
200509230120 METAR ESMX 230120Z AUTO VRB03KT 0300 R01/1000N R19/1200N FG VV001 11/11 Q1024=
200509230050 METAR ESMX 230050Z AUTO VRB03KT 0600 R01/P1500D R19/P1500N FG VV002 10/10 Q1025=
200509230020 METAR ESMX 230020Z VRB02KT 6000 BR FEW003 BKN005 08/08 Q1025=
200509222350 METAR ESMX 222350Z VRB02G30KT 8000 R19/0200V0500N BCFG FEW008 07/06 Q1025=
200509222320 METAR ESMX 222320Z VRB02KT 8000 R19/0350VP1500N BCFG SKC 07/07 Q1025=
200509222250 METAR ESMX 222250Z VRB03KT 8000 MIFG SKC 09/08 Q1025=
200509222220 METAR ESMX 222220Z VRB03KT 8000 BR SKC 10/09 Q1025=
200509222150 METAR ESMX 222150Z 13004KT CAVOK 10/10 Q1025=
200509222120 METAR ESMX 222120Z 13004KT 9999 FEW036 10/09 Q1025=
200509222050 METAR ESMX 222050Z 13004KT 090V160 9999 SCT035 10/10 Q1025=
200509222020 METAR ESMX 222020Z VRB03KT 9999 SCT034 11/10 Q1025=
200509221950 METAR ESMX 221950Z 15004KT 9999 OVC033 13/11 Q1025=
200509221920 METAR ESMX 221920Z 16004KT 9999 OVC032 13/11 Q1026=
200509221850 METAR ESMX 221850Z VRB03KT 9999 OVC031 13/11 Q1026=
200509221820 METAR ESMX 221820Z VRB03KT 9999 OVC030 14/10 Q1025=
200509221750 METAR ESMX 221750Z VRB03KT 9999 OVC029 14/10 Q1025=
200509221720 METAR ESMX 221720Z 15004KT 9999 OVC027 14/11 Q1025=
200509221650 METAR ESMX 221650Z 16004KT 9999 OVC031 14/11 Q1025=
200509221620 METAR ESMX 221620Z VRB03KT 9999 OVC034 14/11 Q1025=
200509221550 METAR ESMX 221550Z VRB03KT 9999 OVC035 15/11 Q1026=
200509221520 METAR ESMX 221520Z 15004KT 9999 OVC035 15/11 Q1026=
200509221450 METAR ESMX 221450Z 17005KT 9999 OVC033 15/11 Q1026=
200509221420 METAR ESMX 221420Z 18008KT 9999 OVC034 15/11 Q1026=
200509221350 METAR ESMX 221350Z 19009KT 9999 OVC034 15/11 Q1026=
200509221320 METAR ESMX 221320Z 17009KT 9999 OVC040 16/11 Q1026=
200509221250 METAR ESMX 221250Z 20009KT 9999 OVC037 16/09 Q1026=
200509221220 METAR ESMX 221220Z 19007KT 9999 FEW026 SCT032 BKN045 16/10 Q1026=
200509221150 METAR ESMX 221150Z 16008KT 120V200 9999 BKN027 BKN044 17/10 Q1026=
200509221120 METAR ESMX 221120Z 19007KT 140V200 9999 FEW024 SCT029 BKN043 17/11 Q1027=
200509221050 METAR ESMX 221050Z VRB03KT 9999 FEW020 BKN024 BKN046 17/11 Q1027=
200509221020 METAR ESMX 221020Z VRB03KT 9999 FEW019 SCT022 16/11 Q1027=
200509220950 METAR ESMX 220950Z 14004KT 090V200 9999 FEW017 16/11 Q1027=
200509220920 METAR ESMX 220920Z VRB03KT 9999 FEW020 14/12 Q1027=
200509220850 METAR ESMX 220850Z VRB03KT 9999 FEW002 SCT004 13/11 Q1027=
200509220820 METAR ESMX 220820Z VRB02KT 1100 R01/P1500U R19/P1500U BCFG OVC002 12/11 Q1027=
200509220750 METAR ESMX 220750Z VRB03KT 0300 R01/0400V0600N R19/P1500D FG BKN002 11/10 Q1027=
200509220720 METAR ESMX 220720Z VRB02KT 3800 BCFG SCT001 10/10 Q1027=
200509220650 METAR ESMX 220650Z 00000KT 0500 R01/0800V1300U R19/0225N BCFG SCT002 08/08 Q1027=
200509220620 METAR ESMX 220620Z 00000KT 0100 R01/0300N R19/0325V0500N FG VV002 06/06 Q1027=
200509220550 METAR ESMX 220550Z 00000KT 0200 R01/0650U R19/0350V0500U FG OVC002 05/05 Q1027=
200509220520 METAR ESMX 220520Z 00000KT 1000 R01/0750VP1500D R19/P1500D BCFG OVC002 04/04 Q1026=
200509220450 METAR ESMX 220450Z 00000KT 0600 R19/1000VP1500N BCFG SCT015 04/04 Q1026=
200509220420 METAR ESMX 220420Z VRB02KT 0300 R19/0750N FG VV001 03/02 Q1026=
200509220350 METAR ESMX 220350Z VRB01KT 0300 R19/0800U FG VV001 03/02 Q1026=
200509220320 METAR ESMX 220320Z AUTO VRB02KT 0150 R01/0650N R19/0500D FG VV000 03/03 Q1026=
200509220250 METAR ESMX 220250Z AUTO VRB02KT 0500 R01/P1500N R19/P1500U FG VV000 03/02 Q1026=
200509220220 METAR ESMX 220220Z AUTO VRB02KT 0150 R01/0500N R19/0350V0550D FG VV001 02/02 Q1026=
200509220150 METAR ESMX 220150Z AUTO VRB01KT 0200 R01/0650V1100D R19/0800V1000U FG NSC 02/02 Q1026=
200509220120 METAR ESMX 220120Z AUTO VRB02KT 0800 R01/P1500N R19/0375V0700N FG FEW000 03/02 Q1026=
200509220050 METAR ESMX 220050Z AUTO VRB01KT 0300 R01/P1500U R19/P1500U BCFG NSC 03/02 Q1026=
200509220020 METAR ESMX 220020Z AUTO VRB01KT 0900 R01/P1500N R19/P1500N NSC 03/03 Q1026=
200509212320 METAR ESMX 212320Z VRB01KT 9000 BR SKC 04/03 Q1026=
200509212250 METAR ESMX 212250Z VRB03KT 9000 BR SKC 05/04 Q1026=
200509212220 METAR ESMX 212220Z 00000KT 9000 BR FEW022 05/04 Q1026=
200509212150 METAR ESMX 212150Z VRB03KT 9000 BR FEW023 06/05 Q1026=
200509212120 METAR ESMX 212120Z VRB01KT 9999 FEW028 07/06 Q1026=
200509212050 METAR ESMX 212050Z VRB03KT 9999 FEW025 07/06 Q1026=
200509212020 METAR ESMX 212020Z VRB03KT CAVOK 08/06 Q1026=
200509211950 METAR ESMX 211950Z 21005KT CAVOK 08/07 Q1025=
200509211920 METAR ESMX 211920Z VRB03KT CAVOK 07/06 Q1025=
200509211850 METAR ESMX 211850Z VRB03KT CAVOK 08/07 Q1025=
200509211820 METAR ESMX 211820Z VRB03KT CAVOK 08/07 Q1025=
200509211750 METAR ESMX 211750Z VRB03KT CAVOK 09/07 Q1025=
200509211720 METAR ESMX 211720Z VRB03KT CAVOK 12/08 Q1025=
200509211650 METAR ESMX 211650Z 23004KT CAVOK 13/09 Q1025=
200509211620 METAR ESMX 211620Z 24006KT CAVOK 15/09 Q1024=
200509211550 METAR ESMX 211550Z 25008KT 9999 FEW035 16/09 Q1024=
200509211520 METAR ESMX 211520Z 24008KT 200V270 9999 FEW035 17/09 Q1024=
200509211450 METAR ESMX 211450Z 27008KT 230V290 9999 FEW040 17/09 Q1024=
200509211420 METAR ESMX 211420Z 26009KT 210V290 CAVOK 17/09 Q1025=
200509211350 METAR ESMX 211350Z 23008KT 200V280 9999 SCT037 16/08 Q1025=
200509211320 METAR ESMX 211320Z 24006KT 210V280 9999 SCT040 16/09 Q1025=
200509211250 METAR ESMX 211250Z 24009KT 190V260 9999 FEW036 SCT042 17/09 Q1025=
200509211220 METAR ESMX 211220Z 25007KT 210V290 9999 FEW037 SCT040 17/09 Q1025=
200509211150 METAR ESMX 211150Z 23007KT 190V260 9999 SCT032 15/09 Q1025=
200509211120 METAR ESMX 211120Z 23008KT 200V280 9999 SCT032 16/09 Q1025=
200509211050 METAR ESMX 211050Z 23007KT 180V280 9999 SCT030 16/09 Q1025=
200509211020 METAR ESMX 211020Z 24008KT 200V270 9999 FEW030 SCT035 16/10 Q1025=
200509210950 METAR ESMX 210950Z 25007KT 230V290 9999 SCT028 14/09 Q1025=
200509210920 METAR ESMX 210920Z 23007KT 9999 FEW019 SCT030 14/09 Q1025=
200509210850 METAR ESMX 210850Z 30006KT 270V330 9999 FEW020 SCT025 13/10 Q1025=
200509210820 METAR ESMX 210820Z VRB06KT 9999 FEW010 SCT015 BKN018 13/11 Q1025=
200509210750 METAR ESMX 210750Z VRB03KT 9999 FEW005 SCT006 BKN016 12/11 Q1025=
200509210720 METAR ESMX 210720Z 23005KT 9999 FEW003 SCT005 BKN020 11/11 Q1025=
200509210650 METAR ESMX 210650Z 24005KT 6000 BR SCT001 11/10 Q1025=
200509210620 METAR ESMX 210620Z 22004KT 0450 R01/0800N R19/0800N FG VV002 10/10 Q1024=
200509210550 METAR ESMX 210550Z 22004KT 0400 R01/0750D R19/0500D FG VV002 10/10 Q1024=
200509210520 METAR ESMX 210520Z 23004KT 0400 R01/P1000 R19/0800D FG VV002 09/09 Q1024=
200509210450 METAR ESMX 210450Z 21004KT 2500 BCFG FEW011 BKN014 09/09 Q1024=
200509210420 METAR ESMX 210420Z 18004KT 0800 R01/0400V0550N R19/0450N BCFG FEW001 SCT011 07/07 Q1024=
200509210350 METAR ESMX 210350Z 18004KT 2000 BCFG NSC 09/09 Q1023=
200509210320 METAR ESMX 210320Z 19005KT 1400 R01/P1500N R19/P1500N BR NSC 09/09 Q1023=
200509210250 METAR ESMX 210250Z AUTO 22005KT 4200 BR NSC 10/09 Q1023=
200509210220 METAR ESMX 210220Z AUTO 18006KT 4500 BR SCT017 10/10 Q1023=
200509210150 METAR ESMX 210150Z AUTO 18006KT 3400 BR NSC 09/09 Q1023=
200509210120 METAR ESMX 210120Z AUTO 18006KT 5000 BR NSC 10/10 Q1023=
200509210050 METAR ESMX 210050Z AUTO 18006KT 7000 BR NSC 10/09 Q1023=
200509210020 METAR ESMX 210020Z 20005KT 9999 FEW016 BKN043 11/10 Q1023=
200509202350 METAR ESMX 202350Z 19005KT 9999 BKN042 11/10 Q1023=
200509202320 METAR ESMX 202320Z 20006KT 9999 BKN041 12/11 Q1022=
200509202250 METAR ESMX 202250Z 20006KT 9999 FEW032 BKN039 12/11 Q1022=
200509202220 METAR ESMX 202220Z 20006KT 9999 BKN037 12/10 Q1022=
200509202150 METAR ESMX 202150Z 20006KT 9999 SCT039 11/10 Q1022=
200509202120 METAR ESMX 202120Z 19007KT CAVOK 11/10 Q1022=
200509202050 METAR ESMX 202050Z 19008KT 9999 FEW039 12/10 Q1022=
200509202020 METAR ESMX 202020Z 19008KT 9999 BKN037 12/11 Q1022=
200509201950 METAR ESMX 201950Z 19007KT 9999 BKN037 11/10 Q1022=
200509201920 METAR ESMX 201920Z 17006KT 9999 FEW040 11/10 Q1022=
200509201850 METAR ESMX 201850Z 17006KT 9999 FEW032 12/10 Q1022=
200509201820 METAR ESMX 201820Z 17005KT 9999 FEW030 12/10 Q1022=
200509201750 METAR ESMX 201750Z 19005KT 9999 FEW034 12/10 Q1022=
200509201720 METAR ESMX 201720Z 19006KT 9999 FEW035 13/11 Q1022=
200509201650 METAR ESMX 201650Z 20008KT 170V240 9999 FEW035 SCT200 14/11 Q1022=
200509201620 METAR ESMX 201620Z 20008KT 9999 FEW033 SCT037 15/11 Q1022=
200509201550 METAR ESMX 201550Z 22007KT 180V240 9999 FEW021 OVC031 15/11 Q1022=
200509201520 METAR ESMX 201520Z 22007KT 190V250 9999 SCT025 BKN028 15/11 Q1022=
200509201450 METAR ESMX 201450Z 20009KT 170V240 9999 FEW028 OVC033 15/11 Q1022=
200509201420 METAR ESMX 201420Z 20007KT 160V220 9999 OVC031 16/11 Q1022=
200509201350 METAR ESMX 201350Z 22007KT 190V280 9999 FEW026 OVC032 16/11 Q1022=
200509201320 METAR ESMX 201320Z 24005KT 200V260 9999 OVC031 15/11 Q1023=
200509201250 METAR ESMX 201250Z 24008KT 9999 FEW025 OVC031 15/11 Q1023=
200509201220 METAR ESMX 201220Z 24005KT 9999 FEW025 OVC029 15/11 Q1023=
200509201150 METAR ESMX 201150Z 26006KT 210V280 9999 OVC025 15/11 Q1023=
200509201120 METAR ESMX 201120Z 23008KT 170V260 9999 OVC022 15/11 Q1023=
200509201050 METAR ESMX 201050Z 24009KT 9999 OVC025 15/11 Q1023=
200509201020 METAR ESMX 201020Z 22010KT 9999 BKN029 15/11 Q1023=
200509200950 METAR ESMX 200950Z 23009KT 210V280 9999 SCT028 16/11 Q1023=
200509200920 METAR ESMX 200920Z 25010KT 210V280 CAVOK 16/10 Q1023=
200509200850 METAR ESMX 200850Z 23008KT 200V270 9999 FEW020 15/10 Q1023=
200509200820 METAR ESMX 200820Z 24009KT 210V270 9999 FEW015 SCT020 15/11 Q1023=
200509200750 METAR ESMX 200750Z 24008KT 210V290 9999 FEW012 SCT028 15/11 Q1023=
200509200720 METAR ESMX 200720Z 23006KT 200V260 9999 FEW011 OVC023 13/11 Q1023=
200509200650 METAR ESMX 200650Z 23008KT 9999 OVC022 13/11 Q1023=
200509200620 METAR ESMX 200620Z 22007KT 190V250 9999 OVC024 13/12 Q1023=
200509200550 METAR ESMX 200550Z 20005KT 9999 OVC024 13/12 Q1023=
200509200520 METAR ESMX 200520Z 23006KT 9999 OVC023 13/12 Q1023=
200509200450 METAR ESMX 200450Z 22005KT 9999 OVC024 13/11 Q1023=
200509200420 METAR ESMX 200420Z 22006KT 9999 FEW006 OVC024 13/12 Q1023=
200509200350 METAR ESMX 200350Z 21005KT 180V250 9000 FEW005 BKN007 OVC015 13/12 Q1023=
200509200320 METAR ESMX 200320Z 21005KT 9999 SCT006 BKN009 OVC026 13/12 Q1023=
200509200250 METAR ESMX 200250Z AUTO 21005KT 9999 FEW006 OVC025 13/12 Q1023=
200509200220 METAR ESMX 200220Z AUTO 21006KT 9999 OVC024 13/12 Q1023=
200509200020 METAR ESMX 200020Z 19005KT 9999 FEW007 SCT009 OVC021 13/11 Q1024=
200509192350 METAR ESMX 192350Z 19004KT 9999 OVC020 13/11 Q1024=
200509192320 METAR ESMX 192320Z VRB03KT 9999 OVC021 13/11 Q1024=
200509192220 METAR ESMX 192220Z 24004KT 9999 OVC015 13/11 Q1024=
200509192150 METAR ESMX 192150Z 26004KT 9999 OVC015 13/11 Q1024=
200509192120 METAR ESMX 192120Z 25006KT 210V290 9999 OVC014 13/11 Q1024=
200509192050 METAR ESMX 192050Z 28005KT 9999 OVC015 13/10 Q1024=
200509192020 METAR ESMX 192020Z 28004KT 9999 OVC015 13/10 Q1024=
200509191950 METAR ESMX 191950Z 28006KT 9999 BKN015 13/10 Q1024=
200509191920 METAR ESMX 191920Z 25007G25KT 210V280 9999 OVC015 13/10 Q1024=
200509191820 METAR ESMX 191820Z 26005KT 210V300 9999 OVC014 13/11 Q1024=
200509191750 METAR ESMX 191750Z 27007KT 240V310 9999 OVC014 13/11 Q1024=
200509191720 METAR ESMX 191720Z 26006KT 220V320 9999 OVC014 14/11 Q1024=
200509191650 METAR ESMX 191650Z 26006KT 230V300 9999 OVC017 14/11 Q1024=
200509191620 METAR ESMX 191620Z 28007G21KT 250V330 9999 SCT016 BKN020 14/11 Q1024=
200509191550 METAR ESMX 191550Z 29006KT 230V320 9999 OVC017 14/11 Q1024=
200509191520 METAR ESMX 191520Z 25007KT 220V300 9999 FEW016 OVC019 15/12 Q1024=
200509191450 METAR ESMX 191450Z 24007KT 190V290 9999 OVC018 15/12 Q1024=
200509191420 METAR ESMX 191420Z 27006KT 230V300 9999 OVC021 15/11 Q1024=
200509191350 METAR ESMX 191350Z 25009KT 210V300 9999 BKN019 15/11 Q1025=
200509191320 METAR ESMX 191320Z 28008KT 240V320 9999 BKN019 15/11 Q1025=
200509191250 METAR ESMX 191250Z 28007KT 210V340 9999 FEW016 BKN020 15/11 Q1025=
200509191220 METAR ESMX 191220Z 25008KT 220V290 9999 BKN016 15/12 Q1025=
200509191150 METAR ESMX 191150Z 26010KT 210V290 9999 BKN014 OVC019 15/11 Q1024=
200509191120 METAR ESMX 191120Z 26009KT 230V300 9999 BKN013 15/12 Q1024=
200509191050 METAR ESMX 191050Z 26008KT 220V320 9999 BKN011 OVC016 14/12 Q1024=
200509191020 METAR ESMX 191020Z 27009KT 220V290 9999 OVC012 14/12 Q1024=
200509190950 METAR ESMX 190950Z 26009KT 220V290 9999 OVC011 14/12 Q1024=
200509190920 METAR ESMX 190920Z 26008KT 230V300 9999 OVC009 14/12 Q1024=
200509190850 METAR ESMX 190850Z 26006KT 200V320 9999 OVC009 14/12 Q1024=
200509190820 METAR ESMX 190820Z 26008KT 230V300 9999 FEW008 OVC010 14/12 Q1024=
200509190750 METAR ESMX 190750Z 26008KT 220V310 9999 OVC011 14/11 Q1024=
200509190720 METAR ESMX 190720Z 25010KT 230V290 9999 OVC011 13/11 Q1024=
200509190650 METAR ESMX 190650Z 26007KT 220V290 9999 BKN010 OVC015 13/11 Q1024=
200509190620 METAR ESMX 190620Z 26008KT 220V320 9999 OVC010 13/11 Q1024=
200509190520 METAR ESMX 190520Z 25006KT 220V290 9999 OVC010 13/11 Q1023=
200509190450 METAR ESMX 190450Z 26008KT 230V290 9999 OVC010 13/11 Q1023=
200509190420 METAR ESMX 190420Z 27007KT 230V320 9999 OVC010 13/11 Q1023=
200509190350 METAR ESMX 190350Z 26007KT 210V290 9999 OVC011 13/11 Q1023=
200509190320 METAR ESMX 190320Z AUTO 27008KT 230V310 9999 OVC011 13/11 Q1022=
200509190250 METAR ESMX 190250Z AUTO 27006KT 230V320 9999 OVC011 13/11 Q1022=
200509190220 METAR ESMX 190220Z AUTO 27009KT 240V300 9999 OVC011 13/11 Q1022=
200509190150 METAR ESMX 190150Z AUTO 27007KT 210V320 9999 OVC012 13/11 Q1023=
200509190120 METAR ESMX 190120Z AUTO 25007KT 210V280 9999 OVC011 13/11 Q1022=
200509190050 METAR ESMX 190050Z AUTO 25006KT 210V290 9999 OVC011 13/11 Q1022=
200509190020 METAR ESMX 190020Z 26007KT 210V290 9999 OVC012 13/11 Q1022=
200509182350 METAR ESMX 182350Z AUTO 26005KT 230V310 9999 OVC012 13/11 Q1022=
200509182320 METAR ESMX 182320Z 26006KT 190V300 9999 OVC013 13/11 Q1022=
200509182250 METAR ESMX 182250Z AUTO 24007KT 200V320 9999 BKN011 OVC016 13/11 Q1022=
200509182220 METAR ESMX 182220Z 26008KT 210V320 9999 OVC012 13/11 Q1022=
200509182150 METAR ESMX 182150Z AUTO 26008KT 220V290 9999 OVC011 13/11 Q1022=
200509182120 METAR ESMX 182120Z AUTO 25007KT 200V290 9999 OVC010 13/11 Q1022=
200509182050 METAR ESMX 182050Z 26008KT 9999 OVC010 13/11 Q1021=
200509182020 METAR ESMX 182020Z 23007KT 190V270 9999 BKN010 13/11 Q1021=
200509181950 METAR ESMX 181950Z 24008KT 200V280 9999 FEW008 SCT011 BKN013 13/11 Q1021=
200509181920 METAR ESMX 181920Z 23007KT 200V270 7000 BR FEW010 SCT015 OVC020 13/12 Q1021=
200509181850 METAR ESMX 181850Z 25008KT 220V280 9999 FEW008 SCT011 BKN014 13/12 Q1021=
200509181820 METAR ESMX 181820Z 25007KT 6000 BR FEW007 SCT010 BKN014 13/12 Q1020=
200509181750 METAR ESMX 181750Z 25009KT 190V280 9000 BR FEW006 SCT010 BKN013 13/12 Q1020=
200509181720 METAR ESMX 181720Z 24008KT 200V260 4200 -SHRA BR BKN005 12/12 Q1020=
200509181650 METAR ESMX 181650Z 22007KT 8000 -RA BKN005 OVC007 12/12 Q1019=
200509181620 METAR ESMX 181620Z 22009KT 4800 -RA OVC004 12/11 Q1019=
200509181550 METAR ESMX 181550Z 23008KT 3300 -RA BKN004 OVC006 12/11 Q1019=
200509181520 METAR ESMX 181520Z 22011KT 9999 -RA BKN005 OVC008 12/11 Q1019=
200509181420 METAR ESMX 181420Z 20012KT 4400 DZ BKN006 OVC010 11/10 Q1019=
200509181350 METAR ESMX 181350Z 20012KT 3100 BR OVC008 11/10 Q1019=
200509181320 METAR ESMX 181320Z 20013KT 6000 -DZ FEW009 OVC010 11/10 Q1019=
200509181250 METAR ESMX 181250Z 20015KT 9999 OVC011 11/09 Q1019=
200509181220 METAR ESMX 181220Z AUTO 21014KT 9999 OVC011 11/09 Q1020=
200509181150 METAR ESMX 181150Z AUTO 21015KT 9999 OVC012 11/08 Q1020=
200509181120 METAR ESMX 181120Z AUTO 21014KT 9999 OVC014 11/08 Q1020=
200509181050 METAR ESMX 181050Z AUTO 20015KT 9999 BKN015 11/08 Q1020 REDZ=
200509181020 METAR ESMX 181020Z AUTO 19013KT 9999 FEW014 SCT017 BKN022 10/08 Q1020 RERA=
200509180950 METAR ESMX 180950Z AUTO 19014KT 9999 -RA FEW015 SCT020 BKN027 10/08 Q1020=
200509180920 METAR ESMX 180920Z AUTO 20013KT 9999 -SHRA FEW019 SCT056 10/08 Q1020=
200509180850 METAR ESMX 180850Z AUTO 22012KT 9999 -SHRA BKN033 BKN055 10/07 Q1020=
200509180820 METAR ESMX 180820Z AUTO 21011KT 9999 OVC033 10/07 Q1020 RERA=
200509180750 METAR ESMX 180750Z AUTO 21010KT 9999 DZ BKN031 BKN044 09/07 Q1020=
200509180720 METAR ESMX 180720Z AUTO 20011KT 9999 FEW046 09/06 Q1020=
200509180650 METAR ESMX 180650Z AUTO 19010KT 9999 SCT089 09/06 Q1020=
200509180620 METAR ESMX 180620Z AUTO 19009KT 9999 SCT090 08/06 Q1021=
200509180550 METAR ESMX 180550Z AUTO 19007KT 9999 BKN089 07/05 Q1020=
200509180520 METAR ESMX 180520Z AUTO 21005KT 9999 SCT093 06/04 Q1020=
200509180450 METAR ESMX 180450Z AUTO 19007KT 9999 BKN095 06/04 Q1020=
200509180420 METAR ESMX 180420Z AUTO 19007KT 9999 SCT110 05/04 Q1020=
200509180350 METAR ESMX 180350Z AUTO 18007KT 9999 NSC 04/03 Q1020=
200509180320 METAR ESMX 180320Z AUTO 20006KT 9999 NSC 04/02 Q1020=
200509180250 METAR ESMX 180250Z AUTO 20006KT 9999 NSC 04/02 Q1020=
200509180220 METAR ESMX 180220Z AUTO 21006KT 9999 NSC 04/02 Q1020=
200509180150 METAR ESMX 180150Z AUTO 19006KT 9999 FEW046 04/02 Q1020=
200509180120 METAR ESMX 180120Z AUTO 19006KT 9999 NSC 04/02 Q1021=
200509180050 METAR ESMX 180050Z AUTO 21006KT 9999 FEW055 04/02 Q1021=
200509180020 METAR ESMX 180020Z AUTO 22006KT 9999 SCT043 BKN054 05/03 Q1021=
200509172350 METAR ESMX 172350Z AUTO 19007KT 9999 NSC 03/01 Q1020=
200509172320 METAR ESMX 172320Z AUTO 21006KT 9999 NSC 04/01 Q1020=
200509172250 METAR ESMX 172250Z AUTO 21005KT 9999 NSC 03/01 Q1021=
200509172220 METAR ESMX 172220Z AUTO 21006KT 9999 NSC 03/01 Q1020=
200509172150 METAR ESMX 172150Z AUTO 21006KT 9999 NSC 04/01 Q1020=
200509172120 METAR ESMX 172120Z AUTO 22005KT 9999 NSC 03/00 Q1020=
200509172050 METAR ESMX 172050Z AUTO 22005KT 9999 NSC 04/01 Q1020=
200509172020 METAR ESMX 172020Z AUTO 22004KT 9999 NSC 05/01 Q1020=
200509171950 METAR ESMX 171950Z AUTO 22004KT 9999 NSC 04/01 Q1020=
200509171920 METAR ESMX 171920Z AUTO 23004KT 9999 NSC 05/01 Q1020=
200509171850 METAR ESMX 171850Z AUTO 22004KT 9999 NSC 07/01 Q1019=
200509171820 METAR ESMX 171820Z AUTO 22004KT 9999 NSC 07/02 Q1019=
200509171750 METAR ESMX 171750Z AUTO 22004KT 9999 NSC 06/02 Q1019=
200509171720 METAR ESMX 171720Z AUTO VRB03KT 9999 NSC 08/03 Q1018=
200509171650 METAR ESMX 171650Z AUTO VRB03KT 9999 NSC 12/01 Q1018=
200509171620 METAR ESMX 171620Z AUTO 24004KT 9999 NSC 13/00 Q1018=
200509171550 METAR ESMX 171550Z AUTO 23006KT 200V260 9999 FEW063 14/M01 Q1017=
200509171520 METAR ESMX 171520Z AUTO 24006KT 210V290 9999 NSC 14/M00 Q1017=
200509171450 METAR ESMX 171450Z AUTO 31004KT 220V360 9999 NSC 14/M01 Q1018=
200509171420 METAR ESMX 171420Z AUTO 31006KT 280V350 9999 FEW066 13/M01 Q1018=
200509171350 METAR ESMX 171350Z AUTO 30006KT 230V010 9999 NSC 14/M02 Q1017=
200509171320 METAR ESMX 171320Z AUTO 27006KT 210V320 9999 NSC 15/M00 Q1017=
200509171250 METAR ESMX 171250Z AUTO 28006KT 240V340 9999 NSC 14/M01 Q1017=
200509171220 METAR ESMX 171220Z AUTO 29006KT 250V340 9999 NSC 15/M01 Q1017=
200509171150 METAR ESMX 171150Z AUTO 27007KT 230V340 9999 NSC 14/M02 Q1017=
200509171120 METAR ESMX 171120Z AUTO 32008KT 290V350 9999 NSC 14/M02 Q1017=
200509171050 METAR ESMX 171050Z AUTO 31007KT 270V340 9999 NSC 14/M01 Q1017=
200509171020 METAR ESMX 171020Z AUTO 29007KT 260V320 9999 NSC 13/01 Q1017=
200509170950 METAR ESMX 170950Z 29005KT 250V330 CAVOK 13/03 Q1017=
200509170920 METAR ESMX 170920Z 26004KT 200V290 CAVOK 12/04 Q1016=
200509170850 METAR ESMX 170850Z VRB03KT CAVOK 11/05 Q1016=
200509170820 METAR ESMX 170820Z VRB02KT CAVOK 10/05 Q1016=
200509170750 METAR ESMX 170750Z VRB03KT CAVOK 08/05 Q1016=
200509170720 METAR ESMX 170720Z VRB02KT CAVOK 07/04 Q1015=
200509170650 METAR ESMX 170650Z VRB02KT CAVOK 06/04 Q1015=
200509170620 METAR ESMX 170620Z VRB01KT CAVOK 04/03 Q1014=
200509170550 METAR ESMX 170550Z AUTO VRB02KT 9999 NSC 00/M00 Q1014=
200509170520 METAR ESMX 170520Z AUTO VRB02KT 9999 NSC M01/M02 Q1014=
200509170450 METAR ESMX 170450Z AUTO VRB01KT 9999 NSC M02/M02 Q1013=
200509170420 METAR ESMX 170420Z AUTO VRB01KT 9999 NSC M01/M02 Q1013=
200509170350 METAR ESMX 170350Z AUTO VRB02KT 9999 NSC M01/M02 Q1013=
200509170320 METAR ESMX 170320Z AUTO VRB02KT 9999 NSC M02/M02 Q1012=
200509170250 METAR ESMX 170250Z AUTO VRB02KT 9999 NSC M01/M01 Q1012=
200509170220 METAR ESMX 170220Z AUTO VRB01KT 9999 NSC M01/M01 Q1012=
200509170150 METAR ESMX 170150Z AUTO VRB02KT 9999 NSC M00/M01 Q1012=
200509170120 METAR ESMX 170120Z AUTO VRB02KT 9999 NSC M01/M01 Q1012=
200509170050 METAR ESMX 170050Z AUTO VRB01KT 9999 NSC M00/M00 Q1011=
200509170020 METAR ESMX 170020Z AUTO VRB03KT 9999 NSC 00/00 Q1011=
200509162350 METAR ESMX 162350Z AUTO 00000KT 9999 FEW041 00/00 Q1011=
200509162320 METAR ESMX 162320Z AUTO VRB01KT 9999 NSC 01/01 Q1010=
200509162250 METAR ESMX 162250Z AUTO VRB02KT 9999 NSC 02/01 Q1010=
200509162220 METAR ESMX 162220Z AUTO VRB02KT 9999 NSC 02/02 Q1010=
200509162150 METAR ESMX 162150Z AUTO 00000KT 9999 NSC 03/02 Q1010=
200509162120 METAR ESMX 162120Z AUTO 00000KT 9999 NSC 04/03 Q1009=
200509162050 METAR ESMX 162050Z AUTO VRB01KT 9999 NSC 05/04 Q1009=
200509162020 METAR ESMX 162020Z AUTO VRB01KT 9999 FEW066 SCT079 06/04 Q1009=
200509161950 METAR ESMX 161950Z VRB03KT CAVOK 08/05 Q1009=
200509161920 METAR ESMX 161920Z 34005KT CAVOK 09/04 Q1008=
200509161850 METAR ESMX 161850Z 35005KT CAVOK 09/05 Q1008=
200509161820 METAR ESMX 161820Z 35009KT CAVOK 10/04 Q1008=
200509161750 METAR ESMX 161750Z 32007KT 290V360 CAVOK 10/04 Q1008=
200509161720 METAR ESMX 161720Z VRB02KT CAVOK 09/05 Q1007=
200509161650 METAR ESMX 161650Z VRB02KT CAVOK 11/02 Q1007=
200509161620 METAR ESMX 161620Z VRB01KT CAVOK 10/06 Q1007=
200509161550 METAR ESMX 161550Z 00000KT CAVOK 10/05 Q1006=
200509161520 METAR ESMX 161520Z 00000KT CAVOK 10/05 Q1006=
200509161450 METAR ESMX 161450Z VRB02KT CAVOK 11/04 Q1006=
200509161420 METAR ESMX 161420Z VRB03KT CAVOK 12/01 Q1006=
200509161350 METAR ESMX 161350Z VRB03KT CAVOK 13/M01 Q1006=
200509161320 METAR ESMX 161320Z 03004KT 330V070 CAVOK 14/M01 Q1006=
200509161250 METAR ESMX 161250Z 36006KT CAVOK 13/M00 Q1007=
200509161220 METAR ESMX 161220Z VRB03KT CAVOK 14/M00 Q1007=
200509161150 METAR ESMX 161150Z 05005KT 360V110 CAVOK 13/01 Q1007=
200509161120 METAR ESMX 161120Z 04005KT 320V100 CAVOK 13/02 Q1007=
200509161050 METAR ESMX 161050Z 01006KT 350V060 CAVOK 13/01 Q1007=
200509161020 METAR ESMX 161020Z 06004KT 340V100 CAVOK 12/01 Q1007=
200509160950 METAR ESMX 160950Z 02004KT 340V060 CAVOK 12/02 Q1007=
200509160920 METAR ESMX 160920Z 36005KT 340V060 CAVOK 11/03 Q1007=
200509160850 METAR ESMX 160850Z 36006KT 340V050 CAVOK 10/04 Q1007=
200509160820 METAR ESMX 160820Z 03005KT 360V070 CAVOK 10/04 Q1007=
200509160750 METAR ESMX 160750Z 02006KT CAVOK 09/05 Q1007=
200509160720 METAR ESMX 160720Z VRB03KT CAVOK 07/05 Q1007=
200509160650 METAR ESMX 160650Z VRB02KT CAVOK 05/05 Q1007=
200509160620 METAR ESMX 160620Z VRB02KT CAVOK 01/01 Q1007=
200509160550 METAR ESMX 160550Z 00000KT 9999 BCFG NSC M00/M00 Q1007=
200509160520 METAR ESMX 160520Z 00000KT 9999 BCFG NSC M01/M01 Q1007=
200509160450 METAR ESMX 160450Z 00000KT 9999 BCFG NSC M01/M01 Q1007=
200509160420 METAR ESMX 160420Z 00000KT 9999 BCFG NSC M02/M02 Q1006=
200509160350 METAR ESMX 160350Z 00000KT 5000 BCFG NSC M01/M01 Q1006=
200509160320 METAR ESMX 160320Z AUTO VRB02KT 9999 NSC M01/M01 Q1006=
200509160250 METAR ESMX 160250Z AUTO 00000KT 9999 NSC M01/M02 Q1006=
200509160220 METAR ESMX 160220Z AUTO 00000KT 7000 BR NSC M00/M01 Q1006=
200509160150 METAR ESMX 160150Z AUTO VRB02KT 9999 NSC 00/M00 Q1007=
200509160120 METAR ESMX 160120Z AUTO VRB02KT 9999 NSC 00/M00 Q1007=
200509160050 METAR ESMX 160050Z AUTO VRB02KT 9999 NSC 00/00 Q1006=
200509160020 METAR ESMX 160020Z VRB01KT CAVOK 00/M00 Q1006=
200509152350 METAR ESMX 152350Z VRB03KT CAVOK 00/M00 Q1006=
200509152320 METAR ESMX 152320Z 00000KT CAVOK 01/01 Q1007=
200509152250 METAR ESMX 152250Z VRB02KT CAVOK 01/01 Q1007=
200509152220 METAR ESMX 152220Z VRB02KT CAVOK 02/01 Q1007=
200509152150 METAR ESMX 152150Z VRB01KT CAVOK 02/01 Q1007=
200509152120 METAR ESMX 152120Z 00000KT CAVOK 02/02 Q1006=
200509152050 METAR ESMX 152050Z VRB01KT CAVOK 03/02 Q1006=
200509152020 METAR ESMX 152020Z VRB01KT CAVOK 04/04 Q1006=
200509151950 METAR ESMX 151950Z 30004KT CAVOK 04/03 Q1006=
200509151920 METAR ESMX 151920Z 31005KT CAVOK 07/04 Q1006=
200509151850 METAR ESMX 151850Z 32007KT CAVOK 07/04 Q1006=
200509151820 METAR ESMX 151820Z 30005KT CAVOK 08/05 Q1006=
200509151750 METAR ESMX 151750Z 35009KT 9999 FEW017 SCT049 09/06 Q1005=
200509151720 METAR ESMX 151720Z 33011KT 290V350 9999 FEW016 SCT032 BKN051 10/07 Q1005=
200509151650 METAR ESMX 151650Z 34010KT 9999 SCT037 BKN047 10/07 Q1005=
200509151620 METAR ESMX 151620Z 33011KT 300V360 9999 FEW020 SCT037 BKN046 11/08 Q1004=
200509151550 METAR ESMX 151550Z 32008KT 9999 FEW017 SCT020 12/08 Q1004=
200509151520 METAR ESMX 151520Z 31009KT 9999 FEW025 12/08 Q1003=
200509151450 METAR ESMX 151450Z 31011KT 270V350 9999 -SHRA FEW028CB SCT048 BKN086 11/07 Q1003=
200509151420 METAR ESMX 151420Z 32016G27KT 9999 -SHRA FEW036CB SCT051 BKN086 12/06 Q1003=
200509151350 METAR ESMX 151350Z 27013KT 230V320 9999 FEW030CB SCT040 15/07 Q1002=
200509151320 METAR ESMX 151320Z 27013G23KT 230V320 9999 SCT040 15/07 Q1002=
200509151250 METAR ESMX 151250Z 25011G21KT 170V290 9999 FEW039 BKN049 15/07 Q1002=
200509151220 METAR ESMX 151220Z 25013G25KT 220V310 9999 FEW035 SCT045 15/07 Q1002=
200509151150 METAR ESMX 151150Z 25011G22KT 9999 SCT030 SCT045 16/08 Q1002=
200509151120 METAR ESMX 151120Z 25011KT 220V290 9999 FEW035 BKN050 15/08 Q1002=
200509151050 METAR ESMX 151050Z 25011KT 210V280 9999 FEW025 BKN45 15/09 Q1002=
200509151020 METAR ESMX 151020Z 26015KT 220V290 9999 FEW025 SCT044 BKN060 14/09 Q1002=
200509150950 METAR ESMX 150950Z 24012KT 200V280 9999 SCT027 BKN056 13/09 Q1003=
200509150920 METAR ESMX 150920Z 25011KT 210V280 9999 SCT025 BKN054 13/09 Q1003=
200509150850 METAR ESMX 150850Z 25015KT 220V290 9999 SCT020 BKN040 13/09 Q1003=
200509150820 METAR ESMX 150820Z 25011KT 220V290 9999 FEW021 SCT028 BKN052 13/09 Q1003=
200509150750 METAR ESMX 150750Z 25011KT 200V300 9999 FEW022 SCT026 BKN048 13/09 Q1003=
200509150720 METAR ESMX 150720Z 26009KT 210V300 9999 SCT020 BKN040 13/09 Q1003=
200509150650 METAR ESMX 150650Z 24009KT 200V290 9999 SCT015 BKN023 12/09 Q1003 REDZ=
200509150620 METAR ESMX 150620Z 25008KT 210V290 9999 -DZ SCT013 BKN025 12/09 Q1003=
200509150550 METAR ESMX 150550Z 26007KT 230V290 9999 -SHRA FEW012 BKN023 11/10 Q1003=
200509150520 METAR ESMX 150520Z 25010KT 230V300 9999 -SHRA SCT020 BKN035 12/09 Q1003=
200509150450 METAR ESMX 150450Z 26010KT 200V290 9999 SCT020 BKN025 12/09 Q1003=
200509150420 METAR ESMX 150420Z 26010KT 230V290 9999 FEW022 BKN035 12/09 Q1003=
200509150350 METAR ESMX 150350Z 25014KT 220V290 9999 SCT020 BKN040 12/09 Q1003=
200509150320 METAR ESMX 150320Z AUTO 25011KT 200V280 9999 FEW021 OVC038 12/09 Q1003=
200509150250 METAR ESMX 150250Z AUTO 24008KT 200V270 9999 FEW023 OVC041 12/10 Q1003=
200509150220 METAR ESMX 150220Z AUTO 23011KT 200V260 9999 FEW019 SCT026 OVC041 12/10 Q1003=
200509150150 METAR ESMX 150150Z AUTO 25012G22KT 210V300 9999 FEW012 SCT024 OVC039 13/09 Q1003=
200509150120 METAR ESMX 150120Z AUTO 26010KT 220V300 9999 FEW013 SCT024 BKN027 13/09 Q1003=
200509150050 METAR ESMX 150050Z AUTO 25011KT 230V300 9999 FEW021 SCT025 BKN029 13/09 Q1003=
200509150020 METAR ESMX 150020Z AUTO 25012G22KT 220V290 9999 FEW021 BKN028 OVC036 13/10 Q1003=
200509142350 METAR ESMX 142350Z 26011G23KT 210V290 9999 FEW020 BKN024 13/09 Q1003=
200509142320 METAR ESMX 142320Z 25013KT 230V290 9999 BKN022 OVC032 13/09 Q1003=
200509142250 METAR ESMX 142250Z 24012KT 200V270 9999 BKN023 13/09 Q1003=
200509142220 METAR ESMX 142220Z 24014G28KT 200V290 9999 BKN023 14/09 Q1003=
200509142150 METAR ESMX 142150Z 26014G25KT 230V300 9999 BKN022 13/09 Q1003=
200509142120 METAR ESMX 142120Z 27012G22KT 240V310 9999 BKN021 14/09 Q1003=
200509142050 METAR ESMX 142050Z 25017G27KT 210V300 9999 BKN022 OVC030 14/10 Q1003=
200509142020 METAR ESMX 142020Z 24014G27KT 200V270 9999 BKN023 OVC033 14/10 Q1003=
200509141950 METAR ESMX 141950Z 25014KT 9999 FEW019 BKN022 14/10 Q1003=
200509141920 METAR ESMX 141920Z 25013KT 200V280 9999 BKN020 14/10 Q1003=
200509141850 METAR ESMX 141850Z 25015G27KT 200V290 9999 OVC022 14/10 Q1003=
200509141820 METAR ESMX 141820Z 24012G23KT 200V270 9999 BKN022 14/10 Q1003=
200509141750 METAR ESMX 141750Z 24017KT 200V300 9999 FEW023 BKN027 OVC034 14/10 Q1003=
200509141650 METAR ESMX 141650Z 25016KT 210V340 9999 FEW023 SCT031 BKN042 15/11 Q1003=
200509141620 METAR ESMX 141620Z 25016G27KT 220V290 9999 SCT023 BKN035 15/11 Q1003=
200509141550 METAR ESMX 141550Z 24015G26KT 210V270 9999 FEW025 SCT033 BKN041 15/11 Q1003=
200509141520 METAR ESMX 141520Z 26013G27KT 200V300 9999 FEW018 SCT025 15/12 Q1004=
200509141450 METAR ESMX 141450Z 24013G30KT 190V270 9999 FEW023 BKN027 BKN047 15/11 Q1004=
200509141420 METAR ESMX 141420Z 24013G23KT 190V280 9999 FEW024 BKN035 16/12 Q1004=
200509141350 METAR ESMX 141350Z 26013G27KT 220V290 9999 FEW015 SCT030 16/12 Q1004=
200509141320 METAR ESMX 141320Z 25016G26KT 220V290 9999 FEW010 SCT025 17/14 Q1003 REDZ=
200509141250 METAR ESMX 141250Z 24010G20KT 9999 FEW004 BKN008 15/14 Q1003 REDZ=
200509141220 METAR ESMX 141220Z 22013KT 190V250 3100 -SHRA FEW004 BKN008 14/14 Q1003=
200509141150 METAR ESMX 141150Z 19014KT 2700 -SHRA FEW006 BKN008 14/13 Q1003=
200509141120 METAR ESMX 141120Z 18014KT 4900 -RA FEW011 BKN015 14/13 Q1004=
200509141050 METAR ESMX 141050Z 19016KT 4800 RA FEW015 BKN019 14/13 Q1005=
200509141020 METAR ESMX 141020Z 20017KT 7000 BR BKN020 15/12 Q1005=
200509140950 METAR ESMX 140950Z 21014G24KT 9999 BKN022 16/12 Q1006=
200509140920 METAR ESMX 140920Z 20015G25KT 160V230 9999 BKN020 15/11 Q1006=
200509140850 METAR ESMX 140850Z 21017KT 9999 BKN023 16/11 Q1006=
200509140820 METAR ESMX 140820Z 19019G29KT 9999 SCT012 BKN100 15/11 Q1007=
200509140750 METAR ESMX 140750Z 20018KT 9999 SCT012 BKN100 15/11 Q1008=
200509140720 METAR ESMX 140720Z 21016KT 170V240 9999 SCT017 BKN100 14/11 Q1008=
200509140650 METAR ESMX 140650Z 18016KT 150V210 9999 SCT010 BKN100 14/12 Q1009=
200509140620 METAR ESMX 140620Z 20013KT 9999 SCT008 BKN080 13/11 Q1010=
200509140550 METAR ESMX 140550Z 19013KT 9999 SCT007 BKN080 12/11 Q1010=
200509140520 METAR ESMX 140520Z 19013KT 9999 FEW007 BKN080 12/11 Q1011=
200509140450 METAR ESMX 140450Z 19011KT 9999 FEW007 12/11 Q1012=
200509140420 METAR ESMX 140420Z 18012KT CAVOK 12/11 Q1012=
200509140350 METAR ESMX 140350Z 21010KT CAVOK 12/11 Q1013=
200509140320 METAR ESMX 140320Z AUTO 19011KT 9999 NSC 12/11 Q1014=
200509140250 METAR ESMX 140250Z AUTO 19009KT 9999 NSC 12/10 Q1014=
200509140220 METAR ESMX 140220Z AUTO 19008KT 9999 NSC 12/10 Q1015=
200509140150 METAR ESMX 140150Z AUTO 19008KT 9999 NSC 12/10 Q1015=
200509140120 METAR ESMX 140120Z AUTO 19009KT 9999 SCT100 12/10 Q1016=
200509140050 METAR ESMX 140050Z AUTO 19008KT 9999 BKN100 12/10 Q1016=
200509140020 METAR ESMX 140020Z 20007KT CAVOK 12/10 Q1017=
200509132350 METAR ESMX 132350Z 20008KT CAVOK 12/10 Q1017=
200509132320 METAR ESMX 132320Z 19007KT CAVOK 11/09 Q1017=
200509132250 METAR ESMX 132250Z 18007KT CAVOK 11/09 Q1018=
200509132220 METAR ESMX 132220Z 21006KT CAVOK 11/09 Q1018=
200509132150 METAR ESMX 132150Z 21006KT CAVOK 12/09 Q1018=
200509132120 METAR ESMX 132120Z 21006KT CAVOK 13/10 Q1019=
200509132050 METAR ESMX 132050Z 22007KT CAVOK 13/10 Q1019=
200509132020 METAR ESMX 132020Z 20006KT CAVOK 13/09 Q1020=
200509131950 METAR ESMX 131950Z 20005KT CAVOK 13/09 Q1020=
200509131920 METAR ESMX 131920Z 23006KT CAVOK 14/10 Q1020=
200509131850 METAR ESMX 131850Z 23006KT CAVOK 14/10 Q1020=
200509131820 METAR ESMX 131820Z 23005KT CAVOK 15/10 Q1020=
200509131750 METAR ESMX 131750Z 21004KT CAVOK 15/10 Q1020=
200509131720 METAR ESMX 131720Z 23004KT CAVOK 15/09 Q1020=
200509131650 METAR ESMX 131650Z 24007KT 200V260 CAVOK 16/09 Q1020=
200509131620 METAR ESMX 131620Z 23006KT CAVOK 17/10 Q1020=
200509131550 METAR ESMX 131550Z 23006KT 9999 FEW042 18/09 Q1020=
200509131520 METAR ESMX 131520Z 23009KT 190V250 9999 FEW043 18/09 Q1021=
200509131450 METAR ESMX 131450Z 22008KT 170V240 9999 FEW043 19/09 Q1021=
200509131420 METAR ESMX 131420Z 20006KT 9999 FEW045 18/08 Q1021=
200509131350 METAR ESMX 131350Z 20007KT 150V240 CAVOK 18/09 Q1021=
200509131320 METAR ESMX 131320Z 21007KT CAVOK 18/08 Q1021=
200509131250 METAR ESMX 131250Z 21008KT 170V230 CAVOK 18/08 Q1021=
200509131220 METAR ESMX 131220Z 19005KT 160V230 CAVOK 18/08 Q1021=
200509131120 METAR ESMX 131120Z 21005KT 170V260 CAVOK 18/09 Q1022=
200509131050 METAR ESMX 131050Z 21005KT 170V240 CAVOK 17/09 Q1022=
200509131020 METAR ESMX 131020Z 22004KT 190V250 CAVOK 16/10 Q1022=
200509130950 METAR ESMX 130950Z 20004KT CAVOK 15/10 Q1022=
200509130920 METAR ESMX 130920Z 19004KT 160V230 CAVOK 15/09 Q1022=
200509130850 METAR ESMX 130850Z 20005KT 180V270 CAVOK 15/10 Q1022=
200509130820 METAR ESMX 130820Z VRB03KT CAVOK 15/09 Q1022=
200509130750 METAR ESMX 130750Z VRB02KT CAVOK 15/09 Q1022=
200509130720 METAR ESMX 130720Z 00000KT CAVOK 13/10 Q1021=
200509130650 METAR ESMX 130650Z 00000KT CAVOK 11/10 Q1021=
200509130620 METAR ESMX 130620Z VRB01KT CAVOK 08/08 Q1021=
200509130550 METAR ESMX 130550Z VRB02KT 9999 MIFG NSC 07/07 Q1021=
200509130520 METAR ESMX 130520Z VRB01KT 0300 R01/P1500D R19/0225D FG VV001 03/02 Q1020=
200509130450 METAR ESMX 130450Z VRB01KT 9999 BCFG FEW001 03/02 Q1020=
200509130420 METAR ESMX 130420Z VRB01KT 9999 BCFG NSC 03/02 Q1020=
200509130350 METAR ESMX 130350Z VRB02KT CAVOK 03/03 Q1019=
200509130320 METAR ESMX 130320Z AUTO VRB02KT 9999 NSC 03/02 Q1019=
200509130250 METAR ESMX 130250Z AUTO VRB01KT 9999 NSC 04/03 Q1019=
200509130220 METAR ESMX 130220Z AUTO VRB01KT 9999 NSC 04/04 Q1019=
200509130150 METAR ESMX 130150Z AUTO VRB01KT 9999 NSC 04/04 Q1019=
200509130120 METAR ESMX 130120Z AUTO VRB01KT 9999 NSC 04/04 Q1018=
200509130050 METAR ESMX 130050Z AUTO VRB02KT 9999 NSC 04/03 Q1018=
200509130020 METAR ESMX 130020Z VRB01KT CAVOK 05/04 Q1018=
200509122350 METAR ESMX 122350Z VRB02KT CAVOK 06/05 Q1018=
200509122320 METAR ESMX 122320Z VRB02KT CAVOK 07/05 Q1018=
200509122250 METAR ESMX 122250Z VRB02KT CAVOK 07/06 Q1017=
200509122220 METAR ESMX 122220Z VRB03KT CAVOK 07/06 Q1017=
200509122150 METAR ESMX 122150Z 30004KT CAVOK 08/06 Q1016=
200509122120 METAR ESMX 122120Z 29005KT CAVOK 09/06 Q1016=
200509122050 METAR ESMX 122050Z 28004KT CAVOK 09/07 Q1016=
200509122020 METAR ESMX 122020Z 28004KT 250V310 CAVOK 09/07 Q1015=
200509121950 METAR ESMX 121950Z 29004KT CAVOK 08/07 Q1015=
200509121850 METAR ESMX 121850Z 28005KT CAVOK 09/07 Q1014=
200509121820 METAR ESMX 121820Z VRB03KT CAVOK 10/07 Q1014=
200509121750 METAR ESMX 121750Z 29004KT CAVOK 12/07 Q1013=
200509121720 METAR ESMX 121720Z 29004KT CAVOK 15/08 Q1012=
200509121650 METAR ESMX 121650Z 29005KT 9999 FEW040 15/08 Q1012=
200509121620 METAR ESMX 121620Z 30007KT 260V330 9999 FEW040 17/08 Q1012=
200509121550 METAR ESMX 121550Z 30007KT 260V330 9999 FEW040 17/08 Q1011=
200509121520 METAR ESMX 121520Z 29007KT 9999 FEW040 18/08 Q1011=
200509121450 METAR ESMX 121450Z 30007KT 260V330 9999 FEW040 17/08 Q1011=
200509121420 METAR ESMX 121420Z 29009KT 240V320 9999 FEW040 18/09 Q1011=
200509121350 METAR ESMX 121350Z 30009KT 270V340 9999 SCT040 17/09 Q1010=
200509121320 METAR ESMX 121320Z 30009KT 260V340 9999 FEW040 SCT055 18/10 Q1010=
200509121250 METAR ESMX 121250Z 28011KT 250V310 9999 FEW030 SCT045 18/10 Q1010=
200509121220 METAR ESMX 121220Z 28006KT 240V320 9999 FEW025 BKN045 17/10 Q1010=
200509121150 METAR ESMX 121150Z 24007KT 200V300 9999 FEW023 SCT030 BKN040 17/12 Q1010=
200509121120 METAR ESMX 121120Z 26006KT 220V290 9999 FEW025 BKN030 16/11 Q1010=
200509121050 METAR ESMX 121050Z 29008KT 260V330 9999 BKN025 16/11 Q1011=
200509121020 METAR ESMX 121020Z 25008KT 220V290 9999 FEW030 BKN053 17/10 Q1010=
200509120950 METAR ESMX 120950Z 27007KT 240V300 9999 FEW026 BKN058 17/11 Q1010=
200509120920 METAR ESMX 120920Z 26006KT 210V310 9999 SCT025 17/12 Q1010=
200509120850 METAR ESMX 120850Z VRB03KT 9999 FEW035 17/12 Q1010=
200509120820 METAR ESMX 120820Z 29005KT 260V330 CAVOK 15/11 Q1011=
200509120750 METAR ESMX 120750Z 29007KT 250V320 9999 SCT010 15/12 Q1011=
200509120720 METAR ESMX 120720Z VRB03KT 9999 SCT010 BKN090 14/11 Q1011=
200509120650 METAR ESMX 120650Z VRB02KT 9999 FEW010 12/11 Q1011=
200509120620 METAR ESMX 120620Z VRB02KT 9999 FEW012 11/10 Q1011=
200509120550 METAR ESMX 120550Z VRB02KT CAVOK 08/08 Q1011=
200509120520 METAR ESMX 120520Z VRB01KT CAVOK 08/08 Q1011=
200509120450 METAR ESMX 120450Z 00000KT 9999 SCT037 BKN094 08/08 Q1011=
200509120420 METAR ESMX 120420Z VRB01KT 9999 BKN038 09/08 Q1011=
200509120350 METAR ESMX 120350Z VRB01KT 9999 BKN038 08/08 Q1011=
200509120320 METAR ESMX 120320Z 00000KT 9999 BKN039 07/06 Q1012=
200509120250 METAR ESMX 120250Z AUTO VRB01KT 9999 FEW038 06/06 Q1012=
200509120220 METAR ESMX 120220Z AUTO 00000KT 9999 NSC 06/05 Q1012=
200509120150 METAR ESMX 120150Z AUTO 00000KT 9999 NSC 06/06 Q1012=
200509120120 METAR ESMX 120120Z AUTO 00000KT 9999 NSC 06/06 Q1012=
200509120050 METAR ESMX 120050Z AUTO 00000KT 9999 NSC 06/06 Q1013=
200509120020 METAR ESMX 120020Z 00000KT CAVOK 06/06 Q1013=
200509112350 METAR ESMX 112350Z 00000KT CAVOK 07/06 Q1013=
200509112320 METAR ESMX 112320Z 00000KT 9999 NSC 07/06 Q1013=
200509112250 METAR ESMX 112250Z VRB02KT CAVOK 07/07 Q1014=
200509112220 METAR ESMX 112220Z VRB02KT CAVOK 09/08 Q1014=
200509112150 METAR ESMX 112150Z VRB02KT CAVOK 09/08 Q1014=
200509112120 METAR ESMX 112120Z VRB02KT CAVOK 11/09 Q1014=
200509112050 METAR ESMX 112050Z VRB02KT CAVOK 11/09 Q1014=
200509112020 METAR ESMX 112020Z VRB02KT CAVOK 11/09 Q1015=
200509111950 METAR ESMX 111950Z VRB02KT CAVOK 12/09 Q1015=
200509111920 METAR ESMX 111920Z VRB03KT CAVOK 12/09 Q1015=
200509111850 METAR ESMX 111850Z VRB03KT CAVOK 12/09 Q1015=
200509111820 METAR ESMX 111820Z VRB03KT CAVOK 13/09 Q1015=
200509111750 METAR ESMX 111750Z VRB03KT CAVOK 14/09 Q1015=
200509111720 METAR ESMX 111720Z 08004KT CAVOK 15/09 Q1015=
200509111650 METAR ESMX 111650Z 07004KT 030V090 CAVOK 16/09 Q1015=
200509111620 METAR ESMX 111620Z 05005KT 020V080 CAVOK 16/09 Q1015=
200509111550 METAR ESMX 111550Z 04005KT 020V090 CAVOK 17/09 Q1015=
200509111520 METAR ESMX 111520Z 05005KT 020V080 CAVOK 18/09 Q1015=
200509111450 METAR ESMX 111450Z 08004KT 030V120 CAVOK 18/08 Q1016=
200509111420 METAR ESMX 111420Z 04006KT 360V080 CAVOK 18/09 Q1016=
200509111350 METAR ESMX 111350Z 08007KT 350V130 CAVOK 18/09 Q1016=
200509111320 METAR ESMX 111320Z 06005KT 020V080 CAVOK 18/09 Q1016=
200509111250 METAR ESMX 111250Z 06007KT 020V100 CAVOK 18/08 Q1016=
200509111220 METAR ESMX 111220Z AUTO 08006KT 030V130 9999 NSC 18/09 Q1016=
200509111150 METAR ESMX 111150Z AUTO 07007KT 030V110 9999 NSC 18/09 Q1017=
200509111120 METAR ESMX 111120Z AUTO 06007KT 360V110 9999 NSC 18/08 Q1017=
200509111050 METAR ESMX 111050Z AUTO 06006KT 020V130 9999 NSC 17/08 Q1017=
200509111020 METAR ESMX 111020Z AUTO 07006KT 030V110 9999 NSC 17/09 Q1017=
200509110950 METAR ESMX 110950Z AUTO 06008KT 020V110 9999 NSC 16/09 Q1017=
200509110920 METAR ESMX 110920Z AUTO 07008KT 020V170 9999 NSC 16/09 Q1018=
200509110850 METAR ESMX 110850Z AUTO 07008KT 030V110 9999 NSC 16/09 Q1018=
200509110820 METAR ESMX 110820Z AUTO 07008KT 020V110 9999 NSC 14/09 Q1018=
200509110750 METAR ESMX 110750Z AUTO 06007KT 020V130 9999 NSC 14/09 Q1018=
200509110720 METAR ESMX 110720Z AUTO 07008KT 030V110 9999 FEW015 13/09 Q1018=
200509110650 METAR ESMX 110650Z AUTO 06007KT 010V110 9999 FEW013 SCT016 12/09 Q1018=
200509110620 METAR ESMX 110620Z AUTO 05007KT 010V080 9999 FEW014 12/09 Q1018=
200509110550 METAR ESMX 110550Z AUTO 04006KT 9999 NSC 11/09 Q1018=
200509110520 METAR ESMX 110520Z AUTO 04007KT 9999 SCT015 10/09 Q1018=
200509110450 METAR ESMX 110450Z AUTO 05006KT 020V090 9999 FEW015 10/09 Q1018=
200509110420 METAR ESMX 110420Z AUTO 04007KT 9999 NSC 10/09 Q1018=
200509110350 METAR ESMX 110350Z AUTO 04006KT 010V070 9999 NSC 10/09 Q1018=
200509110320 METAR ESMX 110320Z AUTO 05005KT 020V080 9999 NSC 10/09 Q1018=
200509110250 METAR ESMX 110250Z AUTO 05007KT 010V080 9999 NSC 10/09 Q1018=
200509110220 METAR ESMX 110220Z AUTO 04007KT 360V070 9999 NSC 10/09 Q1018=
200509110150 METAR ESMX 110150Z AUTO 04007KT 010V080 9999 NSC 10/09 Q1018=
200509110120 METAR ESMX 110120Z AUTO 04007KT 9999 NSC 10/09 Q1018=
200509110050 METAR ESMX 110050Z AUTO 05006KT 010V090 9999 NSC 11/09 Q1018=
200509110020 METAR ESMX 110020Z AUTO 04007KT 020V080 9999 NSC 11/09 Q1018=
200509102350 METAR ESMX 102350Z AUTO 03006KT 360V070 9999 SCT012 11/10 Q1018=
200509102320 METAR ESMX 102320Z AUTO 03008KT 360V060 9999 SCT012 BKN016 12/10 Q1018=
200509102250 METAR ESMX 102250Z AUTO 04007KT 010V080 9999 FEW013 12/10 Q1018=
200509102220 METAR ESMX 102220Z AUTO 04006KT 350V060 9999 FEW016 12/10 Q1018=
200509102150 METAR ESMX 102150Z AUTO 03007KT 350V080 9999 FEW015 12/10 Q1018=
200509102120 METAR ESMX 102120Z AUTO 04008KT 010V100 9999 FEW018 BKN020 13/10 Q1018=
200509102050 METAR ESMX 102050Z AUTO 04007KT 010V090 9999 FEW015 BKN018 13/10 Q1018=
200509102020 METAR ESMX 102020Z AUTO 03006KT 360V070 9999 FEW014 BKN017 13/11 Q1018=
200509101950 METAR ESMX 101950Z AUTO 05007KT 020V080 9999 FEW015 SCT018 13/10 Q1018=
200509101920 METAR ESMX 101920Z AUTO 05007KT 020V110 9999 FEW018 13/10 Q1018=
200509101850 METAR ESMX 101850Z AUTO 05008KT 010V090 9999 NSC 13/10 Q1018=
200509101820 METAR ESMX 101820Z AUTO 06007KT 020V110 9999 NSC 14/10 Q1018=
200509101750 METAR ESMX 101750Z AUTO 05008KT 010V080 9999 NSC 14/10 Q1017=
200509101720 METAR ESMX 101720Z AUTO 06006KT 030V110 9999 NSC 15/10 Q1017=
200509101650 METAR ESMX 101650Z AUTO 05009KT 010V080 9999 FEW030 15/10 Q1017=
200509101620 METAR ESMX 101620Z AUTO 06007KT 030V100 9999 FEW029 16/10 Q1017=
200509101550 METAR ESMX 101550Z AUTO 05007KT 350V100 9999 FEW029 16/10 Q1017=
200509101520 METAR ESMX 101520Z AUTO 05007KT 020V090 9999 SCT028 OVC068 16/10 Q1017=
200509101450 METAR ESMX 101450Z AUTO 07006KT 020V140 9999 BKN067 16/10 Q1017=
200509101420 METAR ESMX 101420Z AUTO 07005KT 330V120 9999 SCT066 16/10 Q1017=
200509101350 METAR ESMX 101350Z AUTO 05008KT 020V100 9999 FEW029 SCT068 BKN100 16/10 Q1017=
200509101320 METAR ESMX 101320Z AUTO 04008KT 010V070 9999 FEW062 SCT082 BKN100 16/10 Q1017=
200509101250 METAR ESMX 101250Z AUTO 05008KT 020V090 9999 SCT061 BKN083 BKN100 16/09 Q1017=
200509101220 METAR ESMX 101220Z AUTO 05009KT 020V080 9999 FEW061 BKN100 16/08 Q1017=
200509101150 METAR ESMX 101150Z AUTO 04009KT 9999 OVC063 16/09 Q1017=
200509101120 METAR ESMX 101120Z AUTO 03008KT 010V080 9999 BKN098 16/09 Q1017=
200509101050 METAR ESMX 101050Z AUTO 03010KT 9999 FEW054 BKN099 17/09 Q1017=
200509101020 METAR ESMX 101020Z AUTO 03007KT 010V100 9999 FEW074 BKN100 16/09 Q1017=
200509100950 METAR ESMX 100950Z AUTO 04007KT 020V080 9999 BKN073 16/08 Q1017=
200509100920 METAR ESMX 100920Z 05008KT 020V100 CAVOK 16/09 Q1017=
200509100850 METAR ESMX 100850Z 05009KT 010V080 CAVOK 16/09 Q1017=
200509100820 METAR ESMX 100820Z 04006KT 360V080 9999 BKN045 15/10 Q1017=
200509100750 METAR ESMX 100750Z 05006KT 020V080 9999 BKN045 14/09 Q1017=
200509100720 METAR ESMX 100720Z 05006KT 020V080 9999 BKN045 13/09 Q1017=
200509100650 METAR ESMX 100650Z 04006KT 010V080 9999 BKN045 13/09 Q1017=
200509100620 METAR ESMX 100620Z AUTO 03005KT 340V060 9999 OVC050 12/08 Q1017=
200509100550 METAR ESMX 100550Z AUTO 04006KT 010V080 9999 BKN059 12/08 Q1017=
200509100520 METAR ESMX 100520Z AUTO 04005KT 9999 OVC059 12/07 Q1016=
200509100450 METAR ESMX 100450Z AUTO 02005KT 9999 BKN060 OVC084 12/07 Q1016=
200509100420 METAR ESMX 100420Z AUTO 04004KT 9999 BKN080 12/06 Q1016=
200509100350 METAR ESMX 100350Z AUTO VRB03KT 9999 BKN080 12/06 Q1016=
200509100320 METAR ESMX 100320Z AUTO 06005KT 030V100 9999 BKN061 OVC081 12/07 Q1016=
200509100250 METAR ESMX 100250Z AUTO 07006KT 030V110 9999 OVC057 13/07 Q1016=
200509100220 METAR ESMX 100220Z AUTO 06006KT 9999 OVC055 13/07 Q1016=
200509100150 METAR ESMX 100150Z AUTO 05006KT 030V090 9999 OVC053 13/08 Q1017=
200509100120 METAR ESMX 100120Z AUTO 06005KT 020V100 9999 BKN054 BKN110 13/10 Q1016=
200509100050 METAR ESMX 100050Z AUTO 05005KT 020V090 9999 SCT100 13/11 Q1017=
200509100020 METAR ESMX 100020Z AUTO 06004KT 030V100 9999 BKN089 14/11 Q1016 REDZ=
200509092350 METAR ESMX 092350Z AUTO 05005KT 010V120 9999 SCT092 BKN100 14/11 Q1016 RERA=
200509092320 METAR ESMX 092320Z AUTO 05004KT 030V090 9999 -DZ BKN100 14/12 Q1016=
200509092250 METAR ESMX 092250Z AUTO 07006KT 030V110 9999 -RA SCT100 14/11 Q1016=
200509092220 METAR ESMX 092220Z AUTO 06005KT 9999 BKN090 14/11 Q1016=
200509092150 METAR ESMX 092150Z AUTO 06005KT 010V120 9999 FEW085 BKN098 14/11 Q1016=
200509092120 METAR ESMX 092120Z AUTO 05006KT 020V100 9999 FEW084 SCT110 14/10 Q1016=
200509092050 METAR ESMX 092050Z AUTO 03007KT 360V060 9999 SCT110 15/09 Q1016=
200509092020 METAR ESMX 092020Z AUTO 03008KT 9999 SCT110 15/09 Q1016=
200509091950 METAR ESMX 091950Z 04008KT 340V070 CAVOK 15/10 Q1016=
200509091920 METAR ESMX 091920Z 03007KT 340V050 CAVOK 15/11 Q1016=
200509091850 METAR ESMX 091850Z 01007KT CAVOK 15/11 Q1016=
200509091820 METAR ESMX 091820Z 00000KT CAVOK 14/12 Q1015=
200509091750 METAR ESMX 091750Z 00000KT CAVOK 15/11 Q1015=
200509091720 METAR ESMX 091720Z VRB02KT CAVOK 17/12 Q1015=
200509091650 METAR ESMX 091650Z 00000KT CAVOK 18/12 Q1015=
200509091620 METAR ESMX 091620Z VRB03KT CAVOK 18/11 Q1015=
200509091550 METAR ESMX 091550Z 31004KT CAVOK 20/09 Q1015=
200509091520 METAR ESMX 091520Z 30004KT 260V330 CAVOK 21/08 Q1015=
200509091450 METAR ESMX 091450Z VRB03KT CAVOK 21/08 Q1015=
200509091420 METAR ESMX 091420Z 32004KT 280V020 CAVOK 21/08 Q1015=
200509091350 METAR ESMX 091350Z VRB03KT CAVOK 20/09 Q1015=
200509091320 METAR ESMX 091320Z 26005KT CAVOK 21/08 Q1015=
200509091250 METAR ESMX 091250Z VRB04KT CAVOK 21/11 Q1015=
200509091220 METAR ESMX 091220Z 31005KT CAVOK 20/09 Q1016=
200509091150 METAR ESMX 091150Z 32004KT CAVOK 20/09 Q1016=
200509091120 METAR ESMX 091120Z 31004KT CAVOK 20/10 Q1016=
200509091050 METAR ESMX 091050Z 31004KT 230V350 CAVOK 19/09 Q1016=
200509091020 METAR ESMX 091020Z VRB03KT CAVOK 19/10 Q1016=
200509090950 METAR ESMX 090950Z 31004KT CAVOK 18/10 Q1016=
200509090920 METAR ESMX 090920Z 29004KT CAVOK 17/10 Q1015=
200509090850 METAR ESMX 090850Z VRB03KT CAVOK 17/11 Q1016=
200509090820 METAR ESMX 090820Z 27005KT 9999 FEW017 16/11 Q1015=
200509090750 METAR ESMX 090750Z 32006KT 9999 FEW015 15/11 Q1016=
200509090720 METAR ESMX 090720Z 28006KT 9999 SCT013 15/11 Q1015=
200509090650 METAR ESMX 090650Z 26005KT 9999 BKN013 14/12 Q1015=
200509090620 METAR ESMX 090620Z 28005KT 9999 FEW010 14/12 Q1015=
200509090550 METAR ESMX 090550Z VRB03KT CAVOK 13/12 Q1015=
200509090520 METAR ESMX 090520Z 28004KT 9999 FEW015 12/11 Q1014=
200509090450 METAR ESMX 090450Z VRB03KT 9999 FEW013 12/11 Q1014=
200509090420 METAR ESMX 090420Z VRB03KT CAVOK 12/10 Q1014=
200509090350 METAR ESMX 090350Z 26005KT 230V290 CAVOK 13/11 Q1014=
200509090320 METAR ESMX 090320Z AUTO 24005KT 9999 NSC 13/12 Q1013=
200509090250 METAR ESMX 090250Z AUTO VRB03KT 9999 NSC 13/12 Q1013=
200509090220 METAR ESMX 090220Z AUTO 26005KT 230V290 9999 NSC 14/13 Q1013=
200509090150 METAR ESMX 090150Z AUTO 26006KT 210V320 9999 NSC 15/13 Q1013=
200509090120 METAR ESMX 090120Z AUTO 28009KT 250V320 9999 FEW017 16/13 Q1013=
200509090050 METAR ESMX 090050Z AUTO 25006KT 9999 FEW016 BKN018 16/14 Q1012=
200509090020 METAR ESMX 090020Z AUTO 26008KT 230V290 9999 BKN036 17/14 Q1012=
200509082350 METAR ESMX 082350Z AUTO 25009KT 210V280 9999 FEW017 OVC032 17/14 Q1012=
200509082320 METAR ESMX 082320Z AUTO 23007KT 200V260 9999 FEW015 OVC031 17/15 Q1012=
200509082250 METAR ESMX 082250Z AUTO 22008KT 9999 FEW015 BKN017 OVC023 17/15 Q1012=
200509082220 METAR ESMX 082220Z 24008KT 9999 SCT017 OVC033 17/15 Q1012=
200509082150 METAR ESMX 082150Z 24008KT 9999 FEW016 SCT019 OVC033 17/15 Q1012=
200509082120 METAR ESMX 082120Z 23006KT 200V260 9999 FEW016 OVC030 18/15 Q1011=
200509082050 METAR ESMX 082050Z 24009KT 200V260 9999 FEW017 BKN019 18/14 Q1011=
200509082020 METAR ESMX 082020Z 22010KT 200V260 9999 SCT020 OVC032 18/14 Q1011=
200509081950 METAR ESMX 081950Z 24009KT 9999 SCT021 BKN034 18/14 Q1011=
200509081920 METAR ESMX 081920Z 24009KT 9999 SCT025 BKN056 18/14 Q1011=
200509081850 METAR ESMX 081850Z 22011KT 170V250 9999 FEW047 BKN060 18/13 Q1010=
200509081820 METAR ESMX 081820Z 23010KT 200V280 9999 SCT043 19/13 Q1010=
200509081750 METAR ESMX 081750Z 22009KT 9999 FEW040 19/13 Q1010=
200509081720 METAR ESMX 081720Z 24010KT 9999 BKN047 20/13 Q1010=
200509081650 METAR ESMX 081650Z 24009KT 190V280 9999 SCT050 20/14 Q1010=
200509081620 METAR ESMX 081620Z 25009KT 220V280 9999 FEW035 21/14 Q1010=
200509081550 METAR ESMX 081550Z 25010KT 220V290 9999 FEW040 22/14 Q1010=
200509081520 METAR ESMX 081520Z 23011KT 200V270 9999 FEW037 22/14 Q1009=
200509081450 METAR ESMX 081450Z 23012KT 200V260 9999 FEW037 SCT040 23/14 Q1010=
200509081420 METAR ESMX 081420Z 23014KT 9999 FEW035 SCT040 BKN045 22/15 Q1009=
200509081350 METAR ESMX 081350Z 20009KT 170V240 9999 SCT041 22/15 Q1010=
200509081320 METAR ESMX 081320Z 21011KT 180V240 9999 FEW035 SCT051 21/15 Q1010=
200509081250 METAR ESMX 081250Z 20011KT 170V240 9999 FEW034 BKN048 22/15 Q1010=
200509081150 METAR ESMX 081150Z 21010KT 170V240 9999 FEW037 BKN100 21/15 Q1010=
200509081120 METAR ESMX 081120Z 21013KT 9999 SCT031 21/15 Q1010=
200509081050 METAR ESMX 081050Z 21013KT 170V240 9999 SCT033 21/14 Q1010=
200509081020 METAR ESMX 081020Z 22013KT 200V260 9999 FEW033 BKN040 21/14 Q1010=
200509080950 METAR ESMX 080950Z 23010KT 180V260 9999 FEW025 BKN030 20/14 Q1010=
200509080920 METAR ESMX 080920Z 21010KT 9999 SCT020 BKN027 19/14 Q1011=
200509080850 METAR ESMX 080850Z 24010KT 210V280 9999 SCT022 BKN025 18/14 Q1010=
200509080820 METAR ESMX 080820Z 23011KT 210V270 9999 BKN021 18/14 Q1010=
200509080750 METAR ESMX 080750Z 23010KT 200V260 9999 SCT019 BKN038 18/14 Q1010=
200509080720 METAR ESMX 080720Z 24009KT 210V290 9999 SCT014 BKN034 17/14 Q1010=
200509080650 METAR ESMX 080650Z 24009KT 9999 SCT015 16/14 Q1010=
200509080620 METAR ESMX 080620Z 23009KT 9999 SCT012 16/14 Q1010=
200509080550 METAR ESMX 080550Z 22009KT 9999 SCT013 15/14 Q1009=
200509080520 METAR ESMX 080520Z 22009KT 9999 BKN015 15/13 Q1009=
200509080450 METAR ESMX 080450Z 21006KT 160V240 7000 BR BKN013 15/14 Q1009=
200509080420 METAR ESMX 080420Z 21006KT 5000 BR FEW015 15/14 Q1009=
200509080350 METAR ESMX 080350Z 21007KT 4900 BR SCT010 15/14 Q1008=
200509080320 METAR ESMX 080320Z AUTO 21007KT 5000 BR FEW014 15/14 Q1008=
200509080250 METAR ESMX 080250Z AUTO 21008KT 160V240 6000 BR FEW010 16/15 Q1008=
200509080220 METAR ESMX 080220Z AUTO 23009KT 6000 BR FEW011 16/15 Q1008=
200509080150 METAR ESMX 080150Z AUTO 23007KT 200V270 6000 BR SCT010 16/15 Q1008=
200509080120 METAR ESMX 080120Z AUTO 21008KT 5000 BR FEW010 16/15 Q1009=
200509080050 METAR ESMX 080050Z AUTO 21008KT 5000 BR FEW010 17/15 Q1008=
200509080020 METAR ESMX 080020Z AUTO 21008KT 5000 BR NSC 17/15 Q1009=
200509072350 METAR ESMX 072350Z 23009KT 6000 BR BKN011 17/15 Q1009=
200509072320 METAR ESMX 072320Z 22009KT 5000 BR FEW011 17/15 Q1009=
200509072250 METAR ESMX 072250Z 23008KT 5000 BR NSC 17/15 Q1009=
200509072220 METAR ESMX 072220Z 21009KT 6000 BR NSC 17/16 Q1009=
200509072150 METAR ESMX 072150Z 21008KT 5000 BR NSC 17/16 Q1009=
200509072120 METAR ESMX 072120Z 20008KT 7000 BR NSC 17/16 Q1009=
200509072050 METAR ESMX 072050Z 20008KT 7000 BR NSC 18/15 Q1009=
200509072020 METAR ESMX 072020Z 23008KT 8000 BR FEW055 18/15 Q1009=
200509071950 METAR ESMX 071950Z 20007KT 8000 BR SCT055 18/15 Q1009=
200509071920 METAR ESMX 071920Z 21007KT 8000 BR FEW020 18/16 Q1009=
200509071850 METAR ESMX 071850Z 22006KT 6000 BR FEW018 18/16 Q1009=
200509071820 METAR ESMX 071820Z 23007KT 190V260 5000 BR FEW017 19/16 Q1009=
200509071750 METAR ESMX 071750Z 24008KT 210V270 5000 BR FEW015 19/16 Q1008=
200509071720 METAR ESMX 071720Z 22007KT 170V250 5000 BR FEW015 19/16 Q1008=
200509071650 METAR ESMX 071650Z 24007KT 210V270 5000 BR FEW015 19/16 Q1008=
200509071620 METAR ESMX 071620Z 23008KT 170V280 5000 BR FEW017 20/16 Q1008=
200509071550 METAR ESMX 071550Z 22010KT 200V260 6000 BR FEW020 SCT070 20/16 Q1008=
200509071520 METAR ESMX 071520Z 22008KT 190V260 9000 BR FEW045 20/16 Q1008=
200509071450 METAR ESMX 071450Z 25008KT 220V290 9999 -SHRA BKN045 20/16 Q1008=
200509071420 METAR ESMX 071420Z 27011KT 230V340 9999 -SHRA FEW015CB BKN060 20/16 Q1008=
200509071350 METAR ESMX 071350Z 24007KT 200V280 CAVOK 23/13 Q1008=
200509071320 METAR ESMX 071320Z 21011KT CAVOK 23/13 Q1008=
200509071250 METAR ESMX 071250Z 21012G22KT 170V230 CAVOK 24/13 Q1008=
200509071220 METAR ESMX 071220Z 20017KT 160V220 CAVOK 25/14 Q1008=
200509071150 METAR ESMX 071150Z 19016KT CAVOK 25/13 Q1008=
200509071120 METAR ESMX 071120Z 19012KT CAVOK 25/13 Q1008=
200509071050 METAR ESMX 071050Z 19010KT 150V230 CAVOK 24/13 Q1008=
200509071020 METAR ESMX 071020Z 19011KT CAVOK 23/13 Q1009=
200509070950 METAR ESMX 070950Z 19010KT 140V210 CAVOK 22/13 Q1009=
200509070920 METAR ESMX 070920Z 21011KT CAVOK 22/14 Q1009=
200509070850 METAR ESMX 070850Z 20011KT CAVOK 21/15 Q1010=
200509070820 METAR ESMX 070820Z 20012KT CAVOK 20/14 Q1010=
200509070750 METAR ESMX 070750Z 19009KT CAVOK 19/14 Q1010=
200509070720 METAR ESMX 070720Z 19009KT CAVOK 17/14 Q1009=
200509070650 METAR ESMX 070650Z 19007KT CAVOK 16/14 Q1009=
200509070620 METAR ESMX 070620Z 17005KT CAVOK 15/13 Q1009=
200509070550 METAR ESMX 070550Z 17005KT CAVOK 15/13 Q1009=
200509070520 METAR ESMX 070520Z 17005KT CAVOK 14/13 Q1009=
200509070450 METAR ESMX 070450Z 17005KT CAVOK 14/12 Q1010=
200509070420 METAR ESMX 070420Z 17004KT 7000 BR NSC 13/12 Q1010=
200509070350 METAR ESMX 070350Z 17004KT 4000 BR NSC 13/12 Q1010=
200509070320 METAR ESMX 070320Z AUTO 16005KT 4000 BR NSC 13/12 Q1010=
200509070250 METAR ESMX 070250Z AUTO 16005KT 4500 BR NSC 13/12 Q1011=
200509070220 METAR ESMX 070220Z AUTO 16005KT 5000 BR NSC 13/12 Q1011=
200509070150 METAR ESMX 070150Z AUTO 17005KT 7000 BR NSC 13/12 Q1011=
200509070120 METAR ESMX 070120Z AUTO 17005KT 7000 BR NSC 13/12 Q1011=
200509070050 METAR ESMX 070050Z AUTO 16006KT 8000 BR NSC 14/12 Q1011=
200509070020 METAR ESMX 070020Z 17005KT 9000 BR NSC 14/12 Q1012=
200509062350 METAR ESMX 062350Z 15006KT 9000 BR NSC 14/12 Q1012=
200509062320 METAR ESMX 062320Z 15004KT 110V190 9000 BR NSC 13/12 Q1012=
200509062250 METAR ESMX 062250Z 15004KT 8000 BR NSC 13/12 Q1012=
200509062220 METAR ESMX 062220Z VRB03KT 8000 BR NSC 11/10 Q1013=
200509062150 METAR ESMX 062150Z 15004KT 7000 BR NSC 13/12 Q1013=
200509062120 METAR ESMX 062120Z VRB03KT CAVOK 13/12 Q1013=
200509062050 METAR ESMX 062050Z 17004KT 140V200 CAVOK 15/13 Q1014=
200509062020 METAR ESMX 062020Z 15005KT CAVOK 16/13 Q1014=
200509061950 METAR ESMX 061950Z 15006KT CAVOK 16/13 Q1014=
200509061920 METAR ESMX 061920Z 16005KT CAVOK 17/13 Q1014=
200509061850 METAR ESMX 061850Z 15006KT CAVOK 18/12 Q1014=
200509061820 METAR ESMX 061820Z 16005KT CAVOK 17/12 Q1014=
200509061750 METAR ESMX 061750Z 16005KT CAVOK 18/12 Q1014=
200509061720 METAR ESMX 061720Z 15006KT CAVOK 20/12 Q1014=
200509061650 METAR ESMX 061650Z 16007KT CAVOK 21/11 Q1014=
200509061620 METAR ESMX 061620Z 16008KT 130V190 CAVOK 22/11 Q1014=
200509061550 METAR ESMX 061550Z 17008KT 140V210 CAVOK 23/10 Q1014=
200509061520 METAR ESMX 061520Z 17009KT CAVOK 23/10 Q1014=
200509061450 METAR ESMX 061450Z 17009KT 140V200 CAVOK 23/10 Q1014=
200509061420 METAR ESMX 061420Z 17009KT 140V200 CAVOK 24/10 Q1014=
200509061350 METAR ESMX 061350Z 15010KT 120V190 CAVOK 23/10 Q1015=
200509061320 METAR ESMX 061320Z 18009KT CAVOK 24/10 Q1015=
200509061250 METAR ESMX 061250Z 17011KT 130V200 CAVOK 24/11 Q1015=
200509061220 METAR ESMX 061220Z 18010KT 140V200 CAVOK 24/12 Q1015=
200509061150 METAR ESMX 061150Z 15009KT 110V190 CAVOK 23/11 Q1016=
200509061120 METAR ESMX 061120Z 16008KT 120V190 CAVOK 23/12 Q1016=
200509061050 METAR ESMX 061050Z 17008KT 130V210 CAVOK 23/12 Q1016=
200509061020 METAR ESMX 061020Z 16009KT 120V210 CAVOK 22/12 Q1017=
200509060950 METAR ESMX 060950Z 17009KT 130V200 CAVOK 22/11 Q1017=
200509060920 METAR ESMX 060920Z 16006KT 130V200 CAVOK 21/11 Q1017=
200509060850 METAR ESMX 060850Z 15006KT 110V190 CAVOK 20/12 Q1017=
200509060820 METAR ESMX 060820Z 14004KT 110V170 CAVOK 18/12 Q1017=
200509060750 METAR ESMX 060750Z VRB03KT CAVOK 17/13 Q1017=
200509060720 METAR ESMX 060720Z VRB02KT CAVOK 15/13 Q1017=
200509060650 METAR ESMX 060650Z VRB01KT CAVOK 13/13 Q1017=
200509060620 METAR ESMX 060620Z 00000KT 2200 R01/P1500U R19/0800VP1500U BCFG VV002 11/11 Q1018=
200509060550 METAR ESMX 060550Z 00000KT 0150 R01/0200N R19/M0150V0275N FG VV002 08/08 Q1018=
200509060520 METAR ESMX 060520Z 00000KT 0100 R01/0200N R19/0275N FG VV001 07/07 Q1018=
200509060450 METAR ESMX 060450Z VRB02KT 0200 R01/0200N R19/0650U FG VV002 06/05 Q1018=
200509060420 METAR ESMX 060420Z VRB01KT 0100 R01/0350N R19/0800VP1500N FG VV002 05/05 Q1018=
200509060350 METAR ESMX 060350Z VRB01KT 0900 R01/0650V1400D R19/P1500N FG VV002 05/04 Q1018=
200509060320 METAR ESMX 060320Z AUTO 00000KT 0100 R01/0450D R19/0500VP1500D FG NSC 05/05 Q1018=
200509060250 METAR ESMX 060250Z AUTO VRB01KT 0300 R01/P1500U R19/P1500N FG NSC 05/05 Q1018=
200509060220 METAR ESMX 060220Z AUTO VRB01KT 0200 R01/P1500N R19/P1500N FG NSC 05/05 Q1018=
200509060150 METAR ESMX 060150Z AUTO 00000KT 0250 R01/P1500U R19/P1500N FG NSC 06/05 Q1018=
200509060120 METAR ESMX 060120Z AUTO 00000KT 1500 BR NSC 06/06 Q1018=
200509060050 METAR ESMX 060050Z AUTO VRB01KT 4600 BR NSC 06/06 Q1018=
200509060020 METAR ESMX 060020Z VRB01KT 9999 MIFG NSC 06/06 Q1018=
200509052350 METAR ESMX 052350Z 00000KT CAVOK 07/06 Q1018=
200509052320 METAR ESMX 052320Z VRB01KT CAVOK 07/07 Q1018=
200509052250 METAR ESMX 052250Z VRB02KT CAVOK 07/06 Q1018=
200509052220 METAR ESMX 052220Z VRB02KT CAVOK 07/06 Q1019=
200509052150 METAR ESMX 052150Z VRB02KT CAVOK 08/07 Q1019=
200509052120 METAR ESMX 052120Z VRB02KT CAVOK 07/06 Q1019=
200509052050 METAR ESMX 052050Z VRB02KT CAVOK 08/08 Q1019=
200509052020 METAR ESMX 052020Z 00000KT CAVOK 08/08 Q1019=
200509051950 METAR ESMX 051950Z VRB02KT CAVOK 10/09 Q1019=
200509051920 METAR ESMX 051920Z VRB03KT CAVOK 11/09 Q1019=
200509051850 METAR ESMX 051850Z 22004KT CAVOK 11/09 Q1019=
200509051820 METAR ESMX 051820Z VRB02KT CAVOK 12/10 Q1019=
200509051750 METAR ESMX 051750Z VRB03KT CAVOK 13/11 Q1019=
200509051720 METAR ESMX 051720Z VRB02KT CAVOK 16/12 Q1019=
200509051650 METAR ESMX 051650Z VRB02KT CAVOK 19/09 Q1019=
200509051620 METAR ESMX 051620Z VRB02KT CAVOK 19/09 Q1019=
200509051550 METAR ESMX 051550Z 26004KT 210V270 CAVOK 20/08 Q1019=
200509051520 METAR ESMX 051520Z 22004KT CAVOK 20/08 Q1019=
200509051450 METAR ESMX 051450Z 24005KT CAVOK 20/08 Q1019=
200509051420 METAR ESMX 051420Z 24005KT 190V270 CAVOK 20/08 Q1020=
200509051350 METAR ESMX 051350Z 25005KT 190V300 CAVOK 21/09 Q1020=
200509051320 METAR ESMX 051320Z 20008KT 170V250 CAVOK 21/07 Q1020=
200509051250 METAR ESMX 051250Z 22006KT 170V270 CAVOK 20/07 Q1021=
200509051220 METAR ESMX 051220Z 26006KT 230V330 CAVOK 20/08 Q1021=
200509051150 METAR ESMX 051150Z 23007KT 190V270 CAVOK 20/10 Q1021=
200509051120 METAR ESMX 051120Z 26005KT 190V310 CAVOK 19/11 Q1021=
200509051050 METAR ESMX 051050Z 24004KT 160V290 CAVOK 18/10 Q1021=
200509051020 METAR ESMX 051020Z 28004KT 220V320 CAVOK 16/12 Q1022=
200509050950 METAR ESMX 050950Z VRB01KT 9999 FEW007 14/12 Q1022=
200509050920 METAR ESMX 050920Z VRB03KT 9999 SCT006 12/12 Q1022=
200509050850 METAR ESMX 050850Z VRB03KT 8000 BR OVC003 11/11 Q1023=
200509050820 METAR ESMX 050820Z VRB01KT 7000 BR OVC003 11/10 Q1023=
200509050750 METAR ESMX 050750Z VRB02KT 2000 BR OVC002 10/10 Q1023=
200509050720 METAR ESMX 050720Z VRB01KT 0600 R01/0900U R19/0900VP1500U FG VV002 09/09 Q1023=
200509050650 METAR ESMX 050650Z VRB03KT 0400 R01/0700V1200U R19/0450V0800N FG VV002 09/09 Q1023=
200509050620 METAR ESMX 050620Z VRB02KT 0300 R01/0550N R19/0650D FG VV002 09/08 Q1023=
200509050550 METAR ESMX 050550Z VRB03KT 0200 R01/0350V0500N R19/0500D FG VV001 08/08 Q1023=
200509050520 METAR ESMX 050520Z VRB02KT 0150 R01/0350V0500N R19/0350V0650U FG VV002 08/08 Q1023=
200509050450 METAR ESMX 050450Z VRB03KT 0200 R01/0800U R19/0700N FG VV002 08/08 Q1023=
200509050420 METAR ESMX 050420Z VRB03KT 0200 R01/0600N R19/0800N FG VV002 08/08 Q1023=
200509050350 METAR ESMX 050350Z VRB03KT 0200 R01/0800V1200N R19/0800V1200D FG VV002 08/08 Q1023=
200509050120 METAR ESMX 050120Z VRB03KT 2100 OVC001 09/09 Q1024=
200509050050 METAR ESMX 050050Z VRB03KT 0550 R01/P1500N R19/1000VP1500U FG BKN002 10/10 Q1024=
200509050020 METAR ESMX 050020Z VRB03KT 0200 R01/0800N R19/0900N FG VV002 11/11 Q1024=
200509042350 METAR ESMX 042350Z 27004KT 220V350 0250 R01/0800N R19/0700D FG VV002 11/11 Q1024=
200509042320 METAR ESMX 042320Z VRB01KT CAVOK 09/09 Q1024=
200509042250 METAR ESMX 042250Z 00000KT 6000 BR NSC 10/09 Q1024=
200509042220 METAR ESMX 042220Z VRB03KT CAVOK 11/10 Q1024=
200509042150 METAR ESMX 042150Z 23004KT CAVOK 11/09 Q1024=
200509042120 METAR ESMX 042120Z 23005KT CAVOK 11/09 Q1025=
200509042050 METAR ESMX 042050Z VRB03KT CAVOK 12/09 Q1025=
200509042020 METAR ESMX 042020Z 25004KT CAVOK 12/09 Q1025=
200509041950 METAR ESMX 041950Z VRB03KT CAVOK 13/10 Q1025=
200509041920 METAR ESMX 041920Z 23004KT CAVOK 14/10 Q1025=
200509041850 METAR ESMX 041850Z 26004KT CAVOK 15/10 Q1025=
200509041820 METAR ESMX 041820Z 25004KT CAVOK 15/11 Q1025=
200509041750 METAR ESMX 041750Z 24004KT CAVOK 17/11 Q1025=
200509041720 METAR ESMX 041720Z VRB03KT CAVOK 17/12 Q1025=
200509041650 METAR ESMX 041650Z VRB02KT CAVOK 19/13 Q1026=
200509041620 METAR ESMX 041620Z VRB03KT CAVOK 19/12 Q1026=
200509041550 METAR ESMX 041550Z 26004KT 190V320 9999 BKN039 21/12 Q1026=
200509041520 METAR ESMX 041520Z 23005KT 200V270 9999 FEW041 20/12 Q1026=
200509041450 METAR ESMX 041450Z 21007KT 170V240 9999 FEW043 20/12 Q1027=
200509041420 METAR ESMX 041420Z 24006KT 9999 FEW039 20/12 Q1027=
200509041350 METAR ESMX 041350Z 20006KT 160V240 9999 SCT038 20/12 Q1027=
200509041320 METAR ESMX 041320Z 23006KT 190V270 9999 FEW043 21/12 Q1028=
200509041250 METAR ESMX 041250Z 20005KT 170V260 9999 FEW034 20/11 Q1028=
200509041220 METAR ESMX 041220Z AUTO 20006KT 140V240 9999 FEW041 19/13 Q1028=
200509041150 METAR ESMX 041150Z AUTO 22006KT 190V250 9999 SCT033 19/13 Q1028=
200509041120 METAR ESMX 041120Z AUTO 23005KT 190V280 9999 NSC 19/12 Q1029=
200509041050 METAR ESMX 041050Z AUTO 25004KT 170V270 9999 FEW088 19/12 Q1029=
200509041020 METAR ESMX 041020Z AUTO 21006KT 160V260 9999 FEW026 19/14 Q1029=
200509040950 METAR ESMX 040950Z AUTO 22008KT 150V240 9999 FEW024 SCT030 19/12 Q1029=
200509040920 METAR ESMX 040920Z AUTO 22006KT 170V260 9999 FEW020 BKN030 18/12 Q1030=
200509040850 METAR ESMX 040850Z AUTO 19004KT 160V230 9999 FEW018 SCT040 17/13 Q1030=
200509040820 METAR ESMX 040820Z AUTO 16004KT 120V190 9999 BKN039 17/13 Q1030=
200509040750 METAR ESMX 040750Z AUTO 16004KT 140V200 9999 FEW041 16/13 Q1030=
200509040720 METAR ESMX 040720Z AUTO 16004KT 120V200 9999 NSC 16/13 Q1030=
200509040650 METAR ESMX 040650Z AUTO VRB02KT 9999 FEW041 14/13 Q1030=
200509040620 METAR ESMX 040620Z AUTO VRB02KT 9999 BCFG BKN039 13/13 Q1030=
200509040550 METAR ESMX 040550Z AUTO VRB01KT 0300 R01/0750U R19/P1500U FG FEW027 SCT041 11/11 Q1030=
200509040520 METAR ESMX 040520Z AUTO VRB01KT 7000 BKN026 OVC042 10/10 Q1030=
200509040450 METAR ESMX 040450Z AUTO 00000KT 9999 BCFG FEW002 OVC025 08/08 Q1030=
200509040420 METAR ESMX 040420Z AUTO 00000KT 0350 R01/0600V1200U R19/0600U FG OVC002 07/07 Q1030=
200509040350 METAR ESMX 040350Z AUTO 00000KT 0150 R01/0450V0650N R19/0500N FG SCT001 08/08 Q1030=
200509040320 METAR ESMX 040320Z AUTO VRB01KT 0150 R01/P1500U R19/P1500N BCFG FEW001 07/07 Q1031=
200509040250 METAR ESMX 040250Z AUTO 00000KT 9999 FEW041 08/07 Q1031=
200509040220 METAR ESMX 040220Z AUTO 00000KT 9999 BCFG FEW041 07/07 Q1031=
200509040150 METAR ESMX 040150Z AUTO 00000KT 9999 NSC 08/07 Q1031=
200509040120 METAR ESMX 040120Z AUTO 00000KT 1400 R01/P1500N R19/P1500U BR NSC 08/08 Q1031=
200509040050 METAR ESMX 040050Z AUTO 00000KT 9999 FEW022 09/09 Q1031=
200509040020 METAR ESMX 040020Z AUTO 00000KT 9999 FEW015 SCT021 10/10 Q1031=
200509032350 METAR ESMX 032350Z AUTO VRB01KT 9999 BR SCT019 10/10 Q1031=
200509032320 METAR ESMX 032320Z AUTO VRB02KT 8000 BR FEW020 10/10 Q1031=
200509032250 METAR ESMX 032250Z AUTO VRB01KT 9999 SCT020 11/10 Q1031=
200509032220 METAR ESMX 032220Z AUTO VRB03KT 9999 NSC 12/11 Q1031=
200509032150 METAR ESMX 032150Z AUTO VRB03KT 9999 NSC 12/11 Q1031=
200509032120 METAR ESMX 032120Z AUTO VRB02KT 9999 NSC 12/11 Q1030=
200509032050 METAR ESMX 032050Z AUTO VRB03KT 9999 NSC 12/11 Q1031=
200509032020 METAR ESMX 032020Z AUTO 03005KT 9999 NSC 14/12 Q1031=
200509031950 METAR ESMX 031950Z AUTO 02006KT 9999 NSC 15/12 Q1031=
200509031920 METAR ESMX 031920Z AUTO 36006KT 9999 NSC 14/12 Q1031=
200509031850 METAR ESMX 031850Z AUTO 02005KT 9999 NSC 14/12 Q1031=
200509031820 METAR ESMX 031820Z AUTO VRB01KT 4800 NSC 14/12 Q1030=
200509031750 METAR ESMX 031750Z AUTO 02004KT 9999 NSC 16/12 Q1030=
200509031720 METAR ESMX 031720Z AUTO 02005KT 9999 NSC 18/12 Q1030=
200509031650 METAR ESMX 031650Z AUTO 02005KT 350V060 9999 NSC 19/13 Q1030=
200509031620 METAR ESMX 031620Z AUTO 36006KT 9999 FEW035 20/13 Q1030=
200509031550 METAR ESMX 031550Z AUTO 35006KT 320V020 9999 NSC 20/13 Q1030=
200509031520 METAR ESMX 031520Z AUTO 36007KT 9999 NSC 21/13 Q1030=
200509031450 METAR ESMX 031450Z AUTO 34006KT 320V020 9999 NSC 21/12 Q1029=
200509031420 METAR ESMX 031420Z AUTO 01007KT 9999 NSC 21/12 Q1029=
200509031350 METAR ESMX 031350Z AUTO 02006KT 330V050 9999 NSC 21/13 Q1029=
200509031320 METAR ESMX 031320Z AUTO 34006KT 9999 NSC 21/13 Q1029=
200509031250 METAR ESMX 031250Z AUTO 01008KT 9999 NSC 20/13 Q1029=
200509031220 METAR ESMX 031220Z AUTO 02008KT 340V050 9999 NSC 20/13 Q1029=
200509031150 METAR ESMX 031150Z AUTO 02008KT 340V040 9999 NSC 20/12 Q1029=
200509031120 METAR ESMX 031120Z AUTO 36007KT 340V040 9999 NSC 19/12 Q1029=
200509031050 METAR ESMX 031050Z AUTO 34006KT 270V010 9999 NSC 19/12 Q1029=
200509031020 METAR ESMX 031020Z AUTO 28007KT 9999 NSC 18/11 Q1029=
200509030950 METAR ESMX 030950Z AUTO 31005KT 240V030 9999 NSC 18/11 Q1029=
200509030920 METAR ESMX 030920Z 27006KT 240V320 CAVOK 17/11 Q1029=
200509030850 METAR ESMX 030850Z 28005KT 230V330 CAVOK 17/11 Q1029=
200509030820 METAR ESMX 030820Z 29005KT 250V340 CAVOK 16/11 Q1029=
200509030750 METAR ESMX 030750Z 30005KT 260V340 CAVOK 15/10 Q1029=
200509030720 METAR ESMX 030720Z 31005KT 260V350 CAVOK 14/10 Q1029=
200509030650 METAR ESMX 030650Z 29004KT 250V010 CAVOK 13/10 Q1029=
200509030620 METAR ESMX 030620Z AUTO 30004KT 260V340 9999 NSC 12/09 Q1028=
200509030550 METAR ESMX 030550Z AUTO 29005KT 9999 NSC 11/09 Q1028=
200509030520 METAR ESMX 030520Z AUTO 31004KT 9999 NSC 10/09 Q1028=
200509030450 METAR ESMX 030450Z AUTO VRB03KT 9999 NSC 10/09 Q1028=
200509030420 METAR ESMX 030420Z AUTO 29004KT 9999 NSC 11/10 Q1028=
200509030350 METAR ESMX 030350Z AUTO 27004KT 9999 NSC 11/10 Q1027=
200509030320 METAR ESMX 030320Z AUTO 27006KT 9999 NSC 12/11 Q1027=
200509030250 METAR ESMX 030250Z AUTO VRB03KT 9999 NSC 13/11 Q1027=
200509030220 METAR ESMX 030220Z AUTO 30005KT 9999 SCT020 14/12 Q1027=
200509030150 METAR ESMX 030150Z AUTO 27006KT 9999 OVC020 15/13 Q1027=
200509030120 METAR ESMX 030120Z AUTO 27005KT 230V300 9999 FEW011 SCT014 OVC020 15/13 Q1027=
200509030050 METAR ESMX 030050Z AUTO 29004KT 250V320 9999 FEW009 SCT012 BKN014 15/13 Q1027=
200509030020 METAR ESMX 030020Z AUTO 27006KT 9999 OVC006 15/13 Q1027=
200509022350 METAR ESMX 022350Z AUTO VRB03KT 9999 OVC007 15/13 Q1027=
200509022320 METAR ESMX 022320Z AUTO 20004KT 9999 FEW008 OVC010 15/13 Q1027=
200509022250 METAR ESMX 022250Z AUTO 18005KT 9999 FEW015 BKN054 15/12 Q1027=
200509022220 METAR ESMX 022220Z AUTO 19004KT 9999 SCT045 BKN071 BKN083 14/12 Q1026=
200509022150 METAR ESMX 022150Z AUTO VRB03KT 9999 OVC057 15/12 Q1026=
200509022120 METAR ESMX 022120Z AUTO 15004KT 9999 OVC053 16/12 Q1026=
200509022050 METAR ESMX 022050Z AUTO 15004KT 9999 BKN059 OVC073 16/12 Q1026=
200509022020 METAR ESMX 022020Z AUTO VRB03KT 9999 FEW079 BKN099 BKN110 16/12 Q1026=
200509021920 METAR ESMX 021920Z 20004KT CAVOK 16/11 Q1026=
200509021850 METAR ESMX 021850Z 19005KT CAVOK 17/11 Q1026=
200509021820 METAR ESMX 021820Z 19004KT CAVOK 18/11 Q1025=
200509021750 METAR ESMX 021750Z 16005KT CAVOK 19/11 Q1025=
200509021720 METAR ESMX 021720Z 17005KT CAVOK 19/11 Q1025=
200509021650 METAR ESMX 021650Z 16005KT CAVOK 20/09 Q1025=
200509021620 METAR ESMX 021620Z 17007KT CAVOK 20/10 Q1025=
200509021550 METAR ESMX 021550Z 17007KT CAVOK 21/09 Q1025=
200509021520 METAR ESMX 021520Z 16009KT 130V200 CAVOK 22/09 Q1025=
200509021450 METAR ESMX 021450Z 16009KT 120V200 CAVOK 22/09 Q1024=
200509021420 METAR ESMX 021420Z 17008KT 130V200 CAVOK 23/09 Q1024=
200509021350 METAR ESMX 021350Z 17009KT 140V200 CAVOK 23/10 Q1024=
200509021320 METAR ESMX 021320Z 17010KT 130V200 CAVOK 23/10 Q1024=
200509021220 METAR ESMX 021220Z 16009KT 120V210 CAVOK 23/12 Q1024=
200509021150 METAR ESMX 021150Z 16010KT CAVOK 23/11 Q1024=
200509021120 METAR ESMX 021120Z 17009KT 120V210 CAVOK 23/11 Q1024=
200509021050 METAR ESMX 021050Z 16008KT 120V200 CAVOK 22/12 Q1024=
200509021020 METAR ESMX 021020Z 13007KT 090V170 CAVOK 22/12 Q1024=
200509020950 METAR ESMX 020950Z 15007KT 120V190 CAVOK 20/13 Q1025=
200509020920 METAR ESMX 020920Z 13007KT 100V170 CAVOK 20/14 Q1025=
200509020850 METAR ESMX 020850Z 11009KT 070V180 CAVOK 19/13 Q1025=
200509020820 METAR ESMX 020820Z 15005KT 100V190 CAVOK 18/14 Q1025=
200509020750 METAR ESMX 020750Z 13005KT 080V190 CAVOK 17/14 Q1024=
200509020720 METAR ESMX 020720Z 12006KT 090V170 9000 FEW009 16/13 Q1024=
200509020650 METAR ESMX 020650Z 14005KT 100V200 9999 FEW007 SCT008 15/13 Q1024=
200509020620 METAR ESMX 020620Z 13005KT 100V180 9999 BKN005 15/13 Q1024=
200509020550 METAR ESMX 020550Z 15004KT 110V190 9999 OVC004 14/13 Q1024=
200509020520 METAR ESMX 020520Z 14004KT 080V170 9999 OVC004 14/13 Q1024=
200509020450 METAR ESMX 020450Z 15006KT 120V190 9999 BKN004 13/13 Q1024=
200509020420 METAR ESMX 020420Z 14007KT 9999 SCT004 BKN006 13/12 Q1024=
200509020350 METAR ESMX 020350Z 14005KT 9999 BKN003 13/12 Q1024=
200509020320 METAR ESMX 020320Z 13004KT 9999 FEW004 BKN005 12/12 Q1024=
200509020250 METAR ESMX 020250Z AUTO 13004KT 080V170 9999 FEW005 12/12 Q1024=
200509020220 METAR ESMX 020220Z AUTO 13004KT 080V170 9999 FEW004 12/11 Q1024=
200509020150 METAR ESMX 020150Z AUTO 12004KT 070V180 9999 FEW004 12/11 Q1024=
200509020120 METAR ESMX 020120Z AUTO 11004KT 060V180 9999 NSC 12/11 Q1024=
200509020050 METAR ESMX 020050Z 11004KT 9999 FEW004 12/11 Q1025=
200509020020 METAR ESMX 020020Z 11004KT 9999 FEW004 11/11 Q1025=
200509012350 METAR ESMX 012350Z VRB03KT CAVOK 11/11 Q1024=
200509012320 METAR ESMX 012320Z VRB03KT CAVOK 11/11 Q1024=
200509012250 METAR ESMX 012250Z VRB03KT CAVOK 12/11 Q1025=
200509012220 METAR ESMX 012220Z 11004KT CAVOK 12/11 Q1024=
200509012150 METAR ESMX 012150Z 12004KT CAVOK 12/11 Q1024=
200509012120 METAR ESMX 012120Z 11004KT CAVOK 13/11 Q1024=
200509012050 METAR ESMX 012050Z 12004KT CAVOK 13/10 Q1024=
200509012020 METAR ESMX 012020Z 12004KT CAVOK 13/10 Q1024=
200509011950 METAR ESMX 011950Z 12005KT CAVOK 14/10 Q1024=
200509011920 METAR ESMX 011920Z 12004KT CAVOK 15/09 Q1024=
200509011850 METAR ESMX 011850Z 12005KT 070V170 CAVOK 15/10 Q1024=
200509011820 METAR ESMX 011820Z 12005KT 070V170 CAVOK 16/10 Q1024=
200509011750 METAR ESMX 011750Z 13005KT 090V180 CAVOK 17/10 Q1023=
200509011720 METAR ESMX 011720Z 12005KT 070V240 CAVOK 18/10 Q1023=
200509011650 METAR ESMX 011650Z 12006KT 030V180 CAVOK 19/11 Q1023=
200509011620 METAR ESMX 011620Z 14006KT 050V200 CAVOK 20/11 Q1023=
200509011550 METAR ESMX 011550Z 14007KT 060V180 CAVOK 21/12 Q1023=
200509011520 METAR ESMX 011520Z 16008KT 110V170 CAVOK 21/11 Q1023=
200509011450 METAR ESMX 011450Z 16008KT CAVOK 21/10 Q1023=
200509011420 METAR ESMX 011420Z 14009KT 110V180 CAVOK 21/11 Q1024=
200509011350 METAR ESMX 011350Z 16007KT 100V190 CAVOK 21/11 Q1023=
200509011320 METAR ESMX 011320Z 14006KT 080V180 CAVOK 21/11 Q1023=
200509011250 METAR ESMX 011250Z 15008KT 120V180 CAVOK 21/12 Q1024=
200509011220 METAR ESMX 011220Z 13008KT 080V170 CAVOK 21/12 Q1024=
Fallo de consulta: el error es SELECT command denied to user 'users'@'localhost' for table 'tafs_2005'
