##########################################################
# Query made at 04/19/2024 20:48:14 UTC
# Time interval: from 12/01/2005 12:00  to 12/31/2005 12:59  UTC
##########################################################

##########################################################
# ESMX, Vaxjo (Sweden)
# WMO index: 02641. WIGOS ID: 0-20000-0-02648
# Latitude 56-51N. Longitude 014-50E. Altitude 199 m.
##########################################################

200512311250 METAR ESMX 311250Z AUTO 01004KT 9999 -SN FEW011 SCT110 M03/M03 Q0998=
200512311220 METAR ESMX 311220Z AUTO VRB03KT 9999 FEW007 SCT016 BKN029 M03/M04 Q0999=
200512311150 METAR ESMX 311150Z AUTO 01004KT 9999 OVC011 M04/M04 Q0999=
200512311120 METAR ESMX 311120Z AUTO VRB03KT 9999 SCT015 OVC020 M04/M04 Q0999=
200512311050 METAR ESMX 311050Z AUTO VRB02KT 9999 SCT020 BKN100 M04/M05 Q1000=
200512311020 METAR ESMX 311020Z AUTO VRB03KT 9999 FEW016 BKN018 M05/M06 Q1001=
200512310950 METAR ESMX 310950Z AUTO VRB02KT 9999 BKN018 M05/M05 Q1001=
200512310920 METAR ESMX 310920Z AUTO VRB03KT 9999 BKN016 M05/M05 Q1002=
200512310850 METAR ESMX 310850Z AUTO VRB03KT 9999 OVC018 M05/M05 Q1002=
200512310820 METAR ESMX 310820Z AUTO VRB02KT 9999 OVC022 M05/M05 Q1002=
200512310750 METAR ESMX 310750Z AUTO VRB02KT 9999 OVC022 M05/M05 Q1003=
200512310720 METAR ESMX 310720Z AUTO VRB02KT 9999 OVC022 M05/M05 Q1003=
200512310650 METAR ESMX 310650Z AUTO VRB02KT 9999 OVC023 M05/M05 Q1003=
200512310620 METAR ESMX 310620Z AUTO VRB02KT 9999 OVC024 M05/M05 Q1003=
200512310550 METAR ESMX 310550Z AUTO VRB02KT 9999 OVC025 M05/M05 Q1004=
200512310520 METAR ESMX 310520Z AUTO VRB03KT 9999 OVC025 M05/M06 Q1004=
200512310450 METAR ESMX 310450Z AUTO VRB02KT 9999 SCT003 OVC026 M06/M06 Q1005=
200512310420 METAR ESMX 310420Z AUTO VRB02KT 9999 BKN003 OVC024 M06/M06 Q1005=
200512310350 METAR ESMX 310350Z AUTO VRB03KT 9999 SCT001 BKN002 OVC024 M06/M06 Q1006=
200512310320 METAR ESMX 310320Z AUTO VRB01KT 0150 R01/0650N R19/P1500U FG VV001 M07/M08 Q1006=
200512310250 METAR ESMX 310250Z AUTO VRB01KT 0250 R01/0700V1100D R19/1000N FG VV000 M07/M08 Q1006=
200512310220 METAR ESMX 310220Z AUTO VRB02KT 0500 R01/P1500N R19/P1500N FG VV001 M06/M07 Q1007=
200512310150 METAR ESMX 310150Z AUTO VRB02KT 0450 R01/1000VP1500D R19/1300D FG VV001 M06/M06 Q1007=
200512310120 METAR ESMX 310120Z AUTO VRB01KT 1400 R01/P1500N R19/P1500N VV001 M06/M06 Q1007=
200512310050 METAR ESMX 310050Z AUTO VRB02KT 0600 R01/P1500N R19/P1500N FG VV000 M06/M06 Q1008=
200512310020 METAR ESMX 310020Z AUTO VRB01KT 0200 R01/0550V0750D R19/0600N FG VV001 M06/M06 Q1009=
200512302350 METAR ESMX 302350Z AUTO 00000KT 0350 R01/0900VP1500N R19/P1500N FG VV001 M06/M06 Q1009=
200512302320 METAR ESMX 302320Z AUTO VRB02KT 0350 R01/0900VP1500U R19/0900V1300N FG VV001 M06/M06 Q1010=
200512302250 METAR ESMX 302250Z AUTO 00000KT 0150 R01/0600V0800U R19/0900V1300U FG VV001 M06/M07 Q1010=
200512302220 METAR ESMX 302220Z AUTO VRB02KT 0200 R01/0800V1000U R19/P1500U FG VV001 M06/M07 Q1010=
200512302150 METAR ESMX 302150Z AUTO 00000KT 0050 R01/0300N R19/0275N FG VV000 M06/M07 Q1011=
200512302120 METAR ESMX 302120Z AUTO 00000KT 0150 R01/0500D R19/0800V1100U FG SCT001 BKN014 M07/M07 Q1011=
200512302050 METAR ESMX 302050Z AUTO VRB02KT 0550 R01/P1500U R19/0450V0750D FG FEW011 M06/M07 Q1011=
200512302020 METAR ESMX 302020Z AUTO VRB03KT 4000 R01/P1500N R19/0550V0750N BR FEW002 M05/M06 Q1011=
200512301950 METAR ESMX 301950Z AUTO 15004KT 6000 BR NSC M04/M04 Q1011=
200512301920 METAR ESMX 301920Z AUTO 14004KT 100V160 7000 BR NSC M04/M04 Q1012=
200512301850 METAR ESMX 301850Z VRB02KT 9000 SCT024 M04/M04 Q1012=
200512301820 METAR ESMX 301820Z 15005KT 9999 BKN025 M03/M03 Q1012=
200512301750 METAR ESMX 301750Z 13005KT 100V160 9999 SCT010 M03/M03 Q1012=
200512301720 METAR ESMX 301720Z 18005KT 9999 SCT010 M03/M03 Q1012=
200512301650 METAR ESMX 301650Z 19006KT 9999 FEW011 SCT048 M02/M03 Q1012 RESN=
200512301550 METAR ESMX 301550Z 18010KT 9999 -SN BKN013 BKN039 M01/M02 Q1012=
200512301520 METAR ESMX 301520Z 17009KT 130V190 9999 -SN FEW009 BKN011 M00/M02 Q1012=
200512301450 METAR ESMX 301450Z 17009KT 9999 -SN FEW008 OVC010 M00/M01 Q1012=
200512301420 METAR ESMX 301420Z 17009KT 9999 FEW008 OVC010 M00/M01 Q1011=
200512301350 METAR ESMX 301350Z 17008KT 9999 -SN FEW008 OVC010 M00/M01 Q1011=
200512301320 METAR ESMX 301320Z 17009KT 9999 FEW007 BKN008 M01/M01 Q1011=
200512301250 METAR ESMX 301250Z 17007KT 6000 -SG FEW008 BKN009 M01/M02 Q1010=
200512301220 METAR ESMX 301220Z 17006KT 9999 -SN FEW008 BKN009 BKN013 M01/M02 Q1010=
200512301150 METAR ESMX 301150Z 17008KT 9999 FEW008 SCT009 BKN010 M01/M02 Q1010=
200512301120 METAR ESMX 301120Z 18008KT 9999 -SHSN FEW011 SCT018 BKN023 M01/M03 Q1010=
200512301050 METAR ESMX 301050Z 18009KT 9999 -SN FEW011 BKN023 BKN042 M01/M03 Q1010=
200512301020 METAR ESMX 301020Z 18012KT 9999 FEW011 SCT014 BKN036 M02/M03 Q1009=
200512300950 METAR ESMX 300950Z 17013KT 9999 SCT013 BKN031 BKN039 M02/M03 Q1009=
200512300920 METAR ESMX 300920Z 18013KT 9999 FEW014 SCT016 BKN022 M02/M03 Q1009=
200512300850 METAR ESMX 300850Z 17011KT 9999 BKN012 BKN019 M02/M03 Q1008=
200512300820 METAR ESMX 300820Z 17011KT 9999 FEW013 SCT016 BKN018 M02/M03 Q1008=
200512300750 METAR ESMX 300750Z 18010KT 9999 -SHSN FEW011 BKN014 BKN020 M02/M03 Q1007=
200512300720 METAR ESMX 300720Z 18013KT 9999 -SN FEW008 SCT014 BKN016 M02/M03 Q1006=
200512300650 METAR ESMX 300650Z 17011KT 9999 -SN FEW011 BKN014 BKN019 M02/M03 Q1006=
200512300620 METAR ESMX 300620Z 17012KT 9999 -SN FEW010 BKN013 BKN017 M02/M03 Q1005=
200512300550 METAR ESMX 300550Z 17011KT 130V200 9999 -SN FEW009 BKN012 M01/M02 Q1005=
200512300520 METAR ESMX 300520Z AUTO 16012KT 130V190 9000 -SN FEW009 BKN013 BKN017 M01/M02 Q1004=
200512300450 METAR ESMX 300450Z AUTO 18012KT 140V210 5000 -SN FEW010 SCT013 BKN017 M01/M02 Q1004=
200512300420 METAR ESMX 300420Z AUTO 18012KT 9999 -SN FEW008 BKN011 BKN022 M01/M02 Q1003=
200512300350 METAR ESMX 300350Z AUTO 15010KT 110V190 3800 -SN FEW006 SCT009 BKN011 M02/M02 Q1003=
200512300320 METAR ESMX 300320Z AUTO 15008KT 2100 -SN FEW007 M02/M02 Q1003=
200512300250 METAR ESMX 300250Z AUTO 16007KT 4500 -SN SCT006 BKN009 M02/M03 Q1003=
200512300220 METAR ESMX 300220Z AUTO 16008KT 100V170 7000 -SN FEW007 SCT008 BKN009 M03/M03 Q1002=
200512300150 METAR ESMX 300150Z AUTO VRB02KT 1700 -SN FEW006 SCT011 M03/M04 Q1002=
200512300120 METAR ESMX 300120Z 11004KT 070V150 1600 SN VV007 M03/M04 Q1002=
200512300050 METAR ESMX 300050Z 11004KT 020V190 4200 -SN FEW007 BKN010 M03/M04 Q1003=
200512300020 METAR ESMX 300020Z VRB03KT 6000 -SN SCT008 BKN012 M03/M04 Q1003=
200512292350 METAR ESMX 292350Z 12004KT 060V180 7000 -SN SCT008 BKN012 M03/M04 Q1003=
200512292320 METAR ESMX 292320Z 08004KT 020V140 8000 -SN FEW010 BKN013 M04/M04 Q1003=
200512292250 METAR ESMX 292250Z 10005KT 030V160 9999 -SN SCT010 BKN015 M04/M05 Q1003=
200512292220 METAR ESMX 292220Z 09005KT 050V140 9999 FEW011 BKN014 M04/M05 Q1003=
200512292150 METAR ESMX 292150Z 10006KT 050V170 9000 -SN FEW013 BKN016 M04/M05 Q1004=
200512292120 METAR ESMX 292120Z 12006KT 070V190 9999 -SN FEW012 SCT015 BKN020 M03/M05 Q1004=
200512292050 METAR ESMX 292050Z 13005KT 070V170 3000 SN FEW011 SCT020 BKN025 M03/M04 Q1004=
200512292020 METAR ESMX 292020Z 14007KT 080V180 2000 SN FEW011 BKN014 M03/M04 Q1004=
200512291950 METAR ESMX 291950Z 13008KT 060V190 4700 -SN FEW012 SCT015 BKN020 M02/M04 Q1003=
200512291920 METAR ESMX 291920Z 14008KT 080V170 8000 -SN BKN013 M02/M03 Q1003=
200512291850 METAR ESMX 291850Z 13007KT 080V170 8000 -SN FEW010 BKN014 M02/M03 Q1003=
200512291820 METAR ESMX 291820Z 12010KT 080V190 6000 -SN FEW005 SCT011 BKN014 M02/M02 Q1003=
200512291750 METAR ESMX 291750Z 12008KT 080V170 5000 -SN FEW008 BKN010 BKN016 M01/M02 Q1002=
200512291720 METAR ESMX 291720Z 13009KT 080V170 7000 -SN BKN008 M01/M01 Q1002=
200512291650 METAR ESMX 291650Z 11008KT 070V160 7000 -SN SCT005 BKN007 M01/M01 Q1002=
200512291620 METAR ESMX 291620Z 05005KT 360V100 4500 -SN FEW005 SCT007 BKN010 M01/M01 Q1002=
200512291550 METAR ESMX 291550Z 05007KT 350V090 3200 SN FEW005 SCT007 BKN008 M01/M02 Q1002=
200512291520 METAR ESMX 291520Z 06007KT 020V120 4000 -SN FEW005 BKN008 BKN011 M01/M02 Q1002=
200512291450 METAR ESMX 291450Z 06007KT 020V100 7000 -SN FEW008 BKN011 BKN016 M02/M02 Q1003=
200512291420 METAR ESMX 291420Z 05009KT 010V090 6000 -SN BKN010 M02/M02 Q1003=
200512291350 METAR ESMX 291350Z 05009KT 020V080 6000 -SN BKN010 BKN039 M02/M02 Q1003=
200512291320 METAR ESMX 291320Z 05010KT 020V090 6000 SHSN SCT013 BKN037 M02/M02 Q1003=
200512291250 METAR ESMX 291250Z 05009KT 360V080 2100 -SN FEW006 SCT014 BKN018 M02/M02 Q1004=
200512291220 METAR ESMX 291220Z 07006KT 020V100 9999 -SN BKN009 M02/M02 Q1004=
200512291150 METAR ESMX 291150Z 06007KT 020V100 5000 -SN BKN010 M02/M02 Q1004=
200512291120 METAR ESMX 291120Z 04011KT 4400 -SN BKN010 BKN014 M02/M02 Q1005=
200512291050 METAR ESMX 291050Z 05009KT 020V100 3600 -SN FEW006 BKN013 BKN017 M02/M03 Q1005=
200512291020 METAR ESMX 291020Z 04011KT 020V080 6000 -SN FEW008 BKN013 M02/M03 Q1006=
200512290950 METAR ESMX 290950Z 04012KT 350V080 4000 -SN FEW007 SCT013 BKN016 M02/M03 Q1006=
200512290920 METAR ESMX 290920Z 04012KT 010V070 2300 -SN FEW007 SCT012 BKN015 M02/M03 Q1007=
200512290850 METAR ESMX 290850Z 04014KT 5000 -SN FEW011 SCT014 BKN017 M02/M03 Q1007=
200512290820 METAR ESMX 290820Z 04011KT 360V070 2700 -SN BKN016 M02/M03 Q1007=
200512290750 METAR ESMX 290750Z 04014KT 6000 -SN BKN013 M03/M03 Q1007=
200512290720 METAR ESMX 290720Z 02012KT 2100 -SN BKN012 M03/M03 Q1008=
200512290650 METAR ESMX 290650Z 04014KT 1700 -SN SCT015 M03/M03 Q1008=
200512290620 METAR ESMX 290620Z 04012KT 010V070 2500 -SN BKN015 M03/M04 Q1009=
200512290550 METAR ESMX 290550Z 04012KT 010V080 2200 -SN BKN010 M03/M04 Q1009=
200512290520 METAR ESMX 290520Z AUTO 03014KT 350V060 3400 -SN ////// M03/M04 Q1009=
200512290450 METAR ESMX 290450Z AUTO 04014G24KT 010V070 3200 -SHSN ////// M03/M05 Q1010=
200512290420 METAR ESMX 290420Z AUTO 04017KT 010V080 6000 -SHSN ////// M03/M05 Q1010=
200512290350 METAR ESMX 290350Z AUTO 04018G32KT 020V090 9999 -SN ////// M03/M05 Q1011=
200512290320 METAR ESMX 290320Z AUTO 05016KT 020V100 9999 ////// M03/M05 Q1011=
200512290250 METAR ESMX 290250Z AUTO 05015G28KT 020V090 9999 ////// M02/M05 Q1012=
200512290220 METAR ESMX 290220Z 05017KT 020V080 9999 BKN015 M02/M05 Q1012=
200512290150 METAR ESMX 290150Z 05014KT 020V080 9999 SCT015 BKN018 M02/M05 Q1013=
200512290120 METAR ESMX 290120Z 04015G27KT 9999 -SN BKN015 M02/M05 Q1013=
200512290050 METAR ESMX 290050Z 05012G22KT 010V100 9999 -SN FEW018 BKN020 M02/M05 Q1014=
200512290020 METAR ESMX 290020Z 05013G30KT 020V080 9999 -SN FEW019 BKN021 M02/M06 Q1014=
200512282350 METAR ESMX 282350Z 06011G21KT 020V110 9999 -SN BKN017 M02/M05 Q1015=
200512282320 METAR ESMX 282320Z 05012G22KT 020V100 9999 -SN BKN016 M02/M05 Q1015=
200512282250 METAR ESMX 282250Z 05010KT 010V090 9999 -SN FEW015 BKN018 M02/M05 Q1015=
200512282220 METAR ESMX 282220Z 04010KT 350V070 9999 -SN SCT015 BKN018 M02/M05 Q1016=
200512282150 METAR ESMX 282150Z 06009KT 020V100 9999 -SN BKN014 M02/M05 Q1016=
200512282120 METAR ESMX 282120Z 04010KT 010V090 9999 -SN BKN013 M02/M05 Q1016=
200512282050 METAR ESMX 282050Z 05011KT 020V100 9999 -SN BKN013 M03/M05 Q1017=
200512282020 METAR ESMX 282020Z 04011G21KT 360V080 9999 -SN BKN013 M03/M05 Q1017=
200512281950 METAR ESMX 281950Z 05010KT 010V110 9999 -SN BKN012 M03/M05 Q1017=
200512281920 METAR ESMX 281920Z 05012KT 010V090 9999 -SN BKN012 M03/M05 Q1017=
200512281850 METAR ESMX 281850Z 04010G20KT 360V100 9999 -SN BKN012 M03/M05 Q1017=
200512281820 METAR ESMX 281820Z 05010KT 020V140 9999 -SN BKN012 M03/M05 Q1017=
200512281750 METAR ESMX 281750Z 04011KT 010V070 9000 -SN FEW012 BKN015 M03/M05 Q1017=
200512281720 METAR ESMX 281720Z 05010KT 020V080 6000 -SN FEW016 BKN029 M03/M05 Q1017=
200512281650 METAR ESMX 281650Z 06009KT 020V100 6000 -SN FEW011 SCT019 BKN034 M03/M05 Q1018=
200512281620 METAR ESMX 281620Z 05009KT 360V100 4000 -SN FEW013 SCT016 BKN019 M03/M05 Q1018=
200512281550 METAR ESMX 281550Z 06008KT 020V100 4000 -SHSN FEW014 SCT016 BKN019 M03/M05 Q1018=
200512281520 METAR ESMX 281520Z 05007KT 020V080 9999 -SHSN FEW015 SCT018 BKN021 M03/M05 Q1018=
200512281450 METAR ESMX 281450Z 06009KT 020V100 9999 -SHSN SCT015 BKN019 M03/M05 Q1018=
200512281420 METAR ESMX 281420Z 04007KT 010V070 4000 -SHSN FEW007 SCT017 BKN022 M03/M04 Q1018=
200512281350 METAR ESMX 281350Z 06007G17KT 020V100 4000 -SHSN FEW010 SCT019 BKN023 M03/M04 Q1018=
200512281320 METAR ESMX 281320Z 07009KT 030V110 9999 -SHSN FEW005 SCT007 M03/M04 Q1018=
200512281250 METAR ESMX 281250Z 04007KT 360V080 1800 -SN FEW005 SCT010 BKN014 M03/M04 Q1018=
200512281220 METAR ESMX 281220Z 05009KT 010V080 6000 -SN FEW013 SCT017 BKN022 M03/M04 Q1018=
200512281150 METAR ESMX 281150Z 02009KT 340V050 7000 -SN FEW007 SCT012 BKN014 M03/M04 Q1019=
200512281050 METAR ESMX 281050Z 02008KT 5000 -SN FEW007 SCT011 BKN014 M03/M04 Q1019=
200512281020 METAR ESMX 281020Z 04009KT 3700 -SN FEW010 SCT014 BKN022 M03/M04 Q1020=
200512280950 METAR ESMX 280950Z 04009KT 010V070 3900 -SN FEW009 SCT014 BKN023 M03/M04 Q1020=
200512280920 METAR ESMX 280920Z 04009KT 4000 -SN FEW012 SCT016 BKN020 M03/M04 Q1020=
200512280850 METAR ESMX 280850Z 04009KT 010V070 3800 -SN BKN012 BKN020 M03/M04 Q1020=
200512280820 METAR ESMX 280820Z 04010KT 010V080 5000 -SN SCT011 BKN015 BKN031 M03/M05 Q1020=
200512280750 METAR ESMX 280750Z 05010KT 020V080 6000 -SN FEW014 SCT017 BKN032 M03/M05 Q1020=
200512280720 METAR ESMX 280720Z 04009KT 020V080 9999 -SN SCT013 BKN047 M03/M05 Q1020=
200512280650 METAR ESMX 280650Z 04009KT 010V070 9999 -SN SCT012 BKN048 M03/M05 Q1020=
200512280620 METAR ESMX 280620Z 04009KT 9999 -SN SCT013 BKN049 M03/M05 Q1020=
200512280550 METAR ESMX 280550Z 02009KT 9999 -SN SCT011 BKN046 M03/M05 Q1020=
200512280520 METAR ESMX 280520Z AUTO 03007KT 350V060 8000 -SN FEW010 SCT014 BKN017 M03/M05 Q1020=
200512280450 METAR ESMX 280450Z AUTO 04007KT 010V070 9000 -SN FEW011 BKN017 M03/M05 Q1021=
200512280420 METAR ESMX 280420Z AUTO 04008KT 9000 -SN FEW012 BKN016 OVC020 M03/M05 Q1021=
200512280350 METAR ESMX 280350Z AUTO 02009KT 9999 -SN FEW014 BKN017 OVC020 M03/M05 Q1021=
200512280320 METAR ESMX 280320Z AUTO 05008KT 020V090 9999 -SN FEW017 SCT020 OVC031 M03/M05 Q1022=
200512280250 METAR ESMX 280250Z AUTO 06008KT 020V100 9999 -SN FEW013 SCT022 OVC032 M03/M05 Q1022=
200512280220 METAR ESMX 280220Z AUTO 04009KT 010V070 5000 -SN FEW009 OVC013 M03/M04 Q1022=
200512280150 METAR ESMX 280150Z AUTO 05007KT 360V100 5000 -SN FEW013 BKN016 OVC020 M03/M05 Q1022=
200512280120 METAR ESMX 280120Z 05006KT 020V110 8000 -SN SCT013 BKN017 OVC019 M03/M05 Q1023=
200512280020 METAR ESMX 280020Z 03009KT 9999 -SN FEW014 SCT019 OVC029 M03/M05 Q1023=
200512272350 METAR ESMX 272350Z 03009KT 360V070 9999 -SN FEW016 OVC023 M02/M05 Q1023=
200512272320 METAR ESMX 272320Z 04009KT 9999 -SN FEW017 BKN020 OVC026 M02/M05 Q1024=
200512272250 METAR ESMX 272250Z 05009KT 020V080 9999 -SN OVC018 M02/M05 Q1024=
200512272220 METAR ESMX 272220Z 06012KT 020V100 9999 -SN BKN018 OVC027 M02/M06 Q1024=
200512272150 METAR ESMX 272150Z 05013KT 020V110 9999 -SN FEW020 SCT023 BKN026 M02/M06 Q1024=
200512272120 METAR ESMX 272120Z 05009KT 010V080 9999 -SN BKN015 OVC020 M02/M05 Q1024=
200512272050 METAR ESMX 272050Z 06012KT 020V110 9999 -SN BKN015 OVC020 M02/M05 Q1025=
200512272020 METAR ESMX 272020Z 06011KT 020V110 9999 -SN BKN014 OVC019 M02/M05 Q1025=
200512271950 METAR ESMX 271950Z 07010G22KT 350V130 9999 -SN OVC013 M02/M04 Q1025=
200512271920 METAR ESMX 271920Z 05009KT 010V100 9000 -SN BKN007 OVC010 M02/M03 Q1025=
200512271850 METAR ESMX 271850Z 05007KT 9999 -SN BKN008 M02/M03 Q1025=
200512271820 METAR ESMX 271820Z 05007KT 010V100 9999 -SN BKN008 M02/M03 Q1025=
200512271750 METAR ESMX 271750Z 05009KT 010V080 9999 -SN BKN008 M02/M03 Q1025=
200512271720 METAR ESMX 271720Z 04008KT 9999 -SN BKN009 M02/M04 Q1025=
200512271650 METAR ESMX 271650Z 03007KT 340V060 9999 SCT010 BKN014 M02/M04 Q1025=
200512271620 METAR ESMX 271620Z 04009KT 010V100 9999 -SN FEW013 BKN020 M02/M04 Q1025=
200512271550 METAR ESMX 271550Z 03007KT 340V060 9999 BKN032 M02/M05 Q1025=
200512271520 METAR ESMX 271520Z 03008KT 360V070 9999 FEW033 BKN036 M02/M05 Q1025=
200512271450 METAR ESMX 271450Z 03009KT 9999 FEW013 SCT019 BKN033 M02/M04 Q1025=
200512271420 METAR ESMX 271420Z 04011KT 9999 FEW013 BKN015 M01/M04 Q1025=
200512271350 METAR ESMX 271350Z 04009KT 020V080 9999 BKN012 M01/M03 Q1025=
200512271320 METAR ESMX 271320Z 04008KT 9999 FEW015 BKN018 M01/M04 Q1025=
200512271250 METAR ESMX 271250Z 03009KT 340V070 9999 FEW016 SCT019 M01/M04 Q1025=
200512271220 METAR ESMX 271220Z 03009KT 350V070 9999 FEW015 SCT018 M01/M04 Q1025=
200512271150 METAR ESMX 271150Z 04008KT 010V090 9999 BKN012 M01/M03 Q1025=
200512271120 METAR ESMX 271120Z 03008KT 350V070 9999 -SN FEW010 BKN014 M01/M03 Q1025=
200512271050 METAR ESMX 271050Z 05008KT 020V080 9999 -SN FEW010 BKN013 M01/M03 Q1025=
200512271020 METAR ESMX 271020Z 04008KT 8000 -SHSN FEW010 SCT013 BKN016 M01/M03 Q1025=
200512270950 METAR ESMX 270950Z 04008KT 9999 -SHSN FEW010 SCT013 BKN016 M01/M03 Q1025=
200512270920 METAR ESMX 270920Z 04009KT 010V080 9999 BKN011 M01/M03 Q1025=
200512270850 METAR ESMX 270850Z 05007KT 010V080 9999 FEW009 BKN011 M02/M03 Q1024=
200512270820 METAR ESMX 270820Z 03008KT 010V070 9999 -SHSN SCT010 SCT035 M02/M04 Q1024=
200512270750 METAR ESMX 270750Z 01008KT 9999 -SHSN BKN010 M02/M04 Q1024=
200512270720 METAR ESMX 270720Z 03008KT 9999 BKN010 M02/M04 Q1024=
200512270650 METAR ESMX 270650Z 04009KT 360V060 9999 -SHSN BKN010 M02/M04 Q1023=
200512270620 METAR ESMX 270620Z 03010KT 9999 -SHSN BKN010 M03/M04 Q1023=
200512270550 METAR ESMX 270550Z 02010KT 9999 FEW009 BKN011 M03/M04 Q1022=
200512270520 METAR ESMX 270520Z AUTO 03011KT 9999 -SN OVC009 M03/M04 Q1022=
200512270450 METAR ESMX 270450Z AUTO 03013KT 9999 -SN OVC009 M03/M04 Q1022=
200512270420 METAR ESMX 270420Z AUTO 03013KT 9999 BKN009 M03/M04 Q1022=
200512270350 METAR ESMX 270350Z AUTO 03012KT 9999 OVC009 M03/M04 Q1021=
200512270320 METAR ESMX 270320Z AUTO 04012KT 9999 OVC009 M03/M04 Q1021=
200512270250 METAR ESMX 270250Z AUTO 03011KT 9999 FEW009 OVC011 M02/M04 Q1021=
200512270220 METAR ESMX 270220Z AUTO 02013KT 9999 OVC011 M02/M04 Q1021=
200512270150 METAR ESMX 270150Z 03012KT 9999 OVC010 M02/M04 Q1021=
200512270120 METAR ESMX 270120Z 03011KT 360V060 9999 OVC010 M02/M04 Q1020=
200512270050 METAR ESMX 270050Z 03011KT 9999 OVC011 M02/M04 Q1020=
200512270020 METAR ESMX 270020Z 04011KT 010V070 9999 BKN011 OVC016 M02/M04 Q1020=
200512262350 METAR ESMX 262350Z 03012KT 9999 BKN009 OVC018 M02/M04 Q1020 RESN=
200512262320 METAR ESMX 262320Z 03013KT 9999 OVC010 M02/M04 Q1020 RESN=
200512262250 METAR ESMX 262250Z 04011KT 9999 BKN010 M02/M04 Q1019=
200512262220 METAR ESMX 262220Z 03012KT 9999 BKN011 M02/M04 Q1019=
200512262150 METAR ESMX 262150Z 02012KT 9999 OVC011 M02/M04 Q1019 RESN=
200512262120 METAR ESMX 262120Z 03013KT 9999 -SHSN OVC011 M02/M04 Q1018=
200512262050 METAR ESMX 262050Z 03013KT 9999 -SHSN FEW010 OVC013 M02/M03 Q1018=
200512261950 METAR ESMX 261950Z 02013G23KT 9999 -SHSN OVC011 M02/M04 Q1017=
200512261920 METAR ESMX 261920Z 03013KT 010V070 9999 -SHSN BKN011 OVC018 M02/M03 Q1017=
200512261850 METAR ESMX 261850Z 02012KT 9999 SCT013 BKN017 BKN031 M02/M03 Q1017 RESN=
200512261820 METAR ESMX 261820Z 03013KT 9999 -SHSN FEW012 SCT020 BKN027 M01/M03 Q1016=
200512261750 METAR ESMX 261750Z 01012KT 9999 -SHSN FEW010 SCT015 BKN020 M01/M02 Q1016=
200512261720 METAR ESMX 261720Z 02012KT 9999 -SN FEW010 BKN013 BKN021 M01/M02 Q1016=
200512261650 METAR ESMX 261650Z 01011KT 350V060 9999 -SHSN FEW007 SCT010 BKN014 M01/M01 Q1015=
200512261620 METAR ESMX 261620Z 03012KT 9999 -SHSN FEW012 SCT017 BKN020 M00/M02 Q1015=
200512261550 METAR ESMX 261550Z 03011G21KT 350V060 9999 -SHSN FEW006 SCT012 BKN016 M00/M01 Q1015=
200512261520 METAR ESMX 261520Z 04011KT 8000 -SHSN FEW006 SCT024 BKN057 M00/M02 Q1014=
200512261450 METAR ESMX 261450Z 04013G23KT 9999 -SHSN FEW005 SCT009 BKN026 M01/M01 Q1014=
200512261420 METAR ESMX 261420Z 03014KT 3900 -SHSN FEW005 SCT007 BKN010 M00/M01 Q1013=
200512261350 METAR ESMX 261350Z 03012KT 9999 -SHSN FEW006 SCT009 BKN011 M00/M01 Q1013=
200512261320 METAR ESMX 261320Z 03013KT 360V060 9999 -SHSN FEW018 BKN022 BKN053 00/M02 Q1012=
200512261250 METAR ESMX 261250Z AUTO 03014KT 9999 -SHRA FEW013 SCT019 BKN023 00/M02 Q1012=
200512261220 METAR ESMX 261220Z AUTO 03012KT 350V060 9999 FEW014 OVC022 00/M02 Q1011 RESN=
200512261150 METAR ESMX 261150Z AUTO 01012KT 9999 -SHSN FEW006 SCT013 BKN019 M00/M02 Q1011=
200512261120 METAR ESMX 261120Z AUTO 01011KT 9999 FEW012 SCT015 BKN028 M00/M02 Q1011 RESN=
200512261050 METAR ESMX 261050Z AUTO 02013KT 9000 -SN FEW009 SCT014 BKN016 M01/M02 Q1011=
200512261020 METAR ESMX 261020Z AUTO 01012KT 7000 -SHSN FEW009 BKN014 OVC019 M01/M02 Q1010=
200512260950 METAR ESMX 260950Z AUTO 01012KT 2800 -SHSN FEW006 BKN012 BKN017 M01/M02 Q1010=
200512260920 METAR ESMX 260920Z AUTO 01010KT 9999 -SHSN BKN012 M02/M03 Q1010=
200512260850 METAR ESMX 260850Z AUTO 02011KT 9999 -SHSN FEW010 OVC013 M02/M03 Q1009=
200512260820 METAR ESMX 260820Z AUTO 02010KT 9999 -SHSN BKN013 OVC018 M02/M03 Q1009=
200512260750 METAR ESMX 260750Z AUTO 01010KT 9999 -SN FEW011 SCT015 BKN020 M03/M03 Q1009=
200512260720 METAR ESMX 260720Z AUTO 35012KT 2800 -SN FEW005 SCT024 BKN031 M03/M04 Q1008=
200512260650 METAR ESMX 260650Z AUTO 35013KT 2100 -SN FEW005 SCT011 M03/M04 Q1008=
200512260620 METAR ESMX 260620Z AUTO 35012KT 5000 -SN FEW014 SCT028 M03/M04 Q1008=
200512260550 METAR ESMX 260550Z AUTO 34012KT 5000 -SN FEW013 SCT019 BKN027 M03/M04 Q1008=
200512260520 METAR ESMX 260520Z AUTO 33010KT 300V360 4100 -SHSN FEW014 SCT025 M03/M04 Q1008=
200512260450 METAR ESMX 260450Z AUTO 34010KT 5000 -SHSN FEW016 M03/M05 Q1008=
200512260420 METAR ESMX 260420Z AUTO 36011KT 330V030 9999 FEW017 SCT021 BKN029 M03/M05 Q1008 RESN=
200512260350 METAR ESMX 260350Z AUTO 35012KT 9999 -SN FEW017 SCT020 BKN025 M03/M05 Q1008=
200512260320 METAR ESMX 260320Z AUTO 34012KT 9999 -SHSN FEW016 BKN020 M03/M05 Q1008=
200512260250 METAR ESMX 260250Z AUTO 34011KT 9999 -SHSN FEW018 SCT026 BKN041 M03/M05 Q1008=
200512260220 METAR ESMX 260220Z AUTO 34012KT 9999 FEW021 BKN025 OVC031 M03/M05 Q1008 RESN=
200512260150 METAR ESMX 260150Z AUTO 35013KT 320V020 9999 -SN FEW015 SCT025 OVC032 M02/M05 Q1008=
200512260120 METAR ESMX 260120Z AUTO 34009KT 9999 RA FEW020 BKN031 M02/M04 Q1008=
200512260050 METAR ESMX 260050Z AUTO 35010KT 9999 FEW023 M03/M05 Q1008=
200512260020 METAR ESMX 260020Z AUTO 34010KT 9999 FEW015 SCT018 BKN100 M02/M04 Q1008=
200512252350 METAR ESMX 252350Z AUTO 33008KT 9999 FEW047 M02/M05 Q1008=
200512252320 METAR ESMX 252320Z AUTO 33008KT 9999 FEW032 M02/M05 Q1008=
200512252250 METAR ESMX 252250Z AUTO 33009KT 9999 OVC027 M01/M04 Q1008=
200512252220 METAR ESMX 252220Z AUTO 34010KT 9999 BKN031 M02/M04 Q1008=
200512252150 METAR ESMX 252150Z AUTO 34011KT 9999 SCT027 M02/M04 Q1008=
200512252120 METAR ESMX 252120Z AUTO 33008KT 9999 FEW025 M01/M03 Q1008=
200512252050 METAR ESMX 252050Z AUTO 31006KT 9999 FEW053 SCT082 M01/M03 Q1007=
200512252020 METAR ESMX 252020Z AUTO 31007KT 9999 FEW024 SCT035 BKN074 M01/M03 Q1007 RESN=
200512251950 METAR ESMX 251950Z AUTO 31006KT 9999 -SHSN FEW007 SCT038 BKN088 M01/M03 Q1008=
200512251920 METAR ESMX 251920Z AUTO 32009KT 9999 -SHSN FEW006 SCT022 BKN031 M01/M04 Q1007=
200512251850 METAR ESMX 251850Z AUTO 30008KT 9999 FEW028 SCT033 BKN093 M01/M05 Q1007=
200512251820 METAR ESMX 251820Z AUTO 29009KT 9999 SCT100 M01/M05 Q1007=
200512251750 METAR ESMX 251750Z AUTO 29009KT 9999 NSC M01/M05 Q1007=
200512251720 METAR ESMX 251720Z AUTO 28009KT 9999 NSC M01/M05 Q1007=
200512251650 METAR ESMX 251650Z AUTO 27008KT 9999 NSC M01/M05 Q1008=
200512251620 METAR ESMX 251620Z AUTO 27008KT 9999 NSC M01/M05 Q1008=
200512251550 METAR ESMX 251550Z AUTO 27008KT 240V300 9999 NSC M01/M05 Q1008=
200512251520 METAR ESMX 251520Z AUTO 26007KT 9999 NSC M01/M05 Q1009=
200512251450 METAR ESMX 251450Z AUTO 26007KT 220V290 9999 NSC M01/M05 Q1009=
200512251420 METAR ESMX 251420Z AUTO 25006KT 9999 NSC M00/M05 Q1009=
200512251350 METAR ESMX 251350Z AUTO 28007KT 9999 NSC 00/M04 Q1010=
200512251320 METAR ESMX 251320Z AUTO 27007KT 250V310 9999 NSC 01/M05 Q1010=
200512251250 METAR ESMX 251250Z AUTO 27007KT 9999 NSC 00/M04 Q1010=
200512251220 METAR ESMX 251220Z AUTO 27007KT 230V300 9999 NSC 00/M04 Q1010=
200512251150 METAR ESMX 251150Z AUTO 29009KT 260V320 9999 NSC 00/M04 Q1011=
200512251120 METAR ESMX 251120Z AUTO 27008KT 9999 NSC M00/M04 Q1011=
200512251050 METAR ESMX 251050Z AUTO 29008KT 9999 NSC M01/M04 Q1011=
200512251020 METAR ESMX 251020Z AUTO 29007KT 9999 NSC M01/M04 Q1012=
200512250950 METAR ESMX 250950Z AUTO 28007KT 250V310 9999 NSC M02/M04 Q1012=
200512250920 METAR ESMX 250920Z AUTO 28007KT 9999 NSC M02/M05 Q1012=
200512250850 METAR ESMX 250850Z AUTO 29008KT 9999 NSC M03/M05 Q1012=
200512250820 METAR ESMX 250820Z AUTO 30008KT 9999 NSC M03/M05 Q1012=
200512250750 METAR ESMX 250750Z AUTO 29007KT 250V320 9999 NSC M03/M05 Q1012=
200512250720 METAR ESMX 250720Z AUTO 30007KT 270V330 9999 NSC M03/M05 Q1012=
200512250650 METAR ESMX 250650Z AUTO 29008KT 9999 NSC M03/M05 Q1012=
200512250620 METAR ESMX 250620Z AUTO 29006KT 9999 NSC M03/M05 Q1012=
200512250550 METAR ESMX 250550Z AUTO 30008KT 9999 NSC M03/M05 Q1012=
200512250520 METAR ESMX 250520Z AUTO 30007KT 9999 NSC M03/M05 Q1012=
200512250450 METAR ESMX 250450Z AUTO 30006KT 9999 NSC M03/M05 Q1012=
200512250420 METAR ESMX 250420Z AUTO 30007KT 9999 NSC M03/M05 Q1012=
200512250350 METAR ESMX 250350Z AUTO 29005KT 9999 NSC M03/M05 Q1013=
200512250320 METAR ESMX 250320Z AUTO 30006KT 270V330 9999 NSC M03/M04 Q1013=
200512250250 METAR ESMX 250250Z AUTO 29006KT 9999 NSC M03/M04 Q1012=
200512250220 METAR ESMX 250220Z AUTO 30008KT 9999 NSC M03/M04 Q1012=
200512250150 METAR ESMX 250150Z AUTO 30006KT 9999 NSC M03/M04 Q1012=
200512250120 METAR ESMX 250120Z AUTO 29007KT 260V330 9999 NSC M02/M04 Q1013=
200512250050 METAR ESMX 250050Z AUTO 29006KT 9999 NSC M03/M04 Q1012=
200512250020 METAR ESMX 250020Z AUTO 31005KT 9999 NSC M02/M04 Q1012=
200512242350 METAR ESMX 242350Z AUTO 30007KT 270V330 9999 NSC M02/M03 Q1012=
200512242320 METAR ESMX 242320Z AUTO 30008KT 9999 NSC M02/M03 Q1012=
200512242250 METAR ESMX 242250Z AUTO 30006KT 260V330 9999 NSC M02/M03 Q1012=
200512242220 METAR ESMX 242220Z AUTO 29005KT 260V320 9999 NSC M02/M03 Q1012=
200512242150 METAR ESMX 242150Z AUTO 30005KT 260V330 9999 NSC M02/M03 Q1012=
200512242120 METAR ESMX 242120Z AUTO 29005KT 9999 NSC M02/M03 Q1011=
200512242050 METAR ESMX 242050Z AUTO 30005KT 9999 NSC M02/M03 Q1011=
200512242020 METAR ESMX 242020Z AUTO 30006KT 9999 NSC M01/M02 Q1011=
200512241950 METAR ESMX 241950Z AUTO 31007KT 9999 NSC M01/M02 Q1010=
200512241920 METAR ESMX 241920Z AUTO 32006KT 9999 NSC M01/M02 Q1010=
200512241850 METAR ESMX 241850Z AUTO 32009KT 9999 NSC M01/M02 Q1010=
200512241820 METAR ESMX 241820Z AUTO 33009KT 9999 NSC M01/M02 Q1010=
200512241750 METAR ESMX 241750Z AUTO 32008KT 9999 NSC M01/M02 Q1009=
200512241720 METAR ESMX 241720Z AUTO 34009KT 9999 NSC M00/M01 Q1009=
200512241650 METAR ESMX 241650Z AUTO 34008KT 9999 NSC 00/M01 Q1008=
200512241620 METAR ESMX 241620Z AUTO 33010KT 9999 NSC 01/M01 Q1008=
200512241550 METAR ESMX 241550Z AUTO 35009KT 9999 NSC 01/M00 Q1007=
200512241520 METAR ESMX 241520Z AUTO 35013KT 9999 FEW020 02/M00 Q1007=
200512241450 METAR ESMX 241450Z AUTO 35010KT 9999 FEW022 BKN100 02/00 Q1006=
200512241420 METAR ESMX 241420Z AUTO 35010KT 9999 FEW018 SCT024 OVC068 03/01 Q1005=
200512241350 METAR ESMX 241350Z AUTO 35011KT 9999 FEW017 BKN021 OVC065 03/01 Q1005=
200512241320 METAR ESMX 241320Z AUTO 35008KT 9999 FEW013 BKN020 BKN100 03/02 Q1004=
200512241250 METAR ESMX 241250Z AUTO 36013KT 9999 FEW010 SCT015 BKN018 04/02 Q1004=
200512241220 METAR ESMX 241220Z AUTO 36011KT 9999 FEW009 SCT012 BKN015 04/03 Q1003 RERA=
200512241150 METAR ESMX 241150Z AUTO 34012KT 9999 -SHRA FEW006 SCT009 BKN011 05/04 Q1003=
200512241120 METAR ESMX 241120Z AUTO 32008KT 3200 -SHRA FEW004 SCT007 BKN009 06/05 Q1002=
200512241050 METAR ESMX 241050Z AUTO 27004KT 240V300 9999 FEW014 BKN017 OVC020 06/06 Q1002 REDZ=
200512241020 METAR ESMX 241020Z AUTO 27007KT 250V310 6000 -SHRA FEW002 SCT005 BKN006 06/06 Q1002=
200512240950 METAR ESMX 240950Z AUTO 27005KT 5000 BR OVC003 06/06 Q1001=
200512240920 METAR ESMX 240920Z AUTO 26004KT 4700 OVC004 06/05 Q1001 REDZ=
200512240850 METAR ESMX 240850Z AUTO 26006KT 230V290 8000 FEW004 SCT006 BKN009 06/05 Q1001 REDZ=
200512240820 METAR ESMX 240820Z AUTO 26006KT 4100 -SHRA BKN004 06/05 Q1001=
200512240750 METAR ESMX 240750Z AUTO 26006KT 230V290 4600 -SHRA OVC004 06/05 Q1001=
200512240720 METAR ESMX 240720Z AUTO 26005KT 210V320 4500 -DZ BKN004 BKN008 06/05 Q1001=
200512240650 METAR ESMX 240650Z AUTO 26006KT 230V300 3700 DZ BKN005 OVC008 06/05 Q1001=
200512240620 METAR ESMX 240620Z AUTO 27007KT 3700 DZ FEW005 SCT006 OVC009 06/05 Q1001=
200512240550 METAR ESMX 240550Z AUTO 25007KT 220V290 4000 BR FEW004 BKN006 OVC009 06/05 Q1001=
200512240520 METAR ESMX 240520Z AUTO 25008KT 220V280 4900 FEW006 BKN007 OVC009 06/05 Q1001 REDZ=
200512240450 METAR ESMX 240450Z AUTO 25008KT 210V280 4900 FEW006 SCT008 BKN009 06/05 Q1001 REDZ=
200512240420 METAR ESMX 240420Z AUTO 25009KT 5000 DZ FEW005 SCT007 BKN009 06/05 Q1002=
200512240350 METAR ESMX 240350Z AUTO 24008KT 200V280 4200 -SHRA FEW006 BKN007 OVC012 06/05 Q1002=
200512240320 METAR ESMX 240320Z AUTO 24008KT 5000 FEW004 BKN006 OVC011 06/05 Q1002 REDZ=
200512240250 METAR ESMX 240250Z AUTO 25007KT 210V270 3600 DZ FEW005 BKN007 06/05 Q1003=
200512240220 METAR ESMX 240220Z AUTO 25006KT 3600 -SHRA FEW005 BKN007 OVC011 06/05 Q1003=
200512240150 METAR ESMX 240150Z AUTO 24006KT 6000 -SHRA FEW006 BKN008 OVC010 05/05 Q1004=
200512240120 METAR ESMX 240120Z AUTO 22007KT 190V260 9999 FEW003 BKN005 OVC009 05/05 Q1004 REDZ=
200512240050 METAR ESMX 240050Z AUTO 25008KT 9999 -SHRA BKN001 OVC005 05/05 Q1004=
200512240020 METAR ESMX 240020Z AUTO 24007KT 2900 OVC001 05/04 Q1004=
200512232350 METAR ESMX 232350Z AUTO 24006KT 1900 OVC001 04/04 Q1005=
200512232320 METAR ESMX 232320Z AUTO 20007KT 0900 R01/P1500N R19/P1500N FG VV002 04/03 Q1005=
200512232250 METAR ESMX 232250Z AUTO 20006KT 2200 VV002 03/03 Q1006 RERA=
200512232220 METAR ESMX 232220Z AUTO 21006KT 4500 OVC001 03/03 Q1006 RERA=
200512232150 METAR ESMX 232150Z AUTO 21007KT 2300 -RA VV002 02/02 Q1007=
200512232120 METAR ESMX 232120Z AUTO 18007KT 1700 DZ VV002 02/02 Q1007=
200512232050 METAR ESMX 232050Z AUTO 20009KT 3100 BR OVC001 02/02 Q1008=
200512232020 METAR ESMX 232020Z AUTO 19008KT 040V220 2800 OVC001 02/02 Q1008 REDZ=
200512231950 METAR ESMX 231950Z AUTO 18008KT 3500 OVC001 01/01 Q1009 REDZ=
200512231920 METAR ESMX 231920Z AUTO 17008KT 2400 -SHRA OVC001 01/01 Q1010=
200512231850 METAR ESMX 231850Z 16008KT 2600 DZ OVC002 01/01 Q1010=
200512231820 METAR ESMX 231820Z 18007KT 1500 BR BKN002 01/01 Q1011=
200512231750 METAR ESMX 231750Z 17007KT 2800 -RA BR BKN002 01/01 Q1011=
200512231720 METAR ESMX 231720Z 18007KT 2700 BR BKN002 01/00 Q1012=
200512231650 METAR ESMX 231650Z 18007KT 2700 -SHRA OVC002 01/00 Q1012=
200512231620 METAR ESMX 231620Z 18007KT 1700 BR BKN002 00/00 Q1013=
200512231550 METAR ESMX 231550Z 17006KT 5000 BR SCT002 BKN003 00/00 Q1014=
200512231520 METAR ESMX 231520Z 18007KT 9999 BKN003 00/00 Q1014=
200512231450 METAR ESMX 231450Z 19005KT 9999 BKN002 BKN004 00/00 Q1015=
200512231420 METAR ESMX 231420Z 16005KT 140V200 9999 OVC003 00/00 Q1015=
200512231350 METAR ESMX 231350Z 21005KT 9999 FEW003 OVC004 00/00 Q1015=
200512231320 METAR ESMX 231320Z 21007KT 9999 SCT003 OVC005 00/M00 Q1015=
200512231250 METAR ESMX 231250Z 22007KT 180V250 9999 OVC004 00/00 Q1016=
200512231220 METAR ESMX 231220Z 22006KT 5000 BR FEW005 BKN007 00/00 Q1016=
200512231150 METAR ESMX 231150Z 21005KT 9999 OVC009 00/00 Q1016=
200512231120 METAR ESMX 231120Z 21004KT 190V250 9999 FEW002 OVC011 00/00 Q1017=
200512231050 METAR ESMX 231050Z 19004KT 9999 BR FEW002 OVC012 00/00 Q1017=
200512231020 METAR ESMX 231020Z VRB03KT 6000 BR BKN001 OVC014 00/00 Q1017=
200512230950 METAR ESMX 230950Z VRB03KT 4100 BR OVC001 00/00 Q1017=
200512230850 METAR ESMX 230850Z VRB03KT 2100 BR OVC001 00/00 Q1017=
200512230820 METAR ESMX 230820Z VRB03KT 1100 R19/P1500 BR OVC000 00/00 Q1017=
200512230750 METAR ESMX 230750Z VRB03KT 1200 R19/P1500D BR OVC000 00/00 Q1018=
200512230720 METAR ESMX 230720Z VRB02KT 2000 BR OVC000 00/00 Q1017=
200512230650 METAR ESMX 230650Z VRB02KT 1900 BR SCT001 BKN020 00/00 Q1017=
200512230620 METAR ESMX 230620Z VRB02KT 5000 BR SCT003 BKN020 M00/M00 Q1017=
200512230550 METAR ESMX 230550Z VRB02KT 0700 R01/P1500U R19/P1500N FZFG VV002 M00/M00 Q1017=
200512230520 METAR ESMX 230520Z 00000KT 0400 R01/1400D R19/P1500N FZFG VV002 M00/M00 Q1017=
200512230450 METAR ESMX 230450Z 00000KT 2000 BCFG SCT001 OVC021 00/00 Q1017=
200512230420 METAR ESMX 230420Z AUTO VRB01KT 0900 R01/P1500N R19/P1500N FG SCT001 BKN003 OVC022 00/00 Q1017=
200512230350 METAR ESMX 230350Z AUTO 00000KT 3200 BR OVC001 00/00 Q1017=
200512230320 METAR ESMX 230320Z AUTO VRB01KT 3300 BR FEW005 OVC021 00/M00 Q1017=
200512230250 METAR ESMX 230250Z AUTO 00000KT 4700 BR FEW002 OVC021 00/00 Q1017=
200512230220 METAR ESMX 230220Z AUTO VRB01KT 3800 BR FEW002 OVC020 00/00 Q1017=
200512230150 METAR ESMX 230150Z VRB01KT 8000 BR OVC021 M00/M00 Q1017=
200512230120 METAR ESMX 230120Z 00000KT 3500 BR OVC022 M00/M00 Q1016=
200512230050 METAR ESMX 230050Z 00000KT 2700 BR OVC020 00/00 Q1016=
200512230020 METAR ESMX 230020Z VRB02KT 4000 BR OVC023 00/M00 Q1016=
200512222350 METAR ESMX 222350Z VRB01KT 1800 BCFG OVC024 M00/M00 Q1016=
200512222320 METAR ESMX 222320Z VRB01KT 2000 R01/P1500N R19/P1500U BCFG OVC024 M01/M01 Q1016=
200512222250 METAR ESMX 222250Z VRB01KT 2000 BCFG OVC026 00/00 Q1016=
200512222220 METAR ESMX 222220Z VRB01KT 1600 BR FEW002 SCT023 BKN027 00/00 Q1016=
200512222150 METAR ESMX 222150Z 00000KT 2000 BR FEW004 OVC026 00/00 Q1015=
200512222120 METAR ESMX 222120Z 00000KT 0400 R01/1100VP1500U R19/P1500U FG SCT003 OVC027 00/00 Q1015=
200512222050 METAR ESMX 222050Z VRB01KT 0150 R01/0650U R19/0650N FG FEW001 OVC028 01/00 Q1015=
200512222020 METAR COR ESMX 222020Z 00000KT 0100 R01/0500 R19/0800 FG VV002 01/00 Q1015=
200512221950 METAR ESMX 221950Z VRB02KT 0300 R01/0800VP1500D R19/0900VP1500D FG FEW000 SCT025 BKN031 01/01 Q1015=
200512221920 METAR ESMX 221920Z VRB01KT 1200 R01/P1500U R19/P1500N BR FEW001 SCT015 01/01 Q1014=
200512221820 METAR ESMX 221820Z VRB01KT 1100 R01/P1500N R19/P1500N BR OVC014 02/02 Q1014=
200512221750 METAR ESMX 221750Z VRB03KT 1000 R01/P1500N R19/P1500N BR SCT001 BKN012 02/02 Q1014=
200512221720 METAR ESMX 221720Z VRB02KT 1400 R01/P1500N R19/P1500N BR SCT001 BKN006 02/02 Q1013=
200512221650 METAR ESMX 221650Z 00000KT 0800 R01/P1500N R19/P1500N FG FEW001 BKN006 02/02 Q1013=
200512221620 METAR ESMX 221620Z VRB02KT 1000 R01/P1500N R19/P1500N BR SCT003 BKN005 02/02 Q1013=
200512221520 METAR ESMX 221520Z VRB02KT 2900 BR FEW003 SCT005 BKN008 03/03 Q1013=
200512221450 METAR ESMX 221450Z VRB02KT 4800 SCT005 BKN011 03/03 Q1013=
200512221420 METAR ESMX 221420Z VRB02KT 5000 BR FEW003 BKN005 03/03 Q1012=
200512221350 METAR ESMX 221350Z VRB02KT 6000 BR SCT005 BKN007 03/03 Q1012=
200512221320 METAR ESMX 221320Z VRB03KT 7000 BR SCT006 BKN008 03/03 Q1012=
200512221250 METAR ESMX 221250Z 21004KT 8000 BR SCT004 BKN007 03/03 Q1012=
200512221220 METAR ESMX 221220Z 21005KT 8000 BR BKN005 03/03 Q1012=
200512221150 METAR ESMX 221150Z 20005KT 8000 BR FEW006 BKN008 03/03 Q1012=
200512221120 METAR ESMX 221120Z 22006KT 8000 -DZ BKN005 03/03 Q1012=
200512221050 METAR ESMX 221050Z 21005KT 8000 BR BKN006 03/03 Q1012=
200512221020 METAR ESMX 221020Z 22005KT 9000 BR SCT007 BKN028 03/03 Q1012=
200512220950 METAR ESMX 220950Z 20006KT 9000 BR FEW008 BKN027 03/02 Q1012=
200512220920 METAR ESMX 220920Z 23004KT 9000 BR BKN022 03/02 Q1012=
200512220850 METAR ESMX 220850Z 22004KT 8000 BR BKN020 03/02 Q1012=
200512220820 METAR ESMX 220820Z 24004KT 9000 BR FEW012 BKN016 03/02 Q1012=
200512220750 METAR ESMX 220750Z 22005KT 9000 BR FEW011 BKN015 03/02 Q1012=
200512220720 METAR ESMX 220720Z VRB03KT 9999 BKN018 03/02 Q1012=
200512220650 METAR ESMX 220650Z 25005KT 9999 FEW015 BKN018 03/02 Q1012=
200512220620 METAR ESMX 220620Z 26006KT 9999 BKN017 03/02 Q1012=
200512220550 METAR ESMX 220550Z 23006KT 190V260 9999 BKN018 03/03 Q1012=
200512220520 METAR ESMX 220520Z 25006KT 9999 BKN015 03/03 Q1012=
200512220450 METAR ESMX 220450Z 26005KT 9999 FEW017 BKN019 03/03 Q1012=
200512220420 METAR ESMX 220420Z AUTO 24005KT 6000 BR FEW007 OVC017 03/02 Q1012=
200512220350 METAR ESMX 220350Z AUTO 21005KT 4200 BR FEW006 SCT009 BKN017 02/02 Q1012=
200512220320 METAR ESMX 220320Z AUTO VRB03KT 4400 FEW001 SCT003 BKN006 02/02 Q1012=
200512220250 METAR ESMX 220250Z AUTO 23005KT 210V280 3300 OVC001 02/02 Q1013=
200512220220 METAR ESMX 220220Z AUTO 23005KT 0900 R01/P1500N R19/P1500N FG VV001 02/02 Q1013=
200512220150 METAR ESMX 220150Z 20006KT 1100 R01/P1500N R19/P1500N BR VV002 02/02 Q1013=
200512220120 METAR ESMX 220120Z 21006KT 4300 DZ OVC002 01/01 Q1013=
200512220050 METAR ESMX 220050Z 20008KT 3400 -SHRA OVC002 01/01 Q1014=
200512220020 METAR ESMX 220020Z 18008KT 4500 -RA OVC002 01/01 Q1014=
200512212350 METAR ESMX 212350Z 19007KT 5000 -RA OVC004 01/01 Q1014=
200512212320 METAR ESMX 212320Z 18007KT 4000 -SN OVC003 01/01 Q1015=
200512212250 METAR ESMX 212250Z 19008KT 2500 RA OVC001 01/01 Q1015=
200512212220 METAR ESMX 212220Z 18007KT 1800 -RA OVC001 00/00 Q1016=
200512212150 METAR ESMX 212150Z 18006KT 2500 BR OVC002 00/00 Q1016=
200512212120 METAR ESMX 212120Z 18006KT 0800 R01/P1500N R19/P1500N FZFG VV002 00/M00 Q1017=
200512212050 METAR ESMX 212050Z 16005KT 140V200 0650 R01/P1500N R19/P1500N FZFG VV002 M00/M01 Q1018=
200512212020 METAR ESMX 212020Z 17005KT 150V220 0900 R01/P1500N R19/P1500N FZFG VV002 M01/M01 Q1018=
200512211950 METAR ESMX 211950Z 17006KT 1000 R01/P1500N R19/P1500N FZFG VV002 M01/M01 Q1019=
200512211920 METAR ESMX 211920Z 16006KT 2200 -FZRA BKN002 M01/M01 Q1019=
200512211850 METAR ESMX 211850Z 19006KT 9999 BKN003 M01/M02 Q1020=
200512211820 METAR ESMX 211820Z 18004KT 9999 BKN005 M01/M02 Q1020=
200512211750 METAR ESMX 211750Z 16004KT 9999 BKN005 BKN007 M01/M02 Q1020=
200512211720 METAR ESMX 211720Z 16005KT 9999 FEW008 BKN010 M01/M02 Q1020=
200512211650 METAR ESMX 211650Z 17004KT 9999 SCT011 BKN029 M01/M02 Q1021=
200512211620 METAR ESMX 211620Z 18004KT 9999 BKN008 BKN030 M01/M02 Q1021=
200512211550 METAR ESMX 211550Z 21004KT 9999 BKN008 M01/M02 Q1022=
200512211520 METAR ESMX 211520Z 19004KT 9999 BKN008 M01/M02 Q1022=
200512211450 METAR ESMX 211450Z 17003KT 9999 BKN009 M01/M02 Q1022=
200512211420 METAR ESMX 211420Z VRB03KT 9999 BKN009 M01/M02 Q1023=
200512211350 METAR ESMX 211350Z VRB02KT 9999 BKN009 M01/M02 Q1023=
200512211320 METAR ESMX 211320Z VRB03KT 9999 BKN010 M01/M02 Q1023=
200512211250 METAR ESMX 211250Z VRB01KT 9999 BKN012 M00/M02 Q1023=
200512211220 METAR ESMX 211220Z VRB03KT 9999 BKN011 M01/M02 Q1024=
200512211150 METAR ESMX 211150Z 26006KT 9999 BKN010 M01/M02 Q1024=
200512211120 METAR ESMX 211120Z 25005KT 9999 BKN011 M01/M03 Q1024=
200512211050 METAR ESMX 211050Z 26005KT 9999 BKN012 M01/M03 Q1025=
200512211020 METAR ESMX 211020Z 25004KT 9999 BKN014 M00/M02 Q1025=
200512210950 METAR ESMX 210950Z VRB03KT 9999 BKN016 M01/M02 Q1025=
200512210920 METAR ESMX 210920Z VRB03KT 9999 BKN017 M01/M02 Q1025=
200512210850 METAR ESMX 210850Z 22004KT 9999 BKN017 M01/M02 Q1025=
200512210820 METAR ESMX 210820Z 21004KT 9999 BKN018 M01/M02 Q1025=
200512210750 METAR ESMX 210750Z VRB03KT 9999 BKN018 M01/M02 Q1026=
200512210720 METAR ESMX 210720Z VRB03KT 9999 BKN020 M01/M02 Q1025=
200512210650 METAR ESMX 210650Z 21004KT 180V240 9999 SCT018 BKN020 M01/M02 Q1025=
200512210620 METAR ESMX 210620Z VRB03KT 9999 BKN022 M01/M02 Q1025=
200512210550 METAR ESMX 210550Z VRB03KT 9999 BKN022 M01/M01 Q1025=
200512210520 METAR ESMX 210520Z VRB03KT 9999 BKN020 M01/M01 Q1025=
200512210450 METAR ESMX 210450Z VRB03KT 9999 BKN022 M01/M01 Q1025=
200512210420 METAR ESMX 210420Z AUTO VRB03KT 9999 OVC020 M01/M01 Q1026=
200512210350 METAR ESMX 210350Z AUTO VRB03KT 9999 FEW016 OVC023 M01/M01 Q1026=
200512210320 METAR ESMX 210320Z AUTO VRB01KT 9000 BR OVC023 M01/M02 Q1026=
200512210250 METAR ESMX 210250Z AUTO VRB01KT 8000 BR OVC022 M01/M01 Q1025=
200512210220 METAR ESMX 210220Z AUTO VRB02KT 8000 BR OVC023 M01/M01 Q1025=
200512210150 METAR ESMX 210150Z VRB01KT 9999 OVC023 M01/M01 Q1026=
200512210120 METAR ESMX 210120Z 20004KT 9999 BKN026 M01/M02 Q1025=
200512210050 METAR ESMX 210050Z VRB01KT 9999 BKN027 M01/M02 Q1025=
200512210020 METAR ESMX 210020Z VRB01KT 9000 BKN024 M01/M02 Q1025=
200512202350 METAR ESMX 202350Z VRB01KT 9999 BKN025 M01/M01 Q1025=
200512202320 METAR ESMX 202320Z VRB03KT 9999 BKN025 M01/M01 Q1025=
200512202250 METAR ESMX 202250Z VRB03KT 9999 BKN024 M01/M01 Q1025=
200512202220 METAR ESMX 202220Z VRB02KT 9999 BKN024 M01/M01 Q1025=
200512202150 METAR ESMX 202150Z VRB03KT 9999 BKN023 M01/M02 Q1024=
200512202120 METAR ESMX 202120Z VRB01KT 9999 BKN022 M01/M02 Q1024=
200512202050 METAR ESMX 202050Z VRB01KT 9999 BKN021 M01/M02 Q1024=
200512202020 METAR ESMX 202020Z VRB02KT 9999 OVC020 M02/M02 Q1023=
200512201950 METAR ESMX 201950Z VRB02KT 9999 BKN018 M02/M02 Q1023=
200512201920 METAR ESMX 201920Z VRB01KT 9999 FEW008 SCT009 BKN011 M01/M01 Q1022=
200512201850 METAR ESMX 201850Z 05004KT 010V080 9999 SCT006 BKN008 M01/M01 Q1022=
200512201820 METAR ESMX 201820Z 35004KT 9999 SCT022 M02/M02 Q1021=
200512201750 METAR ESMX 201750Z VRB03KT 9999 BKN021 M00/M01 Q1020=
200512201720 METAR ESMX 201720Z VRB03KT 9999 BKN019 M00/M01 Q1020=
200512201650 METAR ESMX 201650Z VRB03KT 9999 FEW007 SCT009 BKN011 M01/M01 Q1020=
200512201620 METAR ESMX 201620Z 33004KT 9999 -SHSN BKN007 M01/M02 Q1020=
200512201550 METAR ESMX 201550Z 01005KT 9999 BKN007 M01/M01 Q1019=
200512201520 METAR ESMX 201520Z 01006KT 9999 -SHSN SCT007 BKN010 M00/M01 Q1018=
200512201450 METAR ESMX 201450Z 01007KT 9999 -SN FEW007 BKN020 M00/M01 Q1018=
200512201420 METAR ESMX 201420Z 01008KT 5000 -SN FEW007 BKN010 BKN022 M00/M01 Q1018=
200512201350 METAR ESMX 201350Z 36009KT 9999 BKN010 00/M01 Q1017=
200512201320 METAR ESMX 201320Z 35010KT 9999 FEW009 SCT012 BKN027 00/M01 Q1016=
200512201250 METAR ESMX 201250Z 01009KT 9999 BKN010 BKN024 00/M01 Q1015=
200512201220 METAR ESMX 201220Z 34010KT 9999 SCT011 BKN015 BKN020 00/M01 Q1015=
200512201150 METAR ESMX 201150Z 33008KT 9999 FEW009 SCT011 BKN019 00/M01 Q1014=
200512201120 METAR ESMX 201120Z 34008KT 9999 OVC010 00/M01 Q1014=
200512201050 METAR ESMX 201050Z 34009KT 9999 FEW008 BKN009 00/M01 Q1013=
200512201020 METAR ESMX 201020Z 33007KT 9999 FEW012 BKN014 BKN018 M00/M01 Q1013=
200512200950 METAR ESMX 200950Z 32007KT 9999 FEW018 BKN021 M00/M01 Q1012=
200512200920 METAR ESMX 200920Z 31005KT 9999 FEW025 SCT074 M01/M02 Q1012=
200512200850 METAR ESMX 200850Z 32005KT 9999 FEW019 BKN021 M00/M01 Q1012=
200512200750 METAR ESMX 200750Z 35009KT 9999 SCT009 BKN015 M00/M00 Q1011=
200512200720 METAR ESMX 200720Z VRB03KT 8000 BR FEW008 SCT017 BKN021 M00/M00 Q1011=
200512200650 METAR ESMX 200650Z 31004KT 7000 BR FEW005 SCT020 BKN074 00/00 Q1010=
200512200620 METAR ESMX 200620Z 27005KT 8000 BR SCT004 BKN082 00/00 Q1009=
200512200550 METAR ESMX 200550Z 26006KT 7000 BR FEW002 SCT005 00/00 Q1009=
200512200520 METAR ESMX 200520Z 25005KT 6000 BR FEW003 BKN089 00/00 Q1009=
200512200450 METAR ESMX 200450Z 27005KT 8000 BR FEW010 SCT095 00/00 Q1009=
200512200420 METAR ESMX 200420Z AUTO 26004KT 230V330 6000 BR FEW009 BKN099 00/00 Q1009=
200512200350 METAR ESMX 200350Z AUTO 25005KT 5000 BR SCT100 00/00 Q1009=
200512200320 METAR ESMX 200320Z AUTO 24005KT 210V290 5000 SCT001 BKN004 00/00 Q1009=
200512200250 METAR ESMX 200250Z AUTO 24005KT 1500 OVC001 01/01 Q1009=
200512200220 METAR ESMX 200220Z 25004KT 1400 R19/P1500N BR BKN001 01/01 Q1009=
200512200150 METAR ESMX 200150Z 22008KT 3000 BR OVC002 01/00 Q1009=
200512200120 METAR ESMX 200120Z 23007KT 2000 BR BKN002 01/00 Q1009=
200512200050 METAR ESMX 200050Z 19008KT 1700 -SN BR OVC001 00/00 Q1009=
200512200020 METAR ESMX 200020Z 20007KT 3300 -SN OVC002 00/00 Q1009=
200512192350 METAR ESMX 192350Z 21008KT 4000 -SN OVC002 00/00 Q1009=
200512192320 METAR ESMX 192320Z 19009KT 5000 -SN OVC003 00/00 Q1009 RESN=
200512192250 METAR ESMX 192250Z 19010KT 3000 SN OVC003 00/00 Q1010=
200512192220 METAR ESMX 192220Z 18008KT 4000 -SN FEW003 BKN005 M00/M00 Q1010=
200512192150 METAR ESMX 192150Z 17007KT 140V200 3500 -SN FEW003 OVC005 M00/M00 Q1010 RESN=
200512192120 METAR ESMX 192120Z 17006KT 2200 SN OVC003 M01/M01 Q1010=
200512192050 METAR ESMX 192050Z 15007KT 120V190 5000 -SN BR BKN002 M01/M01 Q1011=
200512192020 METAR ESMX 192020Z 17006KT 5000 -SN BKN003 M01/M01 Q1011=
200512191950 METAR ESMX 191950Z 15006KT 8000 -SN BKN004 M01/M02 Q1011=
200512191920 METAR ESMX 191920Z 15006KT 6000 -SN BKN004 M02/M02 Q1011=
200512191850 METAR ESMX 191850Z 15006KT 120V190 9999 -SN BKN004 M02/M03 Q1011=
200512191820 METAR ESMX 191820Z 16006KT 9999 -SN BKN004 M02/M03 Q1011=
200512191750 METAR ESMX 191750Z 14007KT 100V190 9999 -SN SCT005 BKN013 M02/M03 Q1011=
200512191720 METAR ESMX 191720Z 15006KT 110V170 5000 -SN BKN015 M03/M03 Q1011=
200512191650 METAR ESMX 191650Z 16005KT 110V180 6000 -SN BKN015 M03/M04 Q1011=
200512191620 METAR ESMX 191620Z 14005KT 9999 -SN SCT014 BKN017 M03/M05 Q1012=
200512191550 METAR ESMX 191550Z 15004KT 110V180 9999 -SN FEW009 BKN020 M04/M05 Q1012=
200512191520 METAR ESMX 191520Z 15004KT 6000 -SN FEW007 BKN025 M04/M05 Q1012=
200512191450 METAR ESMX 191450Z VRB03KT 9999 BKN023 M04/M05 Q1012=
200512191350 METAR ESMX 191350Z 15004KT 9999 FEW036 BKN050 M04/M05 Q1012=
200512191320 METAR ESMX 191320Z VRB03KT CAVOK M04/M05 Q1012=
200512191250 METAR ESMX 191250Z VRB02KT CAVOK M04/M05 Q1012=
200512191220 METAR ESMX 191220Z VRB03KT CAVOK M04/M05 Q1012=
200512191150 METAR ESMX 191150Z VRB03KT CAVOK M04/M05 Q1012=
200512191120 METAR ESMX 191120Z VRB03KT CAVOK M04/M05 Q1012=
200512191050 METAR ESMX 191050Z 18004KT CAVOK M04/M05 Q1012=
200512191020 METAR ESMX 191020Z 17004KT CAVOK M04/M06 Q1012=
200512190950 METAR ESMX 190950Z 18004KT CAVOK M05/M06 Q1012=
200512190920 METAR ESMX 190920Z VRB03KT CAVOK M06/M07 Q1012=
200512190850 METAR ESMX 190850Z VRB02KT CAVOK M07/M08 Q1012=
200512190720 METAR ESMX 190720Z VRB02KT CAVOK M10/M11 Q1012=
200512190650 METAR ESMX 190650Z 00000KT CAVOK M10/M11 Q1012=
200512190620 METAR ESMX 190620Z VRB02KT CAVOK M10/M11 Q1012=
200512190550 METAR ESMX 190550Z VRB03KT CAVOK M11/M12 Q1012=
200512190520 METAR ESMX 190520Z VRB02KT CAVOK M12/M13 Q1012=
200512190450 METAR ESMX 190450Z VRB01KT CAVOK M12/M13 Q1011=
200512190420 METAR ESMX 190420Z AUTO VRB02KT 9999 NSC M12/M13 Q1011=
200512190350 METAR ESMX 190350Z AUTO VRB01KT 9999 NSC M12/M13 Q1012=
200512190320 METAR ESMX 190320Z AUTO VRB01KT 9999 NSC M12/M13 Q1012=
200512190250 METAR ESMX 190250Z AUTO VRB02KT 9999 NSC M10/M11 Q1012=
200512190220 METAR ESMX 190220Z VRB03KT CAVOK M10/M11 Q1012=
200512190150 METAR ESMX 190150Z VRB03KT CAVOK M11/M12 Q1011=
200512190120 METAR ESMX 190120Z VRB02KT CAVOK M11/M12 Q1011=
200512190050 METAR ESMX 190050Z VRB01KT CAVOK M11/M12 Q1011=
200512190020 METAR ESMX 190020Z VRB02KT CAVOK M11/M12 Q1011=
200512182350 METAR ESMX 182350Z VRB02KT CAVOK M10/M11 Q1011=
200512182320 METAR ESMX 182320Z VRB03KT CAVOK M10/M11 Q1011=
200512182250 METAR ESMX 182250Z VRB02KT 9999 NSC M10/M11 Q1010=
200512182220 METAR ESMX 182220Z VRB02KT CAVOK M11/M12 Q1010=
200512182150 METAR ESMX 182150Z VRB01KT CAVOK M10/M10 Q1010=
200512182120 METAR ESMX 182120Z VRB03KT CAVOK M10/M10 Q1010=
200512182050 METAR ESMX 182050Z VRB02KT CAVOK M09/M10 Q1010=
200512182020 METAR ESMX 182020Z VRB03KT CAVOK M10/M10 Q1010=
200512181950 METAR ESMX 181950Z VRB02KT 9999 FEW014 M09/M10 Q1010=
200512181920 METAR ESMX 181920Z VRB03KT 9999 FEW013 M09/M10 Q1009=
200512181850 METAR ESMX 181850Z 31004KT 9999 FEW013 M07/M09 Q1009=
200512181820 METAR ESMX 181820Z 30004KT 9999 FEW012 M06/M08 Q1009=
200512181750 METAR ESMX 181750Z 31006KT 9999 FEW012 M06/M08 Q1009=
200512181720 METAR ESMX 181720Z 31007KT 9999 FEW013 M06/M07 Q1008=
200512181650 METAR ESMX 181650Z 32007KT 9999 FEW014 M06/M07 Q1008=
200512181620 METAR ESMX 181620Z 32007KT 9999 FEW013 M06/M07 Q1008=
200512181550 METAR ESMX 181550Z 29008KT 9999 BKN016 M05/M07 Q1008=
200512181520 METAR ESMX 181520Z 32009KT 9999 BKN016 M04/M07 Q1007=
200512181450 METAR ESMX 181450Z 32009KT 9999 SCT016 M04/M07 Q1007=
200512181420 METAR ESMX 181420Z 33010KT 9999 BKN016 M04/M06 Q1006=
200512181350 METAR ESMX 181350Z 34010KT 9999 BKN016 M04/M06 Q1006=
200512181320 METAR ESMX 181320Z AUTO 32011KT 9999 OVC015 M04/M06 Q1006=
200512181250 METAR ESMX 181250Z AUTO 32010KT 280V350 9999 OVC015 M04/M06 Q1005=
200512181220 METAR ESMX 181220Z AUTO 34015KT 9999 BKN015 M03/M06 Q1005=
200512181150 METAR ESMX 181150Z AUTO 34012KT 300V010 9999 OVC015 M04/M06 Q1004=
200512181120 METAR ESMX 181120Z AUTO 33013KT 290V350 9999 OVC015 M03/M06 Q1004=
200512181050 METAR ESMX 181050Z AUTO 33012KT 290V010 9999 OVC015 M03/M06 Q1004=
200512181020 METAR ESMX 181020Z AUTO 33011KT 9999 OVC015 M04/M06 Q1004 RESN=
200512180950 METAR ESMX 180950Z AUTO 31009KT 9999 -SN BKN015 M05/M07 Q1003=
200512180920 METAR ESMX 180920Z AUTO 34009KT 9999 FEW012 BKN017 M05/M07 Q1003=
200512180850 METAR ESMX 180850Z AUTO 32008KT 280V350 9999 FEW013 BKN021 BKN026 M05/M08 Q1003 RESN=
200512180820 METAR ESMX 180820Z AUTO 31008KT 9999 FEW014 BKN020 M06/M08 Q1002 RESN=
200512180750 METAR ESMX 180750Z AUTO 32009KT 9999 -SN FEW017 SCT029 M06/M08 Q1002=
200512180720 METAR ESMX 180720Z AUTO 31010KT 280V350 9999 FEW016 SCT021 M06/M09 Q1001=
200512180650 METAR ESMX 180650Z AUTO 33010KT 290V360 9999 FEW100 M06/M09 Q1001=
200512180620 METAR ESMX 180620Z AUTO 33011KT 9999 NSC M06/M09 Q1000=
200512180550 METAR ESMX 180550Z AUTO 31011KT 9999 FEW096 M06/M10 Q1000=
200512180520 METAR ESMX 180520Z AUTO 31010KT 270V340 9999 NSC M05/M10 Q1000=
200512180450 METAR ESMX 180450Z AUTO 32014KT 290V350 9999 NSC M05/M10 Q0999=
200512180420 METAR ESMX 180420Z AUTO 33012KT 9999 NSC M05/M10 Q0999=
200512180350 METAR ESMX 180350Z AUTO 31011KT 9999 NSC M04/M09 Q0999=
200512180320 METAR ESMX 180320Z AUTO 30008KT 270V330 9999 NSC M04/M09 Q0999=
200512180250 METAR ESMX 180250Z AUTO 29009KT 9999 NSC M04/M08 Q0999=
200512180220 METAR ESMX 180220Z AUTO /////KT 9999 NSC M03/M07 Q0999=
200512180150 METAR ESMX 180150Z AUTO 31009KT 260V340 9999 NSC M03/M07 Q0998=
200512180120 METAR ESMX 180120Z AUTO 30009KT 250V330 9999 NSC M03/M06 Q0998=
200512180050 METAR ESMX 180050Z AUTO 30008KT 270V330 9999 NSC M03/M06 Q0998=
200512180020 METAR ESMX 180020Z AUTO 30007KT 260V330 9999 NSC M03/M06 Q0998=
200512172350 METAR ESMX 172350Z AUTO VRB03KT 9999 NSC M04/M06 Q0998=
200512172320 METAR ESMX 172320Z AUTO 27005KT 230V290 9999 NSC M04/M06 Q0998=
200512172250 METAR ESMX 172250Z AUTO 28006KT 9999 NSC M04/M06 Q0998=
200512172220 METAR ESMX 172220Z AUTO 25006KT 9999 FEW079 M04/M06 Q0998=
200512172150 METAR ESMX 172150Z AUTO 25007KT 9999 FEW045 SCT099 M04/M06 Q0998=
200512172120 METAR ESMX 172120Z AUTO 25005KT 210V290 9999 NSC M05/M06 Q0998=
200512172050 METAR ESMX 172050Z AUTO 24005KT 210V280 9999 NSC M05/M06 Q0998=
200512172020 METAR ESMX 172020Z AUTO 25005KT 9999 NSC M05/M07 Q0998=
200512171950 METAR ESMX 171950Z AUTO 25006KT 200V280 9999 NSC M05/M07 Q0998=
200512171920 METAR ESMX 171920Z AUTO 24005KT 210V290 9999 NSC M05/M07 Q0999=
200512171850 METAR ESMX 171850Z AUTO 27007KT 9999 NSC M05/M06 Q0999=
200512171820 METAR ESMX 171820Z AUTO 26006KT 9999 NSC M05/M06 Q0998=
200512171750 METAR ESMX 171750Z AUTO 25005KT 220V290 9999 NSC M05/M06 Q0999=
200512171720 METAR ESMX 171720Z AUTO 27006KT 9999 NSC M04/M06 Q0999=
200512171650 METAR ESMX 171650Z AUTO 27007KT 240V300 9999 NSC M04/M06 Q0999=
200512171620 METAR ESMX 171620Z AUTO 28006KT 240V300 9999 NSC M04/M06 Q0999=
200512171550 METAR ESMX 171550Z AUTO 28005KT 9999 NSC M04/M06 Q0999=
200512171520 METAR ESMX 171520Z AUTO 29004KT 9999 NSC M04/M06 Q0998=
200512171450 METAR ESMX 171450Z AUTO 29005KT 9999 NSC M03/M06 Q0998=
200512171420 METAR ESMX 171420Z AUTO 32004KT 290V360 9999 NSC M03/M06 Q0998=
200512171350 METAR ESMX 171350Z AUTO 31005KT 270V350 9999 NSC M02/M06 Q0997=
200512171320 METAR ESMX 171320Z AUTO 30007KT 260V330 9999 NSC M02/M06 Q0997=
200512171250 METAR ESMX 171250Z AUTO 31008KT 280V340 9999 NSC M02/M06 Q0997=
200512171220 METAR ESMX 171220Z AUTO 31007KT 9999 NSC M01/M06 Q0996=
200512171150 METAR ESMX 171150Z AUTO 30007KT 9999 NSC M02/M06 Q0996=
200512171120 METAR ESMX 171120Z 30008KT CAVOK M02/M06 Q0996=
200512171050 METAR ESMX 171050Z 32007KT CAVOK M02/M05 Q0996=
200512171020 METAR ESMX 171020Z 31007KT CAVOK M02/M05 Q0996=
200512170950 METAR ESMX 170950Z 31006KT CAVOK M03/M05 Q0996=
200512170920 METAR ESMX 170920Z 30005KT CAVOK M03/M05 Q0995=
200512170850 METAR ESMX 170850Z 30005KT CAVOK M04/M05 Q0995=
200512170820 METAR ESMX 170820Z 29005KT CAVOK M06/M07 Q0995=
200512170750 METAR ESMX 170750Z 30004KT CAVOK M05/M07 Q0994=
200512170720 METAR ESMX 170720Z AUTO 34005KT 9999 NSC M04/M07 Q0994=
200512170650 METAR ESMX 170650Z AUTO 35007KT 9999 SCT033 M03/M06 Q0993=
200512170620 METAR ESMX 170620Z AUTO 35006KT 310V020 9999 OVC031 M02/M05 Q0993=
200512170550 METAR ESMX 170550Z AUTO 33005KT 9999 OVC031 M02/M05 Q0993=
200512170520 METAR ESMX 170520Z AUTO VRB03KT 9999 OVC030 M03/M05 Q0992=
200512170450 METAR ESMX 170450Z AUTO 30004KT 9999 OVC032 M03/M05 Q0992=
200512170420 METAR ESMX 170420Z AUTO 29004KT 9999 OVC032 M03/M05 Q0992=
200512170350 METAR ESMX 170350Z AUTO 29004KT 9999 OVC032 M03/M05 Q0991=
200512170320 METAR ESMX 170320Z AUTO 29004KT 260V330 9999 OVC031 M03/M05 Q0991=
200512170250 METAR ESMX 170250Z AUTO VRB01KT 9999 OVC028 M03/M05 Q0991=
200512170220 METAR ESMX 170220Z AUTO VRB02KT 9999 OVC027 M04/M05 Q0991=
200512170150 METAR ESMX 170150Z AUTO VRB03KT 9999 OVC028 M04/M05 Q0991=
200512170120 METAR ESMX 170120Z AUTO VRB02KT 9999 OVC029 M04/M06 Q0990=
200512170050 METAR ESMX 170050Z AUTO VRB02KT 9999 BKN030 M05/M06 Q0990=
200512170020 METAR ESMX 170020Z AUTO VRB03KT 9999 FEW032 M06/M07 Q0990=
200512162350 METAR ESMX 162350Z AUTO VRB02KT 9999 FEW032 M05/M06 Q0990=
200512162320 METAR ESMX 162320Z AUTO VRB02KT 9999 FEW030 M05/M06 Q0990=
200512162250 METAR ESMX 162250Z AUTO 30004KT 9999 FEW021 BKN026 M04/M05 Q0990=
200512162220 METAR ESMX 162220Z AUTO 31004KT 9999 FEW019 BKN023 M04/M05 Q0990=
200512162150 METAR ESMX 162150Z AUTO 30005KT 9999 BKN019 M03/M05 Q0989=
200512162120 METAR ESMX 162120Z AUTO 31004KT 9999 NSC M04/M05 Q0989=
200512162050 METAR ESMX 162050Z 33006KT CAVOK M03/M05 Q0989=
200512162020 METAR ESMX 162020Z 31007KT CAVOK M03/M05 Q0989=
200512161950 METAR ESMX 161950Z 31007KT CAVOK M02/M04 Q0988=
200512161920 METAR ESMX 161920Z 32007KT 9999 SCT035 M02/M04 Q0988=
200512161850 METAR ESMX 161850Z 32006KT 9999 OVC038 M02/M04 Q0988=
200512161820 METAR ESMX 161820Z 31008KT 9999 BKN041 M01/M04 Q0987=
200512161750 METAR ESMX 161750Z 31007KT 9999 OVC041 M01/M04 Q0987=
200512161720 METAR ESMX 161720Z 31008KT 9999 BKN040 M01/M04 Q0987=
200512161650 METAR ESMX 161650Z 31007KT 9999 BKN040 M01/M04 Q0986=
200512161620 METAR ESMX 161620Z 34010KT 9999 BKN037 M01/M04 Q0986=
200512161550 METAR ESMX 161550Z 34008KT 9999 BKN038 M01/M04 Q0985=
200512161520 METAR ESMX 161520Z 33009KT 9999 BKN036 M01/M04 Q0985=
200512161450 METAR ESMX 161450Z 34009KT 9999 BKN033 M01/M04 Q0985=
200512161420 METAR ESMX 161420Z 33009KT 9999 BKN035 M01/M04 Q0984=
200512161350 METAR ESMX 161350Z 33009KT 9999 BKN034 M01/M04 Q0984=
200512161320 METAR ESMX 161320Z 34010KT 9999 BKN033 M01/M04 Q0984=
200512161250 METAR ESMX 161250Z 34008KT 9999 BKN031 M01/M04 Q0983=
200512161220 METAR ESMX 161220Z 34008KT 9999 BKN032 M01/M04 Q0983=
200512161150 METAR ESMX 161150Z 34007KT CAVOK M02/M04 Q0983=
200512161120 METAR ESMX 161120Z 01009KT CAVOK M02/M04 Q0982=
200512161050 METAR ESMX 161050Z 35010KT CAVOK M01/M03 Q0982=
200512161020 METAR ESMX 161020Z 36008KT CAVOK M02/M03 Q0982=
200512160950 METAR ESMX 160950Z 35008KT CAVOK M02/M03 Q0982=
200512160920 METAR ESMX 160920Z 35007KT CAVOK M03/M04 Q0982=
200512160850 METAR ESMX 160850Z 01007KT CAVOK M03/M04 Q0982=
200512160820 METAR ESMX 160820Z 01005KT CAVOK M04/M04 Q0982=
200512160750 METAR ESMX 160750Z VRB01KT CAVOK M06/M06 Q0982=
200512160720 METAR ESMX 160720Z 00000KT CAVOK M06/M06 Q0982=
200512160650 METAR ESMX 160650Z VRB01KT CAVOK M05/M05 Q0982=
200512160620 METAR ESMX 160620Z VRB01KT CAVOK M05/M05 Q0983=
200512160550 METAR ESMX 160550Z VRB01KT CAVOK M05/M06 Q0983=
200512160520 METAR ESMX 160520Z VRB03KT CAVOK M04/M05 Q0983=
200512160450 METAR ESMX 160450Z VRB03KT CAVOK M04/M05 Q0984=
200512160420 METAR ESMX 160420Z AUTO VRB03KT 9999 NSC M04/M05 Q0984=
200512160350 METAR ESMX 160350Z AUTO VRB02KT 9999 NSC M03/M05 Q0985=
200512160320 METAR ESMX 160320Z AUTO VRB03KT 9999 NSC M03/M05 Q0985=
200512160250 METAR ESMX 160250Z AUTO VRB03KT 9999 NSC M03/M05 Q0986=
200512160220 METAR ESMX 160220Z AUTO 24004KT 9999 NSC M03/M05 Q0987=
200512160150 METAR ESMX 160150Z VRB02KT CAVOK M03/M05 Q0987=
200512160120 METAR ESMX 160120Z VRB01KT CAVOK M02/M04 Q0987=
200512160050 METAR ESMX 160050Z 27004KT 230V310 CAVOK M01/M04 Q0988=
200512160020 METAR ESMX 160020Z 26004KT 230V290 CAVOK M01/M04 Q0988=
200512152350 METAR ESMX 152350Z VRB03KT CAVOK M01/M04 Q0989=
200512152320 METAR ESMX 152320Z VRB03KT CAVOK M01/M04 Q0989=
200512152250 METAR ESMX 152250Z 29004KT 250V330 CAVOK M01/M04 Q0990=
200512152220 METAR ESMX 152220Z 31005KT 280V350 CAVOK M00/M03 Q0990=
200512152150 METAR ESMX 152150Z 30007KT CAVOK M00/M03 Q0990=
200512152120 METAR ESMX 152120Z 29007KT 260V330 CAVOK M00/M03 Q0990=
200512152050 METAR ESMX 152050Z 30008KT 280V350 CAVOK 00/M03 Q0990=
200512152020 METAR ESMX 152020Z 30008KT 260V330 CAVOK 00/M02 Q0990=
200512151950 METAR ESMX 151950Z 31007KT 280V350 CAVOK 01/M02 Q0990=
200512151920 METAR ESMX 151920Z 30008KT 270V340 CAVOK 01/M02 Q0990=
200512151850 METAR ESMX 151850Z 30009KT CAVOK 01/M02 Q0990=
200512151820 METAR ESMX 151820Z 30008KT 270V330 CAVOK 01/M03 Q0990=
200512151750 METAR ESMX 151750Z 31010KT 280V340 CAVOK 01/M02 Q0990=
200512151720 METAR ESMX 151720Z 32010KT 290V350 CAVOK 02/M02 Q0990=
200512151650 METAR ESMX 151650Z 30008KT CAVOK 02/M01 Q0990=
200512151620 METAR ESMX 151620Z 29009KT 270V330 CAVOK 02/M01 Q0990=
200512151550 METAR ESMX 151550Z 29010KT CAVOK 02/M00 Q0990=
200512151520 METAR ESMX 151520Z 31008KT CAVOK 02/M00 Q0990=
200512151450 METAR ESMX 151450Z 30009KT CAVOK 03/00 Q0990=
200512151420 METAR ESMX 151420Z 31010KT CAVOK 03/00 Q0989=
200512151350 METAR ESMX 151350Z 31011KT 280V350 CAVOK 04/01 Q0989=
200512151320 METAR ESMX 151320Z 31010KT 9999 FEW020 04/01 Q0989=
200512151250 METAR ESMX 151250Z 31010KT 9999 FEW017 SCT023 04/02 Q0988=
200512151220 METAR ESMX 151220Z 29012KT 9999 FEW015 05/02 Q0988=
200512151150 METAR ESMX 151150Z 31009KT 290V360 9999 FEW017 04/02 Q0988=
200512151120 METAR ESMX 151120Z 30011KT 9999 SCT013 BKN018 05/03 Q0988=
200512151050 METAR ESMX 151050Z 31013KT 9999 FEW011 BKN014 05/03 Q0987=
200512151020 METAR ESMX 151020Z 31013KT 9999 BKN012 05/03 Q0987=
200512150950 METAR ESMX 150950Z 30010KT 270V340 9999 -SHRA FEW013 OVC016 05/03 Q0987=
200512150920 METAR ESMX 150920Z 30009KT 260V330 9999 DZ FEW016 OVC019 05/03 Q0986=
200512150850 METAR ESMX 150850Z 28007KT 250V310 9999 FEW023 OVC030 05/04 Q0986=
200512150820 METAR ESMX 150820Z 27007KT 9999 FEW022 BKN027 05/04 Q0986=
200512150750 METAR ESMX 150750Z 26008KT 220V290 9999 -SHRA SCT018 BKN026 05/04 Q0986=
200512150720 METAR ESMX 150720Z 27009KT 9000 -SHRA FEW010 BKN017 OVC023 05/04 Q0986=
200512150650 METAR ESMX 150650Z 27010KT 230V290 7000 -SHRA FEW009 SCT019 BKN026 06/05 Q0986=
200512150620 METAR ESMX 150620Z 26010KT 190V280 9000 -SHRA FEW008 BKN011 OVC015 06/05 Q0987=
200512150550 METAR ESMX 150550Z 25009KT 210V280 7000 -RA FEW009 BKN014 BKN018 06/05 Q0987=
200512150520 METAR ESMX 150520Z 24010KT 210V280 9000 -RA FEW009 BKN014 06/05 Q0988=
200512150450 METAR ESMX 150450Z 25010KT 220V280 7000 -RA FEW009 SCT011 BKN013 06/05 Q0989=
200512150420 METAR ESMX 150420Z 24011KT 220V280 9000 -RA FEW007 BKN011 OVC017 06/05 Q0989=
200512150350 METAR ESMX 150350Z AUTO 24012KT 7000 -RA FEW006 SCT008 BKN009 06/05 Q0990=
200512150320 METAR ESMX 150320Z AUTO 23011KT 200V270 3700 +DZ SCT005 BKN007 BKN011 05/05 Q0992=
200512150250 METAR ESMX 150250Z AUTO 22014KT 2900 DZ BKN003 BKN006 05/05 Q0993=
200512150220 METAR ESMX 150220Z AUTO 24012KT 5000 BR OVC002 05/05 Q0994=
200512150150 METAR ESMX 150150Z AUTO 23011KT 200V260 4500 BR OVC002 05/04 Q0996=
200512150120 METAR ESMX 150120Z 23009KT 4000 BR BKN004 04/03 Q0997=
200512150050 METAR ESMX 150050Z 22010KT 200V260 5000 BR BKN005 04/03 Q0998=
200512150020 METAR ESMX 150020Z 25010KT 210V280 9999 BKN008 04/02 Q1000=
200512142350 METAR ESMX 142350Z 22009KT 190V250 9999 FEW008 BKN010 03/02 Q1001=
200512142320 METAR ESMX 142320Z 22008KT 9999 BKN007 03/02 Q1002=
200512142250 METAR ESMX 142250Z 23010KT 9999 BKN007 03/02 Q1003=
200512142220 METAR ESMX 142220Z 21008KT 170V250 9999 SCT008 BKN010 03/02 Q1004=
200512142150 METAR ESMX 142150Z 24009KT 9999 BKN008 03/02 Q1005=
200512142120 METAR ESMX 142120Z 24007KT 190V280 9999 FEW006 BKN009 03/02 Q1006=
200512142050 METAR ESMX 142050Z 24008KT 9999 SCT004 BKN006 03/03 Q1007=
200512142020 METAR ESMX 142020Z 24010KT 220V280 9999 FEW003 OVC005 03/02 Q1007=
200512141950 METAR ESMX 141950Z 26007KT 230V290 8000 BR FEW002 SCT005 BKN008 03/03 Q1008=
200512141920 METAR ESMX 141920Z 25009KT 230V300 8000 BR OVC002 03/03 Q1009=
200512141850 METAR ESMX 141850Z 24009KT 200V280 5000 BR OVC001 03/03 Q1009=
200512141820 METAR ESMX 141820Z 26006KT 230V290 5000 BR OVC001 03/03 Q1010=
200512141750 METAR ESMX 141750Z 23006KT 7000 BR OVC002 03/02 Q1010=
200512141720 METAR ESMX 141720Z 24005KT 200V270 9999 BKN003 03/02 Q1011=
200512141650 METAR ESMX 141650Z 25005KT 210V280 9999 OVC004 03/02 Q1011=
200512141620 METAR ESMX 141620Z 27006KT 240V300 9999 OVC004 03/02 Q1012=
200512141550 METAR ESMX 141550Z 26006KT 9999 BKN004 03/02 Q1012=
200512141520 METAR ESMX 141520Z 25007KT 9999 BKN004 03/02 Q1013=
200512141450 METAR ESMX 141450Z 27004KT 230V300 9999 OVC004 03/02 Q1013=
200512141420 METAR ESMX 141420Z 29005KT 230V310 9999 OVC004 03/03 Q1013=
200512141350 METAR ESMX 141350Z 26004KT 220V290 9999 OVC004 03/03 Q1013=
200512141320 METAR ESMX 141320Z 28005KT 240V320 9999 BKN005 03/03 Q1014=
200512141250 METAR ESMX 141250Z 28005KT 250V320 9999 FEW005 BKN007 04/03 Q1013=
200512141220 METAR ESMX 141220Z 29005KT 250V320 9999 BKN005 04/04 Q1014=
200512141150 METAR ESMX 141150Z 27006KT 240V300 9999 BKN005 04/04 Q1014=
200512141120 METAR ESMX 141120Z 28005KT 250V320 9999 BKN005 04/04 Q1014=
200512141020 METAR ESMX 141020Z 29005KT 9999 FEW004 BKN005 03/03 Q1015=
200512140950 METAR ESMX 140950Z 26004KT 230V310 9999 OVC005 03/03 Q1015=
200512140920 METAR ESMX 140920Z 26004KT 9999 OVC007 03/03 Q1015=
200512140850 METAR ESMX 140850Z VRB02KT 9999 OVC008 02/02 Q1015=
200512140820 METAR ESMX 140820Z VRB02KT 0350 R01/0800N R19/0900N FG VV002 02/02 Q1015=
200512140750 METAR ESMX 140750Z VRB02KT 0300 R01/0800N R19/0650N FG VV002 02/02 Q1015=
200512140720 METAR ESMX 140720Z VRB03KT 0400 R01/0900N R19/0700N FG VV002 02/02 Q1015=
200512140650 METAR ESMX 140650Z 27004KT 0400 R01/0800V1000N R19/0900N FG VV002 02/02 Q1014=
200512140620 METAR ESMX 140620Z 29004KT 270V330 0350 R01/0700N R19/0650N FG VV002 02/02 Q1014=
200512140550 METAR ESMX 140550Z VRB03KT 0300 R01/0800V1400N R19/0650N FG VV002 02/02 Q1014=
200512140520 METAR ESMX 140520Z 27004KT 0250 R01/0800N R19/0800N FG VV002 02/02 Q1014=
200512140450 METAR ESMX 140450Z VRB03KT 0300 R01/0800N R19/0900U FG VV002 02/02 Q1014=
200512140420 METAR ESMX 140420Z AUTO VRB03KT 0200 R01/0800N R19/0800N FG VV001 02/02 Q1014=
200512140350 METAR ESMX 140350Z AUTO VRB03KT 0250 R01/0900D R19/0900N FG VV001 02/02 Q1014=
200512140320 METAR ESMX 140320Z AUTO VRB02KT 0250 R01/0900N R19/1000N FG VV001 02/02 Q1014=
200512140250 METAR ESMX 140250Z AUTO VRB02KT 0200 R01/0700N R19/0600N FG VV000 01/01 Q1014=
200512140220 METAR ESMX 140220Z AUTO VRB02KT 0150 R01/0650N R19/0600N FG VV000 02/02 Q1014=
200512140150 METAR ESMX 140150Z AUTO VRB02KT 0200 R01/0800N R19/0800N FG VV000 01/01 Q1015=
200512140120 METAR ESMX 140120Z VRB02KT 0350 R01/1100N R19/0900N FG VV002 01/01 Q1015=
200512140050 METAR ESMX 140050Z VRB03KT 0300 R01/1000N R19/0900N FG VV002 01/01 Q1015=
200512140020 METAR ESMX 140020Z VRB03KT 0300 R01/1000N R19/1000N FG VV002 01/01 Q1015=
200512132350 METAR ESMX 132350Z VRB02KT 0650 R01/P1500N R19/P1500U FG VV002 01/01 Q1015=
200512132320 METAR ESMX 132320Z VRB03KT 0350 R01/1100N R19/1000N FG VV002 01/01 Q1016=
200512132250 METAR ESMX 132250Z 20004KT 0300 R01/1000D R19/1100N FG VV002 01/01 Q1016=
200512132220 METAR ESMX 132220Z VRB03KT 0300 R01/1200U R19/1400U FG VV002 01/00 Q1016=
200512132150 METAR ESMX 132150Z VRB03KT 0300 R01/1100N R19/P1500D FG VV002 01/01 Q1017=
200512132120 METAR ESMX 132120Z 21005KT 0450 R01/P1500D R19/P1500D FG VV002 00/00 Q1017=
200512132020 METAR ESMX 132020Z 25005KT 210V280 0650 R01/P1500N R19/P1500N FG VV002 00/00 Q1017=
200512131950 METAR ESMX 131950Z 23005KT 0200 R01/0800N R19/0750V1400D FG VV002 00/00 Q1018=
200512131920 METAR ESMX 131920Z 20004KT 0350 R01/1100N R19/1100VP1500U FG VV002 00/00 Q1018=
200512131850 METAR ESMX 131850Z 23004KT 0300 R01/1100D R19/1000D FG VV002 00/00 Q1018=
200512131820 METAR ESMX 131820Z VRB01KT 5000 BR BKN002 M01/M01 Q1018=
200512131750 METAR ESMX 131750Z VRB01KT 3000 BR VV002 M00/M00 Q1019=
200512131720 METAR ESMX 131720Z 26004KT 1500 R01/P1500N R19/P1500N BR VV002 M00/M00 Q1019=
200512131650 METAR ESMX 131650Z 23005KT 1800 FG VV002 M00/M00 Q1019=
200512131620 METAR ESMX 131620Z 22006KT 0550 R01/P1500U R19/P1500U FG VV002 M00/M00 Q1020=
200512131550 METAR ESMX 131550Z 21005KT 0500 R01/P1500D R19/P1500D FG VV002 M00/M00 Q1020=
200512131520 METAR ESMX 131520Z VRB03KT 2200 BR OVC001 M00/M00 Q1020=
200512131450 METAR ESMX 131450Z VRB03KT 6000 BR OVC001 M00/M00 Q1020=
200512131420 METAR ESMX 131420Z VRB03KT 8000 BR OVC002 00/M00 Q1020=
200512131350 METAR ESMX 131350Z VRB02KT 9000 BR OVC002 00/M00 Q1020=
200512131320 METAR ESMX 131320Z VRB03KT 9000 BR OVC003 00/M00 Q1020=
200512131250 METAR ESMX 131250Z VRB03KT 5000 BR OVC002 M00/M00 Q1021=
200512131220 METAR ESMX 131220Z 27005KT 230V320 3800 BR VV002 M00/M01 Q1021=
200512131150 METAR ESMX 131150Z 26006KT 220V300 2200 BR VV002 M01/M01 Q1021=
200512131120 METAR ESMX 131120Z 27005KT 230V290 3700 BR BKN001 M01/M01 Q1021=
200512131050 METAR ESMX 131050Z 26008KT 9999 FEW004 M00/M01 Q1022=
200512131020 METAR ESMX 131020Z 25007KT CAVOK M00/M01 Q1022=
200512130950 METAR ESMX 130950Z 25005KT CAVOK M01/M01 Q1022=
200512130920 METAR ESMX 130920Z VRB02KT CAVOK M02/M02 Q1022=
200512130850 METAR ESMX 130850Z VRB03KT CAVOK M02/M02 Q1022=
200512130820 METAR ESMX 130820Z VRB03KT 9999 FEW004 M02/M03 Q1022=
200512130750 METAR ESMX 130750Z 25005KT 1900 BR FEW004 M02/M03 Q1022=
200512130720 METAR ESMX 130720Z 28005KT 9999 FEW004 M02/M02 Q1022=
200512130650 METAR ESMX 130650Z 28004KT CAVOK M02/M02 Q1022=
200512130620 METAR ESMX 130620Z 28005KT CAVOK M02/M02 Q1022=
200512130550 METAR ESMX 130550Z 29004KT CAVOK M02/M03 Q1022=
200512130520 METAR ESMX 130520Z 29004KT CAVOK M02/M03 Q1022=
200512130450 METAR ESMX 130450Z 29004KT CAVOK M02/M02 Q1022=
200512130420 METAR ESMX 130420Z AUTO 26005KT 9999 NSC M02/M03 Q1023=
200512130350 METAR ESMX 130350Z AUTO VRB03KT 9999 NSC M03/M03 Q1023=
200512130320 METAR ESMX 130320Z AUTO VRB02KT 9999 NSC M03/M03 Q1023=
200512130250 METAR ESMX 130250Z AUTO VRB03KT 9999 NSC M03/M03 Q1024=
200512130220 METAR ESMX 130220Z AUTO VRB03KT 9999 NSC M02/M02 Q1024=
200512130150 METAR ESMX 130150Z AUTO 28004KT 9999 NSC M02/M02 Q1024=
200512130120 METAR ESMX 130120Z 27006KT CAVOK M02/M02 Q1024=
200512130050 METAR ESMX 130050Z 26005KT CAVOK M02/M02 Q1024=
200512130020 METAR ESMX 130020Z VRB03KT CAVOK M01/M02 Q1024=
200512122350 METAR ESMX 122350Z 26006KT CAVOK M01/M02 Q1024=
200512122320 METAR ESMX 122320Z 26005KT CAVOK M01/M02 Q1024=
200512122250 METAR ESMX 122250Z 25004KT CAVOK M02/M03 Q1024=
200512122220 METAR ESMX 122220Z 25004KT CAVOK M03/M03 Q1024=
200512122150 METAR ESMX 122150Z 21004KT CAVOK M04/M05 Q1024=
200512122120 METAR ESMX 122120Z VRB02KT CAVOK M03/M04 Q1024=
200512122050 METAR ESMX 122050Z VRB02KT CAVOK M01/M02 Q1024=
200512122020 METAR ESMX 122020Z VRB03KT CAVOK M01/M02 Q1024=
200512121950 METAR ESMX 121950Z VRB03KT CAVOK M01/M02 Q1024=
200512121920 METAR ESMX 121920Z 25004KT CAVOK M01/M02 Q1024=
200512121850 METAR ESMX 121850Z VRB02KT CAVOK M00/M02 Q1024=
200512121820 METAR ESMX 121820Z 25004KT CAVOK M01/M02 Q1024=
200512121750 METAR ESMX 121750Z 18005KT CAVOK M01/M02 Q1024=
200512121720 METAR ESMX 121720Z 18005KT CAVOK M00/M02 Q1024=
200512121650 METAR ESMX 121650Z VRB02KT CAVOK 00/M02 Q1024=
200512121620 METAR ESMX 121620Z 23004KT 190V260 CAVOK 01/M02 Q1024=
200512121550 METAR ESMX 121550Z 25004KT CAVOK 01/M01 Q1024=
200512121450 METAR ESMX 121450Z 26007KT 230V290 CAVOK 02/M01 Q1024=
200512121420 METAR ESMX 121420Z 25006KT CAVOK 03/M00 Q1024=
200512121350 METAR ESMX 121350Z 26006KT CAVOK 04/M01 Q1024=
200512121320 METAR ESMX 121320Z 29006KT 230V330 CAVOK 04/M01 Q1024=
200512121250 METAR ESMX 121250Z 31007KT 280V340 CAVOK 04/M01 Q1024=
200512121220 METAR ESMX 121220Z 30008KT CAVOK 04/M00 Q1024=
200512121150 METAR ESMX 121150Z 30009KT 260V350 CAVOK 05/M01 Q1024=
200512121120 METAR ESMX 121120Z 31007KT CAVOK 05/M01 Q1023=
200512121050 METAR ESMX 121050Z 30008KT CAVOK 05/M00 Q1023=
200512121020 METAR ESMX 121020Z 32008KT CAVOK 05/00 Q1023=
200512120950 METAR ESMX 120950Z 33007KT CAVOK 05/00 Q1023=
200512120920 METAR ESMX 120920Z 34008KT 320V110 CAVOK 04/01 Q1022=
200512120850 METAR ESMX 120850Z 34008KT CAVOK 05/02 Q1022=
200512120820 METAR ESMX 120820Z 33010KT 9999 FEW020 05/03 Q1021=
200512120750 METAR ESMX 120750Z 32009KT 9999 FEW015 06/04 Q1021=
200512120720 METAR ESMX 120720Z 32010KT 9999 FEW014 SCT020 07/05 Q1020=
200512120650 METAR ESMX 120650Z 32010KT 9999 FEW010 SCT019 BKN025 07/06 Q1020 RERA=
200512120620 METAR ESMX 120620Z 30007KT 270V330 9999 -SHRA FEW015 SCT020 BKN033 07/07 Q1018=
200512120550 METAR ESMX 120550Z 28005KT 230V300 9999 FEW014 BKN024 08/07 Q1018 REDZ=
200512120520 METAR ESMX 120520Z 27006KT 230V300 9999 -DZ BKN004 BKN012 08/07 Q1017=
200512120450 METAR ESMX 120450Z 26006KT 220V290 6000 -DZ BKN005 08/07 Q1017=
200512120420 METAR ESMX 120420Z AUTO 26006KT 230V290 4300 DZ OVC004 08/07 Q1017=
200512120350 METAR ESMX 120350Z AUTO 26009KT 220V290 4900 BR OVC003 08/07 Q1017=
200512120320 METAR ESMX 120320Z AUTO 27010KT 230V320 3600 BR FEW003 OVC005 08/07 Q1018=
200512120250 METAR ESMX 120250Z AUTO 25010KT 3600 BR OVC003 08/07 Q1017=
200512120220 METAR ESMX 120220Z AUTO 27010KT 3000 BR OVC003 08/07 Q1018=
200512120150 METAR ESMX 120150Z AUTO 26010G20KT 220V290 4600 BR OVC002 07/07 Q1018=
200512120120 METAR ESMX 120120Z 25010KT 5000 DZ BR OVC004 07/07 Q1017=
200512120050 METAR ESMX 120050Z 26010KT 230V300 5000 DZ BR OVC003 07/07 Q1018=
200512120020 METAR ESMX 120020Z 25011KT 220V290 5000 BR OVC005 07/07 Q1018=
200512112350 METAR ESMX 112350Z 25010KT 200V290 9999 OVC005 08/07 Q1018=
200512112320 METAR ESMX 112320Z 25010KT 210V290 9999 OVC005 08/07 Q1018=
200512112250 METAR ESMX 112250Z 26011KT 220V290 9999 OVC005 08/07 Q1018=
200512112220 METAR ESMX 112220Z 27012G22KT 230V320 9999 OVC005 08/07 Q1018=
200512112150 METAR ESMX 112150Z 27013KT 230V290 9999 OVC006 08/07 Q1018=
200512112120 METAR ESMX 112120Z 26012KT 220V300 9999 OVC004 08/07 Q1018=
200512112050 METAR ESMX 112050Z 27010KT 240V330 9999 OVC005 08/07 Q1019=
200512112020 METAR ESMX 112020Z 27012KT 240V300 9999 BKN006 OVC008 08/07 Q1019=
200512111920 METAR ESMX 111920Z 26010KT 220V300 9999 OVC005 07/07 Q1019=
200512111850 METAR ESMX 111850Z 26010KT 230V300 9999 OVC005 08/07 Q1019=
200512111820 METAR ESMX 111820Z 26011KT 220V290 9999 OVC007 08/06 Q1020=
200512111750 METAR ESMX 111750Z 27011KT 230V300 9999 BKN007 08/06 Q1020=
200512111720 METAR ESMX 111720Z 27010KT 230V310 9999 OVC008 08/06 Q1020=
200512111650 METAR ESMX 111650Z 25008KT 210V280 9999 OVC009 08/06 Q1020=
200512111620 METAR ESMX 111620Z 26007KT 230V290 9999 BKN010 07/06 Q1021=
200512111550 METAR ESMX 111550Z 27008KT 9999 OVC010 07/06 Q1021=
200512111520 METAR ESMX 111520Z 27007KT 220V320 9999 BKN009 07/06 Q1021=
200512111450 METAR ESMX 111450Z 28008KT 240V330 9999 BKN009 07/06 Q1021=
200512111420 METAR ESMX 111420Z 28009KT 240V320 9999 FEW007 BKN009 07/06 Q1021=
200512111350 METAR ESMX 111350Z 28009KT 250V330 9999 BKN007 08/06 Q1021=
200512111320 METAR ESMX 111320Z AUTO 28007KT 250V330 9999 OVC006 08/06 Q1021=
200512111250 METAR ESMX 111250Z AUTO 28009KT 250V320 9999 OVC006 08/07 Q1021=
200512111220 METAR ESMX 111220Z AUTO 29007KT 260V320 9999 OVC005 08/07 Q1022=
200512111150 METAR ESMX 111150Z AUTO 28009KT 250V320 9999 OVC005 08/07 Q1022=
200512111120 METAR ESMX 111120Z AUTO 27009KT 9999 OVC005 08/07 Q1022=
200512111050 METAR ESMX 111050Z AUTO 29009KT 260V330 9999 OVC005 08/07 Q1022=
200512111020 METAR ESMX 111020Z AUTO 29010KT 240V320 9999 OVC005 08/07 Q1022=
200512110950 METAR ESMX 110950Z AUTO 29010G23KT 260V330 9999 OVC004 08/07 Q1022=
200512110920 METAR ESMX 110920Z AUTO 28008KT 250V330 9999 BKN005 OVC008 08/07 Q1022=
200512110850 METAR ESMX 110850Z AUTO 27009KT 250V310 9999 OVC004 08/07 Q1022=
200512110820 METAR ESMX 110820Z AUTO 27009KT 240V300 9999 OVC004 08/07 Q1022=
200512110750 METAR ESMX 110750Z AUTO 26012G22KT 9999 OVC004 08/07 Q1022=
200512110720 METAR ESMX 110720Z AUTO 28011KT 250V330 9999 OVC004 08/07 Q1022=
200512110650 METAR ESMX 110650Z AUTO 27010KT 230V310 9999 BKN004 OVC006 08/08 Q1022=
200512110620 METAR ESMX 110620Z AUTO 28010KT 250V320 7000 BR OVC003 08/08 Q1022=
200512110550 METAR ESMX 110550Z AUTO 28009KT 250V330 4300 BR OVC002 08/08 Q1022=
200512110520 METAR ESMX 110520Z AUTO 26010KT 220V300 3300 BR OVC001 08/07 Q1022=
200512110450 METAR ESMX 110450Z AUTO 26009KT 230V290 1800 BR OVC001 07/07 Q1021=
200512110420 METAR ESMX 110420Z AUTO 26009KT 1300 R01/P1500N R19/P1500N BR OVC001 07/07 Q1022=
200512110350 METAR ESMX 110350Z AUTO 25007KT 220V340 1600 OVC001 07/07 Q1022=
200512110320 METAR ESMX 110320Z AUTO 26009KT 230V290 2000 OVC001 06/06 Q1022=
200512110250 METAR ESMX 110250Z AUTO 25010KT 1100 R01/P1500N R19/P1500N FG OVC001 06/06 Q1022=
200512110220 METAR ESMX 110220Z AUTO 26009KT 1100 R01/P1500N R19/P1500N BR OVC001 05/05 Q1022=
200512110150 METAR ESMX 110150Z AUTO 25011KT 1300 R01/P1500N R19/P1500N BR OVC001 05/04 Q1022=
200512110120 METAR ESMX 110120Z AUTO 23011KT 200V260 1500 BR OVC002 04/04 Q1023=
200512110050 METAR ESMX 110050Z AUTO 23011KT 1500 BR OVC002 04/03 Q1024=
200512110020 METAR ESMX 110020Z AUTO 23011KT 200V260 1700 BR OVC002 03/03 Q1024=
200512102350 METAR ESMX 102350Z AUTO 25012KT 180V270 1800 BR OVC002 03/03 Q1025=
200512102320 METAR ESMX 102320Z AUTO 23012KT 200V270 1800 BR OVC003 03/02 Q1025=
200512102250 METAR ESMX 102250Z AUTO 22013KT 190V250 2500 BR OVC003 03/02 Q1025=
200512102220 METAR ESMX 102220Z AUTO 24012KT 200V260 6000 OVC004 03/02 Q1026 REDZ=
200512102150 METAR ESMX 102150Z AUTO 23012KT 6000 -SHRA OVC003 03/02 Q1026=
200512102120 METAR ESMX 102120Z AUTO 22011KT 6000 OVC004 03/02 Q1027 REDZ=
200512102050 METAR ESMX 102050Z AUTO 22012KT 200V260 3900 -SHRA OVC004 03/02 Q1027=
200512102020 METAR ESMX 102020Z AUTO 22013KT 190V250 2900 -SHRA FEW004 OVC005 03/02 Q1028=
200512101950 METAR ESMX 101950Z AUTO 22012KT 5000 DZ OVC005 03/02 Q1028=
200512101920 METAR ESMX 101920Z AUTO 21013KT 3100 OVC005 03/02 Q1029 RERA=
200512101850 METAR ESMX 101850Z AUTO 21012KT 6000 -DZ FEW004 OVC005 02/02 Q1029=
200512101820 METAR ESMX 101820Z AUTO 22010KT 5000 -RA OVC003 02/02 Q1030=
200512101750 METAR ESMX 101750Z AUTO 21010KT 170V230 5000 -RA OVC003 02/02 Q1030=
200512101720 METAR ESMX 101720Z AUTO 23010KT 4500 -RA OVC002 02/02 Q1031=
200512101650 METAR ESMX 101650Z AUTO 23009KT 190V260 3600 -RA OVC002 02/01 Q1031=
200512101620 METAR ESMX 101620Z AUTO 21007KT 3700 DZ OVC002 01/01 Q1032=
200512101550 METAR ESMX 101550Z AUTO 22009KT 3600 DZ OVC002 01/01 Q1032=
200512101520 METAR ESMX 101520Z AUTO 20008KT 160V220 3800 DZ OVC003 01/01 Q1032=
200512101450 METAR ESMX 101450Z AUTO 22007KT 4800 -DZ OVC004 01/01 Q1033=
200512101420 METAR ESMX 101420Z AUTO 20007KT 170V230 7000 BR OVC004 01/00 Q1033=
200512101350 METAR ESMX 101350Z AUTO 22007KT 9999 FEW006 BKN007 OVC016 01/M00 Q1033=
200512101320 METAR ESMX 101320Z AUTO 20006KT 170V230 9999 FEW008 SCT010 01/M00 Q1034=
200512101250 METAR ESMX 101250Z AUTO 22006KT 9999 NSC 01/M01 Q1034=
200512101220 METAR ESMX 101220Z AUTO 21006KT 9999 FEW010 01/M00 Q1034=
200512101150 METAR ESMX 101150Z AUTO 23005KT 9999 SCT033 01/M00 Q1035=
200512101120 METAR ESMX 101120Z AUTO 23005KT 9999 FEW008 01/M00 Q1035=
200512101050 METAR ESMX 101050Z AUTO 23007KT 210V280 9999 BKN008 01/M00 Q1035=
200512101020 METAR ESMX 101020Z 24006KT 9999 BKN008 01/M01 Q1036=
200512100950 METAR ESMX 100950Z 26007KT 230V290 9999 FEW010 SCT015 01/M00 Q1036=
200512100920 METAR ESMX 100920Z 25007KT 9999 FEW009 BKN027 01/M00 Q1036=
200512100850 METAR ESMX 100850Z 25005KT 210V290 9999 FEW009 BKN025 01/M00 Q1036=
200512100820 METAR ESMX 100820Z 24005KT 9999 BKN024 01/M00 Q1036=
200512100750 METAR ESMX 100750Z 23005KT 200V260 9999 SCT018 BKN026 01/M01 Q1035=
200512100720 METAR ESMX 100720Z 26006KT 230V290 9999 OVC010 01/M01 Q1036=
200512100650 METAR ESMX 100650Z AUTO 26005KT 9999 OVC009 01/M01 Q1035=
200512100620 METAR ESMX 100620Z AUTO 25006KT 9999 OVC009 01/M01 Q1035=
200512100550 METAR ESMX 100550Z AUTO 26008KT 9999 OVC009 00/M01 Q1035=
200512100520 METAR ESMX 100520Z AUTO 26006KT 9999 OVC010 00/M01 Q1035=
200512100450 METAR ESMX 100450Z AUTO 26006KT 9999 OVC010 01/M01 Q1036=
200512100420 METAR ESMX 100420Z AUTO 26006KT 230V330 9999 BKN011 OVC019 01/M01 Q1035=
200512100350 METAR ESMX 100350Z AUTO 24005KT 190V300 9999 SCT010 OVC020 00/M01 Q1035=
200512100320 METAR ESMX 100320Z AUTO 27005KT 240V320 9999 OVC011 00/M01 Q1036=
200512100250 METAR ESMX 100250Z AUTO 25005KT 9999 OVC011 00/M02 Q1036=
200512100220 METAR ESMX 100220Z AUTO 28005KT 230V310 9999 OVC012 00/M02 Q1036=
200512100150 METAR ESMX 100150Z AUTO 23005KT 200V290 9999 OVC012 M00/M02 Q1036=
200512100120 METAR ESMX 100120Z AUTO VRB03KT 9999 OVC014 M00/M03 Q1036=
200512100050 METAR ESMX 100050Z AUTO 26005KT 9999 FEW016 OVC025 M01/M03 Q1036=
200512100020 METAR ESMX 100020Z AUTO 25006KT 200V290 9999 OVC022 M01/M03 Q1036=
200512092350 METAR ESMX 092350Z AUTO 24005KT 210V270 9999 OVC022 M01/M03 Q1036=
200512092320 METAR ESMX 092320Z AUTO 27005KT 230V290 9999 OVC019 M01/M04 Q1037=
200512092250 METAR ESMX 092250Z AUTO 26005KT 9999 OVC019 M01/M04 Q1037=
200512092220 METAR ESMX 092220Z AUTO 26006KT 9999 OVC020 M02/M04 Q1036=
200512092150 METAR ESMX 092150Z AUTO 26005KT 9999 OVC021 M02/M04 Q1036=
200512092120 METAR ESMX 092120Z 26006KT 240V300 9999 BKN021 M02/M04 Q1036=
200512092050 METAR ESMX 092050Z 27006KT 9999 OVC020 M02/M04 Q1036=
200512092020 METAR ESMX 092020Z 25006KT 9999 BKN021 M02/M04 Q1036=
200512091950 METAR ESMX 091950Z 26005KT 240V300 9999 BKN021 M02/M04 Q1036=
200512091920 METAR ESMX 091920Z 25005KT 210V290 9999 BKN021 M02/M04 Q1036=
200512091850 METAR ESMX 091850Z 26005KT 9999 SCT022 M02/M04 Q1036=
200512091820 METAR ESMX 091820Z 25004KT 9999 FEW022 M03/M05 Q1036=
200512091750 METAR ESMX 091750Z 26004KT 9999 FEW030 M03/M05 Q1036=
200512091720 METAR ESMX 091720Z 28004KT 240V320 9999 FEW028 M02/M05 Q1036=
200512091650 METAR ESMX 091650Z 25004KT 9999 BKN026 M01/M05 Q1037=
200512091620 METAR ESMX 091620Z VRB03KT 9999 BKN026 M01/M05 Q1036=
200512091550 METAR ESMX 091550Z VRB02KT 9999 BKN026 M01/M05 Q1036=
200512091520 METAR ESMX 091520Z 33004KT 290V010 9999 OVC027 M01/M05 Q1036=
200512091450 METAR ESMX 091450Z 32005KT 290V010 9999 OVC025 M01/M06 Q1036=
200512091420 METAR ESMX 091420Z 31005KT 280V360 9999 OVC024 M01/M06 Q1036=
200512091350 METAR ESMX 091350Z 33006KT 300V020 9999 BKN024 M01/M06 Q1036=
200512091320 METAR ESMX 091320Z 31006KT 280V340 9999 BKN025 M01/M06 Q1036=
200512091250 METAR ESMX 091250Z 34004KT 280V360 9999 OVC024 M01/M06 Q1036=
200512091220 METAR ESMX 091220Z 29004KT 260V330 9999 OVC023 M01/M05 Q1036=
200512091150 METAR ESMX 091150Z 31005KT 250V330 9999 BKN022 M01/M05 Q1036=
200512091120 METAR ESMX 091120Z 29004KT 9999 OVC023 M01/M05 Q1036=
200512091050 METAR ESMX 091050Z 30004KT 9999 OVC023 M01/M06 Q1035=
200512091020 METAR ESMX 091020Z 01004KT 340V050 9999 OVC024 M02/M06 Q1035=
200512090950 METAR ESMX 090950Z 01004KT 340V070 9999 OVC024 M02/M06 Q1035=
200512090920 METAR ESMX 090920Z 34006KT 320V020 9999 OVC021 M02/M06 Q1035=
200512090850 METAR ESMX 090850Z 33005KT 9999 OVC023 M02/M06 Q1035=
200512090820 METAR ESMX 090820Z 34008KT 300V010 9999 OVC023 M02/M06 Q1035=
200512090750 METAR ESMX 090750Z 36005KT 340V040 9999 OVC023 M02/M07 Q1035=
200512090720 METAR ESMX 090720Z 35008KT 9999 OVC021 M02/M06 Q1034=
200512090650 METAR ESMX 090650Z 34007KT 320V030 9999 OVC021 M02/M06 Q1034=
200512090620 METAR ESMX 090620Z 35005KT 310V020 9999 OVC023 M02/M06 Q1034=
200512090550 METAR ESMX 090550Z VRB03KT 9999 OVC025 M02/M06 Q1033=
200512090520 METAR ESMX 090520Z 03004KT 350V080 9999 OVC026 M02/M07 Q1033=
200512090450 METAR ESMX 090450Z 03008KT 340V050 9999 SCT026 OVC032 M02/M07 Q1033=
200512090420 METAR ESMX 090420Z AUTO 35011KT 9999 OVC032 M02/M06 Q1033=
200512090350 METAR ESMX 090350Z AUTO 35009KT 9999 OVC032 M02/M06 Q1032=
200512090320 METAR ESMX 090320Z AUTO 01010KT 9999 OVC032 M02/M06 Q1032=
200512090250 METAR ESMX 090250Z AUTO 35009KT 9999 OVC032 M02/M06 Q1031=
200512090220 METAR ESMX 090220Z AUTO 35010KT 9999 OVC032 M02/M05 Q1031=
200512090150 METAR ESMX 090150Z AUTO 35010KT 9999 OVC032 M02/M05 Q1031=
200512090120 METAR ESMX 090120Z 35009KT 9999 OVC030 M02/M04 Q1030=
200512090050 METAR ESMX 090050Z 35008KT 9999 OVC030 M01/M04 Q1030=
200512090020 METAR ESMX 090020Z 01009KT 9999 OVC031 M01/M04 Q1030=
200512082350 METAR ESMX 082350Z 36008KT 9999 OVC032 M01/M03 Q1029=
200512082320 METAR ESMX 082320Z 02009KT 9999 OVC031 M01/M04 Q1029=
200512082250 METAR ESMX 082250Z 02009KT 9999 OVC035 M01/M03 Q1029=
200512082220 METAR ESMX 082220Z 01008KT 340V040 9999 OVC035 M01/M03 Q1028=
200512082150 METAR ESMX 082150Z 01009KT 9999 FEW016 SCT040 M01/M03 Q1028=
200512082120 METAR ESMX 082120Z 02009KT 9999 FEW015 SCT019 BKN047 M01/M03 Q1027=
200512082050 METAR ESMX 082050Z 02009KT 9999 FEW014 SCT018 BKN021 M01/M03 Q1027=
200512082020 METAR ESMX 082020Z 01009KT 9999 SCT016 OVC020 M00/M03 Q1027=
200512081950 METAR ESMX 081950Z 02009KT 9999 OVC016 M00/M02 Q1026=
200512081920 METAR ESMX 081920Z 01009KT 9999 OVC016 M00/M02 Q1026=
200512081850 METAR ESMX 081850Z 03010KT 360V070 9999 FEW013 OVC016 00/M02 Q1025=
200512081820 METAR ESMX 081820Z 02009KT 9999 OVC014 00/M02 Q1025=
200512081750 METAR ESMX 081750Z 01009KT 9999 OVC013 00/M02 Q1024=
200512081720 METAR ESMX 081720Z 02010KT 9999 OVC014 00/M02 Q1024=
200512081650 METAR ESMX 081650Z 02010KT 350V050 9999 OVC014 00/M02 Q1024=
200512081620 METAR ESMX 081620Z 02011KT 9999 OVC015 00/M01 Q1023=
200512081550 METAR ESMX 081550Z 02011KT 9999 OVC013 01/M01 Q1023 REDZ=
200512081520 METAR ESMX 081520Z 01011KT 9999 -DZ OVC012 01/M01 Q1022=
200512081450 METAR ESMX 081450Z 01011KT 9999 -DZ OVC011 01/M01 Q1022=
200512081420 METAR ESMX 081420Z 01010KT 9999 -SHRA OVC011 01/M01 Q1021=
200512081350 METAR ESMX 081350Z 01009KT 9999 -SHRA FEW010 OVC012 01/M00 Q1021=
200512081320 METAR ESMX 081320Z 02009KT 9999 -DZ FEW010 OVC013 01/M00 Q1020=
200512081250 METAR ESMX 081250Z 01007KT 8000 -RA FEW010 SCT013 BKN016 01/00 Q1020=
200512081220 METAR ESMX 081220Z 01009KT 5000 -RA FEW006 SCT009 BKN016 01/00 Q1020=
200512081150 METAR ESMX 081150Z 01012KT 9999 DZ FEW007 SCT010 BKN025 01/M00 Q1019=
200512081120 METAR ESMX 081120Z 02012KT 350V050 9999 -DZ FEW009 SCT013 BKN016 01/00 Q1019=
200512081050 METAR ESMX 081050Z 01011KT 9000 -SHRA FEW009 BKN013 OVC018 01/00 Q1019=
200512081020 METAR ESMX 081020Z 02009KT 9999 BKN010 01/00 Q1018=
200512080950 METAR ESMX 080950Z 03011KT 9999 -SG SCT010 BKN014 01/00 Q1018=
200512080920 METAR ESMX 080920Z 03012KT 9999 BKN012 01/00 Q1018=
200512080850 METAR ESMX 080850Z 03010KT 9999 BKN011 02/01 Q1018=
200512080820 METAR ESMX 080820Z 03010KT 9999 FEW010 SCT012 BKN015 02/01 Q1017=
200512080750 METAR ESMX 080750Z 03010KT 9999 BKN010 OVC016 02/01 Q1017=
200512080720 METAR ESMX 080720Z 02009KT 340V050 9999 FEW009 SCT012 BKN016 02/01 Q1016=
200512080650 METAR ESMX 080650Z 02007KT 9999 SCT010 BKN014 BKN017 02/01 Q1016=
200512080620 METAR ESMX 080620Z 04007KT 360V070 9999 FEW015 BKN020 BKN100 02/01 Q1015=
200512080550 METAR ESMX 080550Z 02006KT 9999 BKN035 02/02 Q1015=
200512080520 METAR ESMX 080520Z 02006KT 9999 -SHRA FEW008 SCT020 BKN038 02/02 Q1015=
200512080450 METAR ESMX 080450Z 02004KT 9999 -RA FEW010 SCT014 BKN026 02/02 Q1014=
200512080420 METAR ESMX 080420Z AUTO 02006KT 9999 -RA FEW014 SCT022 BKN062 02/02 Q1014=
200512080350 METAR ESMX 080350Z AUTO 03006KT 9999 FEW009 BKN011 BKN059 02/02 Q1014 REDZ=
200512080320 METAR ESMX 080320Z AUTO 01006KT 9999 -SHRA SCT010 BKN016 02/02 Q1014=
200512080250 METAR ESMX 080250Z AUTO 01005KT 9999 FEW013 SCT016 BKN019 02/02 Q1013=
200512080220 METAR ESMX 080220Z AUTO 02005KT 9999 FEW011 OVC014 02/02 Q1013=
200512080150 METAR ESMX 080150Z AUTO 02005KT 9999 FEW012 OVC014 02/02 Q1013=
200512080120 METAR ESMX 080120Z 03005KT 9999 BKN014 OVC020 02/02 Q1013=
200512080050 METAR ESMX 080050Z 03006KT 9999 FEW006 BKN016 02/02 Q1013=
200512080020 METAR ESMX 080020Z 03006KT 360V060 9999 FEW003 SCT005 BKN006 02/02 Q1012=
200512072350 METAR ESMX 072350Z 03007KT 9999 OVC004 02/02 Q1012=
200512072320 METAR ESMX 072320Z 02007KT 9999 OVC003 02/02 Q1012 RERA=
200512072250 METAR ESMX 072250Z 01006KT 5000 -RASN OVC002 01/01 Q1012=
200512072220 METAR ESMX 072220Z 36006KT 4400 -RASN OVC002 01/01 Q1012=
200512072150 METAR ESMX 072150Z 35007KT 6000 -RA FEW003 BKN005 OVC007 01/01 Q1011=
200512072120 METAR ESMX 072120Z 35007KT 5000 SNRA FEW003 BKN004 OVC008 01/01 Q1011=
200512072050 METAR ESMX 072050Z 35006KT 4300 -SN BKN004 BKN009 01/01 Q1011=
200512072020 METAR ESMX 072020Z 35006KT 7000 -RASN BKN004 OVC007 01/01 Q1011=
200512071950 METAR ESMX 071950Z 01008KT 8000 -RASN FEW005 BKN006 OVC010 02/01 Q1011=
200512071920 METAR ESMX 071920Z 35008KT 8000 -RA FEW005 SCT007 BKN009 02/01 Q1011=
200512071850 METAR ESMX 071850Z 35007KT 9999 -RA FEW005 SCT009 BKN012 02/01 Q1011=
200512071820 METAR ESMX 071820Z 35008KT 9999 -RA FEW005 BKN007 OVC009 02/01 Q1011=
200512071750 METAR ESMX 071750Z 35008KT 9999 -RA FEW004 SCT006 BKN012 02/01 Q1010=
200512071720 METAR ESMX 071720Z 35008KT 8000 -DZ FEW005 BKN006 OVC012 02/02 Q1010=
200512071650 METAR ESMX 071650Z 35007KT 8000 -DZ FEW006 SCT009 BKN013 02/02 Q1010=
200512071620 METAR ESMX 071620Z 35007KT 9000 -DZ SCT005 BKN014 BKN023 02/02 Q1010=
200512071550 METAR ESMX 071550Z 35007KT 6000 -DZ FEW008 SCT016 BKN018 02/02 Q1010=
200512071520 METAR ESMX 071520Z 01005KT 9000 DZ SCT010 BKN013 OVC016 02/02 Q1010=
200512071450 METAR ESMX 071450Z 01006KT 9999 BKN010 02/02 Q1010=
200512071420 METAR ESMX 071420Z 03006KT 9999 SCT008 BKN020 03/02 Q1010=
200512071350 METAR ESMX 071350Z 03008KT 350V060 9999 SCT008 BKN010 03/02 Q1010=
200512071320 METAR ESMX 071320Z 03007KT 9999 SCT006 BKN009 03/02 Q1010=
200512071250 METAR ESMX 071250Z 03007KT 9999 FEW006 SCT008 BKN010 03/03 Q1010=
200512071220 METAR ESMX 071220Z 01007KT 9999 FEW006 SCT008 BKN010 03/03 Q1010=
200512071150 METAR ESMX 071150Z 04006KT 010V080 9999 FEW005 OVC006 03/03 Q1010=
200512071120 METAR ESMX 071120Z 03005KT 7000 FEW004 OVC005 03/03 Q1010 REDZ=
200512071050 METAR ESMX 071050Z 04005KT 020V080 5000 FEW004 SCT006 BKN008 03/03 Q1010 REDZ=
200512071020 METAR ESMX 071020Z 02005KT 3600 -SHRA BKN002 OVC006 03/03 Q1010=
200512070950 METAR ESMX 070950Z 02004KT 6000 -SHRA SCT002 BKN004 03/03 Q1010=
200512070920 METAR ESMX 070920Z 03004KT 1900 OVC002 03/03 Q1010=
200512070850 METAR ESMX 070850Z 36004KT 1700 BR OVC002 03/03 Q1010=
200512070820 METAR ESMX 070820Z 36005KT 1200 R01/P1500N R19/P1500D BR OVC002 03/03 Q1009=
200512070750 METAR ESMX 070750Z 02004KT 1200 R01/P1500N R19/P1500N BR OVC002 02/02 Q1009=
200512070720 METAR ESMX 070720Z 01004KT 1200 R01/P1500N R19/P1500N BR OVC002 02/02 Q1009=
200512070650 METAR ESMX 070650Z VRB03KT 3200 BR SCT002 OVC005 02/02 Q1009=
200512070620 METAR ESMX 070620Z VRB03KT 4200 OVC002 02/02 Q1009=
200512070550 METAR ESMX 070550Z 01004KT 4000 BR OVC002 02/02 Q1009=
200512070520 METAR ESMX 070520Z VRB03KT 0900 R01/P1500N R19/P1500N FG VV002 02/02 Q1008=
200512070450 METAR ESMX 070450Z 01004KT 0900 R01/P1500D R19/P1500N FG VV002 02/02 Q1008=
200512070420 METAR ESMX 070420Z AUTO 35004KT 1700 VV001 02/02 Q1008=
200512070350 METAR ESMX 070350Z AUTO VRB02KT 1300 R01/P1500N R19/P1500N BKN001 OVC003 02/02 Q1008=
200512070320 METAR ESMX 070320Z AUTO VRB03KT 0350 R01/1200N R19/P1500N FG OVC001 02/02 Q1008=
200512070250 METAR ESMX 070250Z AUTO VRB03KT 0500 R01/P1500D R19/P1500D FG OVC001 02/02 Q1008=
200512070220 METAR ESMX 070220Z AUTO VRB02KT 2100 BR VV001 02/02 Q1008=
200512070150 METAR ESMX 070150Z AUTO VRB01KT 5000 BR VV002 02/02 Q1008=
200512070120 METAR ESMX 070120Z VRB02KT 5000 BR OVC005 02/02 Q1008=
200512070050 METAR ESMX 070050Z VRB02KT 4500 BR FEW004 BKN006 02/02 Q1008=
200512070020 METAR ESMX 070020Z VRB02KT 3900 BR OVC005 02/02 Q1008=
200512062350 METAR ESMX 062350Z VRB03KT 3500 BR OVC001 02/02 Q1008=
200512062320 METAR ESMX 062320Z VRB01KT 5000 BR OVC002 02/02 Q1008=
200512062250 METAR ESMX 062250Z VRB01KT 5000 BR OVC002 02/02 Q1008=
200512062220 METAR ESMX 062220Z VRB01KT 7000 BR OVC002 01/01 Q1008=
200512062150 METAR ESMX 062150Z 00000KT 3000 BR OVC002 01/01 Q1008=
200512062120 METAR ESMX 062120Z 00000KT 2000 BR OVC001 01/01 Q1008=
200512062050 METAR ESMX 062050Z 00000KT 4000 BR OVC002 01/01 Q1007 REDZ=
200512062020 METAR ESMX 062020Z VRB01KT 5000 -DZ OVC002 02/01 Q1007=
200512061950 METAR ESMX 061950Z VRB02KT 6000 DZ OVC002 01/01 Q1007=
200512061920 METAR ESMX 061920Z VRB02KT 1600 DZ SCT001 BKN003 OVC007 01/01 Q1007=
200512061850 METAR ESMX 061850Z VRB01KT 2000 DZ OVC002 01/01 Q1007=
200512061820 METAR ESMX 061820Z VRB02KT 0900 R01/P1500N R19/P1500N DZ OVC002 01/01 Q1007=
200512061750 METAR ESMX 061750Z VRB02KT 0800 R01/P1500N R19/P1500N -RA BKN002 01/01 Q1006=
200512061720 METAR ESMX 061720Z VRB01KT 2000 -RA BKN002 01/01 Q1006=
200512061650 METAR ESMX 061650Z VRB03KT 7000 -RA BKN002 01/01 Q1006=
200512061620 METAR ESMX 061620Z 03004KT 010V080 9999 -RA SCT003 BKN004 01/01 Q1006=
200512061550 METAR ESMX 061550Z VRB03KT 9999 -RA FEW003 BKN005 01/01 Q1006=
200512061520 METAR ESMX 061520Z VRB03KT 8000 -RA FEW003 OVC004 01/01 Q1006=
200512061450 METAR ESMX 061450Z 02003KT 9999 -RASN BKN003 BKN010 01/01 Q1005=
200512061420 METAR ESMX 061420Z 02004KT 9999 -RA BKN003 01/00 Q1005=
200512061350 METAR ESMX 061350Z 01004KT 6000 -SN FEW002 BKN005 BKN008 00/00 Q1005=
200512061320 METAR ESMX 061320Z 01003KT 2200 -SN SCT002 BKN006 00/00 Q1005=
200512061250 METAR ESMX 061250Z 02004KT 2200 -SN SCT002 BKN004 00/00 Q1005=
200512061220 METAR ESMX 061220Z 01003KT 1600 -SN FEW001 SCT003 BKN005 00/00 Q1005=
200512061150 METAR ESMX 061150Z 03004KT 3600 SNRA FEW003 SCT004 OVC005 01/01 Q1005=
200512061120 METAR ESMX 061120Z 03004KT 7000 -SNRA BKN002 BKN005 01/01 Q1005=
200512061050 METAR ESMX 061050Z 03004KT 5000 RA SCT003 BKN005 BKN007 01/01 Q1005=
200512061020 METAR ESMX 061020Z 04004KT 7000 -RA FEW003 BKN005 02/01 Q1005=
200512060950 METAR ESMX 060950Z 04004KT 020V080 8000 -RA OVC005 02/01 Q1005=
200512060920 METAR ESMX 060920Z 03004KT 350V070 9000 -RA SCT005 BKN008 02/01 Q1005=
200512060850 METAR ESMX 060850Z 06004KT 020V100 6000 -RA FEW005 SCT006 BKN008 02/02 Q1005=
200512060820 METAR ESMX 060820Z 05004KT 010V070 9999 -RA FEW006 SCT007 BKN009 02/02 Q1005=
200512060750 METAR ESMX 060750Z 06004KT 020V090 9000 DZ FEW005 SCT007 BKN009 02/02 Q1004=
200512060720 METAR ESMX 060720Z 06005KT 9999 -RA FEW005 BKN006 02/02 Q1004=
200512060650 METAR ESMX 060650Z 06005KT 030V110 9000 -RA BKN006 03/02 Q1004=
200512060620 METAR ESMX 060620Z 05004KT 020V100 8000 -RA FEW004 BKN006 03/02 Q1004=
200512060550 METAR ESMX 060550Z VRB03KT 8000 -RA OVC005 03/02 Q1004=
200512060520 METAR ESMX 060520Z VRB03KT 9000 -RA OVC005 02/02 Q1004=
200512060450 METAR ESMX 060450Z VRB03KT 9000 -RA FEW005 BKN007 03/02 Q1004=
200512060420 METAR ESMX 060420Z VRB03KT 9999 -RA FEW005 BKN007 02/02 Q1004=
200512060350 METAR ESMX 060350Z AUTO VRB02KT 9999 -RA OVC005 02/02 Q1003=
200512060320 METAR ESMX 060320Z AUTO VRB03KT 9999 -RA OVC006 02/02 Q1004=
200512060250 METAR ESMX 060250Z AUTO 08004KT 030V110 9000 -RA FEW005 OVC007 02/02 Q1004=
200512060220 METAR ESMX 060220Z AUTO 08004KT 040V110 9999 DZ FEW005 OVC007 03/02 Q1003=
200512060150 METAR ESMX 060150Z VRB03KT 9000 -RA FEW005 BKN006 OVC008 03/02 Q1003=
200512060120 METAR ESMX 060120Z VRB03KT 9999 -RA OVC006 03/02 Q1003=
200512060020 METAR ESMX 060020Z 09004KT 9999 -RA BKN005 OVC008 03/02 Q1003=
200512052350 METAR ESMX 052350Z 09004KT 8000 -DZ OVC004 03/02 Q1003=
200512052320 METAR ESMX 052320Z 10005KT 9999 -RA OVC005 03/02 Q1003=
200512052250 METAR ESMX 052250Z 11006KT 9999 -RA FEW005 BKN006 OVC009 03/03 Q1003=
200512052220 METAR ESMX 052220Z 11004KT 9999 OVC005 03/03 Q1003=
200512052150 METAR ESMX 052150Z 10004KT 050V180 9999 OVC005 03/03 Q1003=
200512052120 METAR ESMX 052120Z 11005KT 050V160 9999 OVC005 03/03 Q1003=
200512052050 METAR ESMX 052050Z 11005KT 060V160 9999 SCT003 BKN005 03/03 Q1003=
200512051950 METAR ESMX 051950Z 09004KT 060V140 9999 OVC005 03/03 Q1003=
200512051920 METAR ESMX 051920Z 11006KT 060V160 9999 OVC005 03/03 Q1003=
200512051850 METAR ESMX 051850Z 10005KT 030V170 9999 OVC004 03/03 Q1002=
200512051820 METAR ESMX 051820Z 10006KT 060V160 9000 BR OVC005 03/03 Q1002=
200512051750 METAR ESMX 051750Z 10006KT 050V150 9000 BR OVC005 03/03 Q1002=
200512051720 METAR ESMX 051720Z 10006KT 040V160 7000 OVC005 03/03 Q1002 REDZ=
200512051650 METAR ESMX 051650Z 08006KT 050V130 7000 -SHRA OVC005 03/03 Q1002=
200512051620 METAR ESMX 051620Z 09007KT 040V140 7000 BR OVC005 03/03 Q1002 RERA=
200512051550 METAR ESMX 051550Z 09007KT 050V140 6000 -RA OVC004 03/03 Q1002=
200512051520 METAR ESMX 051520Z 08006KT 040V120 8000 -RA OVC005 03/03 Q1002=
200512051450 METAR ESMX 051450Z 08006KT 030V110 9999 -SHRA OVC006 03/02 Q1002=
200512051420 METAR ESMX 051420Z 08007KT 030V120 9999 -SHRA OVC006 03/02 Q1002=
200512051350 METAR ESMX 051350Z 08006KT 9999 -RA FEW005 BKN007 03/03 Q1002=
200512051250 METAR ESMX 051250Z 09006KT 050V120 6000 -RA OVC004 03/03 Q1002=
200512051220 METAR ESMX 051220Z 08006KT 040V140 8000 -RA OVC005 03/03 Q1002=
200512051150 METAR ESMX 051150Z 08005KT 040V140 9000 OVC005 03/03 Q1002 RERA=
200512051120 METAR ESMX 051120Z 08007KT 040V150 5000 FEW002 BKN004 03/03 Q1002 RERA=
200512051050 METAR ESMX 051050Z 09007KT 050V120 1500 -RA OVC002 03/03 Q1002=
200512051020 METAR ESMX 051020Z 09006KT 040V140 0750 R01/1400N R19/P1500U DZ VV002 03/03 Q1002=
200512050950 METAR ESMX 050950Z VRB06G16KT 0650 R01/1300N R19/1400N FG VV002 03/03 Q1002=
200512050920 METAR ESMX 050920Z 09007KT 050V150 0800 R01/P1500D R19/P1500N FG DZ VV002 03/03 Q1002=
200512050850 METAR ESMX 050850Z 10006KT 040V150 0750 R01/P1500N R19/P1500N FG VV002 03/03 Q1002=
200512050750 METAR ESMX 050750Z 10006KT 050V150 3000 BR OVC003 03/03 Q1002=
200512050720 METAR ESMX 050720Z 09006KT 040V130 3500 BR OVC004 03/03 Q1001=
200512050650 METAR ESMX 050650Z 10005KT 030V140 3800 BR OVC004 03/03 Q1001=
200512050620 METAR ESMX 050620Z 10005KT 030V130 3000 BR OVC003 03/03 Q1001=
200512050550 METAR ESMX 050550Z 07004KT 020V140 3500 BR BKN002 03/03 Q1001=
200512050520 METAR ESMX 050520Z 09006KT 050V120 1600 -DZ BR BKN002 03/02 Q1001=
200512050450 METAR ESMX 050450Z 09006KT 050V130 2000 -DZ BR BKN002 03/02 Q1001=
200512050420 METAR ESMX 050420Z AUTO 09005KT 040V140 2800 BR OVC002 02/02 Q1001=
200512050350 METAR ESMX 050350Z AUTO 08005KT 050V140 3600 OVC003 02/02 Q1001 REDZ=
200512050320 METAR ESMX 050320Z AUTO 08005KT 020V130 3800 -SHRA SCT001 OVC005 02/02 Q1001=
200512050250 METAR ESMX 050250Z AUTO 09004KT 030V150 1700 VV001 02/02 Q1002=
200512050220 METAR ESMX 050220Z AUTO 11004KT 070V160 0550 R01/P1500N R19/P1500D FG VV001 02/02 Q1002=
200512050150 METAR ESMX 050150Z AUTO 10004KT 060V150 0650 R01/P1500U R19/P1500N FG VV001 02/02 Q1002=
200512050120 METAR ESMX 050120Z VRB03KT 1400 -DZ BR BKN002 02/02 Q1001=
200512050050 METAR ESMX 050050Z 09004KT 040V140 0900 R01/P1500N R19/P1500N FG OVC002 02/02 Q1001=
200512050020 METAR ESMX 050020Z 08004KT 350V140 0600 R01/P1500N R19/P1500N FG VV002 02/02 Q1001=
200512042350 METAR ESMX 042350Z 09004KT 050V150 0600 R01/1400N R19/P1500N FG VV002 02/02 Q1002=
200512042320 METAR ESMX 042320Z VRB03KT 0500 R01/1200N R19/P1500N FG VV002 02/02 Q1002=
200512042250 METAR ESMX 042250Z 08004KT 030V120 0450 R01/1300N R19/1300N FG VV002 02/02 Q1002=
200512042220 METAR ESMX 042220Z 08004KT 040V150 0400 R01/1200N R19/1200D FG VV002 02/02 Q1002=
200512042150 METAR ESMX 042150Z 08004KT 040V150 0350 R01/1100N R19/1200N FG VV002 02/02 Q1002=
200512042120 METAR ESMX 042120Z 08004KT 030V120 0400 R01/1200N R19/1200N FG VV002 02/02 Q1002=
200512042050 METAR ESMX 042050Z VRB03KT 0300 R01/1000N R19/1000N FG VV002 02/01 Q1002=
200512042020 METAR ESMX 042020Z VRB03KT 0350 R01/1100N R19/1100N FG VV002 02/01 Q1002=
200512041950 METAR ESMX 041950Z 08004KT 0300 R01/1100N R19/1100N FG VV002 01/01 Q1002=
200512041920 METAR ESMX 041920Z 08004KT 040V120 0300 R01/1000N R19/1100N FG VV002 01/01 Q1002=
200512041850 METAR ESMX 041850Z 09004KT 030V140 0350 R01/1100N R19/1100N FG VV002 02/01 Q1002=
200512041820 METAR ESMX 041820Z 09004KT 010V150 0350 R01/1100N R19/1200N FG VV002 01/01 Q1002=
200512041750 METAR ESMX 041750Z 09005KT 050V130 0350 R01/1100N R19/1300N FG VV002 01/01 Q1002=
200512041720 METAR ESMX 041720Z 09005KT 060V140 0350 R01/1100N R19/1200N FG VV001 01/01 Q1002=
200512041650 METAR ESMX 041650Z 09005KT 060V120 0500 R01/P1500N R19/P1500N FG VV002 01/01 Q1002=
200512041620 METAR ESMX 041620Z 09005KT 070V140 0500 R01/P1500N R19/P1500N FG VV002 01/01 Q1002=
200512041550 METAR ESMX 041550Z 11004KT 050V170 0550 R01/P1500N R19/P1500N FG VV002 01/01 Q1002=
200512041520 METAR ESMX 041520Z 10005KT 070V140 0800 R01/P1500N R19/P1500N FG VV002 01/01 Q1002=
200512041450 METAR ESMX 041450Z 10004KT 060V170 0750 R01/P1500N R19/P1500N FG VV002 01/01 Q1002=
200512041420 METAR ESMX 041420Z 11004KT 050V180 1400 R01/P1500N R19/P1500D -SHRA OVC002 01/01 Q1002=
200512041350 METAR ESMX 041350Z 10005KT 050V160 7000 -RA OVC004 01/01 Q1002=
200512041320 METAR ESMX 041320Z AUTO 08004KT 020V130 5000 RA OVC005 01/00 Q1002=
200512041250 METAR ESMX 041250Z AUTO VRB03KT 6000 DZ FEW004 OVC006 01/01 Q1002=
200512041220 METAR ESMX 041220Z AUTO 09004KT 050V140 5000 -RA FEW004 SCT006 BKN007 01/01 Q1002=
200512041150 METAR ESMX 041150Z AUTO VRB03KT 3500 -RA BKN003 OVC006 01/00 Q1002=
200512041120 METAR ESMX 041120Z AUTO VRB03KT 3400 -RA FEW003 OVC005 01/00 Q1003=
200512041050 METAR ESMX 041050Z AUTO VRB03KT 4300 -RA OVC005 01/01 Q1003=
200512041020 METAR ESMX 041020Z AUTO 09004KT 040V120 5000 -RA OVC005 01/01 Q1003=
200512040950 METAR ESMX 040950Z AUTO 09004KT 060V130 5000 BR OVC005 01/01 Q1003=
200512040920 METAR ESMX 040920Z AUTO 10004KT 050V150 5000 BR OVC004 01/01 Q1003=
200512040850 METAR ESMX 040850Z AUTO 10004KT 050V140 4600 BR OVC004 01/01 Q1003=
200512040820 METAR ESMX 040820Z AUTO 10004KT 060V150 3900 BR OVC004 01/01 Q1003=
200512040750 METAR ESMX 040750Z AUTO 10005KT 060V140 2800 BR OVC003 01/00 Q1003=
200512040720 METAR ESMX 040720Z AUTO 11004KT 050V150 2700 BR OVC003 01/00 Q1003=
200512040650 METAR ESMX 040650Z AUTO 11004KT 060V160 2400 BR OVC003 01/00 Q1003=
200512040620 METAR ESMX 040620Z AUTO 11005KT 060V160 2300 BR OVC003 01/00 Q1003=
200512040550 METAR ESMX 040550Z AUTO 11006KT 050V150 2600 BR OVC003 01/00 Q1003=
200512040520 METAR ESMX 040520Z AUTO 11005KT 060V150 3500 BR OVC004 01/00 Q1003=
200512040450 METAR ESMX 040450Z AUTO 10005KT 050V160 3700 BR OVC005 00/M00 Q1003=
200512040420 METAR ESMX 040420Z AUTO 10006KT 060V150 5000 BR BKN005 OVC008 00/M00 Q1003=
200512040350 METAR ESMX 040350Z AUTO 10005KT 050V160 5000 BR FEW007 SCT008 OVC010 00/M00 Q1003=
200512040320 METAR ESMX 040320Z AUTO 10005KT 060V170 4800 SCT005 OVC007 00/M00 Q1003 REDZ=
200512040250 METAR ESMX 040250Z AUTO 10005KT 050V150 3700 FEW004 OVC005 00/M00 Q1004 REDZ=
200512040220 METAR ESMX 040220Z AUTO 10005KT 060V150 2600 RA OVC005 00/M00 Q1004=
200512040150 METAR ESMX 040150Z AUTO 10004KT 050V140 2700 BR FEW005 SCT007 BKN008 00/M00 Q1004=
200512040120 METAR ESMX 040120Z AUTO 10005KT 050V150 2900 BR FEW006 SCT008 OVC010 00/M00 Q1004=
200512040050 METAR ESMX 040050Z AUTO 10007KT 050V140 3300 BR FEW007 BKN008 OVC011 00/M01 Q1004=
200512040020 METAR ESMX 040020Z AUTO 11006KT 060V200 5000 BR OVC006 00/M01 Q1005=
200512032350 METAR ESMX 032350Z AUTO 11006KT 040V170 5000 BR OVC006 00/M01 Q1005=
200512032320 METAR ESMX 032320Z AUTO 14006KT 080V170 6000 BR FEW004 OVC006 00/M01 Q1005=
200512032250 METAR ESMX 032250Z AUTO 13006KT 050V190 6000 BR OVC004 00/M01 Q1005=
200512032220 METAR ESMX 032220Z AUTO 13007KT 060V170 6000 BR OVC005 00/M01 Q1005=
200512032150 METAR ESMX 032150Z AUTO 12007KT 070V160 6000 BR OVC005 00/M01 Q1005=
200512032120 METAR ESMX 032120Z AUTO 13008KT 080V190 6000 BR OVC004 00/M00 Q1005=
200512032050 METAR ESMX 032050Z AUTO VRB07G17KT 6000 BR OVC005 01/M00 Q1005=
200512032020 METAR ESMX 032020Z AUTO 12007KT 070V190 8000 BR OVC006 01/M00 Q1005=
200512031950 METAR ESMX 031950Z AUTO 12006KT 040V190 9000 BR OVC007 01/M00 Q1005=
200512031920 METAR ESMX 031920Z AUTO 13007KT 080V160 8000 BR BKN003 OVC006 00/M00 Q1005=
200512031850 METAR ESMX 031850Z AUTO 11006KT 070V190 4900 BR OVC003 00/M00 Q1005=
200512031820 METAR ESMX 031820Z AUTO 12007KT 080V170 5000 BR OVC003 00/M00 Q1006=
200512031750 METAR ESMX 031750Z AUTO 11008KT 060V170 4800 BR OVC003 00/M00 Q1006=
200512031720 METAR ESMX 031720Z AUTO 13008KT 080V180 5000 BR OVC003 00/M00 Q1006=
200512031650 METAR ESMX 031650Z AUTO 13008G18KT 080V190 4700 BR OVC003 00/M00 Q1006=
200512031620 METAR ESMX 031620Z AUTO 12008KT 070V190 4800 BR BKN002 OVC004 00/M00 Q1006=
200512031550 METAR ESMX 031550Z AUTO 13007KT 050V190 3100 BR OVC002 00/M00 Q1006=
200512031520 METAR ESMX 031520Z AUTO 12007KT 040V180 4600 BR OVC003 00/M00 Q1006=
200512031450 METAR ESMX 031450Z AUTO 12008KT 050V170 4400 BR OVC004 00/M00 Q1006=
200512031420 METAR ESMX 031420Z AUTO 12006KT 050V190 4100 BR OVC003 00/M00 Q1006=
200512031350 METAR ESMX 031350Z AUTO 12009KT 070V170 4000 BR OVC004 00/M00 Q1006=
200512031320 METAR ESMX 031320Z AUTO 12007KT 030V180 3500 BR OVC003 01/00 Q1006=
200512031250 METAR ESMX 031250Z AUTO VRB06KT 3900 BR OVC003 01/M00 Q1007=
200512031220 METAR ESMX 031220Z AUTO 12008KT 070V160 6000 BR OVC003 01/M00 Q1007=
200512031150 METAR ESMX 031150Z AUTO 13009KT 070V190 6000 BR OVC004 01/M00 Q1007=
200512031120 METAR ESMX 031120Z AUTO 13008G18KT 080V170 8000 BR OVC005 01/M00 Q1007=
200512031050 METAR ESMX 031050Z AUTO 14010KT 070V170 9999 OVC006 01/M00 Q1007=
200512031020 METAR ESMX 031020Z 14008KT 070V200 9000 OVC006 01/M00 Q1008=
200512030950 METAR ESMX 030950Z 13007KT 090V190 9999 OVC008 01/M01 Q1007=
200512030920 METAR ESMX 030920Z 12007KT 070V190 9999 OVC007 01/M01 Q1007=
200512030850 METAR ESMX 030850Z 13006KT 080V170 9999 BR OVC006 01/M01 Q1007=
200512030820 METAR ESMX 030820Z 11008KT 040V150 8000 BR OVC005 01/M00 Q1007=
200512030750 METAR ESMX 030750Z 12008KT 050V160 9000 BR OVC005 01/M00 Q1008=
200512030720 METAR ESMX 030720Z AUTO 12007KT 070V170 9999 BR OVC006 01/M00 Q1007=
200512030650 METAR ESMX 030650Z AUTO 11008KT 060V160 6000 BR OVC005 00/M00 Q1007=
200512030620 METAR ESMX 030620Z AUTO 12006KT 030V160 4300 BR OVC004 00/M00 Q1008=
200512030550 METAR ESMX 030550Z AUTO 12008KT 080V170 4900 BR OVC005 00/M00 Q1008=
200512030520 METAR ESMX 030520Z AUTO 12006KT 080V170 4800 BR OVC004 00/M00 Q1008=
200512030450 METAR ESMX 030450Z AUTO 13005KT 080V170 4800 BR OVC004 00/M00 Q1008=
200512030420 METAR ESMX 030420Z AUTO 12005KT 060V160 4000 BR OVC004 00/M00 Q1008=
200512030350 METAR ESMX 030350Z AUTO 13006KT 080V170 4800 BR OVC005 00/M00 Q1008=
200512030320 METAR ESMX 030320Z AUTO 12005KT 050V160 5000 BR OVC005 00/M01 Q1009=
200512030250 METAR ESMX 030250Z AUTO 12005KT 060V170 5000 BR OVC005 00/M01 Q1009=
200512030220 METAR ESMX 030220Z AUTO 11006KT 060V170 5000 BR OVC006 00/M01 Q1009=
200512030150 METAR ESMX 030150Z AUTO 13005KT 080V170 7000 BR OVC007 00/M01 Q1009=
200512030120 METAR ESMX 030120Z AUTO 13006KT 080V170 8000 BR OVC007 00/M01 Q1009=
200512030050 METAR ESMX 030050Z AUTO 12006KT 060V170 8000 BR OVC008 00/M01 Q1009=
200512030020 METAR ESMX 030020Z AUTO 13006KT 070V180 9000 OVC009 00/M02 Q1009=
200512022350 METAR ESMX 022350Z AUTO 14007KT 100V200 9999 OVC011 00/M02 Q1010=
200512022320 METAR ESMX 022320Z AUTO 14007KT 100V170 9999 OVC013 M00/M02 Q1010=
200512022250 METAR ESMX 022250Z AUTO 13006KT 050V170 9999 OVC012 M00/M02 Q1010=
200512022220 METAR ESMX 022220Z AUTO 13006KT 070V180 9999 OVC012 M00/M02 Q1010=
200512022150 METAR ESMX 022150Z AUTO 14007KT 100V200 9999 BR OVC013 00/M02 Q1010=
200512022120 METAR ESMX 022120Z 13005KT 090V170 9000 BR OVC013 00/M02 Q1010=
200512022050 METAR ESMX 022050Z 13007KT 070V170 9000 BR BKN015 00/M02 Q1010=
200512022020 METAR ESMX 022020Z 14007KT 070V190 9000 BR BKN015 00/M02 Q1010=
200512021950 METAR ESMX 021950Z 13007KT 060V200 8000 BR BKN015 00/M02 Q1010=
200512021920 METAR ESMX 021920Z 14006KT 110V170 9000 BR BKN015 00/M02 Q1010=
200512021850 METAR ESMX 021850Z 14008KT 110V180 9999 BKN013 00/M02 Q1010=
200512021820 METAR ESMX 021820Z 13005KT 080V170 9999 BKN012 00/M02 Q1010=
200512021750 METAR ESMX 021750Z 14007KT 090V190 9999 BKN012 00/M02 Q1010=
200512021720 METAR ESMX 021720Z 14006KT 080V170 9999 BKN012 00/M01 Q1010=
200512021650 METAR ESMX 021650Z 13006KT 070V170 9999 BKN012 01/M01 Q1010=
200512021620 METAR ESMX 021620Z 13006KT 070V170 9999 OVC011 01/M01 Q1010=
200512021550 METAR ESMX 021550Z 14007G17KT 070V210 9999 BKN012 01/M01 Q1011=
200512021520 METAR ESMX 021520Z 13007KT 090V190 9999 OVC011 01/M01 Q1011=
200512021450 METAR ESMX 021450Z 13006KT 060V170 9999 OVC012 01/M01 Q1011=
200512021350 METAR ESMX 021350Z 16008KT 080V200 9999 SCT011 BKN015 01/M01 Q1011=
200512021320 METAR ESMX 021320Z 15008KT 100V180 9999 SCT012 BKN016 OVC018 01/M01 Q1011=
200512021250 METAR ESMX 021250Z 13005KT 070V180 9999 FEW014 OVC019 01/M01 Q1011=
200512021220 METAR ESMX 021220Z 13006KT 080V190 9999 OVC019 01/M00 Q1011=
200512021150 METAR ESMX 021150Z 14005KT 090V170 8000 BR FEW009 SCT011 BKN013 01/M00 Q1011=
200512021120 METAR ESMX 021120Z 13005KT 090V190 8000 BR FEW008 BKN010 OVC016 01/M00 Q1011=
200512021050 METAR ESMX 021050Z 15006KT 120V190 8000 BR FEW009 BKN015 01/M00 Q1012=
200512021020 METAR ESMX 021020Z 15006KT 110V190 7000 BR FEW009 SCT013 01/M00 Q1012=
200512020950 METAR ESMX 020950Z 14006KT 110V170 6000 BR FEW007 BKN013 01/M00 Q1012=
200512020920 METAR ESMX 020920Z 14005KT 6000 BR SCT014 00/M01 Q1012=
200512020850 METAR ESMX 020850Z 13004KT 080V170 7000 BR NSC M00/M01 Q1012=
200512020820 METAR ESMX 020820Z 14004KT 090V170 9000 BR FEW020 M00/M01 Q1012=
200512020750 METAR ESMX 020750Z 14005KT 090V170 9000 BR FEW015 M00/M01 Q1012=
200512020720 METAR ESMX 020720Z 14005KT 9999 BR FEW024 M01/M02 Q1012=
200512020650 METAR ESMX 020650Z 13006KT 100V160 9000 BR OVC024 M01/M01 Q1012=
200512020620 METAR ESMX 020620Z 14004KT 110V170 7000 BR FEW026 M02/M02 Q1012=
200512020550 METAR ESMX 020550Z 13004KT 6000 BR NSC M02/M02 Q1011=
200512020520 METAR ESMX 020520Z 13004KT 9000 BR NSC M03/M03 Q1011=
200512020450 METAR ESMX 020450Z VRB03KT 6000 BR NSC M02/M02 Q1012=
200512020420 METAR ESMX 020420Z 12004KT 5000 BR NSC M02/M02 Q1012=
200512020350 METAR ESMX 020350Z AUTO VRB03KT 5000 FEW023 M02/M02 Q1012=
200512020320 METAR ESMX 020320Z AUTO VRB03KT 4600 FEW024 M02/M02 Q1012=
200512020250 METAR ESMX 020250Z AUTO VRB02KT 3800 BR NSC M02/M03 Q1012=
200512020220 METAR ESMX 020220Z AUTO VRB03KT 8000 BR FEW025 M01/M02 Q1012=
200512020150 METAR ESMX 020150Z AUTO 15004KT 5000 BR BKN025 M00/M01 Q1012=
200512020120 METAR ESMX 020120Z 16005KT 6500 BR FEW026 M00/M01 Q1012=
200512020050 METAR ESMX 020050Z 17004KT 4700 BR NSC M00/M01 Q1012=
200512020020 METAR ESMX 020020Z 17006KT 4100 BR SCT016 00/M00 Q1012=
200512012350 METAR ESMX 012350Z 17006KT 3500 BR FEW004 BKN017 00/M00 Q1012=
200512012320 METAR ESMX 012320Z 18005KT 3300 BR FEW004 OVC005 01/00 Q1012=
200512012250 METAR ESMX 012250Z 17004KT 4000 BR BKN005 OVC008 01/00 Q1012=
200512012220 METAR ESMX 012220Z 19006KT 4500 BR BKN005 OVC009 01/00 Q1012=
200512012150 METAR ESMX 012150Z 19008KT 4900 BR OVC005 01/00 Q1012=
200512012120 METAR ESMX 012120Z 19008KT 4200 BR BKN005 01/00 Q1012=
200512012050 METAR ESMX 012050Z 20008KT 4500 BR BKN005 01/00 Q1012=
200512012020 METAR ESMX 012020Z 19009KT 5000 BR BKN005 01/00 Q1012=
200512011950 METAR ESMX 011950Z 19009KT 4600 BR BKN004 01/00 Q1011=
200512011920 METAR ESMX 011920Z 19009KT 4500 BR BKN005 01/00 Q1011=
200512011850 METAR ESMX 011850Z 19009KT 4500 BR BKN005 01/00 Q1011=
200512011820 METAR ESMX 011820Z 20008KT 4000 BR BKN005 01/00 Q1011=
200512011750 METAR ESMX 011750Z 20007KT 4100 BR BKN005 01/00 Q1011=
200512011720 METAR ESMX 011720Z 19010KT 4500 BR BKN005 01/00 Q1011=
200512011650 METAR ESMX 011650Z 18010KT 4800 BR BKN004 01/00 Q1010=
200512011620 METAR ESMX 011620Z 18011KT 5000 BR BKN004 01/00 Q1010=
200512011550 METAR ESMX 011550Z 18012KT 4500 BR BKN004 01/00 Q1010=
200512011520 METAR ESMX 011520Z 19012KT 5000 BR BKN004 01/00 Q1010=
200512011450 METAR ESMX 011450Z 19012KT 6000 BR OVC005 01/00 Q1010=
200512011420 METAR ESMX 011420Z 19011KT 6000 BR FEW005 OVC006 01/00 Q1010=
200512011350 METAR ESMX 011350Z 19011KT 5000 BR OVC004 01/01 Q1010=
200512011320 METAR ESMX 011320Z 18010KT 6000 BR OVC004 01/01 Q1010=
200512011250 METAR ESMX 011250Z 18008KT 9999 FEW008 SCT009 OVC010 01/01 Q1010=
200512011220 METAR ESMX 011220Z 17007KT 9999 FEW011 BKN072 01/00 Q1010=
Fallo de consulta: el error es SELECT command denied to user 'users'@'localhost' for table 'tafs_2005'
