##########################################################
# Query made at 04/19/2024 20:45:13 UTC
# Time interval: from 02/01/2005 12:00  to 02/28/2005 12:59  UTC
##########################################################

##########################################################
# ESMX, Vaxjo (Sweden)
# WMO index: 02641. WIGOS ID: 0-20000-0-02648
# Latitude 56-51N. Longitude 014-50E. Altitude 199 m.
##########################################################

200502281250 METAR ESMX 281250Z 17005KT 3100 -SN FEW009 SCT027 M04/M06 Q1011=
200502281220 METAR ESMX 281220Z 18006KT 2000 -SN FEW006 SCT014 M05/M06 Q1011=
200502281150 METAR ESMX 281150Z 18006KT 3900 -SN FEW013 SCT019 M05/M07 Q1012=
200502281120 METAR ESMX 281120Z 18006KT 6000 -SN FEW015 BKN030 M05/M07 Q1012=
200502281050 METAR ESMX 281050Z 18006KT 3200 -SN FEW008 BKN023 M05/M08 Q1013=
200502281020 METAR ESMX 281020Z 19006KT 160V240 3000 -SN FEW017 BKN023 M06/M08 Q1013=
200502280950 METAR ESMX 280950Z 21004KT 3000 -SN FEW007 SCT018 BKN066 M06/M08 Q1014=
200502280920 METAR ESMX 280920Z VRB03KT 1800 -SN FEW010 SCT028 M07/M09 Q1014=
200502280850 METAR ESMX 280850Z VRB02KT 5000 -SN FEW033 M08/M10 Q1015=
200502280820 METAR ESMX 280820Z VRB01KT 4700 -SN FEW019 SCT034 M09/M11 Q1015=
200502280750 METAR ESMX 280750Z VRB01KT 7000 -SN FEW018 SCT028 M10/M11 Q1015=
200502280720 METAR ESMX 280720Z VRB02KT 2300 -SN FEW026 SCT030 BKN035 M11/M13 Q1016=
200502280650 METAR ESMX 280650Z VRB01KT 9999 SCT026 BKN032 M12/M13 Q1016=
200502280620 METAR ESMX 280620Z 00000KT 9999 BKN030 M12/M14 Q1016=
200502280550 METAR ESMX 280550Z VRB02KT 9999 FEW025 BKN033 M13/M15 Q1016=
200502280520 METAR ESMX 280520Z VRB01KT 9999 FEW037 BKN043 M14/M16 Q1017=
200502280450 METAR ESMX 280450Z VRB01KT 9999 FEW045 M16/M17 Q1017=
200502280420 METAR ESMX 280420Z AUTO VRB02KT 9999 BKN055 OVC110 M15/M17 Q1017=
200502280350 METAR ESMX 280350Z AUTO VRB02KT 9999 BKN055 M16/M18 Q1017=
200502280320 METAR ESMX 280320Z AUTO VRB01KT 9999 BKN055 M16/M18 Q1018=
200502280250 METAR ESMX 280250Z AUTO VRB02KT 9999 NSC M16/M17 Q1018=
200502280220 METAR ESMX 280220Z AUTO VRB01KT 9999 NSC M16/M17 Q1018=
200502280150 METAR ESMX 280150Z AUTO VRB01KT 9999 NSC M16/M17 Q1019=
200502280120 METAR ESMX 280120Z VRB01KT CAVOK M16/M17 Q1019=
200502280050 METAR ESMX 280050Z VRB02KT CAVOK M16/M17 Q1019=
200502280020 METAR ESMX 280020Z VRB01KT CAVOK M14/M15 Q1020=
200502272350 METAR ESMX 272350Z VRB02KT CAVOK M15/M16 Q1020=
200502272320 METAR ESMX 272320Z VRB01KT CAVOK M13/M15 Q1020=
200502272250 METAR ESMX 272250Z VRB02KT CAVOK M11/M13 Q1020=
200502272220 METAR ESMX 272220Z VRB02KT CAVOK M11/M12 Q1020=
200502272150 METAR ESMX 272150Z 33004KT CAVOK M11/M13 Q1021=
200502272120 METAR ESMX 272120Z 32006KT CAVOK M11/M13 Q1021=
200502272050 METAR ESMX 272050Z 31007KT CAVOK M09/M13 Q1021=
200502272020 METAR ESMX 272020Z 32007G33KT CAVOK M09/M13 Q1021=
200502271950 METAR ESMX 271950Z 33006KT CAVOK M10/M14 Q1021=
200502271920 METAR ESMX 271920Z 32006KT CAVOK M09/M14 Q1021=
200502271850 METAR ESMX 271850Z 31005KT CAVOK M10/M15 Q1021=
200502271820 METAR ESMX 271820Z 33005KT CAVOK M09/M14 Q1021=
200502271750 METAR ESMX 271750Z 34007KT CAVOK M08/M14 Q1021=
200502271720 METAR ESMX 271720Z 34006KT CAVOK M08/M14 Q1021=
200502271650 METAR ESMX 271650Z 34009KT CAVOK M07/M13 Q1021=
200502271620 METAR ESMX 271620Z 34012KT CAVOK M06/M14 Q1021=
200502271550 METAR ESMX 271550Z 01011KT CAVOK M05/M14 Q1021=
200502271520 METAR ESMX 271520Z 36013KT 9999 FEW045 M05/M13 Q1021=
200502271450 METAR ESMX 271450Z 35014KT 9999 SCT041 M04/M13 Q1020=
200502271420 METAR ESMX 271420Z 02012KT 9999 SCT043 M04/M13 Q1020=
200502271350 METAR ESMX 271350Z 01014KT 9999 SCT042 M04/M13 Q1020=
200502271320 METAR ESMX 271320Z 01015KT 9999 FEW040 SCT045 M05/M13 Q1020=
200502271250 METAR ESMX 271250Z AUTO 36016KT 9999 FEW038 SCT043 M04/M12 Q1020=
200502271220 METAR ESMX 271220Z AUTO 36015KT 9999 FEW036 M05/M13 Q1021=
200502271150 METAR ESMX 271150Z AUTO 01014G25KT 9999 FEW037 M05/M13 Q1021=
200502271120 METAR ESMX 271120Z AUTO 01015KT 9999 NSC M05/M12 Q1021=
200502271050 METAR ESMX 271050Z AUTO 01014KT 9999 NSC M05/M12 Q1020=
200502271020 METAR ESMX 271020Z AUTO 01013KT 9999 NSC M06/M12 Q1020=
200502270950 METAR ESMX 270950Z AUTO 01014KT 9999 NSC M06/M12 Q1020=
200502270920 METAR ESMX 270920Z AUTO 36012KT 9999 NSC M07/M12 Q1020=
200502270850 METAR ESMX 270850Z AUTO 36013KT 9999 NSC M08/M12 Q1021=
200502270820 METAR ESMX 270820Z AUTO 36012KT 9999 NSC M09/M12 Q1020=
200502270750 METAR ESMX 270750Z AUTO 36012KT 9999 NSC M09/M13 Q1020=
200502270720 METAR ESMX 270720Z AUTO 35011KT 9999 NSC M10/M13 Q1020=
200502270650 METAR ESMX 270650Z AUTO 35010KT 9999 NSC M11/M13 Q1020=
200502270620 METAR ESMX 270620Z AUTO 36009KT 9999 NSC M11/M13 Q1020=
200502270550 METAR ESMX 270550Z AUTO 01009KT 9999 NSC M10/M13 Q1020=
200502270520 METAR ESMX 270520Z AUTO 36011KT 9999 NSC M10/M13 Q1019=
200502270450 METAR ESMX 270450Z AUTO 36010KT 9999 NSC M10/M13 Q1019=
200502270420 METAR ESMX 270420Z AUTO 36011KT 9999 NSC M10/M13 Q1019=
200502270350 METAR ESMX 270350Z AUTO 35011KT 9999 NSC M10/M13 Q1019=
200502270320 METAR ESMX 270320Z AUTO 34013KT 9999 NSC M10/M13 Q1019=
200502270250 METAR ESMX 270250Z AUTO 35013KT 9999 NSC M10/M13 Q1019=
200502270220 METAR ESMX 270220Z AUTO 35013KT 9999 NSC M09/M13 Q1019=
200502270150 METAR ESMX 270150Z AUTO 35010KT 9999 NSC M09/M13 Q1019=
200502270120 METAR ESMX 270120Z AUTO 35011KT 9999 NSC M10/M13 Q1019=
200502270050 METAR ESMX 270050Z AUTO 35011KT 9999 NSC M09/M13 Q1019=
200502270020 METAR ESMX 270020Z AUTO 35013KT 9999 NSC M09/M13 Q1019=
200502262350 METAR ESMX 262350Z AUTO 35010KT 9999 NSC M09/M13 Q1019=
200502262320 METAR ESMX 262320Z AUTO 35011KT 9999 NSC M09/M13 Q1019=
200502262250 METAR ESMX 262250Z AUTO 35013KT 9999 NSC M08/M12 Q1019=
200502262220 METAR ESMX 262220Z AUTO 35013KT 9999 NSC M08/M12 Q1020=
200502262150 METAR ESMX 262150Z AUTO 01011KT 9999 NSC M08/M12 Q1019=
200502262120 METAR ESMX 262120Z AUTO 01011KT 9999 NSC M08/M11 Q1020=
200502262050 METAR ESMX 262050Z AUTO 36009KT 9999 NSC M08/M11 Q1019=
200502262020 METAR ESMX 262020Z AUTO 02011KT 9999 NSC M08/M11 Q1019=
200502261950 METAR ESMX 261950Z AUTO 01011KT 9999 NSC M07/M11 Q1019=
200502261920 METAR ESMX 261920Z AUTO 01012KT 9999 NSC M07/M10 Q1019=
200502261850 METAR ESMX 261850Z AUTO 02011KT 9999 NSC M07/M10 Q1019=
200502261820 METAR ESMX 261820Z AUTO 02011KT 9999 NSC M06/M10 Q1019=
200502261750 METAR ESMX 261750Z AUTO 01011G21KT 9999 NSC M06/M11 Q1019 RESN=
200502261720 METAR ESMX 261720Z AUTO 01011KT 9999 FEW027 SCT049 BKN076 M05/M09 Q1018 RESN=
200502261650 METAR ESMX 261650Z AUTO 02017KT 4500 -SHSN FEW016 SCT033 M05/M08 Q1018=
200502261620 METAR ESMX 261620Z AUTO 02011KT 9999 FEW090 M05/M08 Q1018 REDZ=
200502261550 METAR ESMX 261550Z AUTO 01014KT 9999 SHRA FEW020 M04/M08 Q1017=
200502261520 METAR ESMX 261520Z AUTO 36014KT 9999 -SHSN FEW017 SCT031 M04/M08 Q1017=
200502261450 METAR ESMX 261450Z AUTO 01011KT 9999 FEW044 M03/M09 Q1017=
200502261420 METAR ESMX 261420Z AUTO 36016KT 9999 FEW044 BKN051 M03/M09 Q1017=
200502261350 METAR ESMX 261350Z AUTO 01010G20KT 340V040 9999 SCT052 M02/M13 Q1017=
200502261320 METAR ESMX 261320Z AUTO 02012KT 9999 FEW050 SCT065 M02/M13 Q1017=
200502261250 METAR ESMX 261250Z 02011KT 9999 SCT035 M01/M13 Q1017=
200502261220 METAR ESMX 261220Z 01010KT 9999 SCT034 M02/M10 Q1017=
200502261150 METAR ESMX 261150Z 02010KT 9999 FEW033 SCT045 M01/M09 Q1017=
200502261120 METAR ESMX 261120Z 02011KT 350V050 9999 SCT028 M02/M09 Q1017=
200502261050 METAR ESMX 261050Z 02012KT 340V050 9999 BKN028 M02/M08 Q1017=
200502260950 METAR ESMX 260950Z 03012KT 9999 FEW029 M02/M09 Q1017=
200502260920 METAR ESMX 260920Z 02012KT 350V060 9999 FEW023 M03/M08 Q1017=
200502260850 METAR ESMX 260850Z 01008KT 9999 FEW015 SCT050 M04/M08 Q1017=
200502260820 METAR ESMX 260820Z 02010KT 9999 FEW015 SCT057 M04/M07 Q1017=
200502260750 METAR ESMX 260750Z 01008KT 9999 FEW015 SCT048 BKN100 M04/M07 Q1017=
200502260720 METAR ESMX 260720Z 01009KT 9999 FEW015 SCT048 BKN095 M04/M07 Q1017=
200502260650 METAR ESMX 260650Z 01010KT 9999 FEW015 BKN082 M04/M07 Q1016=
200502260620 METAR ESMX 260620Z 02009KT 350V050 9999 FEW015 BKN076 M04/M07 Q1016=
200502260550 METAR ESMX 260550Z AUTO 36008KT 9999 BKN074 M04/M06 Q1016=
200502260520 METAR ESMX 260520Z AUTO 01008KT 9999 FEW026 OVC074 M04/M06 Q1016=
200502260450 METAR ESMX 260450Z AUTO 02009KT 9999 BKN024 OVC073 M04/M06 Q1016=
200502260420 METAR ESMX 260420Z AUTO 02007KT 9999 FEW011 OVC025 M04/M06 Q1016=
200502260350 METAR ESMX 260350Z AUTO 02007KT 9999 OVC009 M04/M05 Q1016=
200502260320 METAR ESMX 260320Z AUTO 35007KT 9999 OVC008 M04/M05 Q1016=
200502260250 METAR ESMX 260250Z AUTO 36006KT 9999 OVC008 M04/M06 Q1016=
200502260220 METAR ESMX 260220Z AUTO 36007KT 9999 OVC008 M05/M06 Q1016=
200502260150 METAR ESMX 260150Z AUTO 35006KT 9999 OVC010 M05/M06 Q1016 RESN=
200502260120 METAR ESMX 260120Z AUTO 35004KT 9999 FEW012 SCT032 OVC060 M05/M06 Q1016 RESN=
200502260050 METAR ESMX 260050Z AUTO 34007KT 9999 IC FEW009 BKN011 OVC014 M05/M07 Q1016=
200502260020 METAR ESMX 260020Z AUTO 34004KT 9999 BKN009 OVC020 M05/M07 Q1016=
200502252350 METAR ESMX 252350Z AUTO VRB03KT 9999 OVC010 M05/M07 Q1017=
200502252320 METAR ESMX 252320Z AUTO VRB02KT 9999 OVC013 M06/M08 Q1017=
200502252250 METAR ESMX 252250Z AUTO 04005KT 9999 OVC013 M06/M08 Q1017=
200502252220 METAR ESMX 252220Z AUTO 04007KT 360V060 9999 BKN013 M06/M08 Q1017=
200502252150 METAR ESMX 252150Z AUTO 04006KT 010V070 9999 FEW014 M06/M08 Q1017=
200502252120 METAR ESMX 252120Z AUTO 04005KT 9999 NSC M05/M08 Q1017=
200502252050 METAR ESMX 252050Z 04007KT 020V080 9999 SCT027 M05/M08 Q1017=
200502252020 METAR ESMX 252020Z 01006KT 9999 SCT015 BKN022 M04/M06 Q1017=
200502251950 METAR ESMX 251950Z 03008KT 9999 BKN022 M03/M06 Q1017=
200502251920 METAR ESMX 251920Z 03009KT 9999 BKN020 M03/M06 Q1017=
200502251850 METAR ESMX 251850Z 01008KT 9999 BKN020 M02/M06 Q1017=
200502251820 METAR ESMX 251820Z 01005KT 9999 SCT019 M03/M05 Q1017=
200502251750 METAR ESMX 251750Z VRB02KT CAVOK M02/M05 Q1016=
200502251720 METAR ESMX 251720Z VRB03KT CAVOK M02/M05 Q1016=
200502251650 METAR ESMX 251650Z VRB02KT CAVOK M02/M05 Q1016=
200502251620 METAR ESMX 251620Z VRB02KT CAVOK M01/M05 Q1016=
200502251550 METAR ESMX 251550Z VRB02KT CAVOK 01/M06 Q1016=
200502251520 METAR ESMX 251520Z VRB02KT CAVOK 01/M06 Q1017=
200502251450 METAR ESMX 251450Z VRB01KT CAVOK 01/M06 Q1017=
200502251420 METAR ESMX 251420Z VRB02KT CAVOK 01/M06 Q1017=
200502251350 METAR ESMX 251350Z VRB02KT CAVOK 02/M05 Q1017=
200502251320 METAR ESMX 251320Z VRB03KT CAVOK 01/M05 Q1017=
200502251250 METAR ESMX 251250Z 35004KT CAVOK 00/M05 Q1018=
200502251220 METAR ESMX 251220Z VRB03KT CAVOK M00/M05 Q1018=
200502251150 METAR ESMX 251150Z 34003KT CAVOK M01/M05 Q1018=
200502251120 METAR ESMX 251120Z 34004KT CAVOK M01/M05 Q1019=
200502251050 METAR ESMX 251050Z 35007KT CAVOK M01/M05 Q1019=
200502251020 METAR ESMX 251020Z 01006KT 350V070 9999 FEW012 M01/M05 Q1019=
200502250950 METAR ESMX 250950Z 01008KT 350V050 9999 SCT011 M02/M05 Q1019=
200502250920 METAR ESMX 250920Z 36007KT 9999 BKN010 M01/M04 Q1019=
200502250850 METAR ESMX 250850Z 04007KT 350V070 9999 OVC010 M02/M04 Q1020=
200502250820 METAR ESMX 250820Z 01008KT 9999 OVC010 M02/M04 Q1020=
200502250720 METAR ESMX 250720Z 05007KT 020V080 9999 BKN011 M02/M04 Q1020=
200502250650 METAR ESMX 250650Z 04006KT 9999 OVC011 M02/M04 Q1020=
200502250620 METAR ESMX 250620Z 04006KT 9999 OVC011 M02/M04 Q1020=
200502250550 METAR ESMX 250550Z 02006KT 320V080 9999 BKN012 M02/M04 Q1020=
200502250520 METAR ESMX 250520Z 04006KT 020V080 9999 OVC012 M02/M04 Q1020=
200502250450 METAR ESMX 250450Z 05006KT 010V100 9999 OVC011 M02/M04 Q1020=
200502250420 METAR ESMX 250420Z AUTO 04008KT 350V080 9999 OVC012 M02/M04 Q1021=
200502250350 METAR ESMX 250350Z AUTO 03009KT 350V070 9999 OVC012 M02/M04 Q1021=
200502250320 METAR ESMX 250320Z AUTO 04009KT 360V070 9999 OVC012 M02/M04 Q1021=
200502250250 METAR ESMX 250250Z AUTO 05009KT 020V080 9999 OVC012 M01/M04 Q1021=
200502250220 METAR ESMX 250220Z AUTO 05010KT 020V080 9999 OVC013 M01/M04 Q1021=
200502250150 METAR ESMX 250150Z AUTO 05010KT 020V080 9999 OVC012 M01/M04 Q1022=
200502250120 METAR ESMX 250120Z 05008KT 010V100 9999 OVC012 M01/M03 Q1022=
200502250050 METAR ESMX 250050Z 05009KT 010V080 9999 BKN013 M01/M03 Q1022=
200502242350 METAR ESMX 242350Z 03010KT 360V060 9999 BKN013 M01/M03 Q1022=
200502242320 METAR ESMX 242320Z 04010KT 020V090 9999 BKN013 M01/M03 Q1022=
200502242250 METAR ESMX 242250Z 04010KT 010V080 9999 BKN014 M01/M04 Q1022=
200502242220 METAR ESMX 242220Z 04010KT 010V080 9999 BKN015 M01/M04 Q1022=
200502242150 METAR ESMX 242150Z 05011KT 020V080 9999 BKN014 M01/M03 Q1022=
200502242120 METAR ESMX 242120Z 05011KT 300V080 9999 BKN015 M01/M03 Q1022=
200502242050 METAR ESMX 242050Z 03010KT 340V070 9999 BKN015 M00/M03 Q1022=
200502242020 METAR ESMX 242020Z 05010KT 010V080 9999 BKN014 M00/M03 Q1023=
200502241950 METAR ESMX 241950Z 04011KT 010V080 9999 BKN014 OVC020 M00/M03 Q1022=
200502241920 METAR ESMX 241920Z 05009KT 020V090 9999 BKN013 M00/M02 Q1022=
200502241850 METAR ESMX 241850Z 04012KT 010V080 9999 OVC013 00/M02 Q1022=
200502241820 METAR ESMX 241820Z 04011KT 9999 BKN013 00/M02 Q1022=
200502241750 METAR ESMX 241750Z 04011KT 010V080 9999 -SN OVC013 00/M02 Q1022=
200502241720 METAR ESMX 241720Z 04012KT 010V080 9999 -SN BKN013 OVC018 00/M02 Q1022=
200502241650 METAR ESMX 241650Z 04013KT 9999 -SN BKN014 00/M02 Q1022=
200502241620 METAR ESMX 241620Z 04013KT 7000 -SN BKN015 00/M02 Q1022=
200502241550 METAR ESMX 241550Z 04012KT 5000 -SN FEW013 BKN015 00/M02 Q1022=
200502241520 METAR ESMX 241520Z 04013KT 5000 -SN FEW014 BKN017 00/M02 Q1022=
200502241450 METAR ESMX 241450Z 05010KT 020V080 9999 SCT017 BKN021 BKN055 01/M02 Q1022=
200502241420 METAR ESMX 241420Z 05012KT 020V090 9999 BKN018 BKN043 01/M02 Q1022=
200502241350 METAR ESMX 241350Z 04010KT 010V080 9999 FEW017 BKN020 OVC042 01/M02 Q1022=
200502241320 METAR ESMX 241320Z 04011KT 010V070 9999 FEW016 BKN019 BKN051 01/M02 Q1022=
200502241250 METAR ESMX 241250Z 06011KT 020V110 9999 FEW017 BKN019 01/M02 Q1022=
200502241220 METAR ESMX 241220Z 05012G23KT 360V080 9999 BKN016 02/M02 Q1022=
200502241150 METAR ESMX 241150Z 05008KT 350V100 9999 BKN014 01/M02 Q1023=
200502241120 METAR ESMX 241120Z 05010KT 010V100 9999 FEW010 BKN013 01/M02 Q1023=
200502241050 METAR ESMX 241050Z 06009KT 020V110 9999 OVC008 00/M01 Q1023=
200502241020 METAR ESMX 241020Z 04010KT 350V080 9999 OVC008 00/M02 Q1023 RESN=
200502240950 METAR ESMX 240950Z 07008KT 020V100 9999 OVC009 00/M02 Q1023 RESN=
200502240920 METAR ESMX 240920Z 06009KT 030V110 9999 -SN OVC010 M00/M02 Q1023=
200502240850 METAR ESMX 240850Z 07010KT 020V110 8000 -SN OVC009 M00/M02 Q1022=
200502240820 METAR ESMX 240820Z 04011KT 010V080 7000 -RA BKN010 OVC016 M00/M02 Q1022=
200502240750 METAR ESMX 240750Z 06010KT 7000 -SN BKN011 BKN017 M00/M02 Q1022=
200502240720 METAR ESMX 240720Z 06010KT 030V110 5000 -SN FEW010 BKN013 M00/M02 Q1022=
200502240650 METAR ESMX 240650Z 05008KT 350V080 8000 -SN FEW009 BKN013 BKN016 M01/M02 Q1021=
200502240620 METAR ESMX 240620Z 06010KT 010V110 5000 -SN FEW008 SCT011 OVC013 M01/M02 Q1021=
200502240550 METAR ESMX 240550Z 06009KT 020V100 5000 -SN OVC010 M01/M02 Q1021=
200502240520 METAR ESMX 240520Z 06010KT 020V090 5000 -SN BKN011 M00/M02 Q1020=
200502240450 METAR ESMX 240450Z AUTO 04011KT 350V110 8000 -SN SCT010 OVC014 M00/M02 Q1020=
200502240420 METAR ESMX 240420Z AUTO 05009KT 7000 SG FEW011 BKN013 OVC017 M01/M02 Q1020=
200502240350 METAR ESMX 240350Z AUTO 04009KT 360V080 5000 -SN FEW010 BKN012 OVC017 M00/M02 Q1020=
200502240320 METAR ESMX 240320Z AUTO 04010KT 350V080 4600 -SN FEW008 OVC010 M01/M02 Q1020=
200502240250 METAR ESMX 240250Z AUTO 04011G21KT 010V080 5000 -SN FEW009 OVC011 M01/M02 Q1020=
200502240220 METAR ESMX 240220Z AUTO 05012KT 8000 -SN OVC011 M00/M02 Q1020=
200502240150 METAR ESMX 240150Z AUTO 03011KT 350V070 9999 -SN OVC011 M01/M02 Q1020=
200502240120 METAR ESMX 240120Z 05011KT 010V080 9999 -SN SCT010 BKN015 M01/M02 Q1020=
200502240050 METAR ESMX 240050Z 04011KT 350V060 5000 -SN BKN010 M01/M02 Q1021=
200502240020 METAR ESMX 240020Z 03010KT 350V060 8000 -SN BKN010 M01/M02 Q1021=
200502232350 METAR ESMX 232350Z 04010KT 360V090 9999 -SN BKN011 M01/M02 Q1021=
200502232320 METAR ESMX 232320Z 05011KT 010V080 9999 -SN BKN011 M01/=
200502232250 METAR ESMX 232250Z 05012G22KT 020V080 7000 -SN FEW010 BKN013 M01/M03 Q1021=
200502232220 METAR ESMX 232220Z 04012KT 350V080 7000 -SN BKN011 M01/M02 Q1021=
200502232150 METAR ESMX 232150Z 05012KT 010V090 7000 -SN FEW009 BKN012 M01/M02 Q1021 RESN=
200502232120 METAR ESMX 232120Z 05010KT 020V080 4200 SN BKN012 M01/M02 Q1021=
200502232050 METAR ESMX 232050Z 04012KT 8000 -SN FEW011 BKN013 M01/M03 Q1021=
200502232020 METAR ESMX 232020Z 05014G25KT 020V100 6000 -SN FEW012 SCT015 BKN017 M01/M03 Q1021=
200502231950 METAR ESMX 231950Z 05014G25KT 020V080 7000 -SN FEW012 SCT014 BKN017 M01/M03 Q1021=
200502231920 METAR ESMX 231920Z 04014KT 010V080 8000 -SN FEW010 BKN013 M01/M03 Q1021=
200502231850 METAR ESMX 231850Z 04012KT 020V090 7000 -SN BKN010 M01/M03 Q1021=
200502231820 METAR ESMX 231820Z 03014KT 350V070 7000 -SN BKN011 M01/M03 Q1021=
200502231750 METAR ESMX 231750Z 04016G28KT 020V080 8000 -SN BKN011 M01/M03 Q1021=
200502231720 METAR ESMX 231720Z 04014G24KT 360V070 9000 -SN BKN011 M01/M03 Q1021=
200502231650 METAR ESMX 231650Z 04016G26KT 010V070 9999 -SN OVC010 M02/M04 Q1021=
200502231620 METAR ESMX 231620Z 04015G25KT 020V080 8000 -SN BKN010 M02/M04 Q1021=
200502231550 METAR ESMX 231550Z 04018G28KT 020V080 5000 BR OVC008 M02/M04 Q1021=
200502231520 METAR ESMX 231520Z 04018G31KT 6000 SN BR OVC008 M02/M04 Q1021=
200502231450 METAR ESMX 231450Z 04016G27KT 020V080 7000 -SN BR OVC009 M02/M04 Q1022=
200502231420 METAR ESMX 231420Z 04015KT 350V070 7000 -SN BR OVC010 M02/M04 Q1022=
200502231350 METAR ESMX 231350Z 04018KT 010V070 7000 -SN BR OVC011 M02/M04 Q1022=
200502231320 METAR ESMX 231320Z 04016KT 020V080 9999 OVC012 M02/M04 Q1022=
200502231250 METAR ESMX 231250Z 04016KT 9999 BKN012 M02/M04 Q1022=
200502231220 METAR ESMX 231220Z 05015G29KT 020V080 9999 BKN012 M02/M04 Q1023=
200502231150 METAR ESMX 231150Z 04015KT 8000 -SN BKN012 M02/M04 Q1023=
200502231120 METAR ESMX 231120Z 05018KT 020V080 9999 OVC014 M02/M05 Q1023=
200502231050 METAR ESMX 231050Z 05015G27KT 020V080 9999 BKN015 M02/M05 Q1023=
200502231020 METAR ESMX 231020Z 05015G30KT 360V070 8000 -SN BR BKN014 M02/M05 Q1023=
200502230950 METAR ESMX 230950Z 05013G24KT 7000 -SN BR FEW013 BKN016 M02/M05 Q1023=
200502230920 METAR ESMX 230920Z 05013G23KT 010V070 5000 -SN BR FEW014 BKN016 M02/M05 Q1023=
200502230850 METAR ESMX 230850Z 05013G23KT 010V080 7000 -SN FEW013 BKN016 M03/M05 Q1023=
200502230820 METAR ESMX 230820Z 05014G25KT 350V080 7000 -SN SCT014 BKN020 M03/M05 Q1023=
200502230750 METAR ESMX 230750Z 05013G23KT 010V110 6000 -SN FEW009 BKN011 M03/M05 Q1023=
200502230720 METAR ESMX 230720Z 05012KT 020V100 5000 -SN BKN008 M03/M04 Q1024=
200502230650 METAR ESMX 230650Z 05012KT 360V080 7000 -SN BKN008 M03/M05 Q1023=
200502230620 METAR ESMX 230620Z 04013KT 020V080 9000 -SN BKN008 M03/M05 Q1023=
200502230550 METAR ESMX 230550Z 04013KT 010V080 9999 -SN BKN008 M04/M05 Q1023=
200502230520 METAR ESMX 230520Z 04014KT 010V080 9999 -SN BKN008 M04/M05 Q1023=
200502230450 METAR ESMX 230450Z 04014KT 9000 -SN OVC008 M04/M05 Q1023=
200502230420 METAR ESMX 230420Z AUTO 04013G23KT 9000 OVC008 M04/M06 Q1023=
200502230350 METAR ESMX 230350Z AUTO 04012G23KT 9999 OVC008 M05/M06 Q1023 RESN=
200502230320 METAR ESMX 230320Z AUTO 04012KT 010V080 9999 IC OVC008 M05/M07 Q1023=
200502230250 METAR ESMX 230250Z AUTO 02013KT 9999 SG OVC008 M06/M07 Q1023=
200502230220 METAR ESMX 230220Z 04015KT 350V070 9999 -SN OVC008 M06/M07 Q1023=
200502230150 METAR ESMX 230150Z 02013KT 9999 -SN BKN008 M06/M07 Q1024=
200502230120 METAR ESMX 230120Z 04012KT 010V080 9999 -SN OVC009 M06/M07 Q1023=
200502230050 METAR ESMX 230050Z 04012KT 010V070 9999 -SN BKN009 M06/M08 Q1023=
200502230020 METAR ESMX 230020Z 02011KT 9999 -SN BKN010 M06/M08 Q1024=
200502222350 METAR ESMX 222350Z 02011KT 9999 BKN011 M07/M08 Q1024=
200502211920 METAR ESMX 211920Z 04011KT 350V070 9999 -SN SCT015 BKN020 M01/M04 Q1022=
200502211850 METAR ESMX 211850Z 01008KT 350V060 9999 -SN BKN014 OVC020 M01/M03 Q1021=
200502211820 METAR ESMX 211820Z 03007KT 350V060 9999 -SN SCT014 BKN020 M01/M03 Q1021=
200502211750 METAR ESMX 211750Z 02007KT 340V060 9999 -SN BKN014 OVC025 M01/M03 Q1021=
200502211720 METAR ESMX 211720Z 03007KT 9999 -SHSN SCT020 BKN030 M01/M03 Q1021=
200502211650 METAR ESMX 211650Z 05008KT 020V080 9999 -SHSN FEW008 SCT012 BKN016 M00/M02 Q1021=
200502211620 METAR ESMX 211620Z 01007KT 9000 BR FEW014 BKN016 M00/M02 Q1021=
200502211550 METAR ESMX 211550Z 03006KT 9999 FEW017 SCT025 BKN030 M00/M02 Q1021=
200502211520 METAR ESMX 211520Z 02006KT 9999 FEW016 SCT020 BKN025 00/M02 Q1021=
200502211450 METAR ESMX 211450Z 03007KT 350V050 9999 FEW015 SCT030 BKN040 00/M02 Q1021=
200502211420 METAR ESMX 211420Z 05006KT 010V070 9999 SCT015 BKN045 00/M02 Q1021=
200502211350 METAR ESMX 211350Z 05007KT 020V090 9999 VCSH SCT006 BKN030 M00/M01 Q1020 RESN=
200502211320 METAR ESMX 211320Z 04006KT 360V080 1100 R01/P1500D R19/P1500D +SHRA FEW000 SCT008 BKN017 00/M01 Q1020=
200502211220 METAR ESMX 211220Z 01009KT 9999 FEW012 BKN030 01/M01 Q1020=
200502211150 METAR ESMX 211150Z 02009KT 9999 SCT013 BKN034 02/M01 Q1020=
200502211120 METAR ESMX 211120Z 01006KT 9999 SCT037 01/M02 Q1020=
200502211050 METAR ESMX 211050Z 36005KT 9999 BKN040 01/M02 Q1020=
200502211020 METAR ESMX 211020Z 02005KT 9999 BKN039 00/M02 Q1020=
200502210950 METAR ESMX 210950Z 01006KT 9999 SCT039 BKN056 00/M02 Q1020=
200502210920 METAR ESMX 210920Z 35005KT 9999 FEW015 SCT040 M01/M02 Q1019=
200502210850 METAR ESMX 210850Z 35004KT 9999 FEW015 SCT040 M01/M02 Q1019=
200502210820 METAR ESMX 210820Z 34004KT 8000 BR FEW010 BKN070 M01/M02 Q1018 RESN=
200502210750 METAR ESMX 210750Z VRB03KT 4000 -SHSN BR SCT008 BKN016 M01/M02 Q1018=
200502210720 METAR ESMX 210720Z VRB03KT 2000 -SHSN BKN005 OVC015 M02/M02 Q1018=
200502210650 METAR ESMX 210650Z VRB02KT 5000 BR FEW003 BKN005 M02/M02 Q1018 RESN=
200502210620 METAR ESMX 210620Z VRB01KT 5000 BR BKN003 BKN035 M02/M02 Q1017=
200502210550 METAR ESMX 210550Z VRB03KT 5000 BR OVC002 M01/M02 Q1017=
200502210520 METAR ESMX 210520Z 05004KT 020V120 4300 BR OVC002 M01/M02 Q1016=
200502210450 METAR ESMX 210450Z 05004KT 5000 BR OVC002 M01/M02 Q1016=
200502210420 METAR ESMX 210420Z AUTO VRB03KT 6000 SCT003 BKN008 OVC025 M01/M02 Q1016 RESN=
200502210350 METAR ESMX 210350Z AUTO VRB02KT 7000 -SN SCT023 BKN067 M02/M02 Q1015=
200502210320 METAR ESMX 210320Z AUTO VRB03KT 5000 -SN FEW006 SCT030 BKN042 M01/M02 Q1015=
200502210250 METAR ESMX 210250Z AUTO VRB02KT 7000 -SN FEW016 BKN019 OVC027 M02/M02 Q1015=
200502210220 METAR ESMX 210220Z AUTO VRB02KT 7000 BR SCT016 OVC020 M02/M02 Q1015=
200502210150 METAR ESMX 210150Z AUTO VRB01KT 9999 OVC020 M02/M02 Q1014 RESN=
200502210120 METAR ESMX 210120Z VRB02KT 9999 FEW016 BKN021 M02/M02 Q1014=
200502210050 METAR ESMX 210050Z VRB02KT 9000 -SN BKN022 M02/M02 Q1014=
200502210020 METAR ESMX 210020Z VRB02KT 9999 BKN019 M02/M02 Q1014=
200502202350 METAR ESMX 202350Z VRB01KT 9999 FEW017 BKN021 M02/M02 Q1013=
200502202320 METAR ESMX 202320Z VRB01KT 9999 FEW016 BKN075 M02/M03 Q1013=
200502202250 METAR ESMX 202250Z VRB01KT 9999 FEW018 SCT021 BKN025 M02/M02 Q1013=
200502202220 METAR ESMX 202220Z VRB02KT 9999 FEW022 SCT026 OVC073 M02/M02 Q1012=
200502202150 METAR ESMX 202150Z VRB02KT 9000 -SN FEW049 BKN072 M02/M02 Q1012=
200502202120 METAR ESMX 202120Z VRB01KT 8000 -SN NSC M02/M02 Q1012=
200502202050 METAR ESMX 202050Z 00000KT 5000 BR NSC M02/M02 Q1012=
200502202020 METAR ESMX 202020Z 00000KT 5000 BR NSC M03/M03 Q1011=
200502201950 METAR ESMX 201950Z VRB01KT 8000 MIFG NSC M03/M03 Q1011=
200502201920 METAR ESMX 201920Z 00000KT 0300S 9999N MIFG NSC M03/M03 Q1011=
200502201850 METAR ESMX 201850Z VRB01KT 6000 BR NSC M02/M02 Q1010=
200502201820 METAR ESMX 201820Z VRB02KT CAVOK M01/M02 Q1010=
200502201750 METAR ESMX 201750Z VRB01KT CAVOK M01/M01 Q1010=
200502201720 METAR ESMX 201720Z VRB03KT 9999 BKN072 M01/M01 Q1010=
200502201650 METAR ESMX 201650Z VRB02KT 9999 FEW021 OVC072 M00/M01 Q1009=
200502201620 METAR ESMX 201620Z VRB03KT 9999 FEW016 BKN021 OVC072 00/M01 Q1009=
200502201550 METAR ESMX 201550Z VRB03KT 9999 FEW011 SCT021 OVC072 01/M01 Q1009=
200502201520 METAR ESMX 201520Z VRB03KT 9999 SCT010 BKN016 OVC020 01/M01 Q1009=
200502201450 METAR ESMX 201450Z VRB02KT 9999 FEW017 OVC019 01/M01 Q1008=
200502201420 METAR ESMX 201420Z VRB01KT 9999 BKN012 OVC020 01/M01 Q1008=
200502201350 METAR ESMX 201350Z VRB02KT 9999 FEW009 OVC012 01/M01 Q1008=
200502201320 METAR ESMX 201320Z AUTO 19004KT 9999 OVC009 01/M01 Q1008=
200502201250 METAR ESMX 201250Z AUTO VRB03KT 9999 SCT007 OVC010 01/M01 Q1008=
200502201220 METAR ESMX 201220Z AUTO 17004KT 9999 BKN008 OVC011 01/M01 Q1008=
200502201150 METAR ESMX 201150Z AUTO VRB03KT 9999 FEW006 SCT007 BKN009 00/M01 Q1008=
200502201120 METAR ESMX 201120Z AUTO VRB03KT 9999 FEW004 BKN006 OVC009 00/M01 Q1008 RERA=
200502201050 METAR ESMX 201050Z AUTO VRB02KT 9999 OVC004 00/M01 Q1008 RERA=
200502201020 METAR ESMX 201020Z AUTO VRB03KT 9999 -RA OVC003 M00/M00 Q1007=
200502200950 METAR ESMX 200950Z AUTO VRB03KT 8000 -SHRA FEW003 OVC004 M00/M00 Q1007=
200502200920 METAR ESMX 200920Z AUTO VRB03KT 6000 -RA OVC003 M00/M00 Q1007=
200502200850 METAR ESMX 200850Z AUTO 19004KT 7000 -RA OVC002 M00/M01 Q1007=
200502200820 METAR ESMX 200820Z AUTO 18004KT 5000 -SHSN OVC002 M00/M00 Q1007=
200502200750 METAR ESMX 200750Z AUTO 19004KT 5000 -SHSN OVC002 M00/M01 Q1006=
200502200720 METAR ESMX 200720Z AUTO VRB03KT 6000 -SN FEW002 OVC005 M00/M00 Q1006=
200502200650 METAR ESMX 200650Z AUTO VRB03KT 6000 -SN FEW003 OVC005 M01/M01 Q1006=
200502200620 METAR ESMX 200620Z AUTO VRB03KT 5000 -SN FEW002 BKN005 OVC007 M00/M01 Q1005=
200502200550 METAR ESMX 200550Z AUTO VRB02KT 4700 -SN FEW001 SCT003 BKN005 M00/M01 Q1005=
200502200520 METAR ESMX 200520Z AUTO VRB02KT 4200 -SN SCT002 BKN004 OVC007 M01/M01 Q1005=
200502200450 METAR ESMX 200450Z AUTO VRB02KT 3100 -SN SCT001 BKN003 OVC005 M00/M01 Q1005=
200502200420 METAR ESMX 200420Z AUTO VRB03KT 0400 R01/1300U R19/P1500N -SN OVC001 M00/M01 Q1005=
200502200350 METAR ESMX 200350Z AUTO VRB03KT 0350 R01/1200N R19/P1500U -SN OVC001 M01/M01 Q1005=
200502200320 METAR ESMX 200320Z AUTO VRB03KT 0450 R01/1400N R19/P1500N -SN VV001 M00/M01 Q1005=
200502200250 METAR ESMX 200250Z AUTO 19004KT 0450 R01/1400D R19/P1500N -SN VV001 M00/M01 Q1004=
200502200220 METAR ESMX 200220Z AUTO 21004KT 0450 R01/P1500D R19/P1500N RA VV001 M00/M01 Q1004=
200502200150 METAR ESMX 200150Z AUTO 21004KT 0550 R01/P1500N R19/P1500N FG VV001 M00/M01 Q1004=
200502200120 METAR ESMX 200120Z AUTO 19005KT 0700 R01/P1500N R19/P1500N FG OVC001 M00/M01 Q1004=
200502200050 METAR ESMX 200050Z AUTO 19004KT 1400 R01/P1500N R19/P1500N BR BKN001 OVC004 M00/M00 Q1004=
200502200020 METAR ESMX 200020Z AUTO VRB03KT 2900 BR BKN001 OVC008 M00/M00 Q1004=
200502192350 METAR ESMX 192350Z AUTO 20004KT 2100 BR BKN001 OVC007 M00/M00 Q1004=
200502192320 METAR ESMX 192320Z AUTO 22004KT 2100 BR FEW002 BKN003 OVC006 M00/M00 Q1004=
200502192250 METAR ESMX 192250Z AUTO 20004KT 5000 BR OVC003 00/M00 Q1004=
200502192220 METAR ESMX 192220Z AUTO VRB03KT 6000 BR BKN002 OVC005 00/M00 Q1003=
200502192150 METAR ESMX 192150Z AUTO 22004KT 6000 BR OVC002 00/M00 Q1003=
200502192120 METAR ESMX 192120Z AUTO 21004KT 5000 BR OVC002 00/M00 Q1003=
200502192050 METAR ESMX 192050Z AUTO VRB03KT 8000 BR OVC002 00/M00 Q1003=
200502192020 METAR ESMX 192020Z AUTO 22005KT 9999 FEW003 OVC040 00/M00 Q1003=
200502191950 METAR ESMX 191950Z AUTO 21005KT 9999 BR OVC042 M00/M00 Q1002=
200502191920 METAR ESMX 191920Z AUTO VRB03KT 9999 SCT030 OVC043 00/M00 Q1002=
200502191850 METAR ESMX 191850Z AUTO VRB02KT 9999 FEW010 SCT030 BKN044 00/M00 Q1002=
200502191820 METAR ESMX 191820Z AUTO VRB03KT 9999 FEW015 OVC032 00/M00 Q1002 RERA=
200502191750 METAR ESMX 191750Z AUTO VRB03KT 9999 -SHRA FEW017 SCT028 BKN033 00/M00 Q1002=
200502191720 METAR ESMX 191720Z AUTO VRB03KT 4100 +DZ FEW014 BKN017 00/M00 Q1001=
200502191650 METAR ESMX 191650Z AUTO VRB03KT 9999 FEW003 SCT016 BKN019 00/M00 Q1001=
200502191620 METAR ESMX 191620Z AUTO VRB03KT 9999 FEW002 SCT012 BKN026 00/00 Q1001=
200502191550 METAR ESMX 191550Z AUTO 22004KT 9999 FEW010 OVC032 01/00 Q1001 RERA=
200502191520 METAR ESMX 191520Z AUTO 22007KT 190V260 3700 SHRA FEW004 SCT006 BKN014 01/00 Q1001=
200502191450 METAR ESMX 191450Z AUTO 20006KT 8000 -SHRA FEW005 SCT012 OVC034 01/00 Q1000=
200502191420 METAR ESMX 191420Z AUTO 21007KT 9000 FEW007 SCT009 BKN012 01/00 Q1000=
200502191350 METAR ESMX 191350Z AUTO 18007KT 9999 FEW010 SCT014 BKN016 01/M00 Q1000 RERA=
200502191320 METAR ESMX 191320Z AUTO 18007KT 9999 -SHRA FEW005 SCT007 BKN008 01/M00 Q1000=
200502191250 METAR ESMX 191250Z AUTO 18006KT 7000 FEW008 SCT019 OVC029 01/M00 Q1000 RERA=
200502191220 METAR ESMX 191220Z AUTO 18005KT 9999 -SHRA FEW004 SCT017 BKN028 01/M00 Q1000=
200502191150 METAR ESMX 191150Z 18006KT 6000 -RA FEW014 OVC022 01/M00 Q1000=
200502191120 METAR ESMX 191120Z 20004KT 9999 FEW017 BKN020 OVC025 01/M01 Q1000=
200502191050 METAR ESMX 191050Z 18007KT 9999 FEW015 OVC019 01/M00 Q1000=
200502191020 METAR ESMX 191020Z 19005KT 9999 OVC017 01/M01 Q1000=
200502190950 METAR ESMX 190950Z 23006KT 9999 OVC013 01/M01 Q1000=
200502190920 METAR ESMX 190920Z 22007KT 9999 FEW012 OVC014 00/M01 Q1000=
200502190850 METAR ESMX 190850Z 23006KT 200V260 9999 FEW014 OVC017 00/M00 Q0999=
200502190820 METAR ESMX 190820Z 21006KT 170V240 9999 FEW013 OVC016 00/M00 Q0999=
200502190750 METAR ESMX 190750Z 21007KT 9999 BR FEW008 OVC016 00/00 Q0999=
200502190720 METAR ESMX 190720Z 19007KT 8000 BR FEW008 OVC017 00/00 Q0999=
200502190650 METAR ESMX 190650Z 19007KT 7000 BR FEW004 SCT010 BKN017 00/00 Q0999 RESN=
200502190620 METAR ESMX 190620Z AUTO 19008KT 6000 -SN FEW003 BKN005 OVC016 00/00 Q0999=
200502190550 METAR ESMX 190550Z AUTO 19007KT 3800 -SN OVC002 00/00 Q0999=
200502190520 METAR ESMX 190520Z AUTO 19007KT 2700 -SHSN OVC001 00/00 Q0999=
200502190450 METAR ESMX 190450Z AUTO 18008KT 1900 -SHSN OVC001 00/00 Q0999=
200502190420 METAR ESMX 190420Z AUTO 18008KT 1100 R01/P1500N R19/P1500N -SN VV002 00/M00 Q0999=
200502190350 METAR ESMX 190350Z AUTO 19009KT 0750 R01/P1500N R19/P1500N FG OVC001 00/M00 Q0999=
200502190320 METAR ESMX 190320Z AUTO 20008KT 0700 R01/P1500N R19/P1500N FG VV002 M00/M00 Q0999=
200502190250 METAR ESMX 190250Z AUTO 17007KT 0800 R01/P1500N R19/P1500N -SHSN VV001 M00/M00 Q0999=
200502190220 METAR ESMX 190220Z AUTO 18009KT 0650 R01/P1500U R19/P1500N FG VV002 M00/M00 Q0999=
200502190150 METAR ESMX 190150Z AUTO 19008KT 0700 R01/P1500N R19/P1500N FG VV002 M00/M00 Q0999=
200502190120 METAR ESMX 190120Z AUTO 19010KT 0900 R01/P1500N R19/P1500N -SHSN OVC001 M00/M00 Q0999=
200502190050 METAR ESMX 190050Z AUTO 20009KT 2500 -SHSN OVC002 M00/M00 Q1000=
200502190020 METAR ESMX 190020Z AUTO 20011KT 6000 OVC004 M00/M01 Q0999 RESN=
200502182350 METAR ESMX 182350Z AUTO 19012KT 3400 -SHSN OVC005 M00/M01 Q1000=
200502182320 METAR ESMX 182320Z AUTO 21011KT 9999 OVC005 M00/M01 Q1000 RESN=
200502182250 METAR ESMX 182250Z AUTO 19013KT 8000 -SN FEW005 SCT007 BKN009 M00/M01 Q1000=
200502182220 METAR ESMX 182220Z AUTO 19013KT 4800 -SN FEW006 BKN007 OVC010 M00/M01 Q1000=
200502182150 METAR ESMX 182150Z AUTO 19012KT 4200 -SN FEW006 BKN007 OVC010 M00/M01 Q1000=
200502182120 METAR ESMX 182120Z AUTO 18014KT 2700 -SN FEW006 BKN008 OVC011 M00/M01 Q1000=
200502182050 METAR ESMX 182050Z 18013KT 5000 -SN FEW006 BKN007 M00/M00 Q1001=
200502182020 METAR ESMX 182020Z 18013KT 2400 -SN FEW005 BKN006 M00/M00 Q1001=
200502181950 METAR ESMX 181950Z 19012KT 2700 -SN BKN005 00/M00 Q1001=
200502181920 METAR ESMX 181920Z 18013KT 2000 -SN SCT005 BKN007 00/M00 Q1001=
200502181850 METAR ESMX 181850Z 18013KT 2000 -SN BKN005 00/M00 Q1002=
200502181820 METAR ESMX 181820Z 18013KT 2000 -SN FEW004 BKN006 00/00 Q1002=
200502181750 METAR ESMX 181750Z 19014KT 2000 -SN BKN004 00/00 Q1003=
200502181650 METAR ESMX 181650Z 18012KT 3300 -SN BKN004 00/00 Q1004=
200502181620 METAR ESMX 181620Z 18010KT 3700 -RA BR BKN003 OVC005 00/00 Q1004=
200502181550 METAR ESMX 181550Z 19011KT 3100 -RA BR OVC002 00/00 Q1004=
200502181520 METAR ESMX 181520Z 19011KT 2000 -SN OVC002 00/00 Q1005=
200502181450 METAR ESMX 181450Z 19011KT 2000 BR OVC002 00/00 Q1005=
200502181420 METAR ESMX 181420Z 18011KT 1500 BR OVC002 00/00 Q1006=
200502181350 METAR ESMX 181350Z 19011KT 1600 OVC002 00/00 Q1006=
200502181320 METAR ESMX 181320Z 19011KT 1200 R01/1400N R19/P1500N BR OVC002 00/00 Q1007=
200502181250 METAR ESMX 181250Z 19011KT 1200 R01/1300U R19/1400U OVC002 00/00 Q1007=
200502181220 METAR ESMX 181220Z 20011KT 1000 R01/1200N R19/1100VP1500D BR OVC002 00/M00 Q1008=
200502181150 METAR ESMX 181150Z 19011KT 3300 BR OVC002 00/M00 Q1009=
200502181120 METAR ESMX 181120Z 19009KT 5000 BR OVC003 M00/M00 Q1009=
200502181050 METAR ESMX 181050Z 21008KT 5000 BER OVC002 M00/M00 Q1010 REDZ=
200502181020 METAR ESMX 181020Z 20007KT 160V230 3100 OVC002 M00/M00 Q1010=
200502180950 METAR ESMX 180950Z 20007KT 2300 OVC002 M01/M01 Q1010 RESN=
200502180920 METAR ESMX 180920Z 19007KT 0900 R01/1000N R19/1200N SG BKN002 M01/M01 Q1011=
200502180850 METAR ESMX 180850Z 20006KT 0650 R01/0900N R19/1000N FZFG VV002 M01/M02 Q1012=
200502180820 METAR ESMX 180820Z 20006KT 0650 R01/0900N R19/1100N FZFG VV002 M02/M02 Q1012=
200502180750 METAR ESMX 180750Z 19006KT 0450 R01/0800N R19/0800U FZFG VV002 M02/M02 Q1012=
200502180720 METAR ESMX 180720Z 20006KT 0350 R01/0700N R19/0750N FZFG VV002 M02/M02 Q1013=
200502180650 METAR ESMX 180650Z 19007KT 0450 R01/0900N R19/1000N FZFG VV002 M02/M02 Q1013=
200502180620 METAR ESMX 180620Z 21006KT 0550 R01/1400N R19/P1500N FZFG VV002 M02/M03 Q1013=
200502180550 METAR ESMX 180550Z 18006KT 0700 R01/P1500N R19/P1500N FZFG VV002 M02/M03 Q1013=
200502180520 METAR ESMX 180520Z 19005KT 0500 R01/P1500N R19/P1500N FZFG VV002 M03/M03 Q1014=
200502180450 METAR ESMX 180450Z 20004KT 0600 R01/P1500N R19/P1500N FZFG VV002 M03/M03 Q1014=
200502180420 METAR ESMX 180420Z AUTO 18005KT 0400 R01/1300N R19/1200N FG VV001 M03/M03 Q1014=
200502180350 METAR ESMX 180350Z AUTO 20004KT 0400 R01/1400N R19/1400N FG VV001 M03/M04 Q1015=
200502180320 METAR ESMX 180320Z AUTO 19004KT 0500 R01/P1500N R19/P1500D FG VV001 M03/M04 Q1015=
200502180250 METAR ESMX 180250Z AUTO 21004KT 0750 R01/P1500N R19/P1500N FG VV002 M03/M04 Q1016=
200502180220 METAR ESMX 180220Z AUTO 22004KT 1300 R01/P1500N R19/P1500N OVC001 M04/M04 Q1016 RESN=
200502180150 METAR ESMX 180150Z AUTO 20005KT 1800 -SN OVC001 M04/M04 Q1017=
200502180120 METAR ESMX 180120Z VRB03KT 2000 -SHSN BR OVC002 M04/M04 Q1017=
200502180050 METAR ESMX 180050Z 20004KT 160V230 2100 BR OVC002 M04/M04 Q1017=
200502180020 METAR ESMX 180020Z 22004KT 3300 -SN BR BKN003 M04/M05 Q1018=
200502172350 METAR ESMX 172350Z 18004KT 2500 -SN BR OVC005 M04/M05 Q1018=
200502172320 METAR ESMX 172320Z VRB03KT 1100 -SN BR OVC006 M04/M05 Q1019=
200502172250 METAR ESMX 172250Z VRB03KT 2500 -SN BR SCT007 BKN009 M05/M05 Q1019=
200502172220 METAR ESMX 172220Z VRB02KT 2500 -SN FEW010 SCT017 BKN026 M05/M05 Q1019=
200502172150 METAR ESMX 172150Z VRB02KT 2000 SN FEW009 SCT011 BKN016 M05/M05 Q1019=
200502172120 METAR ESMX 172120Z VRB02KT 3800 -SN BKN009 M05/M06 Q1019=
200502172050 METAR ESMX 172050Z VRB02KT 9000 -SN BKN012 OVC016 M05/M06 Q1020=
200502172020 METAR ESMX 172020Z VRB03KT 9999 -SN BKN020 M05/M07 Q1020=
200502171950 METAR ESMX 171950Z VRB02KT 9999 FEW015 BKN022 M05/M07 Q1020=
200502171920 METAR ESMX 171920Z VRB02KT 9999 SCT012 BKN022 M05/M07 Q1021=
200502171850 METAR ESMX 171850Z VRB01KT 9999 BKN011 M05/M07 Q1020=
200502171820 METAR ESMX 171820Z VRB03KT 9999 BKN012 M05/M08 Q1021=
200502171750 METAR ESMX 171750Z 28004KT 9999 BKN013 M05/M08 Q1021=
200502171720 METAR ESMX 171720Z VRB03KT 9999 SCT013 M08/M10 Q1020=
200502171650 METAR ESMX 171650Z VRB02KT CAVOK M08/M09 Q1021=
200502171620 METAR ESMX 171620Z VRB02KT CAVOK M06/M09 Q1021=
200502171550 METAR ESMX 171550Z VRB03KT CAVOK M04/M09 Q1021=
200502171520 METAR ESMX 171520Z 28004KT CAVOK M04/M09 Q1021=
200502171450 METAR ESMX 171450Z 28005KT CAVOK M03/M09 Q1021=
200502171420 METAR ESMX 171420Z 29006KT CAVOK M03/M09 Q1021=
200502171350 METAR ESMX 171350Z 27005KT 240V300 CAVOK M04/M09 Q1021=
200502171320 METAR ESMX 171320Z 27005KT 250V330 CAVOK M04/M09 Q1021=
200502171250 METAR ESMX 171250Z 33005KT 280V010 CAVOK M04/M09 Q1021=
200502171220 METAR ESMX 171220Z 27006KT 240V310 9999 FEW021 M04/M09 Q1022=
200502171150 METAR ESMX 171150Z 29005KT 260V330 9999 FEW020 M04/M09 Q1022=
200502171120 METAR ESMX 171120Z 34006KT 9999 FEW018 M04/M08 Q1022=
200502171050 METAR ESMX 171050Z 35006KT 300V010 9999 FEW018 SCT025 M04/M08 Q1022=
200502171020 METAR ESMX 171020Z 34007KT 9999 FEW020 SCT026 M05/M09 Q1022=
200502170950 METAR ESMX 170950Z 36006KT 9999 FEW014 SCT020 M05/M08 Q1023=
200502170920 METAR ESMX 170920Z 33008KT 9999 FEW020 BKN026 M05/M08 Q1023=
200502170850 METAR ESMX 170850Z 36007KT 9999 -SN OVC026 M05/M08 Q1023=
200502170820 METAR ESMX 170820Z 35006KT 9000 -SN FEW014 OVC025 M06/M08 Q1023=
200502170750 METAR ESMX 170750Z 36007KT 9999 -SHSN FEW015 OVC024 M06/M08 Q1023=
200502170720 METAR ESMX 170720Z 35006KT 9999 -SN OVC023 M06/M08 Q1023=
200502170650 METAR ESMX 170650Z 02005KT 9999 -SHSN FEW016 OVC023 M06/M08 Q1023=
200502170620 METAR ESMX 170620Z 35006KT 9999 -SHSN FEW017 OVC023 M06/M08 Q1023=
200502170550 METAR ESMX 170550Z 35007KT 9999 -SN OVC022 M05/M08 Q1023=
200502170520 METAR ESMX 170520Z 35007KT 9999 -SN OVC022 M05/M08 Q1022=
200502170450 METAR ESMX 170450Z 35006KT 9999 -SN OVC022 M06/M08 Q1022=
200502170420 METAR ESMX 170420Z AUTO 33006KT 9999 OVC022 M06/M08 Q1022=
200502170350 METAR ESMX 170350Z AUTO 36005KT 9999 OVC022 M06/M08 Q1022=
200502170320 METAR ESMX 170320Z AUTO 35005KT 9999 OVC022 M06/M07 Q1022=
200502170250 METAR ESMX 170250Z AUTO 34005KT 9999 OVC022 M06/M07 Q1022=
200502170220 METAR ESMX 170220Z AUTO 34006KT 9999 OVC022 M06/M07 Q1022 RESN=
200502170150 METAR ESMX 170150Z AUTO 34007KT 9999 OVC024 M06/M07 Q1022 RESN=
200502170120 METAR ESMX 170120Z AUTO 35006KT 9999 -SN OVC024 M06/M07 Q1022=
200502170050 METAR ESMX 170050Z 02005KT 9999 -SN FEW015 BKN025 M06/M08 Q1023=
200502170020 METAR ESMX 170020Z 02005KT 9000 -SN OVC024 M06/M08 Q1023=
200502162350 METAR ESMX 162350Z 36008KT 9999 -SN OVC024 M06/M08 Q1024=
200502162320 METAR ESMX 162320Z 01008KT 9999 -SN OVC024 M06/M08 Q1024=
200502162250 METAR ESMX 162250Z 35009KT 8000 -SN OVC025 M06/M08 Q1024=
200502162220 METAR ESMX 162220Z 34007KT 9999 -SN BKN023 M06/M08 Q1024=
200502162150 METAR ESMX 162150Z 35007KT 9999 -SN BKN022 M06/M08 Q1024=
200502162120 METAR ESMX 162120Z 36007KT 9999 -SN BKN023 M06/M08 Q1024=
200502162050 METAR ESMX 162050Z 01006KT 9999 -SN BKN023 M06/M08 Q1024=
200502162020 METAR ESMX 162020Z 01006KT 9999 -SN FEW015 BKN024 M05/M08 Q1024=
200502161950 METAR ESMX 161950Z 36007KT 9999 FEW016 BKN030 M06/M07 Q1024=
200502161920 METAR ESMX 161920Z 01006KT 9999 FEW014 BKN031 M05/M07 Q1024=
200502161850 METAR ESMX 161850Z 01008KT 9999 -SHSN FEW012 SCT016 BKN029 M05/M07 Q1024=
200502161820 METAR ESMX 161820Z 02007KT 340V040 9999 -SHSN SCT014 BKN032 M05/M07 Q1024=
200502161750 METAR ESMX 161750Z 02008KT 9999 -SHSN FEW012 SCT025 BKN030 M05/M07 Q1024=
200502161720 METAR ESMX 161720Z 01009KT 8000 -SHSN BKN015 BKN025 M04/M07 Q1024=
200502161650 METAR ESMX 161650Z 02008KT 9999 -SHSN BKN014 M04/M06 Q1024=
200502161620 METAR ESMX 161620Z 02006KT 9999 FEW015 BKN017 M04/M06 Q1024=
200502161550 METAR ESMX 161550Z 02007KT 350V050 9999 FEW017 BKN020 M04/M07 Q1024=
200502161520 METAR ESMX 161520Z 02009KT 9999 OVC017 M03/M06 Q1024=
200502161450 METAR ESMX 161450Z 03008KT 9999 OVC017 M03/M06 Q1024=
200502161420 METAR ESMX 161420Z 36008KT 9999 OVC016 M03/M06 Q1024 RESN=
200502161350 METAR ESMX 161350Z 36009KT 9999 -SHSN SCT015 BKN020 BKN034 M03/M06 Q1024=
200502161320 METAR ESMX 161320Z 01010KT 340V050 9999 -SHSN OVC016 M03/M06 Q1024=
200502161250 METAR ESMX 161250Z 36009KT 9999 -SN OVC015 M03/M06 Q1025=
200502161220 METAR ESMX 161220Z 02010KT 9999 BKN015 OVC033 M03/M06 Q1025=
200502161150 METAR ESMX 161150Z 03011KT 9999 BKN015 M03/M06 Q1025=
200502161120 METAR ESMX 161120Z 02010KT 9999 BKN015 M03/M06 Q1025=
200502161050 METAR ESMX 161050Z 01009KT 9999 BKN014 BKN028 M03/M06 Q1025=
200502161020 METAR ESMX 161020Z 36011KT 9999 FEW014 SCT026 OVC032 M03/M06 Q1025 RESN=
200502160950 METAR ESMX 160950Z 01011KT 9000 -SN FEW018 BKN028 M04/M06 Q1025=
200502160920 METAR ESMX 160920Z 01011KT 7000 -SN FEW014 OVC027 M04/M06 Q1026=
200502160850 METAR ESMX 160850Z 01008KT 5000 -SN OVC024 M04/M06 Q1026=
200502160820 METAR ESMX 160820Z 01008KT 6000 -SN OVC022 M04/M06 Q1026=
200502160750 METAR ESMX 160750Z 01008KT 6000 -SN OVC019 M04/M06 Q1026=
200502160720 METAR ESMX 160720Z 02007KT 8000 BR FEW013 OVC016 M04/M06 Q1026=
200502160650 METAR ESMX 160650Z 01008KT 9999 FEW013 OVC016 M04/M06 Q1026=
200502160620 METAR ESMX 160620Z 01010KT 340V040 9999 SCT013 OVC018 M04/M06 Q1026=
200502160550 METAR ESMX 160550Z 02010KT 9999 SCT013 OVC018 M04/M06 Q1026=
200502160520 METAR ESMX 160520Z 36011KT 9999 OVC016 M04/M06 Q1026=
200502160450 METAR ESMX 160450Z 01011KT 9999 BKN016 M04/M06 Q1026=
200502160420 METAR ESMX 160420Z AUTO 02010KT 9999 FEW014 OVC016 M04/M06 Q1026=
200502160350 METAR ESMX 160350Z AUTO 01010KT 9999 OVC016 M04/M06 Q1026=
200502160320 METAR ESMX 160320Z AUTO 01010KT 9999 OVC016 M04/M06 Q1026=
200502160250 METAR ESMX 160250Z AUTO 36010KT 9999 FEW013 OVC018 M04/M06 Q1026=
200502160220 METAR ESMX 160220Z AUTO 02012KT 9999 BKN012 OVC019 M04/M06 Q1025=
200502160150 METAR ESMX 160150Z AUTO 01010KT 9999 BKN012 OVC020 M04/M06 Q1025=
200502160120 METAR ESMX 160120Z 36010KT 9999 FEW015 OVC020 M04/M06 Q1025=
200502160050 METAR ESMX 160050Z 01010KT 9999 -SN FEW011 SCT014 BKN020 M04/M06 Q1025 RESN=
200502160020 METAR ESMX 160020Z 01010KT 9999 -SN SCT012 OVC021 M04/M06 Q1026=
200502152350 METAR ESMX 152350Z 02008KT 9000 -SN FEW012 SCT015 OVC020 M04/M06 Q1026=
200502152320 METAR ESMX 152320Z 01008KT 8000 -SHSN BKN012 OVC020 M04/M06 Q1026=
200502152250 METAR ESMX 152250Z 01008KT 9999 -SN FEW016 OVC020 M04/M06 Q1026=
200502152220 METAR ESMX 152220Z 01008KT 9999 -SN OVC021 M04/M06 Q1025=
200502152150 METAR ESMX 152150Z 01010KT 9000 -SN OVC022 M04/M06 Q1025=
200502152120 METAR ESMX 152120Z 36010KT 7000 -SN OVC023 M04/M06 Q1025=
200502152050 METAR ESMX 152050Z 35009KT 8000 -SN OVC025 M04/M06 Q1025=
200502152020 METAR ESMX 152020Z 02008KT 9999 -SN OVC026 M04/M06 Q1025=
200502151950 METAR ESMX 151950Z 36007KT 7000 -SN FEW020 BKN028 M05/M07 Q1024=
200502151920 METAR ESMX 151920Z 02007KT 9999 -SN FEW024 BKN030 M06/M07 Q1024=
200502151850 METAR ESMX 151850Z 01007KT CAVOK M07/M08 Q1024=
200502151820 METAR ESMX 151820Z 02008KT 9999 FEW016 M06/M07 Q1024=
200502151750 METAR ESMX 151750Z 02009KT 9999 SCT016 M05/M07 Q1024=
200502151720 METAR ESMX 151720Z 01009KT 9999 FEW020 M05/M07 Q1023=
200502151650 METAR ESMX 151650Z 02008KT 9999 FEW017 BKN020 M05/M07 Q1023=
200502151620 METAR ESMX 151620Z 02011KT 9999 FEW023 M04/M07 Q1022=
200502151550 METAR ESMX 151550Z 01011KT 9999 BKN017 M04/M07 Q1022=
200502151520 METAR ESMX 151520Z 03012KT 9999 BKN016 OVC022 M03/M07 Q1021=
200502151450 METAR ESMX 151450Z 01009KT 9999 FEW015 BKN017 M03/M06 Q1020=
200502151420 METAR ESMX 151420Z 03012KT 350V070 9999 BKN017 BKN022 M03/M06 Q1020=
200502151350 METAR ESMX 151350Z 04013KT 010V080 9999 BKN019 M03/M07 Q1020=
200502151320 METAR ESMX 151320Z 03013KT 9999 FEW017 BKN020 M03/M06 Q1019=
200502151250 METAR ESMX 151250Z 01012KT 9999 OVC017 M03/M06 Q1019=
200502151220 METAR ESMX 151220Z 03011KT 9999 BKN018 M03/M06 Q1018=
200502151150 METAR ESMX 151150Z 01012KT 9999 BKN019 M03/M07 Q1018=
200502151120 METAR ESMX 151120Z 02012KT 9999 BKN017 M03/M07 Q1017=
200502151050 METAR ESMX 151050Z 02012KT 9999 BKN016 M03/M07 Q1017=
200502151020 METAR ESMX 151020Z 01012KT 9999 BKN017 M04/M07 Q1017=
200502150950 METAR ESMX 150950Z 36012KT 9999 OVC016 M04/M07 Q1016=
200502150920 METAR ESMX 150920Z 02013KT 350V050 9999 BKN016 M04/M07 Q1016=
200502150850 METAR ESMX 150850Z 03012KT 350V050 9999 BKN016 M04/M07 Q1015=
200502150820 METAR ESMX 150820Z 02011KT 9999 BKN016 M04/M07 Q1015 RESN=
200502150750 METAR ESMX 150750Z 02012KT 9999 FEW016 OVC018 M04/M07 Q1014 RESN=
200502150720 METAR ESMX 150720Z 01013KT 9000 -SN BKN016 M04/M07 Q1014=
200502150650 METAR ESMX 150650Z 01013KT 9000 -SN FEW015 BKN017 M05/M07 Q1014=
200502150620 METAR ESMX 150620Z 01011KT 7000 -SN FEW015 BKN020 M05/M07 Q1013=
200502150550 METAR ESMX 150550Z 02009KT 9000 -SN FEW016 BKN020 M05/M07 Q1012=
200502150520 METAR ESMX 150520Z 02010KT 340V050 9999 -SN FEW017 BKN020 M05/M07 Q1012=
200502150450 METAR ESMX 150450Z 02012KT 9999 BKN020 M05/M07 Q1011=
200502150120 METAR ESMX 150120Z 01013KT 5000 SN OVC012 M03/M05 Q1009=
200502150050 METAR ESMX 150050Z 01014KT 4500 -SN SCT010 BKN012 M03/M05 Q1008=
200502150020 METAR ESMX 150020Z 01014KT 9000 BR OVC011 M03/M05 Q1008=
200502142350 METAR ESMX 142350Z 36014KT 9999 SCT011 BKN016 OVC020 M03/M04 Q1007 RESN=
200502142320 METAR ESMX 142320Z 02017KT 350V060 5000 OVC011 M03/M04 Q1007 RESN=
200502142250 METAR ESMX 142250Z 01015KT 9999 -SN FEW010 OVC013 M02/M04 Q1006=
200502142220 METAR ESMX 142220Z 01012KT 8000 -SN SCT009 BKN012 OVC014 M01/M03 Q1006=
200502142120 METAR ESMX 142120Z 03013KT 350V080 9999 -SHSN OVC010 M01/M02 Q1005=
200502142050 METAR ESMX 142050Z 03017KT 9000 -SHSN OVC011 M01/M02 Q1004=
200502142020 METAR ESMX 142020Z 02014KT 340V050 9999 -SHSN FEW014 BKN018 OVC023 M01/M02 Q1004=
200502141950 METAR ESMX 141950Z 03015G26KT 9999 -SN FEW012 BKN015 OVC019 M01/M02 Q1003=
200502141920 METAR ESMX 141920Z 03016KT 9999 -SN FEW012 SCT015 OVC017 M01/M02 Q1002=
200502141850 METAR ESMX 141850Z 04013KT 010V070 9000 -SN FEW006 SCT010 BKN014 M01/M01 Q1002=
200502141820 METAR ESMX 141820Z 03013KT 2300 -SN FEW006 BKN010 OVC015 M00/M01 Q1001=
200502141750 METAR ESMX 141750Z 03011KT 350V060 4300 -SN FEW008 SCT012 BKN015 M00/M00 Q1000=
200502141720 METAR ESMX 141720Z 02011KT 3300 -SN FEW008 BKN010 OVC016 00/M00 Q0999=
200502141650 METAR ESMX 141650Z 02010KT 6000 -SN FEW009 BKN011 OVC016 00/M00 Q0999=
200502141620 METAR ESMX 141620Z 02009KT 350V060 5000 -SN FEW007 BKN010 00/M00 Q0998=
200502141550 METAR ESMX 141550Z 02008KT 3800 -SN FEW005 SCT012 BKN016 00/M00 Q0997=
200502141520 METAR ESMX 141520Z 03008KT 360V060 3000 -SN FEW006 SCT010 BKN014 00/00 Q0996=
200502141450 METAR ESMX 141450Z 04010KT 7000 -SN FEW005 SCT009 BKN010 00/00 Q0995=
200502141420 METAR ESMX 141420Z 02008KT 2300 -SN FEW004 SCT006 OVC008 00/M00 Q0995=
200502141350 METAR ESMX 141350Z 01009KT 2400 -SN FEW009 SCT011 BKN015 00/M00 Q0994=
200502141320 METAR ESMX 141320Z 01011KT 3000 SN FEW008 SCT011 BKN013 M00/M01 Q0993=
200502141250 METAR ESMX 141250Z 01011KT 8000 -SN FEW009 SCT012 OVC014 M00/M02 Q0993=
200502141220 METAR ESMX 141220Z 01012KT 6000 -SN FEW009 BKN011 OVC017 M00/M02 Q0992=
200502141150 METAR ESMX 141150Z 01013KT 9999 -SN OVC010 M01/M02 Q0992=
200502141120 METAR ESMX 141120Z 01014KT 8000 -SN FEW009 OVC011 M01/M02 Q0992=
200502141050 METAR ESMX 141050Z 36013KT 8000 BR BKN011 OVC030 M01/M03 Q0991=
200502141020 METAR ESMX 141020Z 36016KT 9999 BKN011 M01/M03 Q0991=
200502140950 METAR ESMX 140950Z 01014KT 9999 -SHSN BKN011 M01/M03 Q0991=
200502140920 METAR ESMX 140920Z 01015KT 9999 BKN011 M01/M03 Q0990=
200502140850 METAR ESMX 140850Z 01015KT 8000 -SHSN FEW011 BKN014 M01/M03 Q0989=
200502140820 METAR ESMX 140820Z 01016KT 9000 -SN OVC011 M01/M03 Q0989=
200502140750 METAR ESMX 140750Z 36014KT 8000 -SN OVC011 M02/M03 Q0989=
200502140720 METAR ESMX 140720Z 36015KT 6000 -SN FEW011 BKN014 M02/M03 Q0988=
200502140650 METAR ESMX 140650Z 35017KT 9000 -SN BKN014 M02/M03 Q0988=
200502140620 METAR ESMX 140620Z 35017KT 9000 -SN FEW009 SCT013 BKN016 M02/M03 Q0987=
200502140550 METAR ESMX 140550Z 35017KT 2000 -SN FEW009 BKN013 BKN020 M02/M03 Q0987=
200502140520 METAR ESMX 140520Z 35018KT 4600 -SN FEW010 BKN013 M02/M03 Q0986=
200502140450 METAR ESMX 140450Z 34019KT 3500 -SN FEW011 BKN013 OVC017 M02/M03 Q0986=
200502140420 METAR ESMX 140420Z AUTO 35017KT 3000 -SN BKN012 BKN020 M02/M03 Q0986=
200502140350 METAR ESMX 140350Z AUTO 35018KT 9999 -SN OVC012 M02/M03 Q0985=
200502140320 METAR ESMX 140320Z AUTO 35018KT 5000 -SN OVC012 M02/M03 Q0985=
200502140250 METAR ESMX 140250Z AUTO 36018KT 5000 -SN BKN011 OVC016 M02/M03 Q0985=
200502140220 METAR ESMX 140220Z 34018KT 2700 -SN BKN010 OVC015 M02/M03 Q0985=
200502140150 METAR ESMX 140150Z 34018KT 3300 -SN FEW009 SCT011 BKN014 M02/M03 Q0984=
200502140120 METAR ESMX 140120Z 35019KT 2300 BLSN -SN BKN010 BKN014 M02/M03 Q0984=
200502140050 METAR ESMX 140050Z 35021KT 3400 -SN OVC011 M02/M03 Q0984=
200502140020 METAR ESMX 140020Z 35020KT 5000 -SN OVC012 M02/M04 Q0984=
200502132350 METAR ESMX 132350Z 35020KT 6000 -SHSN BKN012 M02/M04 Q0983=
200502132320 METAR ESMX 132320Z 35020KT 4900 -SN BKN013 M02/M04 Q0983=
200502132250 METAR ESMX 132250Z 35019KT 6000 -SN OVC012 M02/M04 Q0982=
200502132220 METAR ESMX 132220Z 35020KT 3900 -SN OVC013 M02/M04 Q0982=
200502132150 METAR ESMX 132150Z 35020KT 2600 -SN OVC014 M02/M03 Q0982=
200502132120 METAR ESMX 132120Z 35021KT 4200 -SN FEW014 BKN016 M02/M03 Q0981=
200502132050 METAR ESMX 132050Z 36019KT 7000 -SN FEW013 BKN018 M02/M03 Q0981=
200502132020 METAR ESMX 132020Z 34019KT 3900 -SN SCT011 BKN017 M02/M03 Q0980=
200502131950 METAR ESMX 131950Z 35021KT 3500 -SN BKN013 M01/M03 Q0980=
200502131920 METAR ESMX 131920Z 35020G32KT 4500 -SN BKN015 M01/M03 Q0979=
200502131850 METAR ESMX 131850Z 36020KT 3600 -SN FEW014 BKN017 BKN020 M01/M03 Q0979=
200502131820 METAR ESMX 131820Z 35020KT 2900 -SN SCT015 OVC020 M01/M02 Q0979=
200502131750 METAR ESMX 131750Z 35019KT 2400 -SN FEW013 SCT017 BKN020 M01/M02 Q0978=
200502131720 METAR ESMX 131720Z 35020KT 3000 -SN SCT013 BKN019 M01/M02 Q0978=
200502131650 METAR ESMX 131650Z 35020KT 2900 -SN FEW008 BKN012 M01/M02 Q0977=
200502131620 METAR ESMX 131620Z 35018KT 1700 -SN FEW006 BKN012 M01/M01 Q0976=
200502131550 METAR ESMX 131550Z 35019KT 3000 -SN FEW013 OVC016 M01/M01 Q0976=
200502131520 METAR ESMX 131520Z 35019G29KT 2600 -SN FEW010 SCT013 OVC016 M01/M01 Q0975=
200502131450 METAR ESMX 131450Z 36017KT 2100 -SN FEW006 SCT011 BKN015 M00/M01 Q0975=
200502131420 METAR ESMX 131420Z 36017KT 2000 -SN FEW009 BKN013 OVC021 M00/M01 Q0975=
200502131350 METAR ESMX 131350Z 36016KT 2000 -SN SCT008 BKN014 M00/M01 Q0974=
200502131320 METAR ESMX 131320Z AUTO 35016KT 3600 -SN FEW009 SCT012 OVC015 M00/M01 Q0974=
200502131250 METAR ESMX 131250Z AUTO 01017KT 2800 -SN FEW009 BKN012 OVC016 M00/M01 Q0973=
200502131220 METAR ESMX 131220Z AUTO 36017KT 2800 -SN FEW007 SCT011 BKN013 M00/M01 Q0973=
200502131150 METAR ESMX 131150Z AUTO 01019KT 1600 -SN FEW008 BKN010 BKN015 M00/M00 Q0972=
200502131120 METAR ESMX 131120Z AUTO 01016KT 2300 -SN FEW008 BKN010 BKN014 M00/M00 Q0972=
200502131050 METAR ESMX 131050Z AUTO 01017KT 1300 R01/1100VP1500D R19/1400D -SN FEW008 BKN010 BKN014 M00/M00 Q0972=
200502131020 METAR ESMX 131020Z AUTO 01016KT 0800 R01/1000N R19/0375V1100N SN ////// M00/M00 Q0971=
200502130950 METAR ESMX 130950Z AUTO 01015KT 0800 R01/1000N R19/1000N SN ////// M00/M00 Q0971=
200502130920 METAR ESMX 130920Z AUTO 01015KT 0750 R01/1000N R19/1000N SN ////// M00/M00 Q0970=
200502130850 METAR ESMX 130850Z AUTO 01015KT 0800 R01/1100D R19/1100N SN ////// M00/M00 Q0970=
200502130820 METAR ESMX 130820Z AUTO 01015KT 1900 -SN ////// M00/M00 Q0970=
200502130750 METAR ESMX 130750Z AUTO 01014KT 2900 -SN ////// M00/M00 Q0970=
200502130720 METAR ESMX 130720Z AUTO 01013KT 2200 -SN ////// M00/M00 Q0969=
200502130650 METAR ESMX 130650Z AUTO 01013KT 1900 -SN ////// M00/M00 Q0969=
200502130620 METAR ESMX 130620Z AUTO 02012KT 3200 -SN ////// M00/M00 Q0969=
200502130550 METAR ESMX 130550Z AUTO 02012KT 9000 -SHSN ////// 00/M00 Q0968=
200502130520 METAR ESMX 130520Z AUTO 02012KT 9000 -SHSN ////// M00/M00 Q0968=
200502130450 METAR ESMX 130450Z AUTO 02012KT 9999 ////// M00/M00 Q0968 RESN=
200502130420 METAR ESMX 130420Z AUTO 02011KT 9999 ////// M00/M00 Q0968 RESN=
200502130350 METAR ESMX 130350Z AUTO 03010KT 360V060 6000 -SHSN ////// 00/M00 Q0968=
200502130320 METAR ESMX 130320Z AUTO 04009KT 020V080 4900 -SN ////// 00/M00 Q0968=
200502130250 METAR ESMX 130250Z AUTO 03010KT 350V080 2300 -SHSN ////// M00/M00 Q0968=
200502130220 METAR ESMX 130220Z AUTO 05009KT 020V080 7000 -SN ////// M00/M00 Q0968=
200502130150 METAR ESMX 130150Z AUTO 05010KT 350V090 3000 -SN ////// M00/M00 Q0968=
200502130120 METAR ESMX 130120Z AUTO 06010KT 020V090 5000 -SN ////// M00/M00 Q0968=
200502130050 METAR ESMX 130050Z AUTO 04010KT 360V080 2000 -SN ////// M00/M01 Q0968=
200502130020 METAR ESMX 130020Z AUTO 06010KT 020V090 1600 -SN ////// M00/M01 Q0969=
200502122350 METAR ESMX 122350Z AUTO 06010KT 020V110 1700 -SN ////// M00/M01 Q0969=
200502122320 METAR ESMX 122320Z AUTO 07010KT 020V120 1600 -SN ////// M00/M01 Q0970=
200502122250 METAR ESMX 122250Z AUTO 08010KT 030V140 2000 -SN ////// M00/M01 Q0970=
200502122220 METAR ESMX 122220Z AUTO 08010G20KT 020V160 1400 R01/P1500N R19/P1500N -SN ////// M00/M01 Q0971=
200502122150 METAR ESMX 122150Z AUTO 08011KT 040V140 3600 -SN ////// M00/M01 Q0972=
200502122120 METAR ESMX 122120Z AUTO 08011KT 030V110 1500 -SN ////// M00/M01 Q0972=
200502122050 METAR ESMX 122050Z AUTO 08010KT 030V140 1400 R01/P1500N R19/P1500N -SN ////// M01/M01 Q0974=
200502122020 METAR ESMX 122020Z AUTO 08011G21KT 030V140 2100 -SN FEW007 BKN010 BKN014 M01/M01 Q0975=
200502121950 METAR ESMX 121950Z AUTO 08012G23KT 050V120 1000 R01/P1500N R19/P1500N SN FEW006 SCT009 M01/M01 Q0976=
200502121920 METAR ESMX 121920Z AUTO 08012G24KT 030V120 0900 R01/P1500N R19/P1500N SN FEW006 SCT009 M01/M01 Q0977=
200502121850 METAR ESMX 121850Z AUTO 08012G23KT 010V120 0750 R01/P1500N R19/P1500N SN FEW006 SCT008 M01/M01 Q0978=
200502121820 METAR ESMX 121820Z AUTO 08011KT 040V140 0800 R01/P1500N R19/P1500N SN FEW006 SCT011 M01/M02 Q0980=
200502121750 METAR ESMX 121750Z AUTO 09011G23KT 040V140 1500 -SN FEW008 SCT011 M01/M02 Q0981=
200502121720 METAR ESMX 121720Z AUTO 09010KT 020V140 1100 R01/P1500N R19/P1500N -SN FEW005 SCT007 BKN008 M01/M02 Q0982=
200502121650 METAR ESMX 121650Z AUTO 09010G21KT 030V140 1400 R01/P1500N R19/P1500N -SN FEW006 SCT010 BKN020 M01/M02 Q0984=
200502121620 METAR ESMX 121620Z AUTO 09010G23KT 020V130 7000 -SN FEW009 SCT022 M01/M04 Q0985=
200502121550 METAR ESMX 121550Z AUTO 09010G20KT 030V140 9999 -SN FEW019 M00/M04 Q0987=
200502121520 METAR ESMX 121520Z AUTO 10010G21KT 050V150 9999 FEW028 SCT049 M00/M03 Q0988=
200502121450 METAR ESMX 121450Z AUTO 09009KT 010V140 9999 FEW019 M00/M02 Q0989=
200502121420 METAR ESMX 121420Z AUTO 10008KT 050V160 9999 FEW017 M00/M01 Q0990=
200502121350 METAR ESMX 121350Z AUTO 11007KT 060V160 9999 FEW053 M00/M01 Q0991=
200502121320 METAR ESMX 121320Z AUTO 12007KT 070V170 9999 FEW011 M00/M00 Q0993=
200502121250 METAR ESMX 121250Z AUTO 12005KT 070V180 8000 BR FEW007 BKN010 BKN017 00/00 Q0994=
200502121220 METAR ESMX 121220Z AUTO 12006KT 080V160 7000 BR FEW006 SCT008 BKN009 00/00 Q0995=
200502121150 METAR ESMX 121150Z 14005KT 100V170 6000 BR FEW001 SCT003 BKN005 00/00 Q0997=
200502121120 METAR ESMX 121120Z 14005KT 110V180 3100 OVC002 00/M00 Q0998 REDZ=
200502121050 METAR ESMX 121050Z 14005KT 1200 R01/P1500N R19/P1500N BR VV002 M00/M00 Q0999 RESN=
200502121020 METAR ESMX 121020Z VRB03KT 0750 R01/1100N R19/1300N FZFG SG VV002 M00/M01 Q1001=
200502120950 METAR ESMX 120950Z 13005KT 090V160 0800 R01/1100N R19/1300N FZFG VV002 M01/M01 Q1001=
200502120920 METAR ESMX 120920Z 15004KT 090V190 0650 R01/1000N R19/1200D FZFG VV002 M01/M01 Q1002=
200502120850 METAR ESMX 120850Z 16005KT 120V190 0450 R01/0800N R19/0900N FZFG VV002 M02/M02 Q1003=
200502120820 METAR ESMX 120820Z 15005KT 100V190 0700 R01/0900V1400D R19/P1500N FZFG VV002 M02/M02 Q1004=
200502120750 METAR ESMX 120750Z 15004KT 100V170 0650 R01/0900VP1500N R19/1300N FZFG VV002 M02/M02 Q1004=
200502120720 METAR ESMX 120720Z 17005KT 0600 R01/1100D R19/1300N FZFG VV002 M02/M02 Q1004=
200502120650 METAR ESMX 120650Z 17005KT 0550 R01/1300D R19/1400D FZFG VV002 M01/M01 Q1005=
200502120620 METAR ESMX 120620Z AUTO VRB02KT 0600 R01/P1500N R19/P1500N FG VV001 M01/M01 Q1005=
200502120550 METAR ESMX 120550Z AUTO 18005KT 1000 R01/P1500N R19/P1500N VV002 M01/M01 Q1006=
200502120520 METAR ESMX 120520Z AUTO 20006KT 1100 R01/P1500N R19/P1500N OVC001 M01/M01 Q1007=
200502120450 METAR ESMX 120450Z AUTO 22005KT 1000 R01/P1500N R19/P1500N FG VV002 M01/M01 Q1007=
200502120420 METAR ESMX 120420Z AUTO 23004KT 190V260 0900 R01/P1500N R19/P1500N FG VV001 M01/M01 Q1007=
200502120350 METAR ESMX 120350Z AUTO 21005KT 190V270 0400 R01/1300N R19/1300N FG VV001 M01/M02 Q1008=
200502120320 METAR ESMX 120320Z AUTO 24004KT 0500 R01/P1500N R19/P1500N FG VV001 M02/M02 Q1008=
200502120250 METAR ESMX 120250Z AUTO 23006KT 0450 R01/P1500U R19/P1500N FG VV001 M02/M02 Q1009=
200502120220 METAR ESMX 120220Z AUTO 22004KT 6000 BR FEW001 OVC002 M03/M03 Q1009=
200502120150 METAR ESMX 120150Z AUTO 18004KT 9999 FEW004 M03/M04 Q1009=
200502120120 METAR ESMX 120120Z AUTO 19005KT 9999 NSC M04/M05 Q1010=
200502120050 METAR ESMX 120050Z AUTO VRB02KT 9999 NSC M04/M04 Q1010=
200502120020 METAR ESMX 120020Z AUTO VRB01KT 9999 FEW009 M03/M03 Q1010=
200502112350 METAR ESMX 112350Z AUTO 24004KT 9999 NSC M03/M03 Q1011=
200502112320 METAR ESMX 112320Z AUTO 24004KT 9999 NSC M03/M03 Q1011=
200502112250 METAR ESMX 112250Z AUTO 20006KT 9999 NSC M03/M04 Q1011=
200502112220 METAR ESMX 112220Z AUTO 20007KT 9999 NSC M03/M04 Q1011=
200502112150 METAR ESMX 112150Z AUTO 21006KT 9999 NSC M02/M03 Q1011=
200502112120 METAR ESMX 112120Z AUTO 23006KT 9999 NSC M02/M03 Q1011=
200502112050 METAR ESMX 112050Z 25006KT CAVOK M02/M03 Q1011=
200502112020 METAR ESMX 112020Z 24007KT CAVOK M01/M03 Q1011=
200502111950 METAR ESMX 111950Z 26008KT CAVOK M01/M03 Q1011=
200502111920 METAR ESMX 111920Z 26007KT CAVOK M00/M03 Q1011=
200502111850 METAR ESMX 111850Z 27007KT 240V300 CAVOK M00/M03 Q1011=
200502111820 METAR ESMX 111820Z 24006KT 190V280 CAVOK M00/M03 Q1011=
200502111750 METAR ESMX 111750Z 25006KT CAVOK 00/M02 Q1011=
200502111720 METAR ESMX 111720Z 24005KT CAVOK 00/M02 Q1011=
200502111650 METAR ESMX 111650Z 25005KT CAVOK 01/M02 Q1011=
200502111620 METAR ESMX 111620Z VRB03KT CAVOK 01/M02 Q1010=
200502111550 METAR ESMX 111550Z 25004KT CAVOK 02/M01 Q1010=
200502111520 METAR ESMX 111520Z 25005KT 200V290 9999 FEW020 03/M01 Q1010=
200502111450 METAR ESMX 111450Z 27006KT 240V300 9999 FEW020 03/M01 Q1010=
200502111420 METAR ESMX 111420Z 27008KT 230V290 9999 FEW020 03/M01 Q1009=
200502111350 METAR ESMX 111350Z 26009KT 9999 FEW020 03/M01 Q1009=
200502111320 METAR ESMX 111320Z 26008KT 200V300 9999 FEW020 03/M01 Q1009=
200502111250 METAR ESMX 111250Z 26009KT 220V290 9999 FEW020 03/M00 Q1009=
200502111220 METAR ESMX 111220Z 27009KT 240V300 9999 FEW020 SCT030 04/00 Q1009=
200502111150 METAR ESMX 111150Z 26007KT 9999 FEW020 SCT035 03/M00 Q1009=
200502111120 METAR ESMX 111120Z 26007KT 230V300 9999 FEW016 BKN030 03/M00 Q1008=
200502111050 METAR ESMX 111050Z 26009KT 230V290 9999 FEW017 BKN025 02/M00 Q1008=
200502111020 METAR ESMX 111020Z 28008KT 250V310 9999 FEW015 BKN018 02/M00 Q1008=
200502110920 METAR ESMX 110920Z 25007KT 230V290 9999 SCT014 02/M00 Q1007=
200502110850 METAR ESMX 110850Z 25009KT 9999 FEW016 SCT020 02/M00 Q1007=
200502110820 METAR ESMX 110820Z 26008KT 210V290 9999 FEW016 SCT019 01/M01 Q1007=
200502110750 METAR ESMX 110750Z 26008KT 230V290 9999 SCT014 01/M01 Q1007=
200502110720 METAR ESMX 110720Z 25007KT 9999 SCT016 00/M01 Q1006=
200502110650 METAR ESMX 110650Z 26008KT 200V290 9999 SCT020 01/M01 Q1006=
200502110620 METAR ESMX 110620Z 25009KT 220V290 9999 SCT020 BKN025 01/M01 Q1006=
200502110550 METAR ESMX 110550Z 27008KT 210V300 9999 FEW014 BKN023 01/M01 Q1005=
200502110520 METAR ESMX 110520Z 26007KT 9999 FEW013 BKN023 01/M00 Q1005=
200502110450 METAR ESMX 110450Z 25008KT 9999 -SHSN SCT014 BKN019 01/M00 Q1004=
200502110420 METAR ESMX 110420Z AUTO 26007KT 230V290 9999 DZ FEW016 SCT024 OVC029 01/M00 Q1004=
200502110350 METAR ESMX 110350Z AUTO 25009KT 220V290 9999 FEW014 SCT019 OVC026 01/M00 Q1004=
200502110320 METAR ESMX 110320Z AUTO 25008KT 210V280 9999 FEW013 SCT020 BKN028 01/M00 Q1004 RERA=
200502110250 METAR ESMX 110250Z AUTO 25009KT 210V280 9999 FEW009 BKN013 BKN019 01/M00 Q1004 RERA=
200502110220 METAR ESMX 110220Z AUTO 24012KT 200V270 7000 -SHRA FEW008 SCT010 BKN014 01/00 Q1004=
200502110150 METAR ESMX 110150Z AUTO 22011KT 4300 -SHRA FEW008 BKN012 BKN033 00/M00 Q1003=
200502110120 METAR ESMX 110120Z AUTO 23011KT 8000 -SN FEW006 SCT015 00/M00 Q1004=
200502110050 METAR ESMX 110050Z 22010KT 4500 -RA FEW005 SCT016 BKN043 01/M00 Q1004=
200502102350 METAR ESMX 102350Z 24010KT 200V270 9999 FEW009 SCT013 BKN016 01/M00 Q1003=
200502102320 METAR ESMX 102320Z 21008KT 9999 FEW009 SCT017 BKN020 01/00 Q1004=
200502102250 METAR ESMX 102250Z 23009KT 9999 -SHRA FEW006 SCT009 BKN010 01/00 Q1004=
200502102220 METAR ESMX 102220Z 21009KT 9000 -RASN FEW007 SCT009 BKN011 01/00 Q1004=
200502102150 METAR ESMX 102150Z 23010KT 9999 FEW009 SCT015 01/00 Q1004=
200502102120 METAR ESMX 102120Z 21010KT 9999 FEW028 SCT038 01/M00 Q1004=
200502102050 METAR ESMX 102050Z 23009KT 9999 FEW032 00/M00 Q1004=
200502102020 METAR ESMX 102020Z 21009KT 9999 FEW007 SCT009 00/M00 Q1004=
200502101950 METAR ESMX 101950Z 22010KT 190V260 9999 FEW006 BKN009 01/00 Q1004=
200502101920 METAR ESMX 101920Z 24010KT 200V280 1400 R01/P1500N R19/P1500N SHSN FEW002 SCT009 BKN027 00/M00 Q1004=
200502101850 METAR ESMX 101850Z 22008KT 9999 FEW013 SCT028 01/M00 Q1004=
200502101820 METAR ESMX 101820Z 21007KT 9999 SCT015 01/M00 Q1004=
200502101750 METAR ESMX 101750Z 23007KT 9999 SCT016 01/M00 Q1004=
200502101720 METAR ESMX 101720Z 23007KT CAVOK 01/M00 Q1004=
200502101650 METAR ESMX 101650Z 23009KT 190V260 9999 -SHRA FEW008 SCT072 01/M00 Q1004=
200502101620 METAR ESMX 101620Z 23007KT 9999 -RA SCT009 BKN045 03/01 Q1003=
200502101550 METAR ESMX 101550Z 23010KT 200V260 9999 FEW017 SCT043 03/01 Q1003=
200502101520 METAR ESMX 101520Z 23010KT 200V260 9999 FEW015 SCT036 03/01 Q1003=
200502101450 METAR ESMX 101450Z 23009KT 190V260 9999 -SHRA FEW010 SCT016 BKN020 03/02 Q1003=
200502101420 METAR ESMX 101420Z 23009KT 9999 FEW010 SCT015 BKN017 03/02 Q1003=
200502101350 METAR ESMX 101350Z 22013KT 9999 SCT008 BKN012 03/02 Q1003=
200502101320 METAR ESMX 101320Z 19013KT 9999 FEW008 SCT012 BKN015 03/02 Q1003 RERA=
200502101250 METAR ESMX 101250Z 22012KT 190V250 9999 FEW007 BKN010 OVC014 03/02 Q1003=
200502101150 METAR ESMX 101150Z 19018KT 4100 RA FEW005 BKN007 OVC010 04/03 Q1003=
200502101120 METAR ESMX 101120Z 19017KT 4500 RA BKN006 04/03 Q1004=
200502101050 METAR ESMX 101050Z 18018G28KT 5000 -RA FEW006 SCT007 BKN008 04/03 Q1004=
200502101020 METAR ESMX 101020Z 18018KT 4900 -RA BR BKN006 OVC009 04/03 Q1004=
200502100950 METAR ESMX 100950Z 18017KT 4500 -RA BR BKN006 03/03 Q1005=
200502100920 METAR ESMX 100920Z 17017KT 140V200 4600 -RA BR BKN005 OVC008 03/03 Q1006=
200502100850 METAR ESMX 100850Z 17018KT 3500 -RA BR FEW003 OVC004 03/02 Q1007=
200502100820 METAR ESMX 100820Z 17015KT 1900 -RA BR OVC002 03/02 Q1007=
200502100750 METAR ESMX 100750Z 17016KT 1100 R01/P1500N R19/P1500N -RA BR OVC001 02/02 Q1008=
200502100720 METAR ESMX 100720Z 18015KT 1500 -RA OVC001 02/02 Q1009=
200502100650 METAR ESMX 100650Z 17015KT 2100 -RASN OVC002 02/02 Q1009=
200502100620 METAR ESMX 100620Z 17015KT 3300 -RASN OVC003 02/01 Q1010=
200502100550 METAR ESMX 100550Z 18012KT 3000 -RASN OVC003 01/01 Q1011=
200502100520 METAR ESMX 100520Z 17012KT 2100 BR -SN OVC003 01/00 Q1012=
200502100450 METAR ESMX 100450Z 16012KT 3100 BR -SN OVC003 01/00 Q1012=
200502100420 METAR ESMX 100420Z AUTO 18013KT 140V200 3400 DZ OVC004 00/M00 Q1013=
200502100350 METAR ESMX 100350Z AUTO 16011KT 140V200 2700 -SN OVC004 00/M00 Q1014=
200502100320 METAR ESMX 100320Z AUTO 16012KT 130V190 2800 -SN OVC004 M00/M01 Q1014=
200502100250 METAR ESMX 100250Z AUTO 16010KT 2900 -SN OVC005 M00/M01 Q1015=
200502100220 METAR ESMX 100220Z AUTO 16011KT 130V190 3100 -SN OVC007 M01/M02 Q1016=
200502100150 METAR ESMX 100150Z AUTO 16009KT 110V190 3100 -SHSN FEW008 SCT009 BKN011 M01/M02 Q1017=
200502100120 METAR ESMX 100120Z AUTO 17011KT 4400 -SHSN OVC008 M01/M03 Q1017=
200502100050 METAR ESMX 100050Z 16010KT 4500 -SHSN OVC008 M01/M03 Q1018=
200502092320 METAR ESMX 092320Z 17012KT 5000 BR OVC009 M01/M03 Q1020=
200502092250 METAR ESMX 092250Z 16010KT 120V180 5000 BR OVC008 M01/M03 Q1021=
200502092220 METAR ESMX 092220Z 17010KT 6000 BR OVC008 M01/M03 Q1022=
200502092150 METAR ESMX 092150Z 17012KT 6000 BR OVC008 M01/M03 Q1022=
200502092120 METAR ESMX 092120Z 17014KT 6000 BR FEW009 OVC011 M01/M03 Q1023=
200502092050 METAR ESMX 092050Z 18009KT 150V220 7000 BR OVC011 M01/M03 Q1023=
200502092020 METAR ESMX 092020Z 17011KT 7000 BR OVC010 M01/M03 Q1024=
200502091950 METAR ESMX 091950Z 17011KT 6000 BR OVC010 M01/M03 Q1024=
200502091920 METAR ESMX 091920Z 17011KT 130V200 6000 BR OVC009 M01/M03 Q1024=
200502091850 METAR ESMX 091850Z 17010KT 130V200 6000 BR OVC008 M01/M03 Q1024=
200502091820 METAR ESMX 091820Z 16010KT 120V190 6000 BR BKN008 M02/M03 Q1024=
200502091750 METAR ESMX 091750Z 16008KT 120V190 7000 BR BKN010 M02/M04 Q1025=
200502091720 METAR ESMX 091720Z 16006KT 7000 BR FEW012 M02/M04 Q1025=
200502091650 METAR ESMX 091650Z 16009KT 130V190 8000 BR SKC M01/M04 Q1025=
200502091620 METAR ESMX 091620Z 17006KT 9000 BR SKC M02/M05 Q1026=
200502091550 METAR ESMX 091550Z 16007KT CAVOK M00/M05 Q1026=
200502091520 METAR ESMX 091520Z 15007KT CAVOK 01/M05 Q1026=
200502091450 METAR ESMX 091450Z 16007KT CAVOK 01/M05 Q1026=
200502091420 METAR ESMX 091420Z 15007KT 120V190 CAVOK 02/M04 Q1026=
200502091350 METAR ESMX 091350Z 17008KT CAVOK 02/M04 Q1027=
200502091320 METAR ESMX 091320Z 18008KT CAVOK 02/M04 Q1027=
200502091250 METAR ESMX 091250Z 18008KT 140V200 CAVOK 02/M04 Q1027=
200502091220 METAR ESMX 091220Z 18010KT 130V200 9000 BR NSC 02/M04 Q1028=
200502091150 METAR ESMX 091150Z 17009KT 140V200 8000 BR SKC 01/M04 Q1028=
200502091120 METAR ESMX 091120Z 18009KT 5000 BR SKC 01/M02 Q1028=
200502091050 METAR ESMX 091050Z 18009KT 6000 BR SKC 00/M02 Q1028=
200502091020 METAR ESMX 091020Z 16007KT 130V200 6000 BR NSC M01/M03 Q1029=
200502090950 METAR ESMX 090950Z 18007KT 5000 BR NSC M02/M03 Q1029=
200502090920 METAR ESMX 090920Z 17004KT 5000 BR NSC M03/M04 Q1029=
200502090850 METAR ESMX 090850Z VRB03KT 5000 BR NSC M04/M05 Q1029=
200502090820 METAR ESMX 090820Z 16005KT 5000 BR NSC M05/M06 Q1029=
200502090750 METAR ESMX 090750Z 15006KT 110V180 5000 BR NSC M06/M07 Q1029=
200502090720 METAR ESMX 090720Z 13004KT 4900 BR FEW032 M07/M07 Q1029=
200502090650 METAR ESMX 090650Z VRB03KT 5000 BR FEW035 M07/M08 Q1029=
200502090620 METAR ESMX 090620Z 13004KT 100V170 5000 BR NSC M07/M08 Q1029=
200502090550 METAR ESMX 090550Z VRB03KT 5000 BR NSC M07/M08 Q1029=
200502090520 METAR ESMX 090520Z VRB03KT 5000 BR NSC M07/M08 Q1029=
200502090450 METAR ESMX 090450Z 14005KT 110V170 6000 BR NSC M07/M08 Q1029=
200502090420 METAR ESMX 090420Z AUTO 15004KT 6000 BR NSC M07/M08 Q1029=
200502090350 METAR ESMX 090350Z AUTO 15004KT 6000 BR NSC M07/M08 Q1029=
200502090320 METAR ESMX 090320Z AUTO 14004KT 110V170 7000 BR NSC M06/M08 Q1029=
200502090250 METAR ESMX 090250Z AUTO 14005KT 100V170 7000 BR NSC M06/M07 Q1029=
200502090220 METAR ESMX 090220Z AUTO 13005KT 7000 BR NSC M07/M08 Q1030=
200502090150 METAR ESMX 090150Z AUTO VRB03KT 7000 BR NSC M07/M08 Q1030=
200502090120 METAR ESMX 090120Z VRB03KT 7000 BR NSC M08/M09 Q1030=
200502090050 METAR ESMX 090050Z 13004KT 8000 BR NSC M06/M07 Q1030=
200502090020 METAR ESMX 090020Z 13004KT 100V170 8000 BR NSC M06/M07 Q1030=
200502082350 METAR ESMX 082350Z 13004KT 9000 NSC M06/M07 Q1030=
200502082320 METAR ESMX 082320Z 13004KT 090V160 9000 NSC M06/M07 Q1030=
200502082250 METAR ESMX 082250Z 15004KT 9000 NSC M06/M07 Q1031=
200502082220 METAR ESMX 082220Z 13004KT CAVOK M06/M07 Q1031=
200502082150 METAR ESMX 082150Z 13004KT 110V170 CAVOK M06/M07 Q1031=
200502082120 METAR ESMX 082120Z 13004KT 100V160 CAVOK M05/M06 Q1031=
200502082050 METAR ESMX 082050Z 14004KT CAVOK M05/M06 Q1031=
200502082020 METAR ESMX 082020Z VRB03KT CAVOK M04/M06 Q1031=
200502081950 METAR ESMX 081950Z 13004KT 090V160 CAVOK M04/M06 Q1031=
200502081920 METAR ESMX 081920Z 14005KT 110V170 CAVOK M03/M06 Q1031=
200502081850 METAR ESMX 081850Z 14004KT 100V170 CAVOK M03/M06 Q1031=
200502081820 METAR ESMX 081820Z 15005KT 120V190 CAVOK M02/M06 Q1031=
200502081750 METAR ESMX 081750Z 13005KT 080V150 CAVOK M02/M07 Q1031=
200502081720 METAR ESMX 081720Z 13004KT 090V170 CAVOK M02/M09 Q1031=
200502081650 METAR ESMX 081650Z 12004KT 080V160 CAVOK M01/M09 Q1031=
200502081620 METAR ESMX 081620Z 12004KT 070V160 CAVOK M01/M10 Q1031=
200502081550 METAR ESMX 081550Z 13004KT 060V160 CAVOK M00/M10 Q1031=
200502081520 METAR ESMX 081520Z VRB03KT CAVOK 01/M10 Q1032=
200502081450 METAR ESMX 081450Z 14007KT 110V190 CAVOK 01/M10 Q1032=
200502081420 METAR ESMX 081420Z 15008KT 100V200 CAVOK 01/M10 Q1032=
200502081350 METAR ESMX 081350Z 15007KT 110V210 CAVOK 01/M07 Q1032=
200502081320 METAR ESMX 081320Z 15008KT 120V200 CAVOK 01/M06 Q1032=
200502081250 METAR ESMX 081250Z 15008KT 110V170 CAVOK 01/M06 Q1032=
200502081220 METAR ESMX 081220Z 13007KT 090V180 CAVOK 01/M05 Q1033=
200502081150 METAR ESMX 081150Z 13006KT 070V160 CAVOK 00/M04 Q1033=
200502081120 METAR ESMX 081120Z 13008KT 080V210 CAVOK M00/M04 Q1033=
200502081050 METAR ESMX 081050Z 12006KT 090V170 CAVOK M01/M04 Q1033=
200502081020 METAR ESMX 081020Z 14007KT 090V180 CAVOK M02/M04 Q1033=
200502080950 METAR ESMX 080950Z 14006KT 100V170 CAVOK M02/M04 Q1033=
200502080920 METAR ESMX 080920Z 13005KT 060V160 CAVOK M03/M05 Q1033=
200502080850 METAR ESMX 080850Z 15004KT 100V190 9000 BR SKC M03/M05 Q1033=
200502080820 METAR ESMX 080820Z VRB03KT CAVOK M04/M06 Q1033=
200502080750 METAR ESMX 080750Z 12004KT 090V170 9000 BR SKC M05/M06 Q1033=
200502080720 METAR ESMX 080720Z 13004KT 080V160 9000 BR SKC M06/M07 Q1033=
200502080650 METAR ESMX 080650Z 13004KT 090V160 9000 BR SKC M06/M07 Q1033=
200502080620 METAR ESMX 080620Z VRB03KT 9000 BR SKC M06/M07 Q1033=
200502080550 METAR ESMX 080550Z 15004KT 9000 BR NSC M06/M07 Q1033=
200502080520 METAR ESMX 080520Z 14004KT 120V180 9000 BR NSC M07/M07 Q1033=
200502080450 METAR ESMX 080450Z 15004KT 8000 BR NSC M07/M08 Q1033=
200502080420 METAR ESMX 080420Z AUTO VRB03KT 9000 BR NSC M07/M08 Q1033=
200502080350 METAR ESMX 080350Z AUTO 14004KT 110V180 9000 BR NSC M10/M10 Q1034=
200502080320 METAR ESMX 080320Z AUTO 00000KT 6000 BR NSC M11/M11 Q1034=
200502080250 METAR ESMX 080250Z AUTO VRB02KT 9000 NSC M10/M11 Q1034=
200502080220 METAR ESMX 080220Z AUTO VRB02KT 9000 NSC M09/M10 Q1034=
200502080150 METAR ESMX 080150Z AUTO VRB03KT 9999 NSC M07/M08 Q1034=
200502080120 METAR ESMX 080120Z 14004KT 110V170 CAVOK M07/M08 Q1034=
200502080050 METAR ESMX 080050Z 14004KT 9999 BR NSC M07/M08 Q1034=
200502072350 METAR ESMX 072350Z VRB02KT 9000 BR NSC M09/M10 Q1034=
200502072320 METAR ESMX 072320Z VRB02KT 9000 BR NSC M08/M08 Q1034=
200502072250 METAR ESMX 072250Z VRB02KT 8000 BR NSC M06/M07 Q1034=
200502072220 METAR ESMX 072220Z VRB02KT 7000 BR NSC M06/M07 Q1034=
200502072150 METAR ESMX 072150Z VRB02KT 6000 BR NSC M06/M07 Q1034=
200502072120 METAR ESMX 072120Z VRB03KT 7000 BR NSC M05/M06 Q1034=
200502072050 METAR ESMX 072050Z VRB03KT 7000 BR FEW010 M05/M06 Q1034=
200502072020 METAR ESMX 072020Z 14004KT 110V190 7000 BR FEW010 M04/M05 Q1035=
200502071950 METAR ESMX 071950Z 15004KT 110V190 8000 BR FEW010 M04/M05 Q1035=
200502071920 METAR ESMX 071920Z 16005KT 8000 BR FEW008 M04/M05 Q1034=
200502071850 METAR ESMX 071850Z 14006KT 9999 FEW008 M03/M05 Q1034=
200502071820 METAR ESMX 071820Z 15006KT 120V200 CAVOK M03/M05 Q1034=
200502071750 METAR ESMX 071750Z 15004KT 120V190 CAVOK M03/M05 Q1034=
200502071720 METAR ESMX 071720Z 15004KT 100V180 CAVOK M02/M05 Q1034=
200502071650 METAR ESMX 071650Z VRB03KT CAVOK M02/M05 Q1034=
200502071620 METAR ESMX 071620Z VRB02KT CAVOK M03/M05 Q1034=
200502071550 METAR ESMX 071550Z VRB03KT CAVOK M01/M05 Q1034=
200502071520 METAR ESMX 071520Z 13004KT 090V170 CAVOK 00/M05 Q1035=
200502071450 METAR ESMX 071450Z 13004KT 100V170 CAVOK 01/M04 Q1035=
200502071350 METAR ESMX 071350Z 15005KT 120V190 CAVOK 01/M04 Q1035=
200502071320 METAR ESMX 071320Z 14005KT 080V170 CAVOK 01/M04 Q1035=
200502071250 METAR ESMX 071250Z 15004KT 110V190 CAVOK 01/M03 Q1035=
200502071220 METAR ESMX 071220Z 16005KT 110V180 CAVOK 00/M04 Q1035=
200502071150 METAR ESMX 071150Z 15005KT 110V210 9999 FEW013 M00/M04 Q1035=
200502071120 METAR ESMX 071120Z 15006KT 110V190 9999 FEW012 M01/M04 Q1035=
200502071050 METAR ESMX 071050Z 17008KT 140V210 9999 FEW011 M01/M04 Q1035=
200502071020 METAR ESMX 071020Z 16007KT 110V190 9999 FEW010 M01/M04 Q1035=
200502070950 METAR ESMX 070950Z 16006KT 9000 BR NSC M02/M04 Q1035=
200502070920 METAR ESMX 070920Z 16005KT 110V190 9000 BR NSC M03/M04 Q1035=
200502070850 METAR ESMX 070850Z 15004KT 090V170 8000 BR NSC M03/M04 Q1035=
200502070820 METAR ESMX 070820Z VRB03KT 8000 BR NSC M05/M05 Q1035=
200502070750 METAR ESMX 070750Z VRB02KT 8000 BR NSC M06/M07 Q1035=
200502070720 METAR ESMX 070720Z VRB02KT 8000 BR NSC M07/M08 Q1035=
200502070650 METAR ESMX 070650Z VRB03KT 9000 BR NSC M09/M10 Q1035=
200502070620 METAR ESMX 070620Z VRB03KT 8000 BR NSC M09/M10 Q1035=
200502070550 METAR ESMX 070550Z VRB02KT 8000 BR NSC M09/M10 Q1035=
200502070520 METAR ESMX 070520Z VRB01KT 7000 BR NSC M09/M10 Q1035=
200502070450 METAR ESMX 070450Z VRB02KT 7000 BR NSC M10/M10 Q1035=
200502070420 METAR ESMX 070420Z AUTO VRB02KT 7000 BR NSC M10/M11 Q1035=
200502070350 METAR ESMX 070350Z AUTO VRB02KT 5000 BR NSC M09/M10 Q1035=
200502070320 METAR ESMX 070320Z AUTO VRB01KT 5000 BR NSC M09/M10 Q1035=
200502070250 METAR ESMX 070250Z AUTO VRB01KT 5000 BR NSC M09/M09 Q1035=
200502070220 METAR ESMX 070220Z AUTO VRB01KT 5000 BR NSC M09/M09 Q1035=
200502070150 METAR ESMX 070150Z AUTO VRB01KT 5000 BR NSC M09/M10 Q1035=
200502070120 METAR ESMX 070120Z 00000KT 5000 BR NSC M09/M09 Q1036=
200502070050 METAR ESMX 070050Z VRB01KT 1800 BR NSC M08/M08 Q1036=
200502070020 METAR ESMX 070020Z VRB01KT 3700 BR NSC M07/M07 Q1035=
200502062350 METAR ESMX 062350Z VRB02KT 3400 BR NSC M06/M07 Q1035=
200502062320 METAR ESMX 062320Z VRB02KT 3500 BR NSC M06/M06 Q1035=
200502062250 METAR ESMX 062250Z VRB01KT 3900 BR NSC M05/M06 Q1036=
200502062220 METAR ESMX 062220Z VRB02KT 4900 BR BKN006 M05/M06 Q1036=
200502062150 METAR ESMX 062150Z VRB03KT 5000 BR BKN007 M04/M05 Q1036=
200502062120 METAR ESMX 062120Z 14004KT 6000 BR BKN006 M04/M05 Q1035=
200502062050 METAR ESMX 062050Z 17005KT 6000 BR OVC006 M04/M05 Q1036=
200502062020 METAR ESMX 062020Z 14005KT 110V170 5000 BR OVC007 M04/M05 Q1036=
200502061920 METAR ESMX 061920Z 14006KT 100V170 5000 BR OVC007 M04/M05 Q1035=
200502061850 METAR ESMX 061850Z 16006KT 5000 BR OVC008 M04/M05 Q1035=
200502061820 METAR ESMX 061820Z 16004KT 110V180 6000 BR BKN010 M04/M05 Q1035=
200502061750 METAR ESMX 061750Z VRB03KT 6000 BR BKN011 M04/M05 Q1035=
200502061720 METAR ESMX 061720Z VRB03KT 7000 BR FEW013 M04/M05 Q1035=
200502061650 METAR ESMX 061650Z VRB03KT 6000 BR SCT013 M03/M05 Q1035=
200502061620 METAR ESMX 061620Z VRB03KT 7000 BR SCT013 M03/M05 Q1035=
200502061550 METAR ESMX 061550Z VRB03KT 8000 BR FEW015 M03/M05 Q1035=
200502061520 METAR ESMX 061520Z 16004KT 8000 BR FEW015 M02/M05 Q1035=
200502061450 METAR ESMX 061450Z 15005KT 080V190 8000 BR FEW015 M02/M05 Q1035=
200502061420 METAR ESMX 061420Z 14004KT 080V170 8000 BR SCT015 M01/M04 Q1035=
200502061320 METAR ESMX 061320Z AUTO 18005KT 120V200 8000 BR SCT013 M01/M04 Q1035=
200502061250 METAR ESMX 061250Z AUTO 15005KT 100V190 6000 BR FEW014 M02/M05 Q1035=
200502061220 METAR ESMX 061220Z AUTO 16005KT 080V170 8000 BR SCT012 M02/M05 Q1035=
200502061150 METAR ESMX 061150Z AUTO 17005KT 8000 BR BKN011 M01/M04 Q1035=
200502061120 METAR ESMX 061120Z AUTO 15004KT 090V200 7000 BR OVC011 M02/M04 Q1035=
200502061050 METAR ESMX 061050Z AUTO 15004KT 100V180 8000 BR BKN012 M02/M04 Q1035=
200502061020 METAR ESMX 061020Z AUTO 15006KT 110V180 8000 BR BKN011 M02/M05 Q1035=
200502060950 METAR ESMX 060950Z AUTO 14006KT 080V190 8000 BR OVC011 M02/M05 Q1035=
200502060920 METAR ESMX 060920Z AUTO 17006KT 120V200 8000 BR OVC011 M02/M04 Q1035=
200502060850 METAR ESMX 060850Z AUTO 17006KT 110V190 8000 BR OVC010 M02/M04 Q1035=
200502060820 METAR ESMX 060820Z AUTO 14007KT 110V170 7000 BR OVC010 M03/M04 Q1034=
200502060750 METAR ESMX 060750Z AUTO 14005KT 100V190 8000 BR OVC009 M02/M04 Q1034=
200502060720 METAR ESMX 060720Z AUTO 14007KT 120V190 8000 BR OVC010 M03/M05 Q1034=
200502060650 METAR ESMX 060650Z AUTO 16008KT 100V180 8000 BR OVC010 M03/M05 Q1033=
200502060620 METAR ESMX 060620Z AUTO 15006KT 110V170 7000 BR OVC011 M03/M04 Q1033=
200502060550 METAR ESMX 060550Z AUTO 14006KT 110V190 8000 BR OVC010 M03/M04 Q1033=
200502060520 METAR ESMX 060520Z AUTO 14007KT 100V190 7000 BR OVC011 M03/M04 Q1033=
200502060450 METAR ESMX 060450Z AUTO 16006KT 110V200 7000 BR BKN011 M02/M04 Q1033=
200502060420 METAR ESMX 060420Z AUTO 14006KT 090V180 7000 BR OVC011 M02/M04 Q1032=
200502060350 METAR ESMX 060350Z AUTO 14005KT 110V190 7000 BR BKN011 M02/M04 Q1032=
200502060320 METAR ESMX 060320Z AUTO 15006KT 110V180 7000 BR SCT011 M03/M04 Q1032=
200502060250 METAR ESMX 060250Z AUTO 15005KT 120V190 7000 BR BKN011 M02/M04 Q1032=
200502060220 METAR ESMX 060220Z AUTO 14005KT 100V170 6000 BR FEW012 M03/M04 Q1032=
200502060150 METAR ESMX 060150Z AUTO 14005KT 110V170 6000 BR NSC M02/M04 Q1032=
200502060120 METAR ESMX 060120Z AUTO 14004KT 080V190 6000 BR FEW014 M02/M04 Q1032=
200502060050 METAR ESMX 060050Z AUTO VRB03KT 6000 BR FEW014 M02/M03 Q1032=
200502060020 METAR ESMX 060020Z AUTO 15005KT 110V180 6000 BR FEW014 M02/M03 Q1032=
200502052350 METAR ESMX 052350Z AUTO 15007KT 110V170 6000 BR BKN013 M01/M03 Q1032=
200502052320 METAR ESMX 052320Z AUTO 14006KT 110V170 5000 BR FEW009 OVC012 M01/M02 Q1032=
200502052250 METAR ESMX 052250Z AUTO 16005KT 5000 BR FEW008 SCT009 OVC011 M01/M02 Q1031=
200502052220 METAR ESMX 052220Z AUTO 16004KT 5000 BR OVC010 M01/M02 Q1031=
200502052150 METAR ESMX 052150Z AUTO 15004KT 120V190 5000 BR FEW008 BKN010 M01/M02 Q1031=
200502052120 METAR ESMX 052120Z AUTO 16006KT 130V200 6000 BR SCT010 M01/M02 Q1031=
200502052050 METAR ESMX 052050Z AUTO 16006KT 7000 BR NSC M01/M02 Q1031=
200502052020 METAR ESMX 052020Z AUTO 17006KT 9000 FEW044 M00/M02 Q1030=
200502051950 METAR ESMX 051950Z AUTO 15009KT 9999 FEW012 OVC043 00/M01 Q1030=
200502051920 METAR ESMX 051920Z AUTO 17007KT 9999 FEW009 OVC039 01/M01 Q1030=
200502051850 METAR ESMX 051850Z AUTO 16007KT 9999 BR FEW007 OVC037 01/M00 Q1030=
200502051820 METAR ESMX 051820Z AUTO 16008KT 8000 BR SCT006 BKN009 OVC038 01/00 Q1030=
200502051750 METAR ESMX 051750Z AUTO 16007KT 5000 BR OVC004 01/01 Q1029=
200502051720 METAR ESMX 051720Z AUTO 15008KT 3600 BR OVC003 02/01 Q1029=
200502051650 METAR ESMX 051650Z AUTO 16006KT 4300 BR OVC004 02/01 Q1029=
200502051620 METAR ESMX 051620Z AUTO 16007KT 120V190 4500 BR OVC005 02/01 Q1029=
200502051550 METAR ESMX 051550Z AUTO 16008KT 130V200 4700 BR BKN005 OVC008 02/01 Q1029=
200502051520 METAR ESMX 051520Z AUTO 16009KT 4700 BR SCT006 OVC039 02/01 Q1029=
200502051450 METAR ESMX 051450Z AUTO 17008KT 5000 BR FEW006 SCT008 OVC038 02/01 Q1029=
200502051420 METAR ESMX 051420Z AUTO 16009KT 5000 BR OVC039 03/01 Q1028=
200502051350 METAR ESMX 051350Z AUTO 15009KT 5000 BR FEW016 OVC044 03/01 Q1028=
200502051320 METAR ESMX 051320Z AUTO 15009KT 7000 BR FEW041 OVC047 03/01 Q1029=
200502051250 METAR ESMX 051250Z AUTO 16011KT 7000 BR FEW006 SCT010 OVC051 03/02 Q1028=
200502051220 METAR ESMX 051220Z AUTO 17009KT 9000 BR FEW006 OVC051 03/02 Q1028=
200502051150 METAR ESMX 051150Z 15008KT 7000 BR FEW009 BKN047 03/02 Q1028=
200502051120 METAR ESMX 051120Z 16009KT 130V200 6000 BR SCT008 OVC040 03/02 Q1028=
200502051050 METAR ESMX 051050Z 16008KT 120V190 6000 BR FEW006 BKN008 03/02 Q1028=
200502051020 METAR ESMX 051020Z 17008KT 140V200 6000 BR BKN006 OVC009 03/02 Q1028=
200502050950 METAR ESMX 050950Z 17008KT 5000 BR SCT006 BKN008 03/02 Q1028=
200502050920 METAR ESMX 050920Z 17007KT 5000 BR BKN005 OVC050 03/02 Q1028=
200502050850 METAR ESMX 050850Z 17009KT 4400 BR OVC005 03/02 Q1028=
200502050820 METAR ESMX 050820Z 17007KT 4100 BR BKN004 03/02 Q1028=
200502050750 METAR ESMX 050750Z 17008KT 3900 BR BKN005 BKN050 03/02 Q1028=
200502050720 METAR ESMX 050720Z 18007KT 3400 BR BKN005 BKN050 03/02 Q1028=
200502050650 METAR ESMX 050650Z 18007KT 3000 BR OVC003 03/02 Q1027=
200502050620 METAR ESMX 050620Z AUTO 19008KT 2700 BR OVC003 03/02 Q1027=
200502050550 METAR ESMX 050550Z AUTO 19009KT 2800 BR OVC003 03/02 Q1027=
200502050520 METAR ESMX 050520Z AUTO 19009KT 2700 BR OVC003 03/03 Q1027=
200502050450 METAR ESMX 050450Z AUTO 19009KT 2600 BR OVC003 03/03 Q1027=
200502050420 METAR ESMX 050420Z AUTO 19008KT 2800 BR OVC002 03/03 Q1027=
200502050350 METAR ESMX 050350Z AUTO 19009KT 2500 BR OVC002 03/03 Q1027=
200502050320 METAR ESMX 050320Z AUTO 19009KT 2500 BR OVC001 03/03 Q1027=
200502050250 METAR ESMX 050250Z AUTO 19009KT 2200 OVC002 03/02 Q1027 RERA=
200502050220 METAR ESMX 050220Z AUTO 18008KT 2400 OVC001 03/02 Q1027 RERA=
200502050150 METAR ESMX 050150Z AUTO 19008KT 0750 R01/P1500N R19/P1500N FG VV001 02/02 Q1027=
200502050120 METAR ESMX 050120Z AUTO 19009KT 0500 R01/P1500N R19/P1500N FG VV001 02/02 Q1027=
200502050050 METAR ESMX 050050Z AUTO 19009KT 0500 R01/P1500N R19/P1500D FG VV001 02/02 Q1027=
200502050020 METAR ESMX 050020Z AUTO 18009KT 0600 R01/P1500N R19/P1500U FG VV001 02/02 Q1027=
200502042350 METAR ESMX 042350Z AUTO 18009KT 1100 R01/P1500N R19/P1500N VV002 02/02 Q1027 REDZ=
200502042320 METAR ESMX 042320Z AUTO 17009KT 3000 OVC001 02/02 Q1027 REDZ=
200502042250 METAR ESMX 042250Z AUTO 18008KT 1200 R01/P1500N R19/P1500N -SHRA VV002 02/02 Q1027=
200502042220 METAR ESMX 042220Z AUTO 18009KT 1400 R01/P1500N R19/P1500N BR OVC001 02/02 Q1027=
200502042150 METAR ESMX 042150Z AUTO 18008KT 3900 OVC001 02/02 Q1027 RERA=
200502042120 METAR ESMX 042120Z AUTO 17007KT 2600 -SHRA OVC001 02/02 Q1027=
200502042050 METAR ESMX 042050Z 17008KT 1600 -RA VV002 02/02 Q1027=
200502042020 METAR ESMX 042020Z 17007KT 2100 BR OVC001 02/01 Q1028=
200502041950 METAR ESMX 041950Z 17007KT 3100 BR OVC002 02/02 Q1028=
200502041920 METAR ESMX 041920Z 17008KT 3400 BR OVC002 02/02 Q1028=
200502041850 METAR ESMX 041850Z 18009KT 2900 BR OVC002 02/02 Q1028=
200502041820 METAR ESMX 041820Z 17010KT 150V210 1400 R01/P1500N R19/P1500N BR OVC002 02/01 Q1028=
200502041750 METAR ESMX 041750Z 17010KT 1800 BR OVC001 02/01 Q1028=
200502041720 METAR ESMX 041720Z 17009KT 2200 BR OVC001 02/01 Q1028=
200502041620 METAR ESMX 041620Z 17007KT 2300 BR OVC002 02/01 Q1028=
200502041550 METAR ESMX 041550Z 18006KT 2700 BR OVC002 02/01 Q1028=
200502041520 METAR ESMX 041520Z 20008KT 2300 BR OVC002 02/01 Q1028=
200502041450 METAR ESMX 041450Z 18008KT 3000 BR OVC002 02/01 Q1028=
200502041420 METAR ESMX 041420Z 16008KT 6000 BR OVC003 02/01 Q1028=
200502041350 METAR ESMX 041350Z 17008KT 7000 BR OVC003 02/01 Q1028=
200502041320 METAR ESMX 041320Z 17009KT 7000 BR OVC003 02/01 Q1028=
200502041250 METAR ESMX 041250Z 19008KT 6000 BR OVC003 02/01 Q1029=
200502041220 METAR ESMX 041220Z 17008KT 140V200 5000 BR OVC005 02/01 Q1028=
200502041150 METAR ESMX 041150Z 17009KT 4900 BR OVC004 01/01 Q1028=
200502041120 METAR ESMX 041120Z 17010KT 3600 BR OVC004 01/01 Q1028=
200502041050 METAR ESMX 041050Z 17009KT 7000 BR OVC006 01/00 Q1029=
200502041020 METAR ESMX 041020Z 17007KT 9999 OVC006 01/00 Q1029=
200502040950 METAR ESMX 040950Z 17009KT 9999 OVC006 01/00 Q1029=
200502040920 METAR ESMX 040920Z 17009KT 9999 OVC007 01/M00 Q1029=
200502040850 METAR ESMX 040850Z 17009KT 9999 OVC006 01/M00 Q1029=
200502040820 METAR ESMX 040820Z 16008KT 9999 OVC006 01/M00 Q1029=
200502040750 METAR ESMX 040750Z 16007KT 9999 OVC005 00/M00 Q1029=
200502040720 METAR ESMX 040720Z 16006KT 140V200 9999 OVC004 00/M00 Q1029=
200502040650 METAR ESMX 040650Z 15005KT 120V190 9999 FEW003 OVC005 M00/M00 Q1030=
200502040620 METAR ESMX 040620Z 16005KT 9999 BR SCT003 OVC005 M00/M01 Q1029=
200502040550 METAR ESMX 040550Z 17004KT 9999 BKN003 BKN015 M00/M01 Q1030=
200502040520 METAR ESMX 040520Z 15005KT 9000 BR SCT003 BKN005 BKN016 M01/M01 Q1029=
200502040450 METAR ESMX 040450Z 16006KT 9999 BR SCT003 BKN004 BKN015 M01/M01 Q1030=
200502040420 METAR ESMX 040420Z 16005KT 8000 BR SCT003 BKN004 M01/M01 Q1029=
200502040350 METAR ESMX 040350Z AUTO 15005KT 9000 OVC003 M01/M01 Q1029=
200502040320 METAR ESMX 040320Z AUTO 14005KT 9999 OVC003 M01/M02 Q1029=
200502040250 METAR ESMX 040250Z AUTO 16005KT 9999 FEW004 SCT006 BKN057 M02/M02 Q1030=
200502040220 METAR ESMX 040220Z 17005KT 9999 SCT004 OVC058 M01/M02 Q1030=
200502040150 METAR ESMX 040150Z 15005KT 9999 FEW015 BKN059 M01/M02 Q1030=
200502040120 METAR ESMX 040120Z 15005KT 9999 FEW005 BKN058 M01/M02 Q1030=
200502040050 METAR ESMX 040050Z 15005KT 9999 SCT016 BKN059 M01/M03 Q1030=
200502040020 METAR ESMX 040020Z 16004KT 9999 SCT015 BKN058 M01/M03 Q1030=
200502032350 METAR ESMX 032350Z 14004KT 9999 SCT015 BKN059 M01/M03 Q1030=
200502032320 METAR ESMX 032320Z 15004KT 9999 SCT015 BKN060 M01/M03 Q1030=
200502032250 METAR ESMX 032250Z 17005KT 9999 FEW015 SCT025 BKN060 M01/M03 Q1030=
200502032220 METAR ESMX 032220Z 18005KT 9999 BKN025 M01/M03 Q1030=
200502032150 METAR ESMX 032150Z 17006KT 9999 BKN025 M01/M02 Q1030=
200502032120 METAR ESMX 032120Z 15005KT 9999 FEW016 BKN024 M01/M02 Q1030=
200502032050 METAR ESMX 032050Z 15004KT 9999 BKN022 M01/M02 Q1030=
200502032020 METAR ESMX 032020Z 16005KT 9999 OVC024 M01/M02 Q1030=
200502031950 METAR ESMX 031950Z VRB03KT 9999 OVC024 M00/M02 Q1030=
200502031920 METAR ESMX 031920Z 14004KT 9999 BKN022 OVC045 M00/M02 Q1029=
200502031850 METAR ESMX 031850Z VRB03KT 9999 FEW022 BKN045 M00/M02 Q1029=
200502031750 METAR ESMX 031750Z VRB03KT 9999 OVC023 M00/M01 Q1029=
200502031720 METAR ESMX 031720Z VRB02KT 9999 BKN023 M00/M01 Q1029=
200502031650 METAR ESMX 031650Z VRB02KT CAVOK M00/M01 Q1029=
200502031620 METAR ESMX 031620Z VRB03KT 9999 SCT048 00/M01 Q1029=
200502031550 METAR ESMX 031550Z VRB02KT 9999 BKN049 00/M01 Q1029=
200502031520 METAR ESMX 031520Z VRB02KT 9999 BKN037 00/M01 Q1028=
200502031450 METAR ESMX 031450Z VRB03KT 9999 BKN030 00/M01 Q1028=
200502031420 METAR ESMX 031420Z VRB02KT 9999 BKN028 00/M01 Q1028=
200502031350 METAR ESMX 031350Z VRB03KT 9999 OVC027 00/M01 Q1028=
200502031320 METAR ESMX 031320Z VRB02KT 9999 OVC026 00/M01 Q1028=
200502031250 METAR ESMX 031250Z VRB02KT 9999 OVC028 00/M01 Q1028=
200502031220 METAR ESMX 031220Z VRB02KT 9999 OVC027 00/M01 Q1028=
200502031150 METAR ESMX 031150Z VRB01KT 9999 OVC027 00/M01 Q1028=
200502031120 METAR ESMX 031120Z 00000KT 9999 BKN027 M00/M01 Q1028=
200502031050 METAR ESMX 031050Z VRB01KT 9999 FEW004 BKN027 M01/M01 Q1028=
200502031020 METAR ESMX 031020Z VRB01KT 9999 FEW003 BKN027 M01/M01 Q1028=
200502030950 METAR ESMX 030950Z 14004KT 9999 FEW005 BKN025 M02/M02 Q1027=
200502030920 METAR ESMX 030920Z 00000KT 9999 BKN023 M02/M02 Q1027=
200502030850 METAR ESMX 030850Z 00000KT 9999 BKN022 M02/M03 Q1027=
200502030820 METAR ESMX 030820Z 00000KT 9999 OVC022 M03/M03 Q1027=
200502030750 METAR ESMX 030750Z VRB01KT 9999 BKN022 M03/M03 Q1027=
200502030720 METAR ESMX 030720Z 00000KT 9999 BKN024 M03/M04 Q1026=
200502030650 METAR ESMX 030650Z 00000KT 9999 BKN025 M04/M04 Q1026=
200502030620 METAR ESMX 030620Z 00000KT 9999 BKN026 M05/M05 Q1026=
200502030550 METAR ESMX 030550Z 00000KT 9999 BKN027 M06/M06 Q1025=
200502030520 METAR ESMX 030520Z 00000KT 9999 FEW027 M06/M07 Q1025=
200502030450 METAR ESMX 030450Z VRB01KT CAVOK M05/M06 Q1024=
200502030420 METAR ESMX 030420Z 00000KT 9999 FEW022 M05/M05 Q1024=
200502030350 METAR ESMX 030350Z AUTO 00000KT 9999 FEW022 M05/M05 Q1024=
200502030320 METAR ESMX 030320Z AUTO VRB02KT 9999 FEW024 M05/M06 Q1024=
200502030250 METAR ESMX 030250Z AUTO VRB01KT 9999 FEW022 M06/M06 Q1024=
200502030220 METAR ESMX 030220Z AUTO VRB01KT 9999 FEW022 M04/M05 Q1024=
200502030150 METAR ESMX 030150Z AUTO VRB02KT 9999 FEW016 M05/M05 Q1023=
200502030120 METAR ESMX 030120Z VRB01KT 9999 SCT015 M04/M05 Q1023=
200502030050 METAR ESMX 030050Z 00000KT 9999 SCT016 M04/M04 Q1023=
200502030020 METAR ESMX 030020Z VRB01KT 9999 SCT011 M03/M04 Q1022=
200502022350 METAR ESMX 022350Z 00000KT 9999 SCT012 M03/M03 Q1022=
200502022320 METAR ESMX 022320Z VRB02KT CAVOK M03/M03 Q1022=
200502022250 METAR ESMX 022250Z VRB03KT CAVOK M02/M02 Q1021=
200502022220 METAR ESMX 022220Z VRB01KT CAVOK M02/M03 Q1021=
200502022150 METAR ESMX 022150Z VRB02KT CAVOK M01/M02 Q1020=
200502022120 METAR ESMX 022120Z 02006KT 9999 BKN016 00/M01 Q1020=
200502022050 METAR ESMX 022050Z 02007KT 9999 BKN017 00/M01 Q1020=
200502022020 METAR ESMX 022020Z 04006KT 9999 BKN020 01/M01 Q1019=
200502021950 METAR ESMX 021950Z 04006KT 9999 FEW015 BKN022 01/M01 Q1019=
200502021920 METAR ESMX 021920Z 03004KT 9999 FEW014 SCT016 BKN023 01/M01 Q1019=
200502021850 METAR ESMX 021850Z 04004KT 360V070 9999 BKN023 01/M01 Q1018=
200502021820 METAR ESMX 021820Z 02004KT 9999 BKN024 01/M01 Q1018=
200502021750 METAR ESMX 021750Z 35005KT 9999 BKN024 00/M01 Q1017=
200502021720 METAR ESMX 021720Z 36004KT 9999 FEW022 BKN025 01/M01 Q1017=
200502021650 METAR ESMX 021650Z 35005KT 9999 BKN022 01/M01 Q1017=
200502021620 METAR ESMX 021620Z 35005KT 9999 BKN020 02/M01 Q1016=
200502021550 METAR ESMX 021550Z 36007KT 9999 BKN021 02/M01 Q1016=
200502021520 METAR ESMX 021520Z 36005KT 9999 BKN020 02/M01 Q1015=
200502021450 METAR ESMX 021450Z VRB03KT 9999 OVC021 03/M01 Q1015=
200502021420 METAR ESMX 021420Z 34006KT 9999 OVC022 03/M01 Q1015=
200502021350 METAR ESMX 021350Z 36007KT 9999 BKN020 03/M01 Q1015=
200502021320 METAR ESMX 021320Z 34008KT 9999 FEW025 03/M02 Q1014=
200502021250 METAR ESMX 021250Z 33007KT 9999 SCT022 03/M02 Q1014=
200502021220 METAR ESMX 021220Z 30006KT 9999 BKN035 02/M03 Q1014=
200502021150 METAR ESMX 021150Z 31005KT 270V330 9999 BKN035 02/M03 Q1014=
200502021120 METAR ESMX 021120Z 31005KT 280V350 9999 BKN036 02/M03 Q1014=
200502021050 METAR ESMX 021050Z VRB03KT 9999 FEW029 BKN045 01/M04 Q1014=
200502021020 METAR ESMX 021020Z VRB03KT 9999 OVC035 00/M04 Q1014=
200502020950 METAR ESMX 020950Z VRB03KT 9999 OVC041 M00/M05 Q1014=
200502020920 METAR ESMX 020920Z VRB02KT 9999 OVC043 M01/M05 Q1015=
200502020850 METAR ESMX 020850Z VRB02KT 9999 OVC044 M01/M05 Q1015=
200502020820 METAR ESMX 020820Z VRB02KT 9999 BKN039 M01/M05 Q1015=
200502020750 METAR ESMX 020750Z VRB03KT 9999 FEW021 BKN038 M02/M05 Q1015=
200502020720 METAR ESMX 020720Z 28004KT 9999 FEW026 BKN040 M02/M06 Q1015=
200502020650 METAR ESMX 020650Z VRB03KT 9999 BKN045 M03/M06 Q1014=
200502020620 METAR ESMX 020620Z VRB03KT CAVOK M04/M07 Q1014=
200502020550 METAR ESMX 020550Z VRB03KT CAVOK M04/M07 Q1014=
200502020520 METAR ESMX 020520Z VRB03KT CAVOK M03/M07 Q1014=
200502020450 METAR ESMX 020450Z 28004KT CAVOK M03/M07 Q1014=
200502020420 METAR ESMX 020420Z AUTO 30004KT 9999 FEW100 M03/M07 Q1014=
200502020350 METAR ESMX 020350Z AUTO 29004KT 9999 NSC M02/M07 Q1014=
200502020320 METAR ESMX 020320Z AUTO 28005KT 220V330 9999 NSC M02/M07 Q1014=
200502020250 METAR ESMX 020250Z AUTO 29006KT 9999 NSC M02/M07 Q1014=
200502020220 METAR ESMX 020220Z AUTO 29007KT 9999 NSC M01/M07 Q1014=
200502020150 METAR ESMX 020150Z AUTO 29007KT 9999 FEW100 M01/M07 Q1015=
200502020120 METAR ESMX 020120Z AUTO 29007KT 260V320 9999 FEW099 M01/M07 Q1015=
200502020050 METAR ESMX 020050Z 29007KT 260V330 CAVOK M01/M06 Q1015=
200502020020 METAR ESMX 020020Z 29008KT CAVOK M01/M06 Q1015=
200502012350 METAR ESMX 012350Z 30008KT CAVOK M01/M06 Q1015=
200502012320 METAR ESMX 012320Z 30008KT CAVOK M01/M06 Q1015=
200502012250 METAR ESMX 012250Z 30007KT CAVOK M01/M06 Q1015=
200502012220 METAR ESMX 012220Z 29007KT CAVOK M01/M06 Q1015=
200502012150 METAR ESMX 012150Z 27006KT 260V320 CAVOK M01/M06 Q1015=
200502012120 METAR ESMX 012120Z 30006KT CAVOK M00/M06 Q1014=
200502012050 METAR ESMX 012050Z 31007KT 280V340 CAVOK M00/M06 Q1014=
200502012020 METAR ESMX 012020Z 31006KT CAVOK 00/M06 Q1014=
200502011950 METAR ESMX 011950Z 31006KT CAVOK 00/M06 Q1014=
200502011920 METAR ESMX 011920Z 31007KT CAVOK 00/M06 Q1014=
200502011850 METAR ESMX 011850Z 31007KT CAVOK 01/M06 Q1014=
200502011820 METAR ESMX 011820Z 31009KT CAVOK 01/M06 Q1014=
200502011750 METAR ESMX 011750Z 31009KT CAVOK 01/M06 Q1014=
200502011720 METAR ESMX 011720Z 31008KT CAVOK 01/M05 Q1013=
200502011650 METAR ESMX 011650Z 31008KT CAVOK 02/M05 Q1013=
200502011620 METAR ESMX 011620Z 31010KT CAVOK 02/M05 Q1013=
200502011550 METAR ESMX 011550Z 33009KT CAVOK 02/M05 Q1013=
200502011520 METAR ESMX 011520Z 32010KT 300V010 CAVOK 02/M05 Q1013=
200502011450 METAR ESMX 011450Z 31010KT CAVOK 03/M05 Q1013=
200502011420 METAR ESMX 011420Z 32009KT 290V350 9999 FEW042 03/M05 Q1013=
200502011350 METAR ESMX 011350Z 31011KT 9999 FEW043 04/M05 Q1012=
200502011320 METAR ESMX 011320Z 31013KT 280V340 CAVOK 04/M05 Q1012=
200502011250 METAR ESMX 011250Z 33011KT 290V350 9999 FEW044 04/M05 Q1012=
200502011220 METAR ESMX 011220Z 31012KT 280V340 CAVOK 04/M05 Q1011=
Fallo de consulta: el error es SELECT command denied to user 'users'@'localhost' for table 'tafs_2005'
