##########################################################
# Query made at 04/19/2024 20:46:18 UTC
# Time interval: from 08/01/2005 12:00  to 08/31/2005 12:59  UTC
##########################################################

##########################################################
# ESMX, Vaxjo (Sweden)
# WMO index: 02641. WIGOS ID: 0-20000-0-02648
# Latitude 56-51N. Longitude 014-50E. Altitude 199 m.
##########################################################

200508311250 METAR ESMX 311250Z VRB02KT CAVOK 20/09 Q1026=
200508311220 METAR ESMX 311220Z VRB03KT CAVOK 20/09 Q1026=
200508311150 METAR ESMX 311150Z VRB01KT CAVOK 19/09 Q1026=
200508311120 METAR ESMX 311120Z VRB04KT CAVOK 19/08 Q1026=
200508311050 METAR ESMX 311050Z VRB03KT CAVOK 18/09 Q1027=
200508311020 METAR ESMX 311020Z 07004KT 030V140 CAVOK 18/09 Q1027=
200508310950 METAR ESMX 310950Z 36004KT 320V050 CAVOK 18/08 Q1027=
200508310920 METAR ESMX 310920Z 06004KT 350V110 CAVOK 17/10 Q1027=
200508310850 METAR ESMX 310850Z 04005KT 010V070 CAVOK 17/09 Q1027=
200508310820 METAR ESMX 310820Z 01004KT 340V050 CAVOK 16/11 Q1027=
200508310750 METAR ESMX 310750Z VRB03KT CAVOK 15/10 Q1027=
200508310720 METAR ESMX 310720Z VRB01KT CAVOK 14/11 Q1027=
200508310650 METAR ESMX 310650Z VRB02KT CAVOK 13/10 Q1027=
200508310620 METAR ESMX 310620Z VRB01KT CAVOK 12/10 Q1027=
200508310550 METAR ESMX 310550Z VRB01KT CAVOK 10/10 Q1027=
200508310520 METAR ESMX 310520Z VRB01KT CAVOK 07/07 Q1027=
200508310450 METAR ESMX 310450Z VRB03KT 9999 MIFG SKC 05/05 Q1026=
200508310420 METAR ESMX 310420Z VRB01KT 9999 MIFG SKC 05/05 Q1026=
200508310350 METAR ESMX 310350Z VRB01KT CAVOK 04/04 Q1026=
200508310320 METAR ESMX 310320Z AUTO 00000KT 9999 BR NSC 05/04 Q1026=
200508310250 METAR ESMX 310250Z AUTO 00000KT 4100 BR NSC 05/04 Q1026=
200508310220 METAR ESMX 310220Z AUTO VRB02KT 9999 NSC 05/05 Q1026=
200508310150 METAR ESMX 310150Z AUTO VRB01KT 3500 BR NSC 06/05 Q1026=
200508310120 METAR ESMX 310120Z AUTO VRB02KT 9999 NSC 06/06 Q1026=
200508310050 METAR ESMX 310050Z AUTO VRB01KT 9999 NSC 07/07 Q1026=
200508310020 METAR ESMX 310020Z AUTO VRB02KT 9999 NSC 06/05 Q1026=
200508302350 METAR ESMX 302350Z VRB02KT CAVOK 06/05 Q1026=
200508302320 METAR ESMX 302320Z VRB01KT CAVOK 07/06 Q1026=
200508302250 METAR ESMX 302250Z VRB02KT CAVOK 07/06 Q1027=
200508302220 METAR ESMX 302220Z VRB01KT CAVOK 08/06 Q1026=
200508302150 METAR ESMX 302150Z VRB01KT CAVOK 09/08 Q1026=
200508302120 METAR ESMX 302120Z VRB02KT CAVOK 09/07 Q1026=
200508302050 METAR ESMX 302050Z VRB03KT CAVOK 10/08 Q1026=
200508302020 METAR ESMX 302020Z VRB03KT CAVOK 10/08 Q1026=
200508301950 METAR ESMX 301950Z VRB03KT CAVOK 11/08 Q1025=
200508301920 METAR ESMX 301920Z 27004KT 240V320 CAVOK 12/08 Q1025=
200508301850 METAR ESMX 301850Z VRB02KT CAVOK 13/08 Q1025=
200508301820 METAR ESMX 301820Z 25004KT CAVOK 13/08 Q1025=
200508301750 METAR ESMX 301750Z 27005KT 250V310 CAVOK 14/08 Q1025=
200508301720 METAR ESMX 301720Z 29006KT 250V330 9999 FEW040 16/09 Q1025=
200508301650 METAR ESMX 301650Z 30007KT 270V340 9999 FEW040 16/09 Q1025=
200508301620 METAR ESMX 301620Z 31009KT 280V340 9999 FEW040 16/09 Q1025=
200508301550 METAR ESMX 301550Z 28011KT 250V320 9999 FEW040 17/09 Q1025=
200508301520 METAR ESMX 301520Z 29010KT 260V350 9999 FEW040 17/09 Q1025=
200508301450 METAR ESMX 301450Z 29012KT 260V330 9999 FEW040 18/09 Q1025=
200508301420 METAR ESMX 301420Z 28011KT 240V310 9999 FEW040 18/09 Q1025=
200508301350 METAR ESMX 301350Z 28012KT 240V320 9999 FEW039 18/09 Q1024=
200508301320 METAR ESMX 301320Z 28012G22KT 240V320 9999 FEW039 18/09 Q1024=
200508301250 METAR ESMX 301250Z 26010KT 220V340 9999 FEW040 18/09 Q1024=
200508301220 METAR ESMX 301220Z 26011KT 210V300 9999 FEW040 19/09 Q1024=
200508301150 METAR ESMX 301150Z 27011KT CAVOK 18/09 Q1024=
200508301120 METAR ESMX 301120Z 29011KT 210V330 CAVOK 19/09 Q1024=
200508301050 METAR ESMX 301050Z 25012KT 210V290 CAVOK 18/08 Q1024=
200508301020 METAR ESMX 301020Z 28010KT 250V320 9999 FEW035 18/09 Q1024=
200508300950 METAR ESMX 300950Z 25011KT 210V280 9999 FEW030 17/09 Q1024=
200508300920 METAR ESMX 300920Z 25011KT 210V290 9999 FEW030 17/09 Q1024=
200508300850 METAR ESMX 300850Z 26012KT 210V300 9999 FEW027 16/10 Q1024=
200508300820 METAR ESMX 300820Z 26011KT 210V300 9999 FEW024 16/10 Q1023=
200508300750 METAR ESMX 300750Z 26012KT 230V300 9999 FEW025 15/10 Q1023=
200508300720 METAR ESMX 300720Z 27012KT 240V300 CAVOK 15/10 Q1023=
200508300650 METAR ESMX 300650Z 26011KT 220V300 CAVOK 14/10 Q1022=
200508300620 METAR ESMX 300620Z 27012KT 210V300 CAVOK 13/10 Q1022=
200508300550 METAR ESMX 300550Z 25009KT 220V280 CAVOK 12/10 Q1022=
200508300520 METAR ESMX 300520Z 26008KT 230V300 CAVOK 12/10 Q1022=
200508300450 METAR ESMX 300450Z 24008KT 200V270 9999 FEW016 11/09 Q1021=
200508300420 METAR ESMX 300420Z 26006KT 230V300 9999 FEW017 11/09 Q1021=
200508300350 METAR ESMX 300350Z 26006KT 230V290 9999 FEW018 11/09 Q1021=
200508300320 METAR ESMX 300320Z AUTO 25007KT 9999 NSC 11/09 Q1021=
200508300250 METAR ESMX 300250Z AUTO 26007KT 230V290 9999 NSC 11/09 Q1021=
200508300220 METAR ESMX 300220Z AUTO 26007KT 230V300 9999 NSC 11/09 Q1021=
200508300150 METAR ESMX 300150Z AUTO 22008KT 200V260 9999 NSC 11/09 Q1020=
200508300120 METAR ESMX 300120Z AUTO 24008KT 200V270 9999 NSC 12/09 Q1021=
200508300050 METAR ESMX 300050Z AUTO 24007KT 200V290 9999 NSC 12/09 Q1020=
200508300020 METAR ESMX 300020Z 26007KT 210V280 9999 FEW020 13/09 Q1020=
200508292320 METAR ESMX 292320Z 26012KT 230V300 9999 FEW020 14/08 Q1019=
200508292250 METAR ESMX 292250Z 26010KT 230V300 9999 FEW018 SCT037 15/12 Q1019=
200508292220 METAR ESMX 292220Z 25011KT 210V280 9999 FEW031 SCT055 16/13 Q1019=
200508292150 METAR ESMX 292150Z 26010KT 230V310 9999 FEW016 BKN041 16/13 Q1018=
200508292120 METAR ESMX 292120Z 24011KT 9999 VCSH SCT014 BKN035 17/15 Q1018=
200508292050 METAR ESMX 292050Z 23013KT 200V290 9999 FEW018 BKN027 18/14 Q1017=
200508292020 METAR ESMX 292020Z 23012KT 200V260 9999 FEW020 BKN054 18/14 Q1017=
200508291950 METAR ESMX 291950Z 23012KT 200V260 9999 BKN036 18/14 Q1017=
200508291920 METAR ESMX 291920Z 22010KT 190V250 9999 FEW023 BKN040 18/14 Q1017=
200508291850 METAR ESMX 291850Z 23011KT 9999 FEW020 SCT130 18/14 Q1017=
200508291820 METAR ESMX 291820Z 23011KT 200V260 9999 FEW025 BKN040 19/14 Q1017=
200508291750 METAR ESMX 291750Z 23010KT 9999 BKN047 19/14 Q1017=
200508291720 METAR ESMX 291720Z 24013KT 9999 BKN041 19/14 Q1017=
200508291650 METAR ESMX 291650Z 24011KT 9999 BKN035 20/14 Q1017=
200508291620 METAR ESMX 291620Z 25009KT 210V280 9999 BKN038 20/14 Q1017=
200508291550 METAR ESMX 291550Z 25012KT 200V280 9999 BKN035 20/13 Q1017=
200508291520 METAR ESMX 291520Z 22012KT 190V250 9999 BKN035 21/14 Q1017=
200508291450 METAR ESMX 291450Z 22014KT 190V260 9999 BKN038 21/13 Q1017=
200508291420 METAR ESMX 291420Z 23014G24KT 190V260 9999 SCT039 BKN056 22/13 Q1017=
200508291350 METAR ESMX 291350Z 24016KT 9999 SCT040 22/13 Q1017=
200508291320 METAR ESMX 291320Z 24016KT 9999 FEW043 22/13 Q1017=
200508291250 METAR ESMX 291250Z 22013KT 190V280 9999 FEW035 22/13 Q1017=
200508291220 METAR ESMX 291220Z 22014G25KT 190V250 9999 FEW035 BKN070 21/13 Q1017=
200508291150 METAR ESMX 291150Z 22014G24KT 180V260 9999 FEW035 BKN065 20/13 Q1017=
200508291120 METAR ESMX 291120Z 22015KT 9999 FEW035 BKN065 21/14 Q1017=
200508291050 METAR ESMX 291050Z 21016G27KT 9999 SCT035 BKN050 21/14 Q1017=
200508291020 METAR ESMX 291020Z 21014KT 180V240 9999 FEW029 BKN034 BKN087 21/14 Q1017=
200508290950 METAR ESMX 290950Z 21013KT 170V240 9999 FEW027 BKN031 20/14 Q1017=
200508290920 METAR ESMX 290920Z 22013KT 9999 FEW025 BKN030 19/14 Q1017=
200508290850 METAR ESMX 290850Z 22011KT 9999 BKN022 OVC035 18/14 Q1017=
200508290820 METAR ESMX 290820Z 22013KT 170V250 9999 SCT022 BKN035 18/14 Q1017=
200508290750 METAR ESMX 290750Z 22012KT 9999 FEW020 SCT075 17/14 Q1017=
200508290720 METAR ESMX 290720Z 22010KT 190V250 9999 FEW017 BKN070 17/14 Q1017=
200508290650 METAR ESMX 290650Z 20010KT 9999 FEW015 BKN020 16/13 Q1017=
200508290620 METAR ESMX 290620Z 22010KT 150V250 9999 -SHRA BKN015 16/13 Q1017=
200508290550 METAR ESMX 290550Z 22010KT 9999 FEW012 BKN015 15/13 Q1017=
200508290520 METAR ESMX 290520Z 21009KT 9999 SCT015 BKN080 15/13 Q1017=
200508290450 METAR ESMX 290450Z 21009KT 9999 BKN013 BKN070 14/13 Q1017=
200508290420 METAR ESMX 290420Z 21012KT 190V250 9999 SCT013 BKN063 14/13 Q1017=
200508290350 METAR ESMX 290350Z 21011KT 9999 SCT011 BKN035 14/13 Q1017=
200508290320 METAR ESMX 290320Z AUTO 21009KT 9999 FEW012 BKN085 14/13 Q1017=
200508290250 METAR ESMX 290250Z AUTO 20010KT 9999 FEW038 BKN078 14/13 Q1017=
200508290220 METAR ESMX 290220Z AUTO 20010KT 170V240 9999 FEW069 BKN089 14/13 Q1017=
200508290150 METAR ESMX 290150Z AUTO 19009KT 9999 SCT063 BKN092 14/12 Q1017=
200508290120 METAR ESMX 290120Z AUTO 20008KT 9999 OVC064 14/12 Q1018=
200508290050 METAR ESMX 290050Z AUTO 20008KT 9999 OVC060 14/12 Q1018=
200508290020 METAR ESMX 290020Z 23008KT 9999 FEW012 BKN062 14/12 Q1018=
200508282350 METAR ESMX 282350Z 23008KT 9999 BKN012 14/12 Q1018=
200508282320 METAR ESMX 282320Z 20007KT 9999 BKN011 14/12 Q1018=
200508282250 METAR ESMX 282250Z 19007KT 9999 BKN011 14/12 Q1018=
200508282220 METAR ESMX 282220Z 19007KT 9999 BKN013 14/12 Q1018=
200508282150 METAR ESMX 282150Z 20007KT 9999 SCT020 BKN073 14/12 Q1018=
200508282120 METAR ESMX 282120Z 20007KT 9999 FEW020 BKN067 14/12 Q1018=
200508282050 METAR ESMX 282050Z 20006KT 170V240 9999 FEW018 BKN070 14/12 Q1018=
200508282020 METAR ESMX 282020Z 20007KT 9999 FEW025 SCT080 14/12 Q1018=
200508281950 METAR ESMX 281950Z 22007KT 9999 FEW020 BKN100 14/12 Q1018=
200508281920 METAR ESMX 281920Z 22007KT 9999 SCT020 BKN100 14/12 Q1018=
200508281850 METAR ESMX 281850Z 20007KT 9999 FEW024 BKN066 14/11 Q1018=
200508281820 METAR ESMX 281820Z 20005KT 9999 FEW025 SCT075 14/11 Q1018=
200508281750 METAR ESMX 281750Z 21005KT 9999 SCT025 BKN064 14/12 Q1018=
200508281720 METAR ESMX 281720Z 23007KT 9999 FEW025 BKN060 15/12 Q1017=
200508281650 METAR ESMX 281650Z VRB03KT 9999 FEW025 SCT050 15/13 Q1017=
200508281620 METAR ESMX 281620Z VRB03KT 9999 FEW025 SCT060 15/13 Q1017=
200508281550 METAR ESMX 281550Z VRB03KT 9999 -SHRA FEW025CB SCT065 14/13 Q1017=
200508281520 METAR ESMX 281520Z 23004KT 200V270 9999 FEW030 SCT070 BKN110 14/13 Q1017=
200508281450 METAR ESMX 281450Z 25008KT 190V280 9999 -SHRA FEW030 SCT050CB 14/12 Q1017=
200508281420 METAR ESMX 281420Z 23011KT 190V280 9999 -SHRA FEW030CB SCT050 BKN070 16/11 Q1017=
200508281350 METAR ESMX 281350Z 24010KT 9999 FEW030 SCT040 BKN070 16/10 Q1017=
200508281320 METAR ESMX 281320Z 24010KT 190V280 9999 SCT026 16/11 Q1017=
200508281250 METAR ESMX 281250Z 26010KT 9999 FEW026 SCT040 16/11 Q1017=
200508281220 METAR ESMX 281220Z AUTO 23014KT 200V270 9999 FEW026 SCT036 BKN054 17/12 Q1017=
200508281150 METAR ESMX 281150Z AUTO 22011KT 9999 FEW020 SCT026 BKN053 16/11 Q1016=
200508281120 METAR ESMX 281120Z AUTO 23009G19KT 200V270 9999 -SHRA FEW019 SCT034 BKN068 15/12 Q1016=
200508281050 METAR ESMX 281050Z AUTO 23010KT 190V270 9999 FEW016 SCT060 BKN074 16/13 Q1016=
200508281020 METAR ESMX 281020Z AUTO 25009KT 220V290 9999 FEW012 SCT067 14/13 Q1016 RERA=
200508280950 METAR ESMX 280950Z AUTO 23009KT 8000 -RA FEW011 SCT025 BKN062 13/12 Q1016=
200508280920 METAR ESMX 280920Z AUTO 23009KT 200V260 9999 -RA FEW010 SCT019 BKN055 14/12 Q1016=
200508280850 METAR ESMX 280850Z AUTO 24009KT 9999 FEW008 SCT014 BKN075 14/13 Q1015=
200508280820 METAR ESMX 280820Z AUTO 24008KT 210V270 9999 FEW008 SCT012 BKN053 13/12 Q1015 RERA=
200508280750 METAR ESMX 280750Z AUTO 22007KT 190V250 9999 FEW004 SCT007 BKN015 13/12 Q1015 RERA=
200508280720 METAR ESMX 280720Z AUTO 22010KT 9999 -RA FEW007 SCT034 BKN056 13/12 Q1015=
200508280650 METAR ESMX 280650Z AUTO 23006KT 190V260 7000 RA FEW008 SCT025 BKN049 12/12 Q1015=
200508280620 METAR ESMX 280620Z AUTO 23007KT 200V280 9999 -RA FEW008 SCT021 12/12 Q1015=
200508280550 METAR ESMX 280550Z AUTO 20006KT 7000 RA FEW006 SCT013 BKN017 12/12 Q1015=
200508280520 METAR ESMX 280520Z AUTO 19008KT 8000 RA FEW006 SCT008 BKN010 12/12 Q1014=
200508280450 METAR ESMX 280450Z AUTO 19009KT 8000 RA FEW005 SCT008 BKN013 12/12 Q1014=
200508280420 METAR ESMX 280420Z AUTO 19008KT 9999 -RA FEW006 SCT008 BKN010 12/12 Q1015=
200508280350 METAR ESMX 280350Z AUTO 18008KT 9999 DZ FEW006 BKN008 OVC011 13/12 Q1014=
200508280320 METAR ESMX 280320Z AUTO 19008KT 9999 FEW007 SCT012 BKN015 13/12 Q1014 REDZ=
200508280250 METAR ESMX 280250Z AUTO 19008KT 9999 -SHRA FEW007 SCT009 BKN011 13/12 Q1015=
200508280220 METAR ESMX 280220Z AUTO 21008KT 9999 FEW007 SCT009 BKN013 13/12 Q1015 RERA=
200508280150 METAR ESMX 280150Z AUTO 20008KT 9999 -RA FEW008 SCT009 BKN011 13/12 Q1015=
200508280120 METAR ESMX 280120Z AUTO 21009KT 180V240 9999 FEW008 BKN011 OVC015 13/12 Q1015=
200508280050 METAR ESMX 280050Z AUTO 19010KT 9999 FEW010 SCT013 BKN016 13/12 Q1015=
200508280020 METAR ESMX 280020Z AUTO 18008KT 9999 FEW015 SCT034 BKN041 12/11 Q1015=
200508272350 METAR ESMX 272350Z AUTO 18008KT 9999 FEW019 OVC061 12/11 Q1015=
200508272320 METAR ESMX 272320Z AUTO 19008KT 9999 SCT063 BKN082 BKN110 12/11 Q1015=
200508272250 METAR ESMX 272250Z AUTO 18007KT 9999 BKN078 BKN110 12/11 Q1015=
200508272220 METAR ESMX 272220Z AUTO 18007KT 9999 FEW014 SCT085 12/11 Q1015=
200508272150 METAR ESMX 272150Z AUTO 19007KT 9999 FEW048 SCT074 12/11 Q1015 RERA=
200508272120 METAR ESMX 272120Z AUTO 19008KT 9999 FEW047 BKN054 13/12 Q1015 RERA=
200508272050 METAR ESMX 272050Z AUTO 20008KT 7000 SHRA FEW019 SCT044 BKN071 13/11 Q1015=
200508272020 METAR ESMX 272020Z AUTO 18009KT 9999 -SHRA FEW027 SCT061 BKN092 13/11 Q1015=
200508271950 METAR ESMX 271950Z AUTO 19008KT 9999 BKN056 BKN085 13/11 Q1015 RERA=
200508271920 METAR ESMX 271920Z AUTO 19007KT 9999 FEW025 12/11 Q1015 RERA=
200508271850 METAR ESMX 271850Z AUTO 19006KT 9999 RA FEW029 SCT041 BKN051 13/11 Q1015=
200508271820 METAR ESMX 271820Z AUTO 18005KT 9999 FEW036 SCT049 BKN061 14/10 Q1014=
200508271750 METAR ESMX 271750Z AUTO 16004KT 9999 FEW045 14/10 Q1014=
200508271720 METAR ESMX 271720Z AUTO 17004KT 9999 FEW039 14/10 Q1014=
200508271650 METAR ESMX 271650Z AUTO 19007KT 9999 FEW041 15/09 Q1014=
200508271620 METAR ESMX 271620Z AUTO 23007KT 9999 FEW040 SCT052 16/08 Q1014=
200508271550 METAR ESMX 271550Z AUTO 21009KT 170V240 9999 FEW040 SCT052 16/08 Q1014=
200508271520 METAR ESMX 271520Z AUTO 22010KT 190V260 9999 FEW038 SCT064 17/09 Q1014=
200508271450 METAR ESMX 271450Z AUTO 20009KT 160V260 9999 FEW034 SCT059 17/09 Q1014=
200508271420 METAR ESMX 271420Z AUTO 20008KT 170V240 9999 FEW032 SCT042 BKN064 16/10 Q1014=
200508271350 METAR ESMX 271350Z AUTO 19010KT 9999 FEW033 SCT042 BKN049 17/10 Q1014=
200508271320 METAR ESMX 271320Z AUTO 21009KT 170V260 9999 FEW036 SCT055 17/09 Q1014=
200508271250 METAR ESMX 271250Z AUTO 22010KT 170V240 9999 FEW033 BKN055 BKN074 16/09 Q1014=
200508271220 METAR ESMX 271220Z AUTO 24009KT 180V260 9999 FEW031 SCT037 BKN059 15/08 Q1014=
200508271150 METAR ESMX 271150Z AUTO 23010KT 190V260 9999 FEW082 15/09 Q1014=
200508271120 METAR ESMX 271120Z AUTO 22013KT 170V240 9999 BKN065 14/08 Q1014=
200508271050 METAR ESMX 271050Z AUTO 21011KT 9999 FEW038 SCT053 BKN080 14/08 Q1014=
200508271020 METAR ESMX 271020Z AUTO 23011KT 200V260 9999 FEW048 15/08 Q1014=
200508270950 METAR ESMX 270950Z AUTO 21010KT 160V250 9999 FEW031 15/08 Q1014=
200508270920 METAR ESMX 270920Z 21012KT 170V250 9999 FEW025 SCT033 14/08 Q1014=
200508270850 METAR ESMX 270850Z 21011KT 180V250 9999 FEW024 SCT030 14/08 Q1014=
200508270820 METAR ESMX 270820Z 24011KT 180V270 9999 SCT020 13/09 Q1014=
200508270750 METAR ESMX 270750Z 21008KT 160V260 9999 FEW015 SCT020 13/09 Q1013=
200508270720 METAR ESMX 270720Z 21009KT 9999 FEW015 12/09 Q1013=
200508270650 METAR ESMX 270650Z 22008KT 9999 FEW010 12/10 Q1013=
200508270620 METAR ESMX 270620Z AUTO 21007KT 9999 FEW005 11/10 Q1013=
200508270550 METAR ESMX 270550Z AUTO 21007KT 9999 NSC 10/09 Q1013=
200508270520 METAR ESMX 270520Z AUTO 20006KT 9999 NSC 09/09 Q1013=
200508270450 METAR ESMX 270450Z AUTO 19006KT 9999 NSC 08/08 Q1012=
200508270420 METAR ESMX 270420Z AUTO 20005KT 9999 NSC 08/07 Q1012=
200508270350 METAR ESMX 270350Z AUTO 22005KT 9999 NSC 09/08 Q1012=
200508270320 METAR ESMX 270320Z AUTO 22006KT 9999 NSC 09/08 Q1011=
200508270250 METAR ESMX 270250Z AUTO 20005KT 9999 FEW005 09/08 Q1011=
200508270220 METAR ESMX 270220Z AUTO 22006KT 9999 FEW005 SCT007 10/09 Q1011 REDZ=
200508270150 METAR ESMX 270150Z AUTO 23005KT 9999 FEW018 SCT028 BKN060 10/09 Q1011 REDZ=
200508270120 METAR ESMX 270120Z AUTO 23007KT 9999 -RA FEW008 BKN010 OVC057 11/10 Q1011=
200508270050 METAR ESMX 270050Z AUTO 20006KT 9999 FEW012 OVC060 10/10 Q1010 RERA=
200508270020 METAR ESMX 270020Z AUTO 20006KT 9999 FEW015 BKN089 10/09 Q1010 RERA=
200508262350 METAR ESMX 262350Z AUTO 24007KT 9000 -SHRA FEW015 SCT029 BKN085 11/10 Q1010=
200508262320 METAR ESMX 262320Z AUTO 20006KT 9999 -RA FEW050 OVC074 10/09 Q1010=
200508262250 METAR ESMX 262250Z AUTO 19006KT 9999 FEW058 BKN074 10/09 Q1010=
200508262220 METAR ESMX 262220Z AUTO 18006KT 9999 FEW054 SCT082 09/08 Q1010=
200508262150 METAR ESMX 262150Z AUTO 18006KT 9999 BKN056 BKN077 10/09 Q1010=
200508262120 METAR ESMX 262120Z AUTO 18006KT 9999 FEW062 SCT076 10/09 Q1010=
200508262050 METAR ESMX 262050Z AUTO 18007KT 9999 -RA BKN058 11/09 Q1010=
200508262020 METAR ESMX 262020Z AUTO 18008KT 9999 FEW062 11/09 Q1010=
200508261950 METAR ESMX 261950Z 18007KT CAVOK 11/09 Q1010=
200508261920 METAR ESMX 261920Z 20007KT CAVOK 10/08 Q1010=
200508261850 METAR ESMX 261850Z 19005KT 9999 FEW040 11/09 Q1009=
200508261820 METAR ESMX 261820Z 21008KT 9999 FEW040 13/09 Q1009=
200508261750 METAR ESMX 261750Z 19012KT 9999 -SHRA FEW027 BKN045CB 14/10 Q1009=
200508261720 METAR ESMX 261720Z 21009KT 9999 FEW040 SCT050 14/10 Q1009=
200508261650 METAR ESMX 261650Z 19010KT 9999 FEW040 SCT050 14/10 Q1008=
200508261620 METAR ESMX 261620Z 21011KT 9999 FEW040 15/10 Q1008=
200508261550 METAR ESMX 261550Z 21012KT 180V240 9999 FEW043 16/08 Q1008=
200508261520 METAR ESMX 261520Z 22013KT 190V250 9999 FEW046 17/07 Q1007=
200508261450 METAR ESMX 261450Z 24012KT 200V270 9999 FEW045 SCT050 16/08 Q1007=
200508261420 METAR ESMX 261420Z 22012KT 190V250 9999 SCT045 17/08 Q1007=
200508261350 METAR ESMX 261350Z 23012KT 210V270 9999 FEW041 SCT049 17/07 Q1007=
200508261320 METAR ESMX 261320Z 22012KT 190V260 9999 FEW040 SCT052 17/08 Q1006=
200508261250 METAR ESMX 261250Z 22012G22KT 9999 FEW040 17/07 Q1006=
200508261150 METAR ESMX 261150Z 26011KT 9999 VCSH FEW033CB SCT051 15/09 Q1006=
200508261120 METAR ESMX 261120Z 22013KT 190V270 9999 VCSH FEW034CB SCT059 16/08 Q1005=
200508261050 METAR ESMX 261050Z 25011G22KT 200V280 9999 SCT037 16/08 Q1005=
200508261020 METAR ESMX 261020Z 25011KT 220V310 9999 -SHRA FEW025 SCT030CB 15/09 Q1004=
200508260950 METAR ESMX 260950Z 24012KT 210V290 9999 FEW026 SCT050 15/09 Q1004=
200508260920 METAR ESMX 260920Z 24011KT 190V280 9999 FEW020 SCT038 15/10 Q1004=
200508260850 METAR ESMX 260850Z 23010KT 190V260 9999 FEW016 SCT029 15/10 Q1004=
200508260820 METAR ESMX 260820Z 23013KT 9999 FEW016 SCT024 14/11 Q1003=
200508260750 METAR ESMX 260750Z 23009KT 200V260 9999 FEW014 SCT019 14/11 Q1003=
200508260720 METAR ESMX 260720Z 22008KT 200V270 9999 FEW013 SCT019 13/11 Q1003=
200508260650 METAR ESMX 260650Z 23007KT 9999 SCT016 BKN025 13/11 Q1002=
200508260620 METAR ESMX 260620Z 23009KT 9999 SCT010 SCT100 13/11 Q1002=
200508260550 METAR ESMX 260550Z 23008KT 9999 SCT008 12/11 Q1002=
200508260520 METAR ESMX 260520Z 23007KT 9999 BKN006 12/11 Q1001=
200508260450 METAR ESMX 260450Z 23006KT 210V270 9999 FEW005 SCT008 BKN009 12/11 Q1001=
200508260420 METAR ESMX 260420Z 24007KT 9999 FEW005 SCT007 BKN009 12/11 Q1001=
200508260350 METAR ESMX 260350Z 21006KT 9999 FEW008 SCT010 BKN016 12/11 Q1000=
200508260320 METAR ESMX 260320Z 21006KT 9999 FEW008 SCT011 BKN020 12/11 Q1000=
200508260020 METAR ESMX 260020Z 22007KT 9999 FEW004 BKN006 BKN009 13/12 Q0999 RERA=
200508252350 METAR ESMX 252350Z 23006KT 9999 -RA FEW005 SCT012 BKN046 13/12 Q0999=
200508252320 METAR ESMX 252320Z 22006KT 190V250 9999 -RA FEW018 OVC026 13/12 Q1000=
200508252250 METAR ESMX 252250Z 23008KT 190V270 9000 -RA FEW005 SCT007 BKN009 14/14 Q0999=
200508252220 METAR ESMX 252220Z 20008KT 6000 +RA FEW004 SCT006 BKN009 14/14 Q0999=
200508252150 METAR ESMX 252150Z 17006KT 8000 -RA SCT003 BKN006 BKN009 14/14 Q0999=
200508252050 METAR ESMX 252050Z 16009KT 6000 RA FEW005 SCT007 BKN008 14/14 Q0999=
200508252020 METAR ESMX 252020Z 15009KT 100V190 7000 RA BKN005 OVC009 14/14 Q1000=
200508251950 METAR ESMX 251950Z 15010KT 110V190 7000 RA FEW004 BKN006 OVC010 15/14 Q1000=
200508251920 METAR ESMX 251920Z 16007KT 6000 -RA SCT007 BKN010 15/14 Q1000=
200508251820 METAR ESMX 251820Z 15010G20KT 110V170 4600 RA FEW007 BKN013 BKN019 15/14 Q1001=
200508251750 METAR ESMX 251750Z 16010KT 130V200 9999 -RA FEW012 SCT018 BKN020 15/13 Q1001=
200508251720 METAR ESMX 251720Z 16011KT 130V200 9999 SCT020 BKN035 16/12 Q1001=
200508251650 METAR ESMX 251650Z 18013KT 9999 FEW025 BKN033 16/12 Q1001=
200508251620 METAR ESMX 251620Z 16012KT 120V190 9999 FEW024 BKN036 16/12 Q1001=
200508251550 METAR ESMX 251550Z 16012KT 120V200 9999 FEW021 OVC052 17/13 Q1001=
200508251520 METAR ESMX 251520Z 17012KT 130V200 9999 FEW020 OVC058 17/13 Q1001=
200508251450 METAR ESMX 251450Z 17010KT 9999 FEW018 BKN073 17/14 Q1001=
200508251420 METAR ESMX 251420Z 16010KT 120V190 9999 FEW017 SCT025 BKN076 17/14 Q1002 RERA=
200508251350 METAR ESMX 251350Z 16009KT 130V190 9999 -RA SCT020 BKN080 17/14 Q1002=
200508251320 METAR ESMX 251320Z 17011KT 120V210 9999 SCT020 BKN090 17/14 Q1002 RERA=
200508251250 METAR ESMX 251250Z 17009KT 120V200 9999 SCT020 BKN090 18/14 Q1002 RERA=
200508251220 METAR ESMX 251220Z 15007G17KT 120V190 9999 -RA SCT020 BKN090 17/14 Q1002=
200508251150 METAR ESMX 251150Z 16010KT 130V200 9999 -RA SCT020 BKN080 18/14 Q1003=
200508251050 METAR ESMX 251050Z 17012KT 110V200 9999 SCT022 BKN080 18/14 Q1004=
200508251020 METAR ESMX 251020Z 17012KT 140V200 9999 SCT023 BKN080 18/14 Q1003=
200508250950 METAR ESMX 250950Z 16009KT 120V190 9999 SCT016 BKN026 17/14 Q1004=
200508250920 METAR ESMX 250920Z 14009KT 120V190 9999 SCT012 BKN017 17/14 Q1004=
200508250850 METAR ESMX 250850Z 15009KT 120V190 9999 BKN012 16/14 Q1004=
200508250820 METAR ESMX 250820Z 16009KT 120V200 9999 BKN012 BKN070 16/14 Q1004=
200508250750 METAR ESMX 250750Z 15007KT 120V200 9999 FEW013 BKN070 16/13 Q1005=
200508250720 METAR ESMX 250720Z 14008KT CAVOK 15/13 Q1005=
200508250650 METAR ESMX 250650Z 15009KT CAVOK 15/12 Q1005=
200508250620 METAR ESMX 250620Z 14008KT 110V180 CAVOK 14/11 Q1005=
200508250550 METAR ESMX 250550Z 16007KT 120V190 CAVOK 14/11 Q1005=
200508250520 METAR ESMX 250520Z 14006KT 100V170 CAVOK 14/11 Q1006=
200508250450 METAR ESMX 250450Z 14005KT CAVOK 13/11 Q1006=
200508250420 METAR ESMX 250420Z 14005KT 110V170 CAVOK 13/11 Q1006=
200508250350 METAR ESMX 250350Z 16005KT CAVOK 13/11 Q1006=
200508250320 METAR ESMX 250320Z AUTO 17005KT 9999 NSC 13/11 Q1007=
200508250250 METAR ESMX 250250Z AUTO 18005KT 8000 BR NSC 11/11 Q1007=
200508250220 METAR ESMX 250220Z AUTO 18004KT 8000 BR NSC 11/10 Q1007=
200508250150 METAR ESMX 250150Z AUTO 18006KT 9000 BR NSC 12/11 Q1007=
200508250120 METAR ESMX 250120Z AUTO 18005KT 9000 BR FEW027 14/12 Q1007=
200508250050 METAR ESMX 250050Z AUTO 21006KT 9999 FEW024 BKN035 14/13 Q1008=
200508250020 METAR ESMX 250020Z 19004KT 9999 OVC016 14/13 Q1008=
200508242350 METAR ESMX 242350Z VRB03KT 9000 SCT020 BKN036 13/12 Q1007=
200508242320 METAR ESMX 242320Z VRB03KT 9999 OVC021 13/13 Q1008=
200508242250 METAR ESMX 242250Z VRB02KT 9000 BKN022 13/13 Q1008=
200508242220 METAR ESMX 242220Z VRB02KT 9000 BR FEW027 SCT030 13/13 Q1008=
200508242150 METAR ESMX 242150Z VRB01KT 4200 BR NSC 12/12 Q1008=
200508242120 METAR ESMX 242120Z VRB01KT CAVOK 13/13 Q1008=
200508242050 METAR ESMX 242050Z VRB03KT CAVOK 14/13 Q1008=
200508242020 METAR ESMX 242020Z 19005KT 9999 FEW024 15/13 Q1008=
200508241950 METAR ESMX 241950Z 18004KT CAVOK 15/13 Q1008=
200508241920 METAR ESMX 241920Z 18004KT CAVOK 16/14 Q1008=
200508241850 METAR ESMX 241850Z 18004KT CAVOK 17/14 Q1008=
200508241820 METAR ESMX 241820Z 20004KT CAVOK 17/14 Q1008=
200508241750 METAR ESMX 241750Z VRB03KT CAVOK 19/14 Q1008=
200508241720 METAR ESMX 241720Z 20005KT CAVOK 19/15 Q1008=
200508241650 METAR ESMX 241650Z VRB03KT CAVOK 20/15 Q1009=
200508241620 METAR ESMX 241620Z VRB03KT CAVOK 19/14 Q1009=
200508241550 METAR ESMX 241550Z 22004KT 200V260 CAVOK 21/14 Q1009=
200508241520 METAR ESMX 241520Z 19004KT CAVOK 20/14 Q1009=
200508241450 METAR ESMX 241450Z 19005KT CAVOK 21/13 Q1009=
200508241420 METAR ESMX 241420Z 18007KT 140V220 CAVOK 23/11 Q1009=
200508241350 METAR ESMX 241350Z 17008KT 140V260 CAVOK 23/11 Q1009=
200508241320 METAR ESMX 241320Z 15004KT 100V190 CAVOK 23/13 Q1010=
200508241250 METAR ESMX 241250Z 16004KT 9999 FEW040 21/13 Q1010=
200508241220 METAR ESMX 241220Z 14006KT 080V200 CAVOK 22/13 Q1010=
200508241150 METAR ESMX 241150Z 15005KT 090V180 CAVOK 22/14 Q1010=
200508241120 METAR ESMX 241120Z 13004KT 090V200 9999 FEW020 21/15 Q1010=
200508241050 METAR ESMX 241050Z 14004KT 090V210 9999 FEW015 20/15 Q1011=
200508241020 METAR ESMX 241020Z VRB02KT CAVOK 20/15 Q1011=
200508240950 METAR ESMX 240950Z VRB02KT 9999 BKN011 18/15 Q1011=
200508240920 METAR ESMX 240920Z VRB02KT 9999 SCT005 OVC008 17/15 Q1011=
200508240850 METAR ESMX 240850Z VRB03KT 9999 OVC005 16/15 Q1012=
200508240820 METAR ESMX 240820Z VRB03KT 9999 OVC004 16/15 Q1012=
200508240750 METAR ESMX 240750Z VRB01KT 7000 BR OVC002 16/15 Q1012=
200508240720 METAR ESMX 240720Z VRB01KT 3500 BR OVC001 15/15 Q1012=
200508240650 METAR ESMX 240650Z VRB02KT 1300 R01/P1500N R19/P1500N BR OVC001 15/14 Q1012=
200508240620 METAR ESMX 240620Z 00000KT 0550 R01/0750VP1500D R19/0900VP1500U FG OVC000 15/14 Q1012=
200508240550 METAR ESMX 240550Z VRB01KT 0800 R01/0900VP1500U R19/1200N FG VV002 14/14 Q1012=
200508240520 METAR ESMX 240520Z VRB01KT 0550 R01/1000N R19/0800V1100N FG VV002 14/14 Q1012=
200508240450 METAR ESMX 240450Z 00000KT 1000 R01/P1500D R19/P1500D BCFG VV003 13/13 Q1012=
200508240420 METAR ESMX 240420Z VRB01KT 0800 R01/0800V1000U R19/P1500U BCFG VV003 12/12 Q1012=
200508240350 METAR ESMX 240350Z VRB01KT 0700 R01/P1500N R19/P1500N BCFG VV004 11/11 Q1012=
200508240320 METAR ESMX 240320Z AUTO 00000KT 9999 SCT002 10/10 Q1012=
200508240250 METAR ESMX 240250Z AUTO 00000KT 3200 FG NSC 10/10 Q1012=
200508240220 METAR ESMX 240220Z AUTO 00000KT 9999 BR FEW066 11/10 Q1012=
200508240150 METAR ESMX 240150Z AUTO VRB02KT 9999 NSC 11/10 Q1012=
200508240120 METAR ESMX 240120Z AUTO 00000KT 9999 BKN005 12/11 Q1012=
200508240050 METAR ESMX 240050Z AUTO 00000KT 9999 FEW006 BKN007 BKN010 11/11 Q1012=
200508240020 METAR ESMX 240020Z 00000KT 9999 BKN007 11/11 Q1012=
200508232350 METAR ESMX 232350Z VRB01KT 9999 SCT007 12/11 Q1012=
200508232320 METAR ESMX 232320Z VRB01KT 9999 FEW007 12/11 Q1012=
200508232250 METAR ESMX 232250Z VRB02KT CAVOK 13/12 Q1012=
200508232220 METAR ESMX 232220Z VRB02KT CAVOK 15/12 Q1012=
200508232150 METAR ESMX 232150Z VRB01KT CAVOK 15/12 Q1012=
200508232120 METAR ESMX 232120Z VRB01KT CAVOK 16/12 Q1012=
200508232050 METAR ESMX 232050Z VRB02KT CAVOK 16/12 Q1012=
200508232020 METAR ESMX 232020Z VRB03KT CAVOK 16/12 Q1012=
200508231950 METAR ESMX 231950Z VRB03KT CAVOK 17/12 Q1012=
200508231920 METAR ESMX 231920Z VRB03KT CAVOK 17/12 Q1012=
200508231850 METAR ESMX 231850Z VRB03KT CAVOK 17/12 Q1012=
200508231820 METAR ESMX 231820Z VRB03KT CAVOK 18/12 Q1012=
200508231750 METAR ESMX 231750Z 12004KT 060V160 CAVOK 18/13 Q1012=
200508231720 METAR ESMX 231720Z VRB03KT CAVOK 19/13 Q1012=
200508231650 METAR ESMX 231650Z 12004KT 080V160 CAVOK 19/13 Q1012=
200508231620 METAR ESMX 231620Z 11004KT 080V160 9999 FEW035 20/13 Q1012=
200508231550 METAR ESMX 231550Z 12004KT 060V160 9999 FEW037 SCT042 BKN049 20/13 Q1012=
200508231520 METAR ESMX 231520Z 14005KT 110V180 9999 FEW036 BKN044 21/13 Q1012=
200508231450 METAR ESMX 231450Z 13005KT 090V170 9999 FEW045 21/13 Q1012=
200508231420 METAR ESMX 231420Z 14004KT 070V170 9999 FEW035 BKN120 20/13 Q1012=
200508231350 METAR ESMX 231350Z 11006KT 050V160 9999 FEW041 SCT048 21/13 Q1012=
200508231320 METAR ESMX 231320Z 15008KT 070V170 9999 FEW041 SCT048 22/13 Q1012=
200508231250 METAR ESMX 231250Z 16008KT 9999 FEW035 BKN041 22/13 Q1012=
200508231220 METAR ESMX 231220Z 15007KT 080V180 9999 FEW034 SCT051 21/14 Q1012=
200508231150 METAR ESMX 231150Z 14006KT 080V170 9999 FEW036 21/13 Q1012=
200508231120 METAR ESMX 231120Z 14006KT 090V170 9999 SCT032 22/14 Q1012=
200508231050 METAR ESMX 231050Z 12006KT 070V170 9999 SCT032 22/14 Q1012=
200508231020 METAR ESMX 231020Z 10006KT 040V150 9999 FEW023 SCT035 21/14 Q1012=
200508230950 METAR ESMX 230950Z 07005KT 020V170 9999 FEW021 SCT200 21/13 Q1012=
200508230920 METAR ESMX 230920Z 06005KT 010V080 9999 FEW020 SCT200 20/14 Q1013=
200508230850 METAR ESMX 230850Z 07004KT 350V150 9999 FEW017 SCT200 19/14 Q1013=
200508230820 METAR ESMX 230820Z 05005KT 010V100 9999 FEW012 SCT200 18/14 Q1013=
200508230750 METAR ESMX 230750Z 05006KT 010V090 9999 SCT008 SCT200 17/14 Q1013=
200508230720 METAR ESMX 230720Z 07005KT 020V110 9999 SCT006 BKN008 15/14 Q1013=
200508230650 METAR ESMX 230650Z 07005KT 010V100 9999 BKN005 14/13 Q1013=
200508230620 METAR ESMX 230620Z 06005KT 020V110 9999 BKN004 14/13 Q1013=
200508230550 METAR ESMX 230550Z 05005KT 9999 OVC003 13/13 Q1013=
200508230520 METAR ESMX 230520Z 06004KT 020V100 9999 FEW010 BKN100 13/12 Q1014=
200508230450 METAR ESMX 230450Z 06004KT 9999 FEW015 BKN080 12/12 Q1014=
200508230420 METAR ESMX 230420Z VRB03KT CAVOK 12/12 Q1014=
200508230350 METAR ESMX 230350Z VRB03KT CAVOK 11/11 Q1014=
200508230320 METAR ESMX 230320Z AUTO VRB03KT 9999 NSC 11/11 Q1014=
200508230250 METAR ESMX 230250Z AUTO VRB02KT 9999 NSC 11/11 Q1014=
200508230220 METAR ESMX 230220Z AUTO VRB02KT 9999 NSC 11/11 Q1015=
200508230150 METAR ESMX 230150Z AUTO VRB02KT 9999 NSC 11/10 Q1015=
200508230120 METAR ESMX 230120Z AUTO VRB02KT 9999 NSC 11/11 Q1015=
200508230050 METAR ESMX 230050Z AUTO VRB01KT 9999 NSC 11/10 Q1015=
200508230020 METAR ESMX 230020Z VRB02KT CAVOK 12/11 Q1015=
200508222350 METAR ESMX 222350Z VRB01KT CAVOK 12/11 Q1016=
200508222320 METAR ESMX 222320Z VRB02KT CAVOK 12/11 Q1016=
200508222250 METAR ESMX 222250Z VRB02KT CAVOK 13/11 Q1016=
200508222220 METAR ESMX 222220Z VRB03KT CAVOK 14/11 Q1016=
200508222150 METAR ESMX 222150Z 13004KT 080V160 CAVOK 14/11 Q1017=
200508222120 METAR ESMX 222120Z 12004KT 080V170 CAVOK 15/11 Q1017=
200508222050 METAR ESMX 222050Z 12004KT 070V150 CAVOK 15/11 Q1017=
200508222020 METAR ESMX 222020Z 12005KT 080V160 CAVOK 16/11 Q1017=
200508221950 METAR ESMX 221950Z 12004KT 070V160 CAVOK 17/12 Q1017=
200508221920 METAR ESMX 221920Z 13006KT 090V150 CAVOK 17/12 Q1017=
200508221850 METAR ESMX 221850Z 13004KT 090V170 CAVOK 18/13 Q1016=
200508221820 METAR ESMX 221820Z 13004KT 100V170 CAVOK 19/13 Q1016=
200508221750 METAR ESMX 221750Z 13004KT 080V160 CAVOK 20/13 Q1016=
200508221650 METAR ESMX 221650Z 16004KT 130V200 CAVOK 22/14 Q1016=
200508221620 METAR ESMX 221620Z 15004KT 100V200 CAVOK 23/14 Q1016=
200508221550 METAR ESMX 221550Z 15005KT 100V170 CAVOK 23/13 Q1016=
200508221520 METAR ESMX 221520Z 17006KT 140V210 CAVOK 23/14 Q1017=
200508221450 METAR ESMX 221450Z 13005KT 080V170 CAVOK 23/13 Q1017=
200508221420 METAR ESMX 221420Z 16005KT 110V190 CAVOK 23/14 Q1017=
200508221350 METAR ESMX 221350Z 14005KT 100V200 CAVOK 24/14 Q1017=
200508221320 METAR ESMX 221320Z 13005KT 070V180 CAVOK 24/14 Q1018=
200508221250 METAR ESMX 221250Z 16005KT 110V230 CAVOK 23/14 Q1018=
200508221220 METAR ESMX 221220Z 16006KT 110V220 CAVOK 23/14 Q1018=
200508221150 METAR ESMX 221150Z 13005KT 090V190 9999 FEW030 22/14 Q1018=
200508221120 METAR ESMX 221120Z 17005KT 030V200 9999 FEW030 22/15 Q1018=
200508221050 METAR ESMX 221050Z 14006KT 050V180 CAVOK 22/14 Q1019=
200508221020 METAR ESMX 221020Z 15005KT 100V200 CAVOK 21/14 Q1019=
200508220950 METAR ESMX 220950Z 16004KT 110V210 CAVOK 21/14 Q1019=
200508220920 METAR ESMX 220920Z 13005KT 020V170 CAVOK 21/14 Q1019=
200508220850 METAR ESMX 220850Z 10005KT 020V190 CAVOK 20/14 Q1019=
200508220820 METAR ESMX 220820Z 12005KT 050V170 CAVOK 19/14 Q1019=
200508220750 METAR ESMX 220750Z 14005KT 070V190 CAVOK 19/14 Q1019=
200508220720 METAR ESMX 220720Z 13005KT 090V170 9999 FEW012 18/14 Q1019=
200508220650 METAR ESMX 220650Z 12006KT 070V160 9999 SCT010 SCT100 18/14 Q1019=
200508220620 METAR ESMX 220620Z 12005KT 070V200 9999 BKN010 17/14 Q1019=
200508220550 METAR ESMX 220550Z 10004KT 060V150 9999 BKN009 16/14 Q1019=
200508220520 METAR ESMX 220520Z VRB03KT 9999 BKN008 16/14 Q1019=
200508220450 METAR ESMX 220450Z VRB03KT 9999 BKN010 16/14 Q1019=
200508220420 METAR ESMX 220420Z 08005KT 040V140 9999 BKN008 16/15 Q1019=
200508220350 METAR ESMX 220350Z VRB03KT 9999 BKN008 16/15 Q1019=
200508220320 METAR ESMX 220320Z AUTO 12005KT 080V160 9999 OVC007 16/15 Q1019=
200508220250 METAR ESMX 220250Z AUTO 12004KT 070V170 9999 OVC007 17/15 Q1019=
200508220220 METAR ESMX 220220Z AUTO 10004KT 050V140 9999 BR FEW004 OVC005 17/16 Q1019=
200508220150 METAR ESMX 220150Z AUTO 09004KT 040V150 9999 BR OVC004 17/16 Q1019=
200508220120 METAR ESMX 220120Z AUTO VRB03KT 9000 BR OVC004 16/16 Q1020=
200508220050 METAR ESMX 220050Z AUTO 10004KT 050V140 8000 BR OVC003 16/16 Q1020=
200508220020 METAR ESMX 220020Z VRB03KT 6000 BR OVC002 16/16 Q1020=
200508212350 METAR ESMX 212350Z 09004KT 030V130 9999 BKN004 16/15 Q1020=
200508212320 METAR ESMX 212320Z 06006KT 020V110 9999 BKN005 16/15 Q1020=
200508212250 METAR ESMX 212250Z 07005KT 030V120 9999 BKN005 16/15 Q1020=
200508212220 METAR ESMX 212220Z 08005KT 040V150 9999 FEW007 SCT094 16/15 Q1020=
200508212150 METAR ESMX 212150Z VRB03KT CAVOK 17/16 Q1020=
200508212120 METAR ESMX 212120Z VRB03KT CAVOK 18/16 Q1020=
200508212050 METAR ESMX 212050Z 10004KT 040V140 CAVOK 18/16 Q1020=
200508212020 METAR ESMX 212020Z VRB03KT CAVOK 19/16 Q1020=
200508211950 METAR ESMX 211950Z VRB03KT CAVOK 19/16 Q1019=
200508211920 METAR ESMX 211920Z 11004KT 030V150 CAVOK 20/16 Q1019=
200508211850 METAR ESMX 211850Z VRB03KT CAVOK 21/15 Q1019=
200508211820 METAR ESMX 211820Z 12004KT 060V160 CAVOK 22/15 Q1019=
200508211750 METAR ESMX 211750Z VRB03KT CAVOK 23/16 Q1019=
200508211720 METAR ESMX 211720Z VRB03KT CAVOK 23/16 Q1018=
200508211650 METAR ESMX 211650Z VRB03KT CAVOK 25/16 Q1018=
200508211620 METAR ESMX 211620Z 05004KT 010V110 CAVOK 25/16 Q1018=
200508211550 METAR ESMX 211550Z VRB03KT CAVOK 26/15 Q1018=
200508211520 METAR ESMX 211520Z 06005KT 020V090 CAVOK 26/16 Q1019=
200508211450 METAR ESMX 211450Z 05004KT 020V080 CAVOK 25/15 Q1019=
200508211420 METAR ESMX 211420Z VRB03KT CAVOK 25/16 Q1019=
200508211350 METAR ESMX 211350Z 36005KT 330V040 CAVOK 25/15 Q1019=
200508211320 METAR ESMX 211320Z 35005KT CAVOK 26/15 Q1019=
200508211250 METAR ESMX 211250Z 34004KT 260V030 CAVOK 27/14 Q1019=
200508211220 METAR ESMX 211220Z AUTO 35004KT 310V030 9999 SCT078 26/15 Q1019=
200508211150 METAR ESMX 211150Z AUTO 34006KT 320V020 9999 SCT078 26/14 Q1020=
200508211120 METAR ESMX 211120Z AUTO 34004KT 300V010 9999 FEW091 25/15 Q1020=
200508211050 METAR ESMX 211050Z AUTO 02006KT 330V050 9999 NSC 25/14 Q1020=
200508211020 METAR ESMX 211020Z AUTO 01005KT 9999 NSC 26/14 Q1020=
200508210950 METAR ESMX 210950Z AUTO VRB02KT 9999 NSC 25/13 Q1020=
200508210920 METAR ESMX 210920Z AUTO VRB02KT 9999 NSC 24/13 Q1020=
200508210850 METAR ESMX 210850Z AUTO VRB02KT 9999 NSC 23/13 Q1020=
200508210820 METAR ESMX 210820Z AUTO VRB03KT 9999 NSC 22/11 Q1020=
200508210750 METAR ESMX 210750Z AUTO VRB02KT 9999 NSC 21/14 Q1020=
200508210720 METAR ESMX 210720Z AUTO 36004KT 9999 NSC 19/15 Q1020=
200508210650 METAR ESMX 210650Z AUTO VRB01KT 9999 NSC 19/15 Q1020=
200508210620 METAR ESMX 210620Z AUTO VRB02KT 9999 NSC 17/15 Q1020=
200508210550 METAR ESMX 210550Z AUTO VRB03KT 9999 NSC 15/15 Q1020=
200508210520 METAR ESMX 210520Z AUTO VRB01KT 9999 NSC 13/13 Q1020=
200508210450 METAR ESMX 210450Z AUTO 00000KT 9999 NSC 11/10 Q1020=
200508210420 METAR ESMX 210420Z AUTO 00000KT 9999 R01/P1500N R19/1000VP1500D BCFG NSC 10/10 Q1020=
200508210350 METAR ESMX 210350Z AUTO 00000KT 0200 R01/P1500N R19/P1500U BCFG NSC 10/10 Q1020=
200508210320 METAR ESMX 210320Z AUTO 00000KT 0600 R01/0800VP1500D R19/P1500N BCFG NSC 10/10 Q1020=
200508210250 METAR ESMX 210250Z AUTO VRB01KT 0350 R01/P1500D R19/0600D FG NSC 10/10 Q1020=
200508210220 METAR ESMX 210220Z AUTO 00000KT 9999 NSC 11/10 Q1020=
200508210150 METAR ESMX 210150Z AUTO 00000KT 9999 NSC 11/10 Q1020=
200508210120 METAR ESMX 210120Z AUTO VRB02KT 9999 NSC 12/11 Q1020=
200508210050 METAR ESMX 210050Z AUTO VRB01KT 3000 BR NSC 11/11 Q1020=
200508210020 METAR ESMX 210020Z AUTO VRB01KT 9999 NSC 12/11 Q1020=
200508202350 METAR ESMX 202350Z AUTO 00000KT 9999 NSC 12/11 Q1020=
200508202320 METAR ESMX 202320Z AUTO VRB01KT 9999 NSC 12/11 Q1020=
200508202250 METAR ESMX 202250Z AUTO 00000KT 9999 NSC 13/12 Q1020=
200508202220 METAR ESMX 202220Z AUTO VRB01KT 9999 NSC 12/11 Q1020=
200508202150 METAR ESMX 202150Z AUTO 00000KT 9999 NSC 14/13 Q1020=
200508202120 METAR ESMX 202120Z AUTO VRB02KT 9999 NSC 14/13 Q1020=
200508202050 METAR ESMX 202050Z AUTO VRB02KT 9999 NSC 15/13 Q1020=
200508202020 METAR ESMX 202020Z AUTO VRB01KT 9999 NSC 15/13 Q1020=
200508201950 METAR ESMX 201950Z AUTO VRB03KT 9999 NSC 16/13 Q1020=
200508201920 METAR ESMX 201920Z AUTO VRB03KT 1800 NSC 17/13 Q1020=
200508201850 METAR ESMX 201850Z AUTO 17004KT 9999 NSC 21/12 Q1020=
200508201820 METAR ESMX 201820Z AUTO 17005KT 9999 NSC 22/12 Q1020=
200508201750 METAR ESMX 201750Z AUTO 16006KT 9999 NSC 22/12 Q1019=
200508201720 METAR ESMX 201720Z AUTO 17006KT 9999 FEW061 23/13 Q1019=
200508201650 METAR ESMX 201650Z AUTO 17006KT 130V210 9999 OVC061 24/13 Q1019=
200508201620 METAR ESMX 201620Z AUTO 14005KT 100V190 9999 BKN062 24/15 Q1019=
200508201550 METAR ESMX 201550Z AUTO 13004KT 100V170 9999 OVC058 24/14 Q1019=
200508201520 METAR ESMX 201520Z AUTO 13005KT 090V160 9999 OVC059 24/14 Q1019=
200508201450 METAR ESMX 201450Z AUTO 15006KT 9999 BKN060 24/14 Q1019=
200508201420 METAR ESMX 201420Z AUTO 16007KT 140V200 9999 FEW047 BKN053 24/14 Q1019=
200508201350 METAR ESMX 201350Z AUTO 12004KT 050V170 9999 SCT056 BKN100 25/15 Q1019=
200508201320 METAR ESMX 201320Z AUTO 16006KT 100V190 9999 SCT060 26/13 Q1019=
200508201250 METAR ESMX 201250Z AUTO 17007KT 120V210 9999 FEW050 SCT061 25/13 Q1019=
200508201220 METAR ESMX 201220Z AUTO 18007KT 120V210 9999 FEW049 26/14 Q1020=
200508201150 METAR ESMX 201150Z AUTO 14006KT 080V200 9999 FEW050 26/14 Q1020=
200508201120 METAR ESMX 201120Z AUTO 15007KT 080V190 9999 NSC 25/13 Q1020=
200508201050 METAR ESMX 201050Z AUTO 15009KT 100V190 9999 NSC 25/12 Q1020=
200508201020 METAR ESMX 201020Z AUTO 13007KT 090V170 9999 NSC 25/14 Q1020=
200508200950 METAR ESMX 200950Z AUTO 13004KT 040V210 9999 NSC 25/15 Q1020=
200508200920 METAR ESMX 200920Z 05004KT 020V110 CAVOK 24/16 Q1020=
200508200850 METAR ESMX 200850Z 04004KT 360V080 CAVOK 22/16 Q1020=
200508200820 METAR ESMX 200820Z 08004KT 040V110 CAVOK 22/16 Q1020=
200508200750 METAR ESMX 200750Z VRB03KT CAVOK 21/15 Q1020=
200508200720 METAR ESMX 200720Z VRB03KT CAVOK 20/16 Q1020=
200508200650 METAR ESMX 200650Z VRB03KT CAVOK 19/15 Q1020=
200508200620 METAR ESMX 200620Z VRB03KT CAVOK 19/15 Q1020=
200508200550 METAR ESMX 200550Z AUTO VRB03KT 9999 NSC 17/15 Q1020=
200508200520 METAR ESMX 200520Z AUTO VRB02KT 9999 NSC 15/14 Q1020=
200508200450 METAR ESMX 200450Z AUTO VRB02KT 9999 NSC 14/13 Q1020=
200508200420 METAR ESMX 200420Z AUTO VRB03KT 9999 NSC 14/13 Q1020=
200508200350 METAR ESMX 200350Z AUTO VRB02KT 9999 NSC 14/13 Q1020=
200508200320 METAR ESMX 200320Z AUTO VRB03KT 9999 NSC 14/13 Q1020=
200508200250 METAR ESMX 200250Z AUTO VRB03KT 9999 NSC 14/13 Q1020=
200508200220 METAR ESMX 200220Z AUTO VRB03KT 9999 NSC 14/13 Q1020=
200508200150 METAR ESMX 200150Z AUTO VRB03KT 9999 NSC 14/13 Q1020=
200508200120 METAR ESMX 200120Z AUTO VRB03KT 9999 NSC 13/13 Q1020=
200508200050 METAR ESMX 200050Z AUTO VRB03KT 9999 NSC 13/13 Q1020=
200508200020 METAR ESMX 200020Z AUTO VRB03KT 9999 NSC 13/12 Q1020=
200508192350 METAR ESMX 192350Z AUTO VRB03KT 9999 NSC 13/12 Q1021=
200508192320 METAR ESMX 192320Z AUTO VRB03KT 9999 NSC 13/12 Q1021=
200508192250 METAR ESMX 192250Z AUTO VRB02KT 9999 NSC 13/12 Q1021=
200508192220 METAR ESMX 192220Z AUTO 10004KT 070V140 9999 NSC 13/12 Q1021=
200508192150 METAR ESMX 192150Z AUTO VRB03KT 9999 NSC 13/11 Q1021=
200508192120 METAR ESMX 192120Z AUTO VRB01KT 9999 NSC 14/11 Q1021=
200508192050 METAR ESMX 192050Z AUTO VRB03KT 9999 NSC 15/11 Q1021=
200508192020 METAR ESMX 192020Z AUTO VRB03KT 9999 NSC 15/11 Q1021=
200508191950 METAR ESMX 191950Z VRB03KT CAVOK 16/11 Q1020=
200508191920 METAR ESMX 191920Z VRB03KT CAVOK 17/11 Q1020=
200508191850 METAR ESMX 191850Z VRB03KT CAVOK 17/12 Q1020=
200508191820 METAR ESMX 191820Z VRB03KT CAVOK 18/12 Q1020=
200508191750 METAR ESMX 191750Z 11004KT 080V160 CAVOK 19/12 Q1020=
200508191720 METAR ESMX 191720Z 13005KT 090V210 CAVOK 20/12 Q1020=
200508191650 METAR ESMX 191650Z 13006KT 100V170 CAVOK 21/12 Q1020=
200508191620 METAR ESMX 191620Z 14007KT 100V190 CAVOK 22/12 Q1020=
200508191550 METAR ESMX 191550Z 15007KT 120V190 CAVOK 23/11 Q1020=
200508191520 METAR ESMX 191520Z 16006KT 120V200 CAVOK 23/12 Q1021=
200508191450 METAR ESMX 191450Z 16008KT 110V190 CAVOK 24/11 Q1021=
200508191420 METAR ESMX 191420Z 16008KT 110V190 CAVOK 24/12 Q1021=
200508191350 METAR ESMX 191350Z 14007KT 080V170 CAVOK 23/12 Q1021=
200508191320 METAR ESMX 191320Z 14007KT 080V180 CAVOK 24/12 Q1021=
200508191250 METAR ESMX 191250Z 15007KT 100V190 CAVOK 24/12 Q1021=
200508191220 METAR ESMX 191220Z 14005KT 060V180 CAVOK 23/13 Q1021=
200508191150 METAR ESMX 191150Z 15007KT 100V190 9999 FEW040 23/13 Q1021=
200508191120 METAR ESMX 191120Z 14008KT 070V190 9999 FEW040 23/13 Q1021=
200508191050 METAR ESMX 191050Z 16008KT 120V210 CAVOK 22/13 Q1021=
200508191020 METAR ESMX 191020Z 12006KT 060V180 CAVOK 22/14 Q1022=
200508190920 METAR ESMX 190920Z 14007KT 080V180 CAVOK 20/14 Q1022=
200508190850 METAR ESMX 190850Z 14007KT 080V190 CAVOK 20/14 Q1022=
200508190820 METAR ESMX 190820Z 11006KT 070V170 9999 FEW018 19/14 Q1022=
200508190750 METAR ESMX 190750Z 14005KT 110V180 CAVOK 18/14 Q1022=
200508190720 METAR ESMX 190720Z 14006KT 100V210 9999 FEW015 17/14 Q1022=
200508190650 METAR ESMX 190650Z 14006KT 100V190 CAVOK 16/13 Q1022=
200508190620 METAR ESMX 190620Z 12004KT 050V170 CAVOK 15/13 Q1022=
200508190550 METAR ESMX 190550Z VRB03KT CAVOK 14/13 Q1022=
200508190520 METAR ESMX 190520Z VRB03KT CAVOK 13/12 Q1022=
200508190450 METAR ESMX 190450Z VRB02KT CAVOK 11/11 Q1022=
200508190420 METAR ESMX 190420Z VRB02KT CAVOK 07/07 Q1022=
200508190350 METAR ESMX 190350Z 00000KT 9999 MIFG NSC 07/07 Q1022=
200508190320 METAR ESMX 190320Z AUTO 00000KT 1000 R01/P1500N R19/P1500U BR NSC 07/07 Q1022=
200508190250 METAR ESMX 190250Z AUTO 00000KT 2800 BR NSC 08/08 Q1022=
200508190220 METAR ESMX 190220Z AUTO VRB02KT 7000 BR NSC 09/09 Q1022=
200508190150 METAR ESMX 190150Z AUTO VRB02KT 9000 BR NSC 10/09 Q1023=
200508190120 METAR ESMX 190120Z AUTO VRB02KT 9999 NSC 10/09 Q1023=
200508190050 METAR ESMX 190050Z AUTO VRB03KT 9999 NSC 13/12 Q1022=
200508190020 METAR ESMX 190020Z AUTO 13004KT 9999 NSC 13/12 Q1023=
200508182350 METAR ESMX 182350Z 14004KT CAVOK 13/12 Q1023=
200508182320 METAR ESMX 182320Z 15004KT 110V170 CAVOK 11/11 Q1023=
200508182250 METAR ESMX 182250Z VRB02KT CAVOK 11/11 Q1022=
200508182220 METAR ESMX 182220Z VRB03KT CAVOK 12/11 Q1022=
200508182150 METAR ESMX 182150Z VRB03KT CAVOK 12/11 Q1022=
200508182120 METAR ESMX 182120Z VRB03KT CAVOK 13/12 Q1022=
200508182050 METAR ESMX 182050Z VRB01KT 9999 NSC 13/12 Q1022=
200508182020 METAR ESMX 182020Z 15004KT CAVOK 14/13 Q1022=
200508181950 METAR ESMX 181950Z VRB03KT CAVOK 16/13 Q1022=
200508181920 METAR ESMX 181920Z VRB03KT CAVOK 16/13 Q1022=
200508181850 METAR ESMX 181850Z 16004KT CAVOK 19/13 Q1022=
200508181820 METAR ESMX 181820Z 16005KT CAVOK 21/13 Q1021=
200508181750 METAR ESMX 181750Z 16006KT CAVOK 22/13 Q1021=
200508181720 METAR ESMX 181720Z 16004KT CAVOK 23/13 Q1021=
200508181650 METAR ESMX 181650Z VRB03KT CAVOK 23/13 Q1021=
200508181620 METAR ESMX 181620Z 19005KT 150V250 CAVOK 23/13 Q1021=
200508181550 METAR ESMX 181550Z 18006KT 140V230 CAVOK 24/13 Q1021=
200508181520 METAR ESMX 181520Z 20007KT 160V240 CAVOK 24/13 Q1021=
200508181450 METAR ESMX 181450Z 17004KT 120V250 CAVOK 24/13 Q1021=
200508181420 METAR ESMX 181420Z VRB06KT CAVOK 24/14 Q1022=
200508181350 METAR ESMX 181350Z 14004KT 100V210 CAVOK 24/13 Q1022=
200508181320 METAR ESMX 181320Z 18005KT 120V260 CAVOK 24/13 Q1022=
200508181250 METAR ESMX 181250Z 16008KT CAVOK 23/12 Q1022=
200508181220 METAR ESMX 181220Z VRB03KT CAVOK 23/14 Q1022=
200508181150 METAR ESMX 181150Z VRB03KT CAVOK 22/13 Q1023=
200508181120 METAR ESMX 181120Z VRB02KT CAVOK 22/14 Q1023=
200508181050 METAR ESMX 181050Z 13004KT 080V190 CAVOK 21/15 Q1023=
200508181020 METAR ESMX 181020Z VRB01KT CAVOK 20/14 Q1023=
200508180950 METAR ESMX 180950Z VRB02KT CAVOK 18/15 Q1023=
200508180920 METAR ESMX 180920Z VRB02KT 9999 FEW005 17/14 Q1023=
200508180850 METAR ESMX 180850Z VRB01KT 9999 SCT003 15/14 Q1023=
200508180820 METAR ESMX 180820Z VRB03KT 5000 BR OVC002 13/13 Q1023=
200508180750 METAR ESMX 180750Z VRB03KT 1600 BR OVC000 13/13 Q1023=
200508180720 METAR ESMX 180720Z VRB02KT 0550 R19/0450V1100N FG VV001 12/12 Q1023=
200508180650 METAR ESMX 180650Z VRB02KT 0400 R19/0500V0750N FG VV001 12/11 Q1023=
200508180620 METAR ESMX 180620Z VRB03KT 0350 R19/0650N FG VV001 11/11 Q1023=
200508180550 METAR ESMX 180550Z VRB03KT 0300 R01/1100VP1500N R19/P1500U FG VV001 11/11 Q1023=
200508180520 METAR ESMX 180520Z VRB02KT 0400 R01/0650N R19/0450V0550N FG VV001 11/10 Q1023=
200508180450 METAR ESMX 180450Z VRB01KT 0350 R01/0500D R19/P1500D FG VV002 09/09 Q1023=
200508180420 METAR ESMX 180420Z 00000KT 0800 FG SCT200 07/07 Q1022=
200508180350 METAR ESMX 180350Z 00000KT 5000 BCFG SCT200 07/07 Q1022=
200508180320 METAR ESMX 180320Z AUTO 00000KT 9999 NSC 08/08 Q1022=
200508180250 METAR ESMX 180250Z AUTO VRB01KT 9999 NSC 08/08 Q1022=
200508180220 METAR ESMX 180220Z AUTO 00000KT 9999 NSC 08/08 Q1022=
200508180150 METAR ESMX 180150Z AUTO VRB02KT 9999 NSC 09/08 Q1022=
200508180120 METAR ESMX 180120Z AUTO 00000KT 9999 NSC 09/08 Q1022=
200508180050 METAR ESMX 180050Z AUTO VRB01KT 9999 NSC 09/08 Q1022=
200508180020 METAR ESMX 180020Z AUTO 00000KT 9999 NSC 10/10 Q1022=
200508172350 METAR ESMX 172350Z VRB02KT CAVOK 10/09 Q1022=
200508172320 METAR ESMX 172320Z VRB01KT CAVOK 10/09 Q1022=
200508172250 METAR ESMX 172250Z VRB01KT CAVOK 10/10 Q1022=
200508172220 METAR ESMX 172220Z VRB01KT CAVOK 12/11 Q1022=
200508172150 METAR ESMX 172150Z VRB02KT CAVOK 12/11 Q1022=
200508172120 METAR ESMX 172120Z VRB02KT CAVOK 13/11 Q1022=
200508172050 METAR ESMX 172050Z VRB03KT CAVOK 14/12 Q1022=
200508172020 METAR ESMX 172020Z VRB03KT CAVOK 14/11 Q1022=
200508171950 METAR ESMX 171950Z 25004KT CAVOK 15/12 Q1022=
200508171920 METAR ESMX 171920Z 25004KT CAVOK 16/12 Q1021=
200508171850 METAR ESMX 171850Z VRB03KT CAVOK 17/12 Q1021=
200508171820 METAR ESMX 171820Z 24004KT CAVOK 18/12 Q1021=
200508171750 METAR ESMX 171750Z 25005KT CAVOK 19/12 Q1021=
200508171720 METAR ESMX 171720Z VRB03KT CAVOK 21/12 Q1020=
200508171650 METAR ESMX 171650Z 30006KT 260V340 CAVOK 21/12 Q1020=
200508171620 METAR ESMX 171620Z 30007KT 260V330 CAVOK 21/11 Q1020=
200508171550 METAR ESMX 171550Z 28005KT 250V310 CAVOK 22/11 Q1020=
200508171520 METAR ESMX 171520Z 27006KT 230V320 9999 FEW048 22/12 Q1020=
200508171450 METAR ESMX 171450Z 28008KT 260V320 9999 SCT047 22/11 Q1020=
200508171420 METAR ESMX 171420Z 33006KT 300V010 9999 SCT045 21/11 Q1020=
200508171350 METAR ESMX 171350Z 27006KT 230V320 9999 SCT045 22/12 Q1020=
200508171320 METAR ESMX 171320Z 27007KT 200V310 9999 FEW040 SCT047 21/12 Q1020=
200508171250 METAR ESMX 171250Z 30008KT 250V330 9999 FEW042 21/11 Q1020=
200508171220 METAR ESMX 171220Z 28008KT 240V320 9999 FEW040 21/11 Q1020=
200508171150 METAR ESMX 171150Z 29007KT 260V340 9999 FEW035 20/11 Q1020=
200508171120 METAR ESMX 171120Z 28007KT 230V350 9999 FEW036 20/11 Q1020=
200508171050 METAR ESMX 171050Z 29007KT 210V340 9999 FEW036 19/12 Q1020=
200508171020 METAR ESMX 171020Z 24006KT 190V340 9999 FEW022 19/12 Q1020=
200508170950 METAR ESMX 170950Z 26006KT 220V320 9999 FEW020 18/11 Q1020=
200508170920 METAR ESMX 170920Z 21006KT 9999 FEW019 17/12 Q1021=
200508170850 METAR ESMX 170850Z 25005KT 200V340 9999 FEW016 16/12 Q1020=
200508170820 METAR ESMX 170820Z 25006KT 9999 SCT015 15/12 Q1020=
200508170750 METAR ESMX 170750Z 25006KT 210V310 9999 FEW012 SCT014 15/11 Q1020=
200508170720 METAR ESMX 170720Z 28006KT 220V320 9999 OVC009 14/12 Q1020=
200508170650 METAR ESMX 170650Z 29006KT 250V340 9999 SCT007 BKN009 13/11 Q1020=
200508170620 METAR ESMX 170620Z 30005KT 250V340 9999 BKN006 12/11 Q1020=
200508170550 METAR ESMX 170550Z 30007KT 260V010 9999 OVC006 12/11 Q1019=
200508170520 METAR ESMX 170520Z 26005KT 230V300 9999 BKN006 12/11 Q1019=
200508170450 METAR ESMX 170450Z VRB03KT 9999 BKN005 11/11 Q1019=
200508170420 METAR ESMX 170420Z VRB03KT 9999 OVC004 11/11 Q1019=
200508170350 METAR ESMX 170350Z VRB03KT 8000 BR OVC003 10/09 Q1019=
200508170320 METAR ESMX 170320Z AUTO 29004KT 8000 BR FEW002 OVC004 09/09 Q1019=
200508170250 METAR ESMX 170250Z AUTO 28004KT 240V300 8000 BR BKN001 10/09 Q1019=
200508170220 METAR ESMX 170220Z AUTO 26005KT 9999 FEW003 10/10 Q1019=
200508170150 METAR ESMX 170150Z AUTO 26004KT 9999 NSC 10/10 Q1019=
200508170120 METAR ESMX 170120Z AUTO 26004KT 9999 NSC 10/10 Q1019=
200508170050 METAR ESMX 170050Z AUTO 26004KT 9999 NSC 10/10 Q1019=
200508170020 METAR ESMX 170020Z AUTO 26004KT 230V300 9999 NSC 10/09 Q1019=
200508162350 METAR ESMX 162350Z 25005KT CAVOK 10/09 Q1019=
200508162320 METAR ESMX 162320Z 26005KT CAVOK 11/10 Q1019=
200508162250 METAR ESMX 162250Z AUTO 26004KT 9999 NSC 11/09 Q1019=
200508162220 METAR ESMX 162220Z 25004KT CAVOK 11/09 Q1019=
200508162150 METAR ESMX 162150Z AUTO 26004KT 9999 NSC 12/10 Q1018=
200508162120 METAR ESMX 162120Z 25004KT CAVOK 12/10 Q1018=
200508162050 METAR ESMX 162050Z VRB03KT CAVOK 12/10 Q1018=
200508162020 METAR ESMX 162020Z 25004KT CAVOK 13/10 Q1018=
200508161950 METAR ESMX 161950Z 22004KT 190V250 CAVOK 13/11 Q1018=
200508161920 METAR ESMX 161920Z 23005KT CAVOK 14/11 Q1017=
200508161850 METAR ESMX 161850Z 22004KT CAVOK 14/11 Q1017=
200508161820 METAR ESMX 161820Z 25005KT CAVOK 16/11 Q1017=
200508161750 METAR ESMX 161750Z 26005KT 230V300 CAVOK 16/11 Q1016=
200508161720 METAR ESMX 161720Z 26007KT 220V290 9999 FEW030 17/11 Q1016=
200508161650 METAR ESMX 161650Z 26010KT 230V300 9999 FEW030 18/11 Q1016=
200508161620 METAR ESMX 161620Z 25009KT 210V290 9999 FEW030 18/11 Q1016=
200508161550 METAR ESMX 161550Z 24010KT 210V280 9999 FEW030 18/11 Q1016=
200508161520 METAR ESMX 161520Z 25009KT 200V290 9999 FEW030 18/11 Q1016=
200508161450 METAR ESMX 161450Z 25010KT 210V290 9999 SCT027 18/12 Q1016=
200508161420 METAR ESMX 161420Z 24012KT 210V270 9999 FEW016 SCT024 18/12 Q1016=
200508161350 METAR ESMX 161350Z 24012KT 9999 SCT015 BKN025 17/13 Q1016=
200508161320 METAR ESMX 161320Z 24010KT 190V280 9999 BKN020 17/13 Q1016=
200508161250 METAR ESMX 161250Z 24011KT 220V290 9999 BKN020 17/13 Q1016=
200508161220 METAR ESMX 161220Z 24011KT 210V270 9999 OVC020 17/13 Q1016=
200508161150 METAR ESMX 161150Z 24011KT 200V280 9999 BKN020 17/12 Q1017=
200508161120 METAR ESMX 161120Z 26011KT 230V310 9999 FEW015 BKN020 17/13 Q1017=
200508161050 METAR ESMX 161050Z 27010KT 240V310 9999 FEW017 OVC020 17/13 Q1016=
200508160950 METAR ESMX 160950Z 26009KT 220V320 9999 FEW014 OVC017 16/13 Q1017=
200508160920 METAR ESMX 160920Z 25008KT 220V290 9999 FEW012 OVC015 15/13 Q1017 REDZ=
200508160850 METAR ESMX 160850Z 25008KT 200V300 9999 BKN010 15/13 Q1017 RERA=
200508160820 METAR ESMX 160820Z 24005KT 190V280 9999 -SHRA BKN011 15/13 Q1017=
200508160750 METAR ESMX 160750Z 26007KT 230V300 9999 BKN010 15/12 Q1016=
200508160720 METAR ESMX 160720Z 25008KT 210V280 9999 SCT010 BKN016 15/13 Q1016=
200508160650 METAR ESMX 160650Z 25007KT 220V280 9999 FEW009 SCT015 14/13 Q1016=
200508160620 METAR ESMX 160620Z 25007KT 9999 BKN008 14/13 Q1016=
200508160550 METAR ESMX 160550Z 22006KT 190V260 9999 FEW009 SCT012 BKN021 14/12 Q1016=
200508160520 METAR ESMX 160520Z 22005KT 180V250 9999 FEW011 OVC018 13/12 Q1017=
200508160450 METAR ESMX 160450Z 22005KT 180V250 9999 OVC016 13/12 Q1016=
200508160420 METAR ESMX 160420Z 23005KT 200V260 9999 OVC015 13/12 Q1016=
200508160350 METAR ESMX 160350Z 21005KT 9999 OVC014 13/12 Q1016=
200508160320 METAR ESMX 160320Z AUTO 23005KT 190V260 9999 OVC013 13/12 Q1017=
200508160250 METAR ESMX 160250Z AUTO 22005KT 180V260 9999 OVC011 12/12 Q1017=
200508160220 METAR ESMX 160220Z AUTO 22006KT 9000 BR FEW005 OVC010 12/12 Q1017=
200508160150 METAR ESMX 160150Z AUTO 21005KT 8000 BR SCT009 12/11 Q1017=
200508160120 METAR ESMX 160120Z AUTO 23004KT 200V270 9999 BKN008 12/12 Q1017=
200508160050 METAR ESMX 160050Z AUTO 21004KT 170V240 8000 BR FEW009 12/11 Q1017=
200508160020 METAR ESMX 160020Z AUTO 23004KT 200V260 9000 NSC 12/11 Q1017=
200508152350 METAR ESMX 152350Z 23004KT CAVOK 12/11 Q1017=
200508152320 METAR ESMX 152320Z AUTO 22005KT 9999 NSC 12/11 Q1017=
200508152250 METAR ESMX 152250Z 18006KT CAVOK 13/11 Q1017=
200508152220 METAR ESMX 152220Z 18005KT CAVOK 12/11 Q1017=
200508152150 METAR ESMX 152150Z VRB03KT CAVOK 12/11 Q1017=
200508152120 METAR ESMX 152120Z VRB03KT CAVOK 13/11 Q1017=
200508152050 METAR ESMX 152050Z 20004KT CAVOK 14/11 Q1017=
200508152020 METAR ESMX 152020Z 24004KT 210V280 CAVOK 14/11 Q1017=
200508151950 METAR ESMX 151950Z 23004KT CAVOK 14/11 Q1017=
200508151920 METAR ESMX 151920Z 23005KT CAVOK 15/11 Q1017=
200508151850 METAR ESMX 151850Z 22004KT CAVOK 15/12 Q1017=
200508151820 METAR ESMX 151820Z VRB03KT CAVOK 16/12 Q1017=
200508151750 METAR ESMX 151750Z 25004KT CAVOK 18/11 Q1017=
200508151720 METAR ESMX 151720Z 27007KT CAVOK 19/11 Q1017=
200508151650 METAR ESMX 151650Z 27006KT 9999 FEW040 19/12 Q1017=
200508151620 METAR ESMX 151620Z 27008KT 230V300 9999 FEW040 20/12 Q1017=
200508151550 METAR ESMX 151550Z 26009KT 230V300 9999 FEW040 21/11 Q1017=
200508151520 METAR ESMX 151520Z 29006KT 230V320 9999 FEW045 21/12 Q1017=
200508151450 METAR ESMX 151450Z 26008KT 230V310 9999 SCT040 21/11 Q1017=
200508151420 METAR ESMX 151420Z 23007KT 180V290 9999 SCT040 21/12 Q1017=
200508151350 METAR ESMX 151350Z 24007KT 200V300 9999 FEW047 21/11 Q1017=
200508151320 METAR ESMX 151320Z 23007KT 190V260 9999 FEW045 21/11 Q1017=
200508151250 METAR ESMX 151250Z 20008KT 160V250 9999 FEW045 21/09 Q1017=
200508151220 METAR ESMX 151220Z 20005KT 150V230 9999 FEW044 21/12 Q1017=
200508151150 METAR ESMX 151150Z 23007KT 180V280 9999 FEW045 21/09 Q1017=
200508151120 METAR ESMX 151120Z 22005KT 140V290 9999 FEW040 21/11 Q1017=
200508151050 METAR ESMX 151050Z VRB03KT 9999 FEW040 20/12 Q1017=
200508151020 METAR ESMX 151020Z 19006KT 100V260 9999 SCT030 21/11 Q1017=
200508150950 METAR ESMX 150950Z VRB02KT 9999 FEW030 21/11 Q1017=
200508150920 METAR ESMX 150920Z 33005KT 290V020 9999 FEW025 19/13 Q1017=
200508150820 METAR ESMX 150820Z VRB03KT 9999 FEW025 18/12 Q1017=
200508150750 METAR ESMX 150750Z 32004KT 280V340 9999 FEW020 18/13 Q1017=
200508150720 METAR ESMX 150720Z 29004KT CAVOK 17/13 Q1016=
200508150650 METAR ESMX 150650Z VRB03KT CAVOK 16/13 Q1016=
200508150620 METAR ESMX 150620Z VRB01KT CAVOK 15/14 Q1016=
200508150550 METAR ESMX 150550Z VRB02KT 9999 FEW045 14/13 Q1016=
200508150520 METAR ESMX 150520Z VRB01KT 9999 SCT045 BKN065 13/13 Q1016=
200508150450 METAR ESMX 150450Z VRB01KT 9999 SCT045 BKN065 12/12 Q1016=
200508150420 METAR ESMX 150420Z VRB03KT 7000 BR BKN046 OVC086 11/11 Q1016=
200508150350 METAR ESMX 150350Z 00000KT 9999 BCFG FEW050 10/09 Q1016=
200508150320 METAR ESMX 150320Z AUTO VRB03KT 1700 FEW048 BKN084 10/10 Q1016=
200508150250 METAR ESMX 150250Z AUTO VRB01KT 0800 R01/P1500N R19/P1500N FG BKN082 10/09 Q1015=
200508150220 METAR ESMX 150220Z AUTO 00000KT 6000 BR SCT080 09/09 Q1015=
200508150150 METAR ESMX 150150Z AUTO VRB02KT 9999 BKN078 09/09 Q1015=
200508150120 METAR ESMX 150120Z AUTO 00000KT 2000 NSC 10/09 Q1015=
200508150050 METAR ESMX 150050Z AUTO VRB02KT 9999 NSC 09/09 Q1015=
200508150020 METAR ESMX 150020Z VRB01KT 9999 BCFG NSC 10/10 Q1015=
200508142350 METAR ESMX 142350Z VRB01KT 5000 BCFG NSC 11/10 Q1014=
200508142320 METAR ESMX 142320Z 00000KT 5000 BR NSC 10/10 Q1014=
200508142250 METAR ESMX 142250Z VRB01KT CAVOK 11/11 Q1015=
200508142220 METAR ESMX 142220Z VRB02KT CAVOK 12/11 Q1015=
200508142150 METAR ESMX 142150Z VRB03KT CAVOK 13/12 Q1015=
200508142120 METAR ESMX 142120Z VRB03KT CAVOK 13/12 Q1014=
200508142050 METAR ESMX 142050Z 27004KT 9999 SCT029 BKN038 14/13 Q1014=
200508142020 METAR ESMX 142020Z 26004KT 9999 SCT027 13/13 Q1014=
200508141950 METAR ESMX 141950Z 25004KT 9999 FEW030 SCT088 13/12 Q1014=
200508141920 METAR ESMX 141920Z VRB02KT 7000 FEW025 14/13 Q1014=
200508141850 METAR ESMX 141850Z VRB03KT 9999 FEW027 SCT057 14/13 Q1013=
200508141820 METAR ESMX 141820Z VRB03KT 9999 SCT027 16/14 Q1013=
200508141750 METAR ESMX 141750Z VRB02KT CAVOK 16/14 Q1013=
200508141720 METAR ESMX 141720Z VRB01KT CAVOK 18/14 Q1013=
200508141650 METAR ESMX 141650Z VRB02KT 9999 FEW030 SCT050 18/14 Q1013=
200508141620 METAR ESMX 141620Z VRB03KT 9999 FEW020 SCT040 18/14 Q1013=
200508141550 METAR ESMX 141550Z 02004KT 9999 FEW020 BKN040 18/14 Q1013=
200508141520 METAR ESMX 141520Z 01005KT 340V060 9999 FEW025 BKN045 18/14 Q1012=
200508141450 METAR ESMX 141450Z VRB02KT 9999 SCT020 SCT080 18/13 Q1012=
200508141420 METAR ESMX 141420Z 29004KT 250V340 9999 FEW020 SCT028 19/14 Q1012=
200508141350 METAR ESMX 141350Z 35004KT 280V030 9999 SCT030 18/13 Q1012=
200508141320 METAR ESMX 141320Z 36005KT 330V030 9999 SCT020 SCT080 18/14 Q1012=
200508141250 METAR ESMX 141250Z 31004KT 280V010 9999 SCT020 BKN050 18/13 Q1012=
200508141220 METAR ESMX 141220Z AUTO 28004KT 250V340 9999 FEW017 BKN020 BKN052 18/13 Q1012=
200508141150 METAR ESMX 141150Z AUTO 31005KT 280V350 9999 FEW016 OVC019 17/13 Q1012=
200508141120 METAR ESMX 141120Z AUTO 35005KT 300V020 9999 FEW017 BKN019 OVC076 17/13 Q1012=
200508141050 METAR ESMX 141050Z AUTO 35005KT 9999 BKN015 OVC020 17/13 Q1012=
200508141020 METAR ESMX 141020Z AUTO 30004KT 260V340 9999 OVC015 16/13 Q1012=
200508140950 METAR ESMX 140950Z AUTO 31004KT 280V340 9999 OVC014 16/12 Q1012=
200508140920 METAR ESMX 140920Z AUTO 29005KT 250V330 9999 OVC013 16/13 Q1012=
200508140850 METAR ESMX 140850Z AUTO 28005KT 240V320 9999 BKN012 BKN058 15/13 Q1011=
200508140820 METAR ESMX 140820Z AUTO 31005KT 9999 FEW011 BKN020 OVC046 15/12 Q1011=
200508140750 METAR ESMX 140750Z AUTO 28005KT 250V320 9999 FEW010 BKN020 OVC038 14/12 Q1011=
200508140720 METAR ESMX 140720Z AUTO 29005KT 250V320 9999 FEW009 OVC033 14/12 Q1011=
200508140650 METAR ESMX 140650Z AUTO 29005KT 250V330 9999 FEW019 SCT022 BKN029 13/12 Q1011=
200508140620 METAR ESMX 140620Z AUTO 31006KT 270V340 9999 FEW010 OVC019 13/12 Q1011=
200508140550 METAR ESMX 140550Z 30005KT 260V330 9999 FEW010 OVC018 13/12 Q1011=
200508140520 METAR ESMX 140520Z AUTO VRB03KT 9999 OVC018 13/11 Q1010=
200508140450 METAR ESMX 140450Z AUTO 27005KT 9999 OVC016 13/12 Q1010=
200508140420 METAR ESMX 140420Z AUTO 26005KT 230V300 9999 BKN007 OVC016 13/12 Q1010=
200508140350 METAR ESMX 140350Z AUTO 27005KT 9999 FEW007 OVC008 13/12 Q1010=
200508140320 METAR ESMX 140320Z AUTO 27005KT 230V300 9999 FEW006 SCT007 OVC009 13/12 Q1010=
200508140250 METAR ESMX 140250Z AUTO 28005KT 250V310 9999 OVC004 13/12 Q1010=
200508140220 METAR ESMX 140220Z AUTO 27007KT 240V300 8000 OVC003 13/13 Q1010 REDZ=
200508140150 METAR ESMX 140150Z AUTO 27007KT 230V320 7000 DZ OVC003 14/13 Q1010=
200508140120 METAR ESMX 140120Z AUTO 27005KT 6000 BR OVC004 14/13 Q1010=
200508140050 METAR ESMX 140050Z AUTO 25004KT 210V290 9000 BR OVC005 14/13 Q1010=
200508140020 METAR ESMX 140020Z AUTO 27004KT 230V300 9000 OVC006 14/13 Q1010=
200508132350 METAR ESMX 132350Z AUTO 27004KT 240V320 9999 OVC006 14/13 Q1010=
200508132320 METAR ESMX 132320Z AUTO 27004KT 250V320 9999 OVC006 14/13 Q1010=
200508132250 METAR ESMX 132250Z AUTO 26004KT 190V290 9999 OVC007 14/13 Q1010=
200508132220 METAR ESMX 132220Z AUTO 25005KT 9999 BKN008 OVC015 14/13 Q1010=
200508132150 METAR ESMX 132150Z AUTO 27005KT 230V320 9999 FEW015 OVC023 14/13 Q1010=
200508132120 METAR ESMX 132120Z AUTO 27005KT 240V300 9999 FEW010 SCT015 BKN018 14/13 Q1009=
200508132050 METAR ESMX 132050Z AUTO 26005KT 230V290 9999 OVC010 14/13 Q1009=
200508132020 METAR ESMX 132020Z AUTO 28006KT 240V300 9999 BKN010 14/13 Q1009=
200508131950 METAR ESMX 131950Z AUTO 27006KT 240V300 9999 BKN009 14/13 Q1009 RERA=
200508131920 METAR ESMX 131920Z AUTO 26007KT 210V280 9999 -RA BKN010 14/13 Q1009=
200508131850 METAR ESMX 131850Z AUTO 25006KT 230V290 9999 -RA BKN009 14/13 Q1009=
200508131820 METAR ESMX 131820Z AUTO 25007KT 6000 RA FEW008 BKN010 14/14 Q1008=
200508131750 METAR ESMX 131750Z AUTO 26007KT 5000 RA FEW007 SCT076 15/14 Q1008=
200508131720 METAR ESMX 131720Z AUTO 26007KT 230V290 8000 DZ FEW007 SCT008 BKN011 15/14 Q1008=
200508131650 METAR ESMX 131650Z AUTO 27007KT 230V300 9999 FEW008 OVC010 16/14 Q1008=
200508131620 METAR ESMX 131620Z AUTO 25008KT 220V300 9999 FEW010 SCT014 BKN020 17/15 Q1008=
200508131550 METAR ESMX 131550Z AUTO 23005KT 200V260 9999 FEW014 SCT023 BKN043 17/15 Q1008=
200508131520 METAR ESMX 131520Z AUTO 25007KT 220V280 9999 FEW022 SCT034 BKN049 18/15 Q1007=
200508131450 METAR ESMX 131450Z AUTO 23008KT 9999 FEW012 SCT017 OVC032 17/15 Q1007=
200508131420 METAR ESMX 131420Z AUTO 22006KT 200V260 9999 FEW014 SCT020 BKN023 18/15 Q1007=
200508131350 METAR ESMX 131350Z AUTO 24006KT 190V280 9999 FEW011 SCT013 BKN100 19/15 Q1007=
200508131320 METAR ESMX 131320Z AUTO 23005KT 200V260 9999 SCT010 BKN018 OVC023 18/15 Q1007=
200508131250 METAR ESMX 131250Z AUTO 23004KT 200V270 9999 FEW010 SCT017 OVC020 16/14 Q1007=
200508131220 METAR ESMX 131220Z AUTO 28004KT 250V320 9999 SCT007 BKN009 OVC010 16/14 Q1007=
200508131150 METAR ESMX 131150Z AUTO 29004KT 240V320 9999 SCT008 OVC011 16/14 Q1007=
200508131120 METAR ESMX 131120Z AUTO VRB02KT 9999 FEW007 SCT009 OVC011 16/14 Q1007=
200508131050 METAR ESMX 131050Z AUTO VRB03KT 9999 FEW007 BKN010 OVC015 15/13 Q1007=
200508131020 METAR ESMX 131020Z AUTO VRB03KT 9999 BKN005 OVC008 15/14 Q1007=
200508130950 METAR ESMX 130950Z AUTO VRB03KT 9999 BKN005 OVC009 15/13 Q1007=
200508130920 METAR ESMX 130920Z AUTO VRB02KT 9999 FEW004 SCT006 OVC008 14/13 Q1007=
200508130850 METAR ESMX 130850Z AUTO VRB01KT 9999 SCT003 BKN006 OVC009 14/13 Q1007=
200508130820 METAR ESMX 130820Z AUTO VRB02KT 9999 OVC003 14/13 Q1006=
200508130750 METAR ESMX 130750Z AUTO VRB01KT 9999 OVC003 14/13 Q1006=
200508130720 METAR ESMX 130720Z AUTO VRB02KT 9999 OVC003 13/13 Q1006=
200508130650 METAR ESMX 130650Z AUTO VRB03KT 9999 OVC002 13/12 Q1006=
200508130620 METAR ESMX 130620Z AUTO 22004KT 9999 OVC002 13/12 Q1006=
200508130550 METAR ESMX 130550Z AUTO 19004KT 9999 OVC002 13/12 Q1006=
200508130520 METAR ESMX 130520Z AUTO 19005KT 9000 OVC001 12/12 Q1006=
200508130450 METAR ESMX 130450Z AUTO 19004KT 9999 OVC002 12/12 Q1006=
200508130420 METAR ESMX 130420Z AUTO VRB03KT 9999 OVC001 12/12 Q1006=
200508130350 METAR ESMX 130350Z AUTO 19004KT 160V220 9999 OVC001 12/12 Q1006 REDZ=
200508130320 METAR ESMX 130320Z AUTO 20005G17KT 9999 -SHRA OVC002 12/12 Q1006=
200508130250 METAR ESMX 130250Z AUTO 19005KT 9999 -SHRA OVC002 12/12 Q1006=
200508130220 METAR ESMX 130220Z AUTO 19006KT 8000 OVC002 12/12 Q1006 REDZ=
200508130150 METAR ESMX 130150Z AUTO 19006KT 6000 -SHRA OVC002 13/12 Q1006=
200508130120 METAR ESMX 130120Z AUTO 20005KT 9999 OVC003 13/12 Q1006 RERA=
200508130050 METAR ESMX 130050Z AUTO 20006KT 9999 -RA OVC003 13/12 Q1006=
200508130020 METAR ESMX 130020Z AUTO 19006KT 9999 -RA BKN003 OVC006 13/12 Q1006=
200508122350 METAR ESMX 122350Z AUTO 20005KT 9999 -RA SCT003 BKN005 BKN008 13/12 Q1006=
200508122320 METAR ESMX 122320Z AUTO 19006KT 6000 RA BKN002 OVC006 13/12 Q1006=
200508122250 METAR ESMX 122250Z AUTO 19007KT 9000 -SHRA FEW003 OVC004 13/12 Q1006=
200508122220 METAR ESMX 122220Z AUTO 19006KT 7000 SHRA FEW003 SCT005 BKN006 13/12 Q1006=
200508122150 METAR ESMX 122150Z AUTO 22007KT 190V250 9999 -SHRA OVC003 13/12 Q1006=
200508122120 METAR ESMX 122120Z AUTO 22008KT 9999 -SHRA FEW003 OVC005 13/12 Q1005=
200508122050 METAR ESMX 122050Z AUTO 21006KT 5000 DZ FEW003 SCT005 BKN007 13/13 Q1005=
200508122020 METAR ESMX 122020Z AUTO 20006KT 9000 -RA FEW005 SCT007 BKN008 13/13 Q1006=
200508121950 METAR ESMX 121950Z AUTO 21006KT 9999 RA FEW005 SCT006 BKN008 13/13 Q1006=
200508121920 METAR ESMX 121920Z AUTO 21006KT 160V230 9000 SCT000 BKN005 BKN006 13/13 Q1005=
200508121850 METAR ESMX 121850Z AUTO 22007KT 180V250 6000 VV000 13/13 Q1005 REDZ=
200508121820 METAR ESMX 121820Z AUTO 21006KT 2300 DZ FEW004 SCT005 BKN007 13/13 Q1005=
200508121750 METAR ESMX 121750Z AUTO 24006KT 1900 +DZ FEW005 SCT007 BKN009 14/13 Q1005=
200508121720 METAR ESMX 121720Z AUTO 22007KT 190V250 9999 -RA FEW007 BKN008 OVC011 14/13 Q1005=
200508121650 METAR ESMX 121650Z 21007KT 9999 FEW006 SCT009 BKN016 14/13 Q1005=
200508121620 METAR ESMX 121620Z 22008KT 9999 FEW006 SCT009 BKN017 14/13 Q1005=
200508121550 METAR ESMX 121550Z 23007KT 7000 BR FEW007 SCT009 BKN013 14/13 Q1005=
200508121520 METAR ESMX 121520Z 23008KT 6000 DZ FEW009 SCT011 BKN015 14/13 Q1005=
200508121450 METAR ESMX 121450Z 21009KT 9999 FEW009 BKN013 15/13 Q1004=
200508121420 METAR ESMX 121420Z 21009KT 9999 FEW011 SCT014 BKN017 15/13 Q1004=
200508121350 METAR ESMX 121350Z 22007KT 190V250 9999 FEW009 SCT014 BKN017 15/13 Q1004=
200508121320 METAR ESMX 121320Z 22010KT 190V260 4200 BR FEW013 OVC017 15/13 Q1004=
200508121250 METAR ESMX 121250Z 22009KT 160V250 9999 FEW014 SCT020 BKN023 16/14 Q1004 REDZ=
200508121220 METAR ESMX 121220Z 22011KT 9999 -SHRA FEW014 SCT025 BKN029 16/14 Q1004=
200508121150 METAR ESMX 121150Z 23007KT 200V270 9999 FEW012 BKN022 OVC030 16/14 Q1004=
200508121120 METAR ESMX 121120Z 22008KT 200V280 9999 FEW012 OVC018 16/13 Q1003=
200508121050 METAR ESMX 121050Z 23008KT 190V280 9999 FEW010 SCT016 BKN024 16/13 Q1003=
200508121020 METAR ESMX 121020Z 24007KT 210V280 9999 FEW006 SCT009 BKN013 16/14 Q1003=
200508120950 METAR ESMX 120950Z 20007KT 180V260 6000 BR BKN009 15/13 Q1003=
200508120920 METAR ESMX 120920Z 23006KT 9999 FEW009 OVC012 15/13 Q1003=
200508120850 METAR ESMX 120850Z 23005KT 200V260 9999 BKN010 OVC016 15/13 Q1003=
200508120820 METAR ESMX 120820Z 22007KT 190V260 9999 OVC009 15/13 Q1003=
200508120720 METAR ESMX 120720Z 24007KT 200V270 9999 FEW007 SCT008 BKN009 15/13 Q1003=
200508120650 METAR ESMX 120650Z 24008KT 200V260 9999 FEW006 OVC007 14/13 Q1003=
200508120620 METAR ESMX 120620Z 23006KT 200V260 9999 OVC005 13/13 Q1003=
200508120550 METAR ESMX 120550Z 22007KT 180V260 9999 OVC005 14/13 Q1002=
200508120520 METAR ESMX 120520Z 21006KT 9999 OVC005 13/13 Q1002=
200508120450 METAR ESMX 120450Z 22006KT 190V300 9999 OVC006 14/13 Q1002=
200508120420 METAR ESMX 120420Z 25007KT 9999 OVC005 14/13 Q1002=
200508120350 METAR ESMX 120350Z 25008KT 9999 OVC004 14/13 Q1002=
200508120320 METAR ESMX 120320Z AUTO 23009KT 200V260 9999 BR OVC003 14/13 Q1002=
200508120250 METAR ESMX 120250Z AUTO 25007KT 9999 BKN004 OVC008 14/14 Q1002 REDZ=
200508120220 METAR ESMX 120220Z AUTO 22006KT 180V250 2600 -SHRA FEW002 BKN004 OVC006 15/14 Q1002=
200508120150 METAR ESMX 120150Z AUTO 24007KT 3100 BR OVC002 15/14 Q1002=
200508120120 METAR ESMX 120120Z AUTO 23006KT 2700 BR OVC002 15/14 Q1002=
200508120050 METAR ESMX 120050Z AUTO 24005KT 4200 BR OVC004 15/14 Q1002=
200508120020 METAR ESMX 120020Z AUTO 23005KT 9999 FEW004 OVC005 15/14 Q1002=
200508112350 METAR ESMX 112350Z 25008KT 220V290 8000 BR BNK004 15/14 Q1002=
200508112250 METAR ESMX 112250Z 25009KT 210V280 8000 BR SCT005 BKN008 BKN046 16/15 Q1002=
200508112220 METAR ESMX 112220Z 23007KT 190V250 9000 BR SCT007 BKN100 16/15 Q1002=
200508112150 METAR ESMX 112150Z 25006KT 9000 BR FEW005 BKN007 16/15 Q1002=
200508112120 METAR ESMX 112120Z 22005KT 180V250 9000 SCT005 BKN008 16/15 Q1001=
200508112050 METAR ESMX 112050Z 23006KT 9999 BKN008 BKN052 16/15 Q1001=
200508112020 METAR ESMX 112020Z 24006KT 9999 SCT008 BKN110 17/16 Q1001=
200508111950 METAR ESMX 111950Z 25008KT 9999 FEW007 SCT035 BKN110 17/16 Q1001=
200508111920 METAR ESMX 111920Z 25006KT 9999 FEW008 SCT037 BKN044 17/16 Q1001=
200508111850 METAR ESMX 111850Z 24006KT 9999 SCT008 BKN074 17/16 Q1001=
200508111820 METAR ESMX 111820Z 25007KT 9999 SCT008 BKN010 17/16 Q1000=
200508111750 METAR ESMX 111750Z 23007KT 9999 BKN008 18/16 Q1000=
200508111720 METAR ESMX 111720Z 24008KT 9999 FEW009 SCT010 BKN047 18/16 Q1000=
200508111650 METAR ESMX 111650Z 23009KT 190V260 9999 FEW012 BKN043 BKN090 18/16 Q1000=
200508111620 METAR ESMX 111620Z 23011KT 9999 FEW013 BKN046 BKN090 19/16 Q1000=
200508111550 METAR ESMX 111550Z 21010KT 9999 FEW015 SCT040 20/16 Q1000=
200508111520 METAR ESMX 111520Z 23008KT 200V270 9999 FEW015 SCT040 20/17 Q1000=
200508111450 METAR ESMX 111450Z 21008KT 9999 FEW044 SCT055 20/16 Q0999=
200508111420 METAR ESMX 111420Z 25004KT 190V320 9999 FEW037 SCT047 BKN061 20/15 Q0999=
200508111350 METAR ESMX 111350Z 24004KT 190V330 9999 FEW035 SCT044 BKN074 20/16 Q0999=
200508111320 METAR ESMX 111320Z 34004KT 290V360 9999 FEW036 SCT081 20/14 Q0999=
200508111250 METAR ESMX 111250Z VRB02KT 9999 FEW040 BKN055 20/14 Q0999=
200508111220 METAR ESMX 111220Z 01006KT 340V040 9999 FEW041 SCT051 21/14 Q0999=
200508111150 METAR ESMX 111150Z 01005KT 290V050 9999 SCT028 21/15 Q0999=
200508111120 METAR ESMX 111120Z 29006KT 270V330 9999 SCT029 21/14 Q0999=
200508111050 METAR ESMX 111050Z 29006KT 260V350 9999 SCT040 20/14 Q0999=
200508111020 METAR ESMX 111020Z 30004KT 240V360 9999 SCT025 20/14 Q0999=
200508110950 METAR ESMX 110950Z 31006KT 280V340 9999 SCT025 20/14 Q0998=
200508110920 METAR ESMX 110920Z 35005KT 310V020 9999 FEW021 SCT029 19/14 Q0998=
200508110850 METAR ESMX 110850Z VRB03KT 9999 FEW014 SCT020 BKN082 19/15 Q0998=
200508110820 METAR ESMX 110820Z 29005KT 260V330 9999 FEW022 SCT078 18/15 Q0998=
200508110750 METAR ESMX 110750Z 28005KT 9999 FEW005 SCT100 17/16 Q0998=
200508110720 METAR ESMX 110720Z 30005KT 260V320 9999 FEW004 SCT006 BKN100 17/16 Q0998=
200508110650 METAR ESMX 110650Z 30004KT 270V330 9999 SCT005 BKN100 16/15 Q0998=
200508110620 METAR ESMX 110620Z 30004KT 9999 FEW006 BKN080 15/15 Q0997=
200508110550 METAR ESMX 110550Z VRB03KT 9999 FEW006 BKN080 15/15 Q0997=
200508110520 METAR ESMX 110520Z VRB02KT 9999 FEW006 BKN080 15/14 Q0997=
200508110450 METAR ESMX 110450Z VRB03KT 9999 FEW006 BKN080 14/14 Q0997=
200508110420 METAR ESMX 110420Z VRB02KT 9999 SCT006 BKN080 14/14 Q0996=
200508110350 METAR ESMX 110350Z VRB01KT 9999 FEW006 BKN080 14/14 Q0996 RERA=
200508110320 METAR ESMX 110320Z AUTO VRB03KT 5000 -RA SCT006 BKN079 14/14 Q0996=
200508110250 METAR ESMX 110250Z AUTO VRB01KT 6000 RA FEW079 14/14 Q0996=
200508110220 METAR ESMX 110220Z AUTO 22004KT 9999 RA SCT066 14/14 Q0996=
200508110150 METAR ESMX 110150Z AUTO 21004KT 4100 +RA FEW056 15/14 Q0996=
200508110120 METAR ESMX 110120Z AUTO VRB02KT 3600 SHRA FEW002 SCT051 15/14 Q0996=
200508110050 METAR ESMX 110050Z AUTO VRB01KT 9999 -SHRA FEW004 BKN052 15/14 Q0996=
200508110020 METAR ESMX 110020Z VRB02KT 9999 -RA FEW006 BKN065 15/14 Q0996=
200508102350 METAR ESMX 102350Z VRB02KT 9999 FEW020 BKN060 14/14 Q0996=
200508102320 METAR ESMX 102320Z VRB01KT 9999 SCT020 BKN070 14/14 Q0996=
200508102250 METAR ESMX 102250Z VRB03KT 9999 SCT025 BKN075 15/14 Q0996=
200508102220 METAR ESMX 102220Z 30005KT 9999 SCT020 BKN070 15/14 Q0996=
200508102150 METAR ESMX 102150Z 30006KT 260V330 9999 FEW005 15/14 Q0995=
200508102120 METAR ESMX 102120Z 30006KT 9999 FEW005 16/15 Q0995=
200508102050 METAR ESMX 102050Z 30006KT 9999 SCT008 16/15 Q0995=
200508102020 METAR ESMX 102020Z 32005KT 9999 SCT010 17/16 Q0995=
200508101950 METAR ESMX 101950Z VRB03KT 9999 SCT003 BKN010 17/17 Q0994=
200508101920 METAR ESMX 101920Z VRB02KT 8000 BR BKN005 BKN087 17/17 Q0994=
200508101850 METAR ESMX 101850Z VRB03KT 9999 FEW010 BKN100 17/17 Q0994=
200508101820 METAR ESMX 101820Z VRB02KT 9999 SCT012 BKN090 18/17 Q0994=
200508101750 METAR ESMX 101750Z VRB03KT 9999 SCT010 BKN085 18/17 Q0994=
200508101720 METAR ESMX 101720Z 29004KT 9999 FEW018 SCT088 18/17 Q0994=
200508101650 METAR ESMX 101650Z 30005KT 280V340 9999 FEW018 BKN110 19/17 Q0993=
200508101620 METAR ESMX 101620Z 27004KT 9999 FEW013 BKN110 19/18 Q0993=
200508101550 METAR ESMX 101550Z 30005KT 9999 FEW013 BKN090 19/18 Q0993=
200508101520 METAR ESMX 101520Z 31004KT 280V350 9999 FEW012 SCT060 BKN090 20/18 Q0993=
200508101450 METAR ESMX 101450Z VRB02KT 9999 FEW010 BKN055 18/17 Q0993=
200508101420 METAR ESMX 101420Z VRB03KT 9999 FEW008 SCT025 BKN060 18/17 Q0993=
200508101350 METAR ESMX 101350Z 30004KT 270V340 9999 -RA FEW028 BKN045 17/17 Q0993=
200508101320 METAR ESMX 101320Z VRB03KT 4600 RA FEW004 SCT025 BKN036CB 17/16 Q0993=
200508101250 METAR ESMX 101250Z 02007KT 340V070 3000 RA FEW005 SCT009 BKN013CB 17/16 Q0993=
200508101220 METAR ESMX 101220Z 31006KT 260V350 4900 SHRA FEW007 BKN012 18/17 Q0993=
200508101150 METAR ESMX 101150Z 27008KT 250V320 9999 -SHRA FEW007 BKN011 18/17 Q0992=
200508101120 METAR ESMX 101120Z 30008KT 9999 FEW005 SCT008 BKN010 18/17 Q0992=
200508101050 METAR ESMX 101050Z 27009KT 9999 -RA SCT006 BKN009 18/17 Q0992=
200508101020 METAR ESMX 101020Z 27007KT 7000 -RA SCT006 BKN008 17/17 Q0993=
200508100950 METAR ESMX 100950Z 27009KT 240V310 6000 -RA BKN006 17/17 Q0993=
200508100920 METAR ESMX 100920Z 28008KT 250V320 7000 -SHRA FEW005 SCT006 BKN008 17/17 Q0993=
200508100850 METAR ESMX 100850Z 28009KT 250V320 4800 -SHRA SCT005 BKN007 17/16 Q0993=
200508100820 METAR ESMX 100820Z 27010KT 230V300 7000 BR FEW004 SCT006 BKN007 17/16 Q0993=
200508100750 METAR ESMX 100750Z 26009KT 8000 -SHRA FEW003 SCT004 BKN006 17/16 Q0993=
200508100720 METAR ESMX 100720Z 27009KT 240V300 5000 -SHRA OVC002 16/16 Q0993=
200508100650 METAR ESMX 100650Z 28008KT 250V330 6000 -SHRA OVC003 16/16 Q0993=
200508100620 METAR ESMX 100620Z 29008KT 3500 -SHRA FEW002 SCT004 BKN005 16/16 Q0993=
200508100550 METAR ESMX 100550Z 27009KT 2500 DZ FEW004 BKN006 16/15 Q0994=
200508100520 METAR ESMX 100520Z 28009KT 240V310 9000 BR BKN002 15/15 Q0994=
200508100450 METAR ESMX 100450Z 27010KT 230V300 4400 BR OVC002 15/15 Q0994=
200508100420 METAR ESMX 100420Z 28009KT 240V330 2000 BR OVC002 15/15 Q0995=
200508100350 METAR ESMX 100350Z 27008KT 250V320 2600 BR OVC002 15/15 Q0995=
200508100320 METAR ESMX 100320Z AUTO 28009KT 250V320 6000 BR OVC003 15/15 Q0995=
200508100150 METAR ESMX 100150Z AUTO 28008KT 240V310 9000 OVC003 15/14 Q0996=
200508100120 METAR ESMX 100120Z AUTO 29009KT 9999 OVC004 15/14 Q0997=
200508100050 METAR ESMX 100050Z AUTO 29009KT 240V320 9999 OVC005 15/14 Q0997=
200508100020 METAR ESMX 100020Z 29009KT 250V320 9999 OVC004 15/14 Q0997 RERA=
200508092350 METAR ESMX 092350Z 29009KT 9999 OVC005 15/14 Q0997=
200508092320 METAR ESMX 092320Z 30007KT 270V340 9999 DZ OVC005 14/14 Q0998=
200508092250 METAR ESMX 092250Z 31008KT 270V340 9999 -RA OVC006 14/14 Q0998=
200508092220 METAR ESMX 092220Z 30008KT 9999 SCT006 BKN010 14/14 Q0998=
200508092150 METAR ESMX 092150Z 30009KT 9999 FEW006 BKN008 14/14 Q0998=
200508092120 METAR ESMX 092120Z 30010KT 260V330 9999 BKN007 OVC010 14/13 Q0999=
200508092050 METAR ESMX 092050Z 30011KT 9999 FEW007 BKN008 14/13 Q0999=
200508092020 METAR ESMX 092020Z 30009KT 260V330 9999 FEW007 SCT008 BKN010 14/13 Q1000 REDZ=
200508091920 METAR ESMX 091920Z 31008KT 260V340 9000 -RA FEW005 BKN007 OVC010 14/13 Q1000=
200508091850 METAR ESMX 091850Z 30008KT 4000 BR FEW003 SCT005 BKN008 14/13 Q1001=
200508091820 METAR ESMX 091820Z 30009KT 6000 BR FEW005 SCT007 OVC008 13/13 Q1001=
200508091750 METAR ESMX 091750Z 30009KT 270V330 4500 BR FEW006 SCT008 OVC010 13/13 Q1001=
200508091720 METAR ESMX 091720Z 30009KT 9999 FEW007 OVC013 13/13 Q1001 RERA=
200508091650 METAR ESMX 091650Z 29008KT 9000 RA FEW005 SCT008 BKN012 13/12 Q1001=
200508091620 METAR ESMX 091620Z 29009KT 250V330 7000 RA FEW006 SCT008 BKN010 13/12 Q1002=
200508091550 METAR ESMX 091550Z 28010KT 250V320 9000 -RA SCT008 BKN025 13/12 Q1002=
200508091520 METAR ESMX 091520Z 29008KT 260V330 8000 RA FEW034 BKN039 13/12 Q1002=
200508091450 METAR ESMX 091450Z 27010KT 240V300 9999 -RA BKN044 13/12 Q1003=
200508091420 METAR ESMX 091420Z 26009KT 240V300 9000 RA FEW025 BKN049 13/12 Q1003=
200508091350 METAR ESMX 091350Z 29007KT 9999 -RA FEW025 BKN052 13/11 Q1003=
200508091320 METAR ESMX 091320Z 30008KT 280V340 9999 -RA FEW025 BKN053 13/11 Q1004=
200508091250 METAR ESMX 091250Z 30007KT 9999 -RA SCT025 SCT069 14/12 Q1004=
200508091220 METAR ESMX 091220Z 30008KT 9999 RA SCT025 BKN070 14/12 Q1004=
200508091150 METAR ESMX 091150Z 30006KT 260V340 9999 -RA SCT025 14/12 Q1004=
200508091120 METAR ESMX 091120Z 30007KT 270V330 9999 -RA FEW044 15/12 Q1004=
200508091050 METAR ESMX 091050Z 31007KT 9999 -RA FEW025 SCT040 BKN090 16/12 Q1004=
200508091020 METAR ESMX 091020Z 33006KT 290V010 9999 -RA FEW040 SCT090 16/11 Q1005=
200508090950 METAR ESMX 090950Z 31009KT 290V350 9999 FEW030 BKN090 16/11 Q1005=
200508090920 METAR ESMX 090920Z 33009KT 290V360 9999 FEW020 BKN100 16/11 Q1005=
200508090850 METAR ESMX 090850Z 31008KT CAVOK 16/12 Q1005=
200508090820 METAR ESMX 090820Z 33006KT 290V020 CAVOK 16/12 Q1005=
200508090750 METAR ESMX 090750Z 32006KT CAVOK 14/12 Q1006=
200508090720 METAR ESMX 090720Z 28004KT 240V320 CAVOK 14/12 Q1006=
200508090650 METAR ESMX 090650Z VRB03KT CAVOK 13/11 Q1007=
200508090620 METAR ESMX 090620Z VRB03KT CAVOK 12/11 Q1007=
200508090550 METAR ESMX 090550Z VRB02KT CAVOK 11/11 Q1007=
200508090520 METAR ESMX 090520Z VRB02KT CAVOK 10/10 Q1007=
200508090450 METAR ESMX 090450Z VRB02KT CAVOK 09/09 Q1007=
200508090420 METAR ESMX 090420Z VRB01KT CAVOK 09/09 Q1007=
200508090350 METAR ESMX 090350Z VRB02KT CAVOK 08/08 Q1007=
200508090320 METAR ESMX 090320Z AUTO VRB02KT 9999 NSC 07/07 Q1007=
200508090250 METAR ESMX 090250Z AUTO VRB01KT 9999 NSC 07/07 Q1008=
200508090220 METAR ESMX 090220Z AUTO 00000KT 9999 NSC 08/07 Q1008=
200508090150 METAR ESMX 090150Z AUTO VRB02KT 9999 NSC 08/08 Q1008=
200508090120 METAR ESMX 090120Z AUTO VRB01KT 9999 NSC 08/08 Q1008=
200508090050 METAR ESMX 090050Z AUTO VRB01KT 9999 NSC 08/07 Q1008=
200508090020 METAR ESMX 090020Z VRB02KT CAVOK 08/07 Q1009=
200508082350 METAR ESMX 082350Z VRB03KT CAVOK 08/07 Q1009=
200508082320 METAR ESMX 082320Z VRB01KT CAVOK 08/08 Q1009=
200508082250 METAR ESMX 082250Z 00000KT CAVOK 08/07 Q1009=
200508082220 METAR ESMX 082220Z VRB02KT CAVOK 09/08 Q1009=
200508082150 METAR ESMX 082150Z VRB01KT CAVOK 09/08 Q1009=
200508082120 METAR ESMX 082120Z VRB02KT CAVOK 11/09 Q1009=
200508082050 METAR ESMX 082050Z VRB03KT CAVOK 13/09 Q1009=
200508082020 METAR ESMX 082020Z VRB03KT CAVOK 13/09 Q1009=
200508081950 METAR ESMX 081950Z VRB03KT CAVOK 12/10 Q1010=
200508081920 METAR ESMX 081920Z VRB03KT CAVOK 12/10 Q1010=
200508081850 METAR ESMX 081850Z VRB03KT CAVOK 14/10 Q1010=
200508081820 METAR ESMX 081820Z VRB03KT CAVOK 16/10 Q1010=
200508081750 METAR ESMX 081750Z 28005KT CAVOK 17/10 Q1010=
200508081720 METAR ESMX 081720Z 29004KT CAVOK 19/10 Q1010=
200508081650 METAR ESMX 081650Z 29007KT CAVOK 19/10 Q1009=
200508081620 METAR ESMX 081620Z 28006KT 240V310 CAVOK 18/10 Q1009=
200508081550 METAR ESMX 081550Z 24006KT 210V280 CAVOK 18/11 Q1009=
200508081520 METAR ESMX 081520Z 23004KT CAVOK 16/10 Q1009=
200508081450 METAR ESMX 081450Z VRB03KT CAVOK 20/07 Q1009=
200508081420 METAR ESMX 081420Z 03004KT 9999 FEW045 18/10 Q1009=
200508081350 METAR ESMX 081350Z VRB03KT 9999 FEW045 19/07 Q1009=
200508081250 METAR ESMX 081250Z VRB02KT 9999 FEW045 19/08 Q1009=
200508081220 METAR ESMX 081220Z VRB03KT 9999 FEW040 20/08 Q1009=
200508081150 METAR ESMX 081150Z VRB03KT 9999 FEW038 19/08 Q1009=
200508081120 METAR ESMX 081120Z VRB03KT 9999 FEW035 19/10 Q1009=
200508081050 METAR ESMX 081050Z VRB03KT 9999 SCT035 18/08 Q1009=
200508081020 METAR ESMX 081020Z 03005KT 010V100 9999 SCT035 19/10 Q1009=
200508080950 METAR ESMX 080950Z VRB01KT 9999 SCT030 17/09 Q1010=
200508080920 METAR ESMX 080920Z VRB03KT 9999 SCT020 15/10 Q1010=
200508080850 METAR ESMX 080850Z VRB03KT 9999 SCT017 15/11 Q1010=
200508080820 METAR ESMX 080820Z VRB03KT 9999 SCT010 15/12 Q1010=
200508080720 METAR ESMX 080720Z VRB03KT 9999 BKN002 12/12 Q1009=
200508080650 METAR ESMX 080650Z VRB02KT 9999 R01/P1500U R19/0800VP1500U BCFG BKN001 12/12 Q1009=
200508080620 METAR ESMX 080620Z VRB02KT 0750 R19/P1500U FG VV002 11/11 Q1009=
200508080550 METAR ESMX 080550Z VRB01KT 0200 R01/0400N R19/0225N FG VV000 10/10 Q1009=
200508080520 METAR ESMX 080520Z VRB01KT 0150 R19/0250V0400 FG VV000 09/09 Q1009=
200508080450 METAR ESMX 080450Z VRB01KT 0150 R19/0250V0450N FG VV001 09/09 Q1009=
200508080420 METAR ESMX 080420Z VRB02KT 0050 R01/0200N R19/0200N FG VV001 08/08 Q1009=
200508080350 METAR ESMX 080350Z VRB01KT 0100 R01/0250N R19/0275N FG VV001 06/06 Q1009=
200508080320 METAR ESMX 080320Z AUTO 00000KT 0550 R01/0900VP1500D R19/0450V0700D FG VV000 06/06 Q1009=
200508080250 METAR ESMX 080250Z AUTO 00000KT 0200 R01/P1500U R19/0300V0400N FG SCT000 06/06 Q1008=
200508080220 METAR ESMX 080220Z AUTO VRB01KT 0100 R01/0350V0800N R19/0300N FG VV000 07/06 Q1008=
200508080150 METAR ESMX 080150Z AUTO VRB02KT 0150 R01/0700U R19/0375N FG NSC 07/07 Q1008=
200508080120 METAR ESMX 080120Z AUTO VRB02KT 0250 R01/0550V0750D R19/P1500N FG FEW000 06/06 Q1008=
200508080050 METAR ESMX 080050Z AUTO VRB02KT 1500 FEW000 07/07 Q1008=
200508080020 METAR ESMX 080020Z VRB02KT 0900 R01/P1500N R19/P1500N MIFG NSC 07/07 Q1008=
200508072350 METAR ESMX 072350Z VRB02KT CAVOK 07/06 Q1008=
200508072320 METAR ESMX 072320Z AUTO VRB01KT 0500 R01/P1500U R19/P1500N FG NSC 07/07 Q1008=
200508072250 METAR ESMX 072250Z VRB01KT CAVOK 09/08 Q1008=
200508072220 METAR ESMX 072220Z AUTO 18004KT 9999 NSC 08/08 Q1008=
200508072150 METAR ESMX 072150Z VRB03KT CAVOK 09/08 Q1008=
200508072120 METAR ESMX 072120Z 15004KT CAVOK 09/08 Q1008=
200508072050 METAR ESMX 072050Z 15006KT CAVOK 11/10 Q1007=
200508072020 METAR ESMX 072020Z VRB03KT CAVOK 10/09 Q1007=
200508071950 METAR ESMX 071950Z VRB03KT CAVOK 09/08 Q1007=
200508071920 METAR ESMX 071920Z VRB03KT CAVOK 11/10 Q1007=
200508071850 METAR ESMX 071850Z VRB02KT CAVOK 12/10 Q1007=
200508071820 METAR ESMX 071820Z VRB03KT CAVOK 13/10 Q1007=
200508071750 METAR ESMX 071750Z 17004KT CAVOK 14/10 Q1006=
200508071720 METAR ESMX 071720Z VRB03KT CAVOK 14/10 Q1006=
200508071650 METAR ESMX 071650Z 20006KT 9999 FEW035CB SCT056 14/10 Q1006=
200508071620 METAR ESMX 071620Z 23007KT 200V270 9999 FEW031CB SCT044 15/09 Q1006=
200508071550 METAR ESMX 071550Z VRB03KT 9999 FEW030CB SCT045 15/11 Q1005=
200508071520 METAR ESMX 071520Z VRB02KT 9999 FEW042CB SCT067 15/11 Q1005=
200508071450 METAR ESMX 071450Z 15004KT 120V190 9999 FEW041 SCT050 BKN077 16/10 Q1005=
200508071420 METAR ESMX 071420Z VRB01KT 9999 FEW030CB SCT040 17/10 Q1005 RERA=
200508071350 METAR ESMX 071350Z VRB02KT 9999 -SHRA FEW030CB SCT035 16/09 Q1005=
200508071320 METAR ESMX 071320Z 23005KT 170V250 9999 -SHRA FEW030CB SCT035 15/10 Q1005=
200508071250 METAR ESMX 071250Z 19006KT 140V210 9999 FEW035 16/10 Q1005=
200508071220 METAR ESMX 071220Z AUTO VRB02KT 9999 NSC 17/08 Q1004=
200508071150 METAR ESMX 071150Z AUTO 32007KT 260V360 9999 FEW088 18/10 Q1004=
200508071120 METAR ESMX 071120Z AUTO 17008KT 9999 BKN037 BKN094 16/08 Q1004=
200508071050 METAR ESMX 071050Z AUTO 18006KT 150V210 9999 OVC036 18/09 Q1004=
200508071020 METAR ESMX 071020Z AUTO 15006KT 080V210 9999 BKN035 18/09 Q1004=
200508070950 METAR ESMX 070950Z AUTO 15006KT 110V200 9999 SCT073 17/08 Q1004=
200508070920 METAR ESMX 070920Z AUTO VRB01KT 9999 NSC 15/10 Q1004=
200508070850 METAR ESMX 070850Z AUTO VRB01KT 9999 FEW050 SCT067 15/10 Q1005=
200508070820 METAR ESMX 070820Z AUTO VRB02KT 9999 SCT048 15/10 Q1004=
200508070750 METAR ESMX 070750Z AUTO VRB02KT 9999 NSC 14/11 Q1004=
200508070720 METAR ESMX 070720Z AUTO VRB01KT 9999 NSC 14/11 Q1004=
200508070650 METAR ESMX 070650Z AUTO VRB01KT 9999 NSC 13/11 Q1004=
200508070620 METAR ESMX 070620Z AUTO VRB01KT 9999 FEW004 12/11 Q1004=
200508070550 METAR ESMX 070550Z AUTO VRB01KT 9999 NSC 11/11 Q1004=
200508070520 METAR ESMX 070520Z AUTO VRB02KT 0700 R01/0750V1100D R19/P1500U FG FEW001 09/09 Q1004=
200508070450 METAR ESMX 070450Z AUTO VRB02KT 1700 BKN033 09/09 Q1005=
200508070420 METAR ESMX 070420Z AUTO VRB01KT 1400 R01/P1500U R19/0750N FG SCT001 BKN035 08/07 Q1004=
200508070350 METAR ESMX 070350Z AUTO 00000KT 0500 R01/0800V1200N R19/0700N FG VV000 07/07 Q1004=
200508070320 METAR ESMX 070320Z AUTO VRB02KT 0250 R01/0600N R19/P1500U FG VV001 08/08 Q1004=
200508070250 METAR ESMX 070250Z AUTO VRB02KT 4700 BKN001 08/07 Q1004=
200508070220 METAR ESMX 070220Z AUTO VRB01KT 0900 R01/P1500N R19/P1500N BKN034 07/07 Q1004=
200508070150 METAR ESMX 070150Z AUTO VRB01KT 2500 OVC034 07/07 Q1004=
200508070120 METAR ESMX 070120Z AUTO VRB02KT 1400 R01/P1500N R19/P1500N FG FEW034 07/06 Q1005=
200508070050 METAR ESMX 070050Z AUTO VRB02KT 2100 BR NSC 07/07 Q1005=
200508070020 METAR ESMX 070020Z AUTO VRB02KT 9000 NSC 08/08 Q1005=
200508062350 METAR ESMX 062350Z AUTO 22004KT 9999 NSC 09/08 Q1005=
200508062320 METAR ESMX 062320Z AUTO 23004KT 9999 NSC 09/09 Q1005=
200508062250 METAR ESMX 062250Z AUTO VRB03KT 9999 NSC 10/09 Q1005=
200508062220 METAR ESMX 062220Z AUTO 23004KT 9999 NSC 10/09 Q1005=
200508062150 METAR ESMX 062150Z AUTO 22005KT 9999 NSC 10/09 Q1005=
200508062120 METAR ESMX 062120Z AUTO 20004KT 9999 NSC 11/09 Q1005=
200508062050 METAR ESMX 062050Z AUTO 22005KT 9999 NSC 11/10 Q1006=
200508062020 METAR ESMX 062020Z AUTO 21005KT 9999 FEW076 11/10 Q1006=
200508061950 METAR ESMX 061950Z AUTO 22004KT 9999 NSC 12/09 Q1006=
200508061920 METAR ESMX 061920Z AUTO VRB03KT 9999 NSC 13/10 Q1006=
200508061850 METAR ESMX 061850Z AUTO 23004KT 9999 SCT075 14/10 Q1006 RERA=
200508061820 METAR ESMX 061820Z AUTO 25005KT 210V280 9999 -SHRA FEW067 SCT078 16/10 Q1005=
200508061750 METAR ESMX 061750Z AUTO 22005KT 9999 FEW045 BKN075 OVC090 17/10 Q1005 RERA=
200508061720 METAR ESMX 061720Z AUTO 20004KT 170V240 9999 BKN074 15/11 Q1005 RERA=
200508061650 METAR ESMX 061650Z AUTO 21006KT 9999 -SHRA FEW042 SCT090 15/11 Q1005=
200508061620 METAR ESMX 061620Z AUTO 23006KT 190V260 9999 NSC 16/10 Q1005=
200508061550 METAR ESMX 061550Z AUTO 25008KT 210V290 9999 FEW041 18/09 Q1005=
200508061520 METAR ESMX 061520Z AUTO 25007KT 9999 FEW040 SCT049 18/09 Q1005=
200508061450 METAR ESMX 061450Z AUTO 22009KT 190V260 9999 FEW036 SCT046 19/10 Q1005=
200508061420 METAR ESMX 061420Z AUTO 30006KT 250V350 9999 FEW034 SCT058 BKN076 18/10 Q1005=
200508061350 METAR ESMX 061350Z AUTO 31005KT 9999 FEW030 SCT049 OVC055 17/12 Q1006=
200508061320 METAR ESMX 061320Z AUTO 25005KT 190V310 9999 FEW031 SCT042 BKN085 17/11 Q1006=
200508061250 METAR ESMX 061250Z AUTO 23004KT 170V320 9999 FEW027 SCT082 17/10 Q1006=
200508061220 METAR ESMX 061220Z AUTO 25007KT 220V290 9999 FEW039 SCT081 16/11 Q1006=
200508061150 METAR ESMX 061150Z AUTO 26007KT 230V290 9999 FEW043 SCT064 BKN080 15/10 Q1006 REDZ=
200508061120 METAR ESMX 061120Z AUTO 25006KT 9999 FEW024 BKN071 15/11 Q1006 REDZ=
200508061050 METAR ESMX 061050Z AUTO 24005KT 200V280 9999 FEW025 BKN056 16/11 Q1006=
200508061020 METAR ESMX 061020Z AUTO VRB04KT 9999 FEW023 16/10 Q1006=
200508060950 METAR ESMX 060950Z AUTO VRB03KT 9999 FEW017 SCT060 16/11 Q1007=
200508060920 METAR ESMX 060920Z AUTO 32005KT 280V340 9999 FEW017 15/12 Q1007=
200508060850 METAR ESMX 060850Z AUTO 26007KT 240V320 9999 FEW012 SCT067 15/12 Q1007=
200508060820 METAR ESMX 060820Z AUTO 26007KT 9999 FEW006 SCT010 BKN012 14/12 Q1007=
200508060750 METAR ESMX 060750Z AUTO 27004KT 230V300 9999 FEW004 SCT006 BKN007 13/12 Q1007=
200508060720 METAR ESMX 060720Z AUTO VRB02KT 9999 FEW004 SCT006 BKN007 12/12 Q1007 REDZ=
200508060650 METAR ESMX 060650Z AUTO VRB03KT 9999 -SHRA FEW005 BKN010 OVC014 12/12 Q1007=
200508060620 METAR ESMX 060620Z AUTO VRB02KT 9999 FEW004 SCT015 BKN020 12/12 Q1006 RERA=
200508060550 METAR ESMX 060550Z AUTO VRB01KT 9999 RA FEW004 12/11 Q1006=
200508060520 METAR ESMX 060520Z AUTO VRB02KT 3700 +RA FEW003 SCT005 BKN032 12/11 Q1007=
200508060450 METAR ESMX 060450Z AUTO 26005KT 220V300 3900 +RA FEW004 SCT005 BKN008 12/12 Q1007=
200508060420 METAR ESMX 060420Z AUTO 16005KT 7000 RA FEW005 SCT006 BKN009 13/13 Q1006=
200508060350 METAR ESMX 060350Z AUTO 16006KT 120V220 8000 RA FEW004 SCT007 BKN008 13/13 Q1006=
200508060320 METAR ESMX 060320Z AUTO 14005KT 100V170 7000 SHRA FEW003 SCT006 BKN008 13/12 Q1007=
200508060250 METAR ESMX 060250Z AUTO 13004KT 100V170 9999 -SHRA FEW004 SCT006 BKN009 13/12 Q1007=
200508060220 METAR ESMX 060220Z AUTO 15004KT 110V200 9999 -SHRA FEW005 SCT007 BKN008 13/12 Q1007=
200508060150 METAR ESMX 060150Z AUTO 13004KT 100V190 9999 FEW003 SCT006 BKN009 13/12 Q1008 RERA=
200508060120 METAR ESMX 060120Z AUTO VRB03KT 9000 DZ FEW004 SCT023 BKN033 13/12 Q1008=
200508060050 METAR ESMX 060050Z AUTO VRB03KT 6000 RA FEW012 SCT018 BKN022 12/12 Q1009=
200508060020 METAR ESMX 060020Z AUTO 17004KT 9999 -RA FEW024 SCT057 BKN075 12/12 Q1009=
200508052350 METAR ESMX 052350Z AUTO 18006KT 9999 RA FEW069 13/12 Q1010=
200508052320 METAR ESMX 052320Z AUTO 17007KT 140V200 9999 -RA FEW083 13/12 Q1010=
200508052250 METAR ESMX 052250Z AUTO 18011KT 150V210 9999 DZ FEW015 SCT025 OVC053 13/12 Q1010=
200508052220 METAR ESMX 052220Z AUTO 17006KT 9999 FEW023 SCT030 OVC037 13/12 Q1010=
200508052150 METAR ESMX 052150Z AUTO 17006KT 140V200 9999 FEW027 OVC035 13/11 Q1010 REDZ=
200508052120 METAR ESMX 052120Z AUTO 17010KT 9999 FEW010 SCT036 BKN054 13/12 Q1011 REDZ=
200508052050 METAR ESMX 052050Z AUTO 16009KT 9999 -SHRA FEW007 SCT013 BKN032 13/12 Q1011=
200508052020 METAR ESMX 052020Z AUTO 18008KT 8000 -SHRA FEW009 SCT019 BKN022 13/12 Q1011=
200508051950 METAR ESMX 051950Z AUTO 18010KT 7000 -SHRA FEW016 SCT026 BKN040 14/12 Q1011=
200508051920 METAR ESMX 051920Z AUTO 16005KT 9999 FEW030 SCT040 BKN056 14/12 Q1011 RERA=
200508051850 METAR ESMX 051850Z AUTO 15007KT 9999 SHRA FEW023 SCT042 BKN059 14/12 Q1011=
200508051820 METAR ESMX 051820Z AUTO 18005KT 9999 FEW025 SCT076 BKN089 14/12 Q1012=
200508051750 METAR ESMX 051750Z AUTO 16006KT 9999 FEW058 SCT071 BKN083 14/12 Q1012=
200508051720 METAR ESMX 051720Z 16007KT 9999 FEW025 SCT064 OVC080 14/12 Q1012=
200508051650 METAR ESMX 051650Z 17007KT 140V220 9999 FEW016 BKN066 14/12 Q1012 RERA=
200508051620 METAR ESMX 051620Z 19009G24KT 150V240 5000 SHRA SCT025 BKN045CB 15/12 Q1013=
200508051550 METAR ESMX 051550Z 15005KT 110V170 9999 -RA FEW020 BKN048 16/12 Q1012=
200508051520 METAR ESMX 051520Z 18005KT 140V210 CAVOK 16/13 Q1013=
200508051450 METAR ESMX 051450Z 19004KT 160V230 9999 FEW020 SCT070 16/13 Q1013=
200508051420 METAR ESMX 051420Z 20004KT 170V240 9999 FEW020 BKN058 15/13 Q1013 RERA=
200508051350 METAR ESMX 051350Z 24006KT 210V320 9999 -SHRA FEW019 SCT046 BKN060 15/13 Q1014=
200508051320 METAR ESMX 051320Z 25004KT 210V300 9999 -SHRA FEW022 SCT069 15/13 Q1014=
200508051250 METAR ESMX 051250Z 26004KT 230V290 9999 -SHRA FEW034 BKN063 15/13 Q1014=
200508051220 METAR ESMX 051220Z 27006KT 240V330 6000 SHRA FEW027 BKN062 14/12 Q1014=
200508051150 METAR ESMX 051150Z 21006KT 6000 SHRA FEW013 SCT033 BKN070 14/12 Q1014=
200508051120 METAR ESMX 051120Z 22008KT 190V250 9999 -SHRA SCT025 BKN040 15/10 Q1014=
200508051050 METAR ESMX 051050Z 22008KT 170V260 9999 FEW030 SCT042 BKN059 18/11 Q1014=
200508051020 METAR ESMX 051020Z 21010KT 180V250 9999 FEW029 SCT059 17/10 Q1014=
200508050950 METAR ESMX 050950Z 24009KT 190V280 9999 FEW026 SCT040 17/11 Q1015=
200508050920 METAR ESMX 050920Z 25008KT 200V280 9999 FEW024 SCT031 16/10 Q1015=
200508050820 METAR ESMX 050820Z 25009KT 9999 SCT020 BKN040 15/11 Q1015=
200508050750 METAR ESMX 050750Z 26009KT 9999 BKN020 15/10 Q1015=
200508050650 METAR ESMX 050650Z 23009KT 200V270 9999 FEW012 SCT015 BKN018 14/12 Q1015=
200508050620 METAR ESMX 050620Z 23008KT 190V250 9999 FEW011 SCT068 14/11 Q1015=
200508050550 METAR ESMX 050550Z 21008KT 9999 FEW009 13/12 Q1015=
200508050520 METAR ESMX 050520Z 20006KT 9999 FEW006 BKN071 12/11 Q1015=
200508050420 METAR ESMX 050420Z 20006KT 9999 FEW011 BKN072 11/11 Q1015=
200508050350 METAR ESMX 050350Z AUTO 20005KT 9999 FEW036 SCT045 BKN070 11/10 Q1015=
200508050320 METAR ESMX 050320Z AUTO 21005KT 9999 NSC 09/09 Q1015=
200508050250 METAR ESMX 050250Z AUTO 21005KT 9999 NSC 10/09 Q1015=
200508050220 METAR ESMX 050220Z AUTO 22005KT 9999 NSC 10/09 Q1015=
200508050150 METAR ESMX 050150Z AUTO VRB03KT 9999 NSC 10/09 Q1015=
200508050120 METAR ESMX 050120Z AUTO 23005KT 9999 NSC 10/10 Q1015=
200508050050 METAR ESMX 050050Z AUTO 23004KT 9999 NSC 10/09 Q1015=
200508050020 METAR ESMX 050020Z AUTO 22004KT 9999 NSC 10/10 Q1015=
200508042350 METAR ESMX 042350Z 21005KT CAVOK 10/09 Q1015=
200508042320 METAR ESMX 042320Z 20005KT CAVOK 11/10 Q1015=
200508042250 METAR ESMX 042250Z 23005KT CAVOK 11/10 Q1015=
200508042220 METAR ESMX 042220Z 21004KT CAVOK 11/10 Q1015=
200508042150 METAR ESMX 042150Z 22005KT CAVOK 11/10 Q1015=
200508042120 METAR ESMX 042120Z 24004KT CAVOK 12/10 Q1015=
200508042050 METAR ESMX 042050Z 25005KT CAVOK 13/10 Q1015=
200508042020 METAR ESMX 042020Z 25005KT CAVOK 13/10 Q1015=
200508041950 METAR ESMX 041950Z 25005KT 9999 FEW036 14/10 Q1015=
200508041920 METAR ESMX 041920Z 24005KT 9999 FEW029 14/10 Q1014=
200508041850 METAR ESMX 041850Z VRB03KT 9999 FEW029 14/11 Q1014=
200508041820 METAR ESMX 041820Z 26006KT 230V300 9999 FEW038 16/11 Q1014=
200508041750 METAR ESMX 041750Z 26004KT 240V300 9999 FEW038 SCT084 17/11 Q1014=
200508041720 METAR ESMX 041720Z 26008KT 9999 FEW031 17/10 Q1014=
200508041650 METAR ESMX 041650Z 23008KT 200V260 9999 SCT037 17/10 Q1014=
200508041620 METAR ESMX 041620Z 25009KT 230V300 9999 FEW040 19/10 Q1013=
200508041550 METAR ESMX 041550Z 28010KT 240V310 9999 FEW039 19/11 Q1013=
200508041520 METAR ESMX 041520Z 29009KT 240V350 9999 FEW039 SCT059 19/11 Q1013=
200508041450 METAR ESMX 041450Z 25009KT 220V290 9999 FEW041 SCT075 19/12 Q1013=
200508041420 METAR ESMX 041420Z 27008KT 230V300 9999 FEW028 SCT035 19/12 Q1013=
200508041350 METAR ESMX 041350Z 24007KT 210V290 9999 SCT035 19/12 Q1013=
200508041320 METAR ESMX 041320Z 31006KT 270V340 9999 FEW020 SCT050 18/13 Q1014 RERA=
200508041250 METAR ESMX 041250Z 31005KT 260V330 9999 SHRA FEW020CB SCT040 15/12 Q1014=
200508041220 METAR ESMX 041220Z 28010G20KT 240V320 9999 -SHRA FEW020CB SCT040 BKN049 16/11 Q1014=
200508041150 METAR ESMX 041150Z 24006KT 9999 SCT040 18/10 Q1013=
200508041050 METAR ESMX 041050Z 23007KT 9999 FEW020 SCT027 18/12 Q1014=
200508041020 METAR ESMX 041020Z 24007KT 210V280 9999 SCT020 SCT040 16/13 Q1014=
200508040950 METAR ESMX 040950Z 22005KT 190V250 9999 FEW014 BKN022 15/13 Q1014=
200508040920 METAR ESMX 040920Z 24004KT 200V270 9999 FEW022 BKN040 15/13 Q1014=
200508040850 METAR ESMX 040850Z VRB03G22KT 9999 SCT010 BKN030 15/13 Q1014=
200508040820 METAR ESMX 040820Z 22005KT 190V260 9999 SCT008 BKN020 15/13 Q1014=
200508040750 METAR ESMX 040750Z 21004KT 9999 -SHRA SCT007 BKN023 14/13 Q1014=
200508040720 METAR ESMX 040720Z 23006KT 8000 SCT005 BKN020 14/13 Q1014=
200508040650 METAR ESMX 040650Z 22006KT 6000 FEW004 BKN013 14/13 Q1014 RERA=
200508040620 METAR ESMX 040620Z 21005KT 170V240 8000 -SHRA FEW005 BKN015 14/13 Q1014=
200508040550 METAR ESMX 040550Z 19005KT 6000 -SHRA BR FEW010 BKN061 13/13 Q1014=
200508040520 METAR ESMX 040520Z VRB03KT 5000 BR FEW026 BKN050 13/12 Q1014=
200508040450 METAR ESMX 040450Z VRB03KT 5000 -RA FEW035 BKN070 13/12 Q1014=
200508040420 METAR ESMX 040420Z VRB03KT 5000 RA FEW030 BKN059 13/12 Q1014=
200508040350 METAR ESMX 040350Z VRB02KT 8000 -RA FEW035 BKN067 13/12 Q1014=
200508040320 METAR ESMX 040320Z AUTO VRB03KT 9999 -SHRA FEW030 SCT037 BKN042 13/12 Q1014=
200508040250 METAR ESMX 040250Z AUTO VRB03KT 9999 -SHRA FEW014 SCT045 BKN052 13/12 Q1014=
200508040220 METAR ESMX 040220Z AUTO VRB03KT 9999 FEW040 SCT045 BKN055 13/12 Q1014=
200508040150 METAR ESMX 040150Z AUTO VRB03KT 9999 OVC034 13/12 Q1014=
200508040120 METAR ESMX 040120Z AUTO VRB03KT 9999 FEW038 OVC048 13/12 Q1014=
200508040050 METAR ESMX 040050Z AUTO 17004KT 9999 OVC048 13/12 Q1015=
200508040020 METAR ESMX 040020Z AUTO 19004KT 9999 BKN060 12/11 Q1015=
200508032320 METAR ESMX 032320Z 18005KT 9999 FEW045 BKN053 13/12 Q1015=
200508032250 METAR ESMX 032250Z 17004KT 9999 SCT045 BKN084 14/11 Q1016=
200508032220 METAR ESMX 032220Z VRB03KT 9999 BKN045 13/11 Q1016=
200508032150 METAR ESMX 032150Z 17004KT CAVOK 14/11 Q1016=
200508032120 METAR ESMX 032120Z 15004KT 120V190 9999 FEW045 BKN057 14/11 Q1016=
200508032050 METAR ESMX 032050Z 16004KT 9999 FEW045 BKN056 13/12 Q1016=
200508032020 METAR ESMX 032020Z VRB03KT CAVOK 13/12 Q1016=
200508031950 METAR ESMX 031950Z VRB03KT CAVOK 13/12 Q1016=
200508031920 METAR ESMX 031920Z VRB02KT CAVOK 14/12 Q1016=
200508031850 METAR ESMX 031850Z VRB02KT CAVOK 14/12 Q1016=
200508031820 METAR ESMX 031820Z VRB02KT CAVOK 14/12 Q1016=
200508031750 METAR ESMX 031750Z VRB03KT CAVOK 15/11 Q1016=
200508031720 METAR ESMX 031720Z VRB03KT CAVOK 17/11 Q1016=
200508031650 METAR ESMX 031650Z 22004KT 170V250 9999 BKN046 16/11 Q1016=
200508031620 METAR ESMX 031620Z VRB03KT 9999 BKN045 16/11 Q1016=
200508031550 METAR ESMX 031550Z VRB03KT 9999 SCT035 BKN045 16/11 Q1016=
200508031520 METAR ESMX 031520Z 26004KT 210V300 9999 SCT025 BKN045 16/11 Q1016=
200508031450 METAR ESMX 031450Z 22004KT 190V260 9999 SCT030 BKN045 16/11 Q1017=
200508031420 METAR ESMX 031420Z VRB03KT 9999 SCT025 BKN045 17/12 Q1017=
200508031350 METAR ESMX 031350Z VRB02KT 9999 FEW028 BKN036 15/11 Q1017=
200508031320 METAR ESMX 031320Z 21004KT 180V250 9999 BKN028 15/11 Q1017=
200508031250 METAR ESMX 031250Z 25004KT 200V290 9999 FEW023 SCT028 BKN033 15/11 Q1017=
200508031220 METAR ESMX 031220Z 27006KT 9999 FEW018 BKN033 15/11 Q1017=
200508031150 METAR ESMX 031150Z 25006KT 9999 FEW030 BKN038 15/11 Q1018=
200508031120 METAR ESMX 031120Z 23005KT 200V270 9999 FEW020 SCT027 BKN034 15/12 Q1017=
200508031020 METAR ESMX 031020Z 22006KT 160V240 9999 SCT020 BKN037 16/11 Q1018=
200508030950 METAR ESMX 030950Z 19007KT 9999 FEW020 BKN034 15/11 Q1018=
200508030920 METAR ESMX 030920Z 20007KT 9999 FEW013 OVC034 15/12 Q1018=
200508030850 METAR ESMX 030850Z 20005KT 9999 FEW014 BKN034 15/12 Q1018=
200508030820 METAR ESMX 030820Z 20004KT 9999 OVC030 15/13 Q1018=
200508030720 METAR ESMX 030720Z 21004KT 9999 OVC031 14/12 Q1018=
200508030650 METAR ESMX 030650Z 22004KT 9999 OVC027 14/12 Q1018=
200508030620 METAR ESMX 030620Z 21004KT 9999 FEW026 OVC030 14/12 Q1018=
200508030550 METAR ESMX 030550Z 21004KT 9999 OVC028 14/12 Q1018=
200508030520 METAR ESMX 030520Z 19004KT 9999 OVC027 13/12 Q1018=
200508030450 METAR ESMX 030450Z VRB03KT 9999 OVC026 13/12 Q1018=
200508030420 METAR ESMX 030420Z 19004KT 9999 OVC026 13/12 Q1018=
200508030350 METAR ESMX 030350Z 18004KT 9999 OVC026 13/12 Q1018=
200508030320 METAR ESMX 030320Z AUTO 18004KT 9999 OVC025 13/12 Q1018=
200508030250 METAR ESMX 030250Z AUTO VRB03KT 9999 OVC024 14/12 Q1018=
200508030220 METAR ESMX 030220Z AUTO VRB03KT 9999 OVC025 13/12 Q1018=
200508030150 METAR ESMX 030150Z AUTO 18004KT 9999 OVC026 14/12 Q1018=
200508030120 METAR ESMX 030120Z AUTO 19004KT 9999 OVC026 13/12 Q1018=
200508030050 METAR ESMX 030050Z AUTO 19004KT 9999 OVC026 14/12 Q1018=
200508030020 METAR ESMX 030020Z AUTO VRB02KT 9999 OVC025 13/12 Q1018=
200508022350 METAR ESMX 022350Z 19004KT 9999 OVC025 14/12 Q1018=
200508022320 METAR ESMX 022320Z 19004KT 9999 OVC023 13/12 Q1018=
200508022250 METAR ESMX 022250Z VRB03KT 9999 OVC025 13/12 Q1018=
200508022220 METAR ESMX 022220Z VRB02KT 9999 OVC024 14/12 Q1018=
200508022150 METAR ESMX 022150Z VRB02KT 9999 OVC020 14/11 Q1018=
200508022120 METAR ESMX 022120Z VRB02KT 9999 OVC020 14/11 Q1018=
200508022050 METAR ESMX 022050Z VRB02KT 9999 OVC021 14/11 Q1018=
200508022020 METAR ESMX 022020Z VRB02KT 9999 OVC021 14/11 Q1018=
200508021950 METAR ESMX 021950Z VRB03KT 9999 OVC021 14/11 Q1018=
200508021920 METAR ESMX 021920Z VRB03KT 9999 BKN021 14/11 Q1018=
200508021850 METAR ESMX 021850Z VRB03KT 9999 OVC021 14/11 Q1018=
200508021820 METAR ESMX 021820Z VRB03KT 9999 BKN021 15/11 Q1018=
200508021750 METAR ESMX 021750Z 23005KT 200V270 9999 FEW021 BKN028 15/11 Q1018=
200508021720 METAR ESMX 021720Z 26006KT 210V290 9999 FEW023 BKN032 15/11 Q1018=
200508021650 METAR ESMX 021650Z 27007KT 230V300 9999 BKN023 16/11 Q1018=
200508021620 METAR ESMX 021620Z 25010KT 200V280 9999 SCT021 BKN026 16/11 Q1018=
200508021550 METAR ESMX 021550Z 25007KT 210V290 9999 SCT023 BKN027 17/12 Q1018=
200508021520 METAR ESMX 021520Z 26007KT 220V300 9999 SCT021 BKN035 17/12 Q1018=
200508021450 METAR ESMX 021450Z 24009KT 210V290 9999 FEW022 BKN040 17/12 Q1018=
200508021420 METAR ESMX 021420Z 26009KT 230V310 9999 SCT025 BKN039 17/12 Q1018=
200508021350 METAR ESMX 021350Z 27007KT 240V330 9999 FEW023 SCT034 BKN039 17/12 Q1017=
200508021320 METAR ESMX 021320Z 23007KT 200V280 9999 FEW023 BKN033 17/12 Q1017=
200508021250 METAR ESMX 021250Z 24006KT 210V280 9999 BKN028 18/12 Q1017=
200508021220 METAR ESMX 021220Z 23009KT 9999 BKN030 17/11 Q1017=
200508021150 METAR ESMX 021150Z 24009KT 200V290 9999 FEW025 BKN029 17/12 Q1017=
200508021120 METAR ESMX 021120Z 24009KT 200V270 9999 SCT022 BKN034 17/12 Q1017=
200508021050 METAR ESMX 021050Z 22007KT 190V250 9999 FEW023 OVC031 17/13 Q1017=
200508021020 METAR ESMX 021020Z 23007KT 190V280 9999 FEW023 BKN032 17/13 Q1017=
200508020950 METAR ESMX 020950Z 26005KT 200V300 9999 SCT020 BKN029 16/12 Q1017=
200508020920 METAR ESMX 020920Z 23007KT 210V290 9999 SCT019 BKN025 16/12 Q1017=
200508020850 METAR ESMX 020850Z 25007KT 9999 FEW018 SCT022 BKN026 17/12 Q1017=
200508020820 METAR ESMX 020820Z 27006KT 230V330 9999 FEW014 SCT017 BKN019 16/12 Q1017=
200508020750 METAR ESMX 020750Z 24007KT 210V280 9999 SCT013 BKN020 16/13 Q1017=
200508020720 METAR ESMX 020720Z 24007KT 200V300 9999 FEW010 SCT019 BKN024 16/13 Q1016=
200508020650 METAR ESMX 020650Z 25005KT 220V280 9999 FEW009 BKN019 15/13 Q1016=
200508020620 METAR ESMX 020620Z 25006KT 9999 OVC018 15/13 Q1016=
200508020550 METAR ESMX 020550Z 25006KT 200V280 9999 FEW010 BKN017 15/13 Q1016=
200508020520 METAR ESMX 020520Z 24005KT 9999 FEW018 15/13 Q1016=
200508020450 METAR ESMX 020450Z 21004KT 9000 FEW018 14/13 Q1016=
200508020420 METAR ESMX 020420Z 21003KT 9999 SCT018 13/13 Q1015=
200508020350 METAR ESMX 020350Z AUTO VRB02KT 6000 BR BKN017 13/12 Q1015=
200508020320 METAR ESMX 020320Z AUTO VRB01KT 9000 NSC 13/12 Q1015=
200508020250 METAR ESMX 020250Z AUTO 25004KT 9999 FEW006 BKN008 13/12 Q1015=
200508020220 METAR ESMX 020220Z AUTO 27006KT 230V300 9999 BR FEW002 SCT004 OVC010 14/13 Q1015=
200508020150 METAR ESMX 020150Z AUTO 26004KT 210V290 8000 BR SCT002 BKN007 BKN009 14/14 Q1015=
200508020120 METAR ESMX 020120Z AUTO VRB03KT 6000 BR OVC001 14/14 Q1014=
200508020050 METAR ESMX 020050Z 23004KT 190V260 3700 BR SCT002 BKN007 14/14 Q1014=
200508020020 METAR ESMX 020020Z VRB02KT 6000 BR FEW006 SCT008 13/12 Q1014=
200508012350 METAR ESMX 012350Z VRB03KT CAVOK 13/13 Q1014=
200508012320 METAR ESMX 012320Z 25005KT CAVOK 14/13 Q1014=
200508012250 METAR ESMX 012250Z 23006KT CAVOK 14/13 Q1014=
200508012220 METAR ESMX 012220Z 25006KT 9999 NSC 14/13 Q1014=
200508012150 METAR ESMX 012150Z 24006KT CAVOK 14/13 Q1013=
200508012050 METAR ESMX 012050Z 23005KT CAVOK 15/13 Q1013=
200508012020 METAR ESMX 012020Z 24004KT 200V270 CAVOK 15/13 Q1013=
200508011950 METAR ESMX 011950Z 27004KT 240V310 CAVOK 16/13 Q1012=
200508011920 METAR ESMX 011920Z 25004KT CAVOK 16/14 Q1012=
200508011850 METAR ESMX 011850Z 27004KT CAVOK 17/14 Q1012=
200508011820 METAR ESMX 011820Z 23004KT CAVOK 18/14 Q1012=
200508011750 METAR ESMX 011750Z 29005KT 260V320 CAVOK 17/13 Q1011=
200508011720 METAR ESMX 011720Z 29009KT CAVOK 18/13 Q1011=
200508011650 METAR ESMX 011650Z 27009KT CAVOK 19/14 Q1010=
200508011620 METAR ESMX 011620Z 28007KT CAVOK 19/14 Q1010=
200508011550 METAR ESMX 011550Z 29008KT 260V330 CAVOK 18/13 Q1010=
200508011520 METAR ESMX 011520Z 29007KT 250V330 9999 -SHRA FEW035 BKN084 18/14 Q1010=
200508011450 METAR ESMX 011450Z 27006KT 230V320 9999 FEW030 SCT041 BKN053 19/14 Q1009=
200508011420 METAR ESMX 011420Z 28008KT 9999 FEW028 SCT053 18/13 Q1009=
200508011350 METAR ESMX 011350Z 31009KT 9999 SCT020 SCT070 19/13 Q1008=
200508011320 METAR ESMX 011320Z 29008KT 9999 FEW024 SCT05 19/13 Q1008=
200508011250 METAR ESMX 011250Z 34008KT 9999 SCT016 BKN050 18/14 Q1008=
200508011220 METAR ESMX 011220Z 35006KT 9999 SCT019 BKN040 18/14 Q1007=
Fallo de consulta: el error es SELECT command denied to user 'users'@'localhost' for table 'tafs_2005'
