##########################################################
# Query made at 04/19/2024 20:43:29 UTC
# Time interval: from 05/01/2005 12:00  to 05/29/2005 12:59  UTC
##########################################################

##########################################################
# ESMX, Vaxjo (Sweden)
# WMO index: 02641. WIGOS ID: 0-20000-0-02648
# Latitude 56-51N. Longitude 014-50E. Altitude 199 m.
##########################################################

200505291250 METAR ESMX 291250Z 26013KT 200V290 9999 FEW045 19/07 Q1014=
200505291220 METAR ESMX 291220Z AUTO 24014KT 210V280 9999 FEW043 SCT082 20/08 Q1014=
200505291150 METAR ESMX 291150Z AUTO 24013KT 200V290 9999 SCT041 20/09 Q1014=
200505291120 METAR ESMX 291120Z AUTO 23015KT 200V260 9999 FEW043 19/08 Q1014=
200505291050 METAR ESMX 291050Z AUTO 24013KT 210V290 9999 FEW043 SCT049 20/08 Q1014=
200505291020 METAR ESMX 291020Z AUTO 23014KT 210V290 9999 SCT041 20/08 Q1014=
200505290950 METAR ESMX 290950Z AUTO 25013KT 210V290 9999 SCT041 BKN047 19/09 Q1014=
200505290920 METAR ESMX 290920Z AUTO 23014KT 200V260 9999 SCT040 20/09 Q1014=
200505290850 METAR ESMX 290850Z AUTO 23012KT 190V290 9999 SCT038 19/08 Q1014=
200505290820 METAR ESMX 290820Z AUTO 26012KT 220V300 9999 SCT035 18/08 Q1013=
200505290750 METAR ESMX 290750Z AUTO 27011KT 230V300 9999 FEW033 SCT037 18/09 Q1013=
200505290720 METAR ESMX 290720Z AUTO 26010G20KT 220V290 9999 FEW032 17/10 Q1013=
200505290650 METAR ESMX 290650Z AUTO 26010KT 220V300 9999 FEW035 17/10 Q1013=
200505290620 METAR ESMX 290620Z AUTO 26009KT 210V300 9999 NSC 16/10 Q1013=
200505290550 METAR ESMX 290550Z AUTO 25008KT 200V290 9999 NSC 15/10 Q1013=
200505290520 METAR ESMX 290520Z AUTO 27008KT 230V300 9999 NSC 14/10 Q1013=
200505290450 METAR ESMX 290450Z AUTO 26007KT 210V300 9999 NSC 13/10 Q1013=
200505290420 METAR ESMX 290420Z AUTO 26006KT 230V290 9999 NSC 13/10 Q1013=
200505290350 METAR ESMX 290350Z AUTO 28008KT 220V300 9999 SCT015 13/10 Q1013=
200505290320 METAR ESMX 290320Z AUTO 26008KT 9999 FEW014 13/10 Q1013=
200505290250 METAR ESMX 290250Z AUTO 26005KT 230V300 9999 NSC 13/10 Q1012=
200505290220 METAR ESMX 290220Z AUTO 26007KT 9999 NSC 14/11 Q1012=
200505290150 METAR ESMX 290150Z AUTO 25007KT 200V290 9999 NSC 15/11 Q1012=
200505290120 METAR ESMX 290120Z AUTO 25007KT 220V290 9999 NSC 16/12 Q1011=
200505290050 METAR ESMX 290050Z AUTO 26007KT 220V290 9999 NSC 16/13 Q1011=
200505290020 METAR ESMX 290020Z AUTO 24007KT 9999 NSC 16/13 Q1011=
200505282350 METAR ESMX 282350Z AUTO 21005KT 9999 NSC 16/13 Q1011=
200505282320 METAR ESMX 282320Z AUTO 19005KT 9999 NSC 16/12 Q1011=
200505282250 METAR ESMX 282250Z AUTO 21006KT 9999 NSC 16/11 Q1011=
200505282220 METAR ESMX 282220Z AUTO 19006KT 9999 NSC 16/11 Q1011=
200505282150 METAR ESMX 282150Z AUTO 19008KT 9999 NSC 17/11 Q1011=
200505282120 METAR ESMX 282120Z AUTO 18005KT 9999 NSC 18/10 Q1011=
200505282050 METAR ESMX 282050Z AUTO 18006KT 9999 NSC 18/09 Q1011=
200505282020 METAR ESMX 282020Z AUTO 18006KT 140V200 9999 NSC 19/08 Q1011=
200505281950 METAR ESMX 281950Z AUTO 18007KT 140V200 9999 NSC 19/07 Q1011=
200505281920 METAR ESMX 281920Z AUTO 17008KT 9999 NSC 20/06 Q1011=
200505281850 METAR ESMX 281850Z AUTO 16008KT 9999 NSC 20/05 Q1012=
200505281820 METAR ESMX 281820Z AUTO 17009KT 110V200 9999 NSC 21/06 Q1012=
200505281750 METAR ESMX 281750Z AUTO 17010KT 9999 NSC 22/07 Q1012=
200505281720 METAR ESMX 281720Z AUTO 17011KT 9999 NSC 22/07 Q1012=
200505281650 METAR ESMX 281650Z AUTO 15011KT 120V200 9999 NSC 23/07 Q1013=
200505281620 METAR ESMX 281620Z AUTO 17011KT 140V200 9999 NSC 24/09 Q1013=
200505281550 METAR ESMX 281550Z AUTO 17010KT 140V210 9999 NSC 24/08 Q1013=
200505281520 METAR ESMX 281520Z AUTO 16011KT 120V210 9999 NSC 24/09 Q1013=
200505281450 METAR ESMX 281450Z AUTO 17011KT 120V210 9999 NSC 24/09 Q1014=
200505281420 METAR ESMX 281420Z AUTO 15010KT 100V190 9999 NSC 25/08 Q1014=
200505281350 METAR ESMX 281350Z AUTO 16011KT 120V190 9999 NSC 24/09 Q1014=
200505281320 METAR ESMX 281320Z AUTO 16011KT 120V200 9999 NSC 24/09 Q1015=
200505281250 METAR ESMX 281250Z AUTO 16011KT 120V190 9999 NSC 25/09 Q1015=
200505281220 METAR ESMX 281220Z AUTO 16009KT 120V190 9999 FEW099 25/08 Q1015=
200505281150 METAR ESMX 281150Z AUTO 18009KT 110V220 9999 NSC 24/09 Q1016=
200505281120 METAR ESMX 281120Z AUTO 16008KT 110V210 9999 FEW110 23/09 Q1016=
200505281050 METAR ESMX 281050Z AUTO 16007KT 080V200 9999 FEW110 22/09 Q1017=
200505281020 METAR ESMX 281020Z AUTO 15008KT 080V200 9999 NSC 22/08 Q1017=
200505280950 METAR ESMX 280950Z 15007KT 110V200 CAVOK 21/09 Q1017=
200505280920 METAR ESMX 280920Z 12006KT 070V160 9999 FEW045 SCT110 20/09 Q1017=
200505280850 METAR ESMX 280850Z VRB03KT CAVOK 20/09 Q1017=
200505280820 METAR ESMX 280820Z VRB03KT CAVOK 19/10 Q1018=
200505280750 METAR ESMX 280750Z VRB02KT CAVOK 17/10 Q1018=
200505280720 METAR ESMX 280720Z 14004KT 110V170 CAVOK 17/09 Q1018=
200505280650 METAR ESMX 280650Z VRB03KT CAVOK 18/09 Q1018=
200505280620 METAR ESMX 280620Z VRB01KT CAVOK 16/09 Q1018=
200505280550 METAR ESMX 280550Z AUTO VRB03KT 9999 NSC 15/09 Q1018=
200505280520 METAR ESMX 280520Z AUTO VRB02KT 9999 FEW100 14/08 Q1018=
200505280450 METAR ESMX 280450Z AUTO VRB03KT 9999 NSC 13/09 Q1018=
200505280420 METAR ESMX 280420Z AUTO VRB01KT 9999 NSC 11/09 Q1018=
200505280350 METAR ESMX 280350Z AUTO VRB03KT 9999 NSC 10/08 Q1018=
200505280320 METAR ESMX 280320Z AUTO VRB03KT 9999 NSC 10/08 Q1018=
200505280250 METAR ESMX 280250Z AUTO VRB01KT 9999 NSC 09/07 Q1018=
200505280220 METAR ESMX 280220Z AUTO VRB03KT 9999 NSC 10/08 Q1018=
200505280150 METAR ESMX 280150Z AUTO 22004KT 9999 FEW100 09/07 Q1017=
200505280120 METAR ESMX 280120Z AUTO VRB03KT 9999 NSC 10/07 Q1017=
200505280050 METAR ESMX 280050Z AUTO 18004KT 9999 NSC 10/07 Q1017=
200505280020 METAR ESMX 280020Z AUTO 20004KT 9999 NSC 10/07 Q1017=
200505272350 METAR ESMX 272350Z AUTO 22004KT 9999 NSC 10/07 Q1017=
200505272320 METAR ESMX 272320Z AUTO 20004KT 9999 NSC 11/07 Q1017=
200505272250 METAR ESMX 272250Z AUTO 20004KT 9999 NSC 11/08 Q1017=
200505272220 METAR ESMX 272220Z AUTO VRB03KT 9999 NSC 12/08 Q1017=
200505272150 METAR ESMX 272150Z AUTO 23004KT 9999 NSC 12/07 Q1017=
200505272120 METAR ESMX 272120Z AUTO 22004KT 9999 NSC 12/08 Q1017=
200505272050 METAR ESMX 272050Z AUTO 22004KT 200V260 9999 NSC 13/08 Q1017=
200505272020 METAR ESMX 272020Z AUTO 23004KT 9999 NSC 14/07 Q1016=
200505271950 METAR ESMX 271950Z AUTO 23004KT 190V260 9999 NSC 15/08 Q1016=
200505271920 METAR ESMX 271920Z AUTO 25004KT 230V300 9999 NSC 16/07 Q1016=
200505271850 METAR ESMX 271850Z AUTO 26007KT 220V290 9999 NSC 17/06 Q1016=
200505271820 METAR ESMX 271820Z AUTO 28008KT 240V310 9999 NSC 18/06 Q1016=
200505271720 METAR ESMX 271720Z 25010KT 230V290 CAVOK 19/06 Q1016=
200505271650 METAR ESMX 271650Z 28010KT 230V330 CAVOK 19/06 Q1015=
200505271620 METAR ESMX 271620Z 27009KT 230V320 CAVOK 20/05 Q1015=
200505271550 METAR ESMX 271550Z 29012KT 250V340 CAVOK 20/06 Q1015=
200505271520 METAR ESMX 271520Z 29010KT 240V320 CAVOK 20/06 Q1015=
200505271450 METAR ESMX 271450Z 27009G19KT 220V310 CAVOK 21/07 Q1015=
200505271420 METAR ESMX 271420Z 26010KT 220V310 CAVOK 21/06 Q1015=
200505271350 METAR ESMX 271350Z 27011KT 240V310 CAVOK 20/05 Q1015=
200505271320 METAR ESMX 271320Z 27011KT 230V300 CAVOK 20/07 Q1015=
200505271250 METAR ESMX 271250Z 25011KT 220V330 CAVOK 20/07 Q1015=
200505271220 METAR ESMX 271220Z 25013KT 230V310 CAVOK 20/06 Q1015=
200505271150 METAR ESMX 271150Z 27014KT 240V310 CAVOK 19/05 Q1015=
200505271120 METAR ESMX 271120Z 27010KT 220V310 CAVOK 19/06 Q1015=
200505271050 METAR ESMX 271050Z 27009KT 210V300 CAVOK 19/07 Q1015=
200505271020 METAR ESMX 271020Z 25009KT 210V280 CAVOK 19/07 Q1015=
200505270950 METAR ESMX 270950Z 24010KT 210V300 CAVOK 19/06 Q1015=
200505270920 METAR ESMX 270920Z 27011KT 240V300 CAVOK 20/06 Q1014=
200505270850 METAR ESMX 270850Z 27010KT 250V340 CAVOK 20/06 Q1014=
200505270820 METAR ESMX 270820Z 26009KT 220V290 CAVOK 19/06 Q1014=
200505270750 METAR ESMX 270750Z 27009KT 230V290 CAVOK 19/04 Q1014=
200505270720 METAR ESMX 270720Z 25009KT 210V280 CAVOK 18/04 Q1013=
200505270650 METAR ESMX 270650Z 27008KT 230V320 CAVOK 18/06 Q1013=
200505270620 METAR ESMX 270620Z 27009KT 240V310 CAVOK 17/08 Q1013=
200505270550 METAR ESMX 270550Z 25009KT 220V280 9999 FEW025 17/11 Q1013=
200505270520 METAR ESMX 270520Z 26007KT 210V290 9999 FEW020 17/12 Q1013=
200505270450 METAR ESMX 270450Z 25007KT 210V310 CAVOK 17/12 Q1013=
200505270420 METAR ESMX 270420Z 26006KT CAVOK 17/12 Q1012=
200505270350 METAR ESMX 270350Z 24005KT CAVOK 17/13 Q1012=
200505270320 METAR ESMX 270320Z AUTO 24006KT 200V270 9999 BKN062 17/13 Q1012=
200505270250 METAR ESMX 270250Z AUTO 21006KT 9999 BKN070 17/13 Q1012=
200505270220 METAR ESMX 270220Z AUTO 20008KT 9999 FEW061 BKN081 17/13 Q1012=
200505270150 METAR ESMX 270150Z AUTO 19008KT 9999 SCT082 BKN100 17/13 Q1012 REDZ=
200505270120 METAR ESMX 270120Z AUTO 21009KT 190V260 9999 DZ FEW087 SCT099 BKN110 18/12 Q1012=
200505270050 METAR ESMX 270050Z AUTO 19009KT 9999 FEW077 BKN094 18/12 Q1012=
200505270020 METAR ESMX 270020Z 18008KT CAVOK 18/12 Q1012=
200505262250 METAR ESMX 262250Z 16008KT 130V190 CAVOK 17/12 Q1013=
200505262220 METAR ESMX 262220Z 16009KT CAVOK 18/12 Q1014=
200505262150 METAR ESMX 262150Z 16009KT CAVOK 18/12 Q1014=
200505262120 METAR ESMX 262120Z 16009KT CAVOK 18/12 Q1014=
200505262050 METAR ESMX 262050Z 16008KT CAVOK 18/12 Q1015=
200505262020 METAR ESMX 262020Z 16009KT CAVOK 18/12 Q1015=
200505261950 METAR ESMX 261950Z 16009KT CAVOK 19/12 Q1015=
200505261920 METAR ESMX 261920Z 17011KT CAVOK 19/12 Q1016=
200505261850 METAR ESMX 261850Z 16010KT 120V190 CAVOK 20/12 Q1016=
200505261820 METAR ESMX 261820Z 16010KT 140V200 CAVOK 20/12 Q1016=
200505261750 METAR ESMX 261750Z 16010KT CAVOK 21/12 Q1016=
200505261720 METAR ESMX 261720Z 17012KT 130V190 CAVOK 22/11 Q1016=
200505261650 METAR ESMX 261650Z 16010KT 130V200 CAVOK 23/11 Q1016=
200505261620 METAR ESMX 261620Z 16012KT 130V200 CAVOK 23/11 Q1017=
200505261550 METAR ESMX 261550Z 18013KT 150V210 CAVOK 23/11 Q1017=
200505261520 METAR ESMX 261520Z 17014KT 120V200 CAVOK 23/12 Q1017=
200505261450 METAR ESMX 261450Z 18015KT 140V200 9999 FEW048 24/12 Q1017=
200505261420 METAR ESMX 261420Z 18018KT 9999 FEW048 24/11 Q1018=
200505261350 METAR ESMX 261350Z 19015KT 9999 FEW048 24/12 Q1018=
200505261320 METAR ESMX 261320Z 20014KT 160V230 9999 FEW045 24/12 Q1019=
200505261250 METAR ESMX 261250Z 20014KT 9999 FEW043 23/12 Q1019=
200505261220 METAR ESMX 261220Z 19014KT 160V230 9999 FEW042 22/12 Q1019=
200505261150 METAR ESMX 261150Z 20012KT 160V240 9999 FEW041 SCT045 22/12 Q1020=
200505261120 METAR ESMX 261120Z 21014KT 9999 SCT034 BKN043 22/13 Q1020=
200505261050 METAR ESMX 261050Z 22011KT 190V250 9999 FEW035 SCT080 21/13 Q1020=
200505261020 METAR ESMX 261020Z 22011KT 200V260 9999 FEW033 SCT089 20/12 Q1021=
200505260950 METAR ESMX 260950Z 21013KT 170V240 9999 SCT028 20/12 Q1021=
200505260920 METAR ESMX 260920Z 20012KT 160V230 9999 FEW026 SCT030 20/13 Q1021=
200505260850 METAR ESMX 260850Z 20012KT 190V250 9999 FEW026 18/12 Q1021=
200505260820 METAR ESMX 260820Z 20010KT CAVOK 18/11 Q1021=
200505260750 METAR ESMX 260750Z 20010KT CAVOK 17/11 Q1021=
200505260720 METAR ESMX 260720Z 19009KT CAVOK 16/10 Q1021=
200505260650 METAR ESMX 260650Z 18010KT 160V220 CAVOK 14/10 Q1022=
200505260620 METAR ESMX 260620Z 19008KT CAVOK 13/10 Q1022=
200505260550 METAR ESMX 260550Z 19008KT CAVOK 13/10 Q1022=
200505260520 METAR ESMX 260520Z 19007KT CAVOK 11/10 Q1022=
200505260450 METAR ESMX 260450Z 17006KT CAVOK 11/10 Q1022=
200505260420 METAR ESMX 260420Z 18006KT CAVOK 11/09 Q1022=
200505260350 METAR ESMX 260350Z 18005KT CAVOK 10/09 Q1022=
200505260320 METAR ESMX 260320Z AUTO 21005KT 9000 SCT091 09/08 Q1022=
200505260250 METAR ESMX 260250Z AUTO 22006KT 9999 NSC 09/08 Q1022=
200505260220 METAR ESMX 260220Z AUTO 22006KT 9999 NSC 08/08 Q1022=
200505260150 METAR ESMX 260150Z AUTO 22005KT 9999 NSC 08/07 Q1022=
200505260120 METAR ESMX 260120Z AUTO 18005KT 9000 NSC 08/07 Q1022=
200505260050 METAR ESMX 260050Z AUTO VRB03KT 9999 NSC 10/08 Q1022=
200505260020 METAR ESMX 260020Z VRB03KT CAVOK 09/08 Q1022=
200505252350 METAR ESMX 252350Z 21004KT CAVOK 10/08 Q1022=
200505252250 METAR ESMX 252250Z 19005KT CAVOK 10/08 Q1022=
200505252150 METAR ESMX 252150Z 21005KT CAVOK 11/09 Q1022=
200505252120 METAR ESMX 252120Z 20006KT CAVOK 12/09 Q1022=
200505252050 METAR ESMX 252050Z 20005KT 9999 SCT030 13/09 Q1022=
200505252020 METAR ESMX 252020Z 22006KT 9999 FEW030 12/08 Q1021=
200505251950 METAR ESMX 251950Z 23006KT CAVOK 13/08 Q1021=
200505251920 METAR ESMX 251920Z 22005KT CAVOK 14/10 Q1021=
200505251850 METAR ESMX 251850Z 22007KT 9999 FEW030 BKN071 15/10 Q1021=
200505251820 METAR ESMX 251820Z 24008KT 210V280 9999 FEW029 SCT046 BKN065 15/10 Q1021=
200505251750 METAR ESMX 251750Z 23008KT 200V270 9999 FEW030CB SCT030 BKN057 16/10 Q1021=
200505251720 METAR ESMX 251720Z 24009KT 9999 SCT035 SCT080 16/09 Q1020=
200505251650 METAR ESMX 251650Z 22008KT 170V260 9999 SCT030 BKN150 16/10 Q1020=
200505251620 METAR ESMX 251620Z 23012KT 170V290 9999 SCT030 BKN039 17/10 Q1020=
200505251550 METAR ESMX 251550Z 24010KT 190V270 9999 FEW024 SCT036 BKN078 16/10 Q1020=
200505251520 METAR ESMX 251520Z 21009KT 9999 FEW027 SCT032 BKN073 16/11 Q1020=
200505251450 METAR ESMX 251450Z 21009KT 9999 SCT032 BKN081 16/11 Q1020=
200505251420 METAR ESMX 251420Z 21014KT 170V270 9999 FEW029 SCT061 BKN075 16/10 Q1021=
200505251350 METAR ESMX 251350Z 21010KT 180V250 9999 FEW020 SCT057 BKN075 17/10 Q1021=
200505251320 METAR ESMX 251320Z 22010KT 180V260 9999 FEW032 SCT089 17/10 Q1020=
200505251250 METAR ESMX 251250Z 25008KT 200V280 9999 FEW020 SCT076 16/11 Q1020=
200505251220 METAR ESMX 251220Z 24011KT 180V260 9999 FEW024 BKN085 15/11 Q1020=
200505251150 METAR ESMX 251150Z 18007KT 150V210 9999 FEW020 SCT035 16/13 Q1020=
200505251050 METAR ESMX 251050Z 20010KT 170V240 9999 -SHRA SCT033CB BKN080 15/10 Q1020=
200505251020 METAR ESMX 251020Z 20010KT 9999 FEW034 SCT038 BKN048 16/09 Q1020=
200505250950 METAR ESMX 250950Z 21010KT 9999 SCT035 BKN086 16/09 Q1020=
200505250920 METAR ESMX 250920Z 18010KT 160V220 9999 SCT033 BKN051 BKN080 16/08 Q1020=
200505250850 METAR ESMX 250850Z 18011KT 100V210 9999 SCT042 SCT080 16/09 Q1020=
200505250820 METAR ESMX 250820Z 16006KT 120V200 9999 FEW025 SCT073 14/09 Q1021=
200505250750 METAR ESMX 250750Z 17004KT 9999 -SHRA BKN042 BKN061 13/09 Q1021=
200505250720 METAR ESMX 250720Z 17007KT 9999 BKN042 12/08 Q1021=
200505250650 METAR ESMX 250650Z 18006KT 140V200 9999 FEW036 BKN045 12/08 Q1021=
200505250620 METAR ESMX 250620Z 17004KT 130V190 9999 SCT038 BKN047 11/08 Q1021=
200505250520 METAR ESMX 250520Z 17004KT 9999 FEW030 BKN047 10/07 Q1021=
200505250450 METAR ESMX 250450Z 18004KT 9999 -SHRA SCT031 BKN050 10/07 Q1021=
200505250420 METAR ESMX 250420Z 17004KT 9999 -SHRA BKN031 10/07 Q1021=
200505250350 METAR ESMX 250350Z 17005KT 9999 BKN045 10/07 Q1021=
200505250320 METAR ESMX 250320Z AUTO 16005KT 9999 OVC053 10/07 Q1021=
200505250250 METAR ESMX 250250Z AUTO 18004KT 9999 OVC048 10/07 Q1021 RERA=
200505250220 METAR ESMX 250220Z AUTO 20004KT 9999 -SHRA FEW020 OVC055 09/07 Q1021=
200505250150 METAR ESMX 250150Z AUTO 17004KT 9999 -SHRA FEW046 BKN064 10/07 Q1021=
200505250120 METAR ESMX 250120Z AUTO 18005KT 9999 FEW081 SCT092 BKN100 10/06 Q1021=
200505250050 METAR ESMX 250050Z AUTO 18004KT 9999 BKN097 10/05 Q1021=
200505250020 METAR ESMX 250020Z AUTO 17005KT 9999 OVC100 10/05 Q1021=
200505242350 METAR ESMX 242350Z 18005KT CAVOK 10/05 Q1022=
200505242250 METAR ESMX 242250Z 18004KT CAVOK 07/05 Q1021=
200505242220 METAR ESMX 242220Z VRB03KT CAVOK 07/04 Q1021=
200505242150 METAR ESMX 242150Z VRB03KT CAVOK 07/04 Q1021=
200505242120 METAR ESMX 242120Z VRB03KT CAVOK 06/04 Q1021=
200505242050 METAR ESMX 242050Z VRB03KT CAVOK 08/03 Q1021=
200505242020 METAR ESMX 242020Z VRB03KT CAVOK 10/03 Q1021=
200505241950 METAR ESMX 241950Z 22004KT CAVOK 11/03 Q1021=
200505241920 METAR ESMX 241920Z 22004KT 170V250 CAVOK 12/02 Q1021=
200505241850 METAR ESMX 241850Z 25004KT 200V290 CAVOK 13/01 Q1020=
200505241820 METAR ESMX 241820Z 25008KT CAVOK 14/M00 Q1020=
200505241750 METAR ESMX 241750Z 25009KT CAVOK 15/M00 Q1020=
200505241720 METAR ESMX 241720Z 25009KT 220V290 CAVOK 15/04 Q1020=
200505241650 METAR ESMX 241650Z 26009KT 210V330 CAVOK 16/04 Q1019=
200505241620 METAR ESMX 241620Z 27009KT 220V300 CAVOK 16/02 Q1019=
200505241550 METAR ESMX 241550Z 23010KT 200V270 CAVOK 16/03 Q1019=
200505241520 METAR ESMX 241520Z 24010KT 200V260 CAVOK 16/03 Q1019=
200505241450 METAR ESMX 241450Z 24010KT 210V270 CAVOK 17/02 Q1019=
200505241420 METAR ESMX 241420Z 23012KT 190V260 CAVOK 17/01 Q1020=
200505241350 METAR ESMX 241350Z 25012KT 210V280 CAVOK 17/02 Q1019=
200505241320 METAR ESMX 241320Z 25009KT 190V300 CAVOK 17/03 Q1019=
200505241250 METAR ESMX 241250Z 23010KT 190V260 CAVOK 16/04 Q1019=
200505241220 METAR ESMX 241220Z 24008KT 200V300 CAVOK 16/04 Q1019=
200505241150 METAR ESMX 241150Z 24011KT 180V270 CAVOK 16/04 Q1019=
200505241120 METAR ESMX 241120Z 28010KT 210V330 CAVOK 15/03 Q1019=
200505241050 METAR ESMX 241050Z 25011KT 210V280 9999 FEW043 16/04 Q1019=
200505241020 METAR ESMX 241020Z 26010KT 230V300 9999 FEW043 15/05 Q1019=
200505240950 METAR ESMX 240950Z 27010KT 200V290 9999 FEW038 14/05 Q1019=
200505240920 METAR ESMX 240920Z 26010KT 230V300 9999 FEW030 14/06 Q1019=
200505240850 METAR ESMX 240850Z 25008KT 210V290 9999 FEW030 14/06 Q1019=
200505240820 METAR ESMX 240820Z 26009KT 210V320 9999 FEW025 SCT200 13/06 Q1018=
200505240750 METAR ESMX 240750Z 28007KT 220V320 9999 FEW016 SCT080 11/07 Q1018=
200505240720 METAR ESMX 240720Z 27007KT 240V300 9999 FEW015 SCT100 10/07 Q1018=
200505240650 METAR ESMX 240650Z 27010KT 9999 FEW010 SCT020 11/07 Q1018=
200505240620 METAR ESMX 240620Z 27007KT 210V320 9999 SCT010 BKN055 11/08 Q1017=
200505240550 METAR ESMX 240550Z 27006KT 230V310 9999 SCT010 SCT100 10/08 Q1017=
200505240520 METAR ESMX 240520Z 26008KT 9999 SCT008 BKN100 10/08 Q1017=
200505240450 METAR ESMX 240450Z 26007KT 220V280 9999 FEW007 SCT009 BKN016 10/09 Q1017=
200505240420 METAR ESMX 240420Z 26007KT 230V300 8000 BR FEW007 BKN010 10/09 Q1016=
200505240350 METAR ESMX 240350Z 27007KT 8000 BR FEW006 BKN008 10/09 Q1016=
200505240320 METAR ESMX 240320Z AUTO 27006KT 230V310 7000 BR FEW007 SCT009 BKN015 11/10 Q1016=
200505240250 METAR ESMX 240250Z AUTO 26005KT 230V300 7000 BR FEW007 SCT010 BKN015 11/10 Q1016=
200505240220 METAR ESMX 240220Z AUTO 26007KT 230V290 6000 BR FEW005 SCT007 BKN009 11/11 Q1016=
200505240150 METAR ESMX 240150Z AUTO 26006KT 230V310 5000 BR FEW009 OVC013 12/11 Q1015=
200505240120 METAR ESMX 240120Z AUTO 27006KT 230V320 6000 FEW008 BKN012 OVC080 12/11 Q1015 REDZ=
200505240050 METAR ESMX 240050Z AUTO 27006KT 7000 FEW007 SCT014 BKN075 12/12 Q1015 REDZ=
200505240020 METAR ESMX 240020Z 26006KT 230V290 7000 BR FEW007 SCT011 BKN014 12/12 Q1014=
200505232350 METAR ESMX 232350Z VRB03KT 7000 BR BKN003 12/12 Q1014=
200505232320 METAR ESMX 232320Z VRB03KT 6000 BR FEW002 SCT004 BKN078 13/12 Q1014=
200505232250 METAR ESMX 232250Z VRB03KT 7000 -RA SCT048 BKN072 13/12 Q1014=
200505232220 METAR ESMX 232220Z VRB03KT 8000 -RA FEW044 BKN056 13/12 Q1014=
200505232150 METAR ESMX 232150Z 27006KT 230V310 6000 -RA FEW005 SCT007 BKN009 14/13 Q1014=
200505232050 METAR ESMX 232050Z 22005KT 170V240 3800 RA BKN003 14/14 Q1014=
200505232020 METAR ESMX 232020Z 19004KT 3000 RA FEW003 BKN005 15/14 Q1014=
200505231950 METAR ESMX 231950Z 18004KT 2600 -RA FEW003 OVC004 15/14 Q1014=
200505231920 METAR ESMX 231920Z VRB03KT 2400 -RA SCT003 OVC005 15/14 Q1014=
200505231850 METAR ESMX 231850Z VRB01KT 2500 -RA FEW005 OVC007 15/14 Q1014=
200505231820 METAR ESMX 231820Z VRB02KT 4100 -RA OVC010 15/14 Q1014=
200505231750 METAR ESMX 231750Z VRB01KT 6000 DZ BKN010 OVC014 15/14 Q1014=
200505231720 METAR ESMX 231720Z VRB02KT 8000 BR OVC015 16/14 Q1014=
200505231650 METAR ESMX 231650Z VRB02KT 8000 BR OVC015 16/14 Q1014=
200505231620 METAR ESMX 231620Z VRB02KT 8000 BR OVC007 16/14 Q1014=
200505231520 METAR ESMX 231520Z VRB03KT 9999 OVC007 15/14 Q1014=
200505231450 METAR ESMX 231450Z 12005KT 060V190 9999 OVC007 15/13 Q1014=
200505231420 METAR ESMX 231420Z 12005KT 070V150 9999 BKN007 OVC010 15/14 Q1014=
200505231350 METAR ESMX 231350Z 12005KT 070V170 9000 BR BKN010 15/14 Q1014=
200505231320 METAR ESMX 231320Z 10004KT 060V160 8000 BR BKN013 15/14 Q1014=
200505231250 METAR ESMX 231250Z VRB03KT 9999 SCT015 BKN019 OVC030 15/14 Q1014 RERA=
200505231220 METAR ESMX 231220Z VRB01KT 9000 -RA FEW018 SCT041 15/14 Q1014=
200505231150 METAR ESMX 231150Z VRB02KT 9000 -RA BKN026 15/14 Q1015=
200505231120 METAR ESMX 231120Z 12004KT 080V170 9999 -SHRA SCT020 BKN060 15/13 Q1015=
200505231050 METAR ESMX 231050Z 14004KT 100V170 9999 SCT019 BKN049 17/12 Q1015=
200505231020 METAR ESMX 231020Z 16004KT 110V200 9999 SCT019 BKN025 17/12 Q1015=
200505230950 METAR ESMX 230950Z 16005KT 120V230 9999 SCT023 BKN035 17/13 Q1015=
200505230920 METAR ESMX 230920Z 15004KT 080V220 9999 BKN010 16/13 Q1015=
200505230850 METAR ESMX 230850Z 07004KT 020V110 9999 FEW006 BKN013 16/13 Q1015=
200505230820 METAR ESMX 230820Z 07004KT 020V110 9999 SCT004 BKN015 15/13 Q1015=
200505230750 METAR ESMX 230750Z 09004KT 8000 BR BKN002 BKN016 14/12 Q1015=
200505230720 METAR ESMX 230720Z VRB03KT 3500 BR OVC002 13/12 Q1015=
200505230650 METAR ESMX 230650Z 14004KT 5000 BR BKN003 13/12 Q1015=
200505230620 METAR ESMX 230620Z VRB03KT 6000 BR SCT002 BKN005 13/12 Q1015=
200505230550 METAR ESMX 230550Z VRB02KT 4000 BR SCT002 BKN004 13/12 Q1014=
200505230520 METAR ESMX 230520Z 13004KT 090V160 4000 BR SCT002 BKN008 12/12 Q1015=
200505230450 METAR ESMX 230450Z 15004KT 3300 BR SCT002 OVC007 12/12 Q1014=
200505230420 METAR ESMX 230420Z 15003KT 2500 BR BKN002 12/12 Q1015=
200505230350 METAR ESMX 230350Z 17004KT 2500 BR BKN002 12/12 Q1014=
200505230320 METAR ESMX 230320Z VRB03KT 2400 BR BKN002 12/12 Q1014=
200505230250 METAR ESMX 230250Z AUTO 15004KT 2100 BR OVC002 12/12 Q1014=
200505230220 METAR ESMX 230220Z AUTO 14004KT 110V170 2500 BR BKN003 OVC005 12/12 Q1014=
200505230150 METAR ESMX 230150Z AUTO 15004KT 3400 BR FEW005 OVC006 12/12 Q1014=
200505230120 METAR ESMX 230120Z AUTO VRB02KT 2500 FEW003 OVC005 13/12 Q1014=
200505230050 METAR ESMX 230050Z AUTO VRB03KT 2200 OVC001 13/12 Q1014=
200505230020 METAR ESMX 230020Z 16004KT 0800 R01/P1500U R19/P1500U FG VV002 13/12 Q1014=
200505222350 METAR ESMX 222350Z 17007KT 0250 R01/0900N R19/0800V1000N FG VV002 13/12 Q1014=
200505222320 METAR ESMX 222320Z 17005KT 140V200 0300 R01/1100D R19/1000VP1500D FG VV002 12/12 Q1014=
200505222250 METAR ESMX 222250Z 16006KT 0400 R01/1300D R19/P1500D FG VV002 12/12 Q1014=
200505222220 METAR ESMX 222220Z 17005KT 3000 BR FEW002 SCT003 BKN005 12/12 Q1014=
200505222150 METAR ESMX 222150Z VRB03KT 4500 BR FEW027 10/09 Q1014=
200505222120 METAR ESMX 222120Z 19004KT 9000 BR FEW028 SCT045 12/11 Q1014=
200505222050 METAR ESMX 222050Z 16004KT 8000 BR FEW029 SCT045 13/12 Q1014=
200505222020 METAR ESMX 222020Z 16005KT CAVOK 14/12 Q1013=
200505221950 METAR ESMX 221950Z 16005KT CAVOK 14/12 Q1013=
200505221920 METAR ESMX 221920Z 17006KT CAVOK 15/12 Q1013=
200505221850 METAR ESMX 221850Z 17007KT CAVOK 16/12 Q1012=
200505221820 METAR ESMX 221820Z 15006KT CAVOK 16/12 Q1012=
200505221750 METAR ESMX 221750Z 15008KT CAVOK 17/12 Q1012=
200505221720 METAR ESMX 221720Z 16009KT 9999 SCT027 18/12 Q1012=
200505221650 METAR ESMX 221650Z 17009KT 140V200 9999 SCT026 18/12 Q1012=
200505221620 METAR ESMX 221620Z 15009KT 110V200 9999 SCT027 18/12 Q1012=
200505221550 METAR ESMX 221550Z 16009KT 130V200 9999 FEW025 18/12 Q1012=
200505221520 METAR ESMX 221520Z 19011KT 140V210 9999 FEW026 SCT061 18/12 Q1012=
200505221450 METAR ESMX 221450Z 16010KT 130V190 9999 FEW027 SCT044 BKN052 18/12 Q1012=
200505221420 METAR ESMX 221420Z 17011KT 9999 FEW024 SCT029 BKN043 18/12 Q1012=
200505221350 METAR ESMX 221350Z 17008KT 110V200 9999 FEW024 SCT029 BKN061 18/12 Q1012=
200505221320 METAR ESMX 221320Z 16008KT 120V200 9999 FEW025 SCT037 BKN064 18/12 Q1012=
200505221250 METAR ESMX 221250Z 16008KT 9999 FEW024 SCT027 OVC031 18/12 Q1012=
200505221220 METAR ESMX 221220Z AUTO 15007KT 090V190 9999 FEW025 SCT030 BKN042 18/12 Q1012=
200505221150 METAR ESMX 221150Z AUTO 16009KT 110V200 9999 FEW024 BKN048 BKN064 18/12 Q1012=
200505221120 METAR ESMX 221120Z AUTO 16007KT 9999 FEW024 SCT059 18/12 Q1012=
200505221050 METAR ESMX 221050Z AUTO 15007KT 120V190 9999 FEW059 SCT092 17/12 Q1012=
200505221020 METAR ESMX 221020Z AUTO 14004KT 090V180 9999 FEW060 BKN073 17/12 Q1012=
200505220950 METAR ESMX 220950Z AUTO 14005KT 080V180 9999 FEW070 SCT091 17/11 Q1012=
200505220920 METAR ESMX 220920Z AUTO 12004KT 080V170 9999 SCT080 16/11 Q1012=
200505220850 METAR ESMX 220850Z AUTO 12006KT 070V150 9999 BKN026 16/11 Q1012=
200505220820 METAR ESMX 220820Z AUTO VRB03KT 9999 FEW030 SCT035 15/10 Q1012=
200505220750 METAR ESMX 220750Z AUTO VRB02KT 9999 FEW046 14/10 Q1012=
200505220720 METAR ESMX 220720Z AUTO VRB02KT 9999 NSC 13/10 Q1012=
200505220650 METAR ESMX 220650Z AUTO VRB02KT 9999 FEW059 SCT100 13/11 Q1012=
200505220620 METAR ESMX 220620Z AUTO VRB03KT 9999 FEW100 12/11 Q1012=
200505220550 METAR ESMX 220550Z AUTO VRB02KT 9999 NSC 11/11 Q1012=
200505220520 METAR ESMX 220520Z AUTO VRB03KT 6000 BKN058 BKN080 10/10 Q1012 RERA=
200505220450 METAR ESMX 220450Z AUTO VRB01KT 6000 -SHRA BKN063 09/09 Q1012=
200505220420 METAR ESMX 220420Z AUTO VRB01KT 5000 -RA FEW057 BKN074 08/08 Q1012=
200505220350 METAR ESMX 220350Z AUTO VRB01KT 3700 BKN081 08/07 Q1013=
200505220320 METAR ESMX 220320Z AUTO 00000KT 2100 OVC076 07/07 Q1012=
200505220250 METAR ESMX 220250Z AUTO 00000KT 0500 R01/P1500U R19/P1500U BCFG BKN079 06/06 Q1012=
200505220220 METAR ESMX 220220Z AUTO VRB01KT 0250 R01/0550D R19/P1500N FG FEW082 SCT100 07/07 Q1012=
200505220150 METAR ESMX 220150Z AUTO VRB01KT 0800 R01/P1500U R19/0650D FG NSC 07/06 Q1012=
200505220120 METAR ESMX 220120Z AUTO VRB01KT 0400 R01/P1500U R19/0600D FG NSC 06/06 Q1012=
200505220050 METAR ESMX 220050Z AUTO VRB01KT 1200 R01/P1500N R19/0800VP1500U NSC 07/07 Q1013=
200505220020 METAR ESMX 220020Z AUTO 13005KT 3900 NSC 08/08 Q1013=
200505212350 METAR ESMX 212350Z AUTO 13004KT 0500 R01/P1500U R19/P1500N FG NSC 06/06 Q1013=
200505212320 METAR ESMX 212320Z AUTO VRB01KT 0100 R01/0350V0750N R19/0600V0900U FG NSC 05/05 Q1013=
200505212250 METAR ESMX 212250Z AUTO 00000KT 0050 R01/0200V0350N R19/0350V0550D DZ NSC 05/05 Q1013=
200505212220 METAR ESMX 212220Z AUTO VRB02KT 0100 R01/0300V0450N R19/0225V0700N FG NSC 07/07 Q1013=
200505212150 METAR ESMX 212150Z AUTO VRB02KT 0350 R01/0600V1400D R19/0450VP1500D FG NSC 07/07 Q1013=
200505212120 METAR ESMX 212120Z AUTO VRB03KT 0400 R01/P1500U R19/0550V0800N FG NSC 07/07 Q1013=
200505212050 METAR ESMX 212050Z AUTO VRB02KT 1200 R01/P1500N R19/P1500U NSC 07/06 Q1013=
200505212020 METAR ESMX 212020Z AUTO VRB03KT 3400 BCFG NSC 07/06 Q1013=
200505211950 METAR ESMX 211950Z AUTO VRB02KT 0800 R01/P1500U R19/0500N FG NSC 08/08 Q1013=
200505211920 METAR ESMX 211920Z AUTO VRB03KT 7000 BR NSC 10/09 Q1013=
200505211850 METAR ESMX 211850Z AUTO VRB02KT 9999 FEW009 SCT012 12/10 Q1013=
200505211820 METAR ESMX 211820Z AUTO VRB02KT 9999 BKN009 BKN012 11/10 Q1013=
200505211750 METAR ESMX 211750Z AUTO VRB03KT 9999 BKN008 12/10 Q1013=
200505211720 METAR ESMX 211720Z AUTO 20004KT 9999 BKN009 12/10 Q1013=
200505211650 METAR ESMX 211650Z AUTO 19005KT 9999 OVC010 12/10 Q1013=
200505211620 METAR ESMX 211620Z AUTO 19007KT 9999 FEW009 BKN011 BKN081 12/10 Q1013=
200505211550 METAR ESMX 211550Z AUTO 16006KT 120V200 9999 BKN008 BKN074 12/10 Q1013=
200505211520 METAR ESMX 211520Z AUTO 15006KT 110V200 9999 FEW008 BKN076 11/10 Q1013=
200505211450 METAR ESMX 211450Z AUTO 16006KT 120V210 9999 FEW026 BKN075 11/09 Q1013 RERA=
200505211420 METAR ESMX 211420Z AUTO 14006KT 100V180 9999 FEW046 BKN065 10/09 Q1013 RERA=
200505211350 METAR ESMX 211350Z AUTO 20007KT 150V230 9000 SHRA FEW016 SCT029 BKN032 10/09 Q1014=
200505211320 METAR ESMX 211320Z AUTO 16008KT 140V200 9000 RA FEW054 11/08 Q1013=
200505211250 METAR ESMX 211250Z AUTO 18012KT 9999 SHRA FEW057 12/06 Q1013=
200505211220 METAR ESMX 211220Z AUTO 18012KT 140V210 9999 -SHRA FEW058 BKN069 15/04 Q1013=
200505211150 METAR ESMX 211150Z AUTO 16008KT 9999 -SHRA FEW059 SCT077 15/04 Q1013=
200505211120 METAR ESMX 211120Z AUTO 17011G24KT 130V190 9999 -SHRA BKN067 15/03 Q1013=
200505211050 METAR ESMX 211050Z AUTO 17011KT 9999 -RA SCT065 BKN079 16/02 Q1013=
200505211020 METAR ESMX 211020Z AUTO 15014G27KT 100V190 9999 FEW039 SCT100 17/01 Q1013=
200505210950 METAR ESMX 210950Z AUTO 16014KT 130V210 9999 SCT057 17/01 Q1013=
200505210920 METAR ESMX 210920Z 15014KT 120V190 CAVOK 17/01 Q1014=
200505210850 METAR ESMX 210850Z 14013G23KT 080V170 CAVOK 17/01 Q1014=
200505210820 METAR ESMX 210820Z 16014KT 130V210 CAVOK 16/02 Q1014=
200505210750 METAR ESMX 210750Z 14011KT 100V190 CAVOK 15/02 Q1014=
200505210720 METAR ESMX 210720Z 16011KT 110V200 CAVOK 15/03 Q1015=
200505210650 METAR ESMX 210650Z 16008KT 120V180 CAVOK 13/03 Q1015=
200505210620 METAR ESMX 210620Z AUTO 16007KT 130V190 9999 FEW071 13/03 Q1015=
200505210550 METAR ESMX 210550Z AUTO 14009KT 100V170 9999 BKN063 12/03 Q1015=
200505210520 METAR ESMX 210520Z AUTO 16009KT 130V190 9999 BKN061 BKN088 11/04 Q1016=
200505210450 METAR ESMX 210450Z AUTO 14007KT 110V190 9999 BKN060 BKN072 11/04 Q1016=
200505210420 METAR ESMX 210420Z AUTO 13007KT 100V160 9999 OVC057 10/04 Q1016=
200505210350 METAR ESMX 210350Z AUTO 13007KT 9999 BKN057 10/04 Q1016=
200505210320 METAR ESMX 210320Z AUTO 13006KT 100V160 9999 BKN064 OVC076 09/04 Q1017=
200505210250 METAR ESMX 210250Z AUTO 14006KT 110V170 9999 OVC066 10/04 Q1017=
200505210220 METAR ESMX 210220Z AUTO 13007KT 100V170 9999 BKN069 09/04 Q1017=
200505210150 METAR ESMX 210150Z AUTO 13006KT 100V160 9999 OVC069 09/04 Q1018 RERA=
200505210120 METAR ESMX 210120Z AUTO 13006KT 090V160 9999 BKN068 09/04 Q1018 RERA=
200505210050 METAR ESMX 210050Z AUTO 15008KT 110V180 9999 -RA SCT064 BKN091 10/04 Q1018=
200505210020 METAR ESMX 210020Z AUTO 14006KT 080V200 9999 SCT081 10/03 Q1018=
200505202350 METAR ESMX 202350Z AUTO 14007KT 110V170 9999 FEW073 10/02 Q1019=
200505202320 METAR ESMX 202320Z AUTO 14008KT 110V170 9999 FEW073 SCT099 10/02 Q1019=
200505202250 METAR ESMX 202250Z AUTO 14007KT 080V170 9999 BKN077 BKN100 10/02 Q1019=
200505202220 METAR ESMX 202220Z AUTO 15007KT 100V170 9999 BKN075 10/02 Q1020=
200505202150 METAR ESMX 202150Z AUTO 14007KT 100V170 9999 BKN078 10/02 Q1020=
200505202120 METAR ESMX 202120Z AUTO 14006KT 110V190 9999 BKN077 10/01 Q1020=
200505202050 METAR ESMX 202050Z AUTO 14007KT 050V200 9999 BKN077 10/01 Q1020=
200505202020 METAR ESMX 202020Z AUTO 12006KT 060V160 9999 BKN075 11/02 Q1020=
200505201950 METAR ESMX 201950Z AUTO 14007KT 110V200 9999 SCT080 11/02 Q1020=
200505201920 METAR ESMX 201920Z AUTO 15006KT 100V190 9999 NSC 12/02 Q1020=
200505201850 METAR ESMX 201850Z AUTO 14007KT 100V200 9999 NSC 12/02 Q1020=
200505201820 METAR ESMX 201820Z AUTO 16009KT 110V190 9999 FEW110 13/02 Q1020=
200505201750 METAR ESMX 201750Z AUTO 14007KT 090V180 9999 ////// 13/02 Q1020=
200505201720 METAR ESMX 201720Z 16009KT 140V200 CAVOK 13/02 Q1021=
200505201650 METAR ESMX 201650Z 16009KT 120V190 CAVOK 14/01 Q1021=
200505201620 METAR ESMX 201620Z 16010KT 120V190 CAVOK 14/02 Q1021=
200505201550 METAR ESMX 201550Z 17010KT CAVOK 14/01 Q1021=
200505201520 METAR ESMX 201520Z 16008KT 110V190 9999 FEW079 14/01 Q1021=
200505201450 METAR ESMX 201450Z 17007KT 140V200 CAVOK 14/01 Q1022=
200505201420 METAR ESMX 201420Z 17009KT 140V200 CAVOK 14/01 Q1022=
200505201350 METAR ESMX 201350Z 15010KT 080V200 CAVOK 14/M01 Q1022=
200505201320 METAR ESMX 201320Z 17014KT 140V200 CAVOK 15/M04 Q1022=
200505201250 METAR ESMX 201250Z 15012KT 100V200 CAVOK 15/M03 Q1022=
200505201220 METAR ESMX 201220Z 18013KT 130V200 CAVOK 16/M01 Q1023=
200505201150 METAR ESMX 201150Z 15010KT 080V190 CAVOK 15/01 Q1023=
200505201120 METAR ESMX 201120Z 15010KT 110V180 9999 FEW043 14/00 Q1023=
200505201050 METAR ESMX 201050Z 15011KT 080V210 CAVOK 14/00 Q1023=
200505201020 METAR ESMX 201020Z 16012KT 140V200 CAVOK 14/02 Q1024=
200505200950 METAR ESMX 200950Z 16010KT 120V190 CAVOK 13/02 Q1024=
200505200920 METAR ESMX 200920Z 15010KT 110V190 CAVOK 13/03 Q1024=
200505200850 METAR ESMX 200850Z 17010KT 140V200 CAVOK 13/03 Q1024=
200505200820 METAR ESMX 200820Z 16009KT 070V200 CAVOK 13/03 Q1024=
200505200750 METAR ESMX 200750Z 14010KT 100V190 CAVOK 12/03 Q1024=
200505200720 METAR ESMX 200720Z 15010KT 110V180 CAVOK 12/03 Q1024=
200505200650 METAR ESMX 200650Z 15009KT 070V190 CAVOK 11/03 Q1024=
200505200620 METAR ESMX 200620Z 15008KT 120V180 CAVOK 10/04 Q1024=
200505200550 METAR ESMX 200550Z 15006KT 110V170 CAVOK 09/04 Q1024=
200505200520 METAR ESMX 200520Z 15006KT 100V200 CAVOK 08/04 Q1024=
200505200450 METAR ESMX 200450Z 14006KT 110V170 CAVOK 07/04 Q1024=
200505200420 METAR ESMX 200420Z 15005KT CAVOK 07/03 Q1024=
200505200350 METAR ESMX 200350Z AUTO 14004KT 110V170 9999 FEW082 06/03 Q1025=
200505200320 METAR ESMX 200320Z AUTO VRB03KT 9999 BKN082 06/03 Q1024=
200505200250 METAR ESMX 200250Z AUTO 13004KT 9999 BKN082 06/03 Q1024=
200505200220 METAR ESMX 200220Z AUTO 14004KT 9999 FEW083 04/02 Q1024=
200505200150 METAR ESMX 200150Z AUTO VRB03KT 9999 SCT087 04/01 Q1025=
200505200120 METAR ESMX 200120Z AUTO VRB02KT 9999 OVC087 04/01 Q1025=
200505200050 METAR ESMX 200050Z AUTO VRB02KT 9999 OVC089 04/01 Q1025=
200505200020 METAR ESMX 200020Z VRB02KT 9999 SCT090 03/00 Q1025=
200505192350 METAR ESMX 192350Z VRB03KT CAVOK 02/M00 Q1025=
200505192320 METAR ESMX 192320Z VRB03KT CAVOK 03/M00 Q1025=
200505192250 METAR ESMX 192250Z 15005KT CAVOK 03/M00 Q1025=
200505192220 METAR ESMX 192220Z VRB03KT CAVOK 01/M03 Q1025=
200505192150 METAR ESMX 192150Z VRB02KT CAVOK 01/M03 Q1025=
200505192120 METAR ESMX 192120Z VRB03KT CAVOK 02/M03 Q1024=
200505192050 METAR ESMX 192050Z VRB03KT CAVOK 03/M03 Q1024=
200505192020 METAR ESMX 192020Z VRB02KT CAVOK 04/M03 Q1024=
200505191950 METAR ESMX 191950Z VRB03KT CAVOK 05/M03 Q1024=
200505191920 METAR ESMX 191920Z VRB03KT CAVOK 07/M04 Q1024=
200505191850 METAR ESMX 191850Z 22004KT CAVOK 09/M06 Q1024=
200505191820 METAR ESMX 191820Z 21005KT 170V250 CAVOK 11/M06 Q1024=
200505191750 METAR ESMX 191750Z 25006KT 200V290 CAVOK 12/M06 Q1023=
200505191720 METAR ESMX 191720Z 24006KT 210V290 CAVOK 13/M05 Q1023=
200505191650 METAR ESMX 191650Z 23007KT 200V260 CAVOK 13/M05 Q1023=
200505191620 METAR ESMX 191620Z 24008KT 200V280 CAVOK 13/M03 Q1023=
200505191550 METAR ESMX 191550Z 24008KT 210V320 CAVOK 13/M03 Q1023=
200505191520 METAR ESMX 191520Z 27007KT 210V320 CAVOK 13/M03 Q1023=
200505191450 METAR ESMX 191450Z 26011KT 230V300 CAVOK 14/M02 Q1023=
200505191420 METAR ESMX 191420Z 24009KT 190V280 CAVOK 13/M01 Q1023=
200505191350 METAR ESMX 191350Z 24010KT 200V280 CAVOK 13/M01 Q1023=
200505191320 METAR ESMX 191320Z 24012KT 210V310 CAVOK 14/M02 Q1023=
200505191250 METAR ESMX 191250Z 26010KT 220V320 CAVOK 14/M02 Q1023=
200505191220 METAR ESMX 191220Z 25011KT 230V290 9999 SCT051 14/M01 Q1023=
200505191150 METAR ESMX 191150Z VRB12KT 9999 BKN049 13/M00 Q1023=
200505191120 METAR ESMX 191120Z 25011KT 200V280 9999 FEW028 13/M01 Q1023=
200505191050 METAR ESMX 191050Z 24012KT 170V300 9999 FEW048 SCT077 12/M01 Q1023=
200505191020 METAR ESMX 191020Z 26010G21KT 230V320 CAVOK 11/M01 Q1022=
200505190950 METAR ESMX 190950Z 26013KT 220V310 9999 SCT045 12/00 Q1022=
200505190920 METAR ESMX 190920Z 27012KT 9999 SCT043 12/M00 Q1022=
200505190850 METAR ESMX 190850Z 24011KT 210V280 9999 SCT042 11/00 Q1022=
200505190820 METAR ESMX 190820Z 24011KT 200V290 9999 FEW047 10/00 Q1022=
200505190750 METAR ESMX 190750Z 25011KT 200V280 9999 FEW035 SCT041 10/00 Q1022=
200505190720 METAR ESMX 190720Z 26010KT 220V300 9999 FEW035 09/01 Q1021=
200505190650 METAR ESMX 190650Z 27012KT 240V320 9999 FEW029 09/01 Q1021=
200505190620 METAR ESMX 190620Z 26011KT 230V310 9999 FEW026 08/01 Q1021=
200505190550 METAR ESMX 190550Z 26011KT 200V290 9999 FEW024 07/02 Q1020=
200505190520 METAR ESMX 190520Z 25009KT 210V280 CAVOK 06/02 Q1020=
200505190420 METAR ESMX 190420Z 24006KT CAVOK 04/02 Q1020=
200505190350 METAR ESMX 190350Z 23007KT CAVOK 03/02 Q1020=
200505190320 METAR ESMX 190320Z AUTO 20006KT 9999 NSC 02/01 Q1019=
200505190250 METAR ESMX 190250Z AUTO 20006KT 9999 NSC 02/01 Q1019=
200505190220 METAR ESMX 190220Z AUTO 22005KT 9999 NSC 02/01 Q1019=
200505190150 METAR ESMX 190150Z AUTO 24005KT 9999 NSC 03/01 Q1019=
200505190120 METAR ESMX 190120Z AUTO 23006KT 9999 FEW024 03/01 Q1019=
200505190050 METAR ESMX 190050Z AUTO 22008KT 9999 FEW024 SCT038 03/02 Q1019=
200505190020 METAR ESMX 190020Z 22006KT 9999 FEW024 03/01 Q1019=
200505182350 METAR ESMX 182350Z 22006KT 9999 FEW030 SCT058 03/01 Q1019=
200505182320 METAR ESMX 182320Z 20007KT 9999 FEW034 SCT059 03/01 Q1019=
200505182250 METAR ESMX 182250Z 21006KT 9999 FEW030 SCT042 03/01 Q1019=
200505182220 METAR ESMX 182220Z 21006KT CAVOK 03/01 Q1019=
200505182150 METAR ESMX 182150Z 20007KT 9999 FEW038 03/01 Q1018=
200505182120 METAR ESMX 182120Z 18006KT 9999 FEW035 02/01 Q1018=
200505182050 METAR ESMX 182050Z 18005KT 9999 FEW018 03/01 Q1018=
200505182020 METAR ESMX 182020Z VRB03KT 9999 FEW010 SCT030 04/01 Q1018=
200505181950 METAR ESMX 181950Z 30013KT 230V330 9999 VCSH SCT025CB SCT050 05/01 Q1018=
200505181920 METAR ESMX 181920Z 23005KT 9999 FEW030CB 05/00 Q1017=
200505181850 METAR ESMX 181850Z 24006KT 220V280 CAVOK 06/00 Q1017=
200505181820 METAR ESMX 181820Z 25010KT 220V290 CAVOK 07/00 Q1017=
200505181750 METAR ESMX 181750Z 26009KT 220V290 CAVOK 07/00 Q1017=
200505181720 METAR ESMX 181720Z 27015KT 240V300 9999 SCT048 07/01 Q1017=
200505181650 METAR ESMX 181650Z 25011KT 220V280 9999 SCT045 09/M01 Q1016=
200505181620 METAR ESMX 181620Z 25010G20KT 210V290 9999 SCT045 09/M02 Q1016=
200505181550 METAR ESMX 181550Z 24012KT 210V280 9999 FEW030CB SCT045 10/M01 Q1016=
200505181520 METAR ESMX 181520Z 27011G21KT 230V320 9999 FEW035CB SCT050 10/M01 Q1016=
200505181450 METAR ESMX 181450Z 25011KT 210V290 9999 FEW030CB SCT060 10/M04 Q1016=
200505181420 METAR ESMX 181420Z 23013KT 190V280 9999 FEW030CB SCT068 11/M05 Q1015=
200505181350 METAR ESMX 181350Z 22013KT 190V260 9999 FEW037 BKN051 11/M02 Q1015=
200505181320 METAR ESMX 181320Z 23012KT 210V280 9999 -SHRA FEW030CB SCT050 09/M00 Q1015=
200505181250 METAR ESMX 181250Z 21012KT 180V250 9999 FEW025CB SCT050 11/00 Q1015=
200505181220 METAR ESMX 181220Z 20012KT 9999 FEW025CB SCT070 10/02 Q1015=
200505181150 METAR ESMX 181150Z 20013G23KT 9999 SCT025CB SCT060 08/02 Q1015=
200505181120 METAR ESMX 181120Z 20013KT 9999 FEW040CB SCT080 09/01 Q1015=
200505181050 METAR ESMX 181050Z 22014G28KT 9999 FEW022 SCT061 07/02 Q1015=
200505181020 METAR ESMX 181020Z 25009KT 9999 FEW019 SCT039 07/02 Q1015=
200505180950 METAR ESMX 180950Z 22010KT 190V260 9999 FEW019 BKN055 08/03 Q1016=
200505180920 METAR ESMX 180920Z 20008KT 9999 FEW025 SCT059 07/03 Q1015=
200505180850 METAR ESMX 180850Z 25011KT 200V290 7000 -RA FEW012 SCT038 BKN047 06/02 Q1015=
200505180820 METAR ESMX 180820Z 24015G26KT 210V280 9999 FEW032 SCT041 BKN084 06/01 Q1015=
200505180750 METAR ESMX 180750Z 23010KT 200V260 9999 FEW031 SCT038 08/01 Q1015=
200505180720 METAR ESMX 180720Z 23008KT 9999 FEW020 SCT087 08/02 Q1014=
200505180650 METAR ESMX 180650Z 21007KT 9999 FEW020 BKN075 06/03 Q1014=
200505180620 METAR ESMX 180620Z 21007KT 9999 FEW021 BKN073 06/03 Q1014=
200505180550 METAR ESMX 180550Z 21008KT 9999 FEW017 SCT034 BKN052 06/03 Q1014=
200505180520 METAR ESMX 180520Z 22007KT 190V250 9999 FEW040 SCT055 06/03 Q1014=
200505180450 METAR ESMX 180450Z 19004KT CAVOK 04/03 Q1013=
200505180420 METAR ESMX 180420Z VRB03KT CAVOK 04/03 Q1013=
200505180350 METAR ESMX 180350Z VRB03KT 9999 FEW040 BKN100 03/02 Q1013=
200505180320 METAR ESMX 180320Z AUTO VRB02KT 9999 FEW038 BKN043 OVC100 03/02 Q1013=
200505180250 METAR ESMX 180250Z AUTO VRB03KT 9999 FEW038 SCT059 BKN092 03/02 Q1013=
200505180220 METAR ESMX 180220Z AUTO 19004KT 9999 FEW023 BKN070 BKN097 02/01 Q1013=
200505180150 METAR ESMX 180150Z AUTO 20004KT 9999 FEW025 BKN097 01/00 Q1013=
200505180120 METAR ESMX 180120Z AUTO VRB03KT 9999 FEW100 01/M00 Q1013=
200505180050 METAR ESMX 180050Z AUTO VRB03KT 9999 NSC 01/M00 Q1013=
200505180020 METAR ESMX 180020Z AUTO 22004KT 9999 NSC 01/M00 Q1013=
200505172350 METAR ESMX 172350Z VRB02KT CAVOK 01/00 Q1013=
200505172320 METAR ESMX 172320Z VRB02KT CAVOK 02/01 Q1013=
200505172250 METAR ESMX 172250Z VRB03KT CAVOK 02/01 Q1013=
200505172220 METAR ESMX 172220Z VRB02KT CAVOK 04/01 Q1012=
200505172150 METAR ESMX 172150Z VRB03KT CAVOK 05/01 Q1012=
200505172120 METAR ESMX 172120Z 25005KT 210V290 CAVOK 05/02 Q1012=
200505172050 METAR ESMX 172050Z 23004KT CAVOK 05/03 Q1012=
200505172020 METAR ESMX 172020Z VRB03KT CAVOK 06/04 Q1011=
200505171950 METAR ESMX 171950Z VRB03KT CAVOK 05/03 Q1011=
200505171920 METAR ESMX 171920Z VRB02KT CAVOK 06/05 Q1011=
200505171850 METAR ESMX 171850Z VRB01KT CAVOK 08/05 Q1011=
200505171820 METAR ESMX 171820Z VRB02KT CAVOK 09/03 Q1011=
200505171750 METAR ESMX 171750Z VRB03KT 9999 -SHRA FEW020 SCT030 08/05 Q1011=
200505171720 METAR ESMX 171720Z 22008KT 170V250 9999 -SHRA FEW020 SCT053 10/01 Q1011=
200505171650 METAR ESMX 171650Z 26005KT 230V300 CAVOK 11/M01 Q1011=
200505171620 METAR ESMX 171620Z 29007KT 250V320 9999 FEW047 SCT055 BKN083 12/M01 Q1011=
200505171550 METAR ESMX 171550Z 22007KT 9999 -SHRA FEW049 SCT055 BKN065 12/01 Q1011=
200505171520 METAR ESMX 171520Z 19008KT 170V240 CAVOK 12/00 Q1011=
200505171450 METAR ESMX 171450Z 23007KT 190V260 CAVOK 12/M01 Q1011=
200505171420 METAR ESMX 171420Z 25004KT CAVOK 12/M02 Q1011=
200505171350 METAR ESMX 171350Z 26005KT 200V290 CAVOK 12/M03 Q1011=
200505171320 METAR ESMX 171320Z 23004KT 190V290 CAVOK 12/M03 Q1011=
200505171250 METAR ESMX 171250Z 27004KT 240V350 CAVOK 12/M03 Q1011=
200505171220 METAR ESMX 171220Z VRB05KT 9999 BKN058 OVC077 11/M02 Q1011=
200505171150 METAR ESMX 171150Z 35004KT CAVOK 12/M02 Q1011=
200505171120 METAR ESMX 171120Z 29005KT 250V350 CAVOK 11/M02 Q1011=
200505171050 METAR ESMX 171050Z VRB04KT 9999 FEW030 SCT064 12/M02 Q1011=
200505171020 METAR ESMX 171020Z VRB04KT 9999 SCT030 BKN053 11/M03 Q1011=
200505170950 METAR ESMX 170950Z VRB05KT CAVOK 10/M02 Q1011=
200505170920 METAR ESMX 170920Z 28006KT 240V330 9999 SCT045 10/M02 Q1011=
200505170850 METAR ESMX 170850Z VRB06KT 9999 SCT040 09/M01 Q1011=
200505170820 METAR ESMX 170820Z VRB03KT 9999 SCT035 09/M00 Q1011=
200505170750 METAR ESMX 170750Z 29006KT 260V340 9999 SCT035 09/M01 Q1011=
200505170720 METAR ESMX 170720Z 32004KT 260V020 9999 SCT027 09/02 Q1010=
200505170650 METAR ESMX 170650Z VRB03KT 9999 SCT023 08/01 Q1010=
200505170620 METAR ESMX 170620Z 31006KT 250V340 CAVOK 07/02 Q1010=
200505170550 METAR ESMX 170550Z 29006KT 250V320 CAVOK 06/02 Q1010=
200505170520 METAR ESMX 170520Z 27005KT 240V320 CAVOK 06/02 Q1010=
200505170450 METAR ESMX 170450Z 26004KT 210V290 CAVOK 05/03 Q1009=
200505170420 METAR ESMX 170420Z VRB03KT CAVOK 04/03 Q1009=
200505170350 METAR ESMX 170350Z VRB03KT CAVOK 03/02 Q1009=
200505170320 METAR ESMX 170320Z AUTO 22004KT 9999 NSC 02/01 Q1008=
200505170250 METAR ESMX 170250Z AUTO VRB03KT 9999 NSC 02/02 Q1008=
200505170220 METAR ESMX 170220Z AUTO 26004KT 230V310 9999 FEW018 SCT020 03/02 Q1008=
200505170150 METAR ESMX 170150Z AUTO 23005KT 9999 FEW014 04/02 Q1008=
200505170120 METAR ESMX 170120Z AUTO 20006KT 9999 SCT023 04/02 Q1007=
200505170050 METAR ESMX 170050Z AUTO 22006KT 9999 NSC 03/01 Q1007=
200505170020 METAR ESMX 170020Z 23006KT 9999 SCT018 BKN025 04/01 Q1007=
200505162350 METAR ESMX 162350Z 21007KT 9999 FEW020 04/00 Q1006=
200505162320 METAR ESMX 162320Z 23008KT 9999 SCT023 05/M00 Q1006=
200505162250 METAR ESMX 162250Z 21008KT 190V250 CAVOK 05/M01 Q1006=
200505162220 METAR ESMX 162220Z 21009KT 160V240 9999 FEW045 05/M01 Q1006=
200505162150 METAR ESMX 162150Z 23009KT CAVOK 05/M01 Q1006=
200505162050 METAR ESMX 162050Z 22009KT 200V260 9999 SCT046 06/M01 Q1005=
200505162020 METAR ESMX 162020Z 24010KT 210V280 9999 SCT043 07/M01 Q1005=
200505161950 METAR ESMX 161950Z 23010KT 210V270 9999 FEW040 SCT045 07/M00 Q1005=
200505161920 METAR ESMX 161920Z 24011KT 9999 BKN040 07/M01 Q1005=
200505161850 METAR ESMX 161850Z 24012KT 9999 BKN035 08/M01 Q1004=
200505161820 METAR ESMX 161820Z 22017KT 9999 BKN035 08/M00 Q1004=
200505161750 METAR ESMX 161750Z 24015G26KT 9999 BKN035 08/00 Q1004=
200505161720 METAR ESMX 161720Z 24014KT 200V290 9999 BKN035 10/02 Q1003=
200505161650 METAR ESMX 161650Z 24012KT 200V280 9999 FEW020 BKN030 10/04 Q1003=
200505161620 METAR ESMX 161620Z 22011KT 190V260 9999 SCT025 BKN050 10/05 Q1003=
200505161550 METAR ESMX 161550Z 24013KT 210V270 9999 FEW021 BKN045 10/06 Q1003=
200505161520 METAR ESMX 161520Z 23010KT 190V270 9999 FEW014 BKN035 10/05 Q1003=
200505161450 METAR ESMX 161450Z 22010KT 9999 -RA FEW017 OVC020 10/07 Q1003=
200505161420 METAR ESMX 161420Z 20011KT 9999 FEW014 BKN017 BKN034 11/07 Q1003=
200505161350 METAR ESMX 161350Z 22010KT 190V250 9999 -SHRA FEW013 SCT021 BKN025 09/07 Q1003=
200505161320 METAR ESMX 161320Z 21008KT 190V250 9999 FEW013 SCT018 BKN021 10/07 Q1003=
200505161250 METAR ESMX 161250Z 24008KT 210V270 9999 FEW017 SCT021 OVC026 10/06 Q1003=
200505161220 METAR ESMX 161220Z 23010KT 210V280 9999 FEW013 BKN020 BKN029 10/06 Q1003 RERA=
200505161150 METAR ESMX 161150Z 22011KT 9999 -RA BKN012 OVC020 09/07 Q1003=
200505161120 METAR ESMX 161120Z 23011KT 6000 -RA FEW018 SCT021 BKN028 09/07 Q1003=
200505160950 METAR ESMX 160950Z 22012KT 170V260 9999 FEW035 BKN040 12/04 Q1003=
200505160920 METAR ESMX 160920Z 23011KT 9999 SCT035 14/04 Q1002=
200505160850 METAR ESMX 160850Z 23010KT 190V290 9999 SCT035 13/04 Q1002=
200505160820 METAR ESMX 160820Z 24012KT 200V270 9999 SCT037 12/02 Q1003=
200505160750 METAR ESMX 160750Z 24008KT 210V280 9999 SCT030 12/04 Q1003=
200505160720 METAR ESMX 160720Z 24007KT 190V280 9999 SCT026 12/04 Q1003=
200505160650 METAR ESMX 160650Z 31008KT 270V350 9999 FEW020 10/05 Q1003=
200505160620 METAR ESMX 160620Z 29009KT CAVOK 09/05 Q1003=
200505160550 METAR ESMX 160550Z 30009KT CAVOK 09/04 Q1003=
200505160520 METAR ESMX 160520Z 27005KT CAVOK 09/04 Q1003=
200505160450 METAR ESMX 160450Z 28004KT CAVOK 09/03 Q1003=
200505160420 METAR ESMX 160420Z 27005KT CAVOK 08/03 Q1003=
200505160350 METAR ESMX 160350Z 00000KT CAVOK 08/02 Q1003=
200505160320 METAR ESMX 160320Z VRB01KT CAVOK 08/02 Q1003=
200505160250 METAR ESMX 160250Z AUTO VRB02KT 9999 OVC075 08/02 Q1004=
200505160220 METAR ESMX 160220Z AUTO VRB03KT 9999 OVC074 08/02 Q1004=
200505160150 METAR ESMX 160150Z AUTO VRB03KT 9999 OVC074 08/02 Q1004=
200505160120 METAR ESMX 160120Z AUTO VRB03KT 9999 OVC076 08/01 Q1004=
200505160050 METAR ESMX 160050Z AUTO VRB02KT 9999 BKN077 08/02 Q1005=
200505160020 METAR ESMX 160020Z AUTO VRB02KT 9999 BKN079 09/00 Q1005=
200505152350 METAR ESMX 152350Z VRB02KT CAVOK 08/01 Q1006=
200505152320 METAR ESMX 152320Z VRB02KT CAVOK 09/00 Q1006=
200505152250 METAR ESMX 152250Z AUTO VRB03KT 9999 BKN110 10/M00 Q1006=
200505152220 METAR ESMX 152220Z VRB02KT CAVOK 09/M01 Q1007=
200505152150 METAR ESMX 152150Z VRB03KT CAVOK 09/M01 Q1007=
200505152120 METAR ESMX 152120Z 16004KT CAVOK 11/M03 Q1007=
200505152050 METAR ESMX 152050Z 16004KT CAVOK 11/M03 Q1007=
200505152020 METAR ESMX 152020Z 15005KT CAVOK 11/M03 Q1008=
200505151950 METAR ESMX 151950Z 14005KT 110V170 CAVOK 12/M03 Q1008=
200505151920 METAR ESMX 151920Z 17007KT CAVOK 13/M02 Q1009=
200505151850 METAR ESMX 151850Z 15006KT 110V170 CAVOK 14/M01 Q1009=
200505151820 METAR ESMX 151820Z 16008KT CAVOK 14/M01 Q1009=
200505151750 METAR ESMX 151750Z 15008KT 120V190 CAVOK 16/M02 Q1009=
200505151720 METAR ESMX 151720Z 14008KT 110V170 CAVOK 17/M02 Q1009=
200505151650 METAR ESMX 151650Z 16005KT 120V250 CAVOK 18/M02 Q1009=
200505151620 METAR ESMX 151620Z VRB03KT CAVOK 18/M02 Q1009=
200505151550 METAR ESMX 151550Z VRB03KT CAVOK 18/M01 Q1009=
200505151520 METAR ESMX 151520Z VRB02KT CAVOK 18/M02 Q1010=
200505151450 METAR ESMX 151450Z 15004KT 100V200 CAVOK 18/M02 Q1010=
200505151420 METAR ESMX 151420Z 18005KT CAVOK 18/M02 Q1011=
200505151350 METAR ESMX 151350Z 15004KT 070V210 CAVOK 17/M03 Q1011=
200505151320 METAR ESMX 151320Z VRB06KT CAVOK 18/M02 Q1012=
200505151250 METAR ESMX 151250Z 14005KT 050V190 CAVOK 17/M02 Q1012=
200505151220 METAR ESMX 151220Z AUTO VRB04KT 9999 NSC 17/M01 Q1012=
200505151150 METAR ESMX 151150Z AUTO VRB04KT 9999 NSC 17/M02 Q1013=
200505151120 METAR ESMX 151120Z AUTO VRB05KT 9999 NSC 17/M02 Q1013=
200505151050 METAR ESMX 151050Z AUTO VRB05KT 9999 NSC 16/M02 Q1013=
200505151020 METAR ESMX 151020Z AUTO VRB02KT 9999 NSC 16/M02 Q1014=
200505150950 METAR ESMX 150950Z AUTO VRB05KT 9999 NSC 16/M01 Q1014=
200505150920 METAR ESMX 150920Z AUTO 13006KT 100V180 9999 NSC 15/M01 Q1014=
200505150850 METAR ESMX 150850Z AUTO 12005KT 070V170 9999 NSC 15/M01 Q1015=
200505150820 METAR ESMX 150820Z AUTO 18005KT 140V230 9999 NSC 14/M02 Q1015=
200505150750 METAR ESMX 150750Z AUTO 16005KT 130V200 9999 NSC 13/M00 Q1015=
200505150650 METAR ESMX 150650Z AUTO VRB03KT 9999 NSC 11/00 Q1015=
200505150620 METAR ESMX 150620Z AUTO 15005KT 110V210 9999 NSC 10/01 Q1015=
200505150550 METAR ESMX 150550Z AUTO VRB03KT 9999 NSC 09/00 Q1015=
200505150520 METAR ESMX 150520Z AUTO VRB01KT 9999 NSC 08/02 Q1016=
200505150450 METAR ESMX 150450Z AUTO 00000KT 9999 NSC 05/03 Q1016=
200505150420 METAR ESMX 150420Z AUTO 00000KT 9999 NSC 01/01 Q1016=
200505150350 METAR ESMX 150350Z AUTO 00000KT 9999 NSC M01/M01 Q1016=
200505150320 METAR ESMX 150320Z AUTO 00000KT 9999 NSC M01/M02 Q1016=
200505150250 METAR ESMX 150250Z AUTO 00000KT 9999 NSC M02/M02 Q1016=
200505150220 METAR ESMX 150220Z AUTO VRB02KT 9999 NSC M01/M02 Q1016=
200505150150 METAR ESMX 150150Z AUTO 00000KT 9999 NSC M01/M01 Q1016=
200505150120 METAR ESMX 150120Z AUTO 00000KT 9999 NSC M01/M02 Q1017=
200505150050 METAR ESMX 150050Z AUTO 00000KT 9999 NSC M01/M01 Q1017=
200505150020 METAR ESMX 150020Z AUTO 00000KT 9999 NSC M00/M01 Q1017=
200505142350 METAR ESMX 142350Z AUTO 00000KT 9999 NSC 00/M01 Q1017=
200505142320 METAR ESMX 142320Z AUTO 00000KT 9999 NSC 02/00 Q1017=
200505142250 METAR ESMX 142250Z AUTO VRB03KT 9999 NSC 02/M00 Q1017=
200505142220 METAR ESMX 142220Z AUTO VRB03KT 9999 NSC 05/00 Q1017=
200505142150 METAR ESMX 142150Z AUTO 15004KT 9999 NSC 07/00 Q1017=
200505142120 METAR ESMX 142120Z AUTO 14005KT 100V170 9999 NSC 07/00 Q1017=
200505142050 METAR ESMX 142050Z AUTO 14006KT 110V170 9999 NSC 09/01 Q1017=
200505142020 METAR ESMX 142020Z AUTO 16006KT 9999 NSC 10/01 Q1017=
200505141950 METAR ESMX 141950Z AUTO 17005KT 9999 NSC 10/02 Q1017=
200505141920 METAR ESMX 141920Z AUTO 16007KT 9999 NSC 11/02 Q1017=
200505141850 METAR ESMX 141850Z AUTO 16006KT 9999 NSC 12/02 Q1017=
200505141820 METAR ESMX 141820Z AUTO 17006KT 9999 NSC 13/02 Q1017=
200505141750 METAR ESMX 141750Z AUTO 17006KT 9999 FEW074 13/02 Q1017=
200505141720 METAR ESMX 141720Z AUTO 09004KT 360V120 9999 OVC070 14/05 Q1017 REDZ=
200505141650 METAR ESMX 141650Z AUTO 07005KT 020V110 9999 FEW023 SCT039 BKN069 13/05 Q1017 RERA=
200505141620 METAR ESMX 141620Z AUTO VRB05KT 9999 -SHRA FEW023 BKN058 13/04 Q1017=
200505141550 METAR ESMX 141550Z AUTO 12007KT 040V160 9999 BKN045 14/05 Q1017=
200505141520 METAR ESMX 141520Z AUTO VRB05KT 9999 FEW074 15/02 Q1017=
200505141450 METAR ESMX 141450Z AUTO 09006KT 050V140 9999 BKN071 15/04 Q1018=
200505141420 METAR ESMX 141420Z AUTO 08008KT 050V150 9999 FEW077 15/03 Q1018 REDZ=
200505141350 METAR ESMX 141350Z AUTO 11005KT 050V160 9999 FEW044 SCT083 13/03 Q1018 REDZ=
200505141320 METAR ESMX 141320Z AUTO 12011G22KT 070V170 9999 -SHRA FEW074 SCT086 10/05 Q1018=
200505141250 METAR ESMX 141250Z AUTO 14013KT 110V170 9999 FEW074 11/04 Q1019=
200505141220 METAR ESMX 141220Z AUTO 15013KT 120V190 9999 FEW041 14/04 Q1019=
200505141150 METAR ESMX 141150Z AUTO 12008KT 080V190 9999 FEW048 15/00 Q1018=
200505141120 METAR ESMX 141120Z AUTO 15008KT 120V200 9999 FEW051 15/03 Q1018=
200505141050 METAR ESMX 141050Z AUTO 04005KT 340V120 9999 FEW073 15/03 Q1018=
200505141020 METAR ESMX 141020Z AUTO 12004KT 050V210 9999 FEW058 BKN087 14/04 Q1019=
200505140950 METAR ESMX 140950Z AUTO 16005KT 110V220 9999 FEW065 SCT081 13/05 Q1019 RERA=
200505140920 METAR ESMX 140920Z VRB03KT 9999 FEW024 SCT070 13/05 Q1019=
200505140850 METAR ESMX 140850Z 15004KT 100V200 9999 -SHRA FEW035CB SCT080 11/05 Q1020=
200505140820 METAR ESMX 140820Z 17007KT 140V210 9999 VCSH FEW035CB SCT075 12/05 Q1020=
200505140750 METAR ESMX 140750Z 10006KT 050V160 9999 FEW035 SCT100 12/05 Q1020=
200505140720 METAR ESMX 140720Z 09004KT 9999 FEW030 SCT100 11/05 Q1020=
200505140650 METAR ESMX 140650Z VRB02KT 9999 VCSH FEW040 SCT065 10/06 Q1020=
200505140620 METAR ESMX 140620Z AUTO VRB03KT 9999 NSC 09/06 Q1020=
200505140550 METAR ESMX 140550Z AUTO VRB02KT 9999 SCT054 BKN066 09/06 Q1020=
200505140520 METAR ESMX 140520Z AUTO VRB03KT 9999 NSC 09/06 Q1020=
200505140450 METAR ESMX 140450Z AUTO 00000KT 9999 NSC 08/06 Q1020=
200505140420 METAR ESMX 140420Z AUTO VRB02KT 9999 FEW055 SCT100 07/05 Q1020=
200505140350 METAR ESMX 140350Z AUTO VRB01KT 9999 FEW056 SCT088 08/05 Q1019=
200505140320 METAR ESMX 140320Z AUTO VRB03KT 9999 SCT080 BKN095 08/05 Q1019=
200505140250 METAR ESMX 140250Z AUTO 11004KT 070V140 9999 FEW060 BKN086 07/05 Q1020=
200505140220 METAR ESMX 140220Z AUTO VRB03KT 9999 FEW076 07/05 Q1020 REDZ=
200505140150 METAR ESMX 140150Z AUTO VRB02KT 9999 -SHRA FEW039 SCT044 BKN059 07/06 Q1020=
200505140120 METAR ESMX 140120Z AUTO VRB03KT 9999 -SHRA FEW059 SCT072 BKN082 08/06 Q1021=
200505140050 METAR ESMX 140050Z AUTO VRB02KT 9999 FEW071 BKN084 08/06 Q1021=
200505140020 METAR ESMX 140020Z AUTO VRB03KT 9999 BKN072 08/06 Q1021=
200505132350 METAR ESMX 132350Z AUTO VRB02KT 9999 SCT085 08/06 Q1021=
200505132320 METAR ESMX 132320Z AUTO VRB03KT 9999 FEW074 BKN088 08/05 Q1021=
200505132250 METAR ESMX 132250Z AUTO VRB03KT 9999 BKN100 08/05 Q1021 REDZ=
200505132220 METAR ESMX 132220Z AUTO VRB02KT 9999 -SHRA FEW062 SCT087 BKN100 09/05 Q1021=
200505132150 METAR ESMX 132150Z AUTO VRB01KT 9999 BKN078 BKN110 09/05 Q1021 REDZ=
200505132120 METAR ESMX 132120Z AUTO VRB01KT 9999 -SHRA FEW064 BKN084 09/05 Q1021=
200505132050 METAR ESMX 132050Z AUTO VRB01KT 9999 FEW077 10/04 Q1021=
200505132020 METAR ESMX 132020Z AUTO VRB01KT 9999 BKN091 11/04 Q1021=
200505131950 METAR ESMX 131950Z AUTO 14005KT 110V190 9999 BKN092 11/04 Q1021=
200505131920 METAR ESMX 131920Z AUTO 16006KT 120V190 9999 BKN091 12/04 Q1021=
200505131850 METAR ESMX 131850Z AUTO 13005KT 090V160 9999 FEW051 SCT069 BKN088 12/04 Q1021=
200505131820 METAR ESMX 131820Z AUTO 10004KT 040V170 9999 FEW058 SCT072 BKN092 12/03 Q1021=
200505131750 METAR ESMX 131750Z 11006KT 070V160 9999 FEW030CB BKN080 13/03 Q1021=
200505131720 METAR ESMX 131720Z 10007KT 050V160 9999 FEW0030CB SCT070 14/04 Q1020=
200505131650 METAR ESMX 131650Z 10007KT 050V150 9999 FEW030CB BKN080 14/04 Q1020=
200505131620 METAR ESMX 131620Z 09007KT 040V130 9999 FEW030CB SCT090 15/04 Q1021=
200505131550 METAR ESMX 131550Z 07006KT 030V150 9999 FEW030CB SCT080 15/04 Q1021=
200505131520 METAR ESMX 131520Z 05011KT 020V100 9999 FEW030CB BKN080 16/03 Q1021=
200505131450 METAR ESMX 131450Z 02013KT 340V060 9999 SCT030CB BKN086 17/02 Q1021=
200505131420 METAR ESMX 131420Z VRB02KT 9999 SCT030CB SCT070 18/M05 Q1021=
200505131350 METAR ESMX 131350Z 27004KT 230V290 9999 FEW030CB SCT070 16/M03 Q1021=
200505131320 METAR ESMX 131320Z VRB06KT 9999 FEW030CB SCT070 17/M02 Q1021=
200505131250 METAR ESMX 131250Z 21005KT 180V290 9999 FEW030CB SCT070 17/M02 Q1021=
200505131220 METAR ESMX 131220Z 26004KT 230V320 9999 FEW025CB SCT070 16/M03 Q1021=
200505131150 METAR ESMX 131150Z VRB03KT CAVOK 17/M02 Q1022=
200505131120 METAR ESMX 131120Z 06005KT 010V100 CAVOK 17/M01 Q1022=
200505131050 METAR ESMX 131050Z 07007KT CAVOK 17/M01 Q1022=
200505131020 METAR ESMX 131020Z 04005KT CAVOK 17/M00 Q1022=
200505130950 METAR ESMX 130950Z 36005KT CAVOK 16/M01 Q1022=
200505130920 METAR ESMX 130920Z 03006KT CAVOK 16/M02 Q1022=
200505130850 METAR ESMX 130850Z 34005KT CAVOK 16/M01 Q1022=
200505130820 METAR ESMX 130820Z 36006KT CAVOK 15/01 Q1022=
200505130750 METAR ESMX 130750Z VRB03KT CAVOK 15/03 Q1022=
200505130720 METAR ESMX 130720Z 03004KT CAVOK 13/04 Q1022=
200505130650 METAR ESMX 130650Z 03004KT CAVOK 12/04 Q1022=
200505130620 METAR ESMX 130620Z VRB03KT CAVOK 10/04 Q1022=
200505130550 METAR ESMX 130550Z VRB03KT CAVOK 09/05 Q1022=
200505130520 METAR ESMX 130520Z VRB01KT CAVOK 08/07 Q1022=
200505130450 METAR ESMX 130450Z 00000KT CAVOK 05/05 Q1022=
200505130420 METAR ESMX 130420Z 00000KT CAVOK 02/01 Q1022=
200505130350 METAR ESMX 130350Z 00000KT 9999 BCFG NSC 01/01 Q1022=
200505130320 METAR ESMX 130320Z AUTO 00000KT 6000 NSC 01/00 Q1022=
200505130250 METAR ESMX 130250Z AUTO 00000KT 9999 FG NSC 01/01 Q1022=
200505130220 METAR ESMX 130220Z AUTO 00000KT 9999 BR NSC 01/01 Q1022=
200505130150 METAR ESMX 130150Z AUTO VRB02KT 9999 NSC 02/02 Q1022=
200505130120 METAR ESMX 130120Z AUTO VRB01KT 9999 NSC 02/02 Q1022=
200505130050 METAR ESMX 130050Z AUTO 00000KT 9999 NSC 02/02 Q1022=
200505130020 METAR ESMX 130020Z VRB01KT 9999 MIFG NSC 03/02 Q1022=
200505122350 METAR ESMX 122350Z VRB01KT CAVOK 03/03 Q1022=
200505122320 METAR ESMX 122320Z VRB02KT 9999 MIFG NSC 04/03 Q1022=
200505122250 METAR ESMX 122250Z VRB02KT CAVOK 05/04 Q1022=
200505122220 METAR ESMX 122220Z VRB03KT CAVOK 06/05 Q1022=
200505122150 METAR ESMX 122150Z VRB03KT CAVOK 07/05 Q1022=
200505122120 METAR ESMX 122120Z 24004KT CAVOK 06/05 Q1022=
200505122050 METAR ESMX 122050Z VRB03KT CAVOK 07/05 Q1022=
200505122020 METAR ESMX 122020Z 23004KT CAVOK 08/05 Q1022=
200505121950 METAR ESMX 121950Z 19005KT CAVOK 08/05 Q1022=
200505121920 METAR ESMX 121920Z 14005KT 9999 FEW023 SCT055CB 09/06 Q1022=
200505121850 METAR ESMX 121850Z 05007KT 010V080 9999 -SHRA FEW040 SCT045CB 09/06 Q1022=
200505121820 METAR ESMX 121820Z 24005KT 9999 SCT040CB 11/04 Q1021=
200505121750 METAR ESMX 121750Z 21007KT 180V250 CAVOK 12/05 Q1021=
200505121720 METAR ESMX 121720Z VRB03KT CAVOK 13/03 Q1021=
200505121650 METAR ESMX 121650Z 19004KT 160V240 CAVOK 14/02 Q1020=
200505121620 METAR ESMX 121620Z 23005KT 210V270 9999 FEW048 SCT085 14/02 Q1021=
200505121550 METAR ESMX 121550Z VRB03KT 9999 FEW040 SCT092 14/04 Q1020=
200505121520 METAR ESMX 121520Z 07004KT 360V140 CAVOK 15/02 Q1020=
200505121450 METAR ESMX 121450Z 06005KT 010V110 9999 FEW035 SCT080 14/03 Q1020=
200505121420 METAR ESMX 121420Z 35005KT 320V020 9999 FEW048 SCT097 13/01 Q1020=
200505121350 METAR ESMX 121350Z 36006KT 300V040 9999 FEW030CB SCT080 14/02 Q1020 RERA=
200505121320 METAR ESMX 121320Z 01010KT 9999 FEW020CB SCT050 12/03 Q1020=
200505121250 METAR ESMX 121250Z 35014KT 9999 SCT020CB BKN074 12/04 Q1020=
200505121220 METAR ESMX 121220Z 32007KT 270V020 9999 FEW030CB SCT074 14/02 Q1020=
200505121120 METAR ESMX 121120Z VRB06KT 9999 FEW030CB SCT040 15/02 Q1020=
200505121050 METAR ESMX 121050Z VRB03KT 9999 FEW035 SCT079 14/03 Q1020=
200505121020 METAR ESMX 121020Z 28004KT 230V320 9999 FEW038 SCT080 13/03 Q1020=
200505120950 METAR ESMX 120950Z VRB02KT 9999 SCT026 13/04 Q1020=
200505120920 METAR ESMX 120920Z VRB05KT 9999 SCT027 13/03 Q1020=
200505120850 METAR ESMX 120850Z 25004KT 230V330 9999 SCT026 13/05 Q1020=
200505120820 METAR ESMX 120820Z VRB03KT 9999 SCT020 12/05 Q1020=
200505120750 METAR ESMX 120750Z VRB02KT 9999 FEW015 11/06 Q1020=
200505120720 METAR ESMX 120720Z VRB01KT 9999 FEW015 SCT200 09/07 Q1020=
200505120650 METAR ESMX 120650Z VRB01KT 9999 BCFG FEW015 SCT200 08/07 Q1020=
200505120620 METAR ESMX 120620Z VRB01KT 9999 R01/P1500U R19/0800VP1500U BCFG NSC 06/06 Q1020=
200505120550 METAR ESMX 120550Z 00000KT 0400 R01/0650V1000N R19/0375V0550N FG VV002 05/05 Q1020=
200505120520 METAR ESMX 120520Z 00000KT 0200 R01/0350V0500N R19/0275N FG VV001 04/04 Q1020=
200505120450 METAR ESMX 120450Z VRB02KT 0050 R01/0200N R19/0275N FG VV001 03/03 Q1020=
200505120420 METAR ESMX 120420Z 00000KT 0050 R01/M0150N R19/0175N FG VV001 02/01 Q1019=
200505120350 METAR ESMX 120350Z VRB01KT 0200 R01/0650D R19/0200N FG VV002 M00/M01 Q1019=
200505120320 METAR ESMX 120320Z AUTO 00000KT 9999 VV000 M00/M01 Q1019=
200505120250 METAR ESMX 120250Z AUTO VRB01KT 9999 NSC M01/M01 Q1019=
200505120220 METAR ESMX 120220Z AUTO VRB01KT 2800 BR NSC 00/00 Q1019=
200505120150 METAR ESMX 120150Z AUTO 00000KT 1300 R01/P1500N R19/P1500N NSC 00/00 Q1019=
200505120120 METAR ESMX 120120Z AUTO 00000KT 9999 NSC 01/00 Q1019=
200505120050 METAR ESMX 120050Z AUTO 00000KT 9999 NSC 01/00 Q1019=
200505120020 METAR ESMX 120020Z AUTO VRB01KT 9999 NSC 01/01 Q1019=
200505112350 METAR ESMX 112350Z VRB01KT CAVOK 02/02 Q1019=
200505112320 METAR ESMX 112320Z VRB02KT CAVOK 02/02 Q1019=
200505112250 METAR ESMX 112250Z VRB01KT CAVOK 01/00 Q1018=
200505112220 METAR ESMX 112220Z 00000KT CAVOK 01/01 Q1018=
200505112150 METAR ESMX 112150Z 00000KT 9999 MIFG NSC 02/02 Q1018=
200505112120 METAR ESMX 112120Z 00000KT 9999 MIFG NSC 02/01 Q1018=
200505112050 METAR ESMX 112050Z VRB01KT 9999 MIFG NSC 04/03 Q1018=
200505112020 METAR ESMX 112020Z VRB01KT CAVOK 05/04 Q1018=
200505111920 METAR ESMX 111920Z VRB02KT CAVOK 07/05 Q1018=
200505111850 METAR ESMX 111850Z VRB03KT CAVOK 07/05 Q1018=
200505111750 METAR ESMX 111750Z 00000KT 9999 FEW027 SCT045 09/04 Q1017=
200505111720 METAR ESMX 111720Z VRB03KT 9999 FEW027 SCT050 09/05 Q1017=
200505111650 METAR ESMX 111650Z 00000KT 9999 FEW027 SCT050 BKN100 09/04 Q1017=
200505111620 METAR ESMX 111620Z VRB03KT 9999 FEW027 BKN055 09/05 Q1017=
200505111550 METAR ESMX 111550Z 11004KT 050V180 9999 FEW025 BKN050 09/05 Q1017=
200505111450 METAR ESMX 111450Z 03010KT 010V070 9999 -SHRA SCT028CB BKN050 08/04 Q1016=
200505111420 METAR ESMX 111420Z 05009KT 350V080 9999 -SHRA SCT030CB BKN060 10/05 Q1016=
200505111320 METAR ESMX 111320Z 28008KT 240V320 9999 FEW035 BKN060 09/05 Q1015=
200505111250 METAR ESMX 111250Z 27010KT 9999 FEW034 BKN070 09/05 Q1015=
200505111220 METAR ESMX 111220Z 28009KT 9999 SCT035 BKN065 09/04 Q1015=
200505111150 METAR ESMX 111150Z VRB03KT 9999 SCT040CB BKN065 12/04 Q1015=
200505111120 METAR ESMX 111120Z VRB03KT 9999 FEW025 SCT065 11/05 Q1015=
200505111050 METAR ESMX 111050Z 19004KT 100V220 9999 SCT023 BKN050 10/03 Q1015=
200505111020 METAR ESMX 111020Z VRB03KT 9999 BKN021 BKN050 10/05 Q1015=
200505110950 METAR ESMX 110950Z 13005KT 100V160 9999 FEW015CB BKN020 10/06 Q1015=
200505110920 METAR ESMX 110920Z 11004KT 060V160 9999 -SHRA FEW025 SCT042 BKN081 08/06 Q1015=
200505110850 METAR ESMX 110850Z VRB03KT 9999 -SHRA FEW018 BKN030CB 06/05 Q1015=
200505110820 METAR ESMX 110820Z 04008KT 360V100 9999 SHRA FEW020 BKN035CB 07/05 Q1014=
200505110750 METAR ESMX 110750Z VRB02KT CAVOK 09/05 Q1014=
200505110720 METAR ESMX 110720Z VRB01KT CAVOK 08/05 Q1013=
200505110650 METAR ESMX 110650Z VRB02KT CAVOK 07/04 Q1013=
200505110620 METAR ESMX 110620Z VRB03KT CAVOK 06/05 Q1013=
200505110550 METAR ESMX 110550Z VRB03KT 9999 FEW040 BKN080 05/04 Q1013=
200505110520 METAR ESMX 110520Z VRB03KT 9999 FEW053 BKN071 04/03 Q1013=
200505110450 METAR ESMX 110450Z VRB02KT 9999 FEW040 BKN080 03/02 Q1013=
200505110420 METAR ESMX 110420Z VRB01KT 9999 MIFG NSC 02/02 Q1012=
200505110350 METAR ESMX 110350Z 00000KT 9999 MIFG BKN080 M00/M00 Q1012=
200505110320 METAR ESMX 110320Z AUTO VRB02KT 9999 NSC 01/01 Q1012=
200505110250 METAR ESMX 110250Z AUTO VRB03KT 9999 NSC 01/00 Q1012=
200505110220 METAR ESMX 110220Z AUTO VRB02KT 9999 NSC M01/M01 Q1012=
200505110150 METAR ESMX 110150Z AUTO VRB01KT 9999 NSC 01/01 Q1012=
200505110120 METAR ESMX 110120Z AUTO 00000KT 9999 NSC 00/00 Q1012=
200505110050 METAR ESMX 110050Z AUTO 00000KT 9999 NSC 01/01 Q1012=
200505110020 METAR ESMX 110020Z AUTO 00000KT 4100 BR NSC 01/01 Q1012=
200505102350 METAR ESMX 102350Z VRB01KT 9999 MIFG NSC 01/00 Q1012=
200505102320 METAR ESMX 102320Z 00000KT 8000 MIFG NSC 01/01 Q1012=
200505102250 METAR ESMX 102250Z VRB01KT 9999 MIFG NSC 01/01 Q1012=
200505102220 METAR ESMX 102220Z VRB01KT 9999 MIFG NSC 02/02 Q1012=
200505102150 METAR ESMX 102150Z 00000KT 9999 MIFG NSC 02/02 Q1012=
200505102120 METAR ESMX 102120Z VRB01KT 8000 MIFG NSC 03/03 Q1012=
200505102050 METAR ESMX 102050Z 00000KT 9000 MIFG FEW030 BKN043 03/03 Q1012=
200505102020 METAR ESMX 102020Z 00000KT 6000 MIFG FEW025 BKN043 03/03 Q1012=
200505101950 METAR ESMX 101950Z VRB02KT 1300 R01/P1500N R19/P1500N BR FEW025 BKN042 BKN054 04/04 Q1012=
200505101920 METAR ESMX 101920Z VRB01KT 9999 BKN042 BKN057 04/04 Q1012=
200505101850 METAR ESMX 101850Z 00000KT CAVOK 06/04 Q1012=
200505101820 METAR ESMX 101820Z 00000KT CAVOK 07/05 Q1012=
200505101750 METAR ESMX 101750Z 04004KT 9999 FEW009 SCT090 07/05 Q1011=
200505101720 METAR ESMX 101720Z 06004KT 010V090 9999 FEW010 SCT085 07/05 Q1011=
200505101650 METAR ESMX 101650Z 07004KT 030V130 9999 -SHRA FEW025CB SCT045 07/05 Q1011=
200505101620 METAR ESMX 101620Z 08005KT 040V110 9999 -SHRA FEW025 SCT045CB 07/04 Q1011=
200505101550 METAR ESMX 101550Z 05007KT 9999 SHRA SCT024CB BKN045 07/04 Q1011=
200505101520 METAR ESMX 101520Z 05007KT 350V070 9999 -SHRA FEW020 SCT027CB BKN060 07/04 Q1011=
200505101450 METAR ESMX 101450Z 06008KT 020V100 9999 SHRA FEW020 SCT045CB 07/04 Q1011=
200505101420 METAR ESMX 101420Z 07004KT 020V150 9999 -SHRA FEW010 SCT040CB BKN057 09/03 Q1011=
200505101350 METAR ESMX 101350Z 13007KT 100V160 9999 -SHRA FEW010 SCT050CB BKN085 09/02 Q1010=
200505101320 METAR ESMX 101320Z 03011KT 9999 -SHRA FEW009 SCT050CB BKN087 10/02 Q1010=
200505101250 METAR ESMX 101250Z 02009KT 340V060 9999 -SHRA FEW009 SCT045CB BKN050 11/03 Q1009=
200505101220 METAR ESMX 101220Z 34005KT 300V020 9999 VCSH FEW045CB BKN050 13/01 Q1009=
200505101150 METAR ESMX 101150Z 20005KT 140V240 9999 VCSH FEW040CB SCT045 13/M01 Q1009=
200505101050 METAR ESMX 101050Z 15004KT 040V210 9999 -SHRA SCT035CB 11/01 Q1010=
200505101020 METAR ESMX 101020Z 23006KT 140V250 9999 SCT028 11/02 Q1010=
200505100950 METAR ESMX 100950Z 15004KT 080V230 9999 SCT025 11/02 Q1010=
200505100920 METAR ESMX 100920Z 22005KT 170V270 9999 SCT020 10/04 Q1010=
200505100850 METAR ESMX 100850Z 23004KT 190V270 9999 SCT020 10/04 Q1010=
200505100820 METAR ESMX 100820Z 20004KT 190V310 9999 SCT017 09/04 Q1010=
200505100750 METAR ESMX 100750Z 19004KT 160V230 9999 FEW003 BKN010 06/04 Q1010=
200505100720 METAR ESMX 100720Z VRB02KT 4000 BR BKN001 05/05 Q1010=
200505100650 METAR ESMX 100650Z VRB01KT 1300 BR BKN000 04/04 Q1010=
200505100620 METAR ESMX 100620Z VRB02KT 0150 R01/0350N R19/0700N FG VV002 03/03 Q1009=
200505100550 METAR ESMX 100550Z VRB01KT 0200 R01/0300N R19/0400N FG VV001 03/02 Q1009=
200505100520 METAR ESMX 100520Z VRB02KT 0100 R01/0250N R19/0300N FG VV001 02/02 Q1009=
200505100450 METAR ESMX 100450Z 00000KT 0100 R01/0250N R19/0325N FG VV002 02/02 Q1009=
200505100420 METAR ESMX 100420Z VRB01KT 0100 R01/0250N R19/0300N FG VV002 02/02 Q1009=
200505100350 METAR ESMX 100350Z VRB02KT 0100 R01/0250N R19/0275N FG VV002 02/01 Q1009=
200505100320 METAR ESMX 100320Z AUTO VRB02KT 0100 R01/0250N R19/0450D FG VV000 00/00 Q1008=
200505100250 METAR ESMX 100250Z AUTO VRB01KT 1600 BCFG SCT001 M02/M02 Q1008=
200505100220 METAR ESMX 100220Z AUTO 00000KT 0750 R01/P1500U R19/P1500N BCFG FEW000 M02/M02 Q1008=
200505100150 METAR ESMX 100150Z AUTO VRB01KT 0500 R01/P1500U R19/P1500N FG SCT041 M01/M01 Q1008=
200505100120 METAR ESMX 100120Z AUTO 00000KT 8000 FEW041 M01/M01 Q1008=
200505100050 METAR ESMX 100050Z AUTO 00000KT 9999 BR NSC 00/M00 Q1008=
200505100020 METAR ESMX 100020Z VRB03KT CAVOK 01/00 Q1008=
200505092350 METAR ESMX 092350Z VRB02KT CAVOK 01/01 Q1008=
200505092320 METAR ESMX 092320Z VRB03KT CAVOK 03/02 Q1008=
200505092250 METAR ESMX 092250Z 16004KT CAVOK 03/02 Q1008=
200505092220 METAR ESMX 092220Z VRB03KT CAVOK 02/02 Q1007=
200505092150 METAR ESMX 092150Z VRB02KT CAVOK 01/00 Q1007=
200505092120 METAR ESMX 092120Z VRB03KT 9999 FEW041 03/02 Q1007=
200505092050 METAR ESMX 092050Z VRB02KT 9999 FEW044 SCT150 03/01 Q1007=
200505092020 METAR ESMX 092020Z VRB03KT CAVOK 04/02 Q1007=
200505091950 METAR ESMX 091950Z VRB01KT CAVOK 04/02 Q1007=
200505091920 METAR ESMX 091920Z 00000KT 9999 FEW040 05/02 Q1007=
200505091820 METAR ESMX 091820Z VRB03KT 9999 FEW025 SCT050 08/02 Q1006=
200505091750 METAR ESMX 091750Z 14005KT 110V190 9999 FEW030 09/01 Q1006=
200505091720 METAR ESMX 091720Z 17007KT 9999 FEW056 SCT081 10/00 Q1006=
200505091650 METAR ESMX 091650Z 16008KT 120V190 9999 FEW040 10/00 Q1005=
200505091620 METAR ESMX 091620Z 18009KT 120V200 9999 FEW030CB SCT050 11/01 Q1005=
200505091550 METAR ESMX 091550Z 16007KT 120V200 9999 FEW025CB SCT050 11/M00 Q1005=
200505091520 METAR ESMX 091520Z 16008KT 120V200 9999 FEW025CB SCT050 11/M01 Q1005=
200505091450 METAR ESMX 091450Z 15009KT 120V200 9999 FE025CB SCT050 11/M03 Q1005=
200505091420 METAR ESMX 091420Z 17010KT 140V210 9999 -SHRA FEW025 SCT045CB 11/M01 Q1005=
200505091350 METAR ESMX 091350Z 19014KT 9999 -SHRA FEW025 SCT045CB 11/M00 Q1005=
200505091320 METAR ESMX 091320Z 21012KT 9999 -SHRA SCT045CB 10/03 Q1004=
200505091250 METAR ESMX 091250Z 19011KT 140V210 9999 SCT055CB 12/M01 Q1004=
200505091150 METAR ESMX 091150Z VRB03KT CAVOK 13/M02 Q1004=
200505091120 METAR ESMX 091120Z VRB03KT 9999 FEW045TCU BKN060 12/01 Q1004=
200505091050 METAR ESMX 091050Z 26006KT 140V290 9999 FEW048 SCT070 12/M00 Q1004=
200505091020 METAR ESMX 091020Z 23008KT 9999 FEW040 SCT050 10/01 Q1004=
200505090950 METAR ESMX 090950Z VRB05KT 9999 FEW040 SCT060 11/M00 Q1004=
200505090920 METAR ESMX 090920Z 21007KT 9999 SCT045 BKN060 10/01 Q1004=
200505090850 METAR ESMX 090850Z 20008KT 140V280 9999 SCT040 10/01 Q1004=
200505090820 METAR ESMX 090820Z 22008KT 9999 FEW035 SCT045 08/02 Q1004=
200505090750 METAR ESMX 090750Z 24006KT 150V280 9999 FEW020 SCT030 BKN035 08/03 Q1003=
200505090720 METAR ESMX 090720Z 18005KT 140V230 9999 FEW016 SCT026 08/03 Q1004=
200505090650 METAR ESMX 090650Z 18004KT 120V230 9999 SCT015 07/03 Q1003=
200505090620 METAR ESMX 090620Z 18004KT 9999 FEW015 07/04 Q1003=
200505090550 METAR ESMX 090550Z 16004KT CAVOK 05/03 Q1003=
200505090520 METAR ESMX 090520Z VRB03KT CAVOK 04/03 Q1003=
200505090450 METAR ESMX 090450Z VRB02KT CAVOK 02/02 Q1003=
200505090420 METAR ESMX 090420Z VRB02KT CAVOK M00/M00 Q1003=
200505090350 METAR ESMX 090350Z VRB02KT 9999 BCFG NSC M01/M02 Q1003=
200505090320 METAR ESMX 090320Z AUTO 00000KT 9999 R01/P1500D R19/0400N NSC M02/M03 Q1003=
200505090250 METAR ESMX 090250Z AUTO 00000KT 9999 BR BKN000 M02/M02 Q1003=
200505090220 METAR ESMX 090220Z AUTO 00000KT 9999 VV000 M01/M02 Q1003=
200505090150 METAR ESMX 090150Z AUTO VRB01KT 9999 FEW000 M02/M02 Q1003=
200505090120 METAR ESMX 090120Z AUTO 00000KT 9999 NSC M02/M02 Q1003=
200505090050 METAR ESMX 090050Z AUTO VRB01KT 9999 R01/P1500N R19/0800VP1500U NSC M01/M02 Q1003=
200505090020 METAR ESMX 090020Z VRB02KT 9999 MIFG NSC M01/M02 Q1003=
200505082350 METAR ESMX 082350Z VRB03KT 9999 MIFG NSC M01/M01 Q1003=
200505082320 METAR ESMX 082320Z VRB01KT 9999 MIFG NSC M01/M01 Q1003=
200505082250 METAR ESMX 082250Z VRB02KT 9999 NSC 00/M00 Q1003=
200505082220 METAR ESMX 082220Z VRB01KT CAVOK 00/00 Q1003=
200505082150 METAR ESMX 082150Z VRB02KT CAVOK 01/01 Q1003=
200505082120 METAR ESMX 082120Z 19004KT CAVOK 00/00 Q1003=
200505082050 METAR ESMX 082050Z 18004KT CAVOK 01/01 Q1002=
200505082020 METAR ESMX 082020Z 17004KT CAVOK 01/01 Q1002=
200505081950 METAR ESMX 081950Z 18004KT CAVOK 02/01 Q1002=
200505081920 METAR ESMX 081920Z VRB01KT 9999 FEW020 03/02 Q1002=
200505081850 METAR ESMX 081850Z VRB01KT 9999 FEW020 FEW020CB 05/03 Q1002=
200505081820 METAR ESMX 081820Z 27005KT 240V320 9999 -SHRA FEW007 FEW020CB SCT020 BKN084 05/03 Q1002=
200505081750 METAR ESMX 081750Z 23010KT 9999 -SHRA FEW009 SCT040CB BKN056 06/03 Q1002=
200505081720 METAR ESMX 081720Z 18012KT 9999 FEW043CB SCT043 08/00 Q1002=
200505081650 METAR ESMX 081650Z 25005KT 9999 FEW047 BKN060 11/00 Q1001=
200505081620 METAR ESMX 081620Z 22009KT 160V250 9999 FEW043 SCT059 10/01 Q1001=
200505081550 METAR ESMX 081550Z VRB03KT 9999 FEW030 SCT050 11/00 Q1001=
200505081520 METAR ESMX 081520Z 33005KT 290V010 9999 FEW025CB SCT040 10/01 Q1001 RERA=
200505081450 METAR ESMX 081450Z 25008KT 210V280 9999 -RA FEW020CB SCT051 08/02 Q1001=
200505081420 METAR ESMX 081420Z 26004KT 230V290 9999 FEW020CB SCT078 09/M00 Q1001=
200505081350 METAR ESMX 081350Z 27006KT 230V320 9999 FEW035CB SCT050 10/M00 Q1001=
200505081320 METAR ESMX 081320Z 27007KT 220V320 9999 FEW030 SCT060 11/M02 Q1001=
200505081220 METAR ESMX 081220Z 22013KT 190V250 9999 SCT025 SCT060 11/01 Q1001=
200505081150 METAR ESMX 081150Z AUTO 22009KT 190V250 9999 FEW049 11/00 Q1001=
200505081120 METAR ESMX 081120Z AUTO 21007KT 160V250 9999 FEW041 SCT058 11/M01 Q1001=
200505081050 METAR ESMX 081050Z AUTO 24007KT 200V280 9999 FEW043 10/00 Q1001=
200505081020 METAR ESMX 081020Z AUTO 25008KT 210V280 9999 FEW038 SCT066 10/01 Q1000=
200505080950 METAR ESMX 080950Z AUTO 21007KT 150V280 9999 BKN054 10/M00 Q1001=
200505080920 METAR ESMX 080920Z AUTO 25010KT 220V280 9999 FEW039 BKN053 08/01 Q1001=
200505080850 METAR ESMX 080850Z AUTO 19009KT 9999 FEW039 SCT051 10/M00 Q1000=
200505080820 METAR ESMX 080820Z AUTO 21008KT 9999 FEW034 09/01 Q1000=
200505080750 METAR ESMX 080750Z AUTO VRB05KT 9999 FEW045 09/02 Q1000=
200505080720 METAR ESMX 080720Z AUTO 21005KT 170V250 9999 FEW020 SCT028 07/02 Q1000=
200505080650 METAR ESMX 080650Z AUTO 23005KT 180V290 9999 FEW017 08/04 Q1000=
200505080620 METAR ESMX 080620Z AUTO 23005KT 200V270 9999 NSC 07/04 Q1000=
200505080550 METAR ESMX 080550Z AUTO 20004KT 170V250 9999 NSC 06/03 Q1000=
200505080520 METAR ESMX 080520Z AUTO VRB03KT 9999 NSC 05/03 Q1000=
200505080450 METAR ESMX 080450Z AUTO 24004KT 9999 NSC 04/03 Q1000=
200505080420 METAR ESMX 080420Z AUTO VRB02KT 9999 FEW028 02/02 Q0999 REDZ=
200505080350 METAR ESMX 080350Z AUTO VRB02KT 9000 BKN027 02/02 Q0999 REDZ=
200505080320 METAR ESMX 080320Z AUTO 19004KT 9999 OVC028 03/02 Q0999=
200505080250 METAR ESMX 080250Z AUTO 17005KT 9999 FEW028 BKN048 BKN071 02/02 Q0999=
200505080220 METAR ESMX 080220Z AUTO VRB02KT 9999 FEW055 BKN070 01/00 Q0999=
200505080150 METAR ESMX 080150Z AUTO VRB01KT 7000 BR FEW073 SCT084 00/00 Q0999=
200505080120 METAR ESMX 080120Z AUTO VRB02KT 9999 FEW018 BKN074 01/01 Q0999=
200505080050 METAR ESMX 080050Z AUTO VRB03KT 9999 FEW014 BKN018 BKN084 01/01 Q0999=
200505080020 METAR ESMX 080020Z AUTO VRB03KT 9999 NSC 00/M00 Q0999=
200505072350 METAR ESMX 072350Z AUTO 23004KT 9999 NSC 01/M00 Q0999=
200505072320 METAR ESMX 072320Z AUTO 22004KT 9999 NSC 01/M00 Q0999=
200505072250 METAR ESMX 072250Z AUTO VRB03KT 9999 NSC 02/01 Q0999=
200505072220 METAR ESMX 072220Z AUTO VRB03KT 9999 FEW063 03/01 Q0999=
200505072150 METAR ESMX 072150Z AUTO 22004KT 9999 SCT062 03/01 Q0999=
200505072120 METAR ESMX 072120Z AUTO VRB03KT 9999 NSC 04/01 Q0999=
200505072050 METAR ESMX 072050Z 23004KT CAVOK 04/01 Q0999=
200505072020 METAR ESMX 072020Z 21005KT CAVOK 04/00 Q0999=
200505071950 METAR ESMX 071950Z 23004KT CAVOK 06/00 Q0998=
200505071920 METAR ESMX 071920Z 23004KT CAVOK 06/01 Q0998=
200505071850 METAR ESMX 071850Z 23004KT 9999 FEW025 07/01 Q0998=
200505071820 METAR ESMX 071820Z AUTO 23006KT 9999 NSC 09/01 Q0998=
200505071750 METAR ESMX 071750Z AUTO 22007KT 9999 NSC 10/02 Q0998=
200505071720 METAR ESMX 071720Z AUTO 24010KT 9999 FEW039 SCT045 10/02 Q0998=
200505071650 METAR ESMX 071650Z AUTO VRB04KT 9999 BKN038 09/02 Q0997 RERA=
200505071620 METAR ESMX 071620Z AUTO VRB04KT 9999 -SHRA FEW016 SCT027 BKN037 07/04 Q0998=
200505071550 METAR ESMX 071550Z AUTO 24005KT 160V300 9999 FEW008 SCT039 BKN061 09/02 Q0998=
200505071520 METAR ESMX 071520Z 23007KT 170V260 9999 FEW030 SCT070 10/02 Q0998=
200505071450 METAR ESMX 071450Z 23010KT 200V280 9999 FEW0030 SCT060 09/01 Q0998=
200505071420 METAR ESMX 071420Z 25008KT 210V300 9999 FEW030CB SCT040 10/03 Q0998=
200505071350 METAR ESMX 071350Z 22010KT 9999 SHRA FEW030CB SCT045 07/04 Q0998=
200505071320 METAR ESMX 071320Z 20010KT 170V230 9999 FEW030CB SCT080 10/02 Q0998=
200505071250 METAR ESMX 071250Z 23011KT 170V260 9999 FEW030CB SCT040 10/02 Q0998=
200505071220 METAR ESMX 071220Z AUTO 26011KT 220V300 9999 FEW058 11/03 Q0998=
200505071150 METAR ESMX 071150Z AUTO 23014KT 190V260 9999 FEW030 11/03 Q0998=
200505071120 METAR ESMX 071120Z AUTO 25010KT 210V290 9999 FEW037 08/01 Q0998=
200505071050 METAR ESMX 071050Z AUTO 24012KT 200V280 9999 NSC 11/02 Q0998=
200505071020 METAR ESMX 071020Z AUTO 23010KT 190V280 9999 FEW039 10/00 Q0998=
200505070950 METAR ESMX 070950Z AUTO 23009KT 180V320 9999 FEW034 SCT045 11/02 Q0998 RERA=
200505070920 METAR ESMX 070920Z 28005KT 230V330 9999 -SHRA FEW025CB SCT042 09/04 Q0998=
200505070850 METAR ESMX 070850Z 24010KT 200V280 9999 FEW034 SCT039 BKN051 10/03 Q0998=
200505070820 METAR ESMX 070820Z 27010KT 240V320 9999 FEW020 BKN040 08/01 Q0998=
200505070750 METAR ESMX 070750Z 26010KT 230V290 9999 FEW020 SCT035 08/02 Q0998=
200505070720 METAR ESMX 070720Z 24009KT 9999 SCT021 BKN033 07/03 Q0998=
200505070650 METAR ESMX 070650Z 25009KT 220V290 9999 FEW016 SCT022 BKN030 07/03 Q0998=
200505070620 METAR ESMX 070620Z AUTO 24008KT 200V280 9999 FEW014 SCT018 BKN020 07/04 Q0998=
200505070550 METAR ESMX 070550Z AUTO 23008KT 200V280 9999 BKN013 06/04 Q0998=
200505070520 METAR ESMX 070520Z AUTO 23007KT 200V260 9999 SCT052 05/04 Q0998=
200505070450 METAR ESMX 070450Z AUTO 22006KT 9999 FEW017 BKN020 04/03 Q0998=
200505070420 METAR ESMX 070420Z AUTO 20006KT 9999 BKN018 OVC028 04/03 Q0998=
200505070350 METAR ESMX 070350Z AUTO 22007KT 9999 FEW012 SCT027 BKN031 04/03 Q0998=
200505070320 METAR ESMX 070320Z AUTO 21006KT 9999 SCT040 03/02 Q0998=
200505070250 METAR ESMX 070250Z AUTO 20007KT 9999 NSC 03/02 Q0998=
200505070220 METAR ESMX 070220Z AUTO 20007KT 9999 NSC 02/01 Q0998=
200505070150 METAR ESMX 070150Z AUTO 19006KT 9999 NSC 02/01 Q0999=
200505070120 METAR ESMX 070120Z AUTO 21006KT 9999 NSC 02/02 Q0999=
200505070050 METAR ESMX 070050Z AUTO 20007KT 9999 NSC 03/02 Q0999=
200505070020 METAR ESMX 070020Z AUTO 21005KT 9999 SCT045 03/02 Q0999=
200505062350 METAR ESMX 062350Z AUTO VRB03KT 9999 NSC 03/02 Q0999=
200505062320 METAR ESMX 062320Z AUTO VRB03KT 9999 NSC 03/02 Q0999=
200505062250 METAR ESMX 062250Z AUTO 22004KT 9999 NSC 03/02 Q0999=
200505062220 METAR ESMX 062220Z AUTO 20004KT 9999 NSC 03/02 Q0999=
200505062150 METAR ESMX 062150Z AUTO 23004KT 210V270 9999 NSC 04/02 Q0999=
200505062120 METAR ESMX 062120Z AUTO 22005KT 9999 NSC 05/02 Q0999=
200505062050 METAR ESMX 062050Z AUTO 24006KT 9999 NSC 05/02 Q0999=
200505062020 METAR ESMX 062020Z AUTO 25005KT 9999 NSC 06/02 Q1000=
200505061950 METAR ESMX 061950Z AUTO 23006KT 200V260 9999 NSC 06/02 Q1000=
200505061920 METAR ESMX 061920Z AUTO 25007KT 230V290 9999 NSC 07/02 Q0999=
200505061850 METAR ESMX 061850Z AUTO 26008KT 9999 NSC 08/02 Q0999=
200505061820 METAR ESMX 061820Z AUTO 25007KT 220V290 9999 NSC 09/02 Q0999=
200505061750 METAR ESMX 061750Z AUTO 25009KT 9999 FEW043 09/02 Q0999=
200505061720 METAR ESMX 061720Z AUTO 26007KT 210V290 9999 FEW043 BKN076 10/03 Q0999=
200505061650 METAR ESMX 061650Z AUTO 27010KT 9999 FEW040 SCT058 BKN078 09/02 Q0999=
200505061620 METAR ESMX 061620Z AUTO 25007KT 210V280 9999 FEW080 10/02 Q0999=
200505061550 METAR ESMX 061550Z AUTO 24011KT 210V290 9999 FEW040 12/03 Q0999=
200505061520 METAR ESMX 061520Z AUTO 26009KT 220V300 9999 FEW048 12/03 Q0999=
200505061450 METAR ESMX 061450Z AUTO 28010KT 250V320 9999 FEW068 12/03 Q0999=
200505061420 METAR ESMX 061420Z AUTO 26009KT 9999 FEW031 SCT041 BKN056 11/03 Q0999=
200505061350 METAR ESMX 061350Z 26008KT 220V320 9999 FEW020CB SCT031 BKN056 12/05 Q0999=
200505061320 METAR ESMX 061320Z 24007KT 190V280 9999 FEW020CB SCT029 BKN100 11/06 Q0999=
200505061250 METAR ESMX 061250Z 25008KT 210V010 9999 FEW018 SCT032 BKN047 10/07 Q0999=
200505061220 METAR ESMX 061220Z 26006KT 240V320 9999 FEW016 SCT022 BKN032 10/07 Q0999=
200505061150 METAR ESMX 061150Z 29007KT 260V330 9999 FEW012 SCT018 BKN020 08/07 Q0999 REDZ=
200505061120 METAR ESMX 061120Z 28005KT 250V320 9999 FEW012 SCT028 BKN032 09/07 Q0999 RERA=
200505061050 METAR ESMX 061050Z 28005KT 250V330 9999 -RA FEW008 SCT036 BKN043 08/07 Q0999=
200505061020 METAR ESMX 061020Z 27007KT 9999 -RA SCT007 BKN019 BKN029 08/07 Q0999=
200505060950 METAR ESMX 060950Z 28005KT 5000 RA FEW004 SCT006 BKN015 08/07 Q0999=
200505060920 METAR ESMX 060920Z 28004KT 250V320 9999 -RA SCT007 BKN013 BKN019 08/07 Q0999=
200505060850 METAR ESMX 060850Z 24006KT 210V320 9000 -SHRA FEW006 BKN011 BKN018 09/07 Q0999=
200505060750 METAR ESMX 060750Z 22006KT 190V260 9999 SCT006 BKN011 BKN021 09/07 Q1000=
200505060720 METAR ESMX 060720Z 19007KT 9999 FEW005 BKN007 BKN009 09/08 Q1000=
200505060650 METAR ESMX 060650Z 21005KT 9000 -RA FEW002 SCT005 BKN007 08/08 Q1000=
200505060620 METAR ESMX 060620Z 19007KT 8000 -RA FEW004 SCT006 BKN008 08/07 Q1000=
200505060550 METAR ESMX 060550Z 20006KT 8000 -RA BKN003 BKN008 08/07 Q1000=
200505060520 METAR ESMX 060520Z 18007KT 6000 -RA BKN003 BKN006 08/07 Q1000=
200505060450 METAR ESMX 060450Z 18005KT 6000 -RA FEW004 BKN006 08/07 Q1000=
200505060420 METAR ESMX 060420Z AUTO 17005KT 8000 DZ FEW006 BKN007 OVC010 08/07 Q1001=
200505060350 METAR ESMX 060350Z AUTO VRB03KT 9999 DZ FEW008 OVC010 08/07 Q1001=
200505060320 METAR ESMX 060320Z AUTO 18005KT 9999 FEW007 BKN009 OVC011 08/06 Q1001=
200505060250 METAR ESMX 060250Z AUTO 21004KT 5000 BR FEW008 OVC010 08/06 Q1001=
200505060220 METAR ESMX 060220Z AUTO 22004KT 9999 OVC011 08/06 Q1002=
200505060150 METAR ESMX 060150Z AUTO 21004KT 9999 BKN011 OVC015 08/06 Q1002=
200505060120 METAR ESMX 060120Z AUTO 22005KT 9999 FEW011 SCT017 BKN026 08/06 Q1002=
200505060050 METAR ESMX 060050Z AUTO VRB03KT 9999 OVC028 07/06 Q1002=
200505060020 METAR ESMX 060020Z 22004KT 9999 FEW015 BKN027 07/05 Q1003=
200505052350 METAR ESMX 052350Z 22004KT 180V260 9999 BKN015 08/05 Q1003=
200505052320 METAR ESMX 052320Z VRB03KT 9999 FEW016 SCT018 07/05 Q1003=
200505052220 METAR ESMX 052220Z 25004KT 210V310 9999 BKN027 08/05 Q1004=
200505052150 METAR ESMX 052150Z 26006KT 9999 FEW016 SCT019 BKN026 08/05 Q1004=
200505052120 METAR ESMX 052120Z 25006KT 220V280 9999 FEW020 BKN025 09/05 Q1004=
200505052050 METAR ESMX 052050Z 26006KT 230V300 9999 BKN017 09/05 Q1004=
200505052020 METAR ESMX 052020Z 26007KT 230V340 9999 BKN018 09/05 Q1004=
200505051950 METAR ESMX 051950Z 27008KT 230V320 9999 BKN019 09/05 Q1005=
200505051920 METAR ESMX 051920Z 26009KT 210V290 9999 SCT020 09/05 Q1005=
200505051850 METAR ESMX 051850Z 26007KT 240V300 CAVOK 10/04 Q1005=
200505051820 METAR ESMX 051820Z AUTO 26008KT 230V310 9999 SCT084 BKN110 11/03 Q1004=
200505051750 METAR ESMX 051750Z AUTO 26008KT 220V290 9999 FEW110 12/02 Q1004=
200505051720 METAR ESMX 051720Z AUTO 26010KT 210V290 9999 NSC 13/01 Q1004=
200505051650 METAR ESMX 051650Z AUTO 25011KT 9999 NSC 14/02 Q1004=
200505051620 METAR ESMX 051620Z AUTO 28011KT 240V300 9999 FEW058 15/01 Q1004=
200505051550 METAR ESMX 051550Z AUTO 29008KT 220V320 9999 NSC 16/M01 Q1004=
200505051520 METAR ESMX 051520Z AUTO 29008KT 9999 NSC 16/M00 Q1004=
200505051450 METAR ESMX 051450Z AUTO 28008KT 240V320 9999 NSC 16/M01 Q1004=
200505051420 METAR ESMX 051420Z AUTO 30010KT 260V330 9999 NSC 17/M00 Q1005=
200505051350 METAR ESMX 051350Z AUTO 26009KT 210V290 9999 NSC 17/M00 Q1005=
200505051320 METAR ESMX 051320Z AUTO 26005KT 200V340 9999 NSC 17/M01 Q1005=
200505051250 METAR ESMX 051250Z AUTO 32004KT 240V030 9999 NSC 16/M02 Q1005=
200505051150 METAR ESMX 051150Z AUTO 29006KT 240V350 9999 NSC 15/M02 Q1006=
200505051120 METAR ESMX 051120Z 27008KT 240V030 CAVOK 15/M03 Q1006=
200505051050 METAR ESMX 051050Z 35008KT 320V020 CAVOK 15/M01 Q1006=
200505051020 METAR ESMX 051020Z 01007KT 320V030 CAVOK 14/M01 Q1006=
200505050950 METAR ESMX 050950Z 36007KT 320V040 CAVOK 13/00 Q1006=
200505050920 METAR ESMX 050920Z 35008KT CAVOK 12/00 Q1007=
200505050850 METAR ESMX 050850Z 01007KT CAVOK 12/00 Q1007=
200505050820 METAR ESMX 050820Z 03008KT 300V060 CAVOK 11/01 Q1007=
200505050750 METAR ESMX 050750Z 36007KT CAVOK 10/02 Q1007=
200505050720 METAR ESMX 050720Z 35008KT 310V020 CAVOK 10/03 Q1007=
200505050620 METAR ESMX 050620Z 35007KT CAVOK 09/04 Q1007=
200505050550 METAR ESMX 050550Z 34008KT 9999 FEW008 08/04 Q1006=
200505050520 METAR ESMX 050520Z 35005KT 9999 FEW008 07/05 Q1006=
200505050450 METAR ESMX 050450Z 36006KT 9999 FEW006 07/05 Q1006=
200505050420 METAR ESMX 050420Z 35007KT 9999 SCT005 07/06 Q1006=
200505050350 METAR ESMX 050350Z 34008KT 310V020 9999 BKN006 07/06 Q1006=
200505050320 METAR ESMX 050320Z AUTO 33007KT 9999 SCT079 07/06 Q1006=
200505050250 METAR ESMX 050250Z AUTO 33007KT 9999 OVC043 09/07 Q1006=
200505050220 METAR ESMX 050220Z AUTO 34007KT 8000 BR FEW006 SCT008 OVC041 09/09 Q1006=
200505050150 METAR ESMX 050150Z AUTO 30005KT 3400 BR BKN024 OVC047 10/09 Q1006=
200505050120 METAR ESMX 050120Z AUTO 28004KT 2300 BR FEW003 SCT027 BKN050 09/09 Q1006=
200505050050 METAR ESMX 050050Z AUTO 24005KT 2000 BR FEW032 SCT056 09/09 Q1006=
200505050020 METAR ESMX 050020Z AUTO VRB03KT 2800 BR OVC054 09/08 Q1006=
200505042350 METAR ESMX 042350Z AUTO 27004KT 2400 BR SCT056 09/08 Q1006=
200505042320 METAR ESMX 042320Z AUTO 26004KT 2700 BR SCT057 BKN084 09/09 Q1006=
200505042250 METAR ESMX 042250Z AUTO 26004KT 3400 BR NSC 09/09 Q1007=
200505042220 METAR ESMX 042220Z AUTO 26004KT 5000 BR FEW020 10/09 Q1007=
200505042150 METAR ESMX 042150Z AUTO 25004KT 200V290 5000 BR NSC 10/09 Q1007=
200505042120 METAR ESMX 042120Z AUTO 25004KT 4500 BR FEW004 10/10 Q1007=
200505042050 METAR ESMX 042050Z AUTO 24005KT 4100 BR BKN003 BKN006 11/10 Q1007=
200505042020 METAR ESMX 042020Z AUTO 21006KT 4700 BR FEW005 BKN053 OVC094 11/11 Q1007=
200505041950 METAR ESMX 041950Z 21005KT 5000 BR FEW027 SCT034 BKN058 11/10 Q1007=
200505041920 METAR ESMX 041920Z 19006KT 8000 BR SCT005 BKN060 12/11 Q1007=
200505041850 METAR ESMX 041850Z 19007KT 9999 SCT006 BKN060 12/11 Q1007=
200505041820 METAR ESMX 041820Z 19006KT 9999 -SHRA SCT035 BKN054 13/11 Q1007=
200505041750 METAR ESMX 041750Z 23006KT 9999 FEW029 SCT032 BKN037 13/11 Q1007=
200505041720 METAR ESMX 041720Z 21005KT 9999 FEW043 SCT080 13/11 Q1007=
200505041650 METAR ESMX 041650Z 15005KT 9999 FEW035 SCT080 14/11 Q1007=
200505041620 METAR ESMX 041620Z 15004KT 110V190 9999 FEW040 SCT081 15/11 Q1007=
200505041550 METAR ESMX 041550Z 15004KT 120V190 9999 SCT040 SCT080 14/11 Q1007=
200505041520 METAR ESMX 041520Z 16004KT 110V190 9999 FEW038 SCT050 14/11 Q1007=
200505041450 METAR ESMX 041450Z 13004KT 100V160 9999 FEW034 BKN040 13/12 Q1007=
200505041420 METAR ESMX 041420Z 19006KT 7000 SHRA FEW018 SCT020 BKN025 13/12 Q1007=
200505041350 METAR ESMX 041350Z VRB03KT 9999 -SHRA SCT022CB BKN030 14/11 Q1007=
200505041320 METAR ESMX 041320Z 19004KT 110V230 9999 -SHRA FEW023 BKN067 15/10 Q1007=
200505041250 METAR ESMX 041250Z 16004KT 140V230 9999 FEW025 BKN070 16/09 Q1007=
200505041220 METAR ESMX 041220Z VRB03KT 9999 FEW025CB BKN065 16/09 Q1007=
200505041150 METAR ESMX 041150Z 07005KT 040V140 9999 FEW032 BKN065 16/09 Q1007=
200505041120 METAR ESMX 041120Z VRB04KT 9999 FEW030 SCT045 BKN065 16/09 Q1007=
200505041050 METAR ESMX 041050Z 08004KT 340V150 9999 FEW030 BKN045 16/09 Q1007=
200505041020 METAR ESMX 041020Z VRB03KT 9999 BKN020 16/09 Q1008=
200505040950 METAR ESMX 040950Z 09004KT 330V120 9999 BKN020 15/09 Q1008=
200505040920 METAR ESMX 040920Z VRB03KT 9999 SCT019 BKN023 BKN110 15/09 Q1008=
200505040850 METAR ESMX 040850Z 34004KT 9999 FEW017 SCT023 BKN067 15/10 Q1008=
200505040820 METAR ESMX 040820Z VRB02KT 9999 SCT024 BKN100 14/10 Q1008=
200505040750 METAR ESMX 040750Z VRB03KT 9999 FEW028 BKN100 13/10 Q1008=
200505040720 METAR ESMX 040720Z VRB02KT CAVOK 12/10 Q1008=
200505040650 METAR ESMX 040650Z 06004KT 030V100 9000 BR NSC 11/10 Q1008=
200505040620 METAR ESMX 040620Z 04004KT 360V060 6000 BR FEW003 SCT009 BKN200 10/09 Q1008=
200505040550 METAR ESMX 040550Z VRB02KT 4400 BR FEW002 SCT004 BKN200 09/09 Q1008=
200505040520 METAR ESMX 040520Z VRB03KT 2700 FEW001 BKN020 08/08 Q1008=
200505040450 METAR ESMX 040450Z VRB02KT 2200 R01/P1500U R19/0900VP1500U SCT001 07/07 Q1008=
200505040420 METAR ESMX 040420Z VRB02KT 1500 R19/1500 BCFG FEW097 06/06 Q1008=
200505040350 METAR ESMX 040350Z VRB02KT 1100 R01/P1500D R19/P1500N BCFG BKN100 06/06 Q1008=
200505040320 METAR ESMX 040320Z AUTO 02005KT 2900 FEW001 06/06 Q1008=
200505040250 METAR ESMX 040250Z AUTO VRB03KT 0150 R01/0500D R19/P1500U FG SCT001 05/04 Q1008=
200505040220 METAR ESMX 040220Z AUTO VRB01KT 0150 R01/0600V1200N R19/0500N FG NSC 04/04 Q1008=
200505040150 METAR ESMX 040150Z AUTO VRB01KT 0100 R01/0400N R19/0350V0500N FG NSC 04/04 Q1009=
200505040120 METAR ESMX 040120Z AUTO VRB01KT 0100 R01/0300V0500D R19/0400V0550N BCFG NSC 04/04 Q1009=
200505040050 METAR ESMX 040050Z AUTO 00000KT 0750 R01/P1500D R19/0375V0700N BCFG NSC 04/04 Q1009=
200505040020 METAR ESMX 040020Z VRB01KT 4400 R19/550 BCFG NSC 05/05 Q1009=
200505032350 METAR ESMX 032350Z 00000KT 0800 R01/P1500U R19/P1500N FG NSC 05/05 Q1009=
200505032320 METAR ESMX 032320Z 00000KT 2500 R01/P1500U R19/P1500N BCFG NSC 06/06 Q1010=
200505032250 METAR ESMX 032250Z 00000KT 2000 BR NSC 07/07 Q1010=
200505032220 METAR ESMX 032220Z VRB03KT 2200 BR NSC 07/06 Q1010=
200505032150 METAR ESMX 032150Z VRB01KT 7000 BR NSC 08/07 Q1010=
200505032120 METAR ESMX 032120Z 00000KT 6000 BR NSC 09/08 Q1010=
200505032050 METAR ESMX 032050Z 00000KT 8000 BR NSC 08/08 Q1010=
200505032020 METAR ESMX 032020Z VRB02KT 8000 BR BKN100 09/08 Q1010=
200505031950 METAR ESMX 031950Z VRB01KT 9000 BR BKN200 10/09 Q1010=
200505031920 METAR ESMX 031920Z 28004KT CAVOK 11/09 Q1010=
200505031850 METAR ESMX 031850Z VRB03KT CAVOK 12/09 Q1010=
200505031820 METAR ESMX 031820Z 30004KT CAVOK 12/09 Q1010=
200505031750 METAR ESMX 031750Z 29004KT 250V320 CAVOK 13/09 Q1010=
200505031720 METAR ESMX 031720Z 30006KT 260V330 CAVOK 14/09 Q1010=
200505031650 METAR ESMX 031650Z 29007KT 260V330 CAVOK 14/09 Q1010=
200505031620 METAR ESMX 031620Z 28009KT 220V310 9999 FEW030 BKN080 15/09 Q1010=
200505031550 METAR ESMX 031550Z 30009KT 250V320 9999 SCT030 16/09 Q1010=
200505031520 METAR ESMX 031520Z 29008KT 230V320 9999 FEW033 17/09 Q1010=
200505031450 METAR ESMX 031450Z 31008KT 270V360 9999 FEW035 17/09 Q1010=
200505031420 METAR ESMX 031420Z 27009KT 190V320 9999 SCT035 18/09 Q1010=
200505031350 METAR ESMX 031350Z 32007KT 260V010 9999 SCT036 18/08 Q1010=
200505031320 METAR ESMX 031320Z 30009KT 270V340 9999 SCT036 18/08 Q1010=
200505031250 METAR ESMX 031250Z 29009KT 250V330 9999 SCT036 18/08 Q1010=
200505031220 METAR ESMX 031220Z 29009KT 260V340 9999 SCT034 18/09 Q1010=
200505031150 METAR ESMX 031150Z 29010KT 260V010 9999 FEW032 SCT030 18/09 Q1010=
200505031120 METAR ESMX 031120Z 27008KT 160V320 9999 FEW026 18/10 Q1010=
200505031050 METAR ESMX 031050Z 29008KT 240V340 9999 FEW026 17/10 Q1010=
200505031020 METAR ESMX 031020Z 28009KT 230V330 9999 FEW022 17/09 Q1010=
200505030950 METAR ESMX 030950Z 27010KT 220V300 9999 SCT020 16/11 Q1010=
200505030920 METAR ESMX 030920Z 24009KT 210V290 9999 SCT016 15/11 Q1010=
200505030850 METAR ESMX 030850Z 25009KT 210V290 9999 BKN015 15/11 Q1010=
200505030820 METAR ESMX 030820Z 26006KT 9000 BR FEW009 BKN013 14/11 Q1010=
200505030750 METAR ESMX 030750Z 27008KT 230V320 8000 BR FEW006 SCT008 BKN010 13/11 Q1010=
200505030720 METAR ESMX 030720Z 26005KT 240V300 3700 BR OVC004 12/11 Q1010=
200505030650 METAR ESMX 030650Z 27006KT 230V290 3700 BR BKN005 OVC008 11/11 Q1010=
200505030620 METAR ESMX 030620Z 26005KT 210V300 4300 BR OVC005 11/10 Q1010=
200505030550 METAR ESMX 030550Z 26004KT 220V310 4500 BR OVC004 11/10 Q1010=
200505030520 METAR ESMX 030520Z 30004KT 260V350 4000 BR OVC003 11/10 Q1010=
200505030450 METAR ESMX 030450Z 30004KT 260V330 2500 BR OVC002 10/10 Q1010=
200505030420 METAR ESMX 030420Z 30006KT 260V330 1800 BR OVC002 10/10 Q1009=
200505030350 METAR ESMX 030350Z 31006KT 1700 BR OVC002 10/10 Q1009=
200505030320 METAR ESMX 030320Z AUTO 29006KT 1900 BR SCT001 BKN004 OVC007 10/09 Q1009=
200505030250 METAR ESMX 030250Z AUTO 28005KT 250V320 2500 BR BKN001 OVC003 09/09 Q1009=
200505030220 METAR ESMX 030220Z AUTO VRB02KT 2700 BR FEW001 OVC004 09/09 Q1009=
200505030150 METAR ESMX 030150Z AUTO VRB02KT 2400 BR FEW001 OVC006 09/09 Q1009=
200505030120 METAR ESMX 030120Z AUTO VRB01KT 1800 BR OVC007 09/09 Q1009=
200505030050 METAR ESMX 030050Z AUTO 00000KT 1500 BR OVC009 09/08 Q1009=
200505030020 METAR ESMX 030020Z AUTO VRB01KT 1300 R01/P1500N R19/P1500N OVC011 09/08 Q1009 REDZ=
200505022350 METAR ESMX 022350Z VRB01KT 1800 FEW007 BKN013 09/08 Q1009 REDZ=
200505022320 METAR ESMX 022320Z 00000KT 3400 BR OVC007 09/09 Q1009=
200505022250 METAR ESMX 022250Z VRB03KT 3400 BR OVC005 09/09 Q1010=
200505022220 METAR ESMX 022220Z VRB01KT 4300 BR BKN005 OVC009 09/08 Q1010=
200505022150 METAR ESMX 022150Z 15004KT 4700 BR BKN005 OVC053 09/09 Q1010=
200505022120 METAR ESMX 022120Z 13005KT 4700 BR BKN004 OVC055 09/09 Q1010=
200505022050 METAR ESMX 022050Z 14006KT 100V170 4700 OVC004 09/09 Q1010 RERA=
200505022020 METAR ESMX 022020Z 12005KT 080V150 5000 -RA OVC004 09/08 Q1011=
200505021950 METAR ESMX 021950Z 14005KT 100V170 6000 -SHRA OVC005 09/08 Q1011=
200505021920 METAR ESMX 021920Z 13006KT 080V220 7000 -SHRA OVC004 09/08 Q1011=
200505021850 METAR ESMX 021850Z 12007KT 070V160 6000 -SHRA OVC004 09/08 Q1011=
200505021820 METAR ESMX 021820Z 14006KT 080V170 5000 -RA OVC005 09/08 Q1012=
200505021750 METAR ESMX 021750Z 14005KT 100V180 7000 -SHRA BKN007 09/08 Q1012=
200505021720 METAR ESMX 021720Z 13005KT 100V170 8000 -SHRA FEW009 BKN015CB 09/08 Q1013=
200505021650 METAR ESMX 021650Z VRB02KT 9999 -SHRA SCT014 BKN050 10/08 Q1013=
200505021620 METAR ESMX 021620Z 11007KT 060V170 9999 SCT015 BKN051 10/07 Q1013=
200505021550 METAR ESMX 021550Z 14009KT 9999 -SHRA FEW014 SCT030CB BKN078 10/08 Q1013 RERA=
200505021520 METAR ESMX 021520Z 14005KT 090V200 9999 TSRA SCT030CB BKN067 11/07 Q1014=
200505021450 METAR ESMX 021450Z 14008KT 100V180 9999 TS SCT035CB BKN066 13/05 Q1013=
200505021420 METAR ESMX 021420Z 14008KT 100V210 9999 FEW032 BKN077 13/04 Q1013=
200505021350 METAR ESMX 021350Z 16010KT 110V190 9999 SCT032 BKN078 14/03 Q1014=
200505021220 METAR ESMX 021220Z 15008KT 9999 FEW037 BKN079 13/05 Q1015=
200505021150 METAR ESMX 021150Z 14008KT 080V180 9999 FEW040 BKN045 12/06 Q1015=
200505021120 METAR ESMX 021120Z 14010KT 110V190 9999 SCT039 BKN060 11/06 Q1015=
200505021050 METAR ESMX 021050Z 14008KT 090V200 9999 BKN048 10/06 Q1015=
200505021020 METAR ESMX 021020Z 16006KT 120V200 9999 -RA BKN045 10/06 Q1016=
200505020950 METAR ESMX 020950Z 15004KT 080V230 9999 -RA SCT045 BKN055 09/06 Q1016=
200505020920 METAR ESMX 020920Z 14007KT 100V170 7000 -RA FEW030 BKN065 09/06 Q1016=
200505020850 METAR ESMX 020850Z 14006KT 100V190 9999 -SHRA NSC 10/03 Q1016=
200505020820 METAR ESMX 020820Z 15009KT 110V180 CAVOK 10/03 Q1016=
200505020750 METAR ESMX 020750Z 12007KT 070V170 CAVOK 09/03 Q1016=
200505020720 METAR ESMX 020720Z 13005KT 070V190 CAVOK 09/03 Q1016=
200505020650 METAR ESMX 020650Z 15007KT 110V180 CAVOK 09/02 Q1017=
200505020620 METAR ESMX 020620Z 14006KT 110V200 CAVOK 08/02 Q1017=
200505020550 METAR ESMX 020550Z 14007KT 090V160 CAVOK 07/01 Q1017=
200505020520 METAR ESMX 020520Z 13006KT 080V190 CAVOK 07/02 Q1017=
200505020450 METAR ESMX 020450Z 15006KT 110V170 CAVOK 07/02 Q1017=
200505020420 METAR ESMX 020420Z 13005KT 070V170 CAVOK 06/02 Q1017=
200505020350 METAR ESMX 020350Z 14006KT 090V170 CAVOK 06/02 Q1017=
200505020320 METAR ESMX 020320Z 14005KT 100V180 CAVOK 06/02 Q1017=
200505020250 METAR ESMX 020250Z AUTO 13006KT 100V160 9999 OVC100 06/02 Q1017=
200505020220 METAR ESMX 020220Z AUTO 13004KT 100V160 9999 NSC 06/02 Q1017=
200505020150 METAR ESMX 020150Z AUTO 13004KT 090V170 9999 SCT110 06/02 Q1017=
200505020120 METAR ESMX 020120Z AUTO 15005KT 110V170 9999 BKN110 07/02 Q1017=
200505020050 METAR ESMX 020050Z AUTO 15006KT 110V190 9999 FEW110 07/02 Q1017=
200505020020 METAR ESMX 020020Z 14004KT 100V190 CAVOK 07/03 Q1017=
200505012350 METAR ESMX 012350Z 14005KT 100V170 CAVOK 07/02 Q1017=
200505012320 METAR ESMX 012320Z VRB02KT CAVOK 07/02 Q1017=
200505012250 METAR ESMX 012250Z VRB03KT CAVOK 07/02 Q1017=
200505012220 METAR ESMX 012220Z VRB03KT CAVOK 08/02 Q1016=
200505012150 METAR ESMX 012150Z 15004KT 110V210 CAVOK 08/02 Q1016=
200505012120 METAR ESMX 012120Z VRB03KT CAVOK 08/02 Q1016=
200505012050 METAR ESMX 012050Z 14005KT 100V200 CAVOK 09/02 Q1016=
200505012020 METAR ESMX 012020Z 14005KT 110V170 CAVOK 10/03 Q1016=
200505011950 METAR ESMX 011950Z 14006KT 090V170 CAVOK 11/04 Q1015=
200505011920 METAR ESMX 011920Z 14006KT 100V180 CAVOK 11/04 Q1015=
200505011850 METAR ESMX 011850Z 13006KT 090V170 CAVOK 12/04 Q1015=
200505011820 METAR ESMX 011820Z 14007KT 070V170 CAVOK 13/04 Q1014=
200505011750 METAR ESMX 011750Z 13008KT 080V170 CAVOK 14/05 Q1014=
200505011720 METAR ESMX 011720Z 12005G15KT 050V190 CAVOK 15/05 Q1014=
200505011650 METAR ESMX 011650Z VRB03KT CAVOK 17/03 Q1014=
200505011620 METAR ESMX 011620Z VRB03KT CAVOK 17/03 Q1013=
200505011550 METAR ESMX 011550Z VRB03KT CAVOK 17/02 Q1014=
200505011520 METAR ESMX 011520Z VRB02KT CAVOK 17/02 Q1013=
200505011450 METAR ESMX 011450Z VRB03KT CAVOK 16/02 Q1013=
200505011420 METAR ESMX 011420Z 06004KT 010V140 CAVOK 17/02 Q1013=
200505011350 METAR ESMX 011350Z 08006KT 340V140 CAVOK 17/03 Q1013=
200505011320 METAR ESMX 011320Z 08004KT 350V130 CAVOK 17/03 Q1013=
200505011250 METAR ESMX 011250Z 08005KT 020V150 CAVOK 17/03 Q1013=
200505011220 METAR ESMX 011220Z AUTO 35005KT 320V140 9999 NSC 17/02 Q1013=
Fallo de consulta: el error es SELECT command denied to user 'users'@'localhost' for table 'tafs_2005'
