##########################################################
# Query made at 04/19/2024 20:47:15 UTC
# Time interval: from 10/01/2005 12:00  to 10/31/2005 12:59  UTC
##########################################################

##########################################################
# ESMX, Vaxjo (Sweden)
# WMO index: 02641. WIGOS ID: 0-20000-0-02648
# Latitude 56-51N. Longitude 014-50E. Altitude 199 m.
##########################################################

200510311250 METAR ESMX 311250Z 15007KT 7000 BR SCT010 12/09 Q1017=
200510311150 METAR ESMX 311150Z 17006KT 140V200 7000 BR SCT008 SCT200 12/09 Q1018=
200510311120 METAR ESMX 311120Z 15006KT 120V180 6000 BR SCT007 11/09 Q1018=
200510311050 METAR ESMX 311050Z 16007KT 110V200 5000 BR BKN006 11/09 Q1018=
200510311020 METAR ESMX 311020Z 15006KT 4000 BR BKN004 10/09 Q1018=
200510310950 METAR ESMX 310950Z 16007KT 120V190 3100 BR BKN002 09/09 Q1018=
200510310920 METAR ESMX 310920Z 15007KT 1900 BR BKN002 09/09 Q1018=
200510310850 METAR ESMX 310850Z 14009KT 110V190 1300 R01/P1500N R19/P1500N BR BKN002 08/08 Q1018=
200510310820 METAR ESMX 310820Z 14006KT 110V170 0800 R01/1200N R19/P1500N FG VV002 08/08 Q1018=
200510310750 METAR ESMX 310750Z 15005KT 1 0750 R01/1100N R19/P1500N FG VV002 08/08 Q1018=
200510310720 METAR ESMX 310720Z 16006KT 0500 R01/0800V1200N R19/1200N FG VV002 08/08 Q1018=
200510310650 METAR ESMX 310650Z 15006KT 0450 R01/1000N R19/1300N FG VV002 08/08 Q1018=
200510310620 METAR ESMX 310620Z 15006KT 0550 R01/1300N R19/P1500N FG VV002 08/07 Q1018=
200510310550 METAR ESMX 310550Z 15006KT 110V200 0450 R01/1400N R19/P1500N FG VV002 08/07 Q1018=
200510310520 METAR ESMX 310520Z 16004KT 120V190 0700 R01/1400D R19/P1500N FG VV002 07/07 Q1018=
200510310450 METAR ESMX 310450Z 15006KT 100V170 0800 R01/P1500N R19/P1500N FG VV002 07/07 Q1017=
200510310420 METAR ESMX 310420Z AUTO 15006KT 120V200 0500 R01/P1500N R19/P1500N FG OVC001 07/07 Q1018=
200510310350 METAR ESMX 310350Z AUTO 16005KT 120V190 0450 R01/1400D R19/P1500N FG VV001 07/07 Q1018=
200510310320 METAR ESMX 310320Z AUTO 15005KT 090V190 0350 R01/1200N R19/1400N FG VV001 07/06 Q1018=
200510310250 METAR ESMX 310250Z AUTO 15004KT 110V190 0250 R01/1000N R19/P1500D FG OVC001 07/06 Q1018=
200510310220 METAR ESMX 310220Z AUTO VRB03KT 1100 R01/P1500N R19/P1500N SCT001 06/06 Q1018=
200510310150 METAR ESMX 310150Z AUTO VRB02KT 0800 R01/P1500N R19/P1500N FG BKN001 07/06 Q1018=
200510310120 METAR ESMX 310120Z VRB02KT 1200 R01/P1500N R19/P1500N BR OVC002 07/07 Q1018=
200510310050 METAR ESMX 310050Z VRB03KT 1100 R01/P1500N R19/P1500N BR OVC002 07/07 Q1018=
200510310020 METAR ESMX 310020Z 15004KT 0800 R01/P1500N R19/P1500N FG VV002 07/07 Q1018=
200510302350 METAR ESMX 302350Z 16004KT 110V180 1100 R01/P1500N R19/P1500N BR OVC002 08/07 Q1018=
200510302320 METAR ESMX 302320Z 14004KT 110V170 1700 BR OVC003 08/07 Q1018=
200510302250 METAR ESMX 302250Z 16004KT 2200 BR OVC003 08/07 Q1018=
200510302220 METAR ESMX 302220Z 16005KT 2500 BR OVC004 08/07 Q1018=
200510302150 METAR ESMX 302150Z 15004KT 110V200 2500 BR OVC004 08/07 Q1018=
200510302120 METAR ESMX 302120Z 16004KT 120V190 2500 BR OVC004 08/07 Q1019=
200510302050 METAR ESMX 302050Z 16004KT 120V190 2600 BR OVC003 08/07 Q1019=
200510302020 METAR ESMX 302020Z 17005KT 140V200 2400 BR OVC003 08/07 Q1019=
200510301950 METAR ESMX 301950Z 16006KT 140V200 2400 BR OVC002 08/07 Q1019=
200510301920 METAR ESMX 301920Z 16005KT 130V190 2500 BR BKN003 08/07 Q1019=
200510301820 METAR ESMX 301820Z 17008KT 140V200 2800 BR OVC004 08/07 Q1019=
200510301750 METAR ESMX 301750Z 17009KT 3000 BR BKN004 08/07 Q1019=
200510301720 METAR ESMX 301720Z AUTO 18008KT 160V220 3600 BR OVC005 08/07 Q1019=
200510301650 METAR ESMX 301650Z 18008KT 130V200 5000 BR OVC006 09/07 Q1018=
200510301620 METAR ESMX 301620Z 17007KT 6000 BR OVC007 09/07 Q1018=
200510301550 METAR ESMX 301550Z 17006KT 7000 BR BKN010 09/07 Q1018=
200510301520 METAR ESMX 301520Z 17006KT 130V200 9000 BR FEW020 09/07 Q1018=
200510301450 METAR ESMX 301450Z 15006KT CAVOK 10/07 Q1018=
200510301420 METAR ESMX 301420Z 17007KT 140V200 CAVOK 11/07 Q1018=
200510301350 METAR ESMX 301350Z 17007KT 130V200 CAVOK 12/07 Q1018=
200510301320 METAR ESMX 301320Z AUTO 14006KT 100V170 9999 NSC 11/07 Q1018=
200510301250 METAR ESMX 301250Z AUTO 15007KT 120V190 9999 NSC 12/08 Q1018=
200510301220 METAR ESMX 301220Z AUTO 16006KT 120V200 9999 NSC 11/07 Q1019=
200510301150 METAR ESMX 301150Z AUTO 14007KT 080V250 9999 NSC 11/07 Q1019=
200510301120 METAR ESMX 301120Z AUTO 15006KT 110V200 9999 NSC 11/07 Q1019=
200510301050 METAR ESMX 301050Z AUTO 16008KT 120V200 9000 BR NSC 10/07 Q1020=
200510301020 METAR ESMX 301020Z AUTO 15007KT 110V190 8000 BR NSC 10/07 Q1019=
200510300950 METAR ESMX 300950Z AUTO 15008KT 120V210 7000 BR NSC 09/07 Q1020=
200510300920 METAR ESMX 300920Z AUTO 15008KT 120V190 6000 BR NSC 09/07 Q1020=
200510300850 METAR ESMX 300850Z AUTO 15007KT 100V190 7000 BR NSC 09/07 Q1020=
200510300820 METAR ESMX 300820Z AUTO 16007KT 130V200 6000 BR BKN005 BKN008 08/07 Q1020=
200510300750 METAR ESMX 300750Z AUTO 15006KT 110V180 4300 BR OVC003 07/06 Q1020=
200510300720 METAR ESMX 300720Z AUTO 16006KT 100V190 4000 BR BKN004 07/06 Q1020=
200510300650 METAR ESMX 300650Z AUTO 14004KT 100V170 3800 BR SCT004 06/05 Q1020=
200510300620 METAR ESMX 300620Z AUTO 13004KT 100V170 4100 BR SCT005 06/05 Q1020=
200510300550 METAR ESMX 300550Z AUTO VRB03KT 4700 BR NSC 06/05 Q1020=
200510300520 METAR ESMX 300520Z AUTO 14004KT 100V170 5000 BR NSC 06/05 Q1020=
200510300450 METAR ESMX 300450Z AUTO 14004KT 110V170 5000 BR NSC 06/05 Q1020=
200510300420 METAR ESMX 300420Z AUTO 15004KT 120V190 6000 BR NSC 06/05 Q1020=
200510300350 METAR ESMX 300350Z AUTO 15005KT 8000 BR NSC 06/05 Q1020=
200510300320 METAR ESMX 300320Z AUTO 16006KT 8000 BR NSC 06/05 Q1020=
200510300250 METAR ESMX 300250Z AUTO 15006KT 9000 BR NSC 07/05 Q1020=
200510300220 METAR ESMX 300220Z AUTO 15006KT 120V190 9000 BR NSC 07/05 Q1020=
200510300150 METAR ESMX 300150Z AUTO 15005KT 8000 BR NSC 07/05 Q1021=
200510300120 METAR ESMX 300120Z AUTO 17004KT 8000 BR NSC 07/06 Q1021=
200510300050 METAR ESMX 300050Z AUTO 16004KT 8000 BR NSC 07/06 Q1021=
200510300020 METAR ESMX 300020Z AUTO 17005KT 140V200 8000 BR NSC 07/06 Q1021=
200510292350 METAR ESMX 292350Z AUTO 16005KT 130V200 8000 BR NSC 07/06 Q1021=
200510292320 METAR ESMX 292320Z AUTO 16004KT 8000 BR NSC 07/06 Q1021=
200510292250 METAR ESMX 292250Z AUTO VRB03KT 7000 BR NSC 07/06 Q1021=
200510292220 METAR ESMX 292220Z AUTO 15004KT 6000 BR NSC 07/06 Q1021=
200510292150 METAR ESMX 292150Z AUTO 16004KT 6000 BR NSC 07/06 Q1021=
200510292120 METAR ESMX 292120Z AUTO 17004KT 140V200 6000 BR NSC 07/06 Q1021=
200510292050 METAR ESMX 292050Z AUTO 15005KT 120V190 5000 BR NSC 08/07 Q1021=
200510292020 METAR ESMX 292020Z AUTO 15005KT 110V180 5000 BR FEW110 08/07 Q1021=
200510291950 METAR ESMX 291950Z AUTO 17005KT 6000 BR FEW007 SCT008 BKN010 08/07 Q1021=
200510291920 METAR ESMX 291920Z AUTO 15006KT 120V190 6000 BR OVC007 08/07 Q1021=
200510291850 METAR ESMX 291850Z AUTO 16007KT 120V190 7000 BR OVC007 09/07 Q1021=
200510291820 METAR ESMX 291820Z AUTO 16006KT 140V210 6000 BR OVC007 08/07 Q1021=
200510291750 METAR ESMX 291750Z AUTO 16007KT 110V170 6000 BR OVC007 08/07 Q1021=
200510291720 METAR ESMX 291720Z AUTO 17007KT 140V200 7000 BR OVC007 08/07 Q1021=
200510291650 METAR ESMX 291650Z AUTO 16008KT 100V190 7000 BR OVC007 08/07 Q1021=
200510291620 METAR ESMX 291620Z AUTO 15006KT 120V180 8000 BR OVC008 08/07 Q1021=
200510291550 METAR ESMX 291550Z AUTO 15008KT 110V190 9000 OVC009 08/07 Q1021=
200510291520 METAR ESMX 291520Z AUTO 15007KT 9999 SCT011 09/06 Q1021=
200510291450 METAR ESMX 291450Z AUTO 15009KT 120V190 9999 NSC 09/07 Q1021=
200510291420 METAR ESMX 291420Z AUTO 16010KT 9999 NSC 10/07 Q1021=
200510291350 METAR ESMX 291350Z AUTO 15009KT 110V190 9999 NSC 10/07 Q1020=
200510291320 METAR ESMX 291320Z AUTO 16009KT 120V190 9999 FEW077 11/07 Q1021=
200510291250 METAR ESMX 291250Z AUTO 15009KT 110V190 9999 NSC 11/07 Q1020=
200510291220 METAR ESMX 291220Z AUTO 16011KT 120V190 9999 NSC 11/06 Q1020=
200510291150 METAR ESMX 291150Z AUTO 16012KT 110V200 9999 NSC 12/06 Q1021=
200510291120 METAR ESMX 291120Z AUTO 16010KT 120V190 9999 NSC 11/06 Q1020=
200510291050 METAR ESMX 291050Z AUTO 15009KT 120V190 9999 NSC 11/06 Q1021=
200510291020 METAR ESMX 291020Z AUTO 16010KT 120V190 9999 NSC 10/06 Q1021=
200510290950 METAR ESMX 290950Z 15011KT 120V180 CAVOK 10/06 Q1021=
200510290920 METAR ESMX 290920Z 17009KT 130V190 CAVOK 09/05 Q1021=
200510290850 METAR ESMX 290850Z 16010KT 120V200 CAVOK 09/05 Q1021=
200510290820 METAR ESMX 290820Z 15009KT 110V200 CAVOK 08/05 Q1021=
200510290750 METAR ESMX 290750Z 16008KT CAVOK 07/05 Q1022=
200510290720 METAR ESMX 290720Z 14008KT CAVOK 06/04 Q1022=
200510290650 METAR ESMX 290650Z 15007KT 110V170 CAVOK 06/04 Q1022=
200510290620 METAR ESMX 290620Z 15007KT 110V170 CAVOK 06/04 Q1022=
200510290550 METAR ESMX 290550Z AUTO 15007KT 110V190 9999 NSC 06/04 Q1022=
200510290520 METAR ESMX 290520Z AUTO 15007KT 110V190 9999 NSC 06/05 Q1022=
200510290450 METAR ESMX 290450Z AUTO 15006KT 120V190 9999 NSC 06/05 Q1022=
200510290420 METAR ESMX 290420Z AUTO 14005KT 100V190 9999 NSC 06/05 Q1022=
200510290350 METAR ESMX 290350Z AUTO 15006KT 110V190 9999 NSC 06/05 Q1022=
200510290320 METAR ESMX 290320Z AUTO 16007KT 110V190 9999 NSC 06/05 Q1022=
200510290250 METAR ESMX 290250Z AUTO 16007KT 9999 NSC 06/05 Q1023=
200510290220 METAR ESMX 290220Z AUTO 15007KT 110V170 9999 NSC 06/05 Q1023=
200510290150 METAR ESMX 290150Z AUTO 15006KT 110V190 9999 NSC 07/05 Q1023=
200510290120 METAR ESMX 290120Z AUTO 16007KT 100V170 9999 NSC 07/05 Q1023=
200510290050 METAR ESMX 290050Z AUTO 15007KT 110V190 9999 NSC 07/05 Q1024=
200510290020 METAR ESMX 290020Z AUTO 16007KT 9999 NSC 07/05 Q1024=
200510282350 METAR ESMX 282350Z AUTO 16008KT 9999 NSC 07/05 Q1024=
200510282320 METAR ESMX 282320Z AUTO 15008KT 9999 NSC 07/05 Q1024=
200510282250 METAR ESMX 282250Z AUTO 16007KT 9999 NSC 07/05 Q1024=
200510282220 METAR ESMX 282220Z AUTO 16007KT 130V200 9999 NSC 07/05 Q1024=
200510282150 METAR ESMX 282150Z AUTO 15007KT 100V190 9999 NSC 07/05 Q1024=
200510282120 METAR ESMX 282120Z AUTO 16008KT 110V190 9999 NSC 07/05 Q1024=
200510282050 METAR ESMX 282050Z AUTO 15010KT 110V180 9999 NSC 07/05 Q1024=
200510282020 METAR ESMX 282020Z AUTO 14009KT 110V170 9999 NSC 07/05 Q1024=
200510281950 METAR ESMX 281950Z 14008KT 070V170 CAVOK 07/05 Q1024=
200510281920 METAR ESMX 281920Z 14008KT 080V180 9999 FEW010 07/05 Q1024=
200510281850 METAR ESMX 281850Z 14007KT 100V170 9999 FEW010 07/05 Q1025=
200510281820 METAR ESMX 281820Z 15009KT 110V190 CAVOK 07/05 Q1025=
200510281750 METAR ESMX 281750Z 14009KT 110V170 CAVOK 07/05 Q1025=
200510281720 METAR ESMX 281720Z 15009KT 120V190 CAVOK 07/05 Q1025=
200510281650 METAR ESMX 281650Z 14008KT 110V170 CAVOK 08/05 Q1025=
200510281620 METAR ESMX 281620Z 15008KT 100V170 CAVOK 08/05 Q1025=
200510281550 METAR ESMX 281550Z 15010KT 110V200 CAVOK 09/05 Q1025=
200510281350 METAR ESMX 281350Z 15010G20KT 110V200 CAVOK 12/06 Q1026=
200510281320 METAR ESMX 281320Z 16011KT 140V200 CAVOK 12/06 Q1026=
200510281250 METAR ESMX 281250Z 16011KT 120V200 9999 FEW025 12/07 Q1026=
200510281220 METAR ESMX 281220Z 16010KT 120V200 9999 FEW020 12/07 Q1026=
200510281150 METAR ESMX 281150Z 16011KT 120V200 9999 SCT015 12/08 Q1026=
200510281120 METAR ESMX 281120Z 16010KT 110V220 9999 SCT012 11/08 Q1027=
200510281050 METAR ESMX 281050Z 15010KT 110V180 9999 OVC010 10/08 Q1027=
200510281020 METAR ESMX 281020Z 16010KT 110V200 9999 OVC009 10/08 Q1027=
200510280950 METAR ESMX 280950Z 15009KT 110V200 9999 OVC008 10/08 Q1027=
200510280920 METAR ESMX 280920Z 15008KT 9999 OVC008 10/08 Q1027=
200510280850 METAR ESMX 280850Z 15008KT 9999 OVC006 09/08 Q1027=
200510280820 METAR ESMX 280820Z 15007KT 110V170 9999 OVC006 09/07 Q1027=
200510280720 METAR ESMX 280720Z 15009KT 110V180 9999 BKN007 08/07 Q1027=
200510280650 METAR ESMX 280650Z 15008KT 110V180 9999 BKN010 08/06 Q1027=
200510280620 METAR ESMX 280620Z 16006KT CAVOK 07/06 Q1027=
200510280550 METAR ESMX 280550Z 15006KT 130V200 CAVOK 07/06 Q1027=
200510280520 METAR ESMX 280520Z 14007KT 9999 FEW010 08/06 Q1027=
200510280450 METAR ESMX 280450Z 16007KT 110V200 9999 FEW009 BKN060 08/06 Q1026=
200510280420 METAR ESMX 280420Z 15008KT 120V190 9999 FEW009 BKN060 08/06 Q1027=
200510280350 METAR ESMX 280350Z 15008KT 120V200 9999 FEW008 SCT021 BKN059 08/07 Q1027=
200510280320 METAR ESMX 280320Z AUTO 14007KT 110V170 9999 FEW008 OVC009 08/06 Q1027=
200510280250 METAR ESMX 280250Z AUTO 14007KT 110V170 9999 SCT009 OVC024 08/06 Q1027=
200510280220 METAR ESMX 280220Z AUTO 14007KT 100V170 9999 FEW024 OVC056 08/06 Q1027=
200510280150 METAR ESMX 280150Z AUTO 15008KT 9999 FEW024 OVC056 08/06 Q1027=
200510280120 METAR ESMX 280120Z AUTO 15009KT 110V170 9999 OVC057 08/06 Q1027=
200510280050 METAR ESMX 280050Z AUTO 16008KT 130V200 9999 SCT023 OVC058 08/06 Q1027=
200510280020 METAR ESMX 280020Z AUTO 14008KT 090V170 9999 OVC020 08/06 Q1026=
200510272350 METAR ESMX 272350Z 15007KT 110V190 9999 BKN020 08/06 Q1027=
200510272320 METAR ESMX 272320Z 14007KT 100V180 9999 OVC022 08/06 Q1027=
200510272250 METAR ESMX 272250Z 14006KT 100V180 9999 FEW017 OVC024 07/05 Q1027=
200510272220 METAR ESMX 272220Z 15006KT 100V190 9999 OVC018 07/05 Q1027=
200510272150 METAR ESMX 272150Z 15005KT 110V200 9999 SCT020 OVC025 07/05 Q1026=
200510272120 METAR ESMX 272120Z 15007KT 120V190 9999 SCT020 OVC025 07/04 Q1026=
200510272050 METAR ESMX 272050Z 14006KT 100V190 9999 SCT020 OVC026 07/04 Q1026=
200510272020 METAR ESMX 272020Z 15007KT 110V170 9999 FEW010 BKN027 07/05 Q1026=
200510271950 METAR ESMX 271950Z 14006KT 110V180 9999 FEW010 BNK027 07/05 Q1026=
200510271920 METAR ESMX 271920Z 13005KT 070V170 9999 FEW015 BKN028 07/06 Q1026=
200510271850 METAR ESMX 271850Z 15005KT 110V200 9999 FEW013 BKN028 08/06 Q1025=
200510271820 METAR ESMX 271820Z 13006KT 090V160 9999 FEW013 BKN030 08/06 Q1025=
200510271750 METAR ESMX 271750Z 14007KT 9999 BKN033 08/06 Q1024=
200510271720 METAR ESMX 271720Z 14005KT 110V170 9999 OVC034 08/06 Q1025=
200510271650 METAR ESMX 271650Z 15004KT 110V190 9999 BKN039 09/07 Q1024=
200510271620 METAR ESMX 271620Z 12004KT 070V160 9999 BKN039 09/07 Q1024=
200510271550 METAR ESMX 271550Z 12004KT 070V170 9999 FEW014 OVC042 09/06 Q1024=
200510271520 METAR ESMX 271520Z 14004KT 110V170 9999 SCT041 BKN048 09/07 Q1024=
200510271450 METAR ESMX 271450Z 12004KT 080V170 9999 SCT042 BKN055 09/07 Q1023=
200510271420 METAR ESMX 271420Z VRB03KT 9999 FEW045 BKN056 09/07 Q1023=
200510271350 METAR ESMX 271350Z 12004KT 080V160 9999 FEW025 BKN055 BKN079 09/07 Q1023=
200510271320 METAR ESMX 271320Z 15004KT 110V170 CAVOK 09/07 Q1023=
200510271250 METAR ESMX 271250Z VRB03KT 9999 FEW025 SCT065 09/07 Q1023=
200510271220 METAR ESMX 271220Z VRB02KT CAVOK 09/07 Q1023=
200510271150 METAR ESMX 271150Z 18004KT CAVOK 09/07 Q1023=
200510271120 METAR ESMX 271120Z VRB02KT 9999 FEW036 09/07 Q1022=
200510271050 METAR ESMX 271050Z VRB02KT CAVOK 08/07 Q1022=
200510271020 METAR ESMX 271020Z VRB02KT CAVOK 08/07 Q1022=
200510270950 METAR ESMX 270950Z VRB01KT 9999 FEW002 SCT080 07/06 Q1022=
200510270850 METAR ESMX 270850Z 00000KT 9999 BR FEW001 SCT087 05/05 Q1021=
200510270820 METAR ESMX 270820Z VRB01KT 9999 FEW001 BKN092 05/05 Q1021=
200510270620 METAR ESMX 270620Z VRB01KT 0350 R01/0800N R19/0750D BCFG NSC 02/02 Q1019=
200510270550 METAR ESMX 270550Z VRB01KT 0900 R01/P1500N R19/P1500U FG VV002 01/01 Q1019=
200510270520 METAR ESMX 270520Z 00000KT 0300 R01/0900V1300N R19/0800VP1500U FG VV002 01/01 Q1018=
200510270450 METAR ESMX 270450Z VRB02KT 0400 R19/0900VP1500D FG VV002 00/00 Q1018=
200510270420 METAR ESMX 270420Z VRB01KT 0500 R19/P1500U BCFG SKC 00/00 Q1018=
200510270350 METAR ESMX 270350Z VRB03KT 0700 R19/1000D FG VV002 02/02 Q1017=
200510270320 METAR ESMX 270320Z AUTO 25004KT 0400 R01/1100VP1500D R19/P1500N FG NSC 02/02 Q1016=
200510270250 METAR ESMX 270250Z AUTO VRB03KT 3800 BR NSC 01/01 Q1016=
200510270220 METAR ESMX 270220Z AUTO VRB03KT 4300 BR NSC 02/02 Q1016=
200510270150 METAR ESMX 270150Z AUTO VRB03KT 7000 BR NSC 02/02 Q1015=
200510270120 METAR ESMX 270120Z AUTO VRB03KT 9000 NSC 02/02 Q1015=
200510270050 METAR ESMX 270050Z AUTO 24004KT 9999 NSC 02/02 Q1014=
200510270020 METAR ESMX 270020Z VRB03KT CAVOK 04/03 Q1014=
200510262350 METAR ESMX 262350Z 25004KT CAVOK 04/03 Q1014=
200510262320 METAR ESMX 262320Z 25004KT CAVOK 04/03 Q1013=
200510262250 METAR ESMX 262250Z 26004KT CAVOK 05/04 Q1012=
200510262220 METAR ESMX 262220Z 26005KT CAVOK 05/04 Q1012=
200510262150 METAR ESMX 262150Z 27004KT CAVOK 06/04 Q1012=
200510262120 METAR ESMX 262120Z 28005KT 240V320 CAVOK 06/04 Q1011=
200510262050 METAR ESMX 262050Z 26004KT 220V290 CAVOK 06/04 Q1011=
200510262020 METAR ESMX 262020Z 26006KT CAVOK 07/04 Q1010=
200510261950 METAR ESMX 261950Z 27007KT 240V320 CAVOK 07/04 Q1009=
200510261920 METAR ESMX 261920Z 27008KT 240V300 CAVOK 08/04 Q1009=
200510261850 METAR ESMX 261850Z 27008KT 240V300 CAVOK 08/05 Q1008=
200510261820 METAR ESMX 261820Z 26008KT 230V300 CAVOK 08/05 Q1008=
200510261750 METAR ESMX 261750Z 26009KT 230V290 9999 FEW025 08/05 Q1007=
200510261720 METAR ESMX 261720Z 28010KT 250V310 CAVOK 09/05 Q1006=
200510261650 METAR ESMX 261650Z 28011KT 240V300 9999 FEW037 09/05 Q1006=
200510261620 METAR ESMX 261620Z 27011KT 230V310 9999 FEW027 SCT040 09/05 Q1005=
200510261550 METAR ESMX 261550Z 28011KT 240V320 9999 SCT035 BKN040 10/05 Q1004=
200510261520 METAR ESMX 261520Z 27013KT 240V310 9999 BKN040 10/04 Q1004=
200510261450 METAR ESMX 261450Z 27014G24KT 240V300 9999 FEW025 BKN042 11/05 Q1003=
200510261420 METAR ESMX 261420Z 26012G23KT 230V300 9999 FEW030 BKN040 11/06 Q1002=
200510261350 METAR ESMX 261350Z 27015G26KT 240V300 9999 FEW045 SCT050 11/06 Q1002=
200510261320 METAR ESMX 261320Z 27017G30KT 240V300 9999 FEW034 SCT045 BKN051 11/05 Q1001=
200510261250 METAR ESMX 261250Z 26015G27KT 230V290 9999 FEW028 SCT033 BKN041 12/06 Q1001=
200510261220 METAR ESMX 261220Z 26015KT 230V300 9999 FEW027 SCT032 BKN037 12/06 Q1000=
200510261150 METAR ESMX 261150Z 27013G25KT 230V310 9999 BKN023 11/07 Q0999=
200510261050 METAR ESMX 261050Z 25012KT 220V290 9999 BKN025 12/07 Q0998=
200510261020 METAR ESMX 261020Z 27012G24KT 230V320 9999 FEW023 BKN030 12/08 Q0998=
200510260950 METAR ESMX 260950Z 24013G29KT 200V280 9999 -SHRA FEW020 SCT030 BKN045 11/08 Q0997=
200510260920 METAR ESMX 260920Z 26014KT 9999 FEW023 SCT037 BKN045 11/08 Q0997=
200510260850 METAR ESMX 260850Z 26014KT 9999 FEW020 SCT025 BKN032 11/07 Q0996=
200510260820 METAR ESMX 260820Z 25013KT 210V290 9999 FEW018 SCT024 BKN028 11/08 Q0996=
200510260750 METAR ESMX 260750Z 23011KT 160V260 9999 FEW017 SCT021 BKN024 10/08 Q0995=
200510260720 METAR ESMX 260720Z 24010KT 210V280 9999 FEW019 SCT034 BKN041 10/08 Q0995=
200510260650 METAR ESMX 260650Z 24012KT 9999 FEW020 BKN045 10/08 Q0995=
200510260620 METAR ESMX 260620Z 22011G21KT 9999 FEW023 SCT046 10/08 Q0994=
200510260550 METAR ESMX 260550Z 22011KT 190V260 9999 FEW016 SCT038 10/08 Q0994=
200510260520 METAR ESMX 260520Z 25012KT 9999 FEW012 SCT016 10/08 Q0994=
200510260450 METAR ESMX 260450Z 24011KT 9999 FEW013 SCT018 10/08 Q0993 RERA=
200510260420 METAR ESMX 260420Z 23009KT 9000 -SHRA FEW012 SCT024 BKN050 10/09 Q0993=
200510260350 METAR ESMX 260350Z 21011KT 9999 -SHRA FEW013 SCT020 BKN050 10/08 Q0993=
200510260320 METAR ESMX 260320Z AUTO 24011KT 200V270 97 SCT058 10/08 Q0993=
200510260250 METAR ESMX 260250Z AUTO 21012KT 170V250 9999 FEW016 BKN056 10/08 Q0992=
200510260220 METAR ESMX 260220Z AUTO 24011KT 200V260 9999 FEW016 SCT030 OVC052 10/08 Q0992=
200510260150 METAR ESMX 260150Z AUTO 22012KT 9999 FEW018 SCT042 BKN050 10/08 Q0992=
200510260120 METAR ESMX 260120Z AUTO 24012G23KT 210V270 9999 FEW016 SCT022 BKN051 10/08 Q0992=
200510260050 METAR ESMX 260050Z AUTO 23012KT 200V260 9999 FEW014 SCT017 BKN019 10/09 Q0991=
200510260020 METAR ESMX 260020Z 23012KT 9999 FEW012 BKN016 OVC019 10/09 Q0991=
200510252350 METAR ESMX 252350Z 21012KT 170V250 9999 BKN011 BKN018 10/09 Q0991=
200510252320 METAR ESMX 252320Z 21011KT 190V250 9999 FEW010 SCT014 BKN018 10/09 Q0991 RERA=
200510252220 METAR ESMX 252220Z 23011KT 9999 FEW011 SCT017 BKN020 10/09 Q0991 RERA=
200510252150 METAR ESMX 252150Z 24010KT 190V270 9999 -SHRA FEW009 SCT013 BKN015 10/09 Q0991=
200510252120 METAR ESMX 252120Z 24009KT 9999 -SHRA BKN011 BKN017 10/09 Q0991=
200510252050 METAR ESMX 252050Z 21008KT 9999 FEW011 SCT017 BKN022 10/09 Q0991 RERA=
200510252020 METAR ESMX 252020Z 21009KT 190V250 9999 -RA SCT014 BKN052 10/09 Q0990=
200510251950 METAR ESMX 251950Z 21008KT 9999 RA FEW008 SCT019 10/09 Q0990=
200510251920 METAR ESMX 251920Z 22007KT 170V250 9999 RA FEW039 10/09 Q0990=
200510251850 METAR ESMX 251850Z 21011KT 180V240 6000 SHRA FEW008 SCT012 BKN022 11/10 Q0990=
200510251820 METAR ESMX 251820Z 20013KT 9999 -RA FEW008 SCT011 BKN014 12/11 Q0990=
200510251750 METAR ESMX 251750Z 20010KT 9000 -RA FEW005 SCT009 BKN011 12/11 Q0991=
200510251720 METAR ESMX 251720Z 20012KT 9999 FEW007 BKN011 OVC017 12/11 Q0991 RERA=
200510251620 METAR ESMX 251620Z 18011KT 9000 -RA FEW005 SCT006 BKN008 12/11 Q0991=
200510251550 METAR ESMX 251550Z 19011KT 8000 -RA FEW005 SCT007 BKN009 12/11 Q0992=
200510251520 METAR ESMX 251520Z 19012KT 9999 -RA FEW006 SCT008 BKN010 12/11 Q0992=
200510251450 METAR ESMX 251450Z 19013KT 9000 -RA FEW005 SCT006 OVC008 12/11 Q0993=
200510251420 METAR ESMX 251420Z 18012KT 7000 RA FEW004 BKN006 OVC010 12/11 Q0993=
200510251350 METAR ESMX 251350Z 16009KT 130V190 7000 -RA FEW002 BKN004 11/11 Q0994=
200510251320 METAR ESMX 251320Z 15008KT 110V170 5000 -RA BKN002 OVC004 10/09 Q0994=
200510251250 METAR ESMX 251250Z 14007KT 080V160 9000 -RA FEW002 BKN003 OVC005 09/09 Q0995=
200510251220 METAR ESMX 251220Z 14006KT 100V180 9999 -RA BKN004 OVC007 09/08 Q0996=
200510251150 METAR ESMX 251150Z 14007KT 110V170 9999 -RA BKN004 08/08 Q0997=
200510251120 METAR ESMX 251120Z 13007KT 080V160 9999 -RA BKN005 08/07 Q0998=
200510251050 METAR ESMX 251050Z 13006KT 070V170 9999 -RA BKN005 OVC008 07/07 Q0999=
200510251020 METAR ESMX 251020Z 11006KT 060V170 9999 -RA BKN005 07/06 Q0999=
200510250950 METAR ESMX 250950Z 12006KT 070V180 8000 SHRA BKN006 06/06 Q1000=
200510250920 METAR ESMX 250920Z 11007KT 050V180 6000 -RA BKN005 06/05 Q1001=
200510250850 METAR ESMX 250850Z 12008KT 060V170 3400 -RA BR BKN005 05/05 Q1001=
200510250820 METAR ESMX 250820Z 11009KT 020V160 6000 -RA BR SCT005 BKN007 05/04 Q1002=
200510250750 METAR ESMX 250750Z 10007KT 050V150 4000 -RA BR BKN005 04/04 Q1004=
200510250720 METAR ESMX 250720Z 12008G18KT 070V160 3500 -RA BR FEW006 BKN007 04/03 Q1004=
200510250650 METAR ESMX 250650Z 10009KT 050V150 4400 -RA BR FEW006 BKN010 04/03 Q1005=
200510250620 METAR ESMX 250620Z 11008KT 070V210 6000 -RA FEW006 BKN008 03/03 Q1005=
200510250550 METAR ESMX 250550Z 11008KT 060V160 9000 -RA FEW007 BKN009 03/03 Q1006=
200510250520 METAR ESMX 250520Z VRB06KT 8000 -RA FEW008 BKN009 03/03 Q1007=
200510250450 METAR ESMX 250450Z 10007KT 050V160 9999 -RA OVC010 03/02 Q1008=
200510250420 METAR ESMX 250420Z 11007KT 050V160 9000 -RA FEW012 OVC018 03/02 Q1009=
200510250350 METAR ESMX 250350Z 11006KT 070V200 9999 -RA FEW017 SCT023 BKN031 03/02 Q1010=
200510250320 METAR ESMX 250320Z AUTO 11008KT 070V170 9999 -RA FEW020 03/01 Q1010=
200510250250 METAR ESMX 250250Z AUTO 11007KT 050V170 9999 -RA FEW021 SCT033 03/01 Q1011=
200510250220 METAR ESMX 250220Z AUTO 11006KT 060V160 9999 NSC 03/M00 Q1012=
200510250150 METAR ESMX 250150Z AUTO 11006KT 050V170 9999 SCT023 02/M01 Q1013=
200510250120 METAR ESMX 250120Z AUTO 11006KT 030V160 9999 FEW027 02/M01 Q1013=
200510250050 METAR ESMX 250050Z 12006KT 080V170 9999 FEW020 BKN095 02/M01 Q1013=
200510250020 METAR ESMX 250020Z 11005KT 070V170 9999 FEW020 BKN100 02/M01 Q1014=
200510242350 METAR ESMX 242350Z 12005KT 050V160 9999 FEW020 BKN110 02/M01 Q1014=
200510242320 METAR ESMX 242320Z 12004KT 070V160 CAVOK 01/M01 Q1015=
200510242250 METAR ESMX 242250Z VRB03KT 9999 SCT027 01/M01 Q1016=
200510242220 METAR ESMX 242220Z VRB03KT 9999 SCT025 00/M01 Q1016=
200510242150 METAR ESMX 242150Z 11004KT 070V160 9999 SCT023 01/M02 Q1016=
200510242120 METAR ESMX 242120Z VRB03KT 9999 SCT025 00/M02 Q1017=
200510242050 METAR ESMX 242050Z VRB02KT 9999 NSC 01/M02 Q1017=
200510242020 METAR ESMX 242020Z VRB03KT 9999 FEW025 01/M02 Q1017=
200510241950 METAR ESMX 241950Z VRB03KT 9999 SCT025 01/M01 Q1017=
200510241920 METAR ESMX 241920Z VRB03KT 9999 SCT025 01/M01 Q1018=
200510241850 METAR ESMX 241850Z 12003KT 9999 OVC024 01/M01 Q1018=
200510241820 METAR ESMX 241820Z VRB02KT 9999 BKN025 02/M01 Q1018=
200510241750 METAR ESMX 241750Z VRB02KT 9999 OVC024 02/M00 Q1018=
200510241720 METAR ESMX 241720Z VRB03KT 9999 OVC024 02/M01 Q1018=
200510241650 METAR ESMX 241650Z VRB03KT 9999 BKN025 02/M00 Q1018=
200510241620 METAR ESMX 241620Z VRB02KT 9999 BKN023 03/M00 Q1018=
200510241520 METAR ESMX 241520Z VRB02KT 9999 OVC022 03/M01 Q1018=
200510241420 METAR ESMX 241420Z VRB02KT 9999 BKN025 03/M01 Q1018=
200510241350 METAR ESMX 241350Z 03004KT 9999 FEW020 SCT028 03/M00 Q1017=
200510241320 METAR ESMX 241320Z 02006KT 310V050 9999 -RASN FEW015 SCT020 BKN025 04/00 Q1017=
200510241250 METAR ESMX 241250Z 04004KT 350V060 9999 FEW014 SCT020 BKN025 03/00 Q1017=
200510241220 METAR ESMX 241220Z 01005KT 330V050 9999 BKN023 04/M01 Q1017=
200510241150 METAR ESMX 241150Z 01005KT 9999 FEW019 BKN022 04/M01 Q1017=
200510241120 METAR ESMX 241120Z 01006KT 320V030 9999 FEW019 BKN022 04/M01 Q1017=
200510241050 METAR ESMX 241050Z 01006KT 9999 FEW019 BKN022 04/M01 Q1017=
200510241020 METAR ESMX 241020Z 35007KT 9999 FEW018 BKN022 03/M01 Q1016=
200510240950 METAR ESMX 240950Z 36008KT 9999 FEW017 SCT020 04/M01 Q1016=
200510240920 METAR ESMX 240920Z 02011KT 9999 FEW015 SCT020 03/M00 Q1016=
200510240850 METAR ESMX 240850Z 35009KT 9999 FEW015 BKN020 04/00 Q1015=
200510240820 METAR ESMX 240820Z 34007KT 9999 SCT013 03/M00 Q1015=
200510240750 METAR ESMX 240750Z 31007KT 9999 BKN012 02/00 Q1015=
200510240720 METAR ESMX 240720Z 31008KT 9999 FEW009 BKN011 02/00 Q1014=
200510240650 METAR ESMX 240650Z 31007KT 290V010 9999 BKN012 02/00 Q1014=
200510240620 METAR ESMX 240620Z 30007KT 280V340 9999 BKN010 02/00 Q1013=
200510240550 METAR ESMX 240550Z 29007KT 260V340 9999 BKN013 02/00 Q1012=
200510240520 METAR ESMX 240520Z 27006KT 230V320 9999 BKN015 02/00 Q1012=
200510240450 METAR ESMX 240450Z 28007KT 240V300 9999 -SHRA FEW015 SCT018 BKN021 02/00 Q1011=
200510240420 METAR ESMX 240420Z 31007KT 9999 FEW012 BKN015 02/00 Q1011=
200510240350 METAR ESMX 240350Z 30008KT 250V340 9999 FEW012 BKN015 02/01 Q1011=
200510240320 METAR ESMX 240320Z AUTO 27007KT 250V320 9999 FEW012 OVC015 03/01 Q1010=
200510240250 METAR ESMX 240250Z AUTO 30009KT 9999 FEW009 OVC013 03/01 Q1010=
200510240220 METAR ESMX 240220Z AUTO 26007KT 230V290 9999 FEW011 OVC020 03/01 Q1010=
200510240150 METAR ESMX 240150Z AUTO 27006KT 9999 FEW014 BKN021 03/02 Q1009=
200510240120 METAR ESMX 240120Z AUTO 26005KT 210V290 9999 SCT018 BKN023 03/02 Q1009=
200510240050 METAR ESMX 240050Z AUTO 27005KT 250V320 9999 FEW013 BKN020 03/02 Q1009=
200510240020 METAR ESMX 240020Z 29006KT 260V330 9999 FEW005 SCT007 BKN010 03/02 Q1008=
200510232350 METAR ESMX 232350Z 26005KT 9999 SCT005 BKN023 03/02 Q1008=
200510232320 METAR ESMX 232320Z AUTO 26004KT 230V290 9999 FEW022 SCT028 BKN046 02/02 Q1007=
200510232250 METAR ESMX 232250Z VRB03KT 9999 FEW021 BKN042 02/02 Q1007=
200510232220 METAR ESMX 232220Z VRB03KT 9999 FEW029 SCT048 02/01 Q1007=
200510232150 METAR ESMX 232150Z 25004KT 9999 FEW038 02/02 Q1007=
200510232120 METAR ESMX 232120Z 22005KT 9999 FEW041 03/02 Q1006=
200510232050 METAR ESMX 232050Z 23005KT 9999 FEW040 03/02 Q1006=
200510232020 METAR ESMX 232020Z 23005KT CAVOK 03/02 Q1006=
200510231950 METAR ESMX 231950Z 22004KT CAVOK 03/02 Q1006=
200510231920 METAR ESMX 231920Z 25004KT 9999 FEW025 03/02 Q1005=
200510231850 METAR ESMX 231850Z 28004KT 200V330 9999 FEW015 SCT023 04/03 Q1005=
200510231820 METAR ESMX 231820Z VRB02KT 9999 FEW025 03/02 Q1005=
200510231750 METAR ESMX 231750Z VRB03KT 9999 FEW026 04/02 Q1005=
200510231720 METAR ESMX 231720Z VRB03KT 9999 FEW025 SCT061 05/03 Q1004=
200510231650 METAR ESMX 231650Z 24004KT 9999 FEW038 SCT043 03/02 Q1004=
200510231620 METAR ESMX 231620Z VRB03KT 9999 FEW040 03/03 Q1004=
200510231550 METAR ESMX 231550Z VRB03KT CAVOK 06/04 Q1004=
200510231520 METAR ESMX 231520Z 26006KT 9999 FEW020 SCT050 07/04 Q1004=
200510231450 METAR ESMX 231450Z 28008KT 250V320 9999 FEW020 BKN047 08/04 Q1003 RESH=
200510231420 METAR ESMX 231420Z 27012KT 240V310 9999 FEW018 SCT030 BKN039 07/05 Q1003 RESH=
200510231350 METAR ESMX 231350Z 25012KT 200V270 9999 FEW019 SCT026 BKN033 09/05 Q1002=
200510231320 METAR ESMX 231320Z 24006KT 200V270 9999 FEW020 SCT030 BKN046 09/06 Q1002=
200510231250 METAR ESMX 231250Z 24008KT 200V280 9999 SCT020 SCT028 09/05 Q1002=
200510231220 METAR ESMX 231220Z AUTO 25006KT 210V280 9999 FEW021 SCT041 BKN047 09/05 Q1001=
200510231150 METAR ESMX 231150Z AUTO 23006KT 9999 FEW021 SCT027 BKN037 09/05 Q1001=
200510231120 METAR ESMX 231120Z AUTO 24006KT 200V280 9999 FEW022 SCT037 OVC044 09/06 Q1001=
200510231050 METAR ESMX 231050Z AUTO 25008KT 200V290 9999 FEW018 SCT023 BKN030 10/05 Q1001=
200510231020 METAR ESMX 231020Z AUTO 25007KT 210V280 9999 FEW017 SCT035 09/06 Q1001=
200510230950 METAR ESMX 230950Z AUTO 24007KT 210V280 9999 FEW007 SCT011 BKN014 09/07 Q1001=
200510230920 METAR ESMX 230920Z AUTO 21005KT 160V240 9999 BKN006 BKN019 08/07 Q1000=
200510230850 METAR ESMX 230850Z AUTO 18004G16KT 9999 FEW007 SCT023 08/07 Q1000=
200510230820 METAR ESMX 230820Z AUTO VRB02KT 9999 FEW013 OVC020 07/06 Q1000 REDZ=
200510230750 METAR ESMX 230750Z AUTO VRB02KT 9999 FEW008 SCT011 BKN016 07/06 Q1000 REDZ=
200510230720 METAR ESMX 230720Z AUTO 18004KT 9999 BKN020 OVC033 07/06 Q1000=
200510230650 METAR ESMX 230650Z AUTO VRB03KT 9999 BKN022 BKN057 06/06 Q1000=
200510230620 METAR ESMX 230620Z AUTO VRB02KT 9999 FEW026 BKN057 05/04 Q0999=
200510230550 METAR ESMX 230550Z AUTO VRB03KT 9999 SCT059 04/04 Q0999=
200510230520 METAR ESMX 230520Z AUTO VRB03KT 9999 FEW013 SCT016 06/05 Q0999=
200510230450 METAR ESMX 230450Z AUTO 24004KT 200V270 9999 BKN014 07/05 Q0999=
200510230420 METAR ESMX 230420Z AUTO 25004KT 9999 BKN015 06/05 Q0999=
200510230350 METAR ESMX 230350Z AUTO 26006KT 230V300 9999 FEW018 06/04 Q0999=
200510230320 METAR ESMX 230320Z AUTO 27010KT 240V300 9999 OVC015 07/04 Q0998=
200510230250 METAR ESMX 230250Z AUTO 27010KT 220V300 9999 FEW017 OVC020 07/05 Q0998=
200510230220 METAR ESMX 230220Z AUTO 27011KT 230V300 9999 BKN013 OVC019 07/05 Q0998=
200510230150 METAR ESMX 230150Z AUTO 25009KT 230V290 9999 FEW015 OVC018 08/06 Q0997=
200510230120 METAR ESMX 230120Z AUTO 27009KT 180V300 9999 FEW013 SCT018 OVC020 08/06 Q0997=
200510230050 METAR ESMX 230050Z AUTO 25008KT 220V290 9999 BKN012 OVC018 08/07 Q0996=
200510230020 METAR ESMX 230020Z AUTO 25007KT 230V290 9999 BKN011 OVC018 09/07 Q0996=
200510222350 METAR ESMX 222350Z AUTO 26008KT 230V310 9999 OVC011 09/08 Q0996=
200510222320 METAR ESMX 222320Z AUTO 27009KT 240V300 9999 FEW008 BKN013 BKN017 10/08 Q0995=
200510222250 METAR ESMX 222250Z AUTO 23008KT 9999 FEW007 SCT009 BKN010 10/09 Q0994=
200510222220 METAR ESMX 222220Z AUTO 23009KT 200V260 9999 FEW007 BKN010 OVC014 11/10 Q0994=
200510222150 METAR ESMX 222150Z AUTO 21008KT 170V240 9999 FEW007 OVC009 11/10 Q0994=
200510222120 METAR ESMX 222120Z AUTO 20009KT 9999 FEW009 BKN010 OVC018 11/10 Q0994=
200510222050 METAR ESMX 222050Z AUTO 20010KT 9999 FEW007 BKN011 BKN020 11/10 Q0994=
200510222020 METAR ESMX 222020Z AUTO 20010KT 9999 FEW007 SCT010 OVC013 11/10 Q0994=
200510221950 METAR ESMX 221950Z AUTO 21009KT 9999 FEW008 BKN010 OVC015 11/10 Q0993 REDZ=
200510221920 METAR ESMX 221920Z AUTO 19010KT 9999 FEW009 SCT015 OVC051 11/10 Q0993 REDZ=
200510221850 METAR ESMX 221850Z AUTO 23008KT 9999 FEW008 SCT015 BKN056 11/10 Q0993=
200510221820 METAR ESMX 221820Z AUTO 22009KT 9999 FEW012 SCT015 BKN019 11/10 Q0993 REDZ=
200510221750 METAR ESMX 221750Z AUTO 21008KT 170V240 9999 -SHRA FEW008 SCT013 BKN015 11/10 Q0992=
200510221720 METAR ESMX 221720Z AUTO 20009KT 9999 -SHRA FEW006 SCT009 BKN012 11/10 Q0992=
200510221650 METAR ESMX 221650Z AUTO 22008KT 8000 -SHRA FEW006 SCT009 OVC012 11/10 Q0992=
200510221620 METAR ESMX 221620Z AUTO 20008KT 4500 -SHRA FEW006 SCT011 BKN014 11/10 Q0991=
200510221550 METAR ESMX 221550Z AUTO 21009KT 180V240 9999 -RA FEW006 SCT015 BKN021 11/10 Q0991=
200510221520 METAR ESMX 221520Z AUTO 21009KT 170V260 3400 +RA FEW004 SCT007 BKN010 11/10 Q0991=
200510221450 METAR ESMX 221450Z AUTO 20010KT 4000 SHRA FEW006 SCT008 BKN010 11/10 Q0991=
200510221420 METAR ESMX 221420Z AUTO 20012KT 5000 -SHRA FEW005 SCT008 BKN010 11/10 Q0991=
200510221350 METAR ESMX 221350Z AUTO 19013KT 3700 -RA FEW009 SCT012 BKN015 11/10 Q0991=
200510221320 METAR ESMX 221320Z AUTO 19013KT 9999 FEW015 SCT018 BKN022 12/10 Q0990 REDZ=
200510221250 METAR ESMX 221250Z AUTO 21012KT 9999 FEW013 SCT015 BKN022 12/10 Q0991 RERA=
200510221220 METAR ESMX 221220Z AUTO 19014KT 150V210 8000 -SHRA FEW009 BKN014 OVC021 12/11 Q0991=
200510221150 METAR ESMX 221150Z AUTO 19013KT 9000 -SHRA FEW011 SCT018 BKN022 12/11 Q0991=
200510221120 METAR ESMX 221120Z AUTO 20011KT 8000 SHRA FEW015 BKN020 BKN055 12/11 Q0991=
200510221050 METAR ESMX 221050Z AUTO 20013KT 9999 -SHRA FEW015 SCT019 BKN022 13/11 Q0991=
200510221020 METAR ESMX 221020Z AUTO 18012KT 150V210 9999 FEW014 SCT017 BKN021 13/11 Q0991=
200510220950 METAR ESMX 220950Z AUTO 21011KT 9999 -SHRA FEW015 SCT018 BKN023 12/11 Q0992=
200510220920 METAR ESMX 220920Z 20012KT 9999 FEW013 SCT017 BKN054 13/11 Q0992=
200510220850 METAR ESMX 220850Z 21013KT 9999 FEW009 SCT019 BKN050 13/11 Q0992=
200510220820 METAR ESMX 220820Z 21012KT 170V240 7000 BR FEW008 SCT012 BKN015 13/11 Q0991=
200510220750 METAR ESMX 220750Z 19011KT 5000 BR FEW007 SCT009 BKN012 13/12 Q0992=
200510220720 METAR ESMX 220720Z 19014KT 5000 FEW005 SCT007 BKN008 13/12 Q0992 RERA=
200510220650 METAR ESMX 220650Z 19012KT 4100 -RA BKN005 OVC009 12/12 Q0992=
200510220620 METAR ESMX 220620Z 19008KT 3700 -RA FEW005 SCT007 BKN009 12/12 Q0992=
200510220550 METAR ESMX 220550Z AUTO 18012KT 4300 -SHRA FEW005 SCT007 BKN008 12/12 Q0992=
200510220520 METAR ESMX 220520Z AUTO 18013KT 120V200 4700 -RA FEW003 SCT005 BKN007 12/12 Q0992=
200510220450 METAR ESMX 220450Z AUTO 17010KT 140V210 2400 RA BKN002 OVC006 12/11 Q0992=
200510220420 METAR ESMX 220420Z AUTO 16007KT 2500 RA BKN001 OVC005 12/11 Q0993=
200510220350 METAR ESMX 220350Z AUTO 16008KT 120V190 1100 R01/P1500N R19/P1500N FG OVC001 11/11 Q0993=
200510220320 METAR ESMX 220320Z AUTO 17007KT 0550 R01/P1500N R19/P1500D FG VV001 11/11 Q0994=
200510220250 METAR ESMX 220250Z AUTO 15006KT 0750 R01/P1500N R19/P1500N FG VV001 11/11 Q0994=
200510220220 METAR ESMX 220220Z AUTO 16006KT 0700 R01/P1500N R19/P1500N -SHRA VV001 11/11 Q0995=
200510220150 METAR ESMX 220150Z AUTO 15005KT 110V200 1400 R01/P1500N R19/P1500N -RA VV002 11/10 Q0995=
200510220120 METAR ESMX 220120Z AUTO 15006KT 110V190 5000 OVC002 11/10 Q0996 REDZ=
200510220050 METAR ESMX 220050Z AUTO 14004KT 110V170 4800 OVC002 10/10 Q0996 RERA=
200510220020 METAR ESMX 220020Z AUTO VRB02KT 4200 SHRA OVC003 10/10 Q0997=
200510212350 METAR ESMX 212350Z AUTO VRB03KT 8000 -SHRA OVC002 10/10 Q0997=
200510212320 METAR ESMX 212320Z AUTO 08004KT 010V140 5000 -RA SCT002 BKN004 OVC006 10/09 Q0998=
200510212250 METAR ESMX 212250Z AUTO 06005KT 040V110 3700 RA FEW004 SCT009 BKN013 09/09 Q0998=
200510212220 METAR ESMX 212220Z AUTO 07004KT 030V100 3600 +RA FEW012 SCT024 BKN029 09/09 Q0999=
200510212150 METAR ESMX 212150Z AUTO VRB02KT 2900 RA FEW006 SCT030 BKN038 09/09 Q1000=
200510212120 METAR ESMX 212120Z AUTO VRB01KT 4100 -RA FEW007 SCT047 BKN062 09/09 Q1001=
200510212050 METAR ESMX 212050Z AUTO VRB03KT 5000 -SHRA BKN004 OVC046 09/09 Q1001=
200510212020 METAR ESMX 212020Z AUTO 15004KT 120V190 5000 -SHRA BKN004 09/09 Q1002=
200510211950 METAR ESMX 211950Z 16005KT 130V190 5000 BR BKN004 09/09 Q1002=
200510211920 METAR ESMX 211920Z 14005KT 110V180 7000 BR FEW005 SCT100 09/08 Q1002=
200510211850 METAR ESMX 211850Z 14004KT 9999 FEW025 SCT100 09/08 Q1002=
200510211820 METAR ESMX 211820Z 14005KT 100V170 9999 FEW026 SCT110 10/08 Q1003=
200510211750 METAR ESMX 211750Z 15005KT 9999 FEW024 10/08 Q1003=
200510211720 METAR ESMX 211720Z 15004KT 9999 FEW021 09/07 Q1004=
200510211650 METAR ESMX 211650Z 17004KT 9999 FEW023 SCT110 10/08 Q1004=
200510211620 METAR ESMX 211620Z 16004KT 9999 FEW023 SCT110 10/08 Q1004=
200510211550 METAR ESMX 211550Z 16004KT CAVOK 11/08 Q1004=
200510211520 METAR ESMX 211520Z VRB03KT 9999 FEW020 BKN060 11/08 Q1004=
200510211450 METAR ESMX 211450Z 20005KT 9999 FEW020 BKN060 11/08 Q1004=
200510211420 METAR ESMX 211420Z 19006KT 9999 FEW020 BKN060 12/08 Q1004=
200510211350 METAR ESMX 211350Z 19007KT 9999 FEW020 SCT060 12/08 Q1005=
200510211250 METAR ESMX 211250Z 22009KT 9999 FEW023 SCT062 12/07 Q1005=
200510211220 METAR ESMX 211220Z 20011KT 9999 FEW023 12/08 Q1005=
200510211150 METAR ESMX 211150Z 20009KT 190V250 9999 FEW020 BKN025 12/08 Q1005=
200510211120 METAR ESMX 211120Z 22009KT 170V240 9999 FEW019 SCT022 BKN026 12/08 Q1005=
200510211050 METAR ESMX 211050Z 20011KT 9999 FEW015 BKN021 12/08 Q1006=
200510211020 METAR ESMX 211020Z 20010KT 9999 FEW015 SCT021 11/08 Q1006=
200510210950 METAR ESMX 210950Z 21009KT 170V240 9999 FEW016 BKN021 11/08 Q1006=
200510210920 METAR ESMX 210920Z 23010KT 9999 FEW012 BKN015 11/09 Q1006=
200510210850 METAR ESMX 210850Z 22008KT 200V260 9999 FEW011 BKN015 11/09 Q1005=
200510210820 METAR ESMX 210820Z 23007KT 190V260 9999 FEW012 11/09 Q1005=
200510210750 METAR ESMX 210750Z 21008KT 9999 FEW012 10/09 Q1005=
200510210650 METAR ESMX 210650Z 22006KT 9999 BKN010 BKN055 10/09 Q1005=
200510210620 METAR ESMX 210620Z 22007KT 9999 SCT010 BKN028 10/09 Q1005 REDZ=
200510210550 METAR ESMX 210550Z 20008KT 9999 FEW008 OVC030 10/09 Q1004=
200510210520 METAR ESMX 210520Z 22007KT 9999 FEW009 BKN012 OVC029 10/09 Q1004=
200510210450 METAR ESMX 210450Z 21007KT 9999 FEW009 BKN015 10/08 Q1004=
200510210420 METAR ESMX 210420Z 22007KT 9999 FEW013 SCT035 BKN060 09/08 Q1004=
200510210350 METAR ESMX 210350Z 22008KT 190V250 9999 FEW009 BKN013 10/08 Q1004=
200510210320 METAR ESMX 210320Z 23011KT 200V260 9999 FEW009 BKN011 10/09 Q1004=
200510210250 METAR ESMX 210250Z AUTO 23010KT 200V280 8000 -SHRA FEW010 SCT014 BKN017 10/09 Q1004=
200510210220 METAR ESMX 210220Z AUTO 22008KT 9999 -SHRA FEW007 SCT012 BKN015 10/09 Q1004=
200510210150 METAR ESMX 210150Z AUTO 20008KT 8000 -SHRA FEW012 BKN015 BKN050 10/09 Q1004=
200510210120 METAR ESMX 210120Z AUTO 21008KT 9000 FEW012 BKN015 OVC053 10/09 Q1004=
200510210050 METAR ESMX 210050Z AUTO 22009KT 9999 FEW013 SCT017 BKN059 10/09 Q1004=
200510210020 METAR ESMX 210020Z 20010KT 9999 BR SCT012 BKN016 BKN047 11/09 Q1004=
200510202350 METAR ESMX 202350Z 20011KT 8000 BR FEW011 BKN015 10/09 Q1004=
200510202320 METAR ESMX 202320Z 21011KT 7000 BR FEW010 BKN013 10/09 Q1003=
200510202250 METAR ESMX 202250Z 21012KT 6000 BR BKN010 10/09 Q1004=
200510202220 METAR ESMX 202220Z 20010KT 5000 BR FEW011 BKN013 10/09 Q1004=
200510202150 METAR ESMX 202150Z 19010KT 5000 BR FEW009 BKN014 10/09 Q1004=
200510202120 METAR ESMX 202120Z 18010KT 4500 -RA BR FEW009 BKN011 10/09 Q1004=
200510202050 METAR ESMX 202050Z 18008KT 140V200 5000 BR BKN011 10/09 Q1004=
200510202020 METAR ESMX 202020Z 18008KT 4600 BR FEW009 BKN014 10/09 Q1005=
200510201950 METAR ESMX 201950Z 18008KT 3700 BR FEW009 BKN015 10/09 Q1005=
200510201920 METAR ESMX 201920Z 18009KT 4100 SCT009 OVC016 10/09 Q1005 REDZ=
200510201850 METAR ESMX 201850Z 19009KT 3400 SCT006BKN010 10/09 Q1005 REDZ=
200510201820 METAR ESMX 201820Z 20010KT 160V230 2500 -SHRA BR FEW005 OVC006 10/09 Q1005=
200510201720 METAR ESMX 201720Z 17009KT 130V200 4400 -RA BKN009 10/09 Q1005=
200510201650 METAR ESMX 201650Z 15009KT 5000 BR BKN009 10/09 Q1005=
200510201620 METAR ESMX 201620Z 15007KT 110V200 5000 BR SCT009 BKN012 10/08 Q1006 REDZ=
200510201550 METAR ESMX 201550Z 16007KT 120V190 6000 -SHRA BKN012 BKN080 10/08 Q1006=
200510201520 METAR ESMX 201520Z 17007KT 7000 BR FEW013 BKN016 BKN068 10/08 Q1006=
200510201450 METAR ESMX 201450Z 17008KT 7000 BR BKN018 10/08 Q1007=
200510201420 METAR ESMX 201420Z 17008KT 140V200 8000 BR BKN014 BKN020 11/08 Q1007=
200510201350 METAR ESMX 201350Z 16009KT 130V200 8000 BR BKN015 11/08 Q1008=
200510201320 METAR ESMX 201320Z 15007KT 110V190 8000 BR BKN018 11/08 Q1008=
200510201250 METAR ESMX 201250Z 16007KT 120V200 9000 BR SCT019 BKN150 11/07 Q1008=
200510201220 METAR ESMX 201220Z 16007KT 140V200 9000 BR FEW045 11/07 Q1009=
200510201150 METAR ESMX 201150Z 16007KT 120V200 8000 BR FEW015 11/08 Q1008=
200510201120 METAR ESMX 201120Z 14007KT 110V190 6000 BR FEW011 SCT060 11/08 Q1009=
200510201050 METAR ESMX 201050Z 17008KT 140V200 5000 BR FEW008 BKN012 10/09 Q1010=
200510201020 METAR ESMX 201020Z 17008KT 110V190 4200 BR SCT006 BKN009 09/09 Q1010=
200510200950 METAR ESMX 200950Z 18007KT 140V210 3800 BR SCT006 BKN010 09/08 Q1011=
200510200920 METAR ESMX 200920Z 15006KT 110V190 2900 BR OVC003 08/08 Q1011=
200510200850 METAR ESMX 200850Z 16006KT 110V200 2500 BR BKN002 OVC005 07/07 Q1011=
200510200820 METAR ESMX 200820Z 16005KT 120V200 2200 BR SCT001 BKN007 07/07 Q1011=
200510200750 METAR ESMX 200750Z 14004KT 100V180 1200 R19/P1500U BR OVC001 06/06 Q1012=
200510200720 METAR ESMX 200720Z 15006KT 120V180 0750 R19/1300N FG OVC001 06/06 Q1012=
200510200650 METAR ESMX 200650Z 13006KT 080V190 0400 R01/0650N R19/1200N FG VV002 05/05 Q1012=
200510200620 METAR ESMX 200620Z 15005KT 0300 R01/0550N R19/1000N FG VV002 05/05 Q1013=
200510200550 METAR ESMX 200550Z 16004KT 140V200 0500 R19/0600V1100U FG SCT001 BKN003 04/04 Q1013=
200510200520 METAR ESMX 200520Z VRB03KT 2700 BR MIFG SCT001 05/05 Q1013=
200510200450 METAR ESMX 200450Z VRB03KT 0800 R01/P1500N R19/P1500N FG VV004 05/05 Q1013=
200510200420 METAR ESMX 200420Z 13004KT 100V160 0800 R01/P1500D R19/P1500N FG VV004 05/05 Q1014=
200510200350 METAR ESMX 200350Z VRB02KT 0400 R01/1100N R19/1400U FG VV002 05/05 Q1015=
200510200320 METAR ESMX 200320Z 13004KT 080V170 0250 R01/0800N R19/0900N FG VV002 05/05 Q1015=
200510200250 METAR ESMX 200250Z AUTO VRB03KT 0200 R01/0800U R19/0900N FG VV000 05/05 Q1015=
200510200220 METAR ESMX 200220Z AUTO VRB03KT 0200 R01/0700D R19/0800V1000N FG VV000 05/05 Q1016=
200510200150 METAR ESMX 200150Z AUTO VRB03KT 0300 R01/1000D R19/P1500N FG FEW002 05/05 Q1016=
200510200120 METAR ESMX 200120Z AUTO VRB03KT 0300 R01/0800VP1500D R19/1000VP1500U FG BKN000 05/04 Q1016=
200510200050 METAR ESMX 200050Z AUTO VRB03KT 0350 R01/0900V1400N R19/P1500N FG VV001 05/05 Q1016=
200510200020 METAR ESMX 200020Z AUTO 15004KT 120V190 0250 R01/0800N R19/1400U FG VV001 05/05 Q1017=
200510192350 METAR ESMX 192350Z 15004KT 110V170 0400 R01/0800N R19/0900V1300N FG VV002 05/05 Q1017=
200510192320 METAR ESMX 192320Z VRB03KT 0300 R01/0700N R19/0800U FG VV002 05/05 Q1017=
200510192250 METAR ESMX 192250Z VRB03KT 0200 R01/0450N R19/0400V0550N FG VV002 03/03 Q1018=
200510192220 METAR ESMX 192220Z VRB03KT 0800 R01/0550D R19/0900U FG VV002 00/00 Q1018=
200510192150 METAR ESMX 192150Z VRB02KT 4000 BCFG NSC 00/00 Q1018=
200510192120 METAR ESMX 192120Z VRB02KT 5000 BCFG NSC 01/01 Q1019=
200510192050 METAR ESMX 192050Z VRB03KT 6000 BCFG NSC 03/02 Q1019=
200510192020 METAR ESMX 192020Z VRB03KT 9000 MIFG NSC 02/02 Q1019=
200510191950 METAR ESMX 191950Z 16004KT CAVOK 04/04 Q1019=
200510191920 METAR ESMX 191920Z VRB03KT CAVOK 02/02 Q1019=
200510191850 METAR ESMX 191850Z VRB02KT CAVOK 03/02 Q1020=
200510191820 METAR ESMX 191820Z VRB03KT CAVOK 03/02 Q1020=
200510191750 METAR ESMX 191750Z 15004KT CAVOK 03/03 Q1020=
200510191720 METAR ESMX 191720Z VRB03KT CAVOK 03/02 Q1020=
200510191650 METAR ESMX 191650Z VRB02KT CAVOK 03/02 Q1021=
200510191620 METAR ESMX 191620Z VRB02KT CAVOK 05/03 Q1021=
200510191550 METAR ESMX 191550Z VRB01KT CAVOK 06/04 Q1021=
200510191520 METAR ESMX 191520Z VRB02KT CAVOK 11/05 Q1021=
200510191450 METAR ESMX 191450Z VRB03KT CAVOK 12/03 Q1021=
200510191420 METAR ESMX 191420Z 15004KT 120V180 CAVOK 12/02 Q1022=
200510191350 METAR ESMX 191350Z 14005KT CAVOK 13/01 Q1022=
200510191320 METAR ESMX 191320Z 15004KT CAVOK 13/01 Q1022=
200510191250 METAR ESMX 191250Z 13004KT CAVOK 13/02 Q1022=
200510191220 METAR ESMX 191220Z VRB02KT CAVOK 12/02 Q1023=
200510191150 METAR ESMX 191150Z VRB02KT CAVOK 12/03 Q1023=
200510191120 METAR ESMX 191120Z VRB02KT CAVOK 12/03 Q1023=
200510191050 METAR ESMX 191050Z VRB02KT CAVOK 11/04 Q1024=
200510191020 METAR ESMX 191020Z VRB02KT CAVOK 10/04 Q1024=
200510190950 METAR ESMX 190950Z VRB02KT CAVOK 09/04 Q1024=
200510190920 METAR ESMX 190920Z VRB02KT CAVOK 08/04 Q1024=
200510190850 METAR ESMX 190850Z VRB01KT CAVOK 06/06 Q1025=
200510190820 METAR ESMX 190820Z 00000KT 9999 BCFG FEW001 04/04 Q1025=
200510190750 METAR ESMX 190750Z 00000KT 0500 R01/0600V1100N R19/0500V0800N FG VV003 01/01 Q1025=
200510190720 METAR ESMX 190720Z 00000KT 0300 R01/0350N R19/0375N FG VV002 M00/M00 Q1025=
200510190650 METAR ESMX 190650Z VRB01KT 0350 R01/0700N R19/0250N FG VV002 M01/M01 Q1025=
200510190620 METAR ESMX 190620Z 00000KT 0400 R01/0900V1100D R19/0300N FG VV002 M02/M02 Q1025=
200510190550 METAR ESMX 190550Z 00000KT 0300 R01/0800U R19/0225N FG VV002 M02/M02 Q1025=
200510190520 METAR ESMX 190520Z VRB01KT 0400 R01/0800VP1500U R19/0250N FG VV002 M02/M02 Q1025=
200510190450 METAR ESMX 190450Z 00000KT 0100 R01/0550N R19/0275N FG VV002 M02/M02 Q1025=
200510190420 METAR ESMX 190420Z 00000KT 0900 R01/P1500N R19/0400V0550D BCFG NSC M02/M02 Q1025=
200510190350 METAR ESMX 190350Z 00000KT 0250 R01/0800V1400U R19/0900U FZFG VV002 M02/M02 Q1025=
200510190320 METAR ESMX 190320Z 00000KT 0100 R01/0750N R19/0500N BCFG VV001 M01/M01 Q1026=
200510190250 METAR ESMX 190250Z AUTO 00000KT 0100 R01/0350V0450N R19/0450N FG VV000 M02/M02 Q1026=
200510190220 METAR ESMX 190220Z AUTO 00000KT 0350 R01/0900VP1500D R19/0650D FG VV000 M02/M02 Q1026=
200510190150 METAR ESMX 190150Z AUTO 00000KT 0150 R01/0650D R19/0800V1300U FG VV000 M02/M02 Q1026=
200510190120 METAR ESMX 190120Z AUTO 00000KT 9999 R01/P1500N R19/0900VP1500D FG VV000 M02/M02 Q1026=
200510190050 METAR ESMX 190050Z AUTO VRB01KT 9999 NSC M02/M02 Q1026=
200510190020 METAR ESMX 190020Z AUTO VRB01KT 0500 R01/P1500N R19/P1500N BCFG NSC M01/M01 Q1026=
200510182350 METAR ESMX 182350Z 00000KT 9999 BCFG NSC M01/M01 Q1027=
200510182320 METAR ESMX 182320Z VRB01KT CAVOK M01/M01 Q1027=
200510182250 METAR ESMX 182250Z 00000KT CAVOK M01/M01 Q1027=
200510182220 METAR ESMX 182220Z 00000KT CAVOK M01/M01 Q1027=
200510182150 METAR ESMX 182150Z 00000KT CAVOK M01/M01 Q1027=
200510182120 METAR ESMX 182120Z 00000KT CAVOK M01/M01 Q1027=
200510182050 METAR ESMX 182050Z 00000KT CAVOK M01/M01 Q1027=
200510182020 METAR ESMX 182020Z 00000KT CAVOK M00/M01 Q1027=
200510181950 METAR ESMX 181950Z 00000KT CAVOK M00/M01 Q1027=
200510181920 METAR ESMX 181920Z VRB02KT CAVOK 01/00 Q1027=
200510181850 METAR ESMX 181850Z 00000KT CAVOK 01/00 Q1027=
200510181820 METAR ESMX 181820Z VRB01KT CAVOK 01/01 Q1027=
200510181750 METAR ESMX 181750Z VRB02KT CAVOK 02/01 Q1027=
200510181720 METAR ESMX 181720Z VRB01KT CAVOK 03/01 Q1027=
200510181650 METAR ESMX 181650Z VRB01KT CAVOK 04/02 Q1027=
200510181620 METAR ESMX 181620Z 00000KT CAVOK 05/02 Q1027=
200510181550 METAR ESMX 181550Z VRB01KT CAVOK 08/03 Q1027=
200510181520 METAR ESMX 181520Z VRB03KT CAVOK 11/02 Q1027=
200510181450 METAR ESMX 181450Z VRB03KT CAVOK 12/02 Q1027=
200510181420 METAR ESMX 181420Z 30004KT CAVOK 13/02 Q1028=
200510181350 METAR ESMX 181350Z VRB03KT CAVOK 13/02 Q1028=
200510181320 METAR ESMX 181320Z VRB03KT CAVOK 13/02 Q1028=
200510181250 METAR ESMX 181250Z VRB02KT CAVOK 12/02 Q1028=
200510181220 METAR ESMX 181220Z VRB03KT CAVOK 12/03 Q1028=
200510181150 METAR ESMX 181150Z VRB02KT CAVOK 12/03 Q1029=
200510181120 METAR ESMX 181120Z VRB03KT CAVOK 10/03 Q1029=
200510181050 METAR ESMX 181050Z VRB03KT CAVOK 10/03 Q1029=
200510181020 METAR ESMX 181020Z VRB03KT CAVOK 08/03 Q1029=
200510180950 METAR ESMX 180950Z 34004KT 290V020 CAVOK 07/03 Q1030=
200510180920 METAR ESMX 180920Z 34005KT CAVOK 06/03 Q1030=
200510180850 METAR ESMX 180850Z 01004KT CAVOK 04/03 Q1030=
200510180820 METAR ESMX 180820Z VRB03KT CAVOK 04/03 Q1030=
200510180750 METAR ESMX 180750Z VRB01KT CAVOK 01/01 Q1030=
200510180720 METAR ESMX 180720Z VRB02KT 9999 FEW002 M00/M00 Q1030=
200510180650 METAR ESMX 180650Z VRB01KT 9999 FEW010 M03/M03 Q1030=
200510180620 METAR ESMX 180620Z 00000KT CAVOK M03/M03 Q1030=
200510180550 METAR ESMX 180550Z VRB01KT 8000 BR NSC M04/M04 Q1030=
200510180520 METAR ESMX 180520Z 00000KT CAVOK M03/M03 Q1030=
200510180450 METAR ESMX 180450Z 00000KT 9999 FEW001 M03/M03 Q1030=
200510180420 METAR ESMX 180420Z 00000KT 0300 R01/1100N R19/1000N FZFG VV002 M01/M01 Q1031=
200510180350 METAR ESMX 180350Z VRB01KT 0050 R01/0250N R19/0300N FZFG VV001 M01/M01 Q1031=
200510180320 METAR ESMX 180320Z AUTO 00000KT 0050 R01/0250N R19/0300N RA VV000 M01/M01 Q1031=
200510180250 METAR ESMX 180250Z AUTO 00000KT 0050 R01/0350N R19/0500N FG VV000 M01/M01 Q1031=
200510180220 METAR ESMX 180220Z AUTO 00000KT 0100 R01/0350N R19/0600U FG VV001 M01/M01 Q1031=
200510180150 METAR ESMX 180150Z AUTO VRB01KT 0050 R01/0350N R19/0450N FG VV002 M01/M01 Q1032=
200510180120 METAR ESMX 180120Z AUTO VRB01KT 0050 R01/0250N R19/0375N FG VV001 M01/M01 Q1032=
200510180050 METAR ESMX 180050Z AUTO VRB01KT 0050 R01/0300N R19/0400N FG VV000 M01/M01 Q1032=
200510180020 METAR ESMX 180020Z AUTO VRB01KT 0050 R01/0350N R19/0400N FG VV000 M02/M02 Q1032=
200510172350 METAR ESMX 172350Z 00000KT 0100 R01/0450N R19/0375N FZFG VV001 M02/M03 Q1032=
200510172320 METAR ESMX 172320Z 00000KT 0250 R01/0650D R19/0700VP1500D FZFG VV002 M03/M03 Q1032=
200510172250 METAR ESMX 172250Z 00000KT 0200 R01/0800V1100U R19/0900VP1500U BCFG FEW001 M03/M03 Q1033=
200510172220 METAR ESMX 172220Z 00000KT 0150 R01/0800V1100U R19/P1500N FG SCT003 M03/M03 Q1033=
200510172150 METAR ESMX 172150Z 00000KT 1000 R01/P1500N R19/P1500N BCFG SCT002 M03/M03 Q1033=
200510172120 METAR ESMX 172120Z 00000KT 9999 BCFG FEW002 M03/M03 Q1033=
200510172050 METAR ESMX 172050Z VRB01KT 1000 R01/P1500N R19/P1500N BCFG NSC M03/M03 Q1033=
200510172020 METAR ESMX 172020Z VRB01KT CAVOK M03/M03 Q1033=
200510171950 METAR ESMX 171950Z 00000KT CAVOK M02/M03 Q1033=
200510171920 METAR ESMX 171920Z VRB01KT CAVOK M02/M02 Q1033=
200510171850 METAR ESMX 171850Z VRB01KT CAVOK M02/M02 Q1033=
200510171820 METAR ESMX 171820Z VRB01KT CAVOK M01/M02 Q1033=
200510171750 METAR ESMX 171750Z VRB01KT CAVOK M01/M01 Q1033=
200510171720 METAR ESMX 171720Z 00000KT CAVOK M00/M01 Q1033=
200510171650 METAR ESMX 171650Z 00000KT CAVOK 01/00 Q1033=
200510171620 METAR ESMX 171620Z VRB02KT 9999 FEW013 02/01 Q1034=
200510171550 METAR ESMX 171550Z 01005KT 9999 BKN014 04/01 Q1034=
200510171520 METAR ESMX 171520Z 34006KT 320V020 9999 BKN014 04/02 Q1034=
200510171450 METAR ESMX 171450Z 36004KT 330V030 9999 BKN014 05/02 Q1034=
200510171420 METAR ESMX 171420Z VRB03KT 9999 BKN014 05/02 Q1034=
200510171350 METAR ESMX 171350Z VRB03KT 9999 BKN013 05/02 Q1034=
200510171320 METAR ESMX 171320Z 01005KT 330V030 9999 BKN013 05/02 Q1034=
200510171250 METAR ESMX 171250Z 34007KT 320V020 9999 BKN013 05/02 Q1034=
200510171220 METAR ESMX 171220Z 01005KT 9999 BKN012 05/02 Q1035=
200510171150 METAR ESMX 171150Z 02008KT 340V050 9999 FEW012 BKN015 06/03 Q1035=
200510171120 METAR ESMX 171120Z 02007KT 350V050 9999 BKN014 06/03 Q1035=
200510171050 METAR ESMX 171050Z 02007KT 9999 BKN017 07/03 Q1035=
200510171020 METAR ESMX 171020Z 02006KT 340V060 9999 SCT014 BKN020 07/03 Q1035=
200510170950 METAR ESMX 170950Z 36007KT 330V040 9999 FEW013 BKN023 07/03 Q1035=
200510170920 METAR ESMX 170920Z 01006KT 350V070 9999 FEW012 BKN025 06/03 Q1035=
200510170850 METAR ESMX 170850Z 01006KT 9999 FEW010 BKN025 06/04 Q1035=
200510170820 METAR ESMX 170820Z 01006KT 9999 FEW008 BKN025 06/03 Q1035=
200510170750 METAR ESMX 170750Z 01006KT 340V040 9999 BKN025 06/03 Q1035=
200510170720 METAR ESMX 170720Z 02006KT 9999 OVC025 05/03 Q1035=
200510170650 METAR ESMX 170650Z 01005KT 9999 FEW009 BKN025 05/03 Q1035=
200510170620 METAR ESMX 170620Z 36005KT 9999 BKN025 05/03 Q1035=
200510170550 METAR ESMX 170550Z 02004KT 9999 BKN025 05/03 Q1035=
200510170520 METAR ESMX 170520Z 01005KT 9999 FEW008 BKN025 05/03 Q1035=
200510170450 METAR ESMX 170450Z 36006KT 9999 OVC025 04/03 Q1035=
200510170420 METAR ESMX 170420Z 35006KT 9999 OVC024 04/03 Q1035=
200510170350 METAR ESMX 170350Z 36006KT 9999 FEW008 BKN024 04/03 Q1035=
200510170320 METAR ESMX 170320Z AUTO 35007KT 9999 OVC023 04/03 Q1035=
200510170250 METAR ESMX 170250Z AUTO 34007KT 9999 OVC023 04/03 Q1035=
200510170220 METAR ESMX 170220Z AUTO 35007KT 9999 OVC022 04/03 Q1035=
200510170150 METAR ESMX 170150Z AUTO 01007KT 9999 OVC021 04/03 Q1035=
200510170120 METAR ESMX 170120Z AUTO 34008KT 9999 OVC022 04/03 Q1035=
200510170050 METAR ESMX 170050Z AUTO 33007KT 9999 FEW010 BKN020 OVC024 04/02 Q1035=
200510170020 METAR ESMX 170020Z 35006KT 9999 FEW010 OVC019 04/02 Q1035=
200510162350 METAR ESMX 162350Z 30004KT 9999 OVC017 04/02 Q1035=
200510162320 METAR ESMX 162320Z 34005KT 9999 OVC015 04/03 Q1035=
200510162250 METAR ESMX 162250Z 35006KT 9999 OVC013 04/02 Q1035=
200510162220 METAR ESMX 162220Z 01005KT 9999 FEW012 OVC015 04/02 Q1035=
200510162150 METAR ESMX 162150Z 02004KT 360V060 9999 OVC011 04/02 Q1035=
200510162120 METAR ESMX 162120Z 07005KT 020V110 9999 OVC011 04/02 Q1035=
200510162050 METAR ESMX 162050Z 07005KT 030V110 9999 OVC011 04/02 Q1035=
200510162020 METAR ESMX 162020Z 03005KT 360V080 9999 OVC012 04/02 Q1036=
200510161920 METAR ESMX 161920Z 03008KT 350V070 9999 OVC012 04/01 Q1035=
200510161850 METAR ESMX 161850Z 03007KT 360V070 9999 OVC012 04/02 Q1035=
200510161820 METAR ESMX 161820Z 04006KT 350V080 9999 OVC014 04/01 Q1035=
200510161750 METAR ESMX 161750Z 02006KT 9999 OVC014 04/01 Q1035=
200510161720 METAR ESMX 161720Z 08005KT 360V130 9999 OVC015 04/01 Q1035=
200510161650 METAR ESMX 161650Z 04006KT 350V080 9999 BKN016 04/01 Q1035=
200510161620 METAR ESMX 161620Z 04004KT 010V110 9999 FEW017 04/01 Q1035=
200510161550 METAR ESMX 161550Z 05006KT CAVOK 05/01 Q1035=
200510161520 METAR ESMX 161520Z 07006KT 020V110 CAVOK 06/02 Q1035=
200510161450 METAR ESMX 161450Z 06005KT 020V110 CAVOK 07/02 Q1034=
200510161420 METAR ESMX 161420Z 06005KT 020V100 CAVOK 07/02 Q1034=
200510161350 METAR ESMX 161350Z 09004KT 010V150 CAVOK 08/02 Q1034=
200510161320 METAR ESMX 161320Z 06005KT 020V110 CAVOK 08/02 Q1034=
200510161250 METAR ESMX 161250Z 06004KT 020V110 CAVOK 08/02 Q1035=
200510161220 METAR ESMX 161220Z AUTO 06006KT 020V120 9999 NSC 08/02 Q1035=
200510161150 METAR ESMX 161150Z AUTO 05006KT 020V110 9999 FEW023 08/02 Q1035=
200510161120 METAR ESMX 161120Z AUTO 03010KT 9999 NSC 08/02 Q1035=
200510161050 METAR ESMX 161050Z AUTO 02009KT 350V070 9999 NSC 07/02 Q1034=
200510161020 METAR ESMX 161020Z AUTO 03012KT 9999 NSC 07/02 Q1035=
200510160950 METAR ESMX 160950Z AUTO 36011KT 9999 NSC 07/01 Q1035=
200510160920 METAR ESMX 160920Z AUTO 01012KT 330V030 9999 NSC 07/01 Q1035=
200510160850 METAR ESMX 160850Z AUTO 36010KT 9999 NSC 06/01 Q1035=
200510160820 METAR ESMX 160820Z AUTO 01010KT 320V030 9999 NSC 05/01 Q1035=
200510160750 METAR ESMX 160750Z AUTO 35010KT 9999 NSC 04/01 Q1035=
200510160720 METAR ESMX 160720Z AUTO 34010KT 9999 NSC 03/01 Q1035=
200510160650 METAR ESMX 160650Z AUTO 35008KT 9999 NSC 01/00 Q1034=
200510160620 METAR ESMX 160620Z AUTO 29004KT 9999 NSC M01/M01 Q1034=
200510160550 METAR ESMX 160550Z AUTO VRB03KT 9999 NSC M02/M02 Q1034=
200510160520 METAR ESMX 160520Z AUTO VRB01KT 9999 NSC M02/M02 Q1034=
200510160450 METAR ESMX 160450Z AUTO VRB01KT 9999 NSC M00/M01 Q1034=
200510160420 METAR ESMX 160420Z AUTO 32004KT 290V350 9999 NSC M02/M02 Q1034=
200510160350 METAR ESMX 160350Z AUTO 34007KT 9999 NSC M02/M02 Q1034=
200510160320 METAR ESMX 160320Z AUTO VRB02KT 9999 NSC M01/M01 Q1034=
200510160250 METAR ESMX 160250Z AUTO 34005KT 9999 NSC M01/M01 Q1034=
200510160220 METAR ESMX 160220Z AUTO VRB02KT 9999 NSC M01/M01 Q1034=
200510160150 METAR ESMX 160150Z AUTO 36004KT 320V040 9999 NSC M01/M01 Q1034=
200510160120 METAR ESMX 160120Z AUTO 36004KT 320V040 9999 NSC 01/M00 Q1034=
200510160050 METAR ESMX 160050Z AUTO 35005KT 9999 NSC 02/01 Q1034=
200510160020 METAR ESMX 160020Z AUTO 34006KT 9999 NSC 01/M00 Q1034=
200510152350 METAR ESMX 152350Z AUTO 36005KT 9999 NSC 02/01 Q1033=
200510152320 METAR ESMX 152320Z AUTO 35004KT 9999 NSC 03/02 Q1033=
200510152250 METAR ESMX 152250Z AUTO 03005KT 9999 NSC 04/01 Q1033=
200510152220 METAR ESMX 152220Z AUTO 02007KT 9999 NSC 04/01 Q1033=
200510152150 METAR ESMX 152150Z AUTO 01006KT 9999 NSC 04/01 Q1034=
200510152120 METAR ESMX 152120Z AUTO 36007KT 9999 NSC 04/01 Q1034=
200510152050 METAR ESMX 152050Z AUTO 36007KT 9999 NSC 04/01 Q1033=
200510152020 METAR ESMX 152020Z AUTO 35008KT 9999 NSC 04/01 Q1033=
200510151950 METAR ESMX 151950Z AUTO 36007KT 9999 NSC 05/01 Q1033=
200510151920 METAR ESMX 151920Z AUTO 35008KT 9999 NSC 05/01 Q1033=
200510151850 METAR ESMX 151850Z AUTO 34008KT 9999 NSC 05/01 Q1033=
200510151820 METAR ESMX 151820Z AUTO 35009KT 9999 NSC 06/01 Q1033=
200510151750 METAR ESMX 151750Z AUTO 34007KT 9999 NSC 06/01 Q1033=
200510151720 METAR ESMX 151720Z AUTO 34007KT 9999 NSC 06/01 Q1032=
200510151650 METAR ESMX 151650Z AUTO 32006KT 9999 NSC 06/01 Q1032=
200510151620 METAR ESMX 151620Z AUTO 32007KT 9999 NSC 07/01 Q1032=
200510151550 METAR ESMX 151550Z AUTO 30007KT 9999 NSC 08/01 Q1031=
200510151520 METAR ESMX 151520Z AUTO 33008KT 300V360 9999 NSC 09/00 Q1032=
200510151450 METAR ESMX 151450Z AUTO 32008KT 9999 NSC 10/M00 Q1031=
200510151420 METAR ESMX 151420Z AUTO 33009KT 280V350 9999 NSC 10/00 Q1031=
200510151350 METAR ESMX 151350Z AUTO 30009KT 270V330 9999 NSC 10/01 Q1031=
200510151320 METAR ESMX 151320Z AUTO 30009KT 280V340 9999 NSC 10/01 Q1031=
200510151250 METAR ESMX 151250Z AUTO 34010KT 290V020 9999 NSC 10/01 Q1031=
200510151220 METAR ESMX 151220Z AUTO 32009KT 280V340 9999 NSC 10/01 Q1031=
200510151150 METAR ESMX 151150Z AUTO 34009KT 280V360 9999 NSC 10/01 Q1031=
200510151120 METAR ESMX 151120Z AUTO 35009KT 9999 NSC 10/02 Q1031=
200510151050 METAR ESMX 151050Z AUTO 34008KT 9999 NSC 10/02 Q1031=
200510151020 METAR ESMX 151020Z AUTO 30010KT 270V350 9999 NSC 09/02 Q1031=
200510150950 METAR ESMX 150950Z AUTO 33007KT 290V010 9999 NSC 09/02 Q1032=
200510150920 METAR ESMX 150920Z 33011KT CAVOK 08/02 Q1032=
200510150850 METAR ESMX 150850Z 34012KT 310V010 CAVOK 08/02 Q1031=
200510150820 METAR ESMX 150820Z 35012KT CAVOK 07/02 Q1031=
200510150750 METAR ESMX 150750Z 33008KT 290V010 CAVOK 06/03 Q1031=
200510150720 METAR ESMX 150720Z 31006KT CAVOK 05/02 Q1031=
200510150650 METAR ESMX 150650Z 32005KT CAVOK 03/01 Q1031=
200510150620 METAR ESMX 150620Z 31005KT CAVOK 03/01 Q1031=
200510150550 METAR ESMX 150550Z AUTO 31005KT 9999 NSC 01/M00 Q1030=
200510150520 METAR ESMX 150520Z AUTO 30005KT 9999 NSC 00/M00 Q1030=
200510150450 METAR ESMX 150450Z AUTO VRB03KT 9999 NSC 01/M00 Q1030=
200510150420 METAR ESMX 150420Z AUTO VRB02KT 9999 NSC 02/00 Q1030=
200510150350 METAR ESMX 150350Z AUTO 31007KT 9999 NSC 02/01 Q1030=
200510150320 METAR ESMX 150320Z AUTO 32005KT 9999 NSC 02/01 Q1030=
200510150250 METAR ESMX 150250Z AUTO 33004KT 290V050 9999 NSC 02/01 Q1029=
200510150220 METAR ESMX 150220Z AUTO 32004KT 9999 NSC 01/00 Q1029=
200510150150 METAR ESMX 150150Z AUTO VRB03KT 9999 NSC 02/02 Q1029=
200510150120 METAR ESMX 150120Z AUTO 32004KT 9999 NSC 01/01 Q1029=
200510150050 METAR ESMX 150050Z AUTO VRB03KT 9999 NSC 01/01 Q1029=
200510150020 METAR ESMX 150020Z AUTO VRB03KT 9999 NSC 01/01 Q1029=
200510142350 METAR ESMX 142350Z AUTO VRB03KT 9999 NSC 02/01 Q1029=
200510142320 METAR ESMX 142320Z AUTO VRB03KT 9999 NSC 02/02 Q1028=
200510142250 METAR ESMX 142250Z AUTO VRB03KT 9999 NSC 03/02 Q1028=
200510142220 METAR ESMX 142220Z AUTO VRB03KT 9999 NSC 03/02 Q1028=
200510142150 METAR ESMX 142150Z AUTO VRB02KT 9999 NSC 04/04 Q1028=
200510142120 METAR ESMX 142120Z AUTO VRB01KT 9999 NSC 04/03 Q1028=
200510142050 METAR ESMX 142050Z AUTO VRB02KT 9999 NSC 05/04 Q1027=
200510142020 METAR ESMX 142020Z AUTO 32004KT 9999 NSC 06/05 Q1027=
200510141950 METAR ESMX 141950Z 33007KT CAVOK 07/05 Q1027=
200510141920 METAR ESMX 141920Z 33008KT CAVOK 08/06 Q1027=
200510141850 METAR ESMX 141850Z 32008KT CAVOK 09/08 Q1026=
200510141820 METAR ESMX 141820Z VRB03KT 3700 BR FEW030 09/09 Q1026=
200510141750 METAR ESMX 141750Z VRB03KT 3600 BR MIFG FEW020 BKN040 10/09 Q1026=
200510141720 METAR ESMX 141720Z VRB03KT 2900 BR MIFG FEW015 SCT040 09/09 Q1025=
200510141650 METAR ESMX 141650Z VRB01KT 1100 R01/P1500N R19/1200 MIFG BR FEW007 BKN030 10/09 Q1025=
200510141620 METAR ESMX 141620Z VRB03KT 2000 BR SCT007 BKN200 10/10 Q1025=
200510141550 METAR ESMX 141550Z VRB03KT 5000 BR SCT007 BKN200 11/11 Q1025=
200510141520 METAR ESMX 141520Z VRB03KT 4700 BR FEW005 SCT007 12/11 Q1025=
200510141450 METAR ESMX 141450Z 26004KT 230V290 4600 BR FEW007 BKN034 13/11 Q1025=
200510141420 METAR ESMX 141420Z 25004KT 210V280 4000 BR FEW004 SCT006 BKN022 12/12 Q1025=
200510141350 METAR ESMX 141350Z 26004KT 220V290 2600 BR BKN004 12/11 Q1025=
200510141320 METAR ESMX 141320Z VRB03KT 2500 BR BKN004 12/11 Q1025=
200510141250 METAR ESMX 141250Z 28004KT 250V310 3100 BR BKN006 12/11 Q1025=
200510141220 METAR ESMX 141220Z 27004KT 240V320 5000 BR BKN008 12/11 Q1025=
200510141150 METAR ESMX 141150Z 26005KT 230V290 7000 BR SCT010 BKN020 12/11 Q1025=
200510141120 METAR ESMX 141120Z 27005KT 250V330 7000 BR FEW012 BKN023 12/11 Q1025=
200510141050 METAR ESMX 141050Z 22005KT 5000 BR FEW006 BKN025 12/11 Q1024=
200510140950 METAR ESMX 140950Z VRB03KT 3200 BR FEW003 SCT005 10/10 Q1025=
200510140920 METAR ESMX 140920Z 23004KT 2500 BR BKN002 09/09 Q1025=
200510140850 METAR ESMX 140850Z VRB03KT 1900 BR OVC001 09/09 Q1024=
200510140820 METAR ESMX 140820Z 21004KT 180V240 0600 R19/1400U FG VV002 09/09 Q1024=
200510140750 METAR ESMX 140750Z 21006KT 0300 R01/0450V0800N R19/0750U FG VV001 09/08 Q1024=
200510140720 METAR ESMX 140720Z 19005KT 0200 R01/0450N R19/0500N FG VV001 08/08 Q1024=
200510140650 METAR ESMX 140650Z 18004KT 0150 R01/0400N R19/0500U FG VV001 08/08 Q1024=
200510140620 METAR ESMX 140620Z 19005KT 150V210 0150 R19/0400D FG VV000 08/08 Q1024=
200510140550 METAR ESMX 140550Z VRB03KT 0250 R01/0500N R19/0550D FG VV001 08/08 Q1024=
200510140520 METAR ESMX 140520Z 18004KT 0450 R01/1000VP1500U R19/P1200D FG VV001 08/08 Q1024=
200510140450 METAR ESMX 140450Z VRB03KT 1300 R01/P1500N R19/P1500N FG OVC001 08/08 Q1024=
200510140420 METAR ESMX 140420Z 19005KT 0500 R01/P1500U R19/P1500N FG VV002 08/08 Q1023=
200510140350 METAR ESMX 140350Z 18006KT 140V200 0200 R01/0800N R19/0800V1100N FG VV002 09/08 Q1023=
200510140320 METAR ESMX 140320Z AUTO 20005KT 0150 R01/0600N R19/0550N FG VV000 09/09 Q1024=
200510140250 METAR ESMX 140250Z AUTO 18004KT 0100 R01/0350N R19/0350N FG VV000 09/08 Q1023=
200510140220 METAR ESMX 140220Z AUTO VRB02KT 0100 R01/0400N R19/0400N FG VV000 08/08 Q1024=
200510140150 METAR ESMX 140150Z AUTO VRB02KT 0150 R01/0650N R19/0600N FG VV000 08/08 Q1024=
200510140120 METAR ESMX 140120Z AUTO VRB02KT 0100 R01/0500N R19/0400N FG VV000 08/07 Q1024=
200510140050 METAR ESMX 140050Z AUTO 18004KT 150V210 0100 R01/0450N R19/0450N FG VV000 08/07 Q1024=
200510140020 METAR ESMX 140020Z AUTO 17004KT 140V200 0050 R01/0350N R19/0350N FG VV000 07/07 Q1024=
200510132350 METAR ESMX 132350Z 18004KT 140V210 0050 R01/0350N R19/0350N FG VV001 08/08 Q1024=
200510132320 METAR ESMX 132320Z VRB03KT 0050 R01/0300N R19/0300N FG VV001 05/05 Q1024=
200510132250 METAR ESMX 132250Z VRB01KT 0150 R01/0450D R19/0500D BR VV001 04/04 Q1024=
200510132220 METAR ESMX 132220Z VRB02KT 0100 R01/0300D R19/P1500N FG VV002 03/03 Q1024=
200510132150 METAR ESMX 132150Z VRB01KT 0050 R01/0250V0450N R19/0300N BR NSC 04/03 Q1024=
200510132120 METAR ESMX 132120Z VRB01KT 1200 R01/P1500N R19/0400VP1500D BR NSC 04/04 Q1024=
200510132050 METAR ESMX 132050Z VRB03KT 0300 R01/P1500U R19/0800V1100U FG NSC 04/04 Q1024=
200510131950 METAR ESMX 131950Z VRB02KT 3700 BR NSC 07/06 Q1024=
200510131920 METAR ESMX 131920Z 15004KT 4000 BR NSC 08/08 Q1024=
200510131850 METAR ESMX 131850Z 15005KT 8000 BR NSC 09/08 Q1024=
200510131820 METAR ESMX 131820Z 15004KT 9000 BR NSC 08/07 Q1024=
200510131750 METAR ESMX 131750Z VRB02KT CAVOK 10/08 Q1024=
200510131720 METAR ESMX 131720Z 14004KT 110V170 CAVOK 10/09 Q1024=
200510131650 METAR ESMX 131650Z VRB03KT 9999 11MIFG NSC 10/09 Q1024=
200510131620 METAR ESMX 131620Z VRB01KT 8000 11MIFG NSC 10/09 Q1024=
200510131550 METAR ESMX 131550Z VRB02KT CAVOK 13/09 Q1024=
200510131520 METAR ESMX 131520Z VRB03KT CAVOK 15/09 Q1024=
200510131450 METAR ESMX 131450Z 14004KT 110V170 CAVOK 16/09 Q1024=
200510131420 METAR ESMX 131420Z VRB03KT CAVOK 16/10 Q1024=
200510131350 METAR ESMX 131350Z 13004KT 070V170 CAVOK 16/10 Q1024=
200510131320 METAR ESMX 131320Z 12004KT 080V170 CAVOK 16/09 Q1024=
200510131250 METAR ESMX 131250Z 13004KT 080V200 CAVOK 16/09 Q1025=
200510131220 METAR ESMX 131220Z 15004KT 090V190 CAVOK 16/09 Q1025=
200510131150 METAR ESMX 131150Z 15005KT 100V190 CAVOK 15/09 Q1025=
200510131120 METAR ESMX 131120Z 12005KT 090V180 CAVOK 15/09 Q1025=
200510131050 METAR ESMX 131050Z VRB03KT CAVOK 14/10 Q1025=
200510131020 METAR ESMX 131020Z 18004KT 140V210 9000 BR FEW005 12/10 Q1026=
200510130950 METAR ESMX 130950Z VRB02KT 4000 BR BKN002 11/11 Q1026=
200510130920 METAR ESMX 130920Z VRB01KT 3000 BR BCFG SCT002 09/09 Q1026=
200510130850 METAR ESMX 130850Z VRB02KT 0550 R01/0800N R19/0800V1100N FG VV001 09/08 Q1026=
200510130820 METAR ESMX 130820Z VRB01KT 0500 R01/0500N R19/0600V0800U FG VV002 08/08 Q1026=
200510130750 METAR ESMX 130750Z VRB02KT 0250 R01/0400N R19/0450N FG VV001 08/08 Q1026=
200510130720 METAR ESMX 130720Z VRB02KT 0200 R01/0350N R19/0450N FG VV001 08/07 Q1025=
200510130650 METAR ESMX 130650Z VRB03KT 0200 R01/0350N R19/0500N FG VV001 07/07 Q1025=
200510130620 METAR ESMX 130620Z VRB02KT 0200 R01/0350N R19/0450N FG VV001 07/07 Q1025=
200510130550 METAR ESMX 130550Z VRB01KT 0200 R01/0500N R19/0500N FG VV001 07/07 Q1025=
200510130520 METAR ESMX 130520Z VRB02KT 0200 R01/0650N R19/0700N FG VV002 07/07 Q1025=
200510130450 METAR ESMX 130450Z VRB03KT 0150 R01/0600N R19/0750N FG VV002 08/07 Q1025=
200510130420 METAR ESMX 130420Z VRB01KT 0150 R01/0600N R19/0700N FG VV002 07/07 Q1025=
200510130350 METAR ESMX 130350Z VRB02KT 0200 R01/0600N R19/0800N FG VV002 07/07 Q1025=
200510130320 METAR ESMX 130320Z AUTO VRB02KT 0150 R01/0550N R19/0650N FG VV000 08/08 Q1025=
200510130250 METAR ESMX 130250Z AUTO VRB01KT 0150 R01/0600N R19/0750N FG VV000 08/08 Q1025=
200510130220 METAR ESMX 130220Z AUTO VRB02KT 0150 R01/0600N R19/0700N FG VV001 08/08 Q1026=
200510130150 METAR ESMX 130150Z AUTO VRB02KT 0300 R01/1000N R19/P1500U FG VV001 08/08 Q1026=
200510130120 METAR ESMX 130120Z AUTO VRB02KT 0200 R01/0750V1200N R19/P1500D FG VV001 08/08 Q1025=
200510130050 METAR ESMX 130050Z AUTO VRB02KT 0150 R01/0600N R19/0800N FG VV000 09/08 Q1025=
200510130020 METAR ESMX 130020Z AUTO VRB01KT 0200 R01/0650D R19/P1500D FG VV001 09/09 Q1025=
200510122350 METAR ESMX 122350Z VRB02KT 0900 R01/P1500N R19/P1500N FG VV002 09/09 Q1026=
200510122320 METAR ESMX 122320Z VRB03KT 1500 BR OVC002 10/09 Q1026=
200510122250 METAR ESMX 122250Z 12004KT 070V150 1500 BR OVC002 10/09 Q1026=
200510122220 METAR ESMX 122220Z 13004KT 060V170 2000 BR OVC002 10/09 Q1026=
200510122150 METAR ESMX 122150Z VRB03KT 2000 BR BKN002 10/10 Q1026=
200510122120 METAR ESMX 122120Z VRB03KT 0500 R01/P1500U R19/P1500N FG VV002 10/10 Q1026=
200510122050 METAR ESMX 122050Z 14005KT 110V170 0400 R01/1300D R19/P1500N FG VV002 10/10 Q1026=
200510122020 METAR ESMX 122020Z 13004KT 090V160 0900 R01/P1500N R19/P1500N FG VV002 10/10 Q1026=
200510121950 METAR ESMX 121950Z 13004KT 100V170 2800 BR NSC 10/09 Q1026=
200510121920 METAR ESMX 121920Z VRB03KT 3500 BR NSC 10/09 Q1026=
200510121850 METAR ESMX 121850Z VRB02KT 6000 BR NSC 10/09 Q1026=
200510121820 METAR ESMX 121820Z VRB03KT 8000 BR NSC 11/10 Q1026=
200510121750 METAR ESMX 121750Z VRB03KT 9000 BR NSC 12/10 Q1026=
200510121720 METAR ESMX 121720Z VRB03KT CAVOK 12/10 Q1026=
200510121650 METAR ESMX 121650Z VRB02KT 9000 BR NSC 12/09 Q1026=
200510121620 METAR ESMX 121620Z 14004KT CAVOK 13/09 Q1025=
200510121550 METAR ESMX 121550Z 14004KT 100V170 CAVOK 15/09 Q1026=
200510121520 METAR ESMX 121520Z VRB03KT CAVOK 16/09 Q1025=
200510121450 METAR ESMX 121450Z 16004KT CAVOK 17/09 Q1025=
200510121420 METAR ESMX 121420Z 16006KT 140V200 CAVOK 17/09 Q1025=
200510121350 METAR ESMX 121350Z 14006KT 080V170 CAVOK 18/09 Q1026=
200510121320 METAR ESMX 121320Z 16006KT CAVOK 18/09 Q1026=
200510121250 METAR ESMX 121250Z 15005KT 120V190 CAVOK 18/10 Q1026=
200510121220 METAR ESMX 121220Z 14006KT 110V190 CAVOK 17/11 Q1026=
200510121150 METAR ESMX 121150Z 13005KT 090V210 CAVOK 17/11 Q1026=
200510121120 METAR ESMX 121120Z 13005KT 090V170 CAVOK 17/11 Q1026=
200510121050 METAR ESMX 121050Z 15005KT 100V170 CAVOK 16/11 Q1026=
200510121020 METAR ESMX 121020Z 16005KT 120V190 8000 BR FEW020 15/11 Q1026=
200510120950 METAR ESMX 120950Z 16006KT 110V200 8000 BR FEW020 14/11 Q1027=
200510120920 METAR ESMX 120920Z 14006KT 7000 BR FEW 1000FT 13/11 Q1027=
200510120850 METAR ESMX 120850Z 13006KT 6000 BR NSC 12/10 Q1027=
200510120820 METAR ESMX 120820Z 14006KT 5000 BR NSC 12/10 Q1027=
200510120750 METAR ESMX 120750Z 12006KT 5000 BR NSC 11/10 Q1027=
200510120720 METAR ESMX 120720Z 13006KT 4300 BR NSC 10/09 Q1027=
200510120650 METAR ESMX 120650Z 14005KT 3600 BR NSC 10/09 Q1027=
200510120620 METAR ESMX 120620Z 13004KT 3400 BR NSC 09/09 Q1027=
200510120550 METAR ESMX 120550Z 13005KT 3300 BR NSC 09/08 Q1027=
200510120520 METAR ESMX 120520Z 13004KT 3400 BR NSC 09/08 Q1027=
200510120450 METAR ESMX 120450Z 13005KT 6000 BR NSC 09/08 Q1026=
200510120420 METAR ESMX 120420Z 13004KT 6000 BR NSC 09/08 Q1026=
200510120320 METAR ESMX 120320Z VRB03KT 2800 BR NSC 08/08 Q1026=
200510120250 METAR ESMX 120250Z AUTO VRB03KT 2200 BR NSC 08/08 Q1026=
200510120220 METAR ESMX 120220Z AUTO VRB03KT 2400 BR NSC 09/08 Q1027=
200510120150 METAR ESMX 120150Z AUTO VRB03KT 2700 BR NSC 09/09 Q1027=
200510120120 METAR ESMX 120120Z AUTO 12004KT 080V150 2500 BR NSC 09/09 Q1027=
200510120050 METAR ESMX 120050Z AUTO VRB03KT 1900 BR NSC 10/09 Q1027=
200510120020 METAR ESMX 120020Z 13004KT 1800 BR SCT003 10/10 Q1027=
200510112350 METAR ESMX 112350Z 14004KT 2600 BR FEW003 SCT005 11/10 Q1027=
200510112320 METAR ESMX 112320Z 15005KT 2400 BR FEW004 BKN005 11/10 Q1027=
200510112250 METAR ESMX 112250Z 15004KT 2500 BR FEW005 SCT007 11/10 Q1027=
200510112220 METAR ESMX 112220Z 14005KT 3500 BR FEW006 SCT008 11/10 Q1027=
200510112150 METAR ESMX 112150Z VRB03KT 4000 BR SCT007 11/10 Q1027=
200510112120 METAR ESMX 112120Z VRB03KT 6000 BR FEW002 11/10 Q1027=
200510112050 METAR ESMX 112050Z 14004KT 7000 BR NSC 10/09 Q1027=
200510112020 METAR ESMX 112020Z VRB03KT 9000 BR NSC 10/08 Q1027=
200510111950 METAR ESMX 111950Z VRB03KT CAVOK 10/08 Q1027=
200510111920 METAR ESMX 111920Z VRB02KT CAVOK 10/08 Q1027=
200510111850 METAR ESMX 111850Z 13004KT 080V170 CAVOK 10/08 Q1027=
200510111820 METAR ESMX 111820Z VRB02KT CAVOK 10/07 Q1027=
200510111750 METAR ESMX 111750Z VRB02KT CAVOK 11/08 Q1027=
200510111720 METAR ESMX 111720Z 14004KT CAVOK 11/08 Q1027=
200510111650 METAR ESMX 111650Z 15004KT CAVOK 13/08 Q1027=
200510111620 METAR ESMX 111620Z 14004KT CAVOK 14/07 Q1027=
200510111550 METAR ESMX 111550Z 15005KT CAVOK 15/08 Q1027=
200510111520 METAR ESMX 111520Z 15007KT 110V180 CAVOK 16/07 Q1027=
200510111450 METAR ESMX 111450Z 15007KT 110V190 CAVOK 17/07 Q1027=
200510111420 METAR ESMX 111420Z 16009KT 130V200 CAVOK 17/07 Q1027=
200510111350 METAR ESMX 111350Z 16008KT 120V180 CAVOK 18/07 Q1028=
200510111320 METAR ESMX 111320Z 15009KT CAVOK 18/07 Q1027=
200510111250 METAR ESMX 111250Z 15009KT 120V200 CAVOK 18/08 Q1028=
200510111220 METAR ESMX 111220Z 16009KT 110V200 CAVOK 19/09 Q1028=
200510111150 METAR ESMX 111150Z 16008KT 100V200 CAVOK 18/10 Q1028=
200510111120 METAR ESMX 111120Z 16009KT 120V200 CAVOK 18/11 Q1028=
200510111050 METAR ESMX 111050Z 16008KT 140V200 CAVOK 17/11 Q1028=
200510111020 METAR ESMX 111020Z 16008KT 110V190 CAVOK 16/11 Q1028=
200510110950 METAR ESMX 110950Z 16006KT 120V190 CAVOK 15/11 Q1028=
200510110920 METAR ESMX 110920Z 14005KT 110V180 9000 BR NSC 14/11 Q1028=
200510110850 METAR ESMX 110850Z 15004KT 110V200 7000 BR SCT003 13/11 Q1028=
200510110820 METAR ESMX 110820Z 14004KT 100V170 3000 BR SCT003 12/11 Q1028=
200510110750 METAR ESMX 110750Z 15004KT 110V190 2000 BR OVC002 11/11 Q1028=
200510110720 METAR ESMX 110720Z 15004KT 110V200 1500 BR BKN001 11/10 Q1028=
200510110650 METAR ESMX 110650Z 15006KT 100V190 1200 BR BKN001 11/10 Q1028=
200510110620 METAR ESMX 110620Z 14006KT 110V200 1500 BR FEW004 10/10 Q1028=
200510110550 METAR ESMX 110550Z 14006KT 090V160 1700 BR FEW004 10/10 Q1028=
200510110520 METAR ESMX 110520Z 14005KT 110V170 1900 BR NSC 10/10 Q1027=
200510110450 METAR ESMX 110450Z 13005KT 2000 BR NSC 10/10 Q1027=
200510110420 METAR ESMX 110420Z 14004KT 4000 BR NSC 10/09 Q1027=
200510110350 METAR ESMX 110350Z 14004KT 2200 BR NSC 10/09 Q1027=
200510110320 METAR ESMX 110320Z 13004KT 2400 BR NSC 10/09 Q1028=
200510110250 METAR ESMX 110250Z AUTO 13004KT 2600 BR NSC 10/09 Q1027=
200510110220 METAR ESMX 110220Z AUTO 13004KT 100V170 3100 BR NSC 10/10 Q1027=
200510110150 METAR ESMX 110150Z AUTO 13004KT 100V160 3000 BR NSC 10/10 Q1027=
200510110120 METAR ESMX 110120Z AUTO 13004KT 3100 BR NSC 10/10 Q1028=
200510110050 METAR ESMX 110050Z AUTO 13005KT 3000 BR NSC 10/10 Q1028=
200510110020 METAR ESMX 110020Z 13006KT 5000 BR NSC 11/10 Q1028=
200510102350 METAR ESMX 102350Z 13005KT 100V160 3400 BR NSC 11/10 Q1028=
200510102320 METAR ESMX 102320Z 14004KT 3000 BR FEW003 11/11 Q1028=
200510102250 METAR ESMX 102250Z 13004KT 2200 BR FEW002 SCT005 11/11 Q1028=
200510102220 METAR ESMX 102220Z 14005KT 100V170 1900 BR BKN002 12/11 Q1028=
200510102150 METAR ESMX 102150Z 13004KT 110V170 2600 BR BKN003 11/11 Q1028=
200510102120 METAR ESMX 102120Z VRB03KT 3000 BR SCT005 12/11 Q1028=
200510102050 METAR ESMX 102050Z 15005KT 4200 BR SCT006 12/11 Q1028=
200510102020 METAR ESMX 102020Z 14005KT 3700 BR BKN005 BKN007 12/12 Q1028=
200510101950 METAR ESMX 101950Z 15006KT 2900 BR BKN004 13/12 Q1028=
200510101920 METAR ESMX 101920Z 16008KT 110V180 3000 BR BKN004 13/12 Q1028=
200510101850 METAR ESMX 101850Z 15007KT 100V170 2700 BR SCT004 13/12 Q1027=
200510101820 METAR ESMX 101820Z 14006KT 3900 BR NSC 13/12 Q1027=
200510101750 METAR ESMX 101750Z 14005KT 120V180 5000 BR NSC 14/12 Q1027=
200510101720 METAR ESMX 101720Z 16006KT 6000 BR NSC 14/12 Q1027=
200510101650 METAR ESMX 101650Z 16005KT 6000 BR NSC 14/13 Q1027=
200510101620 METAR ESMX 101620Z 14005KT 6000 BR NSC 15/13 Q1027=
200510101550 METAR ESMX 101550Z 15005KT 110V180 6000 BR NSC 15/13 Q1027=
200510101520 METAR ESMX 101520Z 14005KT 100V170 7000 BR NSC 16/13 Q1027=
200510101450 METAR ESMX 101450Z 15005KT 110V180 7000 BR NSC 16/13 Q1027=
200510101420 METAR ESMX 101420Z 16005KT 130V200 7000 BR FEW010 16/13 Q1027=
200510101350 METAR ESMX 101350Z 17007KT 140V200 6000 BR FEW010 SCT054 16/13 Q1027=
200510101320 METAR ESMX 101320Z 15006KT 110V180 6000 BR FEW007 SCT009 BKN010 15/13 Q1027=
200510101250 METAR ESMX 101250Z 17007KT 130V210 5000 BR SCT006 BKN009 15/13 Q1027=
200510101220 METAR ESMX 101220Z 16007KT 3700 BR SCT002 OVC005 14/13 Q1027=
200510101150 METAR ESMX 101150Z 16007KT 120V190 2500 BR OVC002 13/12 Q1027=
200510101120 METAR ESMX 101120Z 16005KT 3000 BR OVC002 12/12 Q1027=
200510101050 METAR ESMX 101050Z 16005KT 130V190 6000 BR OVC004 12/11 Q1027=
200510101020 METAR ESMX 101020Z 16005KT 130V190 9999 BKN004 11/11 Q1027=
200510100950 METAR ESMX 100950Z 16004KT 120V190 9999 FEW020 BKN050 10/10 Q1027=
200510100920 METAR ESMX 100920Z 15004KT 110V180 9999 FEW030 BKN051 10/10 Q1027=
200510100850 METAR ESMX 100850Z 13004KT 080V180 9999 FEW029 OVC052 09/09 Q1027=
200510100820 METAR ESMX 100820Z VRB02KT 9999 SCT033 BKN052 08/08 Q1027=
200510100750 METAR ESMX 100750Z VRB01KT 9999 FEW001 BKN052 08/08 Q1027=
200510100720 METAR ESMX 100720Z VRB01KT 9999 FEW001 SCT048 07/07 Q1027=
200510100650 METAR ESMX 100650Z VRB01KT 0300 R01/0600N R19/0400N FG VV001 06/06 Q1027=
200510100620 METAR ESMX 100620Z VRB02KT 0300 R01/0650N R19/0400N FG VV001 06/06 Q1027=
200510100550 METAR ESMX 100550Z VRB01KT 0200 R01/0550N R19/0500N FG VV001 06/06 Q1026=
200510100520 METAR ESMX 100520Z VRB01KT 0100 R01/0400N R19/0450N FG VV001 06/06 Q1026=
200510100450 METAR ESMX 100450Z VRB01KT 0150 R01/0550N R19/0550N FG VV002 07/06 Q1026=
200510100420 METAR ESMX 100420Z VRB01KT 0150 R01/0650D R19/0700N FG VV002 07/07 Q1026=
200510100350 METAR ESMX 100350Z VRB02KT 0100 R01/0800V1400U R19/0550N FG VV002 07/07 Q1026=
200510100320 METAR ESMX 100320Z AUTO VRB02KT 0150 R01/0650N R19/0600N FG VV000 07/07 Q1026=
200510100250 METAR ESMX 100250Z AUTO VRB01KT 0100 R01/0450N R19/0550N FG VV000 07/07 Q1026=
200510100220 METAR ESMX 100220Z AUTO VRB01KT 0100 R01/0400V0550N R19/0450N FG VV000 07/07 Q1026=
200510100150 METAR ESMX 100150Z AUTO 00000KT 0100 R01/0400N R19/0450N FG VV000 07/07 Q1025=
200510100120 METAR ESMX 100120Z AUTO VRB02KT 0150 R01/0600N R19/0550N FG VV000 07/07 Q1025=
200510100050 METAR ESMX 100050Z VRB03KT 0150 R01/0650N R19/0600V0800U FG VV002 07/07 Q1025=
200510100020 METAR ESMX 100020Z VRB02KT 0200 R01/0600D R19/0700D FG VV002 08/07 Q1025=
200510092350 METAR ESMX 092350Z VRB02KT 0100 R01/0400N R19/0650N FG VV002 08/08 Q1025=
200510092320 METAR ESMX 092320Z VRB02KT 0150 R01/0550N R19/0600V0750N FG VV002 08/08 Q1025=
200510092250 METAR ESMX 092250Z VRB02KT 0200 R01/0650N R19/0700N FG VV002 09/08 Q1025=
200510092220 METAR ESMX 092220Z VRB02KT 0200 R01/0750D R19/0800V1400N FG VV002 09/08 Q1024=
200510092150 METAR ESMX 092150Z VRB03KT 0500 R01/P1500D R19/P1500N FG VV002 09/09 Q1024=
200510092120 METAR ESMX 092120Z 26004KT 1000 R01/P1500N R19/1400N FG VV002 09/09 Q1024=
200510092050 METAR ESMX 092050Z 25004KT 0800 R01/P1500N R19/P1500N FG VV002 09/09 Q1024=
200510092020 METAR ESMX 092020Z VRB03KT 9000 R01/P1500N R19/0800VP1500D BCFG FEW008 08/08 Q1024=
200510091950 METAR ESMX 091950Z VRB02KT 9999 FEW006 09/09 Q1024=
200510091920 METAR ESMX 091920Z VRB03KT 9999 SCT010 10/09 Q1023=
200510091850 METAR ESMX 091850Z VRB03KT 9999 FEW009 SCT012 10/09 Q1023=
200510091820 METAR ESMX 091820Z 25004KT 220V290 9999 BKN010 BKN055 11/10 Q1022=
200510091750 METAR ESMX 091750Z 25005KT 210V290 9999 FEW018 SCT030 OVC034 12/11 Q1022=
200510091720 METAR ESMX 091720Z 26006KT 9999 FEW009 BKN025 12/11 Q1021 RERA=
200510091650 METAR ESMX 091650Z 26007KT 230V290 9999 -SHRA FEW007 SCT013 BKN018 13/12 Q1021=
200510091620 METAR ESMX 091620Z 18006KT 8000 BR BKN015 OVC020 14/13 Q1020=
200510091550 METAR ESMX 091550Z 22005KT 8000 -SHRA BKN015 OVC023 15/13 Q1020=
200510091520 METAR ESMX 091520Z 17009KT 8000 -RA FEW020 BKN024 OVC030 15/13 Q1019=
200510091450 METAR ESMX 091450Z 17007KT 9999 BKN023 OVC035 16/12 Q1019=
200510091420 METAR ESMX 091420Z 18011KT 9999 FEW02 BKN040 16/12 Q1019=
200510091350 METAR ESMX 091350Z 17010KT 9999 FEW022 SCT025 BKN030 17/12 Q1019=
200510091250 METAR ESMX 091250Z 17009KT 130V200 9999 SCT025 BKN045 16/12 Q1019=
200510091220 METAR ESMX 091220Z AUTO 17010KT 9999 FEW026 SCT039 16/12 Q1019=
200510091150 METAR ESMX 091150Z AUTO 16009KT 120V190 9999 NSC 17/12 Q1019=
200510091120 METAR ESMX 091120Z AUTO 17011KT 140V200 9999 NSC 16/12 Q1019=
200510091050 METAR ESMX 091050Z AUTO 16010KT 9999 NSC 16/11 Q1019=
200510091020 METAR ESMX 091020Z AUTO 17009KT 140V220 9999 FEW034 SCT038 15/11 Q1019=
200510090950 METAR ESMX 090950Z AUTO 17010KT 150V210 9999 SCT040 15/11 Q1019=
200510090920 METAR ESMX 090920Z AUTO 18009KT 140V210 9999 FEW029 OVC034 14/11 Q1019=
200510090850 METAR ESMX 090850Z AUTO 18009KT 140V210 9999 FEW014 14/11 Q1019=
200510090820 METAR ESMX 090820Z AUTO 18008KT 160V220 9999 NSC 13/11 Q1019=
200510090750 METAR ESMX 090750Z AUTO 17007KT 140V200 9999 BR NSC 13/11 Q1019=
200510090720 METAR ESMX 090720Z AUTO 16007KT 130V190 8000 BR NSC 12/10 Q1019=
200510090650 METAR ESMX 090650Z AUTO 17006KT 6000 BR NSC 11/10 Q1019=
200510090620 METAR ESMX 090620Z AUTO 15007KT 110V180 4300 BR NSC 11/10 Q1019=
200510090550 METAR ESMX 090550Z AUTO 16006KT 140V200 3300 BR NSC 10/10 Q1019=
200510090520 METAR ESMX 090520Z AUTO 16006KT 120V180 3100 BR NSC 10/10 Q1019=
200510090450 METAR ESMX 090450Z AUTO 14007KT 100V170 3200 BR NSC 10/10 Q1019=
200510090420 METAR ESMX 090420Z AUTO 14006KT 3700 BR NSC 11/10 Q1019=
200510090350 METAR ESMX 090350Z AUTO 15007KT 120V190 4700 BR NSC 11/10 Q1019=
200510090320 METAR ESMX 090320Z AUTO 15008KT 100V170 6000 BR NSC 11/10 Q1019=
200510090250 METAR ESMX 090250Z AUTO 14008KT 110V170 6000 BR NSC 11/10 Q1019=
200510090220 METAR ESMX 090220Z AUTO 14007KT 5000 BR NSC 11/10 Q1020=
200510090150 METAR ESMX 090150Z AUTO 14007KT 5000 BR NSC 11/10 Q1020=
200510090120 METAR ESMX 090120Z AUTO 14008KT 100V170 5000 BR NSC 11/10 Q1020=
200510090050 METAR ESMX 090050Z AUTO 14007KT 4500 BR NSC 11/10 Q1020=
200510090020 METAR ESMX 090020Z AUTO 14007KT 100V170 4100 BR NSC 11/11 Q1020=
200510082350 METAR ESMX 082350Z AUTO 15006KT 110V190 4000 BR NSC 11/11 Q1020=
200510082320 METAR ESMX 082320Z AUTO 14007KT 110V170 4000 BR NSC 12/11 Q1021=
200510082250 METAR ESMX 082250Z AUTO 14008KT 110V170 5000 BR NSC 12/11 Q1021=
200510082220 METAR ESMX 082220Z AUTO 14008KT 110V170 5000 BR NSC 12/11 Q1021=
200510082150 METAR ESMX 082150Z AUTO 14007KT 6000 BR NSC 12/11 Q1021=
200510082120 METAR ESMX 082120Z AUTO 14008KT 120V190 6000 BR NSC 12/11 Q1021=
200510082050 METAR ESMX 082050Z AUTO 14007KT 110V170 7000 BR NSC 12/11 Q1022=
200510082020 METAR ESMX 082020Z AUTO 14006KT 7000 BR NSC 12/11 Q1022=
200510081950 METAR ESMX 081950Z AUTO 15006KT 7000 BR NSC 12/11 Q1022=
200510081920 METAR ESMX 081920Z AUTO 16006KT 7000 BR NSC 12/11 Q1022=
200510081850 METAR ESMX 081850Z AUTO 14007KT 110V170 8000 BR NSC 12/11 Q1022=
200510081820 METAR ESMX 081820Z AUTO 14007KT 110V170 8000 BR NSC 13/11 Q1022=
200510081750 METAR ESMX 081750Z AUTO 14007KT 120V180 9999 NSC 13/11 Q1022=
200510081720 METAR ESMX 081720Z AUTO 16008KT 120V190 9999 NSC 14/11 Q1022=
200510081650 METAR ESMX 081650Z AUTO 14007KT 110V170 9999 NSC 15/11 Q1022=
200510081620 METAR ESMX 081620Z AUTO 14005KT 100V170 9999 NSC 15/11 Q1022=
200510081550 METAR ESMX 081550Z AUTO 15004KT 120V180 9999 NSC 16/11 Q1022=
200510081520 METAR ESMX 081520Z AUTO 17008KT 140V210 9999 NSC 17/11 Q1022=
200510081450 METAR ESMX 081450Z AUTO 14008KT 110V200 9999 NSC 18/12 Q1022=
200510081420 METAR ESMX 081420Z AUTO 16009KT 110V190 9999 NSC 18/12 Q1022=
200510081350 METAR ESMX 081350Z AUTO 15008KT 110V190 9999 NSC 19/12 Q1023=
200510081320 METAR ESMX 081320Z AUTO 17012KT 9999 FEW030 19/12 Q1023=
200510081250 METAR ESMX 081250Z AUTO 14010KT 110V190 9999 NSC 19/12 Q1023=
200510081220 METAR ESMX 081220Z AUTO 15009KT 120V180 9999 NSC 19/12 Q1023=
200510081150 METAR ESMX 081150Z AUTO 14009KT 110V190 9999 NSC 19/11 Q1023=
200510081120 METAR ESMX 081120Z AUTO 15008KT 080V190 9999 NSC 19/10 Q1024=
200510081050 METAR ESMX 081050Z AUTO 13007KT 090V170 9999 NSC 18/11 Q1024=
200510081020 METAR ESMX 081020Z AUTO 14006KT 090V180 9999 NSC 18/11 Q1024=
200510080950 METAR ESMX 080950Z AUTO 12005KT 070V180 9999 NSC 17/11 Q1025=
200510080920 METAR ESMX 080920Z AUTO 13004KT 050V200 9999 NSC 16/11 Q1025=
200510080850 METAR ESMX 080850Z 13004KT 080V180 CAVOK 15/11 Q1025=
200510080820 METAR ESMX 080820Z 13005KT 080V170 9000 BR NSC 14/11 Q1025=
200510080750 METAR ESMX 080750Z 11004KT 060V150 6000 BR SCT005 12/11 Q1025=
200510080720 METAR ESMX 080720Z VRB03KT 5000 BR BKN004 11/11 Q1026=
200510080650 METAR ESMX 080650Z 12005KT 080V160 4400 BR BKN004 11/10 Q1026=
200510080620 METAR ESMX 080620Z 12005KT 070V170 4300 BR OVC004 11/10 Q1026=
200510080550 METAR ESMX 080550Z AUTO 12005KT 070V190 4000 BR OVC004 11/10 Q1026=
200510080520 METAR ESMX 080520Z AUTO 12005KT 070V160 4300 BR OVC004 11/10 Q1026=
200510080450 METAR ESMX 080450Z AUTO 11004KT 040V160 5000 BR OVC004 11/10 Q1026=
200510080420 METAR ESMX 080420Z AUTO 12005KT 080V150 5000 BR BKN005 11/10 Q1026=
200510080350 METAR ESMX 080350Z AUTO 11005KT 050V150 6000 BR BKN005 11/10 Q1026=
200510080320 METAR ESMX 080320Z AUTO 12004KT 040V180 5000 BR BKN004 11/10 Q1026=
200510080250 METAR ESMX 080250Z AUTO VRB03KT 6000 BR OVC005 11/10 Q1026=
200510080220 METAR ESMX 080220Z AUTO 11004KT 080V160 6000 BR BKN005 BKN008 11/10 Q1026=
200510080150 METAR ESMX 080150Z AUTO 11004KT 070V160 6000 BR OVC005 11/11 Q1027=
200510080120 METAR ESMX 080120Z AUTO VRB03KT 6000 BR OVC005 11/10 Q1027=
200510080050 METAR ESMX 080050Z AUTO VRB03KT 6000 BR OVC006 11/10 Q1027=
200510080020 METAR ESMX 080020Z AUTO 11004KT 050V170 5000 BR OVC005 11/10 Q1027=
200510072350 METAR ESMX 072350Z AUTO 12004KT 080V160 5000 BR OVC005 11/10 Q1028=
200510072320 METAR ESMX 072320Z AUTO 11004KT 070V180 5000 BR OVC005 11/10 Q1028=
200510072250 METAR ESMX 072250Z AUTO VRB03KT 6000 BR OVC006 11/10 Q1028=
200510072220 METAR ESMX 072220Z AUTO VRB03KT 6000 BR BKN006 11/10 Q1028=
200510072150 METAR ESMX 072150Z AUTO 11005KT 070V170 6000 BR BKN005 OVC007 11/10 Q1029=
200510072120 METAR ESMX 072120Z AUTO VRB03KT 5000 BR BKN005 11/10 Q1029=
200510072050 METAR ESMX 072050Z AUTO VRB03KT 6000 BR OVC005 11/10 Q1029=
200510072020 METAR ESMX 072020Z AUTO 11005KT 070V160 6000 BR BKN005 BKN007 11/10 Q1029=
200510071920 METAR ESMX 071920Z 12005KT 070V160 6000 BR BKN004 11/10 Q1029=
200510071850 METAR ESMX 071850Z VRB03KT 9999 SCT006 10/10 Q1029=
200510071750 METAR ESMX 071750Z VRB03KT CAVOK 10/10 Q1029=
200510071720 METAR ESMX 071720Z VRB02KT CAVOK 10/09 Q1030=
200510071550 METAR ESMX 071550Z 15004KT CAVOK 15/10 Q1030=
200510071520 METAR ESMX 071520Z 16004KT 120V200 CAVOK 16/10 Q1030=
200510071450 METAR ESMX 071450Z 15004KT 110V200 CAVOK 17/09 Q1030=
200510071420 METAR ESMX 071420Z 15004KT 110V190 CAVOK 17/08 Q1030=
200510071350 METAR ESMX 071350Z 15005KT CAVOK 17/08 Q1030=
200510071320 METAR ESMX 071320Z 15004KT 100V170 CAVOK 17/09 Q1030=
200510071250 METAR ESMX 071250Z 16004KT 120V210 CAVOK 17/09 Q1031=
200510071220 METAR ESMX 071220Z 16004KT 110V260 CAVOK 16/11 Q1031=
200510071150 METAR ESMX 071150Z 16004KT 120V190 CAVOK 16/12 Q1031=
200510071120 METAR ESMX 071120Z VRB02KT CAVOK 14/12 Q1031=
200510071050 METAR ESMX 071050Z VRB03KT 9999 BKN002 13/12 Q1031=
200510071020 METAR ESMX 071020Z VRB03KT 9999 2000N SCT001 12/12 Q1032=
200510070950 METAR ESMX 070950Z VRB02KT 6000 BCFG BR SCT000 10/10 Q1032=
200510070920 METAR ESMX 070920Z VRB02KT 0800 R01/0900VP1500U R19/0700N FG VV002 10/09 Q1032=
200510070850 METAR ESMX 070850Z VRB02KT 0500 R01/0500V0900U R19/0450V0700U FG VV002 09/09 Q1032=
200510070820 METAR ESMX 070820Z VRB01KT 0400 R01/0300N R19/0375N FG VV002 09/08 Q1032=
200510070750 METAR ESMX 070750Z VRB01KT 0150 R01/0300N R19/0300N FG VV001 08/08 Q1032=
200510070720 METAR ESMX 070720Z VRB01KT 0100 R01/0250N R19/0250N FG VV001 07/07 Q1032=
200510070650 METAR ESMX 070650Z VRB01KT 0100 R01/0250N R19/0275N FG VV001 07/07 Q1032=
200510070620 METAR ESMX 070620Z VRB01KT 0100 R01/0300N R19/0275N FG VV001 07/07 Q1032=
200510070550 METAR ESMX 070550Z VRB01KT 0100 R01/0250N R19/0300N FG VV001 06/06 Q1032=
200510070520 METAR ESMX 070520Z VRB01KT 0100 R01/0400N R19/0400N FG VV001 06/06 Q1031=
200510070450 METAR ESMX 070450Z 00000KT 0100 R01/0500N R19/0450N FG VV001 07/06 Q1031=
200510070420 METAR ESMX 070420Z VRB01KT 0100 R01/0450N R19/0500N FG VV001 07/07 Q1031=
200510070350 METAR ESMX 070350Z VRB01KT 0200 R01/0500N R19/0400V0550N FG VV002 07/07 Q1031=
200510070320 METAR ESMX 070320Z AUTO VRB01KT 0100 R01/0450N R19/0450N FG VV000 07/07 Q1031=
200510070250 METAR ESMX 070250Z AUTO VRB01KT 0100 R01/0500N R19/0400N FG VV000 07/07 Q1032=
200510070220 METAR ESMX 070220Z AUTO VRB01KT 0100 R01/0500N R19/0450N FG VV000 07/07 Q1031=
200510070150 METAR ESMX 070150Z AUTO VRB02KT 0100 R01/0450N R19/0350V0500N FG VV000 07/07 Q1032=
200510070120 METAR ESMX 070120Z AUTO VRB02KT 0100 R01/0450N R19/0500N FG VV000 08/08 Q1032=
200510070050 METAR ESMX 070050Z AUTO VRB01KT 0050 R01/0350N R19/0450N FG VV000 08/08 Q1032=
200510070020 METAR ESMX 070020Z AUTO 00000KT 0100 R01/0450N R19/0400V0500D FG VV000 08/08 Q1032=
200510062350 METAR ESMX 062350Z VRB01KT 0100 R01/0350N R19/0225V0325N FG VV001 09/09 Q1032=
200510062320 METAR ESMX 062320Z VRB02KT 0100 R01/0350V0550U R19/0550N FG VV002 09/09 Q1031=
200510062250 METAR ESMX 062250Z 00000KT 0150 R01/0600V0800U R19/0350N FG VV001 08/08 Q1031=
200510062220 METAR ESMX 062220Z 00000KT 0200 R01/0700D R19/0500V0750D FG VV002 08/08 Q1031=
200510062150 METAR ESMX 062150Z VRB02KT 0250 R01/0300N R19/0350V0600U FG VV001 08/08 Q1031=
200510062120 METAR ESMX 062120Z VRB01KT 0100 R01/0300D R19/0225V0500N FG VV001 08/08 Q1031=
200510062050 METAR ESMX 062050Z VRB02KT 0300 R01/750 R19/550 FG VV002 07/07 Q1031=
200510062020 METAR ESMX 062020Z VRB02KT 0300 R01/0350V0700N R19/0400V0600D FG VV002 07/07 Q1031=
200510061950 METAR ESMX 061950Z VRB03KT 0250 R01/0600VP1500D R19/P1500N BCFG NSC 06/06 Q1031=
200510061920 METAR ESMX 061920Z VRB02KT 0650 R01/P1500N R19/P1500N MIFG NSC 06/06 Q1031=
200510061850 METAR ESMX 061850Z 00000KT 9999 MIFG SKC 06/06 Q1031=
200510061820 METAR ESMX 061820Z VRB01KT 9999 MIFG SKC 07/07 Q1030=
200510061750 METAR ESMX 061750Z VRB02KT 9999 MIFG SKC 08/07 Q1030=
200510061720 METAR ESMX 061720Z VRB01KT 9999 MIFG SKC 09/08 Q1030=
200510061650 METAR ESMX 061650Z 00000KT 9999 MIFG SKC 10/09 Q1030=
200510061620 METAR ESMX 061620Z VRB01KT 9999 MIFG SKC 11/10 Q1030=
200510061520 METAR ESMX 061520Z VRB01KT CAVOK 16/11 Q1030=
200510061450 METAR ESMX 061450Z VRB02KT CAVOK 16/10 Q1030=
200510061420 METAR ESMX 061420Z VRB03KT CAVOK 16/10 Q1030=
200510061350 METAR ESMX 061350Z 16004KT CAVOK 16/10 Q1030=
200510061320 METAR ESMX 061320Z VRB03KT CAVOK 16/10 Q1031=
200510061250 METAR ESMX 061250Z VRB03KT CAVOK 15/10 Q1031=
200510061220 METAR ESMX 061220Z VRB03KT CAVOK 14/10 Q1031=
200510061150 METAR ESMX 061150Z 18004KT 9999 FEW020 14/10 Q1031=
200510061120 METAR ESMX 061120Z VRB03KT 9999 FEW015 14/10 Q1032=
200510061050 METAR ESMX 061050Z VRB01KT 9999 BKN009 12/09 Q1032=
200510061020 METAR ESMX 061020Z 19004KT 9999 FEW006 BKN008 12/09 Q1032=
200510060950 METAR ESMX 060950Z VRB03KT 9999 BKN004 11/10 Q1032=
200510060920 METAR ESMX 060920Z VRB03KT 9999 BKN002 OVC004 10/10 Q1032=
200510060850 METAR ESMX 060850Z VRB01KT 8000 BR BKN002 10/10 Q1032=
200510060820 METAR ESMX 060820Z VRB01KT 6000 BR BKN002 OVC010 09/09 Q1032=
200510060750 METAR ESMX 060750Z 00000KT 6000 BR FEW001 BKN002 OVC009 09/09 Q1032=
200510060720 METAR ESMX 060720Z VRB01KT 6000 BR SCT001 OVC008 08/08 Q1032=
200510060650 METAR ESMX 060650Z VRB01KT 5000 BR FEW001 SCT002 OVC006 08/08 Q1032=
200510060620 METAR ESMX 060620Z VRB01KT 3000 BR FEW001 OVC004 07/07 Q1031=
200510060550 METAR ESMX 060550Z VRB01KT 0300 R01/0900U R19/0700N FG VV002 07/07 Q1031=
200510060520 METAR ESMX 060520Z VRB02KT 0100 R01/0350N R19/0400V0500U FG VV001 07/07 Q1031=
200510060450 METAR ESMX 060450Z VRB01KT 0150 R01/0550N R19/0450N FG VV001 06/06 Q1031=
200510060420 METAR ESMX 060420Z 00000KT 0100 R01/0400N R19/0350N FG VV001 06/06 Q1031=
200510060350 METAR ESMX 060350Z VRB01KT 0150 R01/0500D R19/0500D FG VV001 06/05 Q1031=
200510060320 METAR ESMX 060320Z AUTO 00000KT 0150 R01/0600N R19/0500N -SHRA VV000 05/05 Q1031=
200510060250 METAR ESMX 060250Z AUTO VRB01KT 0050 R01/0350N R19/0450N FG VV000 05/05 Q1031=
200510060220 METAR ESMX 060220Z AUTO VRB02KT 0100 R01/0600N R19/0400N FG VV001 05/05 Q1032=
200510060150 METAR ESMX 060150Z AUTO 00000KT 0100 R01/0400N R19/0350N FG VV000 05/05 Q1031=
200510060120 METAR ESMX 060120Z AUTO VRB01KT 0100 R01/0400V0550D R19/0550N FG VV000 05/04 Q1031=
200510060050 METAR ESMX 060050Z AUTO 00000KT 0200 R01/0800U R19/0375N FG VV000 05/05 Q1032=
200510060020 METAR ESMX 060020Z AUTO VRB01KT 0050 R01/0300N R19/0400N FG VV000 05/05 Q1032=
200510052350 METAR ESMX 052350Z VRB01KT 0200 R01/0350N R19/0375V0500N FG VV002 05/05 Q1032=
200510052320 METAR ESMX 052320Z 00000KT 0300 R01/0650U R19/0600N FG VV002 05/05 Q1032=
200510052250 METAR ESMX 052250Z VRB01KT 0100 R01/0300V0450N R19/0400N FG VV002 05/05 Q1032=
200510052220 METAR ESMX 052220Z VRB02KT 0300 R01/0450N R19/0400N FG VV002 05/04 Q1032=
200510052150 METAR ESMX 052150Z 00000KT 0100 R01/0500V0900N R19/0350V0550N FG VV002 04/04 Q1032=
200510052120 METAR ESMX 052120Z VRB02KT 0200 R01/0600V1000N R19/0375N FG NSC 05/04 Q1032=
200510052050 METAR ESMX 052050Z VRB02KT 0300 R01/0650VP1500U R19/0375V0550D FG NSC 06/06 Q1032=
200510052020 METAR ESMX 052020Z 17004KT 3700 BR MIFG NSC 09/08 Q1032=
200510051950 METAR ESMX 051950Z 20004KT 5000 MIFG BR NSC 09/08 Q1032=
200510051920 METAR ESMX 051920Z 17004KT 7000 BR NSC 09/08 Q1032=
200510051850 METAR ESMX 051850Z 18004KT 9999 11MIFG NSC 08/08 Q1032=
200510051820 METAR ESMX 051820Z VRB03KT CAVOK 07/07 Q1032=
200510051750 METAR ESMX 051750Z VRB03KT CAVOK 08/07 Q1032=
200510051650 METAR ESMX 051650Z 17004KT CAVOK 10/09 Q1032=
200510051620 METAR ESMX 051620Z VRB03KT CAVOK 13/10 Q1032=
200510051550 METAR ESMX 051550Z 17004KT 9999 FEW030 14/10 Q1032=
200510051520 METAR ESMX 051520Z 17004KT 9999 FEW030 16/10 Q1032=
200510051450 METAR ESMX 051450Z 19005KT 9999 FEW030 16/09 Q1032=
200510051420 METAR ESMX 051420Z 20005KT 9999 FEW030 16/09 Q1032=
200510051350 METAR ESMX 051350Z 21005KT 170V240 9999 FEW028 17/10 Q1032=
200510051320 METAR ESMX 051320Z VRB03KT 9999 FEW027 17/09 Q1032=
200510051250 METAR ESMX 051250Z 19004KT 160V300 9999 FEW027 17/10 Q1033=
200510051220 METAR ESMX 051220Z 18004KT 110V210 9999 FEW025 16/10 Q1033=
200510051150 METAR ESMX 051150Z VRB03KT 9999 FEW025 16/10 Q1033=
200510051120 METAR ESMX 051120Z 19004KT 140V210 9999 FEW023 15/10 Q1033=
200510051020 METAR ESMX 051020Z VRB02KT 9999 FEW005 NSC 15/11 Q1034=
200510050950 METAR ESMX 050950Z VRB03KT 9999 FEW001 14/11 Q1034=
200510050920 METAR ESMX 050920Z VRB01KT 9999 R19/P1500 BCFG FEW001 12/12 Q1034=
200510050850 METAR ESMX 050850Z VRB01KT 5000 R01/P1500U R19/0600V0800U BCFG SCT000 11/10 Q1034=
200510050820 METAR ESMX 050820Z 00000KT 0200 R01/0350V0500N R19/0300N FG VV001 09/09 Q1034=
200510050750 METAR ESMX 050750Z 00000KT 0300 R19/0450D FG VV001 08/08 Q1034=
200510050720 METAR ESMX 050720Z VRB01KT 0200 R19/0500V0800U FG VV001 07/07 Q1034=
200510050650 METAR ESMX 050650Z 00000KT 0300 R01/0500N R19/0225N FG VV000 05/05 Q1034=
200510050620 METAR ESMX 050620Z 00000KT 0200 R01/0650N R19/0300N FG VV000 04/04 Q1034=
200510050550 METAR ESMX 050550Z 00000KT 0150 R19/0250V0400N FG VV000 03/03 Q1034=
200510050520 METAR ESMX 050520Z 00000KT 0150 R19/0350N FG VV000 04/04 Q1034=
200510050450 METAR ESMX 050450Z 00000KT 0100 R01/0400N R19/0325N FG VV001 04/04 Q1034=
200510050420 METAR ESMX 050420Z 00000KT 0100 R01/0350N R19/0400N FG VV001 04/04 Q1033=
200510050350 METAR ESMX 050350Z 00000KT 0100 R01/0350N R19/0325N FG VV001 05/05 Q1033=
200510050320 METAR ESMX 050320Z AUTO VRB01KT 0050 R01/0300V0400N R19/0450N DZ VV000 05/05 Q1033=
200510050250 METAR ESMX 050250Z AUTO 00000KT 0050 R01/0300N R19/0400N FG VV000 06/05 Q1033=
200510050220 METAR ESMX 050220Z AUTO VRB01KT 0050 R01/0350N R19/0375N FG VV000 05/05 Q1033=
200510050150 METAR ESMX 050150Z AUTO 00000KT 0100 R01/0450N R19/0450N DZ VV000 05/05 Q1033=
200510050120 METAR ESMX 050120Z AUTO 00000KT 0050 R01/0250N R19/0350U +DZ VV000 05/04 Q1034=
200510050050 METAR ESMX 050050Z AUTO VRB01KT 0050 R01/0200V0300N R19/0300N +DZ VV000 05/04 Q1034=
200510050020 METAR ESMX 050020Z AUTO VRB01KT 0050 R01/0200N R19/0225N DZ VV000 04/04 Q1034=
200510042350 METAR ESMX 042350Z VRB01KT 0250 R01/0800D R19/0250N FG VV001 04/04 Q1034=
200510042320 METAR ESMX 042320Z 00000KT 0200 R01/0350N R19/0225V0325D FG VV001 04/03 Q1034=
200510042250 METAR ESMX 042250Z 00000KT 0300 R01/0350V0550N R19/0450V1000U FG VV002 04/03 Q1034=
200510042220 METAR ESMX 042220Z VRB01KT 2000 R01/P1500N R19/1000VP1500D BCFG 04/04 Q1034=
200510042150 METAR ESMX 042150Z VRB01KT 0800 R01/0500V0700D R19/0600V0900U BCFG FEW002 04/04 Q1034=
200510042120 METAR ESMX 042120Z VRB01KT 6000 R01/1000VP1500D R19/P1500U BR BCFG NSC 05/04 Q1033=
200510042050 METAR ESMX 042050Z VRB02KT 0500 R01/0300V0500N R19/0300VP1500D FG VV005 04/04 Q1033=
200510042020 METAR ESMX 042020Z 00000KT 2000 BR BCFG NSC 04/04 Q1033=
200510041950 METAR ESMX 041950Z 00000KT 9999 MIFG NSC 05/05 Q1033=
200510041920 METAR ESMX 041920Z VRB02KT 9999 MIFG NSC 05/05 Q1033=
200510041850 METAR ESMX 041850Z VRB02KT CAVOK 06/05 Q1033=
200510041820 METAR ESMX 041820Z VRB01KT CAVOK 07/06 Q1033=
200510041750 METAR ESMX 041750Z VRB02KT CAVOK 07/07 Q1033=
200510041720 METAR ESMX 041720Z VRB01KT 9999 MIFG NSC 09/08 Q1032=
200510041650 METAR ESMX 041650Z VRB01KT CAVOK 10/09 Q1032=
200510041620 METAR ESMX 041620Z VRB01KT CAVOK 10/09 Q1032=
200510041550 METAR ESMX 041550Z 01004KT CAVOK 14/10 Q1032=
200510041520 METAR ESMX 041520Z 35004KT CAVOK 15/10 Q1032=
200510041450 METAR ESMX 041450Z 36005KT CAVOK 16/09 Q1032=
200510041420 METAR ESMX 041420Z 01006KT CAVOK 16/08 Q1032=
200510041350 METAR ESMX 041350Z 36005KT CAVOK 16/09 Q1032=
200510041320 METAR ESMX 041320Z VRB03KT 9999 FEW020 17/09 Q1032=
200510041250 METAR ESMX 041250Z VRB03KT 9999 FEW020 17/09 Q1032=
200510041220 METAR ESMX 041220Z 30005KT 260V320 9999 FEW020 16/09 Q1032=
200510041150 METAR ESMX 041150Z VRB03KT 9999 FEW020 15/09 Q1032=
200510041120 METAR ESMX 041120Z 30004KT 260V330 9999 FEW018 15/09 Q1032=
200510041050 METAR ESMX 041050Z 31004KT 250V360 9999 FEW016 SCT200 14/09 Q1032=
200510041020 METAR ESMX 041020Z 30004KT 260V330 9999 BKN013 13/09 Q1032=
200510040950 METAR ESMX 040950Z 31005KT 9999 BKN010 12/09 Q1032=
200510040920 METAR ESMX 040920Z 31005KT 280V350 9999 BKN010 12/09 Q1032=
200510040850 METAR ESMX 040850Z 30005KT 230V330 9999 FEW009 BKN010 12/09 Q1032=
200510040820 METAR ESMX 040820Z 26004KT 210V290 9999 BKN007 OVC010 11/09 Q1032=
200510040750 METAR ESMX 040750Z 23004KT 200V290 9999 BKN007 11/10 Q1031=
200510040720 METAR ESMX 040720Z 27004KT 230V300 9999 OVC006 10/09 Q1031=
200510040620 METAR ESMX 040620Z VRB03KT 9999 BKN005 OVC009 10/09 Q1031=
200510040550 METAR ESMX 040550Z VRB03KT 9999 FEW005 OVC007 10/09 Q1030=
200510040520 METAR ESMX 040520Z VRB02KT 9999 BKN007 OVC009 10/09 Q1030=
200510040450 METAR ESMX 040450Z 29004KT 240V340 9999 BKN006 10/09 Q1030=
200510040420 METAR ESMX 040420Z 24004KT 210V270 9999 FEW003 BKN007 10/09 Q1030=
200510040350 METAR ESMX 040350Z VRB03KT 9999 FEW003 BKN008 10/10 Q1030=
200510040320 METAR ESMX 040320Z AUTO VRB03KT 9999 OVC008 10/10 Q1030=
200510040250 METAR ESMX 040250Z AUTO VRB02KT 9999 OVC008 10/10 Q1030=
200510040220 METAR ESMX 040220Z AUTO VRB02KT 9999 BKN007 09/09 Q1030=
200510040150 METAR ESMX 040150Z AUTO VRB03KT 9999 FEW010 09/09 Q1029=
200510040120 METAR ESMX 040120Z AUTO 26005KT 210V290 9999 FEW009 OVC010 11/10 Q1029=
200510040050 METAR ESMX 040050Z AUTO 26004KT 9999 FEW009 SCT013 10/10 Q1029=
200510040020 METAR ESMX 040020Z 25005KT 9999 FEW005 BKN017 10/10 Q1029=
200510032350 METAR ESMX 032350Z VRB03KT 9999 FEW010 BKN018 10/10 Q1029=
200510032320 METAR ESMX 032320Z 23005KT 180V250 9999 FEW007 BKN017 11/10 Q1029=
200510032250 METAR ESMX 032250Z VRB03KT 9999 FEW006 BKN020 11/11 Q1029=
200510032220 METAR ESMX 032220Z 23004KT 9999 FEW006 SCT010 BKN023 11/10 Q1029=
200510032150 METAR ESMX 032150Z 23005KT 9999 FEW010 BKN024 11/11 Q1029=
200510032120 METAR ESMX 032120Z 22004KT 9999 BKN026 11/10 Q1029=
200510032050 METAR ESMX 032050Z 23005KT 9999 FEW022 BKN025 12/11 Q1029=
200510032020 METAR ESMX 032020Z 23005KT 180V270 9999 FEW007 BKN010 12/11 Q1029=
200510031950 METAR ESMX 031950Z 24005KT 180V260 9999 FEW008 BKN011 12/10 Q1029=
200510031920 METAR ESMX 031920Z VRB03KT 9999 SCT008 BKN030 12/10 Q1029=
200510031850 METAR ESMX 031850Z 23005KT 200V260 9999 OVC008 12/10 Q1028=
200510031820 METAR ESMX 031820Z 21005KT 9999 OVC010 12/10 Q1028=
200510031750 METAR ESMX 031750Z 21004KT 190V250 9999 SCT010 BKN020 OVC028 12/10 Q1028=
200510031720 METAR ESMX 031720Z 24005KT 9999 FEW010 OVC027 12/10 Q1028=
200510031650 METAR ESMX 031650Z 23005KT 200V260 9999 FEW011 BKN028 12/10 Q1027=
200510031620 METAR ESMX 031620Z 25007KT 220V280 9999 FEW013 SCT015 BKN020 12/10 Q1027=
200510031550 METAR ESMX 031550Z 26005KT 9999 FEW017 BKN026 12/10 Q1027=
200510031520 METAR ESMX 031520Z 24005KT 210V270 9999 SCT018 BKN023 13/09 Q1027=
200510031450 METAR ESMX 031450Z 25006KT 9999 BKN020 13/09 Q1027=
200510031420 METAR ESMX 031420Z 24006KT 210V270 9999 BKN023 13/09 Q1027=
200510031350 METAR ESMX 031350Z 25007KT 9999 BKN025 13/09 Q1027=
200510031320 METAR ESMX 031320Z 24008KT 200V270 9999 OVC025 13/08 Q1027=
200510031250 METAR ESMX 031250Z 26008KT 230V300 9999 OVC026 13/09 Q1027=
200510031220 METAR ESMX 031220Z 26008KT 230V290 9999 SCT020 BKN030 13/09 Q1027=
200510031150 METAR ESMX 031150Z 26009KT 230V290 9999 FEW020 BKN027 14/08 Q1027=
200510031120 METAR ESMX 031120Z 25006KT 210V290 9999 SCT020 13/09 Q1026=
200510031050 METAR ESMX 031050Z 25008KT 210V290 9999 FEW021 SCT025 13/09 Q1027=
200510031020 METAR ESMX 031020Z 25006KT 180V290 9999 FEW013 SCT016 BKN022 12/09 Q1026=
200510030950 METAR ESMX 030950Z 28006KT 250V320 9999 SCT011 BKN015 12/10 Q1026=
200510030920 METAR ESMX 030920Z 25005KT 220V280 9999 FEW006 SCT013 11/10 Q1026=
200510030850 METAR ESMX 030850Z 24005KT 220V280 9999 SCT005 SCT200 10/10 Q1026=
200510030750 METAR ESMX 030750Z 24005KT 210V300 9999 FEW001 BKN003 09/09 Q1026=
200510030720 METAR ESMX 030720Z 24004KT 0800 R01/1000N R19/0800V1300U FG VV002 08/08 Q1025=
200510030650 METAR ESMX 030650Z 23005KT 0350 R01/0600N R19/0650N FG VV002 07/07 Q1025=
200510030620 METAR ESMX 030620Z 21004KT 0300 R01/0400V0550N R19/0500N FG VV002 07/07 Q1025=
200510030550 METAR ESMX 030550Z VRB02KT 0300 R01/0500N R19/0550N FG VV002 07/07 Q1025=
200510030520 METAR ESMX 030520Z VRB02KT 0150 R01/0450N R19/0500N FG VV002 07/06 Q1024=
200510030450 METAR ESMX 030450Z VRB01KT 0150 R01/0700N R19/0700N FG VV002 07/07 Q1024=
200510030420 METAR ESMX 030420Z VRB02KT 0250 R01/0650N R19/0900N FG VV001 07/06 Q1024=
200510030350 METAR ESMX 030350Z VRB01KT 0300 R19/0900V1100N FG VV001 07/06 Q1023=
200510030320 METAR ESMX 030320Z AUTO VRB01KT 0100 R01/0450N R19/0550N FG VV000 07/07 Q1023=
200510030250 METAR ESMX 030250Z AUTO VRB01KT 0200 R01/0750N R19/0700N FG VV001 07/07 Q1023=
200510030220 METAR ESMX 030220Z AUTO VRB01KT 0150 R01/0600N R19/0550N FG VV000 07/07 Q1023=
200510030150 METAR ESMX 030150Z AUTO VRB02KT 0150 R01/0600U R19/0650N FG VV000 07/07 Q1023=
200510030120 METAR ESMX 030120Z AUTO VRB02KT 0150 R01/0500D R19/0500N FG VV000 07/07 Q1023=
200510030050 METAR ESMX 030050Z AUTO VRB01KT 0100 R01/0400V0650U R19/0450N FG VV000 07/07 Q1023=
200510030020 METAR ESMX 030020Z VRB02KT 0350 R19/0800N FG VV001 06/06 Q1023=
200510022350 METAR ESMX 022350Z VRB02KT 0350 R19/0650N FG VV001 05/04 Q1022=
200510022320 METAR ESMX 022320Z VRB02KT 0500 R19/0500V0850D FG VV002 05/04 Q1022=
200510022250 METAR ESMX 022250Z VRB02KT 9999 R19/1200D BCFG SKC 04/04 Q1022=
200510022220 METAR ESMX 022220Z VRB02KT 9999 R19/P1500N BCFG SKC 05/05 Q1022=
200510022150 METAR ESMX 022150Z VRB03KT 9999 MIFG SKC 07/06 Q1022=
200510022120 METAR ESMX 022120Z 23004KT CAVOK 06/06 Q1022=
200510022050 METAR ESMX 022050Z VRB03KT CAVOK 07/07 Q1022=
200510022020 METAR ESMX 022020Z VRB03KT 9999 MIFG SKC 07/07 Q1021=
200510021950 METAR ESMX 021950Z VRB03KT 9999 MIFG SKC 07/07 Q1021=
200510021920 METAR ESMX 021920Z 22004KT CAVOK 08/07 Q1020=
200510021850 METAR ESMX 021850Z VRB03KT CAVOK 09/08 Q1020=
200510021820 METAR ESMX 021820Z VRB03KT CAVOK 08/07 Q1020=
200510021750 METAR ESMX 021750Z 24005KT 9999 MIFG SKC 07/07 Q1019=
200510021720 METAR ESMX 021720Z VRB03KT 9999 MIFG SKC 08/08 Q1018=
200510021650 METAR ESMX 021650Z VRB02KT 9999 MIFG FEW045 10/08 Q1018=
200510021620 METAR ESMX 021620Z VRB03KT 9999 MIFG NSC 11/09 Q1018=
200510021550 METAR ESMX 021550Z VRB03KT 9999 FEW025 13/09 Q1017=
200510021520 METAR ESMX 021520Z VRB03KT 9999 FEW028 14/09 Q1017=
200510021450 METAR ESMX 021450Z 28004KT 9999 FEW027 14/08 Q1017=
200510021420 METAR ESMX 021420Z 28005KT 9999 FEW026 15/08 Q1016=
200510021350 METAR ESMX 021350Z 30006KT 9999 FEW025 14/09 Q1016=
200510021320 METAR ESMX 021320Z 29005KT 9999 SCT022 14/09 Q1016=
200510021250 METAR ESMX 021250Z 31007KT 9999 SCT022 15/10 Q1016=
200510021220 METAR ESMX 021220Z 29006KT 9999 SCT017 15/11 Q1015=
200510021150 METAR ESMX 021150Z AUTO 28005KT 250V320 9999 FEW014 SCT021 BKN056 14/11 Q1015=
200510021120 METAR ESMX 021120Z AUTO 27005KT 240V310 9999 FEW010 SCT018 BKN053 13/11 Q1015=
200510021050 METAR ESMX 021050Z AUTO 27004KT 240V320 9999 FEW010 SCT020 OVC041 13/11 Q1014=
200510021020 METAR ESMX 021020Z AUTO 26004KT 9999 FEW011 BKN018 OVC023 12/11 Q1014=
200510020950 METAR ESMX 020950Z AUTO 25004KT 200V270 9999 FEW010 BKN016 OVC039 12/11 Q1014=
200510020920 METAR ESMX 020920Z AUTO 25004KT 9999 FEW003 SCT008 BKN010 12/11 Q1013=
200510020850 METAR ESMX 020850Z AUTO 20004KT 150V220 9999 FEW001 SCT003 BKN004 12/11 Q1013 REDZ=
200510020820 METAR ESMX 020820Z AUTO 14004KT 110V170 2800 DZ SCT002 BKN005 OVC006 11/11 Q1013=
200510020750 METAR ESMX 020750Z AUTO VRB03KT 2700 +DZ FEW002 OVC004 11/11 Q1012=
200510020720 METAR ESMX 020720Z AUTO 15004KT 3000 OVC003 11/10 Q1012 REDZ=
200510020650 METAR ESMX 020650Z AUTO VRB03KT 3400 -SHRA FEW002 OVC004 11/10 Q1012=
200510020620 METAR ESMX 020620Z AUTO 15004KT 110V180 2300 +DZ FEW003 OVC004 11/10 Q1012=
200510020550 METAR ESMX 020550Z AUTO 14004KT 110V180 5000 BR FEW004 OVC006 11/10 Q1011=
200510020520 METAR ESMX 020520Z AUTO 15004KT 110V190 3400 FEW005 BKN006 OVC008 11/10 Q1011 RERA=
200510020450 METAR ESMX 020450Z AUTO 15004KT 120V190 7000 DZ FEW005 SCT008 OVC011 10/10 Q1011=
200510020420 METAR ESMX 020420Z AUTO 16004KT 110V190 5000 -RA FEW004 BKN005 OVC023 10/10 Q1010=
200510020350 METAR ESMX 020350Z AUTO 15004KT 110V180 4300 RA FEW003 SCT005 BKN006 10/10 Q1010=
200510020320 METAR ESMX 020320Z AUTO 15004KT 120V180 5000 DZ FEW004 SCT006 BKN007 10/10 Q1010=
200510020250 METAR ESMX 020250Z AUTO VRB03KT 6000 DZ FEW004 OVC054 10/10 Q1010=
200510020220 METAR ESMX 020220Z AUTO 15004KT 120V180 6000 -DZ FEW006 BKN061 10/10 Q1010=
200510020150 METAR ESMX 020150Z AUTO 14004KT 100V160 6000 -RA FEW039 SCT044 BKN062 10/10 Q1010=
200510020120 METAR ESMX 020120Z AUTO 13004KT 100V170 6000 -RA FEW015 SCT018 BKN021 10/10 Q1010=
200510020050 METAR ESMX 020050Z AUTO VRB02KT 7000 -RA FEW013 OVC017 10/10 Q1010=
200510020020 METAR ESMX 020020Z AUTO VRB03KT 8000 -RA FEW018 SCT021 BKN025 10/10 Q1010=
200510012350 METAR ESMX 012350Z AUTO VRB03KT 7000 -RA FEW024 SCT032 10/10 Q1010=
200510012320 METAR ESMX 012320Z AUTO VRB03KT 7000 -RA FEW024 10/10 Q1010=
200510012250 METAR ESMX 012250Z AUTO VRB03KT 7000 -RA NSC 10/10 Q1010=
200510012220 METAR ESMX 012220Z AUTO VRB03KT 9000 -RA FEW047 10/10 Q1010=
200510012150 METAR ESMX 012150Z AUTO VRB03KT 8000 RA FEW077 10/09 Q1011=
200510012120 METAR ESMX 012120Z AUTO 13004KT 090V160 9999 -RA FEW020 10/09 Q1011=
200510012050 METAR ESMX 012050Z AUTO 14004KT 110V170 7000 RA FEW023 SCT039 10/09 Q1011=
200510012020 METAR ESMX 012020Z AUTO 16004KT 8000 RA BKN024 10/09 Q1011=
200510011950 METAR ESMX 011950Z AUTO 16006KT 110V180 9999 DZ FEW031 SCT068 10/09 Q1010=
200510011920 METAR ESMX 011920Z AUTO 14005KT 100V170 9999 -RA SCT029 11/09 Q1011=
200510011850 METAR ESMX 011850Z AUTO 16006KT 9999 DZ FEW030 SCT040 BKN069 11/09 Q1010=
200510011820 METAR ESMX 011820Z AUTO 15007KT 9999 -RA FEW041 BKN070 11/09 Q1010=
200510011750 METAR ESMX 011750Z AUTO 16007KT 140V200 9999 -RA FEW075 12/09 Q1010=
200510011720 METAR ESMX 011720Z AUTO 15009KT 120V190 9999 -RA FEW022 12/09 Q1010=
200510011650 METAR ESMX 011650Z AUTO 16009KT 110V200 9999 FEW021 BKN025 OVC031 12/09 Q1011=
200510011620 METAR ESMX 011620Z AUTO 16009KT 130V190 9999 FEW021 BKN026 OVC034 12/08 Q1010=
200510011550 METAR ESMX 011550Z AUTO 16010KT 120V200 9999 ////// 13/08 Q1010=
200510011520 METAR ESMX 011520Z AUTO 16010G20KT 120V190 9999 ////// 13/08 Q1010=
200510011450 METAR ESMX 011450Z AUTO 16011KT 120V200 9999 ////// 13/08 Q1011=
200510011420 METAR ESMX 011420Z AUTO 16011KT 130V190 9999 ////// 13/07 Q1011=
200510011350 METAR ESMX 011350Z AUTO 16013KT 110V200 9999 ////// 13/07 Q1011=
200510011320 METAR ESMX 011320Z AUTO 16016KT 130V190 9999 ////// 13/07 Q1011=
200510011250 METAR ESMX 011250Z AUTO 16015KT 9999 FEW031 14/07 Q1011=
200510011220 METAR ESMX 011220Z AUTO 18013KT 150V210 9999 FEW030 14/07 Q1011=
Fallo de consulta: el error es SELECT command denied to user 'users'@'localhost' for table 'tafs_2005'
