##########################################################
# Query made at 04/19/2024 20:44:09 UTC
# Time interval: from 01/01/2005 12:00  to 01/31/2005 12:59  UTC
##########################################################

##########################################################
# ESMX, Vaxjo (Sweden)
# WMO index: 02641. WIGOS ID: 0-20000-0-02648
# Latitude 56-51N. Longitude 014-50E. Altitude 199 m.
##########################################################

200501311250 METAR ESMX 311250Z 31011KT 270V340 CAVOK 04/M07 Q1003=
200501311220 METAR ESMX 311220Z 30010KT 270V330 CAVOK 03/M07 Q1004=
200501311150 METAR ESMX 311150Z 30012KT CAVOK 03/M07 Q1004=
200501311120 METAR ESMX 311120Z 29010KT 260V320 CAVOK 03/M06 Q1004=
200501311050 METAR ESMX 311050Z 30011KT 250V320 CAVOK 03/M06 Q1004=
200501311020 METAR ESMX 311020Z 29008KT 230V330 CAVOK 03/M05 Q1004=
200501310950 METAR ESMX 310950Z 29011KT CAVOK 02/M04 Q1004=
200501310920 METAR ESMX 310920Z 30011KT CAVOK 02/M05 Q1004=
200501310850 METAR ESMX 310850Z 30009KT 250V320 CAVOK 02/M03 Q1004=
200501310820 METAR ESMX 310820Z 30006KT CAVOK 02/M02 Q1003=
200501310750 METAR ESMX 310750Z 30005KT 250V330 CAVOK 01/M02 Q1003=
200501310720 METAR ESMX 310720Z 32006KT CAVOK 02/M01 Q1003=
200501310650 METAR ESMX 310650Z 32008KT CAVOK 03/M01 Q1003=
200501310620 METAR ESMX 310620Z 32012KT 9999 FEW033 03/M01 Q1002=
200501310550 METAR ESMX 310550Z 31013KT 9999 FEW015 SCT030 04/00 Q1001=
200501310520 METAR ESMX 310520Z 30010KT 260V330 9999 BKN015 BKN040 05/02 Q1001 REDZ=
200501310450 METAR ESMX 310450Z 30013KT 270V340 9999 DZ FEW015 BKN018 BKN029 05/03 Q1001=
200501310420 METAR ESMX 310420Z AUTO 28010KT 230V300 9999 BKN011 OVC020 05/04 Q1000=
200501310350 METAR ESMX 310350Z AUTO 29009KT 250V330 9999 OVC010 05/04 Q1001=
200501310320 METAR ESMX 310320Z AUTO 27011KT 230V310 9999 OVC010 05/04 Q1001=
200501310250 METAR ESMX 310250Z AUTO 26012KT 230V290 9999 OVC008 05/04 Q1001=
200501310220 METAR ESMX 310220Z AUTO 26012KT 230V290 9999 OVC007 05/04 Q1001=
200501310150 METAR ESMX 310150Z AUTO 25012KT 210V290 9999 FEW006 BKN008 OVC009 05/03 Q1001=
200501310120 METAR ESMX 310120Z 26013G23KT 200V290 9999 OVC005 04/03 Q1002=
200501310050 METAR ESMX 310050Z 25011KT 9999 OVC006 04/03 Q1002=
200501310020 METAR ESMX 310020Z 28011G21KT 240V320 9999 OVC007 04/03 Q1003=
200501302350 METAR ESMX 302350Z 25010KT 210V290 9999 OVC007 03/02 Q1003=
200501302320 METAR ESMX 302320Z 24010KT 210V280 9999 FEW007 OVC008 03/02 Q1003=
200501302250 METAR ESMX 302250Z 26010KT 9999 FEW005 OVC007 03/02 Q1003=
200501302220 METAR ESMX 302220Z 26009KT 230V290 9999 BR FEW005 OVC006 03/02 Q1004=
200501302150 METAR ESMX 302150Z 25008KT 210V290 9999 BR BKN003 OVC006 03/02 Q1005=
200501302120 METAR ESMX 302120Z 23008KT 8000 BR OVC003 03/02 Q1006=
200501302050 METAR ESMX 302050Z 24008KT 200V270 7000 BR OVC003 02/02 Q1006=
200501302020 METAR ESMX 302020Z 24007KT 6000 BR OVC002 02/02 Q1006=
200501301950 METAR ESMX 301950Z 22006KT 4500 BR SCT002 OVC004 02/02 Q1007=
200501301920 METAR ESMX 301920Z 24006KT 4500 OVC002 02/02 Q1008=
200501301850 METAR ESMX 301850Z 24007KT 200V280 2100 OVC002 02/01 Q1008=
200501301820 METAR ESMX 301820Z 20006KT 0900 R01/P1500N R19/P1500N FG VV002 01/01 Q1009=
200501301750 METAR ESMX 301750Z 18007KT 1200 R01/P1500N R19/P1500N BR VV002 01/01 Q1009=
200501301720 METAR ESMX 301720Z 21005KT 1500 R01/P1500N R19/P1500N BR VV002 01/01 Q1010=
200501301650 METAR ESMX 301650Z 19006KT 1300 R01/P1500N R19/P1500N BR VV002 01/01 Q1010=
200501301620 METAR ESMX 301620Z 22005KT 1400 R01/P1500N R19/P1500N BR VV002 01/00 Q1010=
200501301550 METAR ESMX 301550Z 24006KT 1200 R01/P1500N R19/P1500N BR VV002 01/00 Q1011=
200501301520 METAR ESMX 301520Z 23007KT 190V280 1700 BR VV003 00/00 Q1011=
200501301450 METAR ESMX 301450Z 22008KT 3400 BR OVC002 01/00 Q1011=
200501301420 METAR ESMX 301420Z 24008KT 3700 BR OVC002 01/00 Q1012=
200501301350 METAR ESMX 301350Z 22007KT 3100 BR OVC002 01/00 Q1012=
200501301320 METAR ESMX 301320Z AUTO 23006KT 190V260 2900 BR OVC001 01/00 Q1013=
200501301250 METAR ESMX 301250Z AUTO 22006KT 160V240 2200 BR OVC001 00/00 Q1013=
200501301220 METAR ESMX 301220Z AUTO 22007KT 180V250 2200 BR OVC001 00/00 Q1013=
200501301150 METAR ESMX 301150Z AUTO 23007KT 2700 BR OVC001 00/00 Q1013=
200501301120 METAR ESMX 301120Z AUTO 21007KT 2300 OVC001 00/00 Q1014=
200501301050 METAR ESMX 301050Z AUTO 21007KT 1300 R01/1400U R19/P1500N OVC001 00/00 Q1014=
200501301020 METAR ESMX 301020Z AUTO 20006KT 0500 R01/0750N R19/0800N FG VV001 00/00 Q1015=
200501300950 METAR ESMX 300950Z AUTO 21006KT 0300 R01/0550N R19/0600N FG VV001 M00/M00 Q1015=
200501300920 METAR ESMX 300920Z AUTO 19007KT 0250 R01/0450N R19/0500N FG VV001 M00/M00 Q1015=
200501300850 METAR ESMX 300850Z AUTO 19006KT 0200 R01/0450N R19/0450N FG VV000 M00/M01 Q1016=
200501300820 METAR ESMX 300820Z AUTO 18005KT 0250 R01/0500N R19/0550N FG VV000 M01/M01 Q1016=
200501300750 METAR ESMX 300750Z AUTO 20004KT 0300 R01/0700N R19/0800N FG VV001 M01/M01 Q1016=
200501300720 METAR ESMX 300720Z AUTO 19005KT 0500 R01/1300N R19/1400D FG VV001 M01/M01 Q1016=
200501300650 METAR ESMX 300650Z AUTO 20006KT 160V220 0750 R01/P1500U R19/P1500N FG VV001 M01/M01 Q1016=
200501300620 METAR ESMX 300620Z AUTO 20005KT 0700 R01/P1500N R19/P1500N FG VV002 M01/M01 Q1016=
200501300550 METAR ESMX 300550Z AUTO 20005KT 0600 R01/P1500N R19/P1500N FG VV002 M01/M01 Q1016=
200501300520 METAR ESMX 300520Z AUTO 20005KT 0650 R01/P1500N R19/P1500N FG OVC001 M01/M01 Q1016=
200501300450 METAR ESMX 300450Z AUTO 19007KT 0800 R01/P1500N R19/P1500N FG OVC001 M01/M02 Q1016=
200501300420 METAR ESMX 300420Z AUTO 22006KT 0800 R01/P1500N R19/P1500N FG VV002 M02/M02 Q1016=
200501300350 METAR ESMX 300350Z AUTO 20006KT 1400 R01/P1500N R19/P1500N BR OVC001 M02/M02 Q1017=
200501300320 METAR ESMX 300320Z AUTO 22006KT 1500 BR OVC001 M02/M02 Q1017=
200501300250 METAR ESMX 300250Z AUTO 21005KT 1500 BR OVC001 M02/M02 Q1017=
200501300220 METAR ESMX 300220Z AUTO 22004KT 1400 R01/P1500N R19/P1500N BR OVC001 M02/M02 Q1018=
200501300150 METAR ESMX 300150Z AUTO 22005KT 1500 BR OVC001 M02/M03 Q1018=
200501300120 METAR ESMX 300120Z AUTO VRB04KT 1200 R01/P1500N R19/P1500N BR OVC001 M02/M03 Q1018=
200501300050 METAR ESMX 300050Z AUTO 21005KT 1400 R01/P1500N R19/P1500N BR OVC001 M02/M03 Q1018=
200501300020 METAR ESMX 300020Z AUTO 23005KT 1200 R01/P1500N R19/P1500N BR OVC001 M03/M03 Q1018=
200501292350 METAR ESMX 292350Z AUTO 21006KT 2100 BR OVC001 M03/M03 Q1018=
200501292320 METAR ESMX 292320Z AUTO 19006KT 3100 BR OVC002 M03/M04 Q1018=
200501292250 METAR ESMX 292250Z AUTO 19005KT 4900 BR OVC002 M03/M04 Q1019=
200501292220 METAR ESMX 292220Z AUTO 22005KT 3900 BR OVC002 M04/M04 Q1019=
200501292150 METAR ESMX 292150Z AUTO 20005KT 8000 BR OVC003 M04/M04 Q1019=
200501292120 METAR ESMX 292120Z AUTO 19005KT 9999 OVC004 M04/M04 Q1019 RESN=
200501292050 METAR ESMX 292050Z AUTO 18005KT 9999 -SN OVC004 M04/M05 Q1019=
200501292020 METAR ESMX 292020Z AUTO 18006KT 9000 -SN BKN006 OVC009 M04/M05 Q1019=
200501291950 METAR ESMX 291950Z AUTO 18004KT 2500 -SN FEW005 BKN010 M04/M05 Q1019=
200501291920 METAR ESMX 291920Z AUTO 18004KT 3200 -SN FEW007 BKN018 M04/M05 Q1019=
200501291850 METAR ESMX 291850Z AUTO 22005KT 4200 -SN BKN019 OVC025 M04/M05 Q1019=
200501291820 METAR ESMX 291820Z AUTO 23004KT 7000 SG FEW021 SCT028 M04/M06 Q1019=
200501291750 METAR ESMX 291750Z AUTO VRB03KT 4000 -SN SCT024 BKN030 M04/M06 Q1019=
200501291720 METAR ESMX 291720Z AUTO VRB03KT 9999 OVC025 M04/M06 Q1019=
200501291650 METAR ESMX 291650Z AUTO 25005KT 9999 SCT019 OVC028 M04/M07 Q1019=
200501291620 METAR ESMX 291620Z AUTO VRB03KT 9999 OVC020 M04/M07 Q1019=
200501291550 METAR ESMX 291550Z AUTO 27004KT 9999 OVC023 M04/M08 Q1019=
200501291520 METAR ESMX 291520Z AUTO 27004KT 230V300 9999 OVC024 M04/M08 Q1019=
200501291450 METAR ESMX 291450Z AUTO 30005KT 260V330 9999 OVC027 M04/M08 Q1019=
200501291420 METAR ESMX 291420Z AUTO 29005KT 260V320 9999 FEW032 OVC038 M04/M08 Q1019=
200501291350 METAR ESMX 291350Z AUTO 30006KT 9999 FEW031 OVC037 M04/M08 Q1019=
200501291320 METAR ESMX 291320Z AUTO 30006KT 260V330 9999 FEW032 M04/M08 Q1019=
200501291250 METAR ESMX 291250Z AUTO VRB03KT 9999 NSC M04/M09 Q1018=
200501291220 METAR ESMX 291220Z AUTO VRB02KT 9999 FEW021 M04/M09 Q1019=
200501291150 METAR ESMX 291150Z VRB02KT 9999 FEW023 M04/M09 Q1019=
200501291120 METAR ESMX 291120Z VRB03KT 9999 FEW018 M04/M09 Q1019=
200501291050 METAR ESMX 291050Z 01007KT 9999 SCT019 M05/M09 Q1019=
200501291020 METAR ESMX 291020Z 02006KT 9999 BKN019 M05/M09 Q1019=
200501290950 METAR ESMX 290950Z 01004KT 9999 SCT020 M06/M09 Q1019=
200501290920 METAR ESMX 290920Z 35006KT 9999 BKN017 M06/M09 Q1019=
200501290850 METAR ESMX 290850Z 35006KT 9999 BKN017 M06/M09 Q1018=
200501290820 METAR ESMX 290820Z 35008KT 9999 OVC019 M06/M09 Q1019=
200501290750 METAR ESMX 290750Z 35008KT 330V050 9999 OVC020 M06/M09 Q1018=
200501290720 METAR ESMX 290720Z 03006KT 9999 OVC020 M06/M09 Q1018=
200501290650 METAR ESMX 290650Z 01006KT 9999 OVC020 M06/M09 Q1018=
200501290620 METAR ESMX 290620Z AUTO 01005KT 9999 -SHSN OVC021 M06/M09 Q1018=
200501290550 METAR ESMX 290550Z AUTO VRB05KT 9999 -SHSN OVC022 M08/M09 Q1018=
200501290520 METAR ESMX 290520Z AUTO VRB01KT 9999 OVC024 M09/M10 Q1018=
200501290450 METAR ESMX 290450Z AUTO VRB01KT 9999 BKN026 M10/M11 Q1018=
200501290420 METAR ESMX 290420Z AUTO 00000KT 9999 FEW027 M10/M10 Q1018=
200501290350 METAR ESMX 290350Z AUTO VRB01KT 9999 NSC M08/M10 Q1017 RESN=
200501290320 METAR ESMX 290320Z AUTO 35006KT 9999 -SHSN FEW015 M07/M10 Q1017=
200501290250 METAR ESMX 290250Z AUTO 35007KT 9999 SG OVC015 M06/M09 Q1017=
200501290220 METAR ESMX 290220Z AUTO 34007KT 9999 OVC015 M06/M09 Q1017=
200501290150 METAR ESMX 290150Z AUTO 35006KT 320V020 9999 OVC015 M06/M09 Q1017=
200501290120 METAR ESMX 290120Z AUTO 34005KT 9999 OVC015 M06/M09 Q1017 RESN=
200501290050 METAR ESMX 290050Z AUTO 34004KT 290V010 9999 OVC015 M06/M09 Q1017 RESN=
200501290020 METAR ESMX 290020Z AUTO 34005KT 300V010 9999 -SN OVC016 M06/M09 Q1017=
200501282350 METAR ESMX 282350Z AUTO 31005KT 9999 OVC018 M06/M09 Q1017=
200501282320 METAR ESMX 282320Z AUTO VRB03KT 9999 OVC018 M06/M09 Q1017=
200501282250 METAR ESMX 282250Z AUTO VRB02KT 9999 OVC018 M06/M09 Q1017=
200501282220 METAR ESMX 282220Z AUTO VRB03KT 9999 OVC018 M06/M09 Q1017=
200501282150 METAR ESMX 282150Z AUTO 04005KT 9999 OVC018 M06/M09 Q1017=
200501282120 METAR ESMX 282120Z AUTO 35005KT 9999 OVC017 M06/M09 Q1017=
200501282050 METAR ESMX 282050Z 36006KT 9999 OVC015 M05/M08 Q1017=
200501282020 METAR ESMX 282020Z 33008KT 300V010 9999 OVC016 M05/M08 Q1017=
200501281950 METAR ESMX 281950Z 36008KT 9999 OVC017 M05/M08 Q1017=
200501281920 METAR ESMX 281920Z 02006KT 9999 OVC017 M04/M08 Q1017=
200501281850 METAR ESMX 281850Z 02006KT 9999 OVC016 M05/M08 Q1016=
200501281820 METAR ESMX 281820Z 02006KT 9999 OVC017 M04/M08 Q1016=
200501281750 METAR ESMX 281750Z 01007KT 9999 OVC016 M04/M07 Q1016=
200501281720 METAR ESMX 281720Z 35008KT 9999 BKN017 M04/M07 Q1016=
200501281650 METAR ESMX 281650Z 01004KT 320V030 9999 -SN BKN017 M04/M07 Q1016=
200501281620 METAR ESMX 281620Z 33007KT 300V010 9999 BKN017 M04/M07 Q1016=
200501281550 METAR ESMX 281550Z 33008KT 9999 BKN017 M04/M07 Q1016=
200501281520 METAR ESMX 281520Z 35006KT 9999 BKN018 M03/M06 Q1016=
200501281420 METAR ESMX 281420Z 36006KT 9999 BKN016 M03/M06 Q1016=
200501281350 METAR ESMX 281350Z 34007KT 9999 BKN016 M03/M06 Q1016=
200501281320 METAR ESMX 281320Z 35008KT 9999 SCT016 BKN021 M03/M06 Q1015=
200501281250 METAR ESMX 281250Z 36008KT 9999 BKN014 M03/M06 Q1015=
200501281220 METAR ESMX 281220Z 35007KT 9999 BKN013 M03/M05 Q1015=
200501281150 METAR ESMX 281150Z 32005KT 290V010 9999 SCT013 M02/M06 Q1015=
200501281120 METAR ESMX 281120Z 35006KT 9999 SCT012 BKN015 M03/M05 Q1015=
200501281050 METAR ESMX 281050Z 35006KT 9999 BKN010 M03/M05 Q1015=
200501281020 METAR ESMX 281020Z 35006KT 9999 BKN009 M03/M05 Q1015=
200501280950 METAR ESMX 280950Z 04007KT 9999 BKN007 M04/M05 Q1015=
200501280920 METAR ESMX 280920Z 04008KT 9999 BKN006 M04/M05 Q1015 RESN=
200501280850 METAR ESMX 280850Z 02005KT 9999 BKN005 M04/M05 Q1014 RESN=
200501280820 METAR ESMX 280820Z 03005KT 9999 -SN SCT007 M05/M05 Q1014=
200501280750 METAR ESMX 280750Z 04006KT 350V050 9999 OVC005 M05/M06 Q1014=
200501280720 METAR ESMX 280720Z VRB03KT 9999 BKN005 M05/M05 Q1014=
200501280650 METAR ESMX 280650Z 04007KT 360V070 9999 BKN005 M05/M06 Q1013=
200501280620 METAR ESMX 280620Z VRB02KT 9999 SCT007 BKN010 M06/M07 Q1013=
200501280520 METAR ESMX 280520Z 02005KT 9999 BKN007 M06/M06 Q1013=
200501280450 METAR ESMX 280450Z 01006KT CAVOK M05/M06 Q1012=
200501280420 METAR ESMX 280420Z AUTO 01005KT 9999 SCT079 M05/M06 Q1012=
200501280350 METAR ESMX 280350Z AUTO 01004KT 9999 BKN077 M04/M05 Q1012=
200501280320 METAR ESMX 280320Z AUTO 02005KT 9999 OVC076 M04/M05 Q1012=
200501280250 METAR ESMX 280250Z AUTO 01005KT 9999 BKN072 M04/M05 Q1012=
200501280220 METAR ESMX 280220Z AUTO 02004KT 9999 OVC065 M04/M05 Q1012=
200501280150 METAR ESMX 280150Z AUTO 01004KT 9999 OVC073 M04/M05 Q1012=
200501280120 METAR ESMX 280120Z AUTO VRB03KT 9999 FEW068 OVC079 M04/M05 Q1012=
200501280050 METAR ESMX 280050Z 01004KT CAVOK M04/M05 Q1012=
200501280020 METAR ESMX 280020Z VRB03KT CAVOK M04/M05 Q1012=
200501272350 METAR ESMX 272350Z VRB03KT CAVOK M04/M05 Q1012=
200501272320 METAR ESMX 272320Z VRB03KT CAVOK M05/M05 Q1012=
200501272250 METAR ESMX 272250Z VRB02KT CAVOK M04/M05 Q1012=
200501272220 METAR ESMX 272220Z VRB02KT CAVOK M04/M05 Q1013=
200501272150 METAR ESMX 272150Z VRB03KT CAVOK M04/M05 Q1013=
200501272120 METAR ESMX 272120Z 04004KT CAVOK M04/M05 Q1013=
200501272050 METAR ESMX 272050Z 04004KT CAVOK M04/M04 Q1013=
200501272020 METAR ESMX 272020Z 02002KT CAVOK M04/M05 Q1013=
200501271950 METAR ESMX 271950Z 02004KT CAVOK M03/M05 Q1013=
200501271920 METAR ESMX 271920Z 01004KT CAVOK M05/M06 Q1013=
200501271850 METAR ESMX 271850Z 02004KT CAVOK M04/M05 Q1013=
200501271820 METAR ESMX 271820Z 03003KT CAVOK M04/M05 Q1013=
200501271750 METAR ESMX 271750Z 35003KT CAVOK M04/M05 Q1013=
200501271650 METAR ESMX 271650Z VRB03KT CAVOK M03/M05 Q1013=
200501271620 METAR ESMX 271620Z VRB02KT CAVOK M02/M05 Q1014=
200501271550 METAR ESMX 271550Z 35004KT CAVOK M02/M05 Q1014=
200501271520 METAR ESMX 271520Z 34004KT CAVOK M02/M05 Q1014=
200501271450 METAR ESMX 271450Z 34004KT CAVOK M02/M04 Q1014=
200501271420 METAR ESMX 271420Z 36004KT CAVOK M01/M04 Q1014=
200501271350 METAR ESMX 271350Z 01005KT CAVOK M00/M05 Q1014=
200501271320 METAR ESMX 271320Z 01005KT 350V050 CAVOK M00/M04 Q1014=
200501271250 METAR ESMX 271250Z 01007KT CAVOK M00/M04 Q1015=
200501271220 METAR ESMX 271220Z 01007KT 9999 FEW020 M00/M04 Q1015=
200501271150 METAR ESMX 271150Z 02007KT 9999 SCT014 M00/M04 Q1015=
200501271120 METAR ESMX 271120Z 03007KT 9999 BKN013 M01/M04 Q1016=
200501271050 METAR ESMX 271050Z 35007KT 9999 FEW008 M01/M03 Q1016=
200501271020 METAR ESMX 271020Z 01006KT 9999 FEW008 M02/M04 Q1016=
200501270950 METAR ESMX 270950Z 36005KT 9999 FEW008 M02/M04 Q1016=
200501270920 METAR ESMX 270920Z VRB03KT 9999 FEW005 M03/M04 Q1016=
200501270850 METAR ESMX 270850Z 31006KT 9999 BKN007 M03/M04 Q1016=
200501270820 METAR ESMX 270820Z 32006KT 9999 BKN006 M03/M04 Q1017=
200501270750 METAR ESMX 270750Z 33005KT 9999 BKN006 M03/M04 Q1017=
200501270720 METAR ESMX 270720Z 32006KT 9999 BKN005 M03/M04 Q1017=
200501270650 METAR ESMX 270650Z 33004KT 9999 BKN006 M03/M04 Q1017=
200501270620 METAR ESMX 270620Z VRB03KT 9999 BKN006 M03/M04 Q1017=
200501270550 METAR ESMX 270550Z VRB03KT 9999 OVC006 M03/M04 Q1017=
200501270520 METAR ESMX 270520Z 31004KT 9999 OVC006 M03/M04 Q1018=
200501270450 METAR ESMX 270450Z VRB03KT 9999 OVC005 M03/M04 Q1018=
200501270420 METAR ESMX 270420Z AUTO 30004KT 9999 OVC005 M03/M04 Q1018=
200501270350 METAR ESMX 270350Z AUTO VRB03KT 9999 OVC005 M03/M04 Q1019=
200501270320 METAR ESMX 270320Z AUTO VRB03KT 9999 OVC005 M03/M04 Q1019=
200501270250 METAR ESMX 270250Z AUTO 30004KT 9999 OVC005 M03/M04 Q1019=
200501270220 METAR ESMX 270220Z AUTO 31006KT 9999 OVC005 M03/M04 Q1019=
200501270150 METAR ESMX 270150Z AUTO 30006KT 270V330 9999 OVC005 M03/M04 Q1020=
200501270120 METAR ESMX 270120Z AUTO 31007KT 270V330 9999 OVC005 M04/M04 Q1020 REDZ=
200501270050 METAR ESMX 270050Z 29004KT 9999 BKN005 M04/M05 Q1021 RESN=
200501270020 METAR ESMX 270020Z VRB02KT 3500 SG OVC006 M04/M05 Q1021=
200501262350 METAR ESMX 262350Z VRB03KT 8000 -SN OVC006 M04/M05 Q1021=
200501262320 METAR ESMX 262320Z VRB02KT 9000 -SN OVC007 M04/M05 Q1022=
200501262250 METAR ESMX 262250Z VRB02KT 9999 BKN008 M04/M05 Q1022=
200501262220 METAR ESMX 262220Z VRB02KT 9999 BKN010 M05/M06 Q1022=
200501262150 METAR ESMX 262150Z VRB03KT 9999 FEW015 BKN017 M05/M06 Q1023=
200501262120 METAR ESMX 262120Z VRB02KT 9999 BKN019 M05/M06 Q1023=
200501262050 METAR ESMX 262050Z VRB03KT 9999 FEW024 BKN028 M05/M06 Q1023=
200501262020 METAR ESMX 262020Z VRB02KT 9999 SCT035 BKN060 M05/M06 Q1023=
200501261950 METAR ESMX 261950Z VRB03KT 9999 OVC040 M05/M06 Q1024=
200501261920 METAR ESMX 261920Z VRB02KT CAVOK M05/M06 Q1024=
200501261850 METAR ESMX 261850Z VRB02KT CAVOK M05/M06 Q1024=
200501261820 METAR ESMX 261820Z VRB03KT CAVOK M05/M06 Q1024=
200501261750 METAR ESMX 261750Z VRB02KT CAVOK M05/M06 Q1024=
200501261720 METAR ESMX 261720Z VRB02KT CAVOK M05/M06 Q1025=
200501261650 METAR ESMX 261650Z VRB03KT CAVOK M05/M06 Q1025=
200501261620 METAR ESMX 261620Z VRB03KT CAVOK M05/M06 Q1025=
200501261550 METAR ESMX 261550Z VRB02KT CAVOK M05/M06 Q1025=
200501261520 METAR ESMX 261520Z VRB02KT CAVOK M04/M06 Q1026=
200501261450 METAR ESMX 261450Z VRB01KT CAVOK M04/M06 Q1026=
200501261420 METAR ESMX 261420Z VRB02KT CAVOK M04/M06 Q1026=
200501261350 METAR ESMX 261350Z VRB02KT 9999 FEW010 M04/M06 Q1026=
200501261320 METAR ESMX 261320Z 00000KT 9999 FEW010 M04/M06 Q1026=
200501261250 METAR ESMX 261250Z VRB01KT 9999 FEW008 M04/M06 Q1027=
200501261220 METAR ESMX 261220Z VRB02KT 9999 SCT007 BKN080 M05/M06 Q1027=
200501261150 METAR ESMX 261150Z VRB03KT 9999 OVC006 M05/M06 Q1028=
200501261120 METAR ESMX 261120Z VRB03KT 9999 OVC005 M05/M06 Q1028=
200501261050 METAR ESMX 261050Z VRB01KT 9999 OVC005 M05/M06 Q1028=
200501261020 METAR ESMX 261020Z VRB02KT 9999 BKN004 M05/M06 Q1028=
200501260950 METAR ESMX 260950Z VRB02KT 9999 OVC004 M05/M06 Q1028=
200501260920 METAR ESMX 260920Z VRB02KT 7000 -SN BKN004 M05/M06 Q1028=
200501260850 METAR ESMX 260850Z 32005KT 290V030 9999 OVC004 M06/M06 Q1028=
200501260820 METAR ESMX 260820Z 36005KT 9999 OVC004 M06/M06 Q1029=
200501260750 METAR ESMX 260750Z 34007KT 9999 OVC004 M05/M06 Q1029=
200501260720 METAR ESMX 260720Z 34006KT 9999 BKN005 M05/M06 Q1028=
200501260650 METAR ESMX 260650Z 34006KT 9999 SCT006 BKN035 M05/M06 Q1029=
200501260620 METAR ESMX 260620Z 34005KT 9999 FEW007 BKN033 M05/M06 Q1028=
200501260550 METAR ESMX 260550Z 35005KT 9999 FEW008 BKN035 M05/M06 Q1029=
200501260520 METAR ESMX 260520Z 36004KT 9999 SCT008 BKN036 M05/M06 Q1029=
200501260450 METAR ESMX 260450Z 35006KT 9999 SCT008 BKN038 M05/M06 Q1029=
200501260420 METAR ESMX 260420Z AUTO 35007KT 9999 FEW009 BKN039 M05/M06 Q1029=
200501260350 METAR ESMX 260350Z AUTO 35006KT 9999 BKN009 M06/M07 Q1029=
200501260320 METAR ESMX 260320Z AUTO 02006KT 9999 FEW008 BKN044 M05/M06 Q1029=
200501260250 METAR ESMX 260250Z AUTO 03004KT 9999 FEW037 OVC045 M04/M06 Q1029=
200501260220 METAR ESMX 260220Z AUTO 03004KT 350V060 9999 FEW038 OVC044 M04/M06 Q1030=
200501260150 METAR ESMX 260150Z AUTO 01006KT 9999 BKN008 OVC044 M04/M06 Q1029=
200501260120 METAR ESMX 260120Z 35008KT 9999 OVC008 M04/M06 Q1029=
200501260050 METAR ESMX 260050Z 02008KT 9999 OVC008 M04/M06 Q1030=
200501260020 METAR ESMX 260020Z 35008KT 9999 OVC008 M05/M06 Q1030=
200501252350 METAR ESMX 252350Z 01006KT 9999 OVC009 M05/M06 Q1030=
200501252320 METAR ESMX 252320Z 03007KT 9999 BKN009 M05/M06 Q1030=
200501252250 METAR ESMX 252250Z 35008KT 9999 BKN009 M05/M06 Q1030=
200501252220 METAR ESMX 252220Z 01008KT 9999 BKN009 M05/M06 Q1030=
200501252150 METAR ESMX 252150Z 02007KT 350V050 9999 BKN009 M05/M06 Q1030=
200501252120 METAR ESMX 252120Z 01009KT 9999 FEW010 BKN030 M05/M06 Q1030=
200501252050 METAR ESMX 252050Z 35008KT 9999 BKN030 M05/M06 Q1030=
200501252020 METAR ESMX 252020Z 01004KT 9999 FEW030 M05/M07 Q1029=
200501251950 METAR ESMX 251950Z 03007KT 9999 SCT011 M04/M06 Q1029=
200501251920 METAR ESMX 251920Z 01009KT 9999 BKN012 M04/M06 Q1029=
200501251850 METAR ESMX 251850Z 02009KT 9999 FEW012 SCT029 M04/M06 Q1029=
200501251820 METAR ESMX 251820Z 01010KT 9999 BKN013 BKN029 M04/M06 Q1029=
200501251750 METAR ESMX 251750Z 02009KT 9999 SCT014 OVC030 M03/M06 Q1029=
200501251720 METAR ESMX 251720Z 01011KT 9999 BKN014 M03/M06 Q1028=
200501251650 METAR ESMX 251650Z 35010KT 9999 FEW015 SCT018 BKN023 M04/M06 Q1028=
200501251550 METAR ESMX 251550Z 03009KT 9999 BKN016 BKN027 M03/M05 Q1027=
200501251520 METAR ESMX 251520Z 02008KT 350V060 9999 BKN016 M03/M05 Q1027=
200501251450 METAR ESMX 251450Z 02010KT 9999 BKN015 M03/M05 Q1026=
200501251420 METAR ESMX 251420Z 36011KT 9999 BKN015 M03/M05 Q1026=
200501251350 METAR ESMX 251350Z 02011KT 9999 -SHSN BKN016 M03/M05 Q1026=
200501251320 METAR ESMX 251320Z 02011KT 9999 -SHSN FEW015 BKN017 M02/M05 Q1026=
200501251250 METAR ESMX 251250Z 01012KT 7000 -SHSN FEW015 SCT018 BKN021 M02/M05 Q1025=
200501251220 METAR ESMX 251220Z 01010KT 9999 FEW014 BKN016 M02/M05 Q1025=
200501251150 METAR ESMX 251150Z 01012KT 9999 SCT014 M02/M05 Q1025=
200501251120 METAR ESMX 251120Z 02013KT 9999 FEW014 SCT017 BKN029 M02/M05 Q1025 RESN=
200501251050 METAR ESMX 251050Z 03009KT 9999 -SN FEW013 SCT016 BKN018 M03/M05 Q1025=
200501251020 METAR ESMX 251020Z 02011KT 4100 -SN FEW006 SCT014 BKN028 M03/M05 Q1025=
200501250950 METAR ESMX 250950Z 02012KT 9999 BKN015 M03/M06 Q1024=
200501250920 METAR ESMX 250920Z 02011KT 9999 BKN015 M03/M06 Q1024=
200501250850 METAR ESMX 250850Z 01012KT 340V040 9999 FEW013 BKN016 M04/M06 Q1024=
200501250820 METAR ESMX 250820Z 02009KT 9999 FEW014 SCT017 BKN026 M04/M06 Q1024=
200501250750 METAR ESMX 250750Z 02011KT 9999 FEW015 SCT026 M04/M06 Q1023=
200501250720 METAR ESMX 250720Z 01010KT 9999 FEW016 SCT019 BKN024 M04/M06 Q1023=
200501250650 METAR ESMX 250650Z 01010KT 9999 FEW013 OVC018 M04/M06 Q1023=
200501250620 METAR ESMX 250620Z 01009KT 9999 OVC014 M04/M06 Q1023=
200501250550 METAR ESMX 250550Z 01010KT 9999 FEW012 BKN017 M05/M06 Q1023=
200501250520 METAR ESMX 250520Z 02010KT 9999 SCT016 BKN020 M05/M07 Q1022=
200501250450 METAR ESMX 250450Z 36007KT 9999 FEW015 SCT070 M06/M07 Q1022=
200501250420 METAR ESMX 250420Z AUTO 01008KT 9999 OVC071 M05/M07 Q1022=
200501250350 METAR ESMX 250350Z AUTO 01007KT 9999 FEW072 M06/M07 Q1022=
200501250320 METAR ESMX 250320Z AUTO 35007KT 9999 NSC M06/M07 Q1022=
200501250250 METAR ESMX 250250Z AUTO 01008KT 9999 NSC M06/M07 Q1022=
200501250220 METAR ESMX 250220Z AUTO 35009KT 9999 FEW033 M06/M07 Q1022=
200501250150 METAR ESMX 250150Z AUTO 36008KT 9999 NSC M06/M07 Q1022=
200501250120 METAR ESMX 250120Z 01005KT CAVOK M05/M07 Q1022=
200501250050 METAR ESMX 250050Z 35008KT CAVOK M06/M07 Q1021=
200501250020 METAR ESMX 250020Z 35009KT CAVOK M06/M07 Q1021=
200501242350 METAR ESMX 242350Z 35010KT CAVOK M05/M07 Q1021=
200501242320 METAR ESMX 242320Z 35009KT CAVOK M05/M07 Q1021=
200501242250 METAR ESMX 242250Z 01008KT CAVOK M05/M07 Q1021=
200501242220 METAR ESMX 242220Z 35010KT CAVOK M05/M07 Q1021=
200501242150 METAR ESMX 242150Z 35012KT CAVOK M05/M07 Q1021=
200501242120 METAR ESMX 242120Z 36012KT CAVOK M04/M06 Q1021=
200501241950 METAR ESMX 241950Z 34011KT 9999 FEW022 M04/M06 Q1020=
200501241920 METAR ESMX 241920Z 01011KT 9999 FEW018 SCT021 M04/M06 Q1020=
200501241850 METAR ESMX 241850Z 35013KT 9999 FEW037 M04/M06 Q1020=
200501241820 METAR ESMX 241820Z 36012KT 9999 -SN FEW040 M04/M06 Q1020=
200501241750 METAR ESMX 241750Z 36012KT CAVOK M04/M06 Q1019=
200501241720 METAR ESMX 241720Z 35012KT 9999 FEW032 M03/M06 Q1019=
200501241650 METAR ESMX 241650Z 36013KT 9999 FEW032 M03/M06 Q1019=
200501241620 METAR ESMX 241620Z 35012KT 9999 FEW031 M03/M07 Q1019=
200501241550 METAR ESMX 241550Z 01011KT 9999 FEW030 M03/M07 Q1019=
200501241520 METAR ESMX 241520Z 36010KT 9999 FEW030 M03/M07 Q1018=
200501241450 METAR ESMX 241450Z 02012KT 340V050 9999 FEW025 M03/M07 Q1018=
200501241420 METAR ESMX 241420Z 01014KT 9999 FEW023 M03/M06 Q1017=
200501241350 METAR ESMX 241350Z 02013KT 350V050 9999 SCT021 M02/M06 Q1018=
200501241320 METAR ESMX 241320Z 02013KT 340V050 9999 SCT020 M02/M06 Q1017=
200501241250 METAR ESMX 241250Z 36014KT 9999 FEW021 M02/M06 Q1017=
200501241220 METAR ESMX 241220Z 01016KT 9999 FEW023 M02/M07 Q1017=
200501241150 METAR ESMX 241150Z 35016KT 9999 FEW020 M03/M07 Q1017=
200501241120 METAR ESMX 241120Z 01013KT 9999 FEW021 M02/M06 Q1016=
200501241050 METAR ESMX 241050Z 36012KT 9999 FEW018 M03/M06 Q1016=
200501241020 METAR ESMX 241020Z 36011KT 9999 FEW017 M03/M06 Q1016=
200501240950 METAR ESMX 240950Z 35011KT 9999 FEW016 OVC030 M03/M06 Q1016=
200501240920 METAR ESMX 240920Z 34012KT 9999 SCT027 M03/M06 Q1016=
200501240850 METAR ESMX 240850Z 01015KT 9999 FEW014 BKN016 M03/M05 Q1015=
200501240820 METAR ESMX 240820Z 35014KT 9999 BKN015 M03/M05 Q1015=
200501240750 METAR ESMX 240750Z 35010KT 9999 FEW015 BKN030 M03/M05 Q1015=
200501240720 METAR ESMX 240720Z 36012KT 9999 FEW015 SCT035 M03/M06 Q1014=
200501240650 METAR ESMX 240650Z 36011KT 9999 FEW015 M03/M05 Q1014 RESN=
200501240620 METAR ESMX 240620Z 34012KT 9999 -SN SCT015 BKN045 M03/M05 Q1014=
200501240550 METAR ESMX 240550Z 34014KT 9999 -SN SCT015 SCT045 M03/M05 Q1013=
200501240520 METAR ESMX 240520Z 36012KT 9999 -SN BKN013 M03/M05 Q1013=
200501240450 METAR ESMX 240450Z 36011KT 9999 -SN SCT012 SCT045 M03/M05 Q1013=
200501240420 METAR ESMX 240420Z AUTO 36012KT 9999 -SHSN ////// M03/M05 Q1013=
200501240350 METAR ESMX 240350Z AUTO 35010KT 9999 -SHSN ////// M03/M05 Q1013=
200501240320 METAR ESMX 240320Z AUTO 01011KT 9999 -SHSN BKN010 M03/M05 Q1012=
200501240250 METAR ESMX 240250Z AUTO 02011KT 9999 BKN011 OVC041 M04/M05 Q1012=
200501240220 METAR ESMX 240220Z AUTO 01009KT 9999 BKN039 M04/M06 Q1011=
200501240150 METAR ESMX 240150Z AUTO 35011KT 9999 OVC037 M04/M06 Q1011=
200501240120 METAR ESMX 240120Z 35009KT 9999 BKN034 M04/M06 Q1011=
200501232350 METAR ESMX 232350Z 36010KT 9999 BKN038 M04/M06 Q1010=
200501232320 METAR ESMX 232320Z 36009KT 9999 BKN035 M05/M06 Q1009=
200501232250 METAR ESMX 232250Z 36009KT 9999 BKN039 M05/M06 Q1009=
200501232220 METAR ESMX 232220Z 35009KT 9999 BKN040 M05/M06 Q1008=
200501232150 METAR ESMX 232150Z 36009KT 9999 SCT040 M05/M06 Q1008=
200501232120 METAR ESMX 232120Z 36009KT CAVOK M05/M06 Q1008=
200501232050 METAR ESMX 232050Z 01008KT CAVOK M05/M06 Q1007=
200501232020 METAR ESMX 232020Z 01008KT CAVOK M05/M06 Q1007=
200501231950 METAR ESMX 231950Z 36008KT CAVOK M05/M06 Q1006=
200501231920 METAR ESMX 231920Z 35008KT CAVOK M05/M06 Q1006=
200501231850 METAR ESMX 231850Z 36007KT CAVOK M05/M06 Q1005=
200501231820 METAR ESMX 231820Z 35007KT CAVOK M06/M06 Q1005=
200501231750 METAR ESMX 231750Z 34008KT CAVOK M06/M07 Q1005=
200501231720 METAR ESMX 231720Z 35006KT CAVOK M06/M07 Q1004=
200501231650 METAR ESMX 231650Z 33005KT CAVOK M06/M07 Q1004=
200501231620 METAR ESMX 231620Z 34004KT CAVOK M06/M08 Q1003=
200501231550 METAR ESMX 231550Z VRB03KT CAVOK M05/M07 Q1003=
200501231520 METAR ESMX 231520Z VRB02KT CAVOK M04/M06 Q1003=
200501231450 METAR ESMX 231450Z VRB02KT CAVOK M04/M07 Q1003=
200501231420 METAR ESMX 231420Z VRB01KT CAVOK M02/M06 Q1003=
200501231350 METAR ESMX 231350Z VRB01KT CAVOK M02/M06 Q1003=
200501231320 METAR ESMX 231320Z AUTO 00000KT 9999 NSC M01/M06 Q1003=
200501231250 METAR ESMX 231250Z AUTO 00000KT 9999 NSC M02/M06 Q1003=
200501231220 METAR ESMX 231220Z AUTO VRB02KT 9999 NSC M02/M06 Q1003=
200501231150 METAR ESMX 231150Z AUTO VRB02KT 9999 NSC M02/M06 Q1003=
200501231120 METAR ESMX 231120Z AUTO VRB02KT 9999 NSC M02/M06 Q1003=
200501231050 METAR ESMX 231050Z AUTO VRB03KT 9999 NSC M02/M06 Q1003=
200501231020 METAR ESMX 231020Z AUTO 26004KT 9999 NSC M03/M06 Q1003=
200501230950 METAR ESMX 230950Z AUTO VRB02KT 9999 NSC M04/M07 Q1004=
200501230920 METAR ESMX 230920Z AUTO 00000KT 9999 NSC M04/M07 Q1004=
200501230850 METAR ESMX 230850Z AUTO 00000KT 9999 NSC M05/M07 Q1004=
200501230820 METAR ESMX 230820Z AUTO VRB01KT 9999 NSC M05/M07 Q1005=
200501230750 METAR ESMX 230750Z AUTO VRB02KT 9999 NSC M05/M07 Q1005=
200501230720 METAR ESMX 230720Z AUTO 31004KT 260V330 9999 NSC M05/M07 Q1005=
200501230650 METAR ESMX 230650Z AUTO 27007KT 9999 NSC M05/M07 Q1005=
200501230620 METAR ESMX 230620Z AUTO 27006KT 230V300 9999 NSC M05/M07 Q1005=
200501230550 METAR ESMX 230550Z AUTO 27006KT 9999 NSC M05/M07 Q1005=
200501230520 METAR ESMX 230520Z AUTO 29005KT 9999 NSC M05/M07 Q1005=
200501230450 METAR ESMX 230450Z AUTO 29006KT 9999 NSC M05/M07 Q1005=
200501230420 METAR ESMX 230420Z AUTO 30006KT 9999 NSC M05/M07 Q1006=
200501230350 METAR ESMX 230350Z AUTO 28006KT 250V320 9999 NSC M05/M07 Q1006=
200501230320 METAR ESMX 230320Z AUTO 29006KT 9999 NSC M05/M07 Q1006=
200501230250 METAR ESMX 230250Z AUTO 29006KT 260V320 9999 NSC M05/M07 Q1006=
200501230220 METAR ESMX 230220Z AUTO 29006KT 9999 NSC M05/M07 Q1006=
200501230150 METAR ESMX 230150Z AUTO 30007KT 270V330 9999 NSC M05/M07 Q1006=
200501230120 METAR ESMX 230120Z AUTO 29007KT 260V330 9999 NSC M04/M07 Q1006=
200501230050 METAR ESMX 230050Z AUTO 30007KT 270V340 9999 NSC M04/M06 Q1006=
200501230020 METAR ESMX 230020Z AUTO 29006KT 250V320 9999 NSC M05/M06 Q1006=
200501222350 METAR ESMX 222350Z AUTO 29006KT 250V030 9999 NSC M04/M06 Q1006=
200501222320 METAR ESMX 222320Z AUTO 29006KT 9999 NSC M04/M06 Q1006=
200501222250 METAR ESMX 222250Z AUTO 28006KT 9999 NSC M05/M06 Q1006=
200501222220 METAR ESMX 222220Z AUTO 28005KT 250V320 9999 NSC M05/M06 Q1005=
200501222150 METAR ESMX 222150Z AUTO 28005KT 250V320 9999 NSC M04/M06 Q1005=
200501222120 METAR ESMX 222120Z AUTO 27005KT 240V300 9999 NSC M04/M06 Q1005=
200501222050 METAR ESMX 222050Z AUTO 28005KT 9999 NSC M04/M05 Q1005=
200501222020 METAR ESMX 222020Z AUTO 30005KT 9999 NSC M04/M05 Q1005=
200501221950 METAR ESMX 221950Z AUTO 29007KT 9999 NSC M03/M05 Q1005=
200501221920 METAR ESMX 221920Z AUTO 30007KT 9999 NSC M03/M05 Q1005=
200501221850 METAR ESMX 221850Z AUTO 30005KT 260V330 9999 NSC M03/M05 Q1004=
200501221820 METAR ESMX 221820Z AUTO 29007KT 9999 NSC M03/M05 Q1004=
200501221750 METAR ESMX 221750Z AUTO 29007KT 9999 NSC M03/M05 Q1004=
200501221720 METAR ESMX 221720Z AUTO 29005KT 9999 NSC M03/M05 Q1004=
200501221650 METAR ESMX 221650Z AUTO 28004KT 9999 NSC M03/M05 Q1004=
200501221620 METAR ESMX 221620Z AUTO 30005KT 9999 NSC M03/M05 Q1003=
200501221550 METAR ESMX 221550Z AUTO 30007KT 9999 NSC M02/M05 Q1003=
200501221520 METAR ESMX 221520Z AUTO 31007KT 9999 NSC M02/M06 Q1003=
200501221450 METAR ESMX 221450Z AUTO 31006KT 280V340 9999 NSC M02/M06 Q1002=
200501221420 METAR ESMX 221420Z AUTO 29006KT 9999 NSC M02/M05 Q1002=
200501221350 METAR ESMX 221350Z AUTO 31008KT 9999 NSC M02/M06 Q1002=
200501221320 METAR ESMX 221320Z AUTO 32010KT 280V350 9999 FEW019 M02/M06 Q1002=
200501221250 METAR ESMX 221250Z AUTO 31010KT 270V340 9999 NSC M02/M06 Q1001=
200501221220 METAR ESMX 221220Z AUTO 31009KT 260V350 9999 FEW020 M02/M05 Q1001=
200501221150 METAR ESMX 221150Z 32010KT 280V360 9999 SCT020 M02/M05 Q1001=
200501221120 METAR ESMX 221120Z 32010KT 290V360 9999 SCT018 M02/M05 Q1000=
200501221050 METAR ESMX 221050Z 32010KT 280V340 9999 BKN018 M02/M05 Q1000=
200501221020 METAR ESMX 221020Z 32010KT 300V010 9999 BKN018 M02/M05 Q1000=
200501220950 METAR ESMX 220950Z 33011KT 9999 BKN020 M02/M05 Q0999=
200501220920 METAR ESMX 220920Z 33013KT 9999 BKN021 M02/M06 Q0999=
200501220850 METAR ESMX 220850Z 34014KT 9999 BKN023 M02/M06 Q0998=
200501220820 METAR ESMX 220820Z 32013KT 280V350 9999 FEW018 BKN022 M02/M05 Q0998=
200501220750 METAR ESMX 220750Z 32011KT 9999 BKN017 M02/M05 Q0998=
200501220720 METAR ESMX 220720Z 32010KT 9999 BKN017 M02/M05 Q0997=
200501220650 METAR ESMX 220650Z 32009KT 9999 BKN018 M02/M04 Q0997=
200501220620 METAR ESMX 220620Z AUTO 32010KT 280V340 9999 OVC017 M02/M04 Q0996=
200501220550 METAR ESMX 220550Z AUTO 33010KT 280V350 9999 FEW018 OVC020 M02/M04 Q0996=
200501220520 METAR ESMX 220520Z AUTO 31010KT 9999 OVC017 M02/M04 Q0996=
200501220450 METAR ESMX 220450Z AUTO 31007KT 270V330 9999 OVC018 M02/M04 Q0995=
200501220420 METAR ESMX 220420Z AUTO 32008KT 9999 BKN020 M01/M04 Q0995=
200501220350 METAR ESMX 220350Z AUTO 32011KT 9999 OVC017 M01/M04 Q0995=
200501220320 METAR ESMX 220320Z AUTO 33011KT 9999 FEW019 OVC022 M01/M04 Q0994=
200501220250 METAR ESMX 220250Z AUTO 31008KT 9999 FEW017 OVC024 M01/M03 Q0994=
200501220220 METAR ESMX 220220Z AUTO 31009KT 270V330 9999 OVC025 M02/M03 Q0993=
200501220150 METAR ESMX 220150Z AUTO 29007KT 9999 SCT013 BKN026 M02/M03 Q0993=
200501220120 METAR ESMX 220120Z AUTO 31008KT 9999 FEW012 SCT029 M02/M03 Q0993=
200501220050 METAR ESMX 220050Z AUTO 31008KT 280V340 9999 FEW035 M02/M03 Q0992=
200501220020 METAR ESMX 220020Z AUTO 29006KT 260V320 9999 SCT010 OVC036 M02/M02 Q0992=
200501212350 METAR ESMX 212350Z AUTO 31006KT 9999 FEW009 SCT011 BKN039 M02/M03 Q0991=
200501212320 METAR ESMX 212320Z AUTO 28006KT 250V320 9999 FEW036 BKN041 M02/M02 Q0991=
200501212250 METAR ESMX 212250Z AUTO 30005KT 9999 BKN036 M02/M03 Q0991=
200501212220 METAR ESMX 212220Z AUTO 30005KT 9999 BKN034 M02/M03 Q0990=
200501212150 METAR ESMX 212150Z AUTO 29004KT 9999 NSC M03/M03 Q0990=
200501212120 METAR ESMX 212120Z AUTO 28004KT 9999 FEW035 M03/M03 Q0990=
200501212050 METAR ESMX 212050Z 30004KT 9999 FEW010 SCT023 M02/M03 Q0990=
200501212020 METAR ESMX 212020Z 31005KT 9999 FEW020 SCT063 BKN078 M02/M03 Q0989=
200501211950 METAR ESMX 211950Z 31005KT 9999 -SHSN BKN009 M01/M02 Q0989=
200501211920 METAR ESMX 211920Z 30006KT 270V330 9999 FEW010 SCT020 BKN065 M01/M02 Q0989=
200501211850 METAR ESMX 211850Z 31007KT 9999 -SN FEW011 BKN019 M01/M02 Q0988=
200501211820 METAR ESMX 211820Z 30005KT 9999 -SN FEW009 BKN011 M01/M02 Q0988=
200501211750 METAR ESMX 211750Z 31006KT 9999 FEW009 BKN011 M01/M02 Q0987=
200501211720 METAR ESMX 211720Z 29004KT 9999 FEW013 SCT100 M01/M02 Q0987=
200501211650 METAR ESMX 211650Z 29004KT 260V330 9999 FEW045 SCT110 M01/M02 Q0987=
200501211620 METAR ESMX 211620Z 30005KT 9999 FEW039 BKN043 M01/M02 Q0986=
200501211550 METAR ESMX 211550Z 29006KT 9999 FEW015 BKN039 M01/M02 Q0986=
200501211520 METAR ESMX 211520Z 30007KT 9999 FEW012 BKN040 M00/M02 Q0986=
200501211450 METAR ESMX 211450Z 30007KT 9999 FEW013 SCT020 BKN040 M00/M01 Q0986=
200501211420 METAR ESMX 211420Z 30008KT 9999 FEW013 SCT018 SCT044 M00/M01 Q0985=
200501211350 METAR ESMX 211350Z 30008KT 260V330 9999 SCT015 SCT045 00/M02 Q0985=
200501211320 METAR ESMX 211320Z 30007KT 270V340 9999 FEW012 SCT017 BKN021 00/M02 Q0985=
200501211250 METAR ESMX 211250Z 29007KT 260V340 9999 FEW014 SCT017 BKN020 01/M01 Q0984=
200501211120 METAR ESMX 211120Z 30009KT 9999 BKN014 01/M01 Q0983=
200501211050 METAR ESMX 211050Z 30011KT 9999 FEW015 BKN035 01/M02 Q0982=
200501211020 METAR ESMX 211020Z 30010KT 9999 SCT033 01/M02 Q0982=
200501210820 METAR ESMX 210820Z 31009KT 9999 FEW011 BKN014 OVC021 M00/M00 Q0980=
200501210750 METAR ESMX 210750Z 31008KT 5000 -SN FEW006 SCT010 M00/M00 Q0979=
200501210720 METAR ESMX 210720Z 33009KT 1600 SN FEW005 SCT009 BKN012 00/M00 Q0979=
200501210650 METAR ESMX 210650Z 31007KT 9999 -SN FEW009 SCT012 BKN018 00/M00 Q0978=
200501210620 METAR ESMX 210620Z 32010KT 290V360 9999 -SHSN FEW008 SCT015 BKN040 00/M01 Q0977=
200501210550 METAR ESMX 210550Z 31011KT 9999 FEW008 SCT014 OVC020 00/M00 Q0976 RESN=
200501210520 METAR ESMX 210520Z 31011KT 9999 -SN FEW010 BKN014 00/M00 Q0976=
200501210450 METAR ESMX 210450Z 32010KT 280V350 3500 -SN FEW007 SCT010 BKN013 00/M00 Q0975=
200501210420 METAR ESMX 210420Z AUTO 31013KT 2700 -SN FEW010 BKN013 00/M00 Q0974=
200501210350 METAR ESMX 210350Z AUTO 30013KT 270V330 9999 -RA FEW012 BKN015 BKN019 00/M01 Q0973=
200501210320 METAR ESMX 210320Z AUTO 30013KT 9999 FEW011 OVC013 00/M01 Q0973=
200501210250 METAR ESMX 210250Z AUTO 31014KT 9999 OVC011 01/M01 Q0972 REDZ=
200501210220 METAR ESMX 210220Z AUTO 30011KT 9999 DZ OVC011 00/M01 Q0972=
200501210150 METAR ESMX 210150Z AUTO 30012KT 250V330 9999 BKN010 OVC015 00/M01 Q0971=
200501210120 METAR ESMX 210120Z 30011KT 260V320 9999 FEW008 OVC010 00/M01 Q0971=
200501210050 METAR ESMX 210050Z 30011KT 260V330 9999 FEW009 OVC010 00/M01 Q0971=
200501210020 METAR ESMX 210020Z 29009KT 250V320 9999 FEW009 OVC011 00/M01 Q0970=
200501202350 METAR ESMX 202350Z 30010KT 9999 BKN008 00/M01 Q0970 RESN=
200501202320 METAR ESMX 202320Z 30009KT 9999 FEW009 SCT011 OVC026 M00/M01 Q0970 RESN=
200501202250 METAR ESMX 202250Z 29008KT 9999 FEW014 OVC024 M00/M01 Q0969=
200501202220 METAR ESMX 202220Z 31006KT 9999 FEW011 BKN020 M00/M01 Q0969=
200501202150 METAR ESMX 202150Z 34009KT 9999 FEW009 SCT011 BKN013 M00/M01 Q0969 RERA=
200501202120 METAR ESMX 202120Z 32008KT 9999 -RA FEW002 OVC007 00/00 Q0969=
200501202050 METAR ESMX 202050Z VRB03KT 4000 RA FEW002 BKN007 00/00 Q0969=
200501202020 METAR ESMX 202020Z VRB03KT 4500 RA SCT002 BKN005 00/00 Q0969=
200501201950 METAR ESMX 201950Z VRB03KT 4600 -SNRA FEW002 SCT004 BKN012 00/00 Q0969=
200501201920 METAR ESMX 201920Z VRB03KT 5000 -SNRA SCT003 BKN013 01/00 Q0969=
200501201850 METAR ESMX 201850Z 23006KT 6000 -RASN BKN003 01/00 Q0969 RESN=
200501201820 METAR ESMX 201820Z 22005KT 200V260 2200 SN BKN004 01/00 Q0969=
200501201750 METAR ESMX 201750Z 24007KT 210V280 4000 SN BKN004 01/01 Q0970=
200501201720 METAR ESMX 201720Z 24007KT 6000 -SN BKN004 01/01 Q0970=
200501201650 METAR ESMX 201650Z 22008KT 9999 BKN005 OVC007 02/01 Q0970=
200501201620 METAR ESMX 201620Z 22009KT 190V260 9999 BKN004 OVC010 02/01 Q0970 REDZ=
200501201550 METAR ESMX 201550Z 23007KT 200V270 7000 BR FEW004 SCT006 BKN007 02/01 Q0970=
200501201520 METAR ESMX 201520Z 24007KT 9999 FEW005 SCT007 BKN009 02/01 Q0970 RERA=
200501201450 METAR ESMX 201450Z 21008KT 7000 -SHRA FEW004 BKN005 02/01 Q0971=
200501201420 METAR ESMX 201420Z 23009KT 4000 -RA FEW005 BKN006 OVC008 02/01 Q0971=
200501201350 METAR ESMX 201350Z 21012KT 6000 -RA BKN006 OVC009 02/01 Q0971=
200501201320 METAR ESMX 201320Z 22011G21KT 9999 FEW008 OVC010 02/02 Q0971=
200501201250 METAR ESMX 201250Z 22011KT 190V250 9000 BR FEW008 SCT011 BKN014 02/02 Q0972 REDZ=
200501201220 METAR ESMX 201220Z 19008KT 8000 -SN FEW009 SCT011 BKN014 01/01 Q0972=
200501201150 METAR ESMX 201150Z 19010KT 8000 -RA SCT010 BKN018 01/01 Q0973=
200501201120 METAR ESMX 201120Z 19011KT 9999 SCT005 BKN013 01/01 Q0973=
200501201050 METAR ESMX 201050Z 19010KT 9999 -RA SCT005 BKN009 01/01 Q0974 RERA=
200501201020 METAR ESMX 201020Z 18008KT 9999 -SN FEW003 BKN005 BKN008 01/01 Q0974=
200501200950 METAR ESMX 200950Z 16008KT 9999 -SN SCT004 BKN007 OVC012 00/00 Q0975=
200501200920 METAR ESMX 200920Z 17008KT 9999 SCT005 BKN009 OVC013 00/00 Q0975=
200501200850 METAR ESMX 200850Z 17008KT 9999 -RA FEW005 SCT006 BKN008 00/00 Q0976=
200501200820 METAR ESMX 200820Z 16009KT 1800 SN FEW005 SCT007 BKN009 00/00 Q0976=
200501200750 METAR ESMX 200750Z 15011KT 5000 -SN FEW004 BKN006 OVC010 00/00 Q0977=
200501200720 METAR ESMX 200720Z 17008KT 140V200 2000 -SN FEW003 BKN005 00/00 Q0977=
200501200650 METAR ESMX 200650Z 14010KT 110V190 1500 R01/P1500N R19/P1500N -SN FEW002 BKN005 00/00 Q0978=
200501200620 METAR ESMX 200620Z 15008KT 120V190 0750 R01/P1500N R19/P1500N +SN VV005 00/00 Q0978=
200501200550 METAR ESMX 200550Z 15011KT 110V170 1600 -SN FEW004 BKN005 00/00 Q0980=
200501200520 METAR ESMX 200520Z 15008KT 2400 -SN FEW004 BKN006 00/00 Q0981=
200501200450 METAR ESMX 200450Z 16008KT 2000 -SN SCT005 BKN007 00/00 Q0982=
200501200420 METAR ESMX 200420Z AUTO 15009KT 3200 RA FEW005 SCT007 BKN009 00/M00 Q0983=
200501200350 METAR ESMX 200350Z AUTO 16009KT 120V190 9999 FEW006 SCT008 OVC010 01/M00 Q0984=
200501200320 METAR ESMX 200320Z AUTO 17009KT 9999 FEW006 BKN008 BKN010 01/M00 Q0986=
200501200250 METAR ESMX 200250Z AUTO 18011KT 9999 FEW005 BKN007 OVC009 01/M00 Q0987 RERA=
200501200220 METAR ESMX 200220Z AUTO 18009KT 9000 FEW003 BKN005 BKN008 00/00 Q0988 RERA=
200501200150 METAR ESMX 200150Z AUTO 17007KT 3800 -SHRA FEW003 BKN005 OVC007 01/00 Q0989=
200501200120 METAR ESMX 200120Z 20009KT 4300 BR OVC002 01/00 Q0990 REDZ=
200501200050 METAR ESMX 200050Z 20007KT 5000 FEW002 BKN004 00/00 Q0991=
200501200020 METAR ESMX 200020Z 19008KT 3800 OVC002 00/00 Q0992 RERA=
200501192350 METAR ESMX 192350Z 15006KT 2600 -RA OVC002 01/00 Q0992=
200501192320 METAR ESMX 192320Z 16006KT 010V180 4600 BR BKN002 OVC006 01/00 Q0993=
200501192250 METAR ESMX 192250Z 16004KT 110V180 5000 BR SCT003 BKN010 01/00 Q0994=
200501192220 METAR ESMX 192220Z 18007KT 130V200 2900 OVC002 01/00 Q0994 RERA=
200501192150 METAR ESMX 192150Z 14004KT 2700 -SHRA OVC002 00/00 Q0994=
200501192120 METAR ESMX 192120Z 14004KT 080V170 4200 -SHRA OVC002 00/M00 Q0995=
200501192050 METAR ESMX 192050Z VRB03KT 6000 -DZ OVC003 00/M00 Q0996=
200501192020 METAR ESMX 192020Z 13004KT 100V160 6000 -SHRA OVC003 00/M00 Q0996=
200501191950 METAR ESMX 191950Z 13004KT 090V170 6000 -SN OVC005 00/M00 Q0996=
200501191920 METAR ESMX 191920Z 12004KT 070V160 9000 -SN FEW006 SCT013 BKN018 00/M00 Q0997=
200501191820 METAR ESMX 191820Z VRB03KT 8000 BR FEW020 SCT023 BKN027 00/M00 Q0997=
200501191720 METAR ESMX 191720Z VRB01KT 6000 BR FEW003 SCT005 OVC037 M00/M01 Q0997=
200501191650 METAR ESMX 191650Z VRB03KT 7000 BR FEW007 SCT036 M00/M01 Q0998=
200501191620 METAR ESMX 191620Z VRB03KT 9999 FEW009 BKN024 00/M01 Q0998=
200501191550 METAR ESMX 191550Z 17004KT 9999 FEW010 SCT017 BKN025 01/M01 Q0998=
200501191520 METAR ESMX 191520Z 15004KT 100V190 9999 FEW007 BKN025 01/M00 Q0998=
200501191450 METAR ESMX 191450Z VRB03KT 9999 SCT025 00/M01 Q0998=
200501191420 METAR ESMX 191420Z 16004KT 120V200 9999 FEW015 SCT023 01/M00 Q0997=
200501191350 METAR ESMX 191350Z 16004KT 140V200 9999 FEW009 SCT017 BKN025 01/M00 Q0997=
200501191320 METAR ESMX 191320Z 18004KT 9999 FEW004 SCT009 01/M00 Q0997=
200501191250 METAR ESMX 191250Z VRB02KT 9999 FEW005 02/00 Q0997=
200501191220 METAR ESMX 191220Z VRB03KT 9999 FEW005 02/00 Q0997=
200501191150 METAR ESMX 191150Z 12004KT 100V170 9000 BR FEW004 SCT019 01/01 Q0997=
200501191120 METAR ESMX 191120Z VRB01KT 7000 BR FEW011 SCT014 BKN020 00/00 Q0997=
200501191050 METAR ESMX 191050Z VRB02KT 7000 BR FEW003 SCT007 OVC012 00/00 Q0997=
200501191020 METAR ESMX 191020Z VRB02KT 8000 BR SCT005 BKN008 00/M00 Q0998=
200501190950 METAR ESMX 190950Z VRB02KT 8000 BR SCT003 OVC005 M00/M00 Q0998=
200501190920 METAR ESMX 190920Z 20004KT 160V230 9000 BR BKN002 OVC004 M00/M00 Q0997=
200501190850 METAR ESMX 190850Z 21004KT 4700 BR OVC002 M00/M00 Q0997=
200501190820 METAR ESMX 190820Z 20005KT 9000 BR OVC002 M00/M01 Q0997=
200501190750 METAR ESMX 190750Z 19004KT 1400 R01/P1500N R19/P1500N BR VV002 M00/M01 Q0997=
200501190720 METAR ESMX 190720Z 17005KT 150V210 1000 R01/P1500N R19/P1500N FG VV002 M00/M00 Q0997=
200501190650 METAR ESMX 190650Z 23006KT 170V240 2000 R01/P1500N R19/P1500N BR OVC002 M00/M00 Q0997=
200501190620 METAR ESMX 190620Z 19007KT 1700 BR OVC002 M00/M00 Q0996=
200501190550 METAR ESMX 190550Z 21006KT 3800 BR OVC002 M00/M00 Q0996=
200501190520 METAR ESMX 190520Z 19005KT 160V230 0500 R01/P1500U R19/P1500N FG VV003 M00/M00 Q0996=
200501190420 METAR ESMX 190420Z AUTO 15005KT 0550 R01/P1500N R19/P1500N FG VV001 00/00 Q0995=
200501190350 METAR ESMX 190350Z AUTO 16004KT 0600 R01/P1500D R19/P1500N FG VV001 00/00 Q0995=
200501190320 METAR ESMX 190320Z AUTO 17004KT 140V200 0550 R01/P1500U R19/P1500U FG VV001 00/00 Q0995=
200501190250 METAR ESMX 190250Z AUTO 19004KT 0300 R01/1000D R19/1200N FG VV001 00/00 Q0994=
200501190220 METAR ESMX 190220Z AUTO 18004KT 2800 BR SCT001 BKN003 01/01 Q0994=
200501190150 METAR ESMX 190150Z AUTO VRB02KT 6000 BR NSC 00/00 Q0994=
200501190120 METAR ESMX 190120Z VRB03KT 9000 BR FEW023 SCT028 01/01 Q0994=
200501190050 METAR ESMX 190050Z VRB03KT 9000 BR FEW026 01/01 Q0994=
200501190020 METAR ESMX 190020Z VRB03KT 9999 FEW016 BKN030 01/01 Q0993=
200501182320 METAR ESMX 182320Z VRB03KT 8000 BR FEW002 SCT005 01/01 Q0993=
200501182250 METAR ESMX 182250Z VRB03KT 9999 FEW010 01/00 Q0993=
200501182220 METAR ESMX 182220Z VRB03KT 9999 SCT012 01/01 Q0992=
200501182150 METAR ESMX 182150Z 24004KT 9999 FEW008 BKN010 02/02 Q0992=
200501182120 METAR ESMX 182120Z 19005KT 9999 FEW009 BKN010 03/02 Q0992=
200501182050 METAR ESMX 182050Z 21006KT 170V250 9999 -SHRA FEW006 SCT008 BKN010 03/02 Q0991=
200501182020 METAR ESMX 182020Z 22008KT 9999 FEW005 BKN007 03/02 Q0991=
200501181950 METAR ESMX 181950Z 19008KT 9999 FEW005 BKN010 03/02 Q0991=
200501181920 METAR ESMX 181920Z 19008KT 9999 FEW006 BKN008 OVC010 03/03 Q0990=
200501181850 METAR ESMX 181850Z 20005KT 9999 FEW006 SCT020 BKN025 03/02 Q0990 RERA=
200501181450 METAR ESMX 181450Z 17010KT 140V210 9000 DZ FEW005 SCT006 OVC008 03/03 Q0988=
200501181420 METAR ESMX 181420Z 16010KT 9999 -RA FEW004 SCT005 BKN006 03/03 Q0988=
200501181350 METAR ESMX 181350Z 16010KT 140V230 6000 DZ OVC005 03/03 Q0988=
200501181320 METAR ESMX 181320Z 17010KT 9999 DZ FEW003 OVC007 03/03 Q0988=
200501181250 METAR ESMX 181250Z 17009KT 140V200 4700 -RA OVC003 03/03 Q0988=
200501181220 METAR ESMX 181220Z 17010KT 7000 OVC003 03/02 Q0989 REDZ=
200501181150 METAR ESMX 181150Z 17009KT 9999 OVC003 03/02 Q0989 REDZ=
200501181120 METAR ESMX 181120Z 16009KT 120V190 7000 DZ OVC004 03/02 Q0989=
200501181050 METAR ESMX 181050Z 16009KT 120V190 9999 DZ BKN004 OVC007 03/02 Q0990=
200501181020 METAR ESMX 181020Z 16010KT 120V190 9999 -RA OVC004 03/02 Q0990=
200501180950 METAR ESMX 180950Z 16010KT 9000 DZ OVC004 03/02 Q0991=
200501180920 METAR ESMX 180920Z 17009KT 150V210 7000 DZ FEW003 OVC004 03/02 Q0991=
200501180850 METAR ESMX 180850Z 16010KT 5000 -DZ OVC003 03/02 Q0992=
200501180820 METAR ESMX 180820Z 17010KT 140V200 2800 DZ OVC003 03/02 Q0992=
200501180750 METAR ESMX 180750Z 16011KT 120V190 2500 -DZ OVC002 03/02 Q0993=
200501180720 METAR ESMX 180720Z 16010KT 120V190 3000 -SHRA OVC003 03/02 Q0993=
200501180650 METAR ESMX 180650Z 17010KT 5000 FEW003 OVC005 02/02 Q0994 REDZ=
200501180620 METAR ESMX 180620Z 16011KT 5000 DZ OVC004 03/02 Q0994=
200501180550 METAR ESMX 180550Z 16011KT 130V190 6000 -RA OVC004 03/02 Q0994=
200501180520 METAR ESMX 180520Z 16010KT 4300 -SHRA BR OVC005 03/02 Q0995=
200501180450 METAR ESMX 180450Z 16010KT 120V190 4600 -SHRA BR OVC004 03/02 Q0995=
200501180420 METAR ESMX 180420Z AUTO 17012KT 4700 DZ OVC005 03/02 Q0996=
200501180350 METAR ESMX 180350Z AUTO 17011G21KT 3700 -RA FEW005 BKN007 OVC009 03/02 Q0996=
200501180320 METAR ESMX 180320Z AUTO 17011KT 3400 DZ OVC005 03/02 Q0997=
200501180250 METAR ESMX 180250Z AUTO 17012KT 140V200 2900 DZ OVC005 03/02 Q0998=
200501180220 METAR ESMX 180220Z AUTO 17010KT 140V200 3000 BR OVC005 03/02 Q0998=
200501180150 METAR ESMX 180150Z AUTO 17010KT 3200 BR OVC005 03/02 Q0999=
200501180120 METAR ESMX 180120Z 17012KT 140V200 3200 BR OVC005 03/02 Q0999=
200501180050 METAR ESMX 180050Z 16010KT 2900 BR BKN004 03/03 Q1000=
200501180020 METAR ESMX 180020Z 17009KT 2300 BR OVC004 03/03 Q1001=
200501172350 METAR ESMX 172350Z 17010KT 2100 BR OVC004 03/03 Q1001=
200501172320 METAR ESMX 172320Z 17011KT 2300 BR OVC004 03/03 Q1002=
200501172250 METAR ESMX 172250Z 17011KT 2200 BR OVC004 03/03 Q1002=
200501172220 METAR ESMX 172220Z 18012KT 2200 BR OVC003 03/03 Q1003=
200501172150 METAR ESMX 172150Z 18012KT 2000 BR OVC002 03/03 Q1003=
200501172120 METAR ESMX 172120Z 17012KT 1600 -SHRA BR OVC002 03/03 Q1003=
200501172050 METAR ESMX 172050Z 17012KT 1500 -SHRA BR OVC002 03/02 Q1004=
200501171950 METAR ESMX 171950Z 18014KT 1300 R01/P1500N R19/P1500N BR OVC002 02/02 Q1005=
200501171920 METAR ESMX 171920Z 18012KT 1600 BR OVC002 02/02 Q1005=
200501171850 METAR ESMX 171850Z 18012KT 2300 BR OVC002 02/02 Q1006=
200501171820 METAR ESMX 171820Z 18014KT 2500 BR OVC003 02/02 Q1006=
200501171750 METAR ESMX 171750Z 18012KT 2300 BR BKN002 OVC004 02/02 Q1006=
200501171720 METAR ESMX 171720Z 18011KT 1900 BR BKN002 02/02 Q1007=
200501171650 METAR ESMX 171650Z 18012KT 1600 BR BKN002 02/02 Q1007=
200501171620 METAR ESMX 171620Z 17009KT 1700 BR BKN002 02/02 Q1008=
200501171550 METAR ESMX 171550Z 17009KT 3600 BR SCT002 BKN003 02/02 Q1008=
200501171520 METAR ESMX 171520Z 17008KT 4600 BR FEW003 OVC005 02/02 Q1008=
200501171450 METAR ESMX 171450Z 18009KT 4900 BR FEW004 OVC005 02/02 Q1008=
200501171420 METAR ESMX 171420Z 18010KT 4600 BR BKN004 OVC007 02/02 Q1009=
200501171350 METAR ESMX 171350Z 21010KT 2500 BR OVC004 02/02 Q1009=
200501171320 METAR ESMX 171320Z 20010KT 2300 R01/P1500U R19/P1500N BR OVC002 02/02 Q1009=
200501171250 METAR ESMX 171250Z 19011KT 0550 R01/1000N R19/1100N FG VV002 02/02 Q1009=
200501171220 METAR ESMX 171220Z 19010KT 0550 R01/1000N R19/1100N FG VV002 02/02 Q1010=
200501171150 METAR ESMX 171150Z 19010KT 0700 R01/1100N R19/1200N FG VV002 02/02 Q1010=
200501171120 METAR ESMX 171120Z 20010KT 0450 R01/0800N R19/0900N FG VV002 02/01 Q1010=
200501171050 METAR ESMX 171050Z 19011KT 0350 R01/0750N R19/0750N FG VV002 01/01 Q1010=
200501171020 METAR ESMX 171020Z 20010KT 0400 R01/0750N R19/0800N FG VV002 01/01 Q1011=
200501170950 METAR ESMX 170950Z 19007KT 0400 R01/0900N R19/0900N FG VV002 01/01 Q1011=
200501170920 METAR ESMX 170920Z 19007KT 0500 R01/0900V1100N R19/1000N FG VV002 00/00 Q1011=
200501170850 METAR ESMX 170850Z 22010KT 0800 FG VV002 00/M00 Q1012=
200501170820 METAR ESMX 170820Z 22009KT 180V240 3200 BR BKN003 00/M00 Q1012=
200501170750 METAR ESMX 170750Z 19007KT 4000 BR BKN005 00/M00 Q1012=
200501170720 METAR ESMX 170720Z 18007KT 4400 BR BKN005 00/M01 Q1012=
200501170650 METAR ESMX 170650Z 20008KT 5000 BR BKN005 M00/M01 Q1012=
200501170620 METAR ESMX 170620Z 19008KT 6000 BR BKN006 M00/M01 Q1013=
200501170550 METAR ESMX 170550Z 19007KT 6000 BR BKN006 M00/M01 Q1013=
200501170520 METAR ESMX 170520Z 19006KT 8000 BR BKN008 M01/M01 Q1013=
200501170450 METAR ESMX 170450Z 20006KT 8000 BR NSC M01/M02 Q1013=
200501170420 METAR ESMX 170420Z VRB05KT 8000 BR NSC M00/M02 Q1014=
200501170350 METAR ESMX 170350Z 18006KT 8000 BR SKC M01/M02 Q1014=
200501170320 METAR ESMX 170320Z AUTO 19005KT 9000 ////// M01/M02 Q1014=
200501170250 METAR ESMX 170250Z AUTO 18007KT 9999 ////// M00/M01 Q1014=
200501170220 METAR ESMX 170220Z AUTO 18008KT 9999 ////// 00/M01 Q1015=
200501170150 METAR ESMX 170150Z 18007KT CAVOK 00/M01 Q1015=
200501170120 METAR ESMX 170120Z 17007KT CAVOK 00/M01 Q1015=
200501170050 METAR ESMX 170050Z 18007KT CAVOK 01/M01 Q1016=
200501170020 METAR ESMX 170020Z 18010KT CAVOK 01/M01 Q1016=
200501162320 METAR ESMX 162320Z 18008KT 150V210 CAVOK 01/M01 Q1016=
200501162250 METAR ESMX 162250Z 18007KT CAVOK 01/M01 Q1016=
200501162220 METAR ESMX 162220Z 18009KT 9999 SCT038 01/M01 Q1017=
200501162120 METAR ESMX 162120Z 17008KT 9999 BKN035 01/M01 Q1018=
200501162050 METAR ESMX 162050Z 19009KT 160V230 9999 BKN035 01/M01 Q1018=
200501162020 METAR ESMX 162020Z 18007KT 9999 BKN035 01/M01 Q1018=
200501161950 METAR ESMX 161950Z 18009KT 9999 FEW032 BKN035 01/M01 Q1019=
200501161920 METAR ESMX 161920Z 20010KT 9999 BKN032 01/M01 Q1019=
200501161850 METAR ESMX 161850Z 19008KT 9999 BKN030 01/M01 Q1019=
200501161820 METAR ESMX 161820Z 18009KT 9999 BKN030 01/M01 Q1019=
200501161750 METAR ESMX 161750Z 18007KT 9999 BKN035 01/M01 Q1019=
200501161720 METAR ESMX 161720Z 17006KT 9999 BKN048 00/M01 Q1019=
200501161650 METAR ESMX 161650Z 17006KT 9999 SCT043 BKN065 01/M01 Q1020=
200501161620 METAR ESMX 161620Z 18004KT 9999 BKN045 00/M01 Q1020=
200501161550 METAR ESMX 161550Z 20005KT CAVOK 00/M01 Q1020=
200501161450 METAR ESMX 161450Z 19007KT 9999 SCT045 BKN065 01/M00 Q1020=
200501161420 METAR ESMX 161420Z 19009KT 9999 SCT045 SCT065 02/M00 Q1020=
200501161350 METAR ESMX 161350Z 18008KT CAVOK 02/M00 Q1020=
200501161320 METAR ESMX 161320Z 18009KT 9999 FEW048 SCT080 01/M00 Q1021=
200501161250 METAR ESMX 161250Z 18007KT 9999 FEW015 SCT050 01/M00 Q1021=
200501161220 METAR ESMX 161220Z 19007KT 9999 FEW012 SCT050 01/M00 Q1021=
200501161150 METAR ESMX 161150Z 18008KT 9999 FEW010 BKN045 01/M00 Q1021=
200501161120 METAR ESMX 161120Z 20006KT 9999 SCT008 BKN050 01/M00 Q1022=
200501161050 METAR ESMX 161050Z 19007KT 170V240 9999 BKN008 01/M00 Q1022=
200501161020 METAR ESMX 161020Z 21010KT 9999 BKN007 00/M00 Q1022=
200501160950 METAR ESMX 160950Z 20009KT 9999 BKN007 00/M00 Q1023=
200501160920 METAR ESMX 160920Z 19009KT 9999 BKN006 00/M00 Q1023=
200501160850 METAR ESMX 160850Z 20009KT 9999 BKN006 00/M00 Q1023=
200501160820 METAR ESMX 160820Z 20008KT 9999 BKN005 00/M00 Q1023=
200501160750 METAR ESMX 160750Z 22008KT 9999 BKN006 00/M00 Q1023=
200501160720 METAR ESMX 160720Z 21009KT 9999 BKN006 M00/M00 Q1023=
200501160650 METAR ESMX 160650Z 19008KT 170V260 9999 BKN006 M00/M01 Q1023=
200501160620 METAR ESMX 160620Z AUTO 20008KT 9999 ////// M00/M01 Q1023=
200501160550 METAR ESMX 160550Z AUTO 21007KT 170V240 9000 BR ////// M01/M01 Q1024=
200501160520 METAR ESMX 160520Z AUTO 20007KT 6000 ////// M01/M01 Q1024=
200501160450 METAR ESMX 160450Z AUTO 22006KT 4400 ////// M01/M01 Q1024=
200501160420 METAR ESMX 160420Z AUTO 21006KT 1000 R01/P1500N R19/P1500N FG ////// M02/M02 Q1024=
200501160350 METAR ESMX 160350Z AUTO 19006KT 0650 R01/P1500D R19/P1500U FG ////// M02/M02 Q1024=
200501160320 METAR ESMX 160320Z AUTO 18006KT 0650 R01/P1500D R19/P1500N FG ////// M02/M03 Q1025=
200501160250 METAR ESMX 160250Z AUTO 19004KT 0700 R01/P1500N R19/P1500N FG ////// M03/M03 Q1025=
200501160220 METAR ESMX 160220Z AUTO 23006KT 0800 R01/P1500N R19/P1500N FG ////// M03/M03 Q1026=
200501160150 METAR ESMX 160150Z AUTO 24007KT 2200 BR ////// M03/M04 Q1026=
200501160120 METAR ESMX 160120Z AUTO 24007KT 9999 ////// M04/M04 Q1026=
200501160050 METAR ESMX 160050Z AUTO 19006KT 9999 ////// M05/M05 Q1025=
200501160020 METAR ESMX 160020Z AUTO 20006KT 9999 ////// M04/M05 Q1026=
200501152350 METAR ESMX 152350Z AUTO 17006KT 9999 ////// M03/M04 Q1026=
200501152320 METAR ESMX 152320Z AUTO 18006KT 9999 ////// M04/M05 Q1026=
200501152250 METAR ESMX 152250Z AUTO 20007KT 9999 ////// M03/M04 Q1026=
200501152220 METAR ESMX 152220Z AUTO 22007KT 9999 ////// M03/M04 Q1027=
200501152150 METAR ESMX 152150Z AUTO 19006KT 9999 ////// M04/M05 Q1027=
200501152120 METAR ESMX 152120Z AUTO 19007KT 9999 ////// M03/M05 Q1027=
200501152050 METAR ESMX 152050Z AUTO 19007KT 9999 ////// M03/M05 Q1027=
200501152020 METAR ESMX 152020Z AUTO 17006KT 9999 ////// M03/M05 Q1027=
200501151950 METAR ESMX 151950Z AUTO 18006KT 9999 ////// M04/M05 Q1028=
200501151920 METAR ESMX 151920Z AUTO 18004KT 9999 ////// M06/M07 Q1028=
200501151850 METAR ESMX 151850Z AUTO 18004KT 9999 ////// M06/M06 Q1028=
200501151820 METAR ESMX 151820Z AUTO 18004KT 9999 ////// M06/M06 Q1028=
200501151750 METAR ESMX 151750Z AUTO 18004KT 9999 ////// M05/M06 Q1028=
200501151720 METAR ESMX 151720Z AUTO VRB02KT 9999 ////// M05/M05 Q1028=
200501151650 METAR ESMX 151650Z AUTO VRB03KT 9999 ////// M05/M05 Q1028=
200501151620 METAR ESMX 151620Z AUTO VRB03KT 9999 ////// M04/M05 Q1029=
200501151550 METAR ESMX 151550Z AUTO VRB03KT 9999 ////// M04/M06 Q1029=
200501151520 METAR ESMX 151520Z AUTO VRB03KT 9999 ////// M03/M05 Q1029=
200501151450 METAR ESMX 151450Z VRB03KT CAVOK M02/M04 Q1029=
200501151420 METAR ESMX 151420Z VRB02KT CAVOK M01/M03 Q1029=
200501151350 METAR ESMX 151350Z VRB03KT CAVOK M01/M04 Q1029=
200501151320 METAR ESMX 151320Z VRB03KT CAVOK M01/M03 Q1029=
200501151250 METAR ESMX 151250Z VRB03KT CAVOK M00/M03 Q1030=
200501151220 METAR ESMX 151220Z VRB03KT CAVOK M01/M03 Q1030=
200501151150 METAR ESMX 151150Z VRB03KT CAVOK M01/M03 Q1030=
200501151120 METAR ESMX 151120Z 21004KT CAVOK M01/M03 Q1029=
200501151050 METAR ESMX 151050Z VRB03KT CAVOK M02/M04 Q1029=
200501151020 METAR ESMX 151020Z VRB02KT CAVOK M02/M04 Q1029=
200501150950 METAR ESMX 150950Z 00000KT CAVOK M02/M03 Q1029=
200501150920 METAR ESMX 150920Z VRB01KT CAVOK M04/M04 Q1029=
200501150850 METAR ESMX 150850Z 00000KT CAVOK M06/M07 Q1029=
200501150820 METAR ESMX 150820Z 00000KT 9999 ////// M07/M08 Q1029=
200501150750 METAR ESMX 150750Z 00000KT CAVOK M08/M08 Q1029=
200501150720 METAR ESMX 150720Z 00000KT CAVOK M08/M08 Q1029=
200501150650 METAR ESMX 150650Z 00000KT CAVOK M08/M08 Q1028=
200501150620 METAR ESMX 150620Z 00000KT CAVOK M08/M08 Q1028=
200501150550 METAR ESMX 150550Z AUTO VRB02KT 9999 ////// M07/M07 Q1028=
200501150520 METAR ESMX 150520Z AUTO VRB02KT 9999 ////// M06/M07 Q1028=
200501150450 METAR ESMX 150450Z AUTO VRB02KT 9999 ////// M07/M08 Q1028=
200501150420 METAR ESMX 150420Z AUTO VRB02KT 9999 ////// M07/M07 Q1028=
200501150350 METAR ESMX 150350Z AUTO VRB01KT 9999 ////// M06/M06 Q1028=
200501150320 METAR ESMX 150320Z AUTO VRB03KT 9999 ////// M06/M07 Q1028=
200501150250 METAR ESMX 150250Z AUTO VRB02KT 9999 ////// M05/M06 Q1027=
200501150220 METAR ESMX 150220Z AUTO 32005KT 9999 ////// M05/M06 Q1028=
200501150150 METAR ESMX 150150Z AUTO 29004KT 9999 ////// M05/M06 Q1027=
200501150120 METAR ESMX 150120Z AUTO 31004KT 9999 ////// M05/M07 Q1027=
200501150050 METAR ESMX 150050Z AUTO VRB02KT 9999 ////// M04/M05 Q1027=
200501150020 METAR ESMX 150020Z AUTO 33004KT 9999 ////// M04/M06 Q1027=
200501142350 METAR ESMX 142350Z AUTO 32006KT 9999 ////// M03/M05 Q1027=
200501142320 METAR ESMX 142320Z AUTO 32005KT 9999 ////// M04/M06 Q1027=
200501142250 METAR ESMX 142250Z AUTO 32004KT 9999 ////// M04/M06 Q1026=
200501142220 METAR ESMX 142220Z AUTO 33005KT 9999 ////// M04/M05 Q1026=
200501142150 METAR ESMX 142150Z AUTO 32006KT 9999 ////// M03/M05 Q1025=
200501142120 METAR ESMX 142120Z AUTO 32006KT 9999 ////// M03/M05 Q1025=
200501142050 METAR ESMX 142050Z AUTO 31004KT 9999 ////// M03/M06 Q1025=
200501142020 METAR ESMX 142020Z AUTO 33006KT 9999 ////// M02/M05 Q1025=
200501141950 METAR ESMX 141950Z AUTO 34008KT 9999 ////// M02/M05 Q1024=
200501141920 METAR ESMX 141920Z AUTO 34007KT 9999 ////// M02/M05 Q1024=
200501141850 METAR ESMX 141850Z AUTO 33007KT 9999 ////// M01/M04 Q1024=
200501141820 METAR ESMX 141820Z 33007KT CAVOK M02/M04 Q1024=
200501141750 METAR ESMX 141750Z 32005KT CAVOK M02/M03 Q1023=
200501141720 METAR ESMX 141720Z VRB03KT CAVOK M03/M04 Q1023=
200501141650 METAR ESMX 141650Z VRB03KT CAVOK M02/M03 Q1023=
200501141050 METAR ESMX 141050Z 29006KT 250V320 CAVOK 03/M01 Q1019=
200501141020 METAR ESMX 141020Z 30007KT 270V350 CAVOK 02/M02 Q1018=
200501140950 METAR ESMX 140950Z 29005KT 260V320 CAVOK 01/M02 Q1018=
200501140920 METAR ESMX 140920Z 30006KT CAVOK 01/M02 Q1017=
200501140850 METAR ESMX 140850Z 29005KT CAVOK 00/M02 Q1017=
200501140820 METAR ESMX 140820Z 29004KT CAVOK M01/M02 Q1016=
200501140750 METAR ESMX 140750Z 30004KT 260V330 CAVOK M01/M02 Q1016=
200501140720 METAR ESMX 140720Z 29006KT CAVOK M00/M02 Q1016=
200501140650 METAR ESMX 140650Z 29005KT CAVOK M00/M02 Q1015=
200501140620 METAR ESMX 140620Z 28006KT CAVOK M00/M02 Q1015=
200501140550 METAR ESMX 140550Z 30005KT 260V320 CAVOK M00/M02 Q1014=
200501140520 METAR ESMX 140520Z 29005KT CAVOK 00/M02 Q1014=
200501140450 METAR ESMX 140450Z 29007KT CAVOK 00/M01 Q1013=
200501140420 METAR ESMX 140420Z AUTO 30007KT 9999 ////// 01/M01 Q1012=
200501140350 METAR ESMX 140350Z AUTO 28007KT 9999 ////// 01/M01 Q1012=
200501140320 METAR ESMX 140320Z AUTO 29007KT 270V330 9999 ////// 01/M00 Q1011=
200501140250 METAR ESMX 140250Z AUTO 27007KT 9999 ////// 01/M00 Q1011=
200501140220 METAR ESMX 140220Z AUTO 26008KT 9999 ////// 01/00 Q1010=
200501140150 METAR ESMX 140150Z AUTO 26007KT 9999 ////// 01/00 Q1010=
200501140120 METAR ESMX 140120Z 26007KT CAVOK 02/00 Q1010=
200501140050 METAR ESMX 140050Z 26007KT 210V300 9999 FEW015 02/01 Q1009=
200501140020 METAR ESMX 140020Z 26006KT 9999 FEW015 02/01 Q1009=
200501132350 METAR ESMX 132350Z 27008KT 240V300 9999 FEW015 02/01 Q1009=
200501132250 METAR ESMX 132250Z 27008KT 230V300 9999 FEW015 03/01 Q1008=
200501132220 METAR ESMX 132220Z 26007KT 220V300 9999 SCT015 03/01 Q1008=
200501132150 METAR ESMX 132150Z 25008KT 210V280 9999 SCT015 03/01 Q1007=
200501132120 METAR ESMX 132120Z 26009KT 220V290 9999 BKN015 04/01 Q1007=
200501132050 METAR ESMX 132050Z 25011KT 220V280 9999 BKN016 04/01 Q1007=
200501132020 METAR ESMX 132020Z 27010KT 240V310 9999 BKN017 04/01 Q1006=
200501131950 METAR ESMX 131950Z 25010KT 210V280 9999 BKN020 04/01 Q1006=
200501131920 METAR ESMX 131920Z 26009KT 220V290 9999 SCT020 BKN023 04/01 Q1006=
200501131850 METAR ESMX 131850Z 27011KT 9999 BKN022 04/01 Q1005=
200501131820 METAR ESMX 131820Z 26009KT 220V300 9999 BKN023 05/01 Q1005=
200501131750 METAR ESMX 131750Z 26010G21KT 200V300 9999 SCT022 BKN025 05/01 Q1005=
200501131720 METAR ESMX 131720Z 25009KT 210V290 9999 SCT020 BKN025 05/01 Q1004=
200501131650 METAR ESMX 131650Z 25009KT 230V290 9999 SCT023 BKN026 04/02 Q1004=
200501131620 METAR ESMX 131620Z 23009KT 190V270 9000 -SHRA SCT015 BKN020 04/02 Q1004=
200501131550 METAR ESMX 131550Z 24010KT 9999 BKN015 04/02 Q1003=
200501131520 METAR ESMX 131520Z 23011KT 200V280 9999 -SHRA FEW005 SCT015 BKN020 04/02 Q1003=
200501131450 METAR ESMX 131450Z 25012G22KT 8000 DZ BKN018 04/02 Q1003=
200501131420 METAR ESMX 131420Z 25014KT 9000 -DZ BKN020 04/01 Q1003=
200501131350 METAR ESMX 131350Z 25013KT 9999 -DZ FEW020 BKN024 05/01 Q1003=
200501131320 METAR ESMX 131320Z 25012G22KT 9999 BKN024 05/01 Q1003=
200501131250 METAR ESMX 131250Z 26014G26KT 210V290 9999 BKN023 05/01 Q1003=
200501131220 METAR ESMX 131220Z 25014G24KT 220V290 9999 BKN025 05/00 Q1002=
200501131150 METAR ESMX 131150Z 23016KT 9999 BKN027 05/00 Q1002=
200501131120 METAR ESMX 131120Z 24018G29KT 190V270 9999 BKN025 05/00 Q1002=
200501131050 METAR ESMX 131050Z 22018KT 190V260 9999 SCT025 BKN028 05/00 Q1002=
200501131020 METAR ESMX 131020Z 24017G27KT 200V270 9999 SCT033 05/00 Q1002=
200501130950 METAR ESMX 130950Z 24016G27KT 9999 SCT026 SCT036 05/00 Q1002=
200501130920 METAR ESMX 130920Z 24015G27KT 210V270 9999 SCT026 SCT036 05/00 Q1002=
200501130850 METAR ESMX 130850Z 23012KT 9999 SCT025 SCT033 04/01 Q1002=
200501130820 METAR ESMX 130820Z 23015KT 9999 FEW027 SCT035 04/01 Q1002=
200501130750 METAR ESMX 130750Z 23012KT 9999 FEW022 BKN030 04/01 Q1002=
200501130720 METAR ESMX 130720Z 23012KT 9999 SCT015 BKN025 04/01 Q1002=
200501130650 METAR ESMX 130650Z 24016KT 9999 SCT020 BKN025 05/01 Q1002=
200501130620 METAR ESMX 130620Z 24017G27KT 9999 SCT020 BKN025 05/01 Q1002=
200501130550 METAR ESMX 130550Z 23012KT 9999 SCT015 BKN025 04/01 Q1002=
200501130520 METAR ESMX 130520Z 23016G27T 9999 BKN020 05/01 Q1002=
200501130450 METAR ESMX 130450Z 23016G28KT 9999 BKN020 04/01 Q1002=
200501130120 METAR ESMX 130120Z 21016KT 9999 SCT020 BKN025 05/02 Q1002=
200501122350 METAR ESMX 122350Z 23013KT 9999 BKN013 04/02 Q1003 RERA=
200501122320 METAR ESMX 122320Z 21013KT 9999 -SHRA BKN015CB 04/03 Q1003=
200501122250 METAR ESMX 122250Z 21014KT 8000 -SHRA BKN015CB 05/02 Q1003=
200501122220 METAR ESMX 122220Z 20017KT 9999 BKN021 05/02 Q1003=
200501122150 METAR ESMX 122150Z 21019KT 9999 BKN020 05/02 Q1003=
200501122120 METAR ESMX 122120Z 23018KT 9999 BKN018 05/02 Q1003=
200501122050 METAR ESMX 122050Z 21015KT 9999 BKN020 05/01 Q1003=
200501122020 METAR ESMX 122020Z 21017G30KT 9999 SCT020 BKN040 05/01 Q1004=
200501121950 METAR ESMX 121950Z 21019G29KT 9999 SCT025 BKN050 05/00 Q1004=
200501121920 METAR ESMX 121920Z 21017KT 9999 SCT025 BKN040 05/00 Q1004=
200501121850 METAR ESMX 121850Z 21015G25KT 9999 SCT025 BKN035 05/00 Q1005=
200501121820 METAR ESMX 121820Z 21015G25KT 9999 SCT025 BKN035 05/01 Q1005=
200501121750 METAR ESMX 121750Z 21016KT 9999 SCT030 BKN040 05/00 Q1005=
200501121720 METAR ESMX 121720Z 21014G24KT 9999 FEW020 BKN035 05/01 Q1006=
200501121620 METAR ESMX 121620Z 21013KT 9999 FEW028 BKN035 05/01 Q1006=
200501121550 METAR ESMX 121550Z 23012KT 9999 FEW028 BKN035 05/01 Q1006=
200501121520 METAR ESMX 121520Z 21013KT 9999 FEW027 BKN035 05/01 Q1006=
200501121450 METAR ESMX 121450Z 20016KT 9999 BKN032 05/01 Q1006=
200501121420 METAR ESMX 121420Z 20014KT 9999 SCT027 05/01 Q1006=
200501121350 METAR ESMX 121350Z 21012KT 9999 SCT026 05/01 Q1006=
200501121320 METAR ESMX 121320Z 23014KT 9999 SCT026 06/01 Q1007=
200501121250 METAR ESMX 121250Z 21013KT 9999 BKN024 06/02 Q1007=
200501121220 METAR ESMX 121220Z 23012KT 9999 SCT026 06/02 Q1007=
200501121150 METAR ESMX 121150Z 23015KT 9999 BKN025 06/02 Q1007=
200501121120 METAR ESMX 121120Z 23014KT 9999 FEW017 BKN025 06/03 Q1007=
200501121050 METAR ESMX 121050Z 21015KT 9999 SCT015 BKN025 06/03 Q1007=
200501121020 METAR ESMX 121020Z 23014KT 9999 BKN025 06/03 Q1007=
200501120950 METAR ESMX 120950Z 23014KTG25 9999 BKN018 06/03 Q1007=
200501120920 METAR ESMX 120920Z 23011KT 9999 SCT016 06/04 Q1007=
200501120850 METAR ESMX 120850Z 22013KT 9999 SCT020 06/05 Q1007=
200501120750 METAR ESMX 120750Z 21012KT 9999 SCT010 SCT035 06/05 Q1007=
200501120720 METAR ESMX 120720Z 21014KT 9999 BKN011 07/05 Q1007=
200501120650 METAR ESMX 120650Z 20014KT 9999 BKN010 07/06 Q1007=
200501120620 METAR ESMX 120620Z 20012KT 9999 BKN007 07/06 Q1007=
200501120550 METAR ESMX 120550Z 21014KT 9999 SCT003 BKN004 07/06 Q1007=
200501120520 METAR ESMX 120520Z 19014KT 6000 -DZ SCT003 BKN005 07/06 Q1007=
200501120450 METAR ESMX 120450Z 19013KT 8000 -RA BKN007 06/06 Q1007=
200501120420 METAR ESMX 120420Z 19014KT 9000 -RA BKN006 06/06 Q1008=
200501120350 METAR ESMX 120350Z 18015KT 6000 -RA BKN005 06/06 Q1008=
200501120220 METAR ESMX 120220Z 18016KT 6000 -SHRA BKN007 06/05 Q1009=
200501120150 METAR ESMX 120150Z 18014KT 5000 -DZ BKN007 06/05 Q1010=
200501120120 METAR ESMX 120120Z 18014KT 8000 BR BKN009 06/05 Q1010=
200501120050 METAR ESMX 120050Z 18012KT 8000 BR BKN010 06/04 Q1011=
200501120020 METAR ESMX 120020Z 18012KT 8000 BR BKN008 06/04 Q1011=
200501112350 METAR ESMX 112350Z 19012KT 8000 BR BKN008 05/04 Q1012=
200501112320 METAR ESMX 112320Z 19010KT 9000 BR BKN010 06/04 Q1012=
200501112250 METAR ESMX 112250Z 19010KT 9000 BR BKN007 06/04 Q1013=
200501112220 METAR ESMX 112220Z 19009KT 9999 BKN007 06/04 Q1013=
200501112150 METAR ESMX 112150Z 20008KT 9999 BKN009 06/04 Q1014=
200501112120 METAR ESMX 112120Z 20008KT 9999 BKN010 06/04 Q1014=
200501112050 METAR ESMX 112050Z 21008KT 9999 BKN010 06/04 Q1014=
200501111950 METAR ESMX 111950Z 21007KT 9999 BKN010 05/04 Q1014=
200501111920 METAR ESMX 111920Z 23008KT 9999 BKN013 06/03 Q1014=
200501111850 METAR ESMX 111850Z 24009KT 9999 BKN012 05/03 Q1014=
200501111820 METAR ESMX 111820Z 23008KT 9999 BKN012 05/03 Q1014=
200501111750 METAR ESMX 111750Z 22006KT 9999 BKN011 05/03 Q1014=
200501111720 METAR ESMX 111720Z 23007KT 9999 SCT012 05/03 Q1014=
200501111650 METAR ESMX 111650Z 24008KT 9999 SCT012 05/03 Q1014=
200501111620 METAR ESMX 111620Z 22009KT 9999 SCT012 05/03 Q1014=
200501111550 METAR ESMX 111550Z 25009KT 9999 BKN013 05/03 Q1014=
200501111520 METAR ESMX 111520Z 25009KT 9999 BKN015 06/03 Q1014=
200501111420 METAR ESMX 111420Z 25010KT 9999 BKN018 06/03 Q1014=
200501111350 METAR ESMX 111350Z 24013KT 9999 SCT017 BKN020 06/03 Q1014=
200501111320 METAR ESMX 111320Z 24011KT 9999 SCT017 BKN020 06/03 Q1014=
200501111250 METAR ESMX 111250Z 24011KT 9999 BKN020 06/03 Q1014=
200501111150 METAR ESMX 111150Z 23013KT 9999 SCT017 BKN020 06/03 Q1014=
200501111120 METAR ESMX 111120Z 25012KT 9999 BKN020 06/03 Q1014=
200501111050 METAR ESMX 111050Z 25013KT 9999 SCT015 BKN020 06/03 Q1013=
200501110950 METAR ESMX 110950Z 25011KT 9999 SCT015 BKN020 06/03 Q1013=
200501110920 METAR ESMX 110920Z 25011KT 9999 BKN016 06/03 Q1013=
200501110850 METAR ESMX 110850Z 23011 9999 BKN017 06/03 Q1012=
200501110820 METAR ESMX 110820Z 24010G22KT 9999 BKN017 06/03 Q1012=
200501110750 METAR ESMX 110750Z 24013KT 9999 BKN015 06/03 Q1012=
200501110720 METAR ESMX 110720Z 25009KT 9999 SCT015 BKN020 06/03 Q1012=
200501110650 METAR ESMX 110650Z 25010KT 9999 SCT010 BKN015 06/03 Q1011=
200501110620 METAR ESMX 110620Z 25011 9999 SCT010 BKN025 06/03 Q1011=
200501110550 METAR ESMX 110550Z 26011 9999 SCT010 BKN025 06/03 Q1010=
200501110520 METAR ESMX 110520Z 25011KT 210V280 9999 FEW018 BKN025 06/03 Q1010=
200501110450 METAR ESMX 110450Z 25012G28KT 9999 FEW030 SCT035 06/03 Q1010=
200501110120 METAR ESMX 110120Z 25015KT 9999 SCT015 BKN020 07/04 Q1007=
200501110050 METAR ESMX 110050Z 25014G24KT 210V280 9999 SCT015 BKN020 07/04 Q1007=
200501110020 METAR ESMX 110020Z 24014KT 200V270 9999 SCT017 BKN020 07/04 Q1006=
200501102350 METAR ESMX 102350Z 24013G24KT 9999 SCT015 BKN020 07/05 Q1006=
200501102320 METAR ESMX 102320Z 24012G27KT 9999 SCT015 BKN020 07/05 Q1006=
200501102250 METAR ESMX 102250Z 23013G30KT 200V280 9999 SCT015 BKN020 08/05 Q1005=
200501102220 METAR ESMX 102220Z 25015G25KT 9999 SCT012 BKN017 08/06 Q1005=
200501102120 METAR ESMX 102120Z 24015G26KT 9999 -SHRA SCT015 BKN020 08/06 Q1004=
200501102050 METAR ESMX 102050Z 26016G29KT 7000 -SHRA SCT010 BKN015 08/06 Q1004=
200501102020 METAR ESMX 102020Z 25018G30KT 9999 SCT010 BKN015 08/06 Q1004=
200501101950 METAR ESMX 101950Z 24016G28KT 9999 -RA BKN015 09/06 Q1003=
200501101920 METAR ESMX 101920Z 24016G27KT 9999 BKN018 09/06 Q1003=
200501101850 METAR ESMX 101850Z 24017G30KT 9999 SCT015 BKN025 09/06 Q1002=
200501101750 METAR ESMX 101750Z 24017G28KT 9999 BKN015 10/07 Q1002=
200501101720 METAR ESMX 101720Z 24015G28KT 9999 BKN015 10/07 Q1002=
200501101650 METAR ESMX 101650Z 23015G29KT 9999 BKN016 10/07 Q1002=
200501101620 METAR ESMX 101620Z 22018KT 9999 BKN015 10/08 Q1002=
200501101550 METAR ESMX 101550Z 24015G25KT 9999 FEW013 BKN015 10/08 Q1002=
200501101520 METAR ESMX 101520Z 24017KT 9999 BKN015 10/08 Q1002=
200501101450 METAR ESMX 101450Z 24015G27KT 9000 -SHRA BKN012 10/08 Q1002=
200501101420 METAR ESMX 101420Z 22018G31KT 200V260 9000 BR BKN009 09/08 Q1002=
200501101350 METAR ESMX 101350Z 22015G29KT 9000 -SHRA BKN008 09/08 Q1002=
200501101320 METAR ESMX 101320Z 22017G29KT 9000 -SHRA BKN008 09/08 Q1002=
200501101250 METAR ESMX 101250Z 23015G27KT 8000 BR BKN007 09/08 Q1002=
200501101150 METAR ESMX 101150Z 24016G27KT 6000 BR BKN006 09/08 Q1002=
200501101120 METAR ESMX 101120Z 24016G28KT 9000 BR BKN006 09/08 Q1002=
200501101050 METAR ESMX 101050Z 22014G25KT 6000 -SHRA BR BKN008 09/08 Q1002=
200501101020 METAR ESMX 101020Z 24018G30KT 8000 -SHRA BKN007 09/08 Q1002=
200501100950 METAR ESMX 100950Z 23014G27KT 7000 BR BKN00 09/08 Q1002 RERA=
200501100920 METAR ESMX 100920Z 23014G24KT 9999 -RA BKN004 09/08 Q1002=
200501100850 METAR ESMX 100850Z 23013KT 7000 -RA BR BKN006 08/08 Q1002 RERA=
200501100820 METAR ESMX 100820Z 22012KT 3200 RA BR BKN004 07/07 Q1002=
200501100750 METAR ESMX 100750Z 21012KT 4000 RA BR BKN002 06/05 Q1002=
200501100720 METAR ESMX 100720Z 19014KT 3100 RA BR BKN003 05/05 Q1003=
200501100650 METAR ESMX 100650Z 19015KT 4500 RA BR BKN004 05/05 Q1003=
200501100620 METAR ESMX 100620Z 19014KT 4300 -RA BR BKN004 05/04 Q1003=
200501100550 METAR ESMX 100550Z 18015KT 4000 RA BKN005 06/04 Q1004=
200501100520 METAR ESMX 100520Z 19015KT 8000 -RA 05/04 Q1004=
200501100120 METAR ESMX 100120Z 21010KT 9999 BKN010 06/05 Q1010=
200501100050 METAR ESMX 100050Z 22011KT 9999 BKN010 06/05 Q1010=
200501100020 METAR ESMX 100020Z 22012KT 9999 BKN009 05/04 Q1010=
200501092350 METAR ESMX 092350Z 22010KT 9000 BR BKN006 05/04 Q1010=
200501092320 METAR ESMX 092320Z 21010KT 9999 -SHRA BKN006 05/04 Q1010=
200501092250 METAR ESMX 092250Z 20008Z 8000 -SHRA BKN010 05/04 Q1010=
200501092220 METAR ESMX 092220Z 21007KT 8000 -RA BKN008 05/04 Q1011=
200501092150 METAR ESMX 092150Z 22007KT 9999 BKN011 05/04 Q1011=
200501092120 METAR ESMX 092120Z 22008KT 9999 SCT015 BKN020 05/03 Q1011=
200501092050 METAR ESMX 092050Z 22009KT 9999 SCT015 BKN035 05/03 Q1010=
200501092020 METAR ESMX 092020Z 22010KT 9999 SCT020 BKN040 05/03 Q1010=
200501091920 METAR ESMX 091920Z 23010KT 9999 FEW020 SCT040 05/02 Q1010=
200501082350 METAR ESMX 082350Z AUTO 26024G41KT 230V290 9000 -RA ////// 04/00 Q0989=
200501082320 METAR ESMX 082320Z AUTO 25025G47KT 230V290 9999 ////// 04/M01 Q0988=
200501082250 METAR ESMX 082250Z AUTO 24026G40KT 200V280 9999 ////// 05/M00 Q0987 REDZ=
200501082220 METAR ESMX 082220Z AUTO 25024G43KT 9999 ////// 04/00 Q0987 REDZ=
200501082150 METAR ESMX 082150Z AUTO 25027G46KT 7000 -SHRA ////// 05/02 Q0985=
200501082120 METAR ESMX 082120Z AUTO 24026G41KT 210V290 7000 -SHRA ////// 05/02 Q0985=
200501082050 METAR ESMX 082050Z AUTO 25026G51KT 200V280 8000 -SHRA ////// 06/02 Q0983=
200501082020 METAR ESMX 082020Z AUTO 25023G44KT 170V290 9999 ////// 05/02 Q0982 REDZ=
200501081950 METAR ESMX 081950Z AUTO 25028G53KT 220V290 9000 DZ ////// 05/02 Q0980=
200501081920 METAR ESMX 081920Z AUTO 24029G47KT 200V270 8000 -RA ////// 05/03 Q0979=
200501081850 METAR ESMX 081850Z AUTO 24028G48KT 210V280 3900 -RA ////// 05/03 Q0978=
200501081820 METAR ESMX 081820Z AUTO 22031G50KT 190V250 5000 DZ ////// 05/03 Q0977=
200501081750 METAR ESMX 081750Z AUTO 22031G53KT 170V250 5000 DZ ////// 05/03 Q0977=
200501081720 METAR ESMX 081720Z AUTO 21026G44KT 7000 -RA ////// 06/03 Q0977=
200501081650 METAR ESMX 081650Z AUTO 22025G39KT 5000 DZ ////// 05/03 Q0978=
200501081620 METAR ESMX 081620Z AUTO 20021G32KT 170V250 9999 SHRA FEW011 SCT026 BKN046 05/03 Q0979=
200501081550 METAR ESMX 081550Z 21026G51KT 170V240 9999 -SHRA FEW023 SCT040 BKN056 06/03 Q0980=
200501081520 METAR ESMX 081520Z 21023G36KT 170V240 9999 -SHRA FEW020 SCT029 BKN044 07/04 Q0982=
200501081450 METAR ESMX 081450Z 20021G37KT 170V240 9999 -SHRA FEW017 BKN020 07/05 Q0984=
200501081420 METAR ESMX 081420Z 20023KT 9999 -RA FEW009 SCT013 OVC016 07/05 Q0985=
200501081350 METAR ESMX 081350Z 19019KT 8000 -RA FEW009 BKN011 OVC017 07/05 Q0985=
200501081320 METAR ESMX 081320Z 19021KT 7000 -RA FEW007 SCT009 BKN010 07/05 Q0987=
200501081250 METAR ESMX 081250Z 19020KT 4000 -RA FEW007 SCT009 BKN011 07/06 Q0988=
200501081220 METAR ESMX 081220Z 20019G31KT 4400 -RA FEW010 BKN013 OVC018 07/05 Q0989=
200501081150 METAR ESMX 081150Z 20017G27KT 9999 -RA FEW011 SCT013 BKN016 07/06 Q0990=
200501081120 METAR ESMX 081120Z 21017KT 7000 -RA FEW009 SCT012 BKN014 07/06 Q0991=
200501081050 METAR ESMX 081050Z 20015KT 5000 -RA FEW011 BKN014 07/06 Q0992=
200501081020 METAR ESMX 081020Z 20019KT 170V240 6000 -RA FEW012 BKN014 OVC019 07/06 Q0992=
200501080950 METAR ESMX 080950Z 20017KT 7000 -RA FEW014 SCT018 BKN020 07/06 Q0993=
200501080920 METAR ESMX 080920Z 22019KT 9999 BKN019 OVC027 08/05 Q0994=
200501080850 METAR ESMX 080850Z 20017G27KT 170V250 9999 SCT017 BKN020 OVC024 08/06 Q0994=
200501080820 METAR ESMX 080820Z AUTO 22017KT 190V250 9999 FEW015 OVC018 08/06 Q0995=
200501080750 METAR ESMX 080750Z AUTO 20016G27KT 9999 BKN016 OVC022 08/06 Q0995=
200501080720 METAR ESMX 080720Z AUTO 22017KT 190V260 9999 SCT015 OVC019 08/06 Q0996=
200501080650 METAR ESMX 080650Z AUTO 23017G28KT 200V260 9999 BKN012 OVC019 08/06 Q0996 REDZ=
200501080620 METAR ESMX 080620Z AUTO 22019G32KT 170V250 9999 -DZ FEW007 BKN010 OVC014 08/07 Q0997=
200501080550 METAR ESMX 080550Z AUTO 23016G28KT 3000 DZ FEW006 SCT008 OVC010 08/07 Q0997=
200501080520 METAR ESMX 080520Z AUTO 21014KT 3300 DZ FEW006 SCT009 OVC011 08/07 Q0997=
200501080450 METAR ESMX 080450Z AUTO 21014G24KT 3800 DZ FEW007 BKN009 OVC014 08/07 Q0998=
200501080420 METAR ESMX 080420Z AUTO 21012KT 170V240 4900 DZ FEW007 OVC009 08/07 Q0998=
200501080350 METAR ESMX 080350Z AUTO 23014KT 9999 FEW007 BKN008 OVC010 08/07 Q0999=
200501080320 METAR ESMX 080320Z AUTO 22013KT 9999 OVC006 08/07 Q0999=
200501080250 METAR ESMX 080250Z AUTO 22012KT 9000 OVC006 08/07 Q1000=
200501080220 METAR ESMX 080220Z AUTO 23011G23KT 200V260 9999 OVC006 08/07 Q1000 RERA=
200501080150 METAR ESMX 080150Z AUTO 22012G23KT 5000 -RA FEW006 OVC007 08/07 Q1001=
200501080120 METAR ESMX 080120Z AUTO 23012KT 6000 DZ OVC005 08/07 Q1001=
200501080050 METAR ESMX 080050Z AUTO 23011KT 6000 DZ OVC007 08/07 Q1001=
200501080020 METAR ESMX 080020Z AUTO 22011KT 180V250 9999 OVC007 09/07 Q1001=
200501072350 METAR ESMX 072350Z AUTO 23011KT 190V260 9999 OVC007 08/07 Q1001=
200501072320 METAR ESMX 072320Z AUTO 24011KT 9000 BR FEW006 OVC007 08/07 Q1001=
200501072250 METAR ESMX 072250Z AUTO 22012KT 190V250 5000 BR OVC006 08/07 Q1001=
200501072220 METAR ESMX 072220Z AUTO 24011KT 200V270 3900 FEW007 OVC008 08/08 Q1002 REDZ=
200501072150 METAR ESMX 072150Z AUTO 23012KT 190V260 9999 -SHRA OVC007 09/08 Q1002=
200501072120 METAR ESMX 072120Z AUTO 24011KT 200V280 9000 BKN006 OVC009 09/08 Q1002 REDZ=
200501072050 METAR ESMX 072050Z AUTO 23013KT 190V260 6000 -SHRA FEW007 BKN008 OVC011 09/08 Q1002=
200501072020 METAR ESMX 072020Z AUTO 24011G21KT 210V280 9999 FEW008 OVC009 09/08 Q1002=
200501071950 METAR ESMX 071950Z AUTO 24014KT 210V280 9999 OVC009 09/08 Q1002 REDZ=
200501071920 METAR ESMX 071920Z AUTO 25013KT 220V280 9999 DZ OVC009 09/08 Q1002=
200501071850 METAR ESMX 071850Z AUTO 25015G25KT 9999 FEW007 OVC009 09/08 Q1001=
200501071820 METAR ESMX 071820Z 25013KT 230V290 7000 BR FEW007 OVC008 09/08 Q1001=
200501071750 METAR ESMX 071750Z 24013KT 9999 OVC008 09/08 Q1001=
200501071720 METAR ESMX 071720Z 25013G26KT 210V280 9999 OVC008 09/07 Q1001=
200501071650 METAR ESMX 071650Z 23015KT 190V260 9999 FEW008 OVC010 09/07 Q1000=
200501071620 METAR ESMX 071620Z 24015G27KT 210V270 9999 OVC009 09/07 Q1000=
200501071550 METAR ESMX 071550Z 24014KT 190V280 8000 BR OVC010 09/08 Q1000=
200501071520 METAR ESMX 071520Z 23015G25KT 200V260 8000 BR OVC010 09/07 Q1000=
200501071450 METAR ESMX 071450Z 23016G30KT 200V260 9999 BKN011 OVC016 09/07 Q1000=
200501071420 METAR ESMX 071420Z 23017G29KT 9999 BKN010 OVC017 09/07 Q1000=
200501071350 METAR ESMX 071350Z 23015G29KT 190V280 9999 BKN010 OVC015 09/07 Q1000=
200501071320 METAR ESMX 071320Z 25015G28KT 220V290 9999 FEW008 OVC010 09/07 Q1000=
200501071250 METAR ESMX 071250Z 23015G29KT 190V280 8000 BKN008 08/07 Q1000=
200501071220 METAR ESMX 071220Z 24016G28KT 3400 -SHRA SCT007 OVC010 08/07 Q0999=
200501071150 METAR ESMX 071150Z 24017G27KT 200V270 5000 -SHRA BKN007 OVC010 08/07 Q1000=
200501071120 METAR ESMX 071120Z 23016KT 200V280 3100 -SHRA BKN007 08/07 Q1000=
200501071050 METAR ESMX 071050Z 24016G27KT 200V260 4900 -DZ BKN006 08/07 Q1000=
200501071020 METAR ESMX 071020Z 24018G30KT 190V260 5000 -SHRA SCT006 OVC008 08/07 Q1000=
200501070950 METAR ESMX 070950Z 24015G26KT 3900 -SHRA BKN006 OVC009 08/07 Q1001=
200501070920 METAR ESMX 070920Z 22015G27KT 6000 -RADZ BKN005 OVC007 08/07 Q1001=
200501070850 METAR ESMX 070850Z 23016KT 200V260 4100 DZ BKN006 08/07 Q1001=
200501070820 METAR ESMX 070820Z 22017G29KT 190V260 7000 -RA BR BKN006 08/07 Q1001=
200501070750 METAR ESMX 070750Z 24016G27KT 200V280 5000 -DZ BR BKN006 08/07 Q1001=
200501070720 METAR ESMX 070720Z 23016KT 170V260 8000 BR OVC006 08/07 Q1002=
200501070650 METAR ESMX 070650Z 23015G26KT 180V260 8000 BR BKN005 08/07 Q1001=
200501070620 METAR ESMX 070620Z 23016G27KT 200V270 7000 BR BKN005 BKN008 08/07 Q1002=
200501070550 METAR ESMX 070550Z 24013G26KT 200V270 7000 BR BKN006 BKN009 08/07 Q1002=
200501070520 METAR ESMX 070520Z AUTO 24014G25KT 200V280 8000 BR OVC005 08/07 Q1002=
200501070450 METAR ESMX 070450Z AUTO 24016G28KT 210V280 8000 BR OVC006 07/07 Q1003=
200501070420 METAR ESMX 070420Z AUTO 24016KT 6000 BR OVC007 07/06 Q1003=
200501070350 METAR ESMX 070350Z AUTO 24016G26KT 6000 BR FEW006 BKN007 OVC009 07/06 Q1003=
200501070320 METAR ESMX 070320Z AUTO 23014KT 200V260 2900 BR FEW005 SCT007 BKN008 07/06 Q1004=
200501070250 METAR ESMX 070250Z AUTO 22015KT 190V250 4300 FEW006 BKN007 OVC009 07/06 Q1004 REDZ=
200501070220 METAR ESMX 070220Z AUTO 23014G26KT 200V260 6000 -SHRA SCT005 OVC007 06/06 Q1005=
200501070150 METAR ESMX 070150Z AUTO 21012KT 180V250 4500 DZ FEW005 BKN006 OVC009 06/05 Q1005=
200501070120 METAR ESMX 070120Z 21011KT 170V240 4000 DZ BR FEW004 BKN005 05/04 Q1006=
200501070050 METAR ESMX 070050Z 20011KT 170V240 3500 DZ BR OVC004 04/04 Q1006=
200501070020 METAR ESMX 070020Z 22013KT 5000 -DZ FEW004 OVC005 04/03 Q1006=
200501062350 METAR ESMX 062350Z 20014KT 7000 DZ FEW005 BKN006 OVC009 03/02 Q1007=
200501062320 METAR ESMX 062320Z 19013KT 160V220 7000 -RA FEW006 BKN009 03/02 Q1008=
200501062250 METAR ESMX 062250Z 20013KT 9000 -RA FEW007 SCT008 BKN010 03/02 Q1009=
200501062220 METAR ESMX 062220Z 20011KT 7000 -RA FEW011 SCT013 BKN016 04/02 Q1009=
200501062150 METAR ESMX 062150Z 21012KT 8000 -RA FEW016 SCT019 BKN023 04/02 Q1010=
200501062050 METAR ESMX 062050Z 21010KT 180V240 9999 FEW017 SCT020 BKN024 04/02 Q1011=
200501062020 METAR ESMX 062020Z 22011KT 190V260 9999 FEW016 BKN020 04/02 Q1012=
200501061950 METAR ESMX 061950Z 24010KT 9999 FEW020 BKN025 04/02 Q1012=
200501061920 METAR ESMX 061920Z 25011KT 9999 FEW020 BKN024 04/01 Q1012=
200501061850 METAR ESMX 061850Z 25009KT 210V290 9999 BKN020 05/01 Q1012=
200501061820 METAR ESMX 061820Z 27009KT 240V310 9999 BKN018 BKN028 05/01 Q1012=
200501061750 METAR ESMX 061750Z 26011G21KT 230V300 9999 SCT022 BKN031 05/01 Q1012=
200501061720 METAR ESMX 061720Z 25010KT 9999 SCT021 BKN033 05/02 Q1012=
200501061650 METAR ESMX 061650Z 26010KT 220V300 9999 FEW025 BKN038 05/01 Q1012=
200501061620 METAR ESMX 061620Z 26009KT 9999 SCT036 04/01 Q1012=
200501061550 METAR ESMX 061550Z 23009KT 170V260 9999 FEW029 SCT035 04/01 Q1012=
200501061520 METAR ESMX 061520Z 25008KT 9999 SCT032 04/01 Q1011=
200501061450 METAR ESMX 061450Z 26010KT 230V300 9999 FEW025 BKN031 05/01 Q1011=
200501061420 METAR ESMX 061420Z 26013G23KT 220V300 9999 BKN026 05/01 Q1010=
200501061350 METAR ESMX 061350Z 26010KT 210V320 9999 SCT022 BKN034 05/01 Q1010=
200501061320 METAR ESMX 061320Z AUTO 26011G23KT 230V340 9999 FEW019 BKN023 BKN031 05/02 Q1009=
200501061250 METAR ESMX 061250Z AUTO 26010KT 230V290 9999 SCT020 BKN027 OVC032 05/02 Q1009=
200501061220 METAR ESMX 061220Z AUTO 26012G23KT 220V290 9999 FEW019 SCT026 OVC030 05/02 Q1008=
200501061150 METAR ESMX 061150Z AUTO 26012G22KT 210V290 9999 FEW018 SCT022 BKN026 05/02 Q1008=
200501061120 METAR ESMX 061120Z AUTO 25011G21KT 230V290 9999 FEW017 SCT021 BKN025 05/02 Q1007=
200501061050 METAR ESMX 061050Z AUTO 26013KT 220V290 9999 FEW018 SCT022 BKN025 04/02 Q1007=
200501061020 METAR ESMX 061020Z AUTO 26012KT 230V290 9999 FEW014 SCT018 BKN021 04/02 Q1006=
200501060950 METAR ESMX 060950Z AUTO 25012KT 9999 FEW012 BKN018 04/02 Q1006=
200501060920 METAR ESMX 060920Z AUTO 26012KT 220V290 9999 FEW015 SCT018 OVC021 04/02 Q1005=
200501060850 METAR ESMX 060850Z AUTO 26010KT 220V290 9999 FEW018 BKN020 BKN026 04/02 Q1005=
200501060820 METAR ESMX 060820Z AUTO 26012KT 210V280 9999 FEW014 SCT018 BKN020 04/02 Q1005=
200501060750 METAR ESMX 060750Z AUTO 25008KT 200V290 9999 FEW013 SCT017 BKN020 04/03 Q1004=
200501060720 METAR ESMX 060720Z AUTO 24006KT 9999 FEW004 SCT014 BKN024 04/03 Q1003 RERA=
200501060650 METAR ESMX 060650Z AUTO 21009KT 9999 BKN004 OVC007 03/03 Q1003 RERA=
200501060620 METAR ESMX 060620Z AUTO 22010KT 190V250 6000 -RA FEW005 BKN006 OVC009 03/02 Q1003=
200501060550 METAR ESMX 060550Z AUTO 21013KT 9999 -RA FEW005 SCT006 BKN008 03/02 Q1003=
200501060520 METAR ESMX 060520Z AUTO 19013KT 6000 -RA FEW005 SCT006 BKN008 03/02 Q1003=
200501060450 METAR ESMX 060450Z AUTO 19012KT 9000 -RA FEW005 SCT006 OVC008 03/02 Q1003=
200501060420 METAR ESMX 060420Z AUTO 18013KT 9000 -RA FEW006 BKN008 OVC010 03/03 Q1003=
200501060350 METAR ESMX 060350Z AUTO 19012KT 8000 -RA FEW007 OVC009 03/03 Q1003=
200501060320 METAR ESMX 060320Z AUTO 19013KT 6000 DZ OVC010 04/02 Q1004=
200501060250 METAR ESMX 060250Z AUTO 19011KT 9999 OVC011 04/02 Q1004=
200501060220 METAR ESMX 060220Z AUTO 19010KT 9999 FEW013 SCT018 BKN025 04/02 Q1005=
200501060150 METAR ESMX 060150Z AUTO 20010KT 9999 FEW013 SCT017 BKN021 04/02 Q1005=
200501060120 METAR ESMX 060120Z AUTO 20010KT 9999 FEW023 OVC027 04/02 Q1006=
200501060050 METAR ESMX 060050Z AUTO 20010KT 9999 FEW017 OVC027 04/02 Q1006=
200501060020 METAR ESMX 060020Z AUTO 20009KT 9999 FEW025 OVC029 04/02 Q1007=
200501052350 METAR ESMX 052350Z AUTO 20009KT 9999 FEW018 OVC030 04/02 Q1007=
200501052320 METAR ESMX 052320Z AUTO 20010KT 9999 FEW017 SCT026 OVC031 04/02 Q1007=
200501052250 METAR ESMX 052250Z AUTO 19010KT 9999 OVC025 04/02 Q1008=
200501052220 METAR ESMX 052220Z AUTO 19010KT 9999 FEW015 BKN029 04/02 Q1008=
200501052150 METAR ESMX 052150Z AUTO 20009KT 9999 FEW013 SCT018 OVC031 03/02 Q1009=
200501052120 METAR ESMX 052120Z AUTO 20008KT 9999 FEW014 OVC031 03/02 Q1009=
200501052050 METAR ESMX 052050Z AUTO 22008KT 9999 FEW014 BKN033 03/02 Q1009=
200501052020 METAR ESMX 052020Z AUTO 23009KT 9999 FEW015 03/02 Q1009=
200501051950 METAR ESMX 051950Z AUTO 23007KT 9999 FEW017 03/02 Q1010=
200501051920 METAR ESMX 051920Z AUTO 23007KT 9999 FEW038 SCT043 04/02 Q1010 RERA=
200501051850 METAR ESMX 051850Z AUTO 23009KT 190V260 9000 -SHRA FEW009 SCT018 BKN039 04/02 Q1010=
200501051820 METAR ESMX 051820Z 25008KT 9999 SCT017 BKN037 05/02 Q1010=
200501051750 METAR ESMX 051750Z 24009KT 200V260 9999 FEW014 BKN029 05/02 Q1010=
200501051720 METAR ESMX 051720Z 25010KT 220V290 9999 FEW017 BKN030 05/02 Q1010=
200501051650 METAR ESMX 051650Z 25010KT 200V270 9999 FEW031 04/02 Q1010=
200501051620 METAR ESMX 051620Z 24010KT 9999 FEW020 SCT045 04/02 Q1010=
200501051550 METAR ESMX 051550Z 24011KT 200V260 9999 SCT015 BKN045 04/02 Q1010=
200501051520 METAR ESMX 051520Z 23011KT 210V270 9999 FEW018 BKN042 05/02 Q1010=
200501051450 METAR ESMX 051450Z 26009KT 230V300 9999 FEW017 SCT020 BKN023 05/02 Q1010=
200501051420 METAR ESMX 051420Z 26010G23KT 9999 FEW019 SCT026 BKN041 05/02 Q1010=
200501051350 METAR ESMX 051350Z 26012KT 210V300 9999 FEW020 BKN039 05/02 Q1009=
200501051320 METAR ESMX 051320Z 24013KT 210V280 9999 FEW020 BKN034 05/02 Q1009=
200501051250 METAR ESMX 051250Z 26012KT 220V290 9999 FEW020 SCT041 05/02 Q1009=
200501051220 METAR ESMX 051220Z 25012KT 210V270 9999 SCT020 05/02 Q1009=
200501051150 METAR ESMX 051150Z 24013G23KT 9999 FEW023 05/02 Q1009=
200501051120 METAR ESMX 051120Z 25010KT 190V280 9999 FEW018 BKN044 05/02 Q1009=
200501051050 METAR ESMX 051050Z 25013KT 200V290 9999 FEW020 BKN042 05/02 Q1009=
200501051020 METAR ESMX 051020Z 25011KT 200V280 9999 FEW019 SCT028 BKN040 05/02 Q1009=
200501050950 METAR ESMX 050950Z 24010KT 210V290 9999 FEW018 SCT023 BKN034 05/02 Q1009=
200501050920 METAR ESMX 050920Z 26009KT 220V290 9999 FEW017 SCT024 BKN049 05/02 Q1009=
200501050850 METAR ESMX 050850Z 25011KT 210V280 9999 FEW018 SCT023 BKN027 04/02 Q1009=
200501050820 METAR ESMX 050820Z 24010KT 210V280 9999 SCT020 04/02 Q1008=
200501050750 METAR ESMX 050750Z 25009KT 210V290 9999 FEW016 SCT023 BKN026 04/02 Q1008=
200501050720 METAR ESMX 050720Z 26009KT 210V290 9999 FEW015 BKN020 04/02 Q1008=
200501050650 METAR ESMX 050650Z 26009KT 210V290 9999 FEW018 BKN021 04/02 Q1007=
200501050620 METAR ESMX 050620Z 26009KT 220V290 9999 FEW020 BKN023 04/01 Q1007=
200501050550 METAR ESMX 050550Z 27008KT 230V310 9999 FEW021 BKN025 OVC030 04/01 Q1006=
200501050520 METAR ESMX 050520Z AUTO 26009KT 230V300 9999 FEW021 04/01 Q1006=
200501050450 METAR ESMX 050450Z AUTO 25010KT 210V280 9999 FEW020 04/01 Q1006=
200501050420 METAR ESMX 050420Z AUTO 27010KT 230V320 9999 FEW021 04/01 Q1005=
200501050350 METAR ESMX 050350Z AUTO 26010KT 9999 NSC 04/01 Q1005=
200501050320 METAR ESMX 050320Z AUTO 26011G21KT 230V320 9999 NSC 04/01 Q1005=
200501050250 METAR ESMX 050250Z 26009KT 230V300 9999 FEW020 04/01 Q1004=
200501050220 METAR ESMX 050220Z 27010KT 220V320 9999 BKN018 04/01 Q1004=
200501050150 METAR ESMX 050150Z 28011KT 250V320 9999 BKN018 04/02 Q1003=
200501050120 METAR ESMX 050120Z 27012KT 230V300 9999 FEW019 BKN022 04/02 Q1003=
200501050050 METAR ESMX 050050Z 26012G22KT 210V290 9999 FEW019 OVC024 05/02 Q1002=
200501050020 METAR ESMX 050020Z 26012KT 230V300 9999 FEW018 BKN021 OVC027 05/02 Q1002=
200501042350 METAR ESMX 042350Z 26015KT 220V290 9999 FEW015 BKN019 BKN024 05/02 Q1001=
200501042250 METAR ESMX 042250Z 26013G23KT 210V310 9999 OVC015 05/03 Q1001=
200501042220 METAR ESMX 042220Z 26013G23KT 220V300 9999 OVC015 05/03 Q1000=
200501042150 METAR ESMX 042150Z 26013G23KT 220V290 9999 FEW014 BKN017 OVC021 06/04 Q1000=
200501042120 METAR ESMX 042120Z 25015G26KT 200V290 9999 FEW010 BKN013 OVC017 06/05 Q0999 REDZ=
200501042050 METAR ESMX 042050Z 24015G25KT 210V290 9999 FEW008 SCT011 BKN013 07/05 Q0999 REDZ=
200501042020 METAR ESMX 042020Z 24015G27KT 200V270 5000 -RA FEW007 OVC010 07/06 Q0999=
200501041950 METAR ESMX 041950Z 25013KT 6000 -RA FEW005 SCT007 BKN009 07/06 Q0999=
200501041920 METAR ESMX 041920Z 24013KT 210V280 3000 DZ BR FEW005 BKN007 OVC009 06/06 Q0999=
200501041850 METAR ESMX 041850Z 24011KT 6000 -DZ BR FEW005 BKN009 06/05 Q0999=
200501041820 METAR ESMX 041820Z 24012KT 2500 DZ BR FEW005 SCT007 BKN008 06/05 Q1000=
200501041750 METAR ESMX 041750Z 23010KT 200V260 2500 DZ BR FEW004 BKN008 06/05 Q1000=
200501041720 METAR ESMX 041720Z 23011KT 3300 -DZ BR FEW005 SCT007 BKN009 06/05 Q1001=
200501041650 METAR ESMX 041650Z 24010KT 210V280 3400 DZ BR FEW005 SCT007 BKN009 06/06 Q1001=
200501041620 METAR ESMX 041620Z 23010KT 5000 -SHRA BR FEW006 BKN008 OVC011 06/06 Q1001=
200501041550 METAR ESMX 041550Z 25008KT 4500 -SHRA BR FEW006 BKN008 OVC011 07/06 Q1002=
200501041520 METAR ESMX 041520Z 23009KT 200V290 4500 -SHRA BR FEW006 BKN007 OVC009 07/06 Q1002=
200501041450 METAR ESMX 041450Z 25008KT 8000 BR FEW004 BKN005 07/06 Q1002=
200501041420 METAR ESMX 041420Z 25008KT 8000 -SHRA FEW004 BKN006 06/06 Q1002=
200501041350 METAR ESMX 041350Z 24008KT 200V260 5000 -RA BR FEW002 SCT004 OVC005 06/06 Q1003=
200501041320 METAR ESMX 041320Z 26010KT 220V290 3000 -DZ BR BKN002 06/06 Q1003=
200501041250 METAR ESMX 041250Z 25009KT 220V290 3100 -RADZ BR OVC002 06/06 Q1003 REDZ=
200501041220 METAR ESMX 041220Z 25010KT 200V290 8000 -RA BR FEW004 OVC005 06/06 Q1003=
200501041150 METAR ESMX 041150Z 26010KT 200V300 3300 -DZ BR FEW002 BKN005 06/06 Q1003=
200501041120 METAR ESMX 041120Z 25008KT 220V320 1900 DZ BR BKN002 OVC004 06/06 Q1003=
200501041050 METAR ESMX 041050Z 23006KT 190V260 3000 -DZ BR OVC002 06/06 Q1003=
200501041020 METAR ESMX 041020Z 22006KT 2400 -DZ BR OVC002 06/05 Q1003 REDZ=
200501040950 METAR ESMX 040950Z 24005KT 3600 DZ BR OVC001 05/05 Q1003=
200501040920 METAR ESMX 040920Z 23004KT 6000 -DZ BR OVC002 05/04 Q1003=
200501040850 METAR ESMX 040850Z VRB03KT 4500 -RA BR BKN002 05/04 Q1003=
200501040820 METAR ESMX 040820Z 24004KT 3500 DZ OVC002 04/04 Q1004=
200501040750 METAR ESMX 040750Z VRB03KT 5000 -RA BR SCT003 BKN005 04/04 Q1003=
200501040720 METAR ESMX 040720Z 23004KT 9000 -RA BR FEW003 BKN008 04/04 Q1003=
200501040650 METAR ESMX 040650Z 21005KT 8000 -RA BR BKN001 BKN005 03/03 Q1003 RERASN=
200501040620 METAR ESMX 040620Z 23005KT 4100 -RA BR OVC002 03/03 Q1003=
200501040550 METAR ESMX 040550Z 20004KT 4000 DZ OVC005 02/02 Q1003=
200501040520 METAR ESMX 040520Z AUTO VRB03KT 5000 -RA FEW007 BKN008 OVC011 01/01 Q1003=
200501040450 METAR ESMX 040450Z AUTO VRB03KT 4200 DZ OVC001 01/00 Q1003=
200501040420 METAR ESMX 040420Z AUTO VRB02KT 5000 -RA BKN001 OVC007 01/01 Q1003=
200501040350 METAR ESMX 040350Z AUTO VRB02KT 4200 -RA BKN002 OVC005 01/01 Q1003=
200501040320 METAR ESMX 040320Z AUTO 00000KT 3700 -RA FEW002 BKN004 OVC007 01/00 Q1004=
200501040250 METAR ESMX 040250Z AUTO VRB01KT 3000 -RA FEW004 SCT005 BKN007 00/00 Q1004=
200501040220 METAR ESMX 040220Z AUTO VRB01KT 4700 -RA OVC005 00/00 Q1004=
200501040150 METAR ESMX 040150Z AUTO VRB02KT 7000 -SHRA OVC007 01/01 Q1004=
200501040120 METAR ESMX 040120Z VRB02KT 9999 FEW007 BKN008 OVC011 01/01 Q1004 RERA=
200501040050 METAR ESMX 040050Z VRB03KT 9999 -RA FEW008 OVC011 01/00 Q1004=
200501040020 METAR ESMX 040020Z VRB02KT 9000 BR BKN013 OVC019 01/00 Q1004 REDZ=
200501032350 METAR ESMX 032350Z VRB02KT 6000 -RA SCT017 BKN022 BKN027 00/00 Q1004=
200501032320 METAR ESMX 032320Z VRB01KT 4700 -RA FEW002 BKN018 00/00 Q1004=
200501032250 METAR ESMX 032250Z VRB02KT 6000 -DZ BKN002 00/00 Q1004=
200501032220 METAR ESMX 032220Z VRB02KT 3300 -RA FEW002 SCT003 BKN010 00/00 Q1004=
200501032150 METAR ESMX 032150Z VRB03KT 1800 -SN BKN002 BKN012 00/00 Q1004=
200501032120 METAR ESMX 032120Z 17004KT 1700 -SN FEW002 BKN004 00/00 Q1004=
200501032050 METAR ESMX 032050Z 17004KT 1200 R01/P1500N R19/P1500N SN FEW002 BKN006 00/00 Q1004=
200501032020 METAR ESMX 032020Z 19004KT 1500 R19/P2000 -SN BKN005 00/00 Q1005=
200501031950 METAR ESMX 031950Z VRB03KT 1500 R01/P1500N R19/P1500N -SN SCT005 BKN009 01/00 Q1005=
200501031920 METAR ESMX 031920Z 23009KT 200V270 9999 -RASN BKN035 02/M01 Q1006=
200501031850 METAR ESMX 031850Z 24009KT 200V270 CAVOK 02/M01 Q1006=
200501031820 METAR ESMX 031820Z 25008KT 210V270 CAVOK 02/M01 Q1006=
200501031750 METAR ESMX 031750Z 25006KT 230V290 CAVOK 02/M01 Q1007=
200501031720 METAR ESMX 031720Z 27009KT 230V310 CAVOK 02/M02 Q1007=
200501031650 METAR ESMX 031650Z 26009KT 230V320 CAVOK 02/M02 Q1007=
200501031620 METAR ESMX 031620Z 26010KT 230V290 CAVOK 02/M02 Q1007=
200501031550 METAR ESMX 031550Z 26011KT 220V290 CAVOK 02/M02 Q1007=
200501031520 METAR ESMX 031520Z 26011KT CAVOK 02/M02 Q1006=
200501031450 METAR ESMX 031450Z 26008KT 210V310 CAVOK 02/M03 Q1006=
200501031350 METAR ESMX 031350Z 26012KT 230V290 CAVOK 03/M03 Q1005=
200501031320 METAR ESMX 031320Z 27013G23KT 230V300 CAVOK 03/M03 Q1004=
200501031250 METAR ESMX 031250Z 26013KT 210V300 CAVOK 03/M02 Q1004=
200501031220 METAR ESMX 031220Z 28013KT 250V340 9999 FEW035 03/M02 Q1004=
200501031150 METAR ESMX 031150Z 27011KT 230V320 9999 FEW025 03/M02 Q1004=
200501031120 METAR ESMX 031120Z 28011KT 230V320 9999 FEW025 03/M02 Q1003=
200501031050 METAR ESMX 031050Z 27012KT 230V320 9999 FEW025 03/M01 Q1003=
200501031020 METAR ESMX 031020Z 25011KT 210V280 9999 FEW026 02/M01 Q1003=
200501030950 METAR ESMX 030950Z 26011KT 230V290 9999 FEW025 02/M01 Q1003=
200501030920 METAR ESMX 030920Z 26011G22KT 220V310 9999 FEW024 02/M01 Q1002=
200501030850 METAR ESMX 030850Z 24010KT 200V270 9999 FEW025 02/M01 Q1002=
200501030820 METAR ESMX 030820Z 25010KT 9999 FEW025 01/M01 Q1002=
200501030750 METAR ESMX 030750Z 24009KT 200V280 9999 FEW027 01/M01 Q1001=
200501030720 METAR ESMX 030720Z 25011KT 210V280 CAVOK 01/M01 Q1001=
200501030650 METAR ESMX 030650Z 26010KT 220V290 9999 SCT021 02/M01 Q1000=
200501030620 METAR ESMX 030620Z 26009KT 220V310 9999 SCT023 01/M01 Q1000=
200501030550 METAR ESMX 030550Z 27009KT 9999 SCT023 01/M01 Q1000=
200501030520 METAR ESMX 030520Z 26011KT 210V300 9999 FEW024 01/M01 Q0999=
200501030450 METAR ESMX 030450Z 24009KT 210V270 9999 FEW025 01/M01 Q0999=
200501030420 METAR ESMX 030420Z AUTO 25010KT 210V280 9999 NSC 01/M01 Q0999=
200501030350 METAR ESMX 030350Z AUTO 24012KT 200V280 9999 FEW024 01/M01 Q0998=
200501030320 METAR ESMX 030320Z AUTO 25011KT 9999 NSC 01/M01 Q0998=
200501030250 METAR ESMX 030250Z AUTO 26010KT 230V290 9999 NSC 01/M01 Q0998=
200501030220 METAR ESMX 030220Z AUTO 24011KT 190V280 9999 FEW022 SCT032 01/M01 Q0998=
200501030150 METAR ESMX 030150Z 26010KT 9999 SCT023 BKN029 01/M01 Q0998=
200501030120 METAR ESMX 030120Z 26011KT 230V290 9999 BKN022 01/M01 Q0997=
200501030050 METAR ESMX 030050Z 25010KT 210V280 9999 SCT023 01/M01 Q0997=
200501030020 METAR ESMX 030020Z 25009KT 210V300 9999 FEW018 SCT027 BKN034 01/M00 Q0997=
200501022350 METAR ESMX 022350Z 26008KT 210V290 9999 FEW014 SCT019 BKN037 01/M00 Q0997=
200501022320 METAR ESMX 022320Z 25009KT 210V280 9999 FEW009 SCT018 BKN022 01/M00 Q0997=
200501022250 METAR ESMX 022250Z 24009KT 9999 FEW007 SCT012 BKN014 01/00 Q0996=
200501022220 METAR ESMX 022220Z 27008KT 220V320 9999 -SHSN SCT007 BKN012 01/00 Q0996=
200501022150 METAR ESMX 022150Z 22007KT 9999 -SHRASN SCT014 BKN024 01/M00 Q0996=
200501022120 METAR ESMX 022120Z 25009KT 9999 FEW013 SCT019 BKN023 02/M00 Q0995=
200501022050 METAR ESMX 022050Z 24009KT 210V280 9999 BKN014 BKN020 02/00 Q0995=
200501022020 METAR ESMX 022020Z 25010KT 220V280 9999 FEW014 SCT019 BKN023 02/00 Q0995=
200501021950 METAR ESMX 021950Z 23010KT 9999 FEW017 SCT023 BKN031 02/00 Q0995=
200501021920 METAR ESMX 021920Z 23012KT 190V250 9999 BKN023 02/00 Q0994=
200501021850 METAR ESMX 021850Z 23010KT 190V260 9999 SCT016 BKN024 02/00 Q0994=
200501021820 METAR ESMX 021820Z 24012KT 210V270 9999 SCT015 BKN040 02/00 Q0994=
200501021750 METAR ESMX 021750Z 23012KT 9999 FEW015 SCT021 BKN041 02/00 Q0994=
200501021720 METAR ESMX 021720Z 24013KT 200V280 9999 FEW015 SCT020 OVC037 02/00 Q0993=
200501021650 METAR ESMX 021650Z 23013G23KT 200V270 9999 FEW014 SCT017 BKN020 02/00 Q0993=
200501021620 METAR ESMX 021620Z 23013KT 9999 FEW009 BKN011 02/01 Q0993 RERA=
200501021550 METAR ESMX 021550Z 21012KT 9999 -SHRA FEW008 SCT014 BKN019 01/01 Q0993=
200501021520 METAR ESMX 021520Z 22012KT 190V260 9999 FEW012 SCT017 BKN020 02/01 Q0993 RERA=
200501021450 METAR ESMX 021450Z 23012KT 200V260 9999 FEW010 SCT015 BKN021 02/01 Q0993 RERA=
200501021420 METAR ESMX 021420Z 24012G22KT 210V290 9999 -SHRA SCT008 BKN014 02/01 Q0992=
200501021320 METAR ESMX 021320Z AUTO 22014KT 180V250 5000 -RA FEW008 SCT013 BKN016 02/01 Q0992=
200501021250 METAR ESMX 021250Z AUTO 24011KT 9999 FEW011 SCT014 BKN017 02/01 Q0992=
200501021220 METAR ESMX 021220Z AUTO 22013KT 9999 FEW009 SCT013 BKN015 02/01 Q0991 RERA=
200501021150 METAR ESMX 021150Z AUTO 22012KT 190V250 9999 RA FEW008 BKN012 01/01 Q0991=
200501021120 METAR ESMX 021120Z AUTO 24010KT 190V260 5000 +RA FEW005 SCT007 BKN013 01/01 Q0991=
200501021050 METAR ESMX 021050Z AUTO 22012KT 190V250 9999 -SHRA FEW008 BKN010 02/01 Q0991=
200501021020 METAR ESMX 021020Z AUTO 24013G23KT 200V270 6000 -SHRA FEW009 SCT012 BKN015 03/02 Q0990=
200501020950 METAR ESMX 020950Z AUTO 22012KT 9999 -SHRA FEW009 SCT012 BKN015 03/02 Q0990=
200501020920 METAR ESMX 020920Z AUTO 23013KT 200V270 7000 DZ FEW011 SCT014 BKN017 03/02 Q0990=
200501020850 METAR ESMX 020850Z AUTO 24012KT 9999 -SHRA FEW009 SCT011 BKN014 03/02 Q0990=
200501020820 METAR ESMX 020820Z AUTO 23012KT 200V270 9999 -SHRA FEW009 SCT012 BKN015 03/02 Q0990=
200501020750 METAR ESMX 020750Z AUTO 23012KT 200V260 8000 -RA FEW010 BKN013 BKN020 04/03 Q0990=
200501020720 METAR ESMX 020720Z AUTO 23008KT 200V270 8000 -SHRA FEW012 SCT018 BKN026 04/03 Q0989=
200501020650 METAR ESMX 020650Z AUTO 22010KT 190V260 9999 -SHRA FEW009 SCT014 BKN018 04/03 Q0989=
200501020620 METAR ESMX 020620Z AUTO 23009KT 9999 -SHRA FEW009 SCT012 BKN015 04/03 Q0989=
200501020550 METAR ESMX 020550Z AUTO 22013KT 190V250 9999 -SHRA FEW004 SCT005 BKN006 04/03 Q0989=
200501020520 METAR ESMX 020520Z AUTO 18012KT 9000 -SHRA OVC004 03/02 Q0989=
200501020450 METAR ESMX 020450Z AUTO 17011KT 7000 -RA BKN005 OVC008 02/02 Q0990=
200501020420 METAR ESMX 020420Z AUTO 17014KT 7000 -RA SCT005 OVC007 02/02 Q0990=
200501020350 METAR ESMX 020350Z AUTO 17015KT 8000 -RA BKN006 OVC009 02/02 Q0991=
200501020320 METAR ESMX 020320Z AUTO 17014KT 8000 -RA FEW006 BKN007 OVC009 03/02 Q0992=
200501020250 METAR ESMX 020250Z AUTO 16015KT 120V190 5000 -RA OVC005 03/02 Q0993=
200501020220 METAR ESMX 020220Z AUTO 17014KT 140V200 9000 BR FEW007 SCT009 BKN010 03/02 Q0994=
200501020150 METAR ESMX 020150Z AUTO 15014KT 9000 BR FEW009 SCT012 BKN023 03/02 Q0995=
200501020120 METAR ESMX 020120Z AUTO 16013KT 8000 BR FEW008 BKN009 OVC033 03/02 Q0997=
200501020050 METAR ESMX 020050Z AUTO 16013KT 8000 FEW007 SCT009 BKN011 03/02 Q0998 REDZ=
200501020020 METAR ESMX 020020Z AUTO 17014KT 7000 FEW005 BKN006 OVC009 03/02 Q0999 REDZ=
200501012350 METAR ESMX 012350Z AUTO 17012KT 140V200 4200 -SHRA OVC003 03/02 Q1001=
200501012320 METAR ESMX 012320Z AUTO 17012KT 4300 -SHRA OVC003 03/02 Q1002=
200501012250 METAR ESMX 012250Z AUTO 17012KT 5000 -SHRA FEW003 BKN005 OVC007 03/02 Q1003=
200501012220 METAR ESMX 012220Z AUTO 17011KT 140V200 4900 -SHRA OVC003 02/02 Q1004=
200501012150 METAR ESMX 012150Z AUTO 17010KT 4900 BKN002 OVC006 02/02 Q1004 REDZ=
200501012120 METAR ESMX 012120Z AUTO 17012KT 2000 -SHRA OVC001 02/02 Q1005=
200501012050 METAR ESMX 012050Z AUTO 17011KT 0800 R01/P1500N R19/P1500N -SHRA VV001 02/02 Q1006=
200501012020 METAR ESMX 012020Z AUTO 18010KT 1100 R01/P1500N R19/P1500N VV002 02/02 Q1007 REDZ=
200501011950 METAR ESMX 011950Z AUTO 17010KT 0550 R01/P1500N R19/P1500N FG VV001 02/02 Q1008=
200501011920 METAR ESMX 011920Z AUTO 18010KT 0900 R01/P1500N R19/P1500N FG VV002 02/02 Q1008=
200501011850 METAR ESMX 011850Z AUTO 18010KT 1900 OVC001 02/02 Q1009 REDZ=
200501011820 METAR ESMX 011820Z AUTO 18010KT 1500 OVC001 02/02 Q1009 REDZ=
200501011750 METAR ESMX 011750Z AUTO 18011KT 2900 -RA OVC001 02/02 Q1010=
200501011720 METAR ESMX 011720Z AUTO 19010KT 4500 BR OVC002 02/02 Q1010=
200501011650 METAR ESMX 011650Z AUTO 18009KT 5000 BR OVC002 02/02 Q1011=
200501011620 METAR ESMX 011620Z AUTO 18008KT 4700 BR BKN003 OVC006 02/02 Q1011=
200501011550 METAR ESMX 011550Z AUTO 19008KT 5000 BR BKN002 OVC005 02/02 Q1012=
200501011520 METAR ESMX 011520Z AUTO 19008KT 3400 BR OVC001 02/02 Q1012=
200501011450 METAR ESMX 011450Z AUTO 19008KT 3000 BR OVC001 02/02 Q1012=
200501011420 METAR ESMX 011420Z AUTO 19007KT 2800 BR OVC001 02/02 Q1013=
200501011350 METAR ESMX 011350Z AUTO 20007KT 3100 BR OVC001 02/01 Q1013=
200501011320 METAR ESMX 011320Z AUTO 18008KT 2300 BR OVC001 01/01 Q1013=
200501011250 METAR ESMX 011250Z AUTO 19007KT 3100 BR OVC001 01/01 Q1014=
200501011220 METAR ESMX 011220Z AUTO 22006KT 200V260 4700 BR OVC001 01/01 Q1014=
Fallo de consulta: el error es SELECT command denied to user 'users'@'localhost' for table 'tafs_2005'
