##########################################################
# Query made at 04/19/2024 20:44:36 UTC
# Time interval: from 04/01/2005 12:00  to 04/30/2005 12:59  UTC
##########################################################

##########################################################
# ESMX, Vaxjo (Sweden)
# WMO index: 02641. WIGOS ID: 0-20000-0-02648
# Latitude 56-51N. Longitude 014-50E. Altitude 199 m.
##########################################################

200504301250 METAR ESMX 301250Z AUTO 17007KT 120V200 9999 FEW040 SCT064 BKN087 14/00 Q1016=
200504301220 METAR ESMX 301220Z AUTO 16006KT 120V200 9999 BKN040 BKN066 13/M00 Q1017=
200504301150 METAR ESMX 301150Z AUTO 16008KT 120V190 9999 SCT043 BKN053 13/M00 Q1017=
200504301120 METAR ESMX 301120Z AUTO 16008KT 130V190 9999 BKN047 BKN055 12/M00 Q1018=
200504301050 METAR ESMX 301050Z AUTO 17008KT 130V190 9999 BKN046 BKN077 12/M01 Q1018=
200504301020 METAR ESMX 301020Z AUTO 15007KT 110V190 9999 BKN041 11/M01 Q1018=
200504300950 METAR ESMX 300950Z AUTO 15009KT 120V190 9999 BKN041 BKN050 11/M02 Q1018=
200504300920 METAR ESMX 300920Z 15007KT 100V190 9999 BKN041 10/M02 Q1019=
200504300850 METAR ESMX 300850Z 15005KT 100V170 9999 BKN035 BKN052 09/M01 Q1019=
200504300820 METAR ESMX 300820Z 17006KT 110V200 9999 -RA FEW021 BKN034 08/M01 Q1019=
200504300750 METAR ESMX 300750Z 17005KT 110V190 9999 BKN035 08/M00 Q1019=
200504300720 METAR ESMX 300720Z 16006KT 120V200 9999 -RA SCT036 BKN042 08/00 Q1019=
200504300650 METAR ESMX 300650Z 16006KT 100V190 9999 SCT042 BKN060 08/M01 Q1019=
200504300620 METAR ESMX 300620Z AUTO 15006KT 120V190 9999 OVC043 07/M00 Q1020=
200504300550 METAR ESMX 300550Z AUTO 16004KT 120V190 9999 BKN043 OVC066 07/00 Q1020=
200504300520 METAR ESMX 300520Z AUTO 15004KT 120V180 9999 OVC044 07/00 Q1020=
200504300450 METAR ESMX 300450Z AUTO 15004KT 120V190 9999 OVC047 06/00 Q1020=
200504300420 METAR ESMX 300420Z AUTO 14004KT 9999 OVC047 06/00 Q1020=
200504300350 METAR ESMX 300350Z AUTO 15004KT 9999 OVC051 06/00 Q1020=
200504300320 METAR ESMX 300320Z AUTO 16004KT 9999 OVC053 06/01 Q1021=
200504300250 METAR ESMX 300250Z AUTO 16005KT 110V190 9999 OVC052 06/01 Q1021=
200504300220 METAR ESMX 300220Z AUTO 16004KT 9999 BKN052 BKN069 06/01 Q1021=
200504300150 METAR ESMX 300150Z AUTO 20004KT 9999 OVC053 06/01 Q1021=
200504300120 METAR ESMX 300120Z AUTO 15005KT 9999 OVC056 06/01 Q1021=
200504300050 METAR ESMX 300050Z AUTO 16004KT 9999 OVC056 06/01 Q1022=
200504300020 METAR ESMX 300020Z AUTO 18005KT 9999 OVC059 07/01 Q1022=
200504292350 METAR ESMX 292350Z AUTO 16005KT 120V200 9999 OVC061 07/01 Q1022=
200504292320 METAR ESMX 292320Z AUTO 16004KT 9999 OVC064 07/02 Q1022=
200504292250 METAR ESMX 292250Z AUTO 15004KT 9999 FEW110 06/02 Q1022=
200504292150 METAR ESMX 292150Z AUTO 15004KT 9999 FEW088 07/01 Q1022=
200504292120 METAR ESMX 292120Z AUTO 17005KT 9999 NSC 08/01 Q1022=
200504292050 METAR ESMX 292050Z AUTO 16004KT 9999 NSC 08/00 Q1022=
200504292020 METAR ESMX 292020Z AUTO 17004KT 9999 FEW090 09/00 Q1022=
200504291950 METAR ESMX 291950Z 16004KT CAVOK 09/00 Q1022=
200504291920 METAR ESMX 291920Z 18004KT CAVOK 09/01 Q1022=
200504291850 METAR ESMX 291850Z 16006KT CAVOK 11/00 Q1022=
200504291820 METAR ESMX 291820Z 15006KT CAVOK 11/01 Q1022=
200504291750 METAR ESMX 291750Z 19005KT CAVOK 11/01 Q1022=
200504291720 METAR ESMX 291720Z 20005KT CAVOK 12/00 Q1022=
200504291650 METAR ESMX 291650Z 21007KT CAVOK 13/00 Q1022=
200504291620 METAR ESMX 291620Z 22006KT CAVOK 13/01 Q1022=
200504291550 METAR ESMX 291550Z 23005KT 190V260 CAVOK 13/00 Q1022=
200504291520 METAR ESMX 291520Z 22007KT 170V240 CAVOK 13/M00 Q1023=
200504291450 METAR ESMX 291450Z 21008KT 160V240 CAVOK 13/M01 Q1023=
200504291420 METAR ESMX 291420Z 20008KT 160V230 9999 FEW035 BKN100 13/M00 Q1023=
200504291350 METAR ESMX 291350Z 21009KT 9999 FEW035 BKN080 14/00 Q1023=
200504291320 METAR ESMX 291320Z 20006KT 170V240 CAVOK 14/M01 Q1023=
200504291250 METAR ESMX 291250Z 19007KT 160V240 CAVOK 13/M01 Q1023=
200504291220 METAR ESMX 291220Z 22008KT 170V250 CAVOK 14/M01 Q1023=
200504291150 METAR ESMX 291150Z 19006KT 150V220 CAVOK 14/M01 Q1023=
200504291120 METAR ESMX 291120Z 19006KT 060V230 CAVOK 14/M01 Q1023=
200504291020 METAR ESMX 291020Z 16006KT 120V200 CAVOK 13/M02 Q1024=
200504290950 METAR ESMX 290950Z 17006KT 110V220 CAVOK 13/M02 Q1024=
200504290920 METAR ESMX 290920Z 15006KT 110V200 CAVOK 13/M02 Q1024=
200504290850 METAR ESMX 290850Z 15007KT 080V190 CAVOK 12/M02 Q1024=
200504290820 METAR ESMX 290820Z 18006KT 110V200 9999 NSC 12/M01 Q1024=
200504290750 METAR ESMX 290750Z 17006KT 120V200 9999 NSC 12/M02 Q1024=
200504290720 METAR ESMX 290720Z 18006KT 110V230 CAVOK 11/M01 Q1024=
200504290650 METAR ESMX 290650Z 15004KT 110V180 CAVOK 10/M00 Q1024=
200504290620 METAR ESMX 290620Z VRB03KT CAVOK 09/M01 Q1024=
200504290550 METAR ESMX 290550Z VRB02KT CAVOK 07/01 Q1024=
200504290520 METAR ESMX 290520Z 00000KT CAVOK 04/02 Q1024=
200504290450 METAR ESMX 290450Z 00000KT 5000 BR NSC 02/01 Q1024=
200504290420 METAR ESMX 290420Z 00000KT 8000 BCFG BR SKC M00/M01 Q1024=
200504290350 METAR ESMX 290350Z 00000KT 8000 BCFG BR SKC M01/M01 Q1024=
200504290320 METAR ESMX 290320Z AUTO VRB01KT 9999 BR NSC M01/M02 Q1024=
200504290250 METAR ESMX 290250Z AUTO VRB01KT 6000 BR NSC M01/M01 Q1024=
200504290220 METAR ESMX 290220Z AUTO VRB01KT 9999 BR NSC M01/M01 Q1024=
200504290150 METAR ESMX 290150Z AUTO VRB01KT 8000 BR NSC M01/M01 Q1024=
200504290120 METAR ESMX 290120Z AUTO 00000KT 5000 BR NSC M00/M01 Q1024=
200504290050 METAR ESMX 290050Z AUTO 00000KT 8000 BR NSC M00/M01 Q1024=
200504290020 METAR ESMX 290020Z 00000KT 8000 BR NSC 01/00 Q1024=
200504282350 METAR ESMX 282350Z VRB02KT 9000 BR NSC 01/00 Q1024=
200504282320 METAR ESMX 282320Z VRB01KT CAVOK 02/01 Q1024=
200504282250 METAR ESMX 282250Z 00000KT CAVOK 02/01 Q1024=
200504282220 METAR ESMX 282220Z VRB01KT CAVOK 04/02 Q1024=
200504282150 METAR ESMX 282150Z VRB01KT 9999 FEW048 BKN070 05/02 Q1024=
200504282120 METAR ESMX 282120Z 16004KT CAVOK 06/02 Q1024=
200504282050 METAR ESMX 282050Z 13004KT CAVOK 08/02 Q1024=
200504282020 METAR ESMX 282020Z VRB03KT CAVOK 08/02 Q1023=
200504281950 METAR ESMX 281950Z VRB03KT CAVOK 10/02 Q1023=
200504281920 METAR ESMX 281920Z 17004KT 9999 BKN047 10/03 Q1023=
200504281850 METAR ESMX 281850Z VRB03KT 9999 FEW047 BKN076 10/03 Q1022=
200504281820 METAR ESMX 281820Z VRB03KT CAVOK 11/03 Q1022=
200504281750 METAR ESMX 281750Z VRB03KT CAVOK 12/03 Q1022=
200504281720 METAR ESMX 281720Z 16004KT CAVOK 12/02 Q1022=
200504281650 METAR ESMX 281650Z 16005KT 9999 SCT048 BKN084 12/02 Q1021=
200504281620 METAR ESMX 281620Z 16006KT 100V190 9999 SCT047 BKN090 13/02 Q1021=
200504281550 METAR ESMX 281550Z 16007KT 110V190 9999 FEW049CB BKN062 13/02 Q1021=
200504281520 METAR ESMX 281520Z 12004KT 090V170 CAVOK 13/02 Q1021=
200504281450 METAR ESMX 281450Z VRB02KT CAVOK 14/01 Q1021=
200504281420 METAR ESMX 281420Z VRB02KT CAVOK 14/01 Q1020=
200504281350 METAR ESMX 281350Z 12004KT 060V200 CAVOK 13/01 Q1020=
200504281320 METAR ESMX 281320Z 13005KT 040V170 CAVOK 14/01 Q1020=
200504281250 METAR ESMX 281250Z 08004KT 010V150 CAVOK 14/02 Q1020=
200504281220 METAR ESMX 281220Z 09004KT 360V140 CAVOK 13/01 Q1020=
200504281150 METAR ESMX 281150Z 09005KT 050V140 CAVOK 13/01 Q1020=
200504281120 METAR ESMX 281120Z 08006KT 350V120 CAVOK 13/02 Q1019=
200504281050 METAR ESMX 281050Z 09007KT 030V140 9999 SCT038 SCT061 BKN085 13/02 Q1019=
200504281020 METAR ESMX 281020Z 09005KT 360V140 CAVOK 13/02 Q1019=
200504280950 METAR ESMX 280950Z 08005KT 030V140 CAVOK 12/01 Q1019=
200504280920 METAR ESMX 280920Z 07005KT 030V120 CAVOK 11/02 Q1019=
200504280850 METAR ESMX 280850Z 04004KT 350V110 CAVOK 11/01 Q1019=
200504280820 METAR ESMX 280820Z 03005KT 360V070 CAVOK 09/01 Q1018=
200504280750 METAR ESMX 280750Z 05006KT 020V080 CAVOK 09/01 Q1018=
200504280720 METAR ESMX 280720Z 06006KT 020V080 9999 FEW040 BKN060 08/01 Q1018=
200504280650 METAR ESMX 280650Z 03007KT 9999 FEW040 BKN060 07/00 Q1018=
200504280620 METAR ESMX 280620Z 04007KT 9999 BKN040 06/00 Q1017=
200504280550 METAR ESMX 280550Z 04007KT 9999 SCT044 05/M00 Q1017=
200504280520 METAR ESMX 280520Z 04008KT 360V060 9999 BKN040 05/00 Q1017=
200504280450 METAR ESMX 280450Z 03007KT 9999 SCT040 04/M00 Q1017=
200504280420 METAR ESMX 280420Z 02006KT CAVOK 03/M00 Q1016=
200504280350 METAR ESMX 280350Z 03007KT CAVOK 03/M00 Q1016=
200504280320 METAR ESMX 280320Z AUTO 02007KT 9999 NSC 03/M01 Q1016=
200504280250 METAR ESMX 280250Z AUTO 02006KT 9999 FEW060 03/M01 Q1016=
200504280220 METAR ESMX 280220Z AUTO 03006KT 9999 FEW060 03/M01 Q1016=
200504280150 METAR ESMX 280150Z AUTO 02007KT 9999 FEW061 03/M02 Q1016=
200504280120 METAR ESMX 280120Z AUTO 02007KT 350V060 9999 SCT057 03/M02 Q1016=
200504280020 METAR ESMX 280020Z AUTO 04006KT 9999 FEW039 SCT053 04/M02 Q1016=
200504272350 METAR ESMX 272350Z 06005KT 030V100 9999 FEW040 BKN050 04/M02 Q1016=
200504272320 METAR ESMX 272320Z 02006KT 350V060 9999 FEW045 SCT051 04/M02 Q1016=
200504272250 METAR ESMX 272250Z VRB03KT 9999 BKN045 04/M02 Q1016=
200504272220 METAR ESMX 272220Z 05004KT 020V110 9999 SCT045 05/M01 Q1016=
200504272150 METAR ESMX 272150Z 07004KT 020V110 9999 FEW045 05/M01 Q1017=
200504272120 METAR ESMX 272120Z 07004KT 020V120 CAVOK 05/M02 Q1017=
200504272050 METAR ESMX 272050Z 07004KT 040V140 CAVOK 05/M02 Q1017=
200504272020 METAR ESMX 272020Z 07004KT 020V110 CAVOK 06/M03 Q1017=
200504271950 METAR ESMX 271950Z VRB03KT CAVOK 06/M03 Q1017=
200504271920 METAR ESMX 271920Z VRB03KT CAVOK 07/M04 Q1017=
200504271850 METAR ESMX 271850Z 09004KT 030V170 CAVOK 08/M04 Q1016=
200504271820 METAR ESMX 271820Z 09004KT 040V140 CAVOK 09/M03 Q1016=
200504271750 METAR ESMX 271750Z 11006KT 070V170 CAVOK 09/M04 Q1016=
200504271720 METAR ESMX 271720Z 10008KT 050V160 CAVOK 10/M04 Q1016=
200504271650 METAR ESMX 271650Z 10006KT 050V150 CAVOK 10/M05 Q1016=
200504271620 METAR ESMX 271620Z 10008KT 060V150 CAVOK 11/M04 Q1016=
200504271550 METAR ESMX 271550Z 12009KT 070V170 CAVOK 12/M04 Q1016=
200504271520 METAR ESMX 271520Z 08008KT 040V150 CAVOK 12/M04 Q1016=
200504271450 METAR ESMX 271450Z 10007KT 060V140 CAVOK 13/M05 Q1016=
200504271420 METAR ESMX 271420Z 10008KT 030V140 CAVOK 13/M04 Q1016=
200504271350 METAR ESMX 271350Z 08008KT 040V150 CAVOK 13/M04 Q1016=
200504271320 METAR ESMX 271320Z 11008KT 050V190 CAVOK 13/M03 Q1016=
200504271250 METAR ESMX 271250Z 09008KT 340V140 CAVOK 14/M03 Q1017=
200504271220 METAR ESMX 271220Z 10007KT 050V160 CAVOK 13/M03 Q1017=
200504271150 METAR ESMX 271150Z 11008KT 060V150 CAVOK 13/M03 Q1017=
200504271120 METAR ESMX 271120Z 11011KT 070V160 CAVOK 13/M02 Q1017=
200504271050 METAR ESMX 271050Z 13008KT 070V180 CAVOK 13/M02 Q1018=
200504271020 METAR ESMX 271020Z 12008KT 070V200 CAVOK 12/M02 Q1018=
200504270950 METAR ESMX 270950Z 10008KT 050V140 CAVOK 12/M02 Q1018=
200504270920 METAR ESMX 270920Z 14009KT 080V200 CAVOK 12/M02 Q1018=
200504270850 METAR ESMX 270850Z 12007KT 070V220 CAVOK 11/M03 Q1019=
200504270820 METAR ESMX 270820Z 11009KT 060V160 CAVOK 11/M03 Q1019=
200504270750 METAR ESMX 270750Z 07006KT 030V140 CAVOK 10/M02 Q1019=
200504270720 METAR ESMX 270720Z 10005KT 030V140 CAVOK 08/M00 Q1019=
200504270650 METAR ESMX 270650Z 08005KT 030V130 CAVOK 07/00 Q1019=
200504270620 METAR ESMX 270620Z 05004KT 360V140 CAVOK 05/00 Q1019=
200504270550 METAR ESMX 270550Z 06005KT 030V110 CAVOK 04/M00 Q1019=
200504270520 METAR ESMX 270520Z 05005KT 020V080 CAVOK 03/M00 Q1019=
200504270450 METAR ESMX 270450Z VRB03KT CAVOK 01/M01 Q1019=
200504270420 METAR ESMX 270420Z 04004KT 010V070 CAVOK 00/M02 Q1019=
200504270350 METAR ESMX 270350Z VRB03KT CAVOK M01/M02 Q1019=
200504270320 METAR ESMX 270320Z AUTO VRB03KT 9999 NSC M01/M02 Q1020=
200504270250 METAR ESMX 270250Z AUTO VRB03KT 9999 NSC M00/M02 Q1020=
200504270220 METAR ESMX 270220Z AUTO VRB02KT 9999 NSC M02/M03 Q1020=
200504270150 METAR ESMX 270150Z AUTO VRB02KT 9999 NSC M03/M04 Q1020=
200504270120 METAR ESMX 270120Z AUTO VRB02KT 9999 NSC M03/M04 Q1020=
200504270020 METAR ESMX 270020Z AUTO 00000KT 9999 NSC M02/M04 Q1021=
200504262350 METAR ESMX 262350Z 00000KT CAVOK M02/M04 Q1021=
200504262320 METAR ESMX 262320Z VRB03KT CAVOK 02/M03 Q1021=
200504262250 METAR ESMX 262250Z VRB03KT CAVOK 02/M04 Q1021=
200504262220 METAR ESMX 262220Z VRB03KT CAVOK 02/M04 Q1021=
200504262150 METAR ESMX 262150Z VRB03KT CAVOK 03/M04 Q1021=
200504262120 METAR ESMX 262120Z VRB03KT CAVOK 04/M04 Q1021=
200504262050 METAR ESMX 262050Z VRB02KT CAVOK 04/M05 Q1021=
200504262020 METAR ESMX 262020Z VRB03KT CAVOK 06/M05 Q1021=
200504261950 METAR ESMX 261950Z VRB03KT CAVOK 07/M05 Q1021=
200504261920 METAR ESMX 261920Z 12004KT 080V170 CAVOK 08/M05 Q1021=
200504261850 METAR ESMX 261850Z 11005KT 050V140 CAVOK 08/M06 Q1021=
200504261820 METAR ESMX 261820Z 11006KT 050V170 CAVOK 10/M06 Q1020=
200504261750 METAR ESMX 261750Z 12005KT 070V170 CAVOK 11/M05 Q1020=
200504261720 METAR ESMX 261720Z 15006KT 110V180 CAVOK 12/M05 Q1020=
200504261650 METAR ESMX 261650Z 08004KT 030V150 CAVOK 12/M05 Q1020=
200504261620 METAR ESMX 261620Z 07005KT 020V100 CAVOK 13/M05 Q1020=
200504261550 METAR ESMX 261550Z 11005KT 020V120 CAVOK 13/M05 Q1020=
200504261520 METAR ESMX 261520Z 06004KT 360V110 CAVOK 13/M05 Q1020=
200504261450 METAR ESMX 261450Z VRB04KT CAVOK 14/M04 Q1020=
200504261420 METAR ESMX 261420Z VRB03KT CAVOK 14/M05 Q1020=
200504261350 METAR ESMX 261350Z 05005KT 010V120 CAVOK 14/M05 Q1020=
200504261320 METAR ESMX 261320Z VRB05G17KT CAVOK 13/M04 Q1020=
200504261250 METAR ESMX 261250Z VRB02KT CAVOK 13/M05 Q1021=
200504261220 METAR ESMX 261220Z 10005KT 020V160 CAVOK 13/M04 Q1021=
200504261150 METAR ESMX 261150Z VRB05KT CAVOK 12/M05 Q1021=
200504261120 METAR ESMX 261120Z VRB04G14KT CAVOK 12/M05 Q1021=
200504261050 METAR ESMX 261050Z 08009KT CAVOK 11/M05 Q1021=
200504261020 METAR ESMX 261020Z 05008KT 020V100 CAVOK 11/M04 Q1022=
200504260950 METAR ESMX 260950Z 10006KT 050V150 CAVOK 11/M05 Q1022=
200504260920 METAR ESMX 260920Z 07006KT 010V150 CAVOK 11/M04 Q1022=
200504260850 METAR ESMX 260850Z 08006KT 020V140 CAVOK 10/M04 Q1022=
200504260820 METAR ESMX 260820Z 06008KT 010V100 CAVOK 09/M04 Q1022=
200504260750 METAR ESMX 260750Z 08006KT 030V140 CAVOK 09/M04 Q1022=
200504260720 METAR ESMX 260720Z 07005KT 020V110 CAVOK 08/M03 Q1022=
200504260650 METAR ESMX 260650Z 06005KT 020V080 CAVOK 06/M02 Q1022=
200504260550 METAR ESMX 260550Z 05004KT 010V080 CAVOK 03/M01 Q1022=
200504260520 METAR ESMX 260520Z 02004KT CAVOK 02/M01 Q1022=
200504260450 METAR ESMX 260450Z VRB03KT CAVOK 00/M02 Q1022=
200504260420 METAR ESMX 260420Z VRB03KT CAVOK M01/M02 Q1022=
200504260350 METAR ESMX 260350Z VRB03KT CAVOK M01/M02 Q1021=
200504260050 METAR ESMX 260050Z VRB03KT CAVOK M02/M03 Q1021=
200504260020 METAR ESMX 260020Z VRB02KT CAVOK M03/M04 Q1021=
200504252350 METAR ESMX 252350Z VRB01KT CAVOK M02/M03 Q1021=
200504252320 METAR ESMX 252320Z VRB02KT CAVOK M02/M03 Q1021=
200504252250 METAR ESMX 252250Z VRB03KT CAVOK M01/M03 Q1021=
200504252220 METAR ESMX 252220Z VRB02KT CAVOK M01/M03 Q1021=
200504252150 METAR ESMX 252150Z VRB02KT CAVOK M00/M03 Q1021=
200504252120 METAR ESMX 252120Z VRB02KT CAVOK 01/M03 Q1021=
200504252050 METAR ESMX 252050Z VRB02KT CAVOK 02/M03 Q1021=
200504252020 METAR ESMX 252020Z VRB02KT CAVOK 03/M03 Q1021=
200504251950 METAR ESMX 251950Z VRB03KT CAVOK 04/M03 Q1021=
200504251920 METAR ESMX 251920Z 12004KT 080V170 CAVOK 05/M03 Q1020=
200504251850 METAR ESMX 251850Z 11005KT 080V150 CAVOK 06/M04 Q1020=
200504251820 METAR ESMX 251820Z 12005KT 080V170 CAVOK 07/M04 Q1020=
200504251750 METAR ESMX 251750Z 12006KT 080V170 CAVOK 09/M05 Q1019=
200504251720 METAR ESMX 251720Z 15007KT 080V190 CAVOK 10/M05 Q1019=
200504251650 METAR ESMX 251650Z 12005KT 030V160 CAVOK 12/M06 Q1019=
200504251620 METAR ESMX 251620Z 07006KT 020V120 CAVOK 12/M06 Q1019=
200504251550 METAR ESMX 251550Z 09005KT 010V160 CAVOK 12/M06 Q1019=
200504251520 METAR ESMX 251520Z 08007KT 020V150 CAVOK 12/M06 Q1019=
200504251450 METAR ESMX 251450Z 12006KT 060V210 CAVOK 12/M06 Q1019=
200504251420 METAR ESMX 251420Z 10006KT 030V150 CAVOK 13/M06 Q1019=
200504251350 METAR ESMX 251350Z 04007KT 340V110 CAVOK 13/M05 Q1019=
200504251320 METAR ESMX 251320Z 08006KT 030V140 CAVOK 12/M06 Q1019=
200504251250 METAR ESMX 251250Z 07006KT 010V150 CAVOK 12/M05 Q1019=
200504251220 METAR ESMX 251220Z 08006KT 030V170 CAVOK 11/M04 Q1019=
200504251150 METAR ESMX 251150Z VRB06KT CAVOK 12/M04 Q1020=
200504251120 METAR ESMX 251120Z 07006KT 020V130 CAVOK 10/M04 Q1020=
200504251050 METAR ESMX 251050Z 12005KT 060V190 CAVOK 10/M03 Q1020=
200504251020 METAR ESMX 251020Z 15005KT 070V220 CAVOK 09/M02 Q1020=
200504250950 METAR ESMX 250950Z 13006KT 050V170 CAVOK 08/M01 Q1020=
200504250920 METAR ESMX 250920Z 16006KT 120V200 CAVOK 07/M02 Q1020=
200504250850 METAR ESMX 250850Z 11005KT 010V170 CAVOK 07/M02 Q1021=
200504250820 METAR ESMX 250820Z 16005KT 100V220 CAVOK 06/M01 Q1021=
200504250750 METAR ESMX 250750Z 15004KT 110V200 CAVOK 06/M01 Q1021=
200504250720 METAR ESMX 250720Z VRB02KT CAVOK 04/M01 Q1021=
200504250650 METAR ESMX 250650Z VRB02KT 9999 FEW008 04/M00 Q1020=
200504250620 METAR ESMX 250620Z 14004KT 110V190 9999 SCT007 03/00 Q1020=
200504250550 METAR ESMX 250550Z 17004KT 9999 BKN005 02/00 Q1020=
200504250520 METAR ESMX 250520Z VRB03KT 9000 BR BKN003 01/00 Q1020=
200504250450 METAR ESMX 250450Z VRB02KT 7000 BR FEW003 BKN005 01/00 Q1020=
200504250420 METAR ESMX 250420Z VRB02KT 6000 BR SCT002 OVC006 00/M00 Q1020=
200504250350 METAR ESMX 250350Z VRB03KT 6000 BR SCT002 BKN004 M01/M01 Q1020=
200504250320 METAR ESMX 250320Z AUTO VRB03KT 6000 BR FEW004 M02/M02 Q1020=
200504250250 METAR ESMX 250250Z AUTO 00000KT 9999 NSC M03/M03 Q1019=
200504250220 METAR ESMX 250220Z AUTO 00000KT 7000 BR NSC M03/M03 Q1019=
200504250150 METAR ESMX 250150Z AUTO VRB01KT 9000 BR NSC M02/M03 Q1020=
200504250120 METAR ESMX 250120Z AUTO 00000KT 9999 NSC M02/M03 Q1020=
200504250050 METAR ESMX 250050Z 00000KT CAVOK M02/M03 Q1019=
200504250020 METAR ESMX 250020Z VRB01KT CAVOK M01/M02 Q1020=
200504242350 METAR ESMX 242350Z VRB03KT CAVOK 01/M01 Q1020=
200504242320 METAR ESMX 242320Z AUTO 17005KT 9999 NSC 02/M01 Q1020=
200504242250 METAR ESMX 242250Z AUTO 16004KT 9999 NSC 02/M01 Q1020=
200504242220 METAR ESMX 242220Z 15005KT CAVOK 03/M01 Q1020=
200504242150 METAR ESMX 242150Z 14004KT 070V160 9999 NSC 03/M00 Q1020=
200504242120 METAR ESMX 242120Z 14004KT 100V170 CAVOK 03/M01 Q1019=
200504242050 METAR ESMX 242050Z 12004KT 050V170 CAVOK 04/M01 Q1019=
200504242020 METAR ESMX 242020Z 13006KT 100V160 CAVOK 05/M01 Q1019=
200504241950 METAR ESMX 241950Z 14005KT 100V170 CAVOK 05/M01 Q1019=
200504241920 METAR ESMX 241920Z 14006KT 110V180 CAVOK 07/M00 Q1018=
200504241850 METAR ESMX 241850Z 13007KT 080V170 CAVOK 08/00 Q1018=
200504241820 METAR ESMX 241820Z 14005KT CAVOK 10/01 Q1017=
200504241750 METAR ESMX 241750Z VRB01KT CAVOK 10/01 Q1017=
200504241720 METAR ESMX 241720Z VRB01KT CAVOK 10/M01 Q1017=
200504241650 METAR ESMX 241650Z 00000KT CAVOK 11/M02 Q1017=
200504241620 METAR ESMX 241620Z VRB02KT CAVOK 12/M05 Q1017=
200504241550 METAR ESMX 241550Z VRB03KT CAVOK 13/M05 Q1017=
200504241520 METAR ESMX 241520Z VRB03KT CAVOK 13/M05 Q1017=
200504241450 METAR ESMX 241450Z 04005KT 340V110 CAVOK 14/M05 Q1018=
200504241420 METAR ESMX 241420Z VRB04KT CAVOK 14/M05 Q1018=
200504241350 METAR ESMX 241350Z 04005KT 310V050 CAVOK 13/M05 Q1018=
200504241320 METAR ESMX 241320Z 36004KT 330V070 CAVOK 13/M05 Q1018=
200504241250 METAR ESMX 241250Z 34006KT 300V020 CAVOK 13/M05 Q1018=
200504241220 METAR ESMX 241220Z AUTO 04006KT 350V080 9999 SCT068 12/M05 Q1018=
200504241150 METAR ESMX 241150Z AUTO VRB03KT 9999 FEW068 13/M05 Q1018=
200504241120 METAR ESMX 241120Z AUTO VRB06KT 9999 FEW068 13/M05 Q1019=
200504241050 METAR ESMX 241050Z AUTO 36005KT 290V070 9999 NSC 12/M05 Q1019=
200504241020 METAR ESMX 241020Z AUTO 36005KT 320V030 9999 NSC 12/M05 Q1019=
200504240950 METAR ESMX 240950Z AUTO 03006KT 350V110 9999 NSC 11/M05 Q1019=
200504240920 METAR ESMX 240920Z AUTO 03006KT 350V070 9999 NSC 11/M04 Q1019=
200504240850 METAR ESMX 240850Z AUTO 03005KT 360V060 9999 NSC 10/M04 Q1019=
200504240820 METAR ESMX 240820Z AUTO 01005KT 320V050 9999 NSC 09/M05 Q1019=
200504240750 METAR ESMX 240750Z AUTO 01004KT 330V050 9999 NSC 08/M03 Q1019=
200504240720 METAR ESMX 240720Z AUTO 03004KT 9999 NSC 07/M03 Q1019=
200504240650 METAR ESMX 240650Z AUTO VRB03KT 9999 NSC 06/M02 Q1019=
200504240620 METAR ESMX 240620Z AUTO VRB03KT 9999 NSC 04/M02 Q1019=
200504240550 METAR ESMX 240550Z AUTO VRB01KT 9999 NSC 02/M01 Q1019=
200504240520 METAR ESMX 240520Z AUTO 00000KT 9999 NSC 00/M01 Q1019=
200504240450 METAR ESMX 240450Z AUTO 00000KT 9999 NSC M03/M04 Q1019=
200504240420 METAR ESMX 240420Z AUTO 00000KT 9999 NSC M04/M05 Q1019=
200504240350 METAR ESMX 240350Z AUTO 00000KT 9999 NSC M05/M05 Q1019=
200504240320 METAR ESMX 240320Z AUTO 00000KT 9999 NSC M05/M05 Q1019=
200504240250 METAR ESMX 240250Z AUTO VRB01KT 9999 NSC M04/M05 Q1019=
200504240220 METAR ESMX 240220Z AUTO 00000KT 9999 NSC M04/M05 Q1019=
200504240150 METAR ESMX 240150Z AUTO VRB01KT 9999 NSC M04/M05 Q1018=
200504240120 METAR ESMX 240120Z AUTO 00000KT 9999 NSC M04/M05 Q1018=
200504240050 METAR ESMX 240050Z AUTO 00000KT 9999 NSC M04/M05 Q1019=
200504240020 METAR ESMX 240020Z AUTO VRB01KT 9999 NSC M03/M04 Q1019=
200504232350 METAR ESMX 232350Z AUTO VRB01KT 9999 NSC M02/M04 Q1019=
200504232320 METAR ESMX 232320Z AUTO VRB02KT 9999 NSC M02/M04 Q1019=
200504232250 METAR ESMX 232250Z AUTO VRB02KT 9999 NSC M01/M04 Q1019=
200504232220 METAR ESMX 232220Z AUTO 19004KT 9999 NSC M00/M03 Q1019=
200504232150 METAR ESMX 232150Z AUTO 19004KT 9999 NSC M00/M04 Q1019=
200504232120 METAR ESMX 232120Z AUTO 15004KT 9999 NSC 03/M03 Q1019=
200504232050 METAR ESMX 232050Z AUTO 15005KT 9999 NSC 03/M04 Q1019=
200504232020 METAR ESMX 232020Z AUTO 15005KT 100V180 9999 NSC 03/M04 Q1019=
200504231950 METAR ESMX 231950Z AUTO VRB03KT 9999 NSC 04/M05 Q1019=
200504231920 METAR ESMX 231920Z AUTO 11005KT 060V170 9999 NSC 05/M04 Q1019=
200504231850 METAR ESMX 231850Z AUTO 12005KT 070V170 9999 NSC 05/M04 Q1019=
200504231820 METAR ESMX 231820Z AUTO 11006KT 070V160 9999 NSC 06/M04 Q1018=
200504231750 METAR ESMX 231750Z AUTO 11007KT 060V190 9999 NSC 07/M04 Q1018=
200504231720 METAR ESMX 231720Z AUTO 33004KT 9999 FEW069 09/M06 Q1017=
200504231650 METAR ESMX 231650Z AUTO 34004KT 9999 SCT064 10/M06 Q1017=
200504231620 METAR ESMX 231620Z AUTO 36007KT 320V030 9999 NSC 10/M06 Q1017=
200504231550 METAR ESMX 231550Z AUTO 36005KT 330V040 9999 NSC 10/M06 Q1017=
200504231520 METAR ESMX 231520Z AUTO 05006KT 320V070 9999 NSC 10/M06 Q1018=
200504231450 METAR ESMX 231450Z AUTO 34005KT 300V040 9999 NSC 10/M06 Q1018=
200504231420 METAR ESMX 231420Z AUTO 04005KT 300V090 9999 NSC 10/M06 Q1018=
200504231350 METAR ESMX 231350Z AUTO VRB07KT 9999 NSC 10/M06 Q1018=
200504231320 METAR ESMX 231320Z AUTO 35004KT 290V080 9999 FEW068 10/M07 Q1018=
200504231250 METAR ESMX 231250Z AUTO 33005KT 280V020 9999 FEW059 10/M06 Q1018=
200504231220 METAR ESMX 231220Z AUTO 33004KT 290V020 9999 NSC 10/M06 Q1019=
200504231150 METAR ESMX 231150Z AUTO 34005KT 300V030 9999 NSC 08/M06 Q1019=
200504231120 METAR ESMX 231120Z AUTO 34008KT 310V020 9999 NSC 10/M06 Q1019=
200504231050 METAR ESMX 231050Z AUTO VRB05KT 9999 NSC 09/M06 Q1019=
200504231020 METAR ESMX 231020Z AUTO VRB05KT 9999 NSC 08/M06 Q1019=
200504230950 METAR ESMX 230950Z AUTO 32006KT 280V030 9999 NSC 08/M06 Q1020=
200504230920 METAR ESMX 230920Z 36004KT 290V080 CAVOK 07/M06 Q1020=
200504230820 METAR ESMX 230820Z 36007KT 330V080 CAVOK 06/M06 Q1020=
200504230750 METAR ESMX 230750Z 01006KT 320V050 CAVOK 06/M04 Q1020=
200504230720 METAR ESMX 230720Z 01005KT 330V050 CAVOK 05/M04 Q1020=
200504230650 METAR ESMX 230650Z 36005KT 330V030 CAVOK 03/M04 Q1020=
200504230620 METAR ESMX 230620Z AUTO 36004KT 9999 NSC 02/M02 Q1020=
200504230550 METAR ESMX 230550Z AUTO 36005KT 9999 NSC 01/M02 Q1020=
200504230520 METAR ESMX 230520Z AUTO 00000KT 9999 NSC M00/M01 Q1020=
200504230450 METAR ESMX 230450Z AUTO VRB01KT 9999 NSC M04/M04 Q1020=
200504230420 METAR ESMX 230420Z AUTO 00000KT 9999 NSC M05/M06 Q1020=
200504230350 METAR ESMX 230350Z AUTO 00000KT 9999 NSC M05/M06 Q1020=
200504230320 METAR ESMX 230320Z AUTO 00000KT 9999 NSC M05/M06 Q1019=
200504230250 METAR ESMX 230250Z AUTO 00000KT 9999 NSC M05/M06 Q1020=
200504230220 METAR ESMX 230220Z AUTO 00000KT 9999 NSC M05/M05 Q1019=
200504230150 METAR ESMX 230150Z AUTO 00000KT 9999 NSC M05/M06 Q1019=
200504230120 METAR ESMX 230120Z AUTO VRB01KT 9999 NSC M04/M05 Q1019=
200504230050 METAR ESMX 230050Z AUTO VRB01KT 9999 NSC M04/M05 Q1019=
200504230020 METAR ESMX 230020Z AUTO VRB02KT 9999 NSC M03/M05 Q1020=
200504222350 METAR ESMX 222350Z AUTO 00000KT 9999 NSC M04/M05 Q1020=
200504222320 METAR ESMX 222320Z AUTO 00000KT 9999 NSC M03/M05 Q1020=
200504222250 METAR ESMX 222250Z AUTO VRB02KT 9999 NSC M02/M05 Q1020=
200504222220 METAR ESMX 222220Z AUTO VRB02KT 9999 NSC M01/M04 Q1020=
200504222150 METAR ESMX 222150Z AUTO VRB03KT 9999 NSC 00/M04 Q1020=
200504222120 METAR ESMX 222120Z AUTO 14004KT 110V190 9999 BKN033 02/M05 Q1019=
200504222050 METAR ESMX 222050Z AUTO 14006KT 100V160 9999 FEW024 02/M05 Q1019=
200504222020 METAR ESMX 222020Z AUTO 12007KT 080V200 9999 BKN022 03/M04 Q1019=
200504221950 METAR ESMX 221950Z 12005KT 080V180 9999 FEW019 SCT021 OVC027 04/01 Q1019=
200504221920 METAR ESMX 221920Z 13005KT 080V160 9999 FEW015 SCT030 BKN060 04/01 Q1019=
200504221850 METAR ESMX 221850Z 15006KT 110V170 9999 FEW018 SCT064 04/01 Q1018=
200504221820 METAR ESMX 221820Z 17007KT 140V200 9999 FEW027 SCT065 06/02 Q1018=
200504221750 METAR ESMX 221750Z 13005KT 080V180 CAVOK 07/M00 Q1017=
200504221720 METAR ESMX 221720Z VRB03KT CAVOK 08/M07 Q1017=
200504221650 METAR ESMX 221650Z 05004KT 010V110 CAVOK 09/M07 Q1017=
200504221620 METAR ESMX 221620Z 02005KT 340V080 CAVOK 09/M07 Q1017=
200504221550 METAR ESMX 221550Z VRB03KT CAVOK 09/M07 Q1017=
200504221520 METAR ESMX 221520Z 04004KT 360V070 CAVOK 10/M07 Q1017=
200504221450 METAR ESMX 221450Z 35004KT 280V100 CAVOK 09/M06 Q1017=
200504221420 METAR ESMX 221420Z VRB02KT CAVOK 09/M05 Q1017=
200504221350 METAR ESMX 221350Z 01004KT 290V100 CAVOK 10/M04 Q1017=
200504221320 METAR ESMX 221320Z VRB03KT CAVOK 10/M05 Q1017=
200504221250 METAR ESMX 221250Z VRB04KT CAVOK 09/M04 Q1017=
200504221220 METAR ESMX 221220Z 02007KT 350V060 9999 SCT045 09/M04 Q1017=
200504221150 METAR ESMX 221150Z 02008KT 250V050 9999 BKN045 09/M04 Q1017=
200504221120 METAR ESMX 221120Z 36007KT 330V070 9999 BKN045 08/M03 Q1017=
200504221050 METAR ESMX 221050Z VRB05KT 9999 FEW040 BKN045 08/M02 Q1017=
200504221020 METAR ESMX 221020Z 36008KT 260V020 9999 BKN035 07/M01 Q1017=
200504220950 METAR ESMX 220950Z VRB06KT 9999 SCT038 08/M01 Q1017=
200504220920 METAR ESMX 220920Z 05006KT 360V120 9999 SCT027 BKN038 07/M00 Q1016=
200504220850 METAR ESMX 220850Z VRB05KT 9999 SCT025 07/M00 Q1016=
200504220820 METAR ESMX 220820Z 05008KT 010V100 9999 FEW021 06/00 Q1016=
200504220750 METAR ESMX 220750Z 04007KT 010V080 9999 FEW014 SCT043 04/00 Q1016=
200504220720 METAR ESMX 220720Z 03009KT 020V090 9999 FEW014 BKN039 04/M00 Q1016=
200504220650 METAR ESMX 220650Z 03008KT 360V070 9999 FEW016 SCT040 05/00 Q1016=
200504220620 METAR ESMX 220620Z 04007KT 9999 FEW025 SCT080 05/00 Q1015=
200504220550 METAR ESMX 220550Z 03008KT 9999 FEW045 BKN080 05/00 Q1015=
200504220520 METAR ESMX 220520Z 04006KT 350V070 9999 SCT045 BKN084 05/M00 Q1014=
200504220450 METAR ESMX 220450Z 36005KT CAVOK 04/M00 Q1014=
200504220420 METAR ESMX 220420Z VRB02KT CAVOK 02/M01 Q1014=
200504220350 METAR ESMX 220350Z 31004KT CAVOK 02/M01 Q1014=
200504220320 METAR ESMX 220320Z AUTO 33004KT 9999 BKN085 02/M01 Q1013=
200504220250 METAR ESMX 220250Z AUTO 31004KT 9999 BKN087 02/M01 Q1013=
200504220220 METAR ESMX 220220Z AUTO VRB02KT 9999 OVC088 02/M01 Q1013=
200504220150 METAR ESMX 220150Z AUTO VRB01KT 9999 OVC088 02/M01 Q1013=
200504220120 METAR ESMX 220120Z AUTO VRB03KT 9999 OVC088 01/M01 Q1013=
200504220050 METAR ESMX 220050Z AUTO VRB03KT 9999 OVC089 01/M02 Q1013=
200504220020 METAR ESMX 220020Z VRB03KT CAVOK 02/M02 Q1013=
200504212350 METAR ESMX 212350Z VRB03KT 9999 FEW025 SCT032 BKN089 03/M02 Q1013=
200504212320 METAR ESMX 212320Z VRB03KT CAVOK 03/M01 Q1013=
200504212250 METAR ESMX 212250Z VRB03KT CAVOK 04/M02 Q1013=
200504212220 METAR ESMX 212220Z 33004KT 9999 FEW025 BKN044 04/M02 Q1013=
200504212150 METAR ESMX 212150Z 29004KT 9999 FEW015 SCT045 BKN077 04/M02 Q1013=
200504212120 METAR ESMX 212120Z 26004KT CAVOK 03/M02 Q1013=
200504212050 METAR ESMX 212050Z VRB03KT CAVOK 03/M02 Q1013=
200504212020 METAR ESMX 212020Z VRB03KT CAVOK 04/M02 Q1013=
200504211950 METAR ESMX 211950Z 31004KT 9999 FEW038 BKN052 05/M02 Q1013=
200504211920 METAR ESMX 211920Z 29004KT CAVOK 05/M03 Q1013=
200504211850 METAR ESMX 211850Z 31005KT CAVOK 06/M03 Q1012=
200504211820 METAR ESMX 211820Z VRB03KT CAVOK 06/M03 Q1012=
200504211750 METAR ESMX 211750Z 31004KT CAVOK 06/M03 Q1012=
200504211720 METAR ESMX 211720Z 32008G18KT 280V350 CAVOK 07/M03 Q1012=
200504211650 METAR ESMX 211650Z 32009KT 280V350 CAVOK 07/M03 Q1012=
200504211620 METAR ESMX 211620Z 30007KT CAVOK 07/M02 Q1012=
200504211550 METAR ESMX 211550Z 33010KT 290V350 9999 OVC050 06/M03 Q1012=
200504211520 METAR ESMX 211520Z 32009KT CAVOK 07/M03 Q1012=
200504211450 METAR ESMX 211450Z 33013KT 9999 BKN045 07/M04 Q1012=
200504211420 METAR ESMX 211420Z 01015KT 9999 OVC048 08/M04 Q1012=
200504211350 METAR ESMX 211350Z 34014KT 9999 FEW049 BKN060 08/M04 Q1012=
200504211320 METAR ESMX 211320Z 35011KT 9999 FEW041 BKN062 09/M05 Q1012=
200504211250 METAR ESMX 211250Z 33010KT 290V360 CAVOK 08/M06 Q1012=
200504211220 METAR ESMX 211220Z 31010KT 280V340 CAVOK 09/M06 Q1012=
200504211150 METAR ESMX 211150Z 34010KT 260V010 CAVOK 09/M07 Q1012=
200504211120 METAR ESMX 211120Z 33010KT 260V010 CAVOK 09/M07 Q1013=
200504211050 METAR ESMX 211050Z 33010KT 290V360 CAVOK 08/M07 Q1013=
200504211020 METAR ESMX 211020Z 30010KT 260V340 CAVOK 08/M06 Q1013=
200504210950 METAR ESMX 210950Z 28009KT 250V350 CAVOK 08/M06 Q1014=
200504210920 METAR ESMX 210920Z 30008KT 270V350 9999 FEW045 07/M05 Q1014=
200504210850 METAR ESMX 210850Z 31009KT 280V350 CAVOK 07/M04 Q1014=
200504210820 METAR ESMX 210820Z 31007KT 270V340 CAVOK 06/M03 Q1015=
200504210750 METAR ESMX 210750Z 29009KT 260V330 CAVOK 05/M02 Q1015=
200504210720 METAR ESMX 210720Z 30008KT 260V050 CAVOK 04/M02 Q1015=
200504210650 METAR ESMX 210650Z 30010KT 250V340 CAVOK 04/M01 Q1015=
200504210620 METAR ESMX 210620Z 28007KT 250V320 CAVOK 02/M02 Q1015=
200504210550 METAR ESMX 210550Z 28006KT 240V320 CAVOK 02/M03 Q1015=
200504210520 METAR ESMX 210520Z 26007KT CAVOK 01/M04 Q1016=
200504210450 METAR ESMX 210450Z 25006KT CAVOK M00/M04 Q1016=
200504210420 METAR ESMX 210420Z 24005KT CAVOK M01/M05 Q1016=
200504210350 METAR ESMX 210350Z 24005KT CAVOK M01/M06 Q1016=
200504210320 METAR ESMX 210320Z AUTO 25005KT 210V280 9999 FEW063 M01/M06 Q1016=
200504210250 METAR ESMX 210250Z AUTO 25005KT 9999 SCT048 BKN061 M01/M07 Q1017=
200504210220 METAR ESMX 210220Z AUTO 25004KT 9999 BKN059 OVC080 M01/M07 Q1017=
200504210150 METAR ESMX 210150Z AUTO 25004KT 9999 SCT065 M02/M07 Q1017=
200504210120 METAR ESMX 210120Z AUTO 25004KT 9999 SCT062 M04/M07 Q1017=
200504210050 METAR ESMX 210050Z AUTO VRB03KT 9999 FEW060 M05/M06 Q1018=
200504210020 METAR ESMX 210020Z VRB02KT CAVOK M04/M05 Q1018=
200504202350 METAR ESMX 202350Z 23004KT CAVOK M03/M05 Q1018=
200504202320 METAR ESMX 202320Z VRB03KT CAVOK M02/M05 Q1018=
200504202250 METAR ESMX 202250Z 18004KT CAVOK M03/M04 Q1018=
200504202220 METAR ESMX 202220Z 18005KT CAVOK M03/M05 Q1018=
200504202150 METAR ESMX 202150Z 14004KT CAVOK M03/M06 Q1018=
200504202120 METAR ESMX 202120Z VRB03KT CAVOK M03/M07 Q1018=
200504202050 METAR ESMX 202050Z 00000KT CAVOK M01/M06 Q1018=
200504202020 METAR ESMX 202020Z 02004KT CAVOK 01/M07 Q1018=
200504201950 METAR ESMX 201950Z 33004KT CAVOK 01/M07 Q1018=
200504201920 METAR ESMX 201920Z 34006KT CAVOK 02/M07 Q1018=
200504201850 METAR ESMX 201850Z 33006KT CAVOK 02/M07 Q1018=
200504201820 METAR ESMX 201820Z 34005KT CAVOK 03/M10 Q1017=
200504201750 METAR ESMX 201750Z 35006KT CAVOK 05/M12 Q1017=
200504201720 METAR ESMX 201720Z 36006KT 320V040 CAVOK 06/M12 Q1017=
200504201650 METAR ESMX 201650Z 35006KT CAVOK 06/M13 Q1017=
200504201620 METAR ESMX 201620Z VRB03KT CAVOK 07/M14 Q1017=
200504201550 METAR ESMX 201550Z 36004KT 250V040 CAVOK 07/M14 Q1017=
200504201520 METAR ESMX 201520Z 35005KT 300V050 CAVOK 07/M14 Q1017=
200504201450 METAR ESMX 201450Z 34006KT 320V030 CAVOK 07/M16 Q1017=
200504201420 METAR ESMX 201420Z 30006KT 240V350 CAVOK 07/M16 Q1017=
200504201350 METAR ESMX 201350Z VRB04KT CAVOK 07/M15 Q1017=
200504201320 METAR ESMX 201320Z VRB06KT CAVOK 07/M14 Q1017=
200504201250 METAR ESMX 201250Z 34006KT 270V040 CAVOK 06/M12 Q1017=
200504201220 METAR ESMX 201220Z 05006KT 360V110 9999 FEW045 06/M12 Q1018=
200504201120 METAR ESMX 201120Z 35007KT 300V030 9999 FEW040 06/M10 Q1018=
200504201050 METAR ESMX 201050Z 35007KT 320V020 9999 SCT038 04/M08 Q1018=
200504201020 METAR ESMX 201020Z 33006KT 290V020 9999 SCT045 05/M08 Q1018=
200504200950 METAR ESMX 200950Z 04008KT 020V080 9999 SCT038 04/M07 Q1018=
200504200920 METAR ESMX 200920Z 01006KT 340V040 9999 SCT035 BKN044 03/M05 Q1018=
200504200850 METAR ESMX 200850Z 02005KT 340V060 9999 BKN033 02/M06 Q1018=
200504200820 METAR ESMX 200820Z 36008KT 320V020 9999 BKN032 02/M06 Q1018=
200504200750 METAR ESMX 200750Z 01008KT 9999 FEW023 BKN032 02/M04 Q1018=
200504200720 METAR ESMX 200720Z 02006KT 350V080 9999 SCT020 BKN030 01/M03 Q1018=
200504200650 METAR ESMX 200650Z 04007KT 9999 BKN020 SCT060 01/M03 Q1018=
200504200620 METAR ESMX 200620Z 01006KT 340V050 9999 BKN015 BKN060 01/M02 Q1018=
200504200550 METAR ESMX 200550Z 36007KT 9999 -SHRA SCT010 BKN024 00/M02 Q1018=
200504200520 METAR ESMX 200520Z 34006KT 8000 -SHSN SCT012 SCT025 BKN050 00/M02 Q1018=
200504200450 METAR ESMX 200450Z 01005KT 9999 -SN FEW012 SCT025 BKN055 00/M02 Q1018=
200504200420 METAR ESMX 200420Z 01004KT 9999 -SN FEW026 BKN052 00/M02 Q1018=
200504200350 METAR ESMX 200350Z 02004KT 9999 FEW010 SCT027 BKN060 M00/M03 Q1017=
200504200320 METAR ESMX 200320Z AUTO 01004KT 9999 SCT028 BKN051 M00/M02 Q1017=
200504200250 METAR ESMX 200250Z AUTO 03005KT 350V060 9999 FEW027 SCT031 BKN045 00/M03 Q1017=
200504200220 METAR ESMX 200220Z AUTO 04005KT 010V070 9999 FEW039 BKN045 M00/M03 Q1017=
200504200150 METAR ESMX 200150Z AUTO 05005KT 010V080 9999 FEW026 OVC045 M00/M02 Q1017=
200504200120 METAR ESMX 200120Z AUTO 04005KT 9999 BKN045 BKN078 M00/M02 Q1017=
200504200050 METAR ESMX 200050Z AUTO VRB03KT 9999 SCT063 BKN077 M02/M02 Q1016=
200504200020 METAR ESMX 200020Z VRB01KT CAVOK M03/M04 Q1016=
200504192350 METAR ESMX 192350Z VRB02KT CAVOK M03/M04 Q1016=
200504192320 METAR ESMX 192320Z 00000KT CAVOK M03/M04 Q1016=
200504192250 METAR ESMX 192250Z 00000KT CAVOK M02/M04 Q1016=
200504192220 METAR ESMX 192220Z VRB03KT CAVOK M02/M03 Q1015=
200504192150 METAR ESMX 192150Z VRB02KT CAVOK M01/M03 Q1015=
200504192120 METAR ESMX 192120Z VRB02KT CAVOK M00/M03 Q1015=
200504192050 METAR ESMX 192050Z VRB03KT CAVOK 01/M02 Q1015=
200504192020 METAR ESMX 192020Z 11004KT CAVOK 02/M02 Q1015=
200504191950 METAR ESMX 191950Z VRB03KT CAVOK 03/M02 Q1015=
200504191920 METAR ESMX 191920Z 11004KT 070V150 CAVOK 03/M03 Q1015=
200504191850 METAR ESMX 191850Z VRB02KT CAVOK 02/M03 Q1014=
200504191820 METAR ESMX 191820Z VRB01KT CAVOK 04/M05 Q1014=
200504191750 METAR ESMX 191750Z 04004KT 010V100 CAVOK 06/M05 Q1014=
200504191720 METAR ESMX 191720Z 04004KT CAVOK 07/M05 Q1014=
200504191650 METAR ESMX 191650Z 05006KT 010V080 CAVOK 08/M05 Q1013=
200504191620 METAR ESMX 191620Z 04007KT 010V070 CAVOK 07/M04 Q1013=
200504191550 METAR ESMX 191550Z 05006KT 010V100 CAVOK 08/M05 Q1013=
200504191520 METAR ESMX 191520Z 05007KT 010V100 CAVOK 09/M05 Q1013=
200504191450 METAR ESMX 191450Z 07008KT 030V130 CAVOK 09/M04 Q1013=
200504191420 METAR ESMX 191420Z 06007KT 350V130 9999 FEW048 09/M04 Q1013=
200504191350 METAR ESMX 191350Z 04011KT 020V090 9999 FEW047 09/M04 Q1013=
200504191320 METAR ESMX 191320Z 03010KT 350V070 9999 FEW044 09/M04 Q1013=
200504191250 METAR ESMX 191250Z 04011KT 010V100 9999 FEW042 09/M03 Q1013=
200504191220 METAR ESMX 191220Z 05011KT CAVOK 09/M03 Q1013=
200504191150 METAR ESMX 191150Z 04010KT 010V080 CAVOK 09/M03 Q1013=
200504191120 METAR ESMX 191120Z 04010KT 360V090 CAVOK 08/M04 Q1012=
200504191050 METAR ESMX 191050Z 05010KT 010V090 CAVOK 08/M04 Q1012=
200504191020 METAR ESMX 191020Z 05011KT 020V090 CAVOK 08/M04 Q1012=
200504190950 METAR ESMX 190950Z 04012KT CAVOK 07/M04 Q1012=
200504190920 METAR ESMX 190920Z 04011KT 010V070 CAVOK 07/M05 Q1012=
200504190850 METAR ESMX 190850Z 04010KT 010V090 CAVOK 07/M06 Q1012=
200504190820 METAR ESMX 190820Z 02009KT 350V060 CAVOK 06/M05 Q1011=
200504190750 METAR ESMX 190750Z 02008KT 350V070 CAVOK 05/M05 Q1011=
200504190720 METAR ESMX 190720Z 01008KT 350V050 CAVOK 04/M04 Q1011=
200504190650 METAR ESMX 190650Z 02009KT CAVOK 03/M04 Q1011=
200504190620 METAR ESMX 190620Z 02008KT 330V050 CAVOK 02/M04 Q1011=
200504190550 METAR ESMX 190550Z 02008KT CAVOK 01/M04 Q1011=
200504190520 METAR ESMX 190520Z 01009KT CAVOK 00/M04 Q1011=
200504190450 METAR ESMX 190450Z 02009KT CAVOK M00/M04 Q1010=
200504190420 METAR ESMX 190420Z 02009KT CAVOK M01/M04 Q1010=
200504190350 METAR ESMX 190350Z 01009KT CAVOK M01/M04 Q1010=
200504190320 METAR ESMX 190320Z 01008KT CAVOK M01/M04 Q1010=
200504190250 METAR ESMX 190250Z AUTO 01007KT 9999 NSC M00/M04 Q1010=
200504190220 METAR ESMX 190220Z AUTO 01008KT 9999 NSC M00/M03 Q1010=
200504190150 METAR ESMX 190150Z AUTO 02008KT 9999 NSC 00/M03 Q1010=
200504190120 METAR ESMX 190120Z AUTO 02008KT 9999 NSC 00/M03 Q1010=
200504190050 METAR ESMX 190050Z AUTO 01007KT 9999 NSC 00/M03 Q1010=
200504190020 METAR ESMX 190020Z 03008KT 350V060 CAVOK 01/M03 Q1010=
200504182350 METAR ESMX 182350Z 03007KT CAVOK 01/M03 Q1010=
200504182320 METAR ESMX 182320Z 02007KT CAVOK 01/M02 Q1010=
200504182250 METAR ESMX 182250Z 02007KT CAVOK 01/M03 Q1010=
200504182220 METAR ESMX 182220Z 04008KT 020V080 CAVOK 02/M02 Q1010=
200504182150 METAR ESMX 182150Z 03007KT CAVOK 02/M03 Q1010=
200504182120 METAR ESMX 182120Z 03007KT 350V060 CAVOK 02/M03 Q1010=
200504182050 METAR ESMX 182050Z 05008KT 020V080 CAVOK 03/M03 Q1010=
200504182020 METAR ESMX 182020Z 04007KT 010V080 9999 NSC 04/M03 Q1010=
200504181950 METAR ESMX 181950Z 03005KT 010V070 CAVOK 04/M03 Q1010=
200504181920 METAR ESMX 181920Z 02005KT 350V060 CAVOK 05/M03 Q1010=
200504181850 METAR ESMX 181850Z 05006KT 360V080 CAVOK 06/M02 Q1010=
200504181820 METAR ESMX 181820Z 04007KT 010V070 CAVOK 06/M03 Q1009=
200504181750 METAR ESMX 181750Z 05007KT 360V080 CAVOK 07/M03 Q1009=
200504181720 METAR ESMX 181720Z 07009KT 030V140 CAVOK 08/M02 Q1009=
200504181650 METAR ESMX 181650Z 05010KT 360V080 CAVOK 08/M03 Q1008=
200504181620 METAR ESMX 181620Z 03010KT 360V070 CAVOK 10/M04 Q1008=
200504181550 METAR ESMX 181550Z 04008KT 010V080 CAVOK 09/M03 Q1008=
200504181520 METAR ESMX 181520Z 04008KT 020V080 CAVOK 09/M02 Q1008=
200504181450 METAR ESMX 181450Z 04012KT 010V080 CAVOK 11/M03 Q1008=
200504181420 METAR ESMX 181420Z 04011KT 020V110 CAVOK 11/M03 Q1008=
200504181350 METAR ESMX 181350Z 03009KT 350V070 9999 FEW048 BKN062 10/M02 Q1008=
200504181320 METAR ESMX 181320Z 06010KT 010V100 CAVOK 10/M01 Q1008=
200504181250 METAR ESMX 181250Z 05010KT 020V090 CAVOK 11/M02 Q1008=
200504181220 METAR ESMX 181220Z 05009KT 350V110 CAVOK 10/M02 Q1008=
200504181150 METAR ESMX 181150Z 05009KT 020V130 CAVOK 10/M03 Q1008=
200504181120 METAR ESMX 181120Z 06010KT 010V110 CAVOK 12/M03 Q1008=
200504181050 METAR ESMX 181050Z 05012KT 020V110 CAVOK 11/M03 Q1008=
200504181020 METAR ESMX 181020Z 05010KT 010V100 CAVOK 10/M03 Q1008=
200504180950 METAR ESMX 180950Z 05010KT 010V100 CAVOK 11/M03 Q1008=
200504180920 METAR ESMX 180920Z 02009KT 350V060 CAVOK 09/M01 Q1009=
200504180850 METAR ESMX 180850Z 03010KT 010V070 CAVOK 09/M00 Q1009=
200504180820 METAR ESMX 180820Z 01008KT CAVOK 08/M01 Q1009=
200504180750 METAR ESMX 180750Z 03008KT 350V070 CAVOK 07/M01 Q1009=
200504180720 METAR ESMX 180720Z 03010KT CAVOK 06/M01 Q1009=
200504180650 METAR ESMX 180650Z 02008KT 340V050 CAVOK 06/M01 Q1009=
200504180620 METAR ESMX 180620Z 03007KT 360V070 CAVOK 05/M01 Q1009=
200504180550 METAR ESMX 180550Z 05008KT 360V090 CAVOK 04/M01 Q1009=
200504180520 METAR ESMX 180520Z 03009KT 010V070 CAVOK 03/M01 Q1009=
200504180450 METAR ESMX 180450Z 02006KT 350V060 CAVOK 02/M01 Q1009=
200504180420 METAR ESMX 180420Z 03006KT 010V070 CAVOK 02/M01 Q1009=
200504180350 METAR ESMX 180350Z 03005KT 350V070 CAVOK 02/M01 Q1009=
200504180320 METAR ESMX 180320Z AUTO 03006KT 360V070 9999 NSC 02/M01 Q1009=
200504180250 METAR ESMX 180250Z AUTO 02007KT 9999 NSC 03/M01 Q1009=
200504180220 METAR ESMX 180220Z AUTO 02008KT 9999 NSC 03/M01 Q1009=
200504180150 METAR ESMX 180150Z AUTO 04009KT 010V070 9999 NSC 03/M01 Q1009=
200504180120 METAR ESMX 180120Z AUTO 03007KT 340V060 9999 NSC 03/M01 Q1009=
200504180050 METAR ESMX 180050Z AUTO 03008KT 350V060 9999 NSC 03/M01 Q1009=
200504180020 METAR ESMX 180020Z AUTO 03009KT 010V080 9999 NSC 03/M01 Q1010=
200504172350 METAR ESMX 172350Z 03008KT CAVOK 04/M01 Q1010=
200504172320 METAR ESMX 172320Z 04007KT 010V080 CAVOK 04/M02 Q1010=
200504172250 METAR ESMX 172250Z 04007KT CAVOK 04/M02 Q1010=
200504172220 METAR ESMX 172220Z 04007KT 020V080 CAVOK 05/M02 Q1010=
200504172150 METAR ESMX 172150Z 04007KT 010V070 CAVOK 05/M02 Q1010=
200504172120 METAR ESMX 172120Z 03005KT 350V060 CAVOK 05/M02 Q1010=
200504172050 METAR ESMX 172050Z 05008KT 020V100 CAVOK 06/M02 Q1010=
200504172020 METAR ESMX 172020Z 05006KT 020V080 CAVOK 06/M02 Q1009=
200504171950 METAR ESMX 171950Z 04008KT 020V080 CAVOK 07/M03 Q1010=
200504171920 METAR ESMX 171920Z 03008KT 010V070 CAVOK 07/M03 Q1010=
200504171850 METAR ESMX 171850Z 04007KT 010V080 CAVOK 08/M03 Q1010=
200504171820 METAR ESMX 171820Z 03007KT 360V080 CAVOK 09/M03 Q1009=
200504171750 METAR ESMX 171750Z 06009KT 010V100 CAVOK 10/M04 Q1009=
200504171720 METAR ESMX 171720Z 06009KT 020V100 CAVOK 11/M05 Q1009=
200504171650 METAR ESMX 171650Z 05011KT 020V100 CAVOK 11/M04 Q1009=
200504171620 METAR ESMX 171620Z 05011KT 010V080 CAVOK 12/M04 Q1009=
200504171550 METAR ESMX 171550Z 07009KT 030V140 CAVOK 13/M04 Q1009=
200504171520 METAR ESMX 171520Z 05012KT 010V100 CAVOK 13/M05 Q1009=
200504171450 METAR ESMX 171450Z 05011KT 010V100 CAVOK 14/M04 Q1009=
200504171420 METAR ESMX 171420Z 07010G20KT 020V110 CAVOK 14/M04 Q1009=
200504171350 METAR ESMX 171350Z 05012KT 010V080 CAVOK 14/M04 Q1009=
200504171320 METAR ESMX 171320Z 04012KT 350V080 CAVOK 14/M03 Q1009=
200504171250 METAR ESMX 171250Z 03011G21KT 360V060 CAVOK 14/M03 Q1009=
200504171220 METAR ESMX 171220Z AUTO 05012KT 020V100 9999 NSC 14/M04 Q1009=
200504171150 METAR ESMX 171150Z AUTO 04013KT 9999 NSC 14/M05 Q1010=
200504171120 METAR ESMX 171120Z AUTO 05013KT 020V080 9999 NSC 14/M06 Q1009=
200504171050 METAR ESMX 171050Z AUTO 05011KT 020V130 9999 NSC 14/M05 Q1010=
200504171020 METAR ESMX 171020Z AUTO 06012KT 020V090 9999 NSC 14/M04 Q1010=
200504170950 METAR ESMX 170950Z AUTO 05013KT 020V080 9999 NSC 13/M03 Q1010=
200504170920 METAR ESMX 170920Z AUTO 05013KT 020V080 9999 NSC 12/M02 Q1010=
200504170850 METAR ESMX 170850Z AUTO 05010KT 010V140 9999 NSC 12/M00 Q1010=
200504170820 METAR ESMX 170820Z AUTO 05013KT 020V090 9999 NSC 11/00 Q1010=
200504170750 METAR ESMX 170750Z AUTO 05010KT 020V100 9999 NSC 10/00 Q1010=
200504170720 METAR ESMX 170720Z AUTO 04010KT 010V090 9999 NSC 09/01 Q1011=
200504170650 METAR ESMX 170650Z AUTO 04009KT 020V080 9999 NSC 09/01 Q1010=
200504170620 METAR ESMX 170620Z AUTO 03010KT 010V070 9999 NSC 07/01 Q1010=
200504170550 METAR ESMX 170550Z AUTO 04009KT 010V090 9999 NSC 06/00 Q1010=
200504170520 METAR ESMX 170520Z AUTO 04010KT 010V080 9999 NSC 05/00 Q1010=
200504170450 METAR ESMX 170450Z AUTO 04008KT 010V070 9999 NSC 05/00 Q1010=
200504170420 METAR ESMX 170420Z AUTO 02009KT 350V060 9999 NSC 04/00 Q1010=
200504170350 METAR ESMX 170350Z AUTO 02008KT 9999 NSC 04/00 Q1010=
200504170320 METAR ESMX 170320Z AUTO 02009KT 9999 NSC 04/00 Q1011=
200504170250 METAR ESMX 170250Z AUTO 02009KT 9999 NSC 04/00 Q1011=
200504170220 METAR ESMX 170220Z AUTO 02007KT 350V050 9999 NSC 04/00 Q1011=
200504170150 METAR ESMX 170150Z AUTO 02009KT 350V060 9999 NSC 04/01 Q1011=
200504170120 METAR ESMX 170120Z AUTO 02007KT 350V060 9999 NSC 04/01 Q1012=
200504170050 METAR ESMX 170050Z AUTO 02007KT 360V060 9999 NSC 05/01 Q1012=
200504170020 METAR ESMX 170020Z AUTO 02006KT 350V060 9999 NSC 05/01 Q1012=
200504162350 METAR ESMX 162350Z AUTO 02008KT 350V060 9999 NSC 05/01 Q1012=
200504162320 METAR ESMX 162320Z AUTO 03007KT 340V060 9999 NSC 05/01 Q1013=
200504162250 METAR ESMX 162250Z AUTO 04008KT 9999 NSC 05/01 Q1013=
200504162220 METAR ESMX 162220Z AUTO 04008KT 020V080 9999 NSC 05/02 Q1013=
200504162150 METAR ESMX 162150Z AUTO 05010KT 020V100 9999 NSC 05/02 Q1013=
200504162120 METAR ESMX 162120Z AUTO 05011KT 020V080 9999 NSC 05/03 Q1013=
200504162050 METAR ESMX 162050Z AUTO 03011KT 360V060 9999 NSC 06/03 Q1013=
200504162020 METAR ESMX 162020Z AUTO 04009KT 020V080 9999 NSC 06/03 Q1013=
200504161950 METAR ESMX 161950Z AUTO 03008KT 360V070 9999 NSC 07/04 Q1013=
200504161920 METAR ESMX 161920Z AUTO 04008KT 350V070 9999 NSC 07/04 Q1013=
200504161850 METAR ESMX 161850Z AUTO 03010KT 9999 NSC 07/04 Q1013=
200504161820 METAR ESMX 161820Z AUTO 04012KT 010V080 9999 NSC 08/05 Q1013=
200504161750 METAR ESMX 161750Z AUTO 04010KT 360V070 9999 FEW055 09/05 Q1013=
200504161720 METAR ESMX 161720Z AUTO 03011KT 9999 NSC 10/05 Q1013=
200504161650 METAR ESMX 161650Z AUTO 02011KT 360V060 9999 NSC 11/06 Q1013=
200504161620 METAR ESMX 161620Z AUTO 02009KT 340V050 9999 NSC 12/06 Q1012=
200504161550 METAR ESMX 161550Z AUTO 04012KT 9999 FEW090 13/06 Q1012=
200504161520 METAR ESMX 161520Z AUTO 04009KT 010V080 9999 BKN089 14/06 Q1012=
200504161450 METAR ESMX 161450Z AUTO 02010KT 9999 BKN086 15/07 Q1012=
200504161420 METAR ESMX 161420Z AUTO 02008KT 340V060 9999 FEW084 15/07 Q1012=
200504161350 METAR ESMX 161350Z AUTO 03009KT 360V070 9999 BKN091 14/07 Q1013=
200504161320 METAR ESMX 161320Z AUTO 05006KT 020V090 9999 FEW078 BKN093 13/07 Q1013=
200504161250 METAR ESMX 161250Z AUTO 04006KT 020V080 9999 BKN078 BKN090 12/07 Q1013=
200504161220 METAR ESMX 161220Z AUTO 05006KT 350V080 9999 FEW033 BKN075 12/07 Q1013 REDZ=
200504161150 METAR ESMX 161150Z AUTO 04006KT 010V070 9999 BKN065 11/07 Q1014 REDZ=
200504161120 METAR ESMX 161120Z AUTO 03007KT 350V070 9999 -SHRA BKN064 11/07 Q1014=
200504161050 METAR ESMX 161050Z AUTO 03005KT 8000 -RA FEW050 BKN062 09/07 Q1014=
200504161020 METAR ESMX 161020Z AUTO 03004KT 350V060 6000 RA FEW018 SCT047 09/07 Q1014=
200504160950 METAR ESMX 160950Z AUTO 01005KT 9999 BKN051 09/06 Q1014=
200504160920 METAR ESMX 160920Z 02006KT CAVOK 09/06 Q1014=
200504160850 METAR ESMX 160850Z 01007KT 9000 BR NSC 09/06 Q1014=
200504160820 METAR ESMX 160820Z 03007KT 010V070 9000 BR NSC 09/06 Q1014=
200504160750 METAR ESMX 160750Z 04009KT 9000 BR NSC 09/06 Q1014=
200504160720 METAR ESMX 160720Z 04008KT 350V070 8000 BR BKN049 08/05 Q1014=
200504160650 METAR ESMX 160650Z 03009KT 6000 -SHRA BR BKN048 07/05 Q1013=
200504160620 METAR ESMX 160620Z 01006KT 8000 -RA FEW012 BKN058 07/05 Q1013=
200504160550 METAR ESMX 160550Z AUTO 03007KT 360V060 9000 BR FEW045 SCT064 07/04 Q1013=
200504160520 METAR ESMX 160520Z AUTO 01007KT 7000 BR FEW054 BKN068 BKN094 06/04 Q1013=
200504160450 METAR ESMX 160450Z AUTO 02006KT 5000 BR SCT080 05/04 Q1013=
200504160420 METAR ESMX 160420Z AUTO 02007KT 4000 BR SCT063 05/04 Q1013=
200504160350 METAR ESMX 160350Z AUTO 02006KT 4100 BR FEW065 05/04 Q1013=
200504160320 METAR ESMX 160320Z AUTO 02006KT 5000 BR BKN041 06/04 Q1013=
200504160250 METAR ESMX 160250Z AUTO 02007KT 4400 BR FEW047 05/04 Q1013=
200504160220 METAR ESMX 160220Z AUTO 03006KT 4100 BR FEW048 SCT055 05/04 Q1013=
200504160150 METAR ESMX 160150Z AUTO 04007KT 4700 BR NSC 05/04 Q1013=
200504160120 METAR ESMX 160120Z AUTO 04006KT 4300 BR NSC 05/04 Q1013=
200504160050 METAR ESMX 160050Z AUTO 03005KT 3900 BR NSC 06/05 Q1013=
200504160020 METAR ESMX 160020Z AUTO 03005KT 3700 BR NSC 06/05 Q1013=
200504152350 METAR ESMX 152350Z AUTO 03005KT 4200 BR NSC 06/05 Q1013=
200504152320 METAR ESMX 152320Z AUTO 04005KT 5000 BR NSC 07/05 Q1013=
200504152250 METAR ESMX 152250Z AUTO 04004KT 5000 BR NSC 07/05 Q1013=
200504152220 METAR ESMX 152220Z AUTO VRB03KT 7000 BR NSC 07/05 Q1013=
200504152150 METAR ESMX 152150Z 07004KT 9000 NSC 08/05 Q1013=
200504152050 METAR ESMX 152050Z VRB03KT CAVOK 08/05 Q1013=
200504152020 METAR ESMX 152020Z VRB03KT CAVOK 09/05 Q1012=
200504151950 METAR ESMX 151950Z VRB03KT CAVOK 11/05 Q1012=
200504151920 METAR ESMX 151920Z VRB02KT CAVOK 11/06 Q1012=
200504151850 METAR ESMX 151850Z 12004KT 080V160 CAVOK 13/06 Q1012=
200504151820 METAR ESMX 151820Z VRB03KT CAVOK 13/06 Q1012=
200504151750 METAR ESMX 151750Z VRB02KT CAVOK 14/05 Q1011=
200504151720 METAR ESMX 151720Z VRB02KT CAVOK 15/05 Q1011=
200504151650 METAR ESMX 151650Z VRB03KT CAVOK 16/05 Q1011=
200504151620 METAR ESMX 151620Z VRB02KT CAVOK 16/06 Q1011=
200504151550 METAR ESMX 151550Z VRB03KT CAVOK 16/05 Q1011=
200504151520 METAR ESMX 151520Z 16006KT CAVOK 17/05 Q1010=
200504151450 METAR ESMX 151450Z 11004KT 040V170 CAVOK 18/04 Q1010=
200504151420 METAR ESMX 151420Z VRB03KT 9999 FEW050CB BKN085 17/05 Q1010=
200504151350 METAR ESMX 151350Z 14005KT 090V210 9999 FEW053CB BKN080 17/05 Q1010=
200504151320 METAR ESMX 151320Z VRB03KT CAVOK 17/04 Q1010=
200504151250 METAR ESMX 151250Z 18005KT 120V200 CAVOK 17/04 Q1010=
200504151220 METAR ESMX 151220Z 15006KT 110V200 CAVOK 18/04 Q1010=
200504151150 METAR ESMX 151150Z 16006KT 110V200 CAVOK 17/05 Q1010=
200504151120 METAR ESMX 151120Z 14004KT 100V230 CAVOK 18/04 Q1010=
200504151050 METAR ESMX 151050Z VRB03KT CAVOK 17/05 Q1010=
200504151020 METAR ESMX 151020Z 35005KT 300V030 CAVOK 17/06 Q1011=
200504150950 METAR ESMX 150950Z 02005KT CAVOK 16/08 Q1011=
200504150920 METAR ESMX 150920Z 05005KT 350V110 CAVOK 14/07 Q1011=
200504150850 METAR ESMX 150850Z 07006KT 040V110 9000 BR SCT073 13/08 Q1011=
200504150820 METAR ESMX 150820Z 09004KT 030V150 9000 BR NSC 12/07 Q1011=
200504150750 METAR ESMX 150750Z VRB02KT 8000 BR NSC 10/07 Q1010=
200504150720 METAR ESMX 150720Z 10004KT 060V150 6000 BR NSC 09/07 Q1010=
200504150650 METAR ESMX 150650Z VRB01KT 5000 BR NSC 08/07 Q1010=
200504150620 METAR ESMX 150620Z VRB02KT 3500 BCFG BR FEW040 07/07 Q1010=
200504150550 METAR ESMX 150550Z VRB01KT 2000 BR NSC 06/06 Q1010=
200504150520 METAR ESMX 150520Z VRB01KT 0800 R01/1100D R19/0800V1400N BCFG VV003 04/04 Q1010=
200504150450 METAR ESMX 150450Z VRB01KT 0400 R01/0650D R19/0350V0550D FG SCT080 04/03 Q1010=
200504150350 METAR ESMX 150350Z VRB02KT 0300 R01/0800VP1500U R19/P1500U FG BKN045 04/04 Q1009=
200504150320 METAR ESMX 150320Z AUTO VRB03KT 0100 R01/0700VP1500U R19/0800VP1500U FG SCT086 03/03 Q1009=
200504150250 METAR ESMX 150250Z AUTO 00000KT 0100 R01/0400V0550D R19/0400N FG BKN085 05/04 Q1009=
200504150220 METAR ESMX 150220Z AUTO 00000KT 0100 R01/0400V0550D R19/0500VP1500D FG BKN081 06/05 Q1009=
200504150150 METAR ESMX 150150Z AUTO 00000KT 1700 BR BKN076 06/06 Q1009=
200504150120 METAR ESMX 150120Z AUTO VRB02KT 2800 BR BKN074 07/06 Q1009=
200504150050 METAR ESMX 150050Z AUTO VRB03KT 2700 BR NSC 07/06 Q1009=
200504150020 METAR ESMX 150020Z AUTO 15004KT 3200 BR FEW073 SCT084 08/06 Q1009=
200504142350 METAR ESMX 142350Z 16005KT 3200 BR NSC 08/06 Q1009=
200504142320 METAR ESMX 142320Z 16005KT 3500 BR NSC 08/06 Q1009=
200504142250 METAR ESMX 142250Z VRB03KT 3600 BR NSC 07/06 Q1009=
200504142220 METAR ESMX 142220Z VRB02KT 4200 BR NSC 08/06 Q1009=
200504142150 METAR ESMX 142150Z 16004KT 4500 BR NSC 09/06 Q1009=
200504142120 METAR ESMX 142120Z 16005KT 5000 BR NSC 09/06 Q1009=
200504142050 METAR ESMX 142050Z 16004KT 5000 BR NSC 09/06 Q1009=
200504142020 METAR ESMX 142020Z 14004KT 6000 BR NSC 09/06 Q1009=
200504141950 METAR ESMX 141950Z 15004KT 6000 BR NSC 09/07 Q1009=
200504141920 METAR ESMX 141920Z 16005KT 6000 BR NSC 10/07 Q1009=
200504141850 METAR ESMX 141850Z VRB03KT 6000 BR NSC 09/08 Q1008=
200504141820 METAR ESMX 141820Z VRB03KT 6000 BR FEW027 SCT073 09/09 Q1008=
200504141750 METAR ESMX 141750Z VRB02KT 6000 BR BCFG SCT027 BKN073 10/09 Q1008=
200504141720 METAR ESMX 141720Z VRB01KT 4100 BR FEW027 BKN069 10/10 Q1008=
200504141650 METAR ESMX 141650Z VRB01KT 3300 BR FEW030 SCT074 11/10 Q1008 RERA=
200504141620 METAR ESMX 141620Z 00000KT 3800 -SHRA BR FEW011 SCT031 11/10 Q1008=
200504141550 METAR ESMX 141550Z VRB02KT 4700 -SHRA BR FEW010 BKN027 11/09 Q1008=
200504141520 METAR ESMX 141520Z 17005KT 4500 -SHRA BR FEW020 BKN040 11/09 Q1008=
200504141450 METAR ESMX 141450Z 17005KT 5000 -RA BR FEW018 BKN027 11/09 Q1008=
200504141420 METAR ESMX 141420Z 16007KT 5000 -SHRA FEW013 OVC020 11/09 Q1008=
200504141350 METAR ESMX 141350Z 16006KT 4500 -SHRA BR FEW008 SCT020 BKN025 11/09 Q1008=
200504141320 METAR ESMX 141320Z 19005KT 140V210 4000 BR FEW009 BKN030 11/09 Q1008=
200504141250 METAR ESMX 141250Z 18007KT 4500 BR BKN033 11/09 Q1008=
200504141220 METAR ESMX 141220Z 17007KT 4000 -DZ BR BKN032 10/09 Q1008=
200504141150 METAR ESMX 141150Z 17007KT 3800 -RA BR FEW025 BKN030 10/08 Q1008=
200504141120 METAR ESMX 141120Z 16007KT 120V190 4500 -RA BR FEW022 BKN033 09/08 Q1008=
200504141050 METAR ESMX 141050Z 16006KT 120V190 4100 -RA FEW026 BKN030 09/08 Q1008=
200504141020 METAR ESMX 141020Z 16006KT 5000 -RA FEW026 BKN031 09/07 Q1008=
200504140950 METAR ESMX 140950Z 15005KT 4500 -RA BKN040 08/07 Q1008=
200504140920 METAR ESMX 140920Z 15007KT 4800 -SHRA BR FEW034 SCT040 08/07 Q1008=
200504140850 METAR ESMX 140850Z 15006KT 120V180 5000 -SHRA FEW027 BKN035 07/06 Q1008=
200504140820 METAR ESMX 140820Z 13005KT 080V190 5000 BR BKN033 07/06 Q1008=
200504140750 METAR ESMX 140750Z 14004KT 110V170 4000 DZ FEW039 BKN043 07/06 Q1008=
200504140720 METAR ESMX 140720Z VRB03KT 4000 DZ FEW028 BKN041 07/06 Q1008=
200504140650 METAR ESMX 140650Z 14004KT 060V170 6000 DZ FEW026 BKN040 06/05 Q1008=
200504140620 METAR ESMX 140620Z 12004KT 080V170 5000 -RA BKN038 06/05 Q1007=
200504140550 METAR ESMX 140550Z AUTO 11004KT 050V140 5000 DZ FEW025 BKN040 06/05 Q1008=
200504140520 METAR ESMX 140520Z 10004KT 060V150 6000 -RA FEW026 BKN033 06/05 Q1008=
200504140450 METAR ESMX 140450Z VRB03KT 8000 -RA FEW020 BKN027 BKN041 06/05 Q1008=
200504140420 METAR ESMX 140420Z VRB02KT 9999 -RA FEW017 BKN028 05/05 Q1008=
200504140350 METAR ESMX 140350Z 06004KT 030V090 9999 -RA SCT018 BKN028 05/05 Q1008=
200504140320 METAR ESMX 140320Z AUTO VRB03KT 9999 -SHRA OVC033 05/05 Q1008=
200504140250 METAR ESMX 140250Z AUTO VRB03KT 9999 -SHRA SCT012 OVC039 05/05 Q1008=
200504140220 METAR ESMX 140220Z AUTO VRB03KT 9999 DZ SCT013 BKN018 OVC035 05/05 Q1008=
200504140150 METAR ESMX 140150Z AUTO VRB02KT 9999 -RA OVC014 05/05 Q1009=
200504140120 METAR ESMX 140120Z AUTO VRB02KT 9999 -RA FEW016 OVC019 06/05 Q1009=
200504140050 METAR ESMX 140050Z AUTO 00000KT 4500 -RA OVC017 05/05 Q1009=
200504140020 METAR ESMX 140020Z 00000KT 5000 -RA OVC019 05/05 Q1009=
200504132350 METAR ESMX 132350Z 00000KT 9000 -DZ BKN021 05/05 Q1009=
200504132320 METAR ESMX 132320Z VRB02KT 7000 -RA BKN022 06/05 Q1009=
200504132250 METAR ESMX 132250Z 00000KT 7000 -RA OVC024 06/05 Q1009=
200504132220 METAR ESMX 132220Z VRB02KT 8000 -RA OVC025 05/05 Q1009=
200504132150 METAR ESMX 132150Z VRB02KT 8000 -RA OVC027 06/05 Q1009=
200504132120 METAR ESMX 132120Z 00000KT 9999 -RA BKN029 06/05 Q1009=
200504132050 METAR ESMX 132050Z VRB01KT 8000 -RA BKN031 06/05 Q1009=
200504132020 METAR ESMX 132020Z 00000KT 9999 -RA BKN034 06/05 Q1009=
200504131950 METAR ESMX 131950Z VRB02KT 9999 -RA FEW020 BKN030 06/05 Q1009=
200504131920 METAR ESMX 131920Z VRB02KT 9999 -RA FEW024 SCT032 OVC038 06/05 Q1009=
200504131850 METAR ESMX 131850Z 28004KT 250V320 9999 -RA FEW022 BKN040 06/04 Q1009=
200504131820 METAR ESMX 131820Z 29005KT 250V320 9999 -RA FEW028 SCT038 07/04 Q1009=
200504131750 METAR ESMX 131750Z 27004KT 9999 -RA FEW020 BKN037 08/03 Q1008=
200504131720 METAR ESMX 131720Z VRB03KT 9999 -RA FEW028 BKN040 09/05 Q1008=
200504131650 METAR ESMX 131650Z VRB03KT 9999 BKN039 09/04 Q1008=
200504131620 METAR ESMX 131620Z 20005KT 9999 SCT043 OVC051 10/04 Q1008=
200504131550 METAR ESMX 131550Z 18007KT 9999 SCT040 BKN050 10/04 Q1008=
200504131520 METAR ESMX 131520Z 19006KT 9999 SCT040 BKN056 11/04 Q1008=
200504131450 METAR ESMX 131450Z 19007KT 170V260 9999 SCT040 BKN064 11/03 Q1008=
200504131420 METAR ESMX 131420Z 23006KT 170V320 9999 SCT041 BKN068 12/03 Q1008=
200504131350 METAR ESMX 131350Z 24006KT 200V280 9999 FEW040 BKN050 12/03 Q1009=
200504131320 METAR ESMX 131320Z 23007KT 190V250 9999 SCT041 BKN085 11/03 Q1009=
200504131250 METAR ESMX 131250Z 23005KT 190V280 9999 SCT037 11/03 Q1009=
200504131220 METAR ESMX 131220Z 22007KT 170V250 9999 FEW038 BKN046 11/04 Q1009=
200504131150 METAR ESMX 131150Z 23005KT 170V260 9999 FEW032 BKN040 11/03 Q1010=
200504131120 METAR ESMX 131120Z 21007KT 160V250 9999 FEW034 BKN039 11/03 Q1010=
200504131050 METAR ESMX 131050Z 21007KT 160V250 9999 SCT034 BKN042 10/03 Q1010=
200504131020 METAR ESMX 131020Z 24005KT 170V290 9999 SCT035 SCT200 10/03 Q1010=
200504130950 METAR ESMX 130950Z VRB05KT 9999 SCT030 10/03 Q1010=
200504130920 METAR ESMX 130920Z 25006KT 170V280 9999 FEW023 BKN055 10/03 Q1011=
200504130850 METAR ESMX 130850Z 23007KT 200V260 9999 SCT021 09/03 Q1011=
200504130820 METAR ESMX 130820Z VRB05KT 9999 SCT016 08/04 Q1011=
200504130750 METAR ESMX 130750Z 19005KT 150V240 9999 FEW015 07/04 Q1011=
200504130720 METAR ESMX 130720Z 23006KT 9999 FEW015 07/04 Q1011=
200504130650 METAR ESMX 130650Z VRB03KT CAVOK 06/04 Q1011=
200504130620 METAR ESMX 130620Z VRB03KT CAVOK 06/03 Q1011=
200504130550 METAR ESMX 130550Z VRB03KT CAVOK 05/03 Q1012=
200504130520 METAR ESMX 130520Z VRB03KT CAVOK 05/03 Q1012=
200504130450 METAR ESMX 130450Z VRB02KT CAVOK 05/03 Q1011=
200504130420 METAR ESMX 130420Z VRB03KT CAVOK 04/03 Q1011=
200504130350 METAR ESMX 130350Z VRB03KT CAVOK 04/03 Q1012=
200504130320 METAR ESMX 130320Z AUTO VRB03KT 9999 FEW017 05/03 Q1012=
200504130250 METAR ESMX 130250Z AUTO 23004KT 200V280 9999 OVC015 05/03 Q1012=
200504130220 METAR ESMX 130220Z AUTO 24004KT 9999 FEW012 BKN016 06/04 Q1012=
200504130150 METAR ESMX 130150Z AUTO 25004KT 9999 SCT014 BKN021 05/04 Q1012=
200504130120 METAR ESMX 130120Z AUTO 24007KT 9999 FEW017 BKN020 06/04 Q1012=
200504130050 METAR ESMX 130050Z AUTO 25006KT 200V280 9999 FEW010 SCT012 BKN017 07/05 Q1012 RERA=
200504130020 METAR ESMX 130020Z AUTO 27007KT 240V320 6000 -RA FEW007 SCT010 BKN013 07/06 Q1012=
200504122350 METAR ESMX 122350Z 27007KT 210V310 5000 DZ FEW007 SCT009 BKN011 07/06 Q1012=
200504122250 METAR ESMX 122250Z 24006KT 210V270 9999 BKN009 08/06 Q1012=
200504122220 METAR ESMX 122220Z 24007KT 210V270 9999 FEW009 BKN011 08/06 Q1012=
200504122150 METAR ESMX 122150Z 24008KT 9999 FEW010 BKN012 08/06 Q1012=
200504122120 METAR ESMX 122120Z 25011KT 9999 BKN012 09/06 Q1012=
200504122050 METAR ESMX 122050Z 22009KT 190V250 9999 FEW014 BKN017 09/06 Q1013=
200504122020 METAR ESMX 122020Z 22011KT 190V250 9999 SCT016 BKN020 09/06 Q1013=
200504121950 METAR ESMX 121950Z 23011KT 200V260 9999 -DZ FEW019 BKN022 10/06 Q1013=
200504121920 METAR ESMX 121920Z 22013KT 9999 BKN025 10/06 Q1013=
200504121850 METAR ESMX 121850Z 24011KT 210V270 9999 FEW 020 BKN025 10/05 Q1013=
200504121820 METAR ESMX 121820Z 23010KT 9999 FEW026 BKN037 OVC053 10/05 Q1013=
200504121750 METAR ESMX 121750Z 22011G22KT 170V250 9999 FEW026CB SCT037 BKN043 11/06 Q1013=
200504121720 METAR ESMX 121720Z 22009KT 170V260 9999 FEW025CB SCT040 BKN050 11/05 Q1013=
200504121650 METAR ESMX 121650Z 23010KT 190V260 9999 FEW 030CB BKN035 11/05 Q1013=
200504121620 METAR ESMX 121620Z 22008KT 180V260 9999 BKN032 OVC048 11/06 Q1013 RERA=
200504121550 METAR ESMX 121550Z 25011KT 220V290 9999 -SHRA BKN030 11/06 Q1014=
200504121520 METAR ESMX 121520Z 23013KT 200V260 9999 FEW032 BKN036 OVC044 12/05 Q1014=
200504121450 METAR ESMX 121450Z 23013G23KT 200V270 9999 SCT030 BKN050 13/05 Q1014=
200504121420 METAR ESMX 121420Z 24013G23KT 200V290 9999 FEW035 SCT050 13/05 Q1014=
200504121350 METAR ESMX 121350Z 25013G25KT 9999 SCT043 14/04 Q1014=
200504121320 METAR ESMX 121320Z 24015KT 220V290 9999 FEW042 SCT045 14/03 Q1014=
200504121250 METAR ESMX 121250Z 24014KT 9999 FEW041 SCT047 14/03 Q1015=
200504121220 METAR ESMX 121220Z 21015G25KT 190V250 9999 SCT040 13/03 Q1015=
200504121150 METAR ESMX 121150Z 22014KT 180V260 9999 FEW020 BKN040 12/03 Q1015=
200504121120 METAR ESMX 121120Z 24013KT 210V280 9999 BKN039 12/02 Q1016=
200504121050 METAR ESMX 121050Z 23016G26KT 200V260 9999 FEW020 BKN037 11/02 Q1016=
200504121020 METAR ESMX 121020Z 23015KT 200V280 9999 FEW032 OVC038 11/03 Q1016=
200504120950 METAR ESMX 120950Z 23013KT 190V260 9999 FEW029 OVC038 11/04 Q1016=
200504120920 METAR ESMX 120920Z 22012KT 9999 SCT025 BKN040 10/05 Q1017=
200504120850 METAR ESMX 120850Z 22013KT 9999 FEW020 BKN039 10/04 Q1017=
200504120820 METAR ESMX 120820Z 24013KT 210V270 9999 BKN037 09/04 Q1017=
200504120750 METAR ESMX 120750Z 23008KT 200V270 9999 BKN036 09/04 Q1017=
200504120720 METAR ESMX 120720Z 21011KT 9999 BKN035 09/04 Q1017=
200504120650 METAR ESMX 120650Z 21009KT 9999 FEW008 07/04 Q1017=
200504120620 METAR ESMX 120620Z 24009KT 9999 SCT007 06/04 Q1017=
200504120550 METAR ESMX 120550Z 24008KT 9999 SCT006 05/04 Q1017=
200504120520 METAR ESMX 120520Z 22009KT 9999 BKN006 BKN009 05/04 Q1017=
200504120450 METAR ESMX 120450Z 22007KT 9999 BKN008 05/04 Q1017=
200504120420 METAR ESMX 120420Z 21006KT 9999 SCT012 06/04 Q1017=
200504120350 METAR ESMX 120350Z 24006KT 200V280 9999 BKN010 06/04 Q1017=
200504120320 METAR ESMX 120320Z AUTO 26010KT 220V290 9999 BKN010 07/05 Q1018=
200504120250 METAR ESMX 120250Z AUTO 25008KT 210V280 9999 FEW009 SCT015 07/05 Q1018=
200504120220 METAR ESMX 120220Z AUTO 25007KT 220V290 9999 FEW008 OVC009 07/06 Q1018=
200504120150 METAR ESMX 120150Z AUTO 25009KT 9999 BR FEW005 OVC007 08/06 Q1018=
200504120120 METAR ESMX 120120Z AUTO 25009KT 210V280 7000 BR OVC004 07/06 Q1018=
200504120050 METAR ESMX 120050Z AUTO 23006KT 200V260 9000 OVC005 07/06 Q1019=
200504120020 METAR ESMX 120020Z AUTO 25007KT 230V300 9999 OVC006 08/06 Q1019=
200504112350 METAR ESMX 112350Z 26006KT 9999 BKN008 08/06 Q1019=
200504112250 METAR ESMX 112250Z 25007KT 220V290 9999 SCT015 BKN019 09/07 Q1019=
200504112220 METAR ESMX 112220Z 25007KT 220V290 9999 BKN015 10/07 Q1019=
200504112150 METAR ESMX 112150Z 26009KT 230V320 9999 BKN015 10/07 Q1019=
200504112120 METAR ESMX 112120Z 27011KT 240V320 9999 FEW015 BKN018 10/07 Q1019=
200504112050 METAR ESMX 112050Z 25010KT 200V290 9999 FEW017 BKN019 10/07 Q1019=
200504112020 METAR ESMX 112020Z 24010KT 200V280 9999 BKN017 10/07 Q1019=
200504111950 METAR ESMX 111950Z 24009KT 210V280 9999 BKN016 10/07 Q1019=
200504111920 METAR ESMX 111920Z 26009KT 9999 BKN016 10/07 Q1019=
200504111850 METAR ESMX 111850Z 26009KT 9999 SCT017 BKN020 10/07 Q1018=
200504111820 METAR ESMX 111820Z 27009KT 230V330 9999 BKN020 11/07 Q1018=
200504111750 METAR ESMX 111750Z 26013KT 9999 BKN020 11/07 Q1018=
200504111720 METAR ESMX 111720Z 26013KT 220V290 9999 BKN022 11/07 Q1018=
200504111650 METAR ESMX 111650Z 26012G22KT 210V320 9999 SCT022 12/07 Q1017=
200504111620 METAR ESMX 111620Z 26015KT 9999 FEW025 SCT030 12/07 Q1017=
200504111550 METAR ESMX 111550Z 27016G26KT 220V300 9999 FEW029 13/07 Q1017=
200504111520 METAR ESMX 111520Z 27015G26KT 230V310 9999 FEW030 14/07 Q1016=
200504111450 METAR ESMX 111450Z 28017G30KT 260V330 9999 FEW030 14/06 Q1016=
200504111420 METAR ESMX 111420Z 27016KT 210V300 CAVOK 14/06 Q1016=
200504111350 METAR ESMX 111350Z 27016G27KT 220V290 CAVOK 15/06 Q1015=
200504111320 METAR ESMX 111320Z 27015G25KT 230V320 9999 FEW025 SCT200 15/06 Q1015=
200504111250 METAR ESMX 111250Z 26014G26KT 210V290 9999 FEW020 14/06 Q1015=
200504111150 METAR ESMX 111150Z 26016KT 230V310 9999 FEW025 SCT200 12/06 Q1015=
200504111120 METAR ESMX 111120Z 27015KT 230V300 9999 OVC020 10/06 Q1015=
200504111050 METAR ESMX 111050Z 29014G24KT 250V320 9999 OVC019 10/06 Q1015=
200504111020 METAR ESMX 111020Z 26014KT 220V290 9999 SCT019 BKN021 10/06 Q1015=
200504110950 METAR ESMX 110950Z 27015G25KT 240V300 9999 FEW018 BKN020 10/06 Q1015=
200504110920 METAR ESMX 110920Z 27013KT 230V300 9999 FEW015 SCT018 BKN021 09/05 Q1015=
200504110850 METAR ESMX 110850Z 25012G22KT 230V290 9999 FEW010 BKN013 OVC019 08/06 Q1014=
200504110820 METAR ESMX 110820Z 23011KT 190V260 9999 BKN010 OVC014 08/06 Q1014=
200504110750 METAR ESMX 110750Z 25013KT 210V280 9999 FEW009 BKN011 OVC015 07/06 Q1014=
200504110720 METAR ESMX 110720Z 25013G24KT 210V290 9999 SCT006 BKN012 07/06 Q1014=
200504110650 METAR ESMX 110650Z 25012KT 220V290 8000 BR FEW003 OVC004 06/05 Q1014=
200504110620 METAR ESMX 110620Z 23014KT 3000 BR OVC002 05/05 Q1014=
200504110550 METAR ESMX 110550Z 20012KT 4500 -DZ BR OVC003 05/04 Q1014=
200504110520 METAR ESMX 110520Z 21012KT 3000 OVC004 05/04 Q1014 REDZ=
200504110450 METAR ESMX 110450Z 22011KT 200V270 2500 -RA BR BKN004 04/04 Q1014=
200504110420 METAR ESMX 110420Z 22011KT 4000 BR DZ FEW005 OVC007 04/03 Q1014=
200504110350 METAR ESMX 110350Z 21012KT 170V240 6000 BR FEW008 BKN010 04/03 Q1014=
200504110320 METAR ESMX 110320Z AUTO 22012KT 9999 BKN010 OVC022 04/02 Q1015=
200504110250 METAR ESMX 110250Z AUTO 22011KT 200V260 9999 FEW011 SCT032 OVC038 04/02 Q1015=
200504110220 METAR ESMX 110220Z AUTO 20009KT 9999 BR FEW032 04/02 Q1016=
200504110150 METAR ESMX 110150Z AUTO 19011KT 8000 BR NSC 03/02 Q1016=
200504110120 METAR ESMX 110120Z AUTO 20010KT 8000 BR FEW008 SCT011 03/02 Q1016=
200504110050 METAR ESMX 110050Z AUTO 22009KT 9000 FEW009 SCT010 04/02 Q1017=
200504110020 METAR ESMX 110020Z 21009KT 9999 FEW010 SCT020 04/02 Q1017=
200504102320 METAR ESMX 102320Z 20008KT 9999 OVC010 04/02 Q1017=
200504102250 METAR ESMX 102250Z 19009KT 9999 BKN012 04/01 Q1018=
200504102220 METAR ESMX 102220Z 21008KT 9999 FEW015 SCT025 BKN030 03/01 Q1018=
200504102150 METAR ESMX 102150Z 20009KT 9999 SCT016 BKN030 04/00 Q1018=
200504102120 METAR ESMX 102120Z 19008KT 9999 BKN018 04/00 Q1018=
200504102050 METAR ESMX 102050Z 19006KT 9999 SCT035 02/M01 Q1018=
200504102020 METAR ESMX 102020Z 20006KT 9999 FEW030 02/M01 Q1018=
200504101950 METAR ESMX 101950Z 20007KT 9999 SCT030 03/M01 Q1018=
200504101920 METAR ESMX 101920Z 22005KT CAVOK 03/M02 Q1018=
200504101850 METAR ESMX 101850Z 21005KT CAVOK 04/M02 Q1018=
200504101820 METAR ESMX 101820Z 20006KT CAVOK 04/M02 Q1018=
200504101750 METAR ESMX 101750Z 22006KT CAVOK 06/M02 Q1017=
200504101720 METAR ESMX 101720Z 20009KT CAVOK 07/M02 Q1017=
200504101650 METAR ESMX 101650Z 22009KT CAVOK 08/M03 Q1016=
200504101620 METAR ESMX 101620Z 22010KT CAVOK 08/M03 Q1016=
200504101550 METAR ESMX 101550Z 21010KT CAVOK 09/M03 Q1016=
200504101520 METAR ESMX 101520Z 20009KT 170V240 CAVOK 09/M03 Q1016=
200504101450 METAR ESMX 101450Z 20010KT CAVOK 09/M02 Q1016=
200504101420 METAR ESMX 101420Z 22009KT 190V280 CAVOK 09/M02 Q1016=
200504101350 METAR ESMX 101350Z 22011KT CAVOK 08/M03 Q1016=
200504101320 METAR ESMX 101320Z 26010KT 220V280 9999 FEW040 08/M02 Q1016=
200504101250 METAR ESMX 101250Z 21011KT 170V250 CAVOK 08/M02 Q1016=
200504101220 METAR ESMX 101220Z AUTO 23008KT 180V280 9999 NSC 08/M02 Q1016=
200504101150 METAR ESMX 101150Z AUTO 22010KT 180V270 9999 FEW039 07/M03 Q1016=
200504101120 METAR ESMX 101120Z AUTO 21010KT 170V280 9999 BKN036 08/M02 Q1016=
200504101050 METAR ESMX 101050Z AUTO 20010KT 170V250 9999 SCT034 07/M01 Q1016=
200504101020 METAR ESMX 101020Z AUTO 20009KT 160V240 9999 FEW033 05/M03 Q1016=
200504100950 METAR ESMX 100950Z AUTO 22010KT 9999 FEW030 06/M02 Q1016=
200504100920 METAR ESMX 100920Z AUTO 22009KT 190V250 9999 NSC 06/M02 Q1015=
200504100850 METAR ESMX 100850Z AUTO 22011KT 190V260 9999 NSC 05/M03 Q1015=
200504100820 METAR ESMX 100820Z AUTO 21009KT 9999 FEW017 SCT020 04/M00 Q1015=
200504100750 METAR ESMX 100750Z AUTO 22010KT 9999 FEW015 03/M01 Q1016=
200504100720 METAR ESMX 100720Z AUTO 20008KT 9999 FEW013 02/M01 Q1015=
200504100650 METAR ESMX 100650Z AUTO 22007KT 9999 FEW008 01/M00 Q1015=
200504100620 METAR ESMX 100620Z AUTO 22004KT 190V270 9999 SCT007 01/M01 Q1015=
200504100550 METAR ESMX 100550Z AUTO 21004KT 9999 NSC M00/M01 Q1015=
200504100520 METAR ESMX 100520Z AUTO 18004KT 9999 NSC M02/M02 Q1015=
200504100450 METAR ESMX 100450Z AUTO 17004KT 9999 NSC M02/M03 Q1014=
200504100420 METAR ESMX 100420Z AUTO 18004KT 9999 NSC M03/M03 Q1014=
200504100350 METAR ESMX 100350Z AUTO 19004KT 9999 NSC M03/M03 Q1013=
200504100320 METAR ESMX 100320Z AUTO 22004KT 9999 NSC M03/M04 Q1013=
200504100250 METAR ESMX 100250Z AUTO 21004KT 9999 NSC M02/M03 Q1013=
200504100220 METAR ESMX 100220Z AUTO VRB03KT 9999 NSC M02/M03 Q1013=
200504100150 METAR ESMX 100150Z AUTO VRB03KT 9999 NSC M03/M03 Q1013=
200504100120 METAR ESMX 100120Z AUTO VRB03KT 9999 NSC M02/M03 Q1013=
200504100050 METAR ESMX 100050Z AUTO VRB03KT 9999 NSC M01/M02 Q1013=
200504100020 METAR ESMX 100020Z AUTO VRB03KT 9999 NSC M03/M04 Q1013=
200504092350 METAR ESMX 092350Z AUTO VRB03KT 9999 NSC M04/M04 Q1013=
200504092320 METAR ESMX 092320Z AUTO 00000KT 9999 NSC M03/M04 Q1013=
200504092250 METAR ESMX 092250Z AUTO VRB02KT 9999 NSC M01/M02 Q1013=
200504092220 METAR ESMX 092220Z AUTO VRB02KT 9999 NSC M00/M02 Q1013=
200504092150 METAR ESMX 092150Z AUTO 23004KT 9999 NSC M00/M02 Q1013=
200504092120 METAR ESMX 092120Z AUTO 22005KT 9999 NSC M00/M03 Q1013=
200504092050 METAR ESMX 092050Z AUTO 23005KT 9999 NSC 00/M03 Q1013=
200504092020 METAR ESMX 092020Z AUTO 23004KT 9999 NSC 00/M03 Q1013=
200504091950 METAR ESMX 091950Z AUTO VRB02KT 9999 NSC 01/M03 Q1013=
200504091920 METAR ESMX 091920Z AUTO VRB03KT 9999 NSC 01/M03 Q1012=
200504091850 METAR ESMX 091850Z AUTO VRB02KT 9999 NSC 02/M03 Q1012=
200504091820 METAR ESMX 091820Z AUTO 27004KT 240V300 9999 NSC 03/M02 Q1012=
200504091750 METAR ESMX 091750Z AUTO 26006KT 230V290 9999 ////// 04/M02 Q1011=
200504091720 METAR ESMX 091720Z AUTO 27007KT 240V300 9999 ////// 05/M02 Q1011=
200504091650 METAR ESMX 091650Z AUTO 25008KT 9999 ////// 06/M01 Q1010=
200504091620 METAR ESMX 091620Z AUTO 23006KT 200V270 9999 ////// 06/M01 Q1010=
200504091550 METAR ESMX 091550Z AUTO 25007KT 220V280 9999 ////// 06/M01 Q1010=
200504091520 METAR ESMX 091520Z AUTO 26009KT 210V290 9999 ////// 06/M01 Q1010=
200504091450 METAR ESMX 091450Z AUTO 26008KT 220V290 9999 OVC029 06/M00 Q1010=
200504091420 METAR ESMX 091420Z AUTO 26007KT 230V290 9999 FEW033 OVC037 06/00 Q1010=
200504091350 METAR ESMX 091350Z AUTO 24007KT 9999 FEW026 BKN033 OVC040 06/01 Q1009=
200504091320 METAR ESMX 091320Z AUTO 25008KT 220V290 9999 FEW027 SCT035 OVC040 07/01 Q1009=
200504091250 METAR ESMX 091250Z AUTO 26010KT 240V300 9999 FEW022 SCT029 BKN032 06/01 Q1009=
200504091220 METAR ESMX 091220Z AUTO 24006KT 200V280 9999 FEW020 OVC042 07/02 Q1008=
200504091150 METAR ESMX 091150Z AUTO 28008KT 230V300 9999 FEW020 SCT023 OVC037 07/02 Q1008=
200504091120 METAR ESMX 091120Z AUTO 25006KT 9999 FEW022 OVC037 06/02 Q1008=
200504091050 METAR ESMX 091050Z AUTO 24007KT 210V290 9999 FEW017 BKN035 06/01 Q1008=
200504091020 METAR ESMX 091020Z AUTO 26006KT 9999 FEW015 OVC030 05/01 Q1007=
200504090950 METAR ESMX 090950Z AUTO 23007KT 210V270 9999 FEW025 BKN035 06/01 Q1007=
200504090920 METAR ESMX 090920Z 25007KT 210V280 9999 SCT016 BKN034 05/01 Q1007=
200504090850 METAR ESMX 090850Z 31005KT 250V330 9999 BKN016 BKN034 06/02 Q1006=
200504090820 METAR ESMX 090820Z 25005KT 9999 BKN012 BKN017 05/02 Q1006=
200504090750 METAR ESMX 090750Z 27006KT 240V300 9999 BKN011 BKN020 05/02 Q1006=
200504090720 METAR ESMX 090720Z 25006KT 9999 SCT010 BKN038 05/02 Q1005=
200504090650 METAR ESMX 090650Z VRB03KT 9999 SCT005 BKN039 04/03 Q1005=
200504090620 METAR ESMX 090620Z VRB02KT 6000 BR FEW003 SCT021 BKN040 03/02 Q1004=
200504090550 METAR ESMX 090550Z AUTO VRB02KT 5000 BR OVC018 02/02 Q1004=
200504090520 METAR ESMX 090520Z AUTO VRB03KT 4400 BR FEW015 SCT018 OVC041 01/01 Q1004=
200504090450 METAR ESMX 090450Z AUTO VRB03KT 3700 FEW001 BKN013 OVC042 01/01 Q1003=
200504090420 METAR ESMX 090420Z AUTO 23004KT 1700 OVC001 01/01 Q1003=
200504090350 METAR ESMX 090350Z AUTO 23005KT 0600 R01/P1500D R19/P1500N FG OVC001 01/01 Q1002=
200504090320 METAR ESMX 090320Z AUTO 23004KT 5000 BR BKN002 M00/M00 Q1002=
200504090250 METAR ESMX 090250Z AUTO 20005KT 6000 BR NSC 00/M00 Q1002=
200504090220 METAR ESMX 090220Z AUTO 23005KT 9000 BR FEW021 M00/M01 Q1002=
200504090150 METAR ESMX 090150Z AUTO 21005KT 8000 BR NSC M00/M01 Q1001=
200504090120 METAR ESMX 090120Z AUTO 22005KT 9000 NSC 00/M00 Q1001=
200504090050 METAR ESMX 090050Z AUTO 22005KT 9999 BR FEW038 SCT051 01/00 Q1001=
200504090020 METAR ESMX 090020Z AUTO VRB03KT 6000 BR FEW041 OVC047 01/01 Q1001=
200504082350 METAR ESMX 082350Z AUTO 22004KT 7000 BR BKN046 01/01 Q1001=
200504082320 METAR ESMX 082320Z AUTO 20004KT 6000 BR FEW046 BKN065 00/00 Q1001=
200504082250 METAR ESMX 082250Z AUTO VRB03KT 8000 BR FEW061 01/00 Q1000=
200504082220 METAR ESMX 082220Z AUTO 22004KT 9999 BR FEW061 00/M00 Q1000=
200504082150 METAR ESMX 082150Z AUTO VRB03KT 9999 NSC 01/00 Q1000=
200504082120 METAR ESMX 082120Z AUTO 22005KT 9999 NSC 01/00 Q1000=
200504082050 METAR ESMX 082050Z AUTO 21004KT 9999 FEW055 01/00 Q0999=
200504082020 METAR ESMX 082020Z AUTO 20004KT 9999 SCT055 02/01 Q0999=
200504081950 METAR ESMX 081950Z 19005KT CAVOK 03/01 Q0999=
200504081920 METAR ESMX 081920Z 22005KT CAVOK 03/01 Q0999=
200504081850 METAR ESMX 081850Z VRB03KT CAVOK 04/02 Q0998=
200504081820 METAR ESMX 081820Z 25005KT 9999 FEW045 05/02 Q0998=
200504081750 METAR ESMX 081750Z 24004KT 210V270 9999 FEW060 06/02 Q0998=
200504081720 METAR ESMX 081720Z 24006KT 210V280 9999 FEW023 SCT060 07/03 Q0997=
200504081650 METAR ESMX 081650Z 24005KT 9999 FEW030 SCT045 06/03 Q0997=
200504081620 METAR ESMX 081620Z 23006KT 200V260 9999 FEW025 SCT030 BKN065 06/03 Q0997=
200504081550 METAR ESMX 081550Z 25009KT 220V280 9999 SHRA FEW018 SCT025 BKN035 06/04 Q0997=
200504081520 METAR ESMX 081520Z 20007KT 9999 SHRA FEW025 SCT035CB BKN070 08/05 Q0996=
200504081450 METAR ESMX 081450Z 21008KT 170V250 9999 FEW018 SCT070 08/04 Q0996=
200504081420 METAR ESMX 081420Z 21009KT 9999 SCT023 BKN059 08/05 Q0996=
200504081350 METAR ESMX 081350Z 20008KT 9999 FEW026 BKN059 07/05 Q0996=
200504081320 METAR ESMX 081320Z 23008KT 5000 SHRA FEW009 SCT018CB BKN024 05/04 Q0996=
200504081250 METAR ESMX 081250Z 17013KT 140V200 9999 -SHRA FEW018 SCT028CB BKN038 07/05 Q0996=
200504081220 METAR ESMX 081220Z 19015G27KT 160V230 7000 SHRA FEW020 BKN026CB 06/03 Q0996=
200504081150 METAR ESMX 081150Z 19014KT 140V210 9999 -SHRA FEW027 SCT031CB BKN040 09/04 Q0996=
200504081120 METAR ESMX 081120Z 17017KT 9999 FEW025 SCT035CB BKN053 10/04 Q0996=
200504081050 METAR ESMX 081050Z 16014KT 130V200 9999 FEW026 SCT030CB BKN070 09/04 Q0996=
200504081020 METAR ESMX 081020Z 19014KT 9999 SCT024 BKN038 09/03 Q0996=
200504080950 METAR ESMX 080950Z 19012KT 9999 -RA FEW022 BKN026 BKN038 08/04 Q0996=
200504080920 METAR ESMX 080920Z 17013KT 9999 -SHRA FEW020 BKN023CB 07/03 Q0996=
200504080850 METAR ESMX 080850Z 19012KT 150V210 9999 FEW019 SCT024 BKN045 08/04 Q0996=
200504080820 METAR ESMX 080820Z 19009KT 9999 FEW022 SCT083 07/03 Q0996=
200504080750 METAR ESMX 080750Z 19012KT 9999 FEW016 SCT045 06/03 Q0996=
200504080720 METAR ESMX 080720Z 21011KT 9999 FEW014 SCT017 BKN019 06/03 Q0996=
200504080650 METAR ESMX 080650Z 20011KT 9999 FEW013 BKN016 06/03 Q0996=
200504080620 METAR ESMX 080620Z 20009KT 9999 FEW016 SCT020 BKN040 05/03 Q0996=
200504080550 METAR ESMX 080550Z 18009KT 150V220 9999 FEW015 BKN041 04/02 Q0996=
200504080520 METAR ESMX 080520Z 17009KT 9999 FEW012 BKN041 03/02 Q0996=
200504080450 METAR ESMX 080450Z 17009KT 9999 FEW012 SCT015 BKN049 03/02 Q0996=
200504080420 METAR ESMX 080420Z 17010KT 9999 FEW010 SCT026 BKN049 03/01 Q0995=
200504080350 METAR ESMX 080350Z 17009KT 9999 SCT011 BKN025 03/01 Q0995=
200504080320 METAR ESMX 080320Z AUTO 16008KT 9999 OVC022 03/00 Q0995=
200504080250 METAR ESMX 080250Z AUTO 16008KT 9999 BKN024 03/00 Q0995 REDZ=
200504080220 METAR ESMX 080220Z AUTO 17008KT 9999 -DZ FEW013 BKN025 OVC042 03/00 Q0995=
200504080150 METAR ESMX 080150Z AUTO 20007KT 9999 FEW024 OVC028 03/01 Q0995=
200504080120 METAR ESMX 080120Z AUTO 23009KT 9999 OVC027 03/00 Q0995=
200504080050 METAR ESMX 080050Z AUTO 24010KT 210V270 9999 FEW021 BKN031 03/00 Q0995=
200504080020 METAR ESMX 080020Z 24012KT 210V280 9999 FEW020 BKN029 03/00 Q0995=
200504072350 METAR ESMX 072350Z 22010G20KT 170V240 9999 FEW018 BKN026 04/01 Q0995=
200504072320 METAR ESMX 072320Z 22014KT 200V260 9999 FEW018 SCT030 BKN034 04/01 Q0994=
200504072250 METAR ESMX 072250Z 20015KT 9999 FEW018 BKN037 04/02 Q0994=
200504072220 METAR ESMX 072220Z 19013KT 9999 SCT013 BKN040 04/02 Q0993=
200504072150 METAR ESMX 072150Z 20015KT 9999 FEW014 SCT016 OVC019 04/02 Q0993=
200504072120 METAR ESMX 072120Z 19014KT 9999 SCT016 BKN019 04/02 Q0993=
200504072050 METAR ESMX 072050Z 19014KT 9999 FEW018 SCT024 04/02 Q0993=
200504072020 METAR ESMX 072020Z 18011KT 9999 FEW020 04/03 Q0993=
200504071950 METAR ESMX 071950Z 18011KT 9999 FEW020 05/03 Q0993=
200504071920 METAR ESMX 071920Z 17008KT CAVOK 04/03 Q0993=
200504071850 METAR ESMX 071850Z 16009KT CAVOK 04/03 Q0993=
200504071820 METAR ESMX 071820Z 15006KT 7000 BR SCT060 04/03 Q0994=
200504071750 METAR ESMX 071750Z 17004KT 9999 FEW035 04/03 Q0994=
200504071720 METAR ESMX 071720Z 21004KT 190V250 9999 SHRA FEW008 SCT010CB 04/03 Q0994=
200504071650 METAR ESMX 071650Z 24015KT 7000 SHRA FEW008 BKN010CB 05/03 Q0994=
200504071620 METAR ESMX 071620Z 18009KT 9999 -SHRA SCT050CB BKN070 10/05 Q0993=
200504071550 METAR ESMX 071550Z 16010KT 120V190 9999 FEW045CB SCT080 10/05 Q0993=
200504071520 METAR ESMX 071520Z 16011KT 110V170 9999 -SHRA FEW030 SCTCB060 10/05 Q0993=
200504071450 METAR ESMX 071450Z 19009KT 9999 -SHRA FEW045CB SCT055 11/05 Q0994=
200504071420 METAR ESMX 071420Z 21009KT 180V240 9999 FEW010 SCT044 BKN057 11/05 Q0994=
200504071350 METAR ESMX 071350Z 19016KT 140V210 9999 -SHRA FEW016 BKN040CB 10/04 Q0994=
200504071320 METAR ESMX 071320Z 17015KT 130V190 9999 FEW019 SCT038 BKN082 11/04 Q0994=
200504071250 METAR ESMX 071250Z 17013KT 9999 FEW027 SCT044 BKN070 11/05 Q0995=
200504071220 METAR ESMX 071220Z 18012KT 9999 FEW023 SCT046 BKN054 10/05 Q0995=
200504071150 METAR ESMX 071150Z 17010KT 130V200 9999 FEW022 SCT055 BKN067 10/05 Q0995=
200504071120 METAR ESMX 071120Z 18016KT 130V200 9999 FEW020 SCT031 BKN040 10/05 Q0996=
200504071050 METAR ESMX 071050Z 16010KT 120V190 9000 BR FEW018 SCT023 BKN027 10/06 Q0996=
200504071020 METAR ESMX 071020Z 16010KT 9000 BR FEW020 BKN023 10/06 Q0996=
200504070950 METAR ESMX 070950Z 15010KT 110V190 8000 BR FEW015 SCT020 BKN030 09/05 Q0997=
200504070920 METAR ESMX 070920Z 16009KT 120V190 7000 BR FEW013 SCT019 09/05 Q0997=
200504070850 METAR ESMX 070850Z 17010KT 6000 BR FEW012 SCT027 08/06 Q0997=
200504070820 METAR ESMX 070820Z 16007KT 130V200 4900 BR SCT027 BKN044 07/05 Q0997=
200504070750 METAR ESMX 070750Z 15007KT 3500 BR FEW007 BKN025 06/04 Q0998=
200504070720 METAR ESMX 070720Z 15007KT 110V190 3100 BR FEW008 SCT027 BKN032 05/04 Q0998=
200504070650 METAR ESMX 070650Z 16010KT 120V190 4000 BR FEW011 SCT024 BKN034 05/04 Q0999=
200504070620 METAR ESMX 070620Z 16008KT 3500 BR FEW024 SCT030 BKN038 05/04 Q0999=
200504070550 METAR ESMX 070550Z 16009KT 4500 DZ FEW024 SCT034 BKN040 05/03 Q0999=
200504070520 METAR ESMX 070520Z 16007KT 5000 BR FEW026 BKN030 05/03 Q0999=
200504070450 METAR ESMX 070450Z 16006KT 120V190 5000 BR FEW027 BKN031 05/03 Q1000=
200504062220 METAR ESMX 062220Z 16010KT 120V190 7000 -RA FEW019 SCT036 BKN059 05/03 Q1006=
200504062150 METAR ESMX 062150Z 15011KT 110V180 9999 -RA FEW020 SCT026 BKN044 06/01 Q1007=
200504062120 METAR ESMX 062120Z 16010KT 140V200 9999 -RA FEW022 BKN044 06/01 Q1007=
200504062050 METAR ESMX 062050Z 16010KT 9999 FEW021 BKN049 06/01 Q1008=
200504062020 METAR ESMX 062020Z 14008KT 110V170 9999 BKN049 06/01 Q1008=
200504061950 METAR ESMX 061950Z 15009KT 9999 FEW035 BKN050 06/01 Q1009=
200504061920 METAR ESMX 061920Z 14007KT 9999 FEW035 BKN060 06/01 Q1010=
200504061850 METAR ESMX 061850Z 16008KT 9999 SCT035 06/01 Q1010=
200504061820 METAR ESMX 061820Z 15008KT CAVOK 06/02 Q1011=
200504061750 METAR ESMX 061750Z 16009KT CAVOK 07/02 Q1011=
200504061720 METAR ESMX 061720Z 16009KT CAVOK 07/01 Q1012=
200504061650 METAR ESMX 061650Z 15009KT CAVOK 08/02 Q1012=
200504061620 METAR ESMX 061620Z 16009KT 120V190 CAVOK 08/03 Q1012=
200504061550 METAR ESMX 061550Z 17009KT 150V210 9999 FEW048 SCT057 08/03 Q1013=
200504061520 METAR ESMX 061520Z 16009KT 120V200 9999 FEW025 SCT046 BKN057 08/03 Q1013=
200504061450 METAR ESMX 061450Z 17011KT 140V210 9999 FEW025 SCT030 BKN045 08/03 Q1014=
200504061420 METAR ESMX 061420Z 18010KT 9999 FEW037 BKN057 09/02 Q1014=
200504061350 METAR ESMX 061350Z 21012KT 9999 FEW035 BKN055 08/02 Q1015=
200504061320 METAR ESMX 061320Z 20013KT 170V240 9999 FEW038 BKN042 09/01 Q1015=
200504061250 METAR ESMX 061250Z 22012G22KT 180V250 9999 FEW044 SCT050 10/M00 Q1015=
200504061220 METAR ESMX 061220Z 20012KT 9999 FEW042 11/M00 Q1016=
200504061150 METAR ESMX 061150Z 21012KT 170V260 9999 FEW040 10/01 Q1016=
200504061120 METAR ESMX 061120Z 21009KT 170V260 9999 SCT030 09/01 Q1017=
200504061050 METAR ESMX 061050Z 23009KT 190V270 9999 FEW032 SCT030 07/01 Q1017=
200504060950 METAR ESMX 060950Z 21011KT 190V250 9999 BKN025 BKN034 07/02 Q1017=
200504060920 METAR ESMX 060920Z 22009KT 180V250 9999 BKN023 BKN031 06/02 Q1018=
200504060850 METAR ESMX 060850Z 24009KT 9999 BKN023 05/01 Q1018=
200504060820 METAR ESMX 060820Z 25012KT 9999 BKN020 05/01 Q1018=
200504060750 METAR ESMX 060750Z 24009KT 200V270 9999 FEW017 BKN025 05/02 Q1018=
200504060720 METAR ESMX 060720Z 24007KT 200V290 9999 SCT015 BKN028 05/02 Q1017=
200504060650 METAR ESMX 060650Z 22007KT 180V260 9999 SCT012 BKN017 BKN028 04/02 Q1017=
200504060620 METAR ESMX 060620Z 23008KT 200V260 9999 SCT011 BKN017 BKN028 04/02 Q1017=
200504060550 METAR ESMX 060550Z 22008KT 9999 SCT011 BKN014 BKN031 04/02 Q1017=
200504060520 METAR ESMX 060520Z 24007KT 9999 BKN010 BKN030 04/02 Q1016=
200504060450 METAR ESMX 060450Z 23007KT 190V260 9999 BKN011 03/02 Q1016=
200504060350 METAR ESMX 060350Z 22009KT 180V250 9999 FEW012 SCT015 BKN036 04/02 Q1016=
200504060320 METAR ESMX 060320Z AUTO 24009KT 9999 FEW011 BKN035 04/02 Q1016=
200504060250 METAR ESMX 060250Z AUTO 22009KT 200V260 9999 FEW016 OVC032 04/02 Q1016=
200504060220 METAR ESMX 060220Z AUTO 25009KT 9999 FEW010 BKN032 OVC039 04/02 Q1016=
200504060150 METAR ESMX 060150Z AUTO 22008KT 190V260 9999 FEW012 SCT030 BKN035 04/02 Q1016=
200504060120 METAR ESMX 060120Z AUTO 22009KT 200V260 9999 OVC030 04/02 Q1015=
200504060050 METAR ESMX 060050Z AUTO 23010KT 200V260 9999 FEW010 SCT015 OVC032 04/02 Q1015=
200504060020 METAR ESMX 060020Z 23012KT 200V260 9999 FEW007 SCT013 BKN015 04/02 Q1015=
200504052350 METAR ESMX 052350Z 24008KT 9999 FEW008 BKN010 04/03 Q1015=
200504052250 METAR ESMX 052250Z 24009KT 9999 FEW009 SCT010 BKN013 04/03 Q1015=
200504052220 METAR ESMX 052220Z 22008KT 9999 BKN010 04/03 Q1015=
200504052150 METAR ESMX 052150Z 24009KT 9999 -SHRA SCT008 BKN020 04/03 Q1015=
200504052120 METAR ESMX 052120Z 22008KT 9000 -SHRA SCT022 03/02 Q1015=
200504052050 METAR ESMX 052050Z 25013KT 210V280 5000 SHRA BKN025CB 03/02 Q1015=
200504052020 METAR ESMX 052020Z 23010KT 9999 SCT021 05/02 Q1015=
200504051950 METAR ESMX 051950Z 22010KT 9999 SCT023 BKN082 06/02 Q1015=
200504051920 METAR ESMX 051920Z 22009KT 190V250 9999 SCT026 BKN042 06/01 Q1015=
200504051850 METAR ESMX 051850Z 22010KT 190V260 9999 SCT027 BKN040 07/01 Q1015=
200504051820 METAR ESMX 051820Z 22009KT 180V260 9999 FEW030 SCT035 BKN040 07/01 Q1015=
200504051750 METAR ESMX 051750Z 24011G22KT 9999 -SHRA SCT030CB BKN050 07/01 Q1015=
200504051720 METAR ESMX 051720Z 25010KT 9999 FEW037CB SCT055 BKN070 07/00 Q1015=
200504051650 METAR ESMX 051650Z 24010KT 200V270 9999 FEW045CB BKN060 08/00 Q1015=
200504051620 METAR ESMX 051620Z 25011KT 9999 FEW035CB BKN055 08/00 Q1015=
200504051550 METAR ESMX 051550Z 24009KT 210V270 9999 FEW040CB BKN050 08/00 Q1015=
200504051520 METAR ESMX 051520Z 26010KT 230V300 9999 FEW040 BKN047 09/00 Q1015=
200504051450 METAR ESMX 051450Z 24012KT 200V260 9999 FEW045 09/00 Q1015=
200504051420 METAR ESMX 051420Z 23013KT 190V290 9999 SCT040 09/00 Q1015=
200504051350 METAR ESMX 051350Z 23012KT 200V280 9999 SCT040 10/00 Q1015=
200504051320 METAR ESMX 051320Z 26012KT 230V290 9999 FEW035 SCT048 09/00 Q1015=
200504051220 METAR ESMX 051220Z 26015KT 230V300 9999 FEW032 BKN041 09/00 Q1014=
200504051150 METAR ESMX 051150Z 26014KT 220V320 9999 SCT030 BKN039 BKN046 09/01 Q1015=
200504051120 METAR ESMX 051120Z 25012KT 230V290 9999 FEW025 BKN039 08/02 Q1015=
200504051050 METAR ESMX 051050Z 26011KT 220V280 9999 FEW025 BKN030 08/01 Q1015=
200504051020 METAR ESMX 051020Z 26015KT 230V300 9999 SCT023 BKN030 07/02 Q1014=
200504050950 METAR ESMX 050950Z 27009KT 210V010 9999 SCT020 07/02 Q1014=
200504050920 METAR ESMX 050920Z 28010G20KT 250V320 9999 FEW018 SCT021 BKN026 06/02 Q1014=
200504050850 METAR ESMX 050850Z 26008KT 220V320 9999 FEW014 SCT040 06/03 Q1014=
200504050820 METAR ESMX 050820Z 29008KT 260V320 9999 FEW012 SCT034 BKN083 04/02 Q1014 RERA=
200504050750 METAR ESMX 050750Z 29009KT 240V310 9999 -DZ FEW011 BKN013 OVC030 04/03 Q1014=
200504050720 METAR ESMX 050720Z 28012KT 250V330 9999 -RA FEW009 OVC020 04/03 Q1013=
200504050650 METAR ESMX 050650Z 27012KT 240V320 6000 DZ OVC010 06/04 Q1012=
200504050620 METAR ESMX 050620Z 23010KT 200V260 9000 -RA BKN012 OVC020 07/04 Q1012=
200504050550 METAR ESMX 050550Z 20006KT 9999 FEW016 SCT019 BKN100 06/01 Q1011=
200504050520 METAR ESMX 050520Z 18007KT 9999 FEW030 BKN080 06/01 Q1011 RERA=
200504050450 METAR ESMX 050450Z 18007KT 9999 FEW067 SCT110 05/01 Q1011 RERA=
200504050420 METAR ESMX 050420Z 16004KT 110V190 9999 -SHRA FEW017 SCT080 06/00 Q1011=
200504050350 METAR ESMX 050350Z 17006KT CAVOK 06/M01 Q1012=
200504050320 METAR ESMX 050320Z AUTO 16006KT 9999 FEW090 07/M01 Q1012=
200504050250 METAR ESMX 050250Z AUTO 18007KT 9999 FEW078 07/M01 Q1012=
200504050220 METAR ESMX 050220Z AUTO 16007KT 9999 NSC 06/M01 Q1012=
200504050150 METAR ESMX 050150Z AUTO 16008KT 9999 NSC 07/M01 Q1013=
200504050120 METAR ESMX 050120Z 16008KT CAVOK 06/M01 Q1013=
200504050050 METAR ESMX 050050Z 16007KT CAVOK 06/M01 Q1014=
200504050020 METAR ESMX 050020Z 17006KT CAVOK 06/M01 Q1014=
200504042350 METAR ESMX 042350Z 16006KT CAVOK 06/M01 Q1015=
200504042320 METAR ESMX 042320Z 16006KT CAVOK 06/M01 Q1015=
200504042250 METAR ESMX 042250Z 16006KT CAVOK 06/M01 Q1016=
200504042220 METAR ESMX 042220Z 16005KT CAVOK 07/M01 Q1016=
200504042150 METAR ESMX 042150Z 16006KT CAVOK 07/M01 Q1017=
200504042050 METAR ESMX 042050Z 16005KT CAVOK 07/M01 Q1017=
200504042020 METAR ESMX 042020Z 16006KT CAVOK 08/M01 Q1017=
200504041950 METAR ESMX 041950Z 15006KT CAVOK 09/M01 Q1018=
200504041920 METAR ESMX 041920Z 17006KT CAVOK 10/M01 Q1018=
200504041850 METAR ESMX 041850Z 16007KT CAVOK 11/M01 Q1018=
200504041820 METAR ESMX 041820Z 17007KT CAVOK 11/M02 Q1018=
200504041750 METAR ESMX 041750Z 17007KT CAVOK 12/M03 Q1019=
200504041720 METAR ESMX 041720Z 16010KT 120V190 CAVOK 14/M03 Q1018=
200504041650 METAR ESMX 041650Z 16010KT CAVOK 15/M03 Q1019=
200504041620 METAR ESMX 041620Z 16009KT 120V190 CAVOK 16/M03 Q1019=
200504041550 METAR ESMX 041550Z 17011KT 140V200 CAVOK 17/M03 Q1019=
200504041520 METAR ESMX 041520Z 17011KT 140V200 CAVOK 17/M05 Q1019=
200504041450 METAR ESMX 041450Z 19012KT 170V230 CAVOK 18/M02 Q1019=
200504041420 METAR ESMX 041420Z 18014KT 140V200 CAVOK 18/M03 Q1020=
200504041350 METAR ESMX 041350Z 18014KT CAVOK 19/M04 Q1020=
200504041250 METAR ESMX 041250Z 20015KT CAVOK 19/M05 Q1021=
200504041220 METAR ESMX 041220Z 19013KT CAVOK 19/M04 Q1021=
200504041150 METAR ESMX 041150Z 20013KT 160V230 CAVOK 19/M04 Q1022=
200504041120 METAR ESMX 041120Z 20012KT 160V240 CAVOK 18/M03 Q1022=
200504041050 METAR ESMX 041050Z 18014KT CAVOK 18/M03 Q1022=
200504041020 METAR ESMX 041020Z 19012KT CAVOK 18/M02 Q1022=
200504040950 METAR ESMX 040950Z VRB04KT CAVOK 17/M02 Q1023=
200504040920 METAR ESMX 040920Z VRB03KT CAVOK 16/M00 Q1023=
200504040850 METAR ESMX 040850Z VRB03KT CAVOK 14/M01 Q1023=
200504040820 METAR ESMX 040820Z VRB03KT CAVOK 11/M00 Q1024=
200504040750 METAR ESMX 040750Z VRB03KT CAVOK 09/M00 Q1024=
200504040720 METAR ESMX 040720Z VRB03KT CAVOK 07/M01 Q1024=
200504040650 METAR ESMX 040650Z VRB03KT CAVOK 05/M01 Q1024=
200504040620 METAR ESMX 040620Z VRB01KT CAVOK 02/M01 Q1024=
200504040550 METAR ESMX 040550Z VRB03KT CAVOK M01/M02 Q1024=
200504040520 METAR ESMX 040520Z VRB01KT CAVOK M02/M03 Q1024=
200504040450 METAR ESMX 040450Z VRB01KT 9000 BR NSC M03/M04 Q1024=
200504040420 METAR ESMX 040420Z VRB02KT 9000 BR NSC M02/M04 Q1024=
200504040350 METAR ESMX 040350Z VRB02KT 8000 BR NSC M02/M04 Q1024=
200504040320 METAR ESMX 040320Z AUTO 16004KT 9000 BR NSC M02/M04 Q1024=
200504040250 METAR ESMX 040250Z AUTO VRB02KT 8000 BR NSC M01/M03 Q1024=
200504040220 METAR ESMX 040220Z AUTO VRB02KT 9999 NSC M02/M04 Q1025=
200504040150 METAR ESMX 040150Z AUTO 17004KT 9999 NSC 00/M03 Q1025=
200504040120 METAR ESMX 040120Z AUTO VRB03KT 9999 NSC 00/M03 Q1025=
200504040050 METAR ESMX 040050Z AUTO 17005KT 9999 NSC 01/M04 Q1025=
200504040020 METAR ESMX 040020Z 15004KT CAVOK M01/M04 Q1025=
200504032350 METAR ESMX 032350Z VRB03KT CAVOK M01/M04 Q1025=
200504032320 METAR ESMX 032320Z AUTO 15004KT 9999 NSC M01/M04 Q1026=
200504032250 METAR ESMX 032250Z AUTO VRB03KT 9999 NSC M01/M04 Q1026=
200504032220 METAR ESMX 032220Z VRB02KT CAVOK 00/M04 Q1026=
200504032150 METAR ESMX 032150Z VRB03KT CAVOK 01/M04 Q1026=
200504032120 METAR ESMX 032120Z VRB03KT CAVOK 02/M04 Q1026=
200504032050 METAR ESMX 032050Z 17004KT CAVOK 03/M04 Q1026=
200504032020 METAR ESMX 032020Z 15005KT CAVOK 05/M04 Q1026=
200504031950 METAR ESMX 031950Z 17004KT CAVOK 04/M04 Q1026=
200504031920 METAR ESMX 031920Z 16005KT CAVOK 08/M04 Q1026=
200504031850 METAR ESMX 031850Z 16005KT CAVOK 09/M04 Q1026=
200504031820 METAR ESMX 031820Z 15005KT CAVOK 10/M04 Q1026=
200504031750 METAR ESMX 031750Z 15005KT CAVOK 11/M05 Q1026=
200504031720 METAR ESMX 031720Z 17005KT CAVOK 13/M07 Q1026=
200504031650 METAR ESMX 031650Z 16007KT CAVOK 14/M07 Q1026=
200504031620 METAR ESMX 031620Z 15006KT CAVOK 15/M05 Q1026=
200504031550 METAR ESMX 031550Z 15007KT CAVOK 15/M04 Q1026=
200504031520 METAR ESMX 031520Z 16007KT CAVOK 16/M04 Q1026=
200504031450 METAR ESMX 031450Z 21007KT CAVOK 16/M05 Q1026=
200504031420 METAR ESMX 031420Z 18008KT CAVOK 17/M04 Q1026=
200504031350 METAR ESMX 031350Z 18007KT 150V210 CAVOK 16/M05 Q1026=
200504031320 METAR ESMX 031320Z 20010KT CAVOK 16/M04 Q1027=
200504031250 METAR ESMX 031250Z 21008KT CAVOK 16/M04 Q1027=
200504031220 METAR ESMX 031220Z AUTO VRB06KT 9999 NSC 16/M03 Q1027=
200504031150 METAR ESMX 031150Z AUTO 20010KT 140V220 9999 NSC 15/M04 Q1027=
200504031120 METAR ESMX 031120Z AUTO 21008KT 160V240 9999 NSC 15/M03 Q1028=
200504031050 METAR ESMX 031050Z AUTO 19008KT 9999 NSC 14/M04 Q1028=
200504031020 METAR ESMX 031020Z AUTO 19008KT 160V240 9999 NSC 13/M03 Q1028=
200504030950 METAR ESMX 030950Z AUTO 18006KT 140V220 9999 NSC 13/M02 Q1028=
200504030920 METAR ESMX 030920Z AUTO 21005KT 140V250 9999 NSC 11/M02 Q1028=
200504030850 METAR ESMX 030850Z AUTO 16004KT 110V240 9999 NSC 10/M03 Q1028=
200504030820 METAR ESMX 030820Z AUTO VRB03KT 9999 NSC 08/M02 Q1028=
200504030750 METAR ESMX 030750Z AUTO VRB02KT 9999 NSC 06/M02 Q1028=
200504030720 METAR ESMX 030720Z AUTO 00000KT 9999 NSC 04/M02 Q1028=
200504030650 METAR ESMX 030650Z AUTO 00000KT 9999 NSC 01/M01 Q1028=
200504030620 METAR ESMX 030620Z AUTO 00000KT 9999 NSC M02/M03 Q1028=
200504030550 METAR ESMX 030550Z AUTO 00000KT 9999 NSC M03/M04 Q1028=
200504030520 METAR ESMX 030520Z AUTO 00000KT 9000 BR NSC M05/M05 Q1028=
200504030450 METAR ESMX 030450Z AUTO 00000KT 7000 BR NSC M05/M05 Q1028=
200504030420 METAR ESMX 030420Z AUTO 00000KT 6000 BR NSC M05/M05 Q1028=
200504030350 METAR ESMX 030350Z AUTO 00000KT 5000 BR NSC M05/M05 Q1028=
200504030320 METAR ESMX 030320Z AUTO 00000KT 9999 NSC M04/M05 Q1028=
200504030250 METAR ESMX 030250Z AUTO 00000KT 9999 BR NSC M04/M05 Q1028=
200504030220 METAR ESMX 030220Z AUTO 00000KT 9999 NSC M04/M05 Q1028=
200504030150 METAR ESMX 030150Z AUTO 00000KT 9999 NSC M04/M05 Q1028=
200504030120 METAR ESMX 030120Z AUTO 00000KT 9999 NSC M04/M04 Q1028=
200504030050 METAR ESMX 030050Z AUTO 00000KT 9999 NSC M03/M04 Q1028=
200504030020 METAR ESMX 030020Z AUTO 00000KT 9999 NSC M03/M04 Q1028=
200504022350 METAR ESMX 022350Z AUTO 00000KT 9999 NSC M02/M04 Q1028=
200504022320 METAR ESMX 022320Z AUTO VRB03KT 9999 NSC M00/M03 Q1028=
200504022250 METAR ESMX 022250Z AUTO VRB03KT 9999 NSC M01/M04 Q1028=
200504022220 METAR ESMX 022220Z AUTO 22005KT 9999 NSC 00/M03 Q1028=
200504022150 METAR ESMX 022150Z AUTO 23004KT 9999 NSC 01/M03 Q1028=
200504022120 METAR ESMX 022120Z AUTO 22004KT 9999 NSC 02/M03 Q1028=
200504022050 METAR ESMX 022050Z AUTO 22005KT 9999 NSC 02/M03 Q1028=
200504022020 METAR ESMX 022020Z AUTO 22005KT 9999 NSC 02/M03 Q1028=
200504021950 METAR ESMX 021950Z AUTO 22005KT 9999 NSC 03/M04 Q1028=
200504021920 METAR ESMX 021920Z AUTO 17004KT 9999 NSC 03/M04 Q1028=
200504021850 METAR ESMX 021850Z AUTO VRB02KT 9999 NSC 05/M04 Q1028=
200504021820 METAR ESMX 021820Z AUTO VRB01KT 9999 NSC 05/M04 Q1028=
200504021750 METAR ESMX 021750Z AUTO VRB03KT 9999 NSC 08/M05 Q1027=
200504021720 METAR ESMX 021720Z AUTO 23004KT 9999 NSC 11/M06 Q1027=
200504021650 METAR ESMX 021650Z AUTO 23005KT 9999 NSC 13/M06 Q1027=
200504021620 METAR ESMX 021620Z AUTO 25007KT 200V290 9999 NSC 14/M06 Q1027=
200504021550 METAR ESMX 021550Z AUTO 26005KT 200V300 9999 NSC 14/M05 Q1028=
200504021520 METAR ESMX 021520Z AUTO 23004KT 190V310 9999 NSC 14/M05 Q1028=
200504021450 METAR ESMX 021450Z AUTO 20007KT 150V250 9999 NSC 14/M05 Q1028=
200504021420 METAR ESMX 021420Z AUTO 20007KT 9999 NSC 14/M06 Q1028=
200504021350 METAR ESMX 021350Z AUTO 22009KT 180V240 9999 NSC 14/M07 Q1028=
200504021320 METAR ESMX 021320Z AUTO 22006KT 170V260 9999 NSC 14/M07 Q1029=
200504021250 METAR ESMX 021250Z AUTO 22006KT 170V280 9999 NSC 14/M07 Q1029=
200504021220 METAR ESMX 021220Z AUTO 23008KT 200V270 9999 NSC 14/M08 Q1029=
200504021150 METAR ESMX 021150Z AUTO 20008KT 160V240 9999 NSC 13/M09 Q1029=
200504021120 METAR ESMX 021120Z AUTO 20007KT 170V250 9999 NSC 13/M08 Q1030=
200504021050 METAR ESMX 021050Z AUTO 25006KT 200V300 9999 NSC 12/M07 Q1030=
200504021020 METAR ESMX 021020Z AUTO 24005KT 190V290 9999 NSC 11/M06 Q1030=
200504020950 METAR ESMX 020950Z 24006KT 200V280 CAVOK 10/M07 Q1030=
200504020920 METAR ESMX 020920Z 22006KT 190V260 CAVOK 09/M06 Q1031=
200504020850 METAR ESMX 020850Z 20008KT CAVOK 09/M06 Q1031=
200504020820 METAR ESMX 020820Z 23005KT 150V260 CAVOK 08/M05 Q1031=
200504020750 METAR ESMX 020750Z VRB03KT CAVOK 07/M05 Q1031=
200504020720 METAR ESMX 020720Z VRB02KT CAVOK 05/M05 Q1031=
200504020650 METAR ESMX 020650Z 00000KT CAVOK 03/M01 Q1031=
200504020620 METAR ESMX 020620Z AUTO 00000KT 9999 NSC M01/M03 Q1031=
200504020550 METAR ESMX 020550Z AUTO 00000KT 9999 NSC M03/M05 Q1031=
200504020520 METAR ESMX 020520Z AUTO VRB01KT 9999 NSC M05/M06 Q1031=
200504020450 METAR ESMX 020450Z AUTO 00000KT 9999 NSC M06/M06 Q1030=
200504020420 METAR ESMX 020420Z AUTO 00000KT 9999 NSC M05/M06 Q1030=
200504020350 METAR ESMX 020350Z AUTO 00000KT 9999 NSC M05/M06 Q1030=
200504020320 METAR ESMX 020320Z AUTO 00000KT 9999 NSC M04/M05 Q1031=
200504020250 METAR ESMX 020250Z AUTO 00000KT 9999 NSC M05/M05 Q1031=
200504020220 METAR ESMX 020220Z AUTO 00000KT 9999 NSC M04/M06 Q1031=
200504020150 METAR ESMX 020150Z AUTO 00000KT 9999 NSC M04/M06 Q1031=
200504020120 METAR ESMX 020120Z AUTO VRB01KT 9999 NSC M03/M05 Q1031=
200504020050 METAR ESMX 020050Z AUTO 00000KT 9999 NSC M03/M05 Q1031=
200504020020 METAR ESMX 020020Z AUTO 00000KT 9999 NSC M03/M05 Q1031=
200504012350 METAR ESMX 012350Z AUTO 00000KT 9999 NSC M03/M06 Q1031=
200504012320 METAR ESMX 012320Z AUTO VRB01KT 9999 NSC M03/M06 Q1031=
200504012250 METAR ESMX 012250Z AUTO VRB01KT 9999 NSC M02/M05 Q1031=
200504012220 METAR ESMX 012220Z AUTO VRB03KT 9999 NSC 00/M05 Q1031=
200504012150 METAR ESMX 012150Z AUTO 17004KT 9999 NSC M00/M04 Q1031=
200504012120 METAR ESMX 012120Z AUTO VRB02KT 9999 NSC 02/M05 Q1031=
200504012050 METAR ESMX 012050Z AUTO VRB03KT 9999 NSC 00/M04 Q1031=
200504012020 METAR ESMX 012020Z AUTO VRB03KT 9999 NSC 01/M04 Q1031=
200504011950 METAR ESMX 011950Z VRB02KT CAVOK 01/M04 Q1031=
200504011920 METAR ESMX 011920Z VRB03KT CAVOK 02/M04 Q1031=
200504011850 METAR ESMX 011850Z VRB02KT CAVOK 02/M04 Q1031=
200504011820 METAR ESMX 011820Z VRB01KT CAVOK 05/M03 Q1031=
200504011750 METAR ESMX 011750Z VRB02KT CAVOK 07/M03 Q1030=
200504011720 METAR ESMX 011720Z VRB03KT CAVOK 11/M05 Q1030=
200504011650 METAR ESMX 011650Z 30004KT CAVOK 12/M04 Q1030=
200504011620 METAR ESMX 011620Z 27005KT CAVOK 13/M04 Q1030=
200504011550 METAR ESMX 011550Z VRB03KT CAVOK 14/M03 Q1031=
200504011520 METAR ESMX 011520Z 31004KT CAVOK 14/M02 Q1031=
200504011450 METAR ESMX 011450Z VRB03KT CAVOK 14/M03 Q1031=
200504011350 METAR ESMX 011350Z 27004KT 140V320 CAVOK 14/M03 Q1031=
200504011320 METAR ESMX 011320Z VRB03KT CAVOK 14/M02 Q1031=
200504011250 METAR ESMX 011250Z 24004KT 190V310 CAVOK 14/M02 Q1032=
200504011220 METAR ESMX 011220Z VRB02KT CAVOK 14/M02 Q1032=
Fallo de consulta: el error es SELECT command denied to user 'users'@'localhost' for table 'tafs_2005'
