##########################################################
# Query made at 04/19/2024 20:44:50 UTC
# Time interval: from 07/01/2005 12:00  to 07/31/2005 12:59  UTC
##########################################################

##########################################################
# ESMX, Vaxjo (Sweden)
# WMO index: 02641. WIGOS ID: 0-20000-0-02648
# Latitude 56-51N. Longitude 014-50E. Altitude 199 m.
##########################################################

200507311250 METAR ESMX 311250Z 21007KT 160V250 9999 FEW041 SCT061 20/12 Q1010=
200507311220 METAR ESMX 311220Z AUTO 24007KT 210V290 9999 FEW044 SCT058 21/12 Q1010=
200507311150 METAR ESMX 311150Z AUTO 20008KT 170V230 9999 SCT039 20/12 Q1010=
200507311120 METAR ESMX 311120Z AUTO 20008KT 150V240 9999 SCT037 BKN048 20/12 Q1010=
200507311050 METAR ESMX 311050Z AUTO 23009KT 190V300 9999 FEW039 20/13 Q1010=
200507311020 METAR ESMX 311020Z AUTO 22007KT 190V260 9999 NSC 19/12 Q1011=
200507310950 METAR ESMX 310950Z AUTO 22008KT 9999 FEW036 18/13 Q1011=
200507310920 METAR ESMX 310920Z AUTO 23010KT 200V260 9999 FEW036 19/14 Q1010=
200507310850 METAR ESMX 310850Z AUTO 21007KT 200V270 9999 FEW016 SCT022 BKN030 17/13 Q1010=
200507310820 METAR ESMX 310820Z AUTO 25008KT 200V260 9999 FEW014 SCT019 BKN024 17/14 Q1010=
200507310750 METAR ESMX 310750Z AUTO 20008KT 160V250 9999 SCT011 BKN016 16/14 Q1010=
200507310720 METAR ESMX 310720Z AUTO 21005KT 170V240 9999 FEW010 SCT013 BKN020 16/14 Q1010=
200507310650 METAR ESMX 310650Z AUTO 23008KT 200V260 9999 FEW008 SCT012 BKN016 16/14 Q1009=
200507310620 METAR ESMX 310620Z AUTO 22006KT 9999 FEW009 SCT013 16/14 Q1009=
200507310550 METAR ESMX 310550Z AUTO 24006KT 9999 FEW008 BKN010 OVC014 15/14 Q1009=
200507310520 METAR ESMX 310520Z AUTO 23005KT 9999 BR FEW006 SCT008 BKN011 15/14 Q1009=
200507310450 METAR ESMX 310450Z AUTO 22005KT 8000 BR FEW006 SCT009 BKN029 15/14 Q1009=
200507310420 METAR ESMX 310420Z AUTO 22007KT 190V260 8000 BR FEW005 SCT008 BKN011 15/14 Q1009=
200507310350 METAR ESMX 310350Z AUTO 22006KT 7000 BR BKN004 OVC023 15/14 Q1009=
200507310320 METAR ESMX 310320Z AUTO 22007KT 7000 BR FEW005 SCT007 OVC020 15/14 Q1009=
200507310250 METAR ESMX 310250Z AUTO 21006KT 7000 BR BKN016 15/14 Q1008=
200507310220 METAR ESMX 310220Z AUTO 21006KT 7000 BR FEW017 14/14 Q1008=
200507310150 METAR ESMX 310150Z AUTO 23006KT 8000 BR NSC 14/14 Q1008=
200507310120 METAR ESMX 310120Z AUTO 22006KT 170V250 9000 FEW014 SCT017 15/14 Q1008=
200507310050 METAR ESMX 310050Z AUTO 23008KT 9999 FEW009 OVC011 15/14 Q1008=
200507310020 METAR ESMX 310020Z AUTO 23009KT 200V260 9999 FEW008 OVC010 16/15 Q1007=
200507302350 METAR ESMX 302350Z AUTO 21010KT 9999 FEW007 BKN008 OVC011 16/15 Q1007=
200507302320 METAR ESMX 302320Z AUTO 21009KT 9999 FEW006 SCT007 BKN009 17/16 Q1007=
200507302250 METAR ESMX 302250Z AUTO 22008KT 200V260 9999 SCT007 OVC009 17/16 Q1007 REDZ=
200507302220 METAR ESMX 302220Z AUTO 23007KT 200V260 9999 -SHRA FEW005 SCT007 BKN008 17/16 Q1007=
200507302150 METAR ESMX 302150Z AUTO 19006KT 5000 DZ FEW005 SCT007 BKN009 17/17 Q1007=
200507302120 METAR ESMX 302120Z AUTO 22006KT 6000 DZ FEW008 BKN024 OVC029 17/16 Q1007=
200507302050 METAR ESMX 302050Z AUTO 21005KT 9999 FEW007 OVC022 17/16 Q1007=
200507302020 METAR ESMX 302020Z AUTO 21006KT 9999 FEW008 BKN021 17/16 Q1006=
200507301950 METAR ESMX 301950Z AUTO 24009KT 9999 FEW009 SCT028 BKN033 18/17 Q1006 RERA=
200507301920 METAR ESMX 301920Z AUTO 22010KT 180V260 9999 -SHRA FEW006 SCT018 BKN022 18/17 Q1006=
200507301850 METAR ESMX 301850Z AUTO 14005KT 4100 BKN001 OVC007 19/18 Q1005 RERA=
200507301820 METAR ESMX 301820Z AUTO VRB02KT 4300 -SHRA OVC001 18/18 Q1005=
200507301750 METAR ESMX 301750Z AUTO VRB02KT 5000 DZ OVC001 18/18 Q1005=
200507301720 METAR ESMX 301720Z AUTO VRB02KT 6000 OVC002 18/18 Q1005 REDZ=
200507301650 METAR ESMX 301650Z AUTO VRB01KT 4600 -SHRA FEW002 OVC005 18/17 Q1005=
200507301620 METAR ESMX 301620Z AUTO VRB01KT 2900 -RA OVC002 17/17 Q1005=
200507301550 METAR ESMX 301550Z AUTO 06004KT 020V100 9999 FEW003 SCT005 OVC006 17/17 Q1005=
200507301520 METAR ESMX 301520Z AUTO VRB03KT 9999 FEW002 SCT003 BKN005 17/17 Q1006=
200507301450 METAR ESMX 301450Z AUTO VRB03KT 9999 OVC002 17/17 Q1006 RERA=
200507301420 METAR ESMX 301420Z AUTO VRB02KT 9999 -RA OVC003 17/17 Q1006=
200507301350 METAR ESMX 301350Z AUTO 05005KT 020V100 9000 -RA FEW002 BKN004 OVC006 17/17 Q1006=
200507301320 METAR ESMX 301320Z AUTO 05005KT 020V080 8000 RA SCT003 BKN005 BKN007 17/16 Q1006=
200507301250 METAR ESMX 301250Z AUTO 03005KT 010V080 5000 +RA FEW004 SCT006 BKN010 17/16 Q1007=
200507301220 METAR ESMX 301220Z AUTO 04004KT 3100 +RA FEW005 SCT006 BKN013 17/16 Q1007=
200507301150 METAR ESMX 301150Z AUTO 07004KT 050V110 2200 +RA FEW002 SCT006 BKN008 17/16 Q1007=
200507301120 METAR ESMX 301120Z AUTO VRB03KT 4000 +RA FEW003 BKN004 OVC007 17/16 Q1008=
200507301050 METAR ESMX 301050Z AUTO 04005KT 010V080 7000 -RA BKN003 OVC006 17/16 Q1008=
200507301020 METAR ESMX 301020Z AUTO 07006KT 040V120 9000 -RA OVC004 17/16 Q1008=
200507300950 METAR ESMX 300950Z AUTO 05008KT 020V090 9999 OVC005 17/16 Q1007=
200507300920 METAR ESMX 300920Z AUTO 05008KT 020V080 9999 OVC005 17/16 Q1007=
200507300850 METAR ESMX 300850Z AUTO 05007KT 020V080 9999 OVC005 17/16 Q1008=
200507300820 METAR ESMX 300820Z AUTO 04009KT 010V070 9999 OVC005 17/16 Q1008=
200507300750 METAR ESMX 300750Z AUTO 04009KT 9999 OVC005 17/16 Q1008=
200507300720 METAR ESMX 300720Z AUTO 05007KT 010V080 9999 OVC004 16/15 Q1008=
200507300650 METAR ESMX 300650Z AUTO 06005KT 020V100 9999 OVC005 16/15 Q1009=
200507300620 METAR ESMX 300620Z AUTO 05006KT 020V090 9999 OVC004 16/15 Q1009=
200507300550 METAR ESMX 300550Z AUTO 06006KT 020V100 9999 OVC004 16/15 Q1009=
200507300520 METAR ESMX 300520Z AUTO 06006KT 020V100 9999 OVC005 16/15 Q1010=
200507300450 METAR ESMX 300450Z AUTO 05005KT 010V090 9999 OVC004 16/16 Q1010=
200507300420 METAR ESMX 300420Z AUTO 05005KT 010V080 9999 OVC005 16/16 Q1010=
200507300350 METAR ESMX 300350Z AUTO 07004KT 020V120 9999 FEW004 OVC006 16/16 Q1010 RERA=
200507300320 METAR ESMX 300320Z AUTO 07005KT 020V100 9999 -SHRA FEW005 OVC006 16/16 Q1010=
200507300250 METAR ESMX 300250Z AUTO VRB03KT 9999 -SHRA FEW006 BKN008 OVC015 16/16 Q1011=
200507300220 METAR ESMX 300220Z AUTO VRB03KT 9999 FEW009 SCT012 OVC015 16/16 Q1011 REDZ=
200507300150 METAR ESMX 300150Z AUTO VRB03KT 8000 DZ FEW005 BKN007 OVC010 16/16 Q1011=
200507300120 METAR ESMX 300120Z AUTO VRB03KT 9999 FEW006 SCT007 BKN009 16/16 Q1011=
200507300050 METAR ESMX 300050Z AUTO VRB01KT 9999 FEW006 BKN007 OVC014 17/16 Q1012=
200507300020 METAR ESMX 300020Z AUTO VRB02KT 9999 FEW006 SCT008 BKN014 17/16 Q1011=
200507292350 METAR ESMX 292350Z AUTO VRB03KT 9999 FEW011 SCT043 OVC053 17/16 Q1011=
200507292320 METAR ESMX 292320Z AUTO VRB03KT 9999 FEW005 SCT007 OVC011 17/16 Q1012=
200507292250 METAR ESMX 292250Z AUTO 13004KT 080V170 9999 FEW005 SCT007 BKN008 17/16 Q1012=
200507292220 METAR ESMX 292220Z AUTO 13005KT 100V160 9999 FEW044 OVC059 17/16 Q1012=
200507292150 METAR ESMX 292150Z AUTO 12005KT 070V170 9999 FEW005 SCT006 OVC062 17/16 Q1012=
200507292120 METAR ESMX 292120Z AUTO 10005KT 050V140 9999 FEW005 OVC059 17/16 Q1012=
200507292050 METAR ESMX 292050Z AUTO 10005KT 060V140 9999 FEW005 SCT007 BKN008 17/17 Q1013 REDZ=
200507292020 METAR ESMX 292020Z AUTO 06004KT 010V100 9999 OVC006 18/17 Q1013 RERA=
200507291950 METAR ESMX 291950Z AUTO 08004KT 010V130 9999 -SHRA FEW005 BKN007 BKN013 18/17 Q1013=
200507291920 METAR ESMX 291920Z AUTO 08004KT 040V120 9000 -SHRA FEW006 BKN009 BKN014 18/17 Q1013=
200507291850 METAR ESMX 291850Z AUTO 09004KT 040V170 8000 -RA FEW006 BKN010 BKN050 18/17 Q1013=
200507291820 METAR ESMX 291820Z AUTO 12005KT 080V210 8000 RA FEW008 SCT013 BKN039 18/18 Q1013=
200507291750 METAR ESMX 291750Z AUTO 13005KT 070V170 9999 FEW025 SCT047 19/18 Q1013 RERA=
200507291720 METAR ESMX 291720Z VRB03KT 9999 SHRA FEW006 SCT020CB BKN024 19/18 Q1013=
200507291650 METAR ESMX 291650Z 13010KT 100V160 9999 SHRA FEW007 SCT012 BKN017CB 19/18 Q1013=
200507291620 METAR ESMX 291620Z 11006G20KT 070V140 1500 +TSRA FEW006 BKN020CB 19/18 Q1013=
200507291550 METAR ESMX 291550Z 14005KT 080V170 6000 TSRA FEW015 BKN025CB 20/18 Q1013=
200507291520 METAR ESMX 291520Z 13004KT 080V170 9999 SHRA SCT025CB BKN030 22/17 Q1013=
200507291450 METAR ESMX 291450Z 15005KT 100V190 9999 SCT028 BKN035 24/17 Q1013=
200507291420 METAR ESMX 291420Z 15005KT 110V190 9999 FEW025 SCT045 BK120 24/18 Q1013=
200507291350 METAR ESMX 291350Z 15005KT 110V200 9999 FEW026 BKN040 24/18 Q1013=
200507291320 METAR ESMX 291320Z 13004KT 080V190 9999 FEW025 BKN040 24/17 Q1014=
200507291250 METAR ESMX 291250Z 15006KT 9999 SCT028 BKN038 23/17 Q1014=
200507291220 METAR ESMX 291220Z 15005KT 110V200 9999 FEW024 BKN030 23/18 Q1014=
200507291150 METAR ESMX 291150Z 14004KT 080V200 9999 SCT025 BKN032 23/18 Q1014=
200507291120 METAR ESMX 291120Z 16005KT 120V190 9999 BKN023 BKN035 22/17 Q1015=
200507291050 METAR ESMX 291050Z 15004KT 120V190 9999 BKN020 22/17 Q1015=
200507291020 METAR ESMX 291020Z VRB03KT 9999 BKN020 22/17 Q1015=
200507290950 METAR ESMX 290950Z 16004KT 120V210 9999 FEW023 BKN060 21/17 Q1015=
200507290920 METAR ESMX 290920Z VRB03KT 9999 FEW030 BKN056 22/17 Q1015=
200507290850 METAR ESMX 290850Z VRB03KT 9999 FEW030 SCT051 20/16 Q1016=
200507290820 METAR ESMX 290820Z 12005KT 060V170 9999 FEW012 SCT035 BKN060 20/16 Q1016=
200507290750 METAR ESMX 290750Z 16004KT 120V200 9999 FEW008 SCT032 BKN057 19/15 Q1016=
200507290720 METAR ESMX 290720Z VRB03KT 9999 FEW007 BKN032 18/16 Q1015=
200507290650 METAR ESMX 290650Z VRB03KT 9999 BKN007 OVC029 17/15 Q1015=
200507290620 METAR ESMX 290620Z 12004KT 080V170 9999 BR FEW006 OVC027 16/15 Q1015=
200507290550 METAR ESMX 290550Z VRB03KT 9999 FEW007 BKN024 16/15 Q1015=
200507290520 METAR ESMX 290520Z VRB03KT 9999 SCT007 OVC024 16/14 Q1015=
200507290450 METAR ESMX 290450Z VRB02KT 9999 OVC025 15/14 Q1015=
200507290420 METAR ESMX 290420Z VRB01KT 9999 OVC025 15/14 Q1016=
200507290350 METAR ESMX 290350Z VRB02KT 9999 OVC026 15/14 Q1015=
200507290320 METAR ESMX 290320Z AUTO VRB01KT 9999 FEW026 SCT031 BKN036 14/14 Q1015=
200507290250 METAR ESMX 290250Z AUTO VRB01KT 9999 FEW029 BKN063 BKN100 14/13 Q1015=
200507290220 METAR ESMX 290220Z AUTO VRB01KT 9999 FEW027 SCT039 BKN060 15/14 Q1015=
200507290150 METAR ESMX 290150Z AUTO VRB02KT 9999 OVC026 15/14 Q1015=
200507290120 METAR ESMX 290120Z AUTO VRB01KT 9999 FEW026 SCT046 BKN060 15/14 Q1015=
200507290050 METAR ESMX 290050Z AUTO 00000KT 9999 FEW041 SCT047 BKN055 15/14 Q1015=
200507290020 METAR ESMX 290020Z VRB02KT 9999 FEW025 SCT043 BKN061 15/14 Q1015=
200507282350 METAR ESMX 282350Z VRB02KT 9999 -SHRA FEW014 SCT046 BKN053 15/14 Q1015=
200507282320 METAR ESMX 282320Z VRB02KT 8000 RA OVC027 16/13 Q1016=
200507282250 METAR ESMX 282250Z VRB01KT 9999 OVC027 16/13 Q1015=
200507282220 METAR ESMX 282220Z VRB03KT 9999 OVC025 16/13 Q1015=
200507282150 METAR ESMX 282150Z 15004KT 9999 OVC029 16/13 Q1015=
200507282120 METAR ESMX 282120Z VRB01KT 9999 OVC030 15/14 Q1015=
200507282050 METAR ESMX 282050Z VRB01KT 9999 OVC033 16/14 Q1015=
200507282020 METAR ESMX 282020Z 00000KT 9999 OVC034 16/14 Q1015=
200507281950 METAR ESMX 281950Z VRB01KT 9999 OVC033 16/13 Q1015=
200507281920 METAR ESMX 281920Z VRB01KT 9999 OVC032 17/13 Q1015=
200507281850 METAR ESMX 281850Z VRB02KT 9999 OVC035 17/13 Q1015=
200507281820 METAR ESMX 281820Z VRB02KT 9999 OVC036 17/13 Q1014=
200507281750 METAR ESMX 281750Z VRB01KT 9999 OVC039 18/14 Q1015=
200507281720 METAR ESMX 281720Z VRB02KT 9999 OVC044 18/14 Q1015=
200507281650 METAR ESMX 281650Z 02004KT 340V040 9999 FEW035 BKN046 OVC055 19/13 Q1014=
200507281620 METAR ESMX 281620Z 02005KT 330V040 9999 FEW034 BKN056 18/13 Q1015=
200507281550 METAR ESMX 281550Z 36004KT 9999 BKN046 OVC056 19/13 Q1015=
200507281520 METAR ESMX 281520Z VRB03KT CAVOK 19/13 Q1015=
200507281450 METAR ESMX 281450Z VRB01KT CAVOK 20/13 Q1015=
200507281420 METAR ESMX 281420Z VRB02KT 9999 BKN056 18/12 Q1015 RERA=
200507281350 METAR ESMX 281350Z VRB02KT 9999 -SHRA FEW037 BKN060 18/13 Q1014=
200507281320 METAR ESMX 281320Z VRB03KT 9999 RA BKN040 18/12 Q1014=
200507281250 METAR ESMX 281250Z 19006KT 120V220 9999 SCT037 BKN065 19/11 Q1014=
200507281220 METAR ESMX 281220Z 18005KT 160V240 9999 SCT040 BKN080 20/11 Q1014=
200507281150 METAR ESMX 281150Z 16004KT 110V220 9999 BKN040 20/11 Q1014=
200507281120 METAR ESMX 281120Z 15006KT 9999 BKN040 20/11 Q1014=
200507281050 METAR ESMX 281050Z 17007KT 110V230 9999 FEW039 20/11 Q1014=
200507281020 METAR ESMX 281020Z 24006KT 130V260 9999 FEW040 20/11 Q1014=
200507280950 METAR ESMX 280950Z 20005KT 150V250 9999 FEW038 19/09 Q1015=
200507280920 METAR ESMX 280920Z 18006KT 130V220 9999 SCT035 18/09 Q1015=
200507280850 METAR ESMX 280850Z 21004KT 160V270 9999 SCT030 19/11 Q1015=
200507280820 METAR ESMX 280820Z 21006KT 170V270 9999 SCT030 18/11 Q1015=
200507280750 METAR ESMX 280750Z 21005KT 130V240 9999 FEW020 18/12 Q1015=
200507280720 METAR ESMX 280720Z VRB02KT CAVOK 16/12 Q1015=
200507280650 METAR ESMX 280650Z VRB02KT CAVOK 16/12 Q1014=
200507280620 METAR ESMX 280620Z VRB02KT CAVOK 14/12 Q1015=
200507280550 METAR ESMX 280550Z VRB02KT CAVOK 13/11 Q1015=
200507280520 METAR ESMX 280520Z VRB02KT CAVOK 13/12 Q1014=
200507280450 METAR ESMX 280450Z VRB02KT CAVOK 11/11 Q1014=
200507280420 METAR ESMX 280420Z VRB02KT CAVOK 08/08 Q1014=
200507280350 METAR ESMX 280350Z VRB01KT 9999 MIFG NSC 07/06 Q1014=
200507280320 METAR ESMX 280320Z AUTO VRB01KT 6000 BR NSC 07/06 Q1014=
200507280250 METAR ESMX 280250Z AUTO VRB03KT 9999 NSC 08/07 Q1014=
200507280220 METAR ESMX 280220Z AUTO 22004KT 9999 NSC 09/08 Q1014=
200507280150 METAR ESMX 280150Z AUTO VRB03KT 7000 BR NSC 09/09 Q1014=
200507280120 METAR ESMX 280120Z AUTO VRB03KT 7000 BR NSC 09/09 Q1014=
200507280050 METAR ESMX 280050Z AUTO 20004KT 9999 NSC 09/08 Q1014=
200507280020 METAR ESMX 280020Z AUTO 21005KT 9999 NSC 09/08 Q1014=
200507272350 METAR ESMX 272350Z 21004KT CAVOK 09/09 Q1014=
200507272320 METAR ESMX 272320Z 22004KT CAVOK 09/09 Q1014=
200507272250 METAR ESMX 272250Z VRB03KT CAVOK 09/08 Q1013=
200507272220 METAR ESMX 272220Z VRB03KT CAVOK 10/10 Q1013=
200507272150 METAR ESMX 272150Z 21004KT 9999 FEW047 11/09 Q1013=
200507272120 METAR ESMX 272120Z 21004KT 9999 FEW048 12/10 Q1013=
200507272050 METAR ESMX 272050Z VRB03KT CAVOK 12/10 Q1013=
200507272020 METAR ESMX 272020Z 22004KT CAVOK 12/10 Q1013=
200507271950 METAR ESMX 271950Z 23005KT CAVOK 14/11 Q1013=
200507271920 METAR ESMX 271920Z 23004KT 9999 FEW030 BKN055 15/11 Q1013=
200507271850 METAR ESMX 271850Z 21005KT 190V250 9999 FEW030 BKN050 15/11 Q1012=
200507271820 METAR ESMX 271820Z 22004KT CAVOK 15/11 Q1012=
200507271750 METAR ESMX 271750Z 23006KT 200V260 CAVOK 15/11 Q1012=
200507271720 METAR ESMX 271720Z 22008KT CAVOK 16/10 Q1012=
200507271650 METAR ESMX 271650Z 23007KT 9999 FEW030 BKN050 16/11 Q1012=
200507271620 METAR ESMX 271620Z 21008KT 170V250 9999 FEW030 BKN050 16/11 Q1012=
200507271550 METAR ESMX 271550Z 22008KT 190V260 9999 FEW025 BKN050 16/11 Q1012=
200507271520 METAR ESMX 271520Z 22009KT 9999 FEW030 BKN055 17/10 Q1012=
200507271450 METAR ESMX 271450Z 23010KT 190V260 9999 FEW030 BKN050 17/10 Q1012=
200507271420 METAR ESMX 271420Z 23007KT 200V270 9999 FEW025 BKN045 16/10 Q1012=
200507271350 METAR ESMX 271350Z 25005KT 220V280 9999 -SHRA FEW025 BKN045 16/11 Q1012=
200507271320 METAR ESMX 271320Z 24006KT 160V290 9999 FEW036 OVC042 16/11 Q1012=
200507271250 METAR ESMX 271250Z 25007KT 220V290 9999 FEW023 BKN033 OVC047 15/10 Q1012=
200507271220 METAR ESMX 271220Z 25008KT 200V290 9999 -SHRA FEW037 OVC041 16/10 Q1011=
200507271150 METAR ESMX 271150Z 23009KT 200V280 9999 FEW035 BKN040 OVC050 16/09 Q1011=
200507271120 METAR ESMX 271120Z 22007KT 9999 FEW030 SCT041 OVC046 16/11 Q1011=
200507271050 METAR ESMX 271050Z 24009KT 220V290 9999 FEW025CB BKN040 15/10 Q1011=
200507271020 METAR ESMX 271020Z 23009KT 190V260 9999 FEW025 SCT030 BKN040 16/10 Q1010=
200507270950 METAR ESMX 270950Z 23008KT 200V280 9999 FEW025 BKN040 17/11 Q1010=
200507270920 METAR ESMX 270920Z 23006KT 9999 FEW022 OVC039 15/11 Q1010=
200507270850 METAR ESMX 270850Z 23007KT 200V270 9999 FEW023 SCT039 OVC048 15/10 Q1010=
200507270820 METAR ESMX 270820Z 24008KT 190V260 9999 FEW037 OVC048 15/11 Q1010=
200507270750 METAR ESMX 270750Z 24008KT 9999 FEW021 OVC045 15/11 Q1010=
200507270720 METAR ESMX 270720Z 25010KT 210V280 9999 SCT020 BKN043 15/10 Q1009=
200507270650 METAR ESMX 270650Z 24009KT 9999 FEW014 BKN025 15/12 Q1009=
200507270620 METAR ESMX 270620Z 25008KT 9999 SCT010 14/12 Q1009=
200507270550 METAR ESMX 270550Z 23005KT 9999 SCT015 BKN041 13/12 Q1009 RERA=
200507270520 METAR ESMX 270520Z 21007KT 9999 -SHRA FEW013 SCT041 BKN046 13/12 Q1009=
200507270450 METAR ESMX 270450Z 22005KT 9999 FEW005 BKN035 13/12 Q1009=
200507270420 METAR ESMX 270420Z 22005KT 9999 FEW005 SCT035 BKN057 13/12 Q1009=
200507270350 METAR ESMX 270350Z 19005KT 9999 SCT037 BKN064 12/12 Q1009=
200507270320 METAR ESMX 270320Z AUTO 21004KT 9999 FEW017 SCT036 OVC061 12/12 Q1009=
200507270250 METAR ESMX 270250Z AUTO 21004KT 9999 FEW041 OVC068 12/12 Q1009=
200507270220 METAR ESMX 270220Z AUTO 19004KT 9999 FEW020 OVC061 13/12 Q1008=
200507270150 METAR ESMX 270150Z AUTO 22005KT 9999 FEW019 SCT035 BKN047 13/12 Q1008=
200507270120 METAR ESMX 270120Z AUTO 22004KT 9999 FEW030 SCT040 BKN046 13/12 Q1008=
200507270050 METAR ESMX 270050Z AUTO 20006KT 9999 FEW038 OVC075 13/12 Q1008=
200507270020 METAR ESMX 270020Z AUTO 21004KT 9999 BKN049 OVC078 13/12 Q1008=
200507262350 METAR ESMX 262350Z 23005KT 200V260 9999 FEW048 BKN077 13/12 Q1008=
200507262320 METAR ESMX 262320Z 22006KT 9999 -SHRA SCT052 BKN074 13/11 Q1008=
200507262250 METAR ESMX 262250Z 23007KT 9999 FEW040 BKN048 14/11 Q1008=
200507262220 METAR ESMX 262220Z 21007KT 9999 FEW035 BKN055 14/11 Q1008=
200507262150 METAR ESMX 262150Z 22006KT 9999 FEW030 BKN080 13/11 Q1007=
200507262120 METAR ESMX 262120Z 21006KT CAVOK 12/11 Q1007=
200507262050 METAR ESMX 262050Z 20006KT 9999 FEW045 BKN075 13/11 Q1007=
200507262020 METAR ESMX 262020Z 21005KT 9999 SCT045 BKN075 13/10 Q1007=
200507261950 METAR ESMX 261950Z 21005KT 9999 BKN045 13/10 Q1007=
200507261850 METAR ESMX 261850Z 22005KT 9999 SCT045 15/10 Q1007=
200507261820 METAR ESMX 261820Z 23004KT 9999 SCT046 BKN063 15/10 Q1007=
200507261750 METAR ESMX 261750Z 24007KT 9999 SCT035 BKN050 16/10 Q1007=
200507261720 METAR ESMX 261720Z 25008KT 210V280 9999 SCT040 BKN065 16/10 Q1006=
200507261650 METAR ESMX 261650Z 23007KT 200V270 9999 FEW030 SCT055 16/10 Q1006=
200507261620 METAR ESMX 261620Z 24007KT 190V270 9999 FEW035 BKN052 16/10 Q1006=
200507261550 METAR ESMX 261550Z 26007KT 210V300 9999 BKN047 16/10 Q1006=
200507261520 METAR ESMX 261520Z 25009KT 200V290 9999 SCT037 BKN055 17/10 Q1006=
200507261450 METAR ESMX 261450Z 25009KT 210V290 9999 SCT040 BKN050 17/09 Q1006=
200507261420 METAR ESMX 261420Z 25009KT 210V310 9999 SCT040 BKN055 19/09 Q1006=
200507261350 METAR ESMX 261350Z 22011KT 170V260 9999 FEW035 SCT050 18/10 Q1005=
200507261320 METAR ESMX 261320Z 26007KT 210V290 9999 SCT030 18/11 Q1005=
200507261250 METAR ESMX 261250Z 20007KT 170V250 9999 SCT040 18/11 Q1006=
200507261220 METAR ESMX 261220Z 22006KT 9999 BKN028 16/10 Q1005=
200507261150 METAR ESMX 261150Z 24007KT 210V280 9999 BKN026 15/10 Q1006=
200507261120 METAR ESMX 261120Z 26007KT 220V300 9999 SCT024 BKN030 16/11 Q1005=
200507261050 METAR ESMX 261050Z 25005KT 9999 FEW025 SCT035 BKN040 16/11 Q1005=
200507261020 METAR ESMX 261020Z 26005KT 180V300 9999 SCT020 BKN035 16/12 Q1005=
200507260950 METAR ESMX 260950Z 21006KT 9999 FEW015 SCT020 BKN033 16/12 Q1005=
200507260920 METAR ESMX 260920Z 27006KT 240V330 9999 SCT015 BKN020 15/12 Q1005=
200507260850 METAR ESMX 260850Z 25006KT 210V280 9999 SCT014 BKN020 15/11 Q1004=
200507260820 METAR ESMX 260820Z 28007KT 9999 SCT014 BKN020 15/12 Q1004=
200507260750 METAR ESMX 260750Z 27004KT 230V320 9999 SCT015 BKN020 15/12 Q1004=
200507260720 METAR ESMX 260720Z 29005KT 250V330 9999 SCT015 BKN040 15/12 Q1004=
200507260650 METAR ESMX 260650Z 29004KT 250V350 9999 FEW014 BKN040 15/12 Q1004=
200507260620 METAR ESMX 260620Z 29005KT 220V320 9999 FEW006 SCT040 14/12 Q1004=
200507260550 METAR ESMX 260550Z VRB03KT 9999 SCT006 BKN039 13/12 Q1004=
200507260520 METAR ESMX 260520Z 28005KT 250V320 9999 SCT003 BKN039 13/12 Q1003=
200507260450 METAR ESMX 260450Z 25005KT 9999 BKN002 12/11 Q1003=
200507260420 METAR ESMX 260420Z 25005KT 220V290 8000 BR BKN002 12/11 Q1003=
200507260350 METAR ESMX 260350Z 27005KT 230V300 9000 BR BKN002 11/11 Q1003=
200507260320 METAR ESMX 260320Z AUTO VRB03KT 9999 FEW005 BKN099 12/11 Q1003=
200507260250 METAR ESMX 260250Z AUTO 26004KT 220V290 9999 OVC097 12/11 Q1003=
200507260220 METAR ESMX 260220Z AUTO 28004KT 230V320 9999 BKN099 12/11 Q1002=
200507260150 METAR ESMX 260150Z AUTO 27005KT 9999 BKN007 BKN100 12/12 Q1002=
200507260120 METAR ESMX 260120Z AUTO 27005KT 240V300 9999 FEW004 SCT005 BKN007 13/12 Q1002=
200507260050 METAR ESMX 260050Z AUTO VRB03KT 9999 FEW004 SCT006 OVC008 13/12 Q1002=
200507260020 METAR ESMX 260020Z 27006KT 240V310 9999 BKN004 OVC007 13/13 Q1002=
200507252350 METAR ESMX 252350Z 25006KT 8000 BR BKN002 OVC006 14/13 Q1002=
200507252320 METAR ESMX 252320Z 25005KT 9999 OVC003 14/13 Q1002=
200507252250 METAR ESMX 252250Z 24005KT 9999 OVC005 14/13 Q1002=
200507252220 METAR ESMX 252220Z 24005KT 9999 BKN005 OVC008 14/13 Q1002=
200507252150 METAR ESMX 252150Z 24005KT 9999 BKN005 BKN037 14/14 Q1002=
200507252120 METAR ESMX 252120Z 25007KT 210V280 8000 BR FEW003 BKN006 15/14 Q1002=
200507252050 METAR ESMX 252050Z 19007KT 140V210 4000 BR SCT004 BKN006 16/15 Q1001=
200507252020 METAR ESMX 252020Z 16004KT 3300 BR BKN001 OVC005 16/15 Q1001=
200507251950 METAR ESMX 251950Z 14005KT 100V170 2300 -RA BR OVC002 15/15 Q1001=
200507251920 METAR ESMX 251920Z 16005KT 2800 -SHRA OVC003 15/15 Q1001=
200507251850 METAR ESMX 251850Z 15005KT 110V180 2000 -SHRA OVC003 15/15 Q1001=
200507251820 METAR ESMX 251820Z 14005KT 100V170 3000 -RA BR OVC003 15/15 Q1001=
200507251750 METAR ESMX 251750Z 15005KT 120V180 1700 -RA BR OVC003 15/14 Q1001=
200507251720 METAR ESMX 251720Z 15005KT 100V170 2500 BR OVC004 15/14 Q1002=
200507251650 METAR ESMX 251650Z 15007KT 100V170 4100 -SHRA BR OVC004 15/14 Q1002=
200507251620 METAR ESMX 251620Z 14005KT 080V190 2500 RA BR BKN004 OVC008 15/14 Q1002=
200507251550 METAR ESMX 251550Z 14005KT 100V200 2000 -RA BR BKN005 15/14 Q1002=
200507251520 METAR ESMX 251520Z 13005KT 060V160 4000 -RA FEW006 BKN010 15/14 Q1002=
200507251450 METAR ESMX 251450Z 15007KT 090V180 5000 -SHRA FEW007 BKN010 15/14 Q1002=
200507251420 METAR ESMX 251420Z 15005KT 110V170 9999 SCT015 BKN020 16/13 Q1002=
200507251350 METAR ESMX 251350Z VRB07KT 9999 -RA BKN020 17/13 Q1003=
200507251320 METAR ESMX 251320Z 14008KT 110V190 9999 FEW020 SCT030 BKN080 17/12 Q1003=
200507251250 METAR ESMX 251250Z 16009KT 130V190 9999 SCT020 BKN080 17/13 Q1003=
200507251220 METAR ESMX 251220Z 16010KT 9999 SCT030 BKN073 18/13 Q1003=
200507251150 METAR ESMX 251150Z 16006KT 120V200 9999 FEW024 BKN028 18/13 Q1003=
200507251120 METAR ESMX 251120Z 16006KT 120V200 9999 FEW030 BKN038 18/13 Q1003=
200507251050 METAR ESMX 251050Z 16006KT 9999 SCT020 BKN033 BKN038 17/13 Q1003=
200507251020 METAR ESMX 251020Z 15004KT 110V210 9999 FEW019 BKN021 18/13 Q1003=
200507250950 METAR ESMX 250950Z 17006KT 140V200 9999 FEW018 BKN020 17/13 Q1003=
200507250920 METAR ESMX 250920Z VRB03KT 9999 FEW014 SCT020 BKN035 17/13 Q1004=
200507250850 METAR ESMX 250850Z VRB03KT 9999 FEW014 SCT018 BKN030 16/13 Q1004=
200507250820 METAR ESMX 250820Z VRB03KT 9999 SCT013 BKN034 15/12 Q1004=
200507250750 METAR ESMX 250750Z 18004KT 9999 BKN014 15/11 Q1004=
200507250720 METAR ESMX 250720Z 18007KT 9999 BKN018 14/11 Q1004=
200507250650 METAR ESMX 250650Z 18008KT 9999 SCT021 BKN034 14/11 Q1004=
200507250620 METAR ESMX 250620Z 19009KT 9999 FEW021 BKN030 14/11 Q1004=
200507250550 METAR ESMX 250550Z 19009KT 140V210 9999 FEW025 14/11 Q1004=
200507250520 METAR ESMX 250520Z 17005KT 9999 FEW030 13/11 Q1004=
200507250450 METAR ESMX 250450Z 18006KT 9999 FEW025 12/11 Q1004=
200507250420 METAR ESMX 250420Z 18005KT 160V220 9999 FEW010 12/11 Q1004=
200507250350 METAR ESMX 250350Z 18004KT 9999 FEW010 11/10 Q1004=
200507250020 METAR ESMX 250020Z 20007KT 9999 FEW006 SCT010 BKN015 13/12 Q1004 REDZ=
200507242350 METAR ESMX 242350Z 19006KT 9999 FEW009 SCT034 OVC039 13/12 Q1004=
200507242320 METAR ESMX 242320Z 18006KT 9999 FEW017 OVC038 13/12 Q1004=
200507242250 METAR ESMX 242250Z 18005KT 9999 OVC038 13/12 Q1004=
200507242220 METAR ESMX 242220Z 18005KT 9999 OVC037 14/12 Q1004=
200507242150 METAR ESMX 242150Z 18006KT 9999 FEW027 OVC034 14/12 Q1004=
200507242120 METAR ESMX 242120Z 18006KT 9999 FEW016 OVC031 14/12 Q1004=
200507242020 METAR ESMX 242020Z 17005KT 9999 OVC035 14/12 Q1004=
200507241950 METAR ESMX 241950Z 19005KT 9999 OVC034 14/12 Q1004=
200507241920 METAR ESMX 241920Z 21006KT 9999 FEW020 BKN034 14/12 Q1004=
200507241850 METAR ESMX 241850Z 20007KT 9999 FEW015 BKN022 14/12 Q1004=
200507241820 METAR ESMX 241820Z 20006KT 9999 FEW020 OVC025 15/12 Q1004=
200507241750 METAR ESMX 241750Z 22008KT 190V250 9999 FEW027 OVC030 15/12 Q1004=
200507241720 METAR ESMX 241720Z 22007KT 180V250 9999 FEW016 BKN021 OVC029 15/12 Q1003=
200507241650 METAR ESMX 241650Z 23009KT 200V280 9999 SCT018 BKN021 15/12 Q1003=
200507241620 METAR ESMX 241620Z 23006KT 190V280 9999 FEW016 SCT019 BKN023 16/13 Q1003=
200507241550 METAR ESMX 241550Z 23009KT 200V270 9999 FEW014 BKN019 BKN028 16/13 Q1003=
200507241520 METAR ESMX 241520Z 26007KT 210V290 9999 -SHRA FEW010 SCT016 BKN022 15/13 Q1003=
200507241450 METAR ESMX 241450Z 23009G19KT 9999 -SHRA FEW010 BKN013 BKN032 16/14 Q1003=
200507241420 METAR ESMX 241420Z 22009KT 190V260 9999 -SHRA FEW015 SCT020 BKN024 17/14 Q1003=
200507241350 METAR ESMX 241350Z 21008KT 180V250 9999 SCT016 BKN027 17/13 Q1002=
200507241320 METAR ESMX 241320Z 23008KT 9999 FEW014 BKN027 BKN032 17/14 Q1002=
200507241250 METAR ESMX 241250Z 23010KT 9999 -SHRA FEW009 SCT012 BKN019 17/14 Q1002=
200507241220 METAR ESMX 241220Z 21009KT 9999 FEW010 SCT013 BKN017 17/15 Q1002=
200507241150 METAR ESMX 241150Z AUTO 20008KT 9999 FEW009 SCT011 BKN018 16/14 Q1002=
200507241120 METAR ESMX 241120Z AUTO 22010KT 190V250 9999 FEW010 BKN012 OVC021 16/14 Q1002=
200507241050 METAR ESMX 241050Z AUTO 22008KT 9999 FEW013 SCT023 BKN031 17/14 Q1002=
200507241020 METAR ESMX 241020Z AUTO 24006KT 9999 FEW009 BKN015 OVC019 16/14 Q1002=
200507240950 METAR ESMX 240950Z AUTO 23008KT 200V260 9999 FEW007 SCT009 BKN011 16/14 Q1002=
200507240920 METAR ESMX 240920Z AUTO 22008KT 200V260 9999 FEW006 SCT008 BKN013 15/14 Q1002=
200507240850 METAR ESMX 240850Z AUTO 23009KT 9000 BR FEW006 SCT007 BKN010 15/14 Q1001=
200507240820 METAR ESMX 240820Z AUTO 22007KT 9999 FEW005 SCT008 BKN011 15/14 Q1001 REDZ=
200507240750 METAR ESMX 240750Z AUTO 24006KT 2900 -SHRA FEW005 SCT007 BKN011 15/14 Q1001=
200507240720 METAR ESMX 240720Z AUTO 23007KT 200V280 6000 -RA FEW006 SCT008 BKN010 15/14 Q1001=
200507240650 METAR ESMX 240650Z AUTO 25006KT 9999 FEW006 SCT008 BKN009 15/14 Q1001 REDZ=
200507240620 METAR ESMX 240620Z AUTO 23006KT 190V270 9999 FEW005 SCT007 BKN008 15/14 Q1000 REDZ=
200507240550 METAR ESMX 240550Z AUTO 23005KT 200V260 6000 -SHRA FEW004 BKN006 OVC010 15/14 Q1000=
200507240520 METAR ESMX 240520Z AUTO 25005KT 210V280 9000 -SHRA FEW004 BKN005 BKN009 14/14 Q1000=
200507240450 METAR ESMX 240450Z AUTO 24006KT 4600 BR FEW004 SCT014 BKN035 14/14 Q1000=
200507240420 METAR ESMX 240420Z AUTO VRB03KT 9999 FEW004 SCT027 14/14 Q1000 REDZ=
200507240350 METAR ESMX 240350Z AUTO 26005KT 4000 -SHRA FEW003 SCT005 BKN007 14/14 Q1000=
200507240320 METAR ESMX 240320Z AUTO 24004KT 8000 FEW005 SCT009 14/14 Q1000 REDZ=
200507240250 METAR ESMX 240250Z AUTO 24004KT 6000 DZ FEW005 14/14 Q1000=
200507240220 METAR ESMX 240220Z AUTO 25005KT 7000 -RA FEW006 SCT008 BKN011 14/14 Q1000=
200507240150 METAR ESMX 240150Z AUTO 25004KT 7000 -RA FEW005 SCT007 BKN011 14/14 Q1000=
200507240120 METAR ESMX 240120Z AUTO 25005KT 210V290 6000 +DZ FEW005 SCT008 BKN010 14/14 Q1000=
200507240050 METAR ESMX 240050Z AUTO 23005KT 6000 DZ FEW005 SCT008 BKN012 14/14 Q1000=
200507240020 METAR ESMX 240020Z AUTO 25005KT 9999 -RA FEW006 SCT008 BKN040 15/14 Q0999=
200507232350 METAR ESMX 232350Z AUTO 24005KT 8000 RA FEW009 SCT019 15/14 Q0999=
200507232320 METAR ESMX 232320Z AUTO 22005KT 190V250 8000 RA FEW009 15/14 Q0999=
200507232250 METAR ESMX 232250Z AUTO 23005KT 8000 -RA FEW009 SCT020 15/14 Q0999=
200507232220 METAR ESMX 232220Z AUTO 22005KT 9999 -RA FEW016 SCT045 15/14 Q0999=
200507232150 METAR ESMX 232150Z AUTO 23005KT 180V260 9999 -RA SCT088 15/14 Q0999=
200507232120 METAR ESMX 232120Z AUTO 24006KT 9999 -DZ BKN088 15/14 Q0999=
200507232050 METAR ESMX 232050Z AUTO 22005KT 190V260 9999 SHRA FEW088 15/14 Q0999=
200507232020 METAR ESMX 232020Z AUTO 25006KT 9999 -SHRA FEW016 SCT021 15/14 Q0999=
200507231950 METAR ESMX 231950Z AUTO 24007KT 210V270 9999 FEW016 SCT021 BKN026 15/14 Q0999 RERA=
200507231920 METAR ESMX 231920Z AUTO 23007KT 9999 FEW017 SCT021 BKN029 16/14 Q0999 RERA=
200507231850 METAR ESMX 231850Z AUTO 25007KT 210V280 9999 -RA SCT016 BKN020 16/14 Q0998=
200507231820 METAR ESMX 231820Z AUTO 25009KT 220V280 9999 -RA FEW017 SCT030 16/14 Q0998=
200507231750 METAR ESMX 231750Z AUTO 24010KT 9999 FEW018 SCT027 BKN038 17/14 Q0998=
200507231720 METAR ESMX 231720Z AUTO 26010KT 230V300 9999 FEW025 BKN089 17/14 Q0998=
200507231650 METAR ESMX 231650Z AUTO 26010KT 220V300 9999 FEW023 BKN095 18/14 Q0998=
200507231620 METAR ESMX 231620Z AUTO 25010KT 220V290 9999 FEW025 SCT095 18/15 Q0998 RERA=
200507231550 METAR ESMX 231550Z AUTO 25012KT 210V290 9999 -RA FEW022 SCT026 BKN069 18/15 Q0997=
200507231520 METAR ESMX 231520Z AUTO 25011KT 9999 FEW022 SCT075 BKN100 19/16 Q0997=
200507231450 METAR ESMX 231450Z AUTO 25010KT 210V290 9999 FEW020 SCT051 BKN100 17/15 Q0997 RERA=
200507231420 METAR ESMX 231420Z AUTO 25009KT 200V310 2400 +RA FEW006 SCT020 BKN100 15/15 Q0997=
200507231350 METAR ESMX 231350Z AUTO 23007KT 200V260 8000 +RA FEW008 SCT027 16/15 Q0997=
200507231320 METAR ESMX 231320Z AUTO 25010KT 230V300 9999 RA FEW019 SCT022 BKN026 18/15 Q0997=
200507231250 METAR ESMX 231250Z AUTO 25012KT 200V290 9999 FEW017 SCT024 BKN047 19/15 Q0997 RERA=
200507231220 METAR ESMX 231220Z AUTO 24009KT 210V280 9999 FEW015 SCT024 BKN061 18/16 Q0997 RERA=
200507231150 METAR ESMX 231150Z AUTO 24012G23KT 9999 -RA FEW015 SCT017 BKN022 17/15 Q0997=
200507231120 METAR ESMX 231120Z AUTO 25013G23KT 200V290 9999 FEW014 BKN017 BKN073 18/15 Q0996=
200507231050 METAR ESMX 231050Z AUTO 24013G23KT 190V270 9999 BKN013 OVC021 18/16 Q0997=
200507231020 METAR ESMX 231020Z AUTO 26011KT 230V290 9999 FEW011 OVC013 18/15 Q0997 RERA=
200507230950 METAR ESMX 230950Z AUTO 25011KT 220V280 9999 FEW010 BKN013 BKN076 17/15 Q0997 RERA=
200507230920 METAR ESMX 230920Z AUTO 25011KT 9999 -SHRA FEW009 SCT012 BKN015 17/15 Q0997=
200507230850 METAR ESMX 230850Z AUTO 23008KT 190V260 9999 -SHRA FEW009 SCT013 BKN016 16/15 Q0997=
200507230820 METAR ESMX 230820Z AUTO 25008KT 9999 -SHRA FEW010 OVC014 16/15 Q0997=
200507230750 METAR ESMX 230750Z AUTO 25007KT 9999 -SHRA FEW008 SCT013 BKN016 16/14 Q0997=
200507230720 METAR ESMX 230720Z AUTO 22007KT 190V260 9999 -RA FEW023 SCT038 BKN042 15/14 Q0997=
200507230650 METAR ESMX 230650Z AUTO 25008KT 9999 -RA FEW043 SCT057 15/13 Q0997=
200507230620 METAR ESMX 230620Z AUTO 23008KT 9999 -RA FEW053 SCT068 15/13 Q0998=
200507230550 METAR ESMX 230550Z AUTO 25007KT 220V290 9999 -SHRA FEW065 SCT080 14/13 Q0998=
200507230520 METAR ESMX 230520Z AUTO 24007KT 200V260 9999 -SHRA FEW049 14/13 Q0998=
200507230450 METAR ESMX 230450Z AUTO 24006KT 200V270 9999 SCT043 BKN054 14/13 Q0998 REDZ=
200507230420 METAR ESMX 230420Z AUTO 24007KT 9999 -SHRA FEW046 BKN063 14/13 Q0998=
200507230350 METAR ESMX 230350Z AUTO 25006KT 220V290 9999 -SHRA BKN067 BKN083 14/13 Q0999=
200507230320 METAR ESMX 230320Z AUTO 22005KT 190V250 9999 -SHRA BKN074 13/12 Q0999=
200507230250 METAR ESMX 230250Z AUTO 25004KT 9999 -SHRA BKN072 BKN085 13/12 Q0999=
200507230220 METAR ESMX 230220Z AUTO VRB03KT 9999 FEW079 13/12 Q1000 RERA=
200507230150 METAR ESMX 230150Z AUTO VRB02KT 9999 -RA NSC 13/12 Q1000=
200507230120 METAR ESMX 230120Z AUTO VRB02KT 9999 FEW071 13/12 Q1000=
200507230050 METAR ESMX 230050Z AUTO VRB03KT 9999 NSC 13/12 Q1000=
200507230020 METAR ESMX 230020Z AUTO 26005KT 9999 NSC 13/12 Q1000=
200507222350 METAR ESMX 222350Z AUTO 27005KT 250V310 9999 NSC 13/12 Q1001 RERA=
200507222320 METAR ESMX 222320Z AUTO 26004KT 210V290 9999 RA FEW085 13/12 Q1001=
200507222250 METAR ESMX 222250Z AUTO VRB03KT 9999 BKN082 13/12 Q1001=
200507222220 METAR ESMX 222220Z AUTO VRB03KT 9999 SCT079 BKN095 13/12 Q1002=
200507222150 METAR ESMX 222150Z AUTO 30004KT 9999 FEW013 SCT016 BKN093 13/12 Q1002=
200507222120 METAR ESMX 222120Z AUTO 31005KT 280V340 9999 FEW061 BKN080 14/12 Q1002 REDZ=
200507222050 METAR ESMX 222050Z AUTO 31004KT 9999 SCT040 BKN080 14/13 Q1002 REDZ=
200507222020 METAR ESMX 222020Z AUTO 31004KT 260V340 9999 -SHRA FEW029 BKN037 OVC063 14/13 Q1002=
200507221950 METAR ESMX 221950Z AUTO 32006KT 290V350 9999 -RA FEW019 SCT029 BKN042 14/13 Q1002=
200507221920 METAR ESMX 221920Z AUTO 01006KT 340V050 9999 -SHRA FEW039 SCT080 14/13 Q1002=
200507221850 METAR ESMX 221850Z AUTO 36009KT 330V030 9999 -SHRA SCT056 15/13 Q1002=
200507221820 METAR ESMX 221820Z AUTO 32005KT 9999 -SHRA SCT058 15/13 Q1002=
200507221750 METAR ESMX 221750Z AUTO 31004KT 9999 FEW089 15/13 Q1002=
200507221720 METAR ESMX 221720Z 32003KT 9999 SCT089 BKN150 15/13 Q1002 RERA=
200507221650 METAR ESMX 221650Z 36005KT 9999 -SHRA SCT035 BKN150 15/12 Q1002=
200507221620 METAR ESMX 221620Z 33006KT 9999 -SHRA SCT027 BKN045 BKN080 15/12 Q1002=
200507221550 METAR ESMX 221550Z 01010KT 9999 TS SCT026 SCT035CB BKN040 15/12 Q1003=
200507221520 METAR ESMX 221520Z 30007KT 240V320 9999 FEW025 SCT032CB BKN079 19/14 Q1002 RERA=
200507221450 METAR ESMX 221450Z 27004KT 9999 SCT030 BKN075 18/14 Q1002 RERA=
200507221420 METAR ESMX 221420Z 26005KT 9999 -SHRA SCT030 18/14 Q1002=
200507221320 METAR ESMX 221320Z 32004KT 9999 VCSH SCT035CB SCT045 15/12 Q1002=
200507221250 METAR ESMX 221250Z 32009KT 9999 SHRA FEW025 SCT042CB SCT045 15/12 Q1003=
200507221220 METAR ESMX 221220Z 36005KT 330V060 9999 VCSH FEW035CB SCT065 19/13 Q1002=
200507221150 METAR ESMX 221150Z 34004KT 9999 -SHRA FEW035CB SCT072 18/13 Q1002=
200507221120 METAR ESMX 221120Z 02008KT 9999 FEW025CB SCT071 17/12 Q1002 RERA=
200507221050 METAR ESMX 221050Z 02007KT 9999 SHRA FEW025CB SCT072 15/13 Q1003=
200507221020 METAR ESMX 221020Z 01010KT 340V040 9999 -SHRA FEW024CB SCT054 16/13 Q1003=
200507220950 METAR ESMX 220950Z 02009KT 9999 FEW012 SCT025 17/13 Q1002 RERA=
200507220920 METAR ESMX 220920Z 35009KT 320V020 9999 -SHRA FEW015 SCT062 BKN082 17/13 Q1002=
200507220850 METAR ESMX 220850Z 02009KT 320V030 9999 -SHRA FEW020 SCT023 BKN030 15/12 Q1003=
200507220820 METAR ESMX 220820Z 02009KT 9999 -SHRA FEW016 SCT024 BKN037 15/12 Q1002=
200507220750 METAR ESMX 220750Z 35010KT 9999 FEW015 SCT028 BKN038 15/12 Q1002=
200507220720 METAR ESMX 220720Z 01009KT 340V040 9999 FEW016 SCT019 BKN023 15/12 Q1002=
200507220650 METAR ESMX 220650Z 03010KT 350V070 9999 FEW014 BKN017 OVC022 15/12 Q1002=
200507220620 METAR ESMX 220620Z 02010KT 9999 FEW013 BKN016 BKN020 15/12 Q1002=
200507220550 METAR ESMX 220550Z 02010KT 9999 FEW011 SCT017 OVC020 14/12 Q1002=
200507220520 METAR ESMX 220520Z 36011KT 9999 SCT010 BKN013 BKN019 14/12 Q1001=
200507220450 METAR ESMX 220450Z 02012KT 9999 BKN009 14/11 Q1001=
200507220420 METAR ESMX 220420Z 36009KT 9999 FEW009 SCT011 13/11 Q1001=
200507220350 METAR ESMX 220350Z 01009KT 9999 FEW009 BKN011 13/11 Q1001=
200507220320 METAR ESMX 220320Z AUTO 03009KT 9999 FEW009 13/11 Q1001=
200507220250 METAR ESMX 220250Z AUTO 35012KT 9999 FEW007 SCT011 OVC014 13/11 Q1001=
200507220220 METAR ESMX 220220Z AUTO 35011KT 9999 FEW008 OVC010 13/11 Q1001=
200507220150 METAR ESMX 220150Z AUTO 34011KT 9999 FEW008 BKN009 BKN012 13/11 Q1001=
200507220120 METAR ESMX 220120Z AUTO 35009KT 9999 FEW007 SCT009 BKN010 13/11 Q1001=
200507220050 METAR ESMX 220050Z AUTO 35010KT 9999 FEW008 BKN009 12/11 Q1001=
200507220020 METAR ESMX 220020Z 36011KT 9999 FEW009 SCT011 12/11 Q1001=
200507212350 METAR ESMX 212350Z 35010KT 9999 FEW007 BKN010 13/11 Q1001=
200507212320 METAR ESMX 212320Z 01011KT 9999 SCT009 13/11 Q1001=
200507212250 METAR ESMX 212250Z 35011KT 9999 SCT009 13/12 Q1001=
200507212220 METAR ESMX 212220Z 36009KT 9999 FEW008 SCT100 13/12 Q1001=
200507212150 METAR ESMX 212150Z 36008KT CAVOK 13/11 Q1001=
200507212120 METAR ESMX 212120Z 01008KT CAVOK 13/11 Q1001=
200507212050 METAR ESMX 212050Z 01007KT 9999 FEW030 13/11 Q1001=
200507212020 METAR ESMX 212020Z 01008KT 9999 FEW030 SCT050 13/11 Q1001=
200507211950 METAR ESMX 211950Z 35010KT 9999 FEW040CB 13/11 Q1001=
200507211920 METAR ESMX 211920Z 02010KT 9999 FEW040 SCT080 14/11 Q1001=
200507211850 METAR ESMX 211850Z 01006KT 340V040 9999 FEW040 SCT060 15/11 Q1000=
200507211820 METAR ESMX 211820Z 01006KT 9999 FEW025 SCT075 15/11 Q1000=
200507211750 METAR ESMX 211750Z 01007KT 350V050 9999 FEW025 SCT080 15/11 Q1000=
200507211720 METAR ESMX 211720Z 01010KT 9999 FEW028 SCT075 17/12 Q1000=
200507211650 METAR ESMX 211650Z 35008KT 9999 FEW025 16/12 Q0999=
200507211620 METAR ESMX 211620Z 36006KT 9999 FEW025 SCT070 16/11 Q1000=
200507211550 METAR ESMX 211550Z 03008KT 340V050 9999 FEW035 17/11 Q1000=
200507211520 METAR ESMX 211520Z 01005KT 9999 FEW030 SCT078 15/12 Q1000=
200507211450 METAR ESMX 211450Z 02008KT 9999 -RA FEW034 SCT060 15/12 Q1000=
200507211420 METAR ESMX 211420Z 02007KT 9999 -SHRA SCT033 BKN060 16/11 Q1000=
200507211350 METAR ESMX 211350Z 02006KT 340V060 9999 FEW024 SCT089 16/11 Q1000=
200507211320 METAR ESMX 211320Z VRB02KT 9999 VCSH FEW024 SCT030 18/11 Q1000=
200507211250 METAR ESMX 211250Z 04004KT 9999 FEW021 SCT026 16/11 Q1000=
200507211220 METAR ESMX 211220Z VRB03KT 9999 FEW017 SCT023 BKN150 17/12 Q1000=
200507211150 METAR ESMX 211150Z VRB03KT 9999 FEW015 SCT055 BKN150 15/12 Q1000 RERA=
200507211120 METAR ESMX 211120Z VRB03KT 9999 SHRA SCT010 BKN057 14/12 Q1000=
200507211050 METAR ESMX 211050Z 02009KT 9999 -RA FEW010 SCT025 BKN060 14/12 Q1000=
200507211020 METAR ESMX 211020Z 01007KT 330V030 9999 -SHRA SCT015 BKN060 16/13 Q0999=
200507210950 METAR ESMX 210950Z 05004KT 010V140 9999 SCT020 BKN070 17/10 Q0999=
200507210920 METAR ESMX 210920Z 34004K 9999 SCT020 BKN064 18/12 Q0999=
200507210850 METAR ESMX 210850Z VRB03KT 9999 SCT020 SCT028 BKN077 17/12 Q1000=
200507210820 METAR ESMX 210820Z 36004KT 9999 SCT020 SCT040 15/11 Q1000=
200507210750 METAR ESMX 210750Z 33004KT 9999 SCT011 BKN017 14/11 Q1000=
200507210720 METAR ESMX 210720Z VRB02KT 9999 FEW004 SCT007 BKN010 15/12 Q1000=
200507210650 METAR ESMX 210650Z VRB01KT 9999 FEW003 SCT005 OVC007 13/12 Q1000=
200507210620 METAR ESMX 210620Z VRB02KT 9999 BR SCT002 BKN006 12/11 Q1000=
200507210550 METAR ESMX 210550Z VRB03KT 7000 BR SCT001 OVC004 11/11 Q1000=
200507210520 METAR ESMX 210520Z VRB01KT 7000 BR SCT001 OVC004 11/11 Q1000=
200507210450 METAR ESMX 210450Z VRB02KT 9999 FEW002 BKN004 11/11 Q1000=
200507210420 METAR ESMX 210420Z VRB03KT 9999 BKN004 11/11 Q0999=
200507210350 METAR ESMX 210350Z AUTO VRB02KT 7000 BR OVC003 11/11 Q1000=
200507210320 METAR ESMX 210320Z AUTO VRB03KT 4600 BR OVC004 11/11 Q1000=
200507210250 METAR ESMX 210250Z AUTO VRB03KT 5000 BR OVC005 11/11 Q1000=
200507210220 METAR ESMX 210220Z AUTO VRB03KT 3100 BR FEW003 OVC005 11/11 Q1000=
200507210150 METAR ESMX 210150Z AUTO VRB03KT 3600 BR OVC004 12/11 Q1000=
200507210120 METAR ESMX 210120Z AUTO VRB03KT 9999 OVC003 12/11 Q1000=
200507210050 METAR ESMX 210050Z AUTO 23004KT 200V260 9999 OVC003 12/11 Q1000=
200507210020 METAR ESMX 210020Z AUTO VRB03KT 9999 OVC002 12/11 Q1001=
200507202350 METAR ESMX 202350Z 19004KT 9999 FEW003 BKN005 12/11 Q1001=
200507202320 METAR ESMX 202320Z 18004KT 9999 SCT005 BKN055 12/11 Q1001=
200507202250 METAR ESMX 202250Z 20004KT 9999 FEW004 BKN060 12/11 Q1001=
200507202220 METAR ESMX 202220Z 19004KT 9999 SCT004 BKN040 12/11 Q1001=
200507202150 METAR ESMX 202150Z 21005KT 9999 FEW007 SCT025 BKN040 12/11 Q1001=
200507202050 METAR ESMX 202050Z 18004KT 9999 -RA FEW004 SCT020 BKN060 12/11 Q1002=
200507202020 METAR ESMX 202020Z 17005KT 9999 -RA FEW010 SCT020 BKN045 12/12 Q1002=
200507201950 METAR ESMX 201950Z 16004KT 120V180 9999 -RA FEW007 BKN050 12/12 Q1002=
200507201920 METAR ESMX 201920Z 17004KT 9999 -DZ FEW015 SCT063 BKN150 12/11 Q1002=
200507201850 METAR ESMX 201850Z VRB02KT 9999 -RA SCT065 BKN150 12/11 Q1002=
200507201820 METAR ESMX 201820Z 21004KT 9999 -RA SCT067 BKN150 12/11 Q1002=
200507201750 METAR ESMX 201750Z 20005KT 9999 -RA BKN062 12/11 Q1002=
200507201720 METAR ESMX 201720Z 24008KT 9999 -RA FEW009 SCT049 BKN060 13/11 Q1002=
200507201650 METAR ESMX 201650Z 18006KT 9999 FEW007 SCT013 BKN019 14/13 Q1002=
200507201620 METAR ESMX 201620Z 20007KT 9999 FEW007 SCT008 BKN010 14/13 Q1003=
200507201550 METAR ESMX 201550Z 19008KT 9999 FEW007 SCT010 BKN080 14/12 Q1003 RERA=
200507201520 METAR ESMX 201520Z 19008KT 9999 FEW007 SCT027 BKN100 13/12 Q1003 RERA=
200507201450 METAR ESMX 201450Z 19007KT 9999 -SHRA FEW010 SCT030 BKN150 13/12 Q1003=
200507201420 METAR ESMX 201420Z 19009KT 9999 -SHRA FEW015 BKN065 BKN150 13/12 Q1004=
200507201350 METAR ESMX 201350Z 20007KT 9999 -SHRA FEW027 BKN056 13/12 Q1004=
200507201250 METAR ESMX 201250Z 22008KT 170V250 9999 FEW014 BKN060 15/12 Q1004=
200507201220 METAR ESMX 201220Z 23007KT 190V270 9999 FEW011 SCT015 15/13 Q1004=
200507201150 METAR ESMX 201150Z 21007KT 9999 -SHRA FEW014 BKN063 15/13 Q1004=
200507201120 METAR ESMX 201120Z 21009KT 9999 FEW015 BKN030 16/13 Q1004=
200507201050 METAR ESMX 201050Z 20008KT 170V250 9999 -SHRA FEW011 SCT042 BKN060 15/13 Q1005=
200507201020 METAR ESMX 201020Z 22006KT 190V260 7000 SHRA FEW012 SCT024 BKN043 13/12 Q1005=
200507200950 METAR ESMX 200950Z 21007KT 160V240 9999 -SHRA SCT015 SCT041 BKN072 16/13 Q1005=
200507200920 METAR ESMX 200920Z 22009KT 170V250 9999 -SHRA SCT020 BKN065 15/12 Q1005=
200507200850 METAR ESMX 200850Z 22010KT 180V250 9999 FEW018 SCT040 BKN072 15/11 Q1005=
200507200820 METAR ESMX 200820Z 23010KT 200V260 9999 FEW016 SCT024 BKN065 15/12 Q1005=
200507200750 METAR ESMX 200750Z 22011KT 9999 FEW013 SCT020 BKN031 14/12 Q1005=
200507200720 METAR ESMX 200720Z 21010KT 170V250 9999 FEW013 BKN031 15/12 Q1005=
200507200650 METAR ESMX 200650Z 20010KT 9999 FEW010 SCT014 BKN016 14/12 Q1006=
200507200620 METAR ESMX 200620Z 22010KT 9999 BKN05 14/12 Q1006=
200507200550 METAR ESMX 200550Z 21009KT 9999 FEW009 SCT014 14/12 Q1006=
200507200520 METAR ESMX 200520Z 20008KT 9999 FEW008 SCT047 14/12 Q1006=
200507200450 METAR ESMX 200450Z 22008KT 9999 SCT006 13/12 Q1006=
200507200420 METAR ESMX 200420Z 20007KT 9999 SCT007 BKN020 12/11 Q1006=
200507200350 METAR ESMX 200350Z AUTO 20005KT 9999 FEW019 SCT027 12/11 Q1006=
200507200320 METAR ESMX 200320Z AUTO 21006KT 9999 NSC 11/11 Q1006=
200507200250 METAR ESMX 200250Z AUTO 21006KT 9999 NSC 11/11 Q1006=
200507200220 METAR ESMX 200220Z AUTO 20007KT 9999 FEW018 12/11 Q1006=
200507200150 METAR ESMX 200150Z AUTO 20006KT 9999 FEW050 11/11 Q1006=
200507200120 METAR ESMX 200120Z AUTO 22006KT 9999 FEW017 SCT046 BKN055 12/11 Q1007=
200507200050 METAR ESMX 200050Z AUTO 20007KT 9999 FEW023 BKN061 13/12 Q1007=
200507200020 METAR ESMX 200020Z AUTO 22005KT 9999 SCT063 13/12 Q1007=
200507192350 METAR ESMX 192350Z 20006KT 9999 FEW025 12/12 Q1007=
200507192320 METAR ESMX 192320Z 19005KT 9000 FEW024 12/12 Q1007=
200507192250 METAR ESMX 192250Z 21004KT 9999 FEW026 12/11 Q1007=
200507192220 METAR ESMX 192220Z 24006KT CAVOK 13/11 Q1007=
200507192150 METAR ESMX 192150Z 25006KT 210V280 CAVOK 13/12 Q1007=
200507192120 METAR ESMX 192120Z 24008KT 200V280 9999 FEW010 SCT044 OVC067 14/12 Q1006=
200507192050 METAR ESMX 192050Z 26010KT 220V280 9999 FEW010 SCT016 BKN024 15/13 Q1006=
200507192020 METAR ESMX 192020Z 23007KT 200V300 9999 FEW009 SCT011 BKN016 15/14 Q1006=
200507191950 METAR ESMX 191950Z 25008KT 9999 FEW007 SCT010 BKN013 15/14 Q1006=
200507191920 METAR ESMX 191920Z 24006KT 200V270 9999 FEW009 SCT015 BKN060 16/15 Q1005=
200507191850 METAR ESMX 191850Z 24006KT 200V270 9999 FEW006 SCT010 BKN015 16/15 Q1005=
200507191820 METAR ESMX 191820Z 24007KT 8000 -RA FEW006 SCT009 BKN030 17/16 Q1005=
200507191750 METAR ESMX 191750Z 22006KT 9999 -RA FEW008 SCT065 BKN090 17/16 Q1005=
200507191720 METAR ESMX 191720Z 21004KT 9999 -SHRA FEW008 BKN050CB 17/16 Q1005=
200507191650 METAR ESMX 191650Z 21007KT 7000 SHRA FEW005 BKN050CB 17/16 Q1005=
200507191620 METAR ESMX 191620Z 24006KT 9999 FEW010 SCT020CB BKN080 18/16 Q1005=
200507191550 METAR ESMX 191550Z 20005KT 9999 SHRA FEW008 SCT060CB 17/16 Q1004=
200507191520 METAR ESMX 191520Z 20006KT 4000 -SHRA FEW007 SCT030 BKN040 18/16 Q1004=
200507191450 METAR ESMX 191450Z 19004KT 150V230 9999 FEW007 SCT010 BKN015 18/17 Q1004=
200507191420 METAR ESMX 191420Z 19005KT 9999 SHRA BKN007 18/16 Q1004=
200507191350 METAR ESMX 191350Z VRB03KT 9999 -SHRA FEW025 BKN090 18/16 Q1004=
200507191320 METAR ESMX 191320Z VRB03KT 9999 -SHRA FEW025 BKN130 17/16 Q1004=
200507191250 METAR ESMX 191250Z 18007G17KT 8000 SHRA FEW018 SCT040 BKN070 16/15 Q1005=
200507191220 METAR ESMX 191220Z 22014G27KT 9999 SHRA FEW023 SCT030CB BKN089 18/14 Q1005=
200507191150 METAR ESMX 191150Z VRB03KT 9999 SCT030CB SCT033 BKN090 22/14 Q1004=
200507191120 METAR ESMX 191120Z 17005KT 130V210 9999 FEW023 SCT030TCU BKN099 22/13 Q1004=
200507191050 METAR ESMX 191050Z 18005KT 100V220 9999 FEW025 BKN090 21/14 Q1005=
200507191020 METAR ESMX 191020Z 20006KT 140V230 9999 FEW025 BKN080 22/13 Q1005=
200507190950 METAR ESMX 190950Z 19007KT 150V230 9999 FEW025 BKN080 21/14 Q1005=
200507190920 METAR ESMX 190920Z VRB02KT 9999 SCT015 BKN073 20/14 Q1005=
200507190850 METAR ESMX 190850Z VRB03KT 9999 SCT013 BKN071 20/16 Q1005=
200507190820 METAR ESMX 190820Z VRB02KT 9999 SCT010 BKN077 19/15 Q1005=
200507190750 METAR ESMX 190750Z VRB02KT 9999 SCT010 BKN076 19/16 Q1005=
200507190720 METAR ESMX 190720Z VRB02KT 9999 SCT020 BKN080 18/15 Q1005=
200507190650 METAR ESMX 190650Z 22004KT 9999 FEW015 SCT025 BKN086 17/15 Q1005=
200507190620 METAR ESMX 190620Z VRB03KT 9999 FEW008 BKN089 17/15 Q1005=
200507190550 METAR ESMX 190550Z VRB02KT 9999 FEW004 BKN095 16/15 Q1005=
200507190520 METAR ESMX 190520Z 22004KT 9999 FEW003 SCT028 BKN100 16/15 Q1005=
200507190450 METAR ESMX 190450Z VRB01KT 0500 R01/0900U R19/0500N FG VV002 14/14 Q1005=
200507190420 METAR ESMX 190420Z VRB02KT 0150 R01/0400V0550N R19/0300N FG VV001 14/14 Q1005=
200507190350 METAR ESMX 190350Z VRB02KT 0500 R01/P1500D R19/0500V1200D FG VV002 15/14 Q1005=
200507190320 METAR ESMX 190320Z AUTO 00000KT 1100 R01/P1500D R19/P1500U FG NSC 13/12 Q1005=
200507190250 METAR ESMX 190250Z AUTO 00000KT 8000 BR SCT098 14/13 Q1005=
200507190220 METAR ESMX 190220Z AUTO VRB01KT 9999 BKN093 BKN110 14/14 Q1005=
200507190150 METAR ESMX 190150Z AUTO VRB02KT 9999 BKN090 15/14 Q1005=
200507190120 METAR ESMX 190120Z AUTO 25004KT 9999 OVC085 15/14 Q1006=
200507190050 METAR ESMX 190050Z AUTO VRB03KT 9999 OVC083 15/14 Q1006=
200507190020 METAR ESMX 190020Z AUTO 23004KT 9999 BKN082 15/14 Q1006=
200507182350 METAR ESMX 182350Z 23004KT 9999 BKN081 OVC092 15/14 Q1006 RERA=
200507182320 METAR ESMX 182320Z VRB03KT 9999 SCT083 15/14 Q1006 RERA=
200507182250 METAR ESMX 182250Z VRB02KT CAVOK 14/13 Q1006=
200507182220 METAR ESMX 182220Z VRB03KT CAVOK 14/13 Q1006=
200507182150 METAR ESMX 182150Z VRB02KT CAVOK 15/13 Q1006=
200507182120 METAR ESMX 182120Z VRB02KT CAVOK 15/13 Q1007=
200507182050 METAR ESMX 182050Z VRB03KT CAVOK 16/14 Q1007=
200507182020 METAR ESMX 182020Z 26004KT 240V310 CAVOK 17/14 Q1006=
200507181950 METAR ESMX 181950Z 27004KT CAVOK 19/14 Q1006=
200507181920 METAR ESMX 181920Z 26005KT 230V300 CAVOK 19/15 Q1006=
200507181850 METAR ESMX 181850Z 30005KT 250V320 CAVOK 20/15 Q1006=
200507181820 METAR ESMX 181820Z VRB01KT 9999 VCSH FEW056CB SCT066 20/15 Q1006=
200507181750 METAR ESMX 181750Z VRB02KT CAVOK 21/14 Q1006=
200507181720 METAR ESMX 181720Z 27005KT 240V350 CAVOK 23/12 Q1006=
200507181650 METAR ESMX 181650Z 29005KT CAVOK 23/14 Q1006=
200507181620 METAR ESMX 181620Z 30005KT CAVOK 22/13 Q1006=
200507181550 METAR ESMX 181550Z 28004KT 230V320 9999 SCT048 21/14 Q1006=
200507181520 METAR ESMX 181520Z 26006KT 220V300 9999 SCT048 20/15 Q1006=
200507181450 METAR ESMX 181450Z 23004KT 9999 FEW030 FEW050CB SCT073 21/15 Q1006=
200507181420 METAR ESMX 181420Z 23006KT 210V270 9999 -SHRA FEW023 SCT052 BKN068 18/15 Q1007=
200507181350 METAR ESMX 181350Z 30003KT 9999 FEW025 SCT045CB SCT100 21/14 Q1007=
200507181320 METAR ESMX 181320Z 33007KT 9999 FEW025 SCT050CB 20/14 Q1007=
200507181250 METAR ESMX 181250Z 30007KT 260V320 9999 FEW040CB SCT060 22/14 Q1007=
200507181220 METAR ESMX 181220Z 28006KT 230V300 9999 SCT045 22/13 Q1007=
200507181150 METAR ESMX 181150Z 28006KT 250V320 9999 FEW040 SCT055 23/13 Q1007=
200507181120 METAR ESMX 181120Z VRB05KT 9999 SCT040 23/13 Q1007=
200507181050 METAR ESMX 181050Z 34005KT 250V030 9999 SCT040 22/12 Q1007=
200507181020 METAR ESMX 181020Z 29006KT 220V350 9999 FEW032 21/13 Q1007=
200507180950 METAR ESMX 180950Z VRB06KT 9999 SCT028 21/14 Q1007=
200507180920 METAR ESMX 180920Z 27006KT 240V350 9999 FEW022 SCT030 20/14 Q1007=
200507180850 METAR ESMX 180850Z 28005KT 240V020 9999 SCT025 20/14 Q1007=
200507180820 METAR ESMX 180820Z 29006KT 250V330 9999 SCT015 19/15 Q1007=
200507180750 METAR ESMX 180750Z 26004KT 160V300 9999 SCT010 18/14 Q1007=
200507180720 METAR ESMX 180720Z 30005KT 250V330 9999 FEW008 SCT010 17/14 Q1007=
200507180650 METAR ESMX 180650Z 30004KT 260V330 9999 FEW005 BKN009 16/14 Q1008=
200507180620 METAR ESMX 180620Z 30005KT 250V320 9999 BKN006 15/14 Q1008=
200507180550 METAR ESMX 180550Z 28004KT 9999 BKN003 15/14 Q1007=
200507180520 METAR ESMX 180520Z 31005KT 9999 OVC003 15/14 Q1007=
200507180450 METAR ESMX 180450Z 30004KT 270V350 9999 BKN004 14/14 Q1007=
200507180420 METAR ESMX 180420Z 29004KT 260V330 9999 BKN003 14/14 Q1007=
200507180350 METAR ESMX 180350Z AUTO 29004KT 250V320 9999 BKN002 OVC005 14/14 Q1007=
200507180320 METAR ESMX 180320Z AUTO 30004KT 260V340 9999 OVC003 14/14 Q1007=
200507180250 METAR ESMX 180250Z AUTO VRB03KT 9999 BKN003 14/14 Q1007=
200507180220 METAR ESMX 180220Z AUTO 30005KT 280V340 9999 BKN005 BKN007 15/14 Q1007=
200507180150 METAR ESMX 180150Z AUTO VRB03KT 9999 OVC005 15/14 Q1007=
200507180120 METAR ESMX 180120Z AUTO 31004KT 9999 FEW004 OVC006 15/14 Q1007=
200507180050 METAR ESMX 180050Z AUTO 32005KT 290V350 9999 OVC003 15/14 Q1007=
200507180020 METAR ESMX 180020Z AUTO 30004KT 250V350 9000 BR OVC001 15/14 Q1007=
200507172350 METAR ESMX 172350Z 29007KT 250V320 7000 BR BKN001 15/14 Q1007=
200507172320 METAR ESMX 172320Z AUTO 27005KT 240V300 9999 OVC001 14/14 Q1007=
200507172250 METAR ESMX 172250Z 27005KT 9999 OVC001 15/14 Q1007=
200507172220 METAR ESMX 172220Z AUTO VRB03KT 3300 BR VV002 14/14 Q1007=
200507172150 METAR ESMX 172150Z 27004KT 240V300 2500 BR OVC001 14/14 Q1007=
200507172120 METAR ESMX 172120Z VRB03KT 6000 BR BKN002 14/14 Q1007=
200507172050 METAR ESMX 172050Z VRB02KT 8000 BR BKN002 14/14 Q1007=
200507171950 METAR ESMX 171950Z VRB02KT 9999 FEW007 SCT030 15/14 Q1007=
200507171920 METAR ESMX 171920Z VRB02KT 9999 SCT027 BKN036 15/14 Q1007=
200507171850 METAR ESMX 171850Z VRB02KT 9999 FEW029 BKN043 15/14 Q1007=
200507171820 METAR ESMX 171820Z VRB03KT 9999 FEW003 SCT046 BKN090 15/14 Q1007=
200507171750 METAR ESMX 171750Z 23004KT 9999 SCT004 BKN091 15/14 Q1007 RERA=
200507171720 METAR ESMX 171720Z 20004KT 170V240 9999 FEW030 SCT050 15/14 Q1006=
200507171650 METAR ESMX 171650Z 23005KT 200V270 9999 -SHRA FEW010 BKN045 15/14 Q1006=
200507171620 METAR ESMX 171620Z 26005KT 230V290 4000 RA FEW002 SCT045 BKN200 14/14 Q1006=
200507171550 METAR ESMX 171550Z VRB03KT 4000 +RA SCT037 14/13 Q1006=
200507171520 METAR ESMX 171520Z 28006KT 230V310 5000 RA FEW005 SCT007 BKN013 15/14 Q1006=
200507171450 METAR ESMX 171450Z VRB03KT 4000 +RA FEW005 SCT013 BKN020 16/15 Q1006=
200507171420 METAR ESMX 171420Z 22006KT 6000 RA BKN011 OVC015 16/15 Q1006=
200507171350 METAR ESMX 171350Z 23007KT 9999 -SHRA FEW010 BKN015 16/14 Q1006=
200507171320 METAR ESMX 171320Z 24010KT 210V270 9999 SCT011 BKN016 17/14 Q1006=
200507171250 METAR ESMX 171250Z 24011KT 210V270 9999 BKN012 17/14 Q1006=
200507171220 METAR ESMX 171220Z AUTO 24014KT 210V280 9999 SCT012 BKN017 17/14 Q1006=
200507171150 METAR ESMX 171150Z AUTO 22014KT 200V260 9999 FEW013 SCT020 BKN043 18/14 Q1006=
200507171120 METAR ESMX 171120Z AUTO 21013KT 9999 FEW010 SCT024 BKN039 18/15 Q1006=
200507171050 METAR ESMX 171050Z AUTO 22012KT 9999 FEW018 BKN031 OVC039 19/15 Q1006=
200507171020 METAR ESMX 171020Z AUTO 24008KT 220V290 9999 FEW027 SCT031 BKN037 20/13 Q1005=
200507170950 METAR ESMX 170950Z AUTO 27008KT 230V330 9999 FEW031 20/13 Q1005=
200507170920 METAR ESMX 170920Z AUTO 29009KT 260V320 9999 FEW024 SCT039 19/13 Q1005=
200507170850 METAR ESMX 170850Z AUTO 29004KT 240V360 9999 FEW021 SCT033 18/13 Q1005=
200507170820 METAR ESMX 170820Z AUTO 29006KT 250V330 9999 FEW019 SCT024 BKN038 17/14 Q1005=
200507170750 METAR ESMX 170750Z AUTO 29006KT 240V310 9999 FEW026 SCT077 18/14 Q1005=
200507170720 METAR ESMX 170720Z AUTO 27006KT 9999 FEW014 BKN029 16/14 Q1005=
200507170650 METAR ESMX 170650Z AUTO 27006KT 240V320 9999 FEW009 SCT015 BKN031 17/15 Q1004=
200507170620 METAR ESMX 170620Z AUTO 25006KT 210V280 9999 FEW006 SCT008 BKN012 16/15 Q1004=
200507170550 METAR ESMX 170550Z AUTO 24005KT 9999 SCT005 BKN011 OVC038 15/15 Q1004=
200507170520 METAR ESMX 170520Z AUTO 21005KT 9999 FEW005 SCT007 OVC036 15/14 Q1004=
200507170450 METAR ESMX 170450Z AUTO 23006KT 9999 FEW004 BKN005 OVC008 14/14 Q1004=
200507170420 METAR ESMX 170420Z AUTO 22006KT 9999 FEW004 BKN005 OVC008 14/13 Q1004 RERA=
200507170350 METAR ESMX 170350Z AUTO 23007KT 200V270 9999 -SHRA OVC004 13/13 Q1004=
200507170320 METAR ESMX 170320Z AUTO 21009KT 9999 RA FEW004 OVC005 13/13 Q1004=
200507170250 METAR ESMX 170250Z AUTO 20010KT 9000 -DZ OVC005 13/13 Q1004=
200507170220 METAR ESMX 170220Z AUTO 22011KT 6000 -RA FEW006 BKN007 OVC009 13/12 Q1004=
200507170150 METAR ESMX 170150Z AUTO 19010KT 140V210 6000 -RA FEW004 BKN009 OVC013 13/13 Q1004=
200507170120 METAR ESMX 170120Z AUTO 21007KT 9000 RA FEW005 SCT008 BKN011 13/13 Q1005=
200507170050 METAR ESMX 170050Z AUTO 21007KT 9000 RA FEW005 SCT009 BKN054 13/13 Q1005=
200507170020 METAR ESMX 170020Z AUTO 24007KT 8000 RA FEW009 BKN011 14/13 Q1005=
200507162350 METAR ESMX 162350Z AUTO 21007KT 9999 -RA FEW012 BKN016 BKN024 14/13 Q1006=
200507162320 METAR ESMX 162320Z AUTO 20007KT 9999 FEW016 OVC019 14/12 Q1006=
200507162250 METAR ESMX 162250Z AUTO 19006KT 9999 BKN020 14/12 Q1006=
200507162220 METAR ESMX 162220Z AUTO 19006KT 9999 FEW040 SCT090 14/12 Q1006=
200507162150 METAR ESMX 162150Z AUTO 20006KT 9999 FEW024 SCT089 14/12 Q1006=
200507162120 METAR ESMX 162120Z AUTO 20006KT 9999 FEW020 SCT026 14/11 Q1006=
200507162050 METAR ESMX 162050Z AUTO 23005KT 9999 FEW070 BKN094 15/12 Q1006=
200507162020 METAR ESMX 162020Z AUTO 23006KT 9999 FEW029 SCT039 BKN077 15/12 Q1006=
200507161950 METAR ESMX 161950Z AUTO 22007KT 9999 SCT027 15/12 Q1006=
200507161920 METAR ESMX 161920Z AUTO 23007KT 9999 FEW030 16/12 Q1006=
200507161850 METAR ESMX 161850Z AUTO 25009KT 210V280 9999 FEW030 SCT051 17/12 Q1006=
200507161820 METAR ESMX 161820Z AUTO 23007KT 200V260 9999 FEW029 SCT044 17/12 Q1006=
200507161750 METAR ESMX 161750Z AUTO 22009KT 170V240 9999 FEW028 18/12 Q1005=
200507161720 METAR ESMX 161720Z AUTO 20011KT 9999 FEW026 18/13 Q1005=
200507161650 METAR ESMX 161650Z AUTO 23009KT 210V270 9999 FEW029 18/12 Q1005=
200507161620 METAR ESMX 161620Z AUTO 22010KT 9999 FEW025 19/13 Q1005=
200507161550 METAR ESMX 161550Z AUTO 22011KT 170V260 9999 FEW029 19/12 Q1006=
200507161520 METAR ESMX 161520Z AUTO 21013KT 170V240 9999 FEW030 SCT042 19/12 Q1006=
200507161450 METAR ESMX 161450Z AUTO 22013KT 170V250 9999 FEW032 SCT066 20/12 Q1006=
200507161420 METAR ESMX 161420Z AUTO 22010KT 190V270 9999 FEW032 SCT053 19/12 Q1006=
200507161350 METAR ESMX 161350Z AUTO 23012KT 200V280 9999 SCT033 20/12 Q1006=
200507161320 METAR ESMX 161320Z AUTO 23012KT 190V260 9999 FEW050 20/12 Q1006=
200507161250 METAR ESMX 161250Z AUTO 22012KT 9999 FEW037 SCT076 20/12 Q1006=
200507161220 METAR ESMX 161220Z AUTO 23012KT 9999 FEW029 BKN076 19/11 Q1006=
200507161150 METAR ESMX 161150Z AUTO 23011KT 200V260 9999 FEW029 OVC077 19/12 Q1006=
200507161120 METAR ESMX 161120Z AUTO 23012KT 200V270 9999 FEW031 BKN077 20/12 Q1006=
200507161050 METAR ESMX 161050Z AUTO 24011KT 9999 FEW027 SCT066 BKN090 19/13 Q1006=
200507161020 METAR ESMX 161020Z AUTO 23008KT 180V280 9999 FEW021 SCT027 BKN033 18/13 Q1006 RERA=
200507160950 METAR ESMX 160950Z AUTO 27005KT 240V300 9999 FEW017 SCT042 OVC052 16/14 Q1006 RERA=
200507160920 METAR ESMX 160920Z AUTO 26006KT 220V300 9999 FEW017 SCT020 BKN049 17/14 Q1006 RERA=
200507160850 METAR ESMX 160850Z AUTO 24006KT 9999 -SHRA FEW014 SCT029 BKN049 15/14 Q1006=
200507160820 METAR ESMX 160820Z AUTO 23008KT 210V270 9999 FEW019 BKN076 17/13 Q1006=
200507160750 METAR ESMX 160750Z AUTO 25010KT 230V300 9999 FEW017 BKN076 BKN089 17/13 Q1006=
200507160720 METAR ESMX 160720Z AUTO 23006KT 190V260 9999 FEW012 SCT016 BKN059 16/13 Q1006=
200507160650 METAR ESMX 160650Z AUTO 27007KT 9999 FEW012 SCT017 BKN065 16/13 Q1006=
200507160620 METAR ESMX 160620Z AUTO 25006KT 9999 FEW008 SCT012 BKN028 16/14 Q1006=
200507160550 METAR ESMX 160550Z AUTO 27007KT 230V300 9999 FEW005 SCT006 BKN008 15/14 Q1006=
200507160520 METAR ESMX 160520Z AUTO 25005KT 210V290 9999 BKN004 OVC007 15/14 Q1006=
200507160450 METAR ESMX 160450Z AUTO 24005KT 200V290 9999 OVC004 14/13 Q1006=
200507160420 METAR ESMX 160420Z AUTO 27004KT 230V320 9999 BKN004 BKN008 14/13 Q1006=
200507160350 METAR ESMX 160350Z AUTO 27006KT 9999 BKN004 14/13 Q1006=
200507160320 METAR ESMX 160320Z AUTO VRB03KT 9999 FEW004 SCT006 13/13 Q1006=
200507160250 METAR ESMX 160250Z AUTO 28004KT 9999 FEW005 SCT007 BKN010 14/13 Q1006=
200507160220 METAR ESMX 160220Z AUTO 27004KT 240V320 8000 BR FEW006 SCT008 BKN010 15/14 Q1006=
200507160150 METAR ESMX 160150Z AUTO VRB02KT 8000 BR FEW005 BKN007 BKN089 15/14 Q1006=
200507160120 METAR ESMX 160120Z AUTO VRB03KT 8000 BR FEW003 SCT005 OVC007 15/15 Q1006=
200507160050 METAR ESMX 160050Z AUTO VRB03KT 8000 BR BKN003 OVC076 15/15 Q1006=
200507160020 METAR ESMX 160020Z AUTO 22005KT 9000 BR FEW006 BKN007 BKN075 15/15 Q1006=
200507152350 METAR ESMX 152350Z AUTO 17004KT 8000 BR FEW007 BKN075 16/15 Q1006=
200507152320 METAR ESMX 152320Z AUTO 18004KT 9000 BR SCT074 16/15 Q1006=
200507152250 METAR ESMX 152250Z AUTO 18004KT 9000 BR FEW076 16/15 Q1007=
200507152220 METAR ESMX 152220Z AUTO 18004KT 9999 FEW085 SCT110 16/15 Q1007=
200507152150 METAR ESMX 152150Z AUTO 17004KT 9999 NSC 17/15 Q1006=
200507152120 METAR ESMX 152120Z AUTO 18005KT 9999 FEW025 17/15 Q1007=
200507152050 METAR ESMX 152050Z AUTO 18006KT 9999 FEW100 17/15 Q1007=
200507152020 METAR ESMX 152020Z AUTO 17006KT 9999 SCT041 BKN100 18/15 Q1007 RERA=
200507151950 METAR ESMX 151950Z AUTO 18008KT 140V210 9999 FEW026 BKN053 BKN069 18/15 Q1007 RERA=
200507151920 METAR ESMX 151920Z AUTO 16007KT 9999 -SHRA FEW052 SCT069 BKN079 18/15 Q1007=
200507151850 METAR ESMX 151850Z AUTO 16008KT 9999 RA FEW012 SCT052 18/15 Q1007=
200507151820 METAR ESMX 151820Z AUTO 16009KT 100V180 9999 FEW043 BKN058 21/14 Q1008=
200507151750 METAR ESMX 151750Z AUTO 16007KT 130V200 9999 FEW054 BKN073 21/14 Q1007=
200507151720 METAR ESMX 151720Z 17008KT 140V200 CAVOK 21/13 Q1008=
200507151650 METAR ESMX 151650Z 15010KT 110V190 CAVOK 22/13 Q1008=
200507151620 METAR ESMX 151620Z 16011KT 140V200 CAVOK 22/14 Q1008=
200507151550 METAR ESMX 151550Z 16012KT 120V190 9999 FEW029 23/15 Q1009=
200507151520 METAR ESMX 151520Z 15011KT 120V200 9999 FEW029 BKN036 23/16 Q1009=
200507151450 METAR ESMX 151450Z 15010KT 110V190 9999 FEW029 SCT036 23/15 Q1009=
200507151420 METAR ESMX 151420Z 15009KT 110V200 9999 FEW030 SCT050 23/15 Q1010=
200507151350 METAR ESMX 151350Z 15008KT 100V170 9999 FEW034 BKN049 22/16 Q1011=
200507151320 METAR ESMX 151320Z 16007KT 140V200 9999 FEW035 BKN055 22/15 Q1011=
200507151250 METAR ESMX 151250Z 19010KT 160V230 9999 FEW030 BKN045 23/14 Q1012=
200507151220 METAR ESMX 151220Z 20010KT 150V230 9999 FEW030 BKN045 23/14 Q1012=
200507151150 METAR ESMX 151150Z 18009KT 140V200 9999 FEW035 BKN045 22/15 Q1013=
200507151120 METAR ESMX 151120Z 17008KT 9999 FEW030CB BKN040 20/15 Q1013=
200507151050 METAR ESMX 151050Z 18010KT 130V200 9999 FEW027 BKN050 21/14 Q1013=
200507151020 METAR ESMX 151020Z 17009KT 130V190 9999 FEW025 BKN028 21/14 Q1013=
200507150950 METAR ESMX 150950Z 19009KT 150V230 9999 BKN023 20/14 Q1014=
200507150920 METAR ESMX 150920Z 16009KT 120V200 9999 BKN023 20/14 Q1014=
200507150850 METAR ESMX 150850Z 17008KT 9999 BKN025 19/14 Q1014=
200507150820 METAR ESMX 150820Z 17010KT 9999 SCT025 BKN030 20/14 Q1014=
200507150750 METAR ESMX 150750Z 18010KT 140V210 9999 SCT025 BKN040 20/14 Q1014=
200507150720 METAR ESMX 150720Z 19009KT 160V230 9999 SCT020 BKN035 19/14 Q1014=
200507150650 METAR ESMX 150650Z 19009KT 9999 SCT018 19/14 Q1014=
200507150620 METAR ESMX 150620Z 19008KT 9999 SCT023 18/14 Q1015=
200507150550 METAR ESMX 150550Z 17007KT 9999 SCT023 17/14 Q1015=
200507150520 METAR ESMX 150520Z 17006KT 9999 SCT023 BKN040 17/13 Q1015=
200507150450 METAR ESMX 150450Z 19006KT 9999 FEW020 BKN037 15/13 Q1015=
200507150420 METAR ESMX 150420Z 16004KT 9999 FEW017 14/12 Q1015=
200507150350 METAR ESMX 150350Z AUTO 17004KT 9999 FEW017 13/12 Q1015=
200507150320 METAR ESMX 150320Z AUTO 19004KT 9999 NSC 11/10 Q1015=
200507150250 METAR ESMX 150250Z AUTO VRB03KT 9999 NSC 10/09 Q1015=
200507150220 METAR ESMX 150220Z AUTO VRB03KT 9000 NSC 10/09 Q1016=
200507150150 METAR ESMX 150150Z AUTO VRB03KT 9999 NSC 11/10 Q1016=
200507150120 METAR ESMX 150120Z AUTO VRB03KT 9999 NSC 11/10 Q1016=
200507150050 METAR ESMX 150050Z AUTO 20004KT 9999 NSC 11/10 Q1016=
200507150020 METAR ESMX 150020Z AUTO 22004KT 9999 NSC 10/09 Q1016=
200507142350 METAR ESMX 142350Z VRB03KT CAVOK 11/09 Q1016=
200507142320 METAR ESMX 142320Z VRB03KT CAVOK 12/10 Q1016=
200507142250 METAR ESMX 142250Z 22004KT CAVOK 12/09 Q1016=
200507142220 METAR ESMX 142220Z 23004KT CAVOK 13/10 Q1016=
200507142150 METAR ESMX 142150Z 22004KT CAVOK 13/09 Q1016=
200507142120 METAR ESMX 142120Z VRB03KT CAVOK 14/09 Q1017=
200507142050 METAR ESMX 142050Z VRB03KT CAVOK 15/09 Q1016=
200507141950 METAR ESMX 141950Z VRB03KT CAVOK 16/09 Q1016=
200507141920 METAR ESMX 141920Z 25004KT 220V280 CAVOK 17/09 Q1016=
200507141850 METAR ESMX 141850Z 25005KT 220V280 CAVOK 17/09 Q1016=
200507141820 METAR ESMX 141820Z 25006KT CAVOK 18/09 Q1016=
200507141750 METAR ESMX 141750Z 26007KT 230V310 CAVOK FEW045 19/09 Q1016=
200507141720 METAR ESMX 141720Z 25008KT 190V280 9999 FEW043 20/10 Q1016=
200507141650 METAR ESMX 141650Z 25009KT 230V320 9999 FEW046 20/10 Q1016=
200507141620 METAR ESMX 141620Z 24009KT 210V270 9999 FEW045 20/10 Q1016=
200507141550 METAR ESMX 141550Z 27011KT 9999 FEW045 21/10 Q1016=
200507141520 METAR ESMX 141520Z 28010KT 190V300 9999 FEW047 21/09 Q1016=
200507141450 METAR ESMX 141450Z 25011KT 200V330 9999 FEW046 22/09 Q1016=
200507141420 METAR ESMX 141420Z 24011KT 210V290 9999 FEW047 22/09 Q1016=
200507141350 METAR ESMX 141350Z 23010KT 200V270 9999 FEW048 21/10 Q1016=
200507141320 METAR ESMX 141320Z 25010KT 200V310 9999 FEW048 22/09 Q1016=
200507141250 METAR ESMX 141250Z 25011KT 210V290 9999 FEW045 22/09 Q1016=
200507141220 METAR ESMX 141220Z 24012KT 200V290 9999 FEW043 21/09 Q1016=
200507141150 METAR ESMX 141150Z 24011KT 210V280 9999 FEW043 21/09 Q1017=
200507141120 METAR ESMX 141120Z 24010KT 210V270 9999 FEW043 21/10 Q1017=
200507141050 METAR ESMX 141050Z 26011KT 230V320 9999 FEW041 21/10 Q1017=
200507141020 METAR ESMX 141020Z 25011KT 210V290 9999 FEW042 20/10 Q1017=
200507140950 METAR ESMX 140950Z 23011KT 210V290 9999 FEW044 21/10 Q1017=
200507140920 METAR ESMX 140920Z 25009KT 200V290 9999 FEW033 20/10 Q1017=
200507140850 METAR ESMX 140850Z 26009KT 210V300 9999 FEW033 19/10 Q1017=
200507140820 METAR ESMX 140820Z 26009KT 220V310 9999 FEW028 18/10 Q1017=
200507140750 METAR ESMX 140750Z 25009KT 210V290 9999 FEW026 SCT029 18/11 Q1017=
200507140720 METAR ESMX 140720Z 26009KT 230V330 9999 SCT023 18/11 Q1017=
200507140650 METAR ESMX 140650Z 26009KT 230V290 9999 SCT021 17/11 Q1017=
200507140620 METAR ESMX 140620Z 26008KT 220V290 9999 FEW015 SCT018 16/12 Q1017=
200507140550 METAR ESMX 140550Z 26007KT 230V310 9999 BKN015 16/12 Q1017=
200507140520 METAR ESMX 140520Z 27006KT 240V310 9999 FEW010 SCT017 15/12 Q1017=
200507140450 METAR ESMX 140450Z 24005KT 9999 FEW018 14/12 Q1017=
200507140420 METAR ESMX 140420Z 26004KT 210V300 9999 SCT020 13/12 Q1017=
200507140350 METAR ESMX 140350Z AUTO 23004KT 200V270 9999 BKN013 OVC019 13/12 Q1017=
200507140320 METAR ESMX 140320Z AUTO 24004KT 9999 OVC012 13/12 Q1017=
200507140250 METAR ESMX 140250Z AUTO 23004KT 9999 BKN011 12/12 Q1017=
200507140220 METAR ESMX 140220Z AUTO 19004KT 9000 FEW013 12/11 Q1017=
200507140150 METAR ESMX 140150Z AUTO VRB02KT 9999 NSC 12/12 Q1017=
200507140120 METAR ESMX 140120Z AUTO VRB03KT 9999 NSC 13/11 Q1017=
200507140050 METAR ESMX 140050Z AUTO 25004KT 220V280 9999 NSC 13/12 Q1017=
200507140020 METAR ESMX 140020Z AUTO VRB03KT 9999 NSC 13/12 Q1017=
200507132350 METAR ESMX 132350Z VRB03KT CAVOK 13/12 Q1017=
200507132320 METAR ESMX 132320Z 25004KT 230V290 CAVOK 14/12 Q1018=
200507132250 METAR ESMX 132250Z 24004KT 200V270 CAVOK 14/12 Q1018=
200507132220 METAR ESMX 132220Z 25004KT 230V290 CAVOK 15/12 Q1018=
200507132050 METAR ESMX 132050Z 26005KT 220V300 CAVOK 16/12 Q1018=
200507132020 METAR ESMX 132020Z 27006KT CAVOK 17/12 Q1017=
200507131950 METAR ESMX 131950Z 27006KT 230V310 CAVOK 18/12 Q1017=
200507131920 METAR ESMX 131920Z 26008KT CAVOK 19/11 Q1017=
200507131850 METAR ESMX 131850Z 26008KT 220V290 CAVOK 20/10 Q1017=
200507131820 METAR ESMX 131820Z 26011KT CAVOK 21/10 Q1017=
200507131750 METAR ESMX 131750Z 26010KT 230V290 CAVOK 21/10 Q1017=
200507131720 METAR ESMX 131720Z 27011KT 240V310 CAVOK 22/11 Q1017=
200507131650 METAR ESMX 131650Z 26011KT 210V290 CAVOK 23/11 Q1017=
200507131620 METAR ESMX 131620Z 26013KT 230V290 CAVOK 24/12 Q1017=
200507131550 METAR ESMX 131550Z 26010KT 230V320 CAVOK 25/11 Q1017=
200507131520 METAR ESMX 131520Z 26012KT 220V300 CAVOK 25/11 Q1017=
200507131450 METAR ESMX 131450Z 25013KT 210V270 CAVOK 25/11 Q1017=
200507131420 METAR ESMX 131420Z 28012KT 230V320 CAVOK 26/12 Q1017=
200507131350 METAR ESMX 131350Z 27011KT 240V320 CAVOK 26/13 Q1017=
200507131320 METAR ESMX 131320Z 28013KT 240V310 CAVOK 26/13 Q1018=
200507131250 METAR ESMX 131250Z 26013G23KT 230V310 CAVOK 26/13 Q1018=
200507131220 METAR ESMX 131220Z 29011KT 250V320 CAVOK 25/12 Q1018=
200507131150 METAR ESMX 131150Z 26013KT 210V290 CAVOK 25/13 Q1018=
200507131120 METAR ESMX 131120Z 26012KT 230V290 CAVOK 25/13 Q1018=
200507131050 METAR ESMX 131050Z 27011KT 240V320 CAVOK 25/12 Q1018=
200507131020 METAR ESMX 131020Z 25011KT 220V290 CAVOK 25/14 Q1018=
200507130950 METAR ESMX 130950Z 26011KT 210V300 9999 FEW033 24/15 Q1019=
200507130920 METAR ESMX 130920Z 24011KT 200V280 9999 FEW036 23/15 Q1019=
200507130850 METAR ESMX 130850Z 26009KT 220V320 9999 FEW035 23/15 Q1019=
200507130820 METAR ESMX 130820Z 26011KT 220V290 9999 FEW025 22/15 Q1019=
200507130750 METAR ESMX 130750Z 26010KT 230V300 9999 FEW022 21/15 Q1019=
200507130720 METAR ESMX 130720Z 26010KT 220V290 9999 FEW018 20/15 Q1019=
200507130650 METAR ESMX 130650Z 27010KT 230V300 9999 SCT014 19/15 Q1019=
200507130620 METAR ESMX 130620Z 26011KT 9999 BKN012 19/15 Q1019=
200507130550 METAR ESMX 130550Z 25010KT 200V300 9999 BKN010 18/15 Q1020=
200507130520 METAR ESMX 130520Z 25008KT 210V280 9999 BKN008 18/15 Q1020=
200507130450 METAR ESMX 130450Z 24007KT CAVOK 17/15 Q1020=
200507130420 METAR ESMX 130420Z 22006KT CAVOK 17/14 Q1020=
200507130350 METAR ESMX 130350Z AUTO 21006KT 9999 NSC 16/14 Q1020=
200507130320 METAR ESMX 130320Z AUTO 21005KT 9999 NSC 15/13 Q1021=
200507130250 METAR ESMX 130250Z AUTO 23005KT 9999 NSC 15/13 Q1021=
200507130220 METAR ESMX 130220Z AUTO 22005KT 9999 NSC 14/12 Q1021=
200507130150 METAR ESMX 130150Z AUTO VRB03KT 9999 NSC 13/12 Q1021=
200507130120 METAR ESMX 130120Z AUTO VRB02KT 9999 NSC 13/11 Q1022=
200507130050 METAR ESMX 130050Z AUTO VRB03KT 9999 NSC 16/13 Q1022=
200507130020 METAR ESMX 130020Z AUTO VRB03KT 9999 NSC 16/12 Q1022=
200507122350 METAR ESMX 122350Z VRB03KT CAVOK 16/12 Q1023=
200507122320 METAR ESMX 122320Z 24004KT CAVOK 17/11 Q1023=
200507122250 METAR ESMX 122250Z 25004KT CAVOK 18/11 Q1023=
200507122220 METAR ESMX 122220Z 24004KT CAVOK 18/10 Q1023=
200507122150 METAR ESMX 122150Z 25004KT CAVOK 18/09 Q1023=
200507122120 METAR ESMX 122120Z 25004KT CAVOK 19/08 Q1023=
200507122050 METAR ESMX 122050Z 25004KT CAVOK 20/08 Q1023=
200507122020 METAR ESMX 122020Z 23004KT CAVOK 20/08 Q1023=
200507121950 METAR ESMX 121950Z 25004KT 230V290 CAVOK 21/08 Q1024=
200507121920 METAR ESMX 121920Z 27005KT 230V310 CAVOK 23/09 Q1024=
200507121820 METAR ESMX 121820Z 27007KT 230V290 CAVOK 25/08 Q1024=
200507121750 METAR ESMX 121750Z 29008KT 250V320 CAVOK 27/09 Q1024=
200507121720 METAR ESMX 121720Z 28009KT 240V340 CAVOK 27/09 Q1024=
200507121650 METAR ESMX 121650Z 28008KT 240V330 CAVOK 28/09 Q1024=
200507121620 METAR ESMX 121620Z 29007KT 250V330 CAVOK 29/10 Q1024=
200507121550 METAR ESMX 121550Z 25008KT 210V300 CAVOK 29/09 Q1025=
200507121520 METAR ESMX 121520Z 31007KT 270V350 CAVOK 29/08 Q1025=
200507121450 METAR ESMX 121450Z 28007KT 240V310 CAVOK 30/09 Q1025=
200507121420 METAR ESMX 121420Z VRB04KT CAVOK 30/08 Q1026=
200507121350 METAR ESMX 121350Z 28007KT 200V320 CAVOK 30/09 Q1026=
200507121320 METAR ESMX 121320Z 31006KT 250V010 CAVOK 30/09 Q1026=
200507121250 METAR ESMX 121250Z 20006KT 170V340 CAVOK 28/08 Q1026=
200507121220 METAR ESMX 121220Z 28005KT 200V340 CAVOK 30/07 Q1027=
200507121150 METAR ESMX 121150Z 24007KT 190V310 CAVOK 30/09 Q1027=
200507121120 METAR ESMX 121120Z VRB02KT CAVOK 29/09 Q1028=
200507121050 METAR ESMX 121050Z 01004KT 270V060 CAVOK 29/07 Q1028=
200507121020 METAR ESMX 121020Z 01006KT 330V070 CAVOK 29/10 Q1028=
200507120950 METAR ESMX 120950Z 03004KT 350V110 CAVOK 28/09 Q1028=
200507120920 METAR ESMX 120920Z 03006KT 340V060 CAVOK 28/09 Q1028=
200507120850 METAR ESMX 120850Z 04007KT CAVOK 28/09 Q1029=
200507120820 METAR ESMX 120820Z 01004KT 300V070 CAVOK 27/10 Q1029=
200507120750 METAR ESMX 120750Z 35005KT 310V010 CAVOK 26/09 Q1029=
200507120720 METAR ESMX 120720Z 03004KT CAVOK 25/11 Q1029=
200507120650 METAR ESMX 120650Z 35004KT 320V020 CAVOK 24/13 Q1029=
200507120620 METAR ESMX 120620Z 35005KT 320V020 CAVOK 22/13 Q1029=
200507120550 METAR ESMX 120550Z 33004KT 290V010 CAVOK 21/13 Q1030=
200507120520 METAR ESMX 120520Z VRB02KT CAVOK 20/13 Q1030=
200507120450 METAR ESMX 120450Z VRB01KT CAVOK 19/14 Q1030=
200507120420 METAR ESMX 120420Z VRB01KT CAVOK 17/13 Q1030=
200507120350 METAR ESMX 120350Z AUTO VRB01KT 9999 NSC 14/12 Q1030=
200507120320 METAR ESMX 120320Z AUTO VRB02KT 9999 NSC 13/12 Q1030=
200507120250 METAR ESMX 120250Z AUTO VRB02KT 9999 NSC 14/12 Q1030=
200507120220 METAR ESMX 120220Z AUTO VRB03KT 9999 NSC 13/12 Q1030=
200507120150 METAR ESMX 120150Z AUTO VRB02KT 9999 NSC 14/12 Q1030=
200507120120 METAR ESMX 120120Z AUTO VRB02KT 9999 NSC 14/12 Q1030=
200507120050 METAR ESMX 120050Z AUTO VRB02KT 9999 NSC 15/13 Q1030=
200507120020 METAR ESMX 120020Z VRB03KT CAVOK 17/13 Q1030=
200507112350 METAR ESMX 112350Z VRB03KT CAVOK 16/12 Q1030=
200507112320 METAR ESMX 112320Z VRB03KT CAVOK 16/12 Q1030=
200507112250 METAR ESMX 112250Z VRB03KT CAVOK 17/12 Q1030=
200507112220 METAR ESMX 112220Z 22005KT CAVOK 17/12 Q1030=
200507112150 METAR ESMX 112150Z VRB03KT CAVOK 17/11 Q1030=
200507112120 METAR ESMX 112120Z 17004KT CAVOK 20/12 Q1030=
200507112050 METAR ESMX 112050Z 21007KT CAVOK 20/11 Q1030=
200507112020 METAR ESMX 112020Z 21007KT CAVOK 19/11 Q1029=
200507111950 METAR ESMX 111950Z VRB02KT CAVOK 20/11 Q1029=
200507111920 METAR ESMX 111920Z VRB01KT CAVOK 22/13 Q1029=
200507111850 METAR ESMX 111850Z VRB02KT CAVOK 26/09 Q1029=
200507111820 METAR ESMX 111820Z VRB02KT CAVOK 28/08 Q1029=
200507111750 METAR ESMX 111750Z VRB02KT CAVOK 28/07 Q1029=
200507111720 METAR ESMX 111720Z VRB03KT CAVOK 28/06 Q1029=
200507111650 METAR ESMX 111650Z VRB03KT CAVOK 28/05 Q1029=
200507111620 METAR ESMX 111620Z 17004KT 140V240 CAVOK 28/06 Q1029=
200507111550 METAR ESMX 111550Z 23005KT CAVOK 28/06 Q1029=
200507111520 METAR ESMX 111520Z 15006KT 080V180 CAVOK 29/07 Q1029=
200507111450 METAR ESMX 111450Z 15004KT 080V220 CAVOK 29/06 Q1029=
200507111420 METAR ESMX 111420Z VRB04KT CAVOK 29/07 Q1029=
200507111350 METAR ESMX 111350Z 21005KT 130V300 CAVOK 28/07 Q1030=
200507111250 METAR ESMX 111250Z 13005KT 070V190 CAVOK 28/07 Q1030=
200507111220 METAR ESMX 111220Z 14005KT 090V190 CAVOK 28/07 Q1030=
200507111150 METAR ESMX 111150Z VRB05KT CAVOK 28/08 Q1030=
200507111120 METAR ESMX 111120Z VRB05KT CAVOK 27/07 Q1029=
200507111050 METAR ESMX 111050Z 20005KT 140V250 CAVOK 27/07 Q1030=
200507111020 METAR ESMX 111020Z 23005KT 170V270 CAVOK 26/07 Q1030=
200507110950 METAR ESMX 110950Z 27004KT CAVOK 26/07 Q1030=
200507110920 METAR ESMX 110920Z 07004KT 020V100 CAVOK 25/07 Q1030=
200507110850 METAR ESMX 110850Z VRB03KT CAVOK 25/08 Q1030=
200507110820 METAR ESMX 110820Z VRB03KT CAVOK 24/08 Q1030=
200507110750 METAR ESMX 110750Z VRB02KT CAVOK 24/09 Q1030=
200507110650 METAR ESMX 110650Z VRB03KT CAVOK 22/09 Q1029=
200507110620 METAR ESMX 110620Z VRB03KT CAVOK 21/11 Q1029=
200507110550 METAR ESMX 110550Z VRB03KT CAVOK 20/11 Q1029=
200507110450 METAR ESMX 110450Z 15004KT CAVOK 17/13 Q1028=
200507110420 METAR ESMX 110420Z VRB01KT CAVOK 15/13 Q1028=
200507110350 METAR ESMX 110350Z VRB01KT CAVOK 12/11 Q1028=
200507110320 METAR ESMX 110320Z AUTO VRB01KT 9999 NSC 11/10 Q1028=
200507110250 METAR ESMX 110250Z AUTO VRB01KT 9999 NSC 11/10 Q1028=
200507110220 METAR ESMX 110220Z AUTO VRB01KT 9999 NSC 11/10 Q1027=
200507110150 METAR ESMX 110150Z AUTO VRB01KT 9999 NSC 11/10 Q1027=
200507110120 METAR ESMX 110120Z AUTO VRB02KT 9999 NSC 11/10 Q1027=
200507110050 METAR ESMX 110050Z VRB01KT CAVOK 12/11 Q1027=
200507110020 METAR ESMX 110020Z VRB01KT CAVOK 12/11 Q1027=
200507102350 METAR ESMX 102350Z 00000KT CAVOK 12/11 Q1027=
200507102320 METAR ESMX 102320Z VRB01KT CAVOK 13/11 Q1027=
200507102250 METAR ESMX 102250Z VRB01KT CAVOK 14/11 Q1027=
200507102220 METAR ESMX 102220Z VRB02KT CAVOK 16/11 Q1027=
200507102150 METAR ESMX 102150Z 21004KT CAVOK 15/11 Q1026=
200507102120 METAR ESMX 102120Z 14006KT CAVOK 19/12 Q1026=
200507102050 METAR ESMX 102050Z 16004KT CAVOK 19/13 Q1026=
200507102020 METAR ESMX 102020Z 19005KT CAVOK 18/13 Q1026=
200507101950 METAR ESMX 101950Z 18007KT CAVOK 21/13 Q1026=
200507101920 METAR ESMX 101920Z 18005KT CAVOK 22/12 Q1025=
200507101850 METAR ESMX 101850Z 15005KT CAVOK 24/09 Q1025=
200507101820 METAR ESMX 101820Z 14006KT CAVOK 24/09 Q1025=
200507101750 METAR ESMX 101750Z VRB03KT CAVOK 26/08 Q1024=
200507101720 METAR ESMX 101720Z 17005KT 130V200 CAVOK 26/09 Q1024=
200507101650 METAR ESMX 101650Z 17005KT 140V210 CAVOK 27/08 Q1024=
200507101620 METAR ESMX 101620Z 08004KT 350V140 CAVOK 28/08 Q1024=
200507101550 METAR ESMX 101550Z VRB02KT CAVOK 28/08 Q1024=
200507101520 METAR ESMX 101520Z VRB02KT CAVOK 28/08 Q1024=
200507101450 METAR ESMX 101450Z 07004KT 350V160 CAVOK 28/08 Q1024=
200507101420 METAR ESMX 101420Z 02005KT 340V060 CAVOK 28/08 Q1025=
200507101350 METAR ESMX 101350Z 06006KT 010V130 CAVOK 28/08 Q1025=
200507101320 METAR ESMX 101320Z 02007KT 330V110 CAVOK 28/08 Q1025=
200507101250 METAR ESMX 101250Z 02005KT 300V080 CAVOK 27/09 Q1025=
200507101220 METAR ESMX 101220Z AUTO 06005KT 350V120 9999 NSC 27/08 Q1025=
200507101150 METAR ESMX 101150Z AUTO VRB05KT 9999 NSC 27/08 Q1025=
200507101120 METAR ESMX 101120Z AUTO 01005KT 320V090 9999 NSC 27/07 Q1026=
200507101050 METAR ESMX 101050Z AUTO 06004KT 010V140 9999 NSC 26/07 Q1026=
200507101020 METAR ESMX 101020Z AUTO 05007KT 010V080 9999 NSC 26/07 Q1026=
200507100950 METAR ESMX 100950Z AUTO 02006KT 330V050 9999 FEW067 26/08 Q1026=
200507100920 METAR ESMX 100920Z AUTO 36007KT 340V060 9999 FEW069 25/13 Q1026=
200507100850 METAR ESMX 100850Z AUTO 01005KT 290V050 9999 NSC 24/14 Q1026=
200507100820 METAR ESMX 100820Z AUTO 04004KT 360V070 9999 NSC 23/15 Q1026=
200507100750 METAR ESMX 100750Z AUTO 05005KT 010V110 9999 NSC 22/16 Q1026=
200507100720 METAR ESMX 100720Z AUTO 04007KT 020V100 9999 NSC 22/16 Q1026=
200507100650 METAR ESMX 100650Z AUTO 07004KT 020V140 9999 NSC 22/16 Q1026=
200507100620 METAR ESMX 100620Z AUTO 05005KT 020V110 9999 NSC 21/16 Q1026=
200507100550 METAR ESMX 100550Z AUTO 02004KT 9999 NSC 20/15 Q1026=
200507100520 METAR ESMX 100520Z AUTO 05004KT 020V090 9999 NSC 19/15 Q1026=
200507100450 METAR ESMX 100450Z AUTO VRB03KT 9999 NSC 19/15 Q1025=
200507100420 METAR ESMX 100420Z AUTO VRB02KT 9999 NSC 16/14 Q1025=
200507100350 METAR ESMX 100350Z AUTO VRB01KT 9999 NSC 13/13 Q1025=
200507100320 METAR ESMX 100320Z AUTO 00000KT 9999 NSC 12/12 Q1025=
200507100250 METAR ESMX 100250Z AUTO 00000KT 9999 NSC 12/12 Q1025=
200507100220 METAR ESMX 100220Z AUTO VRB01KT 3400 BR NSC 13/12 Q1025=
200507100150 METAR ESMX 100150Z AUTO 00000KT 9999 NSC 13/12 Q1025=
200507100120 METAR ESMX 100120Z AUTO VRB01KT 9999 NSC 13/13 Q1025=
200507100050 METAR ESMX 100050Z AUTO VRB01KT 9999 NSC 14/13 Q1025=
200507100020 METAR ESMX 100020Z AUTO 00000KT 9999 FEW067 14/13 Q1024=
200507092350 METAR ESMX 092350Z AUTO 00000KT 9999 NSC 15/13 Q1024=
200507092320 METAR ESMX 092320Z AUTO 00000KT 9999 NSC 16/14 Q1024=
200507092250 METAR ESMX 092250Z AUTO VRB02KT 9999 FEW100 17/13 Q1024=
200507092220 METAR ESMX 092220Z AUTO VRB02KT 9999 FEW110 17/14 Q1024=
200507092150 METAR ESMX 092150Z AUTO VRB03KT 9999 NSC 17/13 Q1024=
200507092120 METAR ESMX 092120Z AUTO VRB03KT 9999 FEW082 19/13 Q1024=
200507092050 METAR ESMX 092050Z AUTO VRB03KT 9999 SCT073 BKN088 20/12 Q1024=
200507092020 METAR ESMX 092020Z AUTO VRB02KT 9999 OVC075 20/12 Q1024=
200507091950 METAR ESMX 091950Z AUTO VRB01KT 9999 FEW092 22/11 Q1024=
200507091920 METAR ESMX 091920Z AUTO VRB02KT 9999 NSC 23/11 Q1023=
200507091850 METAR ESMX 091850Z AUTO VRB02KT 9999 NSC 24/11 Q1023=
200507091820 METAR ESMX 091820Z AUTO 09005KT 030V120 9999 NSC 25/11 Q1023=
200507091750 METAR ESMX 091750Z AUTO 07004KT 020V140 9999 NSC 27/11 Q1022=
200507091720 METAR ESMX 091720Z AUTO 06005KT 020V110 9999 NSC 27/10 Q1022=
200507091650 METAR ESMX 091650Z AUTO 06006KT 020V120 9999 NSC 28/09 Q1022=
200507091620 METAR ESMX 091620Z AUTO 06006KT 350V110 9999 NSC 28/10 Q1022=
200507091550 METAR ESMX 091550Z AUTO 04008KT 350V080 9999 NSC 28/10 Q1022=
200507091520 METAR ESMX 091520Z AUTO 05006KT 010V080 9999 NSC 27/10 Q1021=
200507091450 METAR ESMX 091450Z AUTO 06006KT 020V100 9999 FEW080 28/09 Q1021=
200507091420 METAR ESMX 091420Z AUTO 06007KT 350V120 9999 NSC 29/09 Q1021=
200507091350 METAR ESMX 091350Z AUTO 05007KT 020V100 9999 FEW077 29/09 Q1021=
200507091320 METAR ESMX 091320Z AUTO 04005KT 350V080 9999 NSC 29/09 Q1021=
200507091250 METAR ESMX 091250Z AUTO 05006KT 360V110 9999 NSC 29/10 Q1022=
200507091220 METAR ESMX 091220Z AUTO 03009KT 9999 FEW081 29/09 Q1022=
200507091150 METAR ESMX 091150Z AUTO 01008KT 320V060 9999 NSC 29/09 Q1022=
200507091120 METAR ESMX 091120Z AUTO 04007KT 350V100 9999 NSC 29/09 Q1022=
200507091050 METAR ESMX 091050Z AUTO 34006KT 310V020 9999 NSC 28/10 Q1022=
200507091020 METAR ESMX 091020Z AUTO 03007KT 340V060 9999 NSC 28/10 Q1022=
200507090950 METAR ESMX 090950Z AUTO 01007KT 340V070 9999 NSC 27/11 Q1022=
200507090920 METAR ESMX 090920Z AUTO 02006KT 340V050 9999 NSC 28/12 Q1022=
200507090850 METAR ESMX 090850Z AUTO 02006KT 260V070 9999 NSC 26/12 Q1022=
200507090820 METAR ESMX 090820Z AUTO 35005KT 320V050 9999 NSC 26/14 Q1022=
200507090750 METAR ESMX 090750Z AUTO 01005KT 340V050 9999 NSC 25/14 Q1022=
200507090720 METAR ESMX 090720Z AUTO VRB03KT 9999 NSC 24/14 Q1022=
200507090650 METAR ESMX 090650Z AUTO VRB03KT 9999 NSC 22/15 Q1022=
200507090620 METAR ESMX 090620Z AUTO 01004KT 330V040 9999 NSC 21/15 Q1022=
200507090550 METAR ESMX 090550Z AUTO VRB02KT 9999 NSC 21/15 Q1022=
200507090520 METAR ESMX 090520Z AUTO 02004KT 9999 NSC 19/16 Q1022=
200507090450 METAR ESMX 090450Z AUTO VRB01KT 9999 NSC 17/15 Q1021=
200507090420 METAR ESMX 090420Z AUTO 00000KT 9999 NSC 15/14 Q1021=
200507090350 METAR ESMX 090350Z AUTO VRB01KT 9999 NSC 12/12 Q1021=
200507090320 METAR ESMX 090320Z AUTO VRB02KT 9999 NSC 11/11 Q1021=
200507090250 METAR ESMX 090250Z AUTO VRB01KT 9999 NSC 11/11 Q1021=
200507090220 METAR ESMX 090220Z AUTO 00000KT 9999 NSC 11/10 Q1021=
200507090150 METAR ESMX 090150Z AUTO VRB01KT 9999 NSC 11/11 Q1021=
200507090120 METAR ESMX 090120Z AUTO VRB01KT 9999 NSC 12/11 Q1021=
200507090050 METAR ESMX 090050Z AUTO VRB02KT 9999 NSC 12/11 Q1021=
200507090020 METAR ESMX 090020Z AUTO 00000KT 9999 NSC 12/12 Q1021=
200507082350 METAR ESMX 082350Z AUTO VRB01KT 9999 NSC 13/12 Q1021=
200507082320 METAR ESMX 082320Z AUTO 00000KT 9999 NSC 13/12 Q1021=
200507082250 METAR ESMX 082250Z AUTO 00000KT 9999 NSC 13/12 Q1021=
200507082220 METAR ESMX 082220Z AUTO VRB03KT 9999 NSC 14/13 Q1021=
200507082150 METAR ESMX 082150Z AUTO VRB01KT 9999 NSC 14/12 Q1021=
200507082120 METAR ESMX 082120Z AUTO VRB01KT 9999 NSC 15/13 Q1020=
200507082050 METAR ESMX 082050Z AUTO VRB01KT 9999 NSC 16/13 Q1020=
200507082020 METAR ESMX 082020Z AUTO VRB02KT 9999 NSC 17/14 Q1020=
200507081950 METAR ESMX 081950Z AUTO 00000KT 9999 NSC 18/15 Q1020=
200507081920 METAR ESMX 081920Z AUTO VRB02KT 9999 NSC 21/15 Q1020=
200507081850 METAR ESMX 081850Z VRB02KT CAVOK 23/14 Q1019=
200507081750 METAR ESMX 081750Z 18004KT 160V220 CAVOK 25/12 Q1019=
200507081720 METAR ESMX 081720Z 18004KT CAVOK 26/13 Q1019=
200507081650 METAR ESMX 081650Z 20005KT 150V220 CAVOK 26/12 Q1018=
200507081620 METAR ESMX 081620Z 16005KT 120V200 CAVOK 26/12 Q1018=
200507081550 METAR ESMX 081550Z 17005KT 140V200 CAVOK 26/12 Q1018=
200507081520 METAR ESMX 081520Z 18008KT 140V210 CAVOK 26/13 Q1018=
200507081450 METAR ESMX 081450Z 18010KT 150V210 CAVOK 26/14 Q1018=
200507081420 METAR ESMX 081420Z 18006KT 150V220 CAVOK 24/15 Q1018=
200507081350 METAR ESMX 081350Z 14006G16KT 050V180 9999 -SHRA SCT070CB 26/10 Q1018=
200507081320 METAR ESMX 081320Z 06005KT 350V100 CAVOK 27/10 Q1018=
200507081250 METAR ESMX 081250Z 06006KT 020V090 CAVOK 28/11 Q1018=
200507081220 METAR ESMX 081220Z 11005KT 060V160 CAVOK 28/10 Q1018=
200507081150 METAR ESMX 081150Z 08005KT 010V140 CAVOK 26/10 Q1018=
200507081120 METAR ESMX 081120Z 05008KT 010V090 9999 FEW044 26/10 Q1018=
200507081050 METAR ESMX 081050Z 05007KT 020V110 CAVOK 27/11 Q1018=
200507081020 METAR ESMX 081020Z 07005KT 020V160 CAVOK 27/12 Q1018=
200507080950 METAR ESMX 080950Z 06006KT 350V140 CAVOK 26/12 Q1018=
200507080920 METAR ESMX 080920Z 08006KT 010V120 CAVOK 26/12 Q1018=
200507080850 METAR ESMX 080850Z 05008KT 010V070 CAVOK 25/11 Q1018=
200507080820 METAR ESMX 080820Z 04006KT 010V100 CAVOK 25/12 Q1018=
200507080750 METAR ESMX 080750Z 02006KT 350V060 CAVOK 24/12 Q1018=
200507080720 METAR ESMX 080720Z 04005KT 350V080 CAVOK 22/13 Q1018=
200507080650 METAR ESMX 080650Z 03006KT 010V080 CAVOK 22/14 Q1018=
200507080620 METAR ESMX 080620Z 04005KT 360V090 CAVOK 21/15 Q1018=
200507080550 METAR ESMX 080550Z VRB03KT CAVOK 19/15 Q1017=
200507080520 METAR ESMX 080520Z 01004KT CAVOK 18/15 Q1017=
200507080450 METAR ESMX 080450Z 01004KT CAVOK 16/15 Q1017=
200507080420 METAR ESMX 080420Z VRB03KT CAVOK 14/14 Q1017=
200507080350 METAR ESMX 080350Z VRB03KT CAVOK 13/13 Q1017=
200507080320 METAR ESMX 080320Z AUTO VRB01KT 0800 R01/P1500U R19/P1500U FG NSC 10/10 Q1016=
200507080250 METAR ESMX 080250Z AUTO VRB01KT 9999 NSC 10/10 Q1016=
200507080220 METAR ESMX 080220Z AUTO VRB02KT 0550 R01/0800VP1500D R19/P1500U FG NSC 11/11 Q1016=
200507080150 METAR ESMX 080150Z AUTO VRB02KT 0800 R01/P1500N R19/P1500U BCFG NSC 12/11 Q1016=
200507080120 METAR ESMX 080120Z AUTO VRB01KT 0300 R01/0700VP1500D R19/P1500N FG NSC 11/11 Q1016=
200507080050 METAR ESMX 080050Z AUTO VRB01KT 5000 BR NSC 11/11 Q1016=
200507080020 METAR ESMX 080020Z AUTO VRB02KT 2000 BR NSC 12/11 Q1016=
200507072350 METAR ESMX 072350Z VRB02KT 9999 BCFG NSC 12/12 Q1016=
200507072320 METAR ESMX 072320Z 00000KT 9999 BCFG NSC 12/12 Q1016=
200507072250 METAR ESMX 072250Z VRB01KT 9999 BCFG NSC 13/12 Q1015=
200507072220 METAR ESMX 072220Z VRB01KT 9999 BCFG NSC 13/13 Q1015=
200507072150 METAR ESMX 072150Z VRB01KT 9999 MIFG NSC 14/13 Q1015=
200507072120 METAR ESMX 072120Z VRB02KT 9999 MIFG NSC 15/14 Q1015=
200507072050 METAR ESMX 072050Z VRB03KT 9999 MIFG NSC 15/14 Q1015=
200507072020 METAR ESMX 072020Z 02005KT CAVOK 16/15 Q1015=
200507071950 METAR ESMX 071950Z VRB02KT CAVOK 16/15 Q1015=
200507071920 METAR ESMX 071920Z VRB02KT CAVOK 16/16 Q1014=
200507071850 METAR ESMX 071850Z VRB02KT CAVOK 17/16 Q1014=
200507071820 METAR ESMX 071820Z 30005KT CAVOK 19/15 Q1014=
200507071750 METAR ESMX 071750Z 34005KT 9999 FEW060CB 20/16 Q1014=
200507071720 METAR ESMX 071720Z 27004KT 240V310 9999 SCT060CB 20/16 Q1013=
200507071650 METAR ESMX 071650Z 27004KT 240V310 9999 SCT060CB 20/16 Q1013=
200507071620 METAR ESMX 071620Z 35004KT 290V010 9999 SCT030CB 19/16 Q1013=
200507071550 METAR ESMX 071550Z 28006KT 260V340 9999 -SHRA FEW030 SCT055CB 19/16 Q1013=
200507071520 METAR ESMX 071520Z 33005KT 9999 TSRA FEW030 SCT050CB 19/16 Q1013=
200507071450 METAR ESMX 071450Z VRB03KT 9999 TS SHRA SCT030CB 18/15 Q1012=
200507071420 METAR ESMX 071420Z VRB03KT 9999 -SHRA FEW015 SCT030CB 16/15 Q1012=
200507071350 METAR ESMX 071350Z 08006KT 010V140 9999 TSRA SCT030CB 23/15 Q1012=
200507071320 METAR ESMX 071320Z VRB02KT 9999 TS SCT030CB 18/15 Q1012=
200507071250 METAR ESMX 071250Z 06011G30KT 010V130 9999 TSRA SCT025CB 18/12 Q1012=
200507071220 METAR ESMX 071220Z 09009KT 050V140 CAVOK 25/12 Q1012=
200507071150 METAR ESMX 071150Z 06008KT 350V130 CAVOK 25/12 Q1011=
200507071120 METAR ESMX 071120Z 09009KT 010V130 CAVOK 26/11 Q1011=
200507071050 METAR ESMX 071050Z 08009KT 030V150 CAVOK 26/11 Q1012=
200507071020 METAR ESMX 071020Z 05009KT 020V120 CAVOK 26/12 Q1012=
200507070950 METAR ESMX 070950Z 07008KT 020V120 CAVOK 25/12 Q1012=
200507070920 METAR ESMX 070920Z 07009KT 030V140 CAVOK 25/12 Q1011=
200507070850 METAR ESMX 070850Z 09006KT 020V140 CAVOK 24/13 Q1011=
200507070820 METAR ESMX 070820Z 09008KT 040V140 CAVOK 24/13 Q1011=
200507070750 METAR ESMX 070750Z 09006KT 040V150 CAVOK 23/14 Q1011=
200507070720 METAR ESMX 070720Z 08006KT 020V140 CAVOK 23/15 Q1011=
200507070650 METAR ESMX 070650Z VRB05KT 9999 FEW030 21/15 Q1011=
200507070620 METAR ESMX 070620Z 05008KT CAVOK 21/15 Q1011=
200507070550 METAR ESMX 070550Z 04007KT CAVOK 20/14 Q1011=
200507070520 METAR ESMX 070520Z 04007KT CAVOK 19/13 Q1010=
200507070450 METAR ESMX 070450Z 04006KT CAVOK 18/13 Q1010=
200507070420 METAR ESMX 070420Z 04006KT CAVOK 17/13 Q1011=
200507070350 METAR ESMX 070350Z VRB03KT CAVOK 15/12 Q1011=
200507070320 METAR ESMX 070320Z AUTO 04004KT 9999 NSC 15/12 Q1011=
200507070250 METAR ESMX 070250Z AUTO 03005KT 9999 NSC 15/12 Q1011=
200507070220 METAR ESMX 070220Z AUTO 03005KT 9999 NSC 14/12 Q1011=
200507070150 METAR ESMX 070150Z AUTO 02004KT 9999 NSC 14/12 Q1011=
200507070120 METAR ESMX 070120Z AUTO VRB03KT 9999 NSC 14/11 Q1011=
200507070050 METAR ESMX 070050Z AUTO VRB03KT 9999 NSC 14/11 Q1011=
200507070020 METAR ESMX 070020Z AUTO VRB02KT 9999 NSC 13/11 Q1011=
200507062350 METAR ESMX 062350Z VRB03KT CAVOK 14/11 Q1011=
200507062320 METAR ESMX 062320Z VRB02KT CAVOK 15/11 Q1011=
200507062250 METAR ESMX 062250Z VRB02KT CAVOK 16/11 Q1011=
200507062220 METAR ESMX 062220Z VRB02KT CAVOK 16/10 Q1011=
200507062150 METAR ESMX 062150Z VRB02KT CAVOK 16/10 Q1011=
200507062120 METAR ESMX 062120Z VRB03KT CAVOK 17/10 Q1011=
200507062050 METAR ESMX 062050Z VRB02KT CAVOK 18/10 Q1011=
200507062020 METAR ESMX 062020Z VRB03KT CAVOK 19/10 Q1011=
200507061950 METAR ESMX 061950Z VRB03KT CAVOK 21/10 Q1011=
200507061920 METAR ESMX 061920Z 13005KT 070V190 CAVOK 22/09 Q1011=
200507061850 METAR ESMX 061850Z 11006KT 070V150 CAVOK 23/08 Q1011=
200507061820 METAR ESMX 061820Z 12005KT 050V230 CAVOK 24/07 Q1010=
200507061750 METAR ESMX 061750Z 12005KT 080V170 CAVOK 24/07 Q1010=
200507061650 METAR ESMX 061650Z 10007KT 030V140 CAVOK 25/07 Q1010=
200507061620 METAR ESMX 061620Z 15008KT 100V200 CAVOK 26/07 Q1010=
200507061550 METAR ESMX 061550Z 14009KT 060V180 CAVOK 26/08 Q1010=
200507061520 METAR ESMX 061520Z 15008KT 080V190 CAVOK 26/07 Q1010=
200507061450 METAR ESMX 061450Z 11009KT 050V170 CAVOK 26/08 Q1010=
200507061420 METAR ESMX 061420Z 14008KT 060V200 CAVOK 26/08 Q1010=
200507061350 METAR ESMX 061350Z 15011KT 110V190 CAVOK 27/08 Q1010=
200507061320 METAR ESMX 061320Z 13009KT 050V170 CAVOK 27/09 Q1010=
200507061250 METAR ESMX 061250Z 14009KT 080V170 CAVOK 27/08 Q1010=
200507061220 METAR ESMX 061220Z 14010KT 080V190 CAVOK 27/08 Q1010=
200507061150 METAR ESMX 061150Z 13010KT 090V170 CAVOK 27/09 Q1010=
200507061120 METAR ESMX 061120Z 13007G17KT 060V190 CAVOK 27/09 Q1010=
200507061050 METAR ESMX 061050Z 15011G23KT 090V180 CAVOK 26/08 Q1010=
200507061020 METAR ESMX 061020Z 12009KT 050V170 CAVOK 26/09 Q1010=
200507060950 METAR ESMX 060950Z 12007KT 060V190 CAVOK 25/10 Q1010=
200507060920 METAR ESMX 060920Z VRB05KT CAVOK 26/10 Q1010=
200507060850 METAR ESMX 060850Z 13008KT 080V190 CAVOK 25/10 Q1010=
200507060820 METAR ESMX 060820Z 12007KT 050V180 CAVOK 25/11 Q1011=
200507060750 METAR ESMX 060750Z 11008KT 050V170 CAVOK 24/12 Q1011=
200507060720 METAR ESMX 060720Z 12005KT 050V190 CAVOK 23/12 Q1011=
200507060650 METAR ESMX 060650Z 11005KT 040V210 CAVOK 23/12 Q1011=
200507060620 METAR ESMX 060620Z 10005KT 050V160 CAVOK 22/13 Q1011=
200507060550 METAR ESMX 060550Z VRB05KT CAVOK 21/13 Q1011=
200507060520 METAR ESMX 060520Z 08004KT 350V110 CAVOK 19/13 Q1011=
200507060450 METAR ESMX 060450Z 08004KT 040V140 CAVOK 18/13 Q1011=
200507060420 METAR ESMX 060420Z 07004KT 020V120 CAVOK 17/12 Q1011=
200507060350 METAR ESMX 060350Z 08004KT 030V140 CAVOK 16/12 Q1011=
200507060320 METAR ESMX 060320Z AUTO 07004KT 050V120 9999 NSC 15/12 Q1011=
200507060250 METAR ESMX 060250Z AUTO 07005KT 350V120 9999 NSC 15/12 Q1011=
200507060220 METAR ESMX 060220Z AUTO VRB03KT 9999 NSC 14/11 Q1011=
200507060150 METAR ESMX 060150Z AUTO VRB03KT 9999 NSC 14/11 Q1012=
200507060120 METAR ESMX 060120Z AUTO VRB03KT 9999 NSC 14/11 Q1012=
200507060050 METAR ESMX 060050Z AUTO VRB03KT 9999 NSC 14/11 Q1012=
200507060020 METAR ESMX 060020Z AUTO VRB03KT 9999 NSC 14/11 Q1012=
200507052350 METAR ESMX 052350Z VRB03KT CAVOK 15/11 Q1012=
200507052320 METAR ESMX 052320Z AUTO VRB03KT 9999 NSC 15/11 Q1012=
200507052250 METAR ESMX 052250Z AUTO VRB02KT 9999 NSC 15/11 Q1013=
200507052220 METAR ESMX 052220Z AUTO VRB03KT 9999 NSC 16/11 Q1013=
200507052150 METAR ESMX 052150Z VRB02KT CAVOK 17/11 Q1012=
200507052120 METAR ESMX 052120Z AUTO VRB03KT 9999 NSC 17/11 Q1013=
200507052050 METAR ESMX 052050Z VRB03KT CAVOK 18/10 Q1013=
200507052020 METAR ESMX 052020Z VRB03KT CAVOK 19/10 Q1013=
200507051950 METAR ESMX 051950Z 11005KT 080V160 CAVOK 20/10 Q1012=
200507051920 METAR ESMX 051920Z VRB03KT CAVOK 21/10 Q1012=
200507051850 METAR ESMX 051850Z 12006KT 070V160 CAVOK 22/10 Q1012=
200507051820 METAR ESMX 051820Z 13007KT 090V170 CAVOK 22/09 Q1012=
200507051750 METAR ESMX 051750Z 10006KT 050V170 CAVOK 23/09 Q1012=
200507051720 METAR ESMX 051720Z 12006KT 070V180 CAVOK 23/09 Q1012=
200507051650 METAR ESMX 051650Z 14007KT 100V200 CAVOK 24/09 Q1012=
200507051620 METAR ESMX 051620Z 13008KT 070V170 CAVOK 24/09 Q1012=
200507051550 METAR ESMX 051550Z 11006KT 050V170 CAVOK 24/09 Q1012=
200507051520 METAR ESMX 051520Z 15009KT 080V190 CAVOK 25/09 Q1012=
200507051450 METAR ESMX 051450Z 14008KT 090V170 CAVOK 25/09 Q1012=
200507051420 METAR ESMX 051420Z 13009KT 100V170 CAVOK 25/09 Q1012=
200507051350 METAR ESMX 051350Z 14009KT 080V210 CAVOK 25/11 Q1012=
200507051320 METAR ESMX 051320Z 12009KT 060V200 CAVOK 26/11 Q1012=
200507051250 METAR ESMX 051250Z VRB10KT CAVOK 26/10 Q1012=
200507051220 METAR ESMX 051220Z 14009KT 050V170 CAVOK 26/10 Q1012=
200507051150 METAR ESMX 051150Z 14010KT 080V190 CAVOK 25/11 Q1012=
200507051120 METAR ESMX 051120Z 15011KT 100V220 CAVOK 25/11 Q1012=
200507051050 METAR ESMX 051050Z 13009KT 080V170 CAVOK 25/10 Q1012=
200507051020 METAR ESMX 051020Z 14011KT 090V170 CAVOK 25/11 Q1012=
200507050950 METAR ESMX 050950Z 12010KT 080V170 CAVOK 24/10 Q1012=
200507050920 METAR ESMX 050920Z 12010KT 050V170 CAVOK 24/10 Q1012=
200507050850 METAR ESMX 050850Z 14009KT 060V180 CAVOK 24/09 Q1012=
200507050820 METAR ESMX 050820Z 13009KT 060V170 CAVOK 23/10 Q1012=
200507050750 METAR ESMX 050750Z 11008G18KT 050V160 CAVOK 23/10 Q1013=
200507050720 METAR ESMX 050720Z VRB08KT CAVOK 22/12 Q1013=
200507050650 METAR ESMX 050650Z 13006KT 020V190 CAVOK 21/12 Q1013=
200507050620 METAR ESMX 050620Z 11006KT 060V160 CAVOK 20/11 Q1013=
200507050550 METAR ESMX 050550Z 08006KT 050V160 CAVOK 19/13 Q1013=
200507050520 METAR ESMX 050520Z VRB03KT CAVOK 17/13 Q1013=
200507050450 METAR ESMX 050450Z 06004KT 360V140 CAVOK 16/12 Q1013=
200507050420 METAR ESMX 050420Z 06005KT 030V120 CAVOK 15/12 Q1014=
200507050350 METAR ESMX 050350Z VRB03KT CAVOK 14/12 Q1014=
200507050320 METAR ESMX 050320Z AUTO 03004KT 360V110 9999 NSC 13/12 Q1014=
200507050250 METAR ESMX 050250Z AUTO VRB03KT 9999 NSC 13/11 Q1014=
200507050220 METAR ESMX 050220Z AUTO VRB03KT 9999 NSC 13/11 Q1014=
200507050150 METAR ESMX 050150Z AUTO 07004KT 020V100 9999 NSC 13/11 Q1014=
200507050120 METAR ESMX 050120Z AUTO 07004KT 050V110 9999 NSC 13/11 Q1014=
200507050050 METAR ESMX 050050Z AUTO VRB03KT 9999 NSC 13/11 Q1014=
200507050020 METAR ESMX 050020Z 08004KT 040V140 CAVOK 14/11 Q1015=
200507042350 METAR ESMX 042350Z AUTO 08005KT 040V130 9999 NSC 14/10 Q1015=
200507042320 METAR ESMX 042320Z AUTO 08005KT 040V120 9999 NSC 14/10 Q1015=
200507042250 METAR ESMX 042250Z AUTO 09005KT 050V140 9999 NSC 15/09 Q1015=
200507042220 METAR ESMX 042220Z 10005KT 060V150 CAVOK 15/09 Q1015=
200507042150 METAR ESMX 042150Z 10004KT 070V210 CAVOK 15/08 Q1016=
200507042120 METAR ESMX 042120Z 11004KT 030V170 CAVOK 16/09 Q1016=
200507042050 METAR ESMX 042050Z 10004KT 020V170 CAVOK 17/08 Q1015=
200507042020 METAR ESMX 042020Z 11005KT 080V190 CAVOK 17/08 Q1015=
200507041950 METAR ESMX 041950Z 11006KT 060V160 CAVOK 18/08 Q1015=
200507041920 METAR ESMX 041920Z 10007KT 060V140 CAVOK 19/07 Q1015=
200507041850 METAR ESMX 041850Z 10009KT 050V140 CAVOK 20/07 Q1015=
200507041820 METAR ESMX 041820Z 12008KT 070V170 CAVOK 21/08 Q1015=
200507041750 METAR ESMX 041750Z 12008KT 060V170 CAVOK 22/07 Q1015=
200507041720 METAR ESMX 041720Z 11006KT 040V170 CAVOK 22/07 Q1015=
200507041650 METAR ESMX 041650Z 13007KT 060V200 CAVOK 22/07 Q1015=
200507041620 METAR ESMX 041620Z 12007KT 050V170 CAVOK 23/06 Q1015=
200507041550 METAR ESMX 041550Z 12008KT 080V180 CAVOK 23/07 Q1016=
200507041520 METAR ESMX 041520Z 15008KT 110V170 CAVOK 24/07 Q1016=
200507041450 METAR ESMX 041450Z 15008KT 100V190 CAVOK 24/08 Q1016=
200507041420 METAR ESMX 041420Z 15008KT 100V200 CAVOK 24/07 Q1016=
200507041350 METAR ESMX 041350Z 15008KT 070V170 CAVOK 24/06 Q1016=
200507041320 METAR ESMX 041320Z 13009KT 080V170 CAVOK 24/08 Q1017=
200507041250 METAR ESMX 041250Z 14009KT 100V190 CAVOK 25/09 Q1017=
200507041220 METAR ESMX 041220Z 16010KT 120V200 CAVOK 24/08 Q1017=
200507041150 METAR ESMX 041150Z 14008KT 100V180 CAVOK 24/08 Q1017=
200507041120 METAR ESMX 041120Z 15009KT 080V200 CAVOK 24/09 Q1017=
200507041050 METAR ESMX 041050Z 16008KT 110V210 CAVOK 23/10 Q1017=
200507041020 METAR ESMX 041020Z 13008KT 080V190 CAVOK 23/11 Q1018=
200507040950 METAR ESMX 040950Z 13008KT 070V190 CAVOK 22/11 Q1018=
200507040920 METAR ESMX 040920Z 14008KT 100V190 CAVOK 22/11 Q1018=
200507040850 METAR ESMX 040850Z 15007KT 090V200 CAVOK 22/10 Q1018=
200507040820 METAR ESMX 040820Z 13008KT 100V180 CAVOK 21/11 Q1018=
200507040750 METAR ESMX 040750Z 15006KT 110V180 CAVOK 21/11 Q1019=
200507040720 METAR ESMX 040720Z 13006KT 060V170 CAVOK 20/11 Q1019=
200507040650 METAR ESMX 040650Z 14006KT 090V190 CAVOK 19/11 Q1019=
200507040620 METAR ESMX 040620Z 16005KT 110V190 CAVOK 19/11 Q1019=
200507040550 METAR ESMX 040550Z 14005KT 100V170 CAVOK 18/12 Q1019=
200507040520 METAR ESMX 040520Z 13004KT CAVOK 17/12 Q1019=
200507040450 METAR ESMX 040450Z 11004KT CAVOK 16/13 Q1019=
200507040420 METAR ESMX 040420Z VRB03KT CAVOK 15/13 Q1019=
200507040350 METAR ESMX 040350Z VRB01KT CAVOK 12/12 Q1019=
200507040320 METAR ESMX 040320Z AUTO VRB01KT 9999 NSC 11/11 Q1019=
200507040250 METAR ESMX 040250Z AUTO VRB02KT 9999 NSC 11/10 Q1019=
200507040220 METAR ESMX 040220Z AUTO VRB01KT 9999 NSC 12/11 Q1019=
200507040150 METAR ESMX 040150Z AUTO 15004KT 110V170 9999 NSC 13/12 Q1019=
200507040120 METAR ESMX 040120Z AUTO 16004KT 9999 NSC 14/12 Q1019=
200507040050 METAR ESMX 040050Z AUTO VRB03KT 9999 NSC 14/12 Q1019=
200507040020 METAR ESMX 040020Z 17004KT CAVOK 14/12 Q1019=
200507032350 METAR ESMX 032350Z VRB03KT CAVOK 14/11 Q1019=
200507032320 METAR ESMX 032320Z 16004KT CAVOK 16/12 Q1019=
200507032250 METAR ESMX 032250Z 15004KT CAVOK 15/12 Q1020=
200507032220 METAR ESMX 032220Z VRB03KT CAVOK 14/12 Q1020=
200507032150 METAR ESMX 032150Z 15004KT CAVOK 16/12 Q1020=
200507032120 METAR ESMX 032120Z 17004KT CAVOK 15/12 Q1020=
200507032050 METAR ESMX 032050Z 16004KT CAVOK 18/12 Q1019=
200507032020 METAR ESMX 032020Z 16005KT CAVOK 18/12 Q1019=
200507031950 METAR ESMX 031950Z 15006KT 120V190 CAVOK 19/11 Q1019=
200507031920 METAR ESMX 031920Z 15006KT CAVOK 19/12 Q1019=
200507031850 METAR ESMX 031850Z 14005KT CAVOK 20/12 Q1019=
200507031820 METAR ESMX 031820Z 16007KT CAVOK 20/12 Q1019=
200507031750 METAR ESMX 031750Z 16007KT CAVOK 21/11 Q1019=
200507031720 METAR ESMX 031720Z 16007KT 140V200 CAVOK 22/12 Q1019=
200507031650 METAR ESMX 031650Z 15008KT 120V180 CAVOK 22/12 Q1019=
200507031620 METAR ESMX 031620Z 14007KT 100V180 CAVOK 22/13 Q1019=
200507031550 METAR ESMX 031550Z 13008KT 080V180 CAVOK 22/12 Q1020=
200507031520 METAR ESMX 031520Z 13009KT 100V180 CAVOK 22/12 Q1020=
200507031450 METAR ESMX 031450Z 12008KT 070V200 CAVOK 23/12 Q1020=
200507031420 METAR ESMX 031420Z VRB02KT CAVOK 24/09 Q1020=
200507031350 METAR ESMX 031350Z VRB03KT CAVOK 24/09 Q1020=
200507031320 METAR ESMX 031320Z VRB03KT 9999 FEW028 SCT060 23/09 Q1020=
200507031250 METAR ESMX 031250Z VRB03KT CAVOK 24/10 Q1020=
200507031220 METAR ESMX 031220Z AUTO VRB02KT 9999 NSC 23/10 Q1020=
200507031150 METAR ESMX 031150Z AUTO 23004KT 140V250 9999 FEW053 24/09 Q1020=
200507031120 METAR ESMX 031120Z AUTO VRB04KT 9999 FEW054 22/09 Q1020=
200507031050 METAR ESMX 031050Z AUTO 21005KT 170V260 9999 FEW049 23/10 Q1020=
200507031020 METAR ESMX 031020Z AUTO VRB05KT 9999 FEW057 22/10 Q1021=
200507030950 METAR ESMX 030950Z AUTO 17006KT 100V260 9999 NSC 22/09 Q1021=
200507030920 METAR ESMX 030920Z AUTO VRB02KT 9999 NSC 22/12 Q1021=
200507030850 METAR ESMX 030850Z AUTO VRB02KT 9999 NSC 21/13 Q1021=
200507030820 METAR ESMX 030820Z AUTO VRB02KT 9999 FEW063 20/13 Q1021=
200507030750 METAR ESMX 030750Z AUTO VRB01KT 9999 NSC 20/12 Q1021=
200507030720 METAR ESMX 030720Z VRB01KT CAVOK 19/13 Q1021=
200507030650 METAR ESMX 030650Z VRB02KT CAVOK 19/14 Q1021=
200507030620 METAR ESMX 030620Z AUTO VRB01KT 9999 NSC 18/14 Q1021=
200507030550 METAR ESMX 030550Z AUTO VRB02KT 9999 NSC 17/14 Q1021=
200507030520 METAR ESMX 030520Z AUTO VRB02KT 9999 NSC 16/14 Q1021=
200507030450 METAR ESMX 030450Z AUTO VRB01KT 9999 NSC 15/14 Q1020=
200507030420 METAR ESMX 030420Z AUTO 00000KT 9999 NSC 15/14 Q1020=
200507030350 METAR ESMX 030350Z AUTO VRB01KT 9999 NSC 12/11 Q1020=
200507030320 METAR ESMX 030320Z AUTO 00000KT 3400 BR NSC 10/10 Q1020=
200507030250 METAR ESMX 030250Z AUTO 00000KT 9999 FEW088 10/10 Q1020=
200507030220 METAR ESMX 030220Z AUTO 00000KT 9999 BKN087 11/10 Q1020=
200507030150 METAR ESMX 030150Z AUTO VRB01KT 9999 BKN086 10/10 Q1020=
200507030120 METAR ESMX 030120Z AUTO VRB02KT 9999 BKN086 10/10 Q1021=
200507030050 METAR ESMX 030050Z AUTO VRB02KT 9000 FEW087 10/10 Q1021=
200507030020 METAR ESMX 030020Z AUTO VRB02KT 9000 NSC 11/10 Q1021=
200507022350 METAR ESMX 022350Z AUTO VRB01KT 9999 NSC 11/11 Q1021=
200507022320 METAR ESMX 022320Z AUTO VRB01KT 9999 NSC 11/10 Q1021=
200507022250 METAR ESMX 022250Z AUTO VRB01KT 9999 NSC 12/11 Q1021=
200507022220 METAR ESMX 022220Z AUTO VRB03KT 9999 BR NSC 12/11 Q1020=
200507022150 METAR ESMX 022150Z AUTO VRB02KT 9000 NSC 12/12 Q1020=
200507022120 METAR ESMX 022120Z AUTO VRB02KT 9999 NSC 13/12 Q1020=
200507022050 METAR ESMX 022050Z AUTO VRB02KT 9000 NSC 13/13 Q1020=
200507022020 METAR ESMX 022020Z AUTO VRB02KT 9999 NSC 14/13 Q1020=
200507021950 METAR ESMX 021950Z AUTO VRB02KT 9999 NSC 15/14 Q1020=
200507021920 METAR ESMX 021920Z AUTO VRB01KT 9999 FEW084 17/14 Q1020=
200507021850 METAR ESMX 021850Z AUTO VRB03KT 9999 SCT086 18/15 Q1019=
200507021820 METAR ESMX 021820Z AUTO VRB02KT 9999 BKN100 18/15 Q1019=
200507021750 METAR ESMX 021750Z AUTO VRB01KT 9999 BKN095 19/15 Q1019=
200507021720 METAR ESMX 021720Z AUTO VRB01KT 9999 BKN089 19/13 Q1019=
200507021650 METAR ESMX 021650Z AUTO VRB01KT 9999 SCT086 BKN100 18/14 Q1019 RERA=
200507021620 METAR ESMX 021620Z AUTO VRB03KT 9999 FEW063 OVC078 17/14 Q1019 RERA=
200507021550 METAR ESMX 021550Z AUTO 20008KT 190V250 9000 -SHRA BKN074 17/12 Q1019=
200507021520 METAR ESMX 021520Z AUTO 21011KT 9999 FEW032 BKN072 18/13 Q1019=
200507021450 METAR ESMX 021450Z AUTO VRB03KT 9999 FEW055 SCT082 BKN110 21/14 Q1019=
200507021420 METAR ESMX 021420Z AUTO VRB03KT 9999 BKN097 21/14 Q1019=
200507021350 METAR ESMX 021350Z AUTO 03006KT 350V070 9999 FEW056 SCT090 BKN100 21/15 Q1019=
200507021320 METAR ESMX 021320Z AUTO VRB03KT 9999 BKN084 20/15 Q1019=
200507021250 METAR ESMX 021250Z AUTO VRB03KT 9999 FEW059 BKN089 20/14 Q1019 RERA=
200507021220 METAR ESMX 021220Z AUTO 32005KT 300V020 9999 FEW045 20/13 Q1019 RERA=
200507021150 METAR ESMX 021150Z AUTO 35004KT 9999 -SHRA FEW058 19/13 Q1019=
200507021120 METAR ESMX 021120Z VRB03KT 9999 -SHRA FEW036 SCT066 BKN080 18/14 Q1019=
200507021050 METAR ESMX 021050Z VRB01KT 9999 VCSH SCT025 BKN084 18/15 Q1019=
200507021020 METAR ESMX 021020Z 01004KT 9999 -SHRA FEW010 SCT020 BKN080 17/15 Q1019=
200507020950 METAR ESMX 020950Z 24005KT 9999 -SHRA FEW007 SCT038 BKN061 18/14 Q1019=
200507020920 METAR ESMX 020920Z 20009KT 080V230 9999 VCSH SCT032 BKN096 18/13 Q1018=
200507020850 METAR ESMX 020850Z VRB03KT 9999 SCT030 SCT055 22/12 Q1018=
200507020820 METAR ESMX 020820Z 02005KT 350V070 9999 SCT031 20/12 Q1018=
200507020750 METAR ESMX 020750Z VRB03KT 9999 SCT040 21/13 Q1018=
200507020720 METAR ESMX 020720Z VRB03KT 9999 FEW030 20/13 Q1018=
200507020650 METAR ESMX 020650Z VRB02KT 9999 FEW030 19/12 Q1018=
200507020620 METAR ESMX 020620Z VRB01KT CAVOK 18/12 Q1018=
200507020550 METAR ESMX 020550Z AUTO VRB01KT 9999 NSC 17/12 Q1018=
200507020520 METAR ESMX 020520Z AUTO VRB01KT 9999 SCT051 17/12 Q1017=
200507020450 METAR ESMX 020450Z AUTO 00000KT 9999 FEW048 16/12 Q1017=
200507020420 METAR ESMX 020420Z AUTO 00000KT 9999 NSC 13/11 Q1017=
200507020350 METAR ESMX 020350Z AUTO VRB02KT 9999 NSC 10/10 Q1017=
200507020320 METAR ESMX 020320Z AUTO 00000KT 9999 NSC 09/09 Q1017=
200507020250 METAR ESMX 020250Z AUTO VRB02KT 9999 NSC 09/09 Q1016=
200507020220 METAR ESMX 020220Z AUTO VRB01KT 9999 SCT084 09/09 Q1016=
200507020150 METAR ESMX 020150Z AUTO VRB01KT 9999 FEW096 09/08 Q1016=
200507020120 METAR ESMX 020120Z AUTO VRB01KT 9999 SCT094 10/09 Q1016=
200507020050 METAR ESMX 020050Z AUTO VRB01KT 9999 BKN094 10/10 Q1016=
200507020020 METAR ESMX 020020Z AUTO 00000KT 9999 SCT093 10/10 Q1016=
200507012350 METAR ESMX 012350Z AUTO 00000KT 9999 BKN094 11/10 Q1016=
200507012320 METAR ESMX 012320Z AUTO 00000KT 9999 BKN094 12/11 Q1016=
200507012250 METAR ESMX 012250Z AUTO VRB03KT 9999 NSC 14/11 Q1016=
200507012220 METAR ESMX 012220Z AUTO VRB02KT 9999 FEW095 14/11 Q1016=
200507012150 METAR ESMX 012150Z AUTO VRB03KT 9999 FEW096 15/11 Q1015=
200507012120 METAR ESMX 012120Z AUTO VRB03KT 9999 FEW094 16/11 Q1015=
200507012050 METAR ESMX 012050Z AUTO 08004KT 050V140 9999 BKN094 17/12 Q1015=
200507012020 METAR ESMX 012020Z AUTO 06004KT 030V100 9999 OVC092 18/12 Q1015=
200507011950 METAR ESMX 011950Z AUTO 05004KT 020V080 9999 FEW066 OVC094 18/12 Q1015=
200507011920 METAR ESMX 011920Z AUTO VRB03KT 9999 OVC095 18/11 Q1014=
200507011850 METAR ESMX 011850Z AUTO 07004KT 030V100 9999 FEW056 OVC095 19/11 Q1014=
200507011820 METAR ESMX 011820Z AUTO 05004KT 010V080 9999 SCT056 OVC091 19/11 Q1014=
200507011750 METAR ESMX 011750Z 08004KT 030V120 CAVOK 20/10 Q1014=
200507011720 METAR ESMX 011720Z 04005KT CAVOK 20/11 Q1013=
200507011650 METAR ESMX 011650Z 05006KT 020V080 CAVOK 20/10 Q1013=
200507011620 METAR ESMX 011620Z VRB03KT CAVOK 21/09 Q1013=
200507011550 METAR ESMX 011550Z VRB03KT CAVOK 21/07 Q1013=
200507011520 METAR ESMX 011520Z VRB03KT CAVOK 21/08 Q1013=
200507011450 METAR ESMX 011450Z VRB03KT CAVOK 21/09 Q1013=
200507011420 METAR ESMX 011420Z 34004KT 320V070 CAVOK 20/08 Q1013=
200507011350 METAR ESMX 011350Z 31004KT 9999 FEW025 BKN085 20/09 Q1013=
200507011320 METAR ESMX 011320Z VRB01KT CAVOK 21/08 Q1013=
200507011250 METAR ESMX 011250Z 34005KT 320V020 CAVOK 19/09 Q1013=
200507011220 METAR ESMX 011220Z 31004KT 260V050 CAVOK 20/08 Q1013=
Fallo de consulta: el error es SELECT command denied to user 'users'@'localhost' for table 'tafs_2005'
