##########################################################
# Query made at 04/19/2024 20:52:36 UTC
# Time interval: from 08/01/2006 12:00  to 08/31/2006 12:59  UTC
##########################################################

##########################################################
# ESMX, Vaxjo (Sweden)
# WMO index: 02641. WIGOS ID: 0-20000-0-02648
# Latitude 56-51N. Longitude 014-50E. Altitude 199 m.
##########################################################

200608311250 METAR ESMX 311250Z 27005KT 240V320 9999 -SHRA FEW015CB SCT025 BKN050 16/13 Q1012 RERA REDZ=
200608311220 METAR ESMX 311220Z 30008KT 9999 FEW015CB SCT030 BKN050 16/14 Q1012=
200608311150 METAR ESMX 311150Z 28010KT 250V320 9999 VCSH FEW018CB BKN060 18/13 Q1012=
200608311120 METAR ESMX 311120Z 27010KT 9999 FEW018 SCT025 17/13 Q1012=
200608311050 METAR ESMX 311050Z 27010KT 230V300 9999 FEW015 SCT025 18/13 Q1012=
200608311020 METAR ESMX 311020Z 28008KT 240V310 9999 FEW015 SCT025 17/13 Q1012=
200608310950 METAR ESMX 310950Z 27009KT 9999 SCT020 18/13 Q1012=
200608310920 METAR ESMX 310920Z 30008KT 250V330 9999 SCT020 18/13 Q1012=
200608310850 METAR ESMX 310850Z 29007KT 260V320 9999 SCT016 18/14 Q1012=
200608310750 METAR ESMX 310750Z 29006KT 270V350 9999 FEW011 16/13 Q1012=
200608310720 METAR ESMX 310720Z 30007KT 9999 FEW008 16/13 Q1012=
200608310650 METAR ESMX 310650Z 31006KT CAVOK 15/13 Q1012=
200608310550 METAR ESMX 310550Z 29006KT 9999 FEW003 13/12 Q1012=
200608310520 METAR ESMX 310520Z 27006KT 9999 FEW004 12/11 Q1011=
200608310450 METAR ESMX 310450Z 29005KT CAVOK 11/11 Q1011=
200608310420 METAR ESMX 310420Z 29007KT CAVOK 11/11 Q1011=
200608310350 METAR ESMX 310350Z 29006KT CAVOK 11/11 Q1011=
200608310320 METAR ESMX 310320Z AUTO 30004KT 280V350 4200NDV R01/P1500N R19/P1500N BR NCD 10/10 Q1011=
200608310250 METAR ESMX 310250Z AUTO VRB02KT 1900NDV R01/P1500N R19/P1500N BR NCD 10/10 Q1011=
200608310220 METAR ESMX 310220Z AUTO 00000KT 2400NDV R01/P1500N R19/P1500N BR NCD 10/10 Q1011=
200608310150 METAR ESMX 310150Z AUTO 30004KT 9999NDV R01/P1500N R19/P1500N NCD 10/10 Q1011=
200608310120 METAR ESMX 310120Z AUTO 00000KT 6000NDV R01/P1500N R19/P1500N BR NCD 11/11 Q1010=
200608310050 METAR ESMX 310050Z AUTO 28004KT 9999NDV R01/P1500N R19/P1500N NCD 12/11 Q1010=
200608310020 METAR ESMX 310020Z AUTO 30005KT 9999NDV R01/P1500N R19/P1500N NCD 12/11 Q1010=
200608302350 METAR ESMX 302350Z 31005KT CAVOK 12/11 Q1010=
200608302320 METAR ESMX 302320Z 32005KT CAVOK 11/11 Q1010=
200608302250 METAR ESMX 302250Z 31004KT CAVOK 12/12 Q1010=
200608302220 METAR ESMX 302220Z 31003KT 290V350 CAVOK 12/12 Q1010=
200608302150 METAR ESMX 302150Z VRB02KT CAVOK 12/12 Q1009=
200608302120 METAR ESMX 302120Z 31003KT CAVOK 13/12 Q1009=
200608302050 METAR ESMX 302050Z 32003KT 290V350 CAVOK 13/13 Q1009=
200608302020 METAR ESMX 302020Z 31003KT CAVOK 14/13 Q1009=
200608301950 METAR ESMX 301950Z 32004KT 260V360 CAVOK 14/13 Q1009=
200608301920 METAR ESMX 301920Z 31004KT CAVOK 14/13 Q1009=
200608301850 METAR ESMX 301850Z 32004KT CAVOK 14/13 Q1008=
200608301820 METAR ESMX 301820Z 32004KT 290V360 CAVOK 15/14 Q1008=
200608301750 METAR ESMX 301750Z 30003KT CAVOK 15/14 Q1008=
200608301720 METAR ESMX 301720Z 32005KT 290V360 CAVOK 15/14 Q1008=
200608301650 METAR ESMX 301650Z 30005KT 9999 FEW015 BKN080 16/15 Q1008 RERA=
200608301620 METAR ESMX 301620Z 31005KT 9999 -RA FEW015 BKN070 15/15 Q1007=
200608301550 METAR ESMX 301550Z 33005KT 9999 -RA FEW008 BKN074 15/15 Q1007=
200608301520 METAR ESMX 301520Z 33006KT 9999 -RA FEW008 BKN075 16/15 Q1007=
200608301450 METAR ESMX 301450Z 01005KT 9999 -SHRA FEW008 SCT020CB BKN080 15/14 Q1007=
200608301420 METAR ESMX 301420Z 03005KT 9999 -SHRA FEW015 SCT020CB BKN100 15/14 Q1006=
200608301350 METAR ESMX 301350Z 02005KT 340V060 9999 -SHRA FEW006 SCT020CB BKN080 15/14 Q1006=
200608301320 METAR ESMX 301320Z 02004KT 350V070 9999 -SHRA FEW015 SCT050CB BKN080 15/14 Q1006=
200608301250 METAR ESMX 301250Z 06005KT 020V110 9999 -SHRA FEW015 SCT050CB BKN075 16/14 Q1006=
200608301220 METAR ESMX 301220Z 05003KT 350V080 9999 -SHRA FEW015 SCT045CB BKN080 16/14 Q1006=
200608301150 METAR ESMX 301150Z 11006KT 060V160 8000 -SHRA FEW018 SCT031CB BKN046 15/13 Q1005=
200608301120 METAR ESMX 301120Z 07004KT 360V140 9999 -RA FEW015 SCT059 BKN070 17/15 Q1005 REDZ=
200608301050 METAR ESMX 301050Z 03005KT 350V060 9999 -SHRA FEW015 SCT050CB BKN075 16/15 Q1005=
200608301020 METAR ESMX 301020Z 01006KT 9999 -SHRA FEW015 SCT045CB BKN075 16/15 Q1005 REDZ=
200608300950 METAR ESMX 300950Z 02006KT 9999 FEW007 BKN075 16/14 Q1004=
200608300920 METAR ESMX 300920Z 03007KT 9999 FEW008 SCT035 BKN080 16/14 Q1004=
200608300850 METAR ESMX 300850Z 36008KT 9999 FEW007 SCT035 BKN080 17/15 Q1004=
200608300820 METAR ESMX 300820Z 36007KT 9999 FEW007 BKN060 15/14 Q1004=
200608300750 METAR ESMX 300750Z 36007KT 9999 FEW015 BKN060 15/14 Q1003=
200608300720 METAR ESMX 300720Z 36006KT 9999 FEW015 BKN070 14/13 Q1003 RERA REDZ=
200608300650 METAR ESMX 300650Z 35007KT 9000 -RA FEW018 BKN050 14/13 Q1003=
200608300620 METAR ESMX 300620Z 36006KT 9000 -RA FEW020 BKN050 14/13 Q1003 REDZ=
200608300550 METAR ESMX 300550Z 01007KT 9999 -DZ FEW020 BKN050 13/13 Q1003 RERA=
200608300520 METAR ESMX 300520Z 36007KT 9999 FEW020 BKN050 13/13 Q1002 RERA=
200608300450 METAR ESMX 300450Z 01005KT 9999 -RA FEW010 BKN050 13/12 Q1002=
200608300420 METAR ESMX 300420Z 01005KT 9999 FEW010 BKN050 13/12 Q1002=
200608300350 METAR ESMX 300350Z 01005KT 9999 FEW049 SCT060 BKN075 13/12 Q1002=
200608300320 METAR ESMX 300320Z AUTO 02005KT 9999NDV R01/P1500N R19/P1500N BKN052/// 13/12 Q1002=
200608300250 METAR ESMX 300250Z AUTO 01007KT 9999NDV R01/P1500N R19/P1500N SCT049/// BKN068/// 13/12 Q1002 REDZ=
200608300220 METAR ESMX 300220Z AUTO 01006KT 9999NDV R01/P1500N R19/P1500N -DZ FEW053/// BKN066/// 13/12 Q1002=
200608300150 METAR ESMX 300150Z AUTO 01006KT 8000NDV R01/P1500N R19/P1500N -RA FEW025/// BKN066/// 13/13 Q1002 REDZ=
200608300120 METAR ESMX 300120Z AUTO 01005KT 330V040 9000NDV R01/P1500N R19/P1500N -RA FEW026/// BKN074/// 13/12 Q1002=
200608300050 METAR ESMX 300050Z AUTO 34006KT 9999NDV R01/P1500N R19/P1500N FEW047/// BKN078/// 13/12 Q1001=
200608300020 METAR ESMX 300020Z AUTO 36005KT 7000NDV R01/P1500N R19/P1500N BR FEW031/// SCT082/// 13/12 Q1001=
200608292350 METAR ESMX 292350Z 01003KT 5000 BR FEW025 BKN080 12/12 Q1001 RERA=
200608292320 METAR ESMX 292320Z 36002KT 7000 SHRA FEW028 SCT045 BKN078 12/12 Q1001=
200608292250 METAR ESMX 292250Z 00000KT 9999 SHRA FEW038 SCT064 12/12 Q1001=
200608292220 METAR ESMX 292220Z VRB01KT 9999 SHRA FEW023 SCT037 13/12 Q1001=
200608292150 METAR ESMX 292150Z 15006KT 110V190 8000 SHRA FEW019 SCT026 BKN053 13/12 Q1001=
200608292120 METAR ESMX 292120Z 03004KT 9999 SCT023 13/12 Q1001=
200608292050 METAR ESMX 292050Z 02004KT 9999 FEW029 13/12 Q1001=
200608292020 METAR ESMX 292020Z 02005KT 9999 FEW027 SCT110 13/12 Q1001=
200608291950 METAR ESMX 291950Z 03004KT 9999 FEW025 13/12 Q1001=
200608291920 METAR ESMX 291920Z 03004KT CAVOK 13/12 Q1001=
200608291850 METAR ESMX 291850Z 01004KT CAVOK 13/12 Q1000=
200608291820 METAR ESMX 291820Z 03003KT CAVOK 12/11 Q1000=
200608291750 METAR ESMX 291750Z 02003KT CAVOK 13/11 Q1000=
200608291720 METAR ESMX 291720Z 03004KT CAVOK 14/12 Q1000=
200608291650 METAR ESMX 291650Z VRB02KT 9999 FEW019 SCT035 BKN060 15/11 Q1000=
200608291620 METAR ESMX 291620Z 00000KT 9999 FEW036 BKN050 15/12 Q1000=
200608291550 METAR ESMX 291550Z 16004KT 9999 -DZ FEW040 BKN060 16/12 Q1000=
200608291520 METAR ESMX 291520Z 14004KT 100V170 9999 FEW035 BKN065 16/11 Q0999=
200608291450 METAR ESMX 291450Z VRB02KT 9999 FEW040CB SCT065 BKN090 17/11 Q0999=
200608291420 METAR ESMX 291420Z VRB02KT CAVOK 18/10 Q0999=
200608291350 METAR ESMX 291350Z VRB03KT CAVOK 17/11 Q0999=
200608291320 METAR ESMX 291320Z 09004KT 040V170 CAVOK 17/12 Q0999=
200608291250 METAR ESMX 291250Z 11004KT 060V160 9999 FEW025CB BKN066 17/11 Q0999=
200608291220 METAR ESMX 291220Z 12005KT 080V170 9999 FEW030 BKN070 17/12 Q0999=
200608291150 METAR ESMX 291150Z 17006KT 140V200 9999 -SHRA FEW032CB SCT043 BKN088 18/11 Q0999=
200608291120 METAR ESMX 291120Z 13006KT 080V170 9999 FEW030 SCT064 BKN076 18/11 Q0999=
200608291020 METAR ESMX 291020Z 14006KT 080V180 9999 SCT030 18/10 Q0999=
200608290950 METAR ESMX 290950Z 14005KT 060V200 9999 FEW025 SCT035 18/11 Q0999=
200608290920 METAR ESMX 290920Z 14005KT 110V190 9999 FEW023 17/11 Q0999=
200608290850 METAR ESMX 290850Z 16005KT 130V200 9999 FEW023 17/12 Q0999=
200608290820 METAR ESMX 290820Z 20006KT 9999 FEW015 16/12 Q0999=
200608290750 METAR ESMX 290750Z 15004KT 130V200 9999 FEW007 15/13 Q0999=
200608290720 METAR ESMX 290720Z 14004KT 9999 FEW007 14/12 Q0999=
200608290650 METAR ESMX 290650Z 15004KT 110V210 9999 FEW007 14/12 Q0998=
200608290620 METAR ESMX 290620Z 16004KT 9999 FEW003 13/13 Q0998=
200608290550 METAR ESMX 290550Z VRB02KT 8000 BR FEW002 12/12 Q0998=
200608290520 METAR ESMX 290520Z 15003KT 6000 BR NSC 11/10 Q0998=
200608290450 METAR ESMX 290450Z 17003KT 130V190 5000 BR NSC 10/09 Q0998=
200608290420 METAR ESMX 290420Z 17003KT 0150 R01/0350V0450N R19/0400V0700D FG VV001 08/07 Q0998=
200608290350 METAR ESMX 290350Z 19003KT 9999 BCFG FEW001 07/07 Q0998=
200608290320 METAR ESMX 290320Z AUTO 17003KT 0300NDV R01/0600VP1500D R19/0400D FG NCD 08/07 Q0998=
200608290250 METAR ESMX 290250Z AUTO 17003KT 6000NDV R01/P1500N R19/P1500U BR NCD 08/08 Q0998=
200608290220 METAR ESMX 290220Z AUTO 20002KT 9999NDV R01/P1500N R19/P1500N NCD 08/08 Q0998=
200608290150 METAR ESMX 290150Z AUTO 17003KT 140V210 9999NDV R01/P1500N R19/P1500N BR NCD 08/07 Q0998=
200608290120 METAR ESMX 290120Z AUTO 15003KT 5000NDV R01/P1500N R19/P1500N BR NCD 09/08 Q0998=
200608290050 METAR ESMX 290050Z AUTO 14002KT 9000NDV R01/P1500N R19/P1500N BR NCD 09/08 Q0998=
200608290020 METAR ESMX 290020Z AUTO 20003KT 3300NDV R01/P1500N R19/P1500N BR NCD 09/08 Q0998=
200608282350 METAR ESMX 282350Z 17003KT CAVOK 09/08 Q0998=
200608282320 METAR ESMX 282320Z 18005KT CAVOK 11/10 Q0998=
200608282250 METAR ESMX 282250Z 18004KT CAVOK 11/11 Q0998=
200608282220 METAR ESMX 282220Z 18004KT CAVOK 10/10 Q0998=
200608282150 METAR ESMX 282150Z 18004KT 9999 FEW031 11/10 Q0998=
200608282120 METAR ESMX 282120Z 17003KT CAVOK 10/09 Q0998=
200608282050 METAR ESMX 282050Z 16004KT CAVOK 12/10 Q0998=
200608282020 METAR ESMX 282020Z 17004KT 9999 FEW036 11/10 Q0998=
200608281950 METAR ESMX 281950Z 19005KT CAVOK 12/10 Q0998=
200608281920 METAR ESMX 281920Z 17004KT CAVOK 12/10 Q0998=
200608281850 METAR ESMX 281850Z 18004KT CAVOK 12/10 Q0997=
200608281820 METAR ESMX 281820Z 17005KT 9999 FEW045 13/10 Q0997=
200608281750 METAR ESMX 281750Z 20004KT 190V270 9999 VCSH FEW036CB 16/11 Q0997=
200608281720 METAR ESMX 281720Z 26004KT 220V310 9999 VCSH FEW035CB 16/10 Q0997=
200608281650 METAR ESMX 281650Z 27008KT 210V290 9999 FEW039 17/10 Q0997=
200608281620 METAR ESMX 281620Z 24008KT 9999 FEW043 18/10 Q0997=
200608281550 METAR ESMX 281550Z 23010KT 200V260 9999 FEW041 18/10 Q0997=
200608281520 METAR ESMX 281520Z 23010KT 9999 FEW045 18/10 Q0997=
200608281450 METAR ESMX 281450Z 24009KT 210V270 9999 FEW043 19/10 Q0997=
200608281420 METAR ESMX 281420Z 22010KT 200V280 9999 FEW041 19/09 Q0997=
200608281350 METAR ESMX 281350Z 24008KT 9999 SCT036 19/10 Q0997=
200608281320 METAR ESMX 281320Z 23009KT 170V280 9999 FEW036 19/10 Q0997=
200608281250 METAR ESMX 281250Z 26009KT 9999 FEW037 18/10 Q0997=
200608281220 METAR ESMX 281220Z 25009KT 220V300 9999 FEW040 SCT070 18/10 Q0997=
200608281150 METAR ESMX 281150Z 25009KT 210V290 9999 FEW028 SCT035 BKN075 18/12 Q0997=
200608281120 METAR ESMX 281120Z 25012KT 210V280 9999 FEW020 SCT030 BKN080 19/12 Q0997=
200608281050 METAR ESMX 281050Z 22011KT 180V260 9999 FEW025 BKN040 17/12 Q0997=
200608281020 METAR ESMX 281020Z 24011KT 210V280 9999 FEW025 SCT050 BKN061 17/12 Q0996=
200608280950 METAR ESMX 280950Z 24008KT 9999 FEW020 SCT059 16/12 Q0997=
200608280920 METAR ESMX 280920Z 23011KT 9999 FEW015 BKN023 16/13 Q0997=
200608280850 METAR ESMX 280850Z 24011KT 9000 BR FEW011 SCT017 BKN020 15/13 Q0996=
200608280820 METAR ESMX 280820Z 23011KT 200V260 9999 FEW010 BKN016 15/13 Q0996=
200608280750 METAR ESMX 280750Z 22008KT 9999 FEW006 BKN014 14/13 Q0996=
200608280720 METAR ESMX 280720Z 22008KT 6000 -RA FEW006 SCT011 BKN020 14/13 Q0996=
200608280650 METAR ESMX 280650Z 22008KT 9999 -RA FEW008 SCT015 BKN020 14/13 Q0996=
200608280620 METAR ESMX 280620Z 23007KT 9999 -RA FEW010 SCT012 BKN025 14/13 Q0996=
200608280550 METAR ESMX 280550Z 24007KT 200V270 9999 -RA FEW006 SCT011 BKN026 14/13 Q0996=
200608280520 METAR ESMX 280520Z 20007KT 9000 -RA FEW006 SCT011 BKN024 14/13 Q0996=
200608280450 METAR ESMX 280450Z 22008KT 9999 -RA FEW005 BKN008 14/13 Q0996=
200608280420 METAR ESMX 280420Z 21008KT 9999 -RA FEW006 OVC010 14/13 Q0996 REDZ=
200608280320 METAR ESMX 280320Z AUTO 19009KT 9999NDV R01/P1500N R19/P1500N -RA FEW005/// SCT009/// BKN012/// 14/13 Q0997=
200608280250 METAR ESMX 280250Z AUTO 18010KT 9999NDV R01/P1500N R19/P1500N RA FEW005/// SCT007/// BKN015/// 14/13 Q0997 REDZ=
200608280220 METAR ESMX 280220Z AUTO 19009KT 9999NDV R01/P1500N R19/P1500N -RA FEW004/// SCT006/// BKN009/// 14/13 Q0997=
200608280150 METAR ESMX 280150Z AUTO 19009KT 9000NDV R01/P1500N R19/P1500N RA FEW005/// SCT007/// BKN009/// 14/13 Q0997=
200608280120 METAR ESMX 280120Z AUTO 19007KT 9999NDV R01/P1500N R19/P1500N FEW006/// BKN010/// BKN017/// 14/13 Q0997=
200608280050 METAR ESMX 280050Z AUTO 14006KT 120V190 9999NDV R01/P1500N R19/P1500N BR FEW009/// BKN010/// OVC015/// 14/13 Q0998=
200608280020 METAR ESMX 280020Z 16005KT 110V200 5000 BR BKN004 13/13 Q0998=
200608272350 METAR ESMX 272350Z 16004KT 120V190 5000 BR OVC002 13/13 Q0998=
200608272320 METAR ESMX 272320Z 17005KT 7000 BR BKN004 13/12 Q0999=
200608272250 METAR ESMX 272250Z 16004KT 8000 BR SCT005 13/13 Q0999=
200608272220 METAR ESMX 272220Z 19005KT 5000 BR FEW002 13/12 Q0999=
200608272150 METAR ESMX 272150Z 18005KT 7000 BR SCT020 13/12 Q0999=
200608272120 METAR ESMX 272120Z 16004KT 9999 SCT020 13/12 Q0999=
200608272050 METAR ESMX 272050Z 18004KT 9999 FEW025 12/12 Q1000=
200608272020 METAR ESMX 272020Z 15002KT 9999 SCT025 BKN080 11/11 Q1000=
200608271950 METAR ESMX 271950Z 13003KT 9999 SCT025 BKN080 12/12 Q1000=
200608271920 METAR ESMX 271920Z 12003KT 9999 SCT020 BKN080 13/12 Q1000=
200608271850 METAR ESMX 271850Z 00000KT 9999 FEW015 SCT030 BKN100 13/12 Q1000=
200608271820 METAR ESMX 271820Z 00000KT 9999 FEW015 BKN100 13/12 Q1000=
200608271750 METAR ESMX 271750Z 12001KT 9999 FEW015 BKN100 14/13 Q1001=
200608271720 METAR ESMX 271720Z 00000KT 9999 FEW015 BKN100 15/13 Q1001=
200608271650 METAR ESMX 271650Z 22003KT 9999 FEW015 SCT060 16/13 Q1001=
200608271620 METAR ESMX 271620Z 21005KT 190V250 9999 FEW014 SCT023 16/13 Q1001=
200608271550 METAR ESMX 271550Z 25005KT 9999 FEW013 SCT021 16/13 Q1001=
200608271520 METAR ESMX 271520Z 23005KT 9999 FEW015 SCT022 BKN028 16/13 Q1001=
200608271450 METAR ESMX 271450Z 23008KT 9999 FEW016 SCT020 BKN032 16/13 Q1001=
200608271420 METAR ESMX 271420Z 22008KT 180V250 9999 FEW015 SCT043 17/13 Q1001=
200608271350 METAR ESMX 271350Z 24006KT 210V270 9999 FEW011 SCT080 17/13 Q1002=
200608271320 METAR ESMX 271320Z 22007KT 200V260 9999 FEW011 SCT030 16/13 Q1002=
200608271250 METAR ESMX 271250Z 25006KT 210V280 9999 FEW011 BKN035 15/13 Q1002=
200608271220 METAR ESMX 271220Z 25008KT 9999 FEW012 BKN030 15/13 Q1002=
200608271150 METAR ESMX 271150Z 21007KT 190V270 9999 SCT013 BKN030 18/15 Q1002=
200608271120 METAR ESMX 271120Z AUTO 21004KT 170V260 9999NDV R01/P1500D R19/P1500N FEW012/// SCT015/// BKN018/// 17/14 Q1002=
200608271050 METAR ESMX 271050Z AUTO 23003KT 170V260 9999NDV R01/P1500U R19/P1500U FEW008/// SCT015/// 17/14 Q1002=
200608271020 METAR ESMX 271020Z AUTO 22003KT 190V250 9999NDV R01/P1500U R19/P1500D FEW005/// SCT019/// BKN035/// 17/15 Q1002=
200608270950 METAR ESMX 270950Z AUTO VRB01KT 9999NDV R01/P1500U R19/P1500N FEW004/// SCT006/// BKN025/// 16/14 Q1003=
200608270920 METAR ESMX 270920Z AUTO 31003KT 260V330 9999NDV R01/P1500D R19/P1500N FEW007/// SCT008/// BKN012/// 16/14 Q1003=
200608270850 METAR ESMX 270850Z AUTO 28003KT 210V330 9999NDV R01/P1500D R19/P1500D FEW003/// SCT010/// BKN076/// 16/15 Q1003=
200608270820 METAR ESMX 270820Z AUTO 28004KT 9999NDV R01/P1500D R19/P1500D FEW009/// SCT023/// BKN029/// 15/15 Q1003=
200608270750 METAR ESMX 270750Z AUTO 28005KT 5000NDV R01/P1500U R19/P1500U -DZ FEW006/// SCT012/// BKN021/// 15/14 Q1003 RERA=
200608270720 METAR ESMX 270720Z AUTO 27004KT 5000NDV R01/P1500D R19/P1500U RA FEW003/// BKN005/// OVC012/// 14/14 Q1003 REDZ=
200608270650 METAR ESMX 270650Z AUTO 27006KT 4600NDV R01/P1500D R19/P1500U +RA FEW003/// SCT006/// BKN007/// 14/14 Q1003 REDZ=
200608270620 METAR ESMX 270620Z AUTO 26004KT 9999NDV R01/P1500D R19/P1500D DZ FEW004/// SCT013/// BKN052/// 14/14 Q1003 RERA=
200608270550 METAR ESMX 270550Z AUTO 27003KT 8000NDV R01/P1500D R19/P1500D BR FEW003/// BKN047/// BKN080/// 14/14 Q1004 RERA REDZ=
200608270520 METAR ESMX 270520Z AUTO 26002KT 9000NDV R01/P1500D R19/P1500D DZ SCT020/// BKN030/// OVC069/// 14/13 Q1004=
200608270450 METAR ESMX 270450Z AUTO 29003KT 9000NDV R01/P1500N R19/P1500U DZ BKN063/// 14/13 Q1004 RERA=
200608270420 METAR ESMX 270420Z AUTO 27003KT 8000NDV R01/P1500D R19/P1500U -RA FEW069/// 14/14 Q1004=
200608270350 METAR ESMX 270350Z AUTO 29002KT 3500NDV R01/P1500N R19/P1500N RA FEW070/// 14/14 Q1004=
200608270320 METAR ESMX 270320Z AUTO 03002KT 5000NDV R01/P1500N R19/P1500N RA FEW033/// 14/14 Q1005=
200608270250 METAR ESMX 270250Z AUTO 04003KT 020V080 4300NDV R01/P1500N R19/P1500N RA FEW007/// 15/14 Q1005=
200608270220 METAR ESMX 270220Z AUTO VRB02KT 3000NDV R01/P1500N R19/P1500N RA FEW005/// BKN007/// BKN015/// 15/14 Q1005=
200608270150 METAR ESMX 270150Z AUTO 00000KT 6000NDV R01/P1500N R19/P1500N -RA FEW006/// SCT007/// BKN009/// 15/14 Q1005=
200608270120 METAR ESMX 270120Z AUTO 06001KT 4700NDV R01/P1500N R19/P1500N BR FEW029/// OVC032/// 15/14 Q1005=
200608270050 METAR ESMX 270050Z AUTO VRB01KT 9000NDV R01/P1500N R19/P1500N FEW014/// SCT037/// BKN083/// 15/15 Q1006=
200608270020 METAR ESMX 270020Z AUTO 05002KT 9000NDV R01/P1500N R19/P1500N FEW006/// BKN066/// 15/15 Q1006=
200608262350 METAR ESMX 262350Z AUTO 07003KT 040V100 9999NDV R01/P1500N R19/P1500N SCT005/// BKN008/// BKN058/// 15/15 Q1006=
200608262320 METAR ESMX 262320Z AUTO VRB02KT 8000NDV R01/P1500N R19/P1500N BR FEW006/// SCT050/// BKN064/// 15/15 Q1006=
200608262250 METAR ESMX 262250Z AUTO 05003KT 030V110 9999NDV R01/P1500N R19/P1500N BR BKN004/// OVC057/// 15/15 Q1006=
200608262220 METAR ESMX 262220Z AUTO 03003KT 9999NDV R01/P1500N R19/P1500N BR FEW005/// BKN009/// OVC011/// 15/15 Q1006=
200608262150 METAR ESMX 262150Z AUTO 03002KT 7000NDV R01/P1500N R19/P1500N BR FEW009/// BKN079/// 15/15 Q1006=
200608262120 METAR ESMX 262120Z AUTO 04002KT 9999NDV R01/P1500N R19/P1500N FEW006/// BKN071/// 15/15 Q1006=
200608262050 METAR ESMX 262050Z AUTO 03003KT 9999NDV R01/P1500N R19/P1500N FEW013/// SCT016/// OVC074/// 15/15 Q1006=
200608262020 METAR ESMX 262020Z AUTO VRB02KT 9999NDV R01/P1500N R19/P1500N OVC073/// 15/15 Q1007=
200608261950 METAR ESMX 261950Z AUTO 00000KT 1000NDV R01/P1500U R19/P1500N BR BKN077/// 15/15 Q1007=
200608261920 METAR ESMX 261920Z AUTO 02003KT 4600NDV R01/P1500N R19/P1500N BR FEW007/// SCT077/// BKN087/// 15/15 Q1007=
200608261850 METAR ESMX 261850Z AUTO 03003KT 9999NDV R01/P1500N R19/P1500N BKN078/// 15/15 Q1007 REDZ RERA=
200608261820 METAR ESMX 261820Z AUTO 04003KT 9999NDV R01/P1500D R19/P1500U -RA FEW040/// OVC081/// 15/15 Q1007=
200608261750 METAR ESMX 261750Z AUTO 03004KT 9999NDV R01/P1500U R19/P1500U BKN035/// OVC092/// 16/15 Q1007=
200608261720 METAR ESMX 261720Z AUTO 03003KT 9999NDV R01/P1500D R19/P1500U FEW036/// SCT042/// BKN092/// 16/15 Q1007=
200608261650 METAR ESMX 261650Z AUTO 36003KT 9999NDV R01/P1500U R19/P1500D SCT082/// BKN093/// 16/15 Q1007=
200608261620 METAR ESMX 261620Z AUTO 00000KT 9999NDV R01/P1500D R19/P1500D BKN081/// 16/14 Q1007=
200608261550 METAR ESMX 261550Z AUTO 00000KT 9999NDV R01/P1500U R19/P1500D BKN061/// 16/15 Q1007 RERA REDZ=
200608261520 METAR ESMX 261520Z AUTO VRB01KT 9999NDV R01/P1500U R19/P1500U -RA FEW071/// 16/14 Q1007=
200608261450 METAR ESMX 261450Z AUTO VRB02KT 9999NDV R01/P1500D R19/P1500U -RA FEW021/// 16/14 Q1007=
200608261420 METAR ESMX 261420Z AUTO 23003KT 9999NDV R01/P1500U R19/P1500N -RA FEW004/// SCT048/// 16/15 Q1007=
200608261350 METAR ESMX 261350Z AUTO 23004KT 6000NDV R01/P1500U R19/P1500U -RA FEW002/// SCT005/// BKN008/// 16/15 Q1007=
200608261320 METAR ESMX 261320Z AUTO 22003KT 150V260 8000NDV R01/P1500D R19/P1500U -RA FEW002/// SCT005/// BKN006/// 17/15 Q1007=
200608261250 METAR ESMX 261250Z AUTO 00000KT 3800NDV R01/P1500N R19/P1500D +RA FEW006/// SCT011/// BKN015/// 17/16 Q1007=
200608261220 METAR ESMX 261220Z AUTO 34004KT 6000NDV R01/P1500D R19/P1500D RA FEW007/// SCT010/// BKN049/// 17/16 Q1007=
200608261150 METAR ESMX 261150Z AUTO 34005KT 9999NDV R01/P1500D R19/P1500D FEW007/// SCT009/// BKN014/// 17/16 Q1007=
200608261120 METAR ESMX 261120Z AUTO 34005KT 9999NDV R01/P1500D R19/P1500D FEW007/// SCT018/// BKN020/// 17/16 Q1007=
200608261050 METAR ESMX 261050Z AUTO 34003KT 290V020 9999NDV R01/P1500D R19/P1500D FEW006/// SCT007/// BKN009/// 17/16 Q1007 RERA REDZ=
200608261020 METAR ESMX 261020Z AUTO VRB01KT 6000NDV R01/P1500U R19/P1500D -RA FEW006/// 16/16 Q1008=
200608260950 METAR ESMX 260950Z AUTO 03005KT 8000NDV R01/P1500N R19/P1500U -RA FEW005/// SCT008/// BKN010/// 16/15 Q1007=
200608260920 METAR ESMX 260920Z AUTO 01004KT 9999NDV R01/P1500N R19/P1500U FEW009/// BKN015/// BKN029/// 17/15 Q1007 RERA=
200608260850 METAR ESMX 260850Z AUTO 34004KT 300V020 9999NDV R01/P1500U R19/P1500N FEW013/// SCT054/// BKN068/// 17/16 Q1007 RERA REDZ=
200608260820 METAR ESMX 260820Z AUTO VRB02KT 9999NDV R01/P1500U R19/P1500D FEW027/// SCT045/// 17/16 Q1007=
200608260750 METAR ESMX 260750Z AUTO 06002KT 9999NDV R01/P1500D R19/P1500D FEW027/// BKN031/// BKN039/// 16/16 Q1008=
200608260720 METAR ESMX 260720Z AUTO 00000KT 9999NDV R01/P1500D R19/P1500N FEW027/// BKN031/// BKN047/// 16/15 Q1007=
200608260650 METAR ESMX 260650Z AUTO 04002KT 9999NDV R01/P1500D R19/P1500D BKN027/// 15/15 Q1007=
200608260620 METAR ESMX 260620Z AUTO 03001KT 9999NDV R01/P1500U R19/P1500U FEW027/// 15/15 Q1007=
200608260550 METAR ESMX 260550Z AUTO 04003KT 8000NDV R01/P1500U R19/P1500U NCD 15/14 Q1007=
200608260520 METAR ESMX 260520Z AUTO 03003KT 6000NDV R01/P1500U R19/P1500D FEW088/// 13/13 Q1007=
200608260450 METAR ESMX 260450Z AUTO 04002KT 0650NDV R01/0800VP1500U R19/P1500D FG NCD 11/11 Q1007=
200608260420 METAR ESMX 260420Z AUTO 01001KT 0300NDV R01/0650N R19/P1500N FG NCD 10/10 Q1007=
200608260350 METAR ESMX 260350Z AUTO 00000KT 0150NDV R01/0450V0550N R19/0650VP1500D FG NCD 10/10 Q1007=
200608260320 METAR ESMX 260320Z AUTO 00000KT 0300NDV R01/0900V1400D R19/1000VP1500U FG NCD 10/10 Q1007=
200608260250 METAR ESMX 260250Z AUTO 00000KT 0500NDV R01/P1500U R19/0800D FG NCD 10/10 Q1007=
200608260220 METAR ESMX 260220Z AUTO 00000KT 0350NDV R01/0800VP1500U R19/0800V1300U FG NCD 10/10 Q1007=
200608260150 METAR ESMX 260150Z AUTO 00000KT 0500NDV R01/P1500U R19/0900VP1500N FG NCD 10/10 Q1007=
200608260120 METAR ESMX 260120Z AUTO VRB02KT 0400NDV R01/P1500U R19/P1500N FG NCD 10/10 Q1007=
200608260050 METAR ESMX 260050Z AUTO 00000KT 0200NDV R01/0650V1000N R19/0800VP1500N FG NCD 10/10 Q1007=
200608260020 METAR ESMX 260020Z AUTO 00000KT 0250NDV R01/0700VP1500D R19/0700V1000N FG NCD 11/11 Q1007=
200608252350 METAR ESMX 252350Z AUTO 00000KT 0200NDV R01/P1500U R19/0900V1100U FG NCD 11/11 Q1008=
200608252320 METAR ESMX 252320Z AUTO 18001KT 0300NDV R01/0750VP1500N R19/P1500N FG NCD 12/12 Q1008=
200608252250 METAR ESMX 252250Z AUTO 00000KT 0550NDV R01/P1500U R19/P1500N FG FEW078/// 12/12 Q1008=
200608252220 METAR ESMX 252220Z AUTO VRB01KT 1600NDV R01/P1500N R19/P1500N BCFG SCT071/// 12/12 Q1008=
200608252150 METAR ESMX 252150Z AUTO VRB01KT 0550NDV R01/P1500U R19/0900VP1500U BCFG BKN070/// 13/13 Q1008=
200608252120 METAR ESMX 252120Z AUTO 00000KT 0300NDV R01/0750VP1500N R19/0800VP1500D FG SCT070/// 13/12 Q1008=
200608252050 METAR ESMX 252050Z AUTO 00000KT 1200NDV R01/P1500N R19/P1500D FEW098/// 14/13 Q1007=
200608252020 METAR ESMX 252020Z AUTO 06002KT 2900NDV R01/P1500N R19/P1500N FG BKN091/// 14/13 Q1007=
200608251950 METAR ESMX 251950Z AUTO 04002KT 0350NDV R01/0900VP1500N R19/P1500N FG BKN091/// 14/13 Q1008=
200608251920 METAR ESMX 251920Z AUTO 00000KT 0700NDV R01/P1500D R19/P1500N FG SCT095/// 14/14 Q1008=
200608251850 METAR ESMX 251850Z AUTO VRB01KT 9999NDV R01/P1500N R19/P1500N FEW032/// BKN095/// 15/14 Q1007=
200608251820 METAR ESMX 251820Z VRB02KT 9999 FEW015CB BKN030 15/14 Q1007 RERA=
200608251750 METAR ESMX 251750Z 26004KT 3100 SHRA SCT015CB BKN035 15/14 Q1007=
200608251720 METAR ESMX 251720Z 17004KT 060V240 9999 TSRA SCT020CB BKN045 18/14 Q1007=
200608251650 METAR ESMX 251650Z 28005KT 9999 FEW040CB BKN045 19/15 Q1007=
200608251620 METAR ESMX 251620Z 33004KT 9999 FEW040CB BKN045 19/16 Q1007=
200608251550 METAR ESMX 251550Z 36002KT 9999 FEW040CB BKN045 19/15 Q1007=
200608251520 METAR ESMX 251520Z 01004KT 9999 FEW040CB SCT050 19/15 Q1007=
200608251450 METAR ESMX 251450Z 06003KT 020V100 9999 FEW040CB SCT040 20/14 Q1007=
200608251420 METAR ESMX 251420Z 03011KT 340V050 9999 FEW040CB BKN050 21/15 Q1007=
200608251350 METAR ESMX 251350Z VRB02KT 9999 SCT040 FEW050CB 21/15 Q1007=
200608251320 METAR ESMX 251320Z VRB01KT 9999 SCT040 FEW045CB 22/13 Q1007=
200608251250 METAR ESMX 251250Z 28004KT 9999 SCT040 FEW040CB 21/13 Q1007=
200608251220 METAR ESMX 251220Z 15003KT 100V240 9999 FEW030 FEW040CB 22/12 Q1007=
200608251150 METAR ESMX 251150Z 11004KT 070V150 9999 SCT035 22/12 Q1008=
200608251120 METAR ESMX 251120Z 11003KT 9999 FEW030 22/13 Q1008=
200608251050 METAR ESMX 251050Z 10003KT 060V170 9999 SCT040 22/13 Q1008=
200608251020 METAR ESMX 251020Z VRB02KT 9999 SCT030 22/12 Q1008=
200608250950 METAR ESMX 250950Z VRB02KT 9999 SCT025 21/14 Q1008=
200608250920 METAR ESMX 250920Z 30003KT 220V350 9999 SCT020 20/14 Q1008=
200608250850 METAR ESMX 250850Z VRB02KT 9999 FEW015 18/15 Q1008=
200608250820 METAR ESMX 250820Z VRB02KT 9999 SCT004 16/16 Q1008=
200608250750 METAR ESMX 250750Z VRB01KT 0500 R01/0800V1100U R19/0900VP1500U FG VV002 14/14 Q1008=
200608250720 METAR ESMX 250720Z VRB02KT 0200 R01/0400N R19/0375V0500N FG VV001 14/14 Q1008=
200608250620 METAR ESMX 250620Z VRB02KT 0150 R01/0250N R19/0750N FG VV001 13/13 Q1008=
200608250550 METAR ESMX 250550Z 00000KT 0150 R01/0300D R19/0400D FG VV001 12/12 Q1008=
200608250520 METAR ESMX 250520Z 00000KT 0550 R01/0700V1100D R19/0350V0600U FG VV002 11/11 Q1008=
200608250450 METAR ESMX 250450Z 18003KT 0400 R01/P1500U R19/0900VP1500D FG VV002 08/08 Q1008=
200608250420 METAR ESMX 250420Z 00000KT 1500 PRFG NSC 08/08 Q1008=
200608250350 METAR ESMX 250350Z 00000KT 2000 MIFG NSC 08/08 Q1008=
200608250320 METAR ESMX 250320Z AUTO 00000KT 9999NDV R01/P1500N R19/P1500N NCD 08/08 Q1008=
200608250250 METAR ESMX 250250Z AUTO 19002KT 9999NDV R01/P1500N R19/P1500N NCD 08/08 Q1008=
200608250220 METAR ESMX 250220Z AUTO 17002KT 9000NDV R01/P1500N R19/P1500N NCD 09/09 Q1008=
200608250150 METAR ESMX 250150Z AUTO 17002KT 8000NDV R01/P1500N R19/P1500N BR NCD 09/09 Q1008=
200608250120 METAR ESMX 250120Z AUTO 00000KT 4400NDV R01/P1500N R19/P1500N BR NCD 10/09 Q1009=
200608250050 METAR ESMX 250050Z AUTO 00000KT 2200NDV R01/P1500N R19/P1500U BR NCD 10/09 Q1008=
200608250020 METAR ESMX 250020Z AUTO 27003KT 9999NDV R01/P1500N R19/P1500N NCD 11/11 Q1009=
200608242350 METAR ESMX 242350Z 26003KT CAVOK 11/11 Q1008=
200608242220 METAR ESMX 242220Z 19002KT CAVOK 11/11 Q1009=
200608242150 METAR ESMX 242150Z 17002KT CAVOK 11/11 Q1009=
200608242120 METAR ESMX 242120Z 17001KT CAVOK 12/11 Q1009=
200608242050 METAR ESMX 242050Z 19001KT CAVOK 12/12 Q1008=
200608242020 METAR ESMX 242020Z 19002KT CAVOK 13/12 Q1008=
200608241950 METAR ESMX 241950Z 00000KT 9999 SCT030 14/13 Q1008=
200608241850 METAR ESMX 241850Z 21002KT 9999 FEW035 SCT080 15/14 Q1008=
200608241820 METAR ESMX 241820Z 00000KT 9999 FEW040 16/14 Q1008=
200608241750 METAR ESMX 241750Z 35002KT 9999 SCT036 17/15 Q1008=
200608241720 METAR ESMX 241720Z 35004KT 9999 FEW035 BKN060 19/14 Q1008=
200608241650 METAR ESMX 241650Z 36005KT 9999 FEW025CB SCT035 19/15 Q1008=
200608241620 METAR ESMX 241620Z 36005KT 9999 FEW020 SCT035 19/15 Q1008=
200608241550 METAR ESMX 241550Z 28006KT 250V330 9999 FEW035 SCT040 20/13 Q1008=
200608241520 METAR ESMX 241520Z VRB02KT 9999 FEW030CB SCT040 19/15 Q1008=
200608241450 METAR ESMX 241450Z 22003KT 190V250 9999 FEW030 SCT040 20/14 Q1008=
200608241420 METAR ESMX 241420Z VRB02KT 9999 FEW030 SCT040 20/13 Q1008=
200608241350 METAR ESMX 241350Z VRB06KT 9999 FEW030 SCT040 20/14 Q1008=
200608241320 METAR ESMX 241320Z 30005KT 260V330 9999 FEW030 SCT035 20/13 Q1008=
200608241250 METAR ESMX 241250Z 23009KT 190V260 9999 FEW025CB SCT035 20/14 Q1008=
200608241220 METAR ESMX 241220Z 25006KT 220V300 9999 FEW025CB SCT030 20/14 Q1008=
200608241150 METAR ESMX 241150Z 23005KT 200V260 9999 VCSH FEW025CB SCT030 20/15 Q1008=
200608241120 METAR ESMX 241120Z 29003KT 240V350 9999 FEW020CB BKN085 20/13 Q1008=
200608241050 METAR ESMX 241050Z 27005KT 160V290 9999 FEW016 SCT020CB 19/14 Q1008=
200608241020 METAR ESMX 241020Z 21003KT 140V290 9999 FEW023CB BKN040 19/15 Q1008 RESHRA=
200608240950 METAR ESMX 240950Z 25003KT 210V020 9999 FEW019 BKN025 18/14 Q1008=
200608240920 METAR ESMX 240920Z 34003KT 230V030 9999 FEW017 SCT027 18/14 Q1008=
200608240850 METAR ESMX 240850Z 32004KT 260V030 9999 FEW016 BKN021 18/15 Q1008=
200608240820 METAR ESMX 240820Z 29003KT 9999 BKN012 16/14 Q1008=
200608240750 METAR ESMX 240750Z 28003KT 230V330 9999 SCT010 BKN014 16/14 Q1008=
200608240720 METAR ESMX 240720Z 28003KT 230V320 9999 BKN009 15/14 Q1008=
200608240650 METAR ESMX 240650Z 26004KT 210V310 9999 OVC004 15/13 Q1008=
200608240620 METAR ESMX 240620Z 26005KT 230V300 9999 OVC004 14/13 Q1008=
200608240550 METAR ESMX 240550Z 25003KT 210V300 9999 BKN004 15/14 Q1008=
200608240520 METAR ESMX 240520Z 27003KT 220V300 9999 SCT005 BKN020 14/13 Q1008=
200608240450 METAR ESMX 240450Z VRB02KT 9999 FEW006 BKN008 14/13 Q1008=
200608240420 METAR ESMX 240420Z 28003KT 9999 BKN007 14/13 Q1008=
200608240350 METAR ESMX 240350Z AUTO 22003KT 9999NDV R01/P1500U R19/P1500U FEW007/// BKN009/// 14/13 Q1008=
200608240320 METAR ESMX 240320Z AUTO 23002KT 9999NDV R01/P1500N R19/P1500N BKN009/// 14/13 Q1008=
200608240250 METAR ESMX 240250Z AUTO 25004KT 210V300 9999NDV R01/P1500N R19/P1500N OVC008/// 15/13 Q1008=
200608240220 METAR ESMX 240220Z AUTO 27004KT 230V320 9999NDV R01/P1500N R19/P1500N OVC007/// 15/14 Q1008=
200608240150 METAR ESMX 240150Z AUTO 25003KT 230V290 9999NDV R01/P1500N R19/P1500N FEW006/// BKN008/// OVC010/// 15/14 Q1008=
200608240120 METAR ESMX 240120Z AUTO 26005KT 230V340 9999NDV R01/P1500N R19/P1500N FEW005/// OVC007/// 15/14 Q1008=
200608240050 METAR ESMX 240050Z AUTO 29004KT 240V330 9999NDV R01/P1500N R19/P1500N OVC004/// 15/14 Q1008=
200608240020 METAR ESMX 240020Z AUTO 26004KT 230V300 9999NDV R01/P1500N R19/P1500N BR OVC002/// 15/14 Q1008=
200608232350 METAR ESMX 232350Z 30004KT 260V340 9999 FEW003 BKN004 15/14 Q1008=
200608232320 METAR ESMX 232320Z 26004KT 8000 BR FEW004 BKN006 14/14 Q1008=
200608232250 METAR ESMX 232250Z 25004KT 9999 SCT002 14/14 Q1008=
200608232220 METAR ESMX 232220Z 25004KT CAVOK 13/13 Q1008=
200608232150 METAR ESMX 232150Z 25004KT CAVOK 14/13 Q1008=
200608232120 METAR ESMX 232120Z 24003KT 170V280 CAVOK 14/13 Q1008=
200608232050 METAR ESMX 232050Z 22004KT CAVOK 14/13 Q1008=
200608232020 METAR ESMX 232020Z 25004KT CAVOK 14/12 Q1007=
200608231950 METAR ESMX 231950Z 26003KT CAVOK 14/13 Q1007=
200608231920 METAR ESMX 231920Z 25003KT CAVOK 14/13 Q1007=
200608231850 METAR ESMX 231850Z 26004KT 220V280 CAVOK 16/13 Q1007=
200608231820 METAR ESMX 231820Z 26004KT 9999 FEW030 16/14 Q1007=
200608231750 METAR ESMX 231750Z 27004KT 250V310 9999 FEW030 SCT080 18/14 Q1007=
200608231720 METAR ESMX 231720Z 28004KT 250V320 9999 FEW030CB SCT100 19/15 Q1007 SHRA=
200608231650 METAR ESMX 231650Z 30007KT 9999 -SHRA FEW030 SCT094 19/15 Q1007=
200608231620 METAR ESMX 231620Z 30006KT 270V330 9999 FEW030CB 21/14 Q1006=
200608231520 METAR ESMX 231520Z 28007KT 230V320 9999 FEW030CB 21/14 Q1006=
200608231450 METAR ESMX 231450Z 29007KT 250V330 9999 FEW030CB 20/13 Q1006=
200608231420 METAR ESMX 231420Z 30009KT 260V320 9999 FEW030CB 20/13 Q1006=
200608231350 METAR ESMX 231350Z 32004KT 290V020 9999 FEW030CB 20/13 Q1006=
200608231320 METAR ESMX 231320Z 36004KT 320V050 9999 FEW030CB 20/14 Q1006=
200608231250 METAR ESMX 231250Z 27006KT 210V290 9999 FEW028CB SCT040 20/14 Q1006=
200608231220 METAR ESMX 231220Z 34006KT 300V020 9999 SCT030CB SCT040 21/15 Q1006=
200608231150 METAR ESMX 231150Z 26003KT 230V340 9999 FEW030CB SCT050 19/15 Q1007=
200608231120 METAR ESMX 231120Z 34006KT 320V050 9999 FEW023CB SCT035 18/15 Q1007 RESHRA=
200608231050 METAR ESMX 231050Z 01005KT 340V050 9999 FEW025TCU SCT035 19/14 Q1007=
200608231020 METAR ESMX 231020Z 34006KT 9999 SCT021 18/14 Q1007=
200608230950 METAR ESMX 230950Z 32004KT 280V010 9999 FEW011 SCT017 18/15 Q1007=
200608230920 METAR ESMX 230920Z 01005KT 9999 FEW008 BKN012 17/15 Q1007=
200608230850 METAR ESMX 230850Z 34006KT 9999 BKN006 16/14 Q1007=
200608230820 METAR ESMX 230820Z 34007KT 300V020 9999 BKN005 16/15 Q1007=
200608230750 METAR ESMX 230750Z 34005KT 310V010 9999 BKN004 15/15 Q1006=
200608230720 METAR ESMX 230720Z 35005KT 9999 BKN003 15/15 Q1006=
200608230650 METAR ESMX 230650Z 34005KT 3000 FG BKN002 15/14 Q1006=
200608230620 METAR ESMX 230620Z 34004KT 300V010 0900 R01/1000U R19/0900V1300U FG VV001 15/14 Q1006=
200608230550 METAR ESMX 230550Z 34004KT 0800 R01/0900V1100D R19/0800V1400D FG VV001 14/14 Q1006=
200608230520 METAR ESMX 230520Z 32004KT 0500 R01/1000N R19/P1500D FG VV001 14/14 Q1006=
200608230450 METAR ESMX 230450Z 35004KT 0750 R01/1300N R19/P1500D FG VV002 14/13 Q1006=
200608230420 METAR ESMX 230420Z 35004KT 0800 R01/1100N R19/P1500U FG VV002 13/13 Q1006=
200608230350 METAR ESMX 230350Z 34004KT 0400 R01/0750V1400D R19/1000D FG VV002 13/13 Q1006=
200608230320 METAR ESMX 230320Z AUTO 35004KT 1100NDV R01/P1500N R19/0900VP1500D VV000 14/13 Q1006=
200608230250 METAR ESMX 230250Z AUTO VRB02KT 0400NDV R01/1000VP1500D R19/P1500N FG BKN002/// OVC099/// 13/13 Q1006=
200608230220 METAR ESMX 230220Z AUTO 34002KT 0200NDV R01/0900U R19/P1500N FG OVC001/// 14/13 Q1006=
200608230150 METAR ESMX 230150Z AUTO 33002KT 0300NDV R01/1000D R19/P1500N FG FEW001/// SCT002/// BKN099/// 14/13 Q1006=
200608230120 METAR ESMX 230120Z AUTO 00000KT 0600NDV R01/P1500N R19/P1500N FG FEW002/// BKN097/// 14/14 Q1006=
200608230050 METAR ESMX 230050Z AUTO 00000KT 0550NDV R01/P1500U R19/P1500N FG FEW001/// OVC003/// 15/14 Q1006=
200608230020 METAR ESMX 230020Z AUTO 00000KT 0100NDV R01/0450N R19/P1500N FG OVC001/// 14/14 Q1006=
200608222350 METAR ESMX 222350Z VRB02KT 0800 R01/P1500N R19/P1500D FG VV002 14/14 Q1006=
200608222320 METAR ESMX 222320Z VRB02KT 6000 BR FEW002 SCT082 BKN098 14/14 Q1006=
200608222250 METAR ESMX 222250Z VRB01KT 7000 BR NSC 15/14 Q1006=
200608222220 METAR ESMX 222220Z 25002KT 8000 BR NSC 14/14 Q1006=
200608222150 METAR ESMX 222150Z 19002KT 8000 BR FEW015 BKN094 15/14 Q1006=
200608222120 METAR ESMX 222120Z 18002KT 9000 BR FEW003 BKN093 15/14 Q1006=
200608222050 METAR ESMX 222050Z 00000KT 8000 BR FEW014 BKN095 14/14 Q1006=
200608222020 METAR ESMX 222020Z 00000KT 9999 SCT014 BKN095 14/14 Q1006=
200608221950 METAR ESMX 221950Z 16002KT 9000 BR SCT015 BKN095 15/14 Q1007=
200608221920 METAR ESMX 221920Z 00000KT 8000 BR NSC 15/14 Q1007=
200608221850 METAR ESMX 221850Z 14003KT CAVOK 15/14 Q1007=
200608221820 METAR ESMX 221820Z 18002KT CAVOK 15/15 Q1007=
200608221750 METAR ESMX 221750Z 00000KT CAVOK 15/15 Q1006=
200608221720 METAR ESMX 221720Z 22003KT 9999 FEW045 SCT085 16/15 Q1006=
200608221650 METAR ESMX 221650Z 20005KT 9999 -SHRA FEW026CB BKN082 16/15 Q1006=
200608221620 METAR ESMX 221620Z 21006KT 9999 -SHRA FEW022CB SCT067 BKN086 17/15 Q1006=
200608221550 METAR ESMX 221550Z 21005KT 9999 FEW034CB BKN088 18/14 Q1006=
200608221520 METAR ESMX 221520Z VRB02KT 9999 FEW030CB SCT060 19/13 Q1006=
200608221450 METAR ESMX 221450Z 33003KT 290V020 9999 FEW035CB SCT063 BKN086 19/13 Q1006=
200608221420 METAR ESMX 221420Z 30004KT 260V350 9999 FEW030CB SCT055 18/14 Q1006 RESHRA=
200608221350 METAR ESMX 221350Z 30006KT 9999 FEW028 BKN078 18/14 Q1006=
200608221320 METAR ESMX 221320Z 27006KT 9999 SCT027 BKN110 19/13 Q1006=
200608221250 METAR ESMX 221250Z VRB04KT 9999 FEW024 SCT048 BKN110 20/13 Q1006=
200608221220 METAR ESMX 221220Z 22003KT 170V260 9999 FEW020 SCT050 BKN110 20/14 Q1006=
200608221150 METAR ESMX 221150Z 24004KT 190V290 9999 FEW020 SCT035 BKN100 19/14 Q1006=
200608221120 METAR ESMX 221120Z 21005KT 190V260 9999 FEW016 SCT044 BKN054 18/14 Q1006=
200608221050 METAR ESMX 221050Z 21005KT 190V270 9999 FEW016 SCT035 BKN042 18/14 Q1006=
200608221020 METAR ESMX 221020Z 23003KT 160V290 9999 FEW014 SCT030 BKN053 18/14 Q1006=
200608220950 METAR ESMX 220950Z 23004KT 190V290 9999 FEW014 SCT053 BKN110 18/14 Q1006=
200608220920 METAR ESMX 220920Z 23004KT 190V260 9999 SCT012 BKN019 17/14 Q1006=
200608220850 METAR ESMX 220850Z 24004KT 190V290 9999 FEW011 BKN015 17/14 Q1007=
200608220820 METAR ESMX 220820Z 29003KT 250V330 9999 OVC015 17/14 Q1007=
200608220750 METAR ESMX 220750Z 27004KT 9999 FEW007 OVC010 16/14 Q1006=
200608220720 METAR ESMX 220720Z 26002KT 9999 FEW006 OVC009 15/14 Q1006=
200608220650 METAR ESMX 220650Z 27004KT 9999 SCT001 OVC005 14/14 Q1006=
200608220620 METAR ESMX 220620Z 25003KT 210V280 3900 BR OVC001 14/14 Q1006=
200608220550 METAR ESMX 220550Z VRB02KT 2800 R01/P1500D R19/1400N FG VV002 14/14 Q1007=
200608220520 METAR ESMX 220520Z VRB02KT 1200 R01/P1500N R19/1100N FG VV002 14/14 Q1006=
200608220450 METAR ESMX 220450Z 27002KT 0800 R01/1000VP1500U R19/P1500D FG VV002 14/14 Q1006=
200608220420 METAR ESMX 220420Z 27003KT 0800 R01/0800V1100N R19/P1500N FG VV002 14/13 Q1006=
200608220350 METAR ESMX 220350Z 25003KT 5000 BR FEW002 BKN016 14/13 Q1006=
200608220320 METAR ESMX 220320Z AUTO 26003KT 5000NDV R01/P1500N R19/P1500N BR FEW013/// OVC100/// 14/13 Q1006=
200608220250 METAR ESMX 220250Z AUTO 26003KT 7000NDV R01/P1500N R19/P1500N BR BKN100/// 14/13 Q1007=
200608220220 METAR ESMX 220220Z AUTO 24003KT 7000NDV R01/P1500N R19/P1500N BR OVC100/// 13/13 Q1007=
200608220150 METAR ESMX 220150Z AUTO 24003KT 9999NDV R01/P1500N R19/P1500N FEW093/// BKN100/// 14/13 Q1007=
200608220120 METAR ESMX 220120Z AUTO 21003KT 9999NDV R01/P1500N R19/P1500N OVC094/// 14/13 Q1007=
200608220050 METAR ESMX 220050Z AUTO 24003KT 9999NDV R01/P1500N R19/P1500N FEW092/// BKN100/// 13/13 Q1007=
200608220020 METAR ESMX 220020Z AUTO 00000KT 8000NDV R01/P1500N R19/P1500N BR BKN100/// 14/13 Q1007=
200608212350 METAR ESMX 212350Z 00000KT CAVOK 14/13 Q1007=
200608212320 METAR ESMX 212320Z 24002KT 9999 BCFG SCT085 BKN100 13/13 Q1007=
200608212250 METAR ESMX 212250Z 24002KT CAVOK 14/13 Q1007=
200608212220 METAR ESMX 212220Z 26002KT 9999 SCT085 BKN110 14/13 Q1007=
200608212150 METAR ESMX 212150Z 26003KT 9999 FEW028 BKN085 14/14 Q1007=
200608212120 METAR ESMX 212120Z 26003KT CAVOK 14/14 Q1008=
200608212050 METAR ESMX 212050Z 24002KT CAVOK 15/14 Q1008=
200608212020 METAR ESMX 212020Z 26003KT 9999 BKN078 BKN100 14/13 Q1008=
200608211950 METAR ESMX 211950Z 24002KT CAVOK 14/13 Q1008=
200608211920 METAR ESMX 211920Z 23003KT CAVOK 14/13 Q1008=
200608211850 METAR ESMX 211850Z 27003KT CAVOK 15/13 Q1008=
200608211820 METAR ESMX 211820Z 28003KT 250V320 9999 FEW020 16/13 Q1008=
200608211750 METAR ESMX 211750Z 27004KT 9999 FEW020 SCT025 17/14 Q1008=
200608211720 METAR ESMX 211720Z 27004KT 9999 FEW023 SCT030 18/14 Q1008=
200608211650 METAR ESMX 211650Z 25005KT 9999 FEW024TCU 19/15 Q1008=
200608211620 METAR ESMX 211620Z 29004KT 270V330 9999 FEW030 SCT090 20/14 Q1008=
200608211550 METAR ESMX 211550Z 24005KT 220V290 9999 FEW030 SCT090 20/14 Q1008=
200608211520 METAR ESMX 211520Z 23003KT 9999 FEW025 BKN090 19/13 Q1008=
200608211450 METAR ESMX 211450Z 28003KT 220V330 9999 SCT020 BKN090 20/14 Q1008=
200608211420 METAR ESMX 211420Z 26003KT 210V290 9999 FEW020 SCT090 19/15 Q1008=
200608211350 METAR ESMX 211350Z VRB01KT 9999 FEW017 BKN060 17/16 Q1008=
200608211320 METAR ESMX 211320Z 01005KT 330V070 9999 VCSH FEW015 BKN060 15/14 Q1008 RERA=
200608211250 METAR ESMX 211250Z 33008KT 280V350 9999 VCSH FEW020CB SCT027 BKN041 18/15 Q1008=
200608211220 METAR ESMX 211220Z 22006KT 180V290 9999 SCT025TCU BKN039 21/15 Q1008=
200608211150 METAR ESMX 211150Z 23008KT 200V270 9999 SCT024TCU BKN037 21/14 Q1008=
200608211120 METAR ESMX 211120Z 24006KT 9999 SCT022 BKN045 20/15 Q1008=
200608211050 METAR ESMX 211050Z 19005KT 120V220 9999 SCT018 20/14 Q1009=
200608211020 METAR ESMX 211020Z 21003KT 090V260 9999 SCT017 20/14 Q1009=
200608210950 METAR ESMX 210950Z 26003KT 210V330 9999 SCT015 19/14 Q1009=
200608210920 METAR ESMX 210920Z 22005KT 170V260 9999 FEW007 SCT015 BKN040 19/15 Q1009=
200608210850 METAR ESMX 210850Z 21005KT 160V280 9999 SCT006 BKN015 19/15 Q1009=
200608210820 METAR ESMX 210820Z 21005KT 170V260 9999 SCT006 BKN015 17/15 Q1009=
200608210750 METAR ESMX 210750Z 26004KT 230V290 9999 SCT004 BKN009 BKN050 16/15 Q1009=
200608210720 METAR ESMX 210720Z 21004KT 180V240 9999 FEW005 BKN015 16/15 Q1009=
200608210650 METAR ESMX 210650Z VRB02KT 9999 SCT004 BKN020 16/15 Q1009=
200608210620 METAR ESMX 210620Z VRB01KT 9999 SCT003 BKN007 16/15 Q1009=
200608210550 METAR ESMX 210550Z VRB02KT 8000 BR SCT005 BKN020 15/15 Q1010=
200608210520 METAR ESMX 210520Z VRB02KT 8000 BR SCT004 BKN016 15/15 Q1010=
200608210450 METAR ESMX 210450Z 00000KT 8000 BR SCT002 BKN019 14/14 Q1010=
200608210420 METAR ESMX 210420Z 00000KT 7000 BR FEW001 BKN016 14/14 Q1010=
200608210350 METAR ESMX 210350Z AUTO 22001KT 3700NDV R01/P1500U R19/P1500D BR FEW001/// OVC016/// 14/14 Q1010=
200608210320 METAR ESMX 210320Z AUTO 24003KT 4600NDV R01/P1500N R19/P1500N BR FEW001/// BKN017/// 14/14 Q1010=
200608210250 METAR ESMX 210250Z AUTO 22002KT 4200NDV R01/P1500N R19/P1500N BR BKN018/// 14/14 Q1010=
200608210220 METAR ESMX 210220Z AUTO 00000KT 4200NDV R01/P1500N R19/P1500N BR SCT008/// BKN009/// OVC018/// 14/14 Q1010=
200608210150 METAR ESMX 210150Z AUTO 20003KT 6000NDV R01/P1500N R19/P1500N BR FEW008/// OVC013/// 14/14 Q1010=
200608210120 METAR ESMX 210120Z AUTO 20002KT 3700NDV R01/P1500N R19/P1500N BR FEW013/// OVC015/// 14/13 Q1010=
200608210050 METAR ESMX 210050Z AUTO 00000KT 5000NDV R01/P1500N R19/P1500N BR FEW004/// SCT007/// BKN012/// 14/13 Q1011=
200608210020 METAR ESMX 210020Z AUTO 00000KT 1600NDV R01/P1500N R19/P1500N FEW007/// SCT011/// BKN016/// 14/13 Q1011=
200608202350 METAR ESMX 202350Z 19002KT 2100 BCFG BKN006 13/13 Q1011=
200608202320 METAR ESMX 202320Z 00000KT 0400 R01/0900VP1500D R19/P1500N BCFG FEW005 BKN057 BKN097 14/13 Q1011=
200608202250 METAR ESMX 202250Z 00000KT 5000 FEW011 SCT056 BKN070 14/13 Q1011=
200608202220 METAR ESMX 202220Z 00000KT 2200 BBR FEW007 SCT011 BKN070 14/13 Q1011=
200608202150 METAR ESMX 202150Z 00000KT 0450 R01/P1500D R19/P1500D FG FEW005 SCT007 BKN078 14/14 Q1011=
200608202120 METAR ESMX 202120Z 00000KT 0400 R01/1100VP1500N R19/P1500N BCFG BKN079 14/14 Q1011=
200608202050 METAR ESMX 202050Z 00000KT 0400 R01/1300D R19/1000N BCFG FEW099 SCT110 14/14 Q1012=
200608202020 METAR ESMX 202020Z 00000KT 3000 -RA FEW013 SCT020 BKN057 15/14 Q1012=
200608201950 METAR ESMX 201950Z 00000KT 4700 BR FEW013 OVC018 15/14 Q1012 RERA=
200608201920 METAR ESMX 201920Z 00000KT 8000 BKN018 15/15 Q1012=
200608201850 METAR ESMX 201850Z 15002KT 6000 BR SCT018 BKN055 OVC077 15/14 Q1012=
200608201820 METAR ESMX 201820Z 15001KT 9000 FEW058 SCT070 15/15 Q1012 RERA REDZ=
200608201750 METAR ESMX 201750Z 23002KT 9999 -RA FEW042 BKN070 16/15 Q1012=
200608201720 METAR ESMX 201720Z VRB01KT 8000 -RA FEW043 BKN070 16/15 Q1012=
200608201650 METAR ESMX 201650Z AUTO 16003KT 120V200 9999NDV R01/P1500D R19/P1500D -RA FEW056/// 16/15 Q1012 REDZ=
200608201620 METAR ESMX 201620Z AUTO 16003KT 140V200 9999NDV R01/P1500D R19/P1500N -RA FEW061/// SCT076/// 16/15 Q1012 REDZ=
200608201550 METAR ESMX 201550Z AUTO 19003KT 9999NDV R01/P1500D R19/P1500U -RA FEW067/// 16/15 Q1012=
200608201520 METAR ESMX 201520Z 21005KT 9999 -RA FEW011 SCT080 BKN150 17/15 Q1013=
200608201450 METAR ESMX 201450Z 16003KT 9999 -RA SCT011 BKN150 17/15 Q1013=
200608201420 METAR ESMX 201420Z 18005KT 9999 -SHRA FEW013 BKN074 17/15 Q1013=
200608201350 METAR ESMX 201350Z 16003KT 9999 -SHRA FEW012 SCT046 BKN080 18/16 Q1013=
200608201320 METAR ESMX 201320Z 17003KT 9999 -DZ FEW012 SCT042 BKN150 18/16 Q1014=
200608201250 METAR ESMX 201250Z 16005KT 9999 SCT032 SCT081 BKN150 18/15 Q1014=
200608201220 METAR ESMX 201220Z 15003KT 9999 -DZ SCT013 BKN130 18/15 Q1014=
200608201150 METAR ESMX 201150Z VRB02KT 9999 FEW012 SCT045 BKN100 18/15 Q1013=
200608201120 METAR ESMX 201120Z 20005KT 9999 FEW012 SCT035 BKN100 18/15 Q1014=
200608201050 METAR ESMX 201050Z AUTO 18005KT 140V210 9999NDV R01/P1500U R19/P1500D FEW021/// 18/15 Q1014=
200608201020 METAR ESMX 201020Z AUTO 18007KT 140V200 9999NDV R01/P1500U R19/P1500D FEW014/// SCT040/// BKN045/// 18/15 Q1014=
200608200950 METAR ESMX 200950Z AUTO VRB02KT 9999NDV R01/P1500D R19/P1500D FEW047/// 19/15 Q1014=
200608200920 METAR ESMX 200920Z AUTO 16003KT 100V200 9999NDV R01/P1500U R19/P1500U FEW045/// 19/16 Q1014=
200608200850 METAR ESMX 200850Z AUTO VRB02KT 9999NDV R01/P1500U R19/P1500U FEW100/// 18/16 Q1014=
200608200820 METAR ESMX 200820Z AUTO VRB02KT 9999NDV R01/P1500U R19/P1500N SCT005/// 17/15 Q1014=
200608200750 METAR ESMX 200750Z AUTO 10003KT 050V170 9999NDV R01/P1500U R19/P1500U BR BKN003/// 16/16 Q1014=
200608200720 METAR ESMX 200720Z AUTO 06003KT 020V100 9000NDV R01/P1500U R19/P1500D BR OVC003/// 16/15 Q1014=
200608200650 METAR ESMX 200650Z AUTO VRB02KT 7000NDV R01/P1500D R19/P1500D BR OVC002/// 15/15 Q1014=
200608200620 METAR ESMX 200620Z AUTO VRB02KT 7000NDV R01/P1500D R19/P1500N BR OVC003/// 15/15 Q1014=
200608200550 METAR ESMX 200550Z AUTO VRB01KT 7000NDV R01/P1500D R19/P1500U BR OVC003/// 15/15 Q1014=
200608200520 METAR ESMX 200520Z AUTO VRB01KT 5000NDV R01/P1500D R19/P1500U OVC003/// 15/15 Q1014=
200608200450 METAR ESMX 200450Z AUTO 00000KT 3200NDV R01/P1500D R19/P1500D OVC004/// 14/14 Q1014=
200608200420 METAR ESMX 200420Z AUTO 00000KT 0300NDV R01/0650N R19/P1500U FG OVC003/// 14/13 Q1014=
200608200350 METAR ESMX 200350Z AUTO 00000KT 0300NDV R01/0800U R19/P1500U FG FEW002/// OVC003/// 14/13 Q1015=
200608200320 METAR ESMX 200320Z AUTO 00000KT 1500NDV R01/P1500N R19/P1500U BKN002/// OVC005/// 13/13 Q1015=
200608200250 METAR ESMX 200250Z AUTO 15002KT 0200NDV R01/0700N R19/P1500N FG OVC001/// 14/14 Q1015=
200608200220 METAR ESMX 200220Z AUTO 00000KT 0100NDV R01/0350V0550N R19/0350N FG OVC000/// 14/13 Q1015=
200608200150 METAR ESMX 200150Z AUTO 19002KT 0100NDV R01/0400V0550N R19/0400N FG VV000 14/14 Q1015=
200608200120 METAR ESMX 200120Z AUTO 20002KT 0100NDV R01/0500N R19/0400N FG NCD 14/14 Q1015=
200608200050 METAR ESMX 200050Z AUTO VRB01KT 0300NDV R01/0800V1300U R19/P1500N FG FEW001/// OVC004/// 14/14 Q1015=
200608200020 METAR ESMX 200020Z AUTO 32003KT 270V020 0300NDV R01/0800V1300U R19/1300N FG VV001 15/15 Q1015=
200608192350 METAR ESMX 192350Z AUTO 27004KT 240V300 0150NDV R01/0650N R19/0650N FG VV000 15/14 Q1015=
200608192320 METAR ESMX 192320Z AUTO 26004KT 0150NDV R01/0550N R19/0750N FG VV000 15/14 Q1015=
200608192250 METAR ESMX 192250Z AUTO 26004KT 0300NDV R01/0750VP1500D R19/P1500N FG NCD 14/14 Q1015=
200608192220 METAR ESMX 192220Z AUTO 26004KT 3300NDV R01/P1500N R19/P1500N SCT001/// BKN004/// OVC030/// 15/15 Q1015=
200608192150 METAR ESMX 192150Z AUTO 23001KT 0250NDV R01/P1500U R19/0650V1000N FG SCT030/// 14/13 Q1014=
200608192120 METAR ESMX 192120Z AUTO VRB02KT 5000NDV R01/P1500N R19/0500VP1500D BR FEW032/// 15/15 Q1014=
200608192050 METAR ESMX 192050Z AUTO VRB01KT 6000NDV R01/P1500N R19/P1500N BR FEW001/// SCT003/// BKN018/// 16/15 Q1014=
200608192020 METAR ESMX 192020Z AUTO 24002KT 4400NDV R01/P1500N R19/P1500N BR FEW003/// SCT008/// BKN011/// 16/16 Q1014=
200608191950 METAR ESMX 191950Z AUTO 29002KT 5000NDV R01/P1500N R19/P1500N BR FEW009/// BKN011/// OVC016/// 17/16 Q1014=
200608191920 METAR ESMX 191920Z AUTO 28002KT 3300NDV R01/P1500N R19/P1500N BR BKN003/// OVC022/// 17/16 Q1014 RERA REDZ=
200608191850 METAR ESMX 191850Z AUTO 00000KT 5000NDV R01/P1500N R19/P1500N BR FEW005/// SCT009/// BKN012/// 17/16 Q1014 RERA REDZ=
200608191820 METAR ESMX 191820Z AUTO 34002KT 5000NDV R01/P1500U R19/P1500D BR FEW007/// BKN012/// OVC019/// 17/16 Q1013=
200608191750 METAR ESMX 191750Z AUTO 00000KT 7000NDV R01/P1500U R19/P1500D BR SCT012/// BKN017/// OVC020/// 17/17 Q1013=
200608191720 METAR ESMX 191720Z AUTO VRB01KT 8000NDV R01/P1500U R19/P1500U BR SCT013/// BKN019/// OVC026/// 17/17 Q1013=
200608191650 METAR ESMX 191650Z AUTO VRB02KT 7000NDV R01/P1500U R19/P1500N BR FEW013/// BKN020/// OVC025/// 17/17 Q1013=
200608191620 METAR ESMX 191620Z AUTO 03003KT 6000NDV R01/P1500U R19/P1500D -DZ FEW007/// SCT019/// BKN021/// 17/17 Q1013 RERA=
200608191550 METAR ESMX 191550Z AUTO 04003KT 6000NDV R01/P1500D R19/P1500U DZ FEW007/// BKN014/// BKN019/// 17/16 Q1013 RERA=
200608191520 METAR ESMX 191520Z AUTO 01003KT 4900NDV R01/P1500D R19/P1500D DZ SCT010/// BKN015/// BKN020/// 17/17 Q1013 RERA=
200608191450 METAR ESMX 191450Z AUTO 03001KT 3900NDV R01/P1500U R19/P1500U -RA FEW006/// OVC009/// 18/17 Q1013=
200608191420 METAR ESMX 191420Z AUTO 00000KT 5000NDV R01/P1500U R19/P1500N -RA FEW006/// BKN011/// BKN015/// 18/17 Q1013 REDZ=
200608191350 METAR ESMX 191350Z AUTO 00000KT 9999NDV R01/P1500N R19/P1500D -RA SCT014/// BKN018/// OVC023/// 18/17 Q1013 REDZ=
200608191320 METAR ESMX 191320Z AUTO 00000KT 5000NDV R01/P1500D R19/P1500U DZ FEW017/// SCT037/// BKN042/// 17/17 Q1013 RERA=
200608191250 METAR ESMX 191250Z AUTO VRB01KT 2900NDV R01/P1500U R19/P1500U +RA FEW003/// SCT006/// BKN009/// 17/17 Q1013=
200608191220 METAR ESMX 191220Z AUTO VRB02KT 2700NDV R01/P1500D R19/P1500N +RA FEW004/// SCT007/// BKN026/// 17/17 Q1013 REDZ=
200608191150 METAR ESMX 191150Z AUTO 00000KT 6000NDV R01/P1500N R19/P1500U DZ FEW008/// SCT036/// BKN047/// 18/17 Q1013 RERA=
200608191120 METAR ESMX 191120Z AUTO VRB02KT 5000NDV R01/P1500D R19/P1500D RA FEW005/// SCT008/// BKN012/// 17/17 Q1013=
200608191050 METAR ESMX 191050Z AUTO VRB01KT 5000NDV R01/P1500N R19/P1500U -RA FEW027/// SCT045/// 17/16 Q1013=
200608191020 METAR ESMX 191020Z AUTO VRB02KT 7000NDV R01/P1500D R19/P1500D -RA FEW034/// SCT046/// 17/16 Q1013 REDZ=
200608190950 METAR ESMX 190950Z AUTO 00000KT 6000NDV R01/P1500D R19/P1500U RA NCD 17/16 Q1013=
200608190920 METAR ESMX 190920Z AUTO VRB01KT 7000NDV R01/P1500U R19/P1500U -RA NCD 17/16 Q1013=
200608190850 METAR ESMX 190850Z AUTO VRB02KT 7000NDV R01/P1500U R19/P1500U -RA FEW086/// 17/16 Q1013=
200608190820 METAR ESMX 190820Z AUTO VRB02KT 7000NDV R01/P1500D R19/P1500U -RA NCD 17/16 Q1013=
200608190750 METAR ESMX 190750Z AUTO 06002KT 9999NDV R01/P1500D R19/P1500U -RA FEW068/// SCT079/// 17/16 Q1013 REDZ=
200608190720 METAR ESMX 190720Z AUTO VRB02KT 9999NDV R01/P1500D R19/P1500D -DZ BKN079/// 17/15 Q1013 RERA=
200608190650 METAR ESMX 190650Z AUTO 06003KT 020V110 9999NDV R01/P1500U R19/P1500U BKN086/// 17/15 Q1012=
200608190620 METAR ESMX 190620Z AUTO 06003KT 030V100 9999NDV R01/P1500D R19/P1500D FEW100/// 17/15 Q1012=
200608190550 METAR ESMX 190550Z AUTO 05003KT 350V090 9000NDV R01/P1500U R19/P1500D BR NCD 16/16 Q1012=
200608190520 METAR ESMX 190520Z AUTO 03003KT 7000NDV R01/P1500U R19/P1500N BR NCD 15/15 Q1012=
200608190450 METAR ESMX 190450Z AUTO VRB01KT 6000NDV R01/P1500U R19/P1500U BR SCT093/// 15/15 Q1012=
200608190420 METAR ESMX 190420Z AUTO 05004KT 6000NDV R01/P1500U R19/P1500U BR SCT095/// 15/14 Q1012=
200608190350 METAR ESMX 190350Z AUTO 05003KT 3400NDV R01/P1500D R19/P1500D BR NCD 12/12 Q1012=
200608190320 METAR ESMX 190320Z AUTO 05003KT 2600NDV R01/P1500N R19/P1500N BR NCD 11/10 Q1012=
200608190250 METAR ESMX 190250Z AUTO 04003KT 6000NDV R01/P1500N R19/P1500N BR NCD 11/10 Q1012=
200608190220 METAR ESMX 190220Z AUTO 00000KT 5000NDV R01/P1500N R19/P1500N BR NCD 11/11 Q1012=
200608190150 METAR ESMX 190150Z AUTO 05003KT 3800NDV R01/P1500N R19/P1500N NCD 11/11 Q1012=
200608190120 METAR ESMX 190120Z AUTO 03003KT 1600NDV R01/P1500N R19/P1500N NCD 11/11 Q1012=
200608190050 METAR ESMX 190050Z AUTO VRB01KT 7000NDV R01/P1500N R19/P1500N BCFG NCD 12/11 Q1012=
200608190020 METAR ESMX 190020Z AUTO 00000KT 0450NDV R01/0800VP1500N R19/P1500N FG NCD 12/11 Q1012=
200608182350 METAR ESMX 182350Z AUTO 00000KT 7000NDV R01/P1500N R19/P1500N BR NCD 12/11 Q1012=
200608182320 METAR ESMX 182320Z AUTO 08002KT 9999NDV R01/P1500N R19/P1500N BR NCD 12/12 Q1011=
200608182250 METAR ESMX 182250Z AUTO 00000KT 9999NDV R01/P1500N R19/P1500N NCD 13/12 Q1011=
200608182220 METAR ESMX 182220Z AUTO 06002KT 9999NDV R01/P1500N R19/P1500N NCD 15/14 Q1011=
200608182150 METAR ESMX 182150Z AUTO 07003KT 9999NDV R01/P1500N R19/P1500N NCD 15/14 Q1011=
200608182120 METAR ESMX 182120Z AUTO 09003KT 9999NDV R01/P1500N R19/P1500N NCD 15/14 Q1011=
200608182050 METAR ESMX 182050Z AUTO 07003KT 9999NDV R01/P1500N R19/P1500N NCD 15/15 Q1011=
200608182020 METAR ESMX 182020Z AUTO 06002KT 9000NDV R01/P1500N R19/P1500N NCD 16/15 Q1011=
200608181950 METAR ESMX 181950Z AUTO VRB01KT 9999NDV R01/P1500N R19/P1500N NCD 16/15 Q1011=
200608181920 METAR ESMX 181920Z AUTO 11002KT 9999NDV R01/P1500N R19/P1500N NCD 17/15 Q1011=
200608181850 METAR ESMX 181850Z AUTO 11002KT 9999NDV R01/P1500D R19/P1500D NCD 18/15 Q1011=
200608181820 METAR ESMX 181820Z AUTO VRB02KT 9999NDV R01/P1500D R19/P1500D FEW041/// 19/15 Q1010=
200608181750 METAR ESMX 181750Z AUTO VRB02KT 9999NDV R01/P1500U R19/P1500U FEW038/// 20/15 Q1010=
200608181720 METAR ESMX 181720Z 09003KT 060V150 9999 FEW045 21/15 Q1009=
200608181650 METAR ESMX 181650Z 10003KT 060V170 9999 FEW042 22/15 Q1009=
200608181620 METAR ESMX 181620Z 09003KT 050V120 9999 FEW040 22/16 Q1010=
200608181550 METAR ESMX 181550Z 08003KT 040V110 9999 FEW045 22/16 Q1010=
200608181520 METAR ESMX 181520Z VRB02KT 9999 FEW043 22/15 Q1010=
200608181420 METAR ESMX 181420Z 04003KT 9999 FEW041 22/16 Q1010=
200608181350 METAR ESMX 181350Z VRB02KT 9999 FEW035 22/15 Q1010=
200608181320 METAR ESMX 181320Z 03004KT 9999 FEW036 23/15 Q1010=
200608181250 METAR ESMX 181250Z 16003KT 020V190 9999 FEW030 23/15 Q1010=
200608181120 METAR ESMX 181120Z 14004KT 080V200 9999 FEW028 SCT050 22/14 Q1010=
200608181050 METAR ESMX 181050Z VRB02KT 9999 FEW030 21/14 Q1011=
200608181020 METAR ESMX 181020Z 17003KT 120V230 9999 FEW024 22/15 Q1011=
200608180950 METAR ESMX 180950Z VRB02KT 9999 FEW029 SCT035 21/16 Q1011=
200608180850 METAR ESMX 180850Z VRB02KT 9999 SCT020 19/17 Q1011=
200608180820 METAR ESMX 180820Z VRB02KT 9999 SCT012 18/17 Q1011=
200608180750 METAR ESMX 180750Z VRB02KT 7000 BR BKN002 17/16 Q1011=
200608180720 METAR ESMX 180720Z VRB02KT 6000 BR BKN001 16/15 Q1011=
200608180650 METAR ESMX 180650Z 06003KT 010V120 1000S R19/P1500U BCFG VV002 16/15 Q1010=
200608180620 METAR ESMX 180620Z AUTO 36004KT 0200NDV R01/0350V0550N R19/0325V0550N FG VV000 15/15 Q1010=
200608180550 METAR ESMX 180550Z AUTO 35004KT 0150NDV R01/0300N R19/0450N FG VV000 15/14 Q1010=
200608180520 METAR ESMX 180520Z AUTO VRB02KT 0100NDV R01/0250N R19/0275N FG VV000 14/14 Q1010=
200608180450 METAR ESMX 180450Z 22001KT 0100 R01/0200N R19/0250N FG VV001 14/14 Q1010=
200608180420 METAR ESMX 180420Z 00000KT 0200 R01/0250N R19/0200V0325N FG VV002 14/13 Q1010=
200608180350 METAR ESMX 180350Z 00000KT 0300 R01/0300N R19/0750U FG VV005 13/13 Q1010=
200608180320 METAR ESMX 180320Z AUTO 09001KT 0200NDV R01/0600D R19/0450N FG NCD 13/13 Q1010=
200608180250 METAR ESMX 180250Z AUTO 00000KT 0200NDV R01/0600D R19/0550V0800D FG FEW003/// 14/14 Q1010=
200608180220 METAR ESMX 180220Z AUTO 04002KT 2800NDV R01/P1500N R19/P1500N BR FEW002/// 15/14 Q1010=
200608180150 METAR ESMX 180150Z AUTO VRB02KT 2100NDV R01/P1500N R19/P1500N BR BKN002/// BKN004/// 15/15 Q1010=
200608180120 METAR ESMX 180120Z AUTO 34002KT 1700NDV R01/P1500N R19/P1500N OVC001/// 15/14 Q1010=
200608180050 METAR ESMX 180050Z AUTO 00000KT 1700NDV R01/P1500N R19/P1500N BKN001/// BKN003/// 14/14 Q1010=
200608180020 METAR ESMX 180020Z AUTO 00000KT 0750NDV R01/P1500N R19/0900VP1500U FG OVC099/// 15/14 Q1010=
200608172350 METAR ESMX 172350Z 00000KT 0600NDV R01/P1500N R19/P1500N FG BKN080 15/14 Q1009=
200608172320 METAR ESMX 172320Z VRB01KT 0400 R01/0900VP1500U R19/P1500N FG BKN080 15/14 Q1009 RERA=
200608172250 METAR ESMX 172250Z 02002KT 0800 R01/P1500N R19/P1500N FG BKN080 15/15 Q1010=
200608172220 METAR ESMX 172220Z 00000KT 0800 R19/P1500 FG BKN080 15/15 Q1010 RERA=
200608172150 METAR ESMX 172150Z 00000KT 1600 -DZ SCT015 BKN090 15/15 Q1010 RERA=
200608172120 METAR ESMX 172120Z 00000KT 2700 -RA SCT015 BKN045 16/15 Q1010=
200608172050 METAR ESMX 172050Z 00000KT 2300 SHRA SCT015CB BKN060 16/15 Q1010=
200608172020 METAR ESMX 172020Z 25003KT 4700 R01/P1500N R19/P1500N RATS FEW015 BKN020CB 16/15 Q1009=
200608171950 METAR ESMX 171950Z 22006KT 7000 TS FEW015 BKN020CB 16/15 Q1009=
200608171920 METAR ESMX 171920Z 19008KT 8000 SHRA SCT015CB BKN020 17/15 Q1009=
200608171850 METAR ESMX 171850Z VRB02KT 9999 BKN020 16/15 Q1009=
200608171820 METAR ESMX 171820Z 00000KT 9999 FEW020 SCT060 BKN110 17/15 Q1009=
200608171750 METAR ESMX 171750Z 00000KT 9999 FEW015 BKN080 17/15 Q1009=
200608171720 METAR ESMX 171720Z 02003KT CAVOK 18/16 Q1009=
200608171650 METAR ESMX 171650Z 02003KT CAVOK 18/16 Q1009=
200608171620 METAR ESMX 171620Z 02004KT 9999 FEW018 SCT080 19/15 Q1009=
200608171550 METAR ESMX 171550Z 03004KT 9999 FEW017 SCT075 19/14 Q1009=
200608171520 METAR ESMX 171520Z 02004KT 330V050 9999 FEW016 SCT070 20/15 Q1009=
200608171450 METAR ESMX 171450Z 04003KT 350V120 9999 FEW020 SCT070 19/15 Q1009=
200608171420 METAR ESMX 171420Z VRB02KT 9999 FEW037 BKN100 18/15 Q1009=
200608171350 METAR ESMX 171350Z 07003KT 030V120 9999 SCT039 BKN068 18/15 Q1009=
200608171320 METAR ESMX 171320Z VRB02KT 9999 BKN028 BKN066 18/15 Q1009=
200608171250 METAR ESMX 171250Z VRB02KT 9999 SCT040 BKN100 17/15 Q1009=
200608171220 METAR ESMX 171220Z 12003KT 070V150 8000 BR SCT040 BKN100 17/15 Q1009=
200608171150 METAR ESMX 171150Z VRB02KT 8000 -RA FEW045 BKN200 17/16 Q1009=
200608171120 METAR ESMX 171120Z 16004KT 120V190 8000 -RA FEW015 BKN032 17/15 Q1009=
200608171050 METAR ESMX 171050Z 14004KT 8000 -RA FEW020 BKN032 BKN078 18/15 Q1009=
200608171020 METAR ESMX 171020Z VRB02KT 9999 FEW034 BKN077 19/15 Q1009=
200608170950 METAR ESMX 170950Z 11003KT 040V170 9999 FEW040 BKN065 19/15 Q1009=
200608170920 METAR ESMX 170920Z VRB02KT 9000 BR FEW040 SCT045 BKN070 18/15 Q1009=
200608170850 METAR ESMX 170850Z VRB02KT 9000 BR BKN070 16/14 Q1009=
200608170820 METAR ESMX 170820Z 09003KT 040V120 9000 BR BKN080 16/14 Q1009=
200608170750 METAR ESMX 170750Z 02003KT 7000 BR FEW002 BKN080 16/14 Q1009=
200608170720 METAR ESMX 170720Z VRB02KT 6000 BR FEW002 BKN100 15/14 Q1009=
200608170650 METAR ESMX 170650Z 00000KT 7000 BR NSC 15/14 Q1009=
200608170620 METAR ESMX 170620Z 00000KT 6000 BR BCFG NSC 14/13 Q1009=
200608170550 METAR ESMX 170550Z 00000KT 4000 R01/P1500D R19/P1500U BCFG NSC 12/11 Q1009=
200608170520 METAR ESMX 170520Z 00000KT 2000 R01/P1500D R19/P1500D BCFG NSC 10/10 Q1009=
200608170450 METAR ESMX 170450Z VRB01KT 0900 R01/0650D R19/P1500U BCFG VV002 09/08 Q1008=
200608170420 METAR ESMX 170420Z 00000KT 0600 R01/P1500U R19/P1500U BCFG FEW200 08/08 Q1008=
200608170350 METAR ESMX 170350Z 16001KT 0300 R19/0225V0400N BCFG FEW200 08/08 Q1008=
200608170320 METAR ESMX 170320Z AUTO 18002KT 0550NDV R01/P1500N R19/0450D BCFG NCD 09/09 Q1008=
200608170250 METAR ESMX 170250Z AUTO 17002KT 1700NDV R01/P1500N R19/P1500N NCD 08/08 Q1008=
200608170220 METAR ESMX 170220Z AUTO 00000KT 9999NDV R01/P1500N R19/P1500N NCD 08/08 Q1008=
200608170150 METAR ESMX 170150Z AUTO 00000KT 7000NDV R01/P1500N R19/P1500N BR NCD 09/08 Q1008=
200608170120 METAR ESMX 170120Z AUTO 17003KT 9999NDV R01/P1500N R19/P1500N NCD 09/09 Q1008=
200608170050 METAR ESMX 170050Z AUTO 18003KT 9999NDV R01/P1500N R19/P1500N NCD 09/08 Q1008=
200608170020 METAR ESMX 170020Z AUTO 17003KT 9999NDV R01/P1500N R19/P1500N NCD 10/09 Q1008=
200608162350 METAR ESMX 162350Z 18004KT CAVOK 10/09 Q1008=
200608162320 METAR ESMX 162320Z 17003KT CAVOK 09/09 Q1008=
200608162220 METAR ESMX 162220Z 18003KT 9999 R01/P1500N R19/P1500N NSC 10/10 Q1008=
200608162150 METAR ESMX 162150Z 20003KT CAVOK 11/10 Q1008=
200608162120 METAR ESMX 162120Z 20004KT CAVOK 11/10 Q1008=
200608162050 METAR ESMX 162050Z 21005KT CAVOK 12/10 Q1008=
200608162020 METAR ESMX 162020Z 21004KT CAVOK 13/11 Q1008=
200608161950 METAR ESMX 161950Z 21005KT CAVOK 13/11 Q1008=
200608161920 METAR ESMX 161920Z 20004KT CAVOK 15/11 Q1007=
200608161850 METAR ESMX 161850Z 24003KT CAVOK 15/11 Q1007=
200608161820 METAR ESMX 161820Z 23005KT CAVOK 16/11 Q1007=
200608161750 METAR ESMX 161750Z 23006KT 200V260 9999 FEW040 SCT200 17/11 Q1007=
200608161720 METAR ESMX 161720Z 23008KT 9999 FEW035 18/12 Q1007=
200608161650 METAR ESMX 161650Z 23009KT 9999 FEW038 19/11 Q1007=
200608161620 METAR ESMX 161620Z 24007KT 200V260 9999 FEW031 19/12 Q1006=
200608161550 METAR ESMX 161550Z 24010KT 9999 SCT035 19/12 Q1006=
200608161520 METAR ESMX 161520Z 22011KT 190V250 9999 SCT035 19/13 Q1006=
200608161450 METAR ESMX 161450Z 22009KT 190V310 9999 SCT035 20/14 Q1006=
200608161420 METAR ESMX 161420Z 22008KT 9999 SCT032 19/15 Q1006=
200608161350 METAR ESMX 161350Z 22009KT 190V250 9999 FEW025CB 19/16 Q1005 RERA=
200608161320 METAR ESMX 161320Z 25012KT 220V290 6000 SHRA SCT025CB SCT087 15/14 Q1006=
200608161250 METAR COR ESMX 161250Z 24009KT 200V290 9999 -RA FEW025CB SCT035 19/14 Q1005=
200608161220 METAR ESMX 161220Z 23009KT 190V270 9999 FEW020CB SCT035 18/14 Q1005 RERA=
200608161150 METAR ESMX 161150Z 22010KT 190V270 9999 -RA FEW025CB SCT035 17/14 Q1005=
200608161120 METAR ESMX 161120Z 24011KT 190V260 9999 FEW025CB SCT035 19/14 Q1004=
200608161050 METAR ESMX 161050Z 23011KT 190V260 9999 FEW025CB SCT035 19/13 Q1004=
200608161020 METAR ESMX 161020Z 25011KT 200V280 9999 FEW025CB SCT035 19/14 Q1004=
200608160950 METAR ESMX 160950Z 23005KT 200V260 9999 FEW020CB SCT025 16/14 Q1004 RERA=
200608160920 METAR ESMX 160920Z 23009KT 200V260 9999 FEW024 SCT041 19/14 Q1003=
200608160850 METAR ESMX 160850Z 25010KT 9999 FEW017 BKN027 18/14 Q1003=
200608160820 METAR ESMX 160820Z 22006KT 190V260 9999 SCT013 BKN043 17/15 Q1003=
200608160750 METAR ESMX 160750Z 23005KT 190V270 9999 SCT013 BKN017 17/14 Q1003=
200608160720 METAR ESMX 160720Z 25006KT 200V290 9999 SCT012 BKN015 16/14 Q1002=
200608160650 METAR ESMX 160650Z 25006KT 200V280 9999 FEW010 BKN015 16/14 Q1002=
200608160620 METAR ESMX 160620Z 25006KT 210V280 9999 FEW007 BKN013 15/13 Q1002=
200608160550 METAR ESMX 160550Z 25008KT 9999 SCT009 BKN016 14/13 Q1001=
200608160520 METAR ESMX 160520Z 24006KT 190V260 9999 FEW007 BKN012 14/13 Q1001=
200608160450 METAR ESMX 160450Z 23007KT 9999 SHRA FEW007 SCT015 BKN020CB 14/13 Q1001=
200608160420 METAR ESMX 160420Z 23007KT 9999 SCT006 BKN020 14/13 Q1000=
200608160350 METAR ESMX 160350Z 23007KT 9999 FEW007 BKN018 14/13 Q1000=
200608160320 METAR ESMX 160320Z AUTO 20008KT 180V240 9999NDV R01/P1500N R19/P1500N FEW005/// SCT007/// BKN008/// 14/13 Q1000=
200608160250 METAR ESMX 160250Z AUTO 20008KT 9999NDV R01/P1500N R19/P1500N FEW006/// SCT007/// BKN009/// 14/13 Q0999=
200608160220 METAR ESMX 160220Z AUTO 22009KT 9999NDV R01/P1500N R19/P1500N FEW006/// SCT008/// BKN011/// 14/13 Q0999=
200608160150 METAR ESMX 160150Z AUTO 22008KT 9999NDV R01/P1500N R19/P1500N FEW005/// SCT007/// BKN010/// 15/14 Q0999=
200608160120 METAR ESMX 160120Z AUTO 22008KT 9999NDV R01/P1500N R19/P1500N OVC005/// 15/14 Q0998 REDZ=
200608160050 METAR ESMX 160050Z AUTO 18010KT 160V230 6000NDV R01/P1500N R19/P1500N -RA FEW005/// BKN006/// OVC009/// 15/14 Q0998 REDZ=
200608160020 METAR ESMX 160020Z AUTO 18006KT 150V210 9999NDV R01/P1500N R19/P1500N FEW006/// SCT009/// BKN012/// 15/14 Q0998=
200608152350 METAR ESMX 152350Z 18006KT 9999 SCT007 BKN010 15/14 Q0998=
200608152320 METAR ESMX 152320Z 18007KT 9999 FEW007 SCT012 BKN020 15/14 Q0998=
200608152250 METAR ESMX 152250Z 17007KT 140V200 9999 FEW005 SCT008 BKN011 15/14 Q0998=
200608152220 METAR ESMX 152220Z 16006KT 120V190 9999 FEW004 BKN008 15/14 Q0998=
200608152150 METAR ESMX 152150Z 18007KT 9999 FEW006 BKN008 15/14 Q0998=
200608152120 METAR ESMX 152120Z 18007KT 9999 FEW006 BKN011 15/15 Q0998=
200608152050 METAR ESMX 152050Z 15007KT 120V190 9999 FEW008 SCT012 BKN080 16/15 Q0998=
200608152020 METAR ESMX 152020Z 16006KT 110V190 9999 FEW005 SCT010 BKN020 16/15 Q0998=
200608151950 METAR ESMX 151950Z 14005KT 110V180 9999 -RA FEW005 SCT015 BKN028 16/15 Q0998=
200608151920 METAR ESMX 151920Z 14005KT 100V170 9999 SHRA FEW005 SCT008 BKN020CB 16/15 Q0997=
200608151850 METAR ESMX 151850Z 15003KT 110V180 9000 SHRA FEW004 BKN010CB 16/15 Q0997=
200608151820 METAR ESMX 151820Z 15005KT 9999 -SHRA FEW005 SCT020CB BKN055 16/15 Q0997=
200608151750 METAR ESMX 151750Z 14004KT 100V170 9999 SHRA FEW005 SCT022CB BKN065 16/15 Q0997=
200608151720 METAR ESMX 151720Z 14003KT 100V170 9999 SHRA FEW005 SCT022 BKN026CB 15/15 Q0997=
200608151650 METAR ESMX 151650Z 16004KT 120V190 9999 SCT005 FEW010CB BKN016 15/14 Q0997 RERA REDZ=
200608151620 METAR ESMX 151620Z 11004KT 070V160 6000 SHRA SCT005 BKN009 15/14 Q0997=
200608151550 METAR ESMX 151550Z 12006KT 050V170 8000 -SHRA SCT005 BKN008 14/14 Q0997=
200608151520 METAR ESMX 151520Z 10005KT 050V200 5000 RA FEW006 SCT010CB BKN022 14/13 Q0998=
200608151450 METAR ESMX 151450Z 11005KT 060V160 5000 SHRA FEW015 SCT020CB BKN060 14/13 Q0998=
200608151420 METAR ESMX 151420Z 11005KT 060V160 9999 -SHRA FEW015CB SCT 030 BKN060 15/12 Q0998 REDZ=
200608151350 METAR ESMX 151350Z 13005KT 060V180 9999 -SHRA FEW015 FEW030CB BKN080 15/12 Q0998 RERA=
200608151320 METAR ESMX 151320Z 15010G22KT 100V200 9999 FEW015 FEW020CB BKN100 17/12 Q0998=
200608151250 METAR ESMX 151250Z VRB06G17KT 9999 FEW015 FEW020CB BKN100 18/13 Q0999=
200608151220 METAR ESMX 151220Z 15007KT 110V170 9999 FEW015 FEW020CB BKN100 17/14 Q0999=
200608151150 METAR ESMX 151150Z 14004KT 070V180 9999 FEW010 SCT020CB BKN080 17/15 Q0999 RERA=
200608151120 METAR ESMX 151120Z 15005KT 110V190 9999 SHRA FEW005 BKN020CB 17/14 Q0999 RETS=
200608151050 METAR ESMX 151050Z 16006KT 110V200 8000 TSRA FEW005 BKN020CB 15/13 Q0999=
200608151020 METAR ESMX 151020Z VRB02KT 9999 VCTS FEW017 SCT020CB BKN080 15/13 Q0999=
200608150950 METAR ESMX 150950Z 13006KT 070V170 8000 TSRA FEW010 BKN020 15/13 Q0999=
200608150920 METAR ESMX 150920Z 16007KT 120V200 9999 -RA FEW025TCU 18/13 Q0999=
200608150850 METAR ESMX 150850Z 12007KT 080V170 9999 SCT019TCU 18/12 Q0999=
200608150820 METAR ESMX 150820Z 15006KT 110V230 9999 FEW013 SCT016 18/14 Q0999=
200608150750 METAR ESMX 150750Z 14006KT 110V180 9999 BKN012 BKN049 17/14 Q0999=
200608150720 METAR ESMX 150720Z 14004KT 100V200 9999 FEW013 SCT022 17/14 Q0999=
200608150650 METAR ESMX 150650Z 14007KT 100V170 CAVOK 17/13 Q0999=
200608150620 METAR ESMX 150620Z 13005KT 080V170 CAVOK 17/13 Q0999=
200608150550 METAR ESMX 150550Z 13003KT 090V160 CAVOK 16/13 Q1000=
200608150520 METAR ESMX 150520Z 11003KT 060V180 CAVOK 14/13 Q1000=
200608150450 METAR ESMX 150450Z 07004KT 040V120 CAVOK 13/13 Q1000=
200608150420 METAR ESMX 150420Z 10003KT 060V150 CAVOK 13/12 Q1000=
200608150350 METAR ESMX 150350Z 09003KT 9000 BCFG NSC 10/10 Q1000=
200608150320 METAR ESMX 150320Z AUTO VRB02KT 0350NDV R01/P1500U R19/P1500U BCFG SCT087/// 09/09 Q1001=
200608150250 METAR ESMX 150250Z AUTO 11002KT 2900NDV R01/P1500N R19/P1500N FEW100/// 09/09 Q1001=
200608150220 METAR ESMX 150220Z AUTO VRB02KT 5000NDV R01/P1500N R19/P1500N FEW100/// 11/11 Q1001=
200608150150 METAR ESMX 150150Z AUTO VRB02KT 0550NDV R01/P1500D R19/P1500U FG NCD 11/11 Q1001=
200608150120 METAR ESMX 150120Z AUTO VRB02KT 5000NDV R01/P1500N R19/P1500N BR NCD 10/09 Q1001=
200608150050 METAR ESMX 150050Z AUTO 14003KT 110V170 5000NDV R01/P1500N R19/0800VP1500U BR NCD 12/11 Q1001=
200608150020 METAR ESMX 150020Z AUTO 00000KT 5000NDV R01/P1500N R19/P1500N BR NCD 10/10 Q1002=
200608142350 METAR ESMX 142350Z 13003KT 100V160 9000 BR NSC 11/11 Q1002=
200608142320 METAR ESMX 142320Z 13003KT 8000 BR NSC 12/12 Q1002=
200608142250 METAR ESMX 142250Z 15004KT 8000 BR MIFG NSC 11/10 Q1003=
200608142220 METAR ESMX 142220Z 15003KT 7000 BR MIFG NSC 11/10 Q1003=
200608142150 METAR ESMX 142150Z VRB02KT 9000 BR NSC 11/10 Q1003=
200608142120 METAR ESMX 142120Z VRB02KT 9000 BR NSC 11/11 Q1003=
200608142050 METAR ESMX 142050Z VRB01KT CAVOK 12/11 Q1004=
200608142020 METAR ESMX 142020Z 19001KT CAVOK 13/12 Q1004=
200608141950 METAR ESMX 141950Z 17003KT CAVOK 15/12 Q1004=
200608141920 METAR ESMX 141920Z 17005KT CAVOK 16/12 Q1004=
200608141850 METAR ESMX 141850Z 17004KT CAVOK 17/12 Q1004=
200608141820 METAR ESMX 141820Z 16005KT CAVOK 18/12 Q1004=
200608141750 METAR ESMX 141750Z 15005KT 110V180 9999 FEW030 18/12 Q1004=
200608141650 METAR ESMX 141650Z 15008KT 120V190 9999 FEW035 19/11 Q1004=
200608141550 METAR ESMX 141550Z 16007KT 120V200 9999 FEW035 20/11 Q1004=
200608141520 METAR ESMX 141520Z 15007KT 110V200 9999 FEW032 SCT087 20/12 Q1004=
200608141450 METAR ESMX 141450Z 15009KT 120V200 9999 FEW036 BKN095 20/12 Q1004=
200608141420 METAR ESMX 141420Z 17008KT 9999 FEW032 SCT081 20/12 Q1004=
200608141350 METAR ESMX 141350Z 18008KT 140V210 9999 SCT030 BKN083 20/12 Q1004=
200608141320 METAR ESMX 141320Z 18008KT 090V210 9999 SCT030 BKN085 20/13 Q1004 RERA=
200608141250 METAR ESMX 141250Z 17008KT 110V190 9999 FEW020 SCT035 BKN087 19/13 Q1004 RERA=
200608141220 METAR ESMX 141220Z 18009KT 120V200 9999 SHRA FEW012 SCT020CB BKN079 18/14 Q1004=
200608141150 METAR ESMX 141150Z 17010KT 120V200 9999 SCT020CB BKN081 19/12 Q1004=
200608141120 METAR ESMX 141120Z 18009KT 140V200 9999 FEW020CB SCT025 BKN080 20/13 Q1004=
200608141050 METAR ESMX 141050Z 15008KT 110V200 9999 FEW025 SCT036 BKN061 19/14 Q1004=
200608141020 METAR ESMX 141020Z 18007KT 110V210 9999 FEW020 SCT027 BKN056 20/14 Q1004=
200608140950 METAR ESMX 140950Z 17008KT 9999 FEW016 SCT025 BKN050 18/13 Q1004=
200608140920 METAR ESMX 140920Z 17008KT 140V210 9999 SCT016 BKN020 17/14 Q1003=
200608140850 METAR ESMX 140850Z 18008KT 9999 FEW010 BKN020 18/15 Q1003=
200608140820 METAR ESMX 140820Z 18008KT 9999 SCT008 BKN015 17/15 Q1003=
200608140750 METAR ESMX 140750Z 17009KT 9999 SCT007 BKN012 16/14 Q1003=
200608140720 METAR ESMX 140720Z 17007KT 9999 FEW006 BKN009 16/15 Q1003=
200608140620 METAR ESMX 140620Z 17007KT 140V200 9999 FEW007 BKN012 16/14 Q1002=
200608140550 METAR ESMX 140550Z 15006KT 090V180 9999 FEW007 SCT010 BKN016 16/14 Q1002=
200608140520 METAR ESMX 140520Z 11004KT 060V160 9999 FEW006 SCT007 BKN009 16/15 Q1002=
200608140450 METAR ESMX 140450Z 09004KT 050V140 9000 BR SCT007 BKN009 16/15 Q1002=
200608140420 METAR ESMX 140420Z AUTO 09003KT 030V160 8000NDV R01/P1500U R19/P1500D BR FEW004/// SCT006/// BKN007/// 16/15 Q1002=
200608140350 METAR ESMX 140350Z AUTO 08003KT 010V120 9999NDV R01/P1500N R19/P1500U FEW006/// BKN008/// OVC011/// 16/15 Q1002 REDZ RERA=
200608140320 METAR ESMX 140320Z AUTO 05005KT 020V090 9999NDV R01/P1500N R19/P1500N FEW007/// OVC009/// 16/15 Q1002=
200608140250 METAR ESMX 140250Z AUTO 04006KT 9000NDV R01/P1500N R19/P1500N -RA FEW003/// SCT005/// BKN019/// 15/15 Q1002=
200608140220 METAR ESMX 140220Z AUTO 05005KT 010V080 9000NDV R01/P1500N R19/P1500N DZ FEW006/// SCT009/// BKN019/// 16/15 Q1003 RERA=
200608140150 METAR ESMX 140150Z AUTO 04004KT 9999NDV R01/P1500N R19/P1500N -RA FEW006/// SCT011/// BKN016/// 16/15 Q1003=
200608140120 METAR ESMX 140120Z AUTO 06005KT 020V080 7000NDV R01/P1500N R19/P1500N -RA FEW007/// 16/15 Q1003=
200608140050 METAR ESMX 140050Z AUTO 06005KT 010V110 8000NDV R01/P1500N R19/P1500N -RA FEW009/// SCT012/// BKN016/// 16/15 Q1004=
200608140020 METAR ESMX 140020Z 06006KT 020V080 9999 -RA FEW009 BKN024 16/15 Q1004=
200608132350 METAR ESMX 132350Z 04006KT 010V080 9999 DZ-RA SCT010 BKN017 16/15 Q1004=
200608132320 METAR ESMX 132320Z 04006KT 020V120 9999 -RA FEW013 SCT049 BKN068 16/15 Q1004=
200608132250 METAR ESMX 132250Z 07005KT 030V120 9999 -RA FEW012 BKN070 16/15 Q1005=
200608132220 METAR ESMX 132220Z 06006KT 020V100 9999 FEW010 BKN012 BKN100 16/15 Q1005=
200608132150 METAR ESMX 132150Z 06006KT 030V100 9999 FEW008 BKN010 16/15 Q1005=
200608132120 METAR ESMX 132120Z 06005KT 020V090 9999 FEW009 BKN066 16/15 Q1005=
200608132050 METAR ESMX 132050Z 06005KT 020V110 CAVOK 16/15 Q1005=
200608132020 METAR ESMX 132020Z 06004KT 030V110 9999 FEW015 17/15 Q1005=
200608131950 METAR ESMX 131950Z 06005KT 010V110 9999 FEW015 17/15 Q1005=
200608131920 METAR ESMX 131920Z 08005KT 020V120 9999 FEW016 BKN028 17/15 Q1006=
200608131820 METAR ESMX 131820Z 05005KT 360V100 9999 FEW016 SCT025 BKN060 18/16 Q1006=
200608131750 METAR ESMX 131750Z AUTO 10005KT 050V150 9999NDV R01/P1500D R19/P1500U FEW014/// SCT021/// BKN058/// 18/16 Q1006=
200608131720 METAR ESMX 131720Z AUTO 07006KT 020V140 9999NDV R01/P1500D R19/P1500U FEW022/// BKN062/// 19/16 Q1006=
200608131650 METAR ESMX 131650Z AUTO 08006KT 040V120 9999NDV R01/P1500U R19/P1500N FEW016/// SCT022/// BKN059/// 19/16 Q1006=
200608131620 METAR ESMX 131620Z AUTO 07008KT 040V110 9999NDV R01/P1500D R19/P1500D FEW018/// SCT056/// 19/16 Q1006=
200608131550 METAR ESMX 131550Z AUTO 06007KT 020V100 9999NDV R01/P1500U R19/P1500D FEW017/// SCT025/// BKN029/// 20/16 Q1006=
200608131520 METAR ESMX 131520Z AUTO 03007KT 350V070 9999NDV R01/P1500U R19/P1500U FEW012/// SCT018/// BKN021/// 19/16 Q1006=
200608131450 METAR ESMX 131450Z AUTO 08007KT 030V130 9999NDV R01/P1500D R19/P1500U FEW011/// SCT013/// BKN020/// 20/17 Q1006=
200608131420 METAR ESMX 131420Z AUTO 04007KT 360V070 9999NDV R01/P1500U R19/P1500D FEW008/// SCT014/// BKN025/// 19/17 Q1007=
200608131350 METAR ESMX 131350Z AUTO 05006KT 020V080 9999NDV R01/P1500U R19/P1500D FEW008/// SCT033/// BKN052/// 18/16 Q1007=
200608131320 METAR ESMX 131320Z AUTO 05006KT 020V110 9999NDV R01/P1500D R19/P1500D FEW006/// BKN030/// 18/16 Q1007=
200608131250 METAR ESMX 131250Z AUTO 06006KT 020V090 8000NDV R01/P1500D R19/P1500U FEW020/// 17/16 Q1007 REDZ RERA=
200608131220 METAR ESMX 131220Z AUTO 06006KT 020V100 6000NDV R01/P1500D R19/P1500D DZ FEW026/// 17/16 Q1007 RERA=
200608131150 METAR ESMX 131150Z AUTO 05008KT 010V080 9999NDV R01/P1500D R19/P1500U FEW014/// SCT028/// 17/16 Q1007=
200608131120 METAR ESMX 131120Z AUTO 04009KT 010V080 9000NDV R01/P1500D R19/P1500D FEW003/// SCT006/// BKN007/// 17/16 Q1007 RERA REDZ=
200608131050 METAR ESMX 131050Z AUTO 06008KT 030V100 3200NDV R01/P1500U R19/P1500U DZ FEW006/// BKN007/// BKN011/// 17/16 Q1007 RERA=
200608131020 METAR ESMX 131020Z AUTO 06009KT 020V100 9999NDV R01/P1500D R19/P1500D FEW008/// OVC010/// 17/16 Q1007=
200608130950 METAR ESMX 130950Z AUTO 03010KT 350V070 8000NDV R01/P1500D R19/P1500U -RA FEW009/// SCT012/// BKN015/// 17/16 Q1007 REDZ=
200608130920 METAR ESMX 130920Z AUTO 04009KT 010V080 9999NDV R01/P1500D R19/P1500D FEW009/// SCT014/// BKN032/// 17/16 Q1007 REDZ RERA=
200608130850 METAR ESMX 130850Z AUTO 03008KT 340V060 9999NDV R01/P1500D R19/P1500U DZ FEW007/// BKN011/// OVC017/// 17/16 Q1008 RERA=
200608130820 METAR ESMX 130820Z AUTO 03008KT 010V070 9999NDV R01/P1500D R19/P1500D FEW008/// OVC011/// 17/16 Q1008=
200608130750 METAR ESMX 130750Z AUTO 03009KT 010V070 9999NDV R01/P1500U R19/P1500U FEW008/// OVC010/// 17/16 Q1008=
200608130720 METAR ESMX 130720Z AUTO 03010KT 9999NDV R01/P1500U R19/P1500D FEW007/// BKN009/// OVC013/// 17/16 Q1008 REDZ RERA=
200608130650 METAR ESMX 130650Z AUTO 02008KT 9999NDV R01/P1500D R19/P1500D -RA FEW007/// SCT014/// BKN082/// 17/16 Q1008=
200608130620 METAR ESMX 130620Z AUTO 01009KT 9999NDV R01/P1500D R19/P1500U FEW005/// SCT008/// BKN061/// 17/16 Q1008 RERA REDZ=
200608130550 METAR ESMX 130550Z AUTO 03008KT 9999NDV R01/P1500U R19/P1500U OVC005/// 16/16 Q1008 RERA REDZ REUP=
200608130520 METAR ESMX 130520Z AUTO 01007KT 9999NDV R01/P1500U R19/P1500D OVC005/// 16/15 Q1008 RERA REDZ=
200608130450 METAR ESMX 130450Z AUTO 01008KT 9999NDV R01/P1500D R19/P1500D -DZ FEW005/// SCT007/// BKN008/// 15/15 Q1009 RERA=
200608130420 METAR ESMX 130420Z AUTO 01007KT 9999NDV R01/P1500D R19/P1500D -RA FEW003/// SCT005/// BKN007/// 15/14 Q1009 REDZ=
200608130350 METAR ESMX 130350Z AUTO 02007KT 9999NDV R01/P1500D R19/P1500U -DZ FEW004/// SCT006/// BKN008/// 15/14 Q1009 RERA=
200608130320 METAR ESMX 130320Z AUTO 01007KT 9999NDV R01/P1500N R19/P1500N -RA FEW076/// SCT086/// 15/14 Q1009 REDZ=
200608130250 METAR ESMX 130250Z AUTO 02008KT 9999NDV R01/P1500N R19/P1500N -RA FEW023/// 15/14 Q1009 REDZ=
200608130220 METAR ESMX 130220Z AUTO 02008KT 9999NDV R01/P1500N R19/P1500N FEW007/// SCT040/// 15/14 Q1009 REDZ RERA=
200608130150 METAR ESMX 130150Z AUTO 01008KT 9999NDV R01/P1500N R19/P1500N -RA BKN046/// BKN069/// 14/14 Q1009 REDZ=
200608130120 METAR ESMX 130120Z AUTO 01007KT 9999NDV R01/P1500N R19/P1500N FEW005/// SCT028/// BKN041/// 14/14 Q1010 REDZ=
200608130050 METAR ESMX 130050Z AUTO 01007KT 7000NDV R01/P1500N R19/P1500N DZ FEW006/// SCT028/// 14/14 Q1010=
200608130020 METAR ESMX 130020Z AUTO 03007KT 350V060 5000NDV R01/P1500N R19/P1500N DZ FEW005/// SCT007/// BKN024/// 14/14 Q1010 RERA=
200608122350 METAR ESMX 122350Z AUTO 04005KT 010V080 9999NDV R01/P1500N R19/P1500N FEW008/// SCT020/// BKN027/// 15/14 Q1010=
200608122320 METAR ESMX 122320Z AUTO 06005KT 360V140 9999NDV R01/P1500N R19/P1500N FEW007/// SCT013/// BKN020/// 15/14 Q1010=
200608122250 METAR ESMX 122250Z AUTO 02004KT 9999NDV R01/P1500N R19/P1500N FEW009/// SCT021/// BKN034/// 15/14 Q1010=
200608122220 METAR ESMX 122220Z AUTO 01004KT 9999NDV R01/P1500N R19/P1500N SCT028/// OVC038/// 15/14 Q1010=
200608122150 METAR ESMX 122150Z AUTO 01004KT 9999NDV R01/P1500N R19/P1500N FEW020/// SCT026/// BKN034/// 15/14 Q1010=
200608122120 METAR ESMX 122120Z AUTO 04003KT 9999NDV R01/P1500N R19/P1500N OVC023/// 15/14 Q1010=
200608122050 METAR ESMX 122050Z AUTO 02003KT 9999NDV R01/P1500N R19/P1500N FEW024/// BKN035/// BKN041/// 14/14 Q1011=
200608122020 METAR ESMX 122020Z AUTO 03003KT 360V080 9999NDV R01/P1500N R19/P1500N SCT038/// BKN048/// 15/14 Q1010=
200608121950 METAR ESMX 121950Z AUTO 02003KT 9999NDV R01/P1500N R19/P1500N FEW035/// OVC040/// 15/14 Q1010=
200608121920 METAR ESMX 121920Z AUTO 01003KT 9999NDV R01/P1500N R19/P1500N FEW016/// BKN043/// OVC065/// 15/14 Q1011=
200608121850 METAR ESMX 121850Z AUTO VRB01KT 9999NDV R01/P1500D R19/P1500U FEW018/// SCT027/// BKN031/// 15/14 Q1011=
200608121820 METAR ESMX 121820Z AUTO 03003KT 9999NDV R01/P1500D R19/P1500U SCT028/// BKN037/// BKN053/// 15/14 Q1010=
200608121750 METAR ESMX 121750Z AUTO VRB01KT 9999NDV R01/P1500U R19/P1500D OVC048/// 15/14 Q1010=
200608121720 METAR ESMX 121720Z AUTO 12003KT 020V170 9999NDV R01/P1500U R19/P1500U FEW013/// SCT022/// BKN029/// 15/14 Q1010 REDZ=
200608121650 METAR ESMX 121650Z AUTO 07003KT 030V100 9999NDV R01/P1500D R19/P1500D DZ FEW008/// SCT015/// BKN054/// 15/14 Q1010 RERA=
200608121620 METAR ESMX 121620Z AUTO 07003KT 040V110 9999NDV R01/P1500D R19/P1500D -RA FEW014/// SCT054/// 15/14 Q1010 REDZ=
200608121550 METAR ESMX 121550Z AUTO 05003KT 010V110 9999NDV R01/P1500D R19/P1500U DZ FEW012/// SCT016/// BKN020/// 15/14 Q1010 RERA=
200608121520 METAR ESMX 121520Z AUTO VRB02KT 9999NDV R01/P1500D R19/P1500D -RA FEW020/// SCT027/// BKN053/// 16/14 Q1010 REDZ=
200608121450 METAR ESMX 121450Z AUTO 00000KT 9999NDV R01/P1500U R19/P1500U -RA FEW052/// 15/14 Q1010 REDZ=
200608121420 METAR ESMX 121420Z AUTO VRB01KT 9999NDV R01/P1500D R19/P1500D -RA FEW071/// 15/14 Q1010 REDZ=
200608121350 METAR ESMX 121350Z AUTO 17004KT 120V190 9999NDV R01/P1500U R19/P1500U DZ FEW069/// 15/14 Q1010 RERA=
200608121320 METAR ESMX 121320Z AUTO 14003KT 070V200 9999NDV R01/P1500U R19/P1500U -RA FEW012/// 14/13 Q1010=
200608121250 METAR ESMX 121250Z AUTO 19003KT 140V220 9000NDV R01/P1500D R19/P1500D +RA FEW030/// SCT042/// BKN063/// 17/15 Q1010 REDZ=
200608121220 METAR ESMX 121220Z AUTO VRB02KT 9999NDV R01/P1500D R19/P1500U -RA FEW026/// SCT049/// BKN072/// 18/14 Q1009 REDZ=
200608121150 METAR ESMX 121150Z AUTO 03003KT 360V070 9999NDV R01/P1500U R19/P1500D FEW043/// BKN075/// 19/14 Q1009=
200608121120 METAR ESMX 121120Z AUTO 06003KT 010V110 9999NDV R01/P1500U R19/P1500U FEW045/// SCT110/// 18/14 Q1009=
200608121050 METAR ESMX 121050Z AUTO 04005KT 9999NDV R01/P1500D R19/P1500D FEW011/// SCT046/// BKN078/// 18/15 Q1009=
200608121020 METAR ESMX 121020Z AUTO 04003KT 330V110 9999NDV R01/P1500U R19/P1500U FEW075/// 18/16 Q1009=
200608120950 METAR ESMX 120950Z AUTO 06004KT 9999NDV R01/P1500D R19/P1500D FEW052/// SCT080/// BKN091/// 17/16 Q1009=
200608120920 METAR ESMX 120920Z AUTO 06003KT 360V100 9999NDV R01/P1500U R19/P1500U BKN063/// 16/15 Q1009 REDZ=
200608120850 METAR ESMX 120850Z AUTO VRB03KT 9999NDV R01/P1500U R19/P1500U -RA FEW060/// 15/15 Q1009=
200608120820 METAR ESMX 120820Z AUTO 12004KT 050V190 7000NDV R01/P1500D R19/P1500D RA ////// 15/14 Q1009=
200608120750 METAR ESMX 120750Z AUTO 11007KT 040V170 9999NDV R01/P1500D R19/P1500U FEW015/// SCT018/// BKN058/// 19/16 Q1008=
200608120720 METAR ESMX 120720Z AUTO 08007KT 020V120 9999NDV R01/P1500U R19/P1500D FEW012/// SCT015/// BKN092/// 19/16 Q1008=
200608120650 METAR ESMX 120650Z AUTO 04009KT 020V080 9999NDV R01/P1500D R19/P1500N SCT011/// 19/15 Q1008=
200608120620 METAR ESMX 120620Z AUTO 04010KT 360V060 9999NDV R01/P1500D R19/P1500D BKN010/// 18/15 Q1008=
200608120550 METAR ESMX 120550Z AUTO 03008KT 9999NDV R01/P1500D R19/P1500U NCD 17/15 Q1008=
200608120520 METAR ESMX 120520Z AUTO 03007KT 9999NDV R01/P1500U R19/P1500U NCD 16/14 Q1008=
200608120450 METAR ESMX 120450Z AUTO 02008KT 9999NDV R01/P1500D R19/P1500D FEW092/// 15/14 Q1008=
200608120420 METAR ESMX 120420Z AUTO 02007KT 9999NDV R01/P1500D R19/P1500D FEW089/// 15/14 Q1008=
200608120350 METAR ESMX 120350Z AUTO 02007KT 9999NDV R01/P1500D R19/P1500D NCD 15/14 Q1008=
200608120320 METAR ESMX 120320Z AUTO 03007KT 9999NDV R01/P1500D R19/P1500U NCD 15/13 Q1008=
200608120250 METAR ESMX 120250Z AUTO 03007KT 9999NDV R01/P1500N R19/P1500N NCD 15/13 Q1008=
200608120220 METAR ESMX 120220Z AUTO 04006KT 010V080 9999NDV R01/P1500N R19/P1500N NCD 15/14 Q1009=
200608120150 METAR ESMX 120150Z AUTO 03008KT 360V060 9999NDV R01/P1500N R19/P1500N NCD 15/14 Q1009=
200608120120 METAR ESMX 120120Z AUTO 03007KT 360V070 9999NDV R01/P1500N R19/P1500N NCD 15/14 Q1009=
200608120050 METAR ESMX 120050Z AUTO 01007KT 9999NDV R01/P1500N R19/P1500N NCD 15/14 Q1009=
200608120020 METAR ESMX 120020Z AUTO 01007KT 340V050 9999NDV R01/P1500N R19/P1500N NCD 16/14 Q1009=
200608112350 METAR ESMX 112350Z AUTO 03005KT 9999NDV R01/P1500N R19/P1500N NCD 16/14 Q1009=
200608112320 METAR ESMX 112320Z AUTO 03005KT 350V060 9999NDV R01/P1500N R19/P1500N NCD 16/14 Q1010=
200608112250 METAR ESMX 112250Z AUTO 04006KT 010V080 9999NDV R01/P1500N R19/P1500N NCD 16/14 Q1010=
200608112220 METAR ESMX 112220Z AUTO 02006KT 350V060 9999NDV R01/P1500N R19/P1500N NCD 16/14 Q1010=
200608112150 METAR ESMX 112150Z AUTO 02006KT 9999NDV R01/P1500N R19/P1500N NCD 16/13 Q1010=
200608112120 METAR ESMX 112120Z AUTO 02004KT 9999NDV R01/P1500N R19/P1500N NCD 16/13 Q1010=
200608112050 METAR ESMX 112050Z AUTO 04005KT 9999NDV R01/P1500N R19/P1500N NCD 16/13 Q1010=
200608112020 METAR ESMX 112020Z AUTO 04004KT 9999NDV R01/P1500N R19/P1500N NCD 17/12 Q1010=
200608111950 METAR ESMX 111950Z AUTO 03004KT 010V080 9999NDV R01/P1500N R19/P1500N NCD 17/12 Q1010=
200608111920 METAR ESMX 111920Z AUTO 06004KT 010V080 9999NDV R01/P1500N R19/P1500N NCD 17/12 Q1010=
200608111850 METAR ESMX 111850Z AUTO 06005KT 010V090 9999NDV R01/P1500U R19/P1500D SCT078/// 18/12 Q1010=
200608111820 METAR ESMX 111820Z AUTO 04005KT 340V060 9999NDV R01/P1500U R19/P1500U FEW055/// BKN068/// 18/11 Q1010=
200608111750 METAR ESMX 111750Z 06008KT 9999 VCSH SCT040CB BKN070 18/11 Q1010=
200608111720 METAR ESMX 111720Z 36004KT 320V030 9999 VCSH FEW041CB SCT054 BKN070 19/14 Q1010=
200608111650 METAR ESMX 111650Z 28003KT 250V320 CAVOK 19/13 Q1010=
200608111620 METAR ESMX 111620Z 27004KT CAVOK 20/13 Q1010=
200608111550 METAR ESMX 111550Z 25004KT CAVOK 20/12 Q1010=
200608111520 METAR ESMX 111520Z 16004KT 110V190 CAVOK 21/12 Q1010=
200608111450 METAR ESMX 111450Z 13003KT 050V180 9999 FEW040 BKN081 21/11 Q1010=
200608111420 METAR ESMX 111420Z 15005KT 120V190 9999 FEW040 BKN100 20/10 Q1010=
200608111350 METAR ESMX 111350Z VRB06KT 9999 FEW040 BKN074 21/10 Q1010=
200608111320 METAR ESMX 111320Z 10009KT 050V140 9999 VCSH FEW035 BKN080 22/10 Q1010=
200608111250 METAR ESMX 111250Z 09008KT 040V160 9999 VCSH FEW035CB SCT082 22/10 Q1010=
200608111220 METAR ESMX 111220Z 12008KT 080V170 9999 VCSH FEW035CB BKN072 21/09 Q1010=
200608111150 METAR ESMX 111150Z 09007KT 050V150 9999 VCSH FEW036CB SCT049 BKN076 22/11 Q1010=
200608111120 METAR ESMX 111120Z 07006KT 040V110 9999 VCSH FEW036CB SCT071 20/13 Q1010=
200608110820 METAR ESMX 110820Z 09004KT 040V160 9999 FEW016 BKN080 18/14 Q1010=
200608110750 METAR ESMX 110750Z 08004KT 050V130 9999 FEW025 SCT100 BKN200 18/15 Q1011=
200608110720 METAR ESMX 110720Z 06003KT 020V110 9999 FEW035 SCT100 17/15 Q1011=
200608110650 METAR ESMX 110650Z VRB02KT CAVOK 16/15 Q1010=
200608110620 METAR ESMX 110620Z 06003KT 030V110 9000 BR FEW042 BKN100 16/15 Q1011=
200608110550 METAR ESMX 110550Z VRB02KT 9000 BR FEW040 BKN100 15/14 Q1010=
200608110520 METAR ESMX 110520Z VRB01KT 9000 BR FEW001 14/13 Q1010=
200608110450 METAR ESMX 110450Z 02001KT 9999 BCFG FEW110 12/12 Q1010=
200608110420 METAR ESMX 110420Z VRB02KT 9999 BCFG FEW110 11/11 Q1010=
200608110350 METAR ESMX 110350Z AUTO 06003KT 9000NDV R01/P1500D R19/P1500D BR FEW001/// 11/10 Q1010=
200608110320 METAR ESMX 110320Z AUTO VRB01KT 9000NDV R01/P1500D R19/P1500U BR NCD 10/09 Q1010=
200608110250 METAR ESMX 110250Z AUTO 00000KT 2400NDV R01/P1500N R19/P1500N BR NCD 10/10 Q1010=
200608110220 METAR ESMX 110220Z AUTO 00000KT 5000NDV R01/P1500N R19/P1500N BR FEW110/// 11/11 Q1010=
200608110150 METAR ESMX 110150Z AUTO VRB01KT 8000NDV R01/P1500N R19/P1500N BR NCD 11/11 Q1010=
200608110120 METAR ESMX 110120Z AUTO 00000KT 8000NDV R01/P1500N R19/P1500N NCD 11/11 Q1010=
200608110050 METAR ESMX 110050Z AUTO VRB01KT 8000NDV R01/P1500N R19/0650D BR NCD 12/12 Q1010=
200608110020 METAR ESMX 110020Z AUTO 15004KT 9000NDV R01/P1500N R19/P1500N NCD 14/13 Q1010=
200608102350 METAR ESMX 102350Z 15004KT CAVOK 14/13 Q1010=
200608102320 METAR ESMX 102320Z 14004KT CAVOK 13/12 Q1009=
200608102250 METAR ESMX 102250Z 16004KT CAVOK 14/13 Q1009=
200608102220 METAR ESMX 102220Z 13003KT CAVOK 14/13 Q1009=
200608102150 METAR ESMX 102150Z 15004KT CAVOK 13/12 Q1009=
200608102120 METAR ESMX 102120Z 14005KT CAVOK 15/13 Q1009=
200608102050 METAR ESMX 102050Z 15004KT CAVOK 15/13 Q1009=
200608102020 METAR ESMX 102020Z 15005KT CAVOK 15/12 Q1009=
200608101950 METAR ESMX 101950Z 16005KT CAVOK 17/12 Q1009=
200608101920 METAR ESMX 101920Z 15005KT 120V190 CAVOK 17/12 Q1009=
200608101850 METAR ESMX 101850Z 16005KT 120V190 CAVOK 18/13 Q1008=
200608101820 METAR ESMX 101820Z 14004KT CAVOK 19/13 Q1008=
200608101750 METAR ESMX 101750Z 17005KT CAVOK 19/13 Q1008=
200608101720 METAR ESMX 101720Z 16006KT 130V200 CAVOK 20/12 Q1008=
200608101650 METAR ESMX 101650Z 16008KT 130V190 9999 FEW035 20/12 Q1008=
200608101620 METAR ESMX 101620Z 17008KT 140V200 9999 FEW040 21/12 Q1008=
200608101550 METAR ESMX 101550Z 17009KT 120V200 9999 FEW040 22/11 Q1008=
200608101520 METAR ESMX 101520Z 20013KT 9999 FEW037 22/11 Q1008=
200608101450 METAR ESMX 101450Z 19009KT 130V220 9999 FEW045CB SCT060 23/11 Q1007=
200608101420 METAR ESMX 101420Z 20011KT 9999 FEW045CB SCT055 24/11 Q1007=
200608101350 METAR ESMX 101350Z 19010KT 150V230 9999 FEW0345 SCT055CB 23/12 Q1007=
200608101320 METAR ESMX 101320Z 18010KT 150V220 9999 SCT060CB 23/11 Q1007=
200608101250 METAR ESMX 101250Z 16007KT 080V200 9999 SCT050CB 23/11 Q1007=
200608101220 METAR ESMX 101220Z 15005KT 070V210 9999 SCT040CB 23/13 Q1007=
200608101150 METAR ESMX 101150Z 17008KT 100V200 9999 FEW030 SCT065 21/12 Q1008=
200608101120 METAR ESMX 101120Z 17005KT 100V240 9999 FEW031 SCT069 BKN080 22/12 Q1008=
200608101050 METAR ESMX 101050Z 16005KT 110V200 9999 FEW028 BKN080 21/13 Q1008=
200608101020 METAR ESMX 101020Z VRB05KT 9999 FEW026 SCT033 BKN047 21/13 Q1008=
200608100950 METAR ESMX 100950Z 17003KT 120V250 9999 FEW023 SCT030 BKN085 21/14 Q1008=
200608100920 METAR ESMX 100920Z VRB02KT 9999 FEW020TCU SCT100 20/14 Q1008=
200608100850 METAR ESMX 100850Z 00000KT 9999 FEW020TCU SCT100 20/14 Q1008=
200608100820 METAR ESMX 100820Z VRB02KT 9999 FEW009 SCT100 19/14 Q1008=
200608100750 METAR ESMX 100750Z VRB02KT CAVOK FEW008 SCT100 18/14 Q1008=
200608100720 METAR ESMX 100720Z 36003KT 9999 FEW007 SCT100 19/15 Q1008=
200608100650 METAR ESMX 100650Z 11004KT 070V140 9999 SCT005 18/15 Q1008=
200608100620 METAR ESMX 100620Z 06003KT 020V120 8000 BCFG FEW004 SCT006 18/15 Q1008=
200608100550 METAR ESMX 100550Z VRB02KT 9999 FEW003 SCT005 16/15 Q1008=
200608100520 METAR ESMX 100520Z 00000KT 7000 R19/P1500D BCFG FEW005 SCT100 14/13 Q1008=
200608100450 METAR ESMX 100450Z 00000KT 6000 BCFG FEW005 12/11 Q1008=
200608100420 METAR ESMX 100420Z 00000KT 9000 BCFG SCT004 11/11 Q1008=
200608100350 METAR ESMX 100350Z VRB02KT 9999 BCFG FEW004 SCT100 11/10 Q1008=
200608100320 METAR ESMX 100320Z AUTO 00000KT 0600NDV R01/P1500U R19/P1500D BCFG FEW095/// 11/11 Q1008=
200608100250 METAR ESMX 100250Z AUTO 00000KT 0750NDV R01/P1500N R19/P1500N FG NCD 11/11 Q1008=
200608100220 METAR ESMX 100220Z AUTO 20002KT 4400NDV R01/P1500N R19/P1500N BR NCD 13/12 Q1008=
200608100150 METAR ESMX 100150Z AUTO 24003KT 9999NDV R01/P1500N R19/P1500N FEW092/// 13/13 Q1008=
200608100120 METAR ESMX 100120Z AUTO 24004KT 9999NDV R01/P1500N R19/P1500N SCT092/// 13/13 Q1008=
200608100050 METAR ESMX 100050Z AUTO 00000KT 9999NDV R01/P1500N R19/P1500N NCD 14/13 Q1008=
200608100020 METAR ESMX 100020Z AUTO VRB04G24KT 9999NDV R01/P1500N R19/P1500N FEW110/// 14/13 Q1008=
200608092350 METAR ESMX 092350Z 21003KT CAVOK 14/13 Q1008=
200608092320 METAR ESMX 092320Z 00000KT CAVOK 13/13 Q1008=
200608092250 METAR ESMX 092250Z 22003KT 160V240 CAVOK 13/12 Q1008=
200608092220 METAR ESMX 092220Z 00000KT CAVOK 13/12 Q1008=
200608092150 METAR ESMX 092150Z 19002KT CAVOK 14/13 Q1008=
200608092120 METAR ESMX 092120Z 00000KT 9999 SCT087 BKN100 14/12 Q1008=
200608092020 METAR ESMX 092020Z 00000KT CAVOK 15/13 Q1008=
200608091950 METAR ESMX 091950Z 22003KT CAVOK 16/12 Q1008=
200608091920 METAR ESMX 091920Z 24001KT CAVOK 16/13 Q1008=
200608091850 METAR ESMX 091850Z 22002KT CAVOK 17/12 Q1008=
200608091820 METAR ESMX 091820Z 23003KT CAVOK 17/12 Q1008=
200608091750 METAR ESMX 091750Z 25004KT CAVOK 17/12 Q1008=
200608091720 METAR ESMX 091720Z 23005KT 200V270 9999 FEW035CB SCT100 19/12 Q1008=
200608091650 METAR ESMX 091650Z 26006KT 230V290 9999 FEW035CB SCT100 20/11 Q1007=
200608091620 METAR ESMX 091620Z 26008KT 230V290 9999 FEW035CB SCT100 20/11 Q1007=
200608091550 METAR ESMX 091550Z 23008KT 9999 FEW035CB SCT100 22/13 Q1007=
200608091520 METAR ESMX 091520Z 23008KT 9999 FEW035TCU SCT100 22/13 Q1007=
200608091450 METAR ESMX 091450Z 22008KT 180V240 9999 FEW035TCU SCT100 23/14 Q1007=
200608091420 METAR ESMX 091420Z 21011KT 9999 FEW035TCU SCT100 23/14 Q1007=
200608091350 METAR ESMX 091350Z 21014KT 9999 FEW035CB SCT100 22/13 Q1007=
200608091320 METAR ESMX 091320Z 11005KT 060V200 9999 FEW035TCU SCT100 24/07 Q1007=
200608091250 METAR ESMX 091250Z 05005KT 290V090 9999 FEW035 26/07 Q1007=
200608091220 METAR ESMX 091220Z 04003KT 330V120 CAVOK 25/10 Q1007=
200608091150 METAR ESMX 091150Z VRB03KT 9999 SCT040 23/12 Q1007=
200608091120 METAR ESMX 091120Z VRB04KT 9999 SCT040 24/11 Q1008=
200608091050 METAR ESMX 091050Z 22004KT 110V240 9999 SCT040 25/11 Q1008=
200608091020 METAR ESMX 091020Z 05003KT 360V160 9999 SCT040 23/12 Q1008=
200608090950 METAR ESMX 090950Z VRB04KT 9999 SCT035 23/13 Q1008=
200608090920 METAR ESMX 090920Z VRB03KT 9999 SCT020 22/13 Q1008=
200608090820 METAR ESMX 090820Z VRB04KT 9999 SCT023 21/15 Q1008=
200608090750 METAR ESMX 090750Z 07004KT 020V140 9999 FEW014 SCT040 21/15 Q1009=
200608090720 METAR ESMX 090720Z 07005KT 030V110 9999 FEW040 19/16 Q1009=
200608090650 METAR ESMX 090650Z 06005KT 030V130 9999 FEW010 SCT040 18/16 Q1009=
200608090620 METAR ESMX 090620Z 06005KT 010V110 9999 FEW036 17/16 Q1009=
200608090520 METAR ESMX 090520Z 00000KT CAVOK 14/14 Q1009=
200608090450 METAR ESMX 090450Z 00000KT CAVOK 14/13 Q1009=
200608090420 METAR ESMX 090420Z 22003KT CAVOK 13/13 Q1009=
200608090350 METAR ESMX 090350Z AUTO 05003KT 010V070 9999NDV R01/P1500D R19/P1500D NCD 13/13 Q1009=
200608090320 METAR ESMX 090320Z AUTO 04002KT 9999NDV R01/P1500U R19/P1500U NCD 13/13 Q1009=
200608090050 METAR ESMX 090050Z AUTO 00000KT 2700NDV R01/P1500N R19/P1500N NCD 12/11 Q1010=
200608082350 METAR ESMX 082350Z AUTO VRB01KT 0450NDV R01/0900VP1500U R19/P1500N FG NCD 12/12 Q1010=
200608082320 METAR ESMX 082320Z 00000KT 9999 MIFG NSC 13/12 Q1010=
200608082250 METAR ESMX 082250Z 00000KT CAVOK 13/12 Q1010=
200608082220 METAR ESMX 082220Z 00000KT CAVOK 14/13 Q1011=
200608082150 METAR ESMX 082150Z 00000KT CAVOK 14/14 Q1011=
200608082120 METAR ESMX 082120Z VRB01KT CAVOK 15/14 Q1011=
200608082050 METAR ESMX 082050Z 00000KT CAVOK 15/14 Q1011=
200608082020 METAR ESMX 082020Z VRB01KT CAVOK 17/14 Q1011=
200608081950 METAR ESMX 081950Z VRB02KT CAVOK 18/15 Q1011=
200608081920 METAR ESMX 081920Z 09003KT 060V140 CAVOK 19/14 Q1010=
200608081850 METAR ESMX 081850Z 15003KT CAVOK 20/14 Q1010=
200608081820 METAR ESMX 081820Z 17003KT 120V190 9999 VCSH FEW035CB SCT070 21/14 Q1010=
200608081750 METAR ESMX 081750Z 12006KT 080V160 9999 VCSH FEW037CB SCT070 22/14 Q1010=
200608081720 METAR ESMX 081720Z 16005KT 130V200 CAVOK 23/14 Q1010=
200608081650 METAR ESMX 081650Z 17006KT CAVOK 22/14 Q1010=
200608081620 METAR ESMX 081620Z 09004KT 050V170 CAVOK 24/12 Q1010=
200608081550 METAR ESMX 081550Z 05006KT 020V090 CAVOK 26/11 Q1009=
200608081520 METAR ESMX 081520Z VRB03KT CAVOK 26/10 Q1010=
200608081450 METAR ESMX 081450Z 05004KT 360V110 CAVOK 24/12 Q1010=
200608081420 METAR ESMX 081420Z 04006KT CAVOK 25/10 Q1010=
200608081350 METAR ESMX 081350Z 02005KT 350V060 9999 FEW045 SCT070 26/09 Q1010=
200608081320 METAR ESMX 081320Z 08003KT 020V150 9999 FEW044 SCT100 26/09 Q1010=
200608081250 METAR ESMX 081250Z 36008KT 330V030 CAVOK 26/09 Q1010=
200608081220 METAR ESMX 081220Z VRB02KT CAVOK 26/09 Q1010=
200608081150 METAR ESMX 081150Z 01004KT 330V050 CAVOK 26/09 Q1010=
200608081120 METAR ESMX 081120Z 05005KT 330V140 CAVOK 25/09 Q1010=
200608081050 METAR ESMX 081050Z 07004KT 350V140 CAVOK 25/09 Q1010=
200608081020 METAR ESMX 081020Z 03004KT 320V090 CAVOK 25/09 Q1010=
200608080950 METAR ESMX 080950Z 07005KT 010V120 CAVOK 24/09 Q1010=
200608080920 METAR ESMX 080920Z 05003KT 010V170 CAVOK 24/09 Q1010=
200608080850 METAR ESMX 080850Z 05004KT 330V110 CAVOK 24/09 Q1010=
200608080820 METAR ESMX 080820Z 04005KT 010V080 CAVOK 23/11 Q1011=
200608080750 METAR ESMX 080750Z 04005KT 010V080 CAVOK 22/12 Q1011=
200608080720 METAR ESMX 080720Z 08004KT 020V140 CAVOK 21/13 Q1011=
200608080650 METAR ESMX 080650Z 05004KT 020V080 CAVOK 20/13 Q1011=
200608080620 METAR ESMX 080620Z 06003KT 020V110 CAVOK 19/14 Q1010=
200608080550 METAR ESMX 080550Z 04003KT 020V080 CAVOK 19/14 Q1010=
200608080520 METAR ESMX 080520Z VRB02KT CAVOK 16/14 Q1010=
200608080450 METAR ESMX 080450Z VRB01KT CAVOK 13/12 Q1010=
200608080420 METAR ESMX 080420Z 00000KT CAVOK 12/11 Q1010=
200608080350 METAR ESMX 080350Z 00000KT CAVOK 10/09 Q1010=
200608080320 METAR ESMX 080320Z AUTO 00000KT 9999NDV R01/P1500U R19/P1500U NCD 10/09 Q1010=
200608080250 METAR ESMX 080250Z AUTO 05002KT 9999NDV R01/P1500N R19/P1500N NCD 10/09 Q1010=
200608080220 METAR ESMX 080220Z AUTO 19001KT 9999NDV R01/P1500N R19/P1500N NCD 10/10 Q1010=
200608080150 METAR ESMX 080150Z AUTO 00000KT 9999NDV R01/P1500N R19/P1500N FEW078/// 10/09 Q1010=
200608080120 METAR ESMX 080120Z AUTO 00000KT 9999NDV R01/P1500N R19/P1500N NCD 11/10 Q1010=
200608080050 METAR ESMX 080050Z AUTO 00000KT 9999NDV R01/P1500N R19/P1500N NCD 12/10 Q1010=
200608080020 METAR ESMX 080020Z 00000KT CAVOK 13/11 Q1011=
200608072350 METAR ESMX 072350Z 09003KT CAVOK 16/11 Q1011=
200608072320 METAR ESMX 072320Z 09004KT CAVOK 16/10 Q1011=
200608072250 METAR ESMX 072250Z 00000KT CAVOK 13/11 Q1011=
200608072220 METAR ESMX 072220Z 11001KT CAVOK 14/11 Q1011=
200608072150 METAR ESMX 072150Z VRB01KT CAVOK 15/12 Q1011=
200608072120 METAR ESMX 072120Z 14002KT CAVOK 15/12 Q1011=
200608072050 METAR ESMX 072050Z VRB02KT CAVOK 15/13 Q1011=
200608072020 METAR ESMX 072020Z 09003KT CAVOK 17/13 Q1011=
200608071950 METAR ESMX 071950Z 00000KT CAVOK 16/13 Q1011=
200608071920 METAR ESMX 071920Z 00000KT CAVOK 17/13 Q1011=
200608071850 METAR ESMX 071850Z 00000KT CAVOK 19/12 Q1011=
200608071820 METAR ESMX 071820Z 09002KT CAVOK 20/12 Q1011=
200608071750 METAR ESMX 071750Z VRB02KT CAVOK 23/11 Q1011=
200608071720 METAR ESMX 071720Z 08003KT 020V140 CAVOK 24/10 Q1011=
200608071650 METAR ESMX 071650Z 05004KT 020V100 CAVOK 25/10 Q1010=
200608071620 METAR ESMX 071620Z 05005KT 020V080 CAVOK 26/08 Q1010=
200608071550 METAR ESMX 071550Z 35003KT 300V040 CAVOK 26/10 Q1011=
200608071520 METAR ESMX 071520Z 03005KT 350V070 9999 FEW020 BKN100 26/11 Q1011=
200608071450 METAR ESMX 071450Z 05005KT 020V100 9999 FEW030 BKN100 27/09 Q1011=
200608071420 METAR ESMX 071420Z 05007KT 020V100 9999 FEW030 BKN100 27/10 Q1011=
200608071350 METAR ESMX 071350Z 06007KT 010V090 9999 FEW025 BKN100 27/10 Q1011=
200608071320 METAR ESMX 071320Z 05006KT 360V100 9999 FEW025 BKN200 27/10 Q1011=
200608071250 METAR ESMX 071250Z VRB06KT 9999 FEW030 BKN200 27/10 Q1011=
200608071220 METAR ESMX 071220Z 09007KT 050V150 9999 FEW030 BKN200 28/10 Q1011=
200608071150 METAR ESMX 071150Z 05007KT 020V080 CAVOK 27/10 Q1012=
200608071120 METAR ESMX 071120Z 02009KT 350V060 CAVOK 27/10 Q1012=
200608071050 METAR ESMX 071050Z 02008KT 340V060 CAVOK 27/09 Q1012=
200608071020 METAR ESMX 071020Z 03010KT 350V080 9999 FEW025 27/09 Q1012=
200608070950 METAR ESMX 070950Z 01010KT 340V040 CAVOK 26/11 Q1012=
200608070920 METAR ESMX 070920Z 34010KT CAVOK 26/11 Q1012=
200608070850 METAR ESMX 070850Z 34009KT 300V010 CAVOK 26/11 Q1012=
200608070820 METAR ESMX 070820Z 34008KT 300V360 CAVOK 25/11 Q1012=
200608070750 METAR ESMX 070750Z 01008KT 340V040 CAVOK 24/12 Q1013=
200608070720 METAR ESMX 070720Z 01009KT CAVOK 23/11 Q1013=
200608070650 METAR ESMX 070650Z 36007KT CAVOK 22/12 Q1013=
200608070620 METAR ESMX 070620Z 36006KT CAVOK 21/12 Q1013=
200608070550 METAR ESMX 070550Z 36005KT 340V040 CAVOK 18/12 Q1013=
200608070520 METAR COR ESMX 070520Z 01002KT CAVOK 17/12 Q1013=
200608070450 METAR ESMX 070450Z 01005KT CAVOK 15/12 Q1013=
200608070420 METAR ESMX 070420Z 35002KT CAVOK 11/10 Q1013=
200608070350 METAR ESMX 070350Z 36001KT CAVOK 09/09 Q1013=
200608070320 METAR ESMX 070320Z AUTO 00000KT 9999NDV R01/P1500U R19/P1500U NCD 09/08 Q1013=
200608070250 METAR ESMX 070250Z AUTO 00000KT 9999NDV R01/P1500N R19/P1500N NCD 08/08 Q1014=
200608070220 METAR ESMX 070220Z AUTO 00000KT 9999NDV R01/P1500N R19/P1500N NCD 08/08 Q1014=
200608070150 METAR ESMX 070150Z AUTO 00000KT 9999NDV R01/P1500N R19/P1500N NCD 09/08 Q1014=
200608070120 METAR ESMX 070120Z AUTO 16001KT 9999NDV R01/P1500N R19/P1500N NCD 10/09 Q1014=
200608070050 METAR ESMX 070050Z AUTO 00000KT 9999NDV R01/P1500N R19/P1500N NCD 09/08 Q1014=
200608070020 METAR ESMX 070020Z AUTO 00000KT 9999NDV R01/P1500N R19/P1500N NCD 09/08 Q1014=
200608062350 METAR ESMX 062350Z 00000KT CAVOK 10/09 Q1015=
200608062320 METAR ESMX 062320Z 00000KT CAVOK 10/09 Q1015=
200608062250 METAR ESMX 062250Z 00000KT CAVOK 11/09 Q1015=
200608062220 METAR ESMX 062220Z 00000KT CAVOK 11/09 Q1015=
200608062150 METAR ESMX 062150Z 00000KT CAVOK 11/09 Q1015=
200608062120 METAR ESMX 062120Z 00000KT CAVOK 12/09 Q1015=
200608062050 METAR ESMX 062050Z 00000KT CAVOK 13/09 Q1015=
200608062020 METAR ESMX 062020Z 00000KT CAVOK 14/10 Q1015=
200608061950 METAR ESMX 061950Z 00000KT CAVOK 16/11 Q1015=
200608061920 METAR ESMX 061920Z 03003KT CAVOK 19/09 Q1015=
200608061850 METAR ESMX 061850Z 03004KT 350V060 CAVOK 21/09 Q1015=
200608061820 METAR ESMX 061820Z 03005KT 010V070 CAVOK 23/08 Q1015=
200608061750 METAR ESMX 061750Z 06008KT 360V100 CAVOK 24/07 Q1015=
200608061720 METAR ESMX 061720Z 04008KT 010V090 CAVOK 24/07 Q1015=
200608061650 METAR ESMX 061650Z 04009KT 340V090 CAVOK 25/07 Q1015=
200608061620 METAR ESMX 061620Z 05011KT 360V090 CAVOK 25/06 Q1015=
200608061550 METAR ESMX 061550Z AUTO 04011KT 010V080 9999NDV R01/P1500U R19/P1500U NCD 26/06 Q1015=
200608061520 METAR ESMX 061520Z AUTO 02012KT 350V060 9999NDV R01/P1500D R19/P1500U NCD 26/07 Q1015=
200608061450 METAR ESMX 061450Z AUTO 04011G21KT 010V100 9999NDV R01/P1500U R19/P1500U NCD 26/07 Q1015=
200608061420 METAR ESMX 061420Z AUTO 02011KT 9999NDV R01/P1500D R19/P1500U NCD 26/08 Q1015=
200608061350 METAR ESMX 061350Z AUTO 02011KT 340V050 9999NDV R01/P1500D R19/P1500D NCD 26/08 Q1015=
200608061320 METAR ESMX 061320Z AUTO 02011KT 350V070 9999NDV R01/P1500U R19/P1500D NCD 27/09 Q1015=
200608061250 METAR ESMX 061250Z AUTO 05010KT 010V110 9999NDV R01/P1500U R19/P1500D NCD 26/09 Q1015=
200608061220 METAR ESMX 061220Z AUTO 02010KT 9999NDV R01/P1500U R19/P1500U NCD 26/10 Q1015=
200608061150 METAR ESMX 061150Z AUTO 06009KT 010V110 9999NDV R01/P1500U R19/P1500U FEW056/// 26/10 Q1016=
200608061120 METAR ESMX 061120Z AUTO 04010KT 350V080 9999NDV R01/P1500U R19/P1500U NCD 25/11 Q1016=
200608061050 METAR ESMX 061050Z AUTO 02009KT 9999NDV R01/P1500D R19/P1500D NCD 25/12 Q1016=
200608061020 METAR ESMX 061020Z AUTO 04009KT 010V120 9999NDV R01/P1500D R19/P1500D FEW042/// 24/13 Q1016=
200608060950 METAR ESMX 060950Z AUTO 05010KT 020V080 9999NDV R01/P1500D R19/P1500D NCD 23/12 Q1016=
200608060920 METAR ESMX 060920Z AUTO 02010KT 9999NDV R01/P1500D R19/P1500U NCD 23/12 Q1016=
200608060850 METAR ESMX 060850Z AUTO 03010KT 350V060 9999NDV R01/P1500D R19/P1500U NCD 23/13 Q1016=
200608060820 METAR ESMX 060820Z AUTO 03009KT 350V070 9999NDV R01/P1500D R19/P1500D NCD 22/13 Q1016=
200608060750 METAR ESMX 060750Z AUTO 02011KT 9999NDV R01/P1500D R19/P1500U NCD 22/14 Q1017=
200608060720 METAR ESMX 060720Z AUTO 02009KT 350V060 9999NDV R01/P1500D R19/P1500U NCD 21/14 Q1017=
200608060650 METAR ESMX 060650Z AUTO 04007KT 010V090 9999NDV R01/P1500U R19/P1500D NCD 20/15 Q1017=
200608060520 METAR ESMX 060520Z AUTO 36007KT 9999NDV R01/P1500D R19/P1500N NCD 17/14 Q1017=
200608060450 METAR ESMX 060450Z AUTO 01008KT 9999NDV R01/P1500D R19/P1500U NCD 17/14 Q1017=
200608060420 METAR ESMX 060420Z AUTO 02006KT 350V060 9999NDV R01/P1500D R19/P1500N NCD 16/14 Q1017=
200608060350 METAR ESMX 060350Z AUTO 02007KT 9999NDV R01/P1500N R19/P1500U NCD 15/13 Q1016=
200608060320 METAR ESMX 060320Z AUTO 01008KT 9999NDV R01/P1500D R19/P1500D NCD 15/12 Q1016=
200608060250 METAR ESMX 060250Z AUTO 01007KT 9999NDV R01/P1500U R19/P1500U NCD 14/12 Q1017=
200608060220 METAR ESMX 060220Z AUTO 01008KT 9999NDV R01/P1500N R19/P1500N NCD 14/11 Q1017=
200608060150 METAR ESMX 060150Z AUTO 02007KT 9999NDV R01/P1500N R19/P1500N NCD 15/12 Q1017=
200608060120 METAR ESMX 060120Z AUTO 02007KT 9999NDV R01/P1500N R19/P1500N NCD 15/12 Q1017=
200608060050 METAR ESMX 060050Z AUTO 01007KT 9999NDV R01/P1500N R19/P1500N NCD 15/11 Q1017=
200608060020 METAR ESMX 060020Z AUTO 01006KT 9999NDV R01/P1500N R19/P1500N NCD 15/11 Q1017=
200608052350 METAR ESMX 052350Z AUTO 01007KT 9999NDV R01/P1500N R19/P1500N NCD 15/12 Q1017=
200608052320 METAR ESMX 052320Z AUTO 01005KT 9999NDV R01/P1500N R19/P1500N NCD 14/11 Q1017=
200608052250 METAR ESMX 052250Z AUTO 01005KT 9999NDV R01/P1500N R19/P1500N NCD 15/11 Q1017=
200608052220 METAR ESMX 052220Z AUTO 01007KT 9999NDV R01/P1500N R19/P1500N NCD 16/11 Q1017=
200608052150 METAR ESMX 052150Z AUTO 01007KT 9999NDV R01/P1500N R19/P1500N NCD 16/11 Q1017=
200608052120 METAR ESMX 052120Z AUTO 01007KT 9999NDV R01/P1500N R19/P1500N NCD 17/11 Q1017=
200608052050 METAR ESMX 052050Z AUTO 01008KT 9999NDV R01/P1500N R19/P1500N NCD 17/11 Q1017=
200608052020 METAR ESMX 052020Z AUTO 01008KT 9999NDV R01/P1500N R19/P1500N NCD 18/10 Q1017=
200608051950 METAR ESMX 051950Z AUTO 03007KT 9999NDV R01/P1500D R19/P1500D NCD 19/10 Q1017=
200608051920 METAR ESMX 051920Z AUTO 03009KT 9999NDV R01/P1500N R19/P1500N NCD 19/10 Q1017=
200608051850 METAR ESMX 051850Z AUTO 04007KT 020V080 9999NDV R01/P1500N R19/P1500N NCD 20/10 Q1017=
200608051820 METAR ESMX 051820Z AUTO 02010KT 350V060 9999NDV R01/P1500D R19/P1500N NCD 21/09 Q1016=
200608051750 METAR ESMX 051750Z AUTO 03011KT 360V060 9999NDV R01/P1500D R19/P1500D NCD 22/09 Q1016=
200608051720 METAR ESMX 051720Z AUTO 03012KT 340V060 9999NDV R01/P1500D R19/P1500U NCD 22/10 Q1016=
200608051650 METAR ESMX 051650Z AUTO 02012KT 9999NDV R01/P1500U R19/P1500U NCD 23/09 Q1016=
200608051620 METAR ESMX 051620Z AUTO 01013KT 340V060 9999NDV R01/P1500U R19/P1500U NCD 23/09 Q1016=
200608051550 METAR ESMX 051550Z AUTO 03017KT 9999NDV R01/P1500D R19/P1500U NCD 23/07 Q1016=
200608051520 METAR ESMX 051520Z AUTO 04010KT 360V080 9999NDV R01/P1500D R19/P1500D SCT061/// 23/09 Q1016=
200608051450 METAR ESMX 051450Z AUTO 03012KT 340V080 9999NDV R01/P1500U R19/P1500U SCT060/// 24/09 Q1016=
200608051420 METAR ESMX 051420Z AUTO 02013KT 9999NDV R01/P1500U R19/P1500U FEW062/// 23/10 Q1016=
200608051350 METAR ESMX 051350Z AUTO 02012KT 350V060 9999NDV R01/P1500D R19/P1500U SCT056/// 23/11 Q1016=
200608051320 METAR ESMX 051320Z AUTO 03012KT 350V060 9999NDV R01/P1500D R19/P1500D FEW055/// 24/11 Q1016=
200608051250 METAR ESMX 051250Z AUTO 03011KT 350V070 9999NDV R01/P1500D R19/P1500U NCD 23/12 Q1016=
200608051220 METAR ESMX 051220Z AUTO 02012KT 9999NDV R01/P1500D R19/P1500D FEW081/// 23/11 Q1016=
200608051150 METAR ESMX 051150Z AUTO 03013KT 350V050 9999NDV R01/P1500U R19/P1500D FEW078/// 22/12 Q1016=
200608051120 METAR ESMX 051120Z AUTO 02009KT 350V050 9999NDV R01/P1500D R19/P1500U FEW072/// 22/12 Q1016=
200608051050 METAR ESMX 051050Z AUTO 02008KT 350V060 9999NDV R01/P1500U R19/P1500D FEW052/// 22/13 Q1016=
200608051020 METAR ESMX 051020Z AUTO 03009KT 350V090 9999NDV R01/P1500D R19/P1500D NCD 21/13 Q1016=
200608050950 METAR ESMX 050950Z AUTO 03010KT 340V050 9999NDV R01/P1500D R19/P1500D NCD 21/13 Q1016=
200608050920 METAR ESMX 050920Z AUTO 03010KT 9999NDV R01/P1500U R19/P1500D NCD 20/14 Q1016=
200608050850 METAR ESMX 050850Z AUTO 02008KT 9999NDV R01/P1500U R19/P1500D NCD 20/14 Q1016=
200608050820 METAR ESMX 050820Z AUTO 04010KT 010V070 9999NDV R01/P1500D R19/P1500U FEW056/// 20/15 Q1016=
200608050750 METAR ESMX 050750Z AUTO 02008KT 340V050 9999NDV R01/P1500D R19/P1500N NCD 19/16 Q1016=
200608050720 METAR ESMX 050720Z AUTO 02010KT 9999NDV R01/P1500D R19/P1500D FEW013/// 19/15 Q1016=
200608050650 METAR ESMX 050650Z AUTO 03009KT 340V060 9999NDV R01/P1500U R19/P1500U FEW013/// 18/15 Q1016=
200608050620 METAR ESMX 050620Z AUTO 02009KT 9999NDV R01/P1500U R19/P1500D NCD 17/15 Q1015=
200608050550 METAR ESMX 050550Z AUTO 01009KT 9999NDV R01/P1500D R19/P1500U FEW008/// SCT012/// 17/15 Q1015=
200608050520 METAR ESMX 050520Z AUTO 02010KT 9999NDV R01/P1500U R19/P1500D FEW007/// 16/15 Q1015=
200608050450 METAR ESMX 050450Z AUTO 01009KT 9999NDV R01/P1500U R19/P1500D FEW010/// 16/15 Q1015=
200608050420 METAR ESMX 050420Z AUTO 01009KT 9999NDV R01/P1500U R19/P1500U FEW007/// SCT010/// BKN013/// 16/15 Q1015=
200608050350 METAR ESMX 050350Z AUTO 36007KT 9999NDV R01/P1500N R19/P1500D BKN008/// BKN012/// 16/15 Q1015=
200608050320 METAR ESMX 050320Z AUTO 03010KT 9999NDV R01/P1500N R19/P1500U FEW006/// BKN009/// 16/15 Q1015=
200608050250 METAR ESMX 050250Z AUTO 01009KT 9999NDV R01/P1500N R19/P1500N FEW008/// SCT010/// 16/15 Q1015=
200608050220 METAR ESMX 050220Z AUTO 03008KT 9999NDV R01/P1500N R19/P1500N FEW009/// 16/15 Q1015=
200608050150 METAR ESMX 050150Z AUTO 01006KT 9999NDV R01/P1500N R19/P1500N FEW005/// SCT011/// 15/15 Q1015=
200608050120 METAR ESMX 050120Z AUTO 02007KT 9999NDV R01/P1500N R19/P1500N FEW009/// 16/15 Q1015=
200608050050 METAR ESMX 050050Z AUTO 01006KT 9000NDV R01/P1500N R19/P1500N FEW011/// 15/15 Q1015=
200608050020 METAR ESMX 050020Z AUTO 01006KT 9999NDV R01/P1500N R19/P1500N FEW009/// 16/15 Q1015=
200608042350 METAR ESMX 042350Z AUTO 03007KT 9999NDV R01/P1500N R19/P1500N FEW009/// SCT011/// 16/15 Q1015=
200608042320 METAR ESMX 042320Z AUTO 03006KT 9999NDV R01/P1500N R19/P1500N NCD 16/15 Q1014=
200608042250 METAR ESMX 042250Z AUTO 03007KT 9999NDV R01/P1500N R19/P1500N FEW008/// 16/15 Q1014=
200608042220 METAR ESMX 042220Z AUTO 03006KT 9999NDV R01/P1500N R19/P1500N NCD 16/15 Q1015=
200608042150 METAR ESMX 042150Z AUTO 02005KT 350V060 9999NDV R01/P1500N R19/P1500N FEW015/// 16/15 Q1015=
200608042120 METAR ESMX 042120Z AUTO 03006KT 360V060 9999NDV R01/P1500N R19/P1500N NCD 16/15 Q1015=
200608042050 METAR ESMX 042050Z AUTO 03005KT 9999NDV R01/P1500N R19/P1500N FEW009/// SCT100/// 16/15 Q1014=
200608042020 METAR ESMX 042020Z AUTO 04007KT 010V070 9999NDV R01/P1500N R19/P1500N FEW010/// 17/16 Q1014=
200608041950 METAR ESMX 041950Z AUTO 03006KT 9999NDV R01/P1500N R19/P1500N SCT100/// 17/16 Q1014=
200608041920 METAR ESMX 041920Z AUTO 03006KT 360V070 9999NDV R01/P1500D R19/P1500D FEW093/// 17/16 Q1014=
200608041850 METAR ESMX 041850Z AUTO 04006KT 9999NDV R01/P1500D R19/P1500U FEW100/// 17/16 Q1014=
200608041820 METAR ESMX 041820Z AUTO 01004KT 9999NDV R01/P1500U R19/P1500D NCD 17/16 Q1013=
200608041750 METAR ESMX 041750Z AUTO 04003KT 010V070 9999NDV R01/P1500U R19/P1500U FEW091/// 17/16 Q1013=
200608041720 METAR ESMX 041720Z AUTO 06003KT 010V080 9999NDV R01/P1500D R19/P1500N FEW091/// 17/15 Q1013=
200608041650 METAR ESMX 041650Z AUTO 03005KT 9999NDV R01/P1500U R19/P1500N FEW068/// 17/16 Q1013 RERA=
200608041620 METAR ESMX 041620Z AUTO 04006KT 350V060 9999NDV R01/P1500D R19/P1500D -RA NCD 16/15 Q1013=
200608041550 METAR ESMX 041550Z AUTO 05006KT 020V080 8000NDV R01/P1500N R19/P1500U RA FEW083/// 17/16 Q1013=
200608041520 METAR ESMX 041520Z AUTO VRB02KT 9999NDV R01/P1500U R19/P1500N FEW045/// SCT090/// 19/17 Q1012=
200608041450 METAR ESMX 041450Z AUTO 19003KT 120V230 9999NDV R01/P1500U R19/P1500N FEW007/// SCT087/// 16/16 Q1012 RERA=
200608041420 METAR ESMX 041420Z AUTO 05006G19KT 010V120 9999NDV R01/P1500U R19/P1500D RA FEW011/// SCT045/// BKN094/// 19/16 Q1012=
200608041350 METAR ESMX 041350Z AUTO 01008KT 9999NDV R01/P1500N R19/P1500D FEW085/// 22/15 Q1012=
200608041320 METAR ESMX 041320Z 01007KT 330V070 9999 SCT025 22/15 Q1011=
200608041250 METAR ESMX 041250Z 03009KT 9999 FEW026 SCT090 22/15 Q1011=
200608041220 METAR ESMX 041220Z 01008KT 9999 FEW020 SCT030 21/15 Q1011=
200608041150 METAR ESMX 041150Z 02009KT 9999 FEW020 SCT030 21/16 Q1012=
200608041120 METAR ESMX 041120Z 01010KT 9999 FEW015 BKN080 20/15 Q1011=
200608041050 METAR ESMX 041050Z 01012KT 9999 FEW029 BKN065 20/15 Q1011=
200608041020 METAR ESMX 041020Z 34004KT 300V040 9999 FEW020 SCT025 21/14 Q1011=
200608040950 METAR ESMX 040950Z 34004KT 300V020 9999 FEW020 SCT025 21/14 Q1011=
200608040920 METAR ESMX 040920Z 02004KT 330V100 9999 FEW020 SCT025 20/14 Q1011=
200608040850 METAR ESMX 040850Z 07005KT 010V120 9999 SCT015 BKN019 19/14 Q1012=
200608040820 METAR ESMX 040820Z 02005KT 9999 OVC011 18/15 Q1012=
200608040750 METAR ESMX 040750Z 04006KT 9999 SCT010 OVC015 18/15 Q1011=
200608040720 METAR ESMX 040720Z 01006KT 9999 SCT007 OVC010 17/15 Q1011=
200608040650 METAR ESMX 040650Z 02007KT 9999 BKN006 OVC015 16/15 Q1010=
200608040620 METAR ESMX 040620Z 03008KT 9999 SCT005 BKN015 16/15 Q1010=
200608040550 METAR ESMX 040550Z 04006KT 9999 FEW005 BKN015 16/15 Q1010=
200608040520 METAR ESMX 040520Z 04004KT 010V080 9999 FEW004 BKN015 15/15 Q1010=
200608040450 METAR ESMX 040450Z 04006KT 010V080 9999 BKN005 15/14 Q1010=
200608040420 METAR ESMX 040420Z 01005KT 9999 BKN005 15/14 Q1010=
200608040350 METAR ESMX 040350Z 03005KT 9999 BKN005 15/14 Q1009=
200608040320 METAR ESMX 040320Z 03005KT 350V060 9999 BKN005 14/14 Q1009=
200608040120 METAR ESMX 040120Z AUTO VRB01KT 3600NDV R01/P1500N R19/P1500N BR NCD 12/12 Q1009=
200608040050 METAR ESMX 040050Z AUTO 00000KT 3300NDV R01/P1500N R19/P1500N BR NCD 12/12 Q1008=
200608040020 METAR ESMX 040020Z AUTO VRB02KT 9999NDV R01/P1500N R19/P1500N BR NCD 13/12 Q1008=
200608032350 METAR ESMX 032350Z AUTO VRB01KT 9999NDV R01/P1500N R19/P1500N NCD 13/13 Q1008=
200608032320 METAR ESMX 032320Z VRB02KT 9999 R01/P1500N R19/P1500N NSC 14/13 Q1008=
200608032250 METAR ESMX 032250Z 10003KT 050V140 CAVOK 15/14 Q1008=
200608032220 METAR ESMX 032220Z 07003KT CAVOK 15/14 Q1008=
200608032150 METAR ESMX 032150Z 03004KT 350V080 9999 FEW015 BKN080 16/15 Q1008=
200608032120 METAR ESMX 032120Z 34004KT 9999 FEW015CB BKN070 16/15 Q1008=
200608032050 METAR ESMX 032050Z 33005KT 9999 VCTS FEW015 BKN074 16/15 Q1007=
200608032020 METAR ESMX 032020Z 00000KT 9999 -SHRA FEW015CB BKN050 16/15 Q1007 RERA=
200608031950 METAR ESMX 031950Z 30003KT 260V330 9999 FEW006CB BKN045 17/14 Q1007 RERA=
200608031920 METAR ESMX 031920Z VRB02KT 9999 VCTS FEW006CB BKN050 18/14 Q1007=
200608031850 METAR ESMX 031850Z 18004KT 9999 VCTS FEW020CB BKN050 18/14 Q1006=
200608031820 METAR ESMX 031820Z 22004KT 200V260 9999 FEW020CB BKN045 19/14 Q1006=
200608031750 METAR ESMX 031750Z 21005KT 180V240 9999 FEW020CB BKN040 19/13 Q1006=
200608031720 METAR ESMX 031720Z 19007KT 9999 FEW020 BKN045 20/13 Q1005=
200608031650 METAR ESMX 031650Z 17009KT 140V210 9999 SCT049 21/13 Q1005=
200608031620 METAR ESMX 031620Z 20006KT 170V240 9999 FEW045 SCT053 23/12 Q1005=
200608031550 METAR ESMX 031550Z 22004KT 190V270 9999 SCT043 SCT088 23/11 Q1004=
200608031520 METAR ESMX 031520Z 21005KT 190V260 9999 SCT042 23/11 Q1004=
200608031450 METAR ESMX 031450Z 27004KT 240V300 9999 SCT042 22/12 Q1004=
200608031420 METAR ESMX 031420Z VRB02KT 9999 SCT042 23/12 Q1004=
200608031350 METAR ESMX 031350Z 20005KT 170V250 9999 SCT038 22/13 Q1004=
200608031320 METAR ESMX 031320Z 20004KT 160V290 9999 FEW036 SCT045 BKN062 22/12 Q1004=
200608031250 METAR ESMX 031250Z 19004KT 140V290 9999 BKN035 21/12 Q1004=
200608031220 METAR ESMX 031220Z VRB03KT 9999 SCT032 SCT063 21/13 Q1004=
200608031150 METAR ESMX 031150Z 23003KT 150V290 9999 FEW031 SCT072 21/12 Q1003=
200608031120 METAR ESMX 031120Z 27003KT 200V350 9999 SCT025 19/13 Q1003=
200608031050 METAR ESMX 031050Z 02004KT 290V060 9999 SCT025 19/14 Q1003=
200608031020 METAR ESMX 031020Z 29004KT 250V340 9999 BKN023 20/13 Q1003=
200608030950 METAR ESMX 030950Z 20005KT 160V260 9999 SCT025 20/14 Q1003=
200608030920 METAR ESMX 030920Z 19004KT 150V230 9999 SCT023 18/14 Q1003=
200608030850 METAR ESMX 030850Z 22003KT 140V250 9999 BKN013 18/14 Q1003=
200608030820 METAR ESMX 030820Z 21004KT 170V240 9999 BKN013 18/14 Q1002=
200608030750 METAR ESMX 030750Z 20005KT 9999 FEW010 BKN021 17/14 Q1002=
200608030720 METAR ESMX 030720Z 16003KT 9999 SCT009 16/14 Q1002=
200608030650 METAR ESMX 030650Z 18003KT 9999 FEW007 BKN100 16/14 Q1002=
200608030620 METAR ESMX 030620Z 18003KT 150V210 9999 FEW005 BKN100 15/14 Q1001=
200608030550 METAR ESMX 030550Z 16003KT 9999 FEW005 BKN100 14/14 Q1001=
200608030520 METAR ESMX 030520Z 17003KT 9999 FEW005 BKN100 14/14 Q1001=
200608030450 METAR ESMX 030450Z VRB02KT 0700 R19/0450V0800N BCFG FEW003 BKN100 13/13 Q1001=
200608030420 METAR ESMX 030420Z 18003KT 0500 R19/1500 FG VV003 12/12 Q1001=
200608030350 METAR ESMX 030350Z 16002KT 0500 BCFG FEW010 SCT080 12/12 Q1001=
200608030320 METAR ESMX 030320Z AUTO 17001KT 0150NDV R01/0450N R19/0900VP1500U FG NCD 12/12 Q1001=
200608030250 METAR ESMX 030250Z AUTO 17002KT 0550NDV R01/P1500N R19/0900V1400U FG VV000 12/12 Q1001=
200608030220 METAR ESMX 030220Z AUTO 17002KT 0300NDV R01/0900D R19/0650N FG FEW000/// 13/12 Q1001=
200608030150 METAR ESMX 030150Z AUTO VRB01KT 0200NDV R01/0600D R19/0800VP1500U FG NCD 13/12 Q1001=
200608030120 METAR ESMX 030120Z AUTO VRB02KT 5000NDV R01/P1500N R19/P1500N BR NCD 13/13 Q1001=
200608030050 METAR ESMX 030050Z AUTO 18004KT 9000NDV R01/P1500N R19/P1500N FEW001/// 14/13 Q1001=
200608030020 METAR ESMX 030020Z AUTO 17004KT 9999NDV R01/P1500N R19/P1500N FEW085/// 14/13 Q1001=
200608022350 METAR ESMX 022350Z 21003KT 180V260 9999 FEW007 BKN009 14/13 Q1001=
200608022320 METAR ESMX 022320Z 19004KT 9999 SCT007 BKN040 14/13 Q1001=
200608022250 METAR ESMX 022250Z VRB01KT 7000 -DZ SCT010 BKN050 13/13 Q1001=
200608022220 METAR ESMX 022220Z 26002KT 7000 -RA SCT010 BKN057 14/13 Q1001 REDZ=
200608022150 METAR ESMX 022150Z 25002KT 9000 -RA FEW003 SCT018 BKN020 14/13 Q1001=
200608022120 METAR ESMX 022120Z 21002KT 9000 -RA FEW003 SCT030 BKN037 14/13 Q1001 REDZ=
200608022050 METAR ESMX 022050Z 00000KT 9000 -RA FEW005 SCT008 BKN014 14/14 Q1001 REDZ=
200608022020 METAR ESMX 022020Z 27002KT 4900 +DZ BKN013 BKN024 14/14 Q1001 RERA=
200608021950 METAR ESMX 021950Z 00000KT 2400 -SHRA SCT018 BKN023 OVC030 15/14 Q1001=
200608021920 METAR ESMX 021920Z VRB02KT 9000 -SHRA SCT023 BKN031 OVC038 15/14 Q1001=
200608021850 METAR ESMX 021850Z 36003KT 9999 R01/P1500U R19/P1500N -SHRA SCT025 BKN044 15/14 Q1001=
200608021820 METAR ESMX 021820Z 34002KT 9000 -SHRA SCT010 BKN070 15/14 Q1001 REDZ=
200608021750 METAR ESMX 021750Z 21003KT 9999 -SHRA FEW008 BKN070 15/14 Q1000 RERA=
200608021720 METAR ESMX 021720Z 18006KT 9999 -RA FEW010 SCT050CB BKN070 15/14 Q1000=
200608021650 METAR ESMX 021650Z 18006KT 140V200 9999 -RA FEW015 SCT050 BKN070 16/15 Q1001=
200608021620 METAR ESMX 021620Z 16006KT 140V200 9999 -RA FEW010 SCT045 BKN070 16/14 Q1001=
200608021550 METAR ESMX 021550Z 18006KT 150V210 9999 -RA FEW010 SCT040 BKN070 16/15 Q1001=
200608021520 METAR ESMX 021520Z VRB02KT 9999 RA FEW010 SCT040 BKN070 16/15 Q1001=
200608021450 METAR ESMX 021450Z 12003KT 060V170 9999 RA FEW010 SCT050 BKN065 16/15 Q1001=
200608021420 METAR ESMX 021420Z 15004KT 120V190 9999 -RA FEW010 SCT050 BKN060 16/15 Q1001=
200608021350 METAR ESMX 021350Z 15005KT 120V190 9999 -RA FEW015 SCT040 BKN070 16/15 Q1001=
200608021320 METAR ESMX 021320Z 15005KT 120V190 9999 -RA FEW020 SCT035 BKN070 16/15 Q1001=
200608021250 METAR ESMX 021250Z 15005KT 120V190 9999 -RA FEW015 BKN040 15/14 Q1001=
200608021220 METAR ESMX 021220Z 14005KT 110V190 6000 RA FEW015 BKN035 15/14 Q1001=
200608021150 METAR ESMX 021150Z 16005KT 120V200 7000 SHRA FEW010 BKN035CB 15/15 Q1001 RETS=
200608021120 METAR ESMX 021120Z 15012KT 090V190 1000 TSRA FEW015 BKN038 18/14 Q1002=
200608021050 METAR ESMX 021050Z 16005KT 100V190 9999 SCT042 BKN100 19/15 Q1001=
200608021020 METAR ESMX 021020Z 14006KT 110V250 9999 FEW033 BKN097 19/15 Q1001=
200608020950 METAR ESMX 020950Z 09009KT 050V140 9999 FEW027 SCT033 BKN085 20/14 Q1001=
200608020920 METAR ESMX 020920Z 10008KT 050V140 9999 FEW022 SCT070 21/15 Q1000=
200608020850 METAR ESMX 020850Z 08006KT 040V160 9999 FEW023 BKN067 20/15 Q1001=
200608020820 METAR ESMX 020820Z 09007KT 040V130 9999 FEW017 SCT020 BKN067 20/15 Q1001=
200608020750 METAR ESMX 020750Z 11006KT 050V170 CAVOK 20/15 Q1001=
200608020720 METAR ESMX 020720Z 08008KT 020V140 9999 SCT016 BKN150 19/16 Q1002=
200608020650 METAR ESMX 020650Z 09006KT 040V140 9999 FEW018 BKN150 19/16 Q1002=
200608020620 METAR ESMX 020620Z 07006KT 010V110 CAVOK 18/16 Q1002=
200608020550 METAR ESMX 020550Z 08005KT 030V140 CAVOK 17/16 Q1002=
200608020520 METAR ESMX 020520Z 07004KT 010V130 CAVOK 17/15}=
200608020450 METAR ESMX 020450Z 07004KT 020V160 CAVOK 16/15 Q1002=
200608020420 METAR ESMX 020420Z 06003KT 010V110 CAVOK 16/15 Q1002=
200608020350 METAR ESMX 020350Z 06004KT 010V080 CAVOK 15/15 Q1002=
200608020320 METAR ESMX 020320Z AUTO VRB02KT 9999NDV R01/P1500D R19/P1500D NCD 14/14 Q1003=
200608020250 METAR ESMX 020250Z AUTO VRB02KT 9000NDV R01/P1500U R19/P1500N BR NCD 14/13 Q1003=
200608020220 METAR ESMX 020220Z AUTO 10003KT 4900NDV R01/P1500N R19/P1500N BR FEW020/// 14/13 Q1003=
200608020150 METAR ESMX 020150Z AUTO 10003KT 8000NDV R01/P1500N R19/P1500N BR NCD 14/14 Q1003=
200608020120 METAR ESMX 020120Z AUTO VRB02KT 9999NDV R01/P1500N R19/P1500N NCD 14/14 Q1003=
200608020050 METAR ESMX 020050Z AUTO 12003KT 9999NDV R01/P1500N R19/P1500N NCD 14/13 Q1003=
200608020020 METAR ESMX 020020Z AUTO 11004KT 9999NDV R01/P1500N R19/P1500N NCD 14/13 Q1003=
200608012350 METAR ESMX 012350Z 13003KT 080V160 CAVOK 14/13 Q1004=
200608012320 METAR ESMX 012320Z 12003KT CAVOK 14/13 Q1004=
200608012250 METAR ESMX 012250Z 13003KT CAVOK 15/14 Q1004=
200608012220 METAR ESMX 012220Z 16004KT CAVOK 14/13 Q1004=
200608012150 METAR ESMX 012150Z 15004KT CAVOK 14/14 Q1004=
200608012120 METAR ESMX 012120Z 15003KT 9999 MIFG NSC 14/13 Q1004=
200608012050 METAR ESMX 012050Z 18003KT 9999 MIFG NSC 14/13 Q1005=
200608012020 METAR ESMX 012020Z 18002KT 9999 MIFG NSC 14/13 Q1005=
200608011950 METAR ESMX 011950Z VRB02KT 9999 MIFG NSC 15/14 Q1005=
200608011920 METAR ESMX 011920Z VRB02KT CAVOK 15/14 Q1005=
200608011820 METAR ESMX 011820Z 15001KT CAVOK 18/15 Q1005=
200608011750 METAR ESMX 011750Z 17003KT CAVOK 20/15 Q1005=
200608011620 METAR ESMX 011620Z 20007KT 9999 FEW030 SCT100 21/15 Q1005=
200608011550 METAR ESMX 011550Z 17006KT 140V200 9999 FEW020 SCT080 22/15 Q1005=
200608011520 METAR ESMX 011520Z 17006KT 9999 FEW020 SCT100 21/15 Q1005=
200608011450 METAR ESMX 011450Z 16004KT 120V200 9999 FEW015CB SCT080 21/16 Q1006=
200608011420 METAR ESMX 011420Z 19006KT 9999 -SHRA FEW016CB SCT050 18/16 Q1006=
200608011350 METAR ESMX 011350Z 21014KT 9000 -SHRA FEW020CB BKN050 18/15 Q1006=
200608011320 METAR ESMX 011320Z 18010KT 130V210 9999 FEW020CB SCT050 23/12 Q1006=
200608011250 METAR ESMX 011250Z 20008KT 140V250 9999 FEW040 24/12 Q1006=
200608011220 METAR ESMX 011220Z 19009KT 150V230 9999 FEW045 25/11 Q1006=
