##########################################################
# Query made at 04/19/2024 20:52:05 UTC
# Time interval: from 07/01/2006 12:00  to 07/31/2006 12:59  UTC
##########################################################

##########################################################
# ESMX, Vaxjo (Sweden)
# WMO index: 02641. WIGOS ID: 0-20000-0-02648
# Latitude 56-51N. Longitude 014-50E. Altitude 199 m.
##########################################################

200607311220 METAR ESMX 311220Z 14006KT 100V190 9999 FEW008 SCT045 BKN080 20/18 Q1009 RESH=
200607311150 METAR ESMX 311150Z 14005KT 100V190 9999 -SHRA FEW008 SCT040 BKN080 19/17 Q1009=
200607311120 METAR ESMX 311120Z 14006KT 100V190 9000 -SHRA FEW007 SCT048 19/17 Q1009=
200607311050 METAR ESMX 311050Z 13005KT 090V170 9999 -SHRA FEW008 SCT15 BKN040 19/17 Q1009 RERA=
200607311020 METAR ESMX 311020Z 15003KT 120V180 8000 -RASH FEW006 SCT0015 BKN080 19/18 Q1009=
200607310950 METAR ESMX 310950Z 16003KT 130V200 6000 -RASH FEW005 SCT008CB BKN018 18/18 Q1009=
200607310920 METAR ESMX 310920Z 14008KT 070V190 2100 SHRA SCT015CB BKN035 19/17 Q1009=
200607310850 METAR ESMX 310850Z 22006KT 9999 SCT015 BKN040 21/18 Q1009=
200607310820 METAR ESMX 310820Z 20006KT 9999 SCT015 BKN040 21/18 Q1009=
200607310750 METAR ESMX 310750Z 20006KT 9999 SCT015 BKN040 21/18 Q1009=
200607310720 METAR ESMX 310720Z 18004KT 140V210 9999 SCT010 BKN035 21/18 Q1009=
200607310650 METAR ESMX 310650Z 16005KT 110V180 9000 BR FEW009 BKN014 21/18 Q1009=
200607310620 METAR ESMX 310620Z 17005KT 120V200 9000 BR FEW007 BKN009 20/18 Q1009=
200607310550 METAR ESMX 310550Z 14005KT 100V170 9999 BR BKN005 20/18 Q1010=
200607310520 METAR ESMX 310520Z 14005KT 100V190 8000 BR SCT005 BKN007 19/18 Q1010=
200607310450 METAR ESMX 310450Z 16003KT 110V190 8000 BR BKN005 19/18 Q1009=
200607310420 METAR ESMX 310420Z 18004KT 5000 BR BKN004 OVC005 19/18 Q1009=
200607310350 METAR ESMX 310350Z 18003KT 4000 BR BKN004 18/18 Q1010=
200607310320 METAR ESMX 310320Z AUTO 17004KT 2800NDV R01/P1500N R19/P1500N BR FEW004/// BKN006/// 19/18 Q1010=
200607310250 METAR ESMX 310250Z AUTO 18004KT 2400NDV R01/P1500N R19/P1500N BR OVC003/// 19/18 Q1010=
200607310220 METAR ESMX 310220Z AUTO 17004KT 1900NDV R01/P1500N R19/P1500N BR BKN001/// OVC005/// 19/18 Q1010=
200607310150 METAR ESMX 310150Z AUTO 19004KT 2500NDV R01/P1500N R19/P1500N BR BKN002/// BKN007/// 19/18 Q1010=
200607310120 METAR ESMX 310120Z AUTO 17004KT 4100NDV R01/P1500N R19/P1500N BR FEW005/// OVC006/// 19/18 Q1010=
200607310050 METAR ESMX 310050Z AUTO 14004KT 100V190 4000NDV R01/P1500N R19/P1500N BR BKN003/// 19/18 Q1010=
200607310020 METAR ESMX 310020Z 16004KT 3000 BR SCT003 19/18 Q1010=
200607302350 METAR ESMX 302350Z 17005KT 4500 BR BKN003 19/18 Q1011=
200607302320 METAR ESMX 302320Z 16005KT CAVOK 19/18 Q1011=
200607302250 METAR ESMX 302250Z 16004KT CAVOK 19/18 Q1011=
200607302220 METAR ESMX 302220Z 16003KT CAVOK 17/16 Q1011=
200607302150 METAR ESMX 302150Z 15002KT CAVOK 17/17 Q1011=
200607302120 METAR ESMX 302120Z 17002KT CAVOK 18/17 Q1011=
200607302050 METAR ESMX 302050Z VRB02KT CAVOK 18/17 Q1011=
200607302020 METAR ESMX 302020Z VRB02KT CAVOK 18/17 Q1011=
200607301950 METAR ESMX 301950Z 10002KT CAVOK 18/17 Q1011=
200607301920 METAR ESMX 301920Z 21004KT 9999 FEW085CB SCT100 20/18 Q1011=
200607301850 METAR ESMX 301850Z 23005KT 9999 FEW020 SCT085CB BKN085 21/18 Q1011=
200607301820 METAR ESMX 301820Z 19005KT CAVOK 20/18 Q1011=
200607301750 METAR ESMX 301750Z 20005KT CAVOK 21/18 Q1011=
200607301720 METAR ESMX 301720Z 19005KT 9999 -RA FEW024 SCT070 22/18 Q1011=
200607301650 METAR ESMX 301650Z 14003KT 6000 -RA FEW024 SCT070 BKN110 23/18 Q1010=
200607301620 METAR ESMX 301620Z AUTO 03005KT 9999NDV R01/P1500U R19/P1500U FEW007/// SCT100/// 23/16 Q1010=
200607301550 METAR ESMX 301550Z AUTO 16004KT 090V210 9999NDV R01/P1500D R19/P1500U FEW010/// BKN047/// 26/15 Q1010=
200607301520 METAR ESMX 301520Z AUTO 18005KT 140V210 9999NDV R01/P1500U R19/P1500D BKN046/// BKN098/// 27/15 Q1010=
200607301450 METAR ESMX 301450Z AUTO 14003KT 080V180 9999NDV R01/P1500D R19/P1500U SCT045/// 27/15 Q1011=
200607301420 METAR ESMX 301420Z AUTO 22003KT 170V270 9999NDV R01/P1500D R19/P1500D NCD 26/15 Q1011=
200607301350 METAR ESMX 301350Z AUTO VRB02KT 9999NDV R01/P1500D R19/P1500U FEW085/// SCT096/// 26/14 Q1011=
200607301320 METAR ESMX 301320Z AUTO 01004KT 9999NDV R01/P1500U R19/P1500U FEW092/// 25/14 Q1011=
200607301250 METAR ESMX 301250Z AUTO 05004KT 340V100 9999NDV R01/P1500U R19/P1500U NCD 26/15 Q1011=
200607301220 METAR ESMX 301220Z AUTO 06006KT 290V080 9999NDV R01/P1500D R19/P1500U NCD 26/15 Q1011=
200607301150 METAR ESMX 301150Z AUTO 01004KT 320V100 9999NDV R01/P1500D R19/P1500U NCD 24/15 Q1011=
200607301120 METAR ESMX 301120Z AUTO 36005KT 300V030 9999NDV R01/P1500U R19/P1500U NCD 24/16 Q1011=
200607301050 METAR ESMX 301050Z AUTO 35006KT 320V020 9999NDV R01/P1500D R19/P1500D NCD 24/16 Q1011=
200607301020 METAR ESMX 301020Z AUTO 35005KT 320V020 9999NDV R01/P1500U R19/P1500U NCD 23/17 Q1011=
200607300950 METAR ESMX 300950Z AUTO 35006KT 320V020 9999NDV R01/P1500U R19/P1500D ////// 22/17 Q1011=
200607300920 METAR ESMX 300920Z AUTO 35007KT 9999NDV R01/P1500U R19/P1500U NCD 22/17 Q1011=
200607300850 METAR ESMX 300850Z AUTO 02006KT 330V030 9999NDV R01/P1500U R19/P1500D FEW009/// 21/17 Q1011=
200607300820 METAR ESMX 300820Z AUTO 36006KT 320V050 9999NDV R01/P1500U R19/P1500U FEW007/// SCT009/// 21/17 Q1011=
200607300750 METAR ESMX 300750Z AUTO 02004KT 340V070 9999NDV R01/P1500U R19/P1500D FEW006/// 20/17 Q1011=
200607300720 METAR ESMX 300720Z AUTO 03004KT 350V060 9999NDV R01/P1500U R19/P1500D FEW004/// SCT006/// 20/17 Q1011=
200607300650 METAR ESMX 300650Z AUTO VRB02KT 9999NDV R01/P1500D R19/P1500U FEW002/// SCT006/// 19/17 Q1010=
200607300620 METAR ESMX 300620Z AUTO VRB02KT 9999NDV R01/P1500U R19/P1500U BKN001/// 17/17 Q1010=
200607300550 METAR ESMX 300550Z AUTO 03003KT 350V070 1000NDV R01/0800VP1500U R19/P1500U FG OVC001/// 17/16 Q1010=
200607300520 METAR ESMX 300520Z AUTO 03003KT 330V070 0500NDV R01/0750V1100U R19/P1500D FG OVC001/// 17/16 Q1010=
200607300450 METAR ESMX 300450Z AUTO VRB02KT 0500NDV R01/0900VP1500U R19/P1500U FG OVC001/// 17/16 Q1010=
200607300420 METAR ESMX 300420Z AUTO 00000KT 0400NDV R01/0400V0650D R19/0650N FG BKN001/// 16/16 Q1010=
200607300350 METAR ESMX 300350Z AUTO 00000KT 1900NDV R01/P1500U R19/P1500U BKN001/// 15/15 Q1010=
200607300320 METAR ESMX 300320Z AUTO 00000KT 0300NDV R01/0650D R19/0275V0500D FG BKN001/// 15/15 Q1009=
200607300250 METAR ESMX 300250Z AUTO 00000KT 0200NDV R01/0650N R19/P1500N FG OVC001/// 15/15 Q1010=
200607300220 METAR ESMX 300220Z AUTO 00000KT 0250NDV R01/0800V1100N R19/1100VP1500D FG VV002 16/15 Q1009=
200607300150 METAR ESMX 300150Z AUTO 00000KT 1300NDV R01/P1500N R19/0800VP1500D OVC001/// 15/15 Q1009=
200607300120 METAR ESMX 300120Z AUTO 00000KT 0400NDV R01/0900VP1500U R19/0800V1200N FG OVC001/// 14/14 Q1009=
200607300050 METAR ESMX 300050Z AUTO 00000KT 0200NDV R01/0650D R19/0750N FG OVC001/// 15/14 Q1009=
200607300020 METAR ESMX 300020Z AUTO 20002KT 0250NDV R01/0800V1200N R19/0900VP1500U FG FEW003/// SCT005/// 14/13 Q1009=
200607292350 METAR ESMX 292350Z AUTO 00000KT 0150NDV R01/0550N R19/0600N FG FEW004/// 13/13 Q1009=
200607292320 METAR ESMX 292320Z AUTO 00000KT 0100NDV R01/0350V0600D R19/0350V0700N FG FEW005/// 13/13 Q1009=
200607292250 METAR ESMX 292250Z AUTO 00000KT 0450NDV R01/P1500N R19/0550D FG NCD 14/14 Q1009=
200607292220 METAR ESMX 292220Z AUTO 00000KT 0550NDV R01/P1500U R19/1000U FG NCD 14/14 Q1008=
200607292150 METAR ESMX 292150Z AUTO 00000KT 1100NDV R01/P1500N R19/P1500N FEW110/// 15/15 Q1008=
200607292120 METAR ESMX 292120Z AUTO 27004KT 9000NDV R01/P1500N R19/P1500N NCD 16/15 Q1008=
200607292050 METAR ESMX 292050Z AUTO 00000KT 0200NDV R01/0800V1300D R19/P1500N BCFG NCD 16/15 Q1008=
200607292020 METAR ESMX 292020Z AUTO 00000KT 0900NDV R01/P1500N R19/1300D BCFG NCD 16/16 Q1008=
200607291950 METAR ESMX 291950Z AUTO VRB01KT 6000NDV R01/P1500D R19/P1500D BR SCT100/// 17/16 Q1008=
200607291920 METAR ESMX 291920Z AUTO VRB02KT 9999NDV R01/P1500U R19/P1500U SCT100/// 18/17 Q1008=
200607291850 METAR ESMX 291850Z AUTO 00000KT 9999NDV R01/P1500D R19/P1500D NCD 18/17 Q1007=
200607291820 METAR ESMX 291820Z AUTO VRB02KT 9999NDV R01/P1500D R19/P1500D FEW110/// 18/17 Q1007=
200607291750 METAR ESMX 291750Z AUTO 27004KT 9999NDV R01/P1500U R19/P1500D FEW110/// 18/17 Q1007=
200607291720 METAR ESMX 291720Z AUTO 01003KT 320V090 9999NDV R01/P1500U R19/P1500D -RA FEW030/// SCT038/// 18/17 Q1007=
200607291650 METAR ESMX 291650Z AUTO 34006KT 9999NDV R01/P1500D R19/P1500D -RA FEW011/// SCT038/// BKN051/// 18/17 Q1008 REDZ=
200607291620 METAR ESMX 291620Z AUTO VRB02KT 9000NDV R01/P1500N R19/P1500U -RA ////// 18/17 Q1008=
200607291550 METAR ESMX 291550Z AUTO 07004KT 020V110 9999NDV R01/P1500D R19/P1500D RA ////// 18/17 Q1007=
200607291520 METAR ESMX 291520Z AUTO 32003KT 260V350 9999NDV R01/P1500U R19/P1500U -RA ////// 18/15 Q1007 REDZ=
200607291450 METAR ESMX 291450Z AUTO 29010KT 9999NDV R01/P1500U R19/P1500D ////// 20/13 Q1006=
200607291420 METAR ESMX 291420Z AUTO 34013KT 9999NDV R01/P1500N R19/P1500D SCT061/// BKN110/// 23/12 Q1006=
200607291350 METAR ESMX 291350Z AUTO 02004KT 9999NDV R01/P1500U R19/P1500U FEW068/// 27/14 Q1006=
200607291320 METAR ESMX 291320Z AUTO VRB02KT 9999NDV R01/P1500D R19/P1500U NCD 28/14 Q1005=
200607291250 METAR ESMX 291250Z AUTO 18005KT 140V310 9999NDV R01/P1500D R19/P1500D FEW048/// 27/14 Q1006=
200607291220 METAR ESMX 291220Z AUTO VRB03KT 9999NDV R01/P1500D R19/P1500U NCD 27/14 Q1006=
200607291150 METAR ESMX 291150Z AUTO VRB04KT 9999NDV R01/P1500U R19/P1500D NCD 26/14 Q1006=
200607291120 METAR ESMX 291120Z AUTO 03003KT 340V140 9999NDV R01/P1500U R19/P1500U NCD 26/15 Q1006=
200607291050 METAR ESMX 291050Z AUTO VRB01KT 9999NDV R01/P1500D R19/P1500D FEW050/// 25/15 Q1007=
200607291020 METAR ESMX 291020Z AUTO 03005KT 340V070 9999NDV R01/P1500D R19/P1500N NCD 24/15 Q1007=
200607290950 METAR ESMX 290950Z AUTO 35005KT 320V030 9999NDV R01/P1500U R19/P1500U NCD 24/15 Q1007=
200607290920 METAR ESMX 290920Z AUTO 01004KT 320V050 9999NDV R01/P1500D R19/P1500N NCD 24/15 Q1007=
200607290850 METAR ESMX 290850Z AUTO 01005KT 340V060 9999NDV R01/P1500D R19/P1500D NCD 23/16 Q1007=
200607290820 METAR ESMX 290820Z AUTO 03006KT 010V080 9999NDV R01/P1500D R19/P1500D NCD 23/15 Q1007=
200607290750 METAR ESMX 290750Z AUTO 02005KT 340V060 9999NDV R01/P1500U R19/P1500D NCD 22/16 Q1007=
200607290720 METAR ESMX 290720Z AUTO 36007KT 9999NDV R01/P1500D R19/P1500D NCD 22/16 Q1007=
200607290650 METAR ESMX 290650Z AUTO 02004KT 350V060 9999NDV R01/P1500D R19/P1500U NCD 20/16 Q1007=
200607290620 METAR ESMX 290620Z AUTO 02003KT 350V070 9999NDV R01/P1500D R19/P1500U NCD 20/17 Q1007=
200607290550 METAR ESMX 290550Z AUTO 02005KT 9999NDV R01/P1500U R19/P1500U NCD 19/17 Q1007=
200607290520 METAR ESMX 290520Z AUTO 02005KT 9999NDV R01/P1500D R19/P1500U NCD 18/17 Q1008=
200607290450 METAR ESMX 290450Z AUTO 01004KT 9999NDV R01/P1500U R19/P1500D NCD 17/16 Q1008=
200607290420 METAR ESMX 290420Z AUTO 02005KT 9999NDV R01/P1500D R19/P1500U NCD 17/16 Q1008=
200607290350 METAR ESMX 290350Z AUTO 02004KT 9000NDV R01/P1500U R19/P1500D BR NCD 17/16 Q1008=
200607290320 METAR ESMX 290320Z AUTO 36006KT 8000NDV R01/P1500D R19/P1500N BR NCD 17/17 Q1008=
200607290250 METAR ESMX 290250Z AUTO 01005KT 6000NDV R01/P1500U R19/P1500D BR NCD 17/17 Q1008=
200607290220 METAR ESMX 290220Z AUTO 36005KT 8000NDV R01/P1500N R19/P1500N NCD 17/17 Q1008=
200607290150 METAR ESMX 290150Z AUTO 36004KT 2800NDV R01/P1500N R19/P1500N NCD 16/15 Q1008=
200607290120 METAR ESMX 290120Z AUTO 35002KT 0600NDV R01/P1500D R19/P1500N FG FEW004/// 16/15 Q1009=
200607290050 METAR ESMX 290050Z AUTO 01002KT 0200NDV R01/1000N R19/P1500N FG BKN043/// 16/15 Q1009=
200607290020 METAR ESMX 290020Z AUTO 36003KT 0600NDV R01/P1500N R19/P1500N FG SCT045/// 16/16 Q1009=
200607282350 METAR ESMX 282350Z AUTO 00000KT 0700NDV R01/P1500U R19/P1500U BCFG BKN048/// 16/16 Q1009=
200607282320 METAR ESMX 282320Z AUTO 00000KT 6000NDV R01/P1500N R19/P1500N BR BKN044/// BKN053/// 17/16 Q1010=
200607282250 METAR ESMX 282250Z AUTO 00000KT 9999NDV R01/P1500N R19/P1500N OVC046/// 17/16 Q1010=
200607282220 METAR ESMX 282220Z AUTO 21002KT 9999NDV R01/P1500N R19/P1500N OVC048/// 18/16 Q1010=
200607282150 METAR ESMX 282150Z AUTO 16003KT 9999NDV R01/P1500N R19/P1500N OVC048/// 18/16 Q1010=
200607282120 METAR ESMX 282120Z AUTO 16003KT 9999NDV R01/P1500N R19/P1500N BKN054/// BKN074/// 18/17 Q1010=
200607282050 METAR ESMX 282050Z AUTO 19003KT 9999NDV R01/P1500N R19/P1500N SCT057/// BKN100/// 18/17 Q1010=
200607282020 METAR ESMX 282020Z AUTO VRB02KT 9999NDV R01/P1500N R19/P1500N FEW062/// OVC086/// 18/17 Q1010=
200607281950 METAR ESMX 281950Z AUTO 24003KT 200V270 9999NDV R01/P1500N R19/P1500N BKN062/// OVC083/// 18/17 Q1010=
200607281920 METAR ESMX 281920Z AUTO 22002KT 9999NDV R01/P1500D R19/P1500U BKN065/// 19/17 Q1010=
200607281850 METAR ESMX 281850Z AUTO 00000KT 9999NDV R01/P1500U R19/P1500D FEW062/// BKN077/// 19/17 Q1010=
200607281820 METAR ESMX 281820Z AUTO VRB02KT 9999NDV R01/P1500D R19/P1500D SCT061/// 19/18 Q1010=
200607281750 METAR ESMX 281750Z AUTO 08003KT 040V110 9999NDV R01/P1500U R19/P1500D FEW025/// BKN063/// 19/18 Q1010=
200607281720 METAR ESMX 281720Z AUTO 01003KT 9999NDV R01/P1500D R19/P1500D BKN058/// 19/18 Q1011=
200607281650 METAR ESMX 281650Z AUTO 05004KT 020V090 9999NDV R01/P1500D R19/P1500U BKN063/// 19/18 Q1011 RERA REDZ=
200607281620 METAR ESMX 281620Z AUTO 06002KT 9999NDV R01/P1500U R19/P1500U -DZ BKN066/// 19/18 Q1012 RERA=
200607281550 METAR ESMX 281550Z AUTO VRB01KT 9999NDV R01/P1500D R19/P1500U -RA BKN066/// 20/17 Q1012=
200607281520 METAR ESMX 281520Z AUTO VRB02KT 9999NDV R01/P1500U R19/P1500D -RA FEW068/// 20/17 Q1012 REDZ=
200607281450 METAR ESMX 281450Z AUTO 23004KT 190V250 9999NDV R01/P1500D R19/P1500D -DZ FEW063/// 21/16 Q1013=
200607281420 METAR ESMX 281420Z AUTO 27003KT 230V320 9999NDV R01/P1500U R19/P1500D -DZ FEW051/// 22/16 Q1012=
200607281350 METAR ESMX 281350Z AUTO 20004KT 9999NDV R01/P1500U R19/P1500U -RA FEW059/// 22/19 Q1013 REDZ=
200607281320 METAR ESMX 281320Z AUTO 21005KT 9999NDV R01/P1500U R19/P1500D -DZ FEW030/// SCT035/// BKN081/// 22/18 Q1013 RERA=
200607281250 METAR ESMX 281250Z 21006KT 9999 -RA FEW030 BKN080 22/18 Q1013=
200607281220 METAR ESMX 281220Z 23006KT 170V260 9999 -RA FEW030 BKN080 24/17 Q1013=
200607281150 METAR ESMX 281150Z 21005KT 160V240 9999 FEW040 BKN080 24/16 Q1013=
200607281120 METAR ESMX 281120Z 23006KT 190V260 9999 FEW040 BKN080 24/16 Q1013=
200607281050 METAR ESMX 281050Z 21007KT 160V240 9999 FEW040 BKN080 24/16 Q1013=
200607281020 METAR ESMX 281020Z 22008KT 9999 FEW040 BKN080 25/16 Q1014=
200607280950 METAR ESMX 280950Z 20008KT 160V230 9999 FEW040 BKN080 25/16 Q1014=
200607280920 METAR ESMX 280920Z 18008KT 140V210 CAVOK 24/16 Q1014=
200607280850 METAR ESMX 280850Z 20010KT 150V250 CAVOK 24/16 Q1015=
200607280820 METAR ESMX 280820Z 18010KT CAVOK 23/16 Q1015=
200607280750 METAR ESMX 280750Z 19008KT CAVOK 22/16 Q1015=
200607280720 METAR ESMX 280720Z 18009KT 140V210 CAVOK 22/16 Q1015=
200607280650 METAR ESMX 280650Z 17007KT 140V210 CAVOK 21/17 Q1015=
200607280620 METAR ESMX 280620Z 16007KT CAVOK 21/17 Q1015=
200607280550 METAR ESMX 280550Z 15006KT 110V190 CAVOK 20/17 Q1015=
200607280520 METAR ESMX 280520Z 15005KT CAVOK 19/17 Q1015=
200607280450 METAR ESMX 280450Z 15005KT CAVOK 19/17 Q1015=
200607280420 METAR ESMX 280420Z 15004KT CAVOK 18/17 Q1016=
200607280350 METAR ESMX 280350Z 15004KT 9999 FEW004 BKN200 18/17 Q1016=
200607280320 METAR ESMX 280320Z AUTO 14003KT 110V170 6000NDV R01/P1500D R19/P1500U BR FEW002/// SCT004/// 18/17 Q1016=
200607280250 METAR ESMX 280250Z AUTO 13003KT 100V160 7000NDV R01/P1500U R19/P1500U BR NCD 17/17 Q1016=
200607280220 METAR ESMX 280220Z AUTO VRB02KT 3900NDV R01/P1500N R19/P1500N BR NCD 16/15 Q1016=
200607280150 METAR ESMX 280150Z AUTO 14003KT 110V180 6000NDV R01/P1500N R19/P1500N NCD 15/15 Q1017=
200607280120 METAR ESMX 280120Z AUTO 16004KT 8000NDV R01/P1500N R19/P1500N NCD 14/14 Q1017=
200607280050 METAR ESMX 280050Z AUTO 15001KT 5000NDV R01/P1500N R19/P1500N BR NCD 14/14 Q1017=
200607280020 METAR ESMX 280020Z VRB01KT CAVOK 15/14 Q1017=
200607272350 METAR ESMX 272350Z 17002KT CAVOK 16/15 Q1017=
200607272320 METAR ESMX 272320Z VRB02KT CAVOK 16/14 Q1017=
200607272250 METAR ESMX 272250Z 00000KT CAVOK 16/15 Q1018=
200607272220 METAR ESMX 272220Z 17004KT CAVOK 19/16 Q1018=
200607272150 METAR ESMX 272150Z 00000KT CAVOK 18/15 Q1018=
200607272120 METAR ESMX 272120Z 18003KT CAVOK 19/14 Q1018=
200607272050 METAR ESMX 272050Z 17005KT CAVOK 22/15 Q1017=
200607272020 METAR ESMX 272020Z 16007KT CAVOK 23/14 Q1017=
200607271950 METAR ESMX 271950Z 17006KT CAVOK 23/14 Q1017=
200607271920 METAR ESMX 271920Z 18006KT CAVOK 23/13 Q1017=
200607271850 METAR ESMX 271850Z 18006KT CAVOK 25/13 Q1017=
200607271820 METAR ESMX 271820Z 18008KT CAVOK 26/13 Q1017=
200607271750 METAR ESMX 271750Z 18008KT CAVOK 27/13 Q1017=
200607271720 METAR ESMX 271720Z 17010KT 140V210 CAVOK 28/13 Q1017=
200607271650 METAR ESMX 271650Z 16009KT 130V200 CAVOK 29/12 Q1017=
200607271620 METAR ESMX 271620Z 16010KT 130V200 CAVOK 29/12 Q1017=
200607271550 METAR ESMX 271550Z 16007KT 130V200 CAVOK 29/12 Q1017=
200607271520 METAR ESMX 271520Z 15007KT 110V180 CAVOK 29/12 Q1017=
200607271450 METAR ESMX 271450Z 16007KT 110V230 CAVOK 30/11 Q1017=
200607271420 METAR ESMX 271420Z 18010KT 120V210 CAVOK 30/12 Q1018=
200607271350 METAR ESMX 271350Z 19009KT 170V260 CAVOK 31/12 Q1018=
200607271320 METAR ESMX 271320Z 16007KT 110V230 CAVOK 30/12 Q1018=
200607271250 METAR ESMX 271250Z 13006KT 080V170 CAVOK 30/12 Q1018=
200607271220 METAR ESMX 271220Z 14006KT 090V200 CAVOK 29/11 Q1019=
200607271150 METAR ESMX 271150Z 15006KT 080V200 CAVOK 29/11 Q1019=
200607271120 METAR ESMX 271120Z VRB08KT CAVOK 29/11 Q1019=
200607271050 METAR ESMX 271050Z 19006KT 140V240 CAVOK 28/12 Q1019=
200607271020 METAR ESMX 271020Z 15006KT 090V200 CAVOK 28/13 Q1020=
200607270950 METAR ESMX 270950Z 13005KT 070V190 CAVOK 28/14 Q1020=
200607270920 METAR ESMX 270920Z 16005KT 130V230 CAVOK 27/13 Q1020=
200607270850 METAR ESMX 270850Z 12005KT 090V210 CAVOK 26/13 Q1020=
200607270820 METAR ESMX 270820Z 15004KT 080V200 CAVOK 26/14 Q1019=
200607270750 METAR ESMX 270750Z 15003KT 080V240 CAVOK 25/14 Q1019=
200607270720 METAR ESMX 270720Z 24006KT CAVOK 24/15 Q1020=
200607270650 METAR ESMX 270650Z 19003KT 150V230 CAVOK 23/16 Q1020=
200607270620 METAR ESMX 270620Z 15003KT 110V200 CAVOK 22/17 Q1020=
200607270550 METAR ESMX 270550Z 15003KT 110V170 CAVOK 21/18 Q1019=
200607270520 METAR ESMX 270520Z 16003KT CAVOK 20/18 Q1019=
200607270450 METAR ESMX 270450Z VRB01KT CAVOK 17/17 Q1020=
200607270420 METAR ESMX 270420Z 00000KT 9000 BCFG SKC 15/14 Q1019=
200607270350 METAR ESMX 270350Z 00000KT 9999 BCFG NSC 14/13 Q1019=
200607270320 METAR ESMX 270320Z AUTO 00000KT 1300NDV R01/P1500U R19/P1500D BCFG NCD 14/13 Q1019=
200607270250 METAR ESMX 270250Z AUTO 00000KT 0200NDV R01/P1500U R19/P1500N BCFG NCD 14/13 Q1019=
200607270220 METAR ESMX 270220Z AUTO 18002KT 0700NDV R01/P1500N R19/P1500N BCFG NCD 14/14 Q1019=
200607270150 METAR ESMX 270150Z AUTO 00000KT 0250NDV R01/0800V1200U R19/P1500N BCFG NCD 14/14 Q1019=
200607270120 METAR ESMX 270120Z AUTO 00000KT 1500NDV R01/P1500N R19/P1500N BCFG NCD 14/14 Q1019=
200607270050 METAR ESMX 270050Z AUTO 00000KT 0250NDV R01/0400V0650D R19/P1500N FG NCD 15/14 Q1019=
200607270020 METAR ESMX 270020Z AUTO 00000KT 0150NDV R01/0650U R19/P1500N FG NCD 15/14 Q1019=
200607262350 METAR ESMX 262350Z 17002KT 9999 MIFG NSC 16/15 Q1019=
200607262320 METAR ESMX 262320Z 17002KT CAVOK 16/16 Q1019=
200607262250 METAR ESMX 262250Z VRB01KT CAVOK 16/16 Q1019=
200607262220 METAR ESMX 262220Z 12002KT CAVOK 16/15 Q1019=
200607262150 METAR ESMX 262150Z 18002KT CAVOK 17/15 Q1019=
200607262120 METAR ESMX 262120Z 00000KT CAVOK 17/15 Q1019=
200607262050 METAR ESMX 262050Z VRB01KT CAVOK 17/15 Q1019=
200607262020 METAR ESMX 262020Z 00000KT CAVOK 18/16 Q1019=
200607261950 METAR ESMX 261950Z 00000KT CAVOK 20/16 Q1019=
200607261920 METAR ESMX 261920Z 19003KT CAVOK 21/17 Q1019=
200607261850 METAR ESMX 261850Z 21004KT CAVOK 22/17 Q1018=
200607261820 METAR ESMX 261820Z 18004KT CAVOK 23/17 Q1018=
200607261750 METAR ESMX 261750Z 14004KT CAVOK 24/16 Q1018=
200607261720 METAR ESMX 261720Z 14005KT CAVOK 24/16 Q1018=
200607261650 METAR ESMX 261650Z 14007KT CAVOK 24/16 Q1018=
200607261620 METAR ESMX 261620Z 13007KT 080V190 CAVOK 26/16 Q1018=
200607261550 METAR ESMX 261550Z 14007KT CAVOK 26/16 Q1018=
200607261520 METAR ESMX 261520Z 12008KT CAVOK 26/15 Q1018=
200607261450 METAR ESMX 261450Z 08008KT CAVOK 25/15 Q1018=
200607261420 METAR ESMX 261420Z 04009KT CAVOK 27/13 Q1018=
200607261350 METAR ESMX 261350Z 01011KT 340V040 CAVOK 28/12 Q1018=
200607261320 METAR ESMX 261320Z 34005KT 9999 FEW042 SCT055 32/11 Q1017=
200607261250 METAR ESMX 261250Z 01004KT CAVOK 30/11 Q1018=
200607261220 METAR ESMX 261220Z 32005KT 200V020 CAVOK 30/11 Q1018=
200607261150 METAR ESMX 261150Z 04004KT 350V070 CAVOK 30/11 Q1018=
200607261120 METAR ESMX 261120Z VRB04KT CAVOK 30/12 Q1018=
200607261050 METAR ESMX 261050Z 32005KT 250V040 CAVOK 30/12 Q1018=
200607261020 METAR ESMX 261020Z 36006KT 310V050 CAVOK 29/13 Q1018=
200607260920 METAR ESMX 260920Z 36005KT 300V040 CAVOK 28/14 Q1018=
200607260850 METAR ESMX 260850Z 36003KT 290V040 CAVOK 27/14 Q1018=
200607260820 METAR ESMX 260820Z 01004KT 330V050 CAVOK 27/14 Q1018=
200607260750 METAR ESMX 260750Z 35004KT 300V030 CAVOK 26/15 Q1018=
200607260720 METAR ESMX 260720Z 01004KT 330V050 CAVOK 24/15 Q1018=
200607260650 METAR ESMX 260650Z 35004KT 310V030 CAVOK 24/15 Q1018=
200607260620 METAR ESMX 260620Z 03004KT CAVOK 22/17 Q1018=
200607260520 METAR ESMX 260520Z 36003KT CAVOK 20/17 Q1018=
200607260450 METAR ESMX 260450Z 00000KT CAVOK 17/16 Q1018=
200607260420 METAR ESMX 260420Z 00000KT CAVOK 15/14 Q1018=
200607260350 METAR ESMX 260350Z 00000KT CAVOK 14/13 Q1018=
200607260320 METAR ESMX 260320Z AUTO 00000KT 4600NDV R01/P1500D R19/P1500U FG NCD 13/12 Q1018=
200607260250 METAR ESMX 260250Z AUTO 00000KT 0500NDV R01/1300D R19/P1500U FG NCD 13/13 Q1018=
200607260220 METAR ESMX 260220Z AUTO 00000KT 5000NDV R01/P1500N R19/P1500N BR NCD 14/13 Q1018=
200607260150 METAR ESMX 260150Z AUTO 29002KT 7000NDV R01/P1500N R19/P1500N BR NCD 13/13 Q1018=
200607260120 METAR ESMX 260120Z AUTO 31002KT 9000NDV R01/P1500N R19/P1500N NCD 15/14 Q1018=
200607260050 METAR ESMX 260050Z AUTO VRB02KT 9999NDV R01/P1500N R19/P1500N NCD 15/14 Q1018=
200607260020 METAR ESMX 260020Z AUTO 28003KT 9999NDV R01/P1500N R19/P1500N NCD 16/14 Q1018=
200607252350 METAR ESMX 252350Z 29003KT CAVOK 17/15 Q1018=
200607252320 METAR ESMX 252320Z 28004KT CAVOK 17/15 Q1018=
200607252220 METAR ESMX 252220Z VRB02KT CAVOK 16/14 Q1018=
200607252150 METAR ESMX 252150Z 29003KT CAVOK 18/14 Q1018=
200607252050 METAR ESMX 252050Z 28003KT 250V330 CAVOK 19/14 Q1018=
200607252020 METAR ESMX 252020Z 27004KT 240V300 CAVOK 19/14 Q1018=
200607251950 METAR ESMX 251950Z 27003KT CAVOK 20/14 Q1018=
200607251920 METAR ESMX 251920Z 28004KT 250V310 CAVOK 21/14 Q1017=
200607251850 METAR ESMX 251850Z 26004KT 230V290 CAVOK 22/14 Q1017=
200607251820 METAR ESMX 251820Z 31004KT CAVOK 24/13 Q1017=
200607251750 METAR ESMX 251750Z 29005KT 250V340 CAVOK 24/13 Q1017=
200607251720 METAR ESMX 251720Z 32006KT 260V360 CAVOK 25/13 Q1017=
200607251650 METAR ESMX 251650Z 31006KT CAVOK 25/13 Q1017=
200607251620 METAR ESMX 251620Z 29005KT CAVOK 25/13 Q1017=
200607251550 METAR ESMX 251550Z 31006KT CAVOK 25/13 Q1018=
200607251520 METAR ESMX 251520Z 29004KT CAVOK 25/14 Q1018=
200607251450 METAR ESMX 251450Z 31006KT CAVOK 25/14 Q1018=
200607251420 METAR ESMX 251420Z 31008KT 210V340 CAVOK 25/14 Q1018=
200607251350 METAR ESMX 251350Z 28006KT CAVOK 25/14 Q1018=
200607251320 METAR ESMX 251320Z 30006KT CAVOK 25/13 Q1018=
200607251250 METAR ESMX 251250Z 24006KT CAVOK 24/13 Q1018=
200607251220 METAR ESMX 251220Z 24007KT CAVOK 25/14 Q1018=
200607251150 METAR ESMX 251150Z VRB08KT 9999 FEW035 24/13 Q1018=
200607251120 METAR ESMX 251120Z 29006KT 220V320 9999 FEW035 24/14 Q1018=
200607251050 METAR ESMX 251050Z 25004KT 150V320 9999 R01/P1500U R19/P1500U FEW028 23/13 Q1018=
200607251020 METAR ESMX 251020Z 28006KT 230V340 9999 FEW029 23/14 Q1018=
200607250920 METAR ESMX 250920Z 26009KT 200V300 9999 BKN022 20/13 Q1019=
200607250820 METAR ESMX 250820Z 28006KT 250V320 9999 BKN022 20/14 Q1019=
200607250750 METAR ESMX 250750Z 26005KT 200V330 9999 BKN021 20/14 Q1019=
200607250720 METAR ESMX 250720Z 28006KT 230V310 9999 BKN018 19/14 Q1019=
200607250650 METAR ESMX 250650Z 31006KT 240V330 9999 BKN014 18/14 Q1019=
200607250620 METAR ESMX 250620Z 29007KT 260V340 9999 SCT012 18/15 Q1019=
200607250550 METAR ESMX 250550Z 27004KT 9999 FEW010 17/15 Q1019=
200607250520 METAR ESMX 250520Z 31003KT 260V360 9999 FEW007 17/15 Q1019=
200607250450 METAR ESMX 250450Z VRB02KT CAVOK 16/15 Q1019=
200607250420 METAR ESMX 250420Z 25003KT CAVOK 14/14 Q1018=
200607250350 METAR ESMX 250350Z 22003KT CAVOK 12/11 Q1018=
200607250320 METAR ESMX 250320Z AUTO 25003KT 6000NDV R01/P1500D R19/P1500U BR NCD 12/11 Q1018=
200607250250 METAR ESMX 250250Z AUTO 19002KT 3400NDV R01/P1500U R19/P1500U BR NCD 12/11 Q1018=
200607250220 METAR ESMX 250220Z AUTO 23002KT 2000NDV R01/P1500N R19/P1500N BR NCD 13/13 Q1018=
200607250150 METAR ESMX 250150Z AUTO 24002KT 7000NDV R01/P1500N R19/P1500N BR NCD 15/14 Q1018=
200607250120 METAR ESMX 250120Z AUTO 26004KT 7000NDV R01/P1500N R19/P1500N BR NCD 14/13 Q1018=
200607250050 METAR ESMX 250050Z AUTO 25002KT 8000NDV R01/P1500N R19/P1500N BR NCD 15/14 Q1018=
200607250020 METAR ESMX 250020Z AUTO 26003KT 9000NDV R01/P1500N R19/P1500N NCD 15/14 Q1018=
200607242350 METAR ESMX 242350Z AUTO VRB02KT 9999NDV R01/P1500N R19/P1500N NCD 16/15 Q1018=
200607242320 METAR ESMX 242320Z 29003KT CAVOK 17/15 Q1018=
200607242250 METAR ESMX 242250Z 29004KT 250V320 CAVOK 18/15 Q1018=
200607242220 METAR ESMX 242220Z 30004KT 260V340 CAVOK 18/15 Q1018=
200607242150 METAR ESMX 242150Z 29005KT CAVOK 19/15 Q1018=
200607242120 METAR ESMX 242120Z 28004KT 240V320 CAVOK 19/15 Q1018=
200607242050 METAR ESMX 242050Z 28005KT 250V310 CAVOK 19/15 Q1018=
200607242020 METAR ESMX 242020Z 29005KT CAVOK 20/15 Q1018=
200607241950 METAR ESMX 241950Z 28006KT 250V320 CAVOK 21/15 Q1017=
200607241920 METAR ESMX 241920Z 27007KT 240V300 CAVOK 21/15 Q1017=
200607241850 METAR ESMX 241850Z 27008KT 240V310 CAVOK 22/16 Q1017=
200607241820 METAR ESMX 241820Z 26007KT 220V300 CAVOK 23/16 Q1017=
200607241750 METAR ESMX 241750Z 27008KT 250V320 CAVOK 24/16 Q1016=
200607241720 METAR ESMX 241720Z 28009KT 9999 FEW045 25/15 Q1016=
200607241650 METAR ESMX 241650Z 28008KT 9999 FEW044 26/15 Q1016=
200607241620 METAR ESMX 241620Z 29009KT 9999 SCT045 26/14 Q1016=
200607241550 METAR ESMX 241550Z 30010KT 9999 SCT044 26/15 Q1016=
200607241520 METAR ESMX 241520Z 27008KT 9999 SCT040 26/15 Q1016=
200607241450 METAR ESMX 241450Z 30007KT 9999 SCT038 25/15 Q1016=
200607241420 METAR ESMX 241420Z 25009KT 9999 SCT034 26/16 Q1016=
200607241350 METAR ESMX 241350Z 31008KT 9999 FEW030 BKN034 24/15 Q1017=
200607241320 METAR ESMX 241320Z 32007KT 9999 BKN028 23/15 Q1017=
200607241250 METAR ESMX 241250Z 31008KT 9999 BKN027 23/15 Q1017=
200607241220 METAR ESMX 241220Z 29011KT 260V340 9999 BKN028 23/16 Q1017=
200607241150 METAR ESMX 241150Z 27008KT 240V330 9999 OVC030 24/16 Q1017=
200607241120 METAR ESMX 241120Z 28007KT 240V330 9999 BKN028 24/16 Q1017=
200607241050 METAR ESMX 241050Z 27008KT 240V310 9999 SCT027 24/15 Q1017=
200607241020 METAR ESMX 241020Z 31009KT 280V340 9999 SCT026 23/15 Q1017=
200607240950 METAR ESMX 240950Z 27008KT 230V320 9999 BKN021 21/15 Q1017=
200607240920 METAR ESMX 240920Z 26009KT 230V290 9999 BKN023 21/15 Q1017=
200607240850 METAR ESMX 240850Z 27008KT 240V300 9999 SCT022 22/16 Q1016=
200607240820 METAR ESMX 240820Z 29007KT 260V350 9999 SCT022 22/16 Q1016=
200607240750 METAR ESMX 240750Z 26008KT 250V360 9999 FEW020 22/17 Q1016=
200607240720 METAR ESMX 240720Z 28005KT 230V320 9999 SCT015 22/17 Q1016=
200607240650 METAR ESMX 240650Z 27005KT 240V300 9999 SCT013 21/18 Q1016=
200607240620 METAR ESMX 240620Z 28005KT 240V300 9999 FEW006 SCT025 20/18 Q1016=
200607240550 METAR ESMX 240550Z 27004KT 240V300 9000 BR FEW005 SCT025 BKN040 20/19 Q1016=
200607240520 METAR ESMX 240520Z 20003KT 170V250 8000 BR FEW003 SCT022 BKN038 19/19 Q1016=
200607240450 METAR ESMX 240450Z 19003KT 4000 BR FEW023 SCT033 BKN038 19/18 Q1016=
200607240420 METAR ESMX 240420Z 19003KT 4000 BR SCT023 BKN033 19/18 Q1016=
200607240350 METAR ESMX 240350Z 20002KT 4000 BR SCT035 BKN040 18/18 Q1016=
200607240320 METAR ESMX 240320Z AUTO VRB02KT 1000NDV R01/P1500N R19/P1500N SCT053/// BKN078/// 18/17 Q1016=
200607240250 METAR ESMX 240250Z AUTO 00000KT 0900NDV R01/P1500N R19/P1500D FG FEW110/// 18/17 Q1016=
200607240220 METAR ESMX 240220Z AUTO 34001KT 4000NDV R01/P1500N R19/P1500N DZ FEW046/// 18/18 Q1016 RERA=
200607240150 METAR ESMX 240150Z AUTO VRB02KT 3600NDV R01/P1500N R19/P1500N BR FEW045/// SCT069/// 19/18 Q1016 RERA REDZ=
200607240120 METAR ESMX 240120Z AUTO 19004KT 4200NDV R01/P1500N R19/P1500N -RA FEW060/// SCT100/// 19/18 Q1016 REDZ=
200607240050 METAR ESMX 240050Z AUTO 20002KT 8000NDV R01/P1500N R19/P1500N BR FEW029/// BKN097/// 19/17 Q1016=
200607240020 METAR ESMX 240020Z 22003KT CAVOK 19/17 Q1017=
200607232350 METAR ESMX 232350Z 17003KT CAVOK 19/17 Q1017=
200607232320 METAR ESMX 232320Z 17004KT CAVOK 19/17 Q1017=
200607232250 METAR ESMX 232250Z 22005KT CAVOK 19/17 Q1017=
200607232220 METAR ESMX 232220Z 20004KT CAVOK 20/17 Q1017=
200607232150 METAR ESMX 232150Z 22004KT CAVOK 20/17 Q1017=
200607232120 METAR ESMX 232120Z 21004KT CAVOK 20/17 Q1017=
200607232050 METAR ESMX 232050Z 21004KT CAVOK 20/16 Q1017=
200607232020 METAR ESMX 232020Z 25002KT CAVOK 20/16 Q1017=
200607231950 METAR ESMX 231950Z 00000KT CAVOK 21/17 Q1016=
200607231920 METAR ESMX 231920Z 22002KT CAVOK 21/17 Q1016=
200607231850 METAR ESMX 231850Z 21003KT CAVOK 23/17 Q1016=
200607231820 METAR ESMX 231820Z 20003KT CAVOK 24/16 Q1016=
200607231750 METAR ESMX 231750Z 24004KT CAVOK 24/16 Q1016=
200607231720 METAR ESMX 231720Z 24005KT CAVOK 25/16 Q1016=
200607231650 METAR ESMX 231650Z 21007KT CAVOK 26/15 Q1016=
200607231620 METAR ESMX 231620Z AUTO 20004KT 9999NDV R01/P1500U R19/P1500U FEW110/// 26/14 Q1016=
200607231550 METAR ESMX 231550Z AUTO 23004KT 9999NDV R01/P1500U R19/P1500D NCD 25/14 Q1016=
200607231520 METAR ESMX 231520Z AUTO 21008KT 170V240 9999NDV R01/P1500D R19/P1500U NCD 26/13 Q1017=
200607231450 METAR ESMX 231450Z AUTO 19010KT 9999NDV R01/P1500D R19/P1500D FEW050/// 26/15 Q1017=
200607231420 METAR ESMX 231420Z AUTO 21006KT 160V250 9999NDV R01/P1500U R19/P1500D NCD 27/15 Q1017=
200607231350 METAR ESMX 231350Z AUTO 18007KT 160V220 9999NDV R01/P1500U R19/P1500U FEW072/// 27/15 Q1017=
200607231320 METAR ESMX 231320Z AUTO 23006KT 160V260 9999NDV R01/P1500D R19/P1500U FEW035/// 28/13 Q1017=
200607231250 METAR ESMX 231250Z AUTO 20006KT 170V240 9999NDV R01/P1500D R19/P1500D NCD 27/15 Q1017=
200607231220 METAR ESMX 231220Z AUTO VRB08KT 9999NDV R01/P1500D R19/P1500U FEW039/// SCT048/// 26/15 Q1017=
200607231150 METAR ESMX 231150Z AUTO 13006KT 100V190 9999NDV R01/P1500U R19/P1500D FEW034/// 26/17 Q1017=
200607231120 METAR ESMX 231120Z AUTO 19007KT 130V230 9999NDV R01/P1500D R19/P1500D NCD 25/17 Q1017=
200607231050 METAR ESMX 231050Z AUTO 17005KT 090V220 9999NDV R01/P1500D R19/P1500U FEW029/// 26/18 Q1017=
200607231020 METAR ESMX 231020Z AUTO 19006KT 150V240 9999NDV R01/P1500D R19/P1500U BKN024/// 25/18 Q1017=
200607230950 METAR ESMX 230950Z AUTO 21004KT 170V250 9999NDV R01/P1500U R19/P1500D SCT021/// 24/18 Q1017=
200607230920 METAR ESMX 230920Z AUTO 18005KT 130V240 9999NDV R01/P1500D R19/P1500U FEW019/// 25/18 Q1017=
200607230850 METAR ESMX 230850Z AUTO 19004KT 130V250 9999NDV R01/P1500D R19/P1500D BKN015/// 23/18 Q1017=
200607230820 METAR ESMX 230820Z AUTO 23006KT 9999NDV R01/P1500D R19/P1500D SCT015/// 22/18 Q1017=
200607230750 METAR ESMX 230750Z AUTO 22006KT 120V250 9999NDV R01/P1500U R19/P1500D NCD 23/18 Q1017=
200607230720 METAR ESMX 230720Z AUTO 22004KT 130V240 9999NDV R01/P1500D R19/P1500U NCD 22/18 Q1017=
200607230650 METAR ESMX 230650Z AUTO 16003KT 110V210 9999NDV R01/P1500N R19/P1500U SCT006/// 20/17 Q1017=
200607230620 METAR ESMX 230620Z AUTO 18006KT 140V220 7000NDV R01/P1500D R19/P1500N BR FEW006/// SCT008/// 19/17 Q1017=
200607230550 METAR ESMX 230550Z AUTO 16003KT 110V210 8000NDV R01/P1500U R19/P1500U BR FEW004/// SCT005/// 19/17 Q1017=
200607230520 METAR ESMX 230520Z AUTO 13003KT 060V170 6000NDV R01/P1500U R19/P1500U BR BKN003/// 19/17 Q1017=
200607230450 METAR ESMX 230450Z AUTO 15003KT 110V170 3700NDV R01/P1500U R19/P1500U BR BKN003/// 18/17 Q1017=
200607230420 METAR ESMX 230420Z AUTO 15003KT 120V200 1200NDV R01/P1500N R19/P1500U BR BKN002/// OVC004/// 18/17 Q1017=
200607230350 METAR ESMX 230350Z AUTO 19003KT 160V220 1900NDV R01/P1500N R19/P1500N BR OVC001/// 18/17 Q1017=
200607230320 METAR ESMX 230320Z AUTO 19004KT 4500NDV R01/P1500U R19/P1500D SCT001/// OVC003/// 17/16 Q1017=
200607230250 METAR ESMX 230250Z AUTO 15002KT 2600NDV R01/P1500U R19/P1500D OVC003/// 14/14 Q1017=
200607230220 METAR ESMX 230220Z AUTO 00000KT 7000NDV R01/P1500N R19/P1500N BR BKN004/// 15/14 Q1017=
200607230150 METAR ESMX 230150Z AUTO 18002KT 1900NDV R01/P1500N R19/P1500N NCD 14/14 Q1017=
200607230120 METAR ESMX 230120Z AUTO 00000KT 6000NDV R01/P1500N R19/P1500N NCD 14/14 Q1017=
200607230050 METAR ESMX 230050Z AUTO 17002KT 4300NDV R01/P1500N R19/P1500N BR NCD 15/14 Q1017=
200607230020 METAR ESMX 230020Z AUTO 15001KT 5000NDV R01/P1500N R19/P1500N BR NCD 16/15 Q1017=
200607222350 METAR ESMX 222350Z AUTO 21003KT 7000NDV R01/P1500N R19/P1500N BR NCD 16/14 Q1017=
200607222320 METAR ESMX 222320Z AUTO 17002KT 8000NDV R01/P1500N R19/P1500N BR NCD 16/15 Q1017=
200607222250 METAR ESMX 222250Z AUTO 00000KT 9999NDV R01/P1500N R19/P1500N NCD 16/15 Q1017=
200607222220 METAR ESMX 222220Z AUTO VRB02KT 9999NDV R01/P1500N R19/P1500N NCD 17/16 Q1017=
200607222150 METAR ESMX 222150Z AUTO 28003KT 9999NDV R01/P1500N R19/P1500N NCD 18/16 Q1017=
200607222120 METAR ESMX 222120Z AUTO 28004KT 260V320 9999NDV R01/P1500N R19/P1500N NCD 19/16 Q1017=
200607222050 METAR ESMX 222050Z AUTO 18002KT 9999NDV R01/P1500N R19/P1500N NCD 19/16 Q1017=
200607222020 METAR ESMX 222020Z AUTO VRB01KT 9999NDV R01/P1500N R19/P1500N NCD 19/16 Q1016=
200607221950 METAR ESMX 221950Z AUTO 20002KT 9999NDV R01/P1500U R19/P1500U NCD 21/17 Q1016=
200607221920 METAR ESMX 221920Z AUTO VRB02KT 9999NDV R01/P1500D R19/P1500D FEW043/// 23/16 Q1016=
200607221850 METAR ESMX 221850Z AUTO 13003KT 080V160 9999NDV R01/P1500D R19/P1500D SCT040/// 24/16 Q1016=
200607221820 METAR ESMX 221820Z AUTO 08006KT 9999NDV R01/P1500D R19/P1500U BKN041/// BKN065/// 25/17 Q1016=
200607221750 METAR ESMX 221750Z AUTO 30004KT 260V080 9999NDV R01/P1500U R19/P1500U FEW045/// SCT100/// 27/17 Q1015=
200607221720 METAR ESMX 221720Z AUTO 29006KT 260V340 9999NDV R01/P1500D R19/P1500U FEW059/// 28/16 Q1015=
200607221650 METAR ESMX 221650Z AUTO 29007KT 260V330 9999NDV R01/P1500D R19/P1500D NCD 28/15 Q1015=
200607221620 METAR ESMX 221620Z AUTO 28005KT 9999NDV R01/P1500U R19/P1500U FEW058/// 28/14 Q1015=
200607221550 METAR ESMX 221550Z AUTO 28006KT 250V010 9999NDV R01/P1500U R19/P1500U NCD 29/13 Q1015=
200607221520 METAR ESMX 221520Z AUTO 29005KT 240V330 9999NDV R01/P1500D R19/P1500D SCT056/// 27/13 Q1016=
200607221450 METAR ESMX 221450Z AUTO 30005KT 250V330 9999NDV R01/P1500U R19/P1500D FEW056/// 28/14 Q1016=
200607221420 METAR ESMX 221420Z AUTO 31008KT 280V010 9999NDV R01/P1500D R19/P1500U FEW057/// 28/14 Q1016=
200607221350 METAR ESMX 221350Z AUTO 03006KT 320V060 9999NDV R01/P1500D R19/P1500U NCD 27/15 Q1016=
200607221320 METAR ESMX 221320Z AUTO VRB03KT 9999NDV R01/P1500D R19/P1500D NCD 27/15 Q1016=
200607221250 METAR ESMX 221250Z AUTO 36004KT 330V030 9999NDV R01/P1500U R19/P1500U NCD 27/16 Q1016=
200607221220 METAR ESMX 221220Z AUTO 34005KT 320V040 9999NDV R01/P1500U R19/P1500D NCD 27/17 Q1016=
200607221150 METAR ESMX 221150Z AUTO 33006KT 290V070 9999NDV R01/P1500U R19/P1500U NCD 25/17 Q1017=
200607221120 METAR ESMX 221120Z AUTO 35006KT 340V040 9999NDV R01/P1500U R19/P1500D NCD 25/17 Q1017=
200607221050 METAR ESMX 221050Z AUTO 02005KT 350V060 9999NDV R01/P1500U R19/P1500D FEW022/// SCT030/// 24/17 Q1017=
200607221020 METAR ESMX 221020Z AUTO 36005KT 320V050 9999NDV R01/P1500U R19/P1500U FEW018/// SCT020/// BKN024/// 22/18 Q1017=
200607220950 METAR ESMX 220950Z AUTO VRB06KT 9999NDV R01/P1500U R19/P1500D FEW013/// BKN017/// 22/17 Q1017=
200607220920 METAR ESMX 220920Z AUTO 30004KT 230V330 9000NDV R01/P1500U R19/P1500U BR OVC011/// 22/18 Q1017=
200607220850 METAR ESMX 220850Z AUTO VRB02KT 7000NDV R01/P1500U R19/P1500U BR FEW006/// SCT009/// OVC013/// 21/18 Q1016=
200607220820 METAR ESMX 220820Z AUTO 29004KT 5000NDV R01/P1500U R19/P1500N BR FEW002/// SCT004/// BKN007/// 20/18 Q1016=
200607220750 METAR ESMX 220750Z AUTO 27004KT 4300NDV R01/P1500N R19/P1500D BR OVC002/// 19/18 Q1016=
200607220720 METAR ESMX 220720Z AUTO 26004KT 240V300 3700NDV R01/P1500D R19/P1500D BR BKN002/// OVC004/// 19/18 Q1016=
200607220650 METAR ESMX 220650Z AUTO 27004KT 250V320 2800NDV R01/P1500N R19/P1500U BR OVC001/// 19/18 Q1016=
200607220620 METAR ESMX 220620Z AUTO 27003KT 240V310 2500NDV R01/P1500U R19/P1500U OVC001/// 18/18 Q1016=
200607220550 METAR ESMX 220550Z AUTO 25003KT 2800NDV R01/P1500U R19/P1500D OVC001/// 18/18 Q1016=
200607220520 METAR ESMX 220520Z AUTO 25002KT 0650NDV R01/0800V1100N R19/P1500N FG VV002 18/17 Q1016=
200607220450 METAR ESMX 220450Z AUTO VRB01KT 0650NDV R01/0800VP1500U R19/P1500U FG VV001 17/17 Q1016=
200607220420 METAR ESMX 220420Z AUTO 25003KT 4100NDV R01/P1500D R19/P1500U BR VV001 16/16 Q1016=
200607220350 METAR ESMX 220350Z AUTO 25002KT 7000NDV R01/P1500D R19/P1500U FEW089/// 16/15 Q1016=
200607220320 METAR ESMX 220320Z AUTO 25002KT 6000NDV R01/P1500D R19/P1500D BKN089/// 15/14 Q1016=
200607220250 METAR ESMX 220250Z AUTO 18001KT 2000NDV R01/P1500U R19/0900VP1500U BCFG BKN000/// BKN094/// 14/14 Q1016=
200607220220 METAR ESMX 220220Z AUTO 00000KT 0350NDV R01/P1500D R19/0450N BCFG VV000 15/14 Q1016=
200607220150 METAR ESMX 220150Z AUTO 27002KT 0100NDV R01/0500N R19/0375N FG VV000 15/15 Q1016=
200607220120 METAR ESMX 220120Z AUTO 25001KT 0450NDV R01/P1500U R19/0450VP1500D FG NCD 15/15 Q1016=
200607220050 METAR ESMX 220050Z AUTO 25002KT 2000NDV R01/P1500N R19/P1500N BCFG FEW061/// 15/15 Q1016=
200607220020 METAR ESMX 220020Z AUTO VRB01KT 4400NDV R01/P1500N R19/P1500N BR BKN045/// 17/17 Q1016=
200607212350 METAR ESMX 212350Z AUTO VRB01KT 5000NDV R01/P1500N R19/P1500N BR OVC045/// 17/17 Q1017=
200607212320 METAR ESMX 212320Z AUTO 26002KT 6000NDV R01/P1500N R19/P1500N OVC047/// 17/16 Q1017=
200607212250 METAR ESMX 212250Z AUTO 26002KT 8000NDV R01/P1500N R19/P1500N SCT053/// OVC066/// 16/15 Q1017=
200607212220 METAR ESMX 212220Z AUTO 17002KT 9999NDV R01/P1500N R19/P1500N BR FEW054/// BKN065/// 16/15 Q1017=
200607212150 METAR ESMX 212150Z AUTO 17002KT 8000NDV R01/P1500N R19/P1500N FEW053/// SCT095/// 16/16 Q1017=
200607212120 METAR ESMX 212120Z AUTO 17002KT 8000NDV R01/P1500N R19/P1500N SCT087/// 16/16 Q1017=
200607212050 METAR ESMX 212050Z AUTO 17001KT 2900NDV R01/P1500N R19/P1500D BCFG NCD 17/16 Q1017=
200607212020 METAR ESMX 212020Z AUTO 00000KT 3700NDV R01/P1500N R19/P1500N BR SCT099/// 17/16 Q1016=
200607211950 METAR ESMX 211950Z AUTO 24002KT 9999NDV R01/P1500D R19/P1500D FEW087/// 18/17 Q1016=
200607211920 METAR ESMX 211920Z AUTO 24002KT 9999NDV R01/P1500D R19/P1500D BKN081/// 19/18 Q1016=
200607211850 METAR ESMX 211850Z AUTO 22002KT 9999NDV R01/P1500D R19/P1500U FEW091/// 20/18 Q1016=
200607211820 METAR ESMX 211820Z AUTO 22003KT 9999NDV R01/P1500D R19/P1500D FEW009/// BKN047/// 21/18 Q1016=
200607211750 METAR ESMX 211750Z AUTO 22004KT 9999NDV R01/P1500D R19/P1500U FEW009/// OVC044/// 21/19 Q1016=
200607211720 METAR ESMX 211720Z AUTO 22003KT 9999NDV R01/P1500U R19/P1500D BKN048/// 21/18 Q1016=
200607211650 METAR ESMX 211650Z AUTO VRB02KT 9999NDV R01/P1500D R19/P1500D FEW008/// SCT010/// BKN056/// 21/18 Q1017=
200607211620 METAR ESMX 211620Z AUTO VRB02KT 9999NDV R01/P1500D R19/P1500U FEW007/// BKN055/// 22/18 Q1017=
200607211550 METAR ESMX 211550Z AUTO 34003KT 290V010 9999NDV R01/P1500D R19/P1500U SCT054/// BKN092/// 21/18 Q1017=
200607211520 METAR ESMX 211520Z AUTO VRB01KT 9999NDV R01/P1500D R19/P1500U SCT006/// BKN053/// BKN076/// 20/18 Q1017 RERA REDZ=
200607211450 METAR ESMX 211450Z AUTO VRB01KT 9999NDV R01/P1500D R19/P1500U FEW006/// SCT072/// 20/18 Q1017 RERA REDZ REUP=
200607211420 METAR ESMX 211420Z AUTO VRB02KT 9999NDV R01/P1500D R19/P1500U -RA FEW070/// 20/18 Q1017 REDZ=
200607211350 METAR ESMX 211350Z AUTO VRB01KT 9999NDV R01/P1500D R19/P1500N -DZ FEW080/// 20/18 Q1018 RERA=
200607211320 METAR ESMX 211320Z VRB01KT 9999 DZ FEW020 SCT069 BKN150 19/18 Q1018=
200607211250 METAR ESMX 211250Z 24003KT 9999 -RA FEW020 BKN067 19/18 Q1018=
200607211220 METAR ESMX 211220Z 28003KT 9999 -RA FEW026 SCT070 BKN150 20/18 Q1018=
200607211150 METAR ESMX 211150Z VRB02KT 9999 -RA FEW028 BKN150 19/18 Q1018=
200607211120 METAR ESMX 211120Z VRB02KT 9999 -RA FEW028 BKN150 20/18 Q1018=
200607211050 METAR ESMX 211050Z 00000KT 9999 -RA SCT080 BKN150 19/17 Q1018=
200607211020 METAR ESMX 211020Z 22003KT 9999 RA SCT083 BKN150 19/17 Q1018=
200607210950 METAR ESMX 210950Z 21006KT 9999 -SHRA FEW088 SCT100 BKN150 21/15 Q1018=
200607210920 METAR ESMX 210920Z 20009KT CAVOK 23/16 Q1018=
200607210850 METAR ESMX 210850Z 19007KT CAVOK 23/16 Q1018=
200607210820 METAR ESMX 210820Z 17004KT CAVOK 22/16 Q1018=
200607210750 METAR ESMX 210750Z 20005KT CAVOK 22/15 Q1017=
200607210720 METAR ESMX 210720Z VRB02KT CAVOK 22/15 Q1017=
200607210650 METAR ESMX 210650Z 15003KT CAVOK 21/16 Q1017=
200607210620 METAR ESMX 210620Z VRB02KT CAVOK 20/16 Q1017=
200607210550 METAR ESMX 210550Z VRB01KT CAVOK 19/15 Q1017=
200607210520 METAR ESMX 210520Z VRB02KT CAVOK 19/16 Q1017=
200607210450 METAR ESMX 210450Z VRB02KT CAVOK 17/16 Q1017=
200607210420 METAR ESMX 210420Z VRB02KT CAVOK 16/15 Q1018=
200607210350 METAR ESMX 210350Z VRB01KT CAVOK 14/13 Q1018=
200607210320 METAR ESMX 210320Z AUTO 08002KT 9999NDV R01/P1500U R19/P1500U BR NCD 13/13 Q1018=
200607210250 METAR ESMX 210250Z AUTO 00000KT 9999NDV R01/P1500U R19/P1500U FEW100/// 13/12 Q1018=
200607210220 METAR ESMX 210220Z AUTO VRB02KT 9000NDV R01/P1500D R19/P1500D NCD 13/12 Q1019=
200607210150 METAR ESMX 210150Z AUTO 00000KT 3500NDV R01/P1500N R19/P1500N BR NCD 13/13 Q1019=
200607210120 METAR ESMX 210120Z AUTO 00000KT 5000NDV R01/P1500N R19/P1500N BR NCD 14/13 Q1019=
200607210050 METAR ESMX 210050Z AUTO 00000KT 2200NDV R01/P1500N R19/P1500N BR NCD 15/14 Q1019=
200607210020 METAR ESMX 210020Z AUTO VRB01KT 9999NDV R01/P1500N R19/P1500N NCD 16/15 Q1019=
200607202350 METAR ESMX 202350Z VRB02KT CAVOK 17/15 Q1019=
200607202320 METAR ESMX 202320Z VRB02KT CAVOK 17/15 Q1019=
200607202250 METAR ESMX 202250Z VRB02KT CAVOK 18/15 Q1019=
200607202220 METAR ESMX 202220Z 12003KT 080V170 CAVOK 19/15 Q1019=
200607202150 METAR ESMX 202150Z 13004KT 070V170 CAVOK 19/15 Q1019=
200607202050 METAR ESMX 202050Z 14005KT 100V190 CAVOK 21/15 Q1019=
200607202020 METAR ESMX 202020Z 15006KT 110V190 CAVOK 22/14 Q1019=
200607201950 METAR ESMX 201950Z 15005KT 110V170 CAVOK 23/14 Q1019=
200607201920 METAR ESMX 201920Z 15006KT 110V180 CAVOK 24/13 Q1018=
200607201850 METAR ESMX 201850Z 13006KT 070V170 CAVOK 25/13 Q1018=
200607201820 METAR ESMX 201820Z 12005KT 080V170 CAVOK 25/13 Q1018=
200607201750 METAR ESMX 201750Z 13007KT 090V170 CAVOK 26/13 Q1018=
200607201720 METAR ESMX 201720Z 13008KT CAVOK 27/13 Q1018=
200607201650 METAR ESMX 201650Z 14007KT CAVOK 27/13 Q1018=
200607201620 METAR ESMX 201620Z 13007KT CAVOK 28/13 Q1018=
200607201550 METAR ESMX 201550Z 15007KT CAVOK 29/13 Q1018=
200607201520 METAR ESMX 201520Z 17008KT CAVOK 28/13 Q1018=
200607201450 METAR ESMX 201450Z 16006KT 1 CAVOK 28/12 Q1018=
200607201350 METAR ESMX 201350Z 17008KT 120V200 CAVOK 30/13 Q1019=
200607201320 METAR ESMX 201320Z 14005KT CAVOK 30/12 Q1019=
200607201250 METAR ESMX 201250Z 13006KT 050V190 CAVOK 29/12 Q1019=
200607201220 METAR ESMX 201220Z 16005KT 070V230 CAVOK 29/12 Q1019=
200607201150 METAR ESMX 201150Z 13005KT CAVOK 28/12 Q1019=
200607201120 METAR ESMX 201120Z 15006KT 090V200 CAVOK 27/12 Q1020=
200607201050 METAR ESMX 201050Z 12005KT 070V180 CAVOK 28/13 Q1020=
200607201020 METAR ESMX 201020Z VRB04KT CAVOK 27/13 Q1020=
200607200950 METAR ESMX 200950Z VRB02KT 9999 FEW040 26/16 Q1020=
200607200920 METAR ESMX 200920Z 01003KT 330V110 9999 FEW030 25/17 Q1020=
200607200850 METAR ESMX 200850Z 33003KT 300V020 9999 FEW020 23/17 Q1021=
200607200820 METAR ESMX 200820Z 34004KT 300V020 9999 FEW018 23/17 Q1021=
200607200750 METAR ESMX 200750Z 36006KT 9999 FEW015 23/17 Q1021=
200607200720 METAR ESMX 200720Z VRB01KT 9999 FEW012 22/17 Q1021=
200607200650 METAR ESMX 200650Z VRB02KT 9999 SCT005 20/17 Q1021=
200607200620 METAR ESMX 200620Z 17004KT 140V200 9999 OVC006 19/17 Q1021=
200607200550 METAR ESMX 200550Z 15004KT 110V200 8000 BR OVC005 18/17 Q1021=
200607200520 METAR ESMX 200520Z 13003KT 100V200 7000 BR FEW002 OVC005 18/17 Q1021=
200607200450 METAR ESMX 200450Z 14004KT 100V170 5000 BR OVC002 18/17 Q1021=
200607200420 METAR ESMX 200420Z 16003KT 130V190 0600 R01/0800VP1500U R19/0800V1100U FG VV002 17/17 Q1021=
200607200350 METAR ESMX 200350Z VRB02KT 0250 R01/0400N R19/0550N FG VV001 17/17 Q1021=
200607200320 METAR ESMX 200320Z AUTO 17002KT 0200NDV R01/0500N R19/0500N FG VV001 17/16 Q1021=
200607200250 METAR ESMX 200250Z AUTO 19003KT 0150NDV R01/0500N R19/0450D FG VV001 15/15 Q1021=
200607200220 METAR ESMX 200220Z AUTO 18003KT 9999NDV R01/P1500D R19/P1500D FEW003/// 14/13 Q1021=
200607200150 METAR ESMX 200150Z AUTO 00000KT 0250NDV R01/P1500N R19/0350V0550D FG NCD 14/13 Q1021=
200607200120 METAR ESMX 200120Z AUTO 00000KT 0350NDV R01/0650VP1500D R19/P1500N FG NCD 15/14 Q1021=
200607200050 METAR ESMX 200050Z AUTO 17002KT 4900NDV R01/P1500N R19/P1500D BR NCD 15/15 Q1021=
200607200020 METAR ESMX 200020Z AUTO 16003KT 7000NDV R01/P1500N R19/P1500N BR NCD 15/15 Q1021=
200607192350 METAR ESMX 192350Z 00000KT CAVOK 16/16 Q1021=
200607192320 METAR ESMX 192320Z 18004KT CAVOK 18/16 Q1021=
200607192250 METAR ESMX 192250Z 18005KT CAVOK 18/17 Q1021=
200607192220 METAR ESMX 192220Z 17007KT CAVOK 18/16 Q1021=
200607192150 METAR ESMX 192150Z 17008KT CAVOK 19/16 Q1021=
200607192120 METAR ESMX 192120Z 18007KT CAVOK 18/16 Q1021=
200607192050 METAR ESMX 192050Z 20007KT CAVOK 20/15 Q1021=
200607192020 METAR ESMX 192020Z 18007KT CAVOK 20/15 Q1020=
200607191950 METAR ESMX 191950Z 17007KT CAVOK 21/15 Q1020=
200607191920 METAR ESMX 191920Z 18008KT CAVOK 22/15 Q1020=
200607191850 METAR ESMX 191850Z 18008KT 130V200 CAVOK 24/15 Q1020=
200607191820 METAR ESMX 191820Z 17007KT CAVOK 25/16 Q1020=
200607191750 METAR ESMX 191750Z 17007KT 140V210 CAVOK 25/15 Q1020=
200607191720 METAR ESMX 191720Z VRB02KT CAVOK 28/10 Q1020=
200607191650 METAR ESMX 191650Z VRB02KT CAVOK 28/11 Q1020=
200607191620 METAR ESMX 191620Z 05004KT CAVOK 28/11 Q1020=
200607191550 METAR ESMX 191550Z VRB02KT CAVOK 28/11 Q1020=
200607191520 METAR ESMX 191520Z 08003KT 040V120 CAVOK 27/11 Q1020=
200607191450 METAR ESMX 191450Z 06003KT 350V100 CAVOK 26/11 Q1021=
200607191420 METAR ESMX 191420Z 04004KT 350V080 CAVOK 26/09 Q1021=
200607191350 METAR ESMX 191350Z 34005KT 240V350 CAVOK 26/09 Q1021=
200607191320 METAR ESMX 191320Z VRB02KT CAVOK 27/08 Q1021=
200607191250 METAR ESMX 191250Z 19006KT 170V330 9999 R01/P1500U R19/P1500U FEW060 28/08 Q1022=
200607191220 METAR ESMX 191220Z 13004G15KT 060V210 CAVOK 26/10 Q1022=
200607191150 METAR ESMX 191150Z 18005KT 120V260 CAVOK 26/11 Q1022=
200607191120 METAR ESMX 191120Z 15006KT 080V170 CAVOK 26/08 Q1022=
200607191050 METAR ESMX 191050Z VRB05KT CAVOK 24/12 Q1022=
200607191020 METAR ESMX 191020Z 14005KT 100V190 CAVOK 24/12 Q1022=
200607190950 METAR ESMX 190950Z VRB05KT CAVOK 25/11 Q1022=
200607190920 METAR ESMX 190920Z 18006KT 110V240 CAVOK 23/12 Q1022=
200607190850 METAR ESMX 190850Z 18005KT CAVOK 23/12 Q1022=
200607190820 METAR ESMX 190820Z 15004KT 080V210 CAVOK 22/13 Q1022=
200607190750 METAR ESMX 190750Z 17004KT 150V210 CAVOK 22/14 Q1022=
200607190720 METAR ESMX 190720Z VRB03KT CAVOK 21/14 Q1022=
200607190650 METAR ESMX 190650Z 13003KT 070V190 CAVOK 21/14 Q1022=
200607190620 METAR ESMX 190620Z 06003KT 350V120 CAVOK 20/14 Q1022=
200607190550 METAR ESMX 190550Z 05003KT 010V100 CAVOK 20/14 Q1022=
200607190520 METAR ESMX 190520Z 03003KT CAVOK 18/14 Q1022=
200607190450 METAR ESMX 190450Z VRB02KT CAVOK 16/15 Q1021=
200607190420 METAR ESMX 190420Z 01002KT CAVOK 13/13 Q1021=
200607190350 METAR ESMX 190350Z AUTO 35001KT 9999NDV R01/P1500U R19/P1500U NCD 12/12 Q1021=
200607190320 METAR ESMX 190320Z AUTO 05001KT 9999NDV R01/P1500U R19/P1500U NCD 11/11 Q1021=
200607190250 METAR ESMX 190250Z AUTO 35003KT 2100NDV R01/P1500U R19/P1500D BCFG NCD 10/10 Q1021=
200607190220 METAR ESMX 190220Z AUTO 34002KT 0500NDV R01/0400V1000D R19/P1500D BCFG NCD 10/10 Q1021=
200607190150 METAR ESMX 190150Z AUTO 00000KT 4300NDV R01/P1500N R19/P1500N FG NCD 11/11 Q1021=
200607190120 METAR ESMX 190120Z AUTO 00000KT 9999NDV R01/P1500N R19/P1500N NCD 12/11 Q1020=
200607190050 METAR ESMX 190050Z AUTO 00000KT 2400NDV R01/P1500N R19/P1500N BR NCD 12/12 Q1020=
200607190020 METAR ESMX 190020Z AUTO 02003KT 9999NDV R01/P1500N R19/P1500N NCD 13/12 Q1020=
200607182350 METAR ESMX 182350Z 36003KT CAVOK 14/13 Q1020=
200607182320 METAR ESMX 182320Z 02002KT CAVOK 15/14 Q1019=
200607182250 METAR ESMX 182250Z 01001KT CAVOK 15/13 Q1019=
200607182220 METAR ESMX 182220Z VRB01KT CAVOK 16/14 Q1019=
200607182150 METAR ESMX 182150Z 36002KT CAVOK 18/14 Q1019=
200607182120 METAR ESMX 182120Z 01005KT CAVOK 20/14 Q1019=
200607182050 METAR ESMX 182050Z 34006KT CAVOK 20/14 Q1018=
200607182020 METAR ESMX 182020Z 35006KT CAVOK 21/14 Q1018=
200607181950 METAR ESMX 181950Z 33006KT CAVOK 22/14 Q1018=
200607181920 METAR ESMX 181920Z 32005KT CAVOK 23/14 Q1018=
200607181850 METAR ESMX 181850Z 30004KT CAVOK 23/14 Q1017=
200607181820 METAR ESMX 181820Z 29003KT CAVOK 23/15 Q1017=
200607181750 METAR ESMX 181750Z 32002KT CAVOK 24/15 Q1017=
200607181720 METAR ESMX 181720Z 00000KT 9999 SCT048 BKN076 24/15 Q1017=
200607181650 METAR ESMX 181650Z 04003KT CAVOK 24/16 Q1017=
200607181620 METAR ESMX 181620Z 04003KT 9999 SCT044 BKN050 25/16 Q1017=
200607181550 METAR ESMX 181550Z 14003KT 9999 FEW045 SCT053 BKN064 24/15 Q1017=
200607181520 METAR ESMX 181520Z VRB01KT CAVOK 25/15 Q1017=
200607181450 METAR ESMX 181450Z VRB02KT CAVOK 25/15 Q1017=
200607181420 METAR ESMX 181420Z VRB02KT 9999 FEW040 SCT059 BKN079 24/15 Q1017=
200607181350 METAR ESMX 181350Z VRB02KT CAVOK 24/15 Q1017=
200607181320 METAR ESMX 181320Z 30004KT 9999 SCT035 BKN065 24/15 Q1017=
200607181250 METAR ESMX 181250Z 35004KT 9999 FEW035 SCT059 BKN069 24/15 Q1017=
200607181220 METAR ESMX 181220Z 32005KT 250V340 9999 SCT032 BKN056 23/15 Q1017=
200607181150 METAR ESMX 181150Z 30005KT 260V340 9999 FEW030 SCT034 BKN041 23/15 Q1017=
200607181120 METAR ESMX 181120Z 28005KT 250V310 9999 FEW029 SCT038 BKN044 22/15 Q1017=
200607181050 METAR ESMX 181050Z 28007KT 240V350 9999 OVC024 22/15 Q1017=
200607181020 METAR ESMX 181020Z 26009KT 230V300 9999 FEW022 OVC028 22/15 Q1017=
200607180950 METAR ESMX 180950Z 28009KT 250V320 9999 FEW022 OVC026 21/15 Q1017=
200607180920 METAR ESMX 180920Z VRB10KT 9999 BKN022 21/15 Q1017=
200607180850 METAR ESMX 180850Z 27009KT 220V300 9999 BKN020 21/15 Q1017=
200607180820 METAR ESMX 180820Z 23008KT 190V270 9999 BKN020 21/15 Q1017=
200607180750 METAR ESMX 180750Z 25007KT 210V300 9999 BKN016 20/15 Q1017=
200607180720 METAR ESMX 180720Z 25007KT 210V280 9999 BKN014 20/15 Q1017=
200607180650 METAR ESMX 180650Z 29007KT 250V320 9999 BKN013 19/15 Q1017=
200607180620 METAR ESMX 180620Z 31005KT 260V340 9999 BKN013 18/15 Q1017=
200607180550 METAR ESMX 180550Z 28007KT 240V340 9999 BKN013 17/14 Q1017=
200607180520 METAR ESMX 180520Z 27007KT 230V320 9999 SCT014 17/14 Q1017=
200607180450 METAR ESMX 180450Z 24006KT 210V280 CAVOK 17/13 Q1017=
200607180350 METAR ESMX 180350Z AUTO 24005KT 9999NDV R01/P1500U R19/P1500U NCD 15/12 Q1018=
200607180320 METAR ESMX 180320Z AUTO 21004KT 170V240 9999NDV R01/P1500D R19/P1500D NCD 15/12 Q1018=
200607180250 METAR ESMX 180250Z AUTO 24005KT 9999NDV R01/P1500D R19/P1500U NCD 15/12 Q1018=
200607180220 METAR ESMX 180220Z AUTO 22006KT 9999NDV R01/P1500N R19/P1500N NCD 15/12 Q1018=
200607180150 METAR ESMX 180150Z AUTO 23005KT 200V260 9999NDV R01/P1500N R19/P1500N NCD 15/11 Q1018=
200607180120 METAR ESMX 180120Z AUTO 24005KT 200V270 9999NDV R01/P1500N R19/P1500N NCD 16/11 Q1018=
200607180050 METAR ESMX 180050Z AUTO 25005KT 190V280 9999NDV R01/P1500N R19/P1500N NCD 16/11 Q1018=
200607180020 METAR ESMX 180020Z AUTO 24004KT 200V280 9999NDV R01/P1500N R19/P1500N NCD 16/11 Q1018=
200607172350 METAR ESMX 172350Z 25006KT 210V300 CAVOK 17/11 Q1019=
200607172320 METAR ESMX 172320Z 25006KT CAVOK 17/12 Q1018=
200607172250 METAR ESMX 172250Z 25005KT 200V260 CAVOK 17/12 Q1019=
200607172220 METAR ESMX 172220Z 23006KT 200V270 CAVOK 18/11 Q1019=
200607172150 METAR ESMX 172150Z 24006KT 210V280 CAVOK 18/11 Q1019=
200607172120 METAR ESMX 172120Z 25006KT CAVOK 19/11 Q1019=
200607172050 METAR ESMX 172050Z 25006KT 220V290 CAVOK 19/11 Q1019=
200607172020 METAR ESMX 172020Z 23006KT 210V280 CAVOK 20/11 Q1020=
200607171950 METAR ESMX 171950Z 26007KT 220V300 CAVOK 20/11 Q1020=
200607171850 METAR ESMX 171850Z 25010KT 220V280 CAVOK 22/09 Q1020=
200607171820 METAR ESMX 171820Z 27009KT 240V300 CAVOK 23/09 Q1020=
200607171750 METAR ESMX 171750Z 26013KT 230V300 CAVOK 24/08 Q1020=
200607171720 METAR ESMX 171720Z 27012KT 230V300 CAVOK 25/08 Q1021=
200607171650 METAR ESMX 171650Z 26013KT 230V290 CAVOK 25/08 Q1021=
200607171620 METAR ESMX 171620Z 27012KT 220V300 CAVOK 24/08 Q1021=
200607171550 METAR ESMX 171550Z 26011KT 230V320 CAVOK 25/07 Q1021=
200607171520 METAR ESMX 171520Z 27013KT 240V320 CAVOK 25/07 Q1021=
200607171420 METAR ESMX 171420Z 28014KT 250V320 CAVOK 26/07 Q1022=
200607171350 METAR ESMX 171350Z 26013KT 220V300 CAVOK 26/07 Q1022=
200607171320 METAR ESMX 171320Z 25014KT 200V290 CAVOK 27/08 Q1022=
200607171250 METAR ESMX 171250Z 28013KT 230V310 CAVOK 27/08 Q1022=
200607171220 METAR ESMX 171220Z 24012KT 200V280 CAVOK 26/08 Q1023=
200607171150 METAR ESMX 171150Z 26012KT 220V300 CAVOK 26/08 Q1023=
200607171120 METAR ESMX 171120Z 27012G22KT 230V300 CAVOK 26/08 Q1023=
200607171050 METAR ESMX 171050Z 27012KT 210V330 CAVOK 25/08 Q1024=
200607171020 METAR ESMX 171020Z 28011KT 220V320 CAVOK 25/08 Q1024=
200607170950 METAR ESMX 170950Z 26010G23KT 210V290 CAVOK 25/08 Q1024=
200607170920 METAR ESMX 170920Z 25010KT CAVOK 24/08 Q1025=
200607170850 METAR ESMX 170850Z 28010KT CAVOK 23/09 Q1025=
200607170820 METAR ESMX 170820Z 27010KT CAVOK 23/08 Q1026=
200607170750 METAR ESMX 170750Z 27009KT CAVOK 22/09 Q1026=
200607170720 METAR ESMX 170720Z 25007KT CAVOK 21/10 Q1026=
200607170650 METAR ESMX 170650Z 27007KT CAVOK 20/10 Q1026=
200607170620 METAR ESMX 170620Z 27008KT CAVOK 19/12 Q1026=
200607170550 METAR ESMX 170550Z 26007KT CAVOK 18/13 Q1027=
200607170520 METAR ESMX 170520Z 27005KT CAVOK 17/11 Q1027=
200607170450 METAR ESMX 170450Z 26003KT CAVOK 15/09 Q1027=
200607170420 METAR ESMX 170420Z 21002KT CAVOK 12/09 Q1027=
200607170350 METAR ESMX 170350Z 18003KT CAVOK 10/07 Q1027=
200607170320 METAR ESMX 170320Z AUTO 15002KT 9999NDV R01/P1500U R19/P1500N NCD 09/07 Q1027=
200607170250 METAR ESMX 170250Z AUTO 25002KT 9999NDV R01/P1500N R19/P1500N NCD 11/07 Q1027=
200607170220 METAR ESMX 170220Z AUTO 28003KT 9999NDV R01/P1500N R19/P1500N NCD 11/07 Q1028=
200607170150 METAR ESMX 170150Z AUTO 26004KT 230V290 9999NDV R01/P1500N R19/P1500N NCD 10/06 Q1028=
200607170120 METAR ESMX 170120Z AUTO 28002KT 9999NDV R01/P1500N R19/P1500N NCD 12/05 Q1028=
200607170050 METAR ESMX 170050Z AUTO 30003KT 9999NDV R01/P1500N R19/P1500N NCD 12/06 Q1028=
200607170020 METAR ESMX 170020Z 26003KT CAVOK 11/07 Q1028=
200607162350 METAR ESMX 162350Z 25003KT CAVOK 12/08 Q1028=
200607162320 METAR ESMX 162320Z 25002KT CAVOK 14/10 Q1028=
200607162250 METAR ESMX 162250Z 25004KT CAVOK 14/10 Q1028=
200607162220 METAR ESMX 162220Z 23005KT CAVOK 15/10 Q1028=
200607162150 METAR ESMX 162150Z 21006KT CAVOK 15/10 Q1028=
200607162120 METAR ESMX 162120Z 20007KT CAVOK 16/10 Q1028=
200607162050 METAR ESMX 162050Z 20007KT CAVOK 17/10 Q1028=
200607162020 METAR ESMX 162020Z 18006KT CAVOK 19/10 Q1028=
200607161950 METAR ESMX 161950Z 17006KT CAVOK 20/10 Q1028=
200607161920 METAR ESMX 161920Z 18006KT CAVOK 22/10 Q1028=
200607161850 METAR ESMX 161850Z 25003KT CAVOK 24/05 Q1028=
200607161820 METAR ESMX 161820Z 27003KT CAVOK 25/04 Q1028=
200607161750 METAR ESMX 161750Z 28005KT CAVOK 26/03 Q1028=
200607161720 METAR ESMX 161720Z 27006KT CAVOK 27/04 Q1028=
200607161650 METAR ESMX 161650Z 28004KT CAVOK 27/04 Q1028=
200607161620 METAR ESMX 161620Z AUTO 29003KT 230V350 9999NDV R01/P1500D R19/P1500U NCD 27/05 Q1028=
200607161550 METAR ESMX 161550Z AUTO VRB05KT 9999NDV R01/P1500D R19/P1500U NCD 28/05 Q1029=
200607161520 METAR ESMX 161520Z AUTO 08004KT 020V150 9999NDV R01/P1500D R19/P1500U NCD 27/06 Q1029=
200607161450 METAR ESMX 161450Z AUTO 12005KT 070V180 9999NDV R01/P1500U R19/P1500U NCD 27/06 Q1029=
200607161420 METAR ESMX 161420Z AUTO 02006KT 350V080 9999NDV R01/P1500D R19/P1500U NCD 27/06 Q1029=
200607161350 METAR ESMX 161350Z AUTO 36005KT 340V080 9999NDV R01/P1500D R19/P1500U NCD 27/06 Q1029=
200607161320 METAR ESMX 161320Z AUTO 35007KT 330V040 9999NDV R01/P1500D R19/P1500U NCD 27/06 Q1030=
200607161250 METAR ESMX 161250Z AUTO 02008KT 330V070 9999NDV R01/P1500D R19/P1500U NCD 27/06 Q1030=
200607161220 METAR ESMX 161220Z AUTO 04005KT 010V150 9999NDV R01/P1500D R19/P1500U NCD 26/06 Q1030=
200607161150 METAR ESMX 161150Z AUTO 01006KT 320V120 9999NDV R01/P1500D R19/P1500D NCD 26/07 Q1031=
200607161120 METAR ESMX 161120Z AUTO VRB03KT 9999NDV R01/P1500D R19/P1500U NCD 26/06 Q1031=
200607161050 METAR ESMX 161050Z AUTO VRB04KT 9999NDV R01/P1500U R19/P1500N NCD 24/06 Q1031=
200607161020 METAR ESMX 161020Z AUTO VRB04KT 9999NDV R01/P1500D R19/P1500U NCD 25/06 Q1031=
200607160950 METAR ESMX 160950Z AUTO 02003KT 290V100 9999NDV R01/P1500U R19/P1500D NCD 24/06 Q1032=
200607160920 METAR ESMX 160920Z AUTO 05004KT 320V100 9999NDV R01/P1500U R19/P1500D NCD 23/06 Q1032=
200607160850 METAR ESMX 160850Z AUTO 03005KT 010V070 9999NDV R01/P1500U R19/P1500U NCD 23/06 Q1032=
200607160820 METAR ESMX 160820Z AUTO 04005KT 350V080 9999NDV R01/P1500D R19/P1500U NCD 22/07 Q1032=
200607160750 METAR ESMX 160750Z AUTO 03005KT 9999NDV R01/P1500D R19/P1500U NCD 22/08 Q1032=
200607160720 METAR ESMX 160720Z AUTO 36005KT 310V030 9999NDV R01/P1500D R19/P1500U NCD 21/08 Q1032=
200607160650 METAR ESMX 160650Z AUTO 35005KT 9999NDV R01/P1500D R19/P1500D NCD 20/08 Q1032=
200607160620 METAR ESMX 160620Z AUTO 01004KT 340V050 9999NDV R01/P1500U R19/P1500D NCD 19/08 Q1032=
200607160550 METAR ESMX 160550Z AUTO 36003KT 330V030 9999NDV R01/P1500D R19/P1500D NCD 18/09 Q1032=
200607160520 METAR ESMX 160520Z AUTO 01003KT 9999NDV R01/P1500U R19/P1500U NCD 16/10 Q1032=
200607160450 METAR ESMX 160450Z AUTO 00000KT 9999NDV R01/P1500D R19/P1500U NCD 14/11 Q1032=
200607160420 METAR ESMX 160420Z AUTO 29001KT 9999NDV R01/P1500D R19/P1500U NCD 11/08 Q1032=
200607160350 METAR ESMX 160350Z AUTO 18002KT 9999NDV R01/P1500D R19/P1500D NCD 08/07 Q1032=
200607160320 METAR ESMX 160320Z AUTO 17002KT 9999NDV R01/P1500N R19/P1500N NCD 07/06 Q1032=
200607160250 METAR ESMX 160250Z AUTO 00000KT 9999NDV R01/P1500N R19/P1500N NCD 07/06 Q1032=
200607160220 METAR ESMX 160220Z AUTO 16002KT 9999NDV R01/P1500N R19/P1500N NCD 07/06 Q1031=
200607160150 METAR ESMX 160150Z AUTO 17001KT 9999NDV R01/P1500N R19/P1500N NCD 08/06 Q1032=
200607160120 METAR ESMX 160120Z AUTO 18001KT 9999NDV R01/P1500N R19/P1500N NCD 08/06 Q1032=
200607160050 METAR ESMX 160050Z AUTO 23002KT 9999NDV R01/P1500N R19/P1500N NCD 09/07 Q1032=
200607160020 METAR ESMX 160020Z AUTO 00000KT 9999NDV R01/P1500N R19/P1500N NCD 09/06 Q1032=
200607152350 METAR ESMX 152350Z AUTO 18001KT 9999NDV R01/P1500N R19/P1500N NCD 09/06 Q1032=
200607152320 METAR ESMX 152320Z AUTO 19001KT 9999NDV R01/P1500N R19/P1500N NCD 09/07 Q1032=
200607152250 METAR ESMX 152250Z AUTO 19002KT 9999NDV R01/P1500N R19/P1500N NCD 10/07 Q1032=
200607152220 METAR ESMX 152220Z AUTO 16001KT 9999NDV R01/P1500N R19/P1500N NCD 11/07 Q1031=
200607152150 METAR ESMX 152150Z AUTO 00000KT 9999NDV R01/P1500N R19/P1500N NCD 12/07 Q1031=
200607152120 METAR ESMX 152120Z AUTO 00000KT 9999NDV R01/P1500N R19/P1500N NCD 12/07 Q1031=
200607152050 METAR ESMX 152050Z AUTO 00000KT 9999NDV R01/P1500N R19/P1500N NCD 13/07 Q1031=
200607152020 METAR ESMX 152020Z AUTO 00000KT 9999NDV R01/P1500N R19/P1500N NCD 15/07 Q1031=
200607151950 METAR ESMX 151950Z AUTO 01003KT 9999NDV R01/P1500N R19/P1500D NCD 17/07 Q1031=
200607151920 METAR ESMX 151920Z AUTO 35006KT 9999NDV R01/P1500N R19/P1500N NCD 19/07 Q1031=
200607151850 METAR ESMX 151850Z AUTO 02006KT 9999NDV R01/P1500N R19/P1500U NCD 21/06 Q1031=
200607151820 METAR ESMX 151820Z AUTO 01006KT 9999NDV R01/P1500D R19/P1500U NCD 21/05 Q1031=
200607151750 METAR ESMX 151750Z AUTO 05005KT 010V080 9999NDV R01/P1500D R19/P1500U NCD 22/04 Q1031=
200607151720 METAR ESMX 151720Z AUTO 01009KT 9999NDV R01/P1500D R19/P1500D NCD 22/04 Q1031=
200607151650 METAR ESMX 151650Z AUTO 36007KT 330V030 9999NDV R01/P1500D R19/P1500D NCD 22/04 Q1031=
200607151620 METAR ESMX 151620Z AUTO 34009KT 300V010 9999NDV R01/P1500U R19/P1500D NCD 23/04 Q1031=
200607151550 METAR ESMX 151550Z AUTO 33005KT 290V030 9999NDV R01/P1500U R19/P1500D NCD 23/03 Q1031=
200607151520 METAR ESMX 151520Z AUTO 36006KT 300V040 9999NDV R01/P1500D R19/P1500U FEW073/// 23/04 Q1031=
200607151450 METAR ESMX 151450Z AUTO 01007KT 340V060 9999NDV R01/P1500D R19/P1500U NCD 22/04 Q1031=
200607151420 METAR ESMX 151420Z AUTO 31005KT 250V020 9999NDV R01/P1500U R19/P1500U NCD 23/03 Q1031=
200607151350 METAR ESMX 151350Z AUTO 33006KT 290V030 9999NDV R01/P1500D R19/P1500D FEW074/// 22/02 Q1031=
200607151320 METAR ESMX 151320Z AUTO 33005KT 240V030 9999NDV R01/P1500U R19/P1500U NCD 22/03 Q1032=
200607151250 METAR ESMX 151250Z AUTO 01007KT 9999NDV R01/P1500D R19/P1500U FEW074/// 22/02 Q1032=
200607151220 METAR ESMX 151220Z AUTO 01006KT 330V060 9999NDV R01/P1500D R19/P1500D FEW073/// 22/03 Q1032=
200607151150 METAR ESMX 151150Z AUTO 03007KT 350V080 9999NDV R01/P1500D R19/P1500D FEW072/// 22/03 Q1032=
200607151120 METAR ESMX 151120Z AUTO 01006KT 330V050 9999NDV R01/P1500D R19/P1500U FEW071/// 21/02 Q1032=
200607151050 METAR ESMX 151050Z AUTO 02007KT 320V080 9999NDV R01/P1500U R19/P1500U FEW070/// 21/03 Q1032=
200607151020 METAR ESMX 151020Z AUTO 01009KT 330V040 9999NDV R01/P1500U R19/P1500D FEW064/// 21/04 Q1032=
200607150950 METAR ESMX 150950Z AUTO 02009KT 9999NDV R01/P1500U R19/P1500U FEW062/// 20/04 Q1032=
200607150920 METAR ESMX 150920Z AUTO 02008KT 330V050 9999NDV R01/P1500U R19/P1500U FEW057/// 20/04 Q1032=
200607150850 METAR ESMX 150850Z AUTO 01010KT 340V050 9999NDV R01/P1500D R19/P1500U FEW052/// 20/04 Q1032=
200607150820 METAR ESMX 150820Z AUTO 01007KT 320V080 9999NDV R01/P1500U R19/P1500D NCD 20/05 Q1032=
200607150750 METAR ESMX 150750Z AUTO 36007KT 9999NDV R01/P1500D R19/P1500D NCD 18/08 Q1032=
200607150720 METAR ESMX 150720Z AUTO 35007KT 9999NDV R01/P1500U R19/P1500D NCD 18/09 Q1032=
200607150650 METAR ESMX 150650Z AUTO 34007KT 9999NDV R01/P1500U R19/P1500D NCD 17/08 Q1032=
200607150620 METAR ESMX 150620Z AUTO 02008KT 340V060 9999NDV R01/P1500D R19/P1500D NCD 16/08 Q1032=
200607150550 METAR ESMX 150550Z AUTO 01007KT 9999NDV R01/P1500U R19/P1500U NCD 15/07 Q1031=
200607150520 METAR ESMX 150520Z AUTO 36008KT 9999NDV R01/P1500U R19/P1500N NCD 14/07 Q1031=
200607150450 METAR ESMX 150450Z AUTO 35008KT 9999NDV R01/P1500D R19/P1500D NCD 14/07 Q1031=
200607150420 METAR ESMX 150420Z AUTO 35007KT 9999NDV R01/P1500D R19/P1500D NCD 13/07 Q1031=
200607150350 METAR ESMX 150350Z AUTO 34006KT 9999NDV R01/P1500N R19/P1500N NCD 11/07 Q1030=
200607150320 METAR ESMX 150320Z AUTO 34007KT 9999NDV R01/P1500N R19/P1500N NCD 10/06 Q1030=
200607150250 METAR ESMX 150250Z AUTO 31006KT 9999NDV R01/P1500N R19/P1500N NCD 10/06 Q1030=
200607150220 METAR ESMX 150220Z AUTO 33005KT 9999NDV R01/P1500N R19/P1500N NCD 10/06 Q1030=
200607150150 METAR ESMX 150150Z AUTO 35004KT 9999NDV R01/P1500N R19/P1500N NCD 10/06 Q1029=
200607150120 METAR ESMX 150120Z AUTO 34005KT 9999NDV R01/P1500N R19/P1500N NCD 11/06 Q1029=
200607150050 METAR ESMX 150050Z AUTO 33005KT 9999NDV R01/P1500N R19/P1500N NCD 11/06 Q1029=
200607150020 METAR ESMX 150020Z AUTO 35007KT 9999NDV R01/P1500N R19/P1500N NCD 12/06 Q1029=
200607142350 METAR ESMX 142350Z AUTO 34007KT 9999NDV R01/P1500N R19/P1500N NCD 13/06 Q1029=
200607142320 METAR ESMX 142320Z AUTO 34007KT 9999NDV R01/P1500N R19/P1500N NCD 12/06 Q1029=
200607142250 METAR ESMX 142250Z AUTO 35006KT 9999NDV R01/P1500N R19/P1500N NCD 13/06 Q1029=
200607142220 METAR ESMX 142220Z AUTO 32006KT 9999NDV R01/P1500N R19/P1500N NCD 14/06 Q1029=
200607142150 METAR ESMX 142150Z AUTO 32006KT 9999NDV R01/P1500N R19/P1500N NCD 14/06 Q1029=
200607142120 METAR ESMX 142120Z AUTO 32007KT 9999NDV R01/P1500N R19/P1500N NCD 15/05 Q1029=
200607142050 METAR ESMX 142050Z AUTO 32007KT 9999NDV R01/P1500N R19/P1500N NCD 15/06 Q1028=
200607142020 METAR ESMX 142020Z AUTO 34010KT 9999NDV R01/P1500N R19/P1500N NCD 17/06 Q1028=
200607141950 METAR ESMX 141950Z AUTO 35011KT 9999NDV R01/P1500N R19/P1500N NCD 18/06 Q1028=
200607141920 METAR ESMX 141920Z AUTO 35009KT 9999NDV R01/P1500N R19/P1500N NCD 18/07 Q1027=
200607141850 METAR ESMX 141850Z AUTO 34012KT 9999NDV R01/P1500N R19/P1500U NCD 19/07 Q1027=
200607141820 METAR ESMX 141820Z AUTO 34012KT 300V360 9999NDV R01/P1500D R19/P1500U NCD 20/07 Q1026=
200607141720 METAR ESMX 141720Z AUTO 35011KT 9999NDV R01/P1500D R19/P1500N FEW070/// 22/05 Q1026=
200607141650 METAR ESMX 141650Z AUTO 36010KT 9999NDV R01/P1500D R19/P1500U BKN071/// 23/04 Q1025=
200607141620 METAR ESMX 141620Z AUTO 33010KT 290V360 9999NDV R01/P1500U R19/P1500D NCD 23/05 Q1025=
200607141550 METAR ESMX 141550Z AUTO 34010KT 290V020 9999NDV R01/P1500D R19/P1500D NCD 23/05 Q1025=
200607141520 METAR ESMX 141520Z AUTO 34012KT 300V010 9999NDV R01/P1500U R19/P1500U BKN069/// 23/05 Q1025=
200607141450 METAR ESMX 141450Z AUTO 36010KT 320V030 9999NDV R01/P1500U R19/P1500U FEW073/// 22/05 Q1024=
200607141420 METAR ESMX 141420Z AUTO 33009KT 300V360 9999NDV R01/P1500D R19/P1500D FEW072/// 23/05 Q1024=
200607141350 METAR ESMX 141350Z AUTO 01014KT 9999NDV R01/P1500D R19/P1500D BKN069/// 24/05 Q1024=
200607141320 METAR ESMX 141320Z AUTO 01009KT 340V050 9999NDV R01/P1500U R19/P1500U FEW071/// 23/04 Q1024=
200607141250 METAR ESMX 141250Z 35009KT CAVOK 24/04 Q1024=
200607141220 METAR ESMX 141220Z 35011KT CAVOK 23/05 Q1024=
200607141150 METAR ESMX 141150Z 34009KT CAVOK 23/04 Q1024=
200607141120 METAR ESMX 141120Z 34008KT CAVOK 23/05 Q1024=
200607141050 METAR ESMX 141050Z 32011KT CAVOK 23/04 Q1023=
200607141020 METAR ESMX 141020Z 31011KT 290V350 CAVOK 22/06 Q1024=
200607140950 METAR ESMX 140950Z 31010KT 290V010 CAVOK 22/05 Q1023=
200607140820 METAR ESMX 140820Z 32010KT 260V360 CAVOK 20/07 Q1023=
200607140750 METAR ESMX 140750Z 30007KT 270V360 CAVOK 19/09 Q1022=
200607140720 METAR ESMX 140720Z 31007KT 280V010 CAVOK 18/10 Q1022=
200607140650 METAR ESMX 140650Z 32007KT CAVOK 16/10 Q1022=
200607140620 METAR ESMX 140620Z 34005KT 270V030 CAVOK 16/11 Q1022=
200607140550 METAR ESMX 140550Z 31008KT CAVOK 14/11 Q1022=
200607140520 METAR ESMX 140520Z 30006KT 280V340 CAVOK 14/11 Q1022=
200607140450 METAR ESMX 140450Z 30005KT 270V350 CAVOK 12/11 Q1021=
200607140420 METAR ESMX 140420Z 28006KT CAVOK 12/10 Q1021=
200607140350 METAR ESMX 140350Z 25004KT 220V280 CAVOK 11/10 Q1021=
200607140320 METAR ESMX 140320Z AUTO 25004KT 210V280 9999NDV R01/P1500N R19/P1500D NCD 10/09 Q1021=
200607140220 METAR ESMX 140220Z AUTO 26006KT 9999NDV R01/P1500D R19/P1500U NCD 10/09 Q1021=
200607140150 METAR ESMX 140150Z AUTO 26005KT 9999NDV R01/P1500N R19/P1500N NCD 10/09 Q1021=
200607140120 METAR ESMX 140120Z AUTO 26004KT 9999NDV R01/P1500N R19/P1500N NCD 10/08 Q1021=
200607140050 METAR ESMX 140050Z AUTO 25005KT 9999NDV R01/P1500N R19/P1500N NCD 09/08 Q1021=
200607140020 METAR ESMX 140020Z AUTO 25004KT 9999NDV R01/P1500N R19/P1500N NCD 10/09 Q1021=
200607132350 METAR ESMX 132350Z 23003KT CAVOK 11/09 Q1021=
200607132320 METAR ESMX 132320Z 25003KT CAVOK 11/09 Q1021=
200607132250 METAR ESMX 132250Z 30004KT 250V320 CAVOK 13/10 Q1021=
200607132220 METAR ESMX 132220Z 26005KT 220V300 9999 FEW020 13/12 Q1021=
200607132150 METAR ESMX 132150Z 24003KT 9999 FEW020 14/13 Q1021=
200607132120 METAR ESMX 132120Z 24004KT 9999 FEW020 SCT050 15/14 Q1021=
200607132050 METAR ESMX 132050Z 22004KT 190V250 9999 SCT023 SCT045 15/14 Q1021 RERA=
200607132020 METAR ESMX 132020Z 26005KT 9999 -RA BKN025 16/14 Q1021=
200607131950 METAR ESMX 131950Z 28008KT 250V320 9999 -RA BKN025 17/13 Q1020=
200607131920 METAR ESMX 131920Z 26006KT 230V290 9999 SCT025 BKN030 18/13 Q1020=
200607131850 METAR ESMX 131850Z 28007KT 240V300 9999 FEW035 BKN045 18/12 Q1020=
200607131820 METAR ESMX 131820Z 26007KT 230V290 CAVOK 19/12 Q1020=
200607131750 METAR ESMX 131750Z 28008KT CAVOK 19/12 Q1020=
200607131720 METAR ESMX 131720Z 28007KT 240V330 CAVOK 20/12 Q1020=
200607131650 METAR ESMX 131650Z 28008KT CAVOK 20/12 Q1020=
200607131620 METAR ESMX 131620Z 29008KT CAVOK 21/12 Q1020=
200607131550 METAR ESMX 131550Z 27007KT CAVOK 22/11 Q1020=
200607131520 METAR ESMX 131520Z 26007KT CAVOK 22/10 Q1020=
200607131450 METAR ESMX 131450Z 26007KT 230V310 CAVOK 22/09 Q1021=
200607131420 METAR ESMX 131420Z 28010KT CAVOK 22/09 Q1021=
200607131350 METAR ESMX 131350Z 25010KT 200V280 9999 FEW043 SCT110 22/09 Q1021=
200607131320 METAR ESMX 131320Z 26009KT 210V290 9999 FEW047 BKN110 23/11 Q1021=
200607131250 METAR ESMX 131250Z 23011KT CAVOK 24/09 Q1021=
200607131220 METAR ESMX 131220Z 22012KT CAVOK 24/09 Q1021=
200607131150 METAR ESMX 131150Z 23010KT 9999 FEW038 24/09 Q1021=
200607131120 METAR ESMX 131120Z 25009KT CAVOK 24/10 Q1021=
200607131050 METAR ESMX 131050Z 26008KT 220V310 CAVOK 23/10 Q1022=
200607131020 METAR ESMX 131020Z 22009KT 190V260 CAVOK 23/09 Q1021=
200607130950 METAR ESMX 130950Z 26007KT 210V320 CAVOK 22/10 Q1022=
200607130920 METAR ESMX 130920Z 26009KT 220V290 CAVOK 21/09 Q1022=
200607130850 METAR ESMX 130850Z 24007KT 200V300 CAVOK 21/10 Q1022=
200607130820 METAR ESMX 130820Z 24008KT 210V310 CAVOK 21/10 Q1022=
200607130750 METAR ESMX 130750Z 27006KT 190V300 CAVOK 20/10 Q1022=
200607130720 METAR ESMX 130720Z 20004KT 160V260 CAVOK 19/10 Q1022=
200607130650 METAR ESMX 130650Z 18005KT 140V220 CAVOK 18/10 Q1022=
200607130620 METAR ESMX 130620Z 25005KT CAVOK 17/10 Q1022=
200607130550 METAR ESMX 130550Z 21003KT 170V240 CAVOK 16/10 Q1022=
200607130520 METAR ESMX 130520Z 20003KT CAVOK 15/11 Q1022=
200607130450 METAR ESMX 130450Z 22002KT CAVOK 13/11 Q1022=
200607130420 METAR ESMX 130420Z 20002KT CAVOK 10/10 Q1022=
200607130350 METAR ESMX 130350Z 00000KT CAVOK 08/07 Q1022=
200607130320 METAR ESMX 130320Z AUTO 16002KT 9999NDV R01/P1500D R19/P1500D NCD 07/06 Q1022=
200607130250 METAR ESMX 130250Z AUTO 15002KT 9999NDV R01/P1500U R19/P1500U NCD 07/06 Q1022=
200607130220 METAR ESMX 130220Z AUTO 17002KT 9999NDV R01/P1500U R19/P1500U NCD 06/06 Q1022=
200607130150 METAR ESMX 130150Z AUTO 17002KT 9999NDV R01/P1500N R19/P1500N NCD 07/06 Q1023=
200607130120 METAR ESMX 130120Z AUTO 16002KT 9999NDV R01/P1500N R19/P1500N NCD 07/06 Q1023=
200607130050 METAR ESMX 130050Z AUTO 17002KT 9999NDV R01/P1500N R19/P1500N NCD 08/07 Q1023=
200607130020 METAR ESMX 130020Z AUTO 17002KT 9999NDV R01/P1500N R19/P1500N NCD 08/07 Q1023=
200607122350 METAR ESMX 122350Z 17003KT CAVOK 09/07 Q1023=
200607122320 METAR ESMX 122320Z 17002KT CAVOK 10/07 Q1023=
200607122250 METAR ESMX 122250Z 18002KT 9999 NSC 10/08 Q1023=
200607122220 METAR ESMX 122220Z 25003KT CAVOK 12/09 Q1023=
200607122150 METAR ESMX 122150Z 25003KT CAVOK 13/09 Q1024=
200607122120 METAR ESMX 122120Z 25004KT CAVOK 12/09 Q1024=
200607122050 METAR ESMX 122050Z 25004KT CAVOK 14/09 Q1023=
200607122020 METAR ESMX 122020Z 24003KT CAVOK 15/09 Q1023=
200607121950 METAR ESMX 121950Z 24003KT CAVOK 16/09 Q1023=
200607121920 METAR ESMX 121920Z 25003KT CAVOK 18/09 Q1023=
200607121850 METAR ESMX 121850Z 27005KT CAVOK 20/09 Q1023=
200607121820 METAR ESMX 121820Z 27006KT 240V310 CAVOK 21/09 Q1023=
200607121750 METAR ESMX 121750Z 26006KT 230V300 CAVOK 22/09 Q1023=
200607121720 METAR ESMX 121720Z 25006KT 220V310 CAVOK 22/08 Q1023=
200607121650 METAR ESMX 121650Z 28006KT 230V330 CAVOK 23/09 Q1023=
200607121620 METAR ESMX 121620Z 27005KT 230V320 CAVOK 23/10 Q1024=
200607121550 METAR ESMX 121550Z 24005KT 200V290 CAVOK 23/09 Q1024=
200607121520 METAR ESMX 121520Z 27006KT 220V320 CAVOK 23/10 Q1024=
200607121450 METAR ESMX 121450Z 27006KT 200V320 CAVOK 23/10 Q1024=
200607121420 METAR ESMX 121420Z 23006KT 170V320 CAVOK 23/10 Q1024=
200607121350 METAR ESMX 121350Z 21008KT 170V300 CAVOK 23/10 Q1025=
200607121320 METAR ESMX 121320Z 24008KT 200V300 CAVOK 23/10 Q1025=
200607121250 METAR ESMX 121250Z VRB07KT CAVOK 22/10 Q1025=
200607121150 METAR ESMX 121150Z 28008KT 200V320 CAVOK 22/11 Q1025=
200607121120 METAR ESMX 121120Z 28008KT 240V320 9999 FEW035 21/11 Q1025=
200607121050 METAR ESMX 121050Z 26008KT 9999 FEW034 21/11 Q1025=
200607121020 METAR ESMX 121020Z 27008KT 230V310 9999 FEW034 20/11 Q1025=
200607120950 METAR ESMX 120950Z 26008KT 200V300 9999 SCT030 20/11 Q1025=
200607120920 METAR ESMX 120920Z 24009KT 9999 SCT027 19/12 Q1025=
200607120850 METAR ESMX 120850Z 26006KT 9999 SCT028 19/11 Q1025=
200607120820 METAR ESMX 120820Z 26008KT 9999 FEW023 SCT028 17/11 Q1025=
200607120750 METAR ESMX 120750Z 27007KT 230V320 9999 SCT021 17/11 Q1025=
200607120720 METAR ESMX 120720Z 26007KT 9999 FEW018 SCT022 17/12 Q1025=
200607120650 METAR ESMX 120650Z 27006KT 9999 FEW015 SCT018 16/12 Q1025=
200607120620 METAR ESMX 120620Z 26008KT 9999 SCT012 BKN015 15/12 Q1025=
200607120550 METAR ESMX 120550Z 26005KT 9999 SCT011 15/12 Q1024=
200607120520 METAR ESMX 120520Z 22005KT CAVOK 14/12 Q1024=
200607120450 METAR ESMX 120450Z 23005KT CAVOK 13/12 Q1024=
200607120420 METAR ESMX 120420Z 24004KT CAVOK 12/11 Q1024=
200607120350 METAR ESMX 120350Z 17003KT CAVOK 11/11 Q1023=
200607120320 METAR ESMX 120320Z 18003KT CAVOK 10/10 Q1023=
200607120250 METAR ESMX 120250Z AUTO VRB02KT 9999NDV R01/P1500D R19/P1500N NCD 11/10 Q1023=
200607120220 METAR ESMX 120220Z AUTO 25004KT 9999NDV R01/P1500U R19/P1500U NCD 11/10 Q1023=
200607120150 METAR ESMX 120150Z AUTO 24003KT 9999NDV R01/P1500U R19/P1500U NCD 11/10 Q1023=
200607120120 METAR ESMX 120120Z AUTO 27004KT 240V300 9999NDV R01/P1500N R19/P1500N NCD 13/11 Q1022=
200607120050 METAR ESMX 120050Z AUTO 27004KT 250V320 9999NDV R01/P1500N R19/P1500N NCD 13/12 Q1022=
200607120020 METAR ESMX 120020Z 27005KT 240V320 9999 SCT010 BKN020 14/13 Q1022=
200607112350 METAR ESMX 112350Z 26006KT 220V300 9999 SCT010 BKN026 15/14 Q1022=
200607112320 METAR ESMX 112320Z 27004KT 220V290 9999 FEW013 SCT025 15/14 Q1022=
200607112250 METAR ESMX 112250Z 26005KT 9999 FEW011 SCT036 15/14 Q1021=
200607112150 METAR ESMX 112150Z 26008KT 9999 FEW007 SCT012 BKN040 17/16 Q1021=
200607112120 METAR ESMX 112120Z 23005KT 9999 FEW004 SCT018 BKN046 17/17 Q1020 RERA=
200607112050 METAR ESMX 112050Z 21007KT 180V250 6000 -RA BR FEW007 SCT027 BKN050 17/17 Q1020=
200607112020 METAR ESMX 112020Z 21007KT 170V240 8000 -RA BR FEW025 BKN030 18/16 Q1020=
200607111950 METAR ESMX 111950Z 25007KT 9999 RA BKN030 BKN042 19/15 Q1019=
200607111920 METAR ESMX 111920Z 22009KT 200V290 9999 BKN035 21/14 Q1019=
200607111850 METAR ESMX 111850Z 21011KT 9999 BKN038 22/13 Q1019=
200607111820 METAR ESMX 111820Z 23008KT 9999 FEW030 BKN040 22/13 Q1019=
200607111750 METAR ESMX 111750Z 21012KT 190V250 9999 FEW030 BKN045 22/13 Q1019=
200607111720 METAR ESMX 111720Z 20012KT 160V230 9999 BKN045 23/14 Q1018=
200607111650 METAR ESMX 111650Z 19011KT CAVOK 23/14 Q1018=
200607111620 METAR ESMX 111620Z 18011KT CAVOK 24/14 Q1018=
200607111550 METAR ESMX 111550Z 19010KT CAVOK 24/14 Q1019=
200607111520 METAR ESMX 111520Z 19013KT CAVOK 25/13 Q1019=
200607111450 METAR ESMX 111450Z 19011KT 9999 SCT042 BKN058 25/14 Q1019=
200607111420 METAR ESMX 111420Z 18009KT 9999 FEW041 BKN049 24/14 Q1019=
200607111350 METAR ESMX 111350Z 19010KT 9999 SCT045 BKN056 24/14 Q1019=
200607111320 METAR ESMX 111320Z 21011KT 9999 FEW041 SCT058 BKN200 24/13 Q1019=
200607111250 METAR ESMX 111250Z 20010KT 9999 SCT043 BKN200 24/13 Q1020=
200607111220 METAR ESMX 111220Z 19009KT 150V240 9999 FEW038 SCT070 BKN200 24/13 Q1020=
200607111150 METAR ESMX 111150Z 23010KT 9999 SCT038 BKN200 24/13 Q1020=
200607111120 METAR ESMX 111120Z 20009KT 160V240 9999 BKN040 24/13 Q1021=
200607111050 METAR ESMX 111050Z 23010KT 170V240 9999 FEW038 SCT055 23/13 Q1021=
200607111020 METAR ESMX 111020Z 20009KT 9999 SCT035 22/13 Q1021=
200607110950 METAR ESMX 110950Z 19012KT 160V230 9999 FEW032 SCT054 22/14 Q1021=
200607110920 METAR ESMX 110920Z 23010KT 190V270 9999 SCT029 SCT150 21/13 Q1022=
200607110850 METAR ESMX 110850Z 23012KT 9999 SCT028 SCT150 21/13 Q1022=
200607110750 METAR ESMX 110750Z 21011KT 9999 SCT025 BKN150 20/14 Q1022=
200607110720 METAR ESMX 110720Z 20009KT 9999 FEW020 BKN150 19/14 Q1022=
200607110650 METAR ESMX 110650Z 20008KT 170V240 9999 FEW020 BKN150 20/14 Q1022=
200607110620 METAR ESMX 110620Z 21010KT 190V250 9999 FEW018 BKN150 19/14 Q1022=
200607110550 METAR ESMX 110550Z 21007KT 9999 FEW018 BKN150 18/14 Q1022=
200607110520 METAR ESMX 110520Z 21007KT 190V260 9999 FEW025 BKN150 18/15 Q1022=
200607110450 METAR ESMX 110450Z 22007KT 9999 FEW015 BKN027 16/15 Q1022=
200607110420 METAR ESMX 110420Z 19006KT 8000 BR BKN012 BKN027 15/15 Q1022=
200607110350 METAR ESMX 110350Z 19004KT 7000 BR SCT010 BKN015 BKN019 15/14 Q1022=
200607110320 METAR ESMX 110320Z AUTO 19004KT 2700NDV R01/P1500D R19/P1500U NCD 14/13 Q1022=
200607110250 METAR ESMX 110250Z AUTO 17004KT 0500NDV R01/0800V1300U R19/0450V0900N FG SCT000/// BKN012/// 14/13 Q1022=
200607110220 METAR ESMX 110220Z AUTO 18005KT 0100NDV R01/0300D R19/0225V0350N FG NCD 12/12 Q1022=
200607110150 METAR ESMX 110150Z AUTO 18004KT 0250NDV R01/0700D R19/P1500N FG NCD 12/11 Q1022=
200607110120 METAR ESMX 110120Z AUTO 17003KT 2800NDV R01/P1500N R19/P1500N BR NCD 12/12 Q1022=
200607110050 METAR ESMX 110050Z AUTO 18004KT 7000NDV R01/P1500N R19/P1500N BR NCD 12/11 Q1022=
200607110020 METAR ESMX 110020Z 19002KT CAVOK 14/13 Q1022=
200607102350 METAR ESMX 102350Z 25002KT CAVOK 13/12 Q1022=
200607102320 METAR ESMX 102320Z VRB02KT CAVOK 14/13 Q1022=
200607102250 METAR ESMX 102250Z 26002KT CAVOK 15/13 Q1022=
200607102220 METAR ESMX 102220Z 18005KT CAVOK 15/13 Q1022=
200607102150 METAR ESMX 102150Z 19004KT CAVOK 16/14 Q1022=
200607102120 METAR ESMX 102120Z 20004KT CAVOK 17/14 Q1022=
200607102050 METAR ESMX 102050Z 22005KT CAVOK 17/14 Q1022=
200607102020 METAR ESMX 102020Z 23004KT 9999 FEW039 17/14 Q1022=
200607101950 METAR ESMX 101950Z 24004KT 9999 FEW041 18/14 Q1021=
200607101920 METAR ESMX 101920Z 26005KT 9999 FEW033 20/14 Q1021=
200607101850 METAR ESMX 101850Z 27005KT 9999 FEW033 20/13 Q1021=
200607101750 METAR ESMX 101750Z 24009KT CAVOK 22/13 Q1020=
200607101720 METAR ESMX 101720Z 28009KT CAVOK 22/13 Q1020=
200607101650 METAR ESMX 101650Z 24012KT CAVOK 23/12 Q1020=
200607101620 METAR ESMX 101620Z 25010KT 210V280 9999 SCT048 23/12 Q1020=
200607101520 METAR ESMX 101520Z 22009KT 9999 FEW046 SCT056 23/12 Q1019=
200607101450 METAR ESMX 101450Z 26013KT 220V290 9999 SCT045 24/12 Q1019=
200607101420 METAR ESMX 101420Z 25011KT 210V290 9999 SCT045 23/12 Q1019=
200607101350 METAR ESMX 101350Z 25012KT 220V290 9999 FEW043 25/13 Q1019=
200607101320 METAR ESMX 101320Z 24010KT 170V290 9999 FEW045 SCT055 24/13 Q1019=
200607101250 METAR ESMX 101250Z 23011KT 160V280 9999 FEW038 SCT070 23/12 Q1019=
200607101220 METAR ESMX 101220Z 25012KT 210V290 9999 FEW038 BKN070 22/12 Q1019=
200607101150 METAR ESMX 101150Z 24010KT 200V290 9999 FEW038 BKN067 22/13 Q1018=
200607101120 METAR ESMX 101120Z 23011KT 9999 FEW025 SCT040 BKN061 22/14 Q1018=
200607101050 METAR ESMX 101050Z 26013KT 9999 FEW025 SCT044 BKN075 22/14 Q1018=
200607101020 METAR ESMX 101020Z 26011KT 9999 SCT037 BKN044 20/14 Q1018=
200607100950 METAR ESMX 100950Z 22014KT 9999 FEW028 SCT040 BKN074 23/12 Q1017=
200607100920 METAR ESMX 100920Z 22013KT 9999 SCT034 BKN048 23/13 Q1017=
200607100850 METAR ESMX 100850Z 21012KT 9999 SCT034 BKN078 23/14 Q1016=
200607100820 METAR ESMX 100820Z 21011KT 9999 FEW028 SCT058 BKN078 22/15 Q1016=
200607100750 METAR ESMX 100750Z 20010KT 9999 FEW021 SCT048 OVC054 22/16 Q1016=
200607100720 METAR ESMX 100720Z 22009KT 9999 FEW020 BKN046 21/17 Q1016=
200607100650 METAR ESMX 100650Z 24011KT 9999 FEW015 SCT018 BKN021 21/17 Q1016=
200607100620 METAR ESMX 100620Z 20008KT 9999 FEW013 BKN018 BKN096 20/18 Q1015=
200607100550 METAR ESMX 100550Z 20008KT 9999 FEW011 BKN014 BKN082 20/18 Q1015=
200607100520 METAR ESMX 100520Z 19008KT 9999 BKN010 BKN019 20/18 Q1015=
200607100450 METAR ESMX 100450Z 19009KT 9999 FEW007 BKN010 BKN015 20/18 Q1015=
200607100420 METAR ESMX 100420Z 16006KT 130V200 9000 BR SCT009 BKN015 20/18 Q1015=
200607100350 METAR ESMX 100350Z 17005KT 9000 BR FEW010 BKN080 19/18 Q1015=
200607100320 METAR ESMX 100320Z AUTO 16005KT 140V200 9000NDV R01/P1500U R19/P1500U BKN077/// 19/18 Q1015=
200607100250 METAR ESMX 100250Z AUTO 16006KT 130V190 9000NDV R01/P1500D R19/P1500D BKN094/// 19/18 Q1015=
200607100220 METAR ESMX 100220Z AUTO 16007KT 9999NDV R01/P1500N R19/P1500N FEW059/// SCT076/// BKN100/// 19/18 Q1015=
200607100150 METAR ESMX 100150Z AUTO 17007KT 140V210 9000NDV R01/P1500N R19/P1500N RA FEW055/// SCT065/// OVC079/// 20/18 Q1016=
200607100120 METAR ESMX 100120Z AUTO 16007KT 120V190 9999NDV R01/P1500N R19/P1500N FEW061/// BKN090/// 19/17 Q1016 RERA REDZ=
200607100050 METAR ESMX 100050Z AUTO 17007KT 120V200 9999NDV R01/P1500N R19/P1500N BKN100/// 19/17 Q1016=
200607100020 METAR ESMX 100020Z 17006KT 130V200 9999 FEW010 19/18 Q1016=
200607092350 METAR ESMX 092350Z 15006KT 120V210 9999 FEW010 19/17 Q1016=
200607092320 METAR ESMX 092320Z 16006KT 110V180 9999 FEW011 19/17 Q1016=
200607092250 METAR ESMX 092250Z 16008KT 9999 FEW010 19/16 Q1017=
200607092220 METAR ESMX 092220Z 16007KT 110V170 CAVOK 19/16 Q1016=
200607092150 METAR ESMX 092150Z 16008KT 120V190 CAVOK 19/15 Q1016=
200607092120 METAR ESMX 092120Z 15006KT 110V170 CAVOK 20/15 Q1017=
200607092050 METAR ESMX 092050Z 15008KT 110V180 CAVOK 20/15 Q1017=
200607092020 METAR ESMX 092020Z 15006KT 100V170 CAVOK 21/14 Q1017=
200607091950 METAR ESMX 091950Z 15007KT 110V180 CAVOK 21/13 Q1017=
200607091920 METAR ESMX 091920Z 16006KT 140V200 CAVOK 21/12 Q1017=
200607091850 METAR ESMX 091850Z 16007KT CAVOK 22/12 Q1017=
200607091820 METAR ESMX 091820Z 16007KT CAVOK 22/11 Q1017=
200607091750 METAR ESMX 091750Z 15006KT 120V180 CAVOK 23/10 Q1017=
200607091720 METAR ESMX 091720Z 17008KT 140V200 CAVOK 23/09 Q1017=
200607091650 METAR ESMX 091650Z 17009KT 130V200 CAVOK 25/09 Q1017=
200607091620 METAR ESMX 091620Z 18010KT 140V210 CAVOK 24/09 Q1017=
200607091550 METAR ESMX 091550Z AUTO 17010KT 140V200 9999NDV R01/P1500D R19/P1500U NCD 25/10 Q1017=
200607091520 METAR ESMX 091520Z AUTO 17010KT 140V200 9999NDV R01/P1500U R19/P1500U FEW086/// 24/10 Q1017=
200607091450 METAR ESMX 091450Z AUTO 17010KT 9999NDV R01/P1500D R19/P1500D FEW056/// BKN082/// 25/11 Q1017=
200607091420 METAR ESMX 091420Z 16007KT 120V200 CAVOK 24/10 Q1017=
200607091350 METAR ESMX 091350Z 17009KT 140V230 CAVOK 25/11 Q1017=
200607091320 METAR ESMX 091320Z 18009KT CAVOK 26/08 Q1017=
200607091250 METAR ESMX 091250Z 20009KT 160V250 CAVOK 25/07 Q1018=
200607091220 METAR ESMX 091220Z 18011KT 140V210 CAVOK 26/08 Q1018=
200607091150 METAR ESMX 091150Z 19009KT 150V240 CAVOK 26/08 Q1018=
200607080120 METAR ESMX 080120Z AUTO 19002KT 9999NDV R01/P1500N R19/P1500N NCD 14/14 Q1013=
200607080050 METAR ESMX 080050Z AUTO 16002KT 9999NDV R01/P1500N R19/P1500N NCD 14/13 Q1013=
200607080020 METAR ESMX 080020Z AUTO 16002KT 9999NDV R01/P1500N R19/P1500N NCD 15/14 Q1013=
200607072350 METAR ESMX 072350Z AUTO 16002KT 9999NDV R01/P1500N R19/P1500N NCD 16/14 Q1013=
200607072320 METAR ESMX 072320Z AUTO 00000KT 9999NDV R01/P1500N R19/P1500N NCD 16/15 Q1013=
200607072250 METAR ESMX 072250Z AUTO 22003KT 9999NDV R01/P1500N R19/P1500N NCD 17/14 Q1013=
200607072220 METAR ESMX 072220Z AUTO 24003KT 9999NDV R01/P1500N R19/P1500N NCD 17/14 Q1013=
200607072150 METAR ESMX 072150Z AUTO 21003KT 9999NDV R01/P1500N R19/P1500N NCD 19/15 Q1013=
200607072120 METAR ESMX 072120Z AUTO 22003KT 9999NDV R01/P1500N R19/P1500N NCD 20/15 Q1013=
200607072050 METAR ESMX 072050Z AUTO 26003KT 9999NDV R01/P1500N R19/P1500N NCD 21/15 Q1013=
200607072020 METAR ESMX 072020Z AUTO 24004KT 9999NDV R01/P1500D R19/P1500U NCD 22/15 Q1013=
200607071950 METAR ESMX 071950Z AUTO 26003KT 230V320 9999NDV R01/P1500D R19/P1500U NCD 23/15 Q1013=
200607071920 METAR ESMX 071920Z AUTO 26004KT 9999NDV R01/P1500D R19/P1500D NCD 24/14 Q1013=
200607071850 METAR ESMX 071850Z AUTO 27003KT 230V300 9999NDV R01/P1500D R19/P1500D NCD 25/14 Q1012=
200607071820 METAR ESMX 071820Z AUTO 27004KT 170V310 9999NDV R01/P1500D R19/P1500U NCD 26/14 Q1012=
200607071750 METAR ESMX 071750Z AUTO 28006KT 220V320 9999NDV R01/P1500D R19/P1500U FEW082/// 26/14 Q1012=
200607071720 METAR ESMX 071720Z AUTO 28007KT 250V320 9999NDV R01/P1500U R19/P1500D NCD 26/14 Q1012=
200607071650 METAR ESMX 071650Z AUTO 26008KT 230V290 9999NDV R01/P1500U R19/P1500D FEW081/// 28/14 Q1012=
200607071620 METAR ESMX 071620Z AUTO 29008KT 250V320 9999NDV R01/P1500D R19/P1500U SCT079/// 28/14 Q1012=
200607071550 METAR ESMX 071550Z 27008KT CAVOK 27/13 Q1012=
200607071520 METAR ESMX 071520Z 27008KT 210V290 CAVOK 29/14 Q1012=
200607071450 METAR ESMX 071450Z 31008KT 260V330 CAVOK 28/16 Q1013=
200607071420 METAR ESMX 071420Z 29010KT 250V330 CAVOK 28/15 Q1013=
200607071350 METAR ESMX 071350Z 31011KT 270V340 CAVOK 30/14 Q1012=
200607071320 METAR ESMX 071320Z 27010KT 250V310 CAVOK 31/13 Q1013=
200607071250 METAR ESMX 071250Z 25004KT 180V330 CAVOK 30/11 Q1013=
200607071220 METAR ESMX 071220Z 01007KT CAVOK 30/13 Q1013=
200607071150 METAR ESMX 071150Z 02005KT 340V050 CAVOK 30/13 Q1013=
200607071120 METAR ESMX 071120Z 01006KT CAVOK 30/12 Q1013=
200607071050 METAR ESMX 071050Z 07004KT 010V120 CAVOK 30/12 Q1013=
200607071020 METAR ESMX 071020Z VRB05KT CAVOK 30/13 Q1013=
200607070950 METAR ESMX 070950Z VRB04KT CAVOK 29/13 Q1013=
200607070920 METAR ESMX 070920Z 08003KT 350V170 CAVOK 29/14 Q1014=
200607070850 METAR ESMX 070850Z VRB02KT CAVOK 29/15 Q1014=
200607070820 METAR ESMX 070820Z VRB02KT CAVOK 28/14 Q1014=
200607070750 METAR ESMX 070750Z 29003KT 220V350 CAVOK 27/14 Q1014=
200607070720 METAR ESMX 070720Z 26003KT 230V290 CAVOK 26/14 Q1014=
200607070650 METAR ESMX 070650Z 28003KT 220V340 CAVOK 25/15 Q1014=
200607070620 METAR ESMX 070620Z 30003KT 250V340 CAVOK 24/15 Q1014=
200607070550 METAR ESMX 070550Z VRB02KT CAVOK 23/15 Q1014=
200607070520 METAR ESMX 070520Z AUTO VRB02KT 9999NDV R01/P1500U R19/P1500U NCD 22/15 Q1014=
200607070450 METAR ESMX 070450Z AUTO 00000KT 9999NDV R01/P1500D R19/P1500U NCD 20/17 Q1014=
200607070420 METAR ESMX 070420Z AUTO 00000KT 6000NDV R01/P1500N R19/P1500D BR NCD 17/16 Q1015=
200607070350 METAR ESMX 070350Z AUTO 00000KT 5000NDV R01/P1500D R19/P1500D BR NCD 15/14 Q1015=
200607070320 METAR ESMX 070320Z AUTO 18002KT 2900NDV R01/P1500N R19/P1500U BR NCD 14/13 Q1015=
200607070250 METAR ESMX 070250Z AUTO 00000KT 3900NDV R01/P1500U R19/P1500D BR NCD 13/13 Q1015=
200607070220 METAR ESMX 070220Z AUTO 00000KT 8000NDV R01/P1500D R19/P1500D BR NCD 13/13 Q1015=
200607070150 METAR ESMX 070150Z AUTO 00000KT 9999NDV R01/P1500N R19/P1500N BR NCD 14/13 Q1015=
200607070120 METAR ESMX 070120Z AUTO 00000KT 6000NDV R01/P1500N R19/P1500N BR NCD 15/14 Q1015=
200607070050 METAR ESMX 070050Z AUTO 20001KT 9999NDV R01/P1500N R19/P1500N NCD 16/15 Q1015=
200607070020 METAR ESMX 070020Z AUTO 16004KT 9999NDV R01/P1500N R19/P1500N NCD 17/14 Q1015=
200607062350 METAR ESMX 062350Z 16005KT CAVOK 19/15 Q1015=
200607062320 METAR ESMX 062320Z 17004KT CAVOK 19/15 Q1016=
200607062250 METAR ESMX 062250Z 16006KT CAVOK 20/15 Q1016=
200607062150 METAR ESMX 062150Z 15006KT CAVOK 21/14 Q1016=
200607062120 METAR ESMX 062120Z 15005KT CAVOK 20/14 Q1016=
200607062050 METAR ESMX 062050Z 16004KT CAVOK 21/14 Q1016=
200607062020 METAR ESMX 062020Z 17004KT CAVOK 23/13 Q1016=
200607061950 METAR ESMX 061950Z 17005KT CAVOK 24/13 Q1016=
200607061920 METAR ESMX 061920Z 16007KT CAVOK 25/12 Q1016=
200607061850 METAR ESMX 061850Z 17007KT CAVOK 26/12 Q1015=
200607061820 METAR ESMX 061820Z 16008KT CAVOK 27/11 Q1015=
200607061750 METAR ESMX 061750Z 16008KT CAVOK 28/11 Q1015=
200607061720 METAR ESMX 061720Z 17009KT 130V190 CAVOK 29/10 Q1015=
200607061650 METAR ESMX 061650Z 16008KT CAVOK 29/10 Q1015=
200607061620 METAR ESMX 061620Z 19007KT CAVOK 30/10 Q1015=
200607061550 METAR ESMX 061550Z 19008KT 150V220 CAVOK 30/09 Q1015=
200607061520 METAR ESMX 061520Z 15008KT 120V200 CAVOK 31/10 Q1015=
200607061450 METAR ESMX 061450Z 16008KT 120V210 CAVOK 30/10 Q1016=
200607061420 METAR ESMX 061420Z 15009KT 110V200 CAVOK 30/10 Q1016=
200607061350 METAR ESMX 061350Z 15008KT 100V210 CAVOK 30/10 Q1016=
200607061320 METAR ESMX 061320Z 16009KT 120V190 CAVOK 30/10 Q1016=
200607061250 METAR ESMX 061250Z 15008KT 110V190 CAVOK 29/10 Q1016=
200607061220 METAR ESMX 061220Z 16009KT CAVOK 30/10 Q1016=
200607061150 METAR ESMX 061150Z 17008KT 140V230 CAVOK 31/11 Q1017=
200607061120 METAR ESMX 061120Z 17009KT 140V240 CAVOK 30/09 Q1017=
200607061050 METAR ESMX 061050Z 16009KT 110V200 CAVOK 31/08 Q1017=
200607061020 METAR ESMX 061020Z 16008KT 110V210 CAVOK 30/09 Q1017=
200607060950 METAR ESMX 060950Z 19006KT 150V230 CAVOK 30/10 Q1017=
200607060920 METAR ESMX 060920Z VRB03KT CAVOK 29/12 Q1017=
200607060850 METAR ESMX 060850Z 36005KT CAVOK 28/13 Q1018=
200607060820 METAR ESMX 060820Z 36005KT CAVOK 27/15 Q1018=
200607060750 METAR ESMX 060750Z 03004KT CAVOK 26/16 Q1018=
200607060720 METAR ESMX 060720Z 36003KT CAVOK 25/16 Q1018=
200607060650 METAR ESMX 060650Z 34004KT CAVOK 24/15 Q1018=
200607060620 METAR ESMX 060620Z VRB02KT CAVOK 23/16 Q1018=
200607060550 METAR ESMX 060550Z 03003KT 360V060 CAVOK 22/16 Q1018=
200607060520 METAR ESMX 060520Z VRB02KT CAVOK 20/15 Q1018=
200607060450 METAR ESMX 060450Z AUTO 00000KT 9999NDV R01/P1500U R19/P1500N NCD 18/15 Q1018=
200607060420 METAR ESMX 060420Z AUTO 00000KT 9999NDV R01/P1500D R19/P1500D NCD 15/13 Q1019=
200607060350 METAR ESMX 060350Z AUTO 00000KT 9999NDV R01/P1500D R19/P1500D NCD 12/11 Q1019=
200607060320 METAR ESMX 060320Z AUTO 00000KT 9999NDV R01/P1500D R19/P1500D NCD 11/10 Q1019=
200607060250 METAR ESMX 060250Z AUTO 00000KT 9999NDV R01/P1500D R19/P1500D NCD 10/09 Q1019=
200607060220 METAR ESMX 060220Z AUTO 16001KT 9999NDV R01/P1500U R19/P1500U NCD 11/10 Q1019=
200607060150 METAR ESMX 060150Z AUTO VRB01KT 9999NDV R01/P1500U R19/P1500U NCD 10/09 Q1019=
200607060120 METAR ESMX 060120Z AUTO 18001KT 9999NDV R01/P1500N R19/P1500N NCD 11/09 Q1019=
200607060050 METAR ESMX 060050Z AUTO 00000KT 9999NDV R01/P1500N R19/P1500N NCD 11/09 Q1019=
200607060020 METAR ESMX 060020Z 00000KT CAVOK 11/09 Q1019=
200607052350 METAR ESMX 052350Z 00000KT CAVOK 12/10 Q1019=
200607052320 METAR ESMX 052320Z 00000KT CAVOK 13/10 Q1020=
200607052250 METAR ESMX 052250Z 17003KT CAVOK 14/10 Q1020=
200607052220 METAR ESMX 052220Z 15004KT CAVOK 17/11 Q1020=
200607052150 METAR ESMX 052150Z 14004KT CAVOK 15/11 Q1020=
200607052120 METAR ESMX 052120Z 14003KT CAVOK 15/10 Q1020=
200607052050 METAR ESMX 052050Z 17004KT CAVOK 17/11 Q1019=
200607052020 METAR ESMX 052020Z 17005KT CAVOK 20/10 Q1020=
200607051950 METAR ESMX 051950Z 17005KT CAVOK 23/09 Q1019=
200607051920 METAR ESMX 051920Z 18005KT CAVOK 23/08 Q1019=
200607051850 METAR ESMX 051850Z 16006KT CAVOK 24/08 Q1019=
200607051820 METAR ESMX 051820Z AUTO 17008KT 140V210 9999NDV R01/P1500D R19/P1500D NCD 26/08 Q1019=
200607051750 METAR ESMX 051750Z 17009KT CAVOK 27/08 Q1019=
200607051720 METAR ESMX 051720Z 17008KT 140V210 CAVOK 28/08 Q1019=
200607051650 METAR ESMX 051650Z 17009KT 130V200 CAVOK 28/07 Q1019=
200607051620 METAR ESMX 051620Z 16009KT 140V200 CAVOK 29/07 Q1019=
200607051550 METAR ESMX 051550Z 18008KT 140V210 CAVOK 29/07 Q1019=
200607051520 METAR ESMX 051520Z 18006KT 110V240 CAVOK 29/07 Q1019=
200607051450 METAR ESMX 051450Z 19007KT CAVOK 30/08 Q1019=
200607051420 METAR ESMX 051420Z 24005KT CAVOK 30/07 Q1019=
200607051350 METAR ESMX 051350Z 18005KT CAVOK 30/08 Q1020=
200607051320 METAR ESMX 051320Z 14006KT CAVOK 30/08 Q1020=
200607051250 METAR ESMX 051250Z 17007KT CAVOK 30/09 Q1020=
200607051220 METAR ESMX 051220Z 17008KT CAVOK 29/08 Q1020=
200607051150 METAR ESMX 051150Z VRB03KT CAVOK 29/08 Q1021=
200607051120 METAR ESMX 051120Z 17007KT CAVOK 29/08 Q1021=
200607051050 METAR ESMX 051050Z 17006KT CAVOK 29/07 Q1021=
200607051020 METAR ESMX 051020Z 15007KT CAVOK 28/09 Q1021=
200607050950 METAR ESMX 050950Z VRB04KT CAVOK 28/08 Q1021=
200607050920 METAR ESMX 050920Z 13005KT CAVOK 27/08 Q1021=
200607050850 METAR ESMX 050850Z 14004KT 070V200 CAVOK 26/11 Q1022=
200607050820 METAR ESMX 050820Z 10004KT CAVOK 26/11 Q1022=
200607050750 METAR ESMX 050750Z VRB02KT CAVOK 25/12 Q1022=
200607050720 METAR ESMX 050720Z 17004KT CAVOK 24/12 Q1022=
200607050650 METAR ESMX 050650Z VRB02KT CAVOK 22/12 Q1021=
200607050620 METAR ESMX 050620Z VRB01KT CAVOK 22/12 Q1021=
200607050550 METAR ESMX 050550Z VRB02KT CAVOK 20/11 Q1021=
200607050520 METAR ESMX 050520Z VRB02KT CAVOK 19/11 Q1021=
200607050450 METAR ESMX 050450Z AUTO VRB02KT 9999NDV R01/P1500D R19/P1500U NCD 18/11 Q1021=
200607050420 METAR ESMX 050420Z AUTO 19002KT 9999NDV R01/P1500D R19/P1500U NCD 15/12 Q1021=
200607050350 METAR ESMX 050350Z AUTO 19002KT 9999NDV R01/P1500D R19/P1500D NCD 12/10 Q1021=
200607050320 METAR ESMX 050320Z AUTO 19003KT 9999NDV R01/P1500U R19/P1500U NCD 11/09 Q1021=
200607050250 METAR ESMX 050250Z AUTO 00000KT 9999NDV R01/P1500D R19/P1500D NCD 10/09 Q1021=
200607050220 METAR ESMX 050220Z AUTO 17003KT 9999NDV R01/P1500U R19/P1500U NCD 11/09 Q1021=
200607050150 METAR ESMX 050150Z AUTO 00000KT 9999NDV R01/P1500D R19/P1500D NCD 11/09 Q1021=
200607050120 METAR ESMX 050120Z AUTO 17002KT 9999NDV R01/P1500N R19/P1500N NCD 12/09 Q1021=
200607050050 METAR ESMX 050050Z AUTO 18002KT 9999NDV R01/P1500N R19/P1500N NCD 12/10 Q1021=
200607050020 METAR ESMX 050020Z 18002KT CAVOK 13/10 Q1021=
200607042350 METAR ESMX 042350Z 16002KT CAVOK 12/10 Q1022=
200607042320 METAR ESMX 042320Z 00000KT CAVOK 13/10 Q1022=
200607042250 METAR ESMX 042250Z 00000KT CAVOK 13/10 Q1021=
200607042220 METAR ESMX 042220Z 18002KT CAVOK 14/10 Q1021=
200607042150 METAR ESMX 042150Z 20003KT CAVOK 17/11 Q1021=
200607042120 METAR ESMX 042120Z 19003KT CAVOK 18/10 Q1021=
200607042050 METAR ESMX 042050Z 17005KT CAVOK 19/10 Q1021=
200607042020 METAR ESMX 042020Z 18005KT CAVOK 20/10 Q1021=
200607041950 METAR ESMX 041950Z 19007KT CAVOK 21/09 Q1021=
200607041920 METAR ESMX 041920Z 19009KT CAVOK 22/10 Q1021=
200607041850 METAR ESMX 041850Z 18008KT 140V200 CAVOK 24/10 Q1021=
200607041820 METAR ESMX 041820Z 18009KT CAVOK 25/11 Q1020=
200607041750 METAR ESMX 041750Z 17010KT CAVOK 26/11 Q1020=
200607041720 METAR ESMX 041720Z 18007KT 150V210 CAVOK 26/11 Q1020=
200607041650 METAR ESMX 041650Z 19007KT 120V230 CAVOK 28/09 Q1020=
200607041620 METAR ESMX 041620Z 22005KT CAVOK 28/07 Q1020=
200607041550 METAR ESMX 041550Z VRB06KT CAVOK 29/06 Q1021=
200607041520 METAR ESMX 041520Z 23005KT 110V250 CAVOK 29/04 Q1021=
200607041450 METAR ESMX 041450Z 22007KT 150V250 CAVOK 29/05 Q1021=
200607041420 METAR ESMX 041420Z VRB04KT CAVOK 29/05 Q1021=
200607041350 METAR ESMX 041350Z 22005G15KT 150V260 CAVOK 29/07 Q1021=
200607041320 METAR ESMX 041320Z 22006KT 190V250 CAVOK 29/08 Q1022=
200607041250 METAR ESMX 041250Z VRB05KT CAVOK 28/05 Q1022=
200607041220 METAR ESMX 041220Z VRB05KT CAVOK 28/06 Q1022=
200607041150 METAR ESMX 041150Z 14006KT 060V170 CAVOK 27/05 Q1022=
200607041120 METAR ESMX 041120Z 14006KT 080V190 CAVOK 27/06 Q1022=
200607041050 METAR ESMX 041050Z 12005KT 070V230 CAVOK 27/07 Q1023=
200607041020 METAR ESMX 041020Z 17007KT 120V200 CAVOK 26/08 Q1023=
200607040950 METAR ESMX 040950Z VRB04KT CAVOK 26/10 Q1023=
200607040920 METAR ESMX 040920Z 14003KT 060V190 CAVOK 25/11 Q1023=
200607040850 METAR ESMX 040850Z 13004KT 070V200 CAVOK 25/11 Q1023=
200607040820 METAR ESMX 040820Z VRB02KT CAVOK 25/11 Q1023=
200607040750 METAR ESMX 040750Z VRB03KT CAVOK 24/10 Q1023=
200607040720 METAR ESMX 040720Z VRB03KT CAVOK 23/11 Q1024=
200607040650 METAR ESMX 040650Z 28004KT 200V310 CAVOK 22/11 Q1024=
200607040620 METAR ESMX 040620Z 26003KT 170V320 CAVOK 21/10 Q1024=
200607040550 METAR ESMX 040550Z 25003KT 210V290 CAVOK 20/12 Q1024=
200607040520 METAR ESMX 040520Z AUTO VRB01KT 9999NDV R01/P1500D R19/P1500U NCD 19/12 Q1024=
200607040450 METAR ESMX 040450Z AUTO 00000KT 9999NDV R01/P1500U R19/P1500U NCD 18/13 Q1024=
200607040420 METAR ESMX 040420Z AUTO 00000KT 9999NDV R01/P1500D R19/P1500D NCD 14/12 Q1024=
200607040350 METAR ESMX 040350Z AUTO 00000KT 9999NDV R01/P1500U R19/P1500U NCD 11/10 Q1024=
200607040320 METAR ESMX 040320Z AUTO 16001KT 9999NDV R01/P1500U R19/P1500U NCD 10/09 Q1024=
200607040250 METAR ESMX 040250Z AUTO 19001KT 9999NDV R01/P1500N R19/P1500D NCD 10/09 Q1024=
200607040220 METAR ESMX 040220Z AUTO 00000KT 9999NDV R01/P1500D R19/P1500D NCD 10/09 Q1024=
200607040150 METAR ESMX 040150Z AUTO 17002KT 9999NDV R01/P1500U R19/P1500U NCD 11/10 Q1024=
200607040120 METAR ESMX 040120Z AUTO 16001KT 9999NDV R01/P1500N R19/P1500N NCD 11/10 Q1024=
200607040050 METAR ESMX 040050Z AUTO 19002KT 9999NDV R01/P1500N R19/P1500N NCD 11/10 Q1024=
200607040020 METAR ESMX 040020Z 00000KT CAVOK 12/10 Q1024=
200607032350 METAR ESMX 032350Z VRB02KT CAVOK 13/10 Q1024=
200607032320 METAR ESMX 032320Z 17002KT CAVOK 13/10 Q1024=
200607032250 METAR ESMX 032250Z 23003KT CAVOK 14/10 Q1024=
200607032220 METAR ESMX 032220Z 21004KT CAVOK 16/11 Q1024=
200607032150 METAR ESMX 032150Z 22004KT CAVOK 16/11 Q1024=
200607032120 METAR ESMX 032120Z 19004KT CAVOK 18/11 Q1024=
200607032050 METAR ESMX 032050Z 18004KT CAVOK 18/10 Q1024=
200607032020 METAR ESMX 032020Z 19006KT CAVOK 18/10 Q1023=
200607031950 METAR ESMX 031950Z 18006KT CAVOK 20/10 Q1023=
200607031920 METAR ESMX 031920Z 17006KT CAVOK 22/09 Q1023=
200607031850 METAR ESMX 031850Z 18007KT CAVOK 24/08 Q1023=
200607031820 METAR ESMX 031820Z 17009KT CAVOK 25/08 Q1023=
200607031750 METAR ESMX 031750Z 17010KT CAVOK 26/08 Q1023=
200607031720 METAR ESMX 031720Z 16009KT CAVOK 26/08 Q1023=
200607031650 METAR ESMX 031650Z 19007KT 150V210 CAVOK 28/08 Q1023=
200607031620 METAR ESMX 031620Z 17005KT 130V220 CAVOK 28/05 Q1023=
200607031550 METAR ESMX 031550Z 15006KT 080V180 CAVOK 28/04 Q1024=
200607031520 METAR ESMX 031520Z 12005KT 080V170 CAVOK 28/02 Q1024=
200607031450 METAR ESMX 031450Z 14005KT 080V200 CAVOK 28/M00 Q1024=
200607031420 METAR ESMX 031420Z 16007KT 120V250 CAVOK 29/00 Q1024=
200607031350 METAR ESMX 031350Z VRB04KT CAVOK 28/01 Q1024=
200607031320 METAR ESMX 031320Z 16007KT 110V240 CAVOK 28/02 Q1025=
200607031250 METAR ESMX 031250Z 16006KT 060V230 CAVOK 27/01 Q1025=
200607031220 METAR ESMX 031220Z 15005KT 110V210 CAVOK 28/04 Q1025=
200607031150 METAR ESMX 031150Z 19006KT 140V230 CAVOK 28/03 Q1026=
200607031120 METAR ESMX 031120Z 18006KT 150V220 CAVOK 27/05 Q1026=
200607031050 METAR ESMX 031050Z 20006KT 150V320 CAVOK 26/05 Q1026=
200607031020 METAR ESMX 031020Z 18004KT 080V240 CAVOK 26/05 Q1026=
200607030950 METAR ESMX 030950Z 18005KT 100V230 CAVOK 25/07 Q1027=
200607030920 METAR ESMX 030920Z 16004KT 050V210 CAVOK 25/06 Q1027=
200607030850 METAR ESMX 030850Z 14003KT 050V210 CAVOK 24/01 Q1027=
200607030820 METAR ESMX 030820Z 10003KT 060V170 CAVOK 24/06 Q1027=
200607030750 METAR ESMX 030750Z 16003KT 100V190 CAVOK 23/04 Q1027=
200607030720 METAR ESMX 030720Z VRB02KT CAVOK 22/09 Q1027=
200607030650 METAR ESMX 030650Z VRB02KT CAVOK 22/09 Q1027=
200607030620 METAR ESMX 030620Z VRB02KT CAVOK 21/09 Q1027=
200607030550 METAR ESMX 030550Z VRB02KT CAVOK 19/08 Q1028=
200607030520 METAR ESMX 030520Z AUTO 21003KT 170V260 9999NDV R01/P1500U R19/P1500U NCD 18/09 Q1028=
200607030450 METAR ESMX 030450Z AUTO VRB02KT 9999NDV R01/P1500D R19/P1500D NCD 16/10 Q1028=
200607030420 METAR ESMX 030420Z AUTO 19002KT 9999NDV R01/P1500U R19/P1500U NCD 14/11 Q1028=
200607030350 METAR ESMX 030350Z AUTO 19002KT 9999NDV R01/P1500D R19/P1500U NCD 11/10 Q1028=
200607030320 METAR ESMX 030320Z AUTO 17002KT 9999NDV R01/P1500D R19/P1500D NCD 09/09 Q1028=
200607030250 METAR ESMX 030250Z AUTO 00000KT 9999NDV R01/P1500D R19/P1500D NCD 09/08 Q1028=
200607030220 METAR ESMX 030220Z AUTO 00000KT 9999NDV R01/P1500D R19/P1500N NCD 09/08 Q1028=
200607030150 METAR ESMX 030150Z AUTO 19003KT 9999NDV R01/P1500N R19/P1500N NCD 10/09 Q1028=
200607030120 METAR ESMX 030120Z AUTO 18004KT 9999NDV R01/P1500N R19/P1500N NCD 11/09 Q1028=
200607030050 METAR ESMX 030050Z 18003KT CAVOK 10/08 Q1028=
200607030020 METAR ESMX 030020Z 17003KT CAVOK 10/08 Q1028=
200607022350 METAR ESMX 022350Z VRB01KT CAVOK 11/09 Q1028=
200607022320 METAR ESMX 022320Z 18005KT CAVOK 12/09 Q1028=
200607022250 METAR ESMX 022250Z 25001KT CAVOK 13/09 Q1028=
200607022220 METAR ESMX 022220Z 16004KT CAVOK 13/09 Q1028=
200607022150 METAR ESMX 022150Z 16004KT CAVOK 14/10 Q1028=
200607022120 METAR ESMX 022120Z 18004KT CAVOK 16/10 Q1028=
200607022050 METAR ESMX 022050Z 17004KT CAVOK 15/09 Q1028=
200607022020 METAR ESMX 022020Z 17004KT CAVOK 18/08 Q1028=
200607021950 METAR ESMX 021950Z 17004KT CAVOK 21/08 Q1027=
200607021920 METAR ESMX 021920Z 18007KT CAVOK 22/08 Q1027=
200607021850 METAR ESMX 021850Z 18008KT CAVOK 23/08 Q1027=
200607021820 METAR ESMX 021820Z 18009KT CAVOK 24/07 Q1027=
200607021750 METAR ESMX 021750Z AUTO 20006KT 9999NDV R01/P1500D R19/P1500D NCD 25/08 Q1027=
200607021720 METAR ESMX 021720Z AUTO 19006KT 160V230 9999NDV R01/P1500D R19/P1500D NCD 26/07 Q1027=
200607021650 METAR ESMX 021650Z AUTO 26004KT 170V290 9999NDV R01/P1500D R19/P1500U NCD 27/07 Q1027=
200607021620 METAR ESMX 021620Z AUTO 21007KT 110V220 9999NDV R01/P1500D R19/P1500D NCD 27/07 Q1027=
200607021550 METAR ESMX 021550Z 15003KT 060V230 CAVOK 27/07 Q1028=
200607021520 METAR ESMX 021520Z 13004KT 080V170 CAVOK 27/05 Q1028=
200607021450 METAR ESMX 021450Z VRB05KT CAVOK 27/06 Q1028=
200607021420 METAR ESMX 021420Z 14004KT 100V190 CAVOK 27/06 Q1028=
200607021350 METAR ESMX 021350Z 15006KT 110V220 CAVOK 28/08 Q1029=
200607021320 METAR ESMX 021320Z 11004KT 040V180 CAVOK 27/06 Q1029=
200607021250 METAR ESMX 021250Z 12003KT 020V180 CAVOK 27/08 Q1029=
200607021220 METAR ESMX 021220Z 15005KT 110V220 CAVOK 27/08 Q1030=
200607021150 METAR ESMX 021150Z 10004KT 040V150 CAVOK 26/09 Q1030=
200607021120 METAR ESMX 021120Z AUTO 16004KT 080V240 9999NDV R01/P1500U R19/P1500D NCD 26/08 Q1030=
200607021050 METAR ESMX 021050Z AUTO VRB04KT 9999NDV R01/P1500U R19/P1500D NCD 26/09 Q1030=
200607021020 METAR ESMX 021020Z AUTO 09005KT 040V140 9999NDV R01/P1500D R19/P1500U NCD 25/10 Q1030=
200607020950 METAR ESMX 020950Z AUTO 15005KT 060V230 9999NDV R01/P1500D R19/P1500D NCD 25/11 Q1030=
200607020920 METAR ESMX 020920Z AUTO 16004KT 120V220 9999NDV R01/P1500D R19/P1500D NCD 25/11 Q1030=
200607020850 METAR ESMX 020850Z AUTO 24003KT 200V280 9999NDV R01/P1500D R19/P1500U NCD 24/11 Q1031=
200607020820 METAR ESMX 020820Z AUTO 15004KT 080V210 9999NDV R01/P1500D R19/P1500N NCD 23/11 Q1031=
200607020750 METAR ESMX 020750Z AUTO 18003KT 120V260 9999NDV R01/P1500D R19/P1500U NCD 23/11 Q1031=
200607020720 METAR ESMX 020720Z AUTO 22003KT 140V270 9999NDV R01/P1500D R19/P1500U NCD 22/11 Q1031=
200607020650 METAR ESMX 020650Z AUTO 19003KT 140V250 9999NDV R01/P1500U R19/P1500D NCD 21/10 Q1031=
200607020620 METAR ESMX 020620Z AUTO 18004KT 140V210 9999NDV R01/P1500D R19/P1500D NCD 20/11 Q1031=
200607020550 METAR ESMX 020550Z AUTO 17003KT 140V210 9999NDV R01/P1500U R19/P1500D NCD 19/12 Q1031=
200607020520 METAR ESMX 020520Z AUTO 19003KT 9999NDV R01/P1500D R19/P1500U NCD 18/12 Q1031=
200607020450 METAR ESMX 020450Z AUTO 18003KT 150V210 9999NDV R01/P1500D R19/P1500U NCD 16/13 Q1031=
200607020420 METAR ESMX 020420Z AUTO VRB02KT 9999NDV R01/P1500U R19/P1500D NCD 15/13 Q1031=
200607020350 METAR ESMX 020350Z AUTO 16003KT 9999NDV R01/P1500D R19/P1500U NCD 12/11 Q1031=
200607020320 METAR ESMX 020320Z AUTO 16002KT 9999NDV R01/P1500D R19/P1500N NCD 10/09 Q1031=
200607020250 METAR ESMX 020250Z AUTO 17002KT 9999NDV R01/P1500U R19/P1500U NCD 10/09 Q1031=
200607020220 METAR ESMX 020220Z AUTO 17002KT 9999NDV R01/P1500U R19/P1500D NCD 09/09 Q1031=
200607020150 METAR ESMX 020150Z AUTO 17002KT 9999NDV R01/P1500U R19/P1500N NCD 10/09 Q1031=
200607020120 METAR ESMX 020120Z AUTO 17002KT 9999NDV R01/P1500N R19/P1500N NCD 10/10 Q1031=
200607020050 METAR ESMX 020050Z AUTO 00000KT 9999NDV R01/P1500N R19/P1500N NCD 11/09 Q1031=
200607020020 METAR ESMX 020020Z AUTO 00000KT 9999NDV R01/P1500N R19/P1500N NCD 11/10 Q1031=
200607012350 METAR ESMX 012350Z AUTO 19003KT 9999NDV R01/P1500N R19/P1500N NCD 12/10 Q1031=
200607012320 METAR ESMX 012320Z AUTO 18004KT 9999NDV R01/P1500N R19/P1500N NCD 12/10 Q1031=
200607012250 METAR ESMX 012250Z AUTO 18004KT 9999NDV R01/P1500N R19/P1500N NCD 13/10 Q1031=
200607012220 METAR ESMX 012220Z AUTO 18004KT 9999NDV R01/P1500N R19/P1500N NCD 14/10 Q1031=
200607012150 METAR ESMX 012150Z AUTO 17005KT 9999NDV R01/P1500N R19/P1500N NCD 18/10 Q1030=
200607012120 METAR ESMX 012120Z AUTO 16006KT 9999NDV R01/P1500N R19/P1500N NCD 19/11 Q1030=
200607012050 METAR ESMX 012050Z AUTO 17006KT 9999NDV R01/P1500D R19/P1500N NCD 19/12 Q1030=
200607012020 METAR ESMX 012020Z AUTO 15007KT 110V180 9999NDV R01/P1500N R19/P1500N NCD 20/12 Q1030=
200607011950 METAR ESMX 011950Z AUTO 15007KT 9999NDV R01/P1500N R19/P1500N NCD 21/12 Q1030=
200607011920 METAR ESMX 011920Z AUTO 15008KT 110V190 9999NDV R01/P1500N R19/P1500N SCT073/// 23/10 Q1029=
200607011850 METAR ESMX 011850Z AUTO VRB01KT 9999NDV R01/P1500D R19/P1500N NCD 24/10 Q1029=
200607011820 METAR ESMX 011820Z AUTO 24003KT 9999NDV R01/P1500U R19/P1500N NCD 25/08 Q1029=
200607011750 METAR ESMX 011750Z AUTO 23003KT 170V270 9999NDV R01/P1500U R19/P1500N NCD 25/07 Q1029=
200607011720 METAR ESMX 011720Z AUTO 27005KT 9999NDV R01/P1500D R19/P1500U NCD 26/07 Q1029=
200607011650 METAR ESMX 011650Z AUTO 20004KT 150V260 9999NDV R01/P1500D R19/P1500D NCD 26/08 Q1029=
200607011620 METAR ESMX 011620Z AUTO VRB02KT 9999NDV R01/P1500U R19/P1500U NCD 26/08 Q1029=
200607011550 METAR ESMX 011550Z AUTO 21005KT 170V270 9999NDV R01/P1500U R19/P1500D NCD 26/08 Q1029=
200607011520 METAR ESMX 011520Z AUTO 00000KT 9999NDV R01/P1500U R19/P1500D NCD 27/07 Q1029=
200607011450 METAR ESMX 011450Z AUTO 21005KT 100V270 9999NDV R01/P1500U R19/P1500D NCD 26/08 Q1030=
200607011420 METAR ESMX 011420Z AUTO 18005KT 110V200 9999NDV R01/P1500D R19/P1500D FEW070/// 27/08 Q1030=
200607011350 METAR ESMX 011350Z AUTO 21005KT 190V300 9999NDV R01/P1500N R19/P1500U NCD 26/08 Q1030=
200607011320 METAR ESMX 011320Z AUTO 16004KT 030V200 9999NDV R01/P1500D R19/P1500U NCD 26/08 Q1030=
200607011250 METAR ESMX 011250Z AUTO 24005KT 130V280 9999NDV R01/P1500U R19/P1500D NCD 26/08 Q1030=
200607011220 METAR ESMX 011220Z AUTO 21004KT 170V260 9999NDV R01/P1500D R19/P1500U NCD 26/07 Q1030=
