##########################################################
# Query made at 04/19/2024 20:49:58 UTC
# Time interval: from 03/01/2006 12:00  to 03/31/2006 12:59  UTC
##########################################################

##########################################################
# ESMX, Vaxjo (Sweden)
# WMO index: 02641. WIGOS ID: 0-20000-0-02648
# Latitude 56-51N. Longitude 014-50E. Altitude 199 m.
##########################################################

200603311250 METAR ESMX 311250Z 25009KT 210V290 9000 -RA FEW007 SCT011 BKN020 07/06 Q0991=
200603311220 METAR ESMX 311220Z 22009KT 150V250 6000 +SHRA FEW004 SCT008 BKN014 08/07 Q0991=
200603311150 METAR ESMX 311150Z 19010KT 5000 -SHRA BR BKN004 OVC007 08/07 Q0991=
200603311120 METAR ESMX 311120Z 19010KT 150V210 5000 -SHRA BR OVC004 08/07 Q0990=
200603311050 METAR ESMX 311050Z 17010KT 6000 BR OVC004 08/08 Q0990=
200603311020 METAR ESMX 311020Z 18009KT 5000 -SHRA BKN004 OVC006 08/08 Q0990=
200603310950 METAR ESMX 310950Z 19009KT 5000 BR OVC004 08/08 Q0990=
200603310920 METAR ESMX 310920Z 19010KT 4400 BR OVC002 08/08 Q0990=
200603310850 METAR ESMX 310850Z 20010KT 170V240 2700 BR OVC001 07/07 Q0991=
200603310750 METAR ESMX 310750Z 19009KT 1200 R19/P1500N BR OVC001 07/06 Q0991=
200603310720 METAR ESMX 310720Z 18007KT 2500 BR BKN003 OVC006 07/06 Q0991 RERA=
200603310620 METAR ESMX 310620Z 21007KT 5000 -RA OVC002 06/06 Q0991=
200603310550 METAR ESMX 310550Z 19007KT 160V220 5000 -RA BKN002 OVC004 06/06 Q0991=
200603310520 METAR ESMX 310520Z 20008KT 5000 -RA BR BKN004 06/06 Q0991 RERA=
200603310450 METAR ESMX 310450Z 16005KT 140V200 0550 R01/1000VP1500U R19/1200U FG DZ VV002 06/05 Q0991=
200603310350 METAR ESMX 310350Z 16005KT 0450 R01/1200N R19/P1500N FG VV002 04/04 Q0991=
200603310320 METAR ESMX 310320Z AUTO 16005KT 0350 R01/1200N R19/P1500D -SHRA VV001 04/04 Q0991=
200603310250 METAR ESMX 310250Z AUTO 16005KT 0700 R01/P1500N R19/P1500N -SHRA VV001 04/03 Q0991=
200603310220 METAR ESMX 310220Z AUTO 16006KT 0600 R01/P1500N R19/P1500N -SHRA VV001 04/03 Q0991=
200603310150 METAR ESMX 310150Z AUTO 16005KT 0450 R01/1400U R19/1400N -SHRA VV001 03/03 Q0991=
200603310120 METAR ESMX 310120Z AUTO 16005KT 0600 R01/P1500N R19/P1500N FG VV001 03/03 Q0992=
200603310050 METAR ESMX 310050Z AUTO 16005KT 1600 -SHRA VV001 03/03 Q0992=
200603310020 METAR ESMX 310020Z 15004KT 1300 R01/P1500N R19/P1500N DZ FG OVC002 02/02 Q0992 RERA=
200603302350 METAR ESMX 302350Z 15004KT 120V180 1000 R01/P1500N R19/P1500N DZ OVC002 02/02 Q0992=
200603302320 METAR ESMX 302320Z 14005KT 110V170 1600 -RA OVC002 02/02 Q0993=
200603302250 METAR ESMX 302250Z 14005KT 1500 -RA OVC002 02/02 Q0993=
200603302220 METAR ESMX 302220Z 13006KT 100V170 1700 DZ OVC002 02/02 Q0993=
200603302150 METAR ESMX 302150Z 13006KT 090V160 1800 OVC002 02/02 Q0994 RERA=
200603302120 METAR ESMX 302120Z 13006KT 050V170 2000 OVC002 02/02 Q0994 RERA=
200603302050 METAR ESMX 302050Z 14007KT 080V170 3600 -RA OVC003 02/02 Q0994=
200603302020 METAR ESMX 302020Z 11006KT 020V160 3400 -RA SCT004 BKN007 03/02 Q0994=
200603301950 METAR ESMX 301950Z 11005KT 070V170 5000 -RA OVC004 02/02 Q0995=
200603301920 METAR ESMX 301920Z 10006KT 060V150 5000 -RA OVC004 02/02 Q0995=
200603301850 METAR ESMX 301850Z 11006KT 070V140 5000 -RA SCT005 BKN008 02/01 Q0996=
200603301820 METAR ESMX 301820Z 12004KT 050V170 5000 -RA FEW007 SCT010 BKN013 02/01 Q0997=
200603301750 METAR ESMX 301750Z 11004KT 070V150 6000 -RA BKN016 01/01 Q0998=
200603301720 METAR ESMX 301720Z 11005KT 060V150 7000 RA FEW018 01/00 Q0998=
200603301650 METAR ESMX 301650Z 13005KT 100V160 9000 -RASN BKN024 02/00 Q0999=
200603301620 METAR ESMX 301620Z 13005KT 080V160 8000 RA FEW007 BKN023 02/M00 Q0999=
200603301550 METAR ESMX 301550Z 15006KT 110V170 9999 -RA SCT022 BKN100 03/M01 Q1000=
200603301520 METAR ESMX 301520Z 16007KT 130V200 9999 FEW024 BKN100 05/M02 Q1000=
200603301450 METAR ESMX 301450Z 16008KT 140V200 9999 FEW028 06/M02 Q1000=
200603301420 METAR ESMX 301420Z 14005KT 9999 FEW024 06/M02 Q1001=
200603301350 METAR ESMX 301350Z 16006KT CAVOK 06/M02 Q1001=
200603301250 METAR ESMX 301250Z 16007KT 9999 FEW030 07/M01 Q1001=
200603301220 METAR ESMX 301220Z 17009KT 9999 FEW030 07/00 Q1002=
200603301150 METAR ESMX 301150Z 19010KT 9999 FEW022 BKN150 07/01 Q1002=
200603301120 METAR ESMX 301120Z 19009KT 9999 FEW025 BKN150 06/00 Q1002=
200603301050 METAR ESMX 301050Z 19011KT 9999 FEW022 BKN150 05/01 Q1003=
200603301020 METAR ESMX 301020Z 19011KT 150V210 9999 FEW023 05/01 Q1003=
200603300950 METAR ESMX 300950Z 20009KT 9999 FEW018 05/01 Q1003=
200603300920 METAR ESMX 300920Z 22008KT 9999 SCT012 04/01 Q1003=
200603300850 METAR ESMX 300850Z 22008KT 180V250 9999 BKN011 03/01 Q1003=
200603300820 METAR ESMX 300820Z 23008KT 190V270 9999 BKN012 03/01 Q1003=
200603300750 METAR ESMX 300750Z 25010KT 9999 OVC008 03/01 Q1003=
200603300720 METAR ESMX 300720Z 22009KT 9999 BKN008 03/01 Q1003=
200603300650 METAR ESMX 300650Z 23009KT 200V270 9999 BKN008 02/01 Q1003=
200603300620 METAR ESMX 300620Z 23008KT 9999 BKN008 02/01 Q1003=
200603300550 METAR ESMX 300550Z 24009KT 9999 BKN008 02/01 Q1003=
200603300520 METAR ESMX 300520Z 21009KT 9999 FEW009 SCT011 BKN027 02/00 Q1003=
200603300450 METAR ESMX 300450Z 23008KT 9999 BKN010 OVC028 02/00 Q1003=
200603300420 METAR ESMX 300420Z 23007KT 200V310 9999 SCT011 BKN017 02/00 Q1003=
200603300350 METAR ESMX 300350Z 25008KT 220V290 9999 FEW013 BKN023 02/00 Q1003=
200603300320 METAR ESMX 300320Z AUTO 25009KT 9999 OVC021 02/00 Q1002=
200603300250 METAR ESMX 300250Z AUTO 25008KT 9999 FEW012 OVC023 02/00 Q1002=
200603300220 METAR ESMX 300220Z AUTO 24008KT 9999 FEW011 SCT015 OVC023 02/00 Q1002=
200603300150 METAR ESMX 300150Z AUTO 24009KT 9999 FEW015 OVC026 02/00 Q1002=
200603300120 METAR ESMX 300120Z AUTO 23008KT 190V260 9999 FEW013 SCT020 BKN028 02/00 Q1002=
200603300050 METAR ESMX 300050Z 26007KT 9999 FEW011 SCT016 BKN019 02/00 Q1002=
200603300020 METAR ESMX 300020Z 25009KT 220V280 9999 OVC009 03/01 Q1002=
200603292350 METAR ESMX 292350Z 24008KT 210V270 9999 OVC009 03/01 Q1002=
200603292150 METAR ESMX 292150Z 25008KT 220V280 9999 BKN005 OVC008 04/03 Q1001=
200603292120 METAR ESMX 292120Z 25007KT 9999 BKN005 OVC008 04/03 Q1001=
200603292050 METAR ESMX 292050Z 25007KT 220V290 9999 OVC005 04/03 Q1001 REDZ=
200603292020 METAR ESMX 292020Z 22006KT 5000 -SHRA SCT005 BKN008 OVC011 04/03 Q1000=
200603291950 METAR ESMX 291950Z 23007KT 170V260 4000 DZ SCT005 BKN008 04/04 Q1000=
200603291920 METAR ESMX 291920Z 20006KT 6000 BR SCT009 BKN015 04/03 Q1000 REDZ=
200603291850 METAR ESMX 291850Z 20007KT 5000 FEW008 BKN009 OVC018 05/03 Q0999 REDZ=
200603291820 METAR ESMX 291820Z 19009KT 6000 BR OVC009 05/03 Q0999=
200603291750 METAR ESMX 291750Z 18008KT 6000 BR FEW009 OVC011 05/03 Q0999=
200603291720 METAR ESMX 291720Z 18008KT 7000 FEW013 BKN015 05/04 Q0999=
200603291650 METAR ESMX 291650Z 18009KT 9999 FEW016 BKN023 06/03 Q0999=
200603291620 METAR ESMX 291620Z 18009KT 9999 FEW020 BKN037 06/03 Q0999=
200603291550 METAR ESMX 291550Z 19008KT 9999 FEW020 SCT026 OVC036 06/03 Q0999=
200603291520 METAR ESMX 291520Z 18009KT 9999 FEW023 OVC030 06/03 Q0998=
200603291450 METAR ESMX 291450Z 20006KT 9999 BKN020 OVC028 06/03 Q0998=
200603291420 METAR ESMX 291420Z 20008KT 9999 FEW025 BKN030 OVC038 06/03 Q0998=
200603291350 METAR ESMX 291350Z 21007KT 9999 FEW021 OVC031 07/03 Q0998=
200603291320 METAR ESMX 291320Z 22008KT 9999 FEW023 OVC034 07/03 Q0998=
200603291250 METAR ESMX 291250Z 21011KT 9999 FEW026 SCT038 OVC044 07/03 Q0998=
200603291220 METAR ESMX 291220Z 22010KT 180V240 9999 BKN025 OVC044 07/03 Q0998=
200603291150 METAR ESMX 291150Z 21008KT 9999 FEW026 SCT036 OVC046 08/03 Q0997=
200603291120 METAR ESMX 291120Z 22007KT 9999 SCT025 BKN032 OVC038 07/03 Q0997=
200603291050 METAR ESMX 291050Z 21009KT 9999 FEW022 BKN037 07/03 Q0997=
200603291020 METAR ESMX 291020Z 20009KT 9999 FEW024 BKN047 07/03 Q0997=
200603290950 METAR ESMX 290950Z 22011KT 9999 FEW019 07/03 Q0997=
200603290920 METAR ESMX 290920Z 20010KT 9999 FEW016 06/03 Q0997=
200603290850 METAR ESMX 290850Z 21010KT 9999 FEW015 06/03 Q0997=
200603290820 METAR ESMX 290820Z 21011KT 9999 SCT015 06/03 Q0997=
200603290750 METAR ESMX 290750Z 22009KT 9999 FEW013 05/03 Q0997=
200603290720 METAR ESMX 290720Z 22009KT 9999 FEW013 SCT080 05/02 Q0996=
200603290650 METAR ESMX 290650Z 21009KT 9999 FEW008 SCT080 04/02 Q0996=
200603290620 METAR ESMX 290620Z 19008KT 9999 FEW028 BKN081 03/02 Q0996=
200603290550 METAR ESMX 290550Z 19007KT 9999 -SHRA FEW028 BKN043 03/02 Q0996=
200603290520 METAR ESMX 290520Z 19008KT 9999 BKN041 OVC055 03/02 Q0996=
200603290450 METAR ESMX 290450Z 19008KT 9999 SCT043 BKN071 03/02 Q0996=
200603290420 METAR ESMX 290420Z 19008KT 9999 SCT045 BKN075 02/02 Q0996=
200603290350 METAR ESMX 290350Z 18008KT CAVOK 02/02 Q0996=
200603290320 METAR ESMX 290320Z AUTO 19008KT 9999 FEW019 03/02 Q0996=
200603290250 METAR ESMX 290250Z AUTO 19008KT 9999 SCT059 03/02 Q0996=
200603290220 METAR ESMX 290220Z AUTO 19008KT 9999 NSC 03/02 Q0996=
200603290150 METAR ESMX 290150Z AUTO 19008KT 9999 FEW014 03/02 Q0996=
200603290120 METAR ESMX 290120Z AUTO 19008KT 9999 FEW087 03/02 Q0996=
200603290050 METAR ESMX 290050Z AUTO 19007KT 9999 FEW085 03/02 Q0996=
200603290020 METAR ESMX 290020Z 19008KT 9999 SCT047 03/02 Q0996=
200603282350 METAR ESMX 282350Z 19008KT 9999 SCT035 BKN043 04/02 Q0996=
200603282320 METAR ESMX 282320Z 19010KT 9999 SCT048 04/02 Q0996=
200603282250 METAR ESMX 282250Z 19010KT CAVOK 04/02 Q0996=
200603282220 METAR ESMX 282220Z 20011KT CAVOK 04/03 Q0996=
200603282150 METAR ESMX 282150Z 19010KT CAVOK 04/03 Q0996=
200603282120 METAR ESMX 282120Z 19010KT 9999 BKN038 BKN062 04/03 Q0996=
200603282050 METAR ESMX 282050Z 19010KT 9999 SCT033 BKN041 04/03 Q0996=
200603282020 METAR ESMX 282020Z 18010KT 9999 BR FEW037 SCT042 BKN050 05/04 Q0996=
200603281950 METAR ESMX 281950Z 17009KT 9000 BR BKN045 05/04 Q0996=
200603281920 METAR ESMX 281920Z 17007KT 7000 BR BKN045 05/04 Q0996=
200603281850 METAR ESMX 281850Z 17007KT 7000 BR FEW008 BKN045 04/04 Q0996=
200603281820 METAR ESMX 281820Z 18006KT 5000 BR FEW020 BKN038 05/04 Q0996=
200603281750 METAR ESMX 281750Z 20007KT 7000 BR FEW007 OVC033 05/04 Q0996=
200603281720 METAR ESMX 281720Z 19010KT 7000 BR SCT004 BKN008 05/05 Q0995=
200603281650 METAR ESMX 281650Z 22009KT 3400 BR OVC004 05/05 Q0995=
200603281620 METAR ESMX 281620Z 22008KT 190V250 6000 BR BKN005 OVC009 06/05 Q0995=
200603281550 METAR ESMX 281550Z 23009KT 7000 BR OVC004 06/05 Q0995=
200603281520 METAR ESMX 281520Z 23010KT 200V260 5000 SCT005 OVC010 06/06 Q0995 REDZ=
200603281450 METAR ESMX 281450Z 22007KT 4500 -SHRA BKN005 OVC007 06/05 Q0995=
200603281420 METAR ESMX 281420Z 21007KT 4600 -RA OVC005 05/05 Q0995=
200603281350 METAR ESMX 281350Z 20008KT 170V230 4300 -DZ OVC005 05/05 Q0995=
200603281320 METAR ESMX 281320Z 21008KT 4600 -RA OVC003 05/05 Q0995=
200603281250 METAR ESMX 281250Z 21007KT 3900 BR FEW003 OVC004 05/05 Q0995=
200603281220 METAR ESMX 281220Z 21007KT 2900 BR OVC002 05/05 Q0995=
200603281150 METAR ESMX 281150Z 23007KT 200V260 2600 BR OVC002 05/05 Q0995=
200603281050 METAR ESMX 281050Z 22009KT 200V260 2200 BR OVC002 06/05 Q0994=
200603281020 METAR ESMX 281020Z 22008KT 190V250 2300 BR OVC002 05/05 Q0994=
200603280950 METAR ESMX 280950Z 24008KT 200V260 1900 -RA SCT002 OVC004 05/05 Q0994=
200603280920 METAR ESMX 280920Z 22008KT 190V250 2800 -RA OVC003 05/05 Q0994=
200603280850 METAR ESMX 280850Z 19009KT 5000 -RA OVC003 05/05 Q0994=
200603280820 METAR ESMX 280820Z 19009KT 4000 -RA FEW002 OVC004 05/05 Q0994=
200603280750 METAR ESMX 280750Z 19010KT 3400 RA BKN001 OVC004 05/05 Q0993=
200603280720 METAR ESMX 280720Z 19009KT 0350 R01/0800U R19/0800U RA VV002 05/05 Q0993=
200603280650 METAR ESMX 280650Z 19010KT 0500 R01/0750N R19/1000N DZ VV002 05/05 Q0993=
200603280620 METAR ESMX 280620Z 19009KT 0450 R01/0700V1000N R19/0650N -DZ VV002 05/05 Q0993=
200603280550 METAR ESMX 280550Z 19010KT 0500 R01/0750V1200N R19/0750N FG VV002 05/05 Q0993=
200603280520 METAR ESMX 280520Z 19009KT 0900 R01/P1500D R19/P1500U FG VV002 05/05 Q0993=
200603280450 METAR ESMX 280450Z 19009KT 1400 R01/P1500N R19/P1500N -RA FEW001 OVC002 05/05 Q0993=
200603280420 METAR ESMX 280420Z 19009KT 0900 R01/P1500N R19/P1500N FG VV002 05/05 Q0993=
200603280350 METAR ESMX 280350Z 19008KT 0900 R01/P1500N R19/P1500N -SHRA FG VV002 05/05 Q0993=
200603280320 METAR ESMX 280320Z AUTO 19008KT 2900 -DZ OVC002 05/05 Q0994=
200603280250 METAR ESMX 280250Z AUTO 19009KT 5000 -RA OVC002 06/05 Q0994=
200603280220 METAR ESMX 280220Z AUTO 19009KT 4700 RA BKN001 OVC004 06/05 Q0994=
200603280150 METAR ESMX 280150Z AUTO 19008KT 0500 R01/P1500N R19/0900VP1500U -RA VV001 05/05 Q0995=
200603280120 METAR ESMX 280120Z AUTO 21008KT 0250 R01/1000U R19/0800V1000U FG VV001 05/05 Q0995=
200603280050 METAR ESMX 280050Z AUTO 21007KT 0200 R01/0700N R19/0600N FG VV000 05/05 Q0995=
200603280020 METAR ESMX 280020Z 18006KT 0200 R01/0750N R19/0650N FG VV002 05/05 Q0995=
200603272350 METAR ESMX 272350Z 19005KT 0200 R01/0800N R19/0650N FG -SHRA VV002 04/04 Q0995=
200603272320 METAR ESMX 272320Z 16004KT 0150 R01/0700N R19/0650N FG DZ VV002 05/05 Q0995=
200603272250 METAR ESMX 272250Z VRB03KT 0150 R01/0650N R19/0750N FG VV002 05/04 Q0996=
200603272220 METAR ESMX 272220Z VRB03KT 0150 R01/0700N R19/0600N FG VV002 04/04 Q0996=
200603272150 METAR ESMX 272150Z VRB03KT 0200 R01/0700D R19/0750N FG VV002 05/04 Q0996=
200603272120 METAR ESMX 272120Z 16004KT 140V200 0150 R01/0650N R19/0650N FG VV002 05/04 Q0996=
200603272050 METAR ESMX 272050Z VRB03KT 0150 R01/0650N R19/0650N FG VV002 04/04 Q0996=
200603272020 METAR ESMX 272020Z VRB03KT 0150 R01/0650N R19/0600N FG VV002 05/04 Q0997=
200603271950 METAR ESMX 271950Z VRB03KT 0150 R01/0650N R19/0700N FG VV002 04/04 Q0997=
200603271920 METAR ESMX 271920Z 17005KT 0200 R01/0750N R19/0650N FG VV002 05/04 Q0997=
200603271850 METAR ESMX 271850Z 18006KT 0250 R01/0900N R19/0700N FG VV002 05/05 Q0997=
200603271820 METAR ESMX 271820Z 18006KT 0300 R01/1000N R19/0700D FG VV002 05/04 Q0997=
200603271750 METAR ESMX 271750Z 17005KT 0250 R01/0800N R19/0550D FG VV002 05/04 Q0997=
200603271720 METAR ESMX 271720Z 16005KT 0200 R01/0550N R19/0600N FG VV002 05/04 Q0997=
200603271650 METAR ESMX 271650Z 17005KT 0200 R01/0500N R19/0450N FG VV001 05/05 Q0997=
200603271620 METAR ESMX 271620Z 17006KT 0200 R01/0450N R19/0500N FG VV001 05/05 Q0997=
200603271550 METAR ESMX 271550Z 16006KT 140V200 0500 R01/0700D R19/0900V1400D FG VV002 05/05 Q0997=
200603271520 METAR ESMX 271520Z 16005KT 0300 R01/0450V0800N R19/0600V1000D FG VV002 05/05 Q0998=
200603271450 METAR ESMX 271450Z 16006KT 120V190 1600 BR OVC002 05/05 Q0998=
200603271420 METAR ESMX 271420Z 17006KT 110V200 2500 -RA BR OVC002 05/05 Q0998=
200603271350 METAR ESMX 271350Z 15004KT 070V200 6000 -RA OVC002 05/05 Q0999=
200603271320 METAR ESMX 271320Z 15005KT 120V200 3600 -RA OVC002 05/04 Q0999=
200603271250 METAR ESMX 271250Z 13005KT 080V160 3300 RA OVC002 05/04 Q0999=
200603271220 METAR ESMX 271220Z 12004KT 060V170 2500 BR OVC002 05/04 Q1000=
200603271150 METAR ESMX 271150Z VRB02KT 1900 -RA OVC002 05/04 Q1000=
200603271120 METAR ESMX 271120Z VRB03KT 1900 -RA OVC002 04/04 Q1001=
200603271050 METAR ESMX 271050Z 15004KT 100V180 2300 -RA OVC002 04/04 Q1001=
200603271020 METAR ESMX 271020Z 15004KT 110V190 1800 -RA OVC002 04/03 Q1002=
200603270950 METAR ESMX 270950Z VRB03KT 1100 R01/1200N R19/P1500D -SHRA BR OVC002 03/03 Q1002=
200603270920 METAR ESMX 270920Z VRB03KT 1100 R01/1100N R19/P1500U -DZ OVC002 03/03 Q1002=
200603270850 METAR ESMX 270850Z VRB03KT 0900 R01/1000N R19/1400N -RA VV002 02/02 Q1002=
200603270820 METAR ESMX 270820Z 15004KT 110V200 0550 R01/0750N R19/1000N -RA VV002 02/02 Q1002=
200603270750 METAR ESMX 270750Z 15004KT 100V170 0500 R01/0700N R19/0800N -RA VV002 02/01 Q1002=
200603270720 METAR ESMX 270720Z 15004KT 120V190 0300 R01/0500N R19/0700N -RA VV002 01/01 Q1003=
200603270650 METAR ESMX 270650Z VRB02KT 0300 R01/0550N R19/0650N FG VV002 01/01 Q1003=
200603270620 METAR ESMX 270620Z VRB02KT 0250 R01/0500N R19/0700N FG VV002 01/00 Q1003=
200603270550 METAR ESMX 270550Z VRB02KT 0300 R01/0550N R19/0700N FG VV002 00/00 Q1003=
200603270520 METAR ESMX 270520Z VRB02KT 0300 R01/0600N R19/0750N FG VV002 00/00 Q1003=
200603270450 METAR ESMX 270450Z VRB03KT 0300 R01/0750N R19/1000N FG VV002 00/00 Q1003=
200603270420 METAR ESMX 270420Z VRB03KT 0450 R01/1300N R19/P1500N FG VV002 00/00 Q1003=
200603270350 METAR ESMX 270350Z VRB03KT 0450 R01/1400N R19/P1500U FG VV002 00/00 Q1004=
200603270320 METAR ESMX 270320Z AUTO VRB02KT 0650 R01/P1500N R19/P1500N FG VV001 00/00 Q1004=
200603270250 METAR ESMX 270250Z AUTO VRB02KT 0900 R01/P1500N R19/P1500N FG VV002 00/00 Q1004=
200603270220 METAR ESMX 270220Z AUTO VRB03KT 1100 R01/P1500N R19/P1500N -SHSN OVC001 00/M00 Q1004=
200603270150 METAR ESMX 270150Z AUTO VRB03KT 1700 SG OVC001 00/M00 Q1005=
200603270120 METAR ESMX 270120Z AUTO VRB02KT 1300 R01/P1500N R19/P1500N BR OVC001 00/M00 Q1005=
200603270050 METAR ESMX 270050Z AUTO VRB02KT 2200 BR OVC001 00/M00 Q1005=
200603270020 METAR ESMX 270020Z VRB03KT 3000 BR OVC002 00/M00 Q1005=
200603262350 METAR ESMX 262350Z VRB03KT 2500 BR OVC002 00/M00 Q1005=
200603262320 METAR ESMX 262320Z VRB03KT 3500 BR OVC002 M00/M00 Q1006=
200603262250 METAR ESMX 262250Z 13004KT 070V190 5000 -RASN OVC002 M00/M01 Q1006=
200603262220 METAR ESMX 262220Z 13004KT 080V170 3000 RASN OVC003 M00/M01 Q1006=
200603262150 METAR ESMX 262150Z VRB03KT 3000 -RASN OVC004 M00/M01 Q1006=
200603262120 METAR ESMX 262120Z 13004KT 070V170 4100 -SN OVC005 M00/M01 Q1006=
200603262050 METAR ESMX 262050Z 11005KT 060V160 4200 -SN OVC006 M01/M01 Q1006=
200603262020 METAR ESMX 262020Z 12005KT 070V170 3800 -SN OVC007 M01/M01 Q1006=
200603261950 METAR ESMX 261950Z 11006KT 070V160 4400 -SN OVC007 M01/M02 Q1006=
200603261920 METAR ESMX 261920Z 11006KT 050V210 5000 -SN FEW005 SCT008 BKN009 M01/M02 Q1007=
200603261850 METAR ESMX 261850Z 12006KT 070V160 2000 -SN FEW007 BKN010 M01/M02 Q1007=
200603261820 METAR ESMX 261820Z 10007KT 030V170 2100 -SN FEW008 BKN013 M01/M02 Q1007=
200603261750 METAR ESMX 261750Z 10006KT 030V190 6000 -SN SCT012 BKN031 M01/M02 Q1007=
200603261650 METAR ESMX 261650Z 11008KT 060V160 6000 -SN FEW007 SCT028 BKN100 M00/M04 Q1008=
200603261620 METAR ESMX 261620Z 12008KT 070V170 7000 -SN FEW028 BKN100 01/M05 Q1008=
200603261550 METAR ESMX 261550Z 11009KT 050V140 9999 FEW025 BKN100 02/M07 Q1008=
200603261520 METAR ESMX 261520Z VRB08KT 9999 FEW027 BKN090 02/M06 Q1008=
200603261450 METAR ESMX 261450Z 11008KT 070V160 9999 FEW027 BKN080 02/M06 Q1008=
200603261420 METAR ESMX 261420Z 10008KT 050V150 9999 FEW032 BKN060 02/M07 Q1009=
200603261350 METAR ESMX 261350Z 12008KT 070V160 9999 FEW041N BKN060 02/M07 Q1009=
200603261320 METAR ESMX 261320Z 12008KT 070V160 9999 FEW039 BKN060 02/M07 Q1010=
200603261250 METAR ESMX 261250Z 12009KT 080V160 9999 FEW041 BKN060 03/M07 Q1010=
200603261220 METAR ESMX 261220Z 12009KT 070V170 9999 FEW040 BKN060 03/M07 Q1010=
200603261150 METAR ESMX 261150Z 11008KT 020V170 CAVOK 03/M06 Q1010=
200603261120 METAR ESMX 261120Z AUTO 11008KT 070V160 9999 SCT062 02/M06 Q1010=
200603261050 METAR ESMX 261050Z AUTO 12009KT 070V200 9999 FEW072 02/M05 Q1011=
200603261020 METAR ESMX 261020Z AUTO 13008G19KT 050V160 9999 SCT089 02/M05 Q1011=
200603260950 METAR ESMX 260950Z AUTO 13008KT 080V180 9999 BKN088 01/M05 Q1012=
200603260920 METAR ESMX 260920Z AUTO 14010KT 100V170 9999 BKN088 01/M05 Q1012=
200603260850 METAR ESMX 260850Z AUTO 12008KT 080V170 9999 FEW076 BKN087 01/M05 Q1012=
200603260820 METAR ESMX 260820Z AUTO 13009KT 060V180 9999 SCT083 01/M05 Q1012=
200603260750 METAR ESMX 260750Z AUTO 12007KT 080V170 9999 NSC M00/M06 Q1012=
200603260720 METAR ESMX 260720Z AUTO 12006KT 070V170 9999 FEW061 M01/M06 Q1013=
200603260650 METAR ESMX 260650Z AUTO 12006KT 080V180 9999 NSC M01/M07 Q1013=
200603260620 METAR ESMX 260620Z AUTO 12006KT 070V160 9999 NSC M02/M07 Q1013=
200603260550 METAR ESMX 260550Z AUTO 12005KT 060V170 9999 NSC M03/M08 Q1013=
200603260520 METAR ESMX 260520Z AUTO 12005KT 060V160 9999 NSC M04/M09 Q1013=
200603260450 METAR ESMX 260450Z AUTO 12004KT 060V150 9999 NSC M05/M11 Q1013=
200603260420 METAR ESMX 260420Z AUTO 10004KT 070V170 9999 NSC M05/M12 Q1014=
200603260350 METAR ESMX 260350Z AUTO VRB03KT 9999 NSC M07/M13 Q1014=
200603260320 METAR ESMX 260320Z AUTO VRB02KT 9999 NSC M07/M12 Q1014=
200603260250 METAR ESMX 260250Z AUTO VRB02KT 9999 NSC M06/M12 Q1014=
200603260220 METAR ESMX 260220Z AUTO VRB02KT 9999 NSC M05/M12 Q1015=
200603260150 METAR ESMX 260150Z AUTO VRB02KT 9999 NSC M05/M12 Q1015=
200603260120 METAR ESMX 260120Z AUTO VRB01KT 9999 NSC M05/M13 Q1015=
200603260050 METAR ESMX 260050Z AUTO VRB03KT 9999 NSC M06/M12 Q1016=
200603260020 METAR ESMX 260020Z AUTO VRB02KT 9999 NSC M05/M12 Q1015=
200603252350 METAR ESMX 252350Z AUTO VRB01KT 9999 NSC M06/M12 Q1015=
200603252320 METAR ESMX 252320Z AUTO VRB02KT 9999 NSC M04/M13 Q1015=
200603252250 METAR ESMX 252250Z AUTO VRB01KT 9999 NSC M05/M10 Q1016=
200603252220 METAR ESMX 252220Z AUTO VRB02KT 9999 NSC M05/M12 Q1016=
200603252150 METAR ESMX 252150Z AUTO VRB02KT 9999 NSC M04/M12 Q1015=
200603252120 METAR ESMX 252120Z AUTO VRB03KT 9999 NSC M03/M12 Q1015=
200603252050 METAR ESMX 252050Z AUTO VRB03KT 9999 NSC M03/M13 Q1015=
200603252020 METAR ESMX 252020Z AUTO VRB03KT 9999 NSC M02/M13 Q1015=
200603251950 METAR ESMX 251950Z AUTO VRB02KT 9999 NSC M02/M13 Q1015=
200603251920 METAR ESMX 251920Z AUTO VRB02KT 9999 NSC M01/M13 Q1015=
200603251850 METAR ESMX 251850Z AUTO VRB03KT 9999 NSC M01/M13 Q1015=
200603251820 METAR ESMX 251820Z AUTO VRB02KT 9999 NSC M01/M13 Q1015=
200603251750 METAR ESMX 251750Z AUTO VRB02KT 9999 NSC M01/M13 Q1015=
200603251720 METAR ESMX 251720Z AUTO VRB02KT 9999 NSC 01/M16 Q1014=
200603251650 METAR ESMX 251650Z AUTO 13004KT 080V180 9999 NSC 02/M15 Q1014=
200603251620 METAR ESMX 251620Z AUTO 12004KT 040V160 9999 NSC 04/M16 Q1014=
200603251550 METAR ESMX 251550Z AUTO 06005KT 020V120 9999 NSC 04/M16 Q1014=
200603251520 METAR ESMX 251520Z AUTO 10006KT 050V150 9999 NSC 04/M16 Q1013=
200603251450 METAR ESMX 251450Z AUTO 12005KT 030V170 9999 NSC 05/M15 Q1014=
200603251420 METAR ESMX 251420Z AUTO 08007KT 020V130 9999 NSC 04/M15 Q1014=
200603251350 METAR ESMX 251350Z AUTO 08006KT 330V140 9999 NSC 04/M14 Q1014=
200603251320 METAR ESMX 251320Z AUTO 10007KT 050V150 9999 NSC 04/M13 Q1014=
200603251250 METAR ESMX 251250Z AUTO 08006KT 010V140 9999 NSC 04/M15 Q1014=
200603251220 METAR ESMX 251220Z AUTO 07007KT 020V140 9999 NSC 04/M14 Q1014=
200603251150 METAR ESMX 251150Z AUTO 07007KT 020V130 9999 NSC 04/M14 Q1014=
200603251120 METAR ESMX 251120Z AUTO 05008KT 020V130 9999 NSC 03/M12 Q1014=
200603251050 METAR ESMX 251050Z AUTO 08007KT 020V140 9999 NSC 03/M11 Q1014=
200603251020 METAR ESMX 251020Z AUTO 06007KT 020V110 9999 NSC 02/M11 Q1014=
200603250950 METAR ESMX 250950Z AUTO 08007KT 020V130 9999 NSC 01/M10 Q1014=
200603250920 METAR ESMX 250920Z AUTO 07007KT 040V120 9999 NSC 00/M09 Q1013=
200603250850 METAR ESMX 250850Z AUTO 07008KT 030V110 9999 NSC M00/M08 Q1013=
200603250820 METAR ESMX 250820Z AUTO 06005KT 010V100 9999 NSC M01/M08 Q1014=
200603250750 METAR ESMX 250750Z AUTO 05006KT 010V080 9999 NSC M02/M09 Q1013=
200603250720 METAR ESMX 250720Z AUTO 05005KT 020V080 9999 NSC M03/M10 Q1013=
200603250650 METAR ESMX 250650Z AUTO 04006KT 9999 NSC M05/M10 Q1013=
200603250620 METAR ESMX 250620Z AUTO 04005KT 010V120 9999 NSC M05/M10 Q1013=
200603250550 METAR ESMX 250550Z AUTO 04004KT 020V080 9999 NSC M06/M09 Q1012=
200603250520 METAR ESMX 250520Z AUTO 04004KT 9999 NSC M07/M09 Q1013=
200603250450 METAR ESMX 250450Z AUTO 04004KT 9999 NSC M07/M09 Q1013=
200603250420 METAR ESMX 250420Z AUTO 04004KT 9999 NSC M07/M09 Q1013=
200603250350 METAR ESMX 250350Z AUTO VRB02KT 9999 NSC M07/M09 Q1013=
200603250320 METAR ESMX 250320Z AUTO 04006KT 9999 NSC M06/M08 Q1012=
200603250250 METAR ESMX 250250Z AUTO 03006KT 9999 NSC M05/M07 Q1012=
200603250220 METAR ESMX 250220Z AUTO 04005KT 9999 NSC M05/M07 Q1012=
200603250150 METAR ESMX 250150Z AUTO 04005KT 9999 NSC M05/M06 Q1013=
200603250120 METAR ESMX 250120Z AUTO 01006KT 9999 BR NSC M05/M05 Q1013=
200603250050 METAR ESMX 250050Z AUTO 03004KT 9000 BR NSC M05/M05 Q1012=
200603250020 METAR ESMX 250020Z AUTO 03004KT 9999 NSC M05/M06 Q1012=
200603242350 METAR ESMX 242350Z AUTO 04005KT 9999 SCT039 M04/M04 Q1012=
200603242320 METAR ESMX 242320Z AUTO 04004KT 9999 BKN040 M04/M05 Q1012=
200603242250 METAR ESMX 242250Z AUTO VRB03KT 5000 BR FEW015 M04/M05 Q1012=
200603242220 METAR ESMX 242220Z AUTO VRB03KT 4800 BR NSC M05/M05 Q1012=
200603242150 METAR ESMX 242150Z AUTO VRB03KT 4000 BR FEW000 M05/M05 Q1012=
200603242120 METAR ESMX 242120Z AUTO VRB02KT 9999 NSC M03/M04 Q1012=
200603242050 METAR ESMX 242050Z AUTO VRB02KT 9999 NSC M03/M04 Q1012=
200603242020 METAR ESMX 242020Z AUTO VRB03KT 9999 NSC M02/M03 Q1012=
200603241950 METAR ESMX 241950Z AUTO 03005KT 9999 NSC M02/M03 Q1012=
200603241920 METAR ESMX 241920Z AUTO 03005KT 9999 NSC M01/M03 Q1011=
200603241850 METAR ESMX 241850Z AUTO 03006KT 9999 FEW018 M01/M03 Q1011=
200603241820 METAR ESMX 241820Z 03006KT CAVOK M00/M03 Q1011=
200603241750 METAR ESMX 241750Z 02005KT CAVOK 00/M03 Q1011=
200603241720 METAR ESMX 241720Z 03005KT CAVOK 01/M03 Q1011=
200603241650 METAR ESMX 241650Z 02006KT 9999 FEW043 SCT052 02/M03 Q1010=
200603241620 METAR ESMX 241620Z 36006KT 9999 FEW040 SCT055 03/M03 Q1010=
200603241550 METAR ESMX 241550Z 36007KT 9999 FEW043 BKN053 02/M03 Q1010=
200603241520 METAR ESMX 241520Z 34008KT 9999 FEW035 BKN050 02/M03 Q1010=
200603241450 METAR ESMX 241450Z 32008KT 270V360 9999 BKN040 04/M05 Q1010=
200603241420 METAR ESMX 241420Z 30006KT 9999 SCT043 BKN052 04/M05 Q1010=
200603241350 METAR ESMX 241350Z 22008KT 180V290 9999 FEW025 BKN045 04/M06 Q1010=
200603241320 METAR ESMX 241320Z 26007KT 170V300 9999 FEW027 BKN045 04/M06 Q1010=
200603241250 METAR ESMX 241250Z 25006KT 190V290 9999 FEW038 SCT045 BKN061 04/M06 Q1010=
200603241220 METAR ESMX 241220Z 23006KT 190V300 9999 BKN039 03/M06 Q1010=
200603241150 METAR ESMX 241150Z 21010KT 9999 BKN038 03/M05 Q1011=
200603241120 METAR ESMX 241120Z 22011KT 9999 FEW037 BKN043 03/M05 Q1011=
200603241050 METAR ESMX 241050Z 18012KT 9999 BKN045 02/M05 Q1011=
200603241020 METAR ESMX 241020Z 19009KT 9999 BKN044 02/M05 Q1011=
200603240950 METAR ESMX 240950Z 17009KT 9999 OVC045 01/M05 Q1011=
200603240920 METAR ESMX 240920Z 17008KT 9999 FEW040 OVC048 M00/M05 Q1011=
200603240850 METAR ESMX 240850Z 18008KT 9999 FEW039 OVC049 M01/M05 Q1011=
200603240820 METAR ESMX 240820Z 18006KT 9999 BKN038 M02/M05 Q1011=
200603240750 METAR ESMX 240750Z 17004KT 140V200 9999 BKN040 M03/M05 Q1012=
200603240720 METAR ESMX 240720Z 17004KT 140V210 9999 SCT041 OVC053 M03/M06 Q1012=
200603240650 METAR ESMX 240650Z 18004KT 9999 FEW032 OVC040 M04/M06 Q1012=
200603240620 METAR ESMX 240620Z 15004KT 9999 FEW026 BKN042 M04/M06 Q1012=
200603240550 METAR ESMX 240550Z 16004KT 9999 FEW038 BKN044 M05/M06 Q1012=
200603240520 METAR ESMX 240520Z 16004KT 9999 BKN045 M05/M06 Q1012=
200603240450 METAR ESMX 240450Z 16004KT 9999 FEW027 SCT045 BKN051 M05/M07 Q1012=
200603240420 METAR ESMX 240420Z AUTO 17004KT 9999 BKN045 M07/M08 Q1012=
200603240350 METAR ESMX 240350Z AUTO 18004KT 9999 FEW045 BKN064 M08/M10 Q1012=
200603240320 METAR ESMX 240320Z AUTO VRB03KT 9999 FEW061 SCT072 M06/M07 Q1012=
200603240250 METAR ESMX 240250Z AUTO VRB03KT 9999 SCT068 M05/M07 Q1012=
200603240220 METAR ESMX 240220Z AUTO 16004KT 9999 SCT067 BKN110 M06/M07 Q1012=
200603240150 METAR ESMX 240150Z AUTO 18004KT 9999 SCT067 M05/M07 Q1013=
200603240120 METAR ESMX 240120Z AUTO VRB03KT 9999 SCT069 M06/M08 Q1013=
200603240050 METAR ESMX 240050Z 17004KT CAVOK M05/M07 Q1013=
200603240020 METAR ESMX 240020Z 17004KT CAVOK M05/M07 Q1013=
200603232350 METAR ESMX 232350Z 17005KT CAVOK M04/M07 Q1013=
200603232320 METAR ESMX 232320Z 18006KT CAVOK M04/M07 Q1013=
200603232250 METAR ESMX 232250Z 21006KT CAVOK M05/M07 Q1013=
200603232220 METAR ESMX 232220Z 20006KT CAVOK M04/M06 Q1013=
200603232150 METAR ESMX 232150Z 21004KT CAVOK M04/M06 Q1013=
200603232120 METAR ESMX 232120Z 22004KT CAVOK M04/M07 Q1014=
200603232050 METAR ESMX 232050Z VRB03KT CAVOK M03/M06 Q1013=
200603232020 METAR ESMX 232020Z 23005KT CAVOK M03/M06 Q1013=
200603231950 METAR ESMX 231950Z 24005KT CAVOK M03/M06 Q1013=
200603231920 METAR ESMX 231920Z 22004KT CAVOK M03/M06 Q1013=
200603231850 METAR ESMX 231850Z VRB03KT CAVOK M02/M06 Q1013=
200603231820 METAR ESMX 231820Z VRB03KT CAVOK M01/M06 Q1013=
200603231750 METAR ESMX 231750Z 26004KT 220V300 CAVOK M00/M06 Q1013=
200603231720 METAR ESMX 231720Z 27005KT 230V330 CAVOK 01/M06 Q1012=
200603231650 METAR ESMX 231650Z 27006KT 240V300 9999 FEW035 01/M06 Q1012=
200603231620 METAR ESMX 231620Z 26010KT 220V310 9999 FEW035 02/M05 Q1012=
200603231550 METAR ESMX 231550Z 25011KT 220V280 9999 SCT040 02/M06 Q1012=
200603231520 METAR ESMX 231520Z 27011KT 230V310 9999 FEW030CB SCT045 02/M06 Q1012=
200603231450 METAR ESMX 231450Z 26012KT 230V300 9999 FEW043 SCT055 03/M07 Q1012=
200603231420 METAR ESMX 231420Z 27009KT 220V320 9999 FEW015CB SCT045 03/M07 Q1011=
200603231350 METAR ESMX 231350Z 30008KT 260V350 9999 FEW010 SCT050 02/M06 Q1011=
200603231320 METAR ESMX 231320Z AUTO 26005KT 140V300 9999 FEW018 SCT057 03/M06 Q1011 RERA=
200603231250 METAR ESMX 231250Z 30009KT 260V340 9999 FEW028 SCT045 02/M06 Q1012=
200603231220 METAR ESMX 231220Z 27010KT 220V320 9999 BKN032 02/M06 Q1012 RERA=
200603231150 METAR ESMX 231150Z 25011KT 210V280 9999 SHSN FEW020 BKN050 01/M05 Q1012=
200603231120 METAR ESMX 231120Z 26008KT 230V290 9999 -SHSN FEW017 BKN030CB 01/M05 Q1011=
200603231050 METAR ESMX 231050Z AUTO 26008KT 220V300 9999 FEW020 SCT026 01/M04 Q1011=
200603231020 METAR ESMX 231020Z AUTO 25007KT 210V290 9999 FEW014 SCT019 BKN022 M01/M04 Q1012=
200603230950 METAR ESMX 230950Z 23008KT 210V290 9999 FEW008 M02/M04 Q1011=
200603230920 METAR ESMX 230920Z AUTO 23007KT 200V260 9999 BKN005 OVC009 M03/M04 Q1011=
200603230850 METAR ESMX 230850Z AUTO 25005KT 230V290 9999 BKN003 OVC006 M03/M04 Q1011=
200603230820 METAR ESMX 230820Z 26005KT 6000 BR OVC002 M04/M05 Q1011=
200603230750 METAR ESMX 230750Z VRB03KT 2300 BR OVC001 M05/M06 Q1011=
200603230720 METAR ESMX 230720Z 24004KT 1000 R01/1100N R19/0900N FZFG OVC001 M06/M06 Q1010=
200603230650 METAR ESMX 230650Z 25005KT 0350 R01/0450V0750N R19/0800V1200N FZFG VV002 M06/M07 Q1010=
200603230620 METAR ESMX 230620Z VRB03KT 0350 R01/0600N R19/0600U FZFG VV001 M06/M07 Q1010=
200603230550 METAR ESMX 230550Z 26004KT 0250 R01/0550N R19/0450N FZFG VV002 M07/M07 Q1009=
200603230520 METAR ESMX 230520Z VRB02KT 0600 R01/P1500D R19/P1500D FZFG VV002 M08/M08 Q1009=
200603230450 METAR ESMX 230450Z VRB02KT 9999 BKN002 M12/M13 Q1009=
200603230420 METAR ESMX 230420Z AUTO VRB01KT 9999 NSC M13/M14 Q1009=
200603230350 METAR ESMX 230350Z AUTO VRB03KT 9999 NSC M13/M13 Q1009=
200603230320 METAR ESMX 230320Z AUTO VRB02KT 9999 NSC M13/M14 Q1009=
200603230250 METAR ESMX 230250Z AUTO VRB02KT 9999 NSC M12/M13 Q1008=
200603230220 METAR ESMX 230220Z AUTO VRB01KT 9999 NSC M11/M12 Q1008=
200603230150 METAR ESMX 230150Z AUTO VRB03KT 9999 NSC M10/M11 Q1008=
200603230120 METAR ESMX 230120Z VRB02KT CAVOK M10/M11 Q1008=
200603230050 METAR ESMX 230050Z VRB03KT CAVOK M08/M10 Q1008=
200603230020 METAR ESMX 230020Z 25004KT CAVOK M07/M10 Q1008=
200603222350 METAR ESMX 222350Z 24004KT CAVOK M07/M10 Q1008=
200603222320 METAR ESMX 222320Z VRB03KT CAVOK M06/M10 Q1008=
200603222250 METAR ESMX 222250Z VRB03KT CAVOK M06/M10 Q1007=
200603222220 METAR ESMX 222220Z VRB03KT CAVOK M06/M11 Q1007=
200603222150 METAR ESMX 222150Z VRB03KT CAVOK M05/M11 Q1007=
200603222120 METAR ESMX 222120Z 25004KT CAVOK M05/M11 Q1007=
200603222050 METAR ESMX 222050Z 24004KT CAVOK M04/M11 Q1007=
200603222020 METAR ESMX 222020Z 25005KT CAVOK M04/M11 Q1006=
200603221950 METAR ESMX 221950Z 26005KT CAVOK M03/M11 Q1006=
200603221920 METAR ESMX 221920Z 26005KT CAVOK M03/M11 Q1006=
200603221850 METAR ESMX 221850Z 26005KT CAVOK M02/M11 Q1006=
200603221820 METAR ESMX 221820Z 26006KT CAVOK M02/M11 Q1005=
200603221750 METAR ESMX 221750Z 26007KT CAVOK M02/M12 Q1005=
200603221720 METAR ESMX 221720Z 26006KT CAVOK M01/M13 Q1005=
200603221650 METAR ESMX 221650Z 26008KT 230V300 CAVOK M00/M12 Q1005=
200603221620 METAR ESMX 221620Z 27007KT 230V010 9999 FEW020 01/M11 Q1004=
200603221550 METAR ESMX 221550Z 35004KT 320V050 9999 FEW020 M01/M05 Q1004=
200603221520 METAR ESMX 221520Z 36004KT 320V040 9999 FEW008 SCT040 00/M07 Q1004 RERA=
200603221450 METAR ESMX 221450Z VRB03KT 9999 BKN040 FEW040CB 01/M07 Q1004=
200603221420 METAR ESMX 221420Z 17007KT 9999 BKN032 01/M06 Q1004=
200603221350 METAR ESMX 221350Z 20004KT 140V240 9999 FEW037 SCT045 00/M07 Q1004=
200603221320 METAR ESMX 221320Z 29005KT 240V340 9999 BKN030 M00/M06 Q1005=
200603221250 METAR ESMX 221250Z 23006KT 190V290 9999 FEW017 SCT036 01/M05 Q1005=
200603221150 METAR ESMX 221150Z VRB03KT 8000 -SN FEW006 BKN010 M02/M04 Q1005=
200603221120 METAR ESMX 221120Z 23004KT 200V270 9999 OVC007 M03/M04 Q1005=
200603221050 METAR ESMX 221050Z VRB03KT 9000 BR OVC006 M03/M04 Q1005=
200603221020 METAR ESMX 221020Z 19004KT 160V230 7000 BR OVC004 M05/M06 Q1005=
200603220950 METAR ESMX 220950Z 18007KT 4700 BR FEW003 OVC004 M05/M06 Q1005=
200603220920 METAR ESMX 220920Z VRB03KT 4500 BR BKN002 OVC005 M05/M06 Q1005=
200603220850 METAR ESMX 220850Z VRB02KT 1800 BR OVC002 M06/M07 Q1005=
200603220820 METAR ESMX 220820Z VRB02KT 1600 R01/0800V1100U R19/0900VP1500D FZFG OVC002 M06/M07 Q1005=
200603220750 METAR ESMX 220750Z VRB02KT 0500 R01/0650N R19/0700N FZFG VV002 M07/M07 Q1005=
200603220720 METAR ESMX 220720Z 18004KT 0350 R01/0350V0550N R19/0400N FZFG VV002 M07/M08 Q1005=
200603220650 METAR ESMX 220650Z VRB03KT 0300 R01/0500N R19/0350V0500N FZFG VV002 M07/M08 Q1005=
200603220620 METAR ESMX 220620Z VRB01KT 1200 R01/0650V1400D R19/P1500D -SHSN BR VV002 M08/M09 Q1005=
200603220550 METAR ESMX 220550Z VRB02KT 0800 R01/0900U R19/1000U FZFG VV002 M08/M09 Q1005=
200603220520 METAR ESMX 220520Z VRB02KT 0150 R01/0400N R19/0700N FZFG VV002 M08/M09 Q1005=
200603220450 METAR ESMX 220450Z VRB02KT 0150 R01/0500N R19/P1500N FZFG VV002 M08/M09 Q1005=
200603220420 METAR ESMX 220420Z AUTO VRB02KT 8000 OVC001 M08/M09 Q1005=
200603220350 METAR ESMX 220350Z AUTO 00000KT 9999 OVC002 M09/M10 Q1005=
200603220320 METAR ESMX 220320Z AUTO 00000KT 9999 OVC001 M10/M11 Q1005=
200603220250 METAR ESMX 220250Z AUTO 00000KT 9999 OVC002 M10/M11 Q1005=
200603220220 METAR ESMX 220220Z AUTO VRB01KT 9999 FEW003 M11/M12 Q1005=
200603220150 METAR ESMX 220150Z AUTO 00000KT 9999 NSC M10/M11 Q1005=
200603220120 METAR ESMX 220120Z AUTO VRB01KT 9999 NSC M10/M11 Q1006=
200603220050 METAR ESMX 220050Z VRB02KT 9999 FEW036 SCT074 M09/M11 Q1006=
200603220020 METAR ESMX 220020Z 18004KT CAVOK M09/M10 Q1006=
200603212350 METAR ESMX 212350Z 18004KT CAVOK M09/M10 Q1006=
200603212320 METAR ESMX 212320Z VRB02KT CAVOK M08/M09 Q1006=
200603212250 METAR ESMX 212250Z VRB01KT CAVOK M08/M09 Q1006=
200603212220 METAR ESMX 212220Z VRB02KT CAVOK M08/M09 Q1006=
200603212150 METAR ESMX 212150Z VRB01KT CAVOK M05/M08 Q1006=
200603212120 METAR ESMX 212120Z 18004KT CAVOK M05/M08 Q1006=
200603212050 METAR ESMX 212050Z VRB03KT CAVOK M05/M08 Q1006=
200603212020 METAR ESMX 212020Z 25004KT CAVOK M03/M09 Q1006=
200603211950 METAR ESMX 211950Z 24004KT CAVOK M03/M09 Q1006=
200603211920 METAR ESMX 211920Z 25005KT CAVOK M03/M09 Q1006=
200603211850 METAR ESMX 211850Z VRB03KT CAVOK M03/M10 Q1006=
200603211820 METAR ESMX 211820Z VRB02KT CAVOK M02/M10 Q1006=
200603211750 METAR ESMX 211750Z 22005KT CAVOK M01/M11 Q1005=
200603211720 METAR ESMX 211720Z 18005KT CAVOK 00/M12 Q1005=
200603211650 METAR ESMX 211650Z 18004KT CAVOK 01/M11 Q1005=
200603211620 METAR ESMX 211620Z 18004KT CAVOK 01/M12 Q1005=
200603211550 METAR ESMX 211550Z 19008KT CAVOK 01/M12 Q1005=
200603211520 METAR ESMX 211520Z 21007KT CAVOK 02/M13 Q1005=
200603211450 METAR ESMX 211450Z 21006KT 9999 FEW05CB SCT090 02/M14 Q1005=
200603211420 METAR ESMX 211420Z 22008KT 9999 FEW050CB SCT089 03/M12 Q1005=
200603211350 METAR ESMX 211350Z 22004KT 180V290 CAVOK 02/M13 Q1006=
200603211320 METAR ESMX 211320Z 28004KT CAVOK 01/M14 Q1006=
200603211250 METAR ESMX 211250Z 30007KT 260V350 CAVOK 02/M13 Q1006=
200603211220 METAR ESMX 211220Z 31006KT 280V340 CAVOK 02/M12 Q1006=
200603211150 METAR ESMX 211150Z 29006KT 240V320 CAVOK 02/M13 Q1006=
200603211120 METAR ESMX 211120Z 27008KT 240V320 CAVOK 02/M12 Q1006=
200603211050 METAR ESMX 211050Z 30008KT 250V330 CAVOK 01/M12 Q1006=
200603211020 METAR ESMX 211020Z 27008KT 9999 FEW020 01/M12 Q1006=
200603210950 METAR ESMX 210950Z 26007KT CAVOK 01/M12 Q1006=
200603210920 METAR ESMX 210920Z 28008KT CAVOK M00/M11 Q1006=
200603210850 METAR ESMX 210850Z 26008KT 230V300 CAVOK M01/M10 Q1006=
200603210820 METAR ESMX 210820Z 25006KT CAVOK M02/M09 Q1007=
200603210750 METAR ESMX 210750Z 26005KT 2 CAVOK M04/M09 Q1006=
200603210720 METAR ESMX 210720Z VRB02KT CAVOK M05/M08 Q1006=
200603210650 METAR ESMX 210650Z VRB03KT CAVOK M07/M08 Q1006=
200603210620 METAR ESMX 210620Z VRB03KT CAVOK M09/M10 Q1006=
200603210550 METAR ESMX 210550Z VRB03KT CAVOK M10/M11 Q1006=
200603210520 METAR ESMX 210520Z VRB03KT CAVOK M13/M14 Q1006=
200603210450 METAR ESMX 210450Z VRB02KT CAVOK M12/M13 Q1006=
200603210420 METAR ESMX 210420Z AUTO VRB01KT 9999 NSC M11/M12 Q1006=
200603210350 METAR ESMX 210350Z AUTO VRB01KT 9999 NSC M12/M14 Q1006=
200603210320 METAR ESMX 210320Z AUTO VRB02KT 9999 NSC M10/M11 Q1006=
200603210250 METAR ESMX 210250Z AUTO VRB02KT 9999 NSC M11/M12 Q1006=
200603210220 METAR ESMX 210220Z AUTO VRB02KT 9999 NSC M10/M11 Q1006=
200603210150 METAR ESMX 210150Z AUTO VRB03KT 9999 NSC M08/M09 Q1006=
200603210120 METAR ESMX 210120Z AUTO VRB02KT 9999 NSC M10/M11 Q1006=
200603210050 METAR ESMX 210050Z VRB02KT CAVOK M10/M11 Q1006=
200603210020 METAR ESMX 210020Z 00000KT CAVOK M08/M08 Q1006=
200603202350 METAR ESMX 202350Z VRB01KT CAVOK M09/M10 Q1006=
200603202250 METAR ESMX 202250Z VRB02KT CAVOK M07/M08 Q1006=
200603202220 METAR ESMX 202220Z VRB02KT CAVOK M06/M07 Q1006=
200603202150 METAR ESMX 202150Z VRB03KT CAVOK M05/M07 Q1006=
200603202120 METAR ESMX 202120Z 32004KT CAVOK M04/M06 Q1005=
200603202050 METAR ESMX 202050Z 33005KT CAVOK M05/M07 Q1005=
200603202020 METAR ESMX 202020Z 34007KT 9999 NSC M04/M06 Q1005=
200603201950 METAR ESMX 201950Z 34007KT 9999 FEW030 M04/M05 Q1005=
200603201920 METAR ESMX 201920Z 36004KT 9999 FEW028 M03/M05 Q1004=
200603201850 METAR ESMX 201850Z 35007KT 9999 FEW030 SCT055 M02/M05 Q1004=
200603201820 METAR ESMX 201820Z 01006KT 9999 FEW022 SCT055 M02/M04 Q1004=
200603201750 METAR ESMX 201750Z 02009KT 9999 -SN FEW007 SCT027 M02/M03 Q1004=
200603201720 METAR ESMX 201720Z 01009KT 2000 -SN SCT006 BKN018 M01/M02 Q1003=
200603201650 METAR ESMX 201650Z 02008KT 330V110 2000 -SN VV008 M01/M02 Q1003=
200603201620 METAR ESMX 201620Z 07005KT 4000 SN FEW007 SCT015 BKN024 M00/M03 Q1002=
200603201550 METAR ESMX 201550Z VRB01KT 9999 FEW015 SCT045 BKN063 02/M06 Q1002=
200603201520 METAR ESMX 201520Z 21006KT 200V280 9999 -SHSN FEW015 SCT035 BKN060 02/M06 Q1002=
200603201450 METAR ESMX 201450Z 19005KT 9999 FEW028 BKN060 02/M07 Q1002=
200603201420 METAR ESMX 201420Z 21007KT 170V240 9999 FEW025 BKN060 02/M06 Q1002=
200603201350 METAR ESMX 201350Z 19010KT CAVOK 02/M06 Q1002=
200603201320 METAR ESMX 201320Z 22009KT 190V280 9999 FEW025 BKN055 02/M06 Q1002=
200603201250 METAR ESMX 201250Z VRB05KT CAVOK 03/M10 Q1003=
200603201220 METAR ESMX 201220Z 19007KT 160V270 CAVOK 04/M10 Q1003=
200603201150 METAR ESMX 201150Z 19008KT CAVOK 02/M10 Q1003=
200603201120 METAR ESMX 201120Z 24007KT 170V290 CAVOK 03/M11 Q1004=
200603201050 METAR ESMX 201050Z 21005KT 160V270 CAVOK 03/M12 Q1004=
200603201020 METAR ESMX 201020Z 20006KT CAVOK 02/M13 Q1004=
200603200950 METAR ESMX 200950Z 20008KT CAVOK 01/M12 Q1005=
200603200920 METAR ESMX 200920Z 22006KT CAVOK 00/M11 Q1005=
200603200850 METAR ESMX 200850Z VRB01KT CAVOK 02/M10 Q1006=
200603200820 METAR ESMX 200820Z VRB01KT CAVOK M03/M11 Q1006=
200603200750 METAR ESMX 200750Z VRB02KT CAVOK M05/M10 Q1006=
200603200720 METAR ESMX 200720Z VRB01KT CAVOK M06/M10 Q1006=
200603200650 METAR ESMX 200650Z VRB01KT CAVOK M06/M10 Q1006=
200603200550 METAR ESMX 200550Z 00000KT CAVOK M09/M11 Q1007=
200603200520 METAR ESMX 200520Z 00000KT CAVOK M09/M11 Q1007=
200603200450 METAR ESMX 200450Z VRB01KT CAVOK M09/M11 Q1007=
200603200420 METAR ESMX 200420Z AUTO VRB02KT 9999 BKN087 M09/M11 Q1007=
200603200350 METAR ESMX 200350Z AUTO 00000KT 9999 BKN088 M09/M11 Q1007=
200603200320 METAR ESMX 200320Z AUTO 00000KT 9999 BKN087 M10/M12 Q1007=
200603200250 METAR ESMX 200250Z AUTO 00000KT 9999 FEW087 M10/M11 Q1007=
200603200220 METAR ESMX 200220Z AUTO 00000KT 9999 NSC M10/M11 Q1007=
200603200150 METAR ESMX 200150Z AUTO VRB02KT 9999 NSC M08/M11 Q1007=
200603200120 METAR ESMX 200120Z VRB03KT CAVOK M08/M11 Q1007=
200603200050 METAR ESMX 200050Z 00000KT CAVOK M08/M10 Q1007=
200603200020 METAR ESMX 200020Z 00000KT CAVOK M06/M10 Q1008=
200603192350 METAR ESMX 192350Z 00000KT CAVOK M07/M10 Q1008=
200603192320 METAR ESMX 192320Z VRB01KT CAVOK M05/M10 Q1008=
200603192250 METAR ESMX 192250Z VRB01KT CAVOK M05/M10 Q1008=
200603192220 METAR ESMX 192220Z VRB02KT CAVOK M05/M09 Q1008=
200603192150 METAR ESMX 192150Z VRB02KT CAVOK M03/M11 Q1007=
200603192120 METAR ESMX 192120Z VRB03KT CAVOK M02/M10 Q1007=
200603192050 METAR ESMX 192050Z 33005KT CAVOK M02/M10 Q1007=
200603192020 METAR ESMX 192020Z 32006KT CAVOK M00/M11 Q1007=
200603191950 METAR ESMX 191950Z 31005KT CAVOK 00/M10 Q1007=
200603191920 METAR ESMX 191920Z 33006KT CAVOK M00/M09 Q1007=
200603191850 METAR ESMX 191850Z 34009KT CAVOK 01/M09 Q1006=
200603191820 METAR ESMX 191820Z 36006KT CAVOK 01/M06 Q1006=
200603191750 METAR ESMX 191750Z 32008KT CAVOK 03/M07 Q1005=
200603191720 METAR ESMX 191720Z 32007KT CAVOK 03/M07 Q1005=
200603191650 METAR ESMX 191650Z 34009KT CAVOK 04/M06 Q1005=
200603191620 METAR ESMX 191620Z 34009KT CAVOK 04/M06 Q1005=
200603191550 METAR ESMX 191550Z 35010KT CAVOK 04/M06 Q1005=
200603191520 METAR ESMX 191520Z 35010KT CAVOK 05/M06 Q1004=
200603191450 METAR ESMX 191450Z 35013KT CAVOK 05/M06 Q1004=
200603191420 METAR ESMX 191420Z 33015KT CAVOK 06/M07 Q1004=
200603191350 METAR ESMX 191350Z 30010KT CAVOK 07/M03 Q1004=
200603191320 METAR ESMX 191320Z AUTO 29007KT 250V320 9999 NSC 06/M02 Q1004=
200603191250 METAR ESMX 191250Z AUTO 28007KT 240V320 9999 NSC 06/M02 Q1004=
200603191220 METAR ESMX 191220Z AUTO 28008KT 9999 NSC 06/M02 Q1005=
200603191150 METAR ESMX 191150Z AUTO 29007KT 9999 NSC 05/M02 Q1005=
200603191120 METAR ESMX 191120Z AUTO 29007KT 260V330 9999 NSC 04/M02 Q1005=
200603191050 METAR ESMX 191050Z AUTO 27006KT 240V300 9999 FEW076 03/M02 Q1005=
200603191020 METAR ESMX 191020Z AUTO 28005KT 250V320 9999 SCT043 02/M02 Q1006=
200603190950 METAR ESMX 190950Z AUTO 25005KT 9999 SCT068 01/M02 Q1006=
200603190920 METAR ESMX 190920Z AUTO 24004KT 200V290 9999 FEW006 BKN086 00/M02 Q1006=
200603190850 METAR ESMX 190850Z AUTO 26005KT 9999 FEW003 SCT005 BKN006 M00/M02 Q1007=
200603190820 METAR ESMX 190820Z AUTO 30006KT 9000 BR OVC002 M01/M02 Q1007=
200603190750 METAR ESMX 190750Z AUTO 29006KT 8000 BR OVC001 M02/M02 Q1007=
200603190720 METAR ESMX 190720Z AUTO 27006KT 230V290 5000 BR OVC001 M02/M02 Q1007=
200603190650 METAR ESMX 190650Z AUTO 28005KT 240V300 2400 BR OVC001 M02/M02 Q1007=
200603190620 METAR ESMX 190620Z AUTO 25005KT 230V300 2800 BR OVC001 M02/M02 Q1007=
200603190550 METAR ESMX 190550Z AUTO 27005KT 3100 BR OVC001 M02/M02 Q1007=
200603190520 METAR ESMX 190520Z AUTO 27005KT 250V310 2700 BR OVC001 M02/M02 Q1008=
200603190450 METAR ESMX 190450Z AUTO 27004KT 240V300 2500 BR OVC002 M01/M02 Q1008=
200603190420 METAR ESMX 190420Z AUTO 27004KT 240V310 3000 BR OVC002 M01/M02 Q1008=
200603190350 METAR ESMX 190350Z AUTO VRB03KT 3700 BR OVC003 M01/M02 Q1008=
200603190320 METAR ESMX 190320Z AUTO 28004KT 250V320 4400 BR OVC004 M01/M02 Q1009=
200603190250 METAR ESMX 190250Z AUTO 27004KT 240V300 4400 BR OVC004 M01/M02 Q1009=
200603190220 METAR ESMX 190220Z AUTO 26004KT 4500 BR OVC004 M01/M02 Q1009=
200603190150 METAR ESMX 190150Z AUTO 28005KT 4600 BR OVC004 M01/M02 Q1010=
200603190120 METAR ESMX 190120Z AUTO 29004KT 250V320 4900 BR OVC004 M01/M02 Q1010=
200603190050 METAR ESMX 190050Z AUTO 27005KT 4900 BR OVC004 M01/M02 Q1010=
200603190020 METAR ESMX 190020Z AUTO 27004KT 5000 BR OVC005 M02/M02 Q1011=
200603182350 METAR ESMX 182350Z AUTO 28005KT 250V330 5000 BR BKN005 M02/M02 Q1011=
200603182320 METAR ESMX 182320Z AUTO VRB03KT 6000 BR NSC M02/M03 Q1011=
200603182250 METAR ESMX 182250Z AUTO 29004KT 8000 BR NSC M02/M03 Q1011=
200603182220 METAR ESMX 182220Z AUTO 27005KT 9999 NSC M02/M03 Q1012=
200603182150 METAR ESMX 182150Z AUTO VRB03KT 9999 FEW079 M01/M03 Q1012=
200603182120 METAR ESMX 182120Z AUTO 27005KT 9999 BKN081 M01/M03 Q1012=
200603182050 METAR ESMX 182050Z AUTO 29006KT 9999 SCT088 M01/M03 Q1012=
200603182020 METAR ESMX 182020Z AUTO 28007KT 250V320 9999 BKN096 M00/M03 Q1012=
200603181950 METAR ESMX 181950Z AUTO 26007KT 230V290 9999 BKN096 00/M03 Q1013=
200603181920 METAR ESMX 181920Z AUTO 26005KT 9999 FEW080 SCT094 BKN100 00/M04 Q1013=
200603181850 METAR ESMX 181850Z AUTO 25005KT 200V320 9999 FEW076 01/M05 Q1013=
200603181820 METAR ESMX 181820Z AUTO 26006KT 230V290 9999 FEW110 01/M05 Q1013=
200603181750 METAR ESMX 181750Z AUTO 25006KT 9999 NSC 02/M05 Q1013=
200603181720 METAR ESMX 181720Z AUTO 26006KT 230V290 9999 NSC 02/M05 Q1014=
200603181650 METAR ESMX 181650Z AUTO 26006KT 210V290 9999 NSC 03/M04 Q1014=
200603181620 METAR ESMX 181620Z AUTO 25006KT 220V280 9999 NSC 04/M04 Q1014=
200603181550 METAR ESMX 181550Z AUTO 26006KT 230V300 9999 NSC 04/M04 Q1014=
200603181520 METAR ESMX 181520Z AUTO 26008KT 230V300 9999 NSC 04/M04 Q1015=
200603181450 METAR ESMX 181450Z AUTO 28008KT 9999 NSC 05/M04 Q1016=
200603181420 METAR ESMX 181420Z AUTO 27008KT 240V300 9999 FEW063 05/M04 Q1016=
200603181350 METAR ESMX 181350Z AUTO 29007KT 9999 FEW035 05/M04 Q1016=
200603181320 METAR ESMX 181320Z AUTO 29008KT 230V310 9999 FEW089 05/M04 Q1017=
200603181250 METAR ESMX 181250Z AUTO 29008KT 250V330 9999 FEW040 05/M04 Q1017=
200603181220 METAR ESMX 181220Z AUTO 28007KT 250V320 9999 FEW057 05/M04 Q1017=
200603181150 METAR ESMX 181150Z AUTO 28007KT 250V320 9999 NSC 05/M05 Q1018=
200603181120 METAR ESMX 181120Z AUTO 28005KT 260V330 9999 NSC 05/M05 Q1019=
200603181050 METAR ESMX 181050Z AUTO 29005KT 260V330 9999 NSC 04/M04 Q1019=
200603181020 METAR ESMX 181020Z AUTO 28006KT 250V330 9999 NSC 04/M05 Q1019=
200603180950 METAR ESMX 180950Z AUTO 27006KT 260V330 9999 NSC 03/M05 Q1020=
200603180920 METAR ESMX 180920Z AUTO 30006KT 9999 NSC 01/M06 Q1021=
200603180850 METAR ESMX 180850Z AUTO 29005KT 250V320 9999 NSC 01/M06 Q1021=
200603180820 METAR ESMX 180820Z AUTO 28004KT 9999 NSC M01/M06 Q1021=
200603180750 METAR ESMX 180750Z AUTO 00000KT 9999 NSC M03/M05 Q1022=
200603180720 METAR ESMX 180720Z AUTO 00000KT 9999 NSC M05/M06 Q1022=
200603180650 METAR ESMX 180650Z AUTO 00000KT 9999 BR NSC M09/M10 Q1022=
200603180620 METAR ESMX 180620Z AUTO 00000KT 9999 NSC M12/M13 Q1022=
200603180550 METAR ESMX 180550Z AUTO 00000KT 8000 NSC M13/M14 Q1023=
200603180520 METAR ESMX 180520Z AUTO 00000KT 9999 NSC M13/M14 Q1023=
200603180450 METAR ESMX 180450Z AUTO 00000KT 9999 NSC M12/M13 Q1023=
200603180420 METAR ESMX 180420Z AUTO 00000KT 9999 NSC M12/M14 Q1024=
200603180350 METAR ESMX 180350Z AUTO 00000KT 9999 NSC M12/M13 Q1024=
200603180320 METAR ESMX 180320Z AUTO 00000KT 9999 NSC M12/M13 Q1024=
200603180250 METAR ESMX 180250Z AUTO 00000KT 9999 NSC M12/M13 Q1025=
200603180220 METAR ESMX 180220Z AUTO VRB01KT 9999 NSC M11/M12 Q1025=
200603180150 METAR ESMX 180150Z AUTO 00000KT 9999 NSC M11/M11 Q1025=
200603180120 METAR ESMX 180120Z AUTO 00000KT 9999 NSC M11/M12 Q1025=
200603180050 METAR ESMX 180050Z AUTO 00000KT 9999 NSC M10/M11 Q1026=
200603180020 METAR ESMX 180020Z AUTO 00000KT 9999 NSC M10/M10 Q1026=
200603172350 METAR ESMX 172350Z AUTO 00000KT 9999 NSC M09/M10 Q1026=
200603172320 METAR ESMX 172320Z AUTO 00000KT 9999 NSC M09/M09 Q1026=
200603172250 METAR ESMX 172250Z AUTO 00000KT 9999 NSC M09/M10 Q1027=
200603172220 METAR ESMX 172220Z AUTO 00000KT 9999 NSC M07/M08 Q1027=
200603172150 METAR ESMX 172150Z AUTO VRB01KT 9999 NSC M08/M09 Q1027=
200603172120 METAR ESMX 172120Z AUTO 00000KT 9999 NSC M07/M08 Q1028=
200603172050 METAR ESMX 172050Z AUTO VRB02KT 9999 NSC M07/M09 Q1028=
200603172020 METAR ESMX 172020Z AUTO 00000KT 9999 NSC M06/M08 Q1028=
200603171950 METAR ESMX 171950Z AUTO VRB02KT 9999 NSC M06/M07 Q1028=
200603171920 METAR ESMX 171920Z AUTO 00000KT 9999 NSC M05/M07 Q1028=
200603171850 METAR ESMX 171850Z AUTO 00000KT 9999 NSC M04/M07 Q1028=
200603171820 METAR ESMX 171820Z 00000KT CAVOK M04/M07 Q1028=
200603171750 METAR ESMX 171750Z VRB01KT CAVOK M02/M06 Q1028=
200603171720 METAR ESMX 171720Z 00000KT CAVOK M01/M06 Q1028=
200603171650 METAR ESMX 171650Z VRB01KT CAVOK 02/M07 Q1028=
200603171620 METAR ESMX 171620Z VRB02KT CAVOK 03/M07 Q1028=
200603171550 METAR ESMX 171550Z 01005KT CAVOK 04/M07 Q1028=
200603171520 METAR ESMX 171520Z 02005KT 340V070 CAVOK 03/M06 Q1028=
200603171450 METAR ESMX 171450Z 03005KT 350V070 CAVOK 04/M06 Q1029=
200603171420 METAR ESMX 171420Z 02005KT 350V050 CAVOK 03/M06 Q1029=
200603171350 METAR ESMX 171350Z 02006KT 350V060 CAVOK 03/M06 Q1029=
200603171320 METAR ESMX 171320Z 01006KT 340V050 CAVOK 02/M05 Q1030=
200603171250 METAR ESMX 171250Z 34006KT CAVOK 01/M05 Q1030=
200603171220 METAR ESMX 171220Z 36005KT 320V040 CAVOK 01/M05 Q1030=
200603171150 METAR ESMX 171150Z 34006KT CAVOK M01/M05 Q1031=
200603171120 METAR ESMX 171120Z 01005KT 9999 FEW013 M00/M05 Q1031=
200603171050 METAR ESMX 171050Z 35006KT 9999 SCT011 M01/M05 Q1031=
200603171020 METAR ESMX 171020Z 02007KT 9999 BKN010 M02/M05 Q1031=
200603170950 METAR ESMX 170950Z 02006KT 340V060 9999 BKN008 M02/M05 Q1031=
200603170920 METAR ESMX 170920Z 01006KT 9999 BKN007 M03/M05 Q1032=
200603170850 METAR ESMX 170850Z 05006KT 9000 BR OVC006 M03/M05 Q1032=
200603170820 METAR ESMX 170820Z 03007KT 010V070 9000 BR BKN006 M04/M05 Q1032=
200603170750 METAR ESMX 170750Z 02007KT 8000 BR OVC005 M04/M05 Q1032=
200603170720 METAR ESMX 170720Z 04007KT 8000 BR BKN005 M04/M05 Q1032=
200603170650 METAR ESMX 170650Z 03007KT 350V080 7000 BR OVC004 M04/M05 Q1032=
200603170620 METAR ESMX 170620Z 02006KT 340V050 6000 BR OVC004 M04/M05 Q1032=
200603170550 METAR ESMX 170550Z 02007KT 340V040 7000 BR OVC004 M04/M05 Q1032=
200603170520 METAR ESMX 170520Z 05005KT 020V080 7000 BR OVC005 M04/M05 Q1032=
200603170450 METAR ESMX 170450Z 04006KT 350V060 7000 BR OVC005 M04/M05 Q1032=
200603170420 METAR ESMX 170420Z AUTO 04005KT 360V070 8000 BR OVC005 M04/M05 Q1032=
200603170350 METAR ESMX 170350Z AUTO 04006KT 010V080 8000 BR OVC006 M04/M05 Q1032=
200603170320 METAR ESMX 170320Z AUTO 05005KT 020V100 9000 BR OVC006 M04/M05 Q1032=
200603170250 METAR ESMX 170250Z AUTO 04005KT 8000 BR OVC006 M04/M05 Q1032=
200603170220 METAR ESMX 170220Z AUTO 04006KT 020V080 8000 BR OVC006 M04/M05 Q1032=
200603170150 METAR ESMX 170150Z AUTO 05005KT 020V080 9000 BR OVC006 M04/M05 Q1032=
200603170120 METAR ESMX 170120Z AUTO 02006KT 350V060 9000 BR OVC006 M04/M05 Q1032=
200603170050 METAR ESMX 170050Z 04006KT 9000 BR OVC006 M04/M05 Q1032=
200603170020 METAR ESMX 170020Z 05007KT 010V080 9000 BR OVC006 M04/M05 Q1032=
200603162320 METAR ESMX 162320Z 04007KT 010V080 8000 BR OVC006 M04/M05 Q1032=
200603162250 METAR ESMX 162250Z 04011KT 8000 BR OVC005 M05/M05 Q1033=
200603162220 METAR ESMX 162220Z 04007KT 9000 BR OVC006 M05/M06 Q1033=
200603162150 METAR ESMX 162150Z 03006KT 360V070 9000 BR OVC007 M06/M07 Q1033=
200603162120 METAR ESMX 162120Z 04004KT 9000 BR FEW008 M06/M07 Q1033=
200603162050 METAR ESMX 162050Z 03004KT CAVOK M06/M07 Q1033=
200603162020 METAR ESMX 162020Z 03005KT 350V060 CAVOK M05/M07 Q1033=
200603161950 METAR ESMX 161950Z 03006KT 360V060 CAVOK M05/M07 Q1033=
200603161920 METAR ESMX 161920Z 03006KT CAVOK M04/M06 Q1033=
200603161850 METAR ESMX 161850Z 02007KT CAVOK M04/M06 Q1033=
200603161820 METAR ESMX 161820Z 03006KT 9999 FEW015 M04/M06 Q1033=
200603161750 METAR ESMX 161750Z 03007KT 9999 FEW015 M03/M06 Q1033=
200603161720 METAR ESMX 161720Z 03010KT 010V070 9999 SCT014 M03/M05 Q1033=
200603161650 METAR ESMX 161650Z 02011KT 350V050 9999 BKN014 M02/M05 Q1033=
200603161620 METAR ESMX 161620Z 02010KT 350V070 9999 OVC014 M02/M05 Q1033=
200603161550 METAR ESMX 161550Z 03010KT 350V060 9999 BKN015 M02/M05 Q1033=
200603161520 METAR ESMX 161520Z 04009KT 010V070 9999 BKN015 M01/M04 Q1033=
200603161450 METAR ESMX 161450Z 03011KT 9999 BKN016 M01/M04 Q1033=
200603161420 METAR ESMX 161420Z 03009KT 9999 BKN015 M01/M04 Q1033=
200603161350 METAR ESMX 161350Z 02010KT 9999 BKN014 M01/M04 Q1033=
200603161320 METAR ESMX 161320Z 04010KT 9999 BKN013 M01/M04 Q1033=
200603161250 METAR ESMX 161250Z 04010KT 010V070 9999 OVC013 M01/M04 Q1034=
200603161220 METAR ESMX 161220Z 04012KT 020V080 9999 OVC014 M01/M04 Q1034=
200603161150 METAR ESMX 161150Z 04009KT 350V080 9999 OVC014 M01/M04 Q1034=
200603161120 METAR ESMX 161120Z 05009KT 010V100 9999 OVC013 M01/M04 Q1034=
200603161050 METAR ESMX 161050Z 05009KT 9999 BKN012 M01/M04 Q1034=
200603161020 METAR ESMX 161020Z 04009KT 020V080 9999 OVC012 M01/M04 Q1034=
200603160950 METAR ESMX 160950Z 04012KT 010V080 9999 OVC012 M01/M04 Q1033=
200603160920 METAR ESMX 160920Z 04010KT 9999 OVC011 M02/M04 Q1033=
200603160850 METAR ESMX 160850Z 04011KT 020V080 9999 OVC011 M02/M04 Q1033=
200603160820 METAR ESMX 160820Z 04011KT 9999 OVC010 M02/M05 Q1033=
200603160750 METAR ESMX 160750Z 04012KT 020V080 9999 OVC010 M02/M05 Q1033=
200603160720 METAR ESMX 160720Z 04012KT 010V070 9999 OVC011 M02/M05 Q1033=
200603160650 METAR ESMX 160650Z 03012KT 9999 OVC010 M03/M05 Q1033=
200603160620 METAR ESMX 160620Z 04010KT 350V060 9000 OVC010 M03/M05 Q1032=
200603160550 METAR ESMX 160550Z 03010KT 360V060 9999 OVC010 M03/M05 Q1032=
200603160520 METAR ESMX 160520Z 04011KT 010V070 9000 OVC011 M03/M05 Q1032=
200603160450 METAR ESMX 160450Z 04010KT 010V080 9999 OVC011 M03/M05 Q1032=
200603160420 METAR ESMX 160420Z AUTO 04010KT 9999 OVC012 M03/M05 Q1032=
200603160350 METAR ESMX 160350Z AUTO 02011KT 350V080 9999 OVC013 M02/M05 Q1032=
200603160320 METAR ESMX 160320Z AUTO 02012KT 9999 OVC012 M02/M05 Q1032=
200603160250 METAR ESMX 160250Z AUTO 03012KT 360V060 9999 OVC013 M02/M05 Q1032=
200603160220 METAR ESMX 160220Z AUTO 04009KT 010V070 9999 OVC013 M02/M05 Q1032=
200603160150 METAR ESMX 160150Z AUTO 03010G21KT 020V080 9999 OVC014 M02/M05 Q1032=
200603160120 METAR ESMX 160120Z AUTO 04009KT 020V080 9999 OVC014 M02/M05 Q1032=
200603160050 METAR ESMX 160050Z 04010KT 010V070 9999 BKN014 M02/M05 Q1032=
200603160020 METAR ESMX 160020Z 04011KT 020V080 9999 BKN015 M02/M05 Q1032=
200603152350 METAR ESMX 152350Z 04011KT 360V070 9999 BKN014 M02/M05 Q1032=
200603152320 METAR ESMX 152320Z 04010KT 020V080 9999 OVC011 M02/M04 Q1032=
200603152250 METAR ESMX 152250Z 04014KT 010V080 9999 OVC010 M02/M04 Q1032=
200603152220 METAR ESMX 152220Z 05010KT 020V100 9999 OVC010 M02/M04 Q1032=
200603152150 METAR ESMX 152150Z 05010KT 010V080 9999 OVC010 M02/M04 Q1032=
200603152120 METAR ESMX 152120Z 05011KT 020V100 9999 OVC009 M02/M04 Q1032=
200603152050 METAR ESMX 152050Z 04012KT 020V090 9999 OVC010 M02/M04 Q1032=
200603152020 METAR ESMX 152020Z 04011KT 9999 BKN008 M02/M03 Q1031=
200603151950 METAR ESMX 151950Z 05009KT 020V080 9999 BKN009 M01/M03 Q1031=
200603151920 METAR ESMX 151920Z 05011KT 020V080 9000 BR BKN006 M02/M03 Q1031=
200603151850 METAR ESMX 151850Z 05013KT 020V080 9999 BKN007 M01/M03 Q1031=
200603151820 METAR ESMX 151820Z 04013KT 9999 FEW008 OVC009 M01/M03 Q1031=
200603151750 METAR ESMX 151750Z 02010KT 9999 FEW009 OVC011 M01/M03 Q1031=
200603151720 METAR ESMX 151720Z 04011KT 9999 OVC013 M01/M03 Q1031 REDZ=
200603151650 METAR ESMX 151650Z 05010KT 020V080 9999 OVC013 M00/M03 Q1031 RESN=
200603151620 METAR ESMX 151620Z 03010KT 360V070 9999 -SN OVC012 M00/M03 Q1031=
200603151550 METAR ESMX 151550Z 04007KT 010V080 9999 -SN OVC013 M00/M03 Q1031=
200603151520 METAR ESMX 151520Z 04009KT 350V080 9999 BKN015 00/M03 Q1031 REDZ=
200603151450 METAR ESMX 151450Z 04009KT 9999 OVC014 M00/M03 Q1031 RERA=
200603151420 METAR ESMX 151420Z 03009KT 360V070 7000 -SN OVC013 M00/M03 Q1031=
200603151350 METAR ESMX 151350Z 04010KT 360V080 5000 -SN OVC015 00/M03 Q1031=
200603151320 METAR ESMX 151320Z 05009KT 9999 OVC015 00/M03 Q1031=
200603151250 METAR ESMX 151250Z 01010KT 9999 OVC014 00/M03 Q1031 RERA=
200603151220 METAR ESMX 151220Z 04009KT 010V070 9999 SN FEW011 OVC014 00/M03 Q1031=
200603151150 METAR ESMX 151150Z 02008KT 5000 SG FEW012 OVC014 M00/M02 Q1031=
200603151120 METAR ESMX 151120Z 04010KT 9000 -SN OVC013 M00/M03 Q1031=
200603151050 METAR ESMX 151050Z 03008KT 350V070 8000 -SN OVC010 M00/M03 Q1031=
200603151020 METAR ESMX 151020Z 05007KT 020V100 9999 BKN010 M00/M03 Q1032=
200603150950 METAR ESMX 150950Z 04009KT 020V080 9999 BKN009 M01/M03 Q1032=
200603150920 METAR ESMX 150920Z 04008KT 9999 BKN009 M01/M03 Q1031=
200603150850 METAR ESMX 150850Z 04007KT 9000 BR BKN007 M02/M03 Q1031=
200603150820 METAR ESMX 150820Z 04007KT 8000 BR BKN006 M02/M04 Q1031=
200603150750 METAR ESMX 150750Z 03006KT 360V060 9000 BR BKN007 M02/M04 Q1032=
200603150720 METAR ESMX 150720Z 01007KT 8000 BR OVC007 M03/M04 Q1031=
200603150650 METAR ESMX 150650Z 02006KT 8000 BR BKN007 M03/M04 Q1031=
200603150620 METAR ESMX 150620Z 02005KT 8000 BR BKN008 M03/M04 Q1031=
200603150550 METAR ESMX 150550Z 03007KT 8000 BR BKN009 M03/M04 Q1031=
200603150520 METAR ESMX 150520Z 02006KT 9000 BR SCT009 OVC010 M03/M05 Q1031=
200603150450 METAR ESMX 150450Z 01006KT 9000 BR FEW009 OVC011 M03/M05 Q1031=
200603150420 METAR ESMX 150420Z AUTO 01005KT 9000 BR FEW008 SCT009 OVC010 M03/M05 Q1031=
200603150350 METAR ESMX 150350Z AUTO 01005KT 9000 BR OVC008 M03/M05 Q1031=
200603150320 METAR ESMX 150320Z AUTO 01005KT 8000 BR FEW008 OVC011 M03/M05 Q1031=
200603150250 METAR ESMX 150250Z AUTO 01005KT 8000 BR BKN007 OVC009 M03/M05 Q1032=
200603150220 METAR ESMX 150220Z AUTO 01005KT 8000 BR OVC007 M04/M05 Q1032=
200603150150 METAR ESMX 150150Z AUTO 01004KT 8000 BR BKN009 OVC015 M04/M05 Q1032=
200603150120 METAR ESMX 150120Z 02004KT 9000 FEW009 SCT015 OVC017 M04/M05 Q1032=
200603150050 METAR ESMX 150050Z 02004KT 9000 BKN008 OVC013 M04/M05 Q1032=
200603150020 METAR ESMX 150020Z 01004KT 9000 FEW009 OVC014 M04/M05 Q1032=
200603142350 METAR ESMX 142350Z 03004KT 9999 OVC013 M04/M05 Q1032=
200603142320 METAR ESMX 142320Z VRB03KT 9999 OVC016 M04/M05 Q1032=
200603142250 METAR ESMX 142250Z VRB02KT 9999 SCT019 BKN026 M04/M06 Q1032=
200603142220 METAR ESMX 142220Z VRB03KT 9999 BKN025 M04/M06 Q1032=
200603142150 METAR ESMX 142150Z 07004KT 030V110 9999 FEW027 M03/M05 Q1032=
200603142120 METAR ESMX 142120Z 06004KT 030V100 CAVOK M03/M05 Q1032=
200603142050 METAR ESMX 142050Z VRB03KT CAVOK M03/M05 Q1032=
200603142020 METAR ESMX 142020Z VRB03KT CAVOK M03/M05 Q1032=
200603141950 METAR ESMX 141950Z VRB03KT CAVOK M03/M05 Q1032=
200603141920 METAR ESMX 141920Z VRB02KT CAVOK M03/M05 Q1032=
200603141850 METAR ESMX 141850Z VRB02KT 9999 SCT032 M02/M05 Q1032=
200603141820 METAR ESMX 141820Z VRB03KT 9999 FEW021 BKN033 M02/M05 Q1032=
200603141750 METAR ESMX 141750Z VRB03KT 9999 FEW018 BKN027 M02/M05 Q1032=
200603141720 METAR ESMX 141720Z VRB03KT 9999 FEW019 BKN033 M02/M05 Q1032=
200603141620 METAR ESMX 141620Z VRB01KT 9999 BKN021 OVC031 M01/M05 Q1031=
200603141550 METAR ESMX 141550Z VRB03KT 9999 BKN020 M01/M05 Q1031=
200603141520 METAR ESMX 141520Z VRB03KT 9999 FEW014 BKN027 M01/M05 Q1031=
200603141450 METAR ESMX 141450Z 06004KT 030V100 9999 FEW017 BKN022 M01/M04 Q1031=
200603141350 METAR ESMX 141350Z VRB02KT 9999 FEW016 BKN025 M00/M06 Q1031=
200603141320 METAR ESMX 141320Z VRB01KT 9999 FEW023 BKN030 M00/M06 Q1031=
200603141250 METAR ESMX 141250Z VRB03KT 9999 FEW020 SCT026 BKN032 00/M05 Q1031=
200603141220 METAR ESMX 141220Z 09004KT 040V140 9999 FEW017 BKN026 M00/M05 Q1032=
200603141150 METAR ESMX 141150Z VRB03KT 9999 FEW015 BKN034 M00/M05 Q1032=
200603141120 METAR ESMX 141120Z 07004KT 010V130 9999 FEW018 BKN034 M00/M05 Q1032=
200603141050 METAR ESMX 141050Z 08004KT 350V090 9999 FEW020 BKN037 M00/M05 Q1032=
200603141020 METAR ESMX 141020Z VRB03KT 9999 FEW023 BKN037 M01/M05 Q1032=
200603140950 METAR ESMX 140950Z VRB03KT 9999 FEW020 SCT023 BKN035 M02/M05 Q1032=
200603140920 METAR ESMX 140920Z 04004KT 9999 FEW022 SCT029 BKN032 M02/M05 Q1032=
200603140850 METAR ESMX 140850Z 03004KT 9999 FEW019 BKN022 BKN036 M03/M06 Q1032=
200603140820 METAR ESMX 140820Z 03005KT 9999 FEW015 SCT019 BKN030 M04/M06 Q1032=
200603140750 METAR ESMX 140750Z 03006KT 7000 -SN FEW017 SCT025 BKN029 M04/M06 Q1032=
200603140720 METAR ESMX 140720Z 03005KT 8000 -SN FEW019 SCT027 BKN031 M05/M07 Q1032=
200603140650 METAR ESMX 140650Z 36004KT 5000 -SN FEW019 BKN025 M05/M07 Q1032=
200603140620 METAR ESMX 140620Z VRB03KT 7000 -SN FEW014 SCT024 OVC028 M05/M07 Q1032=
200603140550 METAR ESMX 140550Z 03004KT 9999 -SN FEW019 OVC027 M06/M07 Q1032=
200603140520 METAR ESMX 140520Z 01004KT 7000 -SN FEW007 OVC029 M06/M07 Q1032=
200603140450 METAR ESMX 140450Z VRB03KT 9999 -SN BKN007 BKN030 M06/M07 Q1032=
200603140420 METAR ESMX 140420Z AUTO VRB03KT 9999 -SN FEW010 OVC032 M06/M08 Q1032=
200603140350 METAR ESMX 140350Z AUTO 02004KT 9999 -SN FEW016 SCT023 OVC031 M06/M08 Q1032=
200603140320 METAR ESMX 140320Z AUTO 36005KT 9999 -SHSN OVC027 M06/M08 Q1032=
200603140250 METAR ESMX 140250Z AUTO 01006KT 9999 -SHSN FEW008 OVC027 M06/M08 Q1032=
200603140220 METAR ESMX 140220Z AUTO 01006KT 9999 -SN FEW008 BKN021 OVC027 M06/M08 Q1032=
200603140150 METAR ESMX 140150Z AUTO 36005KT 6000 -SN FEW010 BKN013 OVC023 M06/M08 Q1033=
200603140120 METAR ESMX 140120Z AUTO 01005KT 5000 -SN FEW021 OVC026 M06/M08 Q1033=
200603140050 METAR ESMX 140050Z 34004KT 4900 -SN BKN024 M06/M09 Q1033=
200603140020 METAR ESMX 140020Z 34005KT 8000 -SN FEW022 OVC025 M06/M09 Q1033=
200603132350 METAR ESMX 132350Z 35006KT 9999 -SN FEW013 SCT022 BKN047 M06/M10 Q1033=
200603132320 METAR ESMX 132320Z 35007KT 9999 FEW015 SCT025 BKN065 M06/M10 Q1034=
200603132250 METAR ESMX 132250Z 01006KT CAVOK M06/M10 Q1034=
200603132220 METAR ESMX 132220Z 36005KT 9999 BKN049 M07/M11 Q1034=
200603132150 METAR ESMX 132150Z 01004KT 9999 FEW026 BKN046 M08/M13 Q1034=
200603132120 METAR ESMX 132120Z VRB03KT 9999 FEW037 SCT044 BKN057 M08/M12 Q1034=
200603132050 METAR ESMX 132050Z VRB03KT CAVOK M08/M13 Q1034=
200603132020 METAR ESMX 132020Z 05005KT CAVOK M05/M12 Q1034=
200603131950 METAR ESMX 131950Z VRB02KT CAVOK M07/M12 Q1034=
200603131920 METAR ESMX 131920Z VRB03KT CAVOK M06/M12 Q1034=
200603131850 METAR ESMX 131850Z VRB03KT CAVOK M05/M12 Q1034=
200603131820 METAR ESMX 131820Z VRB03KT CAVOK M04/M12 Q1034=
200603131750 METAR ESMX 131750Z VRB02KT CAVOK M04/M12 Q1034=
200603131720 METAR ESMX 131720Z VRB03KT CAVOK M03/M12 Q1034=
200603131650 METAR ESMX 131650Z VRB03KT CAVOK M01/M13 Q1034=
200603131620 METAR ESMX 131620Z VRB03KT CAVOK 00/M13 Q1034=
200603131550 METAR ESMX 131550Z 04004KT CAVOK 00/M13 Q1034=
200603131520 METAR ESMX 131520Z 36005KT CAVOK M00/M12 Q1034=
200603131450 METAR ESMX 131450Z 04006KT CAVOK 01/M12 Q1034=
200603131420 METAR ESMX 131420Z 36006KT CAVOK 00/M11 Q1034=
200603131350 METAR ESMX 131350Z 06005KT CAVOK 01/M11 Q1035=
200603131320 METAR ESMX 131320Z 36005KT 330V030 CAVOK M00/M09 Q1035=
200603131250 METAR ESMX 131250Z 01005KT 340V040 CAVOK M01/M09 Q1035=
200603131220 METAR ESMX 131220Z 02007KT 340V050 CAVOK M01/M09 Q1035=
200603131120 METAR ESMX 131120Z 36007KT 330V030 CAVOK M03/M09 Q1035=
200603131050 METAR ESMX 131050Z 36008KT CAVOK M04/M10 Q1036=
200603131020 METAR ESMX 131020Z 02007KT CAVOK M05/M09 Q1036=
200603130950 METAR ESMX 130950Z 36007KT CAVOK M06/M10 Q1036=
200603130920 METAR ESMX 130920Z 36006KT CAVOK M08/M10 Q1036=
200603130850 METAR ESMX 130850Z 01005KT CAVOK M09/M11 Q1036=
200603130820 METAR ESMX 130820Z 01006KT CAVOK M10/M11 Q1036=
200603130750 METAR ESMX 130750Z VRB03KT 9999 FEW002 M12/M13 Q1037=
200603130720 METAR ESMX 130720Z VRB02KT CAVOK M14/M15 Q1037=
200603130650 METAR ESMX 130650Z 00000KT CAVOK M17/M18 Q1036=
200603130620 METAR ESMX 130620Z VRB01KT CAVOK M18/M20 Q1036=
200603130550 METAR ESMX 130550Z 00000KT CAVOK M19/M20 Q1036=
200603130520 METAR ESMX 130520Z 00000KT CAVOK M18/M20 Q1036=
200603130450 METAR ESMX 130450Z 00000KT CAVOK M18/M20 Q1036=
200603130420 METAR ESMX 130420Z AUTO 00000KT 9999 NSC M18/M19 Q1036=
200603130350 METAR ESMX 130350Z AUTO 00000KT 9999 NSC M17/M19 Q1036=
200603130320 METAR ESMX 130320Z AUTO 00000KT 0800 R01/P1500N R19/P1500N FG NSC M17/M18 Q1035=
200603130250 METAR ESMX 130250Z AUTO 00000KT 9999 NSC M17/M18 Q1035=
200603130220 METAR ESMX 130220Z AUTO 00000KT 9999 NSC M16/M18 Q1035=
200603130150 METAR ESMX 130150Z AUTO 00000KT 9999 FEW000 M16/M17 Q1035=
200603130120 METAR ESMX 130120Z AUTO 00000KT 9999 VV000 M15/M16 Q1035=
200603130050 METAR ESMX 130050Z 00000KT CAVOK M14/M16 Q1035=
200603130020 METAR ESMX 130020Z VRB01KT CAVOK M14/M15 Q1035=
200603122350 METAR ESMX 122350Z 00000KT CAVOK M13/M14 Q1035=
200603122320 METAR ESMX 122320Z 00000KT CAVOK M12/M13 Q1035=
200603122250 METAR ESMX 122250Z VRB01KT CAVOK M11/M12 Q1035=
200603122220 METAR ESMX 122220Z 00000KT 9999 FEW019 BKN021 M10/M11 Q1035=
200603122150 METAR ESMX 122150Z VRB01KT 9999 BKN020 M09/M11 Q1034=
200603122120 METAR ESMX 122120Z VRB02KT 9999 BKN019 M10/M12 Q1034=
200603122050 METAR ESMX 122050Z VRB02KT 9999 BKN020 M10/M12 Q1034=
200603122020 METAR ESMX 122020Z VRB02KT 9999 SCT020 M11/M12 Q1034=
200603121950 METAR ESMX 121950Z VRB02KT CAVOK M09/M11 Q1033=
200603121920 METAR ESMX 121920Z VRB03KT 9999 FEW033 M08/M11 Q1033=
200603121850 METAR ESMX 121850Z VRB03KT 9999 FEW036 M07/M10 Q1033=
200603121820 METAR ESMX 121820Z 36004KT CAVOK M07/M11 Q1033=
200603121750 METAR ESMX 121750Z 01006KT 9999 FEW028 M06/M10 Q1032=
200603121720 METAR ESMX 121720Z 02007KT 9999 FEW025 M04/M09 Q1032=
200603121650 METAR ESMX 121650Z 02006KT 9999 FEW015 SCT022 M04/M09 Q1031=
200603121620 METAR ESMX 121620Z 02006KT 9999 FEW015 SCT021 M04/M09 Q1031=
200603121550 METAR ESMX 121550Z 01008KT 9999 SCT033 M03/M09 Q1031=
200603121520 METAR ESMX 121520Z 36004KT 9999 SCT035 M02/M10 Q1030=
200603121450 METAR ESMX 121450Z 02005KT 330V040 9999 FEW039 BKN044 M01/M10 Q1030=
200603121420 METAR ESMX 121420Z 03004KT 9999 BKN045 M01/M10 Q1030=
200603121350 METAR ESMX 121350Z 03004KT 9999 BKN033 M01/M11 Q1030=
200603121320 METAR ESMX 121320Z AUTO 02007KT 340V050 9999 FEW028 BKN032 BKN046 M02/M10 Q1030=
200603121250 METAR ESMX 121250Z AUTO 01007KT 330V050 9999 FEW027 SCT036 BKN055 M02/M10 Q1029=
200603121220 METAR ESMX 121220Z AUTO 04007KT 350V080 9999 FEW033 M01/M10 Q1029=
200603121150 METAR ESMX 121150Z AUTO 01008KT 350V070 9999 FEW031 M02/M10 Q1029=
200603121120 METAR ESMX 121120Z AUTO 04009KT 330V050 9999 FEW028 M02/M09 Q1029=
200603121050 METAR ESMX 121050Z AUTO 01007KT 9999 BKN025 M03/M09 Q1029=
200603121020 METAR ESMX 121020Z AUTO 36008KT 9999 FEW020 SCT026 M04/M09 Q1028=
200603120950 METAR ESMX 120950Z AUTO 01008KT 9999 NSC M04/M09 Q1028=
200603120920 METAR ESMX 120920Z AUTO 36007KT 9999 NSC M05/M10 Q1028=
200603120850 METAR ESMX 120850Z AUTO 36006KT 9999 NSC M06/M10 Q1027=
200603120820 METAR ESMX 120820Z AUTO 35005KT 9999 NSC M08/M10 Q1027=
200603120750 METAR ESMX 120750Z AUTO 02004KT 9999 NSC M09/M11 Q1027=
200603120720 METAR ESMX 120720Z AUTO 01004KT 9999 NSC M11/M12 Q1026=
200603120650 METAR ESMX 120650Z AUTO VRB03KT 9999 NSC M12/M13 Q1026=
200603120620 METAR ESMX 120620Z AUTO VRB02KT 9999 NSC M15/M16 Q1025=
200603120550 METAR ESMX 120550Z AUTO VRB01KT 9999 NSC M15/M16 Q1025=
200603120520 METAR ESMX 120520Z AUTO 36005KT 9999 NSC M14/M16 Q1024=
200603120450 METAR ESMX 120450Z AUTO 02004KT 9999 NSC M14/M15 Q1024=
200603120420 METAR ESMX 120420Z AUTO 34005KT 7000 BR NSC M14/M16 Q1023=
200603120350 METAR ESMX 120350Z AUTO VRB03KT 9000 NSC M14/M15 Q1023=
200603120320 METAR ESMX 120320Z AUTO VRB03KT 9999 NSC M14/M15 Q1023=
200603120250 METAR ESMX 120250Z AUTO 35005KT 9999 NSC M14/M15 Q1023=
200603120220 METAR ESMX 120220Z AUTO 34007KT 9999 NSC M14/M15 Q1023=
200603120150 METAR ESMX 120150Z AUTO 34005KT 9999 NSC M14/M15 Q1022=
200603120120 METAR ESMX 120120Z AUTO 34006KT 9999 NSC M14/M15 Q1022=
200603120050 METAR ESMX 120050Z AUTO 35005KT 9999 NSC M14/M15 Q1022=
200603120020 METAR ESMX 120020Z AUTO 34006KT 9999 NSC M14/M15 Q1021=
200603112350 METAR ESMX 112350Z AUTO 35005KT 9999 NSC M13/M15 Q1021=
200603112320 METAR ESMX 112320Z AUTO 36005KT 9999 NSC M13/M15 Q1021=
200603112250 METAR ESMX 112250Z AUTO 36006KT 9999 NSC M13/M15 Q1021=
200603112220 METAR ESMX 112220Z AUTO 35006KT 9999 NSC M13/M15 Q1021=
200603112150 METAR ESMX 112150Z AUTO 36006KT 9999 NSC M12/M14 Q1021=
200603112120 METAR ESMX 112120Z AUTO 36005KT 9999 NSC M12/M14 Q1021=
200603112050 METAR ESMX 112050Z AUTO 36006KT 9999 NSC M12/M15 Q1020=
200603112020 METAR ESMX 112020Z AUTO 01006KT 9999 NSC M11/M14 Q1020=
200603111950 METAR ESMX 111950Z AUTO 01007KT 9999 NSC M10/M14 Q1020=
200603111920 METAR ESMX 111920Z AUTO 02008KT 9999 NSC M08/M13 Q1020=
200603111850 METAR ESMX 111850Z AUTO 02009KT 9999 NSC M08/M13 Q1019=
200603111820 METAR ESMX 111820Z AUTO 02008KT 9999 NSC M08/M13 Q1019=
200603111750 METAR ESMX 111750Z AUTO 03009KT 9999 FEW024 SCT030 M07/M12 Q1019=
200603111720 METAR ESMX 111720Z AUTO 01009KT 9999 FEW021 BKN026 M07/M12 Q1018=
200603111650 METAR ESMX 111650Z AUTO 02009KT 9999 FEW023 BKN030 BKN042 M06/M11 Q1018=
200603111620 METAR ESMX 111620Z AUTO 03010KT 010V070 9999 FEW022 BKN028 BKN036 M05/M11 Q1017=
200603111550 METAR ESMX 111550Z AUTO 03010KT 9999 FEW023 BKN031 M05/M11 Q1017=
200603111520 METAR ESMX 111520Z AUTO 02010KT 9999 FEW028 SCT033 M04/M11 Q1017=
200603111450 METAR ESMX 111450Z AUTO 03010KT 9999 FEW026 SCT031 BKN037 M04/M11 Q1016=
200603111420 METAR ESMX 111420Z AUTO 03012KT 010V070 9999 FEW021 BKN031 BKN038 M04/M11 Q1016=
200603111350 METAR ESMX 111350Z AUTO 03012KT 350V060 9999 FEW024 BKN028 BKN032 M04/M11 Q1016=
200603111320 METAR ESMX 111320Z AUTO 04011KT 010V070 9999 FEW021 BKN029 M04/M11 Q1016=
200603111250 METAR ESMX 111250Z AUTO 03011KT 9999 FEW024 BKN028 M04/M11 Q1016=
200603111220 METAR ESMX 111220Z AUTO 03012KT 010V080 9999 BKN024 M05/M11 Q1016=
200603111150 METAR ESMX 111150Z AUTO 01012KT 9999 BKN020 M05/M11 Q1015=
200603111120 METAR ESMX 111120Z AUTO 03013KT 9999 FEW020 SCT024 M05/M11 Q1015 RERA=
200603111050 METAR ESMX 111050Z AUTO 02012KT 9999 -SHSN FEW016 SCT019 BKN022 M05/M11 Q1015=
200603111020 METAR ESMX 111020Z AUTO 01013KT 9999 FEW015 SCT020 M06/M11 Q1015=
200603110950 METAR ESMX 110950Z AUTO 04010KT 9999 NSC M07/M11 Q1015=
200603110920 METAR ESMX 110920Z AUTO 36010KT 9999 NSC M08/M12 Q1015=
200603110850 METAR ESMX 110850Z AUTO 36011KT 9999 NSC M09/M13 Q1015=
200603110820 METAR ESMX 110820Z AUTO 36011KT 9999 NSC M10/M13 Q1014=
200603110750 METAR ESMX 110750Z AUTO 01010KT 9999 NSC M11/M14 Q1014=
200603110720 METAR ESMX 110720Z AUTO 02011KT 9999 NSC M12/M14 Q1014=
200603110650 METAR ESMX 110650Z AUTO 01010KT 9999 NSC M13/M15 Q1014=
200603110620 METAR ESMX 110620Z AUTO 01009KT 9999 NSC M13/M15 Q1013=
200603110550 METAR ESMX 110550Z AUTO 01008KT 9999 NSC M13/M15 Q1013=
200603110520 METAR ESMX 110520Z AUTO 01008KT 9999 NSC M13/M15 Q1013=
200603110450 METAR ESMX 110450Z AUTO 01007KT 9999 NSC M13/M15 Q1013=
200603110420 METAR ESMX 110420Z AUTO 01007KT 9999 NSC M13/M15 Q1012=
200603110350 METAR ESMX 110350Z AUTO 36008KT 9999 NSC M14/M15 Q1012=
200603110320 METAR ESMX 110320Z AUTO 36008KT 9999 NSC M13/M14 Q1012 RESN=
200603110250 METAR ESMX 110250Z AUTO 36007KT 9999 NSC M14/M15 Q1012 RESN=
200603110220 METAR ESMX 110220Z AUTO 36008KT 9999 -SN FEW009 M14/M15 Q1011=
200603110150 METAR ESMX 110150Z AUTO 36007KT 9999 -SN FEW007 M13/M15 Q1011=
200603110120 METAR ESMX 110120Z AUTO 36008KT 9999 NSC M12/M14 Q1011=
200603110050 METAR ESMX 110050Z AUTO 01008KT 9999 NSC M12/M13 Q1011=
200603110020 METAR ESMX 110020Z AUTO 01008KT 9999 NSC M12/M13 Q1011=
200603102350 METAR ESMX 102350Z AUTO 02008KT 9999 NSC M11/M13 Q1011=
200603102320 METAR ESMX 102320Z AUTO 01009KT 9999 NSC M11/M13 Q1011=
200603102250 METAR ESMX 102250Z AUTO 01010KT 9999 NSC M11/M13 Q1011=
200603102220 METAR ESMX 102220Z AUTO 01009KT 9999 NSC M11/M13 Q1011=
200603102150 METAR ESMX 102150Z AUTO 01008KT 9999 NSC M11/M13 Q1010=
200603102120 METAR ESMX 102120Z AUTO 02008KT 9999 NSC M10/M12 Q1010=
200603102050 METAR ESMX 102050Z AUTO 02010KT 350V050 9999 NSC M10/M12 Q1010=
200603102020 METAR ESMX 102020Z AUTO 02009KT 9999 NSC M09/M12 Q1010=
200603101950 METAR ESMX 101950Z AUTO 02008KT 9999 NSC M09/M12 Q1010=
200603101920 METAR ESMX 101920Z 02008KT 340V050 CAVOK M09/M12 Q1010=
200603101850 METAR ESMX 101850Z 02008KT 350V050 CAVOK M08/M12 Q1010=
200603101820 METAR ESMX 101820Z 03008KT 9999 FEW010 M08/M11 Q1010=
200603101750 METAR ESMX 101750Z 02006KT 9999 FEW009 M07/M11 Q1009=
200603101720 METAR ESMX 101720Z 04007KT 9999 FEW016 M07/M11 Q1009=
200603101650 METAR ESMX 101650Z 03007KT 020V080 9999 FEW020 SCT044 M06/M11 Q1008 RESN=
200603101620 METAR ESMX 101620Z 04010KT 010V070 9999 -SHSN FEW010 SCT028 BKN032 M05/M10 Q1008=
200603101550 METAR ESMX 101550Z 04009KT 010V070 9999 FEW017 SCT031 BKN035 M04/M11 Q1008=
200603101520 METAR ESMX 101520Z 04009KT 010V070 9999 FEW028 SCT030 M04/M12 Q1008=
200603101450 METAR ESMX 101450Z 04010KT 020V080 9999 FEW028 SCT034 M03/M12 Q1007=
200603101420 METAR ESMX 101420Z 04010KT 9999 FEW025 SCT033 M03/M11 Q1007=
200603101350 METAR ESMX 101350Z 03010KT 020V080 9999 FEW025 BKN031 M03/M11 Q1007=
200603101320 METAR ESMX 101320Z 03008KT 350V080 9999 FEW026 SCT032 M02/M11 Q1007=
200603101250 METAR ESMX 101250Z 04010KT 010V080 9999 FEW020 SCT026 M03/M11 Q1007=
200603101220 METAR ESMX 101220Z 04009KT 020V080 9999 FEW020 SCT025 M03/M11 Q1007=
200603101150 METAR ESMX 101150Z 04010KT 020V080 9999 SCT026 M04/M10 Q1007=
200603101120 METAR ESMX 101120Z 06009KT 010V090 9999 FEW023 M04/M11 Q1007=
200603101050 METAR ESMX 101050Z 01007KT 9999 FEW020 M05/M11 Q1008=
200603101020 METAR ESMX 101020Z 02010KT CAVOK M05/M11 Q1007=
200603100950 METAR ESMX 100950Z 01007KT CAVOK M06/M11 Q1007=
200603100920 METAR ESMX 100920Z 01007KT 340V050 CAVOK M06/M11 Q1007=
200603100850 METAR ESMX 100850Z 01008KT 350V050 CAVOK M08/M11 Q1007=
200603100820 METAR ESMX 100820Z 03007KT CAVOK M09/M12 Q1007=
200603100750 METAR ESMX 100750Z 02009KT 9999 FEW012 M10/M12 Q1007=
200603100720 METAR ESMX 100720Z 01007KT 7000 FEW007 SCT010 M11/M13 Q1007=
200603100650 METAR ESMX 100650Z 36008KT 9999 FEW017 M12/M13 Q1007=
200603100620 METAR ESMX 100620Z 36008KT 9999 SCT008 M12/M13 Q1007=
200603100550 METAR ESMX 100550Z 03008KT 9999 -SN OVC008 M10/M11 Q1007=
200603100520 METAR ESMX 100520Z 03009KT 9999 BKN005 M10/M11 Q1007=
200603100450 METAR ESMX 100450Z 03008KT 9999 BKN005 M10/M11 Q1006=
200603100420 METAR ESMX 100420Z AUTO 03010KT 9999 OVC005 M11/M12 Q1006=
200603100350 METAR ESMX 100350Z AUTO 03007KT 9999 OVC006 M10/M12 Q1006=
200603100320 METAR ESMX 100320Z AUTO 01006KT 9999 FEW014 M11/M13 Q1007=
200603100250 METAR ESMX 100250Z AUTO 03007KT 9999 SCT010 OVC014 M10/M11 Q1007=
200603100220 METAR ESMX 100220Z AUTO 02006KT 9999 OVC011 M10/M11 Q1007=
200603100150 METAR ESMX 100150Z AUTO 02006KT 9999 FEW008 OVC009 M10/M11 Q1006=
200603100120 METAR ESMX 100120Z AUTO 02007KT 9999 FEW007 SCT015 M11/M12 Q1007=
200603100050 METAR ESMX 100050Z 36006KT 9999 -SN SCT012 BKN015 M10/M12 Q1007=
200603100020 METAR ESMX 100020Z 02005KT 340V050 9999 SCT015 M10/M11 Q1007=
200603092350 METAR ESMX 092350Z 02005KT 350V060 9999 FEW009 BKN016 M10/M11 Q1007=
200603092320 METAR ESMX 092320Z 01007KT 340V050 9999 FEW008 SCT015 M10/M11 Q1007=
200603092250 METAR ESMX 092250Z 02007KT 9999 BKN008 M10/M11 Q1007=
200603092220 METAR ESMX 092220Z 02006KT 9999 BKN009 M10/M11 Q1007=
200603092150 METAR ESMX 092150Z 02007KT 9999 SCT009 M10/M11 Q1007=
200603092120 METAR ESMX 092120Z 03006KT CAVOK M10/M12 Q1007=
200603092050 METAR ESMX 092050Z 02006KT 9999 FEW020 M10/M12 Q1007=
200603092020 METAR ESMX 092020Z 01006KT 9999 SCT018 M09/M11 Q1007=
200603091950 METAR ESMX 091950Z 04005KT 010V070 9999 FEW015 M09/M11 Q1007=
200603091920 METAR ESMX 091920Z 05005KT CAVOK M08/M11 Q1007=
200603091850 METAR ESMX 091850Z 04007KT 360V080 9999 FEW017 M07/M11 Q1007=
200603091820 METAR ESMX 091820Z 05007KT 9999 FEW020 SCT022 M06/M09 Q1007=
200603091750 METAR ESMX 091750Z 05008KT 020V080 9999 -SHSN BKN019 M05/M08 Q1007=
200603091720 METAR ESMX 091720Z 05007KT 020V090 9999 -SHSN FEW017 OVC019 M05/M08 Q1006=
200603091650 METAR ESMX 091650Z 05009KT 020V080 8000 -SHSN FEW016 BKN020 M05/M07 Q1006=
200603091620 METAR ESMX 091620Z 04007KT 9999 FEW008 SCT019 BKN022 M04/M07 Q1006=
200603091550 METAR ESMX 091550Z 05008KT 010V110 9999 -SN FEW009 SCT017 BKN020 M04/M07 Q1006=
200603091520 METAR ESMX 091520Z 04010KT 020V080 9999 FEW013 SCT019 BKN026 M03/M06 Q1006=
200603091450 METAR ESMX 091450Z 06007KT 020V090 9999 FEW021 BKN025 M03/M08 Q1006=
200603091420 METAR ESMX 091420Z 05008KT 020V080 9999 FEW019 BKN023 M03/M07 Q1006=
200603091350 METAR ESMX 091350Z 05008KT 020V090 9999 FEW015 BKN025 M02/M07 Q1006=
200603091320 METAR ESMX 091320Z 05007KT 020V100 9999 FEW018 BKN022 M03/M07 Q1006=
200603091250 METAR ESMX 091250Z 04006KT 350V110 9999 BKN018 M03/M07 Q1006=
200603091220 METAR ESMX 091220Z 07007KT 030V120 9999 BKN018 M03/M07 Q1007=
200603091150 METAR ESMX 091150Z 05009KT 010V120 9999 BKN017 M02/M06 Q1007=
200603091120 METAR ESMX 091120Z 07007KT 020V120 9999 BKN015 M03/M07 Q1007=
200603091050 METAR ESMX 091050Z 07007KT 020V120 9999 BKN013 M03/M07 Q1007=
200603091020 METAR ESMX 091020Z 08008KT 360V120 9999 BKN011 M02/M06 Q1007=
200603090950 METAR ESMX 090950Z 07009G19KT 020V110 9999 FEW011 BKN014 M02/M05 Q1007=
200603090850 METAR ESMX 090850Z 04007KT 9999 SCT011 M05/M06 Q1007=
200603090820 METAR ESMX 090820Z 05004KT 020V080 9999 FEW002 SCT007 M07/M08 Q1007=
200603090750 METAR ESMX 090750Z 02004KT 9999 BKN002 M10/M11 Q1007=
200603090720 METAR ESMX 090720Z 04005KT 9999 SCT002 M09/M10 Q1007=
200603090650 METAR ESMX 090650Z VRB03KT CAVOK M15/M17 Q1007=
200603090620 METAR ESMX 090620Z 36004KT CAVOK M16/M17 Q1007=
200603090550 METAR ESMX 090550Z /////KT CAVOK M16/M18 Q1007=
200603090520 METAR ESMX 090520Z 36005KT 9999 SCT016 M16/M18 Q1007=
200603090450 METAR ESMX 090450Z VRB02KT 9999 BKN017 M17/M18 Q1007=
200603090420 METAR ESMX 090420Z AUTO VRB02KT 9999 NSC M17/M19 Q1007=
200603090350 METAR ESMX 090350Z AUTO VRB01KT 9999 FEW020 M18/M20 Q1007=
200603090320 METAR ESMX 090320Z AUTO VRB02KT 9999 NSC M17/M19 Q1007=
200603090250 METAR ESMX 090250Z AUTO VRB03KT 9999 NSC M17/M19 Q1007=
200603090220 METAR ESMX 090220Z AUTO VRB02KT 9999 NSC M17/M19 Q1007=
200603090150 METAR ESMX 090150Z AUTO VRB02KT 9999 NSC M17/M19 Q1007=
200603090120 METAR ESMX 090120Z VRB01KT CAVOK M17/M18 Q1007=
200603090050 METAR ESMX 090050Z VRB01KT 9000 BR NSC M17/M18 Q1008=
200603090020 METAR ESMX 090020Z VRB02KT 9000 BCFG NSC M16/M18 Q1008=
200603082350 METAR ESMX 082350Z VRB02KT 7000 BCFG NSC M16/M17 Q1008=
200603082320 METAR ESMX 082320Z VRB01KT 9999 BCFG NSC M16/M18 Q1008=
200603082250 METAR ESMX 082250Z VRB02KT 9999 BCFG NSC M14/M16 Q1008=
200603082220 METAR ESMX 082220Z VRB02KT 9999 BCFG SKC M14/M15 Q1008=
200603082150 METAR ESMX 082150Z VRB02KT 9999 BCFG SKC M13/M14 Q1009=
200603082120 METAR ESMX 082120Z VRB02KT 9999 BCFG SKC M14/M15 Q1009=
200603082050 METAR ESMX 082050Z 00000KT 7000 BR SKC M12/M12 Q1009=
200603082020 METAR ESMX 082020Z 00000KT 6000 BR SKC M11/M12 Q1009=
200603081950 METAR ESMX 081950Z 17004KT CAVOK M11/M12 Q1009=
200603081920 METAR ESMX 081920Z VRB02KT CAVOK M09/M10 Q1009=
200603081850 METAR ESMX 081850Z 16004KT CAVOK M06/M08 Q1009=
200603081820 METAR ESMX 081820Z 15004KT CAVOK M06/M08 Q1009=
200603081750 METAR ESMX 081750Z 17005KT CAVOK M05/M08 Q1009=
200603081720 METAR ESMX 081720Z 15004KT CAVOK M04/M08 Q1009=
200603081650 METAR ESMX 081650Z VRB03KT CAVOK M03/M08 Q1009=
200603081620 METAR ESMX 081620Z 18004KT CAVOK M03/M08 Q1010=
200603081550 METAR ESMX 081550Z 19004KT 160V230 CAVOK M03/M08 Q1010=
200603081520 METAR ESMX 081520Z 18005KT 150V250 9999 FEW025 M02/M09 Q1010=
200603081450 METAR ESMX 081450Z 18005KT CAVOK M01/M09 Q1010=
200603081420 METAR ESMX 081420Z 20006KT CAVOK M01/M08 Q1011=
200603081350 METAR COR ESMX 081350Z 19005KT 9999 FEW025 M01/M08 Q1011=
200603081320 METAR ESMX 081320Z 17005KT 140V210 9999 FEW025 M02/M08 Q1011=
200603081220 METAR ESMX 081220Z 19006KT 150V240 CAVOK M02/M08 Q1012=
200603081150 METAR ESMX 081150Z 20007KT 170V240 9999 FEW018 M03/M07 Q1013=
200603081120 METAR ESMX 081120Z 19006KT 9999 FEW015 M03/M07 Q1013=
200603081050 METAR ESMX 081050Z 19006KT 9999 SCT016 M04/M06 Q1013=
200603081020 METAR ESMX 081020Z VRB04KT 9999 FEW017 M05/M06 Q1013=
200603080950 METAR ESMX 080950Z 00000KT 9999 SCT017 M06/M07 Q1013=
200603080920 METAR ESMX 080920Z 00000KT 9999 BKN017 M07/M08 Q1013=
200603080850 METAR ESMX 080850Z 00000KT 7000 BR FEW002 BKN018 M07/M08 Q1014=
200603080820 METAR ESMX 080820Z 00000KT 6000 BCFG BR FEW002 M09/M10 Q1014=
200603080750 METAR ESMX 080750Z 00000KT 0700 R19/0650VP1500U FZFG BKN001 M11/M12 Q1014=
200603080720 METAR ESMX 080720Z 00000KT 0300 R01/0350D R19/P1500D FZFG VV002 M12/M14 Q1014=
200603080650 METAR ESMX 080650Z VRB01KT 0400 R19/0200V0600D FZFG VV001 M14/M15 Q1014=
200603080620 METAR ESMX 080620Z 00000KT 0550 R19/0700VP1500U FZFG VV002 M12/M14 Q1014=
200603080550 METAR ESMX 080550Z VRB01KT 0200 R19/0350V0500N FZFG VV001 M12/M13 Q1014=
200603080520 METAR ESMX 080520Z 00000KT 0200 R01/0650N R19/0500N FZFG VV001 M12/M13 Q1014=
200603080450 METAR ESMX 080450Z 00000KT 0150 R01/0650N R19/0600N FZFG VV001 M12/M13 Q1014=
200603080420 METAR ESMX 080420Z AUTO 00000KT 0150 R01/0650N R19/0450N FG VV000 M11/M12 Q1014=
200603080350 METAR ESMX 080350Z AUTO 00000KT 0100 R01/0500N R19/0375V0500N FG VV000 M11/M12 Q1015=
200603080320 METAR ESMX 080320Z AUTO 00000KT 0100 R01/0350V0500N R19/0375N FG VV000 M11/M12 Q1015=
200603080250 METAR ESMX 080250Z AUTO VRB02KT 0100 R01/0400V0500N R19/0500N FG VV000 M12/M13 Q1015=
200603080220 METAR ESMX 080220Z AUTO 00000KT 0100 R01/0500N R19/0450N FG VV000 M13/M14 Q1015=
200603080150 METAR ESMX 080150Z AUTO VRB01KT 0200 R01/0750V1200U R19/0800VP1500D FG VV001 M14/M15 Q1015=
200603080120 METAR ESMX 080120Z AUTO VRB01KT 9999 FEW001 SCT010 M15/M16 Q1015=
200603080050 METAR ESMX 080050Z VRB01KT 9999 SCT011 M14/M15 Q1015=
200603080020 METAR ESMX 080020Z VRB03KT CAVOK M14/M16 Q1015=
200603072350 METAR ESMX 072350Z VRB03KT CAVOK M14/M15 Q1015=
200603072320 METAR ESMX 072320Z VRB02KT CAVOK M13/M14 Q1015=
200603072250 METAR ESMX 072250Z VRB02KT CAVOK M13/M13 Q1015=
200603072220 METAR ESMX 072220Z VRB02KT CAVOK M11/M12 Q1015=
200603072150 METAR ESMX 072150Z VRB03KT CAVOK M10/M12 Q1015=
200603072120 METAR ESMX 072120Z VRB03KT CAVOK M09/M11 Q1015=
200603072050 METAR ESMX 072050Z 25004KT CAVOK M11/M13 Q1015=
200603072020 METAR ESMX 072020Z 26004KT CAVOK M12/M14 Q1015=
200603071950 METAR ESMX 071950Z VRB03KT CAVOK M11/M13 Q1015=
200603071920 METAR ESMX 071920Z VRB02KT CAVOK M10/M12 Q1015=
200603071850 METAR ESMX 071850Z VRB02KT CAVOK M09/M12 Q1015=
200603071820 METAR ESMX 071820Z VRB03KT CAVOK M09/M12 Q1015=
200603071750 METAR ESMX 071750Z VRB02KT CAVOK M07/M11 Q1015=
200603071720 METAR ESMX 071720Z VRB02KT CAVOK M05/M12 Q1015=
200603071650 METAR ESMX 071650Z VRB03KT CAVOK M04/M11 Q1015=
200603071620 METAR ESMX 071620Z 26004KT CAVOK M03/M11 Q1015=
200603071550 METAR ESMX 071550Z 28005KT CAVOK M02/M11 Q1015=
200603071520 METAR ESMX 071520Z 30005KT 270V360 CAVOK M02/M11 Q1015=
200603071450 METAR ESMX 071450Z 29005KT 250V320 CAVOK M02/M11 Q1015=
200603071420 METAR ESMX 071420Z 30005KT 250V350 CAVOK M02/M10 Q1015=
200603071350 METAR ESMX 071350Z 29006KT 250V320 CAVOK M03/M10 Q1015=
200603071320 METAR ESMX 071320Z 28006KT CAVOK M03/M11 Q1015=
200603071250 METAR ESMX 071250Z 31006KT 250V320 CAVOK M03/M10 Q1015=
200603071220 METAR ESMX 071220Z 27006KT 250V320 CAVOK M03/M11 Q1015=
200603071150 METAR ESMX 071150Z 27005KT CAVOK M03/M10 Q1015=
200603071120 METAR ESMX 071120Z 28005KT 250V330 CAVOK M04/M11 Q1015=
200603071050 METAR ESMX 071050Z 29006KT 250V320 CAVOK M04/M10 Q1015=
200603071020 METAR ESMX 071020Z 35004KT CAVOK M05/M10 Q1015=
200603070950 METAR ESMX 070950Z VRB03KT CAVOK M06/M10 Q1015=
200603070920 METAR ESMX 070920Z 30006KT CAVOK M07/M10 Q1015=
200603070850 METAR ESMX 070850Z 30006KT CAVOK M08/M10 Q1015=
200603070820 METAR ESMX 070820Z VRB03KT CAVOK M09/M11 Q1015=
200603070750 METAR ESMX 070750Z VRB01KT CAVOK M11/M12 Q1015=
200603070720 METAR ESMX 070720Z 00000KT CAVOK M13/M14 Q1015=
200603070650 METAR ESMX 070650Z 00000KT CAVOK M17/M19 Q1014=
200603070620 METAR ESMX 070620Z 00000KT CAVOK M20/M22 Q1014=
200603070550 METAR ESMX 070550Z VRB01KT 9999 FEW020 M20/M22 Q1014=
200603070520 METAR ESMX 070520Z VRB01KT 9999 FEW020 M20/M22 Q1014=
200603070450 METAR ESMX 070450Z 00000KT 9999 FEW036 SCT044 M20/M22 Q1014=
200603070420 METAR ESMX 070420Z AUTO 00000KT 9999 FEW040 SCT057 M20/M22 Q1014=
200603070350 METAR ESMX 070350Z AUTO 00000KT 9999 NSC M20/M22 Q1014=
200603070320 METAR ESMX 070320Z AUTO 00000KT 9999 NSC M19/M21 Q1013=
200603070250 METAR ESMX 070250Z AUTO 00000KT 9999 FEW076 M19/M21 Q1013=
200603070220 METAR ESMX 070220Z AUTO 00000KT 9999 SCT076 M18/M19 Q1013=
200603070150 METAR ESMX 070150Z AUTO 00000KT 9999 SCT079 BKN110 M18/M19 Q1013=
200603070120 METAR ESMX 070120Z 00000KT 9999 BCFG NSC M18/M19 Q1013=
200603070050 METAR ESMX 070050Z 00000KT 0900 R01/P1500N R19/0500VP1500D BCFG NSC M18/M19 Q1013=
200603070020 METAR ESMX 070020Z VRB01KT 1200 R01/P1500N R19/P1500N BCFG NSC M17/M18 Q1013=
200603062350 METAR ESMX 062350Z 00000KT 4300 BCFG NSC M16/M18 Q1013=
200603062320 METAR ESMX 062320Z 00000KT 9999 BCFG NSC M17/M18 Q1013=
200603062250 METAR ESMX 062250Z 00000KT 9999 BCFG NSC M17/M18 Q1013=
200603062220 METAR ESMX 062220Z 00000KT 9999 BCFG NSC M16/M18 Q1012=
200603062150 METAR ESMX 062150Z 00000KT 8000 BCFG NSC M16/M17 Q1012=
200603062120 METAR ESMX 062120Z 00000KT 9999 BCFG NSC M15/M16 Q1012=
200603062050 METAR ESMX 062050Z 00000KT 8000 BCFG M14/M16 Q1011=
200603062020 METAR ESMX 062020Z 00000KT CAVOK M14/M15 Q1011=
200603061950 METAR ESMX 061950Z 00000KT CAVOK M13/M14 Q1011=
200603061920 METAR ESMX 061920Z 00000KT CAVOK M12/M13 Q1011=
200603061850 METAR ESMX 061850Z 00000KT CAVOK M12/M13 Q1010=
200603061820 METAR ESMX 061820Z VRB01KT CAVOK M11/M12 Q1010=
200603061750 METAR ESMX 061750Z VRB02KT CAVOK M09/M10 Q1010=
200603061720 METAR ESMX 061720Z 00000KT CAVOK M09/M10 Q1009=
200603061650 METAR ESMX 061650Z VRB01KT CAVOK M06/M09 Q1009=
200603061620 METAR ESMX 061620Z VRB02KT CAVOK M04/M08 Q1009=
200603061550 METAR ESMX 061550Z VRB02KT CAVOK M04/M08 Q1008=
200603061520 METAR ESMX 061520Z VRB02KT CAVOK M03/M08 Q1008=
200603061450 METAR ESMX 061450Z VRB01KT CAVOK M02/M08 Q1008=
200603061420 METAR ESMX 061420Z VRB02KT CAVOK M01/M09 Q1007=
200603061350 METAR ESMX 061350Z VRB02KT CAVOK M02/M09 Q1007=
200603061320 METAR ESMX 061320Z VRB03KT CAVOK M03/M09 Q1007=
200603061250 METAR ESMX 061250Z VRB03KT CAVOK M05/M09 Q1007=
200603061220 METAR ESMX 061220Z 34004KT CAVOK M05/M09 Q1007=
200603061150 METAR ESMX 061150Z VRB03KT CAVOK M06/M09 Q1007=
200603061120 METAR ESMX 061120Z VRB03KT 9999 FEW010 M07/M10 Q1007=
200603061050 METAR ESMX 061050Z VRB03KT 9999 SCT008 M07/M10 Q1007=
200603061020 METAR ESMX 061020Z VRB03KT 9999 SCT008 M06/M10 Q1007=
200603060950 METAR ESMX 060950Z VRB03KT 8000 BR OVC008 M08/M10 Q1007=
200603060920 METAR ESMX 060920Z VRB03KT 8000 BR OVC007 M09/M10 Q1006=
200603060850 METAR ESMX 060850Z VRB01KT 8000 BR OVC006 M08/M10 Q1006=
200603060820 METAR ESMX 060820Z VRB03KT 8000 BR OVC007 M09/M10 Q1005=
200603060750 METAR ESMX 060750Z 33006KT 320V020 4500 BR OVC007 M09/M10 Q1005=
200603060720 METAR ESMX 060720Z 34006KT 6000 BR OVC006 M09/M10 Q1005=
200603060650 METAR ESMX 060650Z 33005KT 5000 BR OVC006 M09/M10 Q1004=
200603060620 METAR ESMX 060620Z 34006KT 4600 BR OVC006 M09/M10 Q1004=
200603060550 METAR ESMX 060550Z 34006KT 9000 -SN OVC007 M09/M11 Q1004=
200603060520 METAR ESMX 060520Z 32005KT 290V360 6000 -SN OVC008 M10/M11 Q1004=
200603060450 METAR ESMX 060450Z 28004KT 7000 -SN OVC008 M10/M11 Q1003=
200603060420 METAR ESMX 060420Z AUTO 32005KT 8000 -SN OVC009 M09/M11 Q1003=
200603060350 METAR ESMX 060350Z AUTO 33008KT 9000 -SN OVC008 M10/M11 Q1003=
200603060320 METAR ESMX 060320Z AUTO 32007KT 9999 -SN FEW008 OVC009 M11/M12 Q1003=
200603060250 METAR ESMX 060250Z AUTO 28004KT 6000 -SN FEW005 OVC006 M13/M14 Q1003=
200603060220 METAR ESMX 060220Z AUTO 28005KT 9999 -SN BKN005 M13/M15 Q1003=
200603060150 METAR ESMX 060150Z AUTO 27005KT 9999 -SN OVC007 M14/M15 Q1002=
200603060120 METAR ESMX 060120Z VRB03KT 9999 SCT008 M15/M17 Q1002=
200603060020 METAR ESMX 060020Z 28004KT 9999 SCT006 BKN009 M13/M15 Q1002=
200603052350 METAR ESMX 052350Z VRB03KT 9999 FEW008 M15/M17 Q1002=
200603052320 METAR ESMX 052320Z VRB03KT CAVOK M14/M15 Q1001=
200603052250 METAR ESMX 052250Z VRB03KT CAVOK M14/M15 Q1001=
200603052220 METAR ESMX 052220Z 28004KT CAVOK M13/M14 Q1000=
200603052150 METAR ESMX 052150Z VRB03KT CAVOK M13/M14 Q1000=
200603052120 METAR ESMX 052120Z VRB03KT CAVOK M12/M14 Q1000=
200603052050 METAR ESMX 052050Z VRB03KT 9999 FEW016 M12/M13 Q1000=
200603052020 METAR ESMX 052020Z 30004KT CAVOK M11/M13 Q1000=
200603051950 METAR ESMX 051950Z 32005KT 3400 -SHSN NSC M11/M13 Q0999=
200603051920 METAR ESMX 051920Z 32004KT CAVOK M11/M13 Q0999=
200603051850 METAR ESMX 051850Z 32006KT 9999 -SHSN FEW015 SCT027 M10/M12 Q0999=
200603051820 METAR ESMX 051820Z 31008KT 9999 -SN FEW018 BKN027 BKN037 M09/M11 Q0999=
200603051750 METAR ESMX 051750Z 30004KT 280V340 2300 -SN SCT013 BKN019 M08/M09 Q0998=
200603051720 METAR ESMX 051720Z 29004KT 3600 -SN FEW009 BKN013 M07/M10 Q0998=
200603051650 METAR ESMX 051650Z 29005KT 260V320 9999 -SHSN FEW005 SCT028 M07/M09 Q0997=
200603051620 METAR ESMX 051620Z 27004KT 3600 SHSN FEW009 SCT027 BKN034 M06/M09 Q0997=
200603051550 METAR ESMX 051550Z 28006KT 250V310 9999 -SHSN FEW018 SCT027 BKN031 M06/M10 Q0996=
200603051520 METAR ESMX 051520Z 27006KT 220V300 9999 FEW008 SCT026 BKN031 M06/M10 Q0996=
200603051450 METAR ESMX 051450Z VRB03KT 9999 -SHSN FEW014 BKN023 M06/M10 Q0996=
200603051420 METAR ESMX 051420Z 28008KT 240V320 9999 FEW012 SCT025 M05/M11 Q0996=
200603051350 METAR ESMX 051350Z 31006KT 9999 -SHSN FEW013 SCT025 M06/M11 Q0995=
200603051320 METAR ESMX 051320Z AUTO 27008KT 250V320 9999 -SN FEW018 BKN026 M06/M11 Q0995=
200603051250 METAR ESMX 051250Z AUTO 26007KT 230V290 9999 FEW020 BKN025 BKN033 M06/M11 Q0995=
200603051220 METAR ESMX 051220Z AUTO 28008KT 240V330 9999 FEW018 SCT023 BKN027 M06/M12 Q0995=
200603051150 METAR ESMX 051150Z AUTO 30009KT 270V330 9999 FEW028 M06/M12 Q0995=
200603051120 METAR ESMX 051120Z AUTO 26009KT 220V290 9999 FEW028 M06/M13 Q0995=
200603051050 METAR ESMX 051050Z AUTO 27007KT 230V310 9999 FEW023 M07/M12 Q0995=
200603051020 METAR ESMX 051020Z AUTO 27007KT 240V310 9999 FEW017 M07/M11 Q0994=
200603050950 METAR ESMX 050950Z AUTO 30005KT 250V330 9999 NSC M08/M11 Q0994=
200603050920 METAR ESMX 050920Z AUTO VRB03KT 9999 NSC M09/M11 Q0994=
200603050850 METAR ESMX 050850Z AUTO 28004KT 9999 NSC M10/M12 Q0994=
200603050820 METAR ESMX 050820Z AUTO 30005KT 260V330 9999 FEW048 M11/M12 Q0994=
200603050750 METAR ESMX 050750Z AUTO VRB02KT 9999 FEW020 BKN035 M12/M13 Q0994=
200603050720 METAR ESMX 050720Z AUTO VRB02KT 9999 FEW016 BKN022 BKN031 M12/M13 Q0994=
200603050650 METAR ESMX 050650Z AUTO VRB03KT 9999 FEW017 BKN023 M16/M18 Q0993=
200603050620 METAR ESMX 050620Z AUTO 00000KT 9999 SCT023 M16/M18 Q0993=
200603050550 METAR ESMX 050550Z AUTO 00000KT 9999 FEW039 M16/M18 Q0993=
200603050520 METAR ESMX 050520Z AUTO 00000KT 9999 FEW064 M15/M17 Q0993=
200603050450 METAR ESMX 050450Z AUTO 00000KT 9999 NSC M14/M16 Q0992=
200603050420 METAR ESMX 050420Z AUTO 00000KT 9999 BKN036 M13/M14 Q0992=
200603050350 METAR ESMX 050350Z AUTO 00000KT 9999 OVC018 M13/M14 Q0992 RESN=
200603050320 METAR ESMX 050320Z AUTO 00000KT 9999 -SHSN BKN022 BKN032 M13/M14 Q0992=
200603050250 METAR ESMX 050250Z AUTO VRB01KT 9999 FEW016 BKN027 BKN035 M13/M14 Q0992 RESN=
200603050220 METAR ESMX 050220Z AUTO VRB02KT 9999 -SN FEW018 SCT023 BKN037 M12/M14 Q0992=
200603050150 METAR ESMX 050150Z AUTO 00000KT 9999 -SN FEW023 SCT027 BKN045 M13/M14 Q0992=
200603050120 METAR ESMX 050120Z AUTO 00000KT 9999 BKN041 M14/M15 Q0992=
200603050050 METAR ESMX 050050Z AUTO 00000KT 9999 SCT049 M14/M15 Q0992=
200603050020 METAR ESMX 050020Z AUTO 00000KT 9999 FEW036 M13/M15 Q0992=
200603042350 METAR ESMX 042350Z AUTO 00000KT 9999 FEW027 SCT035 M13/M14 Q0992=
200603042320 METAR ESMX 042320Z AUTO VRB01KT 9999 NSC M13/M14 Q0992=
200603042250 METAR ESMX 042250Z AUTO VRB01KT 9999 FEW035 SCT039 M13/M14 Q0992=
200603042220 METAR ESMX 042220Z AUTO VRB01KT 9999 BKN038 M13/M14 Q0992=
200603042150 METAR ESMX 042150Z AUTO VRB01KT 9999 FEW043 SCT050 M13/M15 Q0992=
200603042120 METAR ESMX 042120Z AUTO VRB01KT 9999 FEW047 M12/M13 Q0992=
200603042050 METAR ESMX 042050Z AUTO VRB01KT 9999 NSC M13/M14 Q0992=
200603042020 METAR ESMX 042020Z AUTO 00000KT 9999 NSC M13/M14 Q0992=
200603041950 METAR ESMX 041950Z AUTO VRB02KT 9999 NSC M13/M14 Q0992=
200603041920 METAR ESMX 041920Z AUTO VRB02KT 9999 NSC M13/M14 Q0992=
200603041850 METAR ESMX 041850Z AUTO VRB01KT 9999 NSC M13/M15 Q0992=
200603041820 METAR ESMX 041820Z AUTO VRB01KT 9999 NSC M12/M12 Q0992=
200603041750 METAR ESMX 041750Z AUTO VRB02KT 9999 NSC M11/M12 Q0992=
200603041720 METAR ESMX 041720Z AUTO VRB02KT 9999 NSC M10/M11 Q0992=
200603041650 METAR ESMX 041650Z AUTO VRB03KT 9999 FEW024 M09/M11 Q0992=
200603041620 METAR ESMX 041620Z AUTO VRB02KT 9999 SCT021 BKN027 M07/M10 Q0991=
200603041550 METAR ESMX 041550Z AUTO VRB03KT 9999 NSC M06/M09 Q0991=
200603041520 METAR ESMX 041520Z AUTO 30004KT 9999 NSC M06/M09 Q0991=
200603041450 METAR ESMX 041450Z AUTO 31004KT 9999 NSC M04/M09 Q0991=
200603041420 METAR ESMX 041420Z AUTO 31005KT 9999 NSC M05/M09 Q0991=
200603041350 METAR ESMX 041350Z AUTO 26006KT 230V300 9999 FEW020 M05/M09 Q0991=
200603041320 METAR ESMX 041320Z AUTO 30006KT 240V340 9999 BKN018 M05/M09 Q0991=
200603041250 METAR ESMX 041250Z AUTO 30007KT 260V340 9999 FEW015 BKN019 M05/M08 Q0991 RESN=
200603041220 METAR ESMX 041220Z AUTO 28006KT 9999 SCT014 BKN018 M05/M08 Q0991 RESN=
200603041150 METAR ESMX 041150Z AUTO 30004KT 260V320 6000 -SN SCT012 BKN017 M05/M07 Q0991=
200603041120 METAR ESMX 041120Z AUTO 29005KT 4600 -SN BKN011 M05/M08 Q0991=
200603041050 METAR ESMX 041050Z AUTO 29005KT 260V330 2600 -SN FEW006 SCT058 M06/M08 Q0991=
200603041020 METAR ESMX 041020Z AUTO 31005KT 4000 -SN FEW008 SCT050 M06/M09 Q0991=
200603040950 METAR ESMX 040950Z AUTO 34004KT 4300 -SN SCT024 M06/M09 Q0991=
200603040920 METAR ESMX 040920Z AUTO 32004KT 290V350 7000 -SN SCT010 BKN023 M07/M09 Q0991=
200603040850 METAR ESMX 040850Z AUTO 35004KT 290V350 9999 -SN OVC019 M07/M09 Q0991=
200603040820 METAR ESMX 040820Z AUTO VRB03KT 2600 -SN OVC017 M07/M09 Q0990=
200603040750 METAR ESMX 040750Z AUTO 33004KT 3400 -SN FEW017 BKN020 BKN036 M08/M09 Q0990=
200603040720 METAR ESMX 040720Z AUTO VRB03KT 3400 -SHSN BKN020 BKN037 M08/M09 Q0990=
200603040650 METAR ESMX 040650Z AUTO VRB02KT 4100 -SHSN FEW015 SCT017 BKN025 M09/M10 Q0990=
200603040620 METAR ESMX 040620Z AUTO 01005KT 9999 BKN013 M09/M10 Q0990 RESN=
200603040550 METAR ESMX 040550Z AUTO 34004KT 9999 -SHSN OVC012 M08/M09 Q0990=
200603040520 METAR ESMX 040520Z AUTO 35004KT 9999 OVC014 M08/M09 Q0990 RESN=
200603040450 METAR ESMX 040450Z AUTO 35004KT 9999 -SHSN OVC014 M08/M09 Q0990=
200603040420 METAR ESMX 040420Z AUTO 34005KT 9999 -SHSN OVC011 M07/M09 Q0990=
200603040350 METAR ESMX 040350Z AUTO VRB03KT 9999 -SHSN OVC011 M07/M08 Q0990=
200603040320 METAR ESMX 040320Z AUTO VRB03KT 9999 -SN OVC010 M08/M09 Q0990=
200603040250 METAR ESMX 040250Z AUTO 01004KT 9999 OVC010 M08/M09 Q0990=
200603040220 METAR ESMX 040220Z AUTO 01004KT 9999 OVC010 M07/M08 Q0990 RESN=
200603040150 METAR ESMX 040150Z AUTO 01004KT 9999 -SN OVC009 M07/M08 Q0990=
200603040120 METAR ESMX 040120Z AUTO 01004KT 9999 -SN OVC009 M07/M08 Q0990=
200603040050 METAR ESMX 040050Z AUTO VRB03KT 9999 -SN OVC026 M06/M07 Q0990=
200603040020 METAR ESMX 040020Z AUTO 02004KT 350V060 9999 -SN OVC023 M06/M07 Q0990=
200603032350 METAR ESMX 032350Z AUTO 01005KT 7000 -SN FEW011 OVC024 M06/M07 Q0990=
200603032320 METAR ESMX 032320Z AUTO 36005KT 9999 -SHSN SCT011 BKN018 OVC023 M06/M07 Q0991=
200603032250 METAR ESMX 032250Z AUTO 01004KT 9999 -SHSN FEW010 BKN016 OVC020 M06/M07 Q0991=
200603032220 METAR ESMX 032220Z AUTO 35005KT 9999 OVC009 M06/M07 Q0991 RESN=
200603032150 METAR ESMX 032150Z AUTO VRB03KT 9999 FEW010 BKN014 OVC018 M05/M06 Q0991=
200603032120 METAR ESMX 032120Z AUTO 04005KT 9999 OVC014 M05/M06 Q0991 REDZ=
200603032050 METAR ESMX 032050Z AUTO 05006KT 020V080 9999 IC FEW010 OVC020 M05/M06 Q0991=
200603032020 METAR ESMX 032020Z AUTO 04006KT 9999 -SN FEW011 OVC022 M05/M06 Q0991=
200603031950 METAR ESMX 031950Z AUTO 03004KT 4000 -SN FEW011 SCT024 OVC030 M05/M06 Q0992=
200603031920 METAR ESMX 031920Z AUTO VRB03KT 6000 IC FEW007 SCT016 BKN020 M05/M06 Q0992=
200603031850 METAR ESMX 031850Z 03004KT 010V080 7000 -SN FEW009 SCT011 BKN015 M05/M06 Q0992=
200603031820 METAR ESMX 031820Z 04004KT 3100 -SN SCT014 BKN018 M04/M05 Q0992=
200603031750 METAR ESMX 031750Z 04004KT 2200 -SN VV020 M04/M05 Q0992=
200603031720 METAR ESMX 031720Z 04004KT 1200 R01/P1500N R19/P1500N SN VV020 M04/M05 Q0992=
200603031650 METAR ESMX 031650Z 04004KT 2000 SN FEW007 SCT017 BKN023 M04/M05 Q0992=
200603031620 METAR ESMX 031620Z 05004KT 360V080 5000 -SHSN FEW011 SCT020 BKN023 M04/M05 Q0992=
200603031550 METAR ESMX 031550Z 06004KT 020V110 2500 -SHSN FEW008 SCT018 BKN045 M03/M05 Q0992=
200603031520 METAR ESMX 031520Z 07004KT 030V110 3100 -SHSN FEW022 SCT031 BKN038 M03/M05 Q0992=
200603031420 METAR ESMX 031420Z 05006KT 010V080 9999 -SHSN FEW009 BKN019 M02/M05 Q0993=
200603031350 METAR ESMX 031350Z 04006KT 020V080 4900 -SHSN FEW006 SCT012 BKN018 M03/M05 Q0993=
200603031320 METAR ESMX 031320Z 05006KT 010V070 5000 -SN FEW008 SCT011 BKN015 M03/M04 Q0993=
200603031250 METAR ESMX 031250Z 04006KT 010V080 3600 -SN FEW011 BKN016 BKN059 M03/M04 Q0993=
200603031220 METAR ESMX 031220Z 05007KT 020V080 3300 -SN OVC013 M03/M05 Q0993=
200603031150 METAR ESMX 031150Z 01006KT 8000 -SN OVC012 M03/M06 Q0993=
200603031120 METAR ESMX 031120Z 03006KT 8000 -SN OVC011 M04/M06 Q0993=
200603031050 METAR ESMX 031050Z 04006KT 5000 -SN OVC011 M04/M06 Q0993=
200603031020 METAR ESMX 031020Z 02006KT 9999 -SN OVC010 M04/M06 Q0993=
200603030950 METAR ESMX 030950Z 06005KT 360V110 9999 OVC010 M04/M06 Q0993=
200603030920 METAR ESMX 030920Z 06007KT 030V110 9999 BKN010 M04/M06 Q0993=
200603030850 METAR ESMX 030850Z 07005KT 020V110 9999 FEW011 BKN015 M05/M06 Q0993 RESN=
200603030820 METAR ESMX 030820Z 05006KT 020V080 9999 SCT010 BKN015 OVC018 M05/M06 Q0993 RESN=
200603030750 METAR ESMX 030750Z 04006KT 9999 -SN FEW010 SCT012 BKN017 M05/M06 Q0993=
200603030720 METAR ESMX 030720Z 04006KT 7000 -SN SCT010 BKN017 M05/M06 Q0993=
200603030650 METAR ESMX 030650Z 06005KT 8000 -SN FEW011 OVC017 M05/M06 Q0993=
200603030620 METAR ESMX 030620Z 05004KT 4200 -SN FEW012 OVC017 M05/M06 Q0993=
200603030550 METAR ESMX 030550Z 07005KT 030V110 7000 -SN SCT011 OVC018 M05/M06 Q0993=
200603030520 METAR ESMX 030520Z 07006KT 9000 -SN BKN010 M05/M06 Q0993=
200603030450 METAR ESMX 030450Z 05005KT 9999 -SN BKN010 M05/M06 Q0993=
200603030420 METAR ESMX 030420Z AUTO 06004KT 020V110 9999 -SN SCT011 OVC016 M05/M06 Q0993=
200603030350 METAR ESMX 030350Z AUTO 05005KT 020V080 9999 -SN SCT012 OVC016 M05/M06 Q0993=
200603030320 METAR ESMX 030320Z AUTO 04006KT 4600 -SN OVC011 M05/M06 Q0993=
200603030250 METAR ESMX 030250Z AUTO 06006KT 9999 -SN BKN011 OVC020 M05/M06 Q0993=
200603030220 METAR ESMX 030220Z AUTO 05005KT 020V100 4600 -SN FEW011 OVC020 M05/M06 Q0993=
200603030150 METAR ESMX 030150Z AUTO 06005KT 020V110 9999 -SN FEW011 SCT014 BKN020 M05/M06 Q0993=
200603030120 METAR ESMX 030120Z AUTO 06006KT 030V110 2000 -SN FEW007 BKN013 OVC026 M05/M06 Q0993=
200603030050 METAR ESMX 030050Z 07006KT 020V120 9999 -SN SCT011 BKN027 M05/M06 Q0993=
200603030020 METAR ESMX 030020Z 05007KT 010V080 9999 -SN FEW010 SCT014 BKN026 M05/M06 Q0993=
200603022350 METAR ESMX 022350Z 06006KT 020V100 3300 -SN FEW010 BKN012 M05/M06 Q0994=
200603022320 METAR ESMX 022320Z 06005KT 020V110 3000 -SN FEW006 SCT011 BKN027 M05/M06 Q0994=
200603022250 METAR ESMX 022250Z 06006KT 020V100 1000 R01/P1500N R19/P1500N SN FEW000 SCT009 M05/M06 Q0994=
200603022220 METAR ESMX 022220Z 07007KT 030V110 1700 -SN FEW005 SCT009 OVC011 M05/M05 Q0994=
200603022150 METAR ESMX 022150Z 07008KT 040V120 1800 SN OVC009 M04/M05 Q0994=
200603022120 METAR ESMX 022120Z 07009KT 030V110 6000 -SN OVC009 M04/M05 Q0994=
200603022050 METAR ESMX 022050Z 07008KT 030V110 2800 -SN OVC009 M04/M05 Q0995=
200603022020 METAR ESMX 022020Z 08007G17KT 030V120 7000 -SN OVC009 M03/M04 Q0995=
200603021950 METAR ESMX 021950Z 08008KT 030V120 7000 -SN OVC009 M03/M04 Q0995=
200603021920 METAR ESMX 021920Z 09006KT 030V140 5000 -SN FEW006 BKN010 M03/M04 Q0995=
200603021850 METAR ESMX 021850Z 08007KT 040V130 2000 -SN FEW008 OVC012 M03/M04 Q0995=
200603021820 METAR ESMX 021820Z 07006KT 030V110 4500 -SN FEW008 SCT011 BKN014 M03/M03 Q0995=
200603021750 METAR ESMX 021750Z 09004KT 4000 -SNSH FEW006 SCT008 BKN015 M02/M03 Q0995=
200603021720 METAR ESMX 021720Z 09005KT 2700 -SHSN FEW008 BKN010 M02/M03 Q0995=
200603021650 METAR ESMX 021650Z 10006KT 050V140 1900 -SHSN FEW009 BKN010 M02/M03 Q0995=
200603021620 METAR ESMX 021620Z 11004KT 9999 BKN010 BKN020 M02/M03 Q0995 RESN=
200603021550 METAR ESMX 021550Z 10004KT 7000 -SN FEW010 SCT015 BKN024 M02/M03 Q0995=
200603021520 METAR ESMX 021520Z 10007KT 040V160 1900 SN FEW007 SCT011 BKN023 M02/M03 Q0995=
200603021450 METAR ESMX 021450Z 11005KT 1600 SN FEW009 SCT010 BKN020 M02/M02 Q0995=
200603021420 METAR ESMX 021420Z 09005KT 050V140 1500 -SN FEW005 SCT008 BKN013 M02/M02 Q0995=
200603021350 METAR ESMX 021350Z 10006KT 050V150 1500 SN FEW005 SCT013 M01/M02 Q0995=
200603021320 METAR ESMX 021320Z 08005KT 3100 -SN FEW007 SCT015 BKN020 M01/M03 Q0995=
200603021250 METAR ESMX 021250Z 08006KT 030V130 3000 -SHSN FEW006 SCT020 BKN028 M01/M03 Q0995=
200603021220 METAR ESMX 021220Z 08007KT 3900 -SHSN FEW013 BKN015 OVC027 M01/M03 Q0995=
200603021150 METAR ESMX 021150Z 09006KT 9000 BR FEW008 SCT014 BKN018 M01/M03 Q0995 RESN=
200603021120 METAR ESMX 021120Z 09007KT 030V150 6000 -SHSN FEW006 SCT011 BKN026 M01/M02 Q0996=
200603021050 METAR ESMX 021050Z 09005KT 050V150 1500 SHSN FEW006 SCT008 BKN015 M01/M02 Q0996=
200603021020 METAR ESMX 021020Z 10004KT 050V150 1500 -SHSN FEW006 BKN011 M02/M03 Q0996=
200603020950 METAR ESMX 020950Z 09005KT 020V170 7000 BR FEW006 SCT011 BKN023 M02/M03 Q0996=
200603020920 METAR ESMX 020920Z 07004KT 010V110 2000 -SN FEW006 BKN022 M02/M03 Q0996=
200603020850 METAR ESMX 020850Z VRB03KT 1400 R01/1000VP1500N R19/0900VP1500U SN VV008 M03/M03 Q0996=
200603020820 METAR ESMX 020820Z 09005KT 050V140 0700 R01/0650VP1500D R19/P1500D +SN VV004 M03/M04 Q0996=
200603020750 METAR ESMX 020750Z 09005KT 020V170 4000 -SN OVC007 M03/M04 Q0996=
200603020720 METAR ESMX 020720Z 09005KT 030V170 5000 -SN OVC006 M03/M04 Q0995=
200603020650 METAR ESMX 020650Z 09005KT 050V140 4800 -SN OVC005 M04/M04 Q0995=
200603020620 METAR ESMX 020620Z 10004KT 050V160 4100 -SN OVC006 M04/M05 Q0996=
200603020550 METAR ESMX 020550Z 07005KT 040V120 4500 -SN OVC006 M04/M05 Q0995=
200603020520 METAR ESMX 020520Z VRB03KT 3500 -SN OVC006 M04/M04 Q0995=
200603020450 METAR ESMX 020450Z 09005KT 050V140 4500 -SN OVC006 M04/M04 Q0995=
200603020420 METAR ESMX 020420Z AUTO 09004KT 050V160 4100 -SN OVC005 M04/M04 Q0995=
200603020350 METAR ESMX 020350Z AUTO 11005KT 070V160 5000 BR OVC005 M04/M04 Q0995=
200603020320 METAR ESMX 020320Z AUTO 11005KT 070V150 6000 BR OVC005 M04/M04 Q0995=
200603020250 METAR ESMX 020250Z AUTO VRB03KT 7000 BR OVC005 M04/M05 Q0995=
200603020220 METAR ESMX 020220Z AUTO 12005KT 070V190 8000 OVC006 M04/M05 Q0995 RESN=
200603020150 METAR ESMX 020150Z AUTO 11004KT 070V150 8000 BKN007 OVC012 M04/M05 Q0996 RESN=
200603020120 METAR ESMX 020120Z 11004KT 070V150 8000 -SN OVC008 M04/M05 Q0996=
200603020050 METAR ESMX 020050Z 11004KT 080V150 6000 -SN OVC008 M04/M05 Q0996=
200603020020 METAR ESMX 020020Z 12004KT 070V180 8000 -SHSN SCT008 BKN011 M04/M05 Q0996=
200603012350 METAR ESMX 012350Z 12004KT 080V190 8000 -SHSN BKN008 M04/M05 Q0996=
200603012320 METAR ESMX 012320Z VRB03KT 4700 -SN OVC008 M04/M05 Q0996=
200603012250 METAR ESMX 012250Z 12004KT 070V210 6000 -SHSN OVC007 M04/M05 Q0996=
200603012220 METAR ESMX 012220Z 13004KT 060V170 7000 -SN OVC007 M04/M05 Q0996=
200603012150 METAR ESMX 012150Z 12004KT 070V170 7000 -SN OVC007 M04/M05 Q0996=
200603012120 METAR ESMX 012120Z 11006KT 4400 -SN OVC009 M04/M04 Q0996=
200603012050 METAR ESMX 012050Z 11004KT 070V170 7000 -SHSN OVC010 M04/M04 Q0996=
200603012020 METAR ESMX 012020Z 11005KT 050V160 8000 -SN FEW008 OVC010 M03/M04 Q0996=
200603011950 METAR ESMX 011950Z 11004KT 050V160 4900 -SN FEW008 OVC011 M03/M04 Q0996=
200603011920 METAR ESMX 011920Z 11005KT 050V170 4800 -SN FEW010 SCT012 BKN028 M03/M04 Q0996=
200603011850 METAR ESMX 011850Z 10005KT 040V140 3100 -SN FEW008 SCT012 BKN015 M03/M04 Q0996=
200603011820 METAR ESMX 011820Z 10004KT 060V150 2100 SN FEW007 BKN011 M03/M03 Q0996=
200603011750 METAR ESMX 011750Z 11005KT 070V150 1800 SN FEW008 BKN010 M03/M03 Q0996=
200603011720 METAR ESMX 011720Z 11005KT 050V140 1500 R01/P1500N R19/P1500N SN VV006 M03/M03 Q0996=
200603011650 METAR ESMX 011650Z 13006KT 100V170 1300 R01/P1500N R19/P1500N +SN VV006 M03/M03 Q0995=
200603011620 METAR ESMX 011620Z 11004KT 070V170 1000 R01/P1500N R19/P1500N +SN VV005 M02/M03 Q0995=
200603011550 METAR ESMX 011550Z 12006KT 080V200 1600 -SN FEW006 BKN009 M02/M03 Q0995=
200603011520 METAR ESMX 011520Z 12006KT 060V170 1600 SN FEW007 SCT009 BKN013 M02/M03 Q0995=
200603011450 METAR ESMX 011450Z 13006KT 060V160 2300 -SN FEW007 SCT010 BKN012 M02/M03 Q0995=
200603011420 METAR ESMX 011420Z 13006KT 090V160 1900 -SN FEW008 BKN010 M01/M02 Q0995=
200603011350 METAR ESMX 011350Z 13008KT 100V160 4200 -SN FEW010 SCT013 BKN018 M01/M03 Q0995=
200603011320 METAR ESMX 011320Z 14008KT 080V170 3000 -SN FEW009 OVC010 M01/M03 Q0995=
200603011220 METAR ESMX 011220Z 14007KT 110V170 3300 -SN FEW009 BKN011 OVC015 M01/M02 Q0995=
