##########################################################
# Query made at 04/19/2024 20:53:38 UTC
# Time interval: from 10/01/2006 12:00  to 10/31/2006 12:59  UTC
##########################################################

##########################################################
# ESMX, Vaxjo (Sweden)
# WMO index: 02641. WIGOS ID: 0-20000-0-02648
# Latitude 56-51N. Longitude 014-50E. Altitude 199 m.
##########################################################

200610311250 METAR ESMX 311250Z 21010KT 9999 FEW010 SCT040 BKN060 11/09 Q0988=
200610311220 METAR ESMX 311220Z 23010KT 9999 SCT010 BKN060 11/09 Q0988=
200610311150 METAR ESMX 311150Z 22010KT 9999 -DZ SCT006 BKN030 11/10 Q0988 RERA=
200610311120 METAR ESMX 311120Z 27014G25KT 230V310 8000 RA FEW005 BKN010 11/10 Q0988=
200610311050 METAR ESMX 311050Z 22014KT 5000 DZ FEW005 SCT006 BKN008 12/12 Q0988 RERA=
200610311020 METAR ESMX 311020Z 22012KT 3400 -RA FEW003 OVC006 12/11 Q0989=
200610310950 METAR ESMX 310950Z 22011KT 2500 -RA FEW003 OVC009 12/11 Q0989=
200610310920 METAR ESMX 310920Z 19014KT 4500 -RA FEW003 BKN005 OVC006 12/11 Q0990=
200610310850 METAR ESMX 310850Z 20015KT 3000 -RA FEW004 OVC005 11/11 Q0990=
200610310820 METAR ESMX 310820Z 20014KT 3500 -RA FEW004 BKN006 OVC008 11/11 Q0991=
200610310750 METAR ESMX 310750Z 19015KT 6000 BR FEW005 BKN007 OVC010 12/11 Q0991=
200610310720 METAR ESMX 310720Z 20015KT 7000 -RA FEW004 BKN007 11/11 Q0992=
200610310650 METAR ESMX 310650Z 19015KT 3500 BR FEW004 OVC008 11/11 Q0992=
200610310620 METAR ESMX 310620Z 19012KT 3500 -RA SCT004 OVC007 11/11 Q0993=
200610310550 METAR ESMX 310550Z 20014KT 4200 -RA FEW002 OVC004 11/10 Q0993=
200610310520 METAR ESMX 310520Z 20015KT 3000 -DZ SCT002 BKN003 11/10 Q0994=
200610310450 METAR ESMX 310450Z 19013KT 3800 BR SCT002 OVC003 10/10 Q0995=
200610310420 METAR ESMX 310420Z 19015KT 3500 DZ BKN003 OVC004 10/10 Q0995=
200610310150 METAR ESMX 310150Z AUTO 20015KT 4700NDV BR OVC002/// 09/09 Q0999=
200610310120 METAR ESMX 310120Z 21013KT 180V240 4700 -DZ OVC003 09/09 Q0999=
200610310050 METAR ESMX 310050Z 20014KT 4000 DZ BKN003 OVC006 09/08 Q1000=
200610310020 METAR ESMX 310020Z 19014KT 4000 DZ BKN003 OVC006 09/08 Q1000=
200610302350 METAR ESMX 302350Z 18013KT 3500 -RA FEW004 OVC006 08/08 Q1001=
200610302320 METAR ESMX 302320Z 17011KT 140V200 5000 RA FEW004 SCT005 OVC007 08/07 Q1002=
200610302250 METAR ESMX 302250Z 17010KT 120V200 5000 RA FEW005 BKN006 OVC009 08/07 Q1003=
200610302220 METAR ESMX 302220Z 16009KT 120V190 7000 RA FEW005 SCT007 BKN008 07/07 Q1004=
200610302150 METAR ESMX 302150Z 17010KT 130V200 5000 -RA FEW005 BKN006 OVC009 08/07 Q1005=
200610302120 METAR ESMX 302120Z 17007KT 6000 RA BKN004 OVC008 07/07 Q1006=
200610302050 METAR ESMX 302050Z 16007KT 6000 -RA FEW004 SCT007 BKN008 07/07 Q1007=
200610302020 METAR ESMX 302020Z 19008KT 9000 -RA FEW006 SCT008 BKN010 07/07 Q1008=
200610301950 METAR ESMX 301950Z 18009KT 9999 -RA FEW007 SCT009 BKN010 07/07 Q1008=
200610301920 METAR ESMX 301920Z 19009KT 7000 RA FEW006 SCT008 BKN010 07/07 Q1009=
200610301850 METAR ESMX 301850Z 19007KT 8000 -RA FEW009 SCT013 BKN033 07/07 Q1009=
200610301820 METAR ESMX 301820Z 19006KT 9999 -RA FEW010 BKN037 07/07 Q1010=
200610301750 METAR ESMX 301750Z 19006KT 8000 -RA FEW008 SCT020 BKN030 07/07 Q1010=
200610301720 METAR ESMX 301720Z 20008KT 8000 -RA FEW015 BKN035 08/07 Q1011=
200610301650 METAR ESMX 301650Z 21008KT 9000 BR SCT003 BKN007 07/07 Q1011=
200610301620 METAR ESMX 301620Z 21008KT 8000 BR FEW004 SCT007 BKN010 08/07 Q1011=
200610301550 METAR ESMX 301550Z 19007KT 9000 BR FEW003 BKN010 07/07 Q1011=
200610301520 METAR ESMX 301520Z 21007KT 9999 FEW003 SCT012 BKN030 07/07 Q1012=
200610301450 METAR ESMX 301450Z 21007KT 9999 FEW004 BKN005 07/07 Q1012=
200610301420 METAR ESMX 301420Z 19008KT 9999 FEW003 SCT008 BKN010 07/07 Q1012=
200610301350 METAR ESMX 301350Z 20007KT 9999 SCT004 BKN006 OVC012 07/07 Q1012=
200610301320 METAR ESMX 301320Z 19008KT 9999 FEW003 BKN004 07/06 Q1013=
200610301250 METAR ESMX 301250Z 19010KT 9999 FEW003 SCT005 BKN035 07/06 Q1013 RERA=
200610301220 METAR ESMX 301220Z 20009KT 4000 -RA BR FEW003 SCT005 BKN007 06/06 Q1013=
200610301150 METAR ESMX 301150Z 20009KT 5000 -RA SCT003 OVC005 06/05 Q1013=
200610301050 METAR ESMX 301050Z 20009KT 9999 OVC004 05/05 Q1014=
200610301020 METAR ESMX 301020Z 20009KT 170V240 9999 FEW004 OVC006 05/04 Q1014=
200610300950 METAR ESMX 300950Z 20011KT 8000 DZ BR FEW004 BKN006 04/04 Q1014=
200610300920 METAR ESMX 300920Z 20012KT 9999 FEW005 SCT007 BKN019 04/03 Q1014 RERA=
200610300850 METAR ESMX 300850Z 19011KT 7000 -RA FEW017 SCT029 BKN038 04/03 Q1015=
200610300820 METAR ESMX 300820Z 19010KT 9999 FEW017 BKN020 03/03 Q1015=
200610300750 METAR ESMX 300750Z 18010KT 9999 FEW017 BKN021 03/02 Q1016 RERA=
200610300720 METAR ESMX 300720Z 19010KT 9999 -RA FEW014 SCT021 BKN026 03/02 Q1016=
200610300650 METAR ESMX 300650Z 21008KT 9999 SCT021 BKN027 02/01 Q1016 RERA=
200610300620 METAR ESMX 300620Z 19008KT 9999 FEW022 BKN030 OVC040 02/01 Q1017=
200610300550 METAR ESMX 300550Z 19008KT 9999 SCT022 BKN027 OVC049 01/01 Q1017=
200610300520 METAR ESMX 300520Z 21008KT 9999 FEW027 SCT042 BKN048 01/00 Q1017=
200610300450 METAR ESMX 300450Z 20008KT 9999 FEW019 SCT023 OVC066 01/M00 Q1017=
200610300420 METAR ESMX 300420Z AUTO 18008KT 9999NDV FEW019/// BKN021/// OVC029/// 00/M00 Q1017=
200610300350 METAR ESMX 300350Z AUTO 19006KT 9999NDV FEW023/// BKN045/// M00/M01 Q1018=
200610300320 METAR ESMX 300320Z AUTO 18006KT 9999NDV OVC046/// M00/M01 Q1018=
200610300250 METAR ESMX 300250Z AUTO 19005KT 9999NDV FEW030/// OVC048/// M01/M01 Q1019=
200610300220 METAR ESMX 300220Z AUTO 18006KT 9999NDV FEW051/// SCT095/// M01/M02 Q1019=
200610300150 METAR ESMX 300150Z AUTO 20005KT 9999NDV SCT089/// M01/M02 Q1019=
200610300120 METAR ESMX 300120Z AUTO 19005KT 9999NDV FEW025/// M03/M03 Q1019=
200610300050 METAR ESMX 300050Z AUTO 21005KT 9999NDV NCD M02/M02 Q1019=
200610300020 METAR ESMX 300020Z AUTO 21005KT 0550NDV R01/0800VP2000U R19/1800D FG NCD M02/M03 Q1020=
200610292350 METAR ESMX 292350Z AUTO 20004KT 6000NDV BR NCD M02/M02 Q1019=
200610292320 METAR ESMX 292320Z AUTO 22003KT 9999NDV NCD M03/M03 Q1020=
200610292250 METAR ESMX 292250Z AUTO 17003KT 9999NDV NCD M03/M03 Q1020=
200610292220 METAR ESMX 292220Z AUTO 18002KT 9999NDV NCD M03/M03 Q1020=
200610292150 METAR ESMX 292150Z AUTO 20002KT 9999NDV NCD M03/M03 Q1020=
200610292120 METAR ESMX 292120Z AUTO 00000KT 9999NDV NCD M02/M03 Q1020=
200610292050 METAR ESMX 292050Z 16003KT CAVOK M02/M02 Q1020=
200610292020 METAR ESMX 292020Z VRB01KT CAVOK M02/M02 Q1020=
200610291950 METAR ESMX 291950Z 19002KT CAVOK M02/M02 Q1019=
200610291920 METAR ESMX 291920Z VRB02KT CAVOK M02/M02 Q1019=
200610291850 METAR ESMX 291850Z 00000KT CAVOK M01/M02 Q1019=
200610291820 METAR ESMX 291820Z VRB01KT CAVOK M01/M01 Q1019=
200610291750 METAR ESMX 291750Z VRB02KT CAVOK M00/M01 Q1019=
200610291720 METAR ESMX 291720Z 04003KT CAVOK 01/M01 Q1018=
200610291650 METAR ESMX 291650Z 04005KT CAVOK 01/M00 Q1018=
200610291620 METAR ESMX 291620Z 03006KT 360V060 9999 FEW015 01/M00 Q1017=
200610291550 METAR ESMX 291550Z 02006KT 9999 FEW018 02/M00 Q1017=
200610291520 METAR ESMX 291520Z 02006KT 350V060 9999 FEW016 03/M00 Q1016=
200610291450 METAR ESMX 291450Z 03008KT 9999 FEW020 03/M00 Q1016=
200610291420 METAR ESMX 291420Z 01008KT 9999 FEW020 04/01 Q1015=
200610291350 METAR ESMX 291350Z 01009KT 9999 FEW018 04/00 Q1015=
200610291320 METAR ESMX 291320Z 02010KT 350V050 9999 FEW016 SCT020 04/01 Q1015=
200610291250 METAR ESMX 291250Z 02010KT 350V050 9999 FEW015 04/01 Q1014=
200610291220 METAR ESMX 291220Z 01009KT 340V060 9999 FEW016 SCT020 04/01 Q1014=
200610291150 METAR ESMX 291150Z 03011KT 360V070 9999 FEW013 SCT020 05/02 Q1013=
200610291120 METAR ESMX 291120Z AUTO 03010KT 350V050 9999NDV SCT013/// BKN020/// 04/01 Q1013=
200610291050 METAR ESMX 291050Z AUTO 03011KT 010V070 9999NDV FEW013/// SCT017/// 04/01 Q1012=
200610291020 METAR ESMX 291020Z AUTO 02011KT 9999NDV FEW011/// BKN014/// 04/02 Q1011=
200610290950 METAR ESMX 290950Z AUTO 02011KT 9999NDV OVC010/// 04/02 Q1011=
200610290920 METAR ESMX 290920Z AUTO 03011KT 9999NDV SCT011/// BKN015/// 03/02 Q1010=
200610290850 METAR ESMX 290850Z AUTO 02010KT 340V060 9999NDV FEW010/// SCT013/// 03/01 Q1010=
200610290820 METAR ESMX 290820Z AUTO 03010KT 9999NDV BKN010/// 02/01 Q1009=
200610290750 METAR ESMX 290750Z AUTO 02012KT 9999NDV FEW012/// SCT014/// 02/01 Q1009=
200610290720 METAR ESMX 290720Z AUTO 04010KT 360V070 9999NDV FEW010/// SCT029/// 02/02 Q1008=
200610290650 METAR ESMX 290650Z AUTO 03008KT 010V070 9999NDV FEW007/// BKN011/// OVC027/// 02/02 Q1008=
200610290620 METAR ESMX 290620Z AUTO 03010KT 9999NDV FEW006/// SCT007/// BKN009/// 02/02 Q1007=
200610290550 METAR ESMX 290550Z AUTO 04009KT 9999NDV OVC005/// 02/02 Q1006=
200610290520 METAR ESMX 290520Z AUTO 04009KT 020V100 9999NDV -SN FEW004/// BKN005/// 01/01 Q1006=
200610290450 METAR ESMX 290450Z AUTO 02009KT 9000NDV -SN OVC004/// 01/01 Q1006=
200610290420 METAR ESMX 290420Z AUTO 02009KT 340V050 4200NDV -SN BKN003/// BKN006/// 01/01 Q1006=
200610290350 METAR ESMX 290350Z AUTO 02008KT 3300NDV -SN FEW003/// OVC004/// 01/01 Q1006=
200610290320 METAR ESMX 290320Z AUTO 02007KT 1500NDV -SN OVC003/// 01/00 Q1006=
200610290250 METAR ESMX 290250Z AUTO 03007KT 0650NDV R01/P2000N R19/P2000 -SN FEW004/// SCT005/// BKN007/// 01/00 Q1006 RERA=
200610290220 METAR ESMX 290220Z AUTO 03007KT 350V070 9000NDV -RA FEW006/// SCT007/// BKN009/// 02/01 Q1005=
200610290150 METAR ESMX 290150Z AUTO 06009KT 030V100 6000NDV -RA FEW006/// SCT009/// OVC010/// 02/02 Q1005=
200610290120 METAR ESMX 290120Z AUTO 06009KT 020V090 6000NDV RA OVC007/// 03/02 Q1005=
200610290050 METAR ESMX 290050Z AUTO 06008KT 020V100 9000NDV -RA BKN007/// BKN010/// 03/02 Q1006=
200610290020 METAR ESMX 290020Z AUTO 06007KT 010V100 7000NDV -RA FEW006/// BKN008/// OVC010/// 03/02 Q1006=
200610282350 METAR ESMX 282350Z AUTO 07009KT 020V110 7000NDV -RA SCT008/// OVC010/// 03/03 Q1006=
200610282320 METAR ESMX 282320Z AUTO 06008KT 020V110 6000NDV RA FEW007/// BKN008/// OVC017/// 03/03 Q1007=
200610282250 METAR ESMX 282250Z AUTO 04011KT 010V070 3400NDV RA BKN006/// OVC029/// 04/03 Q1007=
200610282220 METAR ESMX 282220Z AUTO 05010KT 020V080 5000NDV RA SCT005/// BKN020/// 04/04 Q1007=
200610282150 METAR ESMX 282150Z AUTO 04012KT 3400NDV RA FEW003/// SCT008/// BKN014/// 05/04 Q1007=
200610282120 METAR ESMX 282120Z AUTO VRB17KT 2300NDV -RA FEW002/// SCT006/// BKN007/// 10/09 Q1007 REDZ=
200610282050 METAR ESMX 282050Z AUTO 20007KT 3300NDV RA FEW003/// SCT006/// BKN018/// 10/09 Q1007=
200610282020 METAR ESMX 282020Z AUTO 19007KT 4600NDV DZ FEW007/// SCT036/// BKN040/// 09/09 Q1007 RERA=
200610281950 METAR ESMX 281950Z AUTO 19007KT 7000NDV -RA FEW003/// SCT056/// 09/09 Q1008=
200610281920 METAR ESMX 281920Z AUTO 19008KT 2600NDV -RA FEW003/// SCT005/// BKN009/// 09/09 Q1009 REDZ=
200610281850 METAR ESMX 281850Z AUTO 19009KT 4600NDV -RA FEW003/// SCT005/// BKN007/// 09/09 Q1009=
200610281820 METAR ESMX 281820Z AUTO 18008KT 7000NDV RA FEW003/// SCT005/// BKN006/// 09/08 Q1010=
200610281750 METAR ESMX 281750Z AUTO 19007KT 3000NDV RA BKN004/// BKN008/// 09/08 Q1010=
200610281720 METAR ESMX 281720Z AUTO 19008KT 4900NDV RA BKN004/// OVC009/// 09/08 Q1011 REDZ=
200610281650 METAR ESMX 281650Z AUTO 21008KT 7000NDV DZ FEW007/// SCT009/// OVC012/// 09/08 Q1012 RERA=
200610281620 METAR ESMX 281620Z AUTO 18008KT 4700NDV BR OVC011/// 08/07 Q1012=
200610281550 METAR ESMX 281550Z AUTO 18007KT 9999NDV OVC013/// 08/07 Q1012=
200610281520 METAR ESMX 281520Z AUTO 16005KT 5000NDV BR FEW009/// BKN015/// 08/07 Q1013 REDZ RERA=
200610281450 METAR ESMX 281450Z AUTO 18006KT 3500NDV DZ FEW003/// SCT006/// BKN008/// 08/07 Q1014 RERA=
200610281420 METAR ESMX 281420Z AUTO 16003KT 2600NDV -RA FEW004/// SCT009/// OVC010/// 08/07 Q1015 REDZ=
200610281350 METAR ESMX 281350Z AUTO 19004KT 4800NDV DZ FEW012/// SCT015/// OVC018/// 08/07 Q1015 RERA=
200610281320 METAR ESMX 281320Z AUTO 19004KT 9999NDV -RA FEW019/// OVC027/// 08/07 Q1016=
200610281250 METAR ESMX 281250Z AUTO 24005KT 8000NDV DZ FEW015/// BKN020/// OVC028/// 09/07 Q1016 RERA=
200610281220 METAR ESMX 281220Z AUTO 24006KT 9999NDV SCT022/// BKN029/// OVC036/// 09/05 Q1016=
200610281150 METAR ESMX 281150Z AUTO 25004KT 210V280 9999NDV FEW027/// SCT046/// BKN054/// 10/05 Q1016=
200610281120 METAR ESMX 281120Z AUTO 22005KT 190V270 9999NDV FEW032/// BKN057/// 09/04 Q1017=
200610281050 METAR ESMX 281050Z AUTO 27005KT 9999NDV BKN061/// 08/04 Q1017=
200610281020 METAR ESMX 281020Z AUTO 23006KT 9999NDV FEW031/// BKN073/// 08/03 Q1017=
200610280950 METAR ESMX 280950Z AUTO 23003KT 200V300 9999NDV NCD 08/01 Q1017=
200610280920 METAR ESMX 280920Z AUTO VRB02KT 9999NDV SCT033/// 07/01 Q1017=
200610280850 METAR ESMX 280850Z AUTO 20003KT 9999NDV BKN034/// 05/01 Q1017=
200610280820 METAR ESMX 280820Z AUTO 23003KT 9999NDV BKN035/// 04/01 Q1018=
200610280750 METAR ESMX 280750Z AUTO 24003KT 9999NDV BKN034/// OVC100/// 02/00 Q1018=
200610280720 METAR ESMX 280720Z AUTO 00000KT 9999NDV NCD 01/M00 Q1017=
200610280650 METAR ESMX 280650Z AUTO 25004KT 9999NDV NCD 00/M01 Q1017=
200610280620 METAR ESMX 280620Z AUTO 25002KT 9999NDV NCD M00/M02 Q1017=
200610280550 METAR ESMX 280550Z AUTO 25003KT 9999NDV NCD 00/M01 Q1017=
200610280520 METAR ESMX 280520Z AUTO 25003KT 9999NDV NCD 01/M01 Q1017=
200610280450 METAR ESMX 280450Z AUTO 27004KT 9999NDV NCD 01/M01 Q1017=
200610280420 METAR ESMX 280420Z AUTO 25004KT 9999NDV NCD M00/M02 Q1017=
200610280350 METAR ESMX 280350Z AUTO 25003KT 9999NDV NCD 01/M01 Q1017=
200610280320 METAR ESMX 280320Z AUTO 26003KT 9999NDV NCD 01/M02 Q1016=
200610280250 METAR ESMX 280250Z AUTO 26004KT 9999NDV NCD 02/M01 Q1016=
200610280220 METAR ESMX 280220Z AUTO 27004KT 9999NDV NCD 02/M01 Q1016=
200610280150 METAR ESMX 280150Z AUTO 28003KT 9999NDV NCD 03/M01 Q1016=
200610280120 METAR ESMX 280120Z AUTO 28004KT 9999NDV NCD 04/M01 Q1016=
200610280050 METAR ESMX 280050Z AUTO 27005KT 9999NDV NCD 04/M00 Q1016=
200610280020 METAR ESMX 280020Z AUTO 27004KT 9999NDV NCD 04/00 Q1015=
200610272350 METAR ESMX 272350Z AUTO 25004KT 9999NDV SCT044/// 05/00 Q1015=
200610272320 METAR ESMX 272320Z AUTO 26004KT 9999NDV FEW045/// 05/01 Q1015=
200610272250 METAR ESMX 272250Z AUTO 24005KT 210V290 9999NDV NCD 05/02 Q1014=
200610272220 METAR ESMX 272220Z AUTO 23004KT 9999NDV NCD 05/01 Q1014=
200610272150 METAR ESMX 272150Z AUTO 25004KT 9999NDV NCD 05/01 Q1013=
200610272120 METAR ESMX 272120Z AUTO 26003KT 9999NDV NCD 06/02 Q1013=
200610272050 METAR ESMX 272050Z AUTO 23004KT 200V260 9999NDV NCD 06/02 Q1013=
200610272020 METAR ESMX 272020Z AUTO 26004KT 9999NDV NCD 06/02 Q1013=
200610271950 METAR ESMX 271950Z AUTO 24005KT 210V280 9999NDV FEW053/// 06/01 Q1012=
200610271920 METAR ESMX 271920Z AUTO 25005KT 9999NDV FEW052/// 07/01 Q1012=
200610271850 METAR ESMX 271850Z AUTO 26007KT 9999NDV NCD 07/01 Q1011=
200610271820 METAR ESMX 271820Z AUTO 25007KT 9999NDV NCD 06/01 Q1011=
200610271750 METAR ESMX 271750Z AUTO 26008KT 9999NDV NCD 06/01 Q1010=
200610271720 METAR ESMX 271720Z 26009KT 230V290 CAVOK 06/01 Q1009=
200610271650 METAR ESMX 271650Z 26008KT CAVOK 06/01 Q1009=
200610271620 METAR ESMX 271620Z 29010KT CAVOK 07/01 Q1008=
200610271550 METAR ESMX 271550Z 30012KT 270V340 CAVOK 07/01 Q1007=
200610271520 METAR ESMX 271520Z 29017KT 260V340 9999 FEW060 07/02 Q1006=
200610271450 METAR ESMX 271450Z 30015G25KT 270V330 9999 FEW018 SCT022 BKN027 09/07 Q1004=
200610271420 METAR ESMX 271420Z 27018G28KT 9999 SHRA FEW015 BKN023 11/06 Q1002=
200610271350 METAR ESMX 271350Z 26018KT 9999 FEW024 BKN030 10/06 Q1001=
200610271320 METAR ESMX 271320Z 26016KT 230V300 9999 FEW015 BKN025 10/06 Q1000=
200610271250 METAR ESMX 271250Z 26015G30KT 220V290 9999 FEW025 SCT030 BKN035 10/06 Q1000=
200610271220 METAR ESMX 271220Z 27019G31KT 230V310 9999 FEW025 SCT031 BKN045 11/06 Q0999=
200610271150 METAR ESMX 271150Z 26019G30KT 210V290 9999 FEW018 SCT026 BKN032 11/07 Q0998=
200610271120 METAR ESMX 271120Z 26020G37KT 230V290 4600 -SHRA FEW014 BKN020 10/08 Q0997=
200610271050 METAR ESMX 271050Z 25019G35KT 230V290 9999 FEW015 BKN020 10/08 Q0997=
200610271020 METAR ESMX 271020Z 25019G32KT 200V280 9999 SHRA FEW016 BKN020 OVC026 11/08 Q0996=
200610270950 METAR ESMX 270950Z 25018G29KT 210V290 9999 SHRA FEW012 SCT015 BKN020 11/09 Q0995=
200610270920 METAR ESMX 270920Z 23017G33KT 200V280 7000 SHRA FEW011 SCT016 BKN020 11/09 Q0995=
200610270850 METAR ESMX 270850Z 23019G33KT 190V270 9999 SCT014 BKN024 12/09 Q0993=
200610270820 METAR ESMX 270820Z 24016G26KT 200V280 9999 FEW011 BKN019 11/09 Q0993=
200610270720 METAR ESMX 270720Z 21016KT 9999 FEW011 BKN018 11/09 Q0993=
200610270650 METAR ESMX 270650Z 22015G25KT 190V260 9999 FEW012 BKN015 10/09 Q0992=
200610270620 METAR ESMX 270620Z 21019G34KT 170V240 9999 SCT013 BKN017 10/09 Q0992=
200610270550 METAR ESMX 270550Z 22018G30KT 6000 -RA FEW012 BKN020 10/09 Q0992=
200610270520 METAR ESMX 270520Z 22019KT 6000 -RA FEW014 BKN022 10/08 Q0992=
200610270450 METAR ESMX 270450Z 20018G28KT 7000 -RA BKN022 10/08 Q0992=
200610270420 METAR ESMX 270420Z 21017KT 170V240 9999 SCT020 BKN025 11/08 Q0992=
200610270350 METAR ESMX 270350Z 20016G26KT 170V240 9999 SCT018 BKN030 11/08 Q0993=
200610270320 METAR ESMX 270320Z AUTO 21016G28KT 170V240 9999NDV FEW022/// SCT034/// BKN053/// 11/09 Q0993=
200610270250 METAR ESMX 270250Z AUTO 21010KT 9999NDV FEW034/// 11/09 Q0994=
200610270220 METAR ESMX 270220Z AUTO 23010KT 200V260 9999NDV FEW028/// 11/09 Q0994=
200610270150 METAR ESMX 270150Z AUTO 21010KT 180V260 9999NDV FEW088/// 12/10 Q0994=
200610270120 METAR ESMX 270120Z AUTO 22011KT 190V260 9999NDV FEW012/// SCT048/// BKN074/// 13/11 Q0994 RERA REDZ=
200610270050 METAR ESMX 270050Z AUTO 23020G33KT 9999NDV FEW008/// SCT018/// BKN023/// 15/13 Q0994 RERA REDZ=
200610270020 METAR ESMX 270020Z 18017KT 5000 -RA FEW007 SCT010 BKN012 14/13 Q0994 REDZ=
200610262350 METAR ESMX 262350Z 19014KT 6000 -DZ FEW006 SCT008 BKN010 14/13 Q0995 RERA=
200610262320 METAR ESMX 262320Z 19013KT 7000 DZ FEW006 SCT008 BKN010 14/13 Q0995 RERA=
200610262250 METAR ESMX 262250Z 20016KT 2900 -RA FEW008 SCT009 BKN011 14/13 Q0996 REDZ=
200610262220 METAR ESMX 262220Z 18013KT 7000 DZ FEW008 SCT014 BKN081 13/12 Q0996 RERA=
200610262150 METAR ESMX 262150Z 16011KT 6000 -DZ FEW005 SCT009 BKN025 12/12 Q0996 RERA=
200610262120 METAR ESMX 262120Z 16008KT 120V190 4700 -RA FEW005 SCT009 BKN019 12/12 Q0997=
200610262050 METAR ESMX 262050Z 17008KT 4800 -RA SCT007 BKN025 12/12 Q0998=
200610262020 METAR ESMX 262020Z 17009KT 5000 DZ FEW004 SCT010 OVC025 12/11 Q0999 RERA REUP=
200610261950 METAR ESMX 261950Z 15007KT 130V200 4700 -RA FEW005 SCT008 BKN027 12/11 Q0999 REDZ=
200610261920 METAR ESMX 261920Z 17008KT 5000 -RA SCT006 BKN008 12/11 Q1000 REDZ=
200610261850 METAR ESMX 261850Z 18008KT 5000 -RA BKN005 BKN090 11/11 Q1001 REDZ=
200610261820 METAR ESMX 261820Z 17009KT 130V210 5000 -RA FEW006 BKN008 BKN023 11/11 Q1001=
200610261750 METAR ESMX 261750Z 18009KT 7000 BR SCT005 BKN008 11/11 Q1002=
200610261720 METAR ESMX 261720Z 18010KT 7000 BR OVC004 11/11 Q1002=
200610261650 METAR ESMX 261650Z 18009KT 150V210 7000 BR OVC006 11/11 Q1002=
200610261620 METAR ESMX 261620Z 17008KT 7000 BR BKN005 OVC007 11/10 Q1002=
200610261550 METAR ESMX 261550Z 17009KT 140V200 8000 BR BKN005 OVC008 11/10 Q1002=
200610261520 METAR ESMX 261520Z 18008KT 9999 BKN006 11/10 Q1002=
200610261450 METAR ESMX 261450Z 17010KT 9999 -SHRA BKN012 12/10 Q1002=
200610261420 METAR ESMX 261420Z 18011KT 9999 -SHRA BKN016 12/10 Q1003=
200610261350 METAR ESMX 261350Z 18012KT 9999 BKN017 13/10 Q1003=
200610261320 METAR ESMX 261320Z 19014KT 9999 BKN017 13/10 Q1003=
200610261250 METAR ESMX 261250Z 18012KT 150V220 9999 FEW020 SCT040 13/10 Q1003=
200610261220 METAR ESMX 261220Z 16013KT 9999 FEW045 SCT060 13/10 Q1003=
200610261150 METAR ESMX 261150Z 18012KT 9999 FEW017 SCT045 12/10 Q1003=
200610261120 METAR ESMX 261120Z 16014KT 9999 FEW017 SCT060 12/09 Q1004=
200610261050 METAR ESMX 261050Z 17014KT 9999 FEW020 SCT060 BKN080 12/09 Q1004=
200610261020 METAR ESMX 261020Z 16015G25KT 110V190 9999 SCT020 BKN075 12/09 Q1004=
200610260950 METAR ESMX 260950Z 15012G23KT 100V190 9999 FEW015 BKN060 12/09 Q1004=
200610260920 METAR ESMX 260920Z 16011KT 100V200 9999 FEW010 SCT013 OVC071 11/09 Q1006=
200610260850 METAR ESMX 260850Z 15011KT 120V190 9999 FEW008 BKN011 BKN074 11/09 Q1006=
200610260820 METAR ESMX 260820Z 15010KT 110V190 9999 FEW006 SCT007 BKN009 10/09 Q1006=
200610260750 METAR ESMX 260750Z 15009KT 110V180 9999 BR BKN005 OVC009 10/09 Q1007 REDZ=
200610260720 METAR ESMX 260720Z 13007KT 080V170 6000 -RA FEW004 BKN006 09/09 Q1008=
200610260650 METAR ESMX 260650Z 14007KT 100V190 6000 -RA OVC003 09/08 Q1009=
200610260620 METAR ESMX 260620Z 13005KT 080V170 9000 -RA OVC004 08/08 Q1010=
200610260550 METAR ESMX 260550Z 15005KT 110V170 9999 -RA FEW006 SCT007 BKN013 08/07 Q1011 RERA=
200610260520 METAR ESMX 260520Z 14005KT 9999 FEW017 07/06 Q1011=
200610260450 METAR ESMX 260450Z 14006KT 100V170 9999 SCT012 07/06 Q1011=
200610260420 METAR ESMX 260420Z 14004KT 9999 FEW013 BKN080 06/05 Q1012=
200610260350 METAR ESMX 260350Z 14005KT 100V170 CAVOK 06/05 Q1012=
200610260320 METAR ESMX 260320Z AUTO 14004KT 090V160 9999NDV NCD 05/05 Q1013=
200610260250 METAR ESMX 260250Z AUTO 14004KT 110V180 9999NDV NCD 05/05 Q1013=
200610260220 METAR ESMX 260220Z AUTO 14003KT 110V180 9999NDV NCD 04/04 Q1013=
200610260150 METAR ESMX 260150Z AUTO VRB02KT 5000NDV BR NCD 03/03 Q1013=
200610260120 METAR ESMX 260120Z AUTO 16002KT 6000NDV BR NCD 02/02 Q1014=
200610260050 METAR ESMX 260050Z AUTO 16003KT 5000NDV R01/P2000N R19/1900N BR NCD 02/01 Q1014=
200610260020 METAR ESMX 260020Z AUTO 15003KT 7000NDV BR NCD 02/02 Q1014=
200610252350 METAR ESMX 252350Z 17004KT 8000 BR NSC 03/03 Q1014=
200610252320 METAR ESMX 252320Z 16004KT 6000 R01/P2000N R19/0800VP2000U BCFG NSC 02/02 Q1014=
200610252250 METAR ESMX 252250Z 15002KT 5000 BR NSC 03/03 Q1014=
200610252220 METAR ESMX 252220Z 21002KT 6000 BR NSC 03/03 Q1014=
200610252150 METAR ESMX 252150Z 22005KT CAVOK 04/03 Q1014=
200610252120 METAR ESMX 252120Z 22004KT CAVOK 04/03 Q1014=
200610252050 METAR ESMX 252050Z 22004KT CAVOK 04/04 Q1014=
200610252020 METAR ESMX 252020Z 22005KT CAVOK 04/03 Q1013=
200610251950 METAR ESMX 251950Z 23004KT CAVOK 05/04 Q1013=
200610251920 METAR ESMX 251920Z 22005KT CAVOK 06/05 Q1013=
200610251850 METAR ESMX 251850Z 23005KT CAVOK 06/05 Q1013=
200610251820 METAR ESMX 251820Z 21006KT CAVOK 05/04 Q1012=
200610251750 METAR ESMX 251750Z 20005KT CAVOK 06/05 Q1012=
200610251720 METAR ESMX 251720Z 21005KT CAVOK 07/05 Q1012=
200610251650 METAR ESMX 251650Z 23004KT CAVOK 07/05 Q1011=
200610251620 METAR ESMX 251620Z 23004KT 9999 FEW028 08/05 Q1011=
200610251550 METAR ESMX 251550Z 22006KT 9999 FEW029 09/06 Q1011=
200610251520 METAR ESMX 251520Z 22005KT 9999 BKN033 10/06 Q1010=
200610251420 METAR ESMX 251420Z 27005KT 9999 FEW036 10/06 Q1010=
200610251350 METAR ESMX 251350Z 28006KT 9999 SCT030 10/06 Q1009=
200610251320 METAR ESMX 251320Z 28008KT 250V320 9999 FEW030 12/07 Q1009=
200610251250 METAR ESMX 251250Z 26009KT 230V310 9999 FEW025 13/07 Q1008=
200610251220 METAR ESMX 251220Z 25009KT 220V290 9999 FEW020 SCT025 12/07 Q1008=
200610251150 METAR ESMX 251150Z 24007KT 210V290 9999 BKN022 13/08 Q1007=
200610251120 METAR ESMX 251120Z 27008KT 230V320 9999 SCT025 12/09 Q1007=
200610251050 METAR ESMX 251050Z 26006KT 220V310 9999 SCT014 11/09 Q1007=
200610251020 METAR ESMX 251020Z 23005KT 200V310 9999 FEW013 BKN016 11/08 Q1007=
200610250950 METAR ESMX 250950Z 27006KT 9999 FEW019 BKN050 10/08 Q1006=
200610250920 METAR ESMX 250920Z 27007KT 240V320 9999 FEW010 SCT050 10/08 Q1006=
200610250850 METAR ESMX 250850Z 27005KT 240V320 9999 FEW010 09/07 Q1005=
200610250820 METAR ESMX 250820Z 29004KT 250V320 CAVOK 09/07 Q1004=
200610250750 METAR ESMX 250750Z 29004KT CAVOK 08/07 Q1004=
200610250720 METAR ESMX 250720Z 26004KT 230V300 CAVOK 07/07 Q1003=
200610250650 METAR ESMX 250650Z 26005KT 220V300 9999 FEW005 07/06 Q1003=
200610250620 METAR ESMX 250620Z 25004KT 9999 FEW005 06/06 Q1002=
200610250550 METAR ESMX 250550Z 25004KT CAVOK 06/06 Q1001=
200610250520 METAR ESMX 250520Z 26005KT 230V320 CAVOK 07/06 Q1001=
200610250450 METAR ESMX 250450Z 27007KT 9999 FEW020 08/07 Q1000=
200610250420 METAR ESMX 250420Z 27005KT 9999 FEW007 SCT022 08/07 Q0999=
200610250350 METAR ESMX 250350Z 25004KT 9999 FEW006 BKN022 08/08 Q0999=
200610250320 METAR ESMX 250320Z AUTO 28006KT 230V300 5000NDV BR BKN001/// OVC003/// 08/08 Q0998=
200610250250 METAR ESMX 250250Z AUTO 26006KT 240V310 1700NDV BR OVC001/// 08/08 Q0998=
200610250220 METAR ESMX 250220Z AUTO 22004KT 3500NDV FEW001/// SCT004/// OVC005/// 07/07 Q0997=
200610250150 METAR ESMX 250150Z AUTO VRB02KT 0800NDV R01/P2000N R19/1900U VV001 07/07 Q0997=
200610250120 METAR ESMX 250120Z AUTO 25003KT 0750NDV R01/1000VP2000D R19/P2000N FG VV002 07/07 Q0997=
200610250050 METAR ESMX 250050Z AUTO 27004KT 8000NDV BR OVC001/// 07/07 Q0996=
200610250020 METAR ESMX 250020Z 27004KT 240V300 9999 OVC002 08/07 Q0996=
200610242350 METAR ESMX 242350Z 27003KT 9999 BKN003 07/07 Q0995=
200610242320 METAR ESMX 242320Z 27003KT 9999 BKN004 07/07 Q0995=
200610242250 METAR ESMX 242250Z 26003KT 9999 FEW007 SCT045 BKN110 08/07 Q0994=
200610242220 METAR ESMX 242220Z 27003KT 9999 FEW008 SCT010 BKN013 08/07 Q0994=
200610242150 METAR ESMX 242150Z VRB02KT 9999 FEW008 BKN010 08/07 Q0993=
200610242120 METAR ESMX 242120Z 28004KT 9999 FEW009 BKN012 08/07 Q0993=
200610242050 METAR ESMX 242050Z 28003KT 9999 BKN011 08/07 Q0993=
200610242020 METAR ESMX 242020Z 31005KT 260V330 9999 FEW008 SCT010 08/08 Q0992=
200610241950 METAR ESMX 241950Z 27004KT 9999 SCT032 08/07 Q0992=
200610241920 METAR ESMX 241920Z 30005KT 9999 FEW009 SCT012 BKN030 09/08 Q0991=
200610241850 METAR ESMX 241850Z 29006KT 9999 FEW007 BKN008 OVC013 09/08 Q0991=
200610241820 METAR ESMX 241820Z 27008KT 9999 FEW007 SCT009 BKN011 10/09 Q0990=
200610241750 METAR ESMX 241750Z 25006KT 210V290 9999 FEW008 SCT012 BKN016 10/09 Q0990=
200610241720 METAR ESMX 241720Z 23007KT 200V260 9999 FEW008 BKN012 OVC015 10/09 Q0990=
200610241650 METAR ESMX 241650Z 23007KT 200V260 9999 FEW010 BKN015 10/09 Q0990=
200610241620 METAR ESMX 241620Z 22007KT 9999 SCT013 BKN040 10/09 Q0989=
200610241550 METAR ESMX 241550Z 25008KT 9999 SCT007 BKN010 11/09 Q0988=
200610241520 METAR ESMX 241520Z 25012KT 9999 FEW007 BKN015 11/10 Q0988=
200610241450 METAR ESMX 241450Z 22015KT 9999 FEW012 BKN020 13/11 Q0986=
200610241420 METAR ESMX 241420Z 20017KT 9999 FEW012 BKN020 13/12 Q0986=
200610241350 METAR ESMX 241350Z 20012KT 9999 SCT009 BKN015 14/12 Q0985=
200610241320 METAR ESMX 241320Z 18013KT 140V200 8000 BR SCT010 BKN015 14/13 Q0985=
200610241250 METAR ESMX 241250Z 20008KT 140V220 9000 BR FEW008 SCT015 BKN030 14/13 Q0985 REDZ=
200610241220 METAR ESMX 241220Z 19011KT 9999 -DZ FEW006 SCT008 BKN011 14/13 Q0986=
200610241150 METAR ESMX 241150Z 17009KT 7000 -DZ BKN005 OVC008 14/13 Q0986=
200610241120 METAR ESMX 241120Z 17008KT 9999 BKN004 OVC007 14/13 Q0986=
200610241050 METAR ESMX 241050Z 18007KT 140V200 9000 BR FEW003 BKN004 OVC007 14/13 Q0986=
200610241020 METAR ESMX 241020Z 19006KT 8000 BR OVC004 13/13 Q0986=
200610240950 METAR ESMX 240950Z 18005KT 120V200 6000 DZ FEW003 OVC007 12/12 Q0986=
200610240920 METAR ESMX 240920Z 07003KT 4000 DZ FEW002 SCT004 BKN007 11/11 Q0987=
200610240850 METAR ESMX 240850Z 06003KT 3000 RA SCT002 BKN005 OVC009 11/11 Q0987=
200610240820 METAR ESMX 240820Z 04004KT 4200 RA FEW002 SCT006 BKN014 11/11 Q0988=
200610240750 METAR ESMX 240750Z 05003KT 6000 RA FEW002 SCT004 BKN023 11/11 Q0988=
200610240720 METAR ESMX 240720Z 10004KT 4500 RA SCT003 BKN018 BKN030 11/11 Q0989=
200610240650 METAR ESMX 240650Z 14004KT 3500 RA SCT003 BKN022 OVC033 11/11 Q0990=
200610240620 METAR ESMX 240620Z 12003KT 6000 -RA SCT003 OVC037 11/11 Q0989=
200610240550 METAR ESMX 240550Z 13004KT 9000 -RA FEW003 BKN045 12/11 Q0990=
200610240520 METAR ESMX 240520Z 14005KT 9999 FEW028 SCT048 BKN096 12/11 Q0990=
200610240450 METAR ESMX 240450Z 18005KT 1 9999 FEW006 SCT009 BKN024 12/11 Q0990=
200610240420 METAR ESMX 240420Z 17005KT 9999 FEW007 BKN013 12/11 Q0991=
200610240350 METAR ESMX 240350Z 19006KT 9999 FEW006 BKN010 12/11 Q0991=
200610240320 METAR ESMX 240320Z AUTO 18007KT 9000NDV BR FEW007/// SCT009/// BKN011/// 12/12 Q0991=
200610240250 METAR ESMX 240250Z AUTO 19008KT 9000NDV BR SCT007/// BKN010/// BKN013/// 13/12 Q0991=
200610240220 METAR ESMX 240220Z AUTO 19009KT 9000NDV BR SCT006/// OVC009/// 13/12 Q0991=
200610240150 METAR ESMX 240150Z AUTO 19007KT 8000NDV BR FEW008/// BKN010/// OVC024/// 13/12 Q0991 RERA=
200610240120 METAR ESMX 240120Z AUTO 19009KT 9999NDV BR FEW009/// SCT012/// BKN016/// 13/12 Q0991=
200610240050 METAR ESMX 240050Z AUTO 19010KT 9000NDV BR FEW009/// SCT013/// BKN017/// 13/12 Q0991=
200610240020 METAR ESMX 240020Z 18009KT 9999 FEW013 SCT020 BKN035 13/12 Q0991=
200610232350 METAR ESMX 232350Z 19010KT 9999 FEW017 BKN033 13/12 Q0991=
200610232320 METAR ESMX 232320Z 19010KT 9999 FEW017 BKN033 13/12 Q0991=
200610232250 METAR ESMX 232250Z 19010KT 9999 FEW011 SCT017 BKN030 13/12 Q0991=
200610232150 METAR ESMX 232150Z 19011KT 9000 BR FEW010 SCT014 BKN018 13/12 Q0991=
200610232120 METAR ESMX 232120Z 19010KT 9000 BR FEW009 SCT015 BKN020 13/12 Q0991=
200610232050 METAR ESMX 232050Z 20010KT 8000 BR FEW009 BKN017 13/12 Q0991=
200610232020 METAR ESMX 232020Z 20010KT 9000 BR FEW009 SCT013 BKN016 13/12 Q0991=
200610231950 METAR ESMX 231950Z 20011KT 9000 FEW009 BKN011 13/12 Q0991=
200610231920 METAR ESMX 231920Z 19012KT 9999 FEW010 SCT013 BKN016 14/12 Q0991=
200610231850 METAR ESMX 231850Z 20013KT 9999 FEW008 SCT016 BKN020 14/12 Q0991=
200610231820 METAR ESMX 231820Z 19012KT 9999 FEW011 SCT014 BKN018 14/12 Q0991=
200610231750 METAR ESMX 231750Z 19012KT 9999 FEW010 BKN017 14/13 Q0991=
200610231720 METAR ESMX 231720Z 19011KT 9999 -RA FEW008 SCT011 BKN015 14/13 Q0991=
200610231650 METAR ESMX 231650Z 20010KT 9999 FEW007 SCT011 BKN014 14/13 Q0991=
200610231620 METAR ESMX 231620Z 20011KT 8000 BR FEW005 SCT008 BKN011 14/13 Q0991 RERA=
200610231550 METAR ESMX 231550Z 21010KT 7000 BR FEW003 BKN005 OVC008 14/13 Q0991 RERA=
200610231520 METAR ESMX 231520Z 20011KT 2500 -RA BR OVC003 14/13 Q0990=
200610231450 METAR ESMX 231450Z 19010KT 2500 -DZ BR OVC003 13/13 Q0990=
200610231420 METAR ESMX 231420Z 19011KT 4500 BR OVC003 13/13 Q0990=
200610231350 METAR ESMX 231350Z 19010KT 7000 BR SCT003 OVC005 13/13 Q0990=
200610231320 METAR ESMX 231320Z 19010KT 160V220 7000 -DZ BR SCT003 OVC005 13/13 Q0990=
200610231250 METAR ESMX 231250Z 19012KT 7000 -DZ BR OVC004 13/13 Q0991=
200610231220 METAR ESMX 231220Z 20010KT 6000 -DZ BR FEW004 OVC005 13/13 Q0991=
200610231150 METAR ESMX 231150Z 19012KT 3500 -DZ BR FEW004 BKN006 13/13 Q0990=
200610231120 METAR ESMX 231120Z 19014KT 4000 -RA BR SCT005 OVC007 13/12 Q0990=
200610231050 METAR ESMX 231050Z 16011KT 9999 -RA BKN005 OVC010 13/12 Q0991=
200610231020 METAR ESMX 231020Z 17011KT 140V200 8000 -RA BR FEW006 BKN008 13/12 Q0991=
200610230950 METAR ESMX 230950Z 18011KT 150V210 9000 -RA BR FEW006 SCT008 BKN011 13/12 Q0991=
200610230920 METAR ESMX 230920Z 17010KT 8000 -RA BR FEW006 SCT007 BKN009 13/12 Q0991=
200610230850 METAR ESMX 230850Z 16008KT 8000 -RA FEW005 BKN008 OVC011 13/12 Q0991=
200610230820 METAR ESMX 230820Z 16008KT 8000 -RA FEW006 SCT007 BKN009 13/12 Q0992=
200610230720 METAR ESMX 230720Z 17009KT 8000 -RA BKN005 OVC008 12/12 Q0992=
200610230650 METAR ESMX 230650Z 17010KT 3200 -RA FEW004 BKN006 OVC008 12/12 Q0993=
200610230620 METAR ESMX 230620Z 17010KT 5000 -RA FEW004 BKN006 OVC009 12/11 Q0993=
200610230550 METAR ESMX 230550Z 15010KT 110V180 6000 -RA FEW005 SCT007 BKN008 12/11 Q0993=
200610230520 METAR ESMX 230520Z 16009KT 8000 DZ FEW005 BKN006 OVC011 12/11 Q0993=
200610230450 METAR ESMX 230450Z 14009KT 7000 -RA BKN005 OVC008 12/11 Q0993=
200610230420 METAR ESMX 230420Z 14008KT 110V170 8000 -RA SCT006 BKN045 11/11 Q0994=
200610230350 METAR ESMX 230350Z 13007KT 110V170 9999 -RA FEW006 BKN040 11/10 Q0995=
200610230320 METAR ESMX 230320Z AUTO 14005KT 7000NDV DZ FEW004/// SCT057/// 11/11 Q0995 RERA=
200610230250 METAR ESMX 230250Z AUTO 15006KT 110V170 5000NDV -RA FEW005/// SCT043/// BKN060/// 11/11 Q0996 REDZ=
200610230220 METAR ESMX 230220Z AUTO 15007KT 8000NDV -RA FEW008/// BKN055/// 11/10 Q0997 REDZ=
200610230150 METAR ESMX 230150Z AUTO 17006KT 8000NDV DZ FEW011/// SCT059/// 11/10 Q0997 RERA=
200610230120 METAR ESMX 230120Z AUTO 17007KT 9000NDV -RA BKN049/// 11/10 Q0998 REDZ=
200610230050 METAR ESMX 230050Z AUTO 17007KT 9999NDV FEW059/// 11/10 Q0998 REDZ=
200610230020 METAR ESMX 230020Z 16006KT 140V200 9000 -RA FEW015 BKN090 11/10 Q0998=
200610222350 METAR ESMX 222350Z 15006KT 9000 BR FEW017 SCT097 11/10 Q0998=
200610222320 METAR ESMX 222320Z 16006KT 9000 BR FEW010 BKN085 11/10 Q0999=
200610222250 METAR ESMX 222250Z 17006KT 8000 BR SCT009 BKN094 11/10 Q0999=
200610222220 METAR ESMX 222220Z 18006KT 7000 BR FEW008 SCT012 11/10 Q0999=
200610222150 METAR ESMX 222150Z 19008KT 150V210 8000 BR FEW008 BKN010 11/10 Q0999=
200610222120 METAR ESMX 222120Z 19008KT 8000 BR FEW007 OVC009 11/10 Q0999=
200610222050 METAR ESMX 222050Z 18008KT 150V210 8000 BR FEW008 OVC010 11/10 Q1000=
200610222020 METAR ESMX 222020Z 19009KT 8000 BR FEW008 BKN010 11/10 Q1000=
200610221950 METAR ESMX 221950Z 19010KT 8000 BR FEW009 BKN012 11/10 Q1000=
200610221920 METAR ESMX 221920Z 20008KT 8000 BR FEW009 SCT014 11/10 Q1000=
200610221850 METAR ESMX 221850Z 18008KT 8000 BR FEW014 11/10 Q1000=
200610221820 METAR ESMX 221820Z 18008KT 9999 FEW020 11/10 Q1000=
200610221750 METAR ESMX 221750Z 18008KT 9999 FEW035 11/10 Q1000=
200610221720 METAR ESMX 221720Z 18007KT 9999 SCT038 11/10 Q1000=
200610221650 METAR ESMX 221650Z 18008KT 9999 FEW021 SCT035 12/10 Q1000=
200610221620 METAR ESMX 221620Z 19007KT 9999 FEW017 SCT023 BKN034 12/10 Q1000=
200610221550 METAR ESMX 221550Z 18007KT 9999 FEW020 BKN033 12/10 Q1000=
200610221520 METAR ESMX 221520Z 20008KT 9999 FEW022 SCT031 13/10 Q0999=
200610221450 METAR ESMX 221450Z 20009KT 9999 FEW022 SCT035 13/10 Q0999=
200610221420 METAR ESMX 221420Z 22009KT 9999 FEW019 SCT035 14/11 Q0999=
200610221350 METAR ESMX 221350Z 20011KT 9999 FEW021 SCT034 14/11 Q0999=
200610221320 METAR ESMX 221320Z 20012KT 9999 FEW019 SCT028 BKN042 14/11 Q0999=
200610221250 METAR ESMX 221250Z 21011KT 9999 FEW018 BKN040 15/11 Q0999=
200610221220 METAR ESMX 221220Z 20011KT 9999 FEW012 SCT015 BKN021 14/12 Q0999=
200610221150 METAR ESMX 221150Z 19012KT 9999 FEW009 SCT012 BKN018 14/12 Q0999=
200610221120 METAR ESMX 221120Z 19010KT 6000 BR FEW008 OVC011 14/12 Q0999=
200610212020 METAR ESMX 212020Z AUTO 21007KT 2300NDV BR FEW004/// BKN006/// OVC009/// 13/12 Q0999=
200610211950 METAR ESMX 211950Z AUTO 21006KT 2400NDV -RA FEW003/// BKN005/// OVC007/// 13/12 Q0999 REDZ=
200610211920 METAR ESMX 211920Z AUTO 20005KT 2500NDV BR FEW003/// BKN006/// OVC009/// 13/12 Q0999=
200610211850 METAR ESMX 211850Z AUTO 20005KT 2700NDV BR FEW004/// SCT006/// BKN010/// 13/12 Q0999=
200610211820 METAR ESMX 211820Z AUTO 20006KT 2700NDV BR FEW003/// SCT005/// BKN006/// 13/12 Q0999=
200610211750 METAR ESMX 211750Z AUTO 22006KT 2700NDV BR FEW003/// BKN005/// OVC008/// 13/12 Q0998=
200610211720 METAR ESMX 211720Z AUTO 20007KT 2300NDV BR FEW001/// BKN002/// OVC005/// 13/12 Q0998 RERA REDZ=
200610211650 METAR ESMX 211650Z AUTO 18005KT 1400NDV R01/P2000N R19/P2000N -RA OVC001/// 12/12 Q0998 REDZ=
200610211620 METAR ESMX 211620Z AUTO 19006KT 1300NDV R01/P2000N R19/P2000N BR FEW002/// BKN003/// OVC005/// 12/12 Q0998=
200610211550 METAR ESMX 211550Z AUTO 20006KT 2900NDV BR BKN003/// OVC005/// 12/12 Q0998=
200610211520 METAR ESMX 211520Z AUTO 19006KT 2800NDV BR FEW002/// OVC004/// 12/12 Q0998=
200610211450 METAR ESMX 211450Z AUTO 20005KT 2000NDV BR OVC002/// 12/12 Q0998=
200610211420 METAR ESMX 211420Z AUTO 20005KT 2700NDV BR OVC002/// 13/12 Q0998=
200610211350 METAR ESMX 211350Z AUTO 19005KT 3200NDV BR OVC003/// 12/12 Q0998=
200610211320 METAR ESMX 211320Z AUTO 19006KT 3900NDV BR BKN003/// OVC007/// 12/12 Q0998=
200610211250 METAR ESMX 211250Z AUTO 19007KT 5000NDV BR FEW004/// BKN006/// OVC008/// 13/12 Q0997 REDZ RERA=
200610211220 METAR ESMX 211220Z AUTO 17004KT 140V220 5000NDV DZ FEW003/// SCT005/// BKN007/// 13/12 Q0997 RERA=
200610211150 METAR ESMX 211150Z AUTO 16005KT 110V190 2400NDV -RA FEW004/// SCT006/// BKN008/// 13/12 Q0998 REDZ=
200610211120 METAR ESMX 211120Z AUTO 15005KT 4000NDV -RA FEW003/// SCT004/// BKN006/// 13/12 Q0998 REDZ=
200610211050 METAR ESMX 211050Z AUTO 14004KT 2500NDV RA FEW004/// SCT006/// BKN008/// 12/12 Q0998=
200610211020 METAR ESMX 211020Z AUTO 17005KT 140V200 3600NDV -RA FEW004/// OVC006/// 13/12 Q0998 REDZ=
200610210950 METAR ESMX 210950Z AUTO 16005KT 3600NDV -DZ BKN003/// OVC006/// 12/12 Q0998 RERA=
200610210920 METAR ESMX 210920Z AUTO 16005KT 110V190 2100NDV R01/1900N R19/P2000N -DZ FEW002/// OVC003/// 12/11 Q0998 RERA=
200610210850 METAR ESMX 210850Z AUTO 16004KT 1600NDV R01/1800N R19/1800N -RA OVC001/// 12/11 Q0998 REDZ=
200610210820 METAR ESMX 210820Z AUTO 16005KT 1500NDV R01/1800N R19/1900N -RA OVC001/// 11/11 Q0998=
200610210750 METAR ESMX 210750Z AUTO 17005KT 140V210 1500NDV R01/1800N R19/1900N -DZ OVC002/// 11/11 Q0998 RERA=
200610210720 METAR ESMX 210720Z AUTO 16004KT 120V190 1600NDV R01/1800N R19/1900N BR OVC002/// 11/11 Q0998 RERA REDZ=
200610210650 METAR ESMX 210650Z AUTO 15004KT 110V190 1500NDV R01/1800D R19/1900N BR SCT002/// BKN054/// 11/11 Q0998 REDZ=
200610210620 METAR ESMX 210620Z AUTO 15004KT 120V190 1900NDV BR FEW003/// BKN063/// 11/10 Q0998 RERA REDZ=
200610210550 METAR ESMX 210550Z AUTO 15004KT 2000NDV BR SCT008/// BKN064/// BKN079/// 11/10 Q0998=
200610210520 METAR ESMX 210520Z AUTO 14004KT 2100NDV BR SCT009/// BKN033/// 11/10 Q0998=
200610210450 METAR ESMX 210450Z AUTO 16004KT 110V170 1800NDV BR SCT035/// OVC086/// 10/10 Q0998=
200610210420 METAR ESMX 210420Z AUTO 15004KT 0500NDV R01/P2000N R19/0800VP2000U BR SCT087/// 10/10 Q0998=
200610210350 METAR ESMX 210350Z AUTO 15003KT 1700NDV BR FEW019/// SCT037/// 10/09 Q0998=
200610210320 METAR ESMX 210320Z AUTO 17003KT 3700NDV BR OVC017/// 11/10 Q0998=
200610210250 METAR ESMX 210250Z AUTO 18003KT 150V210 3300NDV BR BKN010/// OVC017/// 11/11 Q0998=
200610210220 METAR ESMX 210220Z AUTO 20005KT 3400NDV BR FEW007/// SCT011/// OVC013/// 11/11 Q0998=
200610210150 METAR ESMX 210150Z AUTO 19005KT 2200NDV BR OVC012/// 11/11 Q0998=
200610210120 METAR ESMX 210120Z AUTO 19007KT 160V220 2400NDV FEW003/// SCT006/// OVC013/// 12/11 Q0998=
200610210050 METAR ESMX 210050Z AUTO 18007KT 1300NDV R01/P2000N R19/P2000N BKN001/// OVC003/// 12/11 Q0999=
200610210020 METAR ESMX 210020Z AUTO 16006KT 120V190 0700NDV R01/1700U R19/1800N FG VV002 11/11 Q0999=
200610202350 METAR ESMX 202350Z AUTO 17005KT 120V200 0800NDV R01/1900D R19/P2000N FG OVC001/// 11/11 Q0999=
200610202320 METAR ESMX 202320Z AUTO 14006KT 110V190 1300NDV R01/P2000N R19/P2000N BR OVC002/// 11/11 Q0999 RERA REDZ=
200610202250 METAR ESMX 202250Z AUTO 16006KT 120V200 1900NDV BR OVC004/// 11/11 Q0999=
200610202220 METAR ESMX 202220Z AUTO 15005KT 100V190 2200NDV BR OVC004/// 11/11 Q0999 REDZ=
200610202150 METAR ESMX 202150Z AUTO 14004KT 080V170 2300NDV DZ BKN004/// OVC007/// 11/11 Q0999=
200610202120 METAR ESMX 202120Z AUTO 14004KT 100V180 2600NDV -RA OVC005/// 11/11 Q0999=
200610202050 METAR ESMX 202050Z AUTO 13004KT 080V160 2600NDV DZ OVC004/// 11/10 Q0999 RERA=
200610202020 METAR ESMX 202020Z AUTO 11004KT 060V170 2600NDV BR OVC005/// 11/10 Q0999 RERA REDZ=
200610201950 METAR ESMX 201950Z AUTO 11004KT 070V160 3200NDV BR OVC005/// 11/10 Q0999=
200610201920 METAR ESMX 201920Z AUTO 13004KT 090V150 3200NDV BR OVC005/// 11/10 Q0999 REDZ REUP RERA=
200610201850 METAR ESMX 201850Z AUTO 11003KT 070V160 3300NDV -DZ FEW006/// BKN008/// OVC010/// 11/10 Q0999=
200610201820 METAR ESMX 201820Z AUTO 11004KT 070V160 4300NDV -RA FEW009/// 11/10 Q0999 REDZ=
200610201750 METAR ESMX 201750Z AUTO 11004KT 5000NDV -RA FEW009/// SCT011/// 11/10 Q1000 REDZ=
200610201720 METAR ESMX 201720Z 10004KT 060V150 6000 -RA BR FEW020 SCT075 11/10 Q1000=
200610201650 METAR ESMX 201650Z 12004KT 080V160 7000 -RA BR SCT070 11/10 Q1000=
200610201620 METAR ESMX 201620Z 11005KT 080V160 8000 BR NSC 12/09 Q1000=
200610201550 METAR ESMX 201550Z 12004KT 070V190 8000 BR FEW015 BKN090 12/09 Q1000=
200610201520 METAR ESMX 201520Z 11004KT 060V160 9000 BR FEW030 BKN100 12/09 Q1000=
200610201450 METAR ESMX 201450Z 12005KT 070V170 8000 BR FEW020 BKN100 13/10 Q1000=
200610201420 METAR ESMX 201420Z 12005KT 070V160 8000 BR FEW015 BKN089 13/11 Q1000=
200610201350 METAR ESMX 201350Z 13005KT 070V170 9000 BR FEW015 BKN085 13/11 Q1001=
200610201320 METAR ESMX 201320Z 12005KT 030V160 9000 BR BKN084 13/11 Q1000=
200610201250 METAR ESMX 201250Z 12004KT 080V160 8000 BR FEW010 BKN084 13/11 Q1001=
200610201220 METAR ESMX 201220Z 12004KT 070V160 7000 BR FEW010 BKN080 13/11 Q1001=
200610201150 METAR ESMX 201150Z 12005KT 070V170 7000 BR SCT010 BKN080 12/11 Q1001=
200610201120 METAR ESMX 201120Z 12005KT 070V170 6000 BR FEW009 SCT011 BKN080 12/11 Q1001=
200610201050 METAR ESMX 201050Z 13006KT 080V170 6000 BR SCT008 BKN011 12/11 Q1001=
200610201020 METAR ESMX 201020Z 14005KT 090V170 6000 BR FEW007 BKN010 12/10 Q1002=
200610200950 METAR ESMX 200950Z 13007KT 080V180 5000 BR FEW007 BKN010 12/11 Q1002=
200610200920 METAR ESMX 200920Z 13005KT 080V190 5000 BR FEW007 BKN011 11/10 Q1002=
200610200850 METAR ESMX 200850Z 13006KT 080V160 4600 BR FEW006 BKN008 11/10 Q1002=
200610200820 METAR ESMX 200820Z 12006KT 080V160 4500 BR BKN006 11/10 Q1002=
200610200750 METAR ESMX 200750Z 12005KT 080V150 5000 -DZ BR SCT005 BKN008 11/10 Q1002=
200610200720 METAR ESMX 200720Z 12005KT 080V160 3600 -RA BR BKN006 OVC008 11/10 Q1002=
200610200650 METAR ESMX 200650Z 11005KT 070V160 4000 DZ BR FEW006 BKN012 11/10 Q1003=
200610200620 METAR ESMX 200620Z 11004KT 070V150 3200 -DZ BR FEW005 BKN009 11/10 Q1003=
200610200550 METAR ESMX 200550Z 10003KT 030V150 2800 -DZ BR FEW004 BKN005 11/10 Q1003=
200610200520 METAR ESMX 200520Z 10003KT 050V150 2200 -RA FEW004 OVC005 11/10 Q1003=
200610200450 METAR ESMX 200450Z 09003KT 050V140 2300 -RA BKN004 11/10 Q1003=
200610200420 METAR ESMX 200420Z 09003KT 050V150 2500 -RA FEW006 BKN007 OVC012 11/10 Q1003 REDZ=
200610200350 METAR ESMX 200350Z 10004KT 060V140 3400 BR FEW007 OVC008 11/10 Q1003 REDZ=
200610200320 METAR ESMX 200320Z AUTO 09004KT 060V150 3200NDV DZ FEW005/// SCT007/// BKN011/// 11/10 Q1003 RERA=
200610200250 METAR ESMX 200250Z AUTO 09003KT 050V120 3400NDV BR FEW005/// BKN007/// BKN058/// 11/10 Q1003=
200610200220 METAR ESMX 200220Z AUTO 09004KT 050V120 3500NDV BR FEW007/// SCT009/// BKN021/// 11/10 Q1003=
200610200150 METAR ESMX 200150Z AUTO 09004KT 050V130 3000NDV BR FEW072/// SCT092/// 11/10 Q1003 RERA=
200610200120 METAR ESMX 200120Z AUTO 10003KT 060V160 3100NDV -RA FEW084/// 11/10 Q1004=
200610200050 METAR ESMX 200050Z AUTO 09003KT 050V140 3300NDV BR FEW007/// 11/10 Q1004 RERA=
200610200020 METAR ESMX 200020Z AUTO 10003KT 050V140 3100NDV BR FEW008/// SCT010/// BKN072/// 11/10 Q1004=
200610192350 METAR ESMX 192350Z 11003KT 060V160 3400 BR SCT010 OVC076 11/11 Q1004=
200610192320 METAR ESMX 192320Z 11003KT 060V150 3400 BR FEW011 SCT020 BKN081 11/11 Q1004=
200610192250 METAR ESMX 192250Z 11003KT 070V150 2900 BR FEW008 SCT018 BKN087 11/11 Q1004=
200610192220 METAR ESMX 192220Z 10003KT 070V140 2700 BR FEW007 SCT009 OVC011 12/11 Q1004 RERA REDZ=
200610192150 METAR ESMX 192150Z 10003KT 050V140 2800 BR FEW007 SCT009 BKN011 12/11 Q1004=
200610192050 METAR ESMX 192050Z 10003KT 030V140 2800 BR FEW008 OVC013 12/11 Q1004=
200610192020 METAR ESMX 192020Z 10003KT 070V150 2800 BR FEW008 OVC012 12/11 Q1004=
200610191950 METAR ESMX 191950Z 11004KT 070V170 2800 BR FEW006 BKN008 OVC011 12/11 Q1004 RERA REDZ=
200610191920 METAR ESMX 191920Z 10004KT 070V140 2500 -DZ OVC007 12/11 Q1005 RERA=
200610191850 METAR ESMX 191850Z 10003KT 2400 -DZ FEW006 BKN007 12/11 Q1005=
200610191820 METAR ESMX 191820Z 09003KT 040V140 2100 -DZ OVC005 12/12 Q1004 RERA=
200610191750 METAR ESMX 191750Z 07003KT 030V110 1900 DZ OVC005 12/12 Q1004=
200610191720 METAR ESMX 191720Z 07003KT 020V120 2000 -DZ FEW003 OVC004 12/12 Q1004=
200610191650 METAR ESMX 191650Z VRB02KT 2000 BR FEW003 SCT005 BKN010 12/12 Q1004=
200610191620 METAR ESMX 191620Z 07003KT 020V110 1600 -RA BR FEW002 SCT005 BKN010 12/12 Q1004=
200610191550 METAR ESMX 191550Z VRB02KT 1200 BR VV005 12/12 Q1004=
200610191520 METAR ESMX 191520Z VRB01KT 1100 BR VV005 12/12 Q1004=
200610191450 METAR ESMX 191450Z 00000KT 1600 BR SCT004 OVC011 12/12 Q1004=
200610191420 METAR ESMX 191420Z 11002KT 1600 -DZ BR FEW004 OVC007 12/12 Q1004=
200610191350 METAR ESMX 191350Z VRB02KT 1900 -RA OVC005 12/12 Q1004=
200610191320 METAR ESMX 191320Z VRB02KT 2300 BR OVC005 12/11 Q1004=
200610191250 METAR ESMX 191250Z VRB02KT 1800 BR OVC004 12/11 Q1004=
200610191220 METAR ESMX 191220Z 06003KT 020V110 1800 BR OVC002 12/11 Q1004=
200610191150 METAR ESMX 191150Z VRB02KT 2300 BR BKN002 OVC004 12/11 Q1004=
200610191120 METAR ESMX 191120Z VRB02KT 2500 BR OVC003 12/11 Q1004=
200610191050 METAR ESMX 191050Z 13002KT 2500 BR OVC003 12/11 Q1005=
200610191020 METAR ESMX 191020Z VRB02KT 2100 R01/P2000N R19/1900N DZ OVC002 11/11 Q1004=
200610190950 METAR ESMX 190950Z VRB02KT 1700 R01/1800N R19/1800N DZ OVC002 11/11 Q1004=
200610190920 METAR ESMX 190920Z 14003KT 110V170 1800 R01/1600U R19/1700N DZ OVC002 11/11 Q1004=
200610190850 METAR ESMX 190850Z 14003KT 110V170 1700 R01/1400N R19/1600N OVC002 11/10 Q1004=
200610190820 METAR ESMX 190820Z 15003KT 110V170 1400 R01/1400N R19/1500N BZ OVC002 11/10 Q1004=
200610190750 METAR ESMX 190750Z 14002KT 1000 R01/1300N R19/1300N DZ OVC002 10/10 Q1004=
200610190720 METAR ESMX 190720Z 00000KT 0900 R01/1100N R19/1300N DZ VV002 10/10 Q1004=
200610190650 METAR ESMX 190650Z 00000KT 1400 R01/1800N R19/P2000N DZ OVC002 10/10 Q1003=
200610190620 METAR ESMX 190620Z VRB02KT 1200 R01/1900N R19/P2000N BZ OVC002 10/10 Q1003=
200610190550 METAR ESMX 190550Z VRB02KT 1200 R01/P2000N R19/P2000N DZ OVC002 10/10 Q1003=
200610190520 METAR ESMX 190520Z 13003KT 100V170 1100 R01/P2000N R19/P2000N DZ OVC001 10/09 Q1003=
200610190450 METAR ESMX 190450Z 13004KT 080V160 1000 R01/P2000N R19/P2000N DZ OVC001 10/09 Q1003=
200610190420 METAR ESMX 190420Z VRB02KT 1000 R01/P2000N R19/P2000N +DZ OVC002 10/09 Q1003=
200610190350 METAR ESMX 190350Z 13003KT 080V160 1100 R01/P2000N R19/P2000N -RA OVC002 09/09 Q1003=
200610190320 METAR ESMX 190320Z AUTO VRB02KT 1500NDV BR OVC002/// 09/09 Q1003=
200610190250 METAR ESMX 190250Z AUTO VRB02KT 1500NDV BR OVC002/// 09/09 Q1003 RERA REDZ=
200610190220 METAR ESMX 190220Z AUTO 10003KT 070V140 1600NDV UP OVC002/// 09/09 Q1003 REDZ RERA=
200610190150 METAR ESMX 190150Z AUTO VRB02KT 1500NDV DZ OVC002/// 09/09 Q1004 RERA=
200610190120 METAR ESMX 190120Z AUTO 10003KT 060V140 1700NDV -DZ OVC002/// 09/09 Q1004 RERA=
200610190050 METAR ESMX 190050Z AUTO 11003KT 080V150 1700NDV BR OVC002/// 09/09 Q1004 REDZ RERA REUP=
200610190020 METAR ESMX 190020Z VRB02KT 2000 -DZ OVC003 09/09 Q1004 RERA=
200610182350 METAR ESMX 182350Z VRB02KT 2000 BR BKN003 09/09 Q1004 RERA REDZ=
200610182320 METAR ESMX 182320Z 15003KT 080V210 2100 BR OVC003 09/09 Q1005=
200610182250 METAR ESMX 182250Z 13003KT 080V170 2300 BR BKN004 BKN066 09/09 Q1005 RERA REDZ=
200610182220 METAR ESMX 182220Z 16003KT 100V190 2700 -RA FEW003 BKN005 09/09 Q1005=
200610182150 METAR ESMX 182150Z 11005KT 070V160 2400 RA FEW004 09/09 Q1004=
200610182120 METAR ESMX 182120Z 11004KT 060V150 2600 DZ FEW010 SCT053 09/09 Q1005 RERA=
200610182050 METAR ESMX 182050Z 09003KT 040V140 3200 -RA BKN006 BKN009 09/09 Q1005 REDZ=
200610182020 METAR ESMX 182020Z VRB02KT 4600 DZ SCT007 BKN018 BKN074 09/09 Q1006 RERA=
200610181950 METAR ESMX 181950Z 00000KT 5000 BR SCT008 BKN011 BKN075 10/09 Q1006 RERA REDZ=
200610181920 METAR ESMX 181920Z 09003KT 050V120 6000 BR FEW010 SCT012 BKN020 10/09 Q1006=
200610181850 METAR ESMX 181850Z VRB02KT 7000 BR SCT010 BKN022 BKN089 10/09 Q1006=
200610181820 METAR ESMX 181820Z 10003KT 050V140 9000 SCT009 BKN022 10/09 Q1006=
200610181750 METAR ESMX 181750Z VRB02KT 9999 BKN010 10/08 Q1006=
200610181720 METAR ESMX 181720Z VRB01KT 9999 FEW011 SCT017 BKN024 10/08 Q1006=
200610181650 METAR ESMX 181650Z 10003KT 9999 FEW017 SCT020 BKN026 10/08 Q1006=
200610181620 METAR ESMX 181620Z 08002KT 9999 FEW015 BKN022 10/08 Q1006=
200610181550 METAR ESMX 181550Z 06002KT 9999 SCT016 BKN023 10/08 Q1006=
200610181520 METAR ESMX 181520Z VRB01KT 9999 SCT015 BKN019 11/08 Q1006=
200610181450 METAR ESMX 181450Z VRB02KT 9999 SCT015 BKN020 11/08 Q1006=
200610181420 METAR ESMX 181420Z 15004KT 9999 SCT015 BKN020 11/08 Q1006=
200610181350 METAR ESMX 181350Z VRB02KT 9999 SCT013 BKN016 BKN020 11/08 Q1007=
200610181320 METAR ESMX 181320Z VRB02KT 8000 BR SCT011 BKN014 10/08 Q1007=
200610181250 METAR ESMX 181250Z 12003KT 060V170 8000 BR BKN008 BKN015 11/08 Q1007=
200610181220 METAR ESMX 181220Z 10003KT 060V140 7000 BR FEW006 BKN008 10/08 Q1007=
200610181150 METAR ESMX 181150Z 06003KT 020V110 6000 BR FEW005 BKN008 09/08 Q1008=
200610181120 METAR ESMX 181120Z 09004KT 030V150 5000 BR BKN003 OVC006 09/08 Q1008=
200610181050 METAR ESMX 181050Z 09003KT 4300 BR SCT002 BKN002 08/08 Q1008=
200610181020 METAR ESMX 181020Z 09003KT 3500 BR SCT002 BKN003 08/08 Q1009=
200610180950 METAR ESMX 180950Z 06004KT 030V120 1200 BR BKN002 08/07 Q1009=
200610180920 METAR ESMX 180920Z 08003KT 030V120 0650 R01/1000 R19/1000V1800D FG VV002 07/07 Q1009=
200610180850 METAR ESMX 180850Z VRB02KT 0700 R01/0800 R19/0800VP2000D FG VV002 07/07 Q1009=
200610180820 METAR ESMX 180820Z VRB02KT 0800 R01/0550V0900 R19/0650V1000 FG VV002 07/07 Q1009=
200610180750 METAR ESMX 180750Z VRB01KT 0250 R01/0500N R19/0500N FG VV002 07/07 Q1010=
200610180720 METAR ESMX 180720Z VRB02KT 0300 R01/0500N R19/0650 FG VV002 07/07 Q1010=
200610180650 METAR ESMX 180650Z 15004KT 100V170 0300 R01/0550N R19/0550 FG VV002 07/07 Q1010=
200610180620 METAR ESMX 180620Z 14003KT 110V170 0250 R01/0600 R19/0500 FG VV002 07/07 Q1010=
200610180550 METAR ESMX 180550Z VRB02KT 0200 R01/0600N R19/0550N FG VV002 06/06 Q1010=
200610180520 METAR ESMX 180520Z VRB02KT 0200 R01/0700 R19/0700N FG VV002 06/06 Q1010=
200610180450 METAR ESMX 180450Z 16004KT 0550 R01/1600D R19/1000VP2000D FG VV002 06/06 Q1010=
200610180420 METAR ESMX 180420Z 16003KT 0500 R01/0800VP2000U R19/1100N FG VV002 05/05 Q1010=
200610180350 METAR ESMX 180350Z 00000KT 0550 R01/0900V1300N R19/1100VP2000D FG VV002 05/05 Q1010=
200610180150 METAR ESMX 180150Z AUTO VRB02KT 0100NDV R01/0275V0450 R19/0600 FG VV000 03/02 Q1011=
200610180120 METAR ESMX 180120Z AUTO 18002KT 0200NDV R01/0900 R19/0900VP2000 FG NCD 03/03 Q1012=
200610180050 METAR ESMX 180050Z AUTO 17004KT 1200NDV R01/1900N R19/0900VP2000D BR NCD 04/04 Q1012=
200610180020 METAR ESMX 180020Z AUTO 17004KT 4000NDV BR NCD 04/04 Q1012=
200610172350 METAR ESMX 172350Z 17004KT 5000 BR NSC 05/04 Q1012=
200610172320 METAR ESMX 172320Z 18003KT 5000 BR NSC 05/04 Q1013=
200610172250 METAR ESMX 172250Z 17003KT 5000 BR NSC 06/05 Q1013=
200610172220 METAR ESMX 172220Z 18005KT 8000 BR NSC 06/06 Q1013=
200610172150 METAR ESMX 172150Z 16004KT CAVOK 06/05 Q1014=
200610172120 METAR ESMX 172120Z 00000KT CAVOK 06/05 Q1014=
200610172050 METAR ESMX 172050Z 18005KT CAVOK 07/06 Q1014=
200610172020 METAR ESMX 172020Z 17005KT CAVOK 08/07 Q1014=
200610171950 METAR ESMX 171950Z 17006KT CAVOK 08/06 Q1014=
200610171920 METAR ESMX 171920Z 18003KT CAVOK 08/07 Q1014=
200610171850 METAR ESMX 171850Z 18005KT CAVOK 09/07 Q1014=
200610171820 METAR ESMX 171820Z 18006KT CAVOK 09/07 Q1014=
200610171750 METAR ESMX 171750Z 18006KT CAVOK 10/08 Q1014=
200610171720 METAR ESMX 171720Z 18006KT CAVOK 11/08 Q1015=
200610171650 METAR ESMX 171650Z 17005KT CAVOK 11/08 Q1015=
200610171620 METAR ESMX 171620Z 17004KT CAVOK 11/08 Q1015=
200610171550 METAR ESMX 171550Z 18005KT CAVOK 11/08 Q1015=
200610171520 METAR ESMX 171520Z 21007KT CAVOK 12/08 Q1016=
200610171450 METAR ESMX 171450Z 20007KT CAVOK 14/09 Q1016=
200610171420 METAR ESMX 171420Z 20009KT 9999 FEW028 14/09 Q1016=
200610171350 METAR ESMX 171350Z 21009KT 9999 FEW027 14/09 Q1017=
200610171320 METAR ESMX 171320Z 21011KT 9999 FEW026 14/09 Q1017=
200610171250 METAR ESMX 171250Z 19012KT 170V230 9999 FEW025 14/09 Q1017=
200610171220 METAR ESMX 171220Z 21010KT 170V250 9999 SCT021 14/09 Q1017=
200610171150 METAR ESMX 171150Z 20012KT 9999 SCT020 14/09 Q1018=
200610171120 METAR ESMX 171120Z 20014KT 9999 FEW019 BKN021 14/09 Q1018=
200610171050 METAR ESMX 171050Z 21011KT 9999 BKN016 12/08 Q1019=
200610171020 METAR ESMX 171020Z 20010KT 170V240 9999 BKN016 12/09 Q1019=
200610170950 METAR ESMX 170950Z 22009KT 190V250 9999 FEW015 BKN017 12/09 Q1019=
200610170920 METAR ESMX 170920Z 23008KT 9999 FEW009 SCT013 BKN015 11/09 Q1019=
200610170820 METAR ESMX 170820Z 22007KT 9000 BR OVC020 10/09 Q1020=
200610170750 METAR ESMX 170750Z 20007KT 8000 BR OVC021 10/09 Q1020=
200610170720 METAR ESMX 170720Z 19007G19KT 7000 BR FEW018 OVC022 10/08 Q1020=
200610170650 METAR ESMX 170650Z 19006KT 8000 BR OVC022 09/08 Q1020=
200610170620 METAR ESMX 170620Z 18005KT 9000 BR BKN021 09/08 Q1020=
200610170550 METAR ESMX 170550Z 18006KT 8000 BR OVC021 09/07 Q1020=
200610170520 METAR ESMX 170520Z 19006KT 9000 BR OVC021 09/07 Q1021=
200610170450 METAR ESMX 170450Z 19006KT 9999 OVC021 09/07 Q1021=
200610170420 METAR ESMX 170420Z 20005KT 9999 OVC021 09/07 Q1021=
200610170350 METAR ESMX 170350Z 18005KT 9999 OVC022 08/07 Q1021=
200610170320 METAR ESMX 170320Z AUTO 17003KT 9999NDV OVC020/// 08/06 Q1021=
200610170250 METAR ESMX 170250Z AUTO 17004KT 9999NDV OVC021/// 08/06 Q1021=
200610170220 METAR ESMX 170220Z AUTO 19004KT 9999NDV OVC020/// 08/07 Q1022=
200610170150 METAR ESMX 170150Z AUTO 22003KT 9999NDV BKN016/// OVC021/// 09/06 Q1022=
200610170120 METAR ESMX 170120Z AUTO 20005KT 9999NDV OVC015/// 09/07 Q1022=
200610170050 METAR ESMX 170050Z AUTO 22004KT 180V250 9999NDV OVC016/// 09/07 Q1023=
200610170020 METAR ESMX 170020Z AUTO 22004KT 9999NDV OVC014/// 09/07 Q1023=
200610162350 METAR ESMX 162350Z 20002KT 9999 OVC015 09/06 Q1023=
200610162320 METAR ESMX 162320Z 21003KT 160V260 9999 OVC015 09/06 Q1023=
200610162250 METAR ESMX 162250Z VRB02KT 9999 OVC016 09/06 Q1023=
200610162220 METAR ESMX 162220Z 27003KT 9999 OVC017 09/06 Q1024=
200610162150 METAR ESMX 162150Z 28005KT 9999 OVC018 09/06 Q1024=
200610162120 METAR ESMX 162120Z 28005KT 230V320 9999 OVC019 09/06 Q1024=
200610162050 METAR ESMX 162050Z 25006KT 210V280 9999 OVC019 09/06 Q1024=
200610162020 METAR ESMX 162020Z 26005KT 240V320 9999 OVC019 09/06 Q1024=
200610161950 METAR ESMX 161950Z 27006KT 240V300 9999 OVC018 09/06 Q1024=
200610161920 METAR ESMX 161920Z 23003KT 9999 OVC019 09/07 Q1024=
200610161850 METAR ESMX 161850Z 22004KT 190V250 9999 OVC020 09/08 Q1024=
200610161820 METAR ESMX 161820Z 21004KT 9999 OVC020 09/08 Q1025=
200610161750 METAR ESMX 161750Z 21003KT 170V250 9999 OVC019 09/08 Q1025=
200610161720 METAR ESMX 161720Z 20003KT 9999 OVC021 09/08 Q1025=
200610161650 METAR ESMX 161650Z 19003KT 9999 OVC022 09/08 Q1025=
200610161620 METAR ESMX 161620Z 21002KT 9999 OVC023 10/07 Q1025=
200610161550 METAR ESMX 161550Z 21004KT 9999 OVC024 10/08 Q1026=
200610161520 METAR ESMX 161520Z 22004KT 9999 OVC026 10/08 Q1026=
200610161450 METAR ESMX 161450Z 22005KT 9999 OVC026 10/08 Q1026=
200610161420 METAR ESMX 161420Z 23005KT 9999 OVC026 10/08 Q1026=
200610161350 METAR ESMX 161350Z 23006KT 9999 OVC027 11/08 Q1026=
200610161320 METAR ESMX 161320Z 25005KT 9999 OVC027 11/08 Q1026=
200610161250 METAR ESMX 161250Z 21005KT 9999 OVC027 11/07 Q1027=
200610161220 METAR ESMX 161220Z 22005KT 9999 OVC029 11/07 Q1027=
200610161150 METAR ESMX 161150Z 21004KT 9999 OVC028 11/08 Q1027=
200610161120 METAR ESMX 161120Z 23004KT 9999 OVC029 11/07 Q1028=
200610161050 METAR ESMX 161050Z 26004KT 9999 OVC028 11/07 Q1028=
200610161020 METAR ESMX 161020Z VRB01KT 9999 OVC026 11/08 Q1028=
200610160950 METAR ESMX 160950Z VRB02KT 9999 OVC027 10/08 Q1028=
200610160920 METAR ESMX 160920Z 21002KT 9999 OVC026 10/08 Q1028=
200610160850 METAR ESMX 160850Z VRB01KT 9999 OVC025 10/08 Q1028=
200610160820 METAR ESMX 160820Z VRB02KT 9999 OVC026 09/08 Q1028=
200610160750 METAR ESMX 160750Z 19003KT 9999 FEW003 OVC025 09/08 Q1028=
200610160720 METAR ESMX 160720Z 20002KT 8000 BR OVC024 08/08 Q1028=
200610160650 METAR ESMX 160650Z 24002KT 9999 FEW003 BKN027 08/08 Q1028=
200610160620 METAR ESMX 160620Z 23002KT 7000 BR FEW003 BKN015 08/08 Q1029=
200610160550 METAR ESMX 160550Z 20002KT 7000 BR FEW009 BKN012 OVC015 08/08 Q1029=
200610160520 METAR ESMX 160520Z 00000KT 5000 FEW001 OVC008 08/08 Q1029=
200610160450 METAR ESMX 160450Z 30004KT 2500 BR BKN002 08/08 Q1029=
200610160420 METAR ESMX 160420Z 30003KT 1600 BR OVC002 08/08 Q1029=
200610160350 METAR ESMX 160350Z 25002KT 3900 BR OVC003 08/08 Q1029=
200610160320 METAR ESMX 160320Z AUTO 29003KT 2400NDV BKN002/// OVC008/// 08/08 Q1029=
200610160250 METAR ESMX 160250Z AUTO 00000KT 1000NDV R01/P2000N R19/P2000N BR BKN001/// OVC008/// 08/08 Q1029=
200610160220 METAR ESMX 160220Z AUTO 29001KT 2100NDV BR OVC001/// 08/08 Q1029=
200610160150 METAR ESMX 160150Z AUTO 31002KT 3500NDV BR SCT002/// BKN013/// OVC022/// 08/08 Q1030=
200610160120 METAR ESMX 160120Z AUTO VRB01KT 5000NDV BR FEW003/// OVC018/// 08/08 Q1030=
200610160050 METAR ESMX 160050Z AUTO 00000KT 5000NDV BR FEW015/// OVC017/// 08/08 Q1030=
200610160020 METAR ESMX 160020Z 22001KT 5000 BR SCT006 BKN010 OVC017 08/08 Q1030=
200610152350 METAR ESMX 152350Z 00000KT 4800 BR BCFG BKN006 OVC015 08/08 Q1030=
200610152320 METAR ESMX 152320Z 00000KT 5000 BR BCFG FEW005 OVC014 08/08 Q1031=
200610152250 METAR ESMX 152250Z 00000KT 5000 BR BCFG FEW006 BKN010 08/07 Q1031=
200610152220 METAR ESMX 152220Z 00000KT 5000 BCFG BR BKN007 07/07 Q1031=
200610152150 METAR ESMX 152150Z 00000KT 0900 R01/0800VP2000U R19/P2000N BCFG FEW008 OVC015 07/06 Q1031=
200610152120 METAR ESMX 152120Z VRB01KT 4500 BR BKN007 OVC016 08/08 Q1031=
200610152050 METAR ESMX 152050Z 00000KT 9999 FEW006 OVC007 09/08 Q1031=
200610152020 METAR ESMX 152020Z VRB01KT 9999 FEW006 BKN007 OVC009 09/08 Q1031=
200610151950 METAR ESMX 151950Z 02002KT 9999 FEW006 BKN008 OVC009 09/08 Q1031=
200610151920 METAR ESMX 151920Z 02002KT 9999 OVC006 09/08 Q1032=
200610151850 METAR ESMX 151850Z 01003KT 340V040 9999 OVC006 09/08 Q1032=
200610151820 METAR ESMX 151820Z 01003KT 9999 OVC005 09/08 Q1032=
200610151750 METAR ESMX 151750Z 01004KT 9999 OVC005 09/08 Q1032=
200610151720 METAR ESMX 151720Z 32004KT 9999 OVC004 09/08 Q1032=
200610151650 METAR ESMX 151650Z 34003KT 310V030 9999 OVC004 09/08 Q1032=
200610151620 METAR ESMX 151620Z 30003KT 9999 OVC004 09/08 Q1031=
200610151550 METAR ESMX 151550Z 29004KT 9999 OVC004 09/08 Q1032=
200610151520 METAR ESMX 151520Z 29003KT 260V330 9999 OVC004 09/08 Q1032=
200610151450 METAR ESMX 151450Z 30003KT 9999 OVC005 09/08 Q1032=
200610151420 METAR ESMX 151420Z 32004KT 290V350 9999 OVC005 09/08 Q1032=
200610151350 METAR ESMX 151350Z 32006KT 9999 OVC004 09/08 Q1032=
200610151320 METAR ESMX 151320Z 35006KT 320V020 9999 OVC003 09/08 Q1032=
200610151250 METAR ESMX 151250Z 33006KT 300V050 9999 OVC003 09/08 Q1033=
200610151220 METAR ESMX 151220Z 32005KT 290V350 9999 OVC003 09/08 Q1032=
200610151150 METAR ESMX 151150Z 34005KT 290V040 9999 BKN004 09/08 Q1033=
200610151120 METAR ESMX 151120Z AUTO 30005KT 9999NDV OVC003/// 09/09 Q1033=
200610151050 METAR ESMX 151050Z AUTO 32004KT 290V360 9999NDV FEW001/// OVC002/// 09/09 Q1033=
200610151020 METAR ESMX 151020Z AUTO 36005KT 6000NDV BR VV001 08/08 Q1033=
200610150950 METAR ESMX 150950Z AUTO 01005KT 320V030 5000NDV OVC001/// 08/08 Q1033=
200610150920 METAR ESMX 150920Z AUTO 35005KT 1500NDV R01/1100VP2000U R19/1100VP2000D OVC001/// 08/08 Q1033=
200610150850 METAR ESMX 150850Z AUTO 31003KT 290V350 0350NDV R01/0500 R19/0650 FG VV001 08/08 Q1033=
200610150820 METAR ESMX 150820Z AUTO 31004KT 0250NDV R01/0400V0550N R19/0400V0600N FG VV001 07/07 Q1033=
200610150750 METAR ESMX 150750Z AUTO 31003KT 0150NDV R01/0400 R19/0600N FG VV001 07/07 Q1033=
200610150720 METAR ESMX 150720Z AUTO VRB02KT 0100NDV R01/0250N R19/0450N FG VV001 07/07 Q1033=
200610150650 METAR ESMX 150650Z AUTO 30004KT 0100NDV R01/0375 R19/0275N FG VV000 07/06 Q1033=
200610150620 METAR ESMX 150620Z AUTO 29003KT 0150NDV R01/0450N R19/0650 FG VV001 07/07 Q1033=
200610150550 METAR ESMX 150550Z AUTO 36004KT 0250NDV R01/0600N R19/1000N FG VV001 07/07 Q1033=
200610150520 METAR ESMX 150520Z AUTO 34006KT 0400NDV R01/0800V1200D R19/0900V1700U FG VV001 07/07 Q1033=
200610150450 METAR ESMX 150450Z AUTO 35005KT 0500NDV R01/1000VP2000U R19/P2000N FG VV001 07/07 Q1033=
200610150420 METAR ESMX 150420Z AUTO 36004KT 0900NDV R01/0900VP2000D R19/P2000N FG SCT003/// 04/04 Q1033=
200610150350 METAR ESMX 150350Z AUTO 35003KT 0200NDV R01/0450V1000D R19/1000VP2000U FG NCD 03/03 Q1033=
200610150320 METAR ESMX 150320Z AUTO 32002KT 0400NDV R01/0900V1800U R19/P2000N FG NCD 04/04 Q1033=
200610150250 METAR ESMX 150250Z AUTO 33002KT 0200NDV R01/0500V1600D R19/0400V0550 FG NCD 04/04 Q1033=
200610150220 METAR ESMX 150220Z AUTO 35001KT 0150NDV R01/0700V1700 R19/0375V0600N FG NCD 05/04 Q1033=
200610150150 METAR ESMX 150150Z AUTO VRB01KT 0150NDV R01/1900N R19/0600V0800 BR NCD 05/05 Q1033=
200610150120 METAR ESMX 150120Z AUTO 31004KT 2500NDV R01/P2000N R19/1400VP2000N BR NCD 05/05 Q1033=
200610150050 METAR ESMX 150050Z AUTO 31004KT 1200NDV R01/P2000N R19/1200VP2000D BR NCD 05/05 Q1033=
200610150020 METAR ESMX 150020Z AUTO 31004G29KT 5000NDV BR NCD 05/05 Q1033=
200610142350 METAR ESMX 142350Z AUTO 29003KT 6000NDV BR NCD 04/04 Q1033=
200610142320 METAR ESMX 142320Z AUTO 29003KT 8000NDV BR NCD 05/05 Q1033=
200610142250 METAR ESMX 142250Z AUTO 31003KT 290V350 5000NDV BR NCD 06/05 Q1033=
200610142220 METAR ESMX 142220Z AUTO 29004KT 9000NDV NCD 05/05 Q1034=
200610142150 METAR ESMX 142150Z AUTO 29003KT 9999NDV NCD 06/05 Q1034=
200610142120 METAR ESMX 142120Z AUTO 27003KT 9999NDV BR NCD 05/05 Q1034=
200610142050 METAR ESMX 142050Z AUTO 30003KT 8000NDV BR NCD 05/04 Q1034=
200610142020 METAR ESMX 142020Z AUTO 31002KT 4000NDV BR NCD 05/05 Q1033=
200610141950 METAR ESMX 141950Z AUTO 29004KT 9999NDV NCD 05/05 Q1033=
200610141920 METAR ESMX 141920Z AUTO 29004KT 9999NDV NCD 07/06 Q1033=
200610141850 METAR ESMX 141850Z AUTO 29004KT 9999NDV NCD 08/07 Q1033=
200610141820 METAR ESMX 141820Z AUTO 29005KT 9999NDV NCD 08/07 Q1033=
200610141750 METAR ESMX 141750Z AUTO 28005KT 9999NDV NCD 09/07 Q1033=
200610141720 METAR ESMX 141720Z AUTO 28005KT 9999NDV NCD 09/07 Q1033=
200610141650 METAR ESMX 141650Z AUTO 28003KT 9999NDV NCD 09/08 Q1033=
200610141620 METAR ESMX 141620Z AUTO 25004KT 9999NDV NCD 10/07 Q1033=
200610141550 METAR ESMX 141550Z AUTO 26004KT 9999NDV NCD 11/08 Q1033=
200610141520 METAR ESMX 141520Z AUTO 27005KT 240V300 9999NDV NCD 12/08 Q1034=
200610141450 METAR ESMX 141450Z AUTO 27006KT 220V300 9999NDV NCD 12/08 Q1034=
200610141420 METAR ESMX 141420Z AUTO 29007KT 9999NDV NCD 13/08 Q1034=
200610141350 METAR ESMX 141350Z AUTO 29006KT 250V320 9999NDV NCD 13/08 Q1034=
200610141320 METAR ESMX 141320Z AUTO 28007KT 240V300 9999NDV NCD 13/08 Q1034=
200610141250 METAR ESMX 141250Z AUTO 28007KT 250V320 9999NDV NCD 13/08 Q1034=
200610141220 METAR ESMX 141220Z AUTO 27006KT 9999NDV FEW013/// 12/09 Q1034=
200610141150 METAR ESMX 141150Z AUTO 27005KT 230V300 9999NDV FEW008/// SCT013/// 11/10 Q1035=
200610141120 METAR ESMX 141120Z AUTO 27004KT 230V300 9999NDV FEW005/// BKN010/// 10/10 Q1035=
200610141050 METAR ESMX 141050Z AUTO 28004KT 9000NDV BR BKN002/// OVC005/// 09/09 Q1036=
200610141020 METAR ESMX 141020Z AUTO 28005KT 250V330 7000NDV OVC001/// 08/08 Q1036=
200610140950 METAR ESMX 140950Z AUTO 29004KT 6000NDV OVC001/// 08/08 Q1036=
200610140920 METAR ESMX 140920Z AUTO 25003KT 220V290 0900NDV R01/0800V1300N R19/0800V1800U FG VV001 08/08 Q1036=
200610140850 METAR ESMX 140850Z AUTO 27003KT 240V310 0250NDV R01/0500N R19/0450N FG VV001 07/07 Q1036=
200610140820 METAR ESMX 140820Z AUTO 24003KT 0200NDV R01/0400N R19/0400N FG VV000 07/07 Q1036=
200610140750 METAR ESMX 140750Z AUTO VRB02KT 0150NDV R01/0375N R19/0400N FG VV000 07/06 Q1036=
200610140720 METAR ESMX 140720Z AUTO VRB02KT 0150NDV R01/0275V0400N R19/0375N FG VV000 06/06 Q1036=
200610140650 METAR ESMX 140650Z AUTO 00000KT 0100NDV R01/0325N R19/0250N FG VV000 06/05 Q1036=
200610140620 METAR ESMX 140620Z AUTO 00000KT 0100NDV R01/0250N R19/0325N FG VV000 05/05 Q1036=
200610140550 METAR ESMX 140550Z AUTO 20001KT 0100NDV R01/0375N R19/0250N FG VV000 05/05 Q1036=
200610140520 METAR ESMX 140520Z AUTO 20003KT 0050NDV R01/0275N R19/0200V0300 FG VV000 06/06 Q1036=
200610140450 METAR ESMX 140450Z AUTO 19003KT 0200NDV R01/0650N R19/0700N FG VV000 06/06 Q1036=
200610140420 METAR ESMX 140420Z AUTO 00000KT 0150NDV R01/0500N R19/0600 FG VV001 06/06 Q1036=
200610140350 METAR ESMX 140350Z AUTO 00000KT 0150NDV R01/0700 R19/0500N FG VV000 06/06 Q1036=
200610140320 METAR ESMX 140320Z AUTO 19002KT 0100NDV R01/0325V0500 R19/0350N FG VV001 06/06 Q1036=
200610140250 METAR ESMX 140250Z AUTO 00000KT 0100NDV R01/0325 R19/0450N FG VV000 06/05 Q1036=
200610140220 METAR ESMX 140220Z AUTO 00000KT 0100NDV R01/0400N R19/0450N FG VV000 05/05 Q1036=
200610140150 METAR ESMX 140150Z AUTO 00000KT 0050NDV R01/0300N R19/0350N FG VV000 04/04 Q1037=
200610140120 METAR ESMX 140120Z AUTO 00000KT 0050NDV R01/0200V0300N R19/0500 FG VV000 03/03 Q1037=
200610140050 METAR ESMX 140050Z AUTO 00000KT 0100NDV R01/0600 R19/0450N FG VV001 02/02 Q1037=
200610140020 METAR ESMX 140020Z AUTO 19001KT 0200NDV R01/0700 R19/0900VP2000N FG NCD 03/02 Q1037=
200610132350 METAR ESMX 132350Z AUTO 19001KT 0300NDV R01/0900N R19/0900V1300N FG NCD 03/03 Q1037=
200610132320 METAR ESMX 132320Z AUTO 00000KT 0150NDV R01/0375V0550 R19/0600V1000 FG NCD 03/03 Q1037=
200610132250 METAR ESMX 132250Z AUTO 00000KT 0150NDV R01/0350V0750D R19/0700V1700 FG NCD 04/04 Q1037=
200610132220 METAR ESMX 132220Z AUTO VRB02KT 0250NDV R01/1000 R19/0900VP2000U FG NCD 04/04 Q1037=
200610132150 METAR ESMX 132150Z AUTO 00000KT 0250NDV R01/0900 R19/0900VP2000 FG NCD 04/04 Q1037=
200610132120 METAR ESMX 132120Z AUTO 06001KT 0600NDV R01/1100VP2000U R19/1400VP2000D BCFG NCD 04/03 Q1037=
200610132050 METAR ESMX 132050Z AUTO 02001KT 0600NDV R01/0900VP2000D R19/0800VP2000U FG NCD 04/04 Q1037=
200610132020 METAR ESMX 132020Z AUTO 03001KT 0200NDV R01/0550V0900 R19/0800VP2000 BCFG NCD 04/04 Q1037=
200610131950 METAR ESMX 131950Z AUTO 05002KT 0200NDV R01/0400V1500 R19/0750VP2000 FG NCD 05/04 Q1037=
200610131920 METAR ESMX 131920Z AUTO 03002KT 0650NDV R01/1300VP2000N R19/1200VP2000D FG NCD 06/05 Q1037=
200610131850 METAR ESMX 131850Z AUTO 04001KT 0200NDV R01/1100VP2000U R19/0600V0900U NCD 07/06 Q1037=
200610131820 METAR ESMX 131820Z AUTO 06002KT 9999NDV NCD 07/06 Q1036=
200610131750 METAR ESMX 131750Z AUTO 04003KT 9999NDV NCD 08/07 Q1036=
200610131720 METAR ESMX 131720Z 05002KT 9999 SCT045 09/08 Q1036=
200610131650 METAR ESMX 131650Z VRB02KT 9999 SCT045 11/08 Q1036=
200610131620 METAR ESMX 131620Z 02005KT 9999 BKN040 12/09 Q1036=
200610131550 METAR ESMX 131550Z 03005KT 9999 BKN040 13/09 Q1036=
200610131520 METAR ESMX 131520Z 03005KT 360V060 9999 SCT045 13/09 Q1036=
200610131450 METAR ESMX 131450Z 04006KT 010V080 9999 BKN045 14/09 Q1035=
200610131420 METAR ESMX 131420Z 03005KT 9999 BKN045 14/08 Q1035=
200610131350 METAR ESMX 131350Z 03004KT 360V060 7000 BKN042 14/08 Q1035=
200610131320 METAR ESMX 131320Z 02004KT 9999 BKN040 13/08 Q1035=
200610131250 METAR ESMX 131250Z 02006KT 340V050 9999 FEW027 BKN041 14/08 Q1035=
200610131220 METAR ESMX 131220Z 01005KT 9999 BKN040 13/08 Q1035=
200610131150 METAR ESMX 131150Z 04007KT 010V070 9999 OVC037 13/08 Q1035=
200610131120 METAR ESMX 131120Z 03005KT 360V060 9999 FEW023 SCT039 14/08 Q1035=
200610131050 METAR ESMX 131050Z 06005KT 010V080 9999 FEW024 SCT038 BKN042 13/08 Q1035=
200610131020 METAR ESMX 131020Z 04005KT 010V080 9999 FEW024 SCT030 13/08 Q1035=
200610130950 METAR ESMX 130950Z 05008KT 020V080 9999 FEW025 13/08 Q1035=
200610130920 METAR ESMX 130920Z 05006KT 020V080 CAVOK 13/09 Q1035=
200610130850 METAR ESMX 130850Z 03006KT CAVOK 11/09 Q1034=
200610130820 METAR ESMX 130820Z 02006KT CAVOK 10/08 Q1034=
200610130750 METAR ESMX 130750Z 03005KT 360V070 CAVOK 10/09 Q1034=
200610130720 METAR ESMX 130720Z 36004KT CAVOK 09/08 Q1034=
200610130650 METAR ESMX 130650Z 36004KT CAVOK 07/07 Q1034=
200610130620 METAR ESMX 130620Z 36005KT CAVOK 07/07 Q1033=
200610130550 METAR ESMX 130550Z 01005KT CAVOK 07/06 Q1033=
200610130520 METAR ESMX 130520Z 02006KT CAVOK 07/07 Q1032=
200610130450 METAR ESMX 130450Z 02005KT 1800 R01/0800VP2000U R19/P2000N FG NSC 07/07 Q1032=
200610130420 METAR ESMX 130420Z 03005KT 9999 MIFG FEW004 07/07 Q1032=
200610130350 METAR ESMX 130350Z 03004KT 9999 MIFG FEW004 08/07 Q1032=
200610130320 METAR ESMX 130320Z AUTO 01005KT 2800NDV BR FEW002/// BKN057/// 08/07 Q1032=
200610130250 METAR ESMX 130250Z AUTO 01005KT 9999NDV FEW005/// OVC056/// 09/08 Q1031=
200610130220 METAR ESMX 130220Z AUTO 02004KT 9999NDV OVC056/// 09/08 Q1031=
200610130150 METAR ESMX 130150Z AUTO 02005KT 350V050 9999NDV BKN055/// 09/08 Q1031=
200610130120 METAR ESMX 130120Z AUTO 02005KT 350V050 9999NDV OVC054/// 09/09 Q1031=
200610130050 METAR ESMX 130050Z AUTO 02006KT 9999NDV FEW007/// OVC055/// 09/09 Q1031=
200610130020 METAR ESMX 130020Z AUTO 02005KT 9999NDV OVC054/// 09/08 Q1030=
200610122350 METAR ESMX 122350Z 03005KT 9999 SCT006 BKN054 09/08 Q1030=
200610122320 METAR ESMX 122320Z 02005KT 9999 FEW006 SCT053 09/08 Q1030=
200610122250 METAR ESMX 122250Z 02005KT 9999 FEW015 09/08 Q1030=
200610122220 METAR ESMX 122220Z 02003KT 9999 FEW010 08/08 Q1030=
200610122150 METAR ESMX 122150Z 02004KT 9999 FEW008 09/08 Q1030=
200610122120 METAR ESMX 122120Z 03005KT 9999 FEW008 09/08 Q1029=
200610122050 METAR ESMX 122050Z 03004KT 9999 FEW033 09/08 Q1029=
200610122020 METAR ESMX 122020Z 04005KT 010V070 9999 FEW035 10/08 Q1028=
200610121950 METAR ESMX 121950Z 04005KT 9999 FEW032 10/08 Q1028=
200610121920 METAR ESMX 121920Z 03005KT 9999 SCT031 10/08 Q1028=
200610121850 METAR ESMX 121850Z 04004KT 360V070 9999 BKN031 11/09 Q1028=
200610121820 METAR ESMX 121820Z 02004KT 350V060 9999 FEW021 BKN031 11/09 Q1028=
200610121750 METAR ESMX 121750Z 04004KT 010V080 9999 BKN022 12/09 Q1027=
200610121720 METAR ESMX 121720Z 06005KT 020V100 9999 FEW016 OVC020 12/09 Q1027=
200610121650 METAR ESMX 121650Z 05006G16KT 010V080 9999 OVC016 12/09 Q1027=
200610121620 METAR ESMX 121620Z 07005KT 360V110 9999 BKN015 12/09 Q1026=
200610121550 METAR ESMX 121550Z 05007KT 010V090 9999 OVC014 12/10 Q1026=
200610121520 METAR ESMX 121520Z 07006KT 030V120 9999 OVC013 12/10 Q1026=
200610121450 METAR ESMX 121450Z 06007KT 020V140 9999 OVC014 13/10 Q1026=
200610121420 METAR ESMX 121420Z 06005KT 020V120 9999 OVC017 13/10 Q1025=
200610121350 METAR ESMX 121350Z 05006KT 360V080 9999 OVC016 13/10 Q1025=
200610121320 METAR ESMX 121320Z 06007KT 020V120 9999 OVC017 13/10 Q1025=
200610121250 METAR ESMX 121250Z 05007KT 360V100 9999 OVC017 13/10 Q1025=
200610121220 METAR ESMX 121220Z 07007KT 020V110 9999 OVC018 13/10 Q1025=
200610121150 METAR ESMX 121150Z 06006KT 020V110 9999 OVC017 13/10 Q1025=
200610121120 METAR ESMX 121120Z 07007KT 010V120 9999 OVC016 13/10 Q1025=
200610121050 METAR ESMX 121050Z 04008KT 340V080 9999 BKN015 13/10 Q1024=
200610121020 METAR ESMX 121020Z 06006KT 020V140 9999 FEW015 BKN028 12/09 Q1024=
200610120950 METAR ESMX 120950Z 05009KT 010V090 CAVOK 12/09 Q1024=
200610120920 METAR ESMX 120920Z VRB07KT 9999 BKN013 12/09 Q1024=
200610120850 METAR ESMX 120850Z 05007KT 010V100 9999 BKN011 12/09 Q1024=
200610120820 METAR ESMX 120820Z 04006KT 360V080 9999 FEW009 BKN011 11/09 Q1024=
200610120750 METAR ESMX 120750Z 07007KT 030V110 9999 SCT007 BKN009 11/09 Q1024=
200610120720 METAR ESMX 120720Z 03007KT 350V070 9999 BKN008 10/09 Q1024=
200610120650 METAR ESMX 120650Z 05006KT 010V100 9999 FEW007 SCT009 BKN047 09/08 Q1023=
200610120620 METAR ESMX 120620Z 04008KT 010V070 9999 FEW008 BKN046 09/08 Q1023=
200610120550 METAR ESMX 120550Z 03007KT 340V060 9999 SCT046 09/08 Q1023=
200610120520 METAR ESMX 120520Z 05007KT 010V080 9999 SCT045 09/08 Q1023=
200610120450 METAR ESMX 120450Z 06005KT 350V110 9999 FEW009 SCT050 09/08 Q1023=
200610120420 METAR ESMX 120420Z 04005KT 340V090 9999 SCT010 BKN049 09/08 Q1023=
200610120350 METAR ESMX 120350Z 08006KT 030V140 9999 FEW009 SCT049 09/08 Q1023=
200610120320 METAR ESMX 120320Z AUTO 04009KT 010V070 9999NDV BKN047/// 09/08 Q1023=
200610120250 METAR ESMX 120250Z AUTO 05008KT 020V110 9999NDV FEW010/// OVC050/// 10/08 Q1023=
200610120220 METAR ESMX 120220Z AUTO 05008KT 010V100 9999NDV FEW033/// BKN049/// 10/08 Q1023=
200610120150 METAR ESMX 120150Z AUTO 06008KT 020V140 9999NDV FEW027/// BKN033/// BKN049/// 10/08 Q1024=
200610120120 METAR ESMX 120120Z AUTO 06007KT 020V100 9999NDV FEW033/// BKN044/// 10/07 Q1024=
200610120050 METAR ESMX 120050Z AUTO 04007KT 010V070 9999NDV FEW022/// BKN045/// 10/08 Q1024=
200610120020 METAR ESMX 120020Z AUTO 04005KT 010V080 9999NDV NCD 09/08 Q1024=
200610112350 METAR ESMX 112350Z 04005KT 360V110 9999 FEW016 SCT020 10/08 Q1024=
200610112320 METAR ESMX 112320Z 06006KT 9999 FEW018 BKN022 10/08 Q1024=
200610112250 METAR ESMX 112250Z 06008KT 030V100 9999 OVC020 10/08 Q1024=
200610112220 METAR ESMX 112220Z 05007KT 350V080 9999 FEW018 OVC021 11/07 Q1024=
200610112150 METAR ESMX 112150Z 05009KT 360V100 9999 BKN022 11/07 Q1024=
200610112120 METAR ESMX 112120Z 06008KT 010V120 9999 FEW012 BKN020 11/08 Q1024=
200610112050 METAR ESMX 112050Z 06007KT 010V110 9999 SCT015 BKN025 11/09 Q1024=
200610112020 METAR ESMX 112020Z 07008KT 020V100 9999 SCT013 BKN023 11/09 Q1024=
200610111950 METAR ESMX 111950Z 06009KT 020V110 9999 FEW013 BKN031 11/09 Q1024=
200610111920 METAR ESMX 111920Z 07007KT 020V110 9999 FEW010 BKN033 12/10 Q1024=
200610111850 METAR ESMX 111850Z 07006KT 030V140 9999 SCT007 BKN030 12/10 Q1024=
200610111820 METAR ESMX 111820Z 08004KT 040V120 9999 -RA FEW012 SCT015 BKN020 12/10 Q1024=
200610111750 METAR ESMX 111750Z 06005KT 330V120 9999 FEW026 BKN036 12/09 Q1024=
200610111720 METAR ESMX 111720Z 10006KT 060V160 9999 FEW030 BKN035 12/09 Q1024=
200610111650 METAR ESMX 111650Z 08008KT 040V120 9999 FEW008 SCT020 BKN035 12/10 Q1023=
200610111620 METAR ESMX 111620Z 05007KT 360V110 9999 FEW008 BKN012 13/11 Q1023=
200610111550 METAR ESMX 111550Z 06007KT 020V130 9999 FEW010 SCT015 BKN020 13/11 Q1023=
200610111520 METAR ESMX 111520Z 07005KT 030V110 9999 FEW012 BKN030 13/11 Q1023=
200610111450 METAR ESMX 111450Z 05006KT 360V100 9999 FEW015 SCT025 BKN035 14/11 Q1023=
200610111420 METAR ESMX 111420Z 07006KT 040V110 9999 FEW012 SCT020 BKN027 14/11 Q1023=
200610111350 METAR ESMX 111350Z 07006KT 030V140 9999 FEW040 BKN055 14/10 Q1023=
200610111320 METAR ESMX 111320Z 07006KT 020V100 9999 FEW020 BKN045 14/10 Q1023=
200610111250 METAR ESMX 111250Z 05007KT 020V110 9999 FEW017 SCT045 15/11 Q1023=
200610111220 METAR ESMX 111220Z 06006KT 9999 FEW016 BKN045 14/11 Q1023=
200610111150 METAR ESMX 111150Z 05007KT 9999 FEW022 BKN035 14/11 Q1024=
200610111120 METAR ESMX 111120Z 06006KT 9999 FEW015 SCT021 BKN032 14/11 Q1024=
200610111050 METAR ESMX 111050Z 06007KT 9999 FEW012 SCT017 BKN021 13/11 Q1024=
200610111020 METAR ESMX 111020Z 05005KT 010V080 9999 FEW010 BKN017 13/11 Q1024=
200610110950 METAR ESMX 110950Z 03006KT 010V070 9999 BKN010 13/11 Q1024=
200610110920 METAR ESMX 110920Z 05004KT 9999 BKN010 13/11 Q1024=
200610110720 METAR ESMX 110720Z 05005KT 9999 SCT008 BKN011 12/10 Q1024=
200610110650 METAR ESMX 110650Z 06005KT 9999 FEW007 BKN008 11/10 Q1024=
200610110620 METAR ESMX 110620Z 06006KT 9999 BKN005 11/10 Q1024=
200610110550 METAR ESMX 110550Z 05004KT 9000 BR OVC005 11/10 Q1024=
200610110520 METAR ESMX 110520Z 02005KT 8000 BR BKN006 11/10 Q1024=
200610110450 METAR ESMX 110450Z 04004KT 9000 BR FEW006 SCT007 BKN009 11/10 Q1024=
200610110420 METAR ESMX 110420Z 05005KT 020V080 8000 BR OVC005 11/10 Q1024=
200610110350 METAR ESMX 110350Z 04004KT 010V070 8000 BR SCT007 BKN015 10/09 Q1024=
200610110320 METAR ESMX 110320Z AUTO 03002KT 9999NDV SCT018/// 10/09 Q1024=
200610110250 METAR ESMX 110250Z AUTO 02004KT 350V060 9999NDV FEW011/// OVC017/// 11/10 Q1024=
200610110220 METAR ESMX 110220Z AUTO 05006KT 020V090 9999NDV FEW009/// OVC011/// 11/10 Q1024=
200610110150 METAR ESMX 110150Z AUTO 06004KT 040V100 9999NDV BR FEW008/// OVC012/// 11/10 Q1025=
200610110120 METAR ESMX 110120Z AUTO 06004KT 030V100 9999NDV BR FEW008/// OVC011/// 11/10 Q1025=
200610110050 METAR ESMX 110050Z AUTO 03003KT 9000NDV BR OVC011/// 11/10 Q1025=
200610110020 METAR ESMX 110020Z AUTO 06004KT 020V100 9000NDV BR OVC011/// 11/11 Q1025=
200610102350 METAR ESMX 102350Z 06005KT 020V100 7000 BR FEW005 BKN012 11/11 Q1025=
200610102320 METAR ESMX 102320Z 04002KT 4000 BR SCT015 OVC017 11/10 Q1025=
200610102250 METAR ESMX 102250Z 05003KT 020V080 4900 SCT003 OVC010 11/11 Q1024=
200610102220 METAR ESMX 102220Z 02003KT 350V070 4000 SCT002 BKN004 11/10 Q1024=
200610102150 METAR ESMX 102150Z 00000KT 0700 R19/P1500 FG SCT003 OVC024 08/08 Q1024=
200610102120 METAR ESMX 102120Z 00000KT 0700 FG SCT012 BKN024 07/07 Q1024=
200610102050 METAR ESMX 102050Z 16001KT 0400 FG SCT029 07/07 Q1024=
200610102020 METAR ESMX 102020Z 19001KT 0300 R19/0600 FG SCT040 07/07 Q1024=
200610101950 METAR ESMX 101950Z 00000KT 0200 R19/0300 FG NSC 07/07 Q1024=
200610101920 METAR ESMX 101920Z 00000KT 0300 R19/0800 FG VV002 07/06 Q1023=
200610101850 METAR ESMX 101850Z 00000KT 0700 R01/P1500 R19/P1500 BCFG NSC 07/07 Q1023=
200610101820 METAR ESMX 101820Z 18002KT 2000 R01/P1500 R19/P1500 BCFG NSC 08/08 Q1023=
200610101750 METAR ESMX 101750Z 00000KT 0550 R01/P1500 R19/P1500 BCFG NSC 08/08 Q1023=
200610101720 METAR ESMX 101720Z 00000KT 0300 R01/P1500 R19/P1500 BCFG NSC 09/08 Q1023=
200610101650 METAR ESMX 101650Z 19002KT 9999 MIFG NSC 10/09 Q1023=
200610101620 METAR ESMX 101620Z 00000KT 9999 MIFG NSC 11/10 Q1023=
200610101550 METAR ESMX 101550Z VRB02KT CAVOK 12/11 Q1023=
200610101520 METAR ESMX 101520Z 00000KT 9999 FEW040 15/12 Q1022=
200610101450 METAR ESMX 101450Z 01003KT 9999 SCT041 15/12 Q1022=
200610101420 METAR ESMX 101420Z VRB02KT 9999 FEW016 BKN042 16/13 Q1022=
200610101350 METAR ESMX 101350Z 27003KT 9999 SCT016 BKN038 15/12 Q1022=
200610101320 METAR ESMX 101320Z 27005KT 9999 SCT010 BKN014 15/13 Q1022=
200610101250 METAR ESMX 101250Z 28004KT 240V310 9999 BKN010 BKN017 15/13 Q1022=
200610101220 METAR ESMX 101220Z 24003KT 160V280 9999 BKN008 14/12 Q1022=
200610101150 METAR ESMX 101150Z VRB02KT 9999 BKN007 14/12 Q1022=
200610101120 METAR ESMX 101120Z 23003KT 140V260 9999 SCT006 BKN008 14/12 Q1022=
200610101050 METAR ESMX 101050Z VRB02KT 8000 BR OVC005 14/12 Q1022=
200610100950 METAR ESMX 100950Z VRB01KT 7000 BR OVC004 13/12 Q1022=
200610100920 METAR ESMX 100920Z VRB01KT 5000 BR OVC002 12/12 Q1022=
200610100850 METAR ESMX 100850Z 00000KT 3500 BR OVC002 12/12 Q1021=
200610100820 METAR ESMX 100820Z 22002KT 2500 R01/P2000N R19/P2000N BCFG OVC002 11/11 Q1021=
200610100750 METAR ESMX 100750Z 22003KT 180V260 0300 R19/0600 FG VV002 11/11 Q1021=
200610100720 METAR ESMX 100720Z VRB02KT 0250 R19/0500 FG VV001 11/11 Q1021=
200610100650 METAR ESMX 100650Z VRB02KT 0250 R19/0600 FG VV002 11/10 Q1021=
200610100620 METAR ESMX 100620Z 00000KT 0200 R19/0450 FG VV001 10/10 Q1021=
200610100550 METAR ESMX 100550Z 00000KT 0350 R01/P2000N R19/P2000N FG VV002 10/10 Q1021=
200610100520 METAR ESMX 100520Z 18001KT 0500 R01/P2000N R19/P2000N FG VV002 10/09 Q1020=
200610100450 METAR ESMX 100450Z VRB02KT 0900 R01/P2000N R19/P2000N FG VV003 09/09 Q1020=
200610100420 METAR ESMX 100420Z 15001KT 0800 R01/P2000N R19/P2000N FG OVC002 09/09 Q1020=
200610100350 METAR ESMX 100350Z VRB02KT 1400 R01/P2000N R19/P2000N BR OVC002 09/09 Q1020=
200610100320 METAR ESMX 100320Z AUTO 18002KT 2100NDV OVC003/// 09/09 Q1020=
200610100250 METAR ESMX 100250Z AUTO 20003KT 0500NDV R01/P2000N R19/P2000N FEW004/// 08/08 Q1020=
200610100220 METAR ESMX 100220Z AUTO 18003KT 0900NDV R01/P2000N R19/P2000N BR FEW110/// 09/08 Q1020=
200610100150 METAR ESMX 100150Z AUTO 19003KT 3900NDV BR SCT100/// 09/09 Q1020=
200610100120 METAR ESMX 100120Z AUTO 16004KT 5000NDV BR BKN098/// 10/10 Q1020=
200610100050 METAR ESMX 100050Z AUTO 17003KT 4900NDV BR BKN094/// 10/10 Q1020=
200610100020 METAR ESMX 100020Z AUTO 17003KT 110V190 6000NDV BR SCT098/// 10/10 Q1020 RERA REDZ=
200610092350 METAR ESMX 092350Z 16004KT 6000 -RA FEW020 BKN100 10/10 Q1020=
200610092320 METAR ESMX 092320Z 16003KT 6000 BR NSC 10/09 Q1020=
200610092250 METAR ESMX 092250Z 15004KT 5000 BR FEW020 BKN200 10/09 Q1020=
200610092220 METAR ESMX 092220Z 16003KT 6000 BR SCT020 10/09 Q1020=
200610092150 METAR ESMX 092150Z 16003KT 9999 SCT018 11/10 Q1020=
200610092120 METAR ESMX 092120Z 16004KT 9999 SCT018 11/10 Q1020=
200610092050 METAR ESMX 092050Z 17004KT 9999 SCT020 10/09 Q1020=
200610092020 METAR ESMX 092020Z 16005KT 9999 SCT020 11/10 Q1020=
200610091950 METAR ESMX 091950Z 17005KT 9999 SCT020 11/10 Q1020=
200610091920 METAR ESMX 091920Z 16004KT 9999 FEW020 10/08 Q1020=
200610091850 METAR ESMX 091850Z 17004KT 9999 BKN020 11/10 Q1020=
200610091820 METAR ESMX 091820Z 17004KT 9999 BKN021 11/09 Q1020=
200610091750 METAR ESMX 091750Z 18003KT 9999 OVC021 12/09 Q1020=
200610091720 METAR ESMX 091720Z 18004KT 9999 BKN022 11/10 Q1020=
200610091650 METAR ESMX 091650Z 18004KT 9999 FEW022 12/09 Q1019=
200610091620 METAR ESMX 091620Z 17003KT 9999 SCT022 12/10 Q1019=
200610091550 METAR ESMX 091550Z 17004KT 9999 SCT023 13/10 Q1019=
200610091520 METAR ESMX 091520Z 20004KT 9999 BKN025 14/11 Q1019=
200610091450 METAR ESMX 091450Z 21006KT 180V250 9999 FEW020 BKN025 14/11 Q1019=
200610091420 METAR ESMX 091420Z 21005KT 9999 BKN027 15/11 Q1019=
200610091350 METAR ESMX 091350Z 23005KT 9999 FEW023 BKN030 15/10 Q1020=
200610091320 METAR ESMX 091320Z 21007KT 9999 FEW017 BKN025 15/10 Q1020=
200610091250 METAR ESMX 091250Z 22005KT 9999 FEW013 BKN028 14/11 Q1020=
200610091220 METAR ESMX 091220Z 23006KT 190V270 9999 FEW014 BKN030 14/11 Q1020=
200610091120 METAR ESMX 091120Z 23007KT 200V260 9999 OVC030 14/11 Q1020=
200610091050 METAR ESMX 091050Z 23006KT 190V250 9999 FEW017 BKN032 14/11 Q1020=
200610091020 METAR ESMX 091020Z 24007KT 210V290 9999 FEW018 SCT030 14/11 Q1020=
200610090920 METAR ESMX 090920Z 23005KT 9999 FEW010 BKN030 13/10 Q1020=
200610090850 METAR ESMX 090850Z 24005KT 210V280 9999 FEW007 BKN010 13/10 Q1020=
200610090820 METAR ESMX 090820Z 27005KT 210V290 9999 FEW005 BKN010 12/10 Q1019=
200610090750 METAR ESMX 090750Z 25005KT 220V280 9999 BKN005 11/10 Q1019=
200610090720 METAR ESMX 090720Z 25005KT 210V290 9999 BKN009 11/10 Q1019=
200610090650 METAR ESMX 090650Z 27004KT 230V290 9999 BKN008 11/10 Q1019=
200610090620 METAR ESMX 090620Z 25004KT 230V300 9999 FEW007 SCT010 10/09 Q1018=
200610090550 METAR ESMX 090550Z 24004KT 9999 FEW007 SCT010 10/09 Q1018=
200610090520 METAR ESMX 090520Z 27005KT 230V300 9999 SCT007 10/09 Q1018=
200610090450 METAR ESMX 090450Z 26004KT 9999 FEW005 OVC010 10/09 Q1018=
200610090420 METAR ESMX 090420Z 25004KT 9999 FEW007 BKN010 11/10 Q1017=
200610090350 METAR ESMX 090350Z 29007KT 9999 FEW006 BKN008 11/10 Q1017=
200610090320 METAR ESMX 090320Z AUTO 27008KT 220V290 8000NDV BR FEW006/// OVC007/// 11/10 Q1017=
200610090250 METAR ESMX 090250Z AUTO 27005KT 8000NDV BR FEW006/// OVC007/// 11/10 Q1017=
200610090220 METAR ESMX 090220Z AUTO 26004KT 220V290 8000NDV BR FEW007/// BKN009/// 11/10 Q1017=
200610090150 METAR ESMX 090150Z AUTO 28005KT 240V310 8000NDV BR FEW009/// SCT010/// 10/10 Q1016=
200610090120 METAR ESMX 090120Z AUTO 28005KT 8000NDV BR BKN008/// 10/09 Q1016=
200610090050 METAR ESMX 090050Z AUTO 26007KT 8000NDV BR BKN009/// 10/09 Q1016=
200610090020 METAR ESMX 090020Z AUTO 25006KT 7000NDV BR SCT009/// 09/09 Q1016=
200610082350 METAR ESMX 082350Z 26005KT 7000 BR NSC 09/08 Q1015=
200610082320 METAR ESMX 082320Z 23005KT 200V260 7000 BR FEW009 09/08 Q1015=
200610082250 METAR ESMX 082250Z 25005KT 8000 BR NSC 09/08 Q1015=
200610082220 METAR ESMX 082220Z 26006KT 8000 BR NSC 09/09 Q1015=
200610082150 METAR ESMX 082150Z 26005KT 220V290 CAVOK 09/08 Q1014=
200610082120 METAR ESMX 082120Z 25007KT CAVOK 10/09 Q1014=
200610082050 METAR ESMX 082050Z 25006KT CAVOK 09/08 Q1014=
200610082020 METAR ESMX 082020Z 25006KT CAVOK 10/08 Q1014=
200610081950 METAR ESMX 081950Z 25006KT CAVOK 10/08 Q1013=
200610081920 METAR ESMX 081920Z 25006KT CAVOK 10/08 Q1013=
200610081850 METAR ESMX 081850Z 25006KT CAVOK 11/08 Q1013=
200610081820 METAR ESMX 081820Z 26007KT 230V320 9999 FEW026 11/08 Q1012=
200610081750 METAR ESMX 081750Z 27009KT 230V300 9999 FEW040 12/08 Q1012=
200610081720 METAR ESMX 081720Z 29009KT 9999 FEW027 SCT043 13/08 Q1011=
200610081650 METAR ESMX 081650Z 28006KT 9999 FEW028 SCT037 BKN043 13/09 Q1011=
200610081620 METAR ESMX 081620Z 27010KT 240V320 9999 FEW030 SCT037 13/08 Q1010=
200610081550 METAR ESMX 081550Z 29009G19KT 240V310 9999 FEW030 SCT046 14/08 Q1010=
200610081520 METAR COR ESMX 081520Z 27013G23KT 9999 SCT031 14/08 Q1009=
200610081450 METAR ESMX 081450Z 27013KT 250V310 9999 BKN033 BKN055 14/08 Q1009=
200610081420 METAR ESMX 081420Z 28013G24KT 250V310 9999 SCT032 BKN041 15/09 Q1009=
200610081350 METAR ESMX 081350Z 26014G28KT 230V290 9999 SCT039 BKN052 14/08 Q1008=
200610081320 METAR ESMX 081320Z 28016G27KT 250V320 9999 SCT036 BKN046 14/08 Q1008=
200610081250 METAR ESMX 081250Z 28016G28KT 250V320 9999 SCT041 BKN050 14/08 Q1008=
200610081220 METAR ESMX 081220Z 28014G26KT 250V320 9999 SCT033 BKN053 14/08 Q1008=
200610081150 METAR ESMX 081150Z 27015G25KT 9999 FEW026 SCT037 BKN047 14/08 Q1007=
200610081120 METAR ESMX 081120Z 26011KT 9999 FEW016 SCT028 BKN049 14/09 Q1007=
200610081050 METAR ESMX 081050Z AUTO 26012KT 230V290 9999NDV FEW029/// BKN053/// 13/09 Q1007=
200610081020 METAR ESMX 081020Z AUTO 26010G20KT 8000NDV FEW012/// SCT027/// BKN033/// 13/09 Q1006 RERA REDZ=
200610080950 METAR ESMX 080950Z AUTO 25010KT 220V280 9999NDV BKN027/// BKN056/// 13/09 Q1006=
200610080920 METAR ESMX 080920Z AUTO 26012KT 230V290 9999NDV FEW024/// SCT030/// BKN035/// 13/09 Q1006=
200610080850 METAR ESMX 080850Z AUTO 27010KT 240V310 9999NDV FEW025/// SCT029/// BKN042/// 13/10 Q1006=
200610080820 METAR ESMX 080820Z AUTO 24011KT 200V280 9999NDV FEW025/// 13/10 Q1005=
200610080750 METAR ESMX 080750Z AUTO 25010KT 220V290 9999NDV FEW018/// 12/10 Q1005=
200610080720 METAR ESMX 080720Z AUTO 22009KT 200V260 9999NDV FEW019/// 12/11 Q1005=
200610080650 METAR ESMX 080650Z AUTO 23008KT 210V270 9999NDV FEW008/// SCT030/// 11/10 Q1005 RERA=
200610080620 METAR ESMX 080620Z AUTO 26007KT 7000NDV -RA FEW022/// 11/10 Q1005=
200610080550 METAR ESMX 080550Z AUTO 23007KT 4400NDV RA FEW009/// BKN011/// OVC016/// 11/10 Q1005=
200610080520 METAR ESMX 080520Z AUTO 22008KT 9999NDV FEW013/// BKN017/// BKN037/// 11/10 Q1005=
200610080450 METAR ESMX 080450Z AUTO 22009KT 200V260 9999NDV FEW011/// SCT017/// BKN026/// 10/09 Q1005 RERA=
200610080420 METAR ESMX 080420Z AUTO 23008KT 200V260 9999NDV FEW013/// SCT019/// BKN043/// 10/09 Q1005=
200610080350 METAR ESMX 080350Z AUTO 24011KT 9999NDV FEW018/// SCT021/// 10/09 Q1005=
200610080320 METAR ESMX 080320Z AUTO 23009KT 9999NDV NCD 10/08 Q1005=
200610080250 METAR ESMX 080250Z AUTO 23010KT 200V260 9999NDV FEW016/// 10/08 Q1005=
200610080220 METAR ESMX 080220Z AUTO 22008KT 9999NDV FEW023/// 09/08 Q1005=
200610080150 METAR ESMX 080150Z AUTO 22008KT 9999NDV FEW055/// SCT077/// 10/08 Q1005=
200610080120 METAR ESMX 080120Z AUTO 24009KT 9999NDV SCT051/// BKN080/// 10/09 Q1004=
200610080050 METAR ESMX 080050Z AUTO 23010KT 210V270 9999NDV FEW017/// BKN048/// 10/09 Q1004=
200610080020 METAR ESMX 080020Z AUTO 24010KT 210V280 9999NDV SCT012/// BKN016/// BKN046/// 10/09 Q1004 REDZ=
200610072350 METAR ESMX 072350Z AUTO 23012G22KT 200V270 7000NDV DZ FEW009/// SCT013/// BKN016/// 10/09 Q1004 RERA=
200610072320 METAR ESMX 072320Z AUTO 24014KT 6000NDV DZ FEW008/// BKN010/// OVC017/// 11/10 Q1003=
200610072250 METAR ESMX 072250Z AUTO 24010KT 4600NDV DZ FEW008/// SCT011/// OVC013/// 11/10 Q1003 RERA=
200610072220 METAR ESMX 072220Z AUTO 22011KT 190V260 3700NDV DZ FEW010/// BKN015/// BKN035/// 11/10 Q1003 RERA=
200610072150 METAR ESMX 072150Z AUTO 24008KT 200V260 9999NDV SCT016/// BKN021/// OVC062/// 11/10 Q1003=
200610072120 METAR ESMX 072120Z AUTO 25008KT 210V290 9999NDV FEW013/// SCT019/// BKN024/// 11/10 Q1002=
200610072050 METAR ESMX 072050Z AUTO 25007KT 9999NDV FEW016/// SCT023/// BKN051/// 11/10 Q1002=
200610072020 METAR ESMX 072020Z AUTO 25010KT 200V290 9999NDV FEW010/// SCT018/// BKN030/// 12/11 Q1002 RERA REDZ=
200610071950 METAR ESMX 071950Z AUTO 25009KT 220V290 8000NDV -RA FEW007/// SCT014/// 12/11 Q1001 REDZ=
200610071920 METAR ESMX 071920Z AUTO 24008KT 9999NDV DZ FEW007/// SCT013/// 12/11 Q1001 RERA=
200610071850 METAR ESMX 071850Z AUTO 20008KT 9999NDV -RA FEW009/// SCT013/// 12/11 Q1000 REDZ=
200610071820 METAR ESMX 071820Z AUTO 20010KT 4900NDV -RA FEW012/// SCT022/// BKN055/// 12/11 Q1000 REDZ=
200610071750 METAR ESMX 071750Z AUTO 19011KT 9999NDV FEW014/// SCT043/// BKN052/// 12/11 Q1000=
200610071720 METAR ESMX 071720Z AUTO 18009KT 9999NDV -DZ FEW049/// BKN063/// 12/11 Q1000 RERA=
200610071650 METAR ESMX 071650Z AUTO 19007KT 9999NDV FEW041/// SCT074/// 12/11 Q1000=
200610071620 METAR ESMX 071620Z AUTO 20011KT 9999NDV FEW010/// SCT061/// 12/11 Q1000 RERA=
200610071550 METAR ESMX 071550Z AUTO 21013KT 3600NDV -RA FEW007/// SCT016/// BKN023/// 13/11 Q0999=
200610071520 METAR ESMX 071520Z AUTO 18010KT 9999NDV FEW026/// SCT031/// BKN070/// 14/11 Q0999=
200610071450 METAR ESMX 071450Z AUTO 20013KT 9999NDV FEW030/// 15/12 Q0999=
200610071420 METAR ESMX 071420Z AUTO 19012KT 170V240 9999NDV FEW020/// SCT048/// BKN058/// 15/12 Q0999 RERA REDZ=
200610071350 METAR ESMX 071350Z AUTO 20012KT 9999NDV FEW016/// SCT020/// BKN026/// 15/12 Q0998=
200610071320 METAR ESMX 071320Z AUTO 18013KT 9999NDV FEW018/// SCT024/// BKN036/// 15/12 Q0998=
200610071250 METAR ESMX 071250Z AUTO 19012KT 150V230 9999NDV FEW018/// SCT027/// BKN041/// 15/12 Q0998=
200610071220 METAR ESMX 071220Z AUTO 19013KT 9999NDV FEW013/// SCT020/// BKN042/// 15/13 Q0998=
200610071150 METAR ESMX 071150Z AUTO 18013KT 9999NDV FEW011/// BKN015/// OVC023/// 15/13 Q0998=
200610071120 METAR ESMX 071120Z AUTO 18012KT 9999NDV FEW010/// SCT014/// BKN020/// 15/13 Q0998=
200610071050 METAR ESMX 071050Z AUTO 18010KT 9000NDV DZ FEW009/// SCT020/// BKN044/// 14/13 Q0998 RERA=
200610071020 METAR ESMX 071020Z AUTO 18012KT 140V210 9999NDV FEW010/// SCT015/// BKN022/// 14/13 Q0998=
200610070950 METAR ESMX 070950Z AUTO 17012KT 140V200 9999NDV FEW010/// SCT013/// BKN016/// 14/13 Q0998=
200610070920 METAR ESMX 070920Z AUTO 16010KT 9999NDV FEW009/// BKN012/// OVC017/// 14/13 Q0998=
200610070850 METAR ESMX 070850Z AUTO 16010KT 9999NDV FEW008/// BKN011/// BKN019/// 14/13 Q0998=
200610070820 METAR ESMX 070820Z AUTO 17009KT 140V210 9999NDV -RA FEW007/// BKN009/// BKN015/// 14/13 Q0998 REDZ=
200610070750 METAR ESMX 070750Z AUTO 17009KT 120V200 9999NDV -RA FEW006/// SCT008/// BKN011/// 14/13 Q0998 REDZ=
200610070720 METAR ESMX 070720Z AUTO 17008KT 140V210 9999NDV FEW006/// BKN008/// OVC012/// 13/13 Q0998 RERA REDZ=
200610070650 METAR ESMX 070650Z AUTO 18010KT 9999NDV -RA SCT005/// BKN007/// OVC009/// 13/13 Q0998=
200610070620 METAR ESMX 070620Z AUTO 18009KT 6000NDV RA FEW005/// SCT006/// BKN007/// 13/13 Q0998 REDZ=
200610070550 METAR ESMX 070550Z AUTO 17012KT 130V200 7000NDV -RA OVC005/// 13/13 Q0998 REDZ=
200610070520 METAR ESMX 070520Z AUTO 16010KT 120V210 6000NDV -DZ FEW005/// SCT006/// BKN008/// 13/13 Q0998 RERA=
200610070450 METAR ESMX 070450Z AUTO 17010KT 140V200 4600NDV DZ FEW004/// OVC006/// 13/13 Q0998 RERA=
200610070420 METAR ESMX 070420Z AUTO 17011KT 140V200 3100NDV DZ BKN004/// OVC007/// 13/13 Q0998 RERA=
200610070350 METAR ESMX 070350Z AUTO 17010KT 140V200 6000NDV BR OVC004/// 14/13 Q0998=
200610070320 METAR ESMX 070320Z AUTO 18010KT 6000NDV BR OVC005/// 14/13 Q0998=
200610070250 METAR ESMX 070250Z AUTO 17010KT 120V200 6000NDV BR FEW005/// OVC006/// 14/13 Q0999 REDZ=
200610070220 METAR ESMX 070220Z AUTO 18011KT 7000NDV BR BKN005/// OVC009/// 14/13 Q0999 REDZ=
200610070150 METAR ESMX 070150Z AUTO 18010KT 4600NDV -DZ FEW004/// OVC005/// 14/13 Q0999=
200610070120 METAR ESMX 070120Z AUTO 17009KT 4700NDV -DZ BKN004/// OVC008/// 14/13 Q1000 RERA=
200610070050 METAR ESMX 070050Z AUTO 18010KT 3800NDV DZ OVC004/// 14/13 Q1000 RERA=
200610070020 METAR ESMX 070020Z AUTO 16008KT 6000NDV BR FEW004/// OVC006/// 14/13 Q1000 REDZ=
200610062350 METAR ESMX 062350Z AUTO 17008KT 2900NDV -RA FEW003/// OVC004/// 14/13 Q1000 REDZ=
200610062320 METAR ESMX 062320Z AUTO 17008KT 140V210 2900NDV -DZ FEW004/// BKN005/// OVC007/// 14/13 Q1001 RERA=
200610062250 METAR ESMX 062250Z AUTO 16008KT 130V200 2400NDV BR SCT004/// BKN006/// OVC008/// 14/13 Q1001=
200610062220 METAR ESMX 062220Z AUTO 16009KT 140V200 3200NDV BR FEW004/// SCT005/// BKN006/// 14/13 Q1001=
200610062150 METAR ESMX 062150Z AUTO 17008KT 140V200 3200NDV BR BKN005/// OVC008/// 14/13 Q1002=
200610062120 METAR ESMX 062120Z AUTO 17008KT 120V200 5000NDV BR FEW006/// SCT008/// BKN010/// 14/13 Q1002=
200610062050 METAR ESMX 062050Z AUTO 18009KT 140V200 6000NDV BR FEW006/// BKN010/// BKN016/// 14/13 Q1002=
200610062020 METAR ESMX 062020Z AUTO 19009KT 8000NDV BR FEW006/// SCT008/// BKN010/// 14/13 Q1002=
200610061950 METAR ESMX 061950Z AUTO 18009KT 5000NDV FEW005/// SCT007/// BKN018/// 14/14 Q1002 RERA REDZ=
200610061920 METAR ESMX 061920Z AUTO 19008KT 6000NDV FEW005/// SCT008/// BKN009/// 14/14 Q1002 RERA REDZ=
200610061850 METAR ESMX 061850Z AUTO 18009KT 6000NDV -RA SCT005/// BKN008/// OVC011/// 14/14 Q1002 REDZ=
200610061820 METAR ESMX 061820Z AUTO 17008KT 8000NDV DZ BKN005/// OVC008/// 14/14 Q1002 RERA=
200610061750 METAR ESMX 061750Z AUTO 18009KT 8000NDV BR OVC003/// 14/14 Q1002 RERA REDZ=
200610061720 METAR ESMX 061720Z 16005KT 8000 FEW003 SCT005 BKN010 14/13 Q1002=
200610061650 METAR ESMX 061650Z 17005KT 140V210 9000 FEW005 BKN013 14/13 Q1002=
200610061620 METAR ESMX 061620Z 18005KT 9999 SCT005 BKN008 OVC015 14/13 Q1002=
200610061550 METAR ESMX 061550Z 19006KT 9999 FEW003 SCT008 BKN010 14/13 Q1002=
200610061520 METAR ESMX 061520Z 17008KT 130V200 9000 FEW003 OVC006 13/13 Q1002=
200610061450 METAR ESMX 061450Z 17008KT 5000 SHRA OVC003 13/13 Q1002=
200610061420 METAR ESMX 061420Z 17009KT 140V200 9999 OVC005 13/12 Q1002=
200610061350 METAR ESMX 061350Z 17008KT 140V200 9999 OVC005 13/12 Q1002=
200610061320 METAR ESMX 061320Z 16008KT 130V190 9999 SCT005 OVC008 12/12 Q1002=
200610061250 METAR ESMX 061250Z 17007KT 130V220 7000 BR FEW005 BKN008 12/12 Q1002=
200610061220 METAR ESMX 061220Z 16009KT 140V200 5000 -SHRA BKN004 OVC008 12/11 Q1003=
200610061150 METAR ESMX 061150Z 16008KT 120V200 5000 -SHRA BKN005 OVC010 12/11 Q1003=
200610061120 METAR ESMX 061120Z 16009KT 120V190 9999 SCT005 OVC080 12/11 Q1003=
200610061050 METAR ESMX 061050Z 16009KT 140V200 9999 SCT005 OVC010 12/11 Q1003=
200610061020 METAR ESMX 061020Z 15009KT 100V200 7000 BR FEW009 OVC014 12/10 Q1004=
200610060950 METAR ESMX 060950Z 17009KT 130V190 9999 FEW009 OVC012 12/10 Q1004=
200610060920 METAR ESMX 060920Z 16009KT 120V190 9999 -RA SCT010 BKN016 OVC020 12/10 Q1005=
200610060850 METAR ESMX 060850Z 17010KT 140V210 9999 FEW007 SCT013 BKN017 12/10 Q1005=
200610060820 METAR ESMX 060820Z 17008KT 140V200 3000 BR SCT006 BKN007 11/11 Q1005 RERA REDZ=
200610060750 METAR ESMX 060750Z 14007KT 110V190 3000 DZ SCT005 BKN010 11/10 Q1005 RERA=
200610060720 METAR ESMX 060720Z 14006KT 100V180 2400 DZ SCT005 BKN009 11/10 Q1005 RERA=
200610060650 METAR ESMX 060650Z 15006KT 100V170 2500 BR SCT003 BKN006 11/10 Q1006=
200610060620 METAR ESMX 060620Z 14007KT 110V180 2000 BR OVC003 10/10 Q1006 RERA REDZ=
200610060550 METAR ESMX 060550Z 14006KT 100V190 2000 BR OVC003 10/09 Q1006=
200610060520 METAR ESMX 060520Z 16005KT 110V190 2000 BR OVC002 10/09 Q1007=
200610060450 METAR ESMX 060450Z 14007KT 110V190 3000 BR OVC002 09/09 Q1007=
200610060420 METAR ESMX 060420Z 16006KT 2500 BR SCT002 BKN003 09/09 Q1007=
200610060350 METAR ESMX 060350Z 14006KT 2500 BR FEW001 OVC002 09/09 Q1007=
200610060320 METAR ESMX 060320Z 17005KT 2500 BR BKN002 09/09 Q1008=
200610060250 METAR ESMX 060250Z AUTO 16006KT 110V200 0500NDV R01/P1500U R19/P1500N FG OVC001/// 09/09 Q1008=
200610052320 METAR ESMX 052320Z 16005KT CAVOK 08/07 Q1010=
200610052250 METAR ESMX 052250Z 21005KT CAVOK 07/06 Q1010=
200610052220 METAR ESMX 052220Z 19007KT CAVOK 08/07 Q1010=
200610052150 METAR ESMX 052150Z 19006KT CAVOK 08/07 Q1010=
200610052120 METAR ESMX 052120Z 18005KT CAVOK 08/08 Q1010=
200610052050 METAR ESMX 052050Z 17005KT 9999 FEW037 BKN072 08/08 Q1010=
200610052020 METAR ESMX 052020Z 17005KT 9999 FEW041 BKN048 BKN077 09/08 Q1010=
200610051950 METAR ESMX 051950Z 18006KT 9999 BKN044 09/08 Q1011=
200610051920 METAR ESMX 051920Z 19005KT 9999 FEW049 BKN054 08/07 Q1011=
200610051850 METAR ESMX 051850Z 19005KT 9999 SCT031 08/07 Q1011=
200610051820 METAR ESMX 051820Z 20005KT 9999 FEW026 SCT059 09/07 Q1011=
200610051750 METAR ESMX 051750Z 22007KT 9999 -RA FEW027 BKN049 10/07 Q1011=
200610051720 METAR ESMX 051720Z 19005KT CAVOK 09/06 Q1010=
200610051650 METAR ESMX 051650Z 20004KT CAVOK 10/06 Q1010=
200610051620 METAR ESMX 051620Z 21006KT 170V250 CAVOK 10/06 Q1010=
200610051550 METAR ESMX 051550Z 23006KT 9999 FEW035 BKN200 11/06 Q1010=
200610051520 METAR ESMX 051520Z 24008KT 210V290 9999 FEW039 BKN200 13/06 Q1010=
200610051450 METAR ESMX 051450Z 24009KT 210V280 9999 FEW040 BKN100 13/06 Q1010=
200610051420 METAR ESMX 051420Z 24010KT 200V290 9999 FEW036 BKN100 13/06 Q1009=
200610051350 METAR ESMX 051350Z 22008KT 9999 SCT030 BKN100 13/07 Q1009=
200610051320 METAR ESMX 051320Z 23008KT 210V270 9999 FEW020 BKN050 14/07 Q1009=
200610051250 METAR ESMX 051250Z 25008KT 200V300 9999 FEW020 BKN060 14/07 Q1009=
200610051220 METAR ESMX 051220Z 26009KT 170V290 9999 FEW017 SCT035 13/06 Q1009=
200610051150 METAR ESMX 051150Z 22010KT 190V250 9999 FEW025CB SCT035 12/09 Q1009=
200610051120 METAR ESMX 051120Z 26010KT 200V290 9999 VCSH FEW025CB SCT035 14/07 Q1009=
200610051050 METAR ESMX 051050Z 22011KT 180V260 9999 FEW025 SCT035 BKN040 15/07 Q1009=
200610051020 METAR ESMX 051020Z 23009KT 200V260 9999 FEW025 BKN035 14/08 Q1009=
200610050950 METAR ESMX 050950Z 23010KT 200V280 9999 FEW020 SCT028 13/08 Q1009=
200610050920 METAR ESMX 050920Z 26011KT 230V300 9999 FEW017 SCT020 BKN024 13/09 Q1009=
200610050850 METAR ESMX 050850Z 22009KT 9999 FEW018 BKN060 12/09 Q1009=
200610050820 METAR ESMX 050820Z 25007KT 210V280 9999 FEW015 SCT060 12/09 Q1008=
200610050750 METAR ESMX 050750Z 23008KT 180V260 9999 FEW020 SCT060 12/10 Q1008=
200610050720 METAR ESMX 050720Z 22007KT 190V250 9999 FEW020 SCT055 11/09 Q1008=
200610050650 METAR ESMX 050650Z 21006KT 9999 FEW025 SCT060 10/09 Q1008=
200610050620 METAR ESMX 050620Z 19005KT 9999 FEW020 SCT060 09/09 Q1007=
200610050520 METAR ESMX 050520Z 20005KT 9999 FEW002 SCT060 09/09 Q1007=
200610050450 METAR ESMX 050450Z 20005KT 9999 FEW002 SCT035 BKN045 09/08 Q1007=
200610050420 METAR ESMX 050420Z 21005KT 9999 FEW037 BKN060 09/08 Q1006=
200610050350 METAR ESMX 050350Z 24005KT 9999 FEW045 SCT060 09/09 Q1006=
200610050320 METAR ESMX 050320Z AUTO 21004KT 9999NDV R01/P1500N R19/P1500N SCT052/// 08/08 Q1006=
200610050250 METAR ESMX 050250Z AUTO 21005KT 9999NDV R01/P1500N R19/P1500N BKN061/// 09/08 Q1006=
200610050220 METAR ESMX 050220Z AUTO 23004KT 9999NDV R01/P1500N R19/P1500N FEW066/// 08/08 Q1006=
200610050150 METAR ESMX 050150Z AUTO 24005KT 9999NDV R01/P1500N R19/P1500N NCD 09/08 Q1006=
200610050120 METAR ESMX 050120Z AUTO 24004KT 9999NDV R01/P1500N R19/P1500N NCD 08/08 Q1005=
200610050050 METAR ESMX 050050Z AUTO 20004KT 8000NDV R01/P1500N R19/P1500N BR NCD 09/08 Q1005=
200610050020 METAR ESMX 050020Z AUTO 22004KT 9999NDV R01/P1500N R19/P1500N NCD 10/09 Q1005=
200610042350 METAR ESMX 042350Z 24004KT 9999 FEW010 10/10 Q1005=
200610042320 METAR ESMX 042320Z 24004KT 9999 FEW007 SCT060 BKN070 11/10 Q1005=
200610042250 METAR ESMX 042250Z 23004KT 9999 FEW015 BKN060 11/10 Q1005=
200610042220 METAR ESMX 042220Z 22004KT 9999 FEW015 BKN075 11/10 Q1005=
200610042150 METAR ESMX 042150Z 23005KT 9999 FEW048 BKN075 11/10 Q1004=
200610042120 METAR ESMX 042120Z 23004KT CAVOK 11/11 Q1004=
200610042050 METAR ESMX 042050Z 22004KT 190V250 CAVOK 12/11 Q1004=
200610042020 METAR ESMX 042020Z 23005KT CAVOK 12/11 Q1004=
200610041950 METAR ESMX 041950Z 22005KT 200V260 CAVOK 12/11 Q1003=
200610041920 METAR ESMX 041920Z 23005KT 9999 FEW015 BKN070 12/11 Q1003=
200610041850 METAR ESMX 041850Z 22004KT 9999 FEW015 BKN070 12/11 Q1003=
200610041750 METAR ESMX 041750Z 24004KT 9999 FEW018 BKN080 12/11 Q1003=
200610041720 METAR ESMX 041720Z 21004KT 9999 FEW025 BKN073 13/11 Q1002=
200610041650 METAR ESMX 041650Z 21004KT 9999 FEW016 BKN076 13/11 Q1002=
200610041620 METAR ESMX 041620Z 24004KT 9999 FEW018 BKN071 13/11 Q1002=
200610041550 METAR ESMX 041550Z 24003KT CAVOK 13/11 Q1002=
200610041520 METAR ESMX 041520Z 24005KT 9999 FEW016 BKN074 14/11 Q1001=
200610041450 METAR ESMX 041450Z 26007KT 9999 FEW016 BKN062 14/11 Q1001=
200610041420 METAR ESMX 041420Z 25008KT 9999 SCT015 BKN074 14/11 Q1001=
200610041350 METAR ESMX 041350Z 23005KT 9999 FEW013 SCT016 BKN071 14/11 Q1001=
200610041320 METAR ESMX 041320Z 22005KT 9999 FEW015 SCT019 BKN055 14/12 Q1001=
200610041250 METAR ESMX 041250Z 25005KT 9999 -SHRA FEW014 SCT029 BKN033 14/11 Q1000=
200610041220 METAR ESMX 041220Z 26004KT 220V290 9999 FEW025 BKN035 BKN075 14/11 Q1000=
200610041150 METAR ESMX 041150Z 25003KT 200V290 9999 FEW010 SCT016 BKN025 14/11 Q1000=
200610041120 METAR ESMX 041120Z 25005KT 190V270 9999 FEW009 SCT011 BKN014 13/11 Q1000=
200610041050 METAR ESMX 041050Z 20006KT 9999 BKN008 BKN012 13/11 Q1000=
200610041020 METAR ESMX 041020Z 21006KT 9999 BKN008 BKN012 13/11 Q1000=
200610040950 METAR ESMX 040950Z 19006KT 9999 SCT008 BKN011 12/11 Q1000=
200610040920 METAR ESMX 040920Z 20006KT 160V230 9999 SCT006 BKN010 12/11 Q1000=
200610040850 METAR ESMX 040850Z 20006KT 140V230 9999 FEW005 BKN010 12/11 Q0999=
200610040820 METAR ESMX 040820Z 21006KT 190V250 9999 BR FEW005 BKN006 11/11 Q0999=
200610040750 METAR ESMX 040750Z 21005KT 9999 BR BKN006 12/11 Q0999=
200610040720 METAR ESMX 040720Z 20005KT 9000 FEW004 BKN007 11/11 Q0999=
200610040650 METAR ESMX 040650Z VRB02KT 8000 FEW005 BKN008 11/11 Q0999=
200610040620 METAR ESMX 040620Z 17003KT 5000 FEW007 BKN070 10/10 Q0998=
200610040550 METAR ESMX 040550Z 20003KT 2500 R01/P1500U R19/P1500U BCFG FEW007 SCT010 10/10 Q0998=
200610040520 METAR ESMX 040520Z 16002KT 2000 R01/P1500 R19/P1500 BCFG FEW003 BKN070 10/10 Q0998=
200610040450 METAR ESMX 040450Z VRB01KT 2000 R01/P1500N R19/P1500N BCFG FEW003 BKN080 11/10 Q0998=
200610040420 METAR ESMX 040420Z 19003KT 2200 BR FEW003 BKN060 11/11 Q0998=
200610040350 METAR ESMX 040350Z 16002KT 1500 BR SCT004 BKN060 11/11 Q0998=
200610040320 METAR ESMX 040320Z AUTO 00000KT 1400NDV R01/P1500N R19/P1500N BR BKN060/// BKN076/// 11/11 Q0998=
200610040250 METAR ESMX 040250Z AUTO VRB02KT 3300NDV R01/P1500N R19/P1500N BR FEW004/// BKN061/// 12/11 Q0998 RERA REDZ=
200610040220 METAR ESMX 040220Z AUTO 23004KT 200V260 4800NDV R01/P1500N R19/P1500N BR FEW005/// SCT008/// BKN050/// 12/12 Q0998 REDZ=
200610040150 METAR ESMX 040150Z AUTO 20004KT 2700NDV R01/P1500N R19/P1500N -DZ FEW005/// SCT007/// BKN009/// 12/12 Q0998 RERA=
200610040120 METAR ESMX 040120Z AUTO 19004KT 2800NDV R01/P1500N R19/P1500N BR FEW004/// SCT005/// BKN007/// 12/12 Q0998=
200610040050 METAR ESMX 040050Z AUTO 19004KT 2900NDV R01/P1500N R19/P1500N BR FEW003/// SCT006/// BKN008/// 12/12 Q0998=
200610040020 METAR ESMX 040020Z AUTO 19005KT 2900NDV R01/P1500N R19/P1500N BR OVC003/// 12/12 Q0998 RERA REDZ=
200610032350 METAR ESMX 032350Z 18005KT 3100 BR BKN005 12/12 Q0998=
200610032320 METAR ESMX 032320Z 19004KT 3200 BR OVC003 12/12 Q0998=
200610032250 METAR ESMX 032250Z 19005KT 3800 BR OVC003 12/12 Q0998=
200610032220 METAR ESMX 032220Z 20005KT 4900 BR OVC005 12/12 Q0998=
200610032150 METAR ESMX 032150Z 17003KT 4500 BR SCT005 BKN014 BKN084 12/12 Q0997=
200610032120 METAR ESMX 032120Z 17004KT 5000 BR FEW007 BKN081 12/12 Q0997=
200610032050 METAR ESMX 032050Z VRB03KT 5000 BR FEW006 SCT017 BKN028 12/12 Q0997=
200610032020 METAR ESMX 032020Z 00000KT 2600 BR FEW011 OVC064 12/11 Q0998=
200610031950 METAR ESMX 031950Z 18002KT 7000 BR FEW012 SCT016 BKN069 12/11 Q0997=
200610031920 METAR ESMX 031920Z 18002KT 8000 BR FEW012 BKN085 12/12 Q0998=
200610031850 METAR ESMX 031850Z 18004KT 9999 FEW032 BKN057 12/12 Q0998=
200610031820 METAR ESMX 031820Z 18004KT 9999 FEW020 SCT026 BKN059 13/12 Q0997 RERA=
200610031750 METAR ESMX 031750Z 21005KT 9999 RA FEW022 SCT050 BKN070 13/12 Q0997=
200610031720 METAR ESMX 031720Z 20005KT 8000 SHRA FEW025CB SCT036 BKN040 13/12 Q0997=
200610031650 METAR ESMX 031650Z 18004KT 9999 SCT035 12/11 Q0997=
200610031620 METAR ESMX 031620Z 19002KT 9999 FEW035 13/12 Q0997=
200610031550 METAR ESMX 031550Z 21003KT 180V240 9999 FEW018 SCT040 15/12 Q0997=
200610031520 METAR ESMX 031520Z 22005KT 180V250 9999 FEW017 SCT075 16/12 Q0997=
200610031450 METAR ESMX 031450Z 23007KT 180V260 9999 FEW025 16/12 Q0997=
200610031420 METAR ESMX 031420Z 21005KT 9999 FEW020 SCT080 15/12 Q0997=
200610031350 METAR ESMX 031350Z 23009KT 170V240 9999 FEW020CB BKN060 15/12 Q0997=
200610031320 METAR ESMX 031320Z 22008KT 190V260 9999 FEW022 SCT070 15/11 Q0996=
200610031250 METAR ESMX 031250Z 21009KT 170V250 9999 FEW015 SCT075 15/12 Q0996=
200610031220 METAR ESMX 031220Z 21009KT 160V260 9999 FEW020 15/11 Q0996=
200610031150 METAR ESMX 031150Z 23011KT 9999 SCT019 BKN078 15/11 Q0997=
200610031120 METAR ESMX 031120Z 21012KT 9999 FEW019 BKN067 15/11 Q0996=
200610031050 METAR ESMX 031050Z 22011KT 9999 FEW024 SCT052 BKN072 15/12 Q0997=
200610031020 METAR ESMX 031020Z 21013KT 9999 FEW018 SCT025 BKN031 15/11 Q0997=
200610030950 METAR ESMX 030950Z 22009KT 9999 FEW015 SCT018 BKN024 14/11 Q0996=
200610030920 METAR ESMX 030920Z 21010KT 9999 FEW013 SCT018 BKN021 14/11 Q0996=
200610030850 METAR ESMX 030850Z 22008KT 9999 FEW010 SCT018 BKN022 13/12 Q0996=
200610030820 METAR ESMX 030820Z 21009KT 1 9999 SCT009 BKN013 BKN021 13/12 Q0996=
200610030750 METAR ESMX 030750Z 20009KT 9999 SCT010 BKN016 13/12 Q0996=
200610030720 METAR ESMX 030720Z 21009KT 9999 FEW009 SCT014 BKN024 13/11 Q0996=
200610030650 METAR ESMX 030650Z 19010KT 9999 FEW009 SCT012 BKN015 12/11 Q0996=
200610030620 METAR ESMX 030620Z 19009KT 9999 FEW010 SCT015 BKN021 12/12 Q0995=
200610030550 METAR ESMX 030550Z 21009KT 9999 FEW008 SCT016 BKN020 12/11 Q0995=
200610030520 METAR ESMX 030520Z 20010KT 9999 FEW005 SCT007 BKN009 12/11 Q0995=
200610030450 METAR ESMX 030450Z 21009KT 7000 -RA FEW005 SCT007 BKN009 12/11 Q0995=
200610030420 METAR ESMX 030420Z 19010KT 160V220 9999 FEW007 BKN011 OVC018 12/11 Q0995=
200610030350 METAR ESMX 030350Z 19010KT 9999 FEW006 SCT010 BKN016 12/11 Q0995=
200610030320 METAR ESMX 030320Z AUTO 19009KT 9999NDV R01/P1500N R19/P1500N FEW007/// SCT009/// BKN010/// 12/11 Q0995=
200610030250 METAR ESMX 030250Z AUTO 19009KT 9999NDV R01/P1500N R19/P1500N FEW009/// SCT014/// BKN019/// 12/11 Q0995=
200610030220 METAR ESMX 030220Z AUTO 19009KT 9999NDV R01/P1500N R19/P1500N FEW006/// SCT007/// BKN012/// 12/11 Q0996=
200610030150 METAR ESMX 030150Z AUTO 20007KT 170V240 9999NDV R01/P1500N R19/P1500N FEW007/// SCT009/// BKN011/// 12/12 Q0996=
200610030120 METAR ESMX 030120Z AUTO 18008KT 9999NDV R01/P1500N R19/P1500N FEW006/// SCT010/// BKN069/// 12/11 Q0996=
200610030050 METAR ESMX 030050Z 19008KT 9999 FEW007 SCT011 BKN015 12/12 Q0996=
200610030020 METAR ESMX 030020Z 18008KT 9999 FEW006 SCT010 BKN013 12/12 Q0996=
200610022350 METAR ESMX 022350Z 18009KT 9000 BR FEW006 SCT008 BKN009 12/11 Q0996=
200610022320 METAR ESMX 022320Z 19008KT 9999 FEW006 SCT008 BKN010 12/11 Q0996=
200610022250 METAR ESMX 022250Z 20006KT 150V210 9999 FEW006 BKN008 OVC010 12/11 Q0996=
200610022220 METAR ESMX 022220Z 19006KT 9999 FEW007 SCT009 BKN012 12/11 Q0997=
200610022150 METAR ESMX 022150Z 17005KT 9999 FEW018 SCT020 BKN027 11/11 Q0997=
200610022120 METAR ESMX 022120Z 17004KT 9999 FEW009 SCT075 11/11 Q0997=
200610022050 METAR ESMX 022050Z 20005KT 9999 FEW007 SCT013 BKN024 11/11 Q0997=
200610022020 METAR ESMX 022020Z 19005KT 9999 FEW020 11/11 Q0997=
200610021950 METAR ESMX 021950Z 17006KT 9999 FEW006 SCT035 12/11 Q0997=
200610021920 METAR ESMX 021920Z 18007KT 9999 FEW005 SCT035 BKN063 12/11 Q0998=
200610021850 METAR ESMX 021850Z 19006KT 9999 FEW009 SCT028 BKN042 12/11 Q0998=
200610021820 METAR ESMX 021820Z 19007KT 9999 FEW032 SCT043 BKN060 12/11 Q0998 RERA=
200610021750 METAR ESMX 021750Z 19006KT 9999 -SHRA FEW035 SCT100 12/11 Q0998=
200610021720 METAR ESMX 021720Z 19006KT 9999 -SHRA FEW015CB SCT035 12/12 Q0998=
200610021650 METAR ESMX 021650Z 20009KT 160V230 9999 -SHRA FEW005 SCT015CB BKN035 13/12 Q0998 RERA=
200610021620 METAR ESMX 021620Z 17003KT 5000 RA BKN005 BKN010 13/12 Q0999=
200610021550 METAR ESMX 021550Z 17006KT 9999 -SHRA FEW007 SCT015CB BKN080 13/12 Q0999=
200610021520 METAR ESMX 021520Z 18008KT 9999 VCSH FEW010 SCT060 BKN075 13/12 Q0999=
200610021450 METAR ESMX 021450Z 17005KT 9999 FEW007 SCT050 13/12 Q0999=
200610021420 METAR ESMX 021420Z 16006KT 9999 FEW008 SCT050 BKN150 13/12 Q0999 RERA=
200610021320 METAR ESMX 021320Z 19009KT 9999 FEW008 BKN010 FEW020 14/12 Q1000=
200610021250 METAR ESMX 021250Z 18006KT 9999 FEW007 BKN010 13/12 Q1000=
200610021220 METAR ESMX 021220Z 18005KT 150V210 CAVOK 13/12 Q1001=
200610021150 METAR ESMX 021150Z 17004KT 130V200 CAVOK 13/11 Q1001=
200610021120 METAR ESMX 021120Z 17005KT CAVOK 12/10 Q1001=
200610021050 METAR ESMX 021050Z 19006KT 9999 -SHRA FEW010CB BKN025 11/10 Q1001=
200610021020 METAR ESMX 021020Z 21012KT 190V250 5000 -RA SCT010 FEW025CB BKN035 12/10 Q1002=
200610020950 METAR ESMX 020950Z 18006KT 140V210 9999 SCT010 FEW025CB BKN100 15/13 Q1001=
200610020920 METAR ESMX 020920Z 18005KT 130V200 9999 FEW007 BKN010 15/13 Q1001=
200610020850 METAR ESMX 020850Z 17006KT 9999 SCT007 14/13 Q1002=
200610020820 METAR ESMX 020820Z 18006KT 9999 FEW005 14/13 Q1002=
200610020750 METAR ESMX 020750Z 18006KT 8000 BR SCT005 14/13 Q1002=
200610020720 METAR ESMX 020720Z 17006KT 6000 BR SCT004 BKN006 14/13 Q1002=
200610020650 METAR ESMX 020650Z 18006KT 6000 BR FEW004 BKN005 14/13 Q1002=
200610020620 METAR ESMX 020620Z 19006KT 4900 BR BKN004 14/13 Q1002=
200610020550 METAR ESMX 020550Z 19005KT 4400 BR FEW005 BKN008 14/13 Q1002=
200610020520 METAR ESMX 020520Z 17006KT 5000 BR FEW003 SCT005 BKN008 14/13 Q1002=
200610020450 METAR ESMX 020450Z 16005KT 4100 BR FEW002 OVC004 14/13 Q1003=
200610020420 METAR ESMX 020420Z 13004KT 4000 BR SCT003 BKN009 13/13 Q1003=
200610020350 METAR ESMX 020350Z 14005KT 110V170 5000 BR BKN003 13/13 Q1003 RERA=
200610020320 METAR ESMX 020320Z AUTO 15007KT 100V180 3300NDV R01/P1500N R19/P1500N BR OVC002/// 13/13 Q1004 REDZ=
200610020250 METAR ESMX 020250Z AUTO 15004KT 110V200 3600NDV R01/P1500N R19/P1500N -RA OVC002/// 13/13 Q1004 REDZ=
200610020220 METAR ESMX 020220Z AUTO 15005KT 110V200 4200NDV R01/P1500N R19/P1500N BR OVC002/// 13/12 Q1004=
200610020150 METAR ESMX 020150Z AUTO 14005KT 100V170 4200NDV R01/P1500N R19/P1500N BR FEW002/// SCT003/// BKN022/// 12/12 Q1004 REDZ=
200610020120 METAR ESMX 020120Z AUTO 15005KT 090V180 3100NDV R01/P1500N R19/P1500N -RA BKN001/// OVC014/// 12/12 Q1005=
200610020050 METAR ESMX 020050Z AUTO 15006KT 110V190 1900NDV R01/P1500N R19/P1500N BR OVC001/// 12/12 Q1005=
200610020020 METAR ESMX 020020Z AUTO 14005KT 100V170 4700NDV R01/P1500N R19/P1500N BR OVC001/// 12/12 Q1006 RERA REDZ=
200610012350 METAR ESMX 012350Z 13005KT 080V160 2000 BR OVC002 12/11 Q1006 REDZ=
200610012320 METAR ESMX 012320Z 15006KT 110V190 4000 BR OVC002 11/11 Q1007=
200610012250 METAR ESMX 012250Z 14005KT 110V170 3300 BR OVC002 11/11 Q1007=
200610012220 METAR ESMX 012220Z 14005KT 090V190 3100 OVC002 11/11 Q1007=
200610012150 METAR ESMX 012150Z 15005KT 100V200 0550 R01/P1500U R19/P1500U FG VV002 12/11 Q1007=
200610012120 METAR ESMX 012120Z 18007KT 0550 R01/P1500N R19/P1500N FG VV002 12/11 Q1008=
200610012050 METAR ESMX 012050Z 15004KT 0500 R19/1500 FG VV003 12/12 Q1008=
200610012020 METAR ESMX 012020Z 15003KT 110V170 5000 BR FEW003 11/11 Q1008=
200610011950 METAR ESMX 011950Z 14003KT CAVOK 11/11 Q1009=
200610011920 METAR ESMX 011920Z 15005KT CAVOK 11/11 Q1009=
200610011850 METAR ESMX 011850Z 15004KT CAVOK 10/10 Q1009=
200610011820 METAR ESMX 011820Z 15004KT CAVOK 09/09 Q1009=
200610011750 METAR ESMX 011750Z 15003KT CAVOK 09/09 Q1009=
200610011720 METAR ESMX 011720Z 14002KT CAVOK 11/10 Q1009=
200610011650 METAR ESMX 011650Z 16001KT CAVOK 12/11 Q1009=
200610011550 METAR ESMX 011550Z 17003KT 140V200 CAVOK 17/11 Q1010=
200610011520 METAR ESMX 011520Z 19005KT 150V230 9999 FEW030 17/11 Q1010=
200610011450 METAR ESMX 011450Z 21007KT 170V270 9999 FEW033 18/11 Q1010=
200610011420 METAR ESMX 011420Z 26003KT 230V290 9999 FEW030 17/12 Q1010=
200610011350 METAR ESMX 011350Z 30004KT 9999 FEW027 17/12 Q1010=
200610011320 METAR ESMX 011320Z VRB04KT 9999 FEW027 17/12 Q1010=
200610011250 METAR ESMX 011250Z 23005KT 190V280 9999 FEW024 18/12 Q1010=
200610011220 METAR ESMX 011220Z 24005KT 210V280 9999 FEW023 18/12 Q1010=
