##########################################################
# Query made at 04/19/2024 20:51:03 UTC
# Time interval: from 05/01/2006 12:00  to 05/31/2006 12:59  UTC
##########################################################

##########################################################
# ESMX, Vaxjo (Sweden)
# WMO index: 02641. WIGOS ID: 0-20000-0-02648
# Latitude 56-51N. Longitude 014-50E. Altitude 199 m.
##########################################################

200605311250 METAR ESMX 311250Z 34007KT 3 9999 FEW025 SCT045 BKN051 13/06 Q1008=
200605311220 METAR ESMX 311220Z 32010KT 280V350 9999 -SHRA FEW035 SCT045CB BKN052 11/07 Q1008=
200605311150 METAR ESMX 311150Z 34011KT 280V360 9999 -SHRA FEW030 SCT045CB BKN052 14/05 Q1007=
200605311120 METAR ESMX 311120Z 33007KT 280V030 9999 FEW035 BKN046 12/05 Q1007=
200605311050 METAR ESMX 311050Z 32007KT 9999 BKN048 12/05 Q1007=
200605311020 METAR ESMX 311020Z 32008KT 270V010 9999 BKN042 12/04 Q1007=
200605310950 METAR ESMX 310950Z 01009KT 9999 BKN042 11/04 Q1007=
200605310920 METAR ESMX 310920Z 36009KT 9999 BKN042 12/05 Q1007=
200605310850 METAR ESMX 310850Z 35010KT 9999 FEW030 SCT038 BKN045 11/04 Q1007=
200605310820 METAR ESMX 310820Z 36009KT 330V040 9999 FEW030 BKN040 10/05 Q1007=
200605310750 METAR ESMX 310750Z 36009KT 330V040 9999 FEW020 BKN037 11/06 Q1007=
200605310720 METAR ESMX 310720Z 35009KT 9999 FEW020 BKN040 10/06 Q1007=
200605310650 METAR ESMX 310650Z 35008KT 9999 FEW015 BKN040 10/06 Q1007=
200605310620 METAR ESMX 310620Z 35010KT 9999 FEW015 BKN042 09/06 Q1007=
200605310550 METAR ESMX 310550Z 35008KT 9999 FEW014 08/06 Q1006=
200605310520 METAR ESMX 310520Z 35008KT CAVOK 09/06 Q1006=
200605310450 METAR ESMX 310450Z 34007KT 320V020 CAVOK 08/06 Q1006=
200605310420 METAR ESMX 310420Z 34007KT CAVOK 07/06 Q1006=
200605310350 METAR ESMX 310350Z 35006KT 320V020 9999 FEW006 07/06 Q1006=
200605310320 METAR ESMX 310320Z AUTO 32005KT 9999NDV R01/P1500D R19/P1500N FEW005/// 06/05 Q1005=
200605310250 METAR ESMX 310250Z AUTO 33005KT 9999NDV R01/P1500D R19/P1500N FEW041/// 05/04 Q1005=
200605310220 METAR ESMX 310220Z AUTO 33006KT 9999NDV R01/P1500D R19/P1500N BKN045/// 06/05 Q1005=
200605310150 METAR ESMX 310150Z AUTO 35007KT 9999NDV R01/P1500N R19/P1500N OVC044/// 07/06 Q1005=
200605310120 METAR ESMX 310120Z AUTO 35007KT 9999NDV R01/P1500N R19/P1500N FEW046/// 06/06 Q1004=
200605310050 METAR ESMX 310050Z AUTO 34007KT 9999NDV R01/P1500N R19/P1500N FEW006/// 06/05 Q1004=
200605310020 METAR ESMX 310020Z AUTO 33005KT 9999NDV R01/P1500N R19/P1500N NCD 05/05 Q1004=
200605302350 METAR ESMX 302350Z 35005KT 9999 FEW012 06/05 Q1004=
200605302320 METAR ESMX 302320Z 34006KT 9999 FEW014 06/06 Q1004=
200605302250 METAR ESMX 302250Z 01005KT 9999 FEW009 SCT018 07/07 Q1004=
200605302220 METAR ESMX 302220Z 01004KT 9999 FEW009 SCT017 07/07 Q1004=
200605302150 METAR ESMX 302150Z 35005KT 9999 FEW020 SCT035 08/07 Q1003=
200605302120 METAR ESMX 302120Z 36007KT 9999 FEW026 SCT049 08/08 Q1003=
200605302050 METAR ESMX 302050Z 35007KT 9999 FEW018 SCT030 09/08 Q1003=
200605302020 METAR ESMX 302020Z 34005KT 9999 FEW008 SCT035 OVC052 09/08 Q1003=
200605301950 METAR ESMX 301950Z 35006KT 9999 -SHRA BKN042CB 09/08 Q1002=
200605301920 METAR ESMX 301920Z 33007KT 9999 -SHRA FEW030 BKN045CB 09/08 Q1002=
200605301850 METAR ESMX 301850Z 34006KT 9999 -RA FEW023 BKN042 09/08 Q1002=
200605301820 METAR ESMX 301820Z 30004KT 270V350 9999 FEW032 BKN051 12/06 Q1001=
200605301750 METAR ESMX 301750Z 32005KT 9999 FEW036 BKN051 12/06 Q1001=
200605301720 METAR ESMX 301720Z 32007KT 9999 FEW035 BKN054 13/06 Q1001=
200605301650 METAR ESMX 301650Z 31005KT 270V350 9999 FEW030 SCT055 13/07 Q1001=
200605301620 METAR ESMX 301620Z 32005KT 290V020 9999 FEW030 SCT050 13/07 Q1001=
200605301550 METAR ESMX 301550Z 31008KT 290V010 9999 FEW034 BKN046 13/07 Q1001=
200605301520 METAR ESMX 301520Z 32008KT 9999 FEW030 BKN048 13/06 Q1001=
200605301450 METAR ESMX 301450Z 32010KT 290V350 9999 FEW030 BKN049 13/06 Q1001=
200605301420 METAR ESMX 301420Z 33009KT 290V360 9999 FEW030 BKN052 13/05 Q1000=
200605301350 METAR ESMX 301350Z 33009KT 9999 FEW030 BKN047 13/06 Q1000=
200605301320 METAR ESMX 301320Z 32007KT 270V360 9999 FEW030 BKN055 14/06 Q1000=
200605301250 METAR ESMX 301250Z 33010KT 9999 SCT045 BKN054 13/06 Q1000=
200605301220 METAR ESMX 301220Z 31008KT 240V350 9999 FEW035 BKN048 13/06 Q1000=
200605301150 METAR ESMX 301150Z 34011KT 210V010 9999 FEW030 SCT040 BKN045 13/06 Q1000=
200605301120 METAR ESMX 301120Z 33009KT 290V010 9999 FEW030 SCT070 BKN085 14/06 Q1000=
200605301050 METAR ESMX 301050Z 32009KT 9999 FEW031 FEW031CB SCT070 13/06 Q1000=
200605301020 METAR ESMX 301020Z 33009KT 9999 -SHRA FEW020 FEW030CB SCT072 11/08 Q1000=
200605300950 METAR ESMX 300950Z 34010G20KT 290V020 9999 -SHRA FEW020 FEW035CB SCT076 10/06 Q1000=
200605300920 METAR ESMX 300920Z 29008KT 250V320 9999 R01/P1500N R19/P1500U SCT035 13/06 Q1000=
200605300850 METAR ESMX 300850Z 29007KT 240V330 9999 SCT032 14/05 Q1000=
200605300820 METAR ESMX 300820Z 30006KT 9999 FEW040 SCT055 13/07 Q1000=
200605300650 METAR ESMX 300650Z 30005KT 250V350 CAVOK 12/08 Q1000=
200605300620 METAR ESMX 300620Z 31004KT 270V350 CAVOK 10/07 Q1000=
200605300550 METAR ESMX 300550Z 31006KT CAVOK 09/07 Q1000=
200605300520 METAR ESMX 300520Z 29003KT 250V330 CAVOK 08/07 Q1000=
200605300450 METAR ESMX 300450Z 31003KT 280V340 CAVOK 07/07 Q0999=
200605300420 METAR ESMX 300420Z 00000KT CAVOK 05/05 Q0999=
200605300350 METAR ESMX 300350Z 00000KT CAVOK 04/04 Q0999=
200605300320 METAR ESMX 300320Z AUTO 00000KT 2800NDV R01/P1500D R19/P1500D FEW076/// BKN092/// 03/03 Q0999=
200605300250 METAR ESMX 300250Z AUTO 00000KT 0650NDV R01/0800VP1500N R19/P1500U FG BKN090/// 03/03 Q0999=
200605300220 METAR ESMX 300220Z AUTO 00000KT 0750NDV R01/P1500N R19/P1500D FG FEW092/// 02/02 Q0999=
200605300150 METAR ESMX 300150Z AUTO 00000KT 1200NDV R01/P1500U R19/P1500N BR NCD 03/03 Q0999=
200605300120 METAR ESMX 300120Z AUTO 00000KT 2900NDV R01/P1500N R19/P1500N BR NCD 04/03 Q0999=
200605300050 METAR ESMX 300050Z AUTO 24003KT 9999NDV R01/P1500N R19/P1500N NCD 05/04 Q1000=
200605300020 METAR ESMX 300020Z AUTO 29004KT 9999NDV R01/P1500N R19/P1500N NCD 05/05 Q1000=
200605292350 METAR ESMX 292350Z 30004KT 9999 SCT040 06/05 Q1000=
200605292320 METAR ESMX 292320Z 29004KT 9999 SCT048 06/06 Q1000=
200605292250 METAR ESMX 292250Z 29004KT 9999 FEW049 04/04 Q1000=
200605292220 METAR ESMX 292220Z 26002KT 9999 BCFG NSC 04/03 Q1000=
200605292150 METAR ESMX 292150Z 00000KT 9999 BCFG NSC 04/04 Q1000=
200605292120 METAR ESMX 292120Z VRB01KT 9999 BCFG NSC 05/05 Q1000=
200605292050 METAR ESMX 292050Z 27003KT 9999 BCFG NSC 05/05 Q1000=
200605292020 METAR ESMX 292020Z 26001KT CAVOK 07/06 Q1000=
200605291950 METAR ESMX 291950Z 28004KT 250V320 9999 FEW046 08/07 Q1000=
200605291920 METAR ESMX 291920Z VRB02KT CAVOK 08/07 Q1000=
200605291850 METAR ESMX 291850Z 21004KT 9999 FEW046 SCT053 09/08 Q1000=
200605291820 METAR ESMX 291820Z 16003KT 120V200 9999 FEW048 SCT056 09/08 Q1000=
200605291750 METAR ESMX 291750Z 10005KT 060V150 9999 FEW035 SCT045 09/08 Q1000=
200605291720 METAR ESMX 291720Z 05005KT 010V080 9999 SHRA FEW032 BKN038CB 09/07 Q1000=
200605291650 METAR ESMX 291650Z 34010KT 9999 -SHRA SCT020CB BKN050 10/07 Q1000=
200605291620 METAR ESMX 291620Z 27006KT 210V300 9999 FEW020CB BKN050 13/05 Q0999=
200605291550 METAR ESMX 291550Z 22006KT 140V260 9999 FEW030CB SCT050 15/04 Q0999=
200605291520 METAR ESMX 291520Z 19008KT 150V250 9999 FEW030CB SCT050 14/05 Q0999=
200605291450 METAR ESMX 291450Z 20009KT 9999 FEW020CB SCT033 15/05 Q0999=
200605291420 METAR ESMX 291420Z 19010KT 120V230 9999 FEW020CB SCT035 15/07 Q0999=
200605291350 METAR ESMX 291350Z 19006KT 140V250 9999 SCT025 BKN050 15/05 Q0999=
200605291320 METAR ESMX 291320Z 21006KT 150V270 9999 FEW020 BKN060 15/04 Q1000=
200605291250 METAR ESMX 291250Z VRB05KT 9999 FEW030 SCT055 13/04 Q1000=
200605291220 METAR ESMX 291220Z 20007KT 170V250 9999 FEW020 SCT030 14/06 Q1000=
200605291150 METAR ESMX 291150Z 19008KT 9999 BKN028 11/06 Q1001=
200605291120 METAR ESMX 291120Z 18007KT 160V250 9999 BKN030 12/06 Q1001=
200605291050 METAR ESMX 291050Z VRB02KT 9999 FEW025CB SCT035 13/06 Q1001=
200605291020 METAR ESMX 291020Z VRB05KT 9999 FEW029 SCT065 13/05 Q1001 RESHRA=
200605290950 METAR ESMX 290950Z 25003KT 220V290 9999 -SHRA FEW020 BKN045 11/07 Q1001=
200605290920 METAR ESMX 290920Z 17004KT 150V250 9999 FEW015 SCT045 09/05 Q1001 RESHRA=
200605290850 METAR ESMX 290850Z 31004KT 250V360 9999 -SHRA FEW020CB SCT025 10/06 Q1002=
200605290820 METAR ESMX 290820Z 29005KT 190V320 9999 FEW046 BKN052 11/06 Q1002=
200605290750 METAR ESMX 290750Z 28005KT 9999 FEW013 SCT017 BKN022 10/06 Q1002=
200605290720 METAR ESMX 290720Z 25004KT 9999 FEW013 BKN017 BKN022 09/06 Q1002=
200605290650 METAR ESMX 290650Z 27004KT 9999 SCT011 BKN019 BKN023 09/06 Q1002=
200605290620 METAR ESMX 290620Z 28004KT 260V320 9999 BKN010 BKN018 09/06 Q1002=
200605290520 METAR ESMX 290520Z 25005KT 230V300 9999 FEW007 BKN008 08/07 Q1002=
200605290450 METAR ESMX 290450Z 27004KT 9999 FEW006 SCT009 BKN048 08/07 Q1002=
200605290420 METAR ESMX 290420Z 25004KT 9999 FEW007 BKN045 08/06 Q1002=
200605290350 METAR ESMX 290350Z 27005KT 9999 SCT025 BKN045 08/06 Q1002=
200605290320 METAR ESMX 290320Z AUTO 28005KT 250V310 9999NDV R01/P1500D R19/P1500N OVC023/// 08/06 Q1003=
200605290250 METAR ESMX 290250Z AUTO 28006KT 9999NDV R01/P1500N R19/P1500N FEW007/// SCT010/// BKN025/// 08/07 Q1003=
200605290220 METAR ESMX 290220Z AUTO 26005KT 9999NDV R01/P1500N R19/P1500N FEW009/// OVC030/// 08/07 Q1003=
200605290150 METAR ESMX 290150Z AUTO 29006KT 9999NDV R01/P1500N R19/P1500N FEW008/// SCT014/// BKN020/// 08/07 Q1003 RERA REDZ=
200605290120 METAR ESMX 290120Z AUTO 26007KT 240V300 9999NDV R01/P1500N R19/P1500N FEW006/// BKN007/// OVC011/// 08/07 Q1003=
200605290050 METAR ESMX 290050Z AUTO 27005KT 240V320 9999NDV R01/P1500N R19/P1500N FEW005/// BKN007/// OVC009/// 09/08 Q1003=
200605290020 METAR ESMX 290020Z 27005KT 230V290 9999 BKN005 08/08 Q1003=
200605282350 METAR ESMX 282350Z 26005KT 230V290 9999 BKN043 08/08 Q1003=
200605282320 METAR ESMX 282320Z 27005KT 9999 BKN045 08/08 Q1003=
200605282250 METAR ESMX 282250Z 26004KT 230V300 9999 BKN045 08/07 Q1003=
200605282220 METAR ESMX 282220Z 27004KT 240V300 CAVOK 08/07 Q1003=
200605282150 METAR ESMX 282150Z 27005KT 250V320 CAVOK 09/08 Q1003=
200605282120 METAR ESMX 282120Z 27005KT CAVOK 09/07 Q1003=
200605282050 METAR ESMX 282050Z 27005KT CAVOK 09/08 Q1003=
200605282020 METAR ESMX 282020Z 26004KT 230V300 CAVOK 09/08 Q1003=
200605281950 METAR ESMX 281950Z 24004KT 200V280 9999 FEW025 BKN050 09/07 Q1003=
200605281920 METAR ESMX 281920Z 27003KT 9999 BKN036 10/07 Q1002=
200605281850 METAR ESMX 281850Z VRB02KT 9999 FEW040 BKN050 10/07 Q1002=
200605281820 METAR ESMX 281820Z 00000KT 9999 BKN046 10/08 Q1002=
200605281750 METAR ESMX 281750Z 22006KT 170V260 9999 FEW015CB SCT065 10/08 Q1002=
200605281720 METAR ESMX 281720Z 25007KT 200V280 9999 SHRA FEW015CB BKN047 10/08 Q1002=
200605281650 METAR ESMX 281650Z 24005KT 210V280 9999 FEW020CB BKN050 11/07 Q1002=
200605281620 METAR ESMX 281620Z 13003KT 090V160 9999 -SHRA FEW030CB BKN060 11/08 Q1001 REDZ=
200605281550 METAR ESMX 281550Z 25007KT 220V290 9999 FEW020CB BKN045 12/07 Q1001=
200605281520 METAR ESMX 281520Z 24005KT 200V270 9999 FEW020CB BKN055 13/06 Q1001=
200605281450 METAR ESMX 281450Z 27005KT 240V300 9999 FEW045 BKN072 13/05 Q1001=
200605281420 METAR ESMX 281420Z 36003KT 310V030 9999 FEW020CB BKN060 14/05 Q1000=
200605281350 METAR ESMX 281350Z VRB02KT 9999 FEW020CB BKN065 14/05 Q1000=
200605281320 METAR ESMX 281320Z 05004KT 010V140 9999 FEW020CB BKN068 14/06 Q1000=
200605281250 METAR ESMX 281250Z VRB02KT 9999 FEW020CB BKN070 14/06 Q1000=
200605281220 METAR ESMX 281220Z 03003KT 340V080 9999 FEW020CB BKN035 13/07 Q1000=
200605281150 METAR ESMX 281150Z 04005KT 330V110 9999 FEW023CB SCT037 15/06 Q1000=
200605281120 METAR ESMX 281120Z 05004KT 330V110 9999 FEW030CB BKN050 15/06 Q1000=
200605261520 METAR ESMX 261520Z AUTO 28008KT 230V320 9999NDV R01/P1500U R19/P1500D FEW026/// OVC042/// 12/04 Q1009=
200605261450 METAR ESMX 261450Z AUTO 27011KT 240V320 9999NDV R01/P1500U R19/P1500N FEW038/// BKN042/// BKN060/// 13/04 Q1008=
200605261420 METAR ESMX 261420Z AUTO 26012KT 220V290 9999NDV R01/P1500U R19/P1500U FEW062/// 13/05 Q1008=
200605261350 METAR ESMX 261350Z 24014G24KT 210V270 9999 FEW031 SCT040 12/05 Q1008=
200605261320 METAR ESMX 261320Z 28009G19KT 250V330 9999 FEW017 SCT037 11/06 Q1008 RERA=
200605261250 METAR ESMX 261250Z 24010KT 210V270 9999 FEW025 SCT040 11/06 Q1008=
200605261220 METAR ESMX 261220Z 28010G21KT 230V320 9999 SCT025 11/06 Q1008=
200605261150 METAR ESMX 261150Z 27008KT 230V310 9999 FEW025 SCT037 10/07 Q1008=
200605261120 METAR ESMX 261120Z 31013KT 9999 +SHRA FEW021 FEW035CB SCT043 07/05 Q1009=
200605261050 METAR ESMX 261050Z 25012G23KT 220V290 9999 -SHRA FEW033 FEW033CB SCT041 11/05 Q1008=
200605261020 METAR ESMX 261020Z 28014KT 240V300 9999 SCT033 BKN053 12/04 Q1007=
200605260950 METAR ESMX 260950Z 26011KT 200V280 9999 FEW020 SCT033 BKN048 11/04 Q1008=
200605260920 METAR ESMX 260920Z 29006KT 240V340 9999 FEW015 SCT028 BKN055 08/06 Q1008=
200605260850 METAR ESMX 260850Z 25011KT 210V290 9999 -SHRA SCT024 BKN042 08/05 Q1008=
200605260750 METAR ESMX 260750Z 27009KT 230V300 9999 FEW025 SCT029 BKN037 09/05 Q1007=
200605260720 METAR ESMX 260720Z 27012KT 230V300 9999 FEW018 SCT024 BKN028 09/05 Q1007=
200605260650 METAR ESMX 260650Z 25009KT 210V280 9999 -SHRA SCT019 BKN025 08/05 Q1007=
200605260620 METAR ESMX 260620Z 27009KT 230V290 9999 SCT016 BKN020 07/05 Q1007=
200605260550 METAR ESMX 260550Z 25009KT 220V300 9999 FEW013 SCT017 BKN020 07/05 Q1007=
200605260520 METAR ESMX 260520Z 23009KT 200V260 9999 SCT013 BKN018 BKN041 07/05 Q1007=
200605260450 METAR ESMX 260450Z 23009KT 200V280 9999 SCT016 BKN019 07/05 Q1007=
200605260420 METAR ESMX 260420Z AUTO 25008KT 220V280 9999NDV R01/P1500D R19/P1500U FEW013/// SCT016/// BKN020/// 06/05 Q1006=
200605260350 METAR ESMX 260350Z AUTO 25008KT 220V280 9999NDV R01/P1500D R19/P1500U FEW009/// SCT011/// BKN014/// 06/05 Q1006 REDZ RERA=
200605260320 METAR ESMX 260320Z AUTO 25008KT 9999NDV R01/P1500D R19/P1500D -DZ FEW012/// SCT015/// BKN018/// 06/05 Q1006 RERA=
200605260250 METAR ESMX 260250Z AUTO 23007KT 9999NDV R01/P1500D R19/P1500D FEW014/// BKN023/// 06/05 Q1006=
200605260220 METAR ESMX 260220Z AUTO 23007KT 9999NDV R01/P1500N R19/P1500N FEW012/// SCT023/// BKN027/// 06/05 Q1006=
200605260150 METAR ESMX 260150Z AUTO 23008KT 9999NDV R01/P1500N R19/P1500N FEW015/// SCT022/// BKN026/// 06/04 Q1006=
200605260120 METAR ESMX 260120Z AUTO 23008KT 190V250 9999NDV R01/P1500N R19/P1500N FEW019/// SCT022/// BKN027/// 06/04 Q1006=
200605260050 METAR ESMX 260050Z AUTO 22009KT 9999NDV R01/P1500N R19/P1500N FEW027/// SCT041/// 06/04 Q1006=
200605260020 METAR ESMX 260020Z 24009KT 9999 FEW024 SCT040 06/04 Q1006=
200605252350 METAR ESMX 252350Z 23007KT 9999 FEW030 05/04 Q1007=
200605252320 METAR ESMX 252320Z 22006KT 9999 FEW027 SCT031 05/04 Q1007=
200605252250 METAR ESMX 252250Z 20006KT 9999 FEW023 SCT029 BKN034 06/04 Q1007=
200605252220 METAR ESMX 252220Z 20005KT 9999 FEW015 SCT029 BKN040 06/04 Q1007=
200605252150 METAR ESMX 252150Z 24005KT 9999 FEW015 SCT022 BKN026 06/05 Q1007=
200605252120 METAR ESMX 252120Z 19005KT 9999 FEW028 SCT033 06/05 Q1007=
200605252050 METAR ESMX 252050Z 23006KT 9999 FEW025 SCT030 07/05 Q1007=
200605252020 METAR ESMX 252020Z 22006KT 180V260 9999 FEW028 SCT047 07/05 Q1007=
200605251950 METAR ESMX 251950Z 22006KT 190V250 9999 FEW028 07/05 Q1007=
200605251920 METAR ESMX 251920Z 20005KT 9999 SCT035 07/06 Q1007=
200605251850 METAR ESMX 251850Z 20009KT 9999 FEW010 SCT030 08/06 Q1006=
200605251820 METAR ESMX 251820Z 21007KT 9999 FEW042 09/04 Q1006=
200605251750 METAR ESMX 251750Z 24007KT 9999 FEW045 09/03 Q1006=
200605251720 METAR ESMX 251720Z 24012G23KT 190V290 9999 SCT040 10/03 Q1006=
200605251650 METAR ESMX 251650Z 25012KT 210V280 9999 FEW039 11/04 Q1006=
200605251620 METAR ESMX 251620Z 23012KT 9999 SCT041 12/04 Q1006=
200605251550 METAR ESMX 251550Z 22011KT 9999 SCT036 12/06 Q1006=
200605251520 METAR ESMX 251520Z 23011KT 190V260 9999 FEW025 11/06 Q1006=
200605251450 METAR ESMX 251450Z 23008KT 200V260 9999 SCT022CB 09/05 Q1007=
200605251420 METAR ESMX 251420Z 24009KT 200V260 9999 -SHRA FEW020 BKN028CB 10/07 Q1006=
200605251350 METAR ESMX 251350Z 24006KT 210V320 9999 FEW019 SCT035CB 09/06 Q1006=
200605251320 METAR ESMX 251320Z AUTO 23015G25KT 9999NDV R01/P1500U R19/P1500U FEW024/// BKN037/// 12/04 Q1006=
200605251250 METAR ESMX 251250Z AUTO 23018G29KT 190V270 9999NDV R01/P1500D R19/P1500D FEW036/// SCT052/// 13/04 Q1006=
200605251220 METAR ESMX 251220Z AUTO 22020KT 190V270 9999NDV R01/P1500D R19/P1500D FEW090/// 12/04 Q1006=
200605251150 METAR ESMX 251150Z AUTO 23011KT 190V280 9999NDV R01/P1500D R19/P1500D FEW028/// 11/07 Q1006 RERA=
200605251120 METAR ESMX 251120Z AUTO 23015KT 190V270 9999NDV R01/P1500U R19/P1500U FEW024/// SCT033/// BKN067/// 11/05 Q1006=
200605251050 METAR ESMX 251050Z AUTO 24016G26KT 210V270 9999NDV R01/P1500D R19/P1500D FEW018/// 10/06 Q1006 RERA=
200605251020 METAR ESMX 251020Z AUTO 23019KT 9999NDV R01/P1500U R19/P1500D FEW026/// SCT032/// BKN044/// 11/04 Q1005=
200605250950 METAR ESMX 250950Z AUTO 24015G25KT 200V290 9999NDV R01/P1500U R19/P1500D FEW025/// 10/05 Q1005=
200605250920 METAR ESMX 250920Z AUTO 24013G25KT 200V280 9999NDV R01/P1500D R19/P1500U FEW035/// 10/05 Q1006=
200605250850 METAR ESMX 250850Z AUTO 24014G24KT 200V270 9999NDV R01/P1500D R19/P1500U FEW018/// SCT023/// 10/07 Q1006 RERA=
200605250820 METAR ESMX 250820Z AUTO 23011G21KT 210V270 9999NDV R01/P1500D R19/P1500U FEW015/// SCT023/// BKN044/// 10/07 Q1005 RERA=
200605250750 METAR ESMX 250750Z AUTO 21011KT 9999NDV R01/P1500U R19/P1500U FEW013/// SCT018/// BKN024/// 08/07 Q1006 RERA=
200605250720 METAR ESMX 250720Z AUTO 24009G19KT 200V270 9999NDV R01/P1500U R19/P1500D FEW008/// SCT013/// BKN019/// 08/06 Q1006=
200605250650 METAR ESMX 250650Z AUTO 24009KT 200V270 9999NDV R01/P1500D R19/P1500D FEW007/// BKN011/// OVC017/// 07/06 Q1005 RERA REDZ=
200605250620 METAR ESMX 250620Z AUTO 23011KT 200V260 9999NDV R01/P1500D R19/P1500D -RA FEW008/// SCT011/// BKN014/// 06/05 Q1005 REDZ=
200605250550 METAR ESMX 250550Z AUTO 21010KT 9000NDV R01/P1500D R19/P1500D -RA FEW008/// SCT010/// BKN012/// 06/05 Q1006=
200605250520 METAR ESMX 250520Z AUTO 21009KT 170V240 9999NDV R01/P1500D R19/P1500U FEW009/// SCT010/// BKN013/// 06/05 Q1005=
200605250450 METAR ESMX 250450Z AUTO 23007KT 200V270 9999NDV R01/P1500D R19/P1500U BKN010/// OVC016/// 06/05 Q1005=
200605250420 METAR ESMX 250420Z AUTO 23009KT 200V260 9999NDV R01/P1500U R19/P1500D FEW011/// SCT016/// BKN039/// 05/04 Q1005=
200605250350 METAR ESMX 250350Z AUTO 25013KT 9999NDV R01/P1500U R19/P1500U -DZ FEW008/// BKN012/// BKN018/// 06/04 Q1005=
200605250320 METAR ESMX 250320Z AUTO 21009KT 170V240 7000NDV R01/P1500D R19/P1500D -DZ FEW007/// SCT011/// BKN018/// 06/05 Q1004 RERA=
200605250250 METAR ESMX 250250Z AUTO 23010KT 9999NDV R01/P1500N R19/P1500N -RA FEW008/// SCT014/// BKN018/// 06/05 Q1004=
200605250220 METAR ESMX 250220Z AUTO 22011KT 200V260 8000NDV R01/P1500N R19/P1500N RA FEW009/// SCT017/// BKN020/// 06/05 Q1004=
200605250150 METAR ESMX 250150Z AUTO 19011KT 160V220 8000NDV R01/P1500N R19/P1500N -RA FEW008/// BKN011/// 07/06 Q1004=
200605250120 METAR ESMX 250120Z AUTO 18006KT 9999NDV R01/P1500N R19/P1500N FEW014/// SCT016/// OVC034/// 07/06 Q1004=
200605250050 METAR ESMX 250050Z AUTO 18005KT 9999NDV R01/P1500N R19/P1500N FEW020/// OVC036/// 07/06 Q1005=
200605250020 METAR ESMX 250020Z AUTO 17007KT 9999NDV R01/P1500N R19/P1500N BKN023/// BKN050/// 07/06 Q1005=
200605242350 METAR ESMX 242350Z AUTO 17008KT 9999NDV R01/P1500N R19/P1500N FEW024/// BKN030/// BKN041/// 07/06 Q1006=
200605242320 METAR ESMX 242320Z AUTO 17007KT 9999NDV R01/P1500N R19/P1500N FEW032/// BKN040/// 07/06 Q1006=
200605242250 METAR ESMX 242250Z AUTO 17007KT 9999NDV R01/P1500N R19/P1500N FEW036/// SCT048/// BKN056/// 07/06 Q1007=
200605242220 METAR ESMX 242220Z AUTO 16008KT 9999NDV R01/P1500N R19/P1500N SCT036/// 07/06 Q1008=
200605242150 METAR ESMX 242150Z AUTO 17007KT 9999NDV R01/P1500N R19/P1500N FEW078/// 07/06 Q1008=
200605242120 METAR ESMX 242120Z AUTO 16005KT 9999NDV R01/P1500N R19/P1500N SCT082/// 07/06 Q1008=
200605242050 METAR ESMX 242050Z AUTO 17005KT 9999NDV R01/P1500N R19/P1500N FEW058/// 07/06 Q1009=
200605242020 METAR ESMX 242020Z AUTO 19008KT 9999NDV R01/P1500N R19/P1500N FEW027/// SCT041/// 07/06 Q1009 REDZ RERA=
200605241950 METAR ESMX 241950Z AUTO 22007KT 180V250 9999NDV R01/P1500U R19/P1500U FEW030/// SCT035/// BKN056/// 07/06 Q1010=
200605241920 METAR ESMX 241920Z AUTO 19005KT 9999NDV R01/P1500D R19/P1500D UP FEW040/// SCT055/// BKN071/// 07/06 Q1010 REDZ=
200605241850 METAR ESMX 241850Z AUTO 23005KT 180V250 9999NDV R01/P1500U R19/P1500U FEW023/// SCT032/// BKN041/// 07/06 Q1010 RERA REDZ=
200605241820 METAR ESMX 241820Z AUTO 24009G23KT 5000NDV R01/P1500D R19/P1500D -RA FEW020/// SCT035/// BKN043/// 08/07 Q1010=
200605241750 METAR ESMX 241750Z AUTO 19006KT 9999NDV R01/P1500D R19/P1500N FEW053/// 09/08 Q1010=
200605241720 METAR ESMX 241720Z 20006KT 9999 FEW037 09/08 Q1010=
200605241650 METAR ESMX 241650Z 19006KT 150V210 9999 SHRA FEW025 SCT035CB 08/07 Q1011=
200605241620 METAR ESMX 241620Z 20009KT 9999 SHRA FEW025 BKN030CB 09/07 Q1011=
200605241550 METAR ESMX 241550Z 23007KT 9000 +RA FEW010 SCT030CB BKN045 09/08 Q1011=
200605241520 METAR ESMX 241520Z 19008KT 9999 SHRA SCT050CB 11/08 Q1011=
200605241450 METAR ESMX 241450Z 24016KT 7000 SHRA FEW025 SCT050CB BKN070 10/07 Q1011=
200605241420 METAR ESMX 241420Z 21008KT 9999 SHRA FEW030CB SCT070 11/09 Q1011=
200605241350 METAR ESMX 241350Z 19008KT 9999 FEW025CB SCT050 11/08 Q1011=
200605241320 METAR ESMX 241320Z 24005KT 170V260 9999 +SHRA FEW010 SCT020CB 10/08 Q1011=
200605241250 METAR ESMX 241250Z 24011G21KT 3000 +SHRA FEW010 SCT042CB 08/06 Q1012=
200605241220 METAR ESMX 241220Z 21008KT 170V250 9999 FEW020 FEW035CB BKN060 11/08 Q1011 RESHRA=
200605241150 METAR ESMX 241150Z 22013KT 9999 SHRA FEW030 SCT040CB BKN070 12/04 Q1011=
200605241120 METAR ESMX 241120Z 21013KT 170V250 9999 FEW037 SCT049 BKN063 13/04 Q1011=
200605241050 METAR ESMX 241050Z 22013KT 180V260 9999 FEW040 BKN066 12/04 Q1011=
200605241020 METAR ESMX 241020Z 22013KT 190V260 9999 FEW038CB SCT050 BKN070 12/04 Q1011=
200605240950 METAR ESMX 240950Z 24009KT 200V300 9999 FEW020CB BKN050 12/05 Q1012=
200605240920 METAR ESMX 240920Z 22011KT 160V280 9999 FEW034 SCT057 11/04 Q1012=
200605240850 METAR ESMX 240850Z 24014KT 9999 -SHRA FEW027 SCT047 10/03 Q1012=
200605240820 METAR ESMX 240820Z 24013KT 200V280 9999 BKN040 10/02 Q1012=
200605240750 METAR ESMX 240750Z 26013KT 230V290 9999 FEW035 BKN040 10/02 Q1012=
200605240720 METAR ESMX 240720Z 26014KT 210V310 9999 SCT030 10/02 Q1011=
200605240650 METAR ESMX 240650Z 24014G24KT 200V270 9999 FEW025 BKN035 08/03 Q1011=
200605240620 METAR ESMX 240620Z 24014KT 200V280 9999 SCT017 BKN024 08/04 Q1011=
200605240550 METAR ESMX 240550Z 22011G21KT 9999 FEW017 BKN020 07/04 Q1011=
200605240520 METAR ESMX 240520Z 23012KT 9999 FEW014 BKN022 07/04 Q1010=
200605240450 METAR ESMX 240450Z 23009KT 9999 FEW010 SCT016 BKN019 06/04 Q1010=
200605240420 METAR ESMX 240420Z 24010KT 9999 FEW010 SCT013 BKN020 06/04 Q1010=
200605240350 METAR ESMX 240350Z 21009KT 9999 SCT010 BKN015 BKN040 05/04 Q1010=
200605240320 METAR ESMX 240320Z 22010KT 200V020 9999 FEW010 SCT016 BKN024 05/04 Q1010=
200605240250 METAR ESMX 240250Z AUTO 23010KT 200V260 9999NDV R01/P1500U R19/P1500D FEW024/// SCT041/// BKN064/// 05/03 Q1009=
200605240220 METAR ESMX 240220Z AUTO 20009KT 9999NDV R01/P1500N R19/P1500D FEW023/// OVC036/// 05/03 Q1009=
200605240150 METAR ESMX 240150Z AUTO 20008KT 9999NDV R01/P1500N R19/P1500N FEW037/// 05/02 Q1009=
200605240120 METAR ESMX 240120Z AUTO 22007KT 9999NDV R01/P1500N R19/P1500N NCD 04/02 Q1009=
200605240050 METAR ESMX 240050Z AUTO 23008KT 9999NDV R01/P1500N R19/P1500N NCD 05/01 Q1009=
200605240020 METAR ESMX 240020Z AUTO 24009KT 9999NDV R01/P1500N R19/P1500N NCD 05/01 Q1009=
200605232350 METAR ESMX 232350Z 22009KT 190V260 9999 FEW035 05/01 Q1009=
200605232320 METAR ESMX 232320Z 23009KT 9999 FEW035 05/02 Q1009=
200605232250 METAR ESMX 232250Z 23007KT CAVOK 05/02 Q1008=
200605232220 METAR ESMX 232220Z 24008KT 200V260 CAVOK 05/01 Q1008=
200605232120 METAR ESMX 232120Z 23010KT 200V270 9999 FEW025 BKN100 06/01 Q1008=
200605232050 METAR ESMX 232050Z 23010KT 180V260 9999 FEW020 BKN100 06/02 Q1008=
200605232020 METAR ESMX 232020Z 25012KT 200V280 9999 FEW020 BKN100 07/03 Q1007=
200605231950 METAR ESMX 231950Z 25012KT 220V280 9999 FEW025 BKN150 07/03 Q1006=
200605231920 METAR ESMX 231920Z 25013KT 230V290 9999 R01/P1500D R19/P1500U SCT020 BKN100 08/04 Q1006=
200605231850 METAR ESMX 231850Z 24013G24KT 210V280 9999 FEW015 SCT025 08/04 Q1005=
200605231820 METAR ESMX 231820Z 25015G25KT 210V280 9999 SCT015 BKN025 08/05 Q1005=
200605231750 METAR ESMX 231750Z 25014KT 230V290 9999 SCT010 BKN050 09/06 Q1005=
200605231720 METAR ESMX 231720Z 26015KT 9999 FEW012 SCT017 BKN021 09/07 Q1004 RESHRA=
200605231650 METAR ESMX 231650Z 26013KT 9999 -SHRA FEW009 SCT012 BKN016 09/07 Q1004=
200605231620 METAR ESMX 231620Z 26014G24KT 230V290 9999 -SHRA FEW008 SCT011 BKN014 09/08 Q1003=
200605231550 METAR ESMX 231550Z 26019G29KT 210V290 9999 SHRA FEW006 SCT009 BKN011 11/09 Q1002=
200605231520 METAR ESMX 231520Z 19013KT 9999 -SHRA FEW008 BKN010 11/10 Q1001=
200605231450 METAR ESMX 231450Z 21012KT 9999 FEW008 BKN010 12/10 Q1001=
200605231420 METAR ESMX 231420Z 19015KT 9999 FEW009 SCT011CB BKN013 12/10 Q1001 RESHRA=
200605231350 METAR ESMX 231350Z 19015KT 9999 SHRA FEW018 SCT020CB BKN028 12/10 Q1001=
200605231320 METAR ESMX 231320Z 20014KT 9999 -SHRA FEW017 BKN020 OVC030 14/10 Q1001=
200605231250 METAR ESMX 231250Z 21013KT 9999 FEW016 SCT018 BKN022 13/10 Q1001=
200605231220 METAR ESMX 231220Z 19016KT 9999 SCT016 BKN020 13/10 Q1001=
200605231150 METAR ESMX 231150Z 18018KT 160V230 9999 SHRA FEW017 BKN022 13/10 Q1000=
200605231120 METAR ESMX 231120Z 19015KT 9999 SHRA SCT015CB BKN020 14/11 Q1000=
200605231050 METAR ESMX 231050Z 20013KT 9999 SHRA FEW014 BKN018 13/11 Q1000=
200605231020 METAR ESMX 231020Z 21011KT 180V240 9999 SHRA FEW012 BKN015CB 12/10 Q1000=
200605230950 METAR ESMX 230950Z 21014KT 9999 -RA FEW009 BKN013 BKN019 12/11 Q1000=
200605230920 METAR ESMX 230920Z 19014KT 9000 SHRA FEW008 SCT010 BKN018 13/12 Q1000=
200605230850 METAR ESMX 230850Z 20012KT 9999 SHRA FEW016 BKN020CB 13/10 Q1000=
200605230820 METAR ESMX 230820Z 21013KT 170V240 9999 FEW015 BKN025 14/11 Q1000=
200605230750 METAR ESMX 230750Z 20012KT 160V220 9999 SHRA FEW010 SCT015CB BKN023 13/11 Q0999=
200605230720 METAR ESMX 230720Z 18009KT 9999 SHRA FEW009 SCT012 BKN015 12/11 Q0999=
200605230650 METAR ESMX 230650Z 20009KT 9999 SHRA FEW010 BKN015 12/11 Q0999=
200605230620 METAR ESMX 230620Z 19008KT 9999 FEW008 BKN015 13/11 Q0999=
200605230550 METAR ESMX 230550Z 20008KT 170V230 9999 -SHRA FEW007 BKN011 12/11 Q0999=
200605230520 METAR ESMX 230520Z 20008KT 9999 -SHRA FEW007 BKN010 12/11 Q0999=
200605230450 METAR ESMX 230450Z 19010KT 9999 BKN005 12/11 Q0999=
200605230420 METAR ESMX 230420Z 18007KT 9999 BKN005 11/11 Q0998=
200605230350 METAR ESMX 230350Z 18006KT 140V200 7000 BR BKN005 11/10 Q0998=
200605230320 METAR ESMX 230320Z AUTO 17004KT 8000NDV R01/P1500D R19/P1500N BR SCT007/// BKN069/// 11/10 Q0998=
200605230250 METAR ESMX 230250Z AUTO 17006KT 9000NDV R01/P1500D R19/P1500U BR FEW020/// BKN073/// BKN095/// 11/10 Q0998=
200605230220 METAR ESMX 230220Z AUTO 18005KT 6000NDV R01/P1500U R19/P1500U BR FEW003/// SCT005/// BKN007/// 11/10 Q0999=
200605230150 METAR ESMX 230150Z AUTO 19009KT 7000NDV R01/P1500N R19/P1500N BR OVC004/// 11/10 Q0999=
200605230120 METAR ESMX 230120Z AUTO 18005KT 160V230 7000NDV R01/P1500N R19/P1500N BR OVC004/// 11/11 Q0998=
200605230050 METAR ESMX 230050Z AUTO 17005KT 7000NDV R01/P1500N R19/P1500N BR FEW003/// BKN004/// BKN027/// 11/11 Q0998 RERA REDZ=
200605230020 METAR ESMX 230020Z 14006KT 100V170 6000 BR FEW003 SCT025CB BKN033 11/11 Q0998=
200605222350 METAR ESMX 222350Z 16005KT 6000 BR FEW003 SCT005 BKN007 11/11 Q0998=
200605222320 METAR ESMX 222320Z 16006KT 8000 BR SCT004 BKN090 12/11 Q0999=
200605222250 METAR ESMX 222250Z 15005KT 8000 BR FEW004 SCT100 11/11 Q0999=
200605222220 METAR ESMX 222220Z 15004KT 9999 SCT040 12/11 Q0999=
200605222150 METAR ESMX 222150Z 16006KT 120V190 9999 BKN040 12/11 Q0999=
200605222120 METAR ESMX 222120Z 16005KT 120V200 9999 BKN040 12/11 Q0999=
200605222050 METAR ESMX 222050Z 16005KT 9999 BKN035 12/11 Q1000=
200605222020 METAR ESMX 222020Z 15006KT 9999 BKN037 12/11 Q1000=
200605221950 METAR ESMX 221950Z 15005KT 110V180 9999 FEW012 SCT045 13/11 Q1000=
200605221920 METAR ESMX 221920Z 16005KT 140V200 9999 FEW010 BKN060 13/11 Q1000=
200605221850 METAR ESMX 221850Z 15007KT 130V190 9999 FEW009 13/12 Q1000=
200605221820 METAR ESMX 221820Z 17008KT 140V200 9999 FEW009 13/12 Q1000=
200605221750 METAR ESMX 221750Z 18009KT 9999 FEW008 SCT011 BKN014 13/12 Q1000=
200605221720 METAR ESMX 221720Z 17010KT 140V200 9999 FEW007 SCT010 BKN012 13/12 Q1000=
200605221650 METAR ESMX 221650Z 18009KT 9999 FEW007 BKN009 13/12 Q1000=
200605221620 METAR ESMX 221620Z 16007KT 100V210 9999 FEW006 SCT007 BKN009 13/12 Q1000=
200605221550 METAR ESMX 221550Z 14005KT 080V190 9999 FEW005 BKN055 13/12 Q1000 RESHRA=
200605221520 METAR ESMX 221520Z 13007KT 080V180 9000 -SHRA FEW005 SCT025CB 12/11 Q1001=
200605221450 METAR ESMX 221450Z 16009KT 120V200 6000 SHRA FEW007 SCT013CB BKN016 12/12 Q1002=
200605221420 METAR ESMX 221420Z 19009KT 6000 SHRA FEW018 SCT025CB BKN030 14/12 Q1002=
200605221350 METAR ESMX 221350Z 19010KT 9999 -SHRA FEW025 SCT030CB BKN040 15/12 Q1001=
200605221320 METAR ESMX 221320Z 18014KT 150V220 9999 -SHRA FEW025 BKN035CB 16/10 Q1001=
200605221250 METAR ESMX 221250Z 16013KT 120V200 9999 FEW027 BKN200 17/10 Q1001=
200605221220 METAR ESMX 221220Z 15013G23KT 120V200 9999 FEW032 SCT040 18/10 Q1001=
200605221150 METAR ESMX 221150Z 15011KT 120V190 9999 FEW030 SCT035 17/10 Q1001=
200605221120 METAR ESMX 221120Z 15012KT 100V190 9999 SCT028 17/10 Q1002=
200605221050 METAR ESMX 221050Z 15011G21KT 120V190 9999 FEW031 16/09 Q1002=
200605221020 METAR ESMX 221020Z 16010KT 100V200 9999 SCT025 15/09 Q1002=
200605220950 METAR ESMX 220950Z 15013KT 110V190 9999 FEW040 15/09 Q1003=
200605220920 METAR ESMX 220920Z 18013KT 140V210 9999 FEW022 SCT075 15/10 Q1003=
200605220850 METAR ESMX 220850Z 17010KT 130V200 9999 SCT023 15/09 Q1003=
200605220820 METAR ESMX 220820Z 17008KT 140V200 CAVOK 13/08 Q1002=
200605220750 METAR ESMX 220750Z 15006KT 110V190 9999 FEW020 BKN200 12/08 Q1002=
200605220720 METAR ESMX 220720Z 12006KT 080V160 CAVOK 11/08 Q1002=
200605220650 METAR ESMX 220650Z 16006KT CAVOK 11/08 Q1003=
200605220620 METAR ESMX 220620Z 16006KT CAVOK 10/07 Q1003=
200605220550 METAR ESMX 220550Z 17005KT CAVOK 09/07 Q1003=
200605220520 METAR ESMX 220520Z 17004KT CAVOK 09/07 Q1003=
200605220450 METAR ESMX 220450Z 19005KT CAVOK 08/07 Q1004=
200605220420 METAR ESMX 220420Z 18003KT CAVOK 08/07 Q1003=
200605220350 METAR ESMX 220350Z 20006KT 9999 FEW010 07/07 Q1004=
200605220320 METAR ESMX 220320Z AUTO 17005KT 9000NDV R01/P1500D R19/P1500U FEW010/// SCT013/// 07/06 Q1003=
200605220250 METAR ESMX 220250Z AUTO 18005KT 9999NDV R01/P1500U R19/P1500U BR BKN014/// 06/05 Q1003=
200605220220 METAR ESMX 220220Z AUTO 17004KT 7000NDV R01/P1500U R19/P1500U BR NCD 05/05 Q1003=
200605220150 METAR ESMX 220150Z AUTO 18003KT 9999NDV R01/P1500N R19/P1500N NCD 07/06 Q1003=
200605220120 METAR ESMX 220120Z AUTO 24003KT 9999NDV R01/P1500N R19/P1500N NCD 07/06 Q1003=
200605220050 METAR ESMX 220050Z AUTO 22005KT 9999NDV R01/P1500N R19/P1500N NCD 08/07 Q1003=
200605220020 METAR ESMX 220020Z AUTO 25004KT 9999NDV R01/P1500N R19/P1500N NCD 08/07 Q1002=
200605212350 METAR ESMX 212350Z 24004KT 9999 FEW014 SCT034 08/07 Q1002=
200605212320 METAR ESMX 212320Z 26006KT 230V290 9999 FEW014 OVC033 09/07 Q1002=
200605212250 METAR ESMX 212250Z 24007KT 9999 FEW013 OVC032 10/08 Q1002=
200605212220 METAR ESMX 212220Z 27008KT 9999 FEW012 SCT015 BKN018 10/08 Q1001=
200605212150 METAR ESMX 212150Z 26009KT 210V300 9999 FEW006 OVC010 10/08 Q1001=
200605212120 METAR ESMX 212120Z 25009KT 210V280 7000 BR BKN006 OVC010 11/09 Q1001=
200605212050 METAR ESMX 212050Z 25007KT 220V290 9999 FEW010 BKN013 OVC018 11/10 Q1000=
200605212020 METAR ESMX 212020Z 25007KT 230V290 9999 FEW010 SCT013 BKN015 11/09 Q1000=
200605211950 METAR ESMX 211950Z 25007KT 9999 FEW010 SCT013 BKN015 11/10 Q0999=
200605211920 METAR ESMX 211920Z 26006KT 9999 FEW012 SCT015 BKN030 11/09 Q0999=
200605211850 METAR ESMX 211850Z 25008KT 9999 FEW013 BKN024 OVC030 12/10 Q0998=
200605211820 METAR ESMX 211820Z 25007KT 220V280 9999 FEW013 SCT018 OVC022 12/10 Q0998=
200605211620 METAR ESMX 211620Z 25009KT 210V280 9999 FEW013 BKN017 OVC022 12/10 Q0996=
200605211550 METAR ESMX 211550Z 24010KT 200V270 9999 FEW014 SCT019 BKN031 13/11 Q0996=
200605211520 METAR ESMX 211520Z 26010KT 230V290 9999 FEW018 SCT026 13/10 Q0995=
200605211450 METAR ESMX 211450Z 25009KT 200V270 9999 FEW011 SCT020 BKN090 13/11 Q0995=
200605211420 METAR ESMX 211420Z 24009KT 9999 FEW010 SCT017 BKN027 12/11 Q0994=
200605211350 METAR ESMX 211350Z 23007KT 190V270 9999 FEW008 SCT017 BKN023 12/11 Q0994=
200605211320 METAR ESMX 211320Z 22008KT 190V250 9999 FEW006 SCT010 BKN014 12/11 Q0994 RERA REDZ=
200605211250 METAR ESMX 211250Z 25009KT 210V280 9999 BR FEW006 SCT016 BKN089 12/11 Q0994 RERA REDZ=
200605211220 METAR ESMX 211220Z 25009KT 200V280 6000 -RA FEW007 SCT010 BKN018 11/10 Q0993 REDZ=
200605211150 METAR ESMX 211150Z 24005KT 210V280 7000 -RA FEW007 BKN011 OVC015 12/10 Q0993 REDZ=
200605211120 METAR ESMX 211120Z 23004KT 200V260 9999 DZ FEW013 SCT016 BKN032 13/10 Q0993 RERA=
200605211050 METAR ESMX 211050Z VRB02KT 9999 FEW015 BKN032 BKN041 13/10 Q0992=
200605211020 METAR ESMX 211020Z AUTO 26004KT 9999NDV R01/P1500U R19/P1500D FEW031/// OVC035/// 12/09 Q0992 RERA=
200605210950 METAR ESMX 210950Z AUTO VRB02KT 9999NDV R01/P1500D R19/P1500N OVC031/// 12/09 Q0992=
200605210920 METAR ESMX 210920Z AUTO 00000KT 9999NDV R01/P1500U R19/P1500U FEW011/// OVC033/// 12/09 Q0991=
200605210850 METAR ESMX 210850Z AUTO VRB02KT 9999NDV R01/P1500U R19/P1500U FEW012/// BKN041/// BKN050/// 12/10 Q0991=
200605210820 METAR ESMX 210820Z AUTO VRB01KT 9999NDV R01/P1500D R19/P1500U FEW030/// OVC040/// 12/09 Q0991=
200605210750 METAR ESMX 210750Z AUTO 04003KT 010V080 9999NDV R01/P1500D R19/P1500D FEW012/// BKN017/// OVC029/// 12/10 Q0990=
200605210720 METAR ESMX 210720Z AUTO VRB02KT 9999NDV R01/P1500D R19/P1500U FEW013/// OVC064/// 11/10 Q0990=
200605210650 METAR ESMX 210650Z AUTO 00000KT 9999NDV R01/P1500U R19/P1500D FEW004/// SCT005/// BKN021/// 11/10 Q0990=
200605210620 METAR ESMX 210620Z AUTO 03003KT 350V060 9999NDV R01/P1500U R19/P1500U FEW004/// BKN017/// OVC020/// 10/10 Q0990=
200605210550 METAR ESMX 210550Z AUTO 02003KT 350V060 7000NDV R01/P1500U R19/P1500U BR FEW003/// SCT004/// BKN056/// 10/09 Q0989 REDZ=
200605210520 METAR ESMX 210520Z AUTO VRB02KT 6000NDV R01/P1500N R19/P1500U -DZ FEW017/// 09/09 Q0989=
200605210450 METAR ESMX 210450Z AUTO 05003KT 020V080 6000NDV R01/P1500N R19/P1500U DZ FEW003/// SCT006/// BKN015/// 09/09 Q0989 RERA=
200605210420 METAR ESMX 210420Z AUTO 06005KT 020V090 6000NDV R01/P1500D R19/P1500U -RA SCT003/// BKN049/// 09/09 Q0989 REDZ=
200605210350 METAR ESMX 210350Z AUTO 04003KT 6000NDV R01/P1500D R19/P1500D DZ BKN043/// 09/09 Q0989 RERA=
200605210320 METAR ESMX 210320Z AUTO 07003KT 020V100 6000NDV R01/P1500D R19/P1500U DZ FEW038/// SCT044/// 09/09 Q0989 RERA=
200605210250 METAR ESMX 210250Z AUTO 07005KT 030V110 5000NDV R01/P1500N R19/P1500N -RA FEW003/// SCT020/// 09/09 Q0989 REDZ=
200605210220 METAR ESMX 210220Z AUTO 05005KT 010V080 6000NDV R01/P1500N R19/P1500N -RA FEW017/// 09/09 Q0989 REDZ=
200605210150 METAR ESMX 210150Z AUTO 06004KT 030V090 5000NDV R01/P1500N R19/P1500N -RA FEW027/// SCT044/// 09/09 Q0989=
200605210120 METAR ESMX 210120Z AUTO 07003KT 030V100 6000NDV R01/P1500N R19/P1500N -RA FEW034/// SCT045/// 09/09 Q0989 REDZ=
200605210050 METAR ESMX 210050Z AUTO 06003KT 010V100 8000NDV R01/P1500N R19/P1500N -RA FEW004/// SCT027/// BKN036/// 09/09 Q0989=
200605210020 METAR ESMX 210020Z AUTO 08003KT 040V160 8000NDV R01/P1500N R19/P1500N -RA FEW005/// SCT036/// BKN046/// 09/09 Q0990 REDZ=
200605202350 METAR ESMX 202350Z AUTO 10003KT 060V140 9000NDV R01/P1500N R19/P1500N -RA FEW025/// BKN050/// 10/09 Q0990 REDZ=
200605202320 METAR ESMX 202320Z AUTO 11003KT 060V140 9999NDV R01/P1500N R19/P1500N -RA SCT049/// 10/09 Q0991 REDZ=
200605202250 METAR ESMX 202250Z AUTO 12004KT 070V160 9999NDV R01/P1500N R19/P1500N DZ FEW048/// SCT058/// 10/09 Q0991 RERA=
200605202220 METAR ESMX 202220Z AUTO 10003KT 060V160 9999NDV R01/P1500N R19/P1500N UP FEW055/// 10/09 Q0991 REDZ=
200605202150 METAR ESMX 202150Z AUTO 13003KT 090V170 9999NDV R01/P1500N R19/P1500N -DZ FEW056/// 11/09 Q0991 RERA=
200605202120 METAR ESMX 202120Z AUTO 14005KT 110V170 9999NDV R01/P1500N R19/P1500N NCD 11/09 Q0992=
200605202050 METAR ESMX 202050Z AUTO 14006KT 100V170 9999NDV R01/P1500N R19/P1500N FEW044/// 11/09 Q0992=
200605202020 METAR ESMX 202020Z AUTO 13003KT 080V170 9999NDV R01/P1500N R19/P1500N FEW045/// SCT056/// 11/09 Q0992=
200605201950 METAR ESMX 201950Z AUTO 09003KT 060V130 9999NDV R01/P1500N R19/P1500N NCD 11/10 Q0992=
200605201920 METAR ESMX 201920Z AUTO 12003KT 080V150 9999NDV R01/P1500D R19/P1500U FEW110/// 11/10 Q0993=
200605201850 METAR ESMX 201850Z AUTO 13003KT 080V170 9999NDV R01/P1500U R19/P1500D FEW040/// SCT048/// BKN066/// 11/10 Q0993 REDZ=
200605201820 METAR ESMX 201820Z AUTO 13003KT 100V180 9999NDV R01/P1500U R19/P1500D DZ FEW039/// 12/10 Q0993 RERA=
200605201750 METAR ESMX 201750Z AUTO 16004KT 9999NDV R01/P1500U R19/P1500U -DZ BKN035/// BKN057/// 12/10 Q0993 RERA=
200605201720 METAR ESMX 201720Z AUTO 16007KT 9999NDV R01/P1500U R19/P1500U -RA FEW027/// SCT042/// BKN048/// 12/10 Q0994 REDZ=
200605201650 METAR ESMX 201650Z AUTO 17007KT 140V210 9999NDV R01/P1500D R19/P1500D -RA FEW022/// SCT067/// 13/10 Q0994 REDZ=
200605201620 METAR ESMX 201620Z AUTO 16007KT 130V200 9999NDV R01/P1500D R19/P1500D FEW038/// BKN048/// BKN062/// 13/10 Q0994 REDZ=
200605201550 METAR ESMX 201550Z AUTO 18010KT 9999NDV R01/P1500U R19/P1500U -DZ FEW023/// SCT035/// BKN046/// 13/10 Q0994 RERA=
200605201520 METAR ESMX 201520Z AUTO 19009KT 9999NDV R01/P1500U R19/P1500D FEW038/// SCT048/// OVC061/// 14/10 Q0994 RERA REDZ=
200605201450 METAR ESMX 201450Z AUTO 20011KT 9999NDV R01/P1500D R19/P1500U FEW019/// SCT045/// OVC050/// 14/10 Q0994=
200605201420 METAR ESMX 201420Z AUTO 20014KT 9999NDV R01/P1500D R19/P1500U FEW018/// SCT027/// BKN053/// 14/10 Q0995=
200605201350 METAR ESMX 201350Z AUTO 22009KT 200V260 9999NDV R01/P1500D R19/P1500D FEW024/// SCT086/// 13/10 Q0995 RERA=
200605201320 METAR ESMX 201320Z AUTO 20014KT 9999NDV R01/P1500D R19/P1500D RA FEW022/// SCT041/// BKN053/// 12/10 Q0995=
200605201250 METAR ESMX 201250Z AUTO 20012KT 9999NDV R01/P1500D R19/P1500U FEW026/// 15/09 Q0995=
200605201220 METAR ESMX 201220Z AUTO 21010KT 190V250 9999NDV R01/P1500D R19/P1500D FEW017/// BKN055/// 13/10 Q0995 RERA=
200605201150 METAR ESMX 201150Z AUTO 20009KT 9999NDV R01/P1500D R19/P1500D FEW022/// SCT067/// 13/10 Q0995=
200605201120 METAR ESMX 201120Z AUTO 21011KT 190V250 9999NDV R01/P1500D R19/P1500D FEW016/// SCT058/// 14/10 Q0995=
200605201050 METAR ESMX 201050Z AUTO 23010KT 9999NDV R01/P1500U R19/P1500U FEW015/// SCT042/// BKN051/// 13/11 Q0996 REDZ RERA=
200605201020 METAR ESMX 201020Z AUTO 22011KT 180V250 9999NDV R01/P1500D R19/P1500D FEW008/// SCT012/// BKN018/// 13/11 Q0996=
200605200950 METAR ESMX 200950Z AUTO 22007KT 9999NDV R01/P1500D R19/P1500D -RA FEW008/// SCT012/// BKN015/// 12/11 Q0996=
200605200920 METAR ESMX 200920Z AUTO 21007KT 9999NDV R01/P1500U R19/P1500N DZ FEW007/// SCT010/// BKN017/// 11/10 Q0996 RERA=
200605200850 METAR ESMX 200850Z AUTO 20007KT 7000NDV R01/P1500U R19/P1500U -RA FEW006/// SCT009/// BKN012/// 11/10 Q0996 REDZ=
200605200820 METAR ESMX 200820Z AUTO 21007KT 170V230 9000NDV R01/P1500D R19/P1500D -DZ FEW006/// SCT032/// BKN039/// 10/09 Q0995 RERA=
200605200750 METAR ESMX 200750Z AUTO 22006KT 9999NDV R01/P1500U R19/P1500D -RA FEW017/// SCT023/// BKN028/// 10/09 Q0996 REDZ=
200605200720 METAR ESMX 200720Z AUTO 20008KT 4200NDV R01/P1500D R19/P1500U -RA FEW007/// BKN026/// 10/09 Q0995 REDZ=
200605200650 METAR ESMX 200650Z AUTO 21008KT 9000NDV R01/P1500U R19/P1500U -DZ FEW008/// SCT013/// BKN021/// 10/09 Q0995 RERA=
200605200620 METAR ESMX 200620Z AUTO 21010KT 9999NDV R01/P1500D R19/P1500D -RA FEW010/// SCT014/// BKN040/// 10/09 Q0995=
200605200550 METAR ESMX 200550Z AUTO 20010KT 9999NDV R01/P1500D R19/P1500D FEW008/// SCT009/// BKN013/// 11/09 Q0995=
200605200520 METAR ESMX 200520Z AUTO 21009KT 9999NDV R01/P1500D R19/P1500U FEW008/// SCT011/// BKN055/// 10/09 Q0995=
200605200450 METAR ESMX 200450Z AUTO 22007KT 9999NDV R01/P1500U R19/P1500D FEW008/// SCT012/// OVC055/// 10/08 Q0995=
200605200420 METAR ESMX 200420Z AUTO 22008KT 9999NDV R01/P1500U R19/P1500D FEW007/// BKN012/// OVC021/// 09/08 Q0995=
200605200350 METAR ESMX 200350Z AUTO 21008KT 9999NDV R01/P1500U R19/P1500U FEW006/// SCT007/// BKN010/// 09/08 Q0995 RERA REDZ=
200605200320 METAR ESMX 200320Z AUTO 23008KT 9999NDV R01/P1500U R19/P1500D FEW007/// BKN010/// OVC047/// 09/08 Q0995=
200605200250 METAR ESMX 200250Z AUTO 22009KT 180V250 9999NDV R01/P1500D R19/P1500D FEW008/// BKN011/// OVC017/// 09/08 Q0995=
200605200220 METAR ESMX 200220Z AUTO 23010KT 200V260 9999NDV R01/P1500N R19/P1500N -DZ FEW008/// BKN011/// BKN047/// 10/09 Q0994 RERA=
200605200150 METAR ESMX 200150Z AUTO 22007KT 9999NDV R01/P1500N R19/P1500N FEW005/// SCT008/// BKN009/// 10/09 Q0994 RERA REDZ=
200605200120 METAR ESMX 200120Z AUTO 23009KT 200V260 9999NDV R01/P1500N R19/P1500N FEW006/// SCT011/// BKN014/// 10/09 Q0994 RERA=
200605200050 METAR ESMX 200050Z AUTO 22009KT 7000NDV R01/P1500N R19/P1500N -RA FEW006/// SCT009/// BKN011/// 10/10 Q0994 REDZ=
200605200020 METAR ESMX 200020Z AUTO 19009KT 6000NDV R01/P1500N R19/P1500N -RA FEW005/// SCT009/// BKN015/// 10/10 Q0994=
200605192350 METAR ESMX 192350Z AUTO 17008KT 8000NDV R01/P1500N R19/P1500N -RA BKN005/// OVC008/// 10/10 Q0994 REDZ=
200605192320 METAR ESMX 192320Z AUTO 17007KT 8000NDV R01/P1500N R19/P1500N DZ FEW003/// SCT004/// BKN006/// 10/10 Q0994 RERA=
200605192250 METAR ESMX 192250Z AUTO 16007KT 3400NDV R01/P1500N R19/P1500N RA OVC003/// 10/09 Q0995=
200605192220 METAR ESMX 192220Z AUTO 16007KT 120V180 4100NDV R01/P1500N R19/P1500N -DZ FEW003/// BKN004/// OVC006/// 10/09 Q0995 RERA=
200605192150 METAR ESMX 192150Z AUTO 16005KT 3300NDV R01/P1500N R19/P1500N BR FEW004/// SCT007/// BKN008/// 10/10 Q0995 RERA REDZ=
200605192120 METAR ESMX 192120Z AUTO 16005KT 4500NDV R01/P1500N R19/P1500N BR SCT004/// BKN007/// OVC009/// 10/10 Q0996 RERA REDZ=
200605192050 METAR ESMX 192050Z AUTO 13005KT 070V170 5000NDV R01/P1500N R19/P1500N BR OVC005/// 10/09 Q0996 REDZ RERA=
200605192020 METAR ESMX 192020Z AUTO 14007KT 100V170 5000NDV R01/P1500N R19/P1500N DZ SCT005/// BKN007/// OVC048/// 10/09 Q0996 RERA=
200605191950 METAR ESMX 191950Z AUTO 16007KT 8000NDV R01/P1500D R19/P1500D BR FEW005/// SCT007/// BKN009/// 10/09 Q0997=
200605191920 METAR ESMX 191920Z AUTO 15006KT 110V190 9999NDV R01/P1500D R19/P1500D FEW006/// SCT008/// BKN009/// 10/09 Q0997=
200605191850 METAR ESMX 191850Z AUTO 16006KT 9999NDV R01/P1500D R19/P1500U FEW007/// SCT010/// BKN012/// 10/09 Q0997=
200605191820 METAR ESMX 191820Z AUTO 15007KT 110V190 9999NDV R01/P1500D R19/P1500D FEW006/// SCT009/// BKN011/// 10/09 Q0997=
200605191750 METAR ESMX 191750Z AUTO 16007KT 120V200 9999NDV R01/P1500N R19/P1500N FEW005/// SCT007/// BKN009/// 10/09 Q0997=
200605191720 METAR ESMX 191720Z 15007KT 110V190 9000 FEW006 BKN009 OVC014 10/09 Q0998=
200605191650 METAR ESMX 191650Z 17007KT 9999 FEW007 SCT011 BKN021 11/10 Q0998 REDZ REUP=
200605191620 METAR ESMX 191620Z 16006KT 9999 DZ FEW008 SCT016 11/10 Q0998 RERA=
200605191550 METAR ESMX 191550Z 15006KT 9999 -RA FEW008 11/10 Q0998 REDZ=
200605191520 METAR ESMX 191520Z 17006KT 140V210 9999 -RA FEW009 SCT082 11/10 Q0999=
200605191450 METAR ESMX 191450Z 20007KT 9999 -RA FEW023 SCT049 12/10 Q0999=
200605191420 METAR ESMX 191420Z 20007KT 9999 DZ FEW023 SCT050 12/10 Q0999 RERA=
200605191350 METAR ESMX 191350Z 17011KT 120V210 9999 FEW016 BKN020 OVC028 13/10 Q0999=
200605191320 METAR ESMX 191320Z 17008KT 140V210 9999 FEW017 SCT028 BKN039 13/10 Q0999=
200605191250 METAR ESMX 191250Z 16009KT 140V200 9999 FEW035 SCT055 BKN066 12/10 Q1000=
200605191220 METAR ESMX 191220Z 18008KT 150V210 9999 FEW048 SCT067 12/10 Q1000 REDZ=
200605191150 METAR ESMX 191150Z 16008KT 120V200 9000 -DZ FEW012 SCT044 12/10 Q1000 RERA=
200605191120 METAR ESMX 191120Z 18008KT 9999 FEW016 SCT021 BKN028 13/10 Q1001 RERA=
200605191050 METAR ESMX 191050Z 19009KT 140V210 9999 FEW016 SCT042 BKN082 14/10 Q1001=
200605191020 METAR ESMX 191020Z 20008KT 170V230 9999 FEW014 SCT019 BKN074 13/10 Q1001=
200605190950 METAR ESMX 190950Z 18008KT 150V210 9999 R01/P1500U R19/P1500U FEW014 SCT018 BKN024 12/10 Q1001 RERA REDZ=
200605190920 METAR ESMX 190920Z 18007KT 120V200 9999 -RA FEW014 SCT018 BKN022 12/09 Q1002=
200605190850 METAR ESMX 190850Z 19008KT 160V230 9999 FEW013 SCT022 BKN027 13/09 Q1002=
200605190820 METAR ESMX 190820Z 19008KT 9999 SCT013 BKN021 BKN029 12/09 Q1002=
200605190750 METAR ESMX 190750Z 20005KT 9999 BKN012 12/09 Q1002=
200605190720 METAR ESMX 190720Z 22005KT 190V260 9999 OVC011 11/09 Q1002=
200605190650 METAR ESMX 190650Z 24004KT 9999 FEW010 OVC012 10/08 Q1002=
200605190620 METAR ESMX 190620Z 23003KT 200V280 9999 BR FEW008 OVC012 10/09 Q1002=
200605190550 METAR ESMX 190550Z 23005KT 200V260 9000 BR FEW004 SCT006 BKN008 10/09 Q1002=
200605190520 METAR ESMX 190520Z 22004KT 6000 BR FEW005 OVC012 10/09 Q1002=
200605190450 METAR ESMX 190450Z 22004KT 6000 BR OVC010 10/09 Q1002=
200605190420 METAR ESMX 190420Z 23004KT 6000 BR FEW004 BKN012 09/09 Q1002=
200605190350 METAR ESMX 190350Z 25004KT 5000 BR FEW001 SCT002 BKN005 09/09 Q1002=
200605190320 METAR ESMX 190320Z AUTO 21004KT 170V240 0550NDV R01/1000VP1500U R19/1100N FG VV001 09/08 Q1002=
200605190250 METAR ESMX 190250Z AUTO 19003KT 0550NDV R01/P1500D R19/P1500N FG VV002 08/08 Q1003=
200605190220 METAR ESMX 190220Z AUTO 19002KT 2900NDV R01/P1500N R19/P1500N BR FEW001/// OVC003/// 08/08 Q1003=
200605190150 METAR ESMX 190150Z AUTO 20003KT 1700NDV R01/P1500N R19/P1500N BR FEW001/// SCT005/// BKN007/// 08/08 Q1003=
200605190120 METAR ESMX 190120Z AUTO 19002KT 1800NDV R01/P1500N R19/P1500N BR SCT005/// BKN007/// OVC010/// 08/08 Q1003=
200605190050 METAR ESMX 190050Z AUTO 21002KT 4600NDV R01/P1500N R19/P1500N BR OVC005/// 08/08 Q1003=
200605190020 METAR ESMX 190020Z 22002KT 9999 FEW003 SCT008 BKN013 08/08 Q1003=
200605182350 METAR ESMX 182350Z 24003KT 9999 SCT008 BKN010 08/08 Q1003=
200605182320 METAR ESMX 182320Z 00000KT 9999 FEW009 OVC011 08/08 Q1003=
200605182250 METAR ESMX 182250Z 25002KT 9999 BKN009 OVC014 08/07 Q1003=
200605182220 METAR ESMX 182220Z 00000KT 9999 FEW004 SCT006 OVC010 08/08 Q1003=
200605182150 METAR ESMX 182150Z VRB01KT 9999 BKN005 08/08 Q1003=
200605182120 METAR ESMX 182120Z 01002KT 9999 OVC006 08/08 Q1002=
200605182050 METAR ESMX 182050Z 36002KT 5000 BR OVC005 08/08 Q1002=
200605182020 METAR ESMX 182020Z 02003KT 6000 BR FEW003 SCT005 OVC008 08/08 Q1002=
200605181950 METAR ESMX 181950Z 01003KT 5000 -DZ BR FEW007 BKN008 BKN010 08/08 Q1002=
200605181920 METAR ESMX 181920Z 03003KT 5000 -DZ SCT003 OVC006 08/08 Q1002=
200605181850 METAR ESMX 181850Z 04003KT 5000 DZ SCT004 OVC005 08/08 Q1002=
200605181820 METAR ESMX 181820Z VRB02KT 5000 DZ FEW004 OVC005 08/08 Q1002=
200605181750 METAR ESMX 181750Z 08003KT 5000 RA SCT004 BKN005 08/08 Q1002=
200605181720 METAR ESMX 181720Z 06005KT 010V120 8000 -RA FEW005 BKN007 OVC009 08/08 Q1002=
200605181650 METAR ESMX 181650Z 07005KT 030V150 8000 -RA SCT005 BKN007 08/08 Q1003=
200605181620 METAR ESMX 181620Z 08006KT 040V140 9999 -RA SCT005 BKN008 08/08 Q1003=
200605181550 METAR ESMX 181550Z 09006KT 030V170 7000 -RA SCT003 BKN007 08/08 Q1004=
200605181520 METAR ESMX 181520Z 09006KT 040V160 6000 -RA SCT004 BKN008 08/08 Q1004=
200605181450 METAR ESMX 181450Z 10005KT 060V160 5000 -RA SCT005 BKN010 09/08 Q1005=
200605181420 METAR ESMX 181420Z 11005KT 050V150 6000 -RA SCT007 BKN012 08/08 Q1006=
200605181350 METAR ESMX 181350Z 11004KT 060V150 5000 -RA SCT007 BKN010 08/07 Q1007=
200605181320 METAR ESMX 181320Z 12005KT 060V170 6000 -RA FEW008 BKN012 09/07 Q1008 REDZ=
200605181250 METAR ESMX 181250Z 12005KT 080V170 8000 -RA OVC010 09/07 Q1008 REDZ=
200605181220 METAR ESMX 181220Z 14005KT 100V170 9999 -RA OVC011 09/06 Q1009=
200605181150 METAR ESMX 181150Z 13005KT 050V210 9999 -RA OVC012 09/06 Q1009=
200605181120 METAR ESMX 181120Z 12005KT 070V170 9999 OVC010 09/06 Q1009=
200605181050 METAR ESMX 181050Z 15006KT 090V180 9999 SCT010 BKN013 08/06 Q1010=
200605181020 METAR ESMX 181020Z 16009KT 140V200 9999 BKN013 08/06 Q1010=
200605180950 METAR ESMX 180950Z 16009KT 110V200 9999 BKN014 09/06 Q1011=
200605180920 METAR ESMX 180920Z 15007KT 100V200 9999 BKN011 09/06 Q1011=
200605180850 METAR ESMX 180850Z 15007KT 090V200 9999 FEW007 BKN009 OVC013 08/06 Q1011=
200605180820 METAR ESMX 180820Z 16008KT 120V200 9999 OVC007 08/06 Q1012=
200605180750 METAR ESMX 180750Z 15007KT 100V200 9999 OVC006 07/06 Q1012=
200605180720 METAR ESMX 180720Z 16007KT 9999 OVC006 07/06 Q1013=
200605180650 METAR ESMX 180650Z 17006KT 110V210 9999 OVC008 08/06 Q1013=
200605180620 METAR ESMX 180620Z 15005KT 110V180 9999 OVC006 08/06 Q1013=
200605180550 METAR ESMX 180550Z 16005KT 120V200 9000 BR OVC006 07/06 Q1013=
200605180520 METAR ESMX 180520Z 17006KT 140V200 5000 BR OVC004 07/06 Q1014=
200605180450 METAR ESMX 180450Z 16007KT 2600 BR OVC002 06/06 Q1014=
200605180420 METAR ESMX 180420Z 18006KT 140V210 1000 R01/P1500U R19/P1500D FG VV002 06/06 Q1014=
200605180350 METAR ESMX 180350Z 16005KT 120V190 0900 R01/1100N R19/P1500N FG VV002 06/06 Q1014=
200605180250 METAR ESMX 180250Z AUTO 17005KT 140V210 1100NDV R01/P1500N R19/P1500D BR OVC001/// 06/05 Q1015=
200605180220 METAR ESMX 180220Z AUTO 16006KT 3900NDV R01/P1500N R19/P1500N BR OVC002/// 06/05 Q1015=
200605180150 METAR ESMX 180150Z AUTO 15005KT 120V190 5000NDV R01/P1500N R19/P1500N BR BKN003/// BKN030/// 06/05 Q1015=
200605180120 METAR ESMX 180120Z AUTO 16006KT 6000NDV R01/P1500N R19/P1500N BR BKN003/// 06/05 Q1016=
200605180050 METAR ESMX 180050Z AUTO 16006KT 7000NDV R01/P1500N R19/P1500N BR BKN003/// OVC031/// 06/05 Q1016=
200605180020 METAR ESMX 180020Z AUTO 17005KT 9999NDV R01/P1500N R19/P1500N FEW005/// SCT032/// 06/05 Q1016=
200605172350 METAR ESMX 172350Z 16004KT 130V200 9999 SCT033 06/04 Q1017=
200605172320 METAR ESMX 172320Z 17005KT 9999 BKN034 06/04 Q1017=
200605172250 METAR ESMX 172250Z 16006KT 9999 SCT018 BKN036 07/04 Q1017=
200605172220 METAR ESMX 172220Z 16005KT 9999 FEW018 SCT023 07/04 Q1017=
200605172150 METAR ESMX 172150Z 17005KT 9999 FEW026 07/04 Q1017=
200605172120 METAR ESMX 172120Z 17007KT 140V200 9999 BKN027 08/04 Q1017=
200605172050 METAR ESMX 172050Z 17007KT 9999 BKN028 09/04 Q1017=
200605172020 METAR ESMX 172020Z 17008KT 9999 BKN030 09/04 Q1017=
200605171950 METAR ESMX 171950Z 18008KT CAVOK 10/04 Q1017=
200605171920 METAR ESMX 171920Z 18006KT CAVOK 11/04 Q1017=
200605171850 METAR ESMX 171850Z 18006KT CAVOK 11/04 Q1017=
200605171820 METAR ESMX 171820Z 19006KT 9999 FEW040 BKN055 12/05 Q1017=
200605171750 METAR ESMX 171750Z 18008KT 140V210 9999 FEW040 BKN050 12/05 Q1017=
200605171720 METAR ESMX 171720Z 19011KT CAVOK 13/05 Q1017=
200605171650 METAR ESMX 171650Z 18012KT 9999 FEW038 SCT048 13/05 Q1017=
200605171620 METAR ESMX 171620Z 18010KT 140V220 9999 FEW038 SCT045 14/05 Q1017=
200605171550 METAR ESMX 171550Z 18011KT 150V210 9999 SCT045 15/04 Q1017=
200605171520 METAR ESMX 171520Z 16010KT 9999 SCT042 BKN067 14/04 Q1017=
200605171450 METAR ESMX 171450Z 17008KT 120V190 9999 FEW044 BKN051 14/04 Q1017=
200605171420 METAR ESMX 171420Z 18009KT 140V200 9999 SCT040 BKN050 14/04 Q1017=
200605171350 METAR ESMX 171350Z 19011KT 110V210 9999 BKN042 14/04 Q1017=
200605171320 METAR ESMX 171320Z 19007KT 150V220 9999 BKN042 14/03 Q1017=
200605171250 METAR ESMX 171250Z 19008KT 160V240 9999 BKN040 13/04 Q1018=
200605171220 METAR ESMX 171220Z 17008KT 120V210 9999 SCT030 BKN070 14/04 Q1017=
200605171150 METAR ESMX 171150Z 17008KT 120V200 9999 FEW035 BKN075 14/03 Q1017=
200605171120 METAR ESMX 171120Z 17008KT 120V200 9999 BKN035 12/03 Q1017=
200605171050 METAR ESMX 171050Z 16007KT 110V210 9999 BKN035 12/03 Q1017=
200605171020 METAR ESMX 171020Z 17007KT 120V210 9999 SCT033 12/04 Q1018=
200605170950 METAR ESMX 170950Z 15008KT 110V190 9999 SCT030 SCT080 12/03 Q1018=
200605170920 METAR ESMX 170920Z 15008KT 110V200 CAVOK 11/04 Q1018=
200605170850 METAR ESMX 170850Z 13005KT 070V190 9999 SCT020 BKN050 11/03 Q1017=
200605170820 METAR ESMX 170820Z 08004KT 010V140 9999 SCT020 BKN100 10/03 Q1017=
200605170750 METAR ESMX 170750Z 08004KT 030V140 CAVOK 10/04 Q1017=
200605170720 METAR ESMX 170720Z 05005KT 350V100 CAVOK 09/03 Q1017=
200605170650 METAR ESMX 170650Z 06004KT 360V110 CAVOK 09/02 Q1017=
200605170620 METAR ESMX 170620Z 05005KT 020V130 9999 FEW007 BKN100 07/03 Q1017=
200605170550 METAR ESMX 170550Z 05005KT 360V090 9999 FEW005 BKN100 07/04 Q1017=
200605170520 METAR ESMX 170520Z 05005KT 020V100 9999 FEW004 SCT080 06/04 Q1017=
200605170450 METAR ESMX 170450Z 03004KT 330V060 9999 FEW006 SCT080 05/04 Q1016=
200605170420 METAR ESMX 170420Z 07004KT 360V150 CAVOK 05/04 Q1016=
200605170350 METAR ESMX 170350Z 10004KT 060V140 CAVOK 04/04 Q1016=
200605170320 METAR ESMX 170320Z AUTO 10004KT 060V140 9999NDV R01/P1500U R19/P1500D NCD 03/03 Q1016=
200605170250 METAR ESMX 170250Z AUTO 09003KT 040V120 9999NDV R01/P1500U R19/P1500D NCD 02/01 Q1016=
200605170220 METAR ESMX 170220Z AUTO VRB02KT 9999NDV R01/P1500D R19/P1500U FEW085/// M00/M01 Q1016=
200605170150 METAR ESMX 170150Z AUTO 36001KT 9999NDV R01/P1500N R19/P1500N FEW086/// M00/M01 Q1016=
200605170120 METAR ESMX 170120Z AUTO 08002KT 9999NDV R01/P1500N R19/P1500N NCD 01/01 Q1016=
200605170050 METAR ESMX 170050Z AUTO 00000KT 9999NDV R01/P1500N R19/P1500N NCD 01/01 Q1016=
200605170020 METAR ESMX 170020Z AUTO 00000KT 9999NDV R01/P1500N R19/P1500N NCD 02/01 Q1016=
200605162350 METAR ESMX 162350Z 00000KT CAVOK 02/01 Q1016=
200605162320 METAR ESMX 162320Z VRB02KT CAVOK 02/02 Q1016=
200605162250 METAR ESMX 162250Z 09001KT CAVOK 03/02 Q1016=
200605162220 METAR ESMX 162220Z VRB02KT CAVOK 04/03 Q1016=
200605162150 METAR ESMX 162150Z 11002KT CAVOK 05/03 Q1015=
200605162120 METAR ESMX 162120Z VRB02KT CAVOK 06/03 Q1015=
200605162050 METAR ESMX 162050Z 12003KT 080V160 CAVOK 07/03 Q1015=
200605162020 METAR ESMX 162020Z 12004KT 080V160 CAVOK 08/03 Q1015=
200605161950 METAR ESMX 161950Z 10004KT CAVOK 08/04 Q1015=
200605161920 METAR ESMX 161920Z 09003KT CAVOK 08/03 Q1015=
200605161850 METAR ESMX 161850Z 09003KT 050V130 CAVOK 09/04 Q1014=
200605161820 METAR ESMX 161820Z 11005KT 080V150 9999 FEW045 OVC054 09/04 Q1014=
200605161750 METAR ESMX 161750Z 09004KT 9999 SCT034 OVC041 09/04 Q1014=
200605161720 METAR ESMX 161720Z 10004KT 020V170 9999 FEW028 OVC032 10/04 Q1014=
200605161650 METAR ESMX 161650Z 08004KT 030V140 9999 FEW030 BKN040 10/04 Q1013=
200605161620 METAR ESMX 161620Z 11004KT 050V160 9999 BKN045 10/04 Q1013=
200605161550 METAR ESMX 161550Z 11004KT 070V160 9999 BKN035 10/04 Q1013=
200605161520 METAR ESMX 161520Z 06003KT 330V110 9999 FEW030 BKN035 10/04 Q1013=
200605161450 METAR ESMX 161450Z 09004KT 030V130 9999 SCT027 BKN035 10/04 Q1013=
200605161420 METAR ESMX 161420Z VRB04KT 9999 FEW025 BKN035 11/04 Q1013=
200605161350 METAR ESMX 161350Z 09004KT 060V160 9999 FEW026 BKN034 10/04 Q1013=
200605161320 METAR ESMX 161320Z 09004KT 030V170 9999 FEW025 SCT035 BKN040 10/05 Q1013=
200605161250 METAR ESMX 161250Z 04003KT 350V090 9999 -DZ FEW028 BKN035 10/05 Q1013=
200605161220 METAR ESMX 161220Z 06005KT 020V110 9999 -RA FEW020 BKN024 09/05 Q1013=
200605161150 METAR ESMX 161150Z 13005KT 050V170 9999 FEW025 SCT030 BKN038 10/04 Q1013=
200605161120 METAR ESMX 161120Z 09006KT 040V130 9999 FEW020 SCT024 BKN031 10/04 Q1013=
200605161050 METAR ESMX 161050Z 08004KT 350V140 9999 FEW020 BKN030 10/04 Q1013=
200605161020 METAR ESMX 161020Z 09004KT 020V160 9999 SCT025 BKN035 10/04 Q1013=
200605160950 METAR ESMX 160950Z 07006KT 020V110 9999 -SHRA FEW020 BKN035 09/04 Q1013=
200605160920 METAR ESMX 160920Z 08004KT 010V150 9999 FEW017 BKN032 09/04 Q1013=
200605160850 METAR ESMX 160850Z 06005KT 350V140 9999 FEW020 SCT034 BKN038 09/04 Q1013 RERA=
200605160820 METAR ESMX 160820Z 08004KT 010V140 9999 -RA FEW017 BKN029 08/05 Q1013=
200605160750 METAR ESMX 160750Z 06006KT 030V110 9999 FEW016 SCT022 BKN028 08/04 Q1014=
200605160720 METAR ESMX 160720Z 05005KT 010V090 9999 FEW014 BKN030 08/05 Q1013=
200605160650 METAR ESMX 160650Z 07003KT 030V120 9999 FEW011 SCT016 BKN022 08/05 Q1014=
200605160620 METAR ESMX 160620Z 03003KT 9999 FEW010 BKN026 BKN033 07/05 Q1014=
200605160550 METAR ESMX 160550Z VRB02KT 9999 FEW010 SCT015 BKN085 07/04 Q1014=
200605160520 METAR ESMX 160520Z VRB02KT 9999 FEW011 SCT015 BKN018 06/04 Q1014=
200605160450 METAR ESMX 160450Z 00000KT 9999 BKN022 06/04 Q1014=
200605160420 METAR ESMX 160420Z 00000KT 9999 FEW025 BKN052 06/04 Q1014=
200605160350 METAR ESMX 160350Z 26001KT 9999 FEW020 BKN050 05/04 Q1014=
200605160320 METAR ESMX 160320Z AUTO 30002KT 9999NDV R01/P1500D R19/P1500U -DZ FEW034/// BKN054/// 05/04 Q1014=
200605160250 METAR ESMX 160250Z AUTO 23002KT 9999NDV R01/P1500D R19/P1500D DZ FEW021/// OVC029/// 05/04 Q1015=
200605160220 METAR ESMX 160220Z AUTO 27002KT 9999NDV R01/P1500N R19/P1500N DZ BKN024/// BKN032/// 05/04 Q1015=
200605160150 METAR ESMX 160150Z AUTO 00000KT 9999NDV R01/P1500N R19/P1500N DZ FEW011/// SCT030/// 05/04 Q1015=
200605160120 METAR ESMX 160120Z AUTO 23003KT 9999NDV R01/P1500N R19/P1500N DZ SCT020/// BKN026/// 05/04 Q1015=
200605160050 METAR ESMX 160050Z AUTO 21003KT 9999NDV R01/P1500N R19/P1500N DZ FEW014/// SCT029/// BKN036/// 06/03 Q1015 RERA=
200605160020 METAR ESMX 160020Z 22002KT 9999 RA FEW025 SCT046 06/03 Q1016=
200605152350 METAR ESMX 152350Z 22002KT 9999 FEW017 SCT039 OVC052 06/02 Q1016=
200605152320 METAR ESMX 152320Z 22003KT 190V260 9999 BKN039 BKN056 07/02 Q1016=
200605152250 METAR ESMX 152250Z 24003KT 190V260 9999 BKN039 07/02 Q1016=
200605152220 METAR ESMX 152220Z 23003KT 200V260 9999 FEW040 SCT049 07/02 Q1016=
200605152150 METAR ESMX 152150Z 25004KT 9999 FEW041 SCT048 07/02 Q1016=
200605152120 METAR ESMX 152120Z 25004KT 9999 FEW041 SCT054 07/02 Q1016=
200605152050 METAR ESMX 152050Z 25003KT 230V290 CAVOK 07/01 Q1016=
200605152020 METAR ESMX 152020Z 25005KT CAVOK 08/01 Q1016=
200605151950 METAR ESMX 151950Z 25004KT CAVOK 08/01 Q1016=
200605151920 METAR ESMX 151920Z 23005KT CAVOK 09/01 Q1016=
200605151850 METAR ESMX 151850Z 25006KT CAVOK 09/02 Q1016=
200605151750 METAR ESMX 151750Z 25007KT CAVOK 10/00 Q1016=
200605151720 METAR ESMX 151720Z 24008KT 220V280 CAVOK 11/00 Q1016=
200605151650 METAR ESMX 151650Z 23008KT CAVOK 11/00 Q1016=
200605151620 METAR ESMX 151620Z 22008KT 190V250 CAVOK 12/M01 Q1016=
200605151550 METAR ESMX 151550Z 21008KT CAVOK 13/M01 Q1016=
200605151520 METAR ESMX 151520Z 24009KT 200V270 CAVOK 13/M03 Q1016=
200605151450 METAR ESMX 151450Z 21008KT 170V240 CAVOK 14/M03 Q1016=
200605151420 METAR ESMX 151420Z 24009KT 170V270 CAVOK 14/M02 Q1016=
200605151350 METAR ESMX 151350Z 23006KT 180V320 CAVOK 13/M02 Q1016=
200605151320 METAR ESMX 151320Z 23011KT 200V300 CAVOK 14/M02 Q1016=
200605151250 METAR ESMX 151250Z 22009KT 180V250 9999 FEW040 SCT085 14/M02 Q1017=
200605151220 METAR ESMX 151220Z 24008KT 180V270 CAVOK 14/M01 Q1016=
200605151150 METAR ESMX 151150Z 27010KT 180V320 CAVOK 13/M02 Q1017=
200605151120 METAR ESMX 151120Z 22009KT 190V290 9999 FEW040CB SCT065 14/M01 Q1016=
200605151050 METAR ESMX 151050Z VRB08G19KT 9999 FEW053 SCT067 13/M02 Q1017=
200605151020 METAR ESMX 151020Z 22005KT 9999 FEW035 SCT070 12/M02 Q1017=
200605150950 METAR ESMX 150950Z 27007KT 230V320 9999 FEW059 11/M02 Q1017=
200605150920 METAR ESMX 150920Z 26006KT 190V300 CAVOK 12/00 Q1017=
200605150850 METAR ESMX 150850Z 23005KT 190V330 9999 FEW042 SCT053 12/02 Q1017=
200605150820 METAR ESMX 150820Z 26008KT 210V310 9999 SCT035 12/01 Q1017=
200605150750 METAR ESMX 150750Z 27005KT 180V320 9999 FEW027 11/04 Q1017=
200605150720 METAR ESMX 150720Z 25005KT 190V320 9999 SCT020 09/04 Q1017=
200605150650 METAR ESMX 150650Z 28005KT 220V350 9999 SCT013 09/05 Q1017=
200605150620 METAR ESMX 150620Z 26007KT 220V290 9999 FEW008 BKN011 07/05 Q1017=
200605150550 METAR ESMX 150550Z 25006KT 230V300 9999 OVC008 07/05 Q1017=
200605150520 METAR ESMX 150520Z 22005KT 190V270 9999 BKN008 06/04 Q1017=
200605150450 METAR ESMX 150450Z 23005KT 200V260 9999 BKN008 05/04 Q1017=
200605150420 METAR ESMX 150420Z 23005KT 190V260 9999 R01/P1500N R19/P1500N BKN010 04/04 Q1017=
200605150350 METAR ESMX 150350Z 24003KT 9999 SCT013 03/03 Q1017=
200605150320 METAR ESMX 150320Z AUTO 23005KT 9999NDV R01/P1500D R19/P1500U NCD 03/02 Q1016=
200605150250 METAR ESMX 150250Z AUTO 24004KT 9999NDV R01/P1500D R19/P1500D NCD 03/02 Q1016=
200605150220 METAR ESMX 150220Z AUTO 25005KT 9999NDV R01/P1500U R19/P1500U NCD 03/02 Q1016=
200605150150 METAR ESMX 150150Z AUTO 25004KT 210V290 9999NDV R01/P1500N R19/P1500N NCD 03/02 Q1016=
200605150120 METAR ESMX 150120Z AUTO 25005KT 9999NDV R01/P1500N R19/P1500N NCD 03/01 Q1016=
200605150050 METAR ESMX 150050Z AUTO 24006KT 9999NDV R01/P1500N R19/P1500N NCD 02/00 Q1016=
200605150020 METAR ESMX 150020Z 25005KT CAVOK 03/00 Q1016=
200605142350 METAR ESMX 142350Z 25004KT CAVOK 03/M01 Q1016=
200605142320 METAR ESMX 142320Z 20003KT CAVOK 02/M00 Q1016=
200605142250 METAR ESMX 142250Z 18003KT CAVOK 03/00 Q1016=
200605142220 METAR ESMX 142220Z 24004KT CAVOK 03/00 Q1016=
200605142150 METAR ESMX 142150Z 22003KT 9999 SCT040 02/01 Q1016=
200605142120 METAR ESMX 142120Z 25003KT 9999 SCT040 04/02 Q1016=
200605142050 METAR ESMX 142050Z 27004KT 9999 FEW040CB 05/01 Q1016=
200605142020 METAR ESMX 142020Z 26003KT 220V300 9999 SCT040CB 06/03 Q1015=
200605141950 METAR ESMX 141950Z 24003KT 170V270 9999 SCT040CB 07/03 Q1015 RERA REDZ=
200605141920 METAR ESMX 141920Z 31007KT 270V340 9999 SHRA BKN04OCB 08/03 Q1015=
200605141850 METAR ESMX 141850Z 32007KT 270V360 9999 FEW035 FEW040CB 08/03 Q1015=
200605141820 METAR ESMX 141820Z 29006KT 260V330 9999 FEW040 FEW050CB 09/01 Q1014=
200605141750 METAR ESMX 141750Z 32009KT 300V360 9999 FEW040 09/02 Q1014=
200605141720 METAR ESMX 141720Z 32009KT 290V350 9999 FEW042 SCT085 11/02 Q1014=
200605141650 METAR ESMX 141650Z 30009KT 280V340 9999 SCT040 11/02 Q1013=
200605141620 METAR ESMX 141620Z 32010KT 290V010 CAVOK 10/01 Q1013=
200605141550 METAR ESMX 141550Z 27011G21KT 220V300 9999 SCT043 SCT056 12/M02 Q1012=
200605141520 METAR ESMX 141520Z 29014KT 250V320 CAVOK 13/M02 Q1012=
200605141450 METAR ESMX 141450Z 26011KT 210V290 CAVOK 14/M02 Q1012=
200605141420 METAR ESMX 141420Z 24013KT 190V280 CAVOK 14/M02 Q1012=
200605141350 METAR ESMX 141350Z 25014KT 210V300 CAVOK 14/M02 Q1012=
200605141320 METAR ESMX 141320Z 26012KT 210V300 CAVOK 13/M02 Q1012=
200605141250 METAR ESMX 141250Z 26013KT 220V290 CAVOK 14/M01 Q1012=
200605141220 METAR ESMX 141220Z 29012KT 250V320 CAVOK 13/M02 Q1012=
200605141150 METAR ESMX 141150Z 28009G20KT 250V330 CAVOK 12/M00 Q1012=
200605141120 METAR ESMX 141120Z AUTO 26013KT 200V300 9999NDV R01/P1500D R19/P1500N FEW056/// 13/01 Q1011=
200605141050 METAR ESMX 141050Z AUTO 26011KT 230V320 9999NDV R01/P1500D R19/P1500U SCT050/// BKN070/// 15/01 Q1011=
200605141020 METAR ESMX 141020Z AUTO 28011KT 240V330 9999NDV R01/P1500D R19/P1500D SCT049/// 13/01 Q1011=
200605140950 METAR ESMX 140950Z AUTO 27010KT 220V310 9999NDV R01/P1500U R19/P1500U SCT049/// 12/M00 Q1011=
200605140920 METAR ESMX 140920Z AUTO 28011KT 230V320 9999NDV R01/P1500D R19/P1500D FEW049/// 11/M00 Q1011=
200605140850 METAR ESMX 140850Z AUTO 28010KT 230V350 9999NDV R01/P1500U R19/P1500D FEW044/// 12/M00 Q1011=
200605140820 METAR ESMX 140820Z AUTO 26012KT 240V300 9999NDV R01/P1500U R19/P1500D FEW036/// 12/01 Q1011=
200605140750 METAR ESMX 140750Z AUTO 28011G22KT 240V320 9999NDV R01/P1500D R19/P1500U NCD 11/02 Q1011=
200605140720 METAR ESMX 140720Z AUTO 29009KT 240V330 9999NDV R01/P1500U R19/P1500D NCD 11/03 Q1011=
200605140650 METAR ESMX 140650Z AUTO 28008KT 240V330 9999NDV R01/P1500U R19/P1500D FEW021/// 10/04 Q1011=
200605140620 METAR ESMX 140620Z AUTO 27009KT 9999NDV R01/P1500D R19/P1500N SCT012/// BKN016/// 09/05 Q1011=
200605140550 METAR ESMX 140550Z AUTO 27008KT 230V310 9999NDV R01/P1500D R19/P1500D FEW012/// SCT016/// 08/05 Q1011=
200605140520 METAR ESMX 140520Z AUTO 26007KT 9999NDV R01/P1500D R19/P1500D NCD 07/05 Q1011=
200605140450 METAR ESMX 140450Z AUTO 25005KT 220V280 9999NDV R01/P1500D R19/P1500D FEW015/// 06/04 Q1011=
200605140420 METAR ESMX 140420Z AUTO 24005KT 9999NDV R01/P1500U R19/P1500D FEW016/// 05/04 Q1011=
200605140350 METAR ESMX 140350Z AUTO 20005KT 9999NDV R01/P1500U R19/P1500D NCD 04/03 Q1011=
200605140320 METAR ESMX 140320Z AUTO 20004KT 9999NDV R01/P1500U R19/P1500U NCD 03/02 Q1011=
200605140250 METAR ESMX 140250Z AUTO 20004KT 9999NDV R01/P1500U R19/P1500D NCD 03/02 Q1010=
200605140220 METAR ESMX 140220Z AUTO 22004KT 9999NDV R01/P1500N R19/P1500N NCD 03/02 Q1010=
200605140150 METAR ESMX 140150Z AUTO 25002KT 9999NDV R01/P1500N R19/P1500N NCD 04/02 Q1011=
200605140120 METAR ESMX 140120Z AUTO 24003KT 9999NDV R01/P1500N R19/P1500N NCD 04/02 Q1011=
200605140050 METAR ESMX 140050Z AUTO 25002KT 9999NDV R01/P1500N R19/P1500N FEW025/// 04/02 Q1011=
200605140020 METAR ESMX 140020Z AUTO VRB01KT 9999NDV R01/P1500N R19/P1500N NCD 04/02 Q1011=
200605132350 METAR ESMX 132350Z AUTO VRB02KT 9999NDV R01/P1500N R19/P1500N NCD 05/02 Q1011=
200605132220 METAR ESMX 132220Z AUTO 25003KT 9999NDV R01/P1500N R19/P1500N FEW110/// 06/01 Q1011=
200605132150 METAR ESMX 132150Z AUTO 25003KT 9999NDV R01/P1500N R19/P1500N NCD 06/00 Q1011=
200605132120 METAR ESMX 132120Z AUTO VRB02KT 9999NDV R01/P1500N R19/P1500N NCD 07/M00 Q1011=
200605132050 METAR ESMX 132050Z AUTO VRB02KT 9999NDV R01/P1500N R19/P1500N NCD 07/M01 Q1011=
200605132020 METAR ESMX 132020Z AUTO 26003KT 9999NDV R01/P1500N R19/P1500N NCD 07/M01 Q1011=
200605131950 METAR ESMX 131950Z AUTO 26004KT 240V300 9999NDV R01/P1500N R19/P1500N NCD 08/M01 Q1010=
200605131920 METAR ESMX 131920Z AUTO 26004KT 9999NDV R01/P1500N R19/P1500N NCD 10/M02 Q1010=
200605131850 METAR ESMX 131850Z AUTO 26005KT 230V300 9999NDV R01/P1500N R19/P1500N NCD 11/M02 Q1010=
200605131820 METAR ESMX 131820Z AUTO 28006KT 220V290 9999NDV R01/P1500D R19/P1500U NCD 12/M02 Q1010=
200605131750 METAR ESMX 131750Z AUTO 28008KT 250V320 9999NDV R01/P1500U R19/P1500D NCD 13/M01 Q1010=
200605131720 METAR ESMX 131720Z AUTO 27010KT 230V310 9999NDV R01/P1500D R19/P1500U NCD 13/M02 Q1010=
200605131650 METAR ESMX 131650Z AUTO 28010KT 220V310 9999NDV R01/P1500U R19/P1500U NCD 14/M03 Q1010=
200605131620 METAR ESMX 131620Z AUTO 29011KT 9999NDV R01/P1500U R19/P1500D NCD 14/M02 Q1010=
200605131550 METAR ESMX 131550Z AUTO 27010KT 230V320 9999NDV R01/P1500U R19/P1500N NCD 15/M02 Q1010=
200605131520 METAR ESMX 131520Z AUTO 24009KT 210V290 9999NDV R01/P1500D R19/P1500U NCD 15/M01 Q1010=
200605131450 METAR ESMX 131450Z AUTO 27009KT 240V320 9999NDV R01/P1500D R19/P1500D NCD 15/M01 Q1010=
200605131420 METAR ESMX 131420Z AUTO 26011KT 230V300 9999NDV R01/P1500U R19/P1500D NCD 16/M01 Q1010=
200605131350 METAR ESMX 131350Z AUTO 27011KT 230V320 9999NDV R01/P1500U R19/P1500D FEW110/// 15/M02 Q1010=
200605131320 METAR ESMX 131320Z AUTO 27012KT 230V300 9999NDV R01/P1500U R19/P1500U NCD 16/00 Q1010=
200605131250 METAR ESMX 131250Z AUTO 27012KT 220V320 9999NDV R01/P1500U R19/P1500D NCD 16/02 Q1010=
200605131220 METAR ESMX 131220Z AUTO 25012KT 200V300 9999NDV R01/P1500D R19/P1500D NCD 15/02 Q1010=
200605131150 METAR ESMX 131150Z AUTO 26013KT 9999NDV R01/P1500D R19/P1500D NCD 15/03 Q1010=
200605131120 METAR ESMX 131120Z AUTO 25012KT 210V300 9999NDV R01/P1500D R19/P1500D NCD 15/04 Q1010=
200605131050 METAR ESMX 131050Z AUTO 27011KT 230V310 9999NDV R01/P1500U R19/P1500D FEW032/// 15/05 Q1010=
200605131020 METAR ESMX 131020Z AUTO 25013KT 9999NDV R01/P1500U R19/P1500U FEW024/// 14/06 Q1010=
200605130950 METAR ESMX 130950Z AUTO 23010KT 210V270 9999NDV R01/P1500U R19/P1500U SCT020/// 13/07 Q1010=
200605130920 METAR ESMX 130920Z AUTO 25009KT 200V280 9999NDV R01/P1500U R19/P1500D BKN020/// 12/07 Q1010=
200605130850 METAR ESMX 130850Z AUTO 26010KT 230V300 9999NDV R01/P1500U R19/P1500D SCT017/// BKN020/// 11/07 Q1010=
200605130820 METAR ESMX 130820Z AUTO 25010KT 220V290 9999NDV R01/P1500U R19/P1500D OVC019/// 11/07 Q1010=
200605130750 METAR ESMX 130750Z AUTO 27009KT 9999NDV R01/P1500D R19/P1500N BKN018/// 11/07 Q1010=
200605130720 METAR ESMX 130720Z AUTO 25009KT 210V290 9999NDV R01/P1500U R19/P1500D BKN017/// 11/07 Q1010=
200605130650 METAR ESMX 130650Z AUTO 25008KT 210V300 9999NDV R01/P1500D R19/P1500D FEW100/// 11/06 Q1010=
200605130620 METAR ESMX 130620Z AUTO 25007KT 190V280 9999NDV R01/P1500N R19/P1500D FEW090/// SCT100/// 10/06 Q1010=
200605130550 METAR ESMX 130550Z AUTO 25006KT 220V300 9999NDV R01/P1500D R19/P1500U FEW067/// SCT090/// 09/06 Q1010 RERA REDZ=
200605130520 METAR ESMX 130520Z AUTO 26006KT 210V300 9999NDV R01/P1500U R19/P1500U FEW058/// SCT094/// 09/06 Q1010=
200605130450 METAR ESMX 130450Z AUTO 22005KT 9999NDV R01/P1500U R19/P1500U OVC070/// 09/06 Q1010=
200605130420 METAR ESMX 130420Z AUTO 18005KT 9999NDV R01/P1500D R19/P1500U FEW079/// BKN090/// 08/05 Q1010=
200605130350 METAR ESMX 130350Z AUTO 20005KT 9999NDV R01/P1500U R19/P1500D SCT086/// 08/05 Q1009=
200605130320 METAR ESMX 130320Z AUTO 22004KT 9999NDV R01/P1500D R19/P1500U FEW099/// 07/04 Q1010=
200605130250 METAR ESMX 130250Z AUTO 20004KT 9999NDV R01/P1500D R19/P1500U FEW100/// 08/04 Q1010=
200605130220 METAR ESMX 130220Z AUTO 22004KT 9999NDV R01/P1500N R19/P1500N SCT100/// 08/04 Q1010=
200605130150 METAR ESMX 130150Z AUTO 20006KT 9999NDV R01/P1500N R19/P1500N NCD 07/04 Q1010=
200605130120 METAR ESMX 130120Z AUTO 19006KT 9999NDV R01/P1500N R19/P1500N NCD 08/04 Q1010=
200605130050 METAR ESMX 130050Z AUTO 19006KT 9999NDV R01/P1500N R19/P1500N NCD 08/03 Q1010=
200605130020 METAR ESMX 130020Z AUTO 19006KT 9999NDV R01/P1500N R19/P1500N NCD 07/04 Q1010=
200605122350 METAR ESMX 122350Z AUTO 20006KT 9999NDV R01/P1500N R19/P1500N NCD 08/03 Q1011=
200605122320 METAR ESMX 122320Z AUTO 17005KT 9999NDV R01/P1500N R19/P1500N NCD 07/04 Q1011=
200605122250 METAR ESMX 122250Z AUTO 21005KT 9999NDV R01/P1500N R19/P1500N NCD 08/04 Q1011=
200605122220 METAR ESMX 122220Z AUTO 21005KT 9999NDV R01/P1500N R19/P1500N NCD 09/03 Q1011=
200605122150 METAR ESMX 122150Z AUTO 23004KT 9999NDV R01/P1500N R19/P1500N NCD 10/03 Q1011=
200605122120 METAR ESMX 122120Z AUTO 21004KT 9999NDV R01/P1500N R19/P1500N NCD 10/04 Q1012=
200605122050 METAR ESMX 122050Z AUTO 23005KT 9999NDV R01/P1500N R19/P1500N NCD 10/03 Q1012=
200605122020 METAR ESMX 122020Z AUTO 22004KT 9999NDV R01/P1500N R19/P1500N NCD 10/04 Q1012=
200605121950 METAR ESMX 121950Z AUTO 23004KT 9999NDV R01/P1500N R19/P1500N NCD 11/03 Q1012=
200605121920 METAR ESMX 121920Z AUTO 23004KT 9999NDV R01/P1500D R19/P1500U NCD 13/03 Q1012=
200605121850 METAR ESMX 121850Z AUTO 24004KT 9999NDV R01/P1500D R19/P1500D NCD 14/03 Q1011=
200605121820 METAR ESMX 121820Z AUTO 24006KT 200V280 9999NDV R01/P1500D R19/P1500D NCD 15/03 Q1012=
200605121750 METAR ESMX 121750Z 24009KT 190V280 CAVOK 16/02 Q1011=
200605121720 METAR ESMX 121720Z 24009KT 200V280 CAVOK 16/02 Q1011=
200605121650 METAR ESMX 121650Z 25010KT 220V300 CAVOK 17/02 Q1012=
200605121550 METAR ESMX 121550Z 24011KT 210V290 CAVOK 18/02 Q1012=
200605121520 METAR ESMX 121520Z 25010G20KT 210V280 CAVOK 19/01 Q1012=
200605121450 METAR ESMX 121450Z 23011KT 200V290 CAVOK 19/01 Q1012=
200605121420 METAR ESMX 121420Z 27011KT 230V300 CAVOK 19/01 Q1012=
200605121350 METAR ESMX 121350Z 25009KT 200V290 CAVOK 20/01 Q1012=
200605121320 METAR ESMX 121320Z 27013KT 240V320 CAVOK 20/01 Q1012=
200605121250 METAR ESMX 121250Z 25012KT 200V300 CAVOK 20/02 Q1012=
200605121220 METAR ESMX 121220Z 27011KT 230V300 9999 FEW035 SCT200 18/02 Q1012=
200605121150 METAR ESMX 121150Z 28011KT 240V320 CAVOK 19/02 Q1012=
200605121120 METAR ESMX 121120Z 24011KT 200V270 CAVOK 20/03 Q1012=
200605121050 METAR ESMX 121050Z 29008KT 240V330 CAVOK 18/04 Q1012=
200605121020 METAR ESMX 121020Z 30010KT 240V350 CAVOK 19/03 Q1012=
200605120950 METAR ESMX 120950Z 29009KT 210V330 CAVOK 19/02 Q1012=
200605120920 METAR ESMX 120920Z 28010KT CAVOK 19/03 Q1012=
200605120850 METAR ESMX 120850Z 28009KT 250V320 CAVOK 18/05 Q1012=
200605120820 METAR ESMX 120820Z 30008KT 240V320 CAVOK 17/06 Q1012=
200605120750 METAR ESMX 120750Z 27008KT 230V330 CAVOK 16/08 Q1012=
200605120720 METAR ESMX 120720Z 25007KT 230V300 CAVOK 15/08 Q1011=
200605120650 METAR ESMX 120650Z 27005KT 230V340 CAVOK 14/08 Q1011=
200605120620 METAR ESMX 120620Z 27006KT 220V300 CAVOK 12/07 Q1011=
200605120550 METAR ESMX 120550Z 29005KT 250V320 8000 BR NSC 11/07 Q1011=
200605120520 METAR ESMX 120520Z 27004KT 230V320 7000 BR NSC 10/08 Q1011=
200605120450 METAR ESMX 120450Z 28004KT 230V320 5000 BR NSC 09/07 Q1011=
200605120420 METAR ESMX 120420Z 25004KT 220V300 5000 BR NSC 07/07 Q1011=
200605120350 METAR ESMX 120350Z 25003KT 220V280 CAVOK 06/05 Q1011=
200605120320 METAR ESMX 120320Z AUTO 25004KT 6000NDV R01/P1500D R19/P1500D BR NCD 06/05 Q1011=
200605120250 METAR ESMX 120250Z AUTO 25004KT 7000NDV R01/P1500N R19/P1500D BR NCD 06/05 Q1011=
200605120220 METAR ESMX 120220Z AUTO 26003KT 8000NDV R01/P1500N R19/P1500N BR NCD 06/04 Q1011=
200605120150 METAR ESMX 120150Z AUTO 25005KT 9000NDV R01/P1500N R19/P1500N NCD 06/04 Q1011=
200605120120 METAR ESMX 120120Z AUTO 23003KT 9999NDV R01/P1500N R19/P1500N NCD 06/04 Q1011=
200605120050 METAR ESMX 120050Z AUTO 25005KT 9999NDV R01/P1500N R19/P1500N NCD 06/04 Q1011=
200605120020 METAR ESMX 120020Z AUTO 25004KT 9999NDV R01/P1500N R19/P1500N NCD 05/04 Q1011=
200605112350 METAR ESMX 112350Z AUTO 25003KT 9999NDV R01/P1500N R19/P1500N NCD 05/03 Q1012=
200605112320 METAR ESMX 112320Z 25002KT CAVOK 05/03 Q1012=
200605112250 METAR ESMX 112250Z 27002KT CAVOK 08/03 Q1012=
200605112220 METAR ESMX 112220Z 26003KT 230V290 CAVOK 09/03 Q1012=
200605112150 METAR ESMX 112150Z 24003KT CAVOK 10/02 Q1012=
200605112120 METAR ESMX 112120Z 25004KT CAVOK 11/01 Q1012=
200605112050 METAR ESMX 112050Z 25005KT CAVOK 11/00 Q1012=
200605112020 METAR ESMX 112020Z 23004KT 200V260 CAVOK 12/M00 Q1012=
200605111950 METAR ESMX 111950Z 24004KT 200V290 CAVOK 14/M00 Q1012=
200605111920 METAR ESMX 111920Z 26007KT CAVOK 14/M00 Q1012=
200605111850 METAR ESMX 111850Z 24007KT 210V280 CAVOK 16/M00 Q1012=
200605111820 METAR ESMX 111820Z 24009KT 210V280 CAVOK 17/01 Q1012=
200605111750 METAR ESMX 111750Z 26011KT CAVOK 18/02 Q1011=
200605111720 METAR ESMX 111720Z 25011KT 230V290 CAVOK 19/02 Q1011=
200605111650 METAR ESMX 111650Z 27010KT 230V330 CAVOK 20/01 Q1011=
200605111620 METAR ESMX 111620Z 28011KT 250V320 CAVOK 21/00 Q1011=
200605111550 METAR ESMX 111550Z 27011KT 240V300 CAVOK 21/00 Q1011=
200605111520 METAR ESMX 111520Z 25010KT 230V300 CAVOK 22/02 Q1011=
200605111450 METAR ESMX 111450Z 26009KT 210V320 CAVOK 23/02 Q1011=
200605111420 METAR ESMX 111420Z 28010KT 250V330 CAVOK 23/02 Q1011=
200605111350 METAR ESMX 111350Z 30010KT 260V340 CAVOK 22/02 Q1011=
200605111320 METAR ESMX 111320Z 24008KT 200V280 CAVOK 22/00 Q1011=
200605111250 METAR ESMX 111250Z 25009KT 180V290 CAVOK 24/02 Q1012=
200605111220 METAR ESMX 111220Z 30008KT CAVOK 23/02 Q1012=
200605111150 METAR ESMX 111150Z 30006KT 260V340 CAVOK 22/03 Q1012=
200605111120 METAR ESMX 111120Z 29007KT 250V330 CAVOK 22/02 Q1012=
200605111050 METAR ESMX 111050Z 27006G17KT 150V330 CAVOK 23/02 Q1012=
200605111020 METAR ESMX 111020Z 22007KT 120V270 CAVOK 22/03 Q1012=
200605110950 METAR ESMX 110950Z 29007KT 250V340 CAVOK 22/02 Q1013=
200605110920 METAR ESMX 110920Z 23007KT 140V300 CAVOK 21/02 Q1013=
200605110850 METAR ESMX 110850Z 26006KT 210V330 CAVOK 20/01 Q1013=
200605110820 METAR ESMX 110820Z 24005KT 190V290 CAVOK 20/03 Q1013=
200605110750 METAR ESMX 110750Z 24006KT 210V290 CAVOK 19/04 Q1013=
200605110720 METAR ESMX 110720Z VRB02KT CAVOK 18/01 Q1014=
200605110650 METAR ESMX 110650Z VRB02KT CAVOK 16/05 Q1014=
200605110620 METAR ESMX 110620Z 27004KT 220V300 CAVOK 14/05 Q1014=
200605110550 METAR ESMX 110550Z 20004KT 160V250 CAVOK 12/06 Q1014=
200605110520 METAR ESMX 110520Z 18005KT CAVOK 11/05 Q1014=
200605110450 METAR ESMX 110450Z VRB02KT CAVOK 09/05 Q1014=
200605110420 METAR ESMX 110420Z 18004KT CAVOK 09/05 Q1014=
200605110350 METAR ESMX 110350Z 18003KT CAVOK 10/04 Q1014=
200605110320 METAR ESMX 110320Z AUTO 15003KT 9999NDV R01/P1500U R19/P1500D BKN088/// BKN100/// 09/05 Q1014=
200605110250 METAR ESMX 110250Z AUTO VRB01KT 9999NDV R01/P1500U R19/P1500D BKN087/// 09/04 Q1015=
200605110220 METAR ESMX 110220Z AUTO 25004KT 140V290 9999NDV R01/P1500N R19/P1500N BKN089/// 10/04 Q1015=
200605110150 METAR ESMX 110150Z AUTO 15005KT 120V190 9999NDV R01/P1500N R19/P1500N BKN085/// 11/03 Q1015=
200605110120 METAR ESMX 110120Z AUTO 18005KT 9999NDV R01/P1500N R19/P1500N BKN082/// 09/04 Q1015=
200605110050 METAR ESMX 110050Z AUTO 19005KT 9999NDV R01/P1500N R19/P1500N BKN110/// 09/04 Q1015=
200605110020 METAR ESMX 110020Z AUTO 17004KT 9999NDV R01/P1500N R19/P1500N BKN110/// 11/04 Q1015=
200605102350 METAR ESMX 102350Z 16004KT CAVOK 11/04 Q1015=
200605102320 METAR ESMX 102320Z 17005KT CAVOK 12/04 Q1016=
200605102250 METAR ESMX 102250Z 16005KT 130V200 CAVOK 12/04 Q1016=
200605102220 METAR ESMX 102220Z 15004KT 110V170 CAVOK 12/03 Q1016=
200605102150 METAR ESMX 102150Z 14004KT 110V170 CAVOK 13/04 Q1016=
200605102120 METAR ESMX 102120Z 14003KT 100V170 CAVOK 13/04 Q1016=
200605102050 METAR ESMX 102050Z 15004KT CAVOK 12/04 Q1016=
200605102020 METAR ESMX 102020Z 16005KT CAVOK 13/03 Q1016=
200605101950 METAR ESMX 101950Z 17004KT CAVOK 13/02 Q1016=
200605101920 METAR ESMX 101920Z 16006KT CAVOK 15/01 Q1016=
200605101850 METAR ESMX 101850Z 16007KT 120V190 CAVOK 15/02 Q1016=
200605101820 METAR ESMX 101820Z 16009KT 130V200 CAVOK 17/02 Q1016=
200605101750 METAR ESMX 101750Z 06003KT CAVOK 20/01 Q1016=
200605101720 METAR ESMX 101720Z 02004KT CAVOK 21/01 Q1016=
200605101650 METAR ESMX 101650Z 04005KT 360V080 CAVOK 22/01 Q1016=
200605101620 METAR ESMX 101620Z 02004G35KT 350V050 CAVOK 22/00 Q1016=
200605101550 METAR ESMX 101550Z 36006KT CAVOK 23/01 Q1016=
200605101520 METAR ESMX 101520Z 01007KT CAVOK 23/M00 Q1016=
200605101450 METAR ESMX 101450Z 02005KT 340V060 CAVOK 23/M00 Q1016=
200605101420 METAR ESMX 101420Z 35006KT 320V030 CAVOK 23/M00 Q1016=
200605101350 METAR ESMX 101350Z 36004KT 300V090 CAVOK 23/M01 Q1017=
200605101320 METAR ESMX 101320Z VRB05KT CAVOK 23/M01 Q1017=
200605101250 METAR ESMX 101250Z VRB04KT CAVOK 23/M02 Q1017=
200605101220 METAR ESMX 101220Z VRB05KT CAVOK 23/M02 Q1018=
200605101150 METAR ESMX 101150Z 01005KT 290V080 CAVOK 22/M02 Q1018=
200605101120 METAR ESMX 101120Z 02005KT 290V070 CAVOK 22/M03 Q1018=
200605101050 METAR ESMX 101050Z 04008KT 320V070 CAVOK 21/M03 Q1018=
200605101020 METAR ESMX 101020Z 01007KT 330V080 CAVOK 20/M02 Q1019=
200605100950 METAR ESMX 100950Z 36008KT 340V050 CAVOK 20/M02 Q1019=
200605100920 METAR ESMX 100920Z 36007KT 310V030 CAVOK 20/M02 Q1019=
200605100850 METAR ESMX 100850Z 36007KT 320V050 CAVOK 19/02 Q1019=
200605100820 METAR ESMX 100820Z 03006KT 340V080 CAVOK 18/02 Q1020=
200605100750 METAR ESMX 100750Z 02007KT 340V060 CAVOK 17/03 Q1020=
200605100720 METAR ESMX 100720Z 01006KT 340V040 CAVOK 16/03 Q1020=
200605100650 METAR ESMX 100650Z 02006KT 340V060 CAVOK 16/04 Q1020=
200605100620 METAR ESMX 100620Z 02005KT 340V060 CAVOK 14/05 Q1020=
200605100550 METAR ESMX 100550Z 36003KT CAVOK 12/07 Q1020=
200605100520 METAR ESMX 100520Z 35002KT CAVOK 11/07 Q1020=
200605100450 METAR ESMX 100450Z 00000KT CAVOK 09/07 Q1020=
200605100420 METAR ESMX 100420Z 00000KT CAVOK 06/05 Q1020=
200605100350 METAR ESMX 100350Z 00000KT CAVOK 04/03 Q1020=
200605100320 METAR ESMX 100320Z AUTO 00000KT 9999NDV R01/P1500D R19/P1500U NCD 03/03 Q1020=
200605100250 METAR ESMX 100250Z AUTO 00000KT 9999NDV R01/P1500U R19/P1500D NCD 03/02 Q1020=
200605100220 METAR ESMX 100220Z AUTO 00000KT 9999NDV R01/P1500N R19/P1500N NCD 04/02 Q1020=
200605100150 METAR ESMX 100150Z AUTO 00000KT 9999NDV R01/P1500N R19/P1500N NCD 04/02 Q1020=
200605100120 METAR ESMX 100120Z AUTO 00000KT 9999NDV R01/P1500N R19/P1500N NCD 05/03 Q1021=
200605100050 METAR ESMX 100050Z AUTO 00000KT 9999NDV R01/P1500N R19/P1500N NCD 05/03 Q1021=
200605100020 METAR ESMX 100020Z 00000KT CAVOK 05/03 Q1021=
200605092350 METAR ESMX 092350Z 00000KT CAVOK 06/04 Q1021=
200605092320 METAR ESMX 092320Z 00000KT CAVOK 06/04 Q1021=
200605092150 METAR ESMX 092150Z 00000KT CAVOK 08/04 Q1021=
200605092120 METAR ESMX 092120Z 00000KT CAVOK 09/04 Q1021=
200605092050 METAR ESMX 092050Z 14002KT CAVOK 11/04 Q1021=
200605092020 METAR ESMX 092020Z VRB02KT CAVOK 13/04 Q1021=
200605091950 METAR ESMX 091950Z 11003KT 080V170 CAVOK 15/03 Q1021=
200605091920 METAR ESMX 091920Z 10003KT 070V130 CAVOK 16/05 Q1021=
200605091850 METAR ESMX 091850Z 09003KT CAVOK 17/04 Q1021=
200605091820 METAR ESMX 091820Z 01003KT CAVOK 19/04 Q1021=
200605091750 METAR ESMX 091750Z 01004KT CAVOK 21/04 Q1021=
200605091720 METAR ESMX 091720Z 02006KT 350V070 CAVOK 22/03 Q1021=
200605091650 METAR ESMX 091650Z 02004KT 330V060 CAVOK 22/03 Q1021=
200605091620 METAR ESMX 091620Z 02006KT CAVOK 22/03 Q1021=
200605091550 METAR ESMX 091550Z 04006KT CAVOK 22/02 Q1021=
200605091520 METAR ESMX 091520Z 36007KT 320V030 CAVOK 23/02 Q1021=
200605091450 METAR ESMX 091450Z VRB07KT CAVOK 24/02 Q1021=
200605091420 METAR ESMX 091420Z 34005KT 300V020 CAVOK 23/02 Q1022=
200605091350 METAR ESMX 091350Z 02007KT 350V050 CAVOK 23/01 Q1022=
200605091320 METAR ESMX 091320Z VRB03G13KT CAVOK 23/01 Q1022=
200605091250 METAR ESMX 091250Z 34006KT 290V020 CAVOK 22/01 Q1023=
200605091220 METAR ESMX 091220Z 05006KT 360V090 CAVOK 23/01 Q1023=
200605091150 METAR ESMX 091150Z 06007KT 360V120 CAVOK 23/01 Q1023=
200605091120 METAR ESMX 091120Z 36009KT 330V040 CAVOK 23/01 Q1024=
200605091050 METAR ESMX 091050Z 02009KT CAVOK 22/01 Q1024=
200605091020 METAR ESMX 091020Z 04008KT 350V070 CAVOK 22/01 Q1024=
200605090950 METAR ESMX 090950Z 36006KT 320V030 CAVOK 21/01 Q1024=
200605090920 METAR ESMX 090920Z 34007KT 310V010 CAVOK 20/01 Q1024=
200605090850 METAR ESMX 090850Z 36006KT 310V050 CAVOK 19/01 Q1025=
200605090820 METAR ESMX 090820Z 01007KT CAVOK 18/01 Q1025=
200605090750 METAR ESMX 090750Z 01008KT CAVOK 18/01 Q1025=
200605090720 METAR ESMX 090720Z 01007KT 340V040 CAVOK 17/01 Q1025=
200605090650 METAR ESMX 090650Z 03006KT 360V090 CAVOK 15/02 Q1025=
200605090620 METAR ESMX 090620Z 04005KT 010V080 CAVOK 14/01 Q1025=
200605090550 METAR ESMX 090550Z 04005KT CAVOK 12/01 Q1025=
200605090520 METAR ESMX 090520Z 03005KT 350V070 CAVOK 11/00 Q1025=
200605090450 METAR ESMX 090450Z 03005KT CAVOK 10/00 Q1025=
200605090420 METAR ESMX 090420Z 03005KT CAVOK 09/00 Q1025=
200605090350 METAR ESMX 090350Z 01004KT CAVOK 07/00 Q1025=
200605090320 METAR ESMX 090320Z AUTO 03005KT 9999NDV R01/P1500U R19/P1500N NCD 07/00 Q1025=
200605090250 METAR ESMX 090250Z AUTO 03005KT 9999NDV R01/P1500N R19/P1500N NCD 07/00 Q1025=
200605090220 METAR ESMX 090220Z AUTO 03006KT 9999NDV R01/P1500N R19/P1500N NCD 08/00 Q1025=
200605090150 METAR ESMX 090150Z AUTO 03006KT 9999NDV R01/P1500N R19/P1500N NCD 08/01 Q1025=
200605090120 METAR ESMX 090120Z AUTO 03005KT 9999NDV R01/P1500N R19/P1500N NCD 08/01 Q1025=
200605090050 METAR ESMX 090050Z AUTO 03005KT 9999NDV R01/P1500N R19/P1500N NCD 08/01 Q1025=
200605090020 METAR ESMX 090020Z AUTO 01004KT 9999NDV R01/P1500N R19/P1500N NCD 08/02 Q1025=
200605082350 METAR ESMX 082350Z 01005KT CAVOK 09/02 Q1025=
200605082250 METAR ESMX 082250Z 01004KT CAVOK 10/03 Q1025=
200605082220 METAR ESMX 082220Z 05004KT 020V080 CAVOK 11/03 Q1025=
200605082150 METAR ESMX 082150Z 05005KT 010V100 CAVOK 12/03 Q1025=
200605082120 METAR ESMX 082120Z 04005KT 010V090 CAVOK 13/04 Q1025=
200605082050 METAR ESMX 082050Z 03005KT 340V080 CAVOK 13/04 Q1025=
200605082020 METAR ESMX 082020Z 05006KT 350V080 CAVOK 14/04 Q1025=
200605081950 METAR ESMX 081950Z 05005KT 020V100 CAVOK 15/04 Q1025=
200605081920 METAR ESMX 081920Z 03005KT 360V070 CAVOK 14/05 Q1025=
200605081850 METAR ESMX 081850Z 04004KT 360V080 CAVOK 16/04 Q1025=
200605081820 METAR ESMX 081820Z 07005KT 020V110 CAVOK 18/04 Q1025=
200605081750 METAR ESMX 081750Z 08006KT 030V150 CAVOK 18/04 Q1025=
200605081720 METAR ESMX 081720Z 09007KT 040V140 CAVOK 19/04 Q1025=
200605081650 METAR ESMX 081650Z 08009KT 050V140 CAVOK 20/04 Q1025=
200605081620 METAR ESMX 081620Z 07008KT 030V110 CAVOK 21/04 Q1025=
200605081550 METAR ESMX 081550Z 08009KT 030V120 CAVOK 21/04 Q1025=
200605081520 METAR ESMX 081520Z 08008KT 030V140 CAVOK 22/04 Q1025=
200605081450 METAR ESMX 081450Z 07008KT 030V130 CAVOK 22/04 Q1025=
200605081420 METAR ESMX 081420Z 07010KT 020V120 CAVOK 23/04 Q1025=
200605081350 METAR ESMX 081350Z 08008KT 030V170 CAVOK 23/05 Q1025=
200605081320 METAR ESMX 081320Z 05010KT 010V120 CAVOK 22/05 Q1026=
200605081250 METAR ESMX 081250Z 05010KT 020V090 CAVOK 22/04 Q1026=
200605081220 METAR ESMX 081220Z 05011KT 020V130 CAVOK 23/04 Q1026=
200605081150 METAR ESMX 081150Z 08008KT 030V160 CAVOK 23/04 Q1026=
200605081120 METAR ESMX 081120Z 09009KT 040V130 CAVOK 23/05 Q1026=
200605081050 METAR ESMX 081050Z 07008KT 020V140 CAVOK 23/05 Q1026=
200605081020 METAR ESMX 081020Z 05009KT 360V110 CAVOK 23/05 Q1027=
200605080950 METAR ESMX 080950Z 04006KT 340V080 CAVOK 21/05 Q1027=
200605080920 METAR ESMX 080920Z 36009KT CAVOK 21/05 Q1027=
200605080850 METAR ESMX 080850Z 02009KT 340V050 CAVOK 20/06 Q1027=
200605080820 METAR ESMX 080820Z 05007KT 020V080 CAVOK 19/05 Q1028=
200605080750 METAR ESMX 080750Z 02008KT 350V060 CAVOK 17/05 Q1028=
200605080720 METAR ESMX 080720Z 03009KT CAVOK 16/04 Q1028=
200605080650 METAR ESMX 080650Z 02010KT CAVOK 15/04 Q1028=
200605080620 METAR ESMX 080620Z 02008KT CAVOK 14/04 Q1028=
200605080550 METAR ESMX 080550Z 03009KT CAVOK 13/04 Q1028=
200605080520 METAR ESMX 080520Z 01007KT CAVOK 12/04 Q1028=
200605080450 METAR ESMX 080450Z 02006KT CAVOK 11/04 Q1028=
200605080420 METAR ESMX 080420Z 36006KT CAVOK 08/04 Q1028=
200605080350 METAR ESMX 080350Z 01005KT CAVOK 07/04 Q1028=
200605080320 METAR ESMX 080320Z AUTO 36005KT 9999NDV R01/P1500U R19/P1500D NCD 07/04 Q1029=
200605080250 METAR ESMX 080250Z AUTO 36004KT //// R01/P1500U R19/P1500D NCD 07/04 Q1029=
200605080220 METAR ESMX 080220Z AUTO 36004KT 9999NDV R01/P1500N R19/P1500N NCD 07/04 Q1029=
200605080150 METAR ESMX 080150Z AUTO 01005KT 9999NDV R01/P1500N R19/P1500N NCD 07/04 Q1029=
200605080120 METAR ESMX 080120Z AUTO 01005KT 9999NDV R01/P1500N R19/P1500N NCD 07/04 Q1029=
200605080050 METAR ESMX 080050Z AUTO 01004KT 9999NDV R01/P1500N R19/P1500N NCD 07/04 Q1030=
200605080020 METAR ESMX 080020Z AUTO 02005KT 9999NDV R01/P1500N R19/P1500N NCD 08/04 Q1030=
200605072350 METAR ESMX 072350Z 36004KT CAVOK 08/05 Q1030=
200605072320 METAR ESMX 072320Z 01004KT CAVOK 08/05 Q1030=
200605072250 METAR ESMX 072250Z 03003KT CAVOK 09/03 Q1030=
200605072220 METAR ESMX 072220Z 03004KT CAVOK 09/04 Q1030=
200605072150 METAR ESMX 072150Z 36002KT CAVOK 09/04 Q1030=
200605072120 METAR ESMX 072120Z 02003KT 350V050 CAVOK 11/04 Q1030=
200605072050 METAR ESMX 072050Z 06003KT 010V080 CAVOK 13/04 Q1030=
200605072020 METAR ESMX 072020Z 02003KT 350V070 CAVOK 14/03 Q1030=
200605071950 METAR ESMX 071950Z 04004KT CAVOK 15/03 Q1030=
200605071920 METAR ESMX 071920Z 02003KT CAVOK 16/03 Q1030=
200605071850 METAR ESMX 071850Z 04004KT 360V060 CAVOK 17/02 Q1030=
200605071820 METAR ESMX 071820Z 06003KT 020V110 CAVOK 18/02 Q1030=
200605071750 METAR ESMX 071750Z 06006KT 020V100 CAVOK 19/02 Q1030=
200605071720 METAR ESMX 071720Z 04007KT 010V080 CAVOK 20/01 Q1030=
200605071650 METAR ESMX 071650Z 05007KT 020V110 CAVOK 21/00 Q1030=
200605071620 METAR ESMX 071620Z 07007KT 030V130 CAVOK 21/01 Q1030=
200605071550 METAR ESMX 071550Z 05007KT 360V110 CAVOK 22/00 Q1030=
200605071520 METAR ESMX 071520Z 06006KT 020V110 CAVOK 22/M00 Q1031=
200605071450 METAR ESMX 071450Z 04006KT 350V090 CAVOK 23/00 Q1031=
200605071420 METAR ESMX 071420Z 06007KT 020V110 CAVOK 23/M00 Q1031=
200605071350 METAR ESMX 071350Z 07005KT 360V130 CAVOK 23/M01 Q1031=
200605071320 METAR ESMX 071320Z 05008KT 010V100 CAVOK 23/M00 Q1031=
200605071250 METAR ESMX 071250Z 07007G17KT 030V130 CAVOK 23/M00 Q1032=
200605071220 METAR ESMX 071220Z 06008KT 020V090 CAVOK 22/M00 Q1032=
200605071150 METAR ESMX 071150Z 08008KT 010V160 CAVOK 22/M01 Q1032=
200605071120 METAR ESMX 071120Z AUTO 05007KT 350V110 9999NDV R01/P1500U R19/P1500D FEW087/// 22/00 Q1032=
200605071050 METAR ESMX 071050Z AUTO 04010KT 020V080 9999NDV R01/P1500D R19/P1500D NCD 23/01 Q1032=
200605071020 METAR ESMX 071020Z AUTO 03008KT 350V090 9999NDV R01/P1500D R19/P1500U NCD 22/01 Q1033=
200605070950 METAR ESMX 070950Z AUTO 05009KT 010V080 9999NDV R01/P1500D R19/P1500D NCD 22/01 Q1033=
200605070920 METAR ESMX 070920Z AUTO 04008KT 020V100 9999NDV R01/P1500D R19/P1500U NCD 22/02 Q1033=
200605070850 METAR ESMX 070850Z AUTO 04008KT 020V080 9999NDV R01/P1500D R19/P1500U NCD 20/02 Q1033=
200605070820 METAR ESMX 070820Z AUTO 04007KT 010V080 9999NDV R01/P1500U R19/P1500D NCD 19/03 Q1033=
200605070750 METAR ESMX 070750Z AUTO 03009KT 9999NDV R01/P1500D R19/P1500D NCD 18/02 Q1033=
200605070720 METAR ESMX 070720Z AUTO 02007KT 9999NDV R01/P1500U R19/P1500D NCD 17/03 Q1033=
200605070650 METAR ESMX 070650Z AUTO 03006KT 9999NDV R01/P1500D R19/P1500U NCD 15/03 Q1033=
200605070620 METAR ESMX 070620Z AUTO 01005KT 340V050 9999NDV R01/P1500D R19/P1500U NCD 13/03 Q1033=
200605070550 METAR ESMX 070550Z AUTO 03006KT 350V060 9999NDV R01/P1500U R19/P1500D NCD 12/03 Q1034=
200605070520 METAR ESMX 070520Z AUTO 01005KT 9999NDV R01/P1500D R19/P1500D NCD 11/02 Q1034=
200605070450 METAR ESMX 070450Z AUTO 02005KT 9999NDV R01/P1500U R19/P1500D NCD 10/02 Q1034=
200605070420 METAR ESMX 070420Z AUTO 02006KT 9999NDV R01/P1500U R19/P1500U NCD 09/02 Q1034=
200605070350 METAR ESMX 070350Z AUTO 03005KT 9999NDV R01/P1500U R19/P1500U NCD 09/02 Q1034=
200605070320 METAR ESMX 070320Z AUTO 02006KT 9999NDV R01/P1500U R19/P1500U NCD 09/02 Q1034=
200605070250 METAR ESMX 070250Z AUTO 02005KT 9999NDV R01/P1500N R19/P1500N NCD 08/02 Q1034=
200605070220 METAR ESMX 070220Z AUTO 02005KT 9999NDV R01/P1500N R19/P1500N NCD 08/02 Q1034=
200605070150 METAR ESMX 070150Z AUTO 03005KT 9999NDV R01/P1500N R19/P1500N NCD 08/02 Q1034=
200605070120 METAR ESMX 070120Z AUTO 02006KT 9999NDV R01/P1500N R19/P1500N NCD 08/02 Q1034=
200605070050 METAR ESMX 070050Z AUTO 01005KT 9999NDV R01/P1500N R19/P1500N NCD 08/02 Q1034=
200605070020 METAR ESMX 070020Z AUTO 01005KT 9999NDV R01/P1500N R19/P1500N NCD 09/02 Q1034=
200605062350 METAR ESMX 062350Z AUTO 02005KT 9999NDV R01/P1500N R19/P1500N NCD 09/02 Q1034=
200605062320 METAR ESMX 062320Z AUTO 04005KT 9999NDV R01/P1500N R19/P1500N NCD 10/02 Q1034=
200605062250 METAR ESMX 062250Z AUTO 02005KT 9999NDV R01/P1500N R19/P1500N NCD 10/02 Q1034=
200605062220 METAR ESMX 062220Z AUTO 01005KT 350V060 9999NDV R01/P1500N R19/P1500N NCD 10/02 Q1034=
200605062150 METAR ESMX 062150Z AUTO 01004KT 340V060 9999NDV R01/P1500N R19/P1500N NCD 11/03 Q1034=
200605062120 METAR ESMX 062120Z AUTO 04004KT 9999NDV R01/P1500N R19/P1500N NCD 12/03 Q1033=
200605062050 METAR ESMX 062050Z AUTO 05005KT 010V080 9999NDV R01/P1500N R19/P1500N NCD 13/03 Q1033=
200605062020 METAR ESMX 062020Z AUTO 02005KT 9999NDV R01/P1500N R19/P1500N NCD 13/03 Q1033=
200605061950 METAR ESMX 061950Z AUTO 06004KT 020V100 9999NDV R01/P1500N R19/P1500N NCD 14/02 Q1033=
200605061920 METAR ESMX 061920Z AUTO 04005KT 360V080 9999NDV R01/P1500D R19/P1500U NCD 15/02 Q1033=
200605061850 METAR ESMX 061850Z AUTO 05004KT 010V110 9999NDV R01/P1500D R19/P1500D NCD 16/02 Q1033=
200605061820 METAR ESMX 061820Z AUTO 07006KT 030V130 9999NDV R01/P1500D R19/P1500U NCD 17/01 Q1033=
200605061750 METAR ESMX 061750Z AUTO 08006KT 020V130 9999NDV R01/P1500D R19/P1500D NCD 18/01 Q1033=
200605061720 METAR ESMX 061720Z AUTO 08006KT 030V130 9999NDV R01/P1500D R19/P1500U NCD 19/01 Q1033=
200605061650 METAR ESMX 061650Z AUTO 08008KT 050V120 9999NDV R01/P1500U R19/P1500D NCD 19/01 Q1033=
200605061620 METAR ESMX 061620Z AUTO 08007KT 020V140 9999NDV R01/P1500U R19/P1500D NCD 20/01 Q1033=
200605061550 METAR ESMX 061550Z AUTO 06009KT 010V100 9999NDV R01/P1500U R19/P1500U NCD 20/01 Q1033=
200605061520 METAR ESMX 061520Z AUTO 08008KT 040V130 9999NDV R01/P1500D R19/P1500D NCD 21/00 Q1033=
200605061450 METAR ESMX 061450Z AUTO 06007KT 340V110 9999NDV R01/P1500D R19/P1500D NCD 21/01 Q1033=
200605061420 METAR ESMX 061420Z AUTO 11008KT 070V160 9999NDV R01/P1500D R19/P1500D NCD 22/00 Q1033=
200605061350 METAR ESMX 061350Z AUTO 09009KT 040V170 9999NDV R01/P1500U R19/P1500D NCD 22/00 Q1033=
200605061320 METAR ESMX 061320Z AUTO 08010KT 040V160 9999NDV R01/P1500D R19/P1500D FEW086/// 22/M00 Q1033=
200605061250 METAR ESMX 061250Z AUTO 08008KT 020V150 9999NDV R01/P1500U R19/P1500U NCD 22/00 Q1033=
200605061220 METAR ESMX 061220Z AUTO 10009KT 040V130 9999NDV R01/P1500D R19/P1500D FEW092/// 22/01 Q1033=
200605061150 METAR ESMX 061150Z AUTO 06008KT 030V110 9999NDV R01/P1500D R19/P1500U NCD 22/01 Q1033=
200605061120 METAR ESMX 061120Z AUTO 06009KT 010V120 9999NDV R01/P1500U R19/P1500U NCD 22/02 Q1033=
200605061050 METAR ESMX 061050Z AUTO 07007KT 010V140 9999NDV R01/P1500U R19/P1500D NCD 21/03 Q1033=
200605061020 METAR ESMX 061020Z AUTO 04009KT 360V080 9999NDV R01/P1500U R19/P1500U NCD 21/03 Q1034=
200605060950 METAR ESMX 060950Z AUTO 03010KT 010V080 9999NDV R01/P1500U R19/P1500D NCD 20/03 Q1034=
200605060920 METAR ESMX 060920Z AUTO 05009KT 360V080 9999NDV R01/P1500D R19/P1500U NCD 20/03 Q1034=
200605060850 METAR ESMX 060850Z AUTO 04011KT 350V100 9999NDV R01/P1500U R19/P1500D NCD 19/03 Q1034=
200605060820 METAR ESMX 060820Z AUTO 03007KT 350V080 9999NDV R01/P1500D R19/P1500U NCD 18/04 Q1034=
200605060750 METAR ESMX 060750Z AUTO 04008KT 9999NDV R01/P1500U R19/P1500D NCD 17/04 Q1034=
200605060720 METAR ESMX 060720Z AUTO 04006KT 010V080 9999NDV R01/P1500U R19/P1500U NCD 15/04 Q1034=
200605060650 METAR ESMX 060650Z AUTO 04006KT 9999NDV R01/P1500U R19/P1500U NCD 13/04 Q1034=
200605060620 METAR ESMX 060620Z AUTO 04005KT 350V060 9999NDV R01/P1500U R19/P1500D NCD 13/04 Q1034=
200605060550 METAR ESMX 060550Z AUTO 04007KT 9999NDV R01/P1500U R19/P1500U NCD 11/04 Q1034=
200605060520 METAR ESMX 060520Z AUTO 04005KT 9999NDV R01/P1500D R19/P1500D NCD 10/03 Q1034=
200605060450 METAR ESMX 060450Z AUTO 04005KT 9999NDV R01/P1500U R19/P1500D NCD 09/03 Q1034=
200605060420 METAR ESMX 060420Z AUTO 02006KT 9999NDV R01/P1500D R19/P1500D NCD 08/03 Q1034=
200605060350 METAR ESMX 060350Z AUTO 04005KT 9999NDV R01/P1500D R19/P1500U NCD 08/02 Q1034=
200605060320 METAR ESMX 060320Z AUTO 04005KT 9999NDV R01/P1500U R19/P1500U NCD 08/02 Q1034=
200605060250 METAR ESMX 060250Z AUTO 03005KT 9999NDV R01/P1500N R19/P1500N NCD 07/02 Q1034=
200605060220 METAR ESMX 060220Z AUTO 02007KT 9999NDV R01/P1500N R19/P1500N NCD 07/02 Q1034=
200605060150 METAR ESMX 060150Z AUTO 01006KT 9999NDV R01/P1500N R19/P1500N NCD 07/02 Q1034=
200605060120 METAR ESMX 060120Z AUTO 02006KT 9999NDV R01/P1500N R19/P1500N NCD 07/02 Q1034=
200605060050 METAR ESMX 060050Z AUTO 01005KT 9999NDV R01/P1500N R19/P1500N NCD 07/02 Q1035=
200605060020 METAR ESMX 060020Z AUTO 01005KT 9999NDV R01/P1500N R19/P1500N NCD 08/02 Q1035=
200605052350 METAR ESMX 052350Z AUTO 01005KT 9999NDV R01/P1500N R19/P1500N NCD 07/03 Q1035=
200605052320 METAR ESMX 052320Z AUTO 02004KT 9999NDV R01/P1500N R19/P1500N NCD 08/03 Q1035=
200605052250 METAR ESMX 052250Z AUTO 02004KT 9999NDV R01/P1500N R19/P1500N NCD 09/02 Q1035=
200605052220 METAR ESMX 052220Z AUTO 02004KT 9999NDV R01/P1500N R19/P1500N NCD 10/02 Q1035=
200605052150 METAR ESMX 052150Z AUTO 01004KT 9999NDV R01/P1500N R19/P1500N NCD 10/02 Q1035=
200605052120 METAR ESMX 052120Z AUTO 04004KT 9999NDV R01/P1500N R19/P1500N NCD 12/02 Q1035=
200605052050 METAR ESMX 052050Z AUTO 05004KT 020V090 9999NDV R01/P1500N R19/P1500N NCD 12/03 Q1035=
200605052020 METAR ESMX 052020Z AUTO 04005KT 020V080 9999NDV R01/P1500N R19/P1500N NCD 13/03 Q1035=
200605051950 METAR ESMX 051950Z AUTO 07004KT 030V100 9999NDV R01/P1500N R19/P1500N NCD 14/03 Q1035=
200605051920 METAR ESMX 051920Z AUTO 06005KT 030V130 9999NDV R01/P1500D R19/P1500D NCD 15/03 Q1034=
200605051850 METAR ESMX 051850Z AUTO 07005KT 020V110 9999NDV R01/P1500U R19/P1500U NCD 16/03 Q1034=
200605051820 METAR ESMX 051820Z AUTO 09004KT 060V120 9999NDV R01/P1500D R19/P1500U NCD 17/01 Q1034=
200605051750 METAR ESMX 051750Z 10005KT 050V150 CAVOK 18/M00 Q1034=
200605051720 METAR ESMX 051720Z 10007KT 070V140 CAVOK 19/M00 Q1034=
200605051650 METAR ESMX 051650Z 08006KT 030V140 CAVOK 20/M00 Q1033=
200605051620 METAR ESMX 051620Z 09005KT 010V150 CAVOK 20/M01 Q1033=
200605051550 METAR ESMX 051550Z 10006KT 030V150 CAVOK 21/M01 Q1033=
200605051520 METAR ESMX 051520Z 13008KT 070V160 CAVOK 21/M01 Q1033=
200605051450 METAR ESMX 051450Z 11006KT 060V150 CAVOK 21/M01 Q1033=
200605051420 METAR ESMX 051420Z 12007KT 050V180 CAVOK 22/M01 Q1033=
200605051350 METAR ESMX 051350Z 10008KT 050V150 CAVOK 22/M01 Q1034=
200605051320 METAR ESMX 051320Z 14007KT 090V170 CAVOK 22/M01 Q1034=
200605051250 METAR ESMX 051250Z 11007KT 040V170 CAVOK 21/M00 Q1034=
200605051220 METAR ESMX 051220Z 10008KT 040V170 CAVOK 22/M01 Q1034=
200605051150 METAR ESMX 051150Z 12007KT 070V160 CAVOK 21/M01 Q1034=
200605051120 METAR ESMX 051120Z 09005G15KT 050V160 CAVOK 21/M01 Q1034=
200605051050 METAR ESMX 051050Z 10008KT 040V170 CAVOK 22/M01 Q1034=
200605051020 METAR ESMX 051020Z 10009KT 060V150 CAVOK 21/M01 Q1034=
200605050950 METAR ESMX 050950Z 13008KT 060V190 CAVOK 21/M01 Q1034=
200605050920 METAR ESMX 050920Z 13008KT 050V160 CAVOK 20/M00 Q1034=
200605050850 METAR ESMX 050850Z 10008KT 030V170 CAVOK 20/01 Q1034=
200605050820 METAR ESMX 050820Z 08005KT 360V120 CAVOK 19/02 Q1034=
200605050750 METAR ESMX 050750Z 06006KT 010V100 CAVOK 17/03 Q1035=
200605050720 METAR ESMX 050720Z 05004KT 010V110 CAVOK 16/03 Q1035=
200605050650 METAR ESMX 050650Z 05005KT 360V080 CAVOK 14/04 Q1035=
200605050620 METAR ESMX 050620Z 04004KT CAVOK 12/04 Q1035=
200605050550 METAR ESMX 050550Z 05004KT 010V080 CAVOK 11/04 Q1035=
200605050520 METAR ESMX 050520Z 03004KT 010V070 CAVOK 10/03 Q1034=
200605050450 METAR ESMX 050450Z 03004KT CAVOK 08/03 Q1034=
200605050420 METAR ESMX 050420Z 04004KT CAVOK 07/03 Q1034=
200605050350 METAR ESMX 050350Z 03005KT CAVOK 06/03 Q1034=
200605050320 METAR ESMX 050320Z AUTO 03004KT 9999NDV R01/P1500U R19/P1500D NCD 05/02 Q1034=
200605050250 METAR ESMX 050250Z AUTO 02004KT 9999NDV R01/P1500N R19/P1500N NCD 05/02 Q1034=
200605050220 METAR ESMX 050220Z AUTO 02004KT 9999NDV R01/P1500N R19/P1500N NCD 06/02 Q1034=
200605050150 METAR ESMX 050150Z AUTO 03004KT 9999NDV R01/P1500N R19/P1500N NCD 05/02 Q1034=
200605050120 METAR ESMX 050120Z AUTO 02004KT 9999NDV R01/P1500N R19/P1500N NCD 04/02 Q1034=
200605050050 METAR ESMX 050050Z AUTO 36004KT 9999NDV R01/P1500N R19/P1500N NCD 05/02 Q1034=
200605050020 METAR ESMX 050020Z AUTO 35004KT 9999NDV R01/P1500N R19/P1500N NCD 06/02 Q1034=
200605042350 METAR ESMX 042350Z AUTO 03003KT 010V070 9999NDV R01/P1500N R19/P1500N NCD 06/02 Q1034=
200605042320 METAR ESMX 042320Z VRB02KT CAVOK 08/02 Q1034=
200605042250 METAR ESMX 042250Z VRB02KT CAVOK 08/02 Q1034=
200605042220 METAR ESMX 042220Z 07003KT 030V140 CAVOK 09/02 Q1034=
200605042150 METAR ESMX 042150Z VRB03KT CAVOK 10/02 Q1034=
200605042120 METAR ESMX 042120Z 08004KT 020V120 CAVOK 11/01 Q1034=
200605042050 METAR ESMX 042050Z 09003KT 030V140 CAVOK 11/00 Q1034=
200605042020 METAR ESMX 042020Z 07004KT 040V100 CAVOK 12/M00 Q1034=
200605041950 METAR ESMX 041950Z 08004KT 040V130 CAVOK 12/M00 Q1034=
200605041920 METAR ESMX 041920Z 06003KT 360V110 CAVOK 14/M01 Q1034=
200605041850 METAR ESMX 041850Z 09006KT 050V120 CAVOK 15/M02 Q1034=
200605041820 METAR ESMX 041820Z 10006KT 060V160 CAVOK 15/M02 Q1034=
200605041750 METAR ESMX 041750Z 10005KT 060V140 CAVOK 17/M01 Q1033=
200605041720 METAR ESMX 041720Z 10006KT 060V140 CAVOK 18/M02 Q1033=
200605041650 METAR ESMX 041650Z 10006KT 050V150 CAVOK 18/M02 Q1033=
200605041620 METAR ESMX 041620Z 11007KT 060V150 CAVOK 19/M01 Q1033=
200605041550 METAR ESMX 041550Z 12008KT 080V170 CAVOK 19/M01 Q1033=
200605041520 METAR ESMX 041520Z 13008KT 080V170 CAVOK 20/M01 Q1033=
200605041450 METAR ESMX 041450Z 12007KT 060V170 CAVOK 20/00 Q1033=
200605041420 METAR ESMX 041420Z 12008KT 060V170 CAVOK 20/01 Q1033=
200605041350 METAR ESMX 041350Z 13007KT 050V190 CAVOK 20/01 Q1033=
200605041320 METAR ESMX 041320Z 12008KT 080V160 CAVOK 20/01 Q1033=
200605041250 METAR ESMX 041250Z 09008KT 040V180 CAVOK 21/01 Q1033=
200605041220 METAR ESMX 041220Z 12007KT 070V170 CAVOK 20/02 Q1033=
200605041120 METAR ESMX 041120Z 11008KT 060V160 CAVOK 20/03 Q1033=
200605041050 METAR ESMX 041050Z 12008KT 080V180 CAVOK 20/05 Q1033=
200605041020 METAR ESMX 041020Z 14008KT 070V170 CAVOK 20/05 Q1033=
200605040950 METAR ESMX 040950Z 10008KT 040V140 CAVOK 20/04 Q1033=
200605040920 METAR ESMX 040920Z 10007KT CAVOK 19/06 Q1033=
200605040850 METAR ESMX 040850Z 05004KT CAVOK 19/08 Q1033=
200605040820 METAR ESMX 040820Z 05004KT 020V100 CAVOK 17/07 Q1033=
200605040750 METAR ESMX 040750Z 06004KT CAVOK 15/07 Q1033=
200605040720 METAR ESMX 040720Z 06005KT CAVOK 13/07 Q1033=
200605040650 METAR ESMX 040650Z 04005KT CAVOK 12/07 Q1032=
200605040620 METAR ESMX 040620Z 08004KT CAVOK 11/07 Q1032=
200605040550 METAR ESMX 040550Z VRB02KT CAVOK 09/07 Q1032=
200605040520 METAR ESMX 040520Z 08003KT 040V120 CAVOK 08/06 Q1032=
200605040450 METAR ESMX 040450Z 07003KT 020V120 CAVOK 07/06 Q1031=
200605040420 METAR ESMX 040420Z 06003KT 020V130 CAVOK 06/05 Q1031=
200605040350 METAR ESMX 040350Z 05004KT CAVOK 06/05 Q1031=
200605040320 METAR ESMX 040320Z AUTO 03004KT 9999NDV R01/P1500N R19/P1500D FEW063/// 06/05 Q1031=
200605040250 METAR ESMX 040250Z AUTO 03004KT 9000NDV R01/P1500N R19/P1500N BR FEW061/// 06/05 Q1030=
200605040220 METAR ESMX 040220Z AUTO 02004KT 7000NDV R01/P1500N R19/P1500N BR SCT060/// 07/06 Q1030=
200605040150 METAR ESMX 040150Z AUTO 02004KT 7000NDV R01/P1500N R19/P1500N BR FEW060/// 07/06 Q1030=
200605040120 METAR ESMX 040120Z AUTO 03003KT 8000NDV R01/P1500N R19/P1500N BR SCT060/// 07/06 Q1030=
200605040050 METAR ESMX 040050Z AUTO 04003KT 8000NDV R01/P1500N R19/P1500N BR FEW059/// 07/06 Q1030=
200605040020 METAR ESMX 040020Z AUTO 04004KT 010V070 9999NDV R01/P1500N R19/P1500N FEW044/// 07/05 Q1030=
200605032350 METAR ESMX 032350Z 05003KT CAVOK 07/06 Q1030=
200605032320 METAR ESMX 032320Z VRB02KT CAVOK 07/06 Q1030=
200605032250 METAR ESMX 032250Z 06003KT 020V110 CAVOK 08/06 Q1030=
200605032220 METAR ESMX 032220Z 06003KT 020V100 CAVOK 08/06 Q1029=
200605032150 METAR ESMX 032150Z VRB02KT CAVOK 08/06 Q1029=
200605032120 METAR ESMX 032120Z VRB02KT CAVOK 08/06 Q1029=
200605032050 METAR ESMX 032050Z VRB01KT CAVOK 09/06 Q1029=
200605032020 METAR ESMX 032020Z 11003KT CAVOK 11/06 Q1029=
200605031950 METAR ESMX 031950Z 12003KT 080V160 CAVOK 11/06 Q1029=
200605031920 METAR ESMX 031920Z 13003KT 050V170 CAVOK 12/06 Q1028=
200605031850 METAR ESMX 031850Z 13003KT 090V170 CAVOK 13/06 Q1028=
200605031820 METAR ESMX 031820Z 13004KT 090V160 CAVOK 14/06 Q1028=
200605031750 METAR ESMX 031750Z 16004KT 9999 BKN045 15/06 Q1027=
200605031720 METAR ESMX 031720Z 16006KT CAVOK 15/05 Q1027=
200605031650 METAR ESMX 031650Z 15005KT 110V190 CAVOK 16/06 Q1027=
200605031620 METAR ESMX 031620Z 12006KT 080V170 CAVOK 16/07 Q1027=
200605031550 METAR ESMX 031550Z 12005KT 050V200 CAVOK 15/07 Q1027=
200605031520 METAR ESMX 031520Z 13005KT 080V200 CAVOK 16/07 Q1026=
200605031450 METAR ESMX 031450Z 13006KT 080V170 CAVOK 16/06 Q1026=
200605031420 METAR ESMX 031420Z 13007KT 100V170 CAVOK 16/06 Q1026=
200605031350 METAR ESMX 031350Z 14007KT 080V190 CAVOK 17/06 Q1026=
200605031320 METAR ESMX 031320Z 14008KT 110V190 9999 FEW045 17/06 Q1026=
200605031250 METAR ESMX 031250Z 16008KT 110V190 9999 FEW045 16/06 Q1026=
200605031220 METAR ESMX 031220Z 15007KT 110V190 9999 FEW043 SCT064 17/06 Q1026=
200605031150 METAR ESMX 031150Z 17007KT 9999 FEW035 15/06 Q1025=
200605031120 METAR ESMX 031120Z 15007KT 120V200 9999 SCT035 16/07 Q1025=
200605031050 METAR ESMX 031050Z 14007KT 090V170 9999 FEW035 14/06 Q1025=
200605031020 METAR ESMX 031020Z 15005KT 050V220 9999 FEW025 15/07 Q1025=
200605030950 METAR ESMX 030950Z VRB05KT 9999 FEW020 14/07 Q1025=
200605030920 METAR ESMX 030920Z 17005KT 110V220 9999 FEW006 12/08 Q1025=
200605030850 METAR ESMX 030850Z 17005KT 110V230 9999 FEW003 10/08 Q1025=
200605030820 METAR ESMX 030820Z 20004KT 160V300 9999 FEW001 SCT003 BKN005 09/09 Q1025=
200605030750 METAR ESMX 030750Z VRB02KT 4000N BR SCT001 BKN004 08/08 Q1025=
200605030720 METAR ESMX 030720Z 12003KT 080V150 1500N R01/P1500U R19/1000VP1500N BCFG VV002 07/07 Q1025=
200605030650 METAR ESMX 030650Z 08003KT 020V120 0400 R01/0700U R19/0650V1000N FG VV002 06/06 Q1024=
200605030620 METAR ESMX 030620Z VRB02KT 0200 R01/0350V0450N R19/0450N FG VV001 06/06 Q1024=
200605030550 METAR ESMX 030550Z VRB02KT 0200 R01/0400N R19/0400N FG VV001 06/06 Q1024=
200605030520 METAR ESMX 030520Z 13003KT 0200 R01/0350V0550N R19/0500N FG VV001 06/05 Q1024=
200605030450 METAR ESMX 030450Z VRB02KT 0250 R01/0500N R19/0550N FG VV002 06/05 Q1024=
200605030420 METAR ESMX 030420Z VRB02KT 0300 R01/0650N R19/0650D FG VV002 06/06 Q1023=
200605030350 METAR ESMX 030350Z VRB01KT 0350 R01/0800N R19/0800V1300N FG VV002 06/05 Q1023=
200605030320 METAR ESMX 030320Z AUTO VRB02KT 0350NDV R01/0800V1300D R19/1000VP1500N FG VV001 06/05 Q1023=
200605030250 METAR ESMX 030250Z AUTO 00000KT 0150NDV R01/0650N R19/0800N FG VV000 06/05 Q1023=
200605030220 METAR ESMX 030220Z AUTO 19003KT 0200NDV R01/0800N R19/0900VP1500D FG VV000 06/05 Q1023=
200605030150 METAR ESMX 030150Z AUTO VRB01KT 0150NDV R01/0600N R19/0700N FG VV000 06/05 Q1022=
200605030120 METAR ESMX 030120Z AUTO 20004KT 0150NDV R01/0700N R19/0700D FG VV000 06/05 Q1022=
200605030050 METAR ESMX 030050Z 18004KT 140V200 0150 R01/0550N R19/0600N FG VV001 06/06 Q1022=
200605030020 METAR ESMX 030020Z 19003KT 150V220 0200 R01/0700N R19/0700V1200D FG VV002 06/06 Q1022=
200605022350 METAR ESMX 022350Z 19003KT 140V220 0300 R01/1000D R19/1000N FG VV002 06/06 Q1021=
200605022320 METAR ESMX 022320Z 17003KT 1900 BR BCFG FEW002 BKN004 04/04 Q1021=
200605022250 METAR ESMX 022250Z 18003KT 3800 BR BCFG SCT004 04/03 Q1021=
200605022220 METAR ESMX 022220Z 18004KT 3000 BR BCFG NSC 04/03 Q1020=
200605022150 METAR ESMX 022150Z VRB02KT 4700 BR FEW036 06/05 Q1020=
200605022120 METAR ESMX 022120Z 16004KT 7000 BR SCT035 07/05 Q1020=
200605022050 METAR ESMX 022050Z 18004KT 9000 BR OVC036 07/06 Q1020=
200605022020 METAR ESMX 022020Z 16004KT 9999 BKN036 07/06 Q1020=
200605021950 METAR ESMX 021950Z 16004KT 9999 BKN037 08/06 Q1019=
200605021920 METAR ESMX 021920Z 17006KT 150V210 9999 SCT017 BKN031 08/06 Q1019=
200605021850 METAR ESMX 021850Z 18006KT 9999 BKN033 08/06 Q1019=
200605021820 METAR ESMX 021820Z 18007KT 9999 SCT012 BKN035 08/06 Q1018=
200605021750 METAR ESMX 021750Z 16006KT 120V200 9999 FEW015 BKN017 09/06 Q1018=
200605021720 METAR ESMX 021720Z 16007KT 120V200 9999 FEW014 BKN020 10/07 Q1018=
200605021650 METAR ESMX 021650Z 16006KT 9999 FEW019 SCT022 BKN032 10/07 Q1018=
200605021620 METAR ESMX 021620Z 15007KT 110V170 9999 FEW019 SCT022 BKN039 10/06 Q1017=
200605021550 METAR ESMX 021550Z 16005KT 130V190 9999 FEW030 BKN040 11/06 Q1017=
200605021520 METAR ESMX 021520Z 13003KT 090V170 9999 FEW030 SCT043 10/08 Q1017 RESHRA=
200605021450 METAR ESMX 021450Z 15005KT 120V190 9999 -SHRA FEW030CB SCT050 10/07 Q1017=
200605021420 METAR ESMX 021420Z 17007KT 130V190 9999 -SHRA FEW045CB SCT070 10/07 Q1017=
200605021350 METAR ESMX 021350Z 19011KT 9999 SCT030 BKN090 11/06 Q1016=
200605021320 METAR ESMX 021320Z 16008KT 120V190 9999 FEW025 BKN073 12/05 Q1016=
200605021250 METAR ESMX 021250Z 14007KT 110V200 9999 SCT020 BKN070 12/05 Q1016=
200605021220 METAR ESMX 021220Z 16008KT 140V210 9999 FEW025 11/06 Q1015=
200605021150 METAR ESMX 021150Z 18008KT 140V200 9999 FEW026 BKN070 12/05 Q1015=
200605021120 METAR ESMX 021120Z 17005KT 150V240 9999 FEW026 12/06 Q1015=
200605021050 METAR ESMX 021050Z 15006KT 100V200 9999 FEW025 12/06 Q1015=
200605021020 METAR ESMX 021020Z 21004KT 170V250 9999 FEW020 12/05 Q1014=
200605020950 METAR ESMX 020950Z 15004KT 090V210 9999 FEW020 11/05 Q1014=
200605020920 METAR ESMX 020920Z 15003KT 080V210 9999 FEW015 10/05 Q1014=
200605020850 METAR ESMX 020850Z 20003KT 150V260 9999 FEW014 09/05 Q1014=
200605020820 METAR ESMX 020820Z 20004KT 170V250 9999 SCT012 09/06 Q1014=
200605020750 METAR ESMX 020750Z 20006KT 9999 BKN012 07/05 Q1014=
200605020720 METAR ESMX 020720Z 23005KT 170V250 9999 FEW009 BKN011 OVC016 07/05 Q1013=
200605020650 METAR ESMX 020650Z 21004KT 170V240 9999 FEW009 SCT011 OVC013 06/05 Q1013=
200605020620 METAR ESMX 020620Z 21004KT 170V250 9999 FEW007 OVC010 06/05 Q1013=
200605020550 METAR ESMX 020550Z 20005KT 9999 FEW005 OVC007 06/05 Q1013=
200605020520 METAR ESMX 020520Z 19006KT 150V210 9999 BKN005 06/05 Q1012=
200605020450 METAR ESMX 020450Z 19003KT 9999 FEW004 OVC008 06/05 Q1012=
200605020420 METAR ESMX 020420Z 19004KT 8000 BR SCT004 OVC010 06/05 Q1012=
200605020350 METAR ESMX 020350Z 20004KT 4000 BR FEW002 SCT003 BKN008 06/05 Q1012=
200605020320 METAR ESMX 020320Z AUTO 22005KT 1700NDV R01/P1500N R19/P1500N OVC001/// 06/05 Q1011=
200605020250 METAR ESMX 020250Z AUTO 21005KT 1900NDV R01/P1500N R19/P1500N OVC001/// 06/05 Q1011=
200605020220 METAR ESMX 020220Z AUTO 20004KT 170V250 0400NDV R01/1100VP1500U R19/1000VP1500U FG VV001 06/06 Q1011=
200605020150 METAR ESMX 020150Z AUTO 19004KT 0350NDV R01/1200D R19/1300D FG VV001 06/06 Q1011=
200605020120 METAR ESMX 020120Z AUTO 19003KT 1200NDV R01/P1500N R19/P1500N OVC001/// 06/06 Q1011=
200605020050 METAR ESMX 020050Z AUTO 18001KT 1100NDV R01/P1500N R19/P1500N FG OVC001/// 06/06 Q1011=
200605020020 METAR ESMX 020020Z 20001KT 1300 BR OVC002 06/06 Q1011=
200605012350 METAR ESMX 012350Z 22003KT 1600 -DZ BR OVC003 06/06 Q1011=
200605012320 METAR ESMX 012320Z VRB02KT 2700 DZ BR FEW003 BKN004 06/06 Q1011=
200605012250 METAR ESMX 012250Z VRB02KT 2300 -RA BR OVC003 06/06 Q1011=
200605012220 METAR ESMX 012220Z 02003KT 2300 -RA BR BKN003 06/06 Q1012=
200605012150 METAR ESMX 012150Z 05004KT 020V080 2400 -RA BR FEW024 BKN038 06/06 Q1012=
200605012120 METAR ESMX 012120Z 05003KT 020V110 2600 -RA BR FEW034 BKN038 06/05 Q1012=
200605012050 METAR ESMX 012050Z 07003KT 020V090 2800 -RA BR BKN034 06/05 Q1012=
200605012020 METAR ESMX 012020Z 07003KT 040V120 3100 -RA BR BKN013 06/05 Q1013=
200605011950 METAR ESMX 011950Z 10003KT 040V160 3000 -RA BR OVC014 06/05 Q1013=
200605011920 METAR ESMX 011920Z 07003KT 030V110 2700 -RA BR FEW007 OVC012 06/05 Q1013=
200605011850 METAR ESMX 011850Z 08003KT 040V120 2500 -RA BR FEW004 SCT005 BKN007 06/05 Q1013=
200605011820 METAR ESMX 011820Z 09003KT 030V140 2800 -RA BR FEW003 OVC005 06/05 Q1013=
200605011750 METAR ESMX 011750Z VRB02KT 3300 -RA BR FEW004 OVC006 06/05 Q1014=
200605011720 METAR ESMX 011720Z VRB02KT 4000 RA BR FEW005 BKN007 OVC009 06/05 Q1014=
200605011650 METAR ESMX 011650Z 10003KT 050V150 5000 -RA FEW005 BKN006 06/05 Q1014=
200605011620 METAR ESMX 011620Z 09003KT 030V150 7000 -RA FEW004 BKN005 06/05 Q1014=
200605011550 METAR ESMX 011550Z 09003KT 060V120 9000 -RA SCT005 BKN008 06/06 Q1014=
200605011520 METAR ESMX 011520Z 10004KT 040V140 8000 -RA FEW004 SCT006 BKN008 06/06 Q1014=
200605011450 METAR ESMX 011450Z 08004KT 040V120 6000 RA FEW004 BKN007 07/06 Q1014=
200605011420 METAR ESMX 011420Z VRB02KT 8000 -RA FEW003 SCT006 BKN008 07/06 Q1014=
200605011350 METAR ESMX 011350Z 36004KT 6000 -RA SCT007 BKN009 07/06 Q1014=
200605011320 METAR ESMX 011320Z 01002KT 9999 -RA FEW012 BKN026 07/06 Q1014=
200605011250 METAR ESMX 011250Z VRB02KT 9000 -RA SCT011 BKN020 07/06 Q1014=
200605011220 METAR ESMX 011220Z 00000KT 9999 -RA BKN011 08/06 Q1015=
