##########################################################
# Query made at 04/19/2024 20:54:40 UTC
# Time interval: from 12/01/2006 12:00  to 12/31/2006 12:59  UTC
##########################################################

##########################################################
# ESMX, Vaxjo (Sweden)
# WMO index: 02641. WIGOS ID: 0-20000-0-02648
# Latitude 56-51N. Longitude 014-50E. Altitude 199 m.
##########################################################

200612311250 METAR ESMX 311250Z AUTO 27012KT 250V310 9999NDV FEW010/// SCT015/// BKN027/// 06/04 Q1003=
200612311220 METAR ESMX 311220Z AUTO 27010KT 230V310 9999NDV FEW008/// OVC010/// 06/05 Q1003=
200612311150 METAR ESMX 311150Z AUTO 27011KT 9999NDV FEW009/// SCT011/// BKN015/// 05/04 Q1002 RERA REDZ=
200612311120 METAR ESMX 311120Z AUTO 27010KT 240V320 9999NDV FEW006/// SCT008/// BKN010/// 05/04 Q1002=
200612311050 METAR ESMX 311050Z AUTO 28010KT 9000NDV DZ FEW006/// SCT008/// BKN010/// 04/03 Q1001 RERA=
200612311020 METAR ESMX 311020Z AUTO 29009KT 9999NDV -RA FEW007/// BKN011/// OVC015/// 04/03 Q1001=
200612310950 METAR ESMX 310950Z AUTO 29010KT 9999NDV -RA FEW006/// BKN010/// BKN013/// 04/03 Q1000=
200612310920 METAR ESMX 310920Z AUTO 31011KT 9999NDV -RA FEW008/// SCT020/// BKN025/// 03/03 Q0999=
200612310850 METAR ESMX 310850Z AUTO 30010KT 260V330 9999NDV -RA FEW007/// BKN011/// OVC016/// 04/03 Q0998=
200612310820 METAR ESMX 310820Z AUTO 31007KT 9000NDV -RA FEW008/// BKN010/// BKN016/// 03/02 Q0997=
200612310750 METAR ESMX 310750Z AUTO 32008KT 8000NDV -RA FEW003/// SCT008/// BKN013/// 04/03 Q0996=
200612310720 METAR ESMX 310720Z AUTO 33005KT 5000NDV RA FEW002/// SCT007/// BKN014/// 04/04 Q0995=
200612310650 METAR ESMX 310650Z AUTO 03004KT 5000NDV RA FEW002/// SCT005/// BKN008/// 04/04 Q0995=
200612310620 METAR ESMX 310620Z AUTO 06003KT 010V100 3300NDV -RA FEW006/// SCT008/// BKN010/// 04/04 Q0995=
200612310550 METAR ESMX 310550Z AUTO 06003KT 030V100 6000NDV RA OVC008/// 04/04 Q0995 REDZ=
200612310520 METAR ESMX 310520Z AUTO 06002KT 7000NDV -DZ SCT010/// OVC015/// 04/04 Q0995=
200612310450 METAR ESMX 310450Z AUTO 13003KT 100V160 9999NDV UP FEW012/// SCT016/// BKN019/// 04/03 Q0996 REDZ=
200612310420 METAR ESMX 310420Z AUTO 13004KT 100V160 9999NDV DZ FEW005/// SCT010/// BKN013/// 05/04 Q0997 RERA=
200612310350 METAR ESMX 310350Z AUTO 13005KT 090V170 6000NDV RA FEW006/// BKN009/// BKN013/// 05/05 Q0998=
200612310320 METAR ESMX 310320Z AUTO 15005KT 100V190 5000NDV -RA FEW007/// SCT012/// BKN016/// 06/05 Q0999 REDZ=
200612310250 METAR ESMX 310250Z AUTO 16005KT 6000NDV -DZ FEW008/// SCT016/// BKN024/// 06/05 Q0999 RERA=
200612310220 METAR ESMX 310220Z AUTO 16010KT 5000NDV RA FEW004/// BKN006/// 06/05 Q1001=
200612310150 METAR ESMX 310150Z AUTO 17006KT 140V200 6000NDV -RA OVC006/// 07/06 Q1001=
200612310120 METAR ESMX 310120Z AUTO 18010KT 7000NDV BR BKN007/// OVC010/// 07/06 Q1002=
200612310050 METAR ESMX 310050Z AUTO 19011KT 8000NDV BR FEW007/// SCT011/// BKN015/// 06/05 Q1003=
200612310020 METAR ESMX 310020Z AUTO 19009KT 9000NDV FEW009/// SCT011/// BKN013/// 06/05 Q1003=
200612302350 METAR ESMX 302350Z AUTO 18010KT 9999NDV FEW010/// SCT015/// BKN019/// 07/05 Q1003=
200612302320 METAR ESMX 302320Z AUTO 18011KT 9999NDV FEW009/// SCT014/// BKN018/// 07/06 Q1004=
200612302250 METAR ESMX 302250Z AUTO 19010KT 9999NDV FEW010/// OVC014/// 07/06 Q1005=
200612302220 METAR ESMX 302220Z AUTO 20011KT 9999NDV FEW010/// SCT013/// BKN016/// 07/06 Q1005=
200612302150 METAR ESMX 302150Z AUTO 20013KT 9999NDV FEW012/// SCT016/// BKN019/// 07/06 Q1006=
200612302120 METAR ESMX 302120Z AUTO 20013KT 9999NDV FEW011/// BKN013/// OVC018/// 07/06 Q1006=
200612302050 METAR ESMX 302050Z AUTO 19013KT 9999NDV FEW009/// OVC011/// 07/06 Q1006=
200612302020 METAR ESMX 302020Z AUTO 19014KT 9999NDV FEW009/// SCT012/// BKN015/// 07/06 Q1006=
200612301950 METAR ESMX 301950Z AUTO 19013KT 9000NDV FEW008/// BKN012/// OVC020/// 07/06 Q1006=
200612301920 METAR ESMX 301920Z AUTO 19013KT 9000NDV FEW009/// BKN013/// BKN018/// 07/06 Q1006=
200612301850 METAR ESMX 301850Z AUTO 19014KT 9999NDV FEW008/// SCT012/// BKN014/// 07/06 Q1006=
200612301820 METAR ESMX 301820Z AUTO 21013KT 170V240 9999NDV FEW007/// SCT009/// BKN010/// 07/06 Q1006=
200612301750 METAR ESMX 301750Z AUTO 19012KT 9999NDV FEW007/// OVC009/// 07/06 Q1006=
200612301720 METAR ESMX 301720Z AUTO 20014KT 9999NDV SCT006/// BKN008/// OVC010/// 06/06 Q1007=
200612301650 METAR ESMX 301650Z AUTO 20015KT 9999NDV OVC003/// 06/05 Q1007=
200612301620 METAR ESMX 301620Z AUTO 20015KT 5000NDV BR FEW004/// OVC005/// 05/05 Q1007=
200612301550 METAR ESMX 301550Z AUTO 19015KT 9999NDV FEW005/// OVC007/// 05/04 Q1007 RERA REDZ=
200612301520 METAR ESMX 301520Z AUTO 18015KT 6000NDV -RA FEW005/// BKN006/// OVC009/// 05/04 Q1007=
200612301450 METAR ESMX 301450Z AUTO 18014KT 5000NDV -RA BKN006/// OVC010/// 04/04 Q1007 REDZ=
200612301420 METAR ESMX 301420Z AUTO 17014KT 3400NDV DZ FEW007/// SCT012/// BKN015/// 04/03 Q1008 RERA=
200612301350 METAR ESMX 301350Z AUTO 17013G23KT 7000NDV -RA FEW018/// BKN021/// BKN026/// 05/03 Q1008 REDZ=
200612301320 METAR ESMX 301320Z AUTO 16013KT 140V200 9999NDV -RA FEW048/// BKN060/// 05/03 Q1008 REDZ=
200612301250 METAR ESMX 301250Z AUTO 17011KT 150V210 8000NDV -RA FEW028/// 05/03 Q1008=
200612301220 METAR ESMX 301220Z AUTO 17013KT 9999NDV SCT068/// BKN095/// 05/03 Q1009=
200612301150 METAR ESMX 301150Z AUTO 16012KT 130V200 9000NDV BR OVC063/// 05/03 Q1010=
200612301120 METAR ESMX 301120Z AUTO 16012KT 9000NDV BR SCT063/// BKN083/// BKN100/// 05/03 Q1010=
200612301050 METAR ESMX 301050Z AUTO 15011KT 120V190 8000NDV BR FEW009/// BKN061/// BKN082/// 05/03 Q1011=
200612301020 METAR ESMX 301020Z AUTO 17012KT 140V200 7000NDV BR FEW007/// SCT009/// OVC058/// 04/03 Q1012=
200612300950 METAR ESMX 300950Z AUTO 17011KT 6000NDV BR BKN007/// BKN009/// 04/03 Q1012=
200612300920 METAR ESMX 300920Z AUTO 16011KT 120V190 5000NDV BR OVC007/// 04/03 Q1013=
200612300850 METAR ESMX 300850Z AUTO 17009KT 130V200 6000NDV BR OVC006/// 04/02 Q1013=
200612300820 METAR ESMX 300820Z AUTO 16008KT 5000NDV BR BKN006/// OVC009/// 03/02 Q1014=
200612300750 METAR ESMX 300750Z AUTO 17011KT 140V220 6000NDV BR OVC006/// 03/02 Q1014=
200612300720 METAR ESMX 300720Z AUTO 16010KT 120V200 6000NDV BR OVC006/// 03/02 Q1015=
200612300650 METAR ESMX 300650Z AUTO 17009KT 140V200 6000NDV BR OVC006/// 03/02 Q1015=
200612300620 METAR ESMX 300620Z AUTO 15008KT 110V190 7000NDV BR OVC006/// 03/02 Q1015=
200612300550 METAR ESMX 300550Z AUTO 18009KT 7000NDV BR OVC007/// 03/01 Q1016=
200612300520 METAR ESMX 300520Z AUTO 17010KT 8000NDV BR OVC006/// 03/02 Q1016=
200612300450 METAR ESMX 300450Z AUTO 17010KT 140V200 8000NDV BR OVC006/// 03/02 Q1016=
200612300420 METAR ESMX 300420Z AUTO 17009KT 130V200 8000NDV BR OVC006/// 03/02 Q1017=
200612300350 METAR ESMX 300350Z AUTO 17010KT 9000NDV BR OVC006/// 03/02 Q1017=
200612300320 METAR ESMX 300320Z AUTO 18009KT 9000NDV BR OVC005/// 03/02 Q1017=
200612300250 METAR ESMX 300250Z AUTO 18009KT 9000NDV OVC005/// 02/02 Q1018=
200612300220 METAR ESMX 300220Z AUTO 18012KT 9999NDV OVC006/// 02/02 Q1018=
200612300150 METAR ESMX 300150Z AUTO 19011KT 9999NDV FEW007/// BKN009/// OVC011/// 02/02 Q1018=
200612300120 METAR ESMX 300120Z AUTO 16008KT 9999NDV FEW011/// 02/01 Q1018=
200612300050 METAR ESMX 300050Z AUTO 16007KT 9999NDV NCD 02/01 Q1019=
200612300020 METAR ESMX 300020Z AUTO 16005KT 9999NDV NCD 02/01 Q1019=
200612292350 METAR ESMX 292350Z AUTO 16005KT 9999NDV BKN022/// 02/01 Q1020=
200612292320 METAR ESMX 292320Z AUTO 17006KT 9999NDV OVC024/// 03/01 Q1020=
200612292250 METAR ESMX 292250Z AUTO 19005KT 160V220 9999NDV BR OVC025/// 03/02 Q1020=
200612292220 METAR ESMX 292220Z AUTO 18007KT 130V200 8000NDV BR OVC029/// 03/02 Q1020=
200612292150 METAR ESMX 292150Z AUTO 19006KT 4700NDV BR OVC033/// 02/02 Q1021=
200612292120 METAR ESMX 292120Z AUTO 17006KT 4800NDV BR OVC033/// 03/02 Q1020=
200612292050 METAR ESMX 292050Z AUTO 19007KT 4100NDV BR FEW003/// BKN004/// OVC033/// 03/03 Q1021=
200612292020 METAR ESMX 292020Z AUTO 19006KT 3600NDV BR BKN003/// OVC032/// 03/02 Q1021=
200612291950 METAR ESMX 291950Z AUTO 18006KT 4100NDV BR OVC033/// 02/02 Q1022=
200612291920 METAR ESMX 291920Z AUTO 19007KT 5000NDV BR FEW006/// OVC033/// 02/02 Q1022=
200612291850 METAR ESMX 291850Z AUTO 19004KT 160V230 6000NDV BR OVC032/// 02/02 Q1022=
200612291820 METAR ESMX 291820Z 18006KT 9000 BR OVC033 02/02 Q1022=
200612291750 METAR ESMX 291750Z 18005KT 9000 BR SCT003 OVC030 02/02 Q1022=
200612291720 METAR ESMX 291720Z 18006KT 4200 BR BKN002 OVC030 02/02 Q1022=
200612291650 METAR ESMX 291650Z 20006KT 2300 BR FEW001 BKN002 02/02 Q1022=
200612291620 METAR ESMX 291620Z 20005KT 2000 BR OVC002 02/02 Q1022=
200612291550 METAR ESMX 291550Z 20006KT 3700 BR OVC003 02/02 Q1022=
200612291520 METAR ESMX 291520Z 21005KT 7000 BR OVC004 02/02 Q1022=
200612291450 METAR ESMX 291450Z 17003KT 140V210 7000 BR FEW006 BKN008 OVC012 02/02 Q1022=
200612291420 METAR ESMX 291420Z 17003KT 6000 BR FEW003 BKN007 OVC011 01/01 Q1022=
200612291350 METAR ESMX 291350Z VRB01KT 1200 R01/2000U R19/2000U BR SCT002 BKN006 01/01 Q1023=
200612291320 METAR ESMX 291320Z 20003KT 0400 R01/1000 R19/0800 FG VV002 01/01 Q1023=
200612291250 METAR ESMX 291250Z 21002KT 0300 R01/0600N R19/0650N FG VV002 01/01 Q1023=
200612291220 METAR ESMX 291220Z VRB02KT 0300 R01/0600N R19/0650N FG VV002 00/00 Q1023=
200612291150 METAR ESMX 291150Z 23003KT 0550 R01/0800 R19/1100D FZFG VV002 M00/M00 Q1023=
200612291120 METAR ESMX 291120Z 22006KT 0900 R01/0900V1400U R19/0900V1500U FZFG VV002 M00/M00 Q1023=
200612291050 METAR ESMX 291050Z 21005KT 0700 R01/1000N R19/1200N FZFG VV002 M00/M01 Q1023=
200612291020 METAR ESMX 291020Z 23005KT 0600 R01/0900 R19/1000N FZFG VV002 M01/M01 Q1023=
200612290950 METAR ESMX 290950Z 22004KT 0350 R01/0650 R19/0550V0900D FZFG VV002 M01/M01 Q1023=
200612290920 METAR ESMX 290920Z 24005KT 0400 R01/0700 R19/0750N FZFG VV002 M01/M01 Q1023=
200612290850 METAR ESMX 290850Z 21003KT 0500 R01/0800N R19/0900 FZFG VV002 M02/M02 Q1023=
200612290820 METAR ESMX 290820Z AUTO VRB02KT 0350NDV R01/0650 R19/0800N FG VV001 M02/M02 Q1023=
200612290750 METAR ESMX 290750Z AUTO 26003KT 220V290 0450NDV R01/1000 R19/1100V1700U FG VV001 M02/M02 Q1022=
200612290720 METAR ESMX 290720Z AUTO 21004KT 0350NDV R01/0800V1200N R19/0800V1400N FG VV001 M02/M02 Q1023=
200612290650 METAR ESMX 290650Z AUTO VRB01KT 0350NDV R01/0800V1400U R19/1200N FG VV001 M02/M02 Q1022=
200612290620 METAR ESMX 290620Z AUTO 22003KT 0350NDV R01/1000N R19/1200U FG VV001 M02/M02 Q1022=
200612290550 METAR ESMX 290550Z AUTO VRB02KT 0300NDV R01/0800V1500D R19/0800V1100U FG VV001 M02/M02 Q1022=
200612290520 METAR ESMX 290520Z AUTO 00000KT 0300NDV R01/0900D R19/1200N FG VV001 M02/M02 Q1021=
200612290450 METAR ESMX 290450Z AUTO 26003KT 0400NDV R01/1000V1400N R19/1200N FG VV001 M01/M01 Q1021=
200612290420 METAR ESMX 290420Z AUTO 27003KT 0400NDV R01/1100D R19/0900V1400N FG VV001 M01/M01 Q1021=
200612290350 METAR ESMX 290350Z AUTO 26003KT 240V300 0350NDV R01/1100N R19/1100N FG VV001 M01/M01 Q1021=
200612290320 METAR ESMX 290320Z AUTO VRB02KT 0350NDV R01/1000N R19/1200D FG VV001 M01/M01 Q1021=
200612290250 METAR ESMX 290250Z AUTO 25003KT 210V280 0300NDV R01/0900N R19/0900N FG VV001 M01/M01 Q1021=
200612290220 METAR ESMX 290220Z AUTO VRB01KT 0300NDV R01/0900N R19/1300N FG VV001 M01/M01 Q1020=
200612290150 METAR ESMX 290150Z AUTO 27003KT 210V300 0450NDV R01/1100V1700U R19/1200N FG VV001 M01/M01 Q1020=
200612290120 METAR ESMX 290120Z AUTO 27003KT 0350NDV R01/1100D R19/1900U FG VV001 M01/M01 Q1020=
200612290050 METAR ESMX 290050Z 28003KT 0600 R01/1500D R19/1900N FZFG VV002 M00/M00 Q1019=
200612290020 METAR ESMX 290020Z 27004KT 240V300 0400 R01/1100N R19/1800D FZFG VV002 M00/M00 Q1019=
200612282350 METAR ESMX 282350Z 29004KT 0750 R01/1800N R19/1800N FG VV001 00/M00 Q1019=
200612282320 METAR ESMX 282320Z 30003KT 0700 R01/1700D R19/1900N FG VV001 00/00 Q1019=
200612282250 METAR ESMX 282250Z 30003KT 260V330 1900 BR BKN001 00/00 Q1019=
200612282220 METAR ESMX 282220Z 29005KT 2000 BR BKN001 01/01 Q1019=
200612282150 METAR ESMX 282150Z 28004KT 1700 BR SCT001 01/01 Q1018=
200612282120 METAR ESMX 282120Z 30003KT 270V340 2800 BR SCT002 01/01 Q1018=
200612282050 METAR ESMX 282050Z 30005KT 260V340 2400 BR NSC 01/01 Q1017=
200612282020 METAR ESMX 282020Z 31003KT 260V350 3700 BR NSC 01/01 Q1017=
200612281950 METAR ESMX 281950Z 29005KT 4600 BR FEW100 02/01 Q1017=
200612281920 METAR ESMX 281920Z 29005KT 4600 BR NSC 01/01 Q1017=
200612281850 METAR ESMX 281850Z 28003KT 5000 BR NSC 01/01 Q1016=
200612281820 METAR ESMX 281820Z 29003KT 6000 BR NSC 01/00 Q1016=
200612281750 METAR ESMX 281750Z 29003KT CAVOK 01/01 Q1016=
200612281720 METAR ESMX 281720Z 30004KT CAVOK 01/01 Q1016=
200612281650 METAR ESMX 281650Z 30004KT CAVOK 02/01 Q1015=
200612281620 METAR ESMX 281620Z 29004KT CAVOK 02/01 Q1015=
200612281550 METAR ESMX 281550Z 28004KT CAVOK 02/01 Q1015=
200612281520 METAR ESMX 281520Z 29003KT CAVOK 02/01 Q1015=
200612281450 METAR ESMX 281450Z 30003KT 9999 FEW015 03/02 Q1015=
200612281420 METAR ESMX 281420Z 30004KT 9999 FEW015 SCT019 04/02 Q1014=
200612281350 METAR ESMX 281350Z 28005KT 9999 FEW014 SCT017 05/03 Q1014=
200612281320 METAR ESMX 281320Z 27006KT 9999 FEW013 SCT016 BKN020 05/03 Q1014=
200612281250 METAR ESMX 281250Z 28006KT 9999 FEW015 SCT017 BKN029 05/03 Q1014=
200612281220 METAR ESMX 281220Z 29007KT 9999 SCT012 SCT025 05/03 Q1014=
200612281150 METAR ESMX 281150Z 28007KT 9999 FEW015 BKN030 05/03 Q1014=
200612281120 METAR ESMX 281120Z 29008KT 260V320 9999 FEW014 BKN030 05/03 Q1014=
200612281050 METAR ESMX 281050Z 27008KT 9999 FEW015 BKN035 05/02 Q1014=
200612281020 METAR ESMX 281020Z 27008KT 9999 FEW018 BKN035 05/02 Q1014=
200612280950 METAR ESMX 280950Z 27007KT 240V300 9999 SCT016 BKN035 05/02 Q1014=
200612280920 METAR ESMX 280920Z 28006KT 240V300 9999 SCT020 BKN030 05/02 Q1015=
200612280850 METAR ESMX 280850Z 29006KT 240V320 9999 FEW020 OVC035 05/02 Q1015=
200612280820 METAR ESMX 280820Z 26008KT 9999 BKN030 05/02 Q1014=
200612280750 METAR ESMX 280750Z 26007KT 9999 BKN030 05/02 Q1014=
200612280720 METAR ESMX 280720Z 26008KT 9999 FEW015 BKN030 05/02 Q1015=
200612280650 METAR ESMX 280650Z 27008KT 9999 FEW016 BKN030 05/02 Q1014=
200612280620 METAR ESMX 280620Z AUTO 27007KT 230V300 9999NDV FEW022/// OVC028/// 05/02 Q1015=
200612280550 METAR ESMX 280550Z AUTO 27010KT 230V300 9999NDV FEW021/// OVC027/// 05/02 Q1014=
200612280520 METAR ESMX 280520Z AUTO 27010KT 230V300 9999NDV FEW024/// OVC028/// 05/02 Q1015=
200612280450 METAR ESMX 280450Z AUTO 26010KT 230V290 9999NDV FEW021/// BKN024/// OVC030/// 05/02 Q1015=
200612280420 METAR ESMX 280420Z AUTO 26009KT 9999NDV FEW020/// OVC025/// 05/02 Q1015=
200612280350 METAR ESMX 280350Z AUTO 26006KT 9999NDV OVC021/// 05/02 Q1015=
200612280320 METAR ESMX 280320Z AUTO 27009KT 250V310 9999NDV OVC021/// 05/02 Q1016=
200612280250 METAR ESMX 280250Z AUTO 27009KT 9999NDV OVC022/// 05/01 Q1016=
200612280220 METAR ESMX 280220Z AUTO 28009KT 240V300 9999NDV OVC020/// 05/01 Q1016=
200612280150 METAR ESMX 280150Z AUTO 27012KT 240V300 9999NDV OVC021/// 05/02 Q1016=
200612280120 METAR ESMX 280120Z AUTO 27010KT 9999NDV OVC020/// 05/02 Q1017=
200612280050 METAR ESMX 280050Z 27010KT 250V310 9999 OVC020 05/02 Q1017=
200612280020 METAR ESMX 280020Z 28010KT 240V310 9999 OVC019 05/02 Q1017=
200612272350 METAR ESMX 272350Z 27010KT 9999 OVC019 05/02 Q1017=
200612272320 METAR ESMX 272320Z 27009KT 240V310 9999 FEW018 OVC021 05/02 Q1017=
200612272250 METAR ESMX 272250Z 27008KT 240V330 9999 OVC019 05/02 Q1018=
200612272150 METAR ESMX 272150Z 26010KT 9999 OVC021 05/02 Q1018=
200612272120 METAR ESMX 272120Z 26011G21KT 240V300 9999 OVC021 05/02 Q1018=
200612272050 METAR ESMX 272050Z 26009KT 9999 OVC020 05/02 Q1018=
200612272020 METAR ESMX 272020Z 27010KT 9999 OVC020 05/02 Q1018=
200612271950 METAR ESMX 271950Z 27010KT 240V300 9999 OVC024 05/03 Q1019=
200612271920 METAR ESMX 271920Z 25010KT 9999 FEW018 OVC022 05/03 Q1019=
200612271850 METAR ESMX 271850Z 26009KT 9999 SCT017 OVC023 05/03 Q1019=
200612271820 METAR ESMX 271820Z 26009KT 9999 FEW019 OVC023 05/02 Q1019=
200612271750 METAR ESMX 271750Z 27011KT 230V300 9999 BKN020 05/02 Q1019=
200612271720 METAR ESMX 271720Z 27011KT 9999 OVC019 06/02 Q1019=
200612271650 METAR ESMX 271650Z 27012KT 240V300 9999 OVC018 05/02 Q1019=
200612271620 METAR ESMX 271620Z 28011G22KT 240V310 9999 OVC017 06/02 Q1020=
200612271550 METAR ESMX 271550Z 28009KT 9999 OVC016 06/02 Q1020=
200612271520 METAR ESMX 271520Z 28012G23KT 240V320 9999 OVC016 06/03 Q1020=
200612271450 METAR ESMX 271450Z 27009KT 250V310 9999 OVC016 06/03 Q1020=
200612271420 METAR ESMX 271420Z 27010G21KT 230V310 9999 OVC015 06/03 Q1020=
200612271350 METAR ESMX 271350Z 27011KT 240V300 9999 OVC014 06/03 Q1020=
200612271320 METAR ESMX 271320Z 25008KT 210V360 9999 FEW013 OVC015 06/03 Q1021=
200612271250 METAR ESMX 271250Z 27010KT 240V310 9999 BKN013 06/03 Q1021=
200612271220 METAR ESMX 271220Z 26008KT 200V290 9999 OVC014 06/03 Q1021=
200612271150 METAR ESMX 271150Z 26011KT 210V290 9999 OVC015 06/03 Q1022=
200612271120 METAR ESMX 271120Z 26008KT 9999 OVC014 06/03 Q1022=
200612271050 METAR ESMX 271050Z 26008KT 9999 OVC013 06/03 Q1022=
200612271020 METAR ESMX 271020Z 26008KT 9999 OVC013 06/03 Q1023=
200612270950 METAR ESMX 270950Z 27009KT 9999 OVC013 06/03 Q1023=
200612270920 METAR ESMX 270920Z 27008KT 9999 OVC012 06/03 Q1023=
200612270850 METAR ESMX 270850Z 27008KT 9999 OVC012 06/03 Q1023=
200612270820 METAR ESMX 270820Z 28009KT 250V320 9999 OVC012 06/03 Q1023=
200612270750 METAR ESMX 270750Z 28006KT 250V320 9999 OVC012 06/03 Q1023=
200612270650 METAR ESMX 270650Z 27008KT 9999 OVC012 06/03 Q1023=
200612270620 METAR ESMX 270620Z 26007KT 9999 OVC012 05/03 Q1023=
200612270550 METAR ESMX 270550Z 27007KT 9999 OVC012 05/03 Q1023=
200612270520 METAR ESMX 270520Z AUTO 27007KT 9999NDV OVC011/// 05/04 Q1023=
200612270450 METAR ESMX 270450Z AUTO 26005KT 210V320 9999NDV BKN011/// OVC017/// 05/04 Q1024=
200612270420 METAR ESMX 270420Z AUTO 28007KT 250V320 9999NDV FEW009/// OVC011/// 05/04 Q1024=
200612270350 METAR ESMX 270350Z AUTO 27010KT 240V300 9999NDV OVC009/// 05/04 Q1024=
200612270320 METAR ESMX 270320Z AUTO 27008KT 230V310 9999NDV FEW008/// BKN010/// OVC014/// 05/04 Q1024=
200612270250 METAR ESMX 270250Z AUTO 27007KT 230V300 9999NDV OVC011/// 06/04 Q1024=
200612270220 METAR ESMX 270220Z AUTO 27009KT 9999NDV OVC010/// 06/04 Q1024=
200612270150 METAR ESMX 270150Z 27011KT 230V290 9999 OVC009 06/04 Q1024=
200612270120 METAR ESMX 270120Z 26011KT 230V290 9999 SCT007 BKN009 OVC011 06/04 Q1025=
200612270050 METAR ESMX 270050Z 28012KT 240V310 9999 FEW007 BKN008 OVC011 06/04 Q1025=
200612270020 METAR ESMX 270020Z 27012KT 9999 OVC008 06/04 Q1025=
200612262350 METAR ESMX 262350Z 27010KT 9000 BR FEW008 OVC010 05/04 Q1025=
200612262320 METAR ESMX 262320Z 28013KT 9999 FEW008 OVC010 05/04 Q1025=
200612262250 METAR ESMX 262250Z 26011KT 230V290 9000 BR OVC007 05/04 Q1025=
200612262220 METAR ESMX 262220Z 28008KT 240V320 9000 BR OVC007 05/04 Q1025=
200612262150 METAR ESMX 262150Z 27011KT 230V300 9000 BR OVC007 05/04 Q1025=
200612262120 METAR ESMX 262120Z 27010KT 8000 BR OVC006 05/04 Q1026=
200612262050 METAR ESMX 262050Z 25010KT 220V280 7000 BR OVC007 05/04 Q1026=
200612262020 METAR ESMX 262020Z 26012KT 220V310 8000 BR OVC007 05/04 Q1026=
200612261950 METAR ESMX 261950Z 26009KT 210V300 8000 BR BKN006 OVC009 05/04 Q1026=
200612261920 METAR ESMX 261920Z 28011KT 9000 BR OVC006 04/04 Q1027=
200612261850 METAR ESMX 261850Z 28009KT 6000 BR OVC006 04/04 Q1027=
200612261820 METAR ESMX 261820Z 26009KT 230V290 7000 BR BKN005 OVC008 04/03 Q1027=
200612261750 METAR ESMX 261750Z 28010KT 9000 OVC006 04/03 Q1027=
200612261720 METAR ESMX 261720Z 28010KT 250V310 9999 OVC005 04/03 Q1027=
200612261650 METAR ESMX 261650Z 27009KT 9999 OVC005 04/03 Q1027=
200612261620 METAR ESMX 261620Z 28010KT 9999 OVC006 04/03 Q1027=
200612261550 METAR ESMX 261550Z AUTO 27011KT 240V310 9999NDV OVC007/// 04/03 Q1027=
200612261520 METAR ESMX 261520Z AUTO 28011KT 9999NDV OVC007/// 04/03 Q1027=
200612261450 METAR ESMX 261450Z 27009KT 9999 OVC007 04/03 Q1027=
200612261420 METAR ESMX 261420Z AUTO 28008KT 240V320 9999NDV FEW007/// OVC008/// 04/03 Q1028=
200612261350 METAR ESMX 261350Z AUTO 27012KT 9999NDV FEW007/// BKN008/// OVC010/// 04/03 Q1028=
200612261320 METAR ESMX 261320Z AUTO 27011KT 230V300 9999NDV BKN005/// OVC007/// 04/03 Q1028=
200612261250 METAR ESMX 261250Z AUTO 27012KT 240V310 9999NDV OVC006/// 04/03 Q1028=
200612261220 METAR ESMX 261220Z AUTO 27012KT 9999NDV FEW006/// OVC008/// 04/03 Q1028=
200612261150 METAR ESMX 261150Z AUTO 27013KT 9999NDV OVC006/// 04/03 Q1028=
200612261120 METAR ESMX 261120Z AUTO 27011KT 9999NDV BKN004/// OVC008/// 04/04 Q1028=
200612261050 METAR ESMX 261050Z AUTO 27013KT 9999NDV OVC005/// 05/04 Q1028=
200612261020 METAR ESMX 261020Z AUTO 26011KT 9999NDV SCT005/// OVC008/// 04/04 Q1029=
200612260950 METAR ESMX 260950Z AUTO 27012KT 240V300 9999NDV FEW005/// OVC006/// 04/04 Q1029=
200612260920 METAR ESMX 260920Z AUTO 27011KT 8000NDV OVC003/// 04/04 Q1029=
200612260850 METAR ESMX 260850Z AUTO 26010KT 220V300 5000NDV BR OVC002/// 04/04 Q1029=
200612260820 METAR ESMX 260820Z AUTO 25008KT 220V290 2800NDV BR OVC001/// 03/03 Q1029=
200612260750 METAR ESMX 260750Z AUTO 24006KT 1600NDV BR OVC001/// 03/03 Q1030=
200612260720 METAR ESMX 260720Z AUTO 24006KT 200V270 1500NDV BR OVC001/// 02/02 Q1030=
200612260650 METAR ESMX 260650Z AUTO 25006KT 200V290 1300NDV R01/P2000N R19/P2000N BR OVC001/// 02/02 Q1030=
200612260620 METAR ESMX 260620Z AUTO 25007KT 230V290 1400NDV R01/P2000N R19/P2000N BR OVC001/// 02/02 Q1030=
200612260550 METAR ESMX 260550Z AUTO 26010KT 240V300 1900NDV BR OVC001/// 02/02 Q1031=
200612260520 METAR ESMX 260520Z AUTO 25006KT 210V290 5000NDV BR OVC002/// 02/02 Q1031=
200612260450 METAR ESMX 260450Z AUTO 25007KT 220V290 4100NDV BR OVC001/// 02/02 Q1031=
200612260420 METAR ESMX 260420Z AUTO 24005KT 190V260 2100NDV BR OVC001/// 02/02 Q1031=
200612260350 METAR ESMX 260350Z AUTO 24005KT 200V280 2500NDV OVC001/// 01/01 Q1031=
200612260320 METAR ESMX 260320Z AUTO 23006KT 1900NDV OVC001/// 01/01 Q1032=
200612260250 METAR ESMX 260250Z AUTO 23005KT 200V260 0600NDV R01/1500N R19/1500N FG VV001 01/01 Q1032=
200612260220 METAR ESMX 260220Z AUTO 23004KT 0450NDV R01/1200N R19/1200N FG VV001 00/00 Q1033=
200612260150 METAR ESMX 260150Z AUTO 20003KT 0450NDV R01/1300N R19/1300N FG VV001 M00/M00 Q1033=
200612260120 METAR ESMX 260120Z AUTO 20003KT 0450NDV R01/1200N R19/1300N FG VV001 M00/M01 Q1033=
200612260050 METAR ESMX 260050Z AUTO 18004KT 0400NDV R01/1300N R19/1100N FG VV001 M01/M01 Q1033=
200612260020 METAR ESMX 260020Z AUTO 18003KT 0400NDV R01/1100N R19/1100N FG VV001 M01/M01 Q1034=
200612252350 METAR ESMX 252350Z AUTO 22003KT 0450NDV R01/1200N R19/1000V1600D FG VV001 M02/M02 Q1034=
200612252320 METAR ESMX 252320Z AUTO 20007KT 0800NDV R01/1900N R19/1800U FG OVC001/// M02/M02 Q1034=
200612252250 METAR ESMX 252250Z AUTO 20003KT 3300NDV BR VV002 M02/M02 Q1034=
200612252220 METAR ESMX 252220Z AUTO 20004KT 9999NDV NCD M03/M03 Q1034=
200612252150 METAR ESMX 252150Z AUTO 20003KT 8000NDV NCD M02/M02 Q1035=
200612252120 METAR ESMX 252120Z AUTO 20004KT 7000NDV NCD M03/M03 Q1035=
200612252050 METAR ESMX 252050Z AUTO 20004KT 1400NDV R01/P2000N R19/1500VP2000U NCD M02/M02 Q1035=
200612252020 METAR ESMX 252020Z AUTO 18004KT 0350NDV R01/1800D R19/0900V1300N FG VV000 M03/M03 Q1035=
200612251950 METAR ESMX 251950Z AUTO 17003KT 4800NDV BR NCD M03/M03 Q1035=
200612251920 METAR ESMX 251920Z AUTO 16002KT 8000NDV FEW047/// M03/M04 Q1036=
200612251850 METAR ESMX 251850Z AUTO 17002KT 0500NDV R01/1400VP2000U R19/0900VP2000D FEW058/// M03/M04 Q1036=
200612251820 METAR ESMX 251820Z AUTO 19002KT 0250NDV R01/0700 R19/P2000N FG FEW058/// M04/M04 Q1036=
200612251750 METAR ESMX 251750Z AUTO 10001KT 1800NDV R01/P2000N R19/1200VP2000U FG BKN059/// M03/M03 Q1036=
200612251720 METAR ESMX 251720Z AUTO 00000KT 0600NDV R01/1900N R19/1100VP2000U NCD M04/M04 Q1036=
200612251650 METAR ESMX 251650Z AUTO 18002KT 0300NDV R01/1000VP2000N R19/0800V1600 FG NCD M03/M03 Q1036=
200612251620 METAR ESMX 251620Z AUTO 19002KT 0500NDV R01/0800VP2000U R19/0900VP2000D FG SCT061/// M03/M04 Q1036=
200612251550 METAR ESMX 251550Z AUTO 00000KT 1400NDV R01/1900N R19/1500VP2000N BR NCD M02/M03 Q1036=
200612251520 METAR ESMX 251520Z AUTO 00000KT 0800NDV R01/P2000N R19/1200VP2000D BR NCD M02/M02 Q1036=
200612251450 METAR ESMX 251450Z AUTO 17002KT 1900NDV R01/P2000N R19/1400VP2000N BR NCD M01/M01 Q1036=
200612251420 METAR ESMX 251420Z AUTO 19001KT 3400NDV R01/P2000N R19/1400VP2000D SCT068/// M01/M01 Q1037=
200612251350 METAR ESMX 251350Z AUTO 00000KT 9999NDV SCT075/// 01/01 Q1037=
200612251320 METAR ESMX 251320Z AUTO 00000KT 9999NDV NCD 02/01 Q1037=
200612251250 METAR ESMX 251250Z AUTO 00000KT 9999NDV NCD 02/01 Q1037=
200612251220 METAR ESMX 251220Z AUTO 04002KT 9999NDV NCD 02/01 Q1037=
200612251150 METAR ESMX 251150Z AUTO 00000KT 9999NDV NCD 02/01 Q1037=
200612251120 METAR ESMX 251120Z AUTO 00000KT 9999NDV NCD 02/02 Q1037=
200612251050 METAR ESMX 251050Z AUTO 00000KT 9999NDV NCD 01/01 Q1037=
200612251020 METAR ESMX 251020Z AUTO 00000KT 9999NDV NCD M00/M00 Q1037=
200612250950 METAR ESMX 250950Z AUTO 00000KT 9999NDV NCD M02/M02 Q1037=
200612250920 METAR ESMX 250920Z AUTO 00000KT 6000NDV BR NCD M03/M03 Q1037=
200612250850 METAR ESMX 250850Z AUTO 00000KT 2300NDV R01/0800VP2000U R19/P2000N BR NCD M03/M03 Q1037=
200612250820 METAR ESMX 250820Z AUTO 00000KT 9999NDV NCD M03/M03 Q1037=
200612250750 METAR ESMX 250750Z AUTO 00000KT 9999NDV NCD M04/M04 Q1037=
200612250720 METAR ESMX 250720Z AUTO 04002KT 9000NDV NCD M04/M04 Q1037=
200612250650 METAR ESMX 250650Z AUTO 00000KT 9999NDV BR NCD M03/M03 Q1036=
200612250620 METAR ESMX 250620Z AUTO 00000KT 9999NDV NCD M03/M03 Q1036=
200612250550 METAR ESMX 250550Z AUTO 02002KT 9999NDV NCD M03/M03 Q1036=
200612250520 METAR ESMX 250520Z AUTO 01002KT 9999NDV NCD M04/M04 Q1036=
200612250450 METAR ESMX 250450Z AUTO 00000KT 4500NDV BR NCD M03/M04 Q1036=
200612250420 METAR ESMX 250420Z AUTO 01001KT 7000NDV NCD M03/M04 Q1035=
200612250350 METAR ESMX 250350Z AUTO 00000KT 9000NDV NCD M03/M04 Q1035=
200612250320 METAR ESMX 250320Z AUTO 00000KT 1600NDV R01/1100VP2000U R19/P2000N BCFG NCD M03/M03 Q1035=
200612250250 METAR ESMX 250250Z AUTO 00000KT 1700NDV R01/1300VP2000D R19/P2000N NCD M03/M04 Q1035=
200612250220 METAR ESMX 250220Z AUTO 00000KT 0750NDV R01/0900VP2000D R19/1900N FG NCD M03/M03 Q1035=
200612250150 METAR ESMX 250150Z AUTO 00000KT 8000NDV BR NCD M03/M03 Q1035=
200612250120 METAR ESMX 250120Z AUTO 29001KT 9999NDV NCD M03/M03 Q1035=
200612250050 METAR ESMX 250050Z AUTO 00000KT 6000NDV NCD M02/M02 Q1035=
200612250020 METAR ESMX 250020Z AUTO 00000KT 9999NDV NCD M02/M02 Q1035=
200612242350 METAR ESMX 242350Z AUTO 20002KT 4900NDV NCD M03/M03 Q1035=
200612242320 METAR ESMX 242320Z AUTO 00000KT 9999NDV NCD M03/M03 Q1034=
200612242250 METAR ESMX 242250Z AUTO 00000KT 9999NDV NCD M02/M02 Q1034=
200612242220 METAR ESMX 242220Z AUTO 00000KT 0700NDV R01/1100VP2000U R19/1900N FG NCD M03/M03 Q1034=
200612242150 METAR ESMX 242150Z AUTO 00000KT 1900NDV R01/1200VP2000N R19/P2000N FG NCD M02/M02 Q1034=
200612242120 METAR ESMX 242120Z AUTO 00000KT 9000NDV NCD M02/M02 Q1034=
200612242050 METAR ESMX 242050Z AUTO 00000KT 3400NDV NCD M02/M02 Q1034=
200612242020 METAR ESMX 242020Z AUTO 00000KT 3800NDV R01/1000VP2000U R19/2000N FG NCD M02/M02 Q1034=
200612241950 METAR ESMX 241950Z AUTO 00000KT 0350NDV R01/1100VP2000D R19/0800VP2000D FG NCD M02/M02 Q1033=
200612241920 METAR ESMX 241920Z AUTO 00000KT 2300NDV NCD M00/M00 Q1033=
200612241850 METAR ESMX 241850Z AUTO 00000KT 1300NDV R01/1300VP2000N R19/P2000N FG NCD M00/M00 Q1033=
200612241820 METAR ESMX 241820Z AUTO 00000KT 0250NDV R01/0800V1300 R19/1300VP2000D FG NCD M00/M00 Q1033=
200612241750 METAR ESMX 241750Z AUTO VRB01KT 2600NDV R01/P2000N R19/1500VP2000N BCFG NCD M00/M00 Q1032=
200612241720 METAR ESMX 241720Z AUTO 20001KT 1000NDV R01/1300VP2000D R19/1400VP2000N BCFG NCD 01/01 Q1032=
200612241650 METAR ESMX 241650Z AUTO 00000KT 0350NDV R01/0800V1200 R19/0650VP2000D FG NCD 01/01 Q1031=
200612241620 METAR ESMX 241620Z AUTO 26003KT 2700NDV BR NCD 00/M00 Q1031=
200612241550 METAR ESMX 241550Z AUTO VRB01KT 9999NDV NCD 03/03 Q1031=
200612241520 METAR ESMX 241520Z AUTO 26004KT 9999NDV NCD 03/03 Q1031=
200612241450 METAR ESMX 241450Z AUTO 27003KT 9999NDV NCD 04/03 Q1030=
200612241420 METAR ESMX 241420Z AUTO 30003KT 260V320 9999NDV NCD 05/04 Q1030=
200612241350 METAR ESMX 241350Z AUTO 33003KT 9999NDV NCD 06/04 Q1030=
200612241320 METAR ESMX 241320Z AUTO 31005KT 9999NDV NCD 07/05 Q1030=
200612241250 METAR ESMX 241250Z AUTO 31006KT 280V340 9999NDV NCD 07/05 Q1030=
200612241220 METAR ESMX 241220Z AUTO 31005KT 280V340 9999NDV NCD 08/05 Q1030=
200612241150 METAR ESMX 241150Z AUTO 29008KT 250V320 9999NDV NCD 07/05 Q1030=
200612241120 METAR ESMX 241120Z AUTO 30008KT 9999NDV NCD 07/05 Q1030=
200612241050 METAR ESMX 241050Z AUTO 30006KT 9999NDV FEW009/// 07/05 Q1031=
200612241020 METAR ESMX 241020Z AUTO 29008G26KT 9999NDV NCD 07/05 Q1031=
200612240950 METAR ESMX 240950Z AUTO 29008KT 9999NDV NCD 06/05 Q1031=
200612240920 METAR ESMX 240920Z AUTO 28008KT 9999NDV FEW008/// 06/05 Q1030=
200612240850 METAR ESMX 240850Z AUTO 28007KT 250V320 9999NDV BKN008/// 06/05 Q1030=
200612240820 METAR ESMX 240820Z AUTO 28006KT 230V310 9999NDV BKN009/// 06/05 Q1030=
200612240750 METAR ESMX 240750Z AUTO 27005KT 240V330 9999NDV OVC009/// 06/05 Q1030=
200612240720 METAR ESMX 240720Z AUTO 26007KT 220V300 9999NDV OVC010/// 06/05 Q1030=
200612240650 METAR ESMX 240650Z AUTO 28006KT 240V320 9999NDV OVC010/// 07/05 Q1030=
200612240620 METAR ESMX 240620Z AUTO 27008KT 9999NDV OVC010/// 07/05 Q1029=
200612240550 METAR ESMX 240550Z AUTO 28006KT 240V320 9999NDV OVC010/// 07/05 Q1029=
200612240520 METAR ESMX 240520Z AUTO 27007KT 230V290 9999NDV OVC009/// 07/05 Q1029=
200612240450 METAR ESMX 240450Z AUTO 29008KT 250V320 9999NDV OVC009/// 07/05 Q1030=
200612240420 METAR ESMX 240420Z AUTO 29009KT 250V330 9999NDV OVC009/// 07/05 Q1030=
200612240350 METAR ESMX 240350Z AUTO 27012KT 9999NDV OVC010/// 07/05 Q1030=
200612240320 METAR ESMX 240320Z AUTO 28010KT 250V310 9999NDV FEW011/// SCT013/// OVC016/// 07/05 Q1030=
200612240250 METAR ESMX 240250Z AUTO 28012KT 250V320 9999NDV FEW010/// SCT013/// BKN015/// 07/05 Q1030=
200612240220 METAR ESMX 240220Z AUTO 29009KT 250V340 9999NDV FEW006/// SCT011/// BKN016/// 07/06 Q1030=
200612240150 METAR ESMX 240150Z AUTO 29014KT 250V320 3600NDV BR OVC004/// 07/06 Q1030=
200612240120 METAR ESMX 240120Z AUTO 28009KT 250V320 4400NDV BR OVC005/// 07/07 Q1031=
200612240050 METAR ESMX 240050Z AUTO 28010KT 240V310 9999NDV OVC005/// 08/07 Q1030=
200612240020 METAR ESMX 240020Z AUTO 27015G25KT 9999NDV BKN006/// OVC009/// 08/07 Q1030=
200612232350 METAR ESMX 232350Z AUTO 26011KT 230V300 9999NDV BKN007/// OVC010/// 08/07 Q1031=
200612232320 METAR ESMX 232320Z AUTO 29010KT 250V340 9999NDV OVC008/// 08/07 Q1031=
200612232250 METAR ESMX 232250Z AUTO 28009G19KT 250V320 9999NDV OVC007/// 08/07 Q1032=
200612232220 METAR ESMX 232220Z AUTO 27012KT 250V310 9999NDV FEW005/// OVC007/// 08/07 Q1032=
200612232150 METAR ESMX 232150Z AUTO 27011KT 230V300 9999NDV OVC005/// 08/07 Q1032=
200612232120 METAR ESMX 232120Z AUTO 27011KT 240V310 9999NDV OVC005/// 08/07 Q1032=
200612232050 METAR ESMX 232050Z AUTO 27010KT 240V300 9999NDV OVC005/// 07/07 Q1032=
200612232020 METAR ESMX 232020Z AUTO 28008KT 9999NDV OVC005/// 07/06 Q1032=
200612231950 METAR ESMX 231950Z AUTO 28010KT 250V320 9999NDV OVC005/// 07/07 Q1033=
200612231920 METAR ESMX 231920Z AUTO 27009KT 230V300 9999NDV OVC005/// 07/07 Q1033=
200612231850 METAR ESMX 231850Z AUTO 27008KT 230V300 9999NDV OVC005/// 08/07 Q1033=
200612231820 METAR ESMX 231820Z AUTO 26008KT 230V290 9999NDV OVC005/// 08/07 Q1033=
200612231750 METAR ESMX 231750Z AUTO 25006KT 220V290 8000NDV BR BKN005/// OVC007/// 07/07 Q1033=
200612231720 METAR ESMX 231720Z AUTO 27009KT 4600NDV BR OVC004/// 07/07 Q1034=
200612231650 METAR ESMX 231650Z AUTO 27009KT 240V300 6000NDV BR OVC004/// 07/07 Q1034=
200612231620 METAR ESMX 231620Z AUTO 27008KT 190V300 9999NDV OVC004/// 07/06 Q1034=
200612231550 METAR ESMX 231550Z AUTO 27009KT 9000NDV BR OVC004/// 07/06 Q1034=
200612231520 METAR ESMX 231520Z AUTO 24009KT 200V290 7000NDV BR OVC004/// 07/06 Q1034=
200612231450 METAR ESMX 231450Z AUTO 26007KT 220V310 6000NDV BR FEW003/// BKN005/// OVC007/// 07/06 Q1035=
200612231420 METAR ESMX 231420Z AUTO 25007KT 210V290 5000NDV BR OVC003/// 07/06 Q1035=
200612231350 METAR ESMX 231350Z AUTO 26006KT 230V310 4900NDV BR OVC003/// 07/06 Q1035=
200612231320 METAR ESMX 231320Z AUTO 27005KT 250V310 5000NDV BR OVC003/// 07/06 Q1035=
200612231250 METAR ESMX 231250Z AUTO 27008KT 240V300 5000NDV BR OVC003/// 07/06 Q1035=
200612231220 METAR ESMX 231220Z AUTO 26008KT 6000NDV BR OVC003/// 07/06 Q1036=
200612231150 METAR ESMX 231150Z AUTO 26007KT 4700NDV BR OVC002/// 07/06 Q1036=
200612231120 METAR ESMX 231120Z AUTO 26005KT 2700NDV BR OVC002/// 06/06 Q1036=
200612231050 METAR ESMX 231050Z AUTO 26004KT 2400NDV BR OVC002/// 06/06 Q1036=
200612231020 METAR ESMX 231020Z AUTO 25005KT 3000NDV BR OVC001/// 06/06 Q1036=
200612230950 METAR ESMX 230950Z AUTO 26003KT 230V290 3400NDV BR OVC002/// 06/05 Q1036=
200612230920 METAR ESMX 230920Z AUTO 28004KT 4600NDV BR OVC004/// 05/05 Q1036=
200612230850 METAR ESMX 230850Z AUTO 27004KT 5000NDV BR OVC004/// 05/04 Q1036=
200612230820 METAR ESMX 230820Z AUTO 26002KT 7000NDV BR OVC004/// 04/04 Q1036=
200612230750 METAR ESMX 230750Z AUTO VRB02KT 9000NDV BR OVC005/// 04/04 Q1036=
200612230720 METAR ESMX 230720Z AUTO VRB02KT 8000NDV BR FEW002/// BKN009/// OVC011/// 03/03 Q1035=
200612230650 METAR ESMX 230650Z AUTO 00000KT 5000NDV BR BKN002/// 02/02 Q1035=
200612230620 METAR ESMX 230620Z AUTO 22002KT 4200NDV BR NCD 02/02 Q1035=
200612230550 METAR ESMX 230550Z AUTO 25002KT 7000NDV BR NCD 03/03 Q1035=
200612230520 METAR ESMX 230520Z AUTO 29004KT 250V340 7000NDV BR NCD 04/03 Q1035=
200612230450 METAR ESMX 230450Z AUTO 28006KT 7000NDV BR NCD 03/03 Q1034=
200612230420 METAR ESMX 230420Z AUTO 26006KT 7000NDV BR NCD 03/03 Q1034=
200612230350 METAR ESMX 230350Z AUTO 25006KT 230V290 6000NDV BR NCD 03/03 Q1034=
200612230320 METAR ESMX 230320Z AUTO 24004KT 3500NDV BR FEW006/// 02/01 Q1035=
200612230250 METAR ESMX 230250Z AUTO 22003KT 170V260 5000NDV BR FEW008/// 02/02 Q1035=
200612230220 METAR ESMX 230220Z AUTO VRB02KT 4100NDV BR NCD 02/02 Q1034=
200612230150 METAR ESMX 230150Z AUTO VRB02KT 6000NDV BR NCD 03/03 Q1034=
200612230120 METAR ESMX 230120Z AUTO 25004KT 6000NDV BR FEW006/// SCT008/// 04/04 Q1034=
200612230050 METAR ESMX 230050Z AUTO 27005KT 7000NDV BR OVC006/// 05/04 Q1034=
200612230020 METAR ESMX 230020Z AUTO 27006KT 8000NDV BR BKN007/// 05/04 Q1034=
200612222350 METAR ESMX 222350Z AUTO 27006KT 8000NDV BR FEW008/// BKN010/// 05/04 Q1034=
200612222320 METAR ESMX 222320Z AUTO 26006KT 8000NDV BR FEW008/// SCT010/// 05/04 Q1034=
200612222250 METAR ESMX 222250Z AUTO 27005KT 8000NDV BR BKN009/// 05/04 Q1034=
200612222220 METAR ESMX 222220Z AUTO 25006KT 220V280 8000NDV BR FEW009/// BKN011/// 05/04 Q1034=
200612222150 METAR ESMX 222150Z AUTO 25006KT 220V290 9000NDV BR FEW006/// BKN009/// 05/04 Q1034=
200612222120 METAR ESMX 222120Z AUTO 25006KT 210V280 9000NDV FEW008/// SCT010/// 05/04 Q1034=
200612222050 METAR ESMX 222050Z AUTO 27006KT 9999NDV FEW010/// 05/04 Q1034=
200612222020 METAR ESMX 222020Z AUTO 27006KT 9999NDV NCD 05/04 Q1034=
200612221950 METAR ESMX 221950Z AUTO 26009KT 9999NDV NCD 06/04 Q1033=
200612221920 METAR ESMX 221920Z AUTO 25009KT 9999NDV FEW018/// 06/04 Q1033=
200612221850 METAR ESMX 221850Z AUTO 27009KT 250V040 9999NDV NCD 06/04 Q1034=
200612221820 METAR ESMX 221820Z 27008KT 9999 SCT018 06/04 Q1033=
200612221750 METAR ESMX 221750Z 27008KT 9999 FEW015 06/04 Q1033=
200612221720 METAR ESMX 221720Z 27008KT 9999 FEW015 06/04 Q1033=
200612221650 METAR ESMX 221650Z 27008KT 9999 BKN016 06/04 Q1033=
200612221620 METAR ESMX 221620Z 27007KT 210V300 9999 FEW017 BKN019 07/05 Q1033=
200612221550 METAR ESMX 221550Z 27009KT 9999 SCT014 BKN019 07/05 Q1033=
200612221520 METAR ESMX 221520Z 29010KT 260V340 9999 OVC012 07/05 Q1033=
200612221450 METAR ESMX 221450Z 29009KT 250V330 9999 OVC011 07/05 Q1033=
200612221420 METAR ESMX 221420Z 28010KT 240V310 9999 BKN012 07/05 Q1033=
200612221350 METAR ESMX 221350Z 29008KT 250V320 9999 OVC012 07/05 Q1032=
200612221320 METAR ESMX 221320Z 29008KT 260V320 9999 OVC012 07/05 Q1033=
200612221250 METAR ESMX 221250Z 27010KT 230V300 9999 BKN011 07/05 Q1033=
200612221220 METAR ESMX 221220Z 27011KT 240V300 9999 OVC011 07/05 Q1032=
200612221150 METAR ESMX 221150Z 27011KT 240V300 9999 OVC011 07/05 Q1032=
200612221120 METAR ESMX 221120Z 26010KT 230V290 9999 BKN011 OVC016 07/05 Q1033=
200612221050 METAR ESMX 221050Z 27009KT 240V320 9999 OVC011 07/05 Q1033=
200612221020 METAR ESMX 221020Z 26011KT 210V290 9999 OVC012 07/05 Q1032=
200612220950 METAR ESMX 220950Z 26010KT 230V300 9999 OVC010 06/05 Q1033=
200612220920 METAR ESMX 220920Z 27011KT 240V300 9999 OVC008 06/05 Q1033=
200612220850 METAR ESMX 220850Z 26009KT 9999 OVC008 06/04 Q1033=
200612220820 METAR ESMX 220820Z 26012KT 9999 OVC010 06/04 Q1033=
200612220750 METAR ESMX 220750Z 26008KT 230V290 9999 OVC011 05/04 Q1033=
200612220720 METAR ESMX 220720Z 27011KT 230V290 9999 OVC011 05/03 Q1033=
200612220650 METAR ESMX 220650Z 28010KT 250V320 9999 OVC011 05/03 Q1033=
200612220620 METAR ESMX 220620Z 27012KT 9999 OVC011 05/03 Q1033=
200612220550 METAR ESMX 220550Z 27009KT 240V310 9999 OVC011 05/03 Q1033=
200612220520 METAR ESMX 220520Z 28013KT 9999 OVC011 05/03 Q1033=
200612220420 METAR ESMX 220420Z AUTO 27010KT 9999NDV OVC010/// 05/03 Q1032=
200612220350 METAR ESMX 220350Z AUTO 28011KT 9999NDV OVC009/// 05/03 Q1033=
200612220320 METAR ESMX 220320Z AUTO 27011KT 230V300 9999NDV OVC009/// 04/03 Q1033=
200612220250 METAR ESMX 220250Z AUTO 26011KT 9999NDV OVC007/// 04/03 Q1033=
200612220220 METAR ESMX 220220Z AUTO 27009KT 230V320 9999NDV OVC007/// 04/03 Q1033=
200612220150 METAR ESMX 220150Z AUTO 27009KT 230V300 9999NDV OVC008/// 04/03 Q1033=
200612220120 METAR ESMX 220120Z 26010KT 240V300 9999 OVC007 04/03 Q1033=
200612220050 METAR ESMX 220050Z 27013KT 220V300 9999 FEW007 OVC008 04/03 Q1033=
200612220020 METAR ESMX 220020Z 26010KT 9999 FEW007 OVC009 04/03 Q1033=
200612212350 METAR ESMX 212350Z 27009KT 9999 OVC007 04/03 Q1033=
200612212320 METAR ESMX 212320Z 25011KT 9999 OVC006 04/03 Q1033=
200612212250 METAR ESMX 212250Z 27012KT 230V310 9999 FEW005 OVC007 04/03 Q1033=
200612212220 METAR ESMX 212220Z 26009KT 230V300 9999 OVC005 04/03 Q1033=
200612212150 METAR ESMX 212150Z 24008KT 190V280 9999 FEW005 OVC006 05/04 Q1033=
200612212120 METAR ESMX 212120Z 27007KT 230V300 9999 OVC004 05/04 Q1033=
200612212050 METAR ESMX 212050Z 25008KT 210V290 9999 OVC004 05/04 Q1034=
200612211950 METAR ESMX 211950Z 27006KT 240V300 9999 OVC005 05/04 Q1034=
200612211920 METAR ESMX 211920Z 24006KT 210V280 9999 OVC004 05/04 Q1034=
200612211850 METAR ESMX 211850Z 27007KT 9999 FEW003 BKN004 OVC007 05/04 Q1033=
200612211820 METAR ESMX 211820Z 27008KT 220V290 9000 BR OVC005 04/04 Q1034=
200612211750 METAR ESMX 211750Z 27007KT 9000 BR OVC003 04/04 Q1034=
200612211720 METAR ESMX 211720Z 25007KT 230V290 8000 BR OVC003 04/04 Q1034=
200612211650 METAR ESMX 211650Z 25006KT 210V290 7000 BR OVC002 04/04 Q1034=
200612211620 METAR ESMX 211620Z 26008KT 5000 BR OVC002 04/04 Q1034=
200612211550 METAR ESMX 211550Z 26006KT 240V300 5000 BR OVC002 04/04 Q1034=
200612211520 METAR ESMX 211520Z 25006KT 200V280 1600 BR VV002 04/04 Q1034=
200612211450 METAR ESMX 211450Z 27007KT 1500 R01/P2000N R19/P2000N BR VV002 04/04 Q1034=
200612211420 METAR ESMX 211420Z 25007KT 1300 R01/1900N R19/P2000N BR OVC002 04/04 Q1034=
200612211350 METAR ESMX 211350Z 26007KT 220V320 1200 R01/1800U R19/1900N BR VV002 04/04 Q1034=
200612211320 METAR ESMX 211320Z 26005KT 220V290 1300 R01/1800N R19/1900N BR VV002 04/04 Q1034=
200612211250 METAR ESMX 211250Z 27004KT 230V290 1800 BR VV002 04/04 Q1033=
200612211220 METAR ESMX 211220Z 24004KT 200V290 2200 BR OVC002 04/04 Q1033=
200612211150 METAR ESMX 211150Z 25003KT 1300 R01/1800U R19/1900N BR BKN002 04/04 Q1034=
200612211120 METAR ESMX 211120Z 25003KT 0800 R01/1000U R19/1200U FG VV002 03/03 Q1034=
200612211050 METAR ESMX 211050Z 24003KT 1100 R01/1100D R19/1600N BR VV002 02/02 Q1034=
200612211020 METAR ESMX 211020Z 24002KT 1100 R01/1200N R19/1700NU BR VV002 02/02 Q1034=
200612210820 METAR ESMX 210820Z 27003KT 0300 R01/0650N R19/0700N FG VV002 01/01 Q1034=
200612210750 METAR ESMX 210750Z 27003KT 0250 R01/0650N R19/0650N FG VV002 01/01 Q1034=
200612210720 METAR ESMX 210720Z 26004KT 0350 R01/0900N R19/1000N FG VV002 00/00 Q1034=
200612210650 METAR ESMX 210650Z 26005KT 0350 R01/1200N R19/0900N FZFG VV002 M00/M00 Q1034=
200612210620 METAR ESMX 210620Z 28004KT 0300 R01/1300U R19/0900N FG VV002 00/M00 Q1033=
200612210550 METAR ESMX 210550Z 27004KT 0400 R01/1100N R19/1600D FG VV002 00/00 Q1033=
200612210520 METAR ESMX 210520Z 25004KT 0400 R01/1200N R19/1600U FG VV002 00/00 Q1033=
200612210450 METAR ESMX 210450Z 25007KT 0300 R19/0800V1100N FG VV002 01/01 Q1032=
200612210420 METAR ESMX 210420Z AUTO 25004KT 1100NDV R01/P2000N R19/1900N NCD M01/M01 Q1033=
200612210350 METAR ESMX 210350Z AUTO 00000KT 0250NDV R01/0900 R19/0800VP2000U FG NCD M02/M02 Q1033=
200612210320 METAR ESMX 210320Z AUTO 00000KT 1700NDV R01/P2000N R19/1200VP2000D NCD M01/M01 Q1033=
200612210250 METAR ESMX 210250Z AUTO 26003KT 9999NDV NCD M02/M02 Q1033=
200612210220 METAR ESMX 210220Z AUTO 17002KT 9999NDV NCD M00/M00 Q1033=
200612210150 METAR ESMX 210150Z 17002KT 9999 R19/1900N BCFG NSC M02/M02 Q1033=
200612210120 METAR ESMX 210120Z 18003KT CAVOK M02/M02 Q1033=
200612210050 METAR ESMX 210050Z 17003KT CAVOK M00/M00 Q1032=
200612202350 METAR ESMX 202350Z 24002KT CAVOK M00/M00 Q1032=
200612202320 METAR ESMX 202320Z 24003KT 9000 BR NSC 00/00 Q1032=
200612202250 METAR ESMX 202250Z 25003KT 8000 BR NSC M00/M00 Q1032=
200612202220 METAR ESMX 202220Z 19003KT 9999 BCFG NSC M02/M02 Q1032=
200612202150 METAR ESMX 202150Z 16002KT 9999 R01/P2000N R19/1100VP2000N BCFG NSC M01/M01 Q1032=
200612202120 METAR ESMX 202120Z 00000KT 9999 R01/1200VP2000U R19/P2000N BCFG NSC M01/M01 Q1032=
200612202050 METAR ESMX 202050Z 00000KT 9999 R19/2000 BCFG NSC M01/M01 Q1032=
200612202020 METAR ESMX 202020Z 18002KT 9999 R19/P2000N BCFG NSC M02/M02 Q1031=
200612201950 METAR ESMX 201950Z 00000KT 9999 R19/1200VP2000N BCFG NSC M01/M01 Q1031=
200612201920 METAR ESMX 201920Z 00000KT 9999 BCFG NSC M01/M01 Q1031=
200612201850 METAR ESMX 201850Z 16002KT CAVOK M00/M00 Q1031=
200612201820 METAR ESMX 201820Z 26004KT 9999 BCFG NSC M01/M01 Q1031=
200612201750 METAR ESMX 201750Z 00000KT 9999 BCFG NSC M01/M01 Q1031=
200612201720 METAR ESMX 201720Z VRB01KT 9999 MIFG NSC 00/M00 Q1030=
200612201650 METAR ESMX 201650Z 00000KT 9999 MIFG NSC 01/00 Q1030=
200612201620 METAR ESMX 201620Z 00000KT CAVOK 01/01 Q1030=
200612201550 METAR ESMX 201550Z 00000KT CAVOK 01/01 Q1029=
200612201520 METAR ESMX 201520Z 27001KT CAVOK 01/00 Q1029=
200612201450 METAR ESMX 201450Z 27001KT CAVOK 02/01 Q1028=
200612201420 METAR ESMX 201420Z VRB02KT 9999 MIFG NSC 03/02 Q1028=
200612201350 METAR ESMX 201350Z 28003KT CAVOK 04/03 Q1028=
200612201320 METAR ESMX 201320Z 28002KT CAVOK 06/03 Q1027=
200612201250 METAR ESMX 201250Z 00000KT CAVOK 07/04 Q1027=
200612201220 METAR ESMX 201220Z 33003KT 300V360 CAVOK 06/04 Q1027=
200612201150 METAR ESMX 201150Z 32005KT CAVOK 05/04 Q1026=
200612201020 METAR ESMX 201020Z 31003KT 280V350 CAVOK 04/03 Q1026=
200612200950 METAR ESMX 200950Z 29002KT CAVOK 03/03 Q1025=
200612200920 METAR ESMX 200920Z 29003KT CAVOK 03/02 Q1025=
200612200850 METAR ESMX 200850Z VRB02KT CAVOK 03/02 Q1024=
200612200820 METAR ESMX 200820Z 32004KT 9999 MIFG NSC 02/02 Q1024=
200612200750 METAR ESMX 200750Z 32003KT 9999 MIFG FEW060 02/01 Q1023=
200612200720 METAR ESMX 200720Z 29004KT CAVOK 02/01 Q1023=
200612200650 METAR ESMX 200650Z 29004KT 9999 MIFG NSC 01/01 Q1022=
200612200620 METAR ESMX 200620Z 29003KT 1000 R01/1500VP2000D R19/1300VP2000D FG FEW005 02/01 Q1022=
200612200550 METAR ESMX 200550Z 29003KT 5000 BR FEW005 03/03 Q1022=
200612200520 METAR ESMX 200520Z VRB02KT 7000 BR FEW002 SCT006 04/03 Q1021=
200612200450 METAR ESMX 200450Z VRB02KT 9999 FEW003 04/03 Q1021=
200612200420 METAR ESMX 200420Z AUTO 26003KT 210V290 9999NDV FEW009/// 04/03 Q1020=
200612200350 METAR ESMX 200350Z AUTO 27003KT 230V300 9999NDV NCD 05/04 Q1020=
200612200320 METAR ESMX 200320Z AUTO 29005KT 250V320 9999NDV FEW008/// SCT009/// 05/04 Q1020=
200612200250 METAR ESMX 200250Z AUTO 29004KT 240V330 9999NDV FEW008/// BKN010/// 05/05 Q1020=
200612200220 METAR ESMX 200220Z AUTO 29005KT 9999NDV BKN010/// 05/05 Q1020=
200612200150 METAR ESMX 200150Z 27006KT 170V310 9999 FEW011 BKN013 06/05 Q1020=
200612200120 METAR ESMX 200120Z 27007KT 240V320 9999 FEW008 BKN010 OVC014 06/05 Q1019=
200612200050 METAR ESMX 200050Z 25007KT 210V290 9999 FEW007 OVC011 06/05 Q1019=
200612200020 METAR ESMX 200020Z 27009KT 9999 FEW006 SCT007 BKN009 06/05 Q1019=
200612192350 METAR ESMX 192350Z 27008KT 9999 FEW006 BKN008 OVC012 06/05 Q1020=
200612192320 METAR ESMX 192320Z 27009KT 9000 BR FEW006 BKN008 OVC011 05/05 Q1020=
200612192250 METAR ESMX 192250Z 27011KT 7000 BR FEW005 BKN007 OVC010 05/04 Q1020=
200612192220 METAR ESMX 192220Z 27011KT 8000 BR FEW006 BKN007 OVC011 05/04 Q1020=
200612192150 METAR ESMX 192150Z 28014KT 9999 FEW005 BKN007 OVC009 05/04 Q1020=
200612192120 METAR ESMX 192120Z 27012KT 240V300 9999 FEW006 OVC007 05/04 Q1020=
200612192050 METAR ESMX 192050Z 25008KT 210V280 9999 SCT004 BKN006 04/04 Q1021=
200612191950 METAR ESMX 191950Z 22009KT 190V250 8000 BR SCT002 BKN004 03/03 Q1022=
200612191920 METAR ESMX 191920Z 23009KT 200V260 8000 BR SCT002 OVC005 03/02 Q1022 RERA REDZ=
200612191850 METAR ESMX 191850Z 24009KT 200V280 5000 -RA OVC002 02/02 Q1022=
200612191820 METAR ESMX 191820Z 22009KT 4500 -RA OVC003 01/01 Q1023 REDZ=
200612191750 METAR ESMX 191750Z 23009KT 9999 OVC005 01/00 Q1024=
200612191720 METAR ESMX 191720Z 23008KT 9999 OVC006 00/M00 Q1024=
200612191650 METAR ESMX 191650Z 22006KT 9999 BKN010 OVC015 M00/M01 Q1025=
200612191620 METAR ESMX 191620Z 22007KT 9999 FEW012 OVC014 M01/M01 Q1025=
200612191550 METAR ESMX 191550Z 21006KT 9999 BKN018 BKN024 M01/M01 Q1025=
200612191520 METAR ESMX 191520Z 19006KT CAVOK M02/M02 Q1025=
200612191450 METAR ESMX 191450Z 21005KT CAVOK M02/M02 Q1026=
200612191420 METAR ESMX 191420Z 20005KT CAVOK M02/M03 Q1026=
200612191350 METAR ESMX 191350Z 21004KT CAVOK M02/M03 Q1026=
200612191320 METAR ESMX 191320Z 23004KT CAVOK M02/M02 Q1027=
200612191220 METAR ESMX 191220Z 19002KT CAVOK M02/M02 Q1027=
200612191150 METAR ESMX 191150Z 20002KT M02/M02 Q1027=
200612191120 METAR ESMX 191120Z 26001KT CAVOK M02/M02 Q1027=
200612191050 METAR ESMX 191050Z 20002KT CAVOK M02/M02 Q1028=
200612191020 METAR ESMX 191020Z 20002KT M02/M02 Q1028=
200612190950 METAR ESMX 190950Z 20002KT CAVOK M03/M03 Q1028=
200612190920 METAR ESMX 190920Z 20002KT CAVOK M03/M03 Q1027=
200612190850 METAR ESMX 190850Z 00000KT CAVOK M04/M04 Q1027=
200612190820 METAR ESMX 190820Z 00000KT CAVOK M04/M05 Q1027=
200612190750 METAR ESMX 190750Z 00000KT CAVOK M06/M06 Q1027=
200612190720 METAR ESMX 190720Z 00000KT CAVOK M05/M06 Q1026=
200612190650 METAR ESMX 190650Z 00000KT CAVOK M05/M06 Q1026=
200612190620 METAR ESMX 190620Z 00000KT CAVOK M05/M05 Q1026=
200612190550 METAR ESMX 190550Z 00000KT CAVOK M05/M05 Q1026=
200612190520 METAR ESMX 190520Z 00000KT CAVOK M04/M05 Q1025=
200612190450 METAR ESMX 190450Z 00000KT CAVOK M04/M04 Q1025=
200612190420 METAR ESMX 190420Z 30002KT CAVOK M04/M04 Q1025=
200612190350 METAR ESMX 190350Z AUTO 30002KT 9999NDV BKN065/// M04/M04 Q1025=
200612190320 METAR ESMX 190320Z AUTO 00000KT 9999NDV BKN067/// M03/M03 Q1024=
200612190250 METAR ESMX 190250Z AUTO VRB01KT 9999NDV FEW068/// M03/M03 Q1024=
200612190220 METAR ESMX 190220Z AUTO 29003KT 9999NDV BKN089/// M02/M03 Q1024=
200612190150 METAR ESMX 190150Z VRB02KT CAVOK M02/M03 Q1024=
200612190120 METAR ESMX 190120Z VRB01KT 9999 OVC052 M02/M02 Q1024=
200612190050 METAR ESMX 190050Z 26003KT 9999 BKN046 M02/M02 Q1024=
200612190020 METAR ESMX 190020Z 25003KT 9999 BKN048 M02/M03 Q1024=
200612182350 METAR ESMX 182350Z 24004KT CAVOK M03/M03 Q1024=
200612182320 METAR ESMX 182320Z 19003KT 7000 BR FEW045 SCT052 M04/M04 Q1024=
200612182250 METAR ESMX 182250Z 17002KT 5000 BR FEW001 BKN004 M03/M03 Q1024=
200612182220 METAR ESMX 182220Z 19003KT 9000 BR BKN002 M03/M04 Q1024=
200612182150 METAR ESMX 182150Z 21004KT 4000 BR OVC002 M04/M04 Q1023=
200612182120 METAR ESMX 182120Z 21003KT 1600 BR OVC002 M03/M03 Q1023=
200612182050 METAR ESMX 182050Z 24005KT 0900 R01/1900D R19/P2000N FG VV002 M03/M03 Q1023=
200612182020 METAR ESMX 182020Z 21004KT 1400 R01/P2000N R19/P2000N BR OVC002 M03/M03 Q1023=
200612181950 METAR ESMX 181950Z VRB02KT 3500 BR OVC002 M03/M03 Q1024=
200612181850 METAR ESMX 181850Z 25003KT 5000 BR OVC002 M03/M03 Q1023=
200612181820 METAR ESMX 181820Z 26003KT 8000 BR BKN002 M03/M03 Q1023=
200612181750 METAR ESMX 181750Z 28005KT 9999 BKN002 M02/M03 Q1023=
200612181720 METAR ESMX 181720Z 27003KT 240V310 9999 BKN002 M02/M02 Q1023=
200612181650 METAR ESMX 181650Z 28003KT 9999 OVC002 M02/M02 Q1023=
200612181620 METAR ESMX 181620Z 25005KT 9999 BKN002 M02/M02 Q1023=
200612181550 METAR ESMX 181550Z 26003KT 9999 FEW002 M02/M02 Q1022=
200612181520 METAR ESMX 181520Z 21002KT 9999 FEW002 M02/M02 Q1022=
200612181450 METAR ESMX 181450Z 19001KT CAVOK M01/M02 Q1022=
200612181420 METAR ESMX 181420Z 21001KT CAVOK M01/M02 Q1022=
200612181350 METAR ESMX 181350Z 21002KT 9999 FEW003 M01/M02 Q1022=
200612181320 METAR ESMX 181320Z VRB02KT CAVOK M01/M01 Q1022=
200612181250 METAR ESMX 181250Z 23003KT 9999 FEW003 M00/M01 Q1022=
200612181220 METAR ESMX 181220Z 00000KT 9999 FEW004 M00/M00 Q1022=
200612181150 METAR ESMX 181150Z VRB01KT 9999 SCT002 M00/M00 Q1022=
200612181120 METAR ESMX 181120Z 00000KT 9999 SCT002 M00/M00 Q1022=
200612181050 METAR ESMX 181050Z 00000KT 1500 R01/1900N R19/0900VP2000U VV002 M02/M02 Q1022=
200612181020 METAR ESMX 181020Z 21002KT 2000 R19/1000VP2000D VV003 M02/M02 Q1022=
200612180950 METAR ESMX 180950Z 00000KT 1200 R19/1400 BR VV003 M02/M02 Q1022=
200612180920 METAR ESMX 180920Z 22002KT 0700 R19/0900 FG VV002 M02/M02 Q1022=
200612180850 METAR ESMX 180850Z 31002KT 0550 R19/0800 VV002 M02/M02 Q1022=
200612180820 METAR ESMX 180820Z 27002KT 0500 R01/0750 R19/0800V1100 FZFG VV002 M02/M02 Q1021=
200612180750 METAR ESMX 180750Z VRB02KT 0400 R01/0900 R19/0700 FZFG VV003 M02/M02 Q1021=
200612180720 METAR ESMX 180720Z VRB02KT 1500 R01/P2000N R19/P2000D BR VV003 M02/M02 Q1020=
200612180620 METAR ESMX 180620Z 28003KT CAVOK M02/M02 Q1020=
200612180550 METAR ESMX 180550Z 29003KT CAVOK M02/M02 Q1019=
200612180520 METAR ESMX 180520Z 29003KT CAVOK M02/M02 Q1019=
200612180450 METAR ESMX 180450Z 31003KT CAVOK M02/M02 Q1019=
200612180420 METAR ESMX 180420Z 31004KT 9999 FEW007 M01/M01 Q1018=
200612180350 METAR ESMX 180350Z AUTO 31005KT 9999NDV NCD M01/M01 Q1018=
200612180320 METAR ESMX 180320Z AUTO 32005KT 9999NDV NCD M00/M01 Q1018=
200612180250 METAR ESMX 180250Z AUTO 32005KT 9999NDV NCD 00/M01 Q1017=
200612180220 METAR ESMX 180220Z 30005KT 9999 FEW010 SCT013 01/M00 Q1017=
200612180150 METAR ESMX 180150Z 33005KT 9999 SCT010 BKN013 02/00 Q1017=
200612180120 METAR ESMX 180120Z 34009KT 9999 OVC017 02/00 Q1016=
200612180050 METAR ESMX 180050Z 32008KT 9999 FEW014 OVC016 03/01 Q1016=
200612180020 METAR ESMX 180020Z 32008KT 9999 OVC015 02/01 Q1016=
200612172350 METAR ESMX 172350Z 30005KT 9999 OVC016 02/02 Q1015=
200612172320 METAR ESMX 172320Z 30003KT 9999 FEW006 BKN018 02/01 Q1015=
200612172220 METAR ESMX 172220Z 34007KT 9999 OVC003 02/01 Q1014=
200612172150 METAR ESMX 172150Z 34007KT 9999 BKN003 01/01 Q1013=
200612172120 METAR ESMX 172120Z 32004KT 9999 SCT006 SCT023 02/01 Q1013=
200612172050 METAR ESMX 172050Z 32005KT 9999 BKN022 02/02 Q1013=
200612172020 METAR ESMX 172020Z 33005KT 9999 FEW006 SCT011 BKN021 02/02 Q1012=
200612171950 METAR ESMX 171950Z 32006KT 9999 FEW005 SCT008 BKN014 02/02 Q1012=
200612171920 METAR ESMX 171920Z 31007KT 9999 BKN004 BKN008 02/02 Q1012=
200612171850 METAR ESMX 171850Z 30004KT 9999 FEW005 BKN010 03/02 Q1011=
200612171820 METAR ESMX 171820Z 30005KT 9999 FEW002 SCT005 BKN008 03/03 Q1011=
200612171750 METAR ESMX 171750Z 20003KT 5000 -DZ FEW004 SCT008 BKN010 04/03 Q1011=
200612171720 METAR ESMX 171720Z 18004KT 5000 DZ FEW008 BKN012 BKN017 04/03 Q1011 RERA=
200612171650 METAR ESMX 171650Z 17005KT 9999 -RA FEW008 OVC012 04/03 Q1011 REDZ=
200612171620 METAR ESMX 171620Z 18007KT 9999 -RA FEW007 SCT010 BKN014 04/03 Q1011 REDZ=
200612171550 METAR ESMX 171550Z 19006KT 9999 -DZ FEW008 SCT011 BKN015 04/03 Q1011=
200612171520 METAR ESMX 171520Z 18007KT 9999 FEW009 BKN014 OVC018 04/03 Q1011=
200612171450 METAR ESMX 171450Z 18007KT 9999 FEW009 BKN011 OVC017 04/03 Q1011=
200612171420 METAR ESMX 171420Z 18006KT 9999 FEW011 SCT016 BKN025 04/03 Q1011=
200612171350 METAR ESMX 171350Z 17007KT 9999 FEW011 SCT013 BKN017 04/03 Q1011=
200612171320 METAR ESMX 171320Z 18008KT 9999 FEW008 BKN010 BKN014 04/03 Q1011=
200612171250 METAR ESMX 171250Z 19008KT 9999 BKN007 04/03 Q1011=
200612171220 METAR ESMX 171220Z AUTO 20009KT 9999NDV OVC006/// 04/03 Q1012=
200612171150 METAR ESMX 171150Z AUTO 20008KT 9999NDV OVC005/// 04/03 Q1012=
200612171120 METAR ESMX 171120Z AUTO 18010KT 9000NDV BR OVC004/// 03/03 Q1012=
200612171050 METAR ESMX 171050Z AUTO 18007KT 9999NDV OVC004/// 03/03 Q1013=
200612171020 METAR ESMX 171020Z AUTO 20009KT 9999NDV OVC003/// 03/03 Q1013=
200612170950 METAR ESMX 170950Z AUTO 19006KT 9999NDV FEW003/// SCT055/// 03/02 Q1013=
200612170920 METAR ESMX 170920Z AUTO 20007KT 9999NDV BKN001/// BKN005/// 02/02 Q1013=
200612170850 METAR ESMX 170850Z AUTO 21008KT 3000NDV BR OVC001/// 02/02 Q1013=
200612170820 METAR ESMX 170820Z AUTO 19007KT 8000NDV BR BKN002/// 01/01 Q1013=
200612170720 METAR ESMX 170720Z AUTO 21005KT 9999NDV NCD 01/00 Q1013=
200612162350 METAR ESMX 162350Z AUTO 27009KT 230V300 9999NDV FEW017/// BKN020/// 04/02 Q1010 RERA REDZ=
200612162320 METAR ESMX 162320Z AUTO 26011KT 230V290 9999NDV FEW019/// SCT022/// BKN031/// 04/02 Q1009=
200612162250 METAR ESMX 162250Z AUTO 26009KT 9999NDV FEW018/// BKN027/// 03/02 Q1009=
200612162220 METAR ESMX 162220Z AUTO 25008KT 210V280 9999NDV FEW017/// 03/02 Q1009=
200612162150 METAR ESMX 162150Z AUTO 25010KT 9999NDV NCD 03/02 Q1009=
200612162120 METAR ESMX 162120Z AUTO 25009KT 9999NDV NCD 03/02 Q1008=
200612162050 METAR ESMX 162050Z AUTO 25008KT 9999NDV NCD 03/02 Q1008=
200612162020 METAR ESMX 162020Z AUTO 25009KT 9999NDV NCD 03/02 Q1008=
200612161950 METAR ESMX 161950Z AUTO 25007KT 9999NDV NCD 02/02 Q1008=
200612161920 METAR ESMX 161920Z AUTO 25008KT 9999NDV NCD 02/02 Q1008=
200612161850 METAR ESMX 161850Z AUTO 23007KT 9999NDV NCD 02/02 Q1008=
200612161820 METAR ESMX 161820Z AUTO 25007KT 9999NDV NCD 03/02 Q1007=
200612161750 METAR ESMX 161750Z AUTO 25007KT 9999NDV NCD 03/02 Q1007=
200612161720 METAR ESMX 161720Z AUTO 25008KT 9999NDV NCD 03/02 Q1007=
200612161650 METAR ESMX 161650Z AUTO 26007KT 9999NDV NCD 03/03 Q1007=
200612161620 METAR ESMX 161620Z AUTO 26008KT 230V290 9999NDV FEW013/// 04/03 Q1007=
200612161550 METAR ESMX 161550Z AUTO 26006KT 9999NDV NCD 04/03 Q1006=
200612161520 METAR ESMX 161520Z AUTO 26006KT 9999NDV FEW011/// SCT015/// 04/03 Q1006=
200612161450 METAR ESMX 161450Z AUTO 26006KT 9999NDV FEW015/// SCT018/// BKN023/// 04/03 Q1006=
200612161420 METAR ESMX 161420Z AUTO 26005KT 9999NDV FEW010/// SCT015/// BKN026/// 04/04 Q1006=
200612161350 METAR ESMX 161350Z AUTO 27005KT 9999NDV FEW008/// BKN011/// OVC029/// 05/04 Q1006=
200612161320 METAR ESMX 161320Z AUTO 27005KT 9999NDV FEW008/// SCT012/// BKN027/// 05/04 Q1006=
200612161250 METAR ESMX 161250Z AUTO 27007KT 240V300 9999NDV FEW008/// SCT010/// BKN013/// 05/04 Q1006=
200612161220 METAR ESMX 161220Z AUTO 28006KT 250V320 9999NDV FEW007/// BKN011/// BKN014/// 05/04 Q1006 REDZ=
200612161150 METAR ESMX 161150Z AUTO 27006KT 9999NDV -DZ FEW006/// SCT008/// BKN011/// 05/04 Q1006=
200612161120 METAR ESMX 161120Z AUTO 27006KT 9999NDV FEW005/// SCT007/// BKN008/// 05/04 Q1006=
200612161050 METAR ESMX 161050Z AUTO 28005KT 230V320 9999NDV FEW005/// SCT007/// BKN008/// 04/04 Q1006 REDZ=
200612161020 METAR ESMX 161020Z AUTO 26004KT 240V310 9999NDV -DZ FEW005/// 04/04 Q1006 RERA=
200612160950 METAR ESMX 160950Z AUTO 29003KT 9999NDV -DZ FEW031/// SCT039/// 04/04 Q1006 RERA=
200612160920 METAR ESMX 160920Z AUTO 30002KT 9999NDV -RA OVC027/// 04/04 Q1006 REDZ=
200612160850 METAR ESMX 160850Z AUTO 35004KT 8000NDV DZ FEW003/// BKN006/// OVC026/// 04/04 Q1005 RERA=
200612160820 METAR ESMX 160820Z AUTO 34005KT 8000NDV DZ BKN003/// OVC005/// 04/04 Q1005 RERA=
200612160750 METAR ESMX 160750Z AUTO 33003KT 9000NDV -RA BKN002/// OVC004/// 05/04 Q1005=
200612160720 METAR ESMX 160720Z AUTO 33002KT 8000NDV RA FEW002/// OVC012/// 05/04 Q1005=
200612160650 METAR ESMX 160650Z AUTO 34002KT 8000NDV -RA FEW004/// OVC012/// 05/04 Q1005=
200612160620 METAR ESMX 160620Z AUTO 34007KT 8000NDV -RA FEW001/// SCT003/// OVC004/// 05/04 Q1005 REDZ=
200612160550 METAR ESMX 160550Z AUTO 35003KT 5000NDV -RA BKN001/// OVC003/// 05/05 Q1005 REDZ=
200612160520 METAR ESMX 160520Z AUTO 36002KT 5000NDV DZ OVC001/// 05/05 Q1006 RERA=
200612160450 METAR ESMX 160450Z AUTO 36001KT 5000NDV DZ OVC001/// 06/05 Q1006 RERA=
200612160420 METAR ESMX 160420Z AUTO VRB01KT 5000NDV -RA SCT001/// BKN005/// OVC006/// 05/05 Q1006 REDZ=
200612160350 METAR ESMX 160350Z AUTO VRB02KT 3000NDV -RA FEW001/// SCT007/// BKN008/// 05/05 Q1007 REDZ=
200612160320 METAR ESMX 160320Z AUTO 16002KT 2100NDV RA FEW002/// SCT005/// BKN010/// 05/05 Q1008 REDZ=
200612160250 METAR ESMX 160250Z AUTO VRB02KT 2800NDV +DZ FEW002/// BKN005/// 05/05 Q1008 RERA=
200612160220 METAR ESMX 160220Z AUTO 14003KT 3900NDV -RA FEW002/// SCT004/// BKN016/// 05/05 Q1008 REDZ=
200612160150 METAR ESMX 160150Z AUTO VRB02KT 4100NDV DZ FEW003/// SCT006/// BKN008/// 05/05 Q1009 RERA=
200612160120 METAR ESMX 160120Z AUTO 18004KT 4100NDV -RA FEW002/// SCT007/// 05/05 Q1009 REDZ=
200612160050 METAR ESMX 160050Z AUTO 18004KT 2900NDV +DZ FEW010/// SCT016/// BKN027/// 06/05 Q1010=
200612160020 METAR ESMX 160020Z AUTO 19004KT 3300NDV DZ FEW008/// BKN025/// 06/05 Q1010=
200612152350 METAR ESMX 152350Z AUTO 19005KT 5000NDV DZ FEW022/// BKN025/// 06/05 Q1010 RERA=
200612152320 METAR ESMX 152320Z AUTO 19007KT 9999NDV FEW023/// OVC030/// 06/05 Q1011=
200612152250 METAR ESMX 152250Z AUTO 21008KT 9999NDV -DZ FEW027/// SCT036/// 06/04 Q1011=
200612152220 METAR ESMX 152220Z AUTO 20008KT 9999NDV DZ BKN036/// 06/04 Q1011 RERA=
200612152150 METAR ESMX 152150Z AUTO 23007KT 9999NDV OVC043/// 06/04 Q1012=
200612152120 METAR ESMX 152120Z AUTO 25007KT 210V280 9999NDV SCT053/// 07/04 Q1012=
200612152050 METAR ESMX 152050Z AUTO 24008KT 210V280 9999NDV SCT053/// 07/04 Q1012=
200612152020 METAR ESMX 152020Z AUTO 22008KT 9999NDV OVC053/// 07/05 Q1012=
200612151950 METAR ESMX 151950Z AUTO 24008KT 9999NDV SCT057/// 07/05 Q1012=
200612151920 METAR ESMX 151920Z AUTO 23009KT 200V260 9999NDV SCT057/// 07/05 Q1012=
200612151850 METAR ESMX 151850Z AUTO 22008KT 190V250 9999NDV FEW020/// BKN065/// 07/05 Q1012=
200612151820 METAR ESMX 151820Z 23009KT 200V260 9999 SCT017 OVC070 07/05 Q1012=
200612151750 METAR ESMX 151750Z 24008KT 9999 FEW020 OVC070 07/05 Q1012=
200612151720 METAR ESMX 151720Z 25010KT 210V280 9999 FEW020 OVC075 07/05 Q1012=
200612151650 METAR ESMX 151650Z 22010KT 200V260 9999 FEW017 SCT020 OVC080 07/05 Q1012=
200612151620 METAR ESMX 151620Z 25010KT 9999 FEW017 BKN080 08/05 Q1012=
200612151550 METAR ESMX 151550Z 23011KT 190V260 9999 FEW018 SCT025 08/05 Q1012=
200612151520 METAR ESMX 151520Z 25010KT 9999 FEW015 SCT030 08/05 Q1012=
200612151450 METAR ESMX 151450Z 23011KT 9999 FEW017 BKN030 BKN086 08/05 Q1012=
200612151420 METAR ESMX 151420Z 25010KT 220V280 9999 SCT018 BKN035 08/05 Q1012=
200612151350 METAR ESMX 151350Z 23009KT 200V270 9999 DZ FEW018 SCT045 BKN080 08/06 Q1012=
200612151320 METAR ESMX 151320Z 25011KT 9999 FEW018 SCT025 BKN030 08/05 Q1011=
200612151250 METAR ESMX 151250Z 25010KT 170V270 9999 FEW015 BKN025 08/05 Q1011=
200612151220 METAR ESMX 151220Z 25011KT 220V290 9999 FEW015 BKN025 08/05 Q1011=
200612151150 METAR ESMX 151150Z 25011KT 220V290 9999 FEW018 BKN022 BKN083 08/05 Q1011=
200612151120 METAR ESMX 151120Z 25012KT 220V280 9999 FEW015 BKN020 08/06 Q1011=
200612151050 METAR ESMX 151050Z 25011KT 210V290 9999 FEW013 BKN020 08/06 Q1011=
200612151020 METAR ESMX 151020Z 26010KT 9999 FEW017 BKN020 09/06 Q1011=
200612150950 METAR ESMX 150950Z 26014KT 210V290 9999 SCT016 BKN020 09/06 Q1010=
200612150920 METAR ESMX 150920Z 26012G24KT 220V290 9999 FEW013 BKN020 09/07 Q1010=
200612150850 METAR ESMX 150850Z 26012KT 220V290 9999 SCT013 BKN020 09/07 Q1009=
200612150820 METAR ESMX 150820Z 26014KT 9999 FEW013 BKN016 BKN020 09/07 Q1009=
200612150750 METAR ESMX 150750Z 27013KT 220V300 9999 BKN012 OVC019 09/08 Q1008 REDZ=
200612150720 METAR ESMX 150720Z 27013KT 240V300 9000 -DZ BKN012 OVC019 09/08 Q1008 RERA=
200612150650 METAR ESMX 150650Z 25014KT 5000 DZ FEW008 SCT010 OVC013 10/08 Q1007 RERA=
200612150620 METAR ESMX 150620Z 25015KT 7000 DZ OVC012 10/08 Q1007 RERA=
200612150550 METAR ESMX 150550Z 23015G25KT 190V260 9999 FEW013 BKN015 OVC020 10/08 Q1006=
200612150520 METAR ESMX 150520Z 25017G33KT 200V290 9999 BKN013 OVC018 10/08 Q1006=
200612150450 METAR ESMX 150450Z 25017G31KT 220V280 9999 SCT012 OVC015 10/08 Q1006=
200612150420 METAR ESMX 150420Z AUTO 24016G27KT 200V280 9999NDV FEW010/// OVC012/// 10/09 Q1006=
200612150350 METAR ESMX 150350Z AUTO 24015G29KT 9000NDV FEW009/// OVC011/// 10/09 Q1006=
200612150320 METAR ESMX 150320Z AUTO 23014KT 200V270 6000NDV BR FEW008/// OVC010/// 10/09 Q1006 RERA REDZ=
200612150250 METAR ESMX 150250Z AUTO 23015G28KT 3900NDV BR FEW007/// SCT009/// OVC011/// 10/09 Q1007 REDZ=
200612150220 METAR ESMX 150220Z AUTO 22014G24KT 200V260 3100NDV DZ FEW008/// BKN009/// BKN013/// 10/09 Q1007=
200612150150 METAR ESMX 150150Z 22014KT 180V250 6000 BR FEW008 OVC010 10/09 Q1007=
200612150120 METAR ESMX 150120Z 24015KT 180V260 7000 BR FEW007 SCT009 BKN011 10/09 Q1007=
200612150050 METAR ESMX 150050Z 22015G25KT 170V260 5000 -DZ BR FEW006 BKN008 OVC010 10/09 Q1007 RERA=
200612150020 METAR ESMX 150020Z 22014KT 190V250 3600 BR SCT007 OVC010 10/09 Q1007 RERA REDZ=
200612142350 METAR ESMX 142350Z 21016KT 6000 BR FEW007 BKN009 BKN013 10/09 Q1007 REDZ=
200612142320 METAR ESMX 142320Z 24013G24KT 210V290 3000 DZ BR FEW006 SCT008 BKN009 10/09 Q1007=
200612142250 METAR ESMX 142250Z 22012KT 200V260 3500 RADZ BR FEW006 BKN008 OVC013 10/09 Q1008=
200612142220 METAR ESMX 142220Z 24011KT 210V270 3500 -RA BR FEW007 SCT009 BKN011 10/09 Q1008=
200612142150 METAR ESMX 142150Z 23014KT 190V280 6000 BR FEW009 OVC010 10/09 Q1008=
200612142120 METAR ESMX 142120Z 23014G25KT 200V260 9999 FEW008 OVC010 10/09 Q1007=
200612142050 METAR ESMX 142050Z 22012G23KT 190V270 9999 FEW008 SCT009 OVC011 10/09 Q1007 RERA=
200612142020 METAR ESMX 142020Z 24014G28KT 7000 BR FEW008 OVC009 10/09 Q1007 REDZ=
200612141950 METAR ESMX 141950Z 24013G23KT 5000 -RA FEW008 OVC009 10/09 Q1007=
200612141920 METAR ESMX 141920Z 22014KT 9999 FEW008 OVC010 10/09 Q1007=
200612141850 METAR ESMX 141850Z 23014G26KT 5000 -DZ BR FEW007 BKN009 OVC013 10/09 Q1007=
200612141820 METAR ESMX 141820Z 24014KT 4000 DZ BR FEW007 SCT009 BKN011 10/09 Q1007=
200612141750 METAR ESMX 141750Z 25016KT 3500 DZ SCT006 BKN010 10/09 Q1007 RERA=
200612141720 METAR ESMX 141720Z 23016G27KT 8000 BR OVC007 10/09 Q1006=
200612141650 METAR ESMX 141650Z 22015G27KT 180V260 6000 BR FEW006 BKN008 10/09 Q1006 REDZ=
200612141620 METAR ESMX 141620Z 23014KT 190V260 4000 BR OVC006 10/09 Q1006=
200612141550 METAR ESMX 141550Z 24013KT 3900 BR FEW006 OVC008 10/09 Q1006=
200612141520 METAR ESMX 141520Z 24012KT 210V290 9999 BKN007 OVC010 10/09 Q1006=
200612141450 METAR ESMX 141450Z 22013KT 180V250 9999 SCT007 BKN010 10/09 Q1006=
200612141420 METAR ESMX 141420Z 24014KT 7000 BR FEW007 BKN009 10/09 Q1006 REDZ=
200612141350 METAR ESMX 141350Z 23013KT 200V260 3000 DZ SCT005 BKN009 10/09 Q1006=
200612141320 METAR ESMX 141320Z 24012KT 210V280 2500 DZ BR FEW005 OVC010 10/09 Q1006=
200612141250 METAR ESMX 141250Z 22012KT 190V260 3000 DZ BR FEW005 OVC010 10/09 Q1006=
200612141220 METAR ESMX 141220Z 24013KT 210V280 5000 -DZ BR FEW005 OVC010 10/09 Q1006=
200612141150 METAR ESMX 141150Z 22015KT 7000 -DZ BR OVC005 10/09 Q1006=
200612141120 METAR ESMX 141120Z 24014KT 3000 -DZ OVC004 10/09 Q1006=
200612140950 METAR ESMX 140950Z 24013KT 8000 BR FEW006 OVC010 10/09 Q1006=
200612140920 METAR ESMX 140920Z 24014KT 6000 BR BKN006 OVC010 10/09 Q1005=
200612140850 METAR ESMX 140850Z 25014KT 5000 BR FEW006 OVC009 10/09 Q1005=
200612140820 METAR ESMX 140820Z 25013KT 210V290 5000 BR BKN006 OVC010 10/09 Q1005=
200612140750 METAR ESMX 140750Z 24013KT 210V280 4000 BR BKN006 OVC010 10/09 Q1005=
200612140720 METAR ESMX 140720Z 23013KT 190V270 3500 -DZ BR BKN006 10/09 Q1004=
200612140650 METAR ESMX 140650Z 22013KT 4000 -DZ BR BKN005 09/09 Q1004=
200612140620 METAR ESMX 140620Z 24012KT 210V280 2700 DZ BR FEW005 BKN010 09/09 Q1004=
200612140550 METAR ESMX 140550Z 22012KT 190V250 3800 BR FEW006 BKN007 OVC009 09/09 Q1003=
200612140520 METAR ESMX 140520Z 24014KT 210V280 3500 BR FEW006 BKN007 OVC010 09/09 Q1003=
200612140450 METAR ESMX 140450Z 24013G24KT 3500 BR FEW005 SCT007 OVC008 09/09 Q1003=
200612140420 METAR ESMX 140420Z AUTO 23013KT 200V270 4100NDV BR FEW007/// SCT009/// BKN010/// 09/08 Q1003=
200612140350 METAR ESMX 140350Z AUTO 23013KT 200V270 4700NDV -DZ FEW008/// OVC010/// 09/08 Q1003 RERA=
200612140320 METAR ESMX 140320Z AUTO 23013KT 200V260 9999NDV -DZ FEW009/// OVC011/// 09/08 Q1003=
200612140250 METAR ESMX 140250Z AUTO 23012KT 9999NDV DZ FEW009/// OVC010/// 09/08 Q1003=
200612140220 METAR ESMX 140220Z AUTO 23012KT 9999NDV -RA FEW007/// BKN010/// OVC014/// 09/08 Q1003 REDZ=
200612140150 METAR ESMX 140150Z AUTO 21011KT 160V250 9000NDV -RA FEW004/// SCT006/// BKN008/// 08/08 Q1003=
200612140120 METAR ESMX 140120Z 19010KT 6000 RA BR FEW004 BKN005 OVC007 08/07 Q1003=
200612140050 METAR ESMX 140050Z 18013KT 6000 RA BR FEW004 OVC005 07/07 Q1004=
200612140020 METAR ESMX 140020Z 17012KT 9999 -RA OVC004 07/06 Q1004=
200612132350 METAR ESMX 132350Z 16011KT 140V200 9000 -RA BR OVC004 06/06 Q1005=
200612132320 METAR ESMX 132320Z 16010KT 7000 -RA BR BKN004 OVC007 06/06 Q1005=
200612132250 METAR ESMX 132250Z 17010KT 6000 -RA BR OVC005 06/05 Q1006 REDZ=
200612132220 METAR ESMX 132220Z 17010KT 140V200 9999 DZ BKN007 OVC010 06/05 Q1007=
200612132150 METAR ESMX 132150Z 18008KT 9000 FEW010 SCT016 BKN026 06/05 Q1007=
200612132120 METAR ESMX 132120Z 19010KT 9000 BR FEW011 SCT017 BKN047 06/04 Q1008=
200612132050 METAR ESMX 132050Z 19010KT 8000 BR FEW014 SCT016 BKN020 06/04 Q1009=
200612132020 METAR ESMX 132020Z 20009KT 7000 BR FEW008 SCT014 BKN024 05/04 Q1009=
200612131950 METAR ESMX 131950Z 19009KT 7000 BR FEW019 SCT035 BKN041 05/04 Q1009=
200612131920 METAR ESMX 131920Z 20009KT 8000 BR FEW015 BKN044 05/04 Q1009=
200612131850 METAR ESMX 131850Z 22009KT 200V260 8000 BR FEW013 SCT048 05/04 Q1009=
200612131820 METAR ESMX 131820Z 21008KT 9000 BR SCT013 05/03 Q1009=
200612131750 METAR ESMX 131750Z 22008KT 9999 SCT014 05/03 Q1009=
200612131720 METAR ESMX 131720Z 24009KT 9999 FEW020 05/03 Q1009=
200612131650 METAR ESMX 131650Z 24008KT 9999 SCT021 05/03 Q1009=
200612131620 METAR ESMX 131620Z 24011KT 210V280 9999 SCT025 05/03 Q1009=
200612131550 METAR ESMX 131550Z 26013KT 230V290 9999 FEW021 SCT033 06/03 Q1008=
200612131520 METAR ESMX 131520Z 26012G24KT 9999 FEW024 SCT031 06/03 Q1008=
200612131450 METAR ESMX 131450Z 24012KT 200V270 9999 FEW024 SCT035 06/03 Q1007=
200612131420 METAR ESMX 131420Z 26010G20KT 210V310 6000 -RA FEW013 SCT017 BKN022 06/04 Q1007=
200612131350 METAR ESMX 131350Z 26010KT 220V300 8000 -RA FEW014 SCT017 BKN022 06/04 Q1007=
200612131320 METAR ESMX 131320Z 26012KT 230V300 9999 SHRA FEW015 SCT020 BKN040 06/04 Q1006=
200612131250 METAR ESMX 131250Z 25012KT 220V280 9999 FEW015 SCT030 OVC040 06/04 Q1006=
200612131220 METAR ESMX 131220Z 26014KT 230V290 9999 FEW015 BKN020 06/04 Q1005=
200612131150 METAR ESMX 131150Z 25012KT 200V280 9999 SCT015 BKN020 06/04 Q1005 RERA=
200612131120 METAR ESMX 131120Z 25011G22KT 210V290 9999 -RA FEW012 BKN017 BKN037 06/05 Q1004=
200612131050 METAR ESMX 131050Z 25011KT 9999 -SHRA FEW011 SCT015 BKN021 06/04 Q1004=
200612131020 METAR ESMX 131020Z 25012KT 9999 SHRA FEW010 SCT015 BKN030 06/05 Q1004=
200612130950 METAR ESMX 130950Z 24011KT 9999 FEW010 BKN015 OVC020 06/04 Q1004=
200612130920 METAR ESMX 130920Z 24009KT 9999 FEW010 SCT015 BKN020 06/04 Q1003=
200612130850 METAR ESMX 130850Z 24010KT 8000 -SHRA FEW012 SCT015 BKN020 06/04 Q1003 REDZ=
200612130820 METAR ESMX 130820Z 26010KT 9000 -RA FEW010 SCT015 BKN020 06/05 Q1003=
200612130750 METAR ESMX 130750Z 24009KT 220V290 6000 RA FEW010 BKN015 06/05 Q1002=
200612130720 METAR ESMX 130720Z 23012KT 9999 SCT010 OVC015 06/05 Q1002=
200612130650 METAR ESMX 130650Z 23010KT 200V260 9999 FEW010 BKN015 06/05 Q1002=
200612130620 METAR ESMX 130620Z 21012KT 9999 FEW010 BKN015 OVC020 06/05 Q1002 RERA=
200612130550 METAR ESMX 130550Z 21013KT 9999 -RA FEW010 SCT015 BKN020 06/05 Q1001=
200612130520 METAR ESMX 130520Z 22012KT 5000 -RA FEW010 SCT015 BKN018 06/05 Q1002 REDZ=
200612130450 METAR ESMX 130450Z 22012KT 9999 FEW009 SCT013 BKN016 06/05 Q1002=
200612130420 METAR ESMX 130420Z AUTO 22011KT 170V260 9999NDV FEW009/// OVC011/// 06/05 Q1002=
200612130350 METAR ESMX 130350Z AUTO 20012KT 9999NDV FEW009/// SCT012/// BKN015/// 06/05 Q1002=
200612130320 METAR ESMX 130320Z AUTO 22010KT 190V250 9999NDV FEW008/// BKN011/// OVC017/// 06/05 Q1002=
200612130250 METAR ESMX 130250Z AUTO 20010KT 9999NDV FEW009/// SCT014/// BKN016/// 06/05 Q1002=
200612130220 METAR ESMX 130220Z AUTO 20010KT 9999NDV FEW009/// SCT017/// BKN021/// 05/04 Q1003=
200612130150 METAR ESMX 130150Z AUTO 19013KT 9999NDV FEW009/// SCT011/// BKN014/// 05/04 Q1003=
200612130120 METAR ESMX 130120Z 18015KT 5000 -RA FEW007 SCT009 BKN011 05/04 Q1003=
200612130050 METAR ESMX 130050Z 18015KT 6000 -RA FEW009 SCT011 BKN013 05/04 Q1003 REDZ=
200612130020 METAR ESMX 130020Z 19016KT 6000 -RA FEW010 SCT014 BKN016 05/04 Q1004=
200612122350 METAR ESMX 122350Z 17012KT 9000 -DZ FEW011 BKN013 BKN020 05/04 Q1004 RERA=
200612122320 METAR ESMX 122320Z 18015KT 140V200 9999 FEW012 BKN015 OVC024 05/04 Q1005=
200612122250 METAR ESMX 122250Z 18014KT 140V200 9999 FEW012 BKN015 BKN020 05/04 Q1006=
200612122220 METAR ESMX 122220Z 18010KT 9999 BKN012 OVC020 05/04 Q1006=
200612122150 METAR ESMX 122150Z 18011KT 9999 FEW012 SCT016 BKN020 05/04 Q1007=
200612122120 METAR ESMX 122120Z 18010KT 140V200 9999 FEW012 BKN018 OVC026 05/03 Q1007=
200612122050 METAR ESMX 122050Z 19011KT 9999 BKN009 OVC014 05/04 Q1008=
200612122020 METAR ESMX 122020Z 21010KT 180V240 9999 SCT008 BKN011 OVC016 05/04 Q1008=
200612121950 METAR ESMX 121950Z 19012KT 9999 OVC008 05/04 Q1008=
200612121920 METAR ESMX 121920Z 21010KT 190V250 9999 SCT008 BKN011 OVC013 05/04 Q1008=
200612121850 METAR ESMX 121850Z 21011KT 9999 FEW009 OVC010 05/04 Q1008=
200612121820 METAR ESMX 121820Z 21010KT 9999 FEW008 BKN010 OVC015 05/04 Q1009=
200612121750 METAR ESMX 121750Z 20009KT 9999 FEW008 BKN010 05/04 Q1009=
200612121720 METAR ESMX 121720Z 21010KT 9999 SCT008 BKN040 05/04 Q1009=
200612121650 METAR ESMX 121650Z 20009KT 9999 SCT012 BKN047 04/04 Q1009=
200612121620 METAR ESMX 121620Z 21008KT 9999 -SHRA FEW009 BKN040 04/04 Q1009=
200612121550 METAR ESMX 121550Z 21006KT 190V260 6000 -SHRA FEW008 SCT019 BKN023 05/04 Q1010=
200612121520 METAR ESMX 121520Z 21007KT 7000 FEW008 SCT024 BKN047 05/04 Q1009=
200612121450 METAR ESMX 121450Z 19009KT 9999 SCT010 BKN046 04/04 Q1009=
200612121420 METAR ESMX 121420Z 21010KT 9999 SCT012 BKN051 05/04 Q1009=
200612121350 METAR ESMX 121350Z 23008KT 9999 FEW012 SCT020 BKN053 05/04 Q1009=
200612121320 METAR ESMX 121320Z 21010KT 9999 BKN011 05/04 Q1009=
200612121250 METAR ESMX 121250Z 22007KT 200V260 9999 SCT010 BKN015 05/04 Q1009=
200612121220 METAR ESMX 121220Z 23008KT 9999 BKN010 BKN020 05/04 Q1009=
200612121150 METAR ESMX 121150Z 23009KT 9999 BKN010 BKN020 05/04 Q1009=
200612121120 METAR ESMX 121120Z 23009KT 190V270 9999 SCT010 BKN015 05/04 Q1009=
200612121050 METAR ESMX 121050Z 23010KT 9999 FEW009 SCT011 BKN013 05/03 Q1009=
200612121020 METAR ESMX 121020Z 22008KT 190V260 9999 SCT008 BKN050 05/03 Q1009=
200612120950 METAR ESMX 120950Z 23008KT 190V260 9999 BKN010 05/04 Q1009=
200612120920 METAR ESMX 120920Z 22008KT 200V260 9999 BKN010 05/04 Q1009=
200612120850 METAR ESMX 120850Z 20008KT 170V250 9999 FEW008 BKN010 05/04 Q1009=
200612120820 METAR ESMX 120820Z 23009KT 190V250 9000 BR FEW007 BKN011 05/04 Q1009=
200612120720 METAR ESMX 120720Z 23008KT 200V260 9000 BR FEW007 OVC010 05/04 Q1009=
200612120650 METAR ESMX 120650Z 21009KT 170V230 8000 BR FEW007 OVC010 05/04 Q1008=
200612120620 METAR ESMX 120620Z 21009KT 9000 BR FEW005 BKN010 05/04 Q1008=
200612120550 METAR ESMX 120550Z 21009KT 9000 BR SCT004 OVC008 05/04 Q1008=
200612120520 METAR ESMX 120520Z 20009KT 7000 BR SCT004 BKN007 04/04 Q1008=
200612120450 METAR ESMX 120450Z 19007KT 6000 BR FEW003 BKN005 BKN009 04/04 Q1008=
200612120420 METAR ESMX 120420Z AUTO 20007KT 6000NDV BR FEW006/// 04/03 Q1007=
200612120350 METAR ESMX 120350Z AUTO 21006KT 8000NDV BR NCD 04/03 Q1007=
200612120320 METAR ESMX 120320Z AUTO 21007KT 8000NDV BR NCD 04/03 Q1007=
200612120250 METAR ESMX 120250Z AUTO 20006KT 8000NDV BR FEW009/// SCT012/// 04/03 Q1007=
200612120220 METAR ESMX 120220Z AUTO 21005KT 8000NDV BR FEW009/// BKN012/// 04/04 Q1007=
200612120150 METAR ESMX 120150Z AUTO 22005KT 8000NDV BR FEW009/// OVC011/// 05/04 Q1007=
200612120120 METAR ESMX 120120Z 21006KT 9000 BR FEW011 SCT015 BKN018 05/04 Q1006=
200612120050 METAR ESMX 120050Z 19007KT 9000 SCT025 05/04 Q1006=
200612120020 METAR ESMX 120020Z 20006KT 9999 NSC 05/04 Q1006=
200612112350 METAR ESMX 112350Z 24006KT 9999 NSC 05/04 Q1006=
200612112320 METAR ESMX 112320Z 25008KT 9999 FEW013 06/05 Q1005=
200612112250 METAR ESMX 112250Z 23010KT 9999 FEW011 SCT018 06/05 Q1005=
200612112220 METAR ESMX 112220Z 23009KT 9999 FEW023 BKN055 06/06 Q1004=
200612112150 METAR ESMX 112150Z 23008KT 9999 FEW006 SCT016 BKN052 07/06 Q1004 RERA REDZ=
200612112120 METAR ESMX 112120Z 21010KT 6000 -RA FEW004 OVC005 06/06 Q1004 REDZ=
200612112050 METAR ESMX 112050Z 20011KT 6000 DZ OVC004 06/06 Q1003=
200612112020 METAR ESMX 112020Z 20013KT 3200 BR OVC005 06/05 Q1003=
200612111950 METAR ESMX 111950Z 20016KT 4600 BR FEW005 BKN006 OVC009 06/05 Q1003 REDZ=
200612111920 METAR ESMX 111920Z 20014KT 4400 -DZ FEW005 BKN007 OVC009 06/05 Q1003 RERA=
200612111850 METAR ESMX 111850Z 21015KT 9000 -RA FEW005 OVC007 05/05 Q1003 REDZ=
200612111820 METAR ESMX 111820Z 19015KT 9999 -RA BKN005 OVC008 05/05 Q1003=
200612111750 METAR ESMX 111750Z 20017KT 4500 DZ BKN005 OVC008 05/04 Q1003=
200612111720 METAR ESMX 111720Z 19016KT 9999 DZ BKN006 OVC008 05/04 Q1003=
200612111650 METAR ESMX 111650Z 20015KT 9999 -DZ OVC006 05/04 Q1003=
200612111620 METAR ESMX 111620Z 20016KT 9999 DZ BKN006 OVC010 05/04 Q1004=
200612111550 METAR ESMX 111550Z 19017KT 9999 DZ BKN006 OVC010 05/04 Q1004=
200612111520 METAR ESMX 111520Z 18017KT 7000 -RA BR OVC007 05/04 Q1004=
200612111450 METAR ESMX 111450Z 18018KT 8000 DZ BR BKN006 OVC010 05/04 Q1005=
200612111420 METAR ESMX 111420Z 19017KT 6000 DZ BR SCT008 OVC010 05/04 Q1005=
200612111350 METAR ESMX 111350Z 20017KT 9999 DZ BKN008 OVC010 04/04 Q1005=
200612111320 METAR ESMX 111320Z 18017KT 8000 DZ OVC006 04/04 Q1005=
200612111250 METAR ESMX 111250Z 19018KT 8000 -DZ FEW005 OVC007 04/04 Q1006=
200612111220 METAR ESMX 111220Z 18017KT 5000 -DZ BR BKN007 OVC010 04/03 Q1006=
200612111150 METAR ESMX 111150Z 18017KT 3000 DZ BR SCT005 OVC010 04/03 Q1007=
200612111120 METAR ESMX 111120Z 18017KT 2500 DZ BR SCT006 OVC010 04/03 Q1007=
200612111050 METAR ESMX 111050Z 18018KT 5000 -RA BR FEW005 OVC010 04/03 Q1007=
200612111020 METAR ESMX 111020Z 18017KT 2400 -RA BR FEW005 OVC009 04/03 Q1008 REDZ=
200612110950 METAR ESMX 110950Z 18016KT 3000 DZ BR FEW007 OVC009 04/03 Q1008=
200612110920 METAR ESMX 110920Z 18015KT 5000 -DZ BR OVC009 04/03 Q1009=
200612110850 METAR ESMX 110850Z 18017KT 8000 BR OVC011 04/02 Q1009=
200612110820 METAR ESMX 110820Z 18015KT 9999 BKN015 04/02 Q1010=
200612110720 METAR ESMX 110720Z 19016KT 9999 FEW033 BKN038 04/01 Q1010=
200612110650 METAR ESMX 110650Z 18018KT 9999 BKN032 04/01 Q1011=
200612110620 METAR ESMX 110620Z 18017KT 9999 BKN036 04/01 Q1011=
200612110550 METAR ESMX 110550Z 20016KT 9999 FEW015 BKN050 04/01 Q1012=
200612110520 METAR ESMX 110520Z 18016KT 9999 SCT015 BKN060 04/01 Q1012=
200612110450 METAR ESMX 110450Z 18015KT 9999 FEW015 BKN020 04/01 Q1012=
200612110420 METAR ESMX 110420Z AUTO 19015KT 160V220 9999NDV FEW018/// 04/01 Q1013=
200612110350 METAR ESMX 110350Z AUTO 19017KT 9999NDV FEW019/// 04/01 Q1013=
200612110320 METAR ESMX 110320Z AUTO 19017KT 9999NDV FEW018/// 04/01 Q1014=
200612110250 METAR ESMX 110250Z AUTO 19016KT 9999NDV FEW016/// BKN019/// 04/01 Q1014=
200612110220 METAR ESMX 110220Z AUTO 19014KT 160V230 9999NDV BKN016/// 04/01 Q1015=
200612110150 METAR ESMX 110150Z AUTO 19014KT 9999NDV BKN016/// 04/01 Q1015=
200612110120 METAR ESMX 110120Z 20015KT 9999 BKN017 04/01 Q1016=
200612110050 METAR ESMX 110050Z 19014KT 9999 FEW015 SCT018 BKN021 04/02 Q1016=
200612110020 METAR ESMX 110020Z 21013KT 9999 FEW015 BKN020 04/02 Q1016=
200612102350 METAR ESMX 102350Z 20013KT 9999 FEW016 BKN020 04/02 Q1017=
200612102320 METAR ESMX 102320Z 19015KT 9999 FEW015 BKN020 04/02 Q1017=
200612102250 METAR ESMX 102250Z 20013KT 9999 FEW014 SCT019 BKN023 04/03 Q1017=
200612102220 METAR ESMX 102220Z 20012KT 170V240 9999 FEW011 SCT014 BKN017 04/03 Q1018=
200612102150 METAR ESMX 102150Z 20012KT 9999 FEW008 BKN012 04/03 Q1018=
200612102120 METAR ESMX 102120Z 20013KT 9999 BKN007 04/03 Q1018=
200612102050 METAR ESMX 102050Z 20011KT 9999 FEW008 04/03 Q1019=
200612102020 METAR ESMX 102020Z 19009KT 9999 FEW006 03/02 Q1019=
200612101950 METAR ESMX 101950Z 19008KT 9999 FEW006 03/02 Q1019=
200612101920 METAR ESMX 101920Z 20008KT 9999 FEW006 03/02 Q1019=
200612101850 METAR ESMX 101850Z 21008KT 9999 SCT006 04/03 Q1019=
200612101820 METAR ESMX 101820Z 21008KT 180V240 9999 SCT006 04/03 Q1019=
200612101750 METAR ESMX 101750Z 20008KT 9999 FEW007 04/03 Q1019=
200612101720 METAR ESMX 101720Z 22007KT 200V270 9999 FEW015 04/03 Q1019=
200612101650 METAR ESMX 101650Z 19006KT 9999 FEW017 04/03 Q1019=
200612101620 METAR ESMX 101620Z 21007KT 9999 SCT018 05/03 Q1019=
200612101550 METAR ESMX 101550Z 24007KT 9999 FEW015 BKN024 05/04 Q1019=
200612101520 METAR ESMX 101520Z 22006KT 9999 SCT024 05/03 Q1018=
200612101450 METAR ESMX 101450Z 24005KT 9999 FEW018 BKN033 05/03 Q1019=
200612101420 METAR ESMX 101420Z 24006KT 9999 FEW019 BKN032 05/03 Q1018=
200612101350 METAR ESMX 101350Z 23005KT 9999 FEW021 06/04 Q1018=
200612101320 METAR ESMX 101320Z 25007KT 9999 FEW019 06/04 Q1017=
200612101250 METAR ESMX 101250Z 26007KT 230V290 9999 FEW016 07/04 Q1017=
200612101220 METAR ESMX 101220Z AUTO 25009KT 200V280 9999NDV FEW016/// 06/04 Q1017=
200612101150 METAR ESMX 101150Z AUTO 27008KT 230V300 9999NDV FEW016/// BKN020/// 07/04 Q1017=
200612101120 METAR ESMX 101120Z AUTO 28009KT 9999NDV FEW013/// OVC017/// 07/04 Q1017=
200612101050 METAR ESMX 101050Z AUTO 27007KT 9999NDV FEW013/// SCT016/// BKN019/// 06/04 Q1017=
200612101020 METAR ESMX 101020Z AUTO 27007KT 9999NDV SCT010/// OVC014/// 06/04 Q1017=
200612100950 METAR ESMX 100950Z AUTO 27006KT 220V300 9999NDV BKN011/// BKN017/// 06/04 Q1016=
200612100920 METAR ESMX 100920Z AUTO 26007KT 240V310 9999NDV BKN011/// OVC017/// 06/04 Q1016=
200612100850 METAR ESMX 100850Z AUTO 27006KT 9999NDV FEW011/// BKN014/// BKN018/// 06/04 Q1016=
200612100820 METAR ESMX 100820Z AUTO 28009KT 230V290 9999NDV OVC011/// 06/04 Q1015=
200612100750 METAR ESMX 100750Z AUTO 27005KT 230V320 9999NDV BKN012/// 05/04 Q1015=
200612100720 METAR ESMX 100720Z AUTO 25006KT 210V290 9999NDV BKN014/// 05/04 Q1014=
200612100650 METAR ESMX 100650Z AUTO 26005KT 9999NDV FEW011/// SCT015/// 05/03 Q1014=
200612100620 METAR ESMX 100620Z AUTO 26005KT 230V290 9999NDV FEW012/// SCT015/// OVC018/// 05/04 Q1014=
200612100550 METAR ESMX 100550Z AUTO 26007KT 9999NDV FEW009/// SCT013/// OVC017/// 05/04 Q1014=
200612100520 METAR ESMX 100520Z AUTO 25004KT 9999NDV OVC016/// 05/04 Q1013=
200612100450 METAR ESMX 100450Z AUTO 26005KT 9999NDV BKN015/// 05/04 Q1013=
200612100420 METAR ESMX 100420Z AUTO 27007KT 9999NDV FEW010/// BKN015/// 05/04 Q1013=
200612100350 METAR ESMX 100350Z AUTO 27005KT 9999NDV FEW013/// BKN016/// 05/05 Q1012=
200612100320 METAR ESMX 100320Z AUTO 25006KT 9999NDV FEW009/// OVC011/// 05/05 Q1012=
200612100250 METAR ESMX 100250Z AUTO 26006KT 9999NDV FEW002/// SCT005/// BKN006/// 05/05 Q1012=
200612100220 METAR ESMX 100220Z AUTO 26005KT 4100NDV BR BKN001/// OVC004/// 05/05 Q1011=
200612100150 METAR ESMX 100150Z AUTO 26004KT 5000NDV BR OVC001/// 05/05 Q1011=
200612100120 METAR ESMX 100120Z AUTO 25004KT 9999NDV OVC002/// 05/05 Q1010=
200612100050 METAR ESMX 100050Z AUTO 24005KT 9999NDV BKN004/// BKN041/// 05/05 Q1010=
200612100020 METAR ESMX 100020Z AUTO 22004KT 9999NDV FEW005/// SCT032/// BKN039/// 05/05 Q1010=
200612092350 METAR ESMX 092350Z AUTO 23005KT 9999NDV FEW004/// SCT026/// BKN031/// 05/05 Q1009=
200612092320 METAR ESMX 092320Z AUTO 23005KT 9999NDV OVC004/// 05/05 Q1009=
200612092250 METAR ESMX 092250Z AUTO 24003KT 9999NDV BKN005/// 04/04 Q1009=
200612092220 METAR ESMX 092220Z AUTO 23004KT 9999NDV FEW006/// SCT033/// 05/04 Q1008=
200612092150 METAR ESMX 092150Z AUTO 22005KT 9999NDV FEW007/// BKN038/// 05/04 Q1008=
200612092120 METAR ESMX 092120Z AUTO 22006KT 9999NDV SCT040/// 05/05 Q1008=
200612092050 METAR ESMX 092050Z AUTO 23006KT 9999NDV NCD 05/04 Q1007=
200612092020 METAR ESMX 092020Z AUTO 20006KT 9999NDV FEW016/// 05/04 Q1007=
200612091950 METAR ESMX 091950Z AUTO 22005KT 9999NDV NCD 05/04 Q1007=
200612091920 METAR ESMX 091920Z AUTO 21005KT 9999NDV NCD 04/03 Q1006=
200612091850 METAR ESMX 091850Z AUTO 18007KT 9999NDV FEW047/// 05/04 Q1006=
200612091820 METAR ESMX 091820Z AUTO 18007KT 9999NDV FEW017/// 05/04 Q1005=
200612091750 METAR ESMX 091750Z AUTO 20008KT 9999NDV FEW032/// SCT047/// 06/05 Q1005=
200612091720 METAR ESMX 091720Z AUTO 20008KT 9999NDV FEW018/// BKN049/// 07/05 Q1004=
200612091650 METAR ESMX 091650Z AUTO 18008KT 9999NDV FEW018/// OVC047/// 07/05 Q1004=
200612091620 METAR ESMX 091620Z AUTO 17006KT 9999NDV FEW015/// SCT019/// OVC041/// 07/05 Q1004=
200612091550 METAR ESMX 091550Z AUTO 20007KT 9999NDV FEW015/// SCT020/// BKN044/// 07/05 Q1003=
200612091520 METAR ESMX 091520Z AUTO 19008KT 9999NDV BKN046/// 07/05 Q1003=
200612091450 METAR ESMX 091450Z AUTO 21009KT 9999NDV FEW018/// OVC045/// 08/06 Q1002=
200612091420 METAR ESMX 091420Z AUTO 20009KT 9999NDV FEW014/// OVC045/// 08/06 Q1002=
200612091350 METAR ESMX 091350Z AUTO 20010KT 9999NDV FEW016/// OVC043/// 08/06 Q1001=
200612091320 METAR ESMX 091320Z AUTO 20009KT 9999NDV FEW014/// SCT026/// OVC041/// 08/06 Q1001=
200612091250 METAR ESMX 091250Z AUTO 19009KT 9999NDV FEW014/// SCT018/// BKN021/// 08/06 Q1000=
200612091220 METAR ESMX 091220Z AUTO 19009KT 9999NDV FEW011/// BKN014/// OVC036/// 08/06 Q1000=
200612091150 METAR ESMX 091150Z AUTO 20009KT 9999NDV FEW012/// SCT014/// BKN017/// 07/06 Q0999=
200612091120 METAR ESMX 091120Z AUTO 20007KT 160V240 9999NDV FEW011/// BKN014/// OVC020/// 07/06 Q0999=
200612091050 METAR ESMX 091050Z AUTO 21011KT 9999NDV FEW015/// SCT018/// BKN021/// 08/05 Q0998=
200612091020 METAR ESMX 091020Z AUTO 22012KT 9999NDV FEW019/// SCT024/// OVC028/// 08/05 Q0998=
200612090950 METAR ESMX 090950Z AUTO 23011KT 9999NDV FEW016/// SCT020/// BKN025/// 08/05 Q0997=
200612090920 METAR ESMX 090920Z AUTO 22015G25KT 9999NDV FEW016/// SCT020/// OVC028/// 08/05 Q0996=
200612090850 METAR ESMX 090850Z AUTO 22013KT 9999NDV FEW010/// SCT014/// BKN018/// 08/06 Q0995=
200612090820 METAR ESMX 090820Z AUTO 21013KT 9999NDV FEW009/// OVC010/// 08/07 Q0995=
200612090750 METAR ESMX 090750Z AUTO 19013KT 9999NDV OVC009/// 08/06 Q0994=
200612090720 METAR ESMX 090720Z AUTO 19014KT 9999NDV OVC012/// 08/06 Q0993=
200612090650 METAR ESMX 090650Z AUTO 19013KT 140V200 9999NDV OVC014/// 08/06 Q0993=
200612090620 METAR ESMX 090620Z AUTO 18012KT 9999NDV OVC017/// 08/06 Q0992=
200612090550 METAR ESMX 090550Z AUTO 17010KT 9999NDV FEW019/// SCT026/// OVC040/// 08/06 Q0992=
200612090520 METAR ESMX 090520Z AUTO 18011KT 140V210 9999NDV FEW024/// OVC036/// 08/06 Q0992=
200612090450 METAR ESMX 090450Z AUTO 19011KT 9999NDV OVC034/// 08/06 Q0991=
200612090420 METAR ESMX 090420Z AUTO 17011KT 9999NDV OVC036/// 08/06 Q0991=
200612090350 METAR ESMX 090350Z AUTO 17010KT 9999NDV OVC039/// 08/06 Q0991=
200612090320 METAR ESMX 090320Z AUTO 17010KT 9999NDV FEW041/// BKN048/// 08/06 Q0991=
200612090250 METAR ESMX 090250Z AUTO 17009KT 9999NDV NCD 08/06 Q0990=
200612090220 METAR ESMX 090220Z AUTO 17010KT 9999NDV FEW038/// 08/06 Q0990=
200612090150 METAR ESMX 090150Z AUTO 17009KT 9999NDV FEW044/// 08/06 Q0990=
200612090120 METAR ESMX 090120Z AUTO 16009KT 9999NDV FEW040/// SCT056/// 08/06 Q0990=
200612090050 METAR ESMX 090050Z AUTO 17010KT 140V200 9999NDV FEW057/// 08/06 Q0990=
200612090020 METAR ESMX 090020Z AUTO 16009KT 8000NDV BR BKN035/// OVC051/// 08/06 Q0990=
200612082350 METAR ESMX 082350Z AUTO 17008KT 9000NDV BKN031/// BKN059/// 08/06 Q0990=
200612082320 METAR ESMX 082320Z AUTO 17009KT 9999NDV BR BKN032/// BKN050/// 08/06 Q0990=
200612082250 METAR ESMX 082250Z AUTO 17008KT 8000NDV BR FEW013/// OVC042/// 08/06 Q0990=
200612082220 METAR ESMX 082220Z AUTO 16011KT 9999NDV FEW011/// OVC036/// 08/06 Q0990=
200612082150 METAR ESMX 082150Z AUTO 16010KT 120V200 9999NDV FEW011/// BKN041/// 08/06 Q0990=
200612082120 METAR ESMX 082120Z AUTO 16010KT 100V180 9999NDV FEW008/// SCT013/// BKN037/// 08/06 Q0990 RERA=
200612082050 METAR ESMX 082050Z AUTO 16009KT 130V200 9999NDV FEW009/// SCT014/// OVC033/// 08/07 Q0991=
200612082020 METAR ESMX 082020Z AUTO 14008KT 110V170 9999NDV FEW005/// SCT009/// BKN013/// 08/07 Q0991 REDZ=
200612081950 METAR ESMX 081950Z AUTO 16008KT 7000NDV DZ BKN003/// OVC006/// 07/07 Q0991=
200612081920 METAR ESMX 081920Z AUTO 15008KT 120V180 3600NDV -DZ FEW003/// OVC004/// 07/06 Q0991=
200612081850 METAR ESMX 081850Z AUTO 15006KT 110V180 2500NDV DZ OVC003/// 07/06 Q0991=
200612081820 METAR ESMX 081820Z 16005KT 110V170 6000 RA OVC005 06/06 Q0992=
200612081750 METAR ESMX 081750Z 16008KT 9999 BKN006 06/05 Q0992=
200612081720 METAR ESMX 081720Z 16009KT 9999 -RA BKN007 06/05 Q0992=
200612081650 METAR ESMX 081650Z 16007KT 140V200 9999 BKN008 06/05 Q0993=
200612081620 METAR ESMX 081620Z 17009KT 9999 BKN008 BKN011 07/05 Q0993=
200612081550 METAR ESMX 081550Z 17011KT 9999 BKN007 07/05 Q0993=
200612081520 METAR ESMX 081520Z 18010KT 150V210 9999 SCT009 BKN120 07/05 Q0993=
200612081450 METAR ESMX 081450Z 16007KT 9999 FEW010 BKN120 07/05 Q0993=
200612081420 METAR ESMX 081420Z 18008KT 9999 SCT011 BKN015 07/05 Q0993=
200612081350 METAR ESMX 081350Z 17009KT 9999 FEW012 SCT015 07/05 Q0993=
200612081320 METAR ESMX 081320Z 18010KT 9999 FEW013 SCT022 07/06 Q0994=
200612081220 METAR ESMX 081220Z 17010KT 9999 BKN010 BKN017 08/06 Q0994=
200612081150 METAR ESMX 081150Z 17010KT 9999 -SHRA SCT014 BKN030 08/06 Q0994=
200612081120 METAR ESMX 081120Z 17013KT 140V200 9999 SCT015 BKN021 08/06 Q0994=
200612081050 METAR ESMX 081050Z 18012KT 9999 SCT016 BKN031 08/06 Q0994=
200612081020 METAR ESMX 081020Z 17011KT 140V200 9999 SCT015 BKN035 08/06 Q0994=
200612080950 METAR ESMX 080950Z 17010KT 140V210 9999 SCT015 BKN020 08/06 Q0993=
200612080920 METAR ESMX 080920Z 17009KT 130V190 9999 FEW015 BKN030 08/06 Q0993=
200612080850 METAR ESMX 080850Z 17009KT 130V200 9999 FEW030 BKN060 08/06 Q0993=
200612080750 METAR ESMX 080750Z 17013KT 9999 FEW015 BKN050 07/06 Q0993=
200612080720 METAR ESMX 080720Z 18013KT 9999 FEW015 OVC050 07/06 Q0992=
200612080650 METAR ESMX 080650Z 18013KT 9999 FEW015 BKN025 07/06 Q0992=
200612080620 METAR ESMX 080620Z 18012KT 9999 FEW013 BKN050 07/06 Q0991=
200612080550 METAR ESMX 080550Z 18014KT 9999 BKN011 07/05 Q0991=
200612080520 METAR ESMX 080520Z 17013KT 9999 BKN011 OVC016 07/06 Q0991=
200612080450 METAR ESMX 080450Z 19014KT 9999 FEW013 BKN015 OVC023 07/06 Q0990=
200612080420 METAR ESMX 080420Z 19016KT 9999 FEW014 SCT017 BKN020 07/06 Q0990=
200612080350 METAR ESMX 080350Z AUTO 18015KT 9999NDV FEW014/// SCT017/// OVC021/// 07/06 Q0990=
200612080320 METAR ESMX 080320Z AUTO 18014KT 9999NDV FEW010/// SCT015/// BKN019/// 07/06 Q0989 REDZ=
200612080250 METAR ESMX 080250Z AUTO 18014KT 6000NDV DZ FEW009/// BKN011/// OVC016/// 07/06 Q0989 RERA=
200612080220 METAR ESMX 080220Z AUTO 18013KT 8000NDV -RA OVC009/// 07/06 Q0989 REDZ=
200612080150 METAR ESMX 080150Z AUTO 17012KT 140V200 9999NDV FEW009/// BKN012/// OVC016/// 07/06 Q0989=
200612080120 METAR ESMX 080120Z 17014KT 9999 FEW010 SCT012 BKN015 07/05 Q0989=
200612080050 METAR ESMX 080050Z 18014KT 9999 FEW008 BKN010 OVC013 07/06 Q0989=
200612080020 METAR ESMX 080020Z 19013KT 9999 FEW006 BKN013 OVC023 06/05 Q0989=
200612072350 METAR ESMX 072350Z 18014KT 6000 RA BKN005 OVC013 06/05 Q0989=
200612072320 METAR ESMX 072320Z 17016G26KT 4300 RA FEW005 OVC008 06/05 Q0989=
200612072250 METAR ESMX 072250Z 17013KT 8000 -DZ FEW006 SCT008 OVC010 06/05 Q0989=
200612072220 METAR ESMX 072220Z 18012KT 9999 -RA FEW008 BKN011 OVC015 06/05 Q0989=
200612072150 METAR ESMX 072150Z 17014KT 9999 -RA FEW007 SCT009 BKN010 06/05 Q0989=
200612072120 METAR ESMX 072120Z 17013KT 7000 -RA FEW007 BKN009 OVC013 05/05 Q0989=
200612072050 METAR ESMX 072050Z 17013KT 6000 DZ FEW008 BKN010 OVC013 05/04 Q0990=
200612072020 METAR ESMX 072020Z 18012KT 9999 -RA FEW009 SCT011 BKN013 05/04 Q0990=
200612071950 METAR ESMX 071950Z 17014KT 9999 RA FEW009 BKN013 OVC017 05/04 Q0991=
200612071920 METAR ESMX 071920Z 18014KT 140V210 9999 RA FEW009 BKN012 BKN017 05/04 Q0991=
200612071850 METAR ESMX 071850Z 18016KT 140V230 9999 -RA FEW011 BKN014 BKN018 06/04 Q0991=
200612071820 METAR ESMX 071820Z 18014G24KT 140V210 9000 -RA BKN013 OVC019 06/04 Q0991=
200612071750 METAR ESMX 071750Z 16015G28KT 120V190 9999 -DZ BKN015 OVC020 06/04 Q0992=
200612071720 METAR ESMX 071720Z 17016KT 140V200 9999 -DZ SCT015 OVC025 06/04 Q0992=
200612071650 METAR ESMX 071650Z 17015KT 130V190 9999 BKN015 OVC020 06/04 Q0993=
200612071620 METAR ESMX 071620Z 16016KT 9999 FEW013 OVC020 06/04 Q0993=
200612071550 METAR ESMX 071550Z 16014KT 120V190 9999 BKN015 06/04 Q0994=
200612071520 METAR ESMX 071520Z 16013KT 120V190 9999 SCT015 06/04 Q0994=
200612071450 METAR ESMX 071450Z 17012KT 140V200 9999 FEW015 06/04 Q0995=
200612071420 METAR ESMX 071420Z 16011KT 9999 SCT015 BKN020 06/04 Q0996=
200612071350 METAR ESMX 071350Z 17010KT 140V200 9999 BKN020 06/04 Q0996=
200612071320 METAR ESMX 071320Z 16011KT 140V200 9999 FEW017 BKN020 06/04 Q0996=
200612071250 METAR ESMX 071250Z 17010KT 150V210 9999 FEW017 BKN025 06/04 Q0997=
200612071220 METAR ESMX 071220Z 17012KT 9999 FEW015 BKN035 07/04 Q0997=
200612071150 METAR ESMX 071150Z 17010KT 130V200 9999 SCT015 BKN030 07/05 Q0998=
200612071050 METAR ESMX 071050Z 18010KT 9999 SCT010 BKN040 07/05 Q0998=
200612071020 METAR ESMX 071020Z 18010KT 9999 SCT010 BKN020 06/05 Q0998 RERA=
200612070950 METAR ESMX 070950Z 20008KT 9999 -SHRA SCT008 BKN016 06/05 Q0999=
200612070920 METAR ESMX 070920Z 19011KT 9999 SCT010 BKN018 07/05 Q0999=
200612070850 METAR ESMX 070850Z 20010KT 9999 BKN010 OVC016 07/05 Q0999=
200612070820 METAR ESMX 070820Z 20010KT 9999 FEW011 BKN013 OVC020 06/05 Q0999=
200612070750 METAR ESMX 070750Z 20009KT 9999 SCT012 BKN018 06/05 Q0999=
200612070720 METAR ESMX 070720Z 20010KT 9999 SCT010 BKN015 06/05 Q0999=
200612070650 METAR ESMX 070650Z 20009KT 9999 SCT010 BKN017 06/05 Q0998=
200612070620 METAR ESMX 070620Z 20009KT 9999 SCT010 BKN020 06/05 Q0999=
200612070550 METAR ESMX 070550Z 20008KT 9999 BKN011 OVC016 06/05 Q0998=
200612070520 METAR ESMX 070520Z 20010KT 9999 BKN013 05/04 Q0998=
200612070450 METAR ESMX 070450Z 21009KT 9999 FEW012 SCT016 05/04 Q0998=
200612070420 METAR ESMX 070420Z AUTO 20009KT 9999NDV FEW012/// 05/04 Q0998=
200612070350 METAR ESMX 070350Z AUTO 20011KT 9999NDV FEW020/// 05/04 Q0998=
200612070320 METAR ESMX 070320Z AUTO 21010KT 180V240 9999NDV FEW011/// SCT014/// BKN018/// 05/04 Q0998=
200612070250 METAR ESMX 070250Z AUTO 22011KT 9999NDV FEW012/// SCT019/// BKN023/// 06/04 Q0998 RERA REDZ=
200612070220 METAR ESMX 070220Z AUTO 22013KT 9999NDV FEW012/// SCT020/// BKN024/// 06/05 Q0998=
200612070150 METAR ESMX 070150Z AUTO 22010KT 190V250 9999NDV FEW016/// SCT021/// BKN026/// 06/05 Q0998=
200612070120 METAR ESMX 070120Z 20011KT 9999 FEW015 SCT020 BKN035 06/05 Q0997=
200612070050 METAR ESMX 070050Z 21010KT 160V230 9999 FEW011 SCT015 BKN017 06/05 Q0997 REDZ=
200612070020 METAR ESMX 070020Z 20010KT 9999 FEW022 SCT032 BKN049 06/05 Q0997=
200612062350 METAR ESMX 062350Z 21010KT 9999 SCT015 BKN030 06/05 Q0997=
200612062320 METAR ESMX 062320Z 23007KT 9999 FEW013 SCT015 06/05 Q0996=
200612062250 METAR ESMX 062250Z 22010KT 9999 FEW013 SCT018 BKN026 07/05 Q0996 RERA=
200612062220 METAR ESMX 062220Z 21011KT 190V250 9000 FEW013 SCT019 BKN023 07/05 Q0995 RERA=
200612062150 METAR ESMX 062150Z 21014KT 9999 -RA SCT014 BKN021 BKN032 07/05 Q0995=
200612062120 METAR ESMX 062120Z 22014KT 9999 FEW012 SCT015 BKN018 07/05 Q0994 RERA=
200612062050 METAR ESMX 062050Z 20014KT 9999 FEW011 BKN015 BKN020 07/05 Q0994 RERA=
200612062020 METAR ESMX 062020Z 21015KT 9999 SCT011 BKN014 07/06 Q0994=
200612061950 METAR ESMX 061950Z 21015KT 170V240 9999 FEW012 SCT014 BKN017 07/05 Q0993 RERA=
200612061920 METAR ESMX 061920Z 20013KT 9999 BKN011 OVC017 07/05 Q0993=
200612061850 METAR ESMX 061850Z 22013KT 9999 SCT011 BKN017 07/05 Q0993=
200612061820 METAR ESMX 061820Z 22013KT 200V270 9999 SCT012 BKN015 OVC021 07/05 Q0993=
200612061750 METAR ESMX 061750Z 20014KT 9999 SCT012 BKN025 07/05 Q0993=
200612061720 METAR ESMX 061720Z 21013KT 9999 FEW010 SCT020 BKN030 07/05 Q0992=
200612061650 METAR ESMX 061650Z 20013KT 9999 FEW010 SCT016 BKN025 07/06 Q0992 REDZ=
200612061620 METAR ESMX 061620Z 21013KT 9999 DZ FEW013 SCT036 BKN046 07/06 Q0992 RERA=
200612061550 METAR ESMX 061550Z 21014KT 9999 -SHRA SCT015 BKN017 07/06 Q0992=
200612061520 METAR ESMX 061520Z 21013KT 9999 -RA FEW014 SCT019 BKN023 08/06 Q0992 REDZ=
200612061450 METAR ESMX 061450Z 19015KT 9999 SCT017 BKN020 08/06 Q0992=
200612061420 METAR ESMX 061420Z 22012KT 9999 SCT017 BKN030 08/06 Q0991=
200612061350 METAR ESMX 061350Z 21012KT 9999 FEW016 BKN020 08/06 Q0991=
200612061320 METAR ESMX 061320Z 21012KT 9999 SCT016 BKN025 08/06 Q0991=
200612061250 METAR ESMX 061250Z 22012KT 9999 FEW017 SCT030 08/06 Q0990=
200612061220 METAR ESMX 061220Z 21012KT 9999 FEW015 SCT025 08/07 Q0990 REDZ=
200612061150 METAR ESMX 061150Z 19012KT 9999 DZ SCT020 BKN035 08/07 Q0990=
200612061120 METAR ESMX 061120Z 22014KT 9999 FEW010 BKN025 08/06 Q0990=
200612061050 METAR ESMX 061050Z 20014KT 9999 FEW010 BKN025 08/06 Q0990 RERA=
200612061020 METAR ESMX 061020Z 22012KT 9999 FEW013 SCT025 08/07 Q0990 RERA=
200612060950 METAR ESMX 060950Z 19015KT 5000 SHRA BKN013 BKN040 09/07 Q0990=
200612060920 METAR ESMX 060920Z 19016KT 9999 BKN020 BKN045 09/06 Q0990=
200612060850 METAR ESMX 060850Z 19015KT 9999 FEW020 SCT025 OVC045 09/07 Q0990=
200612060820 METAR ESMX 060820Z 18013KT 9999 SCT019 BKN045 09/07 Q0990=
200612060750 METAR ESMX 060750Z 19012KT 9999 BKN017 BKN045 09/07 Q0990=
200612060720 METAR ESMX 060720Z 18012KT 9999 BKN014 BKN040 09/07 Q0990=
200612060650 METAR ESMX 060650Z 18011KT 9999 BKN013 BKN035 09/07 Q0990=
200612060620 METAR ESMX 060620Z 19011KT 9999 FEW015 SCT020 BKN045 09/07 Q0990=
200612060550 METAR ESMX 060550Z 21011KT 9999 FEW015 SCT020 BKN040 09/07 Q0989=
200612060520 METAR ESMX 060520Z 19012KT 9999 FEW014 SCT017 BKN020 09/07 Q0990=
200612060450 METAR ESMX 060450Z 19011KT 9999 FEW013 SCT019 BKN025 09/07 Q0989=
200612060420 METAR ESMX 060420Z 19012KT 9999 FEW013 SCT017 BKN024 09/07 Q0989=
200612060350 METAR ESMX 060350Z AUTO 19011KT 9999NDV FEW014/// BKN016/// BKN020/// 09/08 Q0989=
200612060320 METAR ESMX 060320Z AUTO 19012KT 9999NDV FEW012/// SCT014/// BKN018/// 09/08 Q0989=
200612060250 METAR ESMX 060250Z AUTO 19013KT 9999NDV FEW009/// BKN011/// OVC016/// 09/08 Q0989=
200612060220 METAR ESMX 060220Z AUTO 20010KT 170V230 9999NDV BKN010/// OVC016/// 09/08 Q0989=
200612060150 METAR ESMX 060150Z AUTO 20011KT 9999NDV OVC011/// 09/07 Q0989=
200612060120 METAR ESMX 060120Z 20011KT 9999 FEW012 BKN015 09/07 Q0989=
200612052350 METAR ESMX 052350Z 19011KT 9999 -SHRA FEW015 SCT039 09/07 Q0988=
200612052320 METAR ESMX 052320Z 20012KT 9999 -SHRA FEW018 SCT072 09/08 Q0989=
200612052250 METAR ESMX 052250Z 21011KT 9999 FEW011 SCT074 10/08 Q0988=
200612052220 METAR ESMX 052220Z 21010KT 9999 -SHRA SCT010 BKN072 10/09 Q0988=
200612052150 METAR ESMX 052150Z 19012KT 9999 -RA FEW010 SCT016 BKN053 10/09 Q0988=
200612052120 METAR ESMX 052120Z 21012KT 9999 -SHRA FEW008 SCT010 BKN045 10/10 Q0988=
200612052050 METAR ESMX 052050Z 22015KT 170V240 9999 -RA BKN009 BKN014 10/10 Q0988=
200612052020 METAR ESMX 052020Z 20017KT 7000 -RA FEW007 SCT009 BKN013 11/10 Q0987=
200612051950 METAR ESMX 051950Z 19018KT 6000 -RA FEW006 BKN008 OVC013 11/10 Q0988=
200612051920 METAR ESMX 051920Z 19016KT 4900 -RA FEW006 BKN007 OVC010 10/10 Q0988=
200612051850 METAR ESMX 051850Z 19017KT 3900 -RA FEW006 SCT008 BKN009 11/10 Q0988=
200612051820 METAR ESMX 051820Z 21017KT 170V240 3500 -RA FEW007 SCT009 OVC010 11/10 Q0988=
200612051750 METAR ESMX 051750Z 21017KT 5000 DZ BR FEW007 SCT008 OVC010 11/10 Q0988=
200612051720 METAR ESMX 051720Z 19017G28KT 4000 DZ BR FEW007 SCT009 BKN011 11/10 Q0988 RERA=
200612051650 METAR ESMX 051650Z 19016KT 5000 -DZ BR FEW006 SCT008 BKN010 11/10 Q0988=
200612051620 METAR ESMX 051620Z 19016KT 3500 DZ BR FEW006 BKN008 OVC011 11/10 Q0988 RERA=
200612051550 METAR ESMX 051550Z 20014KT 4000 -DZ BR FEW007 SCT008 OVC010 10/10 Q0988=
200612051520 METAR ESMX 051520Z 20013KT 4000 -RA BR SCT011 OVC014 11/09 Q0988=
200612051450 METAR ESMX 051450Z 20015KT 8000 BR FEW010 SCT014 BKN017 11/09 Q0988 RERA=
200612051420 METAR ESMX 051420Z 22015KT 180V250 5000 -RA BR FEW008 SCT012 BKN014 11/10 Q0988=
200612051350 METAR ESMX 051350Z 20013KT 180V240 6000 -DZ BR FEW008 BKN012 OVC017 11/10 Q0988 RERA=
200612051320 METAR ESMX 051320Z 23015KT 190V270 8000 -DZ BR FEW008 BKN011 OVC016 11/10 Q0988 RERA=
200612051250 METAR ESMX 051250Z 21014G26KT 170V260 9999 FEW006 SCT009 BKN010 11/10 Q0988 REDZ=
200612051220 METAR ESMX 051220Z 23012KT 4000 DZ FEW005 SCT008 OVC010 11/10 Q0988=
200612051150 METAR ESMX 051150Z 21018KT 5000 DZ FEW003 BKN005 OVC010 10/10 Q0987=
200612051120 METAR ESMX 051120Z 19010KT 6000 DZ BKN002 OVC005 09/09 Q0987=
200612051050 METAR ESMX 051050Z 19010KT 3500 DZ OVC003 09/09 Q0987 RERA=
200612051020 METAR ESMX 051020Z 18013KT 9999 BKN005 OVC010 08/08 Q0987=
200612050950 METAR ESMX 050950Z 18009KT 5000 DZ FEW004 BKN008 OVC010 08/07 Q0988=
200612050920 METAR ESMX 050920Z 17011KT 3000 DZ FEW004 BKN007 OVC010 08/07 Q0988=
200612050850 METAR ESMX 050850Z 17011KT 150V210 3500 BR BKN003 OVC006 07/07 Q0988=
200612050820 METAR ESMX 050820Z 16011KT 3500 BR FEW005 OVC007 07/06 Q0988=
200612050750 METAR ESMX 050750Z 16009KT 090V190 3500 BR FEW006 OVC008 07/06 Q0988=
200612050720 METAR ESMX 050720Z 17010KT 140V210 9999 OVC007 07/06 Q0989=
200612050650 METAR ESMX 050650Z 18010KT 9999 BKN008 07/06 Q0988=
200612050620 METAR ESMX 050620Z 17010KT 9999 SCT008 BKN015 07/05 Q0989=
200612050550 METAR ESMX 050550Z 17010KT 9999 SCT010 BKN014 07/05 Q0989=
200612050520 METAR ESMX 050520Z 18011KT 9999 FEW009 BKN011 06/05 Q0990=
200612050450 METAR ESMX 050450Z 18010KT 9999 FEW009 BKN011 BKN023 06/05 Q0990=
200612050420 METAR ESMX 050420Z 17011KT 9999 SCT010 BKN015 06/05 Q0990=
200612050350 METAR ESMX 050350Z AUTO 18012KT 9999NDV FEW010/// SCT014/// BKN018/// 06/05 Q0990=
200612050320 METAR ESMX 050320Z AUTO 20011KT 9999NDV FEW010/// SCT013/// BKN018/// 06/05 Q0991=
200612050250 METAR ESMX 050250Z AUTO 18011KT 9999NDV FEW010/// SCT018/// BKN023/// 06/05 Q0991=
200612050220 METAR ESMX 050220Z AUTO 18012KT 9999NDV FEW009/// SCT013/// BKN016/// 06/05 Q0991 RERA REDZ=
200612050150 METAR ESMX 050150Z AUTO 18011KT 9999NDV FEW008/// SCT011/// BKN049/// 06/05 Q0991=
200612050120 METAR ESMX 050120Z 19012KT 9999 FEW009 SCT0035 BKN063 06/05 Q0992=
200612050050 METAR ESMX 050050Z 18010KT 9999 FEW009 SCT015 BKN045 06/05 Q0991=
200612050020 METAR ESMX 050020Z 19011KT 9999 FEW010 SCT045 06/05 Q0992=
200612042350 METAR ESMX 042350Z 19011KT 9999 FEW008 SCT011 06/05 Q0992=
200612042320 METAR ESMX 042320Z 19010KT 9999 FEW009 BKN013 BKN020 06/05 Q0992=
200612042250 METAR ESMX 042250Z 19011KT 9999 FEW008 SCT010 BKN013 06/05 Q0992=
200612042220 METAR ESMX 042220Z 20012KT 7000 -RA FEW010 SCT014 BKN018 06/05 Q0992=
200612042150 METAR ESMX 042150Z 20012KT 9999 FEW011 BKN025 BKN035 06/05 Q0992=
200612042120 METAR ESMX 042120Z 19012KT 9999 BKN010 BKN025 06/05 Q0992=
200612042050 METAR ESMX 042050Z 19013KT 9999 BKN011 BKN028 06/05 Q0992=
200612042020 METAR ESMX 042020Z 18013KT 9999 FEW011 SCT015 BKN018 06/05 Q0992=
200612041950 METAR ESMX 041950Z 18011KT 9999 SCT012 BKN015 06/05 Q0992=
200612041920 METAR ESMX 041920Z 17009KT 9999 FEW008 BKN025 06/05 Q0992=
200612041850 METAR ESMX 041850Z 18009KT 9999 FEW009 SCT013 BKN034 06/05 Q0992=
200612041820 METAR ESMX 041820Z 18011KT 9999 FEW010 BKN012 BKN031 06/05 Q0993=
200612041750 METAR ESMX 041750Z 19010KT 9999 FEW010 SCT015 BKN045 06/04 Q0992=
200612041720 METAR ESMX 041720Z 19011KT 9999 FEW010 BKN045 06/05 Q0992=
200612041650 METAR ESMX 041650Z 19011KT 9999 FEW011 SCT015 BKN045 06/05 Q0992=
200612041620 METAR ESMX 041620Z 18010KT 9999 FEW013 SCT020 BKN045 06/05 Q0992=
200612041550 METAR ESMX 041550Z 19010KT 9999 FEW012 SCT020 BKN040 06/05 Q0992=
200612041520 METAR ESMX 041520Z 19011KT 9999 FEW010 BKN025 06/05 Q0992=
200612041420 METAR ESMX 041420Z 22011KT 9999 FEW015 SCT030 OVC035 07/05 Q0992=
200612041350 METAR ESMX 041350Z 22010KT 170V250 9999 FEW015 BKN020 06/05 Q0992=
200612041320 METAR ESMX 041320Z 20009KT 9999 BR FEW010 BKN015 OVC020 07/05 Q0992=
200612041250 METAR ESMX 041250Z 20010KT 9999 BR FEW010 BKN015 OVC020 07/06 Q0992=
200612041220 METAR ESMX 041220Z 20010KT 9000 DZ FEW007 SCT010 BKN020 06/06 Q0992=
200612041150 METAR ESMX 041150Z 20010KT 4000 DZ SCT009 BKN015 06/05 Q0992 RERA=
200612041120 METAR ESMX 041120Z 19013KT 7000 -RA BR FEW010 OVC020 06/05 Q0992=
200612041050 METAR ESMX 041050Z 20013KT 160V230 8000 -RA BR FEW010 OVC015 06/05 Q0992=
200612041020 METAR ESMX 041020Z 19015KT 6000 -RA BR FEW009 SCT012 BKN014 06/05 Q0992=
200612040950 METAR ESMX 040950Z 19014KT 6000 -RA FEW008 BKN011 OVC018 06/05 Q0992=
200612040850 METAR ESMX 040850Z 18013KT 9000 -DZ BR FEW013 SCT016 OVC019 07/05 Q0992 RERA=
200612040820 METAR ESMX 040820Z 18012KT 9999 FEW011 OVC018 07/05 Q0992=
200612040750 METAR ESMX 040750Z 19010KT 9999 FEW008 SCT010 BKN013 06/05 Q0992=
200612040720 METAR ESMX 040720Z 20011KT 9999 FEW009 BKN011 BKN035 06/05 Q0992=
200612040650 METAR ESMX 040650Z 19010KT 9999 FEW010 SCT018 BKN035 06/05 Q0992=
200612040620 METAR ESMX 040620Z 19010KT 9999 FEW010 BKN035 06/05 Q0992=
200612040550 METAR ESMX 040550Z 20008KT 9999 FEW008 BKN011 OVC037 06/05 Q0992=
200612040520 METAR ESMX 040520Z 20007KT 9999 FEW010 SCT013 BKN017 07/06 Q0992=
200612040450 METAR ESMX 040450Z 20009KT 9999 FEW011 BKN014 OVC033 07/06 Q0991=
200612040420 METAR ESMX 040420Z AUTO 20008KT 9999NDV FEW011/// SCT014/// BKN018/// 07/06 Q0991=
200612040350 METAR ESMX 040350Z AUTO 21010KT 9999NDV FEW011/// SCT018/// BKN038/// 07/06 Q0992=
200612040320 METAR ESMX 040320Z AUTO 19010KT 9999NDV FEW008/// SCT011/// BKN019/// 07/07 Q0992=
200612040250 METAR ESMX 040250Z AUTO 19009KT 9999NDV FEW009/// SCT017/// BKN025/// 07/07 Q0992=
200612040220 METAR ESMX 040220Z AUTO 19009KT 9999NDV FEW009/// SCT053/// BKN065/// 07/07 Q0992 RERA REDZ=
200612040150 METAR ESMX 040150Z AUTO 18011KT 9999NDV -RA FEW007/// SCT010/// BKN015/// 08/07 Q0992=
200612040120 METAR ESMX 040120Z 19012KT 9999 BKN004 OVC008 08/07 Q0992 REDZ=
200612040050 METAR ESMX 040050Z 17009KT 7000 -DZ OVC004 07/07 Q0992 RERA=
200612040020 METAR ESMX 040020Z 17010KT 140V200 6000 -RA OVC004 07/07 Q0992 REDZ=
200612032350 METAR ESMX 032350Z 16009KT 120V190 6000 DZ OVC004 07/07 Q0993 RERA=
200612032320 METAR ESMX 032320Z 16009KT 4200 -RA FEW004 OVC006 07/06 Q0993 REDZ=
200612032250 METAR ESMX 032250Z 17009KT 4300 -RA BKN007 BKN010 07/06 Q0994 REDZ=
200612032220 METAR ESMX 032220Z 15009KT 5000 DZ SCT007 BKN009 OVC011 07/06 Q0994=
200612032150 METAR ESMX 032150Z 17009KT 140V200 5000 BR OVC006 07/06 Q0995=
200612032120 METAR ESMX 032120Z 17009KT 140V200 4500 BR OVC004 07/06 Q0995=
200612032050 METAR ESMX 032050Z 16009KT 120V190 3400 BR OVC003 07/06 Q0996=
200612032020 METAR ESMX 032020Z 17010KT 140V200 3000 BR OVC003 07/06 Q0996=
200612031950 METAR ESMX 031950Z 17010KT 140V200 2600 BR OVC003 07/06 Q0997=
200612031920 METAR ESMX 031920Z 16012KT 120V190 2400 BR OVC003 07/06 Q0997=
200612031850 METAR ESMX 031850Z 16012KT 140V200 2300 BR OVC002 07/06 Q0998=
200612031820 METAR ESMX 031820Z 16011KT 130V200 2000 BR OVC002 07/06 Q0998=
200612031750 METAR ESMX 031750Z 16011KT 2500 BR OVC002 07/06 Q0999=
200612031720 METAR ESMX 031720Z 16009KT 3500 BR OVC003 07/06 Q0999=
200612031650 METAR ESMX 031650Z 16010KT 4500 BR SCT003 OVC005 07/06 Q1000=
200612031620 METAR ESMX 031620Z 15008KT 5000 BR BKN005 OVC008 07/06 Q1001=
200612031550 METAR ESMX 031550Z 15008KT 8000 BR FEW006 BKN009 07/06 Q1001=
200612031520 METAR ESMX 031520Z 16008KT 9999 FEW009 BKN013 06/05 Q1002=
200612031450 METAR ESMX 031450Z 15007KT 110V170 8000 BR BKN018 06/05 Q1002=
200612031420 METAR ESMX 031420Z 16007KT 9000 FEW020 06/05 Q1003=
200612031350 METAR ESMX 031350Z 18007KT 9999 SCT018 BKN200 06/05 Q1003=
200612031320 METAR ESMX 031320Z 17006KT 9999 SCT018 BKN200 06/04 Q1004=
200612031250 METAR ESMX 031250Z 18010KT 9999 FEW018 SCT023 06/04 Q1004=
200612031220 METAR ESMX 031220Z 18010KT 9999 FEW010 BKN022 07/05 Q1005=
200612031150 METAR ESMX 031150Z AUTO 17008KT 9999NDV FEW012/// BKN024/// 07/05 Q1005=
200612031120 METAR ESMX 031120Z AUTO 18006KT 140V200 9999NDV FEW008/// OVC023/// 07/06 Q1006=
200612031050 METAR ESMX 031050Z AUTO 20007KT 9999NDV FEW007/// OVC024/// 07/06 Q1006=
200612031020 METAR ESMX 031020Z AUTO 19009KT 9999NDV FEW011/// OVC023/// 07/06 Q1006=
200612030950 METAR ESMX 030950Z AUTO 17006KT 9999NDV FEW019/// OVC021/// 06/05 Q1007=
200612030920 METAR ESMX 030920Z AUTO 19006KT 9999NDV OVC017/// 06/05 Q1007=
200612030850 METAR ESMX 030850Z AUTO 19005KT 9999NDV FEW005/// SCT009/// BKN014/// 06/05 Q1007=
200612030820 METAR ESMX 030820Z AUTO 20007KT 9999NDV OVC004/// 06/05 Q1007=
200612030750 METAR ESMX 030750Z AUTO 20007KT 9999NDV OVC004/// 06/05 Q1007=
200612030720 METAR ESMX 030720Z AUTO 20005KT 160V230 9999NDV FEW005/// BKN009/// BKN013/// 05/05 Q1007=
200612030650 METAR ESMX 030650Z AUTO 19006KT 9000NDV FEW004/// SCT006/// 05/04 Q1006=
200612030620 METAR ESMX 030620Z AUTO 23007KT 9999NDV FEW005/// SCT008/// BKN011/// 06/05 Q1007=
200612030550 METAR ESMX 030550Z AUTO 23007KT 9999NDV FEW005/// SCT009/// BKN012/// 06/05 Q1007=
200612030520 METAR ESMX 030520Z AUTO 23005KT 9999NDV FEW006/// BKN009/// BKN013/// 06/06 Q1006=
200612030450 METAR ESMX 030450Z AUTO 23006KT 200V280 9999NDV FEW005/// BKN007/// OVC009/// 07/06 Q1006=
200612030420 METAR ESMX 030420Z AUTO 23007KT 9999NDV FEW006/// BKN009/// 06/06 Q1006=
200612030350 METAR ESMX 030350Z AUTO 22005KT 9999NDV FEW006/// SCT009/// BKN041/// 06/06 Q1006=
200612030320 METAR ESMX 030320Z AUTO 22005KT 9999NDV FEW004/// SCT007/// BKN028/// 06/05 Q1006=
200612030250 METAR ESMX 030250Z AUTO 23005KT 9999NDV FEW004/// SCT006/// BKN007/// 06/06 Q1006=
200612030220 METAR ESMX 030220Z AUTO 22005KT 9999NDV FEW006/// SCT016/// BKN018/// 07/06 Q1006=
200612030150 METAR ESMX 030150Z AUTO 21004KT 9999NDV FEW006/// SCT009/// BKN013/// 07/06 Q1006=
200612030120 METAR ESMX 030120Z AUTO 26005KT 9999NDV BR FEW003/// SCT005/// BKN006/// 07/06 Q1006 RERA REDZ=
200612030050 METAR ESMX 030050Z AUTO 22007KT 3500NDV BR OVC003/// 07/07 Q1005=
200612030020 METAR ESMX 030020Z AUTO 21007KT 3000NDV BR OVC003/// 07/06 Q1005 REDZ=
200612022350 METAR ESMX 022350Z AUTO 20009KT 170V240 3300NDV -DZ OVC003/// 07/06 Q1005=
200612022320 METAR ESMX 022320Z AUTO 21009KT 3600NDV DZ BKN002/// OVC005/// 07/06 Q1005=
200612022250 METAR ESMX 022250Z AUTO 20009KT 4000NDV DZ OVC003/// 07/06 Q1005=
200612022220 METAR ESMX 022220Z AUTO 21007KT 170V240 5000NDV DZ OVC004/// 07/06 Q1005 RERA=
200612022150 METAR ESMX 022150Z AUTO 20009KT 6000NDV BR OVC004/// 07/06 Q1006=
200612022120 METAR ESMX 022120Z AUTO 20009KT 6000NDV -DZ FEW004/// BKN005/// OVC009/// 07/06 Q1006=
200612022050 METAR ESMX 022050Z AUTO 21009KT 3300NDV DZ OVC004/// 07/06 Q1006=
200612022020 METAR ESMX 022020Z AUTO 19009KT 4200NDV DZ FEW004/// OVC005/// 06/06 Q1006 RERA=
200612021950 METAR ESMX 021950Z AUTO 19009KT 7000NDV -RA FEW003/// BKN005/// OVC007/// 06/06 Q1006=
200612021920 METAR ESMX 021920Z AUTO 19010KT 4200NDV RA BKN003/// OVC006/// 06/06 Q1007 REDZ=
200612021850 METAR ESMX 021850Z AUTO 19009KT 5000NDV DZ OVC003/// 07/06 Q1007=
200612021820 METAR ESMX 021820Z AUTO 21010KT 4300NDV DZ BKN003/// OVC005/// 07/06 Q1007=
200612021750 METAR ESMX 021750Z AUTO 19010KT 3700NDV DZ OVC003/// 07/06 Q1007 RERA=
200612021720 METAR ESMX 021720Z AUTO 19010KT 4900NDV -RA FEW003/// OVC004/// 07/06 Q1007=
200612021650 METAR ESMX 021650Z AUTO 19010KT 4500NDV -RA FEW003/// OVC004/// 07/06 Q1007=
200612021620 METAR ESMX 021620Z AUTO 19009KT 3700NDV DZ BKN003/// OVC005/// 07/06 Q1008=
200612021550 METAR ESMX 021550Z AUTO 19008KT 3200NDV DZ OVC003/// 07/06 Q1008=
200612021520 METAR ESMX 021520Z AUTO 19009KT 3000NDV -DZ BKN002/// OVC005/// 07/06 Q1008 RERA=
200612021450 METAR ESMX 021450Z AUTO 19009KT 3100NDV BR OVC002/// 07/06 Q1008 REDZ=
200612021420 METAR ESMX 021420Z AUTO 20010KT 3300NDV -DZ OVC003/// 07/06 Q1008 RERA=
200612021350 METAR ESMX 021350Z AUTO 20007KT 3500NDV BR OVC003/// 07/06 Q1008 REDZ=
200612021320 METAR ESMX 021320Z AUTO 19009KT 3300NDV -DZ OVC002/// 06/06 Q1009 RERA=
200612021250 METAR ESMX 021250Z AUTO 19010KT 2400NDV BR OVC002/// 06/06 Q1009=
200612021220 METAR ESMX 021220Z AUTO 19011KT 3300NDV BR OVC003/// 06/06 Q1009 REDZ=
200612021150 METAR ESMX 021150Z AUTO 19010KT 2700NDV DZ FEW002/// OVC004/// 06/06 Q1010=
200612021120 METAR ESMX 021120Z AUTO 19011KT 1700NDV BR OVC003/// 06/06 Q1010=
200612021050 METAR ESMX 021050Z AUTO 19012KT 1800NDV BR FEW004/// BKN005/// OVC007/// 06/06 Q1010 RERA REDZ=
200612021020 METAR ESMX 021020Z AUTO 18009KT 2500NDV -RA FEW006/// BKN007/// OVC012/// 06/06 Q1011 REDZ=
200612020950 METAR ESMX 020950Z AUTO 18010KT 3200NDV DZ FEW007/// SCT009/// BKN010/// 07/06 Q1011 RERA=
200612020920 METAR ESMX 020920Z AUTO 17009KT 3400NDV BR FEW006/// SCT018/// BKN086/// 07/06 Q1011=
200612020850 METAR ESMX 020850Z AUTO 17008KT 3100NDV BR FEW005/// SCT007/// BKN010/// 07/06 Q1011=
200612020820 METAR ESMX 020820Z AUTO 17008KT 2800NDV BR FEW005/// BKN006/// BKN008/// 07/06 Q1012=
200612020750 METAR ESMX 020750Z AUTO 18007KT 2400NDV BR OVC005/// 06/06 Q1012=
200612020720 METAR ESMX 020720Z AUTO 17009KT 2300NDV BR FEW005/// OVC006/// 06/06 Q1012=
200612020650 METAR ESMX 020650Z AUTO 18009KT 2300NDV -DZ SCT005/// BKN007/// 06/06 Q1013 RERA=
200612020620 METAR ESMX 020620Z AUTO 18008KT 2100NDV FEW003/// OVC004/// 06/06 Q1013=
200612020550 METAR ESMX 020550Z AUTO 18006KT 1300NDV R01/P2000N R19/P2000N OVC001/// 06/06 Q1013=
200612020520 METAR ESMX 020520Z AUTO 18007KT 0800NDV R01/1900N R19/2000N FG OVC001/// 06/06 Q1013=
200612020450 METAR ESMX 020450Z AUTO 17006KT 120V200 1000NDV R01/P2000N R19/P2000N OVC001/// 06/06 Q1014=
200612020420 METAR ESMX 020420Z AUTO 16005KT 120V190 0800NDV R01/1900N R19/P2000N FG VV002 06/06 Q1014=
200612020350 METAR ESMX 020350Z AUTO 16005KT 130V200 0750NDV R01/1800N R19/1900N FG VV002 06/06 Q1015=
200612020320 METAR ESMX 020320Z AUTO 17005KT 130V200 0700NDV R01/1700N R19/1900N FG VV001 06/06 Q1015=
200612020250 METAR ESMX 020250Z AUTO 17006KT 0600NDV R01/1500N R19/1500U FG VV001 06/06 Q1015=
200612020220 METAR ESMX 020220Z AUTO 20006KT 160V230 0450NDV R01/1300N R19/1200N FG VV001 06/06 Q1016=
200612020150 METAR ESMX 020150Z AUTO 18007KT 0300NDV R01/0900N R19/0900N FG VV001 06/06 Q1016=
200612020120 METAR ESMX 020120Z AUTO 20007KT 0400NDV R01/1100N R19/1400D FG VV001 06/06 Q1016=
200612020050 METAR ESMX 020050Z AUTO 21006KT 0550NDV R01/1500N R19/1600N FG VV002 06/06 Q1016=
200612020020 METAR ESMX 020020Z AUTO 21007KT 0700NDV R01/1800N R19/1900N FG VV002 06/06 Q1017=
200612012350 METAR ESMX 012350Z AUTO 20009KT 0800NDV R01/1900N R19/P2000N FG OVC001/// 06/06 Q1017=
200612012320 METAR ESMX 012320Z AUTO 22008KT 1000NDV R01/P2000N R19/P2000N FG OVC001/// 06/06 Q1017=
200612012250 METAR ESMX 012250Z AUTO 19008KT 1000NDV R01/P2000N R19/P2000N BR OVC001/// 06/06 Q1017=
200612012220 METAR ESMX 012220Z AUTO 19007KT 1400NDV R01/P2000N R19/P2000N BR OVC002/// 06/06 Q1016=
200612012150 METAR ESMX 012150Z AUTO 20007KT 2700NDV BR OVC003/// 06/06 Q1017=
200612012120 METAR ESMX 012120Z AUTO 19009KT 2300NDV BR OVC003/// 06/06 Q1017=
200612012050 METAR ESMX 012050Z AUTO 20008KT 1900NDV BR OVC003/// 06/06 Q1017=
200612012020 METAR ESMX 012020Z AUTO 21009KT 1600NDV BR OVC004/// 06/05 Q1017=
200612011950 METAR ESMX 011950Z AUTO 20008KT 2800NDV BR OVC005/// 06/05 Q1017=
200612011920 METAR ESMX 011920Z AUTO 20009KT 3900NDV BR OVC006/// 06/05 Q1017=
200612011850 METAR ESMX 011850Z AUTO 22009KT 170V250 5000NDV BR OVC007/// 06/05 Q1017=
200612011820 METAR ESMX 011820Z 20008KT 6000 BR OVC009 06/05 Q1017=
200612011750 METAR ESMX 011750Z 22008KT 7000 BR OVC010 06/05 Q1017=
200612011720 METAR ESMX 011720Z 21009KT 8000 BR OVC010 06/05 Q1017=
200612011650 METAR ESMX 011650Z 22008KT 8000 BR OVC010 06/05 Q1017=
200612011620 METAR ESMX 011620Z 20007KT 8000 BR OVC009 06/05 Q1017=
200612011550 METAR ESMX 011550Z 21008KT 180V240 8000 BR OVC009 06/05 Q1017=
200612011520 METAR ESMX 011520Z 21010KT 7000 BR OVC008 06/05 Q1017=
200612011450 METAR ESMX 011450Z 20011KT 6000 BR OVC008 06/05 Q1017=
200612011420 METAR ESMX 011420Z 19010KT 6000 BR OVC008 06/05 Q1018=
200612011350 METAR ESMX 011350Z 19009KT 160V230 6000 BR OVC007 06/05 Q1018=
200612011320 METAR ESMX 011320Z 21011KT 7000 BR OVC008 06/05 Q1019=
200612011250 METAR ESMX 011250Z 20011KT 8000 BR SCT007 OVC010 06/05 Q1019=
200612011220 METAR ESMX 011220Z 19014KT 8000 BR SCT008 OVC010 07/05 Q1019=
