##########################################################
# Query made at 04/19/2024 20:49:24 UTC
# Time interval: from 02/01/2006 12:00  to 02/28/2006 12:59  UTC
##########################################################

##########################################################
# ESMX, Vaxjo (Sweden)
# WMO index: 02641. WIGOS ID: 0-20000-0-02648
# Latitude 56-51N. Longitude 014-50E. Altitude 199 m.
##########################################################

200602281250 METAR ESMX 281250Z 16011G21KT 130V200 9999 FEW030 BKN080 M01/M08 Q0998=
200602281220 METAR ESMX 281220Z 14011KT 110V170 9999 FEW020 BKN080 M01/M08 Q0999=
200602281150 METAR ESMX 281150Z 16012KT 9999 FEW0020 BKN080 M01/M08 Q0999=
200602281120 METAR ESMX 281120Z 16013KT 120V190 9999 FEW036 BKN150 M01/M09 Q0999=
200602281050 METAR ESMX 281050Z 16013KT 110V190 9999 FEW026 BKN100 M01/M08 Q0999=
200602281020 METAR ESMX 281020Z 16011KT 100V200 9999 FEW023 BKN100 M01/M06 Q1000=
200602280950 METAR ESMX 280950Z 16011KT 9999 FEW020 BKN080 M02/M06 Q1000=
200602280920 METAR ESMX 280920Z 15011KT 110V190 CAVOK M02/M06 Q1000=
200602280850 METAR ESMX 280850Z 15009KT 100V200 CAVOK M03/M06 Q1000=
200602280820 METAR ESMX 280820Z 15008KT 120V200 CAVOK M04/M07 Q1001=
200602280750 METAR ESMX 280750Z 14007KT 110V170 CAVOK M05/M07 Q1001=
200602280720 METAR ESMX 280720Z 14007KT 100V160 CAVOK M06/M08 Q1001=
200602280650 METAR ESMX 280650Z 14006KT 100V170 CAVOK M07/M08 Q1001=
200602280620 METAR ESMX 280620Z 14007KT 090V160 CAVOK M07/M08 Q1001=
200602280550 METAR ESMX 280550Z 14007KT CAVOK M07/M08 Q1002=
200602280520 METAR ESMX 280520Z 14008KT CAVOK M08/M08 Q1002=
200602280450 METAR ESMX 280450Z 14008KT CAVOK M08/M09 Q1002=
200602280420 METAR ESMX 280420Z AUTO 15006KT 9999 OVC069 M08/M09 Q1002=
200602280350 METAR ESMX 280350Z AUTO 15007KT 9999 FEW061 OVC072 M08/M09 Q1003=
200602280320 METAR ESMX 280320Z AUTO 16006KT 9999 BKN058 M08/M09 Q1003=
200602280250 METAR ESMX 280250Z AUTO 16006KT 9999 OVC054 M08/M10 Q1003=
200602280220 METAR ESMX 280220Z AUTO 15005KT 9999 BKN048 M08/M11 Q1003=
200602280150 METAR ESMX 280150Z AUTO 15005KT 9999 BKN049 BKN079 M09/M11 Q1004=
200602280120 METAR ESMX 280120Z 16006KT CAVOK M09/M11 Q1004=
200602280020 METAR ESMX 280020Z 16005KT CAVOK M09/M12 Q1005=
200602272350 METAR ESMX 272350Z 16005KT CAVOK M10/M13 Q1005=
200602272320 METAR ESMX 272320Z 19005KT CAVOK M08/M12 Q1005=
200602272250 METAR ESMX 272250Z 18005KT CAVOK M07/M11 Q1006=
200602272220 METAR ESMX 272220Z 19006KT CAVOK M07/M11 Q1006=
200602272150 METAR ESMX 272150Z 19006KT CAVOK M07/M11 Q1006=
200602272120 METAR ESMX 272120Z 19005KT CAVOK M08/M11 Q1006=
200602272050 METAR ESMX 272050Z 17004KT CAVOK M07/M12 Q1007=
200602272020 METAR ESMX 272020Z 21005KT CAVOK M08/M12 Q1007=
200602271950 METAR ESMX 271950Z 19005KT CAVOK M07/M12 Q1007=
200602271920 METAR ESMX 271920Z 21004KT CAVOK M08/M12 Q1007=
200602271850 METAR ESMX 271850Z 19004KT CAVOK M08/M13 Q1007=
200602271820 METAR ESMX 271820Z 18005KT CAVOK M07/M12 Q1007=
200602271750 METAR ESMX 271750Z 19004KT CAVOK M07/M12 Q1008=
200602271720 METAR ESMX 271720Z VRB03KT CAVOK M07/M12 Q1008=
200602271650 METAR ESMX 271650Z VRB02KT CAVOK M05/M11 Q1008=
200602271620 METAR ESMX 271620Z VRB03KT CAVOK M04/M13 Q1008=
200602271550 METAR ESMX 271550Z 25004KT CAVOK M03/M13 Q1008=
200602271520 METAR ESMX 271520Z 25005KT 220V290 CAVOK M03/M13 Q1008=
200602271450 METAR ESMX 271450Z 29006KT CAVOK M02/M14 Q1008=
200602271420 METAR ESMX 271420Z 26007KT 210V280 CAVOK M03/M14 Q1008=
200602271350 METAR ESMX 271350Z 29006KT 250V320 CAVOK M02/M13 Q1008=
200602271320 METAR ESMX 271320Z 25006G21KT 230V300 CAVOK M02/M11 Q1009=
200602271250 METAR ESMX 271250Z VRB02KT 9999 FEW028 M02/M12 Q1009=
200602271220 METAR ESMX 271220Z 32005KT 9999 FEW028 M02/M11 Q1009=
200602271150 METAR ESMX 271150Z 26005KT 9999 FEW027 M02/M10 Q1009=
200602271120 METAR ESMX 271120Z 30004KT 9999 FEW024 M04/M10 Q1010=
200602271050 METAR ESMX 271050Z 32005KT 9999 FEW020 M02/M08 Q1010=
200602271020 METAR ESMX 271020Z VRB02KT 9999 FEW021 M03/M08 Q1010=
200602270950 METAR ESMX 270950Z VRB02KT 9999 FEW020 M04/M08 Q1010=
200602270920 METAR ESMX 270920Z VRB03KT 9999 FEW018 M05/M08 Q1010=
200602270850 METAR ESMX 270850Z 36004KT 310V020 9999 FEW020 M06/M08 Q1010=
200602270820 METAR ESMX 270820Z 01004KT CAVOK M07/M08 Q1010=
200602270750 METAR ESMX 270750Z VRB03KT 9999 FEW015 M08/M09 Q1010=
200602270720 METAR ESMX 270720Z VRB03KT 9999 SCT016 M09/M10 Q1011=
200602270650 METAR ESMX 270650Z VRB02KT 9999 FEW016 SCT018 M10/M11 Q1011=
200602270620 METAR ESMX 270620Z VRB03KT 9999 FEW010 M10/M11 Q1011=
200602270550 METAR ESMX 270550Z 33004KT 300V010 9999 SCT011 M11/M12 Q1011=
200602270520 METAR ESMX 270520Z 30004KT 9999 SCT031 M11/M12 Q1011=
200602270450 METAR ESMX 270450Z 32005KT 290V350 9999 FEW014 BKN030 M11/M12 Q1011=
200602270420 METAR ESMX 270420Z AUTO 32005KT 9999 SCT013 M10/M11 Q1011=
200602270350 METAR ESMX 270350Z AUTO 29005KT 9999 BKN014 M09/M10 Q1011=
200602270320 METAR ESMX 270320Z AUTO 32006KT 9999 NSC M10/M10 Q1011=
200602270250 METAR ESMX 270250Z AUTO VRB03KT 9999 NSC M09/M09 Q1011=
200602270220 METAR ESMX 270220Z AUTO VRB03KT 9999 NSC M10/M10 Q1011=
200602270150 METAR ESMX 270150Z 32005KT CAVOK M10/M11 Q1011=
200602270120 METAR ESMX 270120Z 32004KT CAVOK M09/M09 Q1011=
200602270050 METAR ESMX 270050Z 32004KT CAVOK M08/M09 Q1011=
200602270020 METAR ESMX 270020Z 32005KT CAVOK M08/M10 Q1012=
200602262350 METAR ESMX 262350Z 32006KT CAVOK M07/M08 Q1012=
200602262320 METAR ESMX 262320Z 33006KT CAVOK M06/M08 Q1012=
200602262250 METAR ESMX 262250Z 30006KT CAVOK M06/M08 Q1012=
200602262220 METAR ESMX 262220Z 31004KT CAVOK M06/M07 Q1012=
200602262150 METAR ESMX 262150Z 31005KT CAVOK M05/M07 Q1012=
200602262120 METAR ESMX 262120Z 31005KT 270V340 CAVOK M05/M06 Q1012=
200602262020 METAR ESMX 262020Z VRB03KT CAVOK M04/M05 Q1012=
200602261950 METAR ESMX 261950Z 30004KT 9999 FEW047 M04/M05 Q1012 RESN=
200602261920 METAR ESMX 261920Z 30004KT 9999 FEW005 M04/M06 Q1012 RESN=
200602261850 METAR ESMX 261850Z 29007KT 250V320 2800 -SN FEW005 SCT020 M03/M05 Q1012=
200602261820 METAR ESMX 261820Z 30009KT 260V330 9999 -SN FEW009 SCT023 BKN029 M02/M07 Q1013=
200602261750 METAR ESMX 261750Z 27007KT 230V310 9999 -SN SCT017 BKN033 M02/M08 Q1013=
200602261720 METAR ESMX 261720Z 26004KT 210V300 9999 -SN FEW020 M02/M09 Q1013=
200602261650 METAR ESMX 261650Z 26005KT CAVOK M02/M11 Q1013=
200602261620 METAR ESMX 261620Z 27007KT 240V300 CAVOK M01/M12 Q1013=
200602261550 METAR ESMX 261550Z 28007KT CAVOK M01/M13 Q1013=
200602261520 METAR ESMX 261520Z 25005KT 220V280 CAVOK M01/M13 Q1013=
200602261450 METAR ESMX 261450Z 29007KT 250V320 CAVOK M00/M13 Q1014=
200602261420 METAR ESMX 261420Z 27008KT CAVOK M00/M13 Q1014=
200602261350 METAR ESMX 261350Z 30007KT 250V320 CAVOK M00/M12 Q1014=
200602261320 METAR ESMX 261320Z AUTO 29008KT 250V320 9999 NSC M01/M12 Q1015=
200602261250 METAR ESMX 261250Z AUTO 29009KT 260V340 9999 NSC M01/M13 Q1015=
200602261220 METAR ESMX 261220Z AUTO 28006KT 230V330 9999 NSC M01/M13 Q1016=
200602261150 METAR ESMX 261150Z 30007KT 280V350 CAVOK M02/M14 Q1016=
200602261120 METAR ESMX 261120Z 27007KT 230V290 CAVOK M02/M13 Q1017=
200602261050 METAR ESMX 261050Z 28007KT CAVOK M02/M12 Q1017=
200602261020 METAR ESMX 261020Z 28005KT 250V320 CAVOK M03/M12 Q1018=
200602260950 METAR ESMX 260950Z AUTO 28005KT 9999 NSC M04/M11 Q1018=
200602260920 METAR ESMX 260920Z AUTO 28004KT 260V330 9999 NSC M05/M11 Q1018=
200602260850 METAR ESMX 260850Z AUTO VRB03KT 9999 NSC M05/M10 Q1019=
200602260820 METAR ESMX 260820Z AUTO VRB01KT 9999 NSC M04/M09 Q1019=
200602260750 METAR ESMX 260750Z AUTO 00000KT 9999 NSC M07/M10 Q1019=
200602260720 METAR ESMX 260720Z AUTO VRB02KT 9999 NSC M11/M12 Q1019=
200602260650 METAR ESMX 260650Z AUTO VRB02KT 9999 NSC M14/M15 Q1019=
200602260620 METAR ESMX 260620Z AUTO VRB02KT 9999 NSC M14/M15 Q1019=
200602260550 METAR ESMX 260550Z AUTO VRB03KT 9999 NSC M14/M15 Q1019=
200602260520 METAR ESMX 260520Z AUTO VRB01KT 9999 NSC M13/M14 Q1020=
200602260450 METAR ESMX 260450Z AUTO VRB02KT 9999 NSC M12/M13 Q1020=
200602260420 METAR ESMX 260420Z AUTO VRB02KT 9999 NSC M13/M14 Q1020=
200602260350 METAR ESMX 260350Z AUTO 33004KT 9999 NSC M11/M13 Q1020=
200602260320 METAR ESMX 260320Z AUTO 34004KT 9999 NSC M09/M11 Q1020=
200602260250 METAR ESMX 260250Z AUTO 34004KT 9999 NSC M09/M11 Q1021=
200602260220 METAR ESMX 260220Z AUTO 34006KT 9999 NSC M09/M10 Q1021=
200602260150 METAR ESMX 260150Z AUTO 34007KT 9999 NSC M08/M10 Q1021=
200602260120 METAR ESMX 260120Z AUTO VRB03KT 9999 NSC M08/M10 Q1021=
200602260050 METAR ESMX 260050Z AUTO 35004KT 9999 NSC M07/M09 Q1021=
200602260020 METAR ESMX 260020Z AUTO 35005KT 9999 NSC M07/M09 Q1021=
200602252350 METAR ESMX 252350Z AUTO 01008KT 9999 NSC M05/M08 Q1021=
200602252320 METAR ESMX 252320Z AUTO 36008KT 9999 NSC M06/M08 Q1021=
200602252250 METAR ESMX 252250Z AUTO 01006KT 9999 NSC M06/M08 Q1022=
200602252220 METAR ESMX 252220Z AUTO 34004KT 9999 NSC M06/M07 Q1022=
200602252150 METAR ESMX 252150Z AUTO 35005KT 9999 NSC M05/M06 Q1022=
200602252120 METAR ESMX 252120Z AUTO 33004KT 9999 FEW045 M05/M06 Q1022=
200602252050 METAR ESMX 252050Z AUTO VRB03KT 9999 NSC M04/M05 Q1022=
200602252020 METAR ESMX 252020Z AUTO VRB03KT 9999 NSC M04/M06 Q1022=
200602251950 METAR ESMX 251950Z AUTO 01005KT 9999 NSC M03/M05 Q1022=
200602251920 METAR ESMX 251920Z AUTO 01006KT 9999 FEW029 M02/M05 Q1022=
200602251850 METAR ESMX 251850Z AUTO 01007KT 9999 FEW035 M02/M05 Q1022=
200602251820 METAR ESMX 251820Z AUTO 02010KT 9999 NSC M00/M04 Q1022=
200602251750 METAR ESMX 251750Z AUTO 02010KT 9999 FEW050 BKN093 00/M04 Q1021=
200602251720 METAR ESMX 251720Z AUTO 02012KT 9999 OVC091 01=
200602251650 METAR ESMX 251650Z AUTO 01009KT 9999 OVC086 01/M03 Q1021=
200602251620 METAR ESMX 251620Z AUTO 01009KT 9999 BKN084 01/M03 Q1021=
200602251550 METAR ESMX 251550Z AUTO 01007KT 9999 FEW100 02/M03 Q1021=
200602251520 METAR ESMX 251520Z AUTO 02006KT 340V050 9999 FEW032 SCT100 03/M03 Q1021=
200602251450 METAR ESMX 251450Z AUTO 02008KT 9999 FEW033 BKN100 03/M04 Q1021=
200602251420 METAR ESMX 251420Z AUTO 35004KT 9999 FEW025 02/M02 Q1021=
200602251350 METAR ESMX 251350Z AUTO 35004KT 9999 FEW023 SCT031 02/M02 Q1022=
200602251320 METAR ESMX 251320Z AUTO 35006KT 9999 FEW015 01/M02 Q1022=
200602251250 METAR ESMX 251250Z AUTO 02008KT 350V060 9999 FEW006 BKN007 BKN011 00/M01 Q1022=
200602251220 METAR ESMX 251220Z AUTO 01006KT 9999 OVC005 M00/M02 Q1022=
200602251150 METAR ESMX 251150Z AUTO 01006KT 9999 OVC004 M01/M02 Q1023=
200602251120 METAR ESMX 251120Z AUTO 01006KT 9999 OVC004 M02/M03 Q1023=
200602251050 METAR ESMX 251050Z 01005KT 9999 BKN004 M02/M03 Q1023=
200602251020 METAR ESMX 251020Z VRB03KT 9999 BKN005 M03/M04 Q1023=
200602250950 METAR ESMX 250950Z VRB03KT 9999 SCT006 BKN030 M04/M04 Q1023=
200602250920 METAR ESMX 250920Z 00000KT 6000 -SHSN FEW012 SCT026 BKN032 M04/M05 Q1023=
200602250850 METAR ESMX 250850Z VRB01KT 3000 SHSN VV008 M06/M06 Q1023=
200602250820 METAR ESMX 250820Z AUTO 00000KT 4700 -SHSN BKN005 BKN007 M06/M07 Q1023=
200602250750 METAR ESMX 250750Z AUTO VRB01KT 1900 -SN FEW008 SCT012 BKN015 M07/M07 Q1023=
200602250720 METAR ESMX 250720Z AUTO 00000KT 6000 BR OVC006 M08/M09 Q1024=
200602250650 METAR ESMX 250650Z AUTO VRB01KT 9999 FEW005 OVC007 M09/M10 Q1024=
200602250620 METAR ESMX 250620Z AUTO VRB01KT 9999 SCT005 BKN007 OVC013 M11/M12 Q1024=
200602250550 METAR ESMX 250550Z AUTO VRB03KT 9999 BKN013 M13/M14 Q1024=
200602250520 METAR ESMX 250520Z AUTO VRB02KT 9999 NSC M14/M15 Q1024=
200602250450 METAR ESMX 250450Z AUTO VRB02KT 9999 NSC M14/M15 Q1024=
200602250420 METAR ESMX 250420Z AUTO 00000KT 9999 NSC M14/M15 Q1025=
200602250350 METAR ESMX 250350Z AUTO 00000KT 9999 NSC M14/M15 Q1025=
200602250320 METAR ESMX 250320Z AUTO 00000KT 9999 NSC M13/M14 Q1025=
200602250250 METAR ESMX 250250Z AUTO 00000KT 9999 NSC M13/M14 Q1026=
200602250220 METAR ESMX 250220Z AUTO 00000KT 9999 NSC M13/M14 Q1026=
200602250150 METAR ESMX 250150Z AUTO VRB01KT 9999 NSC M12/M13 Q1027=
200602250120 METAR ESMX 250120Z AUTO VRB02KT 9999 NSC M12/M13 Q1027=
200602250050 METAR ESMX 250050Z AUTO VRB02KT 9999 NSC M12/M12 Q1027=
200602250020 METAR ESMX 250020Z AUTO VRB01KT 9999 NSC M11/M12 Q1028=
200602242350 METAR ESMX 242350Z AUTO 00000KT 9999 NSC M11/M12 Q1028=
200602242320 METAR ESMX 242320Z AUTO 00000KT 8000 BR NSC M11/M12 Q1028=
200602242250 METAR ESMX 242250Z AUTO VRB02KT 9000 BR NSC M10/M11 Q1028=
200602242220 METAR ESMX 242220Z AUTO 00000KT 9999 NSC M10/M11 Q1029=
200602242150 METAR ESMX 242150Z AUTO VRB02KT 9999 NSC M09/M10 Q1029=
200602242120 METAR ESMX 242120Z AUTO VRB02KT 9000 NSC M09/M09 Q1029=
200602242050 METAR ESMX 242050Z AUTO VRB03KT 9000 NSC M08/M09 Q1029=
200602242020 METAR ESMX 242020Z AUTO VRB02KT 9999 NSC M08/M09 Q1030=
200602241950 METAR ESMX 241950Z AUTO VRB03KT 9999 NSC M07/M08 Q1030=
200602241920 METAR ESMX 241920Z AUTO VRB02KT 9999 NSC M07/M07 Q1030=
200602241850 METAR ESMX 241850Z AUTO VRB01KT 9999 NSC M06/M07 Q1030=
200602241820 METAR ESMX 241820Z VRB01KT CAVOK M05/M06 Q1030=
200602241750 METAR ESMX 241750Z VRB02KT CAVOK M04/M05 Q1030=
200602241720 METAR ESMX 241720Z 00000KT CAVOK M05/M06 Q1031=
200602241650 METAR ESMX 241650Z 00000KT CAVOK M03/M05 Q1031=
200602241620 METAR ESMX 241620Z VRB01KT CAVOK M01/M05 Q1031=
200602241550 METAR ESMX 241550Z VRB03KT CAVOK M00/M04 Q1031=
200602241520 METAR ESMX 241520Z VRB01KT 9999 FEW018 01/M04 Q1032=
200602241450 METAR ESMX 241450Z 31004KT 9999 SCT017 00/M04 Q1032=
200602241420 METAR ESMX 241420Z 30004KT 260V010 9999 BKN017 M01/M04 Q1033=
200602241350 METAR ESMX 241350Z VRB03KT 9999 BKN016 M01/M04 Q1033=
200602241320 METAR ESMX 241320Z VRB03KT 9999 BKN016 M00/M04 Q1033=
200602241250 METAR ESMX 241250Z VRB02KT 9999 OVC015 01/M04 Q1034=
200602241220 METAR ESMX 241220Z VRB01KT 9999 OVC015 01/M04 Q1034=
200602241150 METAR ESMX 241150Z VRB02KT 9999 BKN014 M01/M05 Q1034=
200602241120 METAR ESMX 241120Z VRB03KT 9999 BKN014 M01/M04 Q1035=
200602241050 METAR ESMX 241050Z VRB03KT 9999 BKN013 M01/M04 Q1035=
200602240950 METAR ESMX 240950Z VRB03KT 9999 OVC013 M01/M04 Q1035=
200602240920 METAR ESMX 240920Z VRB03KT 9999 OVC013 M01/M04 Q1035=
200602240850 METAR ESMX 240850Z VRB02KT 9999 OVC013 M01/M04 Q1035=
200602240820 METAR ESMX 240820Z 04004KT 020V100 9999 OVC013 M01/M04 Q1035=
200602240750 METAR ESMX 240750Z VRB03KT 9999 OVC013 M01/M04 Q1035=
200602240720 METAR ESMX 240720Z VRB03KT 9999 OVC013 M01/M04 Q1034=
200602240650 METAR ESMX 240650Z 06004KT 020V080 9999 OVC013 M01/M04 Q1034=
200602240620 METAR ESMX 240620Z VRB03KT 9999 OVC015 M01/M04 Q1034=
200602240550 METAR ESMX 240550Z VRB03KT 9999 OVC015 M01/M03 Q1034=
200602240520 METAR ESMX 240520Z 04004KT 020V080 9999 OVC016 M01/M03 Q1034=
200602240450 METAR ESMX 240450Z VRB03KT 9999 OVC016 M01/M03 Q1034=
200602240420 METAR ESMX 240420Z AUTO 05004KT 020V090 9999 OVC017 M01/M03 Q1033=
200602240350 METAR ESMX 240350Z AUTO VRB03KT 9999 OVC018 M01/M03 Q1033=
200602240320 METAR ESMX 240320Z AUTO 05004KT 020V080 9999 OVC018 M01/M03 Q1033=
200602240250 METAR ESMX 240250Z AUTO 04005KT 010V070 9999 OVC018 M01/M03 Q1033=
200602240220 METAR ESMX 240220Z AUTO 03005KT 9999 OVC017 M01/M03 Q1033=
200602240150 METAR ESMX 240150Z AUTO 03004KT 9999 OVC016 M01/M03 Q1033=
200602240120 METAR ESMX 240120Z AUTO 03004KT 9999 FEW014 OVC016 M01/M03 Q1032=
200602240050 METAR ESMX 240050Z VRB03KT 9999 OVC016 M01/M03 Q1032=
200602240020 METAR ESMX 240020Z 04005KT 9999 FEW013 OVC017 M01/M03 Q1032=
200602232350 METAR ESMX 232350Z VRB03KT 9999 OVC020 M01/M03 Q1032=
200602232320 METAR ESMX 232320Z 06005KT 030V100 9999 BKN020 M01/M03 Q1032=
200602232250 METAR ESMX 232250Z 06005KT 020V100 9999 FEW010 OVC020 M01/M03 Q1031=
200602232220 METAR ESMX 232220Z 04005KT 350V080 9999 BKN010 OVC013 M01/M03 Q1031=
200602232150 METAR ESMX 232150Z 05007KT 020V080 9999 OVC010 M01/M03 Q1031=
200602232120 METAR ESMX 232120Z 06006KT 020V100 9999 OVC011 M01/M03 Q1030=
200602232050 METAR ESMX 232050Z 08004KT 020V130 9999 OVC012 M01/M04 Q1030=
200602232020 METAR ESMX 232020Z 06005KT 010V120 9999 OVC013 M01/M04 Q1029=
200602231950 METAR ESMX 231950Z 05006KT 020V080 9999 BKN014 OVC035 M02/M04 Q1029=
200602231920 METAR ESMX 231920Z 05007KT 020V080 9999 OVC015 M02/M04 Q1028=
200602231850 METAR ESMX 231850Z 04008KT 010V080 9999 SCT015 OVC034 M02/M05 Q1028=
200602231820 METAR ESMX 231820Z 06007KT 010V100 9999 FEW017 OVC032 M02/M05 Q1027=
200602231750 METAR ESMX 231750Z 05008KT 020V090 9999 FEW019 BKN033 M01/M05 Q1027=
200602231720 METAR ESMX 231720Z 05010KT 020V090 9999 SCT020 OVC035 M01/M05 Q1027=
200602231650 METAR ESMX 231650Z 09009KT 050V120 9999 SCT020 BKN027 M01/M06 Q1026=
200602231620 METAR ESMX 231620Z 05008KT 010V080 9999 BKN028 M01/M06 Q1026=
200602231550 METAR ESMX 231550Z 05008KT 010V080 9999 FEW030 M01/M07 Q1025=
200602231520 METAR ESMX 231520Z 05010KT 020V110 9999 FEW028 00/M06 Q1025=
200602231450 METAR ESMX 231450Z 04009KT 020V080 9999 FEW030 01/M06 Q1024=
200602231420 METAR ESMX 231420Z 05009KT 010V090 9999 FEW027 01/M05 Q1024=
200602231350 METAR ESMX 231350Z 04010KT 010V070 9999 FEW030 02/M05 Q1024=
200602231320 METAR ESMX 231320Z 05009KT 020V090 9999 SCT025 02/M05 Q1024=
200602231250 METAR ESMX 231250Z 03009KT 010V080 9999 FEW017 SCT027 02/M04 Q1023=
200602231220 METAR ESMX 231220Z 04007KT 010V080 9999 FEW012 BKN017 03/M01 Q1023=
200602231150 METAR ESMX 231150Z 05008KT 020V100 9999 -SHSN SCT010 BKN013 02/M01 Q1023=
200602231120 METAR ESMX 231120Z 02009KT 9999 -SHSN SCT012 BKN025 02/M00 Q1022=
200602231050 METAR ESMX 231050Z 02008KT 9999 SCT015 BKN025 02/M00 Q1022=
200602231020 METAR ESMX 231020Z 04007KT 9999 FEW010 BKN013 02/00 Q1022=
200602230950 METAR ESMX 230950Z 04007KT 9999 FEW005 BKN007 01/00 Q1022=
200602230920 METAR ESMX 230920Z 03007KT 4700 -SN BKN005 01/00 Q1022=
200602230850 METAR ESMX 230850Z 02006KT 9999 BKN004 01/00 Q1022=
200602230820 METAR ESMX 230820Z 02007KT 9999 BKN005 00/M00 Q1022=
200602230750 METAR ESMX 230750Z 02006KT 9999 BKN005 00/M00 Q1022=
200602230720 METAR ESMX 230720Z 02005KT 9999 BKN006 M00/M01 Q1021=
200602230650 METAR ESMX 230650Z 01006KT 9999 BKN006 M00/M01 Q1021=
200602230620 METAR ESMX 230620Z 02006KT 9999 BKN005 M00/M01 Q1021=
200602230550 METAR ESMX 230550Z 34005KT 9999 OVC005 M01/M01 Q1021=
200602230520 METAR ESMX 230520Z 01005KT 9999 OVC005 M01/M01 Q1021=
200602230450 METAR ESMX 230450Z 35006KT 9999 OVC005 M01/M01 Q1021=
200602230420 METAR ESMX 230420Z AUTO 35005KT 9999 OVC006 M01/M02 Q1021=
200602230350 METAR ESMX 230350Z AUTO 34004KT 9999 OVC007 M01/M02 Q1021 RESN=
200602230320 METAR ESMX 230320Z AUTO 32005KT 9999 -SHSN BKN007 OVC010 M01/M02 Q1021=
200602230250 METAR ESMX 230250Z AUTO 31004KT 9999 -SN FEW006 SCT008 OVC009 M01/M02 Q1021=
200602230220 METAR ESMX 230220Z AUTO 32004KT 9999 -SN OVC007 M01/M02 Q1021=
200602230150 METAR ESMX 230150Z AUTO 31004G30KT 9999 OVC006 M01/M02 Q1021=
200602230120 METAR ESMX 230120Z AUTO 33004KT 9999 OVC007 M02/M02 Q1022 RESN=
200602230050 METAR ESMX 230050Z 31004KT 9999 -SN OVC007 M02/M02 Q1022=
200602230020 METAR ESMX 230020Z 31004KT 9999 -SN FEW028 SCT041 BKN066 M02/M02 Q1022=
200602222350 METAR ESMX 222350Z 31005KT 5000 -SN FEW053 SCT071 M02/M02 Q1022=
200602222320 METAR ESMX 222320Z 30005KT 9000 -SN FEW008 BKN043 M02/M02 Q1022=
200602222250 METAR ESMX 222250Z 28004KT 5000 -SN FEW007 SCT009 BKN045 M02/M02 Q1022=
200602222220 METAR ESMX 222220Z 28004KT 260V320 2500 -SN SCT009 BKN050 M02/M02 Q1022=
200602222150 METAR ESMX 222150Z 29004KT 270V330 3800 -SN SCT010 BKN050 M02/M02 Q1023=
200602222120 METAR ESMX 222120Z 30004KT 4300 -SN FEW005 SCT011 BKN050 M02/M02 Q1023=
200602222050 METAR ESMX 222050Z 28005KT 5000 -SN FEW010 BKN046 M02/M02 Q1023=
200602222020 METAR ESMX 222020Z 26004KT 230V290 3400 -SN SCT015 BKN050 M02/M02 Q1023=
200602221950 METAR ESMX 221950Z 28006KT 2400 -SN FEW015 BKN050 M02/M03 Q1023=
200602221920 METAR ESMX 221920Z 28004KT 2500 -SN FEW015 BKN050 M02/M03 Q1023=
200602221850 METAR ESMX 221850Z 26004KT 230V290 3200 -SN FEW015 BKN045 M02/M03 Q1024=
200602221820 METAR ESMX 221820Z 30004KT 270V330 7000 -SN SCT015 BKN050 M02/M04 Q1024=
200602221750 METAR ESMX 221750Z 30005KT 7000 -SN FEW021 SCT045 M02/M04 Q1024=
200602221720 METAR ESMX 221720Z 29005KT 9999 SCT015 BKN050 M02/M05 Q1025=
200602221650 METAR ESMX 221650Z 30005KT 9999 SCT015 BKN060 M02/M05 Q1025=
200602221620 METAR ESMX 221620Z 30004KT 9999 SCT012 M02/M05 Q1025=
200602221550 METAR ESMX 221550Z 31004KT CAVOK M01/M05 Q1025=
200602221520 METAR ESMX 221520Z 31005KT CAVOK M01/M05 Q1026=
200602221450 METAR ESMX 221450Z VRB03KT CAVOK M01/M05 Q1026=
200602221420 METAR ESMX 221420Z 31005KT CAVOK M01/M05 Q1026=
200602221350 METAR ESMX 221350Z 32005KT CAVOK M01/M05 Q1026=
200602221320 METAR ESMX 221320Z 32005KT 270V340 CAVOK M01/M05 Q1026=
200602221250 METAR ESMX 221250Z 30005KT CAVOK M01/M05 Q1026=
200602221220 METAR ESMX 221220Z 30004KT 270V340 CAVOK M01/M06 Q1027=
200602221150 METAR ESMX 221150Z 30005KT CAVOK M02/M06 Q1027=
200602221120 METAR ESMX 221120Z 31006KT CAVOK M02/M07 Q1028=
200602221050 METAR ESMX 221050Z 31005KT CAVOK M02/M07 Q1028=
200602221020 METAR ESMX 221020Z 30004KT 280V340 CAVOK M02/M07 Q1028=
200602220950 METAR ESMX 220950Z VRB03KT CAVOK M03/M07 Q1028=
200602220920 METAR ESMX 220920Z 30004KT CAVOK M03/M07 Q1028=
200602220850 METAR ESMX 220850Z 35005KT CAVOK M04/M08 Q1029=
200602220820 METAR ESMX 220820Z 01004KT CAVOK M05/M07 Q1029=
200602220750 METAR ESMX 220750Z VRB02KT CAVOK M07/M08 Q1029=
200602220720 METAR ESMX 220720Z VRB02KT CAVOK M08/M09 Q1029=
200602220650 METAR ESMX 220650Z VRB01KT CAVOK M11/M11 Q1029=
200602220620 METAR ESMX 220620Z VRB01KT CAVOK M10/M11 Q1029=
200602220550 METAR ESMX 220550Z VRB02KT CAVOK M10/M11 Q1029=
200602220520 METAR ESMX 220520Z VRB02KT CAVOK M10/M11 Q1029=
200602220450 METAR ESMX 220450Z VRB01KT CAVOK M10/M10 Q1029=
200602220420 METAR ESMX 220420Z AUTO VRB02KT //// NSC M08/M09 Q1029=
200602220350 METAR ESMX 220350Z AUTO VRB02KT //// NSC M08/M09 Q1029=
200602220320 METAR ESMX 220320Z AUTO VRB02KT //// NSC M07/M08 Q1029=
200602220250 METAR ESMX 220250Z AUTO 01005KT //// SCT014 M06/M08 Q1029=
200602220220 METAR ESMX 220220Z AUTO 01007KT //// FEW015 M06/M08 Q1029=
200602220150 METAR ESMX 220150Z AUTO 02007KT //// FEW017 M05/M07 Q1029=
200602220120 METAR ESMX 220120Z AUTO 02007KT //// BKN017 M04/M07 Q1030=
200602220050 METAR ESMX 220050Z 01009KT 9999 OVC017 M03/M07 Q1030=
200602220020 METAR ESMX 220020Z 02010KT 9999 OVC017 M03/M06 Q1030=
200602212350 METAR ESMX 212350Z 01007KT 9999 OVC019 M03/M06 Q1030=
200602212320 METAR ESMX 212320Z 34007KT 9999 OVC021 M03/M06 Q1030=
200602212250 METAR ESMX 212250Z 01006KT 9999 FEW017 OVC020 M03/M06 Q1029=
200602212220 METAR ESMX 212220Z 03007KT 350V070 9999 OVC016 M03/M06 Q1029=
200602212150 METAR ESMX 212150Z 01009KT 9999 OVC012 M03/M05 Q1029=
200602212120 METAR ESMX 212120Z 03009KT 9999 -SN OVC010 M03/M05 Q1029=
200602212050 METAR ESMX 212050Z 02010KT 9999 -SN OVC011 M02/M05 Q1029=
200602212020 METAR ESMX 212020Z 01010KT 340V060 9999 OVC013 M02/M05 Q1029=
200602211950 METAR ESMX 211950Z 02010KT 9999 OVC015 M02/M05 Q1029=
200602211920 METAR ESMX 211920Z 02010KT 9999 OVC014 M02/M05 Q1028=
200602211850 METAR ESMX 211850Z 02009KT 9999 OVC014 M02/M05 Q1028=
200602211820 METAR ESMX 211820Z 04008KT 010V080 9999 OVC015 M02/M05 Q1028=
200602211750 METAR ESMX 211750Z 04008KT 010V080 9999 OVC014 M02/M05 Q1028=
200602211720 METAR ESMX 211720Z 04010KT 350V080 9999 BKN015 OVC019 M02/M05 Q1028=
200602211650 METAR ESMX 211650Z 04009KT 010V080 9999 OVC015 M02/M05 Q1027=
200602211620 METAR ESMX 211620Z 02010KT 350V060 9999 OVC015 M01/M05 Q1027=
200602211550 METAR ESMX 211550Z 03012G22KT 360V060 9999 OVC016 M01/M05 Q1027=
200602211520 METAR ESMX 211520Z 02011KT 340V050 9999 OVC019 M01/M04 Q1027=
200602211450 METAR ESMX 211450Z 03011KT 360V060 9999 OVC019 M01/M05 Q1026=
200602211420 METAR ESMX 211420Z 04010KT 010V080 9999 OVC019 M00/M04 Q1026=
200602211350 METAR ESMX 211350Z 02010KT 350V070 9999 OVC020 M00/M04 Q1026=
200602211320 METAR ESMX 211320Z 02011KT 350V070 9999 OVC020 M00/M04 Q1026=
200602211250 METAR ESMX 211250Z 03011KT 9999 FEW015 BKN021 M01/M03 Q1025=
200602211220 METAR ESMX 211220Z 02010KT 9999 BKN014 M01/M03 Q1025=
200602211150 METAR ESMX 211150Z 03011KT 350V080 9999 BKN015 M00/M03 Q1025=
200602211120 METAR ESMX 211120Z 03011KT 350V070 9999 BKN015 M00/M03 Q1025=
200602211050 METAR ESMX 211050Z 02009KT 340V060 9999 OVC014 M01/M03 Q1025=
200602211020 METAR ESMX 211020Z 02008KT 340V050 9999 BKN015 M01/M03 Q1025=
200602210920 METAR ESMX 210920Z 03010KT 360V060 9999 RESN BKN010 M01/M03 Q1024=
200602210850 METAR ESMX 210850Z 03010KT 9999 BKN008 M01/M03 Q1024 RESN=
200602210820 METAR ESMX 210820Z 03012KT 8000 -SN BKN007 M01/M03 Q1023=
200602210750 METAR ESMX 210750Z 02011KT 9999 -SN BKN008 M01/M03 Q1023=
200602210720 METAR ESMX 210720Z 03012KT 9999 -SN BKN008 M01/M03 Q1022=
200602210650 METAR ESMX 210650Z 02011KT 350V060 9999 BKN009 M01/M03 Q1022=
200602210620 METAR ESMX 210620Z 03010KT 350V060 9999 BKN009 M01/M03 Q1022=
200602210550 METAR ESMX 210550Z 04011KT 8000 -SN OVC008 M01/M02 Q1021=
200602210520 METAR ESMX 210520Z 04009KT 010V070 9000 -SN OVC008 M01/M02 Q1021=
200602210450 METAR ESMX 210450Z 04010KT 010V070 9999 -SN OVC009 M01/M02 Q1020=
200602210420 METAR ESMX 210420Z AUTO 03009KT //// OVC009 M01/M02 Q1020=
200602210350 METAR ESMX 210350Z AUTO 02011KT //// FEW007 OVC008 M01/M02 Q1020=
200602210320 METAR ESMX 210320Z AUTO 02011KT //// OVC005 M01/M02 Q1020=
200602210250 METAR ESMX 210250Z AUTO 04010KT //// OVC006 M01/M02 Q1019=
200602210220 METAR ESMX 210220Z AUTO 03011KT 7000 -SN OVC006 M01/M02 Q1019=
200602210150 METAR ESMX 210150Z 02009KT 7000 -SN OVC007 M01/M02 Q1019=
200602210120 METAR ESMX 210120Z 02007KT 7000 -SN OVC008 M01/M02 Q1019=
200602210050 METAR ESMX 210050Z 03008KT 350V050 6000 -SN OVC008 M01/M02 Q1018=
200602210020 METAR ESMX 210020Z 01010KT 6000 -SN OVC008 M01/M02 Q1018=
200602202350 METAR ESMX 202350Z 01011KT 9000 -SN OVC008 M01/M02 Q1018=
200602202320 METAR ESMX 202320Z 01011KT 9999 OVC008 M01/M02 Q1018=
200602202250 METAR ESMX 202250Z 01011KT 9999 OVC009 M01/M02 Q1017=
200602202220 METAR ESMX 202220Z 02010KT 9999 OVC009 M00/M02 Q1017=
200602202150 METAR ESMX 202150Z 02009KT 340V050 9999 OVC009 M00/M02 Q1017=
200602202120 METAR ESMX 202120Z 02009KT 9999 OVC009 M00/M02 Q1017=
200602202050 METAR ESMX 202050Z 01009KT 9999 OVC009 M00/M02 Q1017=
200602202020 METAR ESMX 202020Z 03009KT 9000 BR OVC006 M00/M02 Q1016=
200602201950 METAR ESMX 201950Z 03008KT 9000 BR OVC006 M00/M01 Q1016=
200602201920 METAR ESMX 201920Z 01009KT 9999 OVC007 M00/M01 Q1016=
200602201850 METAR ESMX 201850Z 02008KT 9999 OVC010 M00/M02 Q1016=
200602201820 METAR ESMX 201820Z 01009KT 9999 OVC011 00/M02 Q1015=
200602201750 METAR ESMX 201750Z 01008KT 9999 OVC012 00/M02 Q1015=
200602201720 METAR ESMX 201720Z 02009KT 9999 FEW013 SCT017 BKN020 00/M02 Q1015=
200602201650 METAR ESMX 201650Z 03006KT 9999 -SHSN BKN015 00/M01 Q1015=
200602201620 METAR ESMX 201620Z 03007KT 9999 OVC011 00/M01 Q1014=
200602201550 METAR ESMX 201550Z 02007KT 350V060 9999 BKN012 00/M01 Q1014=
200602201520 METAR ESMX 201520Z 02007KT 9999 OVC012 01/M01 Q1014=
200602201450 METAR ESMX 201450Z 02007KT 9999 OVC012 01/M01 Q1014=
200602201420 METAR ESMX 201420Z 04007KT 9999 OVC011 01/M01 Q1013=
200602201350 METAR ESMX 201350Z 03006KT 360V070 9999 OVC011 01/M01 Q1013=
200602201320 METAR ESMX 201320Z 03007KT 9999 OVC010 01/M01 Q1013=
200602201250 METAR ESMX 201250Z 03006KT 340V060 9999 BKN010 01/M01 Q1013=
200602201220 METAR ESMX 201220Z 03006KT 9999 OVC010 01/M01 Q1013=
200602201120 METAR ESMX 201120Z 01007KT 9999 BKN010 01/M01 Q1012=
200602201050 METAR ESMX 201050Z 01007KT 9999 FEW008 BKN010 01/M01 Q1012=
200602201020 METAR ESMX 201020Z 01007KT 9999 FEW005 OVC007 00/M00 Q1012=
200602200950 METAR ESMX 200950Z 01007KT 9999 OVC006 00/M00 Q1012=
200602200920 METAR ESMX 200920Z 02006KT 9999 OVC006 00/M00 Q1012=
200602200850 METAR ESMX 200850Z 01006KT 9999 OVC006 00/M00 Q1012=
200602200820 METAR ESMX 200820Z 01006KT 9999 FEW008 SCT009 OVC010 00/M00 Q1011=
200602200750 METAR ESMX 200750Z 02005KT 9999 FEW004 BKN010 00/M00 Q1011=
200602200720 METAR ESMX 200720Z 02006KT 340V040 9999 BR BKN005 OVC008 00/M00 Q1011=
200602200650 METAR ESMX 200650Z 03006KT 9999 BR SCT005 BKN007 00/M00 Q1011=
200602200620 METAR ESMX 200620Z 01006KT 6000 BR BKN003 OVC007 00/00 Q1010=
200602200550 METAR ESMX 200550Z 03005KT 350V060 6000 BR OVC004 00/00 Q1010=
200602200520 METAR ESMX 200520Z 03005KT 6000 BR BKN003 OVC006 00/00 Q1010=
200602200450 METAR ESMX 200450Z 02005KT 5000 -SN BR OVC003 00/00 Q1010=
200602200420 METAR ESMX 200420Z AUTO 01004KT //// BKN005 OVC007 00/00 Q1009=
200602200350 METAR ESMX 200350Z AUTO 01004KT //// FEW003 OVC005 00/00 Q1009=
200602200320 METAR ESMX 200320Z AUTO 02005KT //// FEW002 SCT007 BKN010 00/00 Q1009=
200602200250 METAR ESMX 200250Z AUTO 01004KT //// FEW005 00/00 Q1009=
200602200220 METAR ESMX 200220Z AUTO 02005KT //// NSC 00/00 Q1009=
200602200150 METAR ESMX 200150Z AUTO 02006KT //// FEW003 SCT005 BKN014 00/00 Q1009=
200602200120 METAR ESMX 200120Z 02005KT 2500 SN BR FEW003 BKN005 BKN009 00/00 Q1009=
200602200050 METAR ESMX 200050Z 02005KT 3000 SN BR FEW002 OVC004 01/00 Q1009=
200602200020 METAR ESMX 200020Z 03007KT 3000 -SN BR FEW002 BKN005 01/00 Q1008=
200602192350 METAR ESMX 192350Z 03006KT 3000 -SN BR OVC002 01/01 Q1008=
200602192320 METAR ESMX 192320Z 03005KT 010V070 3000 -SN BR OVC002 01/01 Q1008=
200602192250 METAR ESMX 192250Z 01005KT 5000 BR BKN002 OVC004 01/01 Q1008=
200602192150 METAR ESMX 192150Z 02006KT 4000 -SN BR BKN002 OVC006 01/00 Q1007 RESN=
200602192120 METAR ESMX 192120Z 02006KT 3000 SN BR OVC002 01/01 Q1007=
200602192050 METAR ESMX 192050Z 02005KT 3500 -SN BR OVC003 01/01 Q1007=
200602192020 METAR ESMX 192020Z 36005KT 3000 -SN BR OVC003 01/00 Q1007=
200602191950 METAR ESMX 191950Z 01004KT 3000 -SN BR OVC002 01/00 Q1007=
200602191920 METAR ESMX 191920Z 02005KT 5000 -SN BR OVC003 01/01 Q1007=
200602191850 METAR ESMX 191850Z 02005KT 5000 -SN BR OVC004 01/01 Q1006=
200602191820 METAR ESMX 191820Z 01005KT 5000 -SN BR FEW003 OVC005 01/01 Q1006=
200602191750 METAR ESMX 191750Z 36005KT 3000 -SN OVC002 01/01 Q1006=
200602191720 METAR ESMX 191720Z 01005KT 6000 -SN OVC002 01/01 Q1006=
200602191650 METAR ESMX 191650Z 03005KT 4000 -SN OVC002 01/01 Q1005=
200602191620 METAR ESMX 191620Z 03004KT 1800 -RASN OVC002 01/01 Q1005=
200602191520 METAR ESMX 191520Z 02004KT 6000 BR BKN005 01/01 Q1005=
200602191450 METAR ESMX 191450Z 02006KT 4000 BR SCT002 BKN005 01/01 Q1005=
200602191420 METAR ESMX 191420Z 04005KT 010V080 9000 BR FEW004 BKN005 02/01 Q1005=
200602191350 METAR ESMX 191350Z 03004KT 360V060 9000 BR OVC005 02/01 Q1005=
200602191320 METAR ESMX 191320Z AUTO 04004KT 9000 BR BKN004 OVC007 02/01 Q1004=
200602191250 METAR ESMX 191250Z AUTO VRB03KT 7000 BR OVC003 02/01 Q1004=
200602191220 METAR ESMX 191220Z AUTO VRB03KT 9000 BR OVC002 02/01 Q1004=
200602191150 METAR ESMX 191150Z AUTO 04004KT 9000 BR BKN003 OVC005 02/01 Q1004=
200602191120 METAR ESMX 191120Z AUTO 01005KT 6000 BR OVC003 02/01 Q1004=
200602191050 METAR ESMX 191050Z AUTO 03004KT 010V100 8000 BKN002 OVC005 02/01 Q1004=
200602191020 METAR ESMX 191020Z AUTO VRB03KT 6000 OVC001 02/02 Q1003=
200602190950 METAR ESMX 190950Z AUTO VRB03KT 1200 R01/P1500U R19/0800VP1500U OVC001 01/01 Q1003=
200602190920 METAR ESMX 190920Z AUTO VRB03KT 0400 R01/0450V0700N R19/0550N FG VV001 01/01 Q1003=
200602190850 METAR ESMX 190850Z AUTO VRB02KT 0300 R01/0500N R19/0550N FG VV001 01/01 Q1003=
200602190820 METAR ESMX 190820Z AUTO VRB02KT 0350 R01/0600N R19/0650N FG VV001 01/01 Q1003=
200602190750 METAR ESMX 190750Z AUTO VRB02KT 0500 R01/0750D R19/0900V1300D FG VV001 01/01 Q1003=
200602190720 METAR ESMX 190720Z AUTO VRB03KT 0700 R01/1000N R19/1400U FG VV002 01/01 Q1002=
200602190650 METAR ESMX 190650Z AUTO VRB02KT 1400 R01/P1500N R19/P1500N VV002 01/01 Q1002=
200602190620 METAR ESMX 190620Z AUTO VRB02KT 1000 R01/P1500N R19/P1500N FG VV002 01/01 Q1002=
200602190550 METAR ESMX 190550Z AUTO VRB02KT 0650 R01/P1500N R19/P1500U -RA VV002 01/01 Q1002=
200602190520 METAR ESMX 190520Z AUTO VRB01KT 0800 R01/P1500N R19/P1500N FG VV002 01/01 Q1002=
200602190450 METAR ESMX 190450Z AUTO VRB01KT 0700 R01/P1500U R19/P1500N FG VV002 01/01 Q1002=
200602190420 METAR ESMX 190420Z AUTO VRB02KT 0900 R01/P1500N R19/P1500N FG VV002 01/01 Q1001=
200602190350 METAR ESMX 190350Z AUTO VRB02KT 0650 R01/P1500D R19/P1500D FG VV001 01/01 Q1001=
200602190320 METAR ESMX 190320Z AUTO VRB02KT 0800 R01/P1500N R19/P1500N FG VV002 01/01 Q1001=
200602190250 METAR ESMX 190250Z AUTO VRB02KT 1200 R01/P1500N R19/P1500N -RA OVC001 01/00 Q1001=
200602190220 METAR ESMX 190220Z AUTO VRB02KT 0300 R01/1100N R19/1200N -SHRA VV002 00/00 Q1001=
200602190150 METAR ESMX 190150Z AUTO VRB02KT 0350 R01/1200U R19/1100N -SHRA VV001 00/00 Q1001=
200602190120 METAR ESMX 190120Z AUTO VRB01KT 0800 R01/P1500N R19/1400N FG VV001 00/00 Q1001=
200602190050 METAR ESMX 190050Z AUTO VRB01KT 1400 R01/P1500N R19/P1500N -RA VV002 00/00 Q1001=
200602190020 METAR ESMX 190020Z AUTO VRB02KT 0800 R01/P1500N R19/P1500N +RA VV001 01/00 Q1001=
200602182350 METAR ESMX 182350Z AUTO VRB02KT 0800 R01/P1500N R19/P1500N -RA VV001 01/00 Q1001=
200602182320 METAR ESMX 182320Z AUTO VRB02KT 0800 R01/P1500N R19/P1500N -RA VV001 01/00 Q1001=
200602182250 METAR ESMX 182250Z AUTO VRB03KT 0800 R01/P1500N R19/P1500N -RA VV001 01/00 Q1001=
200602182220 METAR ESMX 182220Z AUTO VRB03KT 0750 R01/P1500N R19/P1500N -RA VV001 01/00 Q1001=
200602182150 METAR ESMX 182150Z AUTO VRB03KT 0700 R01/P1500N R19/P1500N -SHRA VV001 01/00 Q1001=
200602182120 METAR ESMX 182120Z AUTO 11004KT 070V160 0650 R01/P1500N R19/P1500D -SHRA VV001 01/00 Q1000=
200602182050 METAR ESMX 182050Z AUTO VRB03KT 0650 R01/P1500N R19/P1500N -SHRA VV001 01/00 Q1000=
200602182020 METAR ESMX 182020Z AUTO VRB03KT 1300 R01/P1500N R19/P1500N OVC001 00/00 Q1000 RESN=
200602181950 METAR ESMX 181950Z AUTO VRB03KT 2500 -SN OVC001 00/00 Q1000=
200602181920 METAR ESMX 181920Z AUTO VRB03KT 1900 -RA OVC001 00/00 Q1000=
200602181850 METAR ESMX 181850Z AUTO VRB03KT 1600 -RA OVC001 00/00 Q1000=
200602181820 METAR ESMX 181820Z AUTO VRB03KT 0900 R01/P1500N R19/P1500N -RA OVC001 00/00 Q1000=
200602181750 METAR ESMX 181750Z AUTO VRB03KT 0450 R01/P1500N R19/P1500D -DZ VV001 00/00 Q1000=
200602181720 METAR ESMX 181720Z AUTO VRB03KT 0500 R01/P1500N R19/P1500N FG VV001 00/00 Q1000=
200602181650 METAR ESMX 181650Z AUTO 11004KT 070V170 0400 R01/1300N R19/1400U FG VV001 00/00 Q0999=
200602181620 METAR ESMX 181620Z AUTO 10005KT 070V140 0400 R01/1000N R19/1100N FG VV001 01/00 Q0999=
200602181550 METAR ESMX 181550Z AUTO 11005KT 080V150 0500 R01/1000N R19/1200N FG VV001 01/00 Q0999=
200602181520 METAR ESMX 181520Z AUTO 12004KT 070V170 0750 R01/1300N R19/P1500N FG OVC001 01/00 Q0999=
200602181450 METAR ESMX 181450Z AUTO 11004KT 070V150 1100 R01/P1500N R19/P1500U BR OVC001 01/00 Q0999=
200602181420 METAR ESMX 181420Z AUTO VRB03KT 2000 OVC002 01/00 Q0999 RERA=
200602181350 METAR ESMX 181350Z AUTO VRB03KT 2700 -SHRA OVC002 01/00 Q0999=
200602181320 METAR ESMX 181320Z AUTO VRB03KT 1800 -RA BKN003 OVC005 01/00 Q0998=
200602181250 METAR ESMX 181250Z AUTO VRB03KT 2200 -RA OVC003 01/00 Q0999=
200602181220 METAR ESMX 181220Z AUTO 07004KT 040V100 2800 BR OVC003 01/M00 Q0998=
200602181150 METAR ESMX 181150Z AUTO 06004KT 030V100 3400 BR OVC004 00/M00 Q0998=
200602181120 METAR ESMX 181120Z AUTO 07005KT 020V100 3000 BR OVC004 M00/M01 Q0998=
200602181050 METAR ESMX 181050Z 06004KT 030V110 3100 BR OVC003 M00/M01 Q0998=
200602181020 METAR ESMX 181020Z VRB03KT 3100 BR OVC004 M00/M01 Q0998=
200602180950 METAR ESMX 180950Z 06004KT 020V090 3700 BR OVC003 M01/M01 Q0998=
200602180920 METAR ESMX 180920Z VRB03KT 3400 BR OVC003 M01/M02 Q0998=
200602180850 METAR ESMX 180850Z 07004KT 030V100 3500 BR OVC004 M01/M02 Q0998=
200602180820 METAR ESMX 180820Z VRB02KT 3200 BR OVC003 M02/M02 Q0998=
200602180750 METAR ESMX 180750Z AUTO 08004KT 040V120 2900 BR OVC003 M02/M02 Q0998=
200602180720 METAR ESMX 180720Z AUTO 07004KT 040V110 2600 BR OVC003 M02/M02 Q0997=
200602180650 METAR ESMX 180650Z AUTO 07004KT 020V110 2800 BR OVC003 M02/M03 Q0997=
200602180620 METAR ESMX 180620Z AUTO VRB03KT 3300 BR OVC004 M02/M03 Q0997=
200602180550 METAR ESMX 180550Z AUTO 06004KT 350V090 3800 BR OVC005 M02/M03 Q0997=
200602180520 METAR ESMX 180520Z AUTO VRB03KT 4200 OVC006 M03/M03 Q0997 RESN=
200602180450 METAR ESMX 180450Z AUTO 06004KT 010V100 4600 SCT007 BKN009 OVC013 M03/M03 Q0997 RESN=
200602180420 METAR ESMX 180420Z AUTO 04004KT 350V080 4200 -SN FEW010 SCT015 BKN069 M03/M04 Q0997=
200602180350 METAR ESMX 180350Z AUTO 04004KT 020V080 3800 -SN FEW051 BKN071 M03/M04 Q0997=
200602180320 METAR ESMX 180320Z AUTO 07004KT 030V100 3900 -SN BKN027 OVC052 M03/M03 Q0997=
200602180250 METAR ESMX 180250Z AUTO 05004KT 020V080 3100 -SN FEW028 M03/M03 Q0997=
200602180220 METAR ESMX 180220Z AUTO VRB03KT 2400 -SN FEW013 M03/M03 Q0997=
200602180150 METAR ESMX 180150Z AUTO VRB03KT 1500 -SN NSC M03/M03 Q0997=
200602180120 METAR ESMX 180120Z AUTO 06005KT 030V100 2000 -SN NSC M03/M03 Q0996=
200602180050 METAR ESMX 180050Z AUTO 06005KT 1400 R01/P1500N R19/P1500N -SN NSC M03/M03 Q0996=
200602180020 METAR ESMX 180020Z AUTO 06005KT 1700 -SN NSC M03/M03 Q0996=
200602172350 METAR ESMX 172350Z AUTO 06005KT 020V090 1500 -SN NSC M03/M04 Q0996=
200602172320 METAR ESMX 172320Z AUTO 06004KT 2000 -SN NSC M03/M04 Q0997=
200602172250 METAR ESMX 172250Z AUTO 06005KT 030V100 1600 -SN NSC M03/M04 Q0996=
200602172220 METAR ESMX 172220Z AUTO 06004KT 030V100 1100 R01/P1500N R19/P1500N -SN FEW010 M03/M04 Q0996=
200602172150 METAR ESMX 172150Z AUTO 07004KT 020V100 1200 R01/P1500N R19/P1500N -SN FEW008 M03/M04 Q0996=
200602172120 METAR ESMX 172120Z AUTO 07004KT 040V130 1000 R01/P1500N R19/P1500N -SN FEW006 M03/M04 Q0997=
200602172050 METAR ESMX 172050Z AUTO 07005KT 010V140 0900 R01/P1500N R19/P1500N -SN VV007 M03/M04 Q0996=
200602172020 METAR ESMX 172020Z AUTO 08006KT 040V130 2700 -SN OVC004 M03/M04 Q0996=
200602171950 METAR ESMX 171950Z AUTO 08006KT 050V120 3400 -SN OVC005 M03/M04 Q0996=
200602171920 METAR ESMX 171920Z AUTO 08007KT 030V120 3600 SG OVC005 M03/M04 Q0996=
200602171850 METAR ESMX 171850Z AUTO 08007KT 050V140 4000 BR OVC005 M03/M04 Q0996=
200602171820 METAR ESMX 171820Z 10007KT 060V150 5000 BR OVC006 M03/M04 Q0996=
200602171750 METAR ESMX 171750Z 09008KT 040V140 6000 -SN BR OVC006 M03/M04 Q0996=
200602171720 METAR ESMX 171720Z 09007KT 030V140 5000 BR OVC006 M03/M04 Q0996=
200602171650 METAR ESMX 171650Z 08008KT 030V130 6000 BR OVC007 M03/M05 Q0995=
200602171620 METAR ESMX 171620Z 08009KT 020V140 6000 BR OVC008 M03/M05 Q0995=
200602171550 METAR ESMX 171550Z 09007KT 050V130 6000 BR OVC008 M03/M05 Q0995=
200602171520 METAR ESMX 171520Z 09008KT 020V140 7000 BR OVC009 M03/M04 Q0995=
200602171450 METAR ESMX 171450Z 09008KT 050V140 7000 BR OVC009 M03/M04 Q0995=
200602171420 METAR ESMX 171420Z 10006KT 060V140 7000 BR OVC008 M03/M04 Q0995=
200602171350 METAR ESMX 171350Z 09006G16KT 050V150 6000 -SHSN OVC008 M03/M04 Q0995=
200602171320 METAR ESMX 171320Z 09009KT 050V140 6000 -SN OVC008 M03/M04 Q0995=
200602171250 METAR ESMX 171250Z 09007KT 030V130 5000 BR OVC008 M02/M04 Q0995=
200602171220 METAR ESMX 171220Z 08008KT 030V140 6000 BR OVC008 M02/M04 Q0995=
200602171150 METAR ESMX 171150Z 10008KT 060V150 6000 BR OVC009 M02/M04 Q0995=
200602171120 METAR ESMX 171120Z 08008KT 030V120 7000 BR OVC009 M02/M04 Q0995=
200602171050 METAR ESMX 171050Z 09008KT 030V150 7000 OVC009 M02/M04 Q0995=
200602171020 METAR ESMX 171020Z 10007KT 040V140 7000 -SN OVC009 M02/M04 Q0995=
200602170950 METAR ESMX 170950Z 09007KT 020V120 6000 -SN OVC009 M03/M04 Q0995=
200602170920 METAR ESMX 170920Z 09007KT 040V150 5000 -SN OVC007 M03/M04 Q0995=
200602170850 METAR ESMX 170850Z 09008KT 030V140 4900 -SN OVC007 M03/M04 Q0995=
200602170820 METAR ESMX 170820Z 09007KT 050V140 5000 -SN OVC007 M03/M04 Q0995=
200602170750 METAR ESMX 170750Z 08007KT 010V160 7000 BR OVC009 M03/M04 Q0995=
200602170720 METAR ESMX 170720Z 09007KT 010V140 7000 BR OVC009 M03/M04 Q0995=
200602170650 METAR ESMX 170650Z 10007KT 070V140 7000 BR OVC010 M03/M04 Q0995=
200602170620 METAR ESMX 170620Z 09008KT 040V140 7000 BR OVC008 M03/M04 Q0994=
200602170550 METAR ESMX 170550Z 09007KT 050V150 7000 -SN OVC008 M03/M04 Q0994=
200602170520 METAR ESMX 170520Z 10009KT 050V150 7000 -SN BKN009 M03/M04 Q0994=
200602170450 METAR ESMX 170450Z 09007KT 040V150 6000 -SN OVC008 M03/M04 Q0994=
200602170420 METAR ESMX 170420Z AUTO 09009KT 020V150 6000 -SN OVC008 M03/M04 Q0994=
200602170350 METAR ESMX 170350Z AUTO 10007KT 040V150 5000 SG OVC008 M02/M03 Q0994=
200602170320 METAR ESMX 170320Z AUTO 10007KT 060V140 5000 -SN OVC008 M02/M03 Q0994=
200602170250 METAR ESMX 170250Z AUTO 10007KT 050V140 6000 -SN OVC008 M02/M03 Q0994=
200602170220 METAR ESMX 170220Z AUTO 11007KT 060V160 5000 SG OVC008 M02/M03 Q0994=
200602170150 METAR ESMX 170150Z AUTO 10007KT 040V150 6000 -SN OVC008 M02/M03 Q0995=
200602170120 METAR ESMX 170120Z 09006KT 050V140 7000 -SN OVC008 M02/M03 Q0994=
200602170050 METAR ESMX 170050Z 08006KT 7000 -SN OVC008 M02/M03 Q0994=
200602170020 METAR ESMX 170020Z 09007KT 030V120 6000 -SN FEW008 SCT009 BKN011 M02/M03 Q0995=
200602162350 METAR ESMX 162350Z 09006KT 040V130 4900 -SN FEW008 OVC010 M02/M03 Q0995=
200602162320 METAR ESMX 162320Z 10005KT 040V140 5000 -SN OVC008 M02/M03 Q0995=
200602162250 METAR ESMX 162250Z 10006KT 6000 -SN BKN008 M02/M03 Q0995=
200602162220 METAR ESMX 162220Z 09006KT 050V130 6000 -SN FEW007 SCT009 OVC010 M02/M03 Q0995=
200602162150 METAR ESMX 162150Z 10007KT 030V140 5000 -SN BKN007 M02/M03 Q0995=
200602162120 METAR ESMX 162120Z 09008KT 040V130 4400 -SN BKN005 M02/M03 Q0995=
200602162050 METAR ESMX 162050Z 10007KT 3400 -SN BKN006 M02/M03 Q0995=
200602162020 METAR ESMX 162020Z 10008KT 1500 SN BKN006 M02/M03 Q0995=
200602161950 METAR ESMX 161950Z 08006KT 030V140 1400 R01/P1500N R19/P1500N SN BKN006 M02/M03 Q0995=
200602161920 METAR ESMX 161920Z 10009KT 050V150 4700 -SN BKN007 OVC011 M02/M03 Q0995=
200602161820 METAR ESMX 161820Z 10007KT 050V190 3000 SN FEW008 OVC011 M02/M03 Q0996=
200602161750 METAR ESMX 161750Z 10005KT 050V140 2000 SN FEW006 BKN009 OVC013 M02/M02 Q0996=
200602161720 METAR ESMX 161720Z 11006KT 060V160 1600 SN FEW006 OVC009 M02/M02 Q0996=
200602161650 METAR ESMX 161650Z 11008KT 070V160 1900 SN OVC005 M02/M02 Q0996=
200602161620 METAR ESMX 161620Z 11007KT 050V160 2000 SN OVC004 M02/M02 Q0995=
200602161550 METAR ESMX 161550Z 11008KT 060V180 2500 -SN OVC004 M02/M02 Q0995=
200602161520 METAR ESMX 161520Z 10010KT 060V150 2900 -SN OVC004 M02/M02 Q0995=
200602161450 METAR ESMX 161450Z 10008KT 060V140 4500 -SN OVC005 M01/M02 Q0995=
200602161420 METAR ESMX 161420Z 10009KT 060V140 3700 -SN OVC006 M01/M02 Q0995=
200602161350 METAR ESMX 161350Z 11008KT 050V170 3200 -SN OVC007 M01/M02 Q0995=
200602161320 METAR ESMX 161320Z 11007KT 060V160 2300 -SN BKN005 OVC009 M01/M02 Q0995=
200602161250 METAR ESMX 161250Z 11008KT 060V150 2400 -SN OVC006 M01/M02 Q0995=
200602161220 METAR ESMX 161220Z 11007KT 350V150 3100 SG BKN006 OVC009 M01/M02 Q0996=
200602161150 METAR ESMX 161150Z 11009KT 060V190 2500 SG OVC006 M01/M02 Q0996=
200602161120 METAR ESMX 161120Z 11008KT 070V160 2400 SG BKN006 OVC010 M01/M02 Q0996=
200602161050 METAR ESMX 161050Z 12008KT 080V160 3100 SG OVC006 M01/M02 Q0996=
200602161020 METAR ESMX 161020Z VRB06KT 3200 SG OVC007 M01/M02 Q0996=
200602160950 METAR ESMX 160950Z 11008KT 050V170 3500 FEW006 BKN008 M01/M01 Q0996 RESN=
200602160920 METAR ESMX 160920Z 12008KT 050V170 3300 BR FEW006 OVC008 M01/M01 Q0996 RESN=
200602160850 METAR ESMX 160850Z 12005KT 060V190 3200 -SN FEW006 BKN009 M01/M01 Q0996=
200602160820 METAR ESMX 160820Z 13007KT 060V200 3000 -SN FEW006 SCT008 OVC009 M01/M02 Q0996=
200602160750 METAR ESMX 160750Z 12007KT 080V170 2100 -SG FEW006 BKN009 M01/M02 Q0996=
200602160720 METAR ESMX 160720Z 13007KT 080V190 2300 SG OVC006 M01/M02 Q0996=
200602160650 METAR ESMX 160650Z 12008KT 080V170 2400 SG OVC007 M01/M02 Q0996=
200602160620 METAR ESMX 160620Z 12007KT 050V170 4000 SG OVC007 M01/M02 Q0996=
200602160550 METAR ESMX 160550Z 12009G20KT 4700 BR BKN007 M01/M02 Q0995=
200602160520 METAR ESMX 160520Z 13007KT 4600 BR BKN007 M01/M02 Q0996=
200602160450 METAR ESMX 160450Z 12007KT 070V160 4400 BR OVC006 M01/M02 Q0996=
200602160420 METAR ESMX 160420Z AUTO 13008KT 090V170 4100 BR OVC005 M01/M02 Q0996=
200602160350 METAR ESMX 160350Z AUTO 12008KT 070V170 4000 BR OVC005 M01/M02 Q0996=
200602160320 METAR ESMX 160320Z AUTO VRB09KT 3700 BR OVC004 M01/M02 Q0996=
200602160250 METAR ESMX 160250Z AUTO 12010G20KT 050V180 3800 BR OVC004 M01/M02 Q0996=
200602160220 METAR ESMX 160220Z AUTO 12008KT 070V170 5000 BR OVC005 M01/M02 Q0996=
200602160150 METAR ESMX 160150Z AUTO 13008KT 070V170 7000 OVC007 M01/M02 Q0996 REDZ=
200602160120 METAR ESMX 160120Z 13008KT 080V190 6000 -SN OVC006 M01/M01 Q0996=
200602160050 METAR ESMX 160050Z 13008KT 080V180 3300 -SN OVC006 M01/M01 Q0997=
200602160020 METAR ESMX 160020Z 11008KT 070V200 2700 -SN FEW007 OVC008 M01/M01 Q0997=
200602152350 METAR ESMX 152350Z 12009KT 080V160 6000 -SN BKN007 OVC010 M01/M01 Q0997=
200602152320 METAR ESMX 152320Z 13007KT 080V170 5000 -SN BKN007 OVC010 M01/M01 Q0998=
200602152250 METAR ESMX 152250Z 12007KT 060V170 2000 -SN FEW006 SCT007 BKN009 M01/M01 Q0998=
200602152220 METAR ESMX 152220Z 13008KT 080V180 1900 -SN FEW007 SCT008 BKN010 M00/M01 Q0998=
200602152150 METAR ESMX 152150Z 13007KT 090V170 3000 -SN FEW007 SCT008 OVC010 M00/M01 Q0998=
200602152120 METAR ESMX 152120Z VRB06KT 2900 -SN FEW007 BKN008 OVC010 M00/M01 Q0998=
200602152050 METAR ESMX 152050Z 12007KT 070V170 2400 -SN FEW008 OVC009 M00/M01 Q0998=
200602152020 METAR ESMX 152020Z 14008KT 080V190 2500 -SN FEW009 BKN012 M00/M01 Q0999=
200602151950 METAR ESMX 151950Z 13008G18KT 080V170 3500 -SN SCT008 BKN010 M00/M01 Q0999=
200602151920 METAR ESMX 151920Z 14006KT 080V170 2900 -SHSN FEW008 OVC009 M00/M01 Q0999=
200602151850 METAR ESMX 151850Z 13008KT 080V170 6000 -SHSN FEW009 BKN012 M00/M02 Q1000=
200602151820 METAR ESMX 151820Z 14008KT 070V170 9000 -SHSN BKN007 OVC010 M00/M02 Q1000=
200602151750 METAR ESMX 151750Z 13009G19KT 9000 -SN BKN007 M00/M01 Q1000=
200602151720 METAR ESMX 151720Z 12008KT 070V170 3800 -SN FEW006 BKN008 OVC010 M01/M01 Q1000=
200602151650 METAR ESMX 151650Z 13008KT 090V170 4500 -SHSN BKN008 OVC010 M00/M02 Q1001=
200602151620 METAR ESMX 151620Z 14009KT 110V170 7000 -SHSN OVC008 M00/M02 Q1001=
200602151550 METAR ESMX 151550Z 14009KT 080V180 9000 -SN BKN008 M00/M02 Q1002=
200602151520 METAR ESMX 151520Z 12008KT 060V170 9999 -SN BKN008 M00/M02 Q1002=
200602151450 METAR ESMX 151450Z 12007KT 070V190 4100 -SN FEW007 BKN009 BKN012 M00/M01 Q1002=
200602151420 METAR ESMX 151420Z 13007KT 070V170 2000 -SN FEW006 SCT008 BKN009 M01/M01 Q1003=
200602151350 METAR ESMX 151350Z 15008KT 110V170 3300 -SN OVC010 M00/M02 Q1004=
200602151320 METAR ESMX 151320Z 15009KT 100V170 7000 BR OVC012 00/M02 Q1004=
200602151250 METAR ESMX 151250Z 15010KT 110V190 9999 OVC012 00/M02 Q1005=
200602151220 METAR ESMX 151220Z 14009KT 110V170 9999 OVC013 00/M03 Q1005=
200602151150 METAR ESMX 151150Z 16011KT 110V200 9999 OVC013 M00/M03 Q1006=
200602151120 METAR ESMX 151120Z 15010KT 100V190 9999 OVC014 M00/M03 Q1006=
200602151050 METAR ESMX 151050Z 15012KT 110V210 9999 OVC014 M00/M03 Q1007=
200602151020 METAR ESMX 151020Z 15010KT 100V180 9999 OVC014 M00/M03 Q1007=
200602150950 METAR ESMX 150950Z 15011KT 110V170 9999 OVC014 M01/M03 Q1008=
200602150920 METAR ESMX 150920Z 14010KT 080V190 9999 BKN012 OVC017 M01/M03 Q1008=
200602150850 METAR ESMX 150850Z 14009KT 110V190 9999 FEW011 OVC013 M01/M03 Q1009=
200602150820 METAR ESMX 150820Z 14008KT 080V200 9999 OVC009 M01/M03 Q1009=
200602150750 METAR ESMX 150750Z 14008KT 100V170 9999 OVC010 M01/M03 Q1010=
200602150720 METAR ESMX 150720Z 15009KT 120V190 9999 OVC010 M01/M03 Q1010=
200602150650 METAR ESMX 150650Z 14007KT 090V170 9999 FEW009 OVC010 M02/M03 Q1010=
200602150620 METAR ESMX 150620Z 14007KT 100V170 9999 FEW009 OVC011 M02/M03 Q1011=
200602150550 METAR ESMX 150550Z 14008KT 110V170 9999 OVC008 M02/M03 Q1011 RESN=
200602150520 METAR ESMX 150520Z 14007KT 110V170 9999 BKN008 M02/M03 Q1012=
200602150450 METAR ESMX 150450Z 15006KT 110V170 9999 FEW007 BKN008 M02/M03 Q1012=
200602150420 METAR ESMX 150420Z AUTO 13005KT 090V170 9999 SG OVC006 M02/M03 Q1012=
200602150350 METAR ESMX 150350Z AUTO 14005KT 080V190 4000 SG OVC005 M02/M03 Q1013=
200602150320 METAR ESMX 150320Z AUTO 15005KT 110V170 3000 -SN OVC005 M03/M03 Q1013=
200602150250 METAR ESMX 150250Z AUTO 16007KT 120V190 2800 SG OVC003 M03/M03 Q1014=
200602150220 METAR ESMX 150220Z AUTO 16007KT 110V180 9999 OVC003 M03/M04 Q1014=
200602150150 METAR ESMX 150150Z AUTO 16009KT 120V200 9999 OVC004 M03/M04 Q1015=
200602150120 METAR ESMX 150120Z AUTO 14007KT 090V190 9999 OVC004 M03/M04 Q1015=
200602150020 METAR ESMX 150020Z 16008KT 120V190 9999 BKN004 M03/M03 Q1015 RESN=
200602142350 METAR ESMX 142350Z 15006KT 090V190 9999 -SN OVC007 M02/M03 Q1016=
200602142320 METAR ESMX 142320Z 15005KT 5000 -SN FEW007 OVC008 M02/M03 Q1017=
200602142250 METAR ESMX 142250Z 16005KT 120V190 9999 -SN FEW005 SCT007 BKN009 M02/M03 Q1017=
200602142220 METAR ESMX 142220Z 16004KT 7000 -SN SCT006 BKN009 M02/M03 Q1017=
200602142150 METAR ESMX 142150Z 16005KT 130V190 4500 -SN BKN006 M02/M03 Q1018=
200602142120 METAR ESMX 142120Z 17009KT 9999 BKN006 M02/M03 Q1018=
200602142050 METAR ESMX 142050Z 16006KT 110V190 9999 BKN007 M01/M03 Q1018=
200602142020 METAR ESMX 142020Z 16004KT 120V200 9999 FEW005 SCT007 BKN009 M02/M02 Q1018=
200602141950 METAR ESMX 141950Z 17004KT 9999 FEW005 SCT007 BKN009 M02/M02 Q1018=
200602141920 METAR ESMX 141920Z 17004KT 9999 BKN004 M02/M02 Q1018=
200602141850 METAR ESMX 141850Z VRB03KT 9999 BKN005 M02/M03 Q1019=
200602141820 METAR ESMX 141820Z VRB02KT 9999 SCT007 BKN022 M03/M03 Q1019=
200602141750 METAR ESMX 141750Z VRB02KT 9999 BKN018 M02/M03 Q1019=
200602141720 METAR ESMX 141720Z VRB02KT 9999 OVC018 M02/M03 Q1019=
200602141650 METAR ESMX 141650Z VRB01KT 9999 OVC017 M02/M03 Q1019=
200602141620 METAR ESMX 141620Z VRB03KT 9999 BKN016 M02/M03 Q1019=
200602141550 METAR ESMX 141550Z 23004KT 9999 SCT016 M02/M03 Q1019=
200602141520 METAR ESMX 141520Z 00000KT CAVOK 00/M02 Q1019=
200602141450 METAR ESMX 141450Z 00000KT CAVOK 01/M02 Q1019=
200602141420 METAR ESMX 141420Z VRB01KT CAVOK 01/M02 Q1019=
200602141350 METAR ESMX 141350Z VRB01KT CAVOK 01/M02 Q1020=
200602141320 METAR ESMX 141320Z VRB02KT CAVOK 00/M02 Q1020=
200602141250 METAR ESMX 141250Z VRB01KT 9999 FEW 1000 01/M02 Q1020=
200602141220 METAR ESMX 141220Z VRB02KT 9999 SCT007 00/M02 Q1020=
200602141150 METAR ESMX 141150Z VRB02KT 9999 BKN007 00/M02 Q1020=
200602141120 METAR ESMX 141120Z VRB02KT 9999 OVC006 M00/M02 Q1021=
200602141050 METAR ESMX 141050Z VRB03KT 9999 OVC006 M01/M02 Q1021=
200602141020 METAR ESMX 141020Z 07004KT 010V100 9999 BKN005 M01/M02 Q1021=
200602140950 METAR ESMX 140950Z 01004KT 9999 BKN004 M01/M02 Q1021=
200602140920 METAR ESMX 140920Z 36005KT 9999 BR BKN001 OVC004 M02/M02 Q1021=
200602140850 METAR ESMX 140850Z 34004KT 1300 R19/P1500U BR OVC001 M02/M02 Q1021=
200602140820 METAR ESMX 140820Z 36005KT 3000 BR OVC001 M02/M02 Q1021=
200602140750 METAR ESMX 140750Z 02005KT 2200 BR OVC001 M02/M02 Q1021=
200602140720 METAR ESMX 140720Z 33004KT 310V010 2600 BR OVC001 M02/M02 Q1020=
200602140650 METAR ESMX 140650Z 01005KT 320V030 5000 BR OVC002 M02/M02 Q1020=
200602140620 METAR ESMX 140620Z 33005KT 6000 BR OVC002 M02/M02 Q1020=
200602140550 METAR ESMX 140550Z 32005KT 5000 BR OVC002 M02/M02 Q1020=
200602140520 METAR ESMX 140520Z 02005KT 7000 BR OVC002 M02/M02 Q1020=
200602140450 METAR ESMX 140450Z 35005KT 9000 BR OVC002 M02/M02 Q1020=
200602140420 METAR ESMX 140420Z AUTO 35004KT 9000 OVC002 M02/M02 Q1019=
200602140350 METAR ESMX 140350Z AUTO 01006KT 9999 OVC003 M01/M02 Q1019=
200602140320 METAR ESMX 140320Z AUTO 34005KT 9999 OVC004 M01/M02 Q1019=
200602140250 METAR ESMX 140250Z AUTO 34005KT 9999 OVC004 M01/M02 Q1019=
200602140220 METAR ESMX 140220Z AUTO 32005KT 9999 OVC005 M01/M01 Q1019=
200602140150 METAR ESMX 140150Z AUTO 32006KT 9999 OVC005 M01/M01 Q1019=
200602140120 METAR ESMX 140120Z 34007KT 9999 BKN005 M00/M01 Q1019=
200602140050 METAR ESMX 140050Z 32007KT 9999 BKN005 M00/M01 Q1019=
200602140020 METAR ESMX 140020Z 32005KT 9999 BKN006 M00/M01 Q1019=
200602132350 METAR ESMX 132350Z 32006KT 9999 BKN006 00/M01 Q1019=
200602132320 METAR ESMX 132320Z 31006KT 9999 OVC006 00/M01 Q1019=
200602132250 METAR ESMX 132250Z 30007KT 280V340 9999 BKN005 00/M01 Q1019=
200602132220 METAR ESMX 132220Z 30007KT 9999 BKN005 00/M00 Q1019=
200602132150 METAR ESMX 132150Z 30005KT 9999 FEW007 BKN038 00/M01 Q1018=
200602132120 METAR ESMX 132120Z 28004KT 9999 FEW007 BKN039 M00/M01 Q1018=
200602132050 METAR ESMX 132050Z 30006KT 9999 FEW005 BKN007 00/M00 Q1018=
200602132020 METAR ESMX 132020Z 30008KT 280V350 9999 BKN005 00/M00 Q1018=
200602131950 METAR ESMX 131950Z 28004KT 8000 BR FEW003 SCT005 00/M00 Q1018=
200602131920 METAR ESMX 131920Z 28004KT 7000 BR FEW002 SCT004 BKN006 01/01 Q1018=
200602131850 METAR ESMX 131850Z 29005KT 260V320 2000 BR OVC002 01/01 Q1018=
200602131820 METAR ESMX 131820Z 28005KT 250V320 1500 BR OVC002 01/01 Q1018=
200602131750 METAR ESMX 131750Z 27004KT 3000 BR OVC002 01/01 Q1018=
200602131720 METAR ESMX 131720Z 29005KT 250V320 2900 BR OVC002 01/00 Q1018=
200602131650 METAR ESMX 131650Z 27005KT 210V320 1400 R01/P1500N R19/P1500N BR OVC002 00/00 Q1018=
200602131620 METAR ESMX 131620Z 26004KT 220V300 1100 R01/P1500N R19/P1500N BR OVC002 00/00 Q1018=
200602131550 METAR ESMX 131550Z 26005KT 220V300 1500 BR BKN002 00/00 Q1018=
200602131520 METAR ESMX 131520Z 27006KT 240V300 1800 BR OVC002 00/00 Q1018=
200602131450 METAR ESMX 131450Z 25005KT 200V280 2200 BR OVC002 00/M00 Q1018=
200602131420 METAR ESMX 131420Z 24006KT 3300 BR OVC002 00/M00 Q1018=
200602131350 METAR ESMX 131350Z 23005KT 3300 BR OVC002 00/M00 Q1018=
200602131320 METAR ESMX 131320Z 26006KT 4600 BR BKN003 M00/M01 Q1018=
200602131250 METAR ESMX 131250Z 25006KT 5000 BR OVC004 M00/M01 Q1019=
200602131220 METAR ESMX 131220Z 26005KT 5000 BR BKN004 M00/M01 Q1019=
200602131150 METAR ESMX 131150Z 25005KT 5000 BR BKN004 M01/M01 Q1019=
200602131120 METAR ESMX 131120Z 24004KT 210V270 5000 BR OVC003 M01/M02 Q1019=
200602131050 METAR ESMX 131050Z VRB03KT 6000 BR OVC003 M02/M02 Q1019=
200602131020 METAR ESMX 131020Z VRB03KT 6000 BR BKN004 M02/M03 Q1019=
200602130950 METAR ESMX 130950Z VRB03KT 8000 BR BKN004 M03/M03 Q1019=
200602130920 METAR ESMX 130920Z 23004KT 9999 OVC004 M03/M04 Q1019=
200602130850 METAR ESMX 130850Z VRB03KT 9999 BKN005 M03/M04 Q1019=
200602130820 METAR ESMX 130820Z VRB02KT 9999 BKN005 M04/M05 Q1020=
200602130750 METAR ESMX 130750Z VRB02KT 9999 OVC030 M04/M05 Q1020=
200602130720 METAR ESMX 130720Z VRB03KT 9999 BKN031 M04/M05 Q1020=
200602130650 METAR ESMX 130650Z VRB01KT 9999 FEW028 OVC032 M05/M05 Q1020=
200602130620 METAR ESMX 130620Z VRB02KT 9999 SCT024 OVC029 M05/M05 Q1020=
200602130550 METAR ESMX 130550Z VRB02KT 9999 BKN022 OVC030 M05/M06 Q1020=
200602130520 METAR ESMX 130520Z VRB02KT 9999 BKN024 M05/M06 Q1020=
200602130450 METAR ESMX 130450Z VRB03KT 9999 -SN BKN022 M05/M06 Q1020=
200602130420 METAR ESMX 130420Z AUTO VRB03KT 9999 OVC022 M06/M06 Q1020=
200602130350 METAR ESMX 130350Z AUTO 25005KT 210V290 9999 OVC020 M06/M06 Q1020=
200602130320 METAR ESMX 130320Z AUTO 23005KT 150V250 9999 OVC020 M05/M06 Q1020=
200602130250 METAR ESMX 130250Z AUTO VRB02KT 9999 OVC020 M05/M06 Q1020=
200602130220 METAR ESMX 130220Z AUTO 25005KT 9999 OVC020 M05/M06 Q1020=
200602130150 METAR ESMX 130150Z AUTO 26005KT 9999 OVC021 M05/M06 Q1020=
200602130120 METAR ESMX 130120Z VRB02KT 9999 BKN022 M05/M05 Q1020=
200602130050 METAR ESMX 130050Z VRB02KT 9999 BKN022 M05/M05 Q1020=
200602130020 METAR ESMX 130020Z VRB03KT 9999 BKN022 M06/M06 Q1020=
200602122350 METAR ESMX 122350Z VRB03KT 9999 BKN023 M08/M08 Q1020=
200602122320 METAR ESMX 122320Z VRB02KT 9999 BKN024 M07/M08 Q1020=
200602122250 METAR ESMX 122250Z VRB01KT 9999 SCT024 M08/M08 Q1020=
200602122220 METAR ESMX 122220Z VRB01KT 9999 FEW025 M06/M07 Q1020=
200602122150 METAR ESMX 122150Z VRB03KT CAVOK M06/M07 Q1020=
200602122120 METAR ESMX 122120Z VRB03KT CAVOK M05/M06 Q1020=
200602122050 METAR ESMX 122050Z VRB03KT 9999 FEW025 M04/M05 Q1020=
200602122020 METAR ESMX 122020Z VRB03KT 9999 FEW025 M05/M05 Q1020=
200602121950 METAR ESMX 121950Z 28004KT CAVOK M05/M05 Q1020=
200602121920 METAR ESMX 121920Z VRB03KT CAVOK M05/M06 Q1020=
200602121850 METAR ESMX 121850Z VRB02KT 9999 FEW025 M03/M05 Q1020=
200602121820 METAR ESMX 121820Z 27004KT 9999 SCT025 M01/M04 Q1020=
200602121750 METAR ESMX 121750Z VRB03KT 9999 SCT023 M01/M04 Q1020=
200602121720 METAR ESMX 121720Z 30004KT 9999 BKN023 M00/M04 Q1020=
200602121650 METAR ESMX 121650Z 29004KT 9999 BKN023 M00/M03 Q1020=
200602121620 METAR ESMX 121620Z VRB03KT 9999 BKN024 M00/M03 Q1019=
200602121550 METAR ESMX 121550Z 31004KT 9999 BKN022 M00/M04 Q1019=
200602121520 METAR ESMX 121520Z 30006KT 9999 SCT022 01/M03 Q1019=
200602121450 METAR ESMX 121450Z 30005KT 9999 BKN022 01/M03 Q1019=
200602121420 METAR ESMX 121420Z 31005KT 270V360 9999 BKN022 01/M03 Q1019=
200602121350 METAR ESMX 121350Z 30007KT 9999 BKN022 01/M03 Q1019=
200602121320 METAR ESMX 121320Z AUTO 31006KT 260V330 9999 FEW020 OVC023 01/M02 Q1019=
200602121250 METAR ESMX 121250Z AUTO 31006KT 9999 FEW019 OVC021 01/M02 Q1019=
200602121220 METAR ESMX 121220Z AUTO 33006KT 290V360 9999 FEW017 OVC020 01/M02 Q1020=
200602121150 METAR ESMX 121150Z AUTO 30006KT 260V330 9999 FEW017 BKN066 01/M02 Q1020=
200602121120 METAR ESMX 121120Z AUTO 31007KT 280V340 9999 BKN066 BKN082 00/M02 Q1020=
200602121050 METAR ESMX 121050Z AUTO 31008KT 260V340 9999 FEW025 BKN068 00/M02 Q1020=
200602121020 METAR ESMX 121020Z AUTO 31008KT 270V330 9999 BKN070 M00/M02 Q1020=
200602120950 METAR ESMX 120950Z AUTO 31007KT 9999 BKN073 M00/M02 Q1020=
200602120920 METAR ESMX 120920Z AUTO 28005KT 9999 FEW025 BKN085 M01/M02 Q1020=
200602120850 METAR ESMX 120850Z AUTO 30006KT 9999 FEW008 BKN077 M01/M02 Q1020=
200602120820 METAR ESMX 120820Z AUTO 30005KT 260V330 9999 FEW008 BKN080 M01/M03 Q1020=
200602120750 METAR ESMX 120750Z AUTO 27006KT 9999 FEW008 BKN070 M02/M03 Q1020=
200602120720 METAR ESMX 120720Z AUTO 26005KT 230V300 9999 FEW008 BKN046 BKN068 M02/M03 Q1020=
200602120650 METAR ESMX 120650Z AUTO 29005KT 9999 FEW010 SCT048 OVC058 M02/M03 Q1020=
200602120620 METAR ESMX 120620Z AUTO 28004KT 250V320 9999 SCT049 OVC074 M02/M03 Q1020=
200602120550 METAR ESMX 120550Z AUTO 29004KT 9999 FEW052 SCT077 M03/M03 Q1020=
200602120520 METAR ESMX 120520Z AUTO 30005KT 250V330 9999 FEW008 OVC056 M02/M03 Q1020 REDZ=
200602120450 METAR ESMX 120450Z AUTO 27005KT 9000 SCT062 M03/M03 Q1020 RESN=
200602120420 METAR ESMX 120420Z AUTO VRB03KT 5000 -SN FEW007 SCT038 BKN068 M03/M03 Q1020=
200602120350 METAR ESMX 120350Z AUTO VRB03KT 6000 BR SCT064 M03/M04 Q1020=
200602120320 METAR ESMX 120320Z AUTO 25004KT 6000 BR FEW005 M03/M03 Q1020=
200602120250 METAR ESMX 120250Z AUTO VRB03KT 6000 BR OVC003 M03/M03 Q1021=
200602120220 METAR ESMX 120220Z AUTO 27004KT 6000 BR OVC003 M03/M03 Q1021=
200602120150 METAR ESMX 120150Z AUTO 26004KT 7000 BR OVC003 M03/M04 Q1021=
200602120120 METAR ESMX 120120Z AUTO 26006KT 9000 OVC003 M03/M04 Q1021=
200602120050 METAR ESMX 120050Z AUTO 26005KT 230V300 9999 OVC004 M04/M04 Q1022=
200602120020 METAR ESMX 120020Z AUTO 27006KT 9999 OVC005 M04/M05 Q1022=
200602112350 METAR ESMX 112350Z AUTO 27005KT 9999 FEW008 SCT010 OVC029 M04/M05 Q1022=
200602112320 METAR ESMX 112320Z AUTO 26005KT 9999 FEW017 OVC031 M05/M06 Q1022=
200602112250 METAR ESMX 112250Z AUTO 27004KT 250V320 9999 FEW019 OVC029 M06/M07 Q1023=
200602112220 METAR ESMX 112220Z AUTO 25004KT 9999 FEW029 M07/M08 Q1022=
200602112150 METAR ESMX 112150Z AUTO 25004KT 9999 SCT027 M06/M08 Q1023=
200602112120 METAR ESMX 112120Z AUTO 25004KT 9999 BKN026 M07/M08 Q1023=
200602112050 METAR ESMX 112050Z AUTO 25004KT 9999 NSC M07/M08 Q1023=
200602112020 METAR ESMX 112020Z AUTO 25004KT 9999 NSC M06/M08 Q1023=
200602111950 METAR ESMX 111950Z AUTO VRB03KT 9999 NSC M06/M08 Q1023=
200602111920 METAR ESMX 111920Z AUTO VRB03KT 9999 NSC M07/M08 Q1023=
200602111850 METAR ESMX 111850Z AUTO VRB03KT 9999 NSC M07/M08 Q1023=
200602111820 METAR ESMX 111820Z AUTO VRB03KT 9999 NSC M06/M07 Q1024=
200602111750 METAR ESMX 111750Z AUTO VRB02KT 9999 NSC M05/M07 Q1024=
200602111720 METAR ESMX 111720Z AUTO VRB03KT 9999 NSC M05/M07 Q1024=
200602111650 METAR ESMX 111650Z AUTO VRB03KT 9999 NSC M04/M07 Q1023=
200602111620 METAR ESMX 111620Z AUTO 27004KT 9999 NSC M03/M06 Q1023=
200602111550 METAR ESMX 111550Z AUTO VRB03KT 9999 NSC M03/M06 Q1023=
200602111520 METAR ESMX 111520Z AUTO VRB02KT 9999 NSC M02/M07 Q1023=
200602111450 METAR ESMX 111450Z AUTO 27004KT 9999 NSC M01/M07 Q1024=
200602111420 METAR ESMX 111420Z AUTO 29005KT 9999 NSC M01/M06 Q1024=
200602111350 METAR ESMX 111350Z AUTO 30006KT 280V350 9999 NSC M01/M06 Q1024=
200602111320 METAR ESMX 111320Z AUTO 30004KT 260V320 9999 NSC M01/M05 Q1024=
200602111250 METAR ESMX 111250Z AUTO 30005KT 9999 NSC M01/M05 Q1024=
200602111220 METAR ESMX 111220Z AUTO 27005KT 250V320 9999 NSC M01/M05 Q1024=
200602111150 METAR ESMX 111150Z AUTO 29004KT 250V310 9999 NSC M02/M05 Q1024=
200602111120 METAR ESMX 111120Z 27005KT CAVOK M03/M06 Q1024=
200602111050 METAR ESMX 111050Z 28004KT CAVOK M03/M06 Q1024=
200602111020 METAR ESMX 111020Z 28004KT 250V310 CAVOK M05/M06 Q1024=
200602110950 METAR ESMX 110950Z VRB03KT 9999 FEW003 M06/M06 Q1024=
200602110920 METAR ESMX 110920Z 28005KT 9999 BKN003 M06/M07 Q1024=
200602110850 METAR ESMX 110850Z 30005KT 9999 BKN002 M07/M07 Q1024=
200602110820 METAR ESMX 110820Z AUTO VRB03KT 9999 OVC001 M07/M07 Q1024=
200602110750 METAR ESMX 110750Z AUTO 29004KT 4900 BR OVC001 M07/M08 Q1024=
200602110720 METAR ESMX 110720Z AUTO 30004KT 280V340 9999 BR OVC001 M07/M08 Q1024=
200602110650 METAR ESMX 110650Z AUTO 30004KT 9999 OVC002 M07/M08 Q1024=
200602110620 METAR ESMX 110620Z AUTO 30005KT 250V320 9999 OVC002 M07/M08 Q1024=
200602110550 METAR ESMX 110550Z AUTO 29004KT 9999 OVC002 M07/M08 Q1024=
200602110520 METAR ESMX 110520Z AUTO 31005KT 270V330 9999 OVC004 M07/M08 Q1023=
200602110450 METAR ESMX 110450Z AUTO 32004KT 9999 OVC005 M07/M07 Q1023=
200602110420 METAR ESMX 110420Z AUTO VRB03KT 9999 OVC006 M06/M07 Q1023=
200602110350 METAR ESMX 110350Z AUTO 34005KT 9999 OVC006 M07/M08 Q1023=
200602110320 METAR ESMX 110320Z AUTO 35004KT 9999 OVC007 M06/M07 Q1023=
200602110250 METAR ESMX 110250Z AUTO 36005KT 9999 OVC007 M06/M07 Q1023=
200602110220 METAR ESMX 110220Z AUTO 32005KT 9999 OVC008 M06/M07 Q1023=
200602110150 METAR ESMX 110150Z AUTO 34004KT 310V010 9999 OVC009 M05/M07 Q1023=
200602110120 METAR ESMX 110120Z AUTO 34005KT 330V030 9999 OVC009 M05/M07 Q1022=
200602110050 METAR ESMX 110050Z AUTO VRB03KT 9999 OVC009 M05/M06 Q1022=
200602110020 METAR ESMX 110020Z AUTO 03005KT 340V060 9999 OVC010 M05/M06 Q1022=
200602102350 METAR ESMX 102350Z AUTO 36006KT 9999 OVC009 M05/M06 Q1022=
200602102320 METAR ESMX 102320Z AUTO 36004KT 9999 OVC009 M04/M06 Q1022=
200602102250 METAR ESMX 102250Z AUTO 03006KT 350V060 9999 OVC008 M04/M06 Q1022=
200602102220 METAR ESMX 102220Z AUTO 34007KT 9999 OVC008 M04/M05 Q1021=
200602102150 METAR ESMX 102150Z AUTO 35008KT 9999 OVC009 M04/M05 Q1021=
200602102120 METAR ESMX 102120Z AUTO 35008KT 9999 OVC009 M04/M05 Q1021=
200602102050 METAR ESMX 102050Z AUTO 36009KT 9999 OVC010 M03/M05 Q1020=
200602102020 METAR ESMX 102020Z AUTO 34010KT 9999 OVC011 M03/M05 Q1020=
200602101950 METAR ESMX 101950Z AUTO 35009KT 9999 OVC013 M03/M05 Q1020=
200602101920 METAR ESMX 101920Z 01005KT 9999 BKN013 M02/M04 Q1020=
200602101850 METAR ESMX 101850Z 36008KT 9999 BKN013 M02/M04 Q1019=
200602101820 METAR ESMX 101820Z 36006KT 9999 BKN013 M03/M04 Q1019 RESN=
200602101750 METAR ESMX 101750Z 34006KT 8000 -SHSN SCT018 BKN065 M04/M05 Q1019=
200602101720 METAR ESMX 101720Z 35005KT 9000 -SN SCT010 M03/M04 Q1018=
200602101650 METAR ESMX 101650Z 34004KT 6000 -SN FEW011 BKN020 M03/M03 Q1018=
200602101620 METAR ESMX 101620Z 01005KT 4500 -SN FEW013 SCT016 BKN023 M02/M03 Q1018=
200602101550 METAR ESMX 101550Z 01006KT 8000 -SN FEW012 SCT015 BKN017 M02/M03 Q1018=
200602101520 METAR ESMX 101520Z 02006KT 9999 -SN BKN013 M02/M04 Q1017=
200602101450 METAR ESMX 101450Z 02007KT 8000 -SN OVC012 M02/M04 Q1017=
200602101420 METAR ESMX 101420Z 01009KT 9999 -SN OVC009 M02/M04 Q1017=
200602101350 METAR ESMX 101350Z 36009KT 9999 BKN008 M02/M03 Q1016=
200602101320 METAR ESMX 101320Z 01007KT 9999 BKN008 OVC012 M02/M03 Q1016=
200602101250 METAR ESMX 101250Z 36008KT 9000 BR BKN007 M02/M03 Q1016=
200602101220 METAR ESMX 101220Z 02007KT 9999 SCT008 BKN010 M01/M03 Q1015=
200602101150 METAR ESMX 101150Z 36009KT 9000 BR BKN007 M02/M03 Q1015=
200602101120 METAR ESMX 101120Z 01005KT 9999 OVC008 M01/M02 Q1015=
200602101050 METAR ESMX 101050Z 03006KT 360V070 9999 OVC008 M01/M02 Q1015=
200602101020 METAR ESMX 101020Z 01005KT 340V040 9999 BKN008 M01/M02 Q1015=
200602100950 METAR ESMX 100950Z 02006KT 9000 BR BKN008 M01/M02 Q1014=
200602100920 METAR ESMX 100920Z 02006KT 9000 BR OVC007 M01/M02 Q1014=
200602100850 METAR ESMX 100850Z 03006KT 9000 BR OVC007 M01/M02 Q1013=
200602100820 METAR ESMX 100820Z 03007KT 010V070 9999 BR SCT006 BKN009 M01/M02 Q1013=
200602100750 METAR ESMX 100750Z 03006KT 9000 BR BKN008 M01/M02 Q1012=
200602100720 METAR ESMX 100720Z 03007KT 8000 BR FEW005 BKN008 M01/M01 Q1012=
200602100650 METAR ESMX 100650Z 02007KT 9000 BR OVC006 M00/M01 Q1011=
200602100620 METAR ESMX 100620Z 03006KT 360V060 9999 SCT006 OVC010 M00/M01 Q1010=
200602100550 METAR ESMX 100550Z 02006KT 9999 -SHSN FEW006 OVC010 M00/M00 Q1010=
200602100520 METAR ESMX 100520Z 03006KT 340V060 9999 -SHSN FEW007 OVC010 00/M00 Q1009=
200602100450 METAR ESMX 100450Z 04008KT 010V070 8000 -SN FEW007 BKN010 00/M00 Q1009=
200602100420 METAR ESMX 100420Z AUTO 03006KT 9999 -SN FEW005 SCT009 BKN020 00/M00 Q1008=
200602100350 METAR ESMX 100350Z AUTO 04004KT 010V070 3000 -SN BKN002 OVC006 00/00 Q1008=
200602100320 METAR ESMX 100320Z AUTO 03005KT 350V060 0800 R01/P1500N R19/P1500N SN VV005 00/M00 Q1007=
200602100250 METAR ESMX 100250Z AUTO 02004KT 3700 -SN FEW001 SCT021 BKN041 00/M00 Q1007=
200602100220 METAR ESMX 100220Z AUTO 02005KT 360V070 8000 -SN FEW003 SCT037 00/M00 Q1006=
200602100150 METAR ESMX 100150Z AUTO 03004KT 5000 -SN FEW003 BKN035 00/M00 Q1006=
200602100120 METAR ESMX 100120Z AUTO VRB03KT 6000 -SN FEW026 BKN034 00/00 Q1005=
200602100050 METAR ESMX 100050Z VRB03KT 4600 SN SCT005 BKN030 00/00 Q1004=
200602100020 METAR ESMX 100020Z VRB03KT 3000 SN BKN006 00/00 Q1004=
200602092350 METAR ESMX 092350Z 03006KT 6000 -SN OVC005 01/00 Q1003=
200602092320 METAR ESMX 092320Z 02007KT 350V060 5000 -SN OVC004 01/00 Q1003=
200602092250 METAR ESMX 092250Z 02007KT 9000 -SN BKN005 OVC011 01/00 Q1002=
200602092220 METAR ESMX 092220Z 03008KT 360V070 9000 -SN BKN005 BKN009 01/00 Q1002=
200602092150 METAR ESMX 092150Z 02007KT 340V060 7000 -SN SCT005 BKN008 01/00 Q1001=
200602092120 METAR ESMX 092120Z 04007KT 010V070 4800 -SHSN BKN005 BKN017 01/00 Q1000=
200602092050 METAR ESMX 092050Z 04008KT 8000 -SHSN BKN006 01/00 Q1000=
200602092020 METAR ESMX 092020Z 05007KT 020V080 9999 -SHSN SCT008 BKN010 01/00 Q0999=
200602091950 METAR ESMX 091950Z 02008KT 8000 -SN SCT009 BKN011 01/00 Q0999=
200602091920 METAR ESMX 091920Z 05007KT 020V080 9999 SCT008 BKN011 01/00 Q0998=
200602091850 METAR ESMX 091850Z 04007KT 020V080 9999 -SN FEW006 BKN010 01/00 Q0997=
200602091820 METAR ESMX 091820Z 04007KT 5000 -RASN SCT004 BKN006 01/00 Q0997=
200602091750 METAR ESMX 091750Z 04006KT 7000 -RASN FEW004 BKN006 01/00 Q0996=
200602091720 METAR ESMX 091720Z 03006KT 5000 -RASN FEW004 SCT006 BKN008 01/00 Q0995=
200602091650 METAR ESMX 091650Z 05007KT 020V090 6000 -SN BKN005 01/00 Q0995=
200602091620 METAR ESMX 091620Z 05006KT 010V100 7000 -SN SCT005 BKN007 01/00 Q0994=
200602091550 METAR ESMX 091550Z 05006KT 360V080 9999 BKN006 01/00 Q0994=
200602091520 METAR ESMX 091520Z 03007KT 350V080 9999 -RASN FEW005 BKN008 01/00 Q0993=
200602091450 METAR ESMX 091450Z 04007KT 010V070 8000 -RASN BKN006 01/01 Q0993=
200602091420 METAR ESMX 091420Z 04007KT 010V080 9000 -SN FEW006 BKN010 01/00 Q0992=
200602091350 METAR ESMX 091350Z 05007KT 010V080 9999 -RASN BKN008 01/00 Q0992=
200602091320 METAR ESMX 091320Z 05008KT 020V080 9999 BKN007 01/00 Q0991=
200602091250 METAR ESMX 091250Z 06007KT 020V080 9999 FEW006 BKN010 02/01 Q0991=
200602091220 METAR ESMX 091220Z 05007KT 020V090 9999 FEW007 BKN010 01/01 Q0990=
200602091150 METAR ESMX 091150Z 05008KT 020V080 9999 FEW007 BKN010 01/01 Q0990=
200602091120 METAR ESMX 091120Z 05007KT 020V100 9999 -RA FEW008 SCT013 BKN018 01/01 Q0990=
200602091050 METAR ESMX 091050Z 04007KT 010V080 9999 FEW008 SCT010 BKN015 01/01 Q0990=
200602091020 METAR ESMX 091020Z 05007KT 9999 FEW007 SCT014 BKN017 01/01 Q0990=
200602090950 METAR ESMX 090950Z 04007KT 010V070 9999 BKN005 OVC034 01/01 Q0989=
200602090920 METAR ESMX 090920Z 06006KT 020V100 9999 SCT003 BKN034 01/01 Q0989=
200602090850 METAR ESMX 090850Z 05006KT 020V080 4600 -SHRA SCT003 BKN006 OVC030 01/01 Q0989=
200602090820 METAR ESMX 090820Z 06005KT 4500 -SHRASN OVC002 01/01 Q0989=
200602090750 METAR ESMX 090750Z 05006KT 3700 -SHRASN BKN002 BKN003 OVC030 01/01 Q0988=
200602090720 METAR ESMX 090720Z 06006KT 020V080 4200 -SHRA BKN002 OVC005 01/00 Q0988=
200602090650 METAR ESMX 090650Z 05004KT 360V090 4800 BR OVC002 01/01 Q0988=
200602090620 METAR ESMX 090620Z 07005KT 6000 BR BKN002 OVC003 01/01 Q0987=
200602090550 METAR ESMX 090550Z 07004KT 4300 BR BKN002 01/01 Q0987=
200602090520 METAR ESMX 090520Z 07004KT 020V120 4000 BR OVC002 01/01 Q0987=
200602090450 METAR ESMX 090450Z 07005KT 040V110 6000 BR OVC003 01/01 Q0987=
200602090420 METAR ESMX 090420Z AUTO VRB03KT 7000 BR OVC002 01/01 Q0987=
200602090350 METAR ESMX 090350Z AUTO 08004KT 040V140 4500 BR OVC001 01/01 Q0987=
200602090320 METAR ESMX 090320Z AUTO VRB03KT 2900 OVC001 01/01 Q0987 RERA=
200602090250 METAR ESMX 090250Z AUTO VRB03KT 5000 OVC001 00/00 Q0987 RERA=
200602090220 METAR ESMX 090220Z AUTO VRB03KT 1400 R01/P1500N R19/P1500N RA OVC001 00/00 Q0987=
200602090150 METAR ESMX 090150Z VRB02KT 1800 BR OVC001 01/00 Q0987=
200602090120 METAR ESMX 090120Z VRB02KT 3100 BR OVC001 01/00 Q0987=
200602090050 METAR ESMX 090050Z VRB03KT 0550 R19/1300U FG VV002 00/00 Q0987=
200602090020 METAR ESMX 090020Z VRB03KT 0550 R19/P1500N FG VV002 00/00 Q0987=
200602082350 METAR ESMX 082350Z 10004KT 060V130 0450 R19/P1500N FG VV002 00/00 Q0987=
200602082320 METAR ESMX 082320Z VRB03KT 0700 R19/P1500N FG VV002 00/00 Q0987=
200602082250 METAR ESMX 082250Z 12004KT 080V160 0750 R19/P1500N FG OVC001 00/00 Q0987=
200602082220 METAR ESMX 082220Z 12005KT 080V160 0800 R19/P1500N FG VV002 00/00 Q0987=
200602082150 METAR ESMX 082150Z 13004KT 080V160 1200 R19/P1500N BR OVC001 00/00 Q0988=
200602082120 METAR ESMX 082120Z 13004KT 100V190 1100 R19/P1500N -SN BR OVC001 00/00 Q0988=
200602082050 METAR ESMX 082050Z 13005KT 100V170 1200 R19/P1500N -SN BR OVC001 00/00 Q0988=
200602082020 METAR ESMX 082020Z 13004KT 100V170 1200 R19/P1500N -SN BR OVC001 00/00 Q0988=
200602081950 METAR ESMX 081950Z 13005KT 2700 -SN OVC001 00/00 Q0988=
200602081920 METAR ESMX 081920Z 13004KT 2000 -SNRA OVC001 00/00 Q0988=
200602081850 METAR ESMX 081850Z 13004KT 100V170 2500 -SNRA OVC002 00/00 Q0988=
200602081820 METAR ESMX 081820Z 14005KT 2500 -SN OVC003 00/00 Q0988=
200602081750 METAR ESMX 081750Z 13004KT 090V170 3800 -SN OVC003 00/00 Q0988=
200602081720 METAR ESMX 081720Z 13004KT 080V170 4500 -SN OVC003 00/00 Q0988=
200602081650 METAR ESMX 081650Z 12005KT 070V190 2200 -SN OVC003 00/00 Q0988=
200602081620 METAR ESMX 081620Z 11005KT 070V190 2900 -SN OVC003 00/M00 Q0988=
200602081550 METAR ESMX 081550Z 11005KT 070V150 2800 -SN OVC003 00/M00 Q0988=
200602081520 METAR ESMX 081520Z 12006KT 070V170 2300 -SN OVC003 00/M00 Q0988=
200602081450 METAR ESMX 081450Z 12005KT 060V160 2400 -SHSN BR OVC002 00/M00 Q0988=
200602081420 METAR ESMX 081420Z 13006KT 080V180 2400 -SHSN OVC002 00/M00 Q0988=
200602081350 METAR ESMX 081350Z 13006KT 080V170 3000 -SN BKN002 00/M00 Q0989=
200602081320 METAR ESMX 081320Z 13007KT 100V160 6000 OVC003 M00/M00 Q0989=
200602081250 METAR ESMX 081250Z 12007KT 070V150 6000 OVC004 M00/M00 Q0989=
200602081220 METAR ESMX 081220Z 13007KT 080V170 6000 -SN OVC004 M00/M01 Q0990=
200602081150 METAR ESMX 081150Z 13008KT 090V160 5000 -SN BKN004 M00/M01 Q0990=
200602081120 METAR ESMX 081120Z 14007KT 100V170 4500 BR BKN004 M00/M01 Q0991=
200602081050 METAR ESMX 081050Z 13008KT 080V170 7000 -FZDZ BKN005 M00/M01 Q0991=
200602081020 METAR ESMX 081020Z 14008KT 080V190 3000 -FZDZ OVC005 M00/M01 Q0991=
200602080950 METAR ESMX 080950Z 13008KT 080V160 3900 -SN OVC005 M01/M01 Q0992=
200602080920 METAR ESMX 080920Z 15008KT 110V200 3700 -SN OVC004 M01/M01 Q0992=
200602080850 METAR ESMX 080850Z 15007KT 110V200 3800 -SN FEW004 BKN006 M01/M01 Q0992=
200602080820 METAR ESMX 080820Z 15007KT 120V200 3400 -SN OVC005 M01/M02 Q0993=
200602080750 METAR ESMX 080750Z 13006KT 090V170 3200 -SN FEW005 BKN006 M01/M02 Q0993=
200602080720 METAR ESMX 080720Z 13009KT 090V190 2200 -SN BKN006 M01/M02 Q0993=
200602080650 METAR ESMX 080650Z 14007KT 090V180 5000 -SN BKN005 M01/M02 Q0994=
200602080620 METAR ESMX 080620Z 14006KT 080V190 2000 SN FEW005 SCT006 BKN007 M01/M02 Q0994=
200602080550 METAR ESMX 080550Z 14007KT 100V190 1500 SN FEW005 BKN006 M01/M02 Q0994=
200602080520 METAR ESMX 080520Z 14007KT 090V180 1900 -SN FEW004 OVC006 M01/M02 Q0995=
200602080450 METAR ESMX 080450Z 14006KT 080V190 1900 -SN SCT005 BKN007 M01/M01 Q0995=
200602080420 METAR ESMX 080420Z AUTO 14008KT 100V180 1600 -SN SCT001 BKN003 OVC005 M01/M01 Q0996=
200602080350 METAR ESMX 080350Z AUTO 15007KT 090V190 1100 R01/P1500N R19/P1500N -SN OVC001 M01/M01 Q0997=
200602080320 METAR ESMX 080320Z AUTO 16007KT 110V180 1400 R01/P1500N R19/P1500N BR OVC001 M01/M01 Q0997=
200602080250 METAR ESMX 080250Z AUTO 15007KT 4400 BR OVC002 M01/M01 Q0998=
200602080220 METAR ESMX 080220Z AUTO 15006KT 110V190 8000 BR OVC004 M01/M02 Q0998=
200602080150 METAR ESMX 080150Z AUTO 15005KT 110V180 9999 OVC005 M01/M02 Q0999=
200602080120 METAR ESMX 080120Z AUTO 16005KT 120V190 9999 OVC005 M01/M02 Q0999=
200602080050 METAR ESMX 080050Z 17005KT 9999 OVC005 M01/M02 Q1000=
200602080020 METAR ESMX 080020Z 16004KT 9999 BKN006 OVC009 M01/M02 Q1000=
200602072350 METAR ESMX 072350Z 15004KT 110V170 9999 SCT006 BKN009 OVC013 M01/M02 Q1000=
200602072320 METAR ESMX 072320Z VRB03KT 9999 FEW006 OVC011 M01/M02 Q1000=
200602072250 METAR ESMX 072250Z VRB03KT 9999 FEW006 OVC012 M01/M02 Q1001=
200602072220 METAR ESMX 072220Z VRB02KT 9999 OVC010 M01/M02 Q1001=
200602072150 METAR ESMX 072150Z VRB02KT 9999 FEW007 OVC012 M01/M02 Q1001=
200602072120 METAR ESMX 072120Z VRB01KT 9999 FEW008 OVC015 M01/M02 Q1002=
200602072050 METAR ESMX 072050Z 00000KT 9999 OVC008 M01/M02 Q1002=
200602072020 METAR ESMX 072020Z 00000KT 9999 OVC007 M01/M02 Q1002=
200602071950 METAR ESMX 071950Z VRB02KT 9999 OVC008 M01/M02 Q1002=
200602071920 METAR ESMX 071920Z VRB02KT 9999 OVC008 M01/M02 Q1002=
200602071850 METAR ESMX 071850Z VRB03KT 9999 BKN008 OVC019 M01/M02 Q1002=
200602071820 METAR ESMX 071820Z 02003KT 9999 BKN009 BKN019 M01/M02 Q1002=
200602071750 METAR ESMX 071750Z 01004KT 9999 BKN010 BKN019 M01/M02 Q1002=
200602071720 METAR ESMX 071720Z 36005KT 9999 SCT011 BKN019 M01/M02 Q1002=
200602071650 METAR ESMX 071650Z 32004KT 9999 BKN018 M00/M02 Q1002=
200602071620 METAR ESMX 071620Z 30004KT 9999 BKN018 M00/M02 Q1002=
200602071550 METAR ESMX 071550Z 31004KT 9999 BKN019 M00/M02 Q1001=
200602071520 METAR ESMX 071520Z 32004KT 9999 SCT015 BKN018 M00/M02 Q1001=
200602071450 METAR ESMX 071450Z 36007KT 9999 FEW010 BKN014 M00/M03 Q1001=
200602071420 METAR ESMX 071420Z 01010KT 9999 BKN011 M00/M02 Q1001=
200602071350 METAR ESMX 071350Z 34008KT 9999 BKN011 00/M02 Q1001=
200602071320 METAR ESMX 071320Z 34008KT 9999 BKN011 00/M02 Q1000=
200602071250 METAR ESMX 071250Z 35010KT 9999 BKN012 00/M02 Q1000=
200602071220 METAR ESMX 071220Z 01013KT 9999 BKN012 00/M02 Q1000=
200602071150 METAR ESMX 071150Z 36007KT 9999 FEW009 SCT013 BKN015 00/M02 Q1000=
200602071120 METAR ESMX 071120Z 35011KT 9999 BKN007 M00/M02 Q1000=
200602071050 METAR ESMX 071050Z 35013KT 9999 BKN006 00/M01 Q0999=
200602071020 METAR ESMX 071020Z 34013KT 9999 BKN007 00/M01 Q0999=
200602070950 METAR ESMX 070950Z 36012KT 310V020 9999 BKN006 01/M00 Q0999=
200602070920 METAR ESMX 070920Z 33011KT 290V350 9999 BKN007 01/M00 Q0998=
200602070850 METAR ESMX 070850Z 32012KT 9999 BKN007 01/00 Q0998=
200602070820 METAR ESMX 070820Z 31009KT 270V360 9999 BKN006 01/01 Q0997=
200602070750 METAR ESMX 070750Z 29008KT 9999 BKN005 01/01 Q0997=
200602070720 METAR ESMX 070720Z 30007KT 270V340 9999 BKN005 02/01 Q0997=
200602070650 METAR ESMX 070650Z 32010KT 9999 BKN005 02/01 Q0996=
200602070620 METAR ESMX 070620Z 31010KT 9999 BKN007 02/01 Q0996=
200602070550 METAR ESMX 070550Z 30009KT 9999 BKN007 02/01 Q0996=
200602070520 METAR ESMX 070520Z 30009KT 270V330 9999 BKN008 02/01 Q0996=
200602070450 METAR ESMX 070450Z 30010KT 260V330 9999 BKN007 02/01 Q0996=
200602070420 METAR ESMX 070420Z AUTO 30011KT 270V330 9999 FEW007 OVC008 03/02 Q0996=
200602070350 METAR ESMX 070350Z AUTO 27009KT 9999 FEW006 OVC008 03/02 Q0996=
200602070320 METAR ESMX 070320Z AUTO 29009KT 250V320 9999 FEW007 OVC008 03/02 Q0996=
200602070250 METAR ESMX 070250Z AUTO 28007KT 240V300 9999 FEW006 BKN008 OVC010 03/02 Q0996=
200602070220 METAR ESMX 070220Z AUTO 29008KT 9999 FEW006 SCT008 OVC010 03/03 Q0996=
200602070150 METAR ESMX 070150Z AUTO 29007KT 250V320 9999 FEW005 SCT006 BKN007 03/03 Q0997=
200602070120 METAR ESMX 070120Z 27009KT 9999 FEW003 SCT004 OVC005 03/03 Q0997=
200602070020 METAR ESMX 070020Z 28007KT 4000 BR OVC002 03/02 Q0997=
200602062350 METAR ESMX 062350Z 27005KT 2000 BR OVC002 02/02 Q0998=
200602062320 METAR ESMX 062320Z 25005KT 1500 -SG OVC002 02/02 Q0998=
200602062250 METAR ESMX 062250Z 23005KT 1700 BR OVC002 01/01 Q0999=
200602062220 METAR ESMX 062220Z 23006KT 1400 R01/P1500N R19/P1500N SG OVC002 01/01 Q0999=
200602062150 METAR ESMX 062150Z 22005KT 1500 R01/P1500N R19/P1500N SG OVC002 01/01 Q1000 RESN=
200602062120 METAR ESMX 062120Z 22007KT 2500 -SG OVC002 01/00 Q1000=
200602062050 METAR ESMX 062050Z 20008KT 6000 -SG OVC002 00/00 Q1001=
200602062020 METAR ESMX 062020Z 19008KT 5000 -SN OVC002 00/M00 Q1002=
200602061950 METAR ESMX 061950Z 21010KT 3100 -SN OVC002 M00/M00 Q1003=
200602061920 METAR ESMX 061920Z 20009KT 3100 -SN OVC002 M01/M01 Q1004=
200602061850 METAR ESMX 061850Z 19010KT 4300 -SN OVC003 M01/M01 Q1004=
200602061820 METAR ESMX 061820Z 19011KT 4800 SG OVC003 M02/M02 Q1005=
200602061750 METAR ESMX 061750Z 18011KT 3000 SN BKN006 OVC010 M02/M03 Q1006=
200602061720 METAR ESMX 061720Z 18012KT 2000 SN FEW006 SCT015 M02/M03 Q1007=
200602061650 METAR ESMX 061650Z 18012KT 1000 R01/P1500N R19/P1500N SN FEW007 M02/M03 Q1008=
200602061620 METAR ESMX 061620Z 19012KT 1100 R01/P1500N R19/P1500N SN FEW008 M02/M03 Q1009=
200602061550 METAR ESMX 061550Z 18013KT 0750 R01/P1500N R19/P1500N SN SCT008 M02/M03 Q1009=
200602061520 METAR ESMX 061520Z 18013KT 0800 R01/1400U R19/0500VP1500N SN FEW008 M02/M03 Q1010=
200602061450 METAR ESMX 061450Z 18015KT 1300 R01/P1500N R19/P1500D SN FEW008 M02/M03 Q1011=
200602061420 METAR ESMX 061420Z 17012KT 1500 SN FEW007 SCT010 M02/M03 Q1012=
200602061350 METAR ESMX 061350Z 17013KT 1600 SN SCT008 M03/M03 Q1013=
200602061320 METAR ESMX 061320Z 17012KT 1100 R01/1300U R19/1200N SN SCT008 M03/M03 Q1013=
200602061250 METAR ESMX 061250Z 18012KT 1400 R01/P1500U R19/1400N SN BKN008 M03/M04 Q1014=
200602061220 METAR ESMX 061220Z 17011KT 1200 R01/1000VP1500D R19/0375V1400D SN BKN010 M03/M04 Q1015=
200602061120 METAR ESMX 061120Z 17011KT 140V200 1900 -SN FEW007 M03/M04 Q1017=
200602061050 METAR ESMX 061050Z 18010KT 2300 -SN FEW008 SCT013 M04/M05 Q1017=
200602061020 METAR ESMX 061020Z 16011KT 140V200 2900 -SN FEW009 SCT028 BKN150 M04/M05 Q1018=
200602060950 METAR ESMX 060950Z 18010KT 3300 -SN FEW010 BKN150 M04/M05 Q1018=
200602060920 METAR ESMX 060920Z 18010KT 3400 -SN FEW010 BKN150 M05/M06 Q1019=
200602060850 METAR ESMX 060850Z 16010KT 4200 -SN SCT010 OVC150 M05/M06 Q1019=
200602060820 METAR ESMX 060820Z 17008KT 5000 -SN NSC M05/M06 Q1020=
200602060750 METAR ESMX 060750Z 16008KT 3600 -SN FEW010 BKN150 M06/M07 Q1020=
200602060720 METAR ESMX 060720Z 16006KT 4100 -SN NSC M07/M08 Q1021=
200602060650 METAR ESMX 060650Z 16006KT 4000 -SN FEW009 M07/M08 Q1021=
200602060620 METAR ESMX 060620Z 15007KT 3300 -SN FEW008 BKN120 M08/M09 Q1022=
200602060550 METAR ESMX 060550Z 16006KT 3000 -SN SCT019 BKN120 M08/M09 Q1022=
200602060520 METAR ESMX 060520Z 15005KT 7000 -SN SCT005 BKN014 M09/M10 Q1023=
200602060450 METAR ESMX 060450Z 15005KT 9999 BKN005 M09/M11 Q1023=
200602060420 METAR ESMX 060420Z AUTO 16005KT 9999 OVC004 M09/M11 Q1024=
200602060350 METAR ESMX 060350Z AUTO 16005KT 9999 OVC004 M09/M12 Q1024=
200602060320 METAR ESMX 060320Z AUTO 16004KT 9999 OVC005 M10/M12 Q1025=
200602060250 METAR ESMX 060250Z AUTO 15004KT 9999 OVC005 M10/M13 Q1025=
200602060220 METAR ESMX 060220Z AUTO 16004KT 9999 OVC006 M10/M13 Q1025=
200602060150 METAR ESMX 060150Z 15004KT 120V190 9999 OVC007 M11/M12 Q1026=
200602060120 METAR ESMX 060120Z VRB01KT 9999 BKN008 M11/M13 Q1026=
200602060050 METAR ESMX 060050Z VRB01KT 9999 -SHSN BKN008 M12/M13 Q1026=
200602052350 METAR ESMX 052350Z VRB01KT 9999 BKN011 M13/M14 Q1027=
200602052320 METAR ESMX 052320Z 00000KT 9999 BKN012 M14/M15 Q1027=
200602052250 METAR ESMX 052250Z VRB01KT 9999 BKN018 M14/M16 Q1027=
200602052220 METAR ESMX 052220Z 00000KT 9999 BKN017 M15/M16 Q1027=
200602052150 METAR ESMX 052150Z 00000KT 9999 SCT019 M16/M17 Q1028=
200602052120 METAR ESMX 052120Z 00000KT 9999 FEW021 M17/M18 Q1028=
200602052050 METAR ESMX 052050Z 00000KT 9999 FEW025 M16/M18 Q1028=
200602052020 METAR ESMX 052020Z 00000KT 9999 FEW025 M16/M17 Q1028=
200602051950 METAR ESMX 051950Z 00000KT 9999 FEW025 M16/M17 Q1028=
200602051920 METAR ESMX 051920Z 00000KT CAVOK M16/M17 Q1028=
200602051850 METAR ESMX 051850Z 00000KT CAVOK M15/M16 Q1028=
200602051820 METAR ESMX 051820Z VRB01KT CAVOK M15/M16 Q1028=
200602051750 METAR ESMX 051750Z VRB01KT CAVOK M14/M15 Q1028=
200602051720 METAR ESMX 051720Z VRB01KT CAVOK M14/M15 Q1028=
200602051650 METAR ESMX 051650Z VRB01KT CAVOK M13/M14 Q1028=
200602051620 METAR ESMX 051620Z VRB01KT CAVOK M12/M13 Q1028=
200602051550 METAR ESMX 051550Z 00000KT 9999 FEW020 M11/M12 Q1028=
200602051520 METAR ESMX 051520Z VRB03KT 9999 FEW016 M08/M12 Q1029=
200602051450 METAR ESMX 051450Z VRB02KT 9999 FEW022 M07/M12 Q1029=
200602051420 METAR ESMX 051420Z VRB02KT 9999 SCT030 M07/M12 Q1029=
200602051350 METAR ESMX 051350Z VRB01KT CAVOK M07/M12 Q1029=
200602051320 METAR ESMX 051320Z AUTO VRB01KT 9999 NSC M06/M12 Q1029=
200602051250 METAR ESMX 051250Z AUTO VRB03KT 9999 FEW030 M07/M12 Q1029=
200602051220 METAR ESMX 051220Z AUTO VRB02KT 9999 NSC M07/M12 Q1029=
200602051150 METAR ESMX 051150Z AUTO VRB03KT 9999 FEW020 M07/M12 Q1029=
200602051120 METAR ESMX 051120Z AUTO VRB02KT 9999 FEW022 SCT025 BKN030 M07/M11 Q1029=
200602051050 METAR ESMX 051050Z AUTO VRB02KT 9999 BKN035 M09/M12 Q1030=
200602051020 METAR ESMX 051020Z AUTO VRB03KT 9999 NSC M09/M12 Q1030=
200602050950 METAR ESMX 050950Z AUTO VRB02KT 9999 NSC M11/M12 Q1030=
200602050920 METAR ESMX 050920Z AUTO VRB01KT 9999 NSC M11/M12 Q1030=
200602050850 METAR ESMX 050850Z AUTO 00000KT 9999 NSC M10/M11 Q1030 RESN=
200602050820 METAR ESMX 050820Z AUTO 00000KT 9000 NSC M11/M12 Q1030 RESN=
200602050750 METAR ESMX 050750Z AUTO 00000KT 7000 IC NSC M12/M13 Q1030=
200602050720 METAR ESMX 050720Z AUTO 00000KT 5000 -SN NSC M12/M13 Q1030=
200602050650 METAR ESMX 050650Z AUTO VRB01KT 4700 -SN NSC M11/M12 Q1029=
200602050620 METAR ESMX 050620Z AUTO VRB02KT 3600 -SN NSC M11/M12 Q1030=
200602050550 METAR ESMX 050550Z AUTO VRB01KT 2300 -SN NSC M11/M12 Q1030=
200602050520 METAR ESMX 050520Z AUTO VRB01KT 2200 -SN FEW005 M11/M12 Q1030=
200602050450 METAR ESMX 050450Z AUTO 00000KT 2500 -SN NSC M11/M12 Q1030=
200602050420 METAR ESMX 050420Z AUTO 00000KT 1900 -SN NSC M11/M13 Q1030=
200602050350 METAR ESMX 050350Z AUTO 00000KT 2800 -SN VV023 M12/M13 Q1030=
200602050320 METAR ESMX 050320Z AUTO 00000KT 3700 -SN FEW036 M12/M13 Q1030=
200602050250 METAR ESMX 050250Z AUTO VRB01KT 5000 -SN FEW035 SCT041 M12/M13 Q1030=
200602050220 METAR ESMX 050220Z AUTO 00000KT 5000 -SN FEW039 M12/M13 Q1030=
200602050150 METAR ESMX 050150Z AUTO 00000KT 9999 FEW044 M12/M14 Q1031=
200602050120 METAR ESMX 050120Z AUTO 00000KT 9999 FEW045 M12/M14 Q1031=
200602050050 METAR ESMX 050050Z AUTO 00000KT 9999 NSC M12/M14 Q1031=
200602050020 METAR ESMX 050020Z AUTO 00000KT 9999 NSC M13/M14 Q1031=
200602042350 METAR ESMX 042350Z AUTO 00000KT 9999 NSC M13/M15 Q1031=
200602042320 METAR ESMX 042320Z AUTO VRB01KT 9999 NSC M14/M15 Q1031=
200602042250 METAR ESMX 042250Z AUTO 00000KT 9999 NSC M14/M15 Q1031=
200602042220 METAR ESMX 042220Z AUTO 00000KT 9999 NSC M14/M16 Q1031=
200602042150 METAR ESMX 042150Z AUTO VRB01KT 9999 NSC M15/M16 Q1031=
200602042120 METAR ESMX 042120Z AUTO 00000KT 9999 NSC M15/M17 Q1031=
200602042050 METAR ESMX 042050Z AUTO 00000KT 9999 NSC M16/M17 Q1031=
200602042020 METAR ESMX 042020Z AUTO VRB01KT 9999 NSC M16/M17 Q1031=
200602041950 METAR ESMX 041950Z AUTO 00000KT 9999 NSC M16/M17 Q1031=
200602041920 METAR ESMX 041920Z AUTO VRB01KT 9000 BR NSC M15/M16 Q1031=
200602041850 METAR ESMX 041850Z AUTO 00000KT 9000 BR NSC M15/M16 Q1031=
200602041820 METAR ESMX 041820Z AUTO VRB01KT 9000 BR NSC M14/M15 Q1031=
200602041750 METAR ESMX 041750Z AUTO VRB01KT 9000 BR NSC M14/M14 Q1031=
200602041720 METAR ESMX 041720Z AUTO 00000KT 9000 BR NSC M13/M14 Q1031=
200602041650 METAR ESMX 041650Z AUTO 00000KT 9999 NSC M12/M13 Q1030=
200602041620 METAR ESMX 041620Z AUTO VRB01KT 9999 NSC M10/M13 Q1030=
200602041550 METAR ESMX 041550Z AUTO VRB02KT 9999 NSC M09/M12 Q1030=
200602041520 METAR ESMX 041520Z AUTO 34004KT 9999 NSC M09/M12 Q1030=
200602041450 METAR ESMX 041450Z AUTO 35006KT 9999 NSC M08/M12 Q1030=
200602041420 METAR ESMX 041420Z AUTO 36005KT 9999 NSC M08/M12 Q1030=
200602041350 METAR ESMX 041350Z AUTO 34004KT 9999 NSC M07/M12 Q1030=
200602041320 METAR ESMX 041320Z AUTO 34005KT 9999 NSC M07/M12 Q1030=
200602041250 METAR ESMX 041250Z AUTO 01005KT 9999 NSC M07/M12 Q1029=
200602041220 METAR ESMX 041220Z AUTO 01006KT 9999 NSC M07/M12 Q1030=
200602041150 METAR ESMX 041150Z AUTO 36006KT 9999 NSC M07/M12 Q1029=
200602041120 METAR ESMX 041120Z 36007KT CAVOK M07/M12 Q1029=
200602041050 METAR ESMX 041050Z 36008KT CAVOK M08/M12 Q1029=
200602041020 METAR ESMX 041020Z 01006KT CAVOK M08/M12 Q1029=
200602040950 METAR ESMX 040950Z 03007KT CAVOK M08/M12 Q1029=
200602040920 METAR ESMX 040920Z 04007KT 360V070 CAVOK M09/M12 Q1029=
200602040850 METAR ESMX 040850Z 03008KT CAVOK M09/M12 Q1028=
200602040820 METAR ESMX 040820Z 02008KT CAVOK M09/M12 Q1028=
200602040750 METAR ESMX 040750Z AUTO 01007KT 9999 FEW012 M09/M12 Q1028 RESN=
200602040720 METAR ESMX 040720Z AUTO 02009KT 9999 -SHSN FEW010 SCT013 BKN016 M09/M11 Q1027=
200602040650 METAR ESMX 040650Z AUTO 03007KT 9999 -SHSN FEW008 BKN010 OVC016 M08/M11 Q1027=
200602040620 METAR ESMX 040620Z AUTO 02008KT 340V050 9999 FEW009 SCT018 M08/M10 Q1026 REDZ=
200602040550 METAR ESMX 040550Z AUTO 01008KT 9999 -SHSN FEW010 BKN016 M08/M10 Q1025=
200602040520 METAR ESMX 040520Z AUTO 03007KT 350V060 9999 -SN FEW015 M08/M10 Q1025=
200602040450 METAR ESMX 040450Z AUTO 01008KT 8000 -SHSN BKN016 BKN020 M08/M09 Q1024=
200602040420 METAR ESMX 040420Z AUTO 02007KT 6000 -SHSN FEW014 SCT017 BKN020 M08/M10 Q1024=
200602040350 METAR ESMX 040350Z AUTO 02009KT 9999 -SN BKN016 M07/M09 Q1024=
200602040320 METAR ESMX 040320Z AUTO 01010KT 9999 -SN FEW014 BKN020 M07/M09 Q1023=
200602040250 METAR ESMX 040250Z AUTO 01009KT 9999 -SN FEW014 BKN021 M07/M09 Q1023=
200602040220 METAR ESMX 040220Z AUTO 01009KT 9999 FEW022 M06/M09 Q1022=
200602040150 METAR ESMX 040150Z AUTO 02009KT 9999 NSC M06/M10 Q1022=
200602040120 METAR ESMX 040120Z AUTO 01011KT 9999 FEW019 SCT022 M06/M09 Q1022=
200602040050 METAR ESMX 040050Z AUTO 02014KT 9999 BKN022 M04/M08 Q1021=
200602040020 METAR ESMX 040020Z AUTO 36010KT 9999 BKN020 M04/M07 Q1020=
200602032350 METAR ESMX 032350Z AUTO 01012KT 9999 OVC019 M03/M07 Q1020=
200602032320 METAR ESMX 032320Z AUTO 03013KT 350V060 9999 SCT018 OVC072 M03/M06 Q1019=
200602032250 METAR ESMX 032250Z AUTO 01012KT 9999 OVC071 M03/M05 Q1019=
200602032220 METAR ESMX 032220Z AUTO 01008KT 9999 OVC070 M03/M05 Q1018=
200602032150 METAR ESMX 032150Z AUTO 36006KT 9999 BKN070 M03/M05 Q1018=
200602032120 METAR ESMX 032120Z AUTO 36006KT 9999 FEW019 OVC074 M04/M05 Q1018=
200602032050 METAR ESMX 032050Z AUTO 34007KT 9999 BKN072 M04/M05 Q1018=
200602032020 METAR ESMX 032020Z AUTO 33006KT 9999 FEW070 M04/M05 Q1017=
200602031950 METAR ESMX 031950Z AUTO 30004KT 9999 BKN061 M04/M04 Q1017=
200602031920 METAR ESMX 031920Z AUTO 30004KT 270V330 9999 FEW061 M03/M04 Q1017=
200602031850 METAR ESMX 031850Z 28005KT 9999 NSC M03/M04 Q1017=
200602031820 METAR ESMX 031820Z 28004KT CAVOK M03/M04 Q1017=
200602031750 METAR ESMX 031750Z VRB03KT CAVOK M03/M04 Q1017=
200602031720 METAR ESMX 031720Z 27004KT CAVOK M03/M04 Q1017=
200602031650 METAR ESMX 031650Z VRB02KT CAVOK M03/M04 Q1017=
200602031620 METAR ESMX 031620Z VRB03KT CAVOK M02/M04 Q1017=
200602031550 METAR ESMX 031550Z 27004KT CAVOK M02/M04 Q1016=
200602031520 METAR ESMX 031520Z VRB03KT CAVOK M01/M04 Q1016=
200602031450 METAR ESMX 031450Z 29005KT CAVOK M00/M04 Q1017=
200602031420 METAR ESMX 031420Z 28006KT CAVOK 00/M04 Q1017=
200602031350 METAR ESMX 031350Z 30006KT 260V330 CAVOK 00/M04 Q1016=
200602031320 METAR ESMX 031320Z 31006KT CAVOK 00/M04 Q1016=
200602031250 METAR ESMX 031250Z 34004KT 310V010 CAVOK M00/M04 Q1016=
200602031220 METAR ESMX 031220Z 34006KT CAVOK M00/M04 Q1017=
200602031150 METAR ESMX 031150Z 32006KT CAVOK M01/M04 Q1017=
200602031120 METAR ESMX 031120Z 32005KT 290V350 CAVOK M01/M04 Q1017=
200602031050 METAR ESMX 031050Z 29004KT CAVOK M02/M04 Q1017=
200602031020 METAR ESMX 031020Z 31004KT 280V340 CAVOK M03/M04 Q1016=
200602030950 METAR ESMX 030950Z VRB03KT CAVOK M04/M05 Q1016=
200602030920 METAR ESMX 030920Z VRB03KT CAVOK M04/M04 Q1016=
200602030850 METAR ESMX 030850Z VRB02KT CAVOK M07/M07 Q1016=
200602030820 METAR ESMX 030820Z VRB01KT CAVOK M09/M10 Q1016=
200602030750 METAR ESMX 030750Z VRB01KT CAVOK M11/M12 Q1016=
200602030720 METAR ESMX 030720Z VRB01KT CAVOK M11/M12 Q1016=
200602030650 METAR ESMX 030650Z VRB01KT CAVOK M11/M12 Q1016=
200602030620 METAR ESMX 030620Z VRB02KT CAVOK M10/M11 Q1015=
200602030550 METAR ESMX 030550Z VRB02KT 9999 BR SKC M11/M12 Q1015=
200602030520 METAR ESMX 030520Z VRB02KT 9000 BR SKC M11/M11 Q1015=
200602030450 METAR ESMX 030450Z VRB01KT 9000 BR NSC M11/M12 Q1015=
200602030420 METAR ESMX 030420Z AUTO 00000KT 8000 NSC M10/M11 Q1015=
200602030350 METAR ESMX 030350Z AUTO 00000KT 5000 NSC M10/M10 Q1014=
200602030320 METAR ESMX 030320Z AUTO VRB01KT 6000 BCFG NSC M10/M11 Q1014=
200602030250 METAR ESMX 030250Z AUTO VRB01KT 2400 BCFG NSC M10/M11 Q1014=
200602030220 METAR ESMX 030220Z AUTO VRB01KT 2500 BCFG NSC M09/M10 Q1014=
200602030150 METAR ESMX 030150Z AUTO VRB01KT 1400 R01/P1500N R19/P1500N BR NSC M08/M09 Q1014=
200602030120 METAR ESMX 030120Z AUTO VRB03KT 6000 BR NSC M07/M07 Q1014=
200602030050 METAR ESMX 030050Z VRB03KT 6000 BR SKC M08/M08 Q1014=
200602030020 METAR ESMX 030020Z VRB03KT 7000 BR NSC M06/M07 Q1014=
200602022350 METAR ESMX 022350Z VRB03KT 6000 BR NSC M06/M06 Q1014=
200602022320 METAR ESMX 022320Z 29004KT 6000 BR NSC M06/M07 Q1014=
200602022250 METAR ESMX 022250Z VRB03KT 6000 BR NSC M05/M05 Q1013=
200602022150 METAR ESMX 022150Z VRB02KT 5000 BR NSC M04/M05 Q1013=
200602022120 METAR ESMX 022120Z VRB03KT 6000 BR NSC M04/M04 Q1013=
200602022050 METAR ESMX 022050Z VRB03KT 6000 BR NSC M04/M04 Q1013=
200602022020 METAR ESMX 022020Z VRB02KT 6000 BR NSC M04/M04 Q1013=
200602021950 METAR ESMX 021950Z 31004KT 260V020 6000 BR FEW005 M03/M04 Q1013=
200602021920 METAR ESMX 021920Z 28008KT 7000 BR FEW005 SCT085 M03/M04 Q1012=
200602021850 METAR ESMX 021850Z 28006KT 7000 BR SCT080 M03/M03 Q1012=
200602021820 METAR ESMX 021820Z 26005KT 7000 BR SCT003 BKN100 M03/M04 Q1012=
200602021750 METAR ESMX 021750Z 26007KT 8000 BR BKN003 M03/M04 Q1012=
200602021720 METAR ESMX 021720Z 26005KT 8000 BR BKN003 M03/M03 Q1012=
200602021650 METAR ESMX 021650Z 26006KT 8000 BR BKN003 M03/M03 Q1012=
200602021620 METAR ESMX 021620Z 33006KT 250V340 9000 SCT004 BKN040 M02/M03 Q1013=
200602021550 METAR ESMX 021550Z 25008KT 9999 FEW010 SCT040 BKN080 M02/M03 Q1012=
200602021520 METAR ESMX 021520Z 26004KT 220V290 CAVOK M01/M03 Q1012=
200602021420 METAR ESMX 021420Z 25005KT CAVOK M00/M02 Q1013=
200602021350 METAR ESMX 021350Z 24005KT CAVOK 00/M02 Q1013=
200602021320 METAR ESMX 021320Z 26007KT CAVOK 00/M02 Q1013=
200602021250 METAR ESMX 021250Z 25005KT CAVOK 00/M02 Q1013=
200602021220 METAR ESMX 021220Z 26004KT 230V290 CAVOK 00/M02 Q1013=
200602021150 METAR ESMX 021150Z VRB03KT CAVOK M01/M02 Q1013=
200602021120 METAR ESMX 021120Z VRB03KT 9999 SCT004 BKN060 M02/M02 Q1014=
200602021050 METAR ESMX 021050Z 26005KT 230V300 8000 BR OVC002 M02/M03 Q1014=
200602021020 METAR ESMX 021020Z 24004KT 4400 BR OVC002 M03/M03 Q1014=
200602020950 METAR ESMX 020950Z 27004KT 2500 BR SCT001 OVC002 M03/M03 Q1014=
200602020920 METAR ESMX 020920Z 28003KT 1900 BR SCT001 OVC002 M03/M04 Q1014=
200602020850 METAR ESMX 020850Z 28003KT 1800 BR SCT001 OVC002 M03/M04 Q1014=
200602020820 METAR ESMX 020820Z 29004KT 1600 BR SCT001 OVC002 M04/M04 Q1014=
200602020750 METAR ESMX 020750Z 30003KT 2700 BR SCT001 OVC002 M04/M04 Q1014=
200602020720 METAR ESMX 020720Z 31004KT 1600 BR VV002 M04/M04 Q1014=
200602020650 METAR ESMX 020650Z 28005KT 2600 BR SCT001 OVC002 M04/M04 Q1013=
200602020620 METAR ESMX 020620Z 27005KT 2400 BR SCT001 OVC002 M03/M04 Q1013=
200602020550 METAR ESMX 020550Z 27005KT 4000 BR SCT001 BKN002 M03/M04 Q1013=
200602020520 METAR ESMX 020520Z 28005KT 260V330 5000 BR OVC002 M03/M04 Q1014=
200602020450 METAR ESMX 020450Z AUTO 29005KT 260V320 6000 BR OVC002 M03/M04 Q1013=
200602020420 METAR ESMX 020420Z AUTO 28005KT 260V320 5000 BR OVC002 M03/M04 Q1013=
200602020350 METAR ESMX 020350Z AUTO 29005KT 6000 BR OVC002 M03/M04 Q1014=
200602020320 METAR ESMX 020320Z AUTO 30006KT 260V330 6000 BR OVC002 M03/M03 Q1014=
200602020250 METAR ESMX 020250Z AUTO 29005KT 250V320 6000 BR OVC002 M03/M03 Q1014=
200602020220 METAR ESMX 020220Z AUTO 27007KT 250V320 6000 BR OVC002 M03/M03 Q1014=
200602020150 METAR ESMX 020150Z AUTO 28007KT 7000 BR OVC003 M03/M03 Q1014=
200602020120 METAR ESMX 020120Z AUTO 31005KT 270V340 8000 BR OVC003 M03/M03 Q1014=
200602020050 METAR ESMX 020050Z 29006KT 8000 BR OVC003 M03/M03 Q1014=
200602020020 METAR ESMX 020020Z 27006KT 250V310 9000 BR OVC003 M03/M03 Q1014=
200602012350 METAR ESMX 012350Z 30006KT 9000 BR OVC003 M02/M03 Q1014=
200602012320 METAR ESMX 012320Z 31005KT 280V340 9000 BR OVC003 M02/M03 Q1014=
200602012250 METAR ESMX 012250Z 28008KT 9000 BR BKN003 M02/M02 Q1014=
200602012220 METAR ESMX 012220Z 27006KT 250V330 7000 BR BKN003 M02/M02 Q1014=
200602012150 METAR ESMX 012150Z 29008KT 8000 BR BKN003 M02/M02 Q1014=
200602012120 METAR ESMX 012120Z 29008KT 8000 BR BKN003 M02/M02 Q1014=
200602012050 METAR ESMX 012050Z 29007KT 250V330 6000 BR BKN003 M02/M02 Q1015=
200602012020 METAR ESMX 012020Z 26005KT 3500 BR BKN002 M02/M02 Q1014=
200602011950 METAR ESMX 011950Z 28005KT 250V320 2400 BR OVC002 M02/M02 Q1015=
200602011920 METAR ESMX 011920Z 27007KT 220V330 2500 BR OVC002 M02/M02 Q1014=
200602011850 METAR ESMX 011850Z 26007KT 240V310 2500 BR OVC002 M02/M02 Q1014=
200602011820 METAR ESMX 011820Z 28006KT 240V310 1800 BR OVC002 M01/M02 Q1015=
200602011750 METAR ESMX 011750Z 27008KT 240V300 4700 BR OVC002 M01/M02 Q1015=
200602011720 METAR ESMX 011720Z 26008KT 240V300 5000 BR OVC002 M01/M02 Q1015=
200602011650 METAR ESMX 011650Z 26007KT 220V290 3000 BR OVC002 M01/M01 Q1015=
200602011620 METAR ESMX 011620Z 28008KT 240V310 3800 BR OVC002 M01/M01 Q1015=
200602011550 METAR ESMX 011550Z 27009KT 220V290 6000 BR OVC001 M01/M01 Q1015=
200602011520 METAR ESMX 011520Z 28007KT 260V330 5000 BR OVC002 M01/M01 Q1015=
200602011450 METAR ESMX 011450Z 28006KT 7000 BR OVC002 M01/M01 Q1015=
200602011420 METAR ESMX 011420Z 27007KT 240V300 6000 BR OVC002 M01/M01 Q1015=
200602011350 METAR ESMX 011350Z 26006KT 240V300 6000 BR OVC002 M01/M01 Q1015=
200602011320 METAR ESMX 011320Z 27004KT 230V320 5000 BR OVC002 M01/M01 Q1015=
200602011250 METAR ESMX 011250Z 28005KT 240V310 5000 BR OVC002 M01/M02 Q1015=
200602011220 METAR ESMX 011220Z 27005KT 5000 BR OVC002 M02/M02 Q1015=
