##########################################################
# Query made at 04/19/2024 20:51:35 UTC
# Time interval: from 06/01/2006 12:00  to 06/30/2006 12:59  UTC
##########################################################

##########################################################
# ESMX, Vaxjo (Sweden)
# WMO index: 02641. WIGOS ID: 0-20000-0-02648
# Latitude 56-51N. Longitude 014-50E. Altitude 199 m.
##########################################################

200606301250 METAR ESMX 301250Z 06005KT 350V110 CAVOK 24/09 Q1028=
200606301220 METAR ESMX 301220Z 02005KT 330V110 CAVOK 25/09 Q1028=
200606301150 METAR ESMX 301150Z 01007KT 330V060 CAVOK 26/09 Q1028=
200606301120 METAR ESMX 301120Z VRB05KT CAVOK 26/08 Q1028=
200606301050 METAR ESMX 301050Z 35006KT 300V030 CAVOK 24/10 Q1028=
200606301020 METAR ESMX 301020Z 36006KT 320V050 CAVOK 25/11 Q1029=
200606300950 METAR ESMX 300950Z 35005KT 320V110 CAVOK 25/10 Q1029=
200606300920 METAR ESMX 300920Z 05005KT 9999 SCT045 24/11 Q1029=
200606300850 METAR ESMX 300850Z 02004KT 310V060 CAVOK 23/12 Q1028=
200606300820 METAR ESMX 300820Z VRB03KT CAVOK 23/12 Q1029=
200606300750 METAR ESMX 300750Z VRB04KT CAVOK 22/12 Q1028=
200606300720 METAR ESMX 300720Z AUTO 01004KT 350V050 9999NDV R01/P1500D R19/P1500U NCD 21/13 Q1028=
200606300650 METAR ESMX 300650Z 06003KT 340V110 CAVOK 21/13 Q1028=
200606300620 METAR ESMX 300620Z AUTO 35003KT 320V040 9999NDV R01/P1500U R19/P1500D NCD 19/13 Q1028=
200606300550 METAR ESMX 300550Z 05004KT 020V080 CAVOK 18/13 Q1028=
200606300520 METAR ESMX 300520Z 04004KT CAVOK 17/13 Q1028=
200606300420 METAR ESMX 300420Z AUTO 01001KT 9999NDV R01/P1500U R19/P1500U NCD 13/12 Q1028=
200606300350 METAR ESMX 300350Z AUTO 00000KT 9999NDV R01/P1500D R19/P1500U NCD 10/10 Q1028=
200606300320 METAR ESMX 300320Z AUTO 18002KT 9999NDV R01/P1500U R19/P1500D NCD 09/08 Q1027=
200606300250 METAR ESMX 300250Z AUTO 17001KT 3400NDV R01/P1500U R19/P1500U BR NCD 08/08 Q1027=
200606300220 METAR ESMX 300220Z AUTO 00000KT 9999NDV R01/P1500D R19/P1500U NCD 08/08 Q1027=
200606300150 METAR ESMX 300150Z AUTO 00000KT 9999NDV R01/P1500D R19/P1500U NCD 08/08 Q1027=
200606300120 METAR ESMX 300120Z AUTO 00000KT 9999NDV R01/P1500N R19/P1500N NCD 09/08 Q1027=
200606300050 METAR ESMX 300050Z AUTO 19002KT 9999NDV R01/P1500N R19/P1500N NCD 09/09 Q1026=
200606300020 METAR ESMX 300020Z 17002KT CAVOK 10/09 Q1026=
200606292350 METAR ESMX 292350Z 18002KT CAVOK 10/09 Q1026=
200606292320 METAR ESMX 292320Z 00000KT CAVOK 11/10 Q1026=
200606292250 METAR ESMX 292250Z VRB02KT CAVOK 13/11 Q1026=
200606292220 METAR ESMX 292220Z 27003KT CAVOK 12/11 Q1026=
200606292150 METAR ESMX 292150Z 22004KT CAVOK 12/10 Q1026=
200606292120 METAR ESMX 292120Z 21003KT CAVOK 12/10 Q1026=
200606292050 METAR ESMX 292050Z 22003KT CAVOK 13/11 Q1025=
200606292020 METAR ESMX 292020Z 17003KT CAVOK 14/11 Q1025=
200606291950 METAR ESMX 291950Z 17004KT CAVOK 16/12 Q1025=
200606291920 METAR ESMX 291920Z 19003KT CAVOK 18/13 Q1025=
200606291850 METAR ESMX 291850Z 00000KT CAVOK 21/12 Q1024=
200606291820 METAR ESMX 291820Z 36002KT CAVOK 22/10 Q1024=
200606291750 METAR ESMX 291750Z VRB02KT CAVOK 22/10 Q1024=
200606291720 METAR ESMX 291720Z 36003KT CAVOK 23/09 Q1024=
200606291650 METAR ESMX 291650Z VRB02KT CAVOK 22/09 Q1024=
200606291620 METAR ESMX 291620Z 13003KT CAVOK 23/10 Q1024=
200606291550 METAR ESMX 291550Z 04004KT CAVOK 22/10 Q1024=
200606291520 METAR ESMX 291520Z VRB02KT CAVOK 22/10 Q1024=
200606291450 METAR ESMX 291450Z 36003KT CAVOK 21/10 Q1024=
200606291420 METAR ESMX 291420Z 33004KT CAVOK 22/10 Q1024=
200606291350 METAR ESMX 291350Z 35004KT 9999 FEW043 BKN054 20/10 Q1024=
200606291320 METAR ESMX 291320Z VRB05KT 9999 FEW045 BKN054 22/09 Q1024=
200606291250 METAR ESMX 291250Z 04005KT 9999 FEW044 BKN056 21/10 Q1024=
200606291220 METAR ESMX 291220Z VRB06KT 9999 SCT042 20/10 Q1024=
200606291150 METAR ESMX 291150Z 03004KT 300V110 9999 FEW025 BKN053 20/10 Q1024=
200606291120 METAR ESMX 291120Z 02005KT 9999 FEW038 BKN050 19/10 Q1024=
200606291050 METAR ESMX 291050Z 01003KT 330V030 9999 FEW035 BKN048 19/10 Q1024=
200606291020 METAR ESMX 291020Z 36004KT 9999 FEW034 BKN046 20/11 Q1024=
200606290950 METAR ESMX 290950Z 36003KT 9999 SCT043 19/11 Q1023=
200606290920 METAR ESMX 290920Z 36003KT 9999 FEW041 18/11 Q1023=
200606290850 METAR ESMX 290850Z 02004KT 280V060 9999 FEW028 SCT040 18/11 Q1023=
200606290820 METAR ESMX 290820Z 35007KT 9999 FEW025 SCT038 18/11 Q1023=
200606290750 METAR ESMX 290750Z 35005KT 330V080 9999 FEW025 SCT040 18/11 Q1023=
200606290720 METAR ESMX 290720Z 05006KT 020V080 9999 SCT020 17/12 Q1023=
200606290650 METAR ESMX 290650Z 02003KT 300V080 9999 SCT015 17/12 Q1022=
200606290620 METAR ESMX 290620Z VRB02KT 9999 SCT013 15/12 Q1022=
200606290550 METAR ESMX 290550Z VRB02KT 9999 FEW010 SCT015 15/12 Q1022=
200606290520 METAR ESMX 290520Z 34003KT 310V020 9999 FEW012 SCT045 14/11 Q1022=
200606290450 METAR ESMX 290450Z VRB02KT 9999 BKN045 13/11 Q1021=
200606290420 METAR ESMX 290420Z VRB02KT 9999 BKN044 12/11 Q1021=
200606290350 METAR ESMX 290350Z AUTO 25003KT 9999NDV R01/P1500U R19/P1500D OVC043/// 12/10 Q1021=
200606290320 METAR ESMX 290320Z AUTO 25002KT 9999NDV R01/P1500U R19/P1500U FEW032/// OVC046/// 12/10 Q1021=
200606290250 METAR ESMX 290250Z AUTO 29003KT 9999NDV R01/P1500D R19/P1500D FEW014/// OVC047/// 11/10 Q1021=
200606290220 METAR ESMX 290220Z AUTO 26003KT 9999NDV R01/P1500U R19/P1500D FEW028/// OVC047/// 11/10 Q1020=
200606290150 METAR ESMX 290150Z AUTO 26003KT 9999NDV R01/P1500N R19/P1500N OVC044/// 12/10 Q1020=
200606290120 METAR ESMX 290120Z AUTO 25004KT 9999NDV R01/P1500N R19/P1500N OVC041/// 12/10 Q1020=
200606290050 METAR ESMX 290050Z AUTO 21004KT 190V260 9999NDV R01/P1500N R19/P1500N OVC046/// 11/10 Q1020=
200606290020 METAR ESMX 290020Z AUTO 24004KT 9999NDV R01/P1500N R19/P1500N FEW040/// OVC046/// 11/09 Q1020=
200606282350 METAR ESMX 282350Z 23003KT 9999 FEW024 BKN033 12/09 Q1020=
200606282320 METAR ESMX 282320Z 23004KT 9999 FEW007 OVC046 12/09 Q1019=
200606282250 METAR ESMX 282250Z 25005KT 9999 FEW025 OVC044 12/09 Q1019=
200606282150 METAR ESMX 282150Z 23004KT 9999 SCT024 BKN048 11/09 Q1019=
200606282120 METAR ESMX 282120Z 23004KT 9999 FEW030 BKN052 11/09 Q1019=
200606282050 METAR ESMX 282050Z 25004KT CAVOK 11/09 Q1018=
200606282020 METAR ESMX 282020Z 23004KT CAVOK 12/09 Q1018=
200606281950 METAR ESMX 281950Z 25006KT CAVOK 12/09 Q1018=
200606281920 METAR ESMX 281920Z 24007KT 210V280 9999 SCT047 13/09 Q1018=
200606281850 METAR ESMX 281850Z 27008KT 230V300 9999 SCT047 14/08 Q1017=
200606281820 METAR ESMX 281820Z 23008KT 200V280 9999 FEW030 SCT046 14/09 Q1017=
200606281750 METAR ESMX 281750Z 27010KT 9999 SCT029 14/09 Q1017=
200606281720 METAR ESMX 281720Z 25010KT 210V280 9999 FEW028 15/09 Q1017=
200606281650 METAR ESMX 281650Z 26011KT 230V320 9999 FEW028 16/09 Q1017=
200606281620 METAR ESMX 281620Z 27011KT 230V300 9999 BKN027 16/09 Q1017=
200606281550 METAR ESMX 281550Z 25009KT 210V280 9999 BKN026 15/09 Q1016=
200606281520 METAR ESMX 281520Z 24009KT 9999 BKN027 15/09 Q1016=
200606281450 METAR ESMX 281450Z 23010KT 190V250 9999 BKN027 15/09 Q1016=
200606281420 METAR ESMX 281420Z 25013KT 220V290 9999 BKN027 16/09 Q1016=
200606281350 METAR ESMX 281350Z 25012KT 9999 BKN026 15/09 Q1016=
200606281320 METAR ESMX 281320Z 25011G21KT 220V290 9999 BKN025 15/09 Q1016=
200606281250 METAR ESMX 281250Z 23013KT 190V280 9999 SCT025 BKN030 15/09 Q1015=
200606281220 METAR ESMX 281220Z 25011KT 200V290 9999 BKN024 15/09 Q1015=
200606281150 METAR ESMX 281150Z 25012KT 220V290 9999 SCT023 BKN031 14/08 Q1015=
200606281120 METAR ESMX 281120Z 25013KT 220V280 9999 BKN023 14/09 Q1015=
200606281050 METAR ESMX 281050Z 25013KT 210V290 9999 BKN025 14/09 Q1015=
200606281020 METAR ESMX 281020Z 24014KT 210V270 9999 BKN030 14/08 Q1015=
200606280950 METAR ESMX 280950Z 22013KT 190V270 9999 BKN030 15/08 Q1014=
200606280920 METAR ESMX 280920Z 25013KT 210V290 9999 BKN032 15/09 Q1014=
200606280820 METAR ESMX 280820Z 24010KT 9999 FEW024 BKN028 13/08 Q1015=
200606280750 METAR ESMX 280750Z 22010KT 190V260 9999 FEW022 SCT028 BKN031 14/10 Q1014=
200606280720 METAR ESMX 280720Z VRB09KT 9999 FEW021 SCT025 BKN029 14/09 Q1014=
200606280650 METAR ESMX 280650Z 22010KT 170V250 9999 FEW017 SCT024 BKN028 14/09 Q1014=
200606280620 METAR ESMX 280620Z 24006KT 200V270 9999 FEW017 BKN030 13/09 Q1014=
200606280550 METAR ESMX 280550Z 23010KT 170V260 9999 SCT016 BKN032 13/09 Q1014=
200606280520 METAR ESMX 280520Z 24009KT 210V280 9999 SCT015 BKN030 13/10 Q1014=
200606280450 METAR ESMX 280450Z 22007KT 9999 FEW011 SCT016 BKN023 12/10 Q1014=
200606280420 METAR ESMX 280420Z 21008KT 170V240 9999 FEW009 BKN030 12/10 Q1014=
200606280350 METAR ESMX 280350Z 23006KT 9999 FEW010 BKN030 11/11 Q1014=
200606280320 METAR ESMX 280320Z AUTO 22006KT 9999NDV R01/P1500U R19/P1500N FEW021/// SCT025/// BKN029/// 11/10 Q1014=
200606280250 METAR ESMX 280250Z AUTO 21005KT 9999NDV R01/P1500D R19/P1500U NCD 10/10 Q1014=
200606280220 METAR ESMX 280220Z AUTO 22005KT 9999NDV R01/P1500D R19/P1500D FEW023/// 11/10 Q1014=
200606280150 METAR ESMX 280150Z AUTO 22005KT 9999NDV R01/P1500D R19/P1500U FEW031/// 11/10 Q1014=
200606280120 METAR ESMX 280120Z 20007KT 9999 FEW015 11/10 Q1014=
200606280050 METAR ESMX 280050Z 22005KT 9999 SCT025 10/10 Q1014=
200606280020 METAR ESMX 280020Z 22005KT CAVOK 11/10 Q1014=
200606272350 METAR ESMX 272350Z 21005KT 9999 FEW013 SCT090 11/10 Q1014=
200606272320 METAR ESMX 272320Z 21006KT 9999 SCT015 BKN043 12/10 Q1014=
200606272250 METAR ESMX 272250Z 23006KT 200V260 9999 FEW015 BKN045 13/10 Q1014=
200606272220 METAR ESMX 272220Z 25008KT 200V280 9999 FEW015 BKN045 13/11 Q1014=
200606272150 METAR ESMX 272150Z 23006KT 9999 SCT013 BKN046 13/11 Q1014=
200606272120 METAR ESMX 272120Z 24006KT 9999 SCT013 BKN022 14/11 Q1014=
200606272050 METAR ESMX 272050Z 25008KT 9999 SCT013 BKN022 14/11 Q1014=
200606272020 METAR ESMX 272020Z 25007KT 200V290 9999 BKN015 BKN025 14/12 Q1014=
200606271950 METAR ESMX 271950Z 25007KT 200V280 9999 SCT013 BKN017 14/12 Q1013=
200606271920 METAR ESMX 271920Z 25005KT 210V290 9999 SCT016 BKN020 14/12 Q1013=
200606271850 METAR ESMX 271850Z 27006KT 230V310 9999 FEW015 SCT018 BKN021 15/12 Q1013=
200606271820 METAR ESMX 271820Z 26007KT 220V290 9999 BKN017 15/12 Q1013=
200606271750 METAR ESMX 271750Z 26009KT 240V300 9999 FEW020 BKN030 16/12 Q1013=
200606271720 METAR ESMX 271720Z 25010KT 220V290 9999 FEW022 BKN030 16/12 Q1013=
200606271650 METAR ESMX 271650Z 26011KT 230V300 9999 FEW018 BKN021 16/12 Q1012=
200606271620 METAR ESMX 271620Z 24010G20KT 9999 FEW019 SCT022 BKN026 17/13 Q1012=
200606271550 METAR ESMX 271550Z 23010KT 170V270 9999 FEW015 SCT021 BKN033 17/13 Q1012=
200606271520 METAR ESMX 271520Z 23009KT 190V270 9999 FEW012 SCT016 BKN021 17/14 Q1012=
200606271450 METAR ESMX 271450Z 23009KT 190V250 9999 SCT011 BKN016 OVC025 16/14 Q1012=
200606271420 METAR ESMX 271420Z 22013KT 170V250 9999 FEW008 SCT010 BKN013 17/15 Q1011=
200606271350 METAR ESMX 271350Z 21010KT 5000 BR FEW008 SCT009 BKN011 17/15 Q1011=
200606271320 METAR ESMX 271320Z 22011KT 190V260 9999 FEW015 OVC018 18/15 Q1011=
200606271250 METAR ESMX 271250Z 21011KT 9999 FEW014 SCT020 BKN025 19/15 Q1011=
200606271220 METAR ESMX 271220Z 20011KT 9999 FEW009 SCT017 BKN020 18/15 Q1011=
200606271150 METAR ESMX 271150Z 21009KT 180V250 9000 -SHRA FEW007 BKN010 17/16 Q1011=
200606271120 METAR ESMX 271120Z 19008KT 6000 -RA FEW009 BKN014 17/16 Q1011=
200606271050 METAR ESMX 271050Z 19009KT 160V220 7000 -RA FEW012 SCT027 BKN032 17/15 Q1011=
200606271020 METAR ESMX 271020Z 20012KT 6000 BR FEW007 SCT012 BKN018 17/16 Q1011=
200606270950 METAR ESMX 270950Z 20009KT 3000 -RA BR FEW011 SCT014 BKN017 18/15 Q1011=
200606270920 METAR ESMX 270920Z 20010KT 8000 BR FEW015 BKN020 18/16 Q1010=
200606270850 METAR ESMX 270850Z 21007KT 150V240 6000 BR FEW014 SCT020 BKN043 18/16 Q1010=
200606270820 METAR ESMX 270820Z 19008KT 5000 -RA FEW010 SCT020 BKN030 18/16 Q1010=
200606270750 METAR ESMX 270750Z 17007KT 120V200 4400 BR FEW008 BKN013 18/17 Q1010=
200606270720 METAR ESMX 270720Z 19006KT 3000 DZ FEW008 SCT012 BKN016 17/16 Q1010=
200606270650 METAR ESMX 270650Z 18006KT 3800 BR FEW006 BKN010 18/16 Q1010=
200606270620 METAR ESMX 270620Z 18008KT 140V200 3600 BR FEW006 BKN010 18/16 Q1010=
200606270550 METAR ESMX 270550Z 18007KT 3100 BR BKN005 18/16 Q1010=
200606270520 METAR ESMX 270520Z 19007KT 2700 BR SCT005 BKN008 17/16 Q1010=
200606270450 METAR ESMX 270450Z 20006KT 2800 BR FEW005 BKN010 17/16 Q1010=
200606270420 METAR ESMX 270420Z 19008KT 3000 BR FEW005 BKN007 17/16 Q1010=
200606270350 METAR ESMX 270350Z 18008KT 2100 BR FEW004 BKN007 17/16 Q1010=
200606270320 METAR ESMX 270320Z AUTO 19007KT 2600NDV R01/P1500N R19/P1500U BR SCT006/// BKN009/// BKN012/// 17/16 Q1010=
200606270250 METAR ESMX 270250Z AUTO 19010KT 2700NDV R01/P1500N R19/P1500N BR FEW005/// SCT007/// BKN009/// 17/16 Q1010=
200606270220 METAR ESMX 270220Z AUTO 19008KT 2100NDV R01/P1500N R19/P1500N BR BKN004/// OVC008/// 17/17 Q1010=
200606270150 METAR ESMX 270150Z AUTO 18005KT 2500NDV R01/P1500N R19/P1500N BR FEW004/// SCT010/// BKN013/// 17/17 Q1010=
200606270120 METAR ESMX 270120Z AUTO 19005KT 2300NDV R01/P1500N R19/P1500N BR FEW004/// SCT006/// BKN022/// 17/17 Q1010=
200606270050 METAR ESMX 270050Z 19008KT 2500 BR FEW005 SCT007 BKN009 17/17 Q1010=
200606270020 METAR ESMX 270020Z 20006KT 2500 BR SCT004 BKN008 18/17 Q1010=
200606262350 METAR ESMX 262350Z 20006KT 2300 BR BKN003 OVC005 18/17 Q1010=
200606262320 METAR ESMX 262320Z 18005KT 2200 BR SCT003 BKN005 17/17 Q1010=
200606262250 METAR ESMX 262250Z 20005KT 2500 BR FEW004 SCT005 BKN007 17/17 Q1010=
200606262220 METAR ESMX 262220Z 21005KT 3000 BR FEW003 SCT005 BKN006 17/17 Q1010=
200606262150 METAR ESMX 262150Z 21006KT 3000 BR BKN002 OVC004 17/17 Q1010 REDZ=
200606262120 METAR ESMX 262120Z 18004KT 2500 -DZ BR BKN002 OVC004 17/17 Q1010=
200606262050 METAR ESMX 262050Z 16003KT 110V190 2000 -DZ BR BKN002 OVC005 17/17 Q1010=
200606262020 METAR ESMX 262020Z VRB02KT 3000 -RA BR BKN002 OVC004 17/16 Q1010=
200606261950 METAR ESMX 261950Z 11003KT 060V160 4000 RA BR BKN003 OVC005 17/16 Q1010=
200606261920 METAR ESMX 261920Z 10004KT 040V140 5000 -DZ BR SCT002 OVC006 17/16 Q1010=
200606261850 METAR ESMX 261850Z 10003KT 050V140 3500 -RA BR SCT002 OVC005 17/16 Q1010=
200606261820 METAR ESMX 261820Z 09005KT 050V120 4000 RA BR SCT003 OVC006 17/16 Q1010=
200606261750 METAR ESMX 261750Z 08004KT 340V120 3500 -RA SCT005 BKN008 17/16 Q1010=
200606261720 METAR ESMX 261720Z 08004KT 050V130 5000 R01/P1500U R19/P1500U -RA BR SCT006 BKN010 17/16 Q1010=
200606261650 METAR ESMX 261650Z 07005KT 050V120 7000 BR FEW008 BKN010 17/16 Q1011=
200606261620 METAR ESMX 261620Z 08006KT 020V140 9000 BR FEW009 BKN013 17/16 Q1011=
200606261550 METAR ESMX 261550Z 08005KT 020V120 9000 -DZ FEW009 BKN012 18/16 Q1011=
200606261520 METAR ESMX 261520Z 09006KT 050V160 9000 -DZ FEW009 BKN013 18/16 Q1011=
200606261450 METAR ESMX 261450Z 08006KT 050V120 9000 -DZ FEW014 BKN020 18/17 Q1011=
200606261420 METAR ESMX 261420Z 06005KT 020V100 7000 RA FEW020 BKN023 19/17 Q1011=
200606261350 METAR ESMX 261350Z 05007KT 010V080 9999 -RA FEW018 BKN020 19/16 Q1011=
200606261320 METAR ESMX 261320Z 07009KT 030V100 9999 BKN020 20/16 Q1012=
200606261250 METAR ESMX 261250Z 05009KT 010V080 9999 FEW015 SCT018 BKN025 20/16 Q1012=
200606261220 METAR ESMX 261220Z 05009KT 020V080 9999 BKN014 BKN020 19/16 Q1012=
200606261150 METAR ESMX 261150Z 05010KT 010V070 9999 BKN013 20/16 Q1013=
200606261120 METAR ESMX 261120Z 04010KT 010V070 9999 BKN012 BKN059 20/16 Q1013=
200606261050 METAR ESMX 261050Z 04011KT 9999 BKN012 21/16 Q1013=
200606261020 METAR ESMX 261020Z 04010KT 9999 BKN010 20/16 Q1013=
200606260950 METAR ESMX 260950Z 06008KT 030V110 9999 BKN010 19/16 Q1013=
200606260920 METAR ESMX 260920Z 05008KT 020V100 9999 BKN009 18/16 Q1014=
200606260850 METAR ESMX 260850Z 05007KT 020V090 9999 FEW010 SCT077 18/16 Q1014=
200606260820 METAR ESMX 260820Z 06007KT 020V100 9999 FEW009 BKN074 17/15 Q1014=
200606260750 METAR ESMX 260750Z 05008KT 020V090 9999 FEW010 BKN095 17/15 Q1014=
200606260720 METAR ESMX 260720Z 05007KT 9999 FEW006 SCT091 16/15 Q1014=
200606260650 METAR ESMX 260650Z 04008KT 9999 FEW010 SCT040 16/15 Q1014=
200606260620 METAR ESMX 260620Z 04007KT 010V080 9999 FEW010 BKN070 15/14 Q1014=
200606260550 METAR ESMX 260550Z 06006KT 020V080 9999 FEW010 SCT030 15/14 Q1014 RERA=
200606260520 METAR ESMX 260520Z 04008KT 8000 -RA SCT060 15/14 Q1014=
200606260450 METAR ESMX 260450Z 04007KT 020V080 9000 -RA SCT063 15/14 Q1015=
200606260420 METAR ESMX 260420Z 06004KT 7000 RA FEW027 SCT050 BKN080 16/14 Q1015=
200606260350 METAR ESMX 260350Z 05006KT 9999 SCT047 BKN067 17/13 Q1015=
200606260320 METAR ESMX 260320Z AUTO 02005KT 9999NDV R01/P1500D R19/P1500U SCT049/// BKN100/// 16/14 Q1015=
200606260250 METAR ESMX 260250Z AUTO 06003KT 020V100 9999NDV R01/P1500D R19/P1500D FEW035/// SCT047/// BKN110/// 16/13 Q1015=
200606260220 METAR ESMX 260220Z AUTO 04003KT 9999NDV R01/P1500N R19/P1500N FEW052/// BKN100/// 16/14 Q1015=
200606260150 METAR ESMX 260150Z AUTO 05002KT 9999NDV R01/P1500N R19/P1500N FEW048/// SCT054/// BKN076/// 16/14 Q1014=
200606260120 METAR ESMX 260120Z AUTO 02003KT 360V060 9999NDV R01/P1500N R19/P1500N SCT049/// 17/13 Q1015=
200606260050 METAR ESMX 260050Z 36002KT CAVOK 16/13 Q1015=
200606260020 METAR ESMX 260020Z VRB02KT CAVOK 16/13 Q1015=
200606252350 METAR ESMX 252350Z 35002KT CAVOK 16/13 Q1015=
200606252320 METAR ESMX 252320Z 00000KT CAVOK 16/13 Q1015=
200606252250 METAR ESMX 252250Z 00000KT CAVOK 16/13 Q1016=
200606252220 METAR ESMX 252220Z 00000KT CAVOK 16/13 Q1016=
200606252150 METAR ESMX 252150Z VRB02KT CAVOK 17/12 Q1016=
200606252120 METAR ESMX 252120Z 13003KT CAVOK 18/12 Q1016=
200606252050 METAR ESMX 252050Z 14003KT CAVOK 19/12 Q1016=
200606252020 METAR ESMX 252020Z 13004KT 9999 FEW046 BKN150 19/12 Q1016=
200606251950 METAR ESMX 251950Z 14005KT 9999 FEW046 SCT100 20/12 Q1016=
200606251920 METAR ESMX 251920Z 16005KT CAVOK 21/12 Q1016=
200606251850 METAR ESMX 251850Z 16007KT CAVOK 22/12 Q1015=
200606251820 METAR ESMX 251820Z 16006KT CAVOK 23/11 Q1015=
200606251750 METAR ESMX 251750Z 16007KT 110V200 CAVOK 24/11 Q1015=
200606251720 METAR ESMX 251720Z 15005KT 110V180 CAVOK 24/11 Q1015=
200606251650 METAR ESMX 251650Z 16007KT CAVOK 25/10 Q1015=
200606251620 METAR ESMX 251620Z 18007KT 140V220 CAVOK 25/10 Q1015=
200606251550 METAR ESMX 251550Z 16005KT 110V210 CAVOK 25/09 Q1016=
200606251520 METAR ESMX 251520Z 17007KT 100V220 CAVOK 25/08 Q1016=
200606251450 METAR ESMX 251450Z VRB04KT CAVOK 26/07 Q1016=
200606251420 METAR ESMX 251420Z 16006KT 120V210 CAVOK 25/07 Q1017=
200606251350 METAR ESMX 251350Z VRB06KT CAVOK 25/06 Q1017=
200606251320 METAR ESMX 251320Z VRB04KT CAVOK 24/07 Q1017=
200606251250 METAR ESMX 251250Z VRB04KT CAVOK 24/07 Q1017=
200606251220 METAR ESMX 251220Z 19005KT 100V220 CAVOK 24/07 Q1018=
200606251150 METAR ESMX 251150Z VRB05KT CAVOK 24/07 Q1018=
200606251120 METAR ESMX 251120Z AUTO 16006KT 110V210 9999NDV R01/P1500U R19/P1500U NCD 23/07 Q1018=
200606251050 METAR ESMX 251050Z AUTO VRB06KT 9999NDV R01/P1500D R19/P1500D NCD 22/07 Q1018=
200606251020 METAR ESMX 251020Z AUTO 16006KT 090V190 9999NDV R01/P1500D R19/P1500D NCD 22/07 Q1018=
200606250950 METAR ESMX 250950Z AUTO 16005KT 100V210 9999NDV R01/P1500D R19/P1500D FEW047/// 22/08 Q1019=
200606250920 METAR ESMX 250920Z AUTO 14005KT 080V200 9999NDV R01/P1500U R19/P1500D NCD 21/08 Q1019=
200606250850 METAR ESMX 250850Z AUTO 15006KT 080V220 9999NDV R01/P1500U R19/P1500D NCD 21/10 Q1019=
200606250820 METAR ESMX 250820Z AUTO 16004KT 110V190 9999NDV R01/P1500U R19/P1500U FEW057/// 20/11 Q1019=
200606250750 METAR ESMX 250750Z AUTO 14004KT 080V190 9999NDV R01/P1500D R19/P1500U FEW086/// 19/10 Q1019=
200606250720 METAR ESMX 250720Z AUTO VRB02KT 9999NDV R01/P1500U R19/P1500D NCD 19/10 Q1019=
200606250650 METAR ESMX 250650Z AUTO VRB02KT 9999NDV R01/P1500D R19/P1500D NCD 17/10 Q1019=
200606250620 METAR ESMX 250620Z AUTO 00000KT 9999NDV R01/P1500D R19/P1500D NCD 18/11 Q1019=
200606250550 METAR ESMX 250550Z AUTO 00000KT 9999NDV R01/P1500U R19/P1500U NCD 16/11 Q1019=
200606250520 METAR ESMX 250520Z AUTO 00000KT 9999NDV R01/P1500U R19/P1500N NCD 15/12 Q1019=
200606250450 METAR ESMX 250450Z AUTO 00000KT 9999NDV R01/P1500U R19/P1500U NCD 14/12 Q1019=
200606250420 METAR ESMX 250420Z AUTO 00000KT 8000NDV R01/P1500U R19/P1500U BR NCD 12/12 Q1019=
200606250350 METAR ESMX 250350Z AUTO 18002KT 6000NDV R01/P1500D R19/P1500D BR NCD 10/09 Q1019=
200606250320 METAR ESMX 250320Z AUTO 17002KT 2200NDV R01/P1500D R19/P1500D BR NCD 09/09 Q1019=
200606250250 METAR ESMX 250250Z AUTO 20003KT 6000NDV R01/P1500D R19/P1500N BR NCD 09/09 Q1019=
200606250220 METAR ESMX 250220Z AUTO 16004KT 6000NDV R01/P1500D R19/P1500U BR NCD 09/09 Q1019=
200606250150 METAR ESMX 250150Z AUTO 15003KT 7000NDV R01/P1500D R19/P1500D BR NCD 09/09 Q1019=
200606250120 METAR ESMX 250120Z AUTO 18002KT 9000NDV R01/P1500N R19/P1500N BR FEW082/// 10/09 Q1019=
200606250050 METAR ESMX 250050Z AUTO 17004KT 9000NDV R01/P1500N R19/P1500N BR BKN082/// 09/09 Q1019=
200606250020 METAR ESMX 250020Z AUTO 18003KT 7000NDV R01/P1500N R19/P1500N BR BKN083/// 10/10 Q1020=
200606242350 METAR ESMX 242350Z AUTO 18004KT 7000NDV R01/P1500N R19/P1500N BR NCD 10/09 Q1019=
200606242320 METAR ESMX 242320Z AUTO 16003KT 9999NDV R01/P1500N R19/P1500N NCD 10/09 Q1019=
200606242250 METAR ESMX 242250Z AUTO 18004KT 9999NDV R01/P1500N R19/P1500N NCD 11/10 Q1019=
200606242220 METAR ESMX 242220Z AUTO 17004KT 9999NDV R01/P1500N R19/P1500N NCD 11/10 Q1019=
200606242150 METAR ESMX 242150Z AUTO 17004KT 9999NDV R01/P1500N R19/P1500N FEW084/// 11/11 Q1019=
200606242120 METAR ESMX 242120Z AUTO 18003KT 9999NDV R01/P1500N R19/P1500N FEW050/// SCT084/// 12/11 Q1019=
200606242050 METAR ESMX 242050Z AUTO 18002KT 9999NDV R01/P1500N R19/P1500N FEW088/// 12/11 Q1019=
200606242020 METAR ESMX 242020Z AUTO 15002KT 9999NDV R01/P1500D R19/P1500D FEW063/// BKN088/// 13/12 Q1019=
200606241950 METAR ESMX 241950Z AUTO 17003KT 9999NDV R01/P1500U R19/P1500D FEW054/// BKN088/// 14/11 Q1019=
200606241920 METAR ESMX 241920Z AUTO 17003KT 9999NDV R01/P1500D R19/P1500U SCT061/// OVC082/// 16/11 Q1019=
200606241850 METAR ESMX 241850Z AUTO 17004KT 9999NDV R01/P1500U R19/P1500D BKN072/// 16/12 Q1019=
200606241820 METAR ESMX 241820Z AUTO 16003KT 9999NDV R01/P1500U R19/P1500D SCT056/// BKN070/// 16/12 Q1019=
200606241750 METAR ESMX 241750Z AUTO 16004KT 9999NDV R01/P1500D R19/P1500U BKN058/// BKN087/// 16/12 Q1019=
200606241720 METAR ESMX 241720Z AUTO 15002KT 9999NDV R01/P1500U R19/P1500U FEW058/// BKN093/// 16/12 Q1019=
200606241650 METAR ESMX 241650Z AUTO 13002KT 9999NDV R01/P1500N R19/P1500D SCT086/// 16/13 Q1019=
200606241620 METAR ESMX 241620Z AUTO 00000KT 9999NDV R01/P1500U R19/P1500U SCT050/// BKN083/// 14/13 Q1019 REDZ=
200606241550 METAR ESMX 241550Z AUTO 23004KT 200V270 9999NDV R01/P1500D R19/P1500D DZ FEW041/// BKN048/// 14/12 Q1019 RERA=
200606241520 METAR ESMX 241520Z AUTO 25004KT 9999NDV R01/P1500D R19/P1500U -RA OVC045/// 16/10 Q1019 REDZ=
200606241450 METAR ESMX 241450Z AUTO 23004KT 9999NDV R01/P1500D R19/P1500D BKN051/// 17/09 Q1019=
200606241420 METAR ESMX 241420Z AUTO 19006KT 140V230 9999NDV R01/P1500U R19/P1500D SCT058/// BKN089/// 19/08 Q1019=
200606241350 METAR ESMX 241350Z AUTO 20008KT 170V240 9999NDV R01/P1500U R19/P1500D BKN080/// 19/09 Q1019=
200606241320 METAR ESMX 241320Z AUTO 20009KT 170V240 9999NDV R01/P1500D R19/P1500D FEW045/// OVC080/// 19/09 Q1019=
200606241250 METAR ESMX 241250Z AUTO 19009KT 160V230 9999NDV R01/P1500U R19/P1500D SCT042/// BKN059/// OVC078/// 19/09 Q1019=
200606241220 METAR ESMX 241220Z AUTO 20008KT 150V220 9999NDV R01/P1500U R19/P1500D SCT043/// OVC051/// 19/09 Q1019=
200606241150 METAR ESMX 241150Z AUTO 23008KT 190V280 9999NDV R01/P1500U R19/P1500D FEW041/// SCT057/// BKN078/// 19/08 Q1019=
200606241120 METAR ESMX 241120Z AUTO 21008KT 170V260 9999NDV R01/P1500D R19/P1500U FEW043/// SCT056/// BKN070/// 20/09 Q1019=
200606241050 METAR ESMX 241050Z AUTO 19005KT 150V230 9999NDV R01/P1500D R19/P1500D FEW041/// BKN057/// 18/09 Q1020=
200606241020 METAR ESMX 241020Z AUTO 19006KT 160V220 9999NDV R01/P1500D R19/P1500U FEW040/// BKN061/// 18/09 Q1020=
200606240950 METAR ESMX 240950Z AUTO 20008KT 160V240 9999NDV R01/P1500D R19/P1500U FEW041/// BKN059/// 18/08 Q1020=
200606240920 METAR ESMX 240920Z AUTO 21007KT 180V250 9999NDV R01/P1500D R19/P1500D FEW043/// OVC051/// 17/08 Q1020=
200606240850 METAR ESMX 240850Z AUTO 21006KT 150V300 9999NDV R01/P1500U R19/P1500D SCT041/// BKN050/// 19/08 Q1020=
200606240820 METAR ESMX 240820Z AUTO 19011KT 160V230 9999NDV R01/P1500U R19/P1500D FEW041/// SCT049/// 18/07 Q1020=
200606240750 METAR ESMX 240750Z AUTO 21006KT 170V240 9999NDV R01/P1500U R19/P1500U FEW034/// SCT043/// 16/08 Q1020=
200606240720 METAR ESMX 240720Z AUTO 20008KT 180V250 9999NDV R01/P1500D R19/P1500D FEW032/// 17/08 Q1020=
200606240650 METAR ESMX 240650Z AUTO 18007KT 160V250 9999NDV R01/P1500U R19/P1500D FEW025/// 16/09 Q1020=
200606240620 METAR ESMX 240620Z AUTO 24003KT 140V300 9999NDV R01/P1500D R19/P1500D NCD 15/09 Q1019=
200606240550 METAR ESMX 240550Z AUTO VRB02KT 9999NDV R01/P1500U R19/P1500U NCD 14/09 Q1019=
200606240520 METAR ESMX 240520Z AUTO 22003KT 180V250 9999NDV R01/P1500D R19/P1500D NCD 13/09 Q1019=
200606240450 METAR ESMX 240450Z AUTO 22004KT 9999NDV R01/P1500U R19/P1500U NCD 12/10 Q1019=
200606240420 METAR ESMX 240420Z AUTO 22004KT 9999NDV R01/P1500D R19/P1500D NCD 11/09 Q1019=
200606240350 METAR ESMX 240350Z AUTO 21004KT 9999NDV R01/P1500U R19/P1500U NCD 09/08 Q1019=
200606240320 METAR ESMX 240320Z AUTO 21005KT 9999NDV R01/P1500U R19/P1500U NCD 07/06 Q1019=
200606240250 METAR ESMX 240250Z AUTO 21004KT 6000NDV R01/P1500D R19/P1500U BR NCD 06/06 Q1019=
200606240220 METAR ESMX 240220Z AUTO 22003KT 9999NDV R01/P1500U R19/P1500D NCD 05/05 Q1019=
200606240150 METAR ESMX 240150Z AUTO 18002KT 9999NDV R01/P1500U R19/P1500D NCD 06/05 Q1019=
200606240120 METAR ESMX 240120Z AUTO 19003KT 9999NDV R01/P1500N R19/P1500N NCD 07/06 Q1018=
200606240050 METAR ESMX 240050Z AUTO 20005KT 9999NDV R01/P1500N R19/P1500N NCD 07/06 Q1018=
200606240020 METAR ESMX 240020Z AUTO 17005KT 9999NDV R01/P1500N R19/P1500N NCD 07/05 Q1018=
200606232350 METAR ESMX 232350Z AUTO 17004KT 9999NDV R01/P1500N R19/P1500N NCD 09/07 Q1018=
200606232320 METAR ESMX 232320Z AUTO 17003KT 9999NDV R01/P1500N R19/P1500N NCD 09/07 Q1018=
200606232250 METAR ESMX 232250Z AUTO 20004KT 9999NDV R01/P1500N R19/P1500N NCD 10/07 Q1018=
200606232220 METAR ESMX 232220Z AUTO 22004KT 9999NDV R01/P1500N R19/P1500N NCD 09/07 Q1018=
200606232150 METAR ESMX 232150Z AUTO 20004KT 9999NDV R01/P1500N R19/P1500N NCD 10/07 Q1018=
200606232120 METAR ESMX 232120Z AUTO 21004KT 9999NDV R01/P1500N R19/P1500N NCD 11/07 Q1018=
200606232050 METAR ESMX 232050Z AUTO 22004KT 9999NDV R01/P1500D R19/P1500D NCD 11/07 Q1017=
200606232020 METAR ESMX 232020Z AUTO 22003KT 9999NDV R01/P1500D R19/P1500U NCD 11/06 Q1017=
200606231950 METAR ESMX 231950Z AUTO 24004KT 210V290 9999NDV R01/P1500D R19/P1500N NCD 13/06 Q1017=
200606231920 METAR ESMX 231920Z AUTO 26006KT 230V290 9999NDV R01/P1500D R19/P1500D NCD 14/07 Q1017=
200606231850 METAR ESMX 231850Z AUTO 25008KT 220V290 9999NDV R01/P1500U R19/P1500U NCD 15/07 Q1016=
200606231820 METAR ESMX 231820Z AUTO 26010KT 9999NDV R01/P1500U R19/P1500D FEW051/// 16/07 Q1016=
200606231750 METAR ESMX 231750Z AUTO 26009KT 240V300 9999NDV R01/P1500U R19/P1500D NCD 16/07 Q1016=
200606231720 METAR ESMX 231720Z AUTO 28012KT 240V300 9999NDV R01/P1500D R19/P1500D NCD 17/07 Q1015=
200606231650 METAR ESMX 231650Z AUTO 24013KT 200V290 9999NDV R01/P1500D R19/P1500D FEW043/// 17/07 Q1015=
200606231620 METAR ESMX 231620Z AUTO 23010KT 200V260 9999NDV R01/P1500D R19/P1500U SCT042/// 17/08 Q1015=
200606231550 METAR ESMX 231550Z AUTO 24010KT 210V320 9999NDV R01/P1500D R19/P1500U FEW043/// BKN064/// 17/08 Q1015=
200606231520 METAR ESMX 231520Z AUTO 24013KT 190V280 9999NDV R01/P1500D R19/P1500U FEW044/// SCT065/// 18/07 Q1014=
200606231450 METAR ESMX 231450Z AUTO 25012G22KT 220V290 9999NDV R01/P1500U R19/P1500D FEW050/// 17/07 Q1014=
200606231420 METAR ESMX 231420Z AUTO 26011KT 230V290 9999NDV R01/P1500U R19/P1500U FEW047/// BKN062/// 18/07 Q1014=
200606231350 METAR ESMX 231350Z AUTO 23013KT 200V260 9999NDV R01/P1500U R19/P1500U FEW045/// SCT068/// 18/06 Q1014=
200606231320 METAR ESMX 231320Z AUTO 24011KT 9999NDV R01/P1500D R19/P1500U FEW064/// 18/07 Q1014=
200606231250 METAR ESMX 231250Z AUTO 23014KT 9999NDV R01/P1500U R19/P1500U FEW041/// SCT069/// 18/08 Q1014=
200606231220 METAR ESMX 231220Z AUTO 21013KT 170V240 9999NDV R01/P1500D R19/P1500D FEW025/// SCT058/// BKN069/// 17/08 Q1014=
200606231150 METAR ESMX 231150Z AUTO 22012KT 190V250 9999NDV R01/P1500D R19/P1500D FEW033/// BKN064/// 17/09 Q1014=
200606231120 METAR ESMX 231120Z AUTO 23012KT 200V260 9999NDV R01/P1500D R19/P1500U FEW020/// BKN056/// 16/09 Q1013=
200606231050 METAR ESMX 231050Z AUTO 23011KT 190V270 9999NDV R01/P1500U R19/P1500D FEW031/// OVC063/// 16/09 Q1013=
200606231020 METAR ESMX 231020Z AUTO 23012KT 200V280 9999NDV R01/P1500U R19/P1500D FEW030/// BKN069/// 16/09 Q1013=
200606230950 METAR ESMX 230950Z AUTO 24012KT 200V260 9999NDV R01/P1500U R19/P1500U SCT029/// BKN046/// OVC066/// 16/09 Q1013=
200606230920 METAR ESMX 230920Z AUTO 23012KT 170V260 9999NDV R01/P1500D R19/P1500U FEW029/// BKN058/// 15/08 Q1012=
200606230850 METAR ESMX 230850Z AUTO 22010KT 190V250 9999NDV R01/P1500U R19/P1500D FEW028/// OVC053/// 15/10 Q1012=
200606230820 METAR ESMX 230820Z AUTO 22010KT 9999NDV R01/P1500D R19/P1500U FEW027/// SCT031/// BKN037/// 14/09 Q1012=
200606230750 METAR ESMX 230750Z AUTO 21012KT 160V230 9999NDV R01/P1500D R19/P1500U FEW022/// SCT030/// BKN040/// 15/09 Q1012=
200606230720 METAR ESMX 230720Z AUTO 21012KT 9999NDV R01/P1500U R19/P1500U FEW019/// BKN024/// BKN056/// 15/10 Q1011=
200606230650 METAR ESMX 230650Z AUTO 21013KT 9999NDV R01/P1500U R19/P1500D FEW020/// SCT023/// BKN027/// 14/10 Q1011=
200606230620 METAR ESMX 230620Z AUTO 21013KT 9999NDV R01/P1500D R19/P1500D FEW018/// SCT024/// BKN035/// 14/10 Q1011=
200606230550 METAR ESMX 230550Z AUTO 22011G22KT 190V250 9999NDV R01/P1500U R19/P1500U FEW014/// SCT019/// BKN025/// 13/10 Q1011=
200606230520 METAR ESMX 230520Z AUTO 21011KT 9999NDV R01/P1500U R19/P1500U FEW013/// SCT015/// BKN019/// 12/09 Q1011=
200606230450 METAR ESMX 230450Z AUTO 20012KT 170V230 9999NDV R01/P1500U R19/P1500U BKN012/// OVC067/// 12/09 Q1010=
200606230420 METAR ESMX 230420Z AUTO 18009KT 140V200 9999NDV R01/P1500U R19/P1500D FEW012/// BKN060/// 11/09 Q1010=
200606230350 METAR ESMX 230350Z AUTO 20009KT 9999NDV R01/P1500D R19/P1500D FEW027/// SCT032/// BKN065/// 11/09 Q1010=
200606230320 METAR ESMX 230320Z AUTO 19007KT 9999NDV R01/P1500U R19/P1500D FEW031/// 10/08 Q1010=
200606230250 METAR ESMX 230250Z AUTO 18008KT 9999NDV R01/P1500U R19/P1500U NCD 10/08 Q1010=
200606230220 METAR ESMX 230220Z AUTO 18008KT 9999NDV R01/P1500D R19/P1500D NCD 10/08 Q1010=
200606230150 METAR ESMX 230150Z AUTO 18009KT 9999NDV R01/P1500U R19/P1500D FEW025/// SCT038/// 10/08 Q1010=
200606230120 METAR ESMX 230120Z AUTO 18008KT 9999NDV R01/P1500N R19/P1500N FEW020/// BKN035/// 10/08 Q1010=
200606230050 METAR ESMX 230050Z AUTO 19008KT 9999NDV R01/P1500N R19/P1500N FEW022/// SCT027/// BKN045/// 10/08 Q1010=
200606230020 METAR ESMX 230020Z AUTO 19008KT 9999NDV R01/P1500N R19/P1500N SCT020/// BKN027/// 11/08 Q1010=
200606222350 METAR ESMX 222350Z AUTO 20008KT 9999NDV R01/P1500N R19/P1500N FEW021/// SCT032/// 11/08 Q1009=
200606222320 METAR ESMX 222320Z AUTO 20008KT 9999NDV R01/P1500N R19/P1500N FEW026/// BKN038/// 11/08 Q1009=
200606222250 METAR ESMX 222250Z AUTO 18006KT 9999NDV R01/P1500N R19/P1500N FEW038/// 11/08 Q1009=
200606222220 METAR ESMX 222220Z AUTO 20007KT 9999NDV R01/P1500N R19/P1500N NCD 11/08 Q1009=
200606222150 METAR ESMX 222150Z AUTO 19005KT 9999NDV R01/P1500N R19/P1500N NCD 11/08 Q1009=
200606222120 METAR ESMX 222120Z AUTO 20006KT 170V230 9999NDV R01/P1500N R19/P1500N NCD 11/08 Q1009=
200606222050 METAR ESMX 222050Z AUTO 21004KT 9999NDV R01/P1500D R19/P1500N FEW035/// 11/08 Q1009=
200606222020 METAR ESMX 222020Z AUTO 20005KT 9999NDV R01/P1500N R19/P1500N FEW044/// 12/08 Q1008=
200606221950 METAR ESMX 221950Z AUTO 24008KT 200V270 9999NDV R01/P1500N R19/P1500U BKN038/// OVC050/// 14/08 Q1008=
200606221920 METAR ESMX 221920Z AUTO 21009KT 190V250 9999NDV R01/P1500D R19/P1500N FEW048/// BKN072/// 15/07 Q1008=
200606221850 METAR ESMX 221850Z AUTO 20012KT 9999NDV R01/P1500D R19/P1500U SCT081/// 15/07 Q1008=
200606221820 METAR ESMX 221820Z AUTO 20010KT 160V230 9999NDV R01/P1500U R19/P1500D FEW059/// BKN076/// 16/08 Q1007=
200606221750 METAR ESMX 221750Z 23007KT 200V270 9999 FEW035 BKN070 16/08 Q1007=
200606221720 METAR ESMX 221720Z 21008KT 190V250 9999 FEW040 SCT046 BKN080 16/08 Q1007=
200606221650 METAR ESMX 221650Z 21012KT 190V260 CAVOK 17/09 Q1007=
200606221620 METAR ESMX 221620Z 24011KT 210V290 9999 R01/P1500U R19/P1500U FEW040 BKN070 17/08 Q1007=
200606221550 METAR ESMX 221550Z 24012KT 200V270 CAVOK 18/08 Q1007=
200606221520 METAR ESMX 221520Z 22013KT 9999 FEW025 BKN080 18/08 Q1006=
200606221450 METAR ESMX 221450Z 24008KT 200V270 9999 FEW030 BKN060 19/09 Q1006=
200606221420 METAR ESMX 221420Z 24009KT 200V280 9999 FEW030 BKN056 19/09 Q1006=
200606221350 METAR ESMX 221350Z 22013KT 9999 FEW030 BKN060 20/07 Q1006=
200606221320 METAR ESMX 221320Z 20013KT 170V240 9999 FEW030 BKN057 20/07 Q1006=
200606221250 METAR ESMX 221250Z 21014KT 180V260 9999 FEW030 BKN060 20/07 Q1006=
200606221220 METAR ESMX 221220Z 19017KT 9999 FEW040 BKN080 21/06 Q1006=
200606221150 METAR ESMX 221150Z 18016KT 9999 FEW030 BKN060 19/08 Q1006=
200606221120 METAR ESMX 221120Z 18017KT 9999 FEW025 BKN060 20/11 Q1006=
200606221050 METAR ESMX 221050Z 20013KT 160V230 9999 FEW025 BKN060 19/11 Q1006=
200606221020 METAR ESMX 221020Z 19014KT 160V230 9999 FEW025 BKN070 19/12 Q1006=
200606220950 METAR ESMX 220950Z 21012G22KT 170V250 9999 FEW025 BKN080 19/13 Q1006 RERA=
200606220920 METAR ESMX 220920Z 20014KT 9999 -SHRA FEW025 SCT040 BKN090 19/11 Q1006=
200606220850 METAR ESMX 220850Z 22010KT 190V250 9999 FEW035 SCT050 19/11 Q1006=
200606220820 METAR ESMX 220820Z 19014KT 9999 FEW035 SCT080 19/12 Q1006=
200606220750 METAR ESMX 220750Z 19009KT 150V210 9999 FEW020 SCT050 BKN060 18/13 Q1006=
200606220720 METAR ESMX 220720Z 21008KT 160V230 9999 SCT025 17/13 Q1006=
200606220650 METAR ESMX 220650Z 19010KT 150V210 9999 SCT020 17/13 Q1006=
200606220620 METAR ESMX 220620Z 18012KT 140V210 9999 SCT020 17/13 Q1006=
200606220550 METAR ESMX 220550Z 19011KT 9999 FEW013 SCT067 17/13 Q1006=
200606220520 METAR ESMX 220520Z 19011KT 150V210 9999 FEW012 SCT016 BKN020 16/13 Q1007=
200606220450 METAR ESMX 220450Z 18010KT 9000 BR FEW010 SCT018 BKN060 15/13 Q1007=
200606220420 METAR ESMX 220420Z 16007KT 120V200 7000 BR FEW010 SCT030 BKN045 14/13 Q1006=
200606220350 METAR ESMX 220350Z 17006KT 8000 BR FEW035 BKN040 14/12 Q1006=
200606220320 METAR ESMX 220320Z AUTO 17004KT 7000NDV R01/P1500D R19/P1500N BR FEW024/// SCT045/// 13/12 Q1006=
200606220250 METAR ESMX 220250Z AUTO 18005KT 150V210 9000NDV R01/P1500D R19/P1500D FEW020/// 13/12 Q1006=
200606220220 METAR ESMX 220220Z AUTO 19005KT 9999NDV R01/P1500D R19/P1500D FEW020/// SCT027/// 13/11 Q1007=
200606220150 METAR ESMX 220150Z AUTO 18007KT 9999NDV R01/P1500D R19/P1500D SCT100/// 13/11 Q1007=
200606220120 METAR ESMX 220120Z AUTO 16008KT 9999NDV R01/P1500N R19/P1500N BKN100/// 14/12 Q1007=
200606220050 METAR ESMX 220050Z AUTO 18008KT 140V200 9999NDV R01/P1500N R19/P1500N BKN100/// 14/12 Q1007=
200606220020 METAR ESMX 220020Z 17009KT 9999 FEW40 14/12 Q1008=
200606212350 METAR ESMX 212350Z 19007KT 9999 FEW020 SCT073 BKN100 15/12 Q1008=
200606212320 METAR ESMX 212320Z 17005KT 140V210 CAVOK 15/12 Q1008=
200606212250 METAR ESMX 212250Z 15007KT CAVOK 15/12 Q1008=
200606212220 METAR ESMX 212220Z 16007KT 120V190 CAVOK 15/12 Q1008=
200606212150 METAR ESMX 212150Z 15006KT CAVOK 15/12 Q1008=
200606212120 METAR ESMX 212120Z 16006KT CAVOK 15/12 Q1008=
200606212050 METAR ESMX 212050Z 13003KT 9999 MIFG SCT100 13/12 Q1007=
200606212020 METAR ESMX 212020Z 23005KT CAVOK 14/12 Q1007=
200606211950 METAR ESMX 211950Z 24005KT CAVOK 15/12 Q1008=
200606211920 METAR ESMX 211920Z 24005KT CAVOK 16/12 Q1007=
200606211850 METAR ESMX 211850Z 22006KT 190V250 9999 FEW036 SCT097 16/12 Q1007=
200606211820 METAR ESMX 211820Z 23005KT 200V280 9999 FEW030 SCT038 BKN050 17/13 Q1008=
200606211750 METAR ESMX 211750Z 26006KT 9999 FEW035 BKN110 17/12 Q1008=
200606211720 METAR ESMX 211720Z 25006KT 230V300 9999 FEW034 SCT110 17/13 Q1007=
200606211650 METAR ESMX 211650Z 25005KT 220V290 9999 FEW035 18/14 Q1007=
200606211620 METAR ESMX 211620Z 22007KT 9999 FEW028 19/13 Q1007=
200606211550 METAR ESMX 211550Z 17005KT 130V220 9999 SCT015 BKN050 19/16 Q1008=
200606211520 METAR ESMX 211520Z 17006KT 9999 FEW012 SCT023 BKN050 19/17 Q1008=
200606211450 METAR ESMX 211450Z 18006KT 130V200 9999 FEW006 SCT010 BKN060 19/17 Q1008=
200606211420 METAR ESMX 211420Z 17005KT 9999 SCT007 BKN050 18/16 Q1008=
200606211350 METAR ESMX 211350Z 19005KT 160V220 6000 BR FEW004 SCT007 BKN030 17/16 Q1008 RERA=
200606211320 METAR ESMX 211320Z 18007KT 5000 -RA BR FEW008 BKN034 17/15 Q1009=
200606211250 METAR ESMX 211250Z 17007KT 8000 -RA BR FEW006 BKN035 17/16 Q1009=
200606211220 METAR ESMX 211220Z 16006KT 130V190 8000 BR SCT006 BKN035 17/16 Q1009 RERA=
200606211150 METAR ESMX 211150Z 16005KT 120V190 6000 -RA FEW005 SCT011 BKN037 17/16 Q1009=
200606211120 METAR ESMX 211120Z 15007KT 120V190 7000 -RA SCT009 BKN014 17/16 Q1009=
200606211050 METAR ESMX 211050Z 16007KT 9999 -RA SCT010 BKN020 18/16 Q1009=
200606211020 METAR ESMX 211020Z 16005KT 140V200 9999 -DZ FEW010 BKN020 18/16 Q1009=
200606210950 METAR ESMX 210950Z 16007KT 120V190 9999 DZ FEW010 BKN020 18/15 Q1009=
200606210920 METAR ESMX 210920Z 15006KT 110V180 9999 -DZ BKN016 BKN064 18/15 Q1009=
200606210850 METAR ESMX 210850Z 16009KT 9999 -DZ BKN018 18/14 Q1010 RERA=
200606210820 METAR ESMX 210820Z 16010KT 120V200 9999 -RA SCT020 BKN047 18/14 Q1010=
200606210750 METAR ESMX 210750Z 16009KT 9999 FEW025 BKN035 19/13 Q1010=
200606210720 METAR ESMX 210720Z 13007KT 070V200 9999 FEW025 BKN035 19/14 Q1010=
200606210650 METAR ESMX 210650Z 13005KT 070V170 9999 FEW025 BKN035 19/15 Q1010=
200606210620 METAR ESMX 210620Z 10003KT 060V140 9999 FEW025 BKN037 17/15 Q1010=
200606210550 METAR ESMX 210550Z 10003KT 060V160 9999 BR FEW 025 BKN039 17/15 Q1011=
200606210520 METAR ESMX 210520Z 08003KT 030V140 6000 BR SCT033 BKN041 16/15 Q1011 RERA=
200606210450 METAR ESMX 210450Z VRB02KT 5000 BR FEW025 BKN040 15/15 Q1012 REDZ=
200606210420 METAR ESMX 210420Z 19003KT 5000 -RA FEW025 SCT035 16/15 Q1012=
200606210350 METAR ESMX 210350Z 18003KT 160V220 4800 -RA FEW020 SCT035 16/15 Q1012=
200606210320 METAR ESMX 210320Z AUTO 16006KT 9999NDV R01/P1500D R19/P1500D DZ OVC037/// 16/15 Q1012 RERA=
200606210250 METAR ESMX 210250Z AUTO VRB02KT 9999NDV R01/P1500D R19/P1500U BKN038/// BKN046/// 16/14 Q1012=
200606210220 METAR ESMX 210220Z AUTO VRB02KT 9999NDV R01/P1500D R19/P1500D BKN043/// 15/14 Q1012=
200606210150 METAR ESMX 210150Z AUTO 17003KT 9999NDV R01/P1500N R19/P1500N BKN045/// 16/14 Q1013=
200606210120 METAR ESMX 210120Z AUTO 17003KT 9999NDV R01/P1500N R19/P1500N BKN045/// 13/12 Q1013=
200606210050 METAR ESMX 210050Z AUTO 17002KT 9999NDV R01/P1500N R19/P1500N FEW050/// SCT073/// 13/12 Q1013=
200606210020 METAR ESMX 210020Z 15003KT CAVOK 13/12 Q1013=
200606202350 METAR ESMX 202350Z 17002KT CAVOK 13/12 Q1013=
200606202320 METAR ESMX 202320Z 21002KT CAVOK 13/12 Q1013=
200606202250 METAR ESMX 202250Z 20003KT CAVOK 14/12 Q1014=
200606202220 METAR ESMX 202220Z 20003KT CAVOK 15/12 Q1014=
200606202150 METAR ESMX 202150Z 23003KT CAVOK 15/12 Q1014=
200606202120 METAR ESMX 202120Z 22004KT 9999 FEW034 SCT058 15/12 Q1014=
200606202050 METAR ESMX 202050Z 18006KT CAVOK 16/12 Q1013=
200606201950 METAR ESMX 201950Z 17005KT 9999 FEW040 17/13 Q1013=
200606201920 METAR ESMX 201920Z 20007KT 9999 FEW040 19/13 Q1013=
200606201850 METAR ESMX 201850Z 21008KT 170V240 9999 FEW044 20/13 Q1012=
200606201820 METAR ESMX 201820Z 23005KT 9999 FEW040 21/13 Q1012=
200606201750 METAR ESMX 201750Z 23008KT 9999 SCT040 21/13 Q1012=
200606201720 METAR ESMX 201720Z 23006KT 200V260 9999 FEW040 SCT060 BKN080 21/13 Q1012=
200606201650 METAR ESMX 201650Z 22008KT 9999 FEW040 SCT070 22/13 Q1012=
200606201620 METAR ESMX 201620Z 23008KT 200V280 9999 FEW040 SCT050 21/13 Q1012=
200606201550 METAR ESMX 201550Z 25008KT 9999 SCT045 21/13 Q1012=
200606201520 METAR ESMX 201520Z 25008KT 200V280 9999 FEW025 SCT040 22/12 Q1012=
200606201450 METAR ESMX 201450Z 27007KT 190V300 9999 FEW040 SCT060 23/14 Q1012=
200606201420 METAR ESMX 201420Z 24007KT 190V290 9999 FEW045 SCT060 23/13 Q1012=
200606201350 METAR ESMX 201350Z 23008KT 200V280 9999 FEW045 BKN055 22/12 Q1012=
200606201320 METAR ESMX 201320Z 22008KT 170V260 9999 BKN040 22/13 Q1012=
200606201250 METAR ESMX 201250Z 20007KT 160V250 9999 FEW035 SCT040 22/14 Q1012=
200606201220 METAR ESMX 201220Z 25007KT 200V290 9999 FEW033 SCT040 23/14 Q1012=
200606201150 METAR ESMX 201150Z 23007KT 9999 FEW023 SCT030 BKN037 21/15 Q1012=
200606201120 METAR ESMX 201120Z 20005KT 9999 FEW019 BKN023 21/16 Q1012=
200606201050 METAR ESMX 201050Z 22003KT 180V260 9000 BR FEW011 SCT014 BKN017 20/16 Q1012=
200606201020 METAR ESMX 201020Z 22003KT 160V320 9000 BR FEW006 BKN008 20/16 Q1012=
200606200950 METAR ESMX 200950Z 24006KT 200V280 3400 -DZ BR SCT002 BKN007 17/16 Q1013=
200606200920 METAR ESMX 200920Z 24007KT 5000 BR FEW003 BKN004 17/16 Q1013=
200606200850 METAR ESMX 200850Z 20005KT 6000 BR FEW006 BKN007 18/17 Q1012=
200606200820 METAR ESMX 200820Z 21004KT 5000 BR SCT004 BKN006 17/17 Q1012=
200606200750 METAR ESMX 200750Z 18005KT 5000 BR FEW004 OVC005 17/16 Q1012=
200606200720 METAR ESMX 200720Z 15004KT 5000 BR FEW003 BKN004 17/16 Q1012=
200606200650 METAR ESMX 200650Z 17004KT 6000 BR FEW006 BKN008 17/16 Q1012=
200606200620 METAR ESMX 200620Z 16006KT 6000 BR BKN008 16/16 Q1012=
200606200550 METAR ESMX 200550Z 15004KT 5000 DZ FEW006 16/15 Q1011=
200606200520 METAR ESMX 200520Z 15003KT 6000 DZ FEW068 BKN070 16/15 Q1012 RERA=
200606200450 METAR ESMX 200450Z 16004KT 9999 -DZ BKN058 16/15 Q1012=
200606200420 METAR ESMX 200420Z 17005KT 9999 -RA FEW056 SCT067 17/15 Q1012=
200606200350 METAR ESMX 200350Z 14005KT 110V170 CAVOK 17/14 Q1011=
200606200320 METAR ESMX 200320Z AUTO 13004KT 080V170 9999NDV R01/P1500D R19/P1500U FEW100/// 16/14 Q1011=
200606200250 METAR ESMX 200250Z AUTO 14005KT 100V170 9999NDV R01/P1500D R19/P1500N FEW100/// 16/14 Q1012=
200606200220 METAR ESMX 200220Z AUTO 13005KT 100V170 9999NDV R01/P1500N R19/P1500U FEW110/// 16/14 Q1012=
200606200150 METAR ESMX 200150Z AUTO 13004KT 080V170 9999NDV R01/P1500D R19/P1500D FEW110/// 16/13 Q1012=
200606200120 METAR ESMX 200120Z AUTO 14005KT 110V170 9999NDV R01/P1500N R19/P1500N NCD 16/13 Q1012=
200606200050 METAR ESMX 200050Z AUTO 13007KT 110V170 9999NDV R01/P1500N R19/P1500N NCD 16/13 Q1013=
200606200020 METAR ESMX 200020Z 15006KT 110V180 CAVOK 16/13 Q1013=
200606192350 METAR ESMX 192350Z 14006KT 100V170 CAVOK 16/12 Q1013=
200606192320 METAR ESMX 192320Z 14006KT 110V190 CAVOK 16/12 Q1013=
200606192250 METAR ESMX 192250Z 14004KT 110V190 CAVOK 16/12 Q1013=
200606192220 METAR ESMX 192220Z 15005KT CAVOK 17/12 Q1013=
200606192150 METAR ESMX 192150Z 16005KT 120V190 CAVOK 17/12 Q1013=
200606192120 METAR ESMX 192120Z 16005KT CAVOK 18/12 Q1013=
200606192050 METAR ESMX 192050Z 17005KT CAVOK 18/13 Q1013=
200606192020 METAR ESMX 192020Z 17005KT CAVOK 18/12 Q1013=
200606191950 METAR ESMX 191950Z 16007KT CAVOK 20/12 Q1013=
200606191920 METAR ESMX 191920Z 16005KT CAVOK 20/12 Q1013=
200606191850 METAR ESMX 191850Z 16005KT CAVOK 21/11 Q1013=
200606191750 METAR ESMX 191750Z 17008KT 130V190 CAVOK 22/11 Q1013=
200606191720 METAR ESMX 191720Z 17008KT 120V200 CAVOK 23/11 Q1013=
200606191650 METAR ESMX 191650Z 16011KT 120V200 CAVOK 23/12 Q1013=
200606191620 METAR ESMX 191620Z 16010KT 110V200 CAVOK 24/12 Q1013=
200606191550 METAR ESMX 191550Z 16011KT 120V190 CAVOK 24/13 Q1013=
200606191520 METAR ESMX 191520Z 15011KT 100V190 CAVOK 23/13 Q1013=
200606191450 METAR ESMX 191450Z 16010KT 120V200 9999 FEW040 24/14 Q1013=
200606191420 METAR ESMX 191420Z 18010KT 140V200 9999 FEW040 24/14 Q1014=
200606191350 METAR ESMX 191350Z 16010KT 120V190 9999 FEW040 24/15 Q1014=
200606191320 METAR ESMX 191320Z 19010KT 140V210 9999 FEW040 25/14 Q1014=
200606191250 METAR ESMX 191250Z 19011KT 140V210 9999 FEW040 24/14 Q1014=
200606191220 METAR ESMX 191220Z 17009KT 120V200 9999 FEW035 24/14 Q1014=
200606191150 METAR ESMX 191150Z 17011KT 9999 SCT035 24/14 Q1014=
200606191120 METAR ESMX 191120Z 18009KT 140V230 9999 SCT035 24/14 Q1013=
200606191050 METAR ESMX 191050Z 16008KT 110V170 9999 SCT035 23/15 Q1014=
200606191020 METAR ESMX 191020Z 15007KT 120V200 9999 SCT035 23/14 Q1014=
200606190950 METAR ESMX 190950Z 20005KT 140V230 9999 FEW032 23/14 Q1014=
200606190920 METAR ESMX 190920Z 19007KT 160V230 9999 SCT030 22/13 Q1014=
200606190850 METAR ESMX 190850Z 18009KT 9999 FEW027 SCT035 21/14 Q1014=
200606190820 METAR ESMX 190820Z 20007KT 160V240 9999 FEW027 22/14 Q1014=
200606190750 METAR ESMX 190750Z 22008KT 180V250 9999 SCT025 BKN200 20/14 Q1014=
200606190720 METAR ESMX 190720Z 20010KT 160V220 9999 FEW025 20/13 Q1014=
200606190650 METAR ESMX 190650Z 18005KT 110V220 9999 FEW025 20/14 Q1014=
200606190620 METAR ESMX 190620Z 17004KT 120V210 CAVOK 19/14 Q1014=
200606190550 METAR ESMX 190550Z 17003KT 140V200 CAVOK 19/14 Q1014=
200606190520 METAR ESMX 190520Z 17003KT 140V200 CAVOK 18/14 Q1014=
200606190450 METAR ESMX 190450Z 17002KT CAVOK 16/15 Q1014=
200606190420 METAR ESMX 190420Z 15001KT CAVOK 15/14 Q1014=
200606190350 METAR ESMX 190350Z AUTO 20002KT 3700NDV R01/P1500U R19/P1500N BR FEW110/// 14/14 Q1014=
200606190320 METAR ESMX 190320Z AUTO 18002KT 3900NDV R01/P1500D R19/P1500U BR SCT110/// 13/13 Q1015=
200606190250 METAR ESMX 190250Z AUTO 17002KT 3900NDV R01/P1500U R19/P1500D FEW110/// 12/12 Q1014=
200606190220 METAR ESMX 190220Z AUTO 20002KT 3300NDV R01/P1500D R19/P1500D NCD 12/11 Q1014=
200606190150 METAR ESMX 190150Z AUTO 00000KT 1500NDV R01/P1500D R19/P1500N BR NCD 13/12 Q1014=
200606190120 METAR ESMX 190120Z AUTO 26003KT 7000NDV R01/P1500N R19/P1500N BR NCD 13/12 Q1014=
200606190050 METAR ESMX 190050Z AUTO 25003KT 8000NDV R01/P1500N R19/P1500N BR NCD 13/12 Q1014=
200606190020 METAR ESMX 190020Z 26003KT CAVOK 13/13 Q1014=
200606182350 METAR ESMX 182350Z 26003KT CAVOK 13/12 Q1014=
200606182320 METAR ESMX 182320Z 24004G20KT CAVOK 14/13 Q1014=
200606182250 METAR ESMX 182250Z 26003KT CAVOK 14/13 Q1014=
200606182220 METAR ESMX 182220Z 20003KT CAVOK 15/13 Q1014=
200606182150 METAR ESMX 182150Z 24004KT 220V280 CAVOK 16/13 Q1014=
200606182120 METAR ESMX 182120Z 23004KT CAVOK 16/13 Q1014=
200606182050 METAR ESMX 182050Z 24003KT CAVOK 17/13 Q1014=
200606182020 METAR ESMX 182020Z 23004KT 200V260 CAVOK 18/13 Q1014=
200606181950 METAR ESMX 181950Z 25004KT CAVOK 19/13 Q1014=
200606181920 METAR ESMX 181920Z 26005KT CAVOK 20/13 Q1014=
200606181850 METAR ESMX 181850Z 24007KT CAVOK 21/13 Q1013=
200606181820 METAR ESMX 181820Z 26005KT 230V290 CAVOK 22/11 Q1013=
200606181750 METAR ESMX 181750Z 25007KT CAVOK 22/12 Q1013=
200606181720 METAR ESMX 181720Z 26006KT CAVOK 22/13 Q1013=
200606181650 METAR ESMX 181650Z 23005KT 190V260 CAVOK 23/12 Q1013=
200606181620 METAR ESMX 181620Z 17004KT CAVOK 23/13 Q1013=
200606181550 METAR ESMX 181550Z 22005KT 190V260 CAVOK 23/12 Q1013=
200606181520 METAR ESMX 181520Z 21005KT CAVOK 23/12 Q1013=
200606181450 METAR ESMX 181450Z 27003KT 210V340 CAVOK 23/11 Q1013=
200606181420 METAR ESMX 181420Z 19004KT CAVOK 24/12 Q1013=
200606181350 METAR ESMX 181350Z 23005KT 190V300 CAVOK 23/13 Q1013=
200606181320 METAR ESMX 181320Z 27003KT 180V330 CAVOK 23/12 Q1013=
200606181250 METAR ESMX 181250Z VRB02KT 9999 SCT045 23/14 Q1013=
200606181220 METAR ESMX 181220Z 01004KT 320V050 9999 SCT040 22/13 Q1014=
200606181150 METAR ESMX 181150Z 11004KT 060V140 9999 FEW035 SCT045 22/14 Q1014=
200606181120 METAR ESMX 181120Z AUTO 34003KT 260V070 9999NDV R01/P1500U R19/P1500U FEW056/// 23/14 Q1014=
200606181050 METAR ESMX 181050Z AUTO VRB03KT 9999NDV R01/P1500D R19/P1500N BKN055/// BKN100/// 22/13 Q1014=
200606181020 METAR ESMX 181020Z AUTO VRB01KT 9999NDV R01/P1500U R19/P1500D FEW038/// SCT086/// BKN097/// 20/13 Q1014=
200606180950 METAR ESMX 180950Z AUTO 26003KT 230V340 9999NDV R01/P1500D R19/P1500D SCT077/// 19/13 Q1014=
200606180920 METAR ESMX 180920Z AUTO 24003KT 9999NDV R01/P1500D R19/P1500U BKN065/// 18/13 Q1014=
200606180850 METAR ESMX 180850Z AUTO 16003KT 9999NDV R01/P1500U R19/P1500U OVC066/// 18/13 Q1014=
200606180820 METAR ESMX 180820Z AUTO VRB02KT 9999NDV R01/P1500U R19/P1500D SCT049/// OVC063/// 18/13 Q1014=
200606180750 METAR ESMX 180750Z AUTO 25003KT 9999NDV R01/P1500D R19/P1500D OVC049/// 17/12 Q1014=
200606180720 METAR ESMX 180720Z AUTO 20003KT 170V230 9999NDV R01/P1500D R19/P1500U OVC048/// 17/12 Q1014=
200606180650 METAR ESMX 180650Z AUTO 18004KT 9999NDV R01/P1500D R19/P1500D SCT048/// BKN055/// 16/12 Q1014=
200606180620 METAR ESMX 180620Z 18005KT 140V200 CAVOK 16/12 Q1014=
200606180550 METAR ESMX 180550Z 16003KT CAVOK 16/12 Q1014=
200606180520 METAR ESMX 180520Z AUTO VRB02KT 9999NDV R01/P1500U R19/P1500U FEW058/// SCT099/// BKN110/// 16/12 Q1014=
200606180450 METAR ESMX 180450Z AUTO 24004KT 210V270 9999NDV R01/P1500D R19/P1500D BKN056/// BKN110/// 16/12 Q1014=
200606180420 METAR ESMX 180420Z AUTO 18003KT 160V220 9999NDV R01/P1500U R19/P1500U BKN058/// 15/12 Q1014=
200606180350 METAR ESMX 180350Z AUTO 16003KT 9999NDV R01/P1500D R19/P1500D BKN056/// OVC095/// 15/12 Q1014=
200606180320 METAR ESMX 180320Z AUTO 17003KT 140V200 9999NDV R01/P1500U R19/P1500D SCT056/// BKN095/// 14/12 Q1014=
200606180250 METAR ESMX 180250Z AUTO VRB02KT 9999NDV R01/P1500D R19/P1500D BKN093/// 14/11 Q1014=
200606180220 METAR ESMX 180220Z AUTO 18003KT 9999NDV R01/P1500D R19/P1500D SCT100/// 14/11 Q1014=
200606180150 METAR ESMX 180150Z AUTO 19002KT 9999NDV R01/P1500N R19/P1500N BKN054/// 14/11 Q1014=
200606180120 METAR ESMX 180120Z AUTO 19004KT 9999NDV R01/P1500N R19/P1500N BKN053/// 14/11 Q1014=
200606180050 METAR ESMX 180050Z AUTO 16004KT 9999NDV R01/P1500N R19/P1500N NCD 15/11 Q1014=
200606180020 METAR ESMX 180020Z AUTO 16004KT 9999NDV R01/P1500N R19/P1500N FEW079/// 15/10 Q1015=
200606172350 METAR ESMX 172350Z AUTO 19002KT 9999NDV R01/P1500N R19/P1500N BKN054/// BKN080/// 15/10 Q1015=
200606172320 METAR ESMX 172320Z AUTO 22003KT 9999NDV R01/P1500N R19/P1500N SCT058/// OVC075/// 15/09 Q1015=
200606172250 METAR ESMX 172250Z AUTO 17001KT 9999NDV R01/P1500N R19/P1500N SCT076/// 13/09 Q1015=
200606172220 METAR ESMX 172220Z AUTO 17002KT 9999NDV R01/P1500N R19/P1500N FEW110/// 14/09 Q1015=
200606172150 METAR ESMX 172150Z AUTO 17003KT 9999NDV R01/P1500N R19/P1500N FEW086/// 14/09 Q1015=
200606172120 METAR ESMX 172120Z AUTO 17003KT 9999NDV R01/P1500N R19/P1500N FEW093/// 15/09 Q1015=
200606172050 METAR ESMX 172050Z AUTO 22002KT 9999NDV R01/P1500N R19/P1500N OVC082/// 15/09 Q1015=
200606172020 METAR ESMX 172020Z AUTO 20004KT 9999NDV R01/P1500D R19/P1500D BKN081/// 16/08 Q1015=
200606171950 METAR ESMX 171950Z AUTO 19003KT 9999NDV R01/P1500N R19/P1500U BKN080/// 17/08 Q1015=
200606171920 METAR ESMX 171920Z AUTO 17003KT 9999NDV R01/P1500N R19/P1500N NCD 17/08 Q1015=
200606171850 METAR ESMX 171850Z AUTO 16002KT 9999NDV R01/P1500N R19/P1500N FEW110/// 18/06 Q1015=
200606171820 METAR ESMX 171820Z AUTO 20003KT 9999NDV R01/P1500D R19/P1500N BKN100/// 18/06 Q1015=
200606171750 METAR ESMX 171750Z AUTO 18003KT 9999NDV R01/P1500N R19/P1500N OVC084/// 19/05 Q1015=
200606171720 METAR ESMX 171720Z AUTO 20005KT 9999NDV R01/P1500D R19/P1500D SCT083/// BKN100/// 19/04 Q1015=
200606171650 METAR ESMX 171650Z AUTO 18005KT 9999NDV R01/P1500D R19/P1500D BKN100/// 20/04 Q1015=
200606171620 METAR ESMX 171620Z AUTO 17006KT 9999NDV R01/P1500D R19/P1500N BKN100/// 20/04 Q1015=
200606171550 METAR ESMX 171550Z AUTO 17004KT 140V220 9999NDV R01/P1500D R19/P1500D BKN100/// 21/07 Q1015=
200606171520 METAR ESMX 171520Z AUTO 16006KT 140V200 9999NDV R01/P1500D R19/P1500D BKN110/// 21/04 Q1015=
200606171450 METAR ESMX 171450Z AUTO 16005KT 9999NDV R01/P1500U R19/P1500N FEW082/// SCT110/// 21/05 Q1015=
200606171420 METAR ESMX 171420Z AUTO 16007KT 140V200 9999NDV R01/P1500U R19/P1500N FEW082/// 21/06 Q1016=
200606171350 METAR ESMX 171350Z AUTO 16007KT 120V200 9999NDV R01/P1500D R19/P1500U NCD 23/06 Q1016=
200606171320 METAR ESMX 171320Z AUTO 16009KT 120V200 9999NDV R01/P1500D R19/P1500U FEW045/// 22/06 Q1016=
200606171250 METAR ESMX 171250Z AUTO 15008KT 120V190 9999NDV R01/P1500U R19/P1500D FEW040/// 22/06 Q1016=
200606171220 METAR ESMX 171220Z AUTO 18008KT 140V220 9999NDV R01/P1500D R19/P1500U FEW025/// 24/07 Q1016=
200606171150 METAR ESMX 171150Z AUTO 16007KT 120V210 9999NDV R01/P1500U R19/P1500D NCD 25/08 Q1016=
200606171120 METAR ESMX 171120Z AUTO 19006KT 150V230 9999NDV R01/P1500U R19/P1500U FEW043/// 24/08 Q1016=
200606171050 METAR ESMX 171050Z AUTO VRB03KT 9999NDV R01/P1500U R19/P1500D NCD 24/08 Q1016=
200606171020 METAR ESMX 171020Z AUTO VRB02KT 9999NDV R01/P1500D R19/P1500U FEW079/// 23/07 Q1016=
200606170950 METAR ESMX 170950Z AUTO 18004KT 130V210 9999NDV R01/P1500D R19/P1500U NCD 22/08 Q1016=
200606170920 METAR ESMX 170920Z AUTO VRB02KT 9999NDV R01/P1500U R19/P1500D NCD 22/08 Q1016=
200606170850 METAR ESMX 170850Z AUTO 16003KT 120V200 9999NDV R01/P1500U R19/P1500D FEW099/// 19/08 Q1016=
200606170820 METAR ESMX 170820Z AUTO VRB02KT 9999NDV R01/P1500U R19/P1500D FEW096/// SCT100/// 19/09 Q1016=
200606170750 METAR ESMX 170750Z AUTO 19004KT 140V250 9999NDV R01/P1500U R19/P1500D FEW065/// 18/09 Q1016=
200606170720 METAR ESMX 170720Z AUTO 14003KT 9999NDV R01/P1500D R19/P1500D NCD 17/09 Q1016=
200606170650 METAR ESMX 170650Z AUTO 20003KT 160V250 9999NDV R01/P1500D R19/P1500U FEW086/// 17/08 Q1016=
200606170620 METAR ESMX 170620Z AUTO 19005KT 9999NDV R01/P1500D R19/P1500D FEW099/// 16/08 Q1016=
200606170550 METAR ESMX 170550Z AUTO 16003KT 9999NDV R01/P1500U R19/P1500D FEW087/// 16/09 Q1016=
200606170520 METAR ESMX 170520Z AUTO VRB01KT 9999NDV R01/P1500U R19/P1500U SCT082/// BKN100/// 15/09 Q1016=
200606170450 METAR ESMX 170450Z AUTO 15003KT 9999NDV R01/P1500D R19/P1500U FEW110/// 14/09 Q1016=
200606170420 METAR ESMX 170420Z AUTO 19004KT 9999NDV R01/P1500D R19/P1500N FEW078/// 13/10 Q1016=
200606170350 METAR ESMX 170350Z AUTO 00000KT 9999NDV R01/P1500D R19/P1500N NCD 13/09 Q1016=
200606170320 METAR ESMX 170320Z AUTO 20001KT 9999NDV R01/P1500D R19/P1500D NCD 11/08 Q1016=
200606170250 METAR ESMX 170250Z AUTO 00000KT 9999NDV R01/P1500N R19/P1500N NCD 11/07 Q1016=
200606170220 METAR ESMX 170220Z AUTO 00000KT 9999NDV R01/P1500N R19/P1500N NCD 11/07 Q1016=
200606170150 METAR ESMX 170150Z AUTO 17002KT 9999NDV R01/P1500U R19/P1500U NCD 10/06 Q1016=
200606170120 METAR ESMX 170120Z AUTO 19004KT 9999NDV R01/P1500N R19/P1500N NCD 09/06 Q1016=
200606170050 METAR ESMX 170050Z AUTO 00000KT 9999NDV R01/P1500N R19/P1500N NCD 09/06 Q1016=
200606170020 METAR ESMX 170020Z AUTO 17003KT 9999NDV R01/P1500N R19/P1500N NCD 10/06 Q1016=
200606162350 METAR ESMX 162350Z AUTO 17001KT 9999NDV R01/P1500N R19/P1500N NCD 10/06 Q1016=
200606162320 METAR ESMX 162320Z AUTO 17002KT 9999NDV R01/P1500N R19/P1500N NCD 10/06 Q1017=
200606162250 METAR ESMX 162250Z AUTO 19003KT 9999NDV R01/P1500N R19/P1500N NCD 10/06 Q1017=
200606162220 METAR ESMX 162220Z AUTO 18002KT 9999NDV R01/P1500N R19/P1500N NCD 11/06 Q1017=
200606162150 METAR ESMX 162150Z AUTO 17003KT 9999NDV R01/P1500N R19/P1500N NCD 12/06 Q1017=
200606162120 METAR ESMX 162120Z AUTO 22002KT 9999NDV R01/P1500N R19/P1500N NCD 14/05 Q1017=
200606162050 METAR ESMX 162050Z AUTO 21006KT 9999NDV R01/P1500D R19/P1500D NCD 15/05 Q1017=
200606162020 METAR ESMX 162020Z AUTO 19007KT 9999NDV R01/P1500N R19/P1500N NCD 16/05 Q1017=
200606161950 METAR ESMX 161950Z AUTO 20008KT 9999NDV R01/P1500N R19/P1500N NCD 17/06 Q1016=
200606161920 METAR ESMX 161920Z AUTO 19008KT 9999NDV R01/P1500N R19/P1500N NCD 18/06 Q1016=
200606161850 METAR ESMX 161850Z AUTO 19007KT 9999NDV R01/P1500U R19/P1500U NCD 20/06 Q1016=
200606161820 METAR ESMX 161820Z AUTO 17007KT 140V200 9999NDV R01/P1500U R19/P1500D NCD 21/06 Q1016=
200606161750 METAR ESMX 161750Z AUTO 18008KT 9999NDV R01/P1500U R19/P1500U NCD 22/07 Q1016=
200606161720 METAR ESMX 161720Z 16007KT 140V200 CAVOK 23/07 Q1016=
200606161650 METAR ESMX 161650Z 19005KT 150V230 CAVOK 23/07 Q1016=
200606161620 METAR ESMX 161620Z 16007KT 110V190 CAVOK 24/07 Q1016=
200606161550 METAR ESMX 161550Z 17006KT 110V220 CAVOK 24/07 Q1016=
200606161520 METAR ESMX 161520Z 18003KT 130V210 CAVOK 24/06 Q1016=
200606161450 METAR ESMX 161450Z 15005KT 110V230 CAVOK 24/07 Q1016=
200606161420 METAR ESMX 161420Z VRB05KT CAVOK 24/07 Q1017=
200606161350 METAR ESMX 161350Z VRB03KT CAVOK 24/07 Q1017=
200606161320 METAR ESMX 161320Z 13004KT 020V170 CAVOK 24/06 Q1017=
200606161250 METAR ESMX 161250Z VRB04KT CAVOK 24/07 Q1017=
200606161220 METAR ESMX 161220Z 18007KT 070V220 CAVOK 23/08 Q1018=
200606161150 METAR ESMX 161150Z 13005KT CAVOK 23/08 Q1018=
200606161120 METAR ESMX 161120Z 14006KT CAVOK 23/08 Q1018=
200606161050 METAR ESMX 161050Z 16004KT 100V230 CAVOK 23/09 Q1018=
200606161020 METAR ESMX 161020Z 14006KT 090V200 CAVOK 22/09 Q1018=
200606160950 METAR ESMX 160950Z 14006KT 080V190 CAVOK 22/10 Q1018=
200606160920 METAR ESMX 160920Z VRB02KT CAVOK 22/10 Q1019=
200606160850 METAR ESMX 160850Z 08003KT CAVOK 21/09 Q1019=
200606160820 METAR ESMX 160820Z VRB04KT CAVOK 20/09 Q1019=
200606160750 METAR ESMX 160750Z VRB02KT CAVOK 20/07 Q1019=
200606160720 METAR ESMX 160720Z VRB02KT CAVOK 19/07 Q1019=
200606160650 METAR ESMX 160650Z VRB01KT CAVOK 18/05 Q1019=
200606160620 METAR ESMX 160620Z 00000KT CAVOK 17/06 Q1019=
200606160550 METAR ESMX 160550Z 22004KT 1 CAVOK 15/05 Q1019=
200606160520 METAR ESMX 160520Z 18003KT CAVOK 14/06 Q1019=
200606160450 METAR ESMX 160450Z 00000KT CAVOK 14/07 Q1019=
200606160420 METAR ESMX 160420Z VRB01KT CAVOK 11/07 Q1019=
200606160350 METAR ESMX 160350Z 18003KT CAVOK 08/06 Q1019=
200606160320 METAR ESMX 160320Z AUTO 19002KT 9999NDV R01/P1500N R19/P1500U NCD 05/04 Q1019=
200606160250 METAR ESMX 160250Z AUTO 17001KT 9999NDV R01/P1500N R19/P1500N NCD 05/03 Q1020=
200606160220 METAR ESMX 160220Z AUTO 19002KT 9999NDV R01/P1500N R19/P1500N NCD 04/03 Q1020=
200606160150 METAR ESMX 160150Z AUTO VRB01KT 9999NDV R01/P1500N R19/P1500N NCD 05/03 Q1020=
200606160120 METAR ESMX 160120Z AUTO 19001KT 9999NDV R01/P1500N R19/P1500N NCD 05/03 Q1020=
200606160050 METAR ESMX 160050Z AUTO 17001KT 9999NDV R01/P1500N R19/P1500N NCD 06/04 Q1020=
200606160020 METAR ESMX 160020Z 16002KT CAVOK 06/04 Q1020=
200606152350 METAR ESMX 152350Z 16001KT CAVOK 07/04 Q1020=
200606152320 METAR ESMX 152320Z 19002KT CAVOK 08/04 Q1020=
200606152250 METAR ESMX 152250Z 24002KT CAVOK 09/04 Q1020=
200606152220 METAR ESMX 152220Z 21003KT CAVOK 11/04 Q1020=
200606152150 METAR ESMX 152150Z 22005KT CAVOK 11/04 Q1020=
200606152120 METAR ESMX 152120Z 19004KT CAVOK 11/05 Q1020=
200606152050 METAR ESMX 152050Z 19005KT CAVOK 13/07 Q1020=
200606152020 METAR ESMX 152020Z 19006KT CAVOK 14/07 Q1020=
200606151950 METAR ESMX 151950Z 18008KT CAVOK 15/08 Q1020=
200606151920 METAR ESMX 151920Z 18008KT CAVOK 17/09 Q1019=
200606151850 METAR ESMX 151850Z 17007KT 150V210 CAVOK 18/09 Q1019=
200606151820 METAR ESMX 151820Z 17008KT CAVOK 19/10 Q1019=
200606151750 METAR ESMX 151750Z 17010KT 150V220 CAVOK 20/11 Q1019=
200606151720 METAR ESMX 151720Z 18006KT 120V210 CAVOK 22/07 Q1019=
200606151620 METAR ESMX 151620Z 16004KT 130V190 CAVOK 23/06 Q1019=
200606151550 METAR ESMX 151550Z 21004KT 170V300 CAVOK 23/07 Q1020=
200606151520 METAR ESMX 151520Z 17004KT 140V240 CAVOK 22/07 Q1020=
200606151450 METAR ESMX 151450Z VRB03KT CAVOK 24/07 Q1020=
200606151420 METAR ESMX 151420Z 05004KT 010V120 CAVOK 21/08 Q1020=
200606151350 METAR ESMX 151350Z 03005KT 340V100 CAVOK 24/07 Q1020=
200606151320 METAR ESMX 151320Z 03004KT 340V110 CAVOK 23/07 Q1020=
200606151250 METAR ESMX 151250Z 36006KT 300V070 CAVOK 22/07 Q1021=
200606151220 METAR ESMX 151220Z 06005KT 350V170 9999 FEW048 22/08 Q1021=
200606151150 METAR ESMX 151150Z 04006KT 350V100 9999 FEW042 22/10 Q1021=
200606151120 METAR ESMX 151120Z 02007KT CAVOK 21/10 Q1021=
200606151050 METAR ESMX 151050Z 04005KT 350V090 CAVOK 20/12 Q1021=
200606151020 METAR ESMX 151020Z 07005KT 010V110 CAVOK 19/11 Q1021=
200606150950 METAR ESMX 150950Z VRB04KT CAVOK 19/11 Q1022=
200606150920 METAR ESMX 150920Z 07006KT 010V160 9999 FEW023 18/10 Q1022=
200606150850 METAR ESMX 150850Z 05005KT 350V110 9999 FEW022 17/11 Q1022=
200606150820 METAR ESMX 150820Z 07005KT 020V120 9999 BKN018 17/11 Q1022=
200606150750 METAR ESMX 150750Z 10005KT 9999 BKN017 15/11 Q1022=
200606150720 METAR ESMX 150720Z 06006KT 9999 BKN016 15/10 Q1022=
200606150650 METAR ESMX 150650Z 05006KT 9999 BKN014 14/11 Q1022=
200606150620 METAR ESMX 150620Z 06007KT 9999 OVC011 14/10 Q1022=
200606150550 METAR ESMX 150550Z 07006KT 9999 FEW009 BKN011 13/11 Q1021=
200606150520 METAR ESMX 150520Z 05007KT 9999 FEW008 BKN010 13/11 Q1021=
200606150450 METAR ESMX 150450Z 07007KT 9999 BKN005 12/11 Q1021=
200606150420 METAR ESMX 150420Z 06007KT 040V120 9999 BKN005 11/11 Q1021=
200606150350 METAR ESMX 150350Z 06008KT 020V100 9999 SCT003 BKN005 11/10 Q1021=
200606150020 METAR ESMX 150020Z 00000KT 9999 MIFG NSC 09/08 Q1019=
200606142350 METAR ESMX 142350Z 17001KT CAVOK 09/09 Q1019=
200606142320 METAR ESMX 142320Z 00000KT CAVOK 10/09 Q1019=
200606142250 METAR ESMX 142250Z VRB02KT CAVOK 11/10 Q1019=
200606142220 METAR ESMX 142220Z 08003KT 050V140 CAVOK 14/11 Q1018=
200606142150 METAR ESMX 142150Z 09004KT 050V120 CAVOK 14/11 Q1018=
200606142120 METAR ESMX 142120Z 09003KT 060V120 CAVOK 15/11 Q1018=
200606142050 METAR ESMX 142050Z VRB02KT CAVOK 15/11 Q1018=
200606142020 METAR ESMX 142020Z VRB02KT CAVOK 16/11 Q1017=
200606141950 METAR ESMX 141950Z VRB01KT CAVOK 17/12 Q1017=
200606141920 METAR ESMX 141920Z 30001KT CAVOK 19/12 Q1017=
200606141850 METAR ESMX 141850Z VRB01KT CAVOK 19/12 Q1017=
200606141820 METAR ESMX 141820Z 27002KT CAVOK 18/12 Q1017=
200606141750 METAR ESMX 141750Z 30004KT 260V010 CAVOK 18/11 Q1016=
200606141720 METAR ESMX 141720Z 29004KT 9999 FEW020 BKN084 17/11 Q1016 REDZ=
200606141650 METAR ESMX 141650Z 32005KT CAVOK 19/09 Q1016=
200606141620 METAR ESMX 141620Z 31007KT 280V340 CAVOK 20/07 Q1016=
200606141550 METAR ESMX 141550Z 30013KT 260V330 CAVOK 22/05 Q1016=
200606141520 METAR ESMX 141520Z 28009KT 240V310 CAVOK 24/11 Q1015=
200606141450 METAR ESMX 141450Z 28009KT CAVOK 24/11 Q1015=
200606141420 METAR ESMX 141420Z 29009KT 250V320 CAVOK 25/11 Q1014=
200606141350 METAR ESMX 141350Z 24008KT 200V290 CAVOK 26/13 Q1014=
200606141320 METAR ESMX 141320Z 25008KT 200V310 CAVOK 27/13 Q1014=
200606141250 METAR ESMX 141250Z 25006KT 160V290 CAVOK 26/14 Q1014=
200606141220 METAR ESMX 141220Z 26007KT 210V320 CAVOK 26/13 Q1014=
200606141150 METAR ESMX 141150Z 27009KT 250V330 CAVOK 26/13 Q1014=
200606141120 METAR ESMX 141120Z 24010KT 190V270 9999 FEW045 SCT200 26/14 Q1015=
200606141050 METAR ESMX 141050Z 26006KT 200V330 CAVOK 26/14 Q1015=
200606141020 METAR ESMX 141020Z 27006KT 230V340 CAVOK 26/14 Q1015=
200606140950 METAR ESMX 140950Z 23008KT 200V290 CAVOK 25/13 Q1015=
200606140920 METAR ESMX 140920Z 25006KT 160V290 CAVOK 25/15 Q1015=
200606140850 METAR ESMX 140850Z VRB07KT CAVOK 25/14 Q1015=
200606140820 METAR ESMX 140820Z 19006KT 110V230 CAVOK 24/13 Q1015=
200606140750 METAR ESMX 140750Z 17006KT 130V210 CAVOK 23/13 Q1016=
200606140720 METAR ESMX 140720Z 17006KT 120V200 CAVOK 23/12 Q1016=
200606140650 METAR ESMX 140650Z 21007KT 170V240 CAVOK 22/12 Q1016=
200606140620 METAR ESMX 140620Z 19008KT CAVOK 21/12 Q1016=
200606140550 METAR ESMX 140550Z 19006KT 170V240 CAVOK 20/11 Q1016=
200606140520 METAR ESMX 140520Z 18004KT CAVOK 19/11 Q1017=
200606140450 METAR ESMX 140450Z 16004KT CAVOK 18/11 Q1017=
200606140420 METAR ESMX 140420Z 16004KT CAVOK 15/12 Q1017=
200606140350 METAR ESMX 140350Z 15003KT CAVOK 13/11 Q1017=
200606140320 METAR ESMX 140320Z AUTO VRB01KT 9999NDV R01/P1500U R19/P1500U NCD 12/10 Q1018=
200606140250 METAR ESMX 140250Z AUTO 00000KT 9999NDV R01/P1500U R19/P1500D NCD 12/10 Q1018=
200606140220 METAR ESMX 140220Z AUTO 18002KT 9999NDV R01/P1500U R19/P1500D NCD 12/10 Q1018=
200606140150 METAR ESMX 140150Z AUTO 16003KT 9999NDV R01/P1500D R19/P1500U NCD 12/10 Q1018=
200606140120 METAR ESMX 140120Z AUTO 18004KT 9999NDV R01/P1500N R19/P1500N NCD 12/10 Q1018=
200606140050 METAR ESMX 140050Z 17004KT CAVOK 13/10 Q1018=
200606140020 METAR ESMX 140020Z 18004KT CAVOK 14/10 Q1018=
200606132350 METAR ESMX 132350Z 18004KT CAVOK 17/11 Q1018=
200606132320 METAR ESMX 132320Z 18006KT CAVOK 17/10 Q1019=
200606132250 METAR ESMX 132250Z 21006KT CAVOK 16/11 Q1019=
200606132220 METAR ESMX 132220Z 20006KT CAVOK 17/11 Q1019=
200606132150 METAR ESMX 132150Z 18006KT CAVOK 17/11 Q1019=
200606132120 METAR ESMX 132120Z 18006KT CAVOK 17/11 Q1019=
200606132050 METAR ESMX 132050Z 18006KT CAVOK 19/11 Q1019=
200606132020 METAR ESMX 132020Z 18007KT CAVOK 20/11 Q1019=
200606131920 METAR ESMX 131920Z 18008KT CAVOK 23/12 Q1019=
200606131850 METAR ESMX 131850Z 19007KT CAVOK 24/12 Q1019=
200606131820 METAR ESMX 131820Z 18011KT CAVOK 25/13 Q1019=
200606131750 METAR ESMX 131750Z 18013KT CAVOK 26/13 Q1019=
200606131720 METAR ESMX 131720Z 19012KT CAVOK 26/13 Q1019=
200606131650 METAR ESMX 131650Z 18012KT CAVOK 27/13 Q1020=
200606131620 METAR ESMX 131620Z 19010KT 160V220 CAVOK 28/13 Q1020=
200606131550 METAR ESMX 131550Z 20010KT 160V230 CAVOK 28/12 Q1020=
200606131520 METAR ESMX 131520Z 19009KT 150V210 CAVOK 29/11 Q1020=
200606131420 METAR ESMX 131420Z 19011KT 150V240 CAVOK 29/11 Q1021=
200606131350 METAR ESMX 131350Z 17009KT CAVOK 29/12 Q1021=
200606131320 METAR ESMX 131320Z 19009KT 150V230 CAVOK 29/11 Q1021=
200606131250 METAR ESMX 131250Z 20009KT CAVOK 28/11 Q1022=
200606131220 METAR ESMX 131220Z 20009KT 160V240 CAVOK 28/10 Q1022=
200606131150 METAR ESMX 131150Z VRB08KT CAVOK 28/11 Q1022=
200606131120 METAR ESMX 131120Z 21009KT 160V240 CAVOK 27/11 Q1023=
200606131050 METAR ESMX 131050Z 21009KT 160V240 CAVOK 27/11 Q1023=
200606131020 METAR ESMX 131020Z 20009KT 160V230 CAVOK 27/10 Q1023=
200606130950 METAR ESMX 130950Z 22009KT 160V260 CAVOK 26/11 Q1024=
200606130920 METAR ESMX 130920Z 21009KT 170V240 CAVOK 26/11 Q1024=
200606130850 METAR ESMX 130850Z 19008KT 110V240 CAVOK 25/11 Q1024=
200606130820 METAR ESMX 130820Z 20007KT 170V240 CAVOK 25/11 Q1024=
200606130750 METAR ESMX 130750Z 25007KT 210V290 CAVOK 24/11 Q1024=
200606130720 METAR ESMX 130720Z 24007KT 210V280 CAVOK 24/12 Q1025=
200606130650 METAR ESMX 130650Z 22005KT 200V270 CAVOK 23/11 Q1025=
200606130620 METAR ESMX 130620Z 24005KT 210V300 CAVOK 22/13 Q1025=
200606130550 METAR ESMX 130550Z 23004KT 200V260 CAVOK 21/12 Q1025=
200606130520 METAR ESMX 130520Z VRB02KT CAVOK 20/12 Q1025=
200606130450 METAR ESMX 130450Z 16002KT CAVOK 18/12 Q1025=
200606130420 METAR ESMX 130420Z 00000KT CAVOK 16/12 Q1025=
200606130350 METAR COR ESMX 130350Z 00000KT CAVOK 12/10 Q1025=
200606130320 METAR ESMX 130320Z AUTO 20001KT 9999NDV R01/P1500D R19/P1500U NCD 11/09 Q1025=
200606130250 METAR ESMX 130250Z AUTO 16002KT 9999NDV R01/P1500U R19/P1500U NCD 10/09 Q1025=
200606130220 METAR ESMX 130220Z AUTO 17002KT 9999NDV R01/P1500D R19/P1500U NCD 11/09 Q1025=
200606130150 METAR ESMX 130150Z AUTO 17003KT 9999NDV R01/P1500U R19/P1500D NCD 11/09 Q1025=
200606130120 METAR ESMX 130120Z AUTO 17003KT 9999NDV R01/P1500N R19/P1500N NCD 11/09 Q1025=
200606130050 METAR ESMX 130050Z AUTO 17003KT 9999NDV R01/P1500N R19/P1500N NCD 11/09 Q1025=
200606130020 METAR ESMX 130020Z 17003KT CAVOK 12/09 Q1025=
200606122350 METAR ESMX 122350Z 17003KT CAVOK 13/09 Q1025=
200606122320 METAR ESMX 122320Z 00000KT CAVOK 13/09 Q1025=
200606122250 METAR ESMX 122250Z 17002KT CAVOK 15/10 Q1025=
200606122220 METAR ESMX 122220Z 27001KT CAVOK 15/10 Q1025=
200606122150 METAR ESMX 122150Z 27002KT CAVOK 17/09 Q1025=
200606122120 METAR ESMX 122120Z VRB02KT CAVOK 19/09 Q1025=
200606122050 METAR ESMX 122050Z 27002KT CAVOK 19/08 Q1025=
200606122020 METAR ESMX 122020Z 26003KT CAVOK 19/08 Q1025=
200606121950 METAR ESMX 121950Z 25004KT CAVOK 22/08 Q1025=
200606121920 METAR ESMX 121920Z 27004KT 250V310 CAVOK 24/08 Q1025=
200606121850 METAR ESMX 121850Z 27005KT 230V300 CAVOK 24/08 Q1025=
200606121820 METAR ESMX 121820Z 25007KT 220V290 CAVOK 26/09 Q1025=
200606121750 METAR ESMX 121750Z 27008KT 240V300 CAVOK 27/10 Q1025=
200606121720 METAR ESMX 121720Z 29006KT CAVOK 28/12 Q1024=
200606121650 METAR ESMX 121650Z VRB04KT CAVOK 29/11 Q1025=
200606121620 METAR ESMX 121620Z 31006KT 260V340 CAVOK 29/11 Q1025=
200606121550 METAR ESMX 121550Z 27003KT 200V340 CAVOK 28/12 Q1025=
200606121520 METAR ESMX 121520Z 27006KT 240V310 CAVOK 29/12 Q1025=
200606121450 METAR ESMX 121450Z VRB02KT CAVOK 29/11 Q1025=
200606121420 METAR ESMX 121420Z 30007KT 260V350 CAVOK 28/11 Q1026=
200606121350 METAR ESMX 121350Z VRB03KT CAVOK 29/12 Q1026=
200606121320 METAR ESMX 121320Z 25006KT 110V280 CAVOK 29/11 Q1026=
200606121250 METAR ESMX 121250Z 27006KT 210V320 CAVOK 28/12 Q1026=
200606121220 METAR ESMX 121220Z 32006KT 290V030 CAVOK 27/11 Q1026=
200606121150 METAR ESMX 121150Z 23006KT 180V300 CAVOK 28/12 Q1027=
200606121120 METAR ESMX 121120Z VRB05KT CAVOK 28/13 Q1027=
200606121050 METAR ESMX 121050Z VRB04KT CAVOK 27/13 Q1027=
200606121020 METAR ESMX 121020Z VRB05KT CAVOK 26/13 Q1027=
200606120950 METAR ESMX 120950Z VRB05KT CAVOK 26/12 Q1027=
200606120920 METAR ESMX 120920Z 27008KT 200V360 9999 FEW045 25/13 Q1027=
200606120850 METAR ESMX 120850Z VRB02KT 9999 FEW040 25/14 Q1028=
200606120820 METAR ESMX 120820Z 20003KT 150V240 CAVOK 24/14 Q1028=
200606120750 METAR ESMX 120750Z 29003KT 210V350 CAVOK 23/13 Q1028=
200606120720 METAR ESMX 120720Z 30005KT 260V360 CAVOK 23/13 Q1028=
200606120650 METAR ESMX 120650Z 30004KT 250V340 CAVOK 22/13 Q1028=
200606120620 METAR ESMX 120620Z 24004KT 210V310 CAVOK 21/13 Q1028=
200606120550 METAR ESMX 120550Z 24005KT 220V290 CAVOK 20/12 Q1028=
200606120520 METAR ESMX 120520Z 25004KT CAVOK 19/12 Q1028=
200606120450 METAR ESMX 120450Z VRB02KT CAVOK 17/12 Q1028=
200606120420 METAR ESMX 120420Z 17002KT CAVOK 16/12 Q1028=
200606120350 METAR ESMX 120350Z 14002KT CAVOK 12/11 Q1028=
200606120320 METAR ESMX 120320Z AUTO 19002KT 9999NDV R01/P1500U R19/P1500U NCD 11/10 Q1028=
200606120250 METAR ESMX 120250Z AUTO 18002KT 9999NDV R01/P1500U R19/P1500D NCD 10/09 Q1028=
200606120220 METAR ESMX 120220Z AUTO 17002KT 9999NDV R01/P1500U R19/P1500U NCD 11/09 Q1028=
200606120150 METAR ESMX 120150Z AUTO 21002KT 9999NDV R01/P1500N R19/P1500D NCD 11/10 Q1028=
200606120120 METAR ESMX 120120Z AUTO 25001KT 9999NDV R01/P1500N R19/P1500N NCD 11/10 Q1028=
200606120050 METAR ESMX 120050Z AUTO 26003KT 9999NDV R01/P1500N R19/P1500N NCD 12/10 Q1028=
200606120020 METAR ESMX 120020Z 23003KT 200V260 CAVOK 12/10 Q1028=
200606112350 METAR ESMX 112350Z VRB02KT CAVOK 14/11 Q1028=
200606112320 METAR ESMX 112320Z 27004KT 240V360 CAVOK 15/11 Q1028=
200606112250 METAR ESMX 112250Z 27003KT 240V300 CAVOK 16/11 Q1028=
200606112220 METAR ESMX 112220Z 25003KT CAVOK 16/11 Q1028=
200606112150 METAR ESMX 112150Z 24003KT 210V280 CAVOK 18/11 Q1028=
200606112120 METAR ESMX 112120Z 25005KT CAVOK 18/12 Q1028=
200606112050 METAR ESMX 112050Z 25005KT CAVOK 19/12 Q1028=
200606112020 METAR ESMX 112020Z 25005KT CAVOK 19/11 Q1028=
200606111950 METAR ESMX 111950Z 25005KT CAVOK 20/11 Q1027=
200606111920 METAR ESMX 111920Z 25006KT 230V290 CAVOK 22/10 Q1027=
200606111850 METAR ESMX 111850Z 25005KT CAVOK 23/10 Q1027=
200606111820 METAR ESMX 111820Z 26007KT CAVOK 24/09 Q1027=
200606111720 METAR ESMX 111720Z 26007KT 230V310 CAVOK 25/09 Q1027=
200606111620 METAR ESMX 111620Z 27009KT 240V320 CAVOK 26/10 Q1027=
200606111550 METAR ESMX 111550Z 27008KT 210V330 CAVOK 27/11 Q1027=
200606111520 METAR ESMX 111520Z 27009KT 210V330 CAVOK 27/10 Q1027=
200606111450 METAR ESMX 111450Z 27009KT 230V310 CAVOK 27/09 Q1027=
200606111420 METAR ESMX 111420Z 29009KT 250V320 CAVOK 27/08 Q1027=
200606111350 METAR ESMX 111350Z 29008KT 210V330 CAVOK 27/08 Q1027=
200606111320 METAR ESMX 111320Z 26006KT 210V350 CAVOK 27/09 Q1027=
200606111250 METAR ESMX 111250Z 27009KT 230V320 CAVOK 27/10 Q1027=
200606111220 METAR ESMX 111220Z 28008KT 240V330 CAVOK 26/10 Q1027=
200606111150 METAR ESMX 111150Z 26007KT 210V310 CAVOK 26/11 Q1028=
200606111120 METAR ESMX 111120Z AUTO 27008KT 230V300 9999NDV R01/P1500U R19/P1500D NCD 26/10 Q1028=
200606111050 METAR ESMX 111050Z AUTO VRB10KT 9999NDV R01/P1500U R19/P1500U NCD 26/11 Q1028=
200606111020 METAR ESMX 111020Z AUTO 25007KT 200V300 9999NDV R01/P1500U R19/P1500U NCD 25/10 Q1028=
200606110950 METAR ESMX 110950Z AUTO 29007KT 210V310 9999NDV R01/P1500U R19/P1500U NCD 25/12 Q1028=
200606110920 METAR ESMX 110920Z AUTO 21008KT 170V260 9999NDV R01/P1500U R19/P1500U NCD 24/12 Q1028=
200606110850 METAR ESMX 110850Z AUTO 26007KT 210V320 9999NDV R01/P1500D R19/P1500D NCD 23/11 Q1028=
200606110820 METAR ESMX 110820Z AUTO 24008KT 200V280 9999NDV R01/P1500D R19/P1500D NCD 23/12 Q1028=
200606110750 METAR ESMX 110750Z AUTO 27007KT 230V320 9999NDV R01/P1500U R19/P1500D NCD 23/12 Q1028=
200606110720 METAR ESMX 110720Z AUTO 28007KT 240V300 9999NDV R01/P1500D R19/P1500D NCD 22/13 Q1028=
200606110650 METAR ESMX 110650Z AUTO 24007KT 200V290 9999NDV R01/P1500U R19/P1500D NCD 21/12 Q1029=
200606110620 METAR ESMX 110620Z AUTO 30005KT 9999NDV R01/P1500U R19/P1500U NCD 20/10 Q1028=
200606110550 METAR ESMX 110550Z AUTO 26004KT 240V300 9999NDV R01/P1500D R19/P1500D NCD 20/09 Q1028=
200606110520 METAR ESMX 110520Z AUTO VRB02KT 9999NDV R01/P1500U R19/P1500D NCD 19/09 Q1028=
200606110450 METAR ESMX 110450Z AUTO VRB01KT 9999NDV R01/P1500U R19/P1500U NCD 17/10 Q1028=
200606110420 METAR ESMX 110420Z AUTO 00000KT 9999NDV R01/P1500D R19/P1500D NCD 15/11 Q1028=
200606110350 METAR ESMX 110350Z AUTO 17002KT 9999NDV R01/P1500U R19/P1500D NCD 12/10 Q1028=
200606110320 METAR ESMX 110320Z AUTO 17002KT 9999NDV R01/P1500U R19/P1500D NCD 10/08 Q1028=
200606110250 METAR ESMX 110250Z AUTO 00000KT 9999NDV R01/P1500D R19/P1500U NCD 10/08 Q1028=
200606110220 METAR ESMX 110220Z AUTO 17002KT 9999NDV R01/P1500D R19/P1500D NCD 10/08 Q1028=
200606110150 METAR ESMX 110150Z AUTO VRB02KT 9999NDV R01/P1500D R19/P1500D NCD 10/08 Q1028=
200606110120 METAR ESMX 110120Z AUTO 00000KT 9999NDV R01/P1500N R19/P1500N NCD 11/09 Q1028=
200606110050 METAR ESMX 110050Z AUTO VRB01KT 9999NDV R01/P1500N R19/P1500N NCD 12/09 Q1028=
200606110020 METAR ESMX 110020Z AUTO VRB01KT 9999NDV R01/P1500N R19/P1500N NCD 12/09 Q1027=
200606102350 METAR ESMX 102350Z AUTO VRB01KT 9999NDV R01/P1500N R19/P1500N NCD 12/10 Q1027=
200606102320 METAR ESMX 102320Z AUTO 29004KT 9999NDV R01/P1500N R19/P1500N NCD 13/10 Q1027=
200606102250 METAR ESMX 102250Z AUTO 28001KT 9999NDV R01/P1500N R19/P1500N NCD 13/10 Q1027=
200606102220 METAR ESMX 102220Z AUTO 31003KT 9999NDV R01/P1500N R19/P1500N NCD 14/10 Q1027=
200606102150 METAR ESMX 102150Z AUTO 33004KT 9999NDV R01/P1500N R19/P1500N NCD 16/10 Q1027=
200606102120 METAR ESMX 102120Z AUTO 32004KT 9999NDV R01/P1500N R19/P1500N NCD 18/10 Q1027=
200606102050 METAR ESMX 102050Z AUTO 26005KT 230V300 9999NDV R01/P1500D R19/P1500D NCD 19/10 Q1026=
200606102020 METAR ESMX 102020Z AUTO 30006KT 270V340 9999NDV R01/P1500U R19/P1500D NCD 20/10 Q1026=
200606101950 METAR ESMX 101950Z AUTO 28006KT 240V310 9999NDV R01/P1500D R19/P1500U NCD 21/10 Q1026=
200606101920 METAR ESMX 101920Z AUTO 29008KT 260V330 9999NDV R01/P1500D R19/P1500D NCD 22/10 Q1025=
200606101850 METAR ESMX 101850Z AUTO 27009KT 240V310 9999NDV R01/P1500D R19/P1500D NCD 23/10 Q1025=
200606101820 METAR ESMX 101820Z AUTO 28009KT 250V310 9999NDV R01/P1500U R19/P1500U NCD 24/10 Q1025=
200606101750 METAR ESMX 101750Z AUTO 29010KT 260V320 9999NDV R01/P1500U R19/P1500D NCD 25/10 Q1025=
200606101720 METAR ESMX 101720Z AUTO 29008KT 9999NDV R01/P1500U R19/P1500D NCD 26/09 Q1025=
200606101650 METAR ESMX 101650Z AUTO 28007KT 240V320 9999NDV R01/P1500U R19/P1500U NCD 27/09 Q1025=
200606101620 METAR ESMX 101620Z AUTO 29007KT 230V010 9999NDV R01/P1500U R19/P1500U NCD 27/09 Q1025=
200606101550 METAR ESMX 101550Z AUTO 29007KT 250V320 9999NDV R01/P1500U R19/P1500D NCD 27/10 Q1025=
200606101520 METAR ESMX 101520Z AUTO 29006KT 230V320 9999NDV R01/P1500U R19/P1500U NCD 26/10 Q1025=
200606101450 METAR ESMX 101450Z AUTO 26005KT 210V340 9999NDV R01/P1500D R19/P1500D NCD 27/10 Q1025=
200606101420 METAR ESMX 101420Z AUTO 30006KT 250V340 9999NDV R01/P1500D R19/P1500U FEW068/// 26/10 Q1025=
200606101350 METAR ESMX 101350Z AUTO 27003KT 240V320 9999NDV R01/P1500U R19/P1500U FEW069/// 25/10 Q1025=
200606101320 METAR ESMX 101320Z AUTO 29005KT 240V010 9999NDV R01/P1500D R19/P1500D FEW073/// 25/10 Q1025=
200606101250 METAR ESMX 101250Z AUTO VRB05KT 9999NDV R01/P1500D R19/P1500N FEW065/// 27/10 Q1025=
200606101220 METAR ESMX 101220Z AUTO VRB03KT 9999NDV R01/P1500U R19/P1500U FEW054/// SCT067/// 26/09 Q1025=
200606101150 METAR ESMX 101150Z AUTO 32003KT 280V030 9999NDV R01/P1500D R19/P1500N BKN060/// 25/09 Q1026=
200606101050 METAR ESMX 101050Z AUTO VRB05KT 9999NDV R01/P1500N R19/P1500U FEW063/// 24/11 Q1026=
200606101020 METAR ESMX 101020Z AUTO VRB03KT 9999NDV R01/P1500D R19/P1500U NCD 24/10 Q1026=
200606100950 METAR ESMX 100950Z AUTO VRB04KT 9999NDV R01/P1500U R19/P1500U NCD 24/10 Q1026=
200606100920 METAR ESMX 100920Z AUTO 24003KT 160V290 9999NDV R01/P1500U R19/P1500U NCD 24/12 Q1026=
200606100850 METAR ESMX 100850Z AUTO VRB03KT 9999NDV R01/P1500U R19/P1500D NCD 22/13 Q1026=
200606100820 METAR ESMX 100820Z AUTO 32004KT 280V020 9999NDV R01/P1500U R19/P1500D NCD 22/13 Q1026=
200606100750 METAR ESMX 100750Z AUTO 30005KT 190V310 9999NDV R01/P1500D R19/P1500U NCD 20/13 Q1026=
200606100720 METAR ESMX 100720Z AUTO VRB02KT 9999NDV R01/P1500U R19/P1500U NCD 20/13 Q1026=
200606100650 METAR ESMX 100650Z AUTO 25003KT 210V290 9999NDV R01/P1500D R19/P1500U NCD 19/13 Q1026=
200606100620 METAR ESMX 100620Z AUTO VRB01KT 9999NDV R01/P1500U R19/P1500U NCD 18/12 Q1026=
200606100550 METAR ESMX 100550Z AUTO 21003KT 160V250 9999NDV R01/P1500D R19/P1500U NCD 17/12 Q1026=
200606100520 METAR ESMX 100520Z AUTO 22004KT 9999NDV R01/P1500U R19/P1500U NCD 15/12 Q1025=
200606100450 METAR ESMX 100450Z AUTO 18003KT 9999NDV R01/P1500U R19/P1500D NCD 14/12 Q1026=
200606100420 METAR ESMX 100420Z AUTO 18005KT 9999NDV R01/P1500U R19/P1500U NCD 14/12 Q1025=
200606100350 METAR ESMX 100350Z AUTO 17004KT 9999NDV R01/P1500N R19/P1500D NCD 13/11 Q1025=
200606100320 METAR ESMX 100320Z AUTO 17004KT 9000NDV R01/P1500U R19/P1500D NCD 12/11 Q1025=
200606100250 METAR ESMX 100250Z AUTO 17004KT 9000NDV R01/P1500D R19/P1500N NCD 12/11 Q1025=
200606100220 METAR ESMX 100220Z AUTO 17005KT 9000NDV R01/P1500N R19/P1500U NCD 12/10 Q1025=
200606100150 METAR ESMX 100150Z AUTO 17003KT 9999NDV R01/P1500N R19/P1500U NCD 11/09 Q1025=
200606100120 METAR ESMX 100120Z AUTO 18005KT 9999NDV R01/P1500N R19/P1500N NCD 12/11 Q1025=
200606100050 METAR ESMX 100050Z AUTO 17005KT 9999NDV R01/P1500N R19/P1500N NCD 14/11 Q1024=
200606100020 METAR ESMX 100020Z AUTO 15005KT 9999NDV R01/P1500N R19/P1500N NCD 15/11 Q1025=
200606092350 METAR ESMX 092350Z AUTO 16005KT 9999NDV R01/P1500N R19/P1500N NCD 14/11 Q1024=
200606092320 METAR ESMX 092320Z AUTO 15004KT 9999NDV R01/P1500N R19/P1500N NCD 15/11 Q1024=
200606092250 METAR ESMX 092250Z AUTO 16004KT 9999NDV R01/P1500N R19/P1500N NCD 16/11 Q1024=
200606092220 METAR ESMX 092220Z AUTO 15003KT 110V170 9999NDV R01/P1500N R19/P1500N NCD 16/11 Q1024=
200606092150 METAR ESMX 092150Z AUTO 15005KT 9999NDV R01/P1500N R19/P1500N NCD 17/11 Q1024=
200606092120 METAR ESMX 092120Z AUTO 16005KT 9999NDV R01/P1500N R19/P1500N NCD 18/11 Q1024=
200606092050 METAR ESMX 092050Z AUTO 16005KT 9999NDV R01/P1500N R19/P1500N NCD 18/12 Q1024=
200606092020 METAR ESMX 092020Z AUTO 15005KT 110V190 9999NDV R01/P1500D R19/P1500U NCD 19/12 Q1024=
200606091950 METAR ESMX 091950Z AUTO 15004KT 120V190 9999NDV R01/P1500D R19/P1500D SCT070/// 19/12 Q1023=
200606091920 METAR ESMX 091920Z AUTO 14006KT 080V170 9999NDV R01/P1500D R19/P1500D BKN068/// 20/12 Q1023=
200606091850 METAR ESMX 091850Z AUTO 14004KT 100V160 9999NDV R01/P1500D R19/P1500U BKN062/// 21/11 Q1023=
200606091820 METAR ESMX 091820Z AUTO 00000KT 9999NDV R01/P1500U R19/P1500D SCT065/// 21/12 Q1022=
200606091750 METAR ESMX 091750Z 36002KT CAVOK 24/10 Q1022=
200606091720 METAR ESMX 091720Z VRB02KT CAVOK 24/10 Q1022=
200606091650 METAR ESMX 091650Z 00000KT CAVOK 24/09 Q1022=
200606091620 METAR ESMX 091620Z VRB02KT CAVOK 23/09 Q1022=
200606091550 METAR ESMX 091550Z VRB02KT CAVOK 24/11 Q1022=
200606091520 METAR ESMX 091520Z VRB03KT CAVOK 24/10 Q1022=
200606091450 METAR ESMX 091450Z 12003KT 060V160 CAVOK 24/09 Q1022=
200606091420 METAR ESMX 091420Z 05004KT 360V160 CAVOK 23/09 Q1023=
200606091350 METAR ESMX 091350Z 36004KT 320V050 CAVOK 23/07 Q1023=
200606091320 METAR ESMX 091320Z 01005KT 310V070 CAVOK 24/08 Q1023=
200606091250 METAR ESMX 091250Z VRB02KT CAVOK 23/08 Q1023=
200606091220 METAR ESMX 091220Z 01003KT 310V050 CAVOK 22/08 Q1023=
200606091150 METAR ESMX 091150Z 02004KT 330V060 CAVOK 21/09 Q1023=
200606091120 METAR ESMX 091120Z 01005KT 330V060 CAVOK 20/09 Q1023=
200606091050 METAR ESMX 091050Z 01006KT CAVOK 20/09 Q1024=
200606091020 METAR ESMX 091020Z 36005KT 300V050 CAVOK 20/10 Q1024=
200606090950 METAR ESMX 090950Z 02005KT 320V060 CAVOK 18/10 Q1024=
200606090920 METAR ESMX 090920Z 02006KT 340V050 CAVOK 18/11 Q1024=
200606090850 METAR ESMX 090850Z 02004KT 320V060 CAVOK 17/10 Q1024=
200606090820 METAR ESMX 090820Z VRB03KT 9999 FEW020 BKN150 16/11 Q1024=
200606090750 METAR ESMX 090750Z VRB06KT 9999 SCT016 BKN200 16/11 Q1024=
200606090720 METAR ESMX 090720Z 27003KT 190V350 9999 BKN010 14/11 Q1025=
200606090650 METAR ESMX 090650Z 31005KT 260V360 9999 OVC008 13/11 Q1024=
200606090620 METAR ESMX 090620Z 30004KT 240V320 9000 BR OVC007 12/10 Q1024=
200606090550 METAR ESMX 090550Z 31006KT 260V330 8000 BR OVC006 12/11 Q1024=
200606090520 METAR ESMX 090520Z 31005KT 260V350 8000 BR OVC005 12/10 Q1024=
200606090450 METAR ESMX 090450Z 29005KT 260V320 7000 BR OVC005 12/11 Q1024=
200606090420 METAR ESMX 090420Z 27006KT 250V330 8000 BR BKN005 11/10 Q1024=
200606090350 METAR ESMX 090350Z 28005KT 240V310 8000 BR BKN005 11/10 Q1024=
200606090320 METAR ESMX 090320Z AUTO 28005KT 250V320 5000NDV R01/P1500N R19/P1500N BR BKN004/// 11/10 Q1024=
200606090250 METAR ESMX 090250Z AUTO VRB02KT 6000NDV R01/P1500D R19/P1500U BR NCD 10/09 Q1024=
200606090220 METAR ESMX 090220Z AUTO VRB02KT 8000NDV R01/P1500D R19/P1500D BR NCD 10/09 Q1024=
200606090150 METAR ESMX 090150Z AUTO 29003KT 260V320 9999NDV R01/P1500N R19/P1500N NCD 10/09 Q1024=
200606090120 METAR ESMX 090120Z AUTO VRB02KT 9999NDV R01/P1500N R19/P1500N NCD 11/10 Q1024=
200606090050 METAR ESMX 090050Z AUTO 30004KT 9999NDV R01/P1500N R19/P1500N NCD 11/10 Q1024=
200606090020 METAR ESMX 090020Z AUTO 26002KT 9999NDV R01/P1500N R19/P1500N NCD 11/10 Q1024=
200606082350 METAR ESMX 082350Z 27004KT CAVOK 11/10 Q1024=
200606082320 METAR ESMX 082320Z 26003KT CAVOK 11/10 Q1024=
200606082250 METAR ESMX 082250Z 26003KT CAVOK 12/10 Q1025=
200606082220 METAR ESMX 082220Z 25004KT CAVOK 13/10 Q1024=
200606082150 METAR ESMX 082150Z 26004KT 230V290 CAVOK 14/11 Q1024=
200606082120 METAR ESMX 082120Z 26005KT 220V290 CAVOK 14/10 Q1024=
200606082050 METAR ESMX 082050Z 26006KT 230V300 CAVOK 15/10 Q1024=
200606082020 METAR ESMX 082020Z 26005KT 230V300 CAVOK 16/10 Q1024=
200606081950 METAR ESMX 081950Z 26004KT 230V290 CAVOK 17/10 Q1024=
200606081920 METAR ESMX 081920Z 26005KT CAVOK 17/09 Q1024=
200606081850 METAR ESMX 081850Z 25008KT CAVOK 19/10 Q1023=
200606081820 METAR ESMX 081820Z 26008KT 220V290 CAVOK 20/10 Q1023=
200606081750 METAR ESMX 081750Z 29004KT CAVOK 21/06 Q1023=
200606081720 METAR ESMX 081720Z 32007KT 220V340 CAVOK 22/06 Q1023=
200606081650 METAR ESMX 081650Z VRB02KT CAVOK 21/08 Q1023=
200606081620 METAR ESMX 081620Z 29004KT 240V340 CAVOK 21/07 Q1023=
200606081550 METAR ESMX 081550Z 24006KT 180V330 CAVOK 22/06 Q1023=
200606081520 METAR ESMX 081520Z 27007KT 230V320 CAVOK 21/09 Q1023=
200606081450 METAR ESMX 081450Z 30005KT 260V330 CAVOK 22/07 Q1023=
200606081420 METAR ESMX 081420Z 15004KT 110V170 CAVOK 21/08 Q1023=
200606081350 METAR ESMX 081350Z 11003KT 080V150 CAVOK 21/08 Q1023=
200606081320 METAR ESMX 081320Z 14002KT CAVOK 20/09 Q1024=
200606081250 METAR ESMX 081250Z VRB04KT CAVOK 20/08 Q1024=
200606081220 METAR ESMX 081220Z 05004KT 010V140 CAVOK 20/08 Q1024=
200606081150 METAR ESMX 081150Z VRB02KT CAVOK 22/08 Q1024=
200606081120 METAR ESMX 081120Z 00000KT 9999 FEW045 20/08 Q1024=
200606081050 METAR ESMX 081050Z 15003KT 110V190 9999 9999 FEW040 19/09 Q1024=
200606081020 METAR ESMX 081020Z 32004KT 9999 FEW040 19/11 Q1024=
200606080950 METAR ESMX 080950Z 33004KT 280V030 9999 9999 FEW035 18/09 Q1024=
200606080920 METAR ESMX 080920Z 17003KT 110V230 9999 FEW035 18/09 Q1024=
200606080850 METAR ESMX 080850Z VRB02KT 9999 FEW035 18/10 Q1024=
200606080820 METAR ESMX 080820Z 32003KT 240V040 9999 FEW030 18/10 Q1024=
200606080750 METAR ESMX 080750Z 03003KT 310V100 CAVOK 16/10 Q1024=
200606080720 METAR ESMX 080720Z 33003KT 280V050 CAVOK 16/10 Q1024=
200606080650 METAR ESMX 080650Z 33003KT 260V010 CAVOK 15/10 Q1024=
200606080620 METAR ESMX 080620Z 32003KT 270V020 CAVOK 15/10 Q1024=
200606080550 METAR ESMX 080550Z 32004KT 280V340 CAVOK 14/10 Q1024=
200606080520 METAR ESMX 080520Z 28003KT 240V300 CAVOK 13/10 Q1024=
200606080450 METAR ESMX 080450Z 28004KT 240V320 CAVOK 12/10 Q1023=
200606080420 METAR ESMX 080420Z 27003KT 240V300 CAVOK 11/09 Q1023=
200606080350 METAR ESMX 080350Z 25003KT CAVOK 09/09 Q1023=
200606080320 METAR ESMX 080320Z AUTO 27002KT 9999NDV R01/P1500U R19/P1500D NCD 08/08 Q1023=
200606080250 METAR ESMX 080250Z AUTO 26001KT 9999NDV R01/P1500U R19/P1500D NCD 09/08 Q1023=
200606080220 METAR ESMX 080220Z AUTO 25002KT 9999NDV R01/P1500D R19/P1500D FEW069/// SCT110/// 10/08 Q1023=
200606080150 METAR ESMX 080150Z AUTO 24002KT 9999NDV R01/P1500N R19/P1500N SCT070/// 10/08 Q1023=
200606080120 METAR ESMX 080120Z AUTO 23002KT 9999NDV R01/P1500N R19/P1500N BKN070/// BKN091/// 10/08 Q1023=
200606080050 METAR ESMX 080050Z AUTO 25002KT 9999NDV R01/P1500N R19/P1500N BKN073/// 10/08 Q1023=
200606080020 METAR ESMX 080020Z 24002KT CAVOK 11/09 Q1023=
200606072350 METAR ESMX 072350Z 28003KT CAVOK 11/08 Q1023=
200606072320 METAR ESMX 072320Z 26004KT CAVOK 12/09 Q1023=
200606072250 METAR ESMX 072250Z 26004KT 230V300 CAVOK 12/09 Q1023=
200606072220 METAR ESMX 072220Z 26005KT 200V290 CAVOK 12/09 Q1023=
200606072150 METAR ESMX 072150Z 23006KT 200V270 CAVOK 12/09 Q1023=
200606072050 METAR ESMX 072050Z 27006KT CAVOK 13/08 Q1023=
200606072020 METAR ESMX 072020Z 26005KT 230V300 CAVOK 13/08 Q1023=
200606071950 METAR ESMX 071950Z 25005KT 200V300 CAVOK 14/07 Q1023=
200606071920 METAR ESMX 071920Z 27006KT 230V300 CAVOK 14/07 Q1022=
200606071850 METAR ESMX 071850Z 27006KT 230V300 CAVOK 15/07 Q1022=
200606071820 METAR ESMX 071820Z 26008KT CAVOK 15/07 Q1022=
200606071750 METAR ESMX 071750Z 27008KT 230V320 CAVOK 16/07 Q1022=
200606071720 METAR ESMX 071720Z 27009KT 230V300 CAVOK 17/07 Q1022=
200606071650 METAR ESMX 071650Z 26009KT 230V300 CAVOK 17/06 Q1022=
200606071620 METAR ESMX 071620Z 27008KT 190V300 CAVOK 19/05 Q1022=
200606071550 METAR ESMX 071550Z 23011KT 210V300 CAVOK 19/04 Q1022=
200606071520 METAR ESMX 071520Z 24009KT 200V280 CAVOK 20/03 Q1022=
200606071450 METAR ESMX 071450Z 26008KT 230V290 CAVOK 20/03 Q1022=
200606071420 METAR ESMX 071420Z 26008KT 230V300 CAVOK 20/02 Q1022=
200606071350 METAR ESMX 071350Z 31007KT 260V360 CAVOK 20/02 Q1022=
200606071320 METAR ESMX 071320Z 25008KT CAVOK 20/03 Q1022=
200606071250 METAR ESMX 071250Z 24007KT 190V300 CAVOK 20/03 Q1022=
200606071220 METAR ESMX 071220Z 25007KT 200V320 CAVOK 20/03 Q1023=
200606071120 METAR ESMX 071120Z 24009KT 210V020 CAVOK 19/03 Q1023=
200606071050 METAR ESMX 071050Z 22008KT 180V260 CAVOK 19/04 Q1023=
200606071020 METAR ESMX 071020Z 25009KT CAVOK 19/03 Q1023=
200606070950 METAR ESMX 070950Z 24007KT CAVOK 18/04 Q1023=
200606070850 METAR ESMX 070850Z 23005KT 170V280 CAVOK 17/02 Q1024=
200606070820 METAR ESMX 070820Z 22005KT 140V260 CAVOK 17/05 Q1024=
200606070750 METAR ESMX 070750Z 24006KT 200V270 CAVOK 16/05 Q1024=
200606070720 METAR ESMX 070720Z 21004KT 110V260 CAVOK 15/04 Q1024=
200606070550 METAR ESMX 070550Z 25004KT 210V280 CAVOK 12/04 Q1024=
200606070520 METAR ESMX 070520Z VRB02KT CAVOK 12/04 Q1024=
200606070450 METAR ESMX 070450Z VRB02KT CAVOK 11/05 Q1024=
200606070420 METAR ESMX 070420Z 00000KT CAVOK 10/05 Q1024=
200606070350 METAR ESMX 070350Z 00000KT CAVOK 05/04 Q1024=
200606070320 METAR ESMX 070320Z AUTO 00000KT 9999NDV R01/P1500D R19/P1500D NCD 03/03 Q1024=
200606070250 METAR ESMX 070250Z AUTO 00000KT 9999NDV R01/P1500N R19/P1500N NCD 03/02 Q1023=
200606070220 METAR ESMX 070220Z AUTO 18001KT 9999NDV R01/P1500N R19/P1500N NCD 03/02 Q1024=
200606070150 METAR ESMX 070150Z AUTO VRB01KT 9999NDV R01/P1500N R19/P1500N NCD 03/02 Q1024=
200606070120 METAR ESMX 070120Z AUTO 20002KT 9999NDV R01/P1500N R19/P1500N NCD 03/02 Q1024=
200606070050 METAR ESMX 070050Z AUTO 00000KT 9999NDV R01/P1500N R19/P1500N NCD 04/03 Q1024=
200606070020 METAR ESMX 070020Z AUTO 17002KT 9999NDV R01/P1500N R19/P1500N NCD 05/04 Q1024=
200606062350 METAR ESMX 062350Z 18002KT CAVOK 05/04 Q1024=
200606062320 METAR ESMX 062320Z 04003KT 350V070 CAVOK 06/05 Q1024=
200606062250 METAR ESMX 062250Z 00000KT CAVOK 07/06 Q1024=
200606062220 METAR ESMX 062220Z 00000KT CAVOK 07/05 Q1024=
200606062150 METAR ESMX 062150Z 19003KT CAVOK 08/06 Q1023=
200606062120 METAR ESMX 062120Z 18002KT CAVOK 08/05 Q1023=
200606062050 METAR ESMX 062050Z 22002KT CAVOK 09/06 Q1023=
200606062020 METAR ESMX 062020Z 18002KT CAVOK 10/06 Q1023=
200606061950 METAR ESMX 061950Z VRB01KT CAVOK 11/06 Q1023=
200606061920 METAR ESMX 061920Z 25004KT CAVOK 14/07 Q1023=
200606061850 METAR ESMX 061850Z 23004KT CAVOK 15/06 Q1023=
200606061820 METAR ESMX 061820Z 23005KT 200V270 CAVOK 16/05 Q1023=
200606061750 METAR ESMX 061750Z 22004KT CAVOK 16/05 Q1023=
200606061720 METAR ESMX 061720Z 30003KT 230V020 CAVOK 16/03 Q1023=
200606061650 METAR ESMX 061650Z 24004KT 160V280 CAVOK 17/03 Q1023=
200606061620 METAR ESMX 061620Z VRB02KT 9999 FEW020 SCT080 16/03 Q1023=
200606061550 METAR ESMX 061550Z VRB03KT 9999 FEW020 SCT080 18/04 Q1023=
200606061520 METAR ESMX 061520Z 36003KT 320V040 9999 R01/P1500N R19/P1500U FEW020 BKN080 16/03 Q1023=
200606061450 METAR ESMX 061450Z VRB02KT CAVOK 16/03 Q1024=
200606061420 METAR ESMX 061420Z VRB02KT 9999 R01/P1500D R19/P1500N FEW020 BKN070 16/03 Q1024=
200606061350 METAR ESMX 061350Z 35003KT 220V030 9999 FEW030 BKN080 16/04 Q1024=
200606061320 METAR ESMX 061320Z 21003KT 160V290 9999 FEW030 BKN070 15/03 Q1024=
200606061250 METAR ESMX 061250Z VRB03KT CAVOK 15/04 Q1024=
200606061220 METAR ESMX 061220Z VRB04KT CAVOK 16/03 Q1024=
200606061150 METAR ESMX 061150Z VRB02KT CAVOK 15/03 Q1024=
200606052320 METAR ESMX 052320Z AUTO 29003KT 9999NDV R01/P1500N R19/P1500N FEW073/// SCT091/// 07/07 Q1022=
200606052250 METAR ESMX 052250Z AUTO 28003KT 9999NDV R01/P1500N R19/P1500N FEW068/// SCT091/// 07/07 Q1021=
200606052220 METAR ESMX 052220Z AUTO VRB01KT 9999NDV R01/P1500N R19/P1500N FEW053/// BKN092/// 07/07 Q1022=
200606052150 METAR ESMX 052150Z AUTO 00000KT 9999NDV R01/P1500N R19/P1500N SCT051/// BKN100/// 07/06 Q1021=
200606052120 METAR ESMX 052120Z AUTO 00000KT 9999NDV R01/P1500N R19/P1500N FEW081/// SCT100/// 08/07 Q1021=
200606052050 METAR ESMX 052050Z AUTO 25004KT 9999NDV R01/P1500N R19/P1500N BKN078/// 09/07 Q1021=
200606052020 METAR ESMX 052020Z AUTO 15006KT 110V170 9999NDV R01/P1500D R19/P1500U FEW023/// SCT048/// BKN076/// 10/07 Q1020 RERA=
200606051950 METAR ESMX 051950Z AUTO 07004KT 010V120 9999NDV R01/P1500U R19/P1500U -RA FEW032/// BKN040/// BKN056/// 10/07 Q1021=
200606051920 METAR ESMX 051920Z AUTO 19003KT 9999NDV R01/P1500N R19/P1500N FEW034/// BKN050/// OVC061/// 11/07 Q1020=
200606051850 METAR ESMX 051850Z AUTO 16004KT 9999NDV R01/P1500N R19/P1500N OVC061/// 12/07 Q1020=
200606051820 METAR ESMX 051820Z AUTO 05002KT 9999NDV R01/P1500N R19/P1500N OVC073/// 13/08 Q1019=
200606051750 METAR ESMX 051750Z AUTO 04003KT 010V070 9999NDV R01/P1500N R19/P1500N SCT075/// BKN100/// 13/07 Q1019=
200606051720 METAR ESMX 051720Z AUTO 03004KT 010V100 9999NDV R01/P1500N R19/P1500N BKN071/// 13/07 Q1019=
200606051650 METAR ESMX 051650Z AUTO 04005KT 020V080 9999NDV R01/P1500D R19/P1500N FEW076/// 13/08 Q1019=
200606051620 METAR ESMX 051620Z AUTO 03005KT 350V080 9999NDV R01/P1500D R19/P1500U FEW073/// 14/08 Q1019=
200606051550 METAR ESMX 051550Z AUTO 08006KT 030V130 9999NDV R01/P1500U R19/P1500U FEW018/// 11/07 Q1018 RERA=
200606051520 METAR ESMX 051520Z AUTO 34014G27KT 310V020 9999NDV R01/P1500U R19/P1500D FEW055/// SCT069/// BKN080/// 15/05 Q1018=
200606051450 METAR ESMX 051450Z AUTO 04005KT 010V080 9999NDV R01/P1500D R19/P1500D FEW081/// SCT110/// 16/01 Q1018=
200606051420 METAR ESMX 051420Z AUTO 35007KT 290V050 9999NDV R01/P1500U R19/P1500U FEW069/// SCT100/// 16/04 Q1018=
200606051350 METAR ESMX 051350Z 36010KT CAVOK 17/03 Q1018=
200606051320 METAR ESMX 051320Z 05008KT 020V110 CAVOK 17/04 Q1018=
200606051250 METAR ESMX 051250Z 01010KT CAVOK 16/03 Q1018=
200606051220 METAR ESMX 051220Z 03010KT CAVOK 16/04 Q1018=
200606051150 METAR ESMX 051150Z 02009KT 340V070 9999 FEW058CB BKN092 16/03 Q1018=
200606051120 METAR ESMX 051120Z 01011KT 330V050 9999 VCSH FEW050CB SCT090 17/00 Q1017=
200606051050 METAR ESMX 051050Z 36009KT 340V040 9999 VCSH FEW045CB SCT100 17/01 Q1017=
200606051020 METAR ESMX 051020Z 34008KT 300V040 9999 FEW045CB 15/03 Q1017=
200606050950 METAR ESMX 050950Z 01008KT 9999 VCSH SCT050TCU BKN098 15/04 Q1017=
200606050920 METAR ESMX 050920Z 34006KT 300V020 CAVOK 15/05 Q1017=
200606050850 METAR ESMX 050850Z 36006KT 310V050 CAVOK 16/06 Q1017=
200606050820 METAR ESMX 050820Z 35008KT 300V020 CAVOK 15/06 Q1017=
200606050750 METAR ESMX 050750Z 35005KT 330V030 CAVOK 14/08 Q1017=
200606050720 METAR ESMX 050720Z 01006KT 320V050 CAVOK 13/08 Q1017=
200606050650 METAR ESMX 050650Z 36004KT 340V050 CAVOK 12/08 Q1017=
200606050620 METAR ESMX 050620Z 34005KT CAVOK 11/07 Q1017=
200606050550 METAR ESMX 050550Z 35004KT CAVOK 10/08 Q1017=
200606050520 METAR ESMX 050520Z 33003KT CAVOK 10/09 Q1016=
200606050450 METAR ESMX 050450Z 32003KT CAVOK 10/09 Q1016=
200606050150 METAR ESMX 050150Z AUTO 00000KT 9999NDV R01/P1500N R19/P1500N BKN060/// OVC100/// 08/08 Q1015=
200606050120 METAR ESMX 050120Z AUTO 01002KT 9999NDV R01/P1500N R19/P1500N BKN054/// BKN100/// 08/08 Q1015=
200606050050 METAR ESMX 050050Z AUTO 00000KT 9999NDV R01/P1500N R19/P1500N BKN059/// BKN100/// 08/08 Q1015=
200606050020 METAR ESMX 050020Z AUTO 28002KT 9999NDV R01/P1500N R19/P1500N FEW057/// BKN100/// 08/08 Q1015=
200606042350 METAR ESMX 042350Z 30003KT CAVOK 09/08 Q1015=
200606042320 METAR ESMX 042320Z VRB02KT CAVOK 09/08 Q1016=
200606042250 METAR ESMX 042250Z 24003KT CAVOK 09/09 Q1015=
200606042220 METAR ESMX 042220Z 00000KT CAVOK 09/09 Q1016=
200606042150 METAR ESMX 042150Z 00000KT CAVOK 09/09 Q1015=
200606042120 METAR ESMX 042120Z 00000KT CAVOK 09/09 Q1015=
200606042050 METAR ESMX 042050Z 20002KT CAVOK 09/09 Q1015=
200606042020 METAR ESMX 042020Z VRB02KT CAVOK 10/09 Q1015=
200606041950 METAR ESMX 041950Z VRB01KT CAVOK 10/09 Q1015=
200606041920 METAR ESMX 041920Z VRB02KT 9999 FEW020 BKN070 10/10 Q1015=
200606041850 METAR ESMX 041850Z 27004KT 9999 FEW020 BKN060 11/10 Q1014 REDZ=
200606041820 METAR ESMX 041820Z 13003KT 080V160 9999 FEW020 BKN050 11/10 Q1014 RERA=
200606041750 METAR ESMX 041750Z 12003KT 9999 RA FEW020 BKN040 10/09 Q1015=
200606041720 METAR ESMX 041720Z AUTO 13003KT 080V190 9999NDV R01/P1500D R19/P1500U -RA FEW025/// 11/09 Q1015 REDZ=
200606041650 METAR ESMX 041650Z AUTO 05006KT 350V110 9999NDV R01/P1500U R19/P1500D -DZ BKN039/// 13/08 Q1014 RERA=
200606041620 METAR ESMX 041620Z AUTO 11004KT 060V150 9999NDV R01/P1500N R19/P1500D FEW055/// BKN089/// 15/06 Q1013=
200606041550 METAR ESMX 041550Z AUTO 10006KT 020V150 9999NDV R01/P1500N R19/P1500N FEW060/// BKN089/// 14/06 Q1013=
200606041520 METAR ESMX 041520Z AUTO 07007G17KT 030V110 9999NDV R01/P1500D R19/P1500D FEW045/// BKN100/// 15/07 Q1013=
200606041450 METAR ESMX 041450Z AUTO 11006KT 050V150 9999NDV R01/P1500U R19/P1500U FEW045/// BKN110/// 17/06 Q1013=
200606041420 METAR ESMX 041420Z AUTO 06007KT 030V120 9999NDV R01/P1500D R19/P1500U FEW087/// BKN110/// 17/06 Q1013=
200606041350 METAR ESMX 041350Z AUTO 02007KT 9999NDV R01/P1500D R19/P1500U SCT080/// BKN100/// 18/04 Q1012=
200606041320 METAR ESMX 041320Z AUTO 36008KT 310V030 9999NDV R01/P1500D R19/P1500D BKN099/// 18/03 Q1012=
200606041250 METAR ESMX 041250Z AUTO 34009KT 320V020 9999NDV R01/P1500U R19/P1500N BKN099/// 18/03 Q1012=
200606041220 METAR ESMX 041220Z AUTO 34007KT 9999NDV R01/P1500N R19/P1500U FEW070/// BKN082/// BKN098/// 17/04 Q1012=
200606041150 METAR ESMX 041150Z AUTO 36004KT 250V070 9999NDV R01/P1500D R19/P1500D FEW069/// SCT086/// 19/01 Q1012=
200606041120 METAR ESMX 041120Z AUTO VRB03KT 9999NDV R01/P1500D R19/P1500U FEW068/// SCT084/// 19/03 Q1012=
200606041050 METAR ESMX 041050Z AUTO 36005KT 280V060 9999NDV R01/P1500D R19/P1500U FEW065/// SCT076/// BKN087/// 18/02 Q1012=
200606041020 METAR ESMX 041020Z AUTO 01008KT 320V050 9999NDV R01/P1500U R19/P1500N SCT078/// 18/03 Q1012=
200606040950 METAR ESMX 040950Z AUTO 01007KT 340V050 9999NDV R01/P1500D R19/P1500D FEW060/// 18/04 Q1012=
200606040920 METAR ESMX 040920Z AUTO 34006KT 320V080 9999NDV R01/P1500D R19/P1500D FEW057/// BKN071/// 17/05 Q1013=
200606040850 METAR ESMX 040850Z AUTO 01005KT 340V050 9999NDV R01/P1500N R19/P1500U FEW067/// 18/05 Q1013=
200606040820 METAR ESMX 040820Z AUTO 36005KT 330V040 9999NDV R01/P1500U R19/P1500D NCD 17/06 Q1013=
200606040750 METAR ESMX 040750Z AUTO 02005KT 320V070 9999NDV R01/P1500U R19/P1500U NCD 16/07 Q1013=
200606040720 METAR ESMX 040720Z AUTO 01003KT 300V060 9999NDV R01/P1500U R19/P1500D NCD 15/07 Q1013=
200606040650 METAR ESMX 040650Z AUTO 36004KT 320V050 9999NDV R01/P1500D R19/P1500U NCD 13/08 Q1013=
200606040620 METAR ESMX 040620Z AUTO 36004KT 330V030 9999NDV R01/P1500D R19/P1500D NCD 13/08 Q1012=
200606040550 METAR ESMX 040550Z AUTO 33004KT 290V020 9999NDV R01/P1500U R19/P1500D NCD 11/09 Q1012=
200606040520 METAR ESMX 040520Z AUTO 31003KT 270V360 9999NDV R01/P1500D R19/P1500U NCD 09/08 Q1012=
200606040450 METAR ESMX 040450Z AUTO 28004KT 240V320 2300NDV R01/P1500U R19/P1500U SCT001/// 08/07 Q1012=
200606040420 METAR ESMX 040420Z AUTO 30003KT 260V360 0600NDV R01/0800V1100U R19/0750N FG VV001 07/07 Q1012=
200606040350 METAR ESMX 040350Z AUTO 26004KT 240V300 0350NDV R01/0650N R19/0700N FG VV001 07/06 Q1012=
200606040320 METAR ESMX 040320Z AUTO 27005KT 0250NDV R01/0500N R19/0600N FG VV001 06/06 Q1012=
200606040250 METAR ESMX 040250Z AUTO 25002KT 1200NDV R01/P1500D R19/P1500D NCD 05/05 Q1012=
200606040220 METAR ESMX 040220Z AUTO 19002KT 0800NDV R01/P1500D R19/P1500U FG NCD 05/05 Q1012=
200606040150 METAR ESMX 040150Z AUTO 18003KT 9000NDV R01/P1500D R19/P1500D BR SCT066/// 05/05 Q1012=
200606040120 METAR ESMX 040120Z AUTO 00000KT 5000NDV R01/P1500N R19/P1500N BR SCT064/// 06/06 Q1012=
200606040050 METAR ESMX 040050Z AUTO VRB02KT 9000NDV R01/P1500N R19/P1500N BKN061/// 06/06 Q1013=
200606040020 METAR ESMX 040020Z AUTO VRB02KT 9999NDV R01/P1500N R19/P1500N FEW062/// 07/06 Q1012=
200606032350 METAR ESMX 032350Z AUTO VRB02KT 9999NDV R01/P1500N R19/P1500N FEW059/// 07/06 Q1013=
200606032320 METAR ESMX 032320Z AUTO 24003KT 210V280 9999NDV R01/P1500N R19/P1500N NCD 07/06 Q1013=
200606032250 METAR ESMX 032250Z AUTO 26005KT 9999NDV R01/P1500N R19/P1500N NCD 08/06 Q1013=
200606032220 METAR ESMX 032220Z AUTO 26004KT 230V290 9999NDV R01/P1500N R19/P1500N NCD 08/06 Q1013=
200606032150 METAR ESMX 032150Z AUTO 25005KT 220V290 9999NDV R01/P1500N R19/P1500N NCD 08/06 Q1013=
200606032120 METAR ESMX 032120Z AUTO 26005KT 9999NDV R01/P1500N R19/P1500N NCD 09/06 Q1013=
200606032050 METAR ESMX 032050Z AUTO 24005KT 210V280 9999NDV R01/P1500N R19/P1500N NCD 09/06 Q1013=
200606032020 METAR ESMX 032020Z AUTO 25006KT 220V280 9999NDV R01/P1500D R19/P1500U NCD 10/06 Q1013=
200606031950 METAR ESMX 031950Z AUTO 25008KT 9999NDV R01/P1500U R19/P1500U SCT053/// 11/06 Q1013=
200606031920 METAR ESMX 031920Z AUTO 25007KT 9999NDV R01/P1500U R19/P1500U OVC053/// 11/06 Q1014=
200606031850 METAR ESMX 031850Z AUTO 26006KT 220V290 9999NDV R01/P1500D R19/P1500D OVC050/// 11/06 Q1014=
200606031820 METAR ESMX 031820Z AUTO 25006KT 220V290 9999NDV R01/P1500D R19/P1500D OVC044/// 12/05 Q1014=
200606031750 METAR ESMX 031750Z AUTO 27007KT 240V300 9999NDV R01/P1500D R19/P1500D FEW031/// OVC041/// 12/06 Q1014=
200606031720 METAR ESMX 031720Z AUTO 25009KT 210V280 9999NDV R01/P1500U R19/P1500D OVC039/// 12/05 Q1014=
200606031650 METAR ESMX 031650Z AUTO 25010KT 210V290 9999NDV R01/P1500D R19/P1500D FEW035/// BKN042/// 13/05 Q1014=
200606031620 METAR ESMX 031620Z AUTO 27010KT 240V300 9999NDV R01/P1500U R19/P1500D FEW033/// BKN044/// 13/05 Q1014=
200606031550 METAR ESMX 031550Z AUTO 27012KT 240V300 9999NDV R01/P1500U R19/P1500D SCT038/// BKN045/// 14/06 Q1014=
200606031520 METAR ESMX 031520Z AUTO 27012G22KT 240V300 9999NDV R01/P1500U R19/P1500U SCT039/// 16/06 Q1014=
200606031450 METAR ESMX 031450Z AUTO 25012KT 210V280 9999NDV R01/P1500D R19/P1500D FEW040/// 16/06 Q1014=
200606031420 METAR ESMX 031420Z AUTO 26015KT 220V290 9999NDV R01/P1500D R19/P1500N FEW061/// 16/06 Q1014=
200606031350 METAR ESMX 031350Z AUTO 25012KT 210V290 9999NDV R01/P1500U R19/P1500D FEW073/// 17/06 Q1014=
200606031320 METAR ESMX 031320Z AUTO 26011KT 210V300 9999NDV R01/P1500U R19/P1500U FEW066/// 17/06 Q1014=
200606031250 METAR ESMX 031250Z AUTO 26011KT 220V300 9999NDV R01/P1500D R19/P1500U FEW079/// 16/07 Q1015=
200606031220 METAR ESMX 031220Z AUTO 26010KT 210V290 9999NDV R01/P1500U R19/P1500D SCT077/// BKN100/// 16/07 Q1015=
200606031150 METAR ESMX 031150Z AUTO 27012KT 210V300 9999NDV R01/P1500D R19/P1500D FEW039/// SCT100/// 17/07 Q1015=
200606031120 METAR ESMX 031120Z AUTO 24012KT 190V270 9999NDV R01/P1500U R19/P1500D FEW047/// 17/07 Q1015=
200606031050 METAR ESMX 031050Z AUTO 26012KT 230V320 9999NDV R01/P1500D R19/P1500U FEW038/// 16/07 Q1015=
200606031020 METAR ESMX 031020Z AUTO 24009KT 190V280 9999NDV R01/P1500U R19/P1500D FEW031/// 16/08 Q1016=
200606030950 METAR ESMX 030950Z AUTO 24009KT 200V300 9999NDV R01/P1500D R19/P1500D FEW025/// 14/08 Q1016=
200606030920 METAR ESMX 030920Z AUTO 28012KT 240V320 9999NDV R01/P1500D R19/P1500U SCT021/// BKN026/// 14/08 Q1017=
200606030850 METAR ESMX 030850Z AUTO 27009KT 200V320 9999NDV R01/P1500D R19/P1500U BKN016/// OVC024/// 13/08 Q1017=
200606030820 METAR ESMX 030820Z AUTO 26011KT 210V300 9999NDV R01/P1500D R19/P1500U OVC013/// 13/09 Q1017=
200606030750 METAR ESMX 030750Z AUTO 23008KT 200V290 9999NDV R01/P1500D R19/P1500D OVC015/// 12/09 Q1017=
200606030720 METAR ESMX 030720Z AUTO 27009KT 230V300 9999NDV R01/P1500D R19/P1500U OVC013/// 12/09 Q1017=
200606030650 METAR ESMX 030650Z AUTO 26009KT 230V300 9999NDV R01/P1500D R19/P1500U OVC012/// 12/09 Q1017=
200606030620 METAR ESMX 030620Z AUTO 24008KT 200V280 9999NDV R01/P1500D R19/P1500U BKN011/// OVC016/// 12/09 Q1018=
200606030550 METAR ESMX 030550Z AUTO 25009KT 220V290 9999NDV R01/P1500U R19/P1500U OVC010/// 11/09 Q1018=
200606030520 METAR ESMX 030520Z AUTO 24008KT 200V270 9999NDV R01/P1500N R19/P1500U OVC008/// 11/09 Q1018=
200606030450 METAR ESMX 030450Z AUTO 24007KT 190V270 9999NDV R01/P1500D R19/P1500D OVC008/// 11/09 Q1018=
200606030420 METAR ESMX 030420Z AUTO 25008KT 200V290 8000NDV R01/P1500D R19/P1500U BR OVC008/// 11/09 Q1018=
200606030350 METAR ESMX 030350Z AUTO 25007KT 220V290 9000NDV R01/P1500D R19/P1500U SCT007/// OVC010/// 11/09 Q1019=
200606030320 METAR ESMX 030320Z AUTO 25012KT 220V320 9999NDV R01/P1500U R19/P1500U OVC007/// 11/09 Q1019=
200606030250 METAR ESMX 030250Z AUTO 26008KT 220V300 9999NDV R01/P1500D R19/P1500U OVC008/// 11/09 Q1019=
200606030220 METAR ESMX 030220Z AUTO 24008KT 200V280 9999NDV R01/P1500N R19/P1500N OVC009/// 11/09 Q1019=
200606030150 METAR ESMX 030150Z AUTO 23009KT 200V280 9999NDV R01/P1500N R19/P1500N OVC009/// 11/10 Q1019=
200606030120 METAR ESMX 030120Z AUTO 25009KT 9999NDV R01/P1500N R19/P1500N SCT005/// BKN008/// OVC010/// 11/10 Q1019=
200606030050 METAR ESMX 030050Z AUTO 25008KT 7000NDV R01/P1500N R19/P1500N BR OVC005/// 11/10 Q1020=
200606030020 METAR ESMX 030020Z AUTO 23010KT 200V260 9999NDV R01/P1500N R19/P1500N OVC005/// 11/10 Q1020=
200606022350 METAR ESMX 022350Z AUTO 24008KT 9999NDV R01/P1500N R19/P1500N BKN004/// OVC008/// 11/10 Q1020 REDZ=
200606022320 METAR ESMX 022320Z AUTO 23007KT 190V250 3000NDV R01/P1500N R19/P1500N -DZ FEW004/// BKN006/// OVC007/// 11/10 Q1021 RERA=
200606022250 METAR ESMX 022250Z AUTO 22007KT 190V260 5000NDV R01/P1500N R19/P1500N BR OVC005/// 11/10 Q1021=
200606022220 METAR ESMX 022220Z AUTO 21007KT 180V250 6000NDV R01/P1500N R19/P1500N BR OVC006/// 11/10 Q1021=
200606022150 METAR ESMX 022150Z AUTO 21007KT 190V250 9999NDV R01/P1500N R19/P1500N BKN010/// OVC015/// 11/09 Q1021=
200606022120 METAR ESMX 022120Z AUTO 23009KT 9999NDV R01/P1500N R19/P1500N OVC012/// 12/09 Q1022=
200606022050 METAR ESMX 022050Z AUTO 24009KT 200V290 9999NDV R01/P1500N R19/P1500N OVC014/// 12/09 Q1022=
200606022020 METAR ESMX 022020Z AUTO 23009KT 200V260 9999NDV R01/P1500N R19/P1500N OVC015/// 12/09 Q1022=
200606021950 METAR ESMX 021950Z AUTO 23009KT 9999NDV R01/P1500N R19/P1500N OVC017/// 12/08 Q1022=
200606021920 METAR ESMX 021920Z AUTO 24010KT 200V280 9999NDV R01/P1500N R19/P1500N OVC019/// 12/08 Q1022=
200606021850 METAR ESMX 021850Z AUTO 25009KT 210V270 9999NDV R01/P1500N R19/P1500N OVC021/// 12/08 Q1022=
200606021820 METAR ESMX 021820Z AUTO 25009KT 210V280 9999NDV R01/P1500N R19/P1500N OVC023/// 13/08 Q1023=
200606021750 METAR ESMX 021750Z 24011KT 200V270 9999 BKN027 13/07 Q1023=
200606021720 METAR ESMX 021720Z 26012KT 230V290 9999 FEW028 SCT033 14/07 Q1023=
200606021650 METAR ESMX 021650Z 24011KT 190V280 9999 SCT036 15/07 Q1023=
200606021620 METAR ESMX 021620Z 25011KT 210V290 CAVOK 16/06 Q1023=
200606021550 METAR ESMX 021550Z 26011KT CAVOK 16/02 Q1023=
200606021520 METAR ESMX 021520Z 22012KT CAVOK 17/M00 Q1023=
200606021450 METAR ESMX 021450Z 25012KT CAVOK 17/M01 Q1023=
200606021420 METAR ESMX 021420Z 24015KT CAVOK 17/M02 Q1023=
200606021350 METAR ESMX 021350Z 22013KT CAVOK 18/M00 Q1023=
200606021320 METAR ESMX 021320Z 21011G23KT CAVOK 18/01 Q1023=
200606021250 METAR ESMX 021250Z 23013KT 200V270 CAVOK 18/03 Q1023=
200606021220 METAR ESMX 021220Z 23013KT 200V260 CAVOK 18/04 Q1023=
200606021150 METAR ESMX 021150Z 24012KT 200V280 CAVOK 18/05 Q1023=
200606021120 METAR ESMX 021120Z 23012KT 190V260 CAVOK 17/04 Q1023=
200606021050 METAR ESMX 021050Z 23011KT 200V260 9999 SCT048 18/06 Q1024=
200606021020 METAR ESMX 021020Z 21012KT 9999 FEW046 17/06 Q1024=
200606020950 METAR ESMX 020950Z 25010KT 9999 FEW047 16/06 Q1024=
200606020920 METAR ESMX 020920Z 23011KT 9999 FEW046 17/06 Q1024=
200606020850 METAR ESMX 020850Z 21009KT 170V270 9999 FEW045 16/05 Q1024=
200606020820 METAR ESMX 020820Z 22008KT 190V250 9999 FEW045 16/06 Q1024=
200606020750 METAR ESMX 020750Z 23009KT 190V260 CAVOK 15/05 Q1024=
200606020720 METAR ESMX 020720Z 23007KT 190V270 CAVOK 15/05 Q1024=
200606020650 METAR ESMX 020650Z 24005KT 210V280 CAVOK 14/06 Q1024=
200606020620 METAR ESMX 020620Z 25005KT 200V300 CAVOK 13/05 Q1024=
200606020550 METAR ESMX 020550Z VRB02KT CAVOK 12/06 Q1023=
200606020520 METAR ESMX 020520Z 24003KT 200V260 CAVOK 10/07 Q1023=
200606020450 METAR ESMX 020450Z 26003KT CAVOK 09/07 Q1023=
200606020420 METAR ESMX 020420Z 25003KT CAVOK 08/06 Q1023=
200606020350 METAR ESMX 020350Z 24003KT CAVOK 05/05 Q1023=
200606020320 METAR ESMX 020320Z 21002KT CAVOK 03/03 Q1023=
200606020250 METAR ESMX 020250Z AUTO 16001KT 9999NDV R01/P1500D R19/P1500D NCD 03/02 Q1023=
200606020220 METAR ESMX 020220Z AUTO 00000KT 9999NDV R01/P1500U R19/P1500U NCD 03/03 Q1023=
200606020150 METAR ESMX 020150Z AUTO 26002KT 9999NDV R01/P1500D R19/P1500D NCD 04/03 Q1022=
200606020050 METAR ESMX 020050Z AUTO 25004KT 9999NDV R01/P1500N R19/P1500N NCD 06/05 Q1022=
200606020020 METAR ESMX 020020Z AUTO 24003KT 9999NDV R01/P1500N R19/P1500N NCD 06/05 Q1022=
200606012350 METAR ESMX 012350Z 25003KT CAVOK 05/04 Q1022=
200606012320 METAR ESMX 012320Z 00000KT CAVOK 06/05 Q1022=
200606012250 METAR ESMX 012250Z 19003KT CAVOK 06/06 Q1021=
200606012220 METAR ESMX 012220Z 19003KT CAVOK 07/06 Q1021=
200606012050 METAR ESMX 012050Z 00000KT CAVOK 08/06 Q1021=
200606012020 METAR ESMX 012020Z 24003KT CAVOK 08/06 Q1020=
200606011950 METAR ESMX 011950Z 18002KT 9999 FEW045 SCT070 08/06 Q1020=
200606011920 METAR ESMX 011920Z 19001KT 9999 FEW045 BKN055 09/06 Q1020=
200606011850 METAR ESMX 011850Z 00000KT 9999 BKN045 10/06 Q1019=
200606011820 METAR ESMX 011820Z 09001KT CAVOK 12/06 Q1019=
200606011750 METAR ESMX 011750Z VRB01KT CAVOK 12/05 Q1018=
200606011720 METAR ESMX 011720Z 06004KT 030V120 CAVOK 13/04 Q1018=
200606011650 METAR ESMX 011650Z 01004KT 300V060 CAVOK 14/04 Q1018=
200606011620 METAR ESMX 011620Z 01004KT CAVOK 14/05 Q1018=
200606011550 METAR ESMX 011550Z 02008KT CAVOK 13/04 Q1018=
200606011520 METAR ESMX 011520Z 36009KT 9999 FEW045 BKN050 14/03 Q1017=
200606011450 METAR ESMX 011450Z 35008KT CAVOK 13/05 Q1017=
200606011420 METAR ESMX 011420Z 36010KT CAVOK 13/04 Q1017=
200606011350 METAR ESMX 011350Z 02010KT 9999 FEW033 BKN050 13/05 Q1016=
200606011320 METAR ESMX 011320Z 03010KT 350V060 CAVOK 13/05 Q1016=
200606011250 METAR ESMX 011250Z 01011KT 9999 FEW020 BKN050 12/05 Q1016=
200606011220 METAR ESMX 011220Z 02010KT 320V040 9999 FEW025 BKN060 13/05 Q1015=
