##########################################################
# Query made at 04/19/2024 20:50:30 UTC
# Time interval: from 04/01/2006 12:00  to 04/30/2006 12:59  UTC
##########################################################

##########################################################
# ESMX, Vaxjo (Sweden)
# WMO index: 02641. WIGOS ID: 0-20000-0-02648
# Latitude 56-51N. Longitude 014-50E. Altitude 199 m.
##########################################################

200604301250 METAR ESMX 301250Z AUTO 10005KT 050V160 4900NDV R01/P1500U R19/P1500N -RA OVC006/// 07/07 Q1015=
200604301220 METAR ESMX 301220Z AUTO 10004KT 060V160 4000NDV R01/P1500N R19/P1500N -RA FEW005/// OVC007/// 07/06 Q1015=
200604301150 METAR ESMX 301150Z AUTO 13004KT 080V170 3600NDV R01/P1500U R19/P1500D DZ OVC005/// 07/06 Q1015=
200604301120 METAR ESMX 301120Z AUTO 10003KT 040V160 3500NDV R01/P1500U R19/P1500U DZ FEW004/// BKN007/// OVC010/// 07/06 Q1015=
200604301050 METAR ESMX 301050Z AUTO 09004KT 050V130 2700NDV R01/P1500U R19/P1500N DZ FEW002/// SCT006/// BKN007/// 07/06 Q1015 RERA=
200604301020 METAR ESMX 301020Z AUTO 09005KT 030V140 3000NDV R01/P1500D R19/P1500D -RA SCT002/// BKN005/// OVC011/// 07/07 Q1015=
200604300950 METAR ESMX 300950Z AUTO 10003KT 040V160 3300NDV R01/P1500D R19/P1500D -RA BKN002/// OVC005/// 07/07 Q1015 REDZ=
200604300920 METAR ESMX 300920Z AUTO 10003KT 060V160 5000NDV R01/P1500U R19/P1500U DZ FEW002/// SCT004/// BKN005/// 07/07 Q1015=
200604300850 METAR ESMX 300850Z AUTO VRB02KT 6000NDV R01/P1500D R19/P1500D -RA FEW002/// SCT005/// BKN009/// 07/07 Q1015 REDZ=
200604300820 METAR ESMX 300820Z AUTO 10003KT 050V160 5000NDV R01/P1500U R19/P1500U -RA FEW003/// BKN007/// OVC011/// 07/07 Q1015=
200604300750 METAR ESMX 300750Z AUTO VRB02KT 6000NDV R01/P1500D R19/P1500U RA FEW003/// SCT005/// BKN007/// 07/07 Q1015=
200604300720 METAR ESMX 300720Z AUTO 08003KT 040V140 7000NDV R01/P1500D R19/P1500D -RA FEW003/// OVC004/// 07/07 Q1014 REDZ=
200604300650 METAR ESMX 300650Z AUTO 10003KT 050V170 9999NDV R01/P1500D R19/P1500N DZ OVC004/// 07/07 Q1014 RERA=
200604300620 METAR ESMX 300620Z AUTO 08003KT 040V150 7000NDV R01/P1500U R19/P1500D DZ FEW004/// OVC005/// 07/07 Q1014=
200604300550 METAR ESMX 300550Z AUTO 09004KT 060V140 6000NDV R01/P1500N R19/P1500D DZ OVC004/// 07/07 Q1014 RERA=
200604300520 METAR ESMX 300520Z AUTO 10004KT 050V150 6000NDV R01/P1500U R19/P1500U BR OVC004/// 07/07 Q1014=
200604300450 METAR ESMX 300450Z AUTO 09005KT 050V150 4500NDV R01/P1500U R19/P1500U BR FEW004/// OVC005/// 07/07 Q1013=
200604300420 METAR ESMX 300420Z AUTO 10005KT 060V140 5000NDV R01/P1500U R19/P1500U BR OVC003/// 07/07 Q1013=
200604300350 METAR ESMX 300350Z AUTO 10005KT 070V140 3700NDV R01/P1500U R19/P1500U BR OVC002/// 07/07 Q1013=
200604300320 METAR ESMX 300320Z AUTO 10004KT 050V150 2100NDV R01/P1500N R19/P1500N BR FEW002/// SCT004/// BKN005/// 08/07 Q1013 REDZ=
200604300250 METAR ESMX 300250Z AUTO 11005KT 070V150 1800NDV R01/P1500N R19/P1500N -DZ FEW003/// BKN005/// OVC007/// 08/07 Q1012=
200604300220 METAR ESMX 300220Z AUTO 10006KT 060V150 1600NDV R01/P1500N R19/P1500N DZ OVC005/// 08/07 Q1012 RERA=
200604300150 METAR ESMX 300150Z AUTO 11006KT 070V150 3300NDV R01/P1500N R19/P1500N BR ////// 08/08 Q1012=
200604300120 METAR ESMX 300120Z AUTO 11004KT 080V140 4300NDV R01/P1500N R19/P1500N BR ////// 08/08 Q1012 REDZ=
200604300050 METAR ESMX 300050Z AUTO 10005KT 030V160 5000NDV R01/P1500N R19/P1500N DZ ////// 08/08 Q1012=
200604300020 METAR ESMX 300020Z AUTO 11004KT 080V160 4000NDV R01/P1500N R19/P1500N +DZ ////// 08/08 Q1012=
200604292350 METAR ESMX 292350Z AUTO 10004KT 060V170 5000NDV R01/P1500N R19/P1500N DZ ////// 08/08 Q1012=
200604292320 METAR ESMX 292320Z AUTO 10007KT 040V140 4500NDV R01/P1500N R19/P1500N DZ ////// 08/07 Q1012 RERA=
200604292250 METAR ESMX 292250Z AUTO 09006KT 040V150 4000NDV R01/P1500N R19/P1500N BR ////// 08/07 Q1012 RERA=
200604292220 METAR ESMX 292220Z AUTO 08008G18KT 040V140 5000NDV R01/P1500N R19/P1500N -DZ ////// 08/07 Q1012 RERA=
200604292150 METAR ESMX 292150Z AUTO 09011KT 050V140 8000NDV R01/P1500N R19/P1500N BR FEW016/// OVC040/// 08/07 Q1012=
200604292120 METAR ESMX 292120Z AUTO 07010KT 040V120 7000NDV R01/P1500N R19/P1500N BR FEW040/// BKN047/// OVC066/// 08/06 Q1012 REDZ REUP=
200604292050 METAR ESMX 292050Z AUTO 06009KT 020V110 6000NDV R01/P1500N R19/P1500N -DZ FEW035/// SCT041/// BKN046/// 07/06 Q1012=
200604292020 METAR ESMX 292020Z AUTO 05008KT 010V080 6000NDV R01/P1500N R19/P1500N DZ BKN036/// 07/06 Q1012 RERA=
200604291950 METAR ESMX 291950Z AUTO 06007KT 020V110 5000NDV R01/P1500N R19/P1500N BR OVC036/// 07/06 Q1013 REDZ=
200604291920 METAR ESMX 291920Z AUTO 04007KT 5000NDV R01/P1500N R19/P1500N -DZ SCT039/// BKN047/// 07/06 Q1013 RERA=
200604291850 METAR ESMX 291850Z AUTO 04009KT 4000NDV R01/P1500N R19/P1500N -RA FEW005/// BKN056/// 07/06 Q1013=
200604291820 METAR ESMX 291820Z AUTO 04008KT 4100NDV R01/P1500D R19/P1500D -RA FEW005/// BKN058/// 07/06 Q1013 REDZ=
200604291750 METAR ESMX 291750Z AUTO 04006KT 020V080 4700NDV R01/P1500D R19/P1500D DZ FEW006/// OVC058/// 07/06 Q1013 RERA=
200604291720 METAR ESMX 291720Z AUTO 05005KT 020V080 6000NDV R01/P1500D R19/P1500D -RA OVC006/// 07/06 Q1013 REDZ=
200604291650 METAR ESMX 291650Z AUTO 05006KT 020V090 8000NDV R01/P1500D R19/P1500N -DZ OVC005/// 07/06 Q1013 RERA=
200604291620 METAR ESMX 291620Z AUTO 04006KT 010V100 9000NDV R01/P1500U R19/P1500U -RA FEW005/// OVC006/// 07/06 Q1013 REDZ=
200604291550 METAR ESMX 291550Z AUTO 04007KT 020V080 8000NDV R01/P1500N R19/P1500D -RA FEW005/// BKN006/// OVC008/// 07/06 Q1013 REDZ=
200604291520 METAR ESMX 291520Z AUTO 05005KT 020V080 9999NDV R01/P1500U R19/P1500D -RA FEW007/// SCT008/// BKN010/// 07/06 Q1013=
200604291450 METAR ESMX 291450Z AUTO 05006KT 010V080 9999NDV R01/P1500D R19/P1500D DZ FEW008/// SCT013/// BKN025/// 06/06 Q1013 RERA=
200604291420 METAR ESMX 291420Z AUTO 02004KT 350V070 9999NDV R01/P1500D R19/P1500D -RA FEW008/// SCT013/// BKN019/// 06/06 Q1013=
200604291350 METAR ESMX 291350Z AUTO 04004KT 9999NDV R01/P1500D R19/P1500D -RA FEW009/// SCT017/// BKN023/// 06/05 Q1013=
200604291320 METAR ESMX 291320Z AUTO 04005KT 020V080 9999NDV R01/P1500D R19/P1500U -RA FEW009/// SCT014/// BKN018/// 06/05 Q1014=
200604291250 METAR ESMX 291250Z AUTO 04007KT 360V060 9999NDV R01/P1500U R19/P1500U -RA FEW008/// SCT017/// OVC020/// 06/05 Q1014=
200604291220 METAR ESMX 291220Z AUTO 03006KT 010V080 9999NDV R01/P1500D R19/P1500D -RA FEW008/// SCT015/// OVC020/// 06/05 Q1014=
200604291150 METAR ESMX 291150Z AUTO 02007KT 340V050 9999NDV R01/P1500U R19/P1500N -RA SCT007/// BKN009/// BKN020/// 07/06 Q1014=
200604291120 METAR ESMX 291120Z AUTO 03007KT 010V070 9000NDV R01/P1500D R19/P1500U -RA OVC008/// 06/05 Q1014 REDZ=
200604291050 METAR ESMX 291050Z AUTO 03007KT 350V050 9999NDV R01/P1500U R19/P1500U DZ FEW008/// OVC011/// 07/05 Q1014 RERA=
200604291020 METAR ESMX 291020Z AUTO 03008KT 360V060 9999NDV R01/P1500D R19/P1500D OVC010/// 07/04 Q1014=
200604290950 METAR ESMX 290950Z AUTO 01008KT 340V040 9999NDV R01/P1500D R19/P1500N OVC014/// 07/04 Q1014=
200604290920 METAR ESMX 290920Z AUTO 03007KT 360V060 9999NDV R01/P1500U R19/P1500U OVC013/// 07/04 Q1014=
200604290850 METAR ESMX 290850Z AUTO 01006KT 350V070 9999NDV R01/P1500U R19/P1500D OVC011/// 07/04 Q1014=
200604290820 METAR ESMX 290820Z AUTO 04007KT 010V070 9999NDV R01/P1500D R19/P1500D OVC011/// 07/04 Q1013=
200604290750 METAR ESMX 290750Z AUTO 04006KT 010V070 9999NDV R01/P1500D R19/P1500D OVC011/// 07/04 Q1013=
200604290720 METAR ESMX 290720Z AUTO 04006KT 010V070 9999NDV R01/P1500U R19/P1500N OVC011/// 06/04 Q1013=
200604290650 METAR ESMX 290650Z AUTO 02006KT 340V050 9999NDV R01/P1500U R19/P1500U OVC011/// 06/04 Q1013=
200604290620 METAR ESMX 290620Z AUTO 05004KT 010V100 9999NDV R01/P1500U R19/P1500D FEW009/// OVC010/// 06/04 Q1013=
200604290550 METAR ESMX 290550Z AUTO 04005KT 350V070 9999NDV R01/P1500U R19/P1500U OVC009/// 05/04 Q1013=
200604290520 METAR ESMX 290520Z AUTO 05004KT 360V080 9999NDV R01/P1500U R19/P1500U OVC009/// 05/04 Q1013=
200604290450 METAR ESMX 290450Z AUTO 04003KT 9999NDV R01/P1500U R19/P1500D FEW007/// OVC009/// 04/04 Q1013=
200604290420 METAR ESMX 290420Z AUTO 07003KT 030V100 9999NDV R01/P1500N R19/P1500D FEW004/// OVC005/// 04/04 Q1013=
200604290350 METAR ESMX 290350Z AUTO 05004KT 010V080 9999NDV R01/P1500D R19/P1500D OVC003/// 04/04 Q1012=
200604290320 METAR ESMX 290320Z AUTO 03004KT 9999NDV R01/P1500N R19/P1500N FEW004/// SCT006/// OVC008/// 03/02 Q1012=
200604290250 METAR ESMX 290250Z AUTO 03002KT 9999NDV R01/P1500N R19/P1500N FEW072/// SCT084/// 00/00 Q1012=
200604290220 METAR ESMX 290220Z AUTO 00000KT 9999NDV R01/P1500N R19/P1500N BKN083/// 00/00 Q1012=
200604290150 METAR ESMX 290150Z AUTO 00000KT 9999NDV R01/P1500N R19/P1500N FEW081/// 00/M00 Q1012=
200604290120 METAR ESMX 290120Z 00000KT 9999 MIFG SCT0480 M00/M00 Q1012=
200604290050 METAR ESMX 290050Z VRB01KT CAVOK 01/00 Q1012=
200604290020 METAR ESMX 290020Z 36001KT CAVOK 02/02 Q1012=
200604282350 METAR ESMX 282350Z AUTO 07004KT 9999NDV R01/P1500N R19/P1500N NCD 03/02 Q1012=
200604282320 METAR ESMX 282320Z AUTO 04005KT 9999NDV R01/P1500N R19/P1500N NCD 03/02 Q1012=
200604282250 METAR ESMX 282250Z 03005KT CAVOK 03/02 Q1012=
200604282220 METAR ESMX 282220Z AUTO 04007KT 9999NDV R01/P1500N R19/P1500N NCD 04/03 Q1012=
200604282150 METAR ESMX 282150Z AUTO 04008KT 9999NDV R01/P1500N R19/P1500N FEW006/// 04/03 Q1012=
200604282120 METAR ESMX 282120Z AUTO 03006KT 9999NDV R01/P1500N R19/P1500N FEW027/// 05/03 Q1012=
200604282050 METAR ESMX 282050Z AUTO 04007KT 020V080 9999NDV R01/P1500N R19/P1500N FEW020/// 05/03 Q1012=
200604282020 METAR ESMX 282020Z AUTO 03008KT 9999NDV R01/P1500N R19/P1500N BKN019/// OVC028/// 06/03 Q1012=
200604281950 METAR ESMX 281950Z AUTO 02009KT 9999NDV R01/P1500N R19/P1500N FEW020/// BKN024/// 07/03 Q1012=
200604281920 METAR ESMX 281920Z AUTO 01009KT 9999NDV R01/P1500N R19/P1500N NCD 06/03 Q1012=
200604281850 METAR ESMX 281850Z AUTO 34009KT 9999NDV R01/P1500N R19/P1500N FEW033/// 06/03 Q1012=
200604281820 METAR ESMX 281820Z AUTO 35008KT 9999NDV R01/P1500N R19/P1500N NCD 07/03 Q1012=
200604281750 METAR ESMX 281750Z AUTO 34009KT 9999NDV R01/P1500N R19/P1500N NCD 08/03 Q1011=
200604281720 METAR ESMX 281720Z 32012KT 240V340 CAVOK 10/03 Q1011=
200604281650 METAR ESMX 281650Z 27005KT CAVOK 11/00 Q1011=
200604281620 METAR ESMX 281620Z 29007KT CAVOK 12/M01 Q1011=
200604281550 METAR ESMX 281550Z 31009KT CAVOK 12/M01 Q1011=
200604281520 METAR ESMX 281520Z 28005KT 260V340 CAVOK 12/M01 Q1011=
200604281450 METAR ESMX 281450Z 32003KT 250V050 CAVOK 12/M04 Q1011=
200604281420 METAR ESMX 281420Z 27005KT 240V330 CAVOK 12/M01 Q1011=
200604281350 METAR ESMX 281350Z 26004KT 220V300 CAVOK 12/M02 Q1011=
200604281320 METAR ESMX 281320Z 25004KT 200V280 CAVOK 12/M01 Q1011=
200604281250 METAR ESMX 281250Z 22004KT 130V300 CAVOK 12/M01 Q1011=
200604281220 METAR ESMX 281220Z VRB01KT CAVOK 12/M01 Q1012=
200604281150 METAR ESMX 281150Z 03005KT CAVOK 11/00 Q1012=
200604281120 METAR ESMX 281120Z 03004KT 340V090 CAVOK 12/00 Q1012=
200604281050 METAR ESMX 281050Z VRB06KT 9999 FEW035 SCT052 12/M01 Q1012=
200604281020 METAR ESMX 281020Z 36005KT 290V080 9999 SCT045 13/01 Q1012=
200604280950 METAR ESMX 280950Z 02006KT 320V060 9999 SCT040 12/02 Q1013=
200604280920 METAR ESMX 280920Z 36006KT 320V050 9999 SCT030 11/02 Q1013=
200604280850 METAR ESMX 280850Z 01005KT 320V050 9999 FEW023 10/04 Q1013=
200604280820 METAR ESMX 280820Z 35006KT 320V020 9999 FEW015 10/05 Q1013=
200604280750 METAR ESMX 280750Z 27005KT 240V300 CAVOK 08/04 Q1014=
200604280720 METAR ESMX 280720Z 34003KT 290V020 CAVOK 07/03 Q1014=
200604280650 METAR ESMX 280650Z 30004KT 230V360 CAVOK 06/03 Q1014=
200604280620 METAR ESMX 280620Z 33004KT 290V020 CAVOK 05/03 Q1014=
200604280550 METAR ESMX 280550Z 29004KT 260V330 CAVOK 04/02 Q1014=
200604280520 METAR ESMX 280520Z 27003KT CAVOK 03/01 Q1015=
200604280450 METAR ESMX 280450Z 30002KT CAVOK 02/01 Q1015=
200604280420 METAR ESMX 280420Z 30003KT 270V330 9999 NSC 00/M00 Q1015=
200604280350 METAR ESMX 280350Z 28005KT CAVOK 01/M00 Q1015=
200604280320 METAR ESMX 280320Z AUTO VRB02KT 9999NDV R01/P1500D R19/P1500D NCD 01/00 Q1015=
200604280250 METAR ESMX 280250Z AUTO 29003KT 250V320 9999NDV R01/P1500N R19/P1500N NCD 02/01 Q1015=
200604280220 METAR ESMX 280220Z AUTO 28004KT 9999NDV R01/P1500N R19/P1500N NCD 02/01 Q1015=
200604280150 METAR ESMX 280150Z AUTO 29004KT 9999NDV R01/P1500N R19/P1500N NCD 03/02 Q1016=
200604280120 METAR ESMX 280120Z AUTO 30003KT 9999NDV R01/P1500N R19/P1500N SCT036/// 04/03 Q1016=
200604280050 METAR ESMX 280050Z AUTO 31005KT 9999NDV R01/P1500N R19/P1500N SCT034/// BKN042/// BKN057/// 05/04 Q1016=
200604280020 METAR ESMX 280020Z AUTO 30005KT 9999NDV R01/P1500N R19/P1500N FEW026/// BKN032/// OVC042/// 06/04 Q1016=
200604272350 METAR ESMX 272350Z 29006KT 9999 FEW025 BKN040 06/05 Q1016=
200604272320 METAR ESMX 272320Z 29004KT 6000 BR OVC034 06/06 Q1016=
200604272250 METAR ESMX 272250Z 27004KT 5000 BR FEW004 SCT007 BKN008 07/06 Q1017=
200604272220 METAR ESMX 272220Z 24003KT 4000 BR FEW002 BKN004 OVC006 07/06 Q1017=
200604272150 METAR ESMX 272150Z 22003KT 3500 BR FEW001 SCT003 BKN008 07/06 Q1017=
200604272120 METAR ESMX 272120Z 22003KT 3300 BR FEW010 OVC031 07/06 Q1017=
200604272050 METAR ESMX 272050Z 24002KT 4200 BR FEW014 OVC030 07/06 Q1017=
200604272020 METAR ESMX 272020Z 25002KT 5000 BR FEW015 BKN018 07/06 Q1017 RERA=
200604271950 METAR ESMX 271950Z 26002KT 4100 -RA FEW002 BKN050 07/06 Q1018=
200604271920 METAR ESMX 271920Z 27003KT 5000 -RA SCT003 BKN050 07/07 Q1018=
200604271850 METAR ESMX 271850Z VRB01KT 3000 -RA FEW003 BKN008 07/07 Q1018=
200604271820 METAR ESMX 271820Z 27002KT 2600 -RA FEW002 BKN004 OVC009 07/07 Q1018 REDZ=
200604271750 METAR ESMX 271750Z 22003KT 3900 -RA FEW003 SCT007 OVC009 08/07 Q1018=
200604271720 METAR ESMX 271720Z 20002KT 6000 BR FEW006 OVC010 08/07 Q1018=
200604271650 METAR ESMX 271650Z 23002KT 7000 -RA SCT006 OVC013 08/07 Q1018=
200604271620 METAR ESMX 271620Z VRB01KT 7000 -RA FEW015 BKN020 08/07 Q1018=
200604271550 METAR ESMX 271550Z 26002KT 7000 -RA FEW012 OVC015 08/07 Q1018=
200604271520 METAR ESMX 271520Z VRB02KT 9999 OVC017 09/06 Q1018=
200604271450 METAR ESMX 271450Z VRB02KT 9999 FEW015 BKN020 09/05 Q1018=
200604271420 METAR ESMX 271420Z 18003KT 100V210 9999 FEW015 SCT020 OVC027 09/06 Q1018=
200604271350 METAR ESMX 271350Z 19003KT 140V230 9999 OVC027 09/05 Q1018=
200604271320 METAR ESMX 271320Z 19003KT 120V230 9999 OVC027 09/05 Q1019=
200604271250 METAR ESMX 271250Z 19003KT 140V210 9999 FEW015 OVC028 09/05 Q1019=
200604271220 METAR ESMX 271220Z 19004KT 160V220 9999 FEW015 BKN023 09/05 Q1019=
200604271150 METAR ESMX 271150Z 16005KT 130V190 9999 FEW015 BKN020 09/05 Q1019=
200604271120 METAR ESMX 271120Z 14003KT 080V200 9999 OVC022 09/05 Q1019 RERA=
200604271050 METAR ESMX 271050Z 15004KT 110V190 9999 -RA OVC022 09/05 Q1019=
200604271020 METAR ESMX 271020Z 18004KT 140V200 9999 BKN023 09/05 Q1019=
200604270950 METAR ESMX 270950Z 20003KT 160V230 9999 BKN023 09/05 Q1019=
200604270920 METAR ESMX 270920Z 21003KT 170V240 9999 FEW023 BKN027 09/04 Q1019=
200604270850 METAR ESMX 270850Z 14003KT 100V190 9999 BKN027 08/04 Q1019=
200604270820 METAR ESMX 270820Z 14003KT 100V200 9999 SCT025 BKN035 08/04 Q1019=
200604270750 METAR ESMX 270750Z VRB02KT 9999 SCT025 BKN035 08/04 Q1019=
200604270720 METAR ESMX 270720Z 18003KT 150V220 9999 BKN025 08/05 Q1019=
200604270650 METAR ESMX 270650Z 15003KT 9999 OVC027 08/04 Q1019=
200604270620 METAR ESMX 270620Z VRB02KT 9999 FEW024 OVC028 07/05 Q1019=
200604270550 METAR ESMX 270550Z VRB02KT 9999 SCT021 OVC029 07/05 Q1020=
200604270520 METAR ESMX 270520Z VRB02KT 9999 OVC028 07/05 Q1019=
200604270450 METAR ESMX 270450Z 19002KT 9999 BKN026 07/05 Q1019=
200604270420 METAR ESMX 270420Z 00000KT 9999 BKN026 07/05 Q1019=
200604270350 METAR ESMX 270350Z VRB02KT 9999 BKN027 07/05 Q1019=
200604270320 METAR ESMX 270320Z VRB02KT 9999 BKN027 07/05 Q1019=
200604270120 METAR ESMX 270120Z AUTO VRB02KT 9999NDV R01/P1500N R19/P1500N OVC029/// 07/05 Q1019=
200604270050 METAR ESMX 270050Z AUTO 17002KT 9999NDV R01/P1500N R19/P1500N OVC030/// 07/06 Q1019 REDZ=
200604270020 METAR ESMX 270020Z AUTO 16002KT 9999NDV R01/P1500N R19/P1500N -DZ OVC030/// 08/05 Q1019 RERA=
200604262350 METAR ESMX 262350Z 15002KT 9999 OVC032 07/05 Q1019=
200604262320 METAR ESMX 262320Z 15002KT 9999 OVC032 08/05 Q1019 REDZ=
200604262250 METAR ESMX 262250Z 18003KT 9999 DZ OVC029 08/05 Q1020=
200604262220 METAR ESMX 262220Z 20003KT 9999 -RA OVC027 08/06 Q1019=
200604262150 METAR ESMX 262150Z 17003KT 9999 OVC031 09/05 Q1019=
200604262120 METAR ESMX 262120Z 15003KT 9999 OVC034 09/05 Q1019=
200604262020 METAR ESMX 262020Z 18002KT 9999 FEW025 SCT030 OVC034 09/06 Q1019=
200604261950 METAR ESMX 261950Z 21004KT 9999 FEW025 OVC036 09/06 Q1019=
200604261920 METAR ESMX 261920Z 18003KT 9999 FEW027 OVC032 09/05 Q1019=
200604261850 METAR ESMX 261850Z 18004KT 9999 FEW021 SCT025 BKN035 09/06 Q1019=
200604261820 METAR ESMX 261820Z 18004KT 9999 FEW023 BKN031 10/05 Q1019=
200604261750 METAR ESMX 261750Z 18005KT 9999 OVC029 10/05 Q1019=
200604261720 METAR ESMX 261720Z 18004KT 9999 OVC028 11/05 Q1019=
200604261650 METAR ESMX 261650Z 19006KT 9999 BKN026 11/05 Q1019=
200604261620 METAR ESMX 261620Z 18005KT 9999 FEW024 BKN028 11/04 Q1019=
200604261550 METAR ESMX 261550Z 18004KT 140V220 9999 R01/P1500D R19/P1500U FEW025 BKN030 11/04 Q1019=
200604261520 METAR ESMX 261520Z 17007KT 9999 BKN033 12/04 Q1019=
200604261450 METAR ESMX 261450Z 18008KT 9999 BKN036 12/04 Q1019=
200604261420 METAR ESMX 261420Z 19007KT 150V210 9999 FEW044 BKN061 13/04 Q1019=
200604261350 METAR ESMX 261350Z 18009KT 140V200 9999 SCT035 BKN050 13/04 Q1019=
200604261320 METAR ESMX 261320Z 16009KT 9999 FEW034 BKN042 13/03 Q1019=
200604261250 METAR ESMX 261250Z 18009KT 140V200 9999 BKN035 13/03 Q1019=
200604261220 METAR ESMX 261220Z 17008KT 120V200 9999 SCT033 BKN045 12/03 Q1020=
200604261150 METAR ESMX 261150Z 17007KT 9999 BKN035 12/04 Q1020=
200604261120 METAR ESMX 261120Z 16007KT 9999 OVC034 12/04 Q1020=
200604261050 METAR ESMX 261050Z 17006KT 9999 OVC034 11/04 Q1020=
200604261020 METAR ESMX 261020Z 16005KT 130V200 9999 OVC034 11/03 Q1020=
200604260950 METAR ESMX 260950Z 15004KT 110V210 9999 OVC033 11/04 Q1020=
200604260920 METAR ESMX 260920Z 17004KT 9999 BKN035 10/03 Q1020=
200604260850 METAR ESMX 260850Z 14004KT 110V190 9999 BKN035 10/03 Q1020=
200604260820 METAR ESMX 260820Z 13004KT 090V190 9999 SCT035 BKN040 10/03 Q1020=
200604260750 METAR ESMX 260750Z 17004KT 140V210 CAVOK 10/03 Q1020=
200604260720 METAR ESMX 260720Z 13006KT 100V200 CAVOK 09/02 Q1020=
200604260650 METAR ESMX 260650Z 15004KT 110V200 CAVOK 08/03 Q1020=
200604260620 METAR ESMX 260620Z 15006KT 120V190 CAVOK 07/03 Q1020=
200604260550 METAR ESMX 260550Z 16005KT CAVOK 06/03 Q1020=
200604260520 METAR ESMX 260520Z 16004KT 130V190 7000 BR SCT060 06/04 Q1020=
200604260450 METAR ESMX 260450Z 14003KT 100V180 8000 BR FEW110 05/04 Q1020=
200604260420 METAR ESMX 260420Z 14003KT 7000 BR BKN100 05/04 Q1020=
200604260350 METAR ESMX 260350Z 14003KT 6000 BR BKN110 05/04 Q1020=
200604260250 METAR ESMX 260250Z AUTO VRB02KT 2900NDV R01/P1500N R19/P1500N BR BKN070/// 05/04 Q1020=
200604260220 METAR ESMX 260220Z AUTO 18003KT 140V210 3600NDV R01/P1500N R19/P1500N -DZ BKN077/// 05/04 Q1020 RERA=
200604260150 METAR ESMX 260150Z AUTO VRB02KT 4400NDV R01/P1500N R19/P1500N BR BKN087/// 05/04 Q1020=
200604260120 METAR ESMX 260120Z AUTO VRB01KT 6000NDV R01/P1500N R19/P1500N BR BKN089/// 03/02 Q1020=
200604260050 METAR ESMX 260050Z 13002KT CAVOK 02/01 Q1019=
200604260020 METAR ESMX 260020Z 14004KT CAVOK 02/01 Q1020=
200604252350 METAR ESMX 252350Z 17003KT 6000 BR NSC 03/02 Q1020=
200604252320 METAR ESMX 252320Z VRB02KT 6000 BR NSC 02/02 Q1020=
200604252250 METAR ESMX 252250Z VRB02KT 9000 BR NSC 03/02 Q1020=
200604252220 METAR ESMX 252220Z 13002KT CAVOK 03/02 Q1020=
200604252150 METAR ESMX 252150Z 16003KT CAVOK 04/02 Q1020=
200604252120 METAR ESMX 252120Z 17005KT CAVOK 07/03 Q1019=
200604252050 METAR ESMX 252050Z 16004KT CAVOK 07/03 Q1019=
200604252020 METAR ESMX 252020Z 16004KT CAVOK 07/03 Q1019=
200604251950 METAR ESMX 251950Z 17007KT CAVOK 09/02 Q1019=
200604251920 METAR ESMX 251920Z 18005KT CAVOK 09/04 Q1019=
200604251850 METAR ESMX 251850Z 18007KT CAVOK 10/05 Q1019=
200604251820 METAR ESMX 251820Z 17006KT CAVOK 11/05 Q1019=
200604251750 METAR ESMX 251750Z 17008KT CAVOK 12/05 Q1019=
200604251720 METAR ESMX 251720Z 18005KT CAVOK 13/04 Q1018=
200604251650 METAR ESMX 251650Z 06003KT 020V100 CAVOK 14/03 Q1018=
200604251620 METAR ESMX 251620Z VRB02KT CAVOK 14/03 Q1018=
200604251550 METAR ESMX 251550Z VRB02KT CAVOK 14/03 Q1018=
200604251520 METAR ESMX 251520Z 06005KT 9999 FEW045 14/03 Q1018=
200604251450 METAR ESMX 251450Z 02005KT 9999 FEW046 14/03 Q1018=
200604251420 METAR ESMX 251420Z 20004KT 150V260 9999 FEW046 14/03 Q1018=
200604251350 METAR ESMX 251350Z 25003KT 140V310 9999 FEW046 14/02 Q1018=
200604251320 METAR ESMX 251320Z VRB02KT 9999 FEW040 13/03 Q1019=
200604251250 METAR ESMX 251250Z 24004KT 170V290 9999 FEW038 12/03 Q1019=
200604251220 METAR ESMX 251220Z 28005KT 130V290 9999 FEW035 13/03 Q1019=
200604251150 METAR ESMX 251150Z 21006KT 160V280 9999 FEW035 12/03 Q1019=
200604251120 METAR ESMX 251120Z 30004KT 270V330 9999 FEW026 12/04 Q1019=
200604251050 METAR ESMX 251050Z 21004KT 160V290 9999 FEW030 11/03 Q1019=
200604251020 METAR ESMX 251020Z 25005KT 190V290 9999 SCT024 11/04 Q1019=
200604250950 METAR ESMX 250950Z 23006KT 200V320 9999 FEW020 BKN023 09/04 Q1020=
200604250920 METAR ESMX 250920Z 33003KT 280V360 9999 BKN018 09/03 Q1020=
200604250850 METAR ESMX 250850Z 22003KT 160V300 9999 FEW017 BKN020 09/04 Q1020=
200604250820 METAR ESMX 250820Z 30006KT 260V340 9999 FEW013 BKN020 07/04 Q1019=
200604250750 METAR ESMX 250750Z 27006KT 240V320 9999 FEW013 BKN018 07/04 Q1019=
200604250720 METAR ESMX 250720Z 27005KT 9999 BKN011 08/04 Q1019=
200604250650 METAR ESMX 250650Z 24004KT 200V270 9999 FEW011 BKN016 07/05 Q1019=
200604250620 METAR ESMX 250620Z 25004KT 220V300 9999 FEW009 BKN015 06/04 Q1019=
200604250550 METAR ESMX 250550Z 25003KT 210V290 9999 FEW009 BKN015 06/04 Q1019=
200604250520 METAR ESMX 250520Z VRB02KT 9999 BKN010 05/04 Q1019=
200604250450 METAR ESMX 250450Z 27002KT 9999 OVC009 05/04 Q1019=
200604250420 METAR ESMX 250420Z 28003KT 9999 OVC008 05/03 Q1019=
200604250350 METAR ESMX 250350Z 25004KT 9999 FEW005 OVC008 04/03 Q1019=
200604250320 METAR ESMX 250320Z AUTO 25003KT 9999NDV R01/P1500N R19/P1500N OVC006/// 04/03 Q1018=
200604250250 METAR ESMX 250250Z AUTO 24003KT 200V290 9999NDV R01/P1500N R19/P1500N OVC005/// 04/03 Q1018=
200604250220 METAR ESMX 250220Z AUTO 24004KT 9000NDV R01/P1500N R19/P1500N OVC006/// 04/03 Q1018=
200604250150 METAR ESMX 250150Z AUTO 26004KT 9999NDV R01/P1500N R19/P1500N OVC006/// 04/03 Q1018=
200604250120 METAR ESMX 250120Z AUTO 25005KT 9999NDV R01/P1500N R19/P1500N BKN007/// OVC009/// 04/03 Q1018=
200604250050 METAR ESMX 250050Z AUTO 24002KT 9999NDV R01/P1500N R19/P1500N OVC010/// 03/03 Q1018=
200604250020 METAR ESMX 250020Z 26002KT 9999 SCT013 03/02 Q1018=
200604242350 METAR ESMX 242350Z 27003KT 9999 FEW016 03/02 Q1018=
200604242320 METAR ESMX 242320Z 26003KT CAVOK 03/02 Q1018=
200604242250 METAR ESMX 242250Z 26003KT 9999 FEW014 04/02 Q1018=
200604242220 METAR ESMX 242220Z 25003KT 9999 SCT013 05/03 Q1018=
200604242150 METAR ESMX 242150Z 27003KT 9999 SCT012 06/03 Q1018=
200604242120 METAR ESMX 242120Z 27004KT 9999 SCT023 06/03 Q1018=
200604242050 METAR ESMX 242050Z 00000KT 9999 SCT020 BKN051 07/05 Q1018=
200604242020 METAR ESMX 242020Z VRB02KT 9999 BKN047 08/06 Q1018=
200604241950 METAR ESMX 241950Z 30003KT 9999 FEW032 SCT036 BKN052 09/06 Q1018=
200604241920 METAR ESMX 241920Z 31004KT 9999 SCT027 BKN042 10/06 Q1018=
200604241850 METAR ESMX 241850Z 30004KT 9999 FEW027 SCT032 BKN037 11/06 Q1018=
200604241820 METAR ESMX 241820Z 26003KT 9999 BKN031 11/06 Q1017=
200604241750 METAR ESMX 241750Z 26002KT 9999 SCT029 OVC037 11/06 Q1017=
200604241720 METAR ESMX 241720Z VRB02KT 9999 BKN037 12/06 Q1017=
200604241650 METAR ESMX 241650Z VRB01KT 9999 SCT035 BKN050 12/06 Q1017=
200604241620 METAR ESMX 241620Z VRB02KT 9999 FEW033 SCT044 BKN055 11/06 Q1017=
200604241550 METAR ESMX 241550Z 36003KT 320V020 9999 BKN035 11/06 Q1017=
200604241520 METAR ESMX 241520Z 02003KT 9999 SCT035 BKN200 12/06 Q1017=
200604241450 METAR ESMX 241450Z 05005KT 9999 SCT045 BKN200 12/06 Q1017=
200604241420 METAR ESMX 241420Z 04006KT 010V070 9999 SCT035 BKN200 13/06 Q1017=
200604241350 METAR ESMX 241350Z 04006KT 010V080 9999 SCT040 BKN200 12/06 Q1017=
200604241320 METAR ESMX 241320Z 03006KT 010V080 9999 SCT040 BKN200 12/05 Q1018=
200604241250 METAR ESMX 241250Z 35005KT 320V020 9999 BKN040 11/05 Q1018=
200604241220 METAR ESMX 241220Z 35006KT 9999 FEW041 11/06 Q1018=
200604241150 METAR ESMX 241150Z 03005KT 360V070 CAVOK 11/05 Q1018=
200604241120 METAR ESMX 241120Z 05005KT 010V150 CAVOK 10/05 Q1018=
200604241050 METAR ESMX 241050Z 06005KT 010V100 9999 BKN014 09/04 Q1018=
200604241020 METAR ESMX 241020Z 08004KT 030V110 9999 BKN010 08/04 Q1018=
200604240950 METAR ESMX 240950Z 05004KT 020V080 9999 FEW012 BKN060 08/03 Q1018=
200604240920 METAR ESMX 240920Z 07003KT 030V110 9999 SCT040 BKN065 08/03 Q1018=
200604240850 METAR ESMX 240850Z 02004KT 350V050 9999 BKN042 08/02 Q1018=
200604240820 METAR ESMX 240820Z 01003KT 340V050 9999 OVC041 07/02 Q1018=
200604240750 METAR ESMX 240750Z VRB02KT 9999 BKN041 07/02 Q1018=
200604240720 METAR ESMX 240720Z 06004KT 340V100 9999 SCT041 07/01 Q1018=
200604240650 METAR ESMX 240650Z 01004KT 9999 SCT042 06/01 Q1018=
200604240620 METAR ESMX 240620Z 02003KT 340V060 CAVOK 06/01 Q1018=
200604240550 METAR ESMX 240550Z 02003KT 330V060 CAVOK 06/01 Q1018=
200604240520 METAR ESMX 240520Z 06004KT 010V140 9999 FEW045 05/01 Q1017=
200604240450 METAR ESMX 240450Z 02003KT CAVOK 05/01 Q1017=
200604240420 METAR ESMX 240420Z 03003KT 360V060 CAVOK 05/00 Q1017=
200604240350 METAR ESMX 240350Z 03003KT 9999 SCT042 OVC050 05/00 Q1017=
200604240120 METAR ESMX 240120Z AUTO 01003KT 9999NDV R01/P1500N R19/P1500N OVC049/// 04/M00 Q1018=
200604240050 METAR ESMX 240050Z AUTO VRB02KT 9999NDV R01/P1500N R19/P1500N BKN055/// BKN082/// 04/M00 Q1018=
200604240020 METAR ESMX 240020Z 04002KT 9999 BKN060 04/M01 Q1018=
200604232350 METAR ESMX 232350Z VRB02KT 9999 FEW045 OVC060 05/M01 Q1018=
200604232320 METAR ESMX 232320Z 03002KT CAVOK 05/M01 Q1018=
200604232250 METAR ESMX 232250Z 09003KT 050V130 9999 FEW035 BKN055 05/M02 Q1018=
200604232220 METAR ESMX 232220Z 10003KT 060V140 CAVOK 05/M02 Q1018=
200604232150 METAR ESMX 232150Z 13003KT 080V170 CAVOK 06/M02 Q1018=
200604232120 METAR ESMX 232120Z VRB02KT 9999 -RA OVC055 06/M01 Q1018=
200604232050 METAR ESMX 232050Z VRB02KT 9999 -RA OVC053 06/01 Q1018=
200604232020 METAR ESMX 232020Z VRB01KT 9999 -RA BKN052 05/02 Q1018=
200604231950 METAR ESMX 231950Z 13004KT 100V160 9999 -RA BKN055 07/M00 Q1018=
200604231920 METAR ESMX 231920Z 13004KT 080V190 9999 -RA OVC055 08/M01 Q1018=
200604231850 METAR ESMX 231850Z 12004KT 070V160 CAVOK 09/M03 Q1017=
200604231820 METAR ESMX 231820Z 13004KT 100V160 CAVOK 09/M03 Q1017=
200604231750 METAR ESMX 231750Z 13005KT 080V170 CAVOK 10/M03 Q1017=
200604231720 METAR ESMX 231720Z 14006KT 100V170 CAVOK 10/M03 Q1017=
200604231650 METAR ESMX 231650Z 13007KT 080V180 CAVOK 11/M02 Q1017=
200604231620 METAR ESMX 231620Z 13006KT 090V190 CAVOK 11/M02 Q1017=
200604231550 METAR ESMX 231550Z 14007KT 080V190 CAVOK 11/M02 Q1017=
200604231520 METAR ESMX 231520Z 15009KT 110V200 CAVOK 12/M01 Q1016=
200604231450 METAR ESMX 231450Z 17010KT 140V200 CAVOK 12/M01 Q1016=
200604231420 METAR ESMX 231420Z 15009KT 110V190 CAVOK 13/M01 Q1016=
200604231350 METAR ESMX 231350Z 16010KT 120V190 CAVOK 13/00 Q1017=
200604231320 METAR ESMX 231320Z 14009KT 090V170 CAVOK 13/00 Q1017=
200604231250 METAR ESMX 231250Z 16009KT 120V200 CAVOK 13/01 Q1017=
200604231220 METAR ESMX 231220Z 17012KT CAVOK 13/02 Q1017=
200604231150 METAR ESMX 231150Z 14010KT 110V180 CAVOK 13/02 Q1017=
200604212050 METAR ESMX 212050Z AUTO 17002KT 9999NDV R01/P1500N R19/P1500N NCD 03/00 Q1021=
200604212020 METAR ESMX 212020Z AUTO 17003KT 9999NDV R01/P1500N R19/P1500N NCD 04/01 Q1021=
200604211950 METAR ESMX 211950Z AUTO 18004KT 9999NDV R01/P1500N R19/P1500N NCD 06/01 Q1021=
200604211920 METAR ESMX 211920Z AUTO 18004KT 9999NDV R01/P1500N R19/P1500N BKN068/// 06/01 Q1021=
200604211850 METAR ESMX 211850Z AUTO 17004KT 9999NDV R01/P1500D R19/P1500N BKN071/// 06/M01 Q1020=
200604211820 METAR ESMX 211820Z AUTO 17002KT 9999NDV R01/P1500N R19/P1500N NCD 06/01 Q1020=
200604211750 METAR ESMX 211750Z 00000KT 9999 FEW040 BKN100 08/00 Q1020=
200604211720 METAR ESMX 211720Z 00000KT 9999 FEW025 BKN100 10/M03 Q1020=
200604211650 METAR ESMX 211650Z VRB01KT 9999 FEW025 BKN100 11/M08 Q1020=
200604211620 METAR ESMX 211620Z 01003KT 9999 FEW025 BKN100 11/M07 Q1020=
200604211550 METAR ESMX 211550Z VRB02KT 9999 FEW025 BKN100 11/M09 Q1020=
200604211520 METAR ESMX 211520Z 00000KT 9999 FEW025 BKN100 12/M09 Q1020=
200604211450 METAR ESMX 211450Z VRB02KT 9999 FEW025 BKN100 12/M09 Q1020=
200604211420 METAR ESMX 211420Z VRB02KT 9999 FEW025 BKN100 12/M09 Q1020=
200604211350 METAR ESMX 211350Z 02004KT 350V080 9999 FEW025 BKN100 11/M08 Q1020=
200604211320 METAR ESMX 211320Z 03005KT 330V070 9999 FEW025 BKN200 11/M05 Q1020=
200604211250 METAR ESMX 211250Z 03006KT 340V080 9999 FEW030 BKN200 11/M05 Q1020=
200604211220 METAR ESMX 211220Z VRB04KT CAVOK 12/M04 Q1020=
200604211150 METAR ESMX 211150Z 02004KT 350V110 CAVOK 11/M03 Q1020=
200604211120 METAR ESMX 211120Z 36004KT 9999 FEW048 BKN200 11/M03 Q1020=
200604211050 METAR ESMX 211050Z 36004KT 9999 FEW040 BKN200 11/M04 Q1020=
200604211020 METAR ESMX 211020Z VRB05KT 9999 FEW040 BKN200 10/M04 Q1020=
200604210950 METAR ESMX 210950Z VRB01KT 9999 FEW020 09/M03 Q1020=
200604210920 METAR ESMX 210920Z 36003KT 9999 FEW015 08/M01 Q1021=
200604210850 METAR ESMX 210850Z 02004KT 9999 FEW005 07/01 Q1021=
200604210820 METAR ESMX 210820Z 02003KT CAVOK 05/02 Q1021=
200604210750 METAR ESMX 210750Z 01003KT 9999 FEW003 03/03 Q1021=
200604210720 METAR ESMX 210720Z 35003KT 1200 R01/P1500U R19/P1500D BCFG BKN002 02/02 Q1020=
200604210650 METAR ESMX 210650Z VRB02KT 0300 R01/0450V0750U R19/0325N FG VV002 01/01 Q1020=
200604210620 METAR ESMX 210620Z VRB01KT 0450 R01/0500D R19/0550D FG VV002 00/M00 Q1020=
200604210550 METAR ESMX 210550Z 00000KT 0250 R01/0400V0600N R19/0375V0600U FZFG VV002 M00/M00 Q1020=
200604210520 METAR ESMX 210520Z 00000KT 0200 R01/0400N R19/0375N FZFG VV002 M00/M01 Q1019=
200604210450 METAR ESMX 210450Z 00000KT 0200 R01/0450V0550N R19/0350N FZFG VV001 M00/M00 Q1019=
200604210420 METAR ESMX 210420Z VRB02KT 0100 R01/0250N R19/0350N FZFG VV000 M00/M00 Q1019=
200604210350 METAR ESMX 210350Z 33003KT 0100 R01/0400N R19/0325N FZFG VV000 M00/M00 Q1019=
200604210320 METAR ESMX 210320Z AUTO 33002KT 0100NDV R01/0500N R19/0550D FG VV000 M01/M01 Q1018=
200604210250 METAR ESMX 210250Z AUTO 00000KT 0700NDV R01/P1500N R19/P1500D BCFG FEW001/// M02/M03 Q1018=
200604210220 METAR ESMX 210220Z AUTO VRB01KT 0500NDV R01/P1500U R19/P1500U FG NCD M02/M02 Q1018=
200604210150 METAR ESMX 210150Z AUTO 15001KT 2500NDV R01/P1500N R19/P1500N BR NCD M02/M02 Q1018=
200604210120 METAR ESMX 210120Z AUTO VRB02KT 3000NDV R01/P1500N R19/P1500N BR NCD M02/M03 Q1018=
200604210050 METAR ESMX 210050Z AUTO 00000KT 4500NDV R01/P1500N R19/P1500N BR NCD M02/M02 Q1018=
200604210020 METAR ESMX 210020Z 26005KT CAVOK M01/M01 Q1018=
200604202350 METAR ESMX 202350Z VRB02KT CAVOK 00/M00 Q1017=
200604202320 METAR ESMX 202320Z 27003KT 220V310 CAVOK 01/01 Q1017=
200604202250 METAR ESMX 202250Z 25003KT CAVOK 02/01 Q1017=
200604202220 METAR ESMX 202220Z VRB02KT CAVOK 02/01 Q1017=
200604202150 METAR ESMX 202150Z 26005KT CAVOK 01/00 Q1016=
200604202120 METAR ESMX 202120Z 00000KT CAVOK 01/00 Q1016=
200604202050 METAR ESMX 202050Z 25004KT CAVOK 02/01 Q1016=
200604202020 METAR ESMX 202020Z VRB02KT CAVOK 03/01 Q1016=
200604201950 METAR ESMX 201950Z 25004KT CAVOK 04/01 Q1016=
200604201920 METAR ESMX 201920Z 26005KT 220V290 CAVOK 05/01 Q1015=
200604201850 METAR ESMX 201850Z 25003KT 220V280 CAVOK 05/01 Q1015=
200604201820 METAR ESMX 201820Z 28004KT 250V320 CAVOK 06/01 Q1014=
200604201750 METAR ESMX 201750Z 29008KT 240V320 CAVOK 07/01 Q1014=
200604201720 METAR ESMX 201720Z 28007KT 240V300 9999 FEW040 08/01 Q1014=
200604201650 METAR ESMX 201650Z 25004KT 220V280 9999 FEW035 08/02 Q1013=
200604201620 METAR ESMX 201620Z 26007KT 220V300 9999 FEW032 08/02 Q1013=
200604201550 METAR ESMX 201550Z 28011KT 230V350 9999 FEW031 09/02 Q1013=
200604201520 METAR ESMX 201520Z 27008KT 210V300 9999 SCT033 07/02 Q1013=
200604201450 METAR ESMX 201450Z 28009KT 250V340 9999 SCT024 08/02 Q1013=
200604201420 METAR ESMX 201420Z 27008KT 250V310 9999 BKN023 07/02 Q1012=
200604201350 METAR ESMX 201350Z 29009KT 9999 BKN022 07/02 Q1012=
200604201320 METAR ESMX 201320Z 29011KT 250V320 9999 BKN018 06/02 Q1012=
200604201250 METAR ESMX 201250Z 29011KT 250V320 9999 FEW017 BKN020 06/02 Q1012=
200604201220 METAR ESMX 201220Z 30010KT 9999 FEW015 BKN025 07/03 Q1011=
200604201150 METAR ESMX 201150Z 28008KT 240V330 9999 SHRA FEW012 SCT016CB BKN040 08/06 Q1010=
200604201120 METAR ESMX 201120Z 25009KT 210V280 9999 -SHRA FEW014 SCT018CB BKN020 06/05 Q1010=
200604201050 METAR ESMX 201050Z 26009KT 200V300 9999 SCT014 BKN018 08/05 Q1009=
200604201020 METAR ESMX 201020Z 24010KT 9999 FEW010 SCT014 BKN020 07/05 Q1009=
200604200950 METAR ESMX 200950Z 23008KT 200V270 9999 -RA BKN010 OVC015 06/04 Q1009=
200604200920 METAR ESMX 200920Z 23009KT 200V270 9999 FEW008 BKN010 05/04 Q1009=
200604200850 METAR ESMX 200850Z 23010KT 9999 FEW007 BKN010 05/04 Q1008=
200604200820 METAR ESMX 200820Z 21010KT 9999 -RA FEW009 BKN011 05/04 Q1008=
200604200750 METAR ESMX 200750Z 22008KT 9999 FEW014 SCT017 OVC025 05/03 Q1008=
200604200720 METAR ESMX 200720Z 21009KT 170V250 9999 FEW013 SCT020 BKN027 05/03 Q1008=
200604200650 METAR ESMX 200650Z 20010KT 9999 SCT014 BKN025 05/03 Q1007=
200604200620 METAR ESMX 200620Z 24011KT 200V260 9999 SCT010 BKN024 06/04 Q1007=
200604200550 METAR ESMX 200550Z 23009KT 9999 SCT014 BKN027 06/04 Q1007=
200604200520 METAR ESMX 200520Z 22008KT 9999 FEW010 BKN020 BKN038 06/05 Q1007=
200604200450 METAR ESMX 200450Z 22007KT 170V240 9999 SCT011 BKN025 06/05 Q1007=
200604200420 METAR ESMX 200420Z 25010KT 220V280 9999 SCT006 BKN012 06/05 Q1006 RERA=
200604200350 METAR ESMX 200350Z 20009KT 4000 -RA SCT003 BKN006 06/06 Q1006=
200604192350 METAR ESMX 192350Z 16009KT 6000 -RA SCT007 BKN030 04/03 Q1008=
200604192320 METAR ESMX 192320Z 16008KT 130V190 7000 -RA FEW015 BKN033 04/03 Q1009 RERA=
200604192250 METAR ESMX 192250Z 16006KT 140V200 3000 RA FEW022 BKN025 04/03 Q1009=
200604192220 METAR ESMX 192220Z 14005KT 8000 -SHRA FEW015 BKN025 04/03 Q1010=
200604192150 METAR ESMX 192150Z 14006KT 110V170 6000 R01/P1500N R19/P1500N -SHRA FEW017 BKN027 04/02 Q1010=
200604192120 METAR ESMX 192120Z 16008KT CAVOK 06/02 Q1010=
200604192020 METAR ESMX 192020Z 17007KT 120V190 CAVOK 07/02 Q1011=
200604191950 METAR ESMX 191950Z 18006KT CAVOK 07/01 Q1011=
200604191920 METAR ESMX 191920Z 16007KT CAVOK 07/00 Q1011=
200604191850 METAR ESMX 191850Z 14004KT CAVOK 07/00 Q1011=
200604191820 METAR ESMX 191820Z 14002KT CAVOK 06/02 Q1011=
200604191750 METAR ESMX 191750Z 17002KT CAVOK 07/01 Q1011=
200604191720 METAR ESMX 191720Z 23002KT 9999 FEW050 SCT100 08/M01 Q1012=
200604191650 METAR ESMX 191650Z 22005KT 170V260 9999 FEW047 SCT100 09/M00 Q1012=
200604191620 METAR ESMX 191620Z 25006KT 210V290 9999 FEW045 09/M01 Q1012=
200604191550 METAR ESMX 191550Z 24008KT 200V270 9999 FEW043 10/M01 Q1012=
200604191520 METAR ESMX 191520Z 22009KT 160V260 9999 FEW043 10/00 Q1012=
200604191450 METAR ESMX 191450Z 21009KT 160V250 9999 FEW040 10/01 Q1012=
200604191420 METAR ESMX 191420Z 23009KT 200V280 9999 SCT040 09/01 Q1012=
200604191350 METAR ESMX 191350Z 27010KT 230V300 9999 FEW036 BKN048 09/01 Q1012=
200604191320 METAR ESMX 191320Z 24009KT 200V280 9999 FEW035 BKN045 09/00 Q1012=
200604191250 METAR ESMX 191250Z 24011KT 190V260 9999 FEW035 BKN045 10/02 Q1012=
200604191220 METAR ESMX 191220Z 24011KT 9999 BKN045 09/02 Q1012=
200604191150 METAR ESMX 191150Z 24010KT 9999 BKN039 09/01 Q1012=
200604191120 METAR ESMX 191120Z 24011KT 200V290 9999 BKN041 08/01 Q1011=
200604191050 METAR ESMX 191050Z 24012KT 210V280 9999 SCT025 BKN040 08/01 Q1011=
200604191020 METAR ESMX 191020Z 25010KT 210V280 9999 FEW015 SCT025CB 06/03 Q1011=
200604190950 METAR ESMX 190950Z 24011KT 200V280 9999 FEW020 BKN025 08/03 Q1011=
200604190920 METAR ESMX 190920Z 24007KT 210V280 9999 SCT018 BKN037 07/04 Q1011=
200604190850 METAR ESMX 190850Z 25011KT 230V290 9999 -SHRA FEW010 SCT019 BKN041 06/02 Q1010=
200604190820 METAR ESMX 190820Z 25009KT 210V270 9999 FEW014 SCT019 BKN023 06/03 Q1010=
200604190750 METAR ESMX 190750Z 23009KT 9999 -SHRA BKN012 05/03 Q1010=
200604190720 METAR ESMX 190720Z 23008KT 190V260 9999 SCT013 BKN016 05/03 Q1010=
200604190650 METAR ESMX 190650Z 24009KT 210V270 9999 -RA BKN013 05/03 Q1009=
200604190620 METAR ESMX 190620Z 24007KT 9999 -RA FEW008 SCT015 BKN018 04/02 Q1009=
200604190550 METAR ESMX 190550Z 21008KT 180V240 9999 VCSH FEW011 SCT015 BKN021 04/02 Q1009=
200604190520 METAR ESMX 190520Z 23008KT 9999 BKN012 04/02 Q1008=
200604190450 METAR ESMX 190450Z 23008KT 200V280 9999 BKN011 04/02 Q1008=
200604190420 METAR ESMX 190420Z 22007KT 9999 FEW010 SCT013 BKN016 03/02 Q1008=
200604190350 METAR ESMX 190350Z 21007KT 9999 FEW011 BKN015 03/02 Q1008=
200604190320 METAR ESMX 190320Z AUTO 23008KT 9999NDV R01/P1500N R19/P1500N FEW022/// SCT032/// BKN039/// 03/02 Q1007=
200604190250 METAR ESMX 190250Z AUTO 23009KT 210V270 9999NDV R01/P1500N R19/P1500N FEW035/// BKN045/// 03/02 Q1007=
200604190220 METAR ESMX 190220Z AUTO 23010KT 9999NDV R01/P1500N R19/P1500N SCT043/// 03/02 Q1007=
200604190150 METAR ESMX 190150Z AUTO 22008KT 9999NDV R01/P1500N R19/P1500N SCT037/// BKN043/// 03/01 Q1007=
200604190120 METAR ESMX 190120Z AUTO 22007KT 9999NDV R01/P1500N R19/P1500N BKN033/// 03/01 Q1007=
200604190050 METAR ESMX 190050Z AUTO 23007KT 9999NDV R01/P1500N R19/P1500N BKN039/// 03/01 Q1007=
200604190020 METAR ESMX 190020Z 23006KT 9999 OVC036 03/01 Q1007=
200604182350 METAR ESMX 182350Z 23008KT 190V260 9999 BKN036 03/01 Q1007=
200604182220 METAR ESMX 182220Z 20007KT 9999 FEW030 BKN045 02/01 Q1006=
200604182150 METAR ESMX 182150Z 20007KT 9999 FEW030 BKN043 03/01 Q1006=
200604182120 METAR ESMX 182120Z 22007KT 190V250 9999 SCT040 03/01 Q1006=
200604182050 METAR ESMX 182050Z 21007KT 9999 FEW035 03/01 Q1006=
200604182020 METAR ESMX 182020Z 23008KT 9999 FEW030 03/01 Q1006=
200604181950 METAR ESMX 181950Z 21008KT 9999 FEW030 04/01 Q1006=
200604181920 METAR ESMX 181920Z 21007KT 9999 FEW030 04/01 Q1005=
200604181850 METAR ESMX 181850Z 23008KT 9999 FEW030 05/02 Q1005=
200604181820 METAR ESMX 181820Z 21008KT 9999 FEW025 05/01 Q1005=
200604181750 METAR ESMX 181750Z 22009KT 170V240 9999 FEW025 06/02 Q1005=
200604181720 METAR ESMX 181720Z 23010KT 210V270 9999 FEW028 06/02 Q1005=
200604181650 METAR ESMX 181650Z 24011KT 210V280 9999 FEW033 SCT038 07/01 Q1004=
200604181620 METAR ESMX 181620Z 23010KT 200V260 9999 SCT033 08/01 Q1004=
200604181550 METAR ESMX 181550Z 27009KT 220V300 9999 FEW030 SCT045 09/01 Q1004=
200604181520 METAR ESMX 181520Z 25008KT 200V300 9999 -SHRA FEW039CB SCT039 08/02 Q1004=
200604181450 METAR ESMX 181450Z 27012KT 230V290 9999 SCT035 09/01 Q1004=
200604181420 METAR ESMX 181420Z 25013KT 220V290 9999 FEW040 09/01 Q1003=
200604181350 METAR ESMX 181350Z 25013KT 210V290 9999 SCT025 10/02 Q1003=
200604181320 METAR ESMX 181320Z 23014KT 200V280 9999 SCT035 08/02 Q1003=
200604181250 METAR ESMX 181250Z 26010KT 230V290 9999 FEW019 SCT032 08/04 Q1003=
200604181220 METAR ESMX 181220Z 28011KT 240V300 9999 FEW030CB SCT040 BKN060 08/02 Q1003=
200604181150 METAR ESMX 181150Z 25015KT 220V280 9999 FEW024 SCT030 BKN045 10/03 Q1003=
200604181120 METAR ESMX 181120Z 25011KT 200V280 9999 -SHRA FEW022CB SCT074 08/03 Q1003=
200604181050 METAR ESMX 181050Z 24012G23KT 200V290 9999 FEW008 BKN020 09/03 Q1003=
200604181020 METAR ESMX 181020Z 23014KT 210V280 9999 -SHRA SCT018 BKN027 09/04 Q1003=
200604180950 METAR ESMX 180950Z 21013KT 180V250 9999 FEW017 SCT021 BKN027 07/04 Q1003=
200604180920 METAR ESMX 180920Z 24011KT 9999 FEW018 SCT023 BKN028 07/04 Q1003=
200604180850 METAR ESMX 180850Z 24013KT 210V290 9999 FEW015 BKN022 07/03 Q1002=
200604180820 METAR ESMX 180820Z 21013KT 190V250 9999 FEW014 SCT017 BKN020 07/04 Q1002=
200604180720 METAR ESMX 180720Z 23011KT 200V260 9999 FEW013 SCT017 BKN020 06/03 Q1002=
200604180650 METAR ESMX 180650Z 24010KT 170V260 9999 FEW010 BKN013 05/03 Q1002=
200604180620 METAR ESMX 180620Z 22010KT 9999 FEW008 BKN010 05/03 Q1002=
200604180550 METAR ESMX 180550Z 22010KT 190V250 9999 BKN008 04/03 Q1001=
200604180520 METAR ESMX 180520Z 23010KT 9999 BKN008 OVC012 04/03 Q1001=
200604180450 METAR ESMX 180450Z 23010KT 9999 BKN009 BKN015 04/02 Q1001=
200604180420 METAR ESMX 180420Z 23010KT 9999 FEW008 BKN010 03/02 Q1001=
200604180350 METAR ESMX 180350Z 20010KT 170V240 9999 SCT007 BKN010 03/02 Q1001=
200604180320 METAR ESMX 180320Z AUTO 22008KT 9999NDV R01/1500N R19/1500N SCT008/// OVC010/// 03/02 Q1001=
200604180250 METAR ESMX 180250Z AUTO 20009KT 9999NDV R01/1500N R19/1500N FEW008/// BKN011/// OVC033/// 03/02 Q1001=
200604180220 METAR ESMX 180220Z AUTO 20009KT 9999NDV R01/1500N R19/1500N FEW010/// SCT013/// BKN016/// 03/02 Q1001=
200604180150 METAR ESMX 180150Z AUTO 20010KT 9999NDV R01/1500N R19/1500N FEW009/// OVC023/// 03/02 Q1001=
200604180120 METAR ESMX 180120Z AUTO 22009KT 9999NDV R01/1500N R19/1500N BKN020/// 03/02 Q1001=
200604180050 METAR ESMX 180050Z AUTO 23009KT 9999NDV R01/1500N R19/1500N FEW023/// 03/02 Q1001=
200604180020 METAR ESMX 180020Z 21008KT 9999 FEW025 03/02 Q1001=
200604172350 METAR ESMX 172350Z 23009KT 9999 R01/1500N R19/1500N FEW007 03/02 Q1001=
200604172320 METAR ESMX 172320Z 23009KT 200V260 9999 FEW007 SCT011 03/02 Q1001=
200604172250 METAR ESMX 172250Z 23008KT 9999 SCT010 03/02 Q1001=
200604172220 METAR ESMX 172220Z 23008KT 9999 NSC 03/02 Q1001=
200604172150 METAR ESMX 172150Z 23009KT 200V260 9999 FEW006 BKN013 04/03 Q1001=
200604172120 METAR ESMX 172120Z 22007KT 9999 FEW006 BKN007 BKN010 03/03 Q1001=
200604172050 METAR ESMX 172050Z 21007KT 9999 SCT006 BKN009 BKN012 04/03 Q1001=
200604172020 METAR ESMX 172020Z 23008KT 200V260 9999 FEW008 SCT009 BKN011 04/03 Q1001=
200604171950 METAR ESMX 171950Z 22008KT 9999 FEW007 SCT009 BKN010 04/03 Q1001=
200604171920 METAR ESMX 171920Z 21009KT 9999 BKN010 04/03 Q1000=
200604171850 METAR ESMX 171850Z 20007KT 9999 FEW012 SCT035 04/03 Q1000=
200604171820 METAR ESMX 171820Z 21008KT 9999 SCT012 BKN060 04/03 Q1000 RERA=
200604171750 METAR ESMX 171750Z 25008KT 220V290 9999 SCT019 BKN072 05/03 Q1000=
200604171720 METAR ESMX 171720Z 26011G22KT 220V300 9999 -RA FEW013 SCT017 BKN020 05/04 Q1000 REDZ=
200604171650 METAR ESMX 171650Z 20012KT 9999 -SHRA FEW019 SCT025 BKN033 07/05 Q0999=
200604171550 METAR ESMX 171550Z 24004KT 210V280 9999 FEW022 BKN026 BKN043 07/04 Q1000=
200604171520 METAR ESMX 171520Z 27006KT 230V290 9999 FEW017 SCT023 BKN028 07/04 Q1000=
200604171420 METAR ESMX 171420Z 23012KT 200V260 8000 -SHRA FEW014 SCT036 BKN052 08/03 Q1000=
200604171350 METAR ESMX 171350Z 23014KT 200V260 9999 FEW026 SCT044 09/04 Q1000=
200604171320 METAR ESMX 171320Z 24012KT 9999 SCT025 09/05 Q1001=
200604171250 METAR ESMX 171250Z 23010KT 9999 FEW020 SCT037 BKN051 08/04 Q1001=
200604171220 METAR ESMX 171220Z 22010KT 190V270 9999 FEW014 SCT016 BKN019 07/05 Q1001=
200604171150 METAR ESMX 171150Z AUTO 19013KT 7000NDV R01/1500U R19/1500D FEW018/// SCT021/// BKN025/// 07/04 Q1001 RERA REDZ=
200604171120 METAR ESMX 171120Z AUTO 20012KT 9999NDV R01/1500D R19/1500D FEW019/// BKN022/// BKN033/// 09/04 Q1001=
200604171050 METAR ESMX 171050Z AUTO 20014KT 170V240 9999NDV R01/1500D R19/1500U FEW025/// SCT030/// BKN036/// 09/03 Q1002=
200604171020 METAR ESMX 171020Z AUTO 22013KT 190V250 9999NDV R01/1500D R19/1500U FEW028/// BKN035/// BKN062/// 08/02 Q1002=
200604170950 METAR ESMX 170950Z AUTO 21015KT 190V250 9999NDV R01/1500U R19/1500U FEW022/// SCT037/// BKN042/// 08/01 Q1002=
200604170920 METAR ESMX 170920Z AUTO 23011KT 9999NDV R01/1500D R19/1500D FEW033/// SCT038/// BKN044/// 09/01 Q1002=
200604170850 METAR ESMX 170850Z AUTO 25010KT 210V280 9999NDV R01/1500U R19/1500D FEW028/// 08/01 Q1002=
200604170820 METAR ESMX 170820Z AUTO 23010KT 200V260 9999NDV R01/1500D R19/1500D FEW024/// 08/02 Q1002=
200604170750 METAR ESMX 170750Z AUTO 23009KT 190V280 9999NDV R01/1500D R19/1500U SCT020/// 06/02 Q1002=
200604170720 METAR ESMX 170720Z AUTO 25011KT 9999NDV R01/1500D R19/1500U FEW017/// SCT020/// 06/02 Q1002=
200604170650 METAR ESMX 170650Z AUTO 25010KT 9999NDV R01/1500U R19/1500U FEW015/// SCT018/// 05/02 Q1002=
200604170620 METAR ESMX 170620Z AUTO 24007KT 210V300 9999NDV R01/1500D R19/1500D BKN014/// BKN110/// 04/02 Q1002=
200604170550 METAR ESMX 170550Z AUTO 25008KT 220V280 9999NDV R01/1500U R19/1500D FEW016/// BKN018/// 04/02 Q1002=
200604170520 METAR ESMX 170520Z AUTO 23006KT 9999NDV R01/1500U R19/1500U SCT011/// 04/02 Q1002=
200604170450 METAR ESMX 170450Z AUTO 26006KT 230V290 9999NDV R01/1500D R19/1500D FEW012/// BKN020/// 04/02 Q1002=
200604170420 METAR ESMX 170420Z AUTO 26007KT 230V290 9999NDV R01/1500U R19/1500U FEW014/// BKN020/// 04/02 Q1001=
200604170350 METAR ESMX 170350Z AUTO 27008KT 230V300 9999NDV R01/1500D R19/1500U FEW013/// BKN016/// 05/02 Q1001=
200604170320 METAR ESMX 170320Z AUTO 25007KT 210V280 9999NDV R01/1500N R19/1500N FEW011/// SCT014/// 05/03 Q1001=
200604170250 METAR ESMX 170250Z AUTO 27009KT 220V300 9000NDV R01/1500N R19/1500N BR FEW007/// SCT011/// BKN014/// 06/04 Q1001=
200604170220 METAR ESMX 170220Z AUTO 26008KT 220V290 5000NDV R01/1500N R19/1500N BR SCT007/// BKN009/// OVC013/// 06/05 Q1001=
200604170150 METAR ESMX 170150Z AUTO 25008KT 220V280 6000NDV R01/1500N R19/1500N BR BKN006/// OVC010/// 06/05 Q1001=
200604170120 METAR ESMX 170120Z AUTO 24006KT 6000NDV R01/1500N R19/1500N BR SCT006/// BKN011/// OVC014/// 06/05 Q1000=
200604170050 METAR ESMX 170050Z AUTO 21006KT 7000NDV R01/1500N R19/1500N BR FEW006/// SCT009/// BKN010/// 06/05 Q1000 REDZ=
200604170020 METAR ESMX 170020Z AUTO 23008KT 9999NDV R01/1500N R19/1500N FEW009/// BKN010/// OVC014/// 06/05 Q1001=
200604162350 METAR ESMX 162350Z AUTO 20007KT 9999NDV R01/1500N R19/1500N FEW014/// BKN034/// 06/05 Q1001 RERA REDZ=
200604162320 METAR ESMX 162320Z AUTO 19008KT 9999NDV R01/1500N R19/1500N FEW024/// BKN032/// OVC038/// 06/05 Q1001=
200604162250 METAR ESMX 162250Z AUTO 18007KT 9999NDV R01/1500N R19/1500N BR FEW013/// BKN023/// BKN028/// 06/05 Q1001 REDZ=
200604162220 METAR ESMX 162220Z AUTO 20007KT 9000NDV R01/1500N R19/1500N DZ FEW017/// BKN034/// 06/04 Q1001 RERA=
200604162150 METAR ESMX 162150Z AUTO 19008KT 9999NDV R01/1500N R19/1500N -RA OVC033/// 07/03 Q1001 REDZ=
200604162120 METAR ESMX 162120Z AUTO 18008KT 9999NDV R01/1500N R19/1500N FEW038/// OVC054/// 07/03 Q1001=
200604162050 METAR ESMX 162050Z AUTO 17009KT 9999NDV R01/1500N R19/1500N BKN059/// 08/03 Q1002=
200604162020 METAR ESMX 162020Z AUTO 18008KT 9999NDV R01/1500N R19/1500N FEW035/// SCT047/// OVC063/// 08/03 Q1002=
200604161950 METAR ESMX 161950Z AUTO 18010KT 9999NDV R01/1500N R19/1500N FEW033/// OVC074/// 08/03 Q1002=
200604161920 METAR ESMX 161920Z AUTO 18008KT 9999NDV R01/1500N R19/1500N FEW039/// BKN071/// 08/04 Q1002=
200604161850 METAR ESMX 161850Z AUTO 18008KT 9999NDV R01/1500N R19/1500N FEW022/// OVC047/// 09/04 Q1002 RERA REDZ REUP=
200604161820 METAR ESMX 161820Z AUTO 18009KT 9999NDV R01/1500D R19/1500D BKN032/// OVC055/// 09/04 Q1002=
200604161750 METAR ESMX 161750Z AUTO 18009KT 9999NDV R01/1500U R19/1500D FEW038/// SCT044/// OVC055/// 10/04 Q1002=
200604161720 METAR ESMX 161720Z AUTO 17007KT 9999NDV R01/1500U R19/1500U FEW054/// 11/03 Q1002=
200604161650 METAR ESMX 161650Z AUTO 15006KT 120V190 9999NDV R01/1500D R19/1500D FEW100/// 11/03 Q1002=
200604161620 METAR ESMX 161620Z AUTO 17008KT 9999NDV R01/1500D R19/1500D FEW100/// 11/03 Q1002=
200604161550 METAR ESMX 161550Z AUTO 17008KT 9999NDV R01/1500U R19/1500N NCD 11/02 Q1002=
200604161520 METAR ESMX 161520Z AUTO 17008KT 120V190 9999NDV R01/1500D R19/1500U NCD 12/02 Q1003=
200604161450 METAR ESMX 161450Z AUTO 18010KT 140V210 9999NDV R01/1500U R19/1500D NCD 13/02 Q1003=
200604161420 METAR ESMX 161420Z AUTO 18010KT 150V210 9999NDV R01/1500D R19/1500D FEW049/// 13/01 Q1003=
200604161350 METAR ESMX 161350Z AUTO 17010KT 9999NDV R01/1500U R19/1500U NCD 13/00 Q1003=
200604161320 METAR ESMX 161320Z AUTO 17010KT 120V210 9999NDV R01/1500U R19/1500U NCD 13/M00 Q1003=
200604161250 METAR ESMX 161250Z AUTO 17010KT 140V210 9999NDV R01/1500D R19/1500U FEW084/// 13/01 Q1004=
200604161220 METAR ESMX 161220Z AUTO 15010KT 110V200 9999NDV R01/1500D R19/1500U NCD 12/M01 Q1004=
200604161150 METAR ESMX 161150Z AUTO 17009KT 9999NDV R01/1500D R19/1500D NCD 12/01 Q1004=
200604161050 METAR ESMX 161050Z AUTO 19014KT 9999NDV R01/1500D R19/1500U NCD 12/02 Q1004=
200604161020 METAR ESMX 161020Z AUTO 19010KT 150V230 9999NDV R01/1500U R19/1500U FEW077/// 11/01 Q1005=
200604160950 METAR ESMX 160950Z AUTO 15008KT 110V200 9999NDV R01/1500U R19/1500D SCT076/// 11/01 Q1005=
200604160920 METAR ESMX 160920Z AUTO 15007KT 090V180 9999NDV R01/1500U R19/1500D FEW076/// 10/01 Q1005=
200604160850 METAR ESMX 160850Z AUTO 16008KT 110V190 9999NDV R01/1500D R19/1500D FEW044/// 09/01 Q1006=
200604160820 METAR ESMX 160820Z AUTO 14007KT 110V190 9999NDV R01/1500U R19/1500N SCT045/// 08/01 Q1006=
200604160750 METAR ESMX 160750Z AUTO 16006KT 120V190 9999NDV R01/1500D R19/1500U FEW044/// 07/02 Q1006=
200604160720 METAR ESMX 160720Z AUTO 15005KT 120V210 9999NDV R01/1500D R19/1500D NCD 06/02 Q1006=
200604160650 METAR ESMX 160650Z AUTO 14004KT 120V180 9999NDV R01/1500U R19/1500N NCD 05/02 Q1007=
200604160620 METAR ESMX 160620Z AUTO VRB02KT 9999NDV R01/1500U R19/1500U NCD 03/02 Q1007=
200604160550 METAR ESMX 160550Z AUTO 15003KT 9999NDV R01/1500U R19/1500U NCD 02/01 Q1007=
200604160520 METAR ESMX 160520Z AUTO 14004KT 9999NDV R01/1500U R19/1500U NCD 02/01 Q1007=
200604160450 METAR ESMX 160450Z AUTO 16004KT 9999NDV R01/1500D R19/1500N NCD 01/00 Q1007=
200604160420 METAR ESMX 160420Z AUTO VRB02KT 9999NDV R01/1500U R19/1500U NCD M01/M01 Q1008=
200604160350 METAR ESMX 160350Z AUTO 00000KT 9999NDV R01/1500N R19/1500N NCD M01/M01 Q1008=
200604160320 METAR ESMX 160320Z AUTO 00000KT 9999NDV R01/1500N R19/1500N NCD M01/M01 Q1008=
200604160250 METAR ESMX 160250Z AUTO 00000KT 9999NDV R01/1500N R19/1500N NCD M01/M01 Q1008=
200604160220 METAR ESMX 160220Z AUTO 12001KT 6000NDV R01/1500N R19/1500N BR NCD M02/M02 Q1008=
200604160150 METAR ESMX 160150Z AUTO 15002KT 9999NDV R01/1500N R19/1500N NCD M01/M01 Q1009=
200604160120 METAR ESMX 160120Z AUTO 17002KT 9000NDV R01/1500N R19/1500N BR NCD M01/M02 Q1009=
200604160050 METAR ESMX 160050Z AUTO 20002KT 9000NDV R01/1500N R19/1500N BR NCD M01/M02 Q1009=
200604160020 METAR ESMX 160020Z AUTO 16002KT 7000NDV R01/1500N R19/1500N BR NCD M01/M01 Q1010=
200604152350 METAR ESMX 152350Z AUTO 19001KT 8000NDV R01/1500N R19/1500N BR NCD M01/M01 Q1010=
200604152320 METAR ESMX 152320Z AUTO 22003KT 9999NDV R01/1500N R19/1500N NCD 02/01 Q1010=
200604152250 METAR ESMX 152250Z AUTO 22005KT 9999NDV R01/1500N R19/1500N NCD 01/00 Q1010=
200604152220 METAR ESMX 152220Z AUTO 23005KT 9999NDV R01/1500N R19/1500N NCD 02/01 Q1010=
200604152150 METAR ESMX 152150Z AUTO 23005KT 9999NDV R01/1500N R19/1500N NCD 02/01 Q1010=
200604152120 METAR ESMX 152120Z AUTO 24005KT 9999NDV R01/1500N R19/1500N NCD 03/01 Q1010=
200604152050 METAR ESMX 152050Z AUTO 24005KT 9999NDV R01/1500N R19/1500N NCD 03/01 Q1010=
200604152020 METAR ESMX 152020Z AUTO 24005KT 9999NDV R01/1500N R19/1500N NCD 04/01 Q1010=
200604151950 METAR ESMX 151950Z AUTO 25005KT 9999NDV R01/1500N R19/1500N NCD 04/01 Q1010=
200604151920 METAR ESMX 151920Z AUTO 23005KT 9999NDV R01/1500N R19/1500N NCD 05/00 Q1010=
200604151850 METAR ESMX 151850Z AUTO 23004KT 9999NDV R01/1500N R19/1500N NCD 05/01 Q1010=
200604151820 METAR ESMX 151820Z AUTO 24005KT 220V280 9999NDV R01/1500N R19/1500N NCD 06/00 Q1010=
200604151750 METAR ESMX 151750Z AUTO 25005KT 230V290 9999NDV R01/1500N R19/1500N SCT040/// 08/00 Q1010=
200604151720 METAR ESMX 151720Z AUTO 25008KT 230V290 9999NDV R01/1500D R19/1500U NCD 08/00 Q1010=
200604151650 METAR ESMX 151650Z AUTO 26008KT 220V300 9999NDV R01/1500N R19/1500D NCD 09/00 Q1010=
200604151620 METAR ESMX 151620Z AUTO 26009KT 210V290 9999NDV R01/1500U R19/1500U NCD 10/M01 Q1010=
200604151550 METAR ESMX 151550Z AUTO 28011KT 250V330 9999NDV R01/1500U R19/1500U NCD 10/M01 Q1010=
200604151520 METAR ESMX 151520Z AUTO 27012KT 230V290 9999NDV R01/1500D R19/1500U NCD 11/00 Q1010=
200604151450 METAR ESMX 151450Z 27010KT 230V340 CAVOK 11/00 Q1010=
200604151420 METAR ESMX 151420Z AUTO 25012KT 230V290 9999NDV R01/1500U R19/1500D NCD 11/01 Q1009=
200604151350 METAR ESMX 151350Z AUTO 26011KT 230V320 9999NDV R01/1500D R19/1500D NCD 11/01 Q1009=
200604151320 METAR ESMX 151320Z AUTO 27009KT 220V330 9999NDV R01/1500D R19/1500U NCD 12/M00 Q1010=
200604151250 METAR ESMX 151250Z AUTO 26011KT 230V290 9999NDV R01/1500D R19/1500U FEW047/// 12/01 Q1010=
200604151220 METAR ESMX 151220Z AUTO 25011KT 210V290 9999NDV R01/1500D R19/1500U NCD 12/01 Q1009=
200604151150 METAR ESMX 151150Z AUTO 24011KT 210V290 9999NDV R01/1500D R19/1500D NCD 12/00 Q1009=
200604151120 METAR ESMX 151120Z AUTO 27010KT 240V330 9999NDV R01/1500D R19/1500D NCD 11/00 Q1009=
200604151050 METAR ESMX 151050Z AUTO 25010KT 220V300 9999NDV R01/1500U R19/1500D NCD 10/01 Q1009=
200604151020 METAR ESMX 151020Z AUTO 25009G20KT 210V290 9999NDV R01/1500D R19/1500D NCD 10/01 Q1009=
200604150950 METAR ESMX 150950Z AUTO 26010KT 230V330 9999NDV R01/1500U R19/1500D NCD 09/00 Q1009=
200604150920 METAR ESMX 150920Z AUTO 24009KT 190V290 9999NDV R01/1500U R19/1500U NCD 09/01 Q1009=
200604150850 METAR ESMX 150850Z AUTO 27009KT 230V300 9999NDV R01/1500U R19/1500U NCD 08/00 Q1009=
200604150820 METAR ESMX 150820Z AUTO 27010KT 240V310 9999NDV R01/1500U R19/1500U NCD 08/01 Q1008=
200604150750 METAR ESMX 150750Z AUTO 28010KT 250V310 9999NDV R01/1500D R19/1500U NCD 07/01 Q1008=
200604150720 METAR ESMX 150720Z AUTO 28008KT 250V310 9999NDV R01/1500D R19/1500D NCD 06/01 Q1008=
200604150650 METAR ESMX 150650Z AUTO 28009KT 250V310 9999NDV R01/1500D R19/1500U NCD 05/01 Q1008=
200604150620 METAR ESMX 150620Z AUTO 27006KT 9999NDV R01/1500D R19/1500D NCD 05/01 Q1007=
200604150550 METAR ESMX 150550Z AUTO 26008KT 240V310 9999NDV R01/1500U R19/1500D NCD 04/01 Q1007=
200604150520 METAR ESMX 150520Z AUTO 27006KT 210V310 9999NDV R01/1500D R19/1500U NCD 03/01 Q1007=
200604150450 METAR ESMX 150450Z AUTO 26007KT 220V290 9999NDV R01/1500D R19/1500U SCT010/// 03/01 Q1006=
200604150420 METAR ESMX 150420Z AUTO 26008KT 230V290 9999NDV R01/1500D R19/1500D OVC009/// 03/01 Q1006=
200604150350 METAR ESMX 150350Z AUTO 27010KT 9999NDV R01/1500U R19/1500U BKN009/// 03/02 Q1006=
200604150320 METAR ESMX 150320Z AUTO 26008KT 210V290 9999NDV R01/1500N R19/1500N OVC009/// 03/02 Q1005=
200604150250 METAR ESMX 150250Z AUTO 28006KT 230V310 9999NDV R01/1500N R19/1500N OVC009/// 03/02 Q1005=
200604150220 METAR ESMX 150220Z AUTO 27007KT 230V290 9999NDV R01/1500N R19/1500N BKN009/// 03/02 Q1005=
200604150150 METAR ESMX 150150Z AUTO 26006KT 230V290 9999NDV R01/1500N R19/1500N OVC009/// 03/01 Q1004=
200604150120 METAR ESMX 150120Z AUTO 25006KT 210V290 9999NDV R01/1500N R19/1500N BKN009/// 03/02 Q1004=
200604150050 METAR ESMX 150050Z AUTO 25008KT 220V290 9999NDV R01/1500N R19/1500N OVC009/// 03/02 Q1004=
200604150020 METAR ESMX 150020Z AUTO 27005KT 230V320 9999NDV R01/1500N R19/1500N BKN009/// 03/02 Q1004=
200604142350 METAR ESMX 142350Z AUTO 26007KT 230V290 9999NDV R01/1500N R19/1500N BKN009/// 03/02 Q1003=
200604142320 METAR ESMX 142320Z AUTO 27007KT 240V310 9999NDV R01/1500N R19/1500N OVC010/// 03/02 Q1003=
200604142250 METAR ESMX 142250Z AUTO 25006KT 9999NDV R01/1500N R19/1500N BKN011/// 03/01 Q1003=
200604142220 METAR ESMX 142220Z AUTO 25006KT 210V280 9999NDV R01/1500N R19/1500N SCT012/// 03/01 Q1002=
200604142150 METAR ESMX 142150Z AUTO 26006KT 9999NDV R01/1500N R19/1500N FEW013/// 02/01 Q1002=
200604142120 METAR ESMX 142120Z AUTO 24006KT 9999NDV R01/1500N R19/1500N NCD 03/01 Q1002=
200604142050 METAR ESMX 142050Z AUTO 26006KT 9999NDV R01/1500N R19/1500N NCD 03/00 Q1002=
200604142020 METAR ESMX 142020Z AUTO 26006KT 9999NDV R01/1500N R19/1500N NCD 03/M00 Q1001=
200604141950 METAR ESMX 141950Z AUTO 24006KT 9999NDV R01/1500N R19/1500N NCD 04/M01 Q1001=
200604141920 METAR ESMX 141920Z AUTO 26006KT 9999NDV R01/1500N R19/1500N NCD 04/M01 Q1001=
200604141850 METAR ESMX 141850Z AUTO 27006KT 9999NDV R01/1500N R19/1500N NCD 04/M01 Q1000=
200604141820 METAR ESMX 141820Z AUTO 27007KT 240V300 9999NDV R01/1500N R19/1500N NCD 05/M02 Q1000=
200604141750 METAR ESMX 141750Z AUTO 26008KT 9999NDV R01/1500N R19/1500N NCD 06/M02 Q0999=
200604141720 METAR ESMX 141720Z AUTO 27010KT 240V300 9999NDV R01/1500U R19/1500N NCD 07/M01 Q0999=
200604141650 METAR ESMX 141650Z AUTO 27010KT 230V310 9999NDV R01/1500U R19/1500U NCD 08/M01 Q0999=
200604141620 METAR ESMX 141620Z AUTO 26011KT 230V300 9999NDV R01/1500U R19/1500D SCT084/// 08/M00 Q0998=
200604141550 METAR ESMX 141550Z AUTO 27011KT 240V300 9999NDV R01/1500D R19/1500N FEW040/// OVC068/// 08/00 Q0998=
200604141520 METAR ESMX 141520Z AUTO 28010KT 250V320 9999NDV R01/1500D R19/1500D FEW036/// SCT046/// BKN088/// 08/02 Q0997=
200604141450 METAR ESMX 141450Z 28009KT 250V320 9999 FEW034 SCT042 BKN054 08/03 Q0997=
200604141420 METAR ESMX 141420Z 29007KT 260V320 9999 FEW014 BKN048 07/04 Q0997=
200604141350 METAR ESMX 141350Z 28006KT 240V310 9999 FEW014 SCT018 BKN023 06/04 Q0997 RERA=
200604141320 METAR ESMX 141320Z 27008KT 230V320 9999 FEW011 BKN015 BKN023 06/04 Q0997 REDZ=
200604141250 METAR ESMX 141250Z 25007KT 220V300 9999 -RA FEW011 SCT032 06/04 Q0996=
200604141220 METAR ESMX 141220Z 26005KT 210V290 9999 -RA FEW006 SCT011 BKN014 05/04 Q0996=
200604141150 METAR ESMX 141150Z AUTO 27006KT 230V300 3200NDV R01/1500U R19/1500U DZ FEW005/// BKN006/// OVC010/// 04/04 Q0996 RERA=
200604141120 METAR ESMX 141120Z AUTO 27008KT 230V300 3100NDV R01/1500D R19/1500D BR FEW006/// BKN008/// OVC012/// 04/03 Q0996 RERA REDZ=
200604141050 METAR ESMX 141050Z AUTO 26009KT 9999NDV R01/1500D R19/1500U FEW007/// BKN010/// OVC015/// 05/04 Q0995=
200604141020 METAR ESMX 141020Z AUTO 26007KT 210V290 9000NDV R01/1500D R19/1500U FEW007/// SCT010/// BKN013/// 05/03 Q0995 REDZ=
200604140950 METAR ESMX 140950Z AUTO 26007KT 9000NDV R01/1500D R19/1500D -DZ FEW009/// SCT012/// BKN019/// 05/03 Q0994 RERA=
200604140920 METAR ESMX 140920Z AUTO 26007KT 230V290 9999NDV R01/1500U R19/1500D FEW009/// BKN012/// OVC016/// 05/03 Q0994=
200604140850 METAR ESMX 140850Z AUTO 25007KT 9999NDV R01/1500D R19/1500U FEW008/// SCT009/// BKN013/// 04/03 Q0994=
200604140820 METAR ESMX 140820Z AUTO 25005KT 210V280 9999NDV R01/1500D R19/1500D FEW008/// SCT010/// BKN012/// 04/03 Q0994=
200604140750 METAR ESMX 140750Z AUTO 24007KT 200V280 9999NDV R01/1500D R19/1500D FEW006/// SCT009/// BKN011/// 04/03 Q0993 RERA REDZ=
200604140720 METAR ESMX 140720Z AUTO 25007KT 210V300 9999NDV R01/1500D R19/1500D -RA FEW007/// SCT010/// BKN015/// 04/03 Q0993=
200604140650 METAR ESMX 140650Z AUTO 25007KT 200V290 9999NDV R01/1500D R19/1500D FEW005/// SCT008/// OVC010/// 04/03 Q0993=
200604140620 METAR ESMX 140620Z AUTO 24005KT 9999NDV R01/1500D R19/1500U FEW012/// OVC016/// 04/03 Q0993 RERA REDZ=
200604140550 METAR ESMX 140550Z AUTO 23004KT 200V260 9999NDV R01/1500D R19/1500U FEW007/// OVC016/// 04/03 Q0992=
200604140520 METAR ESMX 140520Z AUTO 22003KT 190V250 9999NDV R01/1500U R19/1500D FEW006/// OVC018/// 04/03 Q0992=
200604140450 METAR ESMX 140450Z AUTO 23005KT 7000NDV R01/1500U R19/1500U BR FEW002/// OVC003/// 04/03 Q0992=
200604140420 METAR ESMX 140420Z AUTO 20005KT 7000NDV R01/1500D R19/1500N BR FEW002/// SCT004/// BKN011/// 04/03 Q0992 REDZ=
200604140350 METAR ESMX 140350Z AUTO 22005KT 5000NDV R01/1500N R19/1500N -RA FEW003/// SCT006/// BKN010/// 03/03 Q0992 REDZ=
200604140320 METAR ESMX 140320Z AUTO 21006KT 9999NDV R01/1500N R19/1500N BR FEW005/// BKN007/// OVC009/// 03/03 Q0992=
200604140250 METAR ESMX 140250Z AUTO 19005KT 9000NDV R01/1500N R19/1500N BR FEW005/// SCT006/// BKN008/// 04/03 Q0992 REDZ RERA=
200604140220 METAR ESMX 140220Z AUTO 19005KT 9000NDV R01/1500N R19/1500N BR FEW006/// SCT008/// BKN009/// 04/03 Q0992=
200604140150 METAR ESMX 140150Z AUTO 20007KT 8000NDV R01/1500N R19/1500N BR FEW006/// SCT008/// BKN010/// 04/03 Q0992 RERA REDZ=
200604140120 METAR ESMX 140120Z AUTO 19004KT 8000NDV R01/1500N R19/1500N BR FEW008/// SCT012/// BKN016/// 04/03 Q0992=
200604140050 METAR ESMX 140050Z AUTO 19006KT 9999NDV R01/1500N R19/1500N FEW009/// SCT018/// BKN059/// 04/03 Q0992 REDZ RERA=
200604140020 METAR ESMX 140020Z AUTO 18005KT 6000NDV R01/1500N R19/1500N -RA FEW008/// SCT010/// BKN015/// 04/03 Q0992 REDZ=
200604132350 METAR ESMX 132350Z AUTO 20007KT 160V230 6000NDV R01/1500N R19/1500N -RA FEW009/// SCT013/// BKN017/// 04/03 Q0993=
200604132320 METAR ESMX 132320Z AUTO 20007KT 5000NDV R01/1500N R19/1500N RA FEW007/// BKN010/// OVC014/// 05/04 Q0993 REDZ=
200604132250 METAR ESMX 132250Z AUTO 18004KT 7000NDV R01/1500N R19/1500N -RA FEW014/// BKN019/// BKN025/// 04/04 Q0993 REDZ=
200604132220 METAR ESMX 132220Z AUTO 20005KT 7000NDV R01/1500N R19/1500N RA FEW007/// SCT012/// BKN025/// 04/04 Q0993=
200604132150 METAR ESMX 132150Z AUTO 24008KT 210V270 7000NDV R01/1500N R19/1500N RA FEW012/// BKN018/// BKN024/// 05/03 Q0993=
200604132120 METAR ESMX 132120Z AUTO 18008KT 7000NDV R01/1500N R19/1500N -RA FEW011/// SCT017/// BKN021/// 05/04 Q0993=
200604132050 METAR ESMX 132050Z AUTO 17006KT 9000NDV R01/1500N R19/1500N BR FEW014/// SCT022/// BKN026/// 05/04 Q0993=
200604132020 METAR ESMX 132020Z AUTO 17007KT 9000NDV R01/1500N R19/1500N BR FEW012/// SCT016/// BKN020/// 05/04 Q0993=
200604131950 METAR ESMX 131950Z AUTO 18006KT 9000NDV R01/1500N R19/1500N BR FEW008/// SCT020/// BKN030/// 05/04 Q0994=
200604131920 METAR ESMX 131920Z AUTO 18007KT 8000NDV R01/1500N R19/1500N BR FEW006/// SCT008/// BKN013/// 05/04 Q0994 RERA REDZ=
200604131850 METAR ESMX 131850Z AUTO 17007KT 9000NDV R01/1500N R19/1500N BR FEW009/// SCT018/// BKN029/// 05/04 Q0994 RERA REDZ=
200604131820 METAR ESMX 131820Z AUTO 18008KT 9999NDV R01/1500D R19/1500D BR FEW007/// SCT016/// BKN029/// 05/04 Q0995 RERA REDZ=
200604131750 METAR ESMX 131750Z AUTO 19008KT 7000NDV R01/1500D R19/1500D -RA FEW009/// SCT018/// BKN024/// 05/04 Q0995 REDZ=
200604131720 METAR ESMX 131720Z 21014KT 8000 DZ FEW008 SCT019 BKN023 05/04 Q0995 RERA=
200604131650 METAR ESMX 131650Z 18011KT 5000 -RA FEW005 SCT007 BKN008 06/05 Q0995 REDZ=
200604131620 METAR ESMX 131620Z 17009KT 5000 DZ SCT006 BKN010 06/05 Q0995=
200604131550 METAR ESMX 131550Z 17008KT 5000 DZ FEW004 SCT005 BKN006 06/05 Q0995=
200604131520 METAR ESMX 131520Z 18010KT 5000 -DZ OVC003 05/04 Q0996=
200604131450 METAR ESMX 131450Z 17010KT 150V210 3500 BR FEW003 OVC004 05/04 Q0996=
200604131420 METAR ESMX 131420Z 18009KT 5000 -RA OVC005 04/04 Q0996=
200604131350 METAR ESMX 131350Z 18010KT 140V200 6000 -RA OVC005 04/03 Q0997 REDZ=
200604131320 METAR ESMX 131320Z 17012KT 120V210 7000 -RA OVC006 04/03 Q0997=
200604131250 METAR ESMX 131250Z 17012KT 8000 -DZ BKN006 OVC009 04/03 Q0997=
200604131220 METAR ESMX 131220Z 15010KT 110V170 9000 -RA BKN008 04/03 Q0998=
200604131150 METAR ESMX 131150Z 15010KT 9999 -RA FEW009 BKN011 OVC014 04/03 Q0998=
200604131120 METAR ESMX 131120Z 15010KT 9999 -RA SCT010 BKN015 05/03 Q0999=
200604131050 METAR ESMX 131050Z 16012KT 9999 -RA FEW010 SCT015 BKN019 05/03 Q0999=
200604131020 METAR ESMX 131020Z 17012KT 9000 -RA FEW010 BKN014 BKN027 05/03 Q0999=
200604130950 METAR ESMX 130950Z 16011KT 6000 -DZ FEW012 SCT014 BKN019 05/03 Q1000=
200604130850 METAR ESMX 130850Z 17010KT 140V210 4900 BR SCT003 BKN006 05/03 Q1001=
200604130820 METAR ESMX 130820Z 18009KT 140V220 2300 BR FEW002 BKN004 04/03 Q1001=
200604130750 METAR ESMX 130750Z 17009KT 2700 BR BKN002 OVC005 04/03 Q1001=
200604130720 METAR ESMX 130720Z 19007KT 1500 BR SCT001 BKN002 04/03 Q1002=
200604130650 METAR ESMX 130650Z 16008KT 120V200 1900 BR BKN002 OVC004 04/03 Q1002=
200604130620 METAR ESMX 130620Z 16008KT 1500 BR BKN002 04/03 Q1002=
200604130550 METAR ESMX 130550Z 17009KT 0800 R01/1300U R19/1300U FG VV002 03/03 Q1002=
200604130520 METAR ESMX 130520Z 16007KT 120V190 0700 R01/1300N R19/1400N FG VV002 03/03 Q1003=
200604130450 METAR ESMX 130450Z 16006KT 0750 R01/1400N R19/1500N FG VV002 03/03 Q1003=
200604130420 METAR ESMX 130420Z 17008KT 0800 R01/1500D R19/1500N FG VV002 03/03 Q1003=
200604130350 METAR ESMX 130350Z 16008KT 0800 R01/1500N R19/1500N FG VV002 03/03 Q1004=
200604130320 METAR ESMX 130320Z AUTO 16006KT 140V200 0550NDV R01/1500N R19/1500N FG VV001 03/02 Q1004=
200604130250 METAR ESMX 130250Z AUTO 16006KT 0550NDV R01/1500N R19/1500N FG VV001 03/02 Q1004=
200604130220 METAR ESMX 130220Z AUTO 16008KT 0650NDV R01/1500N R19/1500N FG VV002 03/02 Q1004=
200604130150 METAR ESMX 130150Z AUTO 17006KT 140V210 0900NDV R01/1500N R19/1500N FG OVC001/// 03/02 Q1005=
200604130120 METAR ESMX 130120Z AUTO 16006KT 130V190 1400NDV R01/1500N R19/1500N BR OVC002/// 03/02 Q1005=
200604130050 METAR ESMX 130050Z AUTO 16007KT 120V190 2000NDV R01/1500N R19/1500N BR OVC003/// 03/02 Q1005=
200604130020 METAR ESMX 130020Z 16007KT 2400 BR OVC004 03/02 Q1006=
200604122350 METAR ESMX 122350Z 17006KT 3000 BR OVC005 03/02 Q1006=
200604122320 METAR ESMX 122320Z 17006KT 4000 BR OVC006 03/02 Q1006=
200604122250 METAR ESMX 122250Z 17006KT 4900 BR OVC008 03/01 Q1006=
200604122220 METAR ESMX 122220Z 16007KT 140V200 5000 BR OVC009 03/01 Q1007=
200604122150 METAR ESMX 122150Z 17006KT 140V200 6000 BR OVC011 03/01 Q1007=
200604122120 METAR ESMX 122120Z 17006KT 7000 BR FEW015 SCT018 BKN020 03/00 Q1007=
200604122050 METAR ESMX 122050Z 18007KT 9000 BKN023 OVC040 03/M00 Q1007=
200604122020 METAR ESMX 122020Z 16007KT 9999 OVC024 03/M01 Q1007=
200604121950 METAR ESMX 121950Z 16006KT 9999 OVC025 04/M01 Q1007=
200604121920 METAR ESMX 121920Z 17006KT 9999 OVC027 04/M01 Q1007=
200604121850 METAR ESMX 121850Z 17006KT 9999 OVC028 04/M01 Q1007=
200604121820 METAR ESMX 121820Z 16007KT 9000 BR OVC030 04/M01 Q1007=
200604121750 METAR ESMX 121750Z 16007KT 9999 OVC030 05/M01 Q1007=
200604121720 METAR ESMX 121720Z 15009KT 120V180 9999 OVC044 05/M01 Q1007=
200604121650 METAR ESMX 121650Z 16007KT 9999 SCT035 BKN048 05/M01 Q1007=
200604121620 METAR ESMX 121620Z 17010KT 9999 FEW037 BKN058 05/M01 Q1007=
200604121550 METAR ESMX 121550Z 17010KT 9999 SCT035 BKN045 06/M02 Q1007=
200604121520 METAR ESMX 121520Z 16009KT 9999 BKN033 06/M01 Q1007=
200604121450 METAR ESMX 121450Z 16008KT 120V190 9999 BKN033 06/M01 Q1007=
200604121420 METAR ESMX 121420Z 19011KT 9999 FEW032 OVC048 06/M01 Q1007=
200604121350 METAR ESMX 121350Z 16008KT 9999 BKN033 OVC045 06/M01 Q1007=
200604121320 METAR ESMX 121320Z 19009KT 150V210 9999 FEW032 BKN040 06/M01 Q1007=
200604121250 METAR ESMX 121250Z 18008KT 140V200 9999 SCT030 BKN043 06/M00 Q1008=
200604121150 METAR ESMX 121150Z 18011KT 9999 BKN037 06/M00 Q1008=
200604121120 METAR ESMX 121120Z 17008KT 9999 BKN032 05/M01 Q1008=
200604121050 METAR ESMX 121050Z 16010KT 120V190 9999 BKN033 OVC043 05/M01 Q1008=
200604121020 METAR ESMX 121020Z 18008KT 9999 BKN033 OVC046 06/M01 Q1008=
200604120950 METAR ESMX 120950Z 16011KT 120V200 9999 FEW032 SCT038 BKN047 05/M01 Q1008=
200604120920 METAR ESMX 120920Z 15010KT 110V200 9999 FEW029 BKN033 06/M01 Q1008=
200604120850 METAR ESMX 120850Z 17010KT 130V200 9999 FEW025 BKN031 06/M01 Q1008=
200604120820 METAR ESMX 120820Z 15009KT 110V200 9999 SCT023 05/M01 Q1008=
200604120750 METAR ESMX 120750Z 15005KT CAVOK 04/M00 Q1008=
200604120720 METAR ESMX 120720Z 15006KT 110V190 CAVOK 03/M01 Q1009=
200604120650 METAR ESMX 120650Z 14006KT CAVOK 03/M00 Q1009=
200604120550 METAR ESMX 120550Z 15004KT 9999 FEW030 00/M01 Q1009=
200604120520 METAR ESMX 120520Z 15004KT 9999 FEW030 M00/M02 Q1009=
200604120450 METAR ESMX 120450Z 15003KT CAVOK M00/M02 Q1009=
200604120420 METAR ESMX 120420Z 15003KT CAVOK SCT0025 BKN080 M01/M02 Q1009=
200604120350 METAR ESMX 120350Z 16003KT 9999 SCT030 BKN080 M00/M02 Q1009=
200604120320 METAR ESMX 120320Z AUTO 16004KT 9999NDV R01/1500N R19/1500N FEW066/// M00/M02 Q1009=
200604120250 METAR ESMX 120250Z AUTO 15003KT 9999NDV R01/1500N R19/1500N FEW052/// SCT077/// M00/M02 Q1009=
200604120220 METAR ESMX 120220Z AUTO 14003KT 9999NDV R01/1500N R19/1500N BKN030/// M01/M02 Q1009=
200604120150 METAR ESMX 120150Z AUTO 15003KT 110V180 9999NDV R01/1500N R19/1500N BKN030/// M01/M02 Q1010=
200604120120 METAR ESMX 120120Z AUTO 16003KT 9999NDV R01/1500N R19/1500N FEW030/// SCT035/// M02/M02 Q1010=
200604120050 METAR ESMX 120050Z AUTO 16003KT 9999NDV R01/1500N R19/1500N NCD M03/M03 Q1010=
200604120020 METAR ESMX 120020Z 16002KT CAVOK M02/M02 Q1010=
200604112350 METAR ESMX 112350Z 17002KT 9000 BR NSC M02/M03 Q1010=
200604112320 METAR ESMX 112320Z 16002KT CAVOK M01/M02 Q1011=
200604112250 METAR ESMX 112250Z 18003KT CAVOK M02/M02 Q1011=
200604112220 METAR ESMX 112220Z 15002KT CAVOK M02/M03 Q1011=
200604112150 METAR ESMX 112150Z 15002KT CAVOK M02/M02 Q1011=
200604112120 METAR ESMX 112120Z 20002KT CAVOK M01/M02 Q1011=
200604112050 METAR ESMX 112050Z 23002KT CAVOK M01/M02 Q1011=
200604112020 METAR ESMX 112020Z 22002KT CAVOK M01/M02 Q1011=
200604111950 METAR ESMX 111950Z 18001KT CAVOK M00/M02 Q1011=
200604111920 METAR ESMX 111920Z 25003KT CAVOK 01/M01 Q1012=
200604111850 METAR ESMX 111850Z 26005KT CAVOK 02/M01 Q1012=
200604111820 METAR ESMX 111820Z 26005KT CAVOK 03/M01 Q1011=
200604111750 METAR ESMX 111750Z 27007KT 230V290 CAVOK 04/M01 Q1011=
200604111720 METAR ESMX 111720Z 26007KT 240V320 CAVOK 05/M01 Q1011=
200604111650 METAR ESMX 111650Z 26007KT 220V290 9999 FEW045 06/M01 Q1011=
200604111620 METAR ESMX 111620Z 24009KT 200V270 9999 R01/1500U R19/1500D FEW045 06/M01 Q1011=
200604111550 METAR ESMX 111550Z 26006KT 200V280 CAVOK 08/M01 Q1011=
200604111520 METAR ESMX 111520Z 23007KT 190V270 CAVOK 08/M02 Q1011=
200604111450 METAR ESMX 111450Z 26006KT 200V310 CAVOK 09/M02 Q1011=
200604111420 METAR ESMX 111420Z 21007KT 160V260 CAVOK 09/M04 Q1011=
200604111350 METAR ESMX 111350Z VRB02KT CAVOK 09/M04 Q1011=
200604111320 METAR ESMX 111320Z 27005KT 230V320 CAVOK 09/M03 Q1011=
200604111250 METAR ESMX 111250Z 21003KT 150V260 CAVOK 08/M05 Q1012=
200604111220 METAR ESMX 111220Z VRB02KT CAVOK 08/M03 Q1012=
200604111150 METAR ESMX 111150Z 33003KT 290V020 9999 SCT045 07/M04 Q1012=
200604111120 METAR ESMX 111120Z 26004KT 220V290 9999 SCT047 08/M04 Q1012=
200604110950 METAR ESMX 110950Z 30004KT 260V350 9999 FEW038 07/M02 Q1012=
200604110920 METAR ESMX 110920Z 30004KT 9999 FEW030 07/M02 Q1013=
200604110850 METAR ESMX 110850Z 28005KT 240V330 CAVOK 07/M01 Q1013=
200604110820 METAR ESMX 110820Z 27005KT 230V310 CAVOK 06/M01 Q1013=
200604110750 METAR ESMX 110750Z 32003KT 290V020 CAVOK 05/M01 Q1013=
200604110720 METAR ESMX 110720Z 28004KT 250V320 CAVOK 03/M01 Q1013=
200604110650 METAR ESMX 110650Z 27003KT CAVOK 01/M01 Q1013=
200604110620 METAR ESMX 110620Z 29003KT 230V320 CAVOK 00/M01 Q1013=
200604110550 METAR ESMX 110550Z 28004KT CAVOK M00/M01 Q1013=
200604110520 METAR ESMX 110520Z 27003KT CAVOK M01/M02 Q1013=
200604110450 METAR ESMX 110450Z 26004KT 8000 BR FEW002 M02/M02 Q1013=
200604110420 METAR ESMX 110420Z 26003KT 7000 BR NSC M02/M02 Q1012=
200604110350 METAR ESMX 110350Z 26003KT 7000 BR NSC M02/M02 Q1012=
200604110320 METAR ESMX 110320Z AUTO 26003KT 7000NDV R01/1500N R19/1500N BR NCD M02/M02 Q1012=
200604110250 METAR ESMX 110250Z AUTO 25002KT 8000NDV R01/1500N R19/1500N BR NCD M02/M02 Q1012=
200604110220 METAR ESMX 110220Z AUTO 25001KT 8000NDV R01/1500N R19/1500N BR FEW063/// M01/M02 Q1012=
200604110150 METAR ESMX 110150Z AUTO VRB01KT 8000NDV R01/1500N R19/1500N BR NCD M01/M01 Q1012=
200604110120 METAR ESMX 110120Z AUTO 23002KT 9000NDV R01/1500N R19/1500N BR NCD M02/M02 Q1012=
200604110050 METAR ESMX 110050Z 31001KT CAVOK M01/M01 Q1012=
200604110020 METAR ESMX 110020Z VRB02KT CAVOK 00/M00 Q1013=
200604102350 METAR ESMX 102350Z 28003KT CAVOK 01/00 Q1013=
200604102320 METAR ESMX 102320Z 27003KT CAVOK 01/00 Q1013=
200604102250 METAR ESMX 102250Z VRB02KT CAVOK 01/M00 Q1013=
200604102220 METAR ESMX 102220Z 26003KT CAVOK 01/M00 Q1013=
200604102150 METAR ESMX 102150Z 27002KT CAVOK 02/01 Q1013=
200604102120 METAR ESMX 102120Z VRB02KT 9999 SCT040 OVC057 02/01 Q1013=
200604102050 METAR ESMX 102050Z 26002KT 9999 SCT035 OVC055 02/01 Q1013=
200604102020 METAR ESMX 102020Z VRB02KT 9999 FEW045 OVC055 02/01 Q1013=
200604101950 METAR ESMX 101950Z 24001KT 9999 SCT030 OVC056 03/01 Q1013=
200604101920 METAR ESMX 101920Z 19003KT 9999 SCT030 BKN062 03/01 Q1012=
200604101850 METAR ESMX 101850Z VRB02KT 9999 SCT030 BKN060 03/00 Q1012=
200604101820 METAR ESMX 101820Z 29003KT 250V320 9999 SCT030 BKN050 04/00 Q1012=
200604101750 METAR ESMX 101750Z 29004KT 9999 SCT030 BKN050 04/00 Q1012=
200604101720 METAR ESMX 101720Z 30005KT 9999 SCT033 BKN063 05/01 Q1012=
200604101650 METAR ESMX 101650Z 28004KT 9999 SCT035 BKN059 05/01 Q1011=
200604101620 METAR ESMX 101620Z 28004KT 9999 SCT030 BKN046 BKN062 05/01 Q1011=
200604101550 METAR ESMX 101550Z 26004KT 9999 BKN030 BKN047 05/00 Q1011=
200604101520 METAR ESMX 101520Z 29005KT 9999 SCT033 BKN057 06/01 Q1011=
200604101450 METAR ESMX 101450Z 28006KT 9999 SCT025 BKN046 06/00 Q1011=
200604101420 METAR ESMX 101420Z 21006KT 190V250 9999 FEW022 SCT026 BKN062 06/02 Q1011=
200604101350 METAR ESMX 101350Z 24010KT 220V290 9999 SCT025 BKN052 06/01 Q1010=
200604101320 METAR ESMX 101320Z 24007KT 210V280 9999 SCT033 BKN053 06/M00 Q1010=
200604101250 METAR ESMX 101250Z 21006KT 9999 FEW030 SCT035 BKN044 07/01 Q1010=
200604101220 METAR ESMX 101220Z 25005KT 200V290 9999 BKN043 06/M00 Q1010=
200604101150 METAR ESMX 101150Z 27006KT 250V310 9999 FEW025 BKN045 06/01 Q1010=
200604101120 METAR ESMX 101120Z 26008KT 9999 FEW027 BKN045 06/00 Q1010=
200604101050 METAR ESMX 101050Z 26007KT 9999 FEW020 SCT025 BKN040 05/01 Q1010=
200604101020 METAR ESMX 101020Z 30006KT 260V340 9999 FEW020 SCT035 05/00 Q1009=
200604100950 METAR ESMX 100950Z 29007KT 240V320 9999 FEW016 SCT020 05/01 Q1009=
200604100920 METAR ESMX 100920Z 33007KT 290V020 9999 FEW009 BKN011 BKN019 04/01 Q1009=
200604100850 METAR ESMX 100850Z 30006KT 250V320 9999 SCT008 BKN010 04/02 Q1009=
200604100820 METAR ESMX 100820Z 29006KT 260V330 9999 BKN007 OVC010 03/01 Q1009=
200604100750 METAR ESMX 100750Z 28007KT 250V320 9999 BKN006 02/01 Q1008=
200604100720 METAR ESMX 100720Z 28007KT 250V320 9999 BKN007 02/01 Q1008=
200604100650 METAR ESMX 100650Z 30007KT 260V330 9999 BKN006 OVC009 01/00 Q1007=
200604100620 METAR ESMX 100620Z 27006KT 230V310 9999 FEW006 BKN008 01/00 Q1007=
200604100550 METAR ESMX 100550Z 29005KT 240V320 9999 FEW007 BKN010 01/00 Q1006=
200604100520 METAR ESMX 100520Z 25005KT 200V280 9999 FEW010 SCT015 01/00 Q1006=
200604100450 METAR ESMX 100450Z 27004KT 240V310 9999 FEW010 SCT014 01/00 Q1005=
200604100420 METAR ESMX 100420Z 27005KT 9999 SCT008 BKN014 01/00 Q1005=
200604100350 METAR ESMX 100350Z 28003KT 9999 SCT009 BKN015 01/00 Q1005=
200604100320 METAR ESMX 100320Z AUTO 27006KT 230V290 9999NDV R01/1500N R19/1500N FEW003/// BKN004/// OVC009/// 01/01 Q1004=
200604100250 METAR ESMX 100250Z AUTO 26006KT 230V300 9999NDV R01/1500N R19/1500N OVC004/// 01/00 Q1004=
200604100220 METAR ESMX 100220Z AUTO 26006KT 9999NDV R01/1500N R19/1500N OVC005/// 01/00 Q1003 REDZ RERA=
200604100150 METAR ESMX 100150Z AUTO 25007KT 9999NDV R01/1500N R19/1500N -RA OVC005/// 01/00 Q1003 REDZ=
200604100120 METAR ESMX 100120Z AUTO 25007KT 210V280 9999NDV R01/1500N R19/1500N FEW007/// OVC009/// 01/00 Q1003=
200604100050 METAR ESMX 100050Z 26007KT 9999 FEW005 SCT007 OVC010 01/00 Q1002 RERA REDZ=
200604100020 METAR ESMX 100020Z 26007KT 210V290 9999 SCT005 BKN007 OVC009 01/00 Q1002=
200604092350 METAR ESMX 092350Z 26009KT 210V330 9999 BKN005 OVC009 01/00 Q1002 REDZ=
200604092320 METAR ESMX 092320Z 26006KT 9999 -DZ FEW004 OVC006 01/00 Q1002 RERA=
200604092250 METAR ESMX 092250Z 24006KT 5000 -RA BKN005 01/00 Q1001=
200604092220 METAR ESMX 092220Z 25005KT 5000 -RA FEW002 OVC004 01/00 Q1001=
200604092150 METAR ESMX 092150Z 24008KT 210V270 9999 FEW003 OVC004 01/00 Q1001=
200604092050 METAR ESMX 092050Z 26005KT 3900 -SN SCT003 BKN005 01/00 Q1000=
200604092020 METAR ESMX 092020Z 21007KT 160V230 4000 RASN SCT003 BKN007 01/00 Q0999=
200604091950 METAR ESMX 091950Z 16004KT 4100 RASN SCT005 BKN020 01/01 Q0999 RESN RESG=
200604091920 METAR ESMX 091920Z 18005KT 9999 SCT005 BKN030 01/00 Q0999 RESN=
200604091850 METAR ESMX 091850Z 19005KT 0600 SN VV005 00/00 Q0999 RERA=
200604091820 METAR ESMX 091820Z 17007KT 9999 -RA BKN003 BKN016 01/00 Q0999=
200604091750 METAR ESMX 091750Z 16006KT 120V190 5000 -RA SCT003 BKN037 01/01 Q0999=
200604091720 METAR ESMX 091720Z 17006KT 9999 -SHRA FEW004 BKN009 01/01 Q0999=
200604091650 METAR ESMX 091650Z 20009KT 9999 -SHRA BKN005 02/01 Q0999=
200604091620 METAR ESMX 091620Z 18007KT 9999 SCT006 BKN048 02/01 Q0999=
200604091520 METAR ESMX 091520Z 19009KT 9999 -SHRA FEW008 SCT020CB BKN028 03/02 Q0999=
200604091450 METAR ESMX 091450Z 20008KT 9999 FEW005 SCT010 BKN035 02/01 Q0999 RERA=
200604091420 METAR ESMX 091420Z 17016G26KT 120V200 9000 -SHRASN SCT010 BKN018 03/02 Q0999=
200604091350 METAR ESMX 091350Z 17006KT 140V220 9999 FEW014 SCT043 05/02 Q0999=
200604091320 METAR ESMX 091320Z 19010KT 9999 FEW011 SCT036 05/02 Q0999=
200604091250 METAR ESMX 091250Z 20008KT 9000 FEW006 BKN014 04/03 Q0999=
200604091220 METAR ESMX 091220Z 17010KT 110V190 6000 SHRA FEW006 BKN010 03/02 Q1000=
200604091150 METAR ESMX 091150Z 17008KT 140V200 9999 -SHRA FEW004 BKN005 03/02 Q1000=
200604091120 METAR ESMX 091120Z AUTO 18006KT 140V210 6000NDV R01/1500U R19/1500U BR FEW003/// SCT005/// BKN008/// 01/01 Q1000 RERA=
200604091050 METAR ESMX 091050Z AUTO 18008KT 3500NDV R01/1500D R19/1500D RA FEW007/// SCT009/// BKN011/// 02/01 Q1000=
200604091020 METAR ESMX 091020Z AUTO 18008KT 9999NDV R01/1500D R19/1500N -RA FEW008/// SCT011/// BKN014/// 03/02 Q1000=
200604090950 METAR ESMX 090950Z AUTO 17011KT 140V200 9999NDV R01/1500D R19/1500D -DZ FEW012/// SCT018/// BKN026/// 05/02 Q1000 RERA=
200604090920 METAR ESMX 090920Z AUTO 15010KT 120V190 9999NDV R01/1500U R19/1500N FEW012/// SCT016/// BKN020/// 04/01 Q1000=
200604090850 METAR ESMX 090850Z AUTO 16013KT 9999NDV R01/1500D R19/1500U FEW013/// SCT018/// OVC051/// 04/01 Q1000=
200604090820 METAR ESMX 090820Z AUTO 16012KT 120V200 9999NDV R01/1500D R19/1500U FEW009/// SCT011/// BKN015/// 04/01 Q1000=
200604090750 METAR ESMX 090750Z AUTO 17010KT 140V200 9999NDV R01/1500N R19/1500U FEW006/// BKN007/// OVC010/// 02/01 Q1001=
200604090720 METAR ESMX 090720Z AUTO 17010KT 130V210 9999NDV R01/1500N R19/1500D OVC005/// 02/00 Q1001=
200604090650 METAR ESMX 090650Z AUTO 15010KT 120V190 9999NDV R01/1500U R19/1500U OVC004/// 01/00 Q1001=
200604090620 METAR ESMX 090620Z AUTO 16008KT 9999NDV R01/1500U R19/1500D OVC004/// 01/M00 Q1001=
200604090550 METAR ESMX 090550Z AUTO 16011KT 140V200 9000NDV R01/1500U R19/1500N BKN004/// OVC006/// 00/M00 Q1001=
200604090520 METAR ESMX 090520Z AUTO 17008KT 9000NDV R01/1500D R19/1500D OVC004/// 00/M00 Q1001=
200604090450 METAR ESMX 090450Z AUTO 17009KT 140V200 9999NDV R01/1500D R19/1500D OVC006/// 00/M00 Q1002=
200604090420 METAR ESMX 090420Z AUTO 18008KT 150V220 9999NDV R01/1500U R19/1500U FEW007/// BKN008/// 00/M00 Q1002=
200604090350 METAR ESMX 090350Z AUTO 18010KT 9999NDV R01/1500N R19/1500N FEW005/// BKN007/// BKN009/// 01/M00 Q1002=
200604090320 METAR ESMX 090320Z AUTO 20009KT 9999NDV R01/1500N R19/1500N OVC004/// 00/M00 Q1002=
200604090250 METAR ESMX 090250Z AUTO 19010KT 9999NDV R01/1500N R19/1500N OVC003/// 00/M00 Q1002=
200604090220 METAR ESMX 090220Z AUTO 19009KT 9999NDV R01/1500N R19/1500N BKN003/// OVC005/// 00/M00 Q1002=
200604090150 METAR ESMX 090150Z AUTO 19008KT 9999NDV R01/1500N R19/1500N BKN004/// OVC006/// 00/M00 Q1002=
200604090120 METAR ESMX 090120Z AUTO 19006KT 9999NDV R01/1500N R19/1500N BKN004/// BKN008/// 01/00 Q1003=
200604090050 METAR ESMX 090050Z AUTO 20006KT 9999NDV R01/1500N R19/1500N SCT005/// BKN008/// 01/00 Q1003=
200604090020 METAR ESMX 090020Z AUTO 21007KT 9999NDV R01/1500N R19/1500N FEW007/// BKN008/// 01/00 Q1002=
200604082350 METAR ESMX 082350Z AUTO 19006KT 9999NDV R01/1500N R19/1500N OVC009/// 01/00 Q1003=
200604082320 METAR ESMX 082320Z AUTO 18006KT 9999NDV R01/1500N R19/1500N BKN013/// 01/00 Q1003=
200604082250 METAR ESMX 082250Z AUTO 18005KT 9999NDV R01/1500N R19/1500N FEW013/// 01/00 Q1003=
200604082220 METAR ESMX 082220Z AUTO 19005KT 9999NDV R01/1500N R19/1500N SCT010/// BKN014/// 01/01 Q1002=
200604082150 METAR ESMX 082150Z AUTO 24003KT 210V280 9999NDV R01/1500N R19/1500N FEW007/// SCT009/// BKN035/// 01/01 Q1002 RERA=
200604082120 METAR ESMX 082120Z AUTO 27007KT 220V300 3500NDV R01/1500N R19/1500N -RA FEW007/// SCT009/// BKN018/// 01/00 Q1002=
200604082050 METAR ESMX 082050Z AUTO 24009KT 9999NDV R01/1500N R19/1500N FEW009/// SCT012/// BKN018/// 03/02 Q1002=
200604082020 METAR ESMX 082020Z AUTO 23007KT 180V250 9999NDV R01/1500N R19/1500N FEW008/// SCT011/// BKN017/// 03/02 Q1001 RERA REDZ=
200604081950 METAR ESMX 081950Z AUTO 20011KT 9999NDV R01/1500N R19/1500N FEW010/// SCT014/// BKN023/// 04/02 Q1001=
200604081920 METAR ESMX 081920Z AUTO 17014KT 6000NDV R01/1500N R19/1500N DZ FEW007/// SCT009/// BKN010/// 04/03 Q1001 RERA=
200604081850 METAR ESMX 081850Z AUTO 16010KT 9000NDV R01/1500N R19/1500N BR FEW009/// SCT013/// BKN016/// 04/03 Q1000 REDZ=
200604081820 METAR ESMX 081820Z AUTO 16011KT 120V190 6000NDV R01/1500N R19/1500N DZ FEW010/// SCT013/// BKN015/// 04/03 Q1001 RERA=
200604081750 METAR ESMX 081750Z AUTO 15010KT 120V190 6000NDV R01/1500D R19/1500D DZ FEW010/// BKN012/// OVC016/// 04/03 Q1001 RERA=
200604081720 METAR ESMX 081720Z AUTO 18010KT 3700NDV R01/1500D R19/1500D RA FEW008/// SCT017/// BKN020/// 05/03 Q1001=
200604081650 METAR ESMX 081650Z AUTO 15008KT 7000NDV R01/1500D R19/1500D BR FEW028/// SCT046/// 05/03 Q1001=
200604081620 METAR ESMX 081620Z AUTO 16010KT 130V200 7000NDV R01/1500N R19/1500U BR FEW013/// 05/03 Q1001=
200604081550 METAR ESMX 081550Z AUTO 17012KT 6000NDV R01/1500N R19/1500N -DZ FEW012/// SCT016/// BKN018/// 05/04 Q1002 RERA=
200604081520 METAR ESMX 081520Z AUTO 16013G25KT 120V200 7000NDV R01/1500D R19/1500D RA FEW015/// SCT019/// BKN028/// 06/03 Q1002=
200604081450 METAR ESMX 081450Z AUTO 17010KT 140V210 9999NDV R01/1500D R19/1500U FEW015/// SCT021/// 07/04 Q1002=
200604081420 METAR ESMX 081420Z AUTO 15010KT 110V190 8000NDV R01/1500U R19/1500U BR FEW013/// SCT016/// BKN037/// 06/04 Q1002=
200604081350 METAR ESMX 081350Z AUTO 16011KT 6000NDV R01/1500D R19/1500N BR FEW010/// OVC013/// 06/04 Q1003=
200604081320 METAR ESMX 081320Z AUTO 15007KT 110V180 5000NDV R01/1500U R19/1500N BR OVC010/// 06/04 Q1003=
200604081250 METAR ESMX 081250Z AUTO 15007KT 110V180 5000NDV R01/1500U R19/1500D BR FEW008/// BKN010/// OVC016/// 05/04 Q1003=
200604081220 METAR ESMX 081220Z AUTO 15008KT 120V200 4500NDV R01/1500N R19/1500D BR FEW005/// SCT007/// BKN010/// 04/03 Q1004=
200604081150 METAR ESMX 081150Z AUTO 15007KT 110V180 4300NDV R01/1500U R19/1500N BR FEW003/// SCT005/// BKN023/// 04/03 Q1004 RERA=
200604081120 METAR ESMX 081120Z AUTO 14006KT 100V160 2300NDV R01/1500U R19/1500U -RA FEW004/// SCT006/// BKN008/// 01/01 Q1004=
200604081050 METAR ESMX 081050Z AUTO 14007KT 100V170 1500NDV R01/1500N R19/1500N +RA FEW003/// BKN005/// BKN011/// 01/01 Q1005=
200604081020 METAR ESMX 081020Z AUTO 16010KT 130V190 3100NDV R01/1500D R19/1500D RA FEW005/// SCT007/// BKN008/// 02/01 Q1005 REDZ=
200604080950 METAR ESMX 080950Z AUTO 15009KT 120V200 3600NDV R01/1500D R19/1500D -RA FEW007/// SCT011/// BKN031/// 04/02 Q1005 REDZ=
200604080920 METAR ESMX 080920Z AUTO 16007KT 110V180 4300NDV R01/1500N R19/1500D -DZ FEW024/// 04/03 Q1005 RERA=
200604080850 METAR ESMX 080850Z AUTO 14005KT 100V170 4100NDV R01/1500N R19/1500N BR FEW005/// SCT006/// 04/02 Q1006=
200604080820 METAR ESMX 080820Z AUTO 16007KT 120V180 3800NDV R01/1500N R19/1500N BR OVC005/// 03/02 Q1006=
200604080750 METAR ESMX 080750Z AUTO 16009KT 120V190 3400NDV R01/1500N R19/1500U BR OVC004/// 03/02 Q1006=
200604080720 METAR ESMX 080720Z AUTO 15006KT 110V170 4000NDV R01/1500D R19/1500D BR FEW005/// SCT035/// BKN040/// 02/02 Q1006=
200604080650 METAR ESMX 080650Z AUTO 13004KT 100V170 3700NDV R01/1500N R19/1500U -RA FEW013/// SCT024/// BKN031/// 01/01 Q1006=
200604080620 METAR ESMX 080620Z AUTO 14006KT 100V170 4400NDV R01/1500U R19/1500U -RA FEW006/// SCT018/// BKN026/// 01/00 Q1006=
200604080550 METAR ESMX 080550Z AUTO 13003KT 090V160 8000NDV R01/1500N R19/1500U BR FEW032/// SCT041/// BKN059/// 01/01 Q1006=
200604080520 METAR ESMX 080520Z AUTO VRB02KT 9000NDV R01/1500U R19/1500U SCT030/// BKN046/// 01/01 Q1007=
200604080450 METAR ESMX 080450Z AUTO VRB02KT 9999NDV R01/1500D R19/1500D FEW035/// SCT049/// BKN068/// 01/01 Q1007=
200604080420 METAR ESMX 080420Z AUTO 00000KT 6000NDV R01/1500N R19/1500N BR FEW023/// SCT038/// BKN065/// 01/01 Q1007=
200604080350 METAR ESMX 080350Z AUTO 12003KT 9999NDV R01/1500N R19/1500N FEW009/// BKN038/// 01/01 Q1007 RERA=
200604080320 METAR ESMX 080320Z AUTO 15004KT 120V230 9999NDV R01/1500N R19/1500N -DZ FEW013/// SCT027/// BKN044/// 02/01 Q1008 RERA=
200604080250 METAR ESMX 080250Z AUTO 19005KT 8000NDV R01/1500N R19/1500N -RA FEW010/// SCT025/// BKN038/// 02/01 Q1008=
200604080220 METAR ESMX 080220Z AUTO 16007KT 130V200 9999NDV R01/1500N R19/1500N -RA FEW016/// SCT039/// BKN056/// 02/00 Q1008 REDZ=
200604080150 METAR ESMX 080150Z AUTO 16007KT 9999NDV R01/1500N R19/1500N FEW044/// SCT049/// BKN068/// 02/00 Q1008=
200604080120 METAR ESMX 080120Z AUTO 18005KT 9999NDV R01/1500N R19/1500N OVC057/// 01/00 Q1008=
200604080050 METAR ESMX 080050Z AUTO 17006KT 9999NDV R01/1500N R19/1500N FEW060/// 01/00 Q1008=
200604080020 METAR ESMX 080020Z AUTO 15005KT 9999NDV R01/1500N R19/1500N NCD 01/M01 Q1008=
200604072350 METAR ESMX 072350Z AUTO 15003KT 9999NDV R01/1500N R19/1500N NCD M01/M02 Q1009=
200604072320 METAR ESMX 072320Z AUTO 17005KT 9999NDV R01/1500N R19/1500N NCD 01/M01 Q1009=
200604072250 METAR ESMX 072250Z AUTO 17005KT 9999NDV R01/1500N R19/1500N FEW038/// SCT043/// BKN049/// 02/M01 Q1009=
200604072220 METAR ESMX 072220Z AUTO 19006KT 9999NDV R01/1500N R19/1500N FEW047/// 02/M01 Q1009=
200604072150 METAR ESMX 072150Z AUTO 17006KT 9999NDV R01/1500N R19/1500N NCD 02/M01 Q1009=
200604072120 METAR ESMX 072120Z AUTO 19006KT 9999NDV R01/1500N R19/1500N NCD 02/M01 Q1008=
200604072050 METAR ESMX 072050Z AUTO 18007KT 9999NDV R01/1500N R19/1500N NCD 02/M01 Q1008=
200604072020 METAR ESMX 072020Z AUTO 18006KT 9999NDV R01/1500N R19/1500N FEW063/// 03/M01 Q1008=
200604071950 METAR ESMX 071950Z AUTO 19006KT 9999NDV R01/1500N R19/1500N FEW062/// 02/M01 Q1008=
200604071920 METAR ESMX 071920Z AUTO 20006KT 9999NDV R01/1500N R19/1500N NCD 03/M01 Q1008=
200604071850 METAR ESMX 071850Z AUTO 22006KT 9999NDV R01/1500N R19/1500N NCD 05/M01 Q1008=
200604071820 METAR ESMX 071820Z AUTO 20006KT 9999NDV R01/1500D R19/1500D NCD 05/M01 Q1008=
200604071750 METAR ESMX 071750Z AUTO 24009KT 9999NDV R01/1500U R19/1500D NCD 06/M01 Q1008=
200604071720 METAR ESMX 071720Z 23009KT 190V270 CAVOK 07/M01 Q1007=
200604071650 METAR ESMX 071650Z 22009KT 180V260 9999 FEW045 SCT075 07/M01 Q1007=
200604071550 METAR ESMX 071550Z 23010KT 9999 SCT044 08/M01 Q1007=
200604071450 METAR ESMX 071450Z 22010KT 170V260 9999 SCT039 08/M01 Q1007=
200604071420 METAR ESMX 071420Z 25008KT 210V290 9999 BKN045 07/00 Q1007=
200604071350 METAR ESMX 071350Z 25009KT 200V310 9999 BKN038 07/00 Q1007=
200604071320 METAR ESMX 071320Z 25013G24KT 9999 SCT038 08/00 Q1006=
200604071220 METAR ESMX 071220Z 24012KT 210V280 9999 SCT037 09/00 Q1006=
200604071150 METAR ESMX 071150Z 22012KT 190V260 9999 FEW035 SCT040 08/01 Q1006=
200604071120 METAR ESMX 071120Z 22013KT 9999 SCT034 08/01 Q1006=
200604071050 METAR ESMX 071050Z 24010KT 9999 FEW030 SCT036 BKN041 08/02 Q1005=
200604071020 METAR ESMX 071020Z 25011KT 9999 SCT030 08/02 Q1005=
200604070950 METAR ESMX 070950Z 25009KT 9999 FEW022 SCT030 BKN041 06/01 Q1005=
200604070920 METAR ESMX 070920Z 24008KT 9999 SCT020 BKN024 06/02 Q1005=
200604070850 METAR ESMX 070850Z 24008KT 9999 FEW014 SCT023 05/02 Q1005=
200604070820 METAR ESMX 070820Z 23010KT 9999 FEW010 SCT013 BKN017 05/03 Q1005=
200604070750 METAR ESMX 070750Z 23006KT 9999 FEW008 SCT010 BKN017 04/03 Q1004=
200604070720 METAR ESMX 070720Z 24009KT 9999 FEW006 SCT008 BKN010 04/03 Q1004=
200604070650 METAR ESMX 070650Z 19011KT 5000 -RA FEW005 BKN006 OVC011 04/03 Q1004=
200604070620 METAR ESMX 070620Z 19009KT 9999 -RA BKN005 04/03 Q1004=
200604070550 METAR ESMX 070550Z 19009KT 9000 -DZ FEW006 BKN007 BKN010 03/03 Q1004=
200604070520 METAR ESMX 070520Z 18009KT 9999 FEW005 SCT007 BKN009 03/02 Q1004=
200604070450 METAR ESMX 070450Z 19010KT 8000 BR FEW005 BKN007 OVC019 03/02 Q1004=
200604070420 METAR ESMX 070420Z 19008KT 9999 FEW007 SCT010 BKN019 03/02 Q1003=
200604070350 METAR ESMX 070350Z 19009KT 9999 FEW006 SCT008 BKN010 03/02 Q1003=
200604070120 METAR ESMX 070120Z AUTO 20009KT 7000NDV R01/1500N R19/1500N -DZ OVC005/// 03/02 Q1003 RERA=
200604070050 METAR ESMX 070050Z AUTO 20011KT 9999NDV R01/1500N R19/1500N OVC005/// 03/02 Q1003 RERA REDZ=
200604070020 METAR ESMX 070020Z AUTO 21009KT 9999NDV R01/1500N R19/1500N FEW006/// BKN007/// OVC010/// 03/02 Q1003 REDZ=
200604062350 METAR ESMX 062350Z 20011KT 7000 -DZ FEW005 BKN007 03/02 Q1003=
200604062320 METAR ESMX 062320Z 21011KT 9999 FEW007 BKN008 03/02 Q1003=
200604062220 METAR ESMX 062220Z 19011KT 9999 FEW007 BKN009 03/02 Q1003=
200604062150 METAR ESMX 062150Z 19013KT 9999 SCT008 OVC011 04/02 Q1004=
200604062120 METAR ESMX 062120Z 19011KT 9999 SCT008 BKN010 03/03 Q1004=
200604062050 METAR ESMX 062050Z 19012KT 9999 FEW007 SCT009 OVC010 03/03 Q1004=
200604062020 METAR ESMX 062020Z 19011KT 9000 -DZ FEW007 BKN008 03/03 Q1004=
200604061950 METAR ESMX 061950Z 19012KT 9999 OVC007 03/02 Q1004=
200604061920 METAR ESMX 061920Z 19012KT 8000 BR FEW007 SCT008 OVC010 03/02 Q1004=
200604061850 METAR ESMX 061850Z 19012KT 6000 -DZ FEW006 BKN007 04/03 Q1004=
200604061820 METAR ESMX 061820Z 20010KT 8000 -DZ BKN006 04/03 Q1004=
200604061750 METAR ESMX 061750Z 19010KT 7000 DZ FEW006 BKN007 03/03 Q1004=
200604061720 METAR ESMX 061720Z 19011KT 8000 DZ FEW006 OVC007 03/03 Q1004=
200604061650 METAR ESMX 061650Z 20009KT 9999 -DZ SCT006 BKN008 03/02 Q1004=
200604061620 METAR ESMX 061620Z 19010KT 9999 -RA FEW007 BKN008 03/02 Q1005=
200604061550 METAR ESMX 061550Z 19011KT 9999 -RA BKN008 03/02 Q1005=
200604061520 METAR ESMX 061520Z 18009KT 9999 -DZ SCT008 OVC011 03/02 Q1005=
200604061450 METAR ESMX 061450Z 18009KT 9999 -RA FEW008 BKN012 OVC015 02/01 Q1005=
200604061420 METAR ESMX 061420Z 17008KT 7000 -RA FEW006 SCT008 BKN009 02/01 Q1005=
200604061350 METAR ESMX 061350Z 18008KT 7000 -RASN FEW006 BKN008 BKN011 02/01 Q1005=
200604061320 METAR ESMX 061320Z 17009KT 6000 -RA FEW007 SCT010 BKN019 02/01 Q1006=
200604061250 METAR ESMX 061250Z 18010KT 4300 -RA FEW007 SCT010 BKN012 02/01 Q1006=
200604061220 METAR ESMX 061220Z 19011KT 160V220 9999 -RA FEW006 SCT013 BKN017 03/02 Q1006=
200604061150 METAR ESMX 061150Z 20011KT 7000 RASN FEW009 SCT015 BKN065 03/00 Q1006=
200604061120 METAR ESMX 061120Z 19012KT 9999 -RASN FEW020 BKN030 03/M01 Q1006=
200604061050 METAR ESMX 061050Z 19012KT 9999 -RASN FEW023 SCT030 BKN200 04/M01 Q1006=
200604061020 METAR ESMX 061020Z 20013KT 160V230 9999 FEW021 SCT033 BKN200 03/M02 Q1007=
200604060950 METAR ESMX 060950Z 22011KT 9999 FEW022 BKN039 03/M01 Q1007=
200604060920 METAR ESMX 060920Z 22010KT 9999 R01/1500D R19/1500N FEW020 SCT031 BKN037 03/M01 Q1007=
200604060850 METAR ESMX 060850Z 21009KT 170V240 9999 FEW017 SCT020 BKN025 03/M01 Q1007=
200604060820 METAR ESMX 060820Z 21008KT 190V250 9999 FEW016 SCT020 03/M00 Q1007=
200604060750 METAR ESMX 060750Z 21006KT 160V220 9999 FEW015 SCT025 02/M01 Q1007=
200604060720 METAR ESMX 060720Z 20007KT 9999 BKN020 01/M01 Q1007=
200604060650 METAR ESMX 060650Z 21005KT 9999 FEW015 00/M01 Q1007=
200604060620 METAR ESMX 060620Z 22006KT 190V260 9999 BKN010 M00/M02 Q1007=
200604060550 METAR ESMX 060550Z 23006KT 200V260 9999 SCT010 BKN025 M01/M02 Q1007=
200604060520 METAR ESMX 060520Z 21004KT 9999 FEW020 SCT050 M01/M02 Q1006=
200604060450 METAR ESMX 060450Z 22005KT 9999 BKN047 M01/M02 Q1006=
200604060420 METAR ESMX 060420Z 22003KT 9999 OVC045 M01/M02 Q1006=
200604060350 METAR ESMX 060350Z 24004KT 9999 BKN046 M01/M02 Q1006=
200604060320 METAR ESMX 060320Z AUTO 23002KT 9999NDV R01/1500N R19/1500N SCT027/// OVC044/// M01/M02 Q1005=
200604060250 METAR ESMX 060250Z AUTO 23003KT 9999NDV R01/1500N R19/1500N OVC039/// M01/M02 Q1006=
200604060220 METAR ESMX 060220Z AUTO VRB01KT 9999NDV R01/1500N R19/1500N OVC030/// M01/M02 Q1005=
200604060150 METAR ESMX 060150Z AUTO 25003KT 9999NDV R01/1500N R19/1500N OVC028/// M01/M02 Q1006=
200604060120 METAR ESMX 060120Z AUTO 29003KT 260V330 9999NDV R01/1500N R19/1500N OVC026/// M01/M02 Q1006=
200604060050 METAR ESMX 060050Z AUTO 28003KT 9999NDV R01/1500N R19/1500N OVC027/// M01/M02 Q1006=
200604060020 METAR ESMX 060020Z AUTO 27004KT 9999NDV R01/1500N R19/1500N OVC027/// M01/M02 Q1005=
200604052350 METAR ESMX 052350Z 30004KT 9999 BKN025 M01/M02 Q1005=
200604052320 METAR ESMX 052320Z 29004KT 9999 BKN025 M02/M03 Q1005=
200604052250 METAR ESMX 052250Z 28004KT 9999 SCT028 M02/M02 Q1005=
200604052220 METAR ESMX 052220Z 27002KT CAVOK M02/M03 Q1005=
200604052150 METAR ESMX 052150Z 29002KT 9999 FEW009 M01/M01 Q1005=
200604052120 METAR ESMX 052120Z 31003KT 9999 FEW006 BKN008 M01/M01 Q1005=
200604052050 METAR ESMX 052050Z VRB02KT 5000 -SN FEW005 SCT007 BKN017 M00/M01 Q1004=
200604052020 METAR ESMX 052020Z 33002KT 5000 -SN FEW003 SCT009 BKN011 M01/M01 Q1004=
200604051950 METAR ESMX 051950Z 01004KT 5000 -SN FEW004 SCT008 BKN012 M00/M00 Q1004=
200604051920 METAR ESMX 051920Z 35003KT 2000 SN FEW003 SCT004 BKN007 00/M00 Q1004=
200604051850 METAR ESMX 051850Z 33004KT 2000 SN FEW005 SCT007 BKN010 00/M00 Q1004=
200604051820 METAR ESMX 051820Z 32003KT 4600 -SN FEW008 BKN011 OVC015 00/M00 Q1004=
200604051750 METAR ESMX 051750Z 36004KT 9999 -SN FEW011 SCT013CB BKN021 00/M00 Q1004=
200604051720 METAR ESMX 051720Z 36006KT 7000 R01/1500D R19/1500U -RA FEW006 SCT010CB BKN017 01/00 Q1003=
200604051650 METAR ESMX 051650Z 33005KT 9999 FEW009CB SCT044 BKN050 01/00 Q1003 RERA=
200604051620 METAR ESMX 051620Z 33006KT 9999 R01/1500U R19/1500U -DZ FEW006 BKN020CB 01/00 Q1003 RERA=
200604051550 METAR ESMX 051550Z 02009KT 9999 RA FEW005 SCT010 BKN020 01/M00 Q1003=
200604051450 METAR ESMX 051450Z 01008KT 9999 R01/1500D R19/1500D FEW011 SCT025 02/00 Q1003 RERA=
200604051420 METAR ESMX 051420Z 36009KT 320V020 9999 FEW007 SCT018 BKN056 02/00 Q1003 RERA=
200604051350 METAR ESMX 051350Z 33009KT 9999 -RA FEW010 BKN020 02/00 Q1002=
200604051320 METAR ESMX 051320Z 35008KT 9999 -RA SCT009 BKN020 02/00 Q1003=
200604051250 METAR ESMX 051250Z 33009KT 9999 FEW015 BKN020 03/00 Q1002=
200604051220 METAR ESMX 051220Z 01008KT 9999 FEW005 BKN040 02/01 Q1003 RERA REDZ=
200604051150 METAR ESMX 051150Z 01005KT 310V050 9999 FEW037 SCT075 04/M01 Q1003=
200604051120 METAR ESMX 051120Z VRB02KT 9999 FEW018 SCT020 03/00 Q1003=
200604051050 METAR ESMX 051050Z VRB02KT 9999 R01/1500U R19/1500U -DZ FEW009 SCT011 BKN015 02/00 Q1003 RERA=
200604051020 METAR ESMX 051020Z 34003KT 300V020 9999 -RA FEW009 OVC010 02/M00 Q1003=
200604050950 METAR ESMX 050950Z 33005KT 9999 OVC007 01/M00 Q1003=
200604050920 METAR ESMX 050920Z 33005KT 9999 SCT005 OVC006 01/M00 Q1003=
200604050850 METAR ESMX 050850Z 35004KT 9999 SCT004 BKN006 01/M00 Q1003=
200604050820 METAR ESMX 050820Z VRB02KT 9999 SCT003 BKN005 01/M01 Q1003=
200604050750 METAR ESMX 050750Z VRB02KT 9000 BR SCT003 BKN005 01/M00 Q1003=
200604050720 METAR ESMX 050720Z VRB03KT 9000 BR SCT003 BKN004 00/M00 Q1003=
200604050650 METAR ESMX 050650Z VRB02KT 8000 BR SCT003 BKN004 00/M00 Q1003=
200604050620 METAR ESMX 050620Z VRB02KT 7000 BR BKN003 00/M00 Q1003=
200604050550 METAR ESMX 050550Z 06002KT 5000 BR BKN003 M00/M00 Q1003=
200604050520 METAR ESMX 050520Z 06002KT 3500 -RASN BKN003 00/M00 Q1003=
200604050450 METAR ESMX 050450Z 06002KT 3000 BR BKN003 M00/M00 Q1003=
200604050420 METAR ESMX 050420Z 06001KT 2800 BR SCT002 BKN004 M00/M00 Q1003=
200604050350 METAR ESMX 050350Z 06002KT 3500 -RASN BR FEW003 BKN005 M00/M00 Q1004=
200604050050 METAR ESMX 050050Z 00000KT 4000 -SN BR BKN002 00/M00 Q1005=
200604050020 METAR ESMX 050020Z 00000KT 5000 BR BKN003 00/M00 Q1005=
200604042350 METAR ESMX 042350Z 06002KT 4500 BR BKN002 00/M00 Q1005=
200604042320 METAR ESMX 042320Z 12002KT 7000 BR BKN004 00/M01 Q1005=
200604042250 METAR ESMX 042250Z 16003KT 6000 BKN003 00/00 Q1006=
200604042220 METAR ESMX 042220Z 14004KT 8000 BR BKN003 00/M01 Q1006=
200604042150 METAR ESMX 042150Z 18006KT 9999 BKN005 00/M01 Q1006=
200604042120 METAR ESMX 042120Z 16004KT 9999 SCT005 SCT048 00/M01 Q1006=
200604042050 METAR ESMX 042050Z 00000KT 9999 SCT048 M02/M03 Q1006=
200604042020 METAR ESMX 042020Z VRB01KT 9999 SCT047 M02/M03 Q1006=
200604041950 METAR ESMX 041950Z VRB02KT 9999 FEW045 M01/M02 Q1007=
200604041920 METAR ESMX 041920Z VRB01KT 9999 FEW040 M01/M02 Q1007=
200604041820 METAR ESMX 041820Z VRB03KT CAVOK M01/M02 Q1007=
200604041750 METAR ESMX 041750Z 19001KT 9999 FEW025 SCT035 ///// Q1006=
200604041720 METAR ESMX 041720Z 19001KT 9999 SCT025 BKN035 04/M00 Q1007=
200604041650 METAR ESMX 041650Z 20005KT 9999 SCT025 BKN035 04/M01 Q1007=
200604041620 METAR ESMX 041620Z 22003KT 9999 SCT028 BKN035 04/M01 Q1007=
200604041550 METAR ESMX 041550Z 23002KT 9999 BKN035 04/M02 Q1007=
200604041520 METAR ESMX 041520Z 23004KT 9999 BKN032 04/M02 Q1007=
200604041450 METAR ESMX 041450Z 20006KT 9999 BKN030 04/M01 Q1007=
200604041420 METAR ESMX 041420Z 18005KT 9999 BKN030 04/M01 Q1007=
200604041350 METAR ESMX 041350Z 18007KT 9999 BKN025 ///// Q1008=
200604041320 METAR ESMX 041320Z 19008KT 9999 BKN025 ///// Q1008=
200604041250 METAR ESMX 041250Z 19006KT 9999 BKN025 ///// Q1008=
200604041220 METAR ESMX 041220Z 22005KT 9999 BKN025 ///// Q1008=
200604041150 METAR ESMX 041150Z 24004KT 9999 BKN024 ///// Q1008=
200604041120 METAR ESMX 041120Z 21006KT 9999 BKN022 ///// Q1008=
200604041050 METAR ESMX 041050Z 24004KT 9999 BKN023 ///// Q1008=
200604041020 METAR ESMX 041020Z 25004KT 9999 BKN020 ///// Q1008=
200604040950 METAR ESMX 040950Z 24005KT 9999 BKN018 ///// Q1008=
200604040920 METAR ESMX 040920Z 26006KT 9999 FEW015 BKN020 ///// Q1008=
200604040850 METAR ESMX 040850Z 27006KT 9999 FEW019 BKN021 ///// Q1008=
200604040820 METAR ESMX 040820Z 27006KT 9999 FEW019 BKN021 03/01 Q1008=
200604040750 METAR ESMX 040750Z 28006KT 210V320 9999 FEW019 OVC021 03/M01 Q1008=
200604040720 METAR ESMX 040720Z 25005KT 200V290 9999 BKN020 03/M00 Q1008=
200604040650 METAR ESMX 040650Z VRB03KT 9999 BKN019 02/M00 Q1008=
200604040620 METAR ESMX 040620Z VRB03KT 9999 FEW016 BKN018 02/M00 Q1008=
200604040550 METAR ESMX 040550Z VRB03KT 9999 OVC014 01/M00 Q1008=
200604040520 METAR ESMX 040520Z 27004KT 230V300 9999 FEW009 BKN012 01/M01 Q1008=
200604040450 METAR ESMX 040450Z 27004KT 9999 BKN009 01/M00 Q1008=
200604040420 METAR ESMX 040420Z 27004KT 250V320 9999 FEW007 BKN009 01/M00 Q1008=
200604040350 METAR ESMX 040350Z 27006KT 240V310 9999 BKN006 01/00 Q1008=
200604040320 METAR ESMX 040320Z AUTO 28006KT 240V310 9999 OVC006 01/00 Q1008=
200604040250 METAR ESMX 040250Z AUTO 26006KT 220V290 9999 OVC005 01/00 Q1008=
200604040220 METAR ESMX 040220Z AUTO 28006KT 230V310 9999 OVC006 01/00 Q1008=
200604040150 METAR ESMX 040150Z AUTO 29006KT 250V320 9999 OVC006 02/00 Q1008=
200604040120 METAR ESMX 040120Z AUTO 27007KT 240V300 9999 OVC007 02/01 Q1008=
200604040050 METAR ESMX 040050Z AUTO 28007KT 240V320 9999 FEW005 OVC007 02/01 Q1007=
200604040020 METAR ESMX 040020Z 28008KT 230V300 9999 OVC006 02/01 Q1007=
200604032350 METAR ESMX 032350Z 27008KT 240V300 9999 BKN005 BKN009 02/01 Q1007=
200604032320 METAR ESMX 032320Z 24006KT 200V280 9999 SCT006 SCT030 02/01 Q1007=
200604032250 METAR ESMX 032250Z VRB03KT 9999 BKN025 02/01 Q1007=
200604032220 METAR ESMX 032220Z VRB03KT 9999 BKN023 02/02 Q1007=
200604032150 METAR ESMX 032150Z VRB03KT 9999 FEW023 BKN027 02/01 Q1007=
200604032120 METAR ESMX 032120Z 24004KT 170V280 9999 BKN022 03/02 Q1007=
200604032050 METAR ESMX 032050Z 26005KT 9999 BKN009 BKN021 03/02 Q1007=
200604032020 METAR ESMX 032020Z VRB03KT 9999 SCT010 BKN029 03/02 Q1007=
200604031950 METAR ESMX 031950Z 28006KT 250V330 9999 BKN022 04/02 Q1006=
200604031920 METAR ESMX 031920Z 29006KT 260V320 9999 -RA SCT006 BKN016 04/02 Q1006=
200604031850 METAR ESMX 031850Z 28010KT 8000 -SHRA FEW005 SCT009 BKN011 05/04 Q1006=
200604031820 METAR ESMX 031820Z 19005KT 3300 -SHRA BR SCT006 BKN009 06/05 Q1006=
200604031750 METAR ESMX 031750Z 20005KT 4500 -SHRA BR BKN003 06/05 Q1006=
200604031720 METAR ESMX 031720Z 18006KT 4100 -SHRA BR BKN004 06/05 Q1005=
200604031650 METAR ESMX 031650Z 17006KT 6000 BR FEW004 BKN006 06/05 Q1005=
200604031620 METAR ESMX 031620Z 17007KT 6000 -SHRA FEW006 SCT008 BKN012CB 06/05 Q1005=
200604031550 METAR ESMX 031550Z VRB03KT 9999 FEW007 OVC017 07/06 Q1005 RERA=
200604031450 METAR ESMX 031450Z 20008KT 9999 -SHRA FEW013 SCT018 BKN023 07/05 Q1005=
200604031420 METAR ESMX 031420Z 19009KT 9999 SCT013 BKN018 08/05 Q1005=
200604031350 METAR ESMX 031350Z 17009KT 9999 FEW017 BKN021 07/04 Q1005=
200604031320 METAR ESMX 031320Z 18010KT 9999 FEW015 SCT020 BKN023 08/04 Q1005=
200604031250 METAR ESMX 031250Z 19011KT 150V210 9999 FEW016 SCT020 BKN071 08/05 Q1005=
200604031220 METAR ESMX 031220Z 19012KT 9999 FEW018 BKN025 09/05 Q1005=
200604031150 METAR ESMX 031150Z 18012KT 9999 SCT020 BKN025 09/05 Q1005=
200604031120 METAR ESMX 031120Z 19012KT 9999 SCT020 BKN060 09/05 Q1005=
200604031050 METAR ESMX 031050Z 21009KT 190V250 9999 BKN020 08/04 Q1005=
200604031020 METAR ESMX 031020Z 22008KT 160V250 9999 FEW011 SCT014 BKN018 08/05 Q1005=
200604030950 METAR ESMX 030950Z 21006KT 9999 FEW009 BKN012 08/05 Q1005=
200604030920 METAR ESMX 030920Z 20006KT 170V240 9999 BKN004 06/05 Q1005=
200604030850 METAR ESMX 030850Z 21005KT 8000 BR BKN003 OVC006 05/05 Q1005=
200604030820 METAR ESMX 030820Z 23005KT 9000 BR SCT002 OVC004 05/04 Q1004=
200604030750 METAR ESMX 030750Z 21006KT 2800 OVC002 04/04 Q1004=
200604030720 METAR ESMX 030720Z 24006KT 1000 R01/0900V1300U R19/1300D FG OVC002 04/04 Q1004=
200604030650 METAR ESMX 030650Z 23004KT 200V260 1800 BR OVC002 04/03 Q1004=
200604030620 METAR ESMX 030620Z VRB03KT 7000 BR FEW002 BKN023 OVC037 03/03 Q1004=
200604030550 METAR ESMX 030550Z 24004KT 210V290 5000 FEW004 SCT020 BKN050 03/03 Q1004 RERA=
200604030520 METAR ESMX 030520Z VRB03KT 6000 -SHRA FEW005 SCT035 BKN040 03/03 Q1003=
200604030450 METAR ESMX 030450Z 26004KT 8000 BR FEW002 SCT014 BKN035 03/03 Q1003=
200604030420 METAR ESMX 030420Z 25004KT 9999 -SHRA FEW003 SCT011 BKN030 03/03 Q1003=
200604030350 METAR ESMX 030350Z 25004KT 220V280 9999 FEW012 BKN022 03/03 Q1003=
200604030320 METAR ESMX 030320Z AUTO VRB02KT 9999 FEW012 OVC016 03/03 Q1003=
200604030250 METAR ESMX 030250Z AUTO VRB03KT 9999 FEW014 OVC016 03/03 Q1003=
200604030220 METAR ESMX 030220Z AUTO 31004KT 9999 FEW018 OVC020 03/03 Q1002 REDZ=
200604030150 METAR ESMX 030150Z AUTO 28004KT 7000 -SHRA OVC020 03/03 Q1002=
200604030120 METAR ESMX 030120Z AUTO VRB03KT 7000 -RA OVC020 03/03 Q1003=
200604030050 METAR ESMX 030050Z AUTO VRB02KT 8000 FEW010 BKN017 OVC022 03/03 Q1003 REDZ=
200604030020 METAR ESMX 030020Z VRB03KT 5000 SCT014 OVC019 03/03 Q1003 REDZ=
200604022350 METAR ESMX 022350Z VRB02KT 7000 -DZ FEW014 OVC019 03/03 Q1003=
200604022320 METAR ESMX 022320Z VRB02KT 9999 -RA FEW013 OVC018 03/03 Q1003=
200604022250 METAR ESMX 022250Z VRB02KT 9000 -RA BKN013 03/03 Q1003=
200604022220 METAR ESMX 022220Z VRB02KT 9999 -SHRA FEW016 OVC021 03/03 Q1003=
200604022150 METAR ESMX 022150Z VRB02KT 9999 -SHRA OVC020 04/03 Q1003=
200604022050 METAR ESMX 022050Z VRB02KT 9999 -RA OVC021 04/03 Q1004=
200604022020 METAR ESMX 022020Z VRB03KT 9999 -SHRA FEW021 SCT025 04/03 Q1004=
200604021950 METAR ESMX 021950Z 16004KT 9999 -SHRA FEW024 05/04 Q1004=
200604021920 METAR ESMX 021920Z VRB01KT 9999 FEW042 BKN075 BKN110 04/04 Q1004 RERA=
200604021850 METAR ESMX 021850Z VRB02KT 9999 FEW026 BKN033 BKN061 05/04 Q1004 RERA=
200604021820 METAR ESMX 021820Z 25004KT 9999 -SHRA FEW014 SCT026 BKN031 05/04 Q1004=
200604021750 METAR ESMX 021750Z 29005KT 9999 BKN025 BKN053 07/04 Q1004=
200604021720 METAR ESMX 021720Z 29004KT 9999 FEW020 SCT025 BKN033 07/04 Q1004=
200604021650 METAR ESMX 021650Z 17006KT 9999 SHRA SCT035CB BKN080 09/05 Q1004=
200604021620 METAR ESMX 021620Z 15006KT 120V200 9999 -SHRA FEW035CB BKN080 09/05 Q1004=
200604021550 METAR ESMX 021550Z 15006KT 120V190 9999 -SHRA FEW024 SCT035CB 09/05 Q1004=
200604021520 METAR ESMX 021520Z 16005KT 140V200 9999 -SHRA FEW025 SCT050CB 10/05 Q1004=
200604021450 METAR ESMX 021450Z 19004KT 9999 -SHRA FEW024CB SCT032 BKN050 10/06 Q1004=
200604021420 METAR ESMX 021420Z 21006KT 160V240 9999 BKN025 10/05 Q1004=
200604021350 METAR ESMX 021350Z 22007KT 200V260 9999 FEW023 SCT030 BKN060 10/05 Q1005=
200604021320 METAR ESMX 021320Z 21009KT 170V260 9999 FEW026 SCT065 09/04 Q1005=
200604021220 METAR ESMX 021220Z 22010KT 190V260 9999 FEW020 SCT030 09/05 Q1005=
200604021150 METAR ESMX 021150Z 20009KT 9999 -SHRA FEW020CB BKN030 09/05 Q1005=
200604021120 METAR ESMX 021120Z AUTO 23010KT 200V270 9999 SCT020 BKN028 BKN032 09/05 Q1005=
200604021050 METAR ESMX 021050Z AUTO 21011KT 190V260 9999 FEW019 SCT025 BKN043 09/04 Q1005=
200604021020 METAR ESMX 021020Z AUTO 22011KT 180V240 9999 FEW014 SCT017 BKN025 08/05 Q1005=
200604020950 METAR ESMX 020950Z AUTO 20008KT 170V230 9999 FEW010 SCT013 BKN016 07/05 Q1004=
200604020920 METAR ESMX 020920Z AUTO 21007KT 9999 FEW009 OVC011 07/05 Q1004=
200604020850 METAR ESMX 020850Z AUTO 20008KT 9999 FEW007 BKN010 OVC014 06/04 Q1004=
200604020820 METAR ESMX 020820Z AUTO 22009KT 200V260 9999 FEW006 SCT008 BKN009 05/04 Q1004=
200604020750 METAR ESMX 020750Z AUTO 22007KT 170V240 9999 FEW006 BKN008 OVC010 05/04 Q1004=
200604020720 METAR ESMX 020720Z AUTO 22008KT 9999 FEW006 BKN008 OVC012 05/04 Q1004=
200604020650 METAR ESMX 020650Z AUTO 23006KT 210V270 9999 FEW005 SCT007 BKN009 05/04 Q1004=
200604020620 METAR ESMX 020620Z AUTO 24006KT 200V280 9000 BR FEW001 SCT003 BKN005 05/04 Q1004=
200604020550 METAR ESMX 020550Z AUTO 23007KT 3900 BR OVC002 05/04 Q1004=
200604020520 METAR ESMX 020520Z AUTO 22006KT 170V260 8000 BR OVC003 05/04 Q1003=
200604020450 METAR ESMX 020450Z AUTO 23008KT 200V270 9999 BKN004 OVC007 05/05 Q1003=
200604020420 METAR ESMX 020420Z AUTO 24006KT 9999 -SHRA FEW004 BKN005 OVC007 05/05 Q1003=
200604020350 METAR ESMX 020350Z AUTO 23007KT 210V280 9999 BKN004 OVC008 05/05 Q1002 REDZ=
200604020320 METAR ESMX 020320Z AUTO 21006KT 6000 DZ FEW001 SCT003 BKN004 05/05 Q1002=
200604020250 METAR ESMX 020250Z AUTO 20006KT 1900 OVC001 05/04 Q1002=
200604020220 METAR ESMX 020220Z AUTO 19006KT 1500 VV002 04/04 Q1002 RERA=
200604020150 METAR ESMX 020150Z AUTO 19007KT 6000 RA BKN002 BKN025 04/04 Q1002=
200604020120 METAR ESMX 020120Z AUTO 18005KT 0300 R01/1000N R19/1000N +SHRA VV000 04/03 Q1002=
200604020050 METAR ESMX 020050Z AUTO 17004KT 0300 R01/1100N R19/1000N FG VV001 03/03 Q1002=
200604020020 METAR ESMX 020020Z AUTO 16005KT 0250 R01/0900N R19/1100N FG VV001 03/03 Q1002=
200604012350 METAR ESMX 012350Z AUTO 17007KT 0300 R01/1100N R19/1200N FG VV001 03/03 Q1003=
200604012320 METAR ESMX 012320Z AUTO 16006KT 120V200 0400 R01/1300N R19/P1500N FG VV001 03/03 Q1003=
200604012250 METAR ESMX 012250Z AUTO 15007KT 120V190 0700 R01/P1500N R19/P1500N FG VV001 03/03 Q1003=
200604012220 METAR ESMX 012220Z AUTO 16006KT 120V200 1500 -SHRA OVC001 03/03 Q1003=
200604012150 METAR ESMX 012150Z AUTO 15006KT 110V190 2300 -RA OVC001 03/03 Q1003=
200604012120 METAR ESMX 012120Z AUTO 15005KT 6000 OVC002 03/03 Q1003 REDZ=
200604012050 METAR ESMX 012050Z AUTO 14006KT 100V180 8000 OVC003 03/03 Q1003 REDZ=
200604012020 METAR ESMX 012020Z AUTO 14005KT 100V190 8000 DZ OVC004 03/02 Q1003=
200604011950 METAR ESMX 011950Z AUTO 15006KT 110V190 9999 DZ OVC006 04/02 Q1004=
200604011920 METAR ESMX 011920Z AUTO 13004KT 080V170 9999 FEW008 BKN011 OVC018 03/02 Q1004 REDZ=
200604011850 METAR ESMX 011850Z AUTO 14004KT 110V170 6000 -SHRA OVC018 04/02 Q1004=
200604011820 METAR ESMX 011820Z AUTO 14004KT 110V170 9999 -SHRA SCT021 OVC027 04/02 Q1004=
200604011750 METAR ESMX 011750Z AUTO 16005KT 120V200 9999 -SHRA OVC024 04/01 Q1004=
200604011720 METAR ESMX 011720Z AUTO 16007KT 110V170 9999 -SHRA OVC028 05/02 Q1004=
200604011650 METAR ESMX 011650Z AUTO 16007KT 140V200 9999 -RA BKN036 06/03 Q1004=
200604011620 METAR ESMX 011620Z AUTO 16007KT 120V190 9999 FEW031 BKN040 07/01 Q1004=
200604011550 METAR ESMX 011550Z AUTO 15005KT 9999 SCT034 OVC048 07/01 Q1004=
200604011520 METAR ESMX 011520Z AUTO 14007KT 100V170 9999 OVC032 08/00 Q1004=
200604011450 METAR ESMX 011450Z AUTO 16005KT 110V190 9999 OVC032 07/00 Q1004=
200604011420 METAR ESMX 011420Z AUTO 19005KT 9999 BKN032 07/00 Q1004=
200604011350 METAR ESMX 011350Z AUTO 21004KT 170V270 9999 SCT035 07/00 Q1004=
200604011320 METAR ESMX 011320Z AUTO VRB08KT 9999 FEW032 BKN037 07/00 Q1005=
200604011250 METAR ESMX 011250Z AUTO 27004KT 210V330 9999 NSC 07/00 Q1005=
200604011220 METAR ESMX 011220Z AUTO 20009KT 170V240 9999 FEW032 07/00 Q1005=
