##########################################################
# Query made at 04/19/2024 20:48:43 UTC
# Time interval: from 01/01/2006 12:00  to 01/31/2006 12:59  UTC
##########################################################

##########################################################
# ESMX, Vaxjo (Sweden)
# WMO index: 02641. WIGOS ID: 0-20000-0-02648
# Latitude 56-51N. Longitude 014-50E. Altitude 199 m.
##########################################################

200601311250 METAR ESMX 311250Z 30005KT 260V340 CAVOK 05/M02 Q1017=
200601311220 METAR ESMX 311220Z 30004KT 260V330 CAVOK 05/M03 Q1017=
200601311150 METAR ESMX 311150Z 30005KT 270V340 CAVOK 04/M03 Q1017=
200601311120 METAR ESMX 311120Z 30006KT CAVOK 04/M03 Q1018=
200601311050 METAR ESMX 311050Z 31005KT 270V340 CAVOK 03/M03 Q1018=
200601311020 METAR ESMX 311020Z 31006KT CAVOK 02/M03 Q1018=
200601310950 METAR ESMX 310950Z 30005KT CAVOK 01/M04 Q1018=
200601310920 METAR ESMX 310920Z VRB03KT CAVOK M01/M04 Q1018=
200601310850 METAR ESMX 310850Z VRB03KT CAVOK M02/M04 Q1017=
200601310820 METAR ESMX 310820Z 26004KT CAVOK M05/M06 Q1017=
200601310750 METAR ESMX 310750Z VRB03KT CAVOK M04/M05 Q1017=
200601310720 METAR ESMX 310720Z VRB03KT CAVOK M04/M05 Q1017=
200601310650 METAR ESMX 310650Z 25004KT CAVOK M05/M07 Q1017=
200601310620 METAR ESMX 310620Z VRB01KT CAVOK M05/M07 Q1017=
200601310550 METAR ESMX 310550Z VRB03KT CAVOK M05/M05 Q1017=
200601310520 METAR ESMX 310520Z VRB01KT CAVOK M05/M05 Q1017=
200601310450 METAR ESMX 310450Z VRB01KT CAVOK M03/M05 Q1017=
200601310420 METAR ESMX 310420Z AUTO 31004KT 280V340 9999 NSC M02/M04 Q1017=
200601310350 METAR ESMX 310350Z AUTO 30005KT 9999 NSC M02/M04 Q1017=
200601310320 METAR ESMX 310320Z AUTO 29005KT 9999 NSC M02/M04 Q1017=
200601310250 METAR ESMX 310250Z AUTO 32005KT 290V350 9999 NSC M01/M04 Q1017=
200601310220 METAR ESMX 310220Z AUTO 31005KT 9999 NSC M02/M04 Q1017=
200601310150 METAR ESMX 310150Z AUTO 33004KT 290V360 9999 NSC M02/M04 Q1018=
200601310120 METAR ESMX 310120Z 30005KT CAVOK M02/M04 Q1018=
200601310050 METAR ESMX 310050Z 29004KT 260V320 CAVOK M02/M04 Q1018=
200601302350 METAR ESMX 302350Z VRB03KT CAVOK M03/M03 Q1018=
200601302320 METAR ESMX 302320Z 26004KT CAVOK M04/M04 Q1018=
200601302250 METAR ESMX 302250Z 26004KT 9999 FEW002 M04/M04 Q1019=
200601302220 METAR ESMX 302220Z 26004KT 9000 BR FEW002 M03/M03 Q1019=
200601302150 METAR ESMX 302150Z 25005KT 6000 BR BKN002 M03/M03 Q1019=
200601302120 METAR ESMX 302120Z 28004KT 9000 BR BKN002 M02/M03 Q1019=
200601302050 METAR ESMX 302050Z 26005KT 230V290 4700 BR OVC002 M02/M02 Q1020=
200601302020 METAR ESMX 302020Z 26005KT 2600 BR OVC002 M02/M02 Q1020=
200601301950 METAR ESMX 301950Z 27005KT 3000 BR OVC002 M02/M02 Q1020=
200601301920 METAR ESMX 301920Z 29007KT 250V320 2400 BR OVC002 M02/M02 Q1021=
200601301850 METAR ESMX 301850Z 27004KT 230V290 3500 BR OVC002 M02/M02 Q1020=
200601301820 METAR ESMX 301820Z 30004KT 260V350 5000 BR OVC002 M02/M02 Q1021=
200601301720 METAR ESMX 301720Z 28006KT 6000 BR OVC002 M02/M02 Q1021=
200601301650 METAR ESMX 301650Z 28007KT 9000 BR OVC003 M02/M03 Q1021=
200601301620 METAR ESMX 301620Z 29005KT 9999 BKN003 M02/M03 Q1021=
200601301550 METAR ESMX 301550Z 27005KT 9999 SCT004 BKN120 M02/M03 Q1021=
200601301520 METAR ESMX 301520Z 27005KT 9999 FEW005 BKN120 M02/M03 Q1021=
200601301450 METAR ESMX 301450Z VRB03KT 9999 FEW005 BKN120 M01/M02 Q1021=
200601301420 METAR ESMX 301420Z 29005KT 250V320 9999 FEW005 BKN120 M01/M02 Q1021=
200601301350 METAR ESMX 301350Z 27005KT 9999 FEW005 BKN150 M01/M02 Q1021=
200601301320 METAR ESMX 301320Z 27006KT 230V300 CAVOK M01/M02 Q1021=
200601301250 METAR ESMX 301250Z 27006KT 9999 FEW005 M01/M02 Q1022=
200601301220 METAR ESMX 301220Z 27005KT 240V300 9999 SCT004 M01/M02 Q1022=
200601301150 METAR ESMX 301150Z 28005KT 240V340 9999 BKN003 M02/M02 Q1023=
200601301120 METAR ESMX 301120Z 28005KT 9999 BKN002 M02/M03 Q1023=
200601301050 METAR ESMX 301050Z 27004KT 9999 OVC002 M03/M03 Q1023=
200601301020 METAR ESMX 301020Z VRB02KT 9000 BR BKN003 M03/M03 Q1023=
200601300950 METAR ESMX 300950Z VRB03KT 8000 BR BKN003 M03/M04 Q1023=
200601300920 METAR ESMX 300920Z 28004KT 250V320 8000 BR BKN003 M04/M04 Q1024=
200601300850 METAR ESMX 300850Z 29004KT 8000 BR BKN003 M04/M04 Q1024=
200601300820 METAR ESMX 300820Z 26004KT 210V300 8000 BR BKN003 M04/M04 Q1024=
200601300750 METAR ESMX 300750Z 26005KT 7000 BR BKN003 M04/M05 Q1023=
200601300720 METAR ESMX 300720Z VRB03KT 9000 BR BKN003 M04/M05 Q1024=
200601300650 METAR ESMX 300650Z 29006KT 260V320 8000 BR BKN003 M04/M04 Q1024=
200601300620 METAR ESMX 300620Z 30005KT 260V330 9000 BR BKN003 M04/M04 Q1024=
200601300550 METAR ESMX 300550Z VRB03KT 9000 BR BKN003 M04/M05 Q1023=
200601300520 METAR ESMX 300520Z 25004KT 220V290 9000 OVC003 M04/M05 Q1024 RESN=
200601300450 METAR ESMX 300450Z 25005KT 9000 BR OVC002 M04/M05 Q1024=
200601300420 METAR ESMX 300420Z AUTO 25004KT 220V300 8000 -SN OVC002 M05/M05 Q1024=
200601300350 METAR ESMX 300350Z AUTO 27004KT 240V300 6000 IC OVC001 M05/M05 Q1025=
200601300320 METAR ESMX 300320Z AUTO 27005KT 240V300 4700 -SN OVC001 M05/M05 Q1025=
200601300250 METAR ESMX 300250Z AUTO 26006KT 3900 BR OVC002 M05/M05 Q1025=
200601300220 METAR ESMX 300220Z AUTO VRB03KT 7000 BR OVC002 M05/M05 Q1025=
200601300150 METAR ESMX 300150Z AUTO VRB03KT 9999 OVC003 M05/M06 Q1026=
200601300120 METAR ESMX 300120Z 26004KT 220V300 9999 OVC003 M05/M06 Q1026=
200601300050 METAR ESMX 300050Z VRB03KT 9999 BKN004 M05/M06 Q1026=
200601300020 METAR ESMX 300020Z 25005KT 210V270 9999 BKN004 M05/M06 Q1026=
200601292350 METAR ESMX 292350Z 25004KT 9999 BKN002 M05/M06 Q1026=
200601292320 METAR ESMX 292320Z 24004KT 200V270 9000 BR BKN002 M05/M06 Q1026=
200601292250 METAR ESMX 292250Z 26005KT 240V320 8000 BR OVC002 M05/M06 Q1027=
200601292220 METAR ESMX 292220Z 25005KT 7000 BR OVC002 M05/M06 Q1026=
200601292150 METAR ESMX 292150Z VRB03KT 9000 BR OVC002 M05/M06 Q1027=
200601292120 METAR ESMX 292120Z 27004KT 230V300 8000 BR BKN002 M05/M06 Q1027=
200601292050 METAR ESMX 292050Z 28004KT 9999 BKN002 M06/M06 Q1027=
200601292020 METAR ESMX 292020Z 29006KT 9999 FEW003 M05/M06 Q1027=
200601291950 METAR ESMX 291950Z 26004KT CAVOK M05/M05 Q1027=
200601291920 METAR ESMX 291920Z VRB03KT CAVOK M05/M05 Q1027=
200601291850 METAR ESMX 291850Z VRB03KT CAVOK M05/M05 Q1027=
200601291820 METAR ESMX 291820Z VRB02KT 9999 NSC M04/M04 Q1027=
200601291750 METAR ESMX 291750Z VRB03KT CAVOK M04/M05 Q1026=
200601291720 METAR ESMX 291720Z VRB03KT CAVOK M04/M04 Q1027=
200601291650 METAR ESMX 291650Z 24004KT CAVOK M03/M04 Q1027=
200601291620 METAR ESMX 291620Z 27004KT CAVOK M02/M03 Q1027=
200601291550 METAR ESMX 291550Z 26004KT CAVOK M02/M03 Q1028=
200601291520 METAR ESMX 291520Z 27004KT CAVOK M01/M03 Q1028=
200601291450 METAR ESMX 291450Z 30004KT CAVOK 00/M03 Q1028=
200601291420 METAR ESMX 291420Z VRB03KT CAVOK 00/M03 Q1027=
200601291350 METAR ESMX 291350Z VRB02KT CAVOK 01/M03 Q1027=
200601291320 METAR ESMX 291320Z AUTO VRB03KT 9999 NSC 01/M03 Q1028=
200601291250 METAR ESMX 291250Z AUTO 28005KT 9999 NSC 00/M03 Q1028=
200601291220 METAR ESMX 291220Z AUTO VRB03KT 9999 NSC 00/M02 Q1028=
200601291150 METAR ESMX 291150Z AUTO VRB03KT 9999 NSC M01/M02 Q1028=
200601291120 METAR ESMX 291120Z AUTO 28004KT 250V330 9999 NSC M02/M02 Q1028=
200601291050 METAR ESMX 291050Z AUTO 26005KT 9999 NSC M02/M03 Q1028=
200601291020 METAR ESMX 291020Z AUTO VRB03KT 9999 NSC M03/M03 Q1028=
200601290950 METAR ESMX 290950Z AUTO VRB02KT 9999 NSC M04/M04 Q1028=
200601290920 METAR ESMX 290920Z AUTO VRB01KT 9999 SCT001 M04/M05 Q1028 RESN=
200601290850 METAR ESMX 290850Z AUTO VRB02KT 4100 -SN OVC001 M05/M05 Q1028=
200601290820 METAR ESMX 290820Z AUTO VRB03KT 1800 BR OVC001 M05/M05 Q1028=
200601290750 METAR ESMX 290750Z AUTO VRB01KT 3200 OVC001 M05/M05 Q1027=
200601290720 METAR ESMX 290720Z AUTO VRB02KT 3000 OVC001 M05/M05 Q1027=
200601290650 METAR ESMX 290650Z AUTO VRB01KT 0900 R01/P1500N R19/P1500N FG OVC001 M04/M05 Q1027=
200601290620 METAR ESMX 290620Z AUTO VRB03KT 1800 VV001 M04/M04 Q1027=
200601290550 METAR ESMX 290550Z AUTO VRB02KT 0700 R01/P1500U R19/P1500N FG VV001 M04/M04 Q1027=
200601290520 METAR ESMX 290520Z AUTO VRB02KT 2500 BR OVC001 M03/M04 Q1027=
200601290450 METAR ESMX 290450Z AUTO VRB03KT 2300 BR OVC001 M03/M03 Q1027=
200601290420 METAR ESMX 290420Z AUTO VRB03KT 2200 BR OVC001 M03/M03 Q1027=
200601290350 METAR ESMX 290350Z AUTO 28004KT 2800 BR OVC001 M03/M03 Q1027=
200601290320 METAR ESMX 290320Z AUTO 27005KT 2100 BR OVC001 M02/M03 Q1027=
200601290250 METAR ESMX 290250Z AUTO 27004KT 240V300 2300 BR OVC001 M02/M03 Q1027=
200601290220 METAR ESMX 290220Z AUTO 29004KT 260V320 2200 BR OVC001 M02/M03 Q1027=
200601290150 METAR ESMX 290150Z AUTO 28005KT 2700 BR OVC001 M02/M02 Q1027=
200601290120 METAR ESMX 290120Z AUTO 29004KT 250V320 1800 BR OVC001 M02/M02 Q1027=
200601290050 METAR ESMX 290050Z AUTO 29004KT 240V320 1500 BR OVC001 M02/M02 Q1027=
200601290020 METAR ESMX 290020Z AUTO 29006KT 240V330 1200 R01/P1500N R19/P1500N BR VV002 M02/M02 Q1027=
200601282350 METAR ESMX 282350Z AUTO 27004KT 250V310 1200 R01/P1500N R19/P1500N BR VV002 M02/M02 Q1027=
200601282320 METAR ESMX 282320Z AUTO 28005KT 1500 BR VV002 M02/M02 Q1027=
200601282250 METAR ESMX 282250Z AUTO VRB03KT 1900 BR OVC001 M02/M02 Q1027=
200601282220 METAR ESMX 282220Z AUTO 28005KT 240V310 1900 BR OVC001 M02/M02 Q1026=
200601282150 METAR ESMX 282150Z AUTO 29006KT 260V330 3000 BR OVC001 M02/M02 Q1026=
200601282120 METAR ESMX 282120Z AUTO 29005KT 240V330 2300 BR OVC001 M02/M02 Q1026=
200601282050 METAR ESMX 282050Z AUTO 29005KT 3000 BR OVC001 M02/M02 Q1026=
200601282020 METAR ESMX 282020Z AUTO 28004KT 2900 BR OVC001 M02/M02 Q1026=
200601281950 METAR ESMX 281950Z AUTO 28004KT 250V320 2500 BR OVC001 M02/M02 Q1026=
200601281920 METAR ESMX 281920Z AUTO 27004KT 210V300 4600 BR OVC001 M02/M02 Q1026=
200601281850 METAR ESMX 281850Z AUTO 27004KT 230V310 4200 BR OVC001 M02/M02 Q1026=
200601281820 METAR ESMX 281820Z AUTO 28006KT 4600 BR OVC002 M02/M02 Q1026=
200601281750 METAR ESMX 281750Z AUTO 25007KT 7000 BR OVC001 M02/M02 Q1025=
200601281720 METAR ESMX 281720Z AUTO 27005KT 250V340 4000 BR OVC001 M02/M02 Q1025=
200601281650 METAR ESMX 281650Z AUTO 25004KT 210V300 2100 BR OVC001 M02/M02 Q1025=
200601281620 METAR ESMX 281620Z AUTO 28005KT 7000 BR OVC002 M02/M03 Q1025=
200601281550 METAR ESMX 281550Z AUTO VRB03KT 9999 BKN004 M02/M03 Q1025=
200601281520 METAR ESMX 281520Z AUTO VRB03KT 9999 FEW005 M02/M03 Q1025=
200601281450 METAR ESMX 281450Z AUTO VRB03KT 9999 BKN005 BKN049 M02/M03 Q1025=
200601281420 METAR ESMX 281420Z AUTO 27004KT 220V320 9999 OVC004 M02/M02 Q1025=
200601281350 METAR ESMX 281350Z AUTO 27005KT 240V300 9000 OVC004 M02/M02 Q1025=
200601281320 METAR ESMX 281320Z AUTO 26006KT 230V300 9999 BKN053 M02/M03 Q1025=
200601281250 METAR ESMX 281250Z AUTO 25006KT 9999 BKN054 M02/M03 Q1025=
200601281220 METAR ESMX 281220Z AUTO 26006KT 9999 NSC M02/M03 Q1026=
200601281150 METAR ESMX 281150Z AUTO 25005KT 9999 NSC M02/M03 Q1026=
200601281120 METAR ESMX 281120Z VRB03KT 9999 FEW005 M03/M04 Q1026=
200601281050 METAR ESMX 281050Z VRB03KT 9000 BR FEW002 M04/M04 Q1026=
200601281020 METAR ESMX 281020Z VRB03KT 8000 BR BKN002 M05/M05 Q1026=
200601280950 METAR ESMX 280950Z VRB03KT 6000 BR BKN002 M05/M06 Q1026=
200601280920 METAR ESMX 280920Z VRB02KT 7000 BR BKN001 M05/M06 Q1026=
200601280850 METAR ESMX 280850Z VRB03KT 4700 BR BKN001 M06/M06 Q1026=
200601280820 METAR ESMX 280820Z AUTO VRB03KT 4500 BR OVC001 M06/M07 Q1026=
200601280750 METAR ESMX 280750Z AUTO VRB02KT 6000 BR OVC001 M06/M07 Q1026=
200601280720 METAR ESMX 280720Z AUTO VRB03KT 4600 OVC001 M06/M07 Q1026=
200601280650 METAR ESMX 280650Z AUTO VRB02KT 1300 R01/P1500N R19/P1500N VV002 M06/M07 Q1026=
200601280620 METAR ESMX 280620Z AUTO VRB03KT 0900 R01/P1500N R19/P1500N FG VV002 M06/M07 Q1026=
200601280550 METAR ESMX 280550Z AUTO VRB03KT 1100 R01/P1500N R19/P1500N FG VV002 M06/M07 Q1025=
200601280520 METAR ESMX 280520Z AUTO VRB02KT 1700 BR VV001 M06/M07 Q1025=
200601280450 METAR ESMX 280450Z AUTO VRB02KT 9000 BR BKN001 M06/M07 Q1025=
200601280420 METAR ESMX 280420Z AUTO 00000KT 8000 BR FEW033 M07/M08 Q1025=
200601280350 METAR ESMX 280350Z AUTO VRB01KT 9999 OVC033 M06/M06 Q1026=
200601280320 METAR ESMX 280320Z AUTO VRB01KT 9999 OVC033 M06/M07 Q1026=
200601280250 METAR ESMX 280250Z AUTO VRB01KT 9999 OVC002 M06/M07 Q1026=
200601280220 METAR ESMX 280220Z AUTO VRB01KT 9999 BR OVC001 M07/M07 Q1026=
200601280150 METAR ESMX 280150Z AUTO VRB03KT 4400 BR OVC001 M07/M08 Q1026=
200601280120 METAR ESMX 280120Z AUTO VRB02KT 3200 BR VV002 M07/M08 Q1026=
200601280050 METAR ESMX 280050Z AUTO VRB03KT 2600 BR OVC001 M07/M08 Q1026=
200601280020 METAR ESMX 280020Z AUTO VRB02KT 4800 BR OVC001 M07/M08 Q1026=
200601272350 METAR ESMX 272350Z AUTO VRB02KT 3500 BR OVC001 M07/M08 Q1026=
200601272320 METAR ESMX 272320Z AUTO VRB03KT 6000 BR OVC001 M07/M08 Q1026=
200601272250 METAR ESMX 272250Z AUTO VRB03KT 8000 BR FEW001 M07/M08 Q1026=
200601272220 METAR ESMX 272220Z AUTO VRB03KT 5000 BR BKN001 M07/M08 Q1026=
200601272150 METAR ESMX 272150Z AUTO VRB03KT 5000 BR OVC001 M07/M08 Q1026=
200601272120 METAR ESMX 272120Z AUTO 29004KT 4900 BR OVC001 M07/M07 Q1025=
200601272050 METAR ESMX 272050Z AUTO VRB03KT 9999 OVC001 M07/M08 Q1025=
200601272020 METAR ESMX 272020Z AUTO VRB03KT 9999 BKN001 M07/M08 Q1025=
200601271950 METAR ESMX 271950Z AUTO VRB03KT 9999 FEW002 M07/M08 Q1025=
200601271920 METAR ESMX 271920Z AUTO VRB03KT 9999 NSC M07/M08 Q1025=
200601271850 METAR ESMX 271850Z AUTO VRB03KT 9999 NSC M07/M07 Q1025=
200601271820 METAR ESMX 271820Z VRB03KT CAVOK M07/M07 Q1025=
200601271750 METAR ESMX 271750Z VRB03KT CAVOK M06/M07 Q1025=
200601271720 METAR ESMX 271720Z 30004KT 250V330 CAVOK M05/M06 Q1025=
200601271650 METAR ESMX 271650Z VRB03KT CAVOK M05/M06 Q1025=
200601271620 METAR ESMX 271620Z 29005KT CAVOK M04/M06 Q1025=
200601271550 METAR ESMX 271550Z 29005KT CAVOK M04/M06 Q1025=
200601271520 METAR ESMX 271520Z 29006KT CAVOK M03/M05 Q1024=
200601271450 METAR ESMX 271450Z 27006KT 230V300 CAVOK M02/M05 Q1024=
200601271420 METAR ESMX 271420Z 27004KT CAVOK M02/M05 Q1024=
200601271350 METAR ESMX 271350Z 26006KT CAVOK M02/M05 Q1024=
200601271320 METAR ESMX 271320Z 26005KT CAVOK M01/M05 Q1024=
200601271250 METAR ESMX 271250Z 27005KT CAVOK M01/M05 Q1024=
200601271220 METAR ESMX 271220Z 28004KT CAVOK M03/M05 Q1025=
200601271150 METAR ESMX 271150Z 28005KT CAVOK M03/M05 Q1025=
200601271120 METAR ESMX 271120Z 31005KT 280V340 CAVOK M04/M05 Q1025=
200601271020 METAR ESMX 271020Z VRB03KT CAVOK M06/M06 Q1024=
200601270920 METAR ESMX 270920Z VRB03KT CAVOK M07/M07 Q1025=
200601270850 METAR ESMX 270850Z VRB03KT CAVOK M07/M07 Q1025=
200601270820 METAR ESMX 270820Z VRB02KT CAVOK M07/M08 Q1025=
200601270750 METAR ESMX 270750Z VRB03KT CAVOK M08/M09 Q1025=
200601270720 METAR ESMX 270720Z 27004KT CAVOK M08/M09 Q1025=
200601270650 METAR ESMX 270650Z 28004KT CAVOK M08/M09 Q1025=
200601270550 METAR ESMX 270550Z VRB03KT 9999 IC NSC M07/M08 Q1025=
200601270520 METAR ESMX 270520Z VRB03KT CAVOK M07/M08 Q1025=
200601270450 METAR ESMX 270450Z VRB02KT CAVOK M08/M09 Q1025=
200601270420 METAR ESMX 270420Z AUTO VRB02KT 2000 IC OVC070 M08/M09 Q1026=
200601270350 METAR ESMX 270350Z AUTO VRB02KT 1100 R01/P1500N R19/P1500N IC OVC072 M09/M10 Q1025=
200601270320 METAR ESMX 270320Z AUTO 00000KT 9999 OVC085 M11/M12 Q1026=
200601270250 METAR ESMX 270250Z AUTO 00000KT 9999 FEW046 M11/M12 Q1025=
200601270220 METAR ESMX 270220Z AUTO VRB01KT 9999 BKN048 M11/M12 Q1026 RESN=
200601270150 METAR ESMX 270150Z AUTO VRB02KT 4500 IC OVC050 M09/M10 Q1026=
200601270120 METAR ESMX 270120Z AUTO VRB02KT 5000 IC SCT050 M11/M11 Q1026=
200601270050 METAR ESMX 270050Z VRB02KT CAVOK M10/M11 Q1026=
200601270020 METAR ESMX 270020Z VRB02KT CAVOK M12/M13 Q1026=
200601262350 METAR ESMX 262350Z VRB01KT CAVOK M12/M13 Q1026=
200601262320 METAR ESMX 262320Z VRB01KT CAVOK M12/M13 Q1026=
200601262250 METAR ESMX 262250Z VRB01KT CAVOK M12/M13 Q1027=
200601262220 METAR ESMX 262220Z 00000KT CAVOK M12/M13 Q1027=
200601262150 METAR ESMX 262150Z VRB01KT CAVOK M11/M12 Q1027=
200601262120 METAR ESMX 262120Z VRB02KT CAVOK M11/M12 Q1027=
200601262050 METAR ESMX 262050Z VRB02KT CAVOK M10/M11 Q1027=
200601262020 METAR ESMX 262020Z VRB02KT CAVOK M10/M11 Q1027=
200601261950 METAR ESMX 261950Z 00000KT CAVOK M11/M12 Q1027=
200601261920 METAR ESMX 261920Z 00000KT CAVOK M11/M12 Q1027=
200601261850 METAR ESMX 261850Z VRB01KT CAVOK M11/M12 Q1027=
200601261820 METAR ESMX 261820Z VRB02KT CAVOK M09/M10 Q1027=
200601261750 METAR ESMX 261750Z 00000KT CAVOK M10/M10 Q1027=
200601261720 METAR ESMX 261720Z VRB02KT 9999 BCFG SKC M09/M10 Q1027=
200601261650 METAR ESMX 261650Z VRB01KT 9999 BCFG SKC M08/M09 Q1027=
200601261620 METAR ESMX 261620Z VRB01KT CAVOK M07/M08 Q1027=
200601261550 METAR ESMX 261550Z VRB01KT CAVOK M06/M07 Q1027=
200601261520 METAR ESMX 261520Z VRB01KT CAVOK M04/M06 Q1026=
200601261450 METAR ESMX 261450Z VRB03KT CAVOK M03/M06 Q1026=
200601261420 METAR ESMX 261420Z 33004KT CAVOK M03/M06 Q1027=
200601261350 METAR ESMX 261350Z 36004KT CAVOK M02/M06 Q1027=
200601261320 METAR ESMX 261320Z 36007KT 9999 NSC M02/M06 Q1027=
200601261250 METAR ESMX 261250Z 01007KT 9999 SCT015 M02/M05 Q1027=
200601261220 METAR ESMX 261220Z 01009KT 9999 BKN016 M02/M05 Q1027=
200601261150 METAR ESMX 261150Z 01008KT 9999 BKN015 M02/M05 Q1027=
200601261120 METAR ESMX 261120Z 01008KT 9999 BKN015 M02/M05 Q1027=
200601261050 METAR ESMX 261050Z 36008KT 9999 BKN015 M02/M05 Q1027=
200601261020 METAR ESMX 261020Z 04006KT 360V070 9999 BKN015 M02/M05 Q1026=
200601260950 METAR ESMX 260950Z 02007KT 350V050 9999 BKN014 M02/M05 Q1027=
200601260920 METAR ESMX 260920Z 36008KT 9999 BKN014 M02/M05 Q1026=
200601260850 METAR ESMX 260850Z 01009KT 9999 BKN014 M02/M05 Q1026=
200601260820 METAR ESMX 260820Z 01009KT 9999 BKN015 M02/M04 Q1026=
200601260750 METAR ESMX 260750Z 36010KT 9999 BKN012 M02/M04 Q1025=
200601260720 METAR ESMX 260720Z 36007KT 9999 FEW013 SCT015 BKN020 M02/M04 Q1025=
200601260650 METAR ESMX 260650Z 01008KT 9999 SCT013 BKN023 M02/M04 Q1025=
200601260620 METAR ESMX 260620Z 01009KT 9999 FEW015 BKN025 M02/M04 Q1024=
200601260550 METAR ESMX 260550Z 02009KT 9999 SCT014 BKN018 BKN024 M02/M04 Q1024=
200601260520 METAR ESMX 260520Z 01011KT 9999 SCT014 BKN018 M02/M04 Q1024=
200601260450 METAR ESMX 260450Z 02009KT 9999 FEW014 BKN018 M02/M04 Q1024=
200601260420 METAR ESMX 260420Z 02010KT 9999 FEW013 BKN016 BKN020 M02/M04 Q1024=
200601260350 METAR ESMX 260350Z AUTO 02010KT 9999 FEW015 BKN017 OVC025 M02/M04 Q1024 RESN=
200601260320 METAR ESMX 260320Z AUTO 02009KT 9999 -SN SCT012 BKN016 OVC024 M02/M03 Q1024=
200601260250 METAR ESMX 260250Z AUTO 02010KT 9999 FEW011 SCT014 BKN017 M02/M03 Q1023=
200601260220 METAR ESMX 260220Z AUTO 02011KT 9999 OVC011 M02/M03 Q1023=
200601260150 METAR ESMX 260150Z AUTO 02010KT 9999 OVC013 M02/M03 Q1023=
200601260120 METAR ESMX 260120Z 02010KT 9999 BKN012 M02/M03 Q1023=
200601260050 METAR ESMX 260050Z 01011KT 9999 BKN013 M02/M04 Q1023=
200601260020 METAR ESMX 260020Z 01010KT 9999 BKN014 M02/M04 Q1023=
200601252350 METAR ESMX 252350Z 01009KT 9999 BKN014 M02/M04 Q1022=
200601252320 METAR ESMX 252320Z 01008KT 9999 BKN014 M02/M04 Q1022=
200601252250 METAR ESMX 252250Z 01008KT 9999 BKN014 M02/M03 Q1022=
200601252220 METAR ESMX 252220Z 02008KT 9999 FEW015 BKN017 M01/M03 Q1022=
200601252150 METAR ESMX 252150Z 01010KT 9999 FEW016 BKN020 M01/M03 Q1022=
200601252120 METAR ESMX 252120Z 01008KT 9999 FEW015 BKN018 M01/M03 Q1021=
200601252050 METAR ESMX 252050Z 01010KT 9999 SCT014 BKN017 BKN023 M01/M03 Q1021=
200601252020 METAR ESMX 252020Z 01008KT 9999 SCT015 BKN019 M01/M03 Q1021=
200601251950 METAR ESMX 251950Z 02010KT 9999 FEW015 BKN017 M01/M03 Q1021=
200601251920 METAR ESMX 251920Z 02012KT 9999 FEW015 BKN018 M01/M03 Q1021=
200601251850 METAR ESMX 251850Z 02010KT 9999 -SN FEW014 BKN017 M01/M03 Q1020=
200601251820 METAR ESMX 251820Z 01009KT 9999 FEW016 BKN019 M01/M03 Q1020=
200601251750 METAR ESMX 251750Z 35010KT 9999 SCT020 BKN035 M01/M03 Q1020=
200601251720 METAR ESMX 251720Z 02007KT 9999 OVC028 M01/M03 Q1020=
200601251650 METAR ESMX 251650Z 02007KT 9999 FEW014 OVC026 M01/M03 Q1020=
200601251620 METAR ESMX 251620Z 01010KT 9999 OVC012 M02/M03 Q1019=
200601251550 METAR ESMX 251550Z 02008KT 9999 BKN010 OVC013 M01/M02 Q1019=
200601251520 METAR ESMX 251520Z 01009KT 9999 OVC010 M01/M02 Q1019=
200601251450 METAR ESMX 251450Z 01007KT 9999 OVC009 M01/M02 Q1018=
200601251420 METAR ESMX 251420Z 01009KT 9000 BR SCT008 BKN020 M01/M02 Q1018=
200601251350 METAR ESMX 251350Z 01008KT 8000 BR FEW009 OVC012 M01/M02 Q1018=
200601251320 METAR ESMX 251320Z 01007KT 8000 BR OVC007 M01/M02 Q1018=
200601251250 METAR ESMX 251250Z 01007KT 5000 SCT007 OVC032 M01/M03 Q1018 RESN=
200601251220 METAR ESMX 251220Z 36006KT 4200 -SHSN FEW024 BKN028 M02/M03 Q1017=
200601251150 METAR ESMX 251150Z 02008KT 4200 -SHSN OVC006 M02/M03 Q1017=
200601251120 METAR ESMX 251120Z 01004KT 4400 -SHSN OVC006 M03/M04 Q1017=
200601251050 METAR ESMX 251050Z 35004KT 3900 -SHSN OVC007 M03/M04 Q1018=
200601251020 METAR ESMX 251020Z VRB03KT 3400 -SN OVC010 M03/M04 Q1017=
200601250950 METAR ESMX 250950Z VRB03KT 3000 BR BKN010 M04/M04 Q1017=
200601250920 METAR ESMX 250920Z VRB03KT 2600 BR FEW025 BKN058 M04/M05 Q1017=
200601250850 METAR ESMX 250850Z VRB02KT 2200 -SN FEW027 BKN034 M04/M04 Q1017=
200601250820 METAR ESMX 250820Z VRB01KT 2200 -SN BKN027 M04/M04 Q1017=
200601250750 METAR ESMX 250750Z VRB01KT 2000 -SN BKN018 M04/M04 Q1017=
200601250720 METAR ESMX 250720Z 00000KT 2600 -SN OVC015 M04/M04 Q1017=
200601250650 METAR ESMX 250650Z VRB02KT 3000 -SN OVC011 M04/M04 Q1017=
200601250620 METAR ESMX 250620Z 00000KT 3400 -SN SCT012 OVC020 M04/M04 Q1016=
200601250550 METAR ESMX 250550Z VRB02KT 3300 -SN BKN016 OVC020 M04/M04 Q1016=
200601250520 METAR ESMX 250520Z VRB02KT 3100 -SN SCT016 BKN021 M04/M04 Q1017=
200601250450 METAR ESMX 250450Z VRB03KT 3000 -SN BKN015 M04/M05 Q1017=
200601250420 METAR ESMX 250420Z AUTO VRB03KT 1900 -SN FEW016 M04/M04 Q1017=
200601250350 METAR ESMX 250350Z AUTO 17004KT 1600 -SN NSC M04/M05 Q1017=
200601250320 METAR ESMX 250320Z AUTO VRB03KT 2500 -SN BKN011 M04/M05 Q1017=
200601250250 METAR ESMX 250250Z AUTO 17004KT 1000 R01/P1500N R19/P1500N -SN OVC011 M04/M05 Q1018=
200601250220 METAR ESMX 250220Z AUTO 18006KT 3000 -SN OVC009 M04/M05 Q1018=
200601250150 METAR ESMX 250150Z AUTO 18008KT 7000 OVC009 M04/M05 Q1018 RESN=
200601250120 METAR ESMX 250120Z 19008KT 7000 -SN BR OVC010 M04/M06 Q1019=
200601250050 METAR ESMX 250050Z 20007KT 7000 BR OVC010 M04/M06 Q1019=
200601250020 METAR ESMX 250020Z 19008KT 7000 BR OVC011 M04/M06 Q1020=
200601242350 METAR ESMX 242350Z 21008KT 7000 BR OVC010 M04/M06 Q1020=
200601242320 METAR ESMX 242320Z 19010KT 7000 BR BKN009 M04/M06 Q1021=
200601242250 METAR ESMX 242250Z 20008KT 7000 BR OVC010 M04/M06 Q1021=
200601242220 METAR ESMX 242220Z 22008KT 8000 BR BKN010 M04/M06 Q1022=
200601242150 METAR ESMX 242150Z 21011KT 8000 BR BKN010 M05/M06 Q1022=
200601242120 METAR ESMX 242120Z 20009KT 8000 BR BKN010 M05/M07 Q1023=
200601242050 METAR ESMX 242050Z 22007KT 8000 BR BKN011 M05/M07 Q1023=
200601242020 METAR ESMX 242020Z 22006KT 8000 BR FEW012 SCT048 M05/M07 Q1024=
200601241950 METAR ESMX 241950Z 20006KT 7000 BR FEW040 M05/M07 Q1024=
200601241920 METAR ESMX 241920Z 22008KT 7000 BR NSC M05/M07 Q1025=
200601241850 METAR ESMX 241850Z 19012KT 7000 BR FEW019 SCT065 M05/M07 Q1025=
200601241820 METAR ESMX 241820Z 19010KT 9000 BR NSC M06/M07 Q1026=
200601241750 METAR ESMX 241750Z 21008KT 8000 BR SCT045 M06/M07 Q1027=
200601241720 METAR ESMX 241720Z 19009KT CAVOK M06/M08 Q1027=
200601241650 METAR ESMX 241650Z 18007KT CAVOK M06/M08 Q1028=
200601241620 METAR ESMX 241620Z 18008KT CAVOK M06/M08 Q1028=
200601241550 METAR ESMX 241550Z 18008KT CAVOK M06/M08 Q1029=
200601241520 METAR ESMX 241520Z 19008KT CAVOK M06/M08 Q1029=
200601241450 METAR ESMX 241450Z 19008KT CAVOK M06/M08 Q1030=
200601241420 METAR ESMX 241420Z 18010KT CAVOK M06/M08 Q1030=
200601241350 METAR ESMX 241350Z 18010KT CAVOK M06/M09 Q1030=
200601241320 METAR ESMX 241320Z 19010KT CAVOK M06/M09 Q1031=
200601241250 METAR ESMX 241250Z 19010KT CAVOK M06/M09 Q1032=
200601241220 METAR ESMX 241220Z 19009KT CAVOK M07/M09 Q1032=
200601241150 METAR ESMX 241150Z 20008KT CAVOK M07/M09 Q1033=
200601241120 METAR ESMX 241120Z 19009KT CAVOK M07/M09 Q1033=
200601241050 METAR ESMX 241050Z 19009KT CAVOK M07/M10 Q1034=
200601241020 METAR ESMX 241020Z 19008KT CAVOK M08/M10 Q1035=
200601240950 METAR ESMX 240950Z 21008KT CAVOK M08/M10 Q1035=
200601240920 METAR ESMX 240920Z 21007KT CAVOK M09/M10 Q1035=
200601240850 METAR ESMX 240850Z 20007KT CAVOK M09/M10 Q1035=
200601240820 METAR ESMX 240820Z 18007KT 9999 BKN006 M09/M10 Q1036=
200601240750 METAR ESMX 240750Z 18008KT 9999 BKN006 M09/M10 Q1036=
200601240720 METAR ESMX 240720Z 21007KT 9999 BKN006 M09/M10 Q1036=
200601240650 METAR ESMX 240650Z 21008KT 9999 BKN007 M09/M10 Q1036=
200601240620 METAR ESMX 240620Z 21008KT 9999 BKN006 M09/M10 Q1037=
200601240550 METAR ESMX 240550Z 19009KT 9999 BKN006 M09/M10 Q1037=
200601240520 METAR ESMX 240520Z 21008KT 9999 BKN007 M09/M10 Q1037=
200601240450 METAR ESMX 240450Z 21008KT 9999 BKN007 M09/M10 Q1038=
200601240420 METAR ESMX 240420Z AUTO 20007KT 9999 FEW009 M09/M10 Q1038=
200601240350 METAR ESMX 240350Z AUTO 19008KT 9999 FEW110 M09/M10 Q1038=
200601240320 METAR ESMX 240320Z AUTO 19007KT 9999 NSC M09/M10 Q1039=
200601240250 METAR ESMX 240250Z AUTO 19006KT 9999 NSC M08/M09 Q1039=
200601240220 METAR ESMX 240220Z AUTO 19006KT 9999 NSC M09/M09 Q1039=
200601240150 METAR ESMX 240150Z AUTO 21007KT 9999 FEW110 M09/M10 Q1040=
200601240020 METAR ESMX 240020Z 19006KT 9999 SCT009 M09/M10 Q1041=
200601232320 METAR ESMX 232320Z 19008KT 9999 BKN009 OVC013 M08/M09 Q1041=
200601232250 METAR ESMX 232250Z 20008KT 9999 OVC009 M07/M09 Q1041=
200601232220 METAR ESMX 232220Z 20007KT 9999 OVC009 M07/M08 Q1042=
200601232150 METAR ESMX 232150Z 22008KT 9999 OVC011 M07/M08 Q1042=
200601232120 METAR ESMX 232120Z 21008KT 9999 BKN010 M07/M08 Q1042=
200601232050 METAR ESMX 232050Z 21008KT 9999 BKN010 M07/M08 Q1042=
200601232020 METAR ESMX 232020Z 23008KT 9999 BKN010 M07/M08 Q1042=
200601231950 METAR ESMX 231950Z 21008KT 170V240 9999 BKN010 M07/M08 Q1043=
200601231920 METAR ESMX 231920Z 23008KT 9999 SCT008 OVC011 M07/M08 Q1043=
200601231850 METAR ESMX 231850Z 22006KT 170V250 9999 OVC008 M07/M08 Q1043=
200601231820 METAR ESMX 231820Z 22007KT 9999 BKN010 M07/M08 Q1043=
200601231750 METAR ESMX 231750Z 23007KT 190V270 9999 BKN011 OVC090 M07/M08 Q1043=
200601231720 METAR ESMX 231720Z 21007KT 9999 SCT012 BKN090 M07/M08 Q1043=
200601231650 METAR ESMX 231650Z 24008KT 9999 FEW012 BKN085 M07/M08 Q1043=
200601231620 METAR ESMX 231620Z 22006KT 9999 SCT014 BKN085 M07/M08 Q1044=
200601231550 METAR ESMX 231550Z 23005KT 9999 SCT012 BKN090 M07/M08 Q1044=
200601231520 METAR ESMX 231520Z 21005KT CAVOK M07/M08 Q1044=
200601231450 METAR ESMX 231450Z 24004KT CAVOK M06/M08 Q1044=
200601231420 METAR ESMX 231420Z 23005KT 200V260 CAVOK M06/M09 Q1044=
200601231350 METAR ESMX 231350Z 22005KT CAVOK M06/M08 Q1044=
200601231320 METAR ESMX 231320Z 23007KT CAVOK M06/M08 Q1044=
200601231250 METAR ESMX 231250Z 24007KT 190V280 CAVOK M07/M08 Q1044=
200601231220 METAR ESMX 231220Z 23007KT CAVOK M07/M08 Q1044=
200601231150 METAR ESMX 231150Z 20006KT 160V230 CAVOK M08/M09 Q1045=
200601231120 METAR ESMX 231120Z 18005KT 9000 BR SCT080 M09/M09 Q1045=
200601231050 METAR ESMX 231050Z 21004KT 6000 BR FEW005 SCT035 M09/M10 Q1045=
200601231020 METAR ESMX 231020Z 22004KT 2500 BR BKN001 M10/M11 Q1045=
200601230950 METAR ESMX 230950Z 22005KT 2500 BR OVC002 M10/M11 Q1045=
200601230920 METAR ESMX 230920Z 20005KT 7000 BR BKN003 M12/M13 Q1045=
200601230850 METAR ESMX 230850Z 00000KT 9999 FEW005 M14/M15 Q1045=
200601230820 METAR ESMX 230820Z 00000KT 9999 SCT002 M14/M16 Q1045=
200601230750 METAR ESMX 230750Z VRB01KT 9999 BKN002 M15/M16 Q1045=
200601230720 METAR ESMX 230720Z VRB01KT 9999 BKN002 M16/M18 Q1045=
200601230650 METAR ESMX 230650Z 00000KT 9999 BKN002 M17/M18 Q1045=
200601230620 METAR ESMX 230620Z 00000KT 9999 SCT002 M17/M19 Q1045=
200601230550 METAR ESMX 230550Z 00000KT 9999 FEW003 M18/M20 Q1045=
200601230520 METAR ESMX 230520Z 00000KT 9999 FEW003 M18/M20 Q1045=
200601230450 METAR ESMX 230450Z 00000KT 8000 BR BKN001 M19/M21 Q1045=
200601230420 METAR ESMX 230420Z AUTO 00000KT 0450 R01/P1500U R19/P1500U -SN VV000 M19/M21 Q1045=
200601230350 METAR ESMX 230350Z AUTO 00000KT 0550 R01/P1500D R19/P1500N IC VV000 M19/M21 Q1045=
200601230320 METAR ESMX 230320Z AUTO 00000KT 5000 IC VV001 M20/M22 Q1045=
200601230250 METAR ESMX 230250Z AUTO 00000KT 9999 VV001 M20/M22 Q1046=
200601230220 METAR ESMX 230220Z AUTO 00000KT 9999 VV000 M19/M21 Q1046=
200601230150 METAR ESMX 230150Z 00000KT 9999 BKN001 M19/M21 Q1046=
200601230120 METAR ESMX 230120Z 00000KT 9999 BKN001 M20/M21 Q1046=
200601230050 METAR ESMX 230050Z 00000KT 9999 BKN001 M20/M21 Q1046=
200601230020 METAR ESMX 230020Z 00000KT 9999 BKN001 M20/M21 Q1046=
200601222350 METAR ESMX 222350Z 00000KT CAVOK M19/M21 Q1046=
200601222320 METAR ESMX 222320Z 00000KT CAVOK M19/M21 Q1046=
200601222250 METAR ESMX 222250Z 00000KT CAVOK M19/M21 Q1046=
200601222220 METAR ESMX 222220Z 00000KT CAVOK M19/M21 Q1046=
200601222150 METAR ESMX 222150Z 00000KT CAVOK M19/M21 Q1046=
200601222120 METAR ESMX 222120Z 00000KT CAVOK M19/M21 Q1045=
200601222050 METAR ESMX 222050Z 00000KT CAVOK M18/M20 Q1046=
200601222020 METAR ESMX 222020Z 00000KT CAVOK M18/M20 Q1045=
200601221950 METAR ESMX 221950Z 00000KT CAVOK M18/M20 Q1045=
200601221920 METAR ESMX 221920Z 00000KT CAVOK M17/M19 Q1045=
200601221850 METAR ESMX 221850Z 00000KT CAVOK M17/M18 Q1045=
200601221820 METAR ESMX 221820Z 00000KT CAVOK M16/M18 Q1045=
200601221750 METAR ESMX 221750Z 00000KT CAVOK M16/M18 Q1045=
200601221720 METAR ESMX 221720Z 00000KT CAVOK M15/M17 Q1044=
200601221650 METAR ESMX 221650Z VRB01KT CAVOK M14/M15 Q1044=
200601221620 METAR ESMX 221620Z 00000KT CAVOK M14/M14 Q1044=
200601221550 METAR ESMX 221550Z 00000KT CAVOK M13/M14 Q1044=
200601221520 METAR ESMX 221520Z 00000KT CAVOK M13/M14 Q1044=
200601221450 METAR ESMX 221450Z VRB01KT 9999 NSC M08/M11 Q1043=
200601221420 METAR ESMX 221420Z VRB02KT CAVOK M08/M11 Q1043=
200601221350 METAR ESMX 221350Z VRB03KT CAVOK M08/M10 Q1043=
200601221320 METAR ESMX 221320Z AUTO VRB02KT 9999 NSC M08/M10 Q1043=
200601221250 METAR ESMX 221250Z AUTO VRB02KT 9999 NSC M09/M10 Q1043=
200601221220 METAR ESMX 221220Z AUTO VRB02KT 9999 NSC M09/M11 Q1043=
200601221150 METAR ESMX 221150Z AUTO VRB03KT 9999 NSC M10/M12 Q1043=
200601221120 METAR ESMX 221120Z AUTO 36004KT 9999 NSC M11/M13 Q1043=
200601221050 METAR ESMX 221050Z AUTO VRB02KT 9999 NSC M13/M14 Q1043=
200601221020 METAR ESMX 221020Z AUTO VRB01KT 9999 NSC M13/M14 Q1043=
200601220950 METAR ESMX 220950Z AUTO VRB02KT 9999 NSC M14/M15 Q1043=
200601220920 METAR ESMX 220920Z AUTO VRB02KT 9999 NSC M15/M16 Q1043=
200601220850 METAR ESMX 220850Z AUTO VRB02KT 9999 NSC M16/M17 Q1042=
200601220820 METAR ESMX 220820Z AUTO 00000KT 9999 NSC M18/M19 Q1042=
200601220750 METAR ESMX 220750Z AUTO 00000KT 9999 NSC M19/M20 Q1042=
200601220720 METAR ESMX 220720Z AUTO 00000KT 9999 NSC M19/M21 Q1041=
200601220650 METAR ESMX 220650Z AUTO VRB01KT 9999 NSC M19/M20 Q1041=
200601220620 METAR ESMX 220620Z AUTO VRB02KT 9999 NSC M19/M21 Q1040=
200601220550 METAR ESMX 220550Z AUTO VRB01KT 9999 NSC M18/M20 Q1040=
200601220520 METAR ESMX 220520Z AUTO VRB01KT 9999 NSC M18/M19 Q1039=
200601220450 METAR ESMX 220450Z AUTO VRB01KT 9999 NSC M18/M19 Q1039=
200601220420 METAR ESMX 220420Z AUTO VRB03KT 9999 NSC M16/M17 Q1039=
200601220350 METAR ESMX 220350Z AUTO VRB03KT 9999 NSC M16/M17 Q1039=
200601220320 METAR ESMX 220320Z AUTO VRB03KT 9999 NSC M15/M17 Q1038=
200601220250 METAR ESMX 220250Z AUTO 34004KT 9999 NSC M15/M16 Q1038=
200601220220 METAR ESMX 220220Z AUTO 36004KT 9999 NSC M15/M17 Q1038=
200601220150 METAR ESMX 220150Z AUTO 01005KT 9999 NSC M15/M16 Q1037=
200601220120 METAR ESMX 220120Z AUTO 02005KT 9999 NSC M15/M16 Q1037=
200601220050 METAR ESMX 220050Z AUTO 36005KT 9999 NSC M15/M17 Q1037=
200601220020 METAR ESMX 220020Z AUTO 02004KT 9999 NSC M15/M16 Q1036=
200601212350 METAR ESMX 212350Z AUTO 36004KT 9999 NSC M14/M15 Q1036=
200601212320 METAR ESMX 212320Z AUTO 01005KT 9999 NSC M14/M15 Q1036=
200601212250 METAR ESMX 212250Z AUTO 02005KT 9999 NSC M14/M15 Q1035=
200601212220 METAR ESMX 212220Z AUTO 03004KT 9999 NSC M13/M14 Q1035=
200601212150 METAR ESMX 212150Z AUTO 04005KT 9999 NSC M13/M14 Q1034=
200601212120 METAR ESMX 212120Z AUTO 01004KT 9999 NSC M13/M14 Q1034=
200601212050 METAR ESMX 212050Z AUTO 03004KT 9999 NSC M13/M14 Q1033=
200601212020 METAR ESMX 212020Z AUTO 36004KT 9999 NSC M13/M14 Q1033=
200601211950 METAR ESMX 211950Z AUTO 01004KT 9999 NSC M12/M13 Q1032 RESN=
200601211920 METAR ESMX 211920Z AUTO 04004KT 020V080 9999 NSC M11/M12 Q1031 RESN=
200601211850 METAR ESMX 211850Z AUTO 03004KT 360V080 9999 -SHSN FEW008 SCT010 M11/M12 Q1031=
200601211820 METAR ESMX 211820Z AUTO 04005KT 9999 NSC M10/M12 Q1031 RESN=
200601211750 METAR ESMX 211750Z AUTO 04005KT 010V100 9999 NSC M10/M11 Q1030 RESN=
200601211720 METAR ESMX 211720Z AUTO 03006KT 350V060 9999 -SN FEW007 SCT021 M09/M11 Q1029=
200601211650 METAR ESMX 211650Z AUTO 04007KT 350V080 9999 -SN FEW008 SCT015 M09/M11 Q1029=
200601211620 METAR ESMX 211620Z AUTO 04007KT 340V080 9999 -SN FEW008 BKN013 M09/M11 Q1028=
200601211550 METAR ESMX 211550Z AUTO 06009KT 020V110 9999 -SN FEW008 SCT014 OVC018 M08/M10 Q1027=
200601211520 METAR ESMX 211520Z AUTO 04007G18KT 360V090 4000 -SN FEW011 SCT016 BKN019 M08/M09 Q1026=
200601211450 METAR ESMX 211450Z AUTO 07007KT 030V120 4900 -SN FEW014 BKN017 BKN023 M07/M09 Q1025=
200601211420 METAR ESMX 211420Z AUTO 07009KT 8000 -SN FEW012 SCT018 BKN020 M07/M09 Q1024=
200601211350 METAR ESMX 211350Z AUTO 07007KT 030V130 4100 -SN FEW010 SCT019 BKN026 M06/M08 Q1023=
200601211320 METAR ESMX 211320Z AUTO 09008KT 050V130 9000 -SN FEW008 BKN020 M06/M08 Q1022=
200601211250 METAR ESMX 211250Z AUTO 06010KT 010V100 2200 -SN FEW010 SCT018 BKN028 M06/M07 Q1021=
200601211220 METAR ESMX 211220Z AUTO 08011KT 030V140 9999 -SN FEW018 OVC021 M06/M08 Q1021=
200601211150 METAR ESMX 211150Z AUTO 07008KT 360V120 4200 -SN FEW016 SCT027 M06/M08 Q1020=
200601211120 METAR ESMX 211120Z 09009KT 040V140 2000 SN VV010 M06/M07 Q1020=
200601211050 METAR ESMX 211050Z 08009KT 040V150 6000 -SN FEW007 SCT015 BKN020 M06/M07 Q1019=
200601211020 METAR ESMX 211020Z 08008KT 030V150 2000 -SN FEW006 BKN016 M06/M07 Q1018=
200601210950 METAR ESMX 210950Z 09009KT 030V160 4800 -SN FEW013 BKN020 M06/M07 Q1017=
200601210920 METAR ESMX 210920Z 08007KT 030V140 3200 -SN FEW013 BKN015 M06/M07 Q1017=
200601210850 METAR ESMX 210850Z 05005KT 020V110 1800 SN VV010 M06/M07 Q1016=
200601210820 METAR ESMX 210820Z 09006KT 040V140 2000 -SN FEW007 BKN015 M06/M07 Q1016=
200601210750 METAR ESMX 210750Z AUTO 09008KT 030V140 3300 -SN FEW006 M06/M07 Q1015=
200601210720 METAR ESMX 210720Z AUTO 09007KT 020V140 2500 SG FEW009 M07/M07 Q1014=
200601210650 METAR ESMX 210650Z AUTO 08007KT 030V150 3400 IC FEW015 SCT020 M06/M07 Q1013=
200601210620 METAR ESMX 210620Z AUTO 09007KT 030V120 3700 SG FEW015 M06/M07 Q1013=
200601210550 METAR ESMX 210550Z AUTO 08008KT 040V130 4100 -SN FEW014 M06/M07 Q1012=
200601210520 METAR ESMX 210520Z AUTO 08007KT 030V130 2400 -SN NSC M06/M07 Q1011=
200601210450 METAR ESMX 210450Z AUTO 09008KT 060V140 1500 -SN SCT006 BKN009 M06/M07 Q1011=
200601210420 METAR ESMX 210420Z AUTO 09007KT 040V130 1400 R01/P1500N R19/P1500N -SN FEW006 SCT009 M06/M07 Q1011=
200601210350 METAR ESMX 210350Z AUTO 09007KT 050V160 2000 -SN FEW013 M06/M07 Q1010=
200601210320 METAR ESMX 210320Z AUTO 09006KT 050V140 2300 -SN FEW006 M06/M07 Q1010=
200601210250 METAR ESMX 210250Z AUTO 09007KT 050V150 1400 R01/P1500N R19/P1500N -SN FEW006 SCT007 M06/M07 Q1010=
200601210220 METAR ESMX 210220Z AUTO 10007KT 030V140 2400 -SN FEW011 M06/M07 Q1010=
200601210150 METAR ESMX 210150Z AUTO 10006KT 060V150 2500 -SN FEW008 SCT018 M06/M07 Q1009=
200601210120 METAR ESMX 210120Z AUTO 11006KT 060V150 2500 -SN FEW009 SCT016 M06/M07 Q1009=
200601210050 METAR ESMX 210050Z AUTO 10006KT 030V150 2100 -SN FEW006 SCT007 M06/M07 Q1009=
200601210020 METAR ESMX 210020Z AUTO 12007KT 070V160 1300 R01/P1500N R19/P1500N -SN FEW006 SCT007 BKN010 M06/M07 Q1009=
200601202350 METAR ESMX 202350Z AUTO 12006KT 080V170 1700 -SN FEW007 SCT014 BKN018 M06/M07 Q1009=
200601202320 METAR ESMX 202320Z AUTO 13006KT 070V170 1400 R01/P1500N R19/P1500N -SN BKN005 BKN009 M06/M07 Q1009=
200601202250 METAR ESMX 202250Z AUTO 12009G19KT 090V160 1000 R01/P1500N R19/P1500N -SN BKN005 BKN008 M06/M07 Q1009=
200601202220 METAR ESMX 202220Z AUTO 13008KT 080V170 0900 R01/P1500N R19/P1500N SN OVC005 M06/M07 Q1010=
200601202150 METAR ESMX 202150Z AUTO 13010KT 080V170 1500 -SN SCT005 BKN012 BKN017 M06/M07 Q1009=
200601202120 METAR ESMX 202120Z AUTO 12010KT 080V160 1900 -SN FEW006 SCT008 BKN013 M06/M07 Q1009=
200601202050 METAR ESMX 202050Z AUTO 12010G22KT 070V190 2100 -SN FEW006 SCT009 OVC011 M06/M08 Q1010=
200601202020 METAR ESMX 202020Z AUTO 13012G23KT 080V160 2600 -SN OVC010 M06/M08 Q1010=
200601201950 METAR ESMX 201950Z AUTO 12012G23KT 080V160 5000 SG OVC011 M06/M08 Q1010=
200601201920 METAR ESMX 201920Z AUTO 12011KT 050V170 4300 -SN FEW006 SCT008 BKN014 M07/M08 Q1011=
200601201850 METAR ESMX 201850Z 13010KT 080V160 1600 -SN FEW006 SCT012 BKN015 M07/M08 Q1011=
200601201820 METAR ESMX 201820Z 13010KT 060V170 2500 -SN FEW012 BKN015 M07/M08 Q1012=
200601201750 METAR ESMX 201750Z 13012G23KT 080V170 2500 -SN FEW009 BKN015 M07/M08 Q1012=
200601201720 METAR ESMX 201720Z 12011KT 080V190 1600 SN FEW008 BKN015 M07/M09 Q1013=
200601201650 METAR ESMX 201650Z 13011KT 080V170 1800 SN FEW012 BKN016 M07/M09 Q1013=
200601201620 METAR ESMX 201620Z 12011KT 050V190 3500 -SN FEW012 BKN015 M07/M09 Q1014=
200601201550 METAR ESMX 201550Z 13010G20KT 080V170 9000 -SN FEW013 BKN015 OVC050 M07/M09 Q1015=
200601201520 METAR ESMX 201520Z 12012KT 060V170 3200 -SN FEW007 BKN015 M08/M09 Q1015=
200601201450 METAR ESMX 201450Z 13010G20KT 090V170 3000 -SN FEW006 BKN008 M07/M09 Q1016=
200601201420 METAR ESMX 201420Z 12009G21KT 060V160 2000 -SN FEW007 BKN015 M07/M09 Q1016=
200601201350 METAR ESMX 201350Z 12009G20KT 080V160 2500 -SN FEW007 BKN016 M07/M09 Q1017=
200601201320 METAR ESMX 201320Z 13008KT 080V170 2000 -SN FEW006 BKN010 M07/M09 Q1017=
200601201250 METAR ESMX 201250Z 13010G20KT 090V200 1300 R19/1400N SN FEW006 BKN010 M07/M09 Q1018=
200601201220 METAR ESMX 201220Z 13009G19KT 080V190 1100 R19/1400N SN SCT005 BKN010 M07/M09 Q1018=
200601201150 METAR ESMX 201150Z 13010KT 100V180 1300 R19/P1500D SN FEW007 SCT008 BKN015 M07/M09 Q1019=
200601201120 METAR ESMX 201120Z 12010KT 070V230 2000 -SN FEW006 BKN010 M07/M09 Q1019=
200601201050 METAR ESMX 201050Z 14010KT 100V170 6000 -SN FEW012 SCT020 BKN025 M07/M09 Q1020=
200601201020 METAR ESMX 201020Z 13011KT 070V170 8000 -SN FEW009 BKN019 M07/M09 Q1020 RESN=
200601200950 METAR ESMX 200950Z 14010KT 060V190 1800 SN SCT005 BKN010 M07/M08 Q1020=
200601200920 METAR ESMX 200920Z 12008KT 070V170 1800 SN FEW006 SCT014 M07/M08 Q1021=
200601200850 METAR ESMX 200850Z 12008KT 080V170 2500 SN FEW005 BKN007 M07/M08 Q1021=
200601200820 METAR ESMX 200820Z 13008KT 080V170 2300 SN SCT007 M07/M09 Q1021=
200601200750 METAR ESMX 200750Z 12009KT 080V170 1800 SN SCT006 M07/M09 Q1022=
200601200720 METAR ESMX 200720Z 13007KT 080V170 1300 R19/P1500N SN SCT006 M07/M08 Q1022=
200601200650 METAR COR ESMX 200650Z 12007KT 070V180 1200 R19/P1500N SN BKN005 M07/M08 Q1022=
200601200620 METAR ESMX 200620Z 11007KT 060V150 1800 SN SCT008 M07/M08 Q1022=
200601200550 METAR ESMX 200550Z 12010KT 050V160 1800 SN SCT006 BKN025 M08/M09 Q1022=
200601200520 METAR ESMX 200520Z 11006KT 060V150 1500 SN SCT006 BKN025 M08/M09 Q1023=
200601200450 METAR ESMX 200450Z 11008KT 060V140 1800 SN SCT009 BKN025 M08/M09 Q1023=
200601200420 METAR ESMX 200420Z AUTO 10007KT 070V160 3400 -SN SCT013 M08/M09 Q1024=
200601200350 METAR ESMX 200350Z AUTO 11007KT 070V160 9999 -SN FEW014 SCT023 BKN032 M08/M10 Q1024=
200601200320 METAR ESMX 200320Z AUTO 10008KT 060V170 9999 -SN FEW016 SCT031 M08/M10 Q1024=
200601200250 METAR ESMX 200250Z AUTO 11008KT 050V150 9999 -SN FEW015 SCT023 BKN088 M08/M10 Q1024=
200601200150 METAR ESMX 200150Z AUTO 11007KT 050V170 9999 -SN FEW017 SCT020 OVC024 M08/M10 Q1025=
200601200120 METAR ESMX 200120Z 11006KT 070V160 9999 -SN SCT016 BKN022 M08/M10 Q1025=
200601200050 METAR ESMX 200050Z 12007KT 080V190 9999 -SN FEW016 BKN022 M08/M10 Q1025=
200601200020 METAR ESMX 200020Z 11006KT 030V160 9999 -SN FEW020 SCT024 BKN029 M08/M10 Q1026=
200601192350 METAR ESMX 192350Z 12006KT 080V160 9999 -SN FEW015 OVC022 M08/M10 Q1026=
200601192320 METAR ESMX 192320Z 11006KT 070V150 9999 -SHSN FEW014 SCT021 OVC028 M08/M10 Q1026=
200601192250 METAR ESMX 192250Z 11006KT 070V160 9999 -SN FEW019 BKN021 OVC028 M08/M11 Q1026=
200601192220 METAR ESMX 192220Z 11005KT 050V170 9999 -SN FEW019 OVC025 M08/M11 Q1027=
200601192150 METAR ESMX 192150Z 11005KT 050V150 9999 -SHSN FEW017 OVC026 M08/M10 Q1027=
200601192120 METAR ESMX 192120Z 11006KT 060V160 9999 SCT026 BKN100 M08/M11 Q1027 RESN=
200601192050 METAR ESMX 192050Z 11006KT 060V160 9999 -SN FEW014 SCT028 BKN100 M08/M11 Q1027=
200601192020 METAR ESMX 192020Z 12005KT 070V150 9999 FEW015 BKN100 M08/M11 Q1027=
200601191950 METAR ESMX 191950Z 12006KT 060V150 9999 FEW015 BKN100 M08/M11 Q1027=
200601191920 METAR ESMX 191920Z 11005KT 060V180 9999 FEW015 BKN100 M08/M11 Q1027=
200601191850 METAR ESMX 191850Z 10006KT 040V140 9999 FEW016 BKN100 M08/M11 Q1027=
200601191820 METAR ESMX 191820Z 12006KT 070V170 9999 FEW015 BKN100 M08/M11 Q1027 RESN=
200601191750 METAR ESMX 191750Z 10005KT 060V150 9999 -SN SCT015 M08/M11 Q1027=
200601191720 METAR ESMX 191720Z 11005KT 020V150 9999 -SN BKN014 M08/M10 Q1027=
200601191650 METAR ESMX 191650Z 11005KT 060V150 9999 SCT017 M08/M10 Q1027=
200601191620 METAR ESMX 191620Z 11006KT 070V160 9999 FEW015 BKN020 M08/M10 Q1027=
200601191550 METAR ESMX 191550Z 11005KT 070V150 9999 FEW007 SCT018 BKN022 M07/M11 Q1027=
200601191520 METAR ESMX 191520Z 11006KT 070V150 9999 -SN SCT015 BKN027 M07/M10 Q1027=
200601191450 METAR ESMX 191450Z 12006KT 060V170 9999 -SN SCT015 SCT030 BKN070 M07/M11 Q1027=
200601191420 METAR ESMX 191420Z 12005KT 070V170 9999 -SN FEW018 BKN021 M07/M11 Q1027=
200601191350 METAR ESMX 191350Z 11005KT 040V160 9999 -SHSN FEW020 BKN026 M07/M11 Q1027=
200601191320 METAR ESMX 191320Z 11004KT 070V160 9999 -SHSN FEW011 SCT019 BKN021 M07/M11 Q1027=
200601191220 METAR ESMX 191220Z 10006KT 040V150 9999 -SHSN FEW021 BKN026 M06/M11 Q1027=
200601191150 METAR ESMX 191150Z 11007KT 070V160 9999 FEW025 BKN100 M06/M10 Q1027=
200601191120 METAR ESMX 191120Z 10006KT 030V170 9999 FEW012 BKN085 M07/M10 Q1027=
200601191050 METAR ESMX 191050Z 10005KT 050V150 9999 FEW025 BKN085 M07/M10 Q1027=
200601191020 METAR ESMX 191020Z 09006KT 040V140 9999 FEW025 BKN084 M07/M10 Q1027=
200601190950 METAR ESMX 190950Z 09006KT 030V160 9999 FEW019 SCT026 M07/M10 Q1027=
200601190850 METAR ESMX 190850Z 07004KT 040V120 9999 FEW025 SCT030 BKN035 M07/M10 Q1027=
200601190820 METAR ESMX 190820Z 07004KT 030V100 9999 FEW028 OVC034 M07/M09 Q1027=
200601190750 METAR ESMX 190750Z 06004KT 9999 FEW026 BKN035 M07/M09 Q1027=
200601190720 METAR ESMX 190720Z 06005KT 030V110 9999 -SN FEW020 SCT025 BKN035 M07/M09 Q1026=
200601190650 METAR ESMX 190650Z 06005KT 020V100 9999 SCT040 M07/M10 Q1026=
200601190620 METAR ESMX 190620Z 06005KT 020V110 9999 FEW015 BKN040 M07/M10 Q1026=
200601190550 METAR ESMX 190550Z 04006KT 350V070 9999 SCT010 BKN040 M07/M09 Q1026 RESN=
200601190520 METAR ESMX 190520Z 07005KT 020V110 9999 FEW024 BKN030 M07/M10 Q1025 RESN=
200601190450 METAR ESMX 190450Z 07007KT 040V110 6000 -SHSN FEW008 SCT016 BKN040 M06/M08 Q1025=
200601190420 METAR ESMX 190420Z AUTO 05006KT 360V100 9999 -SHSN OVC039 M06/M08 Q1025=
200601190350 METAR ESMX 190350Z AUTO 07006KT 040V110 9999 OVC039 M05/M08 Q1024 RESN=
200601190320 METAR ESMX 190320Z AUTO 04005KT 350V080 9999 -SHSN FEW034 OVC041 M05/M08 Q1024=
200601190250 METAR ESMX 190250Z AUTO 07007KT 9999 -SN FEW018 OVC041 M05/M08 Q1024=
200601190220 METAR ESMX 190220Z AUTO 06005KT 010V110 9999 -SN OVC041 M05/M08 Q1024=
200601190150 METAR ESMX 190150Z 09006KT 320V120 9999 -SN FEW014 SCT019 OVC042 M05/M07 Q1023=
200601190120 METAR ESMX 190120Z 06006KT 020V120 9999 -SN FEW015 SCT018 OVC042 M05/M07 Q1022=
200601190020 METAR ESMX 190020Z 07005KT 020V130 9000 -SN FEW014 SCT021 BKN042 M05/M06 Q1022=
200601182350 METAR ESMX 182350Z 06004KT 030V120 4400 -SN FEW016 SCT020 BKN027 M05/M06 Q1021=
200601182320 METAR ESMX 182320Z 04004KT 010V070 3200 -SN FEW018 SCT022 BKN036 M05/M06 Q1021=
200601182250 METAR ESMX 182250Z 01004KT 5000 --SN FEW017 SCT027 BKN041 M05/M06 Q1021=
200601182220 METAR ESMX 182220Z 04004KT 020V080 2900 -SN FEW010 SCT024 BKN034 M05/M06 Q1021=
200601182150 METAR ESMX 182150Z 06004KT 360V100 5000 -SN FEW019 BKN029 M04/M06 Q1020=
200601182120 METAR ESMX 182120Z 05005KT 010V100 9999 -SN FEW017 SCT021 BKN028 M04/M07 Q1020=
200601182050 METAR ESMX 182050Z 06007KT 020V110 7000 -SN FEW018 BKN025 M04/M07 Q1019=
200601182020 METAR ESMX 182020Z 03006KT 320V080 9999 -SN FEW016 BKN020 OVC035 M04/M06 Q1019=
200601181950 METAR ESMX 181950Z 07006KT 010V110 9999 -SN FEW017 BKN020 M04/M07 Q1019=
200601181920 METAR ESMX 181920Z 07008KT 020V100 9999 FEW023 OVC032 M04/M08 Q1017=
200601181850 METAR ESMX 181850Z 05008KT 010V080 9999 FEW015 BKN025 M04/M08 Q1017 RESN=
200601181820 METAR ESMX 181820Z 06009KT 030V090 9999 -SHSN FEW019 SCT027 BKN036 M03/M07 Q1017=
200601181750 METAR ESMX 181750Z 03008KT 350V120 9999 -SN FEW013 SCT019 BKN027 M03/M05 Q1016=
200601181720 METAR ESMX 181720Z 04006KT 9999 -SN FEW013 SCT022 OVC026 M03/M05 Q1016=
200601181650 METAR ESMX 181650Z 03005KT 360V150 9999 -SN FEW013 SCT015 BKN017 M03/M05 Q1015=
200601181620 METAR ESMX 181620Z 04006KT 020V110 6000 -SN FEW013 SCT016 OVC020 M03/M05 Q1015=
200601181550 METAR ESMX 181550Z 03004KT 8000 -SN FEW014 BKN017 BKN025 M03/M05 Q1014=
200601181520 METAR ESMX 181520Z 05004KT 010V070 6000 -SN BKN016 BKN021 M03/M05 Q1014=
200601181450 METAR ESMX 181450Z 03005KT 360V080 7000 -SHSN FEW015 BKN018 OVC032 M03/M05 Q1013=
200601181420 METAR ESMX 181420Z 06006KT 030V100 8000 -SHSN FEW017 SCT021 BKN024 M03/M06 Q1013=
200601181350 METAR ESMX 181350Z 07007KT 030V120 9999 -SN SCT012 BKN018 OVC027 M03/M05 Q1012=
200601181320 METAR ESMX 181320Z 07006KT 040V110 9999 -SN BKN010 M03/M05 Q1012=
200601181250 METAR ESMX 181250Z 06007KT 360V120 9999 -SN BKN012 M03/M05 Q1011=
200601181220 METAR ESMX 181220Z 07006KT 010V120 9999 -SN SCT013 BKN018 M03/M06 Q1011=
200601181150 METAR ESMX 181150Z 06005KT 010V110 9999 -SN FEW014 BKN023 M03/M05 Q1011=
200601181120 METAR ESMX 181120Z 07009KT 020V110 7000 -SG BKN010 OVC025 M03/M06 Q1010=
200601181050 METAR ESMX 181050Z 05008KT 010V100 6000 SG OVC009 M03/M05 Q1010=
200601181020 METAR ESMX 181020Z 05009KT 350V090 4900 -SG BKN008 M03/M05 Q1010=
200601180950 METAR ESMX 180950Z 07008KT 030V110 5000 BR BKN008 M03/M05 Q1009=
200601180850 METAR ESMX 180850Z 08010KT 040V130 5000 BR BKN009 M03/M05 Q1008=
200601180820 METAR ESMX 180820Z 08010KT 020V120 4100 BR BKN009 M03/M05 Q1008=
200601180750 METAR ESMX 180750Z 07007KT 030V130 5000 BR BKN011 M02/M04 Q1007=
200601180720 METAR ESMX 180720Z 08007KT 030V120 5000 BR BKN012 M02/M04 Q1007=
200601180650 METAR ESMX 180650Z 07006KT 020V110 6000 BR SCT013 BKN019 M02/M05 Q1006=
200601180620 METAR ESMX 180620Z 08007KT 010V120 6000 BR BKN012 M02/M05 Q1006=
200601180550 METAR ESMX 180550Z 07006KT 030V140 5000 BR BKN012 M02/M04 Q1005=
200601180520 METAR ESMX 180520Z 08007KT 040V140 4700 BR BKN010 M03/M04 Q1005=
200601180450 METAR ESMX 180450Z 09006KT 040V130 4500 BR BKN010 M03/M04 Q1005=
200601180420 METAR ESMX 180420Z AUTO 10005KT 030V160 5000 BR OVC009 M03/M04 Q1005=
200601180350 METAR ESMX 180350Z AUTO 08006KT 030V160 4300 BR OVC008 M03/M04 Q1005=
200601180320 METAR ESMX 180320Z AUTO 10006KT 050V210 4200 BR OVC008 M03/M04 Q1004=
200601180250 METAR ESMX 180250Z AUTO 09006KT 040V130 4000 BR OVC008 M03/M04 Q1004=
200601180220 METAR ESMX 180220Z AUTO 09006KT 040V140 4200 BR OVC008 M03/M04 Q1004=
200601180150 METAR ESMX 180150Z AUTO 09006KT 030V160 4500 BR OVC009 M03/M05 Q1004=
200601180120 METAR ESMX 180120Z AUTO 10007KT 040V140 4200 BR OVC009 M03/M04 Q1004=
200601180050 METAR ESMX 180050Z 11006KT 050V160 4300 BR OVC008 M03/M04 Q1004=
200601180020 METAR ESMX 180020Z 10007KT 050V160 4300 BR OVC008 M03/M04 Q1004=
200601172350 METAR ESMX 172350Z 09007KT 040V140 4000 BR OVC008 M02/M04 Q1004=
200601172320 METAR ESMX 172320Z 09005KT 030V120 3900 BR OVC007 M02/M04 Q1004=
200601172250 METAR ESMX 172250Z 10006KT 050V160 3800 BR OVC007 M02/M04 Q1004=
200601172220 METAR ESMX 172220Z 11006KT 070V170 3600 BR OVC007 M03/M04 Q1004=
200601172150 METAR ESMX 172150Z 10006KT 050V170 3600 BR OVC007 M03/M04 Q1005=
200601172120 METAR ESMX 172120Z 12007KT 060V160 3600 BR OVC007 M03/M04 Q1005=
200601172050 METAR ESMX 172050Z 11006KT 050V150 3800 BR OVC007 M03/M04 Q1005=
200601172020 METAR ESMX 172020Z 11006KT 060V170 4000 BR OVC007 M03/M04 Q1005=
200601171950 METAR ESMX 171950Z 11007G17KT 070V160 4100 BR OVC007 M03/M04 Q1005=
200601171920 METAR ESMX 171920Z 10004KT 040V170 4100 BR OVC007 M03/M04 Q1006=
200601171850 METAR ESMX 171850Z 13008KT 060V170 4300 BR OVC008 M03/M04 Q1006=
200601171820 METAR ESMX 171820Z 12005KT 080V190 4500 BR OVC008 M03/M04 Q1006=
200601171750 METAR ESMX 171750Z 13006KT 050V170 4500 BR OVC009 M03/M04 Q1006=
200601171720 METAR ESMX 171720Z 11006KT 040V160 4500 BR OVC009 M03/M05 Q1006=
200601171650 METAR ESMX 171650Z 13007KT 090V180 4700 BR OVC010 M03/M04 Q1006=
200601171550 METAR ESMX 171550Z 13008KT 080V170 5000 BR OVC011 M03/M05 Q1007=
200601171520 METAR ESMX 171520Z 13007KT 100V170 5000 BR OVC011 M02/M04 Q1007=
200601171450 METAR ESMX 171450Z 13005KT 060V170 5000 BR OVC010 M02/M05 Q1008=
200601171420 METAR ESMX 171420Z 13005KT 060V170 5000 BR OVC010 M02/M05 Q1008=
200601171350 METAR ESMX 171350Z 12007KT 070V160 5000 BR BKN012 M02/M05 Q1008=
200601171320 METAR ESMX 171320Z 13007KT 060V170 5000 BR BKN012 M02/M05 Q1008=
200601171250 METAR ESMX 171250Z 14006KT 080V160 5000 BR BKN012 M02/M04 Q1009=
200601171220 METAR ESMX 171220Z 15005KT 090V170 5000 BR BKN012 M02/M05 Q1009=
200601171150 METAR ESMX 171150Z 15006KT 110V170 5000 BR BKN013 M02/M04 Q1010=
200601171120 METAR ESMX 171120Z 16006KT 5000 BR OVC012 M02/M04 Q1010=
200601171050 METAR ESMX 171050Z 12006KT 070V190 5000 BR OVC012 M02/M04 Q1010=
200601171020 METAR ESMX 171020Z 15008KT 120V200 5000 BR OVC012 M02/M04 Q1011=
200601170950 METAR ESMX 170950Z 14009KT 100V190 5000 BR OVC011 M02/M04 Q1011=
200601170920 METAR ESMX 170920Z 14007KT 080V170 5000 BR OVC011 M02/M04 Q1011=
200601170820 METAR ESMX 170820Z 15007KT 5000 BR OVC013 M02/M04 Q1012=
200601170750 METAR ESMX 170750Z 14006KT 090V170 5000 BR OVC010 M02/M04 Q1012=
200601170720 METAR ESMX 170720Z 13006KT 070V170 5000 BR OVC010 M02/M04 Q1012=
200601170650 METAR ESMX 170650Z 16007KT 120V190 5000 BR OVC009 M02/M04 Q1012=
200601170620 METAR ESMX 170620Z 15007KT 120V190 5000 BR OVC010 M02/M04 Q1012=
200601170550 METAR ESMX 170550Z 13006KT 100V170 4900 BR BKN008 M02/M04 Q1012=
200601170520 METAR ESMX 170520Z 13005KT 090V170 4600 BR OVC006 M03/M04 Q1013=
200601170450 METAR ESMX 170450Z 13004KT 090V170 4200 BR OVC006 M03/M04 Q1013=
200601170420 METAR ESMX 170420Z 12004KT 070V160 4200 BR OVC006 M03/M04 Q1013=
200601170350 METAR ESMX 170350Z AUTO 12005KT 080V160 4200 BR BKN005 OVC007 M03/M04 Q1014=
200601170320 METAR ESMX 170320Z AUTO 13005KT 080V160 4200 BR OVC005 M03/M04 Q1014=
200601170250 METAR ESMX 170250Z AUTO VRB03KT 4900 BR OVC006 M03/M04 Q1015=
200601170220 METAR ESMX 170220Z AUTO 14005KT 090V170 5000 BR OVC006 M03/M04 Q1015=
200601170150 METAR ESMX 170150Z AUTO 15007KT 090V190 5000 BR OVC006 M04/M05 Q1015=
200601170120 METAR ESMX 170120Z 15006KT 120V190 5000 BR BKN006 M03/M04 Q1016=
200601170050 METAR ESMX 170050Z 15007KT 110V180 5000 BR OVC007 M04/M05 Q1016=
200601170020 METAR ESMX 170020Z 12005KT 060V190 5000 BR OVC006 M03/M04 Q1016=
200601162350 METAR ESMX 162350Z 16005KT 5000 BR OVC005 M03/M04 Q1016=
200601162320 METAR ESMX 162320Z 15006KT 130V190 4900 BR OVC005 M03/M04 Q1016=
200601162250 METAR ESMX 162250Z 15005KT 120V180 4700 BR OVC005 M03/M04 Q1017=
200601162220 METAR ESMX 162220Z 14005KT 100V170 4400 BR OVC005 M03/M04 Q1017=
200601162150 METAR ESMX 162150Z 15005KT 090V170 4400 BR OVC005 M03/M04 Q1017=
200601162120 METAR ESMX 162120Z 16006KT 120V190 4300 BR OVC005 M04/M04 Q1017=
200601162050 METAR ESMX 162050Z 15004KT 110V180 4400 BR OVC005 M04/M04 Q1018=
200601162020 METAR ESMX 162020Z 16005KT 110V200 4200 BR OVC005 M04/M04 Q1018=
200601161950 METAR ESMX 161950Z 16007KT 120V190 4000 BR OVC005 M04/M04 Q1018=
200601161920 METAR ESMX 161920Z 18007KT 140V200 3500 BR OVC005 M04/M04 Q1018=
200601161850 METAR ESMX 161850Z 16004KT 3600 BR OVC005 M04/M04 Q1019=
200601161820 METAR ESMX 161820Z 16005KT 120V190 3700 BR OVC004 M04/M04 Q1019=
200601161750 METAR ESMX 161750Z 16005KT 130V210 3400 BR OVC004 M04/M04 Q1019=
200601161720 METAR ESMX 161720Z 15004KT 120V190 3500 BR OVC004 M04/M04 Q1019=
200601161650 METAR ESMX 161650Z 17004KT 130V190 3400 BR OVC004 M04/M04 Q1019=
200601161620 METAR ESMX 161620Z 18007KT 3500 BR OVC004 M04/M04 Q1019=
200601161550 METAR ESMX 161550Z 18006KT 150V210 3500 BR OVC004 M04/M04 Q1019=
200601161520 METAR ESMX 161520Z 16004KT 130V210 3000 BR OVC004 M03/M04 Q1020=
200601161450 METAR ESMX 161450Z 18005KT 150V220 3200 BR OVC005 M03/M04 Q1020=
200601161420 METAR ESMX 161420Z 15005KT 120V190 2700 BR OVC004 M03/M04 Q1020=
200601161350 METAR ESMX 161350Z 17006KT 120V200 3000 BR OVC004 M03/M03 Q1020=
200601161320 METAR ESMX 161320Z 16004KT 120V200 3200 BR OVC004 M03/M03 Q1020=
200601161250 METAR ESMX 161250Z 17004KT 140V200 3400 BR OVC004 M03/M03 Q1021=
200601161220 METAR ESMX 161220Z 19005KT 150V220 3400 BR OVC005 M03/M03 Q1021=
200601161150 METAR ESMX 161150Z 16006KT 140V210 2800 BR OVC004 M03/M04 Q1021=
200601161120 METAR ESMX 161120Z 18005KT 2800 BR OVC004 M03/M03 Q1021=
200601161050 METAR ESMX 161050Z 15005KT 120V200 2400 BR OVC004 M03/M04 Q1022=
200601161020 METAR ESMX 161020Z 15005KT 110V200 2900 BR OVC004 M03/M04 Q1022=
200601160950 METAR ESMX 160950Z 17004KT 2800 BR OVC004 M03/M04 Q1022=
200601160920 METAR ESMX 160920Z 18005KT 140V200 3200 BR OVC004 M03/M04 Q1022=
200601160850 METAR ESMX 160850Z 16005KT 3100 BR OVC003 M03/M04 Q1022=
200601160820 METAR ESMX 160820Z 15006KT 110V180 3400 BR OVC004 M03/M03 Q1022=
200601160750 METAR ESMX 160750Z 16005KT 110V190 3600 BR OVC004 M03/M03 Q1022=
200601160720 METAR ESMX 160720Z 17006KT 3900 BR OVC004 M03/M03 Q1022=
200601160650 METAR ESMX 160650Z 17004KT 140V210 3900 BR OVC005 M02/M03 Q1022=
200601160620 METAR ESMX 160620Z 17004KT 4000 BR OVC004 M03/M03 Q1022=
200601160550 METAR ESMX 160550Z 15004KT 110V190 3900 BR OVC004 M02/M03 Q1022=
200601160520 METAR ESMX 160520Z 16004KT 140V210 3800 BR OVC004 M02/M03 Q1023=
200601160450 METAR ESMX 160450Z 15004KT 120V190 3500 BR OVC004 M02/M03 Q1023=
200601160420 METAR ESMX 160420Z AUTO VRB03KT 3900 BR OVC004 M02/M03 Q1023=
200601160350 METAR ESMX 160350Z AUTO 16004KT 130V200 4000 BR OVC004 M02/M03 Q1023=
200601160320 METAR ESMX 160320Z AUTO 15004KT 110V200 3700 BR OVC003 M03/M03 Q1023=
200601160250 METAR ESMX 160250Z AUTO VRB03KT 3200 BR BKN002 OVC004 M03/M03 Q1024=
200601160220 METAR ESMX 160220Z AUTO VRB03KT 2400 BR OVC001 M03/M03 Q1024=
200601160150 METAR ESMX 160150Z AUTO VRB03KT 1900 BR OVC002 M03/M04 Q1024=
200601160120 METAR ESMX 160120Z 13004KT 070V170 2500 BR OVC002 M04/M04 Q1024=
200601160050 METAR ESMX 160050Z VRB03KT 2100 BR OVC001 M04/M04 Q1024=
200601160020 METAR ESMX 160020Z VRB03KT 2000 BR OVC002 M04/M04 Q1025=
200601152350 METAR ESMX 152350Z VRB03KT 2400 BR OVC002 M04/M04 Q1025=
200601152320 METAR ESMX 152320Z 16004KT 120V190 2700 BR OVC002 M04/M04 Q1025=
200601152250 METAR ESMX 152250Z 17004KT 2900 BR OVC001 M04/M04 Q1026=
200601152220 METAR ESMX 152220Z VRB02KT 2700 BR OVC001 M04/M05 Q1026=
200601152150 METAR ESMX 152150Z VRB03KT 2300 BR OVC002 M04/M05 Q1026=
200601152120 METAR ESMX 152120Z 15004KT 110V170 2500 BR OVC001 M04/M05 Q1026=
200601152050 METAR ESMX 152050Z VRB03KT 2400 -SN BR OVC002 M04/M04 Q1026=
200601152020 METAR ESMX 152020Z VRB03KT 2200 -SN OVC002 M04/M05 Q1026=
200601151950 METAR ESMX 151950Z VRB03KT 2000 -SN OVC001 M04/M05 Q1027=
200601151920 METAR ESMX 151920Z VRB03KT 2900 -SN OVC002 M04/M04 Q1027=
200601151850 METAR ESMX 151850Z 14004KT 090V170 2500 -SN OVC002 M04/M04 Q1027=
200601151820 METAR ESMX 151820Z VRB03KT 1700 -SN OVC001 M04/M04 Q1027=
200601151750 METAR ESMX 151750Z VRB03KT 1900 BR OVC001 M04/M04 Q1027=
200601151720 METAR ESMX 151720Z 17004KT 150V210 1800 BR OVC001 M04/M04 Q1027=
200601151650 METAR ESMX 151650Z VRB03KT 2800 BR OVC001 M04/M04 Q1027=
200601151620 METAR ESMX 151620Z VRB03KT 1800 BR OVC001 M04/M04 Q1027=
200601151550 METAR ESMX 151550Z VRB03KT 2400 BR OVC001 M04/M04 Q1028=
200601151520 METAR ESMX 151520Z 15004KT 110V180 1800 BR OVC001 M04/M04 Q1027=
200601151450 METAR ESMX 151450Z VRB03KT 1700 BR OVC001 M04/M04 Q1028=
200601151420 METAR ESMX 151420Z 15004KT 110V190 2000 BR OVC001 M04/M04 Q1028=
200601151350 METAR ESMX 151350Z 17004KT 2000 BR OVC001 M04/M04 Q1028=
200601151320 METAR ESMX 151320Z AUTO 17004KT 120V200 1400 R01/P1500U R19/P1500N OVC001 M04/M04 Q1028=
200601151250 METAR ESMX 151250Z AUTO VRB03KT 1600 OVC001 M04/M04 Q1028=
200601151220 METAR ESMX 151220Z AUTO VRB02KT 1000 R01/P1500U R19/P1500D FG OVC001 M04/M04 Q1028=
200601151150 METAR ESMX 151150Z AUTO VRB03KT 1000 R01/P1500D R19/P1500D OVC001 M04/M04 Q1029=
200601151120 METAR ESMX 151120Z AUTO VRB03KT 0900 R01/0800VP1500U R19/P1500D FG OVC001 M04/M04 Q1029=
200601151050 METAR ESMX 151050Z AUTO VRB02KT 0400 R01/0600V0900N R19/0800V1300U FG VV001 M04/M05 Q1029=
200601151020 METAR ESMX 151020Z AUTO VRB03KT 0300 R01/0450V0750N R19/1000U SG VV001 M04/M04 Q1029=
200601150950 METAR ESMX 150950Z AUTO VRB03KT 0350 R01/0750U R19/0800V1100N -SN VV000 M04/M05 Q1030=
200601150920 METAR ESMX 150920Z AUTO VRB03KT 0300 R01/0700N R19/0800V1100U -SN VV000 M04/M05 Q1030=
200601150850 METAR ESMX 150850Z AUTO VRB03KT 0400 R01/0600D R19/0900V1400N SG VV000 M04/M05 Q1030=
200601150820 METAR ESMX 150820Z AUTO VRB03KT 0350 R01/0600D R19/0900VP1500U -SN VV001 M04/M05 Q1030=
200601150750 METAR ESMX 150750Z AUTO VRB02KT 0300 R01/0650V1000N R19/0800N SG VV000 M04/M05 Q1030=
200601150720 METAR ESMX 150720Z AUTO VRB02KT 0200 R01/0900U R19/0800VP1500U -SHSN VV000 M04/M05 Q1029=
200601150650 METAR ESMX 150650Z AUTO VRB02KT 0250 R01/0700V1100N R19/1000VP1500N -SHSN VV001 M04/M04 Q1029=
200601150620 METAR ESMX 150620Z AUTO VRB03KT 0250 R01/0650V1200D R19/0750VP1500D SG VV000 M04/M04 Q1029=
200601150550 METAR ESMX 150550Z AUTO VRB02KT 0200 R01/0550V1000N R19/0700N FG VV000 M04/M04 Q1029=
200601150520 METAR ESMX 150520Z AUTO VRB01KT 0150 R01/0700N R19/0600N FG VV000 M04/M04 Q1029=
200601150450 METAR ESMX 150450Z AUTO VRB02KT 0150 R01/0650N R19/0800N FG VV000 M04/M04 Q1029=
200601150420 METAR ESMX 150420Z AUTO VRB03KT 0200 R01/0800N R19/0700N FG VV000 M04/M04 Q1029=
200601150350 METAR ESMX 150350Z AUTO VRB03KT 0200 R01/0750N R19/0700D FG VV000 M04/M04 Q1030=
200601150320 METAR ESMX 150320Z AUTO 18004KT 0200 R01/0700N R19/0700N FG VV000 M03/M04 Q1030=
200601150250 METAR ESMX 150250Z AUTO 16004KT 100V200 0200 R01/0900U R19/0700N FG VV000 M03/M04 Q1030=
200601150220 METAR ESMX 150220Z AUTO 18004KT 0200 R01/0700N R19/0650N FG VV000 M03/M04 Q1030=
200601150150 METAR ESMX 150150Z AUTO VRB03KT 0200 R01/0700V1000N R19/0700V1200N FG VV000 M03/M04 Q1030=
200601150120 METAR ESMX 150120Z AUTO 19004KT 0200 R01/0700D R19/0800N FG VV000 M03/M03 Q1030=
200601150050 METAR ESMX 150050Z AUTO 16004KT 120V200 0300 R01/0800V1300D R19/0800VP1500D FG VV001 M03/M03 Q1030=
200601150020 METAR ESMX 150020Z AUTO 18004KT 0500 R01/P1500U R19/0800VP1500U FG VV000 M03/M03 Q1030=
200601142350 METAR ESMX 142350Z AUTO 18004KT 150V210 0700 R01/P1500N R19/P1500N FG VV001 M03/M03 Q1030=
200601142320 METAR ESMX 142320Z AUTO 18004KT 140V220 0900 R01/P1500N R19/P1500N FG VV002 M03/M03 Q1030=
200601142250 METAR ESMX 142250Z AUTO 21004KT 160V240 1500 BR OVC001 M03/M03 Q1030=
200601142220 METAR ESMX 142220Z AUTO 20004KT 160V230 2500 BR OVC002 M03/M03 Q1030=
200601142150 METAR ESMX 142150Z AUTO 19004KT 160V220 3500 BR OVC002 M03/M03 Q1030=
200601142120 METAR ESMX 142120Z AUTO 20005KT 150V210 3600 BR OVC003 M03/M03 Q1030=
200601142050 METAR ESMX 142050Z AUTO 18005KT 4000 BR OVC003 M02/M03 Q1030=
200601142020 METAR ESMX 142020Z AUTO 20005KT 150V210 4700 BR OVC004 M03/M03 Q1030=
200601141950 METAR ESMX 141950Z AUTO 20005KT 5000 BR OVC005 M02/M03 Q1030=
200601141920 METAR ESMX 141920Z AUTO 21007KT 5000 BR OVC005 M02/M03 Q1030=
200601141850 METAR ESMX 141850Z AUTO 20005KT 180V260 6000 BR OVC006 M02/M03 Q1030=
200601141820 METAR ESMX 141820Z AUTO 18006KT 6000 BR OVC007 M02/M03 Q1030=
200601141750 METAR ESMX 141750Z AUTO 22004KT 7000 BR OVC007 M02/M03 Q1030=
200601141720 METAR ESMX 141720Z AUTO 20004KT 8000 BR OVC008 M02/M03 Q1030=
200601141650 METAR ESMX 141650Z AUTO 19005KT 8000 BR OVC009 M02/M03 Q1030=
200601141620 METAR ESMX 141620Z AUTO 22005KT 190V260 9000 BR OVC010 M02/M03 Q1030=
200601141550 METAR ESMX 141550Z AUTO 22006KT 9000 BR OVC010 M02/M03 Q1030=
200601141520 METAR ESMX 141520Z AUTO 23007KT 200V260 9000 BR OVC010 M02/M03 Q1030=
200601141450 METAR ESMX 141450Z AUTO 24005KT 8000 BR OVC010 M01/M03 Q1030=
200601141420 METAR ESMX 141420Z AUTO 22008KT 9000 BR OVC010 M01/M03 Q1030=
200601141350 METAR ESMX 141350Z AUTO 21008KT 7000 BR OVC010 M01/M03 Q1030=
200601141320 METAR ESMX 141320Z AUTO 19009KT 160V220 6000 BR OVC009 M01/M03 Q1030=
200601141250 METAR ESMX 141250Z AUTO 21007KT 5000 BR OVC009 M01/M03 Q1030=
200601141220 METAR ESMX 141220Z AUTO 21006KT 5000 BR OVC008 M01/M03 Q1030=
200601141150 METAR ESMX 141150Z AUTO 20009KT 5000 BR OVC008 M01/M03 Q1030=
200601141120 METAR ESMX 141120Z 21008KT 170V230 6000 BR OVC008 M01/M02 Q1030=
200601141050 METAR ESMX 141050Z 21007KT 5000 BR OVC007 M01/M02 Q1030=
200601141020 METAR ESMX 141020Z 18008KT 5000 BR OVC005 M01/M02 Q1030=
200601140950 METAR ESMX 140950Z 18007KT 5000 BR OVC005 M01/M02 Q1030=
200601140920 METAR ESMX 140920Z 18009KT 5000 BR OVC005 M01/M02 Q1030=
200601140850 METAR ESMX 140850Z 19007KT 160V220 6000 BR OVC005 M01/M02 Q1030=
200601140820 METAR ESMX 140820Z 18007KT 150V210 6000 BR OVC005 M01/M02 Q1030=
200601140750 METAR ESMX 140750Z 18006KT 150V210 6000 BR OVC005 M01/M02 Q1030=
200601140720 METAR ESMX 140720Z AUTO 19007KT 7000 BR OVC004 M01/M02 Q1030=
200601140650 METAR ESMX 140650Z AUTO 19007KT 7000 BR OVC003 M01/M02 Q1030=
200601140620 METAR ESMX 140620Z AUTO 17006KT 7000 BR OVC004 M01/M02 Q1030=
200601140550 METAR ESMX 140550Z AUTO VRB08KT 6000 BR OVC003 M02/M02 Q1030=
200601140520 METAR ESMX 140520Z AUTO 17007KT 6000 BR OVC003 M02/M02 Q1030=
200601140450 METAR ESMX 140450Z AUTO 17008KT 140V200 6000 BR OVC004 M02/M03 Q1030=
200601140420 METAR ESMX 140420Z AUTO 17007KT 140V200 6000 BR OVC004 M02/M03 Q1030=
200601140350 METAR ESMX 140350Z AUTO 15006KT 7000 BR OVC004 M02/M03 Q1030=
200601140320 METAR ESMX 140320Z AUTO 16006KT 130V190 6000 BR OVC004 M02/M03 Q1030=
200601140250 METAR ESMX 140250Z AUTO 17006KT 140V210 6000 BR OVC004 M02/M03 Q1031=
200601140220 METAR ESMX 140220Z AUTO 15007KT 5000 BR OVC004 M02/M03 Q1031=
200601140150 METAR ESMX 140150Z AUTO 17006KT 140V200 5000 BR OVC003 M02/M03 Q1031=
200601140120 METAR ESMX 140120Z AUTO 16005KT 130V190 4500 BR OVC003 M02/M03 Q1031=
200601140050 METAR ESMX 140050Z AUTO 16007KT 3200 BR OVC003 M02/M03 Q1031=
200601140020 METAR ESMX 140020Z AUTO 16007KT 140V210 3100 BR OVC003 M02/M03 Q1031=
200601132350 METAR ESMX 132350Z AUTO 17007KT 3500 BR OVC003 M02/M03 Q1032=
200601132320 METAR ESMX 132320Z AUTO 16006KT 4800 BR OVC003 M02/M03 Q1032=
200601132250 METAR ESMX 132250Z AUTO 17006KT 140V200 5000 BR OVC003 M02/M03 Q1032=
200601132220 METAR ESMX 132220Z AUTO 18006KT 6000 BR OVC003 M02/M03 Q1032=
200601132150 METAR ESMX 132150Z AUTO 17006KT 140V210 5000 BR OVC003 M02/M03 Q1032=
200601132120 METAR ESMX 132120Z AUTO 17006KT 140V200 4800 BR OVC003 M02/M03 Q1032=
200601132050 METAR ESMX 132050Z AUTO 17006KT 140V200 4300 BR OVC003 M02/M03 Q1032=
200601132020 METAR ESMX 132020Z AUTO 15007KT 4400 BR OVC002 M03/M03 Q1032=
200601131950 METAR ESMX 131950Z AUTO 18006KT 4300 BR OVC003 M03/M03 Q1032=
200601131920 METAR ESMX 131920Z AUTO 16006KT 120V200 5000 BR OVC003 M03/M03 Q1033=
200601131850 METAR ESMX 131850Z AUTO 17007KT 4900 BR OVC002 M03/M03 Q1033=
200601131820 METAR ESMX 131820Z 17007KT 7000 BR OVC003 M02/M03 Q1033=
200601131750 METAR ESMX 131750Z 16006KT 120V200 8000 BR OVC003 M02/M03 Q1033=
200601131720 METAR ESMX 131720Z 18006KT 6000 BR OVC004 M02/M03 Q1033=
200601131650 METAR ESMX 131650Z 18007KT 6000 BR OVC004 M02/M03 Q1033=
200601131620 METAR ESMX 131620Z 18007KT 7000 BR OVC004 M02/M03 Q1033=
200601131550 METAR ESMX 131550Z 18006KT 8000 BR OVC005 M02/M03 Q1033=
200601131520 METAR ESMX 131520Z 22007KT 9999 OVC005 M02/M02 Q1033=
200601131450 METAR ESMX 131450Z 20006KT 160V240 9999 BKN005 M01/M02 Q1033=
200601131420 METAR ESMX 131420Z VRB06KT 9999 BKN006 M01/M02 Q1033=
200601131350 METAR ESMX 131350Z 19007KT 9999 BKN006 M01/M02 Q1033=
200601131320 METAR ESMX 131320Z 19007KT 9999 BKN006 M01/M02 Q1033=
200601131250 METAR ESMX 131250Z 20008KT 9999 BKN006 M01/M02 Q1033=
200601131220 METAR ESMX 131220Z 21008KT 9999 BKN007 M01/M02 Q1033=
200601131150 METAR ESMX 131150Z 20007KT 9999 SCT006 M00/M02 Q1033=
200601131120 METAR ESMX 131120Z 20006KT 160V220 9999 SCT006 M00/M02 Q1033=
200601131050 METAR ESMX 131050Z 19006KT 9999 BKN006 M01/M02 Q1033=
200601131020 METAR ESMX 131020Z 22004KT 180V250 9999 BKN006 M01/M02 Q1033=
200601130950 METAR ESMX 130950Z 22007KT 9999 BKN005 M01/M02 Q1033=
200601130920 METAR ESMX 130920Z 24005KT 190V270 9999 BKN006 M01/M02 Q1033=
200601130850 METAR ESMX 130850Z 25005KT 210V290 9999 BKN006 M01/M02 Q1033=
200601130820 METAR ESMX 130820Z 25006KT 9999 BKN006 M01/M02 Q1033=
200601130750 METAR ESMX 130750Z 25005KT 220V280 9999 BKN007 M01/M02 Q1033=
200601130720 METAR ESMX 130720Z 23007KT 210V280 9999 BKN006 M01/M02 Q1032=
200601130650 METAR ESMX 130650Z 24007KT 210V270 9000 BR BKN006 M01/M02 Q1032=
200601130620 METAR ESMX 130620Z 24007KT 220V280 8000 BR BKN006 M01/M01 Q1032=
200601130550 METAR ESMX 130550Z 23008KT 8000 BR BKN006 M01/M01 Q1032=
200601130520 METAR ESMX 130520Z 23007KT 200V260 7000 BR BKN005 M01/M01 Q1032=
200601130450 METAR ESMX 130450Z 24010KT 9999 BKN004 M01/M01 Q1032=
200601130420 METAR ESMX 130420Z 23008KT 210V270 9999 BKN005 M00/M01 Q1032=
200601130350 METAR ESMX 130350Z AUTO 21008KT 170V250 9999 OVC004 M00/M01 Q1032=
200601130320 METAR ESMX 130320Z AUTO 23009KT 200V260 9999 OVC004 M00/M01 Q1032=
200601130250 METAR ESMX 130250Z AUTO 22009KT 180V250 9999 BKN005 OVC007 00/M01 Q1032=
200601130220 METAR ESMX 130220Z AUTO 22008KT 9999 OVC004 00/M01 Q1032=
200601130150 METAR ESMX 130150Z AUTO 22007KT 180V260 9999 BKN005 00/M01 Q1032=
200601130120 METAR ESMX 130120Z AUTO 23007KT 9999 BKN005 BKN007 01/M00 Q1032=
200601130050 METAR ESMX 130050Z 22006KT 170V240 9999 SCT004 OVC006 01/M00 Q1032=
200601130020 METAR ESMX 130020Z 23006KT 200V260 9999 OVC005 01/00 Q1032=
200601122350 METAR ESMX 122350Z 21008KT 170V250 9999 OVC005 01/00 Q1032=
200601122320 METAR ESMX 122320Z 21007KT 180V260 9999 OVC005 01/01 Q1032=
200601122250 METAR ESMX 122250Z 22008KT 9999 FEW003 OVC006 02/01 Q1032=
200601122220 METAR ESMX 122220Z 21009KT 190V250 9999 OVC005 02/01 Q1032=
200601122150 METAR ESMX 122150Z 24007KT 9999 OVC005 02/01 Q1031=
200601122120 METAR ESMX 122120Z 22006KT 9999 BKN006 02/01 Q1031=
200601122050 METAR ESMX 122050Z 24007KT 200V270 9999 BKN006 BKN008 02/01 Q1031=
200601122020 METAR ESMX 122020Z 26009KT 230V300 9999 BKN006 BKN010 02/01 Q1031=
200601121950 METAR ESMX 121950Z 26007KT 210V320 9999 BKN007 BKN010 03/01 Q1031=
200601121920 METAR ESMX 121920Z 26007KT 210V280 9999 BKN007 03/02 Q1031=
200601121850 METAR ESMX 121850Z 25005KT 200V300 9999 BKN007 BKN010 03/02 Q1031=
200601121820 METAR ESMX 121820Z 27007KT 230V300 9999 BKN007 BKN010 03/01 Q1030=
200601121750 METAR ESMX 121750Z 27009KT 9999 BKN010 03/01 Q1030=
200601121720 METAR ESMX 121720Z 26008KT 9999 BKN010 03/02 Q1030=
200601121650 METAR ESMX 121650Z 27008KT 230V300 9999 BKN012 03/02 Q1030=
200601121620 METAR ESMX 121620Z 22004KT 190V250 9999 BKN012 03/02 Q1030=
200601121550 METAR ESMX 121550Z 26005KT 210V300 9999 BKN012 03/02 Q1029=
200601121520 METAR ESMX 121520Z 25007KT 210V280 9999 BKN012 03/02 Q1029=
200601121450 METAR ESMX 121450Z 27007KT 230V290 9999 BKN014 03/02 Q1029=
200601121420 METAR ESMX 121420Z 26009KT 230V320 9999 FEW010 BKN012 03/02 Q1029=
200601121350 METAR ESMX 121350Z 26008KT 230V290 9999 BKN010 04/02 Q1028=
200601121320 METAR ESMX 121320Z 26007KT 230V290 9999 BKN009 04/02 Q1028=
200601121250 METAR ESMX 121250Z 26007KT 220V300 9999 BKN010 04/02 Q1028=
200601121220 METAR ESMX 121220Z 25008KT 200V270 9999 BKN010 04/02 Q1027=
200601121150 METAR ESMX 121150Z 26010KT 240V300 9999 BKN010 04/02 Q1027=
200601121120 METAR ESMX 121120Z 24010KT 9999 FEW009 BKN012 04/02 Q1027=
200601121050 METAR ESMX 121050Z 26009KT 220V290 9999 FEW008 BKN010 04/02 Q1026=
200601121020 METAR ESMX 121020Z 25009KT 220V280 9999 BKN009 04/02 Q1026=
200601120950 METAR ESMX 120950Z 25009KT 9999 BKN010 04/02 Q1026=
200601120920 METAR ESMX 120920Z 25008KT 210V300 9999 BKN010 04/02 Q1026=
200601120850 METAR ESMX 120850Z 26009KT 230V300 9999 BKN011 04/02 Q1025=
200601120820 METAR ESMX 120820Z 26009KT 240V300 9999 BKN011 03/02 Q1025=
200601120750 METAR ESMX 120750Z 25007KT 200V280 9999 BKN012 03/02 Q1024=
200601120720 METAR ESMX 120720Z 25009KT 9999 FEW011 BKN014 04/02 Q1024=
200601120650 METAR ESMX 120650Z 26009KT 9999 BKN012 BKN018 03/02 Q1024=
200601120620 METAR ESMX 120620Z 25008KT 9999 SCT013 BKN017 BKN021 03/02 Q1023=
200601120550 METAR ESMX 120550Z 25008KT 230V290 9999 FEW010 SCT013 BKN015 03/02 Q1022=
200601120520 METAR ESMX 120520Z 27010KT 9999 BKN010 03/02 Q1022=
200601120450 METAR ESMX 120450Z 26010KT 220V290 9999 BKN011 03/02 Q1022=
200601120420 METAR ESMX 120420Z 25008KT 9999 FEW010 BKN013 BKN017 03/02 Q1021=
200601120350 METAR ESMX 120350Z AUTO 25009KT 210V280 9999 BR OVC011 03/02 Q1021=
200601120320 METAR ESMX 120320Z AUTO 26009KT 210V280 9999 BR SCT012 BKN017 BKN023 03/02 Q1020=
200601120250 METAR ESMX 120250Z AUTO 26010KT 9999 BR FEW011 SCT016 BKN019 03/02 Q1020=
200601120220 METAR ESMX 120220Z AUTO 26009KT 230V290 9000 BR FEW010 OVC013 04/02 Q1020=
200601120150 METAR ESMX 120150Z AUTO 25010KT 9000 BR OVC011 04/02 Q1019=
200601120120 METAR ESMX 120120Z 24009KT 9000 BR BKN013 03/02 Q1019=
200601120020 METAR ESMX 120020Z 24008KT 9000 BR FEW013 BKN020 03/02 Q1018=
200601112350 METAR ESMX 112350Z 25009KT 9000 BR FEW013 BKN018 03/02 Q1018=
200601112320 METAR ESMX 112320Z 24009KT 9999 BR FEW012 BKN018 04/02 Q1017=
200601112150 METAR ESMX 112150Z 24011KT 9000 BR FEW009 SCT013 BKN030 04/03 Q1015=
200601112120 METAR ESMX 112120Z 24011KT 210V270 9000 BR FEW007 BKN009 04/03 Q1014=
200601112050 METAR ESMX 112050Z 24012KT 200V260 9000 BR FEW006 BKN011 03/03 Q1013=
200601112020 METAR ESMX 112020Z 22012KT 190V260 6000 BR BKN004 03/03 Q1013=
200601111950 METAR ESMX 111950Z 21011KT 4600 BR OVC003 03/03 Q1012=
200601111850 METAR ESMX 111850Z 23012KT 3100 BR OVC002 02/02 Q1012=
200601111820 METAR ESMX 111820Z 23013KT 6000 BR OVC004 02/02 Q1011=
200601111750 METAR ESMX 111750Z 20013KT 6000 -RA BKN004 02/01 Q1011=
200601111720 METAR ESMX 111720Z 20014KT 3700 -RA BR OVC004 02/01 Q1011=
200601111650 METAR ESMX 111650Z 20013KT 3000 -RADZ OVC004 02/01 Q1011=
200601111620 METAR ESMX 111620Z 20014KT 5000 -RA OVC004 02/01 Q1011=
200601111550 METAR ESMX 111550Z 19014KT 5000 -RA OVC003 01/01 Q1011=
200601111520 METAR ESMX 111520Z 19013KT 4200 -RADZ OVC003 01/01 Q1011=
200601111450 METAR ESMX 111450Z 19014KT 4800 -RADZ OVC003 01/01 Q1011=
200601111420 METAR ESMX 111420Z 20013KT 4000 -RADZ OVC004 01/01 Q1011=
200601111350 METAR ESMX 111350Z 19013KT 3500 DZ BR OVC003 01/01 Q1011=
200601111320 METAR ESMX 111320Z 19013KT 3200 -DZ BR OVC003 01/01 Q1012=
200601111250 METAR ESMX 111250Z 19014KT 3200 BR OVC004 01/01 Q1012=
200601111220 METAR ESMX 111220Z 19013KT 2000 -DZ BR OVC003 01/01 Q1012=
200601111150 METAR ESMX 111150Z 19013KT 1900 -DZ BR OVC002 01/01 Q1012=
200601111120 METAR ESMX 111120Z 18014KT 1700 -RADZ OVC003 01/01 Q1013=
200601111050 METAR ESMX 111050Z 19014KT 1600 -RADZ OVC002 01/01 Q1013=
200601111020 METAR ESMX 111020Z 19013KT 2300 -DZ BR OVC003 01/01 Q1014=
200601110950 METAR ESMX 110950Z 19013KT 2700 DZ BR OVC003 01/01 Q1014=
200601110920 METAR ESMX 110920Z 19013KT 2600 DZ BR OVC003 01/01 Q1014=
200601110850 METAR ESMX 110850Z 19012KT 3000 -DZ BR OVC003 01/01 Q1014=
200601110820 METAR ESMX 110820Z 19012KT 1800 DZ BR OVC003 01/01 Q1014=
200601110750 METAR ESMX 110750Z 19013KT 2000 DZ OVC003 01/01 Q1014=
200601110720 METAR ESMX 110720Z 19012KT 1700 DZ BKN003 01/01 Q1014=
200601110650 METAR ESMX 110650Z 19012KT 2000 DZ BKN003 01/01 Q1014=
200601110620 METAR ESMX 110620Z 19013KT 1600 DZ BKN003 01/01 Q1014=
200601110550 METAR ESMX 110550Z 19013KT 3000 -RA OVC003 01/01 Q1015=
200601110520 METAR ESMX 110520Z 19012KT 2500 BR OVC003 01/01 Q1015=
200601110450 METAR ESMX 110450Z 20012KT 2500 BR OVC003 01/01 Q1015=
200601110420 METAR ESMX 110420Z AUTO 19014KT 2400 BR OVC002 01/01 Q1015=
200601110350 METAR ESMX 110350Z AUTO 18013KT 2100 BR OVC001 01/01 Q1015=
200601110320 METAR ESMX 110320Z AUTO 19013KT 1400 R01/P1500N R19/P1500N BR OVC001 01/01 Q1016=
200601110250 METAR ESMX 110250Z AUTO 19014KT 1300 R01/P1500N R19/P1500N OVC001 01/01 Q1016=
200601110220 METAR ESMX 110220Z AUTO 18014KT 1300 R01/P1500N R19/P1500N OVC001 01/01 Q1016=
200601110150 METAR ESMX 110150Z AUTO 19015KT 0900 R01/P1500N R19/P1500N FG VV002 01/01 Q1017=
200601110120 METAR ESMX 110120Z AUTO 19014KT 0900 R01/P1500N R19/P1500N FG VV002 01/01 Q1017=
200601110050 METAR ESMX 110050Z 20012KT 0600 R01/P1500N R19/P1500D FG VV002 00/00 Q1018=
200601110020 METAR ESMX 110020Z 21011KT 0550 R01/P1500N R19/P1500N FG VV002 00/00 Q1018=
200601102320 METAR ESMX 102320Z 21011KT 0550 R01/P1500N R19/P1500N FG VV001 00/00 Q1018=
200601102250 METAR ESMX 102250Z 21011KT 0500 R01/P1500N R19/P1500D FZFG VV002 M00/M00 Q1019=
200601102220 METAR ESMX 102220Z 19010KT 0650 R01/P1500U R19/P1500N FZFG VV002 M00/M00 Q1019=
200601102150 METAR ESMX 102150Z 21010KT 1000 R01/P1500N R19/P1500N BR OVC002 M00/M00 Q1019=
200601102120 METAR ESMX 102120Z 21011KT 1000 R01/P1500N R19/P1500N BR OVC002 M00/M00 Q1019=
200601102050 METAR ESMX 102050Z 21010KT 0800 R01/P1500N R19/P1500N FZFG OVC001 M00/M00 Q1019=
200601102020 METAR ESMX 102020Z 19009KT 0750 R01/P1500N R19/P1500N FZFG VV002 M01/M01 Q1019=
200601101950 METAR ESMX 101950Z 20009KT 1100 R01/P1500N R19/P1500N BR OVC002 M01/M01 Q1020=
200601101920 METAR ESMX 101920Z 19009KT 1200 R01/P1500N R19/P1500N BR OVC002 M01/M01 Q1020=
200601101850 METAR ESMX 101850Z 20009KT 1300 R01/P1500N R19/P1500N BR OVC002 M01/M01 Q1020=
200601101820 METAR ESMX 101820Z 21009KT 1300 R01/P1500N R19/P1500N BR OVC002 M01/M01 Q1020=
200601101750 METAR ESMX 101750Z 21009KT 1100 R01/P1500N R19/P1500N BR OVC002 M01/M01 Q1020=
200601101720 METAR ESMX 101720Z 20010KT 0750 R01/P1500N R19/P1500N FZFG VV002 M01/M01 Q1020=
200601101650 METAR ESMX 101650Z 21011KT 0600 R01/P1500N R19/P1500N FZFG VV002 M01/M01 Q1020=
200601101620 METAR ESMX 101620Z 21011KT 0500 R01/P1500N R19/P1500N FZFG VV002 M01/M01 Q1020=
200601101550 METAR ESMX 101550Z 21010KT 0550 R01/P1500N R19/P1500N FZFG VV002 M01/M01 Q1020=
200601101520 METAR ESMX 101520Z 20010KT 0600 R01/P1500N R19/P1500U FZFG VV002 M01/M01 Q1020=
200601101450 METAR ESMX 101450Z 19011KT 0650 R01/1400N R19/1400N FZFG VV002 M01/M02 Q1020=
200601101420 METAR ESMX 101420Z 18011KT 1000 R01/P1500D R19/P1500N BR OVC002 M02/M02 Q1020=
200601101350 METAR ESMX 101350Z 18010KT 1400 R01/P1500U R19/P1500U BR OVC002 M02/M02 Q1021=
200601101320 METAR ESMX 101320Z 19010KT 2800 BR OVC004 M02/M03 Q1021=
200601101250 METAR ESMX 101250Z 20008KT 3500 BR OVC006 M02/M03 Q1021=
200601101220 METAR ESMX 101220Z 19008KT 3600 BR BKN006 M02/M03 Q1021=
200601101150 METAR ESMX 101150Z 20007KT 3600 BR BKN006 M03/M04 Q1021=
200601101120 METAR ESMX 101120Z 18008KT 3900 BR BKN006 M03/M04 Q1021=
200601101050 METAR ESMX 101050Z 17007KT 4000 BR BKN007 M03/M04 Q1022=
200601101020 METAR ESMX 101020Z 18007KT 4100 BR FEW008 SCT150 M03/M04 Q1022=
200601100950 METAR ESMX 100950Z 19006KT 3900 BR NSC M03/M04 Q1022=
200601100920 METAR ESMX 100920Z 17006KT 3800 BR NSC M04/M05 Q1023=
200601100850 METAR ESMX 100850Z 19007KT 3800 BR NSC M04/M05 Q1023=
200601100820 METAR ESMX 100820Z 18006KT 3600 BR NSC M04/M05 Q1023=
200601100750 METAR ESMX 100750Z 18005KT 3500 BR NSC M05/M05 Q1023=
200601100720 METAR ESMX 100720Z 18006KT 3400 BR NSC M05/M06 Q1023=
200601100650 METAR ESMX 100650Z 16004KT 3600 BR NSC M06/M06 Q1023=
200601100620 METAR ESMX 100620Z 15004KT 4000 BR NSC M06/M06 Q1023=
200601100550 METAR ESMX 100550Z 17005KT 8000 BR SKC M05/M06 Q1023=
200601100520 METAR ESMX 100520Z 20005KT 8000 BR SKC M06/M07 Q1024=
200601100450 METAR ESMX 100450Z VRB03KT 8000 BR SKC M06/M06 Q1024=
200601100420 METAR ESMX 100420Z AUTO 17005KT 4900 BR NSC M05/M06 Q1025=
200601100350 METAR ESMX 100350Z AUTO 16006KT 4500 BR NSC M06/M07 Q1025=
200601100320 METAR ESMX 100320Z AUTO VRB03KT 4300 BR NSC M10/M11 Q1026=
200601100250 METAR ESMX 100250Z AUTO VRB02KT 2100 BR NSC M11/M12 Q1026=
200601100220 METAR ESMX 100220Z AUTO VRB03KT 5000 BR NSC M10/M11 Q1026=
200601100150 METAR ESMX 100150Z AUTO VRB03KT 4000 NSC M11/M11 Q1026=
200601100120 METAR ESMX 100120Z VRB02KT 8000 BR SKC M11/M11 Q1027=
200601100050 METAR ESMX 100050Z VRB02KT 8000 BR SKC M09/M10 Q1027=
200601100020 METAR ESMX 100020Z VRB03KT 8000 BR SKC M10/M11 Q1027=
200601092350 METAR ESMX 092350Z VRB02KT 4000 MIFG SKC M09/M10 Q1028=
200601092320 METAR ESMX 092320Z VRB02KT 4000 MIFG SKC M08/M09 Q1028=
200601092250 METAR ESMX 092250Z 15004KT 6000 BR SKC M07/M07 Q1028=
200601092220 METAR ESMX 092220Z 16004KT 7000 BR SKC M06/M07 Q1028=
200601092150 METAR ESMX 092150Z 15005KT CAVOK M05/M06 Q1029=
200601092120 METAR ESMX 092120Z 14006KT CAVOK M05/M06 Q1029=
200601092050 METAR ESMX 092050Z 16004KT 9000 BR SKC M05/M06 Q1029=
200601092020 METAR ESMX 092020Z 15004KT 9000 BR SKC M05/M05 Q1029=
200601091950 METAR ESMX 091950Z 15004KT 8000 BR SKC M05/M05 Q1030=
200601091920 METAR ESMX 091920Z 15005G17KT 050V170 8000 BR SKC M05/M05 Q1030=
200601091850 METAR ESMX 091850Z VRB03KT 7000 MIFG SKC M05/M05 Q1030=
200601091820 METAR ESMX 091820Z 14004KT 4700 BR MIFG SKC M06/M06 Q1031=
200601091750 METAR ESMX 091750Z VRB02KT 3000 BR MIFG SKC M06/M07 Q1031=
200601091720 METAR ESMX 091720Z 15004KT 6000 BR SKC M04/M05 Q1031=
200601091650 METAR ESMX 091650Z 15004KT 9000 BR MIFG SKC M04/M04 Q1031=
200601091620 METAR ESMX 091620Z VRB03KT CAVOK M04/M04 Q1032=
200601091550 METAR COR ESMX 091550Z VRB03KT 9999 BCFG NSC M05/M05 Q1032=
200601091520 METAR ESMX 091520Z VRB02KT 7000 BCFG NSC M05/M06 Q1032=
200601091450 METAR ESMX 091450Z VRB03KT 9999 MIFG NSC M04/M05 Q1032=
200601091420 METAR ESMX 091420Z VRB03KT CAVOK M01/M03 Q1032=
200601091350 METAR ESMX 091350Z VRB03KT CAVOK M01/M03 Q1033=
200601091320 METAR ESMX 091320Z VRB02KT CAVOK M01/M03 Q1033=
200601091250 METAR ESMX 091250Z VRB02KT CAVOK M01/M03 Q1033=
200601091220 METAR ESMX 091220Z VRB03KT CAVOK M01/M03 Q1034=
200601091150 METAR ESMX 091150Z VRB02KT CAVOK M01/M03 Q1034=
200601091120 METAR COR ESMX 091120Z VRB02KT CAVOK M02/M03 Q1034=
200601091050 METAR ESMX 091050Z VRB02KT 8000 BR NSC M02/M03 Q1035=
200601091020 METAR ESMX 091020Z VRB03KT 7000 BR NSC M02/M03 Q1035=
200601090950 METAR ESMX 090950Z VRB02KT 2300 BR FEW001 M03/M03 Q1035 RESN=
200601090920 METAR ESMX 090920Z VRB03KT 1800 BR SCT001 M04/M04 Q1035 RESN=
200601090850 METAR ESMX 090850Z VRB03KT 1400 R01/1000VP1500N R19/P1500U -SN BKN001 M04/M04 Q1035=
200601090820 METAR ESMX 090820Z 14005KT 110V180 3000 SG SCT001 M04/M04 Q1035=
200601090750 METAR ESMX 090750Z 15004KT 110V190 0400 R01/0900N R19/1000N FZFG VV002 M04/M04 Q1035=
200601090720 METAR ESMX 090720Z 16004KT 0400 R01/0900N R19/1100N FZFG VV002 M04/M04 Q1035=
200601090650 METAR ESMX 090650Z 16004KT 110V200 0500 R01/1000VP1500D R19/P1500N=
200601090620 METAR ESMX 090620Z VRB01KT 6000 BR BKN004 M05/M05 Q1035=
200601090550 METAR ESMX 090550Z VRB02KT 4500 BR SCT002 BKN004 M05/M05 Q1035=
200601090520 METAR ESMX 090520Z VRB02KT 2000 BR BKN002 M05/M05 Q1036=
200601090450 METAR ESMX 090450Z VRB02KT 3500 BR BKN002 M04/M05 Q1036=
200601090420 METAR ESMX 090420Z VRB02KT 2000 BR BKN002 M04/M04 Q1036=
200601090350 METAR ESMX 090350Z AUTO VRB02KT 4600 BR BKN001 OVC005 M04/M04 Q1036=
200601090320 METAR ESMX 090320Z AUTO VRB02KT 6000 BR OVC002 M04/M04 Q1037=
200601090250 METAR ESMX 090250Z AUTO VRB02KT 7000 BR OVC003 M04/M04 Q1037=
200601090220 METAR ESMX 090220Z AUTO VRB02KT 8000 BR OVC003 M03/M04 Q1037=
200601090150 METAR ESMX 090150Z AUTO VRB02KT 8000 BR OVC004 M03/M04 Q1037=
200601090120 METAR ESMX 090120Z VRB02KT 9000 BR BKN005 M03/M04 Q1037=
200601090050 METAR ESMX 090050Z VRB03KT 9999 BKN006 M03/M04 Q1038=
200601090020 METAR ESMX 090020Z VRB03KT 9999 BKN006 M03/M04 Q1038=
200601082350 METAR ESMX 082350Z VRB02KT 9999 BKN006 M03/M04 Q1038=
200601082320 METAR ESMX 082320Z VRB03KT 9999 BKN006 M03/M04 Q1038=
200601082250 METAR ESMX 082250Z VRB03KT 9999 BKN005 M03/M04 Q1038=
200601082220 METAR ESMX 082220Z 15004KT 110V180 9000 BR BKN005 M03/M04 Q1038=
200601082150 METAR ESMX 082150Z VRB02KT 9000 BR BKN005 M03/M04 Q1038=
200601082120 METAR ESMX 082120Z VRB03KT 9999 BKN005 M03/M04 Q1038=
200601082050 METAR ESMX 082050Z VRB02KT 9000 BR BKN004 M03/M04 Q1038=
200601082020 METAR ESMX 082020Z VRB03KT 9000 BR BKN003 M03/M04 Q1038=
200601081950 METAR ESMX 081950Z VRB03KT 8000 BR BKN003 M03/M03 Q1038=
200601081920 METAR ESMX 081920Z VRB03KT 8000 BR BKN004 M03/M03 Q1038=
200601081850 METAR ESMX 081850Z VRB03KT 8000 BR BKN003 M03/M03 Q1038=
200601081820 METAR ESMX 081820Z VRB03KT 8000 BR BKN003 M03/M03 Q1038=
200601081750 METAR ESMX 081750Z VRB03KT 8000 BR BKN003 M03/M03 Q1038=
200601081720 METAR ESMX 081720Z VRB02KT 9000 BR BKN003 M02/M03 Q1038=
200601081650 METAR ESMX 081650Z VRB02KT 8000 BR BKN003 M02/M03 Q1038=
200601081620 METAR ESMX 081620Z VRB03KT 8000 BR BKN002 M02/M03 Q1038=
200601081550 METAR ESMX 081550Z VRB03KT 7000 BR BKN002 M02/M03 Q1038=
200601081520 METAR ESMX 081520Z VRB02KT 5000 BR BKN002 M02/M03 Q1038=
200601081450 METAR ESMX 081450Z VRB02KT 4900 BR BKN002 M02/M03 Q1039=
200601081420 METAR ESMX 081420Z VRB02KT 5000 BR BKN002 M02/M03 Q1039=
200601081350 METAR ESMX 081350Z VRB02KT 4000 BR BKN002 M02/M03 Q1039=
200601081320 METAR ESMX 081320Z VRB03KT 4800 BR BKN002 M02/M03 Q1039=
200601081250 METAR ESMX 081250Z VRB03KT 4500 BR BKN002 M02/M03 Q1039=
200601081220 METAR ESMX 081220Z AUTO VRB03KT 4000 BR OVC001 M02/M03 Q1039=
200601081150 METAR ESMX 081150Z AUTO 13004KT 080V170 3700 BR OVC001 M02/M03 Q1039=
200601081120 METAR ESMX 081120Z AUTO VRB03KT 2300 BR OVC001 M02/M03 Q1039=
200601081050 METAR ESMX 081050Z AUTO VRB03KT 2600 BR OVC001 M02/M03 Q1039=
200601081020 METAR ESMX 081020Z AUTO VRB03KT 2000 BR OVC001 M02/M03 Q1039=
200601080950 METAR ESMX 080950Z AUTO VRB03KT 2500 BR OVC001 M02/M03 Q1039=
200601080920 METAR ESMX 080920Z AUTO VRB03KT 2900 BR OVC001 M02/M03 Q1039=
200601080850 METAR ESMX 080850Z AUTO VRB03KT 1800 BR OVC001 M02/M03 Q1039=
200601080820 METAR ESMX 080820Z AUTO VRB02KT 2700 BR OVC001 M02/M03 Q1039=
200601080750 METAR ESMX 080750Z AUTO VRB03KT 4000 BR OVC001 M02/M03 Q1039=
200601080720 METAR ESMX 080720Z AUTO 14004KT 070V180 3900 BR OVC001 M02/M03 Q1039=
200601080650 METAR ESMX 080650Z AUTO VRB03KT 4200 BR OVC001 M02/M03 Q1039=
200601080620 METAR ESMX 080620Z AUTO VRB03KT 4600 BR OVC001 M02/M03 Q1038=
200601080550 METAR ESMX 080550Z AUTO 14004KT 110V170 3900 BR OVC002 M02/M02 Q1038=
200601080520 METAR ESMX 080520Z AUTO VRB03KT 4700 BR OVC001 M02/M02 Q1038=
200601080450 METAR ESMX 080450Z AUTO VRB03KT 5000 BR OVC001 M02/M02 Q1038=
200601080420 METAR ESMX 080420Z AUTO VRB03KT 4300 BR OVC002 M02/M02 Q1038=
200601080350 METAR ESMX 080350Z AUTO VRB03KT 3800 BR OVC002 M02/M02 Q1038=
200601080320 METAR ESMX 080320Z AUTO 13004KT 070V170 4300 BR OVC002 M02/M02 Q1038=
200601080250 METAR ESMX 080250Z AUTO 14004KT 070V180 5000 BR OVC002 M02/M02 Q1039=
200601080220 METAR ESMX 080220Z AUTO 12004KT 070V160 4200 BR OVC002 M02/M02 Q1039=
200601080150 METAR ESMX 080150Z AUTO VRB03KT 5000 BR OVC002 M02/M02 Q1039=
200601080120 METAR ESMX 080120Z AUTO VRB03KT 6000 BR OVC002 M02/M02 Q1038=
200601080050 METAR ESMX 080050Z AUTO 14004KT 100V170 4200 BR OVC002 M02/M02 Q1038=
200601080020 METAR ESMX 080020Z AUTO 14004KT 100V160 2500 BR BKN001 OVC004 M02/M02 Q1038=
200601072350 METAR ESMX 072350Z AUTO 14005KT 080V190 1600 BR OVC001 M02/M02 Q1038=
200601072320 METAR ESMX 072320Z AUTO 14005KT 110V190 1900 BR OVC001 M02/M02 Q1039=
200601072250 METAR ESMX 072250Z AUTO 14006KT 100V170 1800 BR OVC001 M02/M02 Q1039=
200601072220 METAR ESMX 072220Z AUTO 11005KT 060V170 3200 BR OVC001 M02/M02 Q1039=
200601072150 METAR ESMX 072150Z AUTO 14004KT 070V190 5000 BR OVC002 M02/M02 Q1038=
200601072120 METAR ESMX 072120Z AUTO 11005KT 070V180 6000 BR OVC003 M02/M02 Q1038=
200601072050 METAR ESMX 072050Z AUTO 11005KT 070V160 9000 OVC004 M02/M03 Q1038=
200601072020 METAR ESMX 072020Z AUTO 11005KT 050V160 9999 OVC005 M02/M03 Q1038=
200601071950 METAR ESMX 071950Z AUTO 12005KT 070V170 9999 OVC005 M02/M03 Q1038=
200601071920 METAR ESMX 071920Z AUTO 12005KT 070V180 9999 OVC005 M02/M03 Q1038=
200601071850 METAR ESMX 071850Z AUTO 12005KT 060V170 9999 OVC005 M02/M03 Q1038=
200601071820 METAR ESMX 071820Z AUTO 11004KT 070V180 9999 OVC006 M02/M03 Q1038=
200601071750 METAR ESMX 071750Z AUTO 12005KT 050V160 9999 OVC007 M02/M03 Q1038=
200601071720 METAR ESMX 071720Z AUTO 11006KT 050V150 9999 OVC008 M02/M03 Q1038=
200601071650 METAR ESMX 071650Z AUTO 13006KT 080V170 9999 OVC008 M02/M03 Q1038=
200601071620 METAR ESMX 071620Z AUTO 11007KT 050V170 9999 OVC008 M02/M03 Q1038=
200601071550 METAR ESMX 071550Z AUTO 12005KT 070V200 9999 OVC009 M02/M03 Q1038=
200601071520 METAR ESMX 071520Z AUTO 10005KT 050V170 9999 OVC010 M02/M03 Q1037=
200601071450 METAR ESMX 071450Z AUTO 09005KT 050V140 9999 OVC009 M02/M03 Q1038=
200601071420 METAR ESMX 071420Z AUTO 11004KT 050V210 9999 OVC010 M02/M03 Q1037=
200601071350 METAR ESMX 071350Z AUTO 10005KT 050V150 9999 OVC009 M02/M03 Q1037=
200601071320 METAR ESMX 071320Z AUTO 10005KT 040V170 9999 OVC008 M02/M03 Q1037=
200601071250 METAR ESMX 071250Z AUTO 11004KT 050V150 9999 OVC009 M02/M03 Q1038=
200601071220 METAR ESMX 071220Z AUTO 10005KT 060V150 9999 OVC009 M02/M04 Q1038=
200601071150 METAR ESMX 071150Z AUTO 10005KT 040V150 9999 OVC009 M02/M04 Q1038=
200601071120 METAR ESMX 071120Z AUTO 09004KT 030V150 9999 OVC008 M02/M04 Q1038=
200601071050 METAR ESMX 071050Z AUTO 10004KT 040V160 9999 OVC008 M02/M04 Q1038=
200601071020 METAR ESMX 071020Z AUTO 11006KT 050V140 9999 OVC008 M02/M04 Q1038=
200601070950 METAR ESMX 070950Z AUTO 10005KT 060V160 9999 OVC008 M02/M04 Q1038=
200601070920 METAR ESMX 070920Z AUTO 08004KT 040V140 9999 OVC008 M02/M04 Q1038 RESN=
200601070850 METAR ESMX 070850Z AUTO 09004KT 060V140 9999 -SHSN OVC009 M02/M04 Q1038=
200601070820 METAR ESMX 070820Z AUTO 10005KT 060V150 9999 OVC009 M02/M04 Q1038 RESN=
200601070750 METAR ESMX 070750Z 10006KT 9999 -SHSN OVC009 M02/M04 Q1037=
200601070720 METAR ESMX 070720Z AUTO 09005KT 020V150 9999 -SHSN OVC008 M02/M04 Q1037=
200601070650 METAR ESMX 070650Z AUTO 10004KT 060V180 9999 -SN OVC008 M03/M04 Q1037=
200601070620 METAR ESMX 070620Z AUTO 09004KT 040V140 9999 -SHSN OVC008 M03/M04 Q1037=
200601070550 METAR ESMX 070550Z AUTO 09006KT 040V140 9999 -SN OVC008 M03/M04 Q1037=
200601070520 METAR ESMX 070520Z AUTO 09005KT 050V120 9999 -SN OVC007 M03/M04 Q1037=
200601070450 METAR ESMX 070450Z AUTO 07006KT 020V110 9999 -SN BKN007 OVC010 M03/M04 Q1037=
200601070420 METAR ESMX 070420Z AUTO 08005KT 040V130 9999 -SHSN OVC007 M03/M04 Q1037=
200601070350 METAR ESMX 070350Z AUTO 09005KT 040V160 9999 OVC007 M03/M04 Q1037 RERA=
200601070320 METAR ESMX 070320Z AUTO 09004KT 050V120 9999 OVC007 M03/M04 Q1037=
200601070250 METAR ESMX 070250Z AUTO 08005KT 030V120 9999 OVC007 M03/M04 Q1037 RESN=
200601070220 METAR ESMX 070220Z AUTO 07005KT 010V160 9999 OVC008 M03/M04 Q1037 RESN=
200601070150 METAR ESMX 070150Z AUTO 09006KT 040V130 9999 -SN OVC008 M03/M04 Q1037=
200601070120 METAR ESMX 070120Z AUTO 07005KT 350V110 9999 -SN OVC008 M03/M04 Q1037=
200601070050 METAR ESMX 070050Z AUTO 07006KT 360V110 9999 -SN BKN008 OVC010 M03/M04 Q1037=
200601070020 METAR ESMX 070020Z AUTO 08005KT 020V140 9999 OVC008 M03/M04 Q1037=
200601062350 METAR ESMX 062350Z AUTO 10007KT 040V140 9999 OVC009 M03/M04 Q1037=
200601062320 METAR ESMX 062320Z AUTO 09006KT 060V140 9999 SCT007 OVC010 M03/M04 Q1037=
200601062250 METAR ESMX 062250Z AUTO 09006KT 040V120 9999 OVC006 M02/M04 Q1037=
200601062220 METAR ESMX 062220Z AUTO 07006KT 010V110 9999 OVC007 M02/M04 Q1037=
200601062150 METAR ESMX 062150Z AUTO 07005KT 030V100 9999 OVC008 M03/M04 Q1037=
200601062120 METAR ESMX 062120Z AUTO 08005KT 020V140 9999 OVC008 M03/M04 Q1037=
200601062050 METAR ESMX 062050Z AUTO 08006KT 030V110 9999 OVC008 M03/M04 Q1037=
200601062020 METAR ESMX 062020Z AUTO 06005KT 020V130 9999 OVC008 M02/M04 Q1037=
200601061950 METAR ESMX 061950Z AUTO 08005KT 020V130 9999 OVC008 M02/M04 Q1036=
200601061920 METAR ESMX 061920Z AUTO 08006KT 030V160 9999 OVC008 M03/M04 Q1036=
200601061850 METAR ESMX 061850Z AUTO 08006KT 030V120 9999 FEW007 OVC008 M03/M04 Q1036=
200601061820 METAR ESMX 061820Z AUTO 08006KT 050V120 9999 OVC006 M03/M04 Q1036=
200601061750 METAR ESMX 061750Z AUTO 08007KT 030V130 9999 OVC007 M03/M04 Q1036=
200601061720 METAR ESMX 061720Z AUTO 06005KT 020V110 9999 BKN007 OVC011 M03/M04 Q1036 RESN=
200601061650 METAR ESMX 061650Z AUTO 06004KT 030V120 9999 -SN OVC010 M03/M04 Q1036=
200601061620 METAR ESMX 061620Z AUTO 07004KT 360V110 7000 -SN OVC009 M03/M04 Q1036=
200601061550 METAR ESMX 061550Z AUTO 09004KT 030V130 9999 -SN FEW005 SCT007 BKN010 M03/M04 Q1036=
200601061520 METAR ESMX 061520Z AUTO 06005KT 010V110 9999 OVC005 M03/M04 Q1036=
200601061450 METAR ESMX 061450Z AUTO 07005KT 020V120 9999 OVC005 M03/M04 Q1036=
200601061420 METAR ESMX 061420Z AUTO 07005KT 350V110 9999 BKN005 OVC007 M03/M04 Q1036=
200601061350 METAR ESMX 061350Z AUTO 07005KT 040V110 9999 OVC004 M03/M03 Q1036 REDZ=
200601061320 METAR ESMX 061320Z AUTO 07005KT 030V110 8000 OVC003 M03/M03 Q1036 RESN=
200601061250 METAR ESMX 061250Z 05007KT 5000 -SG OVC003 M03/M03 Q1036=
200601061220 METAR ESMX 061220Z 09005KT 8000 BR OVC003 M03/M03 Q1036=
200601061150 METAR ESMX 061150Z 09004KT 6000 OVC003 M02/M03 Q1036=
200601061120 METAR ESMX 061120Z 09006KT 050V130 9999 -SN OVC003 M02/M03 Q1036=
200601061050 METAR ESMX 061050Z 11006KT 070V160 9999 -SG OVC004 M02/M03 Q1036=
200601061020 METAR ESMX 061020Z 09006KT 040V150 9999 BKN004 M02/M03 Q1036=
200601060850 METAR ESMX 060850Z 10007KT 050V140 9999 OVC006 M03/M04 Q1036=
200601060820 METAR ESMX 060820Z 08007KT 340V150 9999 OVC006 M03/M04 Q1036=
200601060750 METAR ESMX 060750Z 11008KT 050V160 9999 OVC005 M03/M03 Q1036=
200601060720 METAR ESMX 060720Z 08006KT 030V120 9999 OVC005 M03/M03 Q1036=
200601060650 METAR ESMX 060650Z 09008KT 050V160 9999 OVC005 M03/M04 Q1035=
200601060620 METAR ESMX 060620Z 10007KT 060V140 9999 OVC005 M03/M04 Q1035=
200601060550 METAR ESMX 060550Z AUTO 08007KT 010V140 9999 OVC006 M03/M04 Q1035=
200601060520 METAR ESMX 060520Z AUTO 09008KT 040V130 9999 OVC005 M03/M04 Q1035=
200601060450 METAR ESMX 060450Z AUTO 09007KT 040V120 9999 OVC006 M03/M04 Q1035=
200601060420 METAR ESMX 060420Z AUTO 10007KT 060V140 9999 OVC006 M03/M04 Q1035=
200601060350 METAR ESMX 060350Z AUTO 09007KT 050V140 9999 OVC006 M03/M04 Q1035=
200601060320 METAR ESMX 060320Z AUTO 09007KT 040V150 9999 OVC006 M03/M04 Q1035=
200601060250 METAR ESMX 060250Z AUTO 09007KT 050V130 9999 OVC006 M03/M04 Q1035=
200601060220 METAR ESMX 060220Z AUTO 09007KT 050V130 9999 BKN006 OVC008 M03/M04 Q1035=
200601060150 METAR ESMX 060150Z AUTO 08007KT 030V150 9999 OVC006 M03/M03 Q1035=
200601060120 METAR ESMX 060120Z AUTO 09009KT 060V140 9999 OVC006 M03/M04 Q1035=
200601060050 METAR ESMX 060050Z AUTO 10007KT 050V170 9999 OVC006 M03/M04 Q1035=
200601060020 METAR ESMX 060020Z AUTO 11009KT 040V140 9999 OVC005 M02/M04 Q1035=
200601052350 METAR ESMX 052350Z AUTO 10006KT 040V150 9999 OVC006 M02/M03 Q1035=
200601052320 METAR ESMX 052320Z AUTO 10006KT 360V150 9999 OVC006 M02/M04 Q1035=
200601052250 METAR ESMX 052250Z AUTO 11007KT 050V170 9999 FEW006 OVC007 M02/M04 Q1035 RESN=
200601052220 METAR ESMX 052220Z AUTO 10008KT 060V160 9999 -SHSN BKN007 OVC009 M02/M04 Q1035=
200601052150 METAR ESMX 052150Z AUTO 09007KT 050V120 9999 SHRA OVC006 M02/M03 Q1035=
200601052120 METAR ESMX 052120Z AUTO 08008KT 350V150 9999 -SN OVC007 M02/M03 Q1035=
200601052050 METAR ESMX 052050Z AUTO 08007G17KT 020V140 9999 -SN FEW009 OVC010 M02/M04 Q1035=
200601052020 METAR ESMX 052020Z AUTO 09006KT 040V140 9999 -SN OVC008 M02/M04 Q1035=
200601051950 METAR ESMX 051950Z AUTO 10009KT 010V150 9999 OVC008 M03/M04 Q1035=
200601051920 METAR ESMX 051920Z AUTO 08009KT 040V130 9999 OVC007 M02/M04 Q1036=
200601051850 METAR ESMX 051850Z AUTO 09008KT 030V120 9999 OVC007 M02/M04 Q1036 RESN=
200601051820 METAR ESMX 051820Z 08008KT 020V140 9999 -SN BKN008 M02/M04 Q1035=
200601051750 METAR ESMX 051750Z 10006KT 040V160 8000 -SN FEW008 BKN010 M02/M04 Q1036=
200601051720 METAR ESMX 051720Z 09006KT 050V130 9999 -SN BKN010 M02/M03 Q1036=
200601051650 METAR ESMX 051650Z 07007KT 020V120 9999 -SHSN SCT011 BKN014 M02/M03 Q1036=
200601051620 METAR ESMX 051620Z 09007KT 040V120 9999 -SHSN FEW010 BKN015 M02/M04 Q1036=
200601051550 METAR ESMX 051550Z 11007KT 060V150 9999 -SHSN FEW011 BKN015 M01/M03 Q1036=
200601051520 METAR ESMX 051520Z 06006KT 020V110 9999 -SN SCT012 BKN020 M01/M03 Q1036=
200601051450 METAR ESMX 051450Z 05007KT 020V110 9999 SCT015 BKN020 M01/M03 Q1036=
200601051420 METAR ESMX 051420Z 08006KT 020V110 6000 -SHSN FEW008 BKN010 M01/M02 Q1036=
200601051350 METAR ESMX 051350Z 09007KT 050V150 6000 BR FEW006 SCT017 BKN020 M00/M02 Q1036=
200601051320 METAR ESMX 051320Z 09006KT 040V140 9999 FEW010 SCT015 BKN020 M00/M02 Q1036=
200601051250 METAR ESMX 051250Z 06006KT 9999 SCT013 BKN018 M00/M01 Q1036=
200601051220 METAR ESMX 051220Z 06006KT 8000 -SHSN BKN012 BKN020 00/M01 Q1036=
200601051150 METAR ESMX 051150Z 07005KT 9000 -SN FEW007 SCT009 BKN011 00/M01 Q1036=
200601051120 METAR ESMX 051120Z 05005KT 9999 FEW007 BKN010 OVC023 00/M01 Q1037=
200601051050 METAR ESMX 051050Z 07005KT 9999 SCT008 BKN011 M00/M01 Q1037=
200601051020 METAR ESMX 051020Z 06006KT 9999 BKN007 OVC011 M00/M01 Q1037=
200601050950 METAR ESMX 050950Z 06006KT 020V110 9999 BKN006 OVC008 M00/M01 Q1038=
200601050920 METAR ESMX 050920Z 06005KT 9999 BKN006 M01/M01 Q1038=
200601050850 METAR ESMX 050850Z 05006KT 9999 FEW007 SCT008 BKN012 M01/M02 Q1038=
200601050820 METAR ESMX 050820Z 04005KT 9999 BKN022 OVC027 M01/M02 Q1038=
200601050750 METAR ESMX 050750Z 04006KT 9999 BKN020 M01/M02 Q1038=
200601050720 METAR ESMX 050720Z 04006KT 9999 -SN FEW005 SCT015 BKN018 M01/M02 Q1038=
200601050650 METAR ESMX 050650Z VRB03KT 4500 -SN FEW004 SCT006 OVC014 M01/M02 Q1038=
200601050620 METAR ESMX 050620Z 04004KT 2200 -SN FEW004 SCT007 BKN014 M01/M02 Q1038=
200601050550 METAR ESMX 050550Z 03003KT 2000 -SN FEW006 BKN009 BKN014 M01/M02 Q1038=
200601050520 METAR ESMX 050520Z AUTO 05004KT 6000 -SN OVC007 M01/M02 Q1038=
200601050450 METAR ESMX 050450Z AUTO 07004KT 040V120 9999 OVC008 M01/M02 Q1039=
200601050420 METAR ESMX 050420Z AUTO 09008KT 040V150 9999 OVC009 M01/M02 Q1038=
200601050350 METAR ESMX 050350Z AUTO 07006KT 030V120 9999 FEW008 OVC010 M01/M02 Q1038=
200601050320 METAR ESMX 050320Z AUTO 05006KT 010V100 8000 BR OVC008 M01/M02 Q1038=
200601050250 METAR ESMX 050250Z AUTO 06006KT 020V100 9999 OVC008 M01/M02 Q1039 RESN=
200601050220 METAR ESMX 050220Z AUTO 08007KT 050V120 7000 -SHSN BKN006 OVC009 M00/M01 Q1039=
200601050150 METAR ESMX 050150Z AUTO 07005KT 030V110 9999 FEW007 BKN008 OVC010 M00/M01 Q1039 RESN=
200601050120 METAR ESMX 050120Z AUTO VRB03KT 9999 -SN FEW010 OVC012 M00/M01 Q1039=
200601050050 METAR ESMX 050050Z 08004KT 030V110 6000 -SN FEW009 OVC015 M00/M01 Q1039=
200601050020 METAR ESMX 050020Z 04004KT 5000 -SN OVC006 M00/M01 Q1039=
200601042350 METAR ESMX 042350Z 04004KT 010V080 3800 -SN OVC005 M00/M01 Q1039=
200601042320 METAR ESMX 042320Z 04004KT 4800 -SN FEW004 OVC006 M00/M01 Q1039=
200601042220 METAR ESMX 042220Z 05004KT 020V110 5000 -SHSN OVC005 M00/M01 Q1039=
200601042150 METAR ESMX 042150Z 04004KT 020V080 5000 -SHSN OVC005 M00/M01 Q1039=
200601042120 METAR ESMX 042120Z VRB03KT 5000 -SHSN OVC005 M01/M01 Q1039=
200601042050 METAR ESMX 042050Z 04004KT 9000 -SHSN FEW004 OVC006 M01/M01 Q1039=
200601042020 METAR ESMX 042020Z 06004KT 030V110 5000 -SN OVC003 M01/M01 Q1039=
200601041950 METAR ESMX 041950Z 06004KT 020V080 9000 BR OVC003 M01/M01 Q1039=
200601041920 METAR ESMX 041920Z 04004KT 010V070 8000 BR OVC003 M01/M01 Q1039=
200601041850 METAR ESMX 041850Z 03005KT 9999 OVC004 M01/M02 Q1038=
200601041820 METAR ESMX 041820Z 04005KT 9999 BKN004 M01/M02 Q1038=
200601041750 METAR ESMX 041750Z 03005KT 9999 BKN005 M01/M02 Q1038=
200601041720 METAR ESMX 041720Z 04006KT 9999 BKN005 M01/M02 Q1038=
200601041650 METAR ESMX 041650Z 04006KT 9999 BKN006 M01/M02 Q1038=
200601041620 METAR ESMX 041620Z 04006KT 9999 -SN BKN006 M02/M02 Q1038=
200601041550 METAR ESMX 041550Z 03006KT 350V080 8000 -SN BKN006 M02/M02 Q1038=
200601041520 METAR ESMX 041520Z 02005KT 9000 -SN BKN006 M02/M03 Q1038=
200601041450 METAR ESMX 041450Z 02005KT 9000 -SN BKN006 M02/M03 Q1037=
200601041420 METAR ESMX 041420Z 01006KT 7000 BKN007 M02/M03 Q1037=
200601041350 METAR ESMX 041350Z 01006KT 6000 -SN SCT008 BKN020 M02/M03 Q1037=
200601041320 METAR ESMX 041320Z 02007KT 9999 FEW008 BKN025 M03/M03 Q1037=
200601041250 METAR ESMX 041250Z 02006KT 9999 OVC026 M03/M04 Q1037=
200601041220 METAR ESMX 041220Z 01007KT 9999 OVC026 M03/M04 Q1037=
200601041150 METAR ESMX 041150Z 01006KT 9999 BKN027 M03/M04 Q1036=
200601041120 METAR ESMX 041120Z 36005KT 9999 BKN025 M03/M04 Q1036=
200601041050 METAR ESMX 041050Z 01005KT 9000 -SN FEW014 BKN020 M04/M04 Q1037=
200601041020 METAR ESMX 041020Z 36005KT 9999 BKN013 OVC017 M04/M04 Q1036=
200601040950 METAR ESMX 040950Z 36005KT 9999 SCT015 OVC018 M04/M05 Q1036=
200601040920 METAR ESMX 040920Z 36004KT 9999 OVC016 M04/M05 Q1036=
200601040850 METAR ESMX 040850Z 36004KT 9999 BKN016 M05/M05 Q1036=
200601040820 METAR ESMX 040820Z 36004KT 9999 BR BKN017 M05/M05 Q1036=
200601040750 METAR ESMX 040750Z VRB03KT 9999 BR OVC018 M05/M05 Q1035=
200601040720 METAR ESMX 040720Z VRB03KT 9000 BR BKN012 OVC017 M05/M06 Q1035=
200601040650 METAR ESMX 040650Z VRB03KT 9000 BR SCT004 OVC012 M05/M06 Q1035=
200601040620 METAR ESMX 040620Z VRB03KT 9000 BR BKN004 OVC014 M05/M06 Q1035=
200601040550 METAR ESMX 040550Z 02004KT 9999 SCT003 BKN005 OVC013 M06/M06 Q1034=
200601040520 METAR ESMX 040520Z AUTO 04004KT 9000 BR OVC004 M06/M06 Q1034=
200601040450 METAR ESMX 040450Z AUTO 04005KT 8000 BR OVC003 M06/M06 Q1034=
200601040420 METAR ESMX 040420Z AUTO VRB03KT 8000 BR OVC003 M06/M06 Q1034=
200601040350 METAR ESMX 040350Z AUTO 03004KT 6000 BR OVC002 M06/M06 Q1034=
200601040320 METAR ESMX 040320Z AUTO VRB03KT 9000 OVC002 M07/M07 Q1034=
200601040250 METAR ESMX 040250Z AUTO VRB02KT 9999 OVC002 M08/M08 Q1033=
200601040220 METAR ESMX 040220Z AUTO VRB02KT 9999 OVC002 M08/M09 Q1033=
200601040150 METAR ESMX 040150Z AUTO VRB02KT 9999 OVC003 M09/M10 Q1033=
200601040120 METAR ESMX 040120Z VRB01KT 9999 OVC005 M10/M10 Q1033=
200601040050 METAR ESMX 040050Z VRB01KT 9999 OVC006 M10/M11 Q1033=
200601040020 METAR ESMX 040020Z 00000KT 9999 OVC005 M11/M12 Q1032=
200601032350 METAR ESMX 032350Z VRB02KT 9999 BKN005 M12/M13 Q1032=
200601032320 METAR ESMX 032320Z VRB02KT 9999 FEW001 M12/M13 Q1032=
200601032250 METAR ESMX 032250Z VRB02KT 9000 BR SCT002 M12/M12 Q1032=
200601032220 METAR ESMX 032220Z VRB02KT 0300 R01/0800VP1500U R19/P1500N FZFG VV002 M11/M12 Q1032=
200601032150 METAR ESMX 032150Z VRB02KT 0350 R01/0800VP1500D R19/P1500D FZFG VV002 M11/M12 Q1031=
200601032120 METAR ESMX 032120Z VRB02KT 6000 BR BKN002 M11/M12 Q1031=
200601032050 METAR ESMX 032050Z VRB01KT 6000 BR BKN001 M11/M12 Q1031=
200601032020 METAR ESMX 032020Z VRB02KT 6000 BR BKN001 M10/M11 Q1031=
200601031950 METAR ESMX 031950Z VRB03KT 5000 BCFG SCT001 M10/M11 Q1030=
200601031920 METAR ESMX 031920Z VRB03KT 2000 R19/P1500U BCFG SCT001 M09/M10 Q1030=
200601031820 METAR ESMX 031820Z VRB03KT 9000 BR BKN002 BKN033 M08/M08 Q1030=
200601031750 METAR ESMX 031750Z VRB02KT 9999 BKN001 OVC034 M06/M07 Q1030=
200601031720 METAR ESMX 031720Z VRB02KT 9999 FEW003 OVC033 M06/M07 Q1029=
200601031650 METAR ESMX 031650Z VRB01KT 9999 FEW002 OVC033 M06/M07 Q1029=
200601031620 METAR ESMX 031620Z VRB03KT 9999 BKN033 M06/M07 Q1029=
200601031550 METAR ESMX 031550Z VRB02KT 9999 BKN033 M06/M07 Q1029=
200601031520 METAR ESMX 031520Z VRB02KT 9999 BKN034 M06/M07 Q1029=
200601031450 METAR ESMX 031450Z VRB02KT 9999 BKN035 M06/M07 Q1029=
200601031420 METAR ESMX 031420Z VRB03KT 9999 BKN035 M06/M07 Q1028=
200601031350 METAR ESMX 031350Z VRB02KT 9999 BKN036 M06/M07 Q1028=
200601031320 METAR ESMX 031320Z VRB02KT 9999 BKN037 M06/M07 Q1028=
200601031250 METAR ESMX 031250Z VRB02KT 9999 BKN035 M06/M07 Q1028=
200601031220 METAR ESMX 031220Z VRB02KT 9999 BKN035 M07/M07 Q1028=
200601031150 METAR ESMX 031150Z VRB02KT 9999 FEW002 OVC034 M07/M07 Q1028=
200601031120 METAR ESMX 031120Z VRB02KT 9000 BR SCT001 OVC035 M07/M07 Q1028=
200601031050 METAR ESMX 031050Z VRB03KT 9000 BR SCT002 BKN035 M07/M08 Q1028=
200601031020 METAR ESMX 031020Z VRB03KT 8000 BR FEW002 BKN035 M07/M07 Q1027=
200601030950 METAR ESMX 030950Z VRB02KT 7000 BR FEW002 BKN035 M07/M08 Q1028=
200601030920 METAR ESMX 030920Z VRB03KT 3000 BCFG BKN035 M07/M08 Q1028=
200601030850 METAR ESMX 030850Z VRB03KT 1500 R01/P1500D R19/0800VP1500D BCFG VV002 M07/M08 Q1028=
200601030820 METAR ESMX 030820Z VRB02KT 9999 SCT002 BKN035 M07/M08 Q1027=
200601030750 METAR ESMX 030750Z VRB03KT 9999 SCT002 BKN036 M07/M07 Q1027=
200601030720 METAR ESMX 030720Z VRB03KT 9999 BKN036 M06/M07 Q1027=
200601030650 METAR ESMX 030650Z VRB03KT 9999 BKN036 M06/M06 Q1027=
200601030620 METAR ESMX 030620Z 35004KT 9999 BKN035 M06/M06 Q1027=
200601030550 METAR ESMX 030550Z VRB03KT 9000 BR BKN035 M05/M06 Q1026=
200601030520 METAR ESMX 030520Z AUTO VRB03KT 9000 BR OVC036 M05/M05 Q1026=
200601030450 METAR ESMX 030450Z AUTO VRB03KT 8000 BR OVC034 M04/M05 Q1026=
200601030420 METAR ESMX 030420Z AUTO 00000KT 8000 BR OVC034 M04/M05 Q1026=
200601030350 METAR ESMX 030350Z AUTO VRB02KT 8000 BR OVC034 M04/M05 Q1026=
200601030320 METAR ESMX 030320Z AUTO VRB02KT 8000 BR OVC035 M04/M05 Q1026=
200601030250 METAR ESMX 030250Z AUTO VRB01KT 8000 BR OVC035 M04/M05 Q1026=
200601030220 METAR ESMX 030220Z AUTO VRB01KT 8000 BR OVC037 M04/M05 Q1026=
200601030150 METAR ESMX 030150Z AUTO VRB02KT 9000 BR OVC036 M04/M05 Q1025=
200601030120 METAR ESMX 030120Z AUTO VRB02KT 9000 BR SCT032 OVC038 M05/M05 Q1025=
200601030050 METAR ESMX 030050Z 33002KT 8000 BR BKN032 OVC041 M05/M05 Q1025=
200601030020 METAR ESMX 030020Z 29001KT 7000 BR OVC033 M05/M05 Q1025=
200601022350 METAR ESMX 022350Z 33003KT 7000 BR BKN028 M05/M05 Q1025=
200601022320 METAR ESMX 022320Z 36003KT 7000 BR OVC025 M04/M05 Q1025=
200601022250 METAR ESMX 022250Z 36003KT 6000 BR OVC024 M04/M05 Q1025=
200601022220 METAR ESMX 022220Z 35002KT 7000 BR OVC024 M04/M05 Q1025=
200601022150 METAR ESMX 022150Z 36003KT 6000 BR OVC024 M04/M05 Q1024=
200601022120 METAR ESMX 022120Z VRB03KT 6000 BR OVC024 M05/M05 Q1024=
200601022050 METAR ESMX 022050Z VRB03KT 5000 BR OVC025 M05/M05 Q1024=
200601022020 METAR ESMX 022020Z VRB02KT 6000 BR OVC025 M04/M05 Q1023=
200601021950 METAR ESMX 021950Z VRB03KT 5000 BR OVC028 M05/M05 Q1023=
200601021920 METAR ESMX 021920Z VRB03KT 5000 BR BKN029 M04/M04 Q1023=
200601021850 METAR ESMX 021850Z 01004KT 6000 BR BKN029 M04/M04 Q1023=
200601021820 METAR ESMX 021820Z VRB03KT 6000 BR BKN023 OVC029 M03/M03 Q1023=
200601021750 METAR ESMX 021750Z VRB03KT 6000 BR OVC022 M03/M03 Q1023=
200601021720 METAR ESMX 021720Z VRB03KT 6000 BR OVC022 M03/M03 Q1022=
200601021650 METAR ESMX 021650Z VRB01KT 6000 BR OVC020 M03/M03 Q1022=
200601021620 METAR ESMX 021620Z VRB03KT 6000 BR OVC020 M03/M03 Q1022=
200601021550 METAR ESMX 021550Z VRB02KT 7000 BR OVC019 M03/M03 Q1022=
200601021520 METAR ESMX 021520Z VRB02KT 7000 BR OVC018 M03/M03 Q1021=
200601021450 METAR ESMX 021450Z VRB03KT 7000 BR OVC018 M03/M03 Q1021=
200601021420 METAR ESMX 021420Z VRB02KT 8000 BR OVC018 M03/M04 Q1021=
200601021350 METAR ESMX 021350Z VRB03KT 8000 BR OVC018 M03/M04 Q1021=
200601021250 METAR ESMX 021250Z 01004KT 9000 BR SCT014 BKN017 M03/M04 Q1020=
200601021220 METAR ESMX 021220Z VRB03KT 9000 BR FEW014 BKN017 M03/M04 Q1020=
200601021150 METAR ESMX 021150Z VRB03KT 9000 BR SCT013 BKN018 M03/M04 Q1019=
200601021120 METAR ESMX 021120Z VRB03KT 9000 BR SCT012 BKN017 OVC020 M04/M05 Q1019=
200601021050 METAR ESMX 021050Z 01004KT 8000 BR BKN012 M04/M05 Q1019=
200601021020 METAR ESMX 021020Z 35004KT 9000 BR BKN012 M04/M05 Q1019=
200601020950 METAR ESMX 020950Z 36004KT 9000 BR BKN011 BKN021 M04/M05 Q1019=
200601020920 METAR ESMX 020920Z VRB03KT 8000 BR FEW013 BKN021 M05/M05 Q1018=
200601020850 METAR ESMX 020850Z VRB03KT 8000 BR FEW014 BKN021 M05/M05 Q1018=
200601020750 METAR ESMX 020750Z VRB01KT 6000 BR BKN020 M05/M06 Q1017=
200601020720 METAR ESMX 020720Z VRB03KT 6000 BR BKN020 M05/M05 Q1017=
200601020650 METAR ESMX 020650Z 36004KT 5000 BR BKN016 M05/M05 Q1017=
200601020620 METAR ESMX 020620Z VRB02KT 5000 BR BKN015 M05/M05 Q1016=
200601020550 METAR COR ESMX 020550Z VRB03KT 6000 BR SCT016 BKN025 M04/M04 Q1016=
200601020520 METAR ESMX 020520Z AUTO VRB03KT 6000 BR FEW014 BKN022 M04/M04 Q1015=
200601020450 METAR ESMX 020450Z AUTO 36005KT 5000 BR BKN003 BKN013 M03/M03 Q1015=
200601020420 METAR ESMX 020420Z AUTO 02004KT 5000 BR OVC002 M02/M03 Q1015=
200601020350 METAR ESMX 020350Z AUTO 01004KT 5000 BR OVC002 M03/M03 Q1014=
200601020320 METAR ESMX 020320Z AUTO VRB03KT 5000 BR FEW004 OVC013 M02/M03 Q1014=
200601020250 METAR ESMX 020250Z AUTO VRB03KT 6000 BR FEW005 OVC012 M02/M02 Q1014=
200601020220 METAR ESMX 020220Z AUTO VRB03KT 6000 BR SCT005 OVC011 M02/M02 Q1013=
200601020150 METAR ESMX 020150Z AUTO VRB03KT 5000 BR OVC005 M02/M02 Q1013=
200601020050 METAR ESMX 020050Z VRB03KT 9000 -SHSN SCT005 BKN017 M02/M02 Q1012=
200601020020 METAR ESMX 020020Z VRB03KT 9000 -SHSN SCT005 BKN017 M02/M02 Q1012=
200601012350 METAR ESMX 012350Z VRB02KT 9999 BKN016 M01/M02 Q1011=
200601012250 METAR ESMX 012250Z VRB02KT 9999 BR BKN014 M01/M02 Q1011=
200601012220 METAR ESMX 012220Z VRB02KT 9999 BR FEW013 OVC018 M01/M02 Q1010=
200601012150 METAR ESMX 012150Z VRB03KT 9999 BR FEW013 SCT018 OVC021 M02/M02 Q1010=
200601012120 METAR ESMX 012120Z VRB02KT 9999 FEW010 SCT012 BKN022 M01/M02 Q1009=
200601012050 METAR ESMX 012050Z VRB02KT 9999 FEW010 BKN023 M01/M02 Q1009=
200601012020 METAR ESMX 012020Z VRB02KT 6000 -SN FEW008 BKN022 M01/M02 Q1009=
200601011950 METAR ESMX 011950Z VRB02KT 3000 -SN FEW008 BKN021 M01/M02 Q1008=
200601011920 METAR ESMX 011920Z 01004KT 2400 -SN FEW005 BKN021 M01/M02 Q1008=
200601011850 METAR ESMX 011850Z VRB01KT 2500 -SN FEW006 SCT021 BKN029 M01/M02 Q1007=
200601011820 METAR ESMX 011820Z VRB02KT 4600 -SHSN FEW016 BKN020 M01/M02 Q1007=
200601011750 METAR ESMX 011750Z VRB02KT 5000 -SN BKN020 M01/M02 Q1006=
200601011650 METAR ESMX 011650Z VRB02KT 2800 -SN FEW010 OVC013 M01/M02 Q1006=
200601011620 METAR ESMX 011620Z VRB01KT 2400 -SN FEW003 BKN010 M01/M02 Q1005=
200601011550 METAR ESMX 011550Z VRB03KT 3000 -SN FEW006 SCT007 OVC009 M01/M02 Q1005=
200601011520 METAR ESMX 011520Z VRB03KT 3100 -SN SCT004 OVC006 M01/M02 Q1004=
200601011450 METAR ESMX 011450Z VRB03KT 4000 -SN BKN005 M01/M02 Q1004=
200601011420 METAR ESMX 011420Z VRB02KT 2700 -SN OVC002 M01/M02 Q1003=
200601011350 METAR ESMX 011350Z VRB03KT 2400 -SN OVC002 M01/M02 Q1003=
200601011320 METAR ESMX 011320Z AUTO VRB01KT 1300 R01/P1500N R19/P1500U -SN OVC001 M01/M02 Q1002=
200601011250 METAR ESMX 011250Z AUTO VRB02KT 0700 R01/1100N R19/1400U -SN VV002 M01/M02 Q1002=
200601011220 METAR ESMX 011220Z AUTO VRB01KT 0550 R01/0900N R19/1000N FG VV001 M01/M02 Q1002=
