##########################################################
# Query made at 04/19/2024 20:59:29 UTC
# Time interval: from 09/01/2007 12:00  to 09/30/2007 12:59  UTC
##########################################################

##########################################################
# ESMX, Vaxjo (Sweden)
# WMO index: 02641. WIGOS ID: 0-20000-0-02648
# Latitude 56-51N. Longitude 014-50E. Altitude 199 m.
##########################################################

200709301250 METAR ESMX 301250Z 17008KT 120V210 9999 FEW005 SCT008 BKN009 12/11 Q1016 REDZ RERA=
200709301220 METAR ESMX 301220Z 17006KT 140V200 3600 DZ SCT005 BKN007 OVC009 12/11 Q1016 RERA=
200709301150 METAR ESMX 301150Z 16008KT 130V200 9999 -RA SCT004 BKN007 12/11 Q1016=
200709301120 METAR ESMX 301120Z 15007KT 100V190 9000 -DZ SCT005 BKN008 12/11 Q1016=
200709301050 METAR ESMX 301050Z 15008KT 110V190 7000 -RA SCT006 BKN009 12/11 Q1016=
200709301020 METAR ESMX 301020Z AUTO 16008KT 090V190 9999NDV FEW006/// OVC008/// 12/11 Q1015=
200709300950 METAR ESMX 300950Z AUTO 15007KT 100V190 5000NDV -DZ FEW008/// BKN010/// OVC016/// 12/11 Q1015 RERA=
200709300920 METAR ESMX 300920Z AUTO 15008KT 110V200 9999NDV FEW007/// SCT010/// BKN013/// 12/11 Q1015=
200709300850 METAR ESMX 300850Z AUTO 15007KT 110V190 9999NDV FEW008/// SCT010/// BKN012/// 12/11 Q1015=
200709300820 METAR ESMX 300820Z AUTO 16009KT 110V200 9999NDV FEW007/// SCT010/// BKN013/// 12/11 Q1015 REDZ=
200709300750 METAR ESMX 300750Z AUTO 16008KT 110V200 6000NDV DZ FEW005/// SCT006/// OVC008/// 12/11 Q1014 RERA=
200709300720 METAR ESMX 300720Z AUTO 15008KT 110V170 4800NDV -RA FEW005/// BKN006/// OVC008/// 12/11 Q1014 REDZ=
200709300650 METAR ESMX 300650Z AUTO 15007KT 110V190 4200NDV -RA FEW005/// OVC007/// 12/11 Q1014 REDZ=
200709300620 METAR ESMX 300620Z AUTO 15008KT 110V180 7000NDV -DZ FEW005/// BKN007/// OVC009/// 12/11 Q1014 RERA=
200709300550 METAR ESMX 300550Z AUTO 15008KT 090V200 5000NDV -RA FEW005/// SCT007/// BKN008/// 11/11 Q1013 REDZ=
200709300520 METAR ESMX 300520Z AUTO 15007KT 100V190 3300NDV -RA FEW004/// BKN005/// OVC008/// 11/11 Q1013=
200709300450 METAR ESMX 300450Z AUTO 13006KT 070V170 5000NDV -RA FEW005/// BKN008/// OVC013/// 11/11 Q1013 REDZ=
200709300420 METAR ESMX 300420Z AUTO 15006KT 120V200 9999NDV -RA FEW008/// SCT010/// BKN020/// 11/10 Q1013=
200709300350 METAR ESMX 300350Z AUTO 15007KT 110V190 9999NDV -DZ FEW006/// BKN009/// OVC015/// 12/11 Q1012 RERA=
200709300320 METAR ESMX 300320Z AUTO 14005KT 090V170 8000NDV -RA FEW004/// SCT008/// BKN015/// 12/11 Q1012=
200709300250 METAR ESMX 300250Z AUTO 15007KT 100V200 8000NDV -RA FEW006/// SCT007/// BKN009/// 12/11 Q1012 REDZ=
200709300220 METAR ESMX 300220Z AUTO 14007KT 080V220 9000NDV DZ FEW006/// BKN008/// OVC010/// 12/11 Q1012 RERA=
200709300150 METAR ESMX 300150Z AUTO 12005KT 070V220 8000NDV DZ FEW006/// SCT008/// BKN009/// 12/11 Q1012 RERA=
200709300120 METAR ESMX 300120Z AUTO 15006KT 9999NDV -DZ FEW006/// SCT008/// BKN010/// 12/11 Q1012 RERA=
200709300050 METAR ESMX 300050Z AUTO VRB05KT 7000NDV -DZ FEW006/// BKN007/// OVC010/// 12/11 Q1012 RERA=
200709300020 METAR ESMX 300020Z AUTO 13005KT 030V190 9999NDV FEW007/// BKN009/// OVC016/// 12/11 Q1012 REDZ=
200709292350 METAR ESMX 292350Z AUTO 14006KT 100V200 7000NDV FEW007/// SCT009/// BKN010/// 12/11 Q1012=
200709292320 METAR ESMX 292320Z AUTO 13007KT 080V180 9999NDV FEW005/// SCT008/// OVC010/// 12/11 Q1012 REDZ RERA=
200709292250 METAR ESMX 292250Z AUTO 13006KT 090V170 9000NDV DZ FEW006/// SCT008/// BKN010/// 12/11 Q1012 RERA=
200709292220 METAR ESMX 292220Z AUTO 13004KT 070V210 6000NDV -RA FEW006/// SCT007/// BKN009/// 12/11 Q1011 REDZ=
200709292150 METAR ESMX 292150Z AUTO 12006KT 040V200 9999NDV DZ FEW007/// BKN009/// BKN015/// 12/11 Q1011 RERA=
200709292120 METAR ESMX 292120Z AUTO 14005KT 070V170 9999NDV -RA FEW008/// SCT010/// BKN013/// 12/11 Q1011 REDZ=
200709292050 METAR ESMX 292050Z AUTO 13007KT 070V170 9999NDV FEW007/// BKN010/// OVC014/// 12/11 Q1011 RERA REDZ=
200709292020 METAR ESMX 292020Z AUTO 14007KT 080V180 9999NDV FEW009/// SCT010/// BKN013/// 12/11 Q1011=
200709291950 METAR ESMX 291950Z AUTO 13006KT 070V190 9999NDV DZ FEW009/// SCT011/// BKN014/// 12/11 Q1011 RERA=
200709291920 METAR ESMX 291920Z AUTO 13007KT 030V180 7000NDV -RA FEW007/// SCT011/// BKN016/// 12/11 Q1011=
200709291850 METAR ESMX 291850Z AUTO 12009G19KT 060V190 9000NDV RA FEW009/// SCT012/// BKN015/// 12/11 Q1010=
200709291820 METAR ESMX 291820Z AUTO 10008KT 060V160 9999NDV -RA FEW009/// BKN010/// OVC015/// 12/11 Q1010=
200709291750 METAR ESMX 291750Z AUTO 12007KT 060V170 7000NDV RA FEW008/// SCT010/// BKN013/// 12/11 Q1010=
200709291720 METAR ESMX 291720Z AUTO 11007KT 060V170 9000NDV -RA FEW009/// BKN011/// OVC016/// 12/11 Q1010=
200709291650 METAR ESMX 291650Z AUTO 12007KT 060V170 5000NDV RA FEW011/// BKN015/// BKN020/// 12/11 Q1010=
200709291620 METAR ESMX 291620Z AUTO 10007G17KT 050V160 9999NDV DZ BKN016/// OVC022/// 12/10 Q1010 RERA=
200709291550 METAR ESMX 291550Z AUTO 11007KT 070V160 9999NDV -RA FEW016/// OVC019/// 12/10 Q1010 REDZ=
200709291520 METAR ESMX 291520Z AUTO 09008KT 020V140 9999NDV FEW016/// BKN021/// OVC025/// 12/10 Q1010=
200709291450 METAR ESMX 291450Z AUTO 09008KT 030V170 9999NDV FEW016/// BKN022/// 12/10 Q1010 REDZ=
200709291420 METAR ESMX 291420Z AUTO 11010KT 050V170 7000NDV -RA SCT020/// OVC024/// 12/10 Q1010=
200709291350 METAR ESMX 291350Z AUTO 11009G19KT 050V170 9999NDV FEW022/// OVC026/// 13/09 Q1009=
200709291320 METAR ESMX 291320Z AUTO 11009KT 040V160 9999NDV FEW023/// BKN028/// OVC035/// 13/09 Q1009=
200709291250 METAR ESMX 291250Z AUTO 11009KT 050V150 9999NDV FEW028/// SCT039/// OVC047/// 14/09 Q1009=
200709291220 METAR ESMX 291220Z AUTO 11010G20KT 030V170 9999NDV FEW028/// BKN034/// OVC044/// 14/08 Q1009=
200709291150 METAR ESMX 291150Z AUTO 11009KT 060V160 9999NDV FEW030/// SCT036/// BKN040/// 14/08 Q1009=
200709291120 METAR ESMX 291120Z AUTO 11008G21KT 040V180 9999NDV FEW024/// SCT038/// BKN043/// 14/09 Q1009=
200709291050 METAR ESMX 291050Z AUTO 11009G19KT 060V160 9999NDV FEW022/// SCT033/// BKN041/// 15/10 Q1009=
200709291020 METAR ESMX 291020Z AUTO 10011KT 060V160 9999NDV SCT022/// BKN036/// 16/11 Q1008=
200709290950 METAR ESMX 290950Z AUTO 11011KT 050V160 9999NDV FEW017/// SCT031/// BKN037/// 15/11 Q1009=
200709290920 METAR ESMX 290920Z AUTO 08008KT 020V120 9999NDV FEW011/// SCT015/// BKN017/// 15/12 Q1009=
200709290850 METAR ESMX 290850Z AUTO 09005KT 020V120 9999NDV BKN013/// OVC019/// 14/12 Q1009=
200709290820 METAR ESMX 290820Z AUTO 09006KT 030V150 9999NDV FEW014/// BKN017/// BKN029/// 14/12 Q1009=
200709290750 METAR ESMX 290750Z AUTO 09007KT 060V160 9999NDV SCT014/// BKN018/// 14/12 Q1009=
200709290720 METAR ESMX 290720Z AUTO 10006KT 020V160 9999NDV FEW012/// SCT015/// BKN022/// 14/12 Q1009=
200709290650 METAR ESMX 290650Z AUTO 10006KT 050V160 9999NDV FEW013/// SCT015/// BKN021/// 14/12 Q1009=
200709290620 METAR ESMX 290620Z AUTO 11009KT 070V140 9000NDV BR FEW009/// SCT013/// BKN015/// 14/13 Q1009=
200709290550 METAR ESMX 290550Z AUTO 10009KT 070V150 5000NDV BR OVC004/// 14/14 Q1008=
200709290520 METAR ESMX 290520Z AUTO 09007KT 050V170 5000NDV BR BKN004/// OVC007/// 14/13 Q1008=
200709290450 METAR ESMX 290450Z AUTO 08007KT 040V130 8000NDV FEW005/// BKN007/// OVC009/// 14/13 Q1008 RERA=
200709290420 METAR ESMX 290420Z AUTO 05005KT 020V090 9999NDV RA FEW005/// SCT007/// BKN008/// 13/13 Q1008=
200709290350 METAR ESMX 290350Z AUTO 03007KT 9999NDV -RA FEW005/// BKN008/// OVC011/// 13/12 Q1008=
200709290320 METAR ESMX 290320Z AUTO 05009KT 9999NDV -RA FEW005/// SCT008/// BKN011/// 13/12 Q1008=
200709290250 METAR ESMX 290250Z AUTO 05008KT 010V090 3800NDV +RA BKN005/// OVC008/// 12/12 Q1009=
200709290220 METAR ESMX 290220Z AUTO 04011KT 360V090 9999NDV -RA OVC005/// 12/12 Q1009=
200709290150 METAR ESMX 290150Z AUTO 03012KT 9999NDV -RA BKN006/// OVC009/// 12/11 Q1009 REDZ=
200709290120 METAR ESMX 290120Z AUTO 04014KT 360V070 9999NDV -RA SCT005/// BKN008/// OVC009/// 12/11 Q1010 REDZ=
200709290050 METAR ESMX 290050Z AUTO 03012KT 350V070 5000NDV -RA FEW005/// OVC007/// 12/11 Q1010 REDZ=
200709290020 METAR ESMX 290020Z AUTO 03013KT 340V070 7000NDV -DZ FEW005/// BKN006/// OVC008/// 11/10 Q1011 RERA=
200709282350 METAR ESMX 282350Z AUTO 03013KT 010V070 5000NDV -RA OVC006/// 11/10 Q1012 REDZ=
200709282320 METAR ESMX 282320Z AUTO 04012KT 010V080 6000NDV BR FEW006/// OVC007/// 11/10 Q1012=
200709282250 METAR ESMX 282250Z AUTO 04015G25KT 9999NDV FEW006/// OVC008/// 11/10 Q1012=
200709282220 METAR ESMX 282220Z AUTO 03015KT 350V070 9999NDV FEW007/// BKN009/// OVC011/// 11/10 Q1013=
200709282150 METAR ESMX 282150Z AUTO 04015G25KT 010V070 9999NDV FEW008/// BKN009/// OVC013/// 11/09 Q1013=
200709282120 METAR ESMX 282120Z AUTO 04014KT 350V080 9999NDV OVC010/// 11/09 Q1014=
200709282050 METAR ESMX 282050Z AUTO 04016KT 350V060 9999NDV FEW008/// OVC009/// 11/09 Q1014=
200709282020 METAR ESMX 282020Z AUTO 03016G27KT 9999NDV OVC009/// 11/09 Q1014=
200709281950 METAR ESMX 281950Z AUTO 04015KT 010V070 9999NDV FEW009/// OVC010/// 11/09 Q1014=
200709281920 METAR ESMX 281920Z AUTO 04015KT 010V070 9999NDV OVC007/// 10/09 Q1015=
200709281850 METAR ESMX 281850Z AUTO 04014KT 6000NDV BR FEW006/// BKN008/// OVC011/// 10/09 Q1015=
200709281820 METAR ESMX 281820Z 04015G25KT 020V090 6000 BR BKN007 OVC010 10/09 Q1016=
200709281720 METAR ESMX 281720Z 04017KT 9999 OVC008 10/09 Q1016=
200709281650 METAR ESMX 281650Z 04013KT 010V080 9999 FEW007 OVC008 10/09 Q1016 REDZ RERA=
200709281620 METAR ESMX 281620Z 04014KT 9000 -DZ FEW007 BKN008 OVC010 10/09 Q1017 RERA=
200709281550 METAR ESMX 281550Z 04016G27KT 010V070 7000 BR FEW006 BKN008 OVC012 10/09 Q1016=
200709281520 METAR ESMX 281520Z 04014KT 010V080 5000 BR BKN007 OVC010 10/09 Q1017=
200709281450 METAR ESMX 281450Z 04013KT 360V070 8000 BR OVC007 10/09 Q1017=
200709281420 METAR ESMX 281420Z 04013KT 010V070 9000 BR BKN007 OVC011 10/09 Q1017=
200709281350 METAR ESMX 281350Z 04013KT 010V070 8000 DZ FEW007 OVC008 11/09 Q1017=
200709281320 METAR ESMX 281320Z 04014KT 010V080 9999 BR SCT007 BKN009 OVC010 11/09 Q1018=
200709281250 METAR ESMX 281250Z 03012KT 360V060 5000 DZ FEW006 SCT008 BKN009 11/10 Q1018=
200709281220 METAR ESMX 281220Z 04012KT 010V090 9999 FEW006 BKN008 OVC010 11/10 Q1018=
200709281150 METAR ESMX 281150Z 02012KT 7000 -DZ FEW006 SCT007 BKN009 11/10 Q1018=
200709281120 METAR ESMX 281120Z 03012KT 9999 -DZ OVC008 11/09 Q1019=
200709281050 METAR ESMX 281050Z 03012KT 9999 OVC009 11/09 Q1019=
200709281020 METAR ESMX 281020Z 04011KT 9999 FEW008 SCT009 OVC011 10/08 Q1020=
200709280950 METAR ESMX 280950Z 04013KT 9999 OVC008 10/08 Q1020=
200709280920 METAR ESMX 280920Z 04012KT 010V070 9999 OVC010 10/08 Q1020=
200709280850 METAR ESMX 280850Z 04013KT 010V070 9999 OVC010 10/08 Q1021=
200709280820 METAR ESMX 280820Z 05014KT 010V090 9999 OVC010 10/08 Q1021=
200709280750 METAR ESMX 280750Z 04012KT 010V080 9999 OVC011 10/07 Q1021=
200709280720 METAR ESMX 280720Z 04013KT 9999 OVC012 10/07 Q1021=
200709280620 METAR ESMX 280620Z 05013KT 020V080 9999 SCT013 BKN018 10/07 Q1021=
200709280550 METAR ESMX 280550Z 04013KT 010V080 9999 SCT011 BKN016 09/07 Q1021=
200709280450 METAR ESMX 280450Z 04012KT 020V080 9999 BKN013 10/07 Q1021=
200709280420 METAR ESMX 280420Z 04013KT 010V080 9999 BKN014 10/07 Q1021=
200709280350 METAR ESMX 280350Z 04013KT 360V080 9999 OVC014 10/07 Q1021=
200709280320 METAR ESMX 280320Z AUTO 04013KT 020V080 9999NDV OVC014/// 10/07 Q1021=
200709280250 METAR ESMX 280250Z AUTO 05011KT 020V080 9999NDV OVC015/// 10/07 Q1021=
200709280220 METAR ESMX 280220Z AUTO 05012G22KT 010V080 9999NDV OVC015/// 10/07 Q1021=
200709280150 METAR ESMX 280150Z AUTO 04013KT 360V080 9999NDV OVC016/// 10/07 Q1021=
200709280120 METAR ESMX 280120Z AUTO 05012KT 010V080 9999NDV OVC017/// 10/07 Q1022=
200709280050 METAR ESMX 280050Z AUTO 05012KT 020V080 9999NDV FEW016/// OVC019/// 10/07 Q1022=
200709280020 METAR ESMX 280020Z 05008KT 360V120 9999 OVC014 10/07 Q1022=
200709272350 METAR ESMX 272350Z 05010KT 020V090 9999 BKN015 10/07 Q1022=
200709272320 METAR ESMX 272320Z 05009KT 350V100 9999 OVC014 10/07 Q1022=
200709272250 METAR ESMX 272250Z 05009KT 010V090 9999 BKN016 OVC026 10/07 Q1022=
200709272220 METAR ESMX 272220Z 05011KT 020V100 9999 FEW015 OVC022 10/08 Q1022=
200709272150 METAR ESMX 272150Z 04009KT 360V070 9999 BKN014 11/08 Q1022=
200709272120 METAR ESMX 272120Z 05009KT 360V080 9999 SCT013 OVC017 10/08 Q1022=
200709272050 METAR ESMX 272050Z 04010KT 010V070 9999 SCT014 BKN018 10/08 Q1022=
200709272020 METAR ESMX 272020Z 04008KT 9999 SCT015 BKN019 10/08 Q1022=
200709271950 METAR ESMX 271950Z 05009KT 010V080 9999 BKN014 10/08 Q1023=
200709271920 METAR ESMX 271920Z 05010KT 010V090 9999 BKN013 BKN094 10/08 Q1022=
200709271850 METAR ESMX 271850Z 04012G23KT 010V080 9999 FEW016 OVC030 10/08 Q1022=
200709271820 METAR ESMX 271820Z 05009KT 350V080 9999 BKN014 OVC020 11/08 Q1022=
200709271750 METAR ESMX 271750Z 07007KT 030V140 9999 BKN015 11/08 Q1022=
200709271720 METAR ESMX 271720Z 05007KT 020V080 9999 FEW018 BKN025 11/08 Q1022=
200709271650 METAR ESMX 271650Z 05006KT 010V100 9999 SCT020 11/08 Q1022=
200709271550 METAR ESMX 271550Z 03007KT 360V060 9999 FEW020 SCT035 12/09 Q1021=
200709271520 METAR ESMX 271520Z 03008KT 360V080 9999 SCT022 BKN035 13/09 Q1021=
200709271450 METAR ESMX 271450Z 05009KT 020V080 9999 FEW020 SCT034 14/09 Q1021=
200709271420 METAR ESMX 271420Z 04007KT 010V070 9999 FEW020 BKN030 13/09 Q1021=
200709271350 METAR ESMX 271350Z 04008KT 9999 FEW022 SCT026 BKN029 14/09 Q1021=
200709271320 METAR ESMX 271320Z 05008KT 010V100 9999 FEW022 BKN027 14/09 Q1021=
200709271250 METAR ESMX 271250Z 02009KT 350V050 9999 FEW022 BKN026 14/09 Q1021=
200709271220 METAR ESMX 271220Z 05007KT 9999 FEW019 BKN022 13/09 Q1021=
200709271120 METAR ESMX 271120Z 05005KT 350V080 9999 SCT010 OVC013 11/10 Q1022=
200709271050 METAR ESMX 271050Z 05006KT 020V090 9999 FEW007 SCT009 OVC011 11/10 Q1022=
200709271020 METAR ESMX 271020Z 06005KT 9999 FEW005 OVC007 10/10 Q1022=
200709270950 METAR ESMX 270950Z 06006KT 020V100 9999 OVC006 10/09 Q1022=
200709270850 METAR ESMX 270850Z 03006KT 6000 BR OVC004 09/09 Q1021=
200709270820 METAR ESMX 270820Z 04005KT 360V080 5000 BR OVC003 09/09 Q1021=
200709270720 METAR ESMX 270720Z 06003KT 030V150 1900 BKN002 09/09 Q1020=
200709270650 METAR ESMX 270650Z 05005KT 020V090 0650 R01/1200N R19/1000N FG VV002 09/08 Q1020=
200709270620 METAR ESMX 270620Z 02004KT 0300 R01/0750 R19/0650N FG VV002 08/08 Q1020=
200709270450 METAR ESMX 270450Z 05005KT 0200 R01/0650 R19/0800 FG VV001 08/07 Q1019=
200709270420 METAR ESMX 270420Z 03004KT 0300 R19/0700 FG VV002 07/07 Q1019=
200709270350 METAR ESMX 270350Z 03004KT 0400 R19/0800N FG VV002 07/07 Q1019=
200709270320 METAR ESMX 270320Z AUTO 02003KT 0100NDV R01/0375V0500N R19/0550 FG VV000 07/07 Q1019=
200709270250 METAR ESMX 270250Z AUTO 04003KT 0150NDV R01/0550 R19/0500 FG VV000 07/07 Q1019=
200709270220 METAR ESMX 270220Z AUTO 03004KT 360V070 0150NDV R01/0550N R19/0450V0800N FG VV000 08/07 Q1018=
200709270150 METAR ESMX 270150Z AUTO 01004KT 0100NDV R01/0600N R19/0350V0550 FG VV000 06/06 Q1018=
200709270120 METAR ESMX 270120Z AUTO 03001KT 0050NDV R01/0325 R19/0250N FG VV000 05/05 Q1018=
200709270050 METAR ESMX 270050Z AUTO 00000KT 0050NDV R01/0250 R19/0200N FG VV000 04/04 Q1018=
200709270020 METAR ESMX 270020Z 00000KT 0200 R01/0800V1300 R19/0250V0550 FG NSC 04/04 Q1018=
200709262350 METAR ESMX 262350Z 00000KT 0400 R19/0400V0900U BCFG NSC 04/03 Q1018=
200709262320 METAR ESMX 262320Z 19002KT 0300 R01/0900 R19/0300V0550 FG FEW000 04/04 Q1018=
200709262250 METAR ESMX 262250Z 19002KT 0800 R19/1000V1700D FG FEW027 05/04 Q1018=
200709262150 METAR ESMX 262150Z 00000KT 4000 R01/P2000D R19/0550 BCFG BR NSC 05/04 Q1017=
200709262120 METAR ESMX 262120Z 00000KT 5000 R19/P2000U BCFG BR NSC 05/05 Q1017=
200709262050 METAR ESMX 262050Z 00000KT 9999 R19/P2000 BCFG NSC 06/06 Q1017=
200709262020 METAR ESMX 262020Z 16003KT 9999 R19/P2000U BCFG NSC 06/06 Q1017=
200709261950 METAR ESMX 261950Z 20001KT 9999 R19/P2000D BCFG NSC 07/07 Q1017=
200709261920 METAR ESMX 261920Z 20002KT 9999 MIFG NSC 07/06 Q1016=
200709261850 METAR ESMX 261850Z 09002KT CAVOK 09/08 Q1016=
200709261820 METAR ESMX 261820Z 00000KT 9999 FEW025 BKN087 10/09 Q1016=
200709261750 METAR ESMX 261750Z 00000KT 9999 FEW015 SCT087 11/10 Q1015=
200709261720 METAR ESMX 261720Z 00000KT 9999 FEW036 BKN089 11/10 Q1015=
200709261650 METAR ESMX 261650Z 00000KT 6000 SCT045 BKN090 11/10 Q1015=
200709261620 METAR ESMX 261620Z 18002KT 9999 FEW046 BKN060 13/10 Q1015=
200709261550 METAR ESMX 261550Z 16003KT 9999 FEW047 BKN068 BKN087 14/09 Q1014=
200709261520 METAR ESMX 261520Z 17003KT 140V200 9999 FEW025 SCT045 14/09 Q1014=
200709261450 METAR ESMX 261450Z 19004KT 9999 FEW025 SCT044 BKN055 14/09 Q1014=
200709261420 METAR ESMX 261420Z 17003KT 120V210 9999 SCT030 BKN070 14/09 Q1014=
200709261350 METAR ESMX 261350Z 17003KT 140V210 9999 FEW025 BKN045 14/09 Q1014=
200709261320 METAR ESMX 261320Z 16004KT 120V240 9999 FEW023 SCT030 BKN040 14/09 Q1013=
200709261250 METAR ESMX 261250Z 17004KT 120V210 9999 FEW024 SCT064 14/09 Q1013=
200709261220 METAR ESMX 261220Z 17005KT 9999 FEW020 BKN030 14/09 Q1013=
200709261150 METAR ESMX 261150Z 18004KT 140V250 9999 FEW020 BKN050 14/10 Q1013=
200709261120 METAR ESMX 261120Z 22005KT 190V250 9999 FEW021 BKN049 13/09 Q1013=
200709261050 METAR ESMX 261050Z 16006KT 110V200 9999 SCT025 BKN040 14/08 Q1013=
200709261020 METAR ESMX 261020Z 17005KT 140V200 9999 FEW012 SCT020 BKN035 12/09 Q1013 RERA REDZ=
200709260950 METAR ESMX 260950Z 17004KT 140V210 9999 SCT020 OVC025 12/09 Q1013=
200709260920 METAR ESMX 260920Z 15003KT 100V180 9999 FEW014 SCT022 OVC025 12/10 Q1013=
200709260820 METAR ESMX 260820Z 16004KT 8000 BR BKN008 11/10 Q1012=
200709260720 METAR ESMX 260720Z 17004KT 140V210 6000 BR FEW005 BKN007 OVC009 11/10 Q1012=
200709260650 METAR ESMX 260650Z 17004KT 5000 BR FEW005 SCT006 OVC022 11/10 Q1012=
200709260620 METAR ESMX 260620Z 17003KT 140V200 4500 BR SCT020 OVC024 10/09 Q1011=
200709260550 METAR ESMX 260550Z 17005KT 5000 BR FEW005 SCT007 BKN013 10/09 Q1011=
200709260450 METAR ESMX 260450Z 17005KT 5000 BR FEW006 OVC010 10/09 Q1011=
200709260420 METAR ESMX 260420Z 17004KT 140V200 4000 BR SCT007 BKN010 10/09 Q1011=
200709260350 METAR ESMX 260350Z 18004KT 140V200 4000 BR SCT006 BKN010 10/09 Q1011=
200709260320 METAR ESMX 260320Z AUTO 17005KT 140V210 4600NDV BR FEW004/// SCT005/// BKN007/// 10/09 Q1010=
200709260250 METAR ESMX 260250Z AUTO 15004KT 3200NDV BR OVC004/// 10/09 Q1010=
200709260220 METAR ESMX 260220Z AUTO 18003KT 140V210 3600NDV BR OVC004/// 10/09 Q1011=
200709260150 METAR ESMX 260150Z AUTO 20005KT 160V230 4100NDV BR BKN004/// 10/09 Q1011=
200709260120 METAR ESMX 260120Z AUTO 19005KT 4500NDV BR FEW005/// BKN007/// OVC009/// 10/09 Q1011=
200709260050 METAR ESMX 260050Z AUTO 17004KT 4300NDV BR SCT006/// OVC008/// 10/09 Q1011=
200709260020 METAR ESMX 260020Z AUTO 18005KT 140V210 4200NDV BR BKN004/// OVC009/// 10/09 Q1011=
200709252350 METAR ESMX 252350Z 17005KT 5000 BR BKN005 OVC008 10/09 Q1011=
200709252320 METAR ESMX 252320Z 19005KT 5000 BR OVC005 10/10 Q1011=
200709252250 METAR ESMX 252250Z 20006KT 160V220 7000 BR BKN006 OVC008 10/09 Q1011=
200709252220 METAR ESMX 252220Z 21005KT 6000 BR FEW004 BKN006 OVC008 10/09 Q1011=
200709252150 METAR ESMX 252150Z 22005KT 7000 BR FEW005 BKN006 OVC009 10/09 Q1011=
200709252120 METAR ESMX 252120Z 20006KT 7000 BR FEW006 SCT008 BKN010 10/09 Q1011=
200709252050 METAR ESMX 252050Z 20007KT 9000 BKN006 10/09 Q1010=
200709252020 METAR ESMX 252020Z 22006KT 9999 FEW006 SCT007 BKN009 10/09 Q1010=
200709251950 METAR ESMX 251950Z 21007KT 9999 FEW006 SCT009 BKN011 10/09 Q1010=
200709251920 METAR ESMX 251920Z 19007KT 9999 FEW006 SCT008 BKN010 10/09 Q1010=
200709251850 METAR ESMX 251850Z 20006KT 9999 FEW005 SCT007 OVC009 10/09 Q1010=
200709251820 METAR ESMX 251820Z 20006KT 9999 FEW005 SCT009 BKN013 10/09 Q1010=
200709251750 METAR ESMX 251750Z 21006KT 9999 SCT007 BKN009 10/09 Q1009=
200709251720 METAR ESMX 251720Z 18004KT 9999 FEW010 BKN054 10/09 Q1009=
200709251650 METAR ESMX 251650Z 20003KT 9999 FEW004 SCT058 10/09 Q1009=
200709251620 METAR ESMX 251620Z 22004KT 9999 FEW005 SCT035 BKN045 10/09 Q1009=
200709251550 METAR ESMX 251550Z 23005KT 9999 SCT004 BKN020 10/09 Q1009=
200709251520 METAR ESMX 251520Z 23005KT 200V280 9999 FEW005 SCT025 BKN072 10/09 Q1009=
200709251450 METAR ESMX 251450Z 25005KT 9999 -RA SCT005 BKN057 10/09 Q1009=
200709251420 METAR ESMX 251420Z 26004KT 9999 SCT003 BKN050 10/10 Q1009=
200709251350 METAR ESMX 251350Z 23004KT 200V280 9999 FEW004 BKN044 11/10 Q1008=
200709251320 METAR ESMX 251320Z VRB02KT 9999 FEW012 BKN040 11/10 Q1008 RERA=
200709251250 METAR ESMX 251250Z VRB02KT 5000 RA FEW011 BKN026 10/09 Q1008=
200709251220 METAR ESMX 251220Z 27005KT 230V290 9999 FEW020 OVC030 12/11 Q1009=
200709251150 METAR ESMX 251150Z 26005KT 9999 FEW023 OVC026 12/11 Q1009=
200709251120 METAR ESMX 251120Z 04003KT 9999 FEW004 BKN025 12/11 Q1008 RERA=
200709251050 METAR ESMX 251050Z 31003KT 5000 -RA FEW007 OVC025 12/11 Q1008=
200709251020 METAR ESMX 251020Z 32003KT 290V350 9999 -RA FEW004 BKN023 12/11 Q1008=
200709250950 METAR ESMX 250950Z 35003KT 320V020 8000 -RA FEW005 OVC022 12/11 Q1009=
200709250920 METAR ESMX 250920Z VRB02KT 3500 -RA OVC020 12/11 Q1009=
200709250850 METAR ESMX 250850Z 32001KT 9000 -RA OVC020 12/11 Q1009=
200709250820 METAR ESMX 250820Z VRB01KT 7000 RA BKN025 12/11 Q1009=
200709250750 METAR ESMX 250750Z VRB02KT 9999 BKN025 OVC035 12/11 Q1009=
200709250720 METAR ESMX 250720Z 27002KT 9999 BKN030 13/11 Q1009=
200709250650 METAR ESMX 250650Z 00000KT 9999 SCT035 BKN100 13/12 Q1009=
200709250620 METAR ESMX 250620Z 00000KT 9999 BKN032 BKN100 13/12 Q1009=
200709250550 METAR ESMX 250550Z 14003KT 6000 BR SCT035 BKN092 11/11 Q1009=
200709250520 METAR ESMX 250520Z VRB02KT 4500 BR NSC 10/10 Q1009=
200709250450 METAR ESMX 250450Z VRB02KT 5000 MIFG FEW020 SCT060 10/10 Q1009=
200709250420 METAR ESMX 250420Z 20003KT 7000 MIFG BR FEW020 SCT080 10/09 Q1009=
200709250350 METAR ESMX 250350Z 17002KT 4000 BR SCT020 BKN060 10/09 Q1009=
200709250320 METAR ESMX 250320Z AUTO 20003KT 170V240 6000NDV BR FEW020/// 11/10 Q1010=
200709250250 METAR ESMX 250250Z AUTO 15004KT 9999NDV FEW020/// SCT061/// BKN090/// 12/11 Q1010=
200709250220 METAR ESMX 250220Z AUTO 14005KT 120V190 9999NDV SCT052/// BKN089/// 13/11 Q1010=
200709250150 METAR ESMX 250150Z AUTO 20003KT 9999NDV BKN049/// 13/11 Q1010=
200709250120 METAR ESMX 250120Z AUTO 16004KT 9999NDV DZ OVC049/// 14/11 Q1010 RERA=
200709250050 METAR ESMX 250050Z AUTO 18005KT 9999NDV BKN063/// BKN086/// 14/11 Q1010=
200709250020 METAR ESMX 250020Z AUTO 17006KT 9999NDV FEW055/// BKN083/// 14/11 Q1010=
200709242350 METAR ESMX 242350Z 17007KT 9999 FEW055 SCT079 BKN096 15/11 Q1010=
200709242320 METAR ESMX 242320Z 17007KT 140V200 9999 SCT045 BKN088 BKN100 15/11 Q1010=
200709242250 METAR ESMX 242250Z 17008KT 9999 FEW047 SCT054 BKN065 15/11 Q1010=
200709242220 METAR ESMX 242220Z 16008KT 140V200 9999 FEW043 SCT057 BKN100 15/11 Q1010=
200709242150 METAR ESMX 242150Z 16008KT 120V200 CAVOK 15/11 Q1010=
200709242120 METAR ESMX 242120Z 15008KT 100V180 CAVOK 15/11 Q1010=
200709242050 METAR ESMX 242050Z 15007KT CAVOK 14/11 Q1011=
200709242020 METAR ESMX 242020Z 15006KT 110V180 CAVOK 14/11 Q1011=
200709241950 METAR ESMX 241950Z 15007KT 110V190 CAVOK 15/11 Q1011=
200709241920 METAR ESMX 241920Z 15008KT 100V190 CAVOK 15/11 Q1012=
200709241850 METAR ESMX 241850Z 15008KT 110V190 CAVOK 15/11 Q1012=
200709241820 METAR ESMX 241820Z 15008KT CAVOK 15/11 Q1012=
200709241750 METAR ESMX 241750Z 15009KT 110V180 CAVOK 15/12 Q1012=
200709241720 METAR ESMX 241720Z 15007KT 120V200 CAVOK 16/12 Q1012=
200709241650 METAR ESMX 241650Z 15007KT 110V190 CAVOK 16/12 Q1012=
200709241620 METAR ESMX 241620Z 16009KT 120V200 CAVOK 17/12 Q1012=
200709241550 METAR ESMX 241550Z 16009KT 130V200 CAVOK 17/11 Q1013=
200709241520 METAR ESMX 241520Z 16010KT 130V200 CAVOK 18/11 Q1013=
200709241450 METAR ESMX 241450Z 16009KT 090V190 CAVOK 19/11 Q1013=
200709241420 METAR ESMX 241420Z 16010KT 120V200 CAVOK 19/11 Q1013=
200709241350 METAR ESMX 241350Z 16010KT 130V200 CAVOK 19/11 Q1014=
200709241320 METAR ESMX 241320Z 16010KT 110V200 CAVOK 20/11 Q1014=
200709241250 METAR ESMX 241250Z 16012KT 130V200 CAVOK 20/11 Q1015=
200709241220 METAR ESMX 241220Z 15010KT 110V200 CAVOK 20/11 Q1015=
200709241120 METAR ESMX 241120Z 16010KT 080V200 CAVOK 20/11 Q1016=
200709241050 METAR ESMX 241050Z 16010KT 110V190 CAVOK 19/11 Q1016=
200709241020 METAR ESMX 241020Z 15011KT 120V190 CAVOK 19/12 Q1017=
200709240920 METAR ESMX 240920Z 16009KT 120V200 CAVOK 18/12 Q1017=
200709240850 METAR ESMX 240850Z 16006KT 130V190 CAVOK 17/12 Q1018=
200709240820 METAR ESMX 240820Z 16007KT 120V210 CAVOK 15/12 Q1018=
200709240750 METAR ESMX 240750Z 16006KT 130V200 CAVOK 14/12 Q1018=
200709240720 METAR ESMX 240720Z 16007KT 120V210 9000 BR NSC 13/12 Q1018=
200709240650 METAR ESMX 240650Z 15007KT 9000 BR NSC 12/11 Q1018=
200709240620 METAR ESMX 240620Z 15006KT 110V190 8000 BR FEW002 SCT200 11/11 Q1018=
200709240550 METAR ESMX 240550Z 14005KT 110V180 6000 BR FEW002 SCT200 11/10 Q1018=
200709240520 METAR ESMX 240520Z 15004KT 110V170 3000 BR BKN001 10/10 Q1018=
200709240450 METAR ESMX 240450Z 15004KT 100V200 0800 R01/1600U R19/1800N FG VV002 10/10 Q1018=
200709240420 METAR ESMX 240420Z 14006KT 110V170 0550 R01/1200N R19/1700N FG VV002 10/10 Q1019=
200709240350 METAR ESMX 240350Z 14005KT 100V180 0700 R01/1700D R19/P2000D FG VV002 10/10 Q1019=
200709240320 METAR ESMX 240320Z 15005KT 3800 BR SCT002 10/10 Q1019=
200709240250 METAR ESMX 240250Z AUTO 15005KT 120V180 4900NDV BR FEW002/// SCT003/// 10/10 Q1019=
200709240220 METAR ESMX 240220Z AUTO 15004KT 110V180 5000NDV BR NCD 10/10 Q1020=
200709240150 METAR ESMX 240150Z AUTO 16005KT 4900NDV BR NCD 10/10 Q1020=
200709240120 METAR ESMX 240120Z AUTO 17004KT 140V200 2800NDV BR NCD 11/10 Q1020=
200709240050 METAR ESMX 240050Z AUTO 17004KT 140V210 3600NDV BR NCD 11/10 Q1021=
200709240020 METAR ESMX 240020Z 17005KT 4000 BR FEW035 SCT044 11/11 Q1021=
200709232350 METAR ESMX 232350Z 16005KT 3500 BR FEW003 SCT004 BKN037 12/11 Q1021=
200709232320 METAR ESMX 232320Z 16005KT 2000 BR FEW003 SCT005 BKN039 12/11 Q1021=
200709232250 METAR ESMX 232250Z 17005KT 2100 BR BKN003 12/11 Q1021=
200709232220 METAR ESMX 232220Z 17006KT 120V200 2000 BR BKN004 12/11 Q1021=
200709232150 METAR ESMX 232150Z 16004KT 2200 BR FEW003 SCT005 12/11 Q1022=
200709232120 METAR ESMX 232120Z 16005KT 2600 BR SCT004 BKN006 12/11 Q1022=
200709232050 METAR ESMX 232050Z 18006KT 3000 BR SCT003 BKN004 12/12 Q1022=
200709232020 METAR ESMX 232020Z 17007KT 3000 BR SCT002 BKN005 13/12 Q1022=
200709231950 METAR ESMX 231950Z 17006KT 3600 BR BKN004 13/12 Q1022=
200709231920 METAR ESMX 231920Z 16006KT 5000 BR SCT004 BKN047 13/12 Q1022=
200709231850 METAR ESMX 231850Z 16006KT 7000 BR BKN047 13/12 Q1022=
200709231820 METAR ESMX 231820Z 17006KT 9999 BKN047 14/12 Q1022=
200709231750 METAR ESMX 231750Z 16006KT 9999 FEW025 BKN051 14/12 Q1022=
200709231720 METAR ESMX 231720Z 17005KT 9999 FEW028 BKN051 15/12 Q1021=
200709231650 METAR ESMX 231650Z 17005KT 9999 FEW045 BKN052 15/12 Q1021=
200709231620 METAR ESMX 231620Z 18005KT 9999 FEW028 BKN054 15/12 Q1021=
200709231550 METAR ESMX 231550Z 19007KT 9999 SCT024 BKN031 16/12 Q1021=
200709231520 METAR ESMX 231520Z 19009KT 160V220 9999 SCT024 BKN059 16/11 Q1021=
200709231450 METAR ESMX 231450Z 18007KT 9999 FEW039 OVC057 16/12 Q1022=
200709231420 METAR ESMX 231420Z 20006KT 160V230 CAVOK 16/12 Q1022=
200709231350 METAR ESMX 231350Z 20007KT 9999 FEW030 BKN049 16/11 Q1022=
200709231320 METAR ESMX 231320Z 21009KT 9999 FEW035 BKN051 16/11 Q1022=
200709231250 METAR ESMX 231250Z 21008KT 9999 FEW028 BKN034 OVC060 16/11 Q1023=
200709231220 METAR ESMX 231220Z 21009KT 9999 BKN032 OVC055 16/10 Q1023=
200709231150 METAR ESMX 231150Z 23009KT 190V270 9999 FEW029 BKN034 16/10 Q1023=
200709231120 METAR ESMX 231120Z 22010KT 9999 FEW026 BKN031 16/10 Q1023=
200709231050 METAR ESMX 231050Z 20010KT 9999 FEW024 SCT028 17/10 Q1023=
200709231020 METAR ESMX 231020Z AUTO 20009KT 9999NDV FEW016/// SCT020/// 16/11 Q1023=
200709230950 METAR ESMX 230950Z AUTO 23007KT 200V290 9999NDV NCD 15/11 Q1023=
200709230920 METAR ESMX 230920Z AUTO 21008KT 9999NDV FEW007/// 14/11 Q1023=
200709230850 METAR ESMX 230850Z AUTO 21006KT 9999NDV BKN004/// 12/11 Q1023=
200709230820 METAR ESMX 230820Z AUTO 25006KT 9999NDV BKN004/// BKN030/// 11/11 Q1023=
200709230750 METAR ESMX 230750Z AUTO 22007KT 190V250 9999NDV BKN002/// BKN005/// 11/11 Q1023=
200709230720 METAR ESMX 230720Z AUTO 22006KT 5000NDV BKN001/// OVC003/// 10/10 Q1023=
200709230650 METAR ESMX 230650Z AUTO 21005KT 170V240 0750NDV R01/0900V1400N R19/P2000U FG OVC001/// 10/10 Q1023=
200709230620 METAR ESMX 230620Z AUTO 22004KT 180V250 0900NDV R01/1400N R19/1800D FG VV002 10/10 Q1023=
200709230550 METAR ESMX 230550Z AUTO 22005KT 190V250 0500NDV R01/1000N R19/0800V1200N FG VV001 10/10 Q1022=
200709230520 METAR ESMX 230520Z AUTO 21004KT 170V240 0550NDV R01/1100D R19/1200U FG VV001 10/10 Q1022=
200709230450 METAR ESMX 230450Z AUTO 21005KT 0600NDV R01/1200VP2000D R19/1300VP2000D FG VV001 10/09 Q1022=
200709230420 METAR ESMX 230420Z AUTO 22005KT 1000NDV R01/P2000D R19/P2000D VV001 10/09 Q1022=
200709230350 METAR ESMX 230350Z AUTO 22004KT 190V250 0650NDV R01/P2000D R19/1900D FG VV001 09/09 Q1021=
200709230320 METAR ESMX 230320Z AUTO 20005KT 0350NDV R01/1200N R19/1100V1600D FG VV001 09/09 Q1022=
200709230250 METAR ESMX 230250Z AUTO 22005KT 180V260 0900NDV R01/P2000D R19/P2000D FG VV001 09/09 Q1022=
200709230220 METAR ESMX 230220Z AUTO 21005KT 1100NDV R01/P2000U R19/P2000U VV001 09/09 Q1021=
200709230150 METAR ESMX 230150Z AUTO 20006KT 0300NDV R01/1100V1600U R19/0900V1600D FG VV001 09/09 Q1021=
200709230120 METAR ESMX 230120Z AUTO 22004KT 0400NDV R01/1000V1800N R19/1100VP2000D FG VV001 09/09 Q1022=
200709230050 METAR ESMX 230050Z AUTO 22004KT 0400NDV R01/1300N R19/P2000D FG VV001 09/09 Q1021=
200709230020 METAR ESMX 230020Z AUTO 20005KT 1900NDV BR VV002 09/09 Q1021=
200709222350 METAR ESMX 222350Z AUTO 20004KT 4800NDV BR OVC001/// 10/10 Q1021=
200709222320 METAR ESMX 222320Z AUTO 20005KT 2600NDV BR VV002 10/10 Q1021=
200709222250 METAR ESMX 222250Z AUTO 23005KT 1600NDV BR OVC001/// 10/09 Q1021=
200709222220 METAR ESMX 222220Z AUTO 21005KT 9000NDV FEW003/// 09/09 Q1021=
200709222150 METAR ESMX 222150Z AUTO 21004KT 9999NDV NCD 09/09 Q1021=
200709222120 METAR ESMX 222120Z AUTO 21005KT 9999NDV NCD 10/09 Q1021=
200709222050 METAR ESMX 222050Z AUTO 20005KT 9999NDV NCD 10/09 Q1021=
200709222020 METAR ESMX 222020Z AUTO 21005KT 9999NDV NCD 10/09 Q1021=
200709221950 METAR ESMX 221950Z AUTO 21006KT 9999NDV NCD 10/09 Q1020=
200709221920 METAR ESMX 221920Z AUTO 21004KT 9999NDV NCD 10/09 Q1020=
200709221850 METAR ESMX 221850Z AUTO 22005KT 9999NDV NCD 10/09 Q1020=
200709221820 METAR ESMX 221820Z AUTO 22004KT 9999NDV NCD 10/08 Q1020=
200709221750 METAR ESMX 221750Z AUTO 24004KT 9999NDV NCD 11/09 Q1020=
200709221720 METAR ESMX 221720Z AUTO 24005KT 200V270 9999NDV NCD 12/09 Q1020=
200709221650 METAR ESMX 221650Z AUTO 25006KT 9999NDV NCD 13/09 Q1019=
200709221620 METAR ESMX 221620Z AUTO 25005KT 9999NDV FEW030/// 14/09 Q1019=
200709221550 METAR ESMX 221550Z AUTO 26006KT 230V300 9999NDV FEW032/// 14/09 Q1019=
200709221520 METAR ESMX 221520Z AUTO 26007KT 9999NDV FEW033/// 15/08 Q1019=
200709221450 METAR ESMX 221450Z AUTO 27010KT 9999NDV FEW036/// SCT042/// 15/08 Q1018=
200709221420 METAR ESMX 221420Z AUTO 26010KT 230V290 9999NDV FEW034/// 15/08 Q1018=
200709221350 METAR ESMX 221350Z AUTO 25008KT 210V290 9999NDV NCD 16/09 Q1018=
200709221320 METAR ESMX 221320Z AUTO 27009KT 9999NDV NCD 15/08 Q1018=
200709221250 METAR ESMX 221250Z AUTO 26010KT 230V300 9999NDV FEW032/// SCT040/// 16/08 Q1018=
200709221220 METAR ESMX 221220Z AUTO 26009KT 230V300 9999NDV FEW029/// SCT033/// BKN091/// 16/09 Q1018=
200709221150 METAR ESMX 221150Z AUTO 26009KT 210V290 9999NDV FEW029/// 16/08 Q1017=
200709221120 METAR ESMX 221120Z AUTO 26007KT 210V290 9999NDV FEW028/// 15/09 Q1017=
200709221050 METAR ESMX 221050Z AUTO 26008KT 210V290 9999NDV FEW022/// 15/08 Q1017=
200709221020 METAR ESMX 221020Z AUTO 29008KT 9999NDV SCT020/// 14/09 Q1017=
200709220950 METAR ESMX 220950Z AUTO 27008KT 220V300 9999NDV FEW023/// 13/09 Q1017=
200709220920 METAR ESMX 220920Z AUTO 26007KT 220V290 9999NDV FEW015/// SCT018/// BKN020/// 13/10 Q1016=
200709220850 METAR ESMX 220850Z AUTO 29008KT 250V330 9999NDV FEW012/// SCT020/// 13/10 Q1016=
200709220820 METAR ESMX 220820Z AUTO 27007KT 240V310 9999NDV FEW011/// SCT020/// 13/11 Q1016=
200709220750 METAR ESMX 220750Z AUTO 28006KT 250V330 9999NDV FEW009/// SCT017/// BKN076/// 13/11 Q1016=
200709220720 METAR ESMX 220720Z AUTO 27006KT 230V300 9999NDV FEW006/// SCT009/// BKN074/// 12/11 Q1015=
200709220650 METAR ESMX 220650Z AUTO 27004KT 240V300 9999NDV FEW019/// SCT039/// BKN072/// 12/11 Q1015 RERA REDZ=
200709220620 METAR ESMX 220620Z AUTO 27006KT 230V330 4700NDV DZ FEW013/// SCT018/// BKN025/// 12/11 Q1014 RERA=
200709220550 METAR ESMX 220550Z AUTO 28007KT 250V310 3800NDV BR FEW003/// SCT007/// BKN011/// 13/12 Q1014 REDZ=
200709220520 METAR ESMX 220520Z AUTO 24009KT 200V290 2600NDV -RA FEW003/// SCT005/// BKN007/// 13/13 Q1013 REDZ=
200709220450 METAR ESMX 220450Z AUTO 21010KT 3500NDV DZ FEW005/// SCT007/// BKN008/// 14/13 Q1013 RERA=
200709220420 METAR ESMX 220420Z AUTO 20012KT 3700NDV DZ BKN006/// OVC010/// 14/13 Q1012 RERA=
200709220350 METAR ESMX 220350Z AUTO 21012KT 4000NDV DZ FEW007/// BKN009/// OVC014/// 14/13 Q1012 RERA=
200709220320 METAR ESMX 220320Z AUTO 21013KT 4500NDV -RA FEW008/// BKN010/// OVC013/// 14/13 Q1012 REDZ=
200709220250 METAR ESMX 220250Z AUTO 21012KT 4600NDV -RA FEW006/// SCT009/// BKN010/// 14/13 Q1012=
200709220220 METAR ESMX 220220Z AUTO 20012KT 6000NDV DZ FEW008/// BKN011/// OVC016/// 14/13 Q1012 RERA=
200709220150 METAR ESMX 220150Z AUTO 20013KT 9999NDV BR FEW011/// SCT016/// OVC020/// 14/13 Q1012 REDZ=
200709220120 METAR ESMX 220120Z AUTO 21012KT 8000NDV DZ FEW009/// SCT013/// BKN016/// 14/13 Q1012 RERA=
200709220050 METAR ESMX 220050Z AUTO 21012KT 9999NDV FEW012/// SCT019/// BKN023/// 14/13 Q1013 RERA REDZ=
200709220020 METAR ESMX 220020Z AUTO 21012KT 9999NDV -RA SCT011/// BKN015/// OVC022/// 14/13 Q1013=
200709212350 METAR ESMX 212350Z AUTO 20012KT 9999NDV FEW012/// SCT018/// BKN022/// 14/13 Q1013 REDZ RERA=
200709212320 METAR ESMX 212320Z AUTO 21014KT 9999NDV -DZ FEW014/// SCT017/// BKN020/// 14/13 Q1013 RERA=
200709212250 METAR ESMX 212250Z AUTO 20013KT 9000NDV -DZ FEW015/// SCT018/// BKN020/// 14/13 Q1013 RERA=
200709212220 METAR ESMX 212220Z AUTO 20013KT 9999NDV FEW013/// SCT016/// BKN020/// 14/13 Q1013=
200709212150 METAR ESMX 212150Z AUTO 20014KT 9999NDV FEW012/// SCT015/// BKN021/// 14/13 Q1013=
200709212120 METAR ESMX 212120Z AUTO 20012KT 9000NDV BR FEW008/// BKN012/// OVC017/// 14/13 Q1013 RERA=
200709212050 METAR ESMX 212050Z AUTO 20014KT 3600NDV DZ FEW006/// SCT008/// BKN009/// 14/13 Q1013=
200709212020 METAR ESMX 212020Z AUTO 20016KT 3100NDV -DZ FEW006/// BKN007/// OVC010/// 13/13 Q1013 RERA=
200709211950 METAR ESMX 211950Z AUTO 19015KT 2800NDV BR FEW008/// OVC010/// 13/12 Q1013=
200709211920 METAR ESMX 211920Z AUTO 18012KT 140V200 6000NDV BR OVC010/// 14/12 Q1013 RERA REDZ=
200709211850 METAR ESMX 211850Z AUTO 19011KT 7000NDV -DZ FEW013/// OVC015/// 14/12 Q1014 RERA=
200709211820 METAR ESMX 211820Z AUTO 19012KT 9999NDV FEW015/// SCT018/// BKN025/// 14/11 Q1014=
200709211750 METAR ESMX 211750Z 19011KT 150V210 9999 FEW015 SCT019 BKN023 14/11 Q1014=
200709211720 METAR ESMX 211720Z 19012KT 9999 SCT016 BKN027 14/11 Q1014=
200709211650 METAR ESMX 211650Z 19011KT 9999 SCT021 BKN150 15/11 Q1014=
200709211620 METAR ESMX 211620Z 19012KT 9999 FEW020 SCT023 15/12 Q1014=
200709211550 METAR ESMX 211550Z 18011KT 140V230 9999 FEW021 SCT034 16/12 Q1014=
200709211520 METAR ESMX 211520Z 19015KT 9999 -DZ FEW020 SCT027 BKN039 15/12 Q1015 RERA=
200709211450 METAR ESMX 211450Z 20012KT 9999 FEW025 SCT040 16/11 Q1015=
200709211420 METAR ESMX 211420Z 21012KT 9999 SCT021 BKN200 17/12 Q1015=
200709211350 METAR ESMX 211350Z 21010KT 9999 FEW020 BKN024 BKN047 16/13 Q1015 REDZ RERA=
200709211320 METAR ESMX 211320Z 21013KT 9999 -RA FEW022 BKN027 16/11 Q1015=
200709211250 METAR ESMX 211250Z 20012KT 180V250 9999 FEW022 SCT028 BKN058 16/12 Q1015=
200709211220 METAR ESMX 211220Z 22011KT 9999 SCT024 SCT080 16/12 Q1015=
200709211150 METAR ESMX 211150Z 22012KT 190V250 9999 SCT020 SCT063 BKN077 16/12 Q1015=
200709211120 METAR ESMX 211120Z 22012KT 9999 FEW019 SCT024 BKN061 16/12 Q1015=
200709211050 METAR ESMX 211050Z 22012KT 190V250 9999 SCT018 BKN026 17/13 Q1015=
200709211020 METAR ESMX 211020Z 21014KT 180V250 9999 FEW018 BKN020 16/12 Q1015=
200709210950 METAR ESMX 210950Z 22015KT 190V250 9999 SCT015 BKN020 15/12 Q1015=
200709210920 METAR ESMX 210920Z 21013KT 170V240 9999 FEW016 SCT020 BKN069 15/11 Q1015=
200709210850 METAR ESMX 210850Z 22010KT 190V250 9999 SCT010 BKN022 14/11 Q1015=
200709210820 METAR ESMX 210820Z 22011KT 9999 FEW009 BKN012 OVC018 14/12 Q1015=
200709210750 METAR ESMX 210750Z 21009KT 170V250 9999 FEW009 SCT011 BKN013 14/12 Q1015=
200709210720 METAR ESMX 210720Z 22008KT 9999 FEW008 SCT011 BKN013 13/11 Q1014=
200709210650 METAR ESMX 210650Z 22010KT 190V250 9999 SCT010 BKN025 13/11 Q1014=
200709210620 METAR ESMX 210620Z 21010KT 180V250 9999 FEW008 SCT011 BKN016 12/11 Q1014=
200709210550 METAR ESMX 210550Z 20010KT 8000 BR FEW006 SCT008 OVC010 12/11 Q1014=
200709210520 METAR ESMX 210520Z 20008KT 9999 FEW006 SCT008 BKN009 12/11 Q1013=
200709210450 METAR ESMX 210450Z 20008KT 9999 FEW006 BKN010 12/11 Q1013=
200709210420 METAR ESMX 210420Z 20009KT 9999 FEW006 SCT008 BKN009 12/11 Q1013=
200709210350 METAR ESMX 210350Z 22009KT 9999 FEW007 BKN011 12/11 Q1013=
200709210320 METAR ESMX 210320Z AUTO 22009KT 9999NDV FEW008/// OVC010/// 12/11 Q1013=
200709210250 METAR ESMX 210250Z AUTO 22008KT 180V240 9999NDV FEW007/// OVC009/// 12/11 Q1013=
200709210220 METAR ESMX 210220Z AUTO 22008KT 180V250 9999NDV FEW007/// SCT008/// BKN010/// 12/11 Q1012=
200709210150 METAR ESMX 210150Z AUTO 22008KT 190V250 9999NDV FEW008/// BKN011/// 12/11 Q1012=
200709210120 METAR ESMX 210120Z AUTO 21009KT 9999NDV FEW009/// SCT012/// BKN015/// 12/11 Q1012=
200709210050 METAR ESMX 210050Z AUTO 22009KT 9999NDV FEW010/// SCT015/// BKN019/// 12/11 Q1012=
200709210020 METAR ESMX 210020Z 22009KT 9999 FEW008 SCT025 12/12 Q1012 RERA REDZ=
200709202350 METAR ESMX 202350Z 21005KT 6000 -RA FEW004 SCT008 BKN010 12/12 Q1011=
200709202320 METAR ESMX 202320Z 22004KT 3300 RA FEW006 SCT009 BKN015 12/12 Q1011 REDZ=
200709202250 METAR ESMX 202250Z 21007KT 7000 BR FEW006 SCT008 BKN025 12/12 Q1012 RERA REDZ=
200709202220 METAR ESMX 202220Z 19006KT 9000 FEW008 SCT011 BKN015 13/12 Q1012 RERA=
200709202150 METAR ESMX 202150Z 20008KT 170V230 9999 FEW010 SCT015 BKN020 13/12 Q1012=
200709202120 METAR ESMX 202120Z 19009KT 9999 FEW016 SCT027 BKN064 13/12 Q1012=
200709202050 METAR ESMX 202050Z 20010KT 9999 FEW008 SCT011 BKN016 13/12 Q1012=
200709202020 METAR ESMX 202020Z 21011KT 9999 FEW009 SCT014 BKN018 13/12 Q1012=
200709201950 METAR ESMX 201950Z 20011KT 9999 FEW008 SCT012 BKN015 13/12 Q1012=
200709201920 METAR ESMX 201920Z 20013KT 9999 FEW007 BKN009 OVC012 13/12 Q1012=
200709201850 METAR ESMX 201850Z 20012KT 9999 FEW008 SCT011 BKN016 13/12 Q1011=
200709201820 METAR ESMX 201820Z 20011KT 9999 OVC010 13/12 Q1011=
200709201750 METAR ESMX 201750Z 20011KT 9999 -RA SCT010 BKN025 13/12 Q1011=
200709201720 METAR ESMX 201720Z 20012KT 170V240 9999 FEW011 BKN014 OVC018 13/12 Q1011=
200709201650 METAR ESMX 201650Z 20013KT 160V220 9999 BKN010 OVC018 13/12 Q1011=
200709201620 METAR ESMX 201620Z 19013KT 9999 BR FEW009 BKN011 OVC015 13/12 Q1011=
200709201550 METAR ESMX 201550Z 19012KT 160V230 9999 BR FEW009 BKN010 OVC014 13/12 Q1011=
200709201520 METAR ESMX 201520Z 20012KT 160V220 9000 BR FEW007 OVC010 13/12 Q1011=
200709201450 METAR ESMX 201450Z 20012KT 9000 BR BKN006 OVC010 13/12 Q1011=
200709201420 METAR ESMX 201420Z 20012KT 7000 BR BKN005 OVC009 13/12 Q1011 REDZ=
200709201350 METAR ESMX 201350Z 19014KT 2300 +DZ OVC004 13/12 Q1011 RERA=
200709201320 METAR ESMX 201320Z 19011KT 4900 BR OVC004 13/12 Q1011 RERA REDZ=
200709201250 METAR ESMX 201250Z 19014KT 4600 BR OVC004 13/12 Q1011=
200709201220 METAR ESMX 201220Z 18012KT 160V220 4500 BR OVC005 13/12 Q1011=
200709201150 METAR ESMX 201150Z 19011KT 160V230 6000 BR BKN005 OVC007 13/12 Q1011=
200709201120 METAR ESMX 201120Z 18009KT 150V210 5000 BR BKN005 OVC008 13/12 Q1011=
200709201050 METAR ESMX 201050Z 19011KT 5000 BR OVC003 13/12 Q1011 REDZ=
200709201020 METAR ESMX 201020Z 19011KT 2500 DZ OVC003 12/11 Q1011=
200709200950 METAR ESMX 200950Z 20011KT 2600 DZ FEW005 BKN007 OVC010 12/11 Q1011 RERA=
200709200920 METAR ESMX 200920Z 19009KT 160V220 5000 BR BKN005 OVC010 13/12 Q1011=
200709200850 METAR ESMX 200850Z 19009KT 3500 BR FEW003 BKN005 OVC007 12/11 Q1011 REDZ=
200709200820 METAR ESMX 200820Z 20009KT 1600 DZ SCT002 OVC005 11/11 Q1011 RERA=
200709200750 METAR ESMX 200750Z 20009KT 1500 -RA OVC001 11/11 Q1011=
200709200720 METAR ESMX 200720Z 18008KT 150V220 1300 R01/1900N R19/P2000N BR VV002 11/11 Q1011=
200709200650 METAR ESMX 200650Z 19008KT 2000 BR OVC002 11/10 Q1011=
200709200620 METAR ESMX 200620Z 19008KT 140V220 2000 BR FEW001 OVC003 11/10 Q1011=
200709200550 METAR ESMX 200550Z 19009KT 160V230 2700 BR OVC003 11/10 Q1011=
200709200520 METAR ESMX 200520Z 20008KT 6000 BR FEW004 OVC006 11/10 Q1011=
200709200450 METAR ESMX 200450Z 21009KT 7000 BR OVC005 11/10 Q1011=
200709200420 METAR ESMX 200420Z 21009KT 160V240 8000 BR BKN009 11/10 Q1010=
200709200350 METAR ESMX 200350Z 21011KT 8000 BR BKN006 OVC010 11/10 Q1010=
200709200320 METAR ESMX 200320Z AUTO 21010KT 8000NDV BR OVC006/// 11/10 Q1010=
200709200250 METAR ESMX 200250Z AUTO 20011KT 6000NDV BR OVC004/// 11/10 Q1010=
200709200220 METAR ESMX 200220Z AUTO 22009KT 5000NDV BR OVC004/// 11/10 Q1010=
200709200150 METAR ESMX 200150Z AUTO 21010KT 170V230 9000NDV BR BKN004/// OVC007/// 11/10 Q1010 RERA REDZ=
200709200120 METAR ESMX 200120Z AUTO 20009KT 4700NDV -RA FEW005/// SCT006/// BKN008/// 11/10 Q1010 REDZ=
200709200050 METAR ESMX 200050Z AUTO 21009KT 9000NDV OVC005/// 11/10 Q1010=
200709200020 METAR ESMX 200020Z 21011KT 190V260 9999 BKN005 OVC009 11/10 Q1010 RERA REDZ=
200709192350 METAR ESMX 192350Z 22011KT 9999 OVC007 11/10 Q1010=
200709192250 METAR ESMX 192250Z 22012KT 8000 DZ FEW009 OVC010 11/09 Q1010 RERA=
200709192220 METAR ESMX 192220Z 20012KT 9999 OVC011 11/09 Q1011=
200709192150 METAR ESMX 192150Z 22013KT 9999 OVC010 11/09 Q1011 REDZ=
200709192120 METAR ESMX 192120Z 21013KT 170V250 9999 DZ FEW009 OVC012 11/09 Q1011 RERA=
200709192037 METAR ESMX 192037Z 20015KT 9999 FEW008 OVC010 11/10 Q1011=
200709192020 METAR ESMX 192020Z 20015KT 9999 FEW008 OVC010 11/10 Q1011=
200709191950 METAR ESMX 191950Z 21014KT 9999 FEW007 OVC010 11/10 Q1011=
200709191920 METAR ESMX 191920Z 21014KT 9999 OVC010 11/10 Q1011=
200709191850 METAR ESMX 191850Z 20013KT 6000 DZ SCT006 OVC010 11/10 Q1011=
200709191820 METAR ESMX 191820Z 20014KT 6000 DZ FEW007 SCT009 OVC010 10/09 Q1011 RERA=
200709191750 METAR ESMX 191750Z 19012KT 9999 DZ FEW006 OVC011 10/09 Q1011=
200709191720 METAR ESMX 191720Z 19010KT 130V210 9999 DZ OVC010 10/09 Q1011=
200709191650 METAR ESMX 191650Z 19010KT 9999 BR FEW008 OVC010 09/08 Q1011 RERA REDZ=
200709191620 METAR ESMX 191620Z 19009KT 150V210 9999 OVC012 09/07 Q1012=
200709191550 METAR ESMX 191550Z 19009KT 9999 BR FEW009 SCT015 OVC018 09/08 Q1012 REDZ RERA=
200709191520 METAR ESMX 191520Z 19010KT 4700 -RA FEW011 BKN020 09/07 Q1012=
200709191450 METAR ESMX 191450Z 20014KT 9999 DZ OVC022 10/07 Q1013=
200709191420 METAR ESMX 191420Z 21011KT 170V240 9999 FEW021 OVC029 11/06 Q1013=
200709191350 METAR ESMX 191350Z 21009KT 9999 FEW029 BKN035 10/06 Q1013 RERA=
200709191320 METAR ESMX 191320Z 22010KT 9999 -RA FEW031 BKN036 11/05 Q1013=
200709191250 METAR ESMX 191250Z 22010KT 9999 FEW035 BKN044 12/05 Q1013=
200709191220 METAR ESMX 191220Z 25010KT 200V280 9999 BKN035 11/05 Q1013=
200709191150 METAR ESMX 191150Z 24010KT 200V290 9999 FEW040 12/04 Q1013=
200709191120 METAR ESMX 191120Z 26010KT 200V290 9999 FEW040 12/03 Q1013=
200709191050 METAR ESMX 191050Z 27011KT 240V310 9999 FEW040 11/03 Q1013=
200709191020 METAR ESMX 191020Z 26011KT 230V290 9999 FEW039 12/03 Q1013=
200709190950 METAR ESMX 190950Z 27011KT 230V300 9999 FEW034 10/03 Q1013=
200709190905 METAR ESMX 190905Z 25009KT 210V280 9999 FEW020 11/06 Q1013=
200709190850 METAR ESMX 190850Z 25009KT 210V280 9999 FEW020 11/06 Q1013=
200709190820 METAR ESMX 190820Z 26007KT 230V300 9999 FEW020 10/07 Q1012=
200709190750 METAR ESMX 190750Z 26007KT 230V290 9999 FEW020 09/06 Q1012=
200709190720 METAR ESMX 190720Z 26006KT 230V290 9999 FEW023 07/06 Q1012=
200709190650 METAR ESMX 190650Z 24006KT 9999 FEW030 06/05 Q1012=
200709190620 METAR ESMX 190620Z 24004KT 220V280 9999 FEW010 05/05 Q1011=
200709190550 METAR ESMX 190550Z 23003KT 9999 FEW010 03/03 Q1011=
200709190520 METAR ESMX 190520Z 26003KT 230V290 9999 FEW008 03/02 Q1011=
200709190450 METAR ESMX 190450Z 25004KT CAVOK 02/02 Q1011=
200709190420 METAR ESMX 190420Z 25004KT CAVOK 02/02 Q1010=
200709190350 METAR ESMX 190350Z 23003KT CAVOK 02/02 Q1010=
200709190320 METAR ESMX 190320Z AUTO 24003KT 9999NDV NCD 02/02 Q1010=
200709190250 METAR ESMX 190250Z AUTO 21004KT 9999NDV NCD 03/02 Q1009=
200709190220 METAR ESMX 190220Z AUTO 21003KT 9999NDV NCD 03/02 Q1009=
200709190150 METAR ESMX 190150Z AUTO 25004KT 9999NDV NCD 03/02 Q1009=
200709190120 METAR ESMX 190120Z AUTO 26004KT 9999NDV NCD 04/03 Q1009=
200709190050 METAR ESMX 190050Z AUTO 26004KT 9999NDV NCD 03/03 Q1009=
200709190020 METAR ESMX 190020Z AUTO 25003KT 220V290 9999NDV NCD 04/03 Q1009=
200709182350 METAR ESMX 182350Z 26003KT 230V290 CAVOK 04/04 Q1008=
200709182320 METAR ESMX 182320Z 25004KT CAVOK 04/04 Q1008=
200709182250 METAR ESMX 182250Z 30003KT 260V340 CAVOK 05/04 Q1008=
200709182220 METAR ESMX 182220Z 27004KT 250V320 CAVOK 05/04 Q1008=
200709182150 METAR ESMX 182150Z 27004KT 9999 FEW019 SCT021 05/04 Q1007=
200709182120 METAR ESMX 182120Z 26003KT 230V300 9999 FEW022 05/04 Q1007=
200709182050 METAR ESMX 182050Z 27003KT CAVOK 05/04 Q1007=
200709182020 METAR ESMX 182020Z 27003KT CAVOK 05/04 Q1007=
200709181950 METAR ESMX 181950Z 27005KT CAVOK 05/04 Q1007=
200709181920 METAR ESMX 181920Z 31004KT CAVOK 06/05 Q1006=
200709181850 METAR ESMX 181850Z 32005KT CAVOK 07/06 Q1006=
200709181820 METAR ESMX 181820Z 32007KT 290V350 9999 FEW046 BKN059 BKN095 08/06 Q1006=
200709181750 METAR ESMX 181750Z 33008KT 9999 FEW016 SCT057 BKN068 08/06 Q1005=
200709181720 METAR ESMX 181720Z 32009KT 9999 FEW014 SCT017 OVC020 09/07 Q1005=
200709181650 METAR ESMX 181650Z 32008KT 9999 FEW012 BKN018 OVC040 09/07 Q1004=
200709181620 METAR ESMX 181620Z 32009KT 9999 BKN010 OVC020 09/08 Q1004 REDZ=
200709181550 METAR ESMX 181550Z 30009KT 260V340 9999 DZ FEW008 SCT010 BKN014 09/08 Q1003 RERA=
200709181520 METAR ESMX 181520Z 28007KT 9999 FEW010 BKN020 10/08 Q1003=
200709181450 METAR ESMX 181450Z 29008KT 9999 FEW007 BKN014 BKN018 11/09 Q1003=
200709181420 METAR ESMX 181420Z 29004KT 250V320 9999 FEW006 SCT009 BKN014 10/09 Q1003=
200709181350 METAR ESMX 181350Z 32004KT 290V060 9999 -RA FEW025 SCT045 BKN050 09/08 Q1002 REDZ=
200709181320 METAR ESMX 181320Z 30004KT 270V330 5000 RA FEW015 SCT030CB BKN040 09/08 Q1002=
200709181250 METAR ESMX 181250Z 24006KT 190V320 3800 SHRA FEW010 SCT028 BKN044 11/09 Q1002=
200709181220 METAR ESMX 181220Z 17005KT 130V210 9999 FEW012 BKN050 12/09 Q1002=
200709181150 METAR ESMX 181150Z 16004KT 110V210 9999 FEW011 BKN020 BKN050 12/09 Q1002=
200709181120 METAR ESMX 181120Z 16004KT 100V230 9999 FEW010 SCT013 BKN025 12/09 Q1002=
200709181050 METAR ESMX 181050Z 15003KT 090V190 9999 FEW010 BKN030 12/08 Q1002=
200709181020 METAR ESMX 181020Z 13002KT 9999 FEW010 BKN030 12/09 Q1002=
200709180950 METAR ESMX 180950Z VRB02KT 9999 -DZ FEW010 BKN030 BKN040 12/10 Q1002=
200709180920 METAR ESMX 180920Z 06003KT 360V110 9999 -RA FEW010 SCT020 BKN036 11/09 Q1002 REDZ=
200709180850 METAR ESMX 180850Z 07003KT 9999 FEW006 BKN042 11/10 Q1002=
200709180820 METAR ESMX 180820Z VRB02KT 9999 FEW006 BKN044 10/10 Q1002=
200709180750 METAR ESMX 180750Z 12002KT 9999 FEW008 BKN085 10/09 Q1002 REDZ=
200709180720 METAR ESMX 180720Z 00000KT 9999 -DZ FEW005 BKN150 09/09 Q1002 RERA=
200709180650 METAR ESMX 180650Z 24003KT 9999 -RA SCT008 BKN150 09/08 Q1002=
200709180620 METAR ESMX 180620Z VRB01KT 7000 -RA SCT022 BKN045 09/08 Q1002=
200709180550 METAR ESMX 180550Z 28009KT 250V320 2100 +RA FEW002 SCT004 BKN023 09/09 Q1002=
200709180520 METAR ESMX 180520Z 00000KT 4700 RA FEW005 BKN007 OVC024 10/09 Q1002=
200709180450 METAR ESMX 180450Z 00000KT 3500 RA BKN007 10/09 Q1002=
200709180420 METAR ESMX 180420Z 00000KT 4000 -RA FEW002 SCT008 BKN038 10/09 Q1002=
200709180350 METAR ESMX 180350Z 00000KT 8000 -RA FEW002 SCT023 BKN035 10/09 Q1002=
200709180320 METAR ESMX 180320Z AUTO 00000KT 9999NDV DZ SCT021/// BKN044/// BKN057/// 10/09 Q1002 RERA=
200709180250 METAR ESMX 180250Z AUTO VRB01KT 9999NDV FEW019/// SCT037/// BKN041/// 10/09 Q1002 RERA REDZ=
200709180220 METAR ESMX 180220Z AUTO 14003KT 9999NDV SCT036/// OVC044/// 10/09 Q1002=
200709180150 METAR ESMX 180150Z AUTO 15002KT 9999NDV FEW036/// SCT050/// 10/09 Q1003 REDZ=
200709180120 METAR ESMX 180120Z AUTO 17002KT 9999NDV -DZ FEW016/// SCT019/// BKN034/// 10/09 Q1003 RERA=
200709180050 METAR ESMX 180050Z AUTO 18003KT 9999NDV FEW034/// BKN040/// BKN059/// 10/09 Q1003=
200709180020 METAR ESMX 180020Z 17002KT 9999 OVC035 10/09 Q1003=
200709172350 METAR ESMX 172350Z 17002KT 9999 BKN034 11/09 Q1004=
200709172320 METAR ESMX 172320Z 18004KT 9999 -RA FEW038 BKN052 OVC065 11/09 Q1004=
200709172250 METAR ESMX 172250Z 22004KT 9999 -RA FEW037 SCT063 10/09 Q1004=
200709172150 METAR ESMX 172150Z 21003KT CAVOK 11/09 Q1004=
200709172050 METAR ESMX 172050Z 21004KT CAVOK 11/09 Q1004=
200709172020 METAR ESMX 172020Z 21004KT CAVOK 11/09 Q1004=
200709171950 METAR ESMX 171950Z 22004KT CAVOK 11/09 Q1004=
200709171920 METAR ESMX 171920Z 21004KT CAVOK 11/08 Q1004=
200709171850 METAR ESMX 171850Z 21004KT CAVOK 11/08 Q1004=
200709171820 METAR ESMX 171820Z 22005KT CAVOK 12/08 Q1004=
200709171750 METAR ESMX 171750Z 22005KT 9999 FEW047 12/08 Q1004=
200709171720 METAR ESMX 171720Z 22004KT 190V250 6000 SCT046 12/08 Q1004=
200709171650 METAR ESMX 171650Z 24004KT 9999 SCT045 13/08 Q1004=
200709171620 METAR ESMX 171620Z 24006KT 200V280 9999 FEW045 14/08 Q1003=
200709171550 METAR ESMX 171550Z 24007KT 200V280 9999 FEW044 15/08 Q1003=
200709171520 METAR ESMX 171520Z 25008KT 9999 FEW040 15/08 Q1003=
200709171450 METAR ESMX 171450Z 25008KT 210V300 9999 FEW035 15/08 Q1003=
200709171420 METAR ESMX 171420Z 25012KT 210V280 9999 FEW038 16/08 Q1003=
200709171320 METAR ESMX 171320Z 24010KT 190V290 9999 FEW033 17/08 Q1003=
200709171250 METAR ESMX 171250Z 25011KT 200V290 9999 FEW032 SCT055 15/09 Q1003=
200709171220 METAR ESMX 171220Z 24011KT 200V280 9999 SCT031 BKN040 BKN054 17/09 Q1002=
200709171120 METAR ESMX 171120Z 24012KT 200V280 9999 FEW027 SCT036 18/10 Q1002=
200709170950 METAR ESMX 170950Z 27013G23KT 220V300 9999 SCT027 16/09 Q1001=
200709170920 METAR ESMX 170920Z 26011KT 210V290 9999 FEW025 SCT040 16/12 Q1001=
200709170850 METAR ESMX 170850Z 24010KT 200V280 9999 -RA FEW013 SCT016 BKN020 15/13 Q1000=
200709170820 METAR ESMX 170820Z 24009KT 190V270 9999 FEW010 SCT014 BKN021 15/13 Q1000=
200709170750 METAR ESMX 170750Z 23010KT 210V270 9999 FEW007 BKN010 OVC018 14/13 Q1000=
200709170720 METAR ESMX 170720Z 22009KT 190V250 9999 SCT007 BKN008 14/13 Q0999 REDZ=
200709170650 METAR ESMX 170650Z 22011KT 180V240 3000 DZ OVC008 13/13 Q0999 RERA=
200709170620 METAR ESMX 170620Z 21011KT 2400 BR OVC008 13/12 Q0999=
200709170550 METAR ESMX 170550Z 21013KT 6000 BR OVC010 14/12 Q0999=
200709170520 METAR ESMX 170520Z 21014KT 9999 BR OVC011 14/12 Q0999=
200709170450 METAR ESMX 170450Z 20013KT 7000 BR OVC012 13/12 Q0999=
200709170420 METAR ESMX 170420Z 20012KT 9999 BR OVC011 13/12 Q0999=
200709170350 METAR ESMX 170350Z 21011KT 9000 BR BKN012 OVC019 13/12 Q0999=
200709170320 METAR ESMX 170320Z AUTO 21011KT 9000NDV BR BKN012/// OVC025/// 13/11 Q0999=
200709170250 METAR ESMX 170250Z AUTO 20010KT 9000NDV BR SCT014/// BKN018/// OVC025/// 13/11 Q1000=
200709170220 METAR ESMX 170220Z AUTO 20010KT 9000NDV BR FEW015/// OVC023/// 12/11 Q1000=
200709170150 METAR ESMX 170150Z AUTO 20009KT 8000NDV BR SCT025/// 12/11 Q1000=
200709170120 METAR ESMX 170120Z AUTO 19008KT 7000NDV BR FEW027/// 11/10 Q1001=
200709170050 METAR ESMX 170050Z AUTO 19007KT 160V220 7000NDV BR BKN027/// 11/10 Q1001=
200709170020 METAR ESMX 170020Z 19009KT 8000 BKN031 11/10 Q1002=
200709162350 METAR ESMX 162350Z 19008KT 160V220 9000 BR FEW017 SCT028 11/10 Q1002=
200709162320 METAR ESMX 162320Z 19008KT 9999 OVC025 12/11 Q1002=
200709162250 METAR ESMX 162250Z 20009KT 9999 BKN028 12/10 Q1003=
200709162220 METAR ESMX 162220Z 21010KT 9999 FEW025 12/10 Q1003=
200709162150 METAR ESMX 162150Z 21011KT 9999 FEW024 12/10 Q1003=
200709162120 METAR ESMX 162120Z 21009KT 9999 FEW025 12/10 Q1004=
200709162050 METAR ESMX 162050Z 20011KT 9999 SCT025 13/10 Q1004=
200709162020 METAR ESMX 162020Z 21011KT CAVOK 13/11 Q1004=
200709161750 METAR ESMX 161750Z 19009KT 9999 SCT050 BKN050 13/12 Q1005=
200709161720 METAR ESMX 161720Z 19009KT 9999 FEW022 BKN042 14/12 Q1005=
200709161650 METAR ESMX 161650Z 20008KT 9999 SCT015 BKN043 14/12 Q1005=
200709161620 METAR ESMX 161620Z 21009KT 9999 FEW013 BKN022 14/12 Q1005=
200709161550 METAR ESMX 161550Z 22009KT 9999 BKN014 14/12 Q1006=
200709161520 METAR ESMX 161520Z 21010KT 8000 BR FEW007 BKN010 13/12 Q1006=
200709161420 METAR ESMX 161420Z 21010KT 4000 -RA BR BKN006 OVC010 13/12 Q1006=
200709161350 METAR ESMX 161350Z 21009KT 4000 -RA BR BKN007 OVC010 13/12 Q1006=
200709161320 METAR ESMX 161320Z 20009KT 9000 -RA SCT009 BKN013 13/12 Q1007=
200709161250 METAR ESMX 161250Z 21009KT 9999 BKN013 13/11 Q1007=
200709161220 METAR ESMX 161220Z 21010KT 9999 FEW009 OVC018 13/11 Q1007=
200709161150 METAR ESMX 161150Z 22012KT 9999 FEW007 OVC010 13/12 Q1007=
200709161120 METAR ESMX 161120Z 21011KT 9999 FEW006 BKN010 12/11 Q1008=
200709161050 METAR ESMX 161050Z 21011KT 9999 SCT005 BKN008 12/11 Q1008=
200709161020 METAR ESMX 161020Z AUTO 20010KT 4100NDV BR BKN004/// OVC007/// 11/11 Q1008=
200709160950 METAR ESMX 160950Z AUTO 21010KT 6000NDV BR OVC003/// 11/10 Q1008=
200709160920 METAR ESMX 160920Z AUTO 20010KT 5000NDV BR BKN003/// OVC005/// 10/10 Q1009=
200709160850 METAR ESMX 160850Z AUTO 21010KT 4000NDV BR OVC003/// 10/09 Q1009=
200709160820 METAR ESMX 160820Z AUTO 20008KT 7000NDV BR OVC003/// 10/09 Q1009=
200709160750 METAR ESMX 160750Z AUTO 20009KT 4000NDV BR OVC003/// 09/09 Q1009=
200709160720 METAR ESMX 160720Z AUTO 19008KT 160V220 2400NDV -DZ OVC004/// 09/08 Q1010 RERA=
200709160650 METAR ESMX 160650Z AUTO 19008KT 9999NDV BR OVC004/// 09/08 Q1010 REDZ=
200709160620 METAR ESMX 160620Z AUTO 20006KT 2100NDV -RA BKN007/// OVC011/// 09/08 Q1010=
200709160550 METAR ESMX 160550Z AUTO 21007KT 9999NDV FEW007/// BKN008/// OVC012/// 09/08 Q1010=
200709160520 METAR ESMX 160520Z AUTO 23007KT 200V260 9999NDV FEW009/// SCT035/// BKN040/// 09/07 Q1011=
200709160450 METAR ESMX 160450Z AUTO 22008KT 9999NDV FEW015/// SCT019/// OVC038/// 08/06 Q1011=
200709160420 METAR ESMX 160420Z AUTO 23005KT 9999NDV FEW032/// OVC051/// 08/06 Q1011=
200709160350 METAR ESMX 160350Z AUTO 23006KT 190V260 9999NDV FEW064/// BKN089/// BKN110/// 07/06 Q1011=
200709160320 METAR ESMX 160320Z AUTO 22006KT 9999NDV FEW033/// SCT110/// 07/06 Q1011=
200709160250 METAR ESMX 160250Z AUTO 23005KT 9999NDV FEW033/// 07/05 Q1011=
200709160220 METAR ESMX 160220Z AUTO 22006KT 9999NDV FEW026/// SCT033/// 07/06 Q1012=
200709160150 METAR ESMX 160150Z AUTO 22007KT 9999NDV NCD 07/06 Q1012=
200709160120 METAR ESMX 160120Z AUTO 23007KT 9999NDV FEW032/// 07/06 Q1012=
200709160050 METAR ESMX 160050Z AUTO 23006KT 200V260 9999NDV FEW035/// 07/06 Q1012=
200709160020 METAR ESMX 160020Z AUTO 24006KT 9999NDV BKN090/// 07/05 Q1012=
200709152350 METAR ESMX 152350Z AUTO 22007KT 9999NDV SCT097/// BKN110/// 07/06 Q1012=
200709152320 METAR ESMX 152320Z AUTO 24006KT 9999NDV BKN110/// 07/05 Q1012=
200709152250 METAR ESMX 152250Z AUTO 25006KT 9999NDV NCD 07/05 Q1012=
200709152220 METAR ESMX 152220Z AUTO 25005KT 9999NDV NCD 06/05 Q1012=
200709152150 METAR ESMX 152150Z AUTO 26006KT 9999NDV NCD 07/05 Q1012=
200709152120 METAR ESMX 152120Z AUTO 24005KT 9999NDV NCD 06/05 Q1012=
200709152050 METAR ESMX 152050Z AUTO 25005KT 9999NDV NCD 07/05 Q1012=
200709152020 METAR ESMX 152020Z AUTO 26005KT 240V300 9999NDV NCD 07/04 Q1012=
200709151950 METAR ESMX 151950Z AUTO 25005KT 9999NDV NCD 07/03 Q1012=
200709151920 METAR ESMX 151920Z AUTO 25005KT 210V280 9999NDV NCD 07/03 Q1011=
200709151850 METAR ESMX 151850Z AUTO 26005KT 220V290 9999NDV NCD 08/03 Q1011=
200709151820 METAR ESMX 151820Z AUTO 27005KT 240V300 9999NDV NCD 09/03 Q1011=
200709151750 METAR ESMX 151750Z AUTO 27007KT 250V310 9999NDV NCD 09/03 Q1010=
200709151720 METAR ESMX 151720Z AUTO 27009KT 230V300 9999NDV FEW047/// SCT053/// 10/03 Q1010=
200709151650 METAR ESMX 151650Z AUTO 27009G19KT 230V320 9999NDV NCD 11/03 Q1010=
200709151620 METAR ESMX 151620Z AUTO 28011G22KT 250V320 9999NDV NCD 11/02 Q1009=
200709151550 METAR ESMX 151550Z AUTO 28016KT 250V320 9999NDV FEW050/// 13/03 Q1009=
200709151520 METAR ESMX 151520Z AUTO 27014KT 250V320 9999NDV FEW049/// SCT056/// 13/03 Q1009=
200709151450 METAR ESMX 151450Z AUTO 27012G24KT 240V300 9999NDV BKN049/// 14/03 Q1008=
200709151420 METAR ESMX 151420Z AUTO 28015KT 250V310 9999NDV BKN051/// 14/03 Q1008=
200709151350 METAR ESMX 151350Z AUTO 29011KT 240V330 9999NDV FEW057/// 14/03 Q1008=
200709151320 METAR ESMX 151320Z AUTO 29014KT 260V330 9999NDV SCT055/// 14/03 Q1007=
200709151250 METAR ESMX 151250Z AUTO 29013G25KT 250V340 9999NDV BKN052/// 13/02 Q1007=
200709151220 METAR ESMX 151220Z AUTO 29016G28KT 260V340 9999NDV SCT053/// 14/02 Q1007=
200709151150 METAR ESMX 151150Z AUTO 29015G25KT 9999NDV FEW054/// 14/03 Q1006=
200709151120 METAR ESMX 151120Z AUTO 28015G26KT 240V320 9999NDV SCT050/// 13/03 Q1006=
200709151050 METAR ESMX 151050Z AUTO 28015G25KT 240V320 9999NDV BKN048/// 13/02 Q1005=
200709151020 METAR ESMX 151020Z AUTO 27016KT 240V300 9999NDV BKN046/// 13/03 Q1005=
200709150950 METAR ESMX 150950Z AUTO 29015G25KT 260V330 9999NDV SCT044/// 12/03 Q1005=
200709150920 METAR ESMX 150920Z AUTO 28016G26KT 250V320 9999NDV FEW042/// 12/03 Q1004=
200709150850 METAR ESMX 150850Z AUTO 30014G26KT 250V340 9999NDV FEW041/// SCT099/// 12/04 Q1004=
200709150820 METAR ESMX 150820Z AUTO 30015G26KT 250V330 9999NDV NCD 12/04 Q1003=
200709150750 METAR ESMX 150750Z AUTO 29016G27KT 250V320 9999NDV NCD 11/05 Q1003=
200709150720 METAR ESMX 150720Z AUTO 29015G25KT 260V330 9999NDV NCD 11/05 Q1003=
200709150650 METAR ESMX 150650Z AUTO 29016KT 250V320 9999NDV NCD 10/05 Q1002=
200709150620 METAR ESMX 150620Z AUTO 28013KT 9999NDV FEW029/// 09/05 Q1002=
200709150550 METAR ESMX 150550Z AUTO 27013KT 9999NDV FEW028/// 09/05 Q1001=
200709150520 METAR ESMX 150520Z AUTO 26012KT 9999NDV FEW028/// BKN063/// 08/05 Q1001=
200709150450 METAR ESMX 150450Z AUTO 26011KT 9999NDV FEW033/// BKN061/// 08/05 Q1001=
200709150420 METAR ESMX 150420Z AUTO 26010KT 240V300 9999NDV FEW027/// BKN036/// 08/05 Q1001=
200709150350 METAR ESMX 150350Z AUTO 26010KT 230V290 9999NDV FEW028/// SCT043/// 08/05 Q1000=
200709150320 METAR ESMX 150320Z AUTO 26009KT 230V290 9999NDV FEW027/// 08/05 Q1000=
200709150250 METAR ESMX 150250Z AUTO 26011KT 210V290 9999NDV FEW021/// BKN025/// BKN043/// 09/06 Q1000=
200709150220 METAR ESMX 150220Z AUTO 26012KT 9999NDV BKN022/// BKN040/// 09/06 Q1000=
200709150150 METAR ESMX 150150Z AUTO 26009KT 200V290 9999NDV FEW023/// SCT029/// BKN050/// 09/06 Q1000=
200709150120 METAR ESMX 150120Z AUTO 25011KT 220V280 9999NDV FEW021/// SCT028/// BKN033/// 08/06 Q1000=
200709150050 METAR ESMX 150050Z AUTO 23010KT 9999NDV FEW019/// SCT025/// BKN033/// 08/06 Q1000=
200709150020 METAR ESMX 150020Z AUTO 23012KT 9999NDV FEW024/// 08/06 Q1000=
200709142350 METAR ESMX 142350Z AUTO 23010KT 9999NDV NCD 08/06 Q1000=
200709142320 METAR ESMX 142320Z AUTO 22011KT 190V250 9999NDV FEW029/// BKN047/// 08/07 Q1000=
200709142250 METAR ESMX 142250Z AUTO 21010KT 190V250 9999NDV FEW036/// OVC042/// 08/07 Q1000=
200709142220 METAR ESMX 142220Z AUTO 23009KT 200V270 9999NDV FEW015/// BKN051/// 08/07 Q1001=
200709142150 METAR ESMX 142150Z AUTO 23009KT 9999NDV FEW017/// 08/07 Q1001=
200709142120 METAR ESMX 142120Z AUTO 22009KT 9999NDV FEW019/// SCT077/// BKN092/// 09/07 Q1001=
200709142050 METAR ESMX 142050Z AUTO 25011KT 220V280 9999NDV FEW017/// SCT047/// BKN072/// 09/07 Q1002 RERA=
200709142020 METAR ESMX 142020Z AUTO 23008KT 200V260 9999NDV NCD 09/08 Q1002=
200709141950 METAR ESMX 141950Z 26008KT 210V280 9999 FEW011 SCT051 10/08 Q1002=
200709141920 METAR ESMX 141920Z 23010KT 9999 -RA SCT010 BKN025 11/09 Q1002=
200709141850 METAR ESMX 141850Z 23010KT 9999 -RA FEW008 SCT020 BKN050 11/10 Q1002=
200709141820 METAR ESMX 141820Z 21009KT 170V240 9999 FEW010 SCT020 11/10 Q1002=
200709141750 METAR ESMX 141750Z 21007KT 9999 FEW013 SCT020 11/10 Q1003=
200709141720 METAR ESMX 141720Z 21007KT 9999 FEW010 SCT025 11/09 Q1003=
200709141650 METAR ESMX 141650Z 22009KT 9999 FEW008 SCT010 11/10 Q1003 RERA=
200709141620 METAR ESMX 141620Z 22010G20KT 190V270 9999 -RA FEW006 SCT008 BKN011 12/11 Q1003=
200709141550 METAR ESMX 141550Z 21015KT 9999 -RA FEW006 SCT007 BKN009 12/11 Q1003=
200709141520 METAR ESMX 141520Z 20016KT 5000 -RA FEW006 SCT008 BKN009 12/11 Q1004=
200709141450 METAR ESMX 141450Z 19015KT 7000 DZ FEW007 OVC010 12/11 Q1004=
200709141420 METAR ESMX 141420Z 19015KT 9999 9999 SCT010 BKN016 12/11 Q1005=
200709141350 METAR ESMX 141350Z 19015KT 9999 -RA SCT012 BKN020 12/11 Q1006=
200709141320 METAR ESMX 141320Z 19012KT 160V220 9999 -RA BKN015 BKN030 12/11 Q1006=
200709141250 METAR ESMX 141250Z 20012KT 9999 -RA BKN017 BKN025 13/11 Q1007=
200709141220 METAR ESMX 141220Z 20013KT 9999 DZ FEW018 OVC020 13/10 Q1007 RERA=
200709141150 METAR ESMX 141150Z 19014KT 150V220 9999 FEW017 BKN020 BKN025 14/10 Q1008=
200709141120 METAR ESMX 141120Z 18009KT 9999 BKN019 13/10 Q1008=
200709141050 METAR ESMX 141050Z 18010KT 9999 FEW014 SCT025 BKN045 12/10 Q1009=
200709141020 METAR ESMX 141020Z 18011KT 140V210 9999 FEW017 SCT034 BKN055 12/09 Q1010=
200709140950 METAR ESMX 140950Z 19010KT 9999 SCT015 BKN045 12/09 Q1010=
200709140920 METAR ESMX 140920Z 19010KT 140V210 9999 FEW015 SCT025 OVC032 11/09 Q1011=
200709140850 METAR ESMX 140850Z 19011KT 9999 FEW014 SCT018 BKN040 11/09 Q1011=
200709140750 METAR ESMX 140750Z 18008KT 9999 FEW006 BKN030 10/08 Q1012=
200709140720 METAR ESMX 140720Z 19008KT 9999 FEW028 SCT036 BKN042 09/08 Q1012=
200709140650 METAR ESMX 140650Z 20008KT 9999 FEW006 BKN035 09/08 Q1012=
200709140550 METAR ESMX 140550Z 19009KT 9999 FEW003 BKN042 08/07 Q1013=
200709140520 METAR ESMX 140520Z 19006KT 8000 BR SCT001 BKN040 07/07 Q1014=
200709140450 METAR ESMX 140450Z 20007KT 1700 BR SCT001 BKN020 07/07 Q1014=
200709140350 METAR ESMX 140350Z 20005KT 0100 R01/0600N R19/0550N FG VV002 08/07 Q1014=
200709140320 METAR ESMX 140320Z AUTO 21005KT 0150NDV R01/0700N R19/0600 FG VV000 08/07 Q1015=
200709140250 METAR ESMX 140250Z AUTO 21006KT 0250NDV R01/0900V1400D R19/0750V1300D FG VV001 08/07 Q1015=
200709140220 METAR ESMX 140220Z AUTO 20006KT 4300NDV BR VV001 07/07 Q1015=
200709140150 METAR ESMX 140150Z AUTO 21005KT 8000NDV BR FEW014/// SCT030/// 07/07 Q1016=
200709140120 METAR ESMX 140120Z AUTO 22005KT 1000NDV R01/P2000N R19/P2000U SCT006/// 07/06 Q1016=
200709140050 METAR ESMX 140050Z AUTO 21004KT 0400NDV R01/P2000U R19/0800VP2000 BR NCD 07/07 Q1016=
200709140020 METAR ESMX 140020Z AUTO 18004KT 1200NDV R01/P2000U R19/P2000D BR NCD 08/07 Q1017=
200709132350 METAR ESMX 132350Z 19005KT CAVOK 06/06 Q1017=
200709132320 METAR ESMX 132320Z 19004KT 7000 BR FEW040 07/06 Q1017=
200709132250 METAR ESMX 132250Z 19004KT 9999 FEW040 07/06 Q1018=
200709132220 METAR ESMX 132220Z 21004KT 9999 SCT040 08/07 Q1018=
200709132150 METAR ESMX 132150Z 22004KT 9999 BKN037 09/07 Q1018=
200709132120 METAR ESMX 132120Z 23006KT 9999 FEW038 08/06 Q1018=
200709132050 METAR ESMX 132050Z 22006KT CAVOK 08/06 Q1018=
200709132020 METAR ESMX 132020Z 20005KT CAVOK 07/05 Q1019=
200709131950 METAR ESMX 131950Z 15004KT CAVOK 07/06 Q1019=
200709131920 METAR ESMX 131920Z 15003KT CAVOK 07/06 Q1019=
200709131850 METAR ESMX 131850Z 19002KT CAVOK 07/06 Q1019=
200709131820 METAR ESMX 131820Z 18001KT CAVOK 07/06 Q1019=
200709131750 METAR ESMX 131750Z 00000KT CAVOK 08/07 Q1019=
200709131720 METAR ESMX 131720Z 00000KT CAVOK 11/08 Q1019=
200709131650 METAR ESMX 131650Z 00000KT CAVOK 15/08 Q1020=
200709131620 METAR ESMX 131620Z 31003KT CAVOK 16/03 Q1020=
200709131550 METAR ESMX 131550Z 32003KT 260V350 CAVOK 17/03 Q1020=
200709131520 METAR ESMX 131520Z 27005KT 230V300 CAVOK 17/03 Q1020=
200709131450 METAR ESMX 131450Z 30005KT CAVOK 17/03 Q1020=
200709131420 METAR ESMX 131420Z 32004KT 240V010 CAVOK 17/04 Q1020=
200709131350 METAR ESMX 131350Z 35006KT 320V030 CAVOK 17/02 Q1021=
200709131320 METAR ESMX 131320Z 28006KT 240V310 CAVOK 17/01 Q1021=
200709131250 METAR ESMX 131250Z 35003KT 270V050 CAVOK 16/04 Q1021=
200709131220 METAR ESMX 131220Z 29003KT 240V340 CAVOK 16/03 Q1021=
200709131150 METAR ESMX 131150Z 28005KT 220V320 CAVOK 16/04 Q1021=
200709131120 METAR ESMX 131120Z 27005KT 230V350 CAVOK 15/04 Q1021=
200709131050 METAR ESMX 131050Z 02004KT 340V060 CAVOK 14/04 Q1021=
200709131020 METAR ESMX 131020Z 05003KT 320V080 CAVOK 14/03 Q1021=
200709130950 METAR ESMX 130950Z VRB04KT CAVOK 14/03 Q1022=
200709130920 METAR ESMX 130920Z 02003KT CAVOK 13/05 Q1022=
200709130850 METAR ESMX 130850Z 36005KT CAVOK 12/04 Q1021=
200709130820 METAR ESMX 130820Z 01006KT 330V030 CAVOK 12/05 Q1021=
200709130750 METAR ESMX 130750Z 02008KT CAVOK 11/04 Q1021=
200709130720 METAR ESMX 130720Z 01008KT CAVOK 11/06 Q1021=
200709130650 METAR ESMX 130650Z 35005KT CAVOK 10/07 Q1021=
200709130620 METAR ESMX 130620Z VRB02KT CAVOK 07/07 Q1021=
200709130550 METAR ESMX 130550Z VRB02KT CAVOK 04/04 Q1020=
200709130520 METAR ESMX 130520Z 00000KT CAVOK 03/02 Q1020=
200709130450 METAR ESMX 130450Z VRB01KT CAVOK 03/03 Q1020=
200709130420 METAR ESMX 130420Z VRB01KT CAVOK 03/02 Q1019=
200709130350 METAR ESMX 130350Z VRB02KT CAVOK 03/02 Q1019=
200709130320 METAR ESMX 130320Z AUTO 27002KT 9999NDV NCD 03/03 Q1019=
200709130250 METAR ESMX 130250Z AUTO VRB02KT 9999NDV NCD 04/03 Q1019=
200709130220 METAR ESMX 130220Z AUTO 32002KT 9999NDV NCD 04/04 Q1019=
200709130150 METAR ESMX 130150Z AUTO VRB01KT 9999NDV NCD 04/04 Q1019=
200709130120 METAR ESMX 130120Z AUTO 00000KT 9999NDV NCD 05/05 Q1018=
200709130050 METAR ESMX 130050Z AUTO 00000KT 9999NDV NCD 06/05 Q1018=
200709130020 METAR ESMX 130020Z AUTO 30003KT 270V340 9999NDV NCD 06/05 Q1018=
200709122350 METAR ESMX 122350Z 24003KT 200V290 CAVOK 07/06 Q1018=
200709122320 METAR ESMX 122320Z 28003KT CAVOK 08/05 Q1018=
200709122250 METAR ESMX 122250Z 32005KT 290V360 CAVOK 08/06 Q1018=
200709122220 METAR ESMX 122220Z 28004KT CAVOK 08/06 Q1017=
200709122150 METAR ESMX 122150Z 29004KT CAVOK 09/07 Q1017=
200709122120 METAR ESMX 122120Z 30005KT CAVOK 09/07 Q1017=
200709122050 METAR ESMX 122050Z 26005KT CAVOK 09/06 Q1017=
200709122020 METAR ESMX 122020Z 28005KT 250V310 9999 FEW045 10/07 Q1016=
200709121950 METAR ESMX 121950Z 27005KT 9999 FEW045 10/07 Q1016=
200709121850 METAR ESMX 121850Z 28004KT 9999 FEW045 11/07 Q1016=
200709121820 METAR ESMX 121820Z 28006KT 250V310 9999 FEW045 12/08 Q1015=
200709121720 METAR ESMX 121720Z 27006KT 240V300 9999 FEW040 13/09 Q1014=
200709121650 METAR ESMX 121650Z 26006KT 220V290 9999 FEW030 SCT200 14/09 Q1014=
200709121620 METAR ESMX 121620Z 26007KT 9999 FEW030 BKN200 15/09 Q1014=
200709121550 METAR ESMX 121550Z 26007KT 230V290 9999 FEW043 SCT200 15/09 Q1014=
200709121520 METAR ESMX 121520Z 27008KT 220V300 9999 FEW025 SCT040 15/10 Q1013=
200709121450 METAR ESMX 121450Z 26010KT 230V290 9999 FEW034 SCT039 16/10 Q1013=
200709121420 METAR ESMX 121420Z 25011KT 220V280 9999 FEW024 SCT035 15/10 Q1013=
200709121350 METAR ESMX 121350Z 25010KT 220V290 9999 FEW025 BKN048 15/10 Q1013=
200709121320 METAR ESMX 121320Z 27010KT 240V310 9999 SCT025 BKN046 15/10 Q1013=
200709121250 METAR ESMX 121250Z 27009KT 240V300 9999 SCT025 BKN050 15/10 Q1013 RERA REDZ=
200709121220 METAR ESMX 121220Z 27009KT 240V300 9999 SCT025 BKN035 15/11 Q1013=
200709121150 METAR ESMX 121150Z 27008KT 240V320 9999 SCT020 BKN040 15/11 Q1013=
200709121120 METAR ESMX 121120Z 26007KT 210V290 9999 SCT028 BKN035 OVC043 15/10 Q1013=
200709121050 METAR ESMX 121050Z 26010KT 220V300 9999 FEW015 SCT025 BKN050 16/11 Q1013=
200709121020 METAR ESMX 121020Z 25009KT 200V280 9999 FEW015 SCT030 OVC040 15/11 Q1013=
200709120950 METAR ESMX 120950Z 26010KT 210V300 9999 SCT020 BKN030 15/11 Q1013=
200709120920 METAR ESMX 120920Z 26009KT 210V290 9999 FEW011 SCT014 BKN019 15/12 Q1013=
200709120850 METAR ESMX 120850Z 25009KT 210V280 9999 SCT010 BKN020 14/12 Q1013=
200709120820 METAR ESMX 120820Z 24008KT 210V280 9999 FEW007 BKN025 14/12 Q1013=
200709120750 METAR ESMX 120750Z 24007KT 190V280 9000 FEW006 BKN010 12/11 Q1014=
200709120720 METAR ESMX 120720Z 23007KT 210V270 9999 OVC013 12/10 Q1014=
200709120650 METAR ESMX 120650Z 26008KT 9999 FEW010 BKN015 11/10 Q1014=
200709120620 METAR ESMX 120620Z 25008KT 210V280 9999 SCT006 BKN015 11/10 Q1014=
200709120550 METAR ESMX 120550Z 24009KT 200V270 9999 FEW005 BKN010 10/10 Q1014=
200709120520 METAR ESMX 120520Z 22007KT 9999 SCT017 10/09 Q1014=
200709120450 METAR ESMX 120450Z 22005KT 9999 FEW010 OVC018 10/09 Q1014=
200709120420 METAR ESMX 120420Z 22005KT 9999 FEW007 SCT018 09/09 Q1015=
200709120350 METAR ESMX 120350Z 24005KT 9000 BR FEW004 09/09 Q1015=
200709120320 METAR ESMX 120320Z AUTO 23006KT 200V260 8000NDV FEW001/// BKN002/// OVC005/// 10/10 Q1015=
200709120250 METAR ESMX 120250Z AUTO 23005KT 200V290 1400NDV R01/P2000U R19/P2000U OVC001/// 10/09 Q1015=
200709120220 METAR ESMX 120220Z AUTO 24005KT 210V270 1700NDV BR FEW001/// SCT003/// BKN004/// 09/09 Q1015=
200709120150 METAR ESMX 120150Z AUTO 22004KT 9000NDV FEW011/// SCT014/// 08/07 Q1015=
200709120120 METAR ESMX 120120Z AUTO 22004KT 4100NDV NCD 08/08 Q1016=
200709120050 METAR ESMX 120050Z AUTO 21005KT 9999NDV NCD 08/08 Q1016=
200709120020 METAR ESMX 120020Z AUTO 22005KT 0650NDV R01/P2000U R19/P2000 NCD 08/07 Q1016=
200709112350 METAR ESMX 112350Z 23004KT CAVOK 08/08 Q1016=
200709112320 METAR ESMX 112320Z 23004KT CAVOK 09/08 Q1016=
200709112220 METAR ESMX 112220Z 22004KT 9999 FEW025 09/08 Q1016=
200709112150 METAR ESMX 112150Z 21004KT 9999 FEW024 09/09 Q1016=
200709112120 METAR ESMX 112120Z 22003KT 9999 FEW048 10/09 Q1016=
200709112050 METAR ESMX 112050Z 22003KT 9999 OVC048 12/11 Q1016=
200709112020 METAR ESMX 112020Z 22003KT 9999 OVC048 12/11 Q1016=
200709111950 METAR ESMX 111950Z 25002KT 9999 OVC048 11/11 Q1016=
200709111920 METAR ESMX 111920Z 21001KT 9999 OVC047 12/11 Q1016=
200709111850 METAR ESMX 111850Z 23002KT 9999 OVC047 12/11 Q1016=
200709111820 METAR ESMX 111820Z 00000KT 9999 OVC046 12/11 Q1016=
200709111750 METAR ESMX 111750Z 28002KT 9999 BKN047 12/11 Q1016=
200709111720 METAR ESMX 111720Z VRB01KT CAVOK 13/11 Q1015=
200709111650 METAR ESMX 111650Z 33003KT CAVOK 13/11 Q1015=
200709111620 METAR ESMX 111620Z 35003KT 9999 FEW020 OVC045 13/11 Q1015=
200709111550 METAR ESMX 111550Z 34004KT 9999 FEW020 BKN045 13/11 Q1015=
200709111520 METAR ESMX 111520Z 32005KT 9999 FEW017 OVC040 13/11 Q1015=
200709111450 METAR ESMX 111450Z 33005KT 9999 FEW015 SCT030 BKN040 14/10 Q1015=
200709111420 METAR ESMX 111420Z 01004KT 340V060 9999 SCT030 OVC050 14/11 Q1014=
200709111350 METAR ESMX 111350Z 34005KT 9999 FEW015 OVC050 14/11 Q1014=
200709111320 METAR ESMX 111320Z /////KT 9999 FEW030 OVC050 14/11 Q1014=
200709111250 METAR ESMX 111250Z /////KT 9999 SCT025 OVC040 14/11 Q1014=
200709111220 METAR ESMX 111220Z /////KT 9999 FEW020 SCT030 OVC045 14/11 Q1014=
200709111150 METAR ESMX 111150Z /////KT 9999 FEW025 OVC040 15/10 Q1014=
200709111120 METAR ESMX 111120Z 34006KT 9999 FEW020 BKN034 15/11 Q1014=
200709111050 METAR ESMX 111050Z 35005KT 9999 FEW020 BKN034 15/10 Q1013=
200709111020 METAR ESMX 111020Z 01007KT 9999 FEW020 OVC032 14/11 Q1013=
200709110950 METAR ESMX 110950Z 01007KT 9999 FEW020 BKN035 14/11 Q1013=
200709110920 METAR ESMX 110920Z 36005KT 330V060 9999 FEW018 BKN032 15/11 Q1012=
200709110850 METAR ESMX 110850Z 02007KT 9999 FEW013 BKN032 14/11 Q1012=
200709110820 METAR ESMX 110820Z 36008KT 9999 FEW012 SCT014 OVC036 14/11 Q1012=
200709110750 METAR ESMX 110750Z 01008KT 9999 BKN010 BKN036 13/11 Q1011=
200709110720 METAR ESMX 110720Z 36008KT 9999 FEW009 BKN011 BKN035 13/11 Q1011=
200709110650 METAR ESMX 110650Z 01007KT 9999 FEW008 BKN012 BKN037 12/11 Q1010=
200709110620 METAR ESMX 110620Z 01007KT 9999 FEW009 SCT012 BKN036 12/11 Q1010=
200709110550 METAR ESMX 110550Z 36009KT 9999 FEW009 SCT013 BKN035 12/11 Q1010=
200709110520 METAR ESMX 110520Z 01009KT 9999 FEW008 BKN010 12/11 Q1009=
200709110450 METAR ESMX 110450Z 01010KT 9999 FEW006 BKN009 12/11 Q1009=
200709110420 METAR ESMX 110420Z 01007KT 9999 FEW008 SCT009 BKN013 12/11 Q1008=
200709110350 METAR ESMX 110350Z 02006KT 9999 FEW010 BKN014 12/11 Q1008=
200709110320 METAR ESMX 110320Z 02007KT 9999 FEW008 BKN012 12/11 Q1007=
200709110250 METAR ESMX 110250Z AUTO 02008KT 9999NDV OVC009/// 12/11 Q1007=
200709110220 METAR ESMX 110220Z AUTO 02008KT 9999NDV FEW008/// OVC010/// 12/11 Q1006=
200709110150 METAR ESMX 110150Z AUTO 02009KT 9999NDV FEW007/// OVC010/// 12/11 Q1006 RERA REDZ=
200709110120 METAR ESMX 110120Z AUTO 01008KT 9999NDV FEW009/// BKN012/// OVC019/// 12/11 Q1005=
200709110050 METAR ESMX 110050Z AUTO 01007KT 9999NDV FEW009/// BKN010/// OVC014/// 11/11 Q1005=
200709110020 METAR ESMX 110020Z 01007KT 9999 FEW009 SCT010 BKN026 11/11 Q1004=
200709102350 METAR ESMX 102350Z 02006KT 9999 FEW003 SCT005 BKN013 11/10 Q1004 REDZ=
200709102320 METAR ESMX 102320Z 01006KT 5000 DZ BKN003 OVC006 11/10 Q1003 RERA=
200709102250 METAR ESMX 102250Z 36005KT 5000 DZ FEW002 SCT005 BKN006 10/10 Q1003 RERA=
200709102220 METAR ESMX 102220Z 36006KT 9999 SCT005 BKN007 OVC021 10/09 Q1003=
200709102150 METAR ESMX 102150Z 36008KT 9999 BKN022 10/09 Q1002=
200709102120 METAR ESMX 102120Z 02005KT 9999 FEW026 BKN049 BKN067 09/09 Q1002=
200709102050 METAR ESMX 102050Z 00000KT CAVOK 09/09 Q1001=
200709102020 METAR ESMX 102020Z 01003KT 9999 FEW008 09/09 Q1001=
200709101950 METAR ESMX 101950Z 00000KT 8000 BR MIFG FEW019 08/08 Q1000=
200709101920 METAR ESMX 101920Z 00000KT 9999 BCFG FEW100 08/07 Q1000=
200709101850 METAR ESMX 101850Z 00000KT 9999 MIFG FEW100 08/08 Q0999=
200709101820 METAR ESMX 101820Z 00000KT 9999 FEW020 SCT110 10/09 Q0999=
200709101750 METAR ESMX 101750Z 00000KT 9999 FEW017 SCT100 10/09 Q0998=
200709101720 METAR ESMX 101720Z 00000KT 9999 FEW017 SCT080 11/10 Q0998=
200709101650 METAR ESMX 101650Z VRB02KT 9999 FEW017 SCT080 13/10 Q0997=
200709101620 METAR ESMX 101620Z 35004KT 9999 FEW015 SCT080 14/10 Q0997=
200709101550 METAR ESMX 101550Z VRB02KT 9999 FEW016 SCT080 14/10 Q0997=
200709101520 METAR ESMX 101520Z 27003KT 240V320 9999 FEW020 BKN080 14/10 Q0997=
200709101450 METAR ESMX 101450Z 26003KT 220V320 9999 FEW020 BKN080 13/10 Q0996=
200709101420 METAR ESMX 101420Z 23003KT 200V260 9999 FEW020 BKN050 12/10 Q0996=
200709101350 METAR ESMX 101350Z 25004KT 9999 FEW015 BKN051 13/10 Q0996=
200709101320 METAR ESMX 101320Z 27004KT 240V300 9999 FEW016 SCT047 BKN054 13/10 Q0996=
200709101250 METAR ESMX 101250Z 25006KT 210V290 9999 FEW020 BKN050 13/10 Q0996 RERA=
200709101220 METAR ESMX 101220Z 27007KT 9999 -RA SCT012 BKN080 12/10 Q0996=
200709101150 METAR ESMX 101150Z 26006KT 9999 -DZ FEW012 SCT050 12/10 Q0996=
200709101120 METAR ESMX 101120Z 27008KT 240V310 9999 SCT015 BKN050 13/10 Q0996=
200709101050 METAR ESMX 101050Z 24006KT 170V310 9999 SCT005 BKN010 12/11 Q0996=
200709101020 METAR ESMX 101020Z 18006KT 7000 BR SCT005 OVC010 12/11 Q0996 RERA=
200709100950 METAR ESMX 100950Z 17007KT 140V200 6000 -RA FEW005 BKN007 OVC012 12/11 Q0996=
200709100920 METAR ESMX 100920Z 17009KT 9999 RA BKN005 OVC008 12/11 Q0996=
200709100850 METAR ESMX 100850Z 18007KT 140V220 9999 DZ SCT005 OVC007 12/11 Q0997 RERA=
200709100820 METAR ESMX 100820Z 18008KT 160V230 9000 RA OVC005 11/10 Q0997=
200709100750 METAR ESMX 100750Z 18008KT 8000 -RA BKN007 OVC009 11/10 Q0998=
200709100720 METAR ESMX 100720Z 18008KT 150V210 9999 -RA OVC005 11/10 Q0998 REDZ=
200709100650 METAR ESMX 100650Z 18008KT 9000 -RA BKN005 OVC007 10/10 Q0999=
200709100620 METAR ESMX 100620Z 19009KT 7000 -RA BKN005 OVC007 10/10 Q0999=
200709100550 METAR ESMX 100550Z 19009KT 4600 DZ OVC005 10/10 Q1000=
200709100520 METAR ESMX 100520Z 19008KT 9999 DZ OVC005 10/09 Q1000=
200709100450 METAR ESMX 100450Z 19006KT 5000 -RA OVC005 10/09 Q1001=
200709100420 METAR ESMX 100420Z 21007KT 9999 RA OVC005 10/09 Q1002=
200709100350 METAR ESMX 100350Z 21007KT 8000 RA SCT005 BKN008 10/09 Q1002=
200709100320 METAR ESMX 100320Z AUTO 21007KT 6000NDV +DZ FEW006/// SCT013/// BKN019/// 10/09 Q1003=
200709100250 METAR ESMX 100250Z AUTO 22005KT 9000NDV DZ FEW005/// SCT021/// BKN034/// 10/09 Q1004 RERA=
200709100220 METAR ESMX 100220Z AUTO 22006KT 9999NDV DZ FEW005/// SCT017/// BKN030/// 10/09 Q1004=
200709100150 METAR ESMX 100150Z AUTO 22005KT 8000NDV DZ FEW014/// SCT018/// BKN022/// 10/09 Q1005=
200709100120 METAR ESMX 100120Z AUTO 21005KT 9999NDV DZ FEW010/// SCT017/// BKN020/// 10/09 Q1005 RERA=
200709100050 METAR ESMX 100050Z AUTO 21005KT 9999NDV FEW017/// BKN046/// 09/08 Q1006=
200709100020 METAR ESMX 100020Z 21005KT CAVOK 09/08 Q1006=
200709092350 METAR ESMX 092350Z 22006KT 9999 FEW033 09/08 Q1007=
200709092320 METAR ESMX 092320Z 21005KT CAVOK 09/08 Q1007=
200709092250 METAR ESMX 092250Z 21004KT CAVOK 09/08 Q1007=
200709092150 METAR ESMX 092150Z 21003KT CAVOK 09/08 Q1008=
200709092120 METAR ESMX 092120Z 22003KT 190V250 9999 FEW043 08/07 Q1009=
200709092050 METAR ESMX 092050Z 00000KT CAVOK 09/08 Q1009=
200709092020 METAR ESMX 092020Z 00000KT CAVOK 08/07 Q1010=
200709091950 METAR ESMX 091950Z 00000KT CAVOK 08/07 Q1010=
200709091920 METAR ESMX 091920Z 00000KT CAVOK 08/07 Q1010=
200709091850 METAR ESMX 091850Z 00000KT CAVOK 08/07 Q1010=
200709091820 METAR ESMX 091820Z 00000KT CAVOK 09/08 Q1010=
200709091750 METAR ESMX 091750Z 00000KT CAVOK 10/08 Q1010=
200709091720 METAR ESMX 091720Z 35004KT CAVOK 13/09 Q1010=
200709091650 METAR ESMX 091650Z 34005KT 9999 OVC026 13/09 Q1010=
200709091620 METAR ESMX 091620Z 33009KT 9999 OVC025 13/09 Q1011=
200709091550 METAR ESMX 091550Z 32007KT 290V350 9999 OVC025 13/09 Q1011=
200709091520 METAR ESMX 091520Z 32008KT 290V350 9999 OVC024 13/09 Q1011=
200709091450 METAR ESMX 091450Z 32009KT 290V350 9999 OVC024 14/09 Q1011=
200709091420 METAR ESMX 091420Z 33007KT 300V010 9999 OVC024 14/09 Q1010=
200709091350 METAR ESMX 091350Z 34008KT 300V360 9999 OVC024 14/09 Q1010=
200709091320 METAR ESMX 091320Z 33009KT 290V360 9999 FEW022 OVC026 14/09 Q1011=
200709091250 METAR ESMX 091250Z 34010KT 320V020 9999 OVC021 13/09 Q1011=
200709091220 METAR ESMX 091220Z 34011KT 9999 OVC021 13/09 Q1011=
200709091150 METAR ESMX 091150Z 33009KT 9999 OVC022 13/09 Q1011=
200709091120 METAR ESMX 091120Z 36011KT 9999 OVC025 13/09 Q1010=
200709091050 METAR ESMX 091050Z 35010KT 9999 BKN020 OVC025 13/09 Q1010=
200709091020 METAR ESMX 091020Z AUTO 34011KT 9999NDV OVC018/// 13/09 Q1010=
200709090950 METAR ESMX 090950Z AUTO 35012KT 9999NDV OVC016/// 13/09 Q1010=
200709090920 METAR ESMX 090920Z AUTO 35011KT 310V010 9999NDV BKN016/// OVC020/// 12/09 Q1010=
200709090850 METAR ESMX 090850Z AUTO 35012KT 9999NDV OVC015/// 12/09 Q1009=
200709090820 METAR ESMX 090820Z AUTO 35014KT 9999NDV OVC015/// 12/09 Q1009=
200709090750 METAR ESMX 090750Z AUTO 35013KT 330V030 9999NDV OVC016/// 12/09 Q1009=
200709090720 METAR ESMX 090720Z AUTO 35013KT 9999NDV OVC016/// 11/09 Q1009=
200709090650 METAR ESMX 090650Z AUTO 35012KT 320V020 9999NDV OVC017/// 12/08 Q1008=
200709090620 METAR ESMX 090620Z AUTO 35012KT 9999NDV OVC016/// 11/08 Q1008=
200709090550 METAR ESMX 090550Z AUTO 35013KT 9999NDV BKN021/// 11/08 Q1008=
200709090520 METAR ESMX 090520Z AUTO 34013KT 9999NDV FEW021/// OVC024/// 11/08 Q1008=
200709090450 METAR ESMX 090450Z AUTO 35016KT 9999NDV FEW017/// OVC020/// 11/08 Q1007=
200709090420 METAR ESMX 090420Z AUTO 35015KT 9999NDV OVC018/// 11/08 Q1007=
200709090350 METAR ESMX 090350Z AUTO 34013KT 320V020 9999NDV OVC019/// 11/08 Q1007=
200709090320 METAR ESMX 090320Z AUTO 35014KT 9999NDV OVC020/// 11/08 Q1007=
200709090250 METAR ESMX 090250Z AUTO 35010KT 9999NDV FEW016/// SCT019/// BKN022/// 11/09 Q1007=
200709090220 METAR ESMX 090220Z AUTO 35014KT 9999NDV FEW019/// OVC021/// 11/08 Q1007=
200709090150 METAR ESMX 090150Z AUTO 34011KT 320V020 9999NDV FEW016/// BKN018/// OVC023/// 11/09 Q1007=
200709090120 METAR ESMX 090120Z AUTO 34009KT 9999NDV FEW015/// BKN018/// OVC025/// 11/09 Q1007=
200709090050 METAR ESMX 090050Z AUTO 35010KT 9999NDV BKN016/// OVC025/// 11/09 Q1007=
200709090020 METAR ESMX 090020Z AUTO 33010KT 9999NDV FEW015/// SCT022/// OVC029/// 11/10 Q1007=
200709082350 METAR ESMX 082350Z AUTO 32008KT 9999NDV FEW017/// OVC019/// 11/10 Q1006=
200709082320 METAR ESMX 082320Z AUTO 32007KT 9999NDV FEW024/// SCT038/// 11/09 Q1006=
200709082250 METAR ESMX 082250Z AUTO 32008KT 9999NDV FEW014/// BKN026/// 11/10 Q1006=
200709082220 METAR ESMX 082220Z AUTO 33008KT 9999NDV FEW021/// OVC026/// 11/10 Q1006=
200709082150 METAR ESMX 082150Z AUTO 34010KT 9999NDV FEW017/// BKN020/// 11/10 Q1006=
200709082120 METAR ESMX 082120Z AUTO 33008KT 9999NDV FEW017/// SCT099/// 11/10 Q1006=
200709082050 METAR ESMX 082050Z AUTO 32006KT 9999NDV FEW011/// SCT015/// BKN018/// 12/10 Q1005 RERA REDZ=
200709082020 METAR ESMX 082020Z AUTO 32007KT 9999NDV FEW018/// SCT034/// BKN062/// 11/10 Q1005=
200709081950 METAR ESMX 081950Z AUTO 31008KT 9999NDV BKN047/// BKN065/// 12/10 Q1005=
200709081920 METAR ESMX 081920Z AUTO 31008KT 9999NDV FEW021/// SCT051/// BKN070/// 12/11 Q1005=
200709081850 METAR ESMX 081850Z AUTO 30006KT 9999NDV FEW020/// SCT024/// BKN032/// 12/11 Q1005=
200709081820 METAR ESMX 081820Z AUTO 31005KT 9999NDV FEW036/// BKN060/// 12/11 Q1005=
200709081750 METAR ESMX 081750Z AUTO 30005KT 9999NDV NCD 11/10 Q1004=
200709081720 METAR ESMX 081720Z AUTO 27006KT 9999NDV NCD 12/11 Q1004=
200709081650 METAR ESMX 081650Z AUTO 25003KT 220V290 9999NDV NCD 12/11 Q1003 RERA=
200709081620 METAR ESMX 081620Z AUTO 24003KT 9999NDV -RA ////// 11/11 Q1004=
200709081550 METAR ESMX 081550Z AUTO 03005KT 350V080 6000NDV -RA ////// 11/10 Q1004=
200709081520 METAR ESMX 081520Z AUTO 29011KT 0300NDV R01/P2000D R19/P2000D +RA FEW008/// SCT030/// 13/10 Q1004=
200709081450 METAR ESMX 081450Z AUTO 28010G20KT 260V320 9999NDV FEW027/// SCT049/// 19/12 Q1003=
200709081420 METAR ESMX 081420Z AUTO 27011KT 9999NDV FEW028/// SCT041/// BKN065/// 18/12 Q1004=
200709081350 METAR ESMX 081350Z AUTO 24009KT 200V280 9999NDV FEW019/// SCT026/// BKN037/// 18/13 Q1004=
200709081320 METAR ESMX 081320Z AUTO 26009KT 230V290 9999NDV FEW022/// SCT027/// BKN034/// 17/12 Q1005=
200709081250 METAR ESMX 081250Z AUTO 26009KT 200V290 9999NDV SCT019/// BKN024/// BKN110/// 17/12 Q1005=
200709081220 METAR ESMX 081220Z AUTO 24010KT 9999NDV FEW014/// SCT018/// 17/13 Q1006=
200709081150 METAR ESMX 081150Z AUTO 27008KT 230V300 9999NDV SCT012/// BKN015/// OVC019/// 16/13 Q1006=
200709081120 METAR ESMX 081120Z AUTO 26008KT 230V290 9999NDV OVC011/// 15/13 Q1007=
200709081050 METAR ESMX 081050Z AUTO 27007KT 230V300 9999NDV OVC010/// 15/12 Q1008=
200709081020 METAR ESMX 081020Z AUTO 26007KT 240V320 9999NDV FEW009/// OVC010/// 14/13 Q1008=
200709080950 METAR ESMX 080950Z AUTO 25008KT 230V290 9999NDV BKN008/// OVC010/// 14/13 Q1008=
200709080920 METAR ESMX 080920Z AUTO 24007KT 9999NDV OVC007/// 14/13 Q1009=
200709080850 METAR ESMX 080850Z AUTO 22009KT 9999NDV OVC008/// 14/12 Q1009=
200709080820 METAR ESMX 080820Z AUTO 23009KT 190V260 9999NDV BKN008/// OVC011/// 14/12 Q1010=
200709080750 METAR ESMX 080750Z AUTO 26009KT 230V290 9999NDV OVC008/// 14/12 Q1010=
200709080720 METAR ESMX 080720Z AUTO 26009KT 9999NDV FEW007/// OVC008/// 14/12 Q1010=
200709080650 METAR ESMX 080650Z AUTO 26011KT 9999NDV OVC007/// 14/12 Q1011=
200709080620 METAR ESMX 080620Z AUTO 26006KT 9999NDV OVC007/// 13/12 Q1011=
200709080550 METAR ESMX 080550Z AUTO 25007KT 200V280 9999NDV OVC006/// 13/12 Q1011=
200709080520 METAR ESMX 080520Z AUTO 24007KT 9999NDV OVC006/// 13/12 Q1012=
200709080450 METAR ESMX 080450Z AUTO 24005KT 9999NDV OVC007/// 13/12 Q1012=
200709080420 METAR ESMX 080420Z AUTO 24006KT 200V270 9999NDV FEW006/// SCT007/// OVC009/// 13/12 Q1013=
200709080350 METAR ESMX 080350Z AUTO 26006KT 230V290 9999NDV BKN006/// OVC009/// 13/12 Q1013=
200709080320 METAR ESMX 080320Z AUTO 25007KT 9000NDV FEW004/// BKN005/// OVC007/// 13/12 Q1013=
200709080250 METAR ESMX 080250Z AUTO 25006KT 230V290 9000NDV OVC002/// 12/12 Q1014=
200709080220 METAR ESMX 080220Z AUTO 25005KT 7000NDV OVC001/// 12/12 Q1014=
200709080150 METAR ESMX 080150Z AUTO 24005KT 200V280 1800NDV VV002 11/11 Q1014=
200709080120 METAR ESMX 080120Z AUTO 23005KT 200V260 0350NDV R01/1200U R19/1200U FG VV001 11/11 Q1015=
200709080050 METAR ESMX 080050Z AUTO 24008KT 0650NDV R01/P2000D R19/P2000N BR VV001 11/10 Q1015=
200709080020 METAR ESMX 080020Z AUTO 23005KT 9999NDV FEW096/// 10/10 Q1015=
200709072350 METAR ESMX 072350Z AUTO 20004KT 5000NDV NCD 10/09 Q1016=
200709072320 METAR ESMX 072320Z AUTO 21004KT 9999NDV NCD 10/09 Q1016=
200709072250 METAR ESMX 072250Z AUTO 21003KT 190V250 9999NDV NCD 11/10 Q1016=
200709072220 METAR ESMX 072220Z AUTO 25003KT 220V280 9999NDV NCD 11/10 Q1016=
200709072150 METAR ESMX 072150Z AUTO 24004KT 9999NDV NCD 11/10 Q1016=
200709072120 METAR ESMX 072120Z AUTO 24003KT 9999NDV NCD 11/10 Q1016=
200709072050 METAR ESMX 072050Z AUTO 25004KT 9999NDV NCD 11/10 Q1016=
200709072020 METAR ESMX 072020Z AUTO 26004KT 9999NDV NCD 12/11 Q1016=
200709071950 METAR ESMX 071950Z AUTO 25004KT 9999NDV FEW053/// 13/11 Q1016=
200709071920 METAR ESMX 071920Z AUTO 25004KT 9999NDV OVC043/// 14/11 Q1016=
200709071850 METAR ESMX 071850Z AUTO 26004KT 230V290 9999NDV FEW030/// SCT040/// OVC047/// 14/11 Q1016=
200709071820 METAR ESMX 071820Z AUTO 21002KT 1200NDV R01/P2000D R19/P2000U FEW033/// SCT041/// 12/10 Q1016=
200709071750 METAR ESMX 071750Z 23001KT CAVOK 13/11 Q1016=
200709071720 METAR ESMX 071720Z 26003KT CAVOK 16/10 Q1016=
200709071650 METAR ESMX 071650Z 29005KT CAVOK 17/10 Q1016=
200709071620 METAR ESMX 071620Z 30005KT CAVOK 18/10 Q1017=
200709071550 METAR ESMX 071550Z 29006KT CAVOK 19/10 Q1017=
200709071520 METAR ESMX 071520Z 30004KT 260V350 CAVOK 18/10 Q1017=
200709071450 METAR ESMX 071450Z 28004KT 250V320 CAVOK 18/10 Q1017=
200709071420 METAR ESMX 071420Z 29006KT CAVOK 19/09 Q1017=
200709071350 METAR ESMX 071350Z 28006KT 240V320 CAVOK 18/09 Q1018=
200709071320 METAR ESMX 071320Z 34006KT 310V020 9999 FEW040 BKN093 18/09 Q1018=
200709071250 METAR ESMX 071250Z 29006KT 250V320 9999 FEW038 BKN100 18/09 Q1018=
200709071220 METAR ESMX 071220Z 30006KT 260V340 9999 FEW040 SCT100 18/08 Q1018=
200709071150 METAR ESMX 071150Z 34007KT 9999 FEW040 SCT110 18/08 Q1018=
200709071120 METAR ESMX 071120Z 28007KT 250V320 CAVOK 18/08 Q1018=
200709071050 METAR ESMX 071050Z 29006KT 240V320 9999 FEW041 18/09 Q1018=
200709071020 METAR ESMX 071020Z 22003KT 170V260 CAVOK 18/08 Q1018=
200709070950 METAR ESMX 070950Z 28004KT 240V350 CAVOK 17/08 Q1019=
200709070920 METAR ESMX 070920Z 29004KT 240V340 CAVOK 18/10 Q1019=
200709070850 METAR ESMX 070850Z VRB02KT CAVOK 17/10 Q1019=
200709070820 METAR ESMX 070820Z VRB02KT CAVOK 16/10 Q1019=
200709070750 METAR ESMX 070750Z 31004KT CAVOK 14/10 Q1019=
200709070720 METAR ESMX 070720Z VRB01KT CAVOK 14/10 Q1019=
200709070650 METAR ESMX 070650Z 32003KT 280V360 CAVOK 12/09 Q1019=
200709070620 METAR ESMX 070620Z VRB02KT CAVOK 10/09 Q1019=
200709070550 METAR ESMX 070550Z VRB02KT CAVOK 08/08 Q1018=
200709070520 METAR ESMX 070520Z 30002KT CAVOK 06/05 Q1018=
200709070450 METAR ESMX 070450Z 30003KT CAVOK 05/04 Q1018=
200709070420 METAR ESMX 070420Z 32004KT CAVOK 05/04 Q1019=
200709070350 METAR ESMX 070350Z 31003KT CAVOK 05/05 Q1019=
200709070320 METAR ESMX 070320Z AUTO 27003KT 9999NDV NCD 05/05 Q1019=
200709070250 METAR ESMX 070250Z AUTO 29002KT 9999NDV NCD 06/06 Q1019=
200709070220 METAR ESMX 070220Z AUTO 29003KT 9999NDV NCD 06/05 Q1019=
200709070150 METAR ESMX 070150Z AUTO 29003KT 9999NDV NCD 06/05 Q1019=
200709070120 METAR ESMX 070120Z AUTO 32003KT 9999NDV NCD 07/06 Q1019=
200709070050 METAR ESMX 070050Z AUTO 33003KT 9999NDV NCD 08/07 Q1019=
200709070020 METAR ESMX 070020Z 00000KT CAVOK 09/08 Q1019=
200709062350 METAR ESMX 062350Z VRB02KT CAVOK 09/08 Q1019=
200709062320 METAR ESMX 062320Z 32003KT CAVOK 09/08 Q1019=
200709062250 METAR ESMX 062250Z 32004KT CAVOK 09/08 Q1019=
200709062220 METAR ESMX 062220Z 31004KT CAVOK 10/08 Q1019=
200709062150 METAR ESMX 062150Z 32006KT CAVOK 11/09 Q1019=
200709062120 METAR ESMX 062120Z 29004KT CAVOK 10/09 Q1019=
200709062050 METAR ESMX 062050Z 00000KT 9999 SCT039 10/09 Q1019=
200709062020 METAR ESMX 062020Z VRB02KT 9999 SCT041 11/10 Q1019=
200709061950 METAR ESMX 061950Z 31005KT CAVOK 12/10 Q1019=
200709061920 METAR ESMX 061920Z 29004KT CAVOK 11/10 Q1018=
200709061850 METAR ESMX 061850Z 27003KT CAVOK 11/10 Q1018=
200709061820 METAR ESMX 061820Z 26002KT CAVOK 12/11 Q1018=
200709061750 METAR ESMX 061750Z 26002KT CAVOK 14/11 Q1018=
200709061720 METAR ESMX 061720Z 29003KT CAVOK 16/11 Q1018=
200709061650 METAR ESMX 061650Z 30004KT CAVOK 17/11 Q1018=
200709061620 METAR ESMX 061620Z 27003KT 9999 FEW031 17/11 Q1018=
200709061550 METAR ESMX 061550Z 28006KT 9999 FEW034 17/11 Q1018=
200709061520 METAR ESMX 061520Z 27006KT 9999 FEW031 18/11 Q1018=
200709061450 METAR ESMX 061450Z 28007KT 240V330 9999 FEW031 18/10 Q1019=
200709061420 METAR ESMX 061420Z 27009KT 9999 FEW029 18/11 Q1019=
200709061350 METAR ESMX 061350Z 29006KT 230V320 9999 SCT028 18/11 Q1019=
200709061320 METAR ESMX 061320Z 29007KT 9999 FEW027 18/11 Q1019=
200709061250 METAR ESMX 061250Z 28007KT 9999 FEW026 17/11 Q1019=
200709061220 METAR ESMX 061220Z 30006KT 280V340 9999 FEW026 17/11 Q1019=
200709061150 METAR ESMX 061150Z 28007KT CAVOK 16/10 Q1019=
200709061120 METAR ESMX 061120Z 26007KT 230V300 9999 FEW024 16/10 Q1019=
200709061050 METAR ESMX 061050Z 26009KT 9999 FEW024 16/10 Q1019=
200709061020 METAR ESMX 061020Z 24007KT 200V280 9999 FEW022 15/09 Q1020=
200709060950 METAR ESMX 060950Z 23008KT 9999 BKN021 15/10 Q1020=
200709060920 METAR ESMX 060920Z 29008KT 9999 SCT019 BKN200 14/10 Q1020=
200709060750 METAR ESMX 060750Z 26008KT 9999 FEW005 SCT009 BKN021 14/11 Q1020=
200709060720 METAR ESMX 060720Z 23005KT 150V260 6000 BR FEW002 SCT004 BKN007 13/12 Q1020=
200709060650 METAR ESMX 060650Z 21005KT 2500 BR OVC002 12/12 Q1020 REDZ=
200709060620 METAR ESMX 060620Z 21005KT 2000 DZ OVC002 12/12 Q1020 RERA=
200709060550 METAR ESMX 060550Z 20006KT 1500 BR OVC002 12/11 Q1019=
200709060450 METAR ESMX 060450Z 20006KT 2300 BR OVC002 11/11 Q1019=
200709060420 METAR ESMX 060420Z 20007KT 4500 BR FEW001 BKN002 11/10 Q1020 REDZ=
200709060350 METAR ESMX 060350Z 19007KT 4600 -RA FEW001 BKN002 11/10 Q1020=
200709060320 METAR ESMX 060320Z 19005KT 8000 BR FEW002 BKN004 11/10 Q1020=
200709060250 METAR ESMX 060250Z AUTO 19005KT 9999NDV BKN005/// BKN008/// 11/10 Q1020 REDZ=
200709060220 METAR ESMX 060220Z AUTO 19006KT 4100NDV -RA OVC006/// 10/09 Q1020 REDZ=
200709060150 METAR ESMX 060150Z AUTO 20005KT 9999NDV FEW007/// SCT009/// BKN012/// 11/09 Q1021=
200709060120 METAR ESMX 060120Z AUTO 19004KT 9999NDV BKN013/// OVC036/// 11/09 Q1021=
200709060050 METAR ESMX 060050Z AUTO 19005KT 9999NDV SCT014/// OVC037/// 10/09 Q1021=
200709060020 METAR ESMX 060020Z 18004KT 9999 SCT021 BKN041 10/09 Q1021=
200709052350 METAR ESMX 052350Z 18005KT 9999 FEW021 SCT042 10/08 Q1022=
200709052320 METAR ESMX 052320Z 17005KT 9999 BKN042 10/08 Q1022=
200709052250 METAR ESMX 052250Z 19006KT 9999 FEW041 10/08 Q1022=
200709052220 METAR ESMX 052220Z 20006KT 9999 BKN040 11/08 Q1022=
200709052150 METAR ESMX 052150Z 20006KT 9999 FEW024 BKN038 11/08 Q1022=
200709052120 METAR ESMX 052120Z 19005KT 9999 FEW024 BKN037 11/08 Q1022=
200709052050 METAR ESMX 052050Z 20004KT 9999 FEW020 SCT038 BKN096 10/07 Q1022=
200709052020 METAR ESMX 052020Z 20004KT 9999 BKN038 11/07 Q1022=
200709051950 METAR ESMX 051950Z 23005KT 9999 SCT041 BKN100 11/07 Q1022=
200709051920 METAR ESMX 051920Z 23005KT 9999 FEW043 BKN100 10/07 Q1023=
200709051850 METAR ESMX 051850Z 23005KT CAVOK 11/07 Q1023=
200709051820 METAR ESMX 051820Z 24004KT CAVOK 11/07 Q1023=
200709051750 METAR ESMX 051750Z 22004KT CAVOK 12/06 Q1023=
200709051720 METAR ESMX 051720Z 26006KT CAVOK 13/06 Q1023=
200709051650 METAR ESMX 051650Z 25005KT CAVOK 15/06 Q1022=
200709051550 METAR ESMX 051550Z 23008KT 9999 FEW046 16/06 Q1022=
200709051520 METAR ESMX 051520Z 26008KT 230V290 9999 FEW046 17/06 Q1022=
200709051450 METAR ESMX 051450Z 24006KT 190V300 9999 FEW046 17/06 Q1022=
200709051420 METAR ESMX 051420Z 24009KT CAVOK 17/06 Q1023=
200709051350 METAR ESMX 051350Z 22004KT 150V290 CAVOK 16/06 Q1023=
200709051250 METAR ESMX 051250Z 21006KT 170V240 CAVOK 17/06 Q1023=
200709051220 METAR ESMX 051220Z 26007KT 220V300 CAVOK 17/06 Q1023=
200709051150 METAR ESMX 051150Z 26005KT 210V320 9999 FEW040 16/06 Q1023=
200709051120 METAR ESMX 051120Z 31005KT 9999 FEW040 16/05 Q1023=
200709051050 METAR ESMX 051050Z 00000KT 9999 FEW040 15/05 Q1023=
200709051020 METAR ESMX 051020Z 32003KT 270V030 CAVOK 15/06 Q1024=
200709050950 METAR ESMX 050950Z 31005KT CAVOK 15/05 Q1024=
200709050920 METAR ESMX 050920Z VRB03KT 9999 FEW030 14/06 Q1024=
200709050850 METAR ESMX 050850Z VRB02KT CAVOK 13/06 Q1024=
200709050820 METAR ESMX 050820Z VRB02KT CAVOK 13/07 Q1023=
200709050750 METAR ESMX 050750Z 02003KT 320V050 CAVOK 12/07 Q1023=
200709050720 METAR ESMX 050720Z 36003KT 320V030 CAVOK 11/08 Q1023=
200709050650 METAR ESMX 050650Z 30003KT CAVOK 09/08 Q1023=
200709050620 METAR ESMX 050620Z VRB01KT CAVOK 07/07 Q1023=
200709050550 METAR ESMX 050550Z 00000KT CAVOK 06/05 Q1023=
200709050520 METAR ESMX 050520Z VRB02KT 9999 FEW001 02/02 Q1023=
200709050450 METAR ESMX 050450Z VRB01KT 5000 BCFG NSC 02/02 Q1023=
200709050420 METAR ESMX 050420Z 00000KT 5000 R01/P2000D R19/P2000D BCFG NSC 02/02 Q1022=
200709050350 METAR ESMX 050350Z 31002KT 5000 DRFG NSC 02/02 Q1022=
200709050320 METAR ESMX 050320Z AUTO 33001KT 1000NDV R01/P2000D R19/P2000D BR NCD 02/02 Q1022=
200709050250 METAR ESMX 050250Z AUTO 28002KT 9999NDV NCD 03/03 Q1022=
200709050220 METAR ESMX 050220Z AUTO 30004KT 9999NDV NCD 03/02 Q1022=
200709050150 METAR ESMX 050150Z AUTO 27001KT 2000NDV NCD 04/03 Q1021=
200709050120 METAR ESMX 050120Z AUTO 30003KT 270V330 9999NDV NCD 02/02 Q1021=
200709050050 METAR ESMX 050050Z AUTO 00000KT 9999NDV NCD 03/03 Q1021=
200709050020 METAR ESMX 050020Z AUTO 00000KT 9999NDV FEW018/// 03/03 Q1021=
200709042350 METAR ESMX 042350Z 00000KT CAVOK 03/03 Q1021=
200709042320 METAR ESMX 042320Z 00000KT CAVOK 04/03 Q1020=
200709042250 METAR ESMX 042250Z 00000KT CAVOK 05/04 Q1020=
200709042220 METAR ESMX 042220Z 32002KT 9999 FEW040 BKN060 05/05 Q1020=
200709042150 METAR ESMX 042150Z VRB01KT 9999 BKN042 05/04 Q1020=
200709042120 METAR ESMX 042120Z VRB01KT 9999 BKN040 05/04 Q1020=
200709042050 METAR ESMX 042050Z 00000KT CAVOK 05/04 Q1020=
200709042020 METAR ESMX 042020Z 35003KT 310V020 CAVOK 06/05 Q1019=
200709041950 METAR ESMX 041950Z 34007KT CAVOK 08/06 Q1019=
200709041920 METAR ESMX 041920Z 33006KT CAVOK 07/05 Q1018=
200709041850 METAR ESMX 041850Z 34006KT CAVOK 07/05 Q1018=
200709041820 METAR ESMX 041820Z 35006KT CAVOK 08/06 Q1018=
200709041750 METAR ESMX 041750Z 34009KT CAVOK 10/05 Q1017=
200709041720 METAR ESMX 041720Z 36009KT CAVOK 11/06 Q1016=
200709041650 METAR ESMX 041650Z 34007KT 300V010 9999 FEW040 12/06 Q1016=
200709041550 METAR ESMX 041550Z 32008KT 9999 FEW040 13/05 Q1015=
200709041450 METAR ESMX 041450Z 36010KT 9999 FEW045 14/04 Q1014=
200709041420 METAR ESMX 041420Z 35009KT 300V020 9999 FEW045 13/03 Q1013=
200709041350 METAR ESMX 041350Z 01008KT 9999 FEW045 13/05 Q1013=
200709041320 METAR ESMX 041320Z 33007KT 300V010 9999 FEW045 14/04 Q1012=
200709041250 METAR ESMX 041250Z 36009KT 9999 FEW040 14/04 Q1012=
200709041220 METAR ESMX 041220Z 33010KT 9999 FEW030 14/05 Q1012=
200709041150 METAR ESMX 041150Z 33009KT 9999 FEW040 13/05 Q1011=
200709041120 METAR ESMX 041120Z 34009KT 9999 FEW030 SCT060 12/06 Q1011=
200709041050 METAR ESMX 041050Z 01006KT 300V060 9999 FEW030 SCT050 13/06 Q1011=
200709041020 METAR ESMX 041020Z 34009KT 300V010 9999 FEW030 SCT045 11/05 Q1010=
200709040950 METAR ESMX 040950Z 34011KT 9999 FEW027 SCT040 11/05 Q1010=
200709040920 METAR ESMX 040920Z 35007KT 310V020 9999 FEW025 11/05 Q1010=
200709040850 METAR ESMX 040850Z 36008KT 9999 FEW019 SCT026 BKN032 09/05 Q1009=
200709040820 METAR ESMX 040820Z 36010KT 9999 FEW019 BKN021 09/06 Q1009=
200709040750 METAR ESMX 040750Z 34011KT 9999 FEW016 SCT020 10/06 Q1009=
200709040720 METAR ESMX 040720Z 34010KT 300V010 9999 FEW014 08/05 Q1008=
200709040650 METAR ESMX 040650Z 32007KT 290V360 9999 FEW015 07/05 Q1008=
200709040620 METAR ESMX 040620Z 33006KT 290V010 9999 FEW012 07/05 Q1008=
200709040550 METAR ESMX 040550Z 31008KT 280V340 CAVOK 06/05 Q1007=
200709040520 METAR ESMX 040520Z 33006KT CAVOK 05/04 Q1007=
200709040420 METAR ESMX 040420Z 31005KT CAVOK 04/03 Q1006=
200709040350 METAR ESMX 040350Z 30005KT CAVOK 03/02 Q1005=
200709040320 METAR ESMX 040320Z AUTO 30006KT 9999NDV NCD 04/03 Q1005=
200709040250 METAR ESMX 040250Z AUTO 30004KT 9999NDV NCD 04/03 Q1005=
200709040220 METAR ESMX 040220Z AUTO 30004KT 9999NDV NCD 04/03 Q1004=
200709040150 METAR ESMX 040150Z AUTO 28003KT 250V320 9999NDV NCD 05/04 Q1004=
200709040120 METAR ESMX 040120Z AUTO 25004KT 9999NDV NCD 05/04 Q1004=
200709040050 METAR ESMX 040050Z AUTO 24005KT 9999NDV NCD 05/03 Q1004=
200709040020 METAR ESMX 040020Z 23005KT CAVOK 05/03 Q1003=
200709032350 METAR ESMX 032350Z 23003KT CAVOK 05/04 Q1003=
200709032320 METAR ESMX 032320Z 25004KT CAVOK 06/04 Q1003=
200709032250 METAR ESMX 032250Z 25004KT CAVOK 06/04 Q1003=
200709032220 METAR ESMX 032220Z 23004KT CAVOK 05/04 Q1003=
200709032150 METAR ESMX 032150Z 24004KT CAVOK 06/04 Q1003=
200709032120 METAR ESMX 032120Z 24004KT CAVOK 06/04 Q1003=
200709032050 METAR ESMX 032050Z 24005KT CAVOK 06/05 Q1003=
200709032020 METAR ESMX 032020Z 25005KT CAVOK 06/05 Q1003=
200709031950 METAR ESMX 031950Z 25004KT CAVOK 07/06 Q1003=
200709031920 METAR ESMX 031920Z 29004KT 270V330 9999 SCT040 BKN055 09/07 Q1003=
200709031850 METAR ESMX 031850Z 28004KT 9999 SCT030 BKN050 10/08 Q1002 REDZ=
200709031820 METAR ESMX 031820Z 23006KT 9999 -RA FEW023 BKN052 11/09 Q1002=
200709031750 METAR ESMX 031750Z 27003KT 9999 SCT035 BKN084 11/09 Q1001=
200709031720 METAR ESMX 031720Z 27003KT 9999 SCT035 BKN080 11/09 Q1001=
200709031650 METAR ESMX 031650Z 26005KT 9999 FEW035 BKN075 12/10 Q1001=
200709031620 METAR ESMX 031620Z 25005KT 220V280 9999 FEW025CB SCT085 12/09 Q1000=
200709031550 METAR ESMX 031550Z 28005KT 250V330 9999 FEW025CB SCT050 12/10 Q1000=
200709031520 METAR ESMX 031520Z 26004KT 230V290 9999 FEW025CB SCT040 11/09 Q1000 RERA=
200709031450 METAR ESMX 031450Z 33003KT 280V020 9999 -SHRA FEW025 SCT030CB 10/09 Q1000=
200709031420 METAR ESMX 031420Z 26007KT 9999 -SHRA FEW025 SCT030CB BKN060 14/09 Q0999=
200709031350 METAR ESMX 031350Z 27009KT 230V300 9999 FEW025 SCT030CB BKN060 13/09 Q0999 RERA=
200709031320 METAR ESMX 031320Z 24010KT 200V270 9999 FEW030CB BKN064 15/09 Q0999=
200709031250 METAR ESMX 031250Z 27012KT 9999 FEW030CB SCT050 15/08 Q0999=
200709031220 METAR ESMX 031220Z 24012KT 9999 FEW020 BKN035 15/08 Q0999=
200709031150 METAR ESMX 031150Z 23012KT 9999 FEW030 SCT040 16/08 Q0999=
200709031120 METAR ESMX 031120Z 25011KT 210V290 9999 SCT030 16/09 Q0999=
200709031050 METAR ESMX 031050Z 25013KT 210V290 9999 FEW015 SCT020TCU 15/09 Q0999=
200709031020 METAR ESMX 031020Z 25013KT 210V290 9999 FEW020TCU SCT030 14/09 Q0999=
200709030950 METAR ESMX 030950Z 22008KT 170V250 9999 FEW015 SCT030 12/10 Q0999=
200709030850 METAR ESMX 030850Z 23012KT 200V270 9999 FEW018 SCT024 BKN029 13/09 Q0999=
200709030820 METAR ESMX 030820Z 23012KT 9999 FEW015 SCT019 BKN033 13/10 Q0999=
200709030750 METAR ESMX 030750Z 24009KT 200V270 9999 FEW015 BKN020 12/09 Q0999=
200709030720 METAR ESMX 030720Z 23010KT 210V270 9999 FEW011 SCT058 12/10 Q0999 RERA=
200709030650 METAR ESMX 030650Z 23012KT 7000 -RA FEW009 SCT012 11/09 Q0999=
200709030550 METAR ESMX 030550Z 22009KT 9999 FEW008 10/09 Q0999=
200709030520 METAR ESMX 030520Z 22007KT 9999 FEW020 SCT050 10/09 Q0999 RERA=
200709030450 METAR ESMX 030450Z 20007KT 9999 SCT020 09/08 Q0999=
200709030420 METAR ESMX 030420Z 22006KT 9999 FEW028 SCT054 09/08 Q0999=
200709030350 METAR ESMX 030350Z 22006KT 9999 FEW028 SCT040 09/08 Q1000=
200709030320 METAR ESMX 030320Z AUTO 21005KT 9999NDV FEW020/// SCT023/// 08/08 Q1000=
200709030250 METAR ESMX 030250Z AUTO 22005KT 9999NDV FEW042/// 09/08 Q1000=
200709030220 METAR ESMX 030220Z AUTO 23006KT 190V260 9999NDV FEW043/// 09/08 Q1000=
200709030150 METAR ESMX 030150Z AUTO 22006KT 190V250 9999NDV SCT043/// 09/09 Q1000=
200709030120 METAR ESMX 030120Z AUTO 22006KT 9999NDV FEW027/// BKN043/// 10/09 Q1000=
200709030050 METAR ESMX 030050Z AUTO 24006KT 220V280 9999NDV NCD 10/09 Q1000=
200709030020 METAR ESMX 030020Z 26006KT 9999 FEW006 SCT012 10/09 Q1000=
200709022350 METAR ESMX 022350Z 25007KT 9999 FEW005 SCT007 BKN013 10/09 Q1000=
200709022320 METAR ESMX 022320Z 25007KT 210V280 9999 FEW005 BKN007 11/10 Q1000=
200709022250 METAR ESMX 022250Z 22007KT 9999 FEW006 BKN007 BKN010 10/09 Q1000=
200709022220 METAR ESMX 022220Z 23007KT 200V260 9999 FEW008 SCT013 10/09 Q1000=
200709022150 METAR ESMX 022150Z 22006KT 190V260 CAVOK 10/09 Q1000=
200709022120 METAR ESMX 022120Z 21007KT 9999 FEW038 SCT050 10/09 Q1000=
200709022050 METAR ESMX 022050Z 22005KT 190V260 9999 FEW023 BKN050 10/09 Q1001 RERA REDZ=
200709022020 METAR ESMX 022020Z 19006KT 7000 RA FEW028 BKN150 10/09 Q1001=
200709021950 METAR ESMX 021950Z 24005KT 9999 -RA FEW027 SCT060 10/09 Q1001=
200709021920 METAR ESMX 021920Z 24003KT 9000 RA SCT046 BKN070 10/09 Q1001=
200709021850 METAR ESMX 021850Z 29007KT 250V320 9999 -RA FEW019 SCT046 BKN070 11/09 Q1001=
200709021820 METAR ESMX 021820Z 30009KT 260V330 9999 RA FEW009 SCT020 BKN080 12/10 Q1001=
200709021750 METAR ESMX 021750Z 22008KT 2500 RA FEW004 BKN006 OVC009 14/13 Q1000=
200709021720 METAR ESMX 021720Z 22011KT 4000 RA FEW006 SCT008 BKN009 14/13 Q1001=
200709021620 METAR ESMX 021620Z 21011KT 2500 -RA FEW005 SCT007 BKN008 14/13 Q1001=
200709021550 METAR ESMX 021550Z 22010KT 4000 -RA FEW007 SCT009 BKN012 14/13 Q1002=
200709021520 METAR ESMX 021520Z 20012KT 3500 -RA FEW008 BKN011 OVC017 14/13 Q1002=
200709021450 METAR ESMX 021450Z 21012KT 9999 FEW008 SCT012 BKN015 15/13 Q1003=
200709021420 METAR ESMX 021420Z 23012KT 5000 -RA FEW006 SCT008 BKN010 14/13 Q1003=
200709021350 METAR ESMX 021350Z 22010KT 9999 -RA FEW009 SCT013 BKN016 15/13 Q1003=
200709021250 METAR ESMX 021250Z 23009KT 2500 -RA FEW005 SCT010 BKN013 14/13 Q1004=
200709021220 METAR ESMX 021220Z 21011KT 3000 -RA FEW008 SCT013 BKN017 14/13 Q1004=
200709021150 METAR ESMX 021150Z 21012KT 9999 FEW012 SCT015 BKN017 15/13 Q1004=
200709021050 METAR ESMX 021050Z 24012KT 9999 -RA FEW008 SCT010 BKN013 15/13 Q1004=
200709021020 METAR ESMX 021020Z AUTO 22013KT 190V260 9999NDV SCT016/// BKN021/// BKN036/// 15/12 Q1005=
200709020950 METAR ESMX 020950Z AUTO 23011KT 9999NDV FEW018/// SCT026/// BKN041/// 15/13 Q1005 RERA REDZ=
200709020920 METAR ESMX 020920Z AUTO 21014KT 9999NDV FEW015/// SCT019/// BKN024/// 16/12 Q1005=
200709020850 METAR ESMX 020850Z AUTO 23011KT 9999NDV FEW015/// SCT018/// BKN020/// 16/13 Q1005=
200709020820 METAR ESMX 020820Z AUTO 22011KT 190V250 9999NDV FEW016/// OVC020/// 15/13 Q1005=
200709020750 METAR ESMX 020750Z AUTO 22011KT 9999NDV FEW014/// SCT018/// BKN020/// 15/13 Q1005=
200709020720 METAR ESMX 020720Z AUTO 22011KT 190V250 9999NDV FEW013/// SCT017/// OVC019/// 15/12 Q1005=
200709020650 METAR ESMX 020650Z AUTO 22012KT 190V260 9999NDV OVC011/// 14/12 Q1005=
200709020620 METAR ESMX 020620Z AUTO 21012KT 9999NDV SCT010/// BKN014/// OVC018/// 14/12 Q1005=
200709020550 METAR ESMX 020550Z AUTO 22011KT 9999NDV FEW009/// OVC011/// 14/12 Q1006=
200709020520 METAR ESMX 020520Z AUTO 24011KT 9999NDV FEW008/// BKN011/// OVC015/// 14/12 Q1006=
200709020450 METAR ESMX 020450Z AUTO 25010KT 210V280 9000NDV FEW007/// OVC008/// 13/12 Q1006=
200709020420 METAR ESMX 020420Z AUTO 23012KT 200V270 9000NDV OVC006/// 13/12 Q1006=
200709020350 METAR ESMX 020350Z AUTO 23010KT 4900NDV BR FEW006/// OVC008/// 13/12 Q1006=
200709020320 METAR ESMX 020320Z AUTO 22010KT 9999NDV FEW008/// OVC009/// 13/12 Q1006=
200709020250 METAR ESMX 020250Z AUTO 22011KT 190V250 9999NDV FEW008/// OVC010/// 13/12 Q1007=
200709020220 METAR ESMX 020220Z AUTO 22010KT 200V260 9999NDV OVC008/// 13/12 Q1007=
200709020150 METAR ESMX 020150Z AUTO 23010KT 9999NDV BKN007/// OVC011/// 13/11 Q1007=
200709020120 METAR ESMX 020120Z AUTO 23009KT 9999NDV OVC008/// 13/11 Q1008=
200709020050 METAR ESMX 020050Z AUTO 22010KT 190V250 9999NDV OVC009/// 12/11 Q1008=
200709020020 METAR ESMX 020020Z AUTO 23009KT 9999NDV OVC010/// 12/11 Q1008=
200709012350 METAR ESMX 012350Z AUTO 21010KT 9999NDV OVC010/// 12/11 Q1008=
200709012320 METAR ESMX 012320Z AUTO 21008KT 180V240 9999NDV FEW010/// SCT014/// BKN017/// 12/11 Q1008=
200709012250 METAR ESMX 012250Z AUTO 21008KT 9999NDV FEW014/// SCT018/// BKN023/// 12/11 Q1009=
200709012220 METAR ESMX 012220Z AUTO 21007KT 9999NDV FEW021/// SCT026/// BKN032/// 12/11 Q1009=
200709012150 METAR ESMX 012150Z AUTO 21007KT 9999NDV FEW022/// OVC042/// 11/10 Q1009=
200709012120 METAR ESMX 012120Z AUTO 20008KT 9999NDV FEW028/// OVC040/// 11/10 Q1009=
200709012050 METAR ESMX 012050Z AUTO 19008KT 9999NDV FEW017/// SCT024/// BKN041/// 11/10 Q1010=
200709012020 METAR ESMX 012020Z AUTO 20009KT 4200NDV BR FEW005/// SCT018/// BKN026/// 11/10 Q1010 REDZ=
200709011950 METAR ESMX 011950Z AUTO 20008KT 9999NDV FEW017/// SCT021/// BKN025/// 11/09 Q1010 REDZ=
200709011920 METAR ESMX 011920Z AUTO 20007KT 9999NDV DZ FEW024/// SCT039/// BKN049/// 11/08 Q1010=
200709011850 METAR ESMX 011850Z AUTO 18006KT 9999NDV -RA OVC050/// 11/07 Q1010=
200709011820 METAR ESMX 011820Z AUTO 19005KT 9999NDV SCT054/// BKN100/// 11/06 Q1010=
200709011750 METAR ESMX 011750Z AUTO 21005KT 9999NDV FEW040/// SCT058/// 12/05 Q1010=
200709011720 METAR ESMX 011720Z AUTO 22005KT 9999NDV FEW040/// BKN051/// 13/05 Q1010=
200709011650 METAR ESMX 011650Z AUTO 24007KT 9999NDV FEW045/// OVC051/// 13/04 Q1011=
200709011620 METAR ESMX 011620Z AUTO 19004KT 9999NDV OVC054/// 14/06 Q1011=
200709011550 METAR ESMX 011550Z AUTO 20004KT 9999NDV OVC059/// 14/05 Q1011=
200709011520 METAR ESMX 011520Z AUTO 23005KT 9999NDV SCT068/// 15/04 Q1011=
200709011450 METAR ESMX 011450Z AUTO 22006KT 9999NDV NCD 15/01 Q1011=
200709011420 METAR ESMX 011420Z AUTO 24004KT 200V290 9999NDV NCD 15/03 Q1011=
200709011350 METAR ESMX 011350Z AUTO 26004KT 9999NDV NCD 15/03 Q1011=
200709011320 METAR ESMX 011320Z AUTO 25005KT 210V300 9999NDV NCD 16/04 Q1011=
200709011250 METAR ESMX 011250Z AUTO VRB02KT 9999NDV NCD 16/03 Q1011=
200709011220 METAR ESMX 011220Z AUTO 30006KT 260V340 9999NDV NCD 15/02 Q1012=
