##########################################################
# Query made at 04/19/2024 21:00:06 UTC
# Time interval: from 10/01/2007 12:00  to 10/31/2007 12:59  UTC
##########################################################

##########################################################
# ESMX, Vaxjo (Sweden)
# WMO index: 02641. WIGOS ID: 0-20000-0-02648
# Latitude 56-51N. Longitude 014-50E. Altitude 199 m.
##########################################################

200710311250 METAR ESMX 311250Z 25005KT 180V280 CAVOK 07/00 Q1020=
200710311220 METAR ESMX 311220Z 25008KT CAVOK 07/00 Q1020=
200710311120 METAR ESMX 311120Z 28009KT 240V310 CAVOK 07/M00 Q1020=
200710311050 METAR ESMX 311050Z 29008KT 270V330 CAVOK 06/M00 Q1020=
200710311020 METAR ESMX 311020Z 29007KT CAVOK 06/00 Q1020=
200710310950 METAR ESMX 310950Z 29005KT 250V330 CAVOK 05/00 Q1020=
200710310850 METAR ESMX 310850Z 27005KT CAVOK 04/01 Q1019=
200710310750 METAR ESMX 310750Z 25007KT CAVOK 02/01 Q1018=
200710310650 METAR ESMX 310650Z 24005KT CAVOK 00/M00 Q1018=
200710310620 METAR ESMX 310620Z 25004KT CAVOK M00/M00 Q1017=
200710310550 METAR ESMX 310550Z AUTO 25004KT 210V290 9999NDV NCD 00/00 Q1017=
200710310520 METAR ESMX 310520Z 24004KT CAVOK 00/M00 Q1017=
200710310450 METAR ESMX 310450Z 24004KT CAVOK M00/M00 Q1016=
200710310420 METAR ESMX 310420Z AUTO 26003KT 9999NDV NCD 00/M00 Q1016=
200710310350 METAR ESMX 310350Z AUTO 24003KT 9999NDV NCD 01/01 Q1016=
200710310320 METAR ESMX 310320Z AUTO 26004KT 9999NDV NCD 02/01 Q1015=
200710310250 METAR ESMX 310250Z AUTO 25003KT 220V280 9999NDV NCD 02/01 Q1015=
200710310220 METAR ESMX 310220Z AUTO 24005KT 9999NDV NCD 02/01 Q1015=
200710310150 METAR ESMX 310150Z AUTO 24005KT 9999NDV FEW078/// 02/01 Q1014=
200710310120 METAR ESMX 310120Z AUTO 23005KT 9999NDV NCD 02/02 Q1014=
200710310050 METAR ESMX 310050Z 23005KT CAVOK 02/01 Q1014=
200710310020 METAR ESMX 310020Z 23005KT CAVOK 02/01 Q1014=
200710302350 METAR ESMX 302350Z 22006KT CAVOK 03/02 Q1014=
200710302320 METAR ESMX 302320Z 23007KT CAVOK 03/02 Q1014=
200710302250 METAR ESMX 302250Z 23006KT CAVOK 03/02 Q1013=
200710302220 METAR ESMX 302220Z 22006KT CAVOK 03/02 Q1013=
200710302150 METAR ESMX 302150Z 23006KT CAVOK 03/02 Q1013=
200710302120 METAR ESMX 302120Z 24005KT CAVOK 03/02 Q1013=
200710302050 METAR ESMX 302050Z 24005KT CAVOK 03/02 Q1013=
200710302020 METAR ESMX 302020Z 22005KT CAVOK 03/02 Q1013=
200710301950 METAR ESMX 301950Z 24005G21KT 210V270 CAVOK 04/03 Q1013=
200710301920 METAR ESMX 301920Z 23005KT CAVOK 04/03 Q1012=
200710301850 METAR ESMX 301850Z 24006KT CAVOK 04/03 Q1012=
200710301820 METAR ESMX 301820Z 25006KT CAVOK 05/03 Q1012=
200710301750 METAR ESMX 301750Z 25005KT 9999 FEW022 05/04 Q1012=
200710301720 METAR ESMX 301720Z 24004KT 9999 FEW020 05/03 Q1012=
200710301650 METAR ESMX 301650Z 24005KT 9999 FEW026 05/03 Q1011=
200710301620 METAR ESMX 301620Z 23005KT 9999 FEW025 05/03 Q1011=
200710301550 METAR ESMX 301550Z 23004KT 9999 FEW040 05/03 Q1011=
200710301520 METAR ESMX 301520Z 24003KT 9999 FEW040 06/03 Q1011=
200710301450 METAR ESMX 301450Z 25005KT 9999 FEW022 SCT039 08/04 Q1010=
200710301420 METAR ESMX 301420Z 26004KT 9999 FEW022 SCT080 09/05 Q1010=
200710301350 METAR ESMX 301350Z 28006KT 9999 FEW022 08/04 Q1010=
200710301320 METAR ESMX 301320Z 26004KT 230V320 9999 FEW020 09/05 Q1010=
200710301250 METAR ESMX 301250Z 26007KT 9999 FEW023 09/05 Q1009=
200710301220 METAR ESMX 301220Z 29006KT 250V320 9999 SCT020 08/05 Q1010=
200710301150 METAR ESMX 301150Z 27006KT 9999 FEW015 08/06 Q1009=
200710301120 METAR ESMX 301120Z 29008KT 9999 FEW008 SCT014 08/06 Q1009=
200710301050 METAR ESMX 301050Z 28006KT 9999 SCT006 SCT200 08/07 Q1009=
200710301020 METAR ESMX 301020Z 28006KT 9999 FEW005 SCT007 BKN110 08/07 Q1009=
200710300950 METAR ESMX 300950Z 27005KT 250V310 9999 SCT006 BKN010 08/07 Q1009=
200710300920 METAR ESMX 300920Z 28006KT 9999 FEW004 SCT005 BKN013 08/08 Q1008=
200710300850 METAR ESMX 300850Z 26003KT 9999 BKN007 08/08 Q1008=
200710300820 METAR ESMX 300820Z 26004KT 9000 OVC003 08/08 Q1008=
200710300750 METAR ESMX 300750Z VRB02KT 1100 R01/0900V1800U R19/1100V1700U FG VV002 08/07 Q1008=
200710300720 METAR ESMX 300720Z 23002KT 0550 R01/1100D R19/1200V1700D FG VV002 08/07 Q1007 RERA REDZ=
200710300650 METAR ESMX 300650Z 24002KT 0600 R01/1100V1500U R19/1400N FG VV002 07/07 Q1007=
200710300550 METAR ESMX 300550Z VRB02KT 3000 R01/P2000D R19/P2000D BR VV002 07/07 Q1007=
200710300520 METAR ESMX 300520Z VRB02KT 3000 R01/P2000D R19/P2000D BR VV002 07/07 Q1007 REDZ=
200710300450 METAR ESMX 300450Z 20003KT 9999 DZ FEW002 SCT025 07/07 Q1007=
200710300420 METAR ESMX 300420Z AUTO 15003KT 9999NDV -RA FEW001/// SCT002/// 07/07 Q1007=
200710300350 METAR ESMX 300350Z AUTO 20003KT 7000NDV RA OVC001/// 07/07 Q1007=
200710300320 METAR ESMX 300320Z AUTO 18003KT 9000NDV -RA OVC001/// 07/07 Q1007=
200710300250 METAR ESMX 300250Z AUTO 20002KT 9000NDV -RA BKN002/// 07/07 Q1007 REDZ=
200710300220 METAR ESMX 300220Z AUTO 18002KT 9999NDV -RA BKN002/// BKN006/// 07/07 Q1007=
200710300150 METAR ESMX 300150Z AUTO VRB02KT 9999NDV -RA SCT003/// BKN007/// OVC011/// 08/07 Q1007=
200710300120 METAR ESMX 300120Z 19002KT 6000 -RA BKN002 OVC005 08/07 Q1007=
200710300050 METAR ESMX 300050Z 17003KT 7000 -RA OVC003 08/07 Q1007 REDZ=
200710300020 METAR ESMX 300020Z 17003KT 9999 -RA OVC003 08/07 Q1007=
200710292350 METAR ESMX 292350Z 18004KT 9000 RA BKN002 OVC005 08/07 Q1007=
200710292320 METAR ESMX 292320Z 18004KT 3700 -RA OVC003 08/07 Q1007 REDZ=
200710292250 METAR ESMX 292250Z 18004KT 150V210 9999 DZ OVC003 08/07 Q1007 RERA=
200710292150 METAR ESMX 292150Z 17005KT 120V200 9000 -RA OVC003 08/07 Q1007=
200710292120 METAR ESMX 292120Z 17005KT 140V200 8000 -RA OVC003 08/07 Q1008=
200710292050 METAR ESMX 292050Z 18005KT 9999 DZ OVC003 08/07 Q1008=
200710292020 METAR ESMX 292020Z 18006KT 9999 DZ OVC003 08/07 Q1008=
200710291950 METAR ESMX 291950Z 16005KT 130V220 9999 SCT002 OVC004 07/07 Q1008 RERA=
200710291920 METAR ESMX 291920Z 16005KT 120V190 7000 -RA BKN002 OVC005 07/07 Q1008 REDZ=
200710291850 METAR ESMX 291850Z 17005KT 8000 -RA OVC004 07/07 Q1008=
200710291820 METAR ESMX 291820Z 17005KT 9999 -RA OVC004 07/07 Q1008 REDZ=
200710291750 METAR ESMX 291750Z 19006KT 140V210 9999 -RA OVC004 07/07 Q1009=
200710291720 METAR ESMX 291720Z 17007KT 7000 -RA OVC003 07/07 Q1009 REDZ=
200710291650 METAR ESMX 291650Z 17006KT 140V210 7000 DZ OVC003 07/07 Q1009 RERA=
200710291620 METAR ESMX 291620Z 17006KT 140V210 5000 -RA OVC003 07/07 Q1009=
200710291550 METAR ESMX 291550Z 18006KT 150V210 5000 -RA FEW003 OVC004 08/07 Q1009 REDZ=
200710291520 METAR ESMX 291520Z 18007KT 4500 -RA FEW003 OVC004 08/07 Q1009 REDZ=
200710291450 METAR ESMX 291450Z 17007KT 130V210 3300 DZ BKN003 OVC007 08/07 Q1009 RERA=
200710291420 METAR ESMX 291420Z 19007KT 2900 -RA OVC004 08/07 Q1009 REDZ=
200710291350 METAR ESMX 291350Z 18008KT 4300 -DZ OVC004 08/07 Q1009=
200710291250 METAR ESMX 291250Z 18007KT 4200 DZ OVC004 08/07 Q1009=
200710291120 METAR ESMX 291120Z 18008KT 3600 -RA FEW004 OVC006 08/07 Q1010 REDZ=
200710291050 METAR ESMX 291050Z 18009KT 3200 -RA FEW004 OVC005 07/07 Q1010=
200710291020 METAR ESMX 291020Z 18009KT 3000 -DZ BKN005 OVC008 07/07 Q1010=
200710290950 METAR ESMX 290950Z 18009KT 2400 -RA FEW005 BKN007 OVC009 07/07 Q1011 REDZ=
200710290920 METAR ESMX 290920Z 17008KT 140V210 2000 -RA SCT005 BKN007 07/07 Q1011=
200710290850 METAR ESMX 290850Z 18009KT 140V210 2500 -RA OVC007 07/06 Q1011=
200710290820 METAR ESMX 290820Z 18009KT 3000 DZ FEW008 OVC009 07/06 Q1011=
200710290750 METAR ESMX 290750Z 18010KT 150V210 4000 DZ OVC010 07/06 Q1011=
200710290720 METAR ESMX 290720Z 17009KT 140V200 4000 -RA SCT010 BKN020 07/06 Q1011=
200710290650 METAR ESMX 290650Z 16009KT 120V200 4000 DZ BKN010 07/06 Q1011=
200710290620 METAR ESMX 290620Z 17008KT 140V210 4100 -DZ BKN010 07/06 Q1011=
200710290550 METAR ESMX 290550Z 19011KT 5000 BR OVC010 07/05 Q1012=
200710290520 METAR ESMX 290520Z 18010KT 3500 BR OVC009 07/06 Q1011 REDZ=
200710290450 METAR ESMX 290450Z 17010KT 140V210 4000 BR OVC009 07/05 Q1012=
200710290150 METAR ESMX 290150Z 18012KT 6000 BR OVC011 08/05 Q1013=
200710290120 METAR ESMX 290120Z 18012KT 140V210 6000 BR OVC013 08/05 Q1013=
200710290050 METAR ESMX 290050Z 18012KT 6000 BR OVC013 08/05 Q1014=
200710290020 METAR ESMX 290020Z 19011KT 7000 BR OVC014 08/05 Q1014=
200710282350 METAR ESMX 282350Z 18011KT 7000 BR OVC015 08/05 Q1014=
200710282320 METAR ESMX 282320Z 18011KT 7000 BR OVC015 08/05 Q1015=
200710282250 METAR ESMX 282250Z 19011KT 7000 BR OVC015 08/05 Q1015=
200710282220 METAR ESMX 282220Z 18010KT 7000 BR OVC016 08/05 Q1015=
200710282150 METAR ESMX 282150Z 18011KT 150V210 7000 BR OVC016 08/05 Q1015=
200710282050 METAR ESMX 282050Z 19012KT 7000 BR OVC016 08/05 Q1016=
200710282020 METAR ESMX 282020Z 19012KT 150V220 7000 BR OVC016 08/05 Q1016=
200710281950 METAR ESMX 281950Z 18015KT 8000 BR BKN015 OVC023 08/04 Q1017=
200710281920 METAR ESMX 281920Z 19013KT 160V220 7000 BR OVC016 08/05 Q1017=
200710281850 METAR ESMX 281850Z 18012KT 140V210 7000 BR OVC016 08/04 Q1017=
200710281820 METAR ESMX 281820Z 19012KT 160V220 7000 BR OVC017 08/04 Q1017=
200710281750 METAR ESMX 281750Z 18012KT 140V210 8000 BR OVC018 08/04 Q1017=
200710281720 METAR ESMX 281720Z 18012KT 9000 BR OVC020 08/04 Q1017=
200710281650 METAR ESMX 281650Z 19013KT 160V230 9000 BR BKN021 08/04 Q1017=
200710281620 METAR ESMX 281620Z 19010KT 9999 BKN022 08/04 Q1018=
200710281550 METAR ESMX 281550Z 19010KT 9999 BR BKN023 07/03 Q1018=
200710281520 METAR ESMX 281520Z 19013KT 9999 BR BKN024 08/03 Q1018=
200710281450 METAR ESMX 281450Z 19012KT 9999 BKN025 09/04 Q1018=
200710281420 METAR ESMX 281420Z 18014KT 9999 BR FEW022 OVC027 09/05 Q1018=
200710281350 METAR ESMX 281350Z 18011KT 140V220 8000 BR FEW020 BKN026 09/05 Q1019=
200710281320 METAR ESMX 281320Z 18011KT 150V220 8000 BR FEW018 BKN020 BKN027 09/05 Q1019=
200710281250 METAR ESMX 281250Z 19011KT 160V220 8000 HZ FEW017 BKN024 10/06 Q1019=
200710281220 METAR ESMX 281220Z 19013KT 8000 BR FEW016 BKN019 09/06 Q1020=
200710281150 METAR ESMX 281150Z 19012KT 150V210 9999 SCT014 BKN020 09/06 Q1020=
200710281120 METAR ESMX 281120Z AUTO 19012KT 7000NDV BR FEW014/// SCT029/// 09/06 Q1021=
200710281050 METAR ESMX 281050Z AUTO 18011KT 7000NDV BR FEW015/// SCT017/// BKN030/// 09/06 Q1021=
200710281020 METAR ESMX 281020Z AUTO 20013KT 160V220 8000NDV BR FEW015/// 09/06 Q1021=
200710280950 METAR ESMX 280950Z AUTO 18011KT 6000NDV BR FEW011/// BKN014/// 09/06 Q1022=
200710280920 METAR ESMX 280920Z AUTO 19009KT 5000NDV BR FEW009/// BKN012/// OVC016/// 08/06 Q1022=
200710280850 METAR ESMX 280850Z AUTO 20009KT 4900NDV BR SCT007/// BKN010/// BKN014/// 08/06 Q1022=
200710280820 METAR ESMX 280820Z AUTO 20009KT 4100NDV BR BKN005/// BKN010/// 07/06 Q1022=
200710280750 METAR ESMX 280750Z AUTO 20010KT 3300NDV BR FEW004/// BKN005/// 07/06 Q1023=
200710280720 METAR ESMX 280720Z AUTO 18006KT 1600NDV BR BKN002/// BKN005/// 07/06 Q1023=
200710280650 METAR ESMX 280650Z AUTO 17006KT 130V200 1600NDV BR NCD 07/06 Q1023=
200710280620 METAR ESMX 280620Z AUTO 17005KT 140V200 1800NDV BR NCD 07/06 Q1023=
200710280550 METAR ESMX 280550Z AUTO 17005KT 2700NDV BR FEW033/// 07/06 Q1023=
200710280520 METAR ESMX 280520Z AUTO 18006KT 3200NDV BR FEW005/// OVC031/// 08/07 Q1023=
200710280450 METAR ESMX 280450Z AUTO 19005KT 3100NDV BR BKN006/// OVC031/// 08/07 Q1023=
200710280420 METAR ESMX 280420Z AUTO 19005KT 4000NDV BR FEW006/// SCT008/// OVC025/// 08/06 Q1023=
200710280350 METAR ESMX 280350Z AUTO 21005KT 4700NDV BR FEW007/// OVC023/// 08/06 Q1023=
200710280320 METAR ESMX 280320Z AUTO 20006KT 6000NDV BR FEW008/// OVC020/// 08/06 Q1024=
200710280250 METAR ESMX 280250Z AUTO 18005KT 7000NDV BR FEW017/// OVC020/// 08/06 Q1024=
200710280220 METAR ESMX 280220Z AUTO 18005KT 150V210 8000NDV BR OVC019/// 08/06 Q1024=
200710280150 METAR ESMX 280150Z AUTO 17004KT 150V210 7000NDV BR OVC018/// 08/06 Q1024=
200710280120 METAR ESMX 280120Z AUTO 17004KT 7000NDV BR OVC018/// 08/06 Q1024=
200710280050 METAR ESMX 280050Z AUTO 18004KT 7000NDV BR OVC017/// 08/06 Q1024=
200710280020 METAR ESMX 280020Z AUTO 18003KT 140V210 7000NDV BR OVC014/// 08/06 Q1025=
200710272350 METAR ESMX 272350Z AUTO 17003KT 7000NDV BR OVC014/// 08/06 Q1025=
200710272320 METAR ESMX 272320Z AUTO 21003KT 8000NDV BR OVC015/// 08/06 Q1025=
200710272250 METAR ESMX 272250Z AUTO 21003KT 8000NDV BR OVC014/// 08/06 Q1025=
200710272220 METAR ESMX 272220Z AUTO VRB02KT 9000NDV OVC014/// 08/06 Q1025=
200710272150 METAR ESMX 272150Z AUTO 22003KT 9999NDV OVC014/// 08/06 Q1025=
200710272120 METAR ESMX 272120Z AUTO 20004KT 150V230 9999NDV OVC013/// 08/06 Q1026=
200710272050 METAR ESMX 272050Z AUTO 14004KT 9000NDV BR OVC014/// 08/06 Q1026=
200710272020 METAR ESMX 272020Z AUTO 17002KT 7000NDV BR OVC014/// 08/06 Q1026=
200710271950 METAR ESMX 271950Z AUTO 14002KT 9000NDV BR OVC015/// 08/06 Q1026=
200710271920 METAR ESMX 271920Z AUTO VRB02KT 8000NDV BR OVC015/// 08/06 Q1026=
200710271850 METAR ESMX 271850Z AUTO 23002KT 7000NDV BR OVC014/// 08/06 Q1026=
200710271820 METAR ESMX 271820Z AUTO 20002KT 7000NDV BR OVC013/// 08/06 Q1026=
200710271750 METAR ESMX 271750Z AUTO VRB02KT 7000NDV BR OVC013/// 08/06 Q1026=
200710271720 METAR ESMX 271720Z AUTO 17002KT 7000NDV BR OVC013/// 09/06 Q1026=
200710271650 METAR ESMX 271650Z AUTO VRB02KT 8000NDV BR OVC014/// 09/06 Q1026=
200710271620 METAR ESMX 271620Z AUTO 21003KT 7000NDV BR OVC014/// 09/06 Q1026=
200710271550 METAR ESMX 271550Z AUTO VRB02KT 6000NDV BR OVC014/// 09/06 Q1026=
200710271520 METAR ESMX 271520Z AUTO VRB02KT 6000NDV HZ OVC014/// 09/07 Q1026=
200710271450 METAR ESMX 271450Z AUTO VRB02KT 6000NDV HZ OVC014/// 09/07 Q1026=
200710271420 METAR ESMX 271420Z AUTO 16002KT 7000NDV HZ OVC014/// 09/07 Q1026=
200710271350 METAR ESMX 271350Z AUTO 19004KT 150V220 7000NDV HZ OVC013/// 09/07 Q1026=
200710271320 METAR ESMX 271320Z AUTO 16003KT 140V200 7000NDV HZ OVC013/// 10/07 Q1026=
200710271250 METAR ESMX 271250Z AUTO 14004KT 110V170 7000NDV BR FEW013/// OVC070/// 10/07 Q1026=
200710271220 METAR ESMX 271220Z AUTO 15005KT 100V190 8000NDV BR FEW052/// OVC072/// 10/07 Q1026=
200710271150 METAR ESMX 271150Z AUTO 16005KT 140V200 8000NDV BR OVC047/// 09/07 Q1027=
200710271120 METAR ESMX 271120Z AUTO 15003KT 110V200 8000NDV BR OVC015/// 09/07 Q1027=
200710271050 METAR ESMX 271050Z AUTO VRB01KT 7000NDV BR OVC013/// 09/06 Q1028=
200710271020 METAR ESMX 271020Z AUTO VRB02KT 8000NDV HZ FEW011/// SCT014/// OVC017/// 09/06 Q1028=
200710270950 METAR ESMX 270950Z AUTO 11003KT 070V140 7000NDV BR FEW010/// OVC015/// 09/07 Q1028=
200710270920 METAR ESMX 270920Z AUTO 11003KT 050V150 7000NDV BR FEW010/// SCT012/// OVC016/// 09/07 Q1027=
200710270850 METAR ESMX 270850Z AUTO VRB02KT 6000NDV BR FEW008/// OVC017/// 09/07 Q1027=
200710270820 METAR ESMX 270820Z AUTO 12004KT 070V160 6000NDV BR FEW019/// BKN021/// OVC026/// 09/07 Q1027=
200710270750 METAR ESMX 270750Z AUTO 10003KT 030V150 4800NDV BR OVC022/// 09/07 Q1027=
200710270720 METAR ESMX 270720Z AUTO 00000KT 3800NDV BR FEW006/// OVC024/// 08/07 Q1027=
200710270650 METAR ESMX 270650Z AUTO VRB02KT 3100NDV BR FEW007/// BKN026/// 08/07 Q1027=
200710270620 METAR ESMX 270620Z AUTO 11004KT 060V160 3500NDV BR OVC022/// 08/07 Q1026=
200710270550 METAR ESMX 270550Z AUTO 10003KT 050V160 3500NDV BR FEW016/// OVC019/// 08/07 Q1027=
200710270520 METAR ESMX 270520Z AUTO 10003KT 060V150 3000NDV BR FEW019/// OVC023/// 08/07 Q1027=
200710270450 METAR ESMX 270450Z AUTO VRB02KT 2600NDV BR OVC021/// 08/07 Q1027=
200710270420 METAR ESMX 270420Z AUTO VRB02KT 2200NDV BR OVC023/// 08/07 Q1027=
200710270350 METAR ESMX 270350Z AUTO VRB02KT 2300NDV BR FEW002/// OVC023/// 08/07 Q1027=
200710270320 METAR ESMX 270320Z AUTO VRB01KT 2100NDV BR OVC002/// 08/07 Q1027=
200710270250 METAR ESMX 270250Z AUTO VRB01KT 2500NDV BR OVC002/// 08/07 Q1027=
200710270220 METAR ESMX 270220Z AUTO VRB02KT 2800NDV BR OVC003/// 08/07 Q1027=
200710270150 METAR ESMX 270150Z AUTO VRB02KT 2800NDV BR OVC004/// 08/07 Q1027=
200710270120 METAR ESMX 270120Z AUTO 00000KT 3200NDV BR OVC004/// 08/07 Q1027=
200710270050 METAR ESMX 270050Z AUTO VRB02KT 3600NDV BR OVC004/// 08/07 Q1027=
200710270020 METAR ESMX 270020Z AUTO VRB02KT 3400NDV BR OVC004/// 08/07 Q1027=
200710262350 METAR ESMX 262350Z AUTO VRB02KT 3300NDV BR FEW004/// OVC005/// 07/07 Q1027=
200710262320 METAR ESMX 262320Z AUTO VRB02KT 2900NDV BR BKN003/// OVC006/// 07/07 Q1027=
200710262250 METAR ESMX 262250Z AUTO 07003KT 030V110 2500NDV BR OVC002/// 07/07 Q1028=
200710262220 METAR ESMX 262220Z AUTO VRB02KT 2300NDV BR OVC002/// 07/07 Q1028=
200710262150 METAR ESMX 262150Z AUTO 07003KT 030V110 2500NDV BR OVC002/// 07/07 Q1028=
200710262120 METAR ESMX 262120Z AUTO 09003KT 360V130 2100NDV BR FEW002/// OVC003/// 07/06 Q1028=
200710262050 METAR ESMX 262050Z AUTO VRB02KT 1900NDV BR OVC004/// 07/06 Q1028=
200710262020 METAR ESMX 262020Z AUTO VRB02KT 5000NDV BR OVC006/// 07/06 Q1028=
200710261950 METAR ESMX 261950Z AUTO 11003KT 040V150 6000NDV BR OVC007/// 07/06 Q1028=
200710261920 METAR ESMX 261920Z AUTO 11003KT 350V160 7000NDV BR OVC008/// 07/06 Q1028=
200710261820 METAR ESMX 261820Z 11003KT 030V160 7000 BR OVC008 07/06 Q1028=
200710261750 METAR ESMX 261750Z VRB02KT 7000 BR OVC009 07/06 Q1028=
200710261720 METAR ESMX 261720Z 10003KT 050V150 8000 BR OVC009 07/05 Q1028=
200710261650 METAR ESMX 261650Z VRB02KT 8000 BR OVC011 07/05 Q1028=
200710261620 METAR ESMX 261620Z VRB02KT 8000 BR OVC011 07/05 Q1028=
200710261550 METAR ESMX 261550Z VRB02KT 9000 BR SCT008 OVC010 07/05 Q1028=
200710261420 METAR ESMX 261420Z 09003KT 050V140 9999 HZ OVC010 07/05 Q1028=
200710261350 METAR ESMX 261350Z 11003KT 050V170 9999 OVC010 07/05 Q1029=
200710261320 METAR ESMX 261320Z 11004KT 080V150 9999 OVC010 07/05 Q1029=
200710261250 METAR ESMX 261250Z 11003KT 070V150 9999 OVC010 07/05 Q1029=
200710261220 METAR ESMX 261220Z 11003KT 070V160 9999 OVC009 07/05 Q1029=
200710261150 METAR ESMX 261150Z 11003KT 050V160 9999 OVC009 07/04 Q1029=
200710261120 METAR ESMX 261120Z 12004KT 070V160 9999 OVC010 07/04 Q1030=
200710261050 METAR ESMX 261050Z 14005KT 080V200 9999 OVC010 06/04 Q1030=
200710261020 METAR ESMX 261020Z 12004KT 070V190 9999 OVC010 06/04 Q1030=
200710260950 METAR ESMX 260950Z 11003KT 050V190 9999 OVC010 06/04 Q1030=
200710260920 METAR ESMX 260920Z 10004KT 070V140 9999 OVC009 05/04 Q1030=
200710260850 METAR ESMX 260850Z 10003KT 050V150 9999 FEW008 OVC009 05/04 Q1030=
200710260820 METAR ESMX 260820Z 10004KT 070V140 9999 OVC007 05/03 Q1030=
200710260750 METAR ESMX 260750Z 09003KT 040V150 9999 OVC007 05/03 Q1030=
200710260720 METAR ESMX 260720Z 08004KT 040V140 9999 OVC007 04/03 Q1030=
200710260650 METAR ESMX 260650Z VRB02KT 9999 OVC007 04/03 Q1030=
200710260550 METAR ESMX 260550Z VRB02KT 9999 OVC007 04/03 Q1030=
200710260520 METAR ESMX 260520Z VRB02KT 9999 OVC006 03/03 Q1030=
200710260450 METAR ESMX 260450Z 11003KT 060V160 9999 OVC006 03/02 Q1030=
200710260420 METAR ESMX 260420Z VRB02KT 9999 OVC006 03/03 Q1030=
200710260350 METAR ESMX 260350Z 13003KT 9999 OVC006 03/03 Q1030=
200710260320 METAR ESMX 260320Z 11002KT 9999 OVC007 02/02 Q1030=
200710260250 METAR ESMX 260250Z AUTO 00000KT 5000NDV BR OVC007/// 01/01 Q1030=
200710260220 METAR ESMX 260220Z AUTO 00000KT 5000NDV OVC007/// 01/01 Q1030=
200710260150 METAR ESMX 260150Z AUTO 00000KT 3800NDV OVC007/// 01/00 Q1031=
200710260050 METAR ESMX 260050Z 00000KT 2000 BR BCFG SCT001 BKN006 00/00 Q1031=
200710260020 METAR ESMX 260020Z VRB01KT 0300 R01/0900V1600U R19/0800V1700U FZFG VV002 M00/M01 Q1031=
200710252350 METAR ESMX 252350Z 00000KT 0100 R01/0350V0600 R19/0350N FZFG VV001 M01/M01 Q1031=
200710252320 METAR ESMX 252320Z 00000KT 0150 R01/0500 R19/0650 FZFG VV002 M02/M02 Q1031=
200710252250 METAR ESMX 252250Z 00000KT 1500 R01/1900 R19/2000 BR FZBCFG FEW002 SCT003 M03/M03 Q1031=
200710252220 METAR ESMX 252220Z 00000KT 3000 BR FZBCFG FEW002 M03/M03 Q1031=
200710252150 METAR ESMX 252150Z 00000KT 9999 FZBCFG FEW002 M03/M03 Q1031=
200710252120 METAR ESMX 252120Z 00000KT 9999 FEW002 M02/M03 Q1031=
200710252050 METAR ESMX 252050Z 00000KT CAVOK M02/M02 Q1031=
200710252020 METAR ESMX 252020Z 00000KT CAVOK M02/M03 Q1031=
200710251950 METAR ESMX 251950Z 00000KT CAVOK M02/M03 Q1031=
200710251920 METAR ESMX 251920Z 18002KT CAVOK M01/M03 Q1030=
200710251850 METAR ESMX 251850Z VRB01KT CAVOK M01/M02 Q1030=
200710251820 METAR ESMX 251820Z 00000KT CAVOK M00/M01 Q1030=
200710251750 METAR ESMX 251750Z 00000KT CAVOK M00/M01 Q1030=
200710251720 METAR ESMX 251720Z 00000KT CAVOK 00/M01 Q1030=
200710251650 METAR ESMX 251650Z 00000KT CAVOK 02/M01 Q1030=
200710251620 METAR ESMX 251620Z 19002KT CAVOK 03/M00 Q1030=
200710251550 METAR ESMX 251550Z 00000KT CAVOK 04/01 Q1030=
200710251520 METAR ESMX 251520Z 02001KT CAVOK 09/00 Q1030=
200710251450 METAR ESMX 251450Z 03002KT CAVOK 12/00 Q1030=
200710251320 METAR ESMX 251320Z 02004KT CAVOK 12/M01 Q1030=
200710251220 METAR ESMX 251220Z 01004KT 340V040 CAVOK 11/01 Q1030=
200710251150 METAR ESMX 251150Z 36004KT 330V030 CAVOK 11/01 Q1030=
200710251120 METAR ESMX 251120Z 35004KT 320V020 CAVOK 10/01 Q1031=
200710251050 METAR ESMX 251050Z 35003KT 320V030 CAVOK 10/02 Q1031=
200710251020 METAR ESMX 251020Z VRB02KT CAVOK 08/04 Q1031=
200710250950 METAR ESMX 250950Z 04003KT CAVOK 07/05 Q1031=
200710250920 METAR ESMX 250920Z 01003KT CAVOK 05/05 Q1031=
200710250850 METAR ESMX 250850Z VRB02KT CAVOK 05/04 Q1031=
200710250820 METAR ESMX 250820Z 01004KT CAVOK 03/03 Q1032=
200710250750 METAR ESMX 250750Z 01003KT 9999 0500S R19/P2000U BCFG FEW002 01/01 Q1032=
200710250720 METAR ESMX 250720Z 03002KT 0150 R01/0250N R19/0275N FG VV001 00/00 Q1032=
200710250650 METAR ESMX 250650Z 03002KT 0150 R01/0175N R19/0225N FZFG VV001 M00/M00 Q1032=
200710250620 METAR ESMX 250620Z 00000KT 0100 R01/0175N R19/0200N FZFG VV001 M00/M01 Q1032=
200710250550 METAR ESMX 250550Z 04002KT 0100 R01/0275V0400N R19/0275N FZFG VV001 M00/M00 Q1032=
200710250520 METAR ESMX 250520Z 04003KT 0150 R01/0600N R19/0700 FZFG VV002 M00/M00 Q1031=
200710250450 METAR ESMX 250450Z 02004KT 0400 R01/0500V0700N R19/P2000D FG OVC001 00/00 Q1031=
200710250420 METAR ESMX 250420Z 01002KT 0100 R01/0275V0375N R19/0650 FZFG VV001 M01/M01 Q1031=
200710250350 METAR ESMX 250350Z 03001KT 0100 R01/0550N R19/0500N FZFG VV001 M02/M02 Q1031=
200710250320 METAR ESMX 250320Z AUTO 00000KT 0050NDV R01/0650D R19/0200V0300N=
200710250250 METAR ESMX 250250Z AUTO 00000KT 0050NDV R01/0500N R19/0175N FZFG VV000 M01/M01 Q1031 RESG RESN=
200710250220 METAR ESMX 250220Z AUTO 00000KT 0050NDV R01/0175V0275N R19/0250N -SN VV000 M01/M01 Q1032 RESG=
200710250150 METAR ESMX 250150Z AUTO 36002KT 0150NDV R01/0650 R19/0450 FZFG VV000 M01/M01 Q1032=
200710250120 METAR ESMX 250120Z AUTO 01001KT 0100NDV R01/0375V0500N R19/0650=
200710250050 METAR ESMX 250050Z AUTO 00000KT 0100NDV R01/0500N R19/P2000D FZFG NCD M02/M02 Q1032=
200710250020 METAR ESMX 250020Z AUTO VRB01KT 0200NDV R01/0800V1700 R19/P2000U=
200710242350 METAR ESMX 242350Z 35002KT 0500 R01/1000 R19/0550V0900 FZFG NSC M01/M01 Q1032=
200710242320 METAR ESMX 242320Z 00000KT 0800 R01/0600N R19/P2000U FZFG NSC M02/M02 Q1032=
200710242220 METAR ESMX 242220Z 00000KT 5000 R01/0375V0500 R19/P2000U FZBCFG NSC M01/M01 Q1033=
200710242150 METAR ESMX 242150Z 00000KT 9999 R01/09800 R19/P2000U FZBCFG NSC M01/M01 Q1033=
200710242120 METAR ESMX 242120Z 05002KT CAVOK M01/M01 Q1033=
200710242050 METAR ESMX 242050Z 04002KT CAVOK M00/M01 Q1033=
200710242020 METAR ESMX 242020Z 00000KT CAVOK M00/M00 Q1033=
200710241950 METAR ESMX 241950Z 00000KT CAVOK 00/M00 Q1033=
200710241920 METAR ESMX 241920Z VRB02KT CAVOK 01/00 Q1033=
200710241850 METAR ESMX 241850Z 00000KT CAVOK 01/00 Q1033=
200710241820 METAR ESMX 241820Z 00000KT CAVOK 01/01 Q1033=
200710241750 METAR ESMX 241750Z VRB02KT CAVOK 02/01 Q1033=
200710241720 METAR ESMX 241720Z 03004KT CAVOK 04/03 Q1033=
200710241650 METAR ESMX 241650Z 05003KT 020V080 CAVOK 05/03 Q1033=
200710241620 METAR ESMX 241620Z 04003KT CAVOK 05/03 Q1033=
200710241550 METAR ESMX 241550Z 04003KT CAVOK 06/04 Q1032=
200710241520 METAR ESMX 241520Z 02004KT CAVOK 09/04 Q1032=
200710241450 METAR ESMX 241450Z 03004KT CAVOK 10/04 Q1032=
200710241420 METAR ESMX 241420Z 05003KT 020V080 CAVOK 10/04 Q1033=
200710241350 METAR ESMX 241350Z 07003KT 010V160 CAVOK 11/04 Q1033=
200710241320 METAR ESMX 241320Z 06003KT 010V110 CAVOK 11/04 Q1033=
200710241250 METAR ESMX 241250Z 02004KT CAVOK 11/04 Q1033=
200710241220 METAR ESMX 241220Z 04004KT CAVOK 11/04 Q1033=
200710241150 METAR ESMX 241150Z VRB02KT CAVOK 10/04 Q1033=
200710241120 METAR ESMX 241120Z 04005KT 010V070 CAVOK 10/03 Q1034=
200710241050 METAR ESMX 241050Z 06004KT 020V130 CAVOK 09/04 Q1034=
200710241020 METAR ESMX 241020Z 04004KT 310V110 CAVOK 09/03 Q1034=
200710240950 METAR ESMX 240950Z 06006KT CAVOK 08/04 Q1034=
200710240920 METAR ESMX 240920Z 08005KT 030V140 9999 FEW015 07/03 Q1034=
200710240850 METAR ESMX 240850Z 05004KT 010V110 9999 FEW015 06/03 Q1034=
200710240820 METAR ESMX 240820Z 05005KT 010V080 9999 FEW015 05/03 Q1034=
200710240750 METAR ESMX 240750Z 06004KT 020V140 9999 BKN012 05/03 Q1034=
200710240650 METAR ESMX 240650Z 03005KT 9999 BKN012 03/02 Q1034=
200710240620 METAR ESMX 240620Z 04004KT 350V060 9999 FEW009 BKN012 04/02 Q1034=
200710240550 METAR ESMX 240550Z 04004KT 360V070 9999 OVC010 04/02 Q1034=
200710240520 METAR ESMX 240520Z 05004KT 020V080 9999 OVC010 03/02 Q1034=
200710240450 METAR ESMX 240450Z 06004KT 030V100 9999 OVC010 03/02 Q1034=
200710240420 METAR ESMX 240420Z 06003KT 9999 OVC011 02/02 Q1034=
200710240350 METAR ESMX 240350Z 02003KT 9999 OVC011 02/02 Q1034=
200710240320 METAR ESMX 240320Z 02002KT 9999 BKN011 01/01 Q1034=
200710240250 METAR ESMX 240250Z AUTO VRB02KT 8000NDV OVC012/// 00/M00 Q1034=
200710240220 METAR ESMX 240220Z AUTO VRB01KT 9999NDV OVC012/// M00/M00 Q1034=
200710240150 METAR ESMX 240150Z AUTO 02002KT 9999NDV OVC013/// M00/M01 Q1034=
200710240120 METAR ESMX 240120Z AUTO 03003KT 1800NDV FEW013/// BKN016/// M02/M02 Q1034=
200710240050 METAR ESMX 240050Z AUTO 02002KT 0400NDV R01/0700VP2000D R19/P2000U=
200710240020 METAR ESMX 240020Z AUTO 02002KT 0200NDV R01/0750 R19/P2000U FZFG NCD M03/M04 Q1034=
200710232350 METAR ESMX 232350Z 00000KT 7000 FZBCFG NSC M04/M04 Q1034=
200710232320 METAR ESMX 232320Z VRB02KT 9999 FZBCFG NSC M03/M04 Q1034=
200710232250 METAR ESMX 232250Z 03002KT 9000 BR FZBCFG NSC M04/M04 Q1034=
200710232220 METAR ESMX 232220Z 00000KT CAVOK M03/M03 Q1034=
200710232150 METAR ESMX 232150Z 00000KT CAVOK M03/M03 Q1034=
200710232120 METAR ESMX 232120Z 00000KT CAVOK M03/M03 Q1034=
200710232050 METAR ESMX 232050Z 00000KT CAVOK M02/M03 Q1034=
200710232020 METAR ESMX 232020Z 00000KT CAVOK M03/M03 Q1034=
200710231950 METAR ESMX 231950Z 00000KT CAVOK M02/M03 Q1034=
200710231920 METAR ESMX 231920Z 00000KT CAVOK M02/M03 Q1034=
200710231850 METAR ESMX 231850Z 00000KT CAVOK M02/M03 Q1034=
200710231820 METAR ESMX 231820Z 00000KT CAVOK M01/M02 Q1034=
200710231750 METAR ESMX 231750Z 00000KT CAVOK M01/M02 Q1034=
200710231720 METAR ESMX 231720Z 00000KT CAVOK M00/M01 Q1034=
200710231650 METAR ESMX 231650Z 07002KT CAVOK 01/M00 Q1034=
200710231620 METAR ESMX 231620Z 00000KT CAVOK 01/M00 Q1034=
200710231550 METAR ESMX 231550Z VRB02KT CAVOK 04/00 Q1034=
200710231520 METAR ESMX 231520Z VRB02KT CAVOK 07/01 Q1033=
200710231450 METAR ESMX 231450Z VRB02KT CAVOK 08/00 Q1033=
200710231350 METAR ESMX 231350Z 05004KT 010V090 CAVOK 09/00 Q1034=
200710231320 METAR ESMX 231320Z 01006KT 340V050 CAVOK 09/00 Q1033=
200710231250 METAR ESMX 231250Z 02005KT 330V070 CAVOK 09/M00 Q1034=
200710231220 METAR ESMX 231220Z 03004KT 330V080 9999 FEW032 08/01 Q1034=
200710231150 METAR ESMX 231150Z 36006KT 320V030 9999 FEW030 08/01 Q1034=
200710231120 METAR ESMX 231120Z 04005KT 9999 FEW030 08/M00 Q1034=
200710231050 METAR ESMX 231050Z 36004KT CAVOK 07/00 Q1034=
200710231020 METAR ESMX 231020Z 04004KT 360V070 CAVOK 07/01 Q1034=
200710230950 METAR ESMX 230950Z 04003KT 350V100 CAVOK 06/02 Q1034=
200710230920 METAR ESMX 230920Z 36003KT 330V040 CAVOK 06/02 Q1034=
200710230850 METAR ESMX 230850Z VRB02KT CAVOK 05/03 Q1034=
200710230820 METAR ESMX 230820Z 01002KT CAVOK 02/02 Q1034=
200710230750 METAR ESMX 230750Z 01001KT CAVOK 01/01 Q1034=
200710230720 METAR ESMX 230720Z 00000KT CAVOK M01/M01 Q1034=
200710230650 METAR ESMX 230650Z 00000KT 9999 R01/1200VP2000U R19/0550V1900 FZBCFG NSC M04/M04 Q1034=
200710230620 METAR ESMX 230620Z 00000KT 9999 R01/0900V1300D R19/0700 FZBCFG NSC M04/M04 Q1033=
200710230550 METAR ESMX 230550Z 00000KT 9999 R01/0900 R19/0800V1400U FZBCFG FEW040 M04/M04 Q1033=
200710230520 METAR ESMX 230520Z 02001KT 1000 R01/0900V1500N R19/0600V1000 FZBCFG SCT035 M03/M03 Q1033=
200710230450 METAR ESMX 230450Z 03002KT 1000 R01/0400V0550 R19/0700V1100D FZBCFG SCT035 M03/M04 Q1033=
200710230420 METAR ESMX 230420Z 04002KT 3000 FZBCFG NSC M03/M04 Q1033=
200710230350 METAR ESMX 230350Z VRB01KT 0350 R01/0800 R19/0800V1800 FZBCFG NSC M03/M03 Q1033=
200710230320 METAR ESMX 230320Z 35002KT 0400 R01/0800 R19/P2000D FZBCFG NSC M02/M02 Q1033=
200710230220 METAR ESMX 230220Z AUTO 01001KT 0050NDV R01/0225V0325N R19/0650=
200710230150 METAR ESMX 230150Z AUTO 01001KT 0050NDV R01/0250V0375N R19/0225N=
200710230120 METAR ESMX 230120Z AUTO 00000KT 0150NDV R01/0500 R19/0600 FZFG VV000 M03/M03 Q1033=
200710230050 METAR ESMX 230050Z AUTO 00000KT 0100NDV R01/0375V0800U R19/0325V0900U FZFG BKN001/// M03/M03 Q1033=
200710230020 METAR ESMX 230020Z 00000KT 0350 R01/0900 R19/0800VP2000U FZBCFG NSC M02/M03 Q1033=
200710222350 METAR ESMX 222350Z 00000KT 0650 R01/0450VP2000D R19/P2000D FZBCFG NSC M02/M02 Q1033=
200710222320 METAR ESMX 222320Z 00000KT 1000 R01/P2000D R19/P2000U BCFG SCT035 M02/M02 Q1033=
200710222250 METAR ESMX 222250Z 00000KT 9999 SCT035 M01/M01 Q1033=
200710222220 METAR ESMX 222220Z 00000KT 9999 SCT035 M01/M01 Q1033=
200710222150 METAR ESMX 222150Z 00000KT 9999 BKN035 M00/M01 Q1033=
200710222120 METAR ESMX 222120Z 00000KT 9999 OVC035 01/00 Q1033=
200710222050 METAR ESMX 222050Z 00000KT 9999 OVC036 01/01 Q1034=
200710222020 METAR ESMX 222020Z 00000KT 9999 BKN036 02/00 Q1033=
200710221950 METAR ESMX 221950Z 00000KT 9999 BKN036 02/01 Q1034=
200710221920 METAR ESMX 221920Z 00000KT 9999 OVC035 02/01 Q1034=
200710221850 METAR ESMX 221850Z 00000KT 9999 BKN037 02/00 Q1034=
200710221820 METAR ESMX 221820Z 00000KT 9999 BKN037 01/00 Q1033=
200710221750 METAR ESMX 221750Z 00000KT 9999 SCT038 01/00 Q1033=
200710221720 METAR ESMX 221720Z 19001KT CAVOK 01/M00 Q1033=
200710221650 METAR ESMX 221650Z 18002KT CAVOK 02/00 Q1033=
200710221620 METAR ESMX 221620Z 19001KT CAVOK 02/00 Q1033=
200710221550 METAR ESMX 221550Z VRB02KT CAVOK 02/00 Q1033=
200710221520 METAR ESMX 221520Z 00000KT 9999 SCT040 05/01 Q1033=
200710221450 METAR ESMX 221450Z 00000KT 9999 SCT040 08/M00 Q1033=
200710221420 METAR ESMX 221420Z 21002KT CAVOK 08/00 Q1033=
200710221350 METAR ESMX 221350Z 20002KT CAVOK 07/01 Q1033=
200710221320 METAR ESMX 221320Z 19004KT CAVOK 07/00 Q1033=
200710221250 METAR ESMX 221250Z 22006KT 190V250 CAVOK 09/01 Q1033=
200710221220 METAR ESMX 221220Z 19006KT CAVOK 08/00 Q1033=
200710221150 METAR ESMX 221150Z 21006KT CAVOK 08/M00 Q1033=
200710221120 METAR ESMX 221120Z 20007KT CAVOK 07/M00 Q1034=
200710221050 METAR ESMX 221050Z 21005KT 140V240 CAVOK 08/M01 Q1034=
200710221020 METAR ESMX 221020Z 21006KT CAVOK 07/00 Q1034=
200710220950 METAR ESMX 220950Z 20003KT 160V240 CAVOK 07/01 Q1034=
200710220920 METAR ESMX 220920Z 19004KT CAVOK 07/01 Q1034=
200710220850 METAR ESMX 220850Z 21003KT CAVOK 07/01 Q1034=
200710220820 METAR ESMX 220820Z 00000KT CAVOK 06/02 Q1034=
200710220750 METAR ESMX 220750Z VRB01KT CAVOK 05/03 Q1034=
200710220720 METAR ESMX 220720Z VRB01KT CAVOK 04/03 Q1034=
200710220650 METAR ESMX 220650Z 19001KT CAVOK 03/02 Q1034=
200710220620 METAR ESMX 220620Z 18002KT CAVOK 01/01 Q1034=
200710220550 METAR ESMX 220550Z 19002KT CAVOK 01/01 Q1034=
200710220520 METAR ESMX 220520Z 19002KT CAVOK 01/01 Q1033=
200710220450 METAR ESMX 220450Z 17001KT 9999 BKN030 02/01 Q1033=
200710220420 METAR ESMX 220420Z 00000KT 9999 BKN030 02/01 Q1033=
200710220350 METAR ESMX 220350Z 18001KT 9999 BKN030 02/01 Q1033=
200710220320 METAR ESMX 220320Z AUTO 17002KT 9999NDV OVC031/// 02/01 Q1033=
200710220250 METAR ESMX 220250Z AUTO 15002KT 9999NDV OVC031/// 01/01 Q1033=
200710220220 METAR ESMX 220220Z AUTO 17002KT 9999NDV OVC030/// 01/01 Q1033=
200710220150 METAR ESMX 220150Z AUTO 18002KT 9999NDV OVC029/// 00/00 Q1033=
200710220120 METAR ESMX 220120Z AUTO 17002KT 9999NDV OVC027/// M01/M01 Q1033=
200710220050 METAR ESMX 220050Z AUTO 18001KT 9999NDV SCT026/// BKN082/// M00/M01 Q1033=
200710220020 METAR ESMX 220020Z 20002KT CAVOK M01/M01 Q1033=
200710212350 METAR ESMX 212350Z 16002KT CAVOK M01/M02 Q1033=
200710212320 METAR ESMX 212320Z 00000KT CAVOK M01/M01 Q1033=
200710212250 METAR ESMX 212250Z 17001KT CAVOK 00/M00 Q1033=
200710212150 METAR ESMX 212150Z 17002KT CAVOK 00/M01 Q1033=
200710212120 METAR ESMX 212120Z 18002KT CAVOK 02/01 Q1033=
200710212050 METAR ESMX 212050Z 16003KT CAVOK 04/02 Q1033=
200710212020 METAR ESMX 212020Z 16004KT CAVOK 04/02 Q1033=
200710211950 METAR ESMX 211950Z 18002KT CAVOK 04/02 Q1033=
200710211920 METAR ESMX 211920Z 17002KT CAVOK 03/02 Q1033=
200710211850 METAR ESMX 211850Z 20002KT CAVOK 03/02 Q1033=
200710211820 METAR ESMX 211820Z 18002KT CAVOK 03/02 Q1033=
200710211750 METAR ESMX 211750Z 00000KT CAVOK 03/01 Q1033=
200710211720 METAR ESMX 211720Z 00000KT CAVOK 02/01 Q1032=
200710211650 METAR ESMX 211650Z 18002KT CAVOK 03/01 Q1032=
200710211620 METAR ESMX 211620Z 18001KT CAVOK 04/02 Q1032=
200710211550 METAR ESMX 211550Z 00000KT CAVOK 05/02 Q1032=
200710211520 METAR ESMX 211520Z 28002KT CAVOK 08/01 Q1032=
200710211450 METAR ESMX 211450Z 25003KT 220V290 CAVOK 08/01 Q1032=
200710211420 METAR ESMX 211420Z VRB01KT CAVOK 08/01 Q1032=
200710211350 METAR ESMX 211350Z VRB02KT CAVOK 08/01 Q1032=
200710211320 METAR ESMX 211320Z 18002KT CAVOK 08/01 Q1032=
200710211250 METAR ESMX 211250Z VRB02KT CAVOK 08/01 Q1032=
200710211220 METAR ESMX 211220Z VRB02KT CAVOK 07/01 Q1032=
200710211150 METAR ESMX 211150Z 19003KT 140V220 CAVOK 07/00 Q1032=
200710211120 METAR ESMX 211120Z 15003KT 090V230 CAVOK 07/M00 Q1032=
200710211050 METAR ESMX 211050Z 16003KT 110V170 CAVOK 07/01 Q1032=
200710211020 METAR ESMX 211020Z AUTO 17003KT 110V230 9999NDV BKN071/// 07/00 Q1032=
200710210950 METAR ESMX 210950Z AUTO 16003KT 100V200 9999NDV BKN068/// 07/00 Q1032=
200710210920 METAR ESMX 210920Z AUTO VRB02KT 9999NDV BKN068/// 06/01 Q1032=
200710210850 METAR ESMX 210850Z AUTO VRB01KT 9999NDV BKN069/// 06/02 Q1032=
200710210820 METAR ESMX 210820Z AUTO 00000KT 9999NDV BKN070/// 05/02 Q1032=
200710210750 METAR ESMX 210750Z AUTO VRB01KT 9999NDV BKN076/// 05/02 Q1032=
200710210720 METAR ESMX 210720Z AUTO 00000KT 9999NDV BKN072/// BKN097/// 04/03 Q1032=
200710210650 METAR ESMX 210650Z AUTO 00000KT 9999NDV BKN069/// BKN082/// 03/02 Q1032=
200710210620 METAR ESMX 210620Z AUTO 00000KT 9999NDV BKN071/// 03/02 Q1032=
200710210550 METAR ESMX 210550Z AUTO VRB02KT 9999NDV BKN072/// 03/02 Q1032=
200710210520 METAR ESMX 210520Z AUTO VRB02KT 9999NDV BKN074/// 03/02 Q1031=
200710210450 METAR ESMX 210450Z AUTO 06002KT 9999NDV OVC077/// 03/02 Q1031=
200710210420 METAR ESMX 210420Z AUTO 04002KT 9999NDV BKN079/// 03/01 Q1031=
200710210350 METAR ESMX 210350Z AUTO 04003KT 010V070 9999NDV BKN081/// 03/01 Q1031=
200710210320 METAR ESMX 210320Z AUTO 04002KT 9999NDV BKN080/// 03/01 Q1031=
200710210250 METAR ESMX 210250Z AUTO 04002KT 9999NDV BKN081/// BKN100/// 03/02 Q1031=
200710210220 METAR ESMX 210220Z AUTO 03002KT 9999NDV BKN087/// 02/01 Q1031=
200710210150 METAR ESMX 210150Z AUTO 35001KT 9999NDV BKN089/// 01/00 Q1031=
200710210120 METAR ESMX 210120Z AUTO VRB01KT 9999NDV BKN099/// 01/00 Q1031=
200710210050 METAR ESMX 210050Z AUTO 08002KT 9999NDV FEW069/// SCT100/// 02/01 Q1030=
200710210020 METAR ESMX 210020Z AUTO 00000KT 9999NDV BKN065/// 02/00 Q1031=
200710202350 METAR ESMX 202350Z AUTO 04002KT 9999NDV BKN063/// 03/01 Q1031=
200710202320 METAR ESMX 202320Z AUTO VRB02KT 9999NDV SCT063/// BKN110/// 04/01 Q1031=
200710202250 METAR ESMX 202250Z AUTO VRB02KT 9999NDV SCT061/// BKN110/// 04/01 Q1031=
200710202220 METAR ESMX 202220Z AUTO VRB02KT 9999NDV BKN069/// BKN110/// 04/01 Q1031=
200710202150 METAR ESMX 202150Z AUTO 10003KT 030V130 9999NDV FEW100/// SCT110/// 04/02 Q1031=
200710202120 METAR ESMX 202120Z AUTO 07003KT 9999NDV FEW067/// BKN087/// 03/02 Q1031=
200710202050 METAR ESMX 202050Z AUTO 03003KT 9999NDV SCT086/// 04/02 Q1031=
200710202020 METAR ESMX 202020Z AUTO 03004KT 9999NDV SCT065/// BKN090/// 05/02 Q1030=
200710201950 METAR ESMX 201950Z AUTO 36005KT 9999NDV FEW062/// BKN073/// 04/03 Q1030=
200710201920 METAR ESMX 201920Z AUTO 00000KT 9999NDV BKN062/// 04/02 Q1030=
200710201850 METAR ESMX 201850Z AUTO 00000KT 9999NDV BKN070/// 04/02 Q1030=
200710201820 METAR ESMX 201820Z AUTO 00000KT 9999NDV SCT075/// 04/02 Q1031=
200710201750 METAR ESMX 201750Z AUTO 00000KT 9999NDV BKN077/// 04/02 Q1030=
200710201720 METAR ESMX 201720Z AUTO 00000KT 9999NDV BKN072/// 05/03 Q1031=
200710201650 METAR ESMX 201650Z AUTO 31003KT 9999NDV BKN081/// 05/02 Q1031=
200710201620 METAR ESMX 201620Z AUTO 33003KT 9999NDV BKN065/// 06/02 Q1031=
200710201550 METAR ESMX 201550Z AUTO 34004KT 9999NDV SCT070/// BKN091/// 06/02 Q1031=
200710201520 METAR ESMX 201520Z AUTO 34004KT 9999NDV SCT095/// 07/02 Q1031=
200710201450 METAR ESMX 201450Z AUTO 33004KT 9999NDV SCT070/// BKN100/// 07/02 Q1031=
200710201420 METAR ESMX 201420Z AUTO 32005KT 9999NDV BKN070/// 07/02 Q1031=
200710201350 METAR ESMX 201350Z AUTO 33006KT 9999NDV OVC071/// 07/02 Q1031=
200710201320 METAR ESMX 201320Z AUTO 31006KT 9999NDV BKN028/// BKN075/// 07/01 Q1031=
200710201250 METAR ESMX 201250Z AUTO 30007KT 9999NDV FEW029/// BKN074/// OVC100/// 07/01 Q1031=
200710201220 METAR ESMX 201220Z AUTO 31008KT 290V350 9999NDV OVC075/// 08/01 Q1031=
200710201150 METAR ESMX 201150Z AUTO 32008KT 280V350 9999NDV BKN086/// 07/M00 Q1032=
200710201120 METAR ESMX 201120Z AUTO 32006KT 290V360 9999NDV BKN088/// 08/M01 Q1032=
200710201050 METAR ESMX 201050Z AUTO 31006KT 9999NDV BKN089/// 07/00 Q1033=
200710201020 METAR ESMX 201020Z AUTO 29004KT 9999NDV OVC090/// 06/01 Q1033=
200710200950 METAR ESMX 200950Z AUTO 32006KT 9999NDV BKN092/// 06/01 Q1033=
200710200920 METAR ESMX 200920Z AUTO 31004KT 260V010 9999NDV BKN093/// 05/01 Q1033=
200710200850 METAR ESMX 200850Z AUTO 31003KT 280V340 9999NDV SCT094/// 04/01 Q1033=
200710200820 METAR ESMX 200820Z AUTO 29003KT 9999NDV NCD 03/01 Q1033=
200710200750 METAR ESMX 200750Z AUTO 00000KT 9999NDV NCD 03/01 Q1033=
200710200720 METAR ESMX 200720Z AUTO VRB02KT 9999NDV NCD 01/M00 Q1033=
200710200650 METAR ESMX 200650Z AUTO 00000KT 9999NDV NCD M01/M02 Q1033=
200710200620 METAR ESMX 200620Z AUTO 18002KT 9999NDV NCD M02/M02 Q1033=
200710200550 METAR ESMX 200550Z AUTO 18002KT 9999NDV NCD M02/M03 Q1033=
200710200520 METAR ESMX 200520Z AUTO 00000KT 9999NDV NCD M01/M02 Q1033=
200710200450 METAR ESMX 200450Z AUTO 32002KT 9999NDV NCD M02/M02 Q1033=
200710200420 METAR ESMX 200420Z AUTO 33002KT 9999NDV NCD M01/M02 Q1033=
200710200350 METAR ESMX 200350Z AUTO VRB01KT 9999NDV NCD M01/M02 Q1033=
200710200320 METAR ESMX 200320Z AUTO 33002KT 9999NDV NCD M01/M02 Q1033=
200710200250 METAR ESMX 200250Z AUTO 33003KT 9999NDV NCD M01/M02 Q1033=
200710200220 METAR ESMX 200220Z AUTO 30003KT 9999NDV NCD M02/M03 Q1033=
200710200150 METAR ESMX 200150Z AUTO 33002KT 9999NDV NCD M01/M02 Q1033=
200710200120 METAR ESMX 200120Z AUTO 30003KT 9999NDV NCD M02/M02 Q1032=
200710200050 METAR ESMX 200050Z AUTO 33003KT 9999NDV NCD M02/M03 Q1032=
200710200020 METAR ESMX 200020Z AUTO 32002KT 9999NDV NCD M00/M01 Q1033=
200710192350 METAR ESMX 192350Z AUTO VRB02KT 9999NDV FEW040/// 00/M01 Q1033=
200710192320 METAR ESMX 192320Z AUTO 33003KT 290V360 9999NDV NCD 00/M01 Q1033=
200710192250 METAR ESMX 192250Z AUTO VRB02KT 9999NDV SCT038/// 01/M01 Q1033=
200710192220 METAR ESMX 192220Z AUTO 31003KT 9999NDV FEW038/// 02/M00 Q1032=
200710192150 METAR ESMX 192150Z AUTO 33003KT 9999NDV BKN036/// 03/M00 Q1032=
200710192120 METAR ESMX 192120Z AUTO 31005KT 9999NDV BKN036/// 04/M00 Q1032=
200710192050 METAR ESMX 192050Z AUTO 34005KT 9999NDV OVC037/// 05/M00 Q1032=
200710192020 METAR ESMX 192020Z AUTO 32005KT 290V360 9999NDV OVC037/// 05/M00 Q1032=
200710191950 METAR ESMX 191950Z 33007KT 9999 OVC036 05/M00 Q1032=
200710191920 METAR ESMX 191920Z 36007KT 9999 OVC036 06/M00 Q1031=
200710191850 METAR ESMX 191850Z 35008KT 9999 OVC036 06/00 Q1031=
200710191820 METAR ESMX 191820Z 35007KT 9999 OVC037 06/00 Q1031=
200710191750 METAR ESMX 191750Z 34008KT 9999 OVC039 06/00 Q1031=
200710191720 METAR ESMX 191720Z 34007KT 9999 OVC039 06/00 Q1030=
200710191650 METAR ESMX 191650Z 35006KT 9999 BKN040 06/00 Q1030=
200710191620 METAR ESMX 191620Z 35008KT 9999 BKN038 06/00 Q1030=
200710191550 METAR ESMX 191550Z 35008KT 9999 BKN041 06/00 Q1029=
200710191520 METAR ESMX 191520Z 01010KT 9999 BKN038 06/M00 Q1029=
200710191450 METAR ESMX 191450Z 01010KT 9999 BKN036 06/M00 Q1028=
200710191420 METAR ESMX 191420Z 35010KT 310V020 9999 BKN035 07/00 Q1028=
200710191350 METAR ESMX 191350Z 35011KT 9999 SCT035 07/M00 Q1028=
200710191320 METAR ESMX 191320Z 36011KT 9999 SCT033 06/M00 Q1027=
200710191250 METAR ESMX 191250Z 34012KT 300V020 9999 SCT033 07/M00 Q1027=
200710191220 METAR ESMX 191220Z 34010KT 9999 FEW033 SCT038 06/M00 Q1027=
200710191150 METAR ESMX 191150Z 34011KT 9999 BKN032 06/M00 Q1026=
200710191120 METAR ESMX 191120Z 35012KT 9999 BKN032 06/M00 Q1026=
200710191050 METAR ESMX 191050Z 35011KT 310V020 9999 BKN032 07/M00 Q1026=
200710191020 METAR ESMX 191020Z 33009KT 300V010 9999 BKN027 05/M00 Q1026=
200710190950 METAR ESMX 190950Z 34010KT 310V020 9999 FEW024 OVC035 05/M00 Q1026=
200710190920 METAR ESMX 190920Z 33010KT 9999 BKN024 05/M00 Q1025=
200710190850 METAR ESMX 190850Z 35010KT 9999 FEW024 BKN037 05/00 Q1025=
200710190820 METAR ESMX 190820Z 34011KT 9999 FEW022 SCT042 04/M00 Q1024=
200710190750 METAR ESMX 190750Z 32008KT 9999 FEW039 03/M01 Q1024=
200710190720 METAR ESMX 190720Z 33008KT 9999 SCT035 03/M02 Q1024=
200710190650 METAR ESMX 190650Z 33009KT 300V360 9999 SCT036 02/M02 Q1024=
200710190620 METAR ESMX 190620Z 32010KT 9999 FEW047 SCT100 02/M02 Q1023=
200710190550 METAR ESMX 190550Z 33010KT 9999 FEW047 SCT110 02/M03 Q1023=
200710190520 METAR ESMX 190520Z 32008KT CAVOK 01/M03 Q1022=
200710190450 METAR ESMX 190450Z 32008KT CAVOK 00/M03 Q1022=
200710190420 METAR ESMX 190420Z 31006KT 280V340 CAVOK 00/M03 Q1022=
200710190350 METAR ESMX 190350Z 31006KT CAVOK M00/M04 Q1022=
200710190320 METAR ESMX 190320Z AUTO 31006KT 280V340 9999NDV NCD 00/M04 Q1022=
200710190250 METAR ESMX 190250Z AUTO 32006KT 9999NDV NCD 00/M03 Q1022=
200710190220 METAR ESMX 190220Z AUTO 30005KT 9999NDV NCD M00/M04 Q1022=
200710190150 METAR ESMX 190150Z AUTO 31005KT 9999NDV NCD 00/M04 Q1022=
200710190120 METAR ESMX 190120Z AUTO 30005KT 9999NDV NCD M00/M03 Q1021=
200710190050 METAR ESMX 190050Z AUTO 30005KT 9999NDV NCD 00/M03 Q1021=
200710190020 METAR ESMX 190020Z AUTO 31006KT 9999NDV NCD 01/M03 Q1021=
200710182350 METAR ESMX 182350Z 31005KT CAVOK 00/M03 Q1021=
200710182320 METAR ESMX 182320Z 30006KT CAVOK 01/M03 Q1021=
200710182250 METAR ESMX 182250Z 30006KT 280V340 CAVOK 01/M03 Q1021=
200710182220 METAR ESMX 182220Z 31005KT CAVOK 01/M03 Q1021=
200710182150 METAR ESMX 182150Z 30006KT CAVOK 01/M03 Q1021=
200710182120 METAR ESMX 182120Z 31006KT CAVOK 01/M03 Q1020=
200710182050 METAR ESMX 182050Z 30005KT CAVOK 01/M03 Q1020=
200710182020 METAR ESMX 182020Z 30004KT CAVOK 01/M02 Q1020=
200710181950 METAR ESMX 181950Z 31006KT CAVOK 02/M02 Q1020=
200710181920 METAR ESMX 181920Z 29005KT CAVOK 03/M02 Q1019=
200710181850 METAR ESMX 181850Z 29005KT CAVOK 02/M02 Q1019=
200710181820 METAR ESMX 181820Z 30006KT CAVOK 03/M02 Q1019=
200710181750 METAR ESMX 181750Z 31007KT CAVOK 04/M02 Q1018=
200710181720 METAR ESMX 181720Z 32008KT CAVOK 05/M01 Q1018=
200710181650 METAR ESMX 181650Z 33008KT CAVOK 05/M01 Q1018=
200710181620 METAR ESMX 181620Z 32008KT CAVOK 06/M01 Q1017=
200710181550 METAR ESMX 181550Z 32007KT 9999 FEW047 06/M01 Q1017=
200710181520 METAR ESMX 181520Z 32011KT 9999 FEW040 07/M02 Q1016=
200710181450 METAR ESMX 181450Z 32011KT 9999 FEW042 08/M01 Q1016=
200710181420 METAR ESMX 181420Z 32011G21KT 280V010 9999 FEW042 08/M01 Q1015=
200710181350 METAR ESMX 181350Z 33011KT 280V360 9999 FEW041 09/M00 Q1015=
200710181320 METAR ESMX 181320Z 32011KT 280V350 9999 FEW030 09/M00 Q1015=
200710181250 METAR ESMX 181250Z 32011KT CAVOK 09/M00 Q1014=
200710181220 METAR ESMX 181220Z 33012KT 300V010 CAVOK 09/M00 Q1014=
200710181150 METAR ESMX 181150Z 33011KT 300V010 CAVOK 09/M01 Q1014=
200710181120 METAR ESMX 181120Z 33009KT CAVOK 09/01 Q1014=
200710181050 METAR ESMX 181050Z 34009KT 290V010 CAVOK 09/02 Q1013=
200710181020 METAR ESMX 181020Z 35009KT CAVOK 08/03 Q1013=
200710180950 METAR ESMX 180950Z 35010KT 9999 FEW015 08/03 Q1013=
200710180920 METAR ESMX 180920Z 36010KT 9999 FEW015 07/02 Q1012=
200710180850 METAR ESMX 180850Z 01012KT CAVOK 07/02 Q1012=
200710180820 METAR ESMX 180820Z 01011KT CAVOK 07/02 Q1012=
200710180750 METAR ESMX 180750Z 35009KT CAVOK 06/04 Q1011=
200710180720 METAR ESMX 180720Z 35006KT 9999 SCT015 06/05 Q1011=
200710180650 METAR ESMX 180650Z 34006KT 9999 FEW003 OVC005 05/05 Q1010=
200710180620 METAR ESMX 180620Z 32005KT 9999 OVC002 05/05 Q1010=
200710180550 METAR ESMX 180550Z 31005KT 290V350 7000 BR BKN002 OVC004 05/05 Q1009=
200710180520 METAR ESMX 180520Z 33006KT 280V010 4000 BR OVC002 05/05 Q1008=
200710180450 METAR ESMX 180450Z 31005KT 2200 BR OVC002 05/05 Q1008=
200710180420 METAR ESMX 180420Z 30004KT 9999 BR SCT002 BKN005 05/05 Q1008=
200710180350 METAR ESMX 180350Z 29005KT 9999 FEW002 BKN003 OVC005 05/05 Q1008=
200710180320 METAR ESMX 180320Z AUTO 30004KT 270V340 1700NDV BKN001/// OVC004/// 05/05 Q1008=
200710180250 METAR ESMX 180250Z AUTO 31004KT 0500NDV R01/1500U R19/1600U FG VV002 05/05 Q1008=
200710180220 METAR ESMX 180220Z AUTO VRB02KT 0350NDV R01/1500U R19/1200N FG VV001 05/04 Q1007=
200710180150 METAR ESMX 180150Z AUTO 29003KT 260V320 0300NDV R01/1100N R19/1100N FG VV000 05/04 Q1007=
200710180120 METAR ESMX 180120Z AUTO 27004KT 0600NDV R01/1800N R19/1900D FG VV000 04/04 Q1007=
200710180050 METAR ESMX 180050Z AUTO 25004KT 0800NDV R01/P2000D R19/P2000D FG NCD 04/04 Q1007=
200710180020 METAR ESMX 180020Z AUTO 25003KT 6000NDV BR NCD 04/04 Q1007=
200710172350 METAR ESMX 172350Z 26004KT CAVOK 04/04 Q1007=
200710172250 METAR ESMX 172250Z 28004KT CAVOK 06/05 Q1007=
200710172220 METAR ESMX 172220Z 28004KT CAVOK 06/06 Q1007=
200710172150 METAR ESMX 172150Z 27004KT CAVOK 06/06 Q1007=
200710172120 METAR ESMX 172120Z 27004KT CAVOK 06/06 Q1007=
200710172050 METAR ESMX 172050Z 26002KT 7000 BR NSC 06/06 Q1007=
200710172020 METAR ESMX 172020Z 26002KT 8000 BR NSC 07/06 Q1007=
200710171950 METAR ESMX 171950Z 25003KT CAVOK 07/06 Q1007=
200710171920 METAR ESMX 171920Z 23002KT CAVOK 07/06 Q1007=
200710171850 METAR ESMX 171850Z 23003KT 210V280 CAVOK 08/07 Q1007=
200710171820 METAR ESMX 171820Z 22004KT CAVOK 07/06 Q1007=
200710171750 METAR ESMX 171750Z 23003KT CAVOK 08/07 Q1007=
200710171720 METAR ESMX 171720Z 23005KT 200V260 CAVOK 08/07 Q1007=
200710171650 METAR ESMX 171650Z 24004KT CAVOK 08/07 Q1007=
200710171620 METAR ESMX 171620Z 24005KT CAVOK 09/07 Q1007=
200710171550 METAR ESMX 171550Z 25006KT CAVOK 09/07 Q1007=
200710171520 METAR ESMX 171520Z 25006KT 9999 FEW020 10/07 Q1007=
200710171450 METAR ESMX 171450Z 23004KT 200V260 9999 FEW021 10/08 Q1007=
200710171420 METAR ESMX 171420Z 25004KT 200V280 9999 FEW025 11/08 Q1007=
200710171350 METAR ESMX 171350Z 24004KT 200V300 9999 SCT020 12/09 Q1007=
200710171320 METAR ESMX 171320Z 27005KT 220V300 9999 SCT020 11/09 Q1007=
200710171250 METAR ESMX 171250Z 26008KT 9999 SCT020 11/09 Q1007=
200710171220 METAR ESMX 171220Z 24006KT 9999 FEW015 BKN050 12/09 Q1007=
200710171150 METAR ESMX 171150Z 26006KT 9999 FEW010 SCT015 BKN050 11/09 Q1007=
200710171120 METAR ESMX 171120Z 27006KT 9999 FEW008 SCT015 BKN042 11/10 Q1007=
200710171050 METAR ESMX 171050Z 25007KT 9999 FEW007 SCT011 BKN014 10/09 Q1008=
200710171020 METAR ESMX 171020Z 25006KT 220V290 9999 FEW007 SCT013 BKN020 10/09 Q1007=
200710170950 METAR ESMX 170950Z 27006KT 9999 -DZ FEW005 SCT010 BKN045 10/09 Q1008 RERA=
200710170920 METAR ESMX 170920Z 25004KT 9999 -RA SCT007 BKN041 10/09 Q1008=
200710170850 METAR ESMX 170850Z 26005KT 9999 -RA FEW020 SCT030 10/09 Q1008=
200710170820 METAR ESMX 170820Z 28005KT 9999 -DZ FEW029 SCT050 BKN150 10/09 Q1007=
200710170750 METAR ESMX 170750Z 28004KT 9999 DZ FEW004 SCT007 BKN010 10/09 Q1008=
200710170720 METAR ESMX 170720Z 26003KT 8000 -RA FEW006 BKN009 BKN045 10/10 Q1007=
200710170650 METAR ESMX 170650Z 23006KT 200V270 2700 RA FEW003 SCT005 BKN007 11/10 Q1007=
200710170620 METAR ESMX 170620Z 21007KT 3500 -RA FEW003 OVC005 11/10 Q1007=
200710170550 METAR ESMX 170550Z 21007KT 5000 DZ BKN005 OVC009 11/10 Q1007=
200710170520 METAR ESMX 170520Z 21008KT 170V230 6000 -RA SCT005 BKN007 OVC009 11/10 Q1007=
200710170450 METAR ESMX 170450Z 20007KT 6000 -RA FEW005 SCT007 BKN008 11/10 Q1008=
200710170420 METAR ESMX 170420Z 21007KT 6000 -RA BR FEW005 BKN009 11/10 Q1008=
200710170350 METAR ESMX 170350Z 21007KT 7000 -RA BR FEW004 BKN013 11/11 Q1008=
200710170320 METAR ESMX 170320Z AUTO 21008KT 6000NDV -RA FEW004/// SCT007/// BKN009/// 11/11 Q1008 REDZ=
200710170250 METAR ESMX 170250Z AUTO 21009KT 6000NDV -RA FEW004/// BKN005/// BKN009/// 11/11 Q1008 REDZ=
200710170220 METAR ESMX 170220Z AUTO 21007KT 5000NDV -RA FEW005/// SCT007/// BKN008/// 11/11 Q1008 REDZ=
200710170150 METAR ESMX 170150Z AUTO 21007KT 7000NDV DZ FEW006/// SCT009/// BKN012/// 11/11 Q1008 RERA=
200710170120 METAR ESMX 170120Z AUTO 21007KT 7000NDV -DZ FEW005/// SCT007/// BKN009/// 11/11 Q1009 REUP RERA=
200710170050 METAR ESMX 170050Z AUTO 21007KT 5000NDV -RA FEW004/// BKN005/// OVC008/// 11/11 Q1009=
200710170020 METAR ESMX 170020Z AUTO 22006KT 5000NDV BR FEW006/// SCT008/// BKN012/// 11/11 Q1009=
200710162350 METAR ESMX 162350Z 22007KT 5000 BR FEW005 BKN011 11/11 Q1009=
200710162320 METAR ESMX 162320Z 21010KT 5000 BR FEW005 BKN009 12/11 Q1009=
200710162250 METAR ESMX 162250Z 22008KT 5000 BR FEW005 BKN009 12/11 Q1010=
200710162220 METAR ESMX 162220Z 21008KT 5000 -RA BR FEW005 BKN008 12/11 Q1010=
200710162150 METAR ESMX 162150Z 21009KT 6000 BR BKN005 OVC010 12/11 Q1010=
200710162120 METAR ESMX 162120Z 21007KT 6000 BR BKN005 12/11 Q1010=
200710162050 METAR ESMX 162050Z 21009KT 5000 BR OVC005 12/11 Q1010=
200710162020 METAR ESMX 162020Z 21010KT 5000 BR OVC004 12/11 Q1010=
200710161950 METAR ESMX 161950Z 22009KT 190V250 2700 -RA BR BKN004 12/11 Q1010 RERA=
200710161920 METAR ESMX 161920Z 21010KT 2000 -RA BR BKN004 OVC007 12/11 Q1010=
200710161850 METAR ESMX 161850Z 22010KT 4000 -RA BR BKN007 OVC011 12/11 Q1010=
200710161820 METAR ESMX 161820Z 20010KT 4500 BR FEW010 BKN013 12/11 Q1010=
200710161750 METAR ESMX 161750Z 21010KT 4600 BR FEW009 BKN014 12/10 Q1010=
200710161720 METAR ESMX 161720Z 20010KT 5000 BR FEW010 BKN016 12/10 Q1010=
200710161650 METAR ESMX 161650Z 20008KT 9999 OVC017 13/10 Q1010=
200710161620 METAR ESMX 161620Z 20008KT 9999 OVC020 13/10 Q1010=
200710161550 METAR ESMX 161550Z 21009KT 9999 OVC020 13/10 Q1010=
200710161520 METAR ESMX 161520Z 22006KT 9999 FEW020 SCT030 13/10 Q1010=
200710161450 METAR ESMX 161450Z 21008KT 9999 FEW020 SCT030 13/10 Q1010=
200710161420 METAR ESMX 161420Z 23010KT 9999 BKN025 13/10 Q1011=
200710161350 METAR ESMX 161350Z 22008KT 9999 FEW020 BKN035 14/10 Q1011=
200710161320 METAR ESMX 161320Z 23007KT 200V260 9999 FEW023 SCT035 14/10 Q1011=
200710161250 METAR ESMX 161250Z 21007KT 170V230 8000 BR FEW020 SCT030 13/10 Q1011=
200710161220 METAR ESMX 161220Z 22008KT 7000 BR FEW017 BKN030 13/10 Q1011=
200710161150 METAR ESMX 161150Z 21009KT 8000 BR FEW010 SCT020 BKN030 13/10 Q1011=
200710161120 METAR ESMX 161120Z 22008KT 190V250 6000 BR FEW030 BKN045 13/10 Q1011=
200710161050 METAR ESMX 161050Z 21008KT 5000 BR FEW033 OVC039 12/10 Q1011=
200710161020 METAR ESMX 161020Z 21007KT 4500 BR SCT008 BKN040 12/10 Q1011=
200710160950 METAR ESMX 160950Z 20006KT 3000 BR FEW006 BKN008 OVC010 11/10 Q1011=
200710160920 METAR ESMX 160920Z 21006KT 2200 BR FEW005 SCT006 OVC008 11/10 Q1011=
200710160850 METAR ESMX 160850Z 21006KT 1600 BR BKN003 OVC007 10/10 Q1011=
200710160820 METAR ESMX 160820Z 20006KT 1200 R01/1500N R19/1500N BR FEW001 BKN003 OVC006 10/10 Q1011=
200710160750 METAR ESMX 160750Z 20006KT 0900 R01/1400N R19/1500N FG VV002 10/09 Q1010=
200710160720 METAR ESMX 160720Z 20006KT 0800 R01/1300N R19/1500N FG VV002 09/09 Q1010=
200710160650 METAR ESMX 160650Z 21006KT 0700 R01/1100N R19/1300N FG VV002 09/09 Q1010=
200710160620 METAR ESMX 160620Z 21006KT 0800 R01/1400N R19/1600N FG VV002 09/09 Q1010=
200710160550 METAR ESMX 160550Z 20006KT 0900 R01/1900N R19/P2000D FG VV002 09/08 Q1010=
200710160520 METAR ESMX 160520Z 21006KT 0900 R01/P2000D R19/P2000D FG VV002 08/08 Q1010=
200710160450 METAR ESMX 160450Z 21005KT 1100 R01/P2000U R19/P2000N BR OVC002 08/08 Q1010=
200710160420 METAR ESMX 160420Z 21007KT 1200 R19/P2000N BR OVC001 08/08 Q1010=
200710160350 METAR ESMX 160350Z AUTO 19006KT 1200NDV R01/P2000N R19/P2000N OVC001/// 08/07 Q1010=
200710160320 METAR ESMX 160320Z AUTO 19005KT 0700NDV R01/P2000U R19/P2000D FG VV001 07/07 Q1010=
200710160250 METAR ESMX 160250Z AUTO 20005KT 1600NDV BR OVC002/// 07/07 Q1010=
200710160220 METAR ESMX 160220Z AUTO 20005KT 1700NDV BR FEW002/// SCT006/// OVC007/// 06/06 Q1010=
200710160150 METAR ESMX 160150Z AUTO 18004KT 1900NDV FEW003/// BKN007/// OVC018/// 06/06 Q1010=
200710160120 METAR ESMX 160120Z AUTO 16005KT 120V180 1800NDV SCT007/// BKN010/// BKN033/// 05/05 Q1010=
200710160050 METAR ESMX 160050Z AUTO 18004KT 0400NDV R01/P2000U R19/1100VP2000U FG FEW000/// SCT008/// BKN009/// 05/05 Q1010=
200710160020 METAR ESMX 160020Z AUTO 18004KT 0150NDV R01/1100N R19/0650N FG VV000 05/05 Q1010=
200710152350 METAR ESMX 152350Z 17004KT 0100 R01/0700N R19/0375V0700N FG VV002 05/05 Q1010=
200710152250 METAR ESMX 152250Z 20003KT 0200 R01/0375N R19/0250N FG VV001 03/03 Q1011=
200710152220 METAR ESMX 152220Z 18003KT 140V210 0500 R01/0800VP2000D R19/0400N FG NSC 03/03 Q1011=
200710152150 METAR ESMX 152150Z 15003KT 1500 R01/P2000D R19/0700 BR BCFG SCT000 05/04 Q1011=
200710152050 METAR ESMX 152050Z 16002KT 2000 R19/0400V0650 BR BCFG SKC 04/04 Q1012=
200710152020 METAR ESMX 152020Z VRB02KT 2000 R19/0750VP2000D BR BCFG SKC 05/05 Q1012=
200710151950 METAR ESMX 151950Z 14004KT 3800 BR SKC 06/06 Q1012=
200710151920 METAR ESMX 151920Z 14004KT 5000 BR MIFG SKC 07/07 Q1012=
200710151850 METAR ESMX 151850Z 15003KT 2000 R19/0650V1900 BR BCFG NSC 05/05 Q1012=
200710151820 METAR ESMX 151820Z 13003KT 2500 R19/P2000 BR MIFG NSC 04/04 Q1012=
200710151750 METAR ESMX 151750Z 12003KT 3000 R19/P2000D BR MIFG NSC 05/05 Q1012=
200710151720 METAR ESMX 151720Z 11002KT 6000 R01/P2000D R19/P2000U BR BCFG NSC 05/05 Q1012=
200710151650 METAR ESMX 151650Z 00000KT 9000 R01/P2000U R19/0550V1200D BR BCFG NSC 06/05 Q1013=
200710151620 METAR ESMX 151620Z 00000KT 9999 MIFG NSC 07/06 Q1013=
200710151550 METAR ESMX 151550Z 12002KT CAVOK 09/08 Q1013=
200710151520 METAR ESMX 151520Z 00000KT CAVOK 12/09 Q1013=
200710151450 METAR ESMX 151450Z 00000KT 9999 FEW023 13/08 Q1013=
200710151420 METAR ESMX 151420Z 24003KT 9999 FEW023 12/08 Q1013=
200710151350 METAR ESMX 151350Z 22005KT 9999 SCT018 12/08 Q1013=
200710151320 METAR ESMX 151320Z 27004KT 9999 SCT017 13/09 Q1014=
200710151250 METAR ESMX 151250Z 22005KT 9999 FEW014 SCT040 13/09 Q1014=
200710151220 METAR ESMX 151220Z 22004KT 190V260 CAVOK 13/09 Q1014=
200710151150 METAR ESMX 151150Z 24005KT 9999 FEW010 12/08 Q1014=
200710151120 METAR ESMX 151120Z 23005KT 190V270 9000 BR OVC007 11/08 Q1014=
200710151050 METAR ESMX 151050Z 21004KT 170V250 7000 BR BKN006 10/08 Q1014=
200710151020 METAR ESMX 151020Z 27004KT 7000 BR OVC006 09/08 Q1015=
200710150950 METAR ESMX 150950Z 24004KT 7000 BR OVC006 09/08 Q1015=
200710150920 METAR ESMX 150920Z 22003KT 8000 BR OVC006 09/07 Q1015=
200710150850 METAR ESMX 150850Z 23003KT 170V280 8000 BR OVC006 08/07 Q1015=
200710150820 METAR ESMX 150820Z VRB02KT 7000 BR FEW010 SCT030 07/06 Q1015=
200710150750 METAR ESMX 150750Z 21005KT 5000 BR SCT100 07/06 Q1015=
200710150720 METAR ESMX 150720Z 19004KT 160V220 5000 BR NSC 07/06 Q1015=
200710150650 METAR ESMX 150650Z 20002KT 6000 BR FEW020 07/06 Q1015=
200710150620 METAR ESMX 150620Z 21004KT 6000 BR SCT083 07/06 Q1016 RERA REDZ=
200710150550 METAR ESMX 150550Z 21002KT 6000 BR FEW087 06/05 Q1016 REDZ=
200710150350 METAR ESMX 150350Z 20004KT CAVOK 06/05 Q1016=
200710150320 METAR ESMX 150320Z AUTO 21004KT 9999NDV FEW110/// 06/05 Q1016=
200710150250 METAR ESMX 150250Z AUTO 22005KT 9999NDV NCD 06/05 Q1017=
200710150220 METAR ESMX 150220Z AUTO 20006KT 9999NDV NCD 06/05 Q1017=
200710150150 METAR ESMX 150150Z AUTO 22007KT 9999NDV NCD 06/05 Q1017=
200710150120 METAR ESMX 150120Z AUTO 23006KT 9999NDV NCD 06/04 Q1017=
200710150050 METAR ESMX 150050Z 22005KT CAVOK 06/04 Q1018=
200710150020 METAR ESMX 150020Z 21006KT CAVOK 06/05 Q1018=
200710142350 METAR ESMX 142350Z 21005KT CAVOK 05/04 Q1018=
200710142320 METAR ESMX 142320Z 19006KT CAVOK 05/04 Q1019=
200710142250 METAR ESMX 142250Z 18005KT CAVOK 05/04 Q1019=
200710142220 METAR ESMX 142220Z 18006KT CAVOK 05/04 Q1019=
200710142150 METAR ESMX 142150Z 19006KT CAVOK 06/04 Q1019=
200710142120 METAR ESMX 142120Z 19006KT CAVOK 06/04 Q1019=
200710142050 METAR ESMX 142050Z 21005KT CAVOK 06/04 Q1019=
200710142020 METAR ESMX 142020Z 21005KT CAVOK 06/04 Q1020=
200710141950 METAR ESMX 141950Z 19005KT CAVOK 06/03 Q1020=
200710141920 METAR ESMX 141920Z 20006KT CAVOK 07/03 Q1020=
200710141850 METAR ESMX 141850Z 19007KT CAVOK 07/03 Q1020=
200710141820 METAR ESMX 141820Z 20005KT CAVOK 07/02 Q1020=
200710141750 METAR ESMX 141750Z 19006KT CAVOK 08/02 Q1021=
200710141720 METAR ESMX 141720Z 20006KT CAVOK 08/02 Q1021=
200710141650 METAR ESMX 141650Z 19005KT CAVOK 08/02 Q1021=
200710141620 METAR ESMX 141620Z 18004KT CAVOK 08/03 Q1021=
200710141550 METAR ESMX 141550Z 18004KT CAVOK 09/02 Q1021=
200710141520 METAR ESMX 141520Z 21006KT CAVOK 09/02 Q1022=
200710141450 METAR ESMX 141450Z 21009KT 170V240 CAVOK 11/02 Q1022=
200710141420 METAR ESMX 141420Z 22010KT CAVOK 11/02 Q1022=
200710141350 METAR ESMX 141350Z 21007KT 190V250 CAVOK 12/03 Q1023=
200710141320 METAR ESMX 141320Z 22010KT CAVOK 11/03 Q1023=
200710141250 METAR ESMX 141250Z 22009KT 9999 FEW035 BKN070 11/03 Q1023=
200710141220 METAR ESMX 141220Z 21008KT 9999 SCT035 BKN070 BKN110 10/04 Q1024=
200710141150 METAR ESMX 141150Z 22011KT CAVOK 10/04 Q1024=
200710141120 METAR ESMX 141120Z 22010KT 190V250 CAVOK 10/04 Q1024=
200710141050 METAR ESMX 141050Z 24010KT 190V270 CAVOK 10/05 Q1025=
200710141020 METAR ESMX 141020Z 21008KT 190V250 CAVOK 09/05 Q1025=
200710140950 METAR ESMX 140950Z AUTO 21008KT 9999NDV FEW110/// 07/04 Q1025=
200710140920 METAR ESMX 140920Z AUTO 22009KT 9999NDV SCT110/// 07/04 Q1025=
200710140850 METAR ESMX 140850Z AUTO 22007KT 190V250 9999NDV SCT110/// 06/04 Q1025=
200710140820 METAR ESMX 140820Z AUTO 22007KT 9999NDV SCT045/// BKN110/// 05/03 Q1025=
200710140750 METAR ESMX 140750Z AUTO 21005KT 9999NDV SCT045/// BKN110/// 04/02 Q1026=
200710140720 METAR ESMX 140720Z AUTO 20005KT 9999NDV NCD 03/02 Q1025=
200710140650 METAR ESMX 140650Z AUTO 19005KT 9999NDV NCD 03/01 Q1025=
200710140620 METAR ESMX 140620Z AUTO 18004KT 9999NDV FEW110/// 02/00 Q1025=
200710140550 METAR ESMX 140550Z AUTO 18003KT 9999NDV NCD 01/00 Q1025=
200710140520 METAR ESMX 140520Z AUTO 19005KT 9999NDV NCD 00/M01 Q1025=
200710140450 METAR ESMX 140450Z AUTO 18004KT 9999NDV NCD M01/M02 Q1026=
200710140420 METAR ESMX 140420Z AUTO 17005KT 9999NDV NCD M01/M02 Q1026=
200710140350 METAR ESMX 140350Z AUTO 20004KT 9999NDV NCD 00/M01 Q1026=
200710140320 METAR ESMX 140320Z AUTO 21005KT 9999NDV NCD 00/M01 Q1026=
200710140250 METAR ESMX 140250Z AUTO 22005KT 9999NDV FEW012/// M00/M01 Q1027=
200710140220 METAR ESMX 140220Z AUTO 19003KT 9999NDV NCD 00/M00 Q1027=
200710140150 METAR ESMX 140150Z AUTO 22003KT 9999NDV SCT038/// 00/M01 Q1027=
200710140120 METAR ESMX 140120Z AUTO 20003KT 9999NDV FEW040/// M03/M03 Q1027=
200710140050 METAR ESMX 140050Z AUTO 17002KT 9999NDV NCD M02/M02 Q1027=
200710140020 METAR ESMX 140020Z AUTO 18002KT 9999NDV FEW047/// M02/M02 Q1028=
200710132350 METAR ESMX 132350Z AUTO 00000KT 9999NDV FEW045/// M02/M02 Q1028=
200710132320 METAR ESMX 132320Z AUTO 00000KT 9999NDV NCD M01/M02 Q1028=
200710132250 METAR ESMX 132250Z AUTO 19002KT 9999NDV NCD M01/M02 Q1028=
200710132220 METAR ESMX 132220Z AUTO 18003KT 9999NDV NCD M01/M02 Q1028=
200710132150 METAR ESMX 132150Z AUTO 18001KT 9999NDV NCD M01/M02 Q1028=
200710132120 METAR ESMX 132120Z AUTO 19003KT 9999NDV FEW038/// M01/M02 Q1028=
200710132050 METAR ESMX 132050Z AUTO 19001KT 9999NDV NCD 00/M01 Q1028=
200710132020 METAR ESMX 132020Z AUTO 18001KT 9999NDV NCD 01/M01 Q1028=
200710131950 METAR ESMX 131950Z AUTO 00000KT 9999NDV SCT033/// 02/M00 Q1028=
200710131920 METAR ESMX 131920Z AUTO 25001KT 9999NDV OVC033/// 03/01 Q1028=
200710131850 METAR ESMX 131850Z AUTO 27002KT 9999NDV OVC035/// 03/00 Q1028=
200710131820 METAR ESMX 131820Z AUTO 28003KT 9999NDV OVC037/// 03/M00 Q1028=
200710131750 METAR ESMX 131750Z AUTO 26003KT 9999NDV BKN038/// 04/M01 Q1028=
200710131720 METAR ESMX 131720Z AUTO 26003KT 9999NDV BKN038/// 05/M02 Q1028=
200710131650 METAR ESMX 131650Z AUTO 25002KT 9999NDV OVC038/// 05/M01 Q1028=
200710131620 METAR ESMX 131620Z AUTO 27002KT 9999NDV OVC038/// 05/M02 Q1028=
200710131550 METAR ESMX 131550Z AUTO 28002KT 9999NDV BKN039/// 05/M03 Q1028=
200710131520 METAR ESMX 131520Z AUTO 27004KT 9999NDV FEW044/// 06/M03 Q1028=
200710131450 METAR ESMX 131450Z AUTO 28005KT 240V300 9999NDV BKN045/// OVC057/// 07/M03 Q1028=
200710131420 METAR ESMX 131420Z AUTO 28006KT 9999NDV OVC046/// 07/M04 Q1028=
200710131350 METAR ESMX 131350Z AUTO 29006KT 240V320 9999NDV OVC048/// 07/M04 Q1028=
200710131320 METAR ESMX 131320Z AUTO 28005KT 9999NDV BKN049/// 07/M05 Q1028=
200710131250 METAR ESMX 131250Z AUTO 33004KT 270V060 9999NDV NCD 08/M04 Q1028=
200710131220 METAR ESMX 131220Z AUTO 29005KT 260V360 9999NDV NCD 08/M05 Q1028=
200710131150 METAR ESMX 131150Z AUTO 04004KT 360V080 9999NDV NCD 07/M04 Q1028=
200710131120 METAR ESMX 131120Z AUTO VRB03KT 9999NDV NCD 07/M03 Q1029=
200710131050 METAR ESMX 131050Z AUTO 34007KT 9999NDV NCD 06/M04 Q1029=
200710131020 METAR ESMX 131020Z AUTO 33006KT 300V360 9999NDV NCD 05/M03 Q1029=
200710130950 METAR ESMX 130950Z AUTO 31004KT 9999NDV NCD 05/M03 Q1029=
200710130920 METAR ESMX 130920Z AUTO 33006KT 9999NDV NCD 04/M03 Q1029=
200710130850 METAR ESMX 130850Z AUTO 31005KT 280V340 9999NDV NCD 04/M01 Q1029=
200710130820 METAR ESMX 130820Z AUTO VRB02KT 9999NDV NCD 02/M01 Q1029=
200710130750 METAR ESMX 130750Z AUTO 00000KT 9999NDV NCD 01/M01 Q1028=
200710130720 METAR ESMX 130720Z AUTO 19002KT 9999NDV NCD M01/M02 Q1028=
200710130650 METAR ESMX 130650Z AUTO 00000KT 9999NDV NCD M01/M02 Q1028=
200710130620 METAR ESMX 130620Z AUTO 17002KT 9999NDV NCD M03/M03 Q1027=
200710130550 METAR ESMX 130550Z AUTO 16001KT 9999NDV NCD M04/M05 Q1027=
200710130520 METAR ESMX 130520Z AUTO 00000KT 9999NDV NCD M04/M05 Q1027=
200710130450 METAR ESMX 130450Z AUTO VRB02KT 9999NDV NCD M04/M05 Q1027=
200710130420 METAR ESMX 130420Z AUTO 28001KT 9999NDV NCD M05/M05 Q1027=
200710130350 METAR ESMX 130350Z AUTO 00000KT 9999NDV NCD M04/M05 Q1027=
200710130320 METAR ESMX 130320Z AUTO 33002KT 9999NDV NCD M04/M05 Q1027=
200710130250 METAR ESMX 130250Z AUTO 30003KT 270V340 9999NDV NCD M03/M04 Q1027=
200710130220 METAR ESMX 130220Z AUTO 34002KT 9999NDV NCD M03/M04 Q1027=
200710130150 METAR ESMX 130150Z AUTO 33005KT 9999NDV NCD M03/M04 Q1027=
200710130120 METAR ESMX 130120Z AUTO 36007KT 9999NDV NCD M03/M04 Q1026=
200710130050 METAR ESMX 130050Z AUTO 34004KT 9999NDV NCD M03/M04 Q1026=
200710130020 METAR ESMX 130020Z AUTO 32005KT 9999NDV NCD M03/M04 Q1026=
200710122350 METAR ESMX 122350Z AUTO 34005KT 310V010 9999NDV NCD M01/M04 Q1026=
200710122320 METAR ESMX 122320Z AUTO 35006KT 9999NDV NCD 00/M03 Q1025=
200710122250 METAR ESMX 122250Z AUTO 34006KT 9999NDV NCD 00/M03 Q1025=
200710122220 METAR ESMX 122220Z AUTO 36008KT 9999NDV NCD 01/M03 Q1025=
200710122150 METAR ESMX 122150Z AUTO 36009KT 9999NDV NCD 01/M03 Q1025=
200710122120 METAR ESMX 122120Z AUTO 01008KT 9999NDV NCD 02/M03 Q1025=
200710122050 METAR ESMX 122050Z AUTO 02009KT 9999NDV NCD 02/M02 Q1024=
200710122020 METAR ESMX 122020Z AUTO 01011KT 9999NDV NCD 03/M02 Q1024=
200710121950 METAR ESMX 121950Z AUTO 36010KT 330V030 9999NDV NCD 03/M01 Q1023=
200710121920 METAR ESMX 121920Z AUTO 36010KT 9999NDV NCD 03/M01 Q1023=
200710121850 METAR ESMX 121850Z AUTO 35008KT 9999NDV NCD 04/M00 Q1022=
200710121820 METAR ESMX 121820Z 36011KT 9999 FEW040 04/M00 Q1022=
200710121750 METAR ESMX 121750Z 35008KT 9999 FEW040 04/00 Q1021=
200710121720 METAR ESMX 121720Z 36007KT 9999 SCT040 04/00 Q1021=
200710121650 METAR ESMX 121650Z 35010KT 9999 FEW026 BKN039 05/00 Q1020=
200710121620 METAR ESMX 121620Z 36010KT 9999 BKN034 05/01 Q1020=
200710121550 METAR ESMX 121550Z 36011KT 9999 BKN032 06/01 Q1019=
200710121520 METAR ESMX 121520Z 36011KT 9999 FEW026 BKN030 06/01 Q1019=
200710121450 METAR ESMX 121450Z 36014KT 330V030 9999 OVC025 06/01 Q1018=
200710121420 METAR ESMX 121420Z 35013KT 320V020 9999 OVC025 06/02 Q1018=
200710121350 METAR ESMX 121350Z 36012KT 9999 OVC021 06/02 Q1017=
200710121320 METAR ESMX 121320Z 36014KT 330V030 9999 OVC021 06/02 Q1016=
200710121250 METAR ESMX 121250Z 36014KT 320V020 9999 BKN021 06/02 Q1015=
200710121220 METAR ESMX 121220Z 01013KT 9999 FEW018 OVC020 06/02 Q1015=
200710121150 METAR ESMX 121150Z 35016KT 9999 FEW016 BKN018 06/03 Q1014=
200710121120 METAR ESMX 121120Z 36014KT 330V030 9999 FEW017 OVC020 07/03 Q1013=
200710121050 METAR ESMX 121050Z 36016KT 9999 SCT020 BKN025 08/03 Q1012=
200710121020 METAR ESMX 121020Z 01016KT 9999 FEW015 BKN020 07/03 Q1012=
200710120950 METAR ESMX 120950Z 36018G31KT 9999 BKN015 07/05 Q1011=
200710120920 METAR ESMX 120920Z 36019KT 9999 SCT012 BKN016 09/06 Q1010=
200710120850 METAR ESMX 120850Z 34012KT 260V010 9999 BKN015 11/08 Q1008=
200710120820 METAR ESMX 120820Z 33011KT 290V360 9999 FEW012 11/08 Q1007=
200710120750 METAR ESMX 120750Z 32010KT 9999 FEW011 SCT029 11/08 Q1006=
200710120720 METAR ESMX 120720Z 31009KT 9999 FEW010 SCT025 10/08 Q1006=
200710120650 METAR ESMX 120650Z 32008KT 9999 SCT022 10/08 Q1005=
200710120620 METAR ESMX 120620Z 33008KT 300V360 9999 FEW012 BKN020 10/08 Q1005=
200710120550 METAR ESMX 120550Z 31007KT 9999 FEW016 BKN020 10/08 Q1004=
200710120520 METAR ESMX 120520Z 31009KT 280V340 9999 FEW009 SCT017 BKN023 10/08 Q1004=
200710120450 METAR ESMX 120450Z 30008KT 9999 FEW009 BKN015 BKN083 10/09 Q1003=
200710120420 METAR ESMX 120420Z 28007KT 9999 -RA FEW011 SCT014 BKN016 10/09 Q1003=
200710120350 METAR ESMX 120350Z 28008KT 9999 FEW007 SCT010 BKN012 10/09 Q1003=
200710120320 METAR ESMX 120320Z AUTO 27008KT 250V310 7000NDV -RA FEW008/// BKN011/// OVC017/// 10/09 Q1003=
200710120250 METAR ESMX 120250Z AUTO 27008KT 9999NDV FEW009/// BKN013/// BKN020/// 10/09 Q1003=
200710120220 METAR ESMX 120220Z AUTO 27009KT 9999NDV FEW010/// BKN013/// BKN023/// 10/09 Q1003=
200710120150 METAR ESMX 120150Z AUTO 25008KT 200V290 4700NDV -DZ FEW008/// SCT012/// BKN015/// 10/09 Q1003 RERA=
200710120120 METAR ESMX 120120Z AUTO 26011KT 9000NDV FEW009/// SCT012/// BKN016/// 10/09 Q1004=
200710120050 METAR ESMX 120050Z AUTO 26012KT 9000NDV OVC011/// 10/09 Q1004=
200710120020 METAR ESMX 120020Z AUTO 25012G22KT 210V290 9999NDV OVC011/// 11/09 Q1004=
200710112350 METAR ESMX 112350Z 26014G25KT 230V290 9999 SCT008 BKN015 11/09 Q1005=
200710112320 METAR ESMX 112320Z 26011KT 220V290 9999 FEW012 SCT019 BKN023 11/09 Q1005=
200710112250 METAR ESMX 112250Z 26011KT 220V300 9999 FEW007 SCT008 BKN011 11/10 Q1005=
200710112220 METAR ESMX 112220Z 24011KT 200V280 9999 FEW008 OVC010 11/10 Q1006=
200710112150 METAR ESMX 112150Z 24010KT 200V270 9999 FEW009 OVC011 11/10 Q1006=
200710112120 METAR ESMX 112120Z 25009KT 210V280 9999 FEW009 BKN012 OVC016 11/10 Q1007=
200710112050 METAR ESMX 112050Z 25009KT 210V280 9999 FEW005 SCT008 OVC010 11/10 Q1007=
200710112020 METAR ESMX 112020Z 24011KT 200V270 8000 -DZ FEW004 BKN006 OVC008 11/10 Q1008=
200710111950 METAR ESMX 111950Z 22012KT 2900 DZ FEW004 BKN006 OVC009 10/10 Q1008 RERA=
200710111920 METAR ESMX 111920Z 23012KT 3000 DZ SCT004 BKN007 10/09 Q1009=
200710111850 METAR ESMX 111850Z 22013KT 2600 DZ FEW005 BKN006 OVC010 10/09 Q1009=
200710111820 METAR ESMX 111820Z 22012KT 2300 DZ BKN005 OVC009 10/09 Q1010=
200710111750 METAR ESMX 111750Z 22013KT 2500 DZ FEW006 SCT007 BKN009 10/09 Q1011 RERA=
200710111720 METAR ESMX 111720Z 21011KT 180V240 9999 BR FEW005 BKN009 09/08 Q1011=
200710111650 METAR ESMX 111650Z 21011KT 8000 -RA SCT003 BKN005 09/08 Q1012=
200710111620 METAR ESMX 111620Z 21010KT 6000 -RA SCT003 BKN005 08/07 Q1013 RERA=
200710111550 METAR ESMX 111550Z 20011KT 9999 BKN004 OVC007 08/07 Q1014=
200710111520 METAR ESMX 111520Z 19012KT 8000 -RA FEW006 BKN011 08/07 Q1014 RERA=
200710111450 METAR ESMX 111450Z 20009KT 7000 -RA OVC015 08/07 Q1016=
200710111350 METAR ESMX 111350Z 19008KT 9999 -RA FEW020 SCT043 BKN058 08/07 Q1018=
200710111306 METAR ESMX 111306Z 19007KT 9999 -RA FEW028 SCT040 BKN120 08/06 Q1018=
200710111220 METAR ESMX 111220Z 21008KT 170V240 9999 BKN017 09/06 Q1019=
200710111150 METAR ESMX 111150Z 20010KT 9999 SCT014 BKN020 09/06 Q1020=
200710111120 METAR ESMX 111120Z 18008KT 150V220 9999 SCT012 BKN031 09/06 Q1020=
200710111050 METAR ESMX 111050Z 19006KT 9999 FEW010 BKN030 08/06 Q1021=
200710111020 METAR ESMX 111020Z 20006KT 160V220 9999 FEW012 OVC029 08/06 Q1022=
200710110950 METAR ESMX 110950Z 18006KT 150V210 9999 OVC030 08/05 Q1022=
200710110920 METAR ESMX 110920Z 17007KT 9999 BKN030 08/05 Q1022=
200710110850 METAR ESMX 110850Z 16004KT 9999 BKN029 07/04 Q1023=
200710110820 METAR ESMX 110820Z 16005KT 9999 BKN029 06/04 Q1023=
200710110750 METAR ESMX 110750Z 16004KT 9999 BKN029 06/04 Q1023=
200710110720 METAR ESMX 110720Z 15005KT 9999 SCT030 05/04 Q1023=
200710110650 METAR ESMX 110650Z 15003KT 9999 SCT033 01/00 Q1023=
200710110620 METAR ESMX 110620Z 17001KT 9999 BCFG NSC 00/00 Q1023=
200710110550 METAR ESMX 110550Z 20001KT 0700 R01/P2000 R19/P2000D BCFG NSC 00/00 Q1023=
200710110520 METAR ESMX 110520Z 00000KT 1500 BR BCFG NSC 00/M00 Q1023=
200710110450 METAR ESMX 110450Z VRB02KT CAVOK 02/02 Q1023=
200710110420 METAR ESMX 110420Z 11003KT 070V140 9999 BCFG NSC 02/02 Q1023=
200710110350 METAR ESMX 110350Z 10001KT 9999 BCFG NSC 00/M00 Q1023=
200710110320 METAR ESMX 110320Z AUTO 10001KT 0200NDV R01/0800V1300 R19/0600V1600 FG NCD 00/00 Q1024=
200710110250 METAR ESMX 110250Z AUTO 00000KT 0250NDV R01/0900V1500U R19/0900 FG NCD 01/01 Q1024=
200710110220 METAR ESMX 110220Z AUTO 06002KT 0400NDV R01/1000VP2000D R19/0900VP2000U FG NCD 01/01 Q1024=
200710110150 METAR ESMX 110150Z AUTO 05001KT 0250NDV R01/P2000D R19/1000 FG NCD 02/02 Q1024=
200710110120 METAR ESMX 110120Z AUTO 04001KT 2000NDV BR FEW041/// 03/03 Q1024=
200710110050 METAR ESMX 110050Z AUTO 21002KT 9999NDV FEW018/// BKN034/// 04/03 Q1024=
200710110020 METAR ESMX 110020Z AUTO 00000KT 9999NDV BKN019/// OVC042/// 04/04 Q1023=
200710102350 METAR ESMX 102350Z 00000KT 9999 BKN041 05/04 Q1023=
200710102320 METAR ESMX 102320Z 00000KT 9999 BKN042 05/05 Q1024=
200710102250 METAR ESMX 102250Z 00000KT 9999 OVC041 05/04 Q1023=
200710102220 METAR ESMX 102220Z 00000KT 9999 OVC042 06/05 Q1023=
200710102150 METAR ESMX 102150Z VRB01KT 9999 OVC041 07/05 Q1023=
200710102120 METAR ESMX 102120Z 25002KT 9999 OVC041 07/05 Q1023=
200710102050 METAR ESMX 102050Z 25003KT 9999 OVC040 07/05 Q1023=
200710102020 METAR ESMX 102020Z 23003KT 9999 FEW036 OVC040 06/05 Q1023=
200710101950 METAR ESMX 101950Z 00000KT 9999 OVC035 07/05 Q1023=
200710101920 METAR ESMX 101920Z 24002KT 9999 FEW025 BKN035 07/05 Q1023=
200710101850 METAR ESMX 101850Z 23002KT 9999 FEW025 BKN035 07/05 Q1023=
200710101820 METAR ESMX 101820Z 24002KT 9999 FEW025 OVC038 07/05 Q1022=
200710101751 METAR COR ESMX 101751Z 23002KT 9999 FEW026 OVC037 07/05 Q1023=
200710101720 METAR ESMX 101720Z 22003KT 9999 SCT025 BKN030 08/05 Q1022=
200710101650 METAR ESMX 101650Z 22003KT 9999 FEW027 OVC034 08/05 Q1022=
200710101620 METAR ESMX 101620Z 22004KT 9999 FEW023 SCT028 OVC035 08/05 Q1022=
200710101550 METAR ESMX 101550Z 22004KT 9999 FEW025 OVC030 08/05 Q1022=
200710101520 METAR ESMX 101520Z 22005KT 9999 FEW028 OVC033 08/05 Q1022=
200710101450 METAR ESMX 101450Z 22005KT 9999 OVC028 08/05 Q1022=
200710101420 METAR ESMX 101420Z 20005KT 9999 OVC028 08/05 Q1022=
200710101350 METAR ESMX 101350Z 24004KT 9999 BKN026 08/05 Q1022=
200710101320 METAR ESMX 101320Z 22005KT 9999 OVC024 08/05 Q1022=
200710101250 METAR ESMX 101250Z 22006KT 190V250 9999 OVC025 08/05 Q1023=
200710101220 METAR ESMX 101220Z 22007KT 9999 OVC026 08/05 Q1023=
200710101150 METAR ESMX 101150Z 21006KT 9999 OVC024 08/05 Q1023=
200710101120 METAR ESMX 101120Z 23005KT 190V250 9999 OVC023 08/05 Q1023=
200710101050 METAR ESMX 101050Z 25004KT 210V280 9999 OVC022 08/04 Q1023=
200710101020 METAR ESMX 101020Z 24004KT 190V290 9999 OVC021 08/04 Q1024=
200710100950 METAR ESMX 100950Z 25005KT 220V290 9999 OVC021 08/04 Q1024=
200710100920 METAR ESMX 100920Z 24004KT 200V270 9999 OVC021 07/04 Q1024=
200710100850 METAR ESMX 100850Z 23005KT 9999 OVC020 07/04 Q1024=
200710100820 METAR ESMX 100820Z 22004KT 9999 OVC021 07/04 Q1024=
200710100750 METAR ESMX 100750Z 21005KT 9999 OVC022 06/04 Q1024=
200710100720 METAR ESMX 100720Z 21005KT 9999 OVC023 06/04 Q1024=
200710100650 METAR ESMX 100650Z 20006KT 9999 OVC023 06/04 Q1023=
200710100620 METAR ESMX 100620Z 21005KT 9999 OVC021 05/04 Q1023=
200710100550 METAR ESMX 100550Z 20004KT 9999 OVC021 05/04 Q1024=
200710100520 METAR ESMX 100520Z 22005KT 9999 OVC021 05/04 Q1023=
200710100450 METAR ESMX 100450Z 20005KT 190V260 9999 OVC022 05/03 Q1023=
200710100420 METAR ESMX 100420Z 21005KT 9999 OVC022 04/03 Q1023=
200710100350 METAR ESMX 100350Z 21004KT 9999 OVC023 04/03 Q1024=
200710100320 METAR ESMX 100320Z AUTO 20003KT 8000NDV OVC023/// 04/03 Q1024=
200710100250 METAR ESMX 100250Z AUTO 20003KT 9999NDV OVC025/// 03/03 Q1024=
200710100220 METAR ESMX 100220Z AUTO 22003KT 9999NDV OVC025/// 03/03 Q1024=
200710100150 METAR ESMX 100150Z AUTO 21004KT 8000NDV BR OVC026/// 02/02 Q1024=
200710100120 METAR ESMX 100120Z AUTO 21004KT 6000NDV BR BKN026/// 01/01 Q1024=
200710100050 METAR ESMX 100050Z AUTO 21004KT 2400NDV BR NCD 01/01 Q1024=
200710100020 METAR ESMX 100020Z AUTO 21004KT 4000NDV BR NCD 02/01 Q1024=
200710092350 METAR ESMX 092350Z 21004KT CAVOK M01/M01 Q1024=
200710092320 METAR ESMX 092320Z 18003KT CAVOK 00/M00 Q1024=
200710092150 METAR ESMX 092150Z 25002KT CAVOK 02/01 Q1024=
200710092120 METAR ESMX 092120Z 25003KT CAVOK 02/01 Q1024=
200710092050 METAR ESMX 092050Z 25003KT CAVOK 03/03 Q1024=
200710092020 METAR ESMX 092020Z 26004KT CAVOK 03/02 Q1024=
200710091950 METAR ESMX 091950Z 26003KT CAVOK 03/02 Q1024=
200710091920 METAR ESMX 091920Z 28003KT CAVOK 01/M00 Q1024=
200710091850 METAR ESMX 091850Z 28002KT CAVOK 01/M00 Q1024=
200710091820 METAR ESMX 091820Z VRB02KT CAVOK 01/M01 Q1024=
200710091750 METAR ESMX 091750Z 19002KT CAVOK 02/00 Q1024=
200710091720 METAR ESMX 091720Z 18002KT CAVOK 03/01 Q1024=
200710091650 METAR ESMX 091650Z 00000KT CAVOK 04/02 Q1023=
200710091620 METAR ESMX 091620Z 20001KT CAVOK 06/03 Q1024=
200710091550 METAR ESMX 091550Z 00000KT CAVOK 10/03 Q1024=
200710091520 METAR ESMX 091520Z 29003KT CAVOK 12/M00 Q1023=
200710091450 METAR ESMX 091450Z 29004KT CAVOK 12/M01 Q1023=
200710091420 METAR ESMX 091420Z 28005KT CAVOK 12/M01 Q1023=
200710091350 METAR ESMX 091350Z 27005KT 230V330 CAVOK 12/M01 Q1024=
200710091320 METAR ESMX 091320Z 30008KT 270V340 CAVOK 12/M03 Q1024=
200710091250 METAR ESMX 091250Z 31005KT 250V350 CAVOK 12/M01 Q1024=
200710091220 METAR ESMX 091220Z 29008KT 250V330 CAVOK 12/M01 Q1024=
200710091150 METAR ESMX 091150Z 26006KT CAVOK 12/M00 Q1024=
200710091120 METAR ESMX 091120Z 27006KT 250V350 CAVOK 12/00 Q1024=
200710091050 METAR ESMX 091050Z 29004KT 230V010 CAVOK 11/M00 Q1024=
200710091020 METAR ESMX 091020Z 28004KT CAVOK 10/01 Q1024=
200710090950 METAR ESMX 090950Z 27005KT CAVOK 10/01 Q1024=
200710090920 METAR ESMX 090920Z 33004KT 270V010 CAVOK 09/01 Q1024=
200710090850 METAR ESMX 090850Z VRB02KT CAVOK 08/02 Q1024=
200710090820 METAR ESMX 090820Z 00000KT CAVOK 08/01 Q1024=
200710090750 METAR ESMX 090750Z VRB01KT CAVOK 06/02 Q1024=
200710090720 METAR ESMX 090720Z 00000KT CAVOK 04/01 Q1023=
200710090650 METAR ESMX 090650Z VRB01KT CAVOK 02/01 Q1023=
200710090620 METAR ESMX 090620Z 00000KT CAVOK M00/M01 Q1023=
200710090550 METAR ESMX 090550Z 18003KT CAVOK M02/M03 Q1023=
200710090520 METAR ESMX 090520Z 25001KT CAVOK M02/M03 Q1022=
200710090450 METAR ESMX 090450Z 00000KT CAVOK M02/M03 Q1022=
200710090420 METAR ESMX 090420Z VRB01KT CAVOK M02/M02 Q1022=
200710090350 METAR ESMX 090350Z 00000KT CAVOK M01/M02 Q1022=
200710090320 METAR ESMX 090320Z AUTO VRB02KT 9999NDV NCD M01/M01 Q1022=
200710090250 METAR ESMX 090250Z AUTO 27002KT 9999NDV NCD M00/M01 Q1022=
200710090220 METAR ESMX 090220Z AUTO 00000KT 9999NDV NCD 00/M00 Q1022=
200710090150 METAR ESMX 090150Z AUTO 29003KT 220V340 9999NDV NCD M00/M01 Q1022=
200710090120 METAR ESMX 090120Z AUTO VRB02KT 9999NDV NCD M00/M01 Q1022=
200710090050 METAR ESMX 090050Z AUTO 31004KT 270V330 9999NDV NCD 01/00 Q1022=
200710090020 METAR ESMX 090020Z 30005KT CAVOK 01/M00 Q1022=
200710082350 METAR ESMX 082350Z 29004KT CAVOK 01/M00 Q1021=
200710082320 METAR ESMX 082320Z 28003KT CAVOK 01/M00 Q1021=
200710082250 METAR ESMX 082250Z 27003KT CAVOK 01/M01 Q1021=
200710082220 METAR ESMX 082220Z 26004KT CAVOK 02/M00 Q1021=
200710082150 METAR ESMX 082150Z 26003KT CAVOK 02/M00 Q1021=
200710082120 METAR ESMX 082120Z 27002KT CAVOK 02/00 Q1021=
200710082050 METAR ESMX 082050Z 29004KT CAVOK 02/01 Q1021=
200710082020 METAR ESMX 082020Z 30003KT CAVOK 02/00 Q1021=
200710081950 METAR ESMX 081950Z 27004KT CAVOK 03/01 Q1020=
200710081920 METAR ESMX 081920Z 28004KT CAVOK 04/01 Q1020=
200710081850 METAR ESMX 081850Z 27003KT CAVOK 04/01 Q1020=
200710081820 METAR ESMX 081820Z 31004KT CAVOK 04/01 Q1019=
200710081750 METAR ESMX 081750Z 31005KT CAVOK 05/01 Q1019=
200710081720 METAR ESMX 081720Z 30003KT CAVOK 06/01 Q1019=
200710081650 METAR ESMX 081650Z 32004KT CAVOK 08/01 Q1019=
200710081620 METAR ESMX 081620Z 31005KT CAVOK 09/01 Q1018=
200710081550 METAR ESMX 081550Z 31009KT 280V350 CAVOK 11/01 Q1018=
200710081450 METAR ESMX 081450Z 31010KT CAVOK 12/00 Q1017=
200710081320 METAR ESMX 081320Z 30011KT 270V330 CAVOK 13/01 Q1016=
200710081250 METAR ESMX 081250Z 31009KT 260V340 CAVOK 13/02 Q1016=
200710081220 METAR ESMX 081220Z 31009KT 280V030 CAVOK 13/03 Q1016=
200710081150 METAR ESMX 081150Z 30011KT 260V340 CAVOK 12/03 Q1016=
200710081120 METAR ESMX 081120Z 32010KT 260V360 CAVOK 12/04 Q1016=
200710081050 METAR ESMX 081050Z 30010KT 9999 FEW020 12/03 Q1016=
200710081020 METAR ESMX 081020Z 31010KT 280V350 CAVOK 11/03 Q1015=
200710080950 METAR ESMX 080950Z 32009KT 280V350 CAVOK 11/04 Q1015=
200710080920 METAR ESMX 080920Z 32009KT 260V020 CAVOK 10/04 Q1015=
200710080850 METAR ESMX 080850Z 30009KT 280V340 CAVOK 09/04 Q1015=
200710080820 METAR ESMX 080820Z 31009KT CAVOK 09/04 Q1014=
200710080750 METAR ESMX 080750Z 31008KT CAVOK 08/04 Q1014=
200710080720 METAR ESMX 080720Z 30008KT 270V340 CAVOK 08/05 Q1014=
200710080650 METAR ESMX 080650Z 29008KT CAVOK 07/05 Q1013=
200710080620 METAR ESMX 080620Z 28007KT 230V300 CAVOK 07/05 Q1013=
200710080550 METAR ESMX 080550Z 27005KT CAVOK 07/06 Q1013=
200710080520 METAR ESMX 080520Z 28005KT 9999 FEW012 SCT015 07/06 Q1012=
200710080450 METAR ESMX 080450Z 27007KT 240V310 9999 FEW009 SCT014 08/07 Q1012=
200710080420 METAR ESMX 080420Z 27007KT 240V300 9999 SCT010 BKN033 08/07 Q1012=
200710080350 METAR ESMX 080350Z 27007KT 240V300 9999 FEW008 BKN010 08/07 Q1012=
200710080320 METAR ESMX 080320Z AUTO 25006KT 9999NDV FEW008/// SCT010/// OVC013/// 08/07 Q1012=
200710080250 METAR ESMX 080250Z AUTO 26006KT 220V300 9999NDV FEW009/// BKN013/// OVC018/// 08/07 Q1012=
200710080220 METAR ESMX 080220Z AUTO 25006KT 9999NDV FEW010/// BKN012/// OVC016/// 08/07 Q1012 REDZ=
200710080150 METAR ESMX 080150Z AUTO 24006KT 9999NDV -RA FEW013/// SCT015/// BKN018/// 08/07 Q1012 REDZ REUP=
200710080120 METAR ESMX 080120Z AUTO 24007KT 9999NDV -DZ FEW007/// BKN013/// 08/07 Q1012 RERA=
200710080050 METAR ESMX 080050Z 25006KT 190V270 7000 -SHRA FEW009 SCT029 BKN039 08/07 Q1013=
200710080020 METAR ESMX 080020Z 25006KT 9999 FEW022 BKN047 08/07 Q1013=
200710072350 METAR ESMX 072350Z 25006KT 9999 BKN010 BKN045 08/07 Q1013=
200710072320 METAR ESMX 072320Z 25006KT 220V300 9999 FEW010 OVC015 08/07 Q1013=
200710072250 METAR ESMX 072250Z 26007KT 230V290 9999 BKN012 09/07 Q1013=
200710072220 METAR ESMX 072220Z 27005KT 240V310 9999 SCT013 08/07 Q1013=
200710072150 METAR ESMX 072150Z 27007KT 9999 SCT023 09/07 Q1013=
200710072120 METAR ESMX 072120Z 27008KT 9999 FEW007 BKN020 10/08 Q1013=
200710072050 METAR ESMX 072050Z 24006KT 210V280 9999 SCT008 BKN011 10/09 Q1013=
200710072020 METAR ESMX 072020Z 25007KT 9999 FEW007 BKN009 10/09 Q1013=
200710071950 METAR ESMX 071950Z 23006KT 8000 BR BKN005 10/09 Q1014=
200710071920 METAR ESMX 071920Z 21007KT 9999 BR BKN005 OVC008 10/09 Q1014=
200710071850 METAR ESMX 071850Z 21007KT 180V240 6000 -DZ FEW007 OVC011 10/09 Q1014=
200710071820 METAR ESMX 071820Z 21007KT 170V240 7000 -DZ FEW008 OVC010 10/09 Q1015=
200710071750 METAR ESMX 071750Z 22006KT 180V240 9999 FEW008 BKN013 10/09 Q1015=
200710071720 METAR ESMX 071720Z 21007KT 7000 FEW008 OVC015 10/08 Q1015 RERA REDZ=
200710071650 METAR ESMX 071650Z 23008KT 9000 FEW009 BKN011 OVC015 10/08 Q1016=
200710071620 METAR ESMX 071620Z 23009KT 210V280 9999 FEW011 BKN014 OVC023 10/08 Q1016=
200710071550 METAR ESMX 071550Z 24009KT 210V280 9999 BKN020 11/08 Q1016=
200710071520 METAR ESMX 071520Z 24007KT 200V270 9999 FEW024 SCT034 BKN039 11/08 Q1016=
200710071450 METAR ESMX 071450Z 25008KT 220V280 9999 FEW019 SCT021 BKN025 11/08 Q1016=
200710071420 METAR ESMX 071420Z 24009KT 210V280 9999 FEW019 SCT021 BKN025 11/08 Q1016=
200710071350 METAR ESMX 071350Z 24007KT 210V300 9999 FEW020 BKN025 BKN034 12/08 Q1017=
200710071320 METAR ESMX 071320Z 24008KT 210V290 9999 FEW021 SCT025 BKN029 13/08 Q1017=
200710071250 METAR ESMX 071250Z 24006KT 200V290 9999 FEW027 BKN046 13/08 Q1018=
200710071220 METAR ESMX 071220Z 25007KT 220V290 9999 FEW021 BKN025 12/08 Q1018=
200710071150 METAR ESMX 071150Z 25008KT 210V290 9999 FEW021 SCT024 12/08 Q1018=
200710071120 METAR ESMX 071120Z 24007KT 200V290 9999 FEW015 SCT025 12/08 Q1019=
200710071050 METAR ESMX 071050Z 25008KT 9999 FEW014 SCT020 11/08 Q1019=
200710071020 METAR ESMX 071020Z 23004KT 190V260 9999 FEW007 SCT020 10/10 Q1019=
200710070950 METAR ESMX 070950Z AUTO 26007KT 230V290 9999NDV FEW002/// SCT004/// BKN005/// 09/09 Q1020=
200710070920 METAR ESMX 070920Z AUTO 25004KT 210V290 9000NDV BR OVC001/// 08/08 Q1020=
200710070850 METAR ESMX 070850Z AUTO 27005KT 3900NDV VV002 08/07 Q1020=
200710070820 METAR ESMX 070820Z AUTO 28004KT 240V320 2600NDV VV001 08/07 Q1021=
200710070750 METAR ESMX 070750Z AUTO 27003KT 240V300 0350NDV R01/0800V1100U R19/0700 FG VV001 07/07 Q1021=
200710070720 METAR ESMX 070720Z AUTO 27005KT 240V320 1300NDV R01/1200VP2000N R19/P2000U VV001 07/06 Q1021=
200710070650 METAR ESMX 070650Z AUTO VRB02KT 0650NDV R01/1000D R19/1100N FG VV001 06/06 Q1021=
200710070620 METAR ESMX 070620Z AUTO 22003KT 0300NDV R01/0900N R19/0650 FG VV001 06/06 Q1021=
200710070550 METAR ESMX 070550Z AUTO 19003KT 160V220 0150NDV R01/0400N R19/0400N FG VV000 06/06 Q1021=
200710070520 METAR ESMX 070520Z AUTO 20003KT 0100NDV R01/0550N R19/0450N FG VV000 06/06 Q1021=
200710070450 METAR ESMX 070450Z AUTO 19002KT 0100NDV R01/0375V0600 R19/0500N FG VV000 06/06 Q1021=
200710070420 METAR ESMX 070420Z AUTO 20001KT 0150NDV R01/0550N R19/0650N FG VV000 06/05 Q1021=
200710070350 METAR ESMX 070350Z AUTO 18003KT 140V220 0150NDV R01/0550 R19/0700N FG VV000 05/05 Q1021=
200710070320 METAR ESMX 070320Z AUTO 18004KT 0300NDV R01/1100D R19/1200VP2000D FG VV001 05/05 Q1022=
200710070250 METAR ESMX 070250Z AUTO 18003KT 0600NDV R01/1800N R19/P2000N FG VV001 05/05 Q1022=
200710070220 METAR ESMX 070220Z AUTO 17002KT 0100NDV R01/1400N R19/0350V0550N FG VV000 05/05 Q1022=
200710070150 METAR ESMX 070150Z AUTO 18001KT 0100NDV R01/0550N R19/0400N FG VV000 05/05 Q1023=
200710070120 METAR ESMX 070120Z AUTO 16002KT 0150NDV R01/0550N R19/0550 FG VV000 06/05 Q1023=
200710070050 METAR ESMX 070050Z AUTO VRB02KT 0150NDV R01/0700V1300D R19/0300V0700N FG VV000 06/06 Q1023=
200710070020 METAR ESMX 070020Z AUTO VRB02KT 0200NDV R01/0800N R19/0700 FG VV001 06/05 Q1024=
200710062350 METAR ESMX 062350Z AUTO 14001KT 0800NDV R01/P2000D R19/P2000U FG VV001 04/03 Q1024=
200710062320 METAR ESMX 062320Z AUTO 00000KT 0300NDV R01/0900V1300U R19/P2000U BCFG NCD 04/03 Q1024=
200710062250 METAR ESMX 062250Z AUTO 17001KT 0550NDV R01/P2000D R19/P2000D FG NCD 04/04 Q1024=
200710062220 METAR ESMX 062220Z AUTO 00000KT 0800NDV R01/P2000D R19/P2000N FG NCD 04/03 Q1024=
200710062150 METAR ESMX 062150Z AUTO 00000KT 9999NDV BR NCD 04/03 Q1024=
200710062120 METAR ESMX 062120Z AUTO 00000KT 9999NDV NCD 04/03 Q1024=
200710062050 METAR ESMX 062050Z AUTO 00000KT 9999NDV NCD 03/03 Q1024=
200710062020 METAR ESMX 062020Z AUTO 00000KT 9999NDV NCD 04/03 Q1024=
200710061950 METAR ESMX 061950Z AUTO 18001KT 9999NDV NCD 04/04 Q1024=
200710061920 METAR ESMX 061920Z AUTO 00000KT 9999NDV NCD 05/04 Q1024=
200710061850 METAR ESMX 061850Z AUTO 20002KT 9999NDV NCD 05/04 Q1024=
200710061820 METAR ESMX 061820Z AUTO 00000KT 9999NDV NCD 05/05 Q1024=
200710061750 METAR ESMX 061750Z AUTO 00000KT 9999NDV NCD 06/05 Q1024=
200710061720 METAR ESMX 061720Z AUTO 18001KT 9999NDV NCD 07/06 Q1024=
200710061650 METAR ESMX 061650Z AUTO 00000KT 9999NDV NCD 08/06 Q1024=
200710061620 METAR ESMX 061620Z AUTO 00000KT 9999NDV NCD 10/07 Q1024=
200710061550 METAR ESMX 061550Z AUTO 34003KT 9999NDV NCD 13/07 Q1024=
200710061520 METAR ESMX 061520Z AUTO 36004KT 9999NDV NCD 15/06 Q1024=
200710061450 METAR ESMX 061450Z AUTO 36005KT 9999NDV NCD 15/06 Q1024=
200710061420 METAR ESMX 061420Z AUTO 35005KT 9999NDV NCD 16/06 Q1025=
200710061350 METAR ESMX 061350Z AUTO 35005KT 320V020 9999NDV NCD 16/05 Q1025=
200710061320 METAR ESMX 061320Z AUTO 01004KT 330V050 9999NDV NCD 16/05 Q1025=
200710061250 METAR ESMX 061250Z AUTO 36006KT 9999NDV NCD 16/05 Q1025=
200710061220 METAR ESMX 061220Z AUTO 36006KT 320V030 9999NDV NCD 15/05 Q1025=
200710061150 METAR ESMX 061150Z AUTO 36006KT 320V050 9999NDV NCD 15/06 Q1025=
200710061120 METAR ESMX 061120Z AUTO 36005KT 320V030 9999NDV NCD 15/06 Q1025=
200710061050 METAR ESMX 061050Z AUTO 02007KT 9999NDV NCD 14/07 Q1025=
200710061020 METAR ESMX 061020Z AUTO 01008KT 9999NDV NCD 14/07 Q1025=
200710060950 METAR ESMX 060950Z AUTO 01007KT 330V040 9999NDV NCD 13/07 Q1025=
200710060920 METAR ESMX 060920Z AUTO 01008KT 340V050 9999NDV NCD 13/07 Q1026=
200710060850 METAR ESMX 060850Z AUTO 36008KT 9999NDV NCD 12/07 Q1026=
200710060820 METAR ESMX 060820Z AUTO 36008KT 9999NDV NCD 11/08 Q1026=
200710060750 METAR ESMX 060750Z AUTO 36007KT 9999NDV NCD 10/08 Q1026=
200710060720 METAR ESMX 060720Z AUTO 36006KT 9999NDV NCD 08/08 Q1026=
200710060650 METAR ESMX 060650Z AUTO 34005KT 9999NDV NCD 06/06 Q1026=
200710060620 METAR ESMX 060620Z AUTO VRB02KT 5000NDV BR NCD 04/04 Q1026=
200710060550 METAR ESMX 060550Z AUTO 31001KT 1600NDV BR NCD 04/04 Q1026=
200710060520 METAR ESMX 060520Z AUTO 31003KT 9999NDV SCT043/// 05/04 Q1026=
200710060450 METAR ESMX 060450Z AUTO 32003KT 9999NDV BKN041/// 05/05 Q1025=
200710060420 METAR ESMX 060420Z AUTO VRB01KT 3200NDV OVC040/// 05/04 Q1025=
200710060350 METAR ESMX 060350Z AUTO 31004KT 9000NDV FEW040/// 03/03 Q1025=
200710060320 METAR ESMX 060320Z AUTO 29003KT 0650NDV R01/P2000D R19/P2000U FG NCD 03/03 Q1025=
200710060250 METAR ESMX 060250Z AUTO 00000KT 0350NDV R01/0800VP2000D R19/P2000U FG NCD 03/02 Q1025=
200710060220 METAR ESMX 060220Z AUTO VRB01KT 2400NDV NCD 03/02 Q1025=
200710060150 METAR ESMX 060150Z AUTO 29001KT 0550NDV R01/P2000U R19/P2000D FG SCT027/// 04/03 Q1025=
200710060120 METAR ESMX 060120Z AUTO 32002KT 9999NDV FEW030/// 05/04 Q1025=
200710060050 METAR ESMX 060050Z AUTO 32004KT 9999NDV NCD 04/04 Q1026=
200710060020 METAR ESMX 060020Z AUTO 35003KT 9999NDV NCD 06/06 Q1026=
200710052350 METAR ESMX 052350Z AUTO 36005KT 9999NDV NCD 05/04 Q1026=
200710052320 METAR ESMX 052320Z AUTO 34004KT 9999NDV NCD 05/05 Q1026=
200710052250 METAR ESMX 052250Z AUTO 32004KT 9999NDV FEW041/// 05/05 Q1026=
200710052220 METAR ESMX 052220Z AUTO 30003KT 9999NDV SCT043/// 06/05 Q1026=
200710052150 METAR ESMX 052150Z AUTO 30002KT 9999NDV BKN042/// 07/06 Q1026=
200710052120 METAR ESMX 052120Z AUTO VRB02KT 9999NDV OVC041/// 06/06 Q1026=
200710052050 METAR ESMX 052050Z AUTO 00000KT 9999NDV OVC042/// 07/06 Q1025=
200710052020 METAR ESMX 052020Z AUTO 00000KT 9999NDV OVC043/// 06/06 Q1025=
200710051950 METAR ESMX 051950Z AUTO 32001KT 9999NDV BKN043/// 05/05 Q1025=
200710051920 METAR ESMX 051920Z AUTO 29002KT 9999NDV FEW043/// 05/04 Q1025=
200710051820 METAR ESMX 051820Z AUTO VRB02KT 9999NDV NCD 07/06 Q1025=
200710051750 METAR ESMX 051750Z 35004KT CAVOK 07/06 Q1025=
200710051720 METAR ESMX 051720Z 36002KT CAVOK 08/06 Q1025=
200710051650 METAR ESMX 051650Z VRB02KT 9999 SCT046 09/07 Q1025=
200710051550 METAR ESMX 051550Z 34004KT CAVOK 10/07 Q1025=
200710051450 METAR ESMX 051450Z 36005KT 340V040 CAVOK 13/07 Q1024=
200710051420 METAR ESMX 051420Z 01006KT CAVOK 13/06 Q1024=
200710051350 METAR ESMX 051350Z 01007KT 340V050 9999 BKN045 14/06 Q1024=
200710051320 METAR ESMX 051320Z 35008KT 9999 SCT045 15/05 Q1024=
200710051250 METAR ESMX 051250Z 01007KT 9999 SCT045 14/05 Q1024=
200710051220 METAR ESMX 051220Z 36007KT 9999 SCT045 14/05 Q1024=
200710051150 METAR ESMX 051150Z 36007KT 9999 SCT045 15/05 Q1024=
200710051050 METAR ESMX 051050Z 36009KT 320V030 CAVOK 14/05 Q1024=
200710051020 METAR ESMX 051020Z 02008KT CAVOK 14/06 Q1024=
200710050950 METAR ESMX 050950Z 01005KT 330V050 CAVOK 14/08 Q1024=
200710050920 METAR ESMX 050920Z 36003KT 300V050 CAVOK 12/09 Q1024=
200710050850 METAR ESMX 050850Z 36005KT 320V030 CAVOK 12/09 Q1024=
200710050820 METAR ESMX 050820Z 36003KT 330V030 CAVOK 10/10 Q1024=
200710050750 METAR ESMX 050750Z 02003KT 350V060 CAVOK 09/08 Q1024=
200710050720 METAR ESMX 050720Z VRB02KT CAVOK 08/08 Q1023=
200710050650 METAR ESMX 050650Z 01002KT 9999 FEW010 SCT030 BKN050 07/07 Q1023=
200710050620 METAR ESMX 050620Z VRB01KT 0400 R01/0600N R19/0900 FG VV002 06/06 Q1023=
200710050550 METAR ESMX 050550Z 01004KT 0350 R01/0800VP2000 R19/P2000U FG VV002 06/06 Q1023=
200710050520 METAR ESMX 050520Z 36003KT 0100 R01/0375N R19/0450N FG VV001 06/06 Q1022=
200710050450 METAR ESMX 050450Z 34002KT 0100 R01/0400N R19/0450N FG VV001 06/06 Q1022=
200710050420 METAR ESMX 050420Z 00000KT 0050 R01/0325N R19/0325N FG VV001 06/06 Q1022=
200710050350 METAR ESMX 050350Z 02002KT 0050 R01/0225N R19/0400V0800U FG VV001 06/06 Q1022=
200710050320 METAR ESMX 050320Z AUTO 36002KT 0050NDV R01/0275V0400N R19/0250N FG VV000 05/05 Q1022=
200710050250 METAR ESMX 050250Z AUTO 00000KT 0050NDV R01/0225V0325N R19/0400N FG VV001 05/05 Q1022=
200710050220 METAR ESMX 050220Z AUTO 00000KT 0050NDV R01/0225N R19/0350N FG VV000 05/05 Q1021=
200710050150 METAR ESMX 050150Z AUTO 00000KT 0050NDV R01/0250 R19/0600V1200 BCFG VV001 05/04 Q1021=
200710050120 METAR ESMX 050120Z AUTO 00000KT 0150NDV R01/0500 R19/0750 FG BKN001/// 04/03 Q1021=
200710050050 METAR ESMX 050050Z AUTO 01002KT 0900NDV R01/P2000U R19/P2000U FG FEW001/// 04/04 Q1021=
200710050020 METAR ESMX 050020Z 00000KT 0800 R01/P2000D R19/P2000D BCFG NSC 05/04 Q1021=
200710042350 METAR ESMX 042350Z 20002KT 9999 BCFG NSC 05/05 Q1021=
200710042320 METAR ESMX 042320Z 00000KT CAVOK 05/05 Q1021=
200710042250 METAR ESMX 042250Z 00000KT CAVOK 05/05 Q1021=
200710042220 METAR ESMX 042220Z 19002KT CAVOK 06/05 Q1021=
200710042150 METAR ESMX 042150Z 00000KT CAVOK 06/05 Q1021=
200710042120 METAR ESMX 042120Z 19002KT CAVOK 06/06 Q1021=
200710042050 METAR ESMX 042050Z 16002KT CAVOK 06/06 Q1021=
200710042020 METAR ESMX 042020Z 18001KT CAVOK 06/05 Q1021=
200710041950 METAR ESMX 041950Z 19002KT 9999 FEW042 06/05 Q1021=
200710041920 METAR ESMX 041920Z 00000KT 9999 FEW041 06/05 Q1021=
200710041850 METAR ESMX 041850Z 00000KT CAVOK 05/04 Q1021=
200710041820 METAR ESMX 041820Z 00000KT CAVOK 05/05 Q1021=
200710041750 METAR ESMX 041750Z 00000KT CAVOK 06/06 Q1020=
200710041720 METAR ESMX 041720Z 18002KT CAVOK 07/06 Q1021=
200710041650 METAR ESMX 041650Z 00000KT CAVOK 08/07 Q1020=
200710041620 METAR ESMX 041620Z 00000KT CAVOK 10/07 Q1020=
200710041550 METAR ESMX 041550Z 15001KT CAVOK 14/07 Q1020=
200710041520 METAR ESMX 041520Z VRB01KT CAVOK 15/06 Q1021=
200710041450 METAR ESMX 041450Z 24003KT 200V270 CAVOK 15/06 Q1021=
200710041420 METAR ESMX 041420Z 23003KT 200V270 CAVOK 15/07 Q1021=
200710041350 METAR ESMX 041350Z 25003KT 9999 FEW035 SCT040 14/06 Q1021=
200710041320 METAR ESMX 041320Z 30003KT 250V350 9999 FEW030 SCT040 15/06 Q1021=
200710041250 METAR ESMX 041250Z 20005KT 9999 FEW040 15/07 Q1021=
200710041220 METAR ESMX 041220Z 26004KT 9999 SCT030 BKN040 14/06 Q1021=
200710041150 METAR ESMX 041150Z 17004KT 100V270 9999 SCT030 15/07 Q1021=
200710041120 METAR ESMX 041120Z 13004KT 070V200 9999 FEW025 SCT200 14/07 Q1021=
200710041050 METAR ESMX 041050Z 15004KT 100V230 9999 FEW020 BKN200 14/08 Q1022=
200710041020 METAR ESMX 041020Z VRB02KT CAVOK 14/09 Q1022=
200710040920 METAR ESMX 040920Z VRB02KT CAVOK 11/09 Q1022=
200710040850 METAR ESMX 040850Z VRB01KT CAVOK 11/09 Q1022=
200710040820 METAR ESMX 040820Z VRB02KT CAVOK 09/08 Q1022=
200710040750 METAR ESMX 040750Z VRB02KT 9999 FEW030 BKN200 08/08 Q1022=
200710040720 METAR ESMX 040720Z 03003KT 9999 FEW030 BKN200 08/08 Q1022=
200710040650 METAR ESMX 040650Z 02002KT 9999 SCT035 BKN200 07/06 Q1022=
200710040620 METAR ESMX 040620Z 00000KT 9999 VCFG BKN034 05/04 Q1022=
200710040520 METAR ESMX 040520Z 00000KT 0600 9999E R01/P2000D R19/P2000D BCFG SCT030 03/03 Q1022=
200710040450 METAR ESMX 040450Z 03001KT 9999 BCFG SCT030 03/02 Q1022=
200710040420 METAR ESMX 040420Z 00000KT 9999 SCT032 03/03 Q1022=
200710040350 METAR ESMX 040350Z 00000KT 0350 R01/1000V1600U R19/1000VP2000D FG FEW001 BKN032 02/02 Q1022=
200710040320 METAR ESMX 040320Z AUTO 04002KT 0900NDV R01/P2000D R19/P2000D FG FEW001/// 02/02 Q1022=
200710040250 METAR ESMX 040250Z AUTO 00000KT 0750NDV R01/P2000D R19/P2000U FG NCD 01/01 Q1022=
200710040220 METAR ESMX 040220Z AUTO 00000KT 0200NDV R01/0800V1200 R19/0800V1300N FG NCD 01/01 Q1022=
200710040150 METAR ESMX 040150Z AUTO 00000KT 0250NDV R01/0800V1600 R19/P2000U FG NCD 01/01 Q1022=
200710040120 METAR ESMX 040120Z AUTO 00000KT 0250NDV R01/P2000D R19/0650 BCFG NCD 02/02 Q1022=
200710040050 METAR ESMX 040050Z AUTO 00000KT 0600NDV R01/P2000U R19/P2000U FG NCD 02/02 Q1022=
200710040020 METAR ESMX 040020Z 00000KT 0650 R01/P2000U R19/P2000U FG NSC 02/02 Q1022=
200710032350 METAR ESMX 032350Z 00000KT 0700 R01/P2000U R19/P2000U BCFG NSC 03/02 Q1022=
200710032320 METAR ESMX 032320Z 00000KT 0600 R01/P2000U R19/P2000U FG NSC 03/03 Q1022=
200710032250 METAR ESMX 032250Z 00000KT CAVOK 03/03 Q1022=
200710032220 METAR ESMX 032220Z 00000KT CAVOK 03/03 Q1022=
200710032150 METAR ESMX 032150Z 00000KT CAVOK 03/03 Q1022=
200710032120 METAR ESMX 032120Z 00000KT CAVOK 04/03 Q1022=
200710032050 METAR ESMX 032050Z 00000KT CAVOK 04/04 Q1022=
200710032020 METAR ESMX 032020Z 00000KT CAVOK 04/04 Q1022=
200710031920 METAR ESMX 031920Z 00000KT CAVOK 05/05 Q1022=
200710031850 METAR ESMX 031850Z 00000KT CAVOK 05/05 Q1022=
200710031820 METAR ESMX 031820Z 00000KT CAVOK 06/05 Q1022=
200710031750 METAR ESMX 031750Z 18002KT CAVOK 07/06 Q1022=
200710031720 METAR ESMX 031720Z 00000KT CAVOK 07/06 Q1022=
200710031650 METAR ESMX 031650Z 00000KT CAVOK 07/06 Q1022=
200710031620 METAR ESMX 031620Z 29002KT CAVOK 10/07 Q1022=
200710031550 METAR ESMX 031550Z 30002KT CAVOK 12/07 Q1022=
200710031520 METAR ESMX 031520Z 31004KT 9999 FEW033 13/07 Q1021=
200710031450 METAR ESMX 031450Z 29005KT 9999 FEW033 14/07 Q1022=
200710031420 METAR ESMX 031420Z 28005KT 9999 FEW036 14/07 Q1022=
200710031350 METAR ESMX 031350Z 30005KT 260V330 9999 FEW032 15/07 Q1022=
200710031320 METAR ESMX 031320Z 28005KT 240V300 9999 FEW031 15/07 Q1022=
200710031250 METAR ESMX 031250Z 26006KT 220V310 9999 FEW030 14/07 Q1022=
200710031220 METAR ESMX 031220Z 36005KT 290V050 9999 FEW030 14/07 Q1022=
200710031150 METAR ESMX 031150Z 35005KT 310V040 9999 SCT025 14/07 Q1022=
200710031120 METAR ESMX 031120Z 01004KT 330V050 5000 FEW025 14/07 Q1022=
200710031050 METAR ESMX 031050Z 35004KT 300V040 9999 FEW025 13/07 Q1022=
200710031020 METAR ESMX 031020Z 35005KT 300V050 9999 FEW025 13/07 Q1022=
200710030950 METAR ESMX 030950Z 01005KT 310V040 CAVOK 13/07 Q1022=
200710030920 METAR ESMX 030920Z 33006KT 300V020 CAVOK 12/07 Q1022=
200710030850 METAR ESMX 030850Z 35005KT 320V020 CAVOK 12/07 Q1022=
200710030820 METAR ESMX 030820Z 31004KT 9999 FEW023 10/07 Q1022=
200710030750 METAR ESMX 030750Z 31004KT 280V360 9999 SCT025 10/07 Q1022=
200710030720 METAR ESMX 030720Z 29004KT 270V330 9999 FEW024 09/07 Q1022=
200710030650 METAR ESMX 030650Z 29003KT 9999 SCT020 07/07 Q1022=
200710030620 METAR ESMX 030620Z 32002KT 9999 SCT020 06/06 Q1021=
200710030550 METAR ESMX 030550Z 00000KT 9999 BKN018 06/06 Q1021=
200710030520 METAR ESMX 030520Z VRB02KT 9999 BKN018 06/06 Q1021=
200710030450 METAR ESMX 030450Z 31001KT 9999 BKN018 06/05 Q1021=
200710030420 METAR ESMX 030420Z 20002KT 9999 BKN018 05/05 Q1021=
200710030350 METAR ESMX 030350Z 33002KT 9999 BKN020 05/04 Q1021=
200710030320 METAR ESMX 030320Z AUTO 33001KT 9000NDV FEW016/// OVC020/// 04/04 Q1021=
200710030250 METAR ESMX 030250Z AUTO VRB01KT 2500NDV BR FEW018/// 04/03 Q1021=
200710030220 METAR ESMX 030220Z AUTO VRB01KT 1300NDV R01/P2000U R19/P2000D NCD 05/04 Q1021=
200710030150 METAR ESMX 030150Z AUTO 32004KT 3900NDV NCD 04/04 Q1021=
200710030120 METAR ESMX 030120Z AUTO 00000KT 0350NDV R01/0900V1800U R19/0900VP2000U FG NCD 04/03 Q1021=
200710030050 METAR ESMX 030050Z AUTO 00000KT 0250NDV R01/P2000U R19/0650 FG NCD 04/04 Q1021=
200710030020 METAR ESMX 030020Z VRB02KT 8000 BR FEW035 06/05 Q1021=
200710022350 METAR ESMX 022350Z 00000KT 9999 SCT036 06/06 Q1021=
200710022320 METAR ESMX 022320Z 30004KT 9999 BKN036 07/06 Q1021=
200710022250 METAR ESMX 022250Z 00000KT 9999 BKN037 08/07 Q1021=
200710022220 METAR ESMX 022220Z VRB01KT 9999 OVC038 08/07 Q1021=
200710022150 METAR ESMX 022150Z 30004KT 9999 BKN038 09/08 Q1021=
200710022120 METAR ESMX 022120Z 29003KT 9999 OVC038 09/08 Q1021=
200710022020 METAR ESMX 022020Z VRB01KT 9999 OVC040 09/08 Q1021=
200710021950 METAR ESMX 021950Z 31002KT 9999 OVC040 10/08 Q1021=
200710021920 METAR ESMX 021920Z 29003KT 9999 OVC040 10/08 Q1021=
200710021850 METAR ESMX 021850Z 29002KT 9999 OVC040 09/08 Q1021=
200710021820 METAR ESMX 021820Z 29001KT 9999 OVC040 09/08 Q1021=
200710021650 METAR ESMX 021650Z 30002KT 9999 OVC037 10/08 Q1021=
200710021620 METAR ESMX 021620Z VRB02KT 9999 OVC039 11/08 Q1021=
200710021550 METAR ESMX 021550Z 30003KT 9999 FEW028 OVC040 11/08 Q1021=
200710021520 METAR ESMX 021520Z 31004KT 280V340 9999 BKN035 11/08 Q1021=
200710021450 METAR ESMX 021450Z 30005KT 260V340 9999 OVC028 11/08 Q1021=
200710021420 METAR ESMX 021420Z 34007KT 9999 FEW015 SCT019 BKN028 11/09 Q1021=
200710021350 METAR ESMX 021350Z 28003KT 9999 SCT021 BKN025 12/07 Q1021=
200710021320 METAR ESMX 021320Z 29004KT 250V320 9999 BKN027 12/07 Q1021=
200710021250 METAR ESMX 021250Z 29005KT 9999 OVC027 12/07 Q1021=
200710021220 METAR ESMX 021220Z 29005KT 9999 FEW029 SCT038 BKN077 13/06 Q1021=
200710021120 METAR ESMX 021120Z 32005KT 9999 FEW023 BKN073 12/06 Q1021=
200710021050 METAR ESMX 021050Z 33005KT 9999 FEW023 BKN067 11/06 Q1021=
200710021020 METAR ESMX 021020Z 29003KT 9999 FEW022 BKN064 12/05 Q1021=
200710020950 METAR ESMX 020950Z 34005KT 9999 FEW021 SCT047 BKN073 12/06 Q1021=
200710020920 METAR ESMX 020920Z 28003KT 9999 FEW022 SCT028 BKN039 12/06 Q1021=
200710020850 METAR ESMX 020850Z 29003KT 9999 FEW018 BKN039 11/07 Q1022=
200710020820 METAR ESMX 020820Z VRB02KT 9999 SCT039 BKN077 11/08 Q1022=
200710020750 METAR ESMX 020750Z 25003KT 9999 FEW042 SCT080 10/08 Q1022=
200710020720 METAR ESMX 020720Z VRB02KT CAVOK 09/08 Q1022=
200710020650 METAR ESMX 020650Z VRB02KT CAVOK 08/08 Q1022=
200710020620 METAR ESMX 020620Z 18002KT CAVOK 06/06 Q1022=
200710020550 METAR ESMX 020550Z 16002KT 9999 BCFG NSC 05/05 Q1022=
200710020520 METAR ESMX 020520Z 00000KT 9999 BCFG FEW042 06/06 Q1022=
200710020450 METAR ESMX 020450Z 00000KT 9999 BKN041 07/07 Q1022=
200710020420 METAR ESMX 020420Z 25002KT 9999 BKN042 08/07 Q1022=
200710020350 METAR ESMX 020350Z 23002KT 9999 BKN042 08/07 Q1022=
200710020320 METAR ESMX 020320Z AUTO 22003KT 9999NDV OVC041/// 08/08 Q1022=
200710020250 METAR ESMX 020250Z AUTO 23003KT 9999NDV OVC041/// 09/08 Q1022=
200710020220 METAR ESMX 020220Z AUTO 23003KT 200V270 9999NDV OVC039/// 09/08 Q1022=
200710020150 METAR ESMX 020150Z AUTO 23003KT 9999NDV OVC039/// 09/08 Q1022=
200710020120 METAR ESMX 020120Z AUTO 23003KT 9999NDV OVC039/// 09/08 Q1022=
200710020050 METAR ESMX 020050Z AUTO 22003KT 9999NDV OVC039/// 09/08 Q1022=
200710020020 METAR ESMX 020020Z AUTO 21003KT 9999NDV OVC038/// 09/08 Q1023=
200710012350 METAR ESMX 012350Z 20003KT 9999 OVC038 09/08 Q1023=
200710012320 METAR ESMX 012320Z 20003KT 9999 OVC038 09/08 Q1023=
200710012250 METAR ESMX 012250Z 21004KT 9999 OVC040 09/08 Q1023=
200710012220 METAR ESMX 012220Z 22004KT 9999 OVC038 09/08 Q1023=
200710012150 METAR ESMX 012150Z 23002KT 9999 OVC040 09/08 Q1023=
200710012120 METAR ESMX 012120Z 21003KT 9999 BKN037 09/08 Q1023=
200710012050 METAR ESMX 012050Z 20003KT 9999 OVC037 09/08 Q1023=
200710012020 METAR ESMX 012020Z VRB02KT 9999 BKN037 09/08 Q1023=
200710011950 METAR ESMX 011950Z 25003KT 9999 OVC035 10/08 Q1023=
200710011920 METAR ESMX 011920Z 23002KT 9999 OVC032 10/09 Q1023=
200710011850 METAR ESMX 011850Z 25004KT 9999 OVC034 10/09 Q1023=
200710011820 METAR ESMX 011820Z 24004KT 9999 OVC035 10/09 Q1023=
200710011750 METAR ESMX 011750Z 26004KT 9999 OVC032 11/09 Q1023=
200710011720 METAR ESMX 011720Z 26004KT 9999 FEW022 OVC030 11/09 Q1023=
200710011650 METAR ESMX 011650Z 27006KT 9999 FEW022 BKN028 11/09 Q1022=
200710011620 METAR ESMX 011620Z 25004KT 210V290 9999 BKN029 11/09 Q1022=
200710011550 METAR ESMX 011550Z 25006KT 210V290 9999 BKN028 11/09 Q1022=
200710011520 METAR ESMX 011520Z 25007KT 9999 BKN032 BKN078 12/09 Q1022=
200710011450 METAR ESMX 011450Z 26007KT 9999 FEW027 SCT070 BKN083 12/10 Q1022 RERA REDZ=
200710011420 METAR ESMX 011420Z 27008KT 9999 FEW012 SCT017 BKN067 12/10 Q1022 RERA REDZ=
200710011350 METAR ESMX 011350Z 26010KT 9999 SHRA FEW017 SCT029 BKN042 13/10 Q1022=
200710011320 METAR ESMX 011320Z 24010KT 210V270 9999 FEW014 SCT020 BKN050 13/10 Q1022=
200710011250 METAR ESMX 011250Z 25008KT 210V290 9999 FEW014 SCT021 13/10 Q1022 RERA REDZ=
200710011220 METAR ESMX 011220Z 24008KT 200V290 2400 -SHRA FEW015 SCT021 BKN025 14/10 Q1022=
