##########################################################
# Query made at 04/19/2024 20:59:02 UTC
# Time interval: from 08/01/2007 12:00  to 08/31/2007 12:59  UTC
##########################################################

##########################################################
# ESMX, Vaxjo (Sweden)
# WMO index: 02641. WIGOS ID: 0-20000-0-02648
# Latitude 56-51N. Longitude 014-50E. Altitude 199 m.
##########################################################

200708311250 METAR ESMX 311250Z 18006KT 7000 -RA BKN011 11/10 Q1005=
200708311220 METAR ESMX 311220Z 17007KT 7000 RA FEW010 BKN014 11/09 Q1005=
200708311150 METAR ESMX 311150Z 18009KT 9000 -DZ BKN015 OVC030 11/09 Q1005=
200708311120 METAR ESMX 311120Z 19009KT 9999 -DZ FEW015 SCT020 OVC045 11/09 Q1006 RERA=
200708311050 METAR ESMX 311050Z 21009KT 9999 -RA FEW015 BKN020 OVC030 11/09 Q1006=
200708311020 METAR ESMX 311020Z 18009KT 9999 -DZ FEW012 SCT015 BKN038 12/10 Q1007=
200708310950 METAR ESMX 310950Z 21009KT 9999 -DZ FEW013 SCT027 BKN040 11/10 Q1007 RERA=
200708310920 METAR ESMX 310920Z 20008KT 9999 -DZ FEW031 BKN040 BKN047 11/09 Q1007=
200708310850 METAR ESMX 310850Z 21007KT 9999 -DZ FEW025 SCT045 11/08 Q1007=
200708310820 METAR ESMX 310820Z 19005KT CAVOK 10/07 Q1008=
200708310750 METAR ESMX 310750Z 19006KT CAVOK 10/07 Q1008=
200708310720 METAR ESMX 310720Z 17005KT 150V210 9999 FEW010 SCT090 09/07 Q1008=
200708310650 METAR ESMX 310650Z 18003KT 150V210 9999 FEW010 SCT060 BKN200 08/07 Q1008=
200708310620 METAR ESMX 310620Z VRB01KT CAVOK 07/07 Q1008=
200708310550 METAR ESMX 310550Z VRB01KT CAVOK 05/05 Q1008=
200708310520 METAR ESMX 310520Z 17001KT 9999 BCFG BKN200 04/04 Q1008=
200708310450 METAR ESMX 310450Z VRB02KT 9999 BCFG BKN200 03/03 Q1008=
200708310420 METAR ESMX 310420Z 19002KT 9999 BCFG BKN200 02/02 Q1008=
200708310350 METAR ESMX 310350Z 20002KT CAVOK 02/02 Q1009=
200708310320 METAR ESMX 310320Z AUTO 17002KT 9999NDV NCD 01/01 Q1009=
200708310250 METAR ESMX 310250Z AUTO 17001KT 9999NDV NCD 01/01 Q1009=
200708310220 METAR ESMX 310220Z AUTO 18002KT 9999NDV NCD 01/01 Q1009=
200708310150 METAR ESMX 310150Z AUTO 17002KT 9999NDV NCD 02/01 Q1009=
200708310120 METAR ESMX 310120Z AUTO 16001KT 9999NDV NCD 01/01 Q1009=
200708310050 METAR ESMX 310050Z AUTO 18002KT 9999NDV NCD 02/02 Q1009=
200708310020 METAR ESMX 310020Z AUTO 18003KT 9999NDV NCD 02/02 Q1009=
200708302350 METAR ESMX 302350Z 18002KT CAVOK 03/02 Q1009=
200708302320 METAR ESMX 302320Z VRB02KT CAVOK 03/02 Q1009=
200708302250 METAR ESMX 302250Z 17002KT CAVOK 03/03 Q1009=
200708302220 METAR ESMX 302220Z 17002KT CAVOK 04/03 Q1009=
200708302150 METAR ESMX 302150Z VRB01KT CAVOK 04/03 Q1009=
200708302050 METAR ESMX 302050Z 19001KT CAVOK 05/05 Q1009=
200708302020 METAR ESMX 302020Z 19001KT 9999 SCT045 06/05 Q1009=
200708301950 METAR ESMX 301950Z 00000KT CAVOK 07/06 Q1009=
200708301920 METAR ESMX 301920Z 19001KT CAVOK 08/07 Q1009=
200708301850 METAR ESMX 301850Z 00000KT CAVOK 09/07 Q1009=
200708301820 METAR ESMX 301820Z 02002KT CAVOK 09/07 Q1009=
200708301750 METAR ESMX 301750Z VRB01KT CAVOK 10/08 Q1009=
200708301720 METAR ESMX 301720Z 00000KT CAVOK 10/08 Q1009=
200708301650 METAR ESMX 301650Z 00000KT CAVOK 10/08 Q1009=
200708301620 METAR ESMX 301620Z 03004KT 350V060 9999 FEW075 13/05 Q1008=
200708301550 METAR ESMX 301550Z 03005KT CAVOK 13/06 Q1008=
200708301520 METAR ESMX 301520Z 02005KT 340V050 CAVOK 13/07 Q1009=
200708301450 METAR ESMX 301450Z 36006KT CAVOK 12/07 Q1009=
200708301420 METAR ESMX 301420Z 35009KT CAVOK 12/08 Q1009=
200708301350 METAR ESMX 301350Z 33004KT 9999 SCT030 BKN055 12/08 Q1009=
200708301320 METAR ESMX 301320Z 29003KT 250V330 9999 SCT030 BKN060 12/08 Q1009=
200708301250 METAR ESMX 301250Z 28004KT 9999 SCT035 BKN060 12/08 Q1009=
200708301220 METAR ESMX 301220Z 21003KT 9999 FEW030CB BKN050 12/09 Q1009=
200708301150 METAR ESMX 301150Z 25005KT 9999 -SHRA FEW020CB SCT030 BKN070 11/09 Q1009=
200708301120 METAR ESMX 301120Z 22006KT 9999 FEW020CB SCT035 BKN070 12/09 Q1009 RERA REDZ=
200708301050 METAR ESMX 301050Z VRB02KT 9999 FEW012CB SCT025 BKN060 13/08 Q1009 RERA=
200708301020 METAR ESMX 301020Z 31004KT 240V010 9999 -RA FEW025CB BKN055 12/08 Q1009=
200708300950 METAR ESMX 300950Z 28006KT 250V330 9999 BKN025 14/08 Q1009=
200708300920 METAR ESMX 300920Z 23007KT 9999 SCT020 BKN100 13/09 Q1009=
200708300850 METAR ESMX 300850Z 25005KT 9999 SCT012TCU SCT020 12/08 Q1009=
200708300820 METAR ESMX 300820Z 28005KT 240V330 9999 SCT012 BKN060 12/09 Q1009=
200708300750 METAR ESMX 300750Z 28004KT 250V330 9999 FEW010 SCT012TCU BKN057 11/09 Q1009=
200708300720 METAR ESMX 300720Z 26006KT 9999 FEW008TCU SCT010 BKN057 11/09 Q1009=
200708300650 METAR ESMX 300650Z VRB02KT 9999 FEW007 SCT008 BKN075 10/09 Q1009=
200708300620 METAR ESMX 300620Z 24004KT 9999 FEW020 SCT060 10/09 Q1009=
200708300550 METAR ESMX 300550Z 23004KT 190V270 9999 FEW030 SCT060 09/08 Q1009=
200708300520 METAR ESMX 300520Z 26003KT 210V300 9999 FEW030 SCT060 09/08 Q1009=
200708300450 METAR ESMX 300450Z 21005KT 9999 FEW038 BKN064 08/07 Q1009=
200708300420 METAR ESMX 300420Z 21006KT 9999 FEW034 BKN062 07/07 Q1009=
200708300350 METAR ESMX 300350Z 22003KT CAVOK 06/06 Q1009=
200708300320 METAR ESMX 300320Z AUTO 23005KT 9999NDV BKN065/// 07/06 Q1009=
200708300250 METAR ESMX 300250Z AUTO 21006KT 9999NDV BKN066/// 07/06 Q1009=
200708300220 METAR ESMX 300220Z AUTO 21006KT 9999NDV FEW057/// OVC068/// 07/07 Q1009=
200708300150 METAR ESMX 300150Z AUTO 20004KT 9999NDV FEW072/// BKN084/// 07/06 Q1009=
200708300120 METAR ESMX 300120Z AUTO 21006KT 9999NDV FEW051/// SCT084/// 07/06 Q1009 RERA=
200708300050 METAR ESMX 300050Z AUTO 26005KT 9999NDV DZ FEW025/// SCT055/// BKN073/// 08/07 Q1010 RERA=
200708300020 METAR ESMX 300020Z 21005KT 9999 -SHRA FEW049 SCT059 BKN071 08/06 Q1010=
200708292350 METAR ESMX 292350Z 21005KT CAVOK 07/06 Q1010=
200708292320 METAR ESMX 292320Z 26004KT 230V320 9999 FEW032 SCT068 07/06 Q1010=
200708292250 METAR ESMX 292250Z 24005KT CAVOK 07/06 Q1010=
200708292220 METAR ESMX 292220Z 23005KT CAVOK 07/06 Q1010=
200708292150 METAR ESMX 292150Z 22005KT CAVOK 07/05 Q1010=
200708292120 METAR ESMX 292120Z 23005KT CAVOK 07/05 Q1010=
200708292050 METAR ESMX 292050Z 26004KT CAVOK 07/06 Q1010=
200708292020 METAR ESMX 292020Z 25004KT CAVOK 08/06 Q1010=
200708291950 METAR ESMX 291950Z 27005KT CAVOK 08/07 Q1010=
200708291920 METAR ESMX 291920Z 22005KT CAVOK 08/07 Q1010=
200708291850 METAR ESMX 291850Z 22005KT CAVOK 08/07 Q1010=
200708291820 METAR ESMX 291820Z 21005KT CAVOK 09/08 Q1010=
200708291750 METAR ESMX 291750Z 20005KT 9999 FEW040 10/09 Q1010=
200708291720 METAR ESMX 291720Z 20006KT 9999 FEW020 SCT040 09/08 Q1010=
200708291650 METAR ESMX 291650Z 20005KT 9999 FEW020 SCT040 10/09 Q1010=
200708291620 METAR ESMX 291620Z 20005KT 9999 FEW020 SCT040 BKN100 10/09 Q1010=
200708291550 METAR ESMX 291550Z 12004KT 9999 -SHRA FEW015 FEW020CB SCT050 10/09 Q1010=
200708291520 METAR ESMX 291520Z 24005KT 5000 SHRA FEW013 BKN030CB 10/09 Q1011=
200708291450 METAR ESMX 291450Z VRB01KT 9999 FEW015 SCT020CB SCT065 12/07 Q1011=
200708291420 METAR ESMX 291420Z 11003KT 060V140 9999 FEW015 SCT040 13/08 Q1011=
200708291350 METAR ESMX 291350Z 16004KT 110V190 9999 FEW015 SCT035 12/08 Q1012=
200708291320 METAR ESMX 291320Z 15003KT 110V180 9999 FEW015 FEW030CB BKN080 11/08 Q1012 RERA=
200708291250 METAR ESMX 291250Z VRB01KT 9999 -SHRA FEW015 SCT030CB BKN100 10/08 Q1012=
200708291220 METAR ESMX 291220Z 33007KT 9999 -SHRA FEW015 SCT030CB BKN050 11/07 Q1012=
200708291150 METAR ESMX 291150Z 34007KT 9999 SCT030CB BKN080 13/05 Q1012=
200708291120 METAR ESMX 291120Z 22011KT 9999 FEW030CB SCT050 BKN064 15/05 Q1011=
200708291050 METAR ESMX 291050Z 24007KT 200V270 9999 SCT040CB BKN085 16/05 Q1011=
200708291020 METAR ESMX 291020Z 27006KT 210V310 CAVOK 16/04 Q1012=
200708290950 METAR ESMX 290950Z 24006KT 180V270 CAVOK 16/04 Q1012=
200708290920 METAR ESMX 290920Z 24007KT 200V280 CAVOK 15/03 Q1012=
200708290850 METAR ESMX 290850Z 27005KT 210V320 CAVOK 15/04 Q1012=
200708290820 METAR ESMX 290820Z 25004KT 200V290 CAVOK 14/06 Q1012=
200708290750 METAR ESMX 290750Z 27005KT 230V290 CAVOK 13/06 Q1012=
200708290720 METAR ESMX 290720Z 22006KT CAVOK 12/06 Q1012=
200708290650 METAR ESMX 290650Z 26006KT CAVOK 11/07 Q1012=
200708290620 METAR ESMX 290620Z 25005KT CAVOK 08/06 Q1012=
200708290550 METAR ESMX 290550Z 25004KT CAVOK 08/06 Q1012=
200708290520 METAR ESMX 290520Z VRB02KT CAVOK 05/05 Q1013=
200708290450 METAR ESMX 290450Z 25002KT CAVOK 04/04 Q1012=
200708290420 METAR ESMX 290420Z 24004KT CAVOK 03/02 Q1012=
200708290350 METAR ESMX 290350Z 24004KT CAVOK 03/03 Q1012=
200708290320 METAR ESMX 290320Z VRB02KT CAVOK 04/03 Q1012=
200708290250 METAR ESMX 290250Z AUTO 24004KT 9999NDV NCD 03/02 Q1012=
200708290220 METAR ESMX 290220Z AUTO 20002KT 9999NDV NCD 03/03 Q1013=
200708290150 METAR ESMX 290150Z AUTO 24003KT 9999NDV NCD 02/02 Q1013=
200708290120 METAR ESMX 290120Z AUTO 21002KT 9999NDV NCD 02/01 Q1013=
200708290050 METAR ESMX 290050Z AUTO VRB02KT 9999NDV NCD 03/02 Q1013=
200708290020 METAR ESMX 290020Z AUTO 25002KT 9999NDV NCD 04/03 Q1013=
200708282350 METAR ESMX 282350Z 26004KT CAVOK 04/03 Q1013=
200708282320 METAR ESMX 282320Z 27003KT CAVOK 05/03 Q1013=
200708282250 METAR ESMX 282250Z 28004KT CAVOK 06/03 Q1013=
200708282220 METAR ESMX 282220Z 27004KT CAVOK 06/03 Q1013=
200708282150 METAR ESMX 282150Z 27004KT CAVOK 06/03 Q1013=
200708282120 METAR ESMX 282120Z 26004KT CAVOK 05/03 Q1013=
200708282050 METAR ESMX 282050Z 25004KT CAVOK 07/03 Q1013=
200708282020 METAR ESMX 282020Z 26004KT CAVOK 07/03 Q1013=
200708281950 METAR ESMX 281950Z 26004KT CAVOK 08/03 Q1013=
200708281920 METAR ESMX 281920Z 26004KT CAVOK 09/03 Q1013=
200708281850 METAR ESMX 281850Z 28004KT CAVOK 10/03 Q1012=
200708281820 METAR ESMX 281820Z 27005KT CAVOK 11/03 Q1012=
200708281750 METAR ESMX 281750Z 27007KT 2 CAVOK 12/03 Q1012=
200708281720 METAR ESMX 281720Z 27008KT 240V300 CAVOK 13/03 Q1012=
200708281650 METAR ESMX 281650Z 29012KT CAVOK 15/03 Q1012=
200708281620 METAR ESMX 281620Z 26010KT 230V310 CAVOK 14/03 Q1012=
200708281550 METAR ESMX 281550Z 28010KT 250V320 CAVOK 15/02 Q1012=
200708281520 METAR ESMX 281520Z 28011KT 250V340 CAVOK 15/02 Q1012=
200708281450 METAR ESMX 281450Z 27013KT 230V300 CAVOK 16/02 Q1012=
200708281420 METAR ESMX 281420Z 28012KT 240V330 CAVOK 16/02 Q1011=
200708281350 METAR ESMX 281350Z 30012KT 250V330 CAVOK 16/03 Q1012=
200708281320 METAR ESMX 281320Z 29013KT 240V320 CAVOK 16/03 Q1012=
200708281250 METAR ESMX 281250Z 28014KT 250V320 CAVOK 15/04 Q1012=
200708281220 METAR ESMX 281220Z 28013KT 230V320 CAVOK 15/04 Q1012=
200708281150 METAR ESMX 281150Z 28014KT 9999 FEW045 15/05 Q1012=
200708281120 METAR ESMX 281120Z 28014KT 240V340 9999 FEW045 14/04 Q1011=
200708281050 METAR ESMX 281050Z 28014KT 250V310 9999 FEW030 14/05 Q1011=
200708281020 METAR ESMX 281020Z 29012KT 260V330 CAVOK 13/05 Q1011=
200708280950 METAR ESMX 280950Z 30013KT 270V330 9999 FEW030 13/05 Q1011=
200708280920 METAR ESMX 280920Z 29013KT 9999 FEW020 12/06 Q1011=
200708280850 METAR ESMX 280850Z 28011KT 9999 FEW020 11/06 Q1011=
200708280820 METAR ESMX 280820Z 29010KT 9999 FEW020 11/05 Q1011=
200708280750 METAR ESMX 280750Z 30011KT 260V330 CAVOK 10/05 Q1011=
200708280720 METAR ESMX 280720Z 30009KT CAVOK 09/06 Q1011=
200708280650 METAR ESMX 280650Z 29010KT CAVOK 09/06 Q1011=
200708280620 METAR ESMX 280620Z 30009KT CAVOK 08/05 Q1011=
200708280550 METAR ESMX 280550Z 28008KT CAVOK 07/05 Q1010=
200708280520 METAR ESMX 280520Z 27007KT CAVOK 06/05 Q1010=
200708280450 METAR ESMX 280450Z 27007KT 250V320 CAVOK 06/04 Q1010=
200708280420 METAR ESMX 280420Z 27006KT CAVOK 05/04 Q1010=
200708280350 METAR ESMX 280350Z 28005KT CAVOK 05/04 Q1010=
200708280320 METAR ESMX 280320Z 28005KT CAVOK 05/04 Q1009=
200708280250 METAR ESMX 280250Z AUTO 27005KT 9999NDV NCD 05/05 Q1009=
200708280220 METAR ESMX 280220Z AUTO 27006KT 9999NDV NCD 06/05 Q1009=
200708280150 METAR ESMX 280150Z AUTO 27005KT 9999NDV NCD 06/05 Q1009=
200708280120 METAR ESMX 280120Z AUTO 29007KT 9999NDV NCD 06/05 Q1009=
200708280050 METAR ESMX 280050Z AUTO 29007KT 9999NDV NCD 06/05 Q1009=
200708280020 METAR ESMX 280020Z 29005KT CAVOK 07/06 Q1009=
200708272350 METAR ESMX 272350Z 30005KT CAVOK 07/06 Q1008=
200708272320 METAR ESMX 272320Z 29006KT CAVOK 07/06 Q1008=
200708272250 METAR ESMX 272250Z 30006KT CAVOK 07/06 Q1008=
200708272220 METAR ESMX 272220Z 30006KT 9999 FEW030 07/06 Q1008=
200708272150 METAR ESMX 272150Z 29007KT 9999 FEW029 SCT044 08/07 Q1008=
200708272120 METAR ESMX 272120Z 29007KT CAVOK 07/06 Q1007=
200708272050 METAR ESMX 272050Z 29007KT 9999 SCT047 BKN055 07/06 Q1007=
200708272020 METAR ESMX 272020Z 29007KT 9999 SCT043 BKN056 08/07 Q1007=
200708271950 METAR ESMX 271950Z 29006KT 9999 FEW030 SCT092 08/07 Q1007 REDZ RERA=
200708271920 METAR ESMX 271920Z 27005KT 9000 DZ FEW014 SCT046 BKN055 09/09 Q1007 RERA=
200708271850 METAR ESMX 271850Z 22005KT 9999 -RA FEW017 SCT047 09/09 Q1007=
200708271820 METAR ESMX 271820Z 22004KT 9999 FEW006 SCT029 09/08 Q1007=
200708271750 METAR ESMX 271750Z 26003KT 9999 -RA FEW008 OVC022 10/09 Q1007=
200708271720 METAR ESMX 271720Z 20003KT 9999 -RA BKN022 10/09 Q1007=
200708271650 METAR ESMX 271650Z 22004KT 170V260 9999 -RA FEW005 SCT025 BKN080 10/09 Q1007=
200708271620 METAR ESMX 271620Z 24004KT 190V270 9999 -SHRA FEW020CB BKN034 10/09 Q1008=
200708271550 METAR ESMX 271550Z 26005KT 9999 -SHRA FEW020CB SCT047 BKN058 10/09 Q1008=
200708271520 METAR ESMX 271520Z 27005KT 9999 -SHRA FEW020 SCT030CB BKN080 10/09 Q1009=
200708271450 METAR ESMX 271450Z 25010G22KT 200V300 6000 SHRA FEW020CB SCT035CB BKN050 12/09 Q1009=
200708271420 METAR ESMX 271420Z 23010KT 9999 FEW020CB SCT040 BKN080 14/10 Q1009=
200708271350 METAR ESMX 271350Z 23009KT 9999 FEW020CB SCT040 BKN080 13/11 Q1009=
200708271320 METAR ESMX 271320Z 24007KT 9999 FEW020CB SCT040 BKN080 13/11 Q1009 RERA=
200708271250 METAR ESMX 271250Z 28010KT 240V300 9999 -SHRA FEW030CB SCT060 BKN090 14/09 Q1010=
200708271220 METAR ESMX 271220Z 26012KT 200V290 9999 FEW020CB SCT040 BKN090 16/06 Q1010=
200708271150 METAR ESMX 271150Z 28011KT 9999 SCT030TCU SCT090 16/06 Q1010=
200708271120 METAR ESMX 271120Z 25012KT 9999 SCT040 17/07 Q1010=
200708271050 METAR ESMX 271050Z 27014KT 240V300 9999 FEW040 17/07 Q1010=
200708271020 METAR ESMX 271020Z 25013KT 200V280 9999 FEW040TCU SCT050 16/08 Q1011=
200708270950 METAR ESMX 270950Z 27012KT 250V310 9999 FEW030TCU SCT050 16/09 Q1011=
200708270920 METAR ESMX 270920Z 25010KT 200V300 9999 FEW030TCU SCT050 15/09 Q1011 RERA=
200708270850 METAR ESMX 270850Z 27014KT 240V300 9999 SCT030 15/07 Q1011=
200708270750 METAR ESMX 270750Z 28013KT 240V310 9999 FEW029 SCT036 14/08 Q1011=
200708270720 METAR ESMX 270720Z 28011KT 250V320 9999 SCT025 14/08 Q1011=
200708270650 METAR ESMX 270650Z 27010KT 9999 FEW020 SCT055 13/10 Q1011=
200708270620 METAR ESMX 270620Z 26010KT 210V300 9999 SCT014 13/10 Q1011=
200708270550 METAR ESMX 270550Z 24008KT 210V280 9999 FEW040 12/10 Q1011=
200708270520 METAR ESMX 270520Z 24006KT 9999 SCT025 12/10 Q1011=
200708270450 METAR ESMX 270450Z 22005KT 9999 FEW015 12/10 Q1011=
200708270420 METAR ESMX 270420Z 23006KT 9999 BKN018 12/10 Q1012=
200708270350 METAR ESMX 270350Z 25006KT 210V280 9999 FEW020 BKN050 12/10 Q1012=
200708270320 METAR ESMX 270320Z AUTO 25006KT 9999NDV FEW019/// OVC054/// 12/10 Q1012=
200708270250 METAR ESMX 270250Z AUTO 24006KT 9999NDV FEW017/// BKN056/// 12/10 Q1012=
200708270220 METAR ESMX 270220Z AUTO 23005KT 9999NDV BKN056/// 11/10 Q1012=
200708270150 METAR ESMX 270150Z AUTO 23006KT 9999NDV SCT054/// 11/10 Q1013=
200708270120 METAR ESMX 270120Z AUTO 23006KT 9999NDV FEW051/// 11/09 Q1013=
200708270050 METAR ESMX 270050Z AUTO 23006KT 9999NDV FEW054/// 11/10 Q1013=
200708270020 METAR ESMX 270020Z 21005KT 190V250 CAVOK 11/10 Q1013=
200708262350 METAR ESMX 262350Z 22004KT CAVOK 11/10 Q1013=
200708262320 METAR ESMX 262320Z 23004KT CAVOK 11/10 Q1014=
200708262250 METAR ESMX 262250Z 22006KT CAVOK 11/10 Q1014=
200708262220 METAR ESMX 262220Z 24004KT CAVOK 11/10 Q1014=
200708262150 METAR ESMX 262150Z 22005KT 9999 FEW022 11/10 Q1015=
200708262120 METAR ESMX 262120Z 22006KT CAVOK 12/10 Q1015=
200708262050 METAR ESMX 262050Z 23006KT CAVOK 12/10 Q1015=
200708262020 METAR ESMX 262020Z 22007KT CAVOK 12/10 Q1015=
200708261950 METAR ESMX 261950Z 23007KT 9999 FEW025 12/10 Q1015=
200708261920 METAR ESMX 261920Z 23006KT CAVOK 12/10 Q1015=
200708261850 METAR ESMX 261850Z 25006KT 9999 FEW029 SCT040 13/10 Q1014=
200708261820 METAR ESMX 261820Z 26005KT 9999 FEW029 13/10 Q1014=
200708261750 METAR ESMX 261750Z 26009KT 9999 FEW025 15/10 Q1014=
200708261720 METAR ESMX 261720Z 26008KT 9999 FEW031 SCT036 BKN061 15/10 Q1014=
200708261650 METAR ESMX 261650Z 27009KT 240V300 9999 FEW035 SCT045 16/09 Q1014=
200708261620 METAR ESMX 261620Z 28010KT 240V320 9999 SCT035 16/09 Q1014=
200708261550 METAR ESMX 261550Z 27012KT 210V300 9999 SCT038 16/09 Q1014=
200708261520 METAR ESMX 261520Z 27015KT 240V300 9999 SCT043 17/09 Q1014=
200708261450 METAR ESMX 261450Z 27016G27KT 240V310 9999 SCT041 17/08 Q1014=
200708261420 METAR ESMX 261420Z 27016G26KT 230V310 9999 SCT043 18/09 Q1013=
200708261350 METAR ESMX 261350Z 27014KT 250V320 9999 FEW037 SCT041 BKN048 18/10 Q1013=
200708261320 METAR ESMX 261320Z 26012G22KT 210V290 9999 FEW031 SCT036 BKN041 17/09 Q1013=
200708261250 METAR ESMX 261250Z 26014KT 9999 FEW038 SCT045 17/10 Q1013=
200708261220 METAR ESMX 261220Z 27013KT 240V300 9999 FEW044 SCT055 19/09 Q1013=
200708261150 METAR ESMX 261150Z 28015KT 240V320 9999 SCT036 18/10 Q1013=
200708261120 METAR ESMX 261120Z 24013KT 200V290 9999 FEW035 SCT043 BKN070 18/10 Q1013=
200708261050 METAR ESMX 261050Z 29010KT 250V320 9999 FEW034 SCT048 17/10 Q1013=
200708261020 METAR ESMX 261020Z AUTO 27008KT 240V300 9999NDV FEW027/// 17/12 Q1013=
200708260950 METAR ESMX 260950Z AUTO 26008KT 9999NDV FEW020/// SCT030/// BKN039/// 16/11 Q1013=
200708260920 METAR ESMX 260920Z AUTO 29009KT 240V330 9999NDV FEW018/// SCT024/// BKN034/// 15/11 Q1013=
200708260850 METAR ESMX 260850Z AUTO 28008KT 9999NDV FEW013/// 15/12 Q1013=
200708260820 METAR ESMX 260820Z AUTO 27006KT 9999NDV FEW080/// 14/12 Q1013 RERA=
200708260750 METAR ESMX 260750Z AUTO 23005KT 9999NDV -RA FEW011/// SCT039/// 13/12 Q1013=
200708260720 METAR ESMX 260720Z AUTO 24006KT 200V260 9999NDV RA FEW012/// OVC035/// 14/12 Q1014=
200708260650 METAR ESMX 260650Z AUTO 24006KT 9999NDV SCT010/// BKN029/// OVC045/// 14/12 Q1014=
200708260620 METAR ESMX 260620Z AUTO 23004KT 200V260 9999NDV FEW013/// OVC030/// 14/12 Q1014=
200708260550 METAR ESMX 260550Z AUTO 23004KT 9999NDV FEW023/// SCT031/// BKN042/// 13/12 Q1014=
200708260520 METAR ESMX 260520Z AUTO 23005KT 190V270 9999NDV FEW035/// 13/11 Q1014=
200708260450 METAR ESMX 260450Z AUTO 24005KT 210V280 9999NDV NCD 13/11 Q1014=
200708260420 METAR ESMX 260420Z AUTO 25007KT 9999NDV FEW017/// 13/11 Q1014=
200708260350 METAR ESMX 260350Z AUTO 27007KT 9999NDV BKN015/// 13/11 Q1014=
200708260320 METAR ESMX 260320Z AUTO 23005KT 9999NDV NCD 12/11 Q1015=
200708260250 METAR ESMX 260250Z AUTO 25005KT 9999NDV NCD 12/11 Q1015=
200708260220 METAR ESMX 260220Z AUTO 24004KT 9999NDV NCD 12/11 Q1015=
200708260150 METAR ESMX 260150Z AUTO 23005KT 9999NDV NCD 12/10 Q1016=
200708260120 METAR ESMX 260120Z AUTO 23005KT 9999NDV NCD 12/10 Q1016=
200708260050 METAR ESMX 260050Z AUTO 22005KT 9999NDV NCD 12/10 Q1016=
200708260020 METAR ESMX 260020Z AUTO 24005KT 220V290 9999NDV NCD 12/10 Q1016=
200708252350 METAR ESMX 252350Z AUTO 26005KT 9999NDV NCD 12/10 Q1016=
200708252320 METAR ESMX 252320Z AUTO 27006KT 9999NDV NCD 12/10 Q1017=
200708252250 METAR ESMX 252250Z AUTO 25007KT 210V280 9999NDV NCD 12/10 Q1017=
200708252220 METAR ESMX 252220Z AUTO 27008KT 9999NDV NCD 13/10 Q1017=
200708252150 METAR ESMX 252150Z AUTO 25008KT 9999NDV NCD 13/10 Q1017=
200708252120 METAR ESMX 252120Z AUTO 27009KT 230V290 9999NDV NCD 13/10 Q1017=
200708252050 METAR ESMX 252050Z AUTO 25008KT 220V280 9999NDV NCD 13/10 Q1017=
200708252020 METAR ESMX 252020Z AUTO 26009KT 9999NDV NCD 14/10 Q1017=
200708251950 METAR ESMX 251950Z AUTO 26009KT 9999NDV NCD 14/10 Q1016=
200708251920 METAR ESMX 251920Z AUTO 26009KT 9999NDV NCD 14/10 Q1017=
200708251850 METAR ESMX 251850Z AUTO 26011KT 230V290 9999NDV NCD 15/10 Q1016=
200708251820 METAR ESMX 251820Z AUTO 27011KT 230V320 9999NDV NCD 15/10 Q1016=
200708251750 METAR ESMX 251750Z AUTO 26010KT 210V320 9999NDV NCD 16/10 Q1016=
200708251720 METAR ESMX 251720Z AUTO 27013KT 240V320 9999NDV NCD 17/10 Q1016=
200708251650 METAR ESMX 251650Z AUTO 25013G24KT 210V280 9999NDV NCD 18/11 Q1016=
200708251620 METAR ESMX 251620Z AUTO 26016G26KT 230V290 9999NDV FEW035/// 19/11 Q1016=
200708251550 METAR ESMX 251550Z AUTO 24013G23KT 200V270 9999NDV FEW033/// 19/11 Q1016=
200708251520 METAR ESMX 251520Z AUTO 26015G26KT 9999NDV FEW032/// 19/12 Q1016=
200708251450 METAR ESMX 251450Z AUTO 25014KT 180V290 9999NDV NCD 19/12 Q1016=
200708251420 METAR ESMX 251420Z AUTO 26015G26KT 230V290 9999NDV FEW031/// 19/13 Q1016=
200708251350 METAR ESMX 251350Z AUTO 25013KT 210V290 9999NDV FEW022/// SCT036/// BKN042/// 19/14 Q1016=
200708251320 METAR ESMX 251320Z AUTO 25012G22KT 210V290 9999NDV FEW019/// BKN037/// 18/14 Q1016=
200708251250 METAR ESMX 251250Z AUTO 23013KT 9999NDV FEW014/// SCT017/// BKN020/// 18/14 Q1017=
200708251220 METAR ESMX 251220Z AUTO 22010KT 190V250 9999NDV SCT011/// BKN015/// OVC020/// 16/14 Q1017=
200708251150 METAR ESMX 251150Z AUTO 24010KT 6000NDV BR FEW008/// BKN010/// OVC015/// 16/15 Q1017 RERA REDZ=
200708251120 METAR ESMX 251120Z AUTO 25010KT 220V280 9999NDV BKN011/// OVC016/// 16/14 Q1017=
200708251050 METAR ESMX 251050Z AUTO 24013KT 210V280 9999NDV OVC014/// 16/13 Q1017=
200708251020 METAR ESMX 251020Z AUTO 27010KT 9999NDV OVC013/// 17/13 Q1017=
200708250950 METAR ESMX 250950Z AUTO 23011KT 210V270 9999NDV OVC013/// 16/13 Q1017=
200708250920 METAR ESMX 250920Z AUTO 24011KT 9999NDV FEW013/// SCT017/// OVC022/// 16/13 Q1018=
200708250850 METAR ESMX 250850Z AUTO 26010KT 220V280 9000NDV BR FEW012/// SCT017/// OVC021/// 15/13 Q1018=
200708250820 METAR ESMX 250820Z AUTO 26011G21KT 170V300 9999NDV BKN010/// OVC022/// 16/13 Q1017=
200708250750 METAR ESMX 250750Z AUTO 23009KT 190V260 6000NDV -DZ BKN010/// OVC015/// 15/14 Q1017 RERA=
200708250720 METAR ESMX 250720Z AUTO 25011KT 9999NDV BKN013/// OVC018/// 16/13 Q1017=
200708250650 METAR ESMX 250650Z AUTO 25010KT 200V280 9999NDV BKN014/// OVC022/// 16/13 Q1017=
200708250620 METAR ESMX 250620Z AUTO 24008KT 190V280 9999NDV OVC014/// 15/13 Q1017=
200708250550 METAR ESMX 250550Z AUTO 25009KT 9999NDV SCT015/// OVC018/// 15/13 Q1017=
200708250520 METAR ESMX 250520Z AUTO 25009KT 200V300 9999NDV OVC013/// 15/12 Q1017=
200708250450 METAR ESMX 250450Z AUTO 25008KT 9999NDV BKN013/// OVC020/// 15/13 Q1017=
200708250420 METAR ESMX 250420Z AUTO 26009KT 230V290 9999NDV BKN015/// 15/12 Q1017=
200708250350 METAR ESMX 250350Z AUTO 25010KT 9999NDV BKN015/// 15/12 Q1017=
200708250320 METAR ESMX 250320Z AUTO 24007KT 9999NDV FEW015/// 15/13 Q1017=
200708250250 METAR ESMX 250250Z AUTO 23009KT 9999NDV FEW010/// SCT014/// BKN018/// 15/14 Q1017=
200708250220 METAR ESMX 250220Z AUTO 25008KT 9999NDV SCT010/// BKN015/// BKN020/// 15/14 Q1017=
200708250150 METAR ESMX 250150Z AUTO 25007KT 220V280 9999NDV FEW006/// SCT008/// OVC011/// 15/14 Q1018=
200708250120 METAR ESMX 250120Z AUTO 25007KT 9999NDV FEW006/// BKN007/// OVC014/// 15/14 Q1018=
200708250050 METAR ESMX 250050Z AUTO 23009KT 190V260 9999NDV OVC006/// 15/14 Q1018=
200708250020 METAR ESMX 250020Z AUTO 24007KT 210V280 9999NDV BR FEW008/// SCT009/// BKN011/// 15/14 Q1018=
200708242350 METAR ESMX 242350Z AUTO 22005KT 3900NDV BR SCT002/// 14/14 Q1018=
200708242320 METAR ESMX 242320Z AUTO 20005KT 2900NDV BR BKN001/// 14/14 Q1018=
200708242250 METAR ESMX 242250Z AUTO 22005KT 2600NDV BR BKN002/// 15/14 Q1018=
200708242220 METAR ESMX 242220Z AUTO 23005KT 3800NDV BR SCT003/// 15/14 Q1018=
200708242150 METAR ESMX 242150Z AUTO 20005KT 4600NDV BR NCD 15/14 Q1018=
200708242120 METAR ESMX 242120Z AUTO 22005KT 7000NDV BR NCD 15/14 Q1018=
200708242050 METAR ESMX 242050Z AUTO 24005KT 9000NDV NCD 16/15 Q1018=
200708242020 METAR ESMX 242020Z AUTO 23006KT 9999NDV NCD 16/15 Q1018=
200708241950 METAR ESMX 241950Z AUTO 23005KT 9999NDV NCD 17/15 Q1018=
200708241920 METAR ESMX 241920Z AUTO 25007KT 9999NDV NCD 17/15 Q1018=
200708241850 METAR ESMX 241850Z AUTO 26006KT 9999NDV SCT044/// 18/16 Q1018=
200708241820 METAR ESMX 241820Z AUTO 28007KT 9999NDV BKN043/// 19/16 Q1018=
200708241750 METAR ESMX 241750Z 25008KT 9999 FEW021 BKN043 19/16 Q1018=
200708241720 METAR ESMX 241720Z 25006KT 9999 BKN045 20/17 Q1018=
200708241650 METAR ESMX 241650Z 24007KT 210V270 9999 SCT022 BKN043 21/17 Q1018=
200708241620 METAR ESMX 241620Z 25008KT 9999 SCT026 22/17 Q1018=
200708241550 METAR ESMX 241550Z 26008KT 9999 SCT026 22/16 Q1017=
200708241520 METAR ESMX 241520Z 25008KT 210V290 9999 FEW028 SCT033 23/16 Q1017=
200708241450 METAR ESMX 241450Z 23008KT 190V280 9999 SCT030 BKN040 23/16 Q1017=
200708241420 METAR ESMX 241420Z 26010KT 9999 FEW028 SCT037 23/17 Q1017=
200708241350 METAR ESMX 241350Z 29007KT 250V330 9999 FEW025 BKN032 24/17 Q1017=
200708241320 METAR ESMX 241320Z 24006KT 9999 FEW019 22/18 Q1017=
200708241250 METAR ESMX 241250Z 25007KT 9999 SCT016 22/17 Q1017=
200708241220 METAR ESMX 241220Z 26007KT 9999 SCT014 22/18 Q1017=
200708241150 METAR ESMX 241150Z 26008KT 9999 SCT014 22/18 Q1017=
200708241120 METAR ESMX 241120Z 30007KT 9999 SCT012 21/18 Q1017=
200708241050 METAR ESMX 241050Z 29007KT 250V330 9999 FEW013 21/18 Q1017=
200708241020 METAR ESMX 241020Z 26005KT 9000 BR FEW008 BKN011 BKN028 19/17 Q1017=
200708240950 METAR ESMX 240950Z 25004KT 9999 BKN007 OVC010 19/17 Q1017=
200708240920 METAR ESMX 240920Z 29005KT 9999 BR BKN008 BKN010 19/17 Q1017=
200708240850 METAR ESMX 240850Z 30005KT 250V320 9000 BR BKN006 OVC009 19/17 Q1017=
200708240820 METAR ESMX 240820Z 31005KT 260V340 8000 BR OVC006 18/17 Q1017=
200708240750 METAR ESMX 240750Z 30007KT 250V350 7000 BR BKN005 BKN009 19/17 Q1016=
200708240720 METAR ESMX 240720Z 30008KT 5000 BR FEW004 BKN006 18/17 Q1016=
200708240650 METAR ESMX 240650Z 30006KT 5000 BR SCT004 BKN006 18/17 Q1016=
200708240620 METAR ESMX 240620Z 30004KT 4500 BR SCT004 BKN006 18/17 Q1016=
200708240550 METAR ESMX 240550Z 28003KT 4200 BR SCT007 BKN009 OVC017 17/17 Q1016=
200708240520 METAR ESMX 240520Z 30005KT 4500 BR FEW005 OVC007 17/17 Q1016=
200708240450 METAR ESMX 240450Z 30005KT 4200 BR FEW004 OVC005 17/16 Q1015=
200708240420 METAR ESMX 240420Z 30006KT 5000 BR BKN004 17/16 Q1015=
200708240350 METAR ESMX 240350Z 30006KT 4000 BR BKN001 OVC004 17/17 Q1015=
200708240320 METAR ESMX 240320Z AUTO 29006KT 1400NDV R01/P2000D R19/P2000N BR OVC001/// 17/17 Q1015=
200708240250 METAR ESMX 240250Z AUTO 28004KT 2200NDV BR OVC001/// 17/17 Q1015=
200708240220 METAR ESMX 240220Z AUTO 26004KT 6000NDV BR FEW003/// BKN004/// OVC006/// 17/16 Q1015=
200708240150 METAR ESMX 240150Z AUTO 25003KT 4800NDV BR FEW002/// SCT005/// BKN008/// 17/16 Q1015 RERA REDZ=
200708240120 METAR ESMX 240120Z AUTO 25004KT 4500NDV BR FEW003/// OVC005/// 17/16 Q1015=
200708240050 METAR ESMX 240050Z AUTO 25004KT 7000NDV BR FEW004/// BKN005/// OVC009/// 17/16 Q1015=
200708240020 METAR ESMX 240020Z 25005KT 5000 BR FEW003 OVC007 17/16 Q1015=
200708232350 METAR ESMX 232350Z 27005KT 5000 BR FEW002 BKN009 17/16 Q1015=
200708232320 METAR ESMX 232320Z 26006KT 210V290 4400 BR FEW002 OVC003 17/16 Q1015=
200708232250 METAR ESMX 232250Z 22004KT 3600 BR OVC001 17/16 Q1015=
200708232220 METAR ESMX 232220Z 23005KT 2700 BR OVC001 17/16 Q1015=
200708232150 METAR ESMX 232150Z 24004KT 220V280 1500 R19/P2000U OVC000 16/16 Q1016=
200708232120 METAR ESMX 232120Z 22004KT 190V260 0650 R19/P2000U FG VV002 16/16 Q1016=
200708232050 METAR ESMX 232050Z 26004KT 230V300 3200 BR OVC001 16/16 Q1015=
200708232020 METAR ESMX 232020Z 24006KT 2000 OVC001 16/16 Q1015=
200708231950 METAR ESMX 231950Z 24005KT 200V270 2300 BR BKN001 OVC003 16/16 Q1015=
200708231920 METAR ESMX 231920Z 21005KT 5000 BR BKN002 BKN025 16/16 Q1015=
200708231850 METAR ESMX 231850Z 25003KT 220V280 5000 BR SCT003 BKN022 17/16 Q1015=
200708231820 METAR ESMX 231820Z VRB02KT 8000 BR FEW003 OVC019 17/16 Q1015=
200708231750 METAR ESMX 231750Z 30004KT 270V340 9999 FEW003 OVC018 17/16 Q1015=
200708231720 METAR ESMX 231720Z 29004KT 9999 BKN014 17/16 Q1015=
200708231650 METAR ESMX 231650Z 28005KT 9999 FEW003 BKN015 17/16 Q1015 RERA=
200708231620 METAR ESMX 231620Z 30005KT 9999 FEW008 BKN017 17/16 Q1015 RERA=
200708231550 METAR ESMX 231550Z VRB02KT 5000 RA SCT022 BKN027 17/16 Q1015=
200708231520 METAR ESMX 231520Z 29004KT 5000 +RA FEW005 SCT032 BKN039 17/16 Q1015=
200708231450 METAR ESMX 231450Z 27004KT 4000 RA FEW003 SCT025 BKN045 17/16 Q1015=
200708231420 METAR ESMX 231420Z 28005KT 2900 +RA FEW005 SCT025 BKN045 17/16 Q1016=
200708231350 METAR ESMX 231350Z 28005KT 5000 -DZ FEW007 SCT011 BKN047 17/16 Q1016 RERA=
200708231320 METAR ESMX 231320Z VRB01KT 5000 RA FEW003 BKN008 17/16 Q1016=
200708231150 METAR ESMX 231150Z 34008KT 300V020 9999 FEW007 BKN009 OVC011 18/16 Q1016 RERA=
200708231120 METAR ESMX 231120Z 01008KT 2200 -RA BKN007 OVC010 18/16 Q1016=
200708231020 METAR ESMX 231020Z 36006KT 9999 -RA FEW007 SCT008 BKN010 18/16 Q1016=
200708230950 METAR ESMX 230950Z 03005KT 9999 OVC007 18/16 Q1017=
200708230920 METAR ESMX 230920Z 36005KT 9999 OVC006 18/16 Q1017 RERA REDZ=
200708230850 METAR ESMX 230850Z 01004KT 9999 OVC006 18/16 Q1017=
200708230820 METAR ESMX 230820Z 03004KT 360V070 9999 OVC006 18/16 Q1017=
200708230750 METAR ESMX 230750Z 04004KT 010V100 9999 OVC006 18/16 Q1017=
200708230720 METAR ESMX 230720Z 05006KT 020V080 9999 OVC005 17/16 Q1017=
200708230650 METAR ESMX 230650Z 04006KT 9999 OVC004 17/16 Q1016=
200708230620 METAR ESMX 230620Z 04008KT 9999 OVC004 17/16 Q1016=
200708230550 METAR ESMX 230550Z 05005KT 020V090 9999 OVC006 17/16 Q1017=
200708230520 METAR ESMX 230520Z 05005KT 360V080 9999 OVC006 17/16 Q1016=
200708230450 METAR ESMX 230450Z 10004KT 050V140 9999 OVC005 17/16 Q1017=
200708230420 METAR ESMX 230420Z 04008KT 010V070 9999 OVC005 17/16 Q1016=
200708230350 METAR ESMX 230350Z 06008KT 020V090 9999 OVC006 17/16 Q1016=
200708230320 METAR ESMX 230320Z AUTO 06006KT 020V090 9999NDV BKN005/// OVC007/// 17/16 Q1016=
200708230250 METAR ESMX 230250Z AUTO 04007KT 9999NDV OVC005/// 17/16 Q1016=
200708230220 METAR ESMX 230220Z AUTO 04008KT 9999NDV OVC004/// 17/16 Q1016=
200708230150 METAR ESMX 230150Z AUTO 05006KT 020V090 9999NDV OVC005/// 18/16 Q1016=
200708230120 METAR ESMX 230120Z AUTO 06005KT 030V100 9999NDV OVC006/// 18/16 Q1017=
200708230050 METAR ESMX 230050Z AUTO 06006KT 010V100 9999NDV OVC005/// 18/17 Q1017=
200708230020 METAR ESMX 230020Z 05006KT 020V100 9999 OVC006 18/16 Q1017=
200708222350 METAR ESMX 222350Z 07006KT 040V110 9999 BKN006 OVC009 18/16 Q1017=
200708222320 METAR ESMX 222320Z 06006KT 030V100 9999 FEW007 OVC013 18/16 Q1016=
200708222250 METAR ESMX 222250Z 06007KT 020V090 9999 SCT007 OVC011 18/16 Q1016=
200708222220 METAR ESMX 222220Z 06007KT 030V110 9999 FEW007 OVC010 18/16 Q1016=
200708222150 METAR ESMX 222150Z 04007KT 020V100 9999 SCT005 OVC010 18/17 Q1016=
200708222120 METAR ESMX 222120Z 05006KT 020V080 8000 BR FEW003 BKN005 17/17 Q1016=
200708222050 METAR ESMX 222050Z 04008KT 4100 -DZ BR OVC003 17/17 Q1016=
200708222020 METAR ESMX 222020Z 04006KT 330V080 3700 BR SCT003 OVC004 17/17 Q1017=
200708221950 METAR ESMX 221950Z 04008KT 7000 BR OVC004 18/17 Q1016=
200708221920 METAR ESMX 221920Z 04008KT 010V070 9000 BR OVC005 18/17 Q1016=
200708221850 METAR ESMX 221850Z 04011KT 360V070 9000 BR OVC005 18/17 Q1016=
200708221820 METAR ESMX 221820Z 04011KT 9999 OVC006 18/17 Q1016=
200708221750 METAR ESMX 221750Z 04010KT 9999 OVC007 18/17 Q1016=
200708221720 METAR ESMX 221720Z 03007KT 360V080 9999 BKN007 18/17 Q1016=
200708221650 METAR ESMX 221650Z 03010KT 9999 BR SCT005 BKN008 OVC010 18/17 Q1016=
200708221550 METAR ESMX 221550Z 04006KT 360V080 5000 BR SCT003 OVC005 18/17 Q1016=
200708221520 METAR ESMX 221520Z 04007KT 5000 BR OVC005 18/17 Q1016=
200708221450 METAR ESMX 221450Z 05006KT 010V080 9999 BKN007 OVC010 19/17 Q1016=
200708221420 METAR ESMX 221420Z 04008KT 9999 BKN008 OVC010 19/17 Q1016=
200708221350 METAR ESMX 221350Z 02007KT 9999 FEW010 SCT013 OVC016 20/18 Q1016=
200708221320 METAR ESMX 221320Z 04007KT 9999 FEW014 OVC018 20/17 Q1015=
200708221250 METAR ESMX 221250Z 02008KT 340V050 9999 FEW013 SCT020 BKN024 21/18 Q1015=
200708221220 METAR ESMX 221220Z 04011KT 9999 FEW015 BKN025 21/18 Q1015=
200708221150 METAR ESMX 221150Z 03009KT 010V080 9999 FEW014 BKN018 22/18 Q1015=
200708221120 METAR ESMX 221120Z 02006KT 9999 SCT015 BKN020 OVC025 21/18 Q1015=
200708221050 METAR ESMX 221050Z 06006KT 020V110 9999 SCT013 BKN017 OVC019 21/18 Q1015=
200708221020 METAR ESMX 221020Z 07006KT 010V120 9999 BKN013 BKN018 21/18 Q1014=
200708220950 METAR ESMX 220950Z 07007KT 020V100 9999 BKN010 OVC017 20/17 Q1014=
200708220920 METAR ESMX 220920Z 05005KT 9999 FEW009 BKN011 OVC015 20/18 Q1014=
200708220850 METAR ESMX 220850Z 05004KT 9999 FEW007 SCT009 BKN011 19/18 Q1014=
200708220820 METAR ESMX 220820Z 04005KT 9999 FEW003 SCT006 BKN008 18/17 Q1014=
200708220750 METAR ESMX 220750Z 04005KT 9999 OVC005 17/17 Q1014=
200708220720 METAR ESMX 220720Z 02005KT 9999 OVC005 17/16 Q1014=
200708220650 METAR ESMX 220650Z 04005KT 7000 BR FEW003 BKN005 17/16 Q1014=
200708220620 METAR ESMX 220620Z 02007KT 9999 FEW005 BKN007 17/16 Q1013=
200708220550 METAR ESMX 220550Z 01006KT 9999 FEW005 SCT007 BKN009 17/16 Q1013=
200708220520 METAR ESMX 220520Z 02005KT 9999 FEW005 SCT007 BKN011 17/16 Q1013=
200708220450 METAR ESMX 220450Z 02006KT 9999 SCT005 BKN008 OVC027 17/16 Q1013 RERA REDZ=
200708220420 METAR ESMX 220420Z 02008KT 7000 -SHRA FEW004 SCT006 BKN008 17/16 Q1013=
200708220350 METAR ESMX 220350Z 02009KT 7000 -SHRA FEW005 SCT007 BKN008 17/16 Q1013=
200708220320 METAR ESMX 220320Z AUTO 01008KT 6000NDV -RA SCT003/// BKN006/// OVC023/// 17/16 Q1013=
200708220250 METAR ESMX 220250Z AUTO 01008KT 6000NDV RA OVC003/// 17/17 Q1013=
200708220220 METAR ESMX 220220Z AUTO 02006KT 6000NDV -RA FEW003/// OVC005/// 17/17 Q1013=
200708220150 METAR ESMX 220150Z AUTO 03006KT 6000NDV -RA OVC003/// 17/17 Q1013 REDZ=
200708220120 METAR ESMX 220120Z AUTO 04007KT 360V080 6000NDV -DZ OVC003/// 18/17 Q1014 RERA=
200708220050 METAR ESMX 220050Z AUTO 04009KT 010V070 6000NDV BR OVC003/// 18/17 Q1013=
200708220020 METAR ESMX 220020Z AUTO 05006KT 020V080 8000NDV OVC004/// 18/17 Q1013=
200708212350 METAR ESMX 212350Z 05007KT 020V080 9000 OVC005 18/17 Q1013=
200708212320 METAR ESMX 212320Z 03007KT 9000 OVC006 18/17 Q1013=
200708212250 METAR ESMX 212250Z 04008KT 010V070 9000 OVC005 18/17 Q1014=
200708212220 METAR ESMX 212220Z 04007KT 9999 OVC006 18/17 Q1013=
200708212120 METAR ESMX 212120Z 04008KT 010V070 8000 -RA OVC005 18/17 Q1013=
200708212050 METAR ESMX 212050Z 04010KT 350V080 9999 OVC006 18/17 Q1014=
200708212020 METAR ESMX 212020Z 05009KT 020V090 9999 OVC007 18/17 Q1014=
200708211950 METAR ESMX 211950Z 05010KT 020V110 9999 OVC007 18/17 Q1014=
200708211920 METAR ESMX 211920Z 04010KT 010V080 9999 BKN006 OVC009 18/17 Q1013=
200708211820 METAR ESMX 211820Z 05009KT 9999 OVC006 18/17 Q1013=
200708211750 METAR ESMX 211750Z 04010KT 010V070 9999 OVC005 18/17 Q1014=
200708211720 METAR ESMX 211720Z 05009KT 010V080 9000 BR OVC006 18/17 Q1014=
200708211650 METAR ESMX 211650Z 05010KT 010V080 9000 BR OVC006 18/17 Q1013=
200708211620 METAR ESMX 211620Z 05011KT 020V080 9999 OVC006 18/17 Q1013=
200708211550 METAR ESMX 211550Z 04011KT 010V070 9999 OVC007 19/17 Q1013=
200708211520 METAR ESMX 211520Z 03011KT 340V060 9999 OVC008 19/17 Q1013=
200708211450 METAR ESMX 211450Z 05011KT 010V090 9999 OVC009 19/17 Q1013=
200708211420 METAR ESMX 211420Z 05012KT 360V080 9999 OVC010 19/17 Q1013=
200708211350 METAR ESMX 211350Z 04012KT 020V100 9999 OVC011 19/17 Q1013=
200708211320 METAR ESMX 211320Z 04012KT 010V080 9999 OVC013 20/17 Q1013=
200708211250 METAR ESMX 211250Z 05010G20KT 010V080 9999 OVC015 20/17 Q1013=
200708211150 METAR ESMX 211150Z 05010KT 020V090 9999 OVC016 21/17 Q1012=
200708211120 METAR ESMX 211120Z 06012KT 020V090 9999 BKN015 BKN020 21/17 Q1012=
200708211050 METAR ESMX 211050Z 05011KT 010V080 9999 FEW025 BKN050 21/16 Q1012=
200708211020 METAR ESMX 211020Z 05014KT 020V080 9999 FEW024 22/16 Q1012=
200708210920 METAR ESMX 210920Z 04013KT 360V060 9999 FEW018 SCT021 21/16 Q1013=
200708210850 METAR ESMX 210850Z 04011KT 010V070 9999 FEW015 SCT020 BKN045 20/16 Q1013=
200708210820 METAR ESMX 210820Z 04012KT 9999 BKN015 19/15 Q1013=
200708210750 METAR ESMX 210750Z 04011KT 010V070 9999 BKN012 OVC018 18/15 Q1013=
200708210720 METAR ESMX 210720Z 04014KT 9999 OVC012 17/15 Q1013=
200708210650 METAR ESMX 210650Z 04012KT 010V070 9999 OVC012 17/15 Q1013=
200708210620 METAR ESMX 210620Z 04010KT 9999 OVC012 17/15 Q1014=
200708210550 METAR ESMX 210550Z 04010KT 9999 BKN012 OVC028 17/15 Q1014=
200708210520 METAR ESMX 210520Z 04010KT 9999 FEW011 OVC033 17/15 Q1014=
200708210450 METAR ESMX 210450Z 04009KT 9999 SCT011 BKN040 17/15 Q1014=
200708210420 METAR ESMX 210420Z 03008KT 9999 FEW009 SCT011 BKN014 17/15 Q1014=
200708210350 METAR ESMX 210350Z 03007KT 9999 FEW009 BKN011 BKN034 17/15 Q1014=
200708210320 METAR ESMX 210320Z 04007KT 9999 FEW007 SCT009 BKN030 17/15 Q1014=
200708210250 METAR ESMX 210250Z AUTO 03007KT 9999NDV FEW006/// SCT008/// BKN009/// 17/16 Q1014=
200708210220 METAR ESMX 210220Z AUTO 03007KT 9999NDV SCT007/// BKN010/// OVC012/// 16/15 Q1014=
200708210150 METAR ESMX 210150Z AUTO 04006KT 9999NDV FEW007/// SCT013/// OVC041/// 16/15 Q1014=
200708210120 METAR ESMX 210120Z AUTO 04007KT 010V070 9999NDV BKN014/// BKN092/// 16/15 Q1014=
200708210050 METAR ESMX 210050Z AUTO 04006KT 010V070 9999NDV -DZ FEW013/// SCT053/// BKN100/// 16/15 Q1014 RERA=
200708210020 METAR ESMX 210020Z 04007KT CAVOK 17/15 Q1014=
200708202350 METAR ESMX 202350Z 04006KT CAVOK 17/14 Q1014=
200708202320 METAR ESMX 202320Z 04008KT CAVOK 17/14 Q1014=
200708202250 METAR ESMX 202250Z 05006KT CAVOK 17/14 Q1014=
200708202220 METAR ESMX 202220Z 05005KT CAVOK 17/14 Q1014=
200708202150 METAR ESMX 202150Z 06006KT 9999 FEW027 SCT031 BKN077 17/14 Q1014=
200708202120 METAR ESMX 202120Z 06006KT 360V100 9999 SCT025 BKN039 OVC097 17/14 Q1014=
200708202050 METAR ESMX 202050Z 05006KT 9999 SCT023 BKN100 17/14 Q1014=
200708202020 METAR ESMX 202020Z 05005KT 9999 SCT023 BKN034 17/14 Q1014=
200708201950 METAR ESMX 201950Z 07006KT 9999 SCT023 BKN110 18/14 Q1014=
200708201920 METAR ESMX 201920Z 06006KT CAVOK 18/14 Q1014=
200708201850 METAR ESMX 201850Z 05006KT CAVOK 18/13 Q1014=
200708201820 METAR ESMX 201820Z 07005KT CAVOK 18/13 Q1013=
200708201750 METAR ESMX 201750Z 07006KT 0 CAVOK 19/13 Q1013=
200708201720 METAR ESMX 201720Z 07005KT CAVOK 19/13 Q1013=
200708201650 METAR ESMX 201650Z 08006KT 030V120 9999 FEW045 20/13 Q1013=
200708201620 METAR ESMX 201620Z 07006KT 020V110 CAVOK 20/12 Q1013=
200708201550 METAR ESMX 201550Z 10007KT 030V140 9999 FEW045 BKN100 21/12 Q1013=
200708201520 METAR ESMX 201520Z 10008KT 050V140 9999 SCT045 BKN100 21/12 Q1013=
200708201450 METAR ESMX 201450Z 10007KT 050V140 CAVOK 21/12 Q1013=
200708201420 METAR ESMX 201420Z 09007G18KT 040V150 CAVOK 21/12 Q1013=
200708201350 METAR ESMX 201350Z 09009KT 030V140 CAVOK 22/12 Q1012=
200708201320 METAR ESMX 201320Z 11008KT 070V200 9999 SCT045 BKN086 22/12 Q1012=
200708201250 METAR ESMX 201250Z 13008KT 070V170 9999 FEW040 BKN060 22/11 Q1012=
200708201220 METAR ESMX 201220Z 10008G18KT 050V140 9999 FEW035 BKN050 21/09 Q1013=
200708201150 METAR ESMX 201150Z 12008KT 9999 FEW045 BKN090 22/10 Q1013=
200708201120 METAR ESMX 201120Z 12008KT 070V160 9999 FEW040 22/11 Q1013=
200708201050 METAR ESMX 201050Z 11011G22KT 070V220 9999 SCT045 22/11 Q1013=
200708201020 METAR ESMX 201020Z 12008KT 070V170 9999 SCT045 22/11 Q1013=
200708200950 METAR ESMX 200950Z 10007KT 050V150 9999 FEW035 21/14 Q1013=
200708200920 METAR ESMX 200920Z 10006KT 050V180 CAVOK 20/14 Q1013=
200708200850 METAR ESMX 200850Z 09006KT 030V140 CAVOK 20/14 Q1013=
200708200820 METAR ESMX 200820Z 08007KT 030V150 CAVOK 18/14 Q1013=
200708200750 METAR ESMX 200750Z 06005KT 350V110 CAVOK 18/14 Q1013=
200708200720 METAR ESMX 200720Z 08008KT 030V140 CAVOK 18/14 Q1013=
200708200650 METAR ESMX 200650Z 09006KT 030V130 9999 FEW054 BKN097 18/14 Q1013=
200708200620 METAR ESMX 200620Z 09005KT 9999 FEW009 BKN092 16/14 Q1013=
200708200550 METAR ESMX 200550Z 09004KT 9999 BKN007 16/14 Q1013=
200708200520 METAR ESMX 200520Z 09005KT 030V150 9999 BKN007 OVC010 15/14 Q1013=
200708200450 METAR ESMX 200450Z 06004KT 340V130 9999 BKN007 15/14 Q1013=
200708200420 METAR ESMX 200420Z 04004KT 9999 BKN007 OVC058 15/13 Q1013=
200708200350 METAR ESMX 200350Z 06004KT 9999 BKN007 14/13 Q1013=
200708200320 METAR ESMX 200320Z AUTO 08004KT 020V130 9999NDV BKN006/// OVC009/// 14/13 Q1013=
200708200250 METAR ESMX 200250Z AUTO 08005KT 030V120 9999NDV BKN006/// OVC009/// 14/13 Q1014=
200708200220 METAR ESMX 200220Z AUTO 08004KT 020V150 9999NDV OVC005/// 14/13 Q1014=
200708200150 METAR ESMX 200150Z AUTO 08003KT 030V120 9999NDV BKN006/// BKN008/// 14/13 Q1014=
200708200120 METAR ESMX 200120Z AUTO 06003KT 010V110 9999NDV FEW006/// BKN007/// 13/13 Q1014=
200708200050 METAR ESMX 200050Z AUTO 09003KT 010V170 9999NDV OVC006/// 14/13 Q1015=
200708200020 METAR ESMX 200020Z 09004KT 9999 BKN006 14/13 Q1015=
200708192350 METAR ESMX 192350Z 09003KT 9999 BKN006 14/13 Q1015=
200708192320 METAR ESMX 192320Z 08004KT 9999 BKN006 14/13 Q1015=
200708192250 METAR ESMX 192250Z 11005KT 9999 OVC006 14/13 Q1015=
200708192220 METAR ESMX 192220Z 12005KT 9999 BKN005 14/13 Q1015=
200708192150 METAR ESMX 192150Z 12003KT 9999 FEW006 SCT008 13/12 Q1015=
200708192120 METAR ESMX 192120Z VRB02KT 9999 FEW006 13/12 Q1015=
200708192050 METAR ESMX 192050Z 11003KT 9999 FEW010 13/12 Q1015=
200708192020 METAR ESMX 192020Z 12004KT CAVOK 14/12 Q1016=
200708191950 METAR ESMX 191950Z 11003KT CAVOK 14/11 Q1016=
200708191920 METAR ESMX 191920Z 12003KT CAVOK 14/11 Q1016=
200708191850 METAR ESMX 191850Z 11003KT CAVOK 14/11 Q1016=
200708191820 METAR ESMX 191820Z 13003KT CAVOK 15/11 Q1016=
200708191750 METAR ESMX 191750Z 14003KT CAVOK 17/11 Q1015=
200708191720 METAR ESMX 191720Z 14004KT CAVOK 17/11 Q1015=
200708191650 METAR ESMX 191650Z 16004KT CAVOK 18/11 Q1016=
200708191620 METAR ESMX 191620Z 15005KT 120V200 CAVOK 19/11 Q1016=
200708191550 METAR ESMX 191550Z 16006KT 9999 FEW035 SCT090 19/10 Q1016=
200708191520 METAR ESMX 191520Z 17006KT 140V200 9999 FEW035 BKN084 19/11 Q1016=
200708191450 METAR ESMX 191450Z 16006KT 110V190 9999 FEW035 BKN082 19/11 Q1016=
200708191350 METAR ESMX 191350Z 19007KT 9999 FEW035 BKN086 19/12 Q1016=
200708191320 METAR ESMX 191320Z 14006KT 9999 FEW041 BKN083 19/11 Q1016=
200708191250 METAR ESMX 191250Z 16006KT 9999 FEW035 SCT065 19/12 Q1016=
200708191220 METAR ESMX 191220Z 16006KT 9999 FEW035CB SCT070 18/11 Q1017=
200708191150 METAR ESMX 191150Z 19007KT 9999 FEW037 SCT041 BKN049 18/11 Q1017=
200708191120 METAR ESMX 191120Z 16005KT 120V190 9999 FEW037 SCT045 BKN051 18/10 Q1017=
200708191050 METAR ESMX 191050Z AUTO 15007KT 100V200 9999NDV SCT035/// BKN052/// 19/10 Q1017=
200708191020 METAR ESMX 191020Z 16007KT 120V200 9999 FEW037 SCT043 19/12 Q1017=
200708190920 METAR ESMX 190920Z 16008KT 9999 SCT033 18/10 Q1017=
200708190850 METAR ESMX 190850Z 14007KT 100V180 9999 FEW025 18/10 Q1017=
200708190820 METAR ESMX 190820Z 17008KT 9999 FEW025 17/10 Q1017=
200708190750 METAR ESMX 190750Z 17005KT 120V210 CAVOK 16/11 Q1017=
200708190720 METAR ESMX 190720Z 17005KT 130V200 CAVOK 15/11 Q1018=
200708190650 METAR ESMX 190650Z AUTO 18005KT 140V200 9999NDV FEW086/// 14/11 Q1018=
200708190620 METAR ESMX 190620Z AUTO 16004KT 120V190 9999NDV BKN085/// 14/11 Q1017=
200708190550 METAR ESMX 190550Z AUTO 18003KT 9999NDV OVC084/// 13/11 Q1017=
200708190520 METAR ESMX 190520Z AUTO 18004KT 9999NDV OVC084/// 13/11 Q1017=
200708190450 METAR ESMX 190450Z AUTO 16005KT 130V190 9999NDV OVC084/// 12/11 Q1017=
200708190420 METAR ESMX 190420Z AUTO 16004KT 120V190 9999NDV OVC084/// 12/11 Q1017=
200708190350 METAR ESMX 190350Z AUTO 16003KT 9999NDV OVC084/// 12/11 Q1017=
200708190320 METAR ESMX 190320Z AUTO 15003KT 120V200 9999NDV OVC085/// 11/10 Q1017=
200708190250 METAR ESMX 190250Z AUTO 15003KT 9999NDV OVC084/// 10/09 Q1017=
200708190220 METAR ESMX 190220Z AUTO 18003KT 9999NDV OVC084/// 10/09 Q1017=
200708190150 METAR ESMX 190150Z AUTO 17003KT 9999NDV OVC084/// 10/09 Q1017=
200708190120 METAR ESMX 190120Z AUTO 17003KT 9999NDV OVC085/// 09/09 Q1017=
200708190050 METAR ESMX 190050Z AUTO 17003KT 9999NDV OVC082/// 09/08 Q1017=
200708190020 METAR ESMX 190020Z AUTO 16002KT 9999NDV BKN082/// 08/08 Q1017=
200708182350 METAR ESMX 182350Z AUTO 16003KT 9999NDV NCD 08/07 Q1017=
200708182320 METAR ESMX 182320Z AUTO 17004KT 9999NDV NCD 07/07 Q1017=
200708182250 METAR ESMX 182250Z AUTO 18004KT 9999NDV NCD 08/07 Q1017=
200708182220 METAR ESMX 182220Z AUTO 18005KT 9999NDV NCD 09/08 Q1016=
200708182150 METAR ESMX 182150Z AUTO 19004KT 9999NDV NCD 08/07 Q1016=
200708182120 METAR ESMX 182120Z AUTO 21004KT 9999NDV NCD 09/08 Q1016=
200708182050 METAR ESMX 182050Z AUTO 20004KT 9999NDV NCD 10/08 Q1016=
200708182020 METAR ESMX 182020Z AUTO 21005KT 9999NDV NCD 10/08 Q1016=
200708181950 METAR ESMX 181950Z AUTO 22003KT 9999NDV NCD 11/09 Q1016=
200708181920 METAR ESMX 181920Z AUTO 21004KT 9999NDV NCD 12/09 Q1016=
200708181850 METAR ESMX 181850Z AUTO 22005KT 9999NDV BKN077/// 13/09 Q1016=
200708181820 METAR ESMX 181820Z AUTO 24004KT 9999NDV NCD 14/09 Q1016=
200708181750 METAR ESMX 181750Z AUTO 25005KT 9999NDV FEW049/// 15/09 Q1015=
200708181720 METAR ESMX 181720Z AUTO 23007KT 9999NDV FEW036/// BKN072/// 15/09 Q1015=
200708181650 METAR ESMX 181650Z AUTO 24006KT 210V290 9999NDV BKN066/// 16/09 Q1015=
200708181620 METAR ESMX 181620Z AUTO 26009KT 220V300 9999NDV FEW039/// BKN071/// 16/08 Q1015=
200708181550 METAR ESMX 181550Z AUTO 25006KT 9999NDV OVC068/// 16/09 Q1015=
200708181520 METAR ESMX 181520Z AUTO 28007KT 9999NDV BKN067/// 16/09 Q1015=
200708181450 METAR ESMX 181450Z AUTO 27011KT 230V300 9999NDV FEW042/// OVC070/// 17/09 Q1015=
200708181420 METAR ESMX 181420Z AUTO 27008KT 220V300 9999NDV FEW038/// BKN070/// 18/09 Q1014=
200708181350 METAR ESMX 181350Z AUTO 27011KT 240V300 9999NDV SCT065/// 17/09 Q1014=
200708181320 METAR ESMX 181320Z AUTO 25008KT 220V290 9999NDV FEW032/// SCT037/// BKN050/// 18/09 Q1014=
200708181250 METAR ESMX 181250Z AUTO 26010KT 9999NDV SCT073/// 18/08 Q1014=
200708181220 METAR ESMX 181220Z AUTO 27011KT 230V300 9999NDV FEW031/// SCT056/// OVC070/// 17/10 Q1014=
200708181150 METAR ESMX 181150Z AUTO 25011KT 200V290 9999NDV FEW038/// BKN076/// 16/09 Q1014=
200708181120 METAR ESMX 181120Z AUTO 26009KT 210V300 9999NDV FEW031/// SCT065/// 17/10 Q1014=
200708181050 METAR ESMX 181050Z AUTO 24008KT 190V270 9999NDV FEW025/// BKN054/// 16/10 Q1014=
200708181020 METAR ESMX 181020Z AUTO 21008KT 170V230 9999NDV FEW049/// SCT061/// 14/12 Q1014 RERA REDZ=
200708180950 METAR ESMX 180950Z AUTO 22008KT 170V260 8000NDV -RA FEW021/// SCT041/// OVC046/// 13/11 Q1014=
200708180920 METAR ESMX 180920Z AUTO 25011KT 210V280 9999NDV FEW025/// SCT031/// BKN047/// 15/09 Q1013=
200708180850 METAR ESMX 180850Z AUTO 23009KT 190V260 9999NDV FEW020/// SCT026/// 16/10 Q1013=
200708180820 METAR ESMX 180820Z AUTO 21010KT 9999NDV FEW016/// SCT021/// BKN067/// 15/11 Q1013=
200708180750 METAR ESMX 180750Z AUTO 23009KT 200V260 9999NDV FEW014/// SCT021/// BKN067/// 14/11 Q1013=
200708180720 METAR ESMX 180720Z AUTO 23009KT 200V270 9999NDV FEW015/// OVC065/// 13/11 Q1013=
200708180650 METAR ESMX 180650Z AUTO 21008KT 9999NDV BKN062/// 13/11 Q1013=
200708180620 METAR ESMX 180620Z AUTO 20009KT 170V230 9999NDV FEW005/// SCT008/// BKN066/// 12/11 Q1013=
200708180550 METAR ESMX 180550Z AUTO 20009KT 9999NDV SCT004/// 12/11 Q1013=
200708180520 METAR ESMX 180520Z AUTO 19007KT 9999NDV FEW023/// SCT035/// 11/11 Q1013=
200708180450 METAR ESMX 180450Z AUTO 19005KT 9999NDV FEW025/// 10/10 Q1012=
200708180420 METAR ESMX 180420Z AUTO 21005KT 9999NDV BKN063/// 11/10 Q1012=
200708180350 METAR ESMX 180350Z AUTO 21005KT 9999NDV SCT065/// 10/09 Q1012=
200708180320 METAR ESMX 180320Z AUTO 20005KT 9999NDV FEW071/// 09/09 Q1012=
200708180250 METAR ESMX 180250Z AUTO 21004KT 9999NDV SCT067/// 10/09 Q1012=
200708180220 METAR ESMX 180220Z AUTO 20005KT 9999NDV BKN059/// 10/09 Q1012=
200708180150 METAR ESMX 180150Z AUTO 20006KT 9999NDV SCT057/// 10/10 Q1012=
200708180120 METAR ESMX 180120Z AUTO 20005KT 9999NDV FEW057/// 10/09 Q1012=
200708180050 METAR ESMX 180050Z AUTO 22004KT 9999NDV FEW025/// SCT057/// 11/10 Q1012 RERA=
200708180020 METAR ESMX 180020Z AUTO 24006KT 9999NDV FEW020/// SCT037/// BKN048/// 11/10 Q1012=
200708172350 METAR ESMX 172350Z AUTO 20006KT 9999NDV SCT064/// 11/10 Q1012=
200708172320 METAR ESMX 172320Z AUTO 21006KT 9999NDV FEW054/// BKN067/// 12/11 Q1012=
200708172250 METAR ESMX 172250Z AUTO 20006KT 9999NDV SCT067/// 11/10 Q1012=
200708172220 METAR ESMX 172220Z AUTO 18006KT 9999NDV NCD 11/10 Q1012=
200708172150 METAR ESMX 172150Z AUTO 19005KT 9999NDV SCT058/// BKN076/// 12/11 Q1012 RERA REDZ REUP=
200708172120 METAR ESMX 172120Z AUTO 19005KT 9999NDV FEW059/// BKN075/// 12/11 Q1012=
200708172050 METAR ESMX 172050Z AUTO 20005KT 9999NDV NCD 12/11 Q1011=
200708172020 METAR ESMX 172020Z AUTO 20006KT 9999NDV SCT080/// 12/11 Q1011=
200708171950 METAR ESMX 171950Z AUTO 21006KT 9999NDV FEW076/// 12/11 Q1011=
200708171920 METAR ESMX 171920Z AUTO 18006KT 9999NDV NCD 13/11 Q1011=
200708171850 METAR ESMX 171850Z AUTO 19005KT 9999NDV NCD 13/11 Q1011=
200708171820 METAR ESMX 171820Z AUTO 19006KT 9999NDV FEW030/// 14/12 Q1011=
200708171750 METAR ESMX 171750Z AUTO 20006KT 9999NDV FEW016/// SCT028/// 14/12 Q1011=
200708171720 METAR ESMX 171720Z 20010KT 9999 FEW033 SCT049 14/12 Q1011=
200708171650 METAR ESMX 171650Z 20011KT 9999 FEW030 15/12 Q1011=
200708171620 METAR ESMX 171620Z 19010KT 9999 FEW030 16/12 Q1011=
200708171550 METAR ESMX 171550Z 19009KT 9999 FEW032 14/12 Q1011=
200708171520 METAR ESMX 171520Z 20010KT 9999 FEW021CB SCT052 15/12 Q1011=
200708171450 METAR ESMX 171450Z 17011KT 9999 FEW034CB SCT042 BKN061 16/11 Q1010=
200708171420 METAR ESMX 171420Z 21011KT 180V250 9999 FEW040 17/09 Q1010=
200708171350 METAR ESMX 171350Z 24011G22KT 210V270 9999 FEW040 17/09 Q1010=
200708171320 METAR ESMX 171320Z 24008KT 210V290 9999 FEW020CB 16/11 Q1010 RESH=
200708171250 METAR ESMX 171250Z 21012KT 170V240 8000 SHRA SCT026 BKN032CB 15/12 Q1010=
200708171220 METAR ESMX 171220Z 20016KT 9999 FEW024 SCT045CB 17/10 Q1010=
200708171150 METAR ESMX 171150Z 19015KT 9999 SCT039CB BKN063 19/10 Q1010=
200708171120 METAR ESMX 171120Z 21016KT 9999 FEW042CB SCT050 BKN073 19/10 Q1010=
200708171050 METAR ESMX 171050Z 20016KT 170V240 9999 FEW045CB 18/09 Q1010=
200708170950 METAR ESMX 170950Z 20014KT 9999 SCT031 BKN052 18/11 Q1010=
200708170920 METAR ESMX 170920Z 23009KT 9999 FEW025 SCT032 BKN037 17/11 Q1010=
200708170820 METAR ESMX 170820Z 21015KT 190V250 9999 SCT021 BKN028 16/11 Q1010=
200708170750 METAR ESMX 170750Z 21012KT 9999 FEW021 BKN026 16/12 Q1009=
200708170720 METAR ESMX 170720Z 22014KT 9999 FEW015 SCT019 BKN021 14/11 Q1009=
200708170650 METAR ESMX 170650Z 21010KT 9999 BKN014 14/11 Q1009=
200708170620 METAR ESMX 170620Z 20011KT 9999 FEW013 SCT016 BKN028 14/12 Q1009=
200708170550 METAR ESMX 170550Z 21009KT 9999 SCT009 BKN030 14/11 Q1009=
200708170520 METAR ESMX 170520Z 21010KT 9999 FEW010 SCT025 13/11 Q1008=
200708170450 METAR ESMX 170450Z 22009KT 9999 FEW010 SCT025 BKN035 12/11 Q1008=
200708170420 METAR ESMX 170420Z 20008KT 9999 FEW010 BKN030 12/11 Q1008=
200708170350 METAR ESMX 170350Z 19008KT 9999 FEW019 SCT024 12/11 Q1008=
200708170320 METAR ESMX 170320Z AUTO 20008KT 9999NDV FEW019/// SCT024/// 12/11 Q1007=
200708170250 METAR ESMX 170250Z AUTO 23011KT 9999NDV FEW012/// SCT018/// 12/11 Q1007=
200708170220 METAR ESMX 170220Z AUTO 22011KT 9999NDV FEW010/// SCT015/// BKN017/// 12/11 Q1007=
200708170150 METAR ESMX 170150Z AUTO 21011KT 9999NDV FEW009/// BKN011/// BKN015/// 13/11 Q1006=
200708170120 METAR ESMX 170120Z AUTO 21011KT 9999NDV FEW011/// 13/11 Q1006=
200708170050 METAR ESMX 170050Z AUTO 21009KT 170V240 9999NDV FEW010/// SCT014/// 12/11 Q1006=
200708170020 METAR ESMX 170020Z AUTO 23009KT 9999NDV SCT013/// BKN018/// 13/12 Q1006=
200708162350 METAR ESMX 162350Z 21011KT 9999 FEW011 BKN020 13/12 Q1006=
200708162320 METAR ESMX 162320Z 20009KT 9999 FEW010 SCT020 14/13 Q1005=
200708162250 METAR ESMX 162250Z 24007KT 9999 FEW008 SCT057 14/13 Q1005 RERA=
200708162220 METAR ESMX 162220Z 20006KT CAVOK 14/13 Q1005=
200708162150 METAR ESMX 162150Z 20005KT 9999 FEW010 14/13 Q1004=
200708162120 METAR ESMX 162120Z 23006KT 9999 FEW006 SCT009 BKN014 14/13 Q1004=
200708162050 METAR ESMX 162050Z 24006KT 210V280 9999 FEW005 SCT007 BKN010 15/14 Q1004=
200708162020 METAR ESMX 162020Z 22007KT 9999 FEW007 BKN055 14/13 Q1003 RERA REDZ=
200708161950 METAR ESMX 161950Z 24006KT 200V280 9999 FEW010 BKN040 BKN060 15/14 Q1003 REDZ RERA=
200708161920 METAR ESMX 161920Z 25008KT 210V280 9999 -RA FEW010 SCT020 BKN035 15/14 Q1002 REDZ=
200708161850 METAR ESMX 161850Z 22008KT 9999 -RA FEW010 BKN025 16/15 Q1002=
200708161820 METAR ESMX 161820Z 19009KT 9999 SCT040 18/14 Q1001=
200708161750 METAR ESMX 161750Z 18012KT 9999 FEW030 18/14 Q1001=
200708161720 METAR ESMX 161720Z 19015KT 9999 FEW025 SCT030 19/14 Q1001=
200708161650 METAR ESMX 161650Z 20013KT 9999 FEW022 SCT030 19/15 Q1001=
200708161620 METAR ESMX 161620Z 20012KT 9999 FEW023 SCT035 21/15 Q1001=
200708161550 METAR ESMX 161550Z 20014KT 9999 FEW028 SCT085 20/15 Q1001=
200708161520 METAR ESMX 161520Z 20009KT 9999 FEW034 SCT059 BKN100 20/15 Q1001=
200708161450 METAR ESMX 161450Z 20014KT 9999 FEW035 SCT041 BKN091 21/14 Q1001=
200708161420 METAR ESMX 161420Z 20012KT 9999 SCT033 21/14 Q1001=
200708161350 METAR ESMX 161350Z 20012KT 9999 FEW029 SCT034 BKN045 21/14 Q1001=
200708161320 METAR ESMX 161320Z 21013KT 9999 FEW033 SCT040 22/15 Q1001=
200708161250 METAR ESMX 161250Z 21013KT 9999 SCT030 21/14 Q1001=
200708161220 METAR ESMX 161220Z 21013KT 9999 FEW023 SCT029 21/15 Q1000=
200708161150 METAR ESMX 161150Z 20015KT 9999 SCT024 21/16 Q1000=
200708161120 METAR ESMX 161120Z 20009KT 9999 FEW015 SCT100 19/15 Q1000=
200708161050 METAR ESMX 161050Z 21011KT 180V250 9999 FEW020 BKN064 BKN150 20/14 Q1000=
200708161020 METAR ESMX 161020Z 21012KT 9999 FEW017 BKN025 BKN150 20/16 Q1000 RERA=
200708160950 METAR ESMX 160950Z 20012KT 9999 FEW014 SCT021 BKN065 20/17 Q0999=
200708160920 METAR ESMX 160920Z 20012KT 9999 FEW011 BKN017 19/17 Q0999=
200708160850 METAR ESMX 160850Z 18016KT 9999 FEW010 BKN013 19/18 Q0999=
200708160820 METAR ESMX 160820Z 17012KT 9999 FEW010 BKN015 19/17 Q0999=
200708160750 METAR ESMX 160750Z 18011KT 150V210 9999 VCSH FEW006 BKN011 19/17 Q0999 RERA=
200708160720 METAR ESMX 160720Z 17010KT 140V200 9999 FEW007 BKN010 19/17 Q0998=
200708160650 METAR ESMX 160650Z 17014KT 140V200 9999 FEW006 BKN014 19/17 Q0998=
200708160620 METAR ESMX 160620Z 18011G22KT 140V200 9000 BR OVC005 18/17 Q0998=
200708160550 METAR ESMX 160550Z 15009KT 110V190 6000 BR BKN004 BKN008 18/17 Q0998=
200708160520 METAR ESMX 160520Z 15009KT 110V180 6000 BR FEW003 BKN006 18/17 Q0998=
200708160450 METAR ESMX 160450Z 14006KT 110V180 5000 -RA FEW004 BKN007 18/17 Q0998=
200708160420 METAR ESMX 160420Z 17007KT 140V210 3800 RA OVC005 18/17 Q0999=
200708160350 METAR ESMX 160350Z 18006KT 4500 BR FEW003 BKN007 17/17 Q1000=
200708160320 METAR ESMX 160320Z AUTO 16005KT 4400NDV BR OVC004/// 17/16 Q0999=
200708160250 METAR ESMX 160250Z AUTO VRB02KT 9000NDV OVC006/// 17/16 Q1000=
200708160220 METAR ESMX 160220Z AUTO VRB02KT 7000NDV BR FEW006/// OVC008/// 16/16 Q1000=
200708160150 METAR ESMX 160150Z AUTO 13003KT 100V170 9999NDV FEW015/// OVC025/// 16/16 Q1000=
200708160120 METAR ESMX 160120Z AUTO 11002KT 5000NDV BR OVC027/// 16/15 Q1000=
200708160050 METAR ESMX 160050Z AUTO 13003KT 100V170 9999NDV FEW020/// OVC026/// 16/15 Q1001 REDZ RERA=
200708160020 METAR ESMX 160020Z 12005KT 100V160 8000 DZ FEW015 SCT041 BKN048 16/15 Q1001 RERA=
200708152350 METAR ESMX 152350Z VRB02KT CAVOK 17/15 Q1001=
200708152320 METAR ESMX 152320Z 15005KT CAVOK 17/15 Q1001=
200708152250 METAR ESMX 152250Z 15006KT 120V190 CAVOK 16/15 Q1001=
200708152220 METAR ESMX 152220Z 16005KT CAVOK 16/15 Q1001=
200708152150 METAR ESMX 152150Z 16005KT CAVOK 16/15 Q1002=
200708152120 METAR ESMX 152120Z 17005KT CAVOK 16/15 Q1002=
200708152050 METAR ESMX 152050Z 17004KT CAVOK 16/15 Q1002=
200708152020 METAR ESMX 152020Z 17004KT CAVOK 16/15 Q1002=
200708151950 METAR ESMX 151950Z 17006KT 140V210 CAVOK 17/16 Q1002=
200708151920 METAR ESMX 151920Z 18007KT 9999 FEW020 SCT040 17/16 Q1002=
200708151850 METAR ESMX 151850Z 19010KT 9999 FEW015 SCT020 BKN090 18/16 Q1002=
200708151820 METAR ESMX 151820Z 20010KT 9999 FEW013 SCT020 BKN090 18/17 Q1001=
200708151750 METAR ESMX 151750Z 19008KT 9999 FEW007 BKN012 19/17 Q1001=
200708151720 METAR ESMX 151720Z 18009KT 160V220 9999 FEW008 BKN012 19/17 Q1000=
200708151650 METAR ESMX 151650Z 17008KT 9999 FEW007 BKN015 19/17 Q1001=
200708151620 METAR ESMX 151620Z 17009KT 9999 FEW005 BKN010 18/18 Q1001=
200708151550 METAR ESMX 151550Z 18009KT 140V200 6000 -SHRA FEW004 BKN006 18/17 Q1001 RERA=
200708151520 METAR ESMX 151520Z 16009KT 120V190 3700 SHRA BR FEW004 BKN007 18/17 Q1001=
200708151450 METAR ESMX 151450Z 17010KT 4600 SHRA BR SCT006 BKN018CB 18/17 Q1001=
200708151420 METAR ESMX 151420Z 16012KT 120V190 5000 SHRA FEW010 BKN020CB 18/17 Q1001=
200708151350 METAR ESMX 151350Z 16011KT 140V200 9000 -RA FEW025 BKN043 20/16 Q1001=
200708151250 METAR ESMX 151250Z 16009KT 120V190 9999 FEW030 BKN055 20/17 Q1001 RERA=
200708151220 METAR ESMX 151220Z 15011KT 8000 RA FEW027 BKN060 20/16 Q1002=
200708151150 METAR ESMX 151150Z 15008KT 110V180 CAVOK 21/16 Q1002=
200708151120 METAR ESMX 151120Z 16008KT 100V190 9999 BKN065 21/16 Q1002=
200708151020 METAR ESMX 151020Z 16006KT 110V190 9999 -RA NSC 19/15 Q1003=
200708150950 METAR COR ESMX 150950Z 16009KT 110V190 9999 -RA FEW027 BKN080 20/14 Q1003=
200708150920 METAR ESMX 150920Z 15009KT 110V190 9999 FEW025 BKN100 19/15 Q1004=
200708150850 METAR ESMX 150850Z 15008KT 9999 BKN100 19/15 Q1004=
200708150820 METAR ESMX 150820Z 15009KT 110V180 9999 SCT052 BKN150 18/15 Q1004=
200708150750 METAR ESMX 150750Z 16010KT 110V190 9999 BKN047 18/15 Q1005=
200708150720 METAR ESMX 150720Z 15009KT 110V190 9999 FEW047 BKN200 18/15 Q1005=
200708150650 METAR ESMX 150650Z 14006KT 9999 FEW008 BKN200 17/14 Q1005=
200708150620 METAR ESMX 150620Z 15008KT 110V180 CAVOK 16/14 Q1006=
200708150550 METAR ESMX 150550Z 15007KT 9999 FEW007 16/14 Q1006=
200708150520 METAR ESMX 150520Z 12005KT 9999 FEW048 15/13 Q1006=
200708150450 METAR ESMX 150450Z 14005KT CAVOK 14/13 Q1006=
200708150420 METAR ESMX 150420Z 14006KT CAVOK 14/13 Q1007=
200708150350 METAR ESMX 150350Z 14005KT CAVOK 14/13 Q1007=
200708141920 METAR ESMX 141920Z 00000KT CAVOK 13/11 Q1011=
200708141850 METAR ESMX 141850Z 22003KT CAVOK 14/12 Q1011=
200708141820 METAR ESMX 141820Z 21002KT CAVOK 17/12 Q1011=
200708141750 METAR ESMX 141750Z 23002KT CAVOK 19/12 Q1011=
200708141720 METAR ESMX 141720Z 26003KT 210V280 CAVOK 21/09 Q1011=
200708141650 METAR ESMX 141650Z 23003KT 120V280 CAVOK 22/09 Q1011=
200708141620 METAR ESMX 141620Z 17003KT CAVOK 21/10 Q1011=
200708141550 METAR ESMX 141550Z 19007KT 9999 FEW045 20/10 Q1011=
200708141520 METAR ESMX 141520Z 18004KT 140V230 9999 FEW045 SCT080 22/10 Q1011=
200708141450 METAR ESMX 141450Z 26005KT 210V300 9999 FEW046 SCT100 22/10 Q1011=
200708141420 METAR ESMX 141420Z 20004KT 160V250 9999 FEW045 SCT075 21/11 Q1012=
200708141350 METAR ESMX 141350Z 26004KT 9999 FEW043 SCT078 22/12 Q1012=
200708141320 METAR ESMX 141320Z 24005KT 9999 FEW045 SCT076 21/12 Q1012=
200708141250 METAR ESMX 141250Z 29005KT 240V330 9999 FEW043 SCT077 22/11 Q1012=
200708141220 METAR ESMX 141220Z 23005KT 170V300 9999 FEW044 22/11 Q1012=
200708141150 METAR ESMX 141150Z 26004KT 210V300 9999 SCT045 21/10 Q1012=
200708141120 METAR ESMX 141120Z 27007KT 9999 FEW041 22/12 Q1012=
200708141050 METAR ESMX 141050Z 22006KT 9999 FEW040 20/11 Q1012=
200708141020 METAR ESMX 141020Z 24006KT 200V280 9999 BKN036 21/12 Q1012=
200708140950 METAR ESMX 140950Z 27004KT 9999 SCT030 20/12 Q1012=
200708140920 METAR ESMX 140920Z 30003KT 250V350 9999 FEW035 20/12 Q1012=
200708140850 METAR ESMX 140850Z 30008KT 9999 FEW025 SCT035 19/14 Q1012=
200708140820 METAR ESMX 140820Z 24005KT 9999 FEW014 SCT020 19/14 Q1012=
200708140750 METAR ESMX 140750Z VRB02KT 9999 FEW015 SCT040 19/15 Q1012=
200708140720 METAR ESMX 140720Z VRB02KT CAVOK 18/14 Q1012=
200708140650 METAR ESMX 140650Z VRB01KT CAVOK 17/15 Q1012=
200708140620 METAR ESMX 140620Z VRB02KT CAVOK 16/15 Q1012=
200708140550 METAR ESMX 140550Z VRB01KT CAVOK 15/14 Q1011=
200708140520 METAR ESMX 140520Z 16002KT CAVOK 14/14 Q1011=
200708140450 METAR ESMX 140450Z VRB01KT CAVOK 13/13 Q1011=
200708140420 METAR ESMX 140420Z VRB02KT CAVOK 13/12 Q1011=
200708140350 METAR ESMX 140350Z 00000KT CAVOK 13/12 Q1011=
200708140320 METAR ESMX 140320Z AUTO 21002KT 8000NDV BR BKN091/// 13/12 Q1011=
200708140250 METAR ESMX 140250Z AUTO VRB02KT 5000NDV BR BKN098/// 12/12 Q1011=
200708140220 METAR ESMX 140220Z AUTO 00000KT 7000NDV BR SCT110/// 12/12 Q1011=
200708140150 METAR ESMX 140150Z AUTO 17002KT 9999NDV BR NCD 12/11 Q1011=
200708140120 METAR ESMX 140120Z AUTO 00000KT 9999NDV NCD 12/11 Q1010=
200708140050 METAR ESMX 140050Z AUTO 19003KT 8000NDV BR NCD 12/12 Q1011=
200708140020 METAR ESMX 140020Z 20003KT CAVOK 13/12 Q1011=
200708132350 METAR ESMX 132350Z 23002KT CAVOK 13/12 Q1011=
200708132320 METAR ESMX 132320Z 24003KT CAVOK 14/12 Q1011=
200708132250 METAR ESMX 132250Z 22004KT CAVOK 14/12 Q1010=
200708132220 METAR ESMX 132220Z 23004KT 9999 SCT049 13/12 Q1010=
200708132150 METAR ESMX 132150Z 21003KT CAVOK 13/12 Q1010=
200708132120 METAR ESMX 132120Z 21005KT CAVOK 14/12 Q1010=
200708132050 METAR ESMX 132050Z 20003KT 9999 FEW044 13/12 Q1010=
200708131950 METAR ESMX 131950Z 18001KT CAVOK 14/13 Q1010=
200708131920 METAR ESMX 131920Z 18002KT CAVOK 15/13 Q1010=
200708131850 METAR ESMX 131850Z 00000KT CAVOK 16/13 Q1010=
200708131820 METAR ESMX 131820Z 00000KT CAVOK 18/14 Q1010=
200708131750 METAR ESMX 131750Z 24003KT CAVOK 21/11 Q1009=
200708131720 METAR ESMX 131720Z 26004KT CAVOK 22/11 Q1009=
200708131650 METAR ESMX 131650Z 27006KT CAVOK 22/10 Q1009=
200708131620 METAR ESMX 131620Z 24006KT 9999 FEW048 22/11 Q1009=
200708131550 METAR ESMX 131550Z 26006KT 210V300 9999 FEW048 23/12 Q1009=
200708131520 METAR ESMX 131520Z 23009KT 200V260 CAVOK 23/11 Q1009=
200708131450 METAR ESMX 131450Z 26006KT CAVOK 22/12 Q1009=
200708131420 METAR ESMX 131420Z 26007KT 200V290 9999 SCT045 23/12 Q1008=
200708131350 METAR ESMX 131350Z 25008KT 200V290 9999 FEW030 SCT050 23/11 Q1008=
200708131320 METAR ESMX 131320Z 28006KT 250V320 CAVOK 23/13 Q1008=
200708131250 METAR ESMX 131250Z 29006KT 9999 FEW045 22/11 Q1008=
200708131220 METAR ESMX 131220Z 32005KT 230V020 9999 FEW045 22/11 Q1008=
200708131150 METAR ESMX 131150Z 28006KT 250V320 9999 SCT040 22/12 Q1008=
200708131120 METAR ESMX 131120Z 23004KT 150V280 9999 SCT040 21/12 Q1008=
200708131050 METAR ESMX 131050Z 29007KT 9999 FEW035 SCT055 21/13 Q1008=
200708131020 METAR ESMX 131020Z 27006KT 230V300 9999 FEW035 20/13 Q1008=
200708130950 METAR ESMX 130950Z 26005KT 200V290 9999 FEW035 20/12 Q1008=
200708130920 METAR ESMX 130920Z 29005KT 260V320 CAVOK 20/13 Q1008=
200708130850 METAR ESMX 130850Z 30004KT 210V010 CAVOK 19/12 Q1008=
200708130820 METAR ESMX 130820Z 29006KT CAVOK 19/14 Q1008=
200708130750 METAR ESMX 130750Z 27004KT 230V330 9999 FEW009 SCT100 17/14 Q1008=
200708130720 METAR ESMX 130720Z 27005KT 9999 FEW008 BKN100 16/14 Q1007=
200708130650 METAR ESMX 130650Z 27006KT 9999 FEW006 BKN100 16/14 Q1007=
200708130620 METAR ESMX 130620Z 26005KT 9999 FEW006 BKN100 16/14 Q1007=
200708130550 METAR ESMX 130550Z 26003KT 9999 SCT005 BKN100 15/14 Q1007=
200708130520 METAR ESMX 130520Z 25003KT 230V290 9000 BR FEW004 BKN110 15/14 Q1007=
200708130450 METAR ESMX 130450Z 26003KT 9000 BR FEW005 BKN110 15/14 Q1006=
200708130420 METAR ESMX 130420Z VRB01KT 9000 BR FEW005 15/14 Q1006=
200708130350 METAR ESMX 130350Z 27002KT 9000 BR FEW007 BKN150 14/13 Q1006=
200708130320 METAR ESMX 130320Z AUTO 22003KT 7000NDV NCD 14/13 Q1006=
200708130250 METAR ESMX 130250Z AUTO 23002KT 5000NDV NCD 14/13 Q1006=
200708130220 METAR ESMX 130220Z AUTO 25002KT 9999NDV NCD 15/13 Q1006=
200708130150 METAR ESMX 130150Z AUTO 27003KT 9999NDV NCD 15/14 Q1006=
200708130120 METAR ESMX 130120Z AUTO 27002KT 9999NDV SCT043/// 15/13 Q1006=
200708130050 METAR ESMX 130050Z 29003KT 9999 FEW046 SCT080 16/14 Q1006=
200708130020 METAR ESMX 130020Z 29004KT 9999 SCT014 BKN020 16/14 Q1006=
200708122350 METAR ESMX 122350Z 28006KT 9999 SCT011 OVC016 17/15 Q1006=
200708122320 METAR ESMX 122320Z 27006KT 9999 BKN007 OVC010 17/15 Q1006=
200708122250 METAR ESMX 122250Z 27006KT 9999 FEW007 OVC008 17/16 Q1006=
200708122220 METAR ESMX 122220Z 27005KT 9000 SCT005 BKN008 OVC010 17/16 Q1006=
200708122150 METAR ESMX 122150Z 27006KT 9000 BKN005 OVC007 18/16 Q1006=
200708122120 METAR ESMX 122120Z 27006KT 8000 BR BKN005 OVC008 18/17 Q1006=
200708122050 METAR ESMX 122050Z 26005KT 9000 BR FEW008 BKN010 18/17 Q1006=
200708122020 METAR ESMX 122020Z 25004KT 8000 BR FEW006 SCT008 BKN009 18/17 Q1006=
200708121950 METAR ESMX 121950Z 27004KT 3700 BR BKN006 18/17 Q1006=
200708121920 METAR ESMX 121920Z 26005KT 6000 BR SCT007 BKN010 19/17 Q1006=
200708121850 METAR ESMX 121850Z 28004KT 9999 FEW013 BKN015 19/18 Q1006=
200708121820 METAR ESMX 121820Z 28004KT 9999 BKN016 19/18 Q1006=
200708121750 METAR ESMX 121750Z 28004KT 9999 BKN015 19/18 Q1006=
200708121720 METAR ESMX 121720Z 29006KT 9999 BKN017 20/18 Q1005=
200708121650 METAR ESMX 121650Z 26004KT 9999 FEW007 BKN011 20/18 Q1005=
200708121620 METAR ESMX 121620Z 25005KT 9999 VCSH SCT008 SCT018CB 20/19 Q1006=
200708121550 METAR ESMX 121550Z 35004KT 9999 VCSH FEW008 SCT016CB BKN024 20/19 Q1005=
200708121520 METAR ESMX 121520Z 33008KT 9999 VCSH FEW006 SCT019CB BKN026 20/18 Q1005 RERA=
200708121450 METAR ESMX 121450Z 34005KT 8000 -SHRA FEW010 SCT020CB BKN080 20/19 Q1005 RERA=
200708121420 METAR ESMX 121420Z 36004KT 9999 -SHRA FEW008 FEW018CB BKN080 20/18 Q1005 RERA=
200708121350 METAR ESMX 121350Z 32005KT 290V360 7000 SHRA SCT011 SCT020CB BKN043 21/19 Q1006=
200708121320 METAR ESMX 121320Z 23007KT 8000 -SHRA SCT013 BKN019CB 21/19 Q1005=
200708121250 METAR ESMX 121250Z 23004KT 210V280 9999 VCSH BKN017 BKN068 22/18 Q1005=
200708121220 METAR ESMX 121220Z VRB02KT 9999 FEW016 BKN026 22/19 Q1006=
200708121150 METAR ESMX 121150Z VRB02KT 9999 FEW016 SCT029 BKN086 23/18 Q1006=
200708121120 METAR ESMX 121120Z 26003KT 190V300 9999 FEW015 BKN069 22/19 Q1006=
200708121050 METAR ESMX 121050Z 30003KT 260V320 9999 -SHRA FEW012 SCT031 BKN064 22/18 Q1006=
200708121020 METAR ESMX 121020Z 30005KT 9999 FEW014 BKN040 21/18 Q1006=
200708120950 METAR ESMX 120950Z 29003KT 260V340 9999 FEW011 BKN024 21/18 Q1006=
200708120920 METAR ESMX 120920Z 30004KT 250V340 9999 BKN010 OVC020 21/18 Q1006=
200708120850 METAR ESMX 120850Z 32003KT 290V350 9999 SCT010 BKN024 21/17 Q1006=
200708120820 METAR ESMX 120820Z VRB02KT 9999 FEW011 BKN030 21/18 Q1006=
200708120750 METAR ESMX 120750Z VRB02KT 9999 SCT008 BKN032 21/18 Q1006=
200708120720 METAR ESMX 120720Z VRB02KT 9999 SCT008 BKN032 20/18 Q1006=
200708120650 METAR ESMX 120650Z AUTO VRB01KT 9999NDV FEW007/// BKN009/// OVC031/// 20/18 Q1006=
200708120620 METAR ESMX 120620Z AUTO 00000KT 9999NDV FEW005/// SCT006/// OVC032/// 20/18 Q1006=
200708120550 METAR ESMX 120550Z AUTO 00000KT 9999NDV FEW009/// SCT011/// BKN013/// 19/18 Q1006=
200708120520 METAR ESMX 120520Z AUTO 00000KT 8000NDV BR FEW006/// SCT007/// BKN012/// 19/18 Q1006=
200708120450 METAR ESMX 120450Z AUTO 00000KT 4400NDV BR FEW004/// SCT005/// BKN007/// 18/18 Q1006=
200708120420 METAR ESMX 120420Z AUTO 00000KT 4300NDV BR FEW008/// SCT010/// BKN015/// 18/18 Q1006=
200708120350 METAR ESMX 120350Z AUTO 00000KT 5000NDV BR FEW008/// SCT017/// BKN021/// 18/17 Q1006=
200708120320 METAR ESMX 120320Z AUTO 00000KT 5000NDV BR FEW015/// BKN018/// OVC025/// 18/17 Q1006=
200708120250 METAR ESMX 120250Z AUTO 00000KT 3000NDV BR FEW005/// SCT007/// BKN018/// 18/18 Q1006=
200708120220 METAR ESMX 120220Z AUTO 00000KT 1700NDV BR SCT005/// BKN007/// OVC009/// 18/18 Q1006=
200708120150 METAR ESMX 120150Z AUTO 00000KT 5000NDV BR FEW004/// SCT010/// OVC020/// 18/18 Q1006=
200708120120 METAR ESMX 120120Z AUTO 00000KT 7000NDV BR FEW004/// OVC019/// 19/18 Q1007=
200708120050 METAR ESMX 120050Z AUTO 00000KT 8000NDV BR FEW006/// SCT012/// BKN015/// 19/18 Q1006=
200708120020 METAR ESMX 120020Z AUTO 00000KT 4300NDV BR FEW008/// SCT010/// BKN012/// 19/18 Q1006=
200708112350 METAR ESMX 112350Z AUTO 00000KT 9000NDV BR FEW009/// SCT011/// BKN014/// 19/18 Q1007=
200708112320 METAR ESMX 112320Z AUTO 00000KT 7000NDV BR FEW009/// OVC012/// 19/18 Q1007=
200708112250 METAR ESMX 112250Z AUTO 00000KT 8000NDV BR FEW005/// SCT008/// BKN009/// 19/18 Q1007=
200708112220 METAR ESMX 112220Z AUTO VRB01KT 8000NDV BR SCT005/// BKN007/// OVC011/// 19/18 Q1007=
200708112150 METAR ESMX 112150Z AUTO VRB02KT 8000NDV BR FEW004/// SCT006/// BKN011/// 19/18 Q1007=
200708112120 METAR ESMX 112120Z AUTO VRB01KT 9999NDV BR FEW007/// BKN014/// OVC025/// 19/18 Q1007=
200708112050 METAR ESMX 112050Z AUTO VRB02KT 9999NDV BR FEW012/// SCT018/// BKN024/// 19/18 Q1007=
200708112020 METAR ESMX 112020Z AUTO 08003KT 050V120 9000NDV -RA SCT015/// BKN019/// BKN030/// 19/18 Q1007 REDZ=
200708111950 METAR ESMX 111950Z AUTO 09002KT 6000NDV FEW016/// SCT027/// BKN048/// 19/18 Q1007=
200708111920 METAR ESMX 111920Z AUTO 07001KT 8000NDV BR SCT049/// 19/18 Q1007=
200708111850 METAR ESMX 111850Z AUTO 06002KT 5000NDV FEW036/// OVC055/// 20/18 Q1007=
200708111820 METAR ESMX 111820Z AUTO 07003KT 030V110 9999NDV FEW037/// BKN052/// 20/18 Q1007=
200708111750 METAR ESMX 111750Z AUTO 06003KT 030V090 9999NDV FEW057/// 21/18 Q1007=
200708111720 METAR ESMX 111720Z AUTO 05004KT 020V080 9999NDV SCT024/// BKN052/// BKN067/// 21/19 Q1007=
200708111650 METAR ESMX 111650Z AUTO 06003KT 030V100 9999NDV FEW030/// SCT041/// BKN065/// 22/19 Q1007=
200708111620 METAR ESMX 111620Z AUTO 07004KT 9999NDV FEW048/// 22/19 Q1007=
200708111550 METAR ESMX 111550Z AUTO 06003KT 030V100 9999NDV FEW055/// 23/20 Q1007=
200708111520 METAR ESMX 111520Z AUTO VRB02KT 9999NDV FEW044/// 23/20 Q1007=
200708111450 METAR ESMX 111450Z AUTO VRB02KT 9999NDV FEW029/// 23/21 Q1007=
200708111420 METAR ESMX 111420Z AUTO VRB02KT 9999NDV NCD 23/21 Q1007=
200708111350 METAR ESMX 111350Z AUTO 02003KT 9999NDV NCD 22/20 Q1007=
200708111320 METAR ESMX 111320Z AUTO 03004KT 350V060 9999NDV FEW052/// 22/20 Q1008=
200708111250 METAR ESMX 111250Z AUTO VRB01KT 9999NDV -RA NCD 21/19 Q1008=
200708111220 METAR ESMX 111220Z AUTO 09009G19KT 030V120 0500NDV R01/P2000D R19/P2000 +RA FEW031/// SCT098/// 21/19 Q1008=
200708111150 METAR ESMX 111150Z AUTO 03008KT 9999NDV NCD 25/20 Q1008=
200708111120 METAR ESMX 111120Z AUTO 04007KT 020V090 9999NDV FEW061/// 23/19 Q1008=
200708111050 METAR ESMX 111050Z AUTO 02008KT 350V050 9999NDV FEW027/// SCT078/// 25/19 Q1009=
200708111020 METAR ESMX 111020Z AUTO 01006KT 340V040 9999NDV FEW064/// 25/19 Q1009=
200708110950 METAR ESMX 110950Z AUTO 01008KT 340V040 9999NDV SCT060/// 24/19 Q1009=
200708110920 METAR ESMX 110920Z AUTO 05006KT 010V080 9999NDV FEW058/// 23/19 Q1009=
200708110850 METAR ESMX 110850Z AUTO 06007KT 9999NDV FEW061/// BKN074/// 22/18 Q1009=
200708110820 METAR ESMX 110820Z AUTO 03009KT 9999NDV OVC065/// 22/18 Q1009=
200708110750 METAR ESMX 110750Z AUTO 03010KT 9999NDV FEW009/// BKN062/// 21/18 Q1010=
200708110720 METAR ESMX 110720Z AUTO 02008KT 9999NDV SCT006/// BKN009/// 20/18 Q1010=
200708110650 METAR ESMX 110650Z AUTO 03008KT 9999NDV BKN006/// 20/18 Q1010=
200708110620 METAR ESMX 110620Z AUTO 05006KT 020V080 9999NDV BKN006/// 19/17 Q1010=
200708110550 METAR ESMX 110550Z AUTO 04007KT 9999NDV BKN006/// BKN053/// 18/17 Q1010=
200708110520 METAR ESMX 110520Z AUTO 03007KT 350V060 9999NDV BKN006/// BKN110/// 18/17 Q1010=
200708110450 METAR ESMX 110450Z AUTO 03006KT 9999NDV FEW006/// SCT056/// 18/17 Q1010=
200708110420 METAR ESMX 110420Z AUTO 03007KT 9999NDV FEW055/// SCT100/// 18/17 Q1010=
200708110350 METAR ESMX 110350Z AUTO 03006KT 9999NDV FEW100/// 18/17 Q1010=
200708110320 METAR ESMX 110320Z AUTO 03005KT 9999NDV NCD 17/17 Q1010=
200708110250 METAR ESMX 110250Z AUTO 04003KT 9999NDV SCT095/// 17/17 Q1010=
200708110220 METAR ESMX 110220Z AUTO 04004KT 010V070 9999NDV BKN049/// 18/17 Q1010=
200708110150 METAR ESMX 110150Z AUTO 02003KT 9999NDV BR BKN048/// 18/17 Q1011=
200708110120 METAR ESMX 110120Z AUTO 03004KT 9000NDV BR NCD 17/17 Q1011=
200708110050 METAR ESMX 110050Z AUTO 01003KT 8000NDV BR NCD 17/17 Q1011=
200708110020 METAR ESMX 110020Z AUTO VRB02KT 9999NDV FEW041/// 18/17 Q1011=
200708102350 METAR ESMX 102350Z AUTO 04003KT 9999NDV FEW041/// 18/17 Q1011=
200708102320 METAR ESMX 102320Z AUTO 05004KT 360V100 9999NDV NCD 18/17 Q1011=
200708102250 METAR ESMX 102250Z AUTO 04005KT 010V080 9999NDV NCD 18/17 Q1012=
200708102220 METAR ESMX 102220Z AUTO 04004KT 360V080 9999NDV NCD 18/17 Q1012=
200708102150 METAR ESMX 102150Z AUTO 04005KT 9999NDV FEW058/// 18/17 Q1012=
200708102120 METAR ESMX 102120Z AUTO 03004KT 9999NDV FEW043/// BKN052/// 18/17 Q1012=
200708102050 METAR ESMX 102050Z AUTO 04004KT 010V070 9999NDV NCD 19/17 Q1013=
200708102020 METAR ESMX 102020Z AUTO 05003KT 020V080 9999NDV NCD 19/17 Q1013=
200708101950 METAR ESMX 101950Z AUTO 06004KT 9999NDV NCD 19/17 Q1013=
200708101920 METAR ESMX 101920Z AUTO 07004KT 050V110 9999NDV NCD 20/17 Q1012=
200708101850 METAR ESMX 101850Z AUTO 08004KT 9999NDV FEW039/// 21/18 Q1012=
200708101820 METAR ESMX 101820Z AUTO 08006KT 030V140 9999NDV FEW020/// SCT032/// 22/18 Q1012=
200708101750 METAR ESMX 101750Z AUTO 09006KT 9999NDV FEW019/// SCT029/// BKN040/// 22/18 Q1012=
200708101720 METAR ESMX 101720Z AUTO 09004KT 050V130 9999NDV FEW019/// BKN044/// 22/19 Q1012=
200708101650 METAR ESMX 101650Z 08006KT 360V140 9999 FEW023 SCT050 23/19 Q1012=
200708101620 METAR ESMX 101620Z 08007KT 020V140 9999 SCT021 23/19 Q1011=
200708101550 METAR ESMX 101550Z 09005KT 050V140 9999 FEW023 SCT055 24/19 Q1011=
200708101520 METAR ESMX 101520Z 09007KT 060V130 9999 FEW019 BKN056 23/19 Q1011=
200708101450 METAR ESMX 101450Z 05006KT 010V100 9999 FEW017 SCT064 23/20 Q1012=
200708101420 METAR ESMX 101420Z 04006KT 9999 VCSH FEW013 FEW015CB BKN024 22/20 Q1012=
200708101350 METAR ESMX 101350Z 05007KT 020V090 9999 FEW011 BKN019 23/20 Q1012=
200708101320 METAR ESMX 101320Z 01007KT 9999 FEW009 BKN016 23/20 Q1012=
200708101250 METAR ESMX 101250Z 03007KT 9000 BR FEW006 BKN011 22/20 Q1012=
200708101220 METAR ESMX 101220Z 03006KT 9000 BR FEW007 BKN010 22/20 Q1013=
200708101150 METAR ESMX 101150Z 06005KT 020V100 8000 BR FEW006 OVC010 21/19 Q1013=
200708101120 METAR ESMX 101120Z 05006KT 9999 FEW006 BKN008 OVC010 21/20 Q1013=
200708101050 METAR ESMX 101050Z 05006KT 010V120 9999 BR BKN005 OVC009 21/19 Q1013=
200708101020 METAR ESMX 101020Z 04004KT 020V080 9000 BR BKN005 OVC008 21/19 Q1013=
200708100950 METAR ESMX 100950Z 05004KT 360V100 8000 BR FEW003 BKN005 OVC007 20/20 Q1013=
200708100920 METAR ESMX 100920Z 06004KT 020V110 6000 BR OVC003 20/19 Q1013=
200708100850 METAR ESMX 100850Z 04005KT 7000 BR OVC004 20/19 Q1013=
200708100820 METAR ESMX 100820Z 06005KT 020V100 7000 BR OVC004 20/19 Q1013=
200708100750 METAR ESMX 100750Z 04005KT 360V060 5000 BR OVC004 19/19 Q1013=
200708100720 METAR ESMX 100720Z 05005KT 020V100 7000 BR OVC004 19/19 Q1013=
200708100650 METAR ESMX 100650Z 05006KT 020V110 7000 BR OVC003 19/18 Q1013=
200708100620 METAR ESMX 100620Z 04006KT 8000 BR OVC004 19/18 Q1013 RERA REDZ=
200708100550 METAR ESMX 100550Z 03006KT 360V070 5000 -RA OVC006 18/18 Q1013=
200708100520 METAR ESMX 100520Z 03006KT 5000 RA SCT004 BKN009 18/18 Q1013=
200708100450 METAR ESMX 100450Z 03005KT 7000 -RA FEW004 SCT007 BKN020 18/18 Q1013=
200708100420 METAR ESMX 100420Z 02006KT 5000 RA FEW006 BKN009 18/18 Q1013=
200708100350 METAR ESMX 100350Z 05005KT 6000 RA BKN008 19/18 Q1013=
200708100320 METAR ESMX 100320Z AUTO 03004KT 350V060 9000NDV -RA FEW008/// SCT011/// BKN013/// 19/18 Q1013 REUP REDZ=
200708100250 METAR ESMX 100250Z AUTO 04006KT 9999NDV -DZ OVC007/// 19/18 Q1013 RERA=
200708100220 METAR ESMX 100220Z AUTO 02005KT 9999NDV BKN008/// OVC100/// 19/18 Q1014=
200708100150 METAR ESMX 100150Z AUTO 02005KT 9999NDV BKN100/// 19/17 Q1014=
200708100120 METAR ESMX 100120Z AUTO 02006KT 9999NDV FEW011/// BKN110/// 19/17 Q1014=
200708100050 METAR ESMX 100050Z AUTO 03006KT 9999NDV FEW011/// 19/17 Q1014=
200708100020 METAR ESMX 100020Z 03006KT 9999 FEW014 SCT025 BKN053 19/17 Q1014=
200708092350 METAR ESMX 092350Z 03005KT CAVOK 19/17 Q1015=
200708092320 METAR ESMX 092320Z 02006KT CAVOK 19/18 Q1015=
200708092250 METAR ESMX 092250Z 03005KT 9999 BKN048 20/18 Q1015=
200708092220 METAR ESMX 092220Z 03005KT 9999 SCT047 BKN100 20/18 Q1015=
200708092150 METAR ESMX 092150Z 04004KT 9999 BKN047 20/18 Q1015=
200708092120 METAR ESMX 092120Z 03004KT 9999 BKN046 20/18 Q1015=
200708092050 METAR ESMX 092050Z 04004KT 9999 BKN047 20/18 Q1015=
200708092020 METAR ESMX 092020Z 03003KT CAVOK 20/18 Q1015=
200708091950 METAR ESMX 091950Z 03004KT CAVOK 19/18 Q1015=
200708091920 METAR ESMX 091920Z 04003KT CAVOK 20/18 Q1015=
200708091850 METAR ESMX 091850Z 04004KT 9999 FEW043 SCT086 21/17 Q1015=
200708091820 METAR ESMX 091820Z 07004KT CAVOK 21/17 Q1015=
200708091750 METAR ESMX 091750Z 05004KT CAVOK 21/18 Q1015=
200708091721 METAR COR ESMX 091721Z 08005KT 9999 FEW058 BKN097 21/18 Q1015=
200708091650 METAR ESMX 091650Z 05003KT CAVOK 22/18 Q1015=
200708091620 METAR ESMX 091620Z 06004KT CAVOK 22/18 Q1015=
200708091550 METAR ESMX 091550Z 05004KT 9999 FEW030 BKN110 22/18 Q1015=
200708091520 METAR ESMX 091520Z 07006KT 040V110 9999 FEW030 22/18 Q1015=
200708091450 METAR ESMX 091450Z 07009KT 020V120 9999 FEW030 25/18 Q1015=
200708091405 METAR ESMX 091405Z 05007KT 010V080 9999 FEW035 26/17 Q1015=
200708091320 METAR ESMX 091320Z 05006KT 010V100 9999 FEW035 25/17 Q1015=
200708091250 METAR ESMX 091250Z 35006KT 9999 FEW030 25/18 Q1016=
200708091220 METAR ESMX 091220Z 35007KT 320V020 9999 FEW030 25/17 Q1016=
200708091150 METAR ESMX 091150Z 35007KT CAVOK 24/18 Q1016=
200708091120 METAR ESMX 091120Z 36005KT 330V040 CAVOK 24/18 Q1016=
200708091050 METAR ESMX 091050Z 34005KT CAVOK 23/18 Q1016=
200708091020 METAR ESMX 091020Z 04005KT CAVOK 22/18 Q1016=
200708090950 METAR ESMX 090950Z 34004KT CAVOK 21/17 Q1016=
200708090920 METAR ESMX 090920Z 36005KT 9999 FEW004 20/17 Q1016=
200708090850 METAR ESMX 090850Z 01004KT 330V050 9999 SCT005 19/17 Q1016=
200708090820 METAR ESMX 090820Z 05004KT 020V110 9000 BR OVC002 17/17 Q1016=
200708090750 METAR ESMX 090750Z 02004KT 3000 BR OVC002 17/16 Q1016=
200708090720 METAR ESMX 090720Z 02004KT 5000 BR VV002 17/17 Q1016=
200708090650 METAR ESMX 090650Z AUTO 03005KT 0650NDV R01/1100 R19/1300VP2000U FG VV001 16/16 Q1016=
200708090620 METAR ESMX 090620Z 36005KT 0350NDV R01/0800 R19/0650 FG VV002 16/16 Q1016=
200708090550 METAR ESMX 090550Z 03004KT 350V060 0400 R01/0650 R19/0750N FG VV002 16/15 Q1016=
200708090520 METAR ESMX 090520Z 04005KT 010V070 0300 R01/0550 R19/0750 FG VV002 16/16 Q1016=
200708090450 METAR ESMX 090450Z 05004KT 020V080 0500 R01/0800V1200N R19/1000N FG VV002 16/15 Q1016=
200708090420 METAR ESMX 090420Z 03004KT 0650 R01/0800V1400 R19/P2000D FG VV002 16/16 Q1016=
200708090350 METAR ESMX 090350Z 04003KT 010V080 0500 R01/0800V1300N R19/0900V1800D FG VV002 16/15 Q1016=
200708090320 METAR ESMX 090320Z AUTO 04003KT 350V070 0500NDV R01/P2000N R19/1100V1600D FG VV001 16/16 Q1016=
200708090250 METAR ESMX 090250Z AUTO 03003KT 0650NDV R01/P2000D R19/1900U VV001 16/16 Q1016=
200708090220 METAR ESMX 090220Z AUTO 06002KT 1200NDV R01/P2000U R19/P2000N VV001 16/16 Q1016=
200708090150 METAR ESMX 090150Z AUTO 11003KT 080V160 1800NDV OVC001/// 16/16 Q1016=
200708090120 METAR ESMX 090120Z AUTO 11004KT 1900NDV VV001 16/16 Q1016=
200708090050 METAR ESMX 090050Z AUTO 08003KT 050V130 1300NDV R01/P2000U R19/P2000U VV002 17/16 Q1016=
200708090020 METAR ESMX 090020Z 09003KT 2500 BR FEW001 BKN002 17/16 Q1016=
200708082350 METAR ESMX 082350Z VRB02KT 2200 BR FEW001 BKN002 17/16 Q1016=
200708082320 METAR ESMX 082320Z VRB02KT 2500 BR FEW001 BKN002 17/17 Q1016=
200708082250 METAR ESMX 082250Z 11004KT 1800 BR FEW001 BKN003 17/17 Q1015=
200708082220 METAR ESMX 082220Z 10003KT 8000 BR SCT006 17/16 Q1015=
200708082150 METAR ESMX 082150Z VRB01KT CAVOK 17/16 Q1015=
200708082120 METAR ESMX 082120Z 13003KT CAVOK 18/17 Q1015=
200708082050 METAR ESMX 082050Z 12003KT 9999 FEW012 18/17 Q1015=
200708082020 METAR ESMX 082020Z VRB02KT 9999 FEW013 SCT020TCU 19/18 Q1015=
200708081950 METAR ESMX 081950Z VRB01KT 9999 TS /SCT023CB BKN040 20/18 Q1015=
200708081920 METAR ESMX 081920Z VRB02KT 9999 VCTS FEW024 SCT028CB BKN049 20/18 Q1015=
200708081850 METAR ESMX 081850Z 08003KT 9999 FEW030CB SCT030TCU 20/18 Q1014=
200708081820 METAR ESMX 081820Z 07003KT 9999 FEW028 BKN030TCU 21/19 Q1014=
200708081750 METAR ESMX 081750Z 05003KT 9999 FEW026 SCT029TCU 21/19 Q1014=
200708081720 METAR ESMX 081720Z 01001KT 9999 SCT027TCU 22/19 Q1014=
200708081650 METAR ESMX 081650Z 05002KT 9999 FEW025 21/19 Q1014=
200708081620 METAR ESMX 081620Z 07003KT CAVOK 22/19 Q1013=
200708081550 METAR ESMX 081550Z VRB02KT CAVOK 23/19 Q1013=
200708081520 METAR ESMX 081520Z VRB01KT 9999 FEW025 24/18 Q1013=
200708081450 METAR ESMX 081450Z VRB02KT 9999 FEW025 SCT040 24/19 Q1013=
200708081420 METAR ESMX 081420Z 13004KT 090V170 9999 FEW020 SCT030 23/19 Q1014=
200708081350 METAR ESMX 081350Z 13003KT 070V230 9999 FEW020 SCT035 21/19 Q1014=
200708081320 METAR ESMX 081320Z 14003KT 090V180 9999 FEW020 SCT030 BKN080 20/18 Q1014 RERA=
200708081250 METAR ESMX 081250Z 15006KT 110V170 9999 RA FEW018 SCT030CB BKN035 22/18 Q1014=
200708081220 METAR ESMX 081220Z 16006KT 9999 FEW020 SCT031 BKN070 23/19 Q1014=
200708081150 METAR ESMX 081150Z VRB01KT 9999 FEW020 BKN022 BKN110 21/18 Q1014=
200708081120 METAR ESMX 081120Z 00000KT 9999 FEW010 SCT014 BKN020 20/18 Q1014=
200708081050 METAR ESMX 081050Z 07004KT 020V120 9999 FEW010 SCT015 BKN040 20/18 Q1014=
200708081020 METAR ESMX 081020Z 04005KT 330V080 9999 FEW007 SCT012 BKN042 20/18 Q1014=
200708080950 METAR ESMX 080950Z 04006KT 010V070 9999 FEW005 BKN010 BKN050 19/18 Q1014 REDZ=
200708080920 METAR ESMX 080920Z 02004KT 7000 FEW003 SCT007 18/17 Q1014 RESH=
200708080850 METAR ESMX 080850Z 02004KT 5000 SHRA BKN005 17/17 Q1014=
200708080820 METAR ESMX 080820Z 03004KT 4500 SHRA SCT004 BKN008 17/17 Q1014 RETS=
200708080750 METAR ESMX 080750Z 07003KT 010V140 6000 TSRA FEW008 SCT035CB 17/16 Q1014=
200708080720 METAR ESMX 080720Z 05006KT 3900 TSRA SCT007 SCT035CB 18/16 Q1014=
200708080650 METAR ESMX 080650Z 05007KT 9999 SCT007 SCT037CB 18/16 Q1014=
200708080620 METAR ESMX 080620Z 04007KT 9999 FEW007 SCT069 BKN100 18/17 Q1014=
200708080550 METAR ESMX 080550Z 05004KT 030V100 9999 FEW006 SCT091 18/16 Q1014 RERA=
200708080520 METAR ESMX 080520Z 05005KT 9999 FEW006 SCT037 17/16 Q1014=
200708080450 METAR ESMX 080450Z 04005KT 9999 FEW007 SCT035 17/16 Q1014 RERA=
200708080420 METAR ESMX 080420Z 02004KT 8000 -SHRA FEW008 BKN070CB 17/16 Q1014=
200708080350 METAR ESMX 080350Z AUTO 04005KT 9999NDV SCT071/// BKN092/// 17/15 Q1015=
200708080320 METAR ESMX 080320Z AUTO 01006KT 9999NDV OVC071/// 17/15 Q1015=
200708080250 METAR ESMX 080250Z AUTO 02005KT 9999NDV BKN071/// 16/15 Q1015=
200708080220 METAR ESMX 080220Z AUTO 02006KT 9999NDV FEW065/// BKN078/// 17/15 Q1015=
200708080150 METAR ESMX 080150Z AUTO 03006KT 9999NDV OVC066/// 16/15 Q1015=
200708080120 METAR ESMX 080120Z AUTO 02005KT 9999NDV BKN067/// 16/15 Q1015=
200708080050 METAR ESMX 080050Z AUTO 02006KT 9999NDV FEW069/// 16/15 Q1015=
200708080020 METAR ESMX 080020Z AUTO 03005KT 9999NDV FEW070/// 16/15 Q1015=
200708072320 METAR ESMX 072320Z 02006KT CAVOK 16/15 Q1016=
200708072220 METAR ESMX 072220Z 06003KT 020V090 CAVOK 17/15 Q1016=
200708072150 METAR ESMX 072150Z 07003KT 030V100 CAVOK 17/15 Q1016=
200708072120 METAR ESMX 072120Z 06003KT CAVOK 17/15 Q1016=
200708072050 METAR ESMX 072050Z 06003KT 010V110 CAVOK 18/15 Q1017=
200708072020 METAR ESMX 072020Z 08004KT 050V140 CAVOK 19/15 Q1017=
200708071950 METAR ESMX 071950Z 08003KT 050V110 CAVOK 19/15 Q1017=
200708071920 METAR ESMX 071920Z 09003KT 050V120 CAVOK 20/14 Q1016=
200708071850 METAR ESMX 071850Z 10003KT 060V140 CAVOK 21/14 Q1016=
200708071820 METAR ESMX 071820Z 09004KT 050V140 CAVOK 22/14 Q1016=
200708071750 METAR ESMX 071750Z 10005KT 050V140 CAVOK 23/14 Q1016=
200708071720 METAR ESMX 071720Z 07004KT CAVOK 24/14 Q1016=
200708071650 METAR ESMX 071650Z VRB04KT 9999 FEW048 24/14 Q1016=
200708071620 METAR ESMX 071620Z 10005KT 060V140 9999 FEW046 25/14 Q1016=
200708071550 METAR ESMX 071550Z 10003KT 060V130 9999 FEW045 24/14 Q1016=
200708071520 METAR ESMX 071520Z VRB04KT CAVOK 25/14 Q1016=
200708071450 METAR ESMX 071450Z VRB05KT 9999 FEW046 24/14 Q1016=
200708071420 METAR ESMX 071420Z 05006KT 020V100 9999 FEW045 SCT055 25/14 Q1016=
200708071350 METAR ESMX 071350Z 14005KT 100V200 9999 FEW044 SCT054 26/15 Q1016=
200708071320 METAR ESMX 071320Z 15006KT 100V220 9999 SCT042 25/14 Q1017=
200708071250 METAR ESMX 071250Z 15005KT 080V200 9999 FEW043 SCT048 25/14 Q1017=
200708071220 METAR ESMX 071220Z 12005KT 050V160 9999 FEW042 SCT047 24/15 Q1017=
200708071150 METAR ESMX 071150Z 13005KT 060V170 9999 SCT043 25/14 Q1017=
200708071120 METAR ESMX 071120Z 10006KT 010V160 CAVOK 25/13 Q1017=
200708071050 METAR ESMX 071050Z 13006KT 080V170 CAVOK 24/12 Q1017=
200708071020 METAR ESMX 071020Z 14005KT 070V180 CAVOK 24/12 Q1017=
200708070950 METAR ESMX 070950Z 08004KT 040V110 CAVOK 23/12 Q1017=
200708070920 METAR ESMX 070920Z 09006KT 050V140 CAVOK 23/13 Q1018=
200708070850 METAR ESMX 070850Z 12005KT 080V150 CAVOK 22/12 Q1018=
200708070820 METAR ESMX 070820Z 09006KT 050V140 CAVOK 21/13 Q1018=
200708070750 METAR ESMX 070750Z 07006KT 040V110 CAVOK 20/12 Q1018=
200708070720 METAR ESMX 070720Z 06004KT 010V120 CAVOK 19/12 Q1018=
200708070650 METAR ESMX 070650Z 05004KT 020V100 CAVOK 18/12 Q1018=
200708070620 METAR ESMX 070620Z 07004KT 010V100 CAVOK 17/12 Q1018=
200708070550 METAR ESMX 070550Z 08003KT 050V110 CAVOK 16/12 Q1018=
200708070520 METAR ESMX 070520Z 08004KT 030V140 CAVOK 15/12 Q1018=
200708070450 METAR ESMX 070450Z 08004KT CAVOK 13/12 Q1018=
200708070420 METAR ESMX 070420Z VRB02KT CAVOK 10/10 Q1018=
200708070350 METAR ESMX 070350Z 00000KT CAVOK 10/09 Q1018=
200708070320 METAR ESMX 070320Z AUTO 00000KT 2100NDV BR NCD 09/09 Q1018=
200708070250 METAR ESMX 070250Z AUTO 00000KT 2900NDV NCD 09/09 Q1018=
200708070220 METAR ESMX 070220Z AUTO 00000KT 9999NDV NCD 10/09 Q1018=
200708070150 METAR ESMX 070150Z AUTO 00000KT 2300NDV NCD 10/09 Q1018=
200708070120 METAR ESMX 070120Z AUTO 00000KT 5000NDV BR NCD 10/09 Q1018=
200708070050 METAR ESMX 070050Z AUTO 00000KT 5000NDV BR NCD 10/09 Q1018=
200708070020 METAR ESMX 070020Z 08001KT CAVOK 11/10 Q1018=
200708062350 METAR ESMX 062350Z 00000KT CAVOK 11/10 Q1018=
200708062320 METAR ESMX 062320Z 12003KT CAVOK 12/11 Q1018=
200708062250 METAR ESMX 062250Z 12002KT CAVOK 13/12 Q1018=
200708062220 METAR ESMX 062220Z 13002KT CAVOK 14/12 Q1018=
200708062150 METAR ESMX 062150Z 13002KT CAVOK 15/13 Q1018=
200708062120 METAR ESMX 062120Z 13003KT CAVOK 16/13 Q1018=
200708062050 METAR ESMX 062050Z 13002KT CAVOK 16/14 Q1017=
200708062020 METAR ESMX 062020Z 15004KT CAVOK 17/14 Q1017=
200708061950 METAR ESMX 061950Z 16004KT CAVOK 18/14 Q1017=
200708061920 METAR ESMX 061920Z 16004KT CAVOK 19/14 Q1017=
200708061850 METAR ESMX 061850Z 17004KT CAVOK 21/14 Q1017=
200708061820 METAR ESMX 061820Z 16005KT CAVOK 22/14 Q1017=
200708061750 METAR ESMX 061750Z 16006KT CAVOK 23/13 Q1017=
200708061720 METAR ESMX 061720Z 17006KT CAVOK 23/14 Q1017=
200708061650 METAR ESMX 061650Z 13005KT 060V190 CAVOK 24/14 Q1017=
200708061620 METAR ESMX 061620Z 16006KT CAVOK 25/13 Q1017=
200708061550 METAR ESMX 061550Z 16007KT CAVOK 25/13 Q1017=
200708061520 METAR ESMX 061520Z 14006KT 100V170 CAVOK 25/14 Q1017=
200708061450 METAR ESMX 061450Z 15006KT 120V200 CAVOK 25/13 Q1017=
200708061420 METAR ESMX 061420Z 14005KT 080V200 CAVOK 25/13 Q1017=
200708061350 METAR ESMX 061350Z 15006KT 110V190 CAVOK 25/13 Q1017=
200708061320 METAR ESMX 061320Z 15005KT 090V200 CAVOK 25/13 Q1017=
200708061250 METAR ESMX 061250Z 15006KT 080V200 CAVOK 25/13 Q1018=
200708061220 METAR ESMX 061220Z 13006KT 080V170 CAVOK 25/13 Q1018=
200708061150 METAR ESMX 061150Z 16006KT 080V200 CAVOK 25/14 Q1018=
200708061120 METAR ESMX 061120Z 16006KT 120V190 CAVOK 24/13 Q1018=
200708061050 METAR ESMX 061050Z 15006KT 090V190 CAVOK 24/14 Q1018=
200708061020 METAR ESMX 061020Z 16006KT 130V210 CAVOK 23/13 Q1019=
200708060950 METAR ESMX 060950Z 16005KT 090V210 CAVOK 24/14 Q1019=
200708060920 METAR ESMX 060920Z 15005KT 070V240 CAVOK 23/13 Q1019=
200708060850 METAR ESMX 060850Z 15005KT 110V190 CAVOK 22/13 Q1019=
200708060820 METAR ESMX 060820Z 12004KT 080V170 CAVOK 22/12 Q1019=
200708060750 METAR ESMX 060750Z 14004KT 110V170 CAVOK 21/13 Q1019=
200708060720 METAR ESMX 060720Z 17003KT 120V200 CAVOK 20/11 Q1019=
200708060650 METAR ESMX 060650Z VRB01KT CAVOK 20/14 Q1019=
200708060620 METAR ESMX 060620Z VRB02KT CAVOK 18/13 Q1019=
200708060550 METAR ESMX 060550Z 00000KT CAVOK 17/15 Q1019=
200708060520 METAR ESMX 060520Z 00000KT CAVOK 16/15 Q1019=
200708060450 METAR ESMX 060450Z 00000KT CAVOK 14/14 Q1019=
200708060420 METAR ESMX 060420Z 00000KT CAVOK 12/12 Q1019=
200708060350 METAR ESMX 060350Z AUTO 00000KT 4700NDV BR NCD 12/11 Q1019=
200708060320 METAR ESMX 060320Z AUTO VRB01KT 1600NDV BR NCD 12/12 Q1019=
200708060250 METAR ESMX 060250Z AUTO VRB01KT 0600NDV R01/P2000U R19/P2000 NCD 12/12 Q1019=
200708060220 METAR ESMX 060220Z AUTO 00000KT 1200NDV R01/P2000U R19/P2000D NCD 12/11 Q1019=
200708060150 METAR ESMX 060150Z AUTO 00000KT 0300NDV R01/0500VP2000 R19/0650 FG NCD 12/11 Q1019=
200708060120 METAR ESMX 060120Z AUTO 00000KT 1000NDV R01/P2000D R19/P2000D NCD 13/12 Q1019=
200708060050 METAR ESMX 060050Z AUTO 00000KT 2400NDV BR NCD 13/12 Q1019=
200708060020 METAR ESMX 060020Z 00000KT 1300 R01/P2000U R19/P2000U BR NSC 13/12 Q1019=
200708052350 METAR ESMX 052350Z 00000KT 6000 BR NSC 14/13 Q1019=
200708052320 METAR ESMX 052320Z 16002KT 6000 R01/P2000D R19/P2000D BR NSC 14/13 Q1019=
200708052250 METAR ESMX 052250Z 16002KT 5000 BR NSC 14/13 Q1019=
200708052220 METAR ESMX 052220Z 21002KT CAVOK 15/14 Q1019=
200708052150 METAR ESMX 052150Z 15004KT CAVOK 16/15 Q1019=
200708052120 METAR ESMX 052120Z 15004KT CAVOK 17/15 Q1019=
200708052050 METAR ESMX 052050Z 15004KT CAVOK 18/15 Q1019=
200708052020 METAR ESMX 052020Z 16005KT CAVOK 19/15 Q1019=
200708051950 METAR ESMX 051950Z 16005KT CAVOK 20/15 Q1019=
200708051920 METAR ESMX 051920Z 15004KT CAVOK 20/16 Q1019=
200708051850 METAR ESMX 051850Z 16005KT CAVOK 22/16 Q1019=
200708051820 METAR ESMX 051820Z 17004KT CAVOK 23/16 Q1019=
200708051750 METAR ESMX 051750Z VRB02KT CAVOK 24/16 Q1019=
200708051720 METAR ESMX 051720Z 23004KT CAVOK 25/15 Q1019=
200708051650 METAR ESMX 051650Z 20005KT CAVOK 25/15 Q1019=
200708051620 METAR ESMX 051620Z 24004KT 1 CAVOK 25/15 Q1019=
200708051550 METAR ESMX 051550Z 22003KT 9999 FEW040 25/15 Q1019=
200708051520 METAR ESMX 051520Z 22004KT 9999 FEW040 25/14 Q1019=
200708051450 METAR ESMX 051450Z 23007KT 200V270 9999 FEW038 26/15 Q1020=
200708051420 METAR ESMX 051420Z 23006KT 9999 FEW039 24/15 Q1020=
200708051350 METAR ESMX 051350Z 25008KT 9999 FEW037 25/16 Q1020=
200708051320 METAR ESMX 051320Z 21005KT 9999 FEW035 24/16 Q1020=
200708051250 METAR ESMX 051250Z 19004KT 9999 SCT035 23/15 Q1020=
200708051220 METAR ESMX 051220Z 25004KT 9999 SCT033 23/14 Q1020=
200708051150 METAR ESMX 051150Z 20006KT 9999 SCT032 23/15 Q1020=
200708051120 METAR ESMX 051120Z 24006KT 9999 BKN032 22/15 Q1021=
200708051050 METAR ESMX 051050Z 24006KT 9999 FEW028 BKN031 22/15 Q1021=
200708051020 METAR ESMX 051020Z 23005KT 9999 FEW028 BKN032 21/15 Q1021=
200708050950 METAR ESMX 050950Z 26005KT 230V290 9999 BKN027 20/15 Q1021=
200708050920 METAR ESMX 050920Z 21008KT 9999 BKN025 21/15 Q1021=
200708050850 METAR ESMX 050850Z 22008KT 190V260 9999 BKN022 20/15 Q1021=
200708050820 METAR ESMX 050820Z 22007KT 9999 FEW018 BKN021 19/14 Q1021=
200708050750 METAR ESMX 050750Z 24006KT 9999 BKN025 18/14 Q1021=
200708050720 METAR ESMX 050720Z 21005KT 9999 FEW025 17/15 Q1021=
200708050650 METAR ESMX 050650Z AUTO 19005KT 9999NDV OVC025/// 16/14 Q1021=
200708050620 METAR ESMX 050620Z AUTO 18004KT 9999NDV OVC024/// 15/13 Q1021=
200708050550 METAR ESMX 050550Z AUTO 19005KT 9999NDV OVC023/// 15/13 Q1021=
200708050520 METAR ESMX 050520Z AUTO 22004KT 9999NDV OVC022/// 14/13 Q1021=
200708050450 METAR ESMX 050450Z AUTO 20004KT 9999NDV BKN022/// 14/12 Q1021=
200708050420 METAR ESMX 050420Z AUTO 21004KT 9999NDV NCD 12/11 Q1021=
200708050350 METAR ESMX 050350Z AUTO 21004KT 9999NDV NCD 12/11 Q1021=
200708050320 METAR ESMX 050320Z AUTO 21005KT 9999NDV NCD 12/11 Q1021=
200708050250 METAR ESMX 050250Z AUTO 22005KT 9999NDV FEW100/// 12/11 Q1021=
200708050220 METAR ESMX 050220Z AUTO 21005KT 9999NDV FEW110/// 12/11 Q1021=
200708050150 METAR ESMX 050150Z AUTO 22005KT 9999NDV FEW110/// 12/11 Q1021=
200708050120 METAR ESMX 050120Z AUTO 20005KT 9999NDV NCD 12/10 Q1021=
200708050050 METAR ESMX 050050Z AUTO 19005KT 9999NDV NCD 11/10 Q1021=
200708050020 METAR ESMX 050020Z AUTO 18003KT 9999NDV NCD 10/10 Q1021=
200708042350 METAR ESMX 042350Z AUTO 18004KT 9999NDV NCD 11/10 Q1021=
200708042320 METAR ESMX 042320Z AUTO 18004KT 9999NDV NCD 10/09 Q1021=
200708042250 METAR ESMX 042250Z AUTO 17002KT 9999NDV NCD 11/10 Q1021=
200708042220 METAR ESMX 042220Z AUTO 20003KT 9999NDV NCD 11/10 Q1021=
200708042120 METAR ESMX 042120Z AUTO 21004KT 9999NDV NCD 13/10 Q1021=
200708042050 METAR ESMX 042050Z AUTO 24003KT 9999NDV NCD 13/10 Q1021=
200708042020 METAR ESMX 042020Z AUTO 24003KT 9999NDV NCD 14/10 Q1021=
200708041950 METAR ESMX 041950Z AUTO 23003KT 2800NDV NCD 14/10 Q1021=
200708041920 METAR ESMX 041920Z AUTO 23004KT 9999NDV NCD 15/10 Q1020=
200708041850 METAR ESMX 041850Z AUTO 25003KT 9999NDV NCD 17/09 Q1020=
200708041820 METAR ESMX 041820Z AUTO 24004KT 9999NDV NCD 19/09 Q1021=
200708041750 METAR ESMX 041750Z AUTO 25006KT 9999NDV NCD 20/09 Q1020=
200708041720 METAR ESMX 041720Z AUTO 26004KT 9999NDV NCD 21/09 Q1020=
200708041650 METAR ESMX 041650Z AUTO 28006KT 9999NDV NCD 21/09 Q1020=
200708041620 METAR ESMX 041620Z AUTO 28003KT 250V320 9999NDV NCD 21/10 Q1020=
200708041550 METAR ESMX 041550Z AUTO 23008KT 9999NDV NCD 21/09 Q1020=
200708041520 METAR ESMX 041520Z AUTO 25006KT 230V290 9999NDV NCD 22/10 Q1020=
200708041450 METAR ESMX 041450Z AUTO 26009KT 9999NDV NCD 21/09 Q1020=
200708041420 METAR ESMX 041420Z AUTO 22006KT 170V260 9999NDV NCD 22/09 Q1020=
200708041350 METAR ESMX 041350Z AUTO 26007KT 9999NDV NCD 22/09 Q1020=
200708041320 METAR ESMX 041320Z AUTO 25006KT 210V290 9999NDV NCD 21/09 Q1020=
200708041250 METAR ESMX 041250Z AUTO 27005KT 200V330 9999NDV NCD 21/08 Q1020=
200708041220 METAR ESMX 041220Z AUTO 29006KT 9999NDV NCD 21/08 Q1020=
200708041150 METAR ESMX 041150Z AUTO 30004KT 260V360 9999NDV NCD 21/10 Q1020=
200708041120 METAR ESMX 041120Z AUTO 30006KT 270V330 9999NDV NCD 20/09 Q1021=
200708041050 METAR ESMX 041050Z AUTO 27006KT 230V300 9999NDV NCD 20/09 Q1021=
200708041020 METAR ESMX 041020Z AUTO 27007KT 9999NDV NCD 19/08 Q1021=
200708040950 METAR ESMX 040950Z AUTO 32004KT 250V010 9999NDV NCD 19/10 Q1021=
200708040920 METAR ESMX 040920Z AUTO 28007KT 240V310 9999NDV NCD 18/11 Q1021=
200708040850 METAR ESMX 040850Z AUTO 30008KT 9999NDV NCD 17/11 Q1021=
200708040820 METAR ESMX 040820Z AUTO 28005KT 250V340 9999NDV NCD 17/11 Q1021=
200708040750 METAR ESMX 040750Z AUTO 29003KT 250V360 9999NDV NCD 16/11 Q1020=
200708040720 METAR ESMX 040720Z AUTO 29006KT 260V340 9999NDV FEW012/// 15/12 Q1021=
200708040650 METAR ESMX 040650Z AUTO 28007KT 9999NDV FEW010/// 14/11 Q1020=
200708040620 METAR ESMX 040620Z AUTO 29008KT 9999NDV FEW009/// 13/11 Q1020=
200708040550 METAR ESMX 040550Z AUTO 30006KT 280V340 9999NDV NCD 12/11 Q1020=
200708040520 METAR ESMX 040520Z AUTO 30003KT 260V330 9999NDV SCT005/// 11/10 Q1020=
200708040450 METAR ESMX 040450Z AUTO 29004KT 260V330 9999NDV BKN039/// 10/10 Q1020=
200708040420 METAR ESMX 040420Z AUTO 26003KT 9000NDV NCD 09/08 Q1020=
200708040350 METAR ESMX 040350Z AUTO 26003KT 9000NDV SCT037/// 08/07 Q1020=
200708040320 METAR ESMX 040320Z AUTO 26003KT 8000NDV BKN037/// 07/07 Q1019=
200708040250 METAR ESMX 040250Z AUTO 26003KT 1300NDV R01/P2000U R19/P2000U SCT037/// 07/07 Q1019=
200708040220 METAR ESMX 040220Z AUTO 27002KT 9999NDV NCD 07/06 Q1019=
200708040150 METAR ESMX 040150Z AUTO VRB02KT 9999NDV SCT056/// 08/08 Q1019=
200708040120 METAR ESMX 040120Z AUTO 29002KT 9999NDV BKN058/// 08/07 Q1019=
200708040050 METAR ESMX 040050Z AUTO 29002KT 9999NDV NCD 09/08 Q1018=
200708040020 METAR ESMX 040020Z AUTO 27004KT 9999NDV NCD 10/09 Q1018=
200708032350 METAR ESMX 032350Z AUTO 26004KT 9999NDV NCD 09/08 Q1018=
200708032320 METAR ESMX 032320Z AUTO 28003KT 9999NDV NCD 10/08 Q1018=
200708032250 METAR ESMX 032250Z AUTO 28004KT 9999NDV FEW061/// 11/09 Q1018=
200708032220 METAR ESMX 032220Z AUTO 27005KT 9999NDV FEW060/// 11/09 Q1018=
200708032150 METAR ESMX 032150Z AUTO 28005KT 9999NDV FEW061/// 11/09 Q1018=
200708032120 METAR ESMX 032120Z AUTO 27006KT 9999NDV BKN061/// 12/09 Q1018=
200708032050 METAR ESMX 032050Z AUTO 27004KT 9999NDV BKN062/// 12/09 Q1017=
200708032020 METAR ESMX 032020Z AUTO 26004KT 9999NDV FEW061/// 12/09 Q1017=
200708031950 METAR ESMX 031950Z AUTO 27003KT 9999NDV NCD 13/09 Q1017=
200708031920 METAR ESMX 031920Z AUTO 27005KT 230V290 9999NDV NCD 14/09 Q1017=
200708031850 METAR ESMX 031850Z AUTO 26005KT 9999NDV NCD 15/10 Q1016=
200708031820 METAR ESMX 031820Z AUTO 27006KT 9999NDV NCD 16/09 Q1016=
200708031750 METAR ESMX 031750Z AUTO 28008KT 9999NDV NCD 17/09 Q1016=
200708031720 METAR ESMX 031720Z 28007KT CAVOK 18/09 Q1015=
200708031650 METAR ESMX 031650Z 27008KT CAVOK 18/10 Q1015=
200708031620 METAR ESMX 031620Z 28008KT 9999 FEW034 SCT055 19/11 Q1015=
200708031550 METAR ESMX 031550Z 26004KT 9999 FEW020 SCT035 BKN072 19/14 Q1014=
200708031520 METAR ESMX 031520Z 30004KT 9999 FEW043 BKN073 17/14 Q1014=
200708031450 METAR ESMX 031450Z 29004KT 9999 FEW023 SCT054 BKN072 18/14 Q1014=
200708031420 METAR ESMX 031420Z 29006KT 9999 FEW025 BKN056 18/14 Q1014=
200708031350 METAR ESMX 031350Z 27004KT 240V320 9999 FEW008 SCT048 BKN058 16/14 Q1014=
200708031320 METAR ESMX 031320Z 27005KT 9999 FEW009 SCT014 BKN050 16/14 Q1014=
200708031250 METAR ESMX 031250Z 28004KT 9999 FEW006 SCT048 BKN056 15/13 Q1014 RERA REDZ=
200708031220 METAR ESMX 031220Z 29005KT 7000 -RA FEW006 SCT010 BKN014 16/14 Q1013=
200708031150 METAR ESMX 031150Z 31003KT 9999 -DZ FEW006 SCT010 BKN031 16/14 Q1013 RERA=
200708031120 METAR ESMX 031120Z 31004KT 9999 FEW008 SCT014 BKN027 15/14 Q1013 RERA REDZ=
200708031050 METAR ESMX 031050Z 31004KT 9000 -RA SCT011 BKN028 15/14 Q1013=
200708031020 METAR ESMX 031020Z 34004KT 290V010 9999 -RA FEW009 SCT012 BKN038 15/13 Q1013=
200708030950 METAR ESMX 030950Z 35004KT 310V010 9999 -RA FEW012 SCT040 BKN130 15/13 Q1012=
200708030920 METAR ESMX 030920Z 35004KT 9999 -RA FEW036 BKN080 15/14 Q1012=
200708030820 METAR ESMX 030820Z 35004KT 9999 -RA FEW006 BKN090 14/13 Q1011=
200708030750 METAR ESMX 030750Z 36004KT 320V030 9999 -RA FEW005 BKN075 14/13 Q1011=
200708030720 METAR ESMX 030720Z 35002KT 9999 -RA FEW043 OVC065 14/13 Q1011=
200708030650 METAR ESMX 030650Z VRB02KT 9999 -RA SCT044 OVC057 14/13 Q1011=
200708030620 METAR ESMX 030620Z VRB02KT 9999 -RA FEW048 BKN056 13/13 Q1011=
200708030551 METAR COR ESMX 030551Z 05003KT 020V080 9999 -RA NSC 13/12 Q1010=
200708030520 METAR ESMX 030520Z 06005KT 9999 -RA SCT058 BKN072 13/12 Q1010=
200708030450 METAR ESMX 030450Z 04003KT 010V080 8000 BR OVC060 13/13 Q1010=
200708030420 METAR ESMX 030420Z 01003KT 8000 BR BKN075 13/13 Q1010=
200708030350 METAR ESMX 030350Z 02004KT 9999 -DZ FEW050 BKN075 13/13 Q1010 RERA=
200708030320 METAR ESMX 030320Z AUTO 03004KT 6000NDV -RA FEW047/// SCT055/// 13/13 Q1010=
200708030250 METAR ESMX 030250Z AUTO 04004KT 7000NDV -RA FEW042/// SCT055/// 13/12 Q1010=
200708030220 METAR ESMX 030220Z AUTO 04004KT 5000NDV -RA BKN039/// 13/13 Q1011=
200708030150 METAR ESMX 030150Z AUTO VRB01KT 4400NDV -RA FEW024/// SCT036/// BKN043/// 13/13 Q1011 REDZ=
200708030120 METAR ESMX 030120Z AUTO 33003KT 8000NDV BR OVC045/// 13/13 Q1011=
200708030050 METAR ESMX 030050Z AUTO VRB02KT 9000NDV BR FEW043/// SCT052/// BKN078/// 13/12 Q1010 REDZ=
200708030020 METAR ESMX 030020Z AUTO VRB02KT 7000NDV -DZ FEW068/// SCT092/// 13/12 Q1011 RERA=
200708022350 METAR ESMX 022350Z VRB02KT 7000 -RA BKN070 13/12 Q1011 REDZ=
200708022320 METAR ESMX 022320Z VRB02KT 8000 -DZ SCT070 13/12 Q1011 RERA=
200708022250 METAR ESMX 022250Z 09003KT 7000 -RA FEW070 13/12 Q1011=
200708022220 METAR ESMX 022220Z 12003KT 8000 -RA FEW060 13/12 Q1011=
200708022150 METAR ESMX 022150Z VRB01KT 9000 -RA FEW060 13/12 Q1011=
200708022120 METAR ESMX 022120Z 11002KT 9999 -RA NSC 13/12 Q1011=
200708022050 METAR ESMX 022050Z VRB02KT 7000 RA NSC 13/12 Q1011=
200708022020 METAR ESMX 022020Z 14003KT 110V170 9999 -RA NSC 14/12 Q1011=
200708021950 METAR ESMX 021950Z 14006KT 9999 -RA SCT060 BKN070 15/12 Q1011=
200708021920 METAR ESMX 021920Z 14004KT 110V170 CAVOK 16/11 Q1011 RERA=
200708021850 METAR ESMX 021850Z 15004KT CAVOK 16/11 Q1011=
200708021820 METAR ESMX 021820Z 16005KT CAVOK 16/10 Q1011=
200708021750 METAR ESMX 021750Z 15005KT 110V170 CAVOK 17/10 Q1011=
200708021720 METAR ESMX 021720Z 16005KT 9999 OVC051 17/10 Q1011=
200708021650 METAR ESMX 021650Z 16007KT 120V190 9999 SCT043 BKN050 17/10 Q1011=
200708021620 METAR ESMX 021620Z 17009KT 9999 BKN041 17/09 Q1011=
200708021550 METAR ESMX 021550Z 16007KT 120V190 9999 BKN044 18/10 Q1011=
200708021520 METAR ESMX 021520Z 17008KT 120V210 9999 SCT040 BKN055 18/10 Q1011=
200708021450 METAR ESMX 021450Z 17009KT 120V210 9999 FEW036 SCT043 19/10 Q1012=
200708021420 METAR ESMX 021420Z 16009KT 120V210 9999 FEW035 SCT080 18/10 Q1012=
200708021350 METAR ESMX 021350Z 16009KT 110V200 9999 FEW035 BKN100 18/10 Q1012=
200708021320 METAR ESMX 021320Z 15009KT 110V200 9999 FEW035 BKN085 18/10 Q1012=
200708021250 METAR ESMX 021250Z 17009KT 9999 BKN043 19/11 Q1012=
200708021220 METAR ESMX 021220Z 18008KT 150V210 9999 BKN043 18/11 Q1012=
200708021150 METAR ESMX 021150Z 18009KT 9999 SCT034 BKN044 19/11 Q1012=
200708021120 METAR ESMX 021120Z 17009KT 140V200 9999 FEW036 BKN046 19/11 Q1012=
200708021050 METAR ESMX 021050Z 18010KT 160V220 9999 FEW032 SCT044 BKN053 19/11 Q1012=
200708021020 METAR ESMX 021020Z 18009KT 140V210 9999 FEW031 19/12 Q1012=
200708020950 METAR ESMX 020950Z 17009KT 140V210 9999 FEW030 SCT081 19/12 Q1013=
200708020920 METAR ESMX 020920Z 16008KT CAVOK 17/12 Q1013=
200708020850 METAR ESMX 020850Z 18006KT CAVOK 17/13 Q1013=
200708020820 METAR ESMX 020820Z 18005KT CAVOK 17/12 Q1013=
200708020750 METAR ESMX 020750Z 17005KT 140V200 CAVOK 16/12 Q1013=
200708020720 METAR ESMX 020720Z 16004KT CAVOK 16/12 Q1013=
200708020650 METAR ESMX 020650Z 18005KT CAVOK 15/12 Q1013=
200708020620 METAR ESMX 020620Z 19007KT CAVOK 14/12 Q1013=
200708020550 METAR ESMX 020550Z 20007KT CAVOK 14/12 Q1013=
200708020520 METAR ESMX 020520Z 20006KT CAVOK 13/12 Q1013=
200708020450 METAR ESMX 020450Z 19006KT CAVOK 13/11 Q1013=
200708020420 METAR ESMX 020420Z 18006KT CAVOK 12/11 Q1013=
200708020350 METAR ESMX 020350Z 18006KT CAVOK 11/10 Q1013=
200708020320 METAR ESMX 020320Z AUTO 19006KT 9999NDV NCD 10/09 Q1013=
200708020250 METAR ESMX 020250Z AUTO 18006KT 9999NDV NCD 11/10 Q1013=
200708020220 METAR ESMX 020220Z AUTO 18006KT 9999NDV NCD 11/10 Q1013=
200708020150 METAR ESMX 020150Z AUTO 18005KT 9999NDV NCD 11/10 Q1013=
200708020120 METAR ESMX 020120Z AUTO 18006KT 9999NDV NCD 11/10 Q1013=
200708020050 METAR ESMX 020050Z AUTO 19006KT 9999NDV NCD 12/10 Q1013=
200708020020 METAR ESMX 020020Z 19007KT CAVOK 12/10 Q1013=
200708012350 METAR ESMX 012350Z 19006KT CAVOK 12/10 Q1013=
200708012320 METAR ESMX 012320Z 19006KT CAVOK 12/10 Q1013=
200708012250 METAR ESMX 012250Z 18006KT CAVOK 12/10 Q1013=
200708012220 METAR ESMX 012220Z 18006KT CAVOK 13/11 Q1013=
200708012150 METAR ESMX 012150Z 18006KT CAVOK 13/11 Q1013=
200708012120 METAR ESMX 012120Z 18006KT CAVOK 13/11 Q1013=
200708012050 METAR ESMX 012050Z 19005KT CAVOK 13/11 Q1013=
200708012020 METAR ESMX 012020Z 18005KT CAVOK 14/11 Q1013=
200708011950 METAR ESMX 011950Z 21004KT CAVOK 14/11 Q1013=
200708011920 METAR ESMX 011920Z 21005KT CAVOK 15/12 Q1013=
200708011850 METAR ESMX 011850Z 21005KT CAVOK 16/12 Q1013=
200708011820 METAR ESMX 011820Z 23005KT 9999 FEW030 17/12 Q1013=
200708011750 METAR ESMX 011750Z 25006KT 9999 FEW030 17/12 Q1012=
200708011720 METAR ESMX 011720Z 25006KT 9999 FEW037 17/12 Q1012=
200708011650 METAR ESMX 011650Z 26007KT 230V290 9999 SCT035 18/12 Q1013=
200708011620 METAR ESMX 011620Z 24006KT 210V280 9999 SCT035 17/11 Q1013=
200708011550 METAR ESMX 011550Z 25008KT 210V280 9999 BKN033 17/11 Q1013=
200708011520 METAR ESMX 011520Z 25008KT 9999 OVC031 17/11 Q1013=
200708011450 METAR ESMX 011450Z 26007KT 220V290 9999 FEW032 BKN037 17/11 Q1013=
200708011420 METAR ESMX 011420Z 26010KT 230V290 9999 FEW033 BKN038 17/10 Q1013=
200708011350 METAR ESMX 011350Z 25009KT 210V280 9999 FEW038 17/10 Q1013=
200708011320 METAR ESMX 011320Z 26012KT 9999 BKN036 18/10 Q1012=
200708011250 METAR ESMX 011250Z 27008KT 230V300 9999 FEW036 SCT042 18/11 Q1012=
200708011220 METAR ESMX 011220Z 24008KT 9999 BKN030 17/10 Q1012=
