##########################################################
# Query made at 04/19/2024 20:58:33 UTC
# Time interval: from 07/01/2007 12:00  to 07/31/2007 12:59  UTC
##########################################################

##########################################################
# ESMX, Vaxjo (Sweden)
# WMO index: 02641. WIGOS ID: 0-20000-0-02648
# Latitude 56-51N. Longitude 014-50E. Altitude 199 m.
##########################################################

200707311250 METAR ESMX 311250Z 24007KT 200V280 9999 -SHRA SCT028CB BKN070 18/13 Q1003=
200707311220 METAR ESMX 311220Z 26009KT 9999 SCT025 BKN067 17/12 Q1003=
200707311150 METAR ESMX 311150Z 21008KT 190V250 9999 FEW025FEW025CB SCT032 17/13 Q1003=
200707311120 METAR ESMX 311120Z 24011KT 210V290 9999 FEW025CB BKN032 16/11 Q1003=
200707311050 METAR ESMX 311050Z 21012KT 9999 SCT025CB BKN032 19/13 Q1002=
200707311020 METAR ESMX 311020Z 26008KT 210V300 9999 SCT033 19/11 Q1002=
200707310950 METAR ESMX 310950Z 28008KT 230V320 9999 FEW026 SCT049 19/11 Q1002=
200707310908 METAR ESMX 310908Z 28007KT 230V330 9999 FEW018 18/12 Q1002=
200707310820 METAR ESMX 310820Z 27007KT 240V300 9999 FEW007 SCT010 BKN016 16/13 Q1002=
200707310750 METAR ESMX 310750Z 25005KT 9999 SCT007 BKN010 15/14 Q1002=
200707310650 METAR ESMX 310650Z 25005KT 3100 OVC002 13/13 Q1002=
200707310620 METAR ESMX 310620Z 24005KT 1700 BR BKN002 13/13 Q1002=
200707310550 METAR ESMX 310550Z 23003KT 200V270 1000 R01/1200V1900N R19/1000VP2000U FG VV002 12/12 Q1002=
200707310520 METAR ESMX 310520Z 20004KT 0300 R01/0500 R19/0600N FG VV002 11/11 Q1002=
200707310450 METAR ESMX 310450Z 21005KT 0450 R01/0550V1200D R19/0800V1600D FG VV001 10/10 Q1002=
200707310420 METAR ESMX 310420Z 23004KT 1500 R01/0800VP2000U R19/0900VP2000U BR VV002 10/09 Q1001=
200707310350 METAR ESMX 310350Z 23004KT 2000 R01/P2000D R19/0800VP2000U BR NSC 08/07 Q1002=
200707310320 METAR ESMX 310320Z AUTO 23003KT 0900NDV R01/P2000U R19/P2000D NCD 08/07 Q1001=
200707310250 METAR ESMX 310250Z AUTO 24004KT 9999NDV NCD 08/08 Q1001=
200707310220 METAR ESMX 310220Z AUTO 22004KT 190V250 9999NDV NCD 09/08 Q1001=
200707310150 METAR ESMX 310150Z AUTO 25005KT 9999NDV NCD 09/08 Q1001=
200707310120 METAR ESMX 310120Z AUTO 25004KT 9999NDV NCD 09/08 Q1001=
200707310050 METAR ESMX 310050Z 26004KT CAVOK 09/09 Q1001=
200707310020 METAR ESMX 310020Z 25005KT CAVOK 09/09 Q1001=
200707302350 METAR ESMX 302350Z 25004KT CAVOK 09/09 Q1001=
200707302320 METAR ESMX 302320Z 26004KT 9999 NSC 09/09 Q1001=
200707302250 METAR ESMX 302250Z 27003KT 240V300 CAVOK 10/09 Q1001=
200707302220 METAR ESMX 302220Z 24004KT 210V280 CAVOK 10/09 Q1001=
200707302150 METAR ESMX 302150Z 26004KT CAVOK 10/09 Q1001=
200707302050 METAR ESMX 302050Z 27004KT CAVOK 10/08 Q1000=
200707302020 METAR ESMX 302020Z 27004KT CAVOK 11/08 Q1001=
200707301950 METAR ESMX 301950Z 27004KT CAVOK 11/08 Q1001=
200707301920 METAR ESMX 301920Z 27004KT CAVOK 12/09 Q1000=
200707301850 METAR ESMX 301850Z 25004KT CAVOK 13/09 Q1000=
200707301820 METAR ESMX 301820Z 26003KT CAVOK 14/09 Q1000=
200707301750 METAR ESMX 301750Z 25004KT 9999 FEW040 SCT080 14/09 Q1000=
200707301720 METAR ESMX 301720Z 20004KT 9999 FEW045 SCT070 BKN090 14/11 Q1000=
200707301650 METAR ESMX 301650Z 23003KT 190V280 9999 FEW025CB 15/10 Q0999 RERA=
200707301620 METAR ESMX 301620Z 23005KT 9999 FEW025 15/10 Q0999=
200707301550 METAR ESMX 301550Z VRB02KT 9999 FEW040TCU 15/09 Q0999=
200707301520 METAR ESMX 301520Z 36003KT 9999 FEW039TCU 16/10 Q0999=
200707301450 METAR ESMX 301450Z 36003KT 320V050 9999 SCT039TCU 17/08 Q0999=
200707301420 METAR ESMX 301420Z VRB02KT 9999 SCT039TCU 18/07 Q0999=
200707301350 METAR ESMX 301350Z 24004KT 170V320 9999 FEW040TCU 18/07 Q0999=
200707301320 METAR ESMX 301320Z 24006KT 9999 FEW033 SCT039TCU 17/09 Q0999=
200707301250 METAR ESMX 301250Z 16005KT 120V200 9999 SCT037TCU 18/09 Q0999=
200707301220 METAR ESMX 301220Z 20005KT 150V250 9999 FEW038TCU 17/08 Q0999=
200707301120 METAR ESMX 301120Z 21006KT 170V260 9999 FEW037TCU 17/07 Q0999=
200707301050 METAR ESMX 301050Z 22006KT 150V270 9999 FEW033 16/08 Q0999=
200707301020 METAR ESMX 301020Z 18004KT 140V220 9999 FEW030 SCT060 15/09 Q1000=
200707300950 METAR ESMX 300950Z 19009KT 9999 FEW031TCU SCT053 14/08 Q1000=
200707300920 METAR ESMX 300920Z 18004KT 140V210 9999 FEW022TCU BKN059 16/08 Q1000=
200707300850 METAR ESMX 300850Z 22009KT 9999 FEW033TCU BKN052 14/08 Q1000=
200707300820 METAR ESMX 300820Z 26005KT 230V300 9999 FEW028 13/08 Q1000=
200707300750 METAR ESMX 300750Z 25006KT 220V290 9999 FEW026 14/09 Q1000=
200707300720 METAR ESMX 300720Z 21006KT 170V230 9999 SCT024 13/09 Q1000=
200707300650 METAR ESMX 300650Z 22006KT 170V280 9999 FEW018 13/09 Q1000=
200707300620 METAR ESMX 300620Z 23005KT 190V270 9999 FEW014 12/09 Q1000=
200707300550 METAR ESMX 300550Z 22004KT 180V240 9999 FEW025 12/10 Q1000=
200707300520 METAR ESMX 300520Z 19005KT 9999 FEW026 11/10 Q1000=
200707300450 METAR ESMX 300450Z 21004KT 9999 FEW025 10/09 Q1000=
200707300420 METAR ESMX 300420Z 20004KT 9999 FEW023 08/08 Q1000=
200707300350 METAR ESMX 300350Z 21004KT CAVOK 08/07 Q1000=
200707300320 METAR ESMX 300320Z AUTO 21005KT 9999NDV NCD 07/06 Q1000=
200707300250 METAR ESMX 300250Z AUTO 22004KT 9999NDV NCD 07/07 Q1000=
200707300220 METAR ESMX 300220Z AUTO 22005KT 9999NDV NCD 07/07 Q1001=
200707300150 METAR ESMX 300150Z AUTO 21005KT 9999NDV NCD 08/07 Q1001=
200707300120 METAR ESMX 300120Z AUTO 17004KT 9999NDV NCD 09/08 Q1001=
200707300050 METAR ESMX 300050Z AUTO 18004KT 9999NDV NCD 09/08 Q1001=
200707300020 METAR ESMX 300020Z 21004KT CAVOK 09/08 Q1001=
200707292350 METAR ESMX 292350Z 20004KT CAVOK 09/08 Q1001=
200707292320 METAR ESMX 292320Z 22004KT CAVOK 09/08 Q1001=
200707292220 METAR ESMX 292220Z 22005KT CAVOK 10/08 Q1001=
200707292150 METAR ESMX 292150Z 20005KT CAVOK 10/08 Q1001=
200707292120 METAR ESMX 292120Z 21005KT 9999 FEW030 SCT062 11/08 Q1001=
200707292050 METAR ESMX 292050Z 21004KT 9999 FEW028 SCT034 BKN041 11/09 Q1001=
200707292020 METAR ESMX 292020Z 22004KT 9999 SCT034 BKN059 11/09 Q1001=
200707291950 METAR ESMX 291950Z 20005KT 9999 SCT058 BKN200 11/09 Q1001=
200707291920 METAR ESMX 291920Z 21003KT 9999 BKN056 12/10 Q1001 RERA=
200707291850 METAR ESMX 291850Z 29008KT 9999 +RA FEW028 SCT037 BKN052 13/08 Q1002=
200707291820 METAR ESMX 291820Z 29008KT 260V330 9999 SCT028 BKN035 13/09 Q1002=
200707291750 METAR ESMX 291750Z 24005KT 9999 SCT025 15/10 Q1002=
200707291720 METAR ESMX 291720Z 22004KT 9999 FEW040 15/10 Q1002=
200707291650 METAR ESMX 291650Z 22006KT 9999 FEW025 SCT040 14/10 Q1002=
200707291620 METAR ESMX 291620Z 21006KT 170V240 9999 DZ FEW020 BKN050 13/10 Q1002 RERA=
200707291550 METAR ESMX 291550Z 25008KT 210V280 9999 FEW035 SCT045 16/08 Q1002=
200707291520 METAR ESMX 291520Z 27011KT 240V300 9999 FEW040 17/09 Q1002=
200707291450 METAR ESMX 291450Z 28009KT 9999 SCT045 17/09 Q1002=
200707291420 METAR ESMX 291420Z 30011KT 9999 FEW025 SCT050 15/09 Q1002=
200707291350 METAR ESMX 291350Z 27013KT 9999 FEW025 SCT060 17/08 Q1002=
200707291320 METAR ESMX 291320Z 24013KT 200V260 9999 FEW035 SCT045 18/10 Q1002=
200707291250 METAR ESMX 291250Z 22014G25KT 190V250 9999 FEW030 SCT045 17/09 Q1002=
200707291220 METAR ESMX 291220Z 25012KT 9999 FEW038 SCT080 17/08 Q1002=
200707291150 METAR ESMX 291150Z 25011KT 190V290 9999 FEW025 BKN050 17/10 Q1002=
200707291120 METAR ESMX 291120Z 26011KT 9999 FEW029 SCT050 BKN060 16/10 Q1002=
200707291050 METAR ESMX 291050Z 22009KT 9999 FEW034 16/10 Q1002=
200707291020 METAR ESMX 291020Z 25012KT 9999 FEW023 SCT057 16/10 Q1002=
200707290950 METAR ESMX 290950Z 25012KT 210V290 9999 FEW025 BKN050 16/11 Q1002=
200707290920 METAR ESMX 290920Z 24013KT 9999 FEW020 BKN050 15/11 Q1003 RERA=
200707290850 METAR ESMX 290850Z 24012G22KT 9999 FEW017CB SCT020 BKN040 14/12 Q1003 RERA=
200707290820 METAR ESMX 290820Z 21012KT 6000 SHRA FEW020CB SCT025 BKN045 14/11 Q1002 REDZ=
200707290750 METAR ESMX 290750Z 25010KT 9999 FEW015 SCT030 15/11 Q1002=
200707290720 METAR ESMX 290720Z 23011KT 200V260 9999 FEW015 SCT020 13/10 Q1003=
200707290650 METAR ESMX 290650Z AUTO 24010KT 210V270 9999NDV FEW013/// SCT016/// BKN020/// 14/11 Q1003=
200707290620 METAR ESMX 290620Z AUTO 22010KT 190V270 9999NDV FEW011/// SCT015/// BKN017/// 14/11 Q1003=
200707290550 METAR ESMX 290550Z AUTO 22009KT 9999NDV FEW010/// SCT013/// BKN016/// 13/11 Q1003=
200707290520 METAR ESMX 290520Z AUTO 23009KT 9999NDV FEW008/// SCT013/// BKN016/// 13/11 Q1003=
200707290450 METAR ESMX 290450Z AUTO 22009KT 9999NDV FEW007/// SCT010/// BKN012/// 12/11 Q1003=
200707290420 METAR ESMX 290420Z AUTO 21008KT 9999NDV FEW007/// BKN009/// BKN021/// 12/11 Q1002=
200707290350 METAR ESMX 290350Z AUTO 21008KT 9999NDV FEW008/// SCT009/// 12/11 Q1003=
200707290320 METAR ESMX 290320Z AUTO 22008KT 9999NDV FEW008/// SCT012/// BKN031/// 12/11 Q1003=
200707290250 METAR ESMX 290250Z AUTO 21008KT 180V240 9999NDV FEW010/// BKN013/// OVC034/// 12/11 Q1003=
200707290220 METAR ESMX 290220Z AUTO 21008KT 9999NDV FEW010/// SCT014/// BKN058/// 11/11 Q1003=
200707290150 METAR ESMX 290150Z AUTO 20009KT 9999NDV BKN064/// 12/11 Q1003=
200707290120 METAR ESMX 290120Z AUTO 20008KT 9999NDV SCT066/// 12/11 Q1003=
200707290050 METAR ESMX 290050Z AUTO 20007KT 9999NDV NCD 11/10 Q1003=
200707290020 METAR ESMX 290020Z AUTO 20007KT 9999NDV NCD 12/11 Q1004=
200707282350 METAR ESMX 282350Z AUTO 20007KT 9999NDV FEW025/// 12/11 Q1004=
200707282320 METAR ESMX 282320Z AUTO 20007KT 9999NDV FEW020/// 12/11 Q1004=
200707282250 METAR ESMX 282250Z AUTO 19006KT 9999NDV FEW022/// SCT028/// 12/11 Q1004=
200707282220 METAR ESMX 282220Z AUTO 19006KT 9999NDV FEW032/// 12/12 Q1004=
200707282150 METAR ESMX 282150Z AUTO 19006KT 9999NDV FEW047/// BKN087/// 13/12 Q1004=
200707282120 METAR ESMX 282120Z AUTO 20006KT 9999NDV FEW045/// BKN076/// 13/11 Q1004=
200707282050 METAR ESMX 282050Z AUTO 19006KT 9999NDV OVC059/// 13/12 Q1004=
200707282020 METAR ESMX 282020Z AUTO 20007KT 9999NDV BKN057/// BKN090/// 13/12 Q1004 RERA REDZ=
200707281950 METAR ESMX 281950Z AUTO 21007KT 9999NDV -RA FEW060/// SCT070/// 14/12 Q1004=
200707281920 METAR ESMX 281920Z AUTO 23006KT 9999NDV OVC062/// 15/12 Q1004=
200707281850 METAR ESMX 281850Z AUTO 21006KT 9999NDV SCT067/// 15/12 Q1004=
200707281820 METAR ESMX 281820Z AUTO 21006KT 9999NDV BKN076/// 16/12 Q1003=
200707281750 METAR ESMX 281750Z AUTO 22006KT 9999NDV BKN079/// 16/13 Q1003=
200707281720 METAR ESMX 281720Z AUTO 22006KT 9999NDV NCD 17/13 Q1003=
200707281650 METAR ESMX 281650Z AUTO VRB02KT 9999NDV FEW067/// SCT100/// 17/13 Q1004=
200707281620 METAR ESMX 281620Z AUTO VRB02KT 9999NDV FEW024/// SCT097/// 15/14 Q1004 RERA=
200707281550 METAR ESMX 281550Z AUTO VRB02KT 9999NDV -RA FEW021/// SCT033/// BKN039/// 16/13 Q1004=
200707281520 METAR ESMX 281520Z AUTO 29004KT 240V320 9999NDV FEW039/// SCT055/// BKN067/// 16/12 Q1004 RERA REDZ=
200707281450 METAR ESMX 281450Z AUTO 30009KT 9999NDV FEW043/// SCT092/// 16/11 Q1004=
200707281420 METAR ESMX 281420Z AUTO 29010KT 260V340 9999NDV FEW041/// BKN065/// BKN088/// 19/10 Q1004=
200707281350 METAR ESMX 281350Z AUTO 21012KT 170V250 9999NDV FEW041/// SCT052/// BKN079/// 19/11 Q1004=
200707281320 METAR ESMX 281320Z AUTO 21012KT 9999NDV FEW031/// SCT040/// BKN049/// 20/12 Q1004=
200707281250 METAR ESMX 281250Z AUTO 19012KT 9999NDV FEW027/// SCT043/// 19/13 Q1004=
200707281220 METAR ESMX 281220Z AUTO 20012KT 9999NDV FEW033/// 19/13 Q1004=
200707281120 METAR ESMX 281120Z AUTO 22014KT 9999NDV FEW058/// SCT089/// 18/11 Q1004=
200707281050 METAR ESMX 281050Z AUTO 22010KT 190V250 9999NDV FEW033/// SCT051/// 18/12 Q1004=
200707281020 METAR ESMX 281020Z AUTO 20015KT 9999NDV FEW024/// SCT075/// 17/12 Q1004=
200707280950 METAR ESMX 280950Z AUTO 21012KT 190V250 9999NDV FEW059/// 17/12 Q1004=
200707280920 METAR ESMX 280920Z AUTO 21013KT 9999NDV FEW064/// 17/13 Q1004=
200707280850 METAR ESMX 280850Z AUTO 22014KT 9999NDV FEW017/// SCT021/// BKN083/// 17/12 Q1005=
200707280820 METAR ESMX 280820Z AUTO 22013KT 9999NDV FEW025/// 17/14 Q1005=
200707280750 METAR ESMX 280750Z AUTO 22009KT 9999NDV FEW014/// SCT076/// 15/13 Q1005=
200707280720 METAR ESMX 280720Z AUTO 20010KT 9999NDV FEW010/// SCT077/// 15/13 Q1005=
200707280650 METAR ESMX 280650Z AUTO 22010KT 9999NDV FEW011/// SCT057/// BKN071/// 14/13 Q1005 RERA REDZ=
200707280620 METAR ESMX 280620Z AUTO 20012KT 9999NDV FEW008/// SCT011/// BKN015/// 14/13 Q1004 RERA REDZ=
200707280550 METAR ESMX 280550Z AUTO 20010KT 9999NDV SCT007/// BKN009/// BKN012/// 14/13 Q1005=
200707280520 METAR ESMX 280520Z AUTO 19010KT 9999NDV FEW006/// BKN008/// OVC011/// 13/12 Q1004=
200707280450 METAR ESMX 280450Z AUTO 20009KT 9999NDV FEW007/// SCT020/// 13/12 Q1004=
200707280420 METAR ESMX 280420Z AUTO 20010KT 9999NDV FEW005/// BKN010/// 13/12 Q1004=
200707280350 METAR ESMX 280350Z AUTO 20008KT 9999NDV FEW008/// 12/11 Q1004=
200707280320 METAR ESMX 280320Z AUTO 21009KT 9000NDV FEW006/// SCT019/// BKN067/// 12/12 Q1005 REDZ RERA=
200707280250 METAR ESMX 280250Z AUTO 20009KT 7000NDV -RA FEW005/// SCT007/// BKN017/// 12/12 Q1005=
200707280220 METAR ESMX 280220Z AUTO 20008KT 9999NDV FEW005/// SCT011/// BKN020/// 12/11 Q1005 RERA REDZ=
200707280150 METAR ESMX 280150Z AUTO 20008KT 7000NDV -RA FEW006/// SCT007/// BKN030/// 12/12 Q1005 REDZ=
200707280120 METAR ESMX 280120Z AUTO 19007KT 9999NDV NCD 11/11 Q1005=
200707280050 METAR ESMX 280050Z AUTO 20008KT 9999NDV NCD 12/11 Q1005=
200707280020 METAR ESMX 280020Z AUTO 21008KT 9999NDV FEW008/// 12/11 Q1005=
200707272350 METAR ESMX 272350Z AUTO 20009KT 9999NDV FEW039/// 12/11 Q1005 RERA=
200707272320 METAR ESMX 272320Z AUTO 21011KT 8000NDV -RA FEW016/// SCT072/// 13/12 Q1005 REDZ=
200707272250 METAR ESMX 272250Z AUTO 19007KT 9999NDV FEW030/// 12/11 Q1005=
200707272220 METAR ESMX 272220Z AUTO 20007KT 9999NDV FEW031/// SCT070/// 12/11 Q1005=
200707272150 METAR ESMX 272150Z AUTO 20008KT 9999NDV FEW024/// SCT076/// 13/11 Q1005 RERA=
200707272120 METAR ESMX 272120Z AUTO 20008KT 9999NDV FEW048/// SCT061/// 13/12 Q1005 RERA=
200707272050 METAR ESMX 272050Z AUTO 21007KT 9999NDV FEW024/// BKN061/// 13/12 Q1005 RERA REDZ=
200707272020 METAR ESMX 272020Z AUTO 20008KT 9999NDV RA FEW029/// BKN065/// BKN093/// 13/12 Q1005=
200707271950 METAR ESMX 271950Z AUTO 21008KT 9999NDV FEW031/// SCT052/// 13/12 Q1005 RERA=
200707271920 METAR ESMX 271920Z AUTO 22009KT 9999NDV FEW038/// SCT073/// 14/12 Q1005 RERA REDZ=
200707271850 METAR ESMX 271850Z AUTO 22007KT 9999NDV FEW064/// 15/12 Q1004=
200707271820 METAR ESMX 271820Z AUTO 24008KT 9999NDV FEW026/// SCT067/// 15/11 Q1004=
200707271750 METAR ESMX 271750Z AUTO 22009KT 9999NDV FEW039/// 15/11 Q1004 REDZ=
200707271720 METAR ESMX 271720Z 24012G22KT 9999 -SHRA FEW025CB SCT050 15/12 Q1004=
200707271650 METAR ESMX 271650Z 24010KT 9999 SCT035CB BKN070 17/11 Q1003=
200707271620 METAR ESMX 271620Z 23012KT 190V250 9999 FEW035 SCT050 BKN070 18/12 Q1003=
200707271550 METAR ESMX 271550Z 23012G23KT 190V260 9999 FEW037 SCT045 18/11 Q1003=
200707271520 METAR ESMX 271520Z 22012KT 9999 FEW035 SCT050 18/12 Q1003=
200707271450 METAR ESMX 271450Z 22010KT 9999 FEW030 SCT045 17/13 Q1002 RERA=
200707271420 METAR ESMX 271420Z 24010KT 210V280 9999 FEW030CB SCT040 17/11 Q1002=
200707271350 METAR ESMX 271350Z 25015G25KT 9999 FEW030 SCT050 18/11 Q1002=
200707271320 METAR ESMX 271320Z 23011KT 200V270 9999 FEW030 SCT040 18/13 Q1002=
200707271250 METAR ESMX 271250Z 22011KT 9999 FEW025 SCT040 16/13 Q1002=
200707271220 METAR ESMX 271220Z 21009KT 9999 FEW020 SCT035 16/13 Q1002 RERA=
200707271150 METAR ESMX 271150Z 22007KT 190V250 9999 FEW018 SCT039 17/14 Q1002 RERA=
200707271120 METAR ESMX 271120Z 21010KT 9999 FEW025CB SCT040 17/14 Q1001 RERA=
200707271050 METAR ESMX 271050Z 24011KT 200V270 9999 SHRA FEW020CB SCT040 15/12 Q1002 REDZ=
200707271020 METAR ESMX 271020Z 21012KT 9999 FEW022CB SCT039 18/13 Q1001=
200707270950 METAR ESMX 270950Z 20011KT 9999 FEW017 SCT028 18/15 Q1001=
200707270920 METAR ESMX 270920Z 21013KT 9999 BKN020 17/14 Q1001 RESHRA=
200707270850 METAR ESMX 270850Z 20013KT 7000 SHRA FEW011 SCT016 BKN020CB 16/14 Q1001=
200707270820 METAR ESMX 270820Z 20012KT 9999 FEW011 SCT018 BKN026 17/15 Q1001=
200707270750 METAR ESMX 270750Z 20011KT 9999 FEW009 SCT019 BKN027 17/14 Q1001=
200707270720 METAR ESMX 270720Z 19011KT 150V210 9999 FEW006 SCT015 BKN090 16/15 Q1001=
200707270650 METAR ESMX 270650Z 19009KT 9999 FEW006 BKN100 16/15 Q1001 RERA=
200707270550 METAR ESMX 270550Z 20010KT 160V240 8000 RA FEW003 BKN005 15/14 Q1001=
200707270520 METAR ESMX 270520Z 16005KT 120V210 6000 BR SCT005 BKN007 BKN024 16/15 Q1001 RERA=
200707270450 METAR ESMX 270450Z 16006KT 110V200 5000 BR FEW005 BKN006 16/15 Q1001=
200707270420 METAR ESMX 270420Z 16007KT 120V190 4000 BR SCT004 BKN008 16/15 Q1001 REDZ=
200707270350 METAR ESMX 270350Z 16006KT 120V190 4000 -DZ FEW003 OVC005 16/15 Q1002 RERA=
200707270320 METAR ESMX 270320Z AUTO 16006KT 120V200 3700NDV BR SCT004/// BKN028/// BKN038/// 15/15 Q1002 REDZ=
200707270250 METAR ESMX 270250Z AUTO 16008KT 140V200 4200NDV -DZ SCT005/// BKN075/// 15/15 Q1003 RERA=
200707270220 METAR ESMX 270220Z AUTO 16008KT 120V200 5000NDV BR FEW005/// BKN007/// BKN015/// 16/15 Q1003=
200707270150 METAR ESMX 270150Z AUTO 17009KT 5000NDV BR FEW005/// BKN007/// BKN038/// 16/15 Q1003=
200707270120 METAR ESMX 270120Z AUTO 16008KT 6000NDV BR FEW006/// SCT007/// BKN009/// 16/15 Q1004 REDZ RERA=
200707270050 METAR ESMX 270050Z AUTO 17008KT 140V200 6000NDV -RA FEW006/// SCT008/// BKN009/// 16/15 Q1004 REDZ=
200707270020 METAR ESMX 270020Z 17009KT 6000 -RA FEW012 BKN025 16/15 Q1004 REDZ=
200707262350 METAR ESMX 262350Z 16007KT 120V190 8000 -RA BKN030 16/15 Q1005 REDZ=
200707262250 METAR ESMX 262250Z 17005KT 150V210 9000 BR FEW010 SCT040 BKN072 16/15 Q1005=
200707262220 METAR ESMX 262220Z 18005KT 6000 -DZ FEW015 SCT040 BKN080 16/15 Q1005 RERA=
200707262150 METAR ESMX 262150Z 17004KT 7000 -DZ FEW010 SCT040 BKN060 16/15 Q1006 RERA=
200707262120 METAR ESMX 262120Z 18004KT 8000 BR SCT015 OVC052 16/16 Q1006=
200707262050 METAR ESMX 262050Z 20007KT 9000 BR FEW045 BKN054 BKN084 16/16 Q1006 REDZ=
200707262020 METAR ESMX 262020Z 21011KT 6000 DZ FEW011 SCT049 BKN060 17/15 Q1006 RERA=
200707261950 METAR ESMX 261950Z 17007KT 9999 FEW018 SCT026 BKN040 17/16 Q1007=
200707261920 METAR ESMX 261920Z 18005KT 9999 FEW025 SCT040 BKN070 18/15 Q1006=
200707261850 METAR ESMX 261850Z 18005KT 9999 FEW020 SCT040 BKN080 18/15 Q1006=
200707261820 METAR ESMX 261820Z 20006KT 9999 SCT020 BKN040 18/15 Q1007=
200707261750 METAR ESMX 261750Z 19005KT 9999 FEW025 BKN040 19/15 Q1007=
200707261720 METAR ESMX 261720Z 20005KT 9999 FEW025 SCT042 19/15 Q1007=
200707261650 METAR ESMX 261650Z 21008KT 9999 FEW030 SCT045 19/15 Q1007=
200707261620 METAR ESMX 261620Z 23007KT 9999 FEW020 SCT030 BKN040 19/15 Q1007=
200707261520 METAR ESMX 261520Z 23005KT 9999 FEW025 BKN032 OVC040 19/15 Q1007=
200707261450 METAR ESMX 261450Z 24008KT 9999 FEW034 SCT046 BKN065 20/15 Q1007=
200707261420 METAR ESMX 261420Z 21007KT 170V240 9999 FEW025 BKN035 19/14 Q1007=
200707261350 METAR ESMX 261350Z 21007KT 170V240 9999 FEW025 OVC029 19/14 Q1008=
200707261320 METAR ESMX 261320Z 21009KT 9999 FEW025 OVC030 19/14 Q1008=
200707261250 METAR ESMX 261250Z 24008KT 9999 OVC025 19/14 Q1008=
200707261220 METAR ESMX 261220Z 21006KT 170V250 9999 FEW020 SCT030 BKN035 19/14 Q1008=
200707261150 METAR ESMX 261150Z 22007KT 9999 FEW020 BKN025 BKN035 18/14 Q1008=
200707261120 METAR ESMX 261120Z 24007KT 180V270 9999 FEW019 BKN025 19/14 Q1008=
200707261050 METAR ESMX 261050Z 25007KT 210V300 9999 FEW016 BKN024 17/14 Q1008=
200707261020 METAR ESMX 261020Z 24006KT 210V290 9999 SCT011 BKN016 17/14 Q1008=
200707260950 METAR ESMX 260950Z 25007KT 9999 OVC012 16/13 Q1008=
200707260920 METAR ESMX 260920Z 24008KT 9999 OVC014 16/13 Q1008=
200707260850 METAR ESMX 260850Z 23007KT 9999 BKN010 OVC015 16/13 Q1008=
200707260820 METAR ESMX 260820Z 22007KT 9999 OVC012 15/13 Q1008=
200707260750 METAR ESMX 260750Z 22009KT 9999 BKN015 16/13 Q1008=
200707260720 METAR ESMX 260720Z 22010KT 9999 FEW015 BKN022 16/13 Q1008=
200707260650 METAR ESMX 260650Z 23007KT 200V270 9999 FEW011 BKN016 16/13 Q1008=
200707260620 METAR ESMX 260620Z 23008KT 190V260 9999 BKN010 15/13 Q1008=
200707260550 METAR COR ESMX 260550Z 21005KT 9999 FEW010 BKN048 14/13 Q1008=
200707260520 METAR ESMX 260520Z 23006KT CAVOK 14/13 Q1008=
200707260450 METAR ESMX 260450Z 20004KT CAVOK 12/12 Q1008=
200707260420 METAR ESMX 260420Z 22005KT CAVOK 12/11 Q1008=
200707260350 METAR ESMX 260350Z 21004KT 9999 NSC 11/11 Q1008=
200707260320 METAR ESMX 260320Z AUTO 20004KT 7000NDV NCD 10/10 Q1008=
200707260250 METAR ESMX 260250Z AUTO 23003KT 9000NDV NCD 10/10 Q1007=
200707260220 METAR ESMX 260220Z AUTO 24004KT 9999NDV NCD 10/10 Q1007=
200707260150 METAR ESMX 260150Z AUTO 21003KT 170V240 9999NDV NCD 10/09 Q1008=
200707260120 METAR ESMX 260120Z AUTO 20003KT 9999NDV NCD 11/10 Q1007=
200707260050 METAR ESMX 260050Z AUTO 22004KT 9999NDV FEW015/// 11/10 Q1007=
200707260020 METAR ESMX 260020Z AUTO 24004KT 9999NDV NCD 11/10 Q1007=
200707252350 METAR ESMX 252350Z 24005KT 200V270 CAVOK 11/10 Q1007=
200707252320 METAR ESMX 252320Z 25004KT CAVOK 12/10 Q1007=
200707252250 METAR ESMX 252250Z 26005KT 230V290 CAVOK 12/11 Q1007=
200707252220 METAR ESMX 252220Z 25007KT CAVOK 13/11 Q1007=
200707252150 METAR ESMX 252150Z 25005KT CAVOK 13/11 Q1007=
200707252120 METAR ESMX 252120Z 26005KT 220V290 CAVOK 13/11 Q1007=
200707252050 METAR ESMX 252050Z 26006KT 9999 FEW030 14/11 Q1007=
200707252020 METAR ESMX 252020Z 26007KT 9999 FEW030 15/11 Q1007=
200707251950 METAR ESMX 251950Z 24005KT 210V310 9999 FEW025 15/12 Q1006=
200707251920 METAR ESMX 251920Z 27007KT 240V300 9999 FEW025 16/12 Q1006=
200707251850 METAR ESMX 251850Z 27009KT 240V300 9999 FEW026 16/12 Q1006=
200707251820 METAR ESMX 251820Z 27006KT 9999 FEW027 17/13 Q1005=
200707251750 METAR ESMX 251750Z 26011KT 230V290 9999 FEW025 18/13 Q1005=
200707251720 METAR ESMX 251720Z 27011KT 240V320 9999 FEW026 SCT084 18/14 Q1005=
200707251650 METAR ESMX 251650Z 28005KT 9999 SCT020 BKN055 17/14 Q1005=
200707251620 METAR ESMX 251620Z 28003KT 230V330 9999 VCSH FEW018 SCT040 BKN048 16/15 Q1005 RERA=
200707251550 METAR ESMX 251550Z 29005KT 250V340 9999 -SHRA FEW023CB SCT077 16/15 Q1004=
200707251520 METAR ESMX 251520Z 27011KT 240V300 9999 -SHRA FEW015 SCT025CB BKN045 18/14 Q1004=
200707251450 METAR ESMX 251450Z 28003KT 250V320 9999 VCSH FEW015 SCT025CB BKN082 17/15 Q1004 RERA=
200707251420 METAR ESMX 251420Z 27007KT 240V300 9999 FEW024 BKN065 18/15 Q1004=
200707251350 METAR ESMX 251350Z 28011KT 9999 FEW014 SCT021 BKN096 18/15 Q1003=
200707251320 METAR ESMX 251320Z 28008KT 250V320 9999 FEW014 SCT031 17/16 Q1003=
200707251250 METAR ESMX 251250Z 27007KT 230V300 9999 -SHRA FEW012 SCT030CB BKN110 17/15 Q1003=
200707251220 METAR ESMX 251220Z 29008KT 9999 VCSH FEW023 SCT048 16/15 Q1003 RERA=
200707251150 METAR ESMX 251150Z 29005KT 260V320 9999 VCSH FEW012 FEW035CB BKN080 16/15 Q1002 RERA=
200707251120 METAR ESMX 251120Z 29011KT 8000 SHRA FEW012 SCT035CB BKN083 16/15 Q1002=
200707251050 METAR ESMX 251050Z 28005KT 240V310 9999 FEW010 SCT035 BKN050 16/15 Q1002=
200707250950 METAR ESMX 250950Z 27010KT 9000 -RA FEW015 SCT030 BKN050 17/14 Q1001=
200707250920 METAR ESMX 250920Z 29008KT 9999 FEW010 SCT016 BKN036 17/14 Q1001=
200707250850 METAR ESMX 250850Z 30007KT 260V330 9999 FEW010 BKN020 17/15 Q1001=
200707250820 METAR ESMX 250820Z 29006KT 9999 FEW006 BKN010 OVC040 16/14 Q1000=
200707250750 METAR ESMX 250750Z 31005KT 9999 BR FEW005 SCT020 BKN030 15/14 Q1000=
200707250720 METAR ESMX 250720Z 30005KT 6000 BR FEW006 BKN010 15/14 Q1000=
200707250650 METAR ESMX 250650Z 30007KT 9999 OVC005 15/14 Q0999=
200707250620 METAR ESMX 250620Z 29004KT 9999 BKN005 OVC043 14/13 Q0999=
200707250550 METAR ESMX 250550Z 29003KT 260V330 9999 FEW010 SCT025 BKN035 14/13 Q0999=
200707250520 METAR ESMX 250520Z 32004KT 9999 FEW005 BKN020 13/13 Q0998=
200707250450 METAR ESMX 250450Z 31003KT 9999 FEW005 SCT008 BKN015 13/13 Q0998=
200707250420 METAR ESMX 250420Z 32004KT 300V360 7000 BR BKN003 BKN008 13/13 Q0998=
200707250350 METAR ESMX 250350Z 32004KT 5000 BR OVC002 13/13 Q0998=
200707250320 METAR ESMX 250320Z AUTO 34005KT 3100NDV BR OVC001/// 13/13 Q0998=
200707250250 METAR ESMX 250250Z AUTO 33005KT 2700NDV BR BKN001/// OVC003/// 13/13 Q0997=
200707250220 METAR ESMX 250220Z AUTO 01002KT 3300NDV BR FEW002/// SCT003/// OVC005/// 13/13 Q0997=
200707250150 METAR ESMX 250150Z AUTO 36003KT 320V030 2800NDV BR SCT002/// BKN004/// OVC006/// 14/13 Q0997=
200707250120 METAR ESMX 250120Z AUTO VRB01KT 3000NDV BR OVC002/// 14/13 Q0997=
200707250050 METAR ESMX 250050Z AUTO VRB02KT 2300NDV BR OVC001/// 14/13 Q0997=
200707250020 METAR ESMX 250020Z AUTO VRB02KT 1800NDV BR FEW001/// OVC003/// 14/13 Q0997=
200707242350 METAR ESMX 242350Z VRB02KT 3000 BR OVC002 14/13 Q0997=
200707242320 METAR ESMX 242320Z VRB02KT 3000 BR OVC002 14/13 Q0997=
200707242250 METAR ESMX 242250Z 00000KT 5000 BR OVC002 13/13 Q0997=
200707242220 METAR ESMX 242220Z VRB02KT 5000 BR OVC003 13/13 Q0997=
200707242150 METAR ESMX 242150Z 03003KT 360V060 6000 BR OVC003 13/13 Q0997=
200707242120 METAR ESMX 242120Z 04003KT 8000 BR OVC003 13/13 Q0997=
200707242050 METAR ESMX 242050Z 05003KT 9999 SCT003 OVC005 13/12 Q0997=
200707242020 METAR ESMX 242020Z 05004KT 020V080 9999 FEW005 SCT007 BKN010 13/12 Q0997=
200707241950 METAR ESMX 241950Z 03004KT 350V060 4000 -RA BR FEW007 SCT012 BKN017 13/12 Q0997=
200707241920 METAR ESMX 241920Z 06005KT 360V090 3000 -RA BR SCT010 BKN014 13/12 Q0997=
200707241850 METAR ESMX 241850Z 04006KT 9999 SCT010 BKN013 13/12 Q0997=
200707241820 METAR ESMX 241820Z 06005KT 020V100 9999 FEW006 SCT012 BKN015 13/13 Q0997 RERA=
200707241750 METAR ESMX 241750Z 06003KT 010V140 8000 -RA BR FEW006 SCT012 BKN038 13/13 Q0997=
200707241720 METAR ESMX 241720Z 10003KT 050V140 8000 -RA BR FEW008 SCT018 OVC022 13/13 Q0997=
200707241650 METAR ESMX 241650Z 13004KT 080V170 6000 -RA SCT005 BKN015 13/12 Q0998=
200707241620 METAR ESMX 241620Z 11005KT 070V150 7000 -RA FEW008 SCT022 OVC025 14/13 Q0997=
200707241550 METAR ESMX 241550Z 04004KT 340V100 9999 RA FEW024 SCT036 BKN044 15/13 Q0997=
200707241520 METAR ESMX 241520Z 08003KT 040V120 9000 -RA FEW015 BKN050 15/14 Q0998 REDZ=
200707241450 METAR ESMX 241450Z 08003KT 040V120 9999 FEW015 BKN050 16/14 Q0998=
200707241420 METAR ESMX 241420Z VRB02KT 9999 -RA FEW015 BKN050 16/14 Q0998 REDZ=
200707241350 METAR ESMX 241350Z VRB01KT 9999 -RA FEW010 BKN060 16/14 Q0998=
200707241320 METAR ESMX 241320Z 08003KT 040V110 9999 -RA FEW010 BKN060 16/14 Q0998 REDZ=
200707241250 METAR ESMX 241250Z VRB02KT 9999 -DZ FEW015 BKN065 17/14 Q0998 RERA=
200707241220 METAR ESMX 241220Z 08003KT 050V130 9999 -RA SCT015 BKN070 17/13 Q0999=
200707241150 METAR ESMX 241150Z 04003KT 010V080 9999 SCT010 BKN080 17/13 Q0999=
200707241120 METAR ESMX 241120Z 06003KT 360V120 9999 FEW015 BKN080 17/13 Q0999=
200707241050 METAR ESMX 241050Z 17003KT 120V200 9999 SCT017 BKN091 17/14 Q0999=
200707241020 METAR ESMX 241020Z VRB02KT 9999 FEW017 BKN091 17/13 Q0999=
200707240950 METAR ESMX 240950Z VRB02KT 9999 FEW017 BKN094 16/13 Q0999=
200707240920 METAR ESMX 240920Z 07004KT 9999 BKN014 BKN100 17/13 Q0999=
200707240850 METAR ESMX 240850Z 14003KT 110V190 9999 BKN009 16/13 Q1000=
200707240820 METAR ESMX 240820Z 15004KT 100V180 9999 BKN010 15/13 Q1000=
200707240750 METAR ESMX 240750Z VRB01KT 9999 BKN010 15/13 Q1000=
200707240720 METAR ESMX 240720Z 00000KT 9999 OVC008 15/13 Q1000=
200707240650 METAR ESMX 240650Z 00000KT 9999 OVC007 14/13 Q1000=
200707240620 METAR ESMX 240620Z VRB01KT 9999 OVC007 14/13 Q1000=
200707240550 METAR ESMX 240550Z VRB02KT 9999 OVC006 14/13 Q1000=
200707240520 METAR ESMX 240520Z VRB02KT 9999 OVC005 14/13 Q1000=
200707240450 METAR ESMX 240450Z VRB01KT 9999 OVC004 14/13 Q1000=
200707240420 METAR ESMX 240420Z VRB02KT 9999 OVC004 13/13 Q1001=
200707240350 METAR ESMX 240350Z VRB01KT 9999 BKN003 OVC010 13/13 Q1001=
200707240320 METAR ESMX 240320Z AUTO 21004KT 190V250 9999NDV SCT004/// BKN008/// OVC010/// 13/13 Q1001=
200707240250 METAR ESMX 240250Z AUTO 22003KT 9999NDV FEW003/// SCT008/// OVC009/// 13/13 Q1001=
200707240220 METAR ESMX 240220Z AUTO 21003KT 9999NDV FEW007/// OVC009/// 13/13 Q1001=
200707240150 METAR ESMX 240150Z AUTO 26004KT 9999NDV FEW005/// BKN007/// BKN009/// 13/13 Q1001=
200707240120 METAR ESMX 240120Z AUTO 28003KT 240V320 9999NDV OVC005/// 13/13 Q1001=
200707240050 METAR ESMX 240050Z AUTO 26005KT 9999NDV FEW003/// BKN004/// OVC007/// 14/13 Q1001=
200707240020 METAR ESMX 240020Z 25004KT 210V290 9999 OVC004 14/13 Q1002=
200707232350 METAR ESMX 232350Z 25004KT 9999 OVC005 14/13 Q1002=
200707232320 METAR ESMX 232320Z 25006KT 210V280 9999 SCT005 OVC007 14/13 Q1002=
200707232250 METAR ESMX 232250Z 24005KT 9999 FEW005 BKN007 OVC009 14/13 Q1002=
200707232220 METAR ESMX 232220Z 26006KT 9999 FEW004 SCT005 BKN007 14/13 Q1001=
200707232150 METAR ESMX 232150Z 26005KT 9999 FEW003 BKN005 BKN007 14/13 Q1001=
200707232120 METAR ESMX 232120Z 24005KT 5000 BR BKN003 BKN006 14/13 Q1001=
200707232050 METAR ESMX 232050Z 26006KT 9999 FEW004 BKN005 OVC009 14/13 Q1001=
200707232020 METAR ESMX 232020Z 25007KT 9999 BKN004 OVC006 14/13 Q1001=
200707231920 METAR ESMX 231920Z 26008KT 3500 BR OVC004 14/13 Q1000=
200707231820 METAR ESMX 231820Z 27008KT 4000 BR OVC005 14/13 Q1000=
200707231750 METAR ESMX 231750Z 26009KT 220V290 5000 BR FEW005 OVC006 14/13 Q1000=
200707231720 METAR ESMX 231720Z 26009KT 5000 BR FEW004 OVC006 14/13 Q1000=
200707231650 METAR ESMX 231650Z 26010KT 6000 -RA SCT005 BKN008 14/13 Q1000=
200707231620 METAR ESMX 231620Z 24010KT 200V280 3100 -RADZ BKN005 13/13 Q0999=
200707231550 METAR ESMX 231550Z 26010KT 4000 -RADZ OVC005 13/13 Q0999 RERA=
200707231520 METAR ESMX 231520Z 25009KT 230V290 3300 RADZ OVC004 13/13 Q0999=
200707231450 METAR ESMX 231450Z 26010KT 9999 OVC004 13/12 Q0999=
200707231420 METAR ESMX 231420Z 25010KT 4000 -DZ OVC004 13/12 Q0999=
200707231350 METAR ESMX 231350Z 26010KT 230V290 9999 BKN004 13/12 Q0999=
200707231320 METAR ESMX 231320Z 26010KT 210V290 9999 OVC004 13/12 Q0999=
200707231250 METAR ESMX 231250Z 26011KT 5000 -RA OVC005 13/12 Q0999=
200707231220 METAR ESMX 231220Z 24010KT 210V280 5000 -RA BKN005 13/12 Q0999=
200707231150 METAR ESMX 231150Z 26011KT 230V300 2800 -RADZ FEW005 OVC006 13/12 Q0998=
200707231120 METAR ESMX 231120Z 26011KT 8000 -RA BKN004 12/12 Q0998=
200707231050 METAR ESMX 231050Z 26011KT 4000 -DZ OVC002 13/12 Q0997=
200707231020 METAR ESMX 231020Z 26009KT 220V290 3000 DZ OVC003 13/12 Q0997=
200707230920 METAR ESMX 230920Z 26009KT 2000 -DZ OVC004 13/12 Q0997=
200707230850 METAR ESMX 230850Z 25009KT 4300 -DZ BKN002 OVC004 13/12 Q0996=
200707230820 METAR ESMX 230820Z 27008KT 1800 DZ FEW002 OVC004 13/12 Q0996=
200707230750 METAR ESMX 230750Z 27010KT 6000 DZ OVC004 13/12 Q0996=
200707230720 METAR ESMX 230720Z 27010KT 5000 DZ SCT002 BKN005 OVC009 13/13 Q0996=
200707230650 METAR ESMX 230650Z 27009KT 2500 +DZ FEW003 BKN004 OVC007 14/13 Q0995=
200707230620 METAR ESMX 230620Z 28009KT 3300 +DZ SCT002 OVC006 14/13 Q0995 RERA=
200707230550 METAR ESMX 230550Z 28007KT 9999 OVC003 14/13 Q0995 REDZ RERA=
200707230520 METAR ESMX 230520Z 27008KT 9999 -RA SCT003 OVC004 13/13 Q0995=
200707230450 METAR ESMX 230450Z 26008KT 4000 RA SCT003 OVC004 14/13 Q0995 RERA=
200707230420 METAR ESMX 230420Z 29005KT 7000 DZ OVC007 14/14 Q0995 RERA=
200707230350 METAR ESMX 230350Z 34008KT 310V010 4500 RA BKN005 OVC015 14/14 Q0995 REDZ=
200707230320 METAR ESMX 230320Z AUTO 34009KT 5000NDV DZ BKN004/// OVC007/// 14/14 Q0996 RERA=
200707230250 METAR ESMX 230250Z AUTO 36009KT 7000NDV -DZ FEW003/// BKN005/// OVC007/// 15/14 Q0996=
200707230220 METAR ESMX 230220Z AUTO 36007KT 5000NDV -DZ FEW003/// OVC004/// 14/14 Q0996=
200707230150 METAR ESMX 230150Z AUTO 35008KT 4700NDV -DZ FEW003/// BKN005/// OVC007/// 14/14 Q0996=
200707230120 METAR ESMX 230120Z AUTO 01009KT 4000NDV DZ FEW005/// OVC006/// 14/14 Q0996 RERA=
200707230050 METAR ESMX 230050Z 01009KT 9999 -DZ BKN004 OVC008 14/14 Q0997=
200707230020 METAR ESMX 230020Z 36010KT 9999 -DZ BKN005 OVC010 14/13 Q0997 RERA=
200707222350 METAR ESMX 222350Z 01011KT 6000 DZ FEW004 SCT005 BKN007 14/13 Q0998 REDZ=
200707222320 METAR ESMX 222320Z 02011KT 5000 +RA FEW004 SCT006 OVC008 13/13 Q0999=
200707222250 METAR ESMX 222250Z 01011KT 6000 -RA FEW006 OVC010 13/13 Q0999 REDZ=
200707222220 METAR ESMX 222220Z 36013KT 9000 -RA FEW006 SCT008 BKN009 13/12 Q1000=
200707222150 METAR ESMX 222150Z 35014KT 6000 RA FEW006 SCT009 OVC010 13/12 Q1001=
200707222120 METAR ESMX 222120Z 36013KT 9000 RA FEW006 SCT008 BKN010 13/12 Q1002=
200707222050 METAR ESMX 222050Z 35013KT 5000 RA FEW009 SCT034 BKN039 13/12 Q1003=
200707222020 METAR ESMX 222020Z 35013KT 4400 RA BKN044 12/11 Q1004=
200707221950 METAR ESMX 221950Z 02011KT 7000 RA SCT055 13/11 Q1004=
200707221920 METAR ESMX 221920Z 02009KT 9999 -RA SCT055 13/11 Q1005=
200707221850 METAR ESMX 221850Z 04006KT 8000 RA FEW030 OVC050 13/11 Q1006=
200707221820 METAR ESMX 221820Z 06004KT 360V100 9999 RA OVC060 14/11 Q1006=
200707221750 METAR ESMX 221750Z 07007KT 020V110 9999 -RA OVC060 16/10 Q1006=
200707221720 METAR ESMX 221720Z 05006KT 020V100 9999 BKN050 16/10 Q1007=
200707221650 METAR ESMX 221650Z 06006KT 360V110 9999 SCT030 BKN050 16/10 Q1007 RERA=
200707221620 METAR ESMX 221620Z 09005KT 030V130 9999 SCT035 OVC050 17/10 Q1008=
200707221550 METAR ESMX 221550Z 06004KT 350V110 9999 SCT030 OVC050 17/10 Q1008=
200707221520 METAR ESMX 221520Z 08010KT 020V110 9999 FEW035 SCT060 BKN083 17/11 Q1008=
200707221450 METAR ESMX 221450Z 05009KT 010V080 9999 SCT031 BKN070 18/11 Q1008=
200707221420 METAR ESMX 221420Z 07010KT 020V120 9999 BKN030 18/12 Q1008=
200707221350 METAR ESMX 221350Z 06009KT 020V110 9999 FEW032 SCT037 BKN070 19/12 Q1009=
200707221320 METAR ESMX 221320Z 06008KT 360V120 9999 FEW032 BKN038 BKN066 19/13 Q1009=
200707221250 METAR ESMX 221250Z 08009KT 030V120 9999 FEW032 SCT043 BKN061 19/13 Q1010=
200707221220 METAR ESMX 221220Z 09008KT 050V140 9999 FEW030 SCT040 BKN060 20/13 Q1010=
200707221150 METAR ESMX 221150Z 09006KT 040V140 9999 FEW030 SCT034 BKN039 19/13 Q1010=
200707221120 METAR ESMX 221120Z 09008KT 030V120 9999 SCT031 BKN040 BKN059 19/13 Q1011=
200707221050 METAR ESMX 221050Z 08006KT 040V120 9999 BKN032 BKN041 19/13 Q1011=
200707221020 METAR ESMX 221020Z 09006KT 030V150 9999 BKN030 BKN060 19/13 Q1012=
200707220950 METAR ESMX 220950Z 08007KT 040V130 9999 SCT030 BKN055 19/12 Q1012=
200707220920 METAR ESMX 220920Z 09008KT 050V130 CAVOK 19/11 Q1012=
200707220850 METAR ESMX 220850Z 09007KT 040V150 CAVOK 20/12 Q1012=
200707220820 METAR ESMX 220820Z 09007KT 030V140 CAVOK 19/11 Q1013=
200707220750 METAR ESMX 220750Z 08007KT 040V140 CAVOK 19/11 Q1013=
200707220720 METAR ESMX 220720Z 10006KT 050V140 CAVOK 18/10 Q1013=
200707220650 METAR ESMX 220650Z AUTO 10006KT 070V140 9999NDV BKN056/// 18/10 Q1014=
200707220620 METAR ESMX 220620Z AUTO VRB04KT 9999NDV FEW055/// 16/11 Q1014=
200707220550 METAR ESMX 220550Z AUTO 09005KT 040V140 9999NDV NCD 16/12 Q1014=
200707220520 METAR ESMX 220520Z AUTO 07005KT 020V140 9999NDV NCD 15/12 Q1014=
200707220450 METAR ESMX 220450Z AUTO 06004KT 020V090 9999NDV FEW058/// 14/12 Q1015=
200707220420 METAR ESMX 220420Z AUTO 07004KT 9999NDV BKN059/// 13/12 Q1015=
200707220350 METAR ESMX 220350Z AUTO VRB02KT 9999NDV FEW058/// SCT069/// 12/12 Q1016=
200707220320 METAR ESMX 220320Z AUTO VRB02KT 9999NDV SCT057/// 13/12 Q1016=
200707220250 METAR ESMX 220250Z AUTO VRB02KT 9999NDV FEW058/// SCT069/// 13/12 Q1016=
200707220220 METAR ESMX 220220Z AUTO 09003KT 060V120 9999NDV SCT057/// BKN070/// 13/12 Q1016=
200707220150 METAR ESMX 220150Z AUTO 07003KT 010V140 9999NDV FEW056/// BKN068/// 13/12 Q1016=
200707220120 METAR ESMX 220120Z AUTO 07004KT 010V110 9999NDV BKN054/// BKN071/// 13/12 Q1016=
200707220050 METAR ESMX 220050Z AUTO 09004KT 050V120 9999NDV BKN053/// BKN075/// 14/12 Q1016=
200707220020 METAR ESMX 220020Z AUTO 11004KT 9999NDV OVC052/// 14/12 Q1017=
200707212350 METAR ESMX 212350Z AUTO 08003KT 040V140 9999NDV BKN052/// 14/12 Q1017=
200707212320 METAR ESMX 212320Z AUTO VRB01KT 9999NDV OVC057/// 14/12 Q1017=
200707212250 METAR ESMX 212250Z AUTO VRB02KT 9999NDV FEW052/// BKN066/// 13/12 Q1017=
200707212220 METAR ESMX 212220Z AUTO VRB02KT 9999NDV BKN050/// 14/11 Q1017=
200707212150 METAR ESMX 212150Z AUTO VRB02KT 9999NDV OVC049/// 14/12 Q1017=
200707212120 METAR ESMX 212120Z AUTO VRB02KT 9999NDV BKN048/// 14/11 Q1017=
200707212050 METAR ESMX 212050Z AUTO VRB02KT 9999NDV OVC048/// 15/11 Q1017=
200707212020 METAR ESMX 212020Z AUTO 12003KT 070V170 9999NDV BKN047/// BKN065/// 15/11 Q1017=
200707211950 METAR ESMX 211950Z AUTO 13003KT 100V170 9999NDV BKN048/// 15/12 Q1017=
200707211920 METAR ESMX 211920Z AUTO 13003KT 090V160 9999NDV OVC050/// 16/12 Q1017=
200707211850 METAR ESMX 211850Z AUTO 12003KT 080V150 9999NDV FEW023/// OVC049/// 16/12 Q1017=
200707211820 METAR ESMX 211820Z AUTO 11003KT 070V190 9999NDV OVC047/// 16/12 Q1017=
200707211750 METAR ESMX 211750Z AUTO 11004KT 070V150 9999NDV FEW023/// OVC047/// 17/13 Q1017=
200707211720 METAR ESMX 211720Z AUTO 12003KT 080V160 9999NDV OVC046/// 17/13 Q1018=
200707211650 METAR ESMX 211650Z AUTO 13004KT 040V170 9999NDV FEW021/// OVC049/// 17/13 Q1018=
200707211620 METAR ESMX 211620Z AUTO 12003KT 080V170 9999NDV FEW017/// OVC049/// 16/13 Q1018=
200707211550 METAR ESMX 211550Z AUTO 11004KT 050V170 9999NDV OVC050/// 16/12 Q1018=
200707211520 METAR ESMX 211520Z AUTO 14004KT 9999NDV OVC049/// 16/12 Q1018=
200707211450 METAR ESMX 211450Z AUTO 12004KT 9999NDV OVC051/// 16/12 Q1018=
200707211420 METAR ESMX 211420Z AUTO 10004KT 070V150 9999NDV OVC051/// 17/13 Q1018=
200707211350 METAR ESMX 211350Z AUTO 08004KT 030V150 9999NDV OVC050/// 16/12 Q1018=
200707211320 METAR ESMX 211320Z AUTO 09005KT 050V140 9999NDV OVC049/// 16/12 Q1019=
200707211250 METAR ESMX 211250Z AUTO 11006KT 080V160 9999NDV OVC032/// 15/12 Q1019=
200707211220 METAR ESMX 211220Z AUTO 12004KT 060V170 9999NDV -DZ BKN024/// OVC031/// 15/13 Q1019 RERA=
200707211150 METAR ESMX 211150Z AUTO 09003KT 040V140 9999NDV BKN035/// BKN046/// 15/12 Q1019 REDZ RERA=
200707211120 METAR ESMX 211120Z AUTO 12004KT 070V200 9999NDV DZ FEW020/// BKN049/// 15/13 Q1019 RERA=
200707211050 METAR ESMX 211050Z AUTO 11003KT 070V160 9999NDV FEW018/// SCT039/// BKN058/// 15/13 Q1019 RERA REDZ=
200707211020 METAR ESMX 211020Z AUTO 12003KT 060V170 9999NDV -RA BKN058/// 15/13 Q1019 REDZ=
200707210950 METAR ESMX 210950Z AUTO 14004KT 060V170 9999NDV DZ FEW035/// BKN064/// 15/13 Q1019 RERA=
200707210920 METAR ESMX 210920Z AUTO 16005KT 120V210 9999NDV -RA FEW069/// 16/13 Q1018=
200707210850 METAR ESMX 210850Z AUTO 14005KT 100V180 9999NDV -RA BKN080/// 17/12 Q1018=
200707210820 METAR ESMX 210820Z AUTO 13006KT 100V190 9999NDV SCT083/// 18/12 Q1018=
200707210750 METAR ESMX 210750Z AUTO 13004KT 070V170 9999NDV BKN082/// 18/12 Q1018=
200707210720 METAR ESMX 210720Z AUTO 13004KT 080V180 9999NDV OVC082/// 18/12 Q1018=
200707210650 METAR ESMX 210650Z AUTO 09003KT 020V160 9999NDV BKN081/// 18/12 Q1018=
200707210620 METAR ESMX 210620Z AUTO 08004KT 040V140 9999NDV FEW081/// 18/13 Q1017=
200707210550 METAR ESMX 210550Z AUTO 09003KT 350V160 9999NDV NCD 16/13 Q1017=
200707210520 METAR ESMX 210520Z AUTO VRB02KT 9999NDV NCD 15/13 Q1017=
200707210450 METAR ESMX 210450Z AUTO 10004KT 060V120 9999NDV NCD 14/12 Q1017=
200707210420 METAR ESMX 210420Z AUTO 11003KT 9999NDV NCD 13/12 Q1018=
200707210350 METAR ESMX 210350Z AUTO 10002KT 9999NDV NCD 10/10 Q1017=
200707210320 METAR ESMX 210320Z AUTO 03004KT 9999NDV NCD 10/09 Q1017=
200707210250 METAR ESMX 210250Z AUTO 05003KT 0600NDV R01/P2000N R19/P2000 BR NCD 10/10 Q1017=
200707210220 METAR ESMX 210220Z AUTO 00000KT 6000NDV NCD 10/09 Q1017=
200707210150 METAR ESMX 210150Z AUTO VRB01KT 9999NDV NCD 11/10 Q1017=
200707210120 METAR ESMX 210120Z AUTO VRB01KT 9999NDV NCD 12/11 Q1017=
200707210050 METAR ESMX 210050Z AUTO 01003KT 9999NDV NCD 12/11 Q1017=
200707210020 METAR ESMX 210020Z AUTO 06003KT 030V100 9999NDV NCD 13/11 Q1017=
200707202350 METAR ESMX 202350Z AUTO 05002KT 9999NDV NCD 13/10 Q1017=
200707202320 METAR ESMX 202320Z AUTO 05002KT 9999NDV NCD 13/10 Q1017=
200707202250 METAR ESMX 202250Z AUTO 06003KT 020V100 9999NDV NCD 12/09 Q1017=
200707202220 METAR ESMX 202220Z AUTO 05003KT 020V080 9999NDV NCD 12/10 Q1017=
200707202150 METAR ESMX 202150Z AUTO 06002KT 9999NDV FEW054/// 12/10 Q1018=
200707202120 METAR ESMX 202120Z AUTO VRB02KT 9999NDV NCD 11/09 Q1017=
200707202050 METAR ESMX 202050Z AUTO 01001KT 2800NDV NCD 12/10 Q1017=
200707202020 METAR ESMX 202020Z AUTO 00000KT 9999NDV NCD 12/10 Q1017=
200707201950 METAR ESMX 201950Z AUTO 00000KT 9999NDV NCD 13/10 Q1017=
200707201920 METAR ESMX 201920Z AUTO 00000KT 9999NDV NCD 16/10 Q1017=
200707201850 METAR ESMX 201850Z AUTO 35003KT 9999NDV NCD 18/11 Q1017=
200707201820 METAR ESMX 201820Z AUTO 36004KT 9999NDV NCD 20/09 Q1017=
200707201750 METAR ESMX 201750Z AUTO 34004KT 9999NDV FEW055/// 20/09 Q1017=
200707201720 METAR ESMX 201720Z 36004KT CAVOK 21/08 Q1017=
200707201650 METAR ESMX 201650Z 01005KT CAVOK 21/09 Q1017=
200707201620 METAR ESMX 201620Z 10004KT 060V150 CAVOK 21/08 Q1017=
200707201550 METAR ESMX 201550Z 03005KT 340V050 CAVOK 21/09 Q1017=
200707201520 METAR ESMX 201520Z 03004KT 330V070 CAVOK 20/08 Q1017=
200707201450 METAR ESMX 201450Z VRB03KT CAVOK 22/07 Q1017=
200707201420 METAR ESMX 201420Z VRB02KT CAVOK 20/08 Q1017=
200707201350 METAR ESMX 201350Z 25004KT 200V320 CAVOK 21/08 Q1017=
200707201320 METAR ESMX 201320Z 32003KT 270V020 CAVOK 20/07 Q1017=
200707201250 METAR ESMX 201250Z 32005KT 270V020 CAVOK 20/08 Q1018=
200707201220 METAR ESMX 201220Z 25006KT 220V300 9999 FEW048 20/09 Q1018=
200707201150 METAR ESMX 201150Z 26005KT 170V320 9999 FEW045 20/08 Q1018=
200707201120 METAR ESMX 201120Z VRB06KT 9999 SCT042 19/09 Q1018=
200707201050 METAR ESMX 201050Z 24004KT 160V310 9999 SCT042 19/09 Q1018=
200707201020 METAR ESMX 201020Z 28007KT 230V330 9999 FEW035 SCT043 18/09 Q1018=
200707200950 METAR ESMX 200950Z 25005KT 210V280 9999 SCT038 17/08 Q1018=
200707200920 METAR ESMX 200920Z 21007KT 180V240 9999 FEW034 BKN039 17/08 Q1018=
200707200850 METAR ESMX 200850Z 21008KT 9999 FEW033 BKN038 17/09 Q1019=
200707200820 METAR ESMX 200820Z 26008KT 9999 FEW030 BKN040 15/08 Q1019=
200707200750 METAR ESMX 200750Z 24006KT 210V280 9999 FEW028 SCT037 16/09 Q1019=
200707200720 METAR ESMX 200720Z 25006KT 190V290 9999 FEW022 SCT030 16/10 Q1019=
200707200650 METAR ESMX 200650Z 24006KT 9999 FEW020 SCT040 15/10 Q1019=
200707200620 METAR ESMX 200620Z 25004KT 210V300 9999 SCT039 14/10 Q1019=
200707200550 METAR ESMX 200550Z VRB02KT 9999 BKN038 13/10 Q1019=
200707200520 METAR ESMX 200520Z 23003KT 9999 FEW030 BKN040 12/10 Q1019=
200707200450 METAR ESMX 200450Z 21003KT 9999 BKN038 12/10 Q1019=
200707200420 METAR ESMX 200420Z 00000KT 9999 OVC038 11/10 Q1018=
200707200350 METAR ESMX 200350Z VRB02KT 9999 OVC037 11/10 Q1018=
200707200320 METAR ESMX 200320Z AUTO 22003KT 9999NDV OVC035/// 10/09 Q1018=
200707200250 METAR ESMX 200250Z AUTO 18003KT 9999NDV OVC035/// 10/09 Q1018=
200707200220 METAR ESMX 200220Z AUTO 25002KT 9999NDV OVC033/// 10/09 Q1018=
200707200150 METAR ESMX 200150Z AUTO 18002KT 9999NDV BKN033/// 09/08 Q1018=
200707200120 METAR ESMX 200120Z AUTO 23002KT 9999NDV NCD 08/07 Q1018=
200707200050 METAR ESMX 200050Z AUTO 24002KT 9999NDV NCD 08/07 Q1018=
200707200020 METAR ESMX 200020Z 24003KT 9999 FEW039 09/08 Q1018=
200707192350 METAR ESMX 192350Z 23003KT 9999 FEW038 09/08 Q1018=
200707192320 METAR ESMX 192320Z 23003KT CAVOK 10/08 Q1018=
200707192250 METAR ESMX 192250Z 23003KT CAVOK 10/08 Q1018=
200707192220 METAR ESMX 192220Z 17003KT CAVOK 09/08 Q1018=
200707192150 METAR ESMX 192150Z 24002KT CAVOK 11/08 Q1017=
200707192120 METAR ESMX 192120Z 26004KT CAVOK 12/08 Q1017=
200707192050 METAR ESMX 192050Z 21003KT 190V250 CAVOK 12/08 Q1017=
200707192020 METAR ESMX 192020Z 24004KT CAVOK 12/08 Q1017=
200707191950 METAR ESMX 191950Z 24004KT CAVOK 13/08 Q1017=
200707191920 METAR ESMX 191920Z 25005KT CAVOK 14/08 Q1017=
200707191850 METAR ESMX 191850Z 25006KT CAVOK 15/08 Q1017=
200707191820 METAR ESMX 191820Z 25006KT CAVOK 16/08 Q1016=
200707191750 METAR ESMX 191750Z 26010KT 230V290 CAVOK 17/08 Q1016=
200707191720 METAR ESMX 191720Z 27010KT 240V300 9999 FEW046 18/07 Q1016=
200707191650 METAR ESMX 191650Z 27009KT 230V300 9999 SCT045 18/08 Q1016=
200707191620 METAR ESMX 191620Z 27010KT 9999 SCT042 17/08 Q1016=
200707191550 METAR ESMX 191550Z 27011KT 9999 BKN040 18/08 Q1016=
200707191450 METAR ESMX 191450Z 26012KT 210V300 9999 SCT047 18/08 Q1016=
200707191420 METAR ESMX 191420Z 26012KT 220V290 9999 FEW035 SCT045 18/08 Q1016=
200707191350 METAR ESMX 191350Z 26015KT 220V290 9999 FEW035 SCT045 19/08 Q1016=
200707191320 METAR ESMX 191320Z 26013KT 230V300 9999 FEW036 SCT043 18/09 Q1016=
200707191250 METAR ESMX 191250Z 24011KT 210V280 9999 FEW031 BKN049 17/10 Q1016=
200707191220 METAR ESMX 191220Z 24011KT 200V280 9999 SCT035 BKN046 16/09 Q1016=
200707191150 METAR ESMX 191150Z 26010KT 9999 FEW033 SCT038 BKN044 17/10 Q1015=
200707191120 METAR ESMX 191120Z 26012G22KT 210V290 9999 SCT036 BKN045 17/09 Q1015=
200707191050 METAR ESMX 191050Z 25012KT 9999 BKN045 17/09 Q1015=
200707191020 METAR ESMX 191020Z 25012KT 220V280 9999 FEW041 BKN047 17/09 Q1015=
200707190950 METAR ESMX 190950Z 24009KT 210V290 9999 SCT030 BKN040 16/10 Q1015=
200707190920 METAR ESMX 190920Z 26011KT 230V300 9999 FEW030 SCT035 16/09 Q1015=
200707190850 METAR ESMX 190850Z 26012KT 230V290 9999 BKN035 16/09 Q1015=
200707190820 METAR ESMX 190820Z 25011KT 200V280 9999 SCT032 OVC040 16/09 Q1014=
200707190750 METAR ESMX 190750Z 25010KT 200V280 9999 SCT030 BKN040 16/10 Q1014=
200707190720 METAR ESMX 190720Z 25013KT 9999 SCT030 16/09 Q1014=
200707190650 METAR ESMX 190650Z 25013KT 9999 FEW028 SCT042 16/09 Q1014=
200707190620 METAR ESMX 190620Z 23011KT 190V260 9999 BKN026 BKN037 15/10 Q1014=
200707190550 METAR ESMX 190550Z 25010KT 210V290 9999 SCT030 15/10 Q1013=
200707190520 METAR ESMX 190520Z 26014KT 230V300 9999 FEW030 15/09 Q1013=
200707190450 METAR ESMX 190450Z 27012KT 240V300 9999 FEW025 15/10 Q1013=
200707190420 METAR ESMX 190420Z 26010KT 220V300 9999 SCT020 BKN029 14/10 Q1013=
200707190350 METAR ESMX 190350Z 24007KT 190V300 9999 SCT018 BKN027 14/12 Q1013=
200707190320 METAR ESMX 190320Z AUTO 23007KT 9999NDV FEW016/// SCT020/// BKN028/// 14/12 Q1013=
200707190250 METAR ESMX 190250Z AUTO 22007KT 9999NDV FEW021/// BKN026/// BKN034/// 14/11 Q1013=
200707190220 METAR ESMX 190220Z AUTO 25009KT 9999NDV FEW037/// 14/11 Q1013=
200707190150 METAR ESMX 190150Z AUTO 25007KT 200V300 9999NDV FEW026/// 15/12 Q1013=
200707190120 METAR ESMX 190120Z AUTO 26009KT 230V290 9999NDV FEW019/// BKN034/// 15/12 Q1013=
200707190050 METAR ESMX 190050Z AUTO 22008KT 9999NDV SCT016/// BKN026/// BKN053/// 15/13 Q1013=
200707190020 METAR ESMX 190020Z 23008KT 9999 FEW017 SCT029 15/13 Q1013=
200707182350 METAR ESMX 182350Z 22007KT 9999 FEW019 SCT027 15/13 Q1013=
200707182250 METAR ESMX 182250Z 23006KT 9999 FEW024 15/13 Q1013=
200707182220 METAR ESMX 182220Z 23007KT 9999 FEW024 SCT044 15/13 Q1013=
200707182150 METAR ESMX 182150Z 22006KT 200V260 CAVOK 15/12 Q1013=
200707182120 METAR ESMX 182120Z 23005KT CAVOK 16/12 Q1013=
200707182050 METAR ESMX 182050Z 21007KT 9999 FEW040 16/12 Q1012=
200707182020 METAR ESMX 182020Z 24007KT 9999 SCT040 17/12 Q1012=
200707181950 METAR ESMX 181950Z 22007KT CAVOK 17/12 Q1012=
200707181920 METAR ESMX 181920Z 23009KT 9999 FEW041 SCT067 18/11 Q1012=
200707181850 METAR ESMX 181850Z 23009KT 9999 FEW048 19/11 Q1012=
200707181820 METAR ESMX 181820Z 23011KT 200V260 9999 FEW045 19/11 Q1012=
200707181750 METAR ESMX 181750Z 23011KT 9999 FEW045 20/10 Q1012=
200707181720 METAR ESMX 181720Z 23013KT 200V260 9999 FEW045 20/10 Q1012=
200707181650 METAR ESMX 181650Z 25012KT 220V280 9999 FEW045 21/10 Q1012=
200707181620 METAR ESMX 181620Z 24013KT 9999 FEW045 21/10 Q1012=
200707181550 METAR ESMX 181550Z 25013KT 180V280 9999 FEW045 SCT065 22/11 Q1012=
200707181520 METAR ESMX 181520Z 25014KT 230V290 9999 FEW045 SCT065 22/12 Q1013=
200707181450 METAR ESMX 181450Z 26013KT 220V290 9999 FEW045 SCT065 22/11 Q1013=
200707181420 METAR ESMX 181420Z 23014G26KT 190V260 CAVOK 22/11 Q1013=
200707181350 METAR ESMX 181350Z 24014KT 210V280 CAVOK 22/10 Q1013=
200707181320 METAR ESMX 181320Z 21016KT CAVOK 22/11 Q1013=
200707181250 METAR ESMX 181250Z 24015G25KT 210V280 9999 FEW030 SCT050 22/11 Q1013=
200707181220 METAR ESMX 181220Z 24018KT 9999 FEW030 SCT050 23/11 Q1013=
200707181150 METAR ESMX 181150Z 25016G27KT 210V280 CAVOK 22/11 Q1013=
200707181120 METAR ESMX 181120Z 24014KT 200V280 9999 FEW045 SCT065 21/11 Q1013=
200707181050 METAR ESMX 181050Z 23013KT 9999 FEW040 SCT065 22/12 Q1013=
200707181020 METAR ESMX 181020Z 22018G29KT 190V250 9999 FEW037 SCT054 22/13 Q1013=
200707180950 METAR ESMX 180950Z 20017KT 9999 FEW026 SCT040 21/14 Q1013=
200707180920 METAR ESMX 180920Z 22015KT 9999 FEW022 SCT031 BKN040 19/15 Q1014=
200707180850 METAR ESMX 180850Z 21012KT 9999 FEW022 SCT038 18/15 Q1014=
200707180750 METAR ESMX 180750Z 21013KT 9999 FEW026CB SCT034 BKN039 19/13 Q1014=
200707180720 METAR ESMX 180720Z 21012KT 9999 FEW026 SCT049 18/13 Q1014=
200707180650 METAR ESMX 180650Z 23011KT 9999 FEW023 SCT043CB BKN063 17/12 Q1014 RESHRA=
200707180620 METAR ESMX 180620Z 22011KT 190V260 9999 FEW040 SCT064 17/13 Q1014=
200707180550 METAR ESMX 180550Z 20011KT 9999 SCT047 17/13 Q1014=
200707180520 METAR ESMX 180520Z 20010KT CAVOK 15/12 Q1014=
200707180450 METAR ESMX 180450Z 21010KT CAVOK 14/12 Q1014=
200707180420 METAR ESMX 180420Z 21009KT CAVOK 14/12 Q1014=
200707180350 METAR ESMX 180350Z 20007KT CAVOK 13/12 Q1014=
200707180320 METAR ESMX 180320Z AUTO 19007KT 9999NDV NCD 13/12 Q1014=
200707180250 METAR ESMX 180250Z AUTO 20009KT 9999NDV NCD 13/12 Q1014=
200707180220 METAR ESMX 180220Z AUTO 21009KT 9999NDV NCD 14/12 Q1014=
200707180150 METAR ESMX 180150Z AUTO 21009KT 9999NDV NCD 14/12 Q1015=
200707180120 METAR ESMX 180120Z AUTO 21009KT 9999NDV NCD 14/12 Q1015=
200707180050 METAR ESMX 180050Z AUTO 23007KT 9999NDV NCD 14/12 Q1015=
200707180020 METAR ESMX 180020Z AUTO 22008KT 9999NDV NCD 14/12 Q1015=
200707172350 METAR ESMX 172350Z 21008KT CAVOK 14/12 Q1015=
200707172320 METAR ESMX 172320Z 22009KT CAVOK 15/12 Q1015=
200707172250 METAR ESMX 172250Z 22008KT CAVOK 15/11 Q1015=
200707172220 METAR ESMX 172220Z 22008KT CAVOK 15/11 Q1015=
200707172150 METAR ESMX 172150Z 21008KT CAVOK 15/11 Q1015=
200707172120 METAR ESMX 172120Z 21008KT 170V240 9999 NSC 16/11 Q1015=
200707172050 METAR ESMX 172050Z 21008KT CAVOK 16/11 Q1015=
200707172020 METAR ESMX 172020Z 23009KT CAVOK 17/10 Q1015=
200707171950 METAR ESMX 171950Z 22008KT CAVOK 17/10 Q1014=
200707171920 METAR ESMX 171920Z 23013KT 190V260 CAVOK 18/10 Q1014=
200707171850 METAR ESMX 171850Z 25011G22KT 220V280 CAVOK 19/10 Q1014=
200707171820 METAR ESMX 171820Z 24012G22KT 200V280 CAVOK 20/11 Q1013=
200707171750 METAR ESMX 171750Z 24013KT CAVOK 21/11 Q1013=
200707171720 METAR ESMX 171720Z 25014KT 9999 SCT035 21/12 Q1013=
200707171650 METAR ESMX 171650Z 26012KT 9999 FEW034 SCT059 21/13 Q1012=
200707171620 METAR ESMX 171620Z 26012G22KT 200V300 9999 FEW033 SCT056 22/14 Q1012=
200707171550 METAR ESMX 171550Z 25013KT 210V280 9999 FEW034 23/15 Q1012=
200707171520 METAR ESMX 171520Z 25010KT 210V290 9999 FEW035 22/15 Q1012=
200707171450 METAR ESMX 171450Z 23010KT 190V280 9999 FEW037 SCT072 22/16 Q1012=
200707171420 METAR ESMX 171420Z 25010KT 210V280 9999 VCSH FEW024 SCT035CB BKN054 21/17 Q1012=
200707171350 METAR ESMX 171350Z 23012KT 9999 TS VCSH FEW043CB SCT110 23/17 Q1011=
200707171320 METAR ESMX 171320Z 24008KT 200V280 9999 FEW041CB SCT100 23/19 Q1011 RERA=
200707171250 METAR ESMX 171250Z 20012KT 9999 TS VCSH FEW025 SCT040CB 25/18 Q1011=
200707171220 METAR ESMX 171220Z 20015KT 160V220 9999 FEW035 SCT100 26/17 Q1011=
200707171150 METAR ESMX 171150Z 20017KT CAVOK 25/17 Q1011=
200707171120 METAR ESMX 171120Z 23012KT CAVOK 24/17 Q1010 RERA=
200707171050 METAR ESMX 171050Z 15009KT 120V190 CAVOK 22/16 Q1010=
200707171020 METAR ESMX 171020Z 18011KT CAVOK 23/16 Q1010=
200707170950 METAR ESMX 170950Z 16008KT CAVOK 23/17 Q1010=
200707170920 METAR ESMX 170920Z 17007KT CAVOK 23/17 Q1010=
200707170850 METAR ESMX 170850Z 16006KT CAVOK 22/16 Q1009=
200707170820 METAR ESMX 170820Z 15007KT CAVOK 20/16 Q1009=
200707170750 METAR ESMX 170750Z 14009G20KT 9999 -RA NSC 18/16 Q1009=
200707170720 METAR ESMX 170720Z 16009KT 120V190 CAVOK 19/15 Q1011=
200707170650 METAR ESMX 170650Z 16008KT 110V190 CAVOK 19/15 Q1012=
200707170620 METAR ESMX 170620Z 14004KT 080V240 CAVOK 20/15 Q1011=
200707170550 METAR ESMX 170550Z 13005KT 090V170 CAVOK 19/14 Q1011=
200707170520 METAR ESMX 170520Z 14005KT 090V180 CAVOK 18/14 Q1011=
200707170450 METAR ESMX 170450Z 12005KT 060V160 CAVOK 18/14 Q1011=
200707170420 METAR ESMX 170420Z 13004KT 070V170 CAVOK 17/13 Q1011=
200707170350 METAR ESMX 170350Z 13004KT 100V160 CAVOK 17/12 Q1011=
200707170320 METAR ESMX 170320Z AUTO 13003KT 080V180 9999NDV NCD 16/11 Q1011=
200707170250 METAR ESMX 170250Z AUTO 11004KT 080V160 9999NDV NCD 16/10 Q1011=
200707170220 METAR ESMX 170220Z AUTO 11004KT 9999NDV NCD 15/10 Q1012=
200707170150 METAR ESMX 170150Z AUTO 11003KT 070V150 9999NDV NCD 15/10 Q1012=
200707170120 METAR ESMX 170120Z AUTO 11003KT 030V140 9999NDV NCD 15/11 Q1012=
200707170050 METAR ESMX 170050Z AUTO 10003KT 060V140 9999NDV NCD 15/11 Q1013=
200707170020 METAR ESMX 170020Z AUTO 08003KT 050V130 9999NDV NCD 15/11 Q1013=
200707162350 METAR ESMX 162350Z 08003KT 050V120 CAVOK 15/11 Q1013=
200707162320 METAR ESMX 162320Z VRB02KT CAVOK 15/11 Q1014=
200707162250 METAR ESMX 162250Z 14003KT 090V230 CAVOK 17/11 Q1014=
200707162220 METAR ESMX 162220Z 15004KT 110V190 CAVOK 18/12 Q1014=
200707162150 METAR ESMX 162150Z 16006KT CAVOK 19/12 Q1014=
200707162120 METAR ESMX 162120Z 15006KT 090V190 CAVOK 19/13 Q1014=
200707162050 METAR ESMX 162050Z 14006KT 100V220 CAVOK 20/13 Q1014=
200707162020 METAR ESMX 162020Z 13006KT 100V160 CAVOK 21/13 Q1014=
200707161950 METAR ESMX 161950Z 14005KT 100V170 CAVOK 22/13 Q1014=
200707161920 METAR ESMX 161920Z 14007KT 110V170 CAVOK 23/13 Q1014=
200707161850 METAR ESMX 161850Z 14005KT CAVOK 24/14 Q1013=
200707161820 METAR ESMX 161820Z 14005KT 100V170 CAVOK 25/14 Q1013=
200707161750 METAR ESMX 161750Z 15007KT 110V190 CAVOK 26/15 Q1013=
200707161720 METAR ESMX 161720Z 15004KT 120V180 CAVOK 27/14 Q1013=
200707161650 METAR ESMX 161650Z 14004KT 080V190 CAVOK 27/14 Q1013=
200707161620 METAR ESMX 161620Z 16004KT 120V200 CAVOK 27/13 Q1014=
200707161550 METAR ESMX 161550Z 16004KT 110V200 CAVOK 27/12 Q1014=
200707161520 METAR ESMX 161520Z 18003KT 140V220 CAVOK 27/13 Q1014=
200707161450 METAR ESMX 161450Z 01003KT 310V070 CAVOK 27/12 Q1014=
200707161420 METAR ESMX 161420Z 33003KT 270V360 CAVOK 26/12 Q1014=
200707161350 METAR ESMX 161350Z 01005KT 340V060 CAVOK 26/13 Q1014=
200707161320 METAR ESMX 161320Z 35003KT 270V030 CAVOK 26/11 Q1015=
200707161250 METAR ESMX 161250Z 05004KT 020V100 CAVOK 26/10 Q1015=
200707161220 METAR ESMX 161220Z 05004KT CAVOK 25/10 Q1015=
200707161150 METAR ESMX 161150Z 08004KT 030V160 CAVOK 25/08 Q1015=
200707161120 METAR ESMX 161120Z 11004KT 060V160 CAVOK 24/08 Q1015=
200707161050 METAR ESMX 161050Z VRB02KT CAVOK 24/08 Q1015=
200707161020 METAR ESMX 161020Z 13004KT 030V170 CAVOK 23/08 Q1015=
200707160820 METAR ESMX 160820Z 18003KT 110V230 CAVOK 20/09 Q1016=
200707160750 METAR ESMX 160750Z 16003KT 100V210 CAVOK 19/10 Q1015=
200707160720 METAR ESMX 160720Z VRB02KT CAVOK 19/10 Q1016=
200707160650 METAR ESMX 160650Z 03003KT 350V080 CAVOK 18/11 Q1016=
200707160620 METAR ESMX 160620Z VRB01KT CAVOK 17/11 Q1015=
200707160550 METAR ESMX 160550Z VRB02KT CAVOK 16/12 Q1015=
200707160520 METAR ESMX 160520Z 00000KT CAVOK 15/12 Q1015=
200707160450 METAR ESMX 160450Z 00000KT CAVOK 14/13 Q1015=
200707160420 METAR ESMX 160420Z 18002KT CAVOK 12/11 Q1015=
200707160350 METAR ESMX 160350Z 00000KT CAVOK 11/10 Q1015=
200707160320 METAR ESMX 160320Z AUTO 00000KT 9999NDV NCD 11/10 Q1015=
200707160250 METAR ESMX 160250Z AUTO 00000KT 9999NDV NCD 11/10 Q1015=
200707160220 METAR ESMX 160220Z AUTO 02003KT 9999NDV NCD 11/10 Q1015=
200707160150 METAR ESMX 160150Z AUTO 22005KT 9999NDV NCD 12/11 Q1016=
200707160120 METAR ESMX 160120Z AUTO VRB02KT 9999NDV NCD 11/10 Q1015=
200707160050 METAR ESMX 160050Z 26002KT CAVOK 12/11 Q1015=
200707160020 METAR ESMX 160020Z 22003KT CAVOK 12/11 Q1016=
200707152350 METAR ESMX 152350Z 23004KT 9999 NSC 12/10 Q1016=
200707152320 METAR ESMX 152320Z 24003KT CAVOK 13/11 Q1016=
200707152250 METAR ESMX 152250Z 21003KT CAVOK 13/11 Q1015=
200707152150 METAR ESMX 152150Z 21004KT CAVOK 14/11 Q1016=
200707152120 METAR ESMX 152120Z 21005KT CAVOK 14/11 Q1016=
200707152050 METAR ESMX 152050Z 22004KT CAVOK 15/11 Q1016=
200707152020 METAR ESMX 152020Z 21005KT CAVOK 16/12 Q1015=
200707151950 METAR ESMX 151950Z 23006KT CAVOK 16/12 Q1015=
200707151920 METAR ESMX 151920Z 24006KT CAVOK 17/11 Q1015=
200707151850 METAR ESMX 151850Z 25006KT 210V280 CAVOK 18/11 Q1015=
200707151820 METAR ESMX 151820Z 25009KT 9999 FEW040 18/11 Q1015=
200707151750 METAR ESMX 151750Z 25010KT 9999 FEW041 18/11 Q1015=
200707151720 METAR ESMX 151720Z 25011KT 210V280 9999 FEW044 19/11 Q1015=
200707151650 METAR ESMX 151650Z 24013KT 200V280 9999 FEW041 20/11 Q1015=
200707151620 METAR ESMX 151620Z 26013KT 9999 FEW045 20/11 Q1015=
200707151550 METAR ESMX 151550Z 27013KT 9999 FEW041 20/10 Q1015=
200707151520 METAR ESMX 151520Z 26015KT 9999 FEW041 21/11 Q1015=
200707151450 METAR ESMX 151450Z 25014KT 180V290 9999 SCT041 21/10 Q1015=
200707151420 METAR ESMX 151420Z 27012G22KT 9999 FEW041 SCT200 20/11 Q1015=
200707151350 METAR ESMX 151350Z 25013KT 210V280 9999 SCT040 20/10 Q1015=
200707151320 METAR ESMX 151320Z 27013KT 230V310 9999 SCT039 20/11 Q1015=
200707151250 METAR ESMX 151250Z 26017KT 9999 SCT039 21/10 Q1015=
200707151220 METAR ESMX 151220Z 25015KT 9999 FEW036 SCT046 21/11 Q1014=
200707151150 METAR ESMX 151150Z 27012G22KT 230V300 9999 FEW037 SCT046 20/11 Q1014=
200707151120 METAR ESMX 151120Z 26014KT 230V300 9999 FEW036 SCT051 20/11 Q1014=
200707151050 METAR ESMX 151050Z 26014G24KT 230V300 9999 SCT034 20/12 Q1014=
200707151020 METAR ESMX 151020Z 24014KT 190V280 9999 SCT034 19/11 Q1014=
200707150950 METAR ESMX 150950Z 25013KT 210V280 9999 SCT033 19/12 Q1014=
200707150920 METAR ESMX 150920Z 24013G23KT 170V280 9999 SCT030 BKN045 19/12 Q1014=
200707150850 METAR ESMX 150850Z 26013KT 9999 FEW025 SCT040 18/12 Q1013=
200707150820 METAR ESMX 150820Z 25010KT 210V290 9999 SCT025 BKN035 17/12 Q1013=
200707150750 METAR ESMX 150750Z 25013KT 9999 SCT025 17/12 Q1013=
200707150720 METAR ESMX 150720Z 25013KT 220V280 9999 SCT023 17/12 Q1013=
200707150650 METAR ESMX 150650Z AUTO 26012KT 210V290 9999NDV FEW020/// SCT029/// BKN036/// 17/12 Q1013=
200707150620 METAR ESMX 150620Z AUTO 22011KT 200V280 9999NDV FEW017/// SCT037/// 17/13 Q1012=
200707150550 METAR ESMX 150550Z AUTO 23008KT 190V260 9999NDV FEW015/// SCT019/// BKN022/// 15/13 Q1012=
200707150520 METAR ESMX 150520Z AUTO 24008KT 9999NDV FEW013/// SCT017/// BKN037/// 15/13 Q1012=
200707150450 METAR ESMX 150450Z AUTO 22008KT 9999NDV FEW015/// SCT036/// 15/13 Q1012=
200707150420 METAR ESMX 150420Z AUTO 22009KT 9999NDV FEW020/// BKN035/// 14/13 Q1012=
200707150350 METAR ESMX 150350Z AUTO 23009KT 200V270 9999NDV FEW015/// SCT022/// BKN027/// 14/13 Q1012=
200707150320 METAR ESMX 150320Z AUTO 24009KT 9999NDV FEW034/// 14/12 Q1011=
200707150250 METAR ESMX 150250Z AUTO 24006KT 210V280 9999NDV FEW016/// 14/13 Q1011=
200707150220 METAR ESMX 150220Z AUTO 23007KT 9999NDV FEW015/// 14/13 Q1011=
200707150150 METAR ESMX 150150Z AUTO 23006KT 9999NDV FEW038/// 14/13 Q1011=
200707150120 METAR ESMX 150120Z AUTO 23007KT 9999NDV FEW037/// 14/14 Q1011=
200707150050 METAR ESMX 150050Z AUTO 23006KT 9999NDV FEW014/// 15/14 Q1011=
200707150020 METAR ESMX 150020Z AUTO 24008KT 9999NDV FEW009/// SCT013/// BKN016/// 15/14 Q1011=
200707142350 METAR ESMX 142350Z AUTO 23008KT 200V260 9999NDV FEW012/// BKN015/// 16/14 Q1011=
200707142320 METAR ESMX 142320Z AUTO 22008KT 9999NDV FEW013/// SCT016/// BKN019/// 16/14 Q1011=
200707142250 METAR ESMX 142250Z AUTO 22009KT 9999NDV FEW010/// SCT013/// BKN015/// 16/15 Q1011=
200707142220 METAR ESMX 142220Z AUTO 24008KT 210V270 9999NDV FEW012/// SCT019/// BKN024/// 17/15 Q1010=
200707142150 METAR ESMX 142150Z AUTO 23009KT 9999NDV FEW014/// BKN018/// BKN024/// 17/16 Q1010=
200707142120 METAR ESMX 142120Z AUTO 23009KT 9999NDV FEW017/// BKN053/// 18/16 Q1010=
200707142050 METAR ESMX 142050Z AUTO 23007KT 9999NDV FEW035/// OVC058/// 18/17 Q1010=
200707142020 METAR ESMX 142020Z AUTO 22010KT 9999NDV FEW022/// SCT043/// BKN049/// 18/17 Q1010=
200707141950 METAR ESMX 141950Z AUTO 19008KT 9999NDV BR FEW037/// BKN052/// OVC073/// 19/18 Q1010=
200707141920 METAR ESMX 141920Z AUTO 17008KT 150V210 7000NDV BR SCT030/// BKN061/// BKN087/// 18/17 Q1010 RERA=
200707141850 METAR ESMX 141850Z AUTO 15009KT 120V190 4500NDV +RA FEW011/// SCT058/// BKN074/// 18/17 Q1010 REDZ=
200707141820 METAR ESMX 141820Z AUTO 18005KT 6000NDV -RA FEW025/// 18/17 Q1010 REDZ=
200707141750 METAR ESMX 141750Z AUTO 16007KT 9999NDV -RA NCD 19/16 Q1010=
200707141720 METAR ESMX 141720Z AUTO 17007KT 9999NDV FEW089/// SCT100/// 20/16 Q1010=
200707141650 METAR ESMX 141650Z AUTO 16009KT 9999NDV FEW098/// SCT100/// 20/16 Q1010=
200707141620 METAR ESMX 141620Z AUTO 15008KT 9999NDV FEW110/// 20/16 Q1010=
200707141550 METAR ESMX 141550Z AUTO 17009KT 9999NDV FEW110/// 21/16 Q1011=
200707141520 METAR ESMX 141520Z AUTO 16008KT 120V200 9999NDV NCD 21/16 Q1011=
200707141450 METAR ESMX 141450Z AUTO 16009KT 140V200 9999NDV FEW024/// 22/16 Q1011=
200707141420 METAR ESMX 141420Z AUTO 16008KT 140V200 9999NDV FEW024/// SCT027/// 21/16 Q1012=
200707141350 METAR ESMX 141350Z AUTO 16008KT 130V210 9999NDV BKN023/// BKN036/// 21/15 Q1012=
200707141320 METAR ESMX 141320Z AUTO 17008KT 140V200 9999NDV BKN023/// 21/15 Q1012=
200707141250 METAR ESMX 141250Z AUTO 17007KT 110V210 9999NDV FEW023/// SCT027/// 20/15 Q1012=
200707141220 METAR ESMX 141220Z AUTO 18008KT 140V230 9999NDV FEW021/// SCT025/// BKN040/// 21/15 Q1013=
200707141150 METAR ESMX 141150Z AUTO 20008KT 9999NDV FEW022/// SCT030/// OVC042/// 19/14 Q1013=
200707141120 METAR ESMX 141120Z AUTO 19009KT 9999NDV FEW027/// SCT037/// OVC051/// 19/14 Q1013=
200707141050 METAR ESMX 141050Z AUTO 19008KT 9999NDV FEW020/// SCT026/// BKN051/// 18/14 Q1013=
200707141020 METAR ESMX 141020Z AUTO 19007KT 9999NDV FEW022/// BKN053/// 19/14 Q1013=
200707140950 METAR ESMX 140950Z AUTO 21007KT 170V240 9999NDV FEW047/// 19/14 Q1013=
200707140920 METAR ESMX 140920Z AUTO 21008KT 9999NDV FEW072/// 19/13 Q1014=
200707140850 METAR ESMX 140850Z AUTO 20008KT 9999NDV FEW082/// 18/13 Q1013=
200707140820 METAR ESMX 140820Z AUTO 19006KT 160V230 9999NDV FEW071/// 18/13 Q1013=
200707140750 METAR ESMX 140750Z AUTO 20007KT 170V230 9999NDV FEW056/// 17/13 Q1013=
200707140720 METAR ESMX 140720Z AUTO 20005KT 9999NDV SCT058/// 16/12 Q1013=
200707140650 METAR ESMX 140650Z AUTO 18005KT 9999NDV FEW015/// BKN055/// 15/11 Q1013 RERA REDZ=
200707140620 METAR ESMX 140620Z AUTO 19005KT 9999NDV SCT017/// BKN063/// 15/12 Q1013=
200707140550 METAR ESMX 140550Z AUTO 21005KT 170V240 9999NDV NCD 15/12 Q1013=
200707140520 METAR ESMX 140520Z AUTO VRB02KT 9999NDV FEW100/// 14/12 Q1013=
200707140450 METAR ESMX 140450Z AUTO VRB02KT 9999NDV FEW110/// 13/11 Q1013=
200707140420 METAR ESMX 140420Z AUTO VRB02KT 9999NDV FEW110/// 12/10 Q1013=
200707140350 METAR ESMX 140350Z AUTO 15001KT 9999NDV NCD 11/10 Q1013=
200707140320 METAR ESMX 140320Z AUTO 20002KT 9999NDV NCD 11/10 Q1013=
200707140250 METAR ESMX 140250Z AUTO 22003KT 9999NDV NCD 10/09 Q1013=
200707140220 METAR ESMX 140220Z AUTO 19001KT 9999NDV NCD 11/10 Q1013=
200707140150 METAR ESMX 140150Z AUTO 24002KT 9999NDV NCD 10/09 Q1013=
200707140120 METAR ESMX 140120Z AUTO 24002KT 9999NDV NCD 11/09 Q1013=
200707140050 METAR ESMX 140050Z AUTO 26002KT 9999NDV NCD 10/09 Q1013=
200707140020 METAR ESMX 140020Z AUTO 26003KT 230V290 9999NDV NCD 11/09 Q1013=
200707132350 METAR ESMX 132350Z AUTO 26003KT 9999NDV NCD 11/09 Q1013=
200707132320 METAR ESMX 132320Z AUTO 27002KT 9999NDV NCD 11/09 Q1013=
200707132250 METAR ESMX 132250Z AUTO 25004KT 9999NDV NCD 11/09 Q1013=
200707132220 METAR ESMX 132220Z AUTO 26003KT 9999NDV NCD 11/09 Q1012=
200707132150 METAR ESMX 132150Z AUTO 26004KT 9999NDV NCD 11/09 Q1012=
200707132120 METAR ESMX 132120Z AUTO 25003KT 9999NDV NCD 12/09 Q1012=
200707132050 METAR ESMX 132050Z AUTO 25003KT 9999NDV NCD 12/09 Q1012=
200707132020 METAR ESMX 132020Z AUTO 25004KT 9999NDV NCD 12/09 Q1012=
200707131950 METAR ESMX 131950Z AUTO 23003KT 9999NDV NCD 13/09 Q1012=
200707131920 METAR ESMX 131920Z AUTO 25004KT 9999NDV NCD 14/09 Q1012=
200707131850 METAR ESMX 131850Z AUTO 26004KT 9999NDV NCD 15/10 Q1011=
200707131820 METAR ESMX 131820Z AUTO 27006KT 250V310 9999NDV NCD 16/10 Q1011=
200707131750 METAR ESMX 131750Z AUTO 27007KT 240V310 9999NDV NCD 17/10 Q1011=
200707131720 METAR ESMX 131720Z 27007KT 240V300 CAVOK 17/09 Q1011=
200707131650 METAR ESMX 131650Z 26008KT 230V290 9999 FEW040 18/09 Q1011=
200707131620 METAR ESMX 131620Z 27007KT 9999 FEW037 18/10 Q1010=
200707131550 METAR ESMX 131550Z 27009KT 9999 FEW036 18/10 Q1010=
200707131520 METAR ESMX 131520Z 27007KT 240V300 9999 FEW040 18/09 Q1010=
200707131450 METAR ESMX 131450Z 26009KT 220V290 9999 FEW033 SCT044 18/09 Q1010=
200707131420 METAR ESMX 131420Z 26008KT 9999 FEW033 BKN044 18/10 Q1010=
200707131350 METAR ESMX 131350Z 22009KT 9999 FEW034 BKN046 17/09 Q1010=
200707131320 METAR ESMX 131320Z 27007KT 200V290 9999 SCT047 17/09 Q1010=
200707131250 METAR ESMX 131250Z 25010KT 9999 FEW032 SCT048 18/10 Q1009=
200707131150 METAR ESMX 131150Z 26010KT 230V300 9999 FEW037 SCT047 18/11 Q1009=
200707131120 METAR ESMX 131120Z 25009KT 9999 FEW030 BKN050 17/09 Q1009=
200707131050 METAR ESMX 131050Z 27010KT 220V310 9999 BKN030 17/10 Q1009=
200707130950 METAR ESMX 130950Z 24008KT 210V280 9999 FEW020 BKN040 15/11 Q1009=
200707130920 METAR ESMX 130920Z 25009KT 220V290 9999 FEW025 SCT040 BKN045 15/10 Q1009=
200707130850 METAR ESMX 130850Z 26008KT 230V290 9999 FEW020 SCT030 BKN045 15/10 Q1009=
200707130820 METAR ESMX 130820Z 27007KT 9999 FEW020 OVC045 14/10 Q1008=
200707130750 METAR ESMX 130750Z 25006KT 200V300 9999 FEW015 SCT020 BKN035 14/10 Q1008=
200707130720 METAR ESMX 130720Z 22007KT 190V250 9999 FEW015 SCT020 BKN035 14/11 Q1008=
200707130650 METAR ESMX 130650Z 25008KT 9999 FEW011 SCT015 BKN025 14/11 Q1008=
200707130620 METAR ESMX 130620Z 26007KT 9999 FEW010 SCT015 BKN020 13/11 Q1008=
200707130550 METAR ESMX 130550Z 25006KT 9999 FEW010 BKN015 13/11 Q1008=
200707130520 METAR ESMX 130520Z 25006KT 9999 FEW010 BKN015 12/11 Q1007=
200707130450 METAR ESMX 130450Z 21005KT 9999 FEW010 BKN070 12/11 Q1007=
200707130420 METAR ESMX 130420Z 24005KT 200V280 9999 FEW015 SCT050 BKN110 12/11 Q1007=
200707130350 METAR ESMX 130350Z 22006KT 9999 FEW015 SCT035 BKN050 11/11 Q1007=
200707130320 METAR ESMX 130320Z AUTO 22005KT 9999NDV FEW027/// SCT033/// BKN046/// 11/10 Q1007 REDZ RERA=
200707130250 METAR ESMX 130250Z AUTO 24005KT 4000NDV +DZ FEW015/// SCT019/// BKN024/// 11/10 Q1007 RERA=
200707130220 METAR ESMX 130220Z AUTO 25004KT 210V270 9999NDV FEW019/// OVC024/// 11/10 Q1007=
200707130150 METAR ESMX 130150Z AUTO 26006KT 9999NDV FEW005/// SCT006/// BKN008/// 11/10 Q1007 REDZ=
200707130120 METAR ESMX 130120Z AUTO 22007KT 4300NDV +DZ SCT011/// BKN015/// OVC018/// 12/11 Q1007 RERA=
200707130050 METAR ESMX 130050Z AUTO 20005KT 7000NDV FEW017/// SCT023/// 11/10 Q1007 RERA REDZ=
200707130020 METAR ESMX 130020Z 22005KT 9999 FEW006 SCT029 BKN059 11/10 Q1007=
200707122350 METAR ESMX 122350Z 21006KT 9999 FEW044 SCT056 BKN090 11/10 Q1007=
200707122320 METAR ESMX 122320Z 23006KT CAVOK 11/10 Q1007=
200707122220 METAR ESMX 122220Z 23005KT 9999 FEW020 SCT110 11/10 Q1007=
200707122150 METAR ESMX 122150Z 23005KT 9999 FEW020 SCT100 11/10 Q1007=
200707122050 METAR ESMX 122050Z 21006KT 9999 FEW020 SCT035 BKN100 12/10 Q1007=
200707122020 METAR ESMX 122020Z 23004KT 9999 FEW018 SCT039 BKN044 12/10 Q1007=
200707121950 METAR ESMX 121950Z 23005KT 9999 FEW025 SCT065 12/10 Q1007=
200707121920 METAR ESMX 121920Z 23006KT 9999 FEW021 SCT026 BKN062 13/10 Q1006=
200707121850 METAR ESMX 121850Z 24008KT 9999 FEW017 BKN058 13/10 Q1006=
200707121820 METAR ESMX 121820Z 26007KT 230V290 9999 FEW017 SCT022 BKN051 14/10 Q1006=
200707121750 METAR ESMX 121750Z 24006KT 190V270 9999 FEW024 BKN056 14/11 Q1006=
200707121720 METAR ESMX 121720Z 24008KT 9999 FEW015 BKN053 14/11 Q1005=
200707121650 METAR ESMX 121650Z 25008KT 9999 FEW020 SCT040 BKN050 14/11 Q1005=
200707121620 METAR ESMX 121620Z 26010KT 230V300 9999 FEW025 BKN035 14/12 Q1005=
200707121550 METAR ESMX 121550Z 25011KT 9999 FEW011 SCT035 BKN040 15/13 Q1005=
200707121520 METAR ESMX 121520Z 27009KT 9999 FEW045 BKN060 14/13 Q1005=
200707121450 METAR ESMX 121450Z 27008KT 240V300 9999 FEW015 SCT020 BKN060 15/13 Q1004=
200707121420 METAR ESMX 121420Z 26009KT 210V300 9999 FEW015 SCT030 16/13 Q1004=
200707121350 METAR ESMX 121350Z 27007KT 240V300 9999 FEW010 SCT015 16/13 Q1004=
200707121320 METAR ESMX 121320Z 27007KT 9999 -RA FEW010 SCT020 BKN035 15/14 Q1003=
200707121220 METAR ESMX 121220Z 25007KT 230V300 9999 -DZ FEW010 SCT061 15/13 Q1003 RERA=
200707121150 METAR ESMX 121150Z 22006KT 9000 RA FEW015 SCT040 15/13 Q1003=
200707121120 METAR ESMX 121120Z 21007KT 9999 -RA FEW015 SCT065 15/13 Q1002=
200707121050 METAR ESMX 121050Z 20008KT 9999 FEW015 SCT035 BKN065 16/12 Q1002=
200707121020 METAR ESMX 121020Z 19009KT 140V200 9999 FEW020 SCT037 BKN066 16/12 Q1002=
200707120950 METAR ESMX 120950Z 19008KT 140V220 9999 FEW020 SCT024 BKN031 16/12 Q1002=
200707120920 METAR ESMX 120920Z 19009KT 140V230 9999 FEW019 SCT022 BKN026 17/12 Q1002=
200707120850 METAR ESMX 120850Z 19006KT 160V230 9999 FEW016 BKN020 16/12 Q1002=
200707120820 METAR ESMX 120820Z 18004KT 9999 SCT015 BKN019 BKN024 16/11 Q1002=
200707120750 METAR ESMX 120750Z 18006KT 140V200 9999 SCT012 BKN016 15/11 Q1002=
200707120720 METAR ESMX 120720Z 16004KT 120V200 9999 FEW013 SCT015 OVC019 14/11 Q1002=
200707120650 METAR ESMX 120650Z 19005KT 9999 FEW011 SCT013 OVC031 14/11 Q1002=
200707120620 METAR ESMX 120620Z 15004KT 110V200 9999 FEW009 SCT014 BKN019 14/11 Q1002=
200707120550 METAR ESMX 120550Z 16003KT 120V200 9999 BKN008 OVC011 13/11 Q1002=
200707120520 METAR ESMX 120520Z 15003KT 070V200 9999 SCT007 BKN010 13/11 Q1002=
200707120450 METAR ESMX 120450Z 17003KT 9999 FEW007 SCT012 BKN015 12/11 Q1002=
200707120420 METAR ESMX 120420Z 15002KT 9999 SCT008 BKN075 12/11 Q1002=
200707120350 METAR ESMX 120350Z VRB02KT 9999 FEW018 BKN080 12/11 Q1002=
200707120320 METAR ESMX 120320Z AUTO 11001KT 9999NDV OVC021/// 12/11 Q1002=
200707120250 METAR ESMX 120250Z AUTO VRB01KT 9999NDV FEW007/// BKN082/// 11/10 Q1002=
200707120220 METAR ESMX 120220Z AUTO VRB02KT 9999NDV FEW007/// SCT029/// OVC082/// 12/10 Q1002=
200707120150 METAR ESMX 120150Z AUTO 12003KT 090V160 9999NDV OVC024/// 12/11 Q1002=
200707120120 METAR ESMX 120120Z AUTO VRB02KT 9999NDV FEW011/// OVC025/// 12/11 Q1002=
200707120050 METAR ESMX 120050Z AUTO VRB02KT 9999NDV FEW008/// SCT014/// BKN028/// 12/11 Q1002=
200707120020 METAR ESMX 120020Z 11003KT 070V180 9999 SCT007 BKN009 OVC016 12/11 Q1002=
200707112350 METAR ESMX 112350Z 12003KT 9999 OVC008 12/11 Q1002=
200707112320 METAR ESMX 112320Z 13004KT 080V180 9999 OVC008 12/11 Q1002=
200707112250 METAR ESMX 112250Z 13004KT 100V170 9999 FEW008 BKN010 OVC016 12/11 Q1003=
200707112220 METAR ESMX 112220Z 14005KT 100V190 9999 BKN009 12/11 Q1003=
200707112150 METAR ESMX 112150Z 15004KT 090V170 9999 SCT011 BKN016 OVC019 12/10 Q1003=
200707112120 METAR ESMX 112120Z 14004KT 9999 FEW013 SCT017 BKN019 13/10 Q1003=
200707112050 METAR ESMX 112050Z 15006KT 120V200 9999 FEW014 SCT028 BKN034 13/10 Q1003=
200707112020 METAR ESMX 112020Z 14006KT 100V170 9999 FEW016 SCT032 BKN038 13/10 Q1003 RERA=
200707111950 METAR ESMX 111950Z 16006KT 110V200 9999 FEW030 BKN068 13/10 Q1003=
200707111920 METAR ESMX 111920Z 16006KT 120V210 9999 FEW030 BKN046 13/09 Q1003=
200707111850 METAR ESMX 111850Z VRB02KT 9999 FEW030CB BKN046 13/11 Q1003 RESHRA=
200707111820 METAR ESMX 111820Z 17006KT 9999 -SHRA SCT030CB BKN046 13/10 Q1004=
200707111750 METAR ESMX 111750Z 18008KT 9999 FEW029 SCT033 BKN052 14/09 Q1004=
200707111720 METAR ESMX 111720Z 19009KT 160V220 9999 FEW027 SCT032 BKN038 15/09 Q1004=
200707111650 METAR ESMX 111650Z 16008KT 130V200 9999 FEW030 BKN050 15/09 Q1004=
200707111620 METAR ESMX 111620Z 16007KT 140V200 9999 FEW035 BKN060 15/09 Q1004=
200707111550 METAR ESMX 111550Z 16010KT 9999 FEW040 SCT060 16/09 Q1004=
200707111520 METAR ESMX 111520Z 17011KT 9999 FEW030 SCT045 BKN110 16/09 Q1004=
200707111450 METAR ESMX 111450Z 19011KT 9999 FEW040 BKN070 17/09 Q1004=
200707111420 METAR ESMX 111420Z 17008KT 130V200 9999 FEW040 SCT070 16/09 Q1005=
200707111350 METAR ESMX 111350Z 17008KT 140V200 9999 SCT040 15/10 Q1005=
200707111320 METAR ESMX 111320Z 19009KT 150V220 9999 FEW025 SCT060 15/09 Q1005=
200707111250 METAR ESMX 111250Z 19012KT 9999 FEW025 SCT070 15/10 Q1005=
200707111220 METAR ESMX 111220Z 16006KT 130V190 9999 FEW025 BKN050 15/11 Q1005=
200707111150 METAR ESMX 111150Z 21007KT 170V230 9999 FEW025 14/10 Q1006=
200707111120 METAR ESMX 111120Z 21006KT 9999 FEW025 13/12 Q1006 RERA=
200707111050 METAR ESMX 111050Z 19009KT 6000 RA FEW030 12/10 Q1006=
200707111020 METAR ESMX 111020Z 19012KT 8000 RA FEW025 SCT045 12/10 Q1006=
200707110950 METAR ESMX 110950Z 19010KT 9999 FEW020 SCT040 BKN050 17/08 Q1005=
200707110920 METAR ESMX 110920Z 18009KT 9999 SCT035 BKN058 17/09 Q1005=
200707110850 METAR ESMX 110850Z 19009KT 9999 SCT040 BKN050 17/08 Q1005=
200707110820 METAR ESMX 110820Z 20008KT 9999 FEW034 SCT044 16/09 Q1005=
200707110750 METAR ESMX 110750Z 19008KT 9999 FEW020 SCT040 15/09 Q1005=
200707110720 METAR ESMX 110720Z 23008KT 9999 SCT024 16/09 Q1005=
200707110650 METAR ESMX 110650Z 22007KT 170V240 9999 SCT020 15/10 Q1005=
200707110620 METAR ESMX 110620Z 19007KT 9999 FEW043 15/10 Q1006=
200707110550 METAR ESMX 110550Z 20007KT CAVOK 14/10 Q1006=
200707110520 METAR ESMX 110520Z 17004KT 9999 FEW040 13/09 Q1006=
200707110450 METAR ESMX 110450Z 18004KT CAVOK 12/09 Q1006=
200707110420 METAR ESMX 110420Z 17003KT CAVOK 09/09 Q1006=
200707110350 METAR ESMX 110350Z VRB02KT CAVOK 07/06 Q1006=
200707110320 METAR ESMX 110320Z AUTO 00000KT 9999NDV NCD 06/05 Q1005=
200707110250 METAR ESMX 110250Z AUTO VRB02KT 9999NDV NCD 06/05 Q1005=
200707110220 METAR ESMX 110220Z AUTO 17002KT 9999NDV NCD 06/06 Q1005=
200707110150 METAR ESMX 110150Z AUTO 16003KT 9999NDV NCD 07/06 Q1005=
200707110120 METAR ESMX 110120Z AUTO 20004KT 9999NDV NCD 07/06 Q1005=
200707110050 METAR ESMX 110050Z AUTO 17003KT 9999NDV NCD 08/07 Q1005=
200707110020 METAR ESMX 110020Z 24004KT 9999 FEW035 09/07 Q1006=
200707102350 METAR ESMX 102350Z 22003KT 9999 FEW035 08/07 Q1006=
200707102320 METAR ESMX 102320Z 24003KT CAVOK 08/07 Q1006=
200707102250 METAR ESMX 102250Z 17003KT CAVOK 08/07 Q1006=
200707102220 METAR ESMX 102220Z 21002KT CAVOK 08/07 Q1006=
200707102150 METAR ESMX 102150Z 17001KT CAVOK 09/08 Q1006=
200707102120 METAR ESMX 102120Z 18002KT CAVOK 10/08 Q1006=
200707102050 METAR ESMX 102050Z 28002KT CAVOK 11/08 Q1006=
200707102020 METAR ESMX 102020Z 26002KT CAVOK 13/08 Q1006=
200707101950 METAR ESMX 101950Z 30002KT CAVOK 13/08 Q1006=
200707101920 METAR ESMX 101920Z 30007KT CAVOK 15/09 Q1006=
200707101850 METAR ESMX 101850Z 25004KT CAVOK 15/08 Q1005=
200707101820 METAR ESMX 101820Z 28005KT 250V320 CAVOK 16/09 Q1005=
200707101750 METAR ESMX 101750Z 27007KT CAVOK 16/08 Q1005=
200707101720 METAR ESMX 101720Z 27004KT 240V300 CAVOK 17/09 Q1005=
200707101650 METAR ESMX 101650Z 27005KT 240V300 CAVOK 18/07 Q1005=
200707101620 METAR ESMX 101620Z 26006KT 210V300 CAVOK 17/06 Q1005=
200707101550 METAR ESMX 101550Z 26009KT 230V290 CAVOK 20/08 Q1005=
200707101520 METAR ESMX 101520Z 26009KT 230V320 CAVOK 19/08 Q1005=
200707101450 METAR ESMX 101450Z 27006KT 220V300 CAVOK 19/07 Q1005=
200707101420 METAR ESMX 101420Z 25009KT 210V310 CAVOK 20/07 Q1005=
200707101350 METAR ESMX 101350Z 28008KT 240V320 CAVOK 18/07 Q1005=
200707101320 METAR ESMX 101320Z 26007KT 200V320 CAVOK 19/07 Q1005=
200707101250 METAR ESMX 101250Z 24009KT 200V280 CAVOK 20/07 Q1005=
200707101220 METAR ESMX 101220Z 27007KT 240V300 CAVOK 20/07 Q1005=
200707101150 METAR ESMX 101150Z 25008KT 210V300 9999 SCT045 19/08 Q1005=
200707101120 METAR ESMX 101120Z 22008KT 9999 SCT040 18/09 Q1005=
200707101050 METAR ESMX 101050Z 27008KT 220V310 9999 SCT040 18/08 Q1005=
200707101020 METAR ESMX 101020Z 27008KT 9999 FEW035 SCT045 17/09 Q1005=
200707100950 METAR ESMX 100950Z 24008KT 200V260 9999 SCT035 17/10 Q1005=
200707100920 METAR ESMX 100920Z 24008KT 9999 SCT032 18/09 Q1005=
200707100850 METAR ESMX 100850Z 27009KT 240V300 9999 SCT028 16/09 Q1005=
200707100650 METAR ESMX 100650Z 24007KT 200V290 9999 FEW015 SCT017 BKN021 14/10 Q1005=
200707100620 METAR ESMX 100620Z 25006KT 210V290 9999 SCT013 SCT019 BKN021 14/11 Q1005=
200707100550 METAR ESMX 100550Z 24009KT 9999 FEW010 BKN012 13/11 Q1005=
200707100520 METAR ESMX 100520Z 22007KT 190V260 9999 FEW010 12/11 Q1005=
200707100450 METAR ESMX 100450Z 23006KT 9999 FEW010 12/10 Q1005=
200707100420 METAR ESMX 100420Z 20005KT CAVOK 11/10 Q1005=
200707100350 METAR ESMX 100350Z 22005KT CAVOK 10/09 Q1005=
200707100320 METAR ESMX 100320Z AUTO 23005KT 9999NDV NCD 09/09 Q1005=
200707100250 METAR ESMX 100250Z AUTO 22005KT 9999NDV NCD 09/08 Q1005=
200707100220 METAR ESMX 100220Z AUTO 22005KT 9999NDV NCD 09/08 Q1005=
200707100150 METAR ESMX 100150Z AUTO 21005KT 9999NDV NCD 09/08 Q1006=
200707100120 METAR ESMX 100120Z 20005KT CAVOK 09/08 Q1006=
200707100050 METAR ESMX 100050Z 24004KT CAVOK 10/09 Q1005=
200707100020 METAR ESMX 100020Z 22005KT CAVOK 10/08 Q1006=
200707092350 METAR ESMX 092350Z 23005KT CAVOK 10/09 Q1006=
200707092320 METAR ESMX 092320Z 23006KT CAVOK 11/09 Q1006=
200707092250 METAR ESMX 092250Z 21007KT CAVOK 11/09 Q1006=
200707092220 METAR ESMX 092220Z 22005KT CAVOK 11/09 Q1007=
200707092150 METAR ESMX 092150Z 22005KT CAVOK 11/09 Q1006=
200707092120 METAR ESMX 092120Z 21005KT CAVOK 11/09 Q1006=
200707092050 METAR ESMX 092050Z 20006KT CAVOK 12/09 Q1006=
200707092020 METAR ESMX 092020Z 25005KT 9999 FEW045 12/09 Q1006=
200707091950 METAR ESMX 091950Z 26005KT 9999 FEW046 13/09 Q1006=
200707091920 METAR ESMX 091920Z 26005KT 9999 FEW045 14/09 Q1006=
200707091850 METAR ESMX 091850Z 26007KT 200V300 9999 FEW042 15/09 Q1006=
200707091820 METAR ESMX 091820Z 25010KT 210V290 9999 FEW040 16/09 Q1006=
200707091750 METAR ESMX 091750Z 26010KT 9999 FEW036 17/09 Q1006=
200707091720 METAR ESMX 091720Z 25010KT 9999 FEW033 SCT050 17/09 Q1006=
200707091650 METAR ESMX 091650Z 24008KT 210V280 9999 FEW030 SCT048 17/09 Q1006=
200707091620 METAR ESMX 091620Z 26009KT 210V280 9999 FEW030 SCT035 BKN049 17/10 Q1006=
200707091520 METAR ESMX 091520Z 26012KT 9999 FEW027 SCT034 BKN050 17/10 Q1006=
200707091420 METAR ESMX 091420Z 26010KT 230V300 9999 FEW027 SCT035 BKN047 16/10 Q1006=
200707091350 METAR ESMX 091350Z 26013KT 9999 FEW024 SCT034 BKN041 17/11 Q1006=
200707091320 METAR ESMX 091320Z 23010KT 200V280 9999 SCT025 BKN040 16/10 Q1006=
200707091250 METAR ESMX 091250Z 25014KT 210V280 9999 FEW024 SCT030 BKN040 17/11 Q1006=
200707091220 METAR ESMX 091220Z 25013KT 210V280 9999 FEW025 SCT035 BKN040 17/11 Q1006=
200707091150 METAR ESMX 091150Z 25012KT 200V280 9999 FEW023 BKN033 16/11 Q1006=
200707091120 METAR ESMX 091120Z 26011KT 220V290 9999 FEW022 SCT026 BKN031 15/10 Q1006=
200707091050 METAR ESMX 091050Z 25011KT 230V290 9999 FEW021 SCT026 BKN032 15/10 Q1006=
200707090950 METAR ESMX 090950Z 26011KT 9999 OVC021 15/10 Q1006=
200707090920 METAR ESMX 090920Z 25010KT 200V290 9999 BKN021 OVC027 15/10 Q1006=
200707090850 METAR ESMX 090850Z 24011KT 210V280 9999 FEW020 OVC024 14/10 Q1006=
200707090820 METAR ESMX 090820Z 25010KT 9999 OVC021 14/10 Q1005=
200707090750 METAR ESMX 090750Z 24010KT 9999 OVC020 14/10 Q1005=
200707090720 METAR ESMX 090720Z 26009KT 9999 OVC019 14/09 Q1005=
200707090650 METAR ESMX 090650Z 27010KT 240V300 9999 OVC021 14/09 Q1005=
200707090620 METAR ESMX 090620Z 24010KT 170V290 9999 OVC020 13/09 Q1005=
200707090550 METAR ESMX 090550Z 26010KT 9999 FEW021 OVC025 13/09 Q1005=
200707090520 METAR ESMX 090520Z 26011KT 240V300 9999 FEW020 BKN022 13/09 Q1005=
200707090450 METAR ESMX 090450Z 26010KT 9999 SCT018 OVC021 13/09 Q1005=
200707090420 METAR ESMX 090420Z 27009KT 9999 BKN020 13/09 Q1005=
200707090350 METAR ESMX 090350Z 27009KT 230V300 9999 OVC021 13/09 Q1005=
200707090320 METAR ESMX 090320Z AUTO 27011KT 9999NDV FEW018/// OVC020/// 13/09 Q1005=
200707090250 METAR ESMX 090250Z AUTO 26011KT 210V300 9999NDV OVC020/// 13/09 Q1005=
200707090220 METAR ESMX 090220Z AUTO 26010G20KT 9999NDV OVC019/// 13/09 Q1005=
200707090150 METAR ESMX 090150Z AUTO 26010KT 230V290 9999NDV OVC020/// 13/09 Q1005=
200707090120 METAR ESMX 090120Z AUTO 27012G22KT 230V290 9999NDV OVC020/// 13/09 Q1005=
200707090050 METAR ESMX 090050Z AUTO 25011G21KT 200V290 9999NDV OVC020/// 13/09 Q1005=
200707090020 METAR ESMX 090020Z 27012KT 220V300 9999 OVC020 13/09 Q1005=
200707082350 METAR ESMX 082350Z 26012KT 9999 OVC022 13/09 Q1005=
200707082320 METAR ESMX 082320Z 26012KT 9999 OVC023 13/09 Q1005=
200707082250 METAR ESMX 082250Z 26013G30KT 230V300 9999 OVC022 13/09 Q1005=
200707082220 METAR ESMX 082220Z 26012KT 220V300 9999 OVC023 13/09 Q1005=
200707082150 METAR ESMX 082150Z 26013KT 220V290 9999 OVC024 13/09 Q1005=
200707082120 METAR ESMX 082120Z 25012KT 200V280 9999 FEW025 OVC030 13/09 Q1006=
200707082050 METAR ESMX 082050Z 26014G24KT 9999 FEW025 OVC030 14/09 Q1006=
200707082020 METAR ESMX 082020Z 26014KT 9999 OVC025 14/09 Q1006=
200707081950 METAR ESMX 081950Z 26014KT 230V300 9999 OVC025 14/10 Q1005=
200707081920 METAR ESMX 081920Z 25017KT 9999 OVC020 14/10 Q1005=
200707081850 METAR ESMX 081850Z 26014G24KT 9999 BKN020 14/10 Q1005=
200707081820 METAR ESMX 081820Z 26014G24KT 230V290 9999 OVC020 14/10 Q1005=
200707081750 METAR ESMX 081750Z 26014G24KT 9999 OVC020 14/11 Q1005=
200707081720 METAR ESMX 081720Z 26012KT 9999 FEW018 OVC020 14/11 Q1005=
200707081650 METAR ESMX 081650Z 27014G24KT 9999 FEW017 OVC020 14/11 Q1005=
200707081620 METAR ESMX 081620Z 26014KT 230V290 9999 FEW017 OVC020 14/11 Q1005=
200707081550 METAR ESMX 081550Z 27015KT 9999 BKN018 14/11 Q1005=
200707081520 METAR ESMX 081520Z 27013KT 230V300 9999 OVC016 14/11 Q1005=
200707081450 METAR ESMX 081450Z 27015KT 9999 SCT008 BKN014 14/11 Q1005=
200707081420 METAR ESMX 081420Z 26014G24KT 220V290 9999 SCT010 BKN015 14/12 Q1005=
200707081350 METAR ESMX 081350Z 27017G29KT 9999 SCT008 BKN015 14/12 Q1005=
200707081320 METAR ESMX 081320Z 25012G22KT 200V290 9999 SCT005 BKN010 14/12 Q1004=
200707081246 METAR COR ESMX 081246Z 26014KT 6000 DZ SCT005 BKN010 14/13 Q1004=
200707081220 METAR ESMX 081220Z 26014KT 8000 BR SCT007 BKN010 14/13 Q1004=
200707081150 METAR ESMX 081150Z 26013KT 4000 DZ SCT008 BKN015 14/13 Q1004=
200707081120 METAR ESMX 081120Z 26015KT 230V300 6000 BR SCT008 BKN010 14/13 Q1004 REDZ=
200707081050 METAR ESMX 081050Z 26014KT 230V290 3700 -DZ FEW009 SCT011 BKN016 14/13 Q1003 RERA=
200707081020 METAR ESMX 081020Z 25012G22KT 9999 FEW009 BKN012 BKN020 14/13 Q1003 REDZ=
200707080950 METAR ESMX 080950Z 25012KT 220V280 4600 -DZ FEW010 BKN014 BKN021 14/13 Q1003 RERA=
200707080920 METAR ESMX 080920Z 26011KT 9999 FEW009 SCT013 BKN016 14/12 Q1003 RERA REDZ=
200707080850 METAR ESMX 080850Z 27012KT 3900 FEW008 BKN011 OVC015 14/12 Q1003=
200707080820 METAR ESMX 080820Z 26014KT 9999 OVC010 14/12 Q1003=
200707080750 METAR ESMX 080750Z 26012KT 230V300 9999 OVC010 14/12 Q1003=
200707080720 METAR ESMX 080720Z AUTO 27012KT 240V300 9999NDV OVC010/// 14/12 Q1003=
200707080650 METAR ESMX 080650Z AUTO 26012KT 230V290 9999NDV FEW009/// OVC011/// 14/12 Q1003=
200707080620 METAR ESMX 080620Z AUTO 26011KT 230V300 9999NDV FEW007/// BKN010/// BKN014/// 13/12 Q1002=
200707080550 METAR ESMX 080550Z AUTO 26011KT 230V290 9999NDV FEW006/// SCT008/// BKN009/// 13/12 Q1002 REDZ=
200707080520 METAR ESMX 080520Z AUTO 27011KT 240V300 3700NDV -DZ SCT006/// BKN009/// OVC011/// 13/12 Q1002=
200707080450 METAR ESMX 080450Z AUTO 26011KT 5000NDV DZ FEW006/// SCT008/// BKN010/// 13/12 Q1002=
200707080420 METAR ESMX 080420Z AUTO 27011KT 9999NDV DZ FEW006/// SCT008/// BKN009/// 13/12 Q1002 RERA=
200707080350 METAR ESMX 080350Z AUTO 27010KT 230V300 9999NDV -RA FEW006/// SCT008/// OVC010/// 13/12 Q1002=
200707080320 METAR ESMX 080320Z AUTO 27011KT 8000NDV -RA FEW006/// SCT008/// BKN010/// 13/12 Q1002=
200707080250 METAR ESMX 080250Z AUTO 27011KT 230V300 9999NDV DZ FEW007/// SCT009/// OVC011/// 13/12 Q1002 RERA=
200707080220 METAR ESMX 080220Z AUTO 27012KT 8000NDV -RA FEW007/// SCT008/// BKN010/// 13/12 Q1002 REDZ=
200707080150 METAR ESMX 080150Z AUTO 27012KT 9999NDV DZ FEW006/// SCT008/// BKN009/// 13/12 Q1002 RERA=
200707080120 METAR ESMX 080120Z AUTO 27011KT 8000NDV -RA FEW007/// SCT009/// OVC012/// 13/12 Q1002=
200707080050 METAR ESMX 080050Z AUTO 27013KT 8000NDV DZ FEW007/// BKN010/// OVC014/// 13/12 Q1002 RERA=
200707080020 METAR ESMX 080020Z AUTO 27011KT 7000NDV -RA FEW006/// BKN008/// OVC010/// 13/12 Q1002=
200707072350 METAR ESMX 072350Z AUTO 25012KT 8000NDV -RA FEW005/// BKN006/// OVC009/// 13/13 Q1002=
200707072320 METAR ESMX 072320Z AUTO 27012KT 240V310 4300NDV -RA FEW005/// OVC007/// 13/13 Q1002 REDZ=
200707072250 METAR ESMX 072250Z AUTO 27011KT 230V300 4100NDV DZ FEW006/// BKN007/// BKN012/// 13/13 Q1002=
200707072220 METAR ESMX 072220Z AUTO 27012KT 240V300 2700NDV -RA FEW003/// BKN006/// OVC009/// 14/13 Q1002 REDZ=
200707072150 METAR ESMX 072150Z AUTO 26010KT 2000NDV +DZ SCT005/// BKN007/// BKN009/// 14/13 Q1002=
200707072120 METAR ESMX 072120Z AUTO 27010KT 2600NDV DZ SCT004/// BKN007/// BKN011/// 14/13 Q1002=
200707072050 METAR ESMX 072050Z AUTO 26011KT 2500NDV DZ FEW006/// BKN007/// 14/13 Q1001 RERA=
200707072020 METAR ESMX 072020Z AUTO 27007KT 9999NDV FEW007/// OVC009/// 15/14 Q1001=
200707071950 METAR ESMX 071950Z AUTO 27008KT 9999NDV FEW009/// OVC011/// 15/13 Q1001=
200707071920 METAR ESMX 071920Z AUTO 27008KT 9999NDV FEW009/// OVC012/// 15/13 Q1001=
200707071850 METAR ESMX 071850Z AUTO 27009KT 230V300 9999NDV FEW008/// SCT014/// BKN020/// 15/13 Q1001=
200707071820 METAR ESMX 071820Z AUTO 27009KT 240V300 4400NDV BR FEW006/// SCT009/// BKN013/// 14/14 Q1001 REDZ=
200707071750 METAR ESMX 071750Z AUTO 27009KT 3500NDV DZ FEW007/// SCT008/// BKN011/// 15/14 Q1001 RERA=
200707071720 METAR ESMX 071720Z AUTO 27009KT 3700NDV DZ FEW008/// SCT010/// BKN015/// 15/14 Q1001 RERA=
200707071650 METAR ESMX 071650Z AUTO 26010KT 220V290 9999NDV FEW008/// BKN010/// BKN016/// 15/14 Q1001=
200707071620 METAR ESMX 071620Z AUTO 26011KT 220V290 9999NDV FEW008/// BKN010/// OVC015/// 15/13 Q1000=
200707071550 METAR ESMX 071550Z AUTO 27013KT 9000NDV FEW009/// SCT011/// OVC013/// 15/14 Q1000=
200707071520 METAR ESMX 071520Z AUTO 27012KT 9000NDV FEW005/// SCT007/// BKN008/// 15/14 Q1000 REDZ=
200707071450 METAR ESMX 071450Z AUTO 27011KT 230V290 2900NDV DZ FEW007/// SCT009/// BKN011/// 15/14 Q1000 RERA=
200707071420 METAR ESMX 071420Z AUTO 26012KT 9999NDV FEW007/// SCT009/// BKN010/// 16/14 Q0999 RERA REDZ=
200707071350 METAR ESMX 071350Z AUTO 26010KT 9999NDV FEW009/// SCT010/// BKN013/// 16/15 Q0999=
200707071320 METAR ESMX 071320Z AUTO 24011KT 9999NDV FEW010/// SCT019/// BKN022/// 18/16 Q0999 RERA=
200707071250 METAR ESMX 071250Z AUTO 26009KT 9999NDV FEW013/// SCT016/// BKN019/// 18/16 Q0999 RERA=
200707071220 METAR ESMX 071220Z AUTO 27007KT 9999NDV -RA FEW016/// SCT019/// BKN024/// 17/15 Q0999=
200707071150 METAR ESMX 071150Z AUTO 27007KT 9999NDV FEW010/// SCT014/// BKN021/// 18/16 Q0998=
200707071050 METAR ESMX 071050Z AUTO 27006KT 240V300 9999NDV FEW007/// SCT011/// BKN022/// 17/15 Q0998=
200707071020 METAR ESMX 071020Z AUTO 25004KT 220V280 9999NDV FEW009/// OVC021/// 16/15 Q0998=
200707070950 METAR ESMX 070950Z AUTO 28005KT 9999NDV FEW006/// SCT016/// BKN019/// 16/15 Q0998=
200707070920 METAR ESMX 070920Z AUTO 30006KT 9999NDV BKN013/// OVC018/// 16/15 Q0997=
200707070850 METAR ESMX 070850Z AUTO 27006KT 6000NDV BR FEW007/// BKN017/// OVC020/// 16/15 Q0997=
200707070820 METAR ESMX 070820Z AUTO 30006KT 9000NDV FEW004/// SCT008/// BKN009/// 16/15 Q0997=
200707070750 METAR ESMX 070750Z AUTO 30006KT 270V340 9000NDV SCT004/// BKN007/// OVC009/// 15/15 Q0997=
200707070720 METAR ESMX 070720Z AUTO 30005KT 4400NDV DZ FEW004/// SCT012/// BKN016/// 15/15 Q0997 RERA=
200707070650 METAR ESMX 070650Z AUTO 29006KT 3700NDV BR FEW003/// SCT008/// BKN014/// 15/14 Q0996 REDZ=
200707070620 METAR ESMX 070620Z AUTO 30007KT 3100NDV DZ FEW005/// SCT009/// BKN011/// 15/14 Q0996 RERA=
200707070550 METAR ESMX 070550Z AUTO 29008KT 4000NDV RA FEW003/// SCT007/// BKN012/// 15/14 Q0996 REDZ=
200707070520 METAR ESMX 070520Z AUTO 29008KT 5000NDV DZ FEW002/// BKN004/// 14/14 Q0996 RERA=
200707070450 METAR ESMX 070450Z AUTO 28006KT 2600NDV BR FEW002/// SCT004/// 14/14 Q0996=
200707070420 METAR ESMX 070420Z AUTO 28007KT 250V320 2900NDV BR BKN002/// 14/14 Q0996=
200707070350 METAR ESMX 070350Z AUTO 28008KT 3200NDV BR FEW004/// BKN005/// 14/14 Q0996 REDZ=
200707070320 METAR ESMX 070320Z AUTO 27006KT 2700NDV -RA OVC003/// 14/14 Q0996 REDZ=
200707070250 METAR ESMX 070250Z AUTO 26007KT 230V300 9999NDV FEW004/// OVC006/// 14/14 Q0996=
200707070220 METAR ESMX 070220Z AUTO 27007KT 9999NDV -DZ BKN005/// OVC007/// 14/13 Q0996 RERA=
200707070150 METAR ESMX 070150Z AUTO 27009KT 9999NDV FEW004/// BKN005/// OVC008/// 14/13 Q0996=
200707070120 METAR ESMX 070120Z AUTO 27007KT 8000NDV BR FEW004/// OVC005/// 14/14 Q0996 RERA REDZ=
200707070050 METAR ESMX 070050Z AUTO 27008KT 9999NDV FEW004/// BKN006/// OVC009/// 14/14 Q0996 RERA REDZ=
200707070020 METAR ESMX 070020Z AUTO 28006KT 250V310 4000NDV RA FEW003/// SCT006/// BKN017/// 14/14 Q0996=
200707062350 METAR ESMX 062350Z AUTO 26008KT 220V280 5000NDV RA FEW005/// SCT018/// BKN029/// 14/13 Q0996 REDZ=
200707062320 METAR ESMX 062320Z AUTO 28008KT 9999NDV DZ FEW005/// SCT007/// BKN009/// 14/14 Q0996 RERA=
200707062250 METAR ESMX 062250Z AUTO 25007KT 230V290 7000NDV -RA FEW003/// SCT005/// BKN008/// 14/14 Q0996=
200707062220 METAR ESMX 062220Z AUTO 26007KT 7000NDV -RA SCT003/// BKN005/// BKN008/// 14/14 Q0996=
200707062150 METAR ESMX 062150Z AUTO 26006KT 5000NDV -RA FEW004/// SCT006/// BKN008/// 15/14 Q0996=
200707062120 METAR ESMX 062120Z AUTO 26006KT 4300NDV DZ FEW004/// SCT007/// BKN009/// 15/14 Q0997=
200707062050 METAR ESMX 062050Z AUTO 27005KT 6000NDV DZ FEW004/// SCT007/// BKN009/// 15/14 Q0997=
200707062020 METAR ESMX 062020Z AUTO 25005KT 9999NDV DZ FEW005/// SCT009/// BKN024/// 15/14 Q0997 RERA=
200707061950 METAR ESMX 061950Z AUTO 25004KT 9999NDV BKN021/// BKN050/// 15/14 Q0997 REDZ=
200707061920 METAR ESMX 061920Z AUTO 30004KT 260V340 9999NDV DZ OVC023/// 15/14 Q0997 REUP=
200707061850 METAR ESMX 061850Z AUTO 27007KT 240V300 9999NDV DZ BKN022/// 15/14 Q0997 RERA=
200707061820 METAR ESMX 061820Z AUTO 27008KT 9999NDV -DZ FEW022/// SCT025/// BKN040/// 16/14 Q0997 RERA=
200707061750 METAR ESMX 061750Z AUTO 24009KT 9999NDV FEW009/// SCT013/// BKN024/// 16/14 Q0997=
200707061720 METAR ESMX 061720Z 21010KT 9999 FEW010 SCT020 OVC050 17/15 Q0997=
200707061650 METAR ESMX 061650Z 22008KT 9999 SCT030 BKN070 20/16 Q0997=
200707061620 METAR ESMX 061620Z 09003KT 030V130 9999 SCT030 BKN070 21/14 Q0997=
200707061550 METAR ESMX 061550Z 13004KT 070V190 9999 FEW035 BKN070 21/14 Q0997=
200707061520 METAR ESMX 061520Z 09005KT 060V140 9999 FEW040 BKN070 21/14 Q0997=
200707061450 METAR ESMX 061450Z 09005KT 050V130 9999 FEW030CB SCT040 BKN200 21/14 Q0997=
200707061420 METAR ESMX 061420Z 08007KT 030V120 9999 FEW030CB SCT040 BKN200 21/14 Q0997=
200707061350 METAR ESMX 061350Z 05009KT 010V090 9999 FEW030CB SCT040 BKN200 21/14 Q0997=
200707061320 METAR ESMX 061320Z 05007KT 360V110 9999 SCT045 BKN100 22/14 Q0997=
200707061250 METAR ESMX 061250Z 05008KT 360V100 9999 SCT040 BKN100 22/14 Q0997=
200707061150 METAR ESMX 061150Z 05007KT 020V080 9999 SCT040 SCT150 23/13 Q0997=
200707061120 METAR ESMX 061120Z 04007KT 9999 SCT040 SCT150 23/13 Q0997=
200707061050 METAR ESMX 061050Z 03008KT 300V110 9999 SCT040 BKN150 23/13 Q0997=
200707061020 METAR ESMX 061020Z 04008KT 020V090 9999 FEW040 BKN150 22/13 Q0997=
200707060950 METAR ESMX 060950Z 03010KT 9999 FEW040 SCT150 22/14 Q0997=
200707060920 METAR ESMX 060920Z 05008KT 360V100 9999 FEW036 SCT150 22/14 Q0998=
200707060850 METAR ESMX 060850Z 05008KT 020V090 9999 FEW035 SCT120 22/14 Q0998=
200707060820 METAR ESMX 060820Z 05008KT 010V090 CAVOK 22/14 Q0998=
200707060750 METAR ESMX 060750Z 03007KT 350V090 CAVOK 21/14 Q0998=
200707060720 METAR ESMX 060720Z 03007KT 360V070 CAVOK 20/14 Q0998=
200707060650 METAR ESMX 060650Z 04007KT 010V080 CAVOK 19/13 Q0998=
200707060620 METAR ESMX 060620Z 03008KT CAVOK 18/13 Q0998=
200707060550 METAR ESMX 060550Z 03005KT CAVOK 18/13 Q0998=
200707060520 METAR ESMX 060520Z 03007KT CAVOK 16/13 Q0998=
200707060450 METAR ESMX 060450Z 03007KT 350V060 CAVOK 16/13 Q0998=
200707060420 METAR ESMX 060420Z 03006KT CAVOK 16/13 Q0998=
200707060350 METAR ESMX 060350Z 03006KT 360V060 CAVOK 16/13 Q0998=
200707060320 METAR ESMX 060320Z AUTO 04007KT 9999NDV BKN063/// 16/13 Q0998=
200707060250 METAR ESMX 060250Z AUTO 03008KT 9999NDV BKN060/// 16/13 Q0998=
200707060220 METAR ESMX 060220Z AUTO 02008KT 9999NDV SCT059/// BKN082/// 16/13 Q0998=
200707060150 METAR ESMX 060150Z AUTO 02008KT 9999NDV FEW056/// SCT076/// BKN098/// 16/14 Q0998=
200707060120 METAR ESMX 060120Z AUTO 02008KT 9999NDV FEW061/// SCT072/// BKN110/// 16/14 Q0998=
200707060050 METAR ESMX 060050Z AUTO 01008KT 9999NDV FEW011/// BKN100/// 16/15 Q0998=
200707060020 METAR ESMX 060020Z 01008KT 9999 BKN010 16/15 Q0998=
200707052350 METAR ESMX 052350Z 02007KT 9999 BKN010 16/15 Q0999=
200707052320 METAR ESMX 052320Z 02007KT 9999 BKN010 16/15 Q0999=
200707052250 METAR ESMX 052250Z 02006KT 9999 OVC010 16/15 Q0999 RERA REDZ=
200707052220 METAR ESMX 052220Z 01006KT 9999 OVC010 16/15 Q0999=
200707052150 METAR ESMX 052150Z 03007KT 9999 FEW010 SCT030 16/15 Q0999=
200707052120 METAR ESMX 052120Z 03006KT 9999 FEW010 OVC020 17/15 Q0999=
200707052050 METAR ESMX 052050Z 02006KT 340V050 9999 FEW010 OVC015 17/15 Q0998=
200707052020 METAR ESMX 052020Z 03004KT 360V060 9999 SCT010 OVC020 17/15 Q0999=
200707051950 METAR ESMX 051950Z 06005KT 030V110 9999 FEW015 BKN045 17/15 Q0998=
200707051920 METAR ESMX 051920Z 05007KT 020V100 9999 FEW020 BKN050 17/15 Q0998=
200707051850 METAR ESMX 051850Z 06007KT 9999 FEW015 SCT040 17/15 Q0998 REDZ=
200707051820 METAR ESMX 051820Z 06007KT 010V090 9999 SCT020 17/14 Q0998=
200707051750 METAR ESMX 051750Z 06008KT 020V110 9999 FEW020 SCT060 17/14 Q0997=
200707051720 METAR ESMX 051720Z 06008KT 010V100 9999 FEW015 SCT020 18/15 Q0997=
200707051650 METAR ESMX 051650Z 07008KT 360V100 9999 SCT017 SCT100 18/15 Q0997=
200707051620 METAR ESMX 051620Z 07010KT 030V140 9999 FEW015 BKN020 17/15 Q0997=
200707051550 METAR ESMX 051550Z 07009KT 010V120 9999 FEW012 SCT017 BKN021 18/16 Q0996=
200707051520 METAR ESMX 051520Z 04009KT 340V080 9999 FEW014 SCT018 BKN021 17/16 Q0996=
200707051450 METAR ESMX 051450Z 04012KT 9999 FEW012 BKN017 OVC034 17/16 Q0996 RERA=
200707051420 METAR ESMX 051420Z 03012KT 9999 FEW010 BKN013 OVC018 17/16 Q0996 RERA=
200707051350 METAR ESMX 051350Z 02012KT 6000 RA FEW010 SCT017 BKN024 17/16 Q0996=
200707051250 METAR ESMX 051250Z 01011KT 9999 -RA FEW010 SCT015 BKN018 17/16 Q0996=
200707051150 METAR ESMX 051150Z 02009KT 9999 FEW011 OVC013 17/15 Q0997=
200707051120 METAR ESMX 051120Z 02009KT 9999 FEW008 OVC010 16/15 Q0997=
200707051050 METAR ESMX 051050Z 02009KT 9999 FEW008 OVC010 16/15 Q0997 RERA=
200707051020 METAR ESMX 051020Z 01010KT 8000 RA FEW006 SCT009 BKN010 15/15 Q0997=
200707050950 METAR ESMX 050950Z 02011KT 7000 -RA FEW008 OVC010 15/15 Q0997=
200707050920 METAR ESMX 050920Z 01012KT 7000 RA SCT008 BKN010 OVC013 15/15 Q0997=
200707050850 METAR ESMX 050850Z 01012KT 9999 -RA FEW007 SCT008 BKN010 15/14 Q0997 REDZ=
200707050820 METAR ESMX 050820Z 35015KT 5000 RA FEW006 SCT010 BKN014 15/14 Q0997=
200707050750 METAR ESMX 050750Z 35013KT 9999 -RA FEW007 SCT010 BKN014 15/14 Q0997 REDZ=
200707050720 METAR ESMX 050720Z 34012KT 9999 -RA BKN006 BKN009 14/14 Q0997=
200707050650 METAR ESMX 050650Z 34012KT 9999 RA FEW005 BKN007 14/14 Q0998 REDZ=
200707050620 METAR ESMX 050620Z 34011KT 7000 RA SCT005 BKN008 14/14 Q0998=
200707050550 METAR ESMX 050550Z 35012KT 6000 RA SCT005 BKN012 14/14 Q0998=
200707050520 METAR ESMX 050520Z 35011KT 6000 SHRA SCT006 BKN015 14/14 Q0998=
200707050450 METAR ESMX 050450Z 34010KT 8000 RA FEW006 SCT015 BKN030 14/14 Q0999=
200707050420 METAR ESMX 050420Z 33008KT 7000 RA FEW005 SCT015 BKN030 14/14 Q0999=
200707050350 METAR ESMX 050350Z 34007KT 8000 RA FEW005 BKN010 14/14 Q1000=
200707050320 METAR ESMX 050320Z AUTO 35005KT 9000NDV -RA FEW004/// SCT009/// BKN037/// 14/13 Q1000=
200707050250 METAR ESMX 050250Z AUTO 36006KT 7000NDV +RA BKN003/// OVC011/// 14/13 Q1000=
200707050220 METAR ESMX 050220Z AUTO 32006KT 9000NDV RA BKN003/// OVC006/// 14/13 Q1000=
200707050150 METAR ESMX 050150Z AUTO 32006KT 9000NDV RA SCT003/// BKN005/// BKN008/// 14/13 Q1000=
200707050120 METAR ESMX 050120Z AUTO 35004KT 300V010 0700NDV R01/P2000D R19/P2000D +RA SCT004/// OVC006/// 14/13 Q1001=
200707050050 METAR ESMX 050050Z VRB02KT 6000 RA FEW005 SCT010 14/13 Q1001=
200707050020 METAR ESMX 050020Z 35005KT 7000 RA FEW004 SCT008 14/13 Q1001=
200707042350 METAR ESMX 042350Z 04004KT 010V080 8000 RA FEW005 SCT010 BKN050 14/13 Q1002=
200707042320 METAR ESMX 042320Z 01005KT 9999 RA FEW006 BKN011 14/13 Q1002=
200707042250 METAR ESMX 042250Z 03002KT 6000 RA FEW006 SCT008 OVC010 14/13 Q1002 REDZ=
200707042220 METAR ESMX 042220Z 07002KT 9999 -RA OVC010 14/13 Q1002=
200707042150 METAR ESMX 042150Z VRB02KT 9999 DZ OVC011 14/13 Q1002 RERA=
200707042120 METAR ESMX 042120Z 07003KT 020V120 9999 -RA 15/12 Q1002=
200707042050 METAR ESMX 042050Z 09003KT 040V140 CAVOK 15/11 Q1002=
200707042020 METAR ESMX 042020Z 10003KT 050V120 CAVOK 16/12 Q1002=
200707041950 METAR ESMX 041950Z 10003KT 060V140 CAVOK 16/12 Q1002=
200707041920 METAR ESMX 041920Z 12004KT 060V160 9999 SCT035 17/12 Q1002=
200707041850 METAR ESMX 041850Z 11005KT 070V160 9999 FEW035 17/12 Q1002=
200707041820 METAR ESMX 041820Z 10005KT 050V130 9999 SCT040 18/12 Q1001=
200707041750 METAR ESMX 041750Z 13003KT 100V170 9999 FEW030 SCT050 18/11 Q1001=
200707041720 METAR ESMX 041720Z 11003KT 070V160 9999 SCT035 18/11 Q1001=
200707041650 METAR ESMX 041650Z 09007KT 050V140 9999 FEW033 SCT042 18/12 Q1001=
200707041620 METAR ESMX 041620Z 17004KT 9999 FEW034 SCT073 18/10 Q1001=
200707041550 METAR ESMX 041550Z 16006KT 120V190 9999 FEW030 SCT075 19/11 Q1001=
200707041520 METAR ESMX 041520Z 14006KT 030V190 9999 FEW030 SCT150 18/11 Q1001=
200707041350 METAR ESMX 041350Z 16006KT 120V200 9999 FEW030 BKN150 18/11 Q1001=
200707041320 METAR ESMX 041320Z 17006KT 120V200 9999 FEW028 BKN150 18/11 Q1001=
200707041250 METAR ESMX 041250Z 15007KT 9999 FEW028 BKN150 18/11 Q1001=
200707041150 METAR ESMX 041150Z 15008KT 9999 FEW028 BKN150 18/11 Q1000=
200707041120 METAR ESMX 041120Z 15006KT 110V190 9999 SCT028 SCT084 18/11 Q1000=
200707041050 METAR ESMX 041050Z 17007KT 120V190 9999 FEW026 SCT045 BKN053 18/12 Q1000=
200707041020 METAR ESMX 041020Z 16008KT 120V200 9999 FEW023 SCT028 18/12 Q1000=
200707040950 METAR ESMX 040950Z 15008KT 120V180 9999 SCT022 18/12 Q0999=
200707040920 METAR ESMX 040920Z 16008KT 110V200 9999 FEW015 SCT045 18/12 Q0999=
200707040850 METAR ESMX 040850Z 16007KT 100V200 9999 SCT014 BKN040 17/13 Q0999=
200707040820 METAR ESMX 040820Z 15007KT 9999 FEW012 SCT020 16/13 Q0999=
200707040750 METAR ESMX 040750Z 16007KT 120V220 9999 FEW006 SCT010 BKN040 15/13 Q0999=
200707040720 METAR ESMX 040720Z 15007KT 130V200 9999 BKN004 14/14 Q0999=
200707040650 METAR ESMX 040650Z 14005KT 100V170 8000 BR FEW004 OVC005 14/14 Q0999=
200707040620 METAR ESMX 040620Z 12003KT 070V170 6000 BR BKN004 14/13 Q0999 RERA REDZ=
200707040550 METAR ESMX 040550Z 12003KT 080V160 6000 -DZ SCT005 BKN060 14/13 Q0999 RERA=
200707040520 METAR ESMX 040520Z 10003KT 6000 BR SCT003 BKN070 14/13 Q0999 REDZ REUP=
200707040450 METAR ESMX 040450Z 11003KT 4700 -DZ SCT003 BKN060 13/13 Q0999 RERA=
200707040420 METAR ESMX 040420Z 11003KT 080V140 4600 BR OVC004 14/13 Q0999=
200707040350 METAR ESMX 040350Z VRB02KT 6000 BR OVC003 14/13 Q0999=
200707040320 METAR ESMX 040320Z AUTO 14004KT 1800NDV VV000 14/13 Q0999=
200707040250 METAR ESMX 040250Z AUTO 13003KT 090V170 0300NDV R01/0650N R19/0600N FG VV001 14/13 Q0999=
200707040220 METAR ESMX 040220Z AUTO 15003KT 110V180 0200NDV R01/0600N R19/0650N FG VV001 13/13 Q1000=
200707040150 METAR ESMX 040150Z AUTO 16004KT 0150NDV R01/0550N R19/0650 FG VV000 13/13 Q1000=
200707040120 METAR ESMX 040120Z AUTO 15004KT 0150NDV R01/0600 R19/0550 FG VV001 13/13 Q1000=
200707040050 METAR ESMX 040050Z AUTO 17003KT 0300NDV R01/0900D R19/0800V1700U FG VV000 13/12 Q1000=
200707040020 METAR ESMX 040020Z 22004KT 0150 R01/0400V0550 R19/0550 FG VV000 13/13 Q1000=
200707032350 METAR ESMX 032350Z 20004KT 1000 R01/0450 FG VV002 14/13 Q1000=
200707032320 METAR ESMX 032320Z 15002KT 2500 R01/P2000D R19/P2000U BR BKN050 14/13 Q1000=
200707032250 METAR ESMX 032250Z 21003KT 8000 BR SCT047 BKN063 BKN075 14/14 Q1000=
200707032220 METAR ESMX 032220Z 22005KT 9999 FEW020 BKN050 15/14 Q1000=
200707032150 METAR ESMX 032150Z 19004KT CAVOK 14/14 Q1001=
200707032120 METAR ESMX 032120Z 18004KT 7000 NSC 13/13 Q1001=
200707032050 METAR ESMX 032050Z 16002KT 2500 R01/P2000D R19/P2000N NSC 13/12 Q1001=
200707032020 METAR ESMX 032020Z 00000KT 1100 R01/P2000D R19/P2000D BR NSC 14/13 Q1001=
200707031950 METAR ESMX 031950Z 00000KT 9999 SCT020 15/14 Q1001=
200707031920 METAR ESMX 031920Z 00000KT 9999 FEW015 SCT020 16/14 Q1001=
200707031850 METAR ESMX 031850Z 00000KT 9999 FEW015 SCT040 16/14 Q1001=
200707031820 METAR ESMX 031820Z VRB02KT 9999 SCT015 17/14 Q1001=
200707031750 METAR ESMX 031750Z 07003KT 9999 FEW010 SCT015 16/14 Q1001=
200707031720 METAR ESMX 031720Z VRB02KT 9999 BKN015 17/14 Q1001=
200707031650 METAR ESMX 031650Z 03004KT 9999 FEW010 BKN015 16/14 Q1001=
200707031620 METAR ESMX 031620Z 03003KT 350V070 9999 SCT010 OVC018 16/14 Q1001=
200707031550 METAR ESMX 031550Z 06004KT 020V120 9999 FEW009 BKN011 BKN020 16/14 Q1001=
200707031520 METAR ESMX 031520Z 05004KT 020V100 9999 FEW009 SCT011 BKN014 16/14 Q1001=
200707031450 METAR ESMX 031450Z 08003KT 020V170 9999 FEW006 SCT011 BKN044 16/14 Q1002=
200707031420 METAR ESMX 031420Z 04003KT 9999 FEW004 SCT010 BKN018 16/14 Q1002=
200707031350 METAR ESMX 031350Z VRB02KT 9999 FEW006 SCT009 BKN013 16/14 Q1002 REDZ=
200707031320 METAR ESMX 031320Z 06004KT 020V100 9999 -DZ SCT004 BKN006 BKN079 16/15 Q1002 RERA=
200707031250 METAR ESMX 031250Z VRB02KT 6000 -RA FEW005 SCT007 15/15 Q1002=
200707031220 METAR ESMX 031220Z VRB02KT 3800 RA FEW007 15/15 Q1002=
200707031150 METAR ESMX 031150Z 13003KT 080V160 4100 RA FEW005 SCT026 BKN048 15/15 Q1002=
200707031120 METAR ESMX 031120Z 11003KT 050V170 7000 RA SCT004 BKN006 OVC008 15/15 Q1002=
200707031050 METAR ESMX 031050Z 12003KT 070V150 7000 RA FEW005 SCT007 BKN010 15/15 Q1002=
200707031020 METAR ESMX 031020Z 11003KT 060V140 7000 RA FEW005 SCT007 BKN009 15/15 Q1002=
200707030950 METAR ESMX 030950Z 10003KT 8000 -RA FEW005 BKN006 BKN009 15/14 Q1002=
200707030920 METAR ESMX 030920Z 10004KT 030V160 4900 RA FEW003 BKN005 15/14 Q1002=
200707030850 METAR ESMX 030850Z 10004KT 050V140 6000 RA FEW002 BKN004 OVC006 15/14 Q1002=
200707030820 METAR ESMX 030820Z 10004KT 060V130 8000 RA OVC003 15/14 Q1002=
200707030750 METAR ESMX 030750Z 09004KT 040V130 7000 RA OVC004 15/14 Q1002=
200707030720 METAR ESMX 030720Z 10003KT 9000 RA OVC004 14/14 Q1002=
200707030650 METAR ESMX 030650Z 10005KT 9000 -RA BKN005 14/13 Q1003=
200707030620 METAR ESMX 030620Z 11004KT 8000 -RA OVC005 14/13 Q1003=
200707030550 METAR ESMX 030550Z 10005KT 8000 -RA FEW006 SCT007 BKN009 14/13 Q1003=
200707030520 METAR ESMX 030520Z 10005KT 7000 -RA FEW005 SCT007 BKN025 14/13 Q1003=
200707030450 METAR ESMX 030450Z 08005KT 6000 -RA FEW005 SCT007 BKN009 14/13 Q1003=
200707030420 METAR ESMX 030420Z VRB04KT 9000 -RA FEW006 BKN008 BKN042 13/13 Q1003=
200707030350 METAR ESMX 030350Z 10005KT 040V140 9000 -RA FEW006 SCT008 BKN040 13/13 Q1004=
200707030320 METAR ESMX 030320Z AUTO 10005KT 050V140 5000NDV RA BKN007/// BKN012/// 13/12 Q1004=
200707030220 METAR ESMX 030220Z AUTO 10005KT 020V160 9999NDV FEW037/// SCT043/// BKN082/// 13/12 Q1005=
200707030120 METAR ESMX 030120Z AUTO 09005KT 360V160 9999NDV -RA SCT017/// OVC033/// 13/11 Q1005 REDZ=
200707022250 METAR ESMX 022250Z 10005KT 040V140 9999 SCT042 BKN075 13/11 Q1007=
200707022120 METAR ESMX 022120Z 10006KT 070V150 CAVOK 14/10 Q1008=
200707021920 METAR ESMX 021920Z 11005KT 070V160 CAVOK 17/09 Q1008=
200707021720 METAR ESMX 021720Z 13006KT 070V170 CAVOK 19/09 Q1008=
200707021650 METAR ESMX 021650Z 12005KT 050V200 CAVOK 20/09 Q1008=
200707021620 METAR ESMX 021620Z 15007KT 100V180 CAVOK 20/09 Q1009=
200707021550 METAR ESMX 021550Z 15007KT 100V180 CAVOK 20/08 Q1009=
200707021520 METAR ESMX 021520Z 12007KT 050V170 CAVOK 21/08 Q1009=
200707021450 METAR ESMX 021450Z 12007KT 070V180 CAVOK 22/09 Q1009=
200707021420 METAR ESMX 021420Z 13007KT 070V180 CAVOK 22/10 Q1009=
200707021350 METAR ESMX 021350Z 12008KT 080V160 9999 FEW045 BKN100 21/09 Q1009=
200707021320 METAR ESMX 021320Z 13008KT 080V170 CAVOK 22/09 Q1009=
200707021250 METAR ESMX 021250Z 15006KT 100V180 CAVOK 21/09 Q1010=
200707021220 METAR ESMX 021220Z 15005KT 100V180 CAVOK 21/10 Q1010=
200707021150 METAR ESMX 021150Z 13007KT CAVOK 21/10 Q1010=
200707021120 METAR ESMX 021120Z 16007KT 120V190 CAVOK 21/10 Q1010=
200707021050 METAR ESMX 021050Z 15008KT 100V200 CAVOK 20/09 Q1010=
200707021020 METAR ESMX 021020Z 12006KT 060V220 9999 FEW100 21/10 Q1010=
200707020950 METAR ESMX 020950Z 12007KT 070V180 CAVOK 19/09 Q1011=
200707020920 METAR ESMX 020920Z 14006KT 060V190 CAVOK 19/09 Q1011=
200707020850 METAR ESMX 020850Z 13007KT 060V200 CAVOK 19/09 Q1011=
200707020820 METAR ESMX 020820Z 14005KT 070V210 CAVOK 18/09 Q1011=
200707020750 METAR ESMX 020750Z 13007KT 080V200 CAVOK 18/10 Q1011=
200707020720 METAR ESMX 020720Z 12006KT 070V170 CAVOK 18/10 Q1011=
200707020650 METAR ESMX 020650Z 12005KT 050V170 CAVOK 16/10 Q1011=
200707020620 METAR ESMX 020620Z 12006KT 070V180 CAVOK 16/11 Q1011=
200707020550 METAR ESMX 020550Z 14007KT CAVOK 15/11 Q1011=
200707020520 METAR ESMX 020520Z 13004KT CAVOK 15/11 Q1011=
200707020350 METAR ESMX 020350Z 11003KT 060V170 CAVOK 11/09 Q1011=
200707020320 METAR ESMX 020320Z AUTO 11003KT 9999NDV NCD 11/09 Q1011=
200707020250 METAR ESMX 020250Z AUTO 10004KT 070V140 9999NDV NCD 10/09 Q1011=
200707020220 METAR ESMX 020220Z AUTO 08003KT 040V110 9999NDV NCD 10/09 Q1011=
200707020150 METAR ESMX 020150Z AUTO 08003KT 9999NDV NCD 10/09 Q1011=
200707020120 METAR ESMX 020120Z AUTO 08003KT 9999NDV NCD 08/07 Q1011=
200707020050 METAR ESMX 020050Z AUTO 00000KT 9999NDV NCD 07/06 Q1011=
200707020020 METAR ESMX 020020Z 00000KT CAVOK 08/07 Q1011=
200707012350 METAR ESMX 012350Z VRB02KT CAVOK 08/07 Q1011=
200707012320 METAR ESMX 012320Z VRB01KT CAVOK 09/08 Q1011=
200707012250 METAR ESMX 012250Z 00000KT CAVOK 10/08 Q1011=
200707012220 METAR ESMX 012220Z 08002KT CAVOK 11/09 Q1011=
200707012150 METAR ESMX 012150Z 17003KT CAVOK 11/09 Q1011=
200707012120 METAR ESMX 012120Z 17003KT CAVOK 14/09 Q1011=
200707011950 METAR ESMX 011950Z 13004KT 090V160 CAVOK 16/11 Q1011=
200707011920 METAR ESMX 011920Z 11004KT 060V150 CAVOK 16/11 Q1011=
200707011850 METAR ESMX 011850Z 11005KT 070V150 CAVOK 17/11 Q1010=
200707011820 METAR ESMX 011820Z 13005KT 080V170 CAVOK 18/11 Q1010=
200707011750 METAR ESMX 011750Z 11006KT 050V150 CAVOK 18/11 Q1010=
200707011720 METAR ESMX 011720Z 11004KT 060V170 CAVOK 20/08 Q1010=
200707011650 METAR ESMX 011650Z VRB03KT CAVOK 21/07 Q1010=
200707011620 METAR ESMX 011620Z 23003KT CAVOK 21/06 Q1010=
200707011550 METAR ESMX 011550Z VRB02KT CAVOK 21/06 Q1010=
200707011520 METAR ESMX 011520Z 35002KT CAVOK 19/09 Q1010=
200707011450 METAR ESMX 011450Z VRB03KT CAVOK 19/07 Q1010=
200707011420 METAR ESMX 011420Z VRB02KT CAVOK 22/06 Q1010=
200707011350 METAR ESMX 011350Z 23004KT CAVOK 21/08 Q1010=
200707011320 METAR ESMX 011320Z 24004KT CAVOK 20/07 Q1010=
200707011250 METAR ESMX 011250Z 22003KT CAVOK 20/08 Q1010=
200707011220 METAR ESMX 011220Z 29003KT 9999 SCT048 18/08 Q1010=
