##########################################################
# Query made at 04/19/2024 20:58:04 UTC
# Time interval: from 06/01/2007 12:00  to 06/30/2007 12:59  UTC
##########################################################

##########################################################
# ESMX, Vaxjo (Sweden)
# WMO index: 02641. WIGOS ID: 0-20000-0-02648
# Latitude 56-51N. Longitude 014-50E. Altitude 199 m.
##########################################################

200706301250 METAR ESMX 301250Z AUTO 24006KT 220V290 9999NDV FEW042/// SCT072/// 18/07 Q1007=
200706301220 METAR ESMX 301220Z AUTO 26008KT 9999NDV FEW040/// SCT078/// 17/09 Q1007=
200706301150 METAR ESMX 301150Z AUTO 26007KT 240V300 9999NDV FEW035/// BKN039/// 18/09 Q1006=
200706301120 METAR ESMX 301120Z AUTO 24006KT 190V290 9999NDV FEW032/// 17/09 Q1007=
200706300620 METAR ESMX 300620Z AUTO 20004KT 9999NDV ////// 12/11 Q1006 REDZ=
200706300550 METAR ESMX 300550Z AUTO 20002KT 9999NDV FEW062/// 12/11 Q1006 RERA REDZ=
200706300520 METAR ESMX 300520Z AUTO 22003KT 9999NDV -RA FEW069/// 11/11 Q1006=
200706300450 METAR ESMX 300450Z AUTO 30004KT 260V330 7000NDV -RA FEW045/// 11/10 Q1005=
200706300420 METAR ESMX 300420Z AUTO 22012KT 170V270 9999NDV -RA FEW004/// SCT006/// BKN010/// 12/10 Q1005=
200706300350 METAR ESMX 300350Z AUTO 16005KT 100V190 0900NDV R01/P2000D R19/P2000 RA BKN004/// OVC007/// 13/12 Q1005 REDZ=
200706300320 METAR ESMX 300320Z AUTO 14005KT 6000NDV -RA FEW005/// SCT008/// BKN009/// 13/12 Q1005 REDZ=
200706300250 METAR ESMX 300250Z AUTO 16006KT 120V200 7000NDV -RA FEW005/// BKN006/// OVC010/// 13/12 Q1005 REDZ=
200706300220 METAR ESMX 300220Z AUTO 15006KT 120V190 7000NDV -RA FEW007/// BKN010/// BKN023/// 13/12 Q1005 REDZ=
200706300150 METAR ESMX 300150Z AUTO 15004KT 8000NDV DZ FEW008/// BKN009/// OVC013/// 13/12 Q1006 RERA=
200706300120 METAR ESMX 300120Z AUTO 16006KT 140V200 9999NDV FEW009/// SCT014/// BKN025/// 14/12 Q1006=
200706300050 METAR ESMX 300050Z AUTO 15006KT 110V190 9999NDV FEW011/// SCT014/// BKN026/// 13/11 Q1006=
200706300020 METAR ESMX 300020Z AUTO 17006KT 9999NDV SCT012/// BKN021/// OVC048/// 13/11 Q1006=
200706292350 METAR ESMX 292350Z AUTO 16007KT 9999NDV OVC014/// 13/11 Q1007=
200706292320 METAR ESMX 292320Z AUTO 17005KT 9999NDV FEW014/// SCT017/// BKN022/// 13/11 Q1007 RERA REDZ=
200706292250 METAR ESMX 292250Z AUTO 16008KT 9999NDV FEW018/// SCT022/// BKN043/// 14/11 Q1007=
200706292220 METAR ESMX 292220Z AUTO 16006KT 110V180 9999NDV OVC047/// 14/10 Q1007=
200706292150 METAR ESMX 292150Z AUTO 17005KT 9999NDV BKN048/// OVC088/// 14/10 Q1007=
200706292120 METAR ESMX 292120Z AUTO 16006KT 9999NDV FEW054/// BKN084/// 14/10 Q1007=
200706292050 METAR ESMX 292050Z AUTO 16005KT 9999NDV BKN081/// 14/10 Q1007=
200706292020 METAR ESMX 292020Z AUTO 17006KT 9999NDV BKN085/// 14/10 Q1007=
200706291950 METAR ESMX 291950Z AUTO 16006KT 140V200 9999NDV NCD 14/10 Q1007=
200706291920 METAR ESMX 291920Z AUTO 17006KT 9999NDV SCT059/// 15/10 Q1007=
200706291850 METAR ESMX 291850Z AUTO 17008KT 9999NDV BKN058/// 15/10 Q1007=
200706291820 METAR ESMX 291820Z AUTO 17008KT 140V200 9999NDV BKN064/// 16/10 Q1007=
200706291750 METAR ESMX 291750Z 18010KT CAVOK 16/10 Q1007=
200706291720 METAR ESMX 291720Z 17009KT CAVOK 16/10 Q1008=
200706291650 METAR ESMX 291650Z 16008KT CAVOK 17/09 Q1008=
200706291620 METAR ESMX 291620Z 18009KT 9999 FEW035 BKN059 17/09 Q1008=
200706291550 METAR ESMX 291550Z 19010KT CAVOK 17/09 Q1008=
200706291520 METAR ESMX 291520Z 19009KT CAVOK 16/09 Q1008=
200706291450 METAR ESMX 291450Z 20009KT 9999 FEW041 BKN065 16/09 Q1008=
200706291420 METAR ESMX 291420Z 21010KT 9999 FEW037 SCT044 BKN052 17/09 Q1008=
200706291350 METAR ESMX 291350Z 19009KT 9999 FEW033 SCT044 BKN071 17/09 Q1008=
200706291320 METAR ESMX 291320Z 19009KT 9999 SCT030 BKN072 17/09 Q1008=
200706291250 METAR ESMX 291250Z 20009KT 9999 FEW029 BKN064 16/10 Q1008=
200706291220 METAR ESMX 291220Z 20006KT 9999 SCT045 BKN054 15/09 Q1008=
200706291150 METAR ESMX 291150Z 22007KT 9999 FEW044 BKN053 14/09 Q1008=
200706291120 METAR ESMX 291120Z 22011KT 9999 FEW040 SCT048 BKN066 14/09 Q1008=
200706291050 METAR ESMX 291050Z 23011KT 9999 FEW037 BKN047 15/09 Q1008=
200706291020 METAR ESMX 291020Z 24015KT 9999 FEW038 BKN048 15/07 Q1008=
200706290950 METAR ESMX 290950Z 24011KT 9999 SCT044 17/07 Q1007=
200706290920 METAR ESMX 290920Z 26011KT 210V310 9999 SCT043 17/08 Q1007=
200706290850 METAR ESMX 290850Z 26013G23KT 220V290 9999 SCT037 16/05 Q1007=
200706290750 METAR ESMX 290750Z 25010KT 220V290 9999 FEW027 SCT064 14/08 Q1007=
200706290720 METAR ESMX 290720Z 25012KT 200V290 9999 FEW023 SCT031 BKN053 14/08 Q1007=
200706290650 METAR ESMX 290650Z 26013KT 240V300 9999 FEW021 SCT025 BKN045 13/08 Q1007=
200706290620 METAR ESMX 290620Z 26012KT 230V290 9999 FEW019 SCT023 BKN027 13/09 Q1006=
200706290550 METAR ESMX 290550Z 23010KT 200V260 9999 FEW017 BKN025 13/09 Q1006=
200706290520 METAR ESMX 290520Z 24010KT 220V290 9999 SCT016 BKN020 12/09 Q1006=
200706290420 METAR ESMX 290420Z 23007KT 9999 SCT020 10/09 Q1006=
200706290350 METAR ESMX 290350Z AUTO 23007KT 9999NDV FEW025/// BKN051/// 10/08 Q1005=
200706290320 METAR ESMX 290320Z AUTO 21007KT 9999NDV FEW050/// 09/08 Q1005=
200706290250 METAR ESMX 290250Z AUTO 23006KT 9999NDV NCD 08/07 Q1005=
200706290220 METAR ESMX 290220Z AUTO 20006KT 9999NDV NCD 08/06 Q1005=
200706290150 METAR ESMX 290150Z AUTO 22005KT 9999NDV NCD 08/06 Q1005=
200706290120 METAR ESMX 290120Z AUTO 21005KT 9999NDV NCD 08/06 Q1005=
200706290050 METAR ESMX 290050Z AUTO 22005KT 9999NDV NCD 08/06 Q1005=
200706290020 METAR ESMX 290020Z AUTO 23006KT 9999NDV NCD 08/07 Q1004=
200706282350 METAR ESMX 282350Z 23005KT CAVOK 08/06 Q1004=
200706282320 METAR ESMX 282320Z 22005KT CAVOK 08/06 Q1004=
200706282250 METAR ESMX 282250Z 25006KT CAVOK 10/07 Q1004=
200706282220 METAR ESMX 282220Z 25006KT 9999 SCT040 10/07 Q1004=
200706282150 METAR ESMX 282150Z 26008KT 9999 FEW040 11/07 Q1003=
200706282120 METAR ESMX 282120Z 25006KT 9999 FEW028 BKN200 11/07 Q1003=
200706282050 METAR ESMX 282050Z 23006KT 190V260 CAVOK 10/07 Q1003=
200706282020 METAR ESMX 282020Z 26005KT 230V290 CAVOK 11/07 Q1003=
200706281950 METAR ESMX 281950Z 26006KT 9999 FEW025 BKN200 12/07 Q1002=
200706281920 METAR ESMX 281920Z 27010KT 9999 FEW025 SCT087 12/07 Q1002=
200706281850 METAR ESMX 281850Z 27011KT 9999 FEW025 BKN200 13/07 Q1002=
200706281820 METAR ESMX 281820Z 27011KT 250V320 9999 SCT025 13/08 Q1002=
200706281750 METAR ESMX 281750Z 26010KT 230V300 9999 FEW015 SCT030 13/08 Q1001=
200706281720 METAR ESMX 281720Z 27012KT 230V290 9999 FEW015 SCT020 14/09 Q1001=
200706281620 METAR ESMX 281620Z 27013KT 9999 FEW017 BKN035 13/10 Q1000=
200706281550 METAR ESMX 281550Z 26012KT 230V290 9999 FEW015 SCT018 BKN035 13/10 Q1000=
200706281520 METAR ESMX 281520Z 27010KT 9999 FEW014 SCT021 OVC029 13/10 Q1000=
200706281450 METAR ESMX 281450Z 26010KT 230V290 9999 FEW011 SCT014 BKN017 12/10 Q1000=
200706281420 METAR ESMX 281420Z 26013KT 220V290 9999 FEW011 BKN015 OVC027 13/11 Q0999=
200706281320 METAR ESMX 281320Z 26011KT 230V290 9999 FEW008 BKN011 OVC015 13/12 Q0999=
200706281250 METAR ESMX 281250Z 26011KT 240V300 9999 FEW007 BKN010 13/12 Q0998 RERA=
200706281220 METAR ESMX 281220Z 25011KT 5000 -RA SCT005 BKN008 OVC015 13/12 Q0998=
200706281120 METAR ESMX 281120Z 24005KT 210V280 2500 -RA SCT005 BKN008 13/12 Q0997 REDZ=
200706281050 METAR ESMX 281050Z 25008KT 9000 -RA FEW006 SCT028 BKN044 13/12 Q0997=
200706281020 METAR ESMX 281020Z 25009KT 5000 RA FEW006 SCT008 BKN014 13/12 Q0996=
200706280950 METAR ESMX 280950Z 25007KT 230V290 9999 FEW005 SCT008 BKN010 13/12 Q0996=
200706280920 METAR ESMX 280920Z 23007KT 200V260 9999 FEW005 SCT008 BKN010 13/12 Q0996 REDZ=
200706280850 METAR ESMX 280850Z 25008KT 3800 SHRA FEW006 SCT008 BKN013 13/12 Q0996=
200706280820 METAR ESMX 280820Z 25006KT 220V280 9999 SCT006 BKN010 OVC013 13/12 Q0995=
200706280750 METAR ESMX 280750Z 25005KT 9999 BKN005 OVC008 13/12 Q0995=
200706280720 METAR ESMX 280720Z 25005KT 9999 FEW005 BKN006 OVC010 13/12 Q0995=
200706280650 METAR ESMX 280650Z 26005KT 9999 SCT005 BKN007 13/12 Q0995=
200706280620 METAR ESMX 280620Z 26006KT 9999 SCT005 BKN007 12/12 Q0994=
200706280550 METAR ESMX 280550Z 25005KT 9999 BKN006 12/11 Q0994 RERA=
200706280520 METAR ESMX 280520Z 25004KT 9999 -RA BKN004 12/11 Q0994=
200706280450 METAR ESMX 280450Z 25004KT 9999 SCT004 BKN074 12/11 Q0993=
200706280420 METAR ESMX 280420Z 26004KT 9999 SCT005 BKN040 11/11 Q0993=
200706280350 METAR ESMX 280350Z 26003KT 9999 SCT005 BKN040 11/11 Q0993=
200706280320 METAR ESMX 280320Z AUTO 30003KT 260V340 9999NDV BKN055/// 11/11 Q0993=
200706280250 METAR ESMX 280250Z AUTO 27004KT 9999NDV FEW051/// BKN061/// 11/11 Q0993=
200706280220 METAR ESMX 280220Z AUTO 27005KT 240V300 9999NDV FEW007/// BKN054/// 11/11 Q0992=
200706280150 METAR ESMX 280150Z AUTO 29003KT 9999NDV -RA FEW045/// BKN052/// 12/11 Q0992 REDZ=
200706280120 METAR ESMX 280120Z AUTO 30004KT 9999NDV -RA BKN041/// 12/11 Q0992=
200706280050 METAR ESMX 280050Z AUTO 31004KT 9999NDV -RA FEW010/// BKN017/// OVC048/// 12/11 Q0991 REDZ=
200706280020 METAR ESMX 280020Z AUTO 31004KT 9999NDV -RA FEW009/// OVC049/// 12/11 Q0991 REDZ=
200706272350 METAR ESMX 272350Z 32004KT 9999 -RA FEW006 SCT037 BKN056 12/11 Q0991 REDZ=
200706272320 METAR ESMX 272320Z 34008KT 8000 -RA FEW005 SCT019 BKN034 12/11 Q0991=
200706272250 METAR ESMX 272250Z 34008KT 300V360 5000 SHRA FEW005 SCT007 BKN010 12/11 Q0990=
200706272220 METAR ESMX 272220Z 33005KT 9999 FEW007 SCT014 OVC025 13/12 Q0990=
200706272150 METAR ESMX 272150Z 34006KT 9999 FEW012 BKN021 OVC025 13/12 Q0990=
200706272120 METAR ESMX 272120Z 34006KT 9999 FEW014 SCT024 BKN041 13/12 Q0990=
200706272050 METAR ESMX 272050Z 35006KT 9999 SCT020 BKN040 13/12 Q0989=
200706272020 METAR ESMX 272020Z 03005KT 9999 FEW015CB SCT017 BKN047 13/12 Q0989=
200706271950 METAR ESMX 271950Z 04004KT 9999 -SHRA FEW010 SCT018CB BKN023 13/12 Q0989=
200706271920 METAR ESMX 271920Z 02008KT 9999 FEW012 SCT017 BKN023 15/11 Q0988=
200706271850 METAR ESMX 271850Z 35006KT 9999 FEW019 SCT029 OVC064 15/12 Q0988=
200706271820 METAR ESMX 271820Z 01006KT 9999 FEW020 BKN060 15/12 Q0987=
200706271750 METAR ESMX 271750Z 01006KT 9999 FEW020 BKN060 15/12 Q0987=
200706271720 METAR ESMX 271720Z 01006KT 9999 FEW020 BKN070 15/12 Q0987=
200706271650 METAR ESMX 271650Z 01008KT 9999 FEW026CB BKN060 15/12 Q0987=
200706271620 METAR ESMX 271620Z 02010KT 9999 FEW015 SCT050 16/12 Q0986=
200706271550 METAR ESMX 271550Z 02008KT CAVOK 16/11 Q0986=
200706271450 METAR ESMX 271450Z 03007KT 360V070 CAVOK 17/11 Q0985=
200706271420 METAR ESMX 271420Z 06004KT 010V090 9999 FEW030 BKN089 17/12 Q0985=
200706271350 METAR ESMX 271350Z 07005KT 020V100 9999 FEW025 SCT070 17/12 Q0985=
200706271320 METAR ESMX 271320Z 33006KT 9999 SCT030 17/13 Q0985=
200706271250 METAR ESMX 271250Z VRB02KT 9999 FEW020CB SCT033 16/12 Q0984=
200706271150 METAR ESMX 271150Z 02004KT 9999 FEW030 SCT034 BKN044 17/11 Q0984=
200706271120 METAR ESMX 271120Z VRB02KT 9999 SCT026 BKN072 17/10 Q0984=
200706271050 METAR ESMX 271050Z 02004KT 9999 SCT030 BKN080 18/11 Q0984=
200706271020 METAR ESMX 271020Z VRB03KT 9999 FEW020 SCT076 17/11 Q0984=
200706270950 METAR ESMX 270950Z 11004KT 070V210 9999 BKN018 16/11 Q0984=
200706270920 METAR ESMX 270920Z 05003KT 9999 FEW017 SCT022 BKN045 14/12 Q0984=
200706270850 METAR ESMX 270850Z VRB02KT 9999 FEW012 SCT017 BKN025 14/11 Q0984=
200706270820 METAR ESMX 270820Z 14003KT 9999 FEW011 SCT015 BKN021 14/11 Q0984=
200706270750 METAR ESMX 270750Z 15006KT 9999 FEW009 SCT013 BKN016 14/12 Q0983=
200706270720 METAR ESMX 270720Z 17004KT 9999 FEW006 SCT008 BKN011 13/11 Q0983=
200706270650 METAR ESMX 270650Z 17005KT 9999 FEW005 BKN006 13/12 Q0983=
200706270550 METAR ESMX 270550Z 17007KT 9000 BR FEW002 BKN004 11/10 Q0983=
200706270520 METAR ESMX 270520Z 17006KT 8000 BR SCT002 OVC004 11/10 Q0983=
200706270450 METAR ESMX 270450Z 17005KT 9000 VCSH SCT003 BKN015 10/10 Q0983=
200706270420 METAR ESMX 270420Z 18004KT 9999 SCT013 BKN017 10/10 Q0983=
200706270350 METAR ESMX 270350Z 21004KT 9999 SCT017 BKN025 09/09 Q0983=
200706270320 METAR ESMX 270320Z 22004KT 9999 FEW004 SCT025 09/08 Q0982=
200706270250 METAR ESMX 270250Z AUTO 21003KT 0300NDV R01/1000D R19/0550N FG FEW064/// 08/08 Q0982=
200706270220 METAR ESMX 270220Z AUTO 18004KT 0550NDV R01/0900VP2000D R19/0800V1400U FG FEW001/// 08/08 Q0982=
200706270150 METAR ESMX 270150Z AUTO 17004KT 5000NDV FEW066/// 08/08 Q0982=
200706270120 METAR ESMX 270120Z AUTO 21004KT 4000NDV BKN001/// BKN070/// 08/08 Q0982=
200706270050 METAR ESMX 270050Z AUTO 21005KT 0700NDV R01/1100VP2000U R19/P2000U FG OVC064/// 08/08 Q0983=
200706270020 METAR ESMX 270020Z 21004KT 0900 R01/0800VP2000 R19/P2000D BCFG BR BKN002 08/08 Q0983=
200706262350 METAR ESMX 262350Z VRB02KT 0750 R01/P2000D R19/1000 BCFG BR BKN003 09/08 Q0983=
200706262320 METAR ESMX 262320Z 29002KT 7000 MIFG BR FEW003 08/08 Q0983=
200706262250 METAR ESMX 262250Z 25002KT 9999 FEW037 09/08 Q0984=
200706262120 METAR ESMX 262120Z 22004KT 9999 FEW005 SCT070 10/09 Q0985=
200706262050 METAR ESMX 262050Z 20003KT 9999 FEW005 BKN065 10/10 Q0985=
200706262020 METAR ESMX 262020Z 19003KT 9999 FEW005 SCT035 BKN130 11/10 Q0985 RERA=
200706261950 METAR ESMX 261950Z 22002KT 9999 -RA FEW010 SCT035 BKN130 11/10 Q0985=
200706261920 METAR ESMX 261920Z 31003KT 9999 -RA FEW010 SCT036 BKN130 11/10 Q0986=
200706261850 METAR ESMX 261850Z 30003KT 260V330 9999 -RA FEW034 BKN061 11/10 Q0986=
200706261820 METAR ESMX 261820Z 26003KT 9999 -RA FEW012 BKN130 11/10 Q0986=
200706261750 METAR ESMX 261750Z 28003KT 230V320 9999 -RA FEW010 BKN130 11/10 Q0986=
200706261720 METAR ESMX 261720Z 31008KT 9999 -RA FEW043 BKN130 12/10 Q0986=
200706261650 METAR ESMX 261650Z 27004KT 230V290 9999 -RA FEW045 BKN130 12/10 Q0987=
200706261620 METAR ESMX 261620Z 26004KT 240V310 9999 -RA FEW040 BKN130 12/11 Q0987=
200706261550 METAR ESMX 261550Z 22005KT 9999 -RA FEW040 BKN130 12/11 Q0987=
200706261520 METAR ESMX 261520Z 27004KT 9999 -RA FEW040 BKN130 12/11 Q0987=
200706261450 METAR ESMX 261450Z 30006KT 9999 -RA SCT048 BKN130 12/11 Q0987=
200706261420 METAR ESMX 261420Z 28006KT 9999 -RA BKN051 12/11 Q0988=
200706261350 METAR ESMX 261350Z 27008KT 9999 -RA FEW010 SCT040 BKN055 12/11 Q0988=
200706261320 METAR ESMX 261320Z 26007KT 9999 -RA FEW007 BKN010 13/12 Q0988=
200706261250 METAR ESMX 261250Z 24006KT 210V290 8000 RA BKN056 12/12 Q0989=
200706261220 METAR ESMX 261220Z 25009KT 8000 RA FEW010 SCT018 BKN130 12/11 Q0989=
200706261150 METAR ESMX 261150Z 24008G18KT 210V270 6000 -RA SCT005 BKN010 13/12 Q0989=
200706261120 METAR ESMX 261120Z 23009KT 6000 -RA FEW007 BKN012 13/13 Q0989=
200706261050 METAR ESMX 261050Z 23007KT 7000 RA FEW004 SCT008 14/13 Q0989=
200706261020 METAR ESMX 261020Z 26006KT 8000 RA FEW004 SCT013 BKN047 14/13 Q0989=
200706260950 METAR ESMX 260950Z 27007KT 7000 RA FEW004 SCT011 BKN015 14/13 Q0989=
200706260850 METAR ESMX 260850Z 27004KT 240V350 9000 RA FEW006 SCT008 BKN011 15/14 Q0989 REDZ=
200706260820 METAR ESMX 260820Z VRB02KT 9999 DZ FEW004 SCT006 BKN010 15/14 Q0990 RERA=
200706260750 METAR ESMX 260750Z 20005KT 180V240 7000 RA FEW004 BKN005 15/14 Q0990=
200706260720 METAR ESMX 260720Z VRB01KT 9999 -RA SCT006 BKN080 15/14 Q0990=
200706260650 METAR ESMX 260650Z 21003KT 9999 -RA SCT005 BKN080 14/13 Q0990=
200706260550 METAR ESMX 260550Z 12003KT 080V160 4000 RA FEW005 SCT007 BKN009 14/14 Q0991=
200706260520 METAR ESMX 260520Z 12004KT 090V160 4000 +RA FEW007 SCT014 OVC022 14/13 Q0992=
200706260450 METAR ESMX 260450Z 11005KT 2700 RA FEW009 BKN021 BKN027 14/13 Q0992=
200706260420 METAR ESMX 260420Z AUTO 14005KT 120V210 9999NDV FEW025/// BKN030/// OVC037/// 15/12 Q0992=
200706260350 METAR ESMX 260350Z AUTO VRB02KT 9999NDV SCT029/// OVC034/// 15/12 Q0993 REDZ RERA=
200706260320 METAR ESMX 260320Z AUTO VRB02KT 9999NDV -RA FEW028/// BKN042/// 15/12 Q0993=
200706260250 METAR ESMX 260250Z AUTO VRB02KT 9999NDV OVC050/// 14/12 Q0994 RERA REDZ=
200706260220 METAR ESMX 260220Z AUTO VRB02KT 9999NDV BKN053/// OVC079/// 14/13 Q0995=
200706260150 METAR ESMX 260150Z AUTO VRB01KT 9999NDV BKN077/// 14/13 Q0995=
200706260120 METAR ESMX 260120Z AUTO VRB02KT 9999NDV SCT086/// 14/13 Q0995=
200706260050 METAR ESMX 260050Z AUTO 08004KT 9999NDV BKN079/// 14/13 Q0995=
200706260020 METAR ESMX 260020Z 12003KT 080V170 CAVOK 14/13 Q0997=
200706252350 METAR ESMX 252350Z 10003KT CAVOK 13/13 Q0997=
200706252320 METAR ESMX 252320Z 12003KT CAVOK 14/13 Q0998=
200706252250 METAR ESMX 252250Z VRB02KT CAVOK 13/13 Q0998=
200706252220 METAR ESMX 252220Z VRB01KT CAVOK 14/13 Q0999=
200706252150 METAR ESMX 252150Z 11002KT CAVOK 15/14 Q0999=
200706252120 METAR ESMX 252120Z 07002KT 9999 FEW049 OVC100 15/14 Q0999=
200706252050 METAR ESMX 252050Z 00000KT 9000 FEW047 OVC100 15/14 Q1000=
200706252020 METAR ESMX 252020Z VRB01KT CAVOK 15/14 Q1000=
200706251950 METAR ESMX 251950Z 09001KT CAVOK 16/14 Q1000=
200706251920 METAR ESMX 251920Z 00000KT CAVOK 16/14 Q1001=
200706251850 METAR ESMX 251850Z VRB02KT 9999 FEW040 BKN068 BKN098 18/13 Q1001=
200706251820 METAR ESMX 251820Z 36002KT 9999 FEW040 SCT068 BKN098 18/15 Q1001=
200706251750 METAR ESMX 251750Z 36002KT 9999 FEW046 BKN052 BKN100 18/15 Q1002=
200706251720 METAR ESMX 251720Z VRB02KT 9999 FEW030 BKN055 18/14 Q1002=
200706251650 METAR ESMX 251650Z 22003KT 9999 FEW030CB SCT040 BKN070 19/13 Q1002=
200706251620 METAR ESMX 251620Z 27003KT 9999 FEW030CB SCT040 BKN075 19/13 Q1003=
200706251550 METAR ESMX 251550Z 24005KT 200V300 9999 FEW035CB SCT045 BKN085 19/14 Q1003 REDZ=
200706251520 METAR ESMX 251520Z 21009KT 190V250 9999 -SHRA FEW030CB SCT040 BKN060 19/14 Q1003=
200706251450 METAR ESMX 251450Z 20004KT 160V230 9999 FEW038 BKN048 BKN068 19/13 Q1003=
200706251420 METAR ESMX 251420Z 19004KT 9999 SCT035 BKN060 BKN090 20/13 Q1004=
200706251350 METAR ESMX 251350Z 21006KT 9999 FEW030CB SCT040 BKN080 20/13 Q1004=
200706251320 METAR ESMX 251320Z 19007KT 9999 FEW020CB SCT040 BKN060 21/12 Q1004=
200706251250 METAR ESMX 251250Z 21006KT 160V250 9999 SCT020TCU BKN070 20/14 Q1005=
200706251150 METAR ESMX 251150Z 24004KT 210V280 9999 FEW020CB SCT040 BKN070 18/14 Q1006 RERA=
200706251120 METAR ESMX 251120Z 27007KT 9999 -SHRA FEW020CB SCT050 BKN060 17/15 Q1006=
200706251050 METAR ESMX 251050Z 28005KT 9999 FEW025CB SCT035 BKN070 19/12 Q1006=
200706251020 METAR ESMX 251020Z 22005KT 140V290 9999 SCT025TCU BKN080 20/12 Q1006=
200706250950 METAR ESMX 250950Z 22005KT 150V280 9999 SCT026 BKN080 21/12 Q1006=
200706250920 METAR ESMX 250920Z 21006KT 180V240 9999 SCT028 BKN037 18/12 Q1007=
200706250850 METAR ESMX 250850Z 21005KT 120V260 9999 BKN027 BKN046 19/12 Q1007=
200706250820 METAR ESMX 250820Z 20004KT 160V240 9999 FEW025 SCT050 19/12 Q1007=
200706250720 METAR ESMX 250720Z VRB02KT 9999 FEW027 SCT110 19/12 Q1008=
200706250650 METAR ESMX 250650Z 27004KT 9999 FEW018 BKN080 18/13 Q1008=
200706250620 METAR ESMX 250620Z 29003KT 210V340 CAVOK 17/12 Q1008=
200706250550 METAR ESMX 250550Z 26004KT 210V310 CAVOK 17/12 Q1008=
200706250520 METAR ESMX 250520Z 26003KT 190V290 CAVOK 16/12 Q1008=
200706250450 METAR ESMX 250450Z VRB02KT CAVOK 15/13 Q1008=
200706250420 METAR ESMX 250420Z 24002KT CAVOK 14/12 Q1009=
200706250350 METAR ESMX 250350Z AUTO 24003KT 9999NDV BKN096/// 13/12 Q1009=
200706250320 METAR ESMX 250320Z AUTO 19002KT 9999NDV SCT096/// 11/10 Q1009=
200706250250 METAR ESMX 250250Z AUTO 19001KT 9999NDV NCD 10/09 Q1009=
200706250220 METAR ESMX 250220Z AUTO 17002KT 9999NDV NCD 10/09 Q1009=
200706250150 METAR ESMX 250150Z AUTO 17002KT 9999NDV FEW096/// 10/09 Q1009=
200706250120 METAR ESMX 250120Z AUTO 00000KT 9999NDV FEW099/// 10/09 Q1009=
200706250050 METAR ESMX 250050Z AUTO 17002KT 9999NDV NCD 10/09 Q1009=
200706250020 METAR ESMX 250020Z 26002KT CAVOK 10/08 Q1010=
200706242350 METAR ESMX 242350Z 21003KT CAVOK 11/09 Q1010=
200706242320 METAR ESMX 242320Z 24002KT CAVOK 11/09 Q1010=
200706242250 METAR ESMX 242250Z 22003KT CAVOK 12/09 Q1010=
200706242220 METAR ESMX 242220Z 22005KT CAVOK 13/09 Q1010=
200706242150 METAR ESMX 242150Z 22004KT CAVOK 12/09 Q1010=
200706242120 METAR ESMX 242120Z 19003KT CAVOK 12/10 Q1010=
200706242050 METAR ESMX 242050Z 21003KT CAVOK 14/10 Q1010=
200706242020 METAR ESMX 242020Z 25004KT CAVOK 15/10 Q1010=
200706241950 METAR ESMX 241950Z 27003KT CAVOK 17/10 Q1010=
200706241920 METAR ESMX 241920Z 27004KT CAVOK 18/10 Q1010=
200706241850 METAR ESMX 241850Z 27005KT CAVOK 19/10 Q1010=
200706241820 METAR ESMX 241820Z 27007KT CAVOK 20/10 Q1009=
200706241750 METAR ESMX 241750Z 29008KT CAVOK 20/10 Q1009=
200706241720 METAR ESMX 241720Z AUTO 28008KT 250V320 9999NDV NCD 21/08 Q1009=
200706241650 METAR ESMX 241650Z AUTO 29008KT 250V320 9999NDV NCD 21/09 Q1009=
200706241620 METAR ESMX 241620Z 29008KT CAVOK 22/09 Q1010=
200706241550 METAR ESMX 241550Z 27009KT 220V320 CAVOK 21/09 Q1009=
200706241520 METAR ESMX 241520Z 28011KT 250V320 CAVOK 22/10 Q1009=
200706241450 METAR ESMX 241450Z 29009KT 250V320 CAVOK 22/10 Q1009=
200706241420 METAR ESMX 241420Z 27009KT 230V330 CAVOK 22/10 Q1009=
200706241350 METAR ESMX 241350Z 28009KT 250V310 CAVOK 21/09 Q1009=
200706241320 METAR ESMX 241320Z 25009KT 210V290 CAVOK 22/09 Q1009=
200706241250 METAR ESMX 241250Z 27008KT 210V320 9999 SCT047 21/10 Q1009=
200706241150 METAR ESMX 241150Z 20008KT 9999 SCT043 SCT090 22/12 Q1009=
200706241120 METAR ESMX 241120Z 27006KT 9999 FEW034 SCT050 20/12 Q1009=
200706241050 METAR ESMX 241050Z 26008KT 240V300 9999 BKN040 21/11 Q1009=
200706241020 METAR ESMX 241020Z AUTO 23008KT 180V280 9999NDV FEW035/// SCT040/// BKN053/// 20/11 Q1009=
200706240950 METAR ESMX 240950Z AUTO 23006KT 170V280 9999NDV FEW034/// SCT039/// BKN054/// 19/11 Q1009=
200706240920 METAR ESMX 240920Z AUTO 24006KT 190V280 9999NDV FEW030/// SCT035/// BKN072/// 19/12 Q1009=
200706240850 METAR ESMX 240850Z AUTO 22008KT 9999NDV FEW029/// BKN075/// 18/12 Q1009=
200706240820 METAR ESMX 240820Z AUTO 28005KT 250V320 9999NDV FEW025/// SCT067/// 18/12 Q1009=
200706240750 METAR ESMX 240750Z AUTO 24005KT 9999NDV FEW021/// SCT025/// BKN029/// 17/12 Q1009=
200706240720 METAR ESMX 240720Z AUTO 31005KT 9999NDV FEW014/// SCT021/// BKN033/// 17/12 Q1009=
200706240650 METAR ESMX 240650Z AUTO 00000KT 9999NDV SCT009/// BKN016/// 17/13 Q1009=
200706240620 METAR ESMX 240620Z AUTO VRB01KT 9999NDV FEW005/// SCT006/// BKN009/// 16/13 Q1009=
200706240550 METAR ESMX 240550Z AUTO VRB02KT 9999NDV BKN002/// 14/14 Q1009=
200706240520 METAR ESMX 240520Z AUTO VRB02KT 1000NDV R01/0800VP2000 R19/1200VP2000D FG OVC001/// 13/13 Q1008=
200706240450 METAR ESMX 240450Z AUTO 24004KT 0400NDV R01/0550 R19/0800V1300 FG VV001 13/12 Q1008=
200706240420 METAR ESMX 240420Z AUTO 24005KT 3300NDV BR FEW001/// 13/12 Q1008=
200706240350 METAR ESMX 240350Z AUTO 22003KT 6000NDV BR NCD 12/11 Q1007=
200706240320 METAR ESMX 240320Z AUTO 17003KT 3500NDV BR SCT023/// 10/10 Q1007=
200706240250 METAR ESMX 240250Z AUTO 00000KT 4400NDV BR SCT093/// 09/09 Q1007=
200706240220 METAR ESMX 240220Z AUTO 00000KT 8000NDV BR FEW018/// BKN094/// 09/09 Q1007=
200706240150 METAR ESMX 240150Z AUTO 00000KT 4800NDV BR FEW014/// BKN093/// 09/09 Q1007=
200706240120 METAR ESMX 240120Z AUTO 18001KT 3100NDV BR NCD 09/08 Q1007=
200706240050 METAR ESMX 240050Z AUTO 17002KT 4600NDV NCD 10/10 Q1006=
200706240020 METAR ESMX 240020Z AUTO 17001KT 1600NDV BR NCD 10/09 Q1006=
200706232350 METAR ESMX 232350Z AUTO 25002KT 9999NDV NCD 11/10 Q1006=
200706232320 METAR ESMX 232320Z AUTO 25003KT 9999NDV NCD 12/11 Q1006=
200706232250 METAR ESMX 232250Z AUTO 26003KT 9999NDV NCD 12/11 Q1006=
200706232220 METAR ESMX 232220Z AUTO 25003KT 9999NDV NCD 12/11 Q1006=
200706232150 METAR ESMX 232150Z AUTO 24004KT 9999NDV NCD 13/11 Q1005=
200706232120 METAR ESMX 232120Z AUTO 23003KT 9999NDV NCD 14/11 Q1005=
200706232050 METAR ESMX 232050Z AUTO 23003KT 9999NDV NCD 14/11 Q1005=
200706232020 METAR ESMX 232020Z AUTO 24004KT 9999NDV NCD 14/11 Q1005=
200706231950 METAR ESMX 231950Z AUTO 25002KT 9999NDV NCD 15/11 Q1004=
200706231920 METAR ESMX 231920Z AUTO 26003KT 220V290 9999NDV NCD 17/10 Q1004=
200706231850 METAR ESMX 231850Z AUTO 26003KT 210V290 9999NDV NCD 18/10 Q1004=
200706231820 METAR ESMX 231820Z AUTO 27005KT 9999NDV NCD 19/10 Q1004=
200706231750 METAR ESMX 231750Z AUTO 27007KT 240V310 9999NDV FEW044/// SCT085/// 20/10 Q1003=
200706231720 METAR ESMX 231720Z AUTO 29009KT 9999NDV FEW067/// BKN077/// 21/12 Q1003=
200706231650 METAR ESMX 231650Z AUTO 28006KT 9999NDV FEW048/// SCT078/// 19/12 Q1003=
200706231620 METAR ESMX 231620Z AUTO 28005KT 9999NDV SCT047/// BKN064/// 19/12 Q1003=
200706231550 METAR ESMX 231550Z AUTO 22008KT 200V260 9999NDV BKN047/// 20/09 Q1003=
200706231520 METAR ESMX 231520Z AUTO 19005KT 140V240 9999NDV FEW048/// SCT056/// 20/13 Q1003=
200706231450 METAR ESMX 231450Z AUTO 21006KT 9999NDV NCD 20/09 Q1003=
200706231420 METAR ESMX 231420Z AUTO 24010KT 9999NDV FEW046/// 20/10 Q1003=
200706231350 METAR ESMX 231350Z AUTO 24008KT 200V260 9999NDV FEW045/// 20/10 Q1002=
200706231320 METAR ESMX 231320Z AUTO 25009KT 9999NDV FEW043/// SCT049/// 20/11 Q1002=
200706231250 METAR ESMX 231250Z AUTO 20010KT 9999NDV SCT040/// 20/10 Q1002=
200706231220 METAR ESMX 231220Z AUTO 25009KT 210V280 9999NDV FEW040/// 21/11 Q1002=
200706231150 METAR ESMX 231150Z AUTO 23010KT 180V270 9999NDV FEW039/// 20/12 Q1002=
200706231120 METAR ESMX 231120Z AUTO 23010KT 200V260 9999NDV SCT030/// BKN044/// BKN069/// 21/12 Q1002=
200706231050 METAR ESMX 231050Z AUTO 23009KT 200V270 9999NDV FEW029/// SCT049/// 20/12 Q1002=
200706231020 METAR ESMX 231020Z AUTO 25010KT 200V280 9999NDV FEW032/// BKN053/// 19/13 Q1002=
200706230950 METAR ESMX 230950Z AUTO 22008KT 200V270 9999NDV FEW028/// SCT050/// 19/13 Q1002=
200706230920 METAR ESMX 230920Z AUTO 26009KT 230V290 9999NDV FEW027/// SCT033/// 19/13 Q1002=
200706230850 METAR ESMX 230850Z AUTO 22011KT 9999NDV FEW024/// SCT038/// 18/12 Q1002=
200706230820 METAR ESMX 230820Z AUTO 23010KT 190V270 9999NDV FEW021/// SCT025/// 18/12 Q1002=
200706230750 METAR ESMX 230750Z AUTO 25010KT 220V290 9999NDV FEW019/// SCT030/// 17/12 Q1002=
200706230720 METAR ESMX 230720Z AUTO 22009KT 9999NDV FEW019/// 16/12 Q1002=
200706230650 METAR ESMX 230650Z AUTO 25007KT 210V280 9999NDV FEW009/// SCT015/// 16/13 Q1002=
200706230620 METAR ESMX 230620Z AUTO 27007KT 9999NDV FEW007/// SCT009/// BKN013/// 15/13 Q1002=
200706230550 METAR ESMX 230550Z AUTO 25007KT 210V300 9999NDV FEW006/// BKN008/// OVC012/// 14/13 Q1002=
200706230520 METAR ESMX 230520Z AUTO 27006KT 9999NDV BKN005/// BKN008/// 14/13 Q1002=
200706230450 METAR ESMX 230450Z AUTO 26007KT 9999NDV FEW005/// BKN006/// BKN009/// 14/13 Q1002=
200706230420 METAR ESMX 230420Z AUTO 26004KT 9999NDV FEW006/// SCT008/// BKN011/// 13/12 Q1002=
200706230350 METAR ESMX 230350Z AUTO 26006KT 9999NDV FEW006/// BKN010/// BKN014/// 13/12 Q1002=
200706230320 METAR ESMX 230320Z AUTO 28007KT 240V300 9999NDV FEW005/// BKN007/// OVC009/// 13/12 Q1002=
200706230250 METAR ESMX 230250Z AUTO 27006KT 230V290 9999NDV BR FEW004/// SCT007/// BKN009/// 13/12 Q1002=
200706230220 METAR ESMX 230220Z AUTO 25007KT 210V280 7000NDV BR OVC001/// 13/13 Q1002=
200706230150 METAR ESMX 230150Z AUTO 27005KT 6000NDV BR OVC001/// 13/12 Q1002=
200706230120 METAR ESMX 230120Z AUTO 27003KT 220V300 5000NDV BR OVC001/// 13/12 Q1002=
200706230050 METAR ESMX 230050Z AUTO 24003KT 9999NDV FEW003/// OVC005/// 12/12 Q1002=
200706230020 METAR ESMX 230020Z AUTO 27004KT 9999NDV FEW007/// SCT009/// BKN051/// 13/12 Q1002=
200706222350 METAR ESMX 222350Z AUTO 27005KT 250V320 9999NDV FEW023/// OVC030/// 13/12 Q1003=
200706222320 METAR ESMX 222320Z AUTO 27006KT 9999NDV SCT017/// OVC022/// 13/12 Q1003=
200706222250 METAR ESMX 222250Z AUTO 29008KT 9999NDV FEW004/// OVC014/// 13/12 Q1003=
200706222220 METAR ESMX 222220Z AUTO 28007KT 9999NDV SCT002/// BKN004/// OVC013/// 13/13 Q1003=
200706222150 METAR ESMX 222150Z AUTO 27006KT 9999NDV FEW002/// OVC014/// 14/13 Q1003=
200706222120 METAR ESMX 222120Z AUTO 28004KT 9999NDV FEW011/// OVC014/// 14/13 Q1003 REDZ=
200706222050 METAR ESMX 222050Z AUTO 30004KT 260V330 9999NDV -DZ FEW007/// SCT013/// BKN016/// 14/13 Q1003=
200706222020 METAR ESMX 222020Z AUTO 29003KT 250V320 9999NDV -RA FEW007/// SCT008/// BKN011/// 14/14 Q1003 REDZ=
200706221950 METAR ESMX 221950Z AUTO 30003KT 9999NDV DZ FEW007/// SCT012/// BKN015/// 14/14 Q1003 RERA=
200706221920 METAR ESMX 221920Z AUTO 35004KT 9000NDV RA FEW007/// SCT025/// 14/14 Q1003=
200706221850 METAR ESMX 221850Z AUTO 32002KT 9000NDV -RA FEW007/// SCT016/// 15/14 Q1004=
200706221820 METAR ESMX 221820Z AUTO VRB01KT 9999NDV -RA FEW007/// SCT010/// BKN017/// 15/14 Q1004=
200706221750 METAR ESMX 221750Z AUTO VRB02KT 6000NDV -RA FEW012/// SCT020/// BKN024/// 15/14 Q1004=
200706221720 METAR ESMX 221720Z AUTO VRB02KT 8000NDV -RA FEW005/// SCT008/// BKN010/// 15/14 Q1004=
200706221650 METAR ESMX 221650Z AUTO 02003KT 9999NDV RA FEW008/// BKN063/// 15/14 Q1004=
200706221620 METAR ESMX 221620Z AUTO 04003KT 350V120 9999NDV -RA SCT061/// 15/14 Q1004=
200706221550 METAR ESMX 221550Z AUTO 07003KT 020V110 9999NDV -RA FEW025/// 15/14 Q1004=
200706221520 METAR ESMX 221520Z AUTO 07004KT 040V110 9999NDV DZ FEW005/// SCT009/// BKN011/// 15/14 Q1004 RERA=
200706221450 METAR ESMX 221450Z AUTO VRB02KT 7000NDV -RA FEW009/// SCT014/// BKN018/// 15/14 Q1004=
200706221420 METAR ESMX 221420Z AUTO VRB02KT 9000NDV -RA FEW010/// SCT017/// BKN020/// 16/14 Q1004=
200706221350 METAR ESMX 221350Z AUTO 07003KT 040V120 9999NDV -RA FEW010/// SCT019/// BKN023/// 15/14 Q1004=
200706221320 METAR ESMX 221320Z AUTO 10004KT 030V150 8000NDV RA FEW029/// SCT048/// BKN064/// 16/14 Q1005=
200706221250 METAR ESMX 221250Z AUTO 08003KT 340V150 9000NDV -RA FEW008/// SCT010/// BKN016/// 16/15 Q1005=
200706221220 METAR ESMX 221220Z AUTO 17003KT 120V220 3600NDV -RA FEW008/// SCT017/// 16/14 Q1005=
200706221150 METAR ESMX 221150Z AUTO 15004KT 120V190 9999NDV -RA FEW014/// 16/14 Q1005 REDZ=
200706221120 METAR ESMX 221120Z AUTO 17007KT 140V200 9999NDV DZ FEW070/// 16/15 Q1005 RERA=
200706221050 METAR ESMX 221050Z AUTO 08004KT 050V120 9000NDV -RA FEW006/// SCT015/// BKN020/// 16/15 Q1005=
200706221020 METAR ESMX 221020Z AUTO 14003KT 060V180 3400NDV RA FEW017/// SCT025/// 17/15 Q1004=
200706220950 METAR ESMX 220950Z AUTO 11004KT 070V140 9999NDV -RA FEW014/// SCT027/// BKN058/// 17/15 Q1005 REDZ=
200706220920 METAR ESMX 220920Z AUTO 06003KT 360V120 9999NDV BKN059/// 17/16 Q1005=
200706220850 METAR ESMX 220850Z AUTO 05004KT 9999NDV FEW008/// SCT061/// 17/16 Q1005 REDZ=
200706220820 METAR ESMX 220820Z AUTO 09004KT 9999NDV -DZ FEW007/// SCT010/// BKN059/// 17/15 Q1005=
200706220750 METAR ESMX 220750Z AUTO 08004KT 030V130 9999NDV -DZ FEW010/// SCT069/// 16/15 Q1005 RERA=
200706220720 METAR ESMX 220720Z AUTO 06004KT 020V100 9999NDV -DZ FEW010/// SCT044/// 16/15 Q1004 RERA=
200706220650 METAR ESMX 220650Z AUTO 07005KT 030V110 9999NDV -DZ BKN008/// 16/15 Q1004 RERA=
200706220620 METAR ESMX 220620Z AUTO 08005KT 050V110 9999NDV OVC007/// 16/15 Q1005 REDZ REUP=
200706220550 METAR ESMX 220550Z AUTO 06005KT 030V120 9999NDV -DZ FEW007/// OVC008/// 16/15 Q1005 RERA=
200706220520 METAR ESMX 220520Z AUTO 09005KT 030V140 9999NDV -RA SCT008/// BKN010/// BKN082/// 16/14 Q1005=
200706220450 METAR ESMX 220450Z AUTO 03007KT 9999NDV FEW008/// 16/14 Q1005=
200706220420 METAR ESMX 220420Z AUTO 04005KT 010V070 9999NDV FEW072/// 15/14 Q1005 REDZ=
200706220350 METAR ESMX 220350Z AUTO 05005KT 010V080 9999NDV -DZ FEW061/// 15/14 Q1005 RERA=
200706220320 METAR ESMX 220320Z AUTO 04004KT 010V080 9999NDV -RA FEW047/// BKN061/// 15/14 Q1006 REDZ=
200706220250 METAR ESMX 220250Z AUTO 07003KT 030V120 9999NDV DZ FEW048/// BKN056/// 15/14 Q1006 REUP RERA=
200706220220 METAR ESMX 220220Z AUTO VRB02KT 9999NDV -RA BKN055/// 16/14 Q1006 REDZ=
200706220150 METAR ESMX 220150Z AUTO 07004KT 020V110 9999NDV DZ BKN051/// 16/14 Q1006 RERA=
200706220120 METAR ESMX 220120Z AUTO 06005KT 9999NDV BKN050/// 16/14 Q1006 RERA=
200706220050 METAR ESMX 220050Z AUTO 06004KT 9999NDV -RA OVC047/// 16/15 Q1007 REDZ=
200706220020 METAR ESMX 220020Z AUTO 08003KT 9999NDV BKN048/// 16/15 Q1007 RERA REDZ=
200706212350 METAR ESMX 212350Z AUTO 10003KT 050V140 9999NDV RA OVC047/// 17/14 Q1008=
200706212320 METAR ESMX 212320Z AUTO 11005KT 060V160 9999NDV OVC048/// 18/14 Q1008=
200706212250 METAR ESMX 212250Z AUTO 12004KT 080V150 9999NDV OVC045/// 18/14 Q1008=
200706212220 METAR ESMX 212220Z AUTO 07003KT 040V120 9999NDV OVC045/// 18/15 Q1008=
200706212150 METAR ESMX 212150Z AUTO 07003KT 030V100 9999NDV BKN048/// 17/16 Q1008=
200706212120 METAR ESMX 212120Z AUTO 04003KT 360V070 9999NDV SCT053/// BKN071/// 18/17 Q1008 RERA REDZ=
200706212050 METAR ESMX 212050Z AUTO 07002KT 4700NDV BR BKN056/// 18/17 Q1009=
200706212020 METAR ESMX 212020Z AUTO 00000KT 4700NDV BKN056/// 17/17 Q1009=
200706211950 METAR ESMX 211950Z 00000KT CAVOK 17/16 Q1009=
200706211920 METAR ESMX 211920Z 00000KT CAVOK 18/17 Q1009=
200706211850 METAR ESMX 211850Z 00000KT CAVOK 19/17 Q1009=
200706211820 METAR ESMX 211820Z 18002KT CAVOK 19/17 Q1009=
200706211750 METAR ESMX 211750Z 24002KT CAVOK 19/17 Q1009=
200706211720 METAR ESMX 211720Z 26003KT CAVOK 20/17 Q1009=
200706211650 METAR ESMX 211650Z VRB02KT CAVOK 19/17 Q1009=
200706211620 METAR ESMX 211620Z VRB02KT 8000 -RA SCT090 BKN150 20/18 Q1009=
200706211550 METAR ESMX 211550Z VRB02KT 9999 -RA SCT090 BKN150 21/17 Q1009=
200706211520 METAR ESMX 211520Z 00000KT 9999 -DZ SCT080 BKN200 22/16 Q1009=
200706211450 METAR ESMX 211450Z VRB02KT 9999 VCSH FEW052 SCT095 BKN110 23/16 Q1009=
200706211420 METAR ESMX 211420Z 22005KT 9999 -RA FEW048 BKN090 22/16 Q1010=
200706211350 METAR ESMX 211350Z 19006KT 9999 -RA BKN049 BKN075 24/15 Q1010=
200706211320 METAR ESMX 211320Z 16006KT 9999 SCT048 BKN065 24/14 Q1010=
200706211250 METAR ESMX 211250Z 16006KT CAVOK 23/14 Q1010=
200706211220 METAR ESMX 211220Z 17005KT 120V200 9999 FEW047 SCT061 24/15 Q1010=
200706211150 METAR ESMX 211150Z 18008KT 140V210 9999 FEW035 BKN050 23/15 Q1011=
200706211120 METAR ESMX 211120Z 17006KT 130V200 9999 FEW035 BKN065 24/15 Q1011=
200706211050 METAR ESMX 211050Z 17006KT 120V200 9999 FEW030 BKN050 24/15 Q1011=
200706211020 METAR ESMX 211020Z 15005KT 110V170 9999 FEW030 BKN080 22/15 Q1011=
200706210950 METAR ESMX 210950Z 15006KT 9999 FEW050 SCT074 23/15 Q1011=
200706210920 METAR ESMX 210920Z VRB02KT CAVOK 20/15 Q1012=
200706210850 METAR ESMX 210850Z 16003KT 140V200 9999 FEW020 BKN050 20/15 Q1012=
200706210820 METAR ESMX 210820Z 15004KT 9999 BKN045 19/15 Q1012=
200706210750 METAR ESMX 210750Z 15005KT 9999 BKN045 19/14 Q1012=
200706210720 METAR ESMX 210720Z 16004KT 9999 SCT046 18/14 Q1012=
200706210650 METAR ESMX 210650Z 16004KT 110V200 CAVOK 18/14 Q1012=
200706210620 METAR ESMX 210620Z 15004KT 100V180 CAVOK 18/13 Q1012=
200706210550 METAR ESMX 210550Z VRB02KT 9999 FEW040 BKN050 17/13 Q1013=
200706210520 METAR ESMX 210520Z VRB02KT 9999 FEW040 BKN050 17/13 Q1012=
200706210450 METAR ESMX 210450Z VRB02KT 9999 FEW030 BKN050 16/13 Q1012=
200706210420 METAR ESMX 210420Z 12004KT CAVOK 16/13 Q1012=
200706210350 METAR ESMX 210350Z 13003KT 090V170 9999 FEW043 BKN065 BKN089 15/12 Q1013=
200706210320 METAR ESMX 210320Z AUTO 14003KT 100V170 9999NDV FEW034/// BKN045/// 15/13 Q1013 REDZ=
200706210250 METAR ESMX 210250Z AUTO 13003KT 110V170 9999NDV DZ FEW024/// BKN054/// 15/13 Q1014 RERA=
200706210220 METAR ESMX 210220Z AUTO 14003KT 090V170 9999NDV OVC057/// 15/12 Q1014=
200706210150 METAR ESMX 210150Z AUTO 15005KT 110V170 9999NDV BKN071/// 15/12 Q1014=
200706210120 METAR ESMX 210120Z AUTO 15004KT 120V180 9999NDV OVC075/// 15/12 Q1014=
200706210050 METAR ESMX 210050Z 16003KT CAVOK 15/12 Q1014 RERA REDZ=
200706210020 METAR ESMX 210020Z 17003KT CAVOK 15/11 Q1015=
200706202350 METAR ESMX 202350Z 14003KT 100V180 CAVOK 15/10 Q1015=
200706202320 METAR ESMX 202320Z 16003KT 130V190 CAVOK 15/10 Q1015=
200706202250 METAR ESMX 202250Z 15004KT CAVOK 16/09 Q1015=
200706202220 METAR ESMX 202220Z 16005KT CAVOK 16/09 Q1015=
200706202150 METAR ESMX 202150Z 16005KT CAVOK 16/09 Q1015=
200706202120 METAR ESMX 202120Z 16004KT CAVOK 16/10 Q1015=
200706202050 METAR ESMX 202050Z 17005KT CAVOK 17/10 Q1015=
200706202020 METAR ESMX 202020Z 16005KT CAVOK 17/10 Q1015=
200706201950 METAR ESMX 201950Z 16005KT CAVOK 18/10 Q1015=
200706201920 METAR ESMX 201920Z 16006KT CAVOK 19/10 Q1015=
200706201850 METAR ESMX 201850Z 16006KT 140V200 CAVOK 20/09 Q1015=
200706201820 METAR ESMX 201820Z 16006KT CAVOK 20/09 Q1015=
200706201750 METAR ESMX 201750Z 17007KT CAVOK 21/10 Q1015=
200706201720 METAR ESMX 201720Z 18007KT CAVOK 21/10 Q1015=
200706201650 METAR ESMX 201650Z 16009KT 110V190 CAVOK 22/10 Q1015=
200706201620 METAR ESMX 201620Z 17009KT 130V190 CAVOK 22/10 Q1015=
200706201550 METAR ESMX 201550Z 17009KT 130V200 CAVOK 23/10 Q1015=
200706201520 METAR ESMX 201520Z 17009KT 140V210 CAVOK 24/10 Q1015=
200706201450 METAR ESMX 201450Z 16010KT 120V200 CAVOK 24/08 Q1015=
200706201420 METAR ESMX 201420Z 18010KT 150V220 CAVOK 24/07 Q1015=
200706201350 METAR ESMX 201350Z 17007KT 100V250 CAVOK 24/06 Q1015=
200706201320 METAR ESMX 201320Z 18009KT 140V210 CAVOK 24/08 Q1015=
200706201250 METAR ESMX 201250Z 15007KT 100V200 CAVOK 24/07 Q1015=
200706201220 METAR ESMX 201220Z 17007KT CAVOK 24/07 Q1015=
200706201150 METAR ESMX 201150Z 18009KT 140V210 CAVOK 24/08 Q1015=
200706201120 METAR ESMX 201120Z 16006KT CAVOK 25/10 Q1016=
200706201050 METAR ESMX 201050Z 18008KT 120V230 CAVOK 24/11 Q1016=
200706201020 METAR ESMX 201020Z 19006KT 150V230 9999 SCT045 23/11 Q1016=
200706200950 METAR ESMX 200950Z 16005KT 080V230 9999 SCT045 23/11 Q1017=
200706200920 METAR ESMX 200920Z 15005KT 9999 FEW047 23/11 Q1017=
200706200850 METAR ESMX 200850Z 12004KT CAVOK 22/11 Q1016=
200706200820 METAR ESMX 200820Z 15004KT CAVOK 22/10 Q1017=
200706200750 METAR ESMX 200750Z 16004KT CAVOK 21/10 Q1017=
200706200720 METAR ESMX 200720Z 17004KT CAVOK 20/11 Q1017=
200706200650 METAR ESMX 200650Z 10003KT CAVOK 20/11 Q1017=
200706200620 METAR ESMX 200620Z 13003KT CAVOK 19/12 Q1017=
200706200550 METAR ESMX 200550Z VRB01KT CAVOK 19/12 Q1017=
200706200520 METAR ESMX 200520Z 00000KT 9999 NSC 17/12 Q1017=
200706200450 METAR ESMX 200450Z 00000KT CAVOK 16/12 Q1017=
200706200420 METAR ESMX 200420Z 00000KT CAVOK 13/12 Q1017=
200706200350 METAR ESMX 200350Z 18001KT CAVOK 11/10 Q1016=
200706200320 METAR ESMX 200320Z AUTO 16001KT 9999NDV NCD 10/09 Q1016=
200706200250 METAR ESMX 200250Z AUTO 00000KT 9999NDV BKN089/// 09/09 Q1016=
200706200120 METAR ESMX 200120Z AUTO 17002KT 9999NDV BKN100/// 10/09 Q1016=
200706200050 METAR ESMX 200050Z AUTO 00000KT 9999NDV BKN100/// 10/09 Q1016=
200706200020 METAR ESMX 200020Z AUTO 00000KT 9999NDV BKN100/// 11/10 Q1016=
200706192340 METAR ESMX 192340Z VRB01KT CAVOK 12/10 Q1016=
200706192250 METAR ESMX 192250Z 25005KT CAVOK 13/11 Q1015=
200706192220 METAR ESMX 192220Z 24004KT CAVOK 13/10 Q1015=
200706192150 METAR ESMX 192150Z 30003KT CAVOK 15/11 Q1015=
200706192120 METAR ESMX 192120Z 28003KT CAVOK 17/11 Q1015=
200706192050 METAR ESMX 192050Z 29003KT CAVOK 18/11 Q1015=
200706192020 METAR ESMX 192020Z 28004KT CAVOK 16/10 Q1015=
200706191950 METAR ESMX 191950Z 24003KT CAVOK 16/10 Q1015=
200706191850 METAR ESMX 191850Z 23003KT CAVOK 20/09 Q1014=
200706191820 METAR ESMX 191820Z 24003KT CAVOK 22/08 Q1014=
200706191750 METAR ESMX 191750Z 24003KT 200V280 CAVOK 22/08 Q1014=
200706191720 METAR ESMX 191720Z 30004KT 270V340 CAVOK 22/07 Q1014=
200706191650 METAR ESMX 191650Z VRB03KT CAVOK 23/08 Q1014=
200706191620 METAR ESMX 191620Z 31004KT 230V360 CAVOK 23/07 Q1013=
200706191550 METAR ESMX 191550Z 29004KT 250V330 CAVOK 23/08 Q1013=
200706191520 METAR ESMX 191520Z 25005KT 190V350 CAVOK 22/08 Q1013=
200706191450 METAR ESMX 191450Z 27005KT 210V320 CAVOK 22/08 Q1013=
200706191420 METAR ESMX 191420Z 24003KT 180V300 CAVOK 22/09 Q1014=
200706191350 METAR ESMX 191350Z 01004KT CAVOK 21/09 Q1013=
200706191320 METAR ESMX 191320Z 28005KT 210V360 CAVOK 21/10 Q1013=
200706191250 METAR ESMX 191250Z 30006KT CAVOK 22/08 Q1013=
200706191220 METAR ESMX 191220Z 30005KT 260V340 9999 SCT040 21/10 Q1013=
200706191150 METAR ESMX 191150Z 27004KT 200V340 9999 SCT030 20/09 Q1013=
200706191120 METAR ESMX 191120Z 06003KT 020V100 9999 SCT030 20/10 Q1013=
200706191050 METAR ESMX 191050Z 35003KT 300V060 9999 SCT030 20/11 Q1013=
200706191020 METAR ESMX 191020Z 32004KT 260V360 9999 SCT035 18/10 Q1013=
200706190950 METAR ESMX 190950Z 36005KT 330V030 9999 FEW037 BKN057 18/10 Q1013=
200706190920 METAR ESMX 190920Z 35003KT 270V070 9999 SCT035 19/10 Q1013=
200706190850 METAR ESMX 190850Z 02004KT 330V050 9999 SCT030 18/10 Q1012=
200706190820 METAR ESMX 190820Z 02004KT 330V070 9999 FEW030 SCT070 17/10 Q1012=
200706190750 METAR ESMX 190750Z 01005KT 9999 FEW030 SCT070 17/10 Q1012=
200706190720 METAR ESMX 190720Z 34004KT 300V030 9999 FEW020 BKN070 16/11 Q1012=
200706190650 METAR ESMX 190650Z 33003KT 290V350 9999 FEW020 BKN070 15/11 Q1012=
200706190620 METAR ESMX 190620Z 01004KT 330V060 9999 FEW020 BKN065 15/11 Q1012=
200706190550 METAR ESMX 190550Z 36004KT 9999 FEW030 OVC066 15/11 Q1011=
200706190520 METAR ESMX 190520Z 35004KT 9999 FEW020 OVC065 14/12 Q1011=
200706190450 METAR ESMX 190450Z 32003KT 290V030 9999 FEW020 BKN065 14/11 Q1011=
200706190350 METAR ESMX 190350Z 28003KT 9999 FEW020 BKN063 11/11 Q1011=
200706190320 METAR ESMX 190320Z AUTO 26002KT 9999NDV FEW032/// OVC064/// 10/10 Q1011=
200706190250 METAR ESMX 190250Z AUTO 19002KT 9999NDV OVC063/// 10/09 Q1010=
200706190220 METAR ESMX 190220Z AUTO VRB01KT 9999NDV OVC063/// 09/09 Q1010=
200706190150 METAR ESMX 190150Z AUTO 28004KT 9999NDV BKN063/// 09/08 Q1010=
200706190120 METAR ESMX 190120Z AUTO 00000KT 9999NDV SCT062/// 09/08 Q1010=
200706190050 METAR ESMX 190050Z AUTO 20002KT 9999NDV SCT057/// 09/08 Q1010=
200706190020 METAR ESMX 190020Z AUTO 00000KT 6000NDV FEW056/// 09/08 Q1010=
200706182350 METAR ESMX 182350Z 00000KT 9999 SCT045 10/09 Q1009=
200706182320 METAR ESMX 182320Z 00000KT 9999 BKN040 12/11 Q1009=
200706182250 METAR ESMX 182250Z 00000KT 9999 BKN040 12/11 Q1009=
200706182220 METAR ESMX 182220Z 00000KT 9999 SCT037 BKN045 11/10 Q1009=
200706182150 METAR ESMX 182150Z 00000KT 9999 FEW035 SCT056 11/10 Q1009=
200706182120 METAR ESMX 182120Z 00000KT CAVOK 10/09 Q1009=
200706182050 METAR ESMX 182050Z 31003KT CAVOK 12/10 Q1009=
200706182020 METAR ESMX 182020Z 32005KT CAVOK 13/10 Q1008=
200706181950 METAR ESMX 181950Z 32006KT CAVOK 14/11 Q1008=
200706181920 METAR ESMX 181920Z 32004KT CAVOK 15/11 Q1008=
200706181850 METAR ESMX 181850Z 32004KT CAVOK 16/10 Q1008=
200706181820 METAR ESMX 181820Z 33005KT CAVOK 16/10 Q1007=
200706181750 METAR ESMX 181750Z 31005KT CAVOK 18/09 Q1007=
200706181720 METAR ESMX 181720Z 30007KT 270V340 9999 SCT046 18/09 Q1007=
200706181620 METAR ESMX 181620Z 32009KT 9999 SCT040 18/10 Q1007=
200706181550 METAR ESMX 181550Z 31007KT 270V340 9999 SCT040 19/10 Q1007=
200706181520 METAR ESMX 181520Z 34009KT 9999 SCT040 18/10 Q1006=
200706181450 METAR ESMX 181450Z 31008KT 270V340 9999 FEW045 SCT060 20/10 Q1006=
200706181420 METAR ESMX 181420Z 30008KT 9999 FEW040 SCT060 19/11 Q1006=
200706181350 METAR ESMX 181350Z 33008KT 290V360 9999 FEW040 BKN060 19/11 Q1006=
200706181320 METAR ESMX 181320Z 29008KT 220V330 9999 FEW040 SCT050 20/10 Q1006=
200706181250 METAR ESMX 181250Z 26010KT 9999 FEW040TCU BKN050 21/10 Q1006=
200706181220 METAR ESMX 181220Z 28007KT 240V330 9999 SCT030TCU 21/10 Q1006=
200706181150 METAR ESMX 181150Z 29009KT 250V340 9999 FEW037 SCT056 19/10 Q1006=
200706181120 METAR ESMX 181120Z 27007KT 9999 FEW040 BKN049 20/11 Q1006=
200706181050 METAR ESMX 181050Z 26008KT 240V300 9999 FEW042 BKN049 20/10 Q1006=
200706181020 METAR ESMX 181020Z 29008KT 240V330 9999 FEW020CB BKN045 20/11 Q1006=
200706180950 METAR ESMX 180950Z 26009KT 9999 FEW030CB BKN050 17/11 Q1005=
200706180920 METAR ESMX 180920Z 28005KT 250V320 9999 SCT027 17/11 Q1005=
200706180850 METAR ESMX 180850Z 25004KT 210V300 9999 FEW021 SCT027 BKN031 18/11 Q1005=
200706180820 METAR ESMX 180820Z 24008KT 9999 FEW022 BKN038 17/12 Q1005=
200706180750 METAR ESMX 180750Z 24005KT 200V280 9999 FEW017 SCT024 17/12 Q1005=
200706180720 METAR ESMX 180720Z 22006KT 9999 FEW016 SCT021 16/12 Q1005=
200706180650 METAR ESMX 180650Z 25005KT 9999 FEW012 SCT017 16/12 Q1005=
200706180620 METAR ESMX 180620Z 28005KT 230V320 9999 SCT012 BKN019 16/13 Q1005=
200706180550 METAR ESMX 180550Z 22004KT 9999 FEW006 BKN012 15/12 Q1005=
200706180520 METAR ESMX 180520Z 24003KT 200V270 9999 SCT006 BKN025 14/13 Q1005=
200706180450 METAR ESMX 180450Z 24003KT 210V290 9999 BKN005 13/12 Q1005=
200706180420 METAR ESMX 180420Z 24003KT 9999 SCT005 BKN007 13/12 Q1004=
200706180350 METAR ESMX 180350Z 23003KT 9999 BKN006 12/12 Q1004=
200706180320 METAR ESMX 180320Z 21004KT 7000 BR SCT007 12/11 Q1004=
200706180250 METAR ESMX 180250Z AUTO 21003KT 0900NDV R01/P2000U R19/P2000 BR FEW045/// 10/10 Q1004=
200706180220 METAR ESMX 180220Z AUTO 19003KT 3500NDV BR SCT082/// 11/11 Q1004=
200706180150 METAR ESMX 180150Z AUTO 21003KT 9999NDV FEW041/// SCT083/// 12/11 Q1004=
200706180120 METAR ESMX 180120Z AUTO 23003KT 9999NDV FEW006/// SCT033/// BKN088/// 12/11 Q1004=
200706180050 METAR ESMX 180050Z AUTO 23002KT 9999NDV FEW007/// SCT024/// OVC030/// 13/12 Q1004=
200706180020 METAR ESMX 180020Z 22004KT 9999 SCT007 OVC089 13/12 Q1004=
200706172350 METAR ESMX 172350Z 23003KT 9999 SCT008 OVC089 13/12 Q1004=
200706172320 METAR ESMX 172320Z 22004KT CAVOK 13/12 Q1004=
200706172250 METAR ESMX 172250Z 23004KT 9999 BKN044 BKN085 13/12 Q1004=
200706172220 METAR ESMX 172220Z 21004KT 9999 SCT040 BKN082 14/12 Q1004=
200706172150 METAR ESMX 172150Z 22005KT CAVOK 14/12 Q1004=
200706172120 METAR ESMX 172120Z 21004KT CAVOK 14/12 Q1004=
200706172050 METAR ESMX 172050Z 21004KT CAVOK 14/12 Q1004=
200706172020 METAR ESMX 172020Z 22005KT CAVOK 14/12 Q1004=
200706171950 METAR ESMX 171950Z 21004KT CAVOK 14/12 Q1004=
200706171920 METAR ESMX 171920Z 20005KT CAVOK 15/12 Q1004=
200706171850 METAR ESMX 171850Z 21005KT CAVOK 16/11 Q1004=
200706171820 METAR ESMX 171820Z 21007KT CAVOK 16/11 Q1004=
200706171750 METAR ESMX 171750Z 24006KT CAVOK 17/12 Q1003=
200706171720 METAR ESMX 171720Z 23006KT 180V260 CAVOK 17/12 Q1004=
200706171650 METAR ESMX 171650Z 20007KT 9999 SCT040 BKN080 17/13 Q1004=
200706171620 METAR ESMX 171620Z 19008KT 9999 FEW020CB SCT045 BKN090 16/14 Q1004 RERA=
200706171550 METAR ESMX 171550Z 18010KT 9999 -SHRA FEW020CB SCT040 BKN080 15/13 Q1004=
200706171520 METAR ESMX 171520Z 19012KT 9999 SCT020CB BKN050 18/12 Q1004=
200706171450 METAR ESMX 171450Z 26010KT 9999 FEW020CB SCT080 20/11 Q1003=
200706171420 METAR ESMX 171420Z 23009KT 200V270 9999 FEW020CB SCT080 21/11 Q1004=
200706171350 METAR ESMX 171350Z 22008KT 180V250 9999 FEW020CB SCT080 20/11 Q1004=
200706171320 METAR ESMX 171320Z 23010KT 190V270 9999 FEW020CB SCT080 19/12 Q1004=
200706171250 METAR ESMX 171250Z 23009KT 190V250 9999 FEW020CB SCT080 20/12 Q1004=
200706171220 METAR ESMX 171220Z 20008KT 9999 FEW020CB BKN080 17/13 Q1004 RERA=
200706171150 METAR ESMX 171150Z 23006KT 190V270 9999 -SHRA SCT020CB BKN070 17/13 Q1004 REDZ=
200706171120 METAR ESMX 171120Z 24009KT 210V290 9999 FEW020CB BKN060 19/13 Q1004=
200706171050 METAR ESMX 171050Z 23007KT 9999 FEW020CB SCT060 BKN080 17/13 Q1004=
200706171020 METAR ESMX 171020Z AUTO 22008KT 200V260 9999NDV FEW015/// SCT030/// BKN065/// 17/14 Q1004=
200706170950 METAR ESMX 170950Z AUTO 22005KT 9999NDV FEW012/// SCT037/// BKN050/// 16/14 Q1004 RERA REDZ=
200706170920 METAR ESMX 170920Z AUTO 22009KT 190V260 9999NDV FEW019/// SCT033/// BKN046/// 17/13 Q1004=
200706170850 METAR ESMX 170850Z AUTO 25008KT 200V290 9999NDV FEW018/// SCT039/// BKN049/// 17/13 Q1004=
200706170820 METAR ESMX 170820Z AUTO 25010KT 190V280 9999NDV FEW020/// BKN029/// 16/13 Q1004=
200706170750 METAR ESMX 170750Z AUTO 26008KT 230V290 9999NDV FEW014/// SCT028/// 16/13 Q1003=
200706170720 METAR ESMX 170720Z AUTO 25009KT 210V290 9999NDV FEW011/// SCT019/// BKN025/// 15/12 Q1003=
200706170650 METAR ESMX 170650Z AUTO 27007KT 240V320 9999NDV FEW007/// SCT014/// BKN022/// 14/13 Q1003=
200706170620 METAR ESMX 170620Z AUTO 27006KT 9999NDV FEW005/// SCT007/// BKN008/// 14/13 Q1003=
200706170550 METAR ESMX 170550Z AUTO 25008KT 9999NDV OVC003/// 13/12 Q1003=
200706170520 METAR ESMX 170520Z AUTO 23007KT 200V280 7000NDV HZ OVC001/// 12/11 Q1003=
200706170450 METAR ESMX 170450Z AUTO 21006KT 3100NDV HZ OVC001/// 11/11 Q1003=
200706170420 METAR ESMX 170420Z AUTO 22005KT 5000NDV HZ OVC001/// 11/10 Q1002=
200706170350 METAR ESMX 170350Z AUTO 23004KT 9999NDV OVC002/// 10/10 Q1002=
200706170320 METAR ESMX 170320Z AUTO 24003KT 200V260 9999NDV FEW002/// SCT003/// BKN005/// 10/10 Q1002=
200706170250 METAR ESMX 170250Z AUTO 22002KT 9999NDV BKN002/// OVC008/// 10/10 Q1002=
200706170220 METAR ESMX 170220Z AUTO 24002KT 9999NDV OVC001/// 10/09 Q1002=
200706170150 METAR ESMX 170150Z AUTO 26003KT 7000NDV BR OVC001/// 10/09 Q1002=
200706170120 METAR ESMX 170120Z AUTO 25003KT 4500NDV BR SCT003/// BKN018/// OVC021/// 10/09 Q1002=
200706170050 METAR ESMX 170050Z AUTO 27003KT 9999NDV FEW003/// SCT005/// BKN066/// 09/09 Q1002=
200706170020 METAR ESMX 170020Z AUTO 30003KT 280V350 9999NDV BKN002/// BKN024/// 10/10 Q1002=
200706162350 METAR ESMX 162350Z AUTO 33004KT 5000NDV BKN003/// BKN026/// 10/10 Q1002 REDZ=
200706162320 METAR ESMX 162320Z AUTO 31004KT 8000NDV DZ FEW002/// SCT004/// 10/10 Q1002 RERA=
200706162250 METAR ESMX 162250Z AUTO 30005KT 3400NDV DZ FEW002/// BKN008/// 10/10 Q1002=
200706162220 METAR ESMX 162220Z AUTO 30005KT 2700NDV +DZ FEW002/// OVC006/// 10/10 Q1002 RERA=
200706162150 METAR ESMX 162150Z AUTO 31005KT 2900NDV -RA FEW002/// BKN004/// OVC007/// 10/10 Q1002 REDZ=
200706162120 METAR ESMX 162120Z AUTO 29005KT 1800NDV -RA SCT005/// BKN011/// OVC015/// 11/10 Q1002=
200706162050 METAR ESMX 162050Z AUTO 36004KT 8000NDV RA FEW005/// SCT007/// BKN008/// 11/10 Q1002=
200706162020 METAR ESMX 162020Z AUTO 32004KT 7000NDV -RA BKN006/// OVC009/// 11/10 Q1002 REDZ=
200706161950 METAR ESMX 161950Z AUTO 01006KT 340V040 8000NDV -RA FEW005/// OVC006/// 11/10 Q1002=
200706161920 METAR ESMX 161920Z AUTO 02007KT 7000NDV -RA FEW005/// SCT008/// BKN010/// 11/10 Q1001=
200706161850 METAR ESMX 161850Z AUTO 03006KT 340V090 6000NDV RA FEW009/// SCT012/// BKN022/// 11/10 Q1002 REDZ=
200706161820 METAR ESMX 161820Z AUTO 05006KT 360V080 7000NDV -RA FEW009/// SCT013/// BKN025/// 11/10 Q1002 REDZ=
200706161750 METAR ESMX 161750Z AUTO 05005KT 010V130 6000NDV -RA BKN026/// 11/10 Q1002 REDZ=
200706161720 METAR ESMX 161720Z AUTO 04008KT 360V070 7000NDV RA FEW026/// BKN030/// 11/10 Q1002=
200706161650 METAR ESMX 161650Z AUTO 03005KT 010V070 9999NDV -RA OVC030/// 12/10 Q1002 REDZ=
200706161620 METAR ESMX 161620Z AUTO 04008KT 350V080 9999NDV -RA OVC026/// 12/10 Q1002 REDZ=
200706161550 METAR ESMX 161550Z AUTO 05007KT 010V100 9999NDV -DZ BKN026/// BKN033/// 12/10 Q1003 RERA=
200706161520 METAR ESMX 161520Z AUTO 05009KT 360V080 9000NDV -RA BKN026/// 12/10 Q1003=
200706161450 METAR ESMX 161450Z AUTO 07009KT 030V100 9999NDV RA OVC025/// 14/09 Q1003=
200706161420 METAR ESMX 161420Z AUTO 07011KT 010V120 9999NDV OVC026/// 15/09 Q1003=
200706161350 METAR ESMX 161350Z AUTO 07011KT 020V130 9999NDV OVC026/// 15/09 Q1004=
200706161320 METAR ESMX 161320Z AUTO 05011KT 010V090 9999NDV OVC028/// 15/08 Q1004=
200706161250 METAR ESMX 161250Z AUTO 07010KT 030V120 9999NDV SCT026/// OVC039/// 15/09 Q1004=
200706161220 METAR ESMX 161220Z AUTO 08008KT 040V120 9999NDV OVC027/// 15/09 Q1005=
200706161150 METAR ESMX 161150Z AUTO 05010KT 010V090 9999NDV OVC028/// 16/10 Q1005=
200706161120 METAR ESMX 161120Z AUTO 07010KT 040V110 9999NDV OVC026/// 15/09 Q1005=
200706161050 METAR ESMX 161050Z AUTO 06012KT 030V110 9999NDV OVC025/// 16/10 Q1005=
200706161020 METAR ESMX 161020Z AUTO 09011KT //// OVC025/// 15/10 Q1006=
200706160950 METAR ESMX 160950Z AUTO 05010KT 020V100 9999NDV OVC023/// 15/10 Q1005=
200706160920 METAR ESMX 160920Z AUTO 07009KT 030V120 9999NDV BKN024/// OVC033/// 15/10 Q1006=
200706160850 METAR ESMX 160850Z AUTO 07011KT 030V110 9999NDV FEW027/// BKN039/// OVC047/// 15/10 Q1006=
200706160820 METAR ESMX 160820Z AUTO 07010KT 030V110 9999NDV FEW023/// BKN038/// OVC047/// 15/09 Q1006=
200706160750 METAR ESMX 160750Z AUTO 09009G19KT 030V140 9999NDV SCT022/// OVC031/// 14/09 Q1006=
200706160720 METAR ESMX 160720Z AUTO 07009KT 040V110 9999NDV BKN021/// OVC033/// 14/09 Q1006=
200706160650 METAR ESMX 160650Z AUTO 08008KT 030V140 9999NDV FEW018/// BKN021/// OVC031/// 14/10 Q1006=
200706160620 METAR ESMX 160620Z AUTO 07007KT 020V120 9999NDV BKN015/// OVC021/// 13/10 Q1006=
200706160550 METAR ESMX 160550Z AUTO 06008KT 020V100 9999NDV OVC011/// 13/10 Q1006=
200706160520 METAR ESMX 160520Z AUTO 08009KT 040V130 9999NDV OVC011/// 13/10 Q1007=
200706160450 METAR ESMX 160450Z AUTO 06007KT 010V110 9999NDV OVC012/// 12/09 Q1007=
200706160420 METAR ESMX 160420Z AUTO 07007KT 030V110 9999NDV BKN016/// OVC033/// 12/09 Q1007=
200706160350 METAR ESMX 160350Z AUTO 05006KT 350V100 9999NDV OVC034/// 12/09 Q1007=
200706160320 METAR ESMX 160320Z AUTO 08008KT 040V120 9999NDV OVC035/// 12/08 Q1007=
200706160250 METAR ESMX 160250Z AUTO 05006KT 9999NDV OVC036/// 12/08 Q1007=
200706160220 METAR ESMX 160220Z AUTO 05006KT 010V100 9999NDV FEW018/// OVC038/// 12/08 Q1007=
200706160150 METAR ESMX 160150Z AUTO 07006KT 020V120 9999NDV FEW020/// OVC039/// 12/08 Q1008=
200706160120 METAR ESMX 160120Z AUTO 08007KT 030V130 9999NDV FEW019/// OVC041/// 12/08 Q1008=
200706160050 METAR ESMX 160050Z AUTO 09007KT 040V140 9999NDV FEW019/// OVC041/// 12/08 Q1009=
200706160020 METAR ESMX 160020Z AUTO 08008KT 030V120 9999NDV BKN017/// OVC043/// 12/08 Q1009=
200706152350 METAR ESMX 152350Z AUTO 07006KT 030V120 9999NDV FEW020/// OVC046/// 12/08 Q1009=
200706152320 METAR ESMX 152320Z AUTO 08007KT 9999NDV OVC046/// 12/07 Q1009=
200706152250 METAR ESMX 152250Z AUTO 09007KT 050V140 9999NDV OVC041/// 12/07 Q1009=
200706152220 METAR ESMX 152220Z AUTO 09005KT 050V140 9999NDV BKN047/// OVC066/// 12/07 Q1009=
200706152150 METAR ESMX 152150Z AUTO 05008KT 010V130 9999NDV BKN052/// OVC068/// 12/07 Q1009=
200706152120 METAR ESMX 152120Z AUTO 07007KT 030V110 9999NDV OVC052/// 13/06 Q1009=
200706152050 METAR ESMX 152050Z AUTO 08005KT 040V130 9999NDV OVC051/// 13/06 Q1010=
200706152020 METAR ESMX 152020Z AUTO 09006KT 040V150 9999NDV FEW062/// BKN084/// 13/06 Q1010=
200706151950 METAR ESMX 151950Z AUTO 08006KT 050V140 9999NDV SCT086/// BKN100/// 13/06 Q1010=
200706151920 METAR ESMX 151920Z AUTO 09006KT 050V140 9999NDV BKN086/// 13/07 Q1009=
200706151850 METAR ESMX 151850Z AUTO 12005KT 070V180 9999NDV BKN087/// 14/07 Q1010=
200706151820 METAR ESMX 151820Z AUTO 08007KT 050V140 9999NDV BKN089/// 14/05 Q1009=
200706151750 METAR ESMX 151750Z 08006KT CAVOK 15/04 Q1009=
200706151720 METAR ESMX 151720Z 09006KT CAVOK 16/06 Q1009=
200706151650 METAR ESMX 151650Z 12006KT CAVOK 16/05 Q1009=
200706151620 METAR ESMX 151620Z 09006KT 050V140 CAVOK 16/04 Q1009=
200706151550 METAR ESMX 151550Z 12006KT 070V170 CAVOK 17/04 Q1009=
200706151520 METAR ESMX 151520Z 11006KT CAVOK 16/04 Q1010=
200706151450 METAR ESMX 151450Z 13006KT 090V190 CAVOK 17/04 Q1010=
200706151420 METAR ESMX 151420Z 13007KT 080V170 CAVOK 17/03 Q1009=
200706151350 METAR ESMX 151350Z 12005KT CAVOK 17/04 Q1010=
200706151320 METAR ESMX 151320Z 16006KT 120V200 9999 FEW039 BKN200 17/04 Q1010=
200706151250 METAR ESMX 151250Z 15007KT 110V190 CAVOK 18/04 Q1010=
200706151220 METAR ESMX 151220Z 01006KT 330V070 CAVOK 20/04 Q1010=
200706151150 METAR ESMX 151150Z 03007KT CAVOK 18/04 Q1010=
200706151120 METAR ESMX 151120Z 36006KT CAVOK 17/04 Q1010=
200706151050 METAR ESMX 151050Z 03006KT 330V080 9999 FEW048 BKN200 17/04 Q1010=
200706151020 METAR ESMX 151020Z 04007KT 360V110 CAVOK 16/03 Q1011=
200706150950 METAR ESMX 150950Z 04006KT CAVOK 17/05 Q1011=
200706150920 METAR ESMX 150920Z 04006KT CAVOK 15/04 Q1011=
200706150850 METAR ESMX 150850Z 04007KT CAVOK 15/04 Q1011=
200706150820 METAR ESMX 150820Z 02005KT 340V070 CAVOK 15/05 Q1011=
200706150750 METAR ESMX 150750Z 05006KT 020V090 CAVOK 14/03 Q1011=
200706150650 METAR ESMX 150650Z 07004KT 040V120 CAVOK 13/04 Q1011=
200706150550 METAR ESMX 150550Z 36007KT 320V030 CAVOK 12/05 Q1011=
200706150520 METAR ESMX 150520Z 02008KT CAVOK 11/04 Q1011=
200706150450 METAR ESMX 150450Z 02007KT CAVOK 10/05 Q1011=
200706150420 METAR ESMX 150420Z 01003KT CAVOK 08/06 Q1011=
200706150350 METAR ESMX 150350Z 00000KT CAVOK 03/02 Q1010=
200706150320 METAR ESMX 150320Z 00000KT CAVOK 03/02 Q1010=
200706150020 METAR ESMX 150020Z VRB02KT CAVOK 04/01 Q1010=
200706142350 METAR ESMX 142350Z 25002KT CAVOK 04/01 Q1010=
200706142320 METAR ESMX 142320Z 25004KT CAVOK 05/01 Q1009=
200706142250 METAR ESMX 142250Z 26003KT CAVOK 07/02 Q1009=
200706142220 METAR ESMX 142220Z 28004KT CAVOK 08/01 Q1009=
200706142150 METAR ESMX 142150Z 26004KT CAVOK 07/01 Q1009=
200706142120 METAR ESMX 142120Z 27004KT CAVOK 08/00 Q1008=
200706141920 METAR ESMX 141920Z 27007KT CAVOK 12/M00 Q1007=
200706141850 METAR ESMX 141850Z 28009KT 250V320 CAVOK 13/M01 Q1007=
200706141820 METAR ESMX 141820Z 28011KT CAVOK 14/M00 Q1006=
200706141620 METAR ESMX 141620Z 27012KT 240V300 CAVOK 16/M00 Q1005=
200706141550 METAR ESMX 141550Z 27012KT 220V300 CAVOK 16/M00 Q1005=
200706141520 METAR ESMX 141520Z 26014KT CAVOK 16/M02 Q1005=
200706141450 METAR ESMX 141450Z 28016KT CAVOK 16/M01 Q1005=
200706141350 METAR ESMX 141350Z 24013KT 190V260 CAVOK 17/02 Q1005=
200706141320 METAR ESMX 141320Z 26012KT 220V300 CAVOK 17/03 Q1005=
200706141250 METAR ESMX 141250Z 26015KT CAVOK 17/03 Q1004=
200706141220 METAR ESMX 141220Z 24014KT 190V290 CAVOK 17/02 Q1004=
200706141150 METAR ESMX 141150Z 22012KT 200V260 9999 FEW057 16/03 Q1004=
200706141120 METAR ESMX 141120Z 24014KT 210V280 9999 FEW027 SCT085 16/03 Q1004=
200706141050 METAR ESMX 141050Z 26012KT 230V300 9999 FEW035 SCT065 16/03 Q1004=
200706141020 METAR ESMX 141020Z 25012KT 210V290 9999 FEW038 SCT060 16/06 Q1005=
200706140950 METAR ESMX 140950Z 25012G22KT 200V270 9999 SCT034 16/06 Q1005=
200706140920 METAR ESMX 140920Z 26011KT 220V290 9999 FEW030 SCT034 15/07 Q1004=
200706140850 METAR ESMX 140850Z 22012KT 9999 SCT028 BKN200 15/07 Q1004=
200706140820 METAR ESMX 140820Z 24011KT 190V290 9999 FEW024 SCT030 BKN200 13/07 Q1004=
200706140750 METAR ESMX 140750Z 23010KT 9999 FEW016 SCT024 BKN028 13/09 Q1004=
200706140650 METAR ESMX 140650Z 23007KT 9999 BKN010 12/10 Q1004=
200706140620 METAR ESMX 140620Z 26007KT 9999 FEW009 SCT014 OVC018 12/10 Q1004=
200706140550 METAR ESMX 140550Z 25006KT 9999 FEW011 OVC014 11/10 Q1004=
200706140520 METAR ESMX 140520Z 29009KT 260V330 9999 SCT005 BKN009 OVC012 11/10 Q1003=
200706140450 METAR ESMX 140450Z 24005KT 9999 SCT005 BKN008 12/11 Q1003=
200706140420 METAR ESMX 140420Z 26005KT 230V290 8000 BR FEW003 SCT015 BKN018 12/11 Q1003=
200706140350 METAR ESMX 140350Z 24005KT 3100 BR FEW003 SCT006 BKN007 12/11 Q1003=
200706140320 METAR ESMX 140320Z AUTO 26007KT 230V290 4200NDV BR BKN002/// OVC005/// 12/11 Q1003=
200706140250 METAR ESMX 140250Z AUTO 24005KT 200V280 7000NDV BR BKN003/// BKN006/// 12/11 Q1003=
200706140220 METAR ESMX 140220Z AUTO 26005KT 230V290 9999NDV BKN004/// OVC007/// 12/11 Q1003=
200706140150 METAR ESMX 140150Z AUTO 29005KT 9999NDV FEW005/// SCT009/// OVC014/// 13/11 Q1003 REDZ=
200706140120 METAR ESMX 140120Z AUTO 28006KT 9999NDV BKN014/// OVC019/// 13/12 Q1002=
200706140050 METAR ESMX 140050Z AUTO 28004KT 240V320 9999NDV OVC012/// 15/12 Q1003=
200706140020 METAR ESMX 140020Z 22008KT 9999 FEW015 BKN017 OVC026 15/12 Q1003=
200706132350 METAR ESMX 132350Z 20006KT 9999 FEW015 SCT025 BKN029 14/11 Q1003=
200706132320 METAR ESMX 132320Z VRB02KT 9999 FEW019 OVC024 14/11 Q1003=
200706132250 METAR ESMX 132250Z 17004KT 9999 FEW020 SCT023 BKN032 15/10 Q1003=
200706132220 METAR ESMX 132220Z VRB02KT 9999 BKN023 OVC033 14/10 Q1003=
200706132150 METAR ESMX 132150Z 17001KT 9999 FEW028 BKN033 OVC042 14/10 Q1003=
200706132120 METAR ESMX 132120Z 27003KT 240V300 9999 FEW020 OVC029 14/10 Q1003=
200706132050 METAR ESMX 132050Z 25002KT 9999 FEW024 OVC031 14/09 Q1003=
200706132020 METAR ESMX 132020Z 21003KT 9999 FEW033 SCT041 BKN056 14/09 Q1003=
200706131950 METAR ESMX 131950Z VRB01KT CAVOK 14/09 Q1003=
200706131920 METAR ESMX 131920Z 28003KT CAVOK 15/09 Q1003=
200706131850 METAR ESMX 131850Z 26004KT CAVOK 16/09 Q1003=
200706131820 METAR ESMX 131820Z 27007KT CAVOK 17/08 Q1003=
200706131750 METAR ESMX 131750Z 27006KT 230V300 CAVOK 18/08 Q1003=
200706131720 METAR ESMX 131720Z 28008KT 240V310 CAVOK 18/08 Q1003=
200706131650 METAR ESMX 131650Z 28009KT CAVOK 18/08 Q1003=
200706131620 METAR ESMX 131620Z 27010KT CAVOK 19/08 Q1003=
200706131550 METAR ESMX 131550Z 24010KT 200V280 CAVOK 20/07 Q1003=
200706131520 METAR ESMX 131520Z 23010KT 180V260 CAVOK 20/07 Q1003=
200706131450 METAR ESMX 131450Z 26013KT CAVOK 20/07 Q1003=
200706131420 METAR ESMX 131420Z 24013KT 210V280 9999 FEW046 21/08 Q1003=
200706131350 METAR ESMX 131350Z 25010KT 9999 FEW047 21/09 Q1002=
200706131320 METAR ESMX 131320Z 24012KT 210V280 9999 FEW047 21/08 Q1002=
200706131250 METAR ESMX 131250Z 23010KT 170V290 CAVOK 21/09 Q1002=
200706131220 METAR ESMX 131220Z 22013KT 9999 FEW045 21/08 Q1002=
200706131150 METAR ESMX 131150Z 24011KT 200V290 9999 FEW045 21/09 Q1002=
200706131120 METAR ESMX 131120Z 23011KT 190V280 9999 FEW045 20/08 Q1002=
200706131050 METAR ESMX 131050Z 25013KT 200V280 9999 FEW044 20/08 Q1002=
200706131020 METAR ESMX 131020Z 25011KT 210V290 9999 FEW041 20/08 Q1002=
200706130950 METAR ESMX 130950Z 22011KT 170V250 9999 FEW040 19/09 Q1002=
200706130920 METAR ESMX 130920Z 24012KT 200V270 9999 FEW025 18/09 Q1002=
200706130850 METAR ESMX 130850Z 25012KT 220V280 9999 FEW025 18/08 Q1002=
200706130720 METAR ESMX 130720Z 24012KT 210V280 9999 FEW025 SCT030 17/10 Q1001=
200706130650 METAR ESMX 130650Z 25009KT 220V280 9999 SCT025 BKN040 16/11 Q1001=
200706130550 METAR ESMX 130550Z 22010KT 200V270 9999 SCT025 16/11 Q1001=
200706130520 METAR ESMX 130520Z 24009KT 190V280 CAVOK 15/11 Q1001=
200706130450 METAR ESMX 130450Z 24010KT CAVOK 15/11 Q1001=
200706130420 METAR ESMX 130420Z 22006KT 170V260 CAVOK 14/11 Q1001=
200706130350 METAR ESMX 130350Z 21006KT CAVOK 13/11 Q1001=
200706130320 METAR ESMX 130320Z AUTO 21004KT 9999NDV FEW088/// 12/10 Q1001=
200706130250 METAR ESMX 130250Z AUTO 22005KT 9999NDV BKN100/// 13/10 Q1000=
200706130220 METAR ESMX 130220Z AUTO 23005KT 190V260 9999NDV SCT100/// 13/11 Q1001=
200706130150 METAR ESMX 130150Z AUTO 23006KT 9999NDV FEW085/// 13/10 Q1001=
200706130120 METAR ESMX 130120Z AUTO 25006KT 9999NDV NCD 14/10 Q1001=
200706130050 METAR ESMX 130050Z AUTO 24006KT 9999NDV NCD 14/10 Q1001=
200706130020 METAR ESMX 130020Z AUTO 23006KT 9999NDV NCD 14/10 Q1001=
200706122350 METAR ESMX 122350Z 25006KT 230V290 CAVOK 15/10 Q1001=
200706122320 METAR ESMX 122320Z 25006KT CAVOK 15/10 Q1001=
200706122220 METAR ESMX 122220Z 25006KT CAVOK 16/10 Q1001=
200706122150 METAR ESMX 122150Z 24007KT CAVOK 16/10 Q1001=
200706122120 METAR ESMX 122120Z 23006KT 200V270 CAVOK 16/10 Q1001=
200706122050 METAR ESMX 122050Z 23006KT CAVOK 17/09 Q1001=
200706122020 METAR ESMX 122020Z 23007KT CAVOK 18/09 Q1001=
200706121950 METAR ESMX 121950Z 23007KT CAVOK 19/09 Q1001=
200706121920 METAR ESMX 121920Z 24009KT 210V280 CAVOK 20/09 Q1001=
200706121850 METAR ESMX 121850Z 26009KT CAVOK 21/09 Q1001=
200706121820 METAR ESMX 121820Z 23009KT 200V280 CAVOK 21/09 Q1001=
200706121750 METAR ESMX 121750Z 25011KT 230V290 CAVOK 21/09 Q1001=
200706121720 METAR ESMX 121720Z 26012KT 230V290 CAVOK 23/08 Q1000=
200706121650 METAR ESMX 121650Z 27011KT 240V300 CAVOK 23/07 Q1000=
200706121620 METAR ESMX 121620Z 26013KT 240V310 CAVOK 24/07 Q1000=
200706121550 METAR ESMX 121550Z 27013KT 240V300 CAVOK 25/08 Q1000=
200706121520 METAR ESMX 121520Z 27013KT CAVOK 25/09 Q1000=
200706121450 METAR ESMX 121450Z 28015KT CAVOK 26/09 Q1001=
200706121420 METAR ESMX 121420Z 26013KT 230V290 CAVOK 26/09 Q1000=
200706121350 METAR ESMX 121350Z 26012G22KT 210V300 CAVOK 27/08 Q1000=
200706121320 METAR ESMX 121320Z 25013KT 200V290 CAVOK 27/07 Q1001=
200706121250 METAR ESMX 121250Z 24011KT 190V300 CAVOK 27/07 Q1001=
200706121220 METAR ESMX 121220Z 26014KT 230V290 CAVOK 27/05 Q1001=
200706121150 METAR ESMX 121150Z 25014KT 210V290 CAVOK 27/06 Q1001=
200706121120 METAR ESMX 121120Z 24012KT 210V280 CAVOK 27/10 Q1001=
200706121050 METAR ESMX 121050Z 26013KT 220V290 CAVOK 26/09 Q1001=
200706121020 METAR ESMX 121020Z 24014KT CAVOK 26/08 Q1001=
200706120950 METAR ESMX 120950Z 23014KT CAVOK 26/10 Q1001=
200706120920 METAR ESMX 120920Z 22014KT 190V250 CAVOK 26/11 Q1002=
200706120850 METAR ESMX 120850Z 24013KT 210V280 CAVOK 25/12 Q1002=
200706120820 METAR ESMX 120820Z 23013KT 180V280 CAVOK 25/12 Q1002=
200706120750 METAR ESMX 120750Z 23011KT CAVOK 24/12 Q1002=
200706120720 METAR ESMX 120720Z 25010KT CAVOK 24/12 Q1003=
200706120650 METAR ESMX 120650Z 25009KT CAVOK 22/12 Q1003=
200706120620 METAR ESMX 120620Z 24007KT CAVOK 22/12 Q1003=
200706120550 METAR ESMX 120550Z 22007KT CAVOK 21/12 Q1004=
200706120520 METAR ESMX 120520Z 21007KT CAVOK 20/12 Q1004=
200706120450 METAR ESMX 120450Z 21007KT CAVOK 19/11 Q1004=
200706120420 METAR ESMX 120420Z 22006KT CAVOK 18/10 Q1004=
200706120350 METAR ESMX 120350Z 22005KT CAVOK 17/10 Q1005=
200706120320 METAR ESMX 120320Z AUTO 20005KT 9999NDV NCD 15/10 Q1005=
200706120250 METAR ESMX 120250Z AUTO 21004KT 9999NDV NCD 15/10 Q1005=
200706120220 METAR ESMX 120220Z AUTO 19006KT 9999NDV NCD 15/10 Q1006=
200706120150 METAR ESMX 120150Z AUTO 20006KT 9999NDV NCD 15/10 Q1006=
200706120120 METAR ESMX 120120Z AUTO 21006KT 9999NDV NCD 15/10 Q1006=
200706120050 METAR ESMX 120050Z AUTO 21006KT 9999NDV NCD 15/10 Q1007=
200706120020 METAR ESMX 120020Z AUTO 21005KT 9999NDV FEW086/// 15/10 Q1007=
200706112350 METAR ESMX 112350Z 19005KT CAVOK 16/11 Q1007=
200706112320 METAR ESMX 112320Z 21005KT CAVOK 16/11 Q1008=
200706112250 METAR ESMX 112250Z 22005KT CAVOK 16/10 Q1008=
200706112220 METAR ESMX 112220Z 21006KT CAVOK 16/11 Q1008=
200706112150 METAR ESMX 112150Z 21006KT CAVOK 17/11 Q1009=
200706112120 METAR ESMX 112120Z 21005KT CAVOK 16/11 Q1009=
200706112050 METAR ESMX 112050Z 19005KT CAVOK 16/12 Q1009=
200706112020 METAR ESMX 112020Z 16004KT CAVOK 19/12 Q1009=
200706111950 METAR ESMX 111950Z 22003KT 9999 NSC 21/09 Q1009=
200706111920 METAR ESMX 111920Z 25004KT CAVOK 23/08 Q1009=
200706111850 METAR ESMX 111850Z 28007KT CAVOK 25/08 Q1009=
200706111820 METAR ESMX 111820Z 28008KT CAVOK 26/08 Q1009=
200706111750 METAR ESMX 111750Z 28005KT 210V330 CAVOK 27/08 Q1010=
200706111720 METAR ESMX 111720Z 16007KT 120V220 CAVOK 25/14 Q1010=
200706111650 METAR ESMX 111650Z 15008KT 100V180 CAVOK 25/14 Q1010=
200706111620 METAR ESMX 111620Z 16011KT CAVOK 25/13 Q1010=
200706111550 METAR ESMX 111550Z 16008KT CAVOK 25/14 Q1010=
200706111520 METAR ESMX 111520Z 18007KT 150V210 CAVOK 25/13 Q1011=
200706111450 METAR ESMX 111450Z 14007KT 100V180 CAVOK 26/12 Q1011=
200706111420 METAR ESMX 111420Z 05004KT 010V070 CAVOK 27/12 Q1011=
200706111350 METAR ESMX 111350Z 12006KT 070V160 CAVOK 28/13 Q1012=
200706111320 METAR ESMX 111320Z 13004KT 100V190 CAVOK 26/12 Q1012=
200706111250 METAR ESMX 111250Z 15006KT CAVOK 27/11 Q1012=
200706111220 METAR ESMX 111220Z 16006KT CAVOK 28/11 Q1012=
200706111150 METAR ESMX 111150Z 06006KT CAVOK 28/12 Q1013=
200706111120 METAR ESMX 111120Z 15005KT CAVOK 27/13 Q1013=
200706111050 METAR ESMX 111050Z 07005KT CAVOK 26/13 Q1014=
200706111020 METAR ESMX 111020Z 12003KT 080V180 CAVOK 25/13 Q1014=
200706110950 METAR ESMX 110950Z 07003KT 010V100 CAVOK 25/12 Q1014=
200706110920 METAR ESMX 110920Z 05004KT CAVOK 24/12 Q1014=
200706110850 METAR ESMX 110850Z 05004KT CAVOK 25/12 Q1014=
200706110820 METAR ESMX 110820Z 05004KT CAVOK 24/13 Q1014=
200706110750 METAR ESMX 110750Z VRB02KT CAVOK 24/13 Q1014=
200706110720 METAR ESMX 110720Z 00000KT CAVOK 22/14 Q1014=
200706110650 METAR ESMX 110650Z VRB02KT 9999 FEW060 21/12 Q1014=
200706110620 METAR ESMX 110620Z VRB01KT CAVOK 20/13 Q1014=
200706110550 METAR ESMX 110550Z 04004KT CAVOK 19/13 Q1015=
200706110520 METAR ESMX 110520Z 02003KT CAVOK 18/14 Q1015=
200706110450 METAR ESMX 110450Z VRB02KT CAVOK 16/13 Q1015=
200706110420 METAR ESMX 110420Z VRB01KT CAVOK 14/12 Q1015=
200706110350 METAR ESMX 110350Z 36003KT CAVOK 14/11 Q1015=
200706110320 METAR ESMX 110320Z AUTO VRB01KT 9999NDV NCD 15/11 Q1015=
200706110250 METAR ESMX 110250Z AUTO 28003KT 9999NDV NCD 15/11 Q1014=
200706110220 METAR ESMX 110220Z AUTO 00000KT 9999NDV NCD 14/11 Q1015=
200706110150 METAR ESMX 110150Z AUTO 35003KT 9999NDV NCD 13/10 Q1015=
200706110120 METAR ESMX 110120Z AUTO 00000KT 9999NDV NCD 13/10 Q1015=
200706110050 METAR ESMX 110050Z 00000KT CAVOK 14/11 Q1015=
200706110020 METAR ESMX 110020Z 00000KT CAVOK 13/11 Q1015=
200706102350 METAR ESMX 102350Z 00000KT CAVOK 14/11 Q1015=
200706102320 METAR ESMX 102320Z 00000KT CAVOK 15/11 Q1015=
200706102250 METAR ESMX 102250Z 00000KT CAVOK 16/12 Q1016=
200706102220 METAR ESMX 102220Z 00000KT CAVOK 18/12 Q1015=
200706102150 METAR ESMX 102150Z 00000KT CAVOK 17/12 Q1016=
200706102120 METAR ESMX 102120Z 00000KT CAVOK 19/13 Q1016=
200706102050 METAR ESMX 102050Z 27006KT CAVOK 20/13 Q1016=
200706102020 METAR ESMX 102020Z 05002KT CAVOK 22/12 Q1016=
200706101950 METAR ESMX 101950Z 01005KT CAVOK 23/13 Q1016=
200706101920 METAR ESMX 101920Z 31004KT 270V350 CAVOK 24/13 Q1016=
200706101850 METAR ESMX 101850Z 18004KT CAVOK 25/13 Q1015=
200706101820 METAR ESMX 101820Z 21005KT CAVOK 25/13 Q1015=
200706101750 METAR ESMX 101750Z 19006KT CAVOK 26/13 Q1016=
200706101720 METAR ESMX 101720Z 18004KT 050V230 CAVOK 26/12 Q1016=
200706101650 METAR ESMX 101650Z VRB01KT CAVOK 26/10 Q1016=
200706101620 METAR ESMX 101620Z VRB02KT CAVOK 29/08 Q1016=
200706101550 METAR ESMX 101550Z 24003KT 200V260 CAVOK 30/08 Q1016=
200706101520 METAR ESMX 101520Z 01003KT 350V050 CAVOK 29/07 Q1016=
200706101450 METAR ESMX 101450Z 36004KT 320V040 CAVOK 29/08 Q1016=
200706101420 METAR ESMX 101420Z 35008KT CAVOK 29/09 Q1017=
200706101350 METAR ESMX 101350Z 36007KT 330V050 CAVOK 30/09 Q1017=
200706101320 METAR ESMX 101320Z 36006KT CAVOK 28/10 Q1017=
200706101250 METAR ESMX 101250Z 02009KT CAVOK 29/10 Q1017=
200706101220 METAR ESMX 101220Z 34003KT 290V050 CAVOK 29/10 Q1017=
200706101150 METAR ESMX 101150Z 01006KT CAVOK 29/11 Q1017=
200706101120 METAR ESMX 101120Z 36007KT CAVOK 28/12 Q1018=
200706101050 METAR ESMX 101050Z VRB03KT CAVOK 28/12 Q1018=
200706101020 METAR ESMX 101020Z AUTO VRB02KT 9999NDV FEW055/// SCT110/// 28/12 Q1018=
200706100950 METAR ESMX 100950Z AUTO 35005KT 310V020 9999NDV FEW056/// SCT100/// 27/14 Q1018=
200706100920 METAR ESMX 100920Z AUTO 01004KT 340V050 9999NDV BKN100/// 27/13 Q1018=
200706100850 METAR ESMX 100850Z AUTO 01003KT 330V040 9999NDV SCT100/// 27/13 Q1018=
200706100820 METAR ESMX 100820Z AUTO 01003KT 330V050 9999NDV SCT100/// 26/14 Q1018=
200706100750 METAR ESMX 100750Z AUTO 00000KT 9999NDV SCT100/// 26/14 Q1018=
200706100720 METAR ESMX 100720Z AUTO 04003KT 340V070 9999NDV NCD 24/14 Q1018=
200706100650 METAR ESMX 100650Z AUTO 01004KT 9999NDV NCD 22/15 Q1018=
200706100620 METAR ESMX 100620Z AUTO 00000KT 9999NDV NCD 23/15 Q1018=
200706100550 METAR ESMX 100550Z AUTO 35002KT 9999NDV NCD 21/13 Q1018=
200706100520 METAR ESMX 100520Z AUTO VRB02KT 9999NDV NCD 20/15 Q1018=
200706100450 METAR ESMX 100450Z AUTO 00000KT 9999NDV NCD 18/14 Q1018=
200706100420 METAR ESMX 100420Z AUTO 00000KT 9999NDV NCD 16/13 Q1018=
200706100350 METAR ESMX 100350Z AUTO 00000KT 9999NDV NCD 13/11 Q1018=
200706100320 METAR ESMX 100320Z AUTO 00000KT 9999NDV NCD 12/10 Q1018=
200706100250 METAR ESMX 100250Z AUTO 00000KT 9999NDV NCD 11/10 Q1018=
200706100220 METAR ESMX 100220Z AUTO 00000KT 9999NDV NCD 11/09 Q1018=
200706100150 METAR ESMX 100150Z AUTO 00000KT 9999NDV NCD 12/10 Q1018=
200706100120 METAR ESMX 100120Z AUTO 02001KT 9999NDV NCD 12/10 Q1018=
200706100050 METAR ESMX 100050Z AUTO 13003KT 100V160 9999NDV NCD 13/10 Q1018=
200706100020 METAR ESMX 100020Z AUTO 18003KT 9999NDV NCD 13/10 Q1018=
200706092350 METAR ESMX 092350Z AUTO 00000KT 9999NDV NCD 14/10 Q1018=
200706092320 METAR ESMX 092320Z AUTO 14003KT 100V170 9999NDV NCD 14/10 Q1019=
200706092250 METAR ESMX 092250Z AUTO 14003KT 9999NDV NCD 15/10 Q1019=
200706092220 METAR ESMX 092220Z AUTO 13003KT 9999NDV NCD 16/11 Q1018=
200706092150 METAR ESMX 092150Z AUTO 13003KT 9999NDV NCD 17/11 Q1018=
200706092120 METAR ESMX 092120Z AUTO 15005KT 9999NDV NCD 20/11 Q1018=
200706092050 METAR ESMX 092050Z AUTO 15005KT 9999NDV NCD 20/11 Q1018=
200706092020 METAR ESMX 092020Z AUTO 15005KT 9999NDV NCD 21/11 Q1018=
200706091950 METAR ESMX 091950Z AUTO 16005KT 9999NDV SCT096/// 24/09 Q1018=
200706091920 METAR ESMX 091920Z AUTO 17005KT 9999NDV BKN097/// 24/10 Q1018=
200706091850 METAR ESMX 091850Z AUTO 17002KT 9999NDV BKN098/// 25/11 Q1018=
200706091820 METAR ESMX 091820Z AUTO 16005KT 9999NDV FEW100/// 26/10 Q1018=
200706091750 METAR ESMX 091750Z AUTO 09003KT 040V150 9999NDV NCD 27/11 Q1018=
200706091720 METAR ESMX 091720Z AUTO VRB02KT 9999NDV NCD 29/08 Q1018=
200706091650 METAR ESMX 091650Z AUTO 06002KT 9999NDV NCD 26/13 Q1018=
200706091620 METAR ESMX 091620Z AUTO 05004KT 360V100 9999NDV FEW110/// 28/09 Q1018=
200706091550 METAR ESMX 091550Z AUTO 35004KT 9999NDV NCD 28/13 Q1018=
200706091520 METAR ESMX 091520Z AUTO 29003KT 230V340 9999NDV NCD 30/07 Q1018=
200706091450 METAR ESMX 091450Z AUTO VRB03KT 9999NDV NCD 30/08 Q1019=
200706091420 METAR ESMX 091420Z AUTO 09004KT 040V120 9999NDV NCD 30/10 Q1019=
200706091350 METAR ESMX 091350Z AUTO 08003KT 020V130 9999NDV NCD 30/08 Q1019=
200706091320 METAR ESMX 091320Z AUTO VRB03KT 9999NDV NCD 30/07 Q1019=
200706091250 METAR ESMX 091250Z AUTO 01007KT 9999NDV NCD 30/07 Q1020=
200706091220 METAR ESMX 091220Z AUTO 36006KT 270V050 9999NDV NCD 30/07 Q1020=
200706091150 METAR ESMX 091150Z AUTO 04005KT 340V080 9999NDV FEW100/// 30/05 Q1020=
200706091120 METAR ESMX 091120Z AUTO 35008KT 9999NDV NCD 30/07 Q1020=
200706091050 METAR ESMX 091050Z AUTO 03006KT 340V080 9999NDV NCD 28/07 Q1021=
200706091020 METAR ESMX 091020Z AUTO 33007KT 9999NDV NCD 29/07 Q1021=
200706090950 METAR ESMX 090950Z AUTO 35006KT 300V050 9999NDV NCD 28/07 Q1021=
200706090920 METAR ESMX 090920Z AUTO 36005KT 9999NDV NCD 28/08 Q1021=
200706090850 METAR ESMX 090850Z AUTO 34004KT 290V020 9999NDV NCD 28/12 Q1021=
200706090820 METAR ESMX 090820Z AUTO 02004KT 340V060 9999NDV NCD 26/13 Q1021=
200706090750 METAR ESMX 090750Z AUTO 03003KT 9999NDV NCD 25/13 Q1021=
200706090720 METAR ESMX 090720Z AUTO 02003KT 330V080 9999NDV NCD 24/13 Q1021=
200706090650 METAR ESMX 090650Z AUTO 03003KT 350V080 9999NDV NCD 23/13 Q1021=
200706090620 METAR ESMX 090620Z AUTO VRB02KT 9999NDV NCD 21/13 Q1021=
200706090550 METAR ESMX 090550Z AUTO 34003KT 310V010 9999NDV NCD 20/13 Q1021=
200706090520 METAR ESMX 090520Z AUTO 36002KT 9999NDV NCD 19/14 Q1021=
200706090450 METAR ESMX 090450Z AUTO 36003KT 9999NDV NCD 17/14 Q1021=
200706090420 METAR ESMX 090420Z AUTO 00000KT 9999NDV NCD 15/13 Q1021=
200706090350 METAR ESMX 090350Z AUTO 00000KT 9999NDV NCD 12/11 Q1021=
200706090320 METAR ESMX 090320Z AUTO 00000KT 9999NDV NCD 10/09 Q1021=
200706090250 METAR ESMX 090250Z AUTO 00000KT 9999NDV NCD 09/08 Q1021=
200706090220 METAR ESMX 090220Z AUTO 00000KT 9999NDV NCD 10/09 Q1021=
200706090150 METAR ESMX 090150Z AUTO 17001KT 9999NDV NCD 10/08 Q1021=
200706090120 METAR ESMX 090120Z AUTO 00000KT 9999NDV NCD 10/08 Q1021=
200706090050 METAR ESMX 090050Z AUTO 19001KT 9999NDV NCD 10/08 Q1021=
200706090020 METAR ESMX 090020Z AUTO 18001KT 9999NDV NCD 11/08 Q1021=
200706082350 METAR ESMX 082350Z AUTO 00000KT 9999NDV NCD 11/08 Q1021=
200706082320 METAR ESMX 082320Z AUTO 00000KT 9999NDV NCD 12/08 Q1021=
200706082250 METAR ESMX 082250Z AUTO 00000KT 9999NDV NCD 12/08 Q1021=
200706082220 METAR ESMX 082220Z AUTO 00000KT 9999NDV NCD 12/08 Q1021=
200706082150 METAR ESMX 082150Z AUTO 00000KT 9999NDV NCD 13/09 Q1021=
200706082120 METAR ESMX 082120Z AUTO 18003KT 9999NDV NCD 15/08 Q1021=
200706082050 METAR ESMX 082050Z AUTO 17004KT 9999NDV NCD 18/08 Q1021=
200706082020 METAR ESMX 082020Z AUTO 18005KT 9999NDV NCD 19/07 Q1021=
200706081950 METAR ESMX 081950Z AUTO 17006KT 9999NDV NCD 21/07 Q1021=
200706081920 METAR ESMX 081920Z AUTO 15008KT 9999NDV NCD 22/07 Q1020=
200706081850 METAR ESMX 081850Z AUTO 15008KT 110V180 9999NDV NCD 23/08 Q1020=
200706081820 METAR ESMX 081820Z AUTO 12006KT 080V160 9999NDV NCD 25/10 Q1020=
200706081750 METAR ESMX 081750Z 35004KT CAVOK 28/08 Q1020=
200706081720 METAR ESMX 081720Z 34003KT CAVOK 28/07 Q1020=
200706081650 METAR ESMX 081650Z 35004KT CAVOK 28/05 Q1020=
200706081620 METAR ESMX 081620Z 01005KT CAVOK 28/06 Q1020=
200706081550 METAR ESMX 081550Z 02003KT CAVOK 28/06 Q1020=
200706081520 METAR ESMX 081520Z 33005KT CAVOK 29/06 Q1020=
200706081450 METAR ESMX 081450Z 02004KT CAVOK 29/07 Q1020=
200706081420 METAR ESMX 081420Z 03004KT CAVOK 28/06 Q1021=
200706081350 METAR ESMX 081350Z 04004KT CAVOK 28/07 Q1021=
200706081320 METAR ESMX 081320Z 33005KT CAVOK 28/07 Q1021=
200706081250 METAR ESMX 081250Z 33004KT CAVOK 28/07 Q1021=
200706081220 METAR ESMX 081220Z VRB04KT CAVOK 28/08 Q1021=
200706081150 METAR ESMX 081150Z 01004KT CAVOK 27/08 Q1022=
200706081120 METAR ESMX 081120Z VRB04KT CAVOK 28/08 Q1022=
200706081050 METAR ESMX 081050Z 05004KT CAVOK 26/09 Q1022=
200706081020 METAR ESMX 081020Z VRB02KT CAVOK 26/08 Q1022=
200706080950 METAR ESMX 080950Z 08003KT 040V120 CAVOK 26/08 Q1022=
200706080920 METAR ESMX 080920Z 36004KT 310V060 CAVOK 26/09 Q1022=
200706080850 METAR ESMX 080850Z 34003KT 260V040 CAVOK 26/08 Q1023=
200706080820 METAR ESMX 080820Z 35005KT 320V030 CAVOK 24/12 Q1023=
200706080750 METAR ESMX 080750Z 36003KT 310V050 CAVOK 23/13 Q1022=
200706080720 METAR ESMX 080720Z 36003KT 320V030 CAVOK 22/12 Q1023=
200706080620 METAR ESMX 080620Z 03003KT 360V060 CAVOK 20/12 Q1023=
200706080450 METAR ESMX 080450Z VRB02KT CAVOK 15/13 Q1023=
200706080420 METAR ESMX 080420Z AUTO 00000KT 9999NDV NCD 13/12 Q1023=
200706080350 METAR ESMX 080350Z 00000KT CAVOK 10/09 Q1023=
200706080320 METAR ESMX 080320Z AUTO 00000KT 0650NDV R01/P2000 R19/P2000D FG NCD 08/08 Q1023=
200706080250 METAR ESMX 080250Z AUTO 00000KT 9999NDV NCD 08/08 Q1023=
200706080220 METAR ESMX 080220Z AUTO 00000KT 9999NDV NCD 08/07 Q1023=
200706080150 METAR ESMX 080150Z AUTO 00000KT 9999NDV NCD 08/07 Q1023=
200706080120 METAR ESMX 080120Z AUTO 00000KT 9999NDV NCD 08/07 Q1023=
200706080020 METAR ESMX 080020Z 00000KT CAVOK 09/08 Q1023=
200706072350 METAR ESMX 072350Z 17001KT CAVOK 10/08 Q1023=
200706072320 METAR ESMX 072320Z 00000KT CAVOK 10/09 Q1023=
200706072250 METAR ESMX 072250Z 00000KT CAVOK 11/09 Q1024=
200706072220 METAR ESMX 072220Z 00000KT CAVOK 12/09 Q1024=
200706072150 METAR ESMX 072150Z 00000KT CAVOK 13/10 Q1023=
200706072020 METAR ESMX 072020Z 15002KT CAVOK 17/11 Q1023=
200706071950 METAR ESMX 071950Z 09003KT 050V140 CAVOK 20/10 Q1023=
200706071920 METAR ESMX 071920Z 12003KT CAVOK 22/10 Q1022=
200706071850 METAR ESMX 071850Z 13003KT 080V160 CAVOK 23/09 Q1022=
200706071820 METAR ESMX 071820Z 14004KT 100V160 CAVOK 24/09 Q1022=
200706071720 METAR ESMX 071720Z 14004KT 070V200 CAVOK 26/08 Q1022=
200706071650 METAR ESMX 071650Z VRB02KT CAVOK 25/10 Q1022=
200706071620 METAR ESMX 071620Z 11004KT 050V160 CAVOK 27/08 Q1022=
200706071550 METAR ESMX 071550Z 06004KT 360V110 CAVOK 26/07 Q1022=
200706071520 METAR ESMX 071520Z 04007KT 010V070 CAVOK 26/08 Q1022=
200706071450 METAR ESMX 071450Z 02006KT 360V060 CAVOK 27/08 Q1022=
200706071420 METAR ESMX 071420Z 04003KT 340V090 CAVOK 28/08 Q1022=
200706071350 METAR ESMX 071350Z 02004KT 320V080 CAVOK 28/09 Q1023=
200706071320 METAR ESMX 071320Z VRB02KT CAVOK 27/09 Q1023=
200706071250 METAR ESMX 071250Z 07005KT 020V100 CAVOK 26/08 Q1023=
200706071220 METAR ESMX 071220Z 06005KT 010V120 CAVOK 26/10 Q1023=
200706071150 METAR ESMX 071150Z 06006KT CAVOK 25/09 Q1023=
200706071120 METAR ESMX 071120Z 06007KT 360V110 CAVOK 26/10 Q1023=
200706071050 METAR ESMX 071050Z 04010KT CAVOK 26/09 Q1023=
200706071020 METAR ESMX 071020Z 06007KT 030V120 CAVOK 26/10 Q1024=
200706070950 METAR ESMX 070950Z 07007KT 020V120 CAVOK 24/09 Q1024=
200706070920 METAR ESMX 070920Z 06007KT 020V120 CAVOK 24/09 Q1024=
200706070850 METAR ESMX 070850Z 04009KT 010V070 CAVOK 24/10 Q1024=
200706070820 METAR ESMX 070820Z 05007KT 010V110 CAVOK 23/10 Q1024=
200706070750 METAR ESMX 070750Z 05010KT 020V080 CAVOK 23/10 Q1024=
200706070720 METAR ESMX 070720Z 04008KT CAVOK 21/10 Q1024=
200706070650 METAR ESMX 070650Z 04007KT 360V080 CAVOK 21/10 Q1024=
200706070620 METAR ESMX 070620Z 02004KT CAVOK 19/11 Q1024=
200706070550 METAR ESMX 070550Z 02005KT 330V050 CAVOK 18/10 Q1023=
200706070520 METAR ESMX 070520Z 04006KT CAVOK 18/10 Q1023=
200706070450 METAR ESMX 070450Z 05003KT 010V120 CAVOK 16/10 Q1024=
200706070350 METAR ESMX 070350Z 03004KT CAVOK 13/09 Q1024=
200706070320 METAR ESMX 070320Z AUTO 03004KT 9999NDV NCD 13/09 Q1024=
200706070250 METAR ESMX 070250Z AUTO 03003KT 9999NDV NCD 13/09 Q1024=
200706070220 METAR ESMX 070220Z AUTO 03004KT 9999NDV FEW093/// 13/09 Q1023=
200706070150 METAR ESMX 070150Z AUTO 03004KT 9999NDV BKN086/// 14/10 Q1024=
200706070120 METAR ESMX 070120Z AUTO 03004KT 9999NDV FEW086/// 14/11 Q1024=
200706070050 METAR ESMX 070050Z 01002KT CAVOK 12/11 Q1024=
200706070020 METAR ESMX 070020Z 00000KT CAVOK 11/10 Q1024=
200706062350 METAR ESMX 062350Z 04002KT CAVOK 11/10 Q1024=
200706062320 METAR ESMX 062320Z 00000KT CAVOK 12/10 Q1024=
200706062250 METAR ESMX 062250Z 36001KT CAVOK 12/10 Q1024=
200706062220 METAR ESMX 062220Z 03001KT CAVOK 14/11 Q1024=
200706062150 METAR ESMX 062150Z 35002KT CAVOK 15/11 Q1023=
200706062120 METAR ESMX 062120Z 04002KT CAVOK 16/11 Q1023=
200706062050 METAR ESMX 062050Z 09002KT CAVOK 18/10 Q1023=
200706062020 METAR ESMX 062020Z VRB02KT CAVOK 20/10 Q1023=
200706061950 METAR ESMX 061950Z VRB02KT CAVOK 20/09 Q1023=
200706061920 METAR ESMX 061920Z 10003KT 060V150 CAVOK 21/09 Q1022=
200706061850 METAR ESMX 061850Z 12005KT 070V160 CAVOK 22/08 Q1022=
200706061820 METAR ESMX 061820Z 09003KT 030V160 CAVOK 23/10 Q1022=
200706061750 METAR ESMX 061750Z 09003KT 040V160 CAVOK 24/10 Q1022=
200706061720 METAR ESMX 061720Z VRB02KT CAVOK 24/11 Q1021=
200706061650 METAR ESMX 061650Z VRB02KT CAVOK 24/12 Q1021=
200706061620 METAR ESMX 061620Z VRB02KT CAVOK 24/12 Q1022=
200706061550 METAR ESMX 061550Z 12004KT CAVOK 23/11 Q1022=
200706061450 METAR ESMX 061450Z 02007KT CAVOK 25/11 Q1022=
200706061420 METAR ESMX 061420Z VRB02KT CAVOK 25/10 Q1022=
200706061350 METAR ESMX 061350Z VRB02KT CAVOK 24/10 Q1022=
200706061320 METAR ESMX 061320Z 13004KT CAVOK 24/10 Q1022=
200706061250 METAR ESMX 061250Z 14004KT 9999 FEW041 SCT060 BKN100 25/10 Q1022=
200706061220 METAR ESMX 061220Z 12004KT CAVOK 24/11 Q1022=
200706061150 METAR ESMX 061150Z 05003KT 9999 SCT066 BKN087 24/11 Q1022=
200706061120 METAR ESMX 061120Z AUTO 07005KT 020V110 9999NDV BKN065/// 24/10 Q1022=
200706061050 METAR ESMX 061050Z AUTO 04004KT 340V100 9999NDV BKN061/// 24/11 Q1022=
200706061020 METAR ESMX 061020Z AUTO 08003KT 010V170 9999NDV SCT059/// 25/11 Q1022=
200706060950 METAR ESMX 060950Z AUTO 02004KT 320V050 9999NDV FEW044/// 24/10 Q1022=
200706060920 METAR ESMX 060920Z AUTO 02005KT 350V060 9999NDV FEW086/// 23/11 Q1022=
200706060850 METAR ESMX 060850Z AUTO 06005KT 020V090 9999NDV NCD 23/10 Q1022=
200706060820 METAR ESMX 060820Z AUTO 04006KT 010V090 9999NDV NCD 22/10 Q1022=
200706060750 METAR ESMX 060750Z AUTO 04007KT 9999NDV NCD 22/10 Q1022=
200706060720 METAR ESMX 060720Z AUTO 03006KT 9999NDV FEW075/// 21/10 Q1023=
200706060650 METAR ESMX 060650Z AUTO 04004KT 9999NDV NCD 20/10 Q1023=
200706060620 METAR ESMX 060620Z AUTO 35004KT 9999NDV NCD 19/10 Q1023=
200706060550 METAR ESMX 060550Z AUTO 04005KT 9999NDV NCD 18/11 Q1023=
200706060520 METAR ESMX 060520Z AUTO 03004KT 350V050 9999NDV NCD 17/11 Q1023=
200706060450 METAR ESMX 060450Z AUTO 04004KT 010V080 9999NDV NCD 16/11 Q1023=
200706060420 METAR ESMX 060420Z AUTO 04003KT 360V080 9999NDV NCD 15/10 Q1023=
200706060350 METAR ESMX 060350Z AUTO 01004KT 9999NDV NCD 13/11 Q1023=
200706060320 METAR ESMX 060320Z AUTO 01003KT 9999NDV FEW110/// 11/10 Q1023=
200706060250 METAR ESMX 060250Z AUTO 01003KT 9999NDV FEW110/// 12/10 Q1023=
200706060220 METAR ESMX 060220Z AUTO 04003KT 9999NDV NCD 13/10 Q1023=
200706060150 METAR ESMX 060150Z AUTO 02003KT 9999NDV FEW056/// 13/10 Q1023=
200706060120 METAR ESMX 060120Z AUTO 04003KT 9999NDV FEW055/// 14/10 Q1023=
200706060050 METAR ESMX 060050Z AUTO VRB02KT 9999NDV FEW056/// 14/10 Q1023=
200706060020 METAR ESMX 060020Z AUTO VRB01KT 9999NDV NCD 13/10 Q1023=
200706052350 METAR ESMX 052350Z AUTO VRB02KT 9999NDV NCD 14/10 Q1024=
200706052320 METAR ESMX 052320Z AUTO VRB02KT 9999NDV NCD 13/10 Q1024=
200706052250 METAR ESMX 052250Z AUTO VRB01KT 9999NDV NCD 14/10 Q1024=
200706052220 METAR ESMX 052220Z AUTO 07003KT 040V110 9999NDV NCD 15/10 Q1024=
200706052150 METAR ESMX 052150Z AUTO VRB02KT 9999NDV NCD 15/10 Q1024=
200706052120 METAR ESMX 052120Z AUTO VRB02KT 9999NDV NCD 15/10 Q1024=
200706052050 METAR ESMX 052050Z AUTO VRB02KT 9999NDV NCD 16/10 Q1024=
200706052020 METAR ESMX 052020Z AUTO 10003KT 050V160 9999NDV NCD 17/09 Q1024=
200706051950 METAR ESMX 051950Z AUTO 11003KT 080V150 9999NDV NCD 19/09 Q1023=
200706051920 METAR ESMX 051920Z AUTO 11003KT 070V170 9999NDV NCD 20/09 Q1023=
200706051850 METAR ESMX 051850Z AUTO 11004KT 040V160 9999NDV NCD 21/09 Q1023=
200706051820 METAR ESMX 051820Z 11005KT CAVOK 22/09 Q1023=
200706051750 METAR ESMX 051750Z 12006KT CAVOK 23/09 Q1023=
200706051720 METAR ESMX 051720Z 10004KT CAVOK 23/09 Q1023=
200706051650 METAR ESMX 051650Z 11006KT 060V160 9999 NSC 24/09 Q1023=
200706051620 METAR ESMX 051620Z 13006KT CAVOK 24/08 Q1023=
200706051550 METAR ESMX 051550Z 09006KT CAVOK 24/08 Q1023=
200706051520 METAR ESMX 051520Z 12006KT 050V170 CAVOK 24/08 Q1023=
200706051450 METAR ESMX 051450Z 09006KT CAVOK 25/08 Q1023=
200706051420 METAR ESMX 051420Z 08005KT CAVOK 24/10 Q1023=
200706051350 METAR ESMX 051350Z 06009KT CAVOK 24/09 Q1023=
200706051320 METAR ESMX 051320Z 12005KT 070V140 9999 FEW064 25/09 Q1024=
200706051250 METAR ESMX 051250Z 08006KT CAVOK 25/10 Q1024=
200706051220 METAR ESMX 051220Z 09006KT 020V140 CAVOK 24/09 Q1024=
200706051050 METAR ESMX 051050Z 06006KT 010V120 CAVOK 24/11 Q1024=
200706051020 METAR ESMX 051020Z 05006KT CAVOK 24/10 Q1024=
200706050950 METAR ESMX 050950Z VRB06KT CAVOK 23/10 Q1024=
200706050920 METAR ESMX 050920Z 04007KT CAVOK 21/10 Q1025=
200706050850 METAR ESMX 050850Z 05005KT 020V100 CAVOK 21/09 Q1025=
200706050820 METAR ESMX 050820Z 04005KT 360V090 9999 BKN046 22/09 Q1025=
200706050750 METAR ESMX 050750Z 03006KT 9999 SCT045 20/09 Q1025=
200706050720 METAR ESMX 050720Z 04006KT 010V070 CAVOK 20/09 Q1025=
200706050620 METAR ESMX 050620Z 03006KT CAVOK 18/09 Q1025=
200706050520 METAR ESMX 050520Z 04006KT CAVOK 16/10 Q1025=
200706050450 METAR ESMX 050450Z 04004KT 010V070 CAVOK 14/09 Q1025=
200706050420 METAR ESMX 050420Z 05003KT 010V090 CAVOK 14/09 Q1025=
200706050350 METAR ESMX 050350Z 03005KT CAVOK 14/09 Q1025=
200706050320 METAR ESMX 050320Z AUTO 04006KT 9999NDV FEW090/// BKN100/// 14/09 Q1025=
200706050250 METAR ESMX 050250Z AUTO 03005KT 9999NDV FEW090/// BKN100/// 14/10 Q1025=
200706050220 METAR ESMX 050220Z AUTO 03005KT 9999NDV FEW090/// BKN100/// 13/10 Q1025=
200706050150 METAR ESMX 050150Z AUTO 02004KT 9999NDV FEW089/// BKN100/// 12/10 Q1025=
200706050120 METAR ESMX 050120Z AUTO 03002KT 9999NDV FEW091/// 12/10 Q1025=
200706050050 METAR ESMX 050050Z AUTO 05003KT 010V080 9999NDV SCT092/// BKN110/// 13/10 Q1025=
200706050020 METAR ESMX 050020Z VRB02KT CAVOK 13/10 Q1026=
200706042350 METAR ESMX 042350Z 04003KT CAVOK 14/10 Q1026=
200706042320 METAR ESMX 042320Z 06003KT CAVOK 14/10 Q1026=
200706042250 METAR ESMX 042250Z 06003KT 030V090 CAVOK 15/10 Q1026=
200706042220 METAR ESMX 042220Z VRB02KT CAVOK 15/12 Q1026=
200706042120 METAR ESMX 042120Z 35002KT CAVOK 14/12 Q1026=
200706042050 METAR ESMX 042050Z 35002KT CAVOK 14/12 Q1026=
200706042020 METAR ESMX 042020Z 02002KT CAVOK 14/12 Q1026=
200706041950 METAR ESMX 041950Z 01002KT CAVOK 15/12 Q1026=
200706041920 METAR ESMX 041920Z 03003KT CAVOK 16/13 Q1025=
200706041850 METAR ESMX 041850Z 02003KT 9999 SCT030 17/13 Q1025=
200706041820 METAR ESMX 041820Z 05003KT 020V080 9999 OVC055 17/13 Q1025=
200706041750 METAR ESMX 041750Z 05004KT 010V080 9999 SCT029 OVC073 18/12 Q1025=
200706041720 METAR ESMX 041720Z 05005KT 010V070 9999 BKN030 18/13 Q1025=
200706041650 METAR ESMX 041650Z 05004KT 9999 FEW023 BKN030 18/12 Q1026=
200706041620 METAR ESMX 041620Z 05005KT 9999 BKN022 17/12 Q1026=
200706041550 METAR ESMX 041550Z 04005KT 360V090 9999 BKN025 18/12 Q1026=
200706041520 METAR ESMX 041520Z 04005KT 010V080 9999 BKN025 18/12 Q1026=
200706041450 METAR ESMX 041450Z 04005KT 010V070 9999 BKN023 18/13 Q1026=
200706041420 METAR ESMX 041420Z 05005KT 360V080 9999 BKN023 18/12 Q1026=
200706041350 METAR ESMX 041350Z 07005KT 030V110 9999 BKN024 17/12 Q1026=
200706041320 METAR ESMX 041320Z 06005KT 020V090 9999 BKN026 OVC033 18/12 Q1026=
200706041150 METAR ESMX 041150Z 07005KT 9999 OVC024 17/11 Q1026=
200706041120 METAR ESMX 041120Z 06004KT 9999 OVC025 17/12 Q1026=
200706041050 METAR ESMX 041050Z 08003KT 9999 OVC023 17/12 Q1026=
200706041020 METAR ESMX 041020Z 08005KT 030V150 9999 BKN024 17/12 Q1026=
200706040950 METAR ESMX 040950Z 09007KT 9999 OVC024 17/11 Q1026=
200706040920 METAR ESMX 040920Z 06005KT 9999 OVC026 17/11 Q1026=
200706040850 METAR ESMX 040850Z 04006KT 9999 FEW027 OVC032 17/10 Q1026=
200706040820 METAR ESMX 040820Z 04006KT 9999 SCT028 OVC038 16/10 Q1026=
200706040750 METAR ESMX 040750Z 04006KT 9999 OVC031 15/09 Q1026=
200706040720 METAR ESMX 040720Z 03007KT 9999 OVC033 14/09 Q1026=
200706040650 METAR ESMX 040650Z 04007KT 9999 FEW038 BKN042 14/08 Q1026=
200706040620 METAR ESMX 040620Z 03006KT 9999 BKN043 14/08 Q1026=
200706040550 METAR ESMX 040550Z 03005KT 9999 BKN044 13/08 Q1026=
200706040520 METAR ESMX 040520Z 02005KT 9999 BKN047 13/08 Q1026=
200706040450 METAR ESMX 040450Z 04005KT 9999 BKN049 13/08 Q1026=
200706040420 METAR ESMX 040420Z 04005KT 010V070 CAVOK 13/07 Q1026=
200706040350 METAR ESMX 040350Z 04007KT 010V070 CAVOK 13/07 Q1026=
200706040320 METAR ESMX 040320Z AUTO 03006KT 9999NDV OVC053/// 13/07 Q1026=
200706040250 METAR ESMX 040250Z AUTO 03006KT 9999NDV OVC054/// 13/06 Q1026=
200706040220 METAR ESMX 040220Z AUTO 03007KT 010V070 9999NDV OVC055/// 13/06 Q1026=
200706040150 METAR ESMX 040150Z AUTO 03007KT 9999NDV OVC054/// 13/06 Q1026=
200706040120 METAR ESMX 040120Z AUTO 03005KT 9999NDV OVC054/// 13/06 Q1026=
200706040050 METAR ESMX 040050Z AUTO 03006KT 9999NDV OVC054/// 13/06 Q1027=
200706040020 METAR ESMX 040020Z AUTO 02006KT 9999NDV OVC053/// 13/06 Q1027=
200706032350 METAR ESMX 032350Z 03007KT CAVOK 13/06 Q1027=
200706032320 METAR ESMX 032320Z 03007KT CAVOK 13/06 Q1027=
200706032250 METAR ESMX 032250Z 02007KT CAVOK 13/06 Q1027=
200706032220 METAR ESMX 032220Z 04008KT CAVOK 14/06 Q1027=
200706032150 METAR ESMX 032150Z 04007KT 020V080 CAVOK 14/06 Q1027=
200706032120 METAR ESMX 032120Z 03006KT 340V060 CAVOK 15/06 Q1027=
200706032050 METAR ESMX 032050Z 05007KT 010V080 CAVOK 15/07 Q1027=
200706032020 METAR ESMX 032020Z 05008KT 010V090 CAVOK 15/06 Q1027=
200706031950 METAR ESMX 031950Z 04007KT CAVOK 16/06 Q1027=
200706031920 METAR ESMX 031920Z 06005KT 020V090 CAVOK 16/06 Q1027=
200706031850 METAR ESMX 031850Z 05005KT 020V160 CAVOK 16/07 Q1027=
200706031820 METAR ESMX 031820Z 08005KT 030V120 CAVOK 17/07 Q1027=
200706031750 METAR ESMX 031750Z 06006KT 020V110 CAVOK 17/07 Q1027=
200706031720 METAR ESMX 031720Z 09006KT 040V120 CAVOK 17/08 Q1027=
200706031650 METAR ESMX 031650Z 09006KT 060V140 CAVOK 18/07 Q1027=
200706031620 METAR ESMX 031620Z 09006KT 030V130 CAVOK 18/07 Q1027=
200706031520 METAR ESMX 031520Z 07008KT 020V120 CAVOK 20/08 Q1027=
200706031450 METAR ESMX 031450Z 06007KT 010V110 CAVOK 21/08 Q1027=
200706031420 METAR ESMX 031420Z 06008KT 020V080 CAVOK 21/08 Q1027=
200706031350 METAR ESMX 031350Z 06008KT 360V120 CAVOK 21/07 Q1027=
200706031320 METAR ESMX 031320Z 07007KT 010V140 CAVOK 21/07 Q1027=
200706031250 METAR ESMX 031250Z 09006KT 340V160 CAVOK 21/08 Q1027=
200706031220 METAR ESMX 031220Z 04009KT 010V100 CAVOK 20/08 Q1028=
200706031150 METAR ESMX 031150Z 06009KT 010V110 CAVOK 19/08 Q1028=
200706031120 METAR ESMX 031120Z 09008KT 020V150 CAVOK 20/08 Q1028=
200706031050 METAR ESMX 031050Z 05007KT 010V090 CAVOK 19/08 Q1028=
200706031020 METAR ESMX 031020Z AUTO 07007KT 030V120 9999NDV BKN076/// 20/08 Q1028=
200706030950 METAR ESMX 030950Z AUTO 04010KT 360V070 9999NDV FEW077/// 19/08 Q1028=
200706030920 METAR ESMX 030920Z AUTO 08009KT 050V130 9999NDV NCD 19/08 Q1028=
200706030850 METAR ESMX 030850Z AUTO 05008KT 360V100 9999NDV NCD 19/08 Q1028=
200706030820 METAR ESMX 030820Z AUTO 05009KT 010V100 9999NDV NCD 19/08 Q1028=
200706030750 METAR ESMX 030750Z AUTO 03010KT 9999NDV NCD 17/09 Q1028=
200706030720 METAR ESMX 030720Z AUTO 03009KT 360V060 9999NDV NCD 16/08 Q1028=
200706030650 METAR ESMX 030650Z AUTO 05006KT 360V110 9999NDV FEW054/// 14/08 Q1029=
200706030620 METAR ESMX 030620Z AUTO 02008KT 9999NDV BKN055/// 13/07 Q1029=
200706030550 METAR ESMX 030550Z AUTO 04007KT 9999NDV BKN055/// 12/07 Q1029=
200706030520 METAR ESMX 030520Z AUTO 05007KT 9999NDV FEW056/// 12/07 Q1029=
200706030450 METAR ESMX 030450Z AUTO 02007KT 330V050 9999NDV NCD 11/07 Q1029=
200706030420 METAR ESMX 030420Z AUTO 03007KT 350V060 9999NDV NCD 10/06 Q1029=
200706030350 METAR ESMX 030350Z AUTO 03006KT 9999NDV NCD 09/06 Q1029=
200706030320 METAR ESMX 030320Z AUTO 03007KT 9999NDV NCD 08/05 Q1029=
200706030250 METAR ESMX 030250Z AUTO 02006KT 9999NDV NCD 08/05 Q1029=
200706030220 METAR ESMX 030220Z AUTO 02007KT 9999NDV NCD 07/05 Q1029=
200706030150 METAR ESMX 030150Z AUTO 02007KT 9999NDV NCD 07/05 Q1029=
200706030120 METAR ESMX 030120Z AUTO 03007KT 9999NDV NCD 08/05 Q1029=
200706030050 METAR ESMX 030050Z AUTO 01006KT 9999NDV NCD 07/05 Q1029=
200706030020 METAR ESMX 030020Z AUTO 02007KT 9999NDV NCD 08/05 Q1029=
200706022350 METAR ESMX 022350Z AUTO 03007KT 9999NDV NCD 08/05 Q1029=
200706022320 METAR ESMX 022320Z AUTO 03008KT 9999NDV NCD 08/05 Q1029=
200706022250 METAR ESMX 022250Z AUTO 03009KT 9999NDV NCD 09/05 Q1029=
200706022220 METAR ESMX 022220Z AUTO 04009KT 9999NDV NCD 10/05 Q1029=
200706022150 METAR ESMX 022150Z AUTO 04008KT 360V080 9999NDV NCD 10/05 Q1029=
200706022120 METAR ESMX 022120Z AUTO 03008KT 360V070 9999NDV NCD 11/05 Q1029=
200706022050 METAR ESMX 022050Z AUTO 02007KT 9999NDV NCD 11/05 Q1029=
200706022020 METAR ESMX 022020Z AUTO 03008KT 9999NDV NCD 12/05 Q1029=
200706021950 METAR ESMX 021950Z AUTO 05007G17KT 350V090 9999NDV NCD 13/04 Q1029=
200706021920 METAR ESMX 021920Z AUTO 07007KT 030V090 9999NDV NCD 14/04 Q1029=
200706021850 METAR ESMX 021850Z AUTO 06009KT 010V110 9999NDV NCD 15/03 Q1028=
200706021820 METAR ESMX 021820Z AUTO 05011KT 020V100 9999NDV NCD 15/04 Q1028=
200706021750 METAR ESMX 021750Z AUTO 05010KT 020V100 9999NDV NCD 16/04 Q1028=
200706021720 METAR ESMX 021720Z AUTO 05009KT 010V080 9999NDV NCD 17/05 Q1028=
200706021650 METAR ESMX 021650Z AUTO 05011KT 020V090 9999NDV NCD 17/05 Q1028=
200706021620 METAR ESMX 021620Z AUTO 05010KT 020V100 9999NDV NCD 18/06 Q1027=
200706021550 METAR ESMX 021550Z AUTO 03012KT 9999NDV NCD 18/07 Q1027=
200706021520 METAR ESMX 021520Z AUTO 05011KT 010V090 9999NDV NCD 18/05 Q1027=
200706021450 METAR ESMX 021450Z AUTO 05010KT 020V090 9999NDV NCD 18/06 Q1027=
200706021420 METAR ESMX 021420Z AUTO 05010KT 010V090 9999NDV NCD 18/06 Q1027=
200706021350 METAR ESMX 021350Z AUTO 05011KT 010V090 9999NDV NCD 18/06 Q1027=
200706021320 METAR ESMX 021320Z AUTO 04011G21KT 340V080 9999NDV NCD 19/07 Q1027=
200706021250 METAR ESMX 021250Z AUTO 04012KT 360V090 9999NDV NCD 18/07 Q1027=
200706021220 METAR ESMX 021220Z AUTO 05011G23KT 020V100 9999NDV FEW053/// 19/06 Q1027=
200706021150 METAR ESMX 021150Z AUTO 05012KT 010V080 9999NDV NCD 18/06 Q1027=
200706021120 METAR ESMX 021120Z AUTO 05012KT 020V100 9999NDV NCD 18/06 Q1027=
200706021050 METAR ESMX 021050Z AUTO 06011KT 020V090 9999NDV FEW099/// 18/06 Q1027=
200706021020 METAR ESMX 021020Z AUTO 07011G21KT 030V140 9999NDV NCD 18/05 Q1027=
200706020950 METAR ESMX 020950Z AUTO 06011KT 360V100 9999NDV NCD 18/08 Q1027=
200706020920 METAR ESMX 020920Z AUTO 06012KT 020V100 9999NDV NCD 17/08 Q1026=
200706020850 METAR ESMX 020850Z AUTO 05011KT 020V090 9999NDV NCD 17/09 Q1026=
200706020820 METAR ESMX 020820Z AUTO 05011KT 010V090 9999NDV NCD 16/08 Q1026=
200706020750 METAR ESMX 020750Z AUTO 05009KT 020V100 9999NDV NCD 15/09 Q1026=
200706020720 METAR ESMX 020720Z AUTO 05012KT 020V090 9999NDV NCD 14/09 Q1026=
200706020650 METAR ESMX 020650Z AUTO 05010KT 020V100 9999NDV FEW022/// 13/09 Q1025=
200706020620 METAR ESMX 020620Z AUTO 05008KT 9999NDV BKN084/// 12/09 Q1025=
200706020550 METAR ESMX 020550Z AUTO 04009KT 9999NDV FEW070/// OVC082/// 12/09 Q1025=
200706020520 METAR ESMX 020520Z AUTO 05007KT 9999NDV BKN036/// BKN082/// 11/09 Q1025=
200706020450 METAR ESMX 020450Z AUTO 03006KT 350V070 9999NDV FEW027/// OVC035/// 11/09 Q1025=
200706020420 METAR ESMX 020420Z AUTO 04007KT 010V080 9999NDV FEW027/// SCT036/// BKN050/// 11/09 Q1025=
200706020350 METAR ESMX 020350Z AUTO 05007KT 020V110 9999NDV FEW022/// BKN044/// 11/09 Q1025=
200706020320 METAR ESMX 020320Z AUTO 04007KT 010V070 9999NDV OVC020/// 10/08 Q1025=
200706020250 METAR ESMX 020250Z AUTO 05008KT 020V090 9999NDV FEW012/// BKN021/// OVC027/// 10/09 Q1025=
200706020220 METAR ESMX 020220Z AUTO 04008KT 9999NDV FEW007/// SCT011/// BKN020/// 10/09 Q1024=
200706020150 METAR ESMX 020150Z AUTO 04009KT 020V100 9999NDV OVC007/// 10/09 Q1024 RERA REDZ=
200706020120 METAR ESMX 020120Z AUTO 03008KT 010V070 9999NDV FEW008/// OVC010/// 10/09 Q1024 RERA=
200706020050 METAR ESMX 020050Z AUTO 03007KT 340V100 9999NDV FEW011/// BKN013/// OVC017/// 10/09 Q1024=
200706020020 METAR ESMX 020020Z AUTO 03009KT 360V060 9999NDV OVC020/// 10/09 Q1024=
200706012350 METAR ESMX 012350Z AUTO 03006KT 350V070 9999NDV OVC020/// 10/09 Q1024=
200706012320 METAR ESMX 012320Z AUTO 04008KT 9999NDV OVC019/// 10/09 Q1024=
200706012250 METAR ESMX 012250Z AUTO 03007KT 360V070 9999NDV OVC022/// 10/09 Q1024 RERA=
200706012220 METAR ESMX 012220Z AUTO 02007KT 7000NDV -RA FEW007/// BKN021/// 10/09 Q1024=
200706012150 METAR ESMX 012150Z AUTO 04009KT 350V080 2800NDV RA FEW010/// SCT015/// OVC020/// 11/09 Q1024 REDZ=
200706012120 METAR ESMX 012120Z AUTO 03010KT 360V060 9999NDV FEW009/// BKN010/// OVC015/// 11/09 Q1024=
200706012050 METAR ESMX 012050Z AUTO 04008KT 9999NDV OVC007/// 11/10 Q1024=
200706012020 METAR ESMX 012020Z AUTO 03008KT 010V080 9999NDV OVC006/// 11/10 Q1024=
200706011950 METAR ESMX 011950Z AUTO 02008KT 9999NDV OVC007/// 11/10 Q1024=
200706011920 METAR ESMX 011920Z AUTO 02008KT 9999NDV OVC007/// 11/10 Q1023=
200706011850 METAR ESMX 011850Z AUTO 03008KT 9999NDV OVC005/// 11/10 Q1023=
200706011820 METAR ESMX 011820Z AUTO 03011KT 9999NDV OVC006/// 11/10 Q1023=
200706011750 METAR ESMX 011750Z 04008KT 360V080 9999 OVC005 12/10 Q1023=
200706011720 METAR ESMX 011720Z 03007KT 340V070 9999 BKN004 11/11 Q1022=
200706011650 METAR ESMX 011650Z 04008KT 360V070 9999 FEW005 OVC006 12/11 Q1022=
200706011620 METAR ESMX 011620Z 04008KT 8000 -SHRA FEW005 BKN009 12/11 Q1022=
200706011520 METAR ESMX 011520Z 03009KT 350V060 5000 -SHRA OVC006 12/11 Q1022=
200706011450 METAR ESMX 011450Z 01009KT 9999 OVC005 13/11 Q1022=
200706011420 METAR ESMX 011420Z 02009KT 350V060 9999 BKN006 13/12 Q1021=
200706011350 METAR ESMX 011350Z 03006KT 350V070 9999 OVC008 13/12 Q1021=
200706011320 METAR ESMX 011320Z 02007KT 9999 OVC008 13/12 Q1021=
200706011250 METAR ESMX 011250Z 01007KT 9999 OVC008 13/11 Q1021=
200706011220 METAR ESMX 011220Z 01008KT 9999 OVC009 13/11 Q1020=
