##########################################################
# Query made at 04/19/2024 20:55:16 UTC
# Time interval: from 01/01/2007 12:00  to 01/31/2007 12:59  UTC
##########################################################

##########################################################
# ESMX, Vaxjo (Sweden)
# WMO index: 02641. WIGOS ID: 0-20000-0-02648
# Latitude 56-51N. Longitude 014-50E. Altitude 199 m.
##########################################################

200701311250 METAR ESMX 311250Z 23011KT 3500 DZ BKN006 OVC009 05/05 Q0991=
200701311220 METAR ESMX 311220Z 23011KT 6000 DZ FEW005 BKN008 05/04 Q0992=
200701311150 METAR ESMX 311150Z 24012KT 3500 DZ FEW005 OVC010 05/04 Q0993=
200701311120 METAR ESMX 311120Z 23013KT 4000 DZ FEW007 BKN010 05/04 Q0993=
200701311050 METAR ESMX 311050Z 22011KT 190V260 6000 -RA FEW008 OVC010 05/04 Q0995=
200701311020 METAR ESMX 311020Z 22010KT 190V260 9999 -RA FEW007 SCT009 BKN011 05/04 Q0996 REDZ=
200701310950 METAR ESMX 310950Z 23010KT 200V260 9999 -RA FEW007 BKN010 OVC014 05/04 Q0997=
200701310920 METAR ESMX 310920Z 22010KT 190V250 9999 -DZ BKN005 OVC009 04/04 Q0997=
200701310850 METAR ESMX 310850Z 23009KT 200V260 6000 DZ OVC005 04/04 Q0998=
200701310820 METAR ESMX 310820Z 23009KT 9999 -DZ OVC005 04/03 Q0998=
200701310750 METAR ESMX 310750Z 25010KT 9999 OVC005 04/03 Q0999=
200701310720 METAR ESMX 310720Z 25010KT 210V290 9999 OVC005 04/03 Q0999=
200701310650 METAR ESMX 310650Z 26011KT 9999 OVC007 04/03 Q1000=
200701310620 METAR ESMX 310620Z 24011KT 200V280 9999 OVC007 04/03 Q1000=
200701310550 METAR ESMX 310550Z 26010KT 230V310 9999 FEW007 OVC008 04/03 Q1000=
200701310520 METAR ESMX 310520Z 26011KT 220V310 9999 FEW005 OVC008 04/03 Q1001=
200701310450 METAR ESMX 310450Z 26010KT 220V280 9999 BKN005 OVC007 04/03 Q1001=
200701310420 METAR ESMX 310420Z AUTO 25012KT 220V280 9999NDV OVC006/// 04/03 Q1001=
200701310350 METAR ESMX 310350Z AUTO 25013KT 210V280 9999NDV OVC007/// 04/03 Q1001=
200701310320 METAR ESMX 310320Z AUTO 24012KT 210V280 9999NDV FEW007/// OVC009/// 04/03 Q1001=
200701310250 METAR ESMX 310250Z AUTO 24013KT 210V280 9999NDV OVC005/// 04/03 Q1002=
200701310220 METAR ESMX 310220Z AUTO 25012KT 9999NDV OVC006/// 03/03 Q1002=
200701310150 METAR ESMX 310150Z AUTO 25009KT 9999NDV BKN006/// OVC009/// 03/03 Q1003=
200701310120 METAR ESMX 310120Z AUTO 24010KT 9999NDV OVC007/// 03/02 Q1003=
200701310050 METAR ESMX 310050Z 26010KT 230V290 9999 FEW006 BKN008 OVC010 03/02 Q1004=
200701310020 METAR ESMX 310020Z 25011KT 210V290 9999 BR SCT006 OVC009 03/03 Q1004=
200701302350 METAR ESMX 302350Z 23010KT 200V270 6000 BR FEW006 SCT007 BKN009 03/03 Q1005 RERA=
200701302320 METAR ESMX 302320Z 26010KT 4000 -RA BR FEW006 BKN008 OVC012 03/03 Q1005=
200701302250 METAR ESMX 302250Z 25009KT 4000 -RA BR FEW005 SCT008 BKN010 03/03 Q1005=
200701302220 METAR ESMX 302220Z 26009KT 4000 -RA BR FEW007 OVC010 03/03 Q1006=
200701302150 METAR ESMX 302150Z 26009KT 230V290 9999 FEW007 BKN009 OVC013 03/03 Q1006=
200701302120 METAR ESMX 302120Z 22009KT 9999 BKN002 OVC007 03/03 Q1006=
200701302050 METAR ESMX 302050Z 20007KT 2500 BR OVC002 02/02 Q1006=
200701302020 METAR ESMX 302020Z 21007KT 2000 BR OVC002 02/02 Q1007=
200701301950 METAR ESMX 301950Z 18005KT 0600 R01/1500N R19/1600N FG VV002 02/02 Q1007=
200701301920 METAR ESMX 301920Z 21007KT 0500 R01/1300N R19/1500N FG VV002 02/02 Q1008=
200701301850 METAR ESMX 301850Z 19007KT 0550 R01/1400D R19/1700D FG VV002 02/01 Q1008=
200701301820 METAR ESMX 301820Z 18007KT 0900 R01/1900N R19/P2000N FG VV002 02/01 Q1008=
200701301750 METAR ESMX 301750Z 18006KT 0900 R01/1900N R19/P2000N -DZ VV002 01/01 Q1008=
200701301650 METAR ESMX 301650Z 17003KT 0800 R01/1900N R19/1900N FG VV002 01/01 Q1009=
200701301620 METAR ESMX 301620Z 17003KT 1100 R01/P2000N R19/P2000N BR VV002 01/01 Q1009=
200701301550 METAR ESMX 301550Z 17004KT 1600 BR OVC001 01/01 Q1010=
200701301520 METAR ESMX 301520Z 17004KT 3000 BR OVC002 01/01 Q1010=
200701301450 METAR ESMX 301450Z 18004KT 9999 FEW005 SCT007 OVC008 01/00 Q1010=
200701301420 METAR ESMX 301420Z 19004KT 9999 OVC007 01/00 Q1010=
200701301350 METAR ESMX 301350Z 20004KT 9999 OVC007 01/00 Q1010=
200701301320 METAR ESMX 301320Z 17003KT 9999 BKN008 OVC011 01/00 Q1010=
200701301250 METAR ESMX 301250Z 22005KT 9999 BKN011 01/M00 Q1010=
200701301220 METAR ESMX 301220Z 18004KT 9999 BKN012 01/M00 Q1010=
200701301120 METAR ESMX 301120Z VRB02KT 9999 SCT010 02/M01 Q1010=
200701301050 METAR ESMX 301050Z 18002KT CAVOK 01/M01 Q1010=
200701301020 METAR ESMX 301020Z 00000KT CAVOK M01/M01 Q1010=
200701300950 METAR ESMX 300950Z 00000KT CAVOK M01/M02 Q1010=
200701300920 METAR ESMX 300920Z 00000KT CAVOK M02/M03 Q1009=
200701300850 METAR ESMX 300850Z 18001KT CAVOK M03/M04 Q1009=
200701300820 METAR ESMX 300820Z 18002KT 6000 MIFG NSC M04/M04 Q1008=
200701300750 METAR ESMX 300750Z 00000KT 9999 MIFG NSC M06/M07 Q1008=
200701300720 METAR ESMX 300720Z 00000KT CAVOK M06/M07 Q1008=
200701300650 METAR ESMX 300650Z 17002KT CAVOK M06/M07 Q1008=
200701300620 METAR ESMX 300620Z 00000KT CAVOK M06/M07 Q1007=
200701300550 METAR ESMX 300550Z 00000KT CAVOK M06/M07 Q1007=
200701300520 METAR ESMX 300520Z 21002KT CAVOK M06/M06 Q1007=
200701300450 METAR ESMX 300450Z 00000KT CAVOK M05/M05 Q1007=
200701300420 METAR ESMX 300420Z AUTO 00000KT 2700NDV FEW064/// M05/M05 Q1006=
200701300350 METAR ESMX 300350Z AUTO 26001KT 7000NDV BCFG NCD M04/M04 Q1007=
200701300320 METAR ESMX 300320Z AUTO 26002KT 5000NDV BCFG NCD M05/M05 Q1007=
200701300250 METAR ESMX 300250Z AUTO 00000KT 3800NDV BR NCD M03/M03 Q1007=
200701300220 METAR ESMX 300220Z AUTO 25003KT 2900NDV BR NCD M03/M03 Q1007=
200701300150 METAR ESMX 300150Z AUTO 26004KT 2900NDV BR FEW044/// SCT110/// M03/M03 Q1007=
200701300120 METAR ESMX 300120Z AUTO 27002KT 4300NDV BR SCT004/// M02/M02 Q1007=
200701300050 METAR ESMX 300050Z VRB01KT 7000 BKN005 M02/M02 Q1007=
200701300020 METAR ESMX 300020Z VRB02KT 9999 OVC005 M01/M02 Q1007=
200701292350 METAR ESMX 292350Z 28005KT 9999 OVC006 M01/M02 Q1007=
200701292320 METAR ESMX 292320Z 27005KT 9999 OVC006 M01/M02 Q1007=
200701292250 METAR ESMX 292250Z 26006KT 220V290 9999 BKN006 M01/M02 Q1008=
200701292220 METAR ESMX 292220Z 26004KT 220V290 9999 OVC006 M01/M02 Q1008=
200701292150 METAR ESMX 292150Z 25005KT 9999 BKN007 OVC015 M01/M02 Q1008 RESN=
200701292120 METAR ESMX 292120Z 24007KT 5000 -SN FEW010 SCT015 BKN020 M02/M03 Q1008=
200701292050 METAR ESMX 292050Z 21006KT 9999 FEW014 SCT040 BKN050 M02/M03 Q1009=
200701292020 METAR ESMX 292020Z 20007KT CAVOK M02/M04 Q1009=
200701291950 METAR ESMX 291950Z 20005KT CAVOK M03/M05 Q1010=
200701291920 METAR ESMX 291920Z 21005KT CAVOK M03/M05 Q1011=
200701291850 METAR ESMX 291850Z 22005KT CAVOK M03/M05 Q1011=
200701291820 METAR ESMX 291820Z 24005KT 190V270 CAVOK M03/M06 Q1011=
200701291750 METAR ESMX 291750Z 26006KT CAVOK M03/M06 Q1011=
200701291720 METAR ESMX 291720Z 26004KT CAVOK M04/M06 Q1012=
200701291650 METAR ESMX 291650Z 25005KT CAVOK M04/M06 Q1012=
200701291620 METAR ESMX 291620Z 27006KT CAVOK M04/M06 Q1012=
200701291550 METAR ESMX 291550Z 27006KT CAVOK M04/M06 Q1012=
200701291520 METAR ESMX 291520Z 27006KT CAVOK M03/M06 Q1012=
200701291450 METAR ESMX 291450Z 27008KT CAVOK M03/M07 Q1012=
200701291420 METAR ESMX 291420Z 29007KT CAVOK M03/M06 Q1012=
200701291350 METAR ESMX 291350Z 29008KT CAVOK M03/M06 Q1012=
200701291320 METAR ESMX 291320Z 30008KT CAVOK M03/M06 Q1012=
200701291250 METAR ESMX 291250Z 31007KT 270V340 CAVOK M03/M06 Q1012=
200701291220 METAR ESMX 291220Z 30008KT CAVOK M03/M06 Q1012=
200701291150 METAR ESMX 291150Z 29009KT 260V330 CAVOK M03/M06 Q1012=
200701291120 METAR ESMX 291120Z 31008KT 270V330 9999 FEW012 M03/M06 Q1012=
200701291050 METAR ESMX 291050Z 32008KT 300V010 9999 FEW013 M03/M06 Q1011=
200701291020 METAR ESMX 291020Z 32009KT 290V350 9999 FEW020 M04/M06 Q1011=
200701290950 METAR ESMX 290950Z 34008KT 300V010 9999 FEW014 M04/M06 Q1011=
200701290920 METAR ESMX 290920Z 33010KT 9999 FEW024 M04/M07 Q1011=
200701290850 METAR ESMX 290850Z 33009KT 9999 FEW013 SCT017 M04/M06 Q1010=
200701290820 METAR ESMX 290820Z 32011KT 9999 FEW013 SCT020 BKN027 M03/M05 Q1010=
200701290750 METAR ESMX 290750Z 33009KT 300V010 9999 FEW012 SCT016 BKN031 M03/M05 Q1009=
200701290720 METAR ESMX 290720Z 33008KT 9999 FEW011 SCT018 BKN025 M03/M04 Q1008=
200701290650 METAR ESMX 290650Z 36010KT 9999 FEW016 SCT024 BKN035 M02/M05 Q1008=
200701290550 METAR ESMX 290550Z 34010KT 9999 FEW008 BKN020 OVC033 M02/M04 Q1006=
200701290520 METAR ESMX 290520Z 31006KT 9999 FEW008 BKN042 M02/M04 Q1006=
200701290450 METAR ESMX 290450Z 32005KT 9999 FEW011 SCT017 BKN042 M02/M03 Q1005=
200701290420 METAR ESMX 290420Z 32007KT 9999 FEW010 SCT015 BKN019 M02/M03 Q1005=
200701290350 METAR ESMX 290350Z AUTO 33009KT 7000NDV SG FEW012/// BKN015/// OVC019/// M02/M03 Q1004 REUP RESN=
200701290320 METAR ESMX 290320Z AUTO 35010KT 9999NDV OVC011/// M01/M03 Q1003=
200701290250 METAR ESMX 290250Z AUTO 35007KT 9999NDV FEW011/// OVC014/// M01/M02 Q1002=
200701290220 METAR ESMX 290220Z AUTO 36008KT 9999NDV FEW009/// OVC013/// M01/M02 Q1001=
200701290150 METAR ESMX 290150Z AUTO 35009KT 9999NDV OVC012/// M01/M02 Q1001=
200701290120 METAR ESMX 290120Z 35010KT 9999 FEW008 SCT013 BKN040 M01/M02 Q1000=
200701282350 METAR ESMX 282350Z 36011KT 9999 FEW008 SCT009 OVC011 M01/M01 Q0997=
200701282320 METAR ESMX 282320Z 36011KT 9999 BKN008 M01/M01 Q0996=
200701282250 METAR ESMX 282250Z 01013KT 9999 FEW007 BKN010 OVC014 M01/M01 Q0995=
200701282220 METAR ESMX 282220Z 01013KT 9999 SG FEW006 SCT008 BKN010 M01/M01 Q0994=
200701282150 METAR ESMX 282150Z 01014KT 9999 FEW006 BKN008 OVC010 M01/M01 Q0992 RESN=
200701282120 METAR ESMX 282120Z 02012KT 8000 -SN BKN005 OVC008 M00/M00 Q0992=
200701282050 METAR ESMX 282050Z 02008KT 9000 -SN FEW002 SCT004 BKN005 00/00 Q0991=
200701282020 METAR ESMX 282020Z 01007KT 5000 -SN FEW001 BKN003 BKN007 00/00 Q0990=
200701281950 METAR ESMX 281950Z 32009KT 8000 RA FEW004 SCT005 BKN007 02/02 Q0990=
200701281920 METAR ESMX 281920Z 27006KT 5000 RA BKN002 OVC006 03/02 Q0989=
200701281850 METAR ESMX 281850Z 23005KT 3900 RA FEW001 OVC003 03/03 Q0990=
200701281750 METAR ESMX 281750Z 23003KT 190V250 0500 R19/1700U -DZ FG VV002 02/02 Q0990=
200701281720 METAR ESMX 281720Z 27002KT 0400 R19/1500 FG VV002 03/02 Q0991=
200701281650 METAR ESMX 281650Z 24003KT 0700 R01/P2000N R19/1800U FG VV002 02/02 Q0991=
200701281620 METAR ESMX 281620Z 00000KT 0700 R01/1400VP2000U R19/1700N -DZ VV002 01/01 Q0991 RERA=
200701281550 METAR ESMX 281550Z 36002KT 0600 R01/1100V1700U R19/1200V1700U -RA FEW002 BKN004 02/02 Q0991 REDZ=
200701281520 METAR ESMX 281520Z VRB01KT 0900 R19/1500N RA VV002 02/02 Q0991 REDZ=
200701281450 METAR ESMX 281450Z 18003KT 0500 R01/0800D R19/1000V1600N FG VV002 03/02 Q0991=
200701281420 METAR ESMX 281420Z 18003KT 2000 BR SCT002 OVC004 02/02 Q0992=
200701281350 METAR ESMX 281350Z 19004KT 4000 BR FEW002 SCT006 BKN015 02/02 Q0993 REDZ=
200701281320 METAR ESMX 281320Z 00000KT 4000 RA FEW006 BKN010 03/02 Q0993=
200701281250 METAR ESMX 281250Z 27004KT 6000 DZ FEW000 SCT014 BKN018 03/02 Q0994=
200701281150 METAR ESMX 281150Z AUTO 00000KT 0750NDV R01/0800V1300D R19/0900V1300N FG OVC001/// 01/01 Q0994 RERA REDZ=
200701281120 METAR ESMX 281120Z AUTO 27003KT 220V320 2900NDV R01/P2000N R19/1900N BR VV001 02/02 Q0995 RERA REDZ=
200701281050 METAR ESMX 281050Z AUTO 23005KT 2100NDV R01/1900N R19/P2000N BR VV002 01/01 Q0996 REDZ=
200701281020 METAR ESMX 281020Z AUTO 24003KT 200V270 6000NDV -DZ OVC001/// 01/01 Q0996 RERA=
200701280950 METAR ESMX 280950Z AUTO 24005KT 190V280 3200NDV BR OVC001/// 01/01 Q0997 RESG RESN REDZ=
200701280920 METAR ESMX 280920Z AUTO 24004KT 2700NDV SG OVC002/// M00/M00 Q0997 RESN REUP=
200701280850 METAR ESMX 280850Z AUTO 20005KT 3600NDV R01/1900N R19/P2000N -SN SCT002/// BKN004/// OVC006/// M01/M02 Q0998=
200701280820 METAR ESMX 280820Z AUTO 15003KT 1400NDV R01/1100VP2000U R19/1900U -SN FEW002/// SCT004/// OVC006/// M03/M03 Q0999=
200701280750 METAR ESMX 280750Z AUTO 17003KT 4700NDV -SN OVC002/// M03/M03 Q0999=
200701280720 METAR ESMX 280720Z AUTO 17005KT 2400NDV -SN OVC005/// M03/M04 Q1000 RESG=
200701280520 METAR ESMX 280520Z AUTO 16004KT 2700NDV -SN FEW009/// M05/M05 Q1004=
200701280450 METAR ESMX 280450Z AUTO 18006KT 4600NDV -SN FEW008/// SCT012/// M05/M06 Q1005=
200701280420 METAR ESMX 280420Z AUTO 19007KT 6000NDV -SN FEW014/// M05/M07 Q1006 REUP RESG=
200701280350 METAR ESMX 280350Z AUTO 20006KT 9999NDV FEW015/// M05/M07 Q1007=
200701280320 METAR ESMX 280320Z AUTO 21005KT 9000NDV IC FEW019/// SCT023/// M05/M07 Q1007 RESN=
200701280250 METAR ESMX 280250Z AUTO 21003KT 9999NDV FEW028/// BKN032/// M06/M08 Q1008=
200701280220 METAR ESMX 280220Z AUTO 21004KT 9999NDV SCT037/// BKN043/// M06/M08 Q1008=
200701280150 METAR ESMX 280150Z AUTO 20004KT 9999NDV FEW042/// OVC049/// M06/M09 Q1009=
200701280120 METAR ESMX 280120Z AUTO 24005KT 9999NDV FEW026/// BKN054/// M06/M09 Q1010=
200701280050 METAR ESMX 280050Z AUTO 24005KT 9999NDV NCD M07/M10 Q1010=
200701280020 METAR ESMX 280020Z AUTO 24005KT 9999NDV NCD M07/M10 Q1011=
200701272350 METAR ESMX 272350Z AUTO 23005KT 200V280 9999NDV NCD M07/M10 Q1011=
200701272320 METAR ESMX 272320Z AUTO 22004KT 9999NDV NCD M07/M11 Q1011=
200701272250 METAR ESMX 272250Z AUTO 26005KT 9999NDV NCD M08/M11 Q1012=
200701272220 METAR ESMX 272220Z AUTO 25005KT 9999NDV NCD M07/M11 Q1012=
200701272150 METAR ESMX 272150Z AUTO 26006KT 9999NDV NCD M07/M11 Q1012=
200701272120 METAR ESMX 272120Z AUTO 27007KT 9999NDV NCD M07/M11 Q1012=
200701272050 METAR ESMX 272050Z AUTO 26006KT 9999NDV NCD M07/M11 Q1013=
200701272020 METAR ESMX 272020Z AUTO 26006KT 9999NDV NCD M07/M11 Q1013=
200701271950 METAR ESMX 271950Z AUTO 27006KT 9999NDV NCD M07/M11 Q1013=
200701271920 METAR ESMX 271920Z AUTO 27007KT 9999NDV NCD M07/M11 Q1013=
200701271850 METAR ESMX 271850Z AUTO 27004KT 9999NDV NCD M07/M11 Q1013=
200701271820 METAR ESMX 271820Z AUTO 27005KT 9999NDV NCD M07/M11 Q1013=
200701271750 METAR ESMX 271750Z AUTO 27004KT 9999NDV NCD M06/M11 Q1013=
200701271720 METAR ESMX 271720Z AUTO 26005KT 230V300 9999NDV NCD M06/M10 Q1013=
200701271650 METAR ESMX 271650Z AUTO 29007KT 9999NDV NCD M05/M10 Q1012=
200701271620 METAR ESMX 271620Z AUTO 30008KT 9999NDV NCD M05/M10 Q1012=
200701271550 METAR ESMX 271550Z AUTO 30009KT 9999NDV NCD M05/M10 Q1012=
200701271520 METAR ESMX 271520Z AUTO 31010KT 9999NDV NCD M04/M10 Q1012=
200701271450 METAR ESMX 271450Z AUTO 31008KT 9999NDV NCD M04/M09 Q1011=
200701271420 METAR ESMX 271420Z AUTO 31010KT 270V340 9999NDV NCD M03/M09 Q1011=
200701271350 METAR ESMX 271350Z AUTO 31011KT 9999NDV NCD M03/M09 Q1011=
200701271320 METAR ESMX 271320Z AUTO 32010KT 290V350 9999NDV NCD M03/M09 Q1010=
200701271250 METAR ESMX 271250Z AUTO 32011KT 9999NDV NCD M03/M08 Q1010=
200701271220 METAR ESMX 271220Z AUTO 32012KT 9999NDV FEW026/// M03/M08 Q1010=
200701271150 METAR ESMX 271150Z AUTO 31012KT 9999NDV NCD M03/M07 Q1009=
200701271120 METAR ESMX 271120Z AUTO 32010KT 290V350 9999NDV NCD M04/M07 Q1009=
200701271050 METAR ESMX 271050Z AUTO 32009KT 9999NDV NCD M04/M08 Q1009=
200701271020 METAR ESMX 271020Z AUTO 31007KT 9999NDV BKN025/// M05/M08 Q1009=
200701270950 METAR ESMX 270950Z AUTO 31008KT 280V350 9999NDV FEW026/// M05/M08 Q1008=
200701270920 METAR ESMX 270920Z AUTO 30010KT 9999NDV NCD M05/M08 Q1008=
200701270850 METAR ESMX 270850Z AUTO 30008KT 270V350 9999NDV NCD M06/M08 Q1007=
200701270820 METAR ESMX 270820Z AUTO 30009KT 9999NDV NCD M06/M09 Q1006=
200701270750 METAR ESMX 270750Z AUTO 30006KT 9999NDV NCD M07/M09 Q1006=
200701270720 METAR ESMX 270720Z AUTO 30007KT 9999NDV NCD M07/M09 Q1005=
200701270650 METAR ESMX 270650Z AUTO 30006KT 9999NDV NCD M07/M09 Q1005=
200701270620 METAR ESMX 270620Z AUTO 31009KT 9999NDV NCD M06/M08 Q1004=
200701270550 METAR ESMX 270550Z AUTO 31007KT 9999NDV NCD M06/M08 Q1003=
200701270520 METAR ESMX 270520Z AUTO 31008KT 280V340 9999NDV NCD M06/M08 Q1003=
200701270450 METAR ESMX 270450Z AUTO 30007KT 9999NDV NCD M06/M08 Q1002=
200701270420 METAR ESMX 270420Z AUTO 30006KT 9999NDV NCD M06/M08 Q1002=
200701270350 METAR ESMX 270350Z AUTO 28005KT 9999NDV NCD M06/M07 Q1002=
200701270320 METAR ESMX 270320Z AUTO 27005KT 9999NDV NCD M06/M07 Q1002=
200701270250 METAR ESMX 270250Z AUTO 28006KT 9999NDV NCD M06/M07 Q1001=
200701270220 METAR ESMX 270220Z AUTO 30007KT 9999NDV NCD M05/M07 Q1001=
200701270150 METAR ESMX 270150Z AUTO 30006KT 9999NDV NCD M05/M06 Q1001=
200701270120 METAR ESMX 270120Z AUTO 29008KT 9999NDV NCD M04/M06 Q1000=
200701270050 METAR ESMX 270050Z AUTO 31007KT 9999NDV NCD M04/M06 Q1000=
200701270020 METAR ESMX 270020Z AUTO 31008KT 9999NDV NCD M04/M06 Q1000=
200701262350 METAR ESMX 262350Z AUTO 31009KT 9999NDV NCD M04/M06 Q0999=
200701262320 METAR ESMX 262320Z AUTO 30009KT 9999NDV NCD M04/M05 Q0999=
200701262250 METAR ESMX 262250Z AUTO 31007KT 9999NDV NCD M03/M05 Q0999=
200701262220 METAR ESMX 262220Z AUTO 31008KT 9999NDV NCD M03/M05 Q0998=
200701262150 METAR ESMX 262150Z AUTO 32008KT 9999NDV NCD M02/M04 Q0998=
200701262120 METAR ESMX 262120Z AUTO 32009KT 290V350 9999NDV NCD M02/M04 Q0998=
200701262050 METAR ESMX 262050Z AUTO 31010KT 290V350 9999NDV NCD M02/M03 Q0997=
200701262020 METAR ESMX 262020Z AUTO 32008KT 9999NDV NCD M02/M03 Q0997=
200701261950 METAR ESMX 261950Z AUTO 32008KT 9999NDV NCD M01/M03 Q0996=
200701261920 METAR ESMX 261920Z AUTO 34010KT 9999NDV NCD M01/M02 Q0996=
200701261850 METAR ESMX 261850Z 34010KT 9999 FEW010 BKN060 M01/M02 Q0995=
200701261820 METAR ESMX 261820Z 33013KT 4100 SN FEW007 BKN013 M01/M01 Q0995=
200701261750 METAR ESMX 261750Z 35014KT 9999 -SN FEW007 BKN011 M00/M01 Q0994 RESN=
200701261720 METAR ESMX 261720Z 33011KT 290V350 2000 SN FEW006 BKN011 00/M00 Q0994=
200701261650 METAR ESMX 261650Z 31008KT 5000 -SN SCT008 BKN030 00/M00 Q0993=
200701261620 METAR ESMX 261620Z 30008KT 270V330 8000 -SN FEW011 SCT036 BKN100 00/M00 Q0993=
200701261550 METAR ESMX 261550Z 29009KT 9999 -SN FEW008 BKN018 01/M00 Q0993=
200701261520 METAR ESMX 261520Z 28008KT 9999 FEW018 BKN020 01/00 Q0993=
200701261450 METAR ESMX 261450Z 29008KT 9999 FEW018 BKN025 01/00 Q0993=
200701261420 METAR ESMX 261420Z 29006KT 9999 FEW008 BKN013 01/01 Q0993=
200701261350 METAR ESMX 261350Z 27006KT 240V300 9999 FEW006 BKN011 01/01 Q0993=
200701261320 METAR ESMX 261320Z 30010KT 9999 FEW005 BKN006 OVC010 01/01 Q0992=
200701261250 METAR ESMX 261250Z 27008KT 9999 FEW003 BKN005 OVC008 01/01 Q0992 RERA=
200701261220 METAR ESMX 261220Z 22008KT 190V250 9999 -RA SCT003 OVC006 01/01 Q0992 RESN=
200701261150 METAR ESMX 261150Z 21010KT 1500 R19/0600VP2000D +SN VV005 00/00 Q0993=
200701261050 METAR ESMX 261050Z 19013KT 3000 -SN BKN006 BKN010 M01/M01 Q0994=
200701261020 METAR ESMX 261020Z 19013KT 1600 SN SCT007 BKN009 M01/M01 Q0995=
200701260950 METAR ESMX 260950Z 19014KT 2500 -SN BKN007 OVC009 M01/M02 Q0996=
200701260920 METAR ESMX 260920Z 19016KT 6000 -SN BKN007 OVC011 M01/M02 Q0997 RESG=
200701260850 METAR ESMX 260850Z 19015KT 5000 -SN BKN007 OVC010 M02/M02 Q0997 RESG=
200701260820 METAR ESMX 260820Z 19015KT 4500 SG FEW008 OVC009 M02/M03 Q0998=
200701260750 METAR ESMX 260750Z 19017KT 3500 -SN FEW007 BKN010 OVC013 M02/M03 Q0999=
200701260720 METAR ESMX 260720Z 19015KT 3500 -SN FEW007 SCT011 BKN013 M02/M03 Q1000=
200701260650 METAR ESMX 260650Z 19015KT 3500 -SN OVC009 M03/M04 Q1001=
200701260620 METAR ESMX 260620Z 19015KT 9999 OVC010 M03/M05 Q1002=
200701260550 METAR ESMX 260550Z 19016KT 9999 OVC010 M03/M05 Q1002 RESG=
200701260520 METAR ESMX 260520Z 19015KT 9999 -SG OVC010 M04/M05 Q1003=
200701260450 METAR ESMX 260450Z 20015G25KT 7000 -SG OVC010 M04/M05 Q1005=
200701260420 METAR ESMX 260420Z AUTO 20014KT 9999NDV FEW010/// SCT014/// OVC017/// M04/M06 Q1005=
200701260350 METAR ESMX 260350Z AUTO 21015KT 9999NDV FEW011/// SCT021/// BKN033/// M05/M06 Q1006=
200701260320 METAR ESMX 260320Z AUTO 20012KT 9999NDV OVC019/// M05/M06 Q1007=
200701260250 METAR ESMX 260250Z AUTO 20014KT 9999NDV OVC017/// M06/M07 Q1008=
200701260220 METAR ESMX 260220Z AUTO 20013KT 9999NDV FEW019/// SCT022/// OVC025/// M06/M07 Q1008=
200701260150 METAR ESMX 260150Z AUTO 20012KT 9999NDV FEW019/// OVC030/// M07/M08 Q1009=
200701260120 METAR ESMX 260120Z 21012KT 9999 BKN035 M07/M08 Q1010=
200701260050 METAR ESMX 260050Z 22011KT 9999 BKN042 M07/M09 Q1011=
200701260020 METAR ESMX 260020Z 20008KT 9999 BKN047 M08/M09 Q1012=
200701252350 METAR ESMX 252350Z 20007KT 9999 BKN045 M09/M10 Q1012=
200701252320 METAR ESMX 252320Z 21006KT CAVOK M11/M12 Q1013=
200701252250 METAR ESMX 252250Z 21006KT CAVOK M11/M12 Q1014=
200701252220 METAR ESMX 252220Z 20005KT CAVOK M11/M12 Q1014=
200701252150 METAR ESMX 252150Z 19004KT CAVOK M11/M12 Q1015=
200701252120 METAR ESMX 252120Z 17004KT CAVOK M12/M13 Q1015=
200701252050 METAR ESMX 252050Z 21004KT CAVOK M11/M12 Q1016=
200701252020 METAR ESMX 252020Z 17004KT CAVOK M11/M12 Q1016=
200701251950 METAR ESMX 251950Z 17003KT CAVOK M11/M12 Q1017=
200701251920 METAR ESMX 251920Z 26003KT CAVOK M12/M13 Q1017=
200701251850 METAR ESMX 251850Z 26002KT CAVOK M11/M12 Q1018=
200701251820 METAR ESMX 251820Z 27002KT CAVOK M11/M11 Q1018=
200701251750 METAR ESMX 251750Z 27003KT CAVOK M11/M12 Q1018=
200701251720 METAR ESMX 251720Z 27003KT CAVOK M11/M11 Q1018=
200701251650 METAR ESMX 251650Z 28003KT CAVOK M09/M11 Q1018=
200701251620 METAR ESMX 251620Z 31005KT CAVOK M08/M10 Q1019=
200701251550 METAR ESMX 251550Z 31004KT 9999 FEW014 M07/M09 Q1018=
200701251520 METAR ESMX 251520Z 30005KT 9999 FEW013 M07/M09 Q1019=
200701251450 METAR ESMX 251450Z 31007KT 9999 SCT014 M06/M09 Q1019=
200701251420 METAR ESMX 251420Z 32006KT 9999 SCT014 M05/M08 Q1019=
200701251320 METAR ESMX 251320Z 33006KT 9999 FEW032 SCT039 M05/M08 Q1019=
200701251250 METAR ESMX 251250Z 03005KT 9999 BKN029 M05/M07 Q1019=
200701251220 METAR ESMX 251220Z 35008KT 9999 FEW019 BKN026 M05/M07 Q1019=
200701251150 METAR ESMX 251150Z 36009KT 330V040 9999 FEW015 SCT022 BKN030 M05/M08 Q1019=
200701251120 METAR ESMX 251120Z 35008KT 9999 BKN015 M05/M08 Q1019=
200701251050 METAR ESMX 251050Z 35009KT 9999 BKN015 M06/M08 Q1020=
200701251020 METAR ESMX 251020Z 36012KT 320V020 9999 FEW016 M06/M09 Q1020=
200701250950 METAR ESMX 250950Z 36013KT 9999 SCT015 M07/M09 Q1020=
200701250920 METAR ESMX 250920Z 35012KT CAVOK M07/M10 Q1020=
200701250850 METAR ESMX 250850Z 36011KT CAVOK M08/M10 Q1020=
200701250820 METAR ESMX 250820Z 34010KT CAVOK M09/M11 Q1020=
200701250750 METAR ESMX 250750Z 33009KT CAVOK M09/M11 Q1020=
200701250720 METAR ESMX 250720Z 34010KT 9999 FEW010 M09/M11 Q1020=
200701250650 METAR ESMX 250650Z 34012KT 9999 FEW008 M10/M11 Q1020=
200701250620 METAR ESMX 250620Z 32008KT 9999 FEW009 M10/M12 Q1019=
200701250550 METAR ESMX 250550Z 34009KT 9999 NSC M10/M11 Q1019=
200701250520 METAR ESMX 250520Z 35011KT CAVOK M09/M11 Q1019=
200701250450 METAR ESMX 250450Z 36010KT CAVOK M09/M10 Q1020=
200701250420 METAR ESMX 250420Z AUTO 36010KT 9999NDV FEW011/// M08/M10 Q1020=
200701250350 METAR ESMX 250350Z AUTO 35013KT 9999NDV FEW014/// M08/M10 Q1020=
200701250320 METAR ESMX 250320Z AUTO 01013KT 9999NDV IC BKN016/// M07/M09 Q1019 RESG RESN=
200701250250 METAR ESMX 250250Z AUTO 36013KT 9999NDV IC OVC014/// M06/M09 Q1019=
200701250220 METAR ESMX 250220Z AUTO 35013KT 9999NDV IC OVC015/// M06/M09 Q1019 RESG=
200701250150 METAR ESMX 250150Z AUTO 36013KT 9999NDV -SN FEW015/// OVC018/// M06/M09 Q1019=
200701250120 METAR ESMX 250120Z AUTO 35013KT 9999NDV BKN017/// BKN021/// M06/M09 Q1019=
200701250050 METAR ESMX 250050Z 02012KT 9999 IC FEW015 BKN018 M06/M09 Q1019=
200701242350 METAR ESMX 242350Z 03011KT 9999 OVC016 M06/M09 Q1019=
200701242320 METAR ESMX 242320Z 36012KT 340V040 9999 FEW014 BKN016 M06/M08 Q1019=
200701242250 METAR ESMX 242250Z 02013KT 340V050 9999 FEW011 OVC013 M06/M08 Q1019=
200701242220 METAR ESMX 242220Z 02014KT 9999 OVC010 M06/M08 Q1018=
200701242150 METAR ESMX 242150Z 01012KT 9999 OVC009 M06/M08 Q1018=
200701242120 METAR ESMX 242120Z 01012KT 9999 OVC010 M06/M08 Q1018=
200701242050 METAR ESMX 242050Z 36017KT 9999 OVC011 M07/M08 Q1018=
200701242020 METAR ESMX 242020Z 36014KT 9999 BKN011 M07/M08 Q1018=
200701241950 METAR ESMX 241950Z 01013KT 9999 BKN011 M07/M08 Q1017=
200701241920 METAR ESMX 241920Z 36013KT 9999 BKN011 M06/M08 Q1017=
200701241820 METAR ESMX 241820Z 02013KT 9999 BKN011 M06/M08 Q1016=
200701241750 METAR ESMX 241750Z 01013KT 9999 FEW011 M07/M08 Q1016=
200701241720 METAR ESMX 241720Z 35011KT 9999 FEW013 M07/M08 Q1016=
200701241650 METAR ESMX 241650Z 36010KT 9999 FEW012 M06/M08 Q1015=
200701241620 METAR ESMX 241620Z 02010KT 340V060 9999 SCT014 SCT018 M05/M07 Q1015=
200701241550 METAR ESMX 241550Z 04010KT 350V060 9999 FEW015 SCT017 BKN020 M05/M07 Q1015=
200701241520 METAR ESMX 241520Z 04010KT 9999 FEW014 OVC017 M04/M07 Q1014=
200701241450 METAR ESMX 241450Z 03011KT 360V070 9999 OVC013 M04/M07 Q1014=
200701241420 METAR ESMX 241420Z 04011KT 010V070 9999 OVC015 M04/M07 Q1014=
200701241350 METAR ESMX 241350Z 03010KT 340V060 9999 SCT013 OVC020 M04/M07 Q1013=
200701241320 METAR ESMX 241320Z 02011KT 9999 OVC015 M04/M07 Q1013=
200701241250 METAR ESMX 241250Z 03012KT 9999 BKN014 OVC020 M04/M07 Q1013=
200701241220 METAR ESMX 241220Z 03012KT 9999 OVC014 M04/M06 Q1013=
200701241150 METAR ESMX 241150Z 03011KT 360V060 9999 SCT012 OVC016 M04/M07 Q1012=
200701241120 METAR ESMX 241120Z 04013KT 360V080 9999 OVC013 M04/M07 Q1012=
200701241020 METAR ESMX 241020Z 06009KT 9999 OVC015 M04/M06 Q1011=
200701240950 METAR ESMX 240950Z 04009KT 010V070 9999 OVC015 M04/M06 Q1011=
200701240920 METAR ESMX 240920Z 03007KT 360V080 9999 OVC016 M04/M06 Q1011=
200701240850 METAR ESMX 240850Z 04007KT 010V070 9999 OVC015 M04/M06 Q1010=
200701240820 METAR ESMX 240820Z 06008KT 020V100 9999 OVC015 M04/M06 Q1010=
200701240720 METAR ESMX 240720Z 05008KT 020V110 9999 OVC015 M04/M06 Q1010=
200701240650 METAR ESMX 240650Z 05008KT 010V110 9999 OVC014 M04/M06 Q1010=
200701240620 METAR ESMX 240620Z 05007KT 020V080 9999 OVC014 M04/M05 Q1009=
200701240550 METAR ESMX 240550Z 02008KT 9999 OVC011 M04/M05 Q1009=
200701240520 METAR ESMX 240520Z 04008KT 010V070 9999 OVC010 M04/M05 Q1009=
200701240450 METAR ESMX 240450Z 01007KT 350V060 9999 OVC011 M04/M05 Q1009=
200701240420 METAR ESMX 240420Z AUTO 03008KT 360V070 9999NDV OVC010/// M03/M05 Q1008=
200701240350 METAR ESMX 240350Z AUTO 02005KT 350V060 9999NDV OVC012/// M03/M05 Q1008=
200701240320 METAR ESMX 240320Z AUTO 02005KT 360V060 9999NDV FEW012/// OVC015/// M03/M05 Q1008=
200701240250 METAR ESMX 240250Z AUTO 02005KT 350V050 9999NDV OVC015/// M03/M05 Q1008=
200701240220 METAR ESMX 240220Z AUTO 35004KT 9999NDV OVC016/// M03/M04 Q1008=
200701240150 METAR ESMX 240150Z AUTO 01004KT 320V050 9999NDV OVC015/// M03/M04 Q1008=
200701240120 METAR ESMX 240120Z AUTO VRB01KT 9999NDV OVC015/// M03/M04 Q1008=
200701232350 METAR ESMX 232350Z 29002KT 9999 OVC013 M03/M03 Q1008=
200701232320 METAR ESMX 232320Z 27002KT 9999 OVC015 M02/M03 Q1008=
200701232250 METAR ESMX 232250Z 25002KT 9999 SCT006 BKN017 OVC019 M02/M03 Q1008=
200701232220 METAR ESMX 232220Z 22002KT 9999 BKN004 OVC007 M02/M03 Q1008=
200701232150 METAR ESMX 232150Z 21002KT 9999 BKN004 OVC007 M02/M03 Q1008=
200701232120 METAR ESMX 232120Z 20002KT 9999 SCT005 OVC019 M02/M03 Q1008=
200701232050 METAR ESMX 232050Z 22004KT 9999 OVC006 M02/M03 Q1008=
200701232020 METAR ESMX 232020Z 21005KT 9999 OVC005 M02/M03 Q1008 RESN=
200701231950 METAR ESMX 231950Z 22003KT 9000 -SN BKN006 OVC008 M03/M03 Q1008=
200701231920 METAR ESMX 231920Z 19005KT 5000 -SN OVC005 M02/M03 Q1008 REUP=
200701231750 METAR ESMX 231750Z 21007KT 9999 -SN BKN006 M02/M03 Q1009=
200701231720 METAR ESMX 231720Z 19008KT 9999 -SN BKN006 OVC010 M03/M03 Q1008=
200701231650 METAR ESMX 231650Z 18007KT 4000 -SN FEW008 BKN014 M03/M03 Q1009 RESN=
200701231620 METAR ESMX 231620Z 18008KT 0750 R19/1700U SN FEW008 BKN045 M03/M03 Q1009=
200701231550 METAR ESMX 231550Z 17009KT 1100 R19/1500VP2000N SN SCT005 BKN035 M03/M03 Q1009 RESN=
200701231520 METAR ESMX 231520Z 16008KT 130V190 0650 R19/1000VP2000N +SN VV002 M03/M04 Q1010=
200701231450 METAR ESMX 231450Z 17008KT 130V190 2500 SN SCT007 BKN023 M03/M05 Q1010=
200701231420 METAR ESMX 231420Z 17007KT 140V200 9999 -SN FEW011 SCT024 BKN032 M03/M04 Q1011=
200701231350 METAR ESMX 231350Z 17008KT 140V200 9999 -SN FEW025 BKN042 M03/M04 Q1011=
200701231320 METAR ESMX 231320Z 17008KT 9999 FEW030 BKN050 M03/M05 Q1012=
200701231250 METAR ESMX 231250Z 17005KT 140V200 9999 FEW015 SCT040 M03/M05 Q1012 RESN=
200701231220 METAR ESMX 231220Z 16005KT 120V190 9999 -SN FEW015 SCT060 M04/M05 Q1012=
200701231150 METAR ESMX 231150Z 18007KT CAVOK M04/M06 Q1013=
200701231120 METAR ESMX 231120Z 17006KT CAVOK M04/M06 Q1013=
200701231050 METAR ESMX 231050Z 17004KT 140V210 CAVOK M05/M07 Q1014=
200701231020 METAR ESMX 231020Z 19005KT CAVOK M06/M07 Q1014=
200701230950 METAR ESMX 230950Z 17003KT 150V220 CAVOK M06/M08 Q1015=
200701230920 METAR ESMX 230920Z 16003KT CAVOK M07/M09 Q1014=
200701230850 METAR ESMX 230850Z 17004KT 140V200 CAVOK M07/M08 Q1015=
200701230820 METAR ESMX 230820Z 17003KT 140V210 CAVOK M08/M09 Q1015=
200701230750 METAR ESMX 230750Z 17002KT CAVOK M10/M11 Q1015=
200701230720 METAR ESMX 230720Z 15003KT CAVOK M11/M12 Q1015=
200701230650 METAR ESMX 230650Z 17003KT CAVOK M10/M11 Q1015=
200701230620 METAR ESMX 230620Z VRB01KT CAVOK M10/M11 Q1016=
200701230550 METAR ESMX 230550Z 17003KT CAVOK M09/M10 Q1016=
200701230520 METAR ESMX 230520Z 18003KT CAVOK M10/M11 Q1015=
200701230450 METAR ESMX 230450Z 17003KT CAVOK M10/M10 Q1015=
200701230420 METAR ESMX 230420Z AUTO 22003KT 9999NDV NCD M11/M12 Q1015=
200701230350 METAR ESMX 230350Z AUTO 24004KT 9999NDV NCD M12/M13 Q1015=
200701230320 METAR ESMX 230320Z AUTO 00000KT 9999NDV NCD M11/M12 Q1015=
200701230250 METAR ESMX 230250Z AUTO 25002KT 9999NDV NCD M11/M12 Q1015=
200701230220 METAR ESMX 230220Z AUTO 25002KT 9999NDV NCD M10/M11 Q1015=
200701230150 METAR ESMX 230150Z AUTO 24003KT 9999NDV NCD M10/M11 Q1016=
200701230120 METAR ESMX 230120Z 30004KT 9999 FEW010 M09/M11 Q1015=
200701230050 METAR ESMX 230050Z 32006KT 9999 BKN011 M08/M10 Q1016=
200701230020 METAR ESMX 230020Z 32006KT 9999 BKN013 M07/M09 Q1016=
200701222350 METAR ESMX 222350Z 32006KT 9999 BKN014 M07/M09 Q1016=
200701222320 METAR ESMX 222320Z 29006KT 9999 IC OVC012 M06/M08 Q1015 RESN=
200701222220 METAR ESMX 222220Z 31008KT 9999 FEW013 SCT016 OVC019 M06/M08 Q1015=
200701222150 METAR ESMX 222150Z 32009KT 9999 SCT013 OVC020 M06/M08 Q1015=
200701222120 METAR ESMX 222120Z 31009KT 9999 SCT011 BKN016 OVC020 M06/M08 Q1014 RESN=
200701222050 METAR ESMX 222050Z 34011KT 9999 -SN FEW015 OVC019 M06/M08 Q1014=
200701222020 METAR ESMX 222020Z 35014KT 9999 BKN017 M06/M08 Q1014=
200701221950 METAR ESMX 221950Z 34010KT 300V010 9999 FEW013 BKN016 M06/M08 Q1013=
200701221920 METAR ESMX 221920Z 34013KT 9999 FEW013 OVC017 M06/M08 Q1013 RESN RESG=
200701221850 METAR ESMX 221850Z 35010KT 9999 FEW011 BKN017 M06/M08 Q1013 RESN=
200701221820 METAR ESMX 221820Z 35012KT 9999 BKN012 M06/M08 Q1012=
200701221750 METAR ESMX 221750Z 01012KT 9999 FEW014 M06/M09 Q1012=
200701221720 METAR ESMX 221720Z 35015KT 9999 BKN013 M06/M08 Q1011=
200701221650 METAR ESMX 221650Z 01014KT 9999 -SN BKN013 OVC020 M06/M08 Q1011=
200701221620 METAR ESMX 221620Z 35015KT 9999 BKN012 OVC021 M06/M08 Q1011=
200701221550 METAR ESMX 221550Z 35012KT 9999 FEW011 BKN017 M05/M07 Q1010=
200701221520 METAR ESMX 221520Z 35014KT 9999 BKN010 OVC020 M05/M08 Q1010=
200701221450 METAR ESMX 221450Z 01016KT 340V040 9999 FEW012 OVC015 M05/M08 Q1009=
200701221420 METAR ESMX 221420Z 34018KT 9999 BKN011 BKN020 M06/M08 Q1009=
200701221350 METAR ESMX 221350Z 35014KT 9999 BKN010 M05/M07 Q1009=
200701221320 METAR ESMX 221320Z 36012KT 320V020 8000 BKN010 BKN020 M05/M07 Q1008=
200701221250 METAR ESMX 221250Z 36012KT 9999 BKN010 BKN020 M05/M07 Q1008=
200701221220 METAR ESMX 221220Z 01013KT 320V030 9999 -SN FEW010 BKN015 M05/M06 Q1007=
200701221150 METAR ESMX 221150Z 01014KT 9999 FEW012 SCT030 M05/M06 Q1007=
200701221120 METAR ESMX 221120Z 01011KT 340V050 4500 -SN FEW008 SCT015 M05/M06 Q1007=
200701221050 METAR ESMX 221050Z 36011KT 4000 -SN FEW011 M05/M06 Q1007=
200701221020 METAR ESMX 221020Z 35010KT 5000 -SN SCT008 BKN150 M05/M06 Q1006=
200701220950 METAR ESMX 220950Z 36011KT 4000 -SN FEW007 SCT011 M05/M06 Q1006=
200701220920 METAR ESMX 220920Z 35009KT 5000 -SN FEW008 SCT015 BKN033 M04/M06 Q1006=
200701220850 METAR ESMX 220850Z 01010KT 9999 -SN FEW011 BKN039 M04/M06 Q1005=
200701220820 METAR ESMX 220820Z 01009KT 8000 -SN SCT010 BKN015 M04/M05 Q1004=
200701220750 METAR ESMX 220750Z 01009KT 9999 -SN SCT009 BKN017 M04/M05 Q1004=
200701220720 METAR ESMX 220720Z 01008KT 9000 -SN FEW009 BKN010 BKN051 M04/M05 Q1004=
200701220650 METAR ESMX 220650Z 35009KT 9999 -SN BKN014 M03/M05 Q1003=
200701220620 METAR ESMX 220620Z 35010KT 9999 -SN BKN017 OVC033 M03/M04 Q1003=
200701220550 METAR ESMX 220550Z 35009KT 9999 -SN FEW015 SCT026 OVC036 M03/M04 Q1003=
200701220520 METAR ESMX 220520Z 35008KT 9999 -SN FEW009 SCT025 OVC034 M03/M04 Q1002=
200701220450 METAR ESMX 220450Z 35009KT 9999 -SN FEW007 SCT009 BKN022 M03/M04 Q1002=
200701220420 METAR ESMX 220420Z AUTO 34006KT 1300NDV R01/1900N R19/P2000N -SN FEW006/// SCT008/// BKN009/// M03/M04 Q1002=
200701220350 METAR ESMX 220350Z AUTO 35008KT 5000NDV -SN FEW008/// BKN026/// M03/M04 Q1002=
200701220320 METAR ESMX 220320Z AUTO 34007KT 9999NDV -SN FEW006/// SCT008/// BKN023/// M03/M03 Q1001 RESG=
200701220250 METAR ESMX 220250Z AUTO 36007KT 8000NDV -SN FEW007/// BKN020/// OVC025/// M02/M03 Q1001=
200701220220 METAR ESMX 220220Z AUTO 34008KT 320V020 9999NDV -SN FEW006/// SCT008/// BKN016/// M02/M03 Q1001=
200701220150 METAR ESMX 220150Z 34008KT 5000 -SN FEW004 BKN007 M02/M03 Q1000=
200701220120 METAR ESMX 220120Z 35006KT 5000 -SN FEW005 SCT013 BKN017 M02/M02 Q1000=
200701220050 METAR ESMX 220050Z 34009KT 4500 -SN FEW006 SCT008 OVC014 M02/M02 Q1000=
200701220020 METAR ESMX 220020Z 36007KT 330V030 9999 FEW009 BKN018 BKN035 M02/M03 Q0999=
200701212350 METAR ESMX 212350Z 33007KT 290V350 9999 FEW009 SCT014 BKN018 M02/M02 Q0999=
200701212220 METAR ESMX 212220Z 35009KT 4000 -SN FEW005 SCT007 BKN009 M01/M02 Q0997=
200701212150 METAR ESMX 212150Z 35008KT 2000 -SN FEW005 SCT007 BKN009 M01/M01 Q0996=
200701212120 METAR ESMX 212120Z 35011KT 3000 -SN FEW008 OVC012 M01/M02 Q0996=
200701212050 METAR ESMX 212050Z 01010KT 340V070 9999 -SN FEW009 BKN014 M00/M01 Q0994=
200701212020 METAR ESMX 212020Z 01009KT 340V050 9999 -SN FEW008 SCT012 BKN017 00/M01 Q0993=
200701211950 METAR ESMX 211950Z 01009KT 9999 -SN FEW007 SCT010 BKN015 00/M00 Q0992=
200701211920 METAR ESMX 211920Z 01008KT 8000 -SN FEW007 BKN009 OVC013 00/M00 Q0991=
200701211850 METAR ESMX 211850Z 01009KT 9999 FEW004 BKN010 01/00 Q0991=
200701211820 METAR ESMX 211820Z 29006KT 9999 -RA SCT004 BKN013 BKN019 01/01 Q0990=
200701211750 METAR ESMX 211750Z 30007KT 270V340 2600 RASN FEW004 SCT005 BKN008 01/01 Q0989=
200701211720 METAR ESMX 211720Z 22009KT 190V250 4700 RASN FEW005 SCT008 BKN009 03/02 Q0988=
200701211650 METAR ESMX 211650Z 21006KT 5000 RA FEW009 SCT012 BKN017 03/02 Q0988 REDZ=
200701211620 METAR ESMX 211620Z 20009KT 8000 DZ FEW017 OVC020 03/02 Q0988 RERA=
200701211550 METAR ESMX 211550Z 20009KT 9999 FEW019 BKN021 03/02 Q0988=
200701211520 METAR ESMX 211520Z 21009KT 9999 NSC 03/01 Q0988=
200701211450 METAR ESMX 211450Z 21010KT 170V250 9999 FEW019 04/01 Q0987=
200701211420 METAR ESMX 211420Z 23011KT 200V260 9999 FEW021 04/01 Q0987=
200701211350 METAR ESMX 211350Z 23009KT 200V260 9999 FEW022 04/01 Q0988=
200701211320 METAR ESMX 211320Z 22008KT 9999 FEW027 04/01 Q0987=
200701211250 METAR ESMX 211250Z 23014KT 200V260 9999 FEW031 05/00 Q0987=
200701211220 METAR ESMX 211220Z AUTO 24009KT 200V280 9999NDV FEW026/// SCT044/// 05/01 Q0987=
200701211150 METAR ESMX 211150Z AUTO 23011KT 200V270 9999NDV FEW023/// SCT027/// BKN033/// 05/01 Q0987=
200701211120 METAR ESMX 211120Z AUTO 24013KT 210V290 9999NDV BKN023/// OVC034/// 05/01 Q0987=
200701211050 METAR ESMX 211050Z AUTO 25010KT 220V290 9999NDV FEW023/// SCT026/// BKN033/// 05/01 Q0987=
200701211020 METAR ESMX 211020Z AUTO 23011KT 170V260 9999NDV FEW022/// BKN026/// 05/01 Q0987=
200701210950 METAR ESMX 210950Z AUTO 24013G24KT 210V270 9999NDV FEW023/// SCT030/// 05/01 Q0987=
200701210920 METAR ESMX 210920Z AUTO 22012KT 190V260 9999NDV FEW024/// 04/01 Q0987=
200701210850 METAR ESMX 210850Z AUTO 22011KT 190V250 9999NDV FEW025/// 04/00 Q0987=
200701210820 METAR ESMX 210820Z AUTO 23013KT 200V260 9999NDV FEW026/// SCT032/// BKN038/// 04/M00 Q0986=
200701210750 METAR ESMX 210750Z AUTO 23015G28KT 200V260 9999NDV FEW025/// SCT040/// 04/00 Q0986=
200701210720 METAR ESMX 210720Z AUTO 24017G28KT 9999NDV FEW029/// 04/00 Q0985=
200701210650 METAR ESMX 210650Z AUTO 23016G27KT 200V260 9999NDV FEW027/// BKN037/// 04/00 Q0985=
200701210620 METAR ESMX 210620Z AUTO 25018G32KT 210V280 9999NDV FEW027/// SCT032/// BKN038/// 04/00 Q0985=
200701210550 METAR ESMX 210550Z AUTO 24017G29KT 9999NDV FEW026/// SCT031/// 04/00 Q0985=
200701210520 METAR ESMX 210520Z AUTO 23017G27KT 9999NDV FEW030/// 04/00 Q0985=
200701210450 METAR ESMX 210450Z AUTO 23019G31KT 200V270 9999NDV FEW020/// SCT026/// BKN030/// 05/00 Q0985=
200701210420 METAR ESMX 210420Z AUTO 25017G31KT 210V270 9999NDV FEW024/// BKN031/// BKN040/// 04/00 Q0985=
200701210350 METAR ESMX 210350Z AUTO 22018KT 9999NDV FEW027/// SCT031/// 04/01 Q0985=
200701210320 METAR ESMX 210320Z AUTO 23016KT 200V260 9999NDV FEW009/// SCT028/// 04/01 Q0985 REDZ=
200701210250 METAR ESMX 210250Z AUTO 23016G27KT 200V260 9000NDV FEW015/// SCT022/// BKN027/// 04/01 Q0985 RERA REDZ=
200701210220 METAR ESMX 210220Z AUTO 23018KT 190V260 7000NDV -DZ FEW013/// SCT030/// BKN038/// 04/01 Q0985 RERA=
200701210150 METAR ESMX 210150Z AUTO 25016G30KT 9999NDV FEW025/// SCT032/// BKN038/// 04/00 Q0985 RERA REDZ=
200701210120 METAR ESMX 210120Z AUTO 25019G29KT 200V270 9999NDV FEW025/// SCT030/// BKN035/// 05/01 Q0985=
200701210050 METAR ESMX 210050Z AUTO 24018G32KT 200V260 9999NDV FEW026/// BKN031/// OVC050/// 04/01 Q0985=
200701210020 METAR ESMX 210020Z AUTO 24015G25KT 220V290 9000NDV FEW022/// BKN027/// OVC037/// 04/01 Q0985 RERA REDZ=
200701202350 METAR ESMX 202350Z AUTO 23015KT 180V260 9999NDV FEW017/// SCT023/// BKN031/// 04/01 Q0986 REDZ=
200701202320 METAR ESMX 202320Z AUTO 24016G28KT 200V280 9000NDV -RA BKN020/// OVC027/// 04/01 Q0985=
200701202250 METAR ESMX 202250Z AUTO 22016G26KT 9999NDV FEW023/// SCT028/// BKN031/// 04/01 Q0985=
200701202220 METAR ESMX 202220Z AUTO 23020G35KT 9999NDV FEW020/// SCT023/// BKN026/// 04/01 Q0985=
200701202150 METAR ESMX 202150Z AUTO 22018G30KT 190V250 7000NDV -DZ FEW017/// BKN023/// OVC035/// 04/02 Q0985 RERA=
200701202120 METAR ESMX 202120Z AUTO 22017G28KT 9999NDV -RA FEW016/// SCT020/// BKN023/// 04/02 Q0985=
200701202050 METAR ESMX 202050Z AUTO 23016G28KT 9999NDV FEW010/// SCT014/// BKN018/// 03/02 Q0985=
200701202020 METAR ESMX 202020Z AUTO 22014G24KT 9000NDV BR FEW009/// BKN012/// OVC017/// 03/02 Q0985 RERA REDZ=
200701201950 METAR ESMX 201950Z AUTO 23013G25KT 200V260 4300NDV -RA OVC011/// 03/02 Q0985=
200701201920 METAR ESMX 201920Z AUTO 22013G23KT 190V250 9999NDV FEW010/// BKN013/// BKN018/// 03/02 Q0985 RERA REDZ=
200701201850 METAR ESMX 201850Z AUTO 21012KT 8000NDV -DZ FEW012/// SCT018/// BKN020/// 03/02 Q0985 RERA=
200701201820 METAR ESMX 201820Z AUTO 22015KT 170V250 2600NDV -RA FEW010/// BKN014/// BKN020/// 02/02 Q0986=
200701201750 METAR ESMX 201750Z AUTO 20010KT 9999NDV FEW042/// BKN058/// 02/02 Q0986=
200701201720 METAR ESMX 201720Z AUTO 23010KT 9999NDV BKN056/// 02/02 Q0986=
200701201650 METAR ESMX 201650Z AUTO 20011KT 9999NDV FEW002/// SCT003/// BKN006/// 02/01 Q0987 RERA=
200701201620 METAR ESMX 201620Z AUTO 18009KT 9999NDV BKN002/// OVC005/// 01/01 Q0987=
200701201550 METAR ESMX 201550Z AUTO 17009KT 9999NDV BKN003/// OVC007/// 01/01 Q0988 RERA REDZ=
200701201520 METAR ESMX 201520Z AUTO 18007KT 140V270 9999NDV OVC003/// 00/00 Q0989 RESN RERA=
200701201450 METAR ESMX 201450Z AUTO 16008KT 110V190 1700NDV R01/P2000N R19/1300VP2000N -RA ////// 00/00 Q0989 RESN=
200701201420 METAR ESMX 201420Z AUTO 15008KT 110V190 3700NDV SG ////// 00/M00 Q0990 RESN=
200701201350 METAR ESMX 201350Z AUTO 14008KT 100V170 3200NDV -SN ////// M00/M00 Q0990=
200701201320 METAR ESMX 201320Z AUTO 15008KT 110V190 4900NDV -SN ////// M01/M01 Q0992=
200701201250 METAR ESMX 201250Z AUTO 13010KT 090V170 0800NDV R01/1100N R19/1100N SN ////// M01/M01 Q0993=
200701201220 METAR ESMX 201220Z AUTO 13008KT 070V170 0450NDV R01/1100N R19/0900 SN VV005 M01/M01 Q0994=
200701201150 METAR ESMX 201150Z AUTO 13007KT 090V180 1600NDV R01/1800N R19/1800N -SN BKN006/// OVC009/// M02/M02 Q0995=
200701201120 METAR ESMX 201120Z AUTO 13008KT 080V200 1200NDV R01/1500N R19/1500N -SN FEW006/// SCT008/// M02/M03 Q0997=
200701201050 METAR ESMX 201050Z AUTO 13008KT 090V160 0400NDV R01/1100D R19/0400V1200 SN VV005 M03/M03 Q0998=
200701201020 METAR ESMX 201020Z AUTO 15009KT 100V170 1100NDV R01/1300VP2000N R19/1700D -SN FEW005/// SCT007/// BKN014/// M02/M04 Q1000=
200701200950 METAR ESMX 200950Z AUTO 15008KT 110V190 9999NDV FEW018/// M01/M07 Q1001=
200701200920 METAR ESMX 200920Z AUTO 16007KT 9999NDV FEW055/// M01/M06 Q1002=
200701200850 METAR ESMX 200850Z AUTO 13007KT 100V170 9999NDV NCD M01/M06 Q1002=
200701200820 METAR ESMX 200820Z AUTO 13006KT 090V160 9999NDV NCD M01/M05 Q1003=
200701200750 METAR ESMX 200750Z AUTO 14004KT 110V190 9999NDV NCD M02/M05 Q1004=
200701200720 METAR ESMX 200720Z AUTO 00000KT 9999NDV NCD M02/M04 Q1005=
200701200650 METAR ESMX 200650Z AUTO VRB01KT 9999NDV NCD M03/M04 Q1005=
200701200620 METAR ESMX 200620Z AUTO 00000KT 9999NDV NCD M03/M04 Q1005=
200701200550 METAR ESMX 200550Z AUTO 14003KT 9999NDV NCD M02/M04 Q1005=
200701200520 METAR ESMX 200520Z AUTO 13003KT 9999NDV NCD M03/M05 Q1005=
200701200450 METAR ESMX 200450Z AUTO 16003KT 9999NDV NCD M03/M05 Q1006=
200701200420 METAR ESMX 200420Z AUTO 16003KT 9999NDV NCD M03/M05 Q1007=
200701200350 METAR ESMX 200350Z AUTO 16003KT 9999NDV NCD M03/M05 Q1008=
200701200320 METAR ESMX 200320Z AUTO VRB01KT 9999NDV NCD M04/M05 Q1008=
200701200250 METAR ESMX 200250Z AUTO 26004KT 9999NDV NCD M04/M06 Q1008=
200701200220 METAR ESMX 200220Z AUTO 25003KT 9999NDV NCD M03/M06 Q1008=
200701200150 METAR ESMX 200150Z AUTO VRB02KT 9999NDV NCD M04/M06 Q1008=
200701200120 METAR ESMX 200120Z AUTO 27003KT 240V300 9999NDV NCD M03/M06 Q1008=
200701200050 METAR ESMX 200050Z AUTO 27005KT 9999NDV NCD M03/M06 Q1007=
200701200020 METAR ESMX 200020Z AUTO 27004KT 9999NDV NCD M03/M06 Q1007=
200701192350 METAR ESMX 192350Z AUTO 27004KT 9999NDV NCD M03/M06 Q1007=
200701192320 METAR ESMX 192320Z AUTO 28005KT 9999NDV NCD M02/M05 Q1006=
200701192250 METAR ESMX 192250Z AUTO 28006KT 9999NDV NCD M02/M05 Q1006=
200701192220 METAR ESMX 192220Z AUTO 29005KT 9999NDV NCD M02/M05 Q1005=
200701192150 METAR ESMX 192150Z AUTO 31007KT 290V350 9999NDV NCD M02/M05 Q1005=
200701192120 METAR ESMX 192120Z AUTO 31007KT 9999NDV NCD M01/M05 Q1004=
200701192050 METAR ESMX 192050Z AUTO 30008KT 270V330 9999NDV NCD M01/M05 Q1003=
200701192020 METAR ESMX 192020Z AUTO 30010KT 260V330 9999NDV NCD M01/M05 Q1002=
200701191950 METAR ESMX 191950Z AUTO 29008KT 260V330 9999NDV NCD M01/M04 Q1001=
200701191920 METAR ESMX 191920Z 30011KT CAVOK M01/M04 Q1000=
200701191850 METAR ESMX 191850Z 31011KT 280V340 CAVOK M00/M04 Q0999=
200701191820 METAR ESMX 191820Z 31012KT 280V350 CAVOK M00/M04 Q0999=
200701191750 METAR ESMX 191750Z 30011KT 250V340 CAVOK 00/M04 Q0998=
200701191720 METAR ESMX 191720Z 30008KT 260V340 CAVOK 00/M04 Q0997=
200701191650 METAR ESMX 191650Z 30011KT 260V340 CAVOK 01/M04 Q0997=
200701191620 METAR ESMX 191620Z 30009KT CAVOK 01/M03 Q0995=
200701191550 METAR ESMX 191550Z 30009KT 260V340 CAVOK 01/M03 Q0995=
200701191450 METAR ESMX 191450Z 28008KT 260V320 CAVOK 02/M03 Q0993=
200701191420 METAR ESMX 191420Z 30010KT 270V330 CAVOK 02/M03 Q0992=
200701191350 METAR ESMX 191350Z 30012KT 260V340 CAVOK 03/M03 Q0991=
200701191320 METAR ESMX 191320Z 29010KT CAVOK 03/M02 Q0991=
200701191250 METAR ESMX 191250Z 28010KT CAVOK 03/M02 Q0990=
200701191220 METAR ESMX 191220Z 27010KT 240V300 CAVOK 03/M02 Q0989=
200701191050 METAR ESMX 191050Z 27011KT CAVOK 03/M02 Q0987=
200701191020 METAR ESMX 191020Z 28013KT CAVOK 03/M01 Q0987=
200701190950 METAR ESMX 190950Z 27014KT 9999 FEW040 02/M01 Q0986=
200701190850 METAR ESMX 190850Z 27011KT 9999 FEW040 02/M01 Q0986=
200701190820 METAR ESMX 190820Z 27010KT 210V290 9999 FEW040 01/M00 Q0985=
200701190750 METAR ESMX 190750Z 27010KT 9999 FEW035 01/M00 Q0985=
200701190720 METAR ESMX 190720Z 28008KT 230V320 9999 FEW025 01/00 Q0984=
200701190650 METAR ESMX 190650Z 28007KT 9999 FEW020 02/00 Q0983=
200701190620 METAR ESMX 190620Z 28009KT 250V310 9999 FEW015 02/00 Q0983=
200701190550 METAR ESMX 190550Z 27010KT 9999 FEW013 SCT015 BKN018 02/01 Q0982=
200701190520 METAR ESMX 190520Z 26011KT 9999 FEW009 BKN014 02/01 Q0982=
200701190450 METAR ESMX 190450Z 26008KT 9999 FEW006 SCT008 BKN010 02/02 Q0981=
200701190420 METAR ESMX 190420Z AUTO 26009KT 9999NDV FEW005/// SCT007/// BKN009/// 02/01 Q0981=
200701190350 METAR ESMX 190350Z AUTO 25007KT 9999NDV FEW007/// SCT008/// BKN020/// 01/01 Q0980=
200701190320 METAR ESMX 190320Z AUTO 26007KT 9999NDV FEW019/// SCT023/// 01/00 Q0980=
200701190250 METAR ESMX 190250Z AUTO 25007KT 220V290 9999NDV FEW021/// BKN026/// 01/00 Q0980=
200701190220 METAR ESMX 190220Z AUTO 27006KT 9999NDV FEW021/// BKN031/// 01/00 Q0979=
200701190150 METAR ESMX 190150Z 29005KT 9999 FEW008 BKN032 01/00 Q0979=
200701190120 METAR ESMX 190120Z 30008KT 9999 FEW009 SCT012 BKN032 01/00 Q0978=
200701190050 METAR ESMX 190050Z 30009KT 9999 FEW010 BKN026 02/01 Q0977=
200701182350 METAR ESMX 182350Z 30008KT 9999 FEW021 BKN026 02/00 Q0974=
200701182320 METAR ESMX 182320Z 32008KT 9999 BKN019 02/01 Q0973=
200701182250 METAR ESMX 182250Z 33010KT 9999 FEW007 SCT012 BKN021 02/01 Q0972=
200701182220 METAR ESMX 182220Z 34011KT 9999 FEW007 BKN012 BKN025 02/01 Q0971=
200701182150 METAR ESMX 182150Z 34012KT 9999 BKN005 BKN018 02/01 Q0970=
200701182120 METAR ESMX 182120Z 35010KT 9999 BKN005 02/01 Q0969=
200701182050 METAR ESMX 182050Z 36009KT 8000 -RA FEW003 OVC004 01/01 Q0968=
200701182020 METAR ESMX 182020Z 02008KT 5000 -RASN SCT003 BKN005 01/00 Q0968=
200701181950 METAR ESMX 181950Z 03006KT 3200 -SNRA BKN004 BKN009 01/01 Q0967=
200701181920 METAR ESMX 181920Z 04007KT 010V080 3800 SNRA BKN005 BKN008 01/01 Q0967=
200701181850 METAR ESMX 181850Z 06005KT 010V120 4600 RA BKN005 OVC008 02/02 Q0967=
200701181820 METAR ESMX 181820Z 09004KT 060V130 9999 -RA OVC005 02/02 Q0967=
200701181750 METAR ESMX 181750Z 08005KT 050V140 9999 -RA BKN005 02/02 Q0967=
200701181720 METAR ESMX 181720Z 09004KT 050V160 9999 -DZ BKN004 02/02 Q0968=
200701181650 METAR ESMX 181650Z 14006KT 080V170 9999 -RA BKN008 03/02 Q0970=
200701181620 METAR ESMX 181620Z 14006KT 080V190 9999 BKN006 BKN010 03/02 Q0971=
200701181550 METAR ESMX 181550Z 16006KT 9999 SCT006 OVC010 03/02 Q0972=
200701181520 METAR ESMX 181520Z 14004KT 090V170 9999 SCT008 BKN011 03/02 Q0973=
200701181450 METAR ESMX 181450Z 14004KT 110V170 9999 SCT005 BKN010 02/02 Q0974=
200701181420 METAR ESMX 181420Z 15004KT 110V200 9999 SCT030 02/01 Q0975=
200701181350 METAR ESMX 181350Z 16004KT 120V190 9999 FEW007 SCT030 02/01 Q0976=
200701181320 METAR ESMX 181320Z 18007KT 9999 FEW007 SCT010 03/02 Q0978=
200701181250 METAR ESMX 181250Z 18012KT 9999 BKN010 03/02 Q0979=
200701181220 METAR ESMX 181220Z 18011KT 9999 FEW011 BKN016 03/02 Q0980=
200701181150 METAR ESMX 181150Z 20011KT 9999 FEW012 BKN015 03/02 Q0981=
200701181120 METAR ESMX 181120Z 21011KT 170V240 9999 FEW010 SCT015 03/02 Q0982=
200701181050 METAR ESMX 181050Z 21013KT 9999 SCT012 SCT050 03/02 Q0983=
200701181020 METAR ESMX 181020Z 19010KT 9999 FEW012 SCT014 BKN017 02/01 Q0984=
200701180920 METAR ESMX 180920Z 19012KT 9999 -SHRA FEW008 BKN015CB 03/01 Q0986=
200701180850 METAR ESMX 180850Z 20012KT 9999 FEW012 SCT017CB 02/01 Q0986 RESHRA=
200701180820 METAR ESMX 180820Z 20012KT 9000 -SHRA FEW010 SCT015CB 03/01 Q0986=
200701180750 METAR ESMX 180750Z 20011KT 9999 -SHRA SCT020CB 02/01 Q0987=
200701180720 METAR ESMX 180720Z 21010KT 9999 FEW020CB 02/01 Q0987 RESHRA=
200701180650 METAR ESMX 180650Z 20011KT 9999 SCT025 02/01 Q0987=
200701180620 METAR ESMX 180620Z 23010KT 9999 FEW025 02/01 Q0988=
200701180550 METAR ESMX 180550Z 22011KT 200V260 9999 BKN015 02/01 Q0988=
200701180520 METAR ESMX 180520Z 22011KT 9999 BKN020 03/01 Q0988=
200701180450 METAR ESMX 180450Z 23011KT 9999 BKN020 03/01 Q0988=
200701180420 METAR ESMX 180420Z 25013KT 210V280 9999 SCT015 BKN053 03/01 Q0988=
200701180350 METAR ESMX 180350Z AUTO 24016KT 210V270 7000NDV ////// 03/01 Q0987 RERA REDZ=
200701180320 METAR ESMX 180320Z AUTO 22016G29KT 200V260 8000NDV ////// 03/01 Q0987 RERA=
200701180250 METAR ESMX 180250Z AUTO 22013KT 9999NDV -DZ ////// 04/02 Q0987 RERA=
200701180220 METAR ESMX 180220Z AUTO 21014KT 170V240 9999NDV ////// 04/01 Q0987 RERA REDZ=
200701180150 METAR ESMX 180150Z AUTO 22012KT 9999NDV ////// 03/01 Q0988=
200701180120 METAR ESMX 180120Z 24015G34KT 200V270 9999 SHRA SCT020CB 03/01 Q0988=
200701180050 METAR ESMX 180050Z 21013KT 170V250 9999 SCT019 BKN026 05/03 Q0988=
200701180020 METAR ESMX 180020Z 23015G25KT 9999 FEW013 SCT018 BKN022 06/04 Q0988=
200701172350 METAR ESMX 172350Z 21013KT 9999 FEW011 BKN015 BKN024 06/05 Q0989=
200701172320 METAR ESMX 172320Z 21010KT 9999 FEW008 SCT013 BKN018 06/05 Q0989=
200701172250 METAR ESMX 172250Z 22010KT 9999 FEW011 SCT020 06/05 Q0989=
200701172220 METAR ESMX 172220Z 23011G21KT 6000 -RA FEW009 SCT015 BKN020 06/05 Q0989=
200701172150 METAR ESMX 172150Z 23011G24KT 180V260 6000 RA FEW007 SCT011 BKN017 07/06 Q0990=
200701172120 METAR ESMX 172120Z 20013KT 5000 RA FEW007 SCT011 BKN013 07/06 Q0990=
200701172050 METAR ESMX 172050Z 19014KT 5000 RA FEW007 BKN010 OVC015 07/06 Q0991=
200701172020 METAR ESMX 172020Z 19015KT 5000 RA FEW007 SCT009 OVC012 07/06 Q0991=
200701171950 METAR ESMX 171950Z 19015KT 6000 -RA FEW006 SCT008 BKN011 07/06 Q0992=
200701171920 METAR ESMX 171920Z 18015KT 5000 RA FEW006 BKN008 OVC012 07/06 Q0993=
200701171850 METAR ESMX 171850Z 18018KT 5000 RA FEW006 SCT007 BKN009 07/06 Q0994=
200701171820 METAR ESMX 171820Z 18017KT 5000 -RA BKN006 BKN009 07/06 Q0994=
200701171750 METAR ESMX 171750Z 19015KT 5000 -RA BR FEW005 OVC007 07/06 Q0995=
200701171720 METAR ESMX 171720Z 18015KT 3000 -RA BR OVC005 07/06 Q0996=
200701171650 METAR ESMX 171650Z 18016KT 4000 BR OVC004 07/06 Q0997 REDZ=
200701171620 METAR ESMX 171620Z 18015KT 2500 -DZ BR OVC004 06/06 Q0998 RERA=
200701171550 METAR ESMX 171550Z 18013KT 2500 BR OVC004 06/06 Q0998 RERA=
200701171520 METAR ESMX 171520Z 17012KT 140V200 2000 DZ BR OVC003 06/06 Q0999=
200701171450 METAR ESMX 171450Z 17011KT 140V200 3500 BR OVC005 06/05 Q1000 RERA=
200701171420 METAR ESMX 171420Z 18010KT 8000 BR FEW003 OVC005 05/05 Q1000=
200701171350 METAR ESMX 171350Z 18012KT 3000 BR OVC002 05/05 Q1001=
200701171320 METAR ESMX 171320Z 17008KT 140V200 3000 -DZ BR OVC002 05/04 Q1002 RERA=
200701171250 METAR ESMX 171250Z 17008KT 2000 BR OVC002 04/04 Q1003=
200701171220 METAR ESMX 171220Z 17008KT 3500 BR OVC002 04/04 Q1003=
200701171150 METAR ESMX 171150Z 15006KT 6000 BR OVC003 03/02 Q1004 RERA=
200701171120 METAR ESMX 171120Z 16007KT 3500 -RA BR OVC003 02/02 Q1004=
200701171050 METAR ESMX 171050Z 16006KT 3000 RA BR FEW003 SCT005 BKN009 02/02 Q1005=
200701170950 METAR ESMX 170950Z 15004KT 3000 -RA BR OVC020 01/01 Q1006=
200701170920 METAR ESMX 170920Z 16003KT 140V220 2000 BR OVC001 01/01 Q1007=
200701170850 METAR ESMX 170850Z 17003KT 3500 BR OVC001 01/01 Q1007=
200701170820 METAR ESMX 170820Z 14004KT 110V170 1200 R19/P2000N BR VV002 01/01 Q1007=
200701170750 METAR ESMX 170750Z 16004KT 120V190 2500 BR OVC001 01/01 Q1008=
200701170720 METAR ESMX 170720Z 17004KT 1600 BR VV002 01/01 Q1008=
200701170650 METAR ESMX 170650Z 16004KT 1500 BR OVC000 01/01 Q1008=
200701170620 METAR ESMX 170620Z 19004KT 3000 FG VV002 01/01 Q1009=
200701170550 METAR ESMX 170550Z 21005KT 4500 FG VV002 01/01 Q1009=
200701170520 METAR ESMX 170520Z VRB02KT 0500 R01/1300N R19/1400N FZFG VV002 01/01 Q1009=
200701170450 METAR ESMX 170450Z 21005KT 1300 R01/P2000N R19/P2000N BR OVC002 01/01 Q1009=
200701170420 METAR ESMX 170420Z AUTO 24005KT 5000NDV BR OVC001/// 01/01 Q1009=
200701170350 METAR ESMX 170350Z AUTO 22007KT 7000NDV BR FEW004/// SCT006/// BKN008/// 01/01 Q1010=
200701170320 METAR ESMX 170320Z AUTO 21005KT 9999NDV SCT008/// BKN012/// 01/01 Q1010=
200701170250 METAR ESMX 170250Z AUTO 21006KT 9000NDV FEW009/// 01/00 Q1010=
200701170220 METAR ESMX 170220Z AUTO 24007KT 9999NDV FEW009/// 01/00 Q1010=
200701170150 METAR ESMX 170150Z AUTO 22007KT 9999NDV NCD 01/M00 Q1010=
200701170120 METAR ESMX 170120Z 23005KT 9999 FEW019 00/M00 Q1010=
200701170050 METAR ESMX 170050Z 24004KT 9999 FEW015 01/00 Q1010=
200701170020 METAR ESMX 170020Z 24006KT 9999 FEW015 01/00 Q1010=
200701162350 METAR ESMX 162350Z 22006KT 9999 FEW014 01/00 Q1010=
200701162320 METAR ESMX 162320Z 22008KT CAVOK 01/00 Q1010=
200701162250 METAR ESMX 162250Z 22007KT 9999 FEW025 02/00 Q1010=
200701162220 METAR ESMX 162220Z 23006KT 9999 FEW022 BKN028 02/01 Q1010=
200701162120 METAR ESMX 162120Z 22007KT 9999 FEW019 02/00 Q1009=
200701162050 METAR ESMX 162050Z 23007KT CAVOK 02/00 Q1009=
200701162020 METAR ESMX 162020Z 22007KT CAVOK 02/00 Q1009=
200701161950 METAR ESMX 161950Z 24009KT 200V260 CAVOK 02/01 Q1009=
200701161920 METAR ESMX 161920Z 22008KT 190V260 CAVOK 02/01 Q1009=
200701161850 METAR ESMX 161850Z 23005KT 9999 NSC 02/01 Q1009=
200701161820 METAR ESMX 161820Z 24005KT 9999 FEW020 02/01 Q1009=
200701161750 METAR ESMX 161750Z 24007KT 9999 FEW020 03/01 Q1008=
200701161720 METAR ESMX 161720Z 26008KT 230V290 9999 -DZ FEW019 SCT033 03/02 Q1008=
200701161650 METAR ESMX 161650Z 23009KT 9999 FEW021 SCT026 04/01 Q1008=
200701161620 METAR ESMX 161620Z 23008KT 9999 FEW020 SCT033 03/01 Q1008=
200701161550 METAR ESMX 161550Z 25008KT 9999 FEW015 04/01 Q1008=
200701161520 METAR ESMX 161520Z 23009KT 200V260 9999 FEW015 04/00 Q1008=
200701161450 METAR ESMX 161450Z 26009KT 230V290 9999 FEW015 05/01 Q1007=
200701161420 METAR ESMX 161420Z 26011KT 9999 FEW015 05/01 Q1007=
200701161350 METAR ESMX 161350Z 26012KT 9999 FEW020 06/01 Q1007=
200701161320 METAR ESMX 161320Z 24013KT 9999 FEW023 SCT030 06/02 Q1007=
200701161250 METAR ESMX 161250Z 25012KT 9999 FEW023 SCT030 06/02 Q1007=
200701161220 METAR ESMX 161220Z 26011KT 9999 FEW023 SCT035 06/03 Q1006=
200701161150 METAR ESMX 161150Z 26011KT 230V290 9999 FEW020 BKN075 07/04 Q1006=
200701161120 METAR ESMX 161120Z 25012KT 9999 FEW017 SCT026 06/04 Q1006=
200701161050 METAR ESMX 161050Z 24010KT 9999 SCT016 06/04 Q1006=
200701161020 METAR ESMX 161020Z 26012KT 9999 FEW012 BKN020 06/05 Q1006=
200701160950 METAR ESMX 160950Z 25009KT 210V280 9999 FEW006 BKN015 07/05 Q1005=
200701160850 METAR ESMX 160850Z 23009KT 200V260 3000 +DZ OVC005 06/06 Q1005=
200701160820 METAR ESMX 160820Z 22012KT 180V250 4000 BR DZ OVC006 06/05 Q1004=
200701160750 METAR ESMX 160750Z 23013KT 9999 BR OVC006 06/05 Q1004=
200701160720 METAR ESMX 160720Z 23014G24KT 4500 BR DZ OVC008 06/05 Q1004=
200701160650 METAR ESMX 160650Z 23015KT 200V260 5000 BR OVC010 06/04 Q1004=
200701160620 METAR ESMX 160620Z 22014KT 9999 OVC012 06/04 Q1004=
200701160550 METAR ESMX 160550Z 21014KT 9000 OVC012 05/04 Q1004=
200701160520 METAR ESMX 160520Z 22016KT 9999 OVC012 05/03 Q1004=
200701160450 METAR ESMX 160450Z 22015KT 9999 OVC014 05/03 Q1004=
200701160420 METAR ESMX 160420Z AUTO 21016KT 170V240 8000NDV DZ OVC016/// 05/03 Q1005 RERA=
200701160350 METAR ESMX 160350Z AUTO 23015G26KT 7000NDV -DZ OVC016/// 05/03 Q1005 RERA=
200701160320 METAR ESMX 160320Z AUTO 23015KT 200V260 9999NDV OVC018/// 06/03 Q1005=
200701160250 METAR ESMX 160250Z AUTO 22014G24KT 190V260 9999NDV OVC019/// 06/03 Q1006=
200701160220 METAR ESMX 160220Z AUTO 21014KT 180V260 9999NDV OVC020/// 06/03 Q1006=
200701160150 METAR ESMX 160150Z AUTO 22013KT 190V250 9999NDV FEW027/// SCT032/// OVC037/// 06/02 Q1006=
200701160120 METAR ESMX 160120Z 21013KT 9000 DZ FEW023 OVC039 06/03 Q1007 RERA=
200701160050 METAR ESMX 160050Z 22012KT 190V250 9999 FEW026 SCT030 BKN034 07/02 Q1007=
200701160020 METAR ESMX 160020Z 24013KT 210V270 9999 FEW027 SCT032 BKN036 07/02 Q1007=
200701152350 METAR ESMX 152350Z 22016G27KT 190V260 9999 SCT025 OVC031 06/02 Q1008=
200701152320 METAR ESMX 152320Z 23015G25KT 200V270 9999 BKN025 07/02 Q1008=
200701152250 METAR ESMX 152250Z 23014G26KT 200V260 9999 BKN025 06/02 Q1008=
200701152220 METAR ESMX 152220Z 22014KT 180V250 9999 BKN020 06/03 Q1008=
200701152150 METAR ESMX 152150Z 23013G25KT 200V280 9999 SCT020 OVC027 07/03 Q1009=
200701152120 METAR ESMX 152120Z 25012KT 220V280 9999 FEW020 OVC025 07/03 Q1009=
200701152050 METAR ESMX 152050Z 22012KT 9999 FEW020 OVC027 07/04 Q1009=
200701152020 METAR ESMX 152020Z 23014KT 200V260 9999 FEW019 BKN025 07/04 Q1009=
200701151950 METAR ESMX 151950Z 23011KT 200V260 9999 FEW016 SCT025 OVC028 07/04 Q1009=
200701151920 METAR ESMX 151920Z 22012KT 190V260 9999 SCT016 BKN021 OVC026 07/04 Q1009=
200701151850 METAR ESMX 151850Z 24012G23KT 9999 FEW017 SCT019 BKN021 07/04 Q1009=
200701151820 METAR ESMX 151820Z 23013KT 190V260 9999 FEW015 BKN020 OVC025 07/04 Q1009=
200701151750 METAR ESMX 151750Z 25012KT 9999 FEW013 SCT016 BKN020 07/05 Q1010=
200701151650 METAR ESMX 151650Z 25014G24KT 9000 BR FEW010 OVC017 07/05 Q1010=
200701151620 METAR ESMX 151620Z 24014KT 8000 BR OVC013 07/05 Q1010=
200701151550 METAR ESMX 151550Z 25014G25KT 220V290 9000 BR OVC013 07/05 Q1010=
200701151450 METAR ESMX 151450Z 26016KT 7000 BR OVC014 07/05 Q1010=
200701151420 METAR ESMX 151420Z 25015G25KT 220V280 7000 BR OVC012 07/05 Q1010=
200701151350 METAR ESMX 151350Z 25016KT 8000 BR OVC012 07/05 Q1010=
200701151250 METAR ESMX 151250Z 25014KT 200V280 9999 -RA BKN012 07/05 Q1010=
200701151220 METAR ESMX 151220Z 25017KT 210V280 8000 BR OVC014 07/05 Q1010=
200701151150 METAR ESMX 151150Z 24015KT 210V280 9999 OVC015 07/04 Q1010=
200701151120 METAR ESMX 151120Z 25016KT 210V290 9999 OVC015 07/04 Q1010=
200701151050 METAR ESMX 151050Z 24013G25KT 9999 -RA BKN015 07/04 Q1011=
200701151020 METAR ESMX 151020Z 23014KT 9999 -RA BKN012 06/04 Q1011=
200701150950 METAR ESMX 150950Z 23015KT 200V270 9999 -RA BKN014 06/04 Q1011=
200701150920 METAR ESMX 150920Z 23014KT 190V260 9999 -RA BKN016 06/04 Q1012=
200701150850 METAR ESMX 150850Z 22013KT 200V260 9999 -RA BKN015 06/04 Q1012=
200701150820 METAR ESMX 150820Z 24014KT 9999 BKN013 06/04 Q1012=
200701150750 METAR ESMX 150750Z 21013KT 190V300 9999 BKN012 06/04 Q1012=
200701150720 METAR ESMX 150720Z 22011KT 9999 BKN010 06/04 Q1012=
200701150650 METAR ESMX 150650Z 24011KT 9999 SCT007 BKN011 06/04 Q1012=
200701150620 METAR ESMX 150620Z 24011KT 200V260 9999 SCT006 BKN010 06/04 Q1012=
200701150550 METAR ESMX 150550Z 22009KT 9000 -RA BKN008 06/04 Q1013=
200701150520 METAR ESMX 150520Z 22008KT 8000 -DZ BKN007 05/04 Q1013=
200701150450 METAR ESMX 150450Z 23007KT 8000 -RA BKN010 BKN020 05/04 Q1013=
200701150420 METAR ESMX 150420Z 24008KT 9999 SCT008 BKN022 05/03 Q1013=
200701150350 METAR ESMX 150350Z AUTO 26007KT 220V280 9999NDV ////// 05/03 Q1013=
200701150320 METAR ESMX 150320Z AUTO 25008KT 9999NDV ////// 05/03 Q1014=
200701150250 METAR ESMX 150250Z AUTO 26008KT 230V290 9999NDV ////// 05/03 Q1014=
200701150220 METAR ESMX 150220Z AUTO 25008KT 210V290 9999NDV ////// 04/02 Q1014=
200701150150 METAR ESMX 150150Z AUTO 25005KT 9999NDV ////// 03/01 Q1014=
200701150120 METAR ESMX 150120Z 24006KT 9999 BKN017 02/00 Q1014=
200701150050 METAR ESMX 150050Z 22005KT CAVOK 02/M01 Q1014=
200701150020 METAR ESMX 150020Z 26007KT CAVOK 03/M01 Q1013=
200701142350 METAR ESMX 142350Z 28009KT CAVOK 03/M01 Q1013=
200701142320 METAR ESMX 142320Z 29011KT CAVOK 04/M01 Q1012=
200701142250 METAR ESMX 142250Z 28010KT 240V320 CAVOK 04/M01 Q1012=
200701142220 METAR ESMX 142220Z 28013G23KT CAVOK 04/M02 Q1011=
200701142150 METAR ESMX 142150Z 29015KT CAVOK 04/M01 Q1010=
200701142120 METAR ESMX 142120Z 27013G25KT 9999 FEW036 04/M01 Q1010=
200701142050 METAR ESMX 142050Z 28015G25KT CAVOK 04/M01 Q1009=
200701142020 METAR ESMX 142020Z 28016G28KT 9999 FEW035 05/M01 Q1008=
200701141950 METAR ESMX 141950Z 28017G30KT 250V330 9999 SCT035 05/M01 Q1007=
200701141920 METAR ESMX 141920Z 28018G33KT 9999 SCT035 05/M01 Q1005=
200701141850 METAR ESMX 141850Z 28020G31KT 250V320 9999 BKN034 05/M01 Q1005=
200701141820 METAR ESMX 141820Z 27020G32KT 240V300 9999 BKN040 05/M01 Q1004=
200701141750 METAR ESMX 141750Z 27020G32KT 250V310 9999 BKN040 05/M01 Q1002=
200701141720 METAR ESMX 141720Z 28023G40KT 9999 BKN040 06/M02 Q1001=
200701141650 METAR ESMX 141650Z 27023G44KT 240V310 9999 BKN038 06/M01 Q1000=
200701141620 METAR ESMX 141620Z 27023G39KT 9999 BKN040 06/M02 Q0999=
200701141550 METAR ESMX 141550Z 28026G47KT 250V320 9999 BKN040 06/M02 Q0999=
200701141520 METAR ESMX 141520Z 26024G43KT 230V300 9999 -SHRA BKN037 06/M01 Q0998=
200701141450 METAR ESMX 141450Z 27026G42KT 240V320 9999 -SHRA BKN035 06/M01 Q0997=
200701141420 METAR ESMX 141420Z 27026G47KT 240V310 9999 -SHRA BKN035 06/M01 Q0996=
200701141350 METAR ESMX 141350Z 27025G44KT 9999 -SHRA BKN035 06/M00 Q0996=
200701141320 METAR ESMX 141320Z 27027G43KT 9999 BKN035 07/M00 Q0995=
200701141250 METAR ESMX 141250Z AUTO 27036G54KT 9999NDV ////// 07/01 Q0995=
200701130250 METAR ESMX 130250Z AUTO 26019G30KT 230V290 8000NDV BR OVC022/// 08/05 Q0986=
200701130220 METAR ESMX 130220Z AUTO 25016G32KT 210V280 8000NDV BR FEW022/// BKN025/// OVC031/// 08/05 Q0986 RERA REDZ=
200701130150 METAR ESMX 130150Z AUTO 26017G30KT 230V290 8000NDV BR FEW021/// OVC024/// 08/05 Q0986=
200701130120 METAR ESMX 130120Z AUTO 26016G28KT 240V300 8000NDV BR FEW019/// BKN024/// OVC029/// 08/05 Q0986=
200701130050 METAR ESMX 130050Z AUTO 27019KT 220V300 9000NDV FEW018/// BKN022/// OVC027/// 08/05 Q0986=
200701130020 METAR ESMX 130020Z AUTO 26015G28KT 9999NDV FEW018/// SCT021/// BKN024/// 07/05 Q0986=
200701122350 METAR ESMX 122350Z AUTO 26016G27KT 220V290 9999NDV FEW017/// SCT023/// BKN045/// 07/06 Q0985 RERA REDZ=
200701122320 METAR ESMX 122320Z AUTO 27016KT 240V310 9999NDV -RA FEW011/// SCT020/// 08/06 Q0986=
200701122250 METAR ESMX 122250Z AUTO 25015G27KT 200V290 6000NDV -RA FEW009/// SCT011/// BKN014/// 08/07 Q0985=
200701122220 METAR ESMX 122220Z AUTO 22012G22KT 170V270 6000NDV RA FEW008/// SCT012/// BKN017/// 08/07 Q0985=
200701122150 METAR ESMX 122150Z AUTO 23012KT 190V260 7000NDV -RA FEW006/// OVC009/// 07/07 Q0986 REDZ=
200701122120 METAR ESMX 122120Z AUTO 20016KT 5000NDV RA FEW005/// BKN007/// OVC010/// 07/06 Q0987 REDZ=
200701122050 METAR ESMX 122050Z AUTO 22015KT 5000NDV -RA FEW005/// BKN007/// OVC009/// 06/05 Q0988 REDZ=
200701122020 METAR ESMX 122020Z AUTO 19018KT 6000NDV DZ FEW005/// BKN008/// OVC011/// 06/05 Q0989 RERA=
200701121950 METAR ESMX 121950Z AUTO 18017KT 4000NDV RA FEW006/// SCT007/// BKN009/// 05/04 Q0991 REDZ=
200701121920 METAR ESMX 121920Z AUTO 17015G26KT 3800NDV -RA FEW006/// BKN008/// BKN011/// 04/04 Q0992 REDZ=
200701121850 METAR ESMX 121850Z AUTO 19013KT 150V220 4200NDV DZ FEW008/// OVC010/// 04/04 Q0994 RERA=
200701121820 METAR ESMX 121820Z 18013KT 6000 -RA FEW011 BKN016 05/04 Q0996=
200701121750 METAR ESMX 121750Z 18012KT 8000 -RA FEW014 BKN022 05/03 Q0997=
200701121720 METAR ESMX 121720Z 18012KT 150V210 9999 FEW013 BKN016 05/03 Q0997=
200701121650 METAR ESMX 121650Z 21010KT 9999 FEW016 SCT019 05/03 Q0999=
200701121620 METAR ESMX 121620Z 23008KT 200V260 9999 SCT020 BKN025 05/03 Q1000=
200701121550 METAR ESMX 121550Z 25008KT 9999 FEW020 BKN026 05/03 Q1001=
200701121520 METAR ESMX 121520Z 24007KT 210V270 9999 FEW022 BKN028 04/02 Q1001=
200701121450 METAR ESMX 121450Z 25008KT 9999 SCT023 04/01 Q1001=
200701121420 METAR ESMX 121420Z 25008KT 9999 SCT024 04/01 Q1001=
200701121350 METAR ESMX 121350Z 27009KT CAVOK 05/01 Q1001=
200701121320 METAR ESMX 121320Z 27010KT CAVOK 05/01 Q1001=
200701121220 METAR ESMX 121220Z 28010KT 260V320 9999 FEW020 04/02 Q1000=
200701121150 METAR ESMX 121150Z 29010KT 260V340 9999 SCT020 04/01 Q0999=
200701121120 METAR ESMX 121120Z 29012KT 9999 FEW015 OVC020 04/01 Q0999=
200701121050 METAR ESMX 121050Z 30012KT 260V330 9999 SCT015 BKN025 03/01 Q0998=
200701121020 METAR ESMX 121020Z 29013G23KT 260V320 9999 OVC015 03/00 Q0998=
200701120950 METAR ESMX 120950Z 29013KT 9999 OVC014 03/00 Q0997=
200701120920 METAR ESMX 120920Z 29013G23KT 9999 FEW015 OVC020 02/00 Q0996=
200701120850 METAR ESMX 120850Z 29016KT 9999 BKN015 BKN030 02/00 Q0995=
200701120420 METAR ESMX 120420Z AUTO 29007KT 250V320 9999NDV FEW006/// BKN008/// BKN015/// 04/03 Q0985=
200701120350 METAR ESMX 120350Z AUTO 30007KT 260V330 9999NDV FEW007/// BKN008/// OVC010/// 04/03 Q0984=
200701120320 METAR ESMX 120320Z AUTO 28007KT 9999NDV OVC009/// 04/04 Q0983=
200701120250 METAR ESMX 120250Z AUTO 28005KT 250V320 8000NDV BR FEW004/// SCT007/// OVC012/// 04/04 Q0982 RERA REDZ=
200701120220 METAR ESMX 120220Z AUTO 24004KT 200V260 5000NDV BR FEW005/// BKN007/// OVC010/// 04/04 Q0981 REDZ=
200701120150 METAR ESMX 120150Z AUTO 21005KT 9000NDV -DZ FEW007/// SCT010/// BKN012/// 04/04 Q0981=
200701120120 METAR ESMX 120120Z 21006KT 9999 FEW009 BKN011 OVC015 05/04 Q0981=
200701120050 METAR ESMX 120050Z 23005KT 200V260 9999 FEW009 SCT011 BKN013 05/04 Q0981=
200701120020 METAR ESMX 120020Z 22005KT 9999 SCT010 BKN014 OVC022 05/04 Q0981=
200701112350 METAR ESMX 112350Z 22008KT 9999 FEW011 SCT014 BKN018 04/03 Q0981=
200701112320 METAR ESMX 112320Z 24008KT 9999 FEW009 BKN011 OVC020 04/03 Q0981=
200701112250 METAR ESMX 112250Z 23007KT 9999 FEW009 SCT011 BKN014 04/03 Q0981=
200701112220 METAR ESMX 112220Z 23007KT 200V280 9999 FEW010 BKN012 OVC017 04/04 Q0981=
200701112150 METAR ESMX 112150Z 25008KT 210V280 9999 FEW009 SCT013 BKN018 04/04 Q0981=
200701112120 METAR ESMX 112120Z 25011KT 9999 -RA FEW009 BKN012 OVC018 04/04 Q0980=
200701112050 METAR ESMX 112050Z 23004KT 9999 FEW009 SCT011 BKN015 03/03 Q0980=
200701112020 METAR ESMX 112020Z 23005KT 9999 FEW013 SCT016 BKN019 03/02 Q0980 RERA=
200701111950 METAR ESMX 111950Z 25004KT 210V290 9999 -RA FEW008 SCT017 BKN019 03/02 Q0980=
200701111920 METAR ESMX 111920Z 24005KT 7000 -RA FEW007 BKN021 03/02 Q0980=
200701111850 METAR ESMX 111850Z 27008KT 6000 RA FEW009 SCT012 BKN017 03/02 Q0980=
200701111820 METAR ESMX 111820Z 24011G23KT 200V260 5000 RA FEW004 BKN012 04/03 Q0980=
200701111750 METAR ESMX 111750Z 18011KT 9999 -DZ OVC005 03/03 Q0980=
200701111650 METAR ESMX 111650Z 18013KT 9999 -RASN OVC005 02/01 Q0981=
200701111620 METAR ESMX 111620Z 17014KT 140V210 8000 -RASN FEW005 OVC010 02/01 Q0982=
200701111550 METAR ESMX 111550Z 17013KT 140V200 6000 -DZ FEW005 BKN010 02/01 Q0983=
200701111520 METAR ESMX 111520Z 16014KT 8000 -RASN SCT005 OVC010 02/01 Q0984=
200701111450 METAR ESMX 111450Z 16013KT 120V190 9999 -RASN OVC007 02/01 Q0985=
200701111420 METAR ESMX 111420Z 17014KT 9000 -RASN SCT005 BKN010 01/01 Q0986=
200701111320 METAR ESMX 111320Z 16013KT 7000 -RA SCT006 BKN008 BKN011 02/01 Q0989=
200701111250 METAR ESMX 111250Z 16010KT 6000 -RA FEW005 BKN007 OVC010 02/02 Q0990 REDZ=
200701111220 METAR ESMX 111220Z 17009KT 140V200 9000 -RA FEW006 BKN007 OVC010 02/02 Q0992 REDZ=
200701111150 METAR ESMX 111150Z 17008KT 9999 -RA BKN008 02/01 Q0993=
200701111120 METAR ESMX 111120Z 17010KT 140V200 9999 OVC010 02/01 Q0994=
200701111050 METAR ESMX 111050Z 17007KT 140V200 9999 FEW015 SCT020 BKN025 03/01 Q0995=
200701111020 METAR ESMX 111020Z 18007KT 9999 SCT019 BKN150 03/01 Q0996=
200701110950 METAR ESMX 110950Z 20008KT 9999 FEW012 SCT015 BKN150 03/01 Q0997=
200701110920 METAR ESMX 110920Z 20007KT 9999 SCT010 BKN015 03/02 Q0998=
200701110850 METAR ESMX 110850Z 22007KT 9999 SCT010 BKN025 03/02 Q0997=
200701110820 METAR ESMX 110820Z 22005KT 9999 FEW012 SCT015 BKN021 03/02 Q0998=
200701110750 METAR ESMX 110750Z 21005KT 180V250 9999 BKN010 02/01 Q0998=
200701110720 METAR ESMX 110720Z 24005KT 9999 BKN008 02/01 Q0998=
200701110650 METAR ESMX 110650Z 24006KT 200V280 9999 BKN006 02/01 Q0998=
200701110620 METAR ESMX 110620Z 26006KT 9999 BKN006 02/01 Q0998=
200701110550 METAR ESMX 110550Z 27008KT 250V320 9999 BKN010 02/00 Q0997=
200701110520 METAR ESMX 110520Z 26008KT 9999 FEW010 BKN013 02/00 Q0997=
200701110450 METAR ESMX 110450Z AUTO 28009KT 250V310 9999NDV ////// 02/00 Q0997=
200701110420 METAR ESMX 110420Z AUTO 27011KT 9999NDV ////// 02/01 Q0996=
200701110350 METAR ESMX 110350Z AUTO 28010G20KT 240V300 9999NDV ////// 02/01 Q0996=
200701110320 METAR ESMX 110320Z AUTO 27012KT 9999NDV ////// 02/01 Q0995=
200701110250 METAR ESMX 110250Z AUTO 27014KT 230V290 9999NDV ////// 03/01 Q0995=
200701110220 METAR ESMX 110220Z AUTO 28014G25KT 250V330 9999NDV ////// 03/01 Q0994=
200701110150 METAR ESMX 110150Z AUTO 26014KT 9999NDV ////// 03/01 Q0993=
200701110120 METAR ESMX 110120Z 27017KT 9999 -RA SCT013 BKN016 03/02 Q0992=
200701110050 METAR ESMX 110050Z 27015G26KT 9999 FEW012 BKN015 03/02 Q0991=
200701110020 METAR ESMX 110020Z 27019G30KT 250V320 9999 -RA BR BKN010 OVC016 03/02 Q0990=
200701102350 METAR ESMX 102350Z 26023G36KT 220V290 6000 -RA BR FEW008 BKN009 04/02 Q0989=
200701102320 METAR ESMX 102320Z 25023G35KT 9999 FEW005 SCT009 BKN012 05/02 Q0988=
200701102250 METAR ESMX 102250Z 22016G27KT 190V260 7000 -RA BR FEW006 OVC008 05/04 Q0987=
200701102220 METAR ESMX 102220Z 23020KT 190V260 9999 FEW011 BKN015 OVC021 05/04 Q0988=
200701102150 METAR ESMX 102150Z 22019KT 9999 FEW012 SCT020 BKN023 07/04 Q0988=
200701102120 METAR ESMX 102120Z 21015KT 9999 FEW009 SCT014 BKN016 08/07 Q0988 RERA=
200701102050 METAR ESMX 102050Z 19016KT 9999 -RA FEW008 BKN012 BKN019 08/07 Q0989=
200701102020 METAR ESMX 102020Z 19012KT 6000 -RA BR FEW010 BKN013 OVC018 08/07 Q0989=
200701101950 METAR ESMX 101950Z 20014KT 9999 FEW009 BKN012 OVC016 08/07 Q0990=
200701101920 METAR ESMX 101920Z 20014KT 9999 -RA FEW008 SCT011 BKN013 08/07 Q0991=
200701101850 METAR ESMX 101850Z 20013KT 170V230 6000 -RA BR FEW008 OVC012 08/07 Q0992=
200701101820 METAR ESMX 101820Z 20014KT 9999 -RA FEW008 OVC015 08/07 Q0992=
200701101750 METAR ESMX 101750Z 20012KT 9999 -RA FEW007 BKN010 08/07 Q0993=
200701101720 METAR ESMX 101720Z 20012KT 5000 -RA FEW008 BKN015 08/07 Q0993=
200701101650 METAR ESMX 101650Z 20013KT 170V230 9999 -DZ FEW007 OVC020 09/08 Q0994=
200701101620 METAR ESMX 101620Z 22010KT 180V240 9999 -RA FEW010 OVC020 09/08 Q0995=
200701101550 METAR ESMX 101550Z 21014KT 170V240 9999 RA FEW008 BKN015 09/08 Q0995=
200701101520 METAR ESMX 101520Z 19011KT 9999 RA FEW006 OVC015 09/08 Q0995=
200701101450 METAR ESMX 101450Z 21009KT 170V240 8000 -RA FEW005 BKN015 08/08 Q0996=
200701101420 METAR ESMX 101420Z 19010KT 8000 -RA FEW005 BKN015 08/08 Q0996=
200701101350 METAR ESMX 101350Z 19009KT 9999 -RA FEW004 OVC010 08/07 Q0997=
200701101320 METAR ESMX 101320Z 15007KT 9999 -RA BKN005 OVC010 07/07 Q0997=
200701101250 METAR ESMX 101250Z 17005KT 9999 -RA FEW006 BKN015 07/07 Q0998=
200701101220 METAR ESMX 101220Z 17006KT 9999 -RA FEW005 SCT007 BKN010 07/06 Q0999=
200701101150 METAR ESMX 101150Z 17007KT 9999 -RA FEW006 BKN030 07/06 Q0999=
200701101050 METAR ESMX 101050Z 19008KT 9999 DZ FEW010 BKN025 07/06 Q1001=
200701100750 METAR ESMX 100750Z 21006KT 9999 SCT022 07/05 Q1001=
200701100720 METAR ESMX 100720Z 21006KT 9999 FEW021 07/05 Q1001=
200701100650 METAR ESMX 100650Z 24010KT 210V270 9999 FEW020 07/04 Q1001=
200701100620 METAR ESMX 100620Z 24010KT 9999 FEW020 SCT025 BKN033 08/05 Q1000=
200701100550 METAR ESMX 100550Z 25011KT 9999 FEW023 08/05 Q1000=
200701100520 METAR ESMX 100520Z 23012KT 9999 FEW024 SCT038 08/05 Q1000=
200701100450 METAR ESMX 100450Z 25011G21KT 210V290 9999 BKN021 08/05 Q1000=
200701100420 METAR ESMX 100420Z 23014KT 9999 FEW023 BKN030 08/05 Q0999=
200701100350 METAR ESMX 100350Z AUTO 24012KT 9999NDV FEW020/// SCT024/// BKN029/// 08/05 Q0999=
200701100320 METAR ESMX 100320Z AUTO 25014G26KT 210V280 9999NDV FEW021/// BKN025/// BKN035/// 08/05 Q0998=
200701100250 METAR ESMX 100250Z AUTO 24014KT 9999NDV FEW020/// SCT025/// BKN031/// 08/05 Q0998=
200701100220 METAR ESMX 100220Z AUTO 25014KT 210V290 9999NDV SCT020/// BKN026/// OVC033/// 08/05 Q0998=
200701100150 METAR ESMX 100150Z AUTO 25016G27KT 210V280 9999NDV BKN021/// BKN031/// 08/05 Q0997=
200701100120 METAR ESMX 100120Z 23014G27KT 9999 BKN023 BKN034 09/05 Q0997=
200701100050 METAR ESMX 100050Z 23014KT 9999 SCT021 BKN025 09/05 Q0997=
200701100020 METAR ESMX 100020Z 24017G28KT 200V280 9999 FEW021 BKN026 OVC035 09/05 Q0996=
200701092350 METAR ESMX 092350Z 25018G28KT 9999 SCT028 BKN035 09/05 Q0996=
200701092320 METAR ESMX 092320Z 24016G27KT 9999 SCT022 BKN028 BKN044 09/06 Q0996=
200701092250 METAR ESMX 092250Z 25016G29KT 210V280 9999 SCT026 BKN035 09/06 Q0995=
200701092220 METAR ESMX 092220Z 24018G35KT 210V280 9999 SCT022 BKN037 10/06 Q0995=
200701092150 METAR ESMX 092150Z 23015KT 200V290 9999 SCT017 BKN029 10/06 Q0995=
200701092120 METAR ESMX 092120Z 23015G27KT 170V250 9999 SCT020 BKN030 09/06 Q0994=
200701092050 METAR ESMX 092050Z 24015G27KT 190V280 9999 FEW018 SCT022 BKN026 10/07 Q0994=
200701092020 METAR ESMX 092020Z 24014G27KT 210V270 9999 -SHRA FEW015 SCT019 BKN023 10/08 Q0994=
200701091950 METAR ESMX 091950Z 24020G34KT 9999 -SHRA SCT011 BKN015 OVC018 10/08 Q0993=
200701091920 METAR ESMX 091920Z 23014G28KT 5000 -RA BKN011 OVC018 09/08 Q0993=
200701091850 METAR ESMX 091850Z 22018G28KT 170V270 7000 RADZ FEW008 BKN010 09/08 Q0993=
200701091820 METAR ESMX 091820Z 21016KT 3700 RADZ FEW009 BKN011 OVC017 09/08 Q0992=
200701091750 METAR ESMX 091750Z 23021KT 200V260 5000 -RADZ FEW008 BKN010 09/08 Q0992=
200701091720 METAR ESMX 091720Z 21017KT 180V250 5000 -RADZ BR FEW007 BKN009 09/08 Q0992=
200701091650 METAR ESMX 091650Z 21017KT 180V250 5000 -DZ BR FEW007 BKN009 10/08 Q0992=
200701091620 METAR ESMX 091620Z 23016G26KT 190V260 6000 -DZ BR FEW007 OVC010 09/08 Q0992=
200701091550 METAR ESMX 091550Z 21016G28KT 170V240 5000 BR FEW008 BKN011 09/08 Q0992=
200701091520 METAR ESMX 091520Z 23019G30KT 5000 -RA BR FEW008 BKN010 09/08 Q0992=
200701091450 METAR ESMX 091450Z 22017KT 9000 BR FEW010 BKN013 10/08 Q0991=
200701091420 METAR ESMX 091420Z 22016KT 8000 BR FEW009 OVC012 10/09 Q0991=
200701091350 METAR ESMX 091350Z 21018KT 8000 -RA BR FEW006 BKN010 10/09 Q0991=
200701091250 METAR ESMX 091250Z 22016KT 5000 -DZ BR FEW005 OVC009 10/09 Q0991=
200701091220 METAR ESMX 091220Z 20016KT 4000 -DZ BR SCT005 OVC009 09/09 Q0991=
200701091150 METAR ESMX 091150Z 20016KT 6000 -DZ BR BKN005 OVC008 09/09 Q0991=
200701091120 METAR ESMX 091120Z 19018KT 5000 -DZ BR OVC004 09/08 Q0991=
200701091050 METAR ESMX 091050Z 19015KT 8000 -DZ BR OVC004 08/08 Q0992=
200701091020 METAR ESMX 091020Z 18013KT 140V210 8000 -RADZ OVC004 08/07 Q0992=
200701090950 METAR ESMX 090950Z 17012KT 5000 DZ OVC003 07/07 Q0992=
200701090920 METAR ESMX 090920Z 19012KT 9000 -RA OVC003 07/06 Q0993=
200701090850 METAR ESMX 090850Z 17013KT 9999 -DZ OVC003 07/06 Q0993=
200701090820 METAR ESMX 090820Z 17012KT 9999 -DZ OVC003 06/06 Q0993=
200701090750 METAR ESMX 090750Z 19014KT 7000 BR OVC003 06/05 Q0993=
200701090720 METAR ESMX 090720Z 17015KT 6000 BR OVC006 06/05 Q0993 REDZ=
200701090650 METAR ESMX 090650Z 17012KT 8000 -DZ OVC005 05/05 Q0993=
200701090620 METAR ESMX 090620Z 16011KT 140V200 6000 -DZ OVC005 05/04 Q0994=
200701090550 METAR ESMX 090550Z 16011KT 5000 -DZ OVC005 05/04 Q0994=
200701090520 METAR ESMX 090520Z 16010KT 130V190 9999 -RA OVC006 05/04 Q0994=
200701090450 METAR ESMX 090450Z 17008KT 9999 BKN005 OVC009 04/03 Q0995=
200701090420 METAR ESMX 090420Z 16007KT 9999 FEW007 BKN008 OVC011 04/03 Q0995=
200701090350 METAR ESMX 090350Z AUTO 16008KT 9999NDV FEW006/// BKN008/// OVC010/// 04/03 Q0996=
200701090320 METAR ESMX 090320Z AUTO 17008KT 9999NDV FEW007/// SCT009/// OVC020/// 04/03 Q0996=
200701090250 METAR ESMX 090250Z AUTO 19010KT 9999NDV FEW007/// SCT010/// BKN012/// 04/03 Q0996=
200701090220 METAR ESMX 090220Z AUTO 20009KT 160V220 9999NDV FEW009/// SCT017/// BKN020/// 04/03 Q0997=
200701090150 METAR ESMX 090150Z AUTO 19010KT 9999NDV FEW008/// SCT013/// BKN017/// 04/03 Q0997=
200701090120 METAR ESMX 090120Z 19009KT 9999 FEW016 BKN033 04/03 Q0996=
200701090050 METAR ESMX 090050Z 19007KT 9999 FEW013 SCT018 BKN036 04/03 Q0997=
200701090020 METAR ESMX 090020Z 19008KT 9999 FEW011 SCT016 BKN032 04/04 Q0996=
200701082350 METAR ESMX 082350Z 20008KT 9999 FEW019 BKN037 04/03 Q0996=
200701082320 METAR ESMX 082320Z 20006KT 9999 FEW010 SCT014 BKN040 04/03 Q0996=
200701082250 METAR ESMX 082250Z 21008KT 9999 FEW008 BKN011 BKN015 05/03 Q0996=
200701082220 METAR ESMX 082220Z 22008KT 9999 FEW011 BKN014 BKN020 05/04 Q0995=
200701082150 METAR ESMX 082150Z 22008KT 9999 FEW009 SCT013 BKN016 05/04 Q0995=
200701082120 METAR ESMX 082120Z 21008KT 9999 FEW009 SCT012 BKN015 05/04 Q0995=
200701082050 METAR ESMX 082050Z 22008KT 9999 FEW011 SCT014 BKN018 05/04 Q0995=
200701082020 METAR ESMX 082020Z 24009KT 9999 -RA FEW011 SCT015 BKN023 05/04 Q0994=
200701081950 METAR ESMX 081950Z 24008KT 9999 DZ FEW011 SCT015 BKN019 06/04 Q0994=
200701081920 METAR ESMX 081920Z 24009KT 9999 FEW012 SCT015 BKN018 06/04 Q0993=
200701081850 METAR ESMX 081850Z 23010KT 9999 FEW011 SCT013 BKN017 06/05 Q0993=
200701081820 METAR ESMX 081820Z 24009KT 9999 FEW015 BKN024 06/05 Q0993=
200701081750 METAR ESMX 081750Z 22009KT 9999 FEW006 BKN014 06/05 Q0992=
200701081720 METAR ESMX 081720Z 22010KT 9999 -RA FEW006 BKN010 06/05 Q0992=
200701081650 METAR ESMX 081650Z 19010KT 7000 DZ SCT006 BKN015 05/05 Q0992=
200701081620 METAR ESMX 081620Z 21012KT 9999 RA BKN007 OVC020 05/04 Q0992=
200701081550 METAR ESMX 081550Z 19015KT 9999 SHRA BKN006 OVC012 05/05 Q0992=
200701081520 METAR ESMX 081520Z 17013KT 9000 DZ SCT006 BKN010 05/04 Q0992=
200701081450 METAR ESMX 081450Z 17012KT 9000 -SHRA SCT005 OVC009 05/04 Q0992=
200701081350 METAR ESMX 081350Z 17014KT 5000 BR OVC006 05/04 Q0992=
200701081320 METAR ESMX 081320Z 17012KT 120V190 9999 OVC007 05/04 Q0993=
200701081250 METAR ESMX 081250Z 17013KT 9999 OVC007 05/04 Q0994=
200701081220 METAR ESMX 081220Z 17012KT 9999 -RA OVC007 05/04 Q0994=
200701081150 METAR ESMX 081150Z 18012KT 150V210 9999 OVC010 05/04 Q0995=
200701081120 METAR ESMX 081120Z 17014KT 9999 BKN010 OVC015 06/04 Q0996=
200701081050 METAR ESMX 081050Z 18013KT 9999 BKN010 OVC015 06/04 Q0996=
200701081020 METAR ESMX 081020Z 18013KT 9999 FEW010 BKN012 OVC016 06/04 Q0997=
200701080950 METAR ESMX 080950Z 18013KT 150V210 9999 BKN010 06/04 Q0998=
200701080920 METAR ESMX 080920Z 17011KT 140V200 9999 FEW009 BKN013 06/05 Q0998=
200701080850 METAR ESMX 080850Z 19012KT 9999 FEW010 BKN017 06/05 Q0999=
200701080820 METAR ESMX 080820Z 19011KT 9999 FEW006 BKN008 06/05 Q0999=
200701080720 METAR ESMX 080720Z 19012KT 8000 BR FEW007 SCT010 OVC023 06/06 Q0999=
200701080650 METAR ESMX 080650Z 18011KT 7000 BR FEW004 BKN009 07/06 Q0999=
200701080620 METAR ESMX 080620Z 19011KT 5000 -DZ FEW003 BKN007 07/06 Q1000=
200701080550 METAR ESMX 080550Z 19011KT 3100 DZ SCT004 BKN005 07/06 Q1000 RERA=
200701080520 METAR ESMX 080520Z 19012KT 4500 BR OVC004 07/06 Q1000=
200701080450 METAR ESMX 080450Z 20011KT 4600 BR OVC004 07/07 Q1000=
200701080420 METAR ESMX 080420Z AUTO 20012KT 4500NDV -DZ FEW003/// OVC005/// 07/07 Q1001=
200701080350 METAR ESMX 080350Z AUTO 18011KT 4100NDV DZ OVC004/// 07/07 Q1001 RERA=
200701080320 METAR ESMX 080320Z AUTO 18009KT 4600NDV -RA OVC002/// 07/06 Q1001=
200701080250 METAR ESMX 080250Z AUTO 20010KT 2900NDV BR OVC002/// 07/07 Q1001 REDZ=
200701080220 METAR ESMX 080220Z AUTO 20010KT 2900NDV DZ OVC004/// 07/06 Q1002=
200701080150 METAR ESMX 080150Z 20010KT 7000 BR OVC004 07/06 Q1002=
200701080120 METAR ESMX 080120Z 19010KT 8000 BR OVC005 07/06 Q1002=
200701080050 METAR ESMX 080050Z 20009KT 8000 BR BKN004 OVC009 07/06 Q1002=
200701080020 METAR ESMX 080020Z 21009KT 7000 BR OVC003 07/06 Q1002=
200701072350 METAR ESMX 072350Z 18010KT 6000 BR OVC003 06/06 Q1002 RERA REDZ=
200701072320 METAR ESMX 072320Z 19010KT 4400 BR OVC002 06/06 Q1003=
200701072250 METAR ESMX 072250Z 19010KT 6000 BR OVC002 06/06 Q1003=
200701072220 METAR ESMX 072220Z 19010KT 5000 BR OVC002 06/05 Q1003 REDZ RERA=
200701072150 METAR ESMX 072150Z 19011KT 4200 -RA OVC002 05/05 Q1003 REDZ=
200701072120 METAR ESMX 072120Z 20011KT 4700 -RA OVC002 05/05 Q1003 REDZ=
200701072050 METAR ESMX 072050Z 20010KT 3200 DZ OVC004 05/05 Q1003=
200701072020 METAR ESMX 072020Z 19014KT 3500 -DZ OVC004 05/04 Q1003=
200701071950 METAR ESMX 071950Z 18013KT 3800 DZ OVC005 05/04 Q1003 RERA=
200701071920 METAR ESMX 071920Z 18013KT 4700 -DZ OVC005 05/04 Q1003 RERA=
200701071850 METAR ESMX 071850Z 18012KT 7000 -RA FEW006 OVC007 05/04 Q1004=
200701071820 METAR ESMX 071820Z 18012KT 9000 -RA OVC008 05/04 Q1004=
200701071750 METAR ESMX 071750Z 18012KT 9999 DZ BKN009 OVC013 05/04 Q1004=
200701071720 METAR ESMX 071720Z 18012KT 9999 FEW009 BKN011 BKN019 05/04 Q1004=
200701071650 METAR ESMX 071650Z 19010KT 9999 FEW011 SCT015 BKN027 05/04 Q1005=
200701071620 METAR ESMX 071620Z 19010KT 9999 FEW008 SCT017 OVC029 05/04 Q1005=
200701071550 METAR ESMX 071550Z 19011KT 9999 FEW007 SCT013 BKN028 05/05 Q1005=
200701071520 METAR ESMX 071520Z 19009KT 9999 FEW005 SCT008 BKN009 05/05 Q1005=
200701071450 METAR ESMX 071450Z 18009KT 6000 DZ FEW006 SCT008 BKN009 05/05 Q1005=
200701071420 METAR ESMX 071420Z 18008KT 9000 BR FEW006 SCT009 BKN012 05/05 Q1006=
200701071350 METAR ESMX 071350Z 19009KT 9999 -SHRA SCT007 BKN018 05/05 Q1006=
200701071320 METAR ESMX 071320Z 21009KT 7000 RA FEW007 SCT009 OVC010 05/05 Q1006=
200701071250 METAR ESMX 071250Z 19008KT 9999 FEW006 BKN007 OVC010 05/05 Q1006=
200701071220 METAR ESMX 071220Z 19008KT 5000 DZ FEW006 BKN008 OVC012 05/04 Q1006=
200701071150 METAR ESMX 071150Z AUTO 19007KT 6000NDV -DZ FEW008/// SCT011/// BKN015/// 05/04 Q1007 RERA=
200701071120 METAR ESMX 071120Z AUTO 21007KT 9999NDV BKN006/// OVC011/// 05/04 Q1007=
200701071050 METAR ESMX 071050Z AUTO 20007KT 9999NDV FEW006/// SCT007/// BKN035/// 05/04 Q1007=
200701071020 METAR ESMX 071020Z AUTO 20006KT 9000NDV BR OVC004/// 05/04 Q1007=
200701070950 METAR ESMX 070950Z AUTO 21006KT 180V240 8000NDV BR OVC004/// 05/04 Q1007=
200701070920 METAR ESMX 070920Z AUTO 20006KT 7000NDV BR BKN004/// OVC038/// 05/04 Q1007=
200701070850 METAR ESMX 070850Z AUTO 22005KT 7000NDV BR FEW003/// OVC004/// 04/04 Q1007=
200701070820 METAR ESMX 070820Z AUTO 21005KT 6000NDV BR OVC002/// 04/04 Q1007=
200701070750 METAR ESMX 070750Z AUTO 20005KT 6000NDV BR BKN002/// OVC005/// 04/04 Q1006=
200701070720 METAR ESMX 070720Z AUTO 21005KT 6000NDV BR FEW003/// BKN004/// OVC016/// 04/04 Q1006=
200701070650 METAR ESMX 070650Z AUTO 22004KT 7000NDV BR FEW003/// SCT006/// BKN015/// 04/04 Q1006=
200701070620 METAR ESMX 070620Z AUTO 21005KT 7000NDV BR FEW003/// SCT005/// BKN006/// 04/04 Q1006=
200701070550 METAR ESMX 070550Z AUTO 21004KT 7000NDV BR FEW004/// BKN005/// OVC010/// 04/04 Q1006=
200701070520 METAR ESMX 070520Z AUTO 24004KT 7000NDV BR BKN004/// OVC009/// 04/04 Q1006=
200701070450 METAR ESMX 070450Z AUTO 22005KT 190V250 8000NDV BR SCT004/// BKN006/// OVC036/// 04/04 Q1006=
200701070420 METAR ESMX 070420Z AUTO 20004KT 9000NDV BR OVC005/// 04/04 Q1006=
200701070350 METAR ESMX 070350Z AUTO 22004KT 7000NDV BR FEW005/// SCT006/// BKN007/// 04/04 Q1006=
200701070320 METAR ESMX 070320Z AUTO 23004KT 9999NDV OVC004/// 04/04 Q1006=
200701070250 METAR ESMX 070250Z AUTO 20004KT 9999NDV OVC005/// 04/04 Q1005=
200701070220 METAR ESMX 070220Z AUTO 22004KT 7000NDV -DZ BKN006/// OVC009/// 04/04 Q1005 RERA=
200701070150 METAR ESMX 070150Z AUTO 25003KT 210V280 6000NDV -RA SCT005/// BKN009/// OVC011/// 04/04 Q1005 REDZ=
200701070120 METAR ESMX 070120Z AUTO 20004KT 9999NDV FEW006/// SCT014/// BKN023/// 04/04 Q1005=
200701070050 METAR ESMX 070050Z AUTO 22006KT 9999NDV BR FEW005/// SCT009/// BKN014/// 04/04 Q1006=
200701070020 METAR ESMX 070020Z AUTO 19005KT 8000NDV BR BKN004/// OVC010/// 04/04 Q1006=
200701062350 METAR ESMX 062350Z AUTO 18004KT 9999NDV BKN004/// OVC008/// 04/04 Q1006=
200701062320 METAR ESMX 062320Z AUTO 19004KT 150V210 9999NDV FEW005/// SCT006/// BKN026/// 04/03 Q1006=
200701062250 METAR ESMX 062250Z AUTO 21004KT 9999NDV FEW026/// BKN033/// 04/03 Q1006=
200701062220 METAR ESMX 062220Z AUTO 22006KT 9999NDV FEW020/// BKN030/// 04/03 Q1006=
200701062150 METAR ESMX 062150Z AUTO 22006KT 9999NDV FEW020/// 04/03 Q1006=
200701062120 METAR ESMX 062120Z AUTO 22009KT 9999NDV FEW004/// BKN028/// 04/04 Q1007=
200701062050 METAR ESMX 062050Z AUTO 22007KT 9999NDV FEW007/// SCT016/// BKN024/// 04/04 Q1007=
200701062020 METAR ESMX 062020Z AUTO 23006KT 200V260 9999NDV BR FEW008/// SCT012/// BKN016/// 04/04 Q1007 REDZ RERA=
200701061950 METAR ESMX 061950Z AUTO 21007KT 6000NDV -DZ FEW018/// SCT022/// BKN026/// 05/04 Q1007 RERA=
200701061920 METAR ESMX 061920Z AUTO 23009KT 5000NDV -RA FEW029/// SCT068/// 04/04 Q1007 REDZ=
200701061850 METAR ESMX 061850Z AUTO 23008KT 9999NDV FEW031/// 04/03 Q1007=
200701061820 METAR ESMX 061820Z AUTO 22006KT 9999NDV FEW012/// 03/03 Q1007=
200701061750 METAR ESMX 061750Z AUTO 20005KT 9000NDV FEW008/// BKN038/// 03/03 Q1007=
200701061720 METAR ESMX 061720Z AUTO 22005KT 9999NDV FEW010/// SCT028/// 04/03 Q1007=
200701061650 METAR ESMX 061650Z AUTO 22005KT 9999NDV FEW009/// SCT011/// BKN015/// 05/04 Q1007=
200701061620 METAR ESMX 061620Z AUTO 22005KT 9999NDV FEW008/// SCT010/// BKN014/// 04/03 Q1007=
200701061550 METAR ESMX 061550Z AUTO 23007KT 9999NDV SCT010/// BKN034/// 05/04 Q1007=
200701061520 METAR ESMX 061520Z AUTO 24006KT 9999NDV SCT013/// BKN026/// BKN038/// 05/04 Q1007=
200701061450 METAR ESMX 061450Z AUTO 21006KT 190V250 9999NDV FEW014/// BKN021/// BKN041/// 05/03 Q1007=
200701061420 METAR ESMX 061420Z AUTO 24006KT 200V260 9999NDV FEW018/// 05/03 Q1007=
200701061350 METAR ESMX 061350Z AUTO 23006KT 9999NDV BKN030/// 06/04 Q1007=
200701061320 METAR ESMX 061320Z AUTO 25008KT 9999NDV BKN030/// 06/04 Q1007=
200701061250 METAR ESMX 061250Z AUTO 25008KT 190V280 9999NDV FEW014/// SCT028/// BKN031/// 06/04 Q1007=
200701061220 METAR ESMX 061220Z AUTO 25008KT 9999NDV FEW013/// OVC027/// 06/04 Q1007=
200701061150 METAR ESMX 061150Z AUTO 25008KT 9999NDV FEW013/// OVC028/// 06/04 Q1007=
200701061120 METAR ESMX 061120Z AUTO 24008KT 9999NDV FEW011/// BKN014/// OVC029/// 06/04 Q1007=
200701061050 METAR ESMX 061050Z AUTO 25007KT 200V270 9999NDV FEW014/// OVC022/// 06/04 Q1007=
200701061020 METAR ESMX 061020Z AUTO 24008KT 190V280 9999NDV FEW013/// OVC023/// 06/04 Q1006=
200701060950 METAR ESMX 060950Z AUTO 26007KT 230V300 9999NDV FEW011/// SCT014/// BKN017/// 06/04 Q1006=
200701060920 METAR ESMX 060920Z AUTO 24007KT 200V270 9999NDV FEW014/// BKN022/// 05/04 Q1006=
200701060850 METAR ESMX 060850Z AUTO 25006KT 220V290 9999NDV FEW013/// OVC019/// 05/04 Q1006=
200701060820 METAR ESMX 060820Z AUTO 27006KT 240V300 9999NDV OVC012/// 05/04 Q1006=
200701060750 METAR ESMX 060750Z AUTO 27008KT 230V310 9999NDV FEW011/// OVC014/// 05/04 Q1005=
200701060720 METAR ESMX 060720Z AUTO 27009KT 230V290 9999NDV BKN013/// OVC018/// 05/04 Q1005=
200701060650 METAR ESMX 060650Z AUTO 27009KT 240V300 9999NDV FEW014/// BKN017/// 05/04 Q1004=
200701060620 METAR ESMX 060620Z AUTO 27008KT 9999NDV FEW015/// OVC018/// 06/04 Q1004=
200701060550 METAR ESMX 060550Z AUTO 27010KT 230V300 9999NDV FEW016/// BKN018/// BKN023/// 06/04 Q1004=
200701060520 METAR ESMX 060520Z AUTO 27010KT 230V300 9999NDV FEW016/// BKN021/// 06/04 Q1003=
200701060450 METAR ESMX 060450Z AUTO 27012KT 9999NDV FEW016/// OVC021/// 06/04 Q1003=
200701060420 METAR ESMX 060420Z AUTO 26009KT 9999NDV FEW016/// OVC021/// 06/05 Q1003=
200701060350 METAR ESMX 060350Z AUTO 25011KT 200V290 9999NDV FEW013/// OVC020/// 07/05 Q1002 RERA REDZ=
200701060320 METAR ESMX 060320Z AUTO 27012KT 240V310 8000NDV FEW007/// SCT009/// BKN011/// 07/06 Q1002 RERA REDZ=
200701060250 METAR ESMX 060250Z AUTO 25008KT 8000NDV BR FEW004/// SCT006/// BKN008/// 07/06 Q1002=
200701060220 METAR ESMX 060220Z AUTO 23008KT 2800NDV BR FEW003/// OVC005/// 06/06 Q1001 REDZ=
200701060150 METAR ESMX 060150Z AUTO 20008KT 3000NDV -DZ OVC003/// 06/06 Q1001=
200701060120 METAR ESMX 060120Z AUTO 20008KT 4800NDV -RA OVC003/// 06/05 Q1001=
200701060050 METAR ESMX 060050Z AUTO 21008KT 170V240 3800NDV BR SCT003/// OVC005/// 06/05 Q1001 RERA REDZ=
200701060020 METAR ESMX 060020Z AUTO 19009KT 3200NDV -RA OVC003/// 05/05 Q1001 REDZ=
200701052350 METAR ESMX 052350Z AUTO 19008KT 3700NDV -RA OVC002/// 05/05 Q1002 REDZ=
200701052320 METAR ESMX 052320Z AUTO 19009KT 9999NDV OVC002/// 05/05 Q1002 RERA REDZ=
200701052250 METAR ESMX 052250Z AUTO 21009KT 8000NDV BR OVC002/// 05/04 Q1002 REDZ=
200701052220 METAR ESMX 052220Z AUTO 19009KT 4700NDV -RA OVC004/// 05/04 Q1003 REDZ=
200701052150 METAR ESMX 052150Z AUTO 20008KT 9999NDV -RA OVC005/// 05/04 Q1003 REDZ=
200701052120 METAR ESMX 052120Z AUTO 20007KT 9999NDV -RA OVC005/// 04/04 Q1003 REDZ=
200701052050 METAR ESMX 052050Z AUTO 20007KT 9999NDV -DZ FEW006/// SCT007/// BKN010/// 04/04 Q1004=
200701052020 METAR ESMX 052020Z AUTO 21007KT 9000NDV -DZ BKN006/// OVC013/// 04/03 Q1004 RERA=
200701051950 METAR ESMX 051950Z AUTO 22006KT 9999NDV BKN006/// OVC009/// 04/03 Q1004=
200701051920 METAR ESMX 051920Z AUTO 21007KT 9999NDV FEW006/// BKN008/// BKN010/// 04/03 Q1004=
200701051850 METAR ESMX 051850Z AUTO 20006KT 9999NDV FEW010/// SCT110/// 03/03 Q1004=
200701051820 METAR ESMX 051820Z AUTO 22006KT 9999NDV FEW005/// 03/03 Q1004=
200701051750 METAR ESMX 051750Z AUTO 21006KT 9999NDV BKN004/// 03/03 Q1004=
200701051720 METAR ESMX 051720Z AUTO 22005KT 190V250 9999NDV FEW006/// SCT027/// BKN047/// 03/02 Q1005=
200701051650 METAR ESMX 051650Z AUTO 21004KT 9999NDV BKN048/// 02/02 Q1005=
200701051620 METAR ESMX 051620Z AUTO 24004KT 9999NDV NCD 03/02 Q1004=
200701051550 METAR ESMX 051550Z AUTO 22004KT 9999NDV NCD 03/02 Q1004=
200701051520 METAR ESMX 051520Z AUTO 24004KT 9999NDV NCD 03/02 Q1004=
200701051450 METAR ESMX 051450Z AUTO 25004KT 9999NDV NCD 03/01 Q1004=
200701051420 METAR ESMX 051420Z AUTO 26002KT 9999NDV NCD 03/01 Q1004=
200701051350 METAR ESMX 051350Z 25003KT CAVOK 03/01 Q1003=
200701051320 METAR ESMX 051320Z 29003KT CAVOK 04/02 Q1003=
200701051250 METAR ESMX 051250Z 30004KT CAVOK 04/02 Q1002=
200701051220 METAR ESMX 051220Z 30005KT CAVOK 04/02 Q1002=
200701051150 METAR ESMX 051150Z 31006KT CAVOK 05/02 Q1002=
200701051120 METAR ESMX 051120Z 31009KT CAVOK 05/02 Q1001=
200701051050 METAR ESMX 051050Z 28006KT CAVOK 05/03 Q1001=
200701051020 METAR ESMX 051020Z 29005KT CAVOK 05/03 Q1000=
200701050950 METAR ESMX 050950Z 29004KT 9999 BKN046 05/03 Q1000=
200701050920 METAR ESMX 050920Z 31005KT 9999 SCT039 05/04 Q0999=
200701050850 METAR ESMX 050850Z 32005KT 9999 FEW011 SCT023 05/04 Q0998=
200701050820 METAR ESMX 050820Z 31005KT 9999 -DZ FEW012 BKN016 05/04 Q0998=
200701050750 METAR ESMX 050750Z 29006KT 9999 -RA FEW007 SCT010 OVC012 05/05 Q0997=
200701050720 METAR ESMX 050720Z 29008KT 9999 DZ FEW004 SCT006 BKN008 05/05 Q0996=
200701050650 METAR ESMX 050650Z AUTO 28007KT 250V310 9999NDV OVC004/// 05/04 Q0996 RERA REDZ=
200701050620 METAR ESMX 050620Z AUTO 29003KT 240V320 9999NDV BKN005/// 05/04 Q0995=
200701050550 METAR ESMX 050550Z AUTO 27003KT 230V320 9999NDV OVC006/// 05/05 Q0995=
200701050520 METAR ESMX 050520Z AUTO 27003KT 220V310 9999NDV FEW007/// SCT008/// OVC011/// 06/05 Q0994=
200701050450 METAR ESMX 050450Z AUTO 28004KT 9999NDV FEW006/// SCT008/// BKN009/// 05/05 Q0994=
200701050420 METAR ESMX 050420Z AUTO 27004KT 240V300 9999NDV SCT011/// 05/05 Q0993=
200701050350 METAR ESMX 050350Z AUTO 27005KT 9999NDV SCT017/// 05/04 Q0993=
200701050320 METAR ESMX 050320Z AUTO 29005KT 260V340 9999NDV FEW009/// OVC020/// 06/05 Q0992=
200701050250 METAR ESMX 050250Z AUTO 30006KT 270V350 9999NDV FEW007/// BKN009/// OVC014/// 06/05 Q0992=
200701050220 METAR ESMX 050220Z AUTO 29007KT 9999NDV FEW008/// SCT015/// OVC017/// 06/05 Q0991=
200701050150 METAR ESMX 050150Z AUTO 29006KT 9999NDV FEW007/// SCT009/// BKN014/// 06/05 Q0990=
200701050120 METAR ESMX 050120Z AUTO 26006KT 220V300 9999NDV FEW007/// SCT012/// OVC024/// 06/05 Q0990=
200701050050 METAR ESMX 050050Z 27006KT 240V310 9999 SCT005 BKN025 06/05 Q0989=
200701050020 METAR ESMX 050020Z 26006KT 4000 BR FEW005 SCT009 BKN015 06/06 Q0989=
200701042350 METAR ESMX 042350Z 25006KT 5000 BR FEW005 SCT007 BKN010 06/06 Q0988=
200701042320 METAR ESMX 042320Z 22006KT 190V250 4000 DZ FEW004 BKN006 06/05 Q0988 RERA=
200701042250 METAR ESMX 042250Z 23008KT 5000 BR FEW004 OVC007 06/05 Q0988=
200701042220 METAR ESMX 042220Z 23008KT 4000 -DZ FEW005 BKN006 OVC008 06/05 Q0987 RERA=
200701042150 METAR ESMX 042150Z 20009KT 170V240 3800 BR FEW005 SCT007 BKN008 06/05 Q0987 RERA REDZ=
200701042120 METAR ESMX 042120Z 22008KT 6000 BR FEW006 SCT009 BKN010 06/06 Q0987 REDZ RERA=
200701042050 METAR ESMX 042050Z 20009KT 5000 DZ FEW006 BKN009 06/06 Q0987 REUP RERA=
200701042020 METAR ESMX 042020Z 20010KT 9999 FEW006 BKN010 06/06 Q0987 RERA REDZ=
200701041920 METAR ESMX 041920Z 20011KT 7000 BR FEW007 BKN012 06/06 Q0987 RERA=
200701041850 METAR ESMX 041850Z 20010KT 5000 -RA FEW008 BKN010 06/06 Q0987=
200701041820 METAR ESMX 041820Z 19008KT 9999 -SHRA FEW007 SCT010 BKN013 06/06 Q0987=
200701041750 METAR ESMX 041750Z 21010KT 8000 -RA SCT008 BKN012 06/06 Q0987=
200701041720 METAR ESMX 041720Z 22011KT 9999 FEW006 SCT008 BKN012 07/06 Q0987=
200701041650 METAR ESMX 041650Z 19010KT 4500 RA FEW005 SCT007 BKN009 06/06 Q0988=
200701041620 METAR ESMX 041620Z 19012KT 9000 -DZ FEW007 BKN010 OVC014 07/06 Q0988=
200701041550 METAR ESMX 041550Z 19012KT 9000 DZ FEW007 SCT010 BKN013 07/06 Q0988=
200701041520 METAR ESMX 041520Z 19011KT 9999 FEW007 SCT012 BKN016 07/06 Q0988=
200701041450 METAR ESMX 041450Z 19012KT 9999 FEW006 SCT008 BKN011 07/06 Q0989=
200701041420 METAR ESMX 041420Z 19012KT 9999 FEW006 SCT008 BKN013 07/06 Q0989=
200701041350 METAR ESMX 041350Z 19012KT 8000 DZ BKN005 OVC009 07/06 Q0989=
200701041320 METAR ESMX 041320Z 21012KT 9999 -DZ BKN005 OVC009 07/0 Q0989=
200701041250 METAR ESMX 041250Z 19013KT 7000 DZ BKN005 OVC009 07/06 Q0989=
200701041220 METAR ESMX 041220Z 19013KT 5000 BR OVC006 07/06 Q0990=
200701041150 METAR ESMX 041150Z 19015KT 5000 DZ SCT006 OVC010 07/06 Q0990=
200701041120 METAR ESMX 041120Z 19014KT 6000 -DZ BKN005 OVC011 07/06 Q0991=
200701041050 METAR ESMX 041050Z 19014KT 5000 -SHRA BKN006 OVC010 07/06 Q0991=
200701041020 METAR ESMX 041020Z 19013KT 5000 DZ BKN005 OVC007 07/06 Q0992=
200701040950 METAR ESMX 040950Z 19014KT 5000 DZ FEW004 OVC005 07/06 Q0992=
200701040920 METAR ESMX 040920Z 19014KT 6000 -RA FEW005 OVC008 07/06 Q0992=
200701040850 METAR ESMX 040850Z 19013KT 7000 BR BKN005 OVC010 07/06 Q0993=
200701040820 METAR ESMX 040820Z 20013KT 5000 BR BKN005 OVC008 07/06 Q0993=
200701040750 METAR ESMX 040750Z 20013KT 9000 BR BKN005 OVC008 07/06 Q0993 REDZ=
200701040720 METAR ESMX 040720Z 21014KT 5000 DZ FEW005 OVC010 07/06 Q0993=
200701040650 METAR ESMX 040650Z 19014KT 3500 DZ SCT006 OVC010 07/06 Q0994=
200701040620 METAR ESMX 040620Z AUTO 20013KT 9999NDV -DZ FEW008/// BKN010/// OVC015/// 07/06 Q0994 RERA=
200701040550 METAR ESMX 040550Z AUTO 20015KT 9999NDV -RA FEW006/// SCT008/// BKN009/// 07/06 Q0995=
200701040520 METAR ESMX 040520Z AUTO 19014KT 9999NDV OVC005/// 07/06 Q0995=
200701040450 METAR ESMX 040450Z AUTO 19014KT 9999NDV OVC005/// 06/06 Q0995=
200701040420 METAR ESMX 040420Z AUTO 19011KT 9999NDV BR OVC004/// 06/06 Q0996=
200701040350 METAR ESMX 040350Z AUTO 19014KT 5000NDV BR OVC002/// 06/06 Q0997 RERA REDZ=
200701040320 METAR ESMX 040320Z AUTO 18013KT 3200NDV BR OVC002/// 06/05 Q0997=
200701040250 METAR ESMX 040250Z AUTO 19014KT 5000NDV BR BKN002/// OVC005/// 06/05 Q0998 REDZ=
200701040220 METAR ESMX 040220Z AUTO 19011KT 2600NDV DZ OVC001/// 05/05 Q0999 RERA=
200701040150 METAR ESMX 040150Z AUTO 19012KT 2800NDV BR OVC001/// 05/05 Q0999 REDZ=
200701040120 METAR ESMX 040120Z AUTO 19012KT 1800NDV DZ OVC001/// 05/04 Q1000=
200701040050 METAR ESMX 040050Z 20012KT 4000 BR OVC002 05/04 Q1001 REDZ=
200701040020 METAR ESMX 040020Z 18014KT 3000 -RA OVC002 04/04 Q1001 REDZ=
200701032350 METAR ESMX 032350Z 18014KT 3000 DZ OVC003 04/04 Q1002=
200701032320 METAR ESMX 032320Z 19013KT 4000 DZ OVC002 04/04 Q1002=
200701032250 METAR ESMX 032250Z 18012KT 7000 DZ OVC002 04/04 Q1003 RERA=
200701032220 METAR ESMX 032220Z 18012KT 8000 BR OVC002 04/04 Q1004=
200701032120 METAR ESMX 032120Z 18010KT 6000 -RA BKN003 04/03 Q1005 REDZ=
200701032050 METAR ESMX 032050Z 18009KT 4500 -DZ BKN004 04/03 Q1006 RERA=
200701032020 METAR ESMX 032020Z 18008KT 9999 -DZ SCT005 BKN008 04/03 Q1007 RERA=
200701031950 METAR ESMX 031950Z 18009KT 7000 -RA SCT007 BKN018 03/03 Q1007 REDZ=
200701031920 METAR ESMX 031920Z 19008KT 9000 -DZ FEW006 SCT010 BKN028 03/03 Q1008=
200701031850 METAR ESMX 031850Z 19008KT 9000 -DZ FEW006 BKN010 04/03 Q1008 RERA=
200701031820 METAR ESMX 031820Z 22007KT 9999 FEW010 BKN050 03/03 Q1009=
200701031750 METAR ESMX 031750Z 23006KT 9999 FEW015 BKN085 03/02 Q1009=
200701031720 METAR ESMX 031720Z 23007KT 200V260 9999 FEW010 SCT080 03/02 Q1009=
200701031650 METAR ESMX 031650Z 22006KT 9999 SCT013 BKN070 02/02 Q1010=
200701031620 METAR ESMX 031620Z 21006KT 9999 SCT015 BKN075 02/01 Q1010=
200701031550 METAR ESMX 031550Z 22006KT 9999 SCT015 BKN024 02/01 Q1011=
200701031520 METAR ESMX 031520Z 21007KT 9999 FEW019 BKN023 02/01 Q1011=
200701031420 METAR ESMX 031420Z 20005KT 9999 FEW016 SCT020 02/01 Q1011=
200701031350 METAR ESMX 031350Z 23005KT 9999 FEW025 03/01 Q1011=
200701031320 METAR ESMX 031320Z 22005KT 9999 FEW030 03/02 Q1011=
200701031250 METAR ESMX 031250Z 23006KT 9999 SCT030 03/01 Q1011=
200701031220 METAR ESMX 031220Z 24005KT 210V280 9999 FEW030 03/01 Q1011=
200701031150 METAR ESMX 031150Z 25006KT 210V280 9999 FEW030 03/01 Q1011=
200701031120 METAR ESMX 031120Z 27006KT 240V300 9999 FEW020 03/01 Q1011=
200701031050 METAR ESMX 031050Z 26005KT 220V290 CAVOK 03/01 Q1011=
200701031020 METAR ESMX 031020Z 26006KT CAVOK 02/01 Q1012=
200701030950 METAR ESMX 030950Z 26003KT CAVOK 01/00 Q1011=
200701030920 METAR ESMX 030920Z 26004KT 220V280 CAVOK 01/M00 Q1011=
200701030850 METAR ESMX 030850Z 26005KT 230V290 CAVOK 00/M01 Q1011=
200701030820 METAR ESMX 030820Z 23003KT 200V290 CAVOK M01/M01 Q1011=
200701030750 METAR ESMX 030750Z 23003KT CAVOK M02/M02 Q1011=
200701030720 METAR ESMX 030720Z 16004KT CAVOK M01/M01 Q1011=
200701030650 METAR ESMX 030650Z 18005KT CAVOK M02/M02 Q1011=
200701030620 METAR ESMX 030620Z AUTO 19003KT 9999NDV NCD M01/M02 Q1010=
200701030550 METAR ESMX 030550Z AUTO 25004KT 9999NDV NCD M01/M01 Q1010=
200701030520 METAR ESMX 030520Z AUTO 28005KT 9999NDV NCD M00/M01 Q1010=
200701030450 METAR ESMX 030450Z AUTO 27005KT 9999NDV NCD 00/M00 Q1009=
200701030420 METAR ESMX 030420Z AUTO 27006KT 9999NDV NCD 00/M00 Q1009=
200701030350 METAR ESMX 030350Z AUTO 27005KT 9999NDV NCD 00/M00 Q1009=
200701030320 METAR ESMX 030320Z AUTO 26004KT 9999NDV NCD 00/M00 Q1009=
200701030250 METAR ESMX 030250Z AUTO 27006KT 9999NDV NCD 01/00 Q1008=
200701030220 METAR ESMX 030220Z AUTO 27007KT 9999NDV NCD 01/01 Q1008=
200701030150 METAR ESMX 030150Z AUTO 27006KT 9999NDV NCD 01/01 Q1007=
200701030120 METAR ESMX 030120Z AUTO 27006KT 9999NDV NCD 02/01 Q1007=
200701030050 METAR ESMX 030050Z 27006KT CAVOK 02/01 Q1006=
200701030020 METAR ESMX 030020Z 28007KT CAVOK 02/01 Q1006=
200701022350 METAR ESMX 022350Z 28007KT CAVOK 02/01 Q1006=
200701022320 METAR ESMX 022320Z 28007KT CAVOK 02/01 Q1005=
200701022250 METAR ESMX 022250Z 26008KT CAVOK 02/01 Q1005=
200701022220 METAR ESMX 022220Z 27008KT CAVOK 02/02 Q1004=
200701022150 METAR ESMX 022150Z 28007KT 250V310 CAVOK 02/02 Q1004=
200701022120 METAR ESMX 022120Z 27006KT CAVOK 03/02 Q1004=
200701022050 METAR ESMX 022050Z 25005KT CAVOK 02/02 Q1003=
200701022020 METAR ESMX 022020Z 28007KT CAVOK 03/02 Q1003=
200701021950 METAR ESMX 021950Z 26007KT CAVOK 03/02 Q1002=
200701021850 METAR ESMX 021850Z 27008KT CAVOK 03/02 Q1001=
200701021820 METAR ESMX 021820Z 26008KT CAVOK 03/02 Q1001=
200701021750 METAR ESMX 021750Z 26007KT 230V290 9999 FEW017 SCT030 03/02 Q1001=
200701021720 METAR ESMX 021720Z 26006KT 9999 FEW017 BKN020 04/03 Q1000=
200701021650 METAR ESMX 021650Z 25007KT 9999 FEW017 BKN020 04/03 Q1000=
200701021620 METAR ESMX 021620Z 25008KT 9999 FEW010 SCT020 BKN030 04/03 Q1000=
200701021550 METAR ESMX 021550Z 22006KT 180V250 9999 SCT010 OVC045 04/03 Q0999=
200701021520 METAR ESMX 021520Z 25006KT 9999 SCT010 BKN040 04/03 Q0999=
200701021450 METAR ESMX 021450Z 24007KT 9999 FEW012 BKN018 04/03 Q0999=
200701021420 METAR ESMX 021420Z 25008KT 9999 FEW010 SCT015 OVC020 04/03 Q0998=
200701021350 METAR ESMX 021350Z 24007KT 9999 FEW010 SCT016 BKN020 04/03 Q0998=
200701021320 METAR ESMX 021320Z 23006KT 200V260 9999 FEW007 SCT020 BKN035 04/03 Q0998=
200701021250 METAR ESMX 021250Z 23009KT 9999 FEW015 SCT025 04/02 Q0998 REDZ=
200701021220 METAR ESMX 021220Z 24008G18KT 9999 DZ FEW020 SCT025 BKN040 04/02 Q0998 RERA=
200701021150 METAR ESMX 021150Z 25008KT 220V280 9999 FEW021 OVC034 04/02 Q0998 RERA=
200701021120 METAR ESMX 021120Z 23008KT 180V260 9999 SCT015 BKN040 04/02 Q0998 RERA=
200701021050 METAR ESMX 021050Z 24008KT 9999 FEW014 BKN019 05/03 Q0998 RERA=
200701021020 METAR ESMX 021020Z 23008KT 9999 FEW019 SCT022 BKN034 04/03 Q0998=
200701020950 METAR ESMX 020950Z 23006KT 200V280 9999 FEW020 SCT032 OVC038 04/03 Q0998=
200701020920 METAR ESMX 020920Z 23007KT 200V260 9999 FEW017 BKN043 04/02 Q0997 RERA REDZ=
200701020850 METAR ESMX 020850Z 25009KT 200V270 9999 FEW021 SCT044 04/02 Q0997=
200701020820 METAR ESMX 020820Z 24008KT 9999 FEW024 04/02 Q0997=
200701020750 METAR ESMX 020750Z 22006KT 200V260 9999 FEW018 SCT028 04/02 Q0997 RERA REDZ=
200701020720 METAR ESMX 020720Z 22007KT 9999 SCT019 04/02 Q0997=
200701020650 METAR ESMX 020650Z 25009KT CAVOK SCT020 04/02 Q0997=
200701020620 METAR ESMX 020620Z AUTO 25008KT 210V300 9999NDV FEW018/// SCT024/// BKN031/// 05/02 Q0996=
200701020550 METAR ESMX 020550Z AUTO 26009KT 220V280 9999NDV FEW020/// 04/02 Q0996=
200701020520 METAR ESMX 020520Z AUTO 26011KT 9999NDV FEW021/// SCT027/// 04/02 Q0995=
200701020450 METAR ESMX 020450Z AUTO 26009KT 210V290 9999NDV FEW021/// BKN027/// 05/02 Q0995=
200701020420 METAR ESMX 020420Z AUTO 27010KT 9999NDV FEW023/// SCT030/// 05/02 Q0995=
200701020350 METAR ESMX 020350Z AUTO 26011KT 9999NDV FEW020/// SCT025/// BKN034/// 05/02 Q0994=
200701020320 METAR ESMX 020320Z AUTO 27010KT 9999NDV FEW019/// BKN023/// BKN032/// 05/02 Q0994=
200701020250 METAR ESMX 020250Z AUTO 26011KT 9999NDV FEW022/// BKN026/// 04/02 Q0994=
200701020220 METAR ESMX 020220Z AUTO 27011KT 9999NDV FEW021/// 04/02 Q0993=
200701020150 METAR ESMX 020150Z AUTO 27009KT 9999NDV NCD 04/02 Q0993=
200701020120 METAR ESMX 020120Z 27011KT CAVOK 04/02 Q0992=
200701020050 METAR ESMX 020050Z 27012KT 9999 FEW020 04/02 Q0992=
200701020020 METAR ESMX 020020Z 28013KT 240V300 9999 FEW017 04/03 Q0992=
200701012350 METAR ESMX 012350Z 27013KT 250V310 9999 FEW017 04/03 Q0991=
200701012320 METAR ESMX 012320Z 27013KT 9999 SCT015 04/03 Q0990=
200701012250 METAR ESMX 012250Z 27016KT 240V300 9999 BKN015 04/03 Q0990=
200701012220 METAR ESMX 012220Z 27012G22KT 230V320 9000 -RA FEW008 BKN012 04/03 Q0990=
200701012150 METAR ESMX 012150Z 27015KT 9000 -DZ FEW007 BKN012 04/03 Q0989=
200701012020 METAR ESMX 012020Z 28021G38KT 250V320 7000 SHRA FEW008 BKN013CB 04/03 Q0985=
200701011950 METAR ESMX 011950Z 26016KT 230V290 6000 RA FEW011 BKN015CB 05/04 Q0985=
200701011920 METAR ESMX 011920Z 26017G29KT 7000 BR FEW010 BKN013 05/04 Q0984=
200701011850 METAR ESMX 011850Z 25015KT 8000 -SHRA FEW010 SCT013CB BKN017 05/04 Q0983=
200701011820 METAR ESMX 011820Z AUTO 25016G27KT 220V290 7000NDV -RA FEW010/// BKN013/// 05/04 Q0983 REDZ=
200701011750 METAR ESMX 011750Z AUTO 25016KT 6000NDV -RA FEW008/// BKN011/// OVC017/// 05/04 Q0982 REDZ=
200701011720 METAR ESMX 011720Z AUTO 23017G29KT 200V270 7000NDV -RA FEW009/// SCT012/// BKN014/// 05/04 Q0982 REDZ=
200701011650 METAR ESMX 011650Z AUTO 23018G32KT 190V260 5000NDV -DZ FEW011/// BKN014/// OVC018/// 05/04 Q0981 RERA=
200701011620 METAR ESMX 011620Z AUTO 25019G30KT 210V290 5000NDV -RA FEW010/// SCT014/// OVC016/// 06/04 Q0981=
200701011550 METAR ESMX 011550Z AUTO 24019G34KT 200V280 4800NDV -RA FEW012/// BKN015/// OVC018/// 06/04 Q0980 REDZ=
200701011520 METAR ESMX 011520Z AUTO 22020G35KT 190V260 5000NDV DZ FEW013/// BKN015/// OVC018/// 06/04 Q0980 RERA=
200701011450 METAR ESMX 011450Z AUTO 23019G32KT 200V280 7000NDV DZ FEW013/// BKN016/// OVC021/// 06/04 Q0980 RERA=
200701011420 METAR ESMX 011420Z AUTO 24019G33KT 200V280 7000NDV -RA FEW013/// BKN017/// OVC023/// 06/04 Q0981 REDZ=
200701011350 METAR ESMX 011350Z AUTO 22020G35KT 9000NDV -DZ SCT013/// BKN018/// OVC022/// 06/04 Q0981=
200701011320 METAR ESMX 011320Z AUTO 21018G30KT 180V250 8000NDV DZ FEW011/// OVC013/// 06/05 Q0982 RERA=
200701011250 METAR ESMX 011250Z AUTO 23017KT 9999NDV -RA FEW010/// BKN013/// OVC018/// 06/04 Q0982 REDZ=
200701011220 METAR ESMX 011220Z AUTO 21016KT 180V240 8000NDV -DZ FEW009/// OVC011/// 06/04 Q0983 RERA=
