##########################################################
# Query made at 04/19/2024 20:57:37 UTC
# Time interval: from 05/01/2007 12:00  to 05/31/2007 12:59  UTC
##########################################################

##########################################################
# ESMX, Vaxjo (Sweden)
# WMO index: 02641. WIGOS ID: 0-20000-0-02648
# Latitude 56-51N. Longitude 014-50E. Altitude 199 m.
##########################################################

200705311250 METAR ESMX 311250Z 07003KT 040V110 9999 SCT025 OVC050 16/12 Q1015=
200705311150 METAR ESMX 311150Z 04005KT 010V070 9999 SCT020 BKN050 17/12 Q1015=
200705311120 METAR ESMX 311120Z 03005KT 360V070 9999 SCT015 BKN050 16/11 Q1015=
200705311020 METAR ESMX 311020Z 36004KT 9999 OVC014 15/11 Q1015=
200705310950 METAR ESMX 310950Z 36004KT 310V030 9999 OVC014 14/10 Q1015=
200705310920 METAR ESMX 310920Z 33004KT 300V020 9999 OVC014 14/10 Q1015=
200705310850 METAR ESMX 310850Z 33005KT 9999 OVC012 13/10 Q1015=
200705310820 METAR ESMX 310820Z 34004KT 300V010 9999 FEW011 OVC017 13/09 Q1015=
200705310750 METAR ESMX 310750Z 35004KT 9999 OVC017 13/09 Q1015=
200705310650 METAR ESMX 310650Z 30005KT 9999 OVC020 12/08 Q1014=
200705310620 METAR ESMX 310620Z 32005KT 9999 OVC019 12/07 Q1014=
200705310550 METAR ESMX 310550Z 33006KT 290V360 9999 OVC022 11/07 Q1014=
200705310520 METAR ESMX 310520Z 31006KT 9999 OVC020 11/07 Q1014=
200705310450 METAR ESMX 310450Z 30006KT 260V330 9999 OVC021 11/07 Q1014=
200705310420 METAR ESMX 310420Z 32006KT 290V360 9999 OVC022 11/07 Q1013=
200705310350 METAR ESMX 310350Z 31005KT 270V340 9999 OVC025 11/07 Q1013=
200705310320 METAR ESMX 310320Z AUTO 31005KT 260V350 9999NDV OVC024/// 11/07 Q1013=
200705310250 METAR ESMX 310250Z AUTO 31006KT 9999NDV OVC022/// 11/07 Q1013=
200705310220 METAR ESMX 310220Z AUTO 31005KT 9999NDV OVC023/// 11/07 Q1013=
200705310150 METAR ESMX 310150Z AUTO 32006KT 9999NDV OVC025/// 11/07 Q1013=
200705310120 METAR ESMX 310120Z AUTO 30005KT 250V330 9999NDV OVC025/// 11/08 Q1013=
200705310050 METAR ESMX 310050Z AUTO 29004KT 9999NDV OVC024/// 11/08 Q1013=
200705310020 METAR ESMX 310020Z AUTO 30005KT 9999NDV OVC023/// 11/08 Q1013=
200705302350 METAR ESMX 302350Z 32005KT 9999 OVC023 11/08 Q1012=
200705302320 METAR ESMX 302320Z 30006KT 280V340 9999 OVC023 11/09 Q1012=
200705302250 METAR ESMX 302250Z 30005KT 9999 OVC024 11/09 Q1012=
200705302220 METAR ESMX 302220Z 30006KT 9999 OVC024 12/09 Q1012=
200705302150 METAR ESMX 302150Z 29005KT 9999 FEW021 OVC025 12/10 Q1012=
200705302120 METAR ESMX 302120Z 30006KT 9999 FEW018 OVC025 12/10 Q1012=
200705302050 METAR ESMX 302050Z 30005KT 9999 FEW017 SCT020 OVC026 13/10 Q1012=
200705302020 METAR ESMX 302020Z 27005KT 240V320 9999 BKN015 OVC027 13/10 Q1012=
200705301950 METAR ESMX 301950Z 27005KT 9999 OVC025 13/10 Q1011=
200705301920 METAR ESMX 301920Z 28005KT 9999 OVC015 13/10 Q1011=
200705301850 METAR ESMX 301850Z 29008KT 260V320 9999 OVC010 13/10 Q1011=
200705301820 METAR ESMX 301820Z 29007KT 9999 OVC010 13/11 Q1011=
200705301750 METAR ESMX 301750Z 29007KT 9999 OVC010 13/11 Q1010=
200705301720 METAR ESMX 301720Z 27010KT 9999 OVC011 13/11 Q1010=
200705301650 METAR ESMX 301650Z 28010KT 9999 OVC007 13/12 Q1009=
200705301620 METAR ESMX 301620Z 27008KT 9999 FEW005 OVC008 13/12 Q1009=
200705301550 METAR ESMX 301550Z 27009KT 9999 BKN005 OVC009 13/12 Q1009=
200705301520 METAR ESMX 301520Z 27009KT 9999 OVC006 14/12 Q1009=
200705301450 METAR ESMX 301450Z 27009KT 230V300 9999 OVC006 14/12 Q1009=
200705301420 METAR ESMX 301420Z 25008KT 210V290 9999 SCT005 BKN007 15/13 Q1008=
200705301350 METAR ESMX 301350Z 26008KT 9999 OVC007 15/14 Q1008=
200705301320 METAR ESMX 301320Z 24007KT 9999 FEW006 OVC008 16/14 Q1007=
200705301250 METAR ESMX 301250Z 23010KT 8000 BR OVC005 16/14 Q1007=
200705301220 METAR ESMX 301220Z 26009KT 7000 BR FEW006 SCT009 OVC011 17/15 Q1006=
200705301144 METAR ESMX 301144Z 22004KT 170V250 9999 OVC005 18/16 Q1006=
200705301120 METAR ESMX 301120Z 22004KT 170V250 9999 OVC005 18/16 Q1006=
200705301050 METAR ESMX 301050Z 23005KT 200V260 9999 OVC005 17/16 Q1005=
200705301020 METAR ESMX 301020Z 18005KT 9999 OVC006 17/16 Q1005=
200705300950 METAR ESMX 300950Z 18004KT 150V220 9999 OVC005 17/16 Q1005=
200705300920 METAR ESMX 300920Z VRB02KT 9000 FEW003 OVC005 17/15 Q1004=
200705300850 METAR ESMX 300850Z VRB02KT 6000 BR FEW003 BKN005 OVC008 17/15 Q1004=
200705300750 METAR ESMX 300750Z 00000KT 2400 BR OVC002 16/15 Q1004=
200705300720 METAR ESMX 300720Z VRB02KT 2400 BR OVC002 16/15 Q1004=
200705300650 METAR ESMX 300650Z VRB01KT 5000 BR OVC004 16/15 Q1004=
200705300620 METAR ESMX 300620Z VRB02KT 8000 BR OVC004 16/14 Q1003=
200705300550 METAR ESMX 300550Z 08003KT 020V140 8000 BR OVC004 16/15 Q1003=
200705300520 METAR ESMX 300520Z 07004KT 040V100 7000 BR BKN004 15/15 Q1003=
200705300450 METAR ESMX 300450Z 07004KT 040V110 2800 BR OVC002 15/15 Q1002=
200705300420 METAR ESMX 300420Z VRB02KT 3900 BR OVC002 15/15 Q1002=
200705300350 METAR ESMX 300350Z VRB02KT 3900 BR OVC002 15/15 Q1002=
200705300320 METAR ESMX 300320Z AUTO 05007KT 010V080 3100NDV BR OVC002/// 15/15 Q1002=
200705300250 METAR ESMX 300250Z AUTO 05006KT 010V110 3500NDV BR OVC002/// 15/14 Q1002=
200705300220 METAR ESMX 300220Z AUTO 04007KT 6000NDV BR OVC003/// 15/15 Q1002=
200705300150 METAR ESMX 300150Z AUTO 05007KT 020V080 6000NDV BR OVC003/// 16/15 Q1002=
200705300120 METAR ESMX 300120Z AUTO 03006KT 350V070 6000NDV BR OVC004/// 16/15 Q1002=
200705300050 METAR ESMX 300050Z 06005KT 020V090 7000 BR OVC005 16/15 Q1002=
200705300020 METAR ESMX 300020Z 05005KT 360V090 7000 BR OVC004 16/15 Q1002=
200705292350 METAR ESMX 292350Z 04007KT 360V070 6000 BR OVC004 16/15 Q1002=
200705292320 METAR ESMX 292320Z 05006KT 020V080 6000 BR OVC004 16/15 Q1002=
200705292250 METAR ESMX 292250Z 04008KT 350V070 4700 BR OVC004 16/15 Q1002=
200705292220 METAR ESMX 292220Z 04008KT 6000 BR OVC005 16/15 Q1002=
200705292150 METAR ESMX 292150Z 02008KT 6000 BR OVC005 16/15 Q1002=
200705292120 METAR ESMX 292120Z 03010KT 360V060 6000 BR OVC004 16/15 Q1002=
200705292050 METAR ESMX 292050Z 04010KT 6000 BR OVC004 17/15 Q1002=
200705292020 METAR ESMX 292020Z 04009KT 020V080 8000 BR OVC006 17/15 Q1002=
200705291950 METAR ESMX 291950Z 04009KT 9000 BR OVC008 17/15 Q1002=
200705291920 METAR ESMX 291920Z 04011KT 9000 BR OVC009 17/15 Q1003=
200705291850 METAR ESMX 291850Z 04009KT 360V080 9000 BR OVC007 17/15 Q1002=
200705291820 METAR ESMX 291820Z 03008KT 350V060 8000 BR OVC007 17/15 Q1002=
200705291750 METAR ESMX 291750Z 04010KT 8000 BR OVC006 17/15 Q1002=
200705291720 METAR ESMX 291720Z 04009KT 010V090 8000 OVC007 17/15 Q1002=
200705291650 METAR ESMX 291650Z 04011KT 010V070 9999 OVC007 17/15 Q1002=
200705291620 METAR ESMX 291620Z 04010KT 350V080 9999 OVC010 17/15 Q1002=
200705291550 METAR ESMX 291550Z 05011KT 010V080 9999 BKN013 18/15 Q1002=
200705291520 METAR ESMX 291520Z 03011KT 9999 SCT014 19/15 Q1001=
200705291450 METAR ESMX 291450Z 02011KT 350V060 CAVOK 20/15 Q1001=
200705291420 METAR ESMX 291420Z 04011KT 010V080 9999 FEW016 20/15 Q1002=
200705291350 METAR ESMX 291350Z 04010KT 010V080 9999 BKN014 19/15 Q1002=
200705291320 METAR ESMX 291320Z 04012KT 360V070 9999 SCT015 20/15 Q1002=
200705291250 METAR ESMX 291250Z 01012KT 9999 FEW016 20/15 Q1002=
200705291220 METAR ESMX 291220Z 04012KT 010V070 9999 FEW020 20/15 Q1002=
200705291120 METAR ESMX 291120Z 01010KT 350V050 9999 FEW015 19/15 Q1003=
200705291050 METAR ESMX 291050Z 02010KT 9999 FEW012 19/15 Q1002=
200705290950 METAR ESMX 290950Z 04010KT 010V070 9999 SCT010 18/14 Q1002=
200705290920 METAR ESMX 290920Z 02009KT 340V050 9999 FEW008 OVC009 16/13 Q1002=
200705290850 METAR ESMX 290850Z 03010KT 360V060 9999 OVC007 16/13 Q1002=
200705290820 METAR ESMX 290820Z 04010KT 9999 OVC005 15/13 Q1002=
200705290650 METAR ESMX 290650Z 04010KT 010V070 9999 OVC004 12/11 Q1002=
200705290620 METAR ESMX 290620Z 04009KT 9999 OVC004 12/11 Q1002=
200705290550 METAR ESMX 290550Z 05010KT 020V080 9999 OVC004 12/11 Q1002=
200705290520 METAR ESMX 290520Z 05011KT 010V080 9999 OVC004 12/11 Q1002=
200705290450 METAR ESMX 290450Z 04009KT 7000 BR OVC003 12/11 Q1002=
200705290420 METAR ESMX 290420Z 04010KT 010V090 9999 OVC003 12/11 Q1002=
200705290350 METAR ESMX 290350Z 03010KT 9999 OVC003 12/11 Q1002=
200705290320 METAR ESMX 290320Z AUTO 04008KT 010V090 9999NDV OVC003/// 12/11 Q1002=
200705290250 METAR ESMX 290250Z AUTO 03011KT 7000NDV BR OVC002/// 12/11 Q1001=
200705290220 METAR ESMX 290220Z AUTO 03008KT 350V070 6000NDV BR OVC002/// 12/12 Q1002=
200705290150 METAR ESMX 290150Z AUTO 04009KT 4500NDV BR OVC001/// 12/12 Q1002=
200705290120 METAR ESMX 290120Z AUTO 04007KT 010V070 3100NDV BR OVC002/// 12/12 Q1002=
200705290050 METAR ESMX 290050Z AUTO 02007KT 2400NDV BR OVC001/// 12/12 Q1002=
200705290020 METAR ESMX 290020Z 04008KT 3300 -DZ BR BKN002 OVC003 13/12 Q1002=
200705282350 METAR ESMX 282350Z 03008KT 350V060 3700 BR OVC003 13/12 Q1002=
200705282320 METAR ESMX 282320Z 05009KT 4900 BR OVC002 13/13 Q1002=
200705282250 METAR ESMX 282250Z 05007KT 010V080 7000 BR OVC002 14/13 Q1002=
200705282220 METAR ESMX 282220Z 04009KT 8000 BR OVC003 14/13 Q1002=
200705282150 METAR ESMX 282150Z 05008KT 360V080 7000 BR OVC003 14/13 Q1002=
200705282120 METAR ESMX 282120Z 03007KT 350V060 7000 BR OVC003 14/13 Q1002=
200705282050 METAR ESMX 282050Z 03006KT 6000 BR OVC003 14/13 Q1002=
200705282020 METAR ESMX 282020Z 04006KT 6000 BR OVC003 14/13 Q1002=
200705281950 METAR ESMX 281950Z 03007KT 7000 BR OVC003 14/13 Q1002=
200705281920 METAR ESMX 281920Z 04006KT 010V070 9000 BR OVC004 14/13 Q1002=
200705281850 METAR ESMX 281850Z 03007KT 9000 BR OVC005 14/13 Q1002=
200705281820 METAR ESMX 281820Z 05006KT 020V100 9999 OVC004 14/13 Q1001=
200705281750 METAR ESMX 281750Z 02007KT 350V060 9999 SCT005 OVC006 15/13 Q1000=
200705281720 METAR ESMX 281720Z 02006KT 350V050 9999 OVC006 15/13 Q1000=
200705281650 METAR ESMX 281650Z 03008KT 9999 OVC007 15/13 Q1000=
200705281620 METAR ESMX 281620Z 03006KT 9999 OVC007 15/14 Q1000=
200705281550 METAR ESMX 281550Z 03008KT 9999 OVC006 16/14 Q1000=
200705281520 METAR ESMX 281520Z 02008KT 9999 OVC008 16/14 Q1000=
200705281450 METAR ESMX 281450Z 03008KT 9999 OVC009 16/14 Q1000=
200705281420 METAR ESMX 281420Z 02008KT 9999 OVC009 16/14 Q1000=
200705281350 METAR ESMX 281350Z 36008KT 9999 OVC009 16/14 Q1000=
200705281320 METAR ESMX 281320Z 02006KT 9999 OVC008 16/14 Q1000=
200705281250 METAR ESMX 281250Z 03007KT 9999 OVC008 16/14 Q1000=
200705281220 METAR ESMX 281220Z 03007KT 9999 OVC008 16/14 Q0999=
200705281150 METAR ESMX 281150Z 06007KT 9999 OVC009 16/14 Q0999=
200705281120 METAR ESMX 281120Z 02007KT 9999 OVC007 17/14 Q0999=
200705281050 METAR ESMX 281050Z 01007KT 9999 OVC007 16/14 Q0999=
200705281020 METAR ESMX 281020Z 02006KT 9999 OVC007 16/14 Q0999=
200705280950 METAR ESMX 280950Z 03005KT 360V070 9999 OVC007 16/14 Q0999=
200705280920 METAR ESMX 280920Z 03007KT 9999 OVC007 16/14 Q0998=
200705280850 METAR ESMX 280850Z 03005KT 9999 OVC007 16/14 Q0998=
200705280820 METAR ESMX 280820Z 04005KT 010V070 9999 OVC007 16/14 Q0998=
200705280750 METAR ESMX 280750Z 02007KT 9999 OVC007 16/14 Q0997=
200705280720 METAR ESMX 280720Z 06006KT 030V090 9999 OVC007 15/14 Q0998=
200705280650 METAR ESMX 280650Z 04006KT 020V080 9999 OVC007 15/14 Q0997=
200705280620 METAR ESMX 280620Z 05006KT 030V100 9999 OVC007 14/13 Q0997=
200705280550 METAR ESMX 280550Z 05006KT 360V080 9999 OVC005 14/14 Q0997=
200705280520 METAR ESMX 280520Z 05007KT 360V070 9999 OVC005 15/14 Q0997=
200705280450 METAR ESMX 280450Z 04005KT 9999 BR OVC005 15/14 Q0997 REDZ=
200705280420 METAR ESMX 280420Z 02006KT 6000 -DZ OVC003 14/14 Q0997 RERA=
200705280350 METAR ESMX 280350Z 04006KT 010V080 4600 -RA OVC003 14/14 Q0997=
200705280320 METAR ESMX 280320Z AUTO 04006KT 5000NDV BR OVC002/// 14/14 Q0997=
200705280250 METAR ESMX 280250Z AUTO 04006KT 5000NDV BR OVC004/// 14/13 Q0997=
200705280220 METAR ESMX 280220Z AUTO 05006KT 020V100 6000NDV BR OVC005/// 14/13 Q0997=
200705280150 METAR ESMX 280150Z AUTO 05005KT 030V090 6000NDV -RA OVC006/// 14/13 Q0997 REDZ=
200705280120 METAR ESMX 280120Z AUTO 03005KT 7000NDV RA BKN007/// BKN020/// 14/13 Q0997=
200705280050 METAR ESMX 280050Z AUTO 04006KT 010V070 9000NDV -RA OVC008/// 14/13 Q0997=
200705280020 METAR ESMX 280020Z AUTO 04007KT 010V080 9999NDV SCT009/// BKN066/// 15/12 Q0997=
200705272350 METAR ESMX 272350Z 03005KT 9999 FEW013 BKN065 15/12 Q0998=
200705272320 METAR ESMX 272320Z 03006KT 9999 BKN011 15/11 Q0998=
200705272250 METAR ESMX 272250Z 04007KT 010V070 9999 OVC013 15/11 Q0998=
200705272220 METAR ESMX 272220Z 04007KT 9999 OVC013 15/10 Q0998=
200705272150 METAR ESMX 272150Z 04007KT 020V080 9999 OVC013 15/10 Q0999=
200705272120 METAR ESMX 272120Z 05007KT 020V090 9999 FEW013 OVC020 15/09 Q0999=
200705272050 METAR ESMX 272050Z 05006KT 020V100 9999 FEW015 OVC019 16/10 Q0999=
200705272020 METAR ESMX 272020Z 05008KT 9999 OVC017 16/10 Q0999=
200705271950 METAR ESMX 271950Z 05004KT 9999 OVC017 16/10 Q0999=
200705271920 METAR ESMX 271920Z 05006KT 360V100 9999 OVC020 17/10 Q0999=
200705271850 METAR ESMX 271850Z 07005KT 010V110 9999 OVC020 17/11 Q0999=
200705271820 METAR ESMX 271820Z 06006KT 030V110 9999 OVC019 17/12 Q0999=
200705271750 METAR ESMX 271750Z 07006KT 040V130 9999 SCT019 BKN084 17/13 Q0999 RERA REDZ=
200705271720 METAR ESMX 271720Z 06005KT 030V100 CAVOK 18/12 Q0999=
200705271650 METAR ESMX 271650Z 04005KT 010V080 CAVOK 18/10 Q0999=
200705271620 METAR ESMX 271620Z 05004KT CAVOK 17/10 Q1000=
200705271550 METAR ESMX 271550Z 07004KT 010V110 CAVOK 18/10 Q1000=
200705271520 METAR ESMX 271520Z 08004KT 050V120 CAVOK -RA 18/10 Q1000=
200705271450 METAR ESMX 271450Z 08005KT 030V120 CAVOK 18/10 Q1000=
200705271420 METAR ESMX 271420Z 08007KT 020V130 CAVOK 19/10 Q1001=
200705271350 METAR ESMX 271350Z 06006KT 340V110 9999 FEW045 19/10 Q1001=
200705271320 METAR ESMX 271320Z 06008KT 020V100 CAVOK 19/11 Q1001=
200705271250 METAR ESMX 271250Z 07006KT 030V110 CAVOK 18/10 Q1001=
200705271220 METAR ESMX 271220Z 07006KT 030V130 CAVOK 18/10 Q1002=
200705271150 METAR ESMX 271150Z 05006KT 010V080 9999 FEW045 18/10 Q1002=
200705271120 METAR ESMX 271120Z 06006KT 030V100 9999 FEW025 17/09 Q1002=
200705271050 METAR ESMX 271050Z 07006KT 030V110 CAVOK 18/09 Q1002=
200705260320 METAR ESMX 260320Z AUTO 24002KT 7000NDV NCD 11/10 Q1002=
200705260250 METAR ESMX 260250Z AUTO 24003KT 9000NDV NCD 10/10 Q1002=
200705260220 METAR ESMX 260220Z AUTO 24002KT 5000NDV NCD 11/10 Q1002=
200705260150 METAR ESMX 260150Z AUTO 24002KT 0800NDV R01/P2000D R19/P2000D BR NCD 11/10 Q1002=
200705260120 METAR ESMX 260120Z AUTO 26002KT 2000NDV BR NCD 12/11 Q1001=
200705260050 METAR ESMX 260050Z AUTO 24002KT 4200NDV BR NCD 12/11 Q1002=
200705260020 METAR ESMX 260020Z AUTO 18002KT 7000NDV BR FEW083/// 14/12 Q1002=
200705252350 METAR ESMX 252350Z AUTO 19004KT 8000NDV BR OVC072/// 15/13 Q1002=
200705252320 METAR ESMX 252320Z AUTO 18004KT 9000NDV OVC067/// 15/14 Q1002=
200705252250 METAR ESMX 252250Z AUTO 21002KT 9999NDV SCT066/// BKN093/// BKN110/// 15/13 Q1002=
200705252220 METAR ESMX 252220Z AUTO 17004KT 9999NDV SCT067/// BKN082/// BKN110/// 16/14 Q1003=
200705252150 METAR ESMX 252150Z AUTO 16003KT 9999NDV FEW038/// SCT075/// BKN088/// 16/14 Q1003=
200705252120 METAR ESMX 252120Z AUTO 18005KT 9999NDV BKN033/// BKN082/// 16/14 Q1003=
200705252050 METAR ESMX 252050Z AUTO 18004KT 9999NDV FEW032/// BKN098/// 17/14 Q1003=
200705252020 METAR ESMX 252020Z AUTO 16003KT 9999NDV FEW033/// SCT044/// BKN100/// 17/14 Q1003=
200705251950 METAR ESMX 251950Z AUTO 18005KT 9999NDV FEW033/// SCT094/// BKN100/// 17/14 Q1003=
200705251920 METAR ESMX 251920Z AUTO 19005KT 150V210 9999NDV FEW076/// 18/14 Q1003=
200705251850 METAR ESMX 251850Z AUTO 18005KT 9999NDV FEW110/// 18/14 Q1003=
200705251820 METAR ESMX 251820Z AUTO 17006KT 9999NDV SCT093/// 19/14 Q1004=
200705251750 METAR ESMX 251750Z 18007KT CAVOK 19/14 Q1004=
200705251720 METAR ESMX 251720Z 17009KT CAVOK 20/13 Q1004=
200705251650 METAR ESMX 251650Z 20009KT CAVOK 20/13 Q1004=
200705251620 METAR ESMX 251620Z 17009KT CAVOK 21/13 Q1004=
200705251550 METAR ESMX 251550Z 17011KT CAVOK 21/13 Q1004=
200705251520 METAR ESMX 251520Z 18009KT 150V210 9999 FEW049 BKN170 22/12 Q1005=
200705251450 METAR ESMX 251450Z 17009KT CAVOK 22/11 Q1005=
200705251420 METAR ESMX 251420Z 19010KT CAVOK 24/11 Q1005=
200705251350 METAR ESMX 251350Z 20011KT CAVOK 23/11 Q1005=
200705251320 METAR ESMX 251320Z 19009KT 140V230 CAVOK 23/11 Q1006=
200705251250 METAR ESMX 251250Z 19012KT CAVOK 24/11 Q1006=
200705251220 METAR ESMX 251220Z 18009KT 120V240 9999 FEW020 SCT050 23/11 Q1007=
200705251150 METAR ESMX 251150Z 24010KT 170V270 9999 FEW027 SCT052 23/11 Q1007=
200705251120 METAR ESMX 251120Z 20009KT 160V230 CAVOK 22/11 Q1007=
200705251050 METAR ESMX 251050Z 17009KT 140V200 CAVOK 23/11 Q1007=
200705251020 METAR ESMX 251020Z 17008KT 120V200 CAVOK 22/11 Q1008=
200705250950 METAR ESMX 250950Z 21010KT 170V240 CAVOK 21/11 Q1008=
200705250920 METAR ESMX 250920Z 18007KT 110V210 CAVOK 20/11 Q1009=
200705250850 METAR ESMX 250850Z 20010KT 170V240 CAVOK 19/11 Q1009=
200705250820 METAR ESMX 250820Z 22009KT CAVOK 18/11 Q1009=
200705250750 METAR ESMX 250750Z 20009KT CAVOK 17/11 Q1010=
200705250720 METAR ESMX 250720Z 21008KT CAVOK 17/10 Q1010=
200705250650 METAR ESMX 250650Z 19008KT CAVOK 16/11 Q1010=
200705250620 METAR ESMX 250620Z 19007KT 9999 FEW032 OVC063 15/10 Q1010=
200705250550 METAR ESMX 250550Z 19007KT 9999 FEW032 OVC065 15/10 Q1010=
200705250520 METAR ESMX 250520Z 19006KT CAVOK 14/10 Q1010=
200705250450 METAR ESMX 250450Z 19006KT CAVOK 14/10 Q1010=
200705250420 METAR ESMX 250420Z 19005KT CAVOK 13/10 Q1010=
200705250350 METAR ESMX 250350Z 19006KT CAVOK 13/10 Q1010=
200705250320 METAR ESMX 250320Z AUTO 18007KT 9999NDV OVC051/// 13/10 Q1010=
200705250250 METAR ESMX 250250Z AUTO 19005KT 9999NDV OVC053/// 13/10 Q1011=
200705250220 METAR ESMX 250220Z AUTO 19005KT 9999NDV OVC054/// 13/10 Q1010=
200705250150 METAR ESMX 250150Z AUTO 19006KT 9999NDV OVC053/// 13/10 Q1010=
200705250120 METAR ESMX 250120Z AUTO 19007KT 9999NDV FEW039/// OVC053/// 14/11 Q1011=
200705250050 METAR ESMX 250050Z AUTO 19007KT 9999NDV FEW042/// OVC052/// 14/11 Q1011=
200705250020 METAR ESMX 250020Z AUTO 19006KT 9999NDV FEW040/// OVC051/// 14/11 Q1011=
200705242350 METAR ESMX 242350Z 20007KT 9999 SCT025 BKN050 14/11 Q1011=
200705242320 METAR ESMX 242320Z 20007KT 9999 FEW041 OVC047 14/11 Q1011=
200705242250 METAR ESMX 242250Z 20007KT 9999 FEW038 OVC049 14/11 Q1011=
200705242220 METAR ESMX 242220Z 20007KT 9999 FEW038 OVC050 14/11 Q1011=
200705242150 METAR ESMX 242150Z 19006KT 9999 FEW027 BKN031 OVC051 14/11 Q1012=
200705242120 METAR ESMX 242120Z 19005KT 9999 FEW026 SCT035 BKN052 13/11 Q1012=
200705242050 METAR ESMX 242050Z 19005KT 9999 FEW024 SCT029 OVC044 13/11 Q1012=
200705242020 METAR ESMX 242020Z 19006KT 9999 SCT020 OVC044 14/11 Q1012=
200705241950 METAR ESMX 241950Z 19007KT 9999 OVC023 14/11 Q1012=
200705241920 METAR ESMX 241920Z 21005KT 9999 BKN020 14/11 Q1013=
200705241850 METAR ESMX 241850Z 21006KT 9999 OVC021 14/10 Q1013=
200705241820 METAR ESMX 241820Z 21006KT 9999 BKN022 15/10 Q1013=
200705241750 METAR ESMX 241750Z 23006KT 200V260 9999 OVC024 15/10 Q1013=
200705241720 METAR ESMX 241720Z 22005KT 9999 OVC023 15/10 Q1013=
200705241650 METAR ESMX 241650Z 23008KT 9999 SCT025 BKN031 15/10 Q1014=
200705241620 METAR ESMX 241620Z 22008KT 9999 BKN026 BKN041 15/10 Q1014=
200705241550 METAR ESMX 241550Z 22005KT 9999 BKN026 15/10 Q1014=
200705241520 METAR ESMX 241520Z 22007KT 9999 SCT023 BKN028 15/10 Q1014=
200705241450 METAR ESMX 241450Z 25008KT 210V290 9999 OVC024 15/10 Q1014=
200705241420 METAR ESMX 241420Z 22010KT 200V260 9999 OVC024 15/10 Q1015=
200705241350 METAR ESMX 241350Z 25009KT 9999 OVC026 15/10 Q1015=
200705241320 METAR ESMX 241320Z 22012KT 9999 OVC026 16/10 Q1015=
200705241250 METAR ESMX 241250Z 25009KT 200V280 9999 OVC026 16/10 Q1015=
200705241220 METAR ESMX 241220Z 21011KT 9999 OVC025 16/10 Q1015=
200705241150 METAR ESMX 241150Z 22013KT 9999 OVC025 16/10 Q1015=
200705241120 METAR ESMX 241120Z 24007KT 210V290 9999 OVC024 15/10 Q1016=
200705241050 METAR ESMX 241050Z 22007KT 200V260 9999 OVC023 15/10 Q1016=
200705241020 METAR ESMX 241020Z 24009KT 210V270 9999 OVC023 15/10 Q1016=
200705240950 METAR ESMX 240950Z 22008KT 190V270 9999 OVC022 15/09 Q1016=
200705240920 METAR ESMX 240920Z 23008KT 200V260 9999 BKN021 14/09 Q1017=
200705240850 METAR ESMX 240850Z 23011KT 9999 BKN021 15/09 Q1017=
200705240820 METAR ESMX 240820Z 23009KT 9999 BKN021 14/09 Q1017=
200705240750 METAR ESMX 240750Z 24008KT 9999 BKN021 14/09 Q1017=
200705240720 METAR ESMX 240720Z 24009KT 210V280 9999 BKN022 14/09 Q1017=
200705240650 METAR ESMX 240650Z 23010KT 200V260 9999 FEW024 14/08 Q1017=
200705240550 METAR ESMX 240550Z 24010KT 200V270 CAVOK 13/08 Q1017=
200705240520 METAR ESMX 240520Z 22009KT CAVOK 12/07 Q1017=
200705240450 METAR ESMX 240450Z 21009KT CAVOK 11/07 Q1017=
200705240420 METAR ESMX 240420Z 20008KT CAVOK 10/07 Q1017=
200705240350 METAR ESMX 240350Z 20006KT CAVOK 09/06 Q1017=
200705240320 METAR ESMX 240320Z AUTO 20007KT 9999NDV NCD 09/06 Q1017=
200705240250 METAR ESMX 240250Z AUTO 20006KT 9999NDV NCD 08/05 Q1017=
200705240220 METAR ESMX 240220Z AUTO 20007KT 9999NDV NCD 09/05 Q1017=
200705240150 METAR ESMX 240150Z AUTO 20007KT 9999NDV NCD 09/05 Q1017=
200705240120 METAR ESMX 240120Z AUTO 20006KT 9999NDV NCD 09/05 Q1017=
200705240050 METAR ESMX 240050Z AUTO 20005KT 9999NDV NCD 08/05 Q1017=
200705240020 METAR ESMX 240020Z AUTO 19004KT 9999NDV NCD 08/05 Q1017=
200705232350 METAR ESMX 232350Z 19005KT CAVOK 08/05 Q1018=
200705232320 METAR ESMX 232320Z 20005KT CAVOK 09/05 Q1018=
200705232250 METAR ESMX 232250Z 21003KT CAVOK 08/05 Q1018=
200705232220 METAR ESMX 232220Z 24005KT CAVOK 09/05 Q1018=
200705232150 METAR ESMX 232150Z 22005KT CAVOK 09/04 Q1018=
200705232120 METAR ESMX 232120Z 25005KT CAVOK 09/04 Q1018=
200705232050 METAR ESMX 232050Z 24004KT CAVOK 09/03 Q1018=
200705232020 METAR ESMX 232020Z 25003KT CAVOK 10/03 Q1018=
200705231950 METAR ESMX 231950Z 27004KT CAVOK 10/03 Q1018=
200705231920 METAR ESMX 231920Z 29006KT CAVOK 12/03 Q1018=
200705231850 METAR ESMX 231850Z 28007KT CAVOK 13/03 Q1018=
200705231820 METAR ESMX 231820Z 27007KT 240V310 CAVOK 14/03 Q1018=
200705231750 METAR ESMX 231750Z 28008KT 240V320 CAVOK 14/03 Q1018=
200705231720 METAR ESMX 231720Z 30009KT 260V330 CAVOK 15/02 Q1018=
200705231650 METAR ESMX 231650Z 27009KT 240V320 CAVOK 16/03 Q1017=
200705231620 METAR ESMX 231620Z 28010KT CAVOK 16/03 Q1017=
200705231550 METAR ESMX 231550Z 29010KT CAVOK 16/03 Q1017=
200705231520 METAR ESMX 231520Z 27011KT CAVOK 17/02 Q1017=
200705231450 METAR ESMX 231450Z 29011KT 240V330 CAVOK 17/02 Q1017=
200705231420 METAR ESMX 231420Z 29012KT 250V320 CAVOK 17/03 Q1017=
200705231350 METAR ESMX 231350Z 28012KT CAVOK 17/02 Q1017=
200705231320 METAR ESMX 231320Z 28009KT 230V330 CAVOK 17/03 Q1017=
200705231250 METAR ESMX 231250Z 30013KT 260V340 CAVOK 18/02 Q1017=
200705231220 METAR ESMX 231220Z 28011KT 250V330 CAVOK 18/03 Q1017=
200705231150 METAR ESMX 231150Z 27010KT 210V330 CAVOK 17/01 Q1017=
200705231120 METAR ESMX 231120Z 28010KT 240V300 CAVOK 17/01 Q1017=
200705231050 METAR ESMX 231050Z 29012KT 260V330 CAVOK 17/02 Q1017=
200705231020 METAR ESMX 231020Z 26010KT 210V300 CAVOK 16/03 Q1018=
200705230950 METAR ESMX 230950Z 30010KT 260V330 CAVOK 15/02 Q1018=
200705230920 METAR ESMX 230920Z 28010KT 240V340 CAVOK 15/03 Q1018=
200705230850 METAR ESMX 230850Z 25009KT 200V300 CAVOK 14/04 Q1018=
200705230820 METAR ESMX 230820Z 26010KT CAVOK 14/03 Q1018=
200705230750 METAR ESMX 230750Z 25009KT 200V290 CAVOK 14/03 Q1018=
200705230720 METAR ESMX 230720Z 28008KT 230V330 CAVOK 13/04 Q1018=
200705230650 METAR ESMX 230650Z 28008KT 240V320 CAVOK 12/06 Q1017=
200705230620 METAR ESMX 230620Z 28008KT 240V300 CAVOK 12/06 Q1017=
200705230550 METAR ESMX 230550Z 26009KT CAVOK 10/06 Q1017=
200705230520 METAR ESMX 230520Z 26008KT 220V290 CAVOK 11/06 Q1017=
200705230450 METAR ESMX 230450Z 26007KT 9999 FEW015 09/07 Q1017=
200705230420 METAR ESMX 230420Z 25006KT 230V290 9999 FEW015 09/07 Q1017=
200705230350 METAR ESMX 230350Z 25006KT 210V280 9999 FEW012 09/07 Q1017=
200705230320 METAR ESMX 230320Z AUTO 25005KT 9999NDV NCD 08/07 Q1017=
200705230250 METAR ESMX 230250Z AUTO 26004KT 9999NDV FEW011/// 08/07 Q1016=
200705230220 METAR ESMX 230220Z AUTO 25005KT 9999NDV FEW010/// BKN014/// 09/08 Q1016=
200705230150 METAR ESMX 230150Z AUTO 25005KT 9999NDV BKN012/// 09/08 Q1016=
200705230120 METAR ESMX 230120Z AUTO 22005KT 9999NDV FEW012/// 09/07 Q1016=
200705230050 METAR ESMX 230050Z AUTO 25005KT 9999NDV NCD 09/07 Q1016=
200705230020 METAR ESMX 230020Z 25006KT CAVOK 09/07 Q1016=
200705222350 METAR ESMX 222350Z 23005KT CAVOK 09/07 Q1016=
200705222320 METAR ESMX 222320Z 22004KT CAVOK 09/06 Q1016=
200705222250 METAR ESMX 222250Z 23005KT CAVOK 10/06 Q1016=
200705222220 METAR ESMX 222220Z 27004KT CAVOK 11/06 Q1016=
200705222150 METAR ESMX 222150Z 26003KT 230V290 CAVOK 12/05 Q1016=
200705222120 METAR ESMX 222120Z 27003KT CAVOK 12/05 Q1016=
200705222020 METAR ESMX 222020Z 29007KT CAVOK 13/05 Q1016=
200705221950 METAR ESMX 221950Z 27005KT 240V300 CAVOK 14/05 Q1016=
200705221920 METAR ESMX 221920Z 26004KT 240V300 CAVOK 15/06 Q1015=
200705221850 METAR ESMX 221850Z 29009KT CAVOK 16/06 Q1015=
200705221820 METAR ESMX 221820Z 29008KT CAVOK 17/07 Q1014=
200705221750 METAR ESMX 221750Z 29009KT CAVOK 19/08 Q1014=
200705221720 METAR ESMX 221720Z 28009KT 250V310 CAVOK 19/07 Q1014=
200705221650 METAR ESMX 221650Z 30011KT CAVOK 20/08 Q1014=
200705221620 METAR ESMX 221620Z 28008KT 240V300 CAVOK 19/08 Q1014=
200705221550 METAR ESMX 221550Z 25008KT CAVOK 21/09 Q1014=
200705221520 METAR ESMX 221520Z 27010KT 230V290 CAVOK 21/09 Q1014=
200705221450 METAR ESMX 221450Z 31011KT CAVOK 21/08 Q1014=
200705221420 METAR ESMX 221420Z 30011KT 270V340 CAVOK 21/10 Q1014=
200705221350 METAR ESMX 221350Z 29009KT 260V330 CAVOK 21/09 Q1014=
200705221320 METAR ESMX 221320Z 27010KT 230V310 9999 FEW039 21/11 Q1014=
200705221250 METAR ESMX 221250Z 26010KT 220V300 CAVOK 21/11 Q1014=
200705221220 METAR ESMX 221220Z 27010KT 240V310 CAVOK 21/12 Q1014=
200705221150 METAR ESMX 221150Z 27009KT CAVOK 21/11 Q1014=
200705221120 METAR ESMX 221120Z 27009KT 240V320 CAVOK 20/12 Q1014=
200705221050 METAR ESMX 221050Z 28007KT 230V330 CAVOK 20/13 Q1014=
200705221020 METAR ESMX 221020Z 24008KT 210V280 9999 NSC 20/13 Q1014=
200705220950 METAR ESMX 220950Z 29006KT 240V330 9999 FEW013 SCT018 18/13 Q1014=
200705220920 METAR ESMX 220920Z 26006KT 9999 FEW007 SCT010 BKN012 16/13 Q1014=
200705220850 METAR ESMX 220850Z 26007KT 9999 OVC005 15/14 Q1014=
200705220820 METAR ESMX 220820Z 26007KT 8000 BR OVC006 15/13 Q1013=
200705220750 METAR ESMX 220750Z 26006KT 230V300 9000 BR OVC006 16/14 Q1013=
200705220720 METAR ESMX 220720Z 29008KT 8000 BR FEW005 SCT008 BKN010 16/14 Q1013=
200705220650 METAR ESMX 220650Z 26009KT 9999 FEW012 18/15 Q1013=
200705220620 METAR ESMX 220620Z 25005KT CAVOK 19/15 Q1012=
200705220550 METAR ESMX 220550Z 27006KT 9000 BR SCT200 17/15 Q1012=
200705220520 METAR ESMX 220520Z 17003KT 6000 BR NSC 16/14 Q1012=
200705220450 METAR ESMX 220450Z VRB02KT 5000 BR FEW003 SCT012 15/14 Q1012=
200705220420 METAR ESMX 220420Z 23004KT 5000 BR SCT004 BKN013 15/14 Q1012=
200705220350 METAR ESMX 220350Z 23003KT 200V260 7000 BR OVC005 14/14 Q1012=
200705220320 METAR ESMX 220320Z AUTO 19003KT 5000NDV BR FEW008/// 12/11 Q1012=
200705220250 METAR ESMX 220250Z AUTO 00000KT 5000NDV BR BKN100/// 13/13 Q1012=
200705220220 METAR ESMX 220220Z AUTO 20002KT 8000NDV SCT100/// 13/12 Q1012=
200705220150 METAR ESMX 220150Z AUTO 17003KT 9999NDV FEW067/// SCT087/// BKN100/// 15/13 Q1012=
200705220120 METAR ESMX 220120Z AUTO 19002KT 9999NDV SCT073/// BKN089/// 15/13 Q1012=
200705220050 METAR ESMX 220050Z AUTO VRB02KT 9999NDV BKN071/// BKN110/// 16/13 Q1012=
200705220020 METAR ESMX 220020Z 16004KT CAVOK 16/14 Q1013=
200705212350 METAR ESMX 212350Z 15004KT 110V170 CAVOK 17/13 Q1013=
200705212320 METAR ESMX 212320Z 15004KT 9999 SCT042 BKN075 17/13 Q1013=
200705212250 METAR ESMX 212250Z 15003KT 9999 FEW043 BKN080 17/13 Q1013=
200705212220 METAR ESMX 212220Z 15005KT 120V190 9999 FEW044 SCT050 18/13 Q1013=
200705212150 METAR ESMX 212150Z 14003KT 9999 FEW015 SCT045 BKN100 18/14 Q1013=
200705212120 METAR ESMX 212120Z 14003KT CAVOK 18/14 Q1014=
200705212050 METAR ESMX 212050Z 15004KT 120V190 CAVOK 18/14 Q1014=
200705212020 METAR ESMX 212020Z 18005KT CAVOK 19/14 Q1014=
200705211950 METAR ESMX 211950Z 18007KT CAVOK 19/14 Q1014=
200705211920 METAR ESMX 211920Z 19008KT CAVOK 20/14 Q1014=
200705211850 METAR ESMX 211850Z 17008KT CAVOK 21/14 Q1014=
200705211820 METAR ESMX 211820Z 17008KT CAVOK 21/15 Q1014=
200705211750 METAR ESMX 211750Z 16007KT CAVOK 22/15 Q1014=
200705211720 METAR ESMX 211720Z 17009KT 150V210 CAVOK 22/14 Q1014=
200705211650 METAR ESMX 211650Z 17010KT CAVOK 23/14 Q1014=
200705211620 METAR ESMX 211620Z 18011KT 140V200 CAVOK 23/14 Q1014=
200705211550 METAR ESMX 211550Z 17010KT CAVOK 24/14 Q1014=
200705211520 METAR ESMX 211520Z 16009KT 130V190 CAVOK 24/14 Q1015=
200705211450 METAR ESMX 211450Z 17011KT CAVOK 24/14 Q1015=
200705211420 METAR ESMX 211420Z 17012KT CAVOK 25/13 Q1015=
200705211350 METAR ESMX 211350Z 17011KT 9999 SCT050 26/13 Q1015=
200705211320 METAR ESMX 211320Z 16010KT 120V190 9999 BKN045 25/13 Q1016=
200705211250 METAR ESMX 211250Z 16011KT 110V190 9999 SCT045 25/13 Q1016=
200705211220 METAR ESMX 211220Z 15009KT 100V190 9999 FEW045 SCT055 25/13 Q1016=
200705211150 METAR ESMX 211150Z 15007KT 080V190 9999 SCT045 23/14 Q1017=
200705211120 METAR ESMX 211120Z 17008KT 110V200 9999 SCT040 23/13 Q1017=
200705211020 METAR ESMX 211020Z 15005KT 070V220 9999 BKN045 22/13 Q1018=
200705210950 METAR ESMX 210950Z 15005KT 120V200 9999 BKN045 20/11 Q1018=
200705210920 METAR ESMX 210920Z 05004KT 360V100 9999 SCT043 21/11 Q1018=
200705210850 METAR ESMX 210850Z 07005KT 020V120 CAVOK 20/09 Q1019=
200705210820 METAR ESMX 210820Z 06004KT 030V100 CAVOK 19/09 Q1019=
200705210750 METAR ESMX 210750Z 04005KT 010V080 CAVOK 17/09 Q1019=
200705210720 METAR ESMX 210720Z 05005KT 020V080 CAVOK 16/09 Q1019=
200705210650 METAR ESMX 210650Z 04004KT CAVOK 14/08 Q1019=
200705210620 METAR ESMX 210620Z 04006KT CAVOK 13/09 Q1019=
200705210550 METAR ESMX 210550Z 36005KT 9999 FEW040 BKN070 12/10 Q1020=
200705210520 METAR ESMX 210520Z 02003KT 9999 FEW025 BKN063 11/09 Q1020=
200705210420 METAR ESMX 210420Z VRB02KT 9999 BKN038 10/09 Q1020=
200705210350 METAR ESMX 210350Z 03002KT 9999 BKN043 09/09 Q1020=
200705210320 METAR ESMX 210320Z AUTO 36002KT 9000NDV SCT043/// OVC052/// 07/07 Q1020=
200705210250 METAR ESMX 210250Z AUTO 00000KT 9999NDV FEW054/// SCT099/// 05/05 Q1021=
200705210220 METAR ESMX 210220Z AUTO 00000KT 9999NDV FEW054/// 05/05 Q1021=
200705210150 METAR ESMX 210150Z AUTO 00000KT 5000NDV BR NCD 05/05 Q1021=
200705210120 METAR ESMX 210120Z AUTO 00000KT 7000NDV BR NCD 06/05 Q1021=
200705210020 METAR ESMX 210020Z 00000KT CAVOK 06/05 Q1021=
200705202350 METAR ESMX 202350Z 00000KT CAVOK 07/06 Q1021=
200705202320 METAR ESMX 202320Z 00000KT CAVOK 07/06 Q1021=
200705202250 METAR ESMX 202250Z 16001KT CAVOK 07/07 Q1021=
200705202220 METAR ESMX 202220Z 18003KT CAVOK 08/06 Q1021=
200705202150 METAR ESMX 202150Z 18004KT CAVOK 08/06 Q1020=
200705202120 METAR ESMX 202120Z 18004KT CAVOK 10/08 Q1020=
200705202050 METAR ESMX 202050Z 19003KT CAVOK 12/08 Q1020=
200705202020 METAR ESMX 202020Z 21004KT CAVOK 13/08 Q1020=
200705201950 METAR ESMX 201950Z 16004KT CAVOK 15/08 Q1020=
200705201920 METAR ESMX 201920Z 18006KT CAVOK 15/08 Q1020=
200705201850 METAR ESMX 201850Z 18007KT CAVOK 16/08 Q1020=
200705201820 METAR ESMX 201820Z 18006KT CAVOK 18/08 Q1019=
200705201750 METAR ESMX 201750Z 22004KT 190V260 CAVOK 18/05 Q1019=
200705201720 METAR ESMX 201720Z 24005KT 210V280 CAVOK 19/04 Q1019=
200705201650 METAR ESMX 201650Z 27004KT 170V330 CAVOK 19/04 Q1019=
200705201620 METAR ESMX 201620Z 25006KT 210V280 CAVOK 19/04 Q1019=
200705201550 METAR ESMX 201550Z 22006KT CAVOK 19/04 Q1020=
200705201450 METAR ESMX 201450Z VRB04KT CAVOK 19/05 Q1020=
200705201420 METAR ESMX 201420Z 25006KT 200V300 CAVOK 19/04 Q1019=
200705201350 METAR ESMX 201350Z 21007KT CAVOK 18/05 Q1020=
200705201320 METAR ESMX 201320Z VRB07KT CAVOK 19/06 Q1020=
200705201250 METAR ESMX 201250Z 25005KT 170V320 CAVOK 19/05 Q1020=
200705201150 METAR ESMX 201150Z 20007KT CAVOK 17/05 Q1020=
200705201120 METAR ESMX 201120Z 18010KT CAVOK 18/07 Q1020=
200705201050 METAR ESMX 201050Z AUTO 27007KT 240V310 9999NDV FEW046/// SCT051/// BKN073/// 16/06 Q1019=
200705201020 METAR ESMX 201020Z AUTO 22007KT 9999NDV SCT044/// BKN053/// 15/06 Q1019=
200705200950 METAR ESMX 200950Z AUTO 23007KT 200V260 9999NDV FEW040/// 17/07 Q1019=
200705200920 METAR ESMX 200920Z AUTO 23008KT 200V260 9999NDV FEW038/// 16/07 Q1019=
200705200850 METAR ESMX 200850Z AUTO 22008KT 170V270 9999NDV FEW035/// 15/06 Q1019=
200705200820 METAR ESMX 200820Z AUTO 22008KT 200V260 9999NDV FEW031/// 15/07 Q1019=
200705200750 METAR ESMX 200750Z AUTO 26009KT 210V280 9999NDV FEW026/// SCT030/// 14/07 Q1019=
200705200720 METAR ESMX 200720Z AUTO 27007KT 9999NDV FEW026/// 13/08 Q1018=
200705200650 METAR ESMX 200650Z AUTO 26008KT 9999NDV NCD 13/08 Q1018=
200705200620 METAR ESMX 200620Z AUTO 21008KT 9999NDV NCD 12/08 Q1018=
200705200550 METAR ESMX 200550Z AUTO 22008KT 9999NDV NCD 11/08 Q1018=
200705200520 METAR ESMX 200520Z AUTO 21007KT 9999NDV NCD 10/08 Q1017=
200705200450 METAR ESMX 200450Z AUTO 19006KT 9999NDV NCD 09/07 Q1017=
200705200420 METAR ESMX 200420Z AUTO 19005KT 9999NDV NCD 07/06 Q1017=
200705200350 METAR ESMX 200350Z AUTO 20005KT 9000NDV NCD 06/05 Q1016=
200705200320 METAR ESMX 200320Z AUTO 20005KT 9000NDV NCD 06/05 Q1016=
200705200250 METAR ESMX 200250Z AUTO 18006KT 9000NDV NCD 05/04 Q1016=
200705200220 METAR ESMX 200220Z AUTO 18006KT 9999NDV NCD 05/05 Q1015=
200705200150 METAR ESMX 200150Z AUTO 21005KT 9999NDV NCD 05/04 Q1015=
200705200120 METAR ESMX 200120Z AUTO 20005KT 9999NDV NCD 06/05 Q1015=
200705200050 METAR ESMX 200050Z AUTO 20005KT 9999NDV NCD 06/05 Q1015=
200705200020 METAR ESMX 200020Z AUTO 18006KT 9999NDV NCD 08/05 Q1014=
200705192350 METAR ESMX 192350Z AUTO 21005KT 9999NDV NCD 06/05 Q1014=
200705192320 METAR ESMX 192320Z AUTO 19005KT 9999NDV NCD 06/05 Q1014=
200705192250 METAR ESMX 192250Z AUTO 17006KT 9999NDV NCD 09/06 Q1014=
200705192220 METAR ESMX 192220Z AUTO 18005KT 9999NDV NCD 09/06 Q1014=
200705192150 METAR ESMX 192150Z AUTO 17006KT 9999NDV NCD 09/07 Q1014=
200705192120 METAR ESMX 192120Z AUTO 18005KT 9999NDV NCD 10/06 Q1014=
200705192050 METAR ESMX 192050Z AUTO 20004KT 9999NDV NCD 09/07 Q1013=
200705192020 METAR ESMX 192020Z AUTO 23005KT 9999NDV NCD 09/06 Q1013=
200705191950 METAR ESMX 191950Z AUTO 21005KT 9999NDV NCD 10/07 Q1013=
200705191920 METAR ESMX 191920Z AUTO 18005KT 9999NDV NCD 11/08 Q1013=
200705191850 METAR ESMX 191850Z AUTO 22006KT 9999NDV NCD 13/08 Q1012=
200705191820 METAR ESMX 191820Z AUTO 24005KT 9999NDV NCD 13/08 Q1012=
200705191750 METAR ESMX 191750Z AUTO 24005KT 210V270 9999NDV FEW045/// 14/09 Q1012=
200705191720 METAR ESMX 191720Z AUTO 24007KT 9999NDV FEW029/// SCT036/// BKN047/// 15/09 Q1011=
200705191650 METAR ESMX 191650Z AUTO 21008KT 9999NDV FEW027/// SCT034/// BKN046/// 15/11 Q1011=
200705191620 METAR ESMX 191620Z AUTO 20010KT 9999NDV FEW017/// 16/12 Q1011=
200705191550 METAR ESMX 191550Z AUTO 18010KT 9999NDV FEW016/// SCT020/// BKN042/// 15/12 Q1011=
200705191520 METAR ESMX 191520Z AUTO 18009KT 150V210 9999NDV FEW012/// SCT020/// BKN025/// 14/12 Q1010=
200705191450 METAR ESMX 191450Z AUTO 18011KT 9999NDV FEW010/// SCT014/// BKN026/// 14/12 Q1010=
200705191420 METAR ESMX 191420Z AUTO 18011KT 9999NDV FEW006/// BKN010/// 14/12 Q1010=
200705191350 METAR ESMX 191350Z AUTO 17009KT 9999NDV -DZ FEW006/// BKN007/// BKN016/// 13/12 Q1010 RERA=
200705191320 METAR ESMX 191320Z AUTO 17008KT 9999NDV -DZ FEW005/// BKN007/// OVC009/// 12/11 Q1010 RERA=
200705191250 METAR ESMX 191250Z AUTO 16008KT 120V190 8000NDV -RA FEW005/// SCT006/// BKN008/// 12/11 Q1010 REDZ=
200705191220 METAR ESMX 191220Z AUTO 17007KT 140V210 8000NDV -RA BKN005/// OVC007/// 12/11 Q1010=
200705191150 METAR ESMX 191150Z AUTO 17008KT 130V200 7000NDV -RA BKN004/// OVC007/// 12/11 Q1010 REDZ=
200705191120 METAR ESMX 191120Z AUTO 18009KT 8000NDV -DZ BKN004/// BKN008/// 11/11 Q1010 RERA=
200705191050 METAR ESMX 191050Z AUTO 17008KT 5000NDV RA FEW004/// OVC006/// 11/10 Q1009=
200705191020 METAR ESMX 191020Z AUTO 17009KT 140V200 6000NDV RA FEW006/// BKN007/// OVC009/// 11/10 Q1009=
200705190950 METAR ESMX 190950Z AUTO 16008KT 9000NDV RA FEW008/// BKN010/// OVC020/// 11/10 Q1009 REDZ=
200705190920 METAR ESMX 190920Z AUTO 18011KT 8000NDV DZ FEW021/// BKN028/// 11/10 Q1009 RERA=
200705190850 METAR ESMX 190850Z AUTO 17009KT 140V200 9999NDV -RA SCT024/// OVC030/// 12/10 Q1009 REDZ=
200705190820 METAR ESMX 190820Z AUTO 19009KT 8000NDV -RA FEW011/// SCT028/// BKN032/// 12/10 Q1009=
200705190750 METAR ESMX 190750Z AUTO 15011KT 9999NDV FEW035/// BKN040/// BKN051/// 14/08 Q1008=
200705190720 METAR ESMX 190720Z AUTO 15010KT 120V180 9999NDV -RA FEW016/// SCT037/// OVC042/// 13/09 Q1009 REDZ=
200705190650 METAR ESMX 190650Z AUTO 16011KT 130V190 9999NDV SCT040/// BKN051/// 14/08 Q1009=
200705190620 METAR ESMX 190620Z AUTO 18013KT 9999NDV SCT053/// 13/08 Q1008=
200705190550 METAR ESMX 190550Z AUTO 18012KT 9999NDV FEW056/// BKN069/// 13/08 Q1009=
200705190520 METAR ESMX 190520Z AUTO 18012KT 150V210 9999NDV SCT068/// 13/07 Q1009=
200705190450 METAR ESMX 190450Z AUTO 16008KT 120V200 9999NDV NCD 12/07 Q1009=
200705190420 METAR ESMX 190420Z AUTO 16008KT 9999NDV NCD 10/07 Q1009=
200705190350 METAR ESMX 190350Z AUTO 17008KT 130V200 9999NDV NCD 10/06 Q1009=
200705190320 METAR ESMX 190320Z AUTO 16009KT 9999NDV NCD 09/06 Q1009=
200705190250 METAR ESMX 190250Z AUTO 16008KT 120V180 9999NDV NCD 09/06 Q1010=
200705190220 METAR ESMX 190220Z AUTO 16007KT 140V200 9999NDV NCD 09/05 Q1010=
200705190150 METAR ESMX 190150Z AUTO 16007KT 9999NDV NCD 09/05 Q1010=
200705190120 METAR ESMX 190120Z AUTO 16007KT 120V190 9999NDV NCD 10/05 Q1010=
200705190050 METAR ESMX 190050Z AUTO 16007KT 120V190 9999NDV OVC041/// 10/04 Q1011=
200705190020 METAR ESMX 190020Z AUTO 17007KT 9999NDV OVC038/// 10/04 Q1011=
200705182350 METAR ESMX 182350Z AUTO 17007KT 9999NDV OVC038/// 10/03 Q1011=
200705182320 METAR ESMX 182320Z AUTO 16007KT 9999NDV FEW041/// OVC049/// 10/02 Q1011=
200705182250 METAR ESMX 182250Z AUTO 18008KT 9999NDV BKN048/// 10/02 Q1012=
200705182220 METAR ESMX 182220Z AUTO 17007KT 9999NDV NCD 10/02 Q1012=
200705182150 METAR ESMX 182150Z AUTO 17006KT 140V200 9999NDV NCD 10/02 Q1012=
200705182120 METAR ESMX 182120Z AUTO 17007KT 9999NDV NCD 10/01 Q1012=
200705182050 METAR ESMX 182050Z AUTO 18007KT 9999NDV NCD 10/03 Q1012=
200705182020 METAR ESMX 182020Z AUTO 20008KT 9999NDV NCD 11/03 Q1012=
200705181950 METAR ESMX 181950Z AUTO 20009KT 9999NDV NCD 12/03 Q1012=
200705181920 METAR ESMX 181920Z AUTO 20008KT 9999NDV NCD 12/04 Q1012=
200705181850 METAR ESMX 181850Z AUTO 19007KT 9999NDV NCD 14/03 Q1011=
200705181820 METAR ESMX 181820Z AUTO 20006KT 9999NDV NCD 15/05 Q1011=
200705181750 METAR ESMX 181750Z AUTO 17008KT 9999NDV NCD 16/08 Q1011=
200705181720 METAR ESMX 181720Z AUTO 20003KT 9999NDV NCD 15/04 Q1011=
200705181650 METAR ESMX 181650Z AUTO 21006KT 9999NDV FEW110/// 15/03 Q1011=
200705181620 METAR ESMX 181620Z AUTO 21011KT 9999NDV NCD 17/02 Q1011=
200705181550 METAR ESMX 181550Z AUTO 19009KT 9999NDV FEW048/// 15/05 Q1012=
200705181520 METAR ESMX 181520Z AUTO 21010KT 9999NDV FEW048/// 17/05 Q1012=
200705181450 METAR ESMX 181450Z 19008KT 160V230 CAVOK 17/05 Q1012=
200705181420 METAR ESMX 181420Z 23007KT 180V280 9999 FEW040 16/06 Q1012=
200705181350 METAR ESMX 181350Z 25008KT 9999 FEW040 16/06 Q1012=
200705181320 METAR ESMX 181320Z 23006KT 190V280 9999 SCT045 15/06 Q1012=
200705181250 METAR ESMX 181250Z 22007KT 170V260 9999 FEW035 SCT040 15/07 Q1012=
200705181220 METAR ESMX 181220Z 19007KT 150V240 9999 FEW035 BKN045 14/06 Q1012=
200705181150 METAR ESMX 181150Z 20006KT 160V240 9999 FEW030 BKN045 14/07 Q1012=
200705181120 METAR ESMX 181120Z 21006KT 180V240 9999 FEW030 BKN040 13/08 Q1012=
200705181050 METAR ESMX 181050Z 22007KT 170V260 9999 FEW030 BKN040 13/07 Q1012=
200705181020 METAR ESMX 181020Z 23006KT 190V270 9999 FEW025 SCT030 BKN040 13/07 Q1012=
200705180950 METAR ESMX 180950Z 24003KT 170V280 9999 FEW024 SCT030 BKN040 13/07 Q1012=
200705180920 METAR ESMX 180920Z 21006KT 9999 FEW020 BKN035 13/07 Q1012=
200705180850 METAR ESMX 180850Z 19004KT 9999 FEW020 SCT040 12/07 Q1012=
200705180820 METAR ESMX 180820Z 23006KT 9999 FEW025 SCT040 11/07 Q1012=
200705180750 METAR ESMX 180750Z 23006KT 9999 FEW020 BKN035 11/07 Q1012=
200705180720 METAR ESMX 180720Z AUTO 23007KT 9999NDV FEW014/// SCT022/// OVC034/// 11/07 Q1012=
200705180650 METAR ESMX 180650Z AUTO 25006KT 9999NDV SCT015/// BKN019/// OVC021/// 11/07 Q1012=
200705180620 METAR ESMX 180620Z AUTO 23005KT 190V290 9999NDV FEW013/// BKN032/// 10/07 Q1012=
200705180550 METAR ESMX 180550Z AUTO 21004KT 9999NDV FEW007/// OVC028/// 10/08 Q1012=
200705180520 METAR ESMX 180520Z AUTO 17004KT 9999NDV OVC023/// 09/08 Q1011=
200705180450 METAR ESMX 180450Z AUTO 21003KT 9999NDV SCT012/// OVC022/// 08/07 Q1011=
200705180420 METAR ESMX 180420Z AUTO 20002KT 9000NDV BR FEW006/// SCT008/// OVC010/// 08/07 Q1011=
200705180350 METAR ESMX 180350Z AUTO VRB02KT 9999NDV BR FEW012/// SCT015/// OVC023/// 07/07 Q1011=
200705180320 METAR ESMX 180320Z AUTO 00000KT 7000NDV BR BKN013/// OVC025/// 07/06 Q1011=
200705180250 METAR ESMX 180250Z AUTO 00000KT 6000NDV BR SCT013/// BKN017/// OVC023/// 06/06 Q1011=
200705180220 METAR ESMX 180220Z AUTO VRB01KT 7000NDV BR SCT017/// 06/05 Q1011=
200705180150 METAR ESMX 180150Z AUTO 10003KT 9999NDV BKN018/// 08/07 Q1010=
200705180120 METAR ESMX 180120Z AUTO 10003KT 7000NDV BR BKN010/// OVC015/// 08/07 Q1010=
200705180050 METAR ESMX 180050Z 11002KT 9999 OVC012 08/07 Q1010=
200705180020 METAR ESMX 180020Z VRB02KT 9999 BKN015 08/07 Q1010=
200705172350 METAR ESMX 172350Z 11003KT 070V140 9000 BR BKN014 07/06 Q1010=
200705172320 METAR ESMX 172320Z VRB02KT 9999 BKN011 07/06 Q1010=
200705172250 METAR ESMX 172250Z 10004KT 060V130 9999 FEW013 SCT018 07/06 Q1009=
200705172220 METAR ESMX 172220Z 10003KT 9999 FEW020 07/06 Q1009=
200705172150 METAR ESMX 172150Z 07003KT 030V110 9999 SCT025 08/06 Q1009=
200705172120 METAR ESMX 172120Z 10003KT 050V120 9999 FEW026 09/06 Q1009=
200705172050 METAR ESMX 172050Z VRB02KT 9999 FEW022 BKN026 BKN031 09/07 Q1009=
200705172020 METAR ESMX 172020Z VRB02KT 9999 SCT020 BKN027 OVC031 10/07 Q1008=
200705171950 METAR ESMX 171950Z 10003KT 070V150 9999 OVC028 10/07 Q1008=
200705171920 METAR ESMX 171920Z VRB02KT 9999 FEW024 SCT030 OVC054 10/07 Q1008=
200705171850 METAR ESMX 171850Z 10003KT 070V140 9999 BKN021 OVC049 11/07 Q1007=
200705171820 METAR ESMX 171820Z 07003KT 010V140 9999 FEW020 SCT024 BKN043 11/07 Q1007=
200705171750 METAR ESMX 171750Z 12004KT 030V170 9999 FEW020 SCT025 OVC039 11/07 Q1007=
200705171720 METAR ESMX 171720Z 13005KT 070V220 9999 SCT020 BKN040 11/07 Q1006=
200705171650 METAR ESMX 171650Z 10008KT 050V140 9999 FEW020 OVC050 11/07 Q1006=
200705171620 METAR ESMX 171620Z 12007KT 070V170 9999 FEW020 SCT030 12/08 Q1005=
200705171550 METAR ESMX 171550Z 12007KT 070V170 9999 FEW015 BKN030 11/07 Q1005=
200705171520 METAR ESMX 171520Z 11005KT 060V160 9999 FEW015 SCT020 BKN040 11/08 Q1005=
200705171450 METAR ESMX 171450Z 10006KT 060V190 9999 FEW014 SCT019 BKN037 11/08 Q1005=
200705171420 METAR ESMX 171420Z 12006KT 060V170 7000 -DZ FEW015 OVC025 09/08 Q1004=
200705171350 METAR ESMX 171350Z AUTO 13006KT 070V220 4500NDV -DZ FEW014/// BKN018/// OVC022/// 09/08 Q1004 RERA=
200705171320 METAR ESMX 171320Z AUTO 13009KT 080V160 6000NDV DZ BKN019/// OVC024/// 10/07 Q1004 RERA=
200705171250 METAR ESMX 171250Z AUTO 12008KT 080V150 9999NDV BKN023/// OVC030/// 11/07 Q1003=
200705171220 METAR ESMX 171220Z AUTO 10006KT 060V160 9999NDV -DZ FEW025/// SCT028/// BKN032/// 11/07 Q1003 RERA=
200705171150 METAR ESMX 171150Z AUTO 12008KT 080V160 9999NDV FEW025/// BKN032/// OVC045/// 12/07 Q1002=
200705171120 METAR ESMX 171120Z AUTO 12007KT 070V170 9999NDV FEW024/// SCT028/// BKN032/// 11/07 Q1002 RERA REDZ=
200705171050 METAR ESMX 171050Z AUTO 14006KT 080V170 9999NDV FEW025/// SCT031/// BKN039/// 11/09 Q1002 RERA REDZ=
200705171020 METAR ESMX 171020Z AUTO 14005KT 080V180 9999NDV FEW023/// SCT029/// BKN034/// 11/08 Q1002=
200705170950 METAR ESMX 170950Z AUTO 11007KT 070V140 9999NDV FEW018/// SCT021/// BKN025/// 11/08 Q1001=
200705170920 METAR ESMX 170920Z AUTO 12008KT 090V160 9999NDV FEW019/// SCT023/// BKN061/// 11/09 Q1001 RERA REDZ=
200705170850 METAR ESMX 170850Z AUTO 10006KT 050V150 9999NDV FEW011/// BKN057/// 10/09 Q1001 RERA REDZ=
200705170820 METAR ESMX 170820Z AUTO 12007KT 060V170 9000NDV -RA FEW011/// BKN014/// 09/08 Q1001 REDZ=
200705170750 METAR ESMX 170750Z AUTO 11006KT 070V170 8000NDV RA BKN014/// 09/08 Q1001 REDZ=
200705170720 METAR ESMX 170720Z AUTO 11007KT 060V160 7000NDV -RA FEW013/// BKN015/// BKN046/// 09/08 Q1001 REDZ=
200705170650 METAR ESMX 170650Z AUTO 10006KT 030V150 9000NDV -RA FEW012/// SCT015/// BKN059/// 09/08 Q1001 REDZ=
200705170620 METAR ESMX 170620Z AUTO 11005KT 050V150 9999NDV DZ BKN013/// BKN019/// 09/07 Q1001 RERA=
200705170550 METAR ESMX 170550Z AUTO 10005KT 060V140 9999NDV RA FEW013/// SCT016/// BKN041/// 08/07 Q1001=
200705170520 METAR ESMX 170520Z AUTO 10003KT 050V150 9000NDV -RA BKN015/// BKN045/// 08/07 Q1001=
200705170450 METAR ESMX 170450Z AUTO 11007KT 060V140 9999NDV DZ FEW014/// SCT017/// BKN019/// 08/07 Q1001 RERA=
200705170420 METAR ESMX 170420Z AUTO 09005KT 020V140 9999NDV FEW016/// BKN074/// 09/07 Q1001=
200705170350 METAR ESMX 170350Z AUTO 10005KT 050V170 9999NDV FEW051/// SCT078/// BKN090/// 09/06 Q1001=
200705170320 METAR ESMX 170320Z AUTO 08005KT 030V140 9999NDV DZ FEW049/// SCT076/// 08/06 Q1001 RERA=
200705170250 METAR ESMX 170250Z AUTO 11004KT 060V160 9999NDV FEW054/// BKN075/// 08/06 Q1002=
200705170220 METAR ESMX 170220Z AUTO 10004KT 060V170 9999NDV FEW024/// BKN051/// BKN077/// 08/06 Q1002 RERA REDZ=
200705170150 METAR ESMX 170150Z AUTO 12003KT 070V170 9999NDV -RA FEW034/// BKN052/// 08/05 Q1003=
200705170120 METAR ESMX 170120Z AUTO 07003KT 350V130 9999NDV SCT056/// 08/05 Q1003=
200705170050 METAR ESMX 170050Z AUTO 08004KT 040V130 9999NDV FEW048/// SCT067/// 07/05 Q1003 REDZ=
200705170020 METAR ESMX 170020Z AUTO 09004KT 050V120 9999NDV DZ FEW046/// SCT055/// 07/05 Q1004 RERA=
200705162350 METAR ESMX 162350Z AUTO 04003KT 010V070 9999NDV FEW027/// BKN047/// 07/06 Q1004=
200705162320 METAR ESMX 162320Z AUTO 36004KT 9999NDV -RA FEW016/// BKN036/// 07/06 Q1005 REDZ=
200705162250 METAR ESMX 162250Z AUTO 09001KT 9999NDV DZ BKN040/// 07/06 Q1005 RERA=
200705162220 METAR ESMX 162220Z AUTO VRB02KT 9999NDV -RA FEW026/// BKN044/// 08/06 Q1005 REDZ=
200705162150 METAR ESMX 162150Z AUTO VRB02KT 9999NDV FEW023/// BKN048/// 08/05 Q1006 RERA REDZ=
200705162120 METAR ESMX 162120Z AUTO 15003KT 9999NDV SCT049/// BKN073/// 09/04 Q1006=
200705162050 METAR ESMX 162050Z AUTO 16004KT 9999NDV FEW055/// SCT072/// 09/03 Q1006=
200705162020 METAR ESMX 162020Z AUTO 17005KT 9999NDV FEW068/// BKN087/// 09/02 Q1007=
200705161950 METAR ESMX 161950Z AUTO 15001KT 9999NDV FEW048/// BKN068/// 08/02 Q1007=
200705161920 METAR ESMX 161920Z AUTO 00000KT 9999NDV FEW060/// BKN077/// 10/02 Q1007=
200705161850 METAR ESMX 161850Z AUTO 23003KT 9999NDV BKN058/// BKN076/// 10/00 Q1007=
200705161820 METAR ESMX 161820Z AUTO 22004KT 200V270 9999NDV BKN060/// 11/M00 Q1007=
200705161750 METAR ESMX 161750Z 24005KT 210V280 CAVOK 12/M02 Q1007=
200705161720 METAR ESMX 161720Z 24006KT 220V290 CAVOK 12/M02 Q1007=
200705161650 METAR ESMX 161650Z 22007KT 180V240 CAVOK 13/M03 Q1007=
200705161620 METAR ESMX 161620Z 20007KT 160V240 CAVOK 13/M03 Q1007=
200705161550 METAR ESMX 161550Z 22007KT 190V270 CAVOK 13/M02 Q1007=
200705161520 METAR ESMX 161520Z 27006KT 240V300 CAVOK 14/M02 Q1008=
200705161450 METAR ESMX 161450Z 23006KT 180V290 CAVOK 15/M01 Q1008=
200705161420 METAR ESMX 161420Z 21007KT 170V270 CAVOK 13/M02 Q1008=
200705161350 METAR ESMX 161350Z 24008KT CAVOK 14/M01 Q1008=
200705161320 METAR ESMX 161320Z 24007KT 210V270 CAVOK 14/00 Q1008=
200705161250 METAR ESMX 161250Z 28008KT 230V320 9999 FEW030 SCT060 12/M01 Q1008=
200705161220 METAR ESMX 161220Z 26008KT 230V290 CAVOK 14/00 Q1008=
200705161150 METAR ESMX 161150Z 26008KT CAVOK 13/01 Q1009=
200705161120 METAR ESMX 161120Z 24008KT 9999 SCT050 13/01 Q1009=
200705161050 METAR ESMX 161050Z 22011KT 9999 FEW045 SCT055 12/M01 Q1009=
200705161020 METAR ESMX 161020Z 24010KT 200V280 9999 BKN045 13/01 Q1009=
200705160950 METAR ESMX 160950Z 24009KT 200V290 9999 SCT050 11/00 Q1009=
200705160920 METAR ESMX 160920Z 26009KT 9999 SCT040 11/00 Q1009=
200705160850 METAR ESMX 160850Z 23009KT 170V270 9999 SCT035 11/02 Q1009=
200705160820 METAR ESMX 160820Z 23010KT 200V270 9999 BKN030 10/03 Q1009=
200705160750 METAR ESMX 160750Z 24010KT 200V280 9999 BKN030 10/02 Q1009=
200705160720 METAR ESMX 160720Z 27008KT 200V320 9999 SCT025 09/03 Q1009=
200705160650 METAR ESMX 160650Z 27008KT 9999 FEW020 SCT035 09/03 Q1009=
200705160620 METAR ESMX 160620Z 25008KT 200V290 9999 SCT017 08/03 Q1009=
200705160550 METAR ESMX 160550Z 24007KT 200V260 9999 FEW015 07/04 Q1009=
200705160520 METAR ESMX 160520Z 23006KT CAVOK 07/04 Q1009=
200705160450 METAR ESMX 160450Z 22007KT CAVOK 06/04 Q1009=
200705160420 METAR ESMX 160420Z 22006KT CAVOK 04/03 Q1009=
200705160350 METAR ESMX 160350Z 20006KT CAVOK 03/02 Q1009=
200705160320 METAR ESMX 160320Z AUTO 22005KT 9999NDV NCD 02/02 Q1009=
200705160250 METAR ESMX 160250Z AUTO 21004KT 9999NDV NCD 02/02 Q1009=
200705160220 METAR ESMX 160220Z AUTO 20005KT 9999NDV NCD 03/02 Q1009=
200705160150 METAR ESMX 160150Z AUTO 21004KT 9999NDV FEW026/// 03/03 Q1009=
200705160120 METAR ESMX 160120Z AUTO 21004KT 9999NDV FEW024/// 03/02 Q1009=
200705160050 METAR ESMX 160050Z 18004KT 9999 FEW024 04/03 Q1009=
200705160020 METAR ESMX 160020Z 24004KT 9999 FEW025 04/03 Q1009=
200705152350 METAR ESMX 152350Z 24004KT 9999 FEW025 04/03 Q1008=
200705152320 METAR ESMX 152320Z 24005KT 210V290 CAVOK 04/03 Q1008=
200705152250 METAR ESMX 152250Z 25005KT 9999 FEW020 05/04 Q1008=
200705152220 METAR ESMX 152220Z 26006KT 9999 FEW020 06/04 Q1009=
200705152150 METAR ESMX 152150Z 25007KT 9999 FEW020 07/04 Q1009=
200705152120 METAR ESMX 152120Z 25008KT 9999 FEW024 07/05 Q1009=
200705152050 METAR ESMX 152050Z 23007KT 190V260 9999 FEW035 07/05 Q1008=
200705152020 METAR ESMX 152020Z 24006KT 9999 FEW030 07/05 Q1008=
200705151950 METAR ESMX 151950Z 24006KT 9999 FEW025 07/05 Q1008=
200705151920 METAR ESMX 151920Z 22009KT 9999 FEW034 SCT050 08/05 Q1008=
200705151850 METAR ESMX 151850Z 26009KT 230V300 9999 FEW030 SCT040CB BKN050 08/05 Q1008 RESHRA=
200705151820 METAR ESMX 151820Z 25010KT 9999 FEW040 SCT055 10/03 Q1008=
200705151750 METAR ESMX 151750Z 24008KT 9999 FEW044 SCT050 11/03 Q1008=
200705151720 METAR ESMX 151720Z 22012KT 9999 FEW040 11/02 Q1008=
200705151650 METAR ESMX 151650Z 21012KT CAVOK 12/02 Q1008=
200705151620 METAR ESMX 151620Z 25011KT 220V280 CAVOK 12/02 Q1008=
200705151550 METAR ESMX 151550Z 26012KT CAVOK 13/01 Q1008=
200705151520 METAR ESMX 151520Z 25014KT CAVOK 13/00 Q1007=
200705151450 METAR ESMX 151450Z 26013KT 230V300 CAVOK 14/00 Q1007=
200705151420 METAR ESMX 151420Z 26012KT 230V290 CAVOK 14/00 Q1007=
200705151350 METAR ESMX 151350Z 26014KT CAVOK 14/M01 Q1007=
200705151320 METAR ESMX 151320Z 25017KT 220V290 CAVOK 14/00 Q1007=
200705151250 METAR ESMX 151250Z 27014G24KT 230V290 CAVOK 14/01 Q1007=
200705151220 METAR ESMX 151220Z 26013G23KT 220V340 CAVOK 14/M01 Q1007=
200705151150 METAR ESMX 151150Z 25015KT 220V290 CAVOK 14/01 Q1007=
200705151120 METAR ESMX 151120Z 27014KT 9999 FEW048 14/01 Q1006=
200705151050 METAR ESMX 151050Z 24013KT 200V280 9999 FEW048 14/03 Q1006=
200705151020 METAR ESMX 151020Z 25014G26KT 210V290 9999 FEW049 13/01 Q1006=
200705150950 METAR ESMX 150950Z 27012KT 9999 FEW030 13/02 Q1005=
200705150920 METAR ESMX 150920Z 26012KT 210V290 9999 FEW027 SCT200 11/03 Q1005=
200705150850 METAR ESMX 150850Z 26011KT 220V300 9999 FEW025 BKN200 11/02 Q1005=
200705150820 METAR ESMX 150820Z 27010KT 230V300 9999 FEW025 BKN200 10/02 Q1004=
200705150750 METAR ESMX 150750Z 27012KT 9999 FEW025 SCT200 10/02 Q1004=
200705150720 METAR ESMX 150720Z 27011KT 230V300 9999 FEW025 10/03 Q1004=
200705150650 METAR ESMX 150650Z 27010KT 220V300 9999 FEW023 09/02 Q1004=
200705150550 METAR ESMX 150550Z 27009KT 230V300 9999 SCT021 08/04 Q1003=
200705150520 METAR ESMX 150520Z 26009G20KT 230V290 9999 SCT017 07/04 Q1003=
200705150450 METAR ESMX 150450Z 27008KT 230V290 9999 FEW018 06/04 Q1003=
200705150420 METAR ESMX 150420Z 26006KT 9999 FEW016 06/04 Q1002=
200705150350 METAR ESMX 150350Z 26008KT 9999 FEW017 BKN200 06/04 Q1002=
200705150050 METAR ESMX 150050Z AUTO 26006KT 230V290 9999NDV NCD 08/06 Q1001=
200705150020 METAR ESMX 150020Z 24006KT 9999 FEW017 08/06 Q1002=
200705142350 METAR ESMX 142350Z 23006KT 200V260 9999 FEW017 09/06 Q1002=
200705142320 METAR ESMX 142320Z 25006KT 210V280 9999 FEW016 09/07 Q1002=
200705142250 METAR ESMX 142250Z 22006KT 9999 SCT016 10/08 Q1001=
200705142220 METAR ESMX 142220Z 23007KT CAVOK 11/08 Q1001=
200705142150 METAR ESMX 142150Z 21008KT 190V250 CAVOK 11/09 Q1001=
200705142120 METAR ESMX 142120Z 23008KT 200V260 9999 FEW020 SCT060 11/09 Q1001=
200705142050 METAR ESMX 142050Z 23008KT 9999 FEW016 BKN063 11/09 Q1001=
200705142020 METAR ESMX 142020Z 22009KT 190V250 9999 FEW030 BKN065 12/09 Q1001=
200705141950 METAR ESMX 141950Z 23008KT 190V280 9999 FEW030 BKN074 12/09 Q1001=
200705141920 METAR ESMX 141920Z 26011KT 240V300 9999 FEW030 SCT047 BKN056 13/09 Q1001=
200705141850 METAR ESMX 141850Z 26012KT 9999 -SHRA FEW028 SCT046CB BKN080 13/10 Q1001=
200705141820 METAR ESMX 141820Z 20011KT 9999 FEW045CB BKB080 15/08 Q1001=
200705141750 METAR ESMX 141750Z 21010KT CAVOK 16/08 Q1001=
200705141720 METAR ESMX 141720Z 21013KT CAVOK 17/08 Q1001=
200705141650 METAR ESMX 141650Z 20016KT CAVOK 17/08 Q1001=
200705141620 METAR ESMX 141620Z 20017KT 9999 FEW050 SCT080 18/08 Q1000=
200705141550 METAR ESMX 141550Z 19017KT 9999 FEW050TCU SCT090 19/09 Q1000=
200705141520 METAR ESMX 141520Z 20015KT 9999 FEW040 SCT060 19/09 Q1001=
200705141450 METAR ESMX 141450Z 21016KT 9999 FEW040 BKN070 18/09 Q1001=
200705141420 METAR ESMX 141420Z 19018G29KT 160V230 9999 FEW040 SCT060 18/08 Q1001=
200705141350 METAR ESMX 141350Z 18020KT 9999 FEW030 SCT050 20/08 Q1001=
200705141320 METAR ESMX 141320Z 21016KT 9999 FEW030 SCT080 20/08 Q1001=
200705141250 METAR ESMX 141250Z 22017G29KT 180V240 9999 FEW030 SCT060 19/08 Q1001=
200705141220 METAR ESMX 141220Z 19015KT 9999 FEW030 SCT050 20/10 Q1001=
200705141150 METAR ESMX 141150Z 21014KT 170V240 9999 FEW038 SCT052 19/10 Q1001=
200705141120 METAR ESMX 141120Z 21014KT 170V240 9999 FEW037 SCT052 BKN069 19/10 Q1001=
200705141050 METAR ESMX 141050Z 19013KT 9999 FEW020TCU SCT040 18/10 Q1001=
200705141020 METAR ESMX 141020Z 19012KT 160V230 9999 FEW020TCU SCT030 17/12 Q1002=
200705140950 METAR ESMX 140950Z 21011KT 9999 FEW020CB SCT030 17/11 Q1002=
200705140920 METAR ESMX 140920Z 20009KT 170V240 9999 FEW019 16/12 Q1002=
200705140850 METAR ESMX 140850Z 18010KT 150V210 9999 FEW016 SCT082 17/13 Q1002=
200705140820 METAR ESMX 140820Z 18009KT 9999 FEW011 SCT015 BKN048 14/12 Q1002=
200705140720 METAR ESMX 140720Z 16009KT 120V200 9999 FEW010 SCT078 13/11 Q1002=
200705140650 METAR ESMX 140650Z 16009KT 9999 FEW010 SCT077 BKN094 13/11 Q1003=
200705140620 METAR ESMX 140620Z 16008KT 9999 FEW009 SCT030 BKN064 12/11 Q1003=
200705140550 METAR ESMX 140550Z 16009KT 120V190 9999 FEW007 SCT018 BKN080 12/11 Q1003=
200705140520 METAR ESMX 140520Z 15006KT 100V200 9999 FEW008 BKN080 12/11 Q1003=
200705140450 METAR ESMX 140450Z 12008KT 080V150 9999 -DZ FEW010 BKN050 11/10 Q1003=
200705140420 METAR ESMX 140420Z 13007KT 090V170 9999 -RA OVC040 11/10 Q1004=
200705140350 METAR ESMX 140350Z 15007KT 9999 -RA BKN050 11/10 Q1005=
200705140320 METAR ESMX 140320Z AUTO 15007KT 110V180 9999NDV -DZ FEW041/// BKN052/// 11/10 Q1005 RERA=
200705140250 METAR ESMX 140250Z AUTO 14005KT 100V170 9999NDV -RA FEW057/// BKN067/// 11/09 Q1005 REDZ=
200705140220 METAR ESMX 140220Z AUTO 13005KT 090V170 9999NDV BR BKN058/// OVC082/// 11/09 Q1006=
200705140150 METAR ESMX 140150Z AUTO 13006KT 080V170 9000NDV BR FEW043/// SCT082/// BKN093/// 10/09 Q1007=
200705140120 METAR ESMX 140120Z AUTO 14005KT 8000NDV BR FEW040/// SCT046/// OVC055/// 10/09 Q1007 REDZ=
200705140050 METAR ESMX 140050Z AUTO 14006KT 100V170 7000NDV DZ BKN063/// 10/09 Q1007 RERA=
200705140020 METAR ESMX 140020Z 14006KT 100V170 7000 BR FEW064 SCT100 10/09 Q1008=
200705132350 METAR ESMX 132350Z 14005KT 100V170 8000 BR FEW072 10/09 Q1008=
200705132320 METAR ESMX 132320Z 14005KT 100V160 7000 BR NSC 10/09 Q1008=
200705132250 METAR ESMX 132250Z 14005KT 7000 BR NSC 10/10 Q1009=
200705132220 METAR ESMX 132220Z 13004KT 110V170 CAVOK 11/10 Q1009=
200705132150 METAR ESMX 132150Z 13004KT CAVOK 11/10 Q1009=
200705132120 METAR ESMX 132120Z 13006KT CAVOK 11/10 Q1009=
200705132050 METAR ESMX 132050Z 14004KT CAVOK 11/11 Q1009=
200705132020 METAR ESMX 132020Z 14004KT 9999 NSC 11/11 Q1009=
200705131950 METAR ESMX 131950Z 14005KT 9999 NSC 12/11 Q1009=
200705131920 METAR ESMX 131920Z 15004KT 9999 NSC 11/10 Q1009=
200705131850 METAR ESMX 131850Z 16005KT 9999 NSC 12/10 Q1009=
200705131820 METAR ESMX 131820Z 16004KT 120V190 9999 NSC 13/11 Q1009=
200705131750 METAR ESMX 131750Z 15006KT 9999 FEW025 13/11 Q1009=
200705131720 METAR ESMX 131720Z 14005KT 9999 FEW021 14/11 Q1009=
200705131650 METAR ESMX 131650Z 15005KT 120V180 9999 FEW030 SCT050 14/11 Q1009=
200705131620 METAR ESMX 131620Z 16005KT 9999 FEW020 SCT050 13/11 Q1009=
200705131550 METAR ESMX 131550Z 15004KT 9999 FEW030 SCT050 13/11 Q1009=
200705131520 METAR ESMX 131520Z 14004KT 110V170 9999 FEW031 SCT050 12/11 Q1008=
200705131450 METAR ESMX 131450Z 12004KT 9999 FEW020 SCT030 BKN050 12/11 Q1009=
200705131420 METAR ESMX 131420Z 09004KT 9999 FEW020CB BKN050 12/11 Q1008 RERA=
200705131350 METAR ESMX 131350Z VRB02KT 9000 SHRA FEW010 SCT020CB BKN060 10/09 Q1009=
200705131320 METAR ESMX 131320Z VRB02KT 9999 -SHRA FEW020CB SCT050 BKN070 10/09 Q1009=
200705131250 METAR ESMX 131250Z 36005KT 9999 SHRA FEW007 SCT020CB BKN050 10/09 Q1008=
200705131220 METAR ESMX 131220Z 29006KT 240V350 0350 R01/P2000U R19/0150VP2000D SHRA FEW007 SCT020CB BKN026 10/09 Q1009=
200705131150 METAR ESMX 131150Z 17006KT 130V220 9999 SCT025CB BKN030 14/08 Q1008=
200705131120 METAR ESMX 131120Z 16007KT 120V200 9999 SCT025CB BKN070 15/08 Q1008=
200705131050 METAR ESMX 131050Z 19008KT 9999 FEW030CB SCT050 BKN070 14/08 Q1008=
200705121050 METAR ESMX 121050Z AUTO 24004KT 150V290 9999NDV FEW030/// SCT034/// 13/05 Q1004=
200705121020 METAR ESMX 121020Z AUTO 21006KT 160V240 9999NDV BKN024/// 13/05 Q1004=
200705120950 METAR ESMX 120950Z AUTO 27006KT 240V320 9999NDV FEW021/// SCT026/// 10/05 Q1003=
200705120920 METAR ESMX 120920Z AUTO 25004KT 190V300 9999NDV BKN019/// 10/05 Q1003=
200705120850 METAR ESMX 120850Z AUTO 23006KT 9999NDV OVC019/// 10/06 Q1003=
200705120820 METAR ESMX 120820Z AUTO 28007KT 9999NDV FEW019/// OVC021/// 10/05 Q1003=
200705120750 METAR ESMX 120750Z AUTO 23007KT 200V260 9999NDV FEW015/// OVC023/// 09/05 Q1003=
200705120720 METAR ESMX 120720Z AUTO 23008KT 9999NDV OVC023/// 08/05 Q1002=
200705120650 METAR ESMX 120650Z AUTO 24007KT 9999NDV FEW008/// OVC024/// 07/05 Q1002=
200705120620 METAR ESMX 120620Z AUTO 24007KT 9999NDV FEW008/// OVC025/// 07/06 Q1002=
200705120550 METAR ESMX 120550Z AUTO 25007KT 9999NDV FEW006/// BKN008/// OVC011/// 07/06 Q1002=
200705120520 METAR ESMX 120520Z AUTO 22007KT 9999NDV FEW006/// SCT008/// BKN011/// 07/06 Q1001=
200705120450 METAR ESMX 120450Z AUTO 24007KT 9999NDV SCT005/// BKN010/// BKN030/// 08/07 Q1001=
200705120420 METAR ESMX 120420Z AUTO 26005KT 9999NDV FEW008/// SCT013/// 08/07 Q1000=
200705120350 METAR ESMX 120350Z AUTO 27006KT 9999NDV FEW008/// BKN012/// OVC057/// 08/07 Q1000=
200705120320 METAR ESMX 120320Z AUTO 28004KT 250V320 9999NDV FEW007/// SCT010/// BKN013/// 08/07 Q1000=
200705120250 METAR ESMX 120250Z AUTO 27004KT 9999NDV FEW014/// BKN023/// OVC032/// 08/07 Q1000=
200705120220 METAR ESMX 120220Z AUTO 27004KT 9999NDV FEW007/// SCT009/// BKN014/// 08/07 Q0999=
200705120150 METAR ESMX 120150Z AUTO 27005KT 9999NDV FEW006/// SCT012/// BKN016/// 08/07 Q0999=
200705120120 METAR ESMX 120120Z AUTO 26004KT 230V290 9000NDV BR FEW007/// SCT010/// BKN032/// 08/07 Q0999=
200705120050 METAR ESMX 120050Z AUTO 27005KT 8000NDV BR FEW003/// SCT004/// BKN036/// 08/07 Q0998=
200705120020 METAR ESMX 120020Z AUTO 22005KT 9000NDV OVC060/// 07/07 Q0998=
200705112350 METAR ESMX 112350Z AUTO 22004KT 9999NDV FEW011/// BKN061/// 07/07 Q0998=
200705112320 METAR ESMX 112320Z AUTO 23003KT 9999NDV FEW007/// SCT012/// BKN034/// 08/07 Q0998=
200705112250 METAR ESMX 112250Z AUTO 26002KT 9999NDV FEW003/// SCT005/// BKN013/// 08/08 Q0998=
200705112220 METAR ESMX 112220Z AUTO 27004KT 240V300 9999NDV FEW004/// SCT005/// BKN008/// 08/08 Q0997=
200705112150 METAR ESMX 112150Z AUTO 24003KT 9999NDV FEW006/// SCT008/// BKN010/// 09/08 Q0997=
200705112120 METAR ESMX 112120Z AUTO VRB01KT 9999NDV FEW008/// SCT010/// BKN013/// 08/08 Q0997=
200705112050 METAR ESMX 112050Z AUTO 00000KT 9999NDV FEW018/// BKN021/// OVC036/// 08/07 Q0997=
200705112020 METAR ESMX 112020Z AUTO 35004KT 9999NDV FEW023/// SCT036/// BKN044/// 09/08 Q0997 RERA REDZ=
200705111950 METAR ESMX 111950Z AUTO 24006KT 9999NDV -RA BKN035/// 09/08 Q0996 REDZ=
200705111920 METAR ESMX 111920Z AUTO 19006KT 9999NDV OVC037/// 09/08 Q0996=
200705111850 METAR ESMX 111850Z AUTO 18004KT 9999NDV FEW025/// OVC041/// 09/08 Q0996=
200705111820 METAR ESMX 111820Z AUTO 20004KT 9999NDV OVC040/// 10/08 Q0995=
200705111750 METAR ESMX 111750Z 21003KT 9999 FEW010 SCT045 BKN070 10/09 Q0995=
200705111720 METAR ESMX 111720Z 22003KT 190V250 9999 FEW010 SCT050 BKN070 11/08 Q0995=
200705111650 METAR ESMX 111650Z 19004KT 9999 FEW010 SCT060 BKN080 10/08 Q0994=
200705111620 METAR ESMX 111620Z 21005KT 9999 FEW010 BKN080 11/08 Q0994=
200705111550 METAR ESMX 111550Z VRB02KT 9999 FEW010 BKN080 11/08 Q0994=
200705111520 METAR ESMX 111520Z 00000KT 9999 FEW010 BKN080 11/09 Q0994=
200705111450 METAR ESMX 111450Z VRB02KT 9999 FEW010 SCT050 BKN087 10/09 Q0994=
200705111420 METAR ESMX 111420Z 00000KT 9999 FEW010 FEW018CB BKN050 09/09 Q0994 RERA=
200705111350 METAR ESMX 111350Z 00000KT 9999 -SHRA FEW008 FEW015CB SCT035 BKN045 09/08 Q0994 REDZ=
200705111320 METAR ESMX 111320Z 36003KT 340V040 9999 FEW015CB BKN030 08/08 Q0994 RERA REDZ=
200705111250 METAR ESMX 111250Z 36007KT 340V040 6000 -SHRA FEW007 SCT020CB BKN035 08/08 Q0994 REDZ=
200705111150 METAR ESMX 111150Z 35009KT 320V020 6000 -SHRA FEW007 SCT015CB BKN030 08/07 Q0994=
200705111120 METAR ESMX 111120Z VRB10KT 5000 SHRA FEW007 SCT017CB BKN025 10/08 Q0994=
200705111050 METAR ESMX 111050Z 14005KT 090V210 9999 FEW015CB SCT020 BKN030 12/08 Q0993=
200705111020 METAR ESMX 111020Z 13005KT 080V170 9999 FEW015CB SCT020 BKN035 11/09 Q0994=
200705110950 METAR ESMX 110950Z 12004KT 060V160 9999 FEW013CB SCT017 BKN040 11/08 Q0994=
200705110920 METAR ESMX 110920Z VRB03KT 9999 SCT014 BKN019 BKN036 10/08 Q0994=
200705110850 METAR ESMX 110850Z 10005KT 9999 BKN014 10/07 Q0994=
200705110820 METAR ESMX 110820Z 12004KT 060V140 9999 SCT017 BKN022 BKN035 09/08 Q0994=
200705110750 METAR ESMX 110750Z 12004KT 9999 BKN020 BKN028 08/07 Q0994 RERA=
200705110650 METAR ESMX 110650Z VRB02KT 5000 -RA FEW013 SCT025 BKN036 07/06 Q0995=
200705110550 METAR ESMX 110550Z VRB02KT 5000 RA FEW020 SCT032 07/06 Q0995=
200705110520 METAR ESMX 110520Z VRB02KT 3500 +RA FEW015 BKN028 06/06 Q0995=
200705110450 METAR ESMX 110450Z VRB02KT 9999 -RA FEW019 BKN027 06/06 Q0995=
200705110420 METAR ESMX 110420Z VRB02KT 5000 -RA SCT020 BKN030 06/06 Q0995=
200705110350 METAR ESMX 110350Z 30003KT 3900 RA FEW015 OVC024 06/06 Q0995=
200705110320 METAR ESMX 110320Z 36002KT 9999 FEW014 SCT017 OVC021 06/06 Q0995 RERA REDZ=
200705110250 METAR ESMX 110250Z AUTO 15003KT 110V170 9999NDV -RA FEW015/// SCT029/// BKN036/// 06/06 Q0995 REDZ=
200705110220 METAR ESMX 110220Z AUTO 13006KT 110V180 9000NDV RA FEW010/// BKN037/// 06/06 Q0996=
200705110150 METAR ESMX 110150Z AUTO 18003KT 9999NDV FEW004/// SCT015/// BKN035/// 06/06 Q0996 RERA=
200705110120 METAR ESMX 110120Z AUTO 18005KT 4100NDV RA FEW002/// SCT004/// BKN019/// 07/06 Q0996=
200705110050 METAR ESMX 110050Z AUTO 17004KT 3600NDV RA BKN003/// BKN006/// 07/06 Q0997=
200705110020 METAR ESMX 110020Z 16004KT 9999 -RA BKN004 OVC007 07/06 Q0997=
200705102350 METAR ESMX 102350Z 18003KT 9999 BKN003 OVC006 07/06 Q0997=
200705102320 METAR ESMX 102320Z 16005KT 9999 BKN004 06/06 Q0997=
200705102250 METAR ESMX 102250Z 17005KT 9999 FEW004 OVC005 06/06 Q0998=
200705102220 METAR ESMX 102220Z 17004KT 9999 FEW004 BKN005 OVC008 06/06 Q0998=
200705102150 METAR ESMX 102150Z 19003KT 9999 FEW006 SCT008 OVC011 06/06 Q0998=
200705102120 METAR ESMX 102120Z 21002KT 9999 FEW012 SCT015 BKN018 06/06 Q0998=
200705102050 METAR ESMX 102050Z 18004KT 9999 FEW017 BKN021 BKN025 06/06 Q0998=
200705102020 METAR ESMX 102020Z 19004KT 3500 -DZ BKN014 OVC019 06/05 Q0998=
200705101950 METAR ESMX 101950Z 21003KT 9999 FEW018 SCT021 BKN027 06/05 Q0998=
200705101920 METAR ESMX 101920Z VRB01KT 9999 SCT025 BKN035 06/05 Q0998=
200705101850 METAR ESMX 101850Z 24002KT 9999 SCT021 BKN035 07/05 Q0998=
200705101820 METAR ESMX 101820Z 23002KT 9999 FEW018 BKN043 07/05 Q0998=
200705101750 METAR ESMX 101750Z VRB02KT 9999 FEW013 BKN046 07/05 Q0998=
200705101720 METAR ESMX 101720Z 29002KT 9999 FEW021 OVC050 07/05 Q0998=
200705101650 METAR ESMX 101650Z 26002KT 9999 FEW012 BKN020 BKN055 07/05 Q0998=
200705101620 METAR ESMX 101620Z 29002KT 9999 FEW009 SCT019 BKN058 07/05 Q0998=
200705101550 METAR ESMX 101550Z VRB02KT 9999 SCT010 BKN065 07/05 Q0998=
200705101520 METAR ESMX 101520Z 23003KT 170V260 9999 FEW010 SCT059 07/05 Q0998=
200705101450 METAR ESMX 101450Z 20005KT 9999 FEW009 SCT015 BKN060 07/05 Q0998 RERA=
200705101420 METAR ESMX 101420Z 20006KT 9999 -RA FEW010 SCT016 BKN024 07/06 Q0998=
200705101350 METAR ESMX 101350Z 20010KT 8000 -RA FEW019 SCT025 BKN033 07/05 Q0999=
200705101320 METAR ESMX 101320Z 23008KT 190V250 9999 -RA FEW018 SCT020 BKN031 09/04 Q0999=
200705101250 METAR ESMX 101250Z 22006KT 9999 FEW023 BKN043 10/02 Q0999=
200705101220 METAR ESMX 101220Z 22008KT 9999 SCT037 BKN046 11/03 Q0999=
200705101120 METAR ESMX 101120Z 19008KT 9999 BKN036 11/03 Q0999=
200705101050 METAR ESMX 101050Z 20009KT 170V260 9999 FEW036 BKN040 10/01 Q1000=
200705101020 METAR ESMX 101020Z 23010KT 9999 BKN035 10/02 Q1000=
200705100950 METAR ESMX 100950Z 20011KT 170V240 9999 BKN035 10/02 Q1001=
200705100920 METAR ESMX 100920Z 21008KT 170V260 9999 FEW030 BKN040 10/01 Q1001=
200705100850 METAR ESMX 100850Z 20008KT 9999 BKN030 09/02 Q1001=
200705100820 METAR ESMX 100820Z 22008KT 190V260 9999 FEW023 SCT030 BKN040 08/02 Q1001=
200705100750 METAR ESMX 100750Z 20009KT 170V260 9999 FEW024 BKN040 08/02 Q1001=
200705100720 METAR ESMX 100720Z 21008KT 180V240 9999 FEW025 BKN040 07/03 Q1002=
200705100650 METAR ESMX 100650Z 21008KT 9999 OVC037 07/02 Q1002=
200705100620 METAR ESMX 100620Z 20007KT 9999 OVC035 07/03 Q1002=
200705100550 METAR ESMX 100550Z 20006KT 9999 BKN033 06/02 Q1002=
200705100520 METAR ESMX 100520Z 22005KT 9999 BKN035 06/02 Q1002=
200705100450 METAR ESMX 100450Z 22006KT 9999 BKN034 06/01 Q1002=
200705100420 METAR ESMX 100420Z 23006KT 9999 BKN033 05/01 Q1002=
200705100350 METAR ESMX 100350Z 21004KT 9999 BKN032 04/01 Q1002=
200705100320 METAR ESMX 100320Z 20005KT 9999 SCT035 03/01 Q1003=
200705100050 METAR ESMX 100050Z AUTO 24005KT 9999NDV NCD 03/02 Q1003=
200705100020 METAR ESMX 100020Z AUTO 24005KT 200V260 9999NDV NCD 04/02 Q1003=
200705092350 METAR ESMX 092350Z 25004KT CAVOK 04/03 Q1003=
200705092320 METAR ESMX 092320Z 24005KT CAVOK 05/03 Q1003=
200705092250 METAR ESMX 092250Z 24006KT 9999 FEW021 BKN063 06/04 Q1003=
200705092220 METAR ESMX 092220Z 23007KT 200V270 9999 SCT020 BKN062 06/04 Q1004=
200705092150 METAR ESMX 092150Z 25009KT 9999 BKN018 BKN061 07/05 Q1003=
200705092120 METAR ESMX 092120Z 26008KT 9999 FEW017 BKN020 07/05 Q1003=
200705092050 METAR ESMX 092050Z 26008KT 9999 FEW015 SCT037 BKN048 08/06 Q1003=
200705092020 METAR ESMX 092020Z 27008KT 230V300 9999 FEW011 SCT043 BKN077 08/06 Q1003=
200705091950 METAR ESMX 091950Z 24009KT 9999 FEW013 SCT035 BKN082 08/06 Q1002=
200705091920 METAR ESMX 091920Z 24008KT 210V280 9999 FEW036 BKN068 09/06 Q1002=
200705091850 METAR ESMX 091850Z 25006KT 9999 FEW045 BKN074 09/05 Q1002=
200705091750 METAR ESMX 091750Z 27009KT 230V300 9999 FEW025 BKN080 10/05 Q1001=
200705091720 METAR ESMX 091720Z 27009KT 240V300 9999 FEW035 BKN080 11/05 Q1001=
200705091650 METAR ESMX 091650Z 27011KT 240V300 9999 FEW015 SCT045 BKN055 12/06 Q1000=
200705091620 METAR ESMX 091620Z 24010KT 9999 FEW030 SCT035 BKN050 12/06 Q1000=
200705091550 METAR ESMX 091550Z 26011KT 230V290 9999 FEW030 SCT060 13/06 Q1000=
200705091520 METAR ESMX 091520Z 27012KT 9999 SCT030 13/07 Q1000=
200705091450 METAR ESMX 091450Z 27010KT 230V300 9999 SCT030 13/06 Q1000=
200705091420 METAR ESMX 091420Z 27011KT 230V310 9999 FEW023 SCT030 BKN040 12/07 Q1000=
200705091320 METAR ESMX 091320Z 26008KT 9999 -SHRA FEW030 BKN050 11/07 Q0999=
200705091250 METAR ESMX 091250Z 29009KT 240V340 9999 FEW025 BKN060 12/07 Q0999=
200705091220 METAR ESMX 091220Z 26005KT 9999 FEW040 SCT070 10/08 Q0998 RERA REDZ=
200705091150 METAR ESMX 091150Z 26007KT 9999 -RA FEW028 SCT060 10/07 Q0998 REDZ=
200705091120 METAR ESMX 091120Z 27007KT 230V320 9999 FEW025 SCT050 13/06 Q0997=
200705091050 METAR ESMX 091050Z 26005KT 9999 FEW015 SCT035 13/06 Q0997=
200705091020 METAR ESMX 091020Z 27010KT 9999 FEW020 SCT035 BKN075 13/07 Q0997 RESHRA=
200705090950 METAR ESMX 090950Z 30009KT 9999 -RA FEW025 SCT040 BKN050 10/05 Q0997=
200705090920 METAR ESMX 090920Z 29008KT 260V340 9999 FEW020 SCT026 BKN049 11/05 Q0996=
200705090820 METAR ESMX 090820Z 29007KT 260V340 9999 FEW013 SCT030 10/07 Q0996=
200705090720 METAR ESMX 090720Z 28006KT 240V310 9000 -SHRA FEW014 SCT020 BKN032 08/06 Q0996=
200705090650 METAR ESMX 090650Z 28006KT 240V300 9999 BKN010 08/06 Q0995=
200705090620 METAR ESMX 090620Z 27006KT 230V300 9999 FEW008 SCT010 BKN014 08/06 Q0995=
200705090550 METAR ESMX 090550Z 27006KT 240V300 9999 FEW007 SCT009 OVC011 08/06 Q0995=
200705090520 METAR ESMX 090520Z 24006KT 9999 BKN005 08/07 Q0995=
200705090450 METAR ESMX 090450Z 22004KT 9999 FEW004 SCT007 07/06 Q0994=
200705090420 METAR ESMX 090420Z 23004KT 9999 FEW007 SCT030 07/06 Q0994=
200705090350 METAR ESMX 090350Z 22003KT 190V260 9999 FEW005 BKN030 06/06 Q0994=
200705090320 METAR ESMX 090320Z AUTO 23005KT 9999NDV FEW006/// OVC012/// 06/06 Q0994=
200705090250 METAR ESMX 090250Z AUTO 20005KT 9999NDV FEW020/// OVC040/// 06/06 Q0994=
200705090220 METAR ESMX 090220Z AUTO 20005KT 9999NDV FEW005/// SCT024/// OVC040/// 06/06 Q0994=
200705090150 METAR ESMX 090150Z AUTO 21005KT 9999NDV SCT005/// BKN016/// OVC045/// 06/06 Q0994=
200705090120 METAR ESMX 090120Z AUTO 20004KT 9000NDV FEW019/// BKN034/// 05/05 Q0994=
200705090050 METAR ESMX 090050Z AUTO 21005KT 9999NDV FEW021/// SCT037/// BKN054/// 05/05 Q0994=
200705090020 METAR ESMX 090020Z AUTO 21005KT 9999NDV FEW021/// SCT034/// BKN039/// 05/05 Q0994=
200705082350 METAR ESMX 082350Z 20004KT 9999 FEW020 BKN035 06/05 Q0994 RERA REDZ=
200705082320 METAR ESMX 082320Z 24003KT 210V280 9000 -RA SCT010 BKN020 07/05 Q0994=
200705082250 METAR ESMX 082250Z 29004KT 230V330 9999 FEW009 BKN016 07/05 Q0995=
200705082220 METAR ESMX 082220Z 22006KT 9999 FEW017 BKN050 07/05 Q0995 REDZ=
200705082150 METAR ESMX 082150Z 23005KT 9999 DZ FEW030 BKN055 07/05 Q0994 RERA=
200705082120 METAR ESMX 082120Z 22006KT 9999 FEW035 SCT060 07/05 Q0994=
200705082050 METAR ESMX 082050Z 21007KT 9999 SCT035 07/06 Q0995=
200705082020 METAR COR ESMX 082020Z 22006KT 9999 SCT030 06/05 Q0995=
200705081920 METAR ESMX 081920Z 23005KT 9999 FEW035 06/04 Q0995=
200705081850 METAR ESMX 081850Z 23005KT 9999 SCT030 08/05 Q0994=
200705081820 METAR ESMX 081820Z 24007KT 9999 FEW020CB SCT035 09/06 Q0994=
200705081750 METAR ESMX 081750Z 23006KT 9999 FEW020CB SCT035 09/06 Q0994=
200705081720 METAR ESMX 081720Z 25006KT 220V280 9999 FEW020CB SCT050 09/07 Q0994 RERA=
200705081650 METAR ESMX 081650Z 26009KT 230V290 9999 -SHRA FEW022CB SCT047 BKN053 09/07 Q0994 RERA=
200705081620 METAR ESMX 081620Z 26009KT 220V290 9999 FEW019 BKN050 09/07 Q0994=
200705081550 METAR ESMX 081550Z 27009KT 240V300 9999 FEW013 SCT023 BKN040 09/08 Q0994=
200705081520 METAR ESMX 081520Z 25009KT 210V280 9999 -SHRA FEW027CB SCT045 BKN058 09/07 Q0994=
200705081450 METAR ESMX 081450Z 23006KT 9999 VCSH FEW020CB BKN060 09/07 Q0994 RERA=
200705081420 METAR ESMX 081420Z 23009KT 9999 SHRA FEW016 SCT022CB BKN038 08/06 Q0994=
200705081320 METAR ESMX 081320Z 24008KT 9999 -SHRA FEW017 SCT022CB BKN028 09/04 Q0994=
200705081250 METAR ESMX 081250Z 19008KT 9999 VCSH FEW018 SCT028CB BKN045 11/08 Q0994=
200705081150 METAR ESMX 081150Z 25003KT 190V290 9999 FEW025 SCT040 08/07 Q0995 RESHRA=
200705081050 METAR ESMX 081050Z 24007KT 200V280 9999 -DZ FEW020 SCT035CB BKN050 10/07 Q0995 RERA=
200705081020 METAR ESMX 081020Z 20008KT 9999 VCSH FEW021 SCT035CB BKN043 09/07 Q0995 RERA=
200705080950 METAR ESMX 080950Z 21007KT 180V240 9999 VCSH SCT030CB BKN050 11/07 Q0995=
200705080920 METAR ESMX 080920Z 22004KT 180V260 9999 FEW016 SCT030 BKN055 11/08 Q0995 RESHRA=
200705080850 METAR ESMX 080850Z 21008KT 9999 SHRA FEW020 SCT040 BKN050 11/07 Q0995=
200705080820 METAR ESMX 080820Z 22009KT 9999 FEW020 BKN030 10/06 Q0996=
200705080750 METAR ESMX 080750Z 23010KT 9999 FEW020 SCT025 BKN031 10/06 Q0996=
200705080720 METAR ESMX 080720Z 25008KT 210V280 9999 FEW015 BKN025 10/06 Q0996=
200705080650 METAR ESMX 080650Z 23007KT 200V280 9999 FEW015 BKN025 10/06 Q0996=
200705080620 METAR ESMX 080620Z 23007KT 190V280 9999 FEW013 SCT035 09/06 Q0996=
200705080550 METAR ESMX 080550Z 24007KT 200V270 9999 FEW015 SCT035 08/07 Q0996=
200705080520 METAR ESMX 080520Z 22006KT 9999 SHRA FEW010 SCT030 08/06 Q0996=
200705080450 METAR ESMX 080450Z 22006KT 200V260 9999 FEW017 FEW020TCU BKN050 07/06 Q0996=
200705080420 METAR ESMX 080420Z 20005KT 9999 FEW018 SCT200 06/05 Q0996=
200705080350 METAR ESMX 080350Z 22004KT 9999 FEW017 SCT050 06/05 Q0996=
200705072350 METAR ESMX 072350Z 20004KT 9999 FEW030 06/05 Q0998=
200705072320 METAR ESMX 072320Z 20005KT 9999 FEW030 06/05 Q0998=
200705072250 METAR ESMX 072250Z 21006KT 9999 FEW030 06/05 Q0998=
200705072120 METAR ESMX 072120Z 21004KT CAVOK 07/04 Q0998=
200705072050 METAR ESMX 072050Z 20004KT CAVOK 08/04 Q0998=
200705072020 METAR ESMX 072020Z 22004KT 9999 SCT060 08/05 Q0998=
200705071950 METAR ESMX 071950Z 19005KT 9999 FEW050CB SCT080 09/05 Q0998=
200705071920 METAR ESMX 071920Z 22004KT CAVOK 09/04 Q0998=
200705071850 METAR ESMX 071850Z 22006KT CAVOK 10/04 Q0999=
200705071820 METAR ESMX 071820Z 22007KT CAVOK 11/04 Q0999=
200705071720 METAR ESMX 071720Z 23008KT 190V260 CAVOK 12/04 Q0999=
200705071650 METAR ESMX 071650Z 24010KT 210V280 CAVOK 12/04 Q0999=
200705071620 METAR ESMX 071620Z 24009KT CAVOK 12/05 Q0999=
200705071550 METAR ESMX 071550Z 25008KT 210V280 9999 FEW045 SCT078 11/05 Q1000=
200705071520 METAR ESMX 071520Z 26011KT 230V290 9999 -SHRA FEW019 FEW050CB SCT064 BKN081 10/05 Q1000=
200705071450 METAR ESMX 071450Z 29019KT 260V330 9999 -SHRA SCT050CB BKN076 10/05 Q1000=
200705071320 METAR ESMX 071320Z 24012KT 210V290 9999 FEW018 SCT040 13/05 Q1001 RERA=
200705071250 METAR ESMX 071250Z 26010KT 9999 -SHRA FEW037 SCT045 12/04 Q1001=
200705071220 METAR ESMX 071220Z 24012KT 200V270 9999 FEW035 SCT040 14/05 Q1001=
200705071120 METAR ESMX 071120Z 24012KT 190V270 9999 FEW040 BKN065 14/04 Q1001=
200705071050 METAR ESMX 071050Z 24010KT 190V300 9999 FEW039 SCT045 14/04 Q1001=
200705071020 METAR ESMX 071020Z 23010KT 9999 FEW025 BKN040 12/06 Q1002 RERA=
200705070950 METAR ESMX 070950Z 22013KT 190V250 9999 FEW040 BKN050 14/04 Q1002=
200705070850 METAR ESMX 070850Z 24010KT 200V290 9999 FEW020 BKN035 13/05 Q1002=
200705070820 METAR ESMX 070820Z 25009KT 210V280 9999 FEW020 BKN035 11/05 Q1002=
200705070750 METAR ESMX 070750Z 24009KT 9999 SCT015 BKN025 10/07 Q1003=
200705070720 METAR ESMX 070720Z 24008KT 9999 FEW010 SCT017 BKN020 11/08 Q1003=
200705070650 METAR ESMX 070650Z 25007KT 210V290 9999 FEW009 BKN015 10/08 Q1003=
200705070620 METAR ESMX 070620Z 24007KT 9999 FEW010 BKN015 09/07 Q1003=
200705070550 METAR ESMX 070550Z 23007KT 180V270 9999 FEW010 SCT015 BKN050 08/07 Q1003=
200705070520 METAR ESMX 070520Z 26004KT CAVOK 08/07 Q1003=
200705070450 METAR ESMX 070450Z 26003KT 220V290 CAVOK 07/06 Q1003=
200705070420 METAR ESMX 070420Z 27004KT 9999 FEW008 SCT150 07/06 Q1003 RERA=
200705070320 METAR ESMX 070320Z AUTO 25008KT 220V280 9999NDV DZ FEW008/// SCT028/// 08/07 Q1004 RERA=
200705070250 METAR ESMX 070250Z AUTO 21009KT 9999NDV -RA FEW019/// SCT037/// 08/07 Q1004 REDZ=
200705070220 METAR ESMX 070220Z AUTO 20013KT 9000NDV -RA FEW020/// SCT034/// 09/07 Q1004 REDZ=
200705070150 METAR ESMX 070150Z AUTO 22009KT 9999NDV -RA FEW022/// BKN026/// 10/07 Q1005 REDZ=
200705070120 METAR ESMX 070120Z AUTO 22006KT 9999NDV FEW025/// SCT032/// BKN036/// 10/07 Q1005=
200705070050 METAR ESMX 070050Z AUTO 19006KT 9999NDV FEW025/// 10/07 Q1005=
200705070020 METAR ESMX 070020Z 21005KT 170V240 9999 FEW045 10/07 Q1006=
200705062320 METAR ESMX 062320Z 23006KT 9999 FEW033 SCT040 11/07 Q1006=
200705062250 METAR ESMX 062250Z 22007KT 9999 FEW034 SCT044 11/07 Q1007=
200705062220 METAR ESMX 062220Z 21005KT CAVOK 12/06 Q1007=
200705062150 METAR ESMX 062150Z 23008KT 200V260 CAVOK 12/06 Q1007=
200705062120 METAR ESMX 062120Z 23005KT CAVOK 12/06 Q1007=
200705062050 METAR ESMX 062050Z 22005KT 190V280 CAVOK 11/06 Q1007=
200705062020 METAR ESMX 062020Z 17007KT CAVOK 14/06 Q1007=
200705061950 METAR ESMX 061950Z 17007KT CAVOK 14/07 Q1007=
200705061920 METAR ESMX 061920Z 16008KT CAVOK 15/07 Q1008=
200705061850 METAR ESMX 061850Z 16009KT 110V190 CAVOK 16/07 Q1008=
200705061820 METAR ESMX 061820Z 16010KT CAVOK 17/06 Q1008=
200705061750 METAR ESMX 061750Z 16010KT 120V190 CAVOK 18/06 Q1008=
200705061720 METAR ESMX 061720Z 16010KT 130V200 CAVOK 18/06 Q1008=
200705061650 METAR ESMX 061650Z 17012KT CAVOK 19/06 Q1008=
200705061620 METAR ESMX 061620Z 16010KT 120V190 CAVOK 19/06 Q1009=
200705061550 METAR ESMX 061550Z 19013KT CAVOK 20/04 Q1009=
200705061520 METAR ESMX 061520Z 19014KT CAVOK 20/05 Q1009=
200705061450 METAR ESMX 061450Z 19013KT 160V240 CAVOK 21/05 Q1010=
200705061420 METAR ESMX 061420Z 17012KT 140V210 CAVOK 22/04 Q1010=
200705061350 METAR ESMX 061350Z 20013KT 160V230 CAVOK 22/04 Q1010=
200705061320 METAR ESMX 061320Z 22011KT 180V260 CAVOK 22/04 Q1011=
200705061250 METAR ESMX 061250Z 18013KT 140V210 CAVOK 22/03 Q1011=
200705061220 METAR ESMX 061220Z 19013KT 150V220 CAVOK 22/03 Q1012=
200705061150 METAR ESMX 061150Z 21014KT CAVOK 21/02 Q1012=
200705061120 METAR ESMX 061120Z 21014KT CAVOK 21/03 Q1012=
200705061050 METAR ESMX 061050Z 18010G20KT 150V210 CAVOK 20/03 Q1013=
200705061020 METAR ESMX 061020Z AUTO 18012KT 9999NDV NCD 20/03 Q1013=
200705060950 METAR ESMX 060950Z AUTO 20010KT 170V240 9999NDV NCD 19/03 Q1014=
200705060920 METAR ESMX 060920Z AUTO 18007KT 9999NDV NCD 18/04 Q1014=
200705060850 METAR ESMX 060850Z AUTO 17006KT 110V230 9999NDV NCD 17/04 Q1014=
200705060820 METAR ESMX 060820Z AUTO 14005KT 100V180 9999NDV NCD 15/04 Q1015=
200705060750 METAR ESMX 060750Z AUTO 16003KT 120V200 9999NDV NCD 15/04 Q1015=
200705060720 METAR ESMX 060720Z AUTO 16005KT 9999NDV NCD 12/04 Q1015=
200705060650 METAR ESMX 060650Z AUTO 15004KT 110V230 9999NDV NCD 11/04 Q1016=
200705060620 METAR ESMX 060620Z AUTO 15003KT 100V190 9999NDV NCD 10/04 Q1016=
200705060550 METAR ESMX 060550Z AUTO 14003KT 080V170 9999NDV NCD 08/03 Q1016=
200705060520 METAR ESMX 060520Z AUTO 15003KT 120V190 9999NDV NCD 07/03 Q1016=
200705060450 METAR ESMX 060450Z AUTO VRB02KT 9999NDV NCD 05/03 Q1016=
200705060420 METAR ESMX 060420Z AUTO VRB02KT 9999NDV NCD 03/02 Q1016=
200705060320 METAR ESMX 060320Z AUTO 16004KT 9999NDV NCD 02/00 Q1016=
200705060250 METAR ESMX 060250Z AUTO 15005KT 140V200 9999NDV NCD 02/01 Q1016=
200705060220 METAR ESMX 060220Z AUTO 15005KT 9999NDV NCD 01/M01 Q1017=
200705060150 METAR ESMX 060150Z AUTO 15004KT 9999NDV NCD 02/M01 Q1017=
200705060120 METAR ESMX 060120Z AUTO 15004KT 9999NDV NCD 03/00 Q1017=
200705060050 METAR ESMX 060050Z AUTO 15005KT 9999NDV NCD 03/M01 Q1017=
200705060020 METAR ESMX 060020Z AUTO 16004KT 9999NDV NCD 02/M01 Q1017=
200705052320 METAR ESMX 052320Z AUTO 17004KT 9999NDV NCD 03/M02 Q1018=
200705052250 METAR ESMX 052250Z AUTO 17005KT 9999NDV NCD 06/M02 Q1018=
200705052220 METAR ESMX 052220Z AUTO 17004KT 9999NDV NCD 04/M02 Q1018=
200705052150 METAR ESMX 052150Z AUTO 17003KT 9999NDV NCD 04/M02 Q1018=
200705052120 METAR ESMX 052120Z AUTO 19005KT 9999NDV NCD 05/M03 Q1018=
200705052050 METAR ESMX 052050Z AUTO 17005KT 9999NDV NCD 08/M04 Q1018=
200705052020 METAR ESMX 052020Z AUTO 17007KT 9999NDV NCD 09/M03 Q1018=
200705051950 METAR ESMX 051950Z AUTO 16006KT 9999NDV NCD 09/M00 Q1018=
200705051920 METAR ESMX 051920Z AUTO 18007KT 9999NDV NCD 10/01 Q1017=
200705051850 METAR ESMX 051850Z AUTO 17007KT 9999NDV NCD 11/02 Q1017=
200705051820 METAR ESMX 051820Z AUTO 18010KT 9999NDV NCD 12/02 Q1017=
200705051750 METAR ESMX 051750Z AUTO 17010KT 9999NDV NCD 13/01 Q1017=
200705051720 METAR ESMX 051720Z AUTO 19012KT 9999NDV NCD 14/02 Q1016=
200705051650 METAR ESMX 051650Z AUTO 18010KT 9999NDV NCD 15/02 Q1016=
200705051620 METAR ESMX 051620Z AUTO 16009KT 130V190 9999NDV NCD 15/01 Q1016=
200705051550 METAR ESMX 051550Z AUTO 16008KT 110V210 9999NDV NCD 16/01 Q1016=
200705051520 METAR ESMX 051520Z AUTO 17009KT 120V190 9999NDV NCD 17/01 Q1016=
200705051450 METAR ESMX 051450Z AUTO 16008KT 120V200 9999NDV NCD 17/02 Q1016=
200705051420 METAR ESMX 051420Z AUTO 18009KT 140V210 9999NDV NCD 18/01 Q1016=
200705051350 METAR ESMX 051350Z AUTO 17008KT 140V220 9999NDV NCD 18/01 Q1016=
200705051320 METAR ESMX 051320Z AUTO 15008KT 100V190 9999NDV NCD 17/02 Q1016=
200705051250 METAR ESMX 051250Z AUTO 17007KT 140V210 9999NDV NCD 18/03 Q1016=
200705051220 METAR ESMX 051220Z AUTO 17009KT 9999NDV NCD 17/02 Q1016=
200705051150 METAR ESMX 051150Z AUTO 14008KT 100V190 9999NDV NCD 17/02 Q1016=
200705051120 METAR ESMX 051120Z AUTO 15008KT 110V180 9999NDV NCD 16/02 Q1017=
200705051050 METAR ESMX 051050Z AUTO 16007KT 080V220 9999NDV NCD 16/03 Q1017=
200705051020 METAR ESMX 051020Z AUTO 16006KT 120V230 9999NDV NCD 16/02 Q1017=
200705050950 METAR ESMX 050950Z AUTO 16008KT 120V200 9999NDV NCD 14/01 Q1017=
200705050920 METAR ESMX 050920Z AUTO 13006KT 070V190 9999NDV NCD 14/01 Q1017=
200705050850 METAR ESMX 050850Z AUTO 12006KT 070V180 9999NDV NCD 13/02 Q1017=
200705050820 METAR ESMX 050820Z AUTO 14007KT 090V190 9999NDV NCD 12/01 Q1017=
200705050750 METAR ESMX 050750Z AUTO 15006KT 100V200 9999NDV NCD 11/00 Q1017=
200705050720 METAR ESMX 050720Z AUTO 15007KT 9999NDV NCD 11/01 Q1016=
200705050650 METAR ESMX 050650Z AUTO 12005KT 080V180 9999NDV NCD 09/01 Q1016=
200705050550 METAR ESMX 050550Z AUTO 11004KT 050V150 9999NDV NCD 07/02 Q1016=
200705050520 METAR ESMX 050520Z AUTO 10005KT 060V140 9999NDV NCD 05/02 Q1016=
200705050450 METAR ESMX 050450Z AUTO 11005KT 070V140 9999NDV NCD 04/02 Q1016=
200705050420 METAR ESMX 050420Z AUTO 09004KT 050V140 9999NDV NCD 03/01 Q1016=
200705050350 METAR ESMX 050350Z AUTO 09003KT 040V140 9999NDV NCD 03/01 Q1016=
200705050320 METAR ESMX 050320Z AUTO 10003KT 9999NDV NCD 02/01 Q1016=
200705050250 METAR ESMX 050250Z AUTO 11002KT 9999NDV NCD 03/01 Q1015=
200705050220 METAR ESMX 050220Z AUTO 11003KT 080V150 9999NDV NCD 03/01 Q1015=
200705050150 METAR ESMX 050150Z AUTO 11003KT 060V140 9999NDV NCD 03/01 Q1015=
200705050120 METAR ESMX 050120Z AUTO 10004KT 050V150 9999NDV NCD 04/01 Q1015=
200705050050 METAR ESMX 050050Z AUTO 10004KT 050V160 9999NDV NCD 04/01 Q1015=
200705050020 METAR ESMX 050020Z AUTO 11004KT 9999NDV NCD 04/01 Q1015=
200705042350 METAR ESMX 042350Z AUTO 11004KT 070V140 9999NDV NCD 05/01 Q1015=
200705042320 METAR ESMX 042320Z AUTO 11004KT 9999NDV NCD 05/01 Q1015=
200705042250 METAR ESMX 042250Z AUTO 10004KT 040V150 9999NDV NCD 06/00 Q1015=
200705042220 METAR ESMX 042220Z AUTO 09005KT 9999NDV NCD 06/01 Q1015=
200705042150 METAR ESMX 042150Z AUTO 11005KT 050V150 9999NDV NCD 07/01 Q1015=
200705042050 METAR ESMX 042050Z AUTO 12006KT 080V160 9999NDV NCD 08/01 Q1014=
200705042020 METAR ESMX 042020Z AUTO 10007KT 050V140 9999NDV NCD 09/02 Q1014=
200705041950 METAR ESMX 041950Z AUTO 11006KT 050V170 9999NDV NCD 10/04 Q1014=
200705041920 METAR ESMX 041920Z AUTO 08005KT 040V140 9999NDV NCD 11/04 Q1014=
200705041850 METAR ESMX 041850Z AUTO 12005KT 080V180 9999NDV NCD 12/05 Q1013=
200705041820 METAR ESMX 041820Z AUTO 12006KT 080V160 9999NDV NCD 13/05 Q1013=
200705041750 METAR ESMX 041750Z 11007KT 070V150 CAVOK 14/05 Q1013=
200705041720 METAR ESMX 041720Z 11007KT 070V160 CAVOK 15/05 Q1012=
200705041650 METAR ESMX 041650Z 09008KT CAVOK 17/05 Q1012=
200705041620 METAR ESMX 041620Z 28009KT CAVOK 19/03 Q1012=
200705041550 METAR ESMX 041550Z 29009KT CAVOK 19/03 Q1012=
200705041520 METAR ESMX 041520Z 27007KT 200V340 CAVOK 20/03 Q1012=
200705041450 METAR ESMX 041450Z 28007KT 220V340 CAVOK 20/03 Q1012=
200705041420 METAR ESMX 041420Z 25009KT CAVOK 21/03 Q1012=
200705041350 METAR ESMX 041350Z 26005KT 170V330 CAVOK 20/02 Q1012=
200705041320 METAR ESMX 041320Z 29008KT 250V320 CAVOK 20/03 Q1012=
200705041250 METAR ESMX 041250Z 26007KT 240V300 CAVOK 20/03 Q1012=
200705041220 METAR ESMX 041220Z 25006KT 210V300 CAVOK 20/03 Q1012=
200705041150 METAR ESMX 041150Z 27006KT 170V330 CAVOK 20/03 Q1012=
200705041120 METAR ESMX 041120Z 31008KT CAVOK 19/02 Q1013=
200705041050 METAR ESMX 041050Z 27011KT CAVOK 19/02 Q1012=
200705041020 METAR ESMX 041020Z 29010KT 240V320 CAVOK 18/02 Q1013=
200705040920 METAR ESMX 040920Z 27009KT 230V320 CAVOK 18/02 Q1013=
200705040850 METAR ESMX 040850Z 28009KT CAVOK 17/03 Q1013=
200705040820 METAR ESMX 040820Z 28012KT 250V320 CAVOK 15/01 Q1013=
200705040750 METAR ESMX 040750Z 29011KT CAVOK 15/02 Q1013=
200705040720 METAR ESMX 040720Z 27007KT 230V320 CAVOK 13/02 Q1013=
200705040650 METAR ESMX 040650Z 26010KT CAVOK 13/03 Q1013=
200705040620 METAR ESMX 040620Z 27011KT 240V300 CAVOK 12/03 Q1014=
200705040550 METAR ESMX 040550Z 27009KT CAVOK 10/03 Q1014=
200705040520 METAR ESMX 040520Z 26008KT 220V300 CAVOK 09/03 Q1014=
200705040420 METAR ESMX 040420Z 18004KT CAVOK 05/02 Q1014=
200705040350 METAR ESMX 040350Z 18004KT CAVOK 05/01 Q1014=
200705040320 METAR ESMX 040320Z AUTO 24004KT 200V260 9999NDV NCD 05/02 Q1014=
200705040250 METAR ESMX 040250Z AUTO 25005KT 9999NDV NCD 05/02 Q1014=
200705040220 METAR ESMX 040220Z AUTO 25004KT 9999NDV NCD 05/01 Q1014=
200705040150 METAR ESMX 040150Z AUTO 26006KT 9999NDV NCD 06/02 Q1015=
200705040120 METAR ESMX 040120Z AUTO 25006KT 9999NDV NCD 06/02 Q1015=
200705040020 METAR ESMX 040020Z AUTO 25006KT 210V280 9999NDV NCD 07/01 Q1015=
200705032350 METAR ESMX 032350Z 25005KT CAVOK 07/01 Q1015=
200705032320 METAR ESMX 032320Z 25005KT CAVOK 07/01 Q1015=
200705032250 METAR ESMX 032250Z 24005KT CAVOK 06/00 Q1015=
200705032220 METAR ESMX 032220Z 20004KT CAVOK 06/01 Q1015=
200705032150 METAR ESMX 032150Z 19004KT CAVOK 08/01 Q1015=
200705032120 METAR ESMX 032120Z 21005KT CAVOK 07/01 Q1015=
200705032050 METAR ESMX 032050Z 18006KT CAVOK 07/01 Q1015=
200705032020 METAR ESMX 032020Z 26006KT CAVOK 11/01 Q1016=
200705031950 METAR ESMX 031950Z 26006KT CAVOK 12/01 Q1016=
200705031920 METAR ESMX 031920Z 28006KT CAVOK 12/01 Q1016=
200705031850 METAR ESMX 031850Z 26006KT CAVOK 13/01 Q1015=
200705031820 METAR ESMX 031820Z 29008KT CAVOK 15/00 Q1015=
200705031750 METAR ESMX 031750Z 27009KT 230V300 CAVOK 16/01 Q1015=
200705031720 METAR ESMX 031720Z 27007KT 240V320 CAVOK 17/01 Q1015=
200705031650 METAR ESMX 031650Z 25008KT CAVOK 17/00 Q1015=
200705031620 METAR ESMX 031620Z 28008KT CAVOK 17/00 Q1016=
200705031550 METAR ESMX 031550Z 29008KT CAVOK 17/00 Q1016=
200705031520 METAR ESMX 031520Z 29006KT 250V350 CAVOK 18/00 Q1016=
200705031450 METAR ESMX 031450Z 24006KT 180V320 CAVOK 17/00 Q1017=
200705031420 METAR ESMX 031420Z VRB04KT CAVOK 17/M00 Q1017=
200705031350 METAR ESMX 031350Z VRB02KT CAVOK 16/M00 Q1017=
200705031320 METAR ESMX 031320Z 25003KT 140V320 CAVOK 17/M00 Q1017=
200705031250 METAR ESMX 031250Z 07004KT 350V120 CAVOK 16/M01 Q1018=
200705031220 METAR ESMX 031220Z 14003KT 050V210 CAVOK 17/M00 Q1018=
200705031150 METAR ESMX 031150Z VRB05KT CAVOK 17/M01 Q1019=
200705031120 METAR ESMX 031120Z VRB06KT CAVOK 16/M01 Q1019=
200705031050 METAR ESMX 031050Z 01005KT 330V040 CAVOK 15/M01 Q1019=
200705031020 METAR ESMX 031020Z VRB02KT CAVOK 14/M02 Q1019=
200705030950 METAR ESMX 030950Z 03004KT 340V080 CAVOK 14/M02 Q1019=
200705030850 METAR ESMX 030850Z VRB03KT CAVOK 12/M03 Q1020=
200705030820 METAR ESMX 030820Z VRB02KT CAVOK 12/M02 Q1020=
200705030750 METAR ESMX 030750Z 02004KT 310V100 CAVOK 10/M03 Q1019=
200705030720 METAR ESMX 030720Z 35003KT 300V050 CAVOK 10/M03 Q1020=
200705030550 METAR ESMX 030550Z VRB02KT CAVOK 06/01 Q1019=
200705030520 METAR ESMX 030520Z 01002KT CAVOK 04/02 Q1019=
200705030450 METAR ESMX 030450Z 00000KT CAVOK 02/01 Q1019=
200705030420 METAR ESMX 030420Z 00000KT CAVOK M02/M02 Q1019=
200705030350 METAR ESMX 030350Z 00000KT CAVOK M02/M03 Q1019=
200705030320 METAR ESMX 030320Z AUTO 00000KT 9999NDV NCD M02/M03 Q1019=
200705030250 METAR ESMX 030250Z AUTO 00000KT 9999NDV NCD M02/M03 Q1019=
200705030220 METAR ESMX 030220Z AUTO 00000KT 9999NDV NCD M02/M03 Q1019=
200705030150 METAR ESMX 030150Z AUTO 00000KT 9999NDV NCD M02/M03 Q1018=
200705030120 METAR ESMX 030120Z AUTO 20001KT 9999NDV NCD M02/M02 Q1018=
200705030050 METAR ESMX 030050Z AUTO 00000KT 9999NDV NCD M01/M02 Q1018=
200705022320 METAR ESMX 022320Z 00000KT CAVOK 02/M01 Q1018=
200705022250 METAR ESMX 022250Z VRB01KT CAVOK 04/M00 Q1018=
200705022220 METAR ESMX 022220Z 11003KT 080V160 CAVOK 05/00 Q1018=
200705022150 METAR ESMX 022150Z 11004KT 070V140 CAVOK 06/01 Q1018=
200705022050 METAR ESMX 022050Z 07004KT 020V130 CAVOK 07/01 Q1018=
200705022020 METAR ESMX 022020Z 08005KT 040V130 CAVOK 08/00 Q1017=
200705021950 METAR ESMX 021950Z 09008KT 050V120 CAVOK 08/00 Q1017=
200705021920 METAR ESMX 021920Z 09006KT 040V140 CAVOK 09/01 Q1016=
200705021850 METAR ESMX 021850Z 09008KT 060V140 CAVOK 10/02 Q1016=
200705021750 METAR ESMX 021750Z 03007KT 010V110 CAVOK 16/03 Q1014=
200705021720 METAR ESMX 021720Z 01006KT CAVOK 17/01 Q1014=
200705021650 METAR ESMX 021650Z 04008KT CAVOK 17/01 Q1013=
200705021620 METAR ESMX 021620Z 02010KT 340V050 CAVOK 18/01 Q1013=
200705021520 METAR ESMX 021520Z 01009KT 340V040 CAVOK 18/01 Q1013=
200705021450 METAR ESMX 021450Z 36012KT CAVOK 19/M01 Q1013=
200705021420 METAR ESMX 021420Z 36012KT CAVOK 19/M02 Q1013=
200705021350 METAR ESMX 021350Z 35010KT 320V020 CAVOK 19/M00 Q1013=
200705021320 METAR ESMX 021320Z 34009KT 300V040 CAVOK 19/01 Q1013=
200705021250 METAR ESMX 021250Z 32009KT 290V010 CAVOK 19/00 Q1013=
200705021220 METAR ESMX 021220Z 33011KT 290V010 CAVOK 18/01 Q1013=
200705021150 METAR ESMX 021150Z 33010KT 270V010 CAVOK 18/02 Q1013=
200705021120 METAR ESMX 021120Z 28009KT 250V340 CAVOK 18/01 Q1013=
200705021050 METAR ESMX 021050Z 32011KT CAVOK 17/02 Q1013=
200705021020 METAR ESMX 021020Z 28010KT 240V300 CAVOK 17/02 Q1014=
200705020950 METAR ESMX 020950Z 27009KT 240V310 CAVOK 16/03 Q1014=
200705020920 METAR ESMX 020920Z 29010KT 240V330 CAVOK 16/04 Q1014=
200705020850 METAR ESMX 020850Z 28012KT CAVOK 15/04 Q1014=
200705020820 METAR ESMX 020820Z 27010KT 240V310 CAVOK 14/03 Q1015=
200705020750 METAR ESMX 020750Z 25008KT 210V290 CAVOK 13/04 Q1015=
200705020620 METAR ESMX 020620Z 25005KT 200V290 CAVOK 08/04 Q1016=
200705020550 METAR ESMX 020550Z 23006KT CAVOK 06/03 Q1016=
200705020520 METAR ESMX 020520Z 21005KT CAVOK 05/03 Q1016=
200705020450 METAR ESMX 020450Z 22003KT CAVOK 03/03 Q1016=
200705020420 METAR ESMX 020420Z 18002KT CAVOK 00/M00 Q1016=
200705020320 METAR ESMX 020320Z AUTO 22002KT 6000NDV BR NCD M00/M01 Q1016=
200705020250 METAR ESMX 020250Z AUTO 21003KT 4800NDV BR NCD M01/M01 Q1017=
200705020220 METAR ESMX 020220Z AUTO 17003KT 9000NDV NCD M01/M01 Q1017=
200705020150 METAR ESMX 020150Z AUTO 19002KT 9999NDV NCD M01/M02 Q1017=
200705020120 METAR ESMX 020120Z AUTO 00000KT 9999NDV NCD M01/M02 Q1017=
200705020050 METAR ESMX 020050Z AUTO 20002KT 9999NDV NCD M01/M01 Q1017=
200705020020 METAR ESMX 020020Z AUTO 17002KT 9999NDV NCD 01/M00 Q1017=
200705012350 METAR ESMX 012350Z 17003KT CAVOK 01/M00 Q1017=
200705012320 METAR ESMX 012320Z 00000KT CAVOK 02/00 Q1018=
200705012250 METAR ESMX 012250Z 17004KT CAVOK 05/01 Q1018=
200705012220 METAR ESMX 012220Z 19003KT CAVOK 04/01 Q1018=
200705012120 METAR ESMX 012120Z 16002KT CAVOK 04/02 Q1018=
200705012050 METAR ESMX 012050Z 17004KT CAVOK 05/02 Q1018=
200705012020 METAR ESMX 012020Z 17004KT CAVOK 05/02 Q1018=
200705011950 METAR ESMX 011950Z 18005KT CAVOK 06/02 Q1018=
200705011920 METAR ESMX 011920Z 18005KT CAVOK 06/02 Q1018=
200705011850 METAR ESMX 011850Z 17006KT CAVOK 07/03 Q1018=
200705011820 METAR ESMX 011820Z 17006KT CAVOK 08/03 Q1017=
200705011750 METAR ESMX 011750Z 18008KT 9999 FEW034 OVC063 09/03 Q1017=
200705011720 METAR ESMX 011720Z 17006KT 130V200 CAVOK 11/03 Q1017=
200705011620 METAR ESMX 011620Z 13004KT 070V190 9999 OVC063 11/02 Q1018=
200705011550 METAR ESMX 011550Z 14003KT 100V170 CAVOK 12/02 Q1018=
200705011520 METAR ESMX 011520Z 14004KT 060V200 CAVOK 12/02 Q1018=
200705011450 METAR ESMX 011450Z 14004KT 050V200 CAVOK 12/02 Q1018=
200705011420 METAR ESMX 011420Z 14004KT 080V190 CAVOK 12/02 Q1018=
200705011350 METAR ESMX 011350Z 12005KT 060V140 CAVOK 12/02 Q1018=
200705011320 METAR ESMX 011320Z 11003KT 050V170 9999 FEW045 BKN070 12/01 Q1019=
200705011250 METAR ESMX 011250Z 10004KT 060V130 9999 FEW045 SCT054 BKN067 12/01 Q1019=
200705011220 METAR ESMX 011220Z AUTO VRB02KT 9999NDV SCT048/// OVC068/// 11/01 Q1019=
