##########################################################
# Query made at 04/19/2024 21:01:08 UTC
# Time interval: from 12/01/2007 12:00  to 12/31/2007 12:59  UTC
##########################################################

##########################################################
# ESMX, Vaxjo (Sweden)
# WMO index: 02641. WIGOS ID: 0-20000-0-02648
# Latitude 56-51N. Longitude 014-50E. Altitude 199 m.
##########################################################

200712311250 METAR ESMX 311250Z AUTO 35012KT 9999NDV BKN016/// BKN025/// 01/M01 Q1020 RERA REDZ=
200712311220 METAR ESMX 311220Z AUTO 34011KT 9999NDV -RA FEW011/// SCT018/// BKN024/// 01/M00 Q1019=
200712311150 METAR ESMX 311150Z AUTO 33011KT 9999NDV FEW010/// SCT015/// BKN017/// 01/M00 Q1019=
200712311120 METAR ESMX 311120Z AUTO 33011KT 9999NDV FEW010/// SCT012/// BKN018/// 01/M00 Q1019=
200712311050 METAR ESMX 311050Z AUTO 32009KT 9999NDV FEW006/// BKN032/// 01/M00 Q1019 RERA REDZ=
200712311020 METAR ESMX 311020Z AUTO 33009KT 9999NDV FEW013/// BKN034/// 01/M01 Q1019=
200712310950 METAR ESMX 310950Z AUTO 34008KT 9999NDV OVC034/// 00/M01 Q1019=
200712310920 METAR ESMX 310920Z AUTO 32007KT 290V350 9999NDV BKN036/// OVC045/// M00/M01 Q1019=
200712310850 METAR ESMX 310850Z AUTO 33006KT 9999NDV SCT039/// BKN048/// M00/M01 Q1019=
200712310820 METAR ESMX 310820Z AUTO 33006KT 9999NDV FEW007/// SCT044/// M01/M02 Q1018=
200712310750 METAR ESMX 310750Z AUTO 34005KT 9999NDV SCT007/// M01/M02 Q1018=
200712310720 METAR ESMX 310720Z AUTO 33008KT 9999NDV OVC008/// M00/M01 Q1018=
200712310650 METAR ESMX 310650Z AUTO 34006KT 300V020 9999NDV OVC009/// 00/M01 Q1018=
200712310620 METAR ESMX 310620Z AUTO 32007KT 9999NDV OVC009/// 00/M01 Q1018=
200712310550 METAR ESMX 310550Z AUTO 33007KT 9999NDV OVC009/// 00/M01 Q1018=
200712310520 METAR ESMX 310520Z AUTO 33007KT 300V020 9999NDV OVC008/// 00/M01 Q1018=
200712310450 METAR ESMX 310450Z AUTO 32008KT 280V350 9999NDV OVC008/// 00/M01 Q1017=
200712310420 METAR ESMX 310420Z AUTO 32006KT 300V360 9999NDV OVC008/// 00/M01 Q1017=
200712310350 METAR ESMX 310350Z AUTO 32006KT 280V010 9999NDV FEW006/// OVC008/// 00/M01 Q1017=
200712310320 METAR ESMX 310320Z AUTO 32007KT 9999NDV OVC006/// 00/M01 Q1017=
200712310250 METAR ESMX 310250Z AUTO 33007KT 300V010 9999NDV OVC006/// 00/M01 Q1016=
200712310220 METAR ESMX 310220Z AUTO 34007KT 9999NDV OVC005/// M00/M01 Q1016=
200712310150 METAR ESMX 310150Z AUTO 33007KT 9999NDV OVC005/// M00/M01 Q1016=
200712310120 METAR ESMX 310120Z AUTO 31005KT 9999NDV OVC005/// M01/M01 Q1016=
200712310050 METAR ESMX 310050Z AUTO 27005KT 9999NDV FEW008/// M02/M02 Q1015=
200712310020 METAR ESMX 310020Z AUTO 28004KT 9999NDV SCT003/// M01/M02 Q1015=
200712302350 METAR ESMX 302350Z AUTO 30003KT 270V340 9999NDV BKN004/// M01/M01 Q1015=
200712302320 METAR ESMX 302320Z AUTO 29004KT 9999NDV FEW004/// M01/M01 Q1015=
200712302250 METAR ESMX 302250Z AUTO 28003KT 9999NDV FEW004/// SCT005/// M01/M01 Q1015=
200712302220 METAR ESMX 302220Z AUTO 26004KT 9999NDV NCD M01/M01 Q1015=
200712302120 METAR ESMX 302120Z AUTO 26004KT 9999NDV OVC003/// 01/00 Q1015=
200712302050 METAR ESMX 302050Z 27004KT 9999 FEW005 BKN007 01/00 Q1014=
200712302020 METAR ESMX 302020Z 27003KT 240V320 9999 FEW009 OVC010 02/01 Q1014=
200712301950 METAR ESMX 301950Z 27004KT 9999 FEW009 OVC011 01/01 Q1014=
200712301920 METAR ESMX 301920Z 24003KT 9999 BKN010 01/01 Q1014=
200712301850 METAR ESMX 301850Z 22003KT 9999 FEW013 SCT017 01/01 Q1013=
200712301820 METAR ESMX 301820Z 26004KT 9999 FEW012 BKN015 02/01 Q1013=
200712301750 METAR ESMX 301750Z 28005KT 250V310 9999 FEW014 BKN019 02/01 Q1012=
200712301720 METAR ESMX 301720Z 27007KT 9999 FEW013 BKN022 02/01 Q1012=
200712301650 METAR ESMX 301650Z 27006KT 9999 SCT011 BKN020 02/01 Q1012=
200712301620 METAR ESMX 301620Z 26006KT 9999 FEW022 SCT030 02/01 Q1011=
200712301550 METAR ESMX 301550Z 25007KT 9999 BKN022 03/02 Q1011=
200712301520 METAR ESMX 301520Z 26005KT 9999 FEW011 SCT025 03/02 Q1010=
200712301450 METAR ESMX 301450Z 26007KT 9999 SCT012 BKN025 04/03 Q1009=
200712301420 METAR ESMX 301420Z 23007KT 9999 SCT006 BKN023 04/03 Q1009=
200712301350 METAR ESMX 301350Z AUTO 23007KT 9999NDV FEW005/// SCT007/// BKN008/// 04/03 Q1009=
200712301320 METAR ESMX 301320Z AUTO 22007KT 9999NDV BKN005/// OVC008/// 04/03 Q1008=
200712301250 METAR ESMX 301250Z AUTO 22007KT 9999NDV BR FEW005/// BKN007/// OVC010/// 04/03 Q1008 RERA REDZ=
200712301220 METAR ESMX 301220Z AUTO 23008KT 210V270 8000NDV -RA FEW008/// SCT012/// BKN029/// 04/03 Q1008 REDZ=
200712301150 METAR ESMX 301150Z AUTO 22010KT 170V260 9000NDV -RA FEW010/// SCT014/// BKN017/// 04/03 Q1008 REDZ=
200712301120 METAR ESMX 301120Z AUTO 23008KT 190V270 9999NDV FEW007/// SCT014/// BKN017/// 05/04 Q1008 RERA REDZ=
200712301050 METAR ESMX 301050Z AUTO 21009KT 170V250 4100NDV DZ FEW006/// SCT009/// BKN014/// 05/04 Q1007 RERA=
200712301020 METAR ESMX 301020Z AUTO 20008KT 9999NDV FEW005/// SCT008/// BKN010/// 05/04 Q1007 REDZ RERA=
200712300950 METAR ESMX 300950Z AUTO 20008KT 7000NDV -RA FEW007/// SCT011/// BKN018/// 04/04 Q1008=
200712300920 METAR ESMX 300920Z AUTO 21009KT 9999NDV FEW005/// SCT008/// BKN009/// 04/04 Q1007 RERA=
200712300850 METAR ESMX 300850Z AUTO 20008KT 8000NDV -RA SCT005/// BKN008/// OVC011/// 04/04 Q1007 REDZ=
200712300820 METAR ESMX 300820Z AUTO 21009KT 7000NDV -DZ FEW005/// SCT006/// BKN007/// 04/03 Q1007 RERA=
200712300750 METAR ESMX 300750Z AUTO 21009G19KT 6000NDV -RA SCT004/// BKN008/// OVC012/// 04/03 Q1007 REDZ=
200712300720 METAR ESMX 300720Z AUTO 20009KT 8000NDV -DZ SCT005/// BKN007/// OVC010/// 04/03 Q1007 RERA=
200712300650 METAR ESMX 300650Z AUTO 20008KT 5000NDV -RA FEW004/// SCT006/// BKN008/// 04/03 Q1007 REDZ=
200712300620 METAR ESMX 300620Z AUTO 21006KT 5000NDV DZ FEW008/// SCT011/// BKN015/// 04/03 Q1007 RERA=
200712300550 METAR ESMX 300550Z AUTO 22008KT 9999NDV FEW007/// BKN011/// OVC018/// 04/03 Q1006=
200712300520 METAR ESMX 300520Z AUTO 23009KT 200V270 7000NDV BR FEW005/// BKN007/// OVC010/// 04/03 Q1006 RERA REDZ=
200712300450 METAR ESMX 300450Z AUTO 21010KT 8000NDV DZ FEW005/// BKN007/// OVC009/// 03/03 Q1006=
200712300420 METAR ESMX 300420Z AUTO 20009KT 4700NDV DZ FEW005/// BKN007/// OVC010/// 03/03 Q1006 RERA=
200712300350 METAR ESMX 300350Z AUTO 21009KT 9999NDV -DZ FEW009/// SCT011/// BKN014/// 03/02 Q1006 RERA=
200712300320 METAR ESMX 300320Z AUTO 21010KT 160V230 7000NDV -RA FEW009/// OVC011/// 04/02 Q1006 REDZ=
200712300250 METAR ESMX 300250Z AUTO 20009KT 9999NDV DZ OVC010/// 04/03 Q1006 RERA=
200712300220 METAR ESMX 300220Z AUTO 21010KT 9999NDV OVC010/// 04/03 Q1006 RERA REDZ=
200712300150 METAR ESMX 300150Z AUTO 22009KT 9999NDV BKN011/// BKN025/// 04/03 Q1006=
200712300120 METAR ESMX 300120Z AUTO 22011KT 180V240 9999NDV FEW009/// BKN012/// OVC016/// 04/03 Q1006 RERA REDZ=
200712300050 METAR ESMX 300050Z AUTO 22011KT 9999NDV FEW009/// BKN011/// OVC017/// 04/03 Q1005 RERA REDZ=
200712300020 METAR ESMX 300020Z AUTO 22011KT 9999NDV -RA FEW012/// SCT015/// BKN018/// 04/03 Q1005=
200712292350 METAR ESMX 292350Z AUTO 22011KT 9999NDV FEW015/// SCT021/// BKN032/// 04/02 Q1005=
200712292320 METAR ESMX 292320Z AUTO 22012KT 190V250 9999NDV FEW011/// SCT014/// BKN018/// 04/02 Q1005=
200712292250 METAR ESMX 292250Z AUTO 22012KT 170V250 9999NDV DZ BKN011/// OVC016/// 04/02 Q1005 RERA=
200712292220 METAR ESMX 292220Z AUTO 22013KT 9999NDV FEW008/// SCT012/// BKN014/// 04/03 Q1004 REDZ RERA=
200712292150 METAR ESMX 292150Z AUTO 22012KT 9999NDV -RA FEW009/// BKN012/// BKN019/// 04/02 Q1004 REDZ=
200712292120 METAR ESMX 292120Z AUTO 22013KT 170V250 8000NDV -RA BKN010/// OVC016/// 04/02 Q1004 REDZ=
200712292050 METAR ESMX 292050Z AUTO 22016G27KT 9000NDV -DZ FEW013/// BKN015/// BKN021/// 04/02 Q1003 REUP RERA=
200712292020 METAR ESMX 292020Z AUTO 21014KT 9999NDV BKN014/// OVC021/// 04/03 Q1003 REDZ=
200712291950 METAR ESMX 291950Z AUTO 21016KT 9999NDV -RA FEW018/// SCT021/// BKN026/// 04/02 Q1003=
200712291920 METAR ESMX 291920Z AUTO 21015G25KT 9999NDV FEW013/// BKN016/// OVC021/// 04/03 Q1003 RERA=
200712291850 METAR ESMX 291850Z AUTO 21012KT 170V240 9999NDV FEW012/// SCT016/// BKN018/// 04/03 Q1002 RERA REDZ=
200712291820 METAR ESMX 291820Z AUTO 22013G24KT 9999NDV FEW011/// SCT013/// BKN016/// 04/03 Q1002 RERA REDZ=
200712291750 METAR ESMX 291750Z AUTO 20013KT 9999NDV FEW011/// BKN015/// OVC020/// 04/03 Q1002=
200712291720 METAR ESMX 291720Z AUTO 20013KT 9999NDV FEW011/// BKN014/// OVC020/// 04/03 Q1002=
200712291650 METAR ESMX 291650Z AUTO 20014KT 9999NDV BR FEW007/// SCT011/// BKN016/// 04/03 Q1002 RERA REDZ=
200712291620 METAR ESMX 291620Z AUTO 20014KT 9000NDV BR FEW006/// BKN007/// OVC010/// 04/03 Q1002=
200712291550 METAR ESMX 291550Z AUTO 20015KT 7000NDV BR OVC004/// 04/03 Q1002 RERA REDZ=
200712291520 METAR ESMX 291520Z AUTO 20014KT 6000NDV BR OVC004/// 03/03 Q1002 REDZ RERA=
200712291450 METAR ESMX 291450Z AUTO 20015KT 4100NDV -DZ FEW003/// OVC005/// 03/03 Q1002=
200712291420 METAR ESMX 291420Z AUTO 20014KT 3400NDV DZ FEW004/// OVC005/// 03/03 Q1002 RERA=
200712291350 METAR ESMX 291350Z AUTO 20015KT 170V230 4500NDV -RA OVC005/// 03/03 Q1003 REDZ=
200712291320 METAR ESMX 291320Z AUTO 19015KT 8000NDV BR OVC005/// 03/03 Q1002 RERA REDZ=
200712291250 METAR ESMX 291250Z AUTO 19014KT 6000NDV BR BKN004/// OVC007/// 03/03 Q1002 REDZ=
200712291220 METAR ESMX 291220Z AUTO 19012KT 150V210 3200NDV -RA OVC004/// 03/03 Q1003=
200712291150 METAR ESMX 291150Z AUTO 20014KT 7000NDV BR OVC004/// 03/03 Q1003=
200712291120 METAR ESMX 291120Z AUTO 18010KT 140V200 3100NDV DZ OVC004/// 04/03 Q1003 RERA=
200712291050 METAR ESMX 291050Z AUTO 19013KT 150V210 3900NDV BR OVC004/// 04/03 Q1004=
200712291020 METAR ESMX 291020Z AUTO 18012KT 4800NDV BR OVC004/// 04/03 Q1004=
200712290950 METAR ESMX 290950Z AUTO 18014KT 7000NDV BR OVC003/// 04/03 Q1005=
200712290920 METAR ESMX 290920Z AUTO 19014KT 4400NDV BR OVC002/// 04/03 Q1005=
200712290850 METAR ESMX 290850Z AUTO 18013KT 2900NDV BR OVC003/// 04/03 Q1005=
200712290820 METAR ESMX 290820Z AUTO 18011KT 150V220 4800NDV BR OVC004/// 04/03 Q1006=
200712290750 METAR ESMX 290750Z AUTO 19014KT 2500NDV BR OVC004/// 04/03 Q1006 RERA=
200712290720 METAR ESMX 290720Z AUTO 19014KT 2100NDV BR OVC004/// 04/03 Q1006=
200712290650 METAR ESMX 290650Z AUTO 20014KT 3200NDV BR OVC005/// 04/03 Q1007 RERA REDZ=
200712290620 METAR ESMX 290620Z AUTO 20015KT 4600NDV BR OVC006/// 04/03 Q1007=
200712290550 METAR ESMX 290550Z AUTO 20013KT 5000NDV BR BKN006/// OVC009/// 04/03 Q1007=
200712290520 METAR ESMX 290520Z AUTO 20013KT 5000NDV BR FEW007/// OVC009/// 04/03 Q1007=
200712290450 METAR ESMX 290450Z AUTO 21013KT 5000NDV BR FEW007/// BKN009/// OVC011/// 05/04 Q1007=
200712290420 METAR ESMX 290420Z AUTO 21014KT 4400NDV BR BKN005/// OVC008/// 05/04 Q1008=
200712290350 METAR ESMX 290350Z AUTO 21015KT 3200NDV BR OVC004/// 05/04 Q1008=
200712290320 METAR ESMX 290320Z AUTO 21014KT 2200NDV BR FEW004/// OVC005/// 05/04 Q1008=
200712290250 METAR ESMX 290250Z AUTO 21014KT 180V240 2900NDV BR OVC003/// 05/04 Q1008=
200712290220 METAR ESMX 290220Z AUTO 21013KT 170V240 2400NDV -DZ OVC004/// 05/04 Q1009=
200712290150 METAR ESMX 290150Z AUTO 22013KT 1900NDV -DZ BKN003/// OVC007/// 05/05 Q1009=
200712290120 METAR ESMX 290120Z AUTO 22013KT 2700NDV -RA OVC003/// 05/05 Q1009 REDZ=
200712290050 METAR ESMX 290050Z AUTO 21011KT 2500NDV BR FEW003/// OVC005/// 05/05 Q1009=
200712290020 METAR ESMX 290020Z AUTO 22012KT 2600NDV BR OVC004/// 05/05 Q1009=
200712282350 METAR ESMX 282350Z AUTO 21012KT 170V240 1900NDV BR BKN004/// OVC007/// 05/05 Q1010=
200712282320 METAR ESMX 282320Z AUTO 21012KT 170V240 2500NDV BR BKN005/// OVC008/// 05/05 Q1010=
200712282250 METAR ESMX 282250Z AUTO 22012KT 5000NDV BR FEW005/// BKN006/// OVC009/// 06/05 Q1010=
200712282220 METAR ESMX 282220Z AUTO 22011KT 6000NDV BR FEW005/// BKN007/// OVC010/// 06/05 Q1010 REDZ=
200712282150 METAR ESMX 282150Z AUTO 22013KT 6000NDV -DZ FEW006/// OVC007/// 06/05 Q1010 RERA=
200712282120 METAR ESMX 282120Z AUTO 22012KT 190V250 7000NDV -DZ OVC006/// 06/05 Q1010 RERA=
200712282050 METAR ESMX 282050Z AUTO 22013KT 9000NDV BR OVC006/// 06/05 Q1010=
200712282020 METAR ESMX 282020Z 22014KT 3700 BR FEW005 BKN006 OVC009 06/05 Q1010 REDZ=
200712281950 METAR ESMX 281950Z 21014KT 2900 -RADZ BKN005 OVC009 06/05 Q1010 RERA=
200712281920 METAR ESMX 281920Z 21015KT 2600 RADZ FEW005 SCT006 BKN008 06/05 Q1011=
200712281850 METAR ESMX 281850Z 21014KT 3000 -RADZ FEW005 OVC010 06/05 Q1011 RERA=
200712281820 METAR ESMX 281820Z 21015KT 4500 RA FEW006 SCT007 OVC008 06/05 Q1011=
200712281750 METAR ESMX 281750Z 22014G24KT 5000 RA FEW006 BKN008 OVC012 06/05 Q1011=
200712281720 METAR ESMX 281720Z 21016KT 3800 RA SCT006 BKN008 OVC011 06/06 Q1011=
200712281650 METAR ESMX 281650Z 21015KT 4500 RA FEW006 SCT007 OVC009 07/06 Q1011=
200712281620 METAR ESMX 281620Z 21014KT 4400 RA FEW006 OVC012 07/06 Q1011=
200712281550 METAR ESMX 281550Z 21014KT 6000 RA FEW005 BKN009 07/06 Q1012=
200712281520 METAR ESMX 281520Z 20013KT 4700 -RA BR BKN005 OVC008 07/06 Q1012=
200712281450 METAR ESMX 281450Z 20013KT 4600 -DZ BR BKN004 OVC007 07/06 Q1012=
200712281420 METAR ESMX 281420Z 21012KT 5000 DZ BR OVC005 07/06 Q1013=
200712281350 METAR ESMX 281350Z 21013KT 5000 DZ BKN004 OVC007 07/06 Q1013=
200712281320 METAR ESMX 281320Z 21013KT 6000 DZ OVC004 07/06 Q1013=
200712281250 METAR ESMX 281250Z 21012KT 4600 -DZ FEW002 OVC004 07/06 Q1014=
200712281220 METAR ESMX 281220Z 21012KT 2800 -DZ BR OVC002 06/06 Q1014=
200712281150 METAR ESMX 281150Z 20013KT 2000 DZ BR OVC002 06/06 Q1014=
200712281120 METAR ESMX 281120Z 19012KT 3200 BR OVC002 06/05 Q1015=
200712281050 METAR ESMX 281050Z 19011KT 140V210 5000 BR OVC003 06/05 Q1015=
200712281020 METAR ESMX 281020Z 19008KT 6000 BR OVC003 06/05 Q1016=
200712280950 METAR ESMX 280950Z 19011KT 160V220 9999 FEW002 OVC004 06/05 Q1016=
200712280920 METAR ESMX 280920Z 20009KT 6000 BR OVC002 06/05 Q1016=
200712280850 METAR ESMX 280850Z 20009KT 170V230 4000 BR OVC002 05/05 Q1016=
200712280820 METAR ESMX 280820Z 21010KT 9999 OVC004 06/05 Q1016=
200712280750 METAR ESMX 280750Z 21011KT 170V240 9999 OVC003 06/05 Q1016=
200712280720 METAR ESMX 280720Z 21011KT 6000 OVC002 05/05 Q1016=
200712280650 METAR ESMX 280650Z 21011KT 1300 R01/P2000U R19/P2000U OVC002 05/05 Q1016=
200712280620 METAR ESMX 280620Z AUTO 21010KT 1000NDV R01/P2000N R19/P2000U FG VV002 05/05 Q1016=
200712280550 METAR ESMX 280550Z AUTO 21009KT 0900NDV R01/P2000D R19/P2000D FG VV002 05/05 Q1017=
200712280520 METAR ESMX 280520Z AUTO 22007KT 2000NDV BR OVC001/// 05/05 Q1017=
200712280450 METAR ESMX 280450Z AUTO 22008KT 4600NDV BR OVC002/// 05/05 Q1017=
200712280420 METAR ESMX 280420Z AUTO 23009KT 200V260 9999NDV OVC003/// 05/05 Q1017=
200712280350 METAR ESMX 280350Z AUTO 22009KT 9999NDV OVC003/// 05/04 Q1017=
200712280320 METAR ESMX 280320Z AUTO 21008KT 9999NDV OVC002/// 05/04 Q1017=
200712280250 METAR ESMX 280250Z AUTO 21010KT 8000NDV BR OVC002/// 05/04 Q1017=
200712280220 METAR ESMX 280220Z AUTO 21010KT 7000NDV BR OVC001/// 04/04 Q1017=
200712280150 METAR ESMX 280150Z 22012KT 9999 OVC003 04/04 Q1017=
200712280120 METAR ESMX 280120Z 21011KT 9999 OVC004 04/04 Q1017=
200712280050 METAR ESMX 280050Z 21014KT 9999 -DZ BR OVC004 04/04 Q1017=
200712272320 METAR ESMX 272320Z 21011KT 7000 -RA BR OVC005 04/03 Q1018=
200712272250 METAR ESMX 272250Z 20012KT 5000 -RA BR OVC005 04/03 Q1018=
200712272220 METAR ESMX 272220Z 20014KT 4000 -RA BR FEW004 BKN005 OVC008 04/03 Q1018=
200712272150 METAR ESMX 272150Z 20014KT 3000 -RA BR BKN003 OVC006 04/03 Q1018 REDZ=
200712272120 METAR ESMX 272120Z 20013KT 2000 -RA BR OVC002 03/03 Q1018=
200712272050 METAR ESMX 272050Z 20015KT 2000 -DZ BR OVC002 03/03 Q1018=
200712272020 METAR ESMX 272020Z 20014KT 1900 DZ BR OVC002 03/03 Q1018=
200712271950 METAR ESMX 271950Z 19013KT 1600 DZ BR OVC002 03/03 Q1018=
200712271920 METAR ESMX 271920Z 20015KT 2000 BR OVC002 03/03 Q1019=
200712271850 METAR ESMX 271850Z 19014KT 150V210 2100 BR OVC002 03/03 Q1019=
200712271750 METAR ESMX 271750Z 20015KT 1400 R01/P2000D R19/P2000N BR OVC002 03/02 Q1019=
200712271720 METAR ESMX 271720Z 20015KT 1600 BR OVC002 03/02 Q1020=
200712271650 METAR ESMX 271650Z 20015KT 2400 BR OVC002 03/02 Q1020=
200712271620 METAR ESMX 271620Z 20013KT 3900 BR OVC003 03/02 Q1020=
200712271550 METAR ESMX 271550Z 19012KT 1700 BR OVC003 02/02 Q1021=
200712271520 METAR ESMX 271520Z 18011KT 4200 BR OVC003 02/02 Q1021=
200712271450 METAR ESMX 271450Z 18010KT 4400 BR OVC003 02/01 Q1021=
200712271420 METAR ESMX 271420Z 19013KT 4500 BR OVC004 02/01 Q1022=
200712271350 METAR ESMX 271350Z 19013KT 5000 BR OVC004 02/01 Q1022=
200712271320 METAR ESMX 271320Z 20013KT 5000 BR OVC003 02/01 Q1022=
200712271250 METAR ESMX 271250Z 19014KT 4600 BR OVC004 02/01 Q1022=
200712271120 METAR ESMX 271120Z 20012KT 7000 BR OVC007 02/01 Q1023=
200712271020 METAR ESMX 271020Z 20010KT 8000 BR OVC008 02/01 Q1023=
200712270950 METAR ESMX 270950Z 20012KT 9000 BR OVC009 02/01 Q1024=
200712270920 METAR ESMX 270920Z 20011KT 9000 OVC009 02/01 Q1024=
200712270850 METAR ESMX 270850Z 22010KT 9999 OVC010 02/01 Q1025=
200712270820 METAR ESMX 270820Z 20011KT 9999 OVC012 03/01 Q1025=
200712262350 METAR ESMX 262350Z 22008KT 7000 BR FEW007 OVC020 04/03 Q1024=
200712262320 METAR ESMX 262320Z 22009KT 5000 BR FEW005 OVC020 04/03 Q1025=
200712262250 METAR ESMX 262250Z 21007KT 4500 BR BKN004 OVC008 04/03 Q1024=
200712262220 METAR ESMX 262220Z 19006KT 160V220 4500 BR FEW004 OVC005 04/03 Q1024=
200712262150 METAR ESMX 262150Z 19006KT 4000 BR FEW004 SCT006 BKN008 04/03 Q1024=
200712262120 METAR ESMX 262120Z 21007KT 4000 BR FEW003 BKN005 OVC007 04/04 Q1024=
200712262050 METAR ESMX 262050Z 20008KT 170V230 3000 BR BKN002 OVC005 04/04 Q1023=
200712262020 METAR ESMX 262020Z 21008KT 2500 BR BKN002 OVC005 04/04 Q1022=
200712261950 METAR ESMX 261950Z 22006KT 2500 BR OVC002 04/04 Q1023=
200712261920 METAR ESMX 261920Z 21006KT 1100 R01/P2000U R19/P2000N BR OVC002 04/04 Q1022=
200712261850 METAR ESMX 261850Z 22007KT 190V250 1200 R01/P2000N R19/P2000N BR OVC002 04/04 Q1022=
200712261820 METAR ESMX 261820Z 22007KT 1200 R01/P2000D R19/P2000D BR OVC002 04/03 Q1022=
200712261750 METAR ESMX 261750Z 21007KT 2000 BR OVC002 04/03 Q1021=
200712261720 METAR ESMX 261720Z 22008KT 4000 BR OVC003 04/03 Q1021=
200712261650 METAR ESMX 261650Z 22008KT 4800 BR OVC004 04/03 Q1020=
200712261620 METAR ESMX 261620Z 21008KT 4200 BR OVC004 04/03 Q1020 RERA REDZ=
200712261550 METAR ESMX 261550Z 20009KT 5000 BR OVC005 04/03 Q1020=
200712261520 METAR ESMX 261520Z 20009KT 8000 BR OVC006 04/03 Q1019=
200712261450 METAR ESMX 261450Z 21009KT 8000 BR FEW007 OVC009 04/02 Q1019=
200712261420 METAR ESMX 261420Z 21007KT 9000 BR FEW009 BKN015 BKN019 03/02 Q1019=
200712261350 METAR ESMX 261350Z 21008KT 9000 BR SCT006 BKN020 04/02 Q1018=
200712261320 METAR ESMX 261320Z 23009KT 200V260 6000 BR FEW003 SCT005 BKN007 03/02 Q1018=
200712261250 METAR ESMX 261250Z 24008KT 200V260 2900 BR OVC002 03/03 Q1018=
200712261220 METAR ESMX 261220Z 22008KT 190V250 1400 R01/P2000N R19/P2000N BR OVC002 02/02 Q1017=
200712261150 METAR ESMX 261150Z 21008KT 170V240 2000 BR OVC002 02/02 Q1017=
200712261120 METAR ESMX 261120Z AUTO 21009KT 180V250 2500NDV BR OVC002/// 02/02 Q1017=
200712261050 METAR ESMX 261050Z AUTO 20009KT 3200NDV BR OVC003/// 02/01 Q1017=
200712261020 METAR ESMX 261020Z AUTO 20010KT 3900NDV BR OVC004/// 02/01 Q1016=
200712260950 METAR ESMX 260950Z AUTO 21010KT 4100NDV BR OVC005/// 02/01 Q1016=
200712260920 METAR ESMX 260920Z AUTO 20009KT 3800NDV BR OVC005/// 02/01 Q1016 RERA REDZ REUP=
200712260850 METAR ESMX 260850Z AUTO 20010KT 3600NDV -RA OVC005/// 01/01 Q1016 REDZ=
200712260820 METAR ESMX 260820Z AUTO 19009KT 4100NDV BR OVC005/// 01/01 Q1015=
200712260750 METAR ESMX 260750Z AUTO 19009KT 3200NDV BR OVC005/// 01/00 Q1015=
200712260720 METAR ESMX 260720Z AUTO 20011KT 3500NDV BR OVC007/// 01/00 Q1015=
200712260650 METAR ESMX 260650Z AUTO 20010KT 6000NDV BR OVC008/// 01/00 Q1014=
200712260620 METAR ESMX 260620Z AUTO 19011KT 6000NDV BR OVC008/// 01/00 Q1014=
200712260550 METAR ESMX 260550Z AUTO 19012KT 7000NDV BR OVC010/// 02/M00 Q1014=
200712260520 METAR ESMX 260520Z AUTO 19011KT 7000NDV BR OVC011/// 02/M00 Q1013=
200712260450 METAR ESMX 260450Z AUTO 18011KT 150V210 7000NDV BR BKN012/// OVC016/// 01/M00 Q1013=
200712260420 METAR ESMX 260420Z AUTO 19010KT 6000NDV BR FEW013/// SCT022/// 01/M00 Q1013=
200712260350 METAR ESMX 260350Z AUTO 18009KT 150V220 5000NDV BR FEW018/// 01/M00 Q1013=
200712260320 METAR ESMX 260320Z AUTO 18010KT 140V210 6000NDV BR BKN009/// 01/M00 Q1013=
200712260250 METAR ESMX 260250Z AUTO 19010KT 6000NDV BR FEW009/// SCT011/// 01/M00 Q1013=
200712260220 METAR ESMX 260220Z AUTO 18009KT 6000NDV BR FEW009/// SCT012/// 01/M00 Q1013=
200712260150 METAR ESMX 260150Z AUTO 17013KT 140V200 6000NDV BR FEW009/// 01/00 Q1013=
200712260120 METAR ESMX 260120Z AUTO 17012KT 6000NDV BR FEW008/// SCT012/// 02/00 Q1013=
200712260050 METAR ESMX 260050Z AUTO 17012KT 120V200 7000NDV BR FEW008/// BKN009/// 02/00 Q1013=
200712260020 METAR ESMX 260020Z AUTO 18012KT 150V210 7000NDV BR SCT008/// BKN010/// BKN013/// 02/01 Q1014=
200712252350 METAR ESMX 252350Z AUTO 17012KT 140V210 7000NDV BR BKN007/// 02/01 Q1014=
200712252320 METAR ESMX 252320Z AUTO 17012KT 130V200 7000NDV BR BKN007/// 02/01 Q1014=
200712252250 METAR ESMX 252250Z AUTO 17011KT 140V210 7000NDV BR FEW006/// BKN008/// BKN010/// 02/01 Q1014=
200712252220 METAR ESMX 252220Z AUTO 18010KT 150V210 8000NDV BR OVC006/// 02/01 Q1015=
200712252150 METAR ESMX 252150Z AUTO 17012KT 140V200 7000NDV BR OVC006/// 02/01 Q1015=
200712252120 METAR ESMX 252120Z AUTO 18011KT 140V200 6000NDV BR OVC005/// 02/01 Q1015=
200712252050 METAR ESMX 252050Z AUTO 17011KT 140V210 6000NDV BR OVC005/// 02/01 Q1015=
200712252020 METAR ESMX 252020Z AUTO 17010KT 140V200 6000NDV BR OVC005/// 02/01 Q1015=
200712251950 METAR ESMX 251950Z AUTO 18011KT 6000NDV BR BKN006/// OVC008/// 02/01 Q1016=
200712251920 METAR ESMX 251920Z AUTO 17011KT 140V200 6000NDV BR OVC005/// 03/01 Q1016=
200712251850 METAR ESMX 251850Z AUTO 17011KT 7000NDV BR OVC005/// 03/02 Q1016=
200712251820 METAR ESMX 251820Z AUTO 18011KT 7000NDV BR OVC004/// 03/02 Q1016=
200712251750 METAR ESMX 251750Z AUTO 18012KT 5000NDV BR OVC004/// 02/02 Q1016=
200712251720 METAR ESMX 251720Z AUTO 17010KT 140V200 5000NDV BR OVC004/// 02/02 Q1016=
200712251650 METAR ESMX 251650Z AUTO 18009KT 5000NDV BR OVC004/// 02/02 Q1017=
200712251620 METAR ESMX 251620Z AUTO 17011KT 5000NDV BR OVC004/// 02/01 Q1017=
200712251550 METAR ESMX 251550Z AUTO 18010KT 4900NDV BR OVC004/// 02/01 Q1017=
200712251520 METAR ESMX 251520Z AUTO 17009KT 130V200 3800NDV BR OVC004/// 02/02 Q1017=
200712251450 METAR ESMX 251450Z AUTO 18009KT 4700NDV BR OVC004/// 03/02 Q1018=
200712251420 METAR ESMX 251420Z AUTO 17008KT 4300NDV BR OVC003/// 02/02 Q1018=
200712251350 METAR ESMX 251350Z AUTO 18008KT 4200NDV BR OVC004/// 02/02 Q1018=
200712251320 METAR ESMX 251320Z AUTO 17007KT 130V200 4900NDV BR OVC004/// 02/02 Q1018=
200712251250 METAR ESMX 251250Z AUTO 18009KT 140V210 6000NDV BR OVC005/// 03/02 Q1018=
200712251220 METAR ESMX 251220Z AUTO 18008KT 150V220 6000NDV BR OVC005/// 03/02 Q1018=
200712251150 METAR ESMX 251150Z AUTO 18007KT 130V210 6000NDV BR OVC005/// 03/01 Q1018=
200712251120 METAR ESMX 251120Z AUTO 18008KT 6000NDV BR OVC005/// 02/01 Q1019=
200712251050 METAR ESMX 251050Z AUTO 17007KT 140V200 6000NDV BR OVC005/// 02/01 Q1019=
200712251020 METAR ESMX 251020Z AUTO 18007KT 150V210 6000NDV BR OVC005/// 03/02 Q1019=
200712250950 METAR ESMX 250950Z AUTO 19008KT 5000NDV BR OVC005/// 02/02 Q1019=
200712250920 METAR ESMX 250920Z AUTO 19009KT 5000NDV BR OVC005/// 02/02 Q1020=
200712250850 METAR ESMX 250850Z AUTO 19009KT 5000NDV BR OVC005/// 02/02 Q1020=
200712250820 METAR ESMX 250820Z AUTO 19008KT 5000NDV BR OVC004/// 02/02 Q1020=
200712250750 METAR ESMX 250750Z AUTO 19009KT 5000NDV BR OVC003/// 02/02 Q1019=
200712250720 METAR ESMX 250720Z AUTO 19010KT 2700NDV BR OVC004/// 02/02 Q1019=
200712250650 METAR ESMX 250650Z AUTO 20011KT 3700NDV BR OVC005/// 02/02 Q1019=
200712250620 METAR ESMX 250620Z AUTO 20010KT 8000NDV BR OVC005/// 02/01 Q1019=
200712250550 METAR ESMX 250550Z AUTO 19010KT 7000NDV BR OVC005/// 02/01 Q1019=
200712250520 METAR ESMX 250520Z AUTO 19010KT 7000NDV BR OVC006/// 02/01 Q1019=
200712250450 METAR ESMX 250450Z AUTO 20010KT 8000NDV BR OVC006/// 03/01 Q1019=
200712250420 METAR ESMX 250420Z AUTO 20011KT 8000NDV BR OVC006/// 03/02 Q1019=
200712250350 METAR ESMX 250350Z AUTO 20011KT 8000NDV BR OVC006/// 03/02 Q1019=
200712250320 METAR ESMX 250320Z AUTO 20011KT 8000NDV BR OVC006/// 03/02 Q1019=
200712250250 METAR ESMX 250250Z AUTO 20012KT 8000NDV BR OVC006/// 02/01 Q1019=
200712250220 METAR ESMX 250220Z AUTO 20011KT 9000NDV BR OVC006/// 02/01 Q1019=
200712250150 METAR ESMX 250150Z AUTO 20010KT 8000NDV BR OVC006/// 02/01 Q1020=
200712250120 METAR ESMX 250120Z AUTO 21011KT 170V250 9000NDV BR BKN006/// OVC010/// 02/01 Q1020=
200712250050 METAR ESMX 250050Z AUTO 21011KT 9000NDV BR BKN006/// OVC008/// 02/01 Q1020=
200712250020 METAR ESMX 250020Z AUTO 21010KT 9000NDV BR BKN006/// OVC010/// 02/01 Q1020=
200712242350 METAR ESMX 242350Z AUTO 20011KT 9000NDV BR OVC006/// 02/01 Q1020=
200712242320 METAR ESMX 242320Z AUTO 21009KT 9000NDV BR OVC006/// 02/01 Q1020=
200712242250 METAR ESMX 242250Z AUTO 21011KT 9000NDV BR OVC006/// 02/01 Q1020=
200712242220 METAR ESMX 242220Z AUTO 20011KT 9000NDV BR OVC005/// 02/01 Q1020=
200712242150 METAR ESMX 242150Z AUTO 21011KT 8000NDV BR OVC005/// 02/01 Q1020=
200712242120 METAR ESMX 242120Z AUTO 20011KT 9000NDV OVC006/// 02/01 Q1020=
200712242050 METAR ESMX 242050Z AUTO 20010KT 9000NDV OVC006/// 02/01 Q1021=
200712242020 METAR ESMX 242020Z AUTO 19009KT 9000NDV OVC006/// 02/01 Q1021=
200712241950 METAR ESMX 241950Z AUTO 20009KT 9000NDV OVC005/// 02/01 Q1021=
200712241920 METAR ESMX 241920Z AUTO 21008KT 9999NDV OVC006/// 01/01 Q1021=
200712241850 METAR ESMX 241850Z AUTO 21010KT 9999NDV OVC006/// 01/00 Q1021=
200712241820 METAR ESMX 241820Z AUTO 20011KT 170V240 9999NDV OVC008/// 01/M00 Q1021=
200712241750 METAR ESMX 241750Z AUTO 22012KT 190V250 9999NDV OVC011/// 01/M00 Q1022=
200712241720 METAR ESMX 241720Z AUTO 22010KT 9999NDV FEW011/// OVC013/// 01/M00 Q1022=
200712241650 METAR ESMX 241650Z AUTO 23010KT 200V260 9999NDV FEW010/// OVC013/// 02/M00 Q1022=
200712241620 METAR ESMX 241620Z AUTO 21010KT 9999NDV FEW010/// SCT013/// BKN016/// 02/00 Q1021=
200712241550 METAR ESMX 241550Z AUTO 21010KT 9999NDV FEW009/// SCT013/// BKN016/// 02/01 Q1022=
200712241520 METAR ESMX 241520Z AUTO 20010KT 9999NDV FEW008/// SCT012/// BKN015/// 02/01 Q1022=
200712241450 METAR ESMX 241450Z AUTO 20008KT 9999NDV SCT009/// BKN011/// OVC014/// 02/01 Q1022=
200712241420 METAR ESMX 241420Z AUTO 21008KT 9999NDV FEW006/// BKN010/// OVC014/// 02/01 Q1022=
200712241350 METAR ESMX 241350Z AUTO 22010KT 9999NDV OVC003/// 02/01 Q1022=
200712241320 METAR ESMX 241320Z AUTO 21009KT 180V240 9999NDV BKN004/// OVC007/// 02/01 Q1022=
200712241250 METAR ESMX 241250Z AUTO 22009KT 190V250 9999NDV OVC003/// 02/01 Q1022=
200712241220 METAR ESMX 241220Z AUTO 20009KT 7000NDV BR OVC002/// 01/01 Q1022=
200712241150 METAR ESMX 241150Z AUTO 21010KT 7000NDV BR OVC002/// 01/01 Q1023=
200712241120 METAR ESMX 241120Z AUTO 21008KT 9999NDV BR OVC003/// 02/01 Q1023=
200712241050 METAR ESMX 241050Z AUTO 21008KT 9999NDV SCT005/// BKN007/// OVC009/// 02/01 Q1023=
200712241020 METAR ESMX 241020Z AUTO 22007KT 9999NDV FEW005/// SCT006/// BKN008/// 02/01 Q1023=
200712240950 METAR ESMX 240950Z AUTO 23008KT 9999NDV FEW003/// SCT004/// BKN006/// 02/01 Q1024=
200712240920 METAR ESMX 240920Z AUTO 23006KT 200V260 6000NDV BR OVC003/// 02/01 Q1024=
200712240850 METAR ESMX 240850Z AUTO 22006KT 9000NDV FEW005/// BKN012/// OVC016/// 02/01 Q1023=
200712240820 METAR ESMX 240820Z AUTO 21006KT 9000NDV OVC015/// 01/01 Q1023=
200712240750 METAR ESMX 240750Z AUTO 23005KT 9999NDV OVC015/// 02/02 Q1023=
200712240720 METAR ESMX 240720Z AUTO 23005KT 9000NDV BR OVC012/// 02/01 Q1023=
200712240650 METAR ESMX 240650Z AUTO 21005KT 7000NDV BR OVC013/// 01/01 Q1023=
200712240620 METAR ESMX 240620Z AUTO 19004KT 7000NDV BR OVC012/// 01/01 Q1023=
200712240550 METAR ESMX 240550Z AUTO 19003KT 7000NDV BR FEW010/// OVC012/// 01/01 Q1023=
200712240520 METAR ESMX 240520Z AUTO 21003KT 170V260 7000NDV BR FEW005/// SCT008/// OVC010/// 01/01 Q1023=
200712240450 METAR ESMX 240450Z AUTO 22003KT 190V250 6000NDV BR FEW003/// BKN005/// OVC008/// 01/01 Q1023=
200712240420 METAR ESMX 240420Z AUTO 23003KT 6000NDV BR OVC005/// 01/01 Q1023=
200712240350 METAR ESMX 240350Z AUTO 22003KT 170V270 7000NDV BR FEW005/// SCT008/// BKN009/// 01/01 Q1023=
200712240320 METAR ESMX 240320Z AUTO 22003KT 5000NDV FEW001/// SCT003/// BKN006/// 01/01 Q1023=
200712240250 METAR ESMX 240250Z AUTO 23004KT 200V280 1900NDV OVC001/// 01/01 Q1023=
200712240220 METAR ESMX 240220Z AUTO 23006KT 180V270 0800NDV R01/P2000U R19/P2000U FG OVC001/// 01/01 Q1023=
200712240150 METAR ESMX 240150Z AUTO 21005KT 0500NDV R01/1600U R19/1500U FG VV001 00/00 Q1023=
200712240120 METAR ESMX 240120Z AUTO 00000KT 0300NDV R01/1100N R19/1100N FG VV001 00/00 Q1023=
200712240050 METAR ESMX 240050Z AUTO 00000KT 0300NDV R01/1100N R19/1000N FG VV001 00/00 Q1023=
200712240020 METAR ESMX 240020Z AUTO 00000KT 0350NDV R01/1200N R19/1100N FG VV001 00/M00 Q1023=
200712232350 METAR ESMX 232350Z AUTO 00000KT 0650NDV R01/1900N R19/P2000D FZFG VV001 M00/M00 Q1023=
200712232320 METAR ESMX 232320Z AUTO 00000KT 1200NDV R01/P2000D R19/P2000D BR VV002 M00/M00 Q1023=
200712232250 METAR ESMX 232250Z AUTO 00000KT 1500NDV BR OVC001/// M00/M01 Q1023=
200712232220 METAR ESMX 232220Z AUTO 00000KT 1800NDV BR OVC001/// M01/M01 Q1023=
200712232150 METAR ESMX 232150Z AUTO 00000KT 2300NDV BR OVC001/// M01/M01 Q1023=
200712232120 METAR ESMX 232120Z AUTO 00000KT 1800NDV OVC001/// M01/M01 Q1023=
200712232050 METAR ESMX 232050Z 00000KT 1400 R01/P2000U R19/P2000U BR OVC002 M01/M01 Q1023=
200712232020 METAR ESMX 232020Z 00000KT 0750 R01/P2000N R19/P2000U FZFG VV002 M01/M01 Q1023=
200712231950 METAR ESMX 231950Z 00000KT 0550 R01/1700N R19/1700N FZFG VV002 M01/M01 Q1023=
200712231920 METAR ESMX 231920Z 00000KT 0400 R01/1300N R19/1400N FZFG VV002 M01/M01 Q1023=
200712231850 METAR ESMX 231850Z 00000KT 0350 R01/1300N R19/1200N FZFG VV002 M01/M02 Q1023=
200712231820 METAR ESMX 231820Z 00000KT 0300 R01/1100N R19/1100N FZFG VV002 M01/M02 Q1023=
200712231750 METAR ESMX 231750Z 00000KT 0300 R01/1200N R19/1100N FZFG VV002 M02/M02 Q1023=
200712231720 METAR ESMX 231720Z 00000KT 0450 R01/1400N R19/1500D FZFG VV002 M02/M02 Q1023=
200712231650 METAR ESMX 231650Z 00000KT 1000 R01/P2000D R19/P2000D BR FZFG VV002 M02/M02 Q1023=
200712231620 METAR ESMX 231620Z 00000KT 1500 BR OVC002 M02/M02 Q1023=
200712231550 METAR ESMX 231550Z 00000KT 2100 BR OVC002 M02/M02 Q1023=
200712231520 METAR ESMX 231520Z 00000KT 2600 BR OVC002 M02/M02 Q1023=
200712231450 METAR ESMX 231450Z 00000KT 2700 BR OVC002 M02/M02 Q1023=
200712231420 METAR ESMX 231420Z 00000KT 2900 BR OVC002 M02/M02 Q1022=
200712231350 METAR ESMX 231350Z 00000KT 3500 BR FEW001 OVC002 M02/M02 Q1022=
200712231320 METAR ESMX 231320Z 00000KT 2400 BR OVC002 M02/M02 Q1022=
200712231250 METAR ESMX 231250Z 00000KT 1900 BR SCT001 OVC002 M02/M02 Q1022=
200712231220 METAR ESMX 231220Z 00000KT 2700 BR FEW001 OVC002 M02/M02 Q1022=
200712231150 METAR ESMX 231150Z AUTO 00000KT 2400NDV OVC001/// M02/M02 Q1022=
200712231120 METAR ESMX 231120Z AUTO 00000KT 1900NDV VV002 M02/M02 Q1022=
200712231050 METAR ESMX 231050Z AUTO 00000KT 0800NDV R01/1100V1700N R19/1900U=
200712231020 METAR ESMX 231020Z AUTO 00000KT 0750NDV R01/1100V1600U R19/1400D=
200712230950 METAR ESMX 230950Z AUTO 00000KT 0750NDV R01/1000V1600D R19/1800U=
200712230920 METAR ESMX 230920Z AUTO 00000KT 1000NDV R01/1700D R19/P2000U BR OVC001/// M02/M02 Q1023=
200712230850 METAR ESMX 230850Z AUTO 00000KT 1500NDV BR OVC001/// M02/M02 Q1022=
200712230820 METAR ESMX 230820Z AUTO 00000KT 2700NDV BR OVC002/// M02/M02 Q1022=
200712230750 METAR ESMX 230750Z AUTO 00000KT 3400NDV BR OVC002/// M02/M02 Q1022=
200712230720 METAR ESMX 230720Z AUTO 00000KT 3000NDV BR OVC002/// M02/M02 Q1022=
200712230650 METAR ESMX 230650Z AUTO 00000KT 2200NDV BR OVC001/// M02/M02 Q1021=
200712230620 METAR ESMX 230620Z AUTO 00000KT 1800NDV BR OVC001/// M02/M02 Q1021=
200712230550 METAR ESMX 230550Z AUTO 00000KT 1700NDV BR OVC001/// M02/M02 Q1021=
200712230520 METAR ESMX 230520Z AUTO 00000KT 1800NDV BR OVC002/// M02/M02 Q1021=
200712230450 METAR ESMX 230450Z AUTO 00000KT 2400NDV BR OVC002/// M02/M02 Q1021=
200712230420 METAR ESMX 230420Z AUTO 00000KT 2500NDV BR OVC002/// M02/M02 Q1021=
200712230350 METAR ESMX 230350Z AUTO 00000KT 2100NDV BR OVC002/// M02/M02 Q1021=
200712230320 METAR ESMX 230320Z AUTO 00000KT 2400NDV BR OVC002/// M02/M02 Q1021=
200712230250 METAR ESMX 230250Z AUTO 00000KT 2200NDV BR OVC002/// M02/M02 Q1021=
200712230220 METAR ESMX 230220Z AUTO 00000KT 2100NDV BR OVC002/// M02/M03 Q1022=
200712230150 METAR ESMX 230150Z AUTO 00000KT 2700NDV BR OVC002/// M02/M03 Q1022=
200712230120 METAR ESMX 230120Z AUTO 00000KT 3100NDV BR OVC002/// M03/M03 Q1022=
200712230050 METAR ESMX 230050Z AUTO 00000KT 2900NDV BR OVC002/// M03/M03 Q1022=
200712230020 METAR ESMX 230020Z AUTO 00000KT 3500NDV BR OVC001/// M03/M03 Q1022=
200712222350 METAR ESMX 222350Z AUTO 00000KT 3100NDV BR OVC001/// M03/M03 Q1021=
200712222320 METAR ESMX 222320Z AUTO 00000KT 2800NDV BR OVC002/// M03/M03 Q1022=
200712222250 METAR ESMX 222250Z AUTO 00000KT 2700NDV BR OVC001/// M03/M03 Q1022=
200712222220 METAR ESMX 222220Z AUTO 00000KT 2700NDV BR OVC001/// M03/M03 Q1022=
200712222150 METAR ESMX 222150Z AUTO 00000KT 2400NDV BR OVC001/// M03/M03 Q1022=
200712222120 METAR ESMX 222120Z AUTO 00000KT 2400NDV BR OVC001/// M03/M03 Q1022=
200712222050 METAR ESMX 222050Z AUTO 00000KT 2500NDV BR OVC001/// M03/M03 Q1022=
200712222020 METAR ESMX 222020Z AUTO 00000KT 2400NDV BR OVC001/// M03/M03 Q1022=
200712221950 METAR ESMX 221950Z AUTO 00000KT 2400NDV BR OVC001/// M03/M03 Q1022=
200712221920 METAR ESMX 221920Z AUTO 00000KT 1700NDV BR OVC001/// M03/M03 Q1022=
200712221850 METAR ESMX 221850Z AUTO 00000KT 1300NDV R01/P2000U R19/P2000U OVC001/// M03/M03 Q1022=
200712221820 METAR ESMX 221820Z AUTO 00000KT 1900NDV OVC001/// M03/M03 Q1022=
200712221750 METAR ESMX 221750Z AUTO 00000KT 1100NDV R01/P2000U R19/P2000D FZFG OVC001/// M02/M03 Q1022=
200712221720 METAR ESMX 221720Z AUTO 00000KT 1600NDV OVC001/// M03/M03 Q1022=
200712221650 METAR ESMX 221650Z AUTO 00000KT 1900NDV BR OVC001/// M02/M03 Q1022=
200712221620 METAR ESMX 221620Z AUTO 00000KT 2000NDV BR OVC001/// M02/M03 Q1022=
200712221550 METAR ESMX 221550Z AUTO 00000KT 2600NDV BR OVC001/// M02/M02 Q1022=
200712221520 METAR ESMX 221520Z AUTO 00000KT 3000NDV BR OVC001/// M02/M02 Q1022=
200712221450 METAR ESMX 221450Z AUTO 00000KT 3200NDV BR OVC001/// M02/M02 Q1022=
200712221420 METAR ESMX 221420Z AUTO 00000KT 4700NDV BR OVC002/// M02/M02 Q1022=
200712221350 METAR ESMX 221350Z AUTO 00000KT 5000NDV BR OVC001/// M02/M02 Q1022=
200712221320 METAR ESMX 221320Z 00000KT 3700 BR OVC002 M02/M02 Q1023=
200712221250 METAR ESMX 221250Z 00000KT 5000 BR OVC002 M02/M02 Q1023=
200712221220 METAR ESMX 221220Z 00000KT 6000 BR OVC002 M02/M02 Q1023=
200712221150 METAR ESMX 221150Z 00000KT 5000 BR OVC002 M02/M02 Q1023=
200712221120 METAR ESMX 221120Z 00000KT 5000 BR OVC002 M02/M02 Q1023=
200712221050 METAR ESMX 221050Z 00000KT 5000 BR OVC002 M02/M02 Q1024=
200712221020 METAR ESMX 221020Z AUTO 00000KT 1700NDV BR OVC001/// M02/M02 Q1024=
200712220950 METAR ESMX 220950Z AUTO 00000KT 1700NDV BR VV002 M02/M02 Q1024=
200712220920 METAR ESMX 220920Z AUTO 00000KT 1600NDV BR OVC001/// M02/M02 Q1024=
200712220850 METAR ESMX 220850Z AUTO 00000KT 1700NDV BR OVC001/// M02/M03 Q1024=
200712220820 METAR ESMX 220820Z AUTO 00000KT 1500NDV BR OVC001/// M02/M02 Q1024=
200712220750 METAR ESMX 220750Z AUTO 00000KT 2200NDV BR OVC001/// M02/M03 Q1024=
200712220720 METAR ESMX 220720Z AUTO 00000KT 2000NDV BR OVC001/// M02/M02 Q1024=
200712220650 METAR ESMX 220650Z AUTO 00000KT 2000NDV BR OVC001/// M02/M02 Q1024=
200712220620 METAR ESMX 220620Z AUTO 00000KT 1600NDV BR OVC001/// M02/M02 Q1024=
200712220550 METAR ESMX 220550Z AUTO 00000KT 1500NDV BR OVC001/// M02/M03 Q1024=
200712220520 METAR ESMX 220520Z AUTO 00000KT 1400NDV R01/P2000U R19/P2000U VV002 M02/M03 Q1024=
200712220450 METAR ESMX 220450Z AUTO 00000KT 1300NDV R01/P2000D R19/P2000U OVC001/// M02/M03 Q1024=
200712220420 METAR ESMX 220420Z AUTO 00000KT 1000NDV R01/P2000N R19/P2000U FZFG OVC001/// M02/M03 Q1024=
200712220350 METAR ESMX 220350Z AUTO 00000KT 0900NDV R01/P2000D R19/P2000N FZFG VV002 M02/M02 Q1024=
200712220320 METAR ESMX 220320Z AUTO 00000KT 0500NDV R01/1200VP2000U R19/P2000D=
200712220250 METAR ESMX 220250Z AUTO 00000KT 0750NDV R01/P2000D R19/P2000U FZFG VV001 M02/M02 Q1025=
200712220220 METAR ESMX 220220Z AUTO 00000KT 0400NDV R01/1000V1700D R19/1400VP2000U FZFG VV001 M02/M02 Q1025=
200712220150 METAR ESMX 220150Z 00000KT 0400 R01/1000V1900D R19/1300VP2000U=
200712220120 METAR ESMX 220120Z 00000KT 0700 R01/P2000U R19/P2000N FZFG VV002 M02/M02 Q1026=
200712220050 METAR ESMX 220050Z 27004KT 0500 R01/1300VP2000N R19/P2000N FZFG VV002 M02/M02 Q1026=
200712220020 METAR ESMX 220020Z 25004KT 0550 R01/1200VP2000D R19/P2000U FZFG VV002 M02/M02 Q1026=
200712212350 METAR ESMX 212350Z 25004KT 0500 R01/1200V1900N R19/P2000D FZFG VV002 M02/M02 Q1026=
200712212320 METAR ESMX 212320Z 29004KT 0500 R01/1500N R19/P2000D FZFG VV002 M02/M02 Q1027=
200712212250 METAR ESMX 212250Z 29002KT 0600 R01/1800U R19/1800N FZFG VV002 M02/M02 Q1027=
200712212220 METAR ESMX 212220Z 29004KT 0500 R01/1100VP2000D R19/1300VP2000N=
200712212150 METAR ESMX 212150Z 27003KT 0450 R01/1200VP2000N R19/1900D FZFG VV002 M02/M02 Q1027=
200712212120 METAR ESMX 212120Z 28003KT 0400 R01/1000VP2000U R19/1200VP2000N=
200712212050 METAR ESMX 212050Z 30004KT 0350 R01/1000V1400N R19/1400N FZFG VV002 M02/M02 Q1027=
200712212020 METAR ESMX 212020Z 26003KT 0300 R01/0800V1400U R19/1100VP2000D=
200712211950 METAR ESMX 211950Z 25003KT 0350 R01/1000V1600U R19/P2000U FZFG VV002 M02/M02 Q1027=
200712211920 METAR ESMX 211920Z 28003KT 0600 R01/1300N R19/1300VP2000D FZFG VV002 M02/M02 Q1028=
200712211850 METAR ESMX 211850Z 30004KT 0750 R01/1000V1400N R19/1100V1800N FZFG VV002 M02/M02 Q1028=
200712211820 METAR ESMX 211820Z 30003KT 0450 R01/1100D R19/1100V1800N FZFG VV002 M02/M02 Q1028=
200712211750 METAR ESMX 211750Z VRB02KT 0550 R01/1700N R19/1800D FZFG VV002 M02/M02 Q1028=
200712211720 METAR ESMX 211720Z 28003KT 250V330 0600 R01/1200VP2000D R19/P2000D=
200712211650 METAR ESMX 211650Z 30004KT 260V330 0450 R01/0800V1400D R19/1300VP2000D FZFG VV002 M01/M02 Q1028=
200712211620 METAR ESMX 211620Z 27004KT 0400 R01/1500N R19/1000V1700U FZFG VV002 M01/M01 Q1028=
200712211550 METAR ESMX 211550Z 26005KT 0450 R01/1100V1800D R19/1100V1900D FZFG VV002 M01/M01 Q1028=
200712211520 METAR ESMX 211520Z 26003KT 230V300 0500 R01/1300VP2000D R19/1700N=
200712211420 METAR ESMX 211420Z 26004KT 230V290 0400 R01/0800V1400U R19/1000N=
200712211350 METAR ESMX 211350Z 28004KT 0350 R01/0750 R19/1100N FZFG VV002 M01/M01 Q1029=
200712211250 METAR ESMX 211250Z 27003KT 210V310 0700 R01/1000N R19/0900V1400U=
200712211220 METAR ESMX 211220Z 28003KT 220V330 0600 R01/0900V1500D R19/1300D=
200712211150 METAR ESMX 211150Z 26004KT 220V290 0500 R01/1000N R19/0900 FZFG VV002 M01/M01 Q1029=
200712211120 METAR ESMX 211120Z 30003KT 260V330 0650 R01/0750V1200D R19/1100N=
200712211050 METAR ESMX 211050Z 31003KT 280V010 0700 R01/0800 R19/1100N FZFG VV002 M01/M01 Q1029=
200712211020 METAR ESMX 211020Z 30005KT 260V330 0400 R01/0800 R19/1000N FZFG VV002 M01/M01 Q1030=
200712210950 METAR ESMX 210950Z 31004KT 0550 R01/1000N R19/1000N FZFG VV002 M01/M01 Q1030=
200712210920 METAR ESMX 210920Z 26004KT 0550 R01/1000U R19/0800V1300U FZFG VV002 M01/M01 Q1030=
200712210850 METAR ESMX 210850Z 31005KT 280V340 0500 R01/1000N R19/1100N FZFG VV002 M01/M01 Q1030=
200712210820 METAR ESMX 210820Z 31005KT 0500 R01/1100N R19/1100N FZFG VV002 M01/M01 Q1030=
200712210750 METAR ESMX 210750Z 30003KT 270V350 0450 R01/1300U R19/1200N FZFG VV002 M01/M01 Q1030=
200712210720 METAR ESMX 210720Z 28003KT 0550 R01/1600N R19/1400VP2000D FZFG VV002 M01/M01 Q1029=
200712210650 METAR ESMX 210650Z 30006KT 0550 R01/1500VP2000N R19/1700D FZFG VV002 M01/M01 Q1030=
200712210620 METAR ESMX 210620Z 30004KT 250V320 0600 R01/P2000U R19/1900U FZFG VV002 M01/M01 Q1029=
200712210550 METAR ESMX 210550Z 30005KT 0650 R01/P2000D R19/P2000D FZFG VV002 M01/M01 Q1030=
200712210520 METAR ESMX 210520Z 30005KT 270V340 0700 R01/P2000N R19/P2000N FZFG VV002 M01/M01 Q1030=
200712210450 METAR ESMX 210450Z 27005KT 0650 R01/1900N R19/P2000N FZFG VV002 M01/M01 Q1029=
200712210420 METAR ESMX 210420Z AUTO 27004KT 250V350 0600NDV R01/1400VP2000U R19/P2000D FZFG VV001 M01/M01 Q1030=
200712210350 METAR ESMX 210350Z AUTO 29005KT 260V320 0600NDV R01/1800N R19/P2000D FZFG VV001 M01/M01 Q1030=
200712210320 METAR ESMX 210320Z AUTO 26004KT 230V290 0600NDV R01/1800U R19/1400VP2000U FZFG VV001 M01/M01 Q1030=
200712210250 METAR ESMX 210250Z AUTO 29003KT 260V330 0500NDV R01/1900N R19/1500N FZFG VV001 M01/M01 Q1030=
200712210220 METAR ESMX 210220Z AUTO 27005KT 0550NDV R01/1800D R19/1300VP2000N=
200712210150 METAR ESMX 210150Z AUTO 32004KT 0750NDV R01/P2000D R19/P2000U FZFG VV001 M01/M01 Q1030=
200712210120 METAR ESMX 210120Z 32004KT 0600 R01/1500VP2000D R19/P2000N FZFG VV002 M01/M01 Q1030=
200712210050 METAR ESMX 210050Z 29004KT 260V340 0650 R01/P2000U R19/P2000U FZFG VV002 M01/M01 Q1031=
200712210020 METAR ESMX 210020Z 27005KT 250V310 0550 R01/1300VP2000U R19/P2000U=
200712202350 METAR ESMX 202350Z 31005KT 0800 R01/P2000U R19/P2000N FZFG VV002 M01/M01 Q1031=
200712202320 METAR ESMX 202320Z 28005KT 0750 R01/P2000U R19/P2000U FZFG VV001 M01/M01 Q1031=
200712202250 METAR ESMX 202250Z 29004KT 0750 R01/P2000U R19/P2000N FZFG VV001 M01/M01 Q1031=
200712202220 METAR ESMX 202220Z 29005KT 0800 R01/P2000U R19/P2000D FZFG VV002 M01/M01 Q1031=
200712202150 METAR ESMX 202150Z 30004KT 240V340 1000 R01/P2000U R19/P2000D VV002 M01/M01 Q1031=
200712202120 METAR ESMX 202120Z 31006KT 0900 R01/P2000U R19/P2000U FZFG VV002 M01/M01 Q1031=
200712202050 METAR ESMX 202050Z 29004KT 0800 R01/P2000U R19/P2000U FZFG VV002 M01/M01 Q1031=
200712202020 METAR ESMX 202020Z 30005KT 0900 R01/P2000U R19/P2000N FZFG VV002 M01/M01 Q1031=
200712201950 METAR ESMX 201950Z 28005KT 230V300 0700 R01/P2000D R19/P2000D FZFG VV002 M01/M01 Q1031=
200712201920 METAR ESMX 201920Z 30006KT 0700 R01/P2000N R19/P2000D FZFG VV002 M01/M01 Q1031=
200712201850 METAR ESMX 201850Z 30005KT 0600 R01/1800U R19/P2000U FZFG VV002 M01/M01 Q1031=
200712201820 METAR ESMX 201820Z 27005KT 1000 R01/P2000U R19/P2000U FZFG VV002 M01/M01 Q1031=
200712201750 METAR ESMX 201750Z 28005KT 0700 R01/P2000U R19/P2000D FZFG VV002 M01/M01 Q1031=
200712201720 METAR ESMX 201720Z 32005KT 1000 R01/P2000U R19/P2000D FZFG VV002 M01/M01 Q1031=
200712201650 METAR ESMX 201650Z 31006KT 0900 R01/P2000D R19/P2000U FZFG VV002 M01/M01 Q1031=
200712201620 METAR ESMX 201620Z 30004KT 1000 R01/P2000D R19/P2000U VV002 M01/M01 Q1031=
200712201550 METAR ESMX 201550Z 29006KT 1000 R01/P2000U R19/P2000U FZFG VV002 M01/M01 Q1032=
200712201520 METAR ESMX 201520Z 30005KT 250V340 1000 R01/P2000U R19/P2000D FZFG VV002 M01/M01 Q1032=
200712201450 METAR ESMX 201450Z 27006KT 0750 R01/1900D R19/1500N FZFG VV002 M01/M01 Q1032=
200712201420 METAR ESMX 201420Z 28006KT 0750 R01/1000V1700U R19/1200V1900D FZFG VV002 M01/M01 Q1032=
200712201350 METAR ESMX 201350Z 26005KT 0850 R01/1500N R19/1100VP2000U FZFG VV002 M01/M01 Q1032=
200712201320 METAR ESMX 201320Z 30006KT 260V330 1000 R01/1300VP2000U R19/1400VP2000U FZFG VV002 M00/M01 Q1032=
200712201250 METAR ESMX 201250Z 31006KT 0900 R01/1100VP2000N R19/1400VP2000D=
200712201220 METAR ESMX 201220Z 29006KT 0900 R01/1100V1800D R19/1100VP2000D=
200712201150 METAR ESMX 201150Z 29005KT 250V320 0700 R01/0900V1500D R19/1500VP2000U FZFG VV002 M00/M00 Q1033=
200712201120 METAR ESMX 201120Z 26005KT 220V290 0900 R01/0900VP2000N R19/1100VP2000N FZFG VV002 M01/M01 Q1033=
200712201050 METAR ESMX 201050Z 29006KT 260V320 0800 R01/1000V1800U R19/1300N=
200712201020 METAR ESMX 201020Z 27006KT 240V310 0700 R01/1000V1400N R19/1000V1500N FZFG VV002 M00/M01 Q1033=
200712200950 METAR ESMX 200950Z 30005KT 1200 R01/1200V1900N R19/1700D BR VV002 M01/M01 Q1033=
200712200920 METAR ESMX 200920Z 26005KT 0800 R01/1100VP2000N R19/1600D FZFG VV002 M00/M01 Q1033=
200712200850 METAR ESMX 200850Z 30005KT 1100 R01/1900N R19/P2000D BR VV002 M00/M01 Q1033=
200712200820 METAR ESMX 200820Z 31005KT 1300 R01/P2000D R19/P2000D BR VV002 M00/M01 Q1033=
200712200750 METAR ESMX 200750Z 28005KT 1400 R01/P2000N R19/P2000D BR OVC001 M00/M00 Q1033=
200712200720 METAR ESMX 200720Z 28005KT 240V300 2000 BR OVC002 M00/M00 Q1033=
200712200650 METAR ESMX 200650Z 29005KT 250V320 3300 BR OVC002 M00/M00 Q1033=
200712200620 METAR ESMX 200620Z 28004KT 260V330 3000 BR OVC002 M00/M00 Q1033=
200712200550 METAR ESMX 200550Z 29005KT 3100 BR OVC002 M00/M00 Q1033=
200712200520 METAR ESMX 200520Z 29006KT 3500 BR OVC002 M00/M00 Q1032=
200712200450 METAR ESMX 200450Z 28006KT 250V320 3100 BR OVC001 M00/M00 Q1032=
200712200420 METAR ESMX 200420Z AUTO 30008KT 3700NDV BR OVC001/// 00/M00 Q1033=
200712200350 METAR ESMX 200350Z AUTO 28006KT 250V320 2400NDV BR OVC001/// 00/M00 Q1033=
200712200320 METAR ESMX 200320Z AUTO 29008KT 2600NDV BR OVC001/// 00/00 Q1033=
200712200250 METAR ESMX 200250Z AUTO 29008KT 2600NDV BR OVC001/// 00/00 Q1033=
200712200220 METAR ESMX 200220Z AUTO 28006KT 230V330 2900NDV BR OVC001/// 00/00 Q1034=
200712200150 METAR ESMX 200150Z 28007KT 250V340 2700 BR OVC002 00/00 Q1034=
200712200120 METAR ESMX 200120Z 29006KT 260V320 2700 BR OVC002 00/00 Q1034=
200712200020 METAR ESMX 200020Z 29006KT 2700 BR OVC002 00/00 Q1033=
200712192350 METAR ESMX 192350Z 28008KT 2200 BR OVC002 00/00 Q1034=
200712192320 METAR ESMX 192320Z 28005KT 250V320 2300 BR OVC001 00/M00 Q1034=
200712192250 METAR ESMX 192250Z 29007KT 2900 BR OVC001 00/M00 Q1034=
200712192220 METAR ESMX 192220Z 28007KT 2800 BR OVC001 M00/M00 Q1034=
200712192150 METAR ESMX 192150Z 28008KT 250V310 2700 BR OVC002 M00/M00 Q1034=
200712192120 METAR ESMX 192120Z 29008KT 3900 BR OVC002 M00/M00 Q1034=
200712192050 METAR ESMX 192050Z 28006KT 240V320 3400 BR OVC002 M00/M00 Q1034=
200712192020 METAR ESMX 192020Z 28007KT 250V320 3400 BR OVC002 M00/M00 Q1035=
200712191950 METAR ESMX 191950Z 28007KT 240V320 4500 BR OVC002 M00/M01 Q1035=
200712191920 METAR ESMX 191920Z 29007KT 250V340 3800 BR OVC002 M01/M01 Q1035=
200712191850 METAR ESMX 191850Z 28007KT 240V320 5000 BR OVC002 M01/M01 Q1035=
200712191820 METAR ESMX 191820Z 27005KT 220V330 6000 BR OVC002 M01/M01 Q1035=
200712191750 METAR ESMX 191750Z 28006KT 230V320 5000 BR OVC003 M01/M01 Q1035=
200712191720 METAR ESMX 191720Z 28007KT 4600 BR OVC002 M01/M01 Q1035=
200712191650 METAR ESMX 191650Z 28008KT 4300 BR OVC002 M01/M01 Q1035=
200712191620 METAR ESMX 191620Z 27008KT 3300 BR OVC002 M01/M02 Q1035=
200712191550 METAR ESMX 191550Z 28007KT 250V320 3500 BR OVC003 M02/M02 Q1036=
200712191520 METAR ESMX 191520Z 27006KT 250V320 7000 BR OVC003 M02/M02 Q1035=
200712191450 METAR ESMX 191450Z 28005KT 9999 OVC003 M02/M02 Q1036=
200712191420 METAR ESMX 191420Z 28007KT 240V300 9999 OVC004 M02/M03 Q1036=
200712191350 METAR ESMX 191350Z 28006KT 9999 OVC004 M03/M03 Q1036=
200712191320 METAR ESMX 191320Z 29008KT 260V330 9999 SCT002 OVC004 M03/M03 Q1036=
200712191250 METAR ESMX 191250Z 31006KT 9999 BKN002 OVC004 M03/M03 Q1036=
200712191220 METAR ESMX 191220Z 28006KT 9999 BKN002 OVC004 M03/M03 Q1036=
200712191150 METAR ESMX 191150Z 29005KT 9999 OVC002 M03/M03 Q1036=
200712191120 METAR ESMX 191120Z 28005KT 240V320 9999 OVC002 M03/M03 Q1037=
200712191050 METAR ESMX 191050Z 29006KT 9999 OVC002 M03/M03 Q1037=
200712191020 METAR ESMX 191020Z 26006KT 8000 BR OVC002 M03/M03 Q1037=
200712190950 METAR ESMX 190950Z 28006KT 6000 BR OVC002 M03/M03 Q1037=
200712190920 METAR ESMX 190920Z 28006KT 5000 BR OVC002 M03/M03 Q1037=
200712190850 METAR ESMX 190850Z 28005KT 5000 BR OVC002 M03/M03 Q1037=
200712190820 METAR ESMX 190820Z 27006KT 3100 BR OVC002 M03/M03 Q1037=
200712190750 METAR ESMX 190750Z 27005KT 1700 BR VV002 M03/M04 Q1037=
200712190720 METAR ESMX 190720Z 28005KT 1900 BR OVC002 M03/M04 Q1037=
200712190650 METAR ESMX 190650Z 29004KT 4500 BR OVC002 M03/M04 Q1037=
200712190620 METAR ESMX 190620Z 27005KT 2500 BR OVC002 M03/M04 Q1037=
200712190550 METAR ESMX 190550Z 26005KT 3200 BR VV002 M03/M03 Q1037=
200712190520 METAR ESMX 190520Z 29004KT 2500 BR OVC002 M03/M04 Q1037=
200712190450 METAR ESMX 190450Z 29004KT 240V320 4000 BR OVC002 M03/M04 Q1037=
200712190420 METAR ESMX 190420Z AUTO 29004KT 3000NDV BR OVC001/// M03/M03 Q1037=
200712190350 METAR ESMX 190350Z AUTO 29004KT 260V320 3500NDV BR OVC001/// M03/M03 Q1037=
200712190320 METAR ESMX 190320Z AUTO 31005KT 3900NDV BR OVC001/// M03/M03 Q1037=
200712190250 METAR ESMX 190250Z AUTO 29005KT 2500NDV BR OVC001/// M03/M03 Q1037=
200712190220 METAR ESMX 190220Z AUTO 30004KT 260V340 3200NDV BR OVC001/// M03/M03 Q1037=
200712190150 METAR ESMX 190150Z 28004KT 4000 BR OVC002 M03/M03 Q1038=
200712190120 METAR ESMX 190120Z 28004KT 4500 BR OVC002 M03/M03 Q1038=
200712190050 METAR ESMX 190050Z 28004KT 3000 BR OVC002 M03/M03 Q1038=
200712190020 METAR ESMX 190020Z 29004KT 260V340 4000 BR OVC002 M03/M03 Q1038=
200712182350 METAR ESMX 182350Z 30004KT 7000 BR OVC002 M03/M03 Q1038=
200712182320 METAR ESMX 182320Z 32005KT 290V350 3000 BR VV002 M02/M03 Q1038=
200712182250 METAR ESMX 182250Z 31005KT 270V340 2100 OVC002 M03/M03 Q1038=
200712182220 METAR ESMX 182220Z 29005KT 1400 R01/P2000U R19/P2000U OVC001 M03/M03 Q1039=
200712182150 METAR ESMX 182150Z 30005KT 0800 R01/P2000U R19/P2000D FZFG VV002 M03/M03 Q1039=
200712182120 METAR ESMX 182120Z 31005KT 1500 VV002 M03/M03 Q1039=
200712182050 METAR ESMX 182050Z 28004KT 0350 R01/1000V1700D R19/P2000U FZFG VV002 M03/M03 Q1039=
200712182020 METAR ESMX 182020Z 30004KT 0700 R01/P2000U R19/P2000N FZFG VV002 M03/M03 Q1039=
200712181950 METAR ESMX 181950Z 28004KT 250V320 0550 R01/P2000D R19/P2000U FZFG VV002 M03/M03 Q1039=
200712181920 METAR ESMX 181920Z 25003KT 230V300 0550 R01/1100VP2000D R19/P2000D=
200712181850 METAR ESMX 181850Z 30003KT 270V330 0550 R01/1400VP2000N R19/1200VP2000D FZFG VV002 M03/M03 Q1039=
200712181820 METAR ESMX 181820Z 29004KT 0500 R01/0800V1400D R19/0900V1900U FZFG VV002 M02/M03 Q1039=
200712181750 METAR ESMX 181750Z 33004KT 0300 R01/0900V1400U R19/0800VP2000U=
200712181720 METAR ESMX 181720Z VRB02KT 0250 R01/1000U R19/0800V1600N FZFG VV002 M02/M02 Q1039=
200712181650 METAR ESMX 181650Z 28003KT 0300 R01/0900V1500D R19/1200VP2000D=
200712181620 METAR ESMX 181620Z 30003KT 0650 R01/1400VP2000U R19/P2000D FZFG VV002 M02/M02 Q1039=
200712181550 METAR ESMX 181550Z 30003KT 0800 R01/P2000D R19/P2000D FZFG VV001 M02/M02 Q1039=
200712181520 METAR ESMX 181520Z 35004KT 1400 R01/P2000U R19/P2000N BR VV002 M02/M02 Q1039=
200712181450 METAR ESMX 181450Z 35004KT 1600 BR VV002 M02/M02 Q1039=
200712181420 METAR ESMX 181420Z 31004KT 1500 BR VV002 M02/M02 Q1039=
200712181350 METAR ESMX 181350Z 33003KT 270V010 2000 FZFG VV002 M02/M02 Q1039=
200712181320 METAR ESMX 181320Z 32003KT 280V010 3100 BR OVC002 M02/M02 Q1039=
200712181250 METAR ESMX 181250Z 34003KT 300V020 1500 BR OVC002 M02/M02 Q1039=
200712181220 METAR ESMX 181220Z 30003KT 260V340 0800 R01/1000VP2000N R19/P2000N=
200712181150 METAR ESMX 181150Z 30003KT 260V340 0900 R01/P2000U R19/1100V1800N=
200712181120 METAR ESMX 181120Z 28003KT 0550 R01/1000V1800N R19/0800V1300N FZFG VV002 M02/M02 Q1040=
200712181050 METAR ESMX 181050Z VRB02KT 0700 R01/1200VP2000N R19/0800V1800U=
200712181020 METAR ESMX 181020Z VRB02KT 0400 R01/1000 R19/0800V1100N FZFG VV002 M02/M02 Q1040=
200712180950 METAR ESMX 180950Z VRB02KT 0400 R01/0550V1100D R19/0800V1700N FZFG VV002 M02/M02 Q1040=
200712180920 METAR ESMX 180920Z 30003KT 260V330 0250 R01/0650 R19/0800 FZFG VV002 M02/M02 Q1040=
200712180850 METAR ESMX 180850Z VRB02KT 0550 R01/0800V1500N R19/0750VP2000D=
200712180820 METAR ESMX 180820Z 32003KT 0500 R01/1100 R19/1600 FZFG VV002 M02/M02 Q1040=
200712180750 METAR ESMX 180750Z 01004KT 2000 BR OVC002 M01/M02 Q1040=
200712180720 METAR ESMX 180720Z 34003KT 5000 BR OVC002 M01/M02 Q1040=
200712180650 METAR ESMX 180650Z 32004KT 4100 BR OVC002 M01/M02 Q1040=
200712180550 METAR ESMX 180550Z 35004KT 9999 OVC002 M01/M01 Q1039=
200712180520 METAR ESMX 180520Z 34005KT 9999 OVC002 M01/M01 Q1039=
200712180450 METAR ESMX 180450Z 02003KT 330V070 9999 OVC004 M01/M01 Q1039=
200712180420 METAR ESMX 180420Z AUTO 01004KT 9999NDV OVC004/// M01/M01 Q1039=
200712180350 METAR ESMX 180350Z AUTO 04004KT 9999NDV OVC004/// M01/M01 Q1039=
200712180320 METAR ESMX 180320Z AUTO 02004KT 340V040 9999NDV OVC004/// M00/M01 Q1039=
200712180250 METAR ESMX 180250Z AUTO 01004KT 330V040 9999NDV OVC004/// M01/M01 Q1040=
200712180220 METAR ESMX 180220Z AUTO 01004KT 9999NDV OVC004/// M01/M01 Q1040=
200712180150 METAR ESMX 180150Z 02004KT 9999 OVC003 M01/M01 Q1040=
200712180120 METAR ESMX 180120Z 03004KT 010V070 9999 OVC003 M01/M01 Q1040=
200712180050 METAR ESMX 180050Z 01004KT 330V050 9999 OVC004 M01/M01 Q1040=
200712180020 METAR ESMX 180020Z 02003KT 340V050 9999 OVC004 M01/M02 Q1040=
200712172350 METAR ESMX 172350Z 04004KT 360V070 9999 OVC003 M01/M02 Q1040=
200712172320 METAR ESMX 172320Z 03006KT 9000 OVC003 M01/M02 Q1041=
200712172250 METAR ESMX 172250Z 01005KT 340V040 8000 BR OVC003 M01/M01 Q1041=
200712172220 METAR ESMX 172220Z VRB02KT 8000 BR OVC003 M01/M01 Q1040=
200712172150 METAR ESMX 172150Z 01003KT 340V040 9000 BR OVC003 M01/M01 Q1040=
200712172120 METAR ESMX 172120Z 34004KT 9000 BR OVC003 M01/M01 Q1041=
200712172050 METAR ESMX 172050Z 34005KT 290V360 9000 BR OVC003 M01/M01 Q1041=
200712172020 METAR ESMX 172020Z 36005KT 9000 BR OVC003 M01/M01 Q1041=
200712171950 METAR ESMX 171950Z 02005KT 340V050 9000 BR OVC002 M01/M01 Q1041=
200712171920 METAR ESMX 171920Z 02007KT 8000 BR OVC002 M01/M01 Q1041=
200712171850 METAR ESMX 171850Z 02005KT 8000 BR OVC002 M01/M01 Q1041=
200712171820 METAR ESMX 171820Z 36004KT 320V060 7000 BR OVC002 M01/M01 Q1041=
200712171750 METAR ESMX 171750Z 36006KT 8000 BR OVC002 M01/M01 Q1041=
200712171720 METAR ESMX 171720Z 36004KT 8000 BR OVC003 M00/M01 Q1041=
200712171650 METAR ESMX 171650Z 35005KT 8000 BR OVC002 M00/M01 Q1041=
200712171620 METAR ESMX 171620Z 34005KT 7000 BR OVC002 M00/M01 Q1041=
200712171550 METAR ESMX 171550Z 30005KT 8000 BR OVC003 M00/M01 Q1041=
200712171520 METAR ESMX 171520Z 01006KT 8000 BR OVC003 00/M01 Q1041=
200712171450 METAR ESMX 171450Z 33005KT 9000 BR OVC003 00/M00 Q1041=
200712171420 METAR ESMX 171420Z 35006KT 9999 OVC003 00/M01 Q1041=
200712171350 METAR ESMX 171350Z 32006KT 9999 OVC003 00/M00 Q1041=
200712171320 METAR ESMX 171320Z 31004KT 280V340 9999 OVC004 00/M00 Q1041=
200712171220 METAR ESMX 171220Z 32006KT 280V340 9999 OVC004 00/M00 Q1041=
200712171150 METAR ESMX 171150Z 29006KT 250V330 9999 OVC003 00/M00 Q1041=
200712171120 METAR ESMX 171120Z 28005KT 240V300 9999 OVC003 00/M00 Q1041=
200712171050 METAR ESMX 171050Z 30007KT 9999 OVC003 00/M00 Q1041=
200712171020 METAR ESMX 171020Z 29006KT 260V340 9999 OVC004 00/M00 Q1042=
200712170950 METAR ESMX 170950Z 32006KT 260V360 9999 OVC004 00/M00 Q1042=
200712170920 METAR ESMX 170920Z 32006KT 9999 OVC004 00/M00 Q1042=
200712170850 METAR ESMX 170850Z 31005KT 280V340 9999 OVC005 00/M00 Q1042=
200712170820 METAR ESMX 170820Z 32006KT 9999 OVC005 00/M01 Q1042=
200712170750 METAR ESMX 170750Z 31006KT 260V340 9999 OVC005 00/M01 Q1042=
200712170720 METAR ESMX 170720Z 33005KT 9999 OVC006 01/M01 Q1042=
200712170650 METAR ESMX 170650Z 33007KT 9999 OVC006 01/M00 Q1041=
200712170620 METAR ESMX 170620Z 32005KT 290V360 9999 OVC006 01/M00 Q1041=
200712170550 METAR ESMX 170550Z 31005KT 270V340 9999 OVC006 01/M00 Q1041=
200712170520 METAR ESMX 170520Z 33004KT 290V350 9999 OVC007 01/M00 Q1041=
200712170450 METAR ESMX 170450Z 32006KT 280V350 9999 OVC007 01/M00 Q1041=
200712170420 METAR ESMX 170420Z AUTO 30004KT 9999NDV OVC007/// 01/M00 Q1041=
200712170350 METAR ESMX 170350Z AUTO 33004KT 300V020 9999NDV OVC007/// 01/M00 Q1041=
200712170320 METAR ESMX 170320Z AUTO 33006KT 300V360 9999NDV OVC007/// 01/M00 Q1041=
200712170250 METAR ESMX 170250Z AUTO 33007KT 9999NDV OVC007/// 01/M00 Q1041=
200712170220 METAR ESMX 170220Z AUTO 33006KT 300V010 9999NDV OVC006/// 01/M00 Q1041=
200712170150 METAR ESMX 170150Z 33006KT 300V360 9999 OVC006 01/M00 Q1041=
200712170120 METAR ESMX 170120Z 32005KT 9999 OVC006 01/M00 Q1041=
200712170050 METAR ESMX 170050Z 33004KT 9999 OVC007 01/00 Q1041=
200712170020 METAR ESMX 170020Z 32006KT 280V350 9999 OVC007 01/00 Q1041=
200712162350 METAR ESMX 162350Z 32005KT 9999 OVC007 02/00 Q1041=
200712162320 METAR ESMX 162320Z 34008KT 9999 OVC008 02/00 Q1041=
200712162250 METAR ESMX 162250Z 32006KT 9999 OVC009 02/01 Q1041=
200712162220 METAR ESMX 162220Z 35007KT 9999 OVC009 02/00 Q1041=
200712162150 METAR ESMX 162150Z 34005KT 300V020 9999 OVC009 02/01 Q1041=
200712162120 METAR ESMX 162120Z 34003KT 9999 OVC009 02/00 Q1041=
200712162050 METAR ESMX 162050Z 35004KT 320V020 9999 OVC008 02/00 Q1041=
200712162020 METAR ESMX 162020Z 34006KT 9999 OVC008 02/00 Q1041=
200712161950 METAR ESMX 161950Z 33004KT 300V010 9999 OVC007 02/00 Q1041=
200712161920 METAR ESMX 161920Z 34006KT 9999 OVC007 02/00 Q1041=
200712161850 METAR ESMX 161850Z 34007KT 9999 OVC007 01/00 Q1041=
200712161820 METAR ESMX 161820Z 33005KT 9999 OVC007 01/M00 Q1041=
200712161750 METAR ESMX 161750Z 34006KT 9999 OVC008 01/00 Q1041=
200712161720 METAR ESMX 161720Z 34004KT 310V010 9999 OVC008 01/00 Q1041=
200712161650 METAR ESMX 161650Z 34005KT 9999 OVC008 01/M00 Q1040=
200712161620 METAR ESMX 161620Z 36006KT 9999 OVC008 01/M00 Q1040=
200712161550 METAR ESMX 161550Z 36007KT 9999 OVC008 01/M00 Q1040=
200712161520 METAR ESMX 161520Z 35007KT 320V020 9999 OVC007 01/M01 Q1040=
200712161450 METAR ESMX 161450Z 35008KT 9999 OVC007 01/M01 Q1040=
200712161420 METAR ESMX 161420Z 35009KT 9999 OVC007 01/M01 Q1040=
200712161350 METAR ESMX 161350Z 33008KT 9999 OVC006 00/M01 Q1040=
200712161320 METAR ESMX 161320Z 35009KT 9999 OVC005 00/M01 Q1040=
200712161250 METAR ESMX 161250Z 35007KT 9999 OVC005 00/M01 Q1040=
200712161220 METAR ESMX 161220Z 33008KT 9999 OVC005 00/M01 Q1040=
200712161150 METAR ESMX 161150Z 34009KT 9999 OVC006 00/M01 Q1040=
200712161120 METAR ESMX 161120Z AUTO 32010KT 9999NDV OVC005/// M00/M01 Q1040=
200712161050 METAR ESMX 161050Z AUTO 34008KT 9999NDV OVC006/// M00/M01 Q1040=
200712161020 METAR ESMX 161020Z AUTO 32007KT 9999NDV OVC006/// M00/M01 Q1040=
200712160950 METAR ESMX 160950Z AUTO 36009KT 320V030 9999NDV OVC006/// 00/M01 Q1041=
200712160920 METAR ESMX 160920Z AUTO 33008KT 9999NDV OVC006/// 00/M01 Q1040=
200712160850 METAR ESMX 160850Z AUTO 31006KT 9999NDV OVC005/// 00/M01 Q1040=
200712160820 METAR ESMX 160820Z AUTO 31006KT 9999NDV OVC005/// 00/M01 Q1040=
200712160750 METAR ESMX 160750Z AUTO 32006KT 9999NDV OVC005/// 00/M01 Q1040=
200712160720 METAR ESMX 160720Z AUTO 32009KT 9999NDV OVC006/// 00/M01 Q1040=
200712160650 METAR ESMX 160650Z AUTO 32006KT 9999NDV OVC005/// 00/M01 Q1040=
200712160620 METAR ESMX 160620Z AUTO 30007KT 9999NDV OVC005/// 00/M00 Q1040=
200712160550 METAR ESMX 160550Z AUTO 33007KT 9999NDV OVC005/// 01/M01 Q1040=
200712160520 METAR ESMX 160520Z AUTO 30007KT 9999NDV BR OVC005/// 01/M00 Q1040=
200712160450 METAR ESMX 160450Z AUTO 31006KT 9999NDV BR OVC005/// 01/M00 Q1040=
200712160420 METAR ESMX 160420Z AUTO 30006KT 250V340 9000NDV BR OVC005/// 01/M00 Q1040=
200712160350 METAR ESMX 160350Z AUTO 31008KT 280V340 9000NDV BR OVC005/// 01/M00 Q1040=
200712160320 METAR ESMX 160320Z AUTO 31006KT 280V340 8000NDV BR OVC005/// 01/M00 Q1040=
200712160250 METAR ESMX 160250Z AUTO 31006KT 260V340 7000NDV BR OVC004/// 00/M00 Q1040=
200712160220 METAR ESMX 160220Z AUTO 31007KT 270V340 4100NDV BR OVC002/// M00/M00 Q1040=
200712160150 METAR ESMX 160150Z AUTO 32007KT 3000NDV BR OVC001/// M00/M00 Q1041=
200712160120 METAR ESMX 160120Z AUTO 31005KT 280V360 1900NDV BR OVC001/// M00/M00 Q1041=
200712160050 METAR ESMX 160050Z AUTO 32004KT 290V350 2300NDV BR OVC001/// M01/M01 Q1041=
200712160020 METAR ESMX 160020Z AUTO 32006KT 1100NDV R01/P2000D R19/P2000U BR OVC001/// M01/M01 Q1041=
200712152350 METAR ESMX 152350Z AUTO 30006KT 2100NDV OVC001/// M01/M01 Q1041=
200712152320 METAR ESMX 152320Z AUTO 31006KT 270V350 1300NDV R01/P2000U R19/P2000U OVC001/// M01/M01 Q1041=
200712152250 METAR ESMX 152250Z AUTO 32004KT 290V360 1200NDV R01/P2000N R19/P2000U BR OVC001/// M01/M01 Q1041=
200712152220 METAR ESMX 152220Z AUTO 29005KT 2800NDV BR OVC001/// M00/M01 Q1041=
200712152150 METAR ESMX 152150Z AUTO 30004KT 2200NDV BR OVC001/// M00/M00 Q1041=
200712152120 METAR ESMX 152120Z AUTO 30003KT 2900NDV BR OVC001/// M00/M01 Q1041=
200712152050 METAR ESMX 152050Z AUTO VRB02KT 1400NDV R01/P2000D R19/P2000N OVC001/// M01/M01 Q1041=
200712152020 METAR ESMX 152020Z AUTO 27004KT 1200NDV R01/P2000D R19/P2000U VV002 M01/M01 Q1041=
200712151950 METAR ESMX 151950Z AUTO 28004KT 250V310 0900NDV R01/P2000N R19/P2000D FZFG VV002 M01/M01 Q1041=
200712151920 METAR ESMX 151920Z AUTO 29005KT 1400NDV R01/P2000D R19/P2000U BR OVC001/// M01/M01 Q1041=
200712151850 METAR ESMX 151850Z AUTO 25004KT 210V310 1500NDV BR OVC001/// M01/M01 Q1041=
200712151820 METAR ESMX 151820Z AUTO 27003KT 250V320 2200NDV BR OVC001/// M00/M01 Q1041=
200712151750 METAR ESMX 151750Z AUTO VRB01KT 2300NDV BR OVC001/// M00/M01 Q1042=
200712151720 METAR ESMX 151720Z AUTO 35003KT 300V020 5000NDV BR OVC001/// M00/M01 Q1042=
200712151650 METAR ESMX 151650Z AUTO 32004KT 7000NDV BR OVC002/// 00/M00 Q1041=
200712151620 METAR ESMX 151620Z AUTO VRB02KT 9000NDV OVC003/// 00/M00 Q1041=
200712151550 METAR ESMX 151550Z AUTO 26003KT 230V310 9999NDV OVC003/// 01/M00 Q1041=
200712151520 METAR ESMX 151520Z AUTO 24003KT 9999NDV OVC004/// 01/M00 Q1041=
200712151450 METAR ESMX 151450Z AUTO 34003KT 300V010 9999NDV OVC005/// 01/M00 Q1041=
200712151420 METAR ESMX 151420Z AUTO 31004KT 270V340 9999NDV OVC006/// 01/M00 Q1041=
200712151350 METAR ESMX 151350Z AUTO 30005KT 250V330 9999NDV OVC006/// 01/M00 Q1041=
200712151320 METAR ESMX 151320Z AUTO 28003KT 240V340 9999NDV OVC006/// 01/00 Q1041=
200712151250 METAR ESMX 151250Z AUTO 25004KT 210V280 9999NDV OVC007/// 02/00 Q1041=
200712151120 METAR ESMX 151120Z AUTO VRB02KT 9999NDV OVC008/// 02/M00 Q1041=
200712151050 METAR ESMX 151050Z AUTO VRB02KT 9999NDV OVC007/// 01/M00 Q1042=
200712151020 METAR ESMX 151020Z AUTO VRB02KT 9999NDV OVC009/// 01/M00 Q1042=
200712150950 METAR ESMX 150950Z AUTO VRB01KT 9999NDV OVC007/// 01/00 Q1042=
200712150920 METAR ESMX 150920Z AUTO 00000KT 9999NDV OVC006/// 01/00 Q1042=
200712150850 METAR ESMX 150850Z AUTO 00000KT 9999NDV BKN006/// OVC008/// 01/00 Q1042=
200712150820 METAR ESMX 150820Z AUTO 22004KT 9999NDV OVC005/// 01/00 Q1041=
200712150750 METAR ESMX 150750Z AUTO 00000KT 9999NDV OVC005/// 01/00 Q1041=
200712150720 METAR ESMX 150720Z AUTO 22003KT 9999NDV OVC004/// 00/00 Q1041=
200712150650 METAR ESMX 150650Z AUTO VRB02KT 8000NDV BR OVC005/// 00/00 Q1040=
200712150620 METAR ESMX 150620Z AUTO 19004KT 8000NDV BR FEW003/// OVC004/// 00/00 Q1040=
200712150550 METAR ESMX 150550Z AUTO 16003KT 6000NDV BR OVC001/// 00/00 Q1040=
200712150520 METAR ESMX 150520Z AUTO VRB02KT 3700NDV BR OVC001/// 00/00 Q1040=
200712150450 METAR ESMX 150450Z AUTO 19003KT 150V240 2400NDV BR OVC001/// 00/00 Q1040=
200712150420 METAR ESMX 150420Z AUTO VRB02KT 1300NDV R01/P2000D R19/P2000D BR VV001 00/00 Q1040=
200712150350 METAR ESMX 150350Z AUTO VRB02KT 1500NDV VV001 00/00 Q1040=
200712150320 METAR ESMX 150320Z AUTO VRB02KT 1300NDV R01/P2000U R19/P2000U VV002 00/00 Q1040=
200712150250 METAR ESMX 150250Z AUTO 18003KT 0800NDV R01/P2000N R19/P2000D FG VV001 00/00 Q1040=
200712150220 METAR ESMX 150220Z AUTO 18005KT 0700NDV R01/P2000N R19/P2000D FG VV001 00/00 Q1040=
200712150150 METAR ESMX 150150Z AUTO 22004KT 0800NDV R01/P2000N R19/P2000N FG VV001 01/01 Q1040=
200712150120 METAR ESMX 150120Z AUTO 16003KT 120V190 0800NDV R01/P2000N R19/P2000N FG VV001 01/01 Q1039=
200712150050 METAR ESMX 150050Z AUTO 20005KT 0800NDV R01/P2000U R19/P2000N FG VV001 01/01 Q1039=
200712150020 METAR ESMX 150020Z AUTO 18005KT 0750NDV R01/P2000U R19/P2000D FG VV001 01/01 Q1039=
200712142350 METAR ESMX 142350Z AUTO 16004KT 0350NDV R01/0900V1400N R19/1500N FG VV001 01/01 Q1039=
200712142320 METAR ESMX 142320Z AUTO 16003KT 120V200 0250NDV R01/0900N R19/0900V1500U FG VV001 01/01 Q1039=
200712142250 METAR ESMX 142250Z AUTO 15003KT 110V190 0200NDV R01/0750N R19/0900N FG VV001 01/01 Q1039=
200712142220 METAR ESMX 142220Z AUTO VRB02KT 0250NDV R01/0900N R19/1000VP2000U FG VV001 01/01 Q1039=
200712142150 METAR ESMX 142150Z AUTO VRB01KT 0200NDV R01/0800N R19/0900N FG VV000 01/01 Q1039=
200712142120 METAR ESMX 142120Z AUTO 15003KT 110V180 0200NDV R01/0800 R19/1000N FG VV000 01/01 Q1039=
200712142050 METAR ESMX 142050Z AUTO 16003KT 0200NDV R01/0800 R19/0900V1400D FG VV001 01/01 Q1038=
200712142020 METAR ESMX 142020Z AUTO 17003KT 140V200 0400NDV R01/1000V1900D R19/P2000D FG VV001 02/01 Q1038=
200712141950 METAR ESMX 141950Z 17004KT 1500 BR OVC002 02/02 Q1037=
200712141920 METAR ESMX 141920Z 16004KT 2000 BR OVC002 02/02 Q1037=
200712141850 METAR ESMX 141850Z 16003KT 2200 BR OVC002 02/02 Q1037=
200712141820 METAR ESMX 141820Z VRB01KT 2600 BR OVC003 02/01 Q1037=
200712141750 METAR ESMX 141750Z 16002KT 3000 BR BKN003 OVC028 02/02 Q1037=
200712141720 METAR ESMX 141720Z 16003KT 120V180 2700 BR BKN002 OVC027 02/02 Q1037=
200712141650 METAR ESMX 141650Z 15003KT 2500 BR BKN002 OVC025 02/01 Q1037=
200712141520 METAR ESMX 141520Z VRB02KT 2500 BR FEW003 OVC025 01/01 Q1037=
200712141450 METAR ESMX 141450Z 16002KT 3000 BR FEW003 OVC025 02/01 Q1037=
200712141420 METAR ESMX 141420Z VRB02KT 4000 BR OVC024 02/02 Q1036=
200712141350 METAR ESMX 141350Z 18002KT 5000 BR OVC024 02/02 Q1036=
200712141320 METAR ESMX 141320Z 19003KT 5000 BR OVC025 02/02 Q1036=
200712141250 METAR ESMX 141250Z VRB01KT 6000 BR SCT005 OVC025 02/02 Q1036=
200712141220 METAR ESMX 141220Z VRB01KT 7000 BR FEW005 SCT007 OVC025 02/02 Q1036=
200712141150 METAR ESMX 141150Z 30003KT 260V340 1500 R01/P2000U R19/1500VP2000U FEW002 OVC004 02/02 Q1037=
200712141120 METAR ESMX 141120Z VRB02KT 0450 R01/0800 R19/0800V1200U FG VV002 02/02 Q1037=
200712141050 METAR ESMX 141050Z VRB01KT 0400 R01/0650N R19/0600N FG VV002 02/02 Q1037=
200712141020 METAR ESMX 141020Z 21002KT 0650 R01/1100D R19/1200VP2000D FG BKN001 OVC004 02/01 Q1037=
200712140950 METAR ESMX 140950Z 21001KT 5000 BR OVC004 02/01 Q1037=
200712140920 METAR ESMX 140920Z VRB01KT 5000 BR OVC006 02/01 Q1037=
200712140850 METAR ESMX 140850Z 00000KT 5000 BR OVC005 02/01 Q1037=
200712140820 METAR ESMX 140820Z VRB02KT 4500 BR OVC005 01/01 Q1037=
200712140750 METAR ESMX 140750Z 22003KT 4000 BR SCT002 BKN004 OVC007 01/01 Q1037=
200712140720 METAR ESMX 140720Z 23002KT 3800 BR OVC002 01/01 Q1037=
200712140650 METAR ESMX 140650Z 22004KT 3500 BR OVC002 01/01 Q1037=
200712140620 METAR ESMX 140620Z 23004KT 4500 BR OVC003 01/01 Q1037=
200712140550 METAR ESMX 140550Z 24003KT 5000 BR OVC003 01/00 Q1037=
200712140520 METAR ESMX 140520Z 23003KT 200V260 6000 BR OVC005 01/00 Q1037=
200712140450 METAR ESMX 140450Z 23004KT 7000 BR OVC006 01/00 Q1037=
200712140420 METAR ESMX 140420Z AUTO 23005KT 7000NDV BR FEW008/// OVC026/// 01/00 Q1037=
200712140350 METAR ESMX 140350Z AUTO 23005KT 7000NDV BR OVC026/// 00/M00 Q1037=
200712140320 METAR ESMX 140320Z AUTO 22004KT 8000NDV BR OVC026/// 00/M00 Q1037=
200712140250 METAR ESMX 140250Z AUTO 24004KT 9000NDV OVC025/// 00/M00 Q1037=
200712140220 METAR ESMX 140220Z 24005KT 9000 OVC025 00/M00 Q1037=
200712140150 METAR ESMX 140150Z 23005KT 9000 OVC026 00/M00 Q1037=
200712140120 METAR ESMX 140120Z 22003KT 9000 OVC025 00/M00 Q1038=
200712140050 METAR ESMX 140050Z 24002KT 9999 OVC026 00/M00 Q1038=
200712140020 METAR ESMX 140020Z 27004KT 9999 OVC026 00/M00 Q1038=
200712132350 METAR ESMX 132350Z 28006KT 9999 FEW006 SCT008 OVC026 00/M01 Q1038=
200712132320 METAR COR ESMX 132320Z 28005KT 9999 SCT008 OVC023 00/M01 Q1038=
200712132220 METAR ESMX 132220Z 00000KT 9999 OVC022 M00/M01 Q1038=
200712132150 METAR ESMX 132150Z VRB01KT 9999 OVC023 M00/M01 Q1038=
200712132120 METAR ESMX 132120Z VRB02KT 9999 OVC022 M01/M02 Q1039=
200712132050 METAR ESMX 132050Z VRB02KT 9999 OVC023 M01/M02 Q1039=
200712132020 METAR ESMX 132020Z 23003KT 190V260 9999 OVC022 M01/M02 Q1039=
200712131950 METAR ESMX 131950Z VRB02KT 9999 OVC021 M01/M02 Q1039=
200712131920 METAR ESMX 131920Z VRB02KT 9999 OVC022 M01/M02 Q1039=
200712131850 METAR ESMX 131850Z VRB02KT 9999 OVC022 M01/M02 Q1039=
200712131820 METAR ESMX 131820Z 23003KT 9999 OVC022 M02/M02 Q1039=
200712131750 METAR ESMX 131750Z 28002KT 9999 SCT018 OVC023 M02/M03 Q1039=
200712131720 METAR ESMX 131720Z 27004KT 9999 SCT017 OVC020 M02/M03 Q1039=
200712131650 METAR ESMX 131650Z 26004KT 9999 OVC015 M02/M03 Q1039=
200712131620 METAR ESMX 131620Z 27003KT 9999 OVC014 M02/M03 Q1039=
200712131550 METAR ESMX 131550Z VRB02KT 9999 OVC016 M02/M03 Q1039=
200712131520 METAR ESMX 131520Z 28003KT 9999 OVC014 M02/M03 Q1040=
200712131450 METAR ESMX 131450Z 29003KT 9999 OVC014 M02/M04 Q1040=
200712131420 METAR ESMX 131420Z 30003KT 9999 FEW010 OVC014 M02/M04 Q1040=
200712131350 METAR ESMX 131350Z 32003KT 9999 FEW008 OVC015 M02/M04 Q1040=
200712131320 METAR ESMX 131320Z 33004KT 310V010 9999 FEW006 OVC008 M03/M04 Q1040=
200712131250 METAR ESMX 131250Z 32006KT 280V340 9999 OVC005 M03/M04 Q1041=
200712131220 METAR ESMX 131220Z 34007KT 9999 OVC005 M03/M04 Q1040=
200712131150 METAR ESMX 131150Z 34006KT 290V020 9999 OVC005 M03/M04 Q1041=
200712131120 METAR ESMX 131120Z 33010KT 300V360 9999 OVC005 M03/M04 Q1041=
200712131050 METAR ESMX 131050Z 32007KT 280V350 9999 OVC005 M03/M04 Q1041=
200712131020 METAR ESMX 131020Z 31006KT 280V350 9999 OVC004 M03/M04 Q1041=
200712130950 METAR ESMX 130950Z 28006KT 9999 OVC004 M03/M04 Q1041=
200712130920 METAR ESMX 130920Z 29004KT 9999 OVC004 M03/M04 Q1041=
200712130850 METAR ESMX 130850Z 30007KT 9999 OVC005 M03/M04 Q1041=
200712130820 METAR ESMX 130820Z 33008KT 9999 OVC005 M03/M04 Q1041=
200712130750 METAR ESMX 130750Z 30006KT 270V330 9999 OVC005 M03/M04 Q1041=
200712130720 METAR ESMX 130720Z 26006KT 230V290 9999 OVC005 M03/M04 Q1041=
200712130650 METAR ESMX 130650Z 32005KT 290V350 9999 OVC004 M03/M04 Q1040=
200712130620 METAR ESMX 130620Z 29006KT 260V330 9999 OVC005 M03/M04 Q1040=
200712130550 METAR ESMX 130550Z 32006KT 9999 OVC005 M03/M04 Q1041=
200712130520 METAR ESMX 130520Z 28006KT 9999 OVC005 M03/M04 Q1041=
200712130450 METAR ESMX 130450Z 29006KT 260V340 9999 OVC005 M02/M03 Q1041=
200712130420 METAR ESMX 130420Z AUTO 33005KT 9999NDV OVC005/// M02/M04 Q1041=
200712130350 METAR ESMX 130350Z AUTO 34006KT 9999NDV OVC006/// M02/M04 Q1041=
200712130320 METAR ESMX 130320Z AUTO 27006KT 9999NDV OVC006/// M02/M03 Q1041=
200712130250 METAR ESMX 130250Z AUTO 35005KT 300V020 9999NDV OVC006/// M02/M03 Q1041=
200712130220 METAR ESMX 130220Z AUTO 33006KT 9999NDV OVC007/// M02/M03 Q1041=
200712130150 METAR ESMX 130150Z AUTO 34005KT 9999NDV OVC007/// M02/M03 Q1041=
200712130120 METAR ESMX 130120Z AUTO 33005KT 290V360 9999NDV OVC008/// M01/M03 Q1041=
200712130050 METAR ESMX 130050Z 33005KT 310V020 9999 OVC008 M01/M03 Q1041=
200712130020 METAR ESMX 130020Z 30004KT 250V320 9999 OVC009 M01/M03 Q1041=
200712122350 METAR ESMX 122350Z 31003KT 250V340 9999 OVC010 M01/M03 Q1041=
200712122320 METAR ESMX 122320Z 34003KT 290V030 9999 OVC010 M01/M03 Q1041=
200712122250 METAR ESMX 122250Z 32004KT 280V340 9999 OVC010 M01/M03 Q1041=
200712122220 METAR ESMX 122220Z 33003KT 290V350 9999 OVC010 M01/M03 Q1041=
200712122150 METAR ESMX 122150Z 30004KT 270V340 9999 OVC011 M01/M03 Q1041=
200712122120 METAR ESMX 122120Z 36003KT 310V040 9999 OVC011 M00/M03 Q1041=
200712122050 METAR ESMX 122050Z 34004KT 9999 OVC012 M00/M02 Q1041=
200712122020 METAR ESMX 122020Z 36003KT 320V030 9999 OVC012 00/M02 Q1040=
200712121950 METAR ESMX 121950Z 33004KT 9999 OVC012 00/M02 Q1040=
200712121920 METAR ESMX 121920Z 02003KT 350V050 9999 OVC013 00/M02 Q1040=
200712121850 METAR ESMX 121850Z 02004KT 360V070 9999 OVC013 00/M02 Q1040=
200712121820 METAR ESMX 121820Z 08003KT 030V150 9999 OVC013 01/M02 Q1040=
200712121750 METAR ESMX 121750Z 03006KT 9999 OVC014 01/M02 Q1040=
200712121720 METAR ESMX 121720Z 03005KT 9999 OVC014 01/M02 Q1039=
200712121650 METAR ESMX 121650Z 03004KT 350V050 9999 OVC013 01/M01 Q1039=
200712121620 METAR ESMX 121620Z 02005KT 9999 -SN BKN017 01/M01 Q1039=
200712121550 METAR ESMX 121550Z 02004KT 9999 FEW016 OVC019 01/M01 Q1039=
200712121520 METAR ESMX 121520Z 01004KT 9999 -SN FEW016 OVC020 01/M01 Q1039=
200712121450 METAR ESMX 121450Z 36005KT 9999 -SN FEW016 OVC019 01/M01 Q1039=
200712121420 METAR ESMX 121420Z 01005KT 9999 OVC019 01/M01 Q1038=
200712121350 METAR ESMX 121350Z 35006KT 9999 OVC020 01/M01 Q1038=
200712121320 METAR ESMX 121320Z 35006KT 9999 OVC020 01/M01 Q1038=
200712121250 METAR ESMX 121250Z 36005KT 9999 OVC020 01/M01 Q1038=
200712121220 METAR ESMX 121220Z 01005KT 9999 OVC020 01/M01 Q1038=
200712121150 METAR ESMX 121150Z 36006KT 9999 SCT011 OVC020 01/M01 Q1038=
200712121120 METAR ESMX 121120Z 01006KT 9999 -SN FEW013 OVC019 01/M01 Q1037=
200712121050 METAR ESMX 121050Z 01008KT 9999 BKN017 00/M02 Q1037=
200712121020 METAR ESMX 121020Z 36007KT 9999 OVC017 00/M02 Q1037=
200712120950 METAR ESMX 120950Z 01009KT 9999 OVC015 00/M02 Q1037 RESN RESG=
200712120920 METAR ESMX 120920Z 03009KT 5000 -SN FEW005 OVC012 M00/M01 Q1037 RERA=
200712120850 METAR ESMX 120850Z 03009KT 5000 DZ FEW005 BKN010 00/M00 Q1036 RERA=
200712120820 METAR ESMX 120820Z 03008KT 010V080 9999 OVC007 01/M00 Q1036=
200712120750 METAR ESMX 120750Z 03008KT 360V070 9999 OVC010 01/M00 Q1035=
200712120720 METAR ESMX 120720Z 04008KT 9999 OVC010 02/M00 Q1035=
200712120650 METAR ESMX 120650Z 03006KT 350V070 9999 OVC010 02/00 Q1035=
200712120620 METAR ESMX 120620Z 02006KT 9999 BKN007 OVC013 02/00 Q1034=
200712120550 METAR ESMX 120550Z 03007KT 010V070 9999 OVC007 02/00 Q1033=
200712120520 METAR ESMX 120520Z 02006KT 9999 FEW007 OVC008 02/00 Q1033=
200712120450 METAR ESMX 120450Z 02007KT 9999 FEW007 OVC008 02/00 Q1033=
200712120420 METAR ESMX 120420Z 02007KT 9999 FEW007 OVC009 02/00 Q1033=
200712120350 METAR ESMX 120350Z AUTO 01008KT 9999NDV OVC007/// 02/00 Q1032=
200712120320 METAR ESMX 120320Z AUTO 01007KT 9999NDV SCT008/// OVC025/// 01/00 Q1032=
200712120250 METAR ESMX 120250Z AUTO 03004KT 350V070 9999NDV OVC024/// 02/00 Q1031=
200712120220 METAR ESMX 120220Z AUTO 03007KT 9999NDV BKN007/// OVC025/// 02/01 Q1031=
200712120150 METAR ESMX 120150Z AUTO 01007KT 9999NDV OVC007/// 02/01 Q1031=
200712120120 METAR ESMX 120120Z AUTO 02006KT 9999NDV BKN007/// OVC010/// 02/01 Q1031=
200712120050 METAR ESMX 120050Z 01007KT 9999 OVC007 02/01 Q1031=
200712120020 METAR ESMX 120020Z 02006KT 9999 FEW005 BKN007 OVC009 02/01 Q1031=
200712112350 METAR ESMX 112350Z 02006KT 9999 BKN006 OVC008 02/01 Q1030=
200712112320 METAR ESMX 112320Z 02008KT 9999 OVC006 01/00 Q1030=
200712112250 METAR ESMX 112250Z 01007KT 9999 OVC006 01/00 Q1030=
200712112220 METAR ESMX 112220Z 01008KT 9999 OVC006 01/00 Q1029=
200712112150 METAR ESMX 112150Z 02005KT 9999 BKN008 OVC011 01/M00 Q1029=
200712112120 METAR ESMX 112120Z 03004KT 010V070 9999 FEW009 BKN011 OVC015 01/M00 Q1029=
200712112050 METAR ESMX 112050Z 03007KT 9999 FEW007 BKN008 OVC011 01/M00 Q1028=
200712112020 METAR ESMX 112020Z 02007KT 9999 -SN OVC015 01/M01 Q1028=
200712111950 METAR ESMX 111950Z 01008KT 3300 -SN FEW007 SCT009 BKN012 00/M00 Q1028=
200712111920 METAR ESMX 111920Z 01010KT 9999 FEW005 OVC008 01/M00 Q1027=
200712111850 METAR ESMX 111850Z 36011KT 9999 BKN006 OVC008 01/M00 Q1027=
200712111820 METAR ESMX 111820Z 01011KT 9999 BKN006 OVC010 02/00 Q1026=
200712111750 METAR ESMX 111750Z 02009KT 9999 FEW007 OVC009 02/01 Q1026=
200712111720 METAR ESMX 111720Z 01011KT 9999 OVC010 03/02 Q1025=
200712111650 METAR ESMX 111650Z 36010KT 9999 FEW009 BKN011 OVC015 03/02 Q1025=
200712111620 METAR ESMX 111620Z 35008KT 9999 SCT016 OVC021 03/02 Q1024=
200712111550 METAR ESMX 111550Z 36008KT 9999 OVC020 03/02 Q1024=
200712111520 METAR ESMX 111520Z 36007KT 9999 FEW022 OVC025 04/03 Q1024=
200712111450 METAR ESMX 111450Z 35006KT 9999 OVC026 03/03 Q1023=
200712111420 METAR ESMX 111420Z 36005KT 9999 OVC029 04/03 Q1023=
200712111350 METAR ESMX 111350Z 36005KT 9999 FEW007 OVC031 04/03 Q1022=
200712111320 METAR ESMX 111320Z 36005KT 9999 OVC031 04/03 Q1022=
200712111250 METAR ESMX 111250Z 36005KT 9999 OVC032 04/03 Q1022=
200712111220 METAR ESMX 111220Z 01005KT 9999 OVC030 04/03 Q1021=
200712111150 METAR ESMX 111150Z 01005KT 9999 OVC031 04/02 Q1021=
200712111120 METAR ESMX 111120Z 36004KT 9999 OVC031 04/02 Q1021=
200712111050 METAR ESMX 111050Z 35004KT 9999 OVC032 04/02 Q1020=
200712111020 METAR ESMX 111020Z 36004KT 9999 OVC030 03/02 Q1020=
200712110950 METAR ESMX 110950Z 34004KT 9999 OVC030 03/02 Q1020=
200712110920 METAR ESMX 110920Z 34004KT 9999 OVC031 03/03 Q1020=
200712110850 METAR ESMX 110850Z 34002KT 9999 OVC029 03/02 Q1019=
200712110820 METAR ESMX 110820Z 34002KT 9999 BR OVC028 02/02 Q1018=
200712110750 METAR ESMX 110750Z 34001KT 8000 BR OVC030 02/02 Q1018=
200712110720 METAR ESMX 110720Z 33002KT 8000 BR OVC026 02/02 Q1018=
200712110650 METAR ESMX 110650Z 00000KT 8000 BR OVC025 02/02 Q1017=
200712110620 METAR ESMX 110620Z 00000KT 8000 OVC025 02/02 Q1017=
200712110550 METAR ESMX 110550Z 36002KT 9999 BR OVC025 02/02 Q1016=
200712110520 METAR ESMX 110520Z 00000KT 9000 BR OVC024 02/02 Q1016=
200712110450 METAR ESMX 110450Z 03002KT 9999 OVC021 02/02 Q1015=
200712110420 METAR ESMX 110420Z 35002KT 9999 OVC020 02/02 Q1015=
200712110350 METAR ESMX 110350Z AUTO VRB01KT 9999NDV OVC020/// 03/02 Q1014=
200712110320 METAR ESMX 110320Z AUTO VRB02KT 9999NDV OVC016/// 03/02 Q1014=
200712110250 METAR ESMX 110250Z AUTO VRB02KT 9999NDV OVC013/// 03/02 Q1014=
200712110220 METAR ESMX 110220Z AUTO 06003KT 020V120 9999NDV OVC014/// 03/02 Q1014=
200712110150 METAR ESMX 110150Z 04003KT 9999 OVC010 03/02 Q1013=
200712110120 METAR ESMX 110120Z 02003KT 9999 OVC010 03/02 Q1013=
200712110050 METAR ESMX 110050Z 03004KT 9999 OVC011 03/02 Q1012=
200712110020 METAR ESMX 110020Z 02003KT 9999 OVC012 03/02 Q1012=
200712102350 METAR ESMX 102350Z 04003KT 9999 OVC013 03/02 Q1012=
200712102320 METAR ESMX 102320Z 01003KT 9999 OVC014 03/03 Q1011=
200712102250 METAR ESMX 102250Z 36003KT 9000 BR OVC015 03/03 Q1011=
200712102220 METAR ESMX 102220Z VRB01KT 6000 BR OVC016 03/03 Q1011=
200712102150 METAR ESMX 102150Z 36004KT 6000 BR FEW004 OVC016 03/03 Q1011=
200712102120 METAR ESMX 102120Z 00000KT 6000 BR OVC016 03/03 Q1010=
200712102050 METAR ESMX 102050Z VRB02KT 6000 BR OVC015 03/03 Q1010=
200712102020 METAR ESMX 102020Z 02003KT 6000 BR OVC015 03/03 Q1009=
200712101950 METAR ESMX 101950Z 36005KT 4400 BR FEW002 OVC015 03/03 Q1009=
200712101920 METAR ESMX 101920Z 03003KT 4500 BR FEW002 OVC015 03/03 Q1009=
200712101850 METAR ESMX 101850Z 02002KT 4500 BR FEW002 OVC015 03/03 Q1008=
200712101820 METAR ESMX 101820Z VRB02KT 3800 BR SCT002 OVC016 04/03 Q1008=
200712101750 METAR ESMX 101750Z VRB02KT 3900 BR SCT002 OVC015 04/03 Q1007=
200712101720 METAR ESMX 101720Z 04003KT 360V080 4200 BR FEW002 OVC015 04/03 Q1007=
200712101650 METAR ESMX 101650Z VRB01KT 4500 BR FEW005 OVC015 04/03 Q1007=
200712101620 METAR ESMX 101620Z 01003KT 4000 BR FEW002 OVC015 04/03 Q1006=
200712101550 METAR ESMX 101550Z 00000KT 5000 BR OVC015 04/03 Q1006=
200712101520 METAR ESMX 101520Z 01002KT 5000 BR OVC015 04/03 Q1006=
200712101450 METAR ESMX 101450Z VRB02KT 5000 BR SCT005 OVC015 04/03 Q1005=
200712101420 METAR ESMX 101420Z VRB02KT 5000 BR OVC004 04/03 Q1005=
200712101350 METAR ESMX 101350Z VRB01KT 5000 BR FEW002 BKN006 OVC008 04/03 Q1004=
200712101320 METAR ESMX 101320Z 03002KT 6000 BR SCT003 BKN007 OVC009 04/03 Q1004=
200712101250 METAR ESMX 101250Z 32001KT 8000 BR SCT007 BKN016 04/03 Q1004=
200712101220 METAR ESMX 101220Z 00000KT 6000 BR FEW003 OVC004 04/04 Q1003=
200712101150 METAR ESMX 101150Z 18004KT 140V210 7000 BR OVC003 04/03 Q1003=
200712101120 METAR ESMX 101120Z 16003KT 110V200 6000 BR OVC002 04/03 Q1003=
200712101050 METAR ESMX 101050Z 18003KT 120V210 5000 BR OVC002 03/03 Q1002=
200712101020 METAR ESMX 101020Z 21006KT 2600 BR OVC002 03/03 Q1002=
200712100950 METAR ESMX 100950Z 20004KT 2900 BR OVC002 03/03 Q1002=
200712100920 METAR ESMX 100920Z 22005KT 2300 BR OVC002 03/03 Q1001=
200712100850 METAR ESMX 100850Z 20004KT 170V230 3900 BR OVC002 04/04 Q1001=
200712100820 METAR ESMX 100820Z 22004KT 190V260 5000 BR OVC002 04/04 Q1000=
200712100750 METAR ESMX 100750Z 23003KT 6000 BR OVC002 04/04 Q1000=
200712100720 METAR ESMX 100720Z 20004KT 0900 R01/P2000U R19/P2000U VV002 04/04 Q0999=
200712100650 METAR ESMX 100650Z 19003KT 0750 R01/P2000D R19/P2000D FG VV002 04/04 Q0998=
200712100620 METAR ESMX 100620Z 19003KT 0400 R01/1400U R19/1500N FG VV002 04/04 Q0998=
200712100550 METAR ESMX 100550Z 22002KT 0650 R01/1900U R19/P2000U FG VV002 04/04 Q0997=
200712100520 METAR ESMX 100520Z VRB02KT 0700 R01/P2000N R19/P2000U FG VV002 04/04 Q0997=
200712100450 METAR ESMX 100450Z 20003KT 0700 R01/P2000D R19/P2000D FG VV002 04/04 Q0996=
200712100420 METAR ESMX 100420Z 18002KT 1000 R01/P2000U R19/P2000D DZ FG VV002 04/04 Q0996=
200712100350 METAR ESMX 100350Z AUTO 17003KT 2000NDV -DZ OVC001/// 04/04 Q0996=
200712100320 METAR ESMX 100320Z AUTO 17003KT 3800NDV -DZ VV002 04/04 Q0995 RERA=
200712100250 METAR ESMX 100250Z AUTO VRB02KT 1100NDV R01/P2000U R19/P2000D DZ VV002 04/04 Q0995 RERA=
200712100220 METAR ESMX 100220Z AUTO 15003KT 1300NDV R01/P2000D R19/P2000N -RA OVC001/// 04/04 Q0995 REDZ=
200712100150 METAR ESMX 100150Z 15004KT 1900 BR VV003 04/04 Q0995=
200712100120 METAR ESMX 100120Z 16003KT 2800 BR OVC001 04/04 Q0994=
200712100050 METAR ESMX 100050Z 16002KT 4900 -DZ OVC002 04/03 Q0994=
200712100020 METAR ESMX 100020Z 16002KT 6000 -DZ OVC002 04/03 Q0994=
200712092350 METAR ESMX 092350Z 17003KT 5000 DZ OVC003 04/03 Q0994 RERA=
200712092320 METAR ESMX 092320Z 16003KT 6000 -RA OVC003 04/03 Q0993=
200712092250 METAR ESMX 092250Z 16003KT 7000 -DZ SCT002 OVC004 04/03 Q0993=
200712092220 METAR ESMX 092220Z 14003KT 100V170 7000 BR BKN002 OVC004 04/03 Q0993 REDZ=
200712092150 METAR ESMX 092150Z 14002KT 4000 DZ OVC003 04/03 Q0992=
200712092120 METAR ESMX 092120Z 13002KT 3900 DZ OVC003 04/03 Q0992=
200712092050 METAR ESMX 092050Z 14003KT 6000 RA SCT003 OVC006 03/03 Q0992=
200712092020 METAR ESMX 092020Z 13003KT 090V170 7000 -DZ OVC003 03/03 Q0992=
200712091950 METAR ESMX 091950Z 13003KT 7000 DZ OVC003 03/03 Q0991=
200712091920 METAR ESMX 091920Z 13003KT 7000 -RA OVC003 03/03 Q0991=
200712091850 METAR ESMX 091850Z 13004KT 6000 -RA OVC003 03/03 Q0991=
200712091820 METAR ESMX 091820Z 13003KT 8000 BR SCT002 OVC003 03/02 Q0991=
200712091750 METAR ESMX 091750Z 11004KT 050V150 9999 OVC004 03/02 Q0991 RERA REDZ=
200712091720 METAR ESMX 091720Z 13005KT 080V190 9000 -RA OVC004 03/02 Q0991=
200712091650 METAR ESMX 091650Z 12004KT 070V160 9000 OVC004 03/02 Q0990=
200712091620 METAR ESMX 091620Z 12004KT 070V170 9999 OVC004 02/02 Q0990 REDZ=
200712091550 METAR ESMX 091550Z 12005KT 080V160 4600 -DZ SCT004 BKN007 OVC008 02/02 Q0990 RERA=
200712091450 METAR ESMX 091450Z 13006KT 070V160 9999 -RA FEW005 OVC007 03/02 Q0990=
200712091420 METAR ESMX 091420Z 13006KT 080V190 6000 RA BKN006 OVC009 03/02 Q0990 REDZ=
200712091350 METAR ESMX 091350Z 14005KT 090V190 9999 DZ BKN006 OVC009 03/02 Q0990 RERA=
200712091320 METAR ESMX 091320Z 14005KT 080V190 9000 -DZ BKN007 OVC011 03/02 Q0990 RERA=
200712091250 METAR ESMX 091250Z 13006KT 100V190 9999 SCT009 OVC014 03/02 Q0990=
200712091220 METAR ESMX 091220Z 14008KT 100V210 9999 FEW010 BKN014 OVC020 04/01 Q0990=
200712091150 METAR ESMX 091150Z 14006KT 080V180 9999 SCT010 BKN017 04/02 Q0990=
200712091120 METAR ESMX 091120Z AUTO 14006KT 100V190 9999NDV -DZ OVC011/// 04/02 Q0990=
200712091050 METAR ESMX 091050Z AUTO 12006KT 070V190 9999NDV -DZ FEW013/// SCT015/// BKN018/// 04/02 Q0990 RERA=
200712091020 METAR ESMX 091020Z AUTO 13006KT 080V170 9999NDV FEW013/// SCT016/// BKN019/// 04/01 Q0990=
200712090950 METAR ESMX 090950Z AUTO 13007KT 080V200 9999NDV FEW012/// SCT016/// BKN018/// 04/02 Q0991=
200712090920 METAR ESMX 090920Z AUTO 13006KT 090V210 9999NDV FEW011/// SCT015/// BKN067/// 04/02 Q0991=
200712090850 METAR ESMX 090850Z AUTO 14007KT 100V170 9999NDV SCT010/// BKN014/// BKN017/// 04/02 Q0991=
200712090820 METAR ESMX 090820Z AUTO 14006KT 100V180 9999NDV FEW011/// SCT014/// BKN087/// 04/02 Q0991=
200712090750 METAR ESMX 090750Z AUTO 14007KT 100V180 9999NDV FEW009/// BKN011/// 03/02 Q0991=
200712090720 METAR ESMX 090720Z AUTO 14007KT 080V190 9999NDV FEW008/// BKN010/// BKN014/// 03/02 Q0991=
200712090650 METAR ESMX 090650Z AUTO 13006KT 070V190 9999NDV FEW007/// SCT009/// OVC010/// 03/02 Q0991=
200712090620 METAR ESMX 090620Z AUTO 14006KT 060V170 9999NDV FEW007/// BKN008/// BKN011/// 03/02 Q0991=
200712090550 METAR ESMX 090550Z AUTO 14006KT 080V200 9999NDV OVC005/// 03/02 Q0992=
200712090520 METAR ESMX 090520Z AUTO 14004KT 100V170 9000NDV BR FEW006/// SCT007/// BKN009/// 03/02 Q0992=
200712090450 METAR ESMX 090450Z AUTO 14005KT 100V180 8000NDV BR FEW005/// BKN006/// 03/02 Q0992=
200712090420 METAR ESMX 090420Z AUTO 14005KT 100V180 9000NDV FEW005/// SCT007/// BKN009/// 03/02 Q0993=
200712090350 METAR ESMX 090350Z AUTO 15004KT 110V180 9999NDV FEW006/// SCT008/// BKN017/// 03/02 Q0993=
200712090320 METAR ESMX 090320Z AUTO 16004KT 120V190 9999NDV FEW006/// SCT008/// BKN010/// 03/02 Q0993=
200712090250 METAR ESMX 090250Z AUTO 17006KT 120V190 9999NDV FEW005/// SCT007/// BKN012/// 03/02 Q0993 RERA REDZ=
200712090220 METAR ESMX 090220Z AUTO 17005KT 140V200 9999NDV OVC006/// 03/02 Q0994 REDZ=
200712090150 METAR ESMX 090150Z AUTO 17006KT 9999NDV SCT005/// BKN014/// OVC031/// 03/02 Q0994=
200712090120 METAR ESMX 090120Z AUTO 16006KT 9999NDV FEW006/// SCT008/// BKN010/// 03/02 Q0994=
200712090050 METAR ESMX 090050Z AUTO 18008KT 9999NDV FEW006/// BKN007/// OVC010/// 03/02 Q0994=
200712090020 METAR ESMX 090020Z AUTO 18006KT 9999NDV OVC005/// 03/02 Q0994=
200712082350 METAR ESMX 082350Z AUTO 18006KT 140V210 9999NDV OVC006/// 03/02 Q0995=
200712082320 METAR ESMX 082320Z AUTO 19007KT 9999NDV OVC005/// 03/02 Q0995=
200712082250 METAR ESMX 082250Z AUTO 20010KT 9999NDV OVC006/// 03/02 Q0995=
200712082220 METAR ESMX 082220Z AUTO 19008KT 9999NDV SCT006/// BKN009/// OVC051/// 03/02 Q0995=
200712082150 METAR ESMX 082150Z AUTO 20011KT 9999NDV FEW007/// BKN009/// OVC013/// 03/02 Q0995=
200712082120 METAR ESMX 082120Z AUTO 21009KT 9999NDV FEW008/// BKN048/// 03/02 Q0995=
200712082050 METAR ESMX 082050Z AUTO 20008KT 9999NDV FEW012/// SCT044/// BKN050/// 02/02 Q0995=
200712082020 METAR ESMX 082020Z AUTO 20007KT 9999NDV OVC048/// 02/01 Q0995=
200712081950 METAR ESMX 081950Z AUTO 19006KT 9999NDV BKN047/// 02/01 Q0995=
200712081920 METAR ESMX 081920Z AUTO 22006KT 9999NDV FEW018/// SCT048/// 02/01 Q0994=
200712081850 METAR ESMX 081850Z AUTO 23007KT 9999NDV FEW012/// SCT019/// BKN050/// 02/01 Q0995=
200712081820 METAR ESMX 081820Z AUTO 24009KT 200V280 9999NDV FEW011/// SCT014/// BKN017/// 03/02 Q0994=
200712081750 METAR ESMX 081750Z AUTO 24011KT 200V280 9999NDV FEW010/// SCT015/// BKN019/// 03/02 Q0994=
200712081720 METAR ESMX 081720Z AUTO 22010KT 9999NDV FEW010/// SCT014/// OVC017/// 04/03 Q0994 RERA REDZ=
200712081650 METAR ESMX 081650Z AUTO 23009KT 190V260 9999NDV FEW008/// SCT011/// OVC013/// 04/03 Q0993 RERA REDZ=
200712081620 METAR ESMX 081620Z AUTO 23010KT 9999NDV -RA FEW010/// BKN014/// OVC024/// 04/03 Q0993=
200712081550 METAR ESMX 081550Z AUTO 23008KT 200V260 9999NDV FEW010/// BKN012/// BKN019/// 04/03 Q0993=
200712081520 METAR ESMX 081520Z AUTO 24009KT 9999NDV FEW012/// SCT015/// BKN017/// 04/03 Q0992=
200712081450 METAR ESMX 081450Z AUTO 23009KT 9999NDV FEW011/// SCT015/// BKN046/// 04/03 Q0991=
200712081420 METAR ESMX 081420Z AUTO 24009KT 200V260 9999NDV FEW010/// SCT014/// BKN016/// 04/03 Q0991=
200712081350 METAR ESMX 081350Z AUTO 25007KT 9999NDV FEW011/// BKN017/// OVC021/// 04/03 Q0990=
200712081320 METAR ESMX 081320Z AUTO 24007KT 210V290 9999NDV FEW009/// OVC013/// 04/03 Q0990 RERA REDZ=
200712081250 METAR ESMX 081250Z AUTO 25010KT 220V290 9999NDV -RA FEW008/// SCT011/// OVC014/// 04/03 Q0990 REDZ=
200712081220 METAR ESMX 081220Z AUTO 25011KT 210V280 9000NDV -RA FEW007/// SCT009/// BKN011/// 04/03 Q0989 REDZ=
200712081150 METAR ESMX 081150Z AUTO 25010KT 220V290 9999NDV FEW009/// BKN011/// OVC015/// 05/03 Q0989=
200712081120 METAR ESMX 081120Z AUTO 26009KT 230V290 9999NDV FEW009/// OVC012/// 05/03 Q0988=
200712081050 METAR ESMX 081050Z AUTO 26009KT 220V300 9999NDV FEW009/// SCT012/// BKN015/// 05/03 Q0988=
200712081020 METAR ESMX 081020Z AUTO 26007KT 230V290 9999NDV FEW010/// BKN015/// BKN073/// 05/04 Q0987=
200712080950 METAR ESMX 080950Z AUTO 27011KT 240V300 9999NDV FEW009/// BKN012/// OVC017/// 05/04 Q0986=
200712080920 METAR ESMX 080920Z AUTO 27008KT 230V310 9999NDV -RA FEW005/// SCT007/// BKN009/// 05/04 Q0986 REDZ=
200712080850 METAR ESMX 080850Z AUTO 26008KT 9999NDV BKN005/// OVC008/// 05/04 Q0985 REDZ=
200712080820 METAR ESMX 080820Z AUTO 24005KT 9000NDV -RA FEW005/// SCT009/// BKN017/// 05/04 Q0985 REDZ=
200712080750 METAR ESMX 080750Z AUTO 24004KT 210V280 7000NDV -RA FEW003/// SCT005/// BKN006/// 05/04 Q0984 REDZ=
200712080720 METAR ESMX 080720Z AUTO 21006KT 4900NDV DZ FEW004/// SCT007/// BKN009/// 05/04 Q0984 RERA=
200712080650 METAR ESMX 080650Z AUTO 20006KT 5000NDV BR FEW007/// SCT013/// OVC020/// 05/04 Q0983 REDZ RERA=
200712080620 METAR ESMX 080620Z AUTO 19005KT 5000NDV DZ FEW006/// SCT007/// BKN009/// 05/04 Q0983 RERA=
200712080550 METAR ESMX 080550Z AUTO 18003KT 4000NDV -RA FEW008/// SCT016/// BKN019/// 05/04 Q0983 REDZ=
200712080520 METAR ESMX 080520Z AUTO 18007KT 7000NDV -RA FEW006/// SCT008/// BKN009/// 05/04 Q0983 REDZ=
200712080450 METAR ESMX 080450Z AUTO 19006KT 6000NDV FEW006/// SCT008/// BKN010/// 05/04 Q0983=
200712080420 METAR ESMX 080420Z AUTO 20008KT 9999NDV FEW007/// SCT010/// BKN012/// 05/04 Q0983 RERA REDZ=
200712080350 METAR ESMX 080350Z AUTO 20010KT 9999NDV FEW007/// SCT012/// BKN014/// 05/04 Q0983 RERA=
200712080320 METAR ESMX 080320Z AUTO 20010KT 5000NDV FEW008/// SCT013/// BKN026/// 05/04 Q0983 RERA REDZ=
200712080250 METAR ESMX 080250Z AUTO 21009KT 9999NDV -RA FEW006/// SCT009/// BKN011/// 05/05 Q0983=
200712080220 METAR ESMX 080220Z AUTO 21008KT 8000NDV FEW005/// SCT009/// BKN015/// 05/04 Q0982 RERA REDZ=
200712080150 METAR ESMX 080150Z AUTO 22007KT 5000NDV FEW006/// SCT010/// BKN017/// 05/04 Q0982 RERA REDZ=
200712080120 METAR ESMX 080120Z AUTO 20007KT 7000NDV BR FEW005/// SCT009/// BKN011/// 05/04 Q0982 RERA REDZ=
200712080050 METAR ESMX 080050Z AUTO 20008KT 6000NDV -RA FEW005/// SCT007/// BKN009/// 05/04 Q0982 REDZ=
200712080020 METAR ESMX 080020Z AUTO 21007KT 9000NDV BR FEW005/// SCT006/// BKN008/// 05/04 Q0981=
200712072350 METAR ESMX 072350Z AUTO 21008KT 6000NDV BR FEW006/// SCT007/// BKN009/// 05/04 Q0981 REDZ=
200712072320 METAR ESMX 072320Z AUTO 22006KT 6000NDV BR FEW009/// SCT012/// BKN015/// 05/04 Q0981=
200712072250 METAR ESMX 072250Z AUTO 22007KT 190V250 9999NDV FEW008/// BKN011/// OVC020/// 05/04 Q0981=
200712072220 METAR ESMX 072220Z AUTO 23007KT 190V260 9999NDV FEW010/// SCT012/// BKN015/// 05/04 Q0980=
200712072150 METAR ESMX 072150Z AUTO 24008KT 9999NDV FEW011/// SCT014/// BKN017/// 05/04 Q0980=
200712072120 METAR ESMX 072120Z AUTO 26010KT 9999NDV FEW011/// BKN014/// BKN064/// 06/04 Q0979=
200712072050 METAR ESMX 072050Z AUTO 25010KT 9999NDV FEW009/// SCT011/// BKN014/// 06/05 Q0979=
200712072020 METAR ESMX 072020Z AUTO 26011KT 9999NDV BR FEW005/// SCT007/// BKN009/// 06/05 Q0978 REDZ=
200712071950 METAR ESMX 071950Z AUTO 25009KT 210V290 3100NDV DZ OVC004/// 06/06 Q0978 RERA=
200712071920 METAR ESMX 071920Z 26008KT 5000 -RA BKN005 OVC010 06/05 Q0977=
200712071850 METAR ESMX 071850Z 26009KT 230V290 9999 SCT007 BKN014 BKN026 06/05 Q0977=
200712071820 METAR ESMX 071820Z 28011KT 9999 FEW006 SCT008 BKN010 06/05 Q0976=
200712071750 METAR ESMX 071750Z 28008KT 250V320 9999 FEW005 SCT007 BKN010 06/05 Q0975=
200712071720 METAR ESMX 071720Z 28009KT 9999 -RA FEW007 BKN009 OVC012 06/05 Q0975=
200712071650 METAR ESMX 071650Z 29008KT 260V320 9999 -SHRA FEW004 SCT007 BKN011 06/06 Q0974=
200712071620 METAR ESMX 071620Z 29008KT 3000 BR FEW002 BKN004 OVC006 06/06 Q0974=
200712071550 METAR ESMX 071550Z 30006KT 9999 BR SCT001 OVC004 06/06 Q0973 REDZ RERA=
200712071520 METAR ESMX 071520Z 31005KT 2900 DZ OVC002 06/06 Q0973=
200712071450 METAR ESMX 071450Z 31003KT 4500 -DZ BKN002 OVC003 06/06 Q0972=
200712071420 METAR ESMX 071420Z 32003KT 2400 -RA BKN002 OVC003 06/06 Q0972=
200712071350 METAR ESMX 071350Z 00000KT 3400 RA, BR OVC002 07/06 Q0973 REDZ=
200712071320 METAR ESMX 071320Z VRB01KT 6000 DZ, BR FEW002 OVC004 07/06 Q0973 RERA=
200712071250 METAR ESMX 071250Z VRB02KT 4600 DZ, BR FEW003 BKN005 OVC006 07/06 Q0973 RERA=
200712071220 METAR ESMX 071220Z 13004KT 090V170 7000 RA, BR FEW002 OVC005 07/06 Q0974 REDZ=
200712071150 METAR ESMX 071150Z 15004KT 100V200 3200 DZ, BR FEW002 OVC004 07/06 Q0974 RERA=
200712071120 METAR ESMX 071120Z 13005KT 090V170 2500 -RA, BR BKN003 07/06 Q0975 REDZ=
200712071050 METAR ESMX 071050Z 12006KT 060V190 2400 -RA FEW003 OVC004 07/06 Q0976=
200712071020 METAR ESMX 071020Z 13004KT 090V190 6000 BR, -RA BKN005 07/06 Q0977 RERA REDZ=
200712070950 METAR ESMX 070950Z 13004KT 080V170 7000 -RA OVC004 06/06 Q0978 REDZ=
200712070920 METAR ESMX 070920Z 15006KT 110V190 6000 DZ FEW003 OVC005 07/06 Q0979 RERA=
200712070850 METAR ESMX 070850Z 16008KT 140V200 9000 -RA BKN003 07/06 Q0980=
200712070820 METAR ESMX 070820Z 16008KT 110V190 9999 -RA BKN003 06/06 Q0980 REDZ=
200712070750 METAR ESMX 070750Z 17008KT 9999 DZ OVC003 06/06 Q0981 RERA=
200712070720 METAR ESMX 070720Z 16008KT 120V190 9999 DZ OVC003 06/06 Q0982 RERA=
200712070650 METAR ESMX 070650Z 16008KT 110V200 9000 -RA OVC003 06/06 Q0983 REDZ=
200712070620 METAR ESMX 070620Z 16009KT 110V200 7000 -RA OVC003 06/06 Q0983 REDZ=
200712070550 METAR ESMX 070550Z 16009KT 110V190 8000 -RA BKN004 06/06 Q0984=
200712070520 METAR ESMX 070520Z 16009KT 130V190 9999 -RA FEW005 OVC006 06/06 Q0985=
200712070450 METAR ESMX 070450Z 16009KT 120V190 9000 -RA FEW004 BKN006 06/05 Q0985=
200712070420 METAR ESMX 070420Z AUTO 16009KT 120V190 9000NDV -RA FEW004/// SCT006/// BKN007/// 06/05 Q0986=
200712070350 METAR ESMX 070350Z AUTO 17010KT 120V190 6000NDV RA FEW004/// BKN006/// OVC009/// 06/05 Q0987 REDZ=
200712070320 METAR ESMX 070320Z AUTO 16010KT 130V200 5000NDV DZ FEW003/// BKN005/// OVC007/// 06/05 Q0988 RERA=
200712070250 METAR ESMX 070250Z AUTO 16011KT 140V200 4200NDV DZ BKN002/// OVC004/// 06/05 Q0988 RERA=
200712070220 METAR ESMX 070220Z AUTO 16012KT 130V200 5000NDV BR OVC002/// 06/05 Q0989=
200712070150 METAR ESMX 070150Z AUTO 17011KT 140V200 5000NDV BR OVC003/// 06/05 Q0990=
200712070120 METAR ESMX 070120Z 17011KT 140V200 7000 BR OVC004 06/05 Q0991=
200712070050 METAR ESMX 070050Z 17009KT 140V200 7000 BR BKN006 06/05 Q0992=
200712070020 METAR ESMX 070020Z 17010KT 140V200 8000 BR BKN007 OVC010 06/05 Q0993=
200712062350 METAR ESMX 062350Z 17011KT 140V200 8000 BR BKN007 BKN010 06/04 Q0994=
200712062320 METAR ESMX 062320Z 18011KT 140V210 8000 BR BKN007 OVC012 06/05 Q0995=
200712062250 METAR ESMX 062250Z 18010KT 150V210 8000 BR BKN008 06/05 Q0995=
200712062220 METAR ESMX 062220Z 19009KT 9000 FEW008 BKN010 OVC028 06/05 Q0996=
200712062150 METAR ESMX 062150Z 18010KT 9000 BR BKN009 05/04 Q0996=
200712062120 METAR ESMX 062120Z 19010KT 9999 FEW008 BKN012 06/04 Q0996=
200712062050 METAR ESMX 062050Z 20012KT 8000 BR SCT008 OVC011 06/05 Q0997=
200712062020 METAR ESMX 062020Z 19010KT 9999 FEW009 OVC018 06/05 Q0998=
200712061950 METAR ESMX 061950Z 20011KT 9999 FEW010 BKN016 06/05 Q0998=
200712061920 METAR ESMX 061920Z 20010KT 9999 FEW011 BKN016 06/05 Q0998=
200712061850 METAR ESMX 061850Z 21012KT 9999 FEW011 OVC018 06/05 Q0998=
200712061820 METAR ESMX 061820Z 20013KT 9999 FEW011 SCT016 BKN019 06/05 Q0998=
200712061750 METAR ESMX 061750Z 20009KT 7000 -RA FEW010 BKN017 06/05 Q0998 RERA REDZ=
200712061720 METAR ESMX 061720Z 20011KT 9999 BR FEW009 SCT020 BKN029 06/05 Q0999 RERA REDZ=
200712061650 METAR ESMX 061650Z 21011KT 6000 -RA, BR FEW010 SCT013 BKN019 06/05 Q0999 REDZ=
200712061620 METAR ESMX 061620Z 21010KT 8000 BR SCT010 BKN013 BKN017 06/05 Q0999 RERA REDZ=
200712061550 METAR ESMX 061550Z 22011KT 8000 DZ, BR FEW010 SCT015 BKN017 07/05 Q0999 RERA REDZ=
200712061520 METAR ESMX 061520Z 21012KT 9999 FEW014 SCT019 BKN027 07/05 Q0999=
200712061450 METAR ESMX 061450Z 22009KT 9999 FEW015 SCT019 BKN024 07/05 Q0999=
200712061420 METAR ESMX 061420Z 22011KT 9999 FEW015 SCT023 BKN036 07/05 Q0999=
200712061350 METAR ESMX 061350Z 22011KT 9999 FEW013 SCT017 BKN028 07/06 Q0999=
200712061320 METAR ESMX 061320Z 21010KT 9000 BR FEW011 BKN017 07/06 Q0999=
200712061250 METAR ESMX 061250Z 22013KT 9999 BR FEW010 SCT013 BKN020 08/06 Q0999 RERA REDZ=
200712061220 METAR ESMX 061220Z 22011KT 9999 DZ FEW010 BKN014 OVC020 08/06 Q0999=
200712061150 METAR ESMX 061150Z 22011KT 200V260 9999 FEW007 SCT012 BKN020 08/07 Q0999 REDZ=
200712061120 METAR ESMX 061120Z 21011KT 180V240 5000 DZ, BR BKN007 08/07 Q0999 RERA=
200712061050 METAR ESMX 061050Z 21011KT 170V240 8000 DZ FEW005 SCT007 BKN010 08/07 Q0999 RERA=
200712061020 METAR ESMX 061020Z 21011KT 4000 -RA FEW006 BKN008 OVC011 08/07 Q0999 REDZ=
200712060950 METAR ESMX 060950Z 22013KT 200V260 4500 DZ FEW007 SCT008 BKN010 08/07 Q0999 RERA=
200712060920 METAR ESMX 060920Z 21013KT 5000 DZ FEW008 OVC010 07/06 Q0999=
200712060850 METAR ESMX 060850Z 20013KT 8000 -RA FEW010 BKN013 OVC022 08/06 Q0999=
200712060820 METAR ESMX 060820Z 21013KT 9999 FEW009 SCT013 BKN020 08/06 Q0999=
200712060750 METAR ESMX 060750Z 21013KT 9999 FEW010 SCT015 BKN020 08/06 Q0999=
200712060720 METAR ESMX 060720Z 20014KT 9999 BR FEW010 BKN012 OVC020 08/07 Q0999 RERA REDZ=
200712060650 METAR ESMX 060650Z 20013KT 9999 -RA FEW008 SCT010 BKN013 08/07 Q0999=
200712060620 METAR ESMX 060620Z 20013KT 9999 FEW010 SCT013 BKN017 08/07 Q0998 RERA REDZ=
200712060550 METAR ESMX 060550Z 21012KT 8000 -RADZ FEW010 SCT013 BKN020 08/07 Q0998=
200712060520 METAR ESMX 060520Z 21011KT 9999 FEW010 BKN017 08/07 Q0998=
200712060450 METAR ESMX 060450Z 20013KT 9999 FEW007 BKN012 08/07 Q0998=
200712060420 METAR ESMX 060420Z AUTO 20011KT 9999NDV -RA FEW007/// SCT009/// OVC011/// 08/07 Q0998=
200712060350 METAR ESMX 060350Z AUTO 19010KT 9000NDV FEW007/// SCT009/// BKN011/// 08/07 Q0998 RERA REDZ=
200712060320 METAR ESMX 060320Z AUTO 21011KT 9999NDV FEW008/// SCT011/// BKN014/// 08/07 Q0998=
200712060250 METAR ESMX 060250Z AUTO 21012KT 9999NDV FEW008/// BKN010/// OVC015/// 08/07 Q0998=
200712060220 METAR ESMX 060220Z AUTO 21012KT 9999NDV FEW005/// SCT007/// BKN008/// 08/08 Q0998 REDZ=
200712060150 METAR ESMX 060150Z AUTO 21012KT 5000NDV BR BKN006/// OVC010/// 08/08 Q0998=
200712060120 METAR ESMX 060120Z 20012KT 5000 -RA BR FEW005 OVC009 08/08 Q0998=
200712060050 METAR ESMX 060050Z 21014KT 5000 -RA BR FEW004 OVC007 08/08 Q0998=
200712060020 METAR ESMX 060020Z 20012KT 3500 -RA BR BKN005 OVC008 08/08 Q0998=
200712052350 METAR ESMX 052350Z 20013KT 9000 -RA BKN005 OVC009 08/08 Q0998=
200712052220 METAR ESMX 052220Z 20015KT 9000 -RA FEW004 OVC009 08/08 Q0999=
200712052150 METAR ESMX 052150Z 19014KT 150V210 3000 -DZRA BKN004 OVC007 08/08 Q0999=
200712052120 METAR ESMX 052120Z 19015KT 4000 -DZRA OVC005 08/08 Q0999=
200712052050 METAR ESMX 052050Z 19016KT 4500 -DZRA OVC005 08/08 Q1000 RERA=
200712052020 METAR ESMX 052020Z 18013KT 5000 DZRA FEW004 OVC008 08/08 Q1000=
200712051950 METAR ESMX 051950Z 18013KT 140V200 3100 DZ BR OVC005 08/08 Q1000=
200712051920 METAR ESMX 051920Z 18015KT 3100 DZ BR OVC004 08/08 Q1001=
200712051850 METAR ESMX 051850Z 18014KT 3600 DZ BR OVC004 09/08 Q1001=
200712051820 METAR ESMX 051820Z 19013KT 5000 BR FEW003 OVC005 08/08 Q1001 REDZ RERA=
200712051750 METAR ESMX 051750Z 19014KT CAVOK 08/08 Q1001 RERA=
200712051720 METAR ESMX 051720Z 18013KT 150V220 5000 BR OVC004 08/08 Q1002=
200712051650 METAR ESMX 051650Z 18014KT 4100 BR OVC004 08/08 Q1002=
200712051620 METAR ESMX 051620Z 18013KT 3500 BR OVC002 08/08 Q1002=
200712051550 METAR ESMX 051550Z 19014KT 2000 BR OVC002 08/08 Q1003=
200712051520 METAR ESMX 051520Z 19012KT 1700 R01/P2000U R19/P2000N BR OVC002 08/08 Q1003=
200712051450 METAR ESMX 051450Z 19012KT 1500 BR OVC002 08/07 Q1003 REDZ=
200712051420 METAR ESMX 051420Z 19013KT 2200 DZ OVC002 07/07 Q1003 RERA=
200712051350 METAR ESMX 051350Z 19013KT 1300 R01/P2000N R19/P2000D BR OVC002 07/07 Q1004=
200712051320 METAR ESMX 051320Z 19013KT 4500 BR OVC002 07/07 Q1004 REDZ=
200712051250 METAR ESMX 051250Z 19011KT 2600 DZ BKN001 OVC004 07/06 Q1004 RERA=
200712051220 METAR ESMX 051220Z 19013KT 2200 -DZ OVC002 06/06 Q1004 RERA=
200712051150 METAR ESMX 051150Z 18011KT 3000 BR OVC002 06/06 Q1004 REDZ=
200712051120 METAR ESMX 051120Z 18011KT 3000 -DZ OVC002 06/05 Q1005=
200712051050 METAR ESMX 051050Z 20012KT 150V230 2200 BR OVC003 05/05 Q1005=
200712051020 METAR ESMX 051020Z 19013KT 9999 BKN002 05/05 Q1005 REDZ=
200712050950 METAR ESMX 050950Z 19013KT 2300 DZ OVC002 05/05 Q1005 RERA=
200712050920 METAR ESMX 050920Z 19012KT 6000 BR OVC002 05/04 Q1006=
200712050850 METAR ESMX 050850Z 19012KT 9000 BR OVC002 04/04 Q1006 RERA REDZ=
200712050820 METAR ESMX 050820Z 19012KT 4700 -RA OVC002 04/04 Q1006=
200712050750 METAR ESMX 050750Z 18011KT 8000 BR OVC003 04/04 Q1006 RERA REDZ=
200712050720 METAR ESMX 050720Z 17010KT 5000 BR BKN004 04/03 Q1006 REDZ=
200712050650 METAR ESMX 050650Z 18011KT 3100 -DZ, BR OVC003 03/03 Q1007 RERA=
200712050620 METAR ESMX 050620Z 17009KT 130V200 7000 BR BKN005 OVC008 03/03 Q1007=
200712050550 METAR ESMX 050550Z 17009KT 8000 BR FEW004 SCT006 BKN008 03/03 Q1007=
200712050520 METAR ESMX 050520Z 17007KT 140V210 8000 BR FEW002 BKN005 03/02 Q1007=
200712050450 METAR ESMX 050450Z 17006KT 140V200 7000 BR OVC003 02/02 Q1008=
200712050420 METAR ESMX 050420Z AUTO 17005KT 1000NDV R01/P2000U R19/P2000U DZ VV001 02/01 Q1008 RERA=
200712050350 METAR ESMX 050350Z AUTO 16006KT 0750NDV R01/P2000D R19/P2000D FG VV001 01/01 Q1008=
200712050320 METAR ESMX 050320Z AUTO 18005KT 150V210 0750NDV R01/P2000N R19/P2000U FG VV001 01/01 Q1009=
200712050250 METAR ESMX 050250Z AUTO 17006KT 0700NDV R01/P2000N R19/P2000N FG VV001 01/01 Q1009=
200712050220 METAR ESMX 050220Z AUTO 19008KT 0800NDV R01/P2000N R19/P2000U FG VV001 01/01 Q1009=
200712050150 METAR ESMX 050150Z AUTO 19007KT 0200NDV R01/0900N R19/0800N FG VV001 01/01 Q1009=
200712050120 METAR ESMX 050120Z AUTO 18005KT 0250NDV R01/1000N R19/0900N FG VV001 01/01 Q1009=
200712050050 METAR ESMX 050050Z 18004KT 0300 R19/1100N FG VV002 01/01 Q1009=
200712050020 METAR ESMX 050020Z 20004KT 0200 R19/0750N FG VV002 00/00 Q1010=
200712042350 METAR ESMX 042350Z 21005KT 0200 R19/0800N FG VV002 00/00 Q1009=
200712042320 METAR ESMX 042320Z 22005KT 0300 R19/1000N FG VV002 00/00 Q1009=
200712042220 METAR ESMX 042220Z 19004KT 0400 R19/1100V1600U FZFG VV002 M00/M01 Q1009=
200712042150 METAR ESMX 042150Z 18005KT 0350 R19/1200N FZFG VV002 M01/M01 Q1009=
200712042120 METAR ESMX 042120Z 20005KT 0350 R19/1000VP2000D FZFG VV002 M01/M01 Q1009=
200712042050 METAR ESMX 042050Z 19004KT 9999 FEW003 SCT015 M01/M02 Q1009=
200712042020 METAR ESMX 042020Z 18003KT 9999 SCT001 BKN005 M01/M01 Q1009=
200712041950 METAR ESMX 041950Z 20005KT 9999 FEW004 M03/M03 Q1008=
200712041920 METAR ESMX 041920Z 21004KT CAVOK M02/M03 Q1008=
200712041850 METAR ESMX 041850Z 21004KT CAVOK M02/M03 Q1008=
200712041820 METAR ESMX 041820Z 22004KT CAVOK M02/M02 Q1007=
200712041750 METAR ESMX 041750Z 19003KT CAVOK M02/M02 Q1007=
200712041720 METAR ESMX 041720Z 22002KT 9999 FEW007 M01/M02 Q1007=
200712041650 METAR ESMX 041650Z 31003KT 9999 BKN007 M01/M01 Q1006=
200712041620 METAR ESMX 041620Z 30007KT 260V330 9999 OVC007 01/M00 Q1006=
200712041550 METAR ESMX 041550Z 29006KT 9999 OVC007 01/M00 Q1005=
200712041520 METAR ESMX 041520Z 30008KT 260V330 9999 OVC007 01/M00 Q1004=
200712041450 METAR ESMX 041450Z 29007KT 9999 OVC007 01/M00 Q1004=
200712041420 METAR ESMX 041420Z 28006KT 9999 OVC008 01/M00 Q1003=
200712041350 METAR ESMX 041350Z 29007KT 260V330 9999 OVC007 01/M00 Q1003=
200712041320 METAR ESMX 041320Z 30007KT 260V340 9999 OVC008 02/M00 Q1002=
200712041250 METAR ESMX 041250Z 28008KT 260V320 9999 OVC010 02/M00 Q1001=
200712041220 METAR ESMX 041220Z 29007KT 9999 OVC008 02/00 Q1001=
200712041150 METAR ESMX 041150Z 29009KT 9999 OVC010 01/M00 Q1000=
200712041120 METAR ESMX 041120Z 31007KT 9999 OVC010 02/00 Q0999=
200712041050 METAR ESMX 041050Z 31009KT 280V340 9999 BKN010 02/M00 Q0999=
200712041020 METAR ESMX 041020Z 31009KT 270V330 9999 BKN010 02/00 Q0998=
200712040950 METAR ESMX 040950Z 30006KT 270V330 9999 BKN010 02/00 Q0998=
200712040920 METAR ESMX 040920Z 30008KT 260V330 9999 OVC010 02/00 Q0997=
200712040850 METAR ESMX 040850Z 30010KT 270V330 9999 OVC008 02/00 Q0996=
200712040820 METAR ESMX 040820Z 30008KT 270V330 9999 OVC010 02/00 Q0995=
200712040750 METAR ESMX 040750Z 31008KT 9999 OVC010 02/01 Q0994=
200712040720 METAR ESMX 040720Z 30008KT 260V340 9999 BKN010 02/01 Q0993=
200712040650 METAR ESMX 040650Z 31009KT 260V340 9999 BKN010 OVC015 02/01 Q0992=
200712040620 METAR ESMX 040620Z 31009KT 280V340 9999 OVC009 02/01 Q0992=
200712040550 METAR ESMX 040550Z 30010KT 270V350 9999 FEW008 OVC010 02/01 Q0991=
200712040520 METAR ESMX 040520Z 31010KT 270V340 9999 OVC009 02/01 Q0990=
200712040450 METAR ESMX 040450Z 31009KT 9999 OVC010 02/01 Q0989=
200712040420 METAR ESMX 040420Z 31011KT 260V330 9999 OVC010 03/01 Q0989=
200712040350 METAR ESMX 040350Z AUTO 31010KT 280V340 9999NDV OVC010/// 03/01 Q0988=
200712040320 METAR ESMX 040320Z AUTO 30010KT 9999NDV FEW008/// SCT009/// BKN011/// 03/01 Q0987=
200712040250 METAR ESMX 040250Z AUTO 30011KT 280V340 9999NDV OVC008/// 03/01 Q0986=
200712040220 METAR ESMX 040220Z AUTO 30011KT 9999NDV OVC008/// 03/01 Q0986=
200712040150 METAR ESMX 040150Z 30011KT 9999 FEW009 OVC011 03/01 Q0985=
200712040120 METAR ESMX 040120Z 30011KT 9999 SCT008 OVC010 03/01 Q0984=
200712040050 METAR ESMX 040050Z 30011KT 270V330 9999 BKN009 OVC012 03/01 Q0984=
200712040020 METAR ESMX 040020Z 30012KT 9999 FEW008 OVC010 03/02 Q0983=
200712032350 METAR ESMX 032350Z 29011KT 9999 FEW008 BKN010 OVC013 03/02 Q0983=
200712032320 METAR ESMX 032320Z 29011KT 9999 SCT008 OVC011 03/02 Q0982=
200712032250 METAR ESMX 032250Z 30011KT 9999 SCT010 BKN014 OVC017 03/02 Q0982=
200712032220 METAR ESMX 032220Z 29010KT 9999 FEW009 BKN011 OVC015 03/02 Q0981=
200712032150 METAR ESMX 032150Z 29010KT 9999 BKN010 OVC016 03/02 Q0980=
200712032120 METAR ESMX 032120Z 30009KT 270V340 9999 FEW010 OVC014 03/02 Q0980=
200712032050 METAR ESMX 032050Z 30010KT 9999 OVC010 03/02 Q0979=
200712032020 METAR ESMX 032020Z 31011KT 9999 BKN010 03/02 Q0979=
200712031950 METAR ESMX 031950Z 30009KT 9999 FEW008 OVC010 03/02 Q0978=
200712031920 METAR ESMX 031920Z 30010KT 9999 FEW009 OVC011 03/02 Q0978=
200712031850 METAR ESMX 031850Z 30009KT 9999 -RA FEW008 BKN010 OVC015 03/02 Q0977=
200712031820 METAR ESMX 031820Z 30009KT 9999 -RA FEW008 SCT009 BKN011 03/02 Q0977=
200712031750 METAR ESMX 031750Z 30009KT 6000 DZ FEW006 SCT008 BKN030 02/02 Q0976=
200712031720 METAR ESMX 031720Z 30009KT 9999 FEW007 SCT009 BKN012 03/02 Q0976 RERA=
200712031650 METAR ESMX 031650Z 31009KT 9000 DZ FEW007 OVC010 03/02 Q0975 RERA=
200712031620 METAR ESMX 031620Z 31007KT 270V330 9000 DZ FEW006 SCT009 BKN011 03/02 Q0975 RERA=
200712031550 METAR ESMX 031550Z 30007KT 8000 -RA FEW005 SCT011 BKN016 02/02 Q0974 REDZ=
200712031520 METAR ESMX 031520Z 30006KT 8000 DZ FEW006 BKN015 02/02 Q0974 RERA=
200712031450 METAR ESMX 031450Z 31006KT 9999 -RA OVC004 02/01 Q0973=
200712031420 METAR ESMX 031420Z 32007KT 280V340 9000 -RA OVC005 02/01 Q0973=
200712031350 METAR ESMX 031350Z 33006KT 9999 -RA OVC005 02/02 Q0972=
200712031320 METAR ESMX 031320Z 33007KT 4800 DZ FEW003 OVC005 03/02 Q0972 RERA=
200712031250 METAR ESMX 031250Z 34007KT 5000 DZ OVC002 03/03 Q0972=
200712031220 METAR ESMX 031220Z 34006KT 4700 DZ OVC002 03/03 Q0971 RERA=
200712031120 METAR ESMX 031120Z 36005KT 7000 BR OVC002 04/03 Q0971=
200712031050 METAR ESMX 031050Z 01005KT 9999 OVC002 04/04 Q0971=
200712031020 METAR ESMX 031020Z 36005KT 7000 BR OVC002 04/03 Q0971=
200712030950 METAR ESMX 030950Z 01005KT 9999 OVC002 04/04 Q0971=
200712030920 METAR ESMX 030920Z 36004KT 9999 OVC002 04/04 Q0971=
200712030850 METAR ESMX 030850Z 01003KT 9999 OVC002 04/04 Q0971 REDZ=
200712030820 METAR ESMX 030820Z 02003KT 360V060 4200 -DZ, BR BKN002 04/03 Q0971=
200712030750 METAR ESMX 030750Z 03003KT 350V060 6000 -DZ, BR BKN002 03/03 Q0971 RERA=
200712030720 METAR ESMX 030720Z 04003KT 9999 BR FEW002 OVC003 03/03 Q0971 REDZ=
200712030620 METAR ESMX 030620Z 04005KT 6000 BR FEW003 OVC005 03/03 Q0971=
200712030550 METAR ESMX 030550Z 04006KT 8000 FEW005 SCT009 OVC012 03/03 Q0971 REDZ=
200712030520 METAR ESMX 030520Z 04006KT 020V080 8000 DZ FEW007 OVC015 03/03 Q0971=
200712030450 METAR ESMX 030450Z 05006KT 8000 -RA FEW006 OVC010 03/03 Q0972=
200712030420 METAR ESMX 030420Z AUTO 06005KT 010V120 8000NDV -RA SCT008/// OVC010/// 03/03 Q0972=
200712030350 METAR ESMX 030350Z AUTO 07006KT 020V120 9999NDV -RA FEW008/// OVC010/// 03/03 Q0972=
200712030320 METAR ESMX 030320Z AUTO 08006KT 020V140 9999NDV -RA FEW007/// OVC009/// 03/03 Q0973=
200712030250 METAR ESMX 030250Z AUTO 09006KT 040V130 9999NDV -RA FEW008/// SCT009/// BKN011/// 04/03 Q0974=
200712030220 METAR ESMX 030220Z AUTO 09007KT 040V140 9999NDV -RA FEW008/// OVC011/// 04/03 Q0974=
200712030150 METAR ESMX 030150Z 11005KT 050V150 8000 -RA FEW007 SCT009 BKN011 04/03 Q0975 REDZ=
200712030120 METAR ESMX 030120Z 12007KT 070V170 9000 -RA FEW007 SCT009 BKN011 04/03 Q0976 REDZ=
200712030050 METAR ESMX 030050Z 11008KT 050V160 7000 DZ FEW006 OVC010 05/04 Q0977=
200712030020 METAR ESMX 030020Z 10005KT 020V140 7000 DZ FEW006 BKN010 05/04 Q0978 RERA=
200712022350 METAR ESMX 022350Z 10006KT 050V140 8000 -RA FEW006 SCT008 BKN011 05/04 Q0979 REDZ=
200712022320 METAR ESMX 022320Z 11005KT 050V160 7000 -DZ FEW005 BKN007 OVC010 05/04 Q0979 RERA=
200712022250 METAR ESMX 022250Z 12005KT 070V160 5000 DZ BKN006 OVC010 05/04 Q0980=
200712022220 METAR ESMX 022220Z 13005KT 070V190 9000 BR BKN007 BKN010 05/04 Q0981=
200712022150 METAR ESMX 022150Z 14004KT 080V170 8000 BR FEW006 SCT007 BKN008 05/04 Q0982=
200712022120 METAR ESMX 022120Z 15006KT 100V190 9000 BR BKN008 BKN015 05/04 Q0983=
200712022050 METAR ESMX 022050Z 16006KT 120V200 9000 BR FEW005 OVC006 05/04 Q0984=
200712022020 METAR ESMX 022020Z 15005KT 110V170 8000 BR BKN005 OVC007 05/04 Q0984=
200712021950 METAR ESMX 021950Z 16006KT 120V200 9999 BKN004 OVC008 05/04 Q0985=
200712021920 METAR ESMX 021920Z 17008KT 9999 FEW004 SCT006 BKN008 05/04 Q0986=
200712021850 METAR ESMX 021850Z 16008KT 120V200 9000 OVC005 05/04 Q0986=
200712021820 METAR ESMX 021820Z 17006KT 9999 BKN006 OVC010 05/04 Q0987=
200712021720 METAR ESMX 021720Z 17007KT 140V200 9999 FEW005 SCT008 BKN009 05/04 Q0987 REDZ RERA=
200712021650 METAR ESMX 021650Z 17007KT 140V210 9999 DZ FEW006 SCT007 BKN013 05/04 Q0988 RERA=
200712021620 METAR ESMX 021620Z 16007KT 090V190 8000 BR FEW004 SCT006 BKN008 05/04 Q0988 REDZ=
200712021550 METAR ESMX 021550Z 17007KT 140V200 6000 DZ FEW005 SCT006 BKN011 05/04 Q0989 RERA=
200712021520 METAR ESMX 021520Z 17007KT 9999 FEW005 BKN007 OVC011 05/04 Q0989=
200712021450 METAR ESMX 021450Z 17008KT 9999 FEW005 SCT007 BKN009 05/04 Q0989=
200712021420 METAR ESMX 021420Z 16007KT 120V190 7000 -SHRA FEW005 SCT007 BKN009 05/04 Q0990=
200712021350 METAR ESMX 021350Z 17006KT 150V210 9999 FEW006 SCT008 BKN011 05/04 Q0990=
200712021320 METAR ESMX 021320Z 18007KT 9999 FEW006 SCT007 BKN009 05/04 Q0991=
200712021250 METAR ESMX 021250Z 17005KT 9999 FEW006 SCT010 BKN015 05/04 Q0991=
200712021220 METAR ESMX 021220Z 17007KT 140V200 9999 FEW005 SCT007 BKN011 05/04 Q0991=
200712021120 METAR ESMX 021120Z AUTO 18008KT 150V210 9999NDV FEW004/// BKN006/// OVC010/// 04/04 Q0992=
200712021050 METAR ESMX 021050Z AUTO 19006KT 150V210 9999NDV BKN004/// OVC007/// 04/04 Q0992=
200712021020 METAR ESMX 021020Z AUTO 19006KT 9999NDV BKN005/// OVC008/// 04/03 Q0992=
200712020950 METAR ESMX 020950Z AUTO 17008KT 9999NDV OVC006/// 04/03 Q0992=
200712020920 METAR ESMX 020920Z AUTO 18008KT 150V210 9999NDV FEW009/// OVC012/// 04/03 Q0993 REDZ RERA=
200712020850 METAR ESMX 020850Z AUTO 19009KT 9999NDV DZ FEW008/// SCT010/// BKN012/// 04/03 Q0993 RERA=
200712020820 METAR ESMX 020820Z AUTO 18009KT 140V220 8000NDV -RA FEW005/// SCT007/// BKN009/// 04/04 Q0993 REDZ=
200712020750 METAR ESMX 020750Z AUTO 17008KT 6000NDV DZ FEW005/// BKN006/// OVC008/// 04/04 Q0993 RERA=
200712020720 METAR ESMX 020720Z AUTO 17006KT 130V200 8000NDV -RA FEW007/// SCT008/// BKN010/// 04/03 Q0993=
200712020650 METAR ESMX 020650Z AUTO 18006KT 9000NDV FEW007/// SCT009/// BKN016/// 04/03 Q0994=
200712020620 METAR ESMX 020620Z AUTO 18008KT 9999NDV FEW008/// OVC009/// 04/03 Q0994=
200712020550 METAR ESMX 020550Z AUTO 19008KT 160V220 9999NDV BKN010/// OVC016/// 04/03 Q0994=
200712020520 METAR ESMX 020520Z AUTO 19009KT 150V230 9999NDV FEW011/// BKN015/// OVC019/// 05/03 Q0994=
200712020450 METAR ESMX 020450Z AUTO 18009KT 9999NDV FEW010/// BKN013/// OVC020/// 04/03 Q0994=
200712020420 METAR ESMX 020420Z AUTO 19009KT 9999NDV FEW013/// OVC017/// 04/03 Q0995=
200712020350 METAR ESMX 020350Z AUTO 19010KT 150V230 9999NDV FEW012/// BKN015/// OVC018/// 05/03 Q0995=
200712020320 METAR ESMX 020320Z AUTO 20010KT 9999NDV FEW012/// BKN015/// 05/04 Q0994 RERA REDZ=
200712020250 METAR ESMX 020250Z AUTO 20010KT 9999NDV FEW013/// SCT018/// BKN020/// 05/03 Q0995=
200712020220 METAR ESMX 020220Z AUTO 21012KT 9999NDV FEW015/// SCT020/// BKN041/// 05/03 Q0995=
200712020150 METAR ESMX 020150Z AUTO 21011KT 9999NDV FEW013/// SCT019/// BKN023/// 05/04 Q0995=
200712020120 METAR ESMX 020120Z AUTO 21012KT 9000NDV -DZ FEW010/// BKN015/// BKN049/// 05/04 Q0995 RERA=
200712020050 METAR ESMX 020050Z AUTO 21012KT 8000NDV BR FEW010/// BKN013/// OVC018/// 05/04 Q0994 RERA REDZ=
200712020020 METAR ESMX 020020Z AUTO 22011KT 200V260 9999NDV FEW011/// BKN014/// BKN019/// 05/04 Q0994 REDZ=
200712012350 METAR ESMX 012350Z AUTO 21012KT 7000NDV -DZ FEW013/// BKN016/// OVC020/// 05/04 Q0994 RERA=
200712012320 METAR ESMX 012320Z AUTO 22012KT 9999NDV FEW016/// SCT024/// OVC034/// 05/03 Q0994=
200712012250 METAR ESMX 012250Z AUTO 22013KT 9999NDV FEW021/// SCT026/// OVC031/// 05/03 Q0993=
200712012220 METAR ESMX 012220Z AUTO 22012KT 190V250 9999NDV FEW016/// BKN020/// OVC034/// 06/04 Q0993=
200712012150 METAR ESMX 012150Z AUTO 22014G24KT 8000NDV BR FEW013/// SCT017/// BKN019/// 06/04 Q0993 REDZ RERA=
200712012120 METAR ESMX 012120Z AUTO 23014KT 200V260 8000NDV FEW012/// SCT015/// BKN018/// 06/04 Q0992 REDZ=
200712012050 METAR ESMX 012050Z AUTO 23015KT 200V260 5000NDV DZ FEW009/// SCT012/// BKN015/// 06/05 Q0992 RERA=
200712012020 METAR ESMX 012020Z AUTO 23015G25KT 6000NDV -RA FEW009/// SCT016/// BKN020/// 06/05 Q0992=
200712011950 METAR ESMX 011950Z AUTO 23017G29KT 200V270 9999NDV FEW013/// SCT016/// BKN019/// 06/05 Q0991 RERA REDZ=
200712011920 METAR ESMX 011920Z AUTO 22014G29KT 190V260 5000NDV -DZ FEW011/// BKN014/// OVC022/// 06/05 Q0991 RERA=
200712011850 METAR ESMX 011850Z AUTO 22014KT 190V250 5000NDV FEW009/// SCT012/// BKN014/// 06/05 Q0990 REDZ RERA=
200712011820 METAR ESMX 011820Z AUTO 21015KT 4100NDV DZ FEW007/// BKN010/// BKN014/// 06/05 Q0990 RERA=
200712011750 METAR ESMX 011750Z AUTO 20014KT 3000NDV DZ FEW006/// SCT009/// BKN012/// 06/05 Q0989 RERA=
200712011720 METAR ESMX 011720Z AUTO 20015KT 160V230 6000NDV -RA FEW009/// SCT012/// BKN016/// 06/05 Q0989 REDZ=
200712011650 METAR ESMX 011650Z AUTO 19016KT 7000NDV DZ FEW007/// BKN011/// OVC016/// 06/05 Q0989 RERA=
200712011620 METAR ESMX 011620Z AUTO 18014KT 150V220 9999NDV FEW007/// SCT010/// BKN013/// 06/05 Q0989 REDZ=
200712011550 METAR ESMX 011550Z AUTO 18013KT 150V210 4100NDV DZ FEW010/// SCT015/// BKN029/// 06/05 Q0989 RERA=
200712011520 METAR ESMX 011520Z AUTO 19013KT 160V220 9999NDV FEW004/// SCT011/// BKN020/// 06/05 Q0989 REDZ=
200712011450 METAR ESMX 011450Z AUTO 17009KT 7000NDV -RA FEW006/// SCT007/// BKN009/// 06/06 Q0989=
200712011420 METAR ESMX 011420Z AUTO 16010KT 120V200 9999NDV FEW005/// SCT006/// BKN009/// 06/05 Q0989 RERA REDZ=
200712011350 METAR ESMX 011350Z AUTO 16009KT 120V200 9000NDV -RA FEW004/// SCT006/// BKN008/// 06/05 Q0990=
200712011320 METAR ESMX 011320Z AUTO 15012KT 120V190 7000NDV -RA FEW005/// SCT009/// BKN015/// 06/05 Q0990=
200712011250 METAR ESMX 011250Z AUTO 16010G20KT 130V200 8000NDV RA FEW004/// BKN006/// OVC009/// 05/05 Q0990=
200712011220 METAR ESMX 011220Z AUTO 16010KT 120V190 7000NDV -RA FEW004/// BKN006/// OVC008/// 05/05 Q0991=
