##########################################################
# Query made at 04/19/2024 21:00:37 UTC
# Time interval: from 11/01/2007 12:00  to 11/30/2007 12:59  UTC
##########################################################

##########################################################
# ESMX, Vaxjo (Sweden)
# WMO index: 02641. WIGOS ID: 0-20000-0-02648
# Latitude 56-51N. Longitude 014-50E. Altitude 199 m.
##########################################################

200711301250 METAR ESMX 301250Z 29006KT 9999 FEW008 SCT012 BKN028 05/04 Q0996 RERA=
200711301220 METAR ESMX 301220Z 29008KT 6000 -RA FEW005 SCT007 BKN012 04/04 Q0996=
200711301150 METAR ESMX 301150Z 28008KT 9000 -RA FEW003 SCT006 BKN007 05/04 Q0995=
200711301120 METAR ESMX 301120Z 28004KT 250V320 9999 -RA OVC010 05/04 Q0995=
200711301050 METAR ESMX 301050Z 28006KT 9999 FEW005 SCT007 BKN009 05/04 Q0995=
200711301020 METAR ESMX 301020Z 30003KT 9999 SCT005 BKN009 05/04 Q0994 RERA REDZ=
200711300950 METAR ESMX 300950Z 31004KT 7000 -RA FEW004 BKN005 OVC015 05/04 Q0994=
200711300920 METAR ESMX 300920Z 28006KT 9999 FEW003 OVC007 05/04 Q0994=
200711300850 METAR ESMX 300850Z 28004KT 9999 SCT004 BKN007 OVC009 05/04 Q0994=
200711300820 METAR ESMX 300820Z 29003KT 9999 FEW003 SCT008 BKN013 04/04 Q0993=
200711300750 METAR ESMX 300750Z 26003KT 9999 FEW004 SCT007 BKN009 04/04 Q0992=
200711300720 METAR ESMX 300720Z 23004KT 4800 DZ FEW004 BKN005 OVC015 04/04 Q0992 RERA=
200711300650 METAR ESMX 300650Z 23004KT 6000 BR FEW004 OVC006 04/04 Q0992=
200711300620 METAR ESMX 300620Z 21004KT 8000 BR SCT006 BKN008 04/04 Q0991=
200711300550 METAR ESMX 300550Z 24004KT 8000 BR FEW011 SCT015 BKN018 04/04 Q0991=
200711300520 METAR ESMX 300520Z 23004KT 9999 BKN018 OVC025 04/04 Q0991=
200711300450 METAR ESMX 300450Z 24005KT 9999 OVC018 05/04 Q0991=
200711300420 METAR ESMX 300420Z 26005KT 9999 FEW005 BKN007 OVC020 05/04 Q0991=
200711300350 METAR ESMX 300350Z AUTO 26005KT 220V280 9999NDV BKN004/// OVC025/// 05/04 Q0991 RERA REDZ=
200711300320 METAR ESMX 300320Z AUTO 26006KT 9000NDV -RA FEW005/// 04/04 Q0991=
200711300250 METAR ESMX 300250Z AUTO 26007KT 5000NDV -RA FEW003/// SCT005/// BKN007/// 04/04 Q0990 REDZ=
200711300220 METAR ESMX 300220Z AUTO 23006KT 3900NDV BR OVC003/// 04/04 Q0990=
200711300150 METAR ESMX 300150Z 19005KT 3100 BR OVC002 04/04 Q0990 REDZ=
200711300120 METAR ESMX 300120Z 15005KT 2200 -DZ FEW002 OVC004 04/04 Q0990 RERA=
200711300050 METAR ESMX 300050Z 16004KT 2700 DZ BKN002 OVC006 04/04 Q0991 RERA=
200711300020 METAR ESMX 300020Z 15005KT 100V190 3200 BR SCT002 OVC005 04/04 Q0991=
200711292350 METAR ESMX 292350Z 16005KT 120V190 2600 -DZ OVC001 04/04 Q0991 RERA=
200711292320 METAR ESMX 292320Z 16005KT 120V190 2400 DZ OVC002 04/04 Q0992 RERA=
200711292250 METAR ESMX 292250Z 17005KT 140V200 2900 OVC002 04/04 Q0992=
200711292220 METAR ESMX 292220Z 16008KT 3400 SCT001 BKN003 OVC004 04/04 Q0992 RERA=
200711292150 METAR ESMX 292150Z 17008KT 1200 R01/P2000U R19/P2000N BR OVC002 04/04 Q0993=
200711292120 METAR ESMX 292120Z 17007KT 140V200 1500 BR OVC002 04/04 Q0993=
200711292050 METAR ESMX 292050Z 18007KT 2800 BR OVC002 04/04 Q0994=
200711292020 METAR ESMX 292020Z 18007KT 2400 OVC002 04/04 Q0994=
200711291950 METAR ESMX 291950Z 19007KT 150V210 2400 BR OVC002 04/04 Q0994=
200711291920 METAR ESMX 291920Z 19008KT 0900 R01/P2000U R19/P2000U FG VV002 04/04 Q0994=
200711291850 METAR ESMX 291850Z 19007KT 1700 BR OVC002 04/04 Q0995=
200711291820 METAR ESMX 291820Z 20008KT 3000 BR FEW002 OVC005 04/04 Q0995=
200711291750 METAR ESMX 291750Z 21006KT 2400 BR OVC002 04/04 Q0995=
200711291720 METAR ESMX 291720Z 19007KT 2400 BR BKN002 04/04 Q0995=
200711291650 METAR ESMX 291650Z 21007KT 2200 OVC002 04/04 Q0995=
200711291620 METAR ESMX 291620Z 20008KT 2000 R01/P2000U R19/P2000U OVC002 04/04 Q0996=
200711291550 METAR ESMX 291550Z 21007KT 0600 R01/1800N R19/P2000N FG VV002 04/04 Q0996=
200711291520 METAR ESMX 291520Z 21007KT 170V230 0550 R01/1800N R19/1700N FG VV002 04/04 Q0996=
200711291450 METAR ESMX 291450Z 21008KT 0600 R01/1700N R19/P2000D FG VV002 04/04 Q0996=
200711291420 METAR ESMX 291420Z 21007KT 180V240 0800 R01/1800D R19/P2000D FG VV002 04/04 Q0996=
200711291350 METAR ESMX 291350Z 20008KT 1300 R01/P2000D R19/P2000D BR BKN002 04/03 Q0996=
200711291320 METAR ESMX 291320Z 22009KT 2000 BR BKN002 04/03 Q0996=
200711291250 METAR ESMX 291250Z 22008KT 3200 BR BKN002 04/03 Q0996=
200711291220 METAR ESMX 291220Z 21008KT 3500 BR BKN003 04/03 Q0996=
200711291150 METAR ESMX 291150Z 21009KT 180V250 3300 BR BKN003 04/03 Q0997 REDZ=
200711291120 METAR ESMX 291120Z 22009KT 3000 DZ, BR BKN003 04/03 Q0997=
200711291050 METAR ESMX 291050Z 20010KT 4600 -DZ BKN003 04/03 Q0997 RERA=
200711291020 METAR ESMX 291020Z 20009KT 3300 -RA OVC003 04/03 Q0997=
200711290950 METAR ESMX 290950Z 20011KT 3900 -RA OVC003 04/03 Q0998=
200711290920 METAR ESMX 290920Z 20009KT 3100 -RA OVC003 04/03 Q0998=
200711290850 METAR ESMX 290850Z 20009KT 2500 -RA OVC002 04/03 Q0998=
200711290820 METAR ESMX 290820Z 21009KT 1700 -RA OVC002 04/03 Q0998 REDZ=
200711290750 METAR ESMX 290750Z 20011KT 1800 DZ OVC002 04/03 Q0999=
200711290720 METAR ESMX 290720Z 19011KT 2100 BR OVC002 04/03 Q0999 RERA REDZ=
200711290650 METAR ESMX 290650Z 20010KT 1300 R01/P2000N R19/P2000D OVC002 04/03 Q0999=
200711290620 METAR ESMX 290620Z 21010KT 0800 R01/P2000D R19/P2000D FG VV002 04/03 Q0999=
200711290550 METAR ESMX 290550Z 20010KT 1200 R01/P2000D R19/P2000N BR FEW001 OVC002 04/03 Q1000=
200711290520 METAR ESMX 290520Z 20010KT 1200 R01/P2000U R19/P2000U OVC002 04/03 Q1000=
200711290450 METAR ESMX 290450Z 21010KT 1100 R01/P2000U R19/P2000U OVC002 04/03 Q1000=
200711290420 METAR ESMX 290420Z AUTO 20009KT 0750NDV R01/P2000U R19/P2000U FG VV001 04/03 Q1001=
200711290350 METAR ESMX 290350Z AUTO 20009KT 0450NDV R01/1400N R19/1700N FG VV001 04/03 Q1001=
200711290320 METAR ESMX 290320Z AUTO 21010KT 0500NDV R01/1600N R19/1800N FG VV001 04/03 Q1002=
200711290250 METAR ESMX 290250Z AUTO 21010KT 0900NDV R01/P2000D R19/P2000D FG VV002 03/03 Q1002 RERA REDZ=
200711290220 METAR ESMX 290220Z AUTO 21010KT 1400NDV R01/P2000N R19/P2000D BR OVC001/// 03/03 Q1003=
200711290150 METAR ESMX 290150Z AUTO 20009KT 3200NDV BR OVC001/// 03/03 Q1003=
200711290120 METAR ESMX 290120Z 21009KT 4100 BR OVC002 03/03 Q1004 RERA REDZ=
200711290050 METAR ESMX 290050Z 20010KT 1700 BR OVC001 03/03 Q1004=
200711290020 METAR ESMX 290020Z 20010KT 2200 BR OVC002 03/03 Q1005=
200711282350 METAR ESMX 282350Z 20010KT 1700 BR OVC001 03/03 Q1005 REDZ=
200711282320 METAR ESMX 282320Z 20009KT 1500 DZ OVC002 03/03 Q1005=
200711282250 METAR ESMX 282250Z 20011KT 1200 R01/P2000D R19/P2000D BR OVC001 03/03 Q1006=
200711282220 METAR ESMX 282220Z 20010KT 2000 BR OVC001 03/02 Q1006 REDZ RERA=
200711282150 METAR ESMX 282150Z 20010KT 2000 DZ OVC001 03/02 Q1007=
200711282120 METAR ESMX 282120Z 20010KT 1800 DZ OVC001 03/02 Q1007 RERA=
200711282050 METAR ESMX 282050Z 20010KT 0750 R01/1900N R19/P2000N FG VV001 03/02 Q1008=
200711282020 METAR ESMX 282020Z 20009KT 1200 R01/P2000D R19/P2000D BR OVC001 02/02 Q1008 REDZ=
200711281950 METAR ESMX 281950Z 20009KT 1500 R01/P2000N R19/P2000U DZ OVC002 02/02 Q1008 RERA=
200711281920 METAR ESMX 281920Z 20011KT 1800 BR OVC002 02/02 Q1009=
200711281850 METAR ESMX 281850Z 20010KT 2700 RA OVC002 02/02 Q1009=
200711281820 METAR ESMX 281820Z 20009KT 2500 RA OVC002 02/02 Q1010=
200711281750 METAR ESMX 281750Z 20009KT 2800 -RA BR OVC001 02/02 Q1010=
200711281720 METAR ESMX 281720Z 19008KT 2000 -RA BR OVC001 02/02 Q1011=
200711281650 METAR ESMX 281650Z 20009KT 1500 R19/P2000N -RA BR OVC000 02/01 Q1011=
200711281620 METAR ESMX 281620Z 20007KT 2500 BR OVC001 01/01 Q1011=
200711281550 METAR ESMX 281550Z 21008KT 2800 BR OVC001 01/01 Q1012=
200711281520 METAR ESMX 281520Z 20008KT 3300 BR OVC002 01/01 Q1012=
200711281450 METAR ESMX 281450Z 20008KT 4000 -RA BR FEW003 OVC004 01/01 Q1013=
200711281420 METAR ESMX 281420Z 20008KT 7000 -RA OVC007 01/00 Q1013=
200711281350 METAR ESMX 281350Z 21008KT 9000 -RA OVC008 01/M00 Q1013=
200711281320 METAR ESMX 281320Z 21007KT 9999 BKN009 01/M01 Q1014=
200711281250 METAR ESMX 281250Z 20008KT 9999 BKN011 OVC018 01/M01 Q1014=
200711281220 METAR ESMX 281220Z 21007KT 9999 BKN015 01/M02 Q1015=
200711281150 METAR ESMX 281150Z 21007KT 9999 BKN016 OVC023 00/M02 Q1015=
200711281120 METAR ESMX 281120Z 21007KT 9999 SCT018 BKN030 M01/M03 Q1015=
200711281050 METAR ESMX 281050Z 21006KT 170V240 9999 SCT028 BKN037 M01/M03 Q1016=
200711281020 METAR ESMX 281020Z 20006KT 9999 FEW045 BKN055 M02/M04 Q1017=
200711280950 METAR ESMX 280950Z 21006KT CAVOK M02/M04 Q1017=
200711280920 METAR ESMX 280920Z 21005KT CAVOK M03/M05 Q1017=
200711280850 METAR ESMX 280850Z 22006KT CAVOK M04/M06 Q1018=
200711280820 METAR ESMX 280820Z 21003KT CAVOK M05/M06 Q1018=
200711280750 METAR ESMX 280750Z 21004KT CAVOK M06/M07 Q1018=
200711280720 METAR ESMX 280720Z 19002KT CAVOK M07/M07 Q1018=
200711280650 METAR ESMX 280650Z VRB01KT CAVOK M08/M08 Q1018=
200711280620 METAR ESMX 280620Z 19002KT CAVOK M08/M09 Q1019=
200711280550 METAR ESMX 280550Z 22002KT CAVOK M08/M08 Q1019=
200711280520 METAR ESMX 280520Z 19003KT CAVOK M09/M09 Q1019=
200711280450 METAR ESMX 280450Z 18001KT CAVOK M08/M09 Q1019=
200711280420 METAR ESMX 280420Z AUTO 26002KT 9999NDV NCD M08/M09 Q1019=
200711280350 METAR ESMX 280350Z AUTO 27003KT 9999NDV NCD M08/M08 Q1019=
200711280320 METAR ESMX 280320Z AUTO 27003KT 9999NDV NCD M07/M08 Q1020=
200711280250 METAR ESMX 280250Z AUTO 27003KT 9999NDV NCD M07/M08 Q1020=
200711280220 METAR ESMX 280220Z AUTO 27004KT 9999NDV NCD M06/M08 Q1020=
200711280150 METAR ESMX 280150Z 26003KT 220V290 CAVOK M06/M08 Q1020=
200711280120 METAR ESMX 280120Z 26005KT CAVOK M06/M07 Q1020=
200711280050 METAR ESMX 280050Z 26006KT CAVOK M07/M08 Q1020=
200711280020 METAR ESMX 280020Z 26003KT CAVOK M07/M08 Q1020=
200711272320 METAR ESMX 272320Z 35002KT CAVOK M07/M08 Q1020=
200711272250 METAR ESMX 272250Z 34003KT 290V360 CAVOK M05/M07 Q1020=
200711272220 METAR ESMX 272220Z 30004KT 270V350 CAVOK M05/M07 Q1020=
200711272150 METAR ESMX 272150Z 35005KT CAVOK M03/M06 Q1020=
200711272120 METAR ESMX 272120Z 34005KT 300V020 CAVOK M03/M06 Q1020=
200711272050 METAR ESMX 272050Z 32004KT 290V360 CAVOK M04/M06 Q1020=
200711272020 METAR ESMX 272020Z 33006KT CAVOK M03/M06 Q1020=
200711271950 METAR ESMX 271950Z 32007KT CAVOK M03/M06 Q1020=
200711271920 METAR ESMX 271920Z 31007KT CAVOK M03/M06 Q1020=
200711271850 METAR ESMX 271850Z 31007KT CAVOK M03/M06 Q1020=
200711271820 METAR ESMX 271820Z 31008KT CAVOK M02/M06 Q1020=
200711271750 METAR ESMX 271750Z 30009KT CAVOK M02/M05 Q1020=
200711271720 METAR ESMX 271720Z 31009KT CAVOK M02/M05 Q1019=
200711271650 METAR ESMX 271650Z 30008KT 270V340 CAVOK M02/M05 Q1019=
200711271620 METAR ESMX 271620Z 30008KT 260V320 CAVOK M02/M05 Q1019=
200711271550 METAR ESMX 271550Z 31008KT CAVOK M02/M05 Q1019=
200711271520 METAR ESMX 271520Z 31007KT CAVOK M02/M05 Q1018=
200711271450 METAR ESMX 271450Z 31008KT CAVOK M01/M05 Q1018=
200711271420 METAR ESMX 271420Z 32010KT CAVOK M01/M05 Q1018=
200711271350 METAR ESMX 271350Z 32009KT 300V010 9999 FEW025 M00/M05 Q1018=
200711271320 METAR ESMX 271320Z 32011KT 9999 FEW023 00/M05 Q1017=
200711271250 METAR ESMX 271250Z 32008KT 290V360 9999 FEW025 00/M05 Q1017=
200711271220 METAR ESMX 271220Z 33010KT 290V360 9999 FEW025 00/M04 Q1017=
200711271150 METAR ESMX 271150Z 32009KT 300V050 9999 FEW025 00/M04 Q1017=
200711271120 METAR ESMX 271120Z 33011KT 300V010 9999 FEW015 00/M04 Q1017=
200711271050 METAR ESMX 271050Z 33010KT 300V360 CAVOK M00/M04 Q1016=
200711271020 METAR ESMX 271020Z 33011KT CAVOK M01/M04 Q1016=
200711270950 METAR ESMX 270950Z 32010KT 290V350 CAVOK M01/M04 Q1016=
200711270920 METAR ESMX 270920Z 32010KT CAVOK M01/M05 Q1016=
200711270850 METAR ESMX 270850Z 32010KT CAVOK M02/M04 Q1016=
200711270820 METAR ESMX 270820Z 31008KT CAVOK M02/M05 Q1015=
200711270750 METAR ESMX 270750Z 32007KT CAVOK M02/M05 Q1015=
200711270720 METAR ESMX 270720Z 32009KT CAVOK M02/M04 Q1014=
200711270650 METAR ESMX 270650Z 32010KT CAVOK M02/M04 Q1014=
200711270620 METAR ESMX 270620Z 32009KT 290V350 CAVOK M02/M04 Q1014=
200711270550 METAR ESMX 270550Z 31009KT 260V330 CAVOK M01/M04 Q1013=
200711270520 METAR ESMX 270520Z 34010KT CAVOK M01/M03 Q1013=
200711270450 METAR ESMX 270450Z 33011KT 9999 FEW014 BKN031 M00/M03 Q1013=
200711270420 METAR ESMX 270420Z AUTO 33010KT 9999NDV FEW017/// OVC033/// M00/M03 Q1012=
200711270350 METAR ESMX 270350Z AUTO 32010KT 9999NDV FEW015/// SCT019/// OVC021/// M00/M02 Q1012=
200711270320 METAR ESMX 270320Z AUTO 33012KT 9999NDV SCT020/// OVC033/// M00/M02 Q1012=
200711270250 METAR ESMX 270250Z AUTO 33010KT 290V360 9999NDV FEW018/// SCT021/// BKN025/// M00/M02 Q1012=
200711270220 METAR ESMX 270220Z AUTO 32009KT 9999NDV FEW018/// SCT021/// OVC036/// M00/M02 Q1011=
200711270150 METAR ESMX 270150Z 33009KT 9999 FEW019 SCT039 BKN096 M00/M02 Q1011=
200711270120 METAR ESMX 270120Z 33009KT 9999 FEW020 BKN033 M00/M02 Q1011=
200711270050 METAR ESMX 270050Z 32009KT 9999 FEW012 SCT027 M00/M02 Q1010=
200711270020 METAR ESMX 270020Z 33011KT 9999 FEW015 SCT019 00/M01 Q1010=
200711262350 METAR ESMX 262350Z 33011KT 9999 -SN FEW011 BKN014 00/M01 Q1010=
200711262320 METAR ESMX 262320Z 32010KT 290V350 9999 -SN FEW009 SCT011 BKN014 00/M01 Q1009=
200711262220 METAR ESMX 262220Z 32009KT 290V360 9999 -SN FEW011 BKN016 00/M01 Q1009=
200711262150 METAR ESMX 262150Z 31009KT 9999 -SN FEW009 SCT013 BKN018 00/M01 Q1008=
200711262120 METAR ESMX 262120Z 31009KT 290V350 6000 -SN FEW009 SCT011 BKN017 00/M01 Q1008=
200711262050 METAR ESMX 262050Z 31010KT 5000 -SN FEW008 SCT010 BKN012 00/M01 Q1008=
200711262020 METAR ESMX 262020Z 31010KT 9999 -SN FEW009 BKN012 BKN027 00/M01 Q1007=
200711261950 METAR ESMX 261950Z 32009KT 280V340 7000 -SN FEW008 BKN009 M00/M01 Q1007=
200711261920 METAR ESMX 261920Z 31008KT 6000 -SN FEW009 BKN010 BKN016 M00/M01 Q1006=
200711261850 METAR ESMX 261850Z 31008KT 260V340 9999 -SN SCT008 BKN010 M00/M01 Q1006=
200711261820 METAR ESMX 261820Z 31009KT 280V350 5000 -SN SCT010 BKN025 M00/M01 Q1006=
200711261750 METAR ESMX 261750Z 31009KT 6000 -SN FEW007 SCT010 BKN015 M00/M01 Q1006 RESG=
200711261720 METAR ESMX 261720Z 31010KT 270V350 7000 -SN FEW006 BKN013 OVC020 M01/M01 Q1005=
200711261650 METAR ESMX 261650Z 31011KT 280V340 2100 SN FEW006 SCT015 BKN020 M01/M02 Q1005 RESG=
200711261620 METAR ESMX 261620Z 31011KT 280V340 9999 FEW010 SCT015 BKN030 M01/M02 Q1004 RESN=
200711261550 METAR ESMX 261550Z 31010KT 270V340 9999 -SN FEW006 BKN015 M01/M02 Q1004=
200711261520 METAR ESMX 261520Z 31012KT 7000 -SN FEW006 BKN016 BKN020 M01/M03 Q1004 RESG=
200711261450 METAR ESMX 261450Z 31011KT 270V350 9999 -SN FEW015 BKN020 M01/M03 Q1003 RESG=
200711261420 METAR ESMX 261420Z 29013KT 9999 SCT025 M01/M03 Q1003 RESG=
200711261350 METAR ESMX 261350Z 31013KT 270V340 7000 -SHSN FEW015 SCT035 BKN040 M00/M03 Q1003=
200711261320 METAR ESMX 261320Z 31014G25KT 280V340 9999 SCT030 BKN060 01/M04 Q1003=
200711261250 METAR ESMX 261250Z 32015G25KT 290V360 9999 FEW030 SCT038 01/M04 Q1003=
200711261220 METAR ESMX 261220Z 30011G22KT 260V350 9999 FEW027 SCT035 01/M05 Q1002=
200711261150 METAR ESMX 261150Z 30013G23KT 260V340 9999 SCT029 01/M05 Q1002=
200711261120 METAR ESMX 261120Z 31011KT 260V340 CAVOK 01/M04 Q1002=
200711261050 METAR ESMX 261050Z 30012KT 260V330 CAVOK M00/M04 Q1002 RESN=
200711261020 METAR ESMX 261020Z 31013KT 280V340 9999 -SHSN FEW058 M01/M03 Q1002=
200711260950 METAR ESMX 260950Z 30014KT 270V340 9999 -SHRA FEW021 SCT060 M00/M04 Q1002=
200711260920 METAR ESMX 260920Z 30013KT 280V340 9999 FEW026 M00/M04 Q1002=
200711260850 METAR ESMX 260850Z 31011KT 280V340 9999 FEW018 M00/M04 Q1002=
200711260820 METAR ESMX 260820Z 30010KT 260V340 9999 FEW042 M01/M04 Q1001=
200711260750 METAR ESMX 260750Z 30011KT 9999 FEW018 SCT041 M02/M04 Q1001=
200711260720 METAR ESMX 260720Z 29010KT 9999 FEW019 M02/M05 Q1001=
200711260650 METAR ESMX 260650Z 29008KT 9999 FEW025 M02/M05 Q1001=
200711260620 METAR ESMX 260620Z 29009KT 250V320 9999 FEW037 M02/M06 Q1001=
200711260550 METAR ESMX 260550Z 29009KT 9999 BKN034 M02/M06 Q1001=
200711260520 METAR ESMX 260520Z 29009KT 9999 SCT035 M02/M06 Q1001=
200711260450 METAR ESMX 260450Z 30013KT CAVOK M02/M06 Q1000=
200711260420 METAR ESMX 260420Z 30010KT CAVOK M02/M06 Q1000=
200711260350 METAR ESMX 260350Z AUTO 31010KT 280V350 9999NDV NCD M02/M05 Q1000=
200711260320 METAR ESMX 260320Z AUTO 31012KT 9999NDV NCD M01/M05 Q1000=
200711260250 METAR ESMX 260250Z AUTO 31012KT 9999NDV NCD M01/M04 Q1000=
200711260220 METAR ESMX 260220Z AUTO 31010KT 280V340 9999NDV FEW078/// M01/M03 Q1000=
200711260150 METAR ESMX 260150Z 32011KT 290V350 9999 FEW022 BKN078 M01/M03 Q0999=
200711260120 METAR ESMX 260120Z 31012KT 280V350 9999 SCT018 M01/M03 Q0999=
200711260050 METAR ESMX 260050Z 32012KT 9999 FEW017 SCT020 BKN025 M00/M02 Q0999=
200711260020 METAR ESMX 260020Z 34015KT 9999 FEW018 BKN022 OVC050 00/M02 Q0999=
200711252350 METAR ESMX 252350Z 34014KT 9999 FEW016 SCT021 BKN025 01/M02 Q0998=
200711252320 METAR ESMX 252320Z 33015G27KT 300V010 9999 FEW012 BKN015 OVC019 01/M01 Q0998=
200711252250 METAR ESMX 252250Z 33015KT 300V010 9999 -SHRA FEW010 SCT012 BKN017 01/M01 Q0997=
200711252220 METAR ESMX 252220Z 33012KT 9999 -SHRASN FEW007 SCT010 BKN013 01/00 Q0996=
200711252150 METAR ESMX 252150Z 31009KT 280V340 5000 -RASN FEW007 OVC010 02/01 Q0996=
200711252120 METAR ESMX 252120Z 32009KT 290V360 9999 FEW008 BKN010 02/00 Q0996=
200711252050 METAR ESMX 252050Z 32008KT 9999 -RASN FEW007 SCT009 BKN010 02/01 Q0996=
200711252020 METAR ESMX 252020Z 32011G30KT 290V350 9999 FEW009 BKN012 OVC018 02/01 Q0995=
200711251950 METAR ESMX 251950Z 32009KT 9999 FEW009 SCT011 BKN014 02/01 Q0995=
200711251920 METAR ESMX 251920Z 30007KT 9999 FEW009 BKN011 OVC016 03/02 Q0994=
200711251850 METAR ESMX 251850Z 30008KT 9999 FEW008 SCT020 OVC027 03/02 Q0994=
200711251820 METAR ESMX 251820Z 30006KT 9999 SCT012 OVC027 03/02 Q0994=
200711251750 METAR ESMX 251750Z 29008KT 9999 BKN013 OVC026 03/03 Q0993=
200711251720 METAR ESMX 251720Z 27006KT 4800 DZ SCT003 BKN008 OVC015 03/03 Q0993=
200711251650 METAR ESMX 251650Z 24003KT 6000 BR OVC002 03/02 Q0993=
200711251620 METAR ESMX 251620Z 26003KT 9999 FEW002 SCT005 BKN007 02/02 Q0993=
200711251550 METAR ESMX 251550Z 25005KT 9999 SCT002 BKN005 OVC007 02/02 Q0992=
200711251520 METAR ESMX 251520Z 25003KT 9999 FEW002 BKN003 OVC009 03/02 Q0992=
200711251450 METAR ESMX 251450Z 23004KT 9999 BKN003 OVC006 02/02 Q0992=
200711251420 METAR ESMX 251420Z 23004KT 9000 -RA FEW002 BKN008 03/02 Q0992=
200711251350 METAR ESMX 251350Z 23004KT 9999 SCT004 BKN007 BKN020 03/02 Q0992=
200711251320 METAR ESMX 251320Z 23005KT 9999 BKN006 03/02 Q0992=
200711251250 METAR ESMX 251250Z 23006KT 9999 FEW009 SCT011 BKN013 03/03 Q0992=
200711251220 METAR ESMX 251220Z 22009KT 190V260 9999 -RA FEW006 SCT008 BKN010 04/03 Q0992=
200711251150 METAR ESMX 251150Z 21004KT 6000 FEW006 SCT009 BKN012 04/03 Q0993=
200711251120 METAR ESMX 251120Z 20005KT 6000 BR SCT007 BKN012 04/04 Q0993=
200711251050 METAR ESMX 251050Z AUTO 21007KT 9999NDV FEW006/// SCT010/// BKN019/// 04/03 Q0993=
200711251020 METAR ESMX 251020Z AUTO 21007KT 6000NDV DZ FEW005/// SCT008/// BKN012/// 04/03 Q0994 RERA=
200711250950 METAR ESMX 250950Z AUTO 20008KT 5000NDV -DZ FEW005/// BKN007/// OVC009/// 04/03 Q0994 RERA=
200711250920 METAR ESMX 250920Z AUTO 20010KT 170V230 7000NDV DZ FEW004/// BKN005/// OVC008/// 04/03 Q0994 RERA=
200711250850 METAR ESMX 250850Z AUTO 20011KT 9999NDV SCT005/// BKN008/// OVC011/// 04/03 Q0995=
200711250820 METAR ESMX 250820Z AUTO 20010KT 9999NDV FEW006/// BKN008/// OVC012/// 04/03 Q0995=
200711250750 METAR ESMX 250750Z AUTO 20008KT 9000NDV BR FEW003/// BKN005/// OVC008/// 04/03 Q0995 RERA=
200711250720 METAR ESMX 250720Z AUTO 20009KT 8000NDV BR ////// 03/03 Q0995=
200711250650 METAR ESMX 250650Z AUTO 20009KT 4900NDV BR OVC002/// 03/03 Q0996 REDZ=
200711250620 METAR ESMX 250620Z AUTO 20009KT 2400NDV DZ OVC001/// 03/02 Q0996 RERA=
200711250550 METAR ESMX 250550Z AUTO 20009KT 2900NDV BR ////// 02/02 Q0996=
200711250520 METAR ESMX 250520Z AUTO 20009KT 2700NDV BR OVC001/// 02/02 Q0996=
200711250450 METAR ESMX 250450Z AUTO 20010KT 2700NDV BR OVC001/// 02/02 Q0997=
200711250420 METAR ESMX 250420Z AUTO 20011KT 3200NDV BR OVC001/// 02/01 Q0997=
200711250350 METAR ESMX 250350Z AUTO 20012KT 4400NDV -DZ OVC003/// 02/01 Q0997=
200711250320 METAR ESMX 250320Z AUTO 20013KT 5000NDV BR OVC003/// 02/01 Q0998 RERA REDZ=
200711250250 METAR ESMX 250250Z AUTO 20014KT 9999NDV BKN005/// OVC007/// 02/01 Q0998 REDZ=
200711250220 METAR ESMX 250220Z AUTO 19016KT 9999NDV -RA FEW006/// BKN007/// OVC010/// 02/01 Q0999 REDZ=
200711250150 METAR ESMX 250150Z AUTO 19015KT 8000NDV BR SCT006/// BKN009/// OVC012/// 02/01 Q0999 RERA REDZ=
200711250120 METAR ESMX 250120Z AUTO 19015KT 8000NDV -RA OVC006/// 02/01 Q1000 REDZ=
200711250050 METAR ESMX 250050Z AUTO 18014KT 150V220 8000NDV -DZ BKN006/// OVC010/// 02/01 Q1000 RERA=
200711250020 METAR ESMX 250020Z AUTO 18015KT 140V210 6000NDV -RA FEW006/// BKN008/// BKN010/// 02/01 Q1001=
200711242350 METAR ESMX 242350Z AUTO 18014G24KT 140V200 7000NDV -RA FEW006/// BKN008/// OVC011/// 02/01 Q1001=
200711242320 METAR ESMX 242320Z AUTO 18014KT 140V200 9000NDV -RA FEW008/// OVC010/// 02/01 Q1002 REDZ=
200711242250 METAR ESMX 242250Z AUTO 17012KT 9999NDV -RA OVC010/// 02/01 Q1003 REDZ=
200711242220 METAR ESMX 242220Z AUTO 18013KT 150V210 9999NDV BKN011/// BKN017/// 02/00 Q1004=
200711242150 METAR ESMX 242150Z AUTO 17013KT 140V210 9999NDV BKN012/// BKN026/// 01/M00 Q1005=
200711242120 METAR ESMX 242120Z AUTO 18013KT 9999NDV BKN013/// BKN040/// 01/M01 Q1006 RERA REDZ=
200711242050 METAR ESMX 242050Z AUTO 18010KT 9999NDV RA FEW014/// 01/M01 Q1007=
200711242020 METAR ESMX 242020Z AUTO 17011KT 150V210 9999NDV BKN040/// 01/M01 Q1008=
200711241950 METAR ESMX 241950Z AUTO 17010KT 140V210 9999NDV FEW035/// BKN044/// 00/M01 Q1008=
200711241920 METAR ESMX 241920Z AUTO 17011KT 9999NDV FEW009/// SCT011/// 00/M01 Q1009=
200711241850 METAR ESMX 241850Z AUTO 17010KT 140V200 9999NDV FEW009/// 00/M01 Q1010=
200711241820 METAR ESMX 241820Z AUTO 18010KT 9999NDV FEW008/// SCT009/// BKN011/// M00/M01 Q1011=
200711241750 METAR ESMX 241750Z AUTO 18008KT 160V220 9999NDV FEW008/// SCT010/// BKN012/// 00/M01 Q1011=
200711241720 METAR ESMX 241720Z AUTO 18009KT 9999NDV FEW006/// SCT010/// BKN013/// 00/M01 Q1012=
200711241650 METAR ESMX 241650Z AUTO 20008KT 9999NDV BKN006/// OVC009/// 00/M01 Q1013=
200711241620 METAR ESMX 241620Z AUTO 20008KT 9999NDV BKN005/// OVC009/// 00/M00 Q1013=
200711241550 METAR ESMX 241550Z AUTO 19009KT 160V230 9999NDV OVC006/// 00/M00 Q1013=
200711241520 METAR ESMX 241520Z AUTO 20010KT 9999NDV OVC005/// 00/M00 Q1014=
200711241450 METAR ESMX 241450Z AUTO 21007KT 9999NDV OVC004/// 00/M00 Q1014=
200711241420 METAR ESMX 241420Z AUTO 20006KT 9999NDV BR BKN005/// OVC008/// 00/M00 Q1015 RERA REDZ REUP=
200711241350 METAR ESMX 241350Z AUTO 19005KT 5000NDV BR FEW007/// OVC019/// 00/M00 Q1015=
200711241320 METAR ESMX 241320Z AUTO 18005KT 9999NDV FEW014/// OVC017/// 01/M01 Q1015 REDZ RERA=
200711241250 METAR ESMX 241250Z AUTO 18004KT 150V220 8000NDV -RA FEW015/// BKN018/// 00/M01 Q1016=
200711241220 METAR ESMX 241220Z AUTO 21005KT 9999NDV -RA FEW019/// BKN033/// 01/M01 Q1016=
200711241150 METAR ESMX 241150Z AUTO 19004KT 9999NDV SCT024/// OVC034/// 01/M01 Q1017=
200711241120 METAR ESMX 241120Z AUTO VRB02KT 9999NDV OVC033/// 00/M02 Q1017=
200711241050 METAR ESMX 241050Z AUTO 00000KT 9999NDV BKN036/// 00/M02 Q1017=
200711241020 METAR ESMX 241020Z AUTO 00000KT 9999NDV NCD 01/M02 Q1017=
200711240950 METAR ESMX 240950Z AUTO 31003KT 280V340 9999NDV NCD M00/M02 Q1017=
200711240920 METAR ESMX 240920Z AUTO VRB02KT 9999NDV NCD M00/M02 Q1017=
200711240850 METAR ESMX 240850Z AUTO VRB02KT 9999NDV BKN040/// M01/M03 Q1017=
200711240820 METAR ESMX 240820Z AUTO 01002KT 9999NDV FEW007/// OVC041/// M01/M03 Q1018=
200711240750 METAR ESMX 240750Z AUTO 35003KT 9999NDV FEW007/// OVC041/// M01/M03 Q1018=
200711240720 METAR ESMX 240720Z AUTO 36005KT 9999NDV FEW008/// OVC041/// M01/M03 Q1018=
200711240650 METAR ESMX 240650Z AUTO 01007KT 9999NDV FEW008/// OVC041/// M01/M03 Q1018=
200711240620 METAR ESMX 240620Z AUTO 35007KT 9999NDV FEW008/// SCT009/// OVC041/// M01/M02 Q1018=
200711240550 METAR ESMX 240550Z AUTO 01008KT 9999NDV SCT008/// BKN011/// OVC043/// M01/M02 Q1017=
200711240520 METAR ESMX 240520Z AUTO 01008KT 9999NDV FEW008/// OVC036/// M01/M02 Q1017=
200711240450 METAR ESMX 240450Z AUTO 01009KT 9999NDV BKN008/// OVC038/// M01/M02 Q1017=
200711240420 METAR ESMX 240420Z AUTO 01009KT 9999NDV OVC008/// M01/M02 Q1017=
200711240350 METAR ESMX 240350Z AUTO 02008KT 9999NDV BKN009/// OVC029/// M01/M02 Q1017=
200711240320 METAR ESMX 240320Z AUTO 01008KT 9999NDV SCT011/// BKN026/// OVC048/// M00/M02 Q1017=
200711240250 METAR ESMX 240250Z AUTO 02009KT 9999NDV OVC010/// M00/M02 Q1016 RESN RESG=
200711240220 METAR ESMX 240220Z AUTO 01008KT 9999NDV -SN OVC009/// M00/M02 Q1016 RESG=
200711240150 METAR ESMX 240150Z AUTO 01007KT 9999NDV -SN OVC010/// 00/M01 Q1016 REUP=
200711240120 METAR ESMX 240120Z AUTO 02008KT 9999NDV OVC011/// 00/M01 Q1016=
200711240050 METAR ESMX 240050Z AUTO 02008KT 9999NDV OVC010/// 00/M01 Q1016=
200711240020 METAR ESMX 240020Z AUTO 02009KT 9999NDV OVC010/// 00/M01 Q1015=
200711232350 METAR ESMX 232350Z AUTO 02009KT 9999NDV OVC010/// 00/M01 Q1015=
200711232320 METAR ESMX 232320Z AUTO 02008KT 9999NDV OVC010/// 00/M01 Q1015 RESN RESG=
200711232250 METAR ESMX 232250Z AUTO 02007KT 3200NDV -SN FEW009/// BKN011/// 00/M00 Q1014=
200711232220 METAR ESMX 232220Z AUTO 01008KT 2400NDV -SN FEW007/// SCT011/// BKN013/// 00/M00 Q1014 RERA=
200711232150 METAR ESMX 232150Z AUTO 02009KT 350V060 4800NDV RA FEW010/// BKN013/// OVC020/// 01/M00 Q1014 REDZ=
200711232120 METAR ESMX 232120Z AUTO 02011KT 350V060 9999NDV FEW011/// SCT017/// BKN019/// 01/M01 Q1013=
200711232050 METAR ESMX 232050Z AUTO 02013KT 9999NDV FEW010/// BKN012/// OVC018/// 01/M01 Q1013=
200711232020 METAR ESMX 232020Z AUTO 03009KT 9999NDV FEW008/// SCT010/// BKN013/// 01/M00 Q1012=
200711231950 METAR ESMX 231950Z AUTO 02011KT 9999NDV FEW007/// SCT009/// OVC011/// 02/01 Q1011=
200711231920 METAR ESMX 231920Z 01011KT 7000 BR FEW007 OVC009 02/01 Q1011=
200711231850 METAR ESMX 231850Z 01012KT 4600 RA FEW005 BKN010 02/02 Q1010=
200711231820 METAR ESMX 231820Z 30007KT 3000 BR FEW006 SCT010 OVC020 04/03 Q1009=
200711231750 METAR ESMX 231750Z 27005KT 9999 OVC020 05/03 Q1009=
200711231720 METAR ESMX 231720Z 26005KT 9999 OVC020 05/03 Q1008=
200711231650 METAR ESMX 231650Z 26005KT 9999 OVC020 05/03 Q1008=
200711231620 METAR ESMX 231620Z 27006KT 9999 FEW020 BKN030 05/03 Q1007=
200711231550 METAR ESMX 231550Z 28005KT 9999 FEW016 BKN026 05/04 Q1007=
200711231520 METAR ESMX 231520Z 27009KT 9999 FEW010 SCT015 OVC030 06/04 Q1006=
200711231450 METAR ESMX 231450Z 23004KT 210V270 5000 BR FEW004 SCT009 BKN029 06/06 Q1006=
200711231420 METAR ESMX 231420Z 22004KT 5000 BR FEW004 SCT006 OVC035 06/06 Q1005=
200711231350 METAR ESMX 231350Z 21004KT 3700 BR FEW004 SCT005 BKN007 06/06 Q1005 REDZ=
200711231320 METAR ESMX 231320Z 21005KT 2500 -DZ SCT005 BKN007 BKN020 06/06 Q1005=
200711231250 METAR ESMX 231250Z 20005KT 3200 BR FEW006 SCT018 BKN036 06/06 Q1005 REDZ=
200711231220 METAR ESMX 231220Z 20005KT 3000 DZ FEW005 SCT009 BKN010 06/06 Q1005=
200711231150 METAR ESMX 231150Z 20007KT 3200 -DZ FEW006 SCT008 OVC010 07/06 Q1005=
200711231120 METAR ESMX 231120Z 21007KT 4500 BR FEW006 SCT008 BKN010 07/06 Q1005=
200711231050 METAR ESMX 231050Z 21006KT 170V240 4500 BR FEW005 SCT006 BKN008 07/06 Q1004=
200711231020 METAR ESMX 231020Z 20008KT 3600 BR FEW005 SCT006 OVC008 07/06 Q1004=
200711230950 METAR ESMX 230950Z 22006KT 2200 BR FEW003 BKN004 OVC007 07/06 Q1004=
200711230920 METAR ESMX 230920Z 21007KT 2700 BR BKN002 OVC004 06/06 Q1004=
200711230850 METAR ESMX 230850Z 20009KT 1900 BR OVC003 06/06 Q1004=
200711230820 METAR ESMX 230820Z 21009KT 2600 BR OVC003 06/06 Q1003=
200711230750 METAR ESMX 230750Z 20006KT 2300 BR OVC003 06/06 Q1003=
200711230720 METAR ESMX 230720Z 19009KT 2300 BR OVC003 06/06 Q1003=
200711230650 METAR ESMX 230650Z 18006KT 1900 BR FEW002 OVC003 06/06 Q1003=
200711230620 METAR ESMX 230620Z 19007KT 2000 BR OVC002 06/06 Q1003=
200711230550 METAR ESMX 230550Z 21007KT 170V250 2100 BR OVC002 06/06 Q1003=
200711230520 METAR ESMX 230520Z 20010KT 2200 BR OVC002 06/06 Q1002=
200711230450 METAR ESMX 230450Z 20009KT 1800 BR OVC001 06/06 Q1002=
200711230420 METAR ESMX 230420Z AUTO 19010KT 1600NDV OVC001/// 06/06 Q1002=
200711230350 METAR ESMX 230350Z AUTO 19008KT 0800NDV R01/P2000U R19/P2000U FG VV002 06/06 Q1002=
200711230320 METAR ESMX 230320Z AUTO 18008KT 140V210 0450NDV R01/1500N R19/1600U FG VV001 06/06 Q1002=
200711230250 METAR ESMX 230250Z AUTO 19007KT 0600NDV R01/1800D R19/P2000D FG VV001 06/06 Q1002=
200711230220 METAR ESMX 230220Z AUTO 19007KT 150V210 0650NDV R01/1900N R19/P2000N FG VV001 06/06 Q1002=
200711230150 METAR ESMX 230150Z 18006KT 1400 R19/P2000U BR OVC001 06/06 Q1003=
200711230120 METAR ESMX 230120Z 20009KT 1300 R19/P2000U BR OVC001 06/06 Q1003=
200711230050 METAR ESMX 230050Z 20007KT 160V220 0500 R19/1900D FG VV002 06/06 Q1003=
200711222320 METAR ESMX 222320Z 17008KT 140V200 0500 R19/1600U FG VV002 06/06 Q1003=
200711222250 METAR ESMX 222250Z 18009KT 0450 R19/1800D FG VV002 06/06 Q1004=
200711222220 METAR ESMX 222220Z 17008KT 150V210 0450 R19/1300V1800U FG VV002 06/06 Q1004=
200711222150 METAR ESMX 222150Z 16007KT 130V190 0500 R19/1500N FG VV002 06/06 Q1004=
200711222120 METAR ESMX 222120Z 16005KT 0300 R19/1500N FG VV002 06/06 Q1004=
200711222050 METAR ESMX 222050Z 16006KT 140V200 0350 R19/1200U FG VV002 06/06 Q1004=
200711222020 METAR ESMX 222020Z 16005KT 140V200 0300 R19/1200N FG VV002 06/06 Q1004=
200711221950 METAR ESMX 221950Z 15005KT 100V190 0300 R19/0900N FG VV002 06/06 Q1005=
200711221920 METAR ESMX 221920Z 16005KT 120V200 0300 R19/1100N FG VV002 06/06 Q1005=
200711221850 METAR ESMX 221850Z 17006KT 140V200 0450 R19/1600D FG VV002 06/06 Q1005=
200711221820 METAR ESMX 221820Z 16006KT 0300 R01/1100N R19/1100N FG VV002 06/05 Q1005=
200711221750 METAR ESMX 221750Z 16007KT 0550 R01/1700D R19/P2000D FG VV003 06/05 Q1006=
200711221720 METAR ESMX 221720Z 16007KT 140V200 1100 R01/P2000D R19/P2000D BR OVC002 06/05 Q1006=
200711221650 METAR ESMX 221650Z 19005KT 1300 R01/P2000U R19/P2000N OVC002 06/06 Q1006=
200711221620 METAR ESMX 221620Z 18006KT 150V210 0800 R01/P2000U R19/P2000U VV003 06/06 Q1006=
200711221550 METAR ESMX 221550Z 17005KT 0500 R01/1700U R19/1600U FG VV002 06/05 Q1006=
200711221520 METAR ESMX 221520Z 15005KT 090V200 0300 R01/1000U R19/1000U FG VV002 05/05 Q1006=
200711221450 METAR ESMX 221450Z 17005KT 0200 R01/0800 R19/0650N FG VV002 05/05 Q1006=
200711221420 METAR ESMX 221420Z 17004KT 140V200 0250 R01/0700N R19/0700N FG VV002 05/05 Q1006=
200711221350 METAR ESMX 221350Z 18005KT 150V210 0250 R01/0600N R19/0650N FG VV002 05/05 Q1006=
200711221320 METAR ESMX 221320Z 17004KT 120V220 0250 R01/0600N R19/0600N FG VV002 05/05 Q1006=
200711221250 METAR ESMX 221250Z 14003KT 100V170 0200 R01/0500N R19/0550N FG VV002 05/04 Q1006=
200711221220 METAR ESMX 221220Z 19005KT 0450 R01/0800N R19/0900N FG VV002 05/05 Q1007=
200711221150 METAR ESMX 221150Z 18005KT 0450 R01/0800N R19/0900N FG VV002 05/05 Q1007=
200711221120 METAR ESMX 221120Z 18005KT 0400 R01/0750 R19/0800 FG VV002 05/04 Q1007=
200711221050 METAR ESMX 221050Z 18005KT 0300 R01/0650N R19/0750N FG VV002 04/04 Q1007=
200711221020 METAR ESMX 221020Z 19005KT 150V210 0250 R01/0650N R19/0650 FG VV002 04/04 Q1007=
200711220950 METAR ESMX 220950Z 20006KT 0200 R01/0550N R19/0500N FG VV001 04/04 Q1007=
200711220920 METAR ESMX 220920Z 20005KT 0300 R01/0650N R19/0700 FG VV002 04/04 Q1007=
200711220850 METAR ESMX 220850Z 19005KT 0300 R01/0600 R19/0550N FG VV002 04/04 Q1007=
200711220820 METAR ESMX 220820Z 18005KT 0300 R01/0600N R19/0550N FG VV002 04/03 Q1007=
200711220750 METAR ESMX 220750Z 19004KT 0300 R01/0800N R19/0800N FG VV002 04/03 Q1007=
200711220720 METAR ESMX 220720Z 19004KT 0650 R01/1500D R19/1700D FG VV002 04/03 Q1007=
200711220650 METAR ESMX 220650Z 18005KT 1100 R01/P2000D R19/P2000D BR OVC001 04/03 Q1007=
200711220620 METAR ESMX 220620Z 19005KT 1400 R01/P2000D R19/P2000D BR OVC002 04/03 Q1007=
200711220550 METAR ESMX 220550Z 18005KT 1500 BR OVC003 04/03 Q1007=
200711220520 METAR ESMX 220520Z 19005KT 1400 R01/P2000U R19/P2000N BR OVC002 03/03 Q1007=
200711220450 METAR ESMX 220450Z 18006KT 1300 BR OVC002 03/03 Q1007=
200711220420 METAR ESMX 220420Z AUTO 18006KT 0700NDV R01/P2000N R19/P2000D FG VV001 03/03 Q1007=
200711220350 METAR ESMX 220350Z AUTO 17006KT 0750NDV R01/P2000N R19/P2000N FG VV001 03/03 Q1007=
200711220320 METAR ESMX 220320Z AUTO 15005KT 110V190 0800NDV R01/P2000D R19/P2000D FG OVC001/// 03/02 Q1007=
200711220250 METAR ESMX 220250Z AUTO 17005KT 120V230 1500NDV BR OVC001/// 03/02 Q1008=
200711220220 METAR ESMX 220220Z AUTO 18006KT 2200NDV BR OVC002/// 03/02 Q1008=
200711220150 METAR ESMX 220150Z 18005KT 140V210 2400 BR OVC003 03/02 Q1008=
200711220120 METAR ESMX 220120Z 15004KT 2800 BR OVC003 02/02 Q1008=
200711220050 METAR ESMX 220050Z 16004KT 3000 BR OVC003 02/02 Q1008=
200711220020 METAR ESMX 220020Z 17005KT 3200 BR OVC004 02/02 Q1009=
200711212350 METAR ESMX 212350Z 16004KT 130V200 3200 -DZ OVC003 02/02 Q1009=
200711212320 METAR ESMX 212320Z 15004KT 3100 -DZ OVC003 02/02 Q1009=
200711212250 METAR ESMX 212250Z 17005KT 3700 DZ OVC004 02/02 Q1009=
200711212220 METAR ESMX 212220Z 17007KT 4000 BR OVC004 02/01 Q1009=
200711212150 METAR ESMX 212150Z 18007KT 4500 BR OVC005 02/01 Q1010=
200711212120 METAR ESMX 212120Z 16007KT 130V210 5000 BR OVC005 02/01 Q1009=
200711212050 METAR ESMX 212050Z 15006KT 4100 BR OVC005 02/01 Q1009=
200711212020 METAR ESMX 212020Z 17007KT 140V200 4600 BR OVC005 02/01 Q1010=
200711211950 METAR ESMX 211950Z 15007KT 110V170 4000 BR OVC005 02/01 Q1010=
200711211920 METAR ESMX 211920Z 14006KT 100V170 3500 BR OVC004 02/02 Q1010=
200711211850 METAR ESMX 211850Z 15006KT 110V210 3700 BR SCT003 OVC005 02/02 Q1011=
200711211820 METAR ESMX 211820Z 15006KT 110V200 2700 BR FEW003 OVC004 02/02 Q1011=
200711211750 METAR ESMX 211750Z 16005KT 2900 BR OVC004 02/02 Q1011=
200711211720 METAR ESMX 211720Z 16003KT 3200 BR BKN004 OVC007 02/02 Q1011=
200711211650 METAR ESMX 211650Z 16005KT 120V190 3900 BR FEW004 BKN005 OVC007 02/02 Q1011=
200711211620 METAR ESMX 211620Z 16005KT 120V210 3100 BR BKN005 02/02 Q1012=
200711211550 METAR ESMX 211550Z 16005KT 120V210 3800 BR BKN005 02/02 Q1012=
200711211520 METAR ESMX 211520Z 16007KT 120V190 3200 BR BKN005 03/02 Q1012=
200711211450 METAR ESMX 211450Z 15005KT 110V190 2900 BR OVC005 03/02 Q1012=
200711211420 METAR ESMX 211420Z 14005KT 100V200 2600 BR OVC004 03/02 Q1012=
200711211350 METAR ESMX 211350Z 14005KT 090V190 3000 BR OVC004 03/02 Q1012=
200711211320 METAR ESMX 211320Z 15006KT 4000 BR OVC004 03/02 Q1013=
200711211250 METAR ESMX 211250Z 12005KT 070V170 3000 BR OVC003 03/02 Q1013=
200711211220 METAR ESMX 211220Z 12004KT 030V170 3000 BR FEW003 BKN004 OVC006 03/02 Q1013=
200711211150 METAR ESMX 211150Z 13006KT 080V200 2800 BR OVC002 03/02 Q1013=
200711211120 METAR ESMX 211120Z 10006KT 050V160 3100 BR OVC003 03/02 Q1014=
200711211050 METAR ESMX 211050Z 14004KT 090V170 4000 BR OVC003 03/03 Q1014=
200711211020 METAR ESMX 211020Z 12006KT 080V170 5000 BR OVC003 03/02 Q1015=
200711210950 METAR ESMX 210950Z 12006KT 070V170 3500 BR OVC003 03/03 Q1015=
200711210920 METAR ESMX 210920Z 12005KT 060V200 4000 BR OVC003 03/03 Q1015=
200711210850 METAR ESMX 210850Z 12005KT 070V170 3300 BR OVC003 03/02 Q1015=
200711210820 METAR ESMX 210820Z 13005KT 080V160 4000 BR FEW003 OVC005 03/02 Q1015=
200711210750 METAR ESMX 210750Z 12005KT 070V160 3300 BR BKN003 OVC005 03/02 Q1015=
200711210720 METAR ESMX 210720Z 12005KT 070V170 3300 BR OVC004 03/02 Q1016=
200711210650 METAR ESMX 210650Z 12005KT 070V160 3500 BR OVC002 03/02 Q1016=
200711210620 METAR ESMX 210620Z 14004KT 050V190 2800 BR OVC002 03/02 Q1016=
200711210550 METAR ESMX 210550Z 12005KT 2100 BR SCT002 OVC003 03/02 Q1016=
200711210520 METAR ESMX 210520Z 12004KT 2500 BR SCT002 OVC003 03/02 Q1016=
200711210450 METAR ESMX 210450Z 14004KT 3000 BR SCT002 OVC004 03/02 Q1016=
200711210420 METAR ESMX 210420Z 14003KT 2500 BR SCT002 OVC003 03/02 Q1017=
200711210350 METAR ESMX 210350Z AUTO 12005KT 080V170 4900NDV BR OVC002/// 03/02 Q1017=
200711210320 METAR ESMX 210320Z AUTO 13006KT 090V170 4300NDV BR OVC003/// 03/02 Q1017=
200711210250 METAR ESMX 210250Z AUTO 14005KT 070V180 5000NDV BR OVC002/// 03/02 Q1017=
200711210220 METAR ESMX 210220Z AUTO 11005KT 070V160 4900NDV BR OVC003/// 03/02 Q1017=
200711210150 METAR ESMX 210150Z AUTO 14004KT 100V190 3700NDV BR OVC003/// 03/02 Q1017=
200711210120 METAR ESMX 210120Z AUTO 11004KT 050V160 4800NDV BR OVC004/// 03/03 Q1018=
200711210050 METAR ESMX 210050Z 13005KT 5000 BR FEW002 OVC004 03/03 Q1018=
200711210020 METAR ESMX 210020Z 12005KT 5000 BR OVC004 03/03 Q1018=
200711202350 METAR ESMX 202350Z 12004KT 4400 BR OVC005 03/03 Q1018=
200711202320 METAR ESMX 202320Z VRB02KT 4800 BR BKN005 OVC009 03/03 Q1018=
200711202250 METAR ESMX 202250Z VRB02KT 5000 BR SCT006 OVC008 03/02 Q1018=
200711202220 METAR ESMX 202220Z VRB02KT 5000 BR FEW005 BKN006 OVC009 03/02 Q1019=
200711202150 METAR ESMX 202150Z VRB02KT 4800 BR FEW004 OVC008 03/02 Q1019=
200711202120 METAR ESMX 202120Z 11003KT 4300 BR FEW005 BKN007 OVC009 03/03 Q1019=
200711202050 METAR ESMX 202050Z VRB02KT 2600 BR SCT003 OVC006 03/03 Q1019=
200711202020 METAR ESMX 202020Z VRB02KT 4300 BR OVC003 03/03 Q1019=
200711201950 METAR ESMX 201950Z VRB02KT 3200 BR FEW003 BKN005 OVC007 03/03 Q1019=
200711201920 METAR ESMX 201920Z 14003KT 3300 BR SCT002 BKN004 OVC006 03/02 Q1020=
200711201850 METAR ESMX 201850Z 17004KT 3200 BR OVC003 03/03 Q1020=
200711201820 METAR ESMX 201820Z 16003KT 3500 BR OVC002 03/02 Q1020=
200711201750 METAR ESMX 201750Z 16003KT 3000 BR OVC004 03/03 Q1019=
200711201720 METAR ESMX 201720Z VRB02KT 5000 BR OVC004 03/02 Q1019=
200711201650 METAR ESMX 201650Z 14003KT 100V190 6000 BR OVC005 03/02 Q1019=
200711201620 METAR ESMX 201620Z 12004KT 070V170 7000 BR OVC005 03/02 Q1019=
200711201550 METAR ESMX 201550Z 08004KT 020V160 6000 BR OVC005 03/02 Q1019=
200711201520 METAR ESMX 201520Z 08003KT 030V130 6000 BR OVC006 03/02 Q1019=
200711201450 METAR ESMX 201450Z VRB02KT 8000 BR FEW006 OVC007 03/02 Q1019=
200711201420 METAR ESMX 201420Z 08003KT 040V130 8000 BR OVC008 03/02 Q1019=
200711201350 METAR ESMX 201350Z 08003KT 050V110 9999 OVC008 03/02 Q1019=
200711201320 METAR ESMX 201320Z VRB02KT 9999 SCT008 OVC010 03/02 Q1020=
200711201250 METAR ESMX 201250Z VRB01KT 9999 OVC009 03/02 Q1020=
200711201220 METAR ESMX 201220Z VRB02KT 9999 OVC008 03/02 Q1020=
200711201150 METAR ESMX 201150Z VRB02KT 9999 OVC008 03/02 Q1020=
200711201120 METAR ESMX 201120Z 10003KT 040V180 9999 SCT007 BKN009 03/02 Q1019=
200711201050 METAR ESMX 201050Z VRB02KT 9999 BKN007 03/02 Q1019=
200711201020 METAR ESMX 201020Z VRB02KT 9999 OVC007 03/02 Q1020=
200711200950 METAR ESMX 200950Z VRB02KT 9999 FEW002 OVC006 02/02 Q1020=
200711200920 METAR ESMX 200920Z 10003KT 030V180 9000 BR OVC003 02/01 Q1020=
200711200850 METAR ESMX 200850Z 14003KT 100V200 6000 BR OVC003 02/01 Q1019=
200711200820 METAR ESMX 200820Z 13003KT 080V200 5000 BR OVC003 02/01 Q1020=
200711200750 METAR ESMX 200750Z 10004KT 050V140 9000 OVC004 02/01 Q1019=
200711200720 METAR ESMX 200720Z 10003KT 050V150 8000 BR OVC005 02/02 Q1019=
200711200650 METAR ESMX 200650Z 11003KT 050V160 6000 BR OVC005 02/02 Q1019=
200711200620 METAR ESMX 200620Z 16004KT 120V190 5000 BR OVC004 02/02 Q1019=
200711200550 METAR ESMX 200550Z 16003KT 120V210 5000 BR OVC004 02/02 Q1019=
200711200520 METAR ESMX 200520Z VRB02KT 9000 BR OVC005 02/02 Q1019=
200711200450 METAR ESMX 200450Z 11003KT 9999 OVC005 02/02 Q1018=
200711200420 METAR ESMX 200420Z 10004KT 9999 OVC005 02/02 Q1018=
200711200350 METAR ESMX 200350Z AUTO 08003KT 050V120 6000NDV BR FEW004/// OVC006/// 02/02 Q1018=
200711200320 METAR ESMX 200320Z AUTO 09003KT 050V140 4800NDV BR FEW005/// OVC006/// 02/02 Q1018=
200711200250 METAR ESMX 200250Z AUTO VRB02KT 4800NDV BR FEW004/// OVC006/// 02/02 Q1018=
200711200220 METAR ESMX 200220Z AUTO VRB01KT 3100NDV BR FEW006/// OVC007/// 03/02 Q1018 REDZ=
200711200150 METAR ESMX 200150Z AUTO VRB02KT 2300NDV -DZ FEW001/// BKN003/// OVC005/// 03/02 Q1019=
200711200120 METAR ESMX 200120Z 15003KT 3000 -DZ OVC002 03/02 Q1019=
200711200050 METAR ESMX 200050Z VRB02KT 3000 -DZ OVC003 03/02 Q1019=
200711200020 METAR ESMX 200020Z 13003KT 090V210 4100 BR SCT002 OVC003 03/02 Q1019=
200711192350 METAR ESMX 192350Z 10004KT 050V160 5000 BR OVC003 03/02 Q1019=
200711192320 METAR ESMX 192320Z 13005KT 080V170 7000 BR SCT002 OVC004 03/02 Q1019=
200711192250 METAR ESMX 192250Z 11004KT 060V170 9000 BR OVC004 03/02 Q1019=
200711192220 METAR ESMX 192220Z 12005KT 070V190 9999 OVC004 03/02 Q1019=
200711192150 METAR ESMX 192150Z 10006KT 9999 OVC004 03/02 Q1018=
200711192120 METAR ESMX 192120Z 10004KT 9999 OVC005 03/02 Q1019=
200711192050 METAR ESMX 192050Z 09004KT 9999 OVC005 03/02 Q1019=
200711192020 METAR ESMX 192020Z 08004KT 9999 OVC006 04/02 Q1019=
200711191750 METAR ESMX 191750Z 11003KT 080V150 9999 OVC009 04/02 Q1019=
200711191720 METAR ESMX 191720Z 14004KT 060V190 9999 OVC009 04/02 Q1019=
200711191650 METAR ESMX 191650Z 10003KT 040V160 9999 OVC010 04/02 Q1019=
200711191620 METAR ESMX 191620Z 09003KT 040V140 9999 OVC010 04/02 Q1019=
200711191550 METAR ESMX 191550Z 10003KT 040V170 9999 OVC009 04/02 Q1019=
200711191520 METAR ESMX 191520Z 09003KT 360V150 9999 OVC009 04/02 Q1019=
200711191450 METAR ESMX 191450Z 06005KT 020V110 9999 OVC010 03/02 Q1019=
200711191420 METAR ESMX 191420Z 07005KT 9999 OVC010 04/02 Q1019=
200711191350 METAR ESMX 191350Z 06005KT 020V100 9999 OVC010 04/02 Q1019=
200711191320 METAR ESMX 191320Z 07004KT 040V110 9999 OVC010 04/02 Q1019=
200711191250 METAR ESMX 191250Z 08004KT 030V120 9999 FEW010 BKN012 04/01 Q1019=
200711190950 METAR ESMX 190950Z 08006KT 040V140 9999 OVC007 03/02 Q1020=
200711190920 METAR ESMX 190920Z 10004KT 060V160 9999 BKN007 OVC009 04/02 Q1020=
200711190850 METAR ESMX 190850Z 10004KT 060V140 9999 BKN007 03/02 Q1020=
200711190820 METAR ESMX 190820Z 10006KT 060V150 9999 OVC007 03/02 Q1020=
200711190750 METAR ESMX 190750Z 11006KT 060V160 9999 OVC006 04/02 Q1020=
200711190720 METAR ESMX 190720Z 10005KT 050V150 9999 OVC006 03/02 Q1020=
200711190650 METAR ESMX 190650Z 10005KT 040V140 9999 FEW005 BKN007 OVC009 03/03 Q1020=
200711190620 METAR ESMX 190620Z 08004KT 040V110 9999 FEW006 OVC009 03/03 Q1019=
200711190550 METAR ESMX 190550Z 08004KT 020V120 9999 FEW008 OVC010 04/03 Q1019=
200711190520 METAR ESMX 190520Z 07004KT 020V110 9999 OVC009 04/03 Q1019=
200711190450 METAR ESMX 190450Z 05004KT 360V110 8000 BR FEW009 OVC011 04/03 Q1019=
200711190420 METAR ESMX 190420Z AUTO 06004KT 030V100 8000NDV BR FEW008/// OVC014/// 04/03 Q1019=
200711190350 METAR ESMX 190350Z AUTO VRB02KT 8000NDV BR OVC013/// 04/03 Q1019=
200711190320 METAR ESMX 190320Z AUTO VRB02KT 7000NDV BR OVC013/// 04/03 Q1020=
200711190250 METAR ESMX 190250Z AUTO 11003KT 060V150 7000NDV BR SCT005/// BKN007/// OVC010/// 04/04 Q1019=
200711190220 METAR ESMX 190220Z 14005KT 7000 BR FEW002 OVC004 04/04 Q1019=
200711190150 METAR ESMX 190150Z VRB02KT 6000 BR FEW003 OVC005 04/04 Q1019=
200711190120 METAR ESMX 190120Z VRB02KT 2700 BR FEW003 OVC005 04/04 Q1019=
200711190050 METAR ESMX 190050Z 00000KT 2500 BR FEW004 OVC006 04/04 Q1019=
200711190020 METAR ESMX 190020Z VRB02KT 2400 BR SCT002 OVC007 04/04 Q1019=
200711182350 METAR ESMX 182350Z VRB02KT 1900 BR FEW002 SCT004 OVC007 05/04 Q1019=
200711182320 METAR ESMX 182320Z 16003KT 140V200 3100 BR BKN001 OVC008 05/05 Q1020=
200711182250 METAR ESMX 182250Z 15003KT 110V190 0900 R01/P2000N R19/P2000N OVC002 05/04 Q1019=
200711182220 METAR ESMX 182220Z VRB01KT 0450 R01/P2000U R19/1200V1800U FG VV002 04/04 Q1019=
200711182150 METAR ESMX 182150Z 00000KT 0200 R01/0800V1100U R19/0900 FG VV002 04/04 Q1019=
200711182120 METAR ESMX 182120Z VRB01KT 0250 R01/0800N R19/0900N FG VV002 04/04 Q1019=
200711182050 METAR ESMX 182050Z VRB01KT 0300 R01/1000V1400N R19/1000N FG VV002 04/04 Q1019=
200711182020 METAR ESMX 182020Z VRB02KT 0200 R01/0900N R19/0800N FG VV002 04/03 Q1019=
200711181950 METAR ESMX 181950Z VRB02KT 0200 R01/0800N R19/0800N FG VV002 04/03 Q1019=
200711181920 METAR ESMX 181920Z VRB02KT 0250 R01/0900N R19/0900N FG VV002 04/03 Q1019=
200711181850 METAR ESMX 181850Z VRB02KT 0250 R01/0900N R19/0900N FG VV002 04/04 Q1019=
200711181820 METAR ESMX 181820Z VRB01KT 0250 R01/0900N R19/0900N FG VV002 04/04 Q1019=
200711181750 METAR ESMX 181750Z VRB02KT 0400 R19/1200N FG VV002 04/03 Q1019=
200711181720 METAR ESMX 181720Z VRB01KT 0500 R19/1000V1700D FG VV002 04/03 Q1019=
200711181650 METAR ESMX 181650Z 04002KT 3200 BR OVC002 04/03 Q1019=
200711181620 METAR ESMX 181620Z VRB01KT 4800 BR OVC003 04/03 Q1019=
200711181550 METAR ESMX 181550Z VRB01KT 5000 BR OVC004 04/03 Q1018=
200711181520 METAR ESMX 181520Z VRB02KT 8000 BR BKN005 04/03 Q1018=
200711181450 METAR ESMX 181450Z 21004KT 160V230 9999 BKN006 04/03 Q1018=
200711181420 METAR ESMX 181420Z 15003KT 080V190 9999 BKN007 05/03 Q1018=
200711181350 METAR ESMX 181350Z 17003KT 140V210 9999 OVC007 05/03 Q1018=
200711181320 METAR ESMX 181320Z VRB02KT 9999 BKN007 05/03 Q1018=
200711181250 METAR ESMX 181250Z VRB02KT 9999 OVC008 05/03 Q1018=
200711181220 METAR ESMX 181220Z 19003KT 9999 BKN008 06/04 Q1019=
200711181150 METAR ESMX 181150Z 19003KT 9999 FEW006 OVC009 05/04 Q1019=
200711181120 METAR ESMX 181120Z AUTO 24004KT 200V280 9999NDV OVC005/// 05/04 Q1019=
200711181050 METAR ESMX 181050Z AUTO 25003KT 220V290 9999NDV BR OVC005/// 05/05 Q1019=
200711181020 METAR ESMX 181020Z AUTO 23003KT 210V270 9000NDV BR FEW004/// OVC005/// 05/05 Q1019=
200711180950 METAR ESMX 180950Z AUTO 25004KT 200V290 8000NDV BR BKN004/// OVC007/// 05/05 Q1019=
200711180920 METAR ESMX 180920Z AUTO VRB02KT 6000NDV BR OVC005/// 05/05 Q1019=
200711180850 METAR ESMX 180850Z AUTO 25006KT 220V290 7000NDV OVC005/// 05/05 Q1019=
200711180820 METAR ESMX 180820Z AUTO 26006KT 220V290 6000NDV BKN002/// OVC005/// 05/05 Q1019=
200711180750 METAR ESMX 180750Z AUTO 22006KT 0750NDV R01/1200VP2000U R19/1100VP2000U FG VV002 05/05 Q1018=
200711180720 METAR ESMX 180720Z AUTO 22005KT 0250NDV R01/0700N R19/0650N FG VV001 05/05 Q1018=
200711180650 METAR ESMX 180650Z AUTO 20004KT 0250NDV R01/0800N R19/0900D FG VV001 05/05 Q1018=
200711180620 METAR ESMX 180620Z AUTO 21005KT 0200NDV R01/0800N R19/0800N FG VV000 05/05 Q1018=
200711180550 METAR ESMX 180550Z AUTO 20005KT 0350NDV R01/1200D R19/1500D FG VV001 05/05 Q1018=
200711180520 METAR ESMX 180520Z AUTO 21004KT 0450NDV R01/1400N R19/1700N FG VV001 05/05 Q1017=
200711180450 METAR ESMX 180450Z AUTO 21005KT 0200NDV R01/0800N R19/1000N FG VV001 05/04 Q1017=
200711180420 METAR ESMX 180420Z AUTO 22005KT 0250NDV R01/0900N R19/1100N FG VV001 05/04 Q1017=
200711180350 METAR ESMX 180350Z AUTO 23004KT 0350NDV R01/1200N R19/1400N FG VV001 05/04 Q1017=
200711180320 METAR ESMX 180320Z AUTO 22004KT 0550NDV R01/1700N R19/1900N FG VV001 05/04 Q1017=
200711180250 METAR ESMX 180250Z AUTO 22004KT 0450NDV R01/1500N R19/1600N FG VV001 05/04 Q1017=
200711180220 METAR ESMX 180220Z AUTO 21004KT 0500NDV R01/1600N R19/1900N FG VV001 05/04 Q1017=
200711180150 METAR ESMX 180150Z AUTO 21005KT 0350NDV R01/1200N R19/1400N FG VV001 04/04 Q1018=
200711180120 METAR ESMX 180120Z AUTO 22005KT 0350NDV R01/1200N R19/1400N FG VV001 04/04 Q1017=
200711180050 METAR ESMX 180050Z AUTO 22005KT 0400NDV R01/1300N R19/1700N FG VV001 04/04 Q1017=
200711180020 METAR ESMX 180020Z AUTO 21004KT 0450NDV R01/1500N R19/1800N FG VV001 04/04 Q1018=
200711172350 METAR ESMX 172350Z AUTO 21006KT 0500NDV R01/1600D R19/P2000D FG VV002 04/04 Q1018=
200711172320 METAR ESMX 172320Z AUTO 21005KT 1400NDV R01/P2000D R19/P2000D OVC001/// 04/04 Q1018=
200711172250 METAR ESMX 172250Z AUTO 21005KT 1200NDV R01/P2000U R19/P2000U FG OVC001/// 04/04 Q1017=
200711172220 METAR ESMX 172220Z AUTO 21006KT 0650NDV R01/P2000N R19/P2000D FG OVC001/// 04/04 Q1018=
200711172150 METAR ESMX 172150Z AUTO 20005KT 0900NDV R01/P2000U R19/P2000U FG VV002 04/04 Q1017=
200711172120 METAR ESMX 172120Z AUTO 19005KT 0750NDV R01/P2000U R19/P2000D FG VV002 04/04 Q1018=
200711172050 METAR ESMX 172050Z AUTO 21004KT 2300NDV BR BKN001/// OVC023/// 04/04 Q1018=
200711172020 METAR ESMX 172020Z AUTO 22004KT 8000NDV BR FEW016/// OVC020/// 04/04 Q1018=
200711171950 METAR ESMX 171950Z AUTO 19003KT 9000NDV BR BKN010/// OVC015/// 04/04 Q1018=
200711171920 METAR ESMX 171920Z AUTO 22004KT 8000NDV BR OVC010/// 04/04 Q1018=
200711171850 METAR ESMX 171850Z AUTO 21004KT 8000NDV BR OVC010/// 04/04 Q1017=
200711171820 METAR ESMX 171820Z AUTO 21004KT 5000NDV BR OVC011/// 04/04 Q1018=
200711171750 METAR ESMX 171750Z AUTO 20003KT 5000NDV BR OVC012/// 04/04 Q1017=
200711171720 METAR ESMX 171720Z AUTO 18003KT 6000NDV BR FEW006/// OVC011/// 04/04 Q1017=
200711171650 METAR ESMX 171650Z AUTO VRB02KT 6000NDV BR OVC005/// 05/04 Q1017=
200711171620 METAR ESMX 171620Z AUTO 25003KT 7000NDV BR OVC004/// 04/04 Q1017=
200711171550 METAR ESMX 171550Z AUTO 25004KT 7000NDV BR FEW003/// OVC005/// 04/04 Q1017=
200711171520 METAR ESMX 171520Z AUTO 22003KT 180V260 5000NDV BR OVC004/// 04/04 Q1017=
200711171450 METAR ESMX 171450Z AUTO VRB02KT 9999NDV OVC005/// 04/04 Q1017=
200711171420 METAR ESMX 171420Z AUTO VRB02KT 9999NDV OVC005/// 04/04 Q1017=
200711171350 METAR ESMX 171350Z AUTO 22003KT 190V260 9999NDV OVC005/// 04/04 Q1017=
200711171320 METAR ESMX 171320Z AUTO VRB02KT 9999NDV OVC007/// 04/04 Q1017=
200711171250 METAR ESMX 171250Z AUTO VRB02KT 9999NDV OVC006/// 04/04 Q1017=
200711171220 METAR ESMX 171220Z AUTO VRB02KT 9999NDV OVC006/// 04/04 Q1017=
200711171150 METAR ESMX 171150Z AUTO VRB01KT 9999NDV FEW001/// OVC006/// 04/03 Q1017=
200711171120 METAR ESMX 171120Z AUTO VRB01KT 9999NDV SCT001/// BKN004/// OVC007/// 04/03 Q1017=
200711171050 METAR ESMX 171050Z AUTO VRB02KT 9999NDV BKN001/// OVC005/// 03/03 Q1018=
200711171020 METAR ESMX 171020Z AUTO VRB02KT 5000NDV VV001 03/03 Q1018=
200711170950 METAR ESMX 170950Z AUTO VRB01KT 0900NDV R01/1600U R19/1300N VV001 02/02 Q1018=
200711170920 METAR ESMX 170920Z AUTO VRB01KT 0550NDV R01/1000N R19/0900N FG VV002 02/02 Q1018=
200711170850 METAR ESMX 170850Z AUTO 00000KT 0500NDV R01/0900N R19/0900N FG VV001 01/01 Q1018=
200711170820 METAR ESMX 170820Z AUTO 00000KT 0400NDV R01/0800N R19/0800N FG VV001 01/00 Q1018=
200711170750 METAR ESMX 170750Z AUTO 00000KT 0350NDV R01/0800 R19/0750 FG VV001 00/00 Q1018=
200711170720 METAR ESMX 170720Z AUTO 00000KT 0200NDV R01/0700N R19/0650 FG VV001 00/M00 Q1018=
200711170650 METAR ESMX 170650Z AUTO 00000KT 0150NDV R01/0500N R19/0450N FZFG VV000 M00/M00 Q1018=
200711170620 METAR ESMX 170620Z AUTO 19002KT 0250NDV R01/0700V1000D R19/1000N=
200711170550 METAR ESMX 170550Z AUTO 30004KT 0300NDV R01/1100N R19/1200N FZFG VV001 M00/M00 Q1017=
200711170520 METAR ESMX 170520Z AUTO 30003KT 0250NDV R01/0900N R19/0900U FZFG VV001 M00/M00 Q1017=
200711170450 METAR ESMX 170450Z AUTO 20004KT 0250NDV R01/0900N R19/0800N FZFG VV001 M00/M00 Q1017=
200711170420 METAR ESMX 170420Z AUTO 20004KT 0250NDV R01/0900N R19/1000N FZFG VV001 M00/M00 Q1017=
200711170350 METAR ESMX 170350Z AUTO VRB01KT 0250NDV R01/0900N R19/1100N FZFG VV001 M00/M00 Q1017=
200711170320 METAR ESMX 170320Z AUTO 30002KT 0350NDV R01/1200N R19/1100N FZFG VV001 M00/M00 Q1017=
200711170250 METAR ESMX 170250Z AUTO VRB01KT 0350NDV R01/1200N R19/1400N FG VV001 00/M00 Q1017=
200711170220 METAR ESMX 170220Z AUTO 27003KT 240V320 0500NDV R01/1900D R19/1600N FG VV001 00/M00 Q1017=
200711170150 METAR ESMX 170150Z 27005KT 240V300 0500 R01/1000VP2000U R19/1400U FG VV002 00/00 Q1017=
200711170120 METAR ESMX 170120Z 27005KT 0200 R01/0700N R19/0900 FG VV002 00/00 Q1017=
200711170050 METAR ESMX 170050Z 28003KT 240V320 0200 R01/0800N R19/0700N FG VV002 01/00 Q1017=
200711170020 METAR ESMX 170020Z 00000KT 0400 R01/0800VP2000D R19/P2000N FG VV002 01/01 Q1017=
200711162350 METAR ESMX 162350Z 33003KT 2500 BR OVC002 01/01 Q1017=
200711162320 METAR ESMX 162320Z 29003KT 250V320 3500 BR OVC002 01/01 Q1017=
200711162250 METAR ESMX 162250Z 28005KT 250V330 4000 BR OVC002 01/01 Q1017=
200711162220 METAR COR ESMX 162220Z 31005KT 4700 BR SCT002 OVC003 01/01 Q1017=
200711162150 METAR ESMX 162150Z 28004KT 4400 BR OVC002 02/01 Q1017=
200711162120 METAR ESMX 162120Z 30004KT 5000 BR OVC003 02/01 Q1017=
200711162050 METAR ESMX 162050Z 30004KT 270V330 5000 BR FEW002 OVC003 02/02 Q1017=
200711162020 METAR ESMX 162020Z 29003KT 260V330 5000 BR OVC002 02/02 Q1017=
200711161950 METAR ESMX 161950Z 28004KT 6000 BR OVC003 02/02 Q1017=
200711161920 METAR ESMX 161920Z 26003KT 4500 BR OVC004 02/01 Q1017=
200711161850 METAR ESMX 161850Z 26003KT 3300 BR SCT002 OVC005 01/01 Q1017=
200711161820 METAR ESMX 161820Z 26003KT 2800 BR SCT003 OVC006 01/01 Q1017=
200711161750 METAR ESMX 161750Z 27003KT 4000 BR SCT002 OVC005 01/01 Q1016=
200711161720 METAR ESMX 161720Z 25003KT 4000 BR SCT004 OVC005 01/01 Q1016=
200711161650 METAR ESMX 161650Z VRB02KT 1200 R01/P2000U R19/P2000U BR BCFG OVC002 01/01 Q1016=
200711161620 METAR ESMX 161620Z VRB02KT 0550 R01/1700U R19/P2000U FG VV002 01/01 Q1016=
200711161550 METAR ESMX 161550Z VRB02KT 0500 R01/1500N R19/1700N FG VV002 01/01 Q1016=
200711161520 METAR ESMX 161520Z 27003KT 0450 R01/1300N R19/1400U FG VV002 01/01 Q1016=
200711161450 METAR ESMX 161450Z 28005KT 250V320 0650 R01/1500N R19/1400VP2000D FG VV002 01/00 Q1016=
200711161420 METAR ESMX 161420Z 27004KT 230V300 0350 R01/0900N R19/0800N FG VV002 01/01 Q1016=
200711161350 METAR ESMX 161350Z 26005KT 230V290 0300 R01/0650N R19/0900 FG VV002 01/01 Q1016=
200711161320 METAR ESMX 161320Z 25005KT 210V280 0700 R01/1000V1500D R19/1000V1500D FG VV002 01/00 Q1016=
200711161250 METAR ESMX 161250Z 25003KT 200V290 1500 BR VV002 00/00 Q1016=
200711161220 METAR ESMX 161220Z 23003KT 0550 R01/1200N R19/1000N FG VV002 00/M00 Q1017=
200711161150 METAR ESMX 161150Z 25004KT 220V280 0450 R01/0800N R19/0900 FG VV002 00/00 Q1017=
200711161120 METAR ESMX 161120Z 26004KT 210V300 0350 R01/0700N R19/0700 FZFG VV002 M00/M01 Q1017=
200711161050 METAR ESMX 161050Z 25005KT 1000 R01/P2000D R19/P2000D BR SCT002 BKN003 OVC005 M01/M01 Q1017=
200711161020 METAR ESMX 161020Z 24003KT 210V280 9000 BR FEW007 BKN013 M01/M02 Q1017=
200711160950 METAR ESMX 160950Z 00000KT 7000 BR FEW004 SCT006 M02/M02 Q1017=
200711160920 METAR ESMX 160920Z 00000KT 6000 BR SCT002 BKN007 M03/M03 Q1017=
200711160850 METAR ESMX 160850Z 23004KT 210V270 1200 R01/1000VP2000U R19/1100VP2000U FZFG BKN002 M04/M04 Q1017=
200711160820 METAR COR ESMX 160820Z VRB01KT 0500 R01/0550V1200D R19/0800V1200U=
200711160750 METAR ESMX 160750Z 21002KT 0800 R01/1100V1900U R19/1000VP2000D=
200711160720 METAR ESMX 160720Z 21004KT 2500 BR BKN002 M05/M05 Q1017=
200711160650 METAR ESMX 160650Z 21002KT 5000 BR BKN002 M06/M06 Q1017=
200711160620 METAR ESMX 160620Z VRB01KT 7000 BR FEW002 M06/M07 Q1018=
200711160550 METAR ESMX 160550Z 20002KT 6000 BR NSC M07/M08 Q1018=
200711160520 METAR ESMX 160520Z 00000KT 7000 BR NSC M06/M07 Q1018=
200711160450 METAR ESMX 160450Z 24001KT 8000 BR NSC M06/M06 Q1017=
200711160420 METAR ESMX 160420Z AUTO 24003KT 5000NDV BR NCD M06/M06 Q1017=
200711160350 METAR ESMX 160350Z 22003KT 8000 BR NSC M06/M06 Q1018=
200711160320 METAR ESMX 160320Z AUTO 17001KT 5000NDV BR NCD M05/M06 Q1018=
200711160250 METAR ESMX 160250Z AUTO VRB02KT 7000NDV BR NCD M05/M06 Q1018=
200711160220 METAR ESMX 160220Z AUTO 19002KT 6000NDV BR NCD M06/M06 Q1018=
200711160150 METAR ESMX 160150Z AUTO 00000KT 8000NDV BR NCD M05/M05 Q1019=
200711160120 METAR ESMX 160120Z AUTO 21005KT 9999NDV NCD M05/M05 Q1019=
200711160050 METAR ESMX 160050Z 22004KT CAVOK M05/M05 Q1019=
200711160020 METAR ESMX 160020Z 22003KT CAVOK M04/M05 Q1019=
200711152350 METAR ESMX 152350Z 22004KT CAVOK M04/M05 Q1019=
200711152320 METAR ESMX 152320Z 24002KT CAVOK M04/M05 Q1020=
200711152250 METAR ESMX 152250Z 24003KT CAVOK M04/M05 Q1020=
200711152220 METAR ESMX 152220Z 23005KT CAVOK M04/M05 Q1020=
200711152150 METAR ESMX 152150Z 24004KT CAVOK M04/M05 Q1019=
200711152120 METAR ESMX 152120Z 22005KT CAVOK M04/M05 Q1020=
200711152050 METAR ESMX 152050Z 21004KT CAVOK M04/M05 Q1020=
200711152020 METAR ESMX 152020Z 23004KT CAVOK M03/M05 Q1020=
200711151950 METAR ESMX 151950Z 24005KT CAVOK M03/M05 Q1020=
200711151920 METAR ESMX 151920Z 23004KT CAVOK M03/M05 Q1020=
200711151850 METAR ESMX 151850Z 23004KT CAVOK M03/M05 Q1020=
200711151820 METAR ESMX 151820Z 23003KT CAVOK M03/M05 Q1020=
200711151750 METAR ESMX 151750Z 23003KT 9999 FEW025 M03/M05 Q1020=
200711151720 METAR ESMX 151720Z 20003KT 9999 SCT023 M03/M05 Q1020=
200711151650 METAR ESMX 151650Z 24002KT 9999 BKN022 M02/M05 Q1020=
200711151620 METAR ESMX 151620Z 25002KT 9999 BKN023 M02/M05 Q1020=
200711151550 METAR ESMX 151550Z 29002KT 9999 BKN023 M01/M05 Q1020=
200711151520 METAR ESMX 151520Z 31004KT 9999 BKN023 M01/M05 Q1020=
200711151450 METAR ESMX 151450Z 31005KT 270V350 9999 BKN022 M01/M05 Q1020=
200711151420 METAR ESMX 151420Z 30006KT 260V330 9999 OVC022 M01/M05 Q1020=
200711151350 METAR ESMX 151350Z 30007KT 270V340 9999 BKN022 M01/M05 Q1020=
200711151320 METAR ESMX 151320Z 31008KT 9999 BKN023 M01/M05 Q1020=
200711151250 METAR ESMX 151250Z 29009KT 260V330 9999 BKN022 M01/M06 Q1020=
200711151220 METAR ESMX 151220Z 31010KT 260V330 9999 BKN023 M01/M05 Q1020=
200711151150 METAR ESMX 151150Z 31011KT 280V340 9999 BKN025 M01/M06 Q1020=
200711151120 METAR ESMX 151120Z 30008KT 9999 BKN025 M01/M05 Q1020=
200711151050 METAR ESMX 151050Z 30006KT 9999 BKN027 M01/M05 Q1021=
200711151020 METAR ESMX 151020Z 31006KT 9999 BKN028 M01/M05 Q1021=
200711150950 METAR ESMX 150950Z 29006KT 9999 OVC029 M01/M04 Q1021=
200711150920 METAR ESMX 150920Z 27003KT 240V310 9999 OVC030 M02/M04 Q1021=
200711150850 METAR ESMX 150850Z 28003KT 9999 BKN030 M02/M05 Q1021=
200711150820 METAR ESMX 150820Z 27003KT 9999 OVC030 M02/M04 Q1021=
200711150750 METAR ESMX 150750Z 29004KT 9999 OVC030 M03/M04 Q1021=
200711150720 METAR ESMX 150720Z 29004KT 260V320 9999 OVC030 M03/M04 Q1021=
200711150650 METAR ESMX 150650Z VRB02KT 9999 OVC030 M04/M04 Q1021=
200711150620 METAR ESMX 150620Z 29003KT 9999 OVC030 M04/M05 Q1020=
200711150550 METAR ESMX 150550Z VRB02KT 9999 OVC030 M04/M05 Q1020=
200711150520 METAR ESMX 150520Z 29002KT 9999 BKN030 M04/M05 Q1020=
200711150450 METAR ESMX 150450Z 30002KT 9999 OVC030 M04/M05 Q1020=
200711150420 METAR ESMX 150420Z AUTO 31002KT 9999NDV OVC031/// M04/M05 Q1020=
200711150350 METAR ESMX 150350Z AUTO 32003KT 9999NDV SCT002/// OVC036/// M05/M05 Q1020=
200711150320 METAR ESMX 150320Z AUTO 32004KT 9999NDV OVC002/// M05/M05 Q1020=
200711150250 METAR ESMX 150250Z AUTO 32004KT 9999NDV FEW002/// BKN003/// M05/M06 Q1020=
200711150220 METAR ESMX 150220Z AUTO 32005KT 9999NDV BKN004/// M06/M06 Q1020=
200711150150 METAR ESMX 150150Z AUTO 34005KT 9999NDV FEW004/// M06/M06 Q1020=
200711150120 METAR ESMX 150120Z AUTO 36004KT 9999NDV NCD M04/M05 Q1020=
200711150050 METAR ESMX 150050Z AUTO 36006KT 9999NDV NCD M04/M05 Q1020=
200711150020 METAR ESMX 150020Z 01007KT CAVOK M04/M05 Q1019=
200711142350 METAR ESMX 142350Z 36007KT CAVOK M03/M04 Q1019=
200711142250 METAR ESMX 142250Z 36008KT CAVOK M03/M04 Q1019=
200711142220 METAR ESMX 142220Z 36007KT 9999 FEW015 M03/M04 Q1019=
200711142150 METAR ESMX 142150Z 01007KT CAVOK M03/M04 Q1019=
200711142120 METAR ESMX 142120Z 36008KT CAVOK M02/M04 Q1019=
200711142050 METAR ESMX 142050Z 36008KT CAVOK M02/M04 Q1018=
200711142020 METAR ESMX 142020Z 01009KT 9999 SCT014 BKN030 M01/M04 Q1018=
200711141950 METAR ESMX 141950Z 01010KT 340V040 9999 SCT014 BKN030 M01/M03 Q1018=
200711141920 METAR ESMX 141920Z 02013KT 9999 OVC014 M01/M03 Q1018=
200711141850 METAR ESMX 141850Z 36009KT 9999 SCT014 OVC020 M00/M03 Q1017=
200711141750 METAR ESMX 141750Z 02011KT 9999 SCT013 OVC015 M00/M03 Q1016=
200711141720 METAR ESMX 141720Z 02010KT 9999 FEW014 OVC018 M00/M03 Q1016=
200711141650 METAR ESMX 141650Z 02011KT 9999 BKN013 OVC017 M00/M03 Q1015=
200711141620 METAR ESMX 141620Z 02011KT 9999 -SHSN BKN013 OVC018 00/M02 Q1015=
200711141550 METAR ESMX 141550Z 01011KT 9999 FEW014 OVC019 00/M02 Q1015=
200711141520 METAR ESMX 141520Z 02011KT 9999 FEW016 BKN021 00/M03 Q1014=
200711141450 METAR ESMX 141450Z 02010KT 9999 FEW015 BKN019 00/M03 Q1014=
200711141420 METAR ESMX 141420Z 02012KT 350V050 9999 BKN015 00/M02 Q1013=
200711141350 METAR ESMX 141350Z 02011KT 9999 FEW014 BKN016 00/M02 Q1013=
200711141320 METAR ESMX 141320Z 02012KT 350V050 9999 BKN016 OVC021 00/M02 Q1012=
200711141250 METAR ESMX 141250Z 02013KT 9999 FEW016 SCT019 BKN022 00/M02 Q1012=
200711141220 METAR ESMX 141220Z 02013KT 9999 SCT015 BKN019 01/M03 Q1011=
200711141150 METAR ESMX 141150Z 01012KT 9999 FEW013 SCT016 BKN018 00/M02 Q1011=
200711141120 METAR ESMX 141120Z 01013KT 5000 SHSN BKN014 BKN020 00/M02 Q1011=
200711141050 METAR ESMX 141050Z 02012KT 9999 FEW013 BKN015 M00/M02 Q1011 RESN=
200711141020 METAR ESMX 141020Z 01012KT 9999 -SN BKN013 M00/M03 Q1010=
200711140950 METAR ESMX 140950Z 36011KT 9999 FEW011 OVC016 M00/M02 Q1010 RESN=
200711140920 METAR ESMX 140920Z 01012KT 9000 -SN FEW012 SCT020 M00/M02 Q1010=
200711140850 METAR ESMX 140850Z 01011KT 9999 -SN FEW013 SCT018 M00/M03 Q1009=
200711140820 METAR ESMX 140820Z 02012KT 5000 -SN BKN016 M00/M03 Q1009=
200711140750 METAR ESMX 140750Z 01012KT 9999 OVC016 M00/M03 Q1009 RESN=
200711140720 METAR ESMX 140720Z 01013KT 9999 -SN BKN015 M01/M03 Q1009=
200711140650 METAR ESMX 140650Z 01012KT 9999 SG FEW015 OVC018 M01/M03 Q1008 RESN=
200711140550 METAR ESMX 140550Z 01014KT 340V040 9999 -SN OVC015 M01/M03 Q1008 RESG=
200711140520 METAR ESMX 140520Z 01015KT 9999 OVC015 M00/M03 Q1007=
200711140450 METAR ESMX 140450Z 02013KT 9999 OVC014 M00/M03 Q1007=
200711140420 METAR ESMX 140420Z AUTO 01012KT 340V040 9999NDV -SN BKN013/// OVC018/// M00/M03 Q1007=
200711140350 METAR ESMX 140350Z AUTO 02013KT 350V050 9999NDV -SN OVC012/// M00/M02 Q1007=
200711140320 METAR ESMX 140320Z AUTO 02013KT 350V050 9999NDV OVC012/// M00/M02 Q1006 RESG RESN=
200711140250 METAR ESMX 140250Z AUTO 02013KT 9999NDV SG BKN013/// OVC018/// M00/M02 Q1006 RESN=
200711140220 METAR ESMX 140220Z AUTO 02012KT 9999NDV -SN BKN015/// OVC020/// M00/M03 Q1006=
200711140150 METAR ESMX 140150Z AUTO 02013KT 9999NDV FEW015/// SCT017/// BKN020/// M00/M03 Q1006=
200711140120 METAR ESMX 140120Z AUTO 02011KT 350V050 9999NDV OVC016/// M00/M03 Q1006=
200711140050 METAR ESMX 140050Z 01013KT 9999 FEW014 SCT017 OVC020 00/M02 Q1006 REUP RESN RESG=
200711140020 METAR ESMX 140020Z 02012KT 9999 OVC014 00/M02 Q1006=
200711132350 METAR ESMX 132350Z 02012KT 9999 BKN014 BKN020 00/M02 Q1005=
200711132320 METAR ESMX 132320Z 01013KT 9999 FEW015 SCT019 BKN021 00/M02 Q1005=
200711132250 METAR ESMX 132250Z 01012KT 9999 FEW015 BKN019 OVC024 00/M02 Q1005=
200711132220 METAR ESMX 132220Z 02011KT 9999 SCT014 BKN020 BKN030 00/M02 Q1005=
200711132150 METAR ESMX 132150Z 02012KT 9999 BKN012 OVC022 00/M02 Q1005=
200711132050 METAR ESMX 132050Z 01013KT 9999 BKN011 OVC030 00/M02 Q1004=
200711132020 METAR ESMX 132020Z 02011KT 9999 -SN FEW010 OVC015 00/M02 Q1004=
200711131950 METAR ESMX 131950Z 01011KT 8000 -SN FEW010 BKN013 OVC017 00/M01 Q1004 RESG=
200711131920 METAR ESMX 131920Z 02012KT 9999 -SN FEW012 SCT015 BKN018 00/M02 Q1004=
200711131850 METAR ESMX 131850Z 02012KT 350V050 9999 FEW015 SCT020 BKN025 00/M02 Q1004=
200711131820 METAR ESMX 131820Z 02012KT 9999 -SN FEW010 SCT020 BKN030 00/M02 Q1004=
200711131750 METAR ESMX 131750Z 02011KT 9999 -SN FEW011 SCT015 BKN024 00/M01 Q1004=
200711131720 METAR ESMX 131720Z 02011KT 9999 -SN FEW011 SCT015 BKN019 00/M01 Q1004=
200711131650 METAR ESMX 131650Z 02011KT 9999 -SN FEW012 SCT015 BKN020 00/M01 Q1003=
200711131620 METAR ESMX 131620Z 36010KT 6000 -SN FEW009 BKN023 BKN039 00/M01 Q1003=
200711131550 METAR ESMX 131550Z 36010KT 6000 -SN FEW011 SCT016 00/M01 Q1003=
200711131520 METAR ESMX 131520Z 36010KT 9999 -SHSN FEW012 BKN015 00/M01 Q1003=
200711131450 METAR ESMX 131450Z 36010KT 9999 SCT013 BKN018 OVC025 01/M01 Q1003=
200711131420 METAR ESMX 131420Z 36010KT 9999 FEW014 SCT020 OVC025 01/M01 Q1003=
200711131320 METAR ESMX 131320Z 01012KT 9999 FEW013 SCT018 BKN021 01/M01 Q1003=
200711131250 METAR ESMX 131250Z 36012KT 9999 FEW012 BKN014 BKN022 01/M01 Q1003=
200711131220 METAR ESMX 131220Z 01010KT 9999 FEW012 SCT016 BKN019 01/M01 Q1003=
200711131150 METAR ESMX 131150Z 01010KT 9999 FEW013 SCT016 BKN019 01/M01 Q1003=
200711131120 METAR ESMX 131120Z 36010KT 9999 FEW015 SCT018 OVC022 01/M01 Q1003=
200711131050 METAR ESMX 131050Z 36009KT 9999 FEW014 SCT016 BKN019 01/M01 Q1003=
200711131020 METAR ESMX 131020Z 36009KT 9999 FEW012 BKN016 01/M01 Q1003=
200711130950 METAR ESMX 130950Z 36009KT 9999 FEW010 BKN013 BKN017 01/M01 Q1003=
200711130920 METAR ESMX 130920Z 36009KT 9999 FEW010 BKN014 BKN020 01/M01 Q1003=
200711130850 METAR ESMX 130850Z 36010KT 9999 FEW009 SCT013 BKN020 01/M01 Q1003=
200711130820 METAR ESMX 130820Z 35010KT 9999 FEW011 BKN014 01/M01 Q1003=
200711130750 METAR ESMX 130750Z 35010KT 9999 BKN012 01/M01 Q1003=
200711130720 METAR ESMX 130720Z 36010KT 9999 FEW012 SCT016 BKN021 01/M01 Q1003=
200711130650 METAR ESMX 130650Z 35009KT 9999 -SN FEW008 SCT014 BKN020 01/M00 Q1003=
200711130620 METAR ESMX 130620Z 36009KT 9999 -SN FEW010 SCT016 BKN019 01/M00 Q1003=
200711130550 METAR ESMX 130550Z 35009KT 9999 -SN FEW006 SCT008 BKN012 01/M00 Q1003 RERA=
200711130520 METAR ESMX 130520Z 35008KT 9999 FEW008 OVC013 01/M00 Q1003=
200711130450 METAR ESMX 130450Z 35008KT 9999 SG FEW006 SCT010 BKN013 01/00 Q1003 RESN=
200711130420 METAR ESMX 130420Z 34008KT 7000 SN FEW006 SCT008 BKN011 01/00 Q1003=
200711130350 METAR ESMX 130350Z 35009KT 7000 -SN BKN010 01/00 Q1003=
200711130320 METAR ESMX 130320Z AUTO 34010KT 2500NDV -SN FEW006/// SCT008/// BKN010/// 00/00 Q1003 RESG=
200711130250 METAR ESMX 130250Z AUTO 33008KT 4500NDV -SN FEW006/// SCT012/// 00/00 Q1003=
200711130220 METAR ESMX 130220Z AUTO 33009KT 290V350 2700NDV -SN FEW005/// SCT009/// BKN016/// 00/00 Q1003=
200711130150 METAR ESMX 130150Z AUTO 33009KT 2600NDV -SN FEW005/// SCT008/// BKN011/// 00/00 Q1003=
200711130120 METAR ESMX 130120Z AUTO 33009KT 2100NDV -SN FEW006/// SCT009/// BKN012/// 00/00 Q1003=
200711130050 METAR ESMX 130050Z 33008KT 2600 -SN FEW005 SCT006 BKN009 00/00 Q1003=
200711130020 METAR ESMX 130020Z 33009KT 2400 -SN FEW005 SCT010 BKN015 01/M00 Q1004 RERA=
200711122350 METAR ESMX 122350Z 33010KT 4800 -SN FEW010 BKN014 BKN020 01/M00 Q1004=
200711122320 METAR ESMX 122320Z 33010KT 6000 -DZ SCT015 01/M00 Q1004=
200711122250 METAR ESMX 122250Z 34011KT 8000 -DZ BKN015 01/M00 Q1004=
200711122220 METAR ESMX 122220Z 33012KT 300V360 9999 BKN015 01/M01 Q1004=
200711122120 METAR ESMX 122120Z 32008KT 9999 FEW011 OVC015 01/M01 Q1004 REDZ=
200711122050 METAR ESMX 122050Z 33008KT 9999 DZ OVC015 01/M00 Q1005=
200711122020 METAR ESMX 122020Z 32008KT 9999 OVC010 01/M01 Q1005=
200711121950 METAR ESMX 121950Z 32010KT 9999 OVC010 01/M01 Q1005=
200711121920 METAR ESMX 121920Z 33010KT 9999 OVC015 01/M01 Q1005=
200711121850 METAR ESMX 121850Z 32009KT 9999 FEW015 SCT020 BKN030 01/M01 Q1005=
200711121820 METAR ESMX 121820Z 33010KT 300V010 9999 SCT030 BKN040 01/M02 Q1005=
200711121750 METAR ESMX 121750Z 33011KT 9999 BKN031 01/M02 Q1005=
200711121720 METAR ESMX 121720Z 33008KT 290V350 9999 FEW013 SCT028 BKN065 01/M01 Q1005=
200711121650 METAR ESMX 121650Z 32009KT 9999 FEW012 SCT015 BKN026 01/M01 Q1005=
200711121620 METAR ESMX 121620Z 33009KT 9999 FEW013 SCT023 BKN027 01/M01 Q1005=
200711121550 METAR ESMX 121550Z 33009KT 9999 BKN020 BKN080 01/M02 Q1005=
200711121520 METAR ESMX 121520Z 31006KT 280V340 9999 FEW030 SCT080 01/M01 Q1005=
200711121420 METAR ESMX 121420Z 32008KT 9999 FEW016 BKN032 BKN075 02/M01 Q1005=
200711121350 METAR ESMX 121350Z 33008KT 300V360 9999 FEW019 BKN025 BKN075 02/M01 Q1005=
200711121320 METAR ESMX 121320Z 34009KT 310V020 9999 BKN018 BKN075 02/M01 Q1005=
200711121250 METAR ESMX 121250Z 34009KT 9999 FEW012 SCT016 BKN075 02/M01 Q1005=
200711121150 METAR ESMX 121150Z 34009KT 9999 OVC011 01/M01 Q1005=
200711121120 METAR ESMX 121120Z 34009KT 9999 FEW008 BKN010 BKN014 01/M00 Q1004 RERA=
200711121050 METAR ESMX 121050Z 34008KT 300V010 9999 -RA BKN008 01/M01 Q1004=
200711121020 METAR ESMX 121020Z 34008KT 9999 -RA FEW007 SCT009 BKN012 01/M00 Q1004=
200711120950 METAR ESMX 120950Z 35008KT 9999 BKN008 OVC011 01/M01 Q1004=
200711120920 METAR ESMX 120920Z 36009KT 9999 OVC007 00/M01 Q1004=
200711120850 METAR ESMX 120850Z 34010KT 9999 OVC008 M00/M02 Q1003=
200711120820 METAR ESMX 120820Z 34008KT 9999 BKN009 M01/M02 Q1003=
200711120750 METAR ESMX 120750Z 33005KT 9999 SCT030 M01/M02 Q1003=
200711120720 METAR ESMX 120720Z 34006KT 9999 BKN029 M01/M03 Q1002=
200711120650 METAR ESMX 120650Z 32005KT 9999 OVC029 M02/M03 Q1002=
200711120620 METAR ESMX 120620Z 33004KT 9999 OVC029 M02/M03 Q1001=
200711120550 METAR ESMX 120550Z 34005KT 9999 BKN029 M04/M04 Q1001=
200711120520 METAR ESMX 120520Z 34006KT 9999 BKN027 M05/M05 Q1001=
200711120450 METAR ESMX 120450Z VRB02KT 9999 FEW027 M05/M05 Q1000=
200711120420 METAR ESMX 120420Z AUTO 31002KT 9999NDV SCT016/// M05/M05 Q1000=
200711120350 METAR ESMX 120350Z AUTO 32003KT 290V350 9999NDV FEW013/// M04/M05 Q1000=
200711120320 METAR ESMX 120320Z AUTO 33004KT 9999NDV NCD M05/M06 Q1000=
200711120250 METAR ESMX 120250Z AUTO 30005KT 9999NDV NCD M05/M06 Q0999=
200711120220 METAR ESMX 120220Z AUTO 30005KT 9999NDV NCD M05/M06 Q0999=
200711120150 METAR ESMX 120150Z AUTO 29006KT 9999NDV NCD M04/M06 Q0999=
200711120120 METAR ESMX 120120Z 29004KT 9999 FEW020 M05/M05 Q0998=
200711120050 METAR ESMX 120050Z 00000KT CAVOK M04/M05 Q0998=
200711112350 METAR ESMX 112350Z 27002KT CAVOK M04/M05 Q0998=
200711112320 METAR ESMX 112320Z 28004KT 9999 BKN021 M02/M05 Q0998=
200711112250 METAR ESMX 112250Z 28004KT 9999 OVC023 M01/M04 Q0998=
200711112220 METAR ESMX 112220Z 29005KT 9999 OVC024 M01/M05 Q0998=
200711112150 METAR ESMX 112150Z 28004KT 9999 OVC026 M02/M05 Q0997=
200711112120 METAR ESMX 112120Z VRB02KT 9999 FEW025 SCT093 M02/M05 Q0997=
200711112050 METAR ESMX 112050Z 27003KT CAVOK M02/M05 Q0997=
200711112020 METAR ESMX 112020Z 27004KT CAVOK M02/M05 Q0997=
200711111950 METAR ESMX 111950Z 26003KT CAVOK M01/M05 Q0997=
200711111920 METAR ESMX 111920Z 27004KT CAVOK M01/M05 Q0996=
200711111850 METAR ESMX 111850Z 27006KT CAVOK M02/M05 Q0996=
200711111820 METAR ESMX 111820Z 25004KT CAVOK M02/M05 Q0996=
200711111750 METAR ESMX 111750Z 25004KT CAVOK M02/M05 Q0996=
200711111720 METAR ESMX 111720Z 25004KT CAVOK M03/M05 Q0996=
200711111650 METAR ESMX 111650Z 25002KT CAVOK M02/M06 Q0996=
200711111620 METAR ESMX 111620Z 28003KT 250V310 CAVOK M01/M05 Q0996=
200711111550 METAR ESMX 111550Z 26004KT CAVOK M02/M05 Q0996=
200711111520 METAR ESMX 111520Z 26002KT CAVOK M01/M05 Q0996=
200711111450 METAR ESMX 111450Z 30004KT CAVOK M00/M04 Q0996=
200711111420 METAR ESMX 111420Z 29007KT CAVOK 01/M04 Q0996=
200711111350 METAR ESMX 111350Z 29007KT CAVOK 02/M04 Q0995=
200711111320 METAR ESMX 111320Z 29008KT 250V320 CAVOK 02/M04 Q0995=
200711111250 METAR ESMX 111250Z 28007KT CAVOK 02/M04 Q0995=
200711111220 METAR ESMX 111220Z 30008KT CAVOK 02/M03 Q0995=
200711111150 METAR ESMX 111150Z 32009KT CAVOK 02/M04 Q0995=
200711111120 METAR ESMX 111120Z AUTO 32008KT 9999NDV NCD 01/M04 Q0995=
200711111050 METAR ESMX 111050Z AUTO 30006KT 260V350 9999NDV NCD 01/M04 Q0995=
200711111020 METAR ESMX 111020Z AUTO 28006KT 9999NDV NCD 00/M04 Q0995=
200711110950 METAR ESMX 110950Z AUTO 27005KT 9999NDV NCD M00/M04 Q0995=
200711110920 METAR ESMX 110920Z AUTO 27005KT 9999NDV NCD M01/M04 Q0995=
200711110850 METAR ESMX 110850Z AUTO 28005KT 9999NDV NCD M02/M05 Q0994=
200711110820 METAR ESMX 110820Z AUTO 30004KT 260V350 9999NDV NCD M03/M05 Q0994=
200711110750 METAR ESMX 110750Z AUTO 29006KT 9999NDV NCD M03/M05 Q0994=
200711110720 METAR ESMX 110720Z AUTO 28005KT 9999NDV NCD M05/M06 Q0994=
200711110650 METAR ESMX 110650Z AUTO 00000KT 9999NDV NCD M06/M07 Q0994=
200711110620 METAR ESMX 110620Z AUTO 27005KT 9999NDV NCD M06/M07 Q0994=
200711110550 METAR ESMX 110550Z AUTO 26003KT 9999NDV NCD M06/M07 Q0994=
200711110520 METAR ESMX 110520Z AUTO 28003KT 9999NDV NCD M06/M07 Q0994=
200711110450 METAR ESMX 110450Z AUTO 27004KT 9999NDV NCD M04/M06 Q0994=
200711110420 METAR ESMX 110420Z AUTO 28005KT 9999NDV NCD M04/M06 Q0994=
200711110350 METAR ESMX 110350Z AUTO 27004KT 9999NDV NCD M04/M06 Q0994=
200711110320 METAR ESMX 110320Z AUTO 27004KT 9999NDV NCD M03/M06 Q0995=
200711110250 METAR ESMX 110250Z AUTO 29004KT 260V330 9999NDV NCD M03/M06 Q0995=
200711110220 METAR ESMX 110220Z AUTO 27004KT 9999NDV NCD M03/M06 Q0995=
200711110150 METAR ESMX 110150Z AUTO 28004KT 9999NDV NCD M03/M06 Q0995=
200711110120 METAR ESMX 110120Z AUTO 30004KT 9999NDV NCD M02/M05 Q0995=
200711110050 METAR ESMX 110050Z AUTO 30005KT 9999NDV NCD M02/M05 Q0995=
200711110020 METAR ESMX 110020Z AUTO 29006KT 9999NDV SCT044/// M01/M05 Q0995=
200711102350 METAR ESMX 102350Z AUTO 29006KT 9999NDV BKN041/// M01/M04 Q0995=
200711102320 METAR ESMX 102320Z AUTO 27005KT 9999NDV OVC042/// M01/M04 Q0996=
200711102250 METAR ESMX 102250Z AUTO 28004KT 9999NDV OVC043/// M01/M03 Q0996=
200711102220 METAR ESMX 102220Z AUTO 28005KT 9999NDV OVC039/// M00/M03 Q0996=
200711102150 METAR ESMX 102150Z AUTO 30006KT 9999NDV OVC043/// M01/M03 Q0996=
200711102120 METAR ESMX 102120Z AUTO 31010KT 270V340 9999NDV SCT041/// M01/M03 Q0996=
200711102050 METAR ESMX 102050Z AUTO 28006KT 9999NDV FEW044/// M02/M05 Q0997=
200711102020 METAR ESMX 102020Z AUTO 27004KT 250V320 9999NDV NCD M03/M06 Q0997=
200711101950 METAR ESMX 101950Z AUTO 29004KT 9999NDV NCD M02/M06 Q0997=
200711101920 METAR ESMX 101920Z AUTO 28007KT 9999NDV NCD M01/M05 Q0997=
200711101850 METAR ESMX 101850Z AUTO 29009KT 9999NDV NCD M01/M05 Q0997=
200711101820 METAR ESMX 101820Z AUTO 30007KT 9999NDV NCD M01/M05 Q0997=
200711101750 METAR ESMX 101750Z AUTO 29005KT 250V320 9999NDV NCD M02/M05 Q0997=
200711101720 METAR ESMX 101720Z AUTO 28006KT 9999NDV NCD M01/M05 Q0997=
200711101650 METAR ESMX 101650Z AUTO 29006KT 9999NDV NCD M01/M05 Q0997=
200711101620 METAR ESMX 101620Z AUTO 28005KT 9999NDV NCD M01/M05 Q0997=
200711101550 METAR ESMX 101550Z AUTO 29005KT 9999NDV NCD M01/M05 Q0997=
200711101520 METAR ESMX 101520Z AUTO 30005KT 9999NDV NCD M01/M04 Q0996=
200711101450 METAR ESMX 101450Z AUTO 29006KT 9999NDV NCD 00/M04 Q0996=
200711101420 METAR ESMX 101420Z AUTO 30007KT 9999NDV NCD 01/M04 Q0996=
200711101350 METAR ESMX 101350Z AUTO 30008KT 260V330 9999NDV NCD 01/M04 Q0996=
200711101320 METAR ESMX 101320Z AUTO 31009KT 9999NDV NCD 01/M03 Q0996=
200711101250 METAR ESMX 101250Z AUTO 30010KT 260V330 9999NDV NCD 01/M03 Q0996=
200711101220 METAR ESMX 101220Z AUTO 31010KT 270V330 9999NDV NCD 01/M03 Q0996=
200711101150 METAR ESMX 101150Z AUTO 30010KT 270V330 9999NDV NCD 01/M03 Q0996=
200711101120 METAR ESMX 101120Z AUTO 30010KT 270V340 9999NDV NCD 01/M03 Q0996=
200711101050 METAR ESMX 101050Z AUTO 31010KT 9999NDV NCD 00/M03 Q0995=
200711101020 METAR ESMX 101020Z AUTO 30011KT 9999NDV NCD 00/M03 Q0995=
200711100950 METAR ESMX 100950Z AUTO 31010KT 270V330 9999NDV NCD M00/M03 Q0995=
200711100920 METAR ESMX 100920Z AUTO 30009KT 270V340 9999NDV NCD M01/M04 Q0995=
200711100850 METAR ESMX 100850Z AUTO 30009KT 9999NDV NCD M02/M05 Q0995=
200711100820 METAR ESMX 100820Z AUTO 30008KT 260V330 9999NDV NCD M02/M05 Q0995=
200711100750 METAR ESMX 100750Z AUTO 30008KT 9999NDV NCD M03/M05 Q0995=
200711100720 METAR ESMX 100720Z AUTO 30008KT 9999NDV NCD M02/M05 Q0995=
200711100650 METAR ESMX 100650Z AUTO 30008KT 9999NDV NCD M02/M05 Q0995=
200711100620 METAR ESMX 100620Z AUTO 30010KT 9999NDV NCD M02/M04 Q0995=
200711100550 METAR ESMX 100550Z AUTO 30010KT 270V330 9999NDV NCD M02/M04 Q0994=
200711100520 METAR ESMX 100520Z AUTO 30010KT 9999NDV NCD M02/M04 Q0994=
200711100450 METAR ESMX 100450Z AUTO 30010KT 9999NDV NCD M02/M04 Q0994=
200711100420 METAR ESMX 100420Z AUTO 30010KT 9999NDV NCD M02/M04 Q0994=
200711100350 METAR ESMX 100350Z AUTO 30012KT 260V330 9999NDV BKN110/// M02/M04 Q0994=
200711100320 METAR ESMX 100320Z AUTO 30009KT 270V330 9999NDV NCD M01/M03 Q0994=
200711100250 METAR ESMX 100250Z AUTO 30010KT 9999NDV NCD M01/M03 Q0994=
200711100220 METAR ESMX 100220Z AUTO 31010KT 270V340 9999NDV NCD M01/M03 Q0994=
200711100150 METAR ESMX 100150Z AUTO 30011KT 280V340 9999NDV NCD M01/M03 Q0993=
200711100120 METAR ESMX 100120Z AUTO 30011KT 280V340 9999NDV NCD M01/M03 Q0993=
200711100050 METAR ESMX 100050Z AUTO 31011KT 9999NDV NCD M01/M03 Q0993=
200711100020 METAR ESMX 100020Z AUTO 31011KT 280V350 9999NDV NCD M00/M02 Q0993=
200711092350 METAR ESMX 092350Z AUTO 31012KT 260V340 9999NDV FEW110/// M00/M02 Q0992=
200711092320 METAR ESMX 092320Z AUTO 31012KT 9999NDV FEW100/// M00/M02 Q0992=
200711092250 METAR ESMX 092250Z AUTO 31013G23KT 9999NDV BKN040/// BKN110/// M00/M01 Q0992=
200711092220 METAR ESMX 092220Z AUTO 31012KT 280V340 9999NDV SCT038/// BKN098/// 00/M01 Q0992=
200711092150 METAR ESMX 092150Z AUTO 31011KT 280V340 9999NDV NCD 00/M01 Q0992=
200711092120 METAR ESMX 092120Z AUTO 32013KT 290V350 3300NDV -SN FEW006/// SCT016/// BKN029/// 00/M00 Q0992 RESG=
200711092050 METAR ESMX 092050Z AUTO 32014G24KT 6000NDV -SN FEW008/// SCT014/// BKN021/// 00/M00 Q0991=
200711092020 METAR ESMX 092020Z AUTO 32014KT 2300NDV -SN FEW006/// SCT012/// BKN018/// 00/M00 Q0991=
200711091950 METAR ESMX 091950Z 32013KT 290V350 1800 -SN FEW008 SCT011 BKN015 00/00 Q0990=
200711091920 METAR ESMX 091920Z 32012KT 290V350 2000 -SN FEW008 SCT010 BKN013 00/00 Q0990=
200711091850 METAR ESMX 091850Z 32015G26KT 270V350 6000 -SN FEW012 BKN016 BKN025 00/00 Q0990=
200711091820 METAR ESMX 091820Z 32015KT 1900 -SN FEW009 SCT013 BKN019 00/00 Q0989=
200711091750 METAR ESMX 091750Z 32015KT 0600 R01/P2000U R19/P2000D -SN FEW006 SCT010 BKN013 00/00 Q0989=
200711091720 METAR ESMX 091720Z 32014KT 1200 R01/P2000D R19/P2000D -SN FEW007 BKN012 00/M00 Q0988 RERA=
200711091650 METAR ESMX 091650Z 32015KT 3200 RA FEW008 BKN012 01/00 Q0987 RESN=
200711091620 METAR ESMX 091620Z 31013KT 2100 RA FEW007 SCT009 BKN011 01/00 Q0986 REDZ=
200711091550 METAR ESMX 091550Z 31013KT 4900 DZ FEW007 OVC009 02/01 Q0985 RERA=
200711091520 METAR ESMX 091520Z 30013KT 9999 BR SCT005 OVC008 03/02 Q0985 REDZ=
200711091450 METAR ESMX 091450Z 28010KT 250V320 3800 -DZ FEW003 BKN005 OVC008 04/03 Q0984=
200711091420 METAR ESMX 091420Z 18004KT 150V210 6000 DZ FEW007 SCT010 BKN013 05/04 Q0984 RERA=
200711091350 METAR ESMX 091350Z 20006KT 4000 -RA SCT006 BKN009 OVC011 05/04 Q0983=
200711091320 METAR ESMX 091320Z 18007KT 9999 OVC007 05/04 Q0983=
200711091250 METAR ESMX 091250Z 19009KT 160V220 7000 BR OVC008 05/04 Q0983 REDZ REUP=
200711091220 METAR ESMX 091220Z 18009KT 9999 -RA OVC009 05/03 Q0983=
200711091150 METAR ESMX 091150Z 18008KT 150V210 9999 OVC010 05/03 Q0983=
200711091120 METAR ESMX 091120Z 18010KT 150V210 9999 OVC012 05/03 Q0983=
200711091050 METAR ESMX 091050Z 19009KT 9999 OVC012 05/03 Q0983=
200711091020 METAR ESMX 091020Z 18011KT 150V210 9999 OVC012 05/02 Q0983=
200711090950 METAR ESMX 090950Z 18011KT 150V210 9999 OVC012 05/02 Q0983=
200711090920 METAR ESMX 090920Z 19012KT 9999 OVC012 04/02 Q0983=
200711090850 METAR ESMX 090850Z 18012KT 9999 OVC015 04/02 Q0983=
200711090820 METAR ESMX 090820Z 19015KT 9999 OVC020 04/02 Q0983=
200711090750 METAR ESMX 090750Z 19010KT 160V230 9999 BKN027 04/02 Q0983=
200711090720 METAR ESMX 090720Z 19011KT 9999 BKN015 BKN020 04/02 Q0983=
200711090650 METAR ESMX 090650Z 19010KT 9999 FEW015 SCT035 03/02 Q0983=
200711090620 METAR ESMX 090620Z 20011KT 9999 SCT015 BKN020 03/02 Q0983=
200711090550 METAR ESMX 090550Z 20012KT 9999 -RA FEW012 SCT020 BKN025 04/02 Q0984=
200711090520 METAR ESMX 090520Z 20014KT 9999 -RA FEW011 SCT015 BKN023 04/03 Q0984=
200711090420 METAR ESMX 090420Z AUTO 21013KT 9999NDV FEW011/// SCT013/// BKN016/// 04/03 Q0984=
200711090350 METAR ESMX 090350Z AUTO 20011KT 8000NDV FEW010/// SCT014/// BKN018/// 04/03 Q0984 RERA=
200711090320 METAR ESMX 090320Z AUTO 21012KT 180V240 9999NDV FEW010/// SCT014/// BKN016/// 05/03 Q0984 RERA REDZ=
200711090250 METAR ESMX 090250Z AUTO 21011KT 9999NDV FEW012/// BKN016/// BKN020/// 05/03 Q0984=
200711090220 METAR ESMX 090220Z AUTO 20013KT 9999NDV FEW010/// SCT015/// BKN018/// 05/04 Q0984 REDZ=
200711090150 METAR ESMX 090150Z AUTO 21010KT 9000NDV -DZ FEW012/// SCT016/// BKN019/// 05/04 Q0984 RERA=
200711090120 METAR ESMX 090120Z 21011KT 9999 FEW012 SCT015 BKN020 05/04 Q0985 REDZ=
200711090050 METAR ESMX 090050Z 22014KT 8000 DZ FEW015 SCT017 BKN023 06/04 Q0985 RERA=
200711090020 METAR ESMX 090020Z 21012KT 9999 FEW015 SCT020 BKN042 06/04 Q0985=
200711082350 METAR ESMX 082350Z 21013KT 9999 FEW013 SCT018 BKN033 06/05 Q0985 RERA=
200711082320 METAR ESMX 082320Z 20011KT 9999 FEW015 SCT020 BKN025 07/05 Q0986 RERA REDZ=
200711082250 METAR ESMX 082250Z 24008KT 200V300 9999 -RA FEW015 SCT021 BKN025 07/05 Q0986 REDZ=
200711082220 METAR ESMX 082220Z 23010KT 200V270 9999 -RA FEW007 SCT016 BKN025 08/06 Q0986=
200711082150 METAR ESMX 082150Z 20014KT 7000 -RA FEW006 SCT008 BKN010 08/07 Q0987=
200711082120 METAR ESMX 082120Z 18012KT 140V200 9000 -RA FEW005 BKN007 OVC009 08/07 Q0987=
200711082050 METAR ESMX 082050Z 18012KT 140V210 7000 -RA FEW006 BKN007 OVC010 08/07 Q0988=
200711082020 METAR ESMX 082020Z 18012KT 150V220 9999 DZ BKN007 OVC010 07/07 Q0988 RERA=
200711081950 METAR ESMX 081950Z 18011KT 150V210 9000 BR BKN006 07/06 Q0989=
200711081920 METAR ESMX 081920Z 18010KT 9999 BR OVC004 07/06 Q0990 REDZ=
200711081850 METAR ESMX 081850Z 17009KT 8000 -DZ OVC004 07/06 Q0991 RERA=
200711081820 METAR ESMX 081820Z 18011KT 150V210 9999 -DZ OVC005 06/06 Q0992=
200711081750 METAR ESMX 081750Z 17009KT 140V220 8000 BR OVC005 06/05 Q0993=
200711081720 METAR ESMX 081720Z 18012KT 8000 BR BKN005 OVC010 06/05 Q0994=
200711081650 METAR ESMX 081650Z 17010KT 140V200 5000 BR BKN005 OVC010 06/05 Q0995=
200711081620 METAR ESMX 081620Z 17009KT 130V200 9999 FEW005 OVC015 05/04 Q0995=
200711081550 METAR ESMX 081550Z 16008KT 140V210 9999 -DZ SCT010 OVC020 05/04 Q0996 REDZ=
200711081520 METAR ESMX 081520Z 17007KT 150V210 9999 -DZ SCT015 OVC025 05/04 Q0997 RERA=
200711081450 METAR ESMX 081450Z 17006KT 9999 -DZ SCT025 BKN035 05/04 Q0998 RERA=
200711081420 METAR ESMX 081420Z 19007KT 9999 -RA FEW025 BKN035 06/04 Q0998 REDZ=
200711081350 METAR ESMX 081350Z 21007KT CAVOK 06/04 Q0999=
200711081320 METAR ESMX 081320Z 21008KT 9999 SCT015 06/04 Q0999=
200711081250 METAR ESMX 081250Z 22007KT 190V250 9999 FEW012 SCT015 06/04 Q1000=
200711081220 METAR ESMX 081220Z 22007KT CAVOK 06/04 Q1000=
200711081150 METAR ESMX 081150Z 22005KT CAVOK 05/04 Q1001=
200711081120 METAR ESMX 081120Z 20006KT CAVOK 05/03 Q1001=
200711081050 METAR ESMX 081050Z 22005KT CAVOK 05/02 Q1001=
200711081020 METAR ESMX 081020Z 23005KT 180V250 CAVOK 04/01 Q1002=
200711080950 METAR ESMX 080950Z 21005KT CAVOK 03/01 Q1002=
200711080920 METAR ESMX 080920Z 23004KT CAVOK 02/00 Q1003=
200711080850 METAR ESMX 080850Z VRB02KT CAVOK 02/00 Q1003=
200711080820 METAR ESMX 080820Z 19002KT CAVOK 01/00 Q1003=
200711080750 METAR ESMX 080750Z 15002KT CAVOK M01/M02 Q1003=
200711080720 METAR ESMX 080720Z VRB02KT CAVOK M02/M02 Q1003=
200711080650 METAR ESMX 080650Z 26003KT CAVOK M02/M02 Q1003=
200711080620 METAR ESMX 080620Z 26004KT CAVOK M01/M02 Q1003=
200711080550 METAR ESMX 080550Z 26004KT CAVOK M01/M02 Q1002=
200711080520 METAR ESMX 080520Z 27006KT CAVOK M01/M02 Q1002=
200711080450 METAR ESMX 080450Z 28005KT CAVOK M01/M02 Q1002=
200711080420 METAR ESMX 080420Z AUTO 26005KT 9999NDV NCD M01/M02 Q1002=
200711080350 METAR ESMX 080350Z AUTO 27004KT 230V320 9999NDV NCD M01/M02 Q1001=
200711080320 METAR ESMX 080320Z AUTO 29005KT 9999NDV NCD M01/M02 Q1001=
200711080250 METAR ESMX 080250Z AUTO 29006KT 9999NDV NCD M01/M02 Q1001=
200711080220 METAR ESMX 080220Z AUTO 30004KT 9999NDV NCD M00/M02 Q1001=
200711080150 METAR ESMX 080150Z AUTO 30004KT 280V340 9999NDV NCD M00/M02 Q1001=
200711080120 METAR ESMX 080120Z 31005KT 270V330 CAVOK 00/M01 Q1000=
200711080050 METAR ESMX 080050Z 31006KT CAVOK M00/M01 Q1000=
200711080020 METAR ESMX 080020Z 30008KT CAVOK 00/M01 Q1000=
200711072350 METAR ESMX 072350Z 30009KT CAVOK 00/M01 Q1000=
200711072320 METAR ESMX 072320Z 31008KT CAVOK 00/M01 Q1000=
200711072250 METAR ESMX 072250Z 31009KT CAVOK 00/M01 Q0999=
200711072220 METAR ESMX 072220Z 30010KT CAVOK 01/M01 Q0999=
200711072150 METAR ESMX 072150Z 32010KT 280V350 CAVOK 01/M01 Q0998=
200711072120 METAR ESMX 072120Z 31011KT 280V350 9999 FEW015 01/M00 Q0998=
200711072050 METAR ESMX 072050Z 31009KT 9999 SCT014 01/M00 Q0997=
200711072020 METAR ESMX 072020Z 30008KT 260V340 9999 BKN014 01/M00 Q0997=
200711071950 METAR ESMX 071950Z 31006KT 9999 SCT016 01/M00 Q0996=
200711071850 METAR ESMX 071850Z 32009KT 9999 FEW017 02/00 Q0995=
200711071820 METAR ESMX 071820Z 33009KT 9999 FEW020 03/01 Q0995=
200711071750 METAR ESMX 071750Z 31012KT 270V350 9999 SCT021 03/01 Q0994=
200711071720 METAR ESMX 071720Z 31011KT 9999 FEW023 04/01 Q0994=
200711071650 METAR ESMX 071650Z 31011KT 9999 FEW020 04/01 Q0994=
200711071620 METAR ESMX 071620Z 31008KT 280V350 9999 FEW020 04/02 Q0993=
200711071550 METAR ESMX 071550Z 30007KT 9999 FEW020 04/02 Q0993=
200711071520 METAR ESMX 071520Z 28005KT 9999 FEW021 SCT035 04/02 Q0992=
200711071450 METAR ESMX 071450Z 31007KT 9999 FEW024 SCT036 05/03 Q0992=
200711071420 METAR ESMX 071420Z 31008KT 280V350 9999 FEW019 SCT026 06/03 Q0992=
200711071350 METAR ESMX 071350Z 31008KT 280V350 9999 SCT021 07/03 Q0992=
200711071320 METAR ESMX 071320Z 30009KT 280V340 9999 SCT025 07/04 Q0991=
200711071250 METAR ESMX 071250Z 29005KT 9999 SCT025 06/04 Q0991=
200711071220 METAR ESMX 071220Z 29007KT 260V320 9999 FEW025 SCT030 06/04 Q0991=
200711071150 METAR ESMX 071150Z 30009KT 260V340 9999 FEW020 BKN030 07/05 Q0991=
200711071120 METAR ESMX 071120Z 30007KT 260V330 9999 FEW015 OVC025 07/05 Q0991=
200711071050 METAR ESMX 071050Z 30008KT 9999 FEW010 BKN018 07/05 Q0991=
200711071020 METAR ESMX 071020Z 28009KT 9999 FEW010 SCT020 07/06 Q0991=
200711070950 METAR ESMX 070950Z 26006KT 9999 FEW013 BKN015 BKN020 06/05 Q0992=
200711070920 METAR ESMX 070920Z 24006KT 220V290 9999 FEW006 SCT020 BKN040 05/05 Q0992=
200711070850 METAR ESMX 070850Z 22007KT 9999 FEW010 SCT020 BKN050 05/05 Q0992=
200711070820 METAR ESMX 070820Z 22007KT 9999 FEW020 SCT030 BKN040 04/04 Q0993=
200711070750 METAR ESMX 070750Z 22006KT 9999 FEW020 SCT030 BKN045 04/03 Q0993 RERA=
200711070720 METAR ESMX 070720Z 19007KT 5000 RA OVC003 03/03 Q0994=
200711070650 METAR ESMX 070650Z 18006KT 6000 RA OVC003 03/03 Q0994=
200711070620 METAR ESMX 070620Z 17007KT 9999 -DZ OVC005 02/02 Q0995 RERA=
200711070550 METAR ESMX 070550Z 19009KT 3100 RA OVC003 02/01 Q0997=
200711070520 METAR ESMX 070520Z 19010KT 6000 -RA OVC003 01/01 Q0997 REDZ=
200711070450 METAR ESMX 070450Z 17010KT 140V200 8000 -DZ FEW003 BKN005 OVC007 01/01 Q0998 RERA=
200711070420 METAR ESMX 070420Z AUTO 17007KT 8000NDV BKN003/// OVC014/// 01/00 Q1000 RESN RERA=
200711070350 METAR ESMX 070350Z AUTO 18006KT 0800NDV R01/P2000U R19/P2000U +RA FEW005/// SCT009/// 00/00 Q1001 RESN=
200711070320 METAR ESMX 070320Z AUTO 20007KT 1600NDV -SN FEW010/// 00/M00 Q1002 RERA=
200711070250 METAR ESMX 070250Z AUTO 21007KT 2000NDV +RA FEW006/// 00/M01 Q1003=
200711070220 METAR ESMX 070220Z AUTO 19007KT 9999NDV FEW029/// 00/M02 Q1004=
200711070150 METAR ESMX 070150Z AUTO 19006KT 9999NDV FEW022/// M01/M03 Q1005=
200711070120 METAR ESMX 070120Z AUTO 22006KT 9999NDV FEW040/// M01/M03 Q1006=
200711070050 METAR ESMX 070050Z 23005KT 9999 FEW040 M02/M03 Q1006=
200711070020 METAR ESMX 070020Z 23004KT CAVOK M02/M04 Q1007=
200711062350 METAR ESMX 062350Z 25004KT CAVOK M02/M04 Q1008=
200711062320 METAR ESMX 062320Z 26005KT CAVOK M01/M03 Q1008=
200711062250 METAR ESMX 062250Z 27007KT CAVOK M00/M03 Q1008=
200711062220 METAR ESMX 062220Z 27005KT CAVOK M01/M03 Q1008=
200711062150 METAR ESMX 062150Z 27006KT CAVOK M00/M03 Q1009=
200711062120 METAR ESMX 062120Z 29007KT CAVOK 00/M02 Q1009=
200711062050 METAR ESMX 062050Z 30007KT 260V320 CAVOK 00/M02 Q1009=
200711062020 METAR ESMX 062020Z 29009KT CAVOK 01/M02 Q1009=
200711061950 METAR ESMX 061950Z 29007KT CAVOK 01/M02 Q1009=
200711061920 METAR ESMX 061920Z 29008KT CAVOK 01/M02 Q1009=
200711061850 METAR ESMX 061850Z 29008KT CAVOK 02/M02 Q1008=
200711061820 METAR ESMX 061820Z 30009KT 270V340 CAVOK 02/M01 Q1008=
200711061750 METAR ESMX 061750Z 30010KT 9999 FEW039 03/M01 Q1008=
200711061720 METAR ESMX 061720Z 30011KT 9999 BKN035 04/M01 Q1007=
200711061650 METAR ESMX 061650Z 30010KT 9999 OVC035 04/M00 Q1007=
200711061620 METAR ESMX 061620Z 31008KT 9999 BKN040 04/01 Q1007=
200711061550 METAR ESMX 061550Z 30010KT 260V330 9999 SCT025 BKN045 04/01 Q1006=
200711061520 METAR ESMX 061520Z 31010KT 280V340 9999 FEW025 BKN035 04/01 Q1006=
200711061450 METAR ESMX 061450Z 30011KT 280V340 9999 DZ FEW023 OVC033 05/02 Q1005 RERA=
200711061420 METAR ESMX 061420Z 30009KT 9999 FEW025 OVC031 05/02 Q1005=
200711061350 METAR ESMX 061350Z 30009KT 260V330 9999 FEW025 BKN030 05/02 Q1004=
200711061320 METAR ESMX 061320Z 31010KT 270V350 9999 FEW024 BKN027 05/02 Q1004=
200711061250 METAR ESMX 061250Z 30007KT 260V340 9999 FEW019 BKN026 05/02 Q1004=
200711061220 METAR ESMX 061220Z 30009KT 9999 OVC022 05/02 Q1004=
200711061150 METAR ESMX 061150Z 31010KT 280V350 9999 SCT015 BKN020 04/02 Q1004=
200711061120 METAR ESMX 061120Z 31013KT 9999 BKN013 BKN020 05/02 Q1004=
200711061050 METAR ESMX 061050Z 30010KT 9999 FEW010 BKN012 BKN064 05/04 Q1003=
200711061020 METAR ESMX 061020Z 29007KT 9999 SCT015 06/04 Q1002=
200711060950 METAR ESMX 060950Z 29009KT 240V320 9999 FEW010 SCT015 06/04 Q1002=
200711060920 METAR ESMX 060920Z 29008KT 9999 FEW010 SCT014 06/05 Q1002=
200711060850 METAR ESMX 060850Z 29007KT 9999 FEW010 BKN015 06/05 Q1002=
200711060820 METAR ESMX 060820Z 28006KT 9999 FEW010 BKN025 06/05 Q1001=
200711060750 METAR ESMX 060750Z 27005KT 240V310 9999 FEW010 BKN025 06/05 Q1001=
200711060720 METAR ESMX 060720Z 28005KT 9999 FEW010 BKN030 06/05 Q1001=
200711060620 METAR ESMX 060620Z 25005KT 230V290 9999 BR FEW004 BKN035 06/05 Q1001 REDZ=
200711060550 METAR ESMX 060550Z 22004KT 6000 DZ FEW003 BKN010 06/05 Q1001=
200711060520 METAR ESMX 060520Z 20005KT 5000 DZ FEW004 SCT007 BKN018 05/05 Q1001 RERA=
200711060450 METAR ESMX 060450Z 19006KT 150V210 9000 -RA SCT004 BKN007 OVC008 05/05 Q1001=
200711060420 METAR ESMX 060420Z AUTO 19006KT 140V210 8000NDV -RA FEW004/// OVC005/// 05/05 Q1001 REDZ=
200711060350 METAR ESMX 060350Z AUTO 18006KT 150V210 6000NDV +DZ SCT005/// BKN008/// OVC019/// 05/05 Q1002 RERA=
200711060320 METAR ESMX 060320Z AUTO 18009KT 160V220 6000NDV -RA FEW005/// BKN006/// OVC009/// 05/05 Q1002 REDZ=
200711060250 METAR ESMX 060250Z AUTO 16009KT 130V200 8000NDV -RA FEW007/// SCT008/// BKN010/// 05/05 Q1003 REDZ=
200711060220 METAR ESMX 060220Z AUTO 17009KT 130V200 9000NDV -RA FEW007/// SCT009/// BKN012/// 05/04 Q1003 REDZ=
200711060150 METAR ESMX 060150Z AUTO 18011KT 150V210 9999NDV -RA FEW008/// SCT013/// BKN016/// 05/04 Q1004 REDZ=
200711060050 METAR ESMX 060050Z 18011KT 6000 -RA FEW006 SCT008 BKN010 06/05 Q1005 REDZ=
200711060020 METAR ESMX 060020Z 17011KT 150V220 7000 -RA FEW008 OVC009 06/05 Q1006 REDZ=
200711052350 METAR ESMX 052350Z 17011KT 8000 -RA FEW007 OVC010 06/05 Q1006 REDZ=
200711052320 METAR ESMX 052320Z 17012KT 140V210 8000 DZ FEW008 BKN010 OVC016 06/05 Q1007 RERA=
200711052250 METAR ESMX 052250Z 18012KT 130V200 9000 DZ FEW008 SCT011 OVC014 06/04 Q1008 RERA=
200711052220 METAR ESMX 052220Z 17012KT 9999 -RA FEW013 BKN015 OVC019 06/04 Q1008 REDZ=
200711052150 METAR ESMX 052150Z 18012KT 140V200 9000 -RA FEW011 BKN014 06/04 Q1009 REDZ=
200711052120 METAR ESMX 052120Z 18012KT 160V220 9999 -DZ SCT012 OVC015 06/04 Q1010 RERA=
200711052050 METAR ESMX 052050Z 18011KT 140V210 9999 OVC010 06/04 Q1011=
200711052020 METAR ESMX 052020Z 18011KT 140V210 9999 BKN011 OVC021 06/04 Q1011=
200711051950 METAR ESMX 051950Z 18012KT 9999 SCT011 BKN015 OVC019 06/04 Q1012=
200711051920 METAR ESMX 051920Z 18011KT 9999 BKN012 OVC018 06/04 Q1013 RERA REDZ=
200711051850 METAR ESMX 051850Z 18012KT 150V210 9999 OVC012 05/03 Q1014=
200711051820 METAR ESMX 051820Z 18011KT 9999 OVC014 05/03 Q1014=
200711051750 METAR ESMX 051750Z 18012KT 9999 -DZ BKN015 OVC020 05/03 Q1015 RERA=
200711051720 METAR ESMX 051720Z 18011KT 150V210 9999 BKN015 OVC020 06/03 Q1015=
200711051650 METAR ESMX 051650Z 19011KT 150V210 9999 OVC020 05/03 Q1016 REDZ=
200711051620 METAR ESMX 051620Z 19015KT 9999 -RA OVC020 05/03 Q1017=
200711051550 METAR ESMX 051550Z 18012KT 160V220 9999 BKN015 OVC025 06/03 Q1017=
200711051520 METAR ESMX 051520Z 19013KT 9999 BKN020 OVC030 06/03 Q1018=
200711051450 METAR ESMX 051450Z 19012KT 9999 OVC025 06/03 Q1018=
200711051420 METAR ESMX 051420Z 18009KT 9999 SCT025 BKN050 06/03 Q1019=
200711051350 METAR ESMX 051350Z 17008KT 9999 FEW025 SCT045 06/03 Q1019=
200711051320 METAR ESMX 051320Z 18007KT 9999 OVC030 06/03 Q1020=
200711051250 METAR ESMX 051250Z 19009KT 9999 SCT020 BKN035 06/03 Q1021=
200711051220 METAR ESMX 051220Z 20009KT 9999 FEW014 BKN016 06/03 Q1021=
200711051150 METAR ESMX 051150Z 20011KT 9999 BKN012 BKN021 06/04 Q1022=
200711051120 METAR ESMX 051120Z 19011KT 9999 SCT015 06/03 Q1023=
200711051050 METAR ESMX 051050Z 17008KT 140V200 9999 FEW015 SCT200 06/03 Q1023=
200711051020 METAR ESMX 051020Z 18007KT 150V210 9999 FEW017 BKN026 04/03 Q1024=
200711050950 METAR ESMX 050950Z 17005KT 140V210 9999 FEW016 SCT020 OVC027 03/03 Q1024=
200711050920 METAR ESMX 050920Z 17007KT 140V210 9999 FEW017 BKN021 OVC025 03/02 Q1025=
200711050850 METAR ESMX 050850Z 16006KT 9999 SCT015 BKN036 02/01 Q1025=
200711050820 METAR ESMX 050820Z 15006KT 120V180 9999 FEW017 OVC036 01/01 Q1025=
200711050750 METAR ESMX 050750Z 15005KT 120V190 9999 FEW028 OVC032 01/00 Q1025=
200711050720 METAR ESMX 050720Z 15003KT 110V180 9999 FEW021 OVC028 01/00 Q1026=
200711050650 METAR ESMX 050650Z 19003KT 9999 OVC026 00/M00 Q1026=
200711050620 METAR ESMX 050620Z 15003KT 9999 OVC026 M00/M00 Q1026=
200711050550 METAR ESMX 050550Z 15003KT 100V190 9999 OVC027 M01/M01 Q1026=
200711050520 METAR ESMX 050520Z 17002KT 9999 OVC026 M02/M02 Q1027=
200711050450 METAR ESMX 050450Z VRB02KT 9999 BKN027 M03/M03 Q1027=
200711050420 METAR ESMX 050420Z AUTO 00000KT 2600NDV BKN029/// M04/M05 Q1027=
200711050350 METAR ESMX 050350Z AUTO 00000KT 4400NDV FEW000/// M04/M05 Q1027=
200711050320 METAR ESMX 050320Z AUTO 00000KT 7000NDV VV000 M05/M05 Q1027=
200711050250 METAR ESMX 050250Z AUTO 00000KT 7000NDV VV000 M05/M05 Q1027=
200711050220 METAR ESMX 050220Z AUTO 00000KT 0200NDV R01/0800V1200N R19/0800N=
200711050150 METAR ESMX 050150Z AUTO 00000KT 1000NDV R01/P2000D R19/P2000D VV000 M05/M05 Q1028=
200711050120 METAR ESMX 050120Z 18001KT 0200 R01/P2000U R19/0900V1400 FZBCFG NSC M04/M05 Q1028=
200711050050 METAR ESMX 050050Z 00000KT 9999 FZBCFG NSC M04/M05 Q1028=
200711050020 METAR ESMX 050020Z 00000KT CAVOK M04/M04 Q1028=
200711042350 METAR ESMX 042350Z 13001KT CAVOK M04/M04 Q1028=
200711042320 METAR ESMX 042320Z 17001KT CAVOK M03/M04 Q1028=
200711042250 METAR ESMX 042250Z VRB02KT CAVOK M03/M03 Q1028=
200711042220 METAR ESMX 042220Z 00000KT 9999 FZBCFG NSC M04/M04 Q1028=
200711042150 METAR ESMX 042150Z VRB01KT 9999 BCFZFG NSC M04/M04 Q1028=
200711042120 METAR ESMX 042120Z 17001KT CAVOK M03/M03 Q1028=
200711042050 METAR ESMX 042050Z 00000KT CAVOK M02/M03 Q1028=
200711042020 METAR ESMX 042020Z 30001KT CAVOK M02/M03 Q1027=
200711041950 METAR ESMX 041950Z VRB01KT CAVOK M02/M02 Q1027=
200711041920 METAR ESMX 041920Z VRB02KT CAVOK M02/M03 Q1027=
200711041850 METAR ESMX 041850Z 00000KT 9999 FEW033 NSC M02/M02 Q1027=
200711041820 METAR ESMX 041820Z 00000KT 9999 FEW033 M01/M01 Q1027=
200711041750 METAR ESMX 041750Z 22001KT CAVOK M02/M03 Q1026=
200711041720 METAR ESMX 041720Z VRB02KT CAVOK M00/M01 Q1026=
200711041650 METAR ESMX 041650Z VRB02KT CAVOK 01/M00 Q1026=
200711041620 METAR ESMX 041620Z 36003KT 9999 FEW035 02/00 Q1026=
200711041550 METAR ESMX 041550Z 02004KT 9999 FEW035 04/00 Q1025=
200711041520 METAR ESMX 041520Z 03004KT 9999 BKN035 04/00 Q1025=
200711041450 METAR ESMX 041450Z 02007KT 9999 FEW029 OVC033 05/01 Q1025=
200711041420 METAR ESMX 041420Z 02006KT 9999 OVC029 06/01 Q1025=
200711041350 METAR ESMX 041350Z 02007KT 350V060 9999 FEW026 OVC030 06/01 Q1024=
200711041320 METAR ESMX 041320Z 01007KT 9999 FEW026 OVC030 06/01 Q1024=
200711041250 METAR ESMX 041250Z 02009KT 9999 BKN025 06/01 Q1024=
200711041220 METAR ESMX 041220Z 36008KT 9999 FEW025 BKN030 07/01 Q1023=
200711041150 METAR ESMX 041150Z 02009KT 350V060 9999 BKN027 07/00 Q1023=
200711041120 METAR ESMX 041120Z AUTO 01009KT 9999NDV BKN025/// 07/01 Q1023=
200711041050 METAR ESMX 041050Z AUTO 02010KT 350V060 9999NDV BKN025/// 06/01 Q1022=
200711041020 METAR ESMX 041020Z AUTO 02011KT 9999NDV BKN024/// 06/01 Q1022=
200711040950 METAR ESMX 040950Z AUTO 02013KT 9999NDV BKN023/// 06/01 Q1022=
200711040920 METAR ESMX 040920Z AUTO 01014KT 9999NDV SCT024/// 06/01 Q1021=
200711040850 METAR ESMX 040850Z AUTO 01012KT 340V050 9999NDV SCT024/// 06/02 Q1021=
200711040820 METAR ESMX 040820Z AUTO 36009KT 9999NDV SCT022/// 05/02 Q1021=
200711040750 METAR ESMX 040750Z AUTO 35008KT 9999NDV BKN022/// 04/02 Q1020=
200711040720 METAR ESMX 040720Z AUTO 36004KT 9999NDV BKN021/// 02/01 Q1020=
200711040650 METAR ESMX 040650Z AUTO 32005KT 9999NDV SCT022/// 01/00 Q1019=
200711040620 METAR ESMX 040620Z AUTO 32005KT 9999NDV BKN023/// 02/01 Q1019=
200711040550 METAR ESMX 040550Z AUTO 33006KT 9999NDV SCT024/// BKN028/// 02/01 Q1018=
200711040520 METAR ESMX 040520Z AUTO 33007KT 9999NDV SCT029/// 02/01 Q1018=
200711040450 METAR ESMX 040450Z AUTO 32007KT 9999NDV NCD 02/01 Q1017=
200711040420 METAR ESMX 040420Z AUTO 33006KT 9999NDV NCD 02/01 Q1017=
200711040350 METAR ESMX 040350Z AUTO 33007KT 9999NDV NCD 02/01 Q1017=
200711040320 METAR ESMX 040320Z AUTO 32006KT 9999NDV NCD 02/01 Q1016=
200711040250 METAR ESMX 040250Z AUTO 33005KT 9999NDV NCD 02/01 Q1016=
200711040220 METAR ESMX 040220Z AUTO 31004KT 9999NDV NCD 03/01 Q1016=
200711040150 METAR ESMX 040150Z AUTO 31007KT 9999NDV NCD 03/02 Q1015=
200711040120 METAR ESMX 040120Z AUTO 29007KT 9999NDV NCD 03/02 Q1015=
200711040050 METAR ESMX 040050Z AUTO 30006KT 9999NDV NCD 03/03 Q1015=
200711040020 METAR ESMX 040020Z AUTO 29007KT 9999NDV NCD 04/03 Q1014=
200711032350 METAR ESMX 032350Z AUTO 29007KT 9999NDV NCD 04/03 Q1014=
200711032320 METAR ESMX 032320Z AUTO 28005KT 9999NDV NCD 04/03 Q1014=
200711032250 METAR ESMX 032250Z AUTO 26004KT 9999NDV NCD 04/03 Q1014=
200711032220 METAR ESMX 032220Z AUTO 28004KT 9999NDV NCD 04/03 Q1013=
200711032150 METAR ESMX 032150Z AUTO 29004KT 9999NDV NCD 05/04 Q1013=
200711032120 METAR ESMX 032120Z AUTO 29006KT 9999NDV NCD 05/04 Q1013=
200711032050 METAR ESMX 032050Z AUTO 30005KT 9999NDV NCD 06/04 Q1013=
200711032020 METAR ESMX 032020Z AUTO 30006KT 9999NDV NCD 06/05 Q1013=
200711031950 METAR ESMX 031950Z AUTO 30006KT 270V340 9999NDV NCD 06/05 Q1012=
200711031920 METAR ESMX 031920Z AUTO 29005KT 250V320 9999NDV NCD 06/04 Q1012=
200711031850 METAR ESMX 031850Z AUTO 29009KT 9999NDV NCD 07/05 Q1012=
200711031820 METAR ESMX 031820Z AUTO 30011KT 9999NDV NCD 07/05 Q1012=
200711031750 METAR ESMX 031750Z AUTO 29011KT 9999NDV NCD 07/04 Q1011=
200711031720 METAR ESMX 031720Z AUTO 29009KT 9999NDV NCD 07/04 Q1011=
200711031650 METAR ESMX 031650Z AUTO 29009KT 9999NDV NCD 08/04 Q1011=
200711031620 METAR ESMX 031620Z AUTO 29006KT 260V330 9999NDV NCD 08/04 Q1011=
200711031550 METAR ESMX 031550Z AUTO 28007KT 9999NDV NCD 08/04 Q1011=
200711031520 METAR ESMX 031520Z AUTO 28007KT 9999NDV NCD 09/04 Q1011=
200711031450 METAR ESMX 031450Z AUTO 28009KT 9999NDV NCD 10/04 Q1011=
200711031420 METAR ESMX 031420Z AUTO 29011KT 250V320 9999NDV NCD 10/04 Q1010=
200711031350 METAR ESMX 031350Z AUTO 28013KT 9999NDV NCD 11/04 Q1010=
200711031320 METAR ESMX 031320Z AUTO 29014KT 250V330 9999NDV NCD 11/04 Q1010=
200711031250 METAR ESMX 031250Z AUTO 29013KT 240V330 9999NDV NCD 11/05 Q1010=
200711031220 METAR ESMX 031220Z AUTO 29014KT 260V320 9999NDV NCD 11/05 Q1010=
200711031150 METAR ESMX 031150Z AUTO 28016KT 250V320 9999NDV FEW026/// 11/05 Q1009=
200711031120 METAR ESMX 031120Z AUTO 30014G27KT 9999NDV FEW026/// 11/05 Q1010=
200711031050 METAR ESMX 031050Z AUTO 30013KT 9999NDV FEW022/// 11/06 Q1009=
200711031020 METAR ESMX 031020Z AUTO 29013G23KT 260V320 9999NDV FEW020/// SCT023/// 10/06 Q1009=
200711030950 METAR ESMX 030950Z AUTO 29015G25KT 260V330 9999NDV FEW019/// BKN021/// BKN030/// 10/06 Q1009=
200711030920 METAR ESMX 030920Z AUTO 29012KT 260V320 9999NDV FEW018/// BKN021/// BKN028/// 10/06 Q1009=
200711030850 METAR ESMX 030850Z AUTO 28014KT 9999NDV FEW017/// SCT021/// BKN024/// 10/07 Q1009=
200711030820 METAR ESMX 030820Z AUTO 29013G23KT 260V360 9999NDV FEW017/// SCT020/// BKN028/// 10/08 Q1009=
200711030750 METAR ESMX 030750Z AUTO 28014G25KT 240V320 9999NDV FEW011/// BKN015/// OVC033/// 10/09 Q1009=
200711030720 METAR ESMX 030720Z AUTO 25009KT 210V290 9999NDV FEW002/// SCT006/// BKN008/// 10/09 Q1009=
200711030650 METAR ESMX 030650Z AUTO 24008KT 9999NDV OVC002/// 09/08 Q1009 RERA=
200711030620 METAR ESMX 030620Z AUTO 23009KT 190V260 5000NDV DZ OVC002/// 08/08 Q1009 RERA=
200711030550 METAR ESMX 030550Z AUTO 23010KT 190V260 2200NDV -DZ OVC002/// 08/07 Q1010=
200711030520 METAR ESMX 030520Z AUTO 22011KT 2500NDV BR OVC002/// 07/06 Q1011=
200711030450 METAR ESMX 030450Z AUTO 21011KT 2900NDV BR OVC003/// 06/06 Q1011=
200711030420 METAR ESMX 030420Z AUTO 22011KT 2300NDV BR FEW005/// SCT006/// BKN007/// 06/05 Q1012 REDZ=
200711030350 METAR ESMX 030350Z AUTO 22011KT 3700NDV -RA FEW009/// BKN010/// OVC015/// 06/05 Q1013=
200711030320 METAR ESMX 030320Z AUTO 22011KT 9999NDV FEW008/// SCT011/// OVC017/// 06/04 Q1014=
200711030250 METAR ESMX 030250Z AUTO 21011KT 180V240 9999NDV BKN005/// OVC010/// 06/05 Q1015=
200711030220 METAR ESMX 030220Z AUTO 21011KT 9000NDV OVC005/// 06/05 Q1016=
200711030150 METAR ESMX 030150Z AUTO 20013KT 9999NDV OVC006/// 06/04 Q1017=
200711030120 METAR ESMX 030120Z AUTO 20011KT 9999NDV OVC006/// 05/04 Q1018=
200711030050 METAR ESMX 030050Z AUTO 21009KT 170V240 9999NDV OVC006/// 05/04 Q1019=
200711030020 METAR ESMX 030020Z AUTO 20009KT 9999NDV OVC007/// 05/04 Q1020=
200711022350 METAR ESMX 022350Z AUTO 21010KT 9999NDV SCT007/// BKN047/// 05/03 Q1021=
200711022320 METAR ESMX 022320Z AUTO 21009KT 9999NDV BKN046/// 05/02 Q1021=
200711022250 METAR ESMX 022250Z AUTO 20008KT 9999NDV OVC051/// 04/01 Q1022=
200711022220 METAR ESMX 022220Z AUTO 19006KT 160V220 9999NDV OVC054/// 04/00 Q1023=
200711022150 METAR ESMX 022150Z AUTO 19006KT 9999NDV OVC057/// 04/M01 Q1024=
200711022120 METAR ESMX 022120Z AUTO 19004KT 9999NDV OVC059/// 03/M01 Q1025=
200711022050 METAR ESMX 022050Z AUTO 18004KT 9999NDV OVC059/// 03/M01 Q1025=
200711022020 METAR ESMX 022020Z AUTO 21003KT 9999NDV OVC063/// 03/M01 Q1025=
200711021950 METAR ESMX 021950Z AUTO 27002KT 9999NDV OVC065/// 03/M02 Q1026=
200711021920 METAR ESMX 021920Z 22004KT CAVOK 03/M01 Q1025=
200711021850 METAR ESMX 021850Z 24004KT CAVOK 03/M01 Q1026=
200711021820 METAR ESMX 021820Z 25002KT CAVOK 04/M02 Q1027=
200711021750 METAR ESMX 021750Z 25003KT CAVOK 03/M01 Q1027=
200711021720 METAR ESMX 021720Z 25002KT CAVOK 03/M01 Q1027=
200711021650 METAR ESMX 021650Z 00000KT CAVOK 03/00 Q1028=
200711021620 METAR ESMX 021620Z 26001KT CAVOK 04/M01 Q1028=
200711021550 METAR ESMX 021550Z VRB01KT CAVOK 03/M01 Q1028=
200711021520 METAR ESMX 021520Z VRB01KT CAVOK 04/M02 Q1028=
200711021450 METAR ESMX 021450Z VRB02KT CAVOK 05/M02 Q1028=
200711021420 METAR ESMX 021420Z 29003KT CAVOK 06/M02 Q1028=
200711021350 METAR ESMX 021350Z 28004KT 250V320 CAVOK 06/M03 Q1028=
200711021320 METAR ESMX 021320Z 35004KT CAVOK 06/M02 Q1028=
200711021250 METAR ESMX 021250Z 35003KT 290V030 CAVOK 06/M03 Q1027=
200711021150 METAR ESMX 021150Z 33004KT CAVOK 06/M02 Q1028=
200711021120 METAR ESMX 021120Z 01007KT CAVOK 06/M02 Q1028=
200711021050 METAR ESMX 021050Z 01009KT CAVOK 05/M02 Q1028=
200711021020 METAR ESMX 021020Z 01009KT 340V040 CAVOK 05/M02 Q1028=
200711020920 METAR ESMX 020920Z 34009KT CAVOK 04/00 Q1028=
200711020850 METAR ESMX 020850Z 34007KT CAVOK 03/M00 Q1027=
200711020820 METAR ESMX 020820Z 33005KT CAVOK 02/01 Q1027=
200711020750 METAR ESMX 020750Z VRB01KT CAVOK 01/01 Q1027=
200711020720 METAR ESMX 020720Z 31003KT CAVOK M01/M01 Q1027=
200711020650 METAR ESMX 020650Z 31004KT CAVOK M01/M01 Q1026=
200711020620 METAR ESMX 020620Z 32004KT CAVOK M02/M02 Q1026=
200711020550 METAR ESMX 020550Z 31002KT CAVOK M02/M02 Q1026=
200711020520 METAR ESMX 020520Z VRB02KT 9999 MIFG SKC M02/M02 Q1026=
200711020450 METAR ESMX 020450Z 32002KT 9999 MIFG SKC M02/M02 Q1025=
200711020420 METAR ESMX 020420Z AUTO 30001KT 0900NDV R01/P2000D R19/P2000U NCD M02/M02 Q1025=
200711020350 METAR ESMX 020350Z AUTO 30002KT 2900NDV NCD M02/M02 Q1025=
200711020320 METAR ESMX 020320Z AUTO 31001KT 0500NDV R01/P2000D R19/P2000U NCD M01/M01 Q1025=
200711020250 METAR ESMX 020250Z AUTO 30002KT 1000NDV R01/P2000U R19/P2000D NCD M01/M01 Q1025=
200711020220 METAR ESMX 020220Z AUTO VRB02KT 0500NDV R01/P2000D R19/1200VP2000D BCFG NCD 01/00 Q1024=
200711020150 METAR ESMX 020150Z AUTO 29003KT 1000NDV R01/P2000U R19/P2000U NCD 00/M00 Q1024=
200711020120 METAR ESMX 020120Z 29003KT 5000 R19/P2000U BCFG BR SKC 00/00 Q1024=
200711020050 METAR ESMX 020050Z VRB01KT 0500 R19/0800V1100 BCFG SKC 02/02 Q1024=
200711020020 METAR ESMX 020020Z 00000KT 0400 R19/0500V0750 BCFG SKC 03/03 Q1024=
200711012350 METAR ESMX 012350Z 28003KT 2500 MIFG BR SKC 02/02 Q1023=
200711012320 METAR ESMX 012320Z VRB02KT 1500 R19/P2000D MIFG BR SKC 03/03 Q1023=
200711012250 METAR ESMX 012250Z 27005KT 0500 R01/0900U R19/1000VP2000U BCFG SKC 04/03 Q1023=
200711012220 METAR ESMX 012220Z 29004KT 0500 R01/0700 R19/P2000D BCFG SKC 04/03 Q1022=
200711012150 METAR ESMX 012150Z 30003KT 8000 BR SKC 05/05 Q1022=
200711012120 METAR ESMX 012120Z 30005KT CAVOK 06/06 Q1022=
200711012020 METAR ESMX 012020Z 28004KT CAVOK 07/07 Q1021=
200711011950 METAR ESMX 011950Z 29005KT CAVOK 08/07 Q1020=
200711011850 METAR ESMX 011850Z 31006KT 270V340 9999 FEW015 09/08 Q1019=
200711011820 METAR ESMX 011820Z 31006KT 270V340 9999 FEW013 09/08 Q1019=
200711011750 METAR ESMX 011750Z 30008KT 9999 FEW012 SCT023 BKN032 10/09 Q1018=
200711011720 METAR ESMX 011720Z 30008KT 9999 FEW011 OVC032 11/10 Q1018=
200711011620 METAR ESMX 011620Z 29010KT 250V320 7000 BR FEW006 OVC009 11/10 Q1017 REDZ=
200711011550 METAR ESMX 011550Z 28012KT 4000 DZ BR FEW005 SCT007 BKN008 11/11 Q1016 RERA=
200711011520 METAR ESMX 011520Z 27011KT 3000 DZ BR BKN005 OVC008 11/11 Q1016=
200711011450 METAR ESMX 011450Z 26013KT 230V290 3400 -RA BR SCT004 OVC007 11/11 Q1015=
200711011420 METAR ESMX 011420Z 26012KT 2400 DZ BR OVC005 11/11 Q1015=
200711011320 METAR ESMX 011320Z 25013KT 210V280 4500 BR OVC005 11/11 Q1015=
200711011250 METAR ESMX 011250Z 24011KT 200V270 4500 DZ BR BKN006 OVC006 12/10 Q1015=
200711011220 METAR ESMX 011220Z 25013G23KT 5000 DZ BR OVC007 12/10 Q1015=
