##########################################################
# Query made at 04/19/2024 20:55:54 UTC
# Time interval: from 02/01/2007 12:00  to 02/28/2007 12:59  UTC
##########################################################

##########################################################
# ESMX, Vaxjo (Sweden)
# WMO index: 02641. WIGOS ID: 0-20000-0-02648
# Latitude 56-51N. Longitude 014-50E. Altitude 199 m.
##########################################################

200702281250 METAR ESMX 281250Z 15008KT 7000 OVC005 01/00 Q0987=
200702281220 METAR ESMX 281220Z 14008KT 110V170 9999 OVC005 01/00 Q0986=
200702281150 METAR ESMX 281150Z 14006KT 2500 -SN FEW005 SCT006 BKN008 01/00 Q0987=
200702281120 METAR ESMX 281120Z 14007KT 110V170 3500 RA BKN006 OVC010 00/00 Q0987=
200702281050 METAR ESMX 281050Z 14007KT 100V180 3500 -SN SCT006 BKN010 00/00 Q0988=
200702281020 METAR ESMX 281020Z 14006KT 1700 SN FEW005 SCT006 BKN008 00/M00 Q0988=
200702280950 METAR ESMX 280950Z 14006KT 100V200 1700 SN FEW004 SCT006 BKN008 00/00 Q0988=
200702280920 METAR ESMX 280920Z 14006KT 1400 R01/1400N R19/1100V1700N SN FEW005 SCT006 BKN008 00/M00 Q0988=
200702280850 METAR ESMX 280850Z 13005KT 080V170 2000 -SN SCT005 BKN007 OVC009 00/M00 Q0989=
200702280820 METAR ESMX 280820Z 13006KT 100V170 3000 -SN BKN005 OVC010 00/M00 Q0989=
200702280750 METAR ESMX 280750Z 13005KT 1800 -SN FEW005 BKN007 M00/M00 Q0989=
200702280720 METAR ESMX 280720Z 14005KT 2600 -SN FEW004 OVC006 M00/M00 Q0990=
200702280650 METAR ESMX 280650Z 13004KT 3900 -SN FEW004 OVC005 M00/M01 Q0990=
200702280620 METAR ESMX 280620Z 14005KT 080V170 2500 -SN OVC005 M00/M01 Q0990=
200702280550 METAR ESMX 280550Z 12004KT 9000 BR OVC005 M00/M01 Q0991=
200702280520 METAR ESMX 280520Z 14004KT 080V170 9000 BR BKN005 M01/M01 Q0991=
200702280450 METAR ESMX 280450Z 13005KT 090V160 8000 BR FEW005 SCT007 M01/M01 Q0992=
200702280420 METAR ESMX 280420Z AUTO 13004KT 100V160 8000NDV BR FEW005/// SCT006/// M01/M01 Q0992=
200702280350 METAR ESMX 280350Z AUTO 14005KT 110V170 9000NDV BR BKN004/// BKN007/// M01/M01 Q0993=
200702280320 METAR ESMX 280320Z AUTO 16005KT 8000NDV BKN004/// OVC009/// M00/M01 Q0993=
200702280250 METAR ESMX 280250Z AUTO 14004KT 100V160 5000NDV SCT001/// BKN004/// OVC024/// M00/M01 Q0994=
200702280220 METAR ESMX 280220Z AUTO 15004KT 1000NDV R01/P2000U R19/P2000U FZFG OVC000/// M00/M00 Q0994=
200702280150 METAR ESMX 280150Z AUTO 16004KT 0400NDV R01/1100N R19/1300N FZFG VV001 M00/M00 Q0994=
200702280120 METAR ESMX 280120Z AUTO 16005KT 0600NDV R01/1600D R19/1800N FZFG VV001 M00/M01 Q0995=
200702280050 METAR ESMX 280050Z 15004KT 120V200 1500 R19/P2000D BR OVC003 M00/M01 Q0996=
200702280020 METAR ESMX 280020Z 15004KT 110V170 5000 BR OVC003 M00/M01 Q0996=
200702272350 METAR ESMX 272350Z 14005KT 8000 BR SCT005 OVC007 M00/M01 Q0996=
200702272320 METAR ESMX 272320Z 13004KT 100V160 9999 OVC008 M00/M01 Q0997=
200702272250 METAR ESMX 272250Z 14005KT 9999 FEW009 OVC011 M00/M01 Q0997=
200702272220 METAR ESMX 272220Z 14004KT 9999 OVC012 M00/M01 Q0998=
200702272150 METAR ESMX 272150Z 14003KT 110V170 9999 OVC012 M00/M01 Q0998=
200702272120 METAR ESMX 272120Z VRB02KT 9999 OVC014 M00/M01 Q0998=
200702272050 METAR ESMX 272050Z VRB02KT 9999 OVC017 M00/M01 Q0999=
200702272020 METAR ESMX 272020Z 18002KT 9999 OVC016 M00/M01 Q0999=
200702271950 METAR ESMX 271950Z 15002KT 9999 OVC016 M00/M01 Q0999=
200702271920 METAR ESMX 271920Z VRB02KT 9999 OVC017 M00/M01 Q0999=
200702271850 METAR ESMX 271850Z 00000KT 9999 OVC017 M00/M01 Q1000=
200702271820 METAR ESMX 271820Z 00000KT 9999 BKN018 M00/M01 Q0999=
200702271720 METAR ESMX 271720Z 00000KT 9999 OVC015 M00/M01 Q1000=
200702271650 METAR ESMX 271650Z 29001KT 9999 OVC016 M00/M01 Q1000=
200702271620 METAR ESMX 271620Z 00000KT 9999 OVC016 M00/M02 Q1000=
200702271550 METAR ESMX 271550Z 33001KT 9999 BKN016 00/M01 Q0999=
200702271520 METAR ESMX 271520Z 00000KT 9999 BKN018 00/M02 Q1000=
200702271450 METAR ESMX 271450Z 00000KT 9999 BKN021 00/M02 Q1000=
200702271420 METAR ESMX 271420Z 36002KT 9999 FEW022 OVC026 00/M02 Q1000=
200702271350 METAR ESMX 271350Z 01005KT 9999 -SN SCT013 BKN020 00/M01 Q0999=
200702271320 METAR ESMX 271320Z 01005KT 9999 FEW010 OVC014 00/M01 Q0999=
200702271250 METAR ESMX 271250Z 01003KT 9999 -SN FEW008 SCT009 OVC013 00/M01 Q0999=
200702271220 METAR ESMX 271220Z 35004KT 9999 FEW007 SCT009 BKN012 00/M01 Q0999=
200702271150 METAR ESMX 271150Z 01003KT 8000 -SN FEW006 BKN009 01/M01 Q0999=
200702271120 METAR ESMX 271120Z 36003KT 6000 -SN BR FEW007 SCT011 BKN014 01/M01 Q0999=
200702271050 METAR ESMX 271050Z 36002KT 6000 -SN BR FEW012 BKN015 01/M00 Q0999=
200702271020 METAR ESMX 271020Z 36002KT 9999 -SN FEW010 BKN031 01/M00 Q0999=
200702270950 METAR ESMX 270950Z 35002KT 1600 -SN FEW006 BKN010 00/M01 Q0998=
200702270920 METAR ESMX 270920Z 36003G34KT 3500 -SN FEW005 BKN007 00/M01 Q0998=
200702270850 METAR ESMX 270850Z 36002KT 5000 -SN FEW005 00/M00 Q0998=
200702270820 METAR ESMX 270820Z 01002KT 2500 -SN FEW030 00/M00 Q0998=
200702270750 METAR ESMX 270750Z 00000KT 2500 -SN FEW030 M00/M00 Q0998=
200702270720 METAR ESMX 270720Z 00000KT 3600 -SN NSC M00/M01 Q0998=
200702270650 METAR ESMX 270650Z 00000KT 3500 -SN FEW004 M01/M01 Q0998=
200702270620 METAR ESMX 270620Z 00000KT 1500 R01/P2000N R19/1900N -SN FEW004 M00/M01 Q0998=
200702270550 METAR ESMX 270550Z 35002KT 1800 -SN FEW002 SCT005 M01/M01 Q0998=
200702270520 METAR ESMX 270520Z 02003KT 1500 R01/P2000N R19/P2000N -SN SCT003 BKN007 M00/M01 Q0998=
200702270450 METAR ESMX 270450Z 35002KT 0900 R01/1900N R19/1900N -SN SCT003 BKN010 M00/M00 Q0998=
200702270420 METAR ESMX 270420Z AUTO 35002KT 1500NDV -SN FEW002/// SCT005/// M00/M00 Q0998=
200702270350 METAR ESMX 270350Z AUTO 00000KT 1300NDV R01/P2000N R19/P2000N -SN SCT006/// M00/M00 Q0998=
200702270320 METAR ESMX 270320Z AUTO 00000KT 3900NDV SG SCT006/// BKN012/// OVC017/// M00/M00 Q0998 RESN=
200702270250 METAR ESMX 270250Z AUTO 34002KT 8000NDV UP OVC017/// M00/M00 Q0998 RESN RESG=
200702270220 METAR ESMX 270220Z AUTO 32002KT 5000NDV -SN OVC019/// M00/M00 Q0998 RESG=
200702270150 METAR ESMX 270150Z AUTO 34002KT 3700NDV SG FEW004/// SCT009/// BKN012/// M00/M00 Q0999=
200702270120 METAR ESMX 270120Z 34003KT 4000 -SN SCT005 BKN020 M00/M00 Q0999=
200702270050 METAR ESMX 270050Z 34001KT 1900 -SN FEW003 BKN006 M00/M00 Q0999=
200702270020 METAR ESMX 270020Z 34003KT 2600 -SN SCT005 BKN025 00/M00 Q0999=
200702262350 METAR ESMX 262350Z 34004KT 2600 -SN NSC 00/M00 Q0999=
200702262320 METAR ESMX 262320Z 34004KT 2500 -SN NSC 00/M00 Q0999=
200702262250 METAR ESMX 262250Z 34004KT 2300 -SN SCT004 BKN027 00/M00 Q0999=
200702262220 METAR ESMX 262220Z 01004KT 3500 -SN FEW005 BKN026 00/00 Q0999=
200702262150 METAR ESMX 262150Z 34004KT 2400 -SN FEW003 SCT005 BKN010 00/00 Q0999 RERA=
200702262120 METAR ESMX 262120Z 34004KT 2000 -SN OVC002 00/00 Q0999=
200702262050 METAR ESMX 262050Z 02004KT 2300 -SN OVC002 00/00 Q0999=
200702262020 METAR ESMX 262020Z 03005KT 2000 -SN OVC002 00/00 Q0999=
200702261950 METAR ESMX 261950Z 04004KT 2500 -SN OVC003 00/00 Q0999=
200702261920 METAR ESMX 261920Z 05005KT 010V070 3000 BR OVC002 01/00 Q0999=
200702261850 METAR ESMX 261850Z 03006KT 010V070 2500 BR OVC002 01/00 Q0999=
200702261820 METAR ESMX 261820Z 01005KT 2800 BR OVC004 01/00 Q1000=
200702261750 METAR ESMX 261750Z 01004KT 3100 BR OVC004 01/00 Q1000=
200702261720 METAR ESMX 261720Z 05003KT 3800 BR OVC005 01/00 Q1000=
200702261650 METAR ESMX 261650Z 02003KT 3400 BR OVC005 01/00 Q1000=
200702261620 METAR ESMX 261620Z 06003KT 3100 BR OVC005 01/01 Q1000=
200702261550 METAR ESMX 261550Z 05005KT 360V100 3500 BR OVC004 01/01 Q1000=
200702261520 METAR ESMX 261520Z 05004KT 3400 BR OVC004 01/01 Q1000=
200702261450 METAR ESMX 261450Z 04003KT 010V070 3200 BR OVC004 02/01 Q1000=
200702261420 METAR ESMX 261420Z 05003KT 010V100 3300 BR OVC004 02/01 Q1000=
200702261350 METAR ESMX 261350Z 05004KT 3300 BR OVC004 01/01 Q1000=
200702261320 METAR ESMX 261320Z 07003KT 040V110 3400 BR OVC003 02/01 Q1000=
200702261250 METAR ESMX 261250Z 08003KT 050V120 3300 BR OVC003 02/01 Q1000=
200702261220 METAR ESMX 261220Z 06004KT 020V120 2900 BR OVC002 01/01 Q1000=
200702261150 METAR ESMX 261150Z 09004KT 050V140 2200 BR OVC002 01/01 Q1000=
200702261120 METAR ESMX 261120Z 09004KT 060V130 1900 R01/1900N R19/P2000N BR OVC002 01/01 Q1001=
200702261050 METAR ESMX 261050Z 09005KT 050V140 1900 R01/1800D R19/1900N BR OVC002 01/01 Q1000=
200702261020 METAR ESMX 261020Z 07004KT 030V120 2100 BR OVC002 01/00 Q1000=
200702260950 METAR ESMX 260950Z 09004KT 030V120 2300 BR OVC002 01/01 Q1000=
200702260920 METAR ESMX 260920Z 10004KT 060V160 2700 BR OVC002 01/00 Q1000=
200702260850 METAR ESMX 260850Z 11004KT 2100 BR SCT001 OVC003 01/00 Q1001=
200702260820 METAR ESMX 260820Z 11005KT 070V160 2000 R01/1900N R19/P2000N BR SCT001 OVC003 00/M00 Q1000=
200702260750 METAR ESMX 260750Z 10004KT 070V150 3400 BR SCT002 OVC003 00/M00 Q1000=
200702260720 METAR ESMX 260720Z 11006KT 060V150 5000 BR SCT003 OVC005 00/M00 Q1000 RESN=
200702260650 METAR ESMX 260650Z 10005KT 070V150 3400 -SN OVC006 M00/M00 Q1000 RESG=
200702260620 METAR ESMX 260620Z 10005KT 060V150 4800 SG FEW005 OVC006 M00/M00 Q1000 RESN=
200702260550 METAR ESMX 260550Z 10005KT 070V140 2500 -SN BR FEW005 BKN006 OVC008 M00/M01 Q1000=
200702260520 METAR ESMX 260520Z 10004KT 060V160 1800 -SN BR OVC005 M00/M01 Q1000=
200702260450 METAR ESMX 260450Z 10003KT 350V160 2000 -SN BR FEW005 SCT006 BKN007 M00/M01 Q1000=
200702260420 METAR ESMX 260420Z AUTO 09004KT 050V140 1400NDV R01/P2000N R19/P2000N -SN BKN005/// M00/M01 Q1000=
200702260350 METAR ESMX 260350Z AUTO 09005KT 050V130 1300NDV R01/1900N R19/1900N -SN FEW004/// SCT006/// BKN007/// M00/M01 Q1000=
200702260320 METAR ESMX 260320Z AUTO 09005KT 050V120 1700NDV -SN FEW005/// SCT007/// BKN008/// M00/M01 Q1000=
200702260250 METAR ESMX 260250Z AUTO 10006KT 060V140 1400NDV R01/P2000N R19/P2000N -SN FEW006/// OVC008/// M00/M01 Q1001=
200702260220 METAR ESMX 260220Z AUTO 09005KT 050V170 2500NDV -SN OVC006/// M00/M01 Q1001 RESG=
200702260150 METAR ESMX 260150Z 10006KT 060V150 4000 -SN BR OVC007 00/M01 Q1001=
200702260120 METAR ESMX 260120Z 11005KT 070V140 5000 BR OVC007 00/M01 Q1001=
200702260050 METAR ESMX 260050Z 09005KT 050V140 5000 BR OVC007 00/M01 Q1001=
200702260020 METAR ESMX 260020Z 11006KT 060V150 5000 BR OVC007 00/M01 Q1002=
200702252350 METAR ESMX 252350Z 09005KT 030V150 5000 BR OVC007 00/M01 Q1001=
200702252250 METAR ESMX 252250Z 09006KT 050V140 5000 BR OVC007 00/M01 Q1002=
200702252220 METAR ESMX 252220Z 10007KT 040V150 5000 BR OVC006 00/M01 Q1002=
200702252150 METAR ESMX 252150Z 11005KT 050V150 4500 BR OVC006 00/M01 Q1002=
200702252050 METAR ESMX 252050Z 10005KT 050V150 4000 BR OVC005 00/M01 Q1002=
200702252020 METAR ESMX 252020Z 11006KT 060V150 3500 BR OVC005 M00/M01 Q1003=
200702251950 METAR ESMX 251950Z 11006KT 070V160 3500 BR OVC005 M00/M01 Q1003=
200702251920 METAR ESMX 251920Z 10005KT 060V170 3500 BR OVC005 M00/M01 Q1003=
200702251850 METAR ESMX 251850Z 10006KT 050V150 4000 BR OVC005 M00/M01 Q1003=
200702251820 METAR ESMX 251820Z 10006KT 3600 BR OVC005 M00/M01 Q1003=
200702251750 METAR ESMX 251750Z 11006KT 3000 BR OVC005 M01/M01 Q1003=
200702251720 METAR ESMX 251720Z 11006KT 2600 BR OVC003 M01/M01 Q1003=
200702251650 METAR ESMX 251650Z 11006KT 2800 BR OVC004 M01/M01 Q1003=
200702251620 METAR ESMX 251620Z 11006KT 2600 BR OVC005 M01/M01 Q1003=
200702251550 METAR ESMX 251550Z 12006KT 080V160 3700 BR OVC004 M01/M02 Q1003=
200702251520 METAR ESMX 251520Z 11006KT 6000 BR OVC006 M01/M02 Q1003=
200702251450 METAR ESMX 251450Z 11007KT 070V150 6000 BR OVC007 M01/M02 Q1003=
200702251420 METAR ESMX 251420Z 11006KT 6000 BR OVC008 M00/M02 Q1003=
200702251350 METAR ESMX 251350Z 11006KT 070V190 9999 OVC009 M00/M02 Q1003=
200702251320 METAR ESMX 251320Z 12007KT 9999 OVC010 M00/M02 Q1003=
200702251250 METAR ESMX 251250Z 11008KT 9999 OVC010 M00/M03 Q1003=
200702251220 METAR ESMX 251220Z AUTO 11007KT 060V160 9999NDV OVC010/// M00/M03 Q1003=
200702251150 METAR ESMX 251150Z AUTO 11008KT 070V150 9000NDV BR OVC009/// M00/M03 Q1003=
200702251120 METAR ESMX 251120Z AUTO 12007KT 060V170 9000NDV BR OVC009/// M01/M03 Q1004=
200702251050 METAR ESMX 251050Z AUTO 10007KT 040V150 8000NDV BR OVC008/// M01/M03 Q1004=
200702251020 METAR ESMX 251020Z AUTO 11007KT 070V140 7000NDV BR OVC008/// M01/M03 Q1004=
200702250950 METAR ESMX 250950Z AUTO 12007KT 080V160 7000NDV BR OVC008/// M01/M03 Q1004=
200702250920 METAR ESMX 250920Z AUTO 11007KT 080V150 7000NDV BR OVC008/// M01/M03 Q1004 RESN RESG=
200702250850 METAR ESMX 250850Z AUTO 12006KT 060V160 6000NDV SG OVC008/// M01/M03 Q1004 RESN=
200702250820 METAR ESMX 250820Z AUTO 11007KT 070V150 5000NDV SG OVC009/// M02/M03 Q1004 RESN=
200702250750 METAR ESMX 250750Z AUTO 12008KT 080V150 7000NDV BR OVC010/// M02/M03 Q1004 REUP RESN RESG=
200702250720 METAR ESMX 250720Z AUTO 12008KT 080V170 8000NDV BR OVC010/// M02/M04 Q1004=
200702250650 METAR ESMX 250650Z AUTO 12009KT 090V160 8000NDV BR OVC010/// M02/M04 Q1004=
200702250620 METAR ESMX 250620Z AUTO 12007KT 070V160 8000NDV BR OVC010/// M02/M04 Q1004=
200702250550 METAR ESMX 250550Z AUTO 12007G17KT 060V170 9000NDV OVC011/// M02/M04 Q1004=
200702250520 METAR ESMX 250520Z AUTO 13007KT 080V190 9000NDV OVC011/// M02/M04 Q1004=
200702250450 METAR ESMX 250450Z AUTO 13007KT 070V160 9000NDV OVC012/// M02/M04 Q1005=
200702250420 METAR ESMX 250420Z AUTO 13007KT 100V160 9000NDV OVC012/// M02/M04 Q1005=
200702250350 METAR ESMX 250350Z AUTO 13008KT 060V170 9000NDV OVC012/// M02/M04 Q1005=
200702250320 METAR ESMX 250320Z AUTO 13008KT 080V170 9999NDV OVC013/// M02/M04 Q1005=
200702250250 METAR ESMX 250250Z AUTO 13007KT 070V170 9999NDV OVC013/// M02/M04 Q1005=
200702250220 METAR ESMX 250220Z AUTO 13008KT 050V190 9999NDV OVC014/// M02/M04 Q1006=
200702250150 METAR ESMX 250150Z AUTO 13008KT 080V160 9999NDV OVC014/// M02/M04 Q1006=
200702250120 METAR ESMX 250120Z AUTO 13007KT 070V180 9999NDV OVC015/// M02/M04 Q1006=
200702250050 METAR ESMX 250050Z AUTO 14006KT 100V180 9999NDV OVC015/// M02/M04 Q1006=
200702250020 METAR ESMX 250020Z AUTO 13008G18KT 080V170 9999NDV BKN016/// M02/M05 Q1006=
200702242350 METAR ESMX 242350Z AUTO 12009KT 090V170 9999NDV OVC017/// M02/M05 Q1007=
200702242320 METAR ESMX 242320Z AUTO 12009KT 080V160 9999NDV OVC017/// M02/M05 Q1007=
200702242250 METAR ESMX 242250Z AUTO 13008KT 080V170 9999NDV OVC018/// M02/M05 Q1007=
200702242220 METAR ESMX 242220Z AUTO 12008KT 080V160 9999NDV OVC019/// M02/M05 Q1008=
200702242150 METAR ESMX 242150Z AUTO 12008KT 080V160 9999NDV BKN019/// M02/M05 Q1008 RESN RESG=
200702242120 METAR ESMX 242120Z AUTO 13007KT 080V170 9000NDV SG FEW021/// M02/M05 Q1008 RESN=
200702242050 METAR ESMX 242050Z AUTO 13007KT 080V200 9000NDV -SN FEW050/// M02/M04 Q1009 RESG=
200702242020 METAR ESMX 242020Z AUTO 12008KT 080V170 9000NDV SG FEW012/// SCT015/// M03/M04 Q1009 RESN=
200702241950 METAR ESMX 241950Z AUTO 11008KT 070V160 4500NDV -SN BKN012/// M03/M04 Q1009 RESG=
200702241920 METAR ESMX 241920Z AUTO 10008KT 050V160 5000NDV SG SCT011/// M03/M04 Q1009 RESN=
200702241850 METAR ESMX 241850Z AUTO 12007G18KT 030V160 4600NDV -SN FEW010/// SCT013/// M03/M04 Q1009=
200702241820 METAR ESMX 241820Z AUTO 11008KT 080V170 2700NDV -SN FEW009/// M03/M04 Q1009=
200702241750 METAR ESMX 241750Z AUTO 11007KT 050V150 0450NDV R01/P2000N R19/0700VP2000 -SN FEW006/// SCT007/// BKN014/// M03/M04 Q1010=
200702241720 METAR ESMX 241720Z AUTO 11008KT 060V160 2100NDV -SN FEW010/// M03/M05 Q1010=
200702241650 METAR ESMX 241650Z AUTO 11008KT 070V150 2400NDV -SN FEW017/// M03/M05 Q1010=
200702241620 METAR ESMX 241620Z AUTO 10009KT 050V170 2600NDV -SN FEW009/// M03/M06 Q1010=
200702241550 METAR ESMX 241550Z AUTO 11007KT 030V160 5000NDV -SN FEW026/// M03/M06 Q1011=
200702241520 METAR ESMX 241520Z AUTO 12009KT 080V170 5000NDV -SN NCD M03/M07 Q1011 RESG=
200702241450 METAR ESMX 241450Z AUTO 12008G18KT 080V160 5000NDV -SN FEW022/// M03/M07 Q1011 RESG=
200702241420 METAR ESMX 241420Z AUTO 11007KT 060V170 8000NDV -SN FEW011/// SCT035/// M02/M07 Q1011 REUP=
200702241350 METAR ESMX 241350Z AUTO 12010KT 070V170 9999NDV FEW040/// SCT047/// M02/M08 Q1012=
200702241320 METAR ESMX 241320Z AUTO 12010KT 070V170 9999NDV OVC045/// M02/M08 Q1012=
200702241250 METAR ESMX 241250Z AUTO 11010KT 060V170 9999NDV OVC048/// M02/M08 Q1012=
200702241220 METAR ESMX 241220Z AUTO 13010G20KT 070V170 9999NDV OVC049/// M02/M08 Q1013=
200702241150 METAR ESMX 241150Z AUTO 12008KT 070V160 9999NDV BKN049/// OVC084/// M02/M08 Q1013=
200702241120 METAR ESMX 241120Z AUTO 13009G19KT 080V180 9999NDV FEW049/// OVC082/// M02/M09 Q1013=
200702241050 METAR ESMX 241050Z AUTO 13010KT 080V160 9999NDV OVC053/// M03/M09 Q1014=
200702241020 METAR ESMX 241020Z AUTO 12008KT 060V170 9999NDV OVC057/// M03/M09 Q1014=
200702240950 METAR ESMX 240950Z AUTO 11009KT 060V170 9999NDV OVC059/// M03/M09 Q1014=
200702240920 METAR ESMX 240920Z AUTO 12007KT 070V180 9999NDV BKN060/// M03/M09 Q1015=
200702240850 METAR ESMX 240850Z AUTO 12008KT 080V200 9999NDV BKN061/// M03/M08 Q1015=
200702240820 METAR ESMX 240820Z AUTO 12008G18KT 070V170 9999NDV OVC057/// M03/M09 Q1015=
200702240750 METAR ESMX 240750Z AUTO 13008KT 070V170 9999NDV OVC055/// M03/M09 Q1015=
200702240720 METAR ESMX 240720Z AUTO 12009KT 070V160 9999NDV BKN055/// M04/M08 Q1016=
200702240650 METAR ESMX 240650Z AUTO 12008KT 080V160 9999NDV FEW042/// SCT048/// BKN069/// M04/M08 Q1016=
200702240620 METAR ESMX 240620Z AUTO 12010KT 080V150 9999NDV NCD M04/M08 Q1016=
200702240550 METAR ESMX 240550Z AUTO 12008KT 080V190 9999NDV NCD M04/M08 Q1016=
200702240520 METAR ESMX 240520Z AUTO 13009KT 070V160 9999NDV NCD M04/M08 Q1016=
200702240450 METAR ESMX 240450Z AUTO 13008KT 080V170 9999NDV NCD M04/M07 Q1017 RESG RESN=
200702240420 METAR ESMX 240420Z AUTO 12009KT 080V170 8000NDV SG NCD M04/M07 Q1017 RESN=
200702240350 METAR ESMX 240350Z AUTO 12008KT 050V200 4000NDV SG FEW015/// M04/M06 Q1017 RESN=
200702240320 METAR ESMX 240320Z AUTO 12007KT 050V170 3000NDV -SN FEW010/// M04/M06 Q1018=
200702240250 METAR ESMX 240250Z AUTO 13008KT 080V180 4600NDV -SN FEW019/// M04/M06 Q1018=
200702240220 METAR ESMX 240220Z AUTO 12008G18KT 080V160 5000NDV -SN FEW019/// M04/M07 Q1018 RESG=
200702240150 METAR ESMX 240150Z AUTO 13008KT 080V170 9999NDV SG FEW026/// M03/M07 Q1018 RESN=
200702240120 METAR ESMX 240120Z AUTO 13009KT 060V160 9999NDV -SN NCD M03/M08 Q1019 REUP RESG=
200702240050 METAR ESMX 240050Z AUTO 13008KT 070V160 9999NDV NCD M03/M08 Q1019=
200702240020 METAR ESMX 240020Z AUTO 13009G20KT 070V170 9999NDV NCD M03/M08 Q1019=
200702232350 METAR ESMX 232350Z AUTO 12008KT 060V170 9999NDV NCD M03/M08 Q1019=
200702232320 METAR ESMX 232320Z AUTO 12008KT 050V170 9999NDV NCD M03/M07 Q1020=
200702232250 METAR ESMX 232250Z AUTO 12008KT 070V160 9999NDV FEW022/// M03/M07 Q1020=
200702232220 METAR ESMX 232220Z AUTO 12010KT 060V160 9999NDV FEW021/// M03/M07 Q1020=
200702232150 METAR ESMX 232150Z AUTO 12010KT 080V150 9999NDV BKN020/// M03/M07 Q1020=
200702232120 METAR ESMX 232120Z AUTO 12010KT 070V170 9999NDV BKN020/// M03/M07 Q1021=
200702232050 METAR ESMX 232050Z AUTO 12007KT 070V160 9999NDV OVC019/// M04/M07 Q1021=
200702232020 METAR ESMX 232020Z 12008KT 9999 OVC019 M04/M07 Q1021=
200702231950 METAR ESMX 231950Z 12008KT 9999 OVC019 M04/M07 Q1021=
200702231920 METAR ESMX 231920Z 12008KT 050V170 9999 BKN019 BKN025 M04/M08 Q1022=
200702231850 METAR ESMX 231850Z 12008G18KT 070V160 9999 FEW020 M04/M08 Q1022=
200702231820 METAR ESMX 231820Z 12009KT 070V170 CAVOK M04/M08 Q1022=
200702231750 METAR ESMX 231750Z 12009KT CAVOK M04/M08 Q1022=
200702231720 METAR ESMX 231720Z 11007KT 050V180 CAVOK M04/M08 Q1022=
200702231650 METAR ESMX 231650Z 12010G20KT CAVOK M04/M09 Q1022=
200702231620 METAR ESMX 231620Z 12010KT CAVOK M04/M09 Q1022=
200702231550 METAR ESMX 231550Z 12010KT CAVOK M04/M09 Q1022=
200702231520 METAR ESMX 231520Z 11009G20KT CAVOK M04/M09 Q1022=
200702231450 METAR ESMX 231450Z 11009KT 060V170 CAVOK M04/M09 Q1022=
200702231420 METAR ESMX 231420Z 12011KT 060V160 CAVOK M03/M09 Q1022=
200702231350 METAR ESMX 231350Z 12010G20KT 9999 FEW025 OVC065 M03/M09 Q1023=
200702231320 METAR ESMX 231320Z 13012KT 9999 FEW027 BKN067 M03/M09 Q1023=
200702231250 METAR ESMX 231250Z 11009KT 9999 FEW030 BKN067 M03/M09 Q1023=
200702231220 METAR ESMX 231220Z 12011G22KT 9999 FEW025 BKN068 M03/M09 Q1023=
200702231150 METAR ESMX 231150Z 12010G20KT 050V170 9999 FEW028 BKN070 M03/M09 Q1023=
200702231120 METAR ESMX 231120Z 11010G20KT 9999 FEW025 BKN069 M03/M09 Q1023=
200702231050 METAR ESMX 231050Z 11011G21KT 050V160 9999 FEW027 OVC071 M03/M09 Q1023=
200702231020 METAR ESMX 231020Z 12011G21KT 070V160 9999 SCT024 BKN073 M03/M09 Q1023=
200702230950 METAR ESMX 230950Z 11010G24KT 070V160 9999 SCT022 BKN074 M04/M09 Q1023=
200702230920 METAR ESMX 230920Z 12010G20KT 070V170 9999 SCT023 BKN074 M04/M09 Q1023=
200702230850 METAR ESMX 230850Z 10012KT 070V140 9999 SCT021 BKN074 BKN100 M04/M09 Q1023=
200702230820 METAR ESMX 230820Z 11011G21KT 050V170 9999 SCT020 BKN100 M05/M09 Q1024=
200702230750 METAR ESMX 230750Z 10009G20KT 060V170 9999 SCT020 BKN100 M05/M09 Q1024=
200702230720 METAR ESMX 230720Z 10010G22KT 060V160 9999 BKN020 M05/M09 Q1024=
200702230650 METAR ESMX 230650Z 11010G21KT 030V150 9999 SCT021 BKN100 M05/M09 Q1024=
200702230620 METAR ESMX 230620Z 11009KT 060V150 9999 BKN021 M05/M09 Q1023=
200702230550 METAR ESMX 230550Z 09007G19KT 050V150 9999 BKN020 M06/M09 Q1023=
200702230520 METAR ESMX 230520Z 10009KT 050V150 9999 BKN020 M06/M09 Q1023=
200702230450 METAR ESMX 230450Z 09007G20KT 030V150 9999 BKN020 M06/M09 Q1023=
200702230420 METAR ESMX 230420Z AUTO VRB08KT 9999NDV BKN021/// M06/M09 Q1023=
200702222220 METAR ESMX 222220Z 09008KT 020V140 9999 -SN BKN020 M05/M09 Q1024=
200702222150 METAR ESMX 222150Z 09006KT 040V140 9999 FEW016 OVC020 M05/M08 Q1024=
200702222120 METAR ESMX 222120Z 09007KT 050V130 9000 OVC018 M05/M08 Q1024=
200702222050 METAR ESMX 222050Z 09008KT 040V160 9999 OVC018 M05/M09 Q1023=
200702222020 METAR ESMX 222020Z 08006KT 040V140 9999 -SN OVC020 M06/M09 Q1023=
200702221950 METAR ESMX 221950Z 06008KT 350V110 9999 OVC020 M06/M09 Q1023=
200702221920 METAR ESMX 221920Z 08009KT 020V130 9999 SCT021 OVC072 M06/M09 Q1023=
200702221850 METAR ESMX 221850Z 08009KT 040V150 9999 FEW022 SCT027 OVC078 M06/M09 Q1023=
200702221820 METAR ESMX 221820Z 07008KT 010V140 9999 SCT020 OVC080 M06/M09 Q1023 RESG=
200702221750 METAR ESMX 221750Z 07009KT 030V110 9999 IC FEW017 SCT020 BKN110 M06/M09 Q1023 RESN RESG=
200702221720 METAR ESMX 221720Z 07009KT 020V120 9999 -SN FEW017 SCT021 BKN110 M06/M08 Q1022=
200702221650 METAR ESMX 221650Z 07009KT 030V130 9999 -SN FEW018 BKN110 M06/M08 Q1022 RESG=
200702221620 METAR ESMX 221620Z 05009KT 010V100 9999 FEW017 SCT021 BKN072 M05/M08 Q1022 RESN=
200702221550 METAR ESMX 221550Z 08009KT 360V120 9999 -SN FEW017 BKN021 M05/M08 Q1021=
200702221520 METAR ESMX 221520Z 08008KT 030V130 9000 -SN FEW019 BKN021 BKN027 M05/M08 Q1021=
200702221450 METAR ESMX 221450Z 08007KT 020V130 5000 -SN FEW017 SCT021 BKN024 M05/M08 Q1021=
200702221420 METAR ESMX 221420Z 08009KT 040V120 5000 -SN BKN020 M05/M08 Q1021=
200702221350 METAR ESMX 221350Z 08009G23KT 020V140 7000 -SN FEW018 SCT021 BKN025 M05/M08 Q1020=
200702221320 METAR ESMX 221320Z 08008KT 010V140 6000 -SN FEW014 SCT019 BKN024 M05/M08 Q1020=
200702221250 METAR ESMX 221250Z 08010G20KT 040V130 3900 -SN FEW014 SCT022 BKN026 M05/M07 Q1020=
200702221220 METAR ESMX 221220Z 09009G20KT 050V120 1500 SN SCT019 BKN023 M05/M07 Q1020=
200702221150 METAR ESMX 221150Z 09011G21KT 050V120 3400 -SN FEW017 BKN021 M05/M07 Q1020=
200702221120 METAR ESMX 221120Z VRB09G19KT 6000 -SN BKN021 BKN028 M05/M07 Q1020=
200702221050 METAR ESMX 221050Z 09010KT 030V120 5000 -SN BKN019 BKN028 M05/M07 Q1019=
200702221020 METAR ESMX 221020Z 08011G21KT 030V130 6000 -SN FEW015 BKN021 M05/M08 Q1019=
200702220920 METAR ESMX 220920Z 08010KT 040V140 6000 -SN FEW017 SCT020 BKN025 M05/M07 Q1019 RESN=
200702220850 METAR ESMX 220850Z 07009KT 020V130 5000 SN DRSN FEW017 BKN024 M05/M07 Q1019=
200702220820 METAR ESMX 220820Z 08010KT 040V150 3000 SN DRSN FEW012 BKN020 M05/M07 Q1018=
200702220750 METAR ESMX 220750Z 08009KT 030V120 2500 SN DRSN FEW009 BKN020 M05/M07 Q1018=
200702220720 METAR ESMX 220720Z 08010G20KT 040V120 2500 SN DRSN FEW007 BKN020 M05/M07 Q1018=
200702220650 METAR ESMX 220650Z 07008G19KT 030V140 2800 SN DRSN FEW014 BKN018 M06/M07 Q1018=
200702220620 METAR ESMX 220620Z 08008G19KT 050V160 3000 -SN DRSN FEW015 BKN021 M06/M07 Q1017=
200702220550 METAR ESMX 220550Z 08008KT 030V130 2800 -SN FEW015 SCT020 M06/M07 Q1017=
200702220520 METAR ESMX 220520Z 08009KT 020V130 2000 -SN FEW006 SCT011 M06/M07 Q1017=
200702220450 METAR ESMX 220450Z 09010KT 040V120 1400 R01/P2000N R19/P2000N -SN FEW006 SCT010 M06/M07 Q1017=
200702220420 METAR ESMX 220420Z AUTO 08011KT 050V130 2300NDV -SN FEW007/// SCT017/// M06/M07 Q1016=
200702220350 METAR ESMX 220350Z AUTO 08008KT 010V160 1700NDV -SN FEW013/// SCT019/// M06/M07 Q1016=
200702220320 METAR ESMX 220320Z AUTO 09011KT 050V150 2600NDV -SN FEW015/// BKN020/// M06/M07 Q1016=
200702220250 METAR ESMX 220250Z AUTO 09010KT 050V140 2600NDV -SN FEW014/// SCT018/// BKN022/// M06/M07 Q1016=
200702220220 METAR ESMX 220220Z AUTO 09010G22KT 040V140 3000NDV -SN FEW016/// SCT019/// M06/M07 Q1016=
200702220150 METAR ESMX 220150Z AUTO 09011G22KT 060V140 2800NDV -SN FEW014/// SCT022/// M06/M07 Q1016=
200702220120 METAR ESMX 220120Z 09010KT 050V140 1900 -SN FEW016 M06/M07 Q1017=
200702220050 METAR ESMX 220050Z 09009KT 040V150 2500 -SN FEW013 SCT018 M06/M07 Q1017=
200702220020 METAR ESMX 220020Z 09010G21KT 010V160 3500 -SN FEW013 BKN020 M06/M07 Q1017=
200702212350 METAR ESMX 212350Z 09011KT 040V140 4000 -SN FEW014 SCT017 BKN020 M06/M08 Q1018=
200702212320 METAR ESMX 212320Z 09010KT 040V130 4000 -SN FEW015 SCT018 BKN020 M06/M08 Q1018=
200702212250 METAR ESMX 212250Z 09009KT 040V140 2500 -SN FEW008 SCT016 M06/M07 Q1018=
200702212220 METAR ESMX 212220Z 09009KT 040V160 2300 -SN FEW007 SCT016 M06/M08 Q1019=
200702212150 METAR ESMX 212150Z 10010KT 050V160 2000 -SN FEW007 SCT016 BKN021 M06/M08 Q1019=
200702212120 METAR ESMX 212120Z 10010KT 050V160 3000 -SN FEW017 BKN020 M06/M08 Q1019=
200702212050 METAR ESMX 212050Z 11010G20KT 060V150 6000 -SN FEW017 BKN020 M06/M08 Q1019=
200702212020 METAR ESMX 212020Z 10007G21KT 040V150 9999 -SN FEW006 BKN018 M06/M07 Q1020=
200702211950 METAR ESMX 211950Z 10010KT 070V140 2500 -SN FEW006 SCT017 BKN022 M06/M07 Q1020=
200702211920 METAR ESMX 211920Z 11010G20KT 060V150 2500 -SN FEW008 SCT015 BKN018 M05/M07 Q1020=
200702211850 METAR ESMX 211850Z 10008KT 060V150 2500 -SN FEW012 SCT015 BKN020 M05/M06 Q1020=
200702211820 METAR ESMX 211820Z 10008KT 060V150 2300 -SN FEW011 SCT016 M05/M06 Q1020=
200702211750 METAR ESMX 211750Z 09007KT 050V140 2500 -SN SCT013 BKN090 M05/M06 Q1020=
200702211720 METAR ESMX 211720Z 08008G18KT 020V120 2200 -SN SCT013 BKN090 M06/M07 Q1020=
200702211650 METAR ESMX 211650Z 08008KT 040V120 2000 -SN SCT014 BKN090 M06/M07 Q1020=
200702211620 METAR ESMX 211620Z 08010KT 050V140 3000 -SN FEW014 SCT017 BKN090 M06/M07 Q1021=
200702211550 METAR ESMX 211550Z 08009KT 040V120 2800 -SN FEW015 BKN090 M06/M07 Q1021=
200702211520 METAR ESMX 211520Z 08009KT 030V120 3500 -SN FEW016 BKN090 M05/M07 Q1021=
200702211450 METAR ESMX 211450Z 08008KT 050V120 3500 -SN FEW010 BKN090 M05/M07 Q1021=
200702211420 METAR ESMX 211420Z 08008KT 030V120 2800 -SN FEW010 BKN080 M05/M07 Q1021=
200702211350 METAR ESMX 211350Z 06006KT 010V110 2800 -SN FEW010 BKN080 M06/M08 Q1022=
200702211320 METAR ESMX 211320Z 07008KT 010V140 3000 -SN FEW010 BKN090 M06/M08 Q1022=
200702211250 METAR ESMX 211250Z 08008KT 040V120 2500 -SN FEW010 BKN090 M06/M08 Q1022=
200702211220 METAR ESMX 211220Z 08009KT 030V110 2600 -SN FEW010 BKN090 M06/M08 Q1023=
200702211150 METAR ESMX 211150Z 09006KT 040V130 3200 -SN FEW027 BKN090 M06/M09 Q1023=
200702211120 METAR ESMX 211120Z 08008KT 010V140 4000 -SN FEW025 BKN080 M06/M09 Q1023=
200702211050 METAR ESMX 211050Z 08008KT 020V150 5000 -SN FEW024 SCT030 M06/M10 Q1023=
200702211020 METAR ESMX 211020Z 09009KT 040V160 7000 -SN FEW020 BKN120 M06/M10 Q1023=
200702210950 METAR ESMX 210950Z 08009G19KT 030V120 6000 -SN SCT017 BKN028 M06/M10 Q1023=
200702210920 METAR ESMX 210920Z 08007G17KT 030V140 7000 -SN FEW015 BKN200 M07/M10 Q1023=
200702210850 METAR ESMX 210850Z 09008KT 020V130 9999 -SN SCT012 BKN030 M07/M10 Q1023=
200702210820 METAR ESMX 210820Z 08008KT 040V130 9999 BKN012 M08/M10 Q1023=
200702210750 METAR ESMX 210750Z 08007KT 040V120 9999 SCT013 M08/M10 Q1023=
200702210720 METAR ESMX 210720Z 06007KT 020V140 9999 FEW015 SCT020 M08/M10 Q1023=
200702210650 METAR ESMX 210650Z 06006KT 010V110 9999 FEW012 SCT035 M08/M10 Q1023=
200702210620 METAR ESMX 210620Z 08007KT 030V140 9999 BKN028 M08/M10 Q1022=
200702210550 METAR ESMX 210550Z 07007KT 020V130 9999 FEW027 M08/M10 Q1022=
200702210520 METAR ESMX 210520Z 07006KT 030V120 8000 -SN FEW025 M08/M10 Q1022=
200702210450 METAR ESMX 210450Z 07008KT 6000 -SN BKN022 M08/M10 Q1022=
200702210420 METAR ESMX 210420Z AUTO 07007KT 030V120 9999NDV IC BKN023/// M08/M10 Q1022 RESN RESG=
200702210350 METAR ESMX 210350Z AUTO 06007KT 030V100 6000NDV -SN FEW018/// SCT023/// M08/M10 Q1022=
200702210320 METAR ESMX 210320Z AUTO 06006KT 020V100 3700NDV -SN FEW017/// M08/M10 Q1022=
200702210250 METAR ESMX 210250Z AUTO 06008KT 040V110 3000NDV -SN FEW007/// M08/M10 Q1022=
200702210220 METAR ESMX 210220Z AUTO 06007KT 020V100 9999NDV -SN FEW015/// BKN047/// M08/M10 Q1022=
200702210150 METAR ESMX 210150Z AUTO 05007KT 010V100 9999NDV -SN FEW015/// OVC047/// M08/M10 Q1022=
200702210120 METAR ESMX 210120Z 04008KT 360V080 9999 -SN SCT014 OVC047 M08/M10 Q1021=
200702210050 METAR ESMX 210050Z 04009KT 360V080 8000 -SN FEW014 SCT038 OVC049 M08/M10 Q1021=
200702210020 METAR ESMX 210020Z 04008KT 360V080 9999 -SN FEW011 OVC015 M07/M09 Q1022=
200702202350 METAR ESMX 202350Z 05009KT 020V100 9999 -SN FEW013 BKN016 OVC020 M07/M09 Q1021=
200702202320 METAR ESMX 202320Z 05009KT 020V080 6000 -SN FEW013 SCT016 BKN018 M07/M08 Q1020=
200702202250 METAR ESMX 202250Z 06007KT 020V090 4500 -SN SCT013 BKN017 M06/M08 Q1020=
200702202220 METAR ESMX 202220Z 06007KT 020V100 4300 -SN BKN013 M06/M08 Q1020=
200702202150 METAR ESMX 202150Z 05008KT 020V100 3400 -SN FEW013 BKN016 M06/M08 Q1020=
200702202050 METAR ESMX 202050Z 05009KT 030V090 3700 -SN FEW014 SCT019 M06/M07 Q1020=
200702202020 METAR ESMX 202020Z 06008KT 020V100 4400 -SN SCT015 SCT024 M06/M08 Q1019=
200702201950 METAR ESMX 201950Z 03007KT 360V070 4300 -SN FEW016 BKN038 M06/M08 Q1019=
200702201920 METAR ESMX 201920Z 05008KT 020V080 4400 -SN FEW016 BKN020 BKN037 M06/M08 Q1018=
200702201850 METAR ESMX 201850Z 05009KT 020V080 5000 -SN FEW013 SCT017 BKN022 M06/M08 Q1018=
200702201820 METAR ESMX 201820Z 05008KT 020V100 5000 -SN FEW013 BKN035 M06/M08 Q1018=
200702201750 METAR ESMX 201750Z 05008KT 020V080 5000 SN FEW011 BKN035 M05/M07 Q1018=
200702201720 METAR ESMX 201720Z 02008KT 360V070 5000 SN FEW016 BKN031 M05/M07 Q1017=
200702201650 METAR ESMX 201650Z 06008KT 020V100 8000 SN FEW013 OVC025 M05/M07 Q1017=
200702201620 METAR ESMX 201620Z 05008KT 020V100 9999 FEW015 OVC025 M05/M07 Q1016=
200702201550 METAR ESMX 201550Z 04008KT 010V090 9999 SCT014 OVC020 M04/M06 Q1016=
200702201520 METAR ESMX 201520Z 07007KT 030V110 9999 BKN011 OVC016 M04/M06 Q1015=
200702201450 METAR ESMX 201450Z 05008KT 7000 BR FEW009 OVC014 M04/M05 Q1015=
200702201420 METAR ESMX 201420Z 04010KT 010V070 8000 BR OVC010 M03/M05 Q1015=
200702201350 METAR ESMX 201350Z 04009KT 010V080 9999 OVC010 M03/M05 Q1014=
200702201320 METAR ESMX 201320Z 05008KT 020V100 9999 OVC011 M02/M05 Q1014=
200702201250 METAR ESMX 201250Z 04010KT 010V080 9999 OVC010 M02/M04 Q1013=
200702201220 METAR ESMX 201220Z 05008KT 020V080 9999 OVC009 M02/M04 Q1013=
200702201150 METAR ESMX 201150Z 05010KT 010V080 9999 OVC009 M01/M03 Q1013=
200702201120 METAR ESMX 201120Z 05009KT 020V080 9999 OVC010 M01/M03 Q1012=
200702201050 METAR ESMX 201050Z 05009KT 020V080 9999 BKN008 OVC011 M00/M02 Q1012=
200702201020 METAR ESMX 201020Z 03008KT 360V070 9999 FEW008 SCT010 BKN013 01/M01 Q1012=
200702200950 METAR ESMX 200950Z 05006KT 010V100 9999 FEW008 SCT010 BKN012 01/M01 Q1011=
200702200920 METAR ESMX 200920Z 03005KT 9999 FEW009 SCT013 BKN016 01/M00 Q1011=
200702200850 METAR ESMX 200850Z 03005KT 350V060 9000 BR SCT005 BKN008 OVC012 01/M00 Q1010=
200702200820 METAR ESMX 200820Z 36003KT 7000 BR OVC006 00/M00 Q1010=
200702200750 METAR ESMX 200750Z 35001KT 5000 BR BKN008 OVC040 00/M00 Q1010=
200702200720 METAR ESMX 200720Z 00000KT 5000 BR FEW004 BKN013 OVC038 M00/M01 Q1009=
200702200650 METAR ESMX 200650Z 00000KT 5000 BR SCT005 OVC036 M00/M01 Q1009=
200702200620 METAR ESMX 200620Z 00000KT 5000 BR FEW005 OVC030 M00/M01 Q1009=
200702200550 METAR ESMX 200550Z 00000KT 5000 BR FEW004 OVC031 M00/M01 Q1009=
200702200520 METAR ESMX 200520Z 00000KT 5000 BR FEW004 SCT011 BKN032 M00/M01 Q1008=
200702200450 METAR ESMX 200450Z 02002KT 6000 BR BKN005 OVC008 M00/M01 Q1008=
200702200420 METAR ESMX 200420Z AUTO 00000KT 5000NDV -RA SCT006/// OVC008/// M00/M01 Q1008 REDZ=
200702200350 METAR ESMX 200350Z AUTO 00000KT 4900NDV -RA FEW007/// OVC009/// 00/M01 Q1008 REDZ=
200702200320 METAR ESMX 200320Z AUTO 00000KT 5000NDV OVC010/// 00/M01 Q1008=
200702200250 METAR ESMX 200250Z AUTO 00000KT 9999NDV OVC011/// 00/M01 Q1008=
200702200220 METAR ESMX 200220Z AUTO 22002KT 9999NDV FEW012/// SCT014/// OVC018/// 00/M01 Q1008=
200702200150 METAR ESMX 200150Z AUTO 25002KT 9999NDV OVC012/// 00/M01 Q1008=
200702200120 METAR ESMX 200120Z 25002KT 9999 OVC014 00/M01 Q1009=
200702200050 METAR ESMX 200050Z 23002KT 9999 OVC014 00/M01 Q1009=
200702200020 METAR ESMX 200020Z 24002KT 9999 OVC017 00/M01 Q1009=
200702192350 METAR ESMX 192350Z VRB02KT 9999 OVC019 00/M01 Q1009=
200702192320 METAR ESMX 192320Z 21004KT 9999 OVC019 00/M01 Q1009=
200702192250 METAR ESMX 192250Z 22003KT 9999 OVC019 00/M01 Q1009=
200702192220 METAR ESMX 192220Z 21003KT 9999 OVC020 00/M01 Q1009=
200702192150 METAR ESMX 192150Z 21005KT 9999 OVC020 00/M01 Q1009=
200702192120 METAR ESMX 192120Z 18004KT 9999 OVC019 00/M01 Q1010=
200702192050 METAR ESMX 192050Z 21005KT 9999 OVC019 00/M02 Q1010=
200702192020 METAR ESMX 192020Z 19005KT 9999 OVC018 00/M02 Q1010=
200702191950 METAR ESMX 191950Z 20005KT 9999 OVC020 00/M02 Q1010=
200702191920 METAR ESMX 191920Z 20005KT 9999 OVC020 01/M02 Q1010=
200702191850 METAR ESMX 191850Z 21005KT 9999 OVC019 01/M02 Q1010=
200702191820 METAR ESMX 191820Z 22007KT 200V260 9999 OVC018 01/M02 Q1011=
200702191750 METAR ESMX 191750Z 20005KT 9999 OVC017 01/M02 Q1011=
200702191720 METAR ESMX 191720Z 20005KT 9999 OVC016 01/M02 Q1011=
200702191650 METAR ESMX 191650Z 24006KT 200V260 9999 OVC015 01/M02 Q1011=
200702191620 METAR ESMX 191620Z 22005KT 9999 OVC015 01/M02 Q1011=
200702191550 METAR ESMX 191550Z 22005KT 9999 OVC014 01/M02 Q1011=
200702191520 METAR ESMX 191520Z 22004KT 9999 OVC015 01/M02 Q1011=
200702191450 METAR ESMX 191450Z 24004KT 9999 OVC016 01/M02 Q1011=
200702191420 METAR ESMX 191420Z 22004KT 9999 OVC015 01/M02 Q1012=
200702191350 METAR ESMX 191350Z 23005KT 200V260 9999 OVC013 01/M02 Q1012=
200702191320 METAR ESMX 191320Z 26004KT 230V300 9999 OVC013 01/M02 Q1012=
200702191250 METAR ESMX 191250Z 23006KT 9999 OVC013 01/M02 Q1012=
200702191220 METAR ESMX 191220Z VRB02KT 9999 OVC012 00/M02 Q1012=
200702191150 METAR ESMX 191150Z 22004KT 200V260 9999 OVC012 00/M02 Q1012=
200702191120 METAR ESMX 191120Z 25006KT 210V280 9999 OVC012 00/M02 Q1013=
200702191050 METAR ESMX 191050Z 25003KT 9999 OVC012 00/M03 Q1013=
200702191020 METAR ESMX 191020Z VRB02KT 9999 OVC011 M00/M03 Q1013=
200702190950 METAR ESMX 190950Z 21003KT 160V250 9999 OVC011 M00/M03 Q1013=
200702190920 METAR ESMX 190920Z 27003KT 220V320 9999 OVC012 M00/M03 Q1013=
200702190850 METAR ESMX 190850Z VRB02KT 9999 OVC012 M00/M03 Q1013=
200702190820 METAR ESMX 190820Z VRB02KT 9999 OVC012 M01/M03 Q1013=
200702190750 METAR ESMX 190750Z VRB02KT 9999 OVC012 M01/M03 Q1013=
200702190720 METAR ESMX 190720Z VRB01KT 9999 OVC013 M01/M03 Q1013=
200702190650 METAR ESMX 190650Z VRB02KT 9999 OVC012 M01/M03 Q1013=
200702190620 METAR ESMX 190620Z VRB02KT 9999 OVC013 M01/M03 Q1013=
200702190550 METAR ESMX 190550Z 05005KT 020V110 9999 OVC015 M01/M03 Q1012=
200702190520 METAR ESMX 190520Z 04005KT 010V070 9999 BKN016 00/M02 Q1012=
200702190450 METAR ESMX 190450Z 03007KT 350V050 9999 BKN018 00/M02 Q1012=
200702190420 METAR ESMX 190420Z AUTO 34003KT 9999NDV FEW017/// OVC020/// M00/M01 Q1012=
200702190350 METAR ESMX 190350Z AUTO 35003KT 320V030 9999NDV FEW015/// OVC018/// M00/M01 Q1011=
200702190320 METAR ESMX 190320Z AUTO 32003KT 9999NDV FEW017/// SCT019/// M00/M01 Q1011=
200702190250 METAR ESMX 190250Z AUTO 32003KT 9999NDV BKN010/// OVC018/// 00/M01 Q1011=
200702190220 METAR ESMX 190220Z AUTO 30004KT 9999NDV OVC012/// 00/M01 Q1011=
200702190150 METAR ESMX 190150Z 34004KT 9999 OVC012 00/M01 Q1010=
200702190120 METAR ESMX 190120Z 34004KT 9999 FEW012 BKN015 OVC048 M00/M01 Q1010=
200702190050 METAR ESMX 190050Z 32004KT 9999 FEW022 BKN050 M01/M01 Q1010=
200702190020 METAR ESMX 190020Z 34005KT 9999 FEW010 SCT013 OVC023 01/M00 Q1010=
200702182350 METAR ESMX 182350Z 33006KT 9999 OVC022 01/M00 Q1010=
200702182320 METAR ESMX 182320Z 32006KT 290V350 9999 -SN FEW010 SCT016 OVC023 01/M00 Q1009=
200702182250 METAR ESMX 182250Z 33007KT 9999 -SN FEW008 OVC020 01/M00 Q1009=
200702182220 METAR ESMX 182220Z 31007KT 8000 -SN BR FEW009 OVC011 01/M00 Q1009=
200702182150 METAR ESMX 182150Z 31005KT 6000 -SN BR FEW006 SCT008 OVC010 01/00 Q1009=
200702182120 METAR ESMX 182120Z 31004KT 3500 -SN BR SCT007 BKN010 01/00 Q1009=
200702182050 METAR ESMX 182050Z 31005KT 3500 -SN BR FEW008 BKN010 01/00 Q1009=
200702182020 METAR ESMX 182020Z 30005KT 3800 BR FEW008 BKN014 01/00 Q1008=
200702181950 METAR ESMX 181950Z 30005KT 4000 BR FEW010 BKN015 01/00 Q1008=
200702181920 METAR ESMX 181920Z 30005KT 5000 BR BKN016 01/00 Q1008=
200702181850 METAR ESMX 181850Z 30004KT 6000 BR FEW007 BKN018 01/M00 Q1008=
200702181820 METAR ESMX 181820Z 30003KT 8000 BR FEW012 OVC018 01/M00 Q1008=
200702181750 METAR ESMX 181750Z 29002KT 8000 BR OVC009 01/M00 Q1008=
200702181720 METAR ESMX 181720Z 30003KT 8000 BR OVC009 01/M00 Q1008=
200702181650 METAR ESMX 181650Z 28003KT 240V300 8000 BR FEW019 OVC024 01/M00 Q1008=
200702181620 METAR ESMX 181620Z 28004KT 8000 BR SCT020 OVC025 01/M00 Q1007=
200702181550 METAR ESMX 181550Z 28004KT 8000 BR FEW011 OVC018 01/M00 Q1007=
200702181520 METAR ESMX 181520Z 28003KT 8000 BR FEW012 SCT023 OVC036 01/M00 Q1008=
200702181450 METAR ESMX 181450Z 26003KT 7000 -SNRA SCT017 BKN034 01/M00 Q1007=
200702181420 METAR ESMX 181420Z 28004KT 250V320 8000 R01/1900N -SNRA FEW009 BKN019 01/M01 Q1007 RESN=
200702181350 METAR ESMX 181350Z 30004KT 8000 -RASN FEW010 BKN018 01/M01 Q1007=
200702181320 METAR ESMX 181320Z 28004KT 9999 OVC016 02/M01 Q1008=
200702181250 METAR ESMX 181250Z 29003KT 260V320 9999 OVC019 02/M01 Q1008=
200702181220 METAR ESMX 181220Z AUTO 29003KT 250V320 9999NDV OVC018/// 02/M01 Q1008=
200702181150 METAR ESMX 181150Z AUTO VRB02KT 9999NDV OVC016/// 02/M01 Q1008=
200702181120 METAR ESMX 181120Z AUTO 29004KT 9999NDV OVC016/// 01/M01 Q1009=
200702181050 METAR ESMX 181050Z AUTO 29005KT 9999NDV BKN018/// BKN023/// 01/M02 Q1009=
200702181020 METAR ESMX 181020Z AUTO 27004KT 9999NDV BR NCD 02/M01 Q1009=
200702180950 METAR ESMX 180950Z AUTO 26004KT 210V290 9999NDV BR NCD 01/M02 Q1009=
200702180920 METAR ESMX 180920Z AUTO 22003KT 170V250 8000NDV BR NCD 01/M02 Q1009=
200702180850 METAR ESMX 180850Z AUTO VRB01KT 6000NDV BR NCD M00/M02 Q1010=
200702180820 METAR ESMX 180820Z AUTO 00000KT 5000NDV BR NCD M02/M02 Q1010=
200702180750 METAR ESMX 180750Z AUTO 00000KT 6000NDV BR NCD M03/M03 Q1010=
200702180720 METAR ESMX 180720Z AUTO 00000KT 4700NDV BR NCD M02/M03 Q1011=
200702180650 METAR ESMX 180650Z AUTO 16002KT 5000NDV BR NCD M03/M03 Q1011=
200702180620 METAR ESMX 180620Z AUTO 00000KT 7000NDV BR NCD M02/M03 Q1011=
200702180550 METAR ESMX 180550Z AUTO 15001KT 7000NDV BR NCD M02/M03 Q1012=
200702180520 METAR ESMX 180520Z AUTO 16003KT 8000NDV BR NCD M01/M03 Q1012=
200702180450 METAR ESMX 180450Z AUTO 16002KT 9000NDV BR NCD M01/M03 Q1012=
200702180420 METAR ESMX 180420Z AUTO 17003KT 9000NDV BR NCD M01/M03 Q1012=
200702180350 METAR ESMX 180350Z AUTO 19005KT 9000NDV NCD M02/M03 Q1013=
200702180320 METAR ESMX 180320Z AUTO 18006KT 9999NDV NCD M01/M03 Q1013=
200702180250 METAR ESMX 180250Z AUTO 18006KT 9999NDV NCD M01/M03 Q1013=
200702180220 METAR ESMX 180220Z AUTO 17007KT 9999NDV NCD M00/M03 Q1013=
200702180150 METAR ESMX 180150Z AUTO 17006KT 9999NDV NCD M00/M03 Q1014=
200702180120 METAR ESMX 180120Z AUTO 17006KT 9999NDV NCD 00/M03 Q1014=
200702180050 METAR ESMX 180050Z AUTO 17007KT 9999NDV NCD 00/M03 Q1015=
200702180020 METAR ESMX 180020Z AUTO 17007KT 9999NDV NCD 00/M03 Q1015=
200702172350 METAR ESMX 172350Z AUTO 17007KT 9999NDV NCD 00/M03 Q1016=
200702172320 METAR ESMX 172320Z AUTO 17008KT 9999NDV NCD 01/M03 Q1016=
200702172250 METAR ESMX 172250Z AUTO 16007KT 9999NDV NCD 01/M03 Q1017=
200702172220 METAR ESMX 172220Z AUTO 17008KT 9999NDV NCD 01/M03 Q1017=
200702172150 METAR ESMX 172150Z AUTO 17008KT 150V210 9999NDV NCD 01/M03 Q1018=
200702172120 METAR ESMX 172120Z AUTO 18007KT 9999NDV NCD 01/M03 Q1018=
200702172050 METAR ESMX 172050Z AUTO 16010KT 140V200 9999NDV NCD 01/M04 Q1018=
200702172020 METAR ESMX 172020Z AUTO 16011KT 9999NDV NCD 01/M04 Q1018=
200702171950 METAR ESMX 171950Z AUTO 17011KT 140V200 9999NDV NCD 01/M04 Q1018=
200702171920 METAR ESMX 171920Z AUTO 17011G21KT 140V200 9999NDV NCD 01/M04 Q1019=
200702171850 METAR ESMX 171850Z AUTO 17010KT 140V210 9999NDV NCD 01/M04 Q1019=
200702171820 METAR ESMX 171820Z AUTO 16009KT 140V200 9999NDV NCD 01/M04 Q1020=
200702171750 METAR ESMX 171750Z AUTO 16009KT 130V200 9999NDV NCD 01/M04 Q1020=
200702171720 METAR ESMX 171720Z AUTO 16009KT 9999NDV NCD 01/M04 Q1020=
200702171650 METAR ESMX 171650Z AUTO 17010KT 130V200 9999NDV NCD 01/M04 Q1021=
200702171620 METAR ESMX 171620Z AUTO 17010KT 140V210 9999NDV NCD 02/M04 Q1021=
200702171550 METAR ESMX 171550Z AUTO 17010KT 150V210 9999NDV NCD 02/M04 Q1022=
200702171520 METAR ESMX 171520Z AUTO 17010KT 9999NDV NCD 02/M04 Q1022=
200702171450 METAR ESMX 171450Z AUTO 17010KT 140V200 9999NDV NCD 03/M05 Q1022=
200702171420 METAR ESMX 171420Z AUTO 16010KT 9999NDV NCD 03/M05 Q1023=
200702171350 METAR ESMX 171350Z AUTO 17012KT 140V210 9999NDV NCD 03/M05 Q1023=
200702171320 METAR ESMX 171320Z AUTO 17015KT 140V200 9999NDV NCD 04/M05 Q1023=
200702171250 METAR ESMX 171250Z AUTO 16013G24KT 130V200 9999NDV NCD 04/M06 Q1024=
200702171220 METAR ESMX 171220Z AUTO 17012KT 9999NDV NCD 04/M06 Q1024=
200702171150 METAR ESMX 171150Z AUTO 17012KT 140V200 9999NDV NCD 04/M05 Q1024=
200702171120 METAR ESMX 171120Z AUTO 17012KT 9999NDV NCD 04/M05 Q1024=
200702171050 METAR ESMX 171050Z AUTO 17012KT 9999NDV NCD 03/M04 Q1025=
200702171020 METAR ESMX 171020Z AUTO 18010KT 140V200 9999NDV NCD 03/M02 Q1025=
200702170950 METAR ESMX 170950Z AUTO 17010KT 9999NDV NCD 03/M02 Q1026=
200702170920 METAR ESMX 170920Z AUTO 17010KT 140V200 9999NDV NCD 02/M02 Q1026=
200702170850 METAR ESMX 170850Z AUTO 17008KT 140V210 9999NDV NCD 02/M01 Q1026=
200702170820 METAR ESMX 170820Z AUTO 17011KT 140V210 9999NDV BR FEW009/// SCT012/// 02/M00 Q1026=
200702170750 METAR ESMX 170750Z AUTO 17009KT 140V200 9999NDV BR FEW008/// BKN010/// 02/00 Q1026=
200702170720 METAR ESMX 170720Z AUTO 17010KT 9999NDV BR BKN007/// OVC010/// 02/00 Q1026=
200702170650 METAR ESMX 170650Z AUTO 17010KT 9999NDV BR BKN007/// OVC009/// 02/00 Q1026=
200702170620 METAR ESMX 170620Z AUTO 16010KT 8000NDV BR OVC006/// 02/00 Q1026=
200702170550 METAR ESMX 170550Z AUTO 16009KT 120V200 7000NDV BR OVC006/// 01/00 Q1026=
200702170520 METAR ESMX 170520Z AUTO 17009KT 140V210 6000NDV BR OVC006/// 01/00 Q1026=
200702170450 METAR ESMX 170450Z AUTO 16010KT 7000NDV BR OVC007/// 01/00 Q1027=
200702170420 METAR ESMX 170420Z AUTO 17011KT 140V200 7000NDV BR OVC007/// 01/M00 Q1027=
200702170350 METAR ESMX 170350Z AUTO 16011KT 110V190 7000NDV BR OVC007/// 01/M00 Q1027=
200702170320 METAR ESMX 170320Z AUTO 17010KT 8000NDV BR OVC008/// 01/M00 Q1027=
200702170250 METAR ESMX 170250Z AUTO 17011KT 150V210 9000NDV BR OVC008/// 01/M00 Q1027=
200702170220 METAR ESMX 170220Z AUTO 17012KT 140V200 9999NDV BR OVC008/// 01/M00 Q1027=
200702170150 METAR ESMX 170150Z AUTO 16012KT 120V210 9999NDV BR OVC008/// 02/00 Q1028=
200702170120 METAR ESMX 170120Z AUTO 16012KT 130V190 9999NDV BR OVC008/// 01/00 Q1028=
200702170050 METAR ESMX 170050Z AUTO 16008KT 8000NDV BR FEW008/// SCT010/// 01/M00 Q1028=
200702170020 METAR ESMX 170020Z AUTO 16007KT 120V180 7000NDV BR BKN007/// 01/M00 Q1029=
200702162350 METAR ESMX 162350Z AUTO 16006KT 8000NDV BR FEW007/// SCT009/// 01/M00 Q1029=
200702162320 METAR ESMX 162320Z AUTO 15007KT 110V190 9000NDV FEW006/// BKN008/// 01/M00 Q1029=
200702162250 METAR ESMX 162250Z AUTO 15009KT 110V180 9999NDV OVC006/// 01/M00 Q1029=
200702162220 METAR ESMX 162220Z AUTO 16008KT 110V200 9999NDV OVC006/// 01/M00 Q1029=
200702162150 METAR ESMX 162150Z AUTO 16008KT 130V190 9999NDV OVC007/// 01/M00 Q1030=
200702162120 METAR ESMX 162120Z AUTO 16010KT 140V200 9999NDV OVC008/// 01/M00 Q1030=
200702162050 METAR ESMX 162050Z AUTO 15007KT 120V190 9999NDV OVC007/// 01/M00 Q1030=
200702162020 METAR ESMX 162020Z AUTO 16008KT 140V200 9999NDV OVC008/// 01/M00 Q1030=
200702161950 METAR ESMX 161950Z AUTO 16008KT 120V180 9999NDV OVC007/// 01/M00 Q1030=
200702161920 METAR ESMX 161920Z AUTO 15007KT 120V190 9999NDV OVC006/// 01/M00 Q1030=
200702161850 METAR ESMX 161850Z AUTO 15007KT 110V180 9999NDV BR OVC005/// 01/M00 Q1030=
200702161820 METAR ESMX 161820Z 16008KT 8000 BR OVC004 01/00 Q1030=
200702161750 METAR ESMX 161750Z 15008KT 110V190 9999 OVC005 02/01 Q1030=
200702161720 METAR ESMX 161720Z 16009KT 120V190 9999 OVC007 02/00 Q1030=
200702161620 METAR ESMX 161620Z 15009KT 110V170 9999 FEW008 OVC010 02/01 Q1030=
200702161550 METAR ESMX 161550Z 15007KT 100V190 9999 BKN010 OVC015 02/01 Q1030=
200702161520 METAR ESMX 161520Z 16005KT 9999 FEW008 OVC010 03/01 Q1030=
200702161450 METAR ESMX 161450Z 15005KT 9999 SCT009 BKN012 03/01 Q1030=
200702161420 METAR ESMX 161420Z 15005KT 110V180 9999 SCT013 OVC017 03/01 Q1030=
200702161350 METAR ESMX 161350Z 15004KT 110V200 9000 BR SCT008 BKN010 02/01 Q1030=
200702161320 METAR ESMX 161320Z 15004KT 090V190 8000 BR BKN006 02/01 Q1030=
200702161250 METAR ESMX 161250Z 14004KT 110V170 6000 BR OVC004 02/01 Q1031=
200702161220 METAR ESMX 161220Z 15004KT 7000 BR OVC004 02/01 Q1031=
200702161150 METAR ESMX 161150Z 13003KT 090V170 8000 BR OVC004 02/01 Q1031=
200702161120 METAR ESMX 161120Z 17003KT 130V200 9999 BKN005 OVC020 02/00 Q1031=
200702161050 METAR ESMX 161050Z 16003KT 9999 FEW007 OVC018 01/00 Q1030=
200702161020 METAR ESMX 161020Z 15004KT 100V190 9999 OVC017 02/M00 Q1030=
200702160950 METAR ESMX 160950Z 00000KT 8000 BR BKN011 OVC016 01/M00 Q1030=
200702160920 METAR ESMX 160920Z VRB02KT 8000 BR OVC011 00/M00 Q1030=
200702160850 METAR ESMX 160850Z 00000KT 8000 BR OVC012 00/M01 Q1030=
200702160820 METAR ESMX 160820Z 00000KT 7000 BR OVC012 00/M01 Q1030=
200702160750 METAR ESMX 160750Z VRB01KT 7000 BR FEW004 OVC012 M00/M01 Q1030=
200702160720 METAR ESMX 160720Z VRB02KT 6000 BR BKN003 OVC009 M00/M01 Q1029=
200702160650 METAR ESMX 160650Z 16002KT 6000 BR OVC003 M00/M01 Q1029=
200702160620 METAR ESMX 160620Z 17002KT 7000 BR OVC003 M00/M01 Q1029=
200702160550 METAR ESMX 160550Z 16002KT 7000 BR OVC004 M00/M01 Q1029=
200702160520 METAR ESMX 160520Z 14004KT 110V170 5000 BR OVC004 M00/M01 Q1028=
200702160450 METAR ESMX 160450Z 00000KT 6000 BR OVC005 M01/M01 Q1029=
200702160420 METAR ESMX 160420Z AUTO VRB01KT 5000NDV BR SCT002/// OVC006/// M01/M01 Q1028=
200702160350 METAR ESMX 160350Z AUTO 00000KT 5000NDV BR SCT002/// OVC007/// M01/M02 Q1028=
200702160320 METAR ESMX 160320Z AUTO 00000KT 5000NDV BR OVC002/// M01/M02 Q1028=
200702160250 METAR ESMX 160250Z AUTO 00000KT 6000NDV BR SCT002/// BKN005/// OVC008/// M01/M02 Q1028=
200702160220 METAR ESMX 160220Z AUTO VRB01KT 5000NDV BR FEW003/// OVC004/// M01/M02 Q1028=
200702160150 METAR ESMX 160150Z AUTO VRB02KT 7000NDV BR BKN004/// OVC006/// M01/M02 Q1028=
200702160120 METAR ESMX 160120Z AUTO 00000KT 8000NDV BR OVC004/// M01/M02 Q1028=
200702160050 METAR ESMX 160050Z 00000KT 9999 OVC005 M01/M02 Q1028=
200702160020 METAR ESMX 160020Z VRB01KT 9999 OVC005 M01/M02 Q1028=
200702152350 METAR ESMX 152350Z 01002KT 9999 BKN007 OVC010 M01/M02 Q1028=
200702152320 METAR ESMX 152320Z 00000KT 9999 OVC007 M01/M02 Q1027=
200702152250 METAR ESMX 152250Z VRB02KT 9999 OVC007 M01/M02 Q1027=
200702152220 METAR ESMX 152220Z 13003KT 100V200 9999 OVC007 M01/M02 Q1027=
200702152150 METAR ESMX 152150Z VRB02KT 9999 OVC007 M01/M02 Q1027=
200702152120 METAR ESMX 152120Z 01003KT 9999 OVC007 M01/M02 Q1027=
200702152050 METAR ESMX 152050Z VRB02KT 9999 OVC008 M01/M02 Q1026=
200702152020 METAR ESMX 152020Z 08003KT 050V110 9999 OVC008 M01/M02 Q1026=
200702151950 METAR ESMX 151950Z 07003KT 020V120 9999 OVC009 M00/M02 Q1025=
200702151920 METAR ESMX 151920Z 06003KT 040V110 9999 OVC010 M00/M02 Q1025=
200702151850 METAR ESMX 151850Z 03005KT 360V070 9999 OVC010 M00/M02 Q1025=
200702151820 METAR ESMX 151820Z 03006KT 350V060 9999 OVC010 M00/M02 Q1025=
200702151750 METAR ESMX 151750Z 03004KT 9999 FEW012 BKN017 M01/M02 Q1024=
200702151720 METAR ESMX 151720Z 04005KT 9999 SCT010 OVC017 M00/M02 Q1024=
200702151650 METAR ESMX 151650Z 03004KT 010V070 9999 OVC010 M00/M02 Q1023=
200702151620 METAR ESMX 151620Z 04004KT 020V090 9999 OVC011 00/M02 Q1023=
200702151550 METAR ESMX 151550Z 04004KT 9999 OVC012 00/M02 Q1023=
200702151520 METAR ESMX 151520Z 02004KT 9999 OVC014 00/M02 Q1023=
200702151450 METAR ESMX 151450Z 02005KT 9999 OVC015 01/M02 Q1022=
200702151420 METAR ESMX 151420Z 02005KT 9999 OVC015 01/M02 Q1022=
200702151350 METAR ESMX 151350Z 01004KT 9999 OVC014 01/M02 Q1022=
200702151320 METAR ESMX 151320Z 01006KT 9999 OVC013 00/M02 Q1021=
200702151250 METAR ESMX 151250Z 36005KT 9999 OVC011 01/M02 Q1021=
200702151220 METAR ESMX 151220Z 01005KT 340V050 9999 OVC010 01/M01 Q1021=
200702151150 METAR ESMX 151150Z 01005KT 9999 OVC010 01/M01 Q1020=
200702151120 METAR ESMX 151120Z 02004KT 9999 OVC008 01/M01 Q1020=
200702151050 METAR ESMX 151050Z 02006KT 350V060 9999 OVC007 00/M01 Q1019=
200702151020 METAR ESMX 151020Z 04007KT 9999 OVC008 00/M01 Q1019=
200702150950 METAR ESMX 150950Z 05006KT 9999 BR OVC008 00/M01 Q1018=
200702150920 METAR ESMX 150920Z 04006KT 9000 BR FEW007 OVC008 00/M01 Q1018=
200702150850 METAR ESMX 150850Z 04005KT 9000 BR OVC005 00/M01 Q1018=
200702150820 METAR ESMX 150820Z 04009KT 9000 BR OVC007 M00/M01 Q1017=
200702150750 METAR ESMX 150750Z 04006KT 8000 BR FEW005 SCT009 M00/M01 Q1017=
200702150720 METAR ESMX 150720Z 03004KT 5000 BR FEW003 BKN030 M00/M01 Q1016=
200702150650 METAR ESMX 150650Z 02004KT 5000 BR SCT003 BKN030 M00/M01 Q1016 RESN=
200702150620 METAR ESMX 150620Z 02004KT 4000 -SN SCT002 BKN025 M00/M01 Q1016=
200702150550 METAR ESMX 150550Z 02004KT 2500 -SN BKN004 BKN025 M00/M01 Q1016=
200702150520 METAR ESMX 150520Z 01004KT 2000 -SN OVC003 M00/M01 Q1015=
200702150450 METAR ESMX 150450Z 01004KT 2000 -SN OVC003 M00/M01 Q1015=
200702150420 METAR ESMX 150420Z AUTO 02004KT 3300NDV -SN OVC003/// M00/M01 Q1014 REUP=
200702150350 METAR ESMX 150350Z AUTO 02004KT 8000NDV BR OVC005/// M00/M01 Q1014 RESN RESG=
200702150320 METAR ESMX 150320Z AUTO 03004KT 3600NDV SG OVC006/// M00/M01 Q1014 RESN=
200702150250 METAR ESMX 150250Z AUTO 05004KT 020V080 8000NDV SG OVC007/// M00/M01 Q1013 REUP=
200702150220 METAR ESMX 150220Z AUTO 02003KT 9999NDV FEW007/// OVC010/// M00/M01 Q1013=
200702150150 METAR ESMX 150150Z AUTO 07004KT 030V110 9999NDV OVC011/// M00/M01 Q1013=
200702150120 METAR ESMX 150120Z 04005KT 350V070 9000 BR BKN008 OVC011 00/M00 Q1013=
200702150050 METAR ESMX 150050Z 05003KT 360V080 6000 BR SCT008 OVC010 00/00 Q1013=
200702150020 METAR ESMX 150020Z 04002KT 3500 FEW009 OVC011 00/00 Q1012=
200702142350 METAR ESMX 142350Z VRB02KT 3000 SCT002 OVC011 00/00 Q1012=
200702142320 METAR ESMX 142320Z 04003KT 0500 R01/1400U R19/1300N FG VV001 00/00 Q1012=
200702142250 METAR ESMX 142250Z 01002KT 0350 R01/1000N R19/1200N FG VV001 00/M00 Q1012=
200702142220 METAR ESMX 142220Z 35002KT 0350 R01/1000N R19/1000N FG VV002 00/M00 Q1012=
200702142150 METAR ESMX 142150Z 01003KT 0450 R01/1400D R19/1100V1600D FG VV002 00/M00 Q1012=
200702142120 METAR ESMX 142120Z 02003KT 3000 BR BKN002 OVC005 00/M00 Q1011=
200702142050 METAR ESMX 142050Z 04002KT 3500 BR OVC003 00/M00 Q1011=
200702142020 METAR ESMX 142020Z 00000KT 7000 BR OVC004 00/M00 Q1011=
200702141950 METAR ESMX 141950Z 07003KT 030V110 8000 BR OVC004 00/M00 Q1011=
200702141920 METAR ESMX 141920Z 10003KT 050V140 9000 BR OVC005 00/M00 Q1010=
200702141850 METAR ESMX 141850Z 08003KT 020V120 9000 BR OVC005 00/M00 Q1010=
200702141750 METAR ESMX 141750Z VRB02KT 1500 BR OVC002 01/00 Q1010=
200702141720 METAR ESMX 141720Z 05002KT 5000 BR OVC002 01/00 Q1010=
200702141650 METAR ESMX 141650Z 00000KT 5000 BR OVC005 01/00 Q1010=
200702141620 METAR ESMX 141620Z 00000KT 9999 OVC006 01/00 Q1010=
200702141550 METAR ESMX 141550Z 00000KT 9999 OVC006 01/00 Q1009=
200702141520 METAR ESMX 141520Z 00000KT 9999 OVC006 01/00 Q1010=
200702141450 METAR ESMX 141450Z 00000KT 9999 FEW005 OVC007 01/00 Q1009=
200702141420 METAR ESMX 141420Z VRB02KT 9999 FEW004 BKN007 OVC010 01/00 Q1009=
200702141350 METAR ESMX 141350Z 08002KT 9000 OVC004 01/00 Q1009=
200702141320 METAR ESMX 141320Z VRB02KT 9999 OVC005 01/00 Q1009=
200702141250 METAR ESMX 141250Z 05003KT 030V100 9999 OVC005 01/00 Q1009=
200702141220 METAR ESMX 141220Z VRB02KT 9999 OVC006 01/00 Q1009=
200702141150 METAR ESMX 141150Z 00000KT 9999 OVC006 01/M00 Q1009=
200702141050 METAR ESMX 141050Z VRB02KT 9999 SCT005 BKN009 01/M00 Q1009=
200702141020 METAR ESMX 141020Z 07003KT 320V110 9999 OVC004 01/00 Q1009=
200702140950 METAR ESMX 140950Z 04002KT 9999 SCT003 OVC005 01/00 Q1008=
200702140920 METAR ESMX 140920Z 00000KT 8000 BR FEW003 OVC007 01/00 Q1008=
200702140850 METAR ESMX 140850Z 00000KT 5000 FEW006 OVC010 01/00 Q1008=
200702140820 METAR ESMX 140820Z 00000KT 4500 OVC003 00/00 Q1008=
200702140750 METAR ESMX 140750Z 00000KT 0750 R01/1000V1400D R19/0900U FG VV003 00/00 Q1008=
200702140720 METAR ESMX 140720Z 02002KT 1000 R01/P2000N R19/1000VP2000D BR VV003 00/00 Q1008=
200702140650 METAR ESMX 140650Z VRB02KT 4000 BR OVC002 00/M00 Q1007=
200702140620 METAR ESMX 140620Z 35001KT 4000 BR OVC002 00/M00 Q1007=
200702140550 METAR ESMX 140550Z 35002KT 4500 BR FEW002 OVC006 00/M00 Q1007=
200702140520 METAR ESMX 140520Z 36001KT 2300 BR FEW003 OVC005 00/M00 Q1007=
200702140450 METAR ESMX 140450Z 36002KT 2000 BR SCT003 OVC005 00/M00 Q1007=
200702140420 METAR ESMX 140420Z AUTO 01002KT 0600NDV R01/1500N R19/P2000N FG OVC001/// 00/M00 Q1007=
200702140350 METAR ESMX 140350Z AUTO 02002KT 1100NDV R01/P2000N R19/P2000N BR OVC001/// 00/M00 Q1006=
200702140320 METAR ESMX 140320Z AUTO 00000KT 6000NDV BR OVC003/// 00/M00 Q1006=
200702140250 METAR ESMX 140250Z AUTO 03001KT 7000NDV BR OVC005/// 00/M00 Q1006=
200702140220 METAR ESMX 140220Z AUTO 02002KT 8000NDV BR OVC005/// 00/M00 Q1006=
200702140150 METAR ESMX 140150Z AUTO 02002KT 8000NDV BR OVC005/// 00/M00 Q1006=
200702140120 METAR ESMX 140120Z AUTO VRB02KT 9000NDV BR OVC005/// 00/M00 Q1006=
200702140050 METAR ESMX 140050Z 03004KT 010V070 8000 BR OVC004 00/M00 Q1006=
200702140020 METAR ESMX 140020Z 06004KT 030V090 6000 BR OVC004 00/M00 Q1005=
200702132350 METAR ESMX 132350Z 03004KT 350V080 4400 BR OVC003 00/M00 Q1005=
200702132320 METAR ESMX 132320Z 05004KT 030V090 4100 BR OVC003 00/M00 Q1005=
200702132250 METAR ESMX 132250Z 05004KT 030V090 4700 BR OVC003 00/M00 Q1005=
200702132220 METAR ESMX 132220Z 05004KT 020V080 3800 BR OVC003 00/M00 Q1005=
200702132150 METAR ESMX 132150Z 04005KT 3900 BR OVC002 00/M00 Q1005=
200702132120 METAR ESMX 132120Z 04006KT 010V080 4300 BR OVC002 00/M00 Q1004=
200702132050 METAR ESMX 132050Z 02005KT 340V070 4700 BR OVC003 00/M00 Q1004=
200702131950 METAR ESMX 131950Z 05006KT 020V080 6000 BR OVC003 00/M00 Q1003=
200702131920 METAR ESMX 131920Z 04005KT 010V090 6000 BR SCT003 OVC005 00/M00 Q1003=
200702131850 METAR ESMX 131850Z 04006KT 010V070 9000 BR OVC005 00/00 Q1003=
200702131820 METAR ESMX 131820Z 06006KT 8000 SG FEW006 OVC007 00/00 Q1003 RESN=
200702131750 METAR ESMX 131750Z 04007KT 4100 -SN FEW005 BKN006 OVC008 00/00 Q1002=
200702131720 METAR ESMX 131720Z 05005KT 3200 -SN SCT003 BKN006 OVC007 00/00 Q1002=
200702131650 METAR ESMX 131650Z 06006KT 3600 -RASN OVC003 01/00 Q1002=
200702131620 METAR ESMX 131620Z 05006KT 3500 -RASN BKN002 OVC003 01/00 Q1001=
200702131550 METAR ESMX 131550Z 04006KT 2700 -DZ BR OVC003 01/00 Q1001=
200702131520 METAR ESMX 131520Z 05007KT 2400 BR OVC002 01/00 Q1001=
200702131450 METAR ESMX 131450Z 06007KT 2600 BR OVC002 01/01 Q1000=
200702131420 METAR ESMX 131420Z 05006KT 2600 BR OVC002 01/01 Q1000 REDZ=
200702131350 METAR ESMX 131350Z 04006KT 2200 -RA BR OVC002 01/01 Q1000=
200702131320 METAR ESMX 131320Z 06007KT 5000 BR OVC003 01/01 Q1000=
200702131250 METAR ESMX 131250Z 06005KT 030V100 5000 OVC002 01/01 Q0999=
200702131220 METAR ESMX 131220Z 06005KT 360V110 5000 -SN OVC003 01/01 Q0999=
200702131150 METAR ESMX 131150Z 05005KT 020V080 5000 -SN OVC003 01/01 Q0999=
200702131120 METAR ESMX 131120Z 06007KT 010V110 3000 -SN OVC002 01/01 Q0999=
200702131050 METAR ESMX 131050Z 05006KT 010V110 2800 -SN OVC002 01/01 Q0999=
200702131020 METAR ESMX 131020Z 05006KT 020V080 3500 -SN OVC003 01/01 Q0998=
200702130950 METAR ESMX 130950Z 05006KT 3500 OVC002 01/01 Q0998=
200702130920 METAR ESMX 130920Z 05006KT 020V080 2000 -SN OVC001 01/01 Q0998=
200702130850 METAR ESMX 130850Z 07005KT 020V110 1000 R01/1300U R19/1500N OVC001 01/01 Q0998=
200702130820 METAR ESMX 130820Z 05004KT 020V100 0800 R01/1200N R19/1300N FG OVC002 01/01 Q0998=
200702130750 METAR ESMX 130750Z 04005KT 020V100 0900 R01/1200N R19/1300N FG OVC002 01/01 Q0998=
200702130720 METAR ESMX 130720Z 08005KT 040V140 0900 R01/1500N R19/1600N FG OVC002 01/01 Q0997=
200702130650 METAR ESMX 130650Z 07006KT 030V110 0900 R01/1400N R19/1600N FG VV003 01/01 Q0997=
200702130620 METAR ESMX 130620Z 06005KT 030V110 1000 R01/P2000N R19/P2000N BR OVC002 01/01 Q0997=
200702130550 METAR ESMX 130550Z 07004KT 030V130 2000 BR OVC001 01/01 Q0997=
200702130520 METAR ESMX 130520Z 05005KT 010V070 2200 BR OVC001 01/00 Q0997=
200702130450 METAR ESMX 130450Z 05005KT 1300 R19/P2000N BR OVC001 00/00 Q0997=
200702130420 METAR ESMX 130420Z AUTO 05004KT 020V110 1600NDV OVC001/// 00/00 Q0996 RESN RERA=
200702130350 METAR ESMX 130350Z AUTO 06004KT 0800NDV R01/1800D R19/P2000N RA VV001 00/00 Q0996 RESN=
200702130320 METAR ESMX 130320Z AUTO 07003KT 020V110 1600NDV BKN001/// OVC004/// 00/00 Q0997 RESG RERA REDZ=
200702130250 METAR ESMX 130250Z AUTO 07003KT 030V110 1100NDV R01/P2000N R19/1500VP2000N -SN FEW002/// OVC004/// 00/00 Q0997 REUP RESG=
200702130220 METAR ESMX 130220Z AUTO 09003KT 050V130 1000NDV R01/P2000N R19/P2000N FG OVC001/// 00/M00 Q0997=
200702130120 METAR ESMX 130120Z 08003KT 040V120 1200 R19/P2000N BR OVC001 M00/M00 Q0997=
200702130050 METAR ESMX 130050Z 05003KT 020V120 1500 BR OVC001 M00/M00 Q0997=
200702130020 METAR ESMX 130020Z VRB02KT 4600 BR OVC002 M00/M01 Q0997=
200702122350 METAR ESMX 122350Z 08003KT 040V130 7000 BR OVC002 M01/M01 Q0997=
200702122320 METAR ESMX 122320Z 06003KT 020V110 9999 BKN004 OVC006 M01/M01 Q0997=
200702122250 METAR ESMX 122250Z 06004KT 030V110 9999 BR BKN006 OVC010 M01/M01 Q0997=
200702122220 METAR ESMX 122220Z 06004KT 020V100 6000 -SN FEW005 SCT010 OVC016 M01/M01 Q0997 RESN=
200702122150 METAR ESMX 122150Z 04003KT 3000 -SN BR SCT003 BKN005 M01/M01 Q0997=
200702122120 METAR ESMX 122120Z 07004KT 040V110 3000 -SN BR OVC002 M01/M01 Q0997=
200702122050 METAR ESMX 122050Z 08004KT 030V130 2500 -SN BR OVC002 M01/M02 Q0997=
200702122020 METAR ESMX 122020Z 09004KT 040V140 3000 BR OVC003 M01/M02 Q0997=
200702121950 METAR ESMX 121950Z 09003KT 030V140 9999 OVC005 M01/M02 Q0997=
200702121920 METAR ESMX 121920Z 08004KT 030V130 9999 OVC006 M01/M02 Q0998=
200702121850 METAR ESMX 121850Z 09004KT 050V140 9999 OVC006 M01/M02 Q0998=
200702121820 METAR ESMX 121820Z 08004KT 030V120 9999 -SN OVC007 M01/M02 Q0998=
200702121750 METAR ESMX 121750Z 07005KT 040V120 9000 -SN OVC007 M01/M02 Q0998=
200702121720 METAR ESMX 121720Z 09005KT 030V130 3000 SN OVC010 M01/M02 Q0998=
200702121650 METAR ESMX 121650Z 07005KT 020V130 3000 SN OVC008 M01/M02 Q0998=
200702121620 METAR ESMX 121620Z 08005KT 030V120 9999 OVC010 M01/M02 Q0998=
200702121550 METAR ESMX 121550Z 07004KT 020V110 9999 FEW007 BKN012 M01/M02 Q0998=
200702121520 METAR ESMX 121520Z 07005KT 030V120 6000 -SN FEW007 BKN015 M01/M02 Q0998=
200702121450 METAR ESMX 121450Z 08007KT 030V120 6000 BR FEW003 BKN008 M01/M02 Q0998=
200702121420 METAR ESMX 121420Z 11007KT 060V170 3000 BR OVC002 M01/M02 Q0999=
200702121350 METAR ESMX 121350Z 10007KT 060V160 3000 BR OVC003 M01/M02 Q0999=
200702121250 METAR ESMX 121250Z 10007KT 050V140 9999 OVC007 M01/M02 Q0999=
200702121220 METAR ESMX 121220Z 09007KT 050V150 9999 FEW006 BKN010 M01/M02 Q0999=
200702121150 METAR ESMX 121150Z 08006KT 020V140 6000 BR OVC003 M01/M02 Q0999=
200702121120 METAR ESMX 121120Z 10007KT 040V140 4000 BR OVC003 M01/M01 Q1000=
200702121050 METAR ESMX 121050Z 10008KT 060V140 3500 BR OVC003 M01/M02 Q1000=
200702121020 METAR ESMX 121020Z 09006KT 360V160 3000 BR OVC003 M01/M02 Q1000=
200702120950 METAR ESMX 120950Z 10006KT 040V140 4100 BR OVC003 M01/M02 Q1000=
200702120920 METAR ESMX 120920Z 08005KT 030V150 6000 BR OVC003 M01/M02 Q1001=
200702120850 METAR ESMX 120850Z 10007KT 050V130 7000 BR OVC004 M01/M02 Q1001=
200702120820 METAR ESMX 120820Z 09006KT 340V150 7000 BR OVC004 M01/M02 Q1001=
200702120750 METAR ESMX 120750Z 10005KT 030V160 8000 BR OVC004 M01/M02 Q1002=
200702120720 METAR ESMX 120720Z 11006KT 040V200 9000 BR OVC005 M02/M03 Q1002=
200702120650 METAR ESMX 120650Z 11006KT 060V170 9999 OVC007 M02/M03 Q1002=
200702120620 METAR ESMX 120620Z 11007KT 050V160 9999 -SN OVC008 M02/M03 Q1002=
200702120550 METAR ESMX 120550Z 11007KT 070V140 9999 -SN OVC010 M02/M03 Q1002=
200702120520 METAR ESMX 120520Z 11008KT 050V160 9999 OVC011 M02/M04 Q1003=
200702120420 METAR ESMX 120420Z AUTO 10007KT 050V150 9999NDV OVC012/// M02/M04 Q1003=
200702120350 METAR ESMX 120350Z AUTO 09007KT 030V140 9999NDV OVC012/// M02/M04 Q1003=
200702120320 METAR ESMX 120320Z AUTO 10007KT 050V140 9999NDV OVC011/// M02/M04 Q1004=
200702120250 METAR ESMX 120250Z AUTO 11007KT 070V170 9999NDV OVC011/// M02/M04 Q1004=
200702120220 METAR ESMX 120220Z AUTO 10007KT 050V170 9999NDV OVC011/// M02/M04 Q1005=
200702120150 METAR ESMX 120150Z AUTO 10006KT 060V160 9999NDV OVC011/// M02/M04 Q1005 RESG=
200702120120 METAR ESMX 120120Z 10008KT 060V140 9999 -SN OVC011 M02/M04 Q1005=
200702120050 METAR ESMX 120050Z 10008KT 040V120 9999 -SN OVC012 M02/M04 Q1005=
200702120020 METAR ESMX 120020Z 10007KT 030V160 9999 -SN OVC012 M02/M05 Q1006=
200702112350 METAR ESMX 112350Z 09006KT 010V140 9999 -SN OVC012 M03/M05 Q1006=
200702112320 METAR ESMX 112320Z 10008KT 060V170 9999 -SN OVC012 M03/M05 Q1006 REUP=
200702112250 METAR ESMX 112250Z 11008KT 050V160 9999 OVC013 M03/M05 Q1007=
200702112220 METAR ESMX 112220Z 10009KT 060V160 9999 OVC013 M03/M05 Q1007=
200702112150 METAR ESMX 112150Z 09007KT 040V140 9999 OVC015 M03/M05 Q1007=
200702112120 METAR ESMX 112120Z 10007KT 020V170 9999 BKN015 OVC020 M03/M06 Q1007=
200702112050 METAR ESMX 112050Z 10006G16KT 060V200 9999 SCT017 OVC021 M03/M06 Q1008=
200702112020 METAR ESMX 112020Z 10006KT 050V160 9999 OVC020 M04/M06 Q1008=
200702111950 METAR ESMX 111950Z 10007KT 050V160 9999 FEW019 BKN022 M04/M07 Q1008=
200702111920 METAR ESMX 111920Z 10007KT 070V160 9999 FEW020 BKN023 M04/M07 Q1009=
200702111850 METAR ESMX 111850Z 10008KT 070V160 9999 FEW018 BKN022 M04/M07 Q1009=
200702111820 METAR ESMX 111820Z 12008KT 070V160 9999 BKN018 M04/M07 Q1010=
200702111750 METAR ESMX 111750Z 11008KT 050V150 9999 BKN018 M04/M07 Q1010=
200702111720 METAR ESMX 111720Z 11007KT 050V170 9999 FEW017 BKN020 M04/M07 Q1010=
200702111650 METAR ESMX 111650Z 11009KT 070V160 9999 BKN020 M04/M07 Q1010=
200702111550 METAR ESMX 111550Z 11009KT 070V160 9999 SCT025 M03/M08 Q1011=
200702111520 METAR ESMX 111520Z 10007KT 050V150 9999 SCT020 M02/M07 Q1011=
200702111420 METAR ESMX 111420Z 14009KT 050V160 9999 FEW019 BKN023 M02/M06 Q1011=
200702111350 METAR ESMX 111350Z 11006KT 060V180 9999 BKN020 M02/M06 Q1012=
200702111320 METAR ESMX 111320Z 14009KT 100V170 9999 BKN020 02/06 Q1012=
200702110250 METAR ESMX 110250Z AUTO 00000KT 9999NDV NCD M15/M16 Q1018=
200702110220 METAR ESMX 110220Z AUTO 00000KT 9999NDV NCD M15/M16 Q1018=
200702110150 METAR ESMX 110150Z AUTO 02002KT 9999NDV NCD M15/M16 Q1018=
200702110120 METAR ESMX 110120Z AUTO 04002KT 9999NDV NCD M15/M16 Q1018=
200702110050 METAR ESMX 110050Z AUTO VRB02KT 9999NDV NCD M14/M15 Q1018=
200702110020 METAR ESMX 110020Z AUTO 05001KT 9999NDV NCD M14/M16 Q1018=
200702102350 METAR ESMX 102350Z AUTO 05002KT 9999NDV NCD M15/M17 Q1018=
200702102320 METAR ESMX 102320Z AUTO 00000KT 9999NDV NCD M14/M16 Q1019=
200702102250 METAR ESMX 102250Z AUTO 03001KT 9999NDV NCD M15/M16 Q1019=
200702102220 METAR ESMX 102220Z AUTO 03002KT 9999NDV NCD M15/M16 Q1019=
200702102150 METAR ESMX 102150Z AUTO 00000KT 9999NDV NCD M14/M15 Q1019=
200702102120 METAR ESMX 102120Z AUTO 00000KT 9999NDV NCD M14/M15 Q1019=
200702102050 METAR ESMX 102050Z AUTO 00000KT 9999NDV NCD M14/M15 Q1019=
200702102020 METAR ESMX 102020Z AUTO 00000KT 9999NDV NCD M13/M13 Q1019=
200702101950 METAR ESMX 101950Z AUTO 10001KT 9999NDV NCD M13/M15 Q1019=
200702101920 METAR ESMX 101920Z AUTO 09002KT 9999NDV NCD M13/M13 Q1018=
200702101850 METAR ESMX 101850Z AUTO VRB02KT 9999NDV NCD M13/M14 Q1018=
200702101820 METAR ESMX 101820Z AUTO 00000KT 9999NDV NCD M12/M13 Q1018=
200702101750 METAR ESMX 101750Z AUTO 02002KT 9999NDV NCD M12/M13 Q1018=
200702101720 METAR ESMX 101720Z AUTO 03001KT 9999NDV NCD M12/M12 Q1018=
200702101650 METAR ESMX 101650Z AUTO 03002KT 9999NDV NCD M11/M11 Q1018=
200702101620 METAR ESMX 101620Z AUTO 00000KT 9999NDV NCD M09/M11 Q1018=
200702101550 METAR ESMX 101550Z AUTO 02003KT 9999NDV NCD M06/M10 Q1018=
200702101520 METAR ESMX 101520Z AUTO 04004KT 9999NDV NCD M05/M10 Q1017=
200702101450 METAR ESMX 101450Z AUTO 04005KT 9999NDV NCD M05/M10 Q1017=
200702101420 METAR ESMX 101420Z AUTO 36005KT 9999NDV NCD M05/M10 Q1018=
200702101350 METAR ESMX 101350Z AUTO 36004KT 330V030 9999NDV NCD M05/M10 Q1017=
200702101320 METAR ESMX 101320Z AUTO 02004KT 9999NDV NCD M05/M10 Q1017=
200702101250 METAR ESMX 101250Z AUTO 36005KT 330V060 9999NDV NCD M05/M10 Q1017=
200702101220 METAR ESMX 101220Z AUTO 36006KT 9999NDV NCD M05/M10 Q1017=
200702101150 METAR ESMX 101150Z AUTO 01005KT 340V040 9999NDV NCD M05/M10 Q1018=
200702101120 METAR ESMX 101120Z AUTO 01006KT 9999NDV NCD M05/M10 Q1018=
200702101050 METAR ESMX 101050Z AUTO 05006KT 010V080 9999NDV NCD M06/M10 Q1018=
200702101020 METAR ESMX 101020Z AUTO 04006KT 020V080 9999NDV NCD M06/M10 Q1018=
200702100950 METAR ESMX 100950Z AUTO 04006KT 9999NDV NCD M07/M10 Q1018=
200702100920 METAR ESMX 100920Z AUTO 04008KT 020V090 9999NDV NCD M07/M10 Q1018=
200702100850 METAR ESMX 100850Z AUTO 05006KT 350V070 9999NDV NCD M07/M10 Q1017=
200702100820 METAR ESMX 100820Z AUTO 04006KT 9999NDV NCD M08/M10 Q1017=
200702100750 METAR ESMX 100750Z AUTO 04006KT 9999NDV NCD M09/M10 Q1017=
200702100720 METAR ESMX 100720Z AUTO 03005KT 9999NDV NCD M09/M10 Q1017=
200702100650 METAR ESMX 100650Z AUTO 03005KT 350V050 9999NDV NCD M10/M11 Q1017=
200702100620 METAR ESMX 100620Z AUTO 04007KT 9999NDV NCD M09/M10 Q1016=
200702100550 METAR ESMX 100550Z AUTO 02004KT 9999NDV NCD M10/M10 Q1016=
200702100520 METAR ESMX 100520Z AUTO 01006KT 9999NDV NCD M09/M10 Q1016=
200702100450 METAR ESMX 100450Z AUTO 02005KT 9999NDV NCD M09/M10 Q1016=
200702100420 METAR ESMX 100420Z AUTO 02005KT 9999NDV NCD M09/M09 Q1016=
200702100350 METAR ESMX 100350Z AUTO 01007KT 9999NDV NCD M08/M09 Q1016=
200702100320 METAR ESMX 100320Z AUTO 01006KT 9999NDV NCD M08/M09 Q1016=
200702100250 METAR ESMX 100250Z AUTO 02007KT 9999NDV NCD M08/M09 Q1016=
200702100220 METAR ESMX 100220Z AUTO 02006KT 9999NDV NCD M07/M08 Q1016=
200702100150 METAR ESMX 100150Z AUTO 35005KT 9999NDV NCD M08/M09 Q1016=
200702100120 METAR ESMX 100120Z AUTO 03006KT 9999NDV FEW026/// M06/M08 Q1016=
200702100050 METAR ESMX 100050Z AUTO 03005KT 9999NDV SCT026/// M06/M09 Q1016=
200702100020 METAR ESMX 100020Z AUTO 04005KT 9999NDV BKN025/// M06/M09 Q1016=
200702092350 METAR ESMX 092350Z AUTO 04007KT 9999NDV FEW021/// SCT025/// M06/M08 Q1016=
200702092320 METAR ESMX 092320Z AUTO 03006KT 350V080 9999NDV OVC020/// M05/M08 Q1016=
200702092250 METAR ESMX 092250Z AUTO 04007KT 340V080 9999NDV OVC022/// M05/M09 Q1016=
200702092220 METAR ESMX 092220Z AUTO 04007KT 010V100 9999NDV OVC020/// M05/M08 Q1016=
200702092150 METAR ESMX 092150Z AUTO 05007KT 010V090 9999NDV FEW019/// OVC021/// M05/M08 Q1016=
200702092120 METAR ESMX 092120Z AUTO 05006KT 020V080 9999NDV OVC021/// M05/M08 Q1016 RESN=
200702092050 METAR ESMX 092050Z AUTO 06006KT 020V110 9999NDV SG OVC019/// M05/M08 Q1016 RESN=
200702092020 METAR ESMX 092020Z AUTO 06007KT 020V100 9999NDV OVC019/// M05/M08 Q1016=
200702091950 METAR ESMX 091950Z AUTO 05007KT 360V100 9999NDV OVC018/// M05/M08 Q1016=
200702091920 METAR ESMX 091920Z AUTO 05009KT 010V120 9999NDV OVC019/// M05/M08 Q1016=
200702091850 METAR ESMX 091850Z AUTO 06009KT 020V110 9999NDV OVC020/// M05/M08 Q1015=
200702091820 METAR ESMX 091820Z 06008KT 020V100 9999 BKN020 M05/M08 Q1015=
200702091750 METAR ESMX 091750Z 03011KT 350V080 9999 BKN020 M05/M08 Q1015=
200702091720 METAR ESMX 091720Z 04009G19KT 020V090 9999 BKN021 M04/M08 Q1015=
200702091650 METAR ESMX 091650Z 04009KT 9999 BKN020 M04/M08 Q1014=
200702091620 METAR ESMX 091620Z 04009KT 9999 BKN020 M04/M08 Q1014=
200702091550 METAR ESMX 091550Z 03009KT 9999 BKN022 M04/M08 Q1013=
200702091520 METAR ESMX 091520Z 07009KT 9999 BKN020 M03/M08 Q1013=
200702091450 METAR ESMX 091450Z 05009KT 9999 SCT022 M03/M08 Q1013=
200702091420 METAR ESMX 091420Z 06006KT 9999 FEW020 M03/M07 Q1012=
200702091350 METAR ESMX 091350Z 05010KT 9999 FEW020 M03/M08 Q1012=
200702091320 METAR ESMX 091320Z 03012KT 350V130 9999 SCT020 M02/M07 Q1012=
200702091250 METAR ESMX 091250Z 05012KT 010V100 9999 SCT020 M03/M08 Q1012=
200702091220 METAR ESMX 091220Z 05011KT 010V100 9999 BKN020 M03/M08 Q1011=
200702091150 METAR ESMX 091150Z 04011KT 020V080 9999 BKN020 M03/M07 Q1011=
200702091120 METAR ESMX 091120Z 06009KT 020V120 9999 BKN020 M03/M08 Q1011=
200702091050 METAR ESMX 091050Z 06010KT 020V100 9999 BKN020 M03/M07 Q1011=
200702091020 METAR ESMX 091020Z 06010KT 020V100 9999 BKN017 M04/M08 Q1011=
200702090950 METAR ESMX 090950Z 05012KT 010V080 9999 SCT015 M04/M08 Q1010=
200702090920 METAR ESMX 090920Z 06010KT 020V120 9999 BKN015 M04/M08 Q1010=
200702090850 METAR ESMX 090850Z 05009KT 010V110 9999 FEW015 M05/M08 Q1010=
200702090820 METAR ESMX 090820Z 05009KT 020V090 CAVOK M06/M08 Q1010=
200702090750 METAR ESMX 090750Z 05007KT 360V080 CAVOK M06/M08 Q1009=
200702090720 METAR ESMX 090720Z 03008KT 360V060 9999 FEW020 M07/M08 Q1009=
200702090650 METAR ESMX 090650Z 03008KT 9999 FEW016 M07/M08 Q1009=
200702090620 METAR ESMX 090620Z 04009KT 9999 FEW013 M06/M08 Q1008=
200702090550 METAR ESMX 090550Z 04008KT 010V070 9999 SCT012 M06/M08 Q1008=
200702090520 METAR ESMX 090520Z 04007KT 010V070 9999 SCT014 M06/M08 Q1008=
200702090450 METAR ESMX 090450Z 03006KT 350V090 9999 BKN015 M05/M08 Q1008=
200702090420 METAR ESMX 090420Z AUTO 04007KT 360V080 9999NDV BKN014/// M05/M08 Q1008=
200702090350 METAR ESMX 090350Z AUTO 04008KT 340V100 9999NDV BKN016/// M05/M08 Q1007=
200702090320 METAR ESMX 090320Z AUTO 04007KT 350V070 9999NDV BKN018/// M05/M08 Q1007=
200702090250 METAR ESMX 090250Z AUTO 06008KT 030V110 9999NDV BKN017/// M05/M08 Q1007=
200702090220 METAR ESMX 090220Z AUTO 06007KT 030V110 9999NDV BKN017/// M05/M07 Q1007=
200702090150 METAR ESMX 090150Z AUTO 06007KT 020V110 9999NDV FEW017/// BKN020/// M04/M07 Q1006=
200702090120 METAR ESMX 090120Z AUTO 07008KT 040V110 9999NDV BKN018/// M04/M07 Q1006=
200702090050 METAR ESMX 090050Z 06008KT 020V100 9999 FEW015 OVC018 M03/M06 Q1006=
200702090020 METAR ESMX 090020Z 05006KT 020V100 9999 FEW017 OVC020 M03/M06 Q1006=
200702082350 METAR ESMX 082350Z 05007KT 020V080 9999 FEW015 OVC021 M03/M06 Q1006=
200702082320 METAR ESMX 082320Z 06008KT 030V120 9999 FEW014 SCT019 OVC022 M03/M05 Q1006=
200702082250 METAR ESMX 082250Z 07008KT 020V120 9999 FEW012 SCT015 BKN019 M03/M05 Q1005=
200702082220 METAR ESMX 082220Z 06008KT 030V110 9999 FEW013 OVC026 M02/M04 Q1005 RESN=
200702082150 METAR ESMX 082150Z 05008KT 010V090 9999 -SN FEW013 OVC027 M02/M05 Q1005 RESG=
200702082120 METAR ESMX 082120Z 07007KT 040V110 9999 -SN FEW010 OVC027 M02/M04 Q1005=
200702082050 METAR ESMX 082050Z 06007KT 020V100 9999 FEW014 OVC030 M02/M04 Q1005 RESG RESN=
200702081950 METAR ESMX 081950Z 07007KT 030V110 9999 -SN FEW010 OVC027 M02/M04 Q1005=
200702081920 METAR ESMX 081920Z 08007KT 040V120 9999 FEW010 OVC030 M02/M04 Q1005 RESN=
200702081850 METAR ESMX 081850Z 08007KT 030V120 9999 -SN FEW012 BKN030 M02/M04 Q1005=
200702081820 METAR ESMX 081820Z 08006KT 020V130 9999 FEW014 BKN035 M02/M04 Q1005 RESN=
200702081750 METAR ESMX 081750Z 09005KT 040V160 9999 FEW012 OVC040 M02/M03 Q1005 RESN=
200702081720 METAR ESMX 081720Z 09006KT 020V170 9999 -SN FEW012 OVC040 M01/M03 Q1005=
200702081650 METAR ESMX 081650Z 10005KT 050V140 9999 -SN FEW010 BKN015 M01/M03 Q1004=
200702081620 METAR ESMX 081620Z 07004KT 020V120 3000 SN SCT012 BKN020 M01/M03 Q1004=
200702081550 METAR ESMX 081550Z 09004KT 050V140 9999 OVC035 M01/M03 Q1004=
200702081520 METAR ESMX 081520Z 09004KT 050V120 9999 SCT035 M02/M04 Q1004=
200702081450 METAR ESMX 081450Z 11005KT 050V160 9999 FEW015 BKN030 M01/M03 Q1004=
200702081420 METAR ESMX 081420Z 11006KT 070V140 9999 -SN FEW017 BKN025 BKN060 M01/M03 Q1004=
200702081350 METAR ESMX 081350Z VRB06KT 9999 -SN FEW012 SCT018 BKN020 M01/M02 Q1004=
200702081320 METAR ESMX 081320Z 10004KT 050V150 4000 -SN FEW009 BKN011 OVC016 M01/M02 Q1004=
200702081250 METAR ESMX 081250Z 10004KT 040V150 4000 -SN FEW008 BKN011 BKN020 M01/M02 Q1004=
200702081220 METAR ESMX 081220Z 11005KT 060V160 3000 -SN FEW005 SCT013 BKN020 M01/M02 Q1004=
200702081150 METAR ESMX 081150Z 12005KT 080V170 9000 -SN FEW009 SCT040 BKN040 M00/M02 Q1004=
200702081120 METAR ESMX 081120Z 11006KT 070V150 5000 -RA FEW009 SCT015 BKN025 00/M02 Q1004=
200702081050 METAR ESMX 081050Z 12004KT 070V170 9999 FEW009 SCT011 BKN015 00/M02 Q1004=
200702081020 METAR ESMX 081020Z 09004KT 050V140 9999 SCT007 BKN010 OVC015 00/M01 Q1004=
200702080950 METAR ESMX 080950Z 09004KT 8000 -SN BKN007 OVC009 00/M01 Q1004=
200702080920 METAR ESMX 080920Z 11003KT 9999 FEW006 BKN007 OVC010 00/M01 Q1004=
200702080850 METAR ESMX 080850Z 10004KT 8000 BR SCT005 BKN007 M01/M01 Q1004=
200702080750 METAR ESMX 080750Z VRB02KT 9000 -SN BKN005 M01/M01 Q1004=
200702080720 METAR ESMX 080720Z VRB02KT 3000 -SN SCT003 BKN018 M01/M02 Q1004=
200702080650 METAR ESMX 080650Z VRB02KT 6000 -SN SCT002 BKN006 M02/M02 Q1004=
200702080620 METAR ESMX 080620Z 13003KT 6000 -SN BKN002 BKN065 M02/M02 Q1004=
200702080550 METAR ESMX 080550Z VRB02KT 7000 BR SCT002 BKN058 M02/M03 Q1004=
200702080520 METAR ESMX 080520Z 13004KT 100V170 6000 BR BKN003 M02/M02 Q1004=
200702080450 METAR ESMX 080450Z 10003KT 070V140 9999 BKN004 M02/M03 Q1004=
200702080420 METAR ESMX 080420Z AUTO 09003KT 050V140 9999NDV -SN OVC004/// M02/M03 Q1003=
200702080350 METAR ESMX 080350Z AUTO 10003KT 050V140 9999NDV -SN FEW005/// SCT006/// OVC011/// M02/M03 Q1003=
200702080320 METAR ESMX 080320Z AUTO 09003KT 050V130 9999NDV BKN010/// OVC014/// M02/M03 Q1003 RESN=
200702080250 METAR ESMX 080250Z AUTO 10003KT 040V150 9999NDV -SN BKN006/// OVC014/// M02/M03 Q1003=
200702080220 METAR ESMX 080220Z AUTO VRB02KT 5000NDV -SN SCT007/// BKN009/// OVC012/// M02/M03 Q1004=
200702080150 METAR ESMX 080150Z AUTO 10003KT 030V140 7000NDV -SN FEW008/// SCT009/// OVC011/// M02/M03 Q1004=
200702080120 METAR ESMX 080120Z 10004KT 060V150 9000 -SN SCT008 OVC011 M02/M03 Q1004=
200702080050 METAR ESMX 080050Z 09003KT 030V140 6000 -SN OVC009 M02/M03 Q1004=
200702080020 METAR ESMX 080020Z 08004KT 020V110 9000 -SN OVC009 M02/M03 Q1004=
200702072350 METAR ESMX 072350Z 05004KT 020V100 2800 -SN OVC007 M02/M03 Q1004=
200702072320 METAR ESMX 072320Z 07005KT 030V100 4500 -SN OVC008 M02/M04 Q1004=
200702072250 METAR ESMX 072250Z 07004KT 020V140 9999 -SN OVC009 M03/M04 Q1004=
200702072220 METAR ESMX 072220Z 08004KT 050V110 9999 OVC009 M03/M04 Q1004=
200702072150 METAR ESMX 072150Z 09005KT 040V120 9999 OVC009 M03/M04 Q1004 RESN=
200702072120 METAR ESMX 072120Z 10004KT 030V160 9999 -SN OVC010 M03/M05 Q1005=
200702072050 METAR ESMX 072050Z 06004KT 350V120 9999 -SN OVC010 M03/M05 Q1004=
200702072020 METAR ESMX 072020Z 08006KT 030V120 9999 -SN OVC010 M03/M05 Q1005=
200702071950 METAR ESMX 071950Z 08006KT 030V120 9999 -SN OVC010 M03/M05 Q1005=
200702071920 METAR ESMX 071920Z VRB06KT 5000 -SN BKN011 M03/M05 Q1005=
200702071850 METAR ESMX 071850Z 09006KT 050V150 9000 -SN OVC010 M03/M05 Q1005=
200702071820 METAR ESMX 071820Z 09008KT 030V150 9999 -SN OVC012 M03/M05 Q1004=
200702071750 METAR ESMX 071750Z 08006KT 040V140 9999 -SN BKN010 OVC015 M03/M05 Q1005=
200702071650 METAR ESMX 071650Z 09008KT 030V140 6000 -SN SCT011 BKN015 OVC018 M03/M04 Q1004=
200702071620 METAR ESMX 071620Z 10007KT 050V150 5000 -SN BKN012 OVC027 M03/M04 Q1004=
200702071550 METAR ESMX 071550Z 10007KT 050V160 9000 -SN FEW006 OVC016 M03/M04 Q1004=
200702071520 METAR ESMX 071520Z 09007KT 020V160 3000 -SN BKN010 M02/M03 Q1004=
200702071450 METAR ESMX 071450Z 09007KT 030V120 4000 -SN BKN010 BKN020 M02/M04 Q1003=
200702071420 METAR ESMX 071420Z 11007KT 070V150 9000 -SN FEW012 BKN017 M01/M03 Q1003=
200702071350 METAR ESMX 071350Z 11008KT 050V150 7000 -SN FEW009 BKN015 OVC020 M01/M03 Q1003=
200702071320 METAR ESMX 071320Z 11007KT 050V170 8000 -SN FEW013 BKN020 M01/M03 Q1003=
200702071250 METAR ESMX 071250Z 11008KT 070V160 9999 -SN FEW010 OVC015 M01/M02 Q1003=
200702071220 METAR ESMX 071220Z 08005KT 050V140 9999 -SN FEW010 BKN013 OVC017 M01/M02 Q1003=
200702071150 METAR ESMX 071150Z 05004KT 360V080 7000 -SN FEW010 BKN013 M01/M02 Q1003=
200702071120 METAR ESMX 071120Z 06004KT 020V080 9999 -SN BKN009 OVC015 M01/M02 Q1003=
200702071050 METAR ESMX 071050Z 05004KT 020V080 9999 BKN009 M02/M02 Q1003=
200702071020 METAR ESMX 071020Z 06005KT 020V110 9999 FEW008 BKN012 M02/M03 Q1003 RESN=
200702070950 METAR ESMX 070950Z 06007KT 030V100 5000 -SN FEW008 SCT015 OVC019 M03/M03 Q1003=
200702070920 METAR ESMX 070920Z 06006KT 030V110 3000 -SN FEW008 SCT012 BKN018 M03/M04 Q1003=
200702070850 METAR ESMX 070850Z 05006KT 020V090 2000 -SN FEW008 BKN011 BKN022 M03/M04 Q1003=
200702070820 METAR ESMX 070820Z 05006KT 020V080 2300 SN FEW005 BKN010 M04/M04 Q1003=
200702070750 METAR ESMX 070750Z 05006KT 360V080 2200 SN FEW005 BKN015 M04/M04 Q1003=
200702070720 METAR ESMX 070720Z 04006KT 350V070 2900 -SN FEW008 SCT012 BKN015 M04/M05 Q1003=
200702070650 METAR ESMX 070650Z 06006KT 010V110 2700 -SN FEW006 BKN012 M04/M05 Q1003=
200702070620 METAR ESMX 070620Z 04008KT 020V080 4400 -SN SCT012 BKN018 BKN034 M04/M05 Q1002=
200702070550 METAR ESMX 070550Z 05008KT 010V090 9000 -SN BKN012 M04/M05 Q1002=
200702070520 METAR ESMX 070520Z 06006KT 010V100 9999 -SN BKN012 M04/M05 Q1002=
200702070450 METAR ESMX 070450Z 04007KT 360V070 9999 -SN BKN012 M04/M06 Q1002=
200702070420 METAR ESMX 070420Z AUTO 04007KT 340V100 9999NDV SG OVC013/// M04/M06 Q1002 RESN=
200702070350 METAR ESMX 070350Z AUTO 06006KT 020V120 9999NDV SG BKN012/// OVC020/// M04/M06 Q1003 RESN=
200702070320 METAR ESMX 070320Z AUTO 07008KT 020V100 7000NDV -SN OVC013/// M04/M06 Q1003=
200702070250 METAR ESMX 070250Z AUTO 06008KT 020V140 9999NDV -SN BKN013/// BKN040/// M04/M06 Q1003 RESG=
200702070220 METAR ESMX 070220Z AUTO 06008KT 030V100 9999NDV -SN OVC010/// M03/M05 Q1003=
200702070150 METAR ESMX 070150Z AUTO 05008KT 020V100 9999NDV OVC010/// M03/M06 Q1003 RESN RESG=
200702070120 METAR ESMX 070120Z 07007KT 010V110 9999 -SN BKN013 M03/M05 Q1003=
200702070050 METAR ESMX 070050Z 05009KT 330V080 4000 -SN FEW014 SCT024 BKN040 M03/M05 Q1003=
200702070020 METAR ESMX 070020Z 07008KT 030V110 9999 -SN FEW014 BKN040 M03/M05 Q1003=
200702062350 METAR ESMX 062350Z 04009KT 350V100 9999 -SN FEW017 BKN043 M03/M05 Q1003=
200702062320 METAR ESMX 062320Z 08009KT 050V110 9999 FEW013 BKN040 M03/M05 Q1003=
200702062250 METAR ESMX 062250Z 06008KT 010V120 9999 -SN FEW013 BKN040 M03/M04 Q1003=
200702062220 METAR ESMX 062220Z 07008KT 020V120 9999 -SN BKN011 OVC045 M02/M04 Q1003=
200702062120 METAR ESMX 062120Z 07007KT 040V110 9999 -SN SCT012 BKN016 M02/M03 Q1002=
200702062050 METAR ESMX 062050Z 08007KT 040V130 9999 -SN BKN010 M02/M03 Q1002=
200702062020 METAR ESMX 062020Z 07006KT 030V130 9999 -SN FEW010 SCT017 BKN020 M02/M02 Q1002=
200702061950 METAR ESMX 061950Z 07005KT 020V110 9999 -SN FEW007 BKN020 M01/M02 Q1002=
200702061920 METAR ESMX 061920Z 07004KT 030V110 9999 -SN FEW007 BKN015 M01/M02 Q1002=
200702061850 METAR ESMX 061850Z 07004KT 030V100 9999 -SN FEW007 BKN018 M01/M02 Q1002=
200702061820 METAR ESMX 061820Z VRB02KT 9999 -SN OVC006 M01/M02 Q1002=
200702061750 METAR ESMX 061750Z 06003KT 010V120 2500 -SN BKN007 OVC015 M01/M02 Q1002=
200702061720 METAR ESMX 061720Z 08003KT 010V140 5000 -SN SCT006 OVC008 M01/M02 Q1002=
200702061650 METAR ESMX 061650Z 03005KT 1500 -SN FEW005 BKN007 M01/M02 Q1001=
200702061620 METAR ESMX 061620Z 04007KT 020V080 2000 SN FEW006 BKN007 OVC020 M01/M02 Q1001=
200702061550 METAR ESMX 061550Z 05006KT 020V080 3000 -SN FEW006 BKN007 OVC021 M01/M02 Q1001=
200702061520 METAR ESMX 061520Z 03007KT 9999 FEW009 BKN011 OVC020 M01/M02 Q1001 RESN=
200702061450 METAR ESMX 061450Z 01006KT 9999 -SN BKN008 M01/M02 Q1001=
200702061420 METAR ESMX 061420Z 03007KT 9999 -SN FEW006 OVC008 M00/M02 Q1001=
200702061350 METAR ESMX 061350Z 04005KT 4000 -SN FEW005 SCT008 BKN015 M01/M01 Q1001=
200702061320 METAR ESMX 061320Z 05005KT 020V100 9999 -SN FEW005 BKN011 OVC028 00/M02 Q1001=
200702061250 METAR ESMX 061250Z 04005KT 9999 FEW008 SCT015 BKN022 M00/M02 Q1001=
200702061220 METAR ESMX 061220Z 05003KT 9999 SCT010 OVC020 M00/M02 Q1001=
200702061150 METAR ESMX 061150Z 05003KT 350V090 9999 BKN010 OVC025 00/M02 Q1001=
200702061120 METAR ESMX 061120Z 04004KT 020V080 9999 OVC010 M00/M02 Q1001=
200702061050 METAR ESMX 061050Z 05004KT 010V090 9999 OVC010 M00/M02 Q1001=
200702061020 METAR ESMX 061020Z 06003KT 360V120 9999 OVC010 M00/M02 Q1001=
200702060950 METAR ESMX 060950Z 06004KT 020V080 9999 SCT010 BKN020 M00/M02 Q1000=
200702060920 METAR ESMX 060920Z 05005KT 020V090 9999 BKN010 M01/M02 Q1000=
200702060850 METAR ESMX 060850Z 04003KT 020V110 9999 FEW010 OVC020 M01/M03 Q1000=
200702060820 METAR ESMX 060820Z 04003KT 010V070 9999 OVC020 M01/M03 Q1000=
200702060750 METAR ESMX 060750Z 04004KT 9999 OVC020 M01/M03 Q1000=
200702060720 METAR ESMX 060720Z VRB02KT 9999 OVC020 M01/M03 Q1000=
200702060650 METAR ESMX 060650Z 02004KT 9999 OVC020 M01/M03 Q0999=
200702060620 METAR ESMX 060620Z 02005KT 9999 BKN015 OVC020 M01/M03 Q0999=
200702060550 METAR ESMX 060550Z 03005KT 9999 OVC014 M01/M03 Q0999=
200702060520 METAR ESMX 060520Z 03003KT 360V060 9999 BKN013 M01/M03 Q0999=
200702060450 METAR ESMX 060450Z 01004KT 9999 -SN FEW014 BKN016 M01/M03 Q0999=
200702060420 METAR ESMX 060420Z AUTO 36003KT 9999NDV OVC015/// M01/M03 Q0999=
200702060350 METAR ESMX 060350Z AUTO 03003KT 9999NDV OVC014/// M01/M03 Q0999=
200702060320 METAR ESMX 060320Z AUTO 02004KT 9999NDV OVC013/// M01/M03 Q0999=
200702060250 METAR ESMX 060250Z AUTO 36003KT 9999NDV OVC013/// M01/M04 Q0999=
200702060220 METAR ESMX 060220Z AUTO 36004KT 9999NDV OVC015/// M01/M04 Q0999=
200702060150 METAR ESMX 060150Z AUTO 35003KT 300V020 9999NDV OVC017/// M01/M03 Q0999=
200702060120 METAR ESMX 060120Z 02005KT 340V050 9999 BKN015 M01/M04 Q0999=
200702060050 METAR ESMX 060050Z 03008KT 360V060 9999 OVC014 M01/M03 Q0998=
200702060020 METAR ESMX 060020Z 03007KT 9999 OVC013 M01/M03 Q0998=
200702052350 METAR ESMX 052350Z 34004KT 300V010 9999 OVC013 M02/M03 Q0998=
200702052320 METAR ESMX 052320Z 32005KT 9999 BKN013 M02/M03 Q0998=
200702052250 METAR ESMX 052250Z 30003KT 260V330 9999 BKN014 M03/M04 Q0998=
200702052220 METAR ESMX 052220Z 31004KT 9999 FEW015 SCT020 M04/M05 Q0998=
200702052150 METAR ESMX 052150Z 30003KT 9999 FEW020 M03/M04 Q0998=
200702052120 METAR ESMX 052120Z 30004KT 270V340 9999 BKN020 M01/M03 Q0998=
200702052050 METAR ESMX 052050Z 30006KT 280V340 9999 OVC016 M01/M03 Q0997=
200702052020 METAR ESMX 052020Z 31006KT 9999 OVC018 M01/M03 Q0997=
200702051950 METAR ESMX 051950Z 31005KT 270V360 9999 FEW022 BKN025 M02/M03 Q0997=
200702051920 METAR ESMX 051920Z 31005KT 9999 SCT023 BKN045 M02/M03 Q0997=
200702051850 METAR ESMX 051850Z 30005KT 260V330 9999 FEW020 SCT030 BKN045 M02/M02 Q0997=
200702051820 METAR ESMX 051820Z 31005KT 280V340 9999 FEW012 SCT070 M02/M02 Q0997=
200702051720 METAR ESMX 051720Z 31006KT 280V350 9999 -SN FEW010 M01/M01 Q0997=
200702051650 METAR ESMX 051650Z 30008KT 1000 -SN FEW007 SCT030 BKN050 M00/M01 Q0996=
200702051620 METAR ESMX 051620Z 30009KT 9999 FEW015 SCT040 BKN050 M00/M02 Q0996=
200702051550 METAR ESMX 051550Z 30010KT 260V330 9999 FEW015 BKN030 00/M02 Q0996=
200702051520 METAR ESMX 051520Z 30009KT 9999 FEW030 BKN045 01/M03 Q0996=
200702051450 METAR ESMX 051450Z 29011KT 9999 FEW040 BKN060 01/M03 Q0996=
200702051420 METAR ESMX 051420Z 29012KT 260V330 9999 FEW030 SCT040 BKN050 01/M03 Q0996=
200702051350 METAR ESMX 051350Z 30013KT 9999 FEW020 BKN050 01/M02 Q0996=
200702051320 METAR ESMX 051320Z 29010KT 9999 FEW020 SCT050 01/M01 Q0996=
200702051250 METAR ESMX 051250Z 28009KT 9999 -DZ FEW020 SCT035 01/M01 Q0996=
200702051220 METAR ESMX 051220Z 29006KT 4000 SHSN FEW006 SCT019 BKN090 01/M00 Q0996=
200702051150 METAR ESMX 051150Z 27010KT 240V300 9999 FEW010 SCT030 01/M00 Q0996=
200702051120 METAR ESMX 051120Z 28009KT 9999 FEW010 SCT030 01/00 Q0997 RESN=
200702051050 METAR ESMX 051050Z 27007KT 200V290 9999 SHSN FEW006 SCT030 00/00 Q0997=
200702051020 METAR ESMX 051020Z 28009KT 9999 FEW007 SCT046CB 00/00 Q0997 RESHSN=
200702050950 METAR ESMX 050950Z 27012KT 240V310 0700 R01/1300VP2000U R19/0150V1400D +SN VV002 00/M00 Q0998=
200702050920 METAR ESMX 050920Z 26010KT 9999 FEW015 SCT039 BKN044 02/M01 Q0998=
200702050850 METAR ESMX 050850Z 26011KT 9999 FEW020 SCT042 BKN049 02/M01 Q0998 RERA=
200702050820 METAR ESMX 050820Z 25008KT 200V270 9999 FEW018 BKN020 02/M01 Q0999=
200702050750 METAR ESMX 050750Z 23007KT 200V260 9999 FEW021 SCT026 BKN032 02/M00 Q0999=
200702050650 METAR ESMX 050650Z 23008KT 190V260 9999 SCT017 01/M00 Q1000=
200702050620 METAR ESMX 050620Z 24008KT 9999 BKN015 02/00 Q1001=
200702050550 METAR ESMX 050550Z 24007KT 9999 FEW018 SCT030 02/00 Q1001=
200702050520 METAR ESMX 050520Z 25009KT 9999 FEW011 SCT027 BKN030 03/01 Q1002=
200702050450 METAR ESMX 050450Z 25008KT 9999 FEW014 OVC030 02/01 Q1002=
200702050420 METAR ESMX 050420Z 24007KT 9999 FEW020 SCT030 OVC034 02/00 Q1003=
200702050350 METAR ESMX 050350Z AUTO 24007KT 9999NDV FEW023/// OVC028/// 02/00 Q1004=
200702050320 METAR ESMX 050320Z AUTO 26008KT 9999NDV BKN027/// 02/00 Q1004=
200702050250 METAR ESMX 050250Z AUTO 24008KT 210V280 9999NDV NCD 02/01 Q1005=
200702050220 METAR ESMX 050220Z AUTO 26010KT 9999NDV FEW034/// 02/01 Q1005=
200702050150 METAR ESMX 050150Z 27009KT 240V300 9999 FEW017 SCT035 03/01 Q1006=
200702050120 METAR ESMX 050120Z 27008KT 9999 FEW017 BKN022 03/01 Q1006=
200702050050 METAR ESMX 050050Z 25008KT 230V290 9999 FEW013 SCT018 BKN020 03/02 Q1007=
200702050020 METAR ESMX 050020Z 26009KT 9999 FEW011 BKN016 BKN023 04/02 Q1007=
200702042350 METAR ESMX 042350Z 26006KT 9999 FEW014 SCT017 BKN030 04/03 Q1008=
200702042320 METAR ESMX 042320Z 24007KT 9999 SCT016 04/03 Q1008=
200702042250 METAR ESMX 042250Z 26010KT 9999 FEW009 SCT017 BKN022 04/03 Q1009=
200702042220 METAR ESMX 042220Z 26009KT 9999 FEW007 SCT009 BKN012 04/03 Q1009=
200702042150 METAR ESMX 042150Z 27008KT 230V300 9999 FEW007 SCT009 BKN011 05/04 Q1010=
200702042120 METAR ESMX 042120Z 27007KT 230V290 9999 FEW007 SCT009 OVC010 05/04 Q1010=
200702042050 METAR ESMX 042050Z 26009KT 9999 SCT007 BKN010 OVC012 05/04 Q1010=
200702042020 METAR ESMX 042020Z 24009KT 210V290 9999 FEW007 OVC009 05/04 Q1011=
200702041950 METAR ESMX 041950Z 26008KT 210V290 9999 FEW009 OVC010 05/04 Q1011=
200702041920 METAR ESMX 041920Z 25005KT 9999 BKN012 OVC021 05/04 Q1012=
200702041850 METAR ESMX 041850Z 26006KT 9999 FEW016 OVC019 05/04 Q1012=
200702041820 METAR ESMX 041820Z 26008KT 9999 FEW013 OVC016 05/04 Q1013=
200702041750 METAR ESMX 041750Z 27009KT 9999 FEW012 OVC018 05/04 Q1013=
200702041720 METAR ESMX 041720Z 27009KT 9999 FEW016 OVC019 06/04 Q1014=
200702041650 METAR ESMX 041650Z 26009KT 9999 FEW013 OVC018 06/04 Q1014=
200702041620 METAR ESMX 041620Z 26008KT 220V290 9999 OVC013 06/04 Q1014=
200702041550 METAR ESMX 041550Z 27007KT 9999 BKN014 OVC018 06/03 Q1015=
200702041520 METAR ESMX 041520Z 27008KT 240V300 9999 OVC015 06/03 Q1015=
200702041450 METAR ESMX 041450Z 27009KT 250V320 9999 OVC015 06/03 Q1015=
200702041420 METAR ESMX 041420Z 29012KT 240V310 9999 BKN014 06/03 Q1016=
200702041320 METAR ESMX 041320Z 27011KT 210V320 9999 BKN015 06/03 Q1016=
200702041250 METAR ESMX 041250Z 28012KT 9999 BKN015 06/03 Q1016=
200702041220 METAR ESMX 041220Z AUTO 28011G21KT 240V300 9999NDV OVC013/// 06/03 Q1016=
200702041150 METAR ESMX 041150Z AUTO 28012KT 250V310 9999NDV BKN011/// 06/03 Q1017=
200702041120 METAR ESMX 041120Z AUTO 27010KT 240V310 9999NDV BKN012/// 05/03 Q1017=
200702041050 METAR ESMX 041050Z AUTO 26012KT 9999NDV OVC011/// 05/03 Q1017=
200702041020 METAR ESMX 041020Z AUTO 28011KT 9999NDV OVC010/// 05/03 Q1018=
200702040950 METAR ESMX 040950Z AUTO 28009KT 250V310 9999NDV OVC009/// 04/03 Q1018=
200702040920 METAR ESMX 040920Z AUTO 27009KT 9999NDV FEW008/// BKN009/// OVC013/// 04/03 Q1018=
200702040850 METAR ESMX 040850Z AUTO 27007KT 230V290 9999NDV FEW006/// SCT008/// BKN009/// 04/03 Q1019=
200702040820 METAR ESMX 040820Z AUTO 25006KT 200V280 9999NDV FEW005/// BKN007/// OVC009/// 04/03 Q1019=
200702040750 METAR ESMX 040750Z AUTO 26006KT 240V330 9999NDV FEW003/// OVC005/// 03/03 Q1019=
200702040720 METAR ESMX 040720Z AUTO 27006KT 230V300 8000NDV BR OVC001/// 03/03 Q1020=
200702040650 METAR ESMX 040650Z AUTO 24006KT 3500NDV OVC001/// 03/03 Q1020=
200702040620 METAR ESMX 040620Z AUTO 27007KT 1600NDV OVC001/// 03/03 Q1020=
200702040550 METAR ESMX 040550Z AUTO 27007KT 0750NDV R01/1800U R19/1900N FG VV001 03/03 Q1020=
200702040520 METAR ESMX 040520Z AUTO 27007KT 230V290 0600NDV R01/1500N R19/1700N FG VV001 03/03 Q1021=
200702040450 METAR ESMX 040450Z AUTO 27009KT 230V290 0500NDV R01/1300N R19/1500N FG VV001 03/03 Q1021=
200702040420 METAR ESMX 040420Z AUTO 26007KT 230V290 0450NDV R01/1200N R19/1300D FG VV001 02/02 Q1021=
200702040350 METAR ESMX 040350Z AUTO 26009KT 0450NDV R01/1200N R19/1300N FG VV001 02/02 Q1022=
200702040320 METAR ESMX 040320Z AUTO 26007KT 0300NDV R01/0900N R19/1000N FG VV001 01/01 Q1022=
200702040250 METAR ESMX 040250Z AUTO 25006KT 0550NDV R01/1200VP2000D R19/1300VP2000D FG VV002 01/00 Q1022=
200702040220 METAR ESMX 040220Z AUTO 22004KT 9999NDV OVC002/// 00/M00 Q1022=
200702040150 METAR ESMX 040150Z AUTO 22004KT 200V260 9999NDV BKN003/// M00/M01 Q1023=
200702040120 METAR ESMX 040120Z AUTO 24005KT 9999NDV NCD M02/M03 Q1023=
200702040050 METAR ESMX 040050Z AUTO 23005KT 9999NDV NCD M02/M03 Q1023=
200702040020 METAR ESMX 040020Z AUTO 22004KT 9999NDV NCD M02/M03 Q1023=
200702032350 METAR ESMX 032350Z AUTO 23004KT 9999NDV NCD M01/M03 Q1024=
200702032320 METAR ESMX 032320Z AUTO 25003KT 9999NDV FEW061/// M01/M03 Q1024=
200702032250 METAR ESMX 032250Z AUTO 25004KT 9999NDV FEW060/// M01/M03 Q1024=
200702032220 METAR ESMX 032220Z AUTO 26005KT 9999NDV FEW061/// M00/M03 Q1024=
200702032150 METAR ESMX 032150Z AUTO 27004KT 9999NDV NCD 01/M03 Q1024=
200702032120 METAR ESMX 032120Z AUTO 28005KT 9999NDV NCD 01/M03 Q1024=
200702032050 METAR ESMX 032050Z AUTO 28006KT 9999NDV NCD 01/M03 Q1024=
200702032020 METAR ESMX 032020Z AUTO 29006KT 9999NDV NCD 01/M03 Q1024=
200702031950 METAR ESMX 031950Z AUTO 29006KT 9999NDV NCD 01/M03 Q1023=
200702031920 METAR ESMX 031920Z AUTO 30006KT 9999NDV NCD 01/M03 Q1023=
200702031850 METAR ESMX 031850Z AUTO 27005KT 9999NDV NCD 01/M03 Q1023=
200702031820 METAR ESMX 031820Z AUTO 31003KT 9999NDV NCD 02/M03 Q1023=
200702031750 METAR ESMX 031750Z AUTO 31004KT 9999NDV NCD 01/M03 Q1023=
200702031720 METAR ESMX 031720Z AUTO 31005KT 9999NDV NCD 02/M03 Q1022=
200702031650 METAR ESMX 031650Z AUTO 30005KT 9999NDV NCD 03/M03 Q1022=
200702031620 METAR ESMX 031620Z AUTO 30006KT 9999NDV NCD 03/M03 Q1022=
200702031550 METAR ESMX 031550Z AUTO 31008KT 9999NDV NCD 04/M03 Q1021=
200702031520 METAR ESMX 031520Z AUTO 30009KT 280V340 9999NDV NCD 05/M03 Q1021=
200702031450 METAR ESMX 031450Z AUTO 30008KT 270V330 9999NDV NCD 05/M03 Q1021=
200702031420 METAR ESMX 031420Z AUTO 31011KT 9999NDV NCD 06/M03 Q1021=
200702031350 METAR ESMX 031350Z AUTO 31012KT 280V340 9999NDV NCD 06/M02 Q1020=
200702031320 METAR ESMX 031320Z AUTO 31013KT 290V350 9999NDV NCD 06/M02 Q1020=
200702031250 METAR ESMX 031250Z AUTO 31013KT 290V350 9999NDV NCD 06/M03 Q1020=
200702031220 METAR ESMX 031220Z AUTO 31011KT 9999NDV NCD 06/M02 Q1020=
200702031150 METAR ESMX 031150Z AUTO 30011KT 250V330 9999NDV NCD 06/M01 Q1020=
200702031120 METAR ESMX 031120Z AUTO 31011KT 280V350 9999NDV NCD 05/M02 Q1019=
200702031050 METAR ESMX 031050Z AUTO 31011KT 290V020 9999NDV NCD 05/M01 Q1019=
200702031020 METAR ESMX 031020Z AUTO 30011KT 9999NDV NCD 04/M02 Q1019=
200702030950 METAR ESMX 030950Z AUTO 30012KT 280V340 9999NDV NCD 03/M02 Q1019=
200702030920 METAR ESMX 030920Z AUTO 30013KT 9999NDV NCD 03/M02 Q1019=
200702030850 METAR ESMX 030850Z AUTO 30011KT 9999NDV NCD 02/M02 Q1018=
200702030820 METAR ESMX 030820Z AUTO 30009KT 270V330 9999NDV NCD 01/M02 Q1018=
200702030750 METAR ESMX 030750Z AUTO 29009KT 9999NDV NCD 01/M02 Q1018=
200702030720 METAR ESMX 030720Z AUTO 29008KT 9999NDV NCD 00/M02 Q1017=
200702030650 METAR ESMX 030650Z AUTO 29008KT 260V320 9999NDV NCD 00/M02 Q1017=
200702030620 METAR ESMX 030620Z AUTO 29004KT 260V320 9999NDV NCD 00/M02 Q1017=
200702030550 METAR ESMX 030550Z AUTO 31005KT 280V350 9999NDV NCD 00/M02 Q1016=
200702030520 METAR ESMX 030520Z AUTO 30009KT 9999NDV NCD 01/M01 Q1016=
200702030450 METAR ESMX 030450Z AUTO 28008KT 250V320 9999NDV NCD 01/M01 Q1015=
200702030420 METAR ESMX 030420Z AUTO 30006KT 240V330 9999NDV NCD 01/M01 Q1015=
200702030350 METAR ESMX 030350Z AUTO 30005KT 9999NDV NCD 01/M01 Q1014=
200702030320 METAR ESMX 030320Z AUTO 30007KT 9999NDV NCD 01/M01 Q1014=
200702030250 METAR ESMX 030250Z AUTO 30007KT 9999NDV NCD 01/M01 Q1013=
200702030220 METAR ESMX 030220Z AUTO 29008KT 9999NDV NCD 01/M00 Q1013=
200702030150 METAR ESMX 030150Z AUTO 30011KT 260V340 9999NDV NCD 02/M00 Q1013=
200702030120 METAR ESMX 030120Z AUTO 30010KT 280V340 9999NDV NCD 02/00 Q1012=
200702030050 METAR ESMX 030050Z AUTO 30011KT 270V330 9999NDV NCD 02/00 Q1012=
200702030020 METAR ESMX 030020Z AUTO 29011KT 9999NDV NCD 02/01 Q1011=
200702022350 METAR ESMX 022350Z AUTO 30010KT 260V330 9999NDV NCD 03/01 Q1011=
200702022320 METAR ESMX 022320Z AUTO 30012KT 280V350 9999NDV FEW012/// SCT022/// 03/02 Q1010=
200702022250 METAR ESMX 022250Z AUTO 30012KT 9999NDV FEW013/// BKN016/// 03/02 Q1010=
200702022220 METAR ESMX 022220Z AUTO 32015KT 280V350 9999NDV FEW014/// SCT017/// BKN020/// 04/02 Q1010=
200702022150 METAR ESMX 022150Z AUTO 31017KT 9999NDV FEW016/// BKN020/// 04/02 Q1009=
200702022120 METAR ESMX 022120Z AUTO 32017KT 9999NDV FEW017/// BKN020/// 04/02 Q1008=
200702022050 METAR ESMX 022050Z AUTO 31020G31KT 280V340 9999NDV FEW013/// BKN017/// BKN021/// 05/03 Q1007 RERA REDZ REUP=
200702022020 METAR ESMX 022020Z AUTO 31015KT 9999NDV -RA FEW009/// SCT013/// BKN016/// 04/03 Q1005 REDZ=
200702021950 METAR ESMX 021950Z AUTO 26011G21KT 240V320 7000NDV -RA FEW009/// OVC011/// 05/04 Q1005=
200702021920 METAR ESMX 021920Z AUTO 26012KT 8000NDV -RA FEW007/// BKN010/// OVC014/// 05/04 Q1005 REUP REDZ=
200702021850 METAR ESMX 021850Z AUTO 26012KT 230V300 9999NDV FEW007/// SCT009/// OVC010/// 05/04 Q1005 RERA REDZ=
200702021820 METAR ESMX 021820Z 24010KT 9999 -RA FEW006 BKN012 06/05 Q1005=
200702021750 METAR ESMX 021750Z 22010KT 9999 -RA FEW005 BKN008 06/05 Q1006=
200702021720 METAR ESMX 021720Z 21009KT 9000 -RA FEW006 OVC010 06/05 Q1007=
200702021650 METAR ESMX 021650Z 22011KT 190V250 9999 -RA FEW008 OVC014 06/05 Q1008=
200702021620 METAR ESMX 021620Z 23010KT 9999 -RA FEW005 BKN015 06/05 Q1009=
200702021550 METAR ESMX 021550Z 24011KT 200V270 8000 RA OVC005 06/05 Q1010=
200702021520 METAR ESMX 021520Z 25010KT 210V270 9999 -RA OVC004 06/05 Q1010=
200702021450 METAR ESMX 021450Z 25011KT 9999 OVC003 06/05 Q1010=
200702021420 METAR ESMX 021420Z 25011KT 6000 BR OVC002 06/05 Q1011=
200702021350 METAR ESMX 021350Z 25009KT 210V290 3000 BR OVC002 05/05 Q1011=
200702021320 METAR ESMX 021320Z 25011KT 2000 R01/1900N R19/1900N BR OVC002 05/05 Q1012=
200702021250 METAR ESMX 021250Z 23009KT 190V270 3000 BR OVC002 06/05 Q1013=
200702021220 METAR ESMX 021220Z 24009KT 7000 BR OVC003 06/05 Q1013=
200702021150 METAR ESMX 021150Z 25009KT 200V280 7000 BR OVC002 06/05 Q1013=
200702021120 METAR ESMX 021120Z 24010KT 190V290 5000 BR OVC002 06/05 Q1014=
200702021050 METAR ESMX 021050Z 24009KT 210V270 9000 BR OVC003 06/05 Q1015=
200702021020 METAR ESMX 021020Z 26009KT 220V290 6000 BR BKN002 05/05 Q1015=
200702020950 METAR ESMX 020950Z 25008KT 4800 BR BKN002 05/05 Q1015=
200702020920 METAR ESMX 020920Z 24007KT 2200 BR OVC002 04/04 Q1016=
200702020850 METAR ESMX 020850Z 23007KT 1800 BR OVC002 04/04 Q1016=
200702020820 METAR ESMX 020820Z 21006KT 1800 BR OVC002 04/04 Q1016=
200702020750 METAR ESMX 020750Z 23006KT 2000 BR BKN002 03/03 Q1017=
200702020720 METAR ESMX 020720Z 23006KT 1000 R01/1800N R19/1800U FG VV002 03/03 Q1017=
200702020650 METAR ESMX 020650Z 21005KT 0600 R01/1400N R19/1400N FG VV002 03/03 Q1017=
200702020620 METAR ESMX 020620Z 23006KT 0500 R01/1400N R19/1400N FG VV002 03/03 Q1017=
200702020550 METAR ESMX 020550Z 21005KT 0600 R01/1300VP2000U R19/1600N FG VV002 03/03 Q1017=
200702020520 METAR ESMX 020520Z 21005KT 0800 R01/1900N R19/P2000N FG VV002 03/03 Q1018=
200702020450 METAR ESMX 020450Z 20005KT 1400 R01/P2000N R19/P2000N BR OVC002 02/02 Q1018=
200702020420 METAR ESMX 020420Z AUTO 20004KT 1900NDV BR OVC001/// 02/02 Q1019=
200702020350 METAR ESMX 020350Z AUTO 19006KT 1900NDV OVC001/// 02/02 Q1019=
200702020320 METAR ESMX 020320Z AUTO VRB05KT 1300NDV R01/P2000N R19/P2000N OVC001/// 02/02 Q1019=
200702020250 METAR ESMX 020250Z AUTO 21004KT 0600NDV R01/1500U R19/1900D FG VV002 01/01 Q1019=
200702020220 METAR ESMX 020220Z AUTO 20005KT 0650NDV R01/1600N R19/1700U FG VV002 01/01 Q1019=
200702020150 METAR ESMX 020150Z AUTO 20005KT 0700NDV R01/1800D R19/1900N FG VV002 01/01 Q1020=
200702020120 METAR ESMX 020120Z AUTO 22006KT 1200NDV R01/P2000N R19/P2000N BR VV002 01/01 Q1020=
200702020050 METAR ESMX 020050Z 22005KT 3000 BR OVC001 01/01 Q1020=
200702020020 METAR ESMX 020020Z 20005KT 9000 BR BKN002 OVC010 01/00 Q1020=
200702012350 METAR ESMX 012350Z 21004KT 9999 FEW003 OVC007 00/00 Q1020=
200702012320 METAR ESMX 012320Z 18003KT 9999 FEW006 SCT008 OVC011 M00/M01 Q1020=
200702012250 METAR ESMX 012250Z 17003KT 9999 OVC011 M00/M01 Q1020=
200702012220 METAR ESMX 012220Z 17002KT 9999 BKN006 OVC009 M00/M01 Q1020=
200702012150 METAR ESMX 012150Z 17003KT 9999 OVC006 M00/M01 Q1021=
200702012120 METAR ESMX 012120Z 18003KT 9999 OVC005 M01/M01 Q1021=
200702012050 METAR ESMX 012050Z 24003KT 200V270 9999 FEW002 SCT006 M02/M02 Q1021=
200702011950 METAR ESMX 011950Z 16004KT CAVOK M01/M01 Q1021=
200702011920 METAR ESMX 011920Z 20002KT CAVOK M01/M02 Q1021=
200702011850 METAR ESMX 011850Z 19001KT CAVOK M00/M02 Q1021=
200702011820 METAR ESMX 011820Z 23003KT CAVOK 01/M01 Q1020=
200702011750 METAR ESMX 011750Z 23003KT CAVOK 01/M00 Q1020=
200702011720 METAR ESMX 011720Z 24003KT CAVOK 02/M00 Q1020=
200702011650 METAR ESMX 011650Z 22004KT CAVOK 02/00 Q1020=
200702011620 METAR ESMX 011620Z 24004KT CAVOK 02/M00 Q1020=
200702011550 METAR ESMX 011550Z 22004KT CAVOK 02/00 Q1020=
200702011520 METAR ESMX 011520Z 24003KT CAVOK 03/M00 Q1020=
200702011420 METAR ESMX 011420Z 28003KT CAVOK 04/00 Q1020=
200702011350 METAR ESMX 011350Z 26005KT CAVOK 04/M00 Q1020=
200702011320 METAR ESMX 011320Z 28004KT 250V320 CAVOK 05/00 Q1019=
200702011250 METAR ESMX 011250Z 28004KT 250V320 CAVOK 04/00 Q1019=
200702011220 METAR ESMX 011220Z 28004KT CAVOK 04/00 Q1019=
