##########################################################
# Query made at 04/19/2024 20:57:04 UTC
# Time interval: from 04/01/2007 12:00  to 04/30/2007 12:59  UTC
##########################################################

##########################################################
# ESMX, Vaxjo (Sweden)
# WMO index: 02641. WIGOS ID: 0-20000-0-02648
# Latitude 56-51N. Longitude 014-50E. Altitude 199 m.
##########################################################

200704301250 METAR ESMX 301250Z 34007KT 320V020 CAVOK 12/M03 Q1021=
200704301220 METAR ESMX 301220Z 36008KT CAVOK 11/M04 Q1021=
200704301150 METAR ESMX 301150Z 01008KT 330V050 CAVOK 12/M04 Q1021=
200704301120 METAR ESMX 301120Z 03006KT 340V130 CAVOK 11/M04 Q1021=
200704301050 METAR ESMX 301050Z 01007KT 330V070 CAVOK 11/M05 Q1022=
200704301020 METAR ESMX 301020Z 02007KT 330V070 CAVOK 11/M05 Q1022=
200704300950 METAR ESMX 300950Z 02008KT 330V070 CAVOK 10/M05 Q1022=
200704300820 METAR ESMX 300820Z 01010KT 340V050 CAVOK 09/M07 Q1022=
200704300750 METAR ESMX 300750Z 05008KT 010V070 CAVOK 09/M06 Q1022=
200704300720 METAR ESMX 300720Z 05009KT 020V090 CAVOK 08/M07 Q1022=
200704300650 METAR ESMX 300650Z 03011KT CAVOK 08/M08 Q1022=
200704300620 METAR ESMX 300620Z AUTO 04008KT 360V090 9999NDV NCD 08/M08 Q1022=
200704300550 METAR ESMX 300550Z AUTO 04008KT 010V080 9999NDV FEW023/// SCT037/// 08/M03 Q1022=
200704300450 METAR ESMX 300450Z AUTO 03009KT 9999NDV BKN040/// 08/03 Q1021=
200704300420 METAR ESMX 300420Z AUTO 03007KT 9999NDV FEW039/// BKN056/// 07/03 Q1021=
200704300350 METAR ESMX 300350Z AUTO 03007KT 9999NDV FEW037/// SCT058/// 07/03 Q1020=
200704300320 METAR ESMX 300320Z AUTO 03006KT 9999NDV FEW051/// 07/03 Q1020=
200704300220 METAR ESMX 300220Z AUTO 36007KT 9999NDV FEW050/// 06/03 Q1019=
200704300150 METAR ESMX 300150Z AUTO 34005KT 9999NDV BKN051/// 05/02 Q1019=
200704300120 METAR ESMX 300120Z AUTO 34003KT 9999NDV SCT063/// 06/02 Q1019=
200704300050 METAR ESMX 300050Z AUTO 32005KT 9999NDV FEW067/// 06/02 Q1019=
200704300020 METAR ESMX 300020Z AUTO 31005KT 9999NDV FEW072/// 07/02 Q1019=
200704292350 METAR ESMX 292350Z 31005KT 9999 SCT072 07/02 Q1019=
200704292250 METAR ESMX 292250Z 30006KT CAVOK 08/02 Q1019=
200704292220 METAR ESMX 292220Z 30007KT 270V330 CAVOK 09/02 Q1019=
200704292150 METAR ESMX 292150Z 30008KT CAVOK 09/02 Q1020=
200704292120 METAR ESMX 292120Z 30006KT CAVOK 09/02 Q1020=
200704292050 METAR ESMX 292050Z 29004KT CAVOK 08/01 Q1020=
200704292020 METAR ESMX 292020Z 30004KT CAVOK 08/01 Q1020=
200704291950 METAR ESMX 291950Z 31005KT CAVOK 10/01 Q1020=
200704291920 METAR ESMX 291920Z 32006KT CAVOK 10/01 Q1020=
200704291850 METAR ESMX 291850Z 33005KT CAVOK 10/01 Q1020=
200704291820 METAR ESMX 291820Z 35006KT CAVOK 12/M00 Q1020=
200704291750 METAR ESMX 291750Z 36011KT CAVOK 14/M02 Q1020=
200704291720 METAR ESMX 291720Z 35011KT CAVOK 15/M01 Q1020=
200704291650 METAR ESMX 291650Z 34012KT CAVOK 15/M02 Q1020=
200704291620 METAR ESMX 291620Z 34014KT CAVOK 15/M02 Q1020=
200704291550 METAR ESMX 291550Z 35014KT CAVOK 16/M01 Q1021=
200704291520 METAR ESMX 291520Z 34013KT 290V010 CAVOK 16/M02 Q1021=
200704291450 METAR ESMX 291450Z 35013KT CAVOK 16/M02 Q1021=
200704291350 METAR ESMX 291350Z 34011KT CAVOK 16/M01 Q1022=
200704291320 METAR ESMX 291320Z 31011KT 270V360 CAVOK 16/M01 Q1022=
200704291250 METAR ESMX 291250Z 31009KT 260V350 CAVOK 15/00 Q1023=
200704291220 METAR ESMX 291220Z 33009KT 290V020 CAVOK 15/M01 Q1024=
200704291150 METAR ESMX 291150Z 29009KT 250V330 CAVOK 15/01 Q1024=
200704291120 METAR ESMX 291120Z 31008KT 270V330 9999 FEW048 SCT068 13/02 Q1025=
200704291050 METAR ESMX 291050Z 30008KT 240V340 9999 FEW046 SCT067 14/01 Q1025=
200704291020 METAR ESMX 291020Z 32010KT 9999 FEW044 SCT052 BKN068 11/00 Q1026=
200704290950 METAR ESMX 290950Z AUTO 31008KT 280V360 9999NDV FEW043/// BKN053/// 12/00 Q1026=
200704290920 METAR ESMX 290920Z AUTO 30005KT 230V010 9999NDV SCT043/// BKN060/// 11/01 Q1027=
200704290850 METAR ESMX 290850Z AUTO 32006KT 250V020 9999NDV FEW045/// 11/M00 Q1027=
200704290820 METAR ESMX 290820Z AUTO 29005KT 210V350 9999NDV NCD 10/00 Q1027=
200704290750 METAR ESMX 290750Z AUTO 32005KT 270V010 9999NDV NCD 10/M00 Q1028=
200704290720 METAR ESMX 290720Z AUTO 32005KT 290V350 9999NDV SCT061/// 08/M01 Q1028=
200704290650 METAR ESMX 290650Z AUTO 30006KT 9999NDV BKN062/// 07/M03 Q1029=
200704290620 METAR ESMX 290620Z AUTO 34004KT 9999NDV FEW062/// 06/M03 Q1029=
200704290550 METAR ESMX 290550Z AUTO 30003KT 9999NDV NCD 05/M02 Q1029=
200704290520 METAR ESMX 290520Z AUTO 00000KT 9999NDV NCD 04/00 Q1029=
200704290450 METAR ESMX 290450Z AUTO 21001KT 9999NDV NCD M01/M01 Q1029=
200704290420 METAR ESMX 290420Z AUTO 22001KT 9999NDV NCD M03/M03 Q1029=
200704290320 METAR ESMX 290320Z AUTO 23001KT 9999NDV NCD M03/M04 Q1029=
200704290250 METAR ESMX 290250Z AUTO 00000KT 9999NDV NCD M03/M04 Q1029=
200704290220 METAR ESMX 290220Z AUTO 23002KT 9999NDV NCD M03/M04 Q1029=
200704290150 METAR ESMX 290150Z AUTO 23002KT 9999NDV NCD M02/M04 Q1029=
200704290120 METAR ESMX 290120Z AUTO VRB01KT 9999NDV NCD M02/M04 Q1029=
200704290020 METAR ESMX 290020Z AUTO 00000KT 9999NDV NCD M01/M03 Q1029=
200704282350 METAR ESMX 282350Z AUTO VRB02KT 9999NDV NCD 00/M03 Q1029=
200704282320 METAR ESMX 282320Z AUTO VRB02KT 9999NDV NCD 02/M03 Q1029=
200704282250 METAR ESMX 282250Z AUTO VRB02KT 9999NDV NCD 03/M03 Q1029=
200704282220 METAR ESMX 282220Z AUTO 08003KT 030V150 9999NDV NCD 03/M03 Q1029=
200704282150 METAR ESMX 282150Z AUTO 08003KT 040V110 9999NDV NCD 04/M02 Q1029=
200704282050 METAR ESMX 282050Z AUTO 08003KT 030V120 9999NDV BKN058/// 05/M02 Q1029=
200704282020 METAR ESMX 282020Z AUTO 07003KT 030V120 9999NDV FEW051/// 06/M02 Q1029=
200704281950 METAR ESMX 281950Z AUTO 08003KT 040V130 9999NDV NCD 06/M01 Q1029=
200704281920 METAR ESMX 281920Z AUTO 07005KT 010V140 9999NDV FEW045/// 07/M00 Q1028=
200704281850 METAR ESMX 281850Z AUTO 07006KT 030V110 9999NDV NCD 08/00 Q1028=
200704281750 METAR ESMX 281750Z AUTO 09009KT 040V130 9999NDV NCD 10/01 Q1027=
200704281720 METAR ESMX 281720Z AUTO 09009KT 040V140 9999NDV NCD 11/00 Q1026=
200704281650 METAR ESMX 281650Z AUTO 08008KT 040V110 9999NDV NCD 12/01 Q1026=
200704281620 METAR ESMX 281620Z AUTO 09007KT 030V140 9999NDV NCD 13/01 Q1026=
200704281550 METAR ESMX 281550Z AUTO 07009KT 040V120 9999NDV FEW075/// 14/02 Q1026=
200704281520 METAR ESMX 281520Z AUTO 09008KT 050V130 9999NDV BKN068/// 15/02 Q1026=
200704281450 METAR ESMX 281450Z AUTO 02008KT 340V060 9999NDV SCT067/// 17/M00 Q1025=
200704281420 METAR ESMX 281420Z AUTO 02011KT 350V100 9999NDV FEW066/// 17/01 Q1025=
200704281350 METAR ESMX 281350Z AUTO 07007KT 010V110 9999NDV FEW067/// 17/M00 Q1025=
200704281320 METAR ESMX 281320Z AUTO 03009KT 340V080 9999NDV NCD 18/M00 Q1026=
200704281250 METAR ESMX 281250Z AUTO 03006KT 350V080 9999NDV NCD 17/M00 Q1026=
200704281220 METAR ESMX 281220Z AUTO 03010KT 9999NDV NCD 16/00 Q1026=
200704281150 METAR ESMX 281150Z AUTO 04008KT 020V090 9999NDV NCD 16/01 Q1026=
200704281120 METAR ESMX 281120Z AUTO 01006KT 330V040 9999NDV NCD 16/02 Q1026=
200704281050 METAR ESMX 281050Z AUTO 01008KT 340V050 9999NDV NCD 16/01 Q1026=
200704281020 METAR ESMX 281020Z AUTO 04008KT 360V080 9999NDV NCD 15/01 Q1026=
200704280950 METAR ESMX 280950Z AUTO 04009KT 010V080 9999NDV NCD 15/01 Q1026=
200704280850 METAR ESMX 280850Z AUTO 05007KT 020V110 9999NDV NCD 14/01 Q1026=
200704280820 METAR ESMX 280820Z AUTO 07007KT 030V110 9999NDV NCD 13/01 Q1026=
200704280750 METAR ESMX 280750Z AUTO 04008KT 010V100 9999NDV NCD 13/01 Q1026=
200704280720 METAR ESMX 280720Z AUTO 05010KT 020V080 9999NDV NCD 13/01 Q1026=
200704280650 METAR ESMX 280650Z AUTO 05010KT 020V080 9999NDV NCD 12/01 Q1026=
200704280620 METAR ESMX 280620Z AUTO 05008KT 010V100 9999NDV NCD 12/02 Q1025=
200704280550 METAR ESMX 280550Z AUTO 04009KT 010V070 9999NDV NCD 11/02 Q1025=
200704280520 METAR ESMX 280520Z AUTO 05010KT 020V080 9999NDV NCD 10/02 Q1025=
200704280450 METAR ESMX 280450Z AUTO 04011KT 9999NDV NCD 10/02 Q1025=
200704280420 METAR ESMX 280420Z AUTO 04011KT 9999NDV NCD 10/03 Q1024=
200704280350 METAR ESMX 280350Z AUTO 03010KT 9999NDV NCD 10/03 Q1024=
200704280320 METAR ESMX 280320Z AUTO 03007KT 9999NDV NCD 10/04 Q1024=
200704280250 METAR ESMX 280250Z AUTO 03006KT 9999NDV NCD 10/05 Q1024=
200704280220 METAR ESMX 280220Z AUTO 03007KT 9999NDV NCD 10/05 Q1023=
200704280150 METAR ESMX 280150Z AUTO 36004KT 9999NDV NCD 08/06 Q1023=
200704280120 METAR ESMX 280120Z AUTO 01003KT 9999NDV NCD 08/07 Q1023=
200704280050 METAR ESMX 280050Z AUTO 36003KT 9999NDV NCD 08/07 Q1023=
200704280020 METAR ESMX 280020Z AUTO 01003KT 9999NDV NCD 09/08 Q1023=
200704272250 METAR ESMX 272250Z AUTO 00000KT 9999NDV NCD 08/06 Q1023=
200704272220 METAR ESMX 272220Z AUTO 00000KT 9999NDV NCD 08/07 Q1023=
200704272150 METAR ESMX 272150Z AUTO 00000KT 9999NDV NCD 10/07 Q1023=
200704272120 METAR ESMX 272120Z AUTO 00000KT 9999NDV NCD 10/07 Q1023=
200704272050 METAR ESMX 272050Z AUTO 04002KT 9999NDV NCD 12/08 Q1023=
200704272020 METAR ESMX 272020Z AUTO 07004KT 040V110 9999NDV NCD 14/08 Q1022=
200704271950 METAR ESMX 271950Z AUTO 06005KT 030V100 9999NDV NCD 15/08 Q1022=
200704271920 METAR ESMX 271920Z AUTO 08004KT 9999NDV NCD 17/08 Q1022=
200704271850 METAR ESMX 271850Z AUTO 03006KT 9999NDV NCD 18/09 Q1021=
200704271820 METAR ESMX 271820Z AUTO 34008KT 9999NDV NCD 18/09 Q1021=
200704271750 METAR ESMX 271750Z 01009KT CAVOK 20/08 Q1021=
200704271720 METAR ESMX 271720Z 34005KT CAVOK 22/03 Q1020=
200704271620 METAR ESMX 271620Z 29006KT CAVOK 24/02 Q1021=
200704271550 METAR ESMX 271550Z 32006KT CAVOK 24/02 Q1021=
200704271520 METAR ESMX 271520Z 30005KT CAVOK 24/03 Q1021=
200704271450 METAR ESMX 271450Z 28006KT CAVOK 24/02 Q1021=
200704271350 METAR ESMX 271350Z 28007KT CAVOK 23/03 Q1021=
200704271320 METAR ESMX 271320Z 26005KT CAVOK 23/03 Q1021=
200704271250 METAR ESMX 271250Z 31009KT CAVOK 23/03 Q1022=
200704271220 METAR ESMX 271220Z 31008KT 260V050 CAVOK 23/04 Q1022=
200704271150 METAR ESMX 271150Z 28008KT 250V310 CAVOK 22/04 Q1022=
200704271050 METAR ESMX 271050Z 29007KT CAVOK 22/08 Q1022=
200704271020 METAR ESMX 271020Z 28005KT CAVOK 21/09 Q1022=
200704270950 METAR ESMX 270950Z 32004KT CAVOK 20/10 Q1023=
200704270920 METAR ESMX 270920Z 28005KT 240V320 CAVOK 19/09 Q1023=
200704270850 METAR ESMX 270850Z VRB02KT CAVOK 18/09 Q1023=
200704270750 METAR ESMX 270750Z 29004KT 270V330 CAVOK 16/07 Q1023=
200704270720 METAR ESMX 270720Z 29006KT 260V320 CAVOK 15/07 Q1023=
200704270650 METAR ESMX 270650Z 27005KT CAVOK 15/07 Q1023=
200704270620 METAR ESMX 270620Z 27005KT CAVOK 14/06 Q1023=
200704270550 METAR ESMX 270550Z 23003KT 180V270 CAVOK 13/06 Q1023=
200704270520 METAR ESMX 270520Z 20003KT CAVOK 11/06 Q1023=
200704270450 METAR ESMX 270450Z 21003KT CAVOK 09/06 Q1023=
200704270420 METAR ESMX 270420Z 00000KT CAVOK 06/05 Q1023=
200704270350 METAR ESMX 270350Z 22002KT CAVOK 06/04 Q1023=
200704270320 METAR ESMX 270320Z AUTO 20003KT 9999NDV NCD 08/05 Q1022=
200704270250 METAR ESMX 270250Z AUTO 20003KT 9999NDV NCD 07/05 Q1023=
200704270220 METAR ESMX 270220Z AUTO 21003KT 9999NDV NCD 07/05 Q1023=
200704270150 METAR ESMX 270150Z AUTO 21003KT 9999NDV NCD 08/05 Q1023=
200704270050 METAR ESMX 270050Z AUTO 21003KT 9999NDV NCD 09/06 Q1023=
200704270020 METAR ESMX 270020Z 21005KT 9999NDV NCD 08/05 Q1023=
200704262350 METAR ESMX 262350Z 17003KT CAVOK 09/05 Q1023=
200704262320 METAR ESMX 262320Z 20003KT CAVOK 10/06 Q1023=
200704262250 METAR ESMX 262250Z 21003KT CAVOK 10/05 Q1023=
200704262150 METAR ESMX 262150Z 23005KT CAVOK 11/05 Q1023=
200704262120 METAR ESMX 262120Z 21005KT CAVOK 12/05 Q1023=
200704262050 METAR ESMX 262050Z 18005KT CAVOK 13/05 Q1023=
200704262020 METAR ESMX 262020Z 20006KT CAVOK 13/06 Q1023=
200704261950 METAR ESMX 261950Z 18006KT CAVOK 15/06 Q1023=
200704261920 METAR ESMX 261920Z 19006KT CAVOK 14/06 Q1023=
200704261850 METAR ESMX 261850Z 19007KT CAVOK 16/07 Q1022=
200704261820 METAR ESMX 261820Z 19008KT CAVOK 17/07 Q1022=
200704261750 METAR ESMX 261750Z 18009KT CAVOK 19/08 Q1022=
200704261720 METAR ESMX 261720Z 17007KT CAVOK 20/08 Q1022=
200704261620 METAR ESMX 261620Z 18007KT CAVOK 22/08 Q1021=
200704261550 METAR ESMX 261550Z 17007KT CAVOK 22/08 Q1021=
200704261520 METAR ESMX 261520Z 20007KT CAVOK 22/09 Q1021=
200704261450 METAR ESMX 261450Z 20009KT CAVOK 23/09 Q1021=
200704261420 METAR ESMX 261420Z 20005KT 160V240 CAVOK 22/08 Q1022=
200704261350 METAR ESMX 261350Z 20007KT 160V240 CAVOK 23/08 Q1022=
200704261320 METAR ESMX 261320Z 22006KT CAVOK 23/09 Q1022=
200704261250 METAR ESMX 261250Z 20009KT CAVOK 23/08 Q1022=
200704261220 METAR ESMX 261220Z 18007KT 140V230 CAVOK 23/09 Q1022=
200704261150 METAR ESMX 261150Z 19007KT 140V280 CAVOK 22/09 Q1022=
200704261120 METAR ESMX 261120Z 21007KT 170V250 CAVOK 22/09 Q1022=
200704261050 METAR ESMX 261050Z 22005KT 110V280 9999 FEW047 22/10 Q1023=
200704261020 METAR ESMX 261020Z 20007KT 180V240 9999 SCT045 21/08 Q1023=
200704260950 METAR ESMX 260950Z VRB05KT CAVOK 20/08 Q1023=
200704260920 METAR ESMX 260920Z 21005KT 170V250 CAVOK 20/09 Q1023=
200704260850 METAR ESMX 260850Z VRB02KT CAVOK 18/09 Q1023=
200704260820 METAR ESMX 260820Z 15003KT 080V200 CAVOK 16/09 Q1023=
200704260720 METAR ESMX 260720Z 17003KT 130V200 CAVOK 12/08 Q1023=
200704260650 METAR ESMX 260650Z VRB01KT 8000 VCFG FEW001 09/08 Q1023=
200704260620 METAR ESMX 260620Z 00000KT 0800 R01/P2000U R19/0800V1200N BCFG BKN002 07/07 Q1023=
200704260550 METAR ESMX 260550Z VRB01KT 0200 R01/0400N R19/0400N FG VV002 06/06 Q1023=
200704260520 METAR ESMX 260520Z 00000KT 0200 R01/0175N R19/0200V0325N FG VV002 05/04 Q1023=
200704260450 METAR ESMX 260450Z 00000KT 0050 R01/0150N R19/0175N FG VV000 04/03 Q1023=
200704260420 METAR ESMX 260420Z 00000KT 0050 R01/0150N R19/0150N FG VV000 03/03 Q1023=
200704260350 METAR ESMX 260350Z 00000KT 0050 R01/0275N R19/0200N FG VV000 03/03 Q1023=
200704260320 METAR ESMX 260320Z AUTO 20003KT 170V230 0100NDV R01/0375 R19/0325N FG VV000 02/02 Q1023=
200704260250 METAR ESMX 260250Z AUTO 17002KT 0150NDV R01/0400V0550 R19/P2000N FG FEW003/// 01/01 Q1023=
200704260220 METAR ESMX 260220Z AUTO 00000KT 0100NDV R01/0325 R19/P2000U FG NCD 01/01 Q1023=
200704260150 METAR ESMX 260150Z AUTO VRB02KT 3100NDV BR NCD 02/01 Q1023=
200704260120 METAR ESMX 260120Z AUTO VRB02KT 5000NDV BR NCD 01/01 Q1023=
200704260050 METAR ESMX 260050Z AUTO 15004KT 9999NDV NCD 02/02 Q1023=
200704260020 METAR ESMX 260020Z AUTO VRB02KT 9000NDV NCD 03/02 Q1023=
200704252350 METAR ESMX 252350Z VRB02KT CAVOK 03/01 Q1023=
200704252250 METAR ESMX 252250Z VRB02KT CAVOK 05/03 Q1023=
200704252220 METAR ESMX 252220Z 13004G16KT CAVOK 06/04 Q1023=
200704252150 METAR ESMX 252150Z 15003KT CAVOK 06/04 Q1023=
200704252120 METAR ESMX 252120Z 16004KT CAVOK 07/05 Q1023=
200704252050 METAR ESMX 252050Z 17004KT CAVOK 06/04 Q1023=
200704252020 METAR ESMX 252020Z 18004KT CAVOK 07/04 Q1023=
200704251920 METAR ESMX 251920Z 18006KT CAVOK 10/06 Q1023=
200704251850 METAR ESMX 251850Z 18008KT CAVOK 13/06 Q1022=
200704251820 METAR ESMX 251820Z 17005KT CAVOK 14/06 Q1022=
200704251750 METAR ESMX 251750Z 18007KT CAVOK 15/06 Q1022=
200704251720 METAR ESMX 251720Z 18007KT CAVOK 16/06 Q1022=
200704251650 METAR ESMX 251650Z 17008KT 140V210 CAVOK 17/06 Q1022=
200704251620 METAR ESMX 251620Z 16008KT CAVOK 18/07 Q1022=
200704251550 METAR ESMX 251550Z 17008KT 120V200 9999 NSC 19/06 Q1022=
200704251450 METAR ESMX 251450Z 18007KT 120V210 CAVOK 19/06 Q1022=
200704251420 METAR ESMX 251420Z 17009KT 140V210 CAVOK 19/06 Q1022=
200704251350 METAR ESMX 251350Z 19007KT 140V240 CAVOK 19/05 Q1022=
200704251320 METAR ESMX 251320Z 19008KT 150V230 CAVOK 20/06 Q1023=
200704251250 METAR ESMX 251250Z 18008KT CAVOK 19/06 Q1023=
200704251220 METAR ESMX 251220Z 17007KT CAVOK 18/07 Q1023=
200704251150 METAR ESMX 251150Z 15007KT 110V200 CAVOK 19/06 Q1023=
200704251120 METAR ESMX 251120Z 17007KT 130V200 CAVOK 18/07 Q1023=
200704251050 METAR ESMX 251050Z 16008KT 130V210 CAVOK 18/07 Q1023=
200704251020 METAR ESMX 251020Z 15006KT 100V210 CAVOK 17/07 Q1023=
200704250950 METAR ESMX 250950Z 17006KT 080V210 CAVOK 17/07 Q1023=
200704250920 METAR ESMX 250920Z 17005KT 140V200 CAVOK 17/07 Q1023=
200704250850 METAR ESMX 250850Z 19006KT 110V230 CAVOK 16/06 Q1023=
200704250820 METAR ESMX 250820Z 18006KT 120V220 CAVOK 16/06 Q1023=
200704250750 METAR ESMX 250750Z 17006KT 140V200 CAVOK 14/08 Q1023=
200704250650 METAR ESMX 250650Z 14003KT 110V200 CAVOK 12/08 Q1023=
200704250550 METAR ESMX 250550Z 15003KT 100V180 6000 BR NSC 10/08 Q1023=
200704250520 METAR ESMX 250520Z 00000KT 3700 BR NSC 09/08 Q1023=
200704250450 METAR ESMX 250450Z 16003KT 130V190 3000 BR NSC 08/07 Q1022=
200704250420 METAR ESMX 250420Z 16003KT 6000 MIFG FEW035 08/07 Q1022=
200704250350 METAR ESMX 250350Z 15004KT 6000 BR SCT035 08/07 Q1022=
200704250320 METAR ESMX 250320Z AUTO 17003KT 3700NDV BR OVC039/// 08/07 Q1022=
200704250250 METAR ESMX 250250Z AUTO 16005KT 4200NDV BR BKN039/// 08/07 Q1022=
200704250220 METAR ESMX 250220Z AUTO 15003KT 4400NDV BR BKN039/// 08/07 Q1023=
200704250150 METAR ESMX 250150Z AUTO 16003KT 4200NDV BR OVC034/// 07/07 Q1023=
200704250120 METAR ESMX 250120Z AUTO 16003KT 3500NDV BR BKN035/// 06/06 Q1022=
200704250050 METAR ESMX 250050Z AUTO 17004KT 4900NDV BR FEW037/// 08/07 Q1022=
200704250020 METAR ESMX 250020Z AUTO 16005KT 5000NDV BR NCD 08/07 Q1022=
200704242350 METAR ESMX 242350Z 16004KT 7000 BR SCT040 09/07 Q1022=
200704242320 METAR ESMX 242320Z 16004KT 7000 BR BKN037 09/08 Q1022=
200704242250 METAR ESMX 242250Z 16005KT 7000 BR BKN035 10/08 Q1022=
200704242220 METAR ESMX 242220Z 16005KT 8000 BR BKN035 10/08 Q1022=
200704242150 METAR ESMX 242150Z 16005KT 9999 FEW036 10/08 Q1021=
200704242120 METAR ESMX 242120Z 16005KT CAVOK 10/08 Q1021=
200704242050 METAR ESMX 242050Z 16006KT CAVOK 11/09 Q1021=
200704242020 METAR ESMX 242020Z 16005KT CAVOK 12/09 Q1021=
200704241950 METAR ESMX 241950Z 16006KT CAVOK 13/09 Q1021=
200704241920 METAR ESMX 241920Z 14006KT CAVOK 14/10 Q1021=
200704241850 METAR ESMX 241850Z 27003KT CAVOK 12/09 Q1020=
200704241820 METAR ESMX 241820Z 23002KT CAVOK 15/09 Q1020=
200704241750 METAR ESMX 241750Z 21003KT CAVOK 17/09 Q1020=
200704241720 METAR ESMX 241720Z 22004KT CAVOK 18/09 Q1020=
200704241650 METAR ESMX 241650Z 19004KT 140V220 CAVOK 18/08 Q1020=
200704241620 METAR ESMX 241620Z 24003KT 190V280 CAVOK 19/08 Q1019=
200704241550 METAR ESMX 241550Z 22003KT 190V250 9999 FEW045 19/09 Q1019=
200704241520 METAR ESMX 241520Z 22005KT 170V280 9999 FEW045 19/09 Q1019=
200704241450 METAR ESMX 241450Z 18004KT 110V210 9999 FEW040 19/09 Q1019=
200704241420 METAR ESMX 241420Z 12004KT 9999 FEW040 19/09 Q1020=
200704241350 METAR ESMX 241350Z 08005KT 040V120 CAVOK 19/09 Q1019=
200704241320 METAR ESMX 241320Z 05003KT 330V100 CAVOK 19/09 Q1019=
200704241250 METAR ESMX 241250Z 05004KT 350V080 CAVOK 18/10 Q1019=
200704241220 METAR ESMX 241220Z VRB05KT CAVOK 17/09 Q1019=
200704241150 METAR ESMX 241150Z VRB04KT CAVOK 17/09 Q1020=
200704241120 METAR ESMX 241120Z VRB03KT 9999 FEW025 15/09 Q1020=
200704241050 METAR ESMX 241050Z 09004KT 030V170 9999 FEW020 14/09 Q1020=
200704241020 METAR ESMX 241020Z 09003KT 040V180 9999 SCT015 13/08 Q1020=
200704240950 METAR ESMX 240950Z VRB02KT 9999 OVC014 12/08 Q1020=
200704240920 METAR ESMX 240920Z 15003KT 100V200 9999 OVC013 12/08 Q1019=
200704240850 METAR ESMX 240850Z VRB03KT 9999 OVC012 12/09 Q1019=
200704240820 METAR ESMX 240820Z VRB02KT 9999 OVC011 11/08 Q1019=
200704240750 METAR ESMX 240750Z VRB01KT 9999 OVC010 11/08 Q1019=
200704240720 METAR ESMX 240720Z VRB02KT 9999 OVC010 10/08 Q1019=
200704240650 METAR ESMX 240650Z 02003KT 320V050 9999 OVC010 10/08 Q1018=
200704240620 METAR ESMX 240620Z 34003KT 300V020 9999 OVC010 10/08 Q1018=
200704240550 METAR ESMX 240550Z 35004KT 9999 OVC010 10/08 Q1018=
200704240520 METAR ESMX 240520Z 33004KT 300V020 9999 OVC012 10/08 Q1017=
200704240450 METAR ESMX 240450Z 31003KT 9000 BR OVC012 10/08 Q1017=
200704240420 METAR ESMX 240420Z 33003KT 4500 BR OVC011 09/08 Q1017=
200704240350 METAR ESMX 240350Z AUTO 32003KT 290V010 3500NDV BR OVC012/// 09/08 Q1017=
200704240320 METAR ESMX 240320Z AUTO 29003KT 2800NDV BR OVC012/// 09/08 Q1017=
200704240250 METAR ESMX 240250Z AUTO 31004KT 3600NDV BR OVC012/// 09/08 Q1017=
200704240220 METAR ESMX 240220Z AUTO 28003KT 240V320 2700NDV BR OVC010/// 09/08 Q1017=
200704240150 METAR ESMX 240150Z AUTO 27003KT 2400NDV BR OVC012/// 09/08 Q1016=
200704240120 METAR ESMX 240120Z AUTO 25002KT 2500NDV BR OVC013/// 09/08 Q1017=
200704240050 METAR ESMX 240050Z AUTO VRB01KT 2700NDV BR OVC015/// 09/08 Q1016=
200704240020 METAR ESMX 240020Z AUTO 27002KT 3200NDV BR OVC015/// 09/08 Q1016=
200704232350 METAR ESMX 232350Z 27003KT 240V300 4400 BR BKN015 09/08 Q1016=
200704232320 METAR ESMX 232320Z 32003KT 280V350 4300 BR FEW009 BKN010 OVC017 10/08 Q1016=
200704232250 METAR ESMX 232250Z 27004KT 4500 BR OVC011 10/09 Q1016=
200704232220 METAR ESMX 232220Z 27004KT 4700 BR FEW011 OVC015 10/09 Q1016=
200704232150 METAR ESMX 232150Z 28003KT 4700 BR OVC010 10/09 Q1016=
200704232120 METAR ESMX 232120Z 29003KT 250V320 4400 BR FEW006 OVC011 10/09 Q1016=
200704232050 METAR ESMX 232050Z 27004KT 3200 BR FEW006 BKN010 09/09 Q1016=
200704232020 METAR ESMX 232020Z 26004KT 3300 BR FEW006 BKN009 09/09 Q1016=
200704231950 METAR ESMX 231950Z 25004KT 3600 BR FEW006 BKN011 10/09 Q1016=
200704231920 METAR ESMX 231920Z 25003KT 4000 BR FEW007 BKN011 10/09 Q1016=
200704231850 METAR ESMX 231850Z 26003KT 4500 BR FEW007 BKN010 10/09 Q1016=
200704231750 METAR ESMX 231750Z 26005KT 5000 BR FEW007 BKN010 10/09 Q1015=
200704231720 METAR ESMX 231720Z 25005KT 230V290 5000 BR OVC007 10/09 Q1015=
200704231550 METAR ESMX 231550Z 25006KT 7000 BR OVC008 10/09 Q1015=
200704231520 METAR ESMX 231520Z 25007KT 8000 BR FEW008 OVC010 10/09 Q1015=
200704231320 METAR ESMX 231320Z 26007KT 8000 -RA FEW010 SCT026 BKN046 11/09 Q1016 REDZ=
200704231250 METAR ESMX 231250Z 28009KT 9000 DZ FEW020 SCT050 12/09 Q1016=
200704231150 METAR ESMX 231150Z 28010KT 9999 -RA FEW020 SCT050 12/08 Q1016=
200704231120 METAR ESMX 231120Z 28010KT 9999 FEW030 SCT045 BKN060 14/07 Q1015=
200704231050 METAR ESMX 231050Z 25007KT 220V290 9999 FEW045 14/07 Q1015=
200704231020 METAR ESMX 231020Z 27006G19KT 210V290 9999 SCT045 BKN150 14/07 Q1016=
200704230950 METAR ESMX 230950Z 29006KT 250V310 9999 FEW030 BKN050 12/05 Q1016=
200704230920 METAR ESMX 230920Z 22003KT 140V250 9999 FEW040 SCT050 11/05 Q1016=
200704230850 METAR ESMX 230850Z 22005KT 9999 FEW030 BKN060 10/04 Q1016=
200704230820 METAR ESMX 230820Z 21005KT 9999 FEW025 SCT070 10/03 Q1016=
200704230750 METAR ESMX 230750Z 19006KT 9999 FEW032 BKN070 10/02 Q1016=
200704230720 METAR ESMX 230720Z 21005KT CAVOK 09/02 Q1016=
200704230650 METAR ESMX 230650Z 21007KT CAVOK 09/02 Q1017=
200704230620 METAR ESMX 230620Z 18006KT CAVOK 08/01 Q1017=
200704221050 METAR ESMX 221050Z 21009KT 9999 BKN035 09/M01 Q1025=
200704221020 METAR ESMX 221020Z 24007KT 200V270 9999 BKN038 BKN050 09/M03 Q1025=
200704220950 METAR ESMX 220950Z AUTO 22006KT 190V250 9999NDV OVC041/// 08/M03 Q1025=
200704220920 METAR ESMX 220920Z AUTO 21006KT 170V240 9999NDV FEW046/// BKN054/// 08/M05 Q1025=
200704220850 METAR ESMX 220850Z AUTO 19006KT 9999NDV BKN054/// 07/M06 Q1025=
200704220820 METAR ESMX 220820Z AUTO 19008KT 9999NDV BKN071/// 07/M05 Q1025=
200704220750 METAR ESMX 220750Z AUTO 19008KT 9999NDV NCD 07/M04 Q1025=
200704220720 METAR ESMX 220720Z AUTO 18005KT 9999NDV NCD 06/M05 Q1025=
200704220650 METAR ESMX 220650Z AUTO VRB02KT 9999NDV FEW081/// 05/M02 Q1025=
200704220620 METAR ESMX 220620Z AUTO 17002KT 9999NDV NCD 02/M01 Q1025=
200704220550 METAR ESMX 220550Z AUTO 00000KT 9999NDV NCD 00/M01 Q1025=
200704220520 METAR ESMX 220520Z AUTO 00000KT 9999NDV NCD M02/M03 Q1025=
200704220450 METAR ESMX 220450Z AUTO 00000KT 9999NDV NCD M03/M04 Q1025=
200704220420 METAR ESMX 220420Z AUTO 00000KT 9999NDV NCD M04/M05 Q1025=
200704220350 METAR ESMX 220350Z AUTO 00000KT 9999NDV NCD M04/M05 Q1024=
200704220320 METAR ESMX 220320Z AUTO 19001KT 9999NDV NCD M04/M05 Q1024=
200704220250 METAR ESMX 220250Z AUTO 17002KT 9999NDV NCD M04/M06 Q1024=
200704220220 METAR ESMX 220220Z AUTO 00000KT 9999NDV NCD M05/M06 Q1024=
200704220150 METAR ESMX 220150Z AUTO 00000KT 9999NDV NCD M05/M06 Q1024=
200704220120 METAR ESMX 220120Z AUTO 17002KT 9999NDV NCD M05/M06 Q1024=
200704220050 METAR ESMX 220050Z AUTO 18002KT 9999NDV NCD M04/M06 Q1024=
200704220020 METAR ESMX 220020Z AUTO 00000KT 9999NDV NCD M05/M06 Q1024=
200704212350 METAR ESMX 212350Z AUTO 00000KT 9999NDV NCD M04/M06 Q1024=
200704212320 METAR ESMX 212320Z AUTO 18002KT 9999NDV NCD M04/M06 Q1024=
200704212250 METAR ESMX 212250Z AUTO 19002KT 9999NDV NCD M04/M06 Q1024=
200704212220 METAR ESMX 212220Z AUTO 17002KT 9999NDV NCD M03/M06 Q1023=
200704212150 METAR ESMX 212150Z 17002KT CAVOK M03/M06 Q1023=
200704212120 METAR ESMX 212120Z 18002KT CAVOK M02/M06 Q1023=
200704212050 METAR ESMX 212050Z 16001KT CAVOK M03/M06 Q1023=
200704212020 METAR ESMX 212020Z AUTO 00000KT 9999NDV NCD M01/M06 Q1023=
200704211950 METAR ESMX 211950Z AUTO 00000KT 9999NDV NCD M00/M06 Q1023=
200704211920 METAR ESMX 211920Z AUTO 01001KT 9999NDV NCD 02/M07 Q1022=
200704211850 METAR ESMX 211850Z AUTO 01003KT 9999NDV NCD 04/M07 Q1022=
200704211820 METAR ESMX 211820Z AUTO 34005KT 9999NDV NCD 05/M08 Q1022=
200704211750 METAR ESMX 211750Z AUTO 35007KT 9999NDV NCD 07/M09 Q1021=
200704211720 METAR ESMX 211720Z AUTO 33008KT 9999NDV NCD 08/M10 Q1021=
200704211650 METAR ESMX 211650Z AUTO 35009KT 9999NDV NCD 09/M10 Q1021=
200704211620 METAR ESMX 211620Z AUTO 33008KT 9999NDV NCD 09/M09 Q1021=
200704211550 METAR ESMX 211550Z AUTO 01008KT 9999NDV NCD 09/M10 Q1021=
200704211520 METAR ESMX 211520Z AUTO 33009KT 9999NDV NCD 10/M09 Q1021=
200704211450 METAR ESMX 211450Z AUTO 34008KT 290V020 9999NDV NCD 10/M11 Q1021=
200704211350 METAR ESMX 211350Z 32010KT 270V350 CAVOK 10/M10 Q1020=
200704202220 METAR ESMX 202220Z AUTO 28005KT 9999NDV NCD 01/M07 Q1016=
200704202150 METAR ESMX 202150Z AUTO 27006KT 9999NDV NCD 01/M08 Q1015=
200704202120 METAR ESMX 202120Z AUTO 28007KT 9999NDV NCD 02/M07 Q1015=
200704202050 METAR ESMX 202050Z AUTO 28006KT 9999NDV NCD 02/M07 Q1015=
200704202020 METAR ESMX 202020Z AUTO 30005KT 9999NDV NCD 02/M07 Q1014=
200704201950 METAR ESMX 201950Z AUTO 31007KT 9999NDV NCD 03/M08 Q1014=
200704201920 METAR ESMX 201920Z AUTO 31010KT 9999NDV NCD 04/M08 Q1014=
200704201850 METAR ESMX 201850Z AUTO 33013KT 9999NDV NCD 04/M08 Q1014=
200704201820 METAR ESMX 201820Z AUTO 34013KT 9999NDV FEW066/// 05/M09 Q1013=
200704201750 METAR ESMX 201750Z AUTO 34014KT 9999NDV NCD 06/M10 Q1013=
200704201720 METAR ESMX 201720Z 32016KT 290V350 CAVOK 06/M10 Q1012=
200704201650 METAR ESMX 201650Z 32018KT CAVOK 07/M10 Q1012=
200704201620 METAR ESMX 201620Z 31019G30KT 250V340 CAVOK 07/M11 Q1011=
200704201550 METAR ESMX 201550Z 31017G29KT 280V340 CAVOK 07/M11 Q1011=
200704201520 METAR ESMX 201520Z 31015KT 270V340 CAVOK 08/M10 Q1010=
200704201450 METAR ESMX 201450Z 32018G28KT 290V350 CAVOK 06/M10 Q1010=
200704201420 METAR ESMX 201420Z 31015G26KT 250V340 9999 FEW035 07/M10 Q1010=
200704201350 METAR ESMX 201350Z 30019G31KT 260V340 CAVOK FEW045CB SCT070 07/M11 Q1010=
200704201320 METAR ESMX 201320Z 30018G29KT 270V340 CAVOK 08/M11 Q1009=
200704201250 METAR ESMX 201250Z 30017G27KT 280V340 9999 SCT045 07/M11 Q1009=
200704201220 METAR ESMX 201220Z 30017G27KT 260V330 9999 SCT045 07/M11 Q1009=
200704201150 METAR ESMX 201150Z 29016G28KT 250V320 CAVOK 08/M10 Q1009=
200704201120 METAR ESMX 201120Z 31019KT CAVOK 08/M10 Q1008=
200704201050 METAR ESMX 201050Z 30016G27KT 270V340 CAVOK 07/M10 Q1008=
200704201020 METAR ESMX 201020Z 32017KT 290V350 CAVOK 06/M09 Q1008=
200704200950 METAR ESMX 200950Z 30019KT 9999 FEW025 06/M08 Q1007=
200704200920 METAR ESMX 200920Z 29016G26KT 240V320 CAVOK 06/M09 Q1008=
200704200850 METAR ESMX 200850Z 31017KT CAVOK 05/M07 Q1007=
200704200820 METAR ESMX 200820Z 30017KT 260V340 CAVOK 05/M08 Q1007=
200704200750 METAR ESMX 200750Z 30017KT 260V340 CAVOK 05/M08 Q1007=
200704200720 METAR ESMX 200720Z 32015KT 290V350 CAVOK 04/M08 Q1007=
200704200650 METAR ESMX 200650Z 30016KT 270V340 CAVOK 03/M07 Q1006=
200704200620 METAR ESMX 200620Z 30016KT CAVOK 03/M07 Q1006=
200704200550 METAR ESMX 200550Z 30016G26KT 260V340 CAVOK 03/M06 Q1005=
200704200520 METAR ESMX 200520Z AUTO 29014KT 260V320 9999NDV NCD 02/M06 Q1005=
200704200450 METAR ESMX 200450Z 30014KT CAVOK 02/M06 Q1004=
200704200420 METAR ESMX 200420Z AUTO 30013KT 9999NDV NCD 02/M06 Q1004=
200704200350 METAR ESMX 200350Z 30012KT 260V340 CAVOK 02/M05 Q1003=
200704200120 METAR ESMX 200120Z AUTO 29013KT 250V330 9999NDV NCD 02/M05 Q1001=
200704200050 METAR ESMX 200050Z AUTO 29015KT 9999NDV NCD 02/M04 Q1000=
200704200020 METAR ESMX 200020Z AUTO 29015KT 9999NDV NCD 03/M05 Q1000=
200704192350 METAR ESMX 192350Z 27012KT 240V320 CAVOK 02/M04 Q0999=
200704192320 METAR ESMX 192320Z 27012KT 230V310 CAVOK 02/M03 Q0999=
200704192250 METAR ESMX 192250Z 27012KT CAVOK 02/M02 Q0998=
200704192220 METAR ESMX 192220Z 27011KT CAVOK 02/M01 Q0998=
200704192150 METAR ESMX 192150Z 27012KT CAVOK 02/M01 Q0998=
200704192120 METAR ESMX 192120Z 27011KT 9999 FEW040 02/M01 Q0997=
200704192050 METAR ESMX 192050Z 29011KT 9999 FEW040 02/M01 Q0997=
200704192020 METAR ESMX 192020Z 29013KT 9999 FEW040 02/00 Q0997=
200704191950 METAR ESMX 191950Z 30010KT 280V340 9999 FEW005 SCT035 01/00 Q0997 RESHRA=
200704191920 METAR ESMX 191920Z 27015G25KT 250V320 9999 FEW035 05/M01 Q0995=
200704191850 METAR ESMX 191850Z 27013KT 9999 FEW035 05/M00 Q0995=
200704191820 METAR ESMX 191820Z 25013KT 230V290 9999 FEW035 05/00 Q0995=
200704191750 METAR ESMX 191750Z 26017G28KT 220V300 9999 FEW035 06/00 Q0994=
200704191720 METAR ESMX 191720Z 26013KT 220V290 9999 FEW034 SCT069 06/03 Q0994=
200704191650 METAR ESMX 191650Z 26017KT 9999 VCSH FEW020CB SCT030 07/04 Q0994=
200704191620 METAR ESMX 191620Z 26014KT 230V290 9999 VCSH FEW024CB SCT039 07/04 Q0994=
200704191550 METAR ESMX 191550Z 25012KT 230V290 9999 FEW013 SCT043 07/04 Q0995 RERA=
200704191520 METAR ESMX 191520Z 24013KT 200V280 9999 SHRA FEW017 SCT022CB BKN031 08/05 Q0995=
200704191450 METAR ESMX 191450Z 26014G25KT 230V290 9999 FEW017 BKN029 08/06 Q0995 RERA=
200704191420 METAR ESMX 191420Z 24014G28KT 190V290 7000 SHRA FEW009 SCT013CB BKN017 07/06 Q0995=
200704191350 METAR ESMX 191350Z 22014KT 180V250 9999 -RA FEW010 SCT013 BKN017 08/06 Q0996=
200704191320 METAR ESMX 191320Z 22015KT 8000 -RA FEW009 BKN011 08/06 Q0996=
200704191250 METAR ESMX 191250Z 23016KT 7000 -RA FEW009 SCT013 BKN015 07/06 Q0997=
200704191220 METAR ESMX 191220Z 22016G26KT 190V260 6000 -RA FEW010 SCT013 BKN016 08/06 Q0997=
200704191150 METAR ESMX 191150Z 22015G26KT 8000 -RA FEW009 OVC017 08/06 Q0998=
200704191120 METAR ESMX 191120Z 22017KT 7000 -RA FEW008 OVC010 08/06 Q0998=
200704191050 METAR ESMX 191050Z 22014G26KT 180V240 9999 -RA BKN008 OVC013 08/06 Q0999 REDZ=
200704191020 METAR ESMX 191020Z 21013KT 8000 -RA FEW007 OVC009 07/06 Q0999=
200704190920 METAR ESMX 190920Z 21013KT 8000 -RA FEW007 OVC011 07/06 Q1001=
200704190850 METAR ESMX 190850Z 21014KT 170V240 8000 -RA FEW006 OVC007 06/06 Q1001=
200704190820 METAR ESMX 190820Z 22014KT 8000 -RA FEW006 OVC010 06/05 Q1002 REDZ=
200704190750 METAR ESMX 190750Z 20016KT 9000 -RA FEW007 OVC010 06/05 Q1002 REDZ=
200704190720 METAR ESMX 190720Z 20016KT 9999 -RA FEW008 OVC011 05/04 Q1003=
200704190650 METAR ESMX 190650Z 21016G26KT 9999 -RA FEW007 BKN010 05/03 Q1004 RERA=
200704190620 METAR ESMX 190620Z 21016KT 9999 -RA FEW008 BKN011 BKN014 04/03 Q1005=
200704190550 METAR ESMX 190550Z 22015KT 8000 -RA FEW007 SCT009 BKN012 04/03 Q1005=
200704190520 METAR ESMX 190520Z 23012KT 7000 -RA FEW008 BKN010 BKN014 04/03 Q1006=
200704190450 METAR ESMX 190450Z 19011KT 6000 DZ FEW009 SCT013 BKN019 04/03 Q1006=
200704190350 METAR ESMX 190350Z 19010KT 9999 SCT015 BKN035 04/02 Q1008=
200704190320 METAR ESMX 190320Z AUTO 21010KT 9999NDV FEW040/// 04/02 Q1008=
200704190250 METAR ESMX 190250Z AUTO 23009KT 9999NDV FEW017/// 04/02 Q1009=
200704190220 METAR ESMX 190220Z AUTO 22007KT 9999NDV FEW034/// SCT098/// 03/01 Q1010=
200704190150 METAR ESMX 190150Z AUTO 22005KT 9999NDV FEW017/// 02/01 Q1010=
200704190120 METAR ESMX 190120Z AUTO 23004KT 200V260 9999NDV NCD 02/01 Q1011=
200704190050 METAR ESMX 190050Z AUTO 25006KT 230V290 9999NDV BKN014/// 03/01 Q1011=
200704190020 METAR ESMX 190020Z AUTO 22006KT 190V250 9999NDV OVC014/// 03/01 Q1011=
200704182350 METAR ESMX 182350Z 25005KT CAVOK 02/01 Q1012=
200704182320 METAR ESMX 182320Z 24007KT CAVOK 03/00 Q1012=
200704182250 METAR ESMX 182250Z 25006KT CAVOK 03/M00 Q1012=
200704182220 METAR ESMX 182220Z 24006KT CAVOK 03/M01 Q1012=
200704182050 METAR ESMX 182050Z 26005KT CAVOK 04/M02 Q1012=
200704182020 METAR ESMX 182020Z 27006KT CAVOK 05/M02 Q1012=
200704181950 METAR ESMX 181950Z 26006KT CAVOK 06/M01 Q1012=
200704181920 METAR ESMX 181920Z 26007KT 220V290 CAVOK 07/M01 Q1012=
200704181850 METAR ESMX 181850Z 28006KT CAVOK 08/M01 Q1012=
200704181820 METAR ESMX 181820Z 28008KT CAVOK 09/M00 Q1011=
200704181750 METAR ESMX 181750Z 29005KT 260V330 CAVOK 09/M01 Q1011=
200704181720 METAR ESMX 181720Z 30003KT CAVOK 09/M01 Q1011=
200704181650 METAR ESMX 181650Z 31005KT 290V010 CAVOK 10/M01 Q1011=
200704181620 METAR ESMX 181620Z 32008KT CAVOK 11/M01 Q1011=
200704181550 METAR ESMX 181550Z 34006KT 300V010 CAVOK 11/M00 Q1011=
200704181520 METAR ESMX 181520Z 32012KT 270V350 9999 FEW040 SCT100 11/M02 Q1011=
200704181450 METAR ESMX 181450Z 30008KT 9999 FEW035CB SCT088 10/M01 Q1011=
200704181420 METAR ESMX 181420Z 33012KT 280V350 9999 FEW055 SCT085 11/M02 Q1011=
200704181350 METAR ESMX 181350Z 32010KT 290V360 9999 FEW035CB 12/M01 Q1011=
200704181320 METAR ESMX 181320Z 33009KT 9999 FEW034CB 11/02 Q1011=
200704181250 METAR ESMX 181250Z 32009KT 270V350 9999 FEW037CB SCT073 12/02 Q1011=
200704181220 METAR ESMX 181220Z 30008KT 260V350 9999 FEW028CB SCT080 10/02 Q1011=
200704181150 METAR ESMX 181150Z 33009KT 290V360 9999 -SHRA FEW029CB 08/03 Q1011=
200704181120 METAR ESMX 181120Z 35011KT 9999 -SHRA FEW018 SCT031CB 06/04 Q1010=
200704181050 METAR ESMX 181050Z 32011KT 270V350 9999 -SHRA FEW010 SCT030CB BKN040 09/01 Q1010=
200704181020 METAR ESMX 181020Z 29011KT 250V330 9999 FEW029 SCT039 10/03 Q1009=
200704180950 METAR ESMX 180950Z 33009KT 290V010 9999 BKN018 OVC023 08/03 Q1010=
200704180920 METAR ESMX 180920Z 31011KT 280V340 9999 BKN015 07/03 Q1009=
200704180850 METAR ESMX 180850Z 30010KT 260V330 9999 FEW017 SCT020 08/04 Q1009=
200704180820 METAR ESMX 180820Z 30008KT 270V340 9999 FEW014 SCT030 06/03 Q1009=
200704180750 METAR ESMX 180750Z 30011KT 9999 SCT013 BKN016 05/02 Q1008=
200704180720 METAR ESMX 180720Z 32009KT 280V350 9999 BKN015 BKN042 05/03 Q1008=
200704180650 METAR ESMX 180650Z 34012KT 9999 -SHRA BKN013 FEW020CB 04/02 Q1008=
200704180620 METAR ESMX 180620Z 28010KT 250V320 9999 -SHRA SCT016CB BKN071 05/02 Q1007=
200704180550 METAR ESMX 180550Z 29011KT 9999 FEW018 BKN073 05/02 Q1007=
200704180520 METAR ESMX 180520Z 25007KT 9999 FEW020 SCT058 04/03 Q1007=
200704180450 METAR ESMX 180450Z 28005KT 9999 FEW020 SCT055 03/02 Q1007=
200704180420 METAR ESMX 180420Z 26006KT CAVOK 03/02 Q1007=
200704180350 METAR ESMX 180350Z 25005KT CAVOK 03/02 Q1007=
200704180320 METAR ESMX 180320Z AUTO 25005KT 9999NDV NCD 03/02 Q1007=
200704180250 METAR ESMX 180250Z AUTO 25005KT 9999NDV NCD 03/02 Q1007=
200704180220 METAR ESMX 180220Z AUTO 23005KT 9999NDV FEW015/// 03/02 Q1007=
200704180150 METAR ESMX 180150Z AUTO 23004KT 9999NDV NCD 03/02 Q1007=
200704180120 METAR ESMX 180120Z AUTO 22008KT 9999NDV FEW017/// SCT020/// 04/03 Q1007=
200704180050 METAR ESMX 180050Z AUTO 22006KT 9999NDV FEW018/// 03/02 Q1007=
200704180020 METAR ESMX 180020Z AUTO 24006KT 9999NDV FEW019/// 04/02 Q1008=
200704172350 METAR ESMX 172350Z 25006KT 9999 SCT020 BKN040 04/02 Q1008=
200704172320 METAR ESMX 172320Z 25006KT 9999 OVC035 05/02 Q1008=
200704172250 METAR ESMX 172250Z 25004KT 9999 SCT035 04/02 Q1008=
200704172220 METAR ESMX 172220Z 25008KT 9999 FEW028 05/02 Q1008=
200704172150 METAR ESMX 172150Z 26008KT 9999 FEW031 05/02 Q1009=
200704172120 METAR ESMX 172120Z 25006KT 9999 FEW025 SCT033 04/02 Q1009=
200704172050 METAR ESMX 172050Z 25006KT 9999 FEW030 05/02 Q1009=
200704172020 METAR ESMX 172020Z 26007KT CAVOK 05/01 Q1009=
200704171950 METAR ESMX 171950Z 27009KT CAVOK 06/00 Q1010=
200704171920 METAR ESMX 171920Z 26012KT CAVOK 07/01 Q1010=
200704171850 METAR ESMX 171850Z 26009KT CAVOK 07/01 Q1009=
200704171820 METAR ESMX 171820Z 26009KT CAVOK 07/01 Q1010=
200704171750 METAR ESMX 171750Z 26007KT 220V300 CAVOK 08/02 Q1010=
200704171720 METAR ESMX 171720Z 25011KT CAVOK 08/02 Q1010=
200704171650 METAR ESMX 171650Z 27012KT 220V300 CAVOK 10/M00 Q1010=
200704171620 METAR ESMX 171620Z 26014KT CAVOK 11/M01 Q1010=
200704171550 METAR ESMX 171550Z 28017KT 250V320 CAVOK 12/M02 Q1010=
200704171520 METAR ESMX 171520Z 27013KT 240V310 CAVOK 11/M02 Q1010=
200704171450 METAR ESMX 171450Z 27013KT 220V300 CAVOK 11/M02 Q1011=
200704171420 METAR ESMX 171420Z 28018G28KT CAVOK 12/M02 Q1010=
200704171350 METAR ESMX 171350Z 28015KT 250V320 CAVOK 13/M03 Q1010=
200704171320 METAR ESMX 171320Z 30014KT 260V340 CAVOK 14/M03 Q1011=
200704171250 METAR ESMX 171250Z 28014KT 250V330 CAVOK 13/M03 Q1011=
200704171220 METAR ESMX 171220Z 29014KT 260V330 CAVOK 14/M01 Q1011=
200704171150 METAR ESMX 171150Z 28013KT 230V320 CAVOK 14/M02 Q1011=
200704171050 METAR ESMX 171050Z 28012KT 250V320 CAVOK 14/M01 Q1012=
200704171020 METAR ESMX 171020Z 27012KT 230V320 CAVOK 13/M02 Q1012=
200704170950 METAR ESMX 170950Z 29013KT CAVOK 13/M01 Q1012=
200704170920 METAR ESMX 170920Z 29013KT 260V330 CAVOK 12/M02 Q1012=
200704170850 METAR ESMX 170850Z 29013KT 250V320 CAVOK 12/M02 Q1013=
200704170820 METAR ESMX 170820Z 29012KT CAVOK 12/M01 Q1013=
200704170750 METAR ESMX 170750Z 31012KT CAVOK 12/M01 Q1013=
200704170720 METAR ESMX 170720Z 30011KT CAVOK 11/01 Q1013=
200704170650 METAR ESMX 170650Z 29010KT 270V330 CAVOK 10/03 Q1013=
200704170620 METAR ESMX 170620Z 27007KT 230V300 CAVOK 09/04 Q1013=
200704170550 METAR ESMX 170550Z 28006KT CAVOK 08/06 Q1013=
200704170520 METAR ESMX 170520Z 30006KT CAVOK 08/06 Q1013=
200704170450 METAR ESMX 170450Z 29003KT 9999 NSC 07/05 Q1013=
200704170420 METAR ESMX 170420Z VRB02KT CAVOK 07/05 Q1013=
200704170350 METAR ESMX 170350Z 28004KT CAVOK 08/05 Q1013=
200704170320 METAR ESMX 170320Z AUTO 28005KT 9999NDV NCD 08/05 Q1013=
200704170250 METAR ESMX 170250Z AUTO 26005KT 9999NDV NCD 08/05 Q1013=
200704170220 METAR ESMX 170220Z AUTO 25005KT 9999NDV NCD 09/05 Q1013=
200704170150 METAR ESMX 170150Z AUTO 24005KT 9999NDV NCD 08/05 Q1013=
200704170120 METAR ESMX 170120Z AUTO 25006KT 9999NDV NCD 08/04 Q1014=
200704170050 METAR ESMX 170050Z AUTO 24005KT 9999NDV NCD 09/04 Q1014=
200704170020 METAR ESMX 170020Z AUTO 23005KT 9999NDV FEW055/// 10/05 Q1014=
200704162350 METAR ESMX 162350Z 24005KT CAVOK 10/05 Q1015=
200704162320 METAR ESMX 162320Z 22005KT CAVOK 10/05 Q1015=
200704162250 METAR ESMX 162250Z 24005KT CAVOK 11/05 Q1015=
200704162220 METAR ESMX 162220Z 24005KT CAVOK 11/05 Q1016=
200704162150 METAR ESMX 162150Z 23005KT CAVOK 11/05 Q1016=
200704162120 METAR ESMX 162120Z 22005KT CAVOK 11/05 Q1016=
200704162050 METAR ESMX 162050Z 22005KT CAVOK 11/05 Q1016=
200704162020 METAR ESMX 162020Z 23004KT CAVOK 13/05 Q1016=
200704161950 METAR ESMX 161950Z 25004KT CAVOK 11/05 Q1016=
200704161920 METAR ESMX 161920Z 24004KT CAVOK 12/05 Q1017=
200704161850 METAR ESMX 161850Z 25003KT CAVOK 15/05 Q1017=
200704161820 METAR ESMX 161820Z 27004KT CAVOK 17/05 Q1017=
200704161750 METAR ESMX 161750Z 27006KT CAVOK 19/05 Q1017=
200704161720 METAR ESMX 161720Z 26006KT CAVOK 20/04 Q1017=
200704161650 METAR ESMX 161650Z 22008KT CAVOK 21/04 Q1017=
200704161550 METAR ESMX 161550Z 23010KT CAVOK 23/03 Q1018=
200704161520 METAR ESMX 161520Z 21010KT CAVOK 23/04 Q1018=
200704161450 METAR ESMX 161450Z 21011KT CAVOK 23/04 Q1018=
200704161420 METAR ESMX 161420Z 19014KT CAVOK 23/04 Q1018=
200704161350 METAR ESMX 161350Z 21013KT CAVOK 23/04 Q1019=
200704161250 METAR ESMX 161250Z 23011KT 190V260 CAVOK 23/05 Q1020=
200704161220 METAR ESMX 161220Z 21011KT CAVOK 22/05 Q1020=
200704161150 METAR ESMX 161150Z 22008KT 180V250 CAVOK 22/04 Q1021=
200704161120 METAR ESMX 161120Z 21009KT CAVOK 22/05 Q1021=
200704161050 METAR ESMX 161050Z 20010KT CAVOK 21/05 Q1022=
200704161020 METAR ESMX 161020Z 21011KT 170V230 CAVOK 21/06 Q1022=
200704160950 METAR ESMX 160950Z 22009KT CAVOK 20/06 Q1022=
200704160920 METAR ESMX 160920Z 23007KT 170V290 CAVOK 19/05 Q1023=
200704160850 METAR ESMX 160850Z 21007KT 160V260 CAVOK 19/05 Q1023=
200704160820 METAR ESMX 160820Z 23008KT CAVOK 17/05 Q1023=
200704160750 METAR ESMX 160750Z 20007KT 170V240 CAVOK 16/05 Q1023=
200704160720 METAR ESMX 160720Z 21006KT CAVOK 14/04 Q1024=
200704160650 METAR ESMX 160650Z 21007KT CAVOK 13/04 Q1024=
200704160620 METAR ESMX 160620Z 18005KT 150V210 CAVOK 12/03 Q1024=
200704160550 METAR ESMX 160550Z 16004KT CAVOK 10/04 Q1024=
200704160520 METAR ESMX 160520Z 16002KT CAVOK 05/05 Q1025=
200704160450 METAR ESMX 160450Z 00000KT CAVOK 03/02 Q1025=
200704160420 METAR ESMX 160420Z 00000KT CAVOK 02/02 Q1025=
200704160350 METAR ESMX 160350Z 16001KT CAVOK 02/02 Q1025=
200704160320 METAR ESMX 160320Z AUTO 16002KT 9999NDV NCD 02/02 Q1025=
200704160250 METAR ESMX 160250Z AUTO 15003KT 9999NDV NCD 03/02 Q1025=
200704160220 METAR ESMX 160220Z AUTO 16002KT 9999NDV NCD 03/03 Q1026=
200704160150 METAR ESMX 160150Z AUTO 16004KT 9999NDV NCD 04/03 Q1026=
200704160120 METAR ESMX 160120Z AUTO 19002KT 9999NDV NCD 03/02 Q1026=
200704160050 METAR ESMX 160050Z AUTO 12001KT 9999NDV NCD 03/03 Q1026=
200704160020 METAR ESMX 160020Z 00000KT CAVOK 04/02 Q1026=
200704152350 METAR ESMX 152350Z 16001KT CAVOK 04/03 Q1027=
200704152320 METAR ESMX 152320Z 18001KT CAVOK 04/03 Q1027=
200704152250 METAR ESMX 152250Z 18001KT CAVOK 05/03 Q1027=
200704152220 METAR ESMX 152220Z 17002KT CAVOK 05/03 Q1027=
200704152150 METAR ESMX 152150Z 18003KT CAVOK 08/04 Q1028=
200704152120 METAR ESMX 152120Z 22003KT 140V250 CAVOK 08/04 Q1028=
200704152050 METAR ESMX 152050Z 21004KT CAVOK 09/04 Q1028=
200704152020 METAR ESMX 152020Z 18004KT CAVOK 09/04 Q1028=
200704151950 METAR ESMX 151950Z 18006KT CAVOK 10/04 Q1028=
200704151920 METAR ESMX 151920Z 17005KT CAVOK 14/05 Q1028=
200704151850 METAR ESMX 151850Z 18005KT CAVOK 13/04 Q1028=
200704151820 METAR ESMX 151820Z 18006KT CAVOK 13/04 Q1028=
200704151750 METAR ESMX 151750Z 18007KT CAVOK 15/05 Q1028=
200704151720 METAR ESMX 151720Z 18009KT CAVOK 17/04 Q1028=
200704151650 METAR ESMX 151650Z 20009KT CAVOK 19/05 Q1028=
200704151620 METAR ESMX 151620Z 19007KT CAVOK 21/05 Q1027=
200704151550 METAR ESMX 151550Z 19007KT CAVOK 22/05 Q1028=
200704151520 METAR ESMX 151520Z 21007KT CAVOK 22/04 Q1028=
200704151450 METAR ESMX 151450Z 19007KT CAVOK 22/05 Q1028=
200704151420 METAR ESMX 151420Z 20008KT CAVOK 22/04 Q1028=
200704151350 METAR ESMX 151350Z 20007KT CAVOK 22/05 Q1028=
200704151320 METAR ESMX 151320Z 24006KT CAVOK 21/04 Q1029=
200704151250 METAR ESMX 151250Z 21007KT 160V260 CAVOK 21/05 Q1029=
200704151220 METAR ESMX 151220Z 23008KT CAVOK 21/05 Q1029=
200704151150 METAR ESMX 151150Z 21007KT CAVOK 21/05 Q1029=
200704151120 METAR ESMX 151120Z VRB03KT CAVOK 21/06 Q1029=
200704151050 METAR ESMX 151050Z 13005KT CAVOK 20/05 Q1030=
200704151020 METAR ESMX 151020Z 19004KT CAVOK 20/05 Q1030=
200704150950 METAR ESMX 150950Z AUTO 14004KT 100V180 9999NDV NCD 19/04 Q1030=
200704150920 METAR ESMX 150920Z AUTO VRB03KT 9999NDV NCD 19/05 Q1030=
200704150850 METAR ESMX 150850Z AUTO 31004KT 280V340 9999NDV NCD 18/02 Q1030=
200704150820 METAR ESMX 150820Z AUTO VRB02KT 9999NDV NCD 17/04 Q1030=
200704150750 METAR ESMX 150750Z AUTO 30003KT 230V360 9999NDV NCD 16/04 Q1031=
200704150720 METAR ESMX 150720Z AUTO 24003KT 200V270 9999NDV NCD 15/05 Q1030=
200704150650 METAR ESMX 150650Z AUTO 26004KT 9999NDV NCD 13/05 Q1030=
200704150620 METAR ESMX 150620Z AUTO 00000KT 9999NDV NCD 11/05 Q1031=
200704150550 METAR ESMX 150550Z AUTO 00000KT 9999NDV NCD 10/05 Q1031=
200704150520 METAR ESMX 150520Z AUTO 00000KT 9999NDV NCD 05/04 Q1031=
200704150450 METAR ESMX 150450Z AUTO 00000KT 9999NDV NCD 03/02 Q1031=
200704150420 METAR ESMX 150420Z AUTO 16001KT 9999NDV NCD 02/01 Q1031=
200704150350 METAR ESMX 150350Z AUTO 00000KT 9999NDV NCD 02/01 Q1031=
200704150320 METAR ESMX 150320Z 00000KT CAVOK 03/02 Q1031=
200704150250 METAR ESMX 150250Z 18003KT CAVOK 02/01 Q1030=
200704150220 METAR ESMX 150220Z 17001KT CAVOK 03/02 Q1030=
200704150150 METAR ESMX 150150Z 00000KT CAVOK 04/02 Q1030=
200704150120 METAR ESMX 150120Z AUTO 00000KT 9999NDV NCD 04/02 Q1030=
200704150050 METAR ESMX 150050Z AUTO 19003KT 9999NDV NCD 05/03 Q1030=
200704150020 METAR ESMX 150020Z AUTO 17002KT 9999NDV NCD 05/03 Q1030=
200704142350 METAR ESMX 142350Z AUTO 16002KT 9999NDV NCD 05/03 Q1030=
200704142320 METAR ESMX 142320Z AUTO 14002KT 9999NDV NCD 06/04 Q1030=
200704142250 METAR ESMX 142250Z AUTO 21003KT 9999NDV NCD 07/03 Q1030=
200704142220 METAR ESMX 142220Z AUTO 20003KT 9999NDV NCD 08/04 Q1030=
200704142150 METAR ESMX 142150Z AUTO 18003KT 9999NDV NCD 07/03 Q1030=
200704142120 METAR ESMX 142120Z AUTO 20004KT 9999NDV NCD 09/04 Q1030=
200704142050 METAR ESMX 142050Z AUTO 19004KT 9999NDV NCD 10/04 Q1030=
200704142020 METAR ESMX 142020Z AUTO 18007KT 9999NDV NCD 11/05 Q1030=
200704141950 METAR ESMX 141950Z AUTO 18007KT 9999NDV NCD 13/05 Q1030=
200704141920 METAR ESMX 141920Z AUTO 18006KT 9999NDV NCD 14/06 Q1030=
200704141850 METAR ESMX 141850Z AUTO 18006KT 9999NDV NCD 13/07 Q1030=
200704141820 METAR ESMX 141820Z AUTO 17005KT 9999NDV NCD 17/07 Q1029=
200704141750 METAR ESMX 141750Z AUTO 19003KT 140V210 9999NDV NCD 16/06 Q1029=
200704141720 METAR ESMX 141720Z AUTO 17002KT 9999NDV NCD 19/05 Q1029=
200704141650 METAR ESMX 141650Z AUTO 18004KT 9999NDV NCD 21/04 Q1029=
200704141620 METAR ESMX 141620Z AUTO 19004KT 150V230 9999NDV NCD 21/04 Q1029=
200704141520 METAR ESMX 141520Z AUTO 17005KT 9999NDV NCD 22/04 Q1029=
200704141450 METAR ESMX 141450Z AUTO VRB04KT 9999NDV NCD 22/04 Q1029=
200704141420 METAR ESMX 141420Z AUTO VRB04KT 9999NDV NCD 22/04 Q1029=
200704141350 METAR ESMX 141350Z AUTO 19005KT 150V220 9999NDV NCD 21/04 Q1029=
200704141320 METAR ESMX 141320Z AUTO 16004KT 9999NDV NCD 22/05 Q1029=
200704141250 METAR ESMX 141250Z AUTO 17004KT 090V240 9999NDV NCD 21/04 Q1029=
200704141220 METAR ESMX 141220Z AUTO 17005KT 120V270 9999NDV NCD 21/05 Q1029=
200704141150 METAR ESMX 141150Z AUTO 13004KT 080V200 9999NDV NCD 21/05 Q1029=
200704141120 METAR ESMX 141120Z AUTO 11003KT 070V150 9999NDV NCD 20/04 Q1030=
200704141050 METAR ESMX 141050Z AUTO 03003KT 300V080 9999NDV NCD 19/04 Q1030=
200704141020 METAR ESMX 141020Z AUTO 21004KT 160V250 9999NDV NCD 20/04 Q1030=
200704140950 METAR ESMX 140950Z AUTO 05003KT 350V120 9999NDV NCD 19/05 Q1030=
200704140920 METAR ESMX 140920Z AUTO 34003KT 290V040 9999NDV NCD 18/05 Q1030=
200704140850 METAR ESMX 140850Z AUTO VRB03KT 9999NDV NCD 17/05 Q1030=
200704140820 METAR ESMX 140820Z AUTO 09003KT 040V150 9999NDV NCD 16/06 Q1030=
200704140750 METAR ESMX 140750Z AUTO 07003KT 9999NDV NCD 14/06 Q1030=
200704140720 METAR ESMX 140720Z AUTO 05003KT 360V130 9999NDV NCD 12/05 Q1030=
200704140650 METAR ESMX 140650Z AUTO 02004KT 330V050 9999NDV NCD 10/06 Q1030=
200704140620 METAR ESMX 140620Z AUTO 01003KT 340V060 9999NDV NCD 08/07 Q1030=
200704140550 METAR ESMX 140550Z AUTO 01003KT 9999NDV NCD 05/05 Q1030=
200704140520 METAR ESMX 140520Z AUTO 00000KT 7000NDV BCFG NCD 02/01 Q1030=
200704140450 METAR ESMX 140450Z AUTO 00000KT 0400NDV R01/0650N R19/P2000 FZFG NCD M01/M01 Q1029=
200704140420 METAR ESMX 140420Z AUTO 01002KT 0500NDV R01/0550 R19/P2000D FZFG NCD M00/M01 Q1029=
200704140350 METAR ESMX 140350Z AUTO 00000KT 0250NDV R01/0500 R19/P2000U FG NCD 00/00 Q1029=
200704140320 METAR ESMX 140320Z AUTO 00000KT 0550NDV R01/P2000D R19/P2000U NCD 00/00 Q1029=
200704140250 METAR ESMX 140250Z AUTO 00000KT 0900NDV R01/P2000U R19/P2000D NCD 01/01 Q1029=
200704140220 METAR ESMX 140220Z AUTO 00000KT 9999NDV BCFG NCD 01/01 Q1029=
200704140150 METAR ESMX 140150Z AUTO 00000KT 0350NDV R01/0800VP2000 R19/P2000U FG NCD 01/01 Q1029=
200704140120 METAR ESMX 140120Z AUTO 01002KT 0600NDV R01/P2000D R19/P2000U BCFG NCD 02/01 Q1028=
200704140050 METAR ESMX 140050Z AUTO 36001KT 9999NDV NCD 02/02 Q1028=
200704140020 METAR ESMX 140020Z AUTO 00000KT 9999NDV NCD 02/02 Q1028=
200704132350 METAR ESMX 132350Z AUTO 00000KT 9999NDV NCD 03/02 Q1028=
200704132320 METAR ESMX 132320Z AUTO 00000KT 9999NDV NCD 03/02 Q1028=
200704132250 METAR ESMX 132250Z AUTO 00000KT 9999NDV NCD 04/03 Q1028=
200704132220 METAR ESMX 132220Z AUTO 00000KT 9999NDV NCD 05/03 Q1028=
200704132150 METAR ESMX 132150Z AUTO 00000KT 9999NDV NCD 06/03 Q1028=
200704132120 METAR ESMX 132120Z AUTO VRB02KT 9999NDV NCD 06/04 Q1027=
200704132050 METAR ESMX 132050Z AUTO 16002KT 9999NDV NCD 07/04 Q1027=
200704132020 METAR ESMX 132020Z AUTO 00000KT 9999NDV NCD 07/04 Q1027=
200704131950 METAR ESMX 131950Z AUTO 15001KT 9999NDV NCD 08/04 Q1027=
200704131920 METAR ESMX 131920Z AUTO 27002KT 9999NDV NCD 09/05 Q1027=
200704131850 METAR ESMX 131850Z AUTO 26002KT 9999NDV NCD 11/05 Q1027=
200704131820 METAR ESMX 131820Z AUTO 25002KT 9999NDV NCD 12/06 Q1026=
200704131750 METAR ESMX 131750Z AUTO 26002KT 9999NDV NCD 16/04 Q1026=
200704131720 METAR ESMX 131720Z 24003KT CAVOK 17/04 Q1026=
200704131650 METAR ESMX 131650Z 26003KT CAVOK 19/03 Q1026=
200704131620 METAR ESMX 131620Z 28004KT CAVOK 19/03 Q1026=
200704131550 METAR ESMX 131550Z 30006KT CAVOK 19/03 Q1026=
200704131520 METAR ESMX 131520Z 32006KT 260V350 CAVOK 19/04 Q1026=
200704131450 METAR ESMX 131450Z 29005KT CAVOK 19/04 Q1026=
200704131420 METAR ESMX 131420Z 30006KT 270V350 CAVOK 19/04 Q1026=
200704131350 METAR ESMX 131350Z 25005KT 220V300 CAVOK 19/05 Q1026=
200704131320 METAR ESMX 131320Z 27006KT CAVOK 19/05 Q1026=
200704131250 METAR ESMX 131250Z 23006KT 190V260 CAVOK 19/05 Q1027=
200704131220 METAR ESMX 131220Z 25005KT 190V320 CAVOK 18/04 Q1027=
200704131150 METAR ESMX 131150Z 23006KT CAVOK 18/04 Q1027=
200704131120 METAR ESMX 131120Z 28006KT 250V340 CAVOK 18/04 Q1027=
200704131050 METAR ESMX 131050Z 28007KT 250V320 CAVOK 17/04 Q1028=
200704131020 METAR ESMX 131020Z 22007KT 180V260 CAVOK 16/04 Q1028=
200704130950 METAR ESMX 130950Z 27006KT 210V330 CAVOK 16/04 Q1028=
200704130920 METAR ESMX 130920Z 27007KT 220V300 CAVOK 16/05 Q1028=
200704130850 METAR ESMX 130850Z 25005KT 200V300 CAVOK 15/06 Q1028=
200704130820 METAR ESMX 130820Z 25006KT 210V280 CAVOK 14/06 Q1028=
200704130750 METAR ESMX 130750Z 25004KT 210V280 CAVOK 13/06 Q1027=
200704130720 METAR ESMX 130720Z 25004KT CAVOK 11/07 Q1027=
200704130650 METAR ESMX 130650Z VRB01KT CAVOK 09/07 Q1027=
200704130620 METAR ESMX 130620Z VRB01KT CAVOK 07/07 Q1027=
200704130550 METAR ESMX 130550Z 18002KT CAVOK 05/05 Q1027=
200704130520 METAR ESMX 130520Z 20001KT 1500 BCFG NSC 01/01 Q1027=
200704130450 METAR ESMX 130450Z 00000KT 0250 R01/0600 R19/0900 FG NSC 00/00 Q1027=
200704130420 METAR ESMX 130420Z 00000KT 0200 R01/0650 R19/P2000D FZBCFG NSC M00/M00 Q1027=
200704130350 METAR ESMX 130350Z 00000KT 0150 R01/P2000D R19/0350V0500N FG NSC 00/00 Q1027=
200704130320 METAR ESMX 130320Z AUTO 00000KT 0200NDV R01/0600N R19/P2000 FZFG NCD M00/M00 Q1027=
200704130250 METAR ESMX 130250Z AUTO 00000KT 0250NDV R01/0900VP2000 R19/P2000U FG NCD 00/00 Q1027=
200704130220 METAR ESMX 130220Z AUTO 00000KT 0150NDV R01/0375V0550 R19/P2000D FG NCD 01/00 Q1027=
200704130150 METAR ESMX 130150Z AUTO VRB02KT 1500NDV NCD 01/01 Q1027=
200704130120 METAR ESMX 130120Z AUTO 00000KT 8000NDV BR NCD 01/01 Q1026=
200704130050 METAR ESMX 130050Z AUTO 20002KT 4800NDV BR NCD 03/03 Q1026=
200704130020 METAR ESMX 130020Z AUTO 15002KT 1700NDV BR NCD 03/03 Q1026=
200704122350 METAR ESMX 122350Z 17002KT CAVOK 03/02 Q1026=
200704122320 METAR ESMX 122320Z 19001KT CAVOK 04/03 Q1026=
200704122250 METAR ESMX 122250Z 19002KT CAVOK 03/02 Q1026=
200704122220 METAR ESMX 122220Z 00000KT CAVOK 05/04 Q1026=
200704122150 METAR ESMX 122150Z 19003KT CAVOK 04/02 Q1026=
200704122050 METAR ESMX 122050Z 24003KT CAVOK 08/05 Q1026=
200704122020 METAR ESMX 122020Z 27004KT CAVOK 07/05 Q1026=
200704121950 METAR ESMX 121950Z 29002KT CAVOK 08/05 Q1026=
200704121920 METAR ESMX 121920Z 28004KT CAVOK 07/04 Q1026=
200704121850 METAR ESMX 121850Z 18002KT CAVOK 09/04 Q1025=
200704121820 METAR ESMX 121820Z 00000KT CAVOK 10/05 Q1025=
200704121750 METAR ESMX 121750Z 32003KT CAVOK 12/04 Q1025=
200704121720 METAR ESMX 121720Z 32004KT CAVOK 14/04 Q1025=
200704121650 METAR ESMX 121650Z 32005KT CAVOK 15/03 Q1024=
200704121620 METAR ESMX 121620Z 28005KT 230V320 CAVOK 16/02 Q1025=
200704121550 METAR ESMX 121550Z 27004KT 200V310 CAVOK 16/03 Q1025=
200704121520 METAR ESMX 121520Z 29005KT 240V330 CAVOK 16/02 Q1025=
200704121450 METAR ESMX 121450Z 30004KT 230V360 CAVOK 16/02 Q1024=
200704121420 METAR ESMX 121420Z 23004KT 190V280 CAVOK 16/01 Q1024=
200704121350 METAR ESMX 121350Z VRB06KT CAVOK 16/01 Q1024=
200704121320 METAR ESMX 121320Z 31005G15KT CAVOK 16/02 Q1025=
200704121250 METAR ESMX 121250Z 27006KT CAVOK 16/02 Q1025=
200704121220 METAR ESMX 121220Z 26006KT 180V320 CAVOK 15/01 Q1025=
200704121150 METAR ESMX 121150Z 23005KT CAVOK 15/01 Q1025=
200704121120 METAR ESMX 121120Z 25006KT 230V330 CAVOK 15/01 Q1025=
200704121050 METAR ESMX 121050Z 24007KT CAVOK 14/03 Q1025=
200704121020 METAR ESMX 121020Z 27007KT 230V320 CAVOK 13/M02 Q1025=
200704120950 METAR ESMX 120950Z 04003KT 350V100 CAVOK 12/02 Q1025=
200704120920 METAR ESMX 120920Z 35003KT 300V050 CAVOK 11/03 Q1025=
200704120850 METAR ESMX 120850Z VRB02KT CAVOK 10/03 Q1025=
200704120820 METAR ESMX 120820Z VRB01KT CAVOK 10/03 Q1025=
200704120750 METAR ESMX 120750Z 04005KT 9999 FEW004 06/04 Q1024=
200704120720 METAR ESMX 120720Z 05004KT 020V080 6000 BR BKN002 05/04 Q1024=
200704120650 METAR ESMX 120650Z VRB01KT 5000 VV002 04/04 Q1024=
200704120620 METAR ESMX 120620Z 00000KT 0800 R01/0800V1600D R19/1100VP2000D FG VV002 04/04 Q1024=
200704120550 METAR ESMX 120550Z 00000KT 0350 R01/0550 R19/0800V1900 FG VV002 03/03 Q1023=
200704120520 METAR ESMX 120520Z VRB02KT 0250 R01/0450N R19/0900V1500D FG VV002 03/03 Q1023=
200704120450 METAR ESMX 120450Z 32003KT 0300 R01/0550 R19/0550V0900N FG VV002 03/03 Q1023=
200704120420 METAR ESMX 120420Z 29003KT 250V330 0250 R01/0600 R19/1000N FG VV002 03/03 Q1022=
200704120350 METAR ESMX 120350Z 26003KT 0300 R01/0800N R19/0750V1100N FG VV002 03/03 Q1022=
200704120320 METAR ESMX 120320Z AUTO 29004KT 0350NDV R01/1000N R19/1200D FG VV001 03/03 Q1022=
200704120250 METAR ESMX 120250Z AUTO 27005KT 240V300 0350NDV R01/1000D R19/1300N FG VV001 03/03 Q1022=
200704120220 METAR ESMX 120220Z AUTO 29006KT 0550NDV R01/1200VP2000D R19/1900D FG VV001 03/03 Q1021=
200704120150 METAR ESMX 120150Z AUTO 27004KT 6000NDV BR FEW003/// 02/02 Q1021=
200704120120 METAR ESMX 120120Z AUTO 28004KT 6000NDV BR NCD 01/01 Q1021=
200704120050 METAR ESMX 120050Z AUTO 00000KT 8000NDV BR NCD 02/02 Q1021=
200704120020 METAR ESMX 120020Z AUTO 25004KT 9999NDV NCD 03/02 Q1020=
200704112350 METAR ESMX 112350Z 25004KT CAVOK 03/02 Q1020=
200704112320 METAR ESMX 112320Z 24004KT 210V280 CAVOK 04/02 Q1020=
200704112250 METAR ESMX 112250Z 26006KT CAVOK 05/02 Q1019=
200704112220 METAR ESMX 112220Z 25004KT CAVOK 05/02 Q1019=
200704112150 METAR ESMX 112150Z 26006KT CAVOK 05/02 Q1019=
200704112120 METAR ESMX 112120Z 26006KT 230V290 CAVOK 06/03 Q1019=
200704112050 METAR ESMX 112050Z 27008KT CAVOK 06/03 Q1019=
200704112020 METAR ESMX 112020Z 26008KT CAVOK 07/02 Q1018=
200704111950 METAR ESMX 111950Z 27008KT CAVOK 08/02 Q1018=
200704111920 METAR ESMX 111920Z 28007KT CAVOK 08/02 Q1017=
200704111850 METAR ESMX 111850Z 27007KT CAVOK 09/02 Q1017=
200704111820 METAR ESMX 111820Z 27011KT CAVOK 09/02 Q1016=
200704111750 METAR ESMX 111750Z 28012KT CAVOK 10/02 Q1016=
200704111650 METAR ESMX 111650Z 28011KT 240V320 CAVOK 12/02 Q1015=
200704111620 METAR ESMX 111620Z 27011KT 250V310 CAVOK 13/02 Q1014=
200704111550 METAR ESMX 111550Z 28013G23KT CAVOK 13/02 Q1014=
200704111520 METAR ESMX 111520Z 28014G24KT CAVOK 14/02 Q1013=
200704111450 METAR ESMX 111450Z 29016KT CAVOK 14/02 Q1013=
200704111420 METAR ESMX 111420Z 27016KT 250V310 9999 FEW040 14/03 Q1013=
200704111350 METAR ESMX 111350Z 27015G26KT 9999 FEW040 14/03 Q1012=
200704111320 METAR ESMX 111320Z 28017KT 250V320 9999 FEW040 14/03 Q1012=
200704111250 METAR ESMX 111250Z 28018KT 250V320 9999 FEW040 14/04 Q1012=
200704111220 METAR ESMX 111220Z 27017KT 9999 FEW040 13/04 Q1011=
200704111150 METAR ESMX 111150Z 27015KT 230V300 9999 FEW040 14/04 Q1011=
200704111120 METAR ESMX 111120Z 27016G26KT 240V310 9999 FEW040 13/03 Q1011=
200704111050 METAR ESMX 111050Z 27017KT 250V310 9999 FEW040 13/04 Q1011=
200704111020 METAR ESMX 111020Z 28015G26KT 250V320 9999 FEW035 13/04 Q1011=
200704110950 METAR ESMX 110950Z 27019KT 9999 FEW030 13/04 Q1011=
200704110920 METAR ESMX 110920Z 29019G29KT 250V320 9999 FEW030 12/04 Q1011=
200704110850 METAR ESMX 110850Z 27018KT 240V300 9999 FEW030 12/05 Q1011=
200704110820 METAR ESMX 110820Z 27016G26KT 9999 FEW030 11/05 Q1010=
200704110750 METAR ESMX 110750Z 27017G28KT 240V300 9999 FEW020 10/05 Q1010=
200704110720 METAR ESMX 110720Z 26015KT 9999 FEW020 10/05 Q1010=
200704110650 METAR ESMX 110650Z 28012KT 250V320 9999 SCT020 09/05 Q1010=
200704110620 METAR ESMX 110620Z 26013KT 230V290 9999 SCT020 09/05 Q1010=
200704110550 METAR ESMX 110550Z 26013KT 9999 BKN020 08/05 Q1010=
200704110520 METAR ESMX 110520Z 26015KT 9999 BKN020 08/05 Q1010=
200704110450 METAR ESMX 110450Z 26012KT 9999 BKN020 08/05 Q1009=
200704110420 METAR ESMX 110420Z 26013KT 9999 FEW017 BKN020 08/05 Q1009=
200704110350 METAR ESMX 110350Z 26013KT 9999 FEW014 SCT018 BKN021 08/06 Q1009=
200704110120 METAR ESMX 110120Z AUTO 26014KT 230V310 9999NDV OVC009/// 08/06 Q1010=
200704110050 METAR ESMX 110050Z AUTO 26011KT 220V290 9999NDV OVC011/// 08/06 Q1010=
200704110020 METAR ESMX 110020Z 26011KT 230V290 9999 OVC012 08/05 Q1010=
200704102350 METAR ESMX 102350Z 25014KT 9999 OVC013 08/05 Q1010=
200704102320 METAR ESMX 102320Z 27012KT 9999 OVC012 07/05 Q1010=
200704102250 METAR ESMX 102250Z 25010KT 9999 OVC012 07/05 Q1010=
200704102220 METAR ESMX 102220Z 25009KT 9999 OVC012 07/05 Q1010=
200704102150 METAR ESMX 102150Z 25009KT 9999 OVC013 07/04 Q1010=
200704102120 METAR ESMX 102120Z 25009KT 9999 OVC017 07/04 Q1011=
200704102050 METAR ESMX 102050Z 25007KT 9999 BKN018 06/04 Q1011=
200704102020 METAR ESMX 102020Z 26008KT CAVOK 06/03 Q1011=
200704101950 METAR ESMX 101950Z 26009KT CAVOK 07/03 Q1010=
200704101920 METAR ESMX 101920Z 25010KT 9999 FEW026 BKN100 07/03 Q1010=
200704101850 METAR ESMX 101850Z 25008KT 9999 SCT025 07/03 Q1010=
200704101820 METAR ESMX 101820Z 25009KT 220V290 9999 FEW026 07/03 Q1010=
200704101750 METAR ESMX 101750Z 25007KT 9999 FEW030 08/03 Q1010=
200704101720 METAR ESMX 101720Z 26010KT 9999 FEW030 09/03 Q1009=
200704101650 METAR ESMX 101650Z 25012KT 9999 FEW035 10/03 Q1009=
200704101620 METAR ESMX 101620Z 26010KT 220V290 9999 FEW035 10/03 Q1009=
200704101550 METAR ESMX 101550Z 25012KT 220V280 9999 FEW040 11/03 Q1008=
200704101520 METAR ESMX 101520Z 25012KT 9999 FEW040 12/03 Q1008=
200704101450 METAR ESMX 101450Z 28010KT 9999 SCT045 13/03 Q1008=
200704101420 METAR ESMX 101420Z 27011KT 230V320 9999 SCT045 13/04 Q1007=
200704101350 METAR ESMX 101350Z 27009KT 220V300 9999 SCT040 13/05 Q1007=
200704101320 METAR ESMX 101320Z 25008KT 210V280 9999 FEW025 SCT035 12/05 Q1007=
200704101250 METAR ESMX 101250Z 25007KT 200V290 9999 FEW025 SCT040 11/05 Q1007=
200704101220 METAR ESMX 101220Z 29009KT 9999 FEW025 BKN040 11/05 Q1007=
200704101150 METAR ESMX 101150Z 27010KT 9999 FEW020 OVC040 10/06 Q1007=
200704101120 METAR ESMX 101120Z 27007KT 230V300 9999 FEW017 BKN027 10/06 Q1007=
200704101050 METAR ESMX 101050Z 28009KT 250V320 9999 FEW017 BKN029 09/06 Q1006=
200704100950 METAR ESMX 100950Z 30008KT 250V340 9999 FEW010 BKN025 08/06 Q1005=
200704100920 METAR ESMX 100920Z 27007KT 230V300 9999 FEW010 BKN016 08/06 Q1005=
200704100850 METAR ESMX 100850Z 25008KT 9999 FEW009 BKN031 07/06 Q1005=
200704100820 METAR ESMX 100820Z 27005KT 250V320 9999 FEW007 SCT013 BKN026 07/06 Q1004=
200704100750 METAR ESMX 100750Z 27006KT 9999 FEW008 SCT014 BKN021 07/06 Q1004=
200704100720 METAR ESMX 100720Z 24005KT 6000 BR FEW003 BKN006 06/06 Q1004=
200704100650 METAR ESMX 100650Z 21007KT 3500 BR BKN002 OVC006 05/05 Q1003=
200704100550 METAR ESMX 100550Z 17005KT 6000 -RA OVC002 04/04 Q1003=
200704100520 METAR ESMX 100520Z 18006KT 4600 -RA OVC001 04/04 Q1003=
200704100450 METAR ESMX 100450Z 17005KT 4400 -RA OVC002 03/03 Q1004=
200704100420 METAR ESMX 100420Z 17006KT 3200 DZ OVC002 03/02 Q1004=
200704100350 METAR ESMX 100350Z 16006KT 3700 DZ OVC002 02/02 Q1004=
200704100320 METAR ESMX 100320Z 16008KT 9000 -DZ BKN002 02/01 Q1004=
200704100250 METAR ESMX 100250Z AUTO 16006KT 5000NDV DZ FEW003/// SCT005/// OVC007/// 02/01 Q1005 RERA=
200704100220 METAR ESMX 100220Z AUTO 16005KT 5000NDV DZ FEW007/// BKN008/// OVC012/// 01/01 Q1005 RERA=
200704100150 METAR ESMX 100150Z AUTO 15004KT 6000NDV RA BKN010/// OVC014/// 01/00 Q1006=
200704100120 METAR ESMX 100120Z AUTO 17003KT 5000NDV +RA FEW015/// SCT028/// 01/01 Q1006=
200704100050 METAR ESMX 100050Z AUTO 15004KT 120V190 9000NDV -RA BKN020/// 01/01 Q1006=
200704100020 METAR ESMX 100020Z 17004KT 9999 -RASN BKN021 OVC028 01/01 Q1007=
200704092350 METAR ESMX 092350Z 17005KT 9999 BKN003 BKN022 01/01 Q1007=
200704092320 METAR ESMX 092320Z 15005KT 9999 SCT003 BKN032 01/01 Q1007=
200704092250 METAR ESMX 092250Z 15005KT 9999 SCT003 BKN049 01/01 Q1007=
200704092220 METAR ESMX 092220Z 13003KT 9999 FEW004 SCT046 BKN051 00/M00 Q1007=
200704092150 METAR ESMX 092150Z 12003KT 9999 FEW023 OVC046 00/M00 Q1007=
200704092120 METAR ESMX 092120Z 13003KT 9999 FEW003 BKN047 00/M00 Q1008=
200704092050 METAR ESMX 092050Z 13003KT 9999 FEW020 BKN034 01/01 Q1008=
200704092020 METAR ESMX 092020Z 09002KT 9999 FEW028 BKN034 02/01 Q1008=
200704091950 METAR ESMX 091950Z 00000KT 9999 BKN030 02/01 Q1008=
200704091920 METAR ESMX 091920Z VRB02KT 9999 FEW016 BKN025 02/01 Q1008=
200704091850 METAR ESMX 091850Z 02003KT 9999 -DZ FEW007 SCT016 BKN020 02/01 Q1008=
200704091820 METAR ESMX 091820Z 29003KT 9000 -DZ FEW009 BKN011 BKN015 03/01 Q1008=
200704091750 METAR ESMX 091750Z 30004KT 9999 FEW014 SCT024 BKN030 03/01 Q1007=
200704091720 METAR ESMX 091720Z 31004KT 9999 FEW016 SCT019 BKN038 03/00 Q1006=
200704091650 METAR ESMX 091650Z 31005KT 9999 FEW028 SCT032 04/00 Q1006=
200704091620 METAR ESMX 091620Z 33009KT 9999 SCT016 BKN025 03/01 Q1006=
200704091550 METAR ESMX 091550Z 32009KT 9999 SCT018 OVC025 04/00 Q1006=
200704091520 METAR ESMX 091520Z 34009KT 9999 SCT019 BKN023 OVC028 04/00 Q1005=
200704091450 METAR ESMX 091450Z 30009KT 9999 FEW015 BKN020 04/M00 Q1005=
200704091420 METAR ESMX 091420Z 31011KT 270V330 9999 FEW015 BKN020 04/M00 Q1005=
200704091350 METAR ESMX 091350Z 33012KT 9999 SCT016 BKN020 04/00 Q1005=
200704091320 METAR ESMX 091320Z AUTO 33014KT 9999NDV FEW015/// SCT017/// OVC020/// 04/01 Q1004=
200704091250 METAR ESMX 091250Z AUTO 33012KT 9999NDV SCT016/// BKN020/// OVC026/// 04/01 Q1003=
200704091220 METAR ESMX 091220Z AUTO 31009KT 260V340 9999NDV FEW015/// SCT018/// OVC022/// 04/01 Q1003=
200704091150 METAR ESMX 091150Z AUTO 30009KT 9999NDV SCT012/// BKN018/// OVC020/// 05/02 Q1002=
200704091120 METAR ESMX 091120Z AUTO 33012KT 9999NDV OVC011/// 04/01 Q1002=
200704091050 METAR ESMX 091050Z AUTO 32013KT 9999NDV BKN010/// OVC018/// 05/03 Q1001=
200704091020 METAR ESMX 091020Z AUTO 32013KT 280V350 9999NDV BKN012/// OVC021/// 07/04 Q1001=
200704090950 METAR ESMX 090950Z AUTO 29013KT 9999NDV SCT012/// OVC017/// 08/05 Q1000 RERA REDZ=
200704090920 METAR ESMX 090920Z AUTO 30010KT 260V340 9999NDV UP FEW014/// SCT020/// BKN025/// 07/05 Q1000 RERA REDZ=
200704090850 METAR ESMX 090850Z AUTO 30009KT 9999NDV -DZ FEW010/// SCT014/// BKN017/// 07/05 Q0999=
200704090820 METAR ESMX 090820Z AUTO 30011KT 260V340 9000NDV -DZ FEW005/// SCT008/// BKN011/// 07/06 Q0999 RERA=
200704090750 METAR ESMX 090750Z AUTO 29008KT 3300NDV BR FEW006/// BKN009/// OVC012/// 07/06 Q0999=
200704090720 METAR ESMX 090720Z AUTO 27009KT 230V300 8000NDV BR FEW006/// BKN008/// OVC011/// 07/06 Q0998=
200704090650 METAR ESMX 090650Z AUTO 27010KT 7000NDV BR FEW005/// SCT007/// BKN009/// 06/06 Q0998=
200704090620 METAR ESMX 090620Z AUTO 27009KT 9999NDV FEW005/// SCT007/// BKN009/// 06/06 Q0998=
200704090550 METAR ESMX 090550Z AUTO 26009KT 5000NDV BR FEW004/// BKN006/// OVC008/// 06/06 Q0998=
200704090520 METAR ESMX 090520Z AUTO 26008KT 3000NDV BR FEW004/// BKN005/// OVC007/// 06/05 Q0998=
200704090450 METAR ESMX 090450Z AUTO 26008KT 2800NDV BR FEW003/// OVC005/// 06/05 Q0999=
200704090420 METAR ESMX 090420Z AUTO 25009KT 4800NDV BR OVC004/// 06/05 Q0999=
200704090350 METAR ESMX 090350Z AUTO 25010KT 9000NDV OVC005/// 05/05 Q0999=
200704090320 METAR ESMX 090320Z AUTO 25009KT 6000NDV BR FEW005/// OVC006/// 05/05 Q0999 RERA REDZ=
200704090250 METAR ESMX 090250Z AUTO 25008KT 6000NDV BR OVC005/// 05/04 Q1000=
200704090220 METAR ESMX 090220Z AUTO 23006KT 210V270 4100NDV BR FEW003/// SCT006/// OVC007/// 04/03 Q1000 REDZ=
200704090150 METAR ESMX 090150Z AUTO 20006KT 2200NDV DZ FEW002/// SCT004/// BKN007/// 03/03 Q1001=
200704090120 METAR ESMX 090120Z AUTO 21006KT 4900NDV DZ BKN001/// OVC004/// 02/02 Q1001 RERA=
200704090050 METAR ESMX 090050Z AUTO 18007KT 4300NDV -RA OVC001/// 02/02 Q1002 REDZ=
200704090020 METAR ESMX 090020Z AUTO 18007KT 3700NDV DZ OVC002/// 02/01 Q1002 RERA=
200704082350 METAR ESMX 082350Z AUTO 18007KT 6000NDV -RA OVC002/// 01/01 Q1003 REDZ=
200704082320 METAR ESMX 082320Z AUTO 17007KT 4500NDV -RA OVC002/// 01/01 Q1004=
200704082250 METAR ESMX 082250Z AUTO 17007KT 4900NDV RA BKN002/// OVC005/// 01/00 Q1004 RESN=
200704082220 METAR ESMX 082220Z AUTO 17007KT 140V200 2200NDV -RA SCT002/// BKN005/// OVC007/// 01/00 Q1005 RESN=
200704082150 METAR ESMX 082150Z AUTO 16008KT 110V190 3200NDV -SN BKN002/// OVC005/// 01/00 Q1006 RERA=
200704082120 METAR ESMX 082120Z AUTO 17006KT 3600NDV +RA OVC002/// 01/00 Q1007 RESN=
200704082050 METAR ESMX 082050Z AUTO 17007KT 3000NDV -SN OVC002/// 01/00 Q1007 RERA=
200704082020 METAR ESMX 082020Z AUTO 16006KT 8000NDV -RA OVC003/// 01/00 Q1008=
200704081950 METAR ESMX 081950Z AUTO 16007KT 130V200 4000NDV -RA OVC003/// 01/00 Q1009=
200704081920 METAR ESMX 081920Z AUTO 16006KT 3100NDV RA OVC002/// 01/00 Q1009=
200704081850 METAR ESMX 081850Z AUTO 16008KT 1800NDV +RA BKN003/// OVC005/// 01/00 Q1010=
200704081820 METAR ESMX 081820Z AUTO 16005KT 2700NDV RA SCT003/// BKN006/// BKN007/// 01/00 Q1011=
200704081750 METAR ESMX 081750Z AUTO 15004KT 120V180 2600NDV RA FEW004/// SCT006/// BKN007/// 01/00 Q1011=
200704081720 METAR ESMX 081720Z AUTO 16003KT 140V200 1700NDV +RA FEW009/// 01/00 Q1012=
200704081650 METAR ESMX 081650Z AUTO 16006KT 4200NDV RA FEW007/// 02/M00 Q1012 REDZ=
200704081620 METAR ESMX 081620Z AUTO 19008KT 9999NDV -DZ FEW026/// SCT040/// 03/M02 Q1013 RERA=
200704081550 METAR ESMX 081550Z AUTO 17006KT 9999NDV FEW033/// 04/M05 Q1013=
200704081520 METAR ESMX 081520Z AUTO 19004KT 140V240 9999NDV FEW043/// 05/M05 Q1014=
200704081450 METAR ESMX 081450Z AUTO 17006KT 9999NDV FEW051/// 05/M06 Q1014=
200704081420 METAR ESMX 081420Z AUTO 21007KT 9999NDV FEW051/// 05/M08 Q1015=
200704081350 METAR ESMX 081350Z AUTO 27005KT 200V330 9999NDV FEW055/// 05/M09 Q1015=
200704081320 METAR ESMX 081320Z AUTO 21008KT 9999NDV BKN052/// 05/M07 Q1016=
200704081250 METAR ESMX 081250Z AUTO 23006KT 180V270 9999NDV FEW059/// 05/M08 Q1016=
200704081220 METAR ESMX 081220Z AUTO 19007KT 150V210 9999NDV FEW059/// 06/M09 Q1016=
200704081150 METAR ESMX 081150Z AUTO 20006KT 9999NDV FEW057/// 06/M10 Q1016=
200704081120 METAR ESMX 081120Z AUTO 24007KT 9999NDV FEW052/// 05/M10 Q1017=
200704081050 METAR ESMX 081050Z AUTO VRB03KT 9999NDV FEW088/// 06/M10 Q1017=
200704081020 METAR ESMX 081020Z AUTO 23005KT 180V260 9999NDV NCD 05/M11 Q1017=
200704080950 METAR ESMX 080950Z AUTO VRB05KT 9999NDV NCD 05/M11 Q1017=
200704080920 METAR ESMX 080920Z AUTO 04004KT 360V100 9999NDV NCD 04/M11 Q1017=
200704080850 METAR ESMX 080850Z AUTO 36003KT 310V050 9999NDV FEW065/// 03/M11 Q1017=
200704080820 METAR ESMX 080820Z AUTO 04004KT 360V070 9999NDV SCT065/// 04/M10 Q1017=
200704080750 METAR ESMX 080750Z AUTO 35005KT 300V050 9999NDV OVC070/// 02/M09 Q1017=
200704080720 METAR ESMX 080720Z AUTO 01005KT 9999NDV OVC069/// 02/M07 Q1017=
200704080650 METAR ESMX 080650Z AUTO 01005KT 9999NDV BKN067/// 01/M05 Q1017=
200704080620 METAR ESMX 080620Z AUTO 32003KT 9999NDV NCD 00/M02 Q1017=
200704080550 METAR ESMX 080550Z AUTO 29003KT 9999NDV NCD M02/M02 Q1016=
200704080520 METAR ESMX 080520Z AUTO 29002KT 9999NDV NCD M04/M04 Q1016=
200704080450 METAR ESMX 080450Z AUTO 28002KT 2300NDV NCD M04/M05 Q1016=
200704080420 METAR ESMX 080420Z AUTO 30002KT 9999NDV NCD M03/M03 Q1016=
200704080350 METAR ESMX 080350Z AUTO 31002KT 1900NDV NCD M03/M03 Q1016=
200704080320 METAR ESMX 080320Z AUTO 31003KT 9999NDV NCD M03/M03 Q1015=
200704080250 METAR ESMX 080250Z AUTO 32004KT 9999NDV NCD M02/M03 Q1015=
200704080220 METAR ESMX 080220Z AUTO 31005KT 9999NDV NCD M02/M02 Q1015=
200704080150 METAR ESMX 080150Z AUTO 32004KT 290V350 9999NDV NCD M02/M02 Q1015=
200704080120 METAR ESMX 080120Z AUTO 30004KT 270V330 9999NDV FEW074/// M01/M02 Q1014=
200704080050 METAR ESMX 080050Z AUTO 31004KT 9999NDV SCT072/// M01/M02 Q1014=
200704080020 METAR ESMX 080020Z AUTO 29006KT 9999NDV SCT059/// M01/M01 Q1014=
200704072350 METAR ESMX 072350Z AUTO 30005KT 9999NDV FEW065/// M01/M02 Q1014=
200704072320 METAR ESMX 072320Z AUTO 29005KT 9999NDV FEW072/// M02/M03 Q1014=
200704072250 METAR ESMX 072250Z AUTO 27002KT 9999NDV NCD M02/M02 Q1013=
200704072220 METAR ESMX 072220Z AUTO 28004KT 9999NDV NCD M01/M02 Q1013=
200704072150 METAR ESMX 072150Z AUTO 28002KT 9999NDV SCT080/// M01/M01 Q1013=
200704072120 METAR ESMX 072120Z AUTO 29002KT 9999NDV BKN084/// 00/M01 Q1013=
200704072050 METAR ESMX 072050Z AUTO 27002KT 9999NDV FEW007/// SCT072/// BKN084/// 01/M00 Q1013=
200704072020 METAR ESMX 072020Z AUTO 33003KT 290V360 9999NDV FEW007/// SCT063/// BKN074/// 01/M00 Q1013=
200704071950 METAR ESMX 071950Z AUTO 26003KT 230V290 9999NDV FEW007/// 01/M00 Q1013=
200704071920 METAR ESMX 071920Z AUTO 26006KT 230V290 9999NDV FEW027/// SCT040/// 01/M00 Q1013 RERA=
200704071850 METAR ESMX 071850Z AUTO 24008KT 210V280 9999NDV -RA FEW029/// 02/M00 Q1013 REDZ=
200704071820 METAR ESMX 071820Z AUTO 26009KT 9999NDV FEW032/// SCT040/// 02/M00 Q1013 RERA REDZ=
200704071750 METAR ESMX 071750Z AUTO 26013KT 9999NDV -RA FEW045/// 03/M01 Q1013=
200704071720 METAR ESMX 071720Z AUTO 27011KT 9999NDV NCD 04/M03 Q1013=
200704071650 METAR ESMX 071650Z AUTO 27015KT 9999NDV FEW078/// 05/M04 Q1013=
200704071620 METAR ESMX 071620Z AUTO 27012KT 9999NDV FEW081/// 06/M05 Q1013=
200704071550 METAR ESMX 071550Z AUTO 27014KT 230V310 9999NDV FEW100/// 07/M06 Q1013=
200704071520 METAR ESMX 071520Z AUTO 27013KT 9999NDV FEW062/// 08/M07 Q1013=
200704071450 METAR ESMX 071450Z AUTO 26015KT 9999NDV SCT063/// 08/M07 Q1013=
200704071420 METAR ESMX 071420Z AUTO 28013KT 250V320 9999NDV FEW066/// 08/M08 Q1013=
200704071350 METAR ESMX 071350Z AUTO 30012G22KT 270V350 9999NDV SCT063/// 09/M07 Q1013=
200704071320 METAR ESMX 071320Z AUTO 29010KT 260V330 9999NDV FEW062/// 07/M08 Q1014=
200704071250 METAR ESMX 071250Z AUTO 30011KT 240V330 9999NDV FEW059/// 07/M08 Q1014=
200704071220 METAR ESMX 071220Z AUTO 28012KT 250V320 9999NDV FEW062/// 07/M08 Q1014=
200704071150 METAR ESMX 071150Z AUTO 28013KT 250V320 9999NDV FEW056/// 07/M08 Q1014=
200704071120 METAR ESMX 071120Z AUTO 29014KT 250V320 9999NDV NCD 06/M09 Q1015=
200704071050 METAR ESMX 071050Z AUTO 30012KT 260V010 9999NDV FEW062/// 06/M08 Q1015=
200704071020 METAR ESMX 071020Z AUTO 29013KT 9999NDV NCD 06/M09 Q1015=
200704070950 METAR ESMX 070950Z AUTO 29014KT 260V330 9999NDV FEW057/// 05/M09 Q1015=
200704070920 METAR ESMX 070920Z AUTO 28013KT 240V330 9999NDV NCD 05/M08 Q1015=
200704070850 METAR ESMX 070850Z AUTO 29013KT 9999NDV NCD 05/M08 Q1015=
200704070820 METAR ESMX 070820Z AUTO 28011KT 9999NDV NCD 04/M07 Q1015=
200704070750 METAR ESMX 070750Z AUTO 29008KT 260V320 9999NDV NCD 03/M06 Q1015=
200704070720 METAR ESMX 070720Z AUTO 29009KT 9999NDV NCD 02/M06 Q1015=
200704070650 METAR ESMX 070650Z AUTO 29009KT 9999NDV NCD 01/M05 Q1015=
200704070620 METAR ESMX 070620Z AUTO 27007KT 240V300 9999NDV NCD M00/M05 Q1015=
200704070550 METAR ESMX 070550Z AUTO 29006KT 9999NDV NCD M01/M05 Q1015=
200704070520 METAR ESMX 070520Z AUTO 27005KT 9999NDV NCD M02/M05 Q1014=
200704070450 METAR ESMX 070450Z AUTO 27006KT 9999NDV NCD M03/M06 Q1014=
200704070420 METAR ESMX 070420Z AUTO 26005KT 9999NDV NCD M04/M06 Q1014=
200704070350 METAR ESMX 070350Z AUTO 25003KT 9999NDV NCD M04/M07 Q1014=
200704070320 METAR ESMX 070320Z AUTO 26003KT 9999NDV NCD M04/M06 Q1014=
200704070250 METAR ESMX 070250Z AUTO 25004KT 9999NDV NCD M04/M07 Q1014=
200704070220 METAR ESMX 070220Z AUTO 24004KT 9999NDV NCD M04/M07 Q1015=
200704070150 METAR ESMX 070150Z AUTO 25004KT 9999NDV NCD M05/M07 Q1015=
200704070120 METAR ESMX 070120Z AUTO 24003KT 9999NDV NCD M05/M07 Q1015=
200704070050 METAR ESMX 070050Z AUTO 25003KT 9999NDV NCD M04/M07 Q1015=
200704070020 METAR ESMX 070020Z AUTO 26002KT 9999NDV NCD M04/M06 Q1015=
200704062350 METAR ESMX 062350Z AUTO 27004KT 9999NDV NCD M03/M06 Q1015=
200704062320 METAR ESMX 062320Z AUTO 29005KT 9999NDV NCD M02/M06 Q1015=
200704062250 METAR ESMX 062250Z AUTO 30004KT 9999NDV NCD M01/M06 Q1015=
200704062220 METAR ESMX 062220Z AUTO VRB02KT 9999NDV NCD M01/M06 Q1015=
200704062150 METAR ESMX 062150Z AUTO 29004KT 9999NDV NCD M01/M06 Q1015=
200704062120 METAR ESMX 062120Z AUTO 27004KT 9999NDV NCD M00/M06 Q1015=
200704062050 METAR ESMX 062050Z AUTO 27005KT 9999NDV NCD 00/M06 Q1015=
200704062020 METAR ESMX 062020Z AUTO 27005KT 9999NDV NCD 01/M06 Q1015=
200704061950 METAR ESMX 061950Z AUTO 27005KT 9999NDV NCD 01/M06 Q1014=
200704061920 METAR ESMX 061920Z AUTO 26007KT 230V300 9999NDV NCD 02/M06 Q1014=
200704061850 METAR ESMX 061850Z AUTO 26007KT 230V290 9999NDV NCD 03/M06 Q1014=
200704061820 METAR ESMX 061820Z AUTO 26006KT 9999NDV NCD 03/M07 Q1013=
200704061750 METAR ESMX 061750Z AUTO 27008KT 9999NDV NCD 04/M07 Q1013=
200704061720 METAR ESMX 061720Z AUTO 27006KT 9999NDV NCD 06/M11 Q1013=
200704061650 METAR ESMX 061650Z AUTO 27007KT 230V290 9999NDV NCD 07/M11 Q1013=
200704061620 METAR ESMX 061620Z AUTO 26008KT 9999NDV NCD 07/M11 Q1013=
200704061550 METAR ESMX 061550Z AUTO 28009KT 250V320 9999NDV NCD 08/M11 Q1013=
200704061520 METAR ESMX 061520Z AUTO 30008KT 250V340 9999NDV NCD 08/M12 Q1013=
200704061450 METAR ESMX 061450Z AUTO 26007KT 220V290 9999NDV NCD 08/M12 Q1013=
200704061420 METAR ESMX 061420Z AUTO 27007KT 240V320 9999NDV NCD 08/M11 Q1013=
200704061350 METAR ESMX 061350Z AUTO 28010KT 250V330 9999NDV NCD 08/M12 Q1013=
200704061320 METAR ESMX 061320Z AUTO 31007G18KT 260V340 9999NDV NCD 08/M12 Q1013=
200704061250 METAR ESMX 061250Z AUTO 32011KT 9999NDV NCD 07/M12 Q1013=
200704061220 METAR ESMX 061220Z AUTO 30009KT 240V340 9999NDV NCD 07/M11 Q1013=
200704061150 METAR ESMX 061150Z AUTO 32010KT 280V350 9999NDV NCD 07/M11 Q1013=
200704061120 METAR ESMX 061120Z AUTO 28011KT 9999NDV NCD 07/M10 Q1013=
200704061050 METAR ESMX 061050Z AUTO 28010KT 240V310 9999NDV NCD 06/M11 Q1013=
200704061020 METAR ESMX 061020Z AUTO 27012KT 9999NDV NCD 06/M10 Q1013=
200704060950 METAR ESMX 060950Z AUTO 32012KT 9999NDV NCD 06/M11 Q1013=
200704060920 METAR ESMX 060920Z AUTO 28008KT 240V320 9999NDV NCD 05/M10 Q1012=
200704060850 METAR ESMX 060850Z AUTO 29009KT 9999NDV NCD 05/M09 Q1012=
200704060820 METAR ESMX 060820Z AUTO 30009KT 270V350 9999NDV NCD 04/M10 Q1012=
200704060750 METAR ESMX 060750Z AUTO 31009KT 280V340 9999NDV NCD 03/M10 Q1012=
200704060720 METAR ESMX 060720Z AUTO 31008KT 9999NDV NCD 03/M09 Q1012=
200704060650 METAR ESMX 060650Z AUTO 31008KT 9999NDV NCD 02/M09 Q1012=
200704060620 METAR ESMX 060620Z AUTO 31008KT 9999NDV NCD 01/M09 Q1011=
200704060550 METAR ESMX 060550Z AUTO 31007KT 9999NDV NCD 00/M09 Q1011=
200704060520 METAR ESMX 060520Z AUTO 30007KT 9999NDV NCD M01/M09 Q1011=
200704060450 METAR ESMX 060450Z AUTO 30007KT 9999NDV NCD M01/M10 Q1010=
200704060420 METAR ESMX 060420Z AUTO 30004KT 9999NDV NCD M02/M11 Q1010=
200704060350 METAR ESMX 060350Z AUTO 29005KT 9999NDV NCD M02/M10 Q1009=
200704060320 METAR ESMX 060320Z AUTO 29005KT 9999NDV NCD M01/M11 Q1009=
200704060250 METAR ESMX 060250Z AUTO 32007KT 9999NDV NCD M00/M11 Q1009=
200704060220 METAR ESMX 060220Z AUTO 31008KT 9999NDV NCD 01/M10 Q1009=
200704060150 METAR ESMX 060150Z AUTO 32004KT 9999NDV NCD M00/M09 Q1008=
200704060120 METAR ESMX 060120Z AUTO 31005KT 9999NDV NCD 01/M09 Q1008=
200704060050 METAR ESMX 060050Z AUTO 32007KT 9999NDV NCD 02/M08 Q1007=
200704060020 METAR ESMX 060020Z AUTO 31007KT 9999NDV NCD 02/M07 Q1007=
200704052350 METAR ESMX 052350Z AUTO 33010KT 9999NDV NCD 03/M07 Q1007=
200704052320 METAR ESMX 052320Z AUTO 30007KT 9999NDV NCD 04/M05 Q1006=
200704052250 METAR ESMX 052250Z AUTO 29008KT 260V320 9999NDV NCD 04/M04 Q1006=
200704052220 METAR ESMX 052220Z AUTO 30009KT 9999NDV NCD 05/M04 Q1005=
200704052150 METAR ESMX 052150Z AUTO 29009KT 9999NDV NCD 06/M03 Q1005=
200704052050 METAR ESMX 052050Z AUTO 30009KT 9999NDV NCD 07/M01 Q1004=
200704052020 METAR ESMX 052020Z AUTO 29009KT 9999NDV NCD 07/M01 Q1004=
200704051950 METAR ESMX 051950Z AUTO 28010KT 250V320 9999NDV NCD 07/M00 Q1003=
200704051920 METAR ESMX 051920Z AUTO 28010KT 9999NDV NCD 07/M01 Q1003=
200704051850 METAR ESMX 051850Z AUTO 29010KT 9999NDV NCD 08/M01 Q1003=
200704051820 METAR ESMX 051820Z AUTO 29010G20KT 260V320 9999NDV NCD 09/M01 Q1002=
200704051750 METAR ESMX 051750Z 29015KT CAVOK 09/M00 Q1002=
200704051720 METAR ESMX 051720Z 29014G25KT CAVOK 10/M00 Q1001=
200704051650 METAR ESMX 051650Z 29016G27KT CAVOK 11/01 Q1001=
200704051620 METAR ESMX 051620Z 28019G29KT CAVOK 11/01 Q1001=
200704051550 METAR ESMX 051550Z 29017KT CAVOK 11/01 Q1001=
200704051520 METAR ESMX 051520Z 29017KT 250V310 CAVOK 12/01 Q1001=
200704051450 METAR ESMX 051450Z 29020G31KT 240V320 CAVOK 13/01 Q1001=
200704051420 METAR ESMX 051420Z 28020KT CAVOK 14/01 Q1000=
200704051350 METAR ESMX 051350Z 29014G24KT 260V340 CAVOK 14/01 Q1000=
200704051320 METAR ESMX 051320Z 28019G29KT 250V330 CAVOK 14/01 Q1000=
200704051250 METAR ESMX 051250Z 29016G29KT 250V320 9999 FEW040 14/02 Q1001=
200704051220 METAR ESMX 051220Z 28017KT 220V320 9999 FEW040 14/02 Q1001=
200704051150 METAR ESMX 051150Z 29015KT 240V300 9999 FEW040 13/02 Q1001=
200704051120 METAR ESMX 051120Z 27014KT CAVOK 13/03 Q1001=
200704051050 METAR ESMX 051050Z 28016KT CAVOK 12/03 Q1001=
200704051020 METAR ESMX 051020Z 29014KT 250V330 CAVOK 12/03 Q1001=
200704050950 METAR ESMX 050950Z 28013G23KT CAVOK 12/02 Q1001=
200704050920 METAR ESMX 050920Z 28012KT CAVOK 10/03 Q1002=
200704050850 METAR ESMX 050850Z 29012KT CAVOK 09/03 Q1002=
200704050820 METAR ESMX 050820Z 27015KT 240V320 CAVOK 10/03 Q1002=
200704050750 METAR ESMX 050750Z 28013KT CAVOK 09/03 Q1002=
200704050720 METAR ESMX 050720Z 28012G22KT 250V310 9999 FEW020 08/03 Q1002=
200704050650 METAR ESMX 050650Z 27009KT 9000 FEW015 06/03 Q1002=
200704050620 METAR ESMX 050620Z AUTO 26008KT 230V300 9000NDV SCT012/// 05/03 Q1002=
200704050550 METAR ESMX 050550Z AUTO 27007KT 240V310 9000NDV FEW011/// SCT014/// 05/03 Q1002=
200704050520 METAR ESMX 050520Z AUTO 26008KT 9999NDV BKN011/// 05/03 Q1002=
200704050450 METAR ESMX 050450Z AUTO 26008KT 9999NDV BKN011/// 05/03 Q1002=
200704050420 METAR ESMX 050420Z AUTO 24008KT 200V270 9999NDV BKN012/// 05/03 Q1002=
200704050350 METAR ESMX 050350Z AUTO 27008KT 240V300 9999NDV BKN013/// 05/03 Q1003=
200704050320 METAR ESMX 050320Z AUTO 26009KT 230V290 9999NDV BKN013/// 05/03 Q1003=
200704050250 METAR ESMX 050250Z AUTO 26010KT 9999NDV OVC014/// 05/03 Q1003=
200704050220 METAR ESMX 050220Z AUTO 26011KT 9999NDV BKN014/// 06/03 Q1003=
200704050150 METAR ESMX 050150Z AUTO 27011KT 9999NDV OVC014/// 06/03 Q1004=
200704050120 METAR ESMX 050120Z AUTO 28011KT 230V320 9999NDV OVC014/// 06/03 Q1004=
200704050050 METAR ESMX 050050Z AUTO 26011KT 9999NDV OVC014/// 06/03 Q1004=
200704050020 METAR ESMX 050020Z 27010KT 230V310 9999 OVC013 06/03 Q1005=
200704042350 METAR ESMX 042350Z 26011KT 9999 OVC014 06/03 Q1005=
200704042250 METAR ESMX 042250Z 27011KT 230V300 9999 BKN014 06/03 Q1006=
200704042220 METAR ESMX 042220Z 26012KT 240V310 9999 BKN015 06/03 Q1006=
200704042120 METAR ESMX 042120Z 25013KT 9999 FEW010 SCT012 BKN014 07/04 Q1007=
200704042050 METAR ESMX 042050Z 23012KT 190V260 9999 OVC010 06/04 Q1007=
200704042020 METAR ESMX 042020Z 23012G26KT 200V270 9999 OVC012 06/04 Q1008=
200704041950 METAR ESMX 041950Z 24012KT 9999 OVC013 06/03 Q1008=
200704041920 METAR ESMX 041920Z 24012KT 200V270 9999 SCT014 06/03 Q1009=
200704041850 METAR ESMX 041850Z 22010KT CAVOK 06/02 Q1009=
200704041820 METAR ESMX 041820Z 24011KT 200V280 CAVOK 06/01 Q1010=
200704041750 METAR ESMX 041750Z 22008KT CAVOK 06/01 Q1010=
200704041720 METAR ESMX 041720Z 24008KT 200V270 CAVOK 07/01 Q1011=
200704041650 METAR ESMX 041650Z 25012KT CAVOK 07/01 Q1011=
200704041620 METAR ESMX 041620Z 24012KT CAVOK 08/M02 Q1012=
200704041550 METAR ESMX 041550Z 25015KT CAVOK 08/M06 Q1012=
200704041520 METAR ESMX 041520Z 25013KT CAVOK 09/M06 Q1013=
200704041450 METAR ESMX 041450Z 23013G23KT 190V280 CAVOK 09/M07 Q1013=
200704041420 METAR ESMX 041420Z 25013KT 210V280 CAVOK 10/M06 Q1013=
200704041350 METAR ESMX 041350Z 24012KT 200V280 CAVOK 10/M06 Q1014=
200704041320 METAR ESMX 041320Z 26014KT 220V280 CAVOK 11/M07 Q1014=
200704041250 METAR ESMX 041250Z 25014KT CAVOK 11/M05 Q1014=
200704041220 METAR ESMX 041220Z 25012KT 210V290 CAVOK 11/M05 Q1015=
200704041150 METAR ESMX 041150Z 26012KT 220V290 CAVOK 11/M04 Q1015=
200704041120 METAR ESMX 041120Z 26012KT 220V290 CAVOK 10/M05 Q1016=
200704041050 METAR ESMX 041050Z 26011KT CAVOK 10/M04 Q1016=
200704041020 METAR ESMX 041020Z 26010KT 210V290 CAVOK 10/M03 Q1017=
200704040950 METAR ESMX 040950Z 25010KT 210V300 CAVOK 09/M04 Q1017=
200704040920 METAR ESMX 040920Z 25012KT CAVOK 08/M03 Q1017=
200704040850 METAR ESMX 040850Z 27010KT CAVOK 08/M03 Q1018=
200704040820 METAR ESMX 040820Z 26009KT 220V280 CAVOK 06/M01 Q1018=
200704040750 METAR ESMX 040750Z 28007KT CAVOK 05/M01 Q1018=
200704040650 METAR ESMX 040650Z 25006KT 220V290 CAVOK 03/M03 Q1018=
200704040620 METAR ESMX 040620Z 24003KT CAVOK 01/M03 Q1018=
200704040550 METAR ESMX 040550Z 17002KT CAVOK M01/M03 Q1018=
200704040520 METAR ESMX 040520Z 17002KT CAVOK M03/M04 Q1018=
200704040450 METAR ESMX 040450Z VRB02KT 9999 NSC M04/M05 Q1018=
200704040420 METAR ESMX 040420Z 16002KT CAVOK M05/M06 Q1018=
200704040350 METAR ESMX 040350Z 18002KT CAVOK M05/M05 Q1018=
200704040320 METAR ESMX 040320Z AUTO 21002KT 9999NDV NCD M03/M04 Q1018=
200704040250 METAR ESMX 040250Z AUTO 19003KT 9999NDV NCD M05/M06 Q1018=
200704040220 METAR ESMX 040220Z AUTO 18002KT 9999NDV NCD M05/M06 Q1018=
200704040150 METAR ESMX 040150Z VRB01KT CAVOK M05/M06 Q1018=
200704040120 METAR ESMX 040120Z 26001KT CAVOK M05/M06 Q1018=
200704040050 METAR ESMX 040050Z 20002KT CAVOK M04/M05 Q1018=
200704040020 METAR ESMX 040020Z 00000KT CAVOK M04/M06 Q1018=
200704032350 METAR ESMX 032350Z 00000KT CAVOK M04/M05 Q1018=
200704032320 METAR ESMX 032320Z 17001KT CAVOK M04/M05 Q1018=
200704032250 METAR ESMX 032250Z 27002KT CAVOK M04/M06 Q1018=
200704032220 METAR ESMX 032220Z 28003KT CAVOK M02/M05 Q1018=
200704032150 METAR ESMX 032150Z 28002KT CAVOK M02/M05 Q1018=
200704032120 METAR ESMX 032120Z 26001KT CAVOK M02/M05 Q1018=
200704032050 METAR ESMX 032050Z VRB02KT CAVOK M01/M04 Q1018=
200704032020 METAR ESMX 032020Z VRB01KT CAVOK M02/M05 Q1018=
200704031950 METAR ESMX 031950Z 26001KT CAVOK M01/M05 Q1018=
200704031920 METAR ESMX 031920Z 27001KT CAVOK M00/M04 Q1018=
200704031850 METAR ESMX 031850Z 36001KT CAVOK 01/M04 Q1018=
200704031820 METAR ESMX 031820Z 36004KT CAVOK 03/M04 Q1018=
200704031750 METAR ESMX 031750Z 35007KT CAVOK 05/M04 Q1018=
200704031720 METAR ESMX 031720Z 01011KT 9999 FEW040 BKN050 05/M06 Q1018=
200704031650 METAR ESMX 031650Z 36010KT 9999 FEW040 BKN055 05/M03 Q1017=
200704031550 METAR ESMX 031550Z 36014KT 9999 FEW041 SCT058 06/M02 Q1017=
200704031520 METAR ESMX 031520Z 03008KT 350V060 9999 FEW045 SCT070 06/M02 Q1017=
200704031450 METAR ESMX 031450Z 01011KT 9999 FEW033 BKN055 05/M01 Q1017=
200704031420 METAR ESMX 031420Z 02010KT 340V050 9999 SCT037 BKN066 06/M02 Q1016=
200704031350 METAR ESMX 031350Z 01010KT 340V050 9999 FEW030 SCT059 BKN071 06/M01 Q1016=
200704031320 METAR ESMX 031320Z 01012KT 9999 VCSH FEW032 SCT042 BKN065 06/M01 Q1016 RERA=
200704031250 METAR ESMX 031250Z 01012KT 9999 FEW034 BKN054 06/M02 Q1016=
200704031220 METAR ESMX 031220Z 01010KT 9999 FEW040 OVC050 06/M02 Q1016=
200704031150 METAR ESMX 031150Z 02007KT 350V060 9999 BKN035 06/M01 Q1015=
200704031120 METAR ESMX 031120Z 03013KT 360V070 9999 BKN030 05/M01 Q1015=
200704031050 METAR ESMX 031050Z 04011KT 010V070 9999 BKN030 06/M01 Q1015=
200704031020 METAR ESMX 031020Z 02013G23KT 350V060 9999 SCT028 BKN043 05/M01 Q1015=
200704030950 METAR ESMX 030950Z 01013KT 340V040 9999 SCT030 BKN042 05/M01 Q1015=
200704030850 METAR ESMX 030850Z 36014KT 9999 BKN030 05/M01 Q1014=
200704030820 METAR ESMX 030820Z 36013KT 9999 BKN035 07/00 Q1014=
200704030750 METAR ESMX 030750Z 02013KT 9999 SCT030 05/M01 Q1014=
200704030720 METAR ESMX 030720Z 01014KT 9999 FEW030 05/M00 Q1014=
200704030650 METAR ESMX 030650Z 01015KT 9999 FEW030 04/M01 Q1014=
200704030620 METAR ESMX 030620Z 01011KT 9999 FEW025 04/01 Q1013=
200704030550 METAR ESMX 030550Z 36011KT 9999 FEW020 04/01 Q1013=
200704030520 METAR ESMX 030520Z 34008KT 9999 FEW013 SCT050 04/02 Q1013=
200704030450 METAR ESMX 030450Z 35006KT 9999 SCT010 BKN035 04/03 Q1013=
200704030420 METAR ESMX 030420Z 35006KT 9999 SCT010 BKN030 04/03 Q1013=
200704030350 METAR ESMX 030350Z AUTO 34007KT 9999NDV FEW011/// SCT017/// OVC030/// 04/03 Q1013 RERA REDZ=
200704030320 METAR ESMX 030320Z AUTO 35006KT 8000NDV -RA BKN010/// BKN022/// 03/03 Q1013 REDZ=
200704030250 METAR ESMX 030250Z AUTO 32005KT 9999NDV OVC011/// 04/02 Q1013 REDZ=
200704030220 METAR ESMX 030220Z AUTO 32005KT 9999NDV DZ FEW016/// SCT056/// 04/02 Q1013 RERA=
200704030150 METAR ESMX 030150Z AUTO 32006KT 9999NDV -RA BKN022/// 03/01 Q1013=
200704030120 METAR ESMX 030120Z AUTO 31004KT 280V340 9999NDV FEW025/// 03/01 Q1013=
200704030050 METAR ESMX 030050Z AUTO 29005KT 9999NDV NCD 02/00 Q1014=
200704030020 METAR ESMX 030020Z AUTO 30004KT 9999NDV NCD 02/00 Q1014=
200704022350 METAR ESMX 022350Z 30005KT 9999 SCT016 03/01 Q1015=
200704022320 METAR ESMX 022320Z 30006KT 9999 BKN016 03/01 Q1015=
200704022250 METAR ESMX 022250Z 27006KT 9999 BKN016 04/01 Q1015=
200704022220 METAR ESMX 022220Z 28004KT 240V300 9999 OVC017 04/01 Q1016=
200704022150 METAR ESMX 022150Z 26004KT 230V290 9999 BKN017 04/01 Q1016=
200704022120 METAR ESMX 022120Z 27006KT 9999 FEW017 04/01 Q1016=
200704022050 METAR ESMX 022050Z 25005KT 220V280 CAVOK 04/01 Q1017=
200704022020 METAR ESMX 022020Z 25008KT CAVOK 05/01 Q1017=
200704021950 METAR ESMX 021950Z 26008KT CAVOK 06/00 Q1018=
200704021920 METAR ESMX 021920Z 26007KT CAVOK 07/M01 Q1018=
200704021850 METAR ESMX 021850Z 23006KT CAVOK 07/M01 Q1018=
200704021820 METAR ESMX 021820Z 25006KT CAVOK 07/M02 Q1019=
200704021750 METAR ESMX 021750Z 23006KT CAVOK 07/M01 Q1019=
200704021720 METAR ESMX 021720Z 25010KT CAVOK 10/M02 Q1019=
200704021650 METAR ESMX 021650Z 24009KT 210V270 CAVOK 11/M02 Q1020=
200704021620 METAR ESMX 021620Z 27012KT 240V310 CAVOK 12/M03 Q1020=
200704021550 METAR ESMX 021550Z 26010KT 220V290 CAVOK 12/M03 Q1021=
200704021520 METAR ESMX 021520Z 24011KT 210V280 CAVOK 13/M03 Q1022=
200704021450 METAR ESMX 021450Z 28014KT CAVOK 14/M02 Q1022=
200704021420 METAR ESMX 021420Z 28014KT 240V300 CAVOK 14/M03 Q1022=
200704021350 METAR ESMX 021350Z 25013KT CAVOK 14/M02 Q1023=
200704021320 METAR ESMX 021320Z 28014KT 250V310 CAVOK 14/M02 Q1023=
200704021250 METAR ESMX 021250Z 26014KT CAVOK 14/M02 Q1024=
200704021220 METAR ESMX 021220Z 25013KT 210V310 CAVOK 14/M01 Q1024=
200704021150 METAR ESMX 021150Z 24013KT 190V260 CAVOK 14/M01 Q1025=
200704021120 METAR ESMX 021120Z 26014KT 220V290 CAVOK 14/M01 Q1025=
200704021050 METAR ESMX 021050Z 25013KT 210V310 CAVOK 14/M02 Q1026=
200704021020 METAR ESMX 021020Z 25013KT 210V280 CAVOK 13/M02 Q1027=
200704020950 METAR ESMX 020950Z 25012KT 210V290 CAVOK 13/M02 Q1027=
200704020920 METAR ESMX 020920Z 27013KT 230V310 CAVOK 12/M01 Q1028=
200704020850 METAR ESMX 020850Z 26012KT CAVOK 12/M00 Q1028=
200704020820 METAR ESMX 020820Z 26010KT CAVOK 11/M00 Q1029=
200704020750 METAR ESMX 020750Z 26008KT 230V290 CAVOK 10/M00 Q1029=
200704020720 METAR ESMX 020720Z 25007KT CAVOK 08/M00 Q1029=
200704020650 METAR ESMX 020650Z 25005KT 220V290 CAVOK 06/00 Q1030=
200704020620 METAR ESMX 020620Z 25004KT CAVOK 04/00 Q1030=
200704020550 METAR ESMX 020550Z 23005KT CAVOK 02/M00 Q1030=
200704020520 METAR ESMX 020520Z 23004KT 200V280 CAVOK 02/M01 Q1030=
200704020450 METAR ESMX 020450Z 22002KT CAVOK 01/M01 Q1031=
200704020420 METAR ESMX 020420Z 20003KT 190V250 CAVOK 01/M02 Q1031=
200704020350 METAR ESMX 020350Z 24003KT CAVOK 01/M01 Q1032=
200704020320 METAR ESMX 020320Z AUTO 24004KT 9999NDV NCD 01/M01 Q1032=
200704020250 METAR ESMX 020250Z AUTO 24004KT 9999NDV NCD 00/M02 Q1032=
200704020220 METAR ESMX 020220Z AUTO 24004KT 9999NDV NCD 00/M01 Q1032=
200704020150 METAR ESMX 020150Z AUTO 25004KT 9999NDV NCD 01/M01 Q1032=
200704020120 METAR ESMX 020120Z AUTO 25004KT 9999NDV NCD 02/M01 Q1033=
200704020050 METAR ESMX 020050Z AUTO 25003KT 9999NDV NCD 02/M01 Q1033=
200704020020 METAR ESMX 020020Z AUTO 25003KT 9999NDV NCD 02/M01 Q1033=
200704012350 METAR ESMX 012350Z 25003KT CAVOK 02/M01 Q1033=
200704012320 METAR ESMX 012320Z 24004KT CAVOK 03/M01 Q1033=
200704012250 METAR ESMX 012250Z 25003KT CAVOK 04/M00 Q1033=
200704012220 METAR ESMX 012220Z 25003KT CAVOK 03/M01 Q1033=
200704012150 METAR ESMX 012150Z 24004KT CAVOK 04/M01 Q1033=
200704012120 METAR ESMX 012120Z 22005KT CAVOK 05/M01 Q1034=
200704012050 METAR ESMX 012050Z 23007KT CAVOK 05/M01 Q1034=
200704012020 METAR ESMX 012020Z 22007KT CAVOK 05/M00 Q1034=
200704011950 METAR ESMX 011950Z 22007KT CAVOK 06/M00 Q1034=
200704011920 METAR ESMX 011920Z 22008KT CAVOK 07/M00 Q1034=
200704011850 METAR ESMX 011850Z 23004KT CAVOK 05/M00 Q1034=
200704011820 METAR ESMX 011820Z 17003KT CAVOK 07/00 Q1034=
200704011750 METAR ESMX 011750Z 24003KT CAVOK 08/01 Q1034=
200704011720 METAR ESMX 011720Z 22002KT CAVOK 12/M00 Q1034=
200704011650 METAR ESMX 011650Z 25003KT CAVOK 13/M02 Q1034=
200704011620 METAR ESMX 011620Z 25003KT 210V280 CAVOK 14/M03 Q1034=
200704011550 METAR ESMX 011550Z 27005KT CAVOK 15/M03 Q1034=
200704011520 METAR ESMX 011520Z 30006KT CAVOK 15/M03 Q1034=
200704011450 METAR ESMX 011450Z 25004KT CAVOK 15/M03 Q1035=
200704011420 METAR ESMX 011420Z VRB06KT CAVOK 15/M03 Q1035=
200704011350 METAR ESMX 011350Z 29004KT 230V350 CAVOK 16/M03 Q1035=
200704011320 METAR ESMX 011320Z 24006KT CAVOK 15/M02 Q1035=
200704011250 METAR ESMX 011250Z 26004KT 230V300 CAVOK 15/M01 Q1035=
200704011220 METAR ESMX 011220Z 22005KT CAVOK 15/M02 Q1035=
