##########################################################
# Query made at 04/19/2024 21:06:14 UTC
# Time interval: from 10/01/2008 12:00  to 10/31/2008 12:59  UTC
##########################################################

##########################################################
# ESMX, Vaxjo (Sweden)
# WMO index: 02641. WIGOS ID: 0-20000-0-02648
# Latitude 56-51N. Longitude 014-50E. Altitude 199 m.
##########################################################

200810311250 METAR ESMX 311250Z 26009KT 9999 FEW013 BKN017 OVC021 03/01 Q1004=
200810311220 METAR ESMX 311220Z 27011KT 9999 FEW012 OVC015 03/01 Q1004=
200810311150 METAR ESMX 311150Z 27008KT 240V310 9999 BKN011 OVC017 03/01 Q1003=
200810311120 METAR ESMX 311120Z 28010KT 250V320 9999 FEW010 SCT013 BKN020 03/01 Q1002=
200810311050 METAR ESMX 311050Z 28010KT 9999 FEW010 BKN013 OVC020 03/02 Q1002=
200810311020 METAR ESMX 311020Z 28011KT 9999 -DZ FEW009 BKN011 03/01 Q1001=
200810310950 METAR ESMX 310950Z 27011KT 9999 -DZ FEW008 SCT010 OVC013 02/01 Q1000 REUP=
200810310920 METAR ESMX 310920Z 27010KT 9999 -RA FEW009 BKN011 OVC016 02/01 Q1000=
200810310850 METAR ESMX 310850Z 27011KT 9999 -RA SCT010 BKN014 OVC017 02/01 Q0999=
200810310820 METAR ESMX 310820Z 27010KT 9999 FEW010 OVC012 02/01 Q0999=
200810310750 METAR ESMX 310750Z 26009KT 9999 BKN011 OVC016 02/01 Q0998=
200810310720 METAR ESMX 310720Z 27010KT 9999 FEW011 SCT013 OVC016 02/01 Q0997=
200810310650 METAR ESMX 310650Z 28011KT 9999 BKN011 OVC015 02/01 Q0997=
200810310620 METAR ESMX 310620Z 27010KT 9999 FEW009 SCT012 BKN014 02/01 Q0996 REDZ=
200810310550 METAR ESMX 310550Z 28010KT 240V300 7000 -DZ FEW008 SCT010 BKN013 02/01 Q0995=
200810310520 METAR ESMX 310520Z 28012KT 250V320 9999 -DZ FEW007 BKN012 BKN020 02/01 Q0994=
200810310450 METAR ESMX 310450Z AUTO 28011KT 8000NDV -RA FEW008/// SCT013/// BKN017/// 01/00 Q0994 REDZ=
200810310420 METAR ESMX 310420Z AUTO 28012KT 250V310 9000NDV -DZ FEW008/// BKN011/// OVC018/// 01/00 Q0993=
200810310350 METAR ESMX 310350Z AUTO 28011KT 250V320 8000NDV -RA FEW007/// SCT009/// BKN012/// 01/00 Q0993 REDZ=
200810310320 METAR ESMX 310320Z AUTO 28012KT 8000NDV -RA FEW007/// SCT009/// BKN012/// 01/00 Q0993=
200810310250 METAR ESMX 310250Z AUTO 28010KT 9999NDV -RA FEW008/// SCT011/// BKN014/// 01/01 Q0992=
200810310220 METAR ESMX 310220Z AUTO 30012KT 270V330 9000NDV -RA FEW009/// SCT012/// BKN015/// 02/01 Q0991=
200810310150 METAR ESMX 310150Z AUTO 30013KT 270V340 9999NDV -RA FEW009/// SCT012/// BKN016/// 01/01 Q0991=
200810310120 METAR ESMX 310120Z AUTO 30012KT 260V340 4800NDV RA FEW007/// SCT009/// BKN012/// 01/00 Q0990=
200810310050 METAR ESMX 310050Z AUTO 31012KT 5000NDV RA FEW007/// SCT009/// BKN011/// 01/00 Q0990=
200810310020 METAR ESMX 310020Z 31012KT 4500 -RASN FEW007 BKN010 01/00 Q0990=
200810302350 METAR ESMX 302350Z 33014KT 290V350 6000 -RA FEW007 SCT009 BKN011 01/01 Q0990 REDZ=
200810302320 METAR ESMX 302320Z 33013KT 300V010 8000 -RA SCT007 BKN009 BKN012 01/01 Q0990=
200810302250 METAR ESMX 302250Z 33016G26KT 300V010 4500 -SNRA SCT006 BKN009 BKN012 01/01 Q0989=
200810302220 METAR ESMX 302220Z 33015KT 290V350 3900 -SN FEW006 BKN007 BKN011 01/00 Q0989=
200810302150 METAR ESMX 302150Z 34016KT 1500 -SNRA BKN006 OVC009 01/00 Q0989=
200810302120 METAR ESMX 302120Z 34016KT 300V010 1900 -SN BKN005 BKN010 01/00 Q0990 RERA=
200810302050 METAR ESMX 302050Z 33015KT 3000 RASN FEW006 OVC007 01/00 Q0990=
200810302020 METAR ESMX 302020Z 34016KT 3600 RA BKN006 OVC009 01/01 Q0990 RESN=
200810301950 METAR ESMX 301950Z 34016KT 2500 -SNRA SCT005 OVC006 01/00 Q0991 RERA=
200810301920 METAR ESMX 301920Z 34016KT 300V010 3400 RA FEW006 BKN008 BKN011 01/01 Q0991=
200810301850 METAR ESMX 301850Z 34017KT 300V010 4900 -RA SCT007 OVC010 02/01 Q0991=
200810301820 METAR ESMX 301820Z 34018G32KT 300V010 5000 RA FEW009 BKN011 BKN016 02/01 Q0991=
200810301750 METAR ESMX 301750Z 34019G29KT 5000 -RA SCT009 BKN012 01/01 Q0992=
200810301720 METAR ESMX 301720Z 34017KT 5000 -RA FEW007 SCT009 BKN011 01/01 Q0992=
200810301650 METAR ESMX 301650Z 34017G28KT 3600 -RASN FEW005 BKN006 BKN008 01/01 Q0993 RESN=
200810301620 METAR ESMX 301620Z 34017KT 4900 -SN FEW003 SCT005 BKN007 01/01 Q0993=
200810301550 METAR ESMX 301550Z 35015G25KT 2600 -SN OVC004 01/00 Q0994 RERA=
200810301520 METAR ESMX 301520Z 35015KT 5000 -SN FEW004 OVC005 01/01 Q0994 RERA=
200810301450 METAR ESMX 301450Z 35013KT 5000 -RASN FEW004 SCT006 BKN008 01/01 Q0995=
200810301420 METAR ESMX 301420Z 35013KT 7000 -RASN FEW005 OVC006 01/01 Q0996=
200810301350 METAR ESMX 301350Z 36015KT 6000 -RASN FEW005 BKN007 BKN010 02/01 Q0995=
200810301320 METAR ESMX 301320Z 36011KT 6000 RA FEW005 SCT006 BKN008 02/01 Q0996=
200810301250 METAR ESMX 301250Z 03011KT 9999 -RA FEW007 BKN008 BKN010 02/01 Q0997=
200810301220 METAR ESMX 301220Z 04009KT 9999 -RA BKN007 OVC010 03/02 Q0997 REDZ=
200810301150 METAR ESMX 301150Z 03009KT 360V070 9999 -DZ FEW006 BKN007 OVC010 03/02 Q0998 RERA=
200810301120 METAR ESMX 301120Z 03008KT 350V060 9999 BKN006 BKN012 03/02 Q0998=
200810301050 METAR ESMX 301050Z 04008KT 9999 -RA BKN006 BKN016 03/02 Q0999=
200810301020 METAR ESMX 301020Z 03007KT 9999 -RA SCT006 BKN008 BKN044 03/02 Q1000=
200810300950 METAR ESMX 300950Z 03007KT 9999 OVC006 03/02 Q1000=
200810300920 METAR ESMX 300920Z 02007KT 9999 SCT007 BKN009 02/02 Q1000=
200810300850 METAR ESMX 300850Z 03008KT CAVOK 02/01 Q1000=
200810300820 METAR ESMX 300820Z 03007KT CAVOK 02/01 Q1000=
200810300750 METAR ESMX 300750Z 03007KT CAVOK 02/01 Q1001=
200810300720 METAR ESMX 300720Z 04005KT 020V080 CAVOK 01/01 Q1002=
200810300650 METAR ESMX 300650Z 04004KT CAVOK 01/01 Q1002=
200810300620 METAR ESMX 300620Z 03005KT 9999 FEW003 01/01 Q1003=
200810300550 METAR ESMX 300550Z 05003KT 9999 FEW002 BKN200 01/01 Q1003=
200810300520 METAR ESMX 300520Z 04004KT 9999 BKN002 01/00 Q1003=
200810300450 METAR ESMX 300450Z 03004KT 9999 R01/1500U R19/P2000U FZBCFG SCT001 00/M00 Q1004=
200810300420 METAR ESMX 300420Z AUTO VRB02KT 0500NDV R01/1400VP2000D R19/P2000U FG BKN001/// 00/00 Q1004=
200810300350 METAR ESMX 300350Z AUTO 06002KT 0750NDV R01/P2000N R19/P2000U FG VV001 00/00 Q1003=
200810300320 METAR ESMX 300320Z AUTO 05004KT 0200NDV R01/0800 R19/0900V1200N FG VV001 00/00 Q1003=
200810300250 METAR ESMX 300250Z AUTO 03002KT 0150NDV R01/0600 R19/1100D FZFG VV000 M00/M00 Q1004=
200810300220 METAR ESMX 300220Z AUTO VRB01KT 0100NDV R01/0500N R19/0700N FZFG VV001 M00/M00 Q1004=
200810300150 METAR ESMX 300150Z AUTO VRB01KT 0150NDV R01/0600 R19/0600N FZFG VV000 M00/M01 Q1004=
200810300120 METAR ESMX 300120Z AUTO 03002KT 0100NDV R01/0500N R19/0400V0550N=
200810300050 METAR ESMX 300050Z VRB02KT 0100 R01/0450N R19/0500N FZFG VV001 M01/M02 Q1005=
200810300020 METAR ESMX 300020Z 03002KT 0100 R01/0400 R19/0350N FZFG VV001 M01/M02 Q1005=
200810292350 METAR ESMX 292350Z 00000KT 0050 R01/0200V0325N R19/0250N FZFG VV001 M02/M02 Q1005=
200810292320 METAR ESMX 292320Z 00000KT 0150 R01/0650 R19/0375V0650 FZFG VV001 M03/M03 Q1005=
200810292250 METAR ESMX 292250Z 00000KT 0100 R01/0900 R19/0550 FZFG VV002 M03/M03 Q1006=
200810292220 METAR ESMX 292220Z 00000KT 0200 R01/0750V1500D R19/0650 FZFG VV002 M02/M03 Q1006=
200810292150 METAR ESMX 292150Z 00000KT 0150 R01/0900V1500U R19/0900 FZFG VV002 M03/M03 Q1006=
200810292120 METAR ESMX 292120Z 00000KT 0250 R01/0900N R19/0900 FZFG VV002 M02/M02 Q1006=
200810292050 METAR ESMX 292050Z 00000KT 8000 R01/0600D R19/P2000D FZBCFG NSC M02/M02 Q1006=
200810292020 METAR ESMX 292020Z 00000KT 4000 R01/P2000D R19/P2000U FZBCFG NSC M02/M02 Q1006=
200810291950 METAR ESMX 291950Z VRB01KT 1200 R01/P2000U R19/P2000D FZBCFG NSC M02/M02 Q1006=
200810291920 METAR ESMX 291920Z 00000KT 9000 BR NSC M01/M01 Q1006=
200810291850 METAR ESMX 291850Z VRB02KT CAVOK M00/M01 Q1006=
200810291820 METAR ESMX 291820Z 00000KT CAVOK M00/M00 Q1006=
200810291750 METAR ESMX 291750Z 20002KT CAVOK 00/00 Q1006=
200810291720 METAR ESMX 291720Z 19002KT 9999 SCT025 00/M00 Q1006=
200810291650 METAR ESMX 291650Z 18001KT 9999 FEW025 01/M00 Q1006=
200810291620 METAR ESMX 291620Z 18001KT CAVOK 02/01 Q1006=
200810291550 METAR ESMX 291550Z 16002KT CAVOK 03/02 Q1006=
200810291520 METAR ESMX 291520Z 17002KT CAVOK 04/02 Q1006=
200810291450 METAR ESMX 291450Z 18004KT CAVOK 06/03 Q1006=
200810291420 METAR ESMX 291420Z 18004KT CAVOK 06/03 Q1006=
200810291350 METAR ESMX 291350Z 22004KT 9999 FEW024 06/03 Q1006=
200810291320 METAR ESMX 291320Z 22004KT 180V260 9999 FEW015 SCT019 BKN022 07/03 Q1006=
200810291250 METAR ESMX 291250Z 19007KT 9999 FEW015 06/03 Q1006=
200810291220 METAR ESMX 291220Z 21006KT 160V240 9999 FEW012 SCT014 06/03 Q1006=
200810291150 METAR ESMX 291150Z 19007KT 9999 FEW009 06/03 Q1006=
200810291120 METAR ESMX 291120Z 19006KT 9999 FEW009 SCT011 05/03 Q1007=
200810291050 METAR ESMX 291050Z 21005KT 170V240 9999 SCT010 05/03 Q1007=
200810291020 METAR ESMX 291020Z 21007KT 9999 SCT006 BKN008 05/04 Q1007=
200810290950 METAR ESMX 290950Z 20008KT 9999 BR BKN005 BKN009 05/04 Q1007=
200810290920 METAR ESMX 290920Z 21007KT 8000 BR BKN005 BKN007 05/03 Q1007=
200810290850 METAR ESMX 290850Z 18005KT 140V200 9000 BR FEW008 BKN010 04/03 Q1007=
200810290820 METAR ESMX 290820Z 17005KT 9000 BR FEW010 BKN065 04/03 Q1007=
200810290750 METAR ESMX 290750Z 17005KT 9000 BR FEW011 SCT016 BKN040 04/03 Q1007=
200810290720 METAR ESMX 290720Z 16004KT 9999 FEW026 SCT041 BKN066 03/02 Q1007=
200810290650 METAR ESMX 290650Z 17006KT 9999 SCT016 BKN026 03/03 Q1007=
200810290620 METAR ESMX 290620Z 16005KT 9999 FEW014 SCT042 BKN069 03/02 Q1007=
200810290550 METAR ESMX 290550Z 16005KT 9999 FEW042 02/02 Q1006=
200810290520 METAR ESMX 290520Z 15006KT 9000 BR FEW045 02/02 Q1006=
200810290450 METAR ESMX 290450Z 14007KT 9000 BR FEW045 03/02 Q1006=
200810290420 METAR ESMX 290420Z AUTO 14006KT 100V160 9999NDV OVC049/// 03/02 Q1006=
200810290350 METAR ESMX 290350Z AUTO 15004KT 9999NDV FEW052/// OVC066/// 03/02 Q1007=
200810290320 METAR ESMX 290320Z AUTO 15005KT 120V190 9999NDV FEW016/// SCT034/// BKN055/// 02/02 Q1007=
200810290250 METAR ESMX 290250Z AUTO 15005KT 9999NDV FEW022/// SCT031/// OVC065/// 02/02 Q1007=
200810290220 METAR ESMX 290220Z AUTO 13006KT 9999NDV BKN053/// 02/01 Q1007=
200810290150 METAR ESMX 290150Z AUTO 13004KT 100V170 8000NDV BR OVC061/// 01/01 Q1007=
200810290120 METAR ESMX 290120Z AUTO 14004KT 110V180 7000NDV BR BKN069/// 01/01 Q1007=
200810290050 METAR ESMX 290050Z 14004KT 7000 BR NSC M01/M01 Q1007=
200810290020 METAR ESMX 290020Z 14003KT 090V170 7000 BR NSC M01/M01 Q1007=
200810282320 METAR ESMX 282320Z 17003KT CAVOK M01/M01 Q1007=
200810282250 METAR ESMX 282250Z 17003KT CAVOK 02/01 Q1007=
200810282220 METAR ESMX 282220Z 15004KT CAVOK 02/01 Q1007=
200810282150 METAR ESMX 282150Z 15004KT CAVOK 01/01 Q1007=
200810282120 METAR ESMX 282120Z 21005KT CAVOK 01/00 Q1007=
200810282050 METAR ESMX 282050Z 18006KT CAVOK 02/01 Q1007=
200810282020 METAR ESMX 282020Z 19005KT CAVOK 01/01 Q1007=
200810281950 METAR ESMX 281950Z 21004KT CAVOK 02/01 Q1006=
200810281920 METAR ESMX 281920Z 21004KT CAVOK 02/01 Q1006=
200810281850 METAR ESMX 281850Z 20007KT CAVOK 03/02 Q1006=
200810281820 METAR ESMX 281820Z 21006KT 9999 FEW030 03/02 Q1006=
200810281750 METAR ESMX 281750Z 19007KT 9999 FEW030 03/02 Q1005=
200810281720 METAR ESMX 281720Z 18006KT 9999 FEW030 04/03 Q1005=
200810281650 METAR ESMX 281650Z 21006KT 9999 FEW030 04/02 Q1005=
200810281620 METAR ESMX 281620Z 22005KT 9999 FEW034 SCT046 03/02 Q1004=
200810281550 METAR ESMX 281550Z 20005KT 9999 FEW020 04/02 Q1004=
200810281520 METAR ESMX 281520Z 21004KT 9999 FEW020 05/03 Q1003=
200810281450 METAR ESMX 281450Z 22010KT 9999 FEW023 SCT028 06/03 Q1003=
200810281420 METAR ESMX 281420Z 26008KT 220V300 6000 FEW011 SCT027CB 07/03 Q1002=
200810281350 METAR ESMX 281350Z 23009KT 180V290 9999 SCT025 08/03 Q1002=
200810281320 METAR ESMX 281320Z 22013KT 180V260 9999 SCT025 08/04 Q1001=
200810281250 METAR ESMX 281250Z 22012KT 190V250 9999 FEW022 SCT026 BKN030 08/04 Q1001=
200810281220 METAR ESMX 281220Z 24009KT 9999 FEW024 SCT053 08/04 Q1001=
200810281150 METAR ESMX 281150Z 23013KT 210V280 9999 FEW018 SCT022 BKN030 08/04 Q1001=
200810281120 METAR ESMX 281120Z 22016KT 9999 FEW015 SCT018CB 09/05 Q1000=
200810281050 METAR ESMX 281050Z 22013KT 9999 FEW014 SCT018CB BKN020 08/05 Q1000=
200810281020 METAR ESMX 281020Z 21012KT 190V250 9999 FEW011 SCT014 BKN017 08/05 Q1000=
200810280950 METAR ESMX 280950Z 22011KT 9999 FEW011 BKN016 BKN020 07/05 Q1000=
200810280920 METAR ESMX 280920Z 22011KT 9999 FEW009 BKN010 OVC014 06/05 Q0999 RERA REDZ=
200810280850 METAR ESMX 280850Z 21011KT 9999 FEW010 BKN013 OVC019 06/04 Q0999=
200810280820 METAR ESMX 280820Z 21013KT 9999 FEW010 SCT012 BKN015 06/04 Q0999=
200810280750 METAR ESMX 280750Z 21013KT 9999 FEW009 BKN011 OVC016 06/04 Q0998 REDZ=
200810280720 METAR ESMX 280720Z 21014KT 9999 -DZ FEW009 BKN011 OVC016 05/04 Q0998 RERA=
200810280650 METAR ESMX 280650Z 21012KT 9000 BR FEW007 BKN010 OVC014 05/04 Q0997 REDZ RERA=
200810280620 METAR ESMX 280620Z 20016KT 9999 -DZ FEW009 BKN011 OVC016 05/04 Q0997 RERA=
200810280550 METAR ESMX 280550Z 20017KT 9999 -DZ BKN011 OVC018 05/03 Q0996=
200810280520 METAR ESMX 280520Z 19016KT 160V230 9999 -RA FEW012 BKN015 BKN024 05/03 Q0996=
200810280450 METAR ESMX 280450Z 20016KT 9999 FEW012 SCT015 BKN019 05/03 Q0996=
200810280420 METAR ESMX 280420Z AUTO 19015KT 9999NDV FEW010/// SCT014/// BKN028/// 05/03 Q0996=
200810280350 METAR ESMX 280350Z AUTO 19014KT 9999NDV FEW034/// 04/03 Q0996=
200810280320 METAR ESMX 280320Z AUTO 19012KT 9999NDV FEW007/// 03/02 Q0996=
200810280250 METAR ESMX 280250Z AUTO 18010KT 9999NDV FEW006/// 03/02 Q0997=
200810280220 METAR ESMX 280220Z AUTO 18007KT 9999NDV BR BKN004/// OVC007/// 03/02 Q0997=
200810280150 METAR ESMX 280150Z AUTO 17005KT 8000NDV BR OVC003/// 02/02 Q0997=
200810280120 METAR ESMX 280120Z AUTO 20004KT 8000NDV BR FEW003/// OVC005/// 02/02 Q0997=
200810280050 METAR ESMX 280050Z 18006KT 9000 BR FEW004 BKN006 03/02 Q0997=
200810280020 METAR ESMX 280020Z 18004KT 9999 FEW005 BKN008 03/02 Q0998=
200810272350 METAR ESMX 272350Z 21004KT 9999 SCT010 02/01 Q0998=
200810272320 METAR ESMX 272320Z 21007KT CAVOK 02/02 Q0998=
200810272250 METAR ESMX 272250Z 19008KT CAVOK 03/02 Q0998=
200810272220 METAR ESMX 272220Z 19008KT CAVOK 03/02 Q0998=
200810272150 METAR ESMX 272150Z 19007KT CAVOK 03/02 Q0998=
200810272120 METAR ESMX 272120Z 19007KT CAVOK 03/02 Q0998=
200810272050 METAR ESMX 272050Z 20008KT CAVOK 03/03 Q0998=
200810272020 METAR ESMX 272020Z 20008KT 9999 FEW030 SCT075 04/03 Q0998=
200810271950 METAR ESMX 271950Z 20007KT 9999 FEW030 03/02 Q0998=
200810271920 METAR ESMX 271920Z 20005KT 9999 FEW030 SCT070 04/02 Q0998=
200810271850 METAR ESMX 271850Z 21005KT 9999 FEW016 SCT040 BKN070 04/03 Q0998=
200810271820 METAR ESMX 271820Z 20008KT 9999 FEW028 04/03 Q0998=
200810271750 METAR ESMX 271750Z 21006KT CAVOK 03/02 Q0998=
200810271720 METAR ESMX 271720Z 20006KT CAVOK 04/03 Q0998=
200810271650 METAR ESMX 271650Z 20007KT CAVOK 05/03 Q0998=
200810271620 METAR ESMX 271620Z 20006KT 9999 FEW020 04/04 Q0998=
200810271550 METAR ESMX 271550Z 20006KT 9999 FEW020 05/04 Q0998=
200810271520 METAR ESMX 271520Z 21006KT 9999 FEW020 06/04 Q0998=
200810271450 METAR ESMX 271450Z 22006KT 9999 FEW020 07/05 Q0998=
200810271420 METAR ESMX 271420Z 21007KT CAVOK 08/05 Q0997=
200810271320 METAR ESMX 271320Z 21007KT 9999 FEW020 08/06 Q0998=
200810271250 METAR ESMX 271250Z 20008KT 9999 FEW020 08/06 Q0998=
200810271220 METAR ESMX 271220Z 22008KT 190V270 9999 FEW014 SCT021 08/06 Q0998=
200810271150 METAR ESMX 271150Z 21007KT 9999 FEW014 08/06 Q0998=
200810271120 METAR ESMX 271120Z 21007KT 9999 FEW010 08/06 Q0998=
200810271050 METAR ESMX 271050Z 22007KT CAVOK 07/06 Q0999=
200810271020 METAR ESMX 271020Z 23008KT CAVOK 07/06 Q0999=
200810270950 METAR ESMX 270950Z 22008KT 9999 FEW025 BKN080 07/05 Q0999=
200810270920 METAR ESMX 270920Z 21008KT 9999 FEW025CB SCT030 07/05 Q0999 RERA=
200810270850 METAR ESMX 270850Z 22015KT 9999 SHRA FEW009 SCT017CB BKN036 07/05 Q0999 REDZ=
200810270820 METAR ESMX 270820Z 23007KT 9999 FEW010 SCT014 08/06 Q0999=
200810270750 METAR ESMX 270750Z 23007KT 9999 FEW007 SCT024 BKN045 07/06 Q0999=
200810270720 METAR ESMX 270720Z 22009KT 9999 BKN005 OVC008 07/06 Q0999 RERA=
200810270650 METAR ESMX 270650Z 21010KT 9999 BKN005 OVC008 07/06 Q0999=
200810270620 METAR ESMX 270620Z 20009KT 9999 FEW006 BKN008 BKN012 07/06 Q0999=
200810270520 METAR ESMX 270520Z 21009KT 9999 FEW009 SCT012 07/06 Q0999=
200810270450 METAR ESMX 270450Z 22010KT 9999 FEW010 SCT013 BKN020 08/06 Q0999=
200810270420 METAR ESMX 270420Z AUTO 22011KT 190V250 9999NDV FEW010/// SCT013/// BKN017/// 08/07 Q0999=
200810270350 METAR ESMX 270350Z AUTO 20010KT 9999NDV FEW008/// SCT010/// BKN013/// 08/07 Q1000=
200810270320 METAR ESMX 270320Z AUTO 20009KT 9999NDV FEW008/// SCT012/// BKN014/// 08/07 Q1000=
200810270250 METAR ESMX 270250Z AUTO 21009KT 9999NDV FEW009/// BKN012/// BKN018/// 08/07 Q1000=
200810270220 METAR ESMX 270220Z AUTO 21009KT 170V230 9999NDV FEW008/// OVC010/// 08/07 Q1000=
200810270150 METAR ESMX 270150Z AUTO 21012KT 9999NDV FEW009/// BKN013/// BKN030/// 08/07 Q1000=
200810270120 METAR ESMX 270120Z 21009KT 170V250 9999 FEW006 BKN012 08/07 Q1001=
200810270050 METAR ESMX 270050Z 21008KT 9999 FEW005 SCT007 BKN009 08/07 Q1001=
200810270020 METAR ESMX 270020Z 21008KT 9999 FEW006 BKN011 08/07 Q1001=
200810262350 METAR ESMX 262350Z 21009KT 9999 FEW006 BKN009 08/07 Q1001=
200810262320 METAR ESMX 262320Z 21008KT 9999 FEW004 BKN008 08/07 Q1002=
200810262250 METAR ESMX 262250Z 21007KT 9999 SCT005 SCT075 08/07 Q1002=
200810262220 METAR ESMX 262220Z 21008KT 9999 FEW005 SCT008 BKN070 09/08 Q1002=
200810262150 METAR ESMX 262150Z 23006KT 190V260 9999 FEW007 SCT010 BKN065 09/08 Q1002=
200810262120 METAR ESMX 262120Z 21007KT 9999 -RA FEW035 SCT050 09/08 Q1002=
200810262050 METAR ESMX 262050Z 21006KT 9999 FEW035 SCT045 09/08 Q1003 RERA=
200810262020 METAR ESMX 262020Z 21005KT 9999 -RA BKN035 08/07 Q1003=
200810261950 METAR ESMX 261950Z 24006KT 210V270 9999 -RA FEW015 SCT045 09/07 Q1003=
200810261920 METAR ESMX 261920Z 26009KT 230V300 5000 -RA FEW005 SCT008 BKN019 09/08 Q1003=
200810261850 METAR ESMX 261850Z 21009KT 3000 RA FEW006 SCT008 BKN011 10/09 Q1003=
200810261820 METAR ESMX 261820Z 21010KT 9999 FEW006 SCT010 BKN015 10/09 Q1003=
200810261750 METAR ESMX 261750Z 22009KT 190V250 9999 FEW004 SCT008 BKN022 10/09 Q1003 RERA REDZ=
200810261720 METAR ESMX 261720Z 22009KT 3500 BR FEW006 SCT011 BKN017 10/09 Q1003 REDZ=
200810261650 METAR ESMX 261650Z 24005KT 210V270 3000 +DZ FEW002 SCT008 BKN010 10/09 Q1004 RERA=
200810261620 METAR ESMX 261620Z 22009KT 2000 DZ FEW002 OVC004 10/10 Q1004=
200810261550 METAR ESMX 261550Z 21010KT 2500 DZ OVC004 10/10 Q1004 REUP RERA=
200810261520 METAR ESMX 261520Z 21012KT 170V240 9999 -DZ OVC004 10/10 Q1004=
200810261450 METAR ESMX 261450Z 21011KT 9999 -DZ FEW004 BKN005 OVC008 10/09 Q1004 RERA=
200810261420 METAR ESMX 261420Z 20013KT 9999 BR FEW003 OVC005 10/09 Q1005 RERA REDZ=
200810261350 METAR ESMX 261350Z 20013KT 3000 BR OVC004 10/09 Q1005 REDZ=
200810261320 METAR ESMX 261320Z 20012KT 9999 DZ FEW005 OVC006 10/09 Q1005=
200810261250 METAR ESMX 261250Z 20012KT 9999 DZ SCT005 OVC008 10/09 Q1005 RERA=
200810261220 METAR ESMX 261220Z 20013KT 9000 -RA FEW005 SCT006 BKN008 10/09 Q1006=
200810261150 METAR ESMX 261150Z 20014KT 9999 -RA SCT005 BKN008 OVC012 10/09 Q1006=
200810261120 METAR ESMX 261120Z AUTO 21014KT 9999NDV RA FEW005/// BKN007/// OVC011/// 10/09 Q1007=
200810261050 METAR ESMX 261050Z AUTO 21013KT 8000NDV -RA FEW005/// SCT007/// BKN008/// 10/09 Q1007=
200810261020 METAR ESMX 261020Z AUTO 20013KT 7000NDV DZ FEW005/// SCT006/// BKN008/// 10/09 Q1007 RERA=
200810260950 METAR ESMX 260950Z AUTO 20014KT 3600NDV DZ BKN006/// OVC009/// 09/08 Q1007 RERA=
200810260920 METAR ESMX 260920Z AUTO 20014KT 7000NDV -RA FEW005/// BKN007/// OVC009/// 09/08 Q1008 REDZ=
200810260850 METAR ESMX 260850Z AUTO 20015KT 6000NDV DZ SCT006/// BKN008/// OVC009/// 09/08 Q1008 RERA=
200810260820 METAR ESMX 260820Z AUTO 20014KT 5000NDV -RA FEW005/// BKN007/// OVC010/// 09/08 Q1008 REDZ=
200810260750 METAR ESMX 260750Z AUTO 20013KT 5000NDV -RA SCT005/// BKN008/// OVC010/// 09/08 Q1009=
200810260720 METAR ESMX 260720Z AUTO 20015KT 2900NDV DZ BKN006/// OVC011/// 09/08 Q1009 RERA=
200810260650 METAR ESMX 260650Z AUTO 20016KT 5000NDV DZ FEW006/// SCT008/// OVC009/// 09/08 Q1009 RERA=
200810260620 METAR ESMX 260620Z AUTO 19015KT 5000NDV DZ FEW007/// BKN010/// OVC014/// 09/07 Q1009 RERA=
200810260550 METAR ESMX 260550Z AUTO 20015KT 4700NDV -RA FEW007/// SCT009/// BKN011/// 08/07 Q1010=
200810260520 METAR ESMX 260520Z AUTO 19016KT 5000NDV -RA FEW009/// SCT013/// 08/07 Q1010=
200810260450 METAR ESMX 260450Z AUTO 19019KT 4700NDV -RA FEW009/// SCT013/// 08/07 Q1010=
200810260420 METAR ESMX 260420Z AUTO 19018KT 5000NDV -RA FEW052/// 08/07 Q1011=
200810260350 METAR ESMX 260350Z AUTO 19015KT 6000NDV -RA FEW045/// BKN053/// 09/07 Q1012 REDZ=
200810260320 METAR ESMX 260320Z AUTO 20013KT 9000NDV DZ FEW019/// SCT033/// BKN049/// 09/07 Q1013 RERA=
200810260250 METAR ESMX 260250Z AUTO 21013KT 9999NDV -DZ FEW018/// BKN022/// BKN028/// 09/06 Q1013 RERA=
200810260220 METAR ESMX 260220Z AUTO 20013KT 9999NDV FEW017/// OVC020/// 09/06 Q1014=
200810260150 METAR ESMX 260150Z AUTO 21015KT 160V240 9999NDV FEW018/// BKN072/// 09/06 Q1014=
200810260120 METAR ESMX 260120Z AUTO 21017KT 9999NDV FEW018/// SCT021/// BKN079/// 09/06 Q1014=
200810260050 METAR ESMX 260050Z AUTO 19016KT 9999NDV FEW017/// SCT020/// BKN024/// 09/06 Q1015=
200810260020 METAR ESMX 260020Z AUTO 20016KT 9999NDV FEW015/// BKN018/// 08/06 Q1016=
200810252350 METAR ESMX 252350Z AUTO 20017KT 9999NDV FEW015/// BKN017/// 08/05 Q1016=
200810252320 METAR ESMX 252320Z AUTO 19016KT 9999NDV BKN015/// 07/05 Q1017=
200810252250 METAR ESMX 252250Z AUTO 19014KT 9999NDV BKN016/// 07/05 Q1017=
200810252220 METAR ESMX 252220Z AUTO 19015KT 9999NDV FEW016/// BKN018/// 07/05 Q1018=
200810252150 METAR ESMX 252150Z AUTO 19017KT 9999NDV FEW014/// SCT017/// BKN020/// 07/05 Q1019=
200810252120 METAR ESMX 252120Z AUTO 19017KT 9999NDV SCT013/// BKN017/// 08/05 Q1020=
200810252050 METAR ESMX 252050Z AUTO 20016KT 9999NDV BKN013/// 08/05 Q1021=
200810252020 METAR ESMX 252020Z AUTO 20017KT 9999NDV BKN012/// OVC018/// 08/05 Q1021=
200810251950 METAR ESMX 251950Z AUTO 19015KT 9999NDV FEW012/// BKN015/// 07/05 Q1021=
200810251920 METAR ESMX 251920Z AUTO 19014KT 9999NDV FEW015/// 07/05 Q1022=
200810251850 METAR ESMX 251850Z AUTO 18014KT 9999NDV FEW015/// 08/06 Q1022=
200810251820 METAR ESMX 251820Z AUTO 18013KT 9999NDV NCD 08/05 Q1022=
200810251750 METAR ESMX 251750Z AUTO 18010KT 150V210 9999NDV FEW032/// SCT039/// 08/05 Q1023=
200810251720 METAR ESMX 251720Z AUTO 18010KT 9999NDV SCT035/// 08/05 Q1023=
200810251650 METAR ESMX 251650Z AUTO 18010KT 9999NDV NCD 08/05 Q1023=
200810251620 METAR ESMX 251620Z AUTO 18009KT 9999NDV FEW029/// 08/05 Q1024=
200810251550 METAR ESMX 251550Z AUTO 19009KT 9999NDV NCD 08/05 Q1024=
200810251520 METAR ESMX 251520Z AUTO 21010KT 9999NDV FEW034/// 08/05 Q1024=
200810251450 METAR ESMX 251450Z AUTO 21009KT 190V250 9999NDV FEW030/// 09/05 Q1024=
200810251420 METAR ESMX 251420Z AUTO 22010KT 200V260 9999NDV FEW026/// 10/05 Q1025=
200810251350 METAR ESMX 251350Z AUTO 22012KT 190V250 9999NDV FEW026/// 10/05 Q1024=
200810251320 METAR ESMX 251320Z AUTO 23013KT 190V260 9999NDV FEW025/// 11/05 Q1025=
200810251250 METAR ESMX 251250Z AUTO 22012KT 200V260 9999NDV FEW028/// 10/06 Q1025=
200810251220 METAR ESMX 251220Z AUTO 23013KT 9999NDV FEW021/// BKN025/// 10/06 Q1026=
200810251150 METAR ESMX 251150Z AUTO 22012KT 9999NDV FEW019/// SCT024/// 10/06 Q1026=
200810251120 METAR ESMX 251120Z AUTO 22013KT 9999NDV FEW020/// 10/07 Q1026=
200810251050 METAR ESMX 251050Z AUTO 22011KT 9999NDV NCD 10/07 Q1027=
200810251020 METAR ESMX 251020Z AUTO 20011KT 9999NDV FEW006/// 09/07 Q1026=
200810250950 METAR ESMX 250950Z AUTO 22008KT 190V260 9999NDV FEW004/// BKN006/// 08/06 Q1027=
200810250920 METAR ESMX 250920Z AUTO 21011KT 9999NDV BKN003/// 07/06 Q1027=
200810250850 METAR ESMX 250850Z AUTO 22011KT 9999NDV NCD 06/05 Q1027=
200810250820 METAR ESMX 250820Z AUTO 21009KT 9999NDV NCD 07/06 Q1026=
200810250750 METAR ESMX 250750Z AUTO 20009KT 9999NDV NCD 06/05 Q1026=
200810250720 METAR ESMX 250720Z AUTO 20008KT 9999NDV BR NCD 05/05 Q1026=
200810250650 METAR ESMX 250650Z AUTO 20007KT 9000NDV BR NCD 04/04 Q1026=
200810250620 METAR ESMX 250620Z AUTO 19007KT 5000NDV BR NCD 03/03 Q1026=
200810250550 METAR ESMX 250550Z AUTO 19006KT 5000NDV BR NCD 03/03 Q1025=
200810250520 METAR ESMX 250520Z AUTO 19007KT 5000NDV BR NCD 04/03 Q1025=
200810250450 METAR ESMX 250450Z AUTO 19007KT 1800NDV NCD 04/03 Q1025=
200810250420 METAR ESMX 250420Z AUTO 20006KT 1300NDV R01/P2000U R19/P2000U NCD 04/04 Q1025=
200810250350 METAR ESMX 250350Z AUTO 19007KT 0600NDV R01/P2000D R19/P2000D FG NCD 04/04 Q1025=
200810250320 METAR ESMX 250320Z AUTO 19006KT 0550NDV R01/P2000D R19/1100VP2000U BR NCD 05/04 Q1024=
200810250250 METAR ESMX 250250Z AUTO 20005KT 1300NDV R01/P2000D R19/P2000D BR NCD 05/04 Q1024=
200810250220 METAR ESMX 250220Z AUTO 20005KT 6000NDV BR NCD 06/05 Q1024=
200810250150 METAR ESMX 250150Z AUTO 21005KT 7000NDV BR NCD 06/06 Q1024=
200810250120 METAR ESMX 250120Z AUTO 22005KT 5000NDV BR FEW004/// SCT020/// 07/06 Q1024=
200810250050 METAR ESMX 250050Z AUTO 21005KT 3300NDV BR FEW004/// 06/06 Q1023=
200810250020 METAR ESMX 250020Z AUTO 20005KT 5000NDV BR NCD 07/06 Q1023=
200810242350 METAR ESMX 242350Z AUTO 22005KT 9000NDV FEW044/// 08/07 Q1023=
200810242320 METAR ESMX 242320Z AUTO 23006KT 9999NDV FEW007/// SCT010/// BKN040/// 08/08 Q1022=
200810242250 METAR ESMX 242250Z AUTO 22007KT 9999NDV FEW007/// SCT009/// BKN011/// 09/08 Q1022=
200810242220 METAR ESMX 242220Z AUTO 22008KT 180V240 9999NDV BKN005/// OVC010/// 09/08 Q1021=
200810242150 METAR ESMX 242150Z AUTO 22009KT 200V260 9999NDV FEW003/// BKN004/// OVC007/// 09/08 Q1021=
200810242120 METAR ESMX 242120Z AUTO 21009KT 4000NDV -DZ OVC004/// 09/08 Q1021 RERA=
200810242050 METAR ESMX 242050Z AUTO 21010KT 9999NDV OVC004/// 09/08 Q1020=
200810242020 METAR ESMX 242020Z AUTO 21010KT 9999NDV OVC004/// 09/08 Q1020=
200810241950 METAR ESMX 241950Z AUTO 20010KT 6000NDV BR FEW004/// OVC005/// 09/08 Q1020 REDZ=
200810241920 METAR ESMX 241920Z AUTO 20010KT 2800NDV DZ FEW004/// SCT006/// BKN007/// 09/08 Q1020=
200810241850 METAR ESMX 241850Z 20011KT 2400 DZ BKN005 OVC009 09/08 Q1020 RERA=
200810241820 METAR ESMX 241820Z 20010KT 6000 -RA FEW005 BKN006 OVC009 09/08 Q1019=
200810241750 METAR ESMX 241750Z 19011KT 4800 RA OVC005 09/08 Q1019=
200810241720 METAR ESMX 241720Z 19012KT 2700 RA FEW003 BKN005 OVC007 09/08 Q1019=
200810241650 METAR ESMX 241650Z 20013KT 2500 RA OVC005 09/08 Q1018=
200810241620 METAR ESMX 241620Z 19011KT 4900 RA OVC006 09/08 Q1018=
200810241550 METAR ESMX 241550Z 19012KT 6000 -RA BKN006 OVC008 09/08 Q1018=
200810241520 METAR ESMX 241520Z 18011KT 6000 -RA BKN005 OVC008 09/08 Q1018=
200810241450 METAR ESMX 241450Z 18011KT 6000 -RA OVC007 09/08 Q1018=
200810241420 METAR ESMX 241420Z 19011KT 160V220 6000 DZ OVC008 09/08 Q1018 RERA=
200810241350 METAR ESMX 241350Z 18010KT 7000 -DZ OVC008 09/08 Q1017 RERA=
200810241320 METAR ESMX 241320Z 19011KT 7000 -RA SCT008 OVC010 09/08 Q1018=
200810241250 METAR ESMX 241250Z 19013KT 9000 -RA OVC011 09/08 Q1017 REDZ=
200810241220 METAR ESMX 241220Z 19015KT 9999 BKN012 OVC016 10/07 Q1017=
200810241150 METAR ESMX 241150Z 18015KT 8000 BR FEW009 BKN011 OVC015 09/08 Q1017 RERA REDZ=
200810241120 METAR ESMX 241120Z 19013KT 7000 BR OVC010 09/07 Q1018=
200810241050 METAR ESMX 241050Z 19013KT 7000 BR OVC010 09/07 Q1018=
200810241020 METAR ESMX 241020Z 19014KT 9999 OVC010 09/07 Q1018=
200810240950 METAR ESMX 240950Z 19013KT 9999 OVC011 09/07 Q1017=
200810240920 METAR ESMX 240920Z 19015KT 9999 OVC011 09/07 Q1017=
200810240850 METAR ESMX 240850Z 19014KT 9999 OVC011 09/07 Q1017=
200810240820 METAR ESMX 240820Z 19015KT 9999 OVC011 09/07 Q1017=
200810240750 METAR ESMX 240750Z 19014KT 9999 OVC011 09/06 Q1017=
200810240720 METAR ESMX 240720Z 19015KT 9999 OVC011 08/06 Q1017=
200810240650 METAR ESMX 240650Z 19013KT 9999 OVC012 08/06 Q1017=
200810240620 METAR ESMX 240620Z 19014KT 9999 OVC013 08/06 Q1017=
200810240550 METAR ESMX 240550Z 20014KT 9999 OVC013 08/06 Q1017=
200810240520 METAR ESMX 240520Z 20014KT 170V230 9999 FEW013 SCT016 08/06 Q1017=
200810240450 METAR ESMX 240450Z 18015KT 9999 FEW015 SCT100 08/06 Q1016=
200810240420 METAR ESMX 240420Z 20015KT 9999 FEW013 SCT032 BKN090 08/06 Q1017=
200810240350 METAR ESMX 240350Z 18012KT 9999 FEW013 BKN090 08/06 Q1017=
200810240320 METAR ESMX 240320Z AUTO 19013KT 9999NDV FEW011/// SCT014/// 08/06 Q1017=
200810240250 METAR ESMX 240250Z AUTO 19013KT 9999NDV SCT011/// BKN100/// 08/06 Q1018=
200810240220 METAR ESMX 240220Z AUTO 19013KT 9999NDV BKN010/// BKN015/// 08/06 Q1018=
200810240150 METAR ESMX 240150Z AUTO 19015KT 9999NDV BKN010/// OVC015/// 08/06 Q1018=
200810240120 METAR ESMX 240120Z AUTO 19014KT 9999NDV OVC011/// 08/06 Q1018=
200810240050 METAR ESMX 240050Z AUTO 19014KT 9999NDV BKN011/// 08/06 Q1018=
200810240020 METAR ESMX 240020Z AUTO 19013KT 9999NDV FEW011/// BKN014/// BKN017/// 08/06 Q1018=
200810232350 METAR ESMX 232350Z 19013KT 9999 OVC011 08/06 Q1019=
200810232320 METAR ESMX 232320Z 20014KT 9999 BKN011 OVC019 08/06 Q1019=
200810232250 METAR ESMX 232250Z 19013KT 160V220 9999 OVC010 08/06 Q1019=
200810232150 METAR ESMX 232150Z 21013KT 9999 OVC008 08/06 Q1020=
200810232120 METAR ESMX 232120Z 19012KT 9999 OVC008 08/06 Q1020=
200810232050 METAR ESMX 232050Z 20013KT 9999 OVC008 08/06 Q1020=
200810232020 METAR ESMX 232020Z 20012KT 9999 BKN008 07/06 Q1021=
200810231950 METAR ESMX 231950Z 20012KT 9999 BKN010 07/05 Q1021=
200810231920 METAR ESMX 231920Z 18011KT 9999 FEW012 07/05 Q1021=
200810231850 METAR ESMX 231850Z 18010KT CAVOK 06/05 Q1021=
200810231820 METAR ESMX 231820Z 19010KT CAVOK 06/05 Q1021=
200810231750 METAR ESMX 231750Z 18009KT CAVOK 07/05 Q1021=
200810231720 METAR ESMX 231720Z 17009KT 140V210 CAVOK 08/04 Q1021=
200810231650 METAR ESMX 231650Z 18008KT CAVOK 07/04 Q1021=
200810231620 METAR ESMX 231620Z 17007KT CAVOK 08/04 Q1021=
200810231520 METAR ESMX 231520Z 18006KT CAVOK 08/04 Q1022=
200810231450 METAR ESMX 231450Z 20008KT 9999 FEW032 09/04 Q1022=
200810231420 METAR ESMX 231420Z 22009KT 9999 FEW031 10/04 Q1022=
200810231350 METAR ESMX 231350Z 22009KT 9999 FEW033 10/04 Q1022=
200810231320 METAR ESMX 231320Z 22007KT 9999 FEW031 10/05 Q1022=
200810231250 METAR ESMX 231250Z 20007KT 9999 FEW020 10/06 Q1022=
200810231220 METAR ESMX 231220Z 20010KT 9999 SCT015 10/07 Q1023=
200810231150 METAR ESMX 231150Z 22009KT 190V250 9999 SCT010 BKN015 09/06 Q1023=
200810231120 METAR ESMX 231120Z 22010KT 180V250 9999 FEW009 BKN010 09/06 Q1023=
200810231050 METAR ESMX 231050Z 22012KT 9999 SCT010 BKN013 08/06 Q1023=
200810231020 METAR ESMX 231020Z 22009KT 9999 SCT010 08/06 Q1023=
200810230950 METAR ESMX 230950Z 22007KT 9999 SCT008 07/06 Q1023=
200810230920 METAR ESMX 230920Z 21007KT 7000 BR BKN003 06/06 Q1023=
200810230850 METAR ESMX 230850Z 21007KT 4500 BR BKN003 05/05 Q1023=
200810230820 METAR ESMX 230820Z 21005KT 9999 BKN003 BKN007 05/05 Q1022=
200810230750 METAR ESMX 230750Z 20006KT 1800 R01/1300VP2000D R19/P2000U BR BKN002 05/04 Q1022=
200810230720 METAR ESMX 230720Z 22006KT 0750 R01/0800V1900D R19/1800D FG VV002 04/04 Q1022=
200810230650 METAR ESMX 230650Z 20007KT 1800 R01/1800U R19/P2000U BR VV002 04/04 Q1021=
200810230620 METAR ESMX 230620Z 22006KT 1300 R01/P2000N R19/P2000N BR VV002 04/04 Q1021=
200810230550 METAR ESMX 230550Z 21007KT 0900 R01/P2000D R19/1500VP2000N FG VV002 04/04 Q1021=
200810230520 METAR ESMX 230520Z 22005KT 3000 BR BKN002 05/04 Q1021=
200810230450 METAR ESMX 230450Z 22005KT 7000 BR FEW001 OVC003 05/05 Q1021=
200810230420 METAR ESMX 230420Z 22005KT 190V250 5000 BR OVC002 05/05 Q1020=
200810230350 METAR ESMX 230350Z 23006KT 2600 BR OVC002 05/05 Q1020=
200810230320 METAR ESMX 230320Z AUTO 23006KT 9999NDV SCT001/// BKN004/// 05/04 Q1020=
200810230250 METAR ESMX 230250Z AUTO 21005KT 9999NDV NCD 04/03 Q1019=
200810230220 METAR ESMX 230220Z AUTO 23005KT 200V260 9999NDV NCD 04/04 Q1019=
200810230150 METAR ESMX 230150Z AUTO 23005KT 9999NDV BKN004/// 05/04 Q1019=
200810230120 METAR ESMX 230120Z AUTO 22006KT 200V260 9999NDV SCT004/// BKN008/// BKN020/// 05/05 Q1019=
200810230050 METAR ESMX 230050Z AUTO 23007KT 9999NDV FEW009/// SCT044/// 05/04 Q1019 RERA=
200810230020 METAR ESMX 230020Z AUTO 23007KT 9000NDV -RA FEW008/// SCT018/// BKN031/// 06/05 Q1018 REDZ=
200810222350 METAR ESMX 222350Z 22007KT 9999 FEW019 SCT029 05/04 Q1018=
200810222320 METAR ESMX 222320Z 22008KT 9999 FEW023 SCT110 05/05 Q1018 RERA=
200810222250 METAR ESMX 222250Z 22006KT 9999 FEW017 05/04 Q1018=
200810222220 METAR ESMX 222220Z 20006KT 9999 FEW015 05/03 Q1018=
200810222150 METAR ESMX 222150Z 21007KT 9999 FEW040 SCT071 06/04 Q1018=
200810222120 METAR ESMX 222120Z 22007KT 9999 FEW041 06/04 Q1018=
200810222050 METAR ESMX 222050Z 22008KT 9999 FEW017 06/04 Q1018=
200810222020 METAR ESMX 222020Z 21012KT 9999 FEW014 07/05 Q1018=
200810221950 METAR ESMX 221950Z 20009KT CAVOK 06/05 Q1017=
200810221920 METAR ESMX 221920Z 21009KT CAVOK 06/05 Q1017=
200810221850 METAR ESMX 221850Z 20009KT CAVOK 06/05 Q1017=
200810221820 METAR ESMX 221820Z 20007KT 9999 FEW025 06/05 Q1017=
200810221750 METAR ESMX 221750Z 20008KT 9999 FEW024 07/05 Q1017=
200810221720 METAR ESMX 221720Z 20009KT CAVOK 07/05 Q1017=
200810221650 METAR ESMX 221650Z 19008KT CAVOK 07/05 Q1016=
200810221620 METAR ESMX 221620Z 20007KT CAVOK 07/05 Q1016=
200810221550 METAR ESMX 221550Z 20008KT 9999 FEW020 08/05 Q1016=
200810221520 METAR ESMX 221520Z 21008KT 9999 FEW020 08/06 Q1016=
200810221450 METAR ESMX 221450Z 20009KT 9999 FEW020 SCT023 BKN028 08/06 Q1016=
200810221420 METAR ESMX 221420Z 21008KT 9999 FEW019 SCT023 09/06 Q1016=
200810221350 METAR ESMX 221350Z 20009KT 9999 FEW020 SCT026 BKN090 09/06 Q1016=
200810221320 METAR ESMX 221320Z 20009KT 160V230 9999 FEW017 SCT035 09/06 Q1016=
200810221250 METAR ESMX 221250Z 21009KT 170V240 9999 SCT025 09/06 Q1016=
200810221220 METAR ESMX 221220Z 22007KT 9999 SCT026 08/06 Q1016=
200810221150 METAR ESMX 221150Z 24010KT 9999 -RA SCT024 SCT035 08/05 Q1016=
200810221120 METAR ESMX 221120Z 21011KT 9999 FEW011 SCT035 08/06 Q1015=
200810221050 METAR ESMX 221050Z 21011KT 9999 BKN010 BKN016 08/06 Q1015=
200810221020 METAR ESMX 221020Z 20010KT 9999 FEW013 SCT015 08/06 Q1015=
200810220950 METAR ESMX 220950Z 21010KT 9999 SCT015 BKN200 08/05 Q1015=
200810220920 METAR ESMX 220920Z 21010KT 9999 FEW013 07/05 Q1015=
200810220850 METAR ESMX 220850Z 21012KT 9999 FEW027 07/05 Q1014=
200810220820 METAR ESMX 220820Z 21010KT CAVOK 07/05 Q1014=
200810220750 METAR ESMX 220750Z 20009KT CAVOK 06/05 Q1013=
200810220720 METAR ESMX 220720Z 20010KT CAVOK 05/04 Q1013=
200810220650 METAR ESMX 220650Z 20011KT CAVOK 05/04 Q1012=
200810220620 METAR ESMX 220620Z 21009KT CAVOK 05/04 Q1012=
200810220550 METAR ESMX 220550Z 20009KT CAVOK 04/03 Q1011=
200810220520 METAR ESMX 220520Z 20009KT CAVOK 04/03 Q1011=
200810220450 METAR ESMX 220450Z 20009KT 9999 NSC 04/03 Q1010=
200810220420 METAR ESMX 220420Z 20008KT CAVOK 04/03 Q1010=
200810220350 METAR ESMX 220350Z 20008KT CAVOK 04/03 Q1010=
200810220320 METAR ESMX 220320Z 20009KT CAVOK 04/03 Q1009=
200810220250 METAR ESMX 220250Z AUTO 20008KT 9999NDV NCD 04/03 Q1009=
200810220220 METAR ESMX 220220Z AUTO 21008KT 9999NDV NCD 05/04 Q1009=
200810220150 METAR ESMX 220150Z AUTO 21008KT 9999NDV NCD 05/04 Q1008=
200810220120 METAR ESMX 220120Z AUTO 21008KT 9999NDV NCD 05/04 Q1008=
200810220050 METAR ESMX 220050Z AUTO 23007KT 9999NDV NCD 05/04 Q1008=
200810220020 METAR ESMX 220020Z AUTO 21009KT 9999NDV NCD 05/04 Q1007=
200810212350 METAR ESMX 212350Z 23008KT CAVOK 06/04 Q1007=
200810212320 METAR ESMX 212320Z 24008KT CAVOK 06/05 Q1006=
200810212250 METAR ESMX 212250Z 22010KT CAVOK 07/05 Q1006=
200810212220 METAR ESMX 212220Z 22010KT 9999 FEW026 07/05 Q1006=
200810212150 METAR ESMX 212150Z 22009KT 9999 FEW020 07/06 Q1005=
200810212120 METAR ESMX 212120Z 22008KT 9999 FEW020 07/06 Q1005=
200810212050 METAR ESMX 212050Z 23010KT 9999 SCT020 07/06 Q1004=
200810212020 METAR ESMX 212020Z 22009KT 9999 FEW011 SCT024 07/06 Q1004=
200810211950 METAR ESMX 211950Z 22010KT 9999 -SHRA FEW015 SCT030 BKN110 08/06 Q1003=
200810211920 METAR ESMX 211920Z 24014KT 200V260 7000 RA SCT015 BKN036 08/06 Q1003=
200810211850 METAR ESMX 211850Z 20009KT 9999 SCT018 BKN032 07/06 Q1003=
200810211820 METAR ESMX 211820Z 21007KT 9999 SCT032 BKN085 07/06 Q1002=
200810211750 METAR ESMX 211750Z 23007KT 9999 SCT018 SCT080 08/06 Q1002 RERA=
200810211720 METAR ESMX 211720Z 21010KT 9999 SHRA FEW028 SCT040 08/07 Q1002=
200810211650 METAR ESMX 211650Z 21014G24KT 180V250 9999 -DZ FEW011 SCT020 10/08 Q1002 RERA=
200810211620 METAR ESMX 211620Z 21011KT 9999 FEW010 SCT013 BKN016 09/08 Q1001=
200810211550 METAR ESMX 211550Z 21011KT 9999 FEW012 SCT015 10/08 Q1001=
200810211520 METAR ESMX 211520Z 21011KT 9999 FEW010 SCT013 BKN020 10/08 Q1001=
200810211450 METAR ESMX 211450Z 21011KT 9999 FEW010 SCT015 BKN018 10/08 Q1001=
200810211420 METAR ESMX 211420Z 21010KT 9999 FEW010 BKN013 BKN100 10/08 Q1001=
200810211350 METAR ESMX 211350Z 22009KT 9999 FEW011 SCT014 BKN017 10/08 Q1001=
200810211320 METAR ESMX 211320Z 22009KT 9999 FEW018 SCT100 10/08 Q1000=
200810211250 METAR ESMX 211250Z 21008KT 190V250 9999 FEW008 SCT058 10/09 Q1000 RERA REDZ=
200810211220 METAR ESMX 211220Z 23008KT 200V260 9999 DZ FEW011 SCT041 10/09 Q1000 RERA=
200810211150 METAR ESMX 211150Z 24008KT 9000 DZ FEW007 SCT011 BKN016 10/09 Q1000 RERA=
200810211120 METAR ESMX 211120Z 24008KT 210V270 9000 -RA FEW008 SCT011 BKN014 10/09 Q1000 REDZ=
200810211050 METAR ESMX 211050Z 25008KT 9999 DZ FEW011 BKN024 10/09 Q0999 RERA=
200810211020 METAR ESMX 211020Z 25007KT 210V290 9999 -RA FEW009 BKN022 BKN045 10/09 Q1000=
200810210950 METAR ESMX 210950Z 26011KT 7000 -RA FEW006 SCT009 BKN011 10/09 Q0999 REDZ=
200810210920 METAR ESMX 210920Z 24009KT 190V290 7000 -RA BR FEW004 SCT006 BKN008 12/11 Q0999=
200810210850 METAR ESMX 210850Z 20012KT 4200 DZ BKN005 OVC008 12/11 Q0998=
200810210820 METAR ESMX 210820Z 19013KT 6000 -RA BR FEW005 BKN006 12/11 Q0998=
200810210750 METAR ESMX 210750Z 19014KT 4300 -RADZ BR FEW004 OVC005 12/11 Q0999=
200810210720 METAR ESMX 210720Z 20013KT 2600 -DZ BR FEW005 BKN006 12/11 Q0999=
200810210650 METAR ESMX 210650Z 20013KT 2500 -RADZ BR OVC006 12/11 Q0999=
200810210620 METAR ESMX 210620Z 20015KT 6000 BR OVC006 12/10 Q0999=
200810210550 METAR ESMX 210550Z 19015KT 7000 BR OVC007 11/10 Q0999=
200810210520 METAR ESMX 210520Z 20015KT 6000 BR SCT008 OVC010 11/10 Q0999=
200810210450 METAR ESMX 210450Z 20014KT 6000 BR OVC010 11/10 Q0999=
200810210420 METAR ESMX 210420Z 18014KT 9000 BR BKN010 11/09 Q0999=
200810210350 METAR ESMX 210350Z 18012KT 9999 SCT010 BKN015 OVC020 11/09 Q1000=
200810210320 METAR ESMX 210320Z 17011KT 9999 SCT012 BKN027 OVC031 11/09 Q1000=
200810210250 METAR ESMX 210250Z AUTO 18011KT 9999NDV SCT020/// BKN026/// 11/09 Q1000=
200810210220 METAR ESMX 210220Z AUTO 18009KT 9999NDV SCT018/// BKN032/// 10/08 Q1000=
200810210150 METAR ESMX 210150Z AUTO 17010KT 9999NDV FEW018/// SCT023/// OVC031/// 10/08 Q1001=
200810210120 METAR ESMX 210120Z AUTO 18011KT 9999NDV OVC022/// 10/08 Q1001=
200810210050 METAR ESMX 210050Z AUTO 19012KT 9999NDV SCT025/// OVC040/// 10/08 Q1002=
200810210020 METAR ESMX 210020Z 18011KT 9999 SCT017 BKN020 OVC029 10/07 Q1002=
200810202350 METAR ESMX 202350Z 18011KT 9999 BKN020 10/07 Q1002=
200810202320 METAR ESMX 202320Z 19011KT 9999 BKN020 10/07 Q1002=
200810202250 METAR ESMX 202250Z 19012KT 9999 BKN019 OVC025 10/07 Q1003=
200810202220 METAR ESMX 202220Z 19012KT 9999 BKN019 10/07 Q1003=
200810202150 METAR ESMX 202150Z 19012KT 9999 BKN020 10/07 Q1003=
200810202120 METAR ESMX 202120Z 19011KT 9999 FEW022 SCT026 BKN031 10/07 Q1003=
200810202050 METAR ESMX 202050Z 19013KT 9999 BKN020 10/07 Q1003=
200810202020 METAR ESMX 202020Z 19014KT 9999 FEW020 BKN024 10/07 Q1004=
200810201950 METAR ESMX 201950Z 20012KT 9999 BKN022 09/06 Q1004=
200810201920 METAR ESMX 201920Z 19012KT 9999 BKN024 09/06 Q1004=
200810201850 METAR ESMX 201850Z 19012KT CAVOK 09/06 Q1005=
200810201820 METAR ESMX 201820Z 19013KT CAVOK 09/06 Q1005=
200810201750 METAR ESMX 201750Z 19013KT CAVOK 09/06 Q1005=
200810201720 METAR ESMX 201720Z 18012KT CAVOK 09/07 Q1005=
200810201650 METAR ESMX 201650Z 18011KT CAVOK 09/07 Q1005=
200810201620 METAR ESMX 201620Z 17013KT CAVOK 10/07 Q1005=
200810201550 METAR ESMX 201550Z 18012KT 9999 FEW020 11/07 Q1005=
200810201520 METAR ESMX 201520Z 18013KT 9999 FEW020 11/08 Q1005=
200810201450 METAR ESMX 201450Z 18011KT CAVOK 11/08 Q1006=
200810201420 METAR ESMX 201420Z 19011KT 9999 FEW020 12/08 Q1006=
200810201350 METAR ESMX 201350Z 19013KT 9999 FEW020 12/08 Q1006=
200810201320 METAR ESMX 201320Z 19013KT 9999 BKN023 11/08 Q1007=
200810201250 METAR ESMX 201250Z 19013KT 9999 SCT020 BKN025 12/08 Q1007=
200810201220 METAR ESMX 201220Z 19012KT 9999 BKN020 11/08 Q1007=
200810201150 METAR ESMX 201150Z 19011KT 9999 FEW018 SCT021 OVC026 11/08 Q1008=
200810201120 METAR ESMX 201120Z 19016KT 9999 FEW019 OVC031 12/08 Q1008=
200810201050 METAR ESMX 201050Z 20014KT 9999 FEW016 BKN019 11/08 Q1009=
200810201020 METAR ESMX 201020Z 20013KT 9999 SCT015 BKN019 BKN022 11/08 Q1009=
200810200950 METAR ESMX 200950Z 20015KT 9999 FEW013 SCT016 BKN020 11/08 Q1009=
200810200920 METAR ESMX 200920Z 20015KT 9999 BKN011 11/08 Q1009=
200810200820 METAR ESMX 200820Z 19013KT 9999 BR SCT010 BKN014 10/08 Q1010=
200810200750 METAR ESMX 200750Z 20013KT 9999 BR FEW009 OVC011 10/09 Q1010=
200810200720 METAR ESMX 200720Z 19012KT 9000 BR FEW008 OVC011 10/09 Q1010=
200810200650 METAR ESMX 200650Z 19009KT 8000 BR FEW008 OVC010 10/09 Q1010=
200810200620 METAR ESMX 200620Z 20008KT 9000 FEW007 BKN008 10/09 Q1010=
200810200550 METAR ESMX 200550Z 19009KT 9999 FEW007 BKN008 10/09 Q1010=
200810200520 METAR ESMX 200520Z 19009KT 9999 FEW007 OVC009 10/09 Q1010=
200810200450 METAR ESMX 200450Z 19008KT 9999 FEW006 BKN010 10/09 Q1010=
200810200420 METAR ESMX 200420Z 19008KT 9999 FEW005 SCT007 BKN010 10/09 Q1011=
200810200350 METAR ESMX 200350Z 20007KT 9999 SCT006 OVC008 10/09 Q1011 RERA=
200810200320 METAR ESMX 200320Z AUTO 19007KT 9999NDV FEW005/// BKN007/// OVC010/// 10/09 Q1011=
200810200250 METAR ESMX 200250Z AUTO 20009KT 9000NDV BR BKN002/// OVC008/// 09/09 Q1011=
200810200220 METAR ESMX 200220Z AUTO 19008KT 6000NDV DZ OVC002/// 09/09 Q1011 RERA=
200810200150 METAR ESMX 200150Z AUTO 21008KT 9000NDV OVC002/// 09/08 Q1011=
200810200120 METAR ESMX 200120Z AUTO 20008KT 6000NDV BR SCT003/// BKN006/// 09/08 Q1012 REDZ=
200810200050 METAR ESMX 200050Z AUTO 20009KT 2900NDV DZ OVC004/// 08/08 Q1012 RERA=
200810200020 METAR ESMX 200020Z 19007KT 9999 OVC007 08/07 Q1012 REDZ=
200810192350 METAR ESMX 192350Z 20007KT 9999 DZ SCT008 BKN011 OVC013 08/07 Q1012 RERA=
200810192320 METAR ESMX 192320Z 20007KT 9999 FEW018 SCT023 BKN070 08/06 Q1012=
200810192250 METAR ESMX 192250Z 20007KT 9999 FEW025 BKN065 08/06 Q1012=
200810192220 METAR ESMX 192220Z 20006KT 9999 FEW020 BKN065 07/06 Q1012=
200810192150 METAR ESMX 192150Z 19006KT CAVOK 07/06 Q1013=
200810192120 METAR ESMX 192120Z 22005KT CAVOK 07/06 Q1013=
200810192050 METAR ESMX 192050Z 21007KT CAVOK 07/06 Q1013=
200810192020 METAR ESMX 192020Z 21006KT CAVOK 07/05 Q1013=
200810191950 METAR ESMX 191950Z 21006KT CAVOK 07/05 Q1013=
200810191920 METAR ESMX 191920Z 21005KT CAVOK 07/05 Q1013=
200810191850 METAR ESMX 191850Z 23005KT CAVOK 07/05 Q1013=
200810191820 METAR ESMX 191820Z 23006KT CAVOK 07/05 Q1012=
200810191750 METAR ESMX 191750Z 24006KT 9999 FEW040 07/05 Q1012=
200810191720 METAR ESMX 191720Z 23006KT 190V250 9999 SCT040 08/05 Q1012=
200810191650 METAR ESMX 191650Z 23005KT 200V260 9999 FEW040 08/05 Q1012=
200810191620 METAR ESMX 191620Z 25006KT 9999 FEW030 SCT200 08/05 Q1012=
200810191550 METAR ESMX 191550Z 25007KT 210V290 9999 FEW030 SCT200 09/05 Q1011=
200810191520 METAR ESMX 191520Z 26007KT 230V290 9999 SCT030 10/05 Q1011=
200810191450 METAR ESMX 191450Z 27008KT 240V300 9999 FEW032 SCT040 10/04 Q1010=
200810191420 METAR ESMX 191420Z 27009KT 9999 FEW034 10/04 Q1010=
200810191350 METAR ESMX 191350Z 26010KT 200V290 9999 FEW040 10/04 Q1010=
200810191320 METAR ESMX 191320Z 26013KT 230V310 9999 FEW040 11/04 Q1010=
200810191250 METAR ESMX 191250Z 26015KT 240V310 9999 SCT030 11/04 Q1009=
200810191220 METAR ESMX 191220Z 27013KT 230V300 9999 SCT030 11/05 Q1009=
200810191150 METAR ESMX 191150Z 28013KT 9999 SCT030 11/05 Q1009=
200810191120 METAR ESMX 191120Z 26013KT 230V290 9999 SCT030 12/05 Q1008=
200810191050 METAR ESMX 191050Z 27013G24KT 230V320 9999 FEW025 BKN030 11/05 Q1008=
200810191020 METAR ESMX 191020Z AUTO 27013KT 240V300 9999NDV FEW025/// SCT029/// BKN034/// 10/05 Q1008=
200810190950 METAR ESMX 190950Z AUTO 26013G24KT 230V320 9999NDV FEW023/// SCT030/// BKN035/// 10/05 Q1008=
200810190920 METAR ESMX 190920Z AUTO 28015KT 250V320 9999NDV FEW023/// 10/05 Q1007=
200810190850 METAR ESMX 190850Z AUTO 27015KT 240V300 9999NDV FEW020/// SCT030/// 09/06 Q1006=
200810190820 METAR ESMX 190820Z AUTO 27013G23KT 240V300 9999NDV FEW017/// SCT022/// 09/06 Q1006=
200810190750 METAR ESMX 190750Z AUTO 26012KT 230V290 9999NDV FEW016/// SCT021/// 08/06 Q1006=
200810190720 METAR ESMX 190720Z AUTO 26011KT 230V290 9999NDV FEW017/// SCT022/// 07/05 Q1005=
200810190650 METAR ESMX 190650Z AUTO 25011KT 210V280 9999NDV FEW017/// 07/05 Q1005=
200810190620 METAR ESMX 190620Z AUTO 26009KT 230V290 9999NDV NCD 07/05 Q1004=
200810190550 METAR ESMX 190550Z AUTO 26011KT 9999NDV NCD 07/05 Q1004=
200810190520 METAR ESMX 190520Z AUTO 25010KT 9999NDV FEW010/// SCT020/// 07/06 Q1003=
200810190450 METAR ESMX 190450Z AUTO 25009KT 9999NDV FEW012/// SCT019/// BKN021/// 07/06 Q1003=
200810190420 METAR ESMX 190420Z AUTO 25009KT 210V280 9999NDV FEW022/// SCT050/// 07/06 Q1003 RERA=
200810190350 METAR ESMX 190350Z AUTO 26010KT 220V290 5000NDV RA FEW009/// SCT028/// 07/06 Q1003=
200810190320 METAR ESMX 190320Z AUTO 24010KT 210V280 9999NDV FEW016/// SCT025/// BKN034/// 08/06 Q1003=
200810190250 METAR ESMX 190250Z AUTO 24012KT 9999NDV -RA FEW011/// SCT017/// BKN020/// 08/06 Q1003=
200810190220 METAR ESMX 190220Z AUTO 23008KT 9999NDV FEW010/// SCT014/// BKN027/// 08/07 Q1003=
200810190150 METAR ESMX 190150Z AUTO 24006KT 200V260 9999NDV FEW013/// SCT023/// BKN077/// 08/07 Q1003=
200810190120 METAR ESMX 190120Z AUTO 24009KT 9999NDV FEW056/// SCT077/// BKN098/// 08/07 Q1003=
200810190050 METAR ESMX 190050Z AUTO 23010KT 190V260 9999NDV -RA FEW052/// 08/07 Q1003=
200810190020 METAR ESMX 190020Z AUTO 25011KT 9999NDV -RA FEW026/// 08/07 Q1003=
200810182350 METAR ESMX 182350Z AUTO 24009KT 200V290 2800NDV RA FEW005/// SCT012/// BKN016/// 09/08 Q1003=
200810182320 METAR ESMX 182320Z AUTO 22012KT 6000NDV RA FEW006/// BKN008/// OVC011/// 09/08 Q1003=
200810182250 METAR ESMX 182250Z AUTO 20012KT 8000NDV -RA FEW006/// SCT009/// BKN011/// 09/08 Q1004 REDZ=
200810182220 METAR ESMX 182220Z AUTO 20011KT 6000NDV DZ FEW007/// OVC011/// 09/08 Q1004 RERA=
200810182150 METAR ESMX 182150Z AUTO 21012KT 9999NDV FEW008/// SCT010/// BKN013/// 09/07 Q1005 RERA=
200810182120 METAR ESMX 182120Z AUTO 21012KT 9999NDV FEW006/// SCT009/// BKN011/// 08/08 Q1005 REDZ=
200810182050 METAR ESMX 182050Z AUTO 22011KT 8000NDV -DZ FEW007/// SCT009/// BKN011/// 08/08 Q1006=
200810182020 METAR ESMX 182020Z AUTO 21011KT 9999NDV -DZ FEW007/// OVC009/// 08/07 Q1006 RERA=
200810181950 METAR ESMX 181950Z AUTO 22012KT 9999NDV FEW007/// SCT009/// OVC011/// 09/07 Q1006=
200810181920 METAR ESMX 181920Z AUTO 22011KT 3800NDV DZ FEW005/// BKN008/// OVC011/// 08/08 Q1006 RERA=
200810181850 METAR ESMX 181850Z AUTO 22010KT 3700NDV -RA FEW005/// BKN007/// OVC010/// 08/08 Q1007 REDZ=
200810181820 METAR ESMX 181820Z AUTO 21010KT 4300NDV DZ FEW005/// BKN007/// OVC011/// 08/08 Q1007=
200810181750 METAR ESMX 181750Z AUTO 21010KT 9999NDV -DZ FEW007/// BKN010/// BKN014/// 08/08 Q1007 RERA=
200810181720 METAR ESMX 181720Z AUTO 20012KT 9999NDV DZ FEW006/// SCT008/// OVC010/// 08/08 Q1007 RERA=
200810181650 METAR ESMX 181650Z AUTO 20011KT 9999NDV DZ FEW007/// SCT009/// BKN011/// 08/08 Q1007 RERA=
200810181620 METAR ESMX 181620Z AUTO 20010KT 170V240 9999NDV -RA FEW008/// BKN010/// OVC016/// 08/07 Q1007 REDZ=
200810181550 METAR ESMX 181550Z AUTO 20009KT 9999NDV DZ FEW005/// SCT008/// BKN011/// 08/08 Q1008 RERA=
200810181520 METAR ESMX 181520Z AUTO 20009KT 9999NDV -RA FEW005/// SCT008/// BKN010/// 08/08 Q1008 REDZ=
200810181450 METAR ESMX 181450Z AUTO 21009KT 8000NDV DZ FEW005/// BKN006/// BKN010/// 08/08 Q1009 RERA=
200810181420 METAR ESMX 181420Z AUTO 22009KT 5000NDV -RA FEW004/// BKN005/// BKN009/// 08/08 Q1009 REDZ=
200810181350 METAR ESMX 181350Z AUTO 21008KT 4900NDV DZ BKN005/// OVC008/// 08/07 Q1009 RERA=
200810181320 METAR ESMX 181320Z AUTO 21008KT 2500NDV DZ SCT006/// BKN009/// OVC011/// 08/07 Q1010 RERA=
200810181250 METAR ESMX 181250Z AUTO 21010KT 7000NDV FEW008/// BKN010/// OVC014/// 09/07 Q1010=
200810181220 METAR ESMX 181220Z AUTO 22009KT 180V250 9999NDV FEW012/// SCT015/// BKN018/// 09/07 Q1010=
200810181150 METAR ESMX 181150Z AUTO 22012KT 9999NDV FEW016/// SCT027/// BKN033/// 10/07 Q1010=
200810181120 METAR ESMX 181120Z AUTO 23010KT 9999NDV FEW024/// SCT028/// 10/05 Q1010=
200810181050 METAR ESMX 181050Z AUTO 25010KT 230V290 9999NDV FEW110/// 10/04 Q1010=
200810181020 METAR ESMX 181020Z 23010KT 9999 FEW021 10/06 Q1011=
200810180950 METAR ESMX 180950Z 26011KT 210V290 9999 SCT018 09/06 Q1011=
200810180920 METAR ESMX 180920Z 24010KT 200V290 9999 SCT016 09/06 Q1010=
200810180850 METAR ESMX 180850Z AUTO 25010KT 210V290 9999NDV FEW014/// 09/06 Q1010=
200810180820 METAR ESMX 180820Z AUTO 23008KT 200V260 9999NDV NCD 08/07 Q1011=
200810180750 METAR ESMX 180750Z AUTO 23007KT 180V260 9999NDV FEW004/// SCT041/// 07/06 Q1011=
200810180720 METAR ESMX 180720Z AUTO 22007KT 9999NDV FEW002/// SCT003/// OVC004/// 06/06 Q1011=
200810180650 METAR ESMX 180650Z AUTO 22007KT 8000NDV BR OVC001/// 06/06 Q1011=
200810180620 METAR ESMX 180620Z AUTO 22007KT 1500NDV BR OVC001/// 06/05 Q1011=
200810180550 METAR ESMX 180550Z AUTO 22006KT 9000NDV BKN001/// OVC003/// 05/05 Q1010=
200810180520 METAR ESMX 180520Z AUTO 23006KT 1100NDV R01/P2000D R19/P2000U VV002 05/05 Q1010=
200810180450 METAR ESMX 180450Z AUTO 24007KT 0450NDV R01/1400N R19/1600N FG VV001 05/04 Q1010=
200810180420 METAR ESMX 180420Z AUTO 21006KT 0450NDV R01/1300V1800N R19/1800D FG VV001 04/04 Q1010=
200810180350 METAR ESMX 180350Z AUTO 22005KT 3900NDV BR BKN001/// OVC005/// 04/04 Q1010=
200810180320 METAR ESMX 180320Z AUTO 23006KT 9999NDV FEW007/// SCT011/// BKN024/// 03/02 Q1011=
200810180250 METAR ESMX 180250Z AUTO 21006KT 9999NDV FEW024/// SCT031/// 02/02 Q1010=
200810180220 METAR ESMX 180220Z AUTO 22006KT 9999NDV NCD 01/01 Q1011=
200810180150 METAR ESMX 180150Z AUTO 22004KT 0300NDV R01/P2000D R19/0800VP2000 NCD 01/01 Q1011=
200810180120 METAR ESMX 180120Z AUTO 22003KT 1000NDV R01/P2000U R19/P2000D NCD 02/01 Q1011=
200810180050 METAR ESMX 180050Z AUTO 22004KT 3000NDV NCD 01/01 Q1011=
200810180020 METAR ESMX 180020Z AUTO 22004KT 9999NDV NCD 02/01 Q1011=
200810172350 METAR ESMX 172350Z AUTO 25005KT 9999NDV NCD 02/01 Q1011=
200810172320 METAR ESMX 172320Z AUTO 26007KT 9999NDV NCD 03/03 Q1011=
200810172250 METAR ESMX 172250Z AUTO 26007KT 9999NDV NCD 03/03 Q1011=
200810172220 METAR ESMX 172220Z AUTO 26004KT 9999NDV NCD 02/02 Q1011=
200810172150 METAR ESMX 172150Z AUTO 18003KT 9999NDV NCD 02/01 Q1011=
200810172120 METAR ESMX 172120Z AUTO 20004KT 9999NDV NCD 01/00 Q1011=
200810172050 METAR ESMX 172050Z AUTO 26003KT 9999NDV NCD 03/02 Q1010=
200810172020 METAR ESMX 172020Z AUTO 28003KT 9999NDV NCD 04/03 Q1010=
200810171950 METAR ESMX 171950Z 27003KT CAVOK 04/03 Q1010=
200810171920 METAR ESMX 171920Z 27004KT CAVOK 03/02 Q1010=
200810171850 METAR ESMX 171850Z VRB02KT CAVOK 04/03 Q1009=
200810171820 METAR ESMX 171820Z 26004KT CAVOK 04/03 Q1009=
200810171750 METAR ESMX 171750Z 26003KT 240V310 CAVOK 04/03 Q1009=
200810171720 METAR ESMX 171720Z 28005KT 250V310 CAVOK 05/03 Q1008=
200810171650 METAR ESMX 171650Z 28004KT CAVOK 05/03 Q1008=
200810171620 METAR ESMX 171620Z 29005KT CAVOK 06/03 Q1007=
200810171550 METAR ESMX 171550Z 30006KT 9999 FEW035 06/04 Q1007=
200810171520 METAR ESMX 171520Z 29006KT 9999 FEW030 07/04 Q1006=
200810171450 METAR ESMX 171450Z 29007KT 9999 FEW030 07/04 Q1006=
200810171420 METAR ESMX 171420Z 28007KT 250V320 9999 FEW022 08/04 Q1006=
200810171350 METAR ESMX 171350Z 30007KT 260V330 9999 FEW023 SCT035 08/04 Q1005=
200810171320 METAR ESMX 171320Z 33010KT 300V010 9999 FEW026 BKN035 08/04 Q1005=
200810171250 METAR ESMX 171250Z 31009KT 9999 FEW024 SCT042 08/04 Q1005=
200810171220 METAR ESMX 171220Z 31009KT 9999 SCT038 08/04 Q1004=
200810171150 METAR ESMX 171150Z 30008KT 9999 FEW018 SCT040 08/04 Q1004=
200810171120 METAR ESMX 171120Z 32009KT 9999 SCT017 09/05 Q1003=
200810171050 METAR ESMX 171050Z 31008KT 9999 FEW013 08/05 Q1003=
200810171020 METAR ESMX 171020Z 30007KT 9999 FEW009 SCT014 07/05 Q1003=
200810170950 METAR ESMX 170950Z 31005KT 270V340 9999 SCT008 07/05 Q1002=
200810170920 METAR ESMX 170920Z 30004KT 9999 SCT006 BKN008 06/05 Q1002=
200810170850 METAR ESMX 170850Z 33004KT 9999 FEW003 BKN005 05/05 Q1001=
200810170820 METAR ESMX 170820Z 31005KT 9999 SCT002 BKN003 BKN005 05/04 Q1001=
200810170750 METAR ESMX 170750Z 33007KT 9999 SCT002 BKN003 04/04 Q1001=
200810170720 METAR ESMX 170720Z 32005KT 8000 BR SCT002 BKN003 04/04 Q1000=
200810170650 METAR ESMX 170650Z 33004KT 2000 8000N BR BKN002 OVC004 03/03 Q1000=
200810170620 METAR ESMX 170620Z 32004KT 280V360 0350 R01/0750V1000N R19/0900N FG VV002 03/03 Q1000=
200810170550 METAR ESMX 170550Z VRB02KT 9999 SCT002 BKN003 02/02 Q0999=
200810170520 METAR ESMX 170520Z 24004KT 200V270 CAVOK 01/01 Q0999=
200810170450 METAR ESMX 170450Z 25003KT CAVOK 02/02 Q0998=
200810170420 METAR ESMX 170420Z 26003KT 9999 FEW003 SCT040 02/01 Q0998=
200810170350 METAR ESMX 170350Z AUTO 25003KT 9999NDV NCD 01/01 Q0998=
200810170320 METAR ESMX 170320Z AUTO 25003KT 1300NDV R01/P2000U R19/P2000U FEW041/// 02/01 Q0998=
200810170250 METAR ESMX 170250Z AUTO 25003KT 1500NDV NCD 02/02 Q0998=
200810170220 METAR ESMX 170220Z AUTO 25003KT 3100NDV NCD 02/02 Q0997=
200810170150 METAR ESMX 170150Z AUTO 26003KT 8000NDV NCD 02/02 Q0997=
200810170120 METAR ESMX 170120Z AUTO 22003KT 1400NDV R01/P2000U R19/P2000U NCD 02/02 Q0997=
200810170050 METAR ESMX 170050Z AUTO 27002KT 2000NDV NCD 03/03 Q0997=
200810170020 METAR ESMX 170020Z AUTO 25003KT 9999NDV NCD 03/03 Q0997=
200810162350 METAR ESMX 162350Z 24003KT CAVOK 04/03 Q0997=
200810162320 METAR ESMX 162320Z 24003KT CAVOK 04/03 Q0997=
200810162250 METAR ESMX 162250Z 23005KT CAVOK 04/03 Q0997=
200810162220 METAR ESMX 162220Z 23003KT 9999 FEW024 05/04 Q0997=
200810162150 METAR ESMX 162150Z 25004KT 9999 SCT024 06/05 Q0997=
200810162120 METAR ESMX 162120Z 24003KT 200V280 9999 FEW023 SCT045 06/05 Q0997=
200810162050 METAR ESMX 162050Z 26003KT 9999 FEW020 BKN030 07/06 Q0997=
200810162020 METAR ESMX 162020Z 26004KT 9999 FEW006 BKN030 07/06 Q0997=
200810161950 METAR ESMX 161950Z 26005KT 9999 -RA SCT006 BKN035 07/06 Q0997=
200810161920 METAR ESMX 161920Z 24005KT 9999 -RA FEW005 SCT007 BKN017 07/06 Q0997=
200810161820 METAR ESMX 161820Z 23005KT 9999 FEW016 SCT033 07/06 Q0997=
200810161750 METAR ESMX 161750Z 23004KT 9999 -RA FEW035 BKN060 07/06 Q0997=
200810161720 METAR ESMX 161720Z 23005KT 9999 -SHRA FEW025 SCT030CB 07/05 Q0997=
200810161650 METAR ESMX 161650Z 21004KT 9999 -SHRA FEW023 SCT030CB 07/05 Q0997=
200810161620 METAR ESMX 161620Z 28011KT 9999 FEW020 SCT030CB 08/04 Q0997=
200810161550 METAR ESMX 161550Z 21006KT 9999 FEW028 SCT041 BKN052 09/07 Q0997=
200810161520 METAR ESMX 161520Z 21007KT 9999 FEW031 10/07 Q0997=
200810161450 METAR ESMX 161450Z 21006KT 9999 FEW019 SCT025 BKN029 10/08 Q0997=
200810161420 METAR ESMX 161420Z 23006KT 200V270 9999 FEW027 SCT038 11/07 Q0997=
200810161350 METAR ESMX 161350Z 23006KT 190V260 9999 FEW020 SCT026 11/07 Q0997=
200810161320 METAR ESMX 161320Z 24007KT 200V270 9999 SCT022 11/07 Q0997=
200810161250 METAR ESMX 161250Z 23011KT 9999 FEW019 SCT023 BKN050 11/07 Q0997=
200810161150 METAR ESMX 161150Z 23009KT 200V270 9999 FEW016 SCT048 BKN056 11/08 Q0998=
200810161120 METAR ESMX 161120Z 23011KT 190V270 9999 FEW016 BKN020 OVC049 11/08 Q0998 RERA=
200810161050 METAR ESMX 161050Z 23006KT 9999 RA FEW018 BKN058 10/08 Q0998=
200810160950 METAR ESMX 160950Z 26007KT 9999 FEW011 SCT018 10/08 Q0998=
200810160850 METAR ESMX 160850Z 25006KT 210V300 9999 SCT010 BKN017 10/08 Q0998=
200810160820 METAR ESMX 160820Z 26007KT 9999 FEW007 BKN011 BKN019 10/08 Q0997=
200810160750 METAR ESMX 160750Z 26007KT 9999 SCT007 BKN018 09/08 Q0997=
200810160650 METAR ESMX 160650Z 26008KT 9999 BKN007 09/08 Q0997=
200810160550 METAR ESMX 160550Z 26008KT 230V290 9999 FEW026 BKN035 BKN048 08/07 Q0996=
200810160520 METAR ESMX 160520Z 27006KT 9999 FEW007 SCT045 08/07 Q0996 RERA REDZ=
200810160450 METAR ESMX 160450Z 29008KT 9999 -RA SCT007 BKN020 08/07 Q0996=
200810160350 METAR ESMX 160350Z 30012KT 270V330 8000 -RA FEW003 SCT007 BKN010 09/08 Q0995=
200810160250 METAR ESMX 160250Z AUTO 32005KT 5000NDV RA FEW005/// SCT011/// OVC017/// 09/09 Q0995=
200810160220 METAR ESMX 160220Z AUTO 35005KT 5000NDV RA FEW002/// SCT004/// BKN007/// 10/09 Q0995=
200810160150 METAR ESMX 160150Z AUTO 18008KT 140V210 4200NDV -RA SCT003/// BKN005/// OVC007/// 11/11 Q0996=
200810160120 METAR ESMX 160120Z AUTO 17009KT 3700NDV RA FEW006/// SCT007/// OVC008/// 12/11 Q0997=
200810160050 METAR ESMX 160050Z AUTO 17009KT 5000NDV DZ FEW004/// BKN005/// OVC007/// 12/11 Q0998 RERA=
200810160020 METAR ESMX 160020Z AUTO 17007KT 140V200 3800NDV DZ FEW003/// BKN005/// OVC006/// 11/11 Q0998=
200810152350 METAR ESMX 152350Z 17006KT 3400 -RA BR FEW004 BKN005 11/11 Q0999 RERA=
200810152320 METAR ESMX 152320Z 19007KT 5000 BR FEW005 OVC011 11/11 Q1000=
200810152250 METAR ESMX 152250Z 19007KT 4700 BR FEW006 SCT008 BKN010 11/11 Q1000=
200810152220 METAR ESMX 152220Z 20007KT 5000 BR FEW006 BKN010 11/11 Q1001=
200810152150 METAR ESMX 152150Z 20009KT 5000 BR FEW006 BKN009 11/11 Q1001=
200810152120 METAR ESMX 152120Z 20011KT 5000 BR FEW007 BKN011 11/10 Q1002=
200810152050 METAR ESMX 152050Z 21009KT 4800 BR FEW006 BKN009 11/10 Q1002=
200810152020 METAR ESMX 152020Z 20010KT 5000 BR FEW006 OVC010 11/10 Q1003=
200810151920 METAR ESMX 151920Z 20010KT 5000 BR FEW005 BKN007 11/10 Q1003=
200810151820 METAR ESMX 151820Z 20011KT 4500 -RA BR SCT004 BKN007 11/10 Q1004=
200810151720 METAR ESMX 151720Z 18012KT 3600 -RA, BR BKN002 11/10 Q1004 REDZ=
200810151650 METAR ESMX 151650Z 18012KT 5000 -DZ, BR OVC002 11/10 Q1005 RERA REDZ=
200810151620 METAR ESMX 151620Z 17011KT 5000 -RA, BR BKN002 OVC005 10/10 Q1005=
200810151550 METAR ESMX 151550Z 17010KT 140V200 3000 RA, BR BKN002 OVC004 10/09 Q1006 REDZ=
200810151520 METAR ESMX 151520Z 17009KT 130V200 4500 -DZ, BR BKN002 09/09 Q1006 REDZ=
200810151450 METAR ESMX 151450Z 16008KT 5000 DZ BKN002 09/08 Q1007=
200810151420 METAR ESMX 151420Z 15007KT 120V190 7000 -DZ BKN005 OVC008 08/07 Q1007 RERA=
200810151350 METAR ESMX 151350Z 15005KT 110V190 7000 -DZ FEW006 SCT010 BKN013 08/07 Q1008=
200810151320 METAR ESMX 151320Z 15006KT 120V190 5000 DZ FEW009 OVC019 08/07 Q1008 RERA=
200810151250 METAR ESMX 151250Z 17006KT 140V200 8000 DZ FEW009 OVC023 08/07 Q1009 RERA=
200810151220 METAR ESMX 151220Z 17006KT 140V210 9000 -RA FEW011 SCT022 BKN030 09/07 Q1010 REDZ=
200810151150 METAR ESMX 151150Z 17006KT 130V200 9999 -DZ FEW015 BKN033 09/07 Q1010 RERA=
200810151120 METAR ESMX 151120Z 19006KT 150V220 9999 -RA BKN037 09/08 Q1011=
200810151050 METAR ESMX 151050Z 20007KT 9000 -RA FEW024 BKN043 09/07 Q1011 REDZ=
200810151020 METAR ESMX 151020Z 20008KT 9000 DZ BKN040 09/07 Q1012 RERA=
200810150950 METAR ESMX 150950Z 20006KT 9999 BKN040 09/07 Q1012=
200810150920 METAR ESMX 150920Z 20007KT 9999 FEW009 BKN044 09/07 Q1012=
200810150850 METAR ESMX 150850Z 21006KT 9999 FEW009 BKN045 09/07 Q1012=
200810150820 METAR ESMX 150820Z 21005KT 9999 SCT004 08/07 Q1013=
200810150750 METAR ESMX 150750Z 21006KT 9999 SCT003 BKN005 08/07 Q1013=
200810150720 METAR ESMX 150720Z 20007KT 7000 BR SCT002 BKN003 07/07 Q1012=
200810150650 METAR ESMX 150650Z 20005KT 5000 2900S BR SCT002 OVC003 07/07 Q1012=
200810150620 METAR ESMX 150620Z 21007KT 3400 BR SCT002 OVC003 07/07 Q1013=
200810150550 METAR ESMX 150550Z 21006KT 6000 BR SCT002 OVC004 07/07 Q1012=
200810150520 METAR ESMX 150520Z 22005KT 190V250 6000 BR OVC002 07/07 Q1012=
200810150450 METAR ESMX 150450Z 23006KT 210V270 9999 SCT003 OVC004 07/07 Q1013=
200810150420 METAR ESMX 150420Z AUTO 22006KT 9999NDV FEW004/// SCT008/// BKN043/// 07/06 Q1013=
200810150350 METAR ESMX 150350Z AUTO 21005KT 9999NDV FEW004/// SCT006/// OVC043/// 07/06 Q1013=
200810150320 METAR ESMX 150320Z AUTO 22004KT 9999NDV SCT005/// BKN007/// OVC039/// 07/07 Q1013=
200810150250 METAR ESMX 150250Z AUTO 24004KT 200V260 9999NDV BKN039/// 07/06 Q1013=
200810150220 METAR ESMX 150220Z AUTO 23005KT 9999NDV BKN039/// 07/07 Q1013=
200810150150 METAR ESMX 150150Z AUTO 21006KT 9999NDV NCD 07/06 Q1013=
200810150120 METAR ESMX 150120Z AUTO 22007KT 9999NDV NCD 07/06 Q1013=
200810150050 METAR ESMX 150050Z AUTO 22006KT 9999NDV NCD 07/06 Q1013=
200810150020 METAR ESMX 150020Z AUTO 22005KT 9999NDV NCD 06/05 Q1013=
200810142350 METAR ESMX 142350Z AUTO 23005KT 9999NDV NCD 06/05 Q1014=
200810142320 METAR ESMX 142320Z 22006KT 9999 BKN040 06/05 Q1014=
200810142250 METAR ESMX 142250Z 23006KT 9999 FEW040 06/05 Q1014=
200810142220 METAR ESMX 142220Z 23006KT 9999 SCT040 06/05 Q1014=
200810142150 METAR ESMX 142150Z 23005KT 9999 BKN043 06/06 Q1014=
200810142120 METAR ESMX 142120Z 23006KT 9999 FEW020 SCT040 06/05 Q1014=
200810142050 METAR ESMX 142050Z 22005KT 9999 SCT022 06/05 Q1014=
200810142020 METAR ESMX 142020Z 20004KT 9999 FEW020 BKN040 07/05 Q1014=
200810141950 METAR ESMX 141950Z 25002KT 9999 FEW027 OVC040 07/06 Q1014=
200810141920 METAR ESMX 141920Z 26004KT 9999 FEW027 BKN037 08/06 Q1014=
200810141850 METAR ESMX 141850Z 25005KT 9999 FEW037 08/05 Q1013=
200810141820 METAR ESMX 141820Z 25004KT 230V300 9999 SCT020 09/06 Q1013=
200810141750 METAR ESMX 141750Z 25005KT 210V290 9999 FEW025 08/05 Q1012=
200810141720 METAR ESMX 141720Z 25006KT CAVOK 09/05 Q1012=
200810141650 METAR ESMX 141650Z 26005KT 230V290 CAVOK 09/05 Q1012=
200810141620 METAR ESMX 141620Z 27008KT 230V300 CAVOK 11/05 Q1011=
200810141550 METAR ESMX 141550Z 27008KT 9999 FEW035 11/06 Q1011=
200810141520 METAR ESMX 141520Z 27010KT 240V320 9999 FEW035 12/06 Q1011=
200810141450 METAR ESMX 141450Z 29009KT 250V340 9999 FEW037 12/06 Q1011=
200810141420 METAR ESMX 141420Z 28011KT 250V310 9999 FEW035 12/05 Q1010=
200810141350 METAR ESMX 141350Z 26012KT 220V300 9999 FEW033 13/06 Q1010=
200810141320 METAR ESMX 141320Z 27015G26KT 230V310 9999 FEW033 13/05 Q1010=
200810141220 METAR ESMX 141220Z 26013G24KT 220V300 9999 SCT031 14/06 Q1010=
200810141150 METAR ESMX 141150Z 26014KT 220V300 9999 SCT032 13/06 Q1010=
200810141120 METAR ESMX 141120Z 28014KT 250V310 9999 FEW030 12/06 Q1010=
200810141050 METAR ESMX 141050Z 27011KT 250V310 9999 SCT030 12/06 Q1010=
200810141020 METAR ESMX 141020Z 27014KT 240V300 9999 SCT028 13/06 Q1010=
200810140950 METAR ESMX 140950Z 27013KT 230V300 9999 SCT025 13/07 Q1009=
200810140920 METAR ESMX 140920Z 26011G22KT 9999 SCT023 12/07 Q1009=
200810140850 METAR ESMX 140850Z 27013KT 9999 SCT021 12/07 Q1009=
200810140820 METAR ESMX 140820Z 27011KT 9999 SCT020 12/07 Q1009=
200810140750 METAR ESMX 140750Z 27010KT 230V300 9999 SCT020 12/07 Q1009=
200810140720 METAR ESMX 140720Z 27009KT 9999 FEW016 SCT023 11/08 Q1009=
200810140650 METAR ESMX 140650Z 26009KT 9999 SCT015 SCT045 11/08 Q1008=
200810140620 METAR ESMX 140620Z 25007KT 210V290 9999 FEW017 SCT024 BKN037 10/08 Q1008=
200810140550 METAR ESMX 140550Z 26007KT 9999 FEW014 SCT027 10/08 Q1008=
200810140520 METAR ESMX 140520Z 26007KT 9999 FEW015 SCT017 BKN033 11/08 Q1008=
200810140450 METAR ESMX 140450Z 26008KT 220V300 9999 FEW015 OVC023 11/08 Q1008=
200810140420 METAR ESMX 140420Z 26009KT 9999 BKN025 11/08 Q1008=
200810140350 METAR ESMX 140350Z 26008KT 9999 SCT027 11/08 Q1007=
200810140320 METAR ESMX 140320Z 26009KT 9999 SCT017 12/09 Q1007=
200810140250 METAR ESMX 140250Z AUTO 26008KT 9999NDV FEW016/// SCT030/// 12/09 Q1007=
200810140220 METAR ESMX 140220Z AUTO 26013G26KT 220V300 9999NDV BR FEW009/// SCT013/// BKN017/// 13/11 Q1007=
200810140150 METAR ESMX 140150Z AUTO 26007KT 7000NDV BR FEW010/// SCT013/// BKN015/// 13/11 Q1007=
200810140120 METAR ESMX 140120Z AUTO 24008KT 210V290 6000NDV BR BKN010/// OVC016/// 13/12 Q1007=
200810140050 METAR ESMX 140050Z AUTO 25007KT 6000NDV BR FEW009/// OVC011/// 13/12 Q1007=
200810140020 METAR ESMX 140020Z AUTO 23008KT 210V290 4500NDV BR FEW009/// BKN012/// OVC017/// 13/12 Q1007=
200810132350 METAR ESMX 132350Z 24006KT 3400 -DZ FEW009 SCT011 BKN014 13/12 Q1007 RERA=
200810132320 METAR ESMX 132320Z 24007KT 5000 BR FEW009 SCT011 BKN015 13/12 Q1008=
200810132250 METAR ESMX 132250Z 25007KT 4900 BR FEW007 SCT008 BKN010 13/12 Q1008=
200810132220 METAR ESMX 132220Z 23007KT 200V260 5000 BR FEW006 OVC008 13/12 Q1008=
200810132150 METAR ESMX 132150Z 24009KT 4500 BR BKN005 OVC007 13/12 Q1008=
200810132120 METAR ESMX 132120Z 22008KT 170V250 6000 BR BKN004 OVC009 13/12 Q1008=
200810132050 METAR ESMX 132050Z 23009KT 4500 BR BKN004 OVC007 13/12 Q1008=
200810132020 METAR ESMX 132020Z 22010KT 4000 BR OVC004 13/12 Q1008=
200810131950 METAR ESMX 131950Z 22009KT 170V240 3000 BR FEW003 BKN005 OVC007 13/12 Q1009=
200810131920 METAR ESMX 131920Z 22009KT 2100 BR SCT004 BKN007 OVC008 13/12 Q1009 REDZ=
200810131850 METAR ESMX 131850Z 23011KT 200V260 2600 SHRA BR FEW007 OVC009 13/12 Q1009=
200810131820 METAR ESMX 131820Z 24009KT 210V280 7000 BR OVC010 14/12 Q1009=
200810131750 METAR ESMX 131750Z 23012KT 200V260 8000 BR -SHRA BKN012 14/12 Q1009=
200810131720 METAR ESMX 131720Z 22013KT 8000 -SHRA SCT014 BKN036 14/12 Q1009=
200810131650 METAR ESMX 131650Z 22011KT 9999 SCT018 OVC038 14/11 Q1009=
200810131620 METAR ESMX 131620Z 22011KT 9999 SCT018 BKN042 14/11 Q1009=
200810131550 METAR ESMX 131550Z 22008KT 180V250 9999 FEW019 BKN045 14/11 Q1009=
200810131520 METAR ESMX 131520Z 20012KT 9999 BKN045 14/11 Q1009=
200810131450 METAR ESMX 131450Z 20010KT CAVOK 14/11 Q1010=
200810131420 METAR ESMX 131420Z 20009KT 9000 BR NSC 14/11 Q1010=
200810131350 METAR ESMX 131350Z 20008KT 9000 BR FEW016 BKN066 14/11 Q1011=
200810131250 METAR ESMX 131250Z 20009KT 8000 BR SCT015 BKN060 14/11 Q1011=
200810131220 METAR ESMX 131220Z 21011KT 7000 BR FEW012 BKN059 14/11 Q1012=
200810131150 METAR ESMX 131150Z 21012KT 6000 BR BKN011 13/11 Q1012=
200810131120 METAR ESMX 131120Z 21011KT 170V250 7000 BR OVC012 13/11 Q1013=
200810131050 METAR ESMX 131050Z 22009KT 200V260 7000 BR BKN010 13/11 Q1013=
200810131020 METAR ESMX 131020Z 23010KT 7000 BR FEW009 OVC011 13/11 Q1014=
200810130950 METAR ESMX 130950Z 21009KT 5000 BR SCT007 BKN008 12/11 Q1014=
200810130920 METAR ESMX 130920Z 21008KT 4000 SCT004 BKN007 11/11 Q1014=
200810130850 METAR ESMX 130850Z 20009KT 2500 BR OVC002 10/10 Q1014=
200810130750 METAR ESMX 130750Z 19006KT 0900 R01/1300VP2000D R19/P2000D FG OVC002 09/08 Q1015=
200810130720 METAR ESMX 130720Z 17005KT 7000 BR BKN003 09/08 Q1015=
200810130650 METAR ESMX 130650Z 20006KT 9999 BR OVC003 08/08 Q1015=
200810130620 METAR ESMX 130620Z 21007KT 7000 BR OVC003 08/07 Q1015=
200810130550 METAR ESMX 130550Z 21006KT 7000 BR OVC003 08/07 Q1016=
200810130520 METAR ESMX 130520Z 20006KT 9999 BKN004 07/06 Q1016=
200810130450 METAR ESMX 130450Z 21006KT CAVOK 07/06 Q1016=
200810130420 METAR ESMX 130420Z 21006KT CAVOK 07/06 Q1016=
200810130350 METAR ESMX 130350Z 21007KT CAVOK 07/06 Q1016=
200810130320 METAR ESMX 130320Z 21006KT CAVOK 07/06 Q1016=
200810130250 METAR ESMX 130250Z AUTO 23007KT 9999NDV NCD 07/06 Q1017=
200810130220 METAR ESMX 130220Z AUTO 20006KT 9999NDV FEW018/// 06/06 Q1017=
200810130150 METAR ESMX 130150Z AUTO 22005KT 9999NDV NCD 07/06 Q1017=
200810130120 METAR ESMX 130120Z AUTO 22006KT 9999NDV NCD 06/06 Q1018=
200810130050 METAR ESMX 130050Z AUTO 21006KT 9999NDV NCD 06/05 Q1018=
200810130020 METAR ESMX 130020Z 23006KT CAVOK 06/05 Q1018=
200810122350 METAR ESMX 122350Z 21006KT 9999 FEW021 06/05 Q1018=
200810122320 METAR ESMX 122320Z 22004KT 9999 FEW029 06/05 Q1018=
200810122250 METAR ESMX 122250Z 21004KT CAVOK 06/05 Q1018=
200810122220 METAR ESMX 122220Z 21005KT 9999 FEW030 06/05 Q1018=
200810122150 METAR ESMX 122150Z 24004KT 9999 SCT033 08/07 Q1018=
200810122120 METAR ESMX 122120Z 23005KT 9999 FEW028 08/07 Q1018=
200810122050 METAR ESMX 122050Z 24005KT CAVOK 08/07 Q1018=
200810122020 METAR ESMX 122020Z 23005KT CAVOK 08/07 Q1018=
200810121950 METAR ESMX 121950Z 23005KT CAVOK 09/07 Q1018=
200810121920 METAR ESMX 121920Z 23006KT 9999 FEW025 09/07 Q1018=
200810121850 METAR ESMX 121850Z 22006KT 9999 BKN041 09/07 Q1018=
200810121820 METAR ESMX 121820Z 21006KT 190V250 9999 BKN041 09/07 Q1018=
200810121750 METAR ESMX 121750Z 24007KT 200V280 9999 BKN041 10/06 Q1018=
200810121720 METAR ESMX 121720Z 24005KT 9999 FEW038 SCT045 10/06 Q1018=
200810121650 METAR ESMX 121650Z 24006KT CAVOK 10/05 Q1018=
200810121620 METAR ESMX 121620Z 27008KT CAVOK 11/05 Q1018=
200810121550 METAR ESMX 121550Z 27008KT 9999 FEW040 11/05 Q1018=
200810121520 METAR ESMX 121520Z 26009KT 230V300 9999 FEW040 12/05 Q1018=
200810121450 METAR ESMX 121450Z 28009KT 9999 FEW039 13/05 Q1017=
200810121420 METAR ESMX 121420Z 28011KT 240V310 9999 FEW040 12/05 Q1018=
200810121350 METAR ESMX 121350Z 27010KT 9999 FEW048 12/06 Q1018=
200810121320 METAR ESMX 121320Z 27010KT 230V300 9999 FEW041 SCT047 13/06 Q1018=
200810121250 METAR ESMX 121250Z 27008KT 240V300 9999 SCT044 14/08 Q1018=
200810121220 METAR ESMX 121220Z 27014KT 9999 FEW033 BKN045 13/07 Q1018=
200810121150 METAR ESMX 121150Z 25012KT 210V290 9999 FEW025 SCT048 13/08 Q1018=
200810121120 METAR ESMX 121120Z 27010KT 240V320 9999 FEW024 SCT038 13/07 Q1018=
200810121050 METAR ESMX 121050Z 27013KT 9999 FEW021 SCT025 12/08 Q1019=
200810121020 METAR ESMX 121020Z AUTO 25009KT 9999NDV FEW020/// 12/08 Q1019=
200810120950 METAR ESMX 120950Z AUTO 26011KT 220V300 9999NDV FEW019/// 12/08 Q1019=
200810120920 METAR ESMX 120920Z AUTO 26008KT 220V290 9999NDV FEW016/// SCT021/// 12/08 Q1019=
200810120850 METAR ESMX 120850Z AUTO 26008KT 220V300 9999NDV FEW011/// BKN013/// BKN018/// 12/09 Q1019=
200810120820 METAR ESMX 120820Z AUTO 23007KT 200V270 9999NDV SCT010/// BKN018/// 11/09 Q1019=
200810120750 METAR ESMX 120750Z AUTO 25006KT 210V280 9999NDV FEW009/// BKN010/// BKN014/// 10/09 Q1019=
200810120720 METAR ESMX 120720Z AUTO 24006KT 9999NDV BKN008/// 10/09 Q1019=
200810120650 METAR ESMX 120650Z AUTO 23005KT 200V270 9999NDV BKN011/// 10/08 Q1018=
200810120620 METAR ESMX 120620Z AUTO 25006KT 9999NDV FEW013/// SCT017/// 09/08 Q1019=
200810120550 METAR ESMX 120550Z AUTO 25006KT 9999NDV FEW013/// SCT017/// BKN019/// 09/08 Q1019=
200810120520 METAR ESMX 120520Z AUTO 24005KT 9999NDV BKN014/// BKN020/// 09/08 Q1019=
200810120450 METAR ESMX 120450Z AUTO 25006KT 9999NDV FEW015/// BKN018/// 10/08 Q1019=
200810120420 METAR ESMX 120420Z AUTO 25006KT 9999NDV FEW016/// BKN020/// 10/08 Q1019=
200810120350 METAR ESMX 120350Z AUTO 24005KT 200V280 9999NDV FEW018/// BKN021/// 10/08 Q1019=
200810120320 METAR ESMX 120320Z AUTO 25005KT 220V290 9999NDV BKN016/// 09/08 Q1019=
200810120250 METAR ESMX 120250Z AUTO 26007KT 9999NDV FEW013/// SCT021/// 10/08 Q1019=
200810120220 METAR ESMX 120220Z AUTO 26006KT 230V300 9999NDV FEW016/// 10/08 Q1019=
200810120150 METAR ESMX 120150Z AUTO 25006KT 220V280 9999NDV FEW014/// SCT021/// 10/08 Q1019=
200810120120 METAR ESMX 120120Z AUTO 26007KT 210V290 9999NDV NCD 10/09 Q1019=
200810120050 METAR ESMX 120050Z AUTO 26009KT 230V290 9999NDV FEW014/// SCT020/// 11/09 Q1019=
200810120020 METAR ESMX 120020Z AUTO 25009KT 210V290 9999NDV FEW018/// SCT024/// 11/09 Q1019=
200810112350 METAR ESMX 112350Z AUTO 26009KT 9999NDV FEW017/// BKN024/// 12/09 Q1019=
200810112320 METAR ESMX 112320Z AUTO 25009KT 9999NDV FEW012/// BKN017/// OVC021/// 12/10 Q1019=
200810112250 METAR ESMX 112250Z AUTO 25009KT 210V290 9999NDV FEW014/// SCT020/// BKN026/// 12/10 Q1019=
200810112220 METAR ESMX 112220Z AUTO 26009KT 9999NDV FEW013/// BKN020/// BKN027/// 12/11 Q1019=
200810112150 METAR ESMX 112150Z AUTO 25009KT 210V290 9999NDV FEW011/// SCT014/// BKN018/// 12/11 Q1019=
200810112120 METAR ESMX 112120Z AUTO 25008KT 210V290 9999NDV FEW009/// BKN012/// OVC017/// 13/12 Q1019=
200810112050 METAR ESMX 112050Z AUTO 24008KT 210V280 9000NDV BR FEW010/// SCT013/// BKN031/// 13/12 Q1019 RERA REDZ=
200810112020 METAR ESMX 112020Z AUTO 25009KT 9999NDV FEW026/// BKN029/// BKN050/// 13/11 Q1019=
200810111950 METAR ESMX 111950Z AUTO 25008KT 9999NDV FEW011/// SCT026/// BKN030/// 13/12 Q1020=
200810111920 METAR ESMX 111920Z AUTO 24008KT 9999NDV FEW007/// SCT010/// BKN015/// 13/12 Q1019 RERA REDZ=
200810111850 METAR ESMX 111850Z AUTO 25008KT 220V290 9999NDV FEW006/// SCT009/// BKN012/// 13/12 Q1020 REDZ=
200810111820 METAR ESMX 111820Z AUTO 24008KT 210V280 5000NDV -DZ FEW004/// SCT006/// BKN007/// 13/12 Q1019 RERA=
200810111750 METAR ESMX 111750Z AUTO 24009KT 3400NDV -RA FEW004/// BKN006/// OVC009/// 13/12 Q1019 REDZ=
200810111720 METAR ESMX 111720Z AUTO 24008KT 3000NDV DZ FEW005/// BKN006/// OVC008/// 13/12 Q1019=
200810111650 METAR ESMX 111650Z AUTO 23008KT 200V270 3200NDV -DZ OVC005/// 13/12 Q1019 RERA=
200810111620 METAR ESMX 111620Z AUTO 24010KT 210V270 3400NDV BR FEW005/// SCT007/// BKN008/// 13/12 Q1019 REDZ=
200810111550 METAR ESMX 111550Z AUTO 23008KT 150V270 2700NDV DZ FEW005/// SCT006/// BKN007/// 13/12 Q1019 RERA=
200810111520 METAR ESMX 111520Z AUTO 23008KT 200V260 2600NDV DZ SCT005/// BKN007/// OVC009/// 13/12 Q1019 RERA=
200810111450 METAR ESMX 111450Z AUTO 25008KT 220V290 3500NDV BR OVC004/// 13/12 Q1019=
200810111420 METAR ESMX 111420Z AUTO 24010KT 200V270 3200NDV BR OVC004/// 13/12 Q1019=
200810111350 METAR ESMX 111350Z AUTO 24009KT 2900NDV BR OVC004/// 13/12 Q1019 RERA REDZ=
200810111320 METAR ESMX 111320Z AUTO 23012KT 5000NDV BR OVC004/// 13/12 Q1019=
200810111250 METAR ESMX 111250Z AUTO 23012KT 2600NDV BR OVC004/// 13/12 Q1018=
200810111220 METAR ESMX 111220Z AUTO 25012KT 210V290 7000NDV BR OVC005/// 13/12 Q1019=
200810111150 METAR ESMX 111150Z AUTO 23012KT 190V260 9999NDV BR OVC006/// 13/11 Q1018=
200810111120 METAR ESMX 111120Z AUTO 23011KT 200V260 9000NDV BR OVC006/// 13/11 Q1019=
200810111050 METAR ESMX 111050Z AUTO 22012KT 8000NDV BR OVC006/// 12/11 Q1019=
200810111020 METAR ESMX 111020Z AUTO 23012KT 6000NDV BR FEW005/// OVC006/// 12/11 Q1019=
200810110950 METAR ESMX 110950Z AUTO 23010KT 2200NDV BR FEW005/// OVC006/// 12/11 Q1019=
200810110920 METAR ESMX 110920Z AUTO 22011KT 3000NDV BR OVC007/// 12/11 Q1019=
200810110850 METAR ESMX 110850Z AUTO 22010KT 180V250 6000NDV BR OVC007/// 12/10 Q1019=
200810110820 METAR ESMX 110820Z AUTO 22011KT 7000NDV BR OVC007/// 12/10 Q1019=
200810110750 METAR ESMX 110750Z AUTO 22011KT 6000NDV BR OVC006/// 12/10 Q1019=
200810110720 METAR ESMX 110720Z AUTO 23012KT 6000NDV BR OVC007/// 12/10 Q1019=
200810110650 METAR ESMX 110650Z AUTO 23010KT 200V260 6000NDV BR OVC007/// 12/10 Q1019=
200810110620 METAR ESMX 110620Z AUTO 22010KT 190V250 6000NDV BR OVC007/// 12/10 Q1019=
200810110550 METAR ESMX 110550Z AUTO 21009KT 6000NDV BR OVC007/// 11/10 Q1019=
200810110520 METAR ESMX 110520Z AUTO 21010KT 6000NDV BR OVC007/// 11/10 Q1019=
200810110450 METAR ESMX 110450Z AUTO 22010KT 5000NDV BR OVC006/// 11/10 Q1019=
200810110420 METAR ESMX 110420Z AUTO 21011KT 3700NDV BR FEW005/// OVC007/// 11/10 Q1019=
200810110350 METAR ESMX 110350Z AUTO 21010KT 3800NDV BR OVC005/// 11/10 Q1019=
200810110320 METAR ESMX 110320Z AUTO 21012KT 4400NDV BR OVC005/// 11/10 Q1019=
200810110250 METAR ESMX 110250Z AUTO 23009KT 4900NDV BR OVC005/// 11/10 Q1020=
200810110220 METAR ESMX 110220Z AUTO 22011KT 3800NDV BR OVC004/// 11/10 Q1020=
200810110150 METAR ESMX 110150Z AUTO 22010KT 3900NDV BR OVC005/// 11/10 Q1020=
200810110120 METAR ESMX 110120Z AUTO 22010KT 170V250 3200NDV BR OVC005/// 11/10 Q1021=
200810110050 METAR ESMX 110050Z AUTO 22012KT 4000NDV BR OVC006/// 11/10 Q1021=
200810110020 METAR ESMX 110020Z AUTO 22012KT 5000NDV BR OVC006/// 11/10 Q1021=
200810102350 METAR ESMX 102350Z AUTO 22012KT 190V250 5000NDV BR OVC007/// 11/10 Q1021=
200810102320 METAR ESMX 102320Z AUTO 22012KT 200V260 6000NDV BR OVC007/// 11/09 Q1022=
200810102250 METAR ESMX 102250Z AUTO 22011KT 6000NDV BR OVC008/// 11/09 Q1022=
200810102220 METAR ESMX 102220Z AUTO 22012KT 200V260 8000NDV BR OVC010/// 11/09 Q1022=
200810102150 METAR ESMX 102150Z AUTO 22014KT 190V260 9000NDV BR OVC011/// 11/09 Q1022=
200810102120 METAR ESMX 102120Z AUTO 21012KT 9000NDV BR OVC012/// 11/09 Q1022=
200810102050 METAR ESMX 102050Z AUTO 20012KT 8000NDV BR FEW014/// BKN016/// BKN022/// 10/09 Q1023 RERA REDZ=
200810102020 METAR ESMX 102020Z AUTO 20010KT 9999NDV FEW014/// SCT020/// BKN034/// 11/09 Q1023=
200810101950 METAR ESMX 101950Z AUTO 21009KT 170V240 9999NDV FEW011/// SCT015/// BKN017/// 11/09 Q1024=
200810101920 METAR ESMX 101920Z AUTO 19012KT 9999NDV OVC053/// 10/09 Q1023=
200810101850 METAR ESMX 101850Z AUTO 19011KT 9999NDV OVC056/// 10/09 Q1023=
200810101820 METAR ESMX 101820Z 19010KT 9999 FEW049 BKN061 10/09 Q1024=
200810101750 METAR ESMX 101750Z 20009KT CAVOK 10/09 Q1024=
200810101720 METAR ESMX 101720Z 20010KT 9999 FEW025 BKN054 10/09 Q1024=
200810101650 METAR ESMX 101650Z 20009KT 9999 FEW025 BKN065 11/09 Q1025=
200810101620 METAR ESMX 101620Z 20008KT 9999 FEW015 SCT025 BKN065 11/10 Q1025=
200810101550 METAR ESMX 101550Z 20008KT 9999 -RA FEW023 SCT031 11/10 Q1025=
200810101520 METAR ESMX 101520Z 19009KT 8000 -RA FEW027 SCT080 11/10 Q1025=
200810101450 METAR ESMX 101450Z 19008KT 9999 -RA FEW030 SCT080 11/10 Q1025=
200810101420 METAR ESMX 101420Z 21008KT 9999 -RA FEW020 BKN080 12/10 Q1026=
200810101350 METAR ESMX 101350Z 21009KT 9999 -RA SCT024 12/10 Q1026 REDZ=
200810101320 METAR ESMX 101320Z 21009KT 9999 -DZ FEW021 SCT029 13/09 Q1026 RERA=
200810101250 METAR ESMX 101250Z 21010KT 9999 SCT020 BKN035 13/09 Q1026=
200810101220 METAR ESMX 101220Z 23011KT 9999 FEW020 BKN040 13/09 Q1027=
200810101150 METAR ESMX 101150Z 21011KT 9999 SCT017 BKN040 13/10 Q1027=
200810101120 METAR ESMX 101120Z 22010KT 9999 SCT016 BKN040 13/09 Q1027=
200810101050 METAR ESMX 101050Z 23008KT 200V260 9999 FEW016 BKN018 OVC027 13/10 Q1027=
200810101020 METAR ESMX 101020Z 22008KT 9999 FEW014 SCT018 BKN027 13/10 Q1027=
200810100950 METAR ESMX 100950Z 24009KT 200V280 9999 FEW011 BKN015 BKN100 13/10 Q1027=
200810100920 METAR ESMX 100920Z 22009KT 9999 SCT010 BKN025 12/10 Q1027=
200810100850 METAR ESMX 100850Z 24008KT 200V260 9999 FEW009 SCT013 BKN016 12/10 Q1027=
200810100820 METAR ESMX 100820Z 23007KT 9999 FEW009 SCT012 BKN015 12/10 Q1027=
200810100750 METAR ESMX 100750Z 22007KT 9999 SCT008 BKN016 11/10 Q1027=
200810100720 METAR ESMX 100720Z 23006KT 9999 FEW005 SCT022 BKN096 11/10 Q1027=
200810100650 METAR ESMX 100650Z 21006KT 9999 SCT009 BKN020 10/09 Q1027=
200810100620 METAR ESMX 100620Z 21004KT 9999 FEW009 SCT030 BKN100 10/09 Q1027=
200810100550 METAR ESMX 100550Z 21005KT 9999 FEW020 BKN025 10/09 Q1027=
200810100520 METAR ESMX 100520Z 22005KT 9999 SCT015 09/08 Q1027=
200810100450 METAR ESMX 100450Z 23005KT 9999 SCT007 09/09 Q1027=
200810100420 METAR ESMX 100420Z 23005KT 9999 SCT006 BKN009 BKN013 10/09 Q1027=
200810100350 METAR ESMX 100350Z 24005KT 9999 FEW008 BKN010 OVC014 10/09 Q1027=
200810100320 METAR ESMX 100320Z 23004KT 9999 BKN007 OVC011 10/09 Q1027=
200810100250 METAR ESMX 100250Z AUTO 23004KT 190V280 9999NDV BKN009/// BKN014/// 10/09 Q1027=
200810100220 METAR ESMX 100220Z AUTO 25006KT 220V300 9999NDV FEW010/// BKN012/// 10/08 Q1027=
200810100150 METAR ESMX 100150Z AUTO 27005KT 230V310 9999NDV FEW008/// SCT009/// BKN011/// 10/08 Q1028=
200810100120 METAR ESMX 100120Z AUTO 26004KT 9999NDV BKN007/// OVC010/// 09/08 Q1028=
200810100050 METAR ESMX 100050Z AUTO 27004KT 230V300 9999NDV OVC007/// 09/08 Q1027=
200810100020 METAR ESMX 100020Z AUTO 27005KT 230V290 9999NDV BKN007/// 08/07 Q1027=
200810092350 METAR ESMX 092350Z 26004KT 9999 SCT008 07/07 Q1027=
200810092320 METAR ESMX 092320Z 21003KT 9999 BKN008 07/06 Q1027=
200810092250 METAR ESMX 092250Z 22003KT 9999 BKN009 08/07 Q1027=
200810092220 METAR ESMX 092220Z 23004KT 9999 BKN009 08/07 Q1027=
200810092150 METAR ESMX 092150Z 20004KT 9999 BKN010 08/07 Q1026=
200810092120 METAR ESMX 092120Z 23004KT 9999 BKN013 BKN018 08/07 Q1026=
200810092050 METAR ESMX 092050Z 24003KT 9999 SCT020 07/06 Q1026=
200810092020 METAR ESMX 092020Z 26004KT 9999 SCT022 08/06 Q1026=
200810091950 METAR ESMX 091950Z 26004KT 9999 SCT020 08/06 Q1026=
200810091920 METAR ESMX 091920Z 24006KT CAVOK 08/06 Q1026=
200810091850 METAR ESMX 091850Z 26007KT 9999 SCT028 09/06 Q1025=
200810091820 METAR ESMX 091820Z 25006KT 9999 SCT028 10/07 Q1025=
200810091750 METAR ESMX 091750Z 27007KT 220V290 9999 BKN028 11/07 Q1025=
200810091720 METAR ESMX 091720Z 27008KT 230V290 9999 FEW028 BKN033 11/07 Q1025=
200810091620 METAR ESMX 091620Z 27010KT 240V310 9999 FEW034 11/07 Q1024=
200810091550 METAR ESMX 091550Z 26010KT 9999 FEW028 12/07 Q1024=
200810091520 METAR ESMX 091520Z 26008KT 9999 FEW028 12/07 Q1023=
200810091450 METAR ESMX 091450Z 27008KT 220V300 9999 FEW030 13/07 Q1023=
200810091420 METAR ESMX 091420Z 25010KT 210V280 9999 FEW029 13/07 Q1023=
200810091350 METAR ESMX 091350Z 26012KT 230V290 9999 SCT027 13/07 Q1023=
200810091320 METAR ESMX 091320Z 24012KT 9999 SCT023 13/8 Q1023=
200810091220 METAR ESMX 091220Z 25008KT 9999 FEW031 13/09 Q1023=
200810091120 METAR ESMX 091120Z 27009KT 9999 SCT017 BKN022 OVC031 13/10 Q1022=
200810091050 METAR ESMX 091050Z 25010KT 210V290 9999 BKN016 BKN031 13/10 Q1022=
200810091020 METAR ESMX 091020Z 23007KT 200V280 9999 FEW013 BKN045 13/10 Q1022=
200810090950 METAR ESMX 090950Z 22007KT 9999 FEW008 SCT012 BKN016 12/11 Q1022=
200810090920 METAR ESMX 090920Z 24006KT 200V270 9999 FEW007 BKN010 OVC015 12/11 Q1022=
200810090850 METAR ESMX 090850Z 23006KT 200V260 9999 FEW005 SCT008 BKN009 12/11 Q1022=
200810090820 METAR ESMX 090820Z 22007KT 5000 BR FEW005 SCT008 BKN012 11/11 Q1022 REDZ=
200810090750 METAR ESMX 090750Z 24006KT 210V270 4100 -RA FEW004 BKN007 OVC022 11/10 Q1021=
200810090720 METAR ESMX 090720Z 21005KT 7000 BR FEW004 SCT007 BKN019 11/10 Q1021=
200810090650 METAR ESMX 090650Z 23006KT 6000 BR FEW005 SCT008 BKN011 11/10 Q1021=
200810090620 METAR ESMX 090620Z 20005KT 5000 BR FEW005 SCT010 11/10 Q1020=
200810090550 METAR ESMX 090550Z 23006KT 4700 BR FEW002 SCT004 BKN005 11/10 Q1020=
200810090520 METAR ESMX 090520Z 22008KT 180V240 1300 R01/P2000U R19/P2000U BR OVC002 11/10 Q1020=
200810090450 METAR ESMX 090450Z 19008KT 1000 R01/P2000N R19/P2000N BR OVC002 11/10 Q1020=
200810090420 METAR ESMX 090420Z 19007KT 1400 R01/P2000D R19/P2000D BR OVC002 11/10 Q1020=
200810090350 METAR ESMX 090350Z 19007KT 2700 BR OVC002 10/10 Q1020 REDZ=
200810090320 METAR ESMX 090320Z 18005KT 2300 DZ OVC002 10/10 Q1020=
200810090250 METAR ESMX 090250Z AUTO 17006KT 2700NDV DZ OVC001/// 10/09 Q1020 RERA=
200810090220 METAR ESMX 090220Z AUTO 16006KT 3400NDV BR OVC002/// 09/09 Q1020=
200810090150 METAR ESMX 090150Z AUTO 16007KT 120V190 4400NDV BR OVC003/// 09/08 Q1020=
200810090120 METAR ESMX 090120Z AUTO 16006KT 110V190 5000NDV BR OVC003/// 09/08 Q1020=
200810090050 METAR ESMX 090050Z AUTO 15006KT 120V190 5000NDV BR OVC003/// 09/08 Q1020=
200810090020 METAR ESMX 090020Z AUTO 15005KT 110V170 6000NDV BR OVC004/// 08/08 Q1020=
200810082350 METAR ESMX 082350Z 16005KT 120V220 8000 BR SCT004 OVC054 08/07 Q1020=
200810082250 METAR ESMX 082250Z 16006KT 140V200 9999 BKN044 08/07 Q1020=
200810082220 METAR ESMX 082220Z 15006KT 110V180 CAVOK 08/06 Q1020=
200810082150 METAR ESMX 082150Z 15007KT 110V170 CAVOK 07/06 Q1020=
200810082120 METAR ESMX 082120Z 14006KT CAVOK 07/06 Q1020=
200810082050 METAR ESMX 082050Z 15005KT CAVOK 07/06 Q1020=
200810082020 METAR ESMX 082020Z 15005KT CAVOK 07/06 Q1020=
200810081950 METAR ESMX 081950Z 15005KT CAVOK 07/06 Q1020=
200810081920 METAR ESMX 081920Z 15004KT CAVOK 07/06 Q1020=
200810081850 METAR ESMX 081850Z 15005KT CAVOK 08/06 Q1020=
200810081820 METAR ESMX 081820Z 16004KT CAVOK 07/06 Q1020=
200810081750 METAR ESMX 081750Z 14004KT CAVOK 06/05 Q1020=
200810081720 METAR ESMX 081720Z 15003KT CAVOK 07/06 Q1020=
200810081650 METAR ESMX 081650Z 14004KT CAVOK 08/06 Q1020=
200810081620 METAR ESMX 081620Z 17003KT 9999 FEW028 09/06 Q1019=
200810081550 METAR ESMX 081550Z 15004KT 110V180 9999 FEW028 12/06 Q1019=
200810081520 METAR ESMX 081520Z 14003KT 100V170 9999 FEW029 12/06 Q1019=
200810081450 METAR ESMX 081450Z 15004KT 110V200 9999 FEW027 12/06 Q1019=
200810081420 METAR ESMX 081420Z 15005KT 100V210 9999 BKN024 12/06 Q1019=
200810081350 METAR ESMX 081350Z 16007KT 130V200 9999 OVC025 12/06 Q1019=
200810081320 METAR ESMX 081320Z 16006KT 120V200 9999 BKN025 12/07 Q1020=
200810081250 METAR ESMX 081250Z 15007KT 100V190 9999 BKN023 13/07 Q1020=
200810081220 METAR ESMX 081220Z 16007KT 100V200 9999 BKN023 12/07 Q1020=
200810081150 METAR ESMX 081150Z 16008KT 110V190 9999 BKN022 12/07 Q1020=
200810081120 METAR ESMX 081120Z 17009KT CAVOK 12/07 Q1020=
200810081050 METAR ESMX 081050Z 15007KT 110V200 CAVOK 13/07 Q1020=
200810081020 METAR ESMX 081020Z 16007KT 110V200 9999 NSC 12/07 Q1020=
200810080950 METAR ESMX 080950Z 16007KT 130V200 CAVOK 11/07 Q1019=
200810080920 METAR ESMX 080920Z 16007KT CAVOK 11/07 Q1019=
200810080820 METAR ESMX 080820Z 15006KT 110V180 CAVOK 08/06 Q1019=
200810080750 METAR ESMX 080750Z 16004KT 120V190 CAVOK 07/07 Q1019=
200810080650 METAR ESMX 080650Z 14005KT 9000 BR FEW005 05/04 Q1019=
200810080620 METAR ESMX 080620Z 14004KT 100V170 8000 BR FEW200 03/02 Q1019=
200810080550 METAR ESMX 080550Z 14004KT 100V160 9999 0800N R19/0800VP2000U VV001 M01/M01 Q1019=
200810080520 METAR ESMX 080520Z 12003KT 0300N 8000S R01/P2000U R19/0450D FZBCFG FEW200 M00/M01 Q1019=
200810080450 METAR ESMX 080450Z 00000KT 0150 R01/0800 R19/0500 FZFG VV001 M01/M01 Q1019=
200810080420 METAR ESMX 080420Z 00000KT 0100 R01/0650N R19/0500N FZFG VV001 M01/M01 Q1019=
200810080350 METAR ESMX 080350Z 00000KT 0100 R01/0550 R19/0500N FZFG VV001 M01/M01 Q1019=
200810080320 METAR ESMX 080320Z AUTO 00000KT 0150NDV R01/1100N R19/0550N FZFG VV000 M01/M01 Q1019=
200810080250 METAR ESMX 080250Z AUTO 00000KT 0100NDV R01/0400V0700N R19/0500=
200810080220 METAR ESMX 080220Z AUTO 00000KT 0100NDV R01/0300 R19/0300 FZFG VV000 M01/M01 Q1019=
200810080150 METAR ESMX 080150Z AUTO 00000KT 0100NDV R01/0900V1200U R19/0375V0600N FZFG VV000 M00/M01 Q1019=
200810080120 METAR ESMX 080120Z AUTO 00000KT 0250NDV R01/0700 R19/P2000D FZFG VV000 M01/M01 Q1019=
200810080050 METAR ESMX 080050Z AUTO 00000KT 0200NDV R01/0800N R19/0900V1400U=
200810080020 METAR ESMX 080020Z AUTO 00000KT 0050NDV R01/0200N R19/0275N FG VV000 01/01 Q1019=
200810072350 METAR ESMX 072350Z 00000KT 0100 R01/0350V0450N R19/0400N FG VV001 01/01 Q1018=
200810072320 METAR ESMX 072320Z 18002KT 0050 R01/0150V0300N R19/0275N FG VV001 02/01 Q1018=
200810072250 METAR ESMX 072250Z 21001KT 0100 R01/0325V0500N R19/0700 FG VV002 01/01 Q1019=
200810072220 METAR ESMX 072220Z 19002KT 0100 R01/0800V1400N R19/0350V0550D BCFG NSC 02/02 Q1019=
200810072150 METAR ESMX 072150Z VRB02KT 0650 R01/P2000U R19/P2000D BCFG NSC 02/02 Q1019=
200810072120 METAR ESMX 072120Z 15003KT 120V180 5000 R01/P2000D R19/P2000U BCFG NSC 02/02 Q1019=
200810072050 METAR ESMX 072050Z 17002KT 7000 R01/P2000U R19/P2000 BCFG NSC 04/03 Q1019=
200810072020 METAR ESMX 072020Z 17003KT 140V200 CAVOK 04/03 Q1019=
200810071950 METAR ESMX 071950Z 18002KT CAVOK 05/04 Q1018=
200810071920 METAR ESMX 071920Z 16003KT CAVOK 06/05 Q1018=
200810071850 METAR ESMX 071850Z 17004KT CAVOK 06/05 Q1018=
200810071820 METAR ESMX 071820Z 18005KT CAVOK 07/05 Q1018=
200810071750 METAR ESMX 071750Z 17004KT CAVOK 05/04 Q1018=
200810071720 METAR ESMX 071720Z 15003KT CAVOK 05/04 Q1018=
200810071650 METAR ESMX 071650Z 15003KT CAVOK 06/05 Q1018=
200810071620 METAR ESMX 071620Z 15003KT CAVOK 08/06 Q1018=
200810071550 METAR ESMX 071550Z 17002KT CAVOK 10/07 Q1018=
200810071520 METAR ESMX 071520Z 17004KT CAVOK 12/06 Q1018=
200810071450 METAR ESMX 071450Z 23003KT 190V280 CAVOK 13/06 Q1018=
200810071420 METAR ESMX 071420Z 18004KT 140V230 CAVOK 13/05 Q1018=
200810071350 METAR ESMX 071350Z 22005KT CAVOK 13/05 Q1018=
200810071320 METAR ESMX 071320Z 20006KT CAVOK 13/06 Q1018=
200810071250 METAR ESMX 071250Z 23005KT 210V280 9999 FEW025 13/06 Q1018=
200810071220 METAR ESMX 071220Z 24004KT 160V300 9999 SCT025 13/06 Q1018=
200810071150 METAR ESMX 071150Z 28005KT 240V320 9999 SCT025 11/06 Q1019=
200810071120 METAR ESMX 071120Z 27004KT 240V320 9999 FEW018 BKN025 11/06 Q1019=
200810071050 METAR ESMX 071050Z 24005KT 200V270 9999 FEW017 BKN022 12/07 Q1019=
200810071020 METAR ESMX 071020Z 22004KT 9999 FEW016 BKN020 11/07 Q1019=
200810070950 METAR ESMX 070950Z 26006KT 220V290 9999 SCT015 11/07 Q1019=
200810070920 METAR ESMX 070920Z 25005KT 200V290 9999 FEW016 10/07 Q1019=
200810070850 METAR ESMX 070850Z 27004KT 230V300 9999 FEW018 09/07 Q1019=
200810070820 METAR ESMX 070820Z 26004KT CAVOK 09/07 Q1019=
200810070750 METAR ESMX 070750Z 28002KT CAVOK 07/06 Q1018=
200810070720 METAR ESMX 070720Z 26003KT CAVOK 06/05 Q1018=
200810070650 METAR ESMX 070650Z 24004KT CAVOK 03/02 Q1018=
200810070620 METAR ESMX 070620Z 22004KT 9999 BCFG FEW150 02/02 Q1018=
200810070550 METAR ESMX 070550Z 22004KT 9999 BCFG FEW150 01/01 Q1018=
200810070520 METAR ESMX 070520Z VRB02KT 0800 R01/P2000U R19/P2000D BCFG NSC 01/00 Q1018=
200810070450 METAR ESMX 070450Z 21003KT 190V260 9999 BCFG NSC 02/01 Q1018=
200810070420 METAR ESMX 070420Z 18002KT 9999 BCFG NSC 02/01 Q1017=
200810070350 METAR ESMX 070350Z 20003KT CAVOK 03/03 Q1017=
200810070320 METAR ESMX 070320Z AUTO 21005KT 9999NDV NCD 03/02 Q1017=
200810070250 METAR ESMX 070250Z AUTO 22006KT 9999NDV FEW023/// 02/02 Q1017=
200810070220 METAR ESMX 070220Z AUTO 22006KT 9999NDV FEW024/// BKN028/// 02/01 Q1017=
200810070150 METAR ESMX 070150Z AUTO 23004KT 9999NDV SCT026/// 03/02 Q1017=
200810070120 METAR ESMX 070120Z AUTO 22005KT 5000NDV NCD 02/02 Q1017=
200810070050 METAR ESMX 070050Z AUTO 22005KT 9999NDV NCD 02/02 Q1017=
200810070020 METAR ESMX 070020Z AUTO 22006KT 9999NDV NCD 02/01 Q1017=
200810062350 METAR ESMX 062350Z 22004KT 9999 FEW030 03/02 Q1017=
200810062320 METAR ESMX 062320Z 22004KT 9999 FEW029 03/02 Q1017=
200810062250 METAR ESMX 062250Z 23004KT CAVOK 02/02 Q1016=
200810062220 METAR ESMX 062220Z 23003KT CAVOK 04/03 Q1016=
200810062150 METAR ESMX 062150Z 24004KT CAVOK 03/02 Q1016=
200810062120 METAR ESMX 062120Z 23002KT CAVOK 04/03 Q1016=
200810062050 METAR ESMX 062050Z 25004KT CAVOK 04/03 Q1015=
200810062020 METAR ESMX 062020Z 23003KT CAVOK 04/03 Q1015=
200810061950 METAR ESMX 061950Z 23004KT CAVOK 05/03 Q1015=
200810061920 METAR ESMX 061920Z 22004KT CAVOK 05/03 Q1015=
200810061850 METAR ESMX 061850Z 22004KT CAVOK 06/04 Q1015=
200810061820 METAR ESMX 061820Z 23004KT CAVOK 07/04 Q1014=
200810061750 METAR ESMX 061750Z 24005KT CAVOK 06/04 Q1014=
200810061720 METAR ESMX 061720Z 22004KT CAVOK 07/04 Q1014=
200810061650 METAR ESMX 061650Z 24004KT CAVOK 08/04 Q1013=
200810061620 METAR ESMX 061620Z 25004KT CAVOK 09/04 Q1013=
200810061550 METAR ESMX 061550Z 26005KT 9999 FEW038 11/05 Q1013=
200810061520 METAR ESMX 061520Z 27006KT 9999 FEW035 12/05 Q1012=
200810061450 METAR ESMX 061450Z 25006KT 210V280 9999 FEW035 13/05 Q1012=
200810061420 METAR ESMX 061420Z 27007KT 200V320 9999 FEW035 13/04 Q1012=
200810061350 METAR ESMX 061350Z 25009KT 210V280 9999 FEW035 13/05 Q1011=
200810061320 METAR ESMX 061320Z 27008KT 200V300 9999 SCT036 14/06 Q1011=
200810061250 METAR ESMX 061250Z 24009KT 200V290 9999 SCT035 14/05 Q1011=
200810061220 METAR ESMX 061220Z 24009KT 200V280 9999 SCT034 13/06 Q1010=
200810061150 METAR ESMX 061150Z 25010KT 9999 FEW030 14/07 Q1010=
200810061120 METAR ESMX 061120Z 27009KT 230V320 9999 FEW032 13/06 Q1010=
200810061050 METAR ESMX 061050Z 26009KT 200V300 9999 FEW025 13/06 Q1010=
200810061020 METAR ESMX 061020Z 25011KT 230V310 9999 FEW025 13/07 Q1009=
200810060950 METAR ESMX 060950Z 25008KT 190V290 9999 FEW023 12/07 Q1009=
200810060920 METAR ESMX 060920Z 26010KT 9999 FEW021 12/08 Q1009=
200810060850 METAR ESMX 060850Z 27008KT 220V300 9999 FEW012 11/07 Q1008=
200810060820 METAR ESMX 060820Z 27006KT 240V310 CAVOK 11/08 Q1008=
200810060750 METAR ESMX 060750Z 26006KT 230V290 CAVOK 10/08 Q1007=
200810060720 METAR ESMX 060720Z 25007KT CAVOK 08/08 Q1007=
200810060650 METAR ESMX 060650Z 24005KT CAVOK 07/06 Q1006=
200810060620 METAR ESMX 060620Z 22007KT CAVOK 05/05 Q1006=
200810060550 METAR ESMX 060550Z 22006KT CAVOK 04/04 Q1005=
200810060520 METAR ESMX 060520Z 23005KT CAVOK 04/04 Q1005=
200810060450 METAR ESMX 060450Z 22006KT 9999 BCFG BR FEW002 04/04 Q1004=
200810060420 METAR ESMX 060420Z 21006KT CAVOK 05/04 Q1004=
200810060350 METAR ESMX 060350Z 21006KT CAVOK 04/04 Q1003=
200810060320 METAR ESMX 060320Z AUTO 21007KT 7000NDV BR NCD 04/04 Q1003=
200810060250 METAR ESMX 060250Z AUTO 17005KT 8000NDV BR FEW017/// 05/05 Q1003=
200810060220 METAR ESMX 060220Z AUTO 18004KT 9000NDV BKN018/// 05/04 Q1002=
200810060150 METAR ESMX 060150Z AUTO 21005KT 9999NDV FEW021/// 05/04 Q1002=
200810060120 METAR ESMX 060120Z AUTO 20006KT 9999NDV NCD 05/04 Q1002=
200810060050 METAR ESMX 060050Z AUTO 23005KT 9999NDV NCD 05/04 Q1001=
200810060020 METAR ESMX 060020Z 24005KT CAVOK 05/04 Q1000=
200810052350 METAR ESMX 052350Z 23006KT CAVOK 05/04 Q1000=
200810052320 METAR ESMX 052320Z 22008KT CAVOK 06/05 Q0999=
200810052250 METAR ESMX 052250Z 21007KT CAVOK 05/04 Q0999=
200810052220 METAR ESMX 052220Z 23008KT CAVOK 06/05 Q0998=
200810052150 METAR ESMX 052150Z 22009KT CAVOK 06/05 Q0998=
200810052120 METAR ESMX 052120Z 22009KT CAVOK 06/05 Q0997=
200810052050 METAR ESMX 052050Z 23010KT 9999 FEW007 07/05 Q0997=
200810052020 METAR ESMX 052020Z 22011KT CAVOK 07/05 Q0996=
200810051950 METAR ESMX 051950Z 22011KT 9999 FEW014 07/05 Q0996=
200810051920 METAR ESMX 051920Z 21011KT 170V240 9999 FEW017 06/05 Q0996=
200810051850 METAR ESMX 051850Z 21012KT CAVOK 06/05 Q0996=
200810051820 METAR ESMX 051820Z 20011KT 9999 BKN047 06/05 Q0995=
200810051750 METAR ESMX 051750Z 20011KT 9999 SCT045 06/05 Q0995=
200810051720 METAR ESMX 051720Z 21008KT CAVOK 06/05 Q0995=
200810051650 METAR ESMX 051650Z 22007KT CAVOK 06/05 Q0995=
200810051620 METAR ESMX 051620Z 25009KT 210V290 9999 FEW015 07/05 Q0994=
200810051520 METAR ESMX 051520Z 21010KT 9999 FEW005 SCT009 BKN018 10/09 Q0993=
200810051450 METAR ESMX 051450Z 21013KT 9999 -RA FEW005 BKN007 BKN012 10/09 Q0992=
200810051420 METAR ESMX 051420Z 20013KT 4900 RA BKN006 OVC009 09/08 Q0992=
200810051350 METAR ESMX 051350Z 19015KT 8000 -RA FEW006 BKN008 OVC010 09/08 Q0992=
200810051320 METAR ESMX 051320Z 19014KT 8000 -RA FEW006 OVC010 09/08 Q0992=
200810051220 METAR ESMX 051220Z 19016KT 9999 -RA FEW007 OVC009 09/08 Q0992=
200810051150 METAR ESMX 051150Z 18017KT 9000 -RA FEW008 OVC009 09/07 Q0993=
200810051120 METAR ESMX 051120Z 18016KT 9000 -RA FEW007 OVC009 08/07 Q0993=
200810051050 METAR ESMX 051050Z 18016KT 9999 -RA SCT007 BKN010 08/07 Q0993=
200810051020 METAR ESMX 051020Z AUTO 17018KT 7000NDV -RA FEW006/// SCT008/// OVC009/// 08/07 Q0993=
200810050950 METAR ESMX 050950Z AUTO 18017KT 3600NDV -RA FEW005/// BKN007/// OVC010/// 08/07 Q0994=
200810050920 METAR ESMX 050920Z AUTO 17015KT 9000NDV -RA FEW007/// BKN008/// OVC011/// 08/07 Q0994=
200810050850 METAR ESMX 050850Z AUTO 18015KT 150V210 9000NDV -RA FEW006/// BKN008/// OVC013/// 08/07 Q0994 REDZ=
200810050820 METAR ESMX 050820Z AUTO 17015KT 9000NDV -RA FEW007/// OVC008/// 08/06 Q0994=
200810050750 METAR ESMX 050750Z AUTO 17016KT 9999NDV -RA FEW007/// BKN009/// OVC012/// 08/06 Q0995 REDZ=
200810050720 METAR ESMX 050720Z AUTO 17015KT 9999NDV -RA FEW007/// BKN009/// OVC012/// 07/06 Q0995=
200810050650 METAR ESMX 050650Z AUTO 17017KT 140V210 9999NDV -RA FEW008/// OVC009/// 07/06 Q0995 REDZ=
200810050620 METAR ESMX 050620Z AUTO 18016G27KT 9999NDV DZ FEW007/// SCT009/// OVC010/// 07/06 Q0996 RERA=
200810050550 METAR ESMX 050550Z AUTO 18018KT 7000NDV -RA FEW009/// OVC011/// 07/06 Q0996=
200810050520 METAR ESMX 050520Z AUTO 17016KT 9000NDV -RA SCT011/// OVC015/// 07/06 Q0996 REDZ=
200810050450 METAR ESMX 050450Z AUTO 18016KT 9000NDV DZ OVC012/// 07/05 Q0997 RERA=
200810050420 METAR ESMX 050420Z AUTO 17016KT 140V200 9999NDV DZ OVC015/// 07/05 Q0997 RERA=
200810050350 METAR ESMX 050350Z AUTO 17014G25KT 9999NDV FEW019/// OVC022/// 08/04 Q0998=
200810050320 METAR ESMX 050320Z AUTO 17016KT 150V210 9999NDV FEW024/// BKN036/// OVC047/// 07/04 Q0998=
200810050250 METAR ESMX 050250Z AUTO 17014KT 130V200 9999NDV FEW022/// OVC036/// 07/04 Q0999=
200810050220 METAR ESMX 050220Z AUTO 17014KT 140V200 9999NDV FEW041/// SCT047/// OVC055/// 07/04 Q0999=
200810050150 METAR ESMX 050150Z AUTO 17012KT 140V200 9999NDV FEW048/// BKN060/// 06/03 Q1000=
200810050120 METAR ESMX 050120Z AUTO 17013KT 9999NDV NCD 06/03 Q1001=
200810050050 METAR ESMX 050050Z AUTO 17011KT 9999NDV NCD 06/04 Q1002=
200810050020 METAR ESMX 050020Z AUTO 17010KT 130V200 9999NDV FEW012/// SCT017/// 06/04 Q1002=
200810042350 METAR ESMX 042350Z AUTO 17009KT 9999NDV FEW019/// 05/04 Q1003=
200810042320 METAR ESMX 042320Z AUTO 18008KT 9999NDV NCD 05/04 Q1004=
200810042250 METAR ESMX 042250Z AUTO 18008KT 9999NDV NCD 05/03 Q1004=
200810042220 METAR ESMX 042220Z AUTO 17008KT 9999NDV NCD 05/03 Q1004=
200810042150 METAR ESMX 042150Z AUTO 18008KT 9999NDV NCD 05/04 Q1005=
200810042120 METAR ESMX 042120Z AUTO 18008KT 9999NDV NCD 04/03 Q1005=
200810042050 METAR ESMX 042050Z AUTO 17006KT 9999NDV NCD 05/04 Q1005=
200810042020 METAR ESMX 042020Z AUTO 19007KT 9999NDV NCD 04/03 Q1005=
200810041950 METAR ESMX 041950Z AUTO 18006KT 9999NDV NCD 05/04 Q1006=
200810041920 METAR ESMX 041920Z AUTO 18007KT 9999NDV NCD 05/04 Q1006=
200810041850 METAR ESMX 041850Z AUTO 20007KT 9999NDV FEW061/// 05/03 Q1006=
200810041820 METAR ESMX 041820Z AUTO 19008KT 9999NDV FEW043/// BKN053/// 06/04 Q1006 RERA REDZ=
200810041750 METAR ESMX 041750Z AUTO 21006KT 9999NDV FEW015/// BKN051/// 06/04 Q1006 RERA=
200810041720 METAR ESMX 041720Z AUTO 22007KT 9999NDV FEW015/// SCT018/// BKN023/// 07/05 Q1006 RERA=
200810041650 METAR ESMX 041650Z AUTO 26005KT 200V300 8000NDV RA FEW013/// SCT023/// BKN034/// 06/04 Q1005=
200810041620 METAR ESMX 041620Z AUTO 22009KT 9999NDV FEW025/// SCT035/// BKN068/// 07/04 Q1005=
200810041550 METAR ESMX 041550Z AUTO 22007KT 9999NDV NCD 07/04 Q1005=
200810041520 METAR ESMX 041520Z AUTO 24007KT 200V270 9999NDV FEW055/// 07/05 Q1005 RERA=
200810041450 METAR ESMX 041450Z AUTO 24013KT 210V270 9000NDV DZ FEW028/// SCT036/// 08/04 Q1005 RERA=
200810041420 METAR ESMX 041420Z AUTO 23011KT 190V260 9999NDV NCD 10/03 Q1004=
200810041350 METAR ESMX 041350Z AUTO 23014KT 9999NDV SCT051/// 11/03 Q1004=
200810041320 METAR ESMX 041320Z AUTO 24013KT 200V270 9999NDV FEW046/// SCT056/// 11/03 Q1004=
200810041250 METAR ESMX 041250Z AUTO 23012KT 200V290 9999NDV FEW049/// 12/04 Q1004=
200810041220 METAR ESMX 041220Z AUTO 23012KT 200V280 9999NDV FEW051/// 11/05 Q1004=
200810041150 METAR ESMX 041150Z AUTO 23012KT 200V260 9999NDV FEW022/// SCT037/// BKN047/// 10/06 Q1003 RERA=
200810041120 METAR ESMX 041120Z AUTO 23010KT 200V260 9999NDV FEW045/// SCT057/// 11/07 Q1003 RERA=
200810041050 METAR ESMX 041050Z AUTO 22012KT 190V250 9999NDV FEW025/// 11/06 Q1003=
200810041020 METAR ESMX 041020Z AUTO 23009KT 9999NDV BKN046/// 10/07 Q1003=
200810040950 METAR ESMX 040950Z AUTO 23009KT 9999NDV FEW015/// BKN046/// 10/07 Q1003=
200810040920 METAR ESMX 040920Z AUTO 21010KT 9999NDV FEW015/// SCT026/// BKN041/// 11/08 Q1003=
200810040850 METAR ESMX 040850Z AUTO 21009KT 170V230 9999NDV FEW009/// SCT014/// BKN017/// 10/08 Q1003=
200810040820 METAR ESMX 040820Z AUTO 19009KT 9999NDV FEW006/// BKN008/// OVC018/// 10/09 Q1003=
200810040750 METAR ESMX 040750Z AUTO 19008KT 9999NDV FEW006/// SCT008/// BKN010/// 09/08 Q1002=
200810040720 METAR ESMX 040720Z AUTO 19009KT 8000NDV BR BKN006/// OVC009/// 09/08 Q1002=
200810040650 METAR ESMX 040650Z AUTO 19009KT 9999NDV BKN005/// OVC009/// 08/07 Q1002=
200810040620 METAR ESMX 040620Z AUTO 19011KT 5000NDV BR OVC005/// 08/07 Q1002 RERA REDZ=
200810040550 METAR ESMX 040550Z AUTO 18010KT 150V210 9999NDV OVC006/// 08/07 Q1002=
200810040520 METAR ESMX 040520Z AUTO 20010KT 9999NDV OVC005/// 08/07 Q1001=
200810040450 METAR ESMX 040450Z AUTO 18009KT 150V210 9999NDV BKN006/// OVC008/// 08/07 Q1001=
200810040420 METAR ESMX 040420Z AUTO 17006KT 9999NDV OVC006/// 07/06 Q1001=
200810040350 METAR ESMX 040350Z AUTO 17007KT 9999NDV FEW007/// SCT009/// BKN026/// 07/07 Q1001=
200810040320 METAR ESMX 040320Z AUTO 17008KT 9999NDV FEW010/// SCT013/// BKN019/// 08/06 Q1001=
200810040250 METAR ESMX 040250Z AUTO 20008KT 9999NDV FEW006/// SCT010/// BKN013/// 08/07 Q1002=
200810040220 METAR ESMX 040220Z AUTO 21010KT 9999NDV OVC005/// 08/07 Q1002=
200810040150 METAR ESMX 040150Z AUTO 20008KT 9999NDV OVC004/// 08/07 Q1001=
200810040120 METAR ESMX 040120Z AUTO 18007KT 9000NDV BR OVC004/// 07/07 Q1002=
200810040050 METAR ESMX 040050Z AUTO 20008KT 7000NDV BR OVC002/// 07/07 Q1002=
200810040020 METAR ESMX 040020Z AUTO 20007KT 3400NDV BR OVC001/// 07/07 Q1002=
200810032350 METAR ESMX 032350Z AUTO 19007KT 7000NDV BR OVC002/// 07/06 Q1002=
200810032320 METAR ESMX 032320Z AUTO 18007KT 7000NDV BR BKN002/// 07/06 Q1002=
200810032250 METAR ESMX 032250Z AUTO 18005KT 8000NDV BR FEW023/// 06/06 Q1002=
200810032220 METAR ESMX 032220Z AUTO 19006KT 5000NDV BR NCD 06/05 Q1002=
200810032150 METAR ESMX 032150Z AUTO 19006KT 2300NDV BR NCD 06/05 Q1002=
200810032120 METAR ESMX 032120Z AUTO 18004KT 5000NDV BR NCD 07/06 Q1002=
200810032050 METAR ESMX 032050Z AUTO 19005KT 7000NDV BR SCT005/// 07/06 Q1002=
200810032020 METAR ESMX 032020Z AUTO 18005KT 9999NDV BKN006/// 07/07 Q1002=
200810031950 METAR ESMX 031950Z AUTO 18004KT 9999NDV FEW008/// 08/07 Q1001=
200810031920 METAR ESMX 031920Z AUTO 18006KT 9999NDV FEW014/// SCT065/// 09/08 Q1001=
200810031850 METAR ESMX 031850Z 18005KT 9999 SHRA FEW008 SCT040 BKN053 09/08 Q1001=
200810031820 METAR ESMX 031820Z 22005KT 5000 RA FEW010 SCT021 BKN032 09/08 Q1001=
200810031750 METAR ESMX 031750Z 18008KT 6000 RA FEW005 SCT026 BKN036 09/08 Q1001=
200810031720 METAR ESMX 031720Z 20004KT 9999 FEW019 SCT024 BKN029 09/07 Q1001 RERA=
200810031650 METAR ESMX 031650Z 18004KT 9999 FEW019 BKN021 BKN040 10/07 Q1001=
200810031620 METAR ESMX 031620Z 18005KT 9999 FEW022 BKN040 10/07 Q1000=
200810031550 METAR ESMX 031550Z 18007KT 9999 FEW028 BKN037 10/07 Q1000=
200810031520 METAR ESMX 031520Z 17007KT 9999 SCT026 BKN032 10/08 Q1000=
200810031450 METAR ESMX 031450Z 18008KT 9999 SCT030 BKN074 12/08 Q0999=
200810031420 METAR ESMX 031420Z 20007KT 9999 SCT026 BKN061 12/07 Q0999=
200810031350 METAR ESMX 031350Z 21007KT 160V230 9999 SCT027 13/07 Q0999=
200810031320 METAR ESMX 031320Z 22009KT 190V250 9999 SCT025 13/07 Q0999=
200810031250 METAR ESMX 031250Z 21007KT 170V240 9999 FEW020 SCT026 13/08 Q0999=
200810031220 METAR ESMX 031220Z 20008KT 9999 FEW020 BKN064 13/08 Q0999=
200810031150 METAR ESMX 031150Z 20009KT 150V240 9999 FEW021 SCT064 13/08 Q0999=
200810031120 METAR ESMX 031120Z 22008KT 190V250 9999 FEW017 SCT020 12/08 Q0998=
200810031050 METAR ESMX 031050Z 20010KT 160V230 9999 SCT018 12/08 Q0998=
200810031020 METAR ESMX 031020Z 21010KT 180V240 9999 SCT023 12/08 Q0998=
200810030950 METAR ESMX 030950Z 23008KT 200V260 9999 FEW015 SCT037 12/08 Q0998=
200810030920 METAR ESMX 030920Z 20008KT 9999 SCT010 BKN023 11/08 Q0998=
200810030850 METAR ESMX 030850Z 21008KT 180V240 9999 FEW010 SCT013 BKN019 10/09 Q0998=
200810030820 METAR ESMX 030820Z 21009KT 9999 FEW009 BKN023 10/09 Q0997=
200810030750 METAR ESMX 030750Z 21010KT 9999 FEW007 BKN011 BKN020 10/08 Q0997=
200810030720 METAR ESMX 030720Z 20008KT 9999 FEW007 BKN010 OVC013 10/09 Q0997=
200810030650 METAR ESMX 030650Z 21010G20KT 9999 FEW007 BKN009 09/08 Q0996=
200810030620 METAR ESMX 030620Z 20008KT 9999 FEW009 SCT014 BKN028 09/08 Q0996=
200810030550 METAR ESMX 030550Z 21007KT 9999 BKN008 09/08 Q0995=
200810030520 METAR ESMX 030520Z 20007KT 9999 FEW009 SCT075 08/07 Q0995=
200810030450 METAR ESMX 030450Z 20007KT 9999 FEW010 SCT014 BKN016 08/07 Q0994 RERA REDZ=
200810030420 METAR ESMX 030420Z 21008KT 9999 FEW009 SCT015 BKN020 09/08 Q0994=
200810030350 METAR ESMX 030350Z AUTO 21008KT 9999NDV SCT005/// BKN008/// OVC011/// 09/08 Q0994 RERA=
200810030320 METAR ESMX 030320Z AUTO 22008KT 8000NDV -RA FEW008/// SCT013/// BKN019/// 09/08 Q0993 REDZ=
200810030250 METAR ESMX 030250Z AUTO 21012KT 2800NDV +RA FEW009/// SCT013/// 09/08 Q0993=
200810030220 METAR ESMX 030220Z AUTO 21010KT 5000NDV -RA FEW010/// SCT013/// BKN018/// 09/08 Q0993=
200810030150 METAR ESMX 030150Z AUTO 20011KT 6000NDV -RA FEW009/// SCT011/// BKN014/// 09/08 Q0993 REDZ=
200810030120 METAR ESMX 030120Z AUTO 21013KT 9999NDV -RA FEW007/// SCT009/// BKN011/// 09/08 Q0992 REDZ=
200810030050 METAR ESMX 030050Z AUTO 19011KT 9999NDV FEW007/// SCT010/// BKN012/// 09/08 Q0992=
200810030020 METAR ESMX 030020Z AUTO 20011KT 9999NDV FEW005/// SCT007/// BKN009/// 09/08 Q0992=
200810022350 METAR ESMX 022350Z 19013KT 9999 OVC005 09/08 Q0992=
200810022320 METAR ESMX 022320Z 19010KT 9999 BKN005 OVC008 09/08 Q0992=
200810022220 METAR ESMX 022220Z 19008KT 9999 BKN006 08/07 Q0992=
200810022150 METAR ESMX 022150Z 19008KT 9999 SCT006 BKN008 08/07 Q0991=
200810022120 METAR ESMX 022120Z 20009KT 9999 FEW007 SCT024 08/07 Q0991=
200810022050 METAR ESMX 022050Z 20008KT 9999 FEW018 08/06 Q0991 RERA REDZ=
200810022020 METAR ESMX 022020Z 19009KT 9999 FEW016 SCT052 BKN081 08/07 Q0991=
200810021950 METAR ESMX 021950Z 18009KT 9999 FEW019 08/07 Q0991=
200810021920 METAR ESMX 021920Z 18008KT CAVOK 08/07 Q0991=
200810021850 METAR ESMX 021850Z 19008KT 9999 FEW030 08/06 Q0991=
200810021750 METAR ESMX 021750Z 20006KT 9999 FEW018 SCT035 BKN055 08/07 Q0990 REDZ=
200810021720 METAR ESMX 021720Z 19007KT 9999 -DZ FEW022 SCT037 BKN054 09/07 Q0990=
200810021650 METAR ESMX 021650Z 20006KT 9999 FEW024 SCT038 BKN045 09/07 Q0990=
200810021620 METAR ESMX 021620Z 21006KT 9999 FEW028 BKN052 09/07 Q0990=
200810021550 METAR ESMX 021550Z 22008KT 190V250 9999 FEW025 SCT051 10/06 Q0989=
200810021520 METAR ESMX 021520Z 23009KT 200V260 9999 FEW028 11/06 Q0989=
200810021450 METAR ESMX 021450Z 24009KT 9999 FEW020 SCT023 BKN030 11/06 Q0989=
200810021420 METAR ESMX 021420Z 24006KT 210V280 9999 FEW021 SCT029 BKN051 11/06 Q0988=
200810021350 METAR ESMX 021350Z 23009KT 200V280 9999 FEW021 SCT028 BKN049 11/07 Q0988=
200810021320 METAR ESMX 021320Z 25010KT 210V280 9999 FEW019 SCT026 BKN032 11/07 Q0987=
200810021250 METAR ESMX 021250Z 23011KT 9999 BKN020 BKN027 11/07 Q0987=
200810021220 METAR ESMX 021220Z 24009KT 9999 FEW023 BKN048 11/06 Q0987=
200810021150 METAR ESMX 021150Z 24009KT 190V280 9999 FEW018 SCT042 BKN050 11/07 Q0986=
200810021120 METAR ESMX 021120Z 27008KT 9999 FEW017 SCT049 10/07 Q0986=
200810021050 METAR ESMX 021050Z 25008KT 9999 SCT013 BKN021 BKN050 10/07 Q0986=
200810021020 METAR ESMX 021020Z 24009KT 9999 FEW013 SCT019 11/08 Q0985=
200810020950 METAR ESMX 020950Z 26008KT 9999 FEW009 SCT013 BKN016 09/07 Q0985=
200810020920 METAR ESMX 020920Z 24007KT 200V280 9999 FEW008 BKN010 09/07 Q0985=
200810020850 METAR ESMX 020850Z 23007KT 180V260 9999 SCT009 BKN040 08/07 Q0985=
200810020820 METAR ESMX 020820Z 27004KT 9999 FEW007 SCT011 BKN019 08/07 Q0984=
200810020750 METAR ESMX 020750Z VRB02KT 9999 BKN012 08/07 Q0984 RERA=
200810020720 METAR ESMX 020720Z 27003KT 9999 -RA FEW017 OVC020 07/07 Q0983=
200810020650 METAR ESMX 020650Z 27004KT 170V330 8000 -RA FEW007 SCT024 BKN029 08/07 Q0983=
200810020620 METAR ESMX 020620Z 24006KT 210V270 5000 -RA FEW003 SCT005 BKN020 07/07 Q0983=
200810020550 METAR ESMX 020550Z 19004KT 9999 DZ SCT005 OVC007 08/07 Q0983 RERA=
200810020520 METAR ESMX 020520Z 19006KT 8000 -RA FEW004 BKN005 OVC008 07/07 Q0983 REDZ=
200810020450 METAR ESMX 020450Z 18005KT 8000 -RA FEW005 OVC007 07/07 Q0983 REDZ=
200810020350 METAR ESMX 020350Z 21008KT 9999 OVC006 07/06 Q0983=
200810012150 METAR ESMX 012150Z 22008KT 9999 FEW005 BKN010 07/06 Q0983=
200810011950 METAR ESMX 011950Z 25007KT 9999 -DZ FEW007 SCT009 OVC037 07/06 Q0982 RERA=
200810011920 METAR ESMX 011920Z 24006KT 200V270 9999 FEW008 SCT038 BKN047 08/06 Q0982=
200810011850 METAR ESMX 011850Z 25005KT 9999 BKN016 OVC052 08/06 Q0982=
200810011820 METAR ESMX 011820Z 24003KT 9999 FEW015 BKN052 07/06 Q0982=
200810011750 METAR ESMX 011750Z 22003KT 9999 FEW040 BKN072 08/07 Q0981=
200810011720 METAR ESMX 011720Z 24004KT 9999 -DZ FEW020 SCT030CB BKN054 08/07 Q0981=
200810011650 METAR ESMX 011650Z 24005KT 9999 -SHRA FEW011 SCT028CB BKN046 09/07 Q0981=
200810011620 METAR ESMX 011620Z 21004KT 9999 FEW016 SCT050 08/07 Q0981=
200810011550 METAR ESMX 011550Z 20005KT 9999 FEW015 BKN150 09/07 Q0982=
200810011520 METAR ESMX 011520Z 21006KT 9999 FEW012 SCT045 BKN150 09/07 Q0982=
200810011450 METAR ESMX 011450Z 23006KT 200V260 9999 FEW010 SCT033 BKN044 10/08 Q0982=
200810011420 METAR ESMX 011420Z 24004KT 9999 -SHRA FEW009 SCT017CB BKN030 09/08 Q0982=
200810011350 METAR ESMX 011350Z 21008KT 9999 FEW012 SCT022 BKN030 10/08 Q0982=
200810011320 METAR ESMX 011320Z 20009KT 9999 FEW016 SCT020CB BKN028 10/08 Q0983 RESHRA=
200810011250 METAR ESMX 011250Z 22007KT 9999 FEW014 SCT020 BKN040 11/08 Q0983=
200810011220 METAR ESMX 011220Z 23007KT 9999 FEW013 SCT016 BKN020 11/08 Q0983=
