##########################################################
# Query made at 04/19/2024 21:03:36 UTC
# Time interval: from 05/01/2008 12:00  to 05/31/2008 12:59  UTC
##########################################################

##########################################################
# ESMX, Vaxjo (Sweden)
# WMO index: 02641. WIGOS ID: 0-20000-0-02648
# Latitude 56-51N. Longitude 014-50E. Altitude 199 m.
##########################################################

200805311250 METAR ESMX 311250Z AUTO VRB07KT 9999NDV NCD 25/03 Q1020=
200805311220 METAR ESMX 311220Z AUTO 15009KT 090V190 9999NDV NCD 25/03 Q1020=
200805311150 METAR ESMX 311150Z AUTO 16007KT 110V200 9999NDV NCD 25/03 Q1020=
200805311120 METAR ESMX 311120Z AUTO 14008KT 070V240 9999NDV FEW089/// 24/03 Q1020=
200805311050 METAR ESMX 311050Z AUTO 13007KT 050V190 9999NDV NCD 24/01 Q1020=
200805311020 METAR ESMX 311020Z AUTO 13008KT 040V170 9999NDV NCD 24/00 Q1020=
200805310950 METAR ESMX 310950Z AUTO 13006KT 040V170 9999NDV NCD 23/00 Q1020=
200805310920 METAR ESMX 310920Z AUTO 09007KT 030V140 9999NDV NCD 24/00 Q1020=
200805310850 METAR ESMX 310850Z AUTO 10006KT 050V170 9999NDV NCD 23/M00 Q1020=
200805310820 METAR ESMX 310820Z AUTO 08005KT 020V140 9999NDV NCD 21/M00 Q1020=
200805310750 METAR ESMX 310750Z AUTO 10004KT 020V170 9999NDV NCD 20/M01 Q1019=
200805310720 METAR ESMX 310720Z AUTO 07005KT 020V140 9999NDV NCD 18/01 Q1019=
200805310650 METAR ESMX 310650Z AUTO 09005KT 040V150 9999NDV NCD 17/04 Q1019=
200805310620 METAR ESMX 310620Z AUTO 08004KT 360V130 9999NDV NCD 16/06 Q1019=
200805310550 METAR ESMX 310550Z AUTO 08003KT 030V140 9999NDV NCD 15/07 Q1019=
200805310520 METAR ESMX 310520Z AUTO 07004KT 010V120 9999NDV NCD 14/07 Q1019=
200805310450 METAR ESMX 310450Z AUTO 04003KT 9999NDV NCD 13/07 Q1019=
200805310420 METAR ESMX 310420Z AUTO 03003KT 9999NDV NCD 10/07 Q1020=
200805310350 METAR ESMX 310350Z AUTO 00000KT 9999NDV NCD 07/06 Q1020=
200805310320 METAR ESMX 310320Z AUTO 00000KT 9999NDV NCD 06/05 Q1020=
200805310250 METAR ESMX 310250Z AUTO 00000KT 9999NDV NCD 05/04 Q1020=
200805310220 METAR ESMX 310220Z AUTO 00000KT 9999NDV NCD 06/05 Q1020=
200805310150 METAR ESMX 310150Z AUTO 00000KT 9999NDV NCD 06/05 Q1020=
200805310120 METAR ESMX 310120Z AUTO 00000KT 9999NDV NCD 07/05 Q1020=
200805310050 METAR ESMX 310050Z AUTO 19002KT 9999NDV NCD 07/05 Q1019=
200805310020 METAR ESMX 310020Z AUTO 00000KT 9999NDV NCD 08/05 Q1019=
200805302350 METAR ESMX 302350Z AUTO VRB01KT 9999NDV NCD 08/05 Q1019=
200805302320 METAR ESMX 302320Z AUTO VRB02KT 9999NDV NCD 09/06 Q1019=
200805302250 METAR ESMX 302250Z AUTO VRB02KT 9999NDV NCD 10/06 Q1019=
200805302220 METAR ESMX 302220Z AUTO 00000KT 9999NDV NCD 11/06 Q1019=
200805302150 METAR ESMX 302150Z AUTO 12002KT 9999NDV NCD 12/06 Q1019=
200805302120 METAR ESMX 302120Z AUTO 13003KT 100V160 9999NDV NCD 14/07 Q1018=
200805302050 METAR ESMX 302050Z AUTO 13003KT 100V160 9999NDV NCD 15/06 Q1018=
200805302020 METAR ESMX 302020Z AUTO 15003KT 110V190 9999NDV NCD 17/06 Q1018=
200805301950 METAR ESMX 301950Z AUTO 14003KT 110V170 9999NDV NCD 18/05 Q1018=
200805301920 METAR ESMX 301920Z 14005KT 100V170 CAVOK 19/05 Q1018=
200805301850 METAR ESMX 301850Z 14005KT 100V200 CAVOK 21/05 Q1017=
200805301820 METAR ESMX 301820Z 15005KT 110V170 CAVOK 22/04 Q1017=
200805301750 METAR ESMX 301750Z 13003KT 080V180 CAVOK 23/03 Q1017=
200805301720 METAR ESMX 301720Z 14005KT 080V180 CAVOK 24/03 Q1017=
200805301650 METAR ESMX 301650Z 14006KT 080V200 CAVOK 24/02 Q1017=
200805301620 METAR ESMX 301620Z 15005KT 110V190 CAVOK 25/01 Q1017=
200805301550 METAR ESMX 301550Z VRB03KT CAVOK 25/02 Q1017=
200805301520 METAR ESMX 301520Z 16006KT 100V190 CAVOK 26/01 Q1017=
200805301450 METAR ESMX 301450Z 17006KT 100V220 CAVOK 26/01 Q1018=
200805301420 METAR ESMX 301420Z 16005KT 110V230 CAVOK 26/02 Q1018=
200805301350 METAR ESMX 301350Z 17005KT 110V220 CAVOK 25/02 Q1018=
200805301320 METAR ESMX 301320Z 20005KT 170V250 CAVOK 25/01 Q1018=
200805301250 METAR ESMX 301250Z 18006KT 140V210 CAVOK 25/01 Q1018=
200805301220 METAR ESMX 301220Z 04003G13KT 320V130 CAVOK 25/M02 Q1019=
200805301150 METAR ESMX 301150Z 03004KT 340V110 CAVOK 25/M00 Q1019=
200805301120 METAR ESMX 301120Z 09004KT 050V130 CAVOK 24/M01 Q1019=
200805301050 METAR ESMX 301050Z VRB03KT CAVOK 23/02 Q1019=
200805301020 METAR ESMX 301020Z VRB03KT CAVOK 22/01 Q1019=
200805300950 METAR ESMX 300950Z 07004KT 010V120 CAVOK 21/02 Q1019=
200805300920 METAR ESMX 300920Z VRB02KT CAVOK 20/03 Q1020=
200805300850 METAR ESMX 300850Z 09004KT 060V130 CAVOK 20/04 Q1020=
200805300820 METAR ESMX 300820Z 06005KT 020V110 CAVOK 19/04 Q1020=
200805300750 METAR ESMX 300750Z 17004KT 120V220 CAVOK 18/04 Q1021=
200805300720 METAR ESMX 300720Z 14004KT 110V230 CAVOK 17/03 Q1021=
200805300650 METAR ESMX 300650Z 12005KT 050V170 CAVOK 16/04 Q1020=
200805300620 METAR ESMX 300620Z VRB02KT CAVOK 15/04 Q1020=
200805300550 METAR ESMX 300550Z VRB02KT CAVOK 14/04 Q1020=
200805300520 METAR ESMX 300520Z 11003KT 070V170 CAVOK 13/05 Q1020=
200805300450 METAR ESMX 300450Z VRB02KT CAVOK 12/05 Q1020=
200805300420 METAR ESMX 300420Z 00000KT CAVOK 08/06 Q1020=
200805300350 METAR ESMX 300350Z 10002KT CAVOK 05/03 Q1020=
200805300320 METAR ESMX 300320Z AUTO VRB01KT 9999NDV NCD 05/03 Q1020=
200805300250 METAR ESMX 300250Z AUTO 00000KT 9999NDV NCD 04/02 Q1020=
200805300220 METAR ESMX 300220Z AUTO VRB02KT 9999NDV NCD 05/02 Q1020=
200805300150 METAR ESMX 300150Z AUTO 03001KT 9999NDV NCD 05/03 Q1020=
200805300120 METAR ESMX 300120Z AUTO 00000KT 9999NDV NCD 05/02 Q1021=
200805300050 METAR ESMX 300050Z AUTO 00000KT 9999NDV NCD 06/03 Q1021=
200805300020 METAR ESMX 300020Z AUTO 00000KT 9999NDV NCD 07/03 Q1021=
200805292350 METAR ESMX 292350Z 00000KT CAVOK 08/03 Q1021=
200805292320 METAR ESMX 292320Z 21002KT CAVOK 08/03 Q1021=
200805292250 METAR ESMX 292250Z 21002KT CAVOK 09/03 Q1021=
200805292220 METAR ESMX 292220Z 19004KT CAVOK 09/03 Q1021=
200805292150 METAR ESMX 292150Z 17004KT CAVOK 11/03 Q1021=
200805292120 METAR ESMX 292120Z 17004KT CAVOK 13/03 Q1021=
200805292050 METAR ESMX 292050Z 17004KT CAVOK 13/04 Q1021=
200805292020 METAR ESMX 292020Z 17004KT CAVOK 14/03 Q1021=
200805291950 METAR ESMX 291950Z 17005KT CAVOK 16/03 Q1021=
200805291920 METAR ESMX 291920Z 16006KT CAVOK 17/01 Q1020=
200805291850 METAR ESMX 291850Z 18006KT CAVOK 17/01 Q1020=
200805291820 METAR ESMX 291820Z 19006KT CAVOK 18/01 Q1020=
200805291720 METAR ESMX 291720Z 19006KT CAVOK 21/01 Q1020=
200805291650 METAR ESMX 291650Z 18005KT CAVOK 21/00 Q1020=
200805291620 METAR ESMX 291620Z 16006KT CAVOK 22/01 Q1020=
200805291550 METAR ESMX 291550Z 16006KT 130V200 CAVOK 22/01 Q1021=
200805291520 METAR ESMX 291520Z 18007KT 130V220 CAVOK 22/02 Q1021=
200805291450 METAR ESMX 291450Z 17005KT 050V230 CAVOK 22/01 Q1021=
200805291420 METAR ESMX 291420Z 16007KT CAVOK 22/01 Q1021=
200805291350 METAR ESMX 291350Z 17007KT 100V230 CAVOK 22/02 Q1021=
200805291320 METAR ESMX 291320Z 18008KT 140V230 CAVOK 22/03 Q1022=
200805291250 METAR ESMX 291250Z 17005KT 100V240 CAVOK 21/03 Q1022=
200805291220 METAR ESMX 291220Z 20005KT 170V280 CAVOK 21/03 Q1022=
200805291150 METAR ESMX 291150Z 16005KT CAVOK 21/03 Q1022=
200805291120 METAR ESMX 291120Z 16005KT 110V200 CAVOK 20/04 Q1023=
200805291050 METAR ESMX 291050Z 17006KT 080V230 CAVOK 19/03 Q1023=
200805291020 METAR ESMX 291020Z 17005KT 080V250 CAVOK 19/03 Q1023=
200805290950 METAR ESMX 290950Z 16007KT 110V230 CAVOK 19/02 Q1023=
200805290920 METAR ESMX 290920Z 17005KT 060V230 CAVOK 18/05 Q1023=
200805290850 METAR ESMX 290850Z 14006KT 080V170 CAVOK 17/06 Q1023=
200805290820 METAR ESMX 290820Z 15005KT 100V200 CAVOK 16/06 Q1024=
200805290750 METAR ESMX 290750Z VRB04KT CAVOK 15/06 Q1023=
200805290720 METAR ESMX 290720Z 13004KT 100V170 CAVOK 15/07 Q1023=
200805290650 METAR ESMX 290650Z 15003KT 020V200 CAVOK 13/06 Q1023=
200805290620 METAR ESMX 290620Z 13005KT 080V190 CAVOK 13/06 Q1023=
200805290550 METAR ESMX 290550Z 15005KT 100V180 CAVOK 12/06 Q1023=
200805290520 METAR ESMX 290520Z 11003KT 050V170 CAVOK 11/06 Q1024=
200805290450 METAR ESMX 290450Z 09003KT 050V150 CAVOK 10/06 Q1023=
200805290420 METAR ESMX 290420Z VRB01KT CAVOK 08/05 Q1024=
200805290350 METAR ESMX 290350Z 00000KT CAVOK 04/03 Q1024=
200805290320 METAR ESMX 290320Z AUTO 12003KT 070V190 9999NDV NCD 02/02 Q1024=
200805290250 METAR ESMX 290250Z AUTO VRB02KT 9999NDV NCD 02/01 Q1024=
200805290220 METAR ESMX 290220Z AUTO 08002KT 9999NDV NCD 03/02 Q1024=
200805290150 METAR ESMX 290150Z AUTO VRB02KT 9999NDV NCD 04/03 Q1024=
200805290120 METAR ESMX 290120Z AUTO VRB02KT 9999NDV NCD 05/03 Q1024=
200805290050 METAR ESMX 290050Z AUTO VRB02KT 9999NDV NCD 06/03 Q1024=
200805290020 METAR ESMX 290020Z AUTO 14003KT 080V190 9999NDV NCD 05/02 Q1024=
200805282350 METAR ESMX 282350Z 17003KT CAVOK 04/01 Q1024=
200805282320 METAR ESMX 282320Z 12003KT 080V150 CAVOK 04/01 Q1024=
200805282250 METAR ESMX 282250Z 12003KT CAVOK 06/03 Q1024=
200805282150 METAR ESMX 282150Z 20002KT CAVOK 07/03 Q1025=
200805282120 METAR ESMX 282120Z 15003KT CAVOK 07/03 Q1025=
200805282050 METAR ESMX 282050Z 16003KT CAVOK 10/05 Q1024=
200805282020 METAR ESMX 282020Z 19003KT CAVOK 10/04 Q1024=
200805281950 METAR ESMX 281950Z 18003KT CAVOK 12/04 Q1024=
200805281920 METAR ESMX 281920Z 20006KT CAVOK 15/04 Q1024=
200805281850 METAR ESMX 281850Z 14005KT 090V180 CAVOK 17/02 Q1023=
200805281820 METAR ESMX 281820Z 14006KT 080V190 CAVOK 18/02 Q1023=
200805281750 METAR ESMX 281750Z 14007KT 090V170 CAVOK 18/02 Q1023=
200805281720 METAR ESMX 281720Z 14006KT 100V190 CAVOK 19/04 Q1023=
200805281650 METAR ESMX 281650Z 15006KT 090V200 CAVOK 20/03 Q1022=
200805281620 METAR ESMX 281620Z 14006KT 080V180 CAVOK 21/03 Q1022=
200805281550 METAR ESMX 281550Z VRB06KT CAVOK 22/02 Q1022=
200805281520 METAR ESMX 281520Z 12006KT 030V170 CAVOK 22/03 Q1022=
200805281450 METAR ESMX 281450Z 15008KT 080V210 CAVOK 22/03 Q1022=
200805281420 METAR ESMX 281420Z 12006KT 030V200 CAVOK 23/01 Q1022=
200805281350 METAR ESMX 281350Z 14007KT 080V160 CAVOK 22/01 Q1023=
200805281320 METAR ESMX 281320Z 15007KT CAVOK 22/01 Q1023=
200805281250 METAR ESMX 281250Z 19007KT 140V230 CAVOK 22/02 Q1023=
200805281220 METAR ESMX 281220Z 19006KT 160V220 CAVOK 22/02 Q1023=
200805281150 METAR ESMX 281150Z 24005KT 190V300 CAVOK 21/02 Q1023=
200805281120 METAR ESMX 281120Z VRB02KT CAVOK 20/02 Q1023=
200805281050 METAR ESMX 281050Z VRB02KT CAVOK 20/02 Q1023=
200805281020 METAR ESMX 281020Z VRB04KT CAVOK 19/02 Q1024=
200805280950 METAR ESMX 280950Z VRB03KT CAVOK 19/02 Q1024=
200805280920 METAR ESMX 280920Z VRB02KT CAVOK 18/02 Q1024=
200805280850 METAR ESMX 280850Z 06004KT 020V120 CAVOK 17/02 Q1024=
200805280820 METAR ESMX 280820Z 04004KT 350V100 CAVOK 17/02 Q1024=
200805280750 METAR ESMX 280750Z 01004KT 330V050 CAVOK 17/03 Q1024=
200805280720 METAR ESMX 280720Z VRB02KT CAVOK 16/01 Q1024=
200805280650 METAR ESMX 280650Z VRB01KT CAVOK 15/02 Q1024=
200805280620 METAR ESMX 280620Z VRB01KT CAVOK 14/03 Q1024=
200805280550 METAR ESMX 280550Z VRB02KT CAVOK 13/06 Q1024=
200805280520 METAR ESMX 280520Z VRB01KT CAVOK 12/05 Q1024=
200805280450 METAR ESMX 280450Z 00000KT CAVOK 10/06 Q1024=
200805280420 METAR ESMX 280420Z 00000KT CAVOK 07/04 Q1024=
200805280350 METAR ESMX 280350Z 00000KT CAVOK 03/02 Q1023=
200805280320 METAR ESMX 280320Z AUTO 00000KT 9999NDV NCD 02/01 Q1024=
200805280250 METAR ESMX 280250Z AUTO 17001KT 9999NDV NCD 02/02 Q1024=
200805280220 METAR ESMX 280220Z AUTO 00000KT 9999NDV NCD 01/M00 Q1024=
200805280150 METAR ESMX 280150Z AUTO 17002KT 9999NDV NCD 03/01 Q1023=
200805280120 METAR ESMX 280120Z AUTO 18001KT 9999NDV NCD 03/01 Q1023=
200805280050 METAR ESMX 280050Z AUTO 00000KT 9999NDV NCD 04/01 Q1023=
200805280020 METAR ESMX 280020Z AUTO 00000KT 9999NDV NCD 04/02 Q1023=
200805272350 METAR ESMX 272350Z VRB02KT CAVOK 05/02 Q1023=
200805272320 METAR ESMX 272320Z 17002KT CAVOK 04/01 Q1023=
200805272250 METAR ESMX 272250Z 18002KT CAVOK 06/02 Q1024=
200805272220 METAR ESMX 272220Z 19002KT CAVOK 07/02 Q1024=
200805272150 METAR ESMX 272150Z 19002KT CAVOK 07/02 Q1024=
200805272120 METAR ESMX 272120Z 18004KT CAVOK 08/02 Q1023=
200805272050 METAR ESMX 272050Z 19004KT CAVOK 09/02 Q1023=
200805272020 METAR ESMX 272020Z 19003KT CAVOK 12/02 Q1023=
200805271950 METAR ESMX 271950Z 19006KT CAVOK 12/02 Q1023=
200805271920 METAR ESMX 271920Z 18007KT CAVOK 13/02 Q1022=
200805271850 METAR ESMX 271850Z 17012KT CAVOK 15/01 Q1022=
200805271820 METAR ESMX 271820Z 18010KT 140V210 CAVOK 17/01 Q1022=
200805271750 METAR ESMX 271750Z 05003KT 010V080 CAVOK 20/00 Q1021=
200805271720 METAR ESMX 271720Z VRB03KT CAVOK 20/00 Q1021=
200805271650 METAR ESMX 271650Z VRB02KT CAVOK 21/M00 Q1021=
200805271620 METAR ESMX 271620Z 10003KT 050V160 CAVOK 20/00 Q1021=
200805271550 METAR ESMX 271550Z 03004KT 310V110 CAVOK 21/01 Q1021=
200805271520 METAR ESMX 271520Z 06005KT 020V090 CAVOK 19/01 Q1021=
200805271450 METAR ESMX 271450Z 05005KT 350V090 CAVOK 20/01 Q1021=
200805271420 METAR ESMX 271420Z 03008KT CAVOK 19/01 Q1021=
200805271350 METAR ESMX 271350Z 03005KT 320V090 CAVOK 21/01 Q1021=
200805271320 METAR ESMX 271320Z 36006KT 320V050 CAVOK 19/00 Q1022=
200805271250 METAR ESMX 271250Z 35005KT 280V070 CAVOK 21/01 Q1022=
200805271220 METAR ESMX 271220Z 35004KT 260V070 CAVOK 20/01 Q1021=
200805271120 METAR ESMX 271120Z 04006KT 340V100 CAVOK 20/01 Q1021=
200805271050 METAR ESMX 271050Z 06006KT 320V110 CAVOK 20/01 Q1021=
200805271020 METAR ESMX 271020Z 04006KT 010V080 CAVOK 19/01 Q1021=
200805270950 METAR ESMX 270950Z 02006KT 320V100 CAVOK 19/01 Q1021=
200805270920 METAR ESMX 270920Z 03008KT 350V060 CAVOK 18/01 Q1021=
200805270850 METAR ESMX 270850Z 05008KT 350V080 9999 FEW045 18/02 Q1021=
200805270820 METAR ESMX 270820Z 03008KT 340V050 9999 FEW040 18/02 Q1021=
200805270750 METAR ESMX 270750Z 01009KT CAVOK 17/04 Q1021=
200805270720 METAR ESMX 270720Z 02007KT 310V060 CAVOK 16/04 Q1020=
200805270650 METAR ESMX 270650Z 02007KT 340V070 CAVOK 15/05 Q1020=
200805270620 METAR ESMX 270620Z 04005KT 010V070 CAVOK 14/05 Q1020=
200805270550 METAR ESMX 270550Z 03004KT 350V100 CAVOK 13/05 Q1020=
200805270520 METAR ESMX 270520Z 02005KT CAVOK 11/05 Q1019=
200805270450 METAR ESMX 270450Z 02006KT CAVOK 09/05 Q1019=
200805270420 METAR ESMX 270420Z VRB02KT CAVOK 06/05 Q1019=
200805270350 METAR ESMX 270350Z 35002KT CAVOK 03/02 Q1019=
200805270320 METAR ESMX 270320Z AUTO 00000KT 9999NDV NCD 01/01 Q1019=
200805270250 METAR ESMX 270250Z AUTO 19001KT 9999NDV NCD 01/00 Q1019=
200805270220 METAR ESMX 270220Z AUTO 17001KT 9000NDV NCD 01/01 Q1018=
200805270150 METAR ESMX 270150Z AUTO 18001KT 9999NDV NCD 02/01 Q1018=
200805270120 METAR ESMX 270120Z AUTO 18002KT 9999NDV NCD 02/02 Q1018=
200805270050 METAR ESMX 270050Z AUTO 00000KT 9999NDV NCD 03/02 Q1018=
200805270020 METAR ESMX 270020Z AUTO 00000KT 9999NDV NCD 03/02 Q1018=
200805262350 METAR ESMX 262350Z AUTO 00000KT 9999NDV NCD 03/02 Q1018=
200805262320 METAR ESMX 262320Z 00000KT CAVOK 04/03 Q1018=
200805262250 METAR ESMX 262250Z 31003KT CAVOK 04/02 Q1018=
200805262150 METAR ESMX 262150Z 01001KT CAVOK 04/02 Q1018=
200805262120 METAR ESMX 262120Z 00000KT CAVOK 06/04 Q1018=
200805262020 METAR ESMX 262020Z 28001KT CAVOK 06/03 Q1018=
200805261950 METAR ESMX 261950Z 00000KT CAVOK 09/04 Q1017=
200805261920 METAR ESMX 261920Z 00000KT CAVOK 10/04 Q1017=
200805261850 METAR ESMX 261850Z VRB02KT CAVOK 12/03 Q1017=
200805261820 METAR ESMX 261820Z 23003KT CAVOK 12/03 Q1018=
200805261720 METAR ESMX 261720Z 21007KT CAVOK 12/04 Q1018=
200805261650 METAR ESMX 261650Z 23007KT CAVOK 12/04 Q1018=
200805261620 METAR ESMX 261620Z 20007KT CAVOK 13/03 Q1018=
200805261550 METAR ESMX 261550Z 19005G17KT CAVOK 14/00 Q1018=
200805261520 METAR ESMX 261520Z 19006KT 150V210 CAVOK 14/00 Q1018=
200805261450 METAR ESMX 261450Z 21008KT CAVOK 14/02 Q1018=
200805261420 METAR ESMX 261420Z 14005KT 080V200 CAVOK 15/M02 Q1018=
200805261350 METAR ESMX 261350Z 13005KT 070V250 CAVOK 15/M02 Q1019=
200805261320 METAR ESMX 261320Z 11005KT 050V200 CAVOK 15/M02 Q1019=
200805261250 METAR ESMX 261250Z 13006KT 070V170 CAVOK 15/M01 Q1019=
200805261220 METAR ESMX 261220Z 13007KT 080V170 CAVOK 15/M01 Q1019=
200805261150 METAR ESMX 261150Z 13005KT 050V170 CAVOK 15/M01 Q1020=
200805261120 METAR ESMX 261120Z 10007KT 020V170 CAVOK 15/M02 Q1020=
200805261050 METAR ESMX 261050Z 09006KT 030V150 CAVOK 15/M01 Q1020=
200805261020 METAR ESMX 261020Z 11005KT 040V160 CAVOK 15/M02 Q1020=
200805260950 METAR ESMX 260950Z 09005KT 020V150 CAVOK 15/M01 Q1020=
200805260920 METAR ESMX 260920Z 10006KT 050V160 9999 FEW025 BKN200 14/M02 Q1021=
200805260850 METAR ESMX 260850Z 09007KT 030V150 9999 FEW043 BKN200 15/M02 Q1021=
200805260820 METAR ESMX 260820Z 09007KT 020V160 CAVOK 14/M02 Q1021=
200805260750 METAR ESMX 260750Z 06007KT 030V120 CAVOK 14/M02 Q1021=
200805260720 METAR ESMX 260720Z 06006KT 020V110 9999 FEW030 BKN200 14/00 Q1022=
200805260650 METAR ESMX 260650Z 09004KT 040V140 CAVOK 12/00 Q1022=
200805260620 METAR ESMX 260620Z 07005KT 020V110 9999 FEW038 BKN200 12/00 Q1022=
200805260520 METAR ESMX 260520Z VRB03KT CAVOK 10/01 Q1022=
200805260450 METAR ESMX 260450Z VRB02KT CAVOK 09/02 Q1022=
200805260420 METAR ESMX 260420Z 01003KT CAVOK 09/03 Q1022=
200805260350 METAR ESMX 260350Z 05002KT CAVOK 08/02 Q1022=
200805260320 METAR ESMX 260320Z AUTO 04004KT 010V070 9999NDV NCD 08/01 Q1022=
200805260250 METAR ESMX 260250Z AUTO 03003KT 9999NDV NCD 07/02 Q1022=
200805260220 METAR ESMX 260220Z AUTO 03003KT 9999NDV NCD 07/02 Q1023=
200805260150 METAR ESMX 260150Z AUTO 05003KT 9999NDV NCD 07/02 Q1023=
200805260120 METAR ESMX 260120Z AUTO 03003KT 9999NDV NCD 06/01 Q1023=
200805260050 METAR ESMX 260050Z AUTO VRB01KT 9999NDV NCD 06/02 Q1023=
200805260020 METAR ESMX 260020Z 05002KT CAVOK 05/01 Q1023=
200805252350 METAR ESMX 252350Z 00000KT CAVOK 06/01 Q1023=
200805252320 METAR ESMX 252320Z 00000KT CAVOK 06/00 Q1023=
200805252250 METAR ESMX 252250Z 00000KT CAVOK 06/00 Q1024=
200805252220 METAR ESMX 252220Z 00000KT CAVOK 06/00 Q1024=
200805252150 METAR ESMX 252150Z 00000KT CAVOK 07/00 Q1024=
200805252120 METAR ESMX 252120Z 07002KT CAVOK 09/00 Q1024=
200805252050 METAR ESMX 252050Z VRB02KT CAVOK 10/M00 Q1024=
200805252020 METAR ESMX 252020Z 06002KT CAVOK 10/M01 Q1023=
200805251950 METAR ESMX 251950Z 10003KT 070V140 CAVOK 12/M03 Q1023=
200805251920 METAR ESMX 251920Z 10003KT 060V140 CAVOK 13/M03 Q1023=
200805251820 METAR ESMX 251820Z 10006KT 060V150 CAVOK 15/M04 Q1023=
200805251750 METAR ESMX 251750Z 10006KT 030V160 CAVOK 16/M04 Q1023=
200805251720 METAR ESMX 251720Z 10007KT 040V160 CAVOK 16/M04 Q1023=
200805251650 METAR ESMX 251650Z 11007KT 040V180 CAVOK 17/M06 Q1022=
200805251620 METAR ESMX 251620Z 11006KT 050V170 CAVOK 17/M06 Q1023=
200805251550 METAR ESMX 251550Z 08007KT 030V140 CAVOK 18/M05 Q1023=
200805251520 METAR ESMX 251520Z 08008KT 010V120 CAVOK 18/M05 Q1023=
200805251450 METAR ESMX 251450Z 10008KT 050V160 CAVOK 18/M06 Q1023=
200805251420 METAR ESMX 251420Z 08007KT 020V160 CAVOK 18/M06 Q1023=
200805251350 METAR ESMX 251350Z 07006KT 010V140 CAVOK 18/M05 Q1023=
200805251320 METAR ESMX 251320Z 07009KT 020V120 CAVOK 18/M05 Q1023=
200805251250 METAR ESMX 251250Z 06010KT 020V100 CAVOK 18/M05 Q1023=
200805251220 METAR ESMX 251220Z 08008KT 040V130 CAVOK 18/M04 Q1023=
200805251120 METAR ESMX 251120Z 06008KT 010V140 CAVOK 17/M03 Q1023=
200805251050 METAR ESMX 251050Z 08010KT 020V130 CAVOK 17/M01 Q1023=
200805251020 METAR ESMX 251020Z 07008KT 020V140 CAVOK 17/M02 Q1023=
200805250950 METAR ESMX 250950Z 04011KT 010V090 CAVOK 16/M01 Q1023=
200805250920 METAR ESMX 250920Z 07012KT 020V120 CAVOK 16/M01 Q1023=
200805250850 METAR ESMX 250850Z 05009KT CAVOK 15/M01 Q1023=
200805250820 METAR ESMX 250820Z 03009KT CAVOK 15/M01 Q1023=
200805250750 METAR ESMX 250750Z 02008KT CAVOK 14/01 Q1023=
200805250720 METAR ESMX 250720Z 02007KT CAVOK 13/00 Q1023=
200805250650 METAR ESMX 250650Z 03008KT CAVOK 12/01 Q1023=
200805250620 METAR ESMX 250620Z 03009KT CAVOK 11/01 Q1023=
200805250550 METAR ESMX 250550Z 03008KT CAVOK 10/01 Q1023=
200805231820 METAR ESMX 231820Z 08006KT 030V140 CAVOK 16/01 Q1019=
200805231720 METAR ESMX 231720Z 08007KT 020V120 CAVOK 17/03 Q1019=
200805231650 METAR ESMX 231650Z 09006KT 030V140 CAVOK 18/02 Q1018=
200805231620 METAR ESMX 231620Z 07007KT 020V110 CAVOK 18/02 Q1018=
200805231550 METAR ESMX 231550Z 07006KT 020V120 CAVOK 18/02 Q1018=
200805231520 METAR ESMX 231520Z 07007KT 020V130 CAVOK 18/03 Q1018=
200805231450 METAR ESMX 231450Z 04008KT 010V090 CAVOK 19/03 Q1018=
200805231420 METAR ESMX 231420Z 07007KT 030V120 CAVOK 19/03 Q1018=
200805231320 METAR ESMX 231320Z 06005KT 350V150 CAVOK 19/03 Q1018=
200805231220 METAR ESMX 231220Z 04005KT 350V090 CAVOK 19/01 Q1019=
200805231120 METAR ESMX 231120Z VRB05KT CAVOK 19/02 Q1019=
200805231050 METAR ESMX 231050Z 36008KT CAVOK 18/01 Q1019=
200805231020 METAR ESMX 231020Z 01008KT CAVOK 18/01 Q1019=
200805230950 METAR ESMX 230950Z 35008KT 320V050 CAVOK 17/01 Q1019=
200805230920 METAR ESMX 230920Z 04006KT 340V080 CAVOK 17/01 Q1019=
200805230850 METAR ESMX 230850Z 02007KT 290V100 CAVOK 16/01 Q1020=
200805230820 METAR ESMX 230820Z 01006KT 330V060 CAVOK 16/01 Q1020=
200805230750 METAR ESMX 230750Z 04007KT 350V090 CAVOK 15/01 Q1020=
200805230720 METAR ESMX 230720Z 05008KT CAVOK 15/02 Q1020=
200805230620 METAR ESMX 230620Z 01005KT 340V040 CAVOK 13/04 Q1020=
200805230550 METAR ESMX 230550Z 35004KT 320V030 CAVOK 12/05 Q1020=
200805230520 METAR ESMX 230520Z 03005KT CAVOK 12/05 Q1020=
200805230450 METAR ESMX 230450Z 03004KT CAVOK 09/05 Q1020=
200805230420 METAR ESMX 230420Z AUTO 05004KT 9999NDV NCD 08/05 Q1020=
200805230350 METAR ESMX 230350Z 04004KT CAVOK 06/04 Q1020=
200805230320 METAR ESMX 230320Z AUTO 05004KT 9999NDV NCD 05/04 Q1020=
200805230250 METAR ESMX 230250Z AUTO 04004KT 9999NDV NCD 05/04 Q1020=
200805230220 METAR ESMX 230220Z AUTO 05003KT 9999NDV NCD 05/03 Q1020=
200805230150 METAR ESMX 230150Z AUTO 05003KT 9999NDV NCD 04/03 Q1020=
200805230120 METAR ESMX 230120Z AUTO 04004KT 9999NDV NCD 04/02 Q1020=
200805230050 METAR ESMX 230050Z AUTO VRB02KT 9999NDV NCD 04/02 Q1020=
200805230020 METAR ESMX 230020Z AUTO VRB01KT 9999NDV NCD 04/02 Q1020=
200805222350 METAR ESMX 222350Z 00000KT CAVOK 04/01 Q1020=
200805222320 METAR ESMX 222320Z 00000KT CAVOK 05/02 Q1020=
200805222220 METAR ESMX 222220Z 00000KT CAVOK 07/03 Q1020=
200805222150 METAR ESMX 222150Z 12002KT CAVOK 08/03 Q1020=
200805222120 METAR ESMX 222120Z VRB02KT CAVOK 10/03 Q1020=
200805222050 METAR ESMX 222050Z 12003KT 060V160 CAVOK 12/02 Q1020=
200805222020 METAR ESMX 222020Z 11004KT 070V140 CAVOK 12/02 Q1020=
200805221950 METAR ESMX 221950Z 10003KT 050V150 CAVOK 12/03 Q1020=
200805221920 METAR ESMX 221920Z 11004KT 060V140 CAVOK 13/02 Q1020=
200805221850 METAR ESMX 221850Z 12004KT 080V160 CAVOK 14/02 Q1019=
200805221820 METAR ESMX 221820Z 07005KT 020V170 CAVOK 15/02 Q1019=
200805221750 METAR ESMX 221750Z 10004KT 050V160 CAVOK 17/02 Q1019=
200805221720 METAR ESMX 221720Z 10003KT 060V140 CAVOK 17/01 Q1019=
200805221650 METAR ESMX 221650Z 08004KT 040V110 CAVOK 17/02 Q1019=
200805221620 METAR ESMX 221620Z 10004KT 060V170 CAVOK 16/01 Q1019=
200805221550 METAR ESMX 221550Z 11006KT 070V150 CAVOK 17/01 Q1019=
200805221520 METAR ESMX 221520Z 07003KT 020V100 CAVOK 16/01 Q1019=
200805221450 METAR ESMX 221450Z 07004KT 020V140 CAVOK 16/01 Q1019=
200805221420 METAR ESMX 221420Z 07004KT 030V120 CAVOK 16/01 Q1019=
200805221350 METAR ESMX 221350Z 05005KT 360V110 CAVOK 16/01 Q1019=
200805221320 METAR ESMX 221320Z 05008KT 360V080 CAVOK 18/01 Q1020=
200805221250 METAR ESMX 221250Z 04005KT 350V100 CAVOK 18/00 Q1020=
200805221220 METAR ESMX 221220Z 09003KT 020V180 9999 FEW030 17/M00 Q1020=
200805221120 METAR ESMX 221120Z 03006KT 320V130 CAVOK 17/M01 Q1020=
200805221050 METAR ESMX 221050Z 05007KT 010V080 CAVOK 17/M01 Q1020=
200805221020 METAR ESMX 221020Z 04005KT 320V110 CAVOK 16/M01 Q1021=
200805220950 METAR ESMX 220950Z VRB05KT CAVOK 16/M01 Q1021=
200805220920 METAR ESMX 220920Z 04006KT 290V090 CAVOK 15/M01 Q1021=
200805220850 METAR ESMX 220850Z VRB05KT CAVOK 15/M01 Q1021=
200805220820 METAR ESMX 220820Z 03005KT CAVOK 14/00 Q1021=
200805220750 METAR ESMX 220750Z 04004KT 340V080 CAVOK 13/02 Q1021=
200805220720 METAR ESMX 220720Z 06004KT 010V140 CAVOK 13/01 Q1021=
200805220650 METAR ESMX 220650Z 05005KT 350V120 CAVOK 12/03 Q1021=
200805220620 METAR ESMX 220620Z 08004KT 030V110 CAVOK 12/03 Q1021=
200805220550 METAR ESMX 220550Z 06003KT 020V150 CAVOK 11/03 Q1021=
200805220520 METAR ESMX 220520Z 05004KT CAVOK 10/04 Q1021=
200805220450 METAR ESMX 220450Z VRB02KT CAVOK 09/05 Q1021=
200805220420 METAR ESMX 220420Z 00000KT CAVOK 06/05 Q1021=
200805220350 METAR ESMX 220350Z VRB01KT CAVOK 05/04 Q1021=
200805220320 METAR ESMX 220320Z AUTO 08003KT 050V120 9999NDV NCD 04/03 Q1021=
200805220250 METAR ESMX 220250Z AUTO 10002KT 3900NDV BR NCD 04/03 Q1021=
200805220220 METAR ESMX 220220Z AUTO 09002KT 9999NDV NCD 05/04 Q1021=
200805220150 METAR ESMX 220150Z AUTO 12003KT 090V150 9999NDV NCD 06/04 Q1021=
200805220120 METAR ESMX 220120Z AUTO 14003KT 110V170 9999NDV NCD 06/05 Q1021=
200805220020 METAR ESMX 220020Z AUTO 15005KT 9999NDV FEW057/// 07/05 Q1021=
200805212350 METAR ESMX 212350Z 15004KT CAVOK 07/04 Q1021=
200805212320 METAR ESMX 212320Z 15005KT CAVOK 07/04 Q1021=
200805212250 METAR ESMX 212250Z 14004KT 110V170 CAVOK 07/03 Q1021=
200805212220 METAR ESMX 212220Z 15005KT CAVOK 07/03 Q1021=
200805212150 METAR ESMX 212150Z 13003KT CAVOK 08/04 Q1020=
200805212120 METAR ESMX 212120Z 17005KT CAVOK 10/02 Q1020=
200805212050 METAR ESMX 212050Z 15004KT 110V170 CAVOK 10/03 Q1020=
200805212020 METAR ESMX 212020Z 15005KT CAVOK 12/03 Q1020=
200805211950 METAR ESMX 211950Z 16005KT CAVOK 12/04 Q1020=
200805211920 METAR ESMX 211920Z 17006KT CAVOK 13/05 Q1020=
200805211850 METAR ESMX 211850Z 15004KT 080V210 CAVOK 13/05 Q1019=
200805211820 METAR ESMX 211820Z 10002KT CAVOK 12/05 Q1019=
200805211650 METAR ESMX 211650Z 29002KT CAVOK 16/00 Q1019=
200805211220 METAR ESMX 211220Z 14003KT 070V170 CAVOK 16/00 Q1019=
200805211150 METAR ESMX 211150Z VRB02KT CAVOK 15/01 Q1020=
200805211120 METAR ESMX 211120Z 33003KT 260V020 9999 BKN048 14/02 Q1020=
200805211050 METAR ESMX 211050Z VRB03G21KT 9999 BKN047 14/01 Q1020=
200805211020 METAR ESMX 211020Z VRB04KT 9999 BKN046 14/02 Q1020=
200805210950 METAR ESMX 210950Z VRB02KT 9999 BKN044 13/02 Q1020=
200805210920 METAR ESMX 210920Z 20003KT 120V250 9999 SCT047 BKN060 13/03 Q1020=
200805210850 METAR ESMX 210850Z VRB02KT 9999 FEW042 BKN058 12/01 Q1020=
200805210820 METAR ESMX 210820Z 06003KT 9999 BKN041 12/03 Q1020=
200805210750 METAR ESMX 210750Z 09003KT 350V140 9999 SCT039 12/02 Q1020=
200805210720 METAR ESMX 210720Z 08003KT 030V140 9999 SCT032 12/03 Q1020=
200805210650 METAR ESMX 210650Z 01003KT 290V070 9999 FEW020 12/02 Q1020=
200805210620 METAR ESMX 210620Z VRB02KT 9999 FEW015 11/04 Q1020=
200805210550 METAR ESMX 210550Z 32004KT CAVOK 10/05 Q1020=
200805210520 METAR ESMX 210520Z VRB01KT CAVOK 08/06 Q1019=
200805210450 METAR ESMX 210450Z 35001KT CAVOK 06/04 Q1019=
200805210420 METAR ESMX 210420Z 00000KT CAVOK 03/02 Q1019=
200805210350 METAR ESMX 210350Z 19002KT CAVOK 00/M00 Q1019=
200805210320 METAR ESMX 210320Z AUTO 18002KT 9999NDV NCD 00/M00 Q1019=
200805210250 METAR ESMX 210250Z AUTO 00000KT 9000NDV NCD 00/M01 Q1019=
200805210220 METAR ESMX 210220Z AUTO 18002KT 9999NDV NCD 00/M01 Q1019=
200805210150 METAR ESMX 210150Z AUTO 00000KT 9999NDV FEW059/// 01/00 Q1019=
200805210120 METAR ESMX 210120Z 17002KT CAVOK 01/00 Q1019=
200805210050 METAR ESMX 210050Z 16001KT 9999 FEW043 SCT065 02/01 Q1019=
200805210020 METAR ESMX 210020Z 17002KT 9999 BKN044 BKN065 03/01 Q1019=
200805202350 METAR ESMX 202350Z 24003KT 9999 SCT046 02/01 Q1019=
200805202320 METAR ESMX 202320Z 21002KT CAVOK 03/01 Q1019=
200805202250 METAR ESMX 202250Z VRB02KT CAVOK 03/01 Q1019=
200805202220 METAR ESMX 202220Z 25003KT CAVOK 04/00 Q1019=
200805202120 METAR ESMX 202120Z 25004KT CAVOK 04/00 Q1018=
200805202050 METAR ESMX 202050Z 25003KT CAVOK 06/01 Q1018=
200805202020 METAR ESMX 202020Z 21001KT CAVOK 06/02 Q1018=
200805201950 METAR ESMX 201950Z 26003KT CAVOK 10/01 Q1018=
200805201920 METAR ESMX 201920Z 27003KT 9999 FEW045 11/02 Q1018=
200805201850 METAR ESMX 201850Z 16001KT CAVOK 12/06 Q1017=
200805201820 METAR ESMX 201820Z 00000KT CAVOK 12/05 Q1017=
200805201720 METAR ESMX 201720Z VRB02KT 9999 FEW045 SCT070 12/03 Q1017=
200805201650 METAR ESMX 201650Z VRB02KT 9999 FEW040 SCT070 13/03 Q1017=
200805201620 METAR ESMX 201620Z 23005KT 200V290 9999 SCT040 BKN070 13/03 Q1017=
200805201550 METAR ESMX 201550Z 24004KT CAVOK 13/02 Q1017=
200805201520 METAR ESMX 201520Z 22008KT 200V270 9999 SCT040 BKN070 13/02 Q1017=
200805201450 METAR ESMX 201450Z 18004KT 120V240 9999 SCT040 BKN075 13/02 Q1017=
200805201420 METAR ESMX 201420Z 20006KT 170V230 9999 FEW030TCU SCT080 13/03 Q1017=
200805201350 METAR ESMX 201350Z 21007KT 180V250 9999 SCT040 BKN070 13/04 Q1017=
200805201320 METAR ESMX 201320Z 18004KT 100V250 9999 SCT020TCU SCT060 13/03 Q1017=
200805201250 METAR ESMX 201250Z 18006KT 140V210 9999 SCT030 BKN060 12/03 Q1017=
200805201220 METAR ESMX 201220Z 18006KT 130V220 9999 FEW037 SCT073 12/03 Q1017=
200805201150 METAR ESMX 201150Z VRB02KT 9999 SCT023 SCT073 11/05 Q1017 RERA REDZ=
200805201120 METAR ESMX 201120Z 19005KT 160V230 9999 -SHRA SCT018 BKN050 10/03 Q1017=
200805201050 METAR ESMX 201050Z 17004KT 120V210 9999 BKN034 11/02 Q1017=
200805200950 METAR ESMX 200950Z 11004KT 060V220 9999 SCT030 BKN052 11/03 Q1017=
200805200920 METAR ESMX 200920Z 17004KT 9999 FEW 025 BKN045 09/03 Q1017=
200805200850 METAR ESMX 200850Z 07004KT 9999 FEW023 SCT043 10/04 Q1017=
200805200820 METAR ESMX 200820Z 30004KT 9999 FEW023 SCT028 BKN036 09/04 Q1017=
200805200750 METAR ESMX 200750Z 31003KT 9999 FEW017 BKN026 08/04 Q1017=
200805200720 METAR ESMX 200720Z 34003KT 250V030 9999 FEW016 BKN021 09/04 Q1016=
200805200650 METAR ESMX 200650Z 26006KT 9999 SCT014 BKN021 08/04 Q1016=
200805200620 METAR ESMX 200620Z 29003KT 9999 FEW011 BKN015 07/04 Q1016=
200805200550 METAR ESMX 200550Z VRB02KT 9999 FEW010 SCT020 07/05 Q1016=
200805200520 METAR ESMX 200520Z VRB03KT 9999 FEW020 06/05 Q1016=
200805200450 METAR ESMX 200450Z VRB01KT 9999 FEW020 05/05 Q1015=
200805200420 METAR ESMX 200420Z VRB01KT 9999 FEW023 04/04 Q1015=
200805200350 METAR ESMX 200350Z 00000KT 9999 BR FEW010 SCT035 04/03 Q1015=
200805200320 METAR ESMX 200320Z AUTO 19002KT 9999NDV FEW017/// SCT027/// BKN034/// 04/04 Q1015=
200805200250 METAR ESMX 200250Z AUTO 26004KT 9999NDV FEW008/// SCT011/// BKN014/// 04/04 Q1015=
200805200220 METAR ESMX 200220Z AUTO 00000KT 9999NDV FEW016/// BKN026/// OVC036/// 04/04 Q1015=
200805200150 METAR ESMX 200150Z AUTO 14003KT 9999NDV FEW010/// SCT014/// BKN018/// 05/04 Q1015=
200805200120 METAR ESMX 200120Z AUTO VRB02KT 9999NDV FEW007/// SCT008/// BKN010/// 05/04 Q1015=
200805200050 METAR ESMX 200050Z AUTO 00000KT 9999NDV FEW008/// SCT009/// BKN010/// 05/04 Q1015=
200805200020 METAR ESMX 200020Z AUTO 00000KT 7000NDV HZ FEW012/// BKN023/// OVC032/// 05/04 Q1014=
200805192350 METAR ESMX 192350Z 00000KT 8000 BR FEW011 SCT018 OVC022 05/04 Q1014=
200805192320 METAR ESMX 192320Z 00000KT 8000 BR OVC012 05/04 Q1014=
200805192250 METAR ESMX 192250Z 00000KT 6000 BR OVC013 05/04 Q1014=
200805192220 METAR ESMX 192220Z 00000KT 9999 SCT015 BKN023 OVC031 05/04 Q1014=
200805192150 METAR ESMX 192150Z 00000KT 9999 FEW019 OVC021 05/04 Q1014=
200805192120 METAR ESMX 192120Z 26001KT 9999 BKN022 BKN035 05/04 Q1014 REDZ RERA=
200805192050 METAR ESMX 192050Z VRB02KT 9000 -RA FEW018 BKN021 05/04 Q1014=
200805192020 METAR ESMX 192020Z 17004KT 140V200 9999 -RA FEW012 SCT019 BKN022 06/04 Q1014=
200805191950 METAR ESMX 191950Z VRB01KT 9999 SCT019 BKN025 OVC057 05/05 Q1014=
200805191920 METAR ESMX 191920Z 00000KT 9999 FEW021 SCT026 BKN044 06/05 Q1014 RESH=
200805191850 METAR ESMX 191850Z 00000KT 9999 -SHRA OVC021 06/04 Q1014=
200805191820 METAR ESMX 191820Z 00000KT 9999 -SHRA SCT015 BKN024 06/05 Q1014=
200805191750 METAR ESMX 191750Z 27003KT 240V300 9000 -SHRA FEW016 SCT027 06/05 Q1013=
200805191720 METAR ESMX 191720Z VRB02KT 9999 -SHRA BKN026 06/05 Q1013=
200805191650 METAR ESMX 191650Z 17005KT 140V200 9999 -RA SCT024 BKN035 07/05 Q1013 REDZ=
200805191620 METAR ESMX 191620Z 18005KT 8000 -RA FEW015 SCT026 07/04 Q1013 REDZ=
200805191550 METAR ESMX 191550Z 16003KT 9999 -RA FEW013 SCT017 BKN025 07/05 Q1013=
200805191520 METAR ESMX 191520Z 20006KT 150V240 9999 -RA FEW015 SCT027 BKN035 07/04 Q1013=
200805191450 METAR ESMX 191450Z 21014KT 2300 -RASH FEW024 SCT033 BKN053 07/04 Q1013=
200805191420 METAR ESMX 191420Z 18006KT 9999 -RASH SCT027 BKN050 11/M00 Q1012=
200805191350 METAR ESMX 191350Z VRB02KT CAVOK 12/M01 Q1012=
200805191320 METAR ESMX 191320Z 17004KT 100V210 CAVOK 12/M02 Q1012=
200805191250 METAR ESMX 191250Z VRB02KT 9999 SCT026 BKN064 12/M01 Q1012=
200805191220 METAR ESMX 191220Z 28003KT 9999 FEW027 BKN067 11/M01 Q1013=
200805191150 METAR ESMX 191150Z 23004KT 180V290 9999 FEW032 BKN068 13/M01 Q1013=
200805191120 METAR ESMX 191120Z VRB02KT 9999 BKN045 10/M01 Q1013=
200805191050 METAR ESMX 191050Z VRB02KT 9999 SCT042 11/M01 Q1013=
200805191020 METAR ESMX 191020Z 36005KT 310V060 9999 SCT040 10/M00 Q1013=
200805190950 METAR ESMX 190950Z 06008KT 9999 SCT039 10/M00 Q1013=
200805190920 METAR ESMX 190920Z 06005KT 010V140 9999 SCT040 10/M00 Q1013=
200805190850 METAR ESMX 190850Z 20003KT 150V230 9999 SCT036 BKN045 09/00 Q1013=
200805190820 METAR ESMX 190820Z 03003KT 340V130 9999 SCT035 08/M01 Q1013=
200805190750 METAR ESMX 190750Z 09003KT 010V170 9999 FEW030 09/01 Q1013=
200805190720 METAR ESMX 190720Z 05003KT 350V080 9999 FEW025 07/00 Q1013=
200805190650 METAR ESMX 190650Z 11003KT 060V160 9999 FEW020 07/01 Q1013=
200805190620 METAR ESMX 190620Z 04003KT 330V100 9999 FEW016 06/02 Q1013=
200805190550 METAR ESMX 190550Z 06004KT 020V110 9999 FEW011 05/02 Q1013=
200805190520 METAR ESMX 190520Z VRB01KT 9999 VCFG FEW005 03/03 Q1013=
200805190450 METAR ESMX 190450Z 00000KT 1400 R01/1000VP2000U R19/P2000D BCFG FEW001 SCT040 01/00 Q1013=
200805190420 METAR ESMX 190420Z VRB01KT 0450 R01/0700 R19/P2000U FZBCFG BKN002 M01/M01 Q1013=
200805190350 METAR ESMX 190350Z 00000KT 0150 R01/P2000D R19/0250V0375N FZFG BKN002 M02/M02 Q1012=
200805190320 METAR ESMX 190320Z AUTO 00000KT 0900NDV R01/P2000U R19/P2000D VV001 M03/M03 Q1012=
200805190250 METAR ESMX 190250Z AUTO 00000KT 0700NDV R01/P2000U R19/P2000 FZFG FEW001/// SCT004/// M02/M02 Q1012=
200805190220 METAR ESMX 190220Z AUTO 17002KT 0800NDV R01/P2000U R19/P2000N BR NCD M03/M03 Q1011=
200805190150 METAR ESMX 190150Z AUTO 00000KT 0550NDV R01/P2000D R19/P2000D BR SCT005/// M02/M03 Q1011=
200805190120 METAR ESMX 190120Z AUTO 19001KT 9999NDV NCD M02/M03 Q1011=
200805190050 METAR ESMX 190050Z AUTO 00000KT 9999NDV FEW007/// M02/M02 Q1011=
200805190020 METAR ESMX 190020Z 00000KT CAVOK M01/M02 Q1011=
200805182350 METAR ESMX 182350Z 00000KT CAVOK M00/M01 Q1011=
200805182320 METAR ESMX 182320Z 26002KT CAVOK M01/M02 Q1011=
200805182220 METAR ESMX 182220Z 35004KT 320V020 CAVOK 01/M00 Q1011=
200805182150 METAR ESMX 182150Z 34004KT 320V020 CAVOK 02/01 Q1011=
200805182120 METAR ESMX 182120Z 34005KT CAVOK 02/01 Q1010=
200805182050 METAR ESMX 182050Z 33006KT CAVOK 04/01 Q1010=
200805182020 METAR ESMX 182020Z 31006KT CAVOK 04/01 Q1010=
200805181950 METAR ESMX 181950Z 31004KT CAVOK 05/01 Q1010=
200805181920 METAR ESMX 181920Z 33005KT CAVOK 06/01 Q1010=
200805181850 METAR ESMX 181850Z 35005KT CAVOK 07/02 Q1009=
200805181820 METAR ESMX 181820Z 35006KT CAVOK 07/01 Q1009=
200805181750 METAR ESMX 181750Z 32007KT 9999 FEW030 BKN063 07/02 Q1009=
200805181720 METAR ESMX 181720Z 32007KT 290V350 9999 SCT030 BKN060 08/02 Q1009=
200805181650 METAR ESMX 181650Z 31010KT 9999 FEW029 BKN061 08/02 Q1008=
200805181620 METAR ESMX 181620Z 31012KT 270V340 9999 FEW032 BKN062 08/02 Q1008=
200805181550 METAR ESMX 181550Z 30008KT 270V340 9999 FEW034 BKN060 09/01 Q1007=
200805181520 METAR ESMX 181520Z 32008KT 290V350 9999 FEW036 BKN060 09/02 Q1007=
200805181450 METAR ESMX 181450Z 32009KT 280V350 9999 SCT040 09/01 Q1007=
200805181420 METAR ESMX 181420Z 30008KT 250V330 9999 SCT035 BKN051 11/00 Q1007=
200805181350 METAR ESMX 181350Z 30006KT 260V330 9999 FEW039 BKN048 10/00 Q1007=
200805181320 METAR ESMX 181320Z 30008KT 260V340 9999 BKN034 09/00 Q1007=
200805181250 METAR ESMX 181250Z 28008KT 250V320 9999 FEW034 BKN039 09/01 Q1007=
200805181220 METAR ESMX 181220Z 31007KT 260V010 9999 OVC033 08/01 Q1007=
200805181150 METAR ESMX 181150Z 34007KT 9999 OVC030 08/00 Q1007=
200805181120 METAR ESMX 181120Z 31007KT 260V350 9999 OVC028 08/00 Q1007=
200805181050 METAR ESMX 181050Z 30007KT 250V340 9999 OVC027 07/01 Q1007=
200805181020 METAR ESMX 181020Z 31007KT 260V340 9999 OVC024 07/00 Q1006=
200805180950 METAR ESMX 180950Z 29006KT 240V330 9999 BKN024 06/00 Q1006=
200805180920 METAR ESMX 180920Z 32008KT 270V350 9999 OVC022 06/00 Q1006=
200805180850 METAR ESMX 180850Z 32008KT 260V010 9999 OVC022 06/00 Q1006=
200805180820 METAR ESMX 180820Z 32010KT 280V340 9999 BKN019 05/M00 Q1006=
200805180750 METAR ESMX 180750Z AUTO 31009KT 9999NDV OVC020/// 05/M00 Q1005=
200805180720 METAR ESMX 180720Z AUTO 33008KT 290V360 9999NDV OVC019/// 04/M01 Q1005=
200805180650 METAR ESMX 180650Z AUTO 31009KT 280V350 9999NDV OVC019/// 04/M01 Q1005=
200805180620 METAR ESMX 180620Z AUTO 35011KT 9999NDV OVC019/// 04/M01 Q1005=
200805180550 METAR ESMX 180550Z AUTO 35009KT 9999NDV OVC019/// 04/M01 Q1005=
200805180520 METAR ESMX 180520Z AUTO 35010KT 9999NDV OVC018/// 03/M01 Q1005=
200805180450 METAR ESMX 180450Z AUTO 35011KT 9999NDV OVC018/// 03/M01 Q1005=
200805180420 METAR ESMX 180420Z AUTO 34010KT 9999NDV OVC018/// 03/M01 Q1004=
200805180350 METAR ESMX 180350Z AUTO 34010KT 9999NDV OVC016/// 03/M01 Q1004=
200805180320 METAR ESMX 180320Z AUTO 32009KT 9999NDV OVC015/// 03/M00 Q1004=
200805180250 METAR ESMX 180250Z AUTO 35008KT 300V010 9999NDV OVC014/// 04/00 Q1004=
200805180220 METAR ESMX 180220Z AUTO 32007KT 290V360 9999NDV OVC013/// 04/01 Q1004=
200805180150 METAR ESMX 180150Z AUTO 32008KT 280V340 9999NDV OVC013/// 04/01 Q1004=
200805180120 METAR ESMX 180120Z AUTO 31009KT 9999NDV OVC013/// 04/01 Q1004=
200805180050 METAR ESMX 180050Z AUTO 31008KT 270V340 9999NDV OVC013/// 04/01 Q1004=
200805180020 METAR ESMX 180020Z AUTO 33008KT 9999NDV BKN014/// 04/01 Q1004=
200805172350 METAR ESMX 172350Z AUTO 34008KT 9999NDV BKN015/// 05/02 Q1004=
200805172320 METAR ESMX 172320Z AUTO 35008KT 9999NDV SCT016/// 05/02 Q1004=
200805172250 METAR ESMX 172250Z AUTO 32008KT 9999NDV BKN016/// 06/02 Q1004=
200805172220 METAR ESMX 172220Z AUTO 34009KT 9999NDV BKN016/// 06/03 Q1004=
200805172150 METAR ESMX 172150Z AUTO 35011KT 9999NDV FEW017/// 07/03 Q1004=
200805172120 METAR ESMX 172120Z AUTO 34012KT 9999NDV NCD 08/04 Q1003=
200805172050 METAR ESMX 172050Z AUTO 32006KT 9999NDV NCD 09/01 Q1003=
200805172020 METAR ESMX 172020Z AUTO 31006KT 280V340 9999NDV NCD 09/02 Q1003=
200805171950 METAR ESMX 171950Z AUTO 25004KT 9999NDV NCD 09/04 Q1003=
200805171920 METAR ESMX 171920Z AUTO 23004KT 9999NDV NCD 09/04 Q1003=
200805171850 METAR ESMX 171850Z AUTO 24005KT 9999NDV NCD 11/04 Q1003=
200805171820 METAR ESMX 171820Z AUTO 24005KT 9999NDV NCD 11/03 Q1002=
200805171720 METAR ESMX 171720Z AUTO 23007KT 9999NDV NCD 13/02 Q1002=
200805171650 METAR ESMX 171650Z AUTO 23007KT 190V280 9999NDV NCD 13/02 Q1002=
200805171620 METAR ESMX 171620Z AUTO 24007KT 210V290 9999NDV NCD 13/02 Q1002=
200805171550 METAR ESMX 171550Z AUTO 25007KT 220V280 9999NDV NCD 13/01 Q1003=
200805171520 METAR ESMX 171520Z AUTO 24010KT 200V270 9999NDV FEW070/// 14/M00 Q1003=
200805171450 METAR ESMX 171450Z AUTO 26009KT 200V290 9999NDV FEW081/// 14/00 Q1003=
200805171420 METAR ESMX 171420Z AUTO 24010KT 210V290 9999NDV NCD 14/00 Q1003=
200805171350 METAR ESMX 171350Z AUTO 23011KT 200V270 9999NDV FEW087/// 15/00 Q1003=
200805171320 METAR ESMX 171320Z AUTO 24011KT 210V280 9999NDV NCD 15/01 Q1002=
200805171250 METAR ESMX 171250Z AUTO 24011KT 210V280 9999NDV FEW060/// 15/M01 Q1002=
200805171220 METAR ESMX 171220Z AUTO 24011KT 200V290 9999NDV FEW061/// 16/00 Q1002=
200805171150 METAR ESMX 171150Z AUTO 23012KT 190V280 9999NDV FEW055/// 15/02 Q1002=
200805171120 METAR ESMX 171120Z AUTO 24011KT 200V290 9999NDV FEW080/// 16/03 Q1002=
200805171050 METAR ESMX 171050Z AUTO 21010KT 160V260 9999NDV FEW047/// 15/03 Q1002=
200805171020 METAR ESMX 171020Z AUTO 23009KT 190V280 9999NDV NCD 14/03 Q1002=
200805170950 METAR ESMX 170950Z AUTO 23008KT 190V260 9999NDV NCD 13/04 Q1002=
200805170920 METAR ESMX 170920Z AUTO 24008KT 190V290 9999NDV SCT036/// 12/04 Q1002=
200805170850 METAR ESMX 170850Z AUTO 25008KT 210V310 9999NDV FEW035/// 12/04 Q1003=
200805170820 METAR ESMX 170820Z AUTO 21010KT 9999NDV FEW030/// SCT038/// 12/04 Q1003=
200805170750 METAR ESMX 170750Z AUTO 26008KT 9999NDV SCT033/// 11/05 Q1003=
200805170720 METAR ESMX 170720Z AUTO 25008KT 210V280 9999NDV FEW023/// SCT028/// OVC035/// 11/05 Q1003=
200805170650 METAR ESMX 170650Z AUTO 27009KT 9999NDV FEW021/// BKN027/// OVC035/// 10/07 Q1003=
200805170620 METAR ESMX 170620Z AUTO 23008KT 180V260 9999NDV FEW019/// SCT022/// OVC028/// 10/06 Q1003=
200805170550 METAR ESMX 170550Z AUTO 24006KT 200V270 9999NDV FEW021/// SCT028/// OVC031/// 10/07 Q1003=
200805170520 METAR ESMX 170520Z AUTO 23007KT 190V250 9999NDV FEW030/// OVC035/// 10/08 Q1003=
200805170450 METAR ESMX 170450Z AUTO 21005KT 9999NDV FEW027/// OVC035/// 10/08 Q1002=
200805170420 METAR ESMX 170420Z AUTO 22005KT 9999NDV FEW023/// BKN035/// 10/09 Q1002=
200805170350 METAR ESMX 170350Z AUTO 20005KT 9999NDV FEW014/// BKN041/// 09/09 Q1002=
200805170320 METAR ESMX 170320Z AUTO 19004KT 9999NDV FEW016/// SCT039/// OVC043/// 09/08 Q1002=
200805170250 METAR ESMX 170250Z AUTO 21004KT 9999NDV OVC043/// 09/08 Q1003=
200805170220 METAR ESMX 170220Z AUTO 19005KT 9999NDV BKN041/// 09/08 Q1003=
200805170150 METAR ESMX 170150Z AUTO 20005KT 9999NDV FEW036/// BKN043/// 09/08 Q1003=
200805170120 METAR ESMX 170120Z AUTO 18005KT 7000NDV BR FEW038/// OVC048/// 09/08 Q1003=
200805170050 METAR ESMX 170050Z AUTO 19003KT 8000NDV BR OVC042/// 09/08 Q1003=
200805170020 METAR ESMX 170020Z AUTO 18005KT 9000NDV BR OVC044/// 09/08 Q1003=
200805162350 METAR ESMX 162350Z AUTO 16006KT 9000NDV BR OVC039/// 09/08 Q1004=
200805162320 METAR ESMX 162320Z AUTO 16007KT 9000NDV BR FEW018/// SCT041/// OVC046/// 09/08 Q1004=
200805162250 METAR ESMX 162250Z AUTO 16006KT 7000NDV BR SCT050/// 09/08 Q1004=
200805162220 METAR ESMX 162220Z AUTO 15007KT 110V170 8000NDV BR FEW081/// 09/08 Q1004=
200805162150 METAR ESMX 162150Z AUTO 16005KT 9000NDV FEW083/// 09/08 Q1004=
200805162120 METAR ESMX 162120Z AUTO 15008KT 9000NDV FEW007/// 10/09 Q1004=
200805162050 METAR ESMX 162050Z AUTO 15005KT 9999NDV FEW035/// 10/09 Q1004=
200805162020 METAR ESMX 162020Z AUTO 14006KT 100V170 9999NDV FEW008/// BKN085/// 11/09 Q1004=
200805161950 METAR ESMX 161950Z AUTO 13005KT 9999NDV FEW042/// BKN085/// 11/09 Q1004=
200805161920 METAR ESMX 161920Z 12003KT 9999 FEW043 10/09 Q1003=
200805161850 METAR ESMX 161850Z 10003KT 050V140 9999 SCT043 12/09 Q1003=
200805161820 METAR ESMX 161820Z 11003KT 070V140 9999 FEW044 SCT050 12/09 Q1003=
200805161750 METAR ESMX 161750Z 02006KT 9999 SCT047 BKN085 12/10 Q1003=
200805161720 METAR ESMX 161720Z 13004KT CAVOK 12/09 Q1003=
200805161650 METAR ESMX 161650Z 14003KT CAVOK 12/10 Q1003=
200805161620 METAR ESMX 161620Z 31004KT 280V360 9999 VCSH FEW028CB SCT090 13/10 Q1003=
200805161550 METAR ESMX 161550Z 12002KT CAVOK 14/09 Q1003=
200805161520 METAR ESMX 161520Z 11003KT 070V150 CAVOK 14/10 Q1003=
200805161450 METAR ESMX 161450Z 14003KT 110V170 9999 VCSH FEW045 SCT070 13/09 Q1004=
200805161420 METAR ESMX 161420Z 31004KT 280V340 9999 -SHRA FEW044CB BKN070 13/08 Q1004=
200805161320 METAR ESMX 161320Z 25006KT 230V290 CAVOK 17/03 Q1003=
200805161250 METAR ESMX 161250Z 23007KT 160V290 CAVOK 19/04 Q1003=
200805161220 METAR ESMX 161220Z 23006KT 170V290 9999 FEW045 SCT063 BKN094 19/04 Q1003=
200805161150 METAR ESMX 161150Z 02005KT 350V060 9999 FEW045 SCT052 BKN085 18/05 Q1003=
200805161120 METAR ESMX 161120Z 06003KT 360V170 9999 BKN043 17/06 Q1003=
200805161050 METAR ESMX 161050Z 01003KT 290V070 9999 SCT040 16/07 Q1003=
200805161020 METAR ESMX 161020Z VRB03KT 9999 FEW040 SCT056 16/07 Q1003=
200805160950 METAR ESMX 160950Z VRB04KT 9999 SCT031 BKN046 17/08 Q1003=
200805160920 METAR ESMX 160920Z VRB02KT 9999 SCT040 15/08 Q1003=
200805160850 METAR ESMX 160850Z VRB02KT 9999 SCT030 14/08 Q1003=
200805160820 METAR ESMX 160820Z VRB02KT 9999 FEW021 SCT028 13/08 Q1004=
200805160750 METAR ESMX 160750Z 03003KT 330V090 9999 FEW017 SCT027 13/08 Q1004=
200805160720 METAR ESMX 160720Z 05003KT 010V070 9999 SCT016 13/08 Q1004=
200805160650 METAR ESMX 160650Z 29003KT 230V330 9999 BR FEW005 SCT008 BKN016 11/09 Q1004=
200805160620 METAR ESMX 160620Z VRB02KT 7000 BR OVC005 10/09 Q1004=
200805160550 METAR ESMX 160550Z 36003KT 320V040 8000 BR OVC004 10/09 Q1004=
200805160520 METAR ESMX 160520Z VRB02KT 9999 OVC006 10/08 Q1004=
200805160450 METAR ESMX 160450Z VRB01KT 9999 BKN008 10/07 Q1004=
200805160420 METAR ESMX 160420Z 18002KT CAVOK 08/07 Q1003=
200805160350 METAR ESMX 160350Z 00000KT 9999 SCT020 07/06 Q1004=
200805160320 METAR ESMX 160320Z AUTO VRB02KT 8000NDV OVC011/// 07/06 Q1004=
200805160250 METAR ESMX 160250Z AUTO 24003KT 9999NDV FEW012/// BKN099/// 08/07 Q1004=
200805160220 METAR ESMX 160220Z AUTO 23004KT 9999NDV BKN098/// 07/06 Q1004=
200805160150 METAR ESMX 160150Z AUTO 21005KT 9999NDV BKN098/// 07/06 Q1004=
200805160120 METAR ESMX 160120Z AUTO 22004KT 9999NDV BKN098/// 07/05 Q1004=
200805160050 METAR ESMX 160050Z AUTO 24002KT 9999NDV FEW036/// 07/06 Q1005=
200805160020 METAR ESMX 160020Z AUTO 23004KT 9999NDV SCT033/// 08/06 Q1005=
200805152350 METAR ESMX 152350Z AUTO 22005KT 9999NDV BKN033/// 08/06 Q1005=
200805152320 METAR ESMX 152320Z 24002KT 9999 FEW032 BKN100 09/05 Q1005=
200805152250 METAR ESMX 152250Z AUTO 24003KT 9999NDV FEW036/// BKN110/// 09/05 Q1006=
200805152220 METAR ESMX 152220Z 26004KT CAVOK 09/04 Q1006=
200805152150 METAR ESMX 152150Z 22005KT CAVOK 09/05 Q1006=
200805152120 METAR ESMX 152120Z 19005KT CAVOK 07/06 Q1006=
200805152050 METAR ESMX 152050Z 16003KT 140V200 CAVOK 08/07 Q1006=
200805152020 METAR ESMX 152020Z 13005KT CAVOK 10/08 Q1006=
200805151950 METAR ESMX 151950Z 14005KT CAVOK 10/08 Q1006=
200805151920 METAR ESMX 151920Z 14006KT CAVOK 11/08 Q1006=
200805151850 METAR ESMX 151850Z 15004KT CAVOK 12/08 Q1006=
200805151820 METAR ESMX 151820Z 15005KT CAVOK 13/09 Q1006=
200805151750 METAR ESMX 151750Z 15005KT CAVOK 13/09 Q1006=
200805151720 METAR ESMX 151720Z 14005KT 090V180 CAVOK 13/09 Q1006=
200805151650 METAR ESMX 151650Z 14006KT 110V180 CAVOK 13/09 Q1006=
200805151620 METAR ESMX 151620Z 10006KT 050V150 9999 FEW045 SCT061 BKN095 14/10 Q1006=
200805151550 METAR ESMX 151550Z VRB02KT 9999 FEW045 OVC060 14/10 Q1007=
200805151520 METAR ESMX 151520Z VRB02KT 9999 FEW045 BKN058 14/10 Q1007 RERA REDZ=
200805151450 METAR ESMX 151450Z 15007KT 110V170 6000 -SHRA FEW057 SCT068 BKN088 14/09 Q1007=
200805151420 METAR ESMX 151420Z 15003KT 110V200 CAVOK 16/07 Q1007=
200805151350 METAR ESMX 151350Z 08003KT 030V140 CAVOK 16/06 Q1008=
200805151320 METAR ESMX 151320Z 07003KT 030V110 9999 FEW045 BKN052 BKN074 16/07 Q1008=
200805151250 METAR ESMX 151250Z 07004KT 040V120 9999 FEW049 BKN057 BKN074 16/07 Q1008=
200805151220 METAR ESMX 151220Z 06004KT 010V110 9999 SCT045 BKN060 15/07 Q1008=
200805151150 METAR ESMX 151150Z 23003KT 180V300 9999 SCT040 BKN055 16/07 Q1008=
200805151120 METAR ESMX 151120Z 16004KT 110V200 9999 FEW030 BKN053 16/07 Q1009=
200805151050 METAR ESMX 151050Z 19004KT 9999 FEW028 BKN060 16/06 Q1009=
200805151020 METAR ESMX 151020Z 32004KT 260V360 9999 FEW036 OVC051 15/07 Q1009=
200805150950 METAR ESMX 150950Z VRB02KT 9999 FEW034 SCT041 BKN048 15/06 Q1009=
200805150920 METAR ESMX 150920Z 32007KT 9999 FEW030 SCT035 BKN045 15/07 Q1009=
200805150850 METAR ESMX 150850Z 33005KT 280V030 9999 FEW026 SCT044 BKN093 14/07 Q1009=
200805150820 METAR ESMX 150820Z 29007KT 9999 FEW020 SCT025 BKN093 13/07 Q1010=
200805150750 METAR ESMX 150750Z 32005KT 270V010 9999 SCT020 BKN090 14/07 Q1010=
200805150720 METAR ESMX 150720Z 27005KT 9999 FEW020 SCT094 13/08 Q1010=
200805150620 METAR ESMX 150620Z 28005KT 250V330 9999 FEW011 SCT092 12/08 Q1010=
200805150550 METAR ESMX 150550Z 30006KT CAVOK 11/07 Q1010=
200805150520 METAR ESMX 150520Z 25004KT 230V290 CAVOK 10/06 Q1010=
200805150450 METAR ESMX 150450Z VRB01KT CAVOK 09/06 Q1010=
200805150420 METAR ESMX 150420Z 21002KT CAVOK 08/06 Q1010=
200805150350 METAR ESMX 150350Z 17001KT CAVOK 07/05 Q1010=
200805150320 METAR ESMX 150320Z AUTO 22002KT 9999NDV BKN091/// 07/05 Q1011=
200805150250 METAR ESMX 150250Z AUTO 23003KT 9999NDV BKN090/// 07/05 Q1011=
200805150220 METAR ESMX 150220Z AUTO 22003KT 9999NDV BKN091/// 07/05 Q1011=
200805150150 METAR ESMX 150150Z AUTO 23002KT 9999NDV OVC090/// 07/04 Q1011=
200805150120 METAR ESMX 150120Z AUTO 24001KT 9999NDV FEW092/// 06/04 Q1011=
200805150050 METAR ESMX 150050Z AUTO 25003KT 9999NDV NCD 08/05 Q1012=
200805150020 METAR ESMX 150020Z AUTO 26003KT 9999NDV NCD 09/05 Q1012=
200805142350 METAR ESMX 142350Z 26003KT CAVOK 09/05 Q1012=
200805142320 METAR ESMX 142320Z 26004KT CAVOK 09/05 Q1012=
200805142250 METAR ESMX 142250Z 26004KT CAVOK 09/05 Q1012=
200805142150 METAR ESMX 142150Z 26004KT 220V290 CAVOK 10/04 Q1013=
200805142050 METAR ESMX 142050Z 25005KT CAVOK 10/04 Q1013=
200805142020 METAR ESMX 142020Z 25005KT CAVOK 10/04 Q1013=
200805141950 METAR ESMX 141950Z 25004KT CAVOK 11/04 Q1013=
200805141920 METAR ESMX 141920Z 26005KT CAVOK 12/04 Q1013=
200805141820 METAR ESMX 141820Z 26009KT 220V290 CAVOK 14/04 Q1013=
200805141720 METAR ESMX 141720Z 27007KT 240V300 CAVOK 15/04 Q1013=
200805141650 METAR ESMX 141650Z 27008KT 240V300 CAVOK 15/04 Q1013=
200805141620 METAR ESMX 141620Z 27009KT 240V300 CAVOK 15/03 Q1014=
200805141550 METAR ESMX 141550Z 27007KT 240V300 CAVOK 16/03 Q1014=
200805141520 METAR ESMX 141520Z 27008KT 240V310 CAVOK 16/03 Q1014=
200805141450 METAR ESMX 141450Z 26006KT CAVOK 16/02 Q1014=
200805141420 METAR ESMX 141420Z 24007KT 210V290 CAVOK 16/01 Q1015=
200805141350 METAR ESMX 141350Z 23009KT CAVOK 18/02 Q1015=
200805141320 METAR ESMX 141320Z 26008KT 200V310 CAVOK 18/01 Q1015=
200805141250 METAR ESMX 141250Z 26004KT 170V340 CAVOK 17/M00 Q1016=
200805141220 METAR ESMX 141220Z 27006KT CAVOK 17/01 Q1016=
200805141120 METAR ESMX 141120Z VRB02KT CAVOK 16/01 Q1017=
200805141050 METAR ESMX 141050Z 32004KT 250V360 CAVOK 15/00 Q1017=
200805141020 METAR ESMX 141020Z 28003KT 200V340 CAVOK 16/M00 Q1017=
200805140950 METAR ESMX 140950Z 30005KT 9999 FEW048 15/M01 Q1018=
200805140920 METAR ESMX 140920Z 30007KT 9999 FEW040 15/01 Q1018=
200805140850 METAR ESMX 140850Z 28005KT 9999 FEW035 15/02 Q1018=
200805140820 METAR ESMX 140820Z 27005KT CAVOK 14/03 Q1019=
200805140750 METAR ESMX 140750Z 31005KT CAVOK 13/03 Q1019=
200805140720 METAR ESMX 140720Z 30006KT CAVOK 13/03 Q1019=
200805140620 METAR ESMX 140620Z 32005KT CAVOK 11/04 Q1020=
200805140520 METAR ESMX 140520Z 32004KT CAVOK 09/03 Q1020=
200805140450 METAR ESMX 140450Z 31003KT CAVOK 07/03 Q1020=
200805140420 METAR ESMX 140420Z VRB02KT CAVOK 06/04 Q1020=
200805140350 METAR ESMX 140350Z 25002KT CAVOK 03/02 Q1020=
200805140320 METAR ESMX 140320Z AUTO 25003KT 9999NDV NCD 01/M00 Q1020=
200805140250 METAR ESMX 140250Z AUTO 26003KT 9999NDV NCD M00/M01 Q1020=
200805140220 METAR ESMX 140220Z AUTO 17003KT 9999NDV NCD 00/M01 Q1020=
200805140150 METAR ESMX 140150Z AUTO 17002KT 9999NDV NCD 00/M01 Q1020=
200805140120 METAR ESMX 140120Z AUTO 17002KT 9999NDV NCD 00/M01 Q1020=
200805140050 METAR ESMX 140050Z AUTO 18002KT 9999NDV NCD 00/M01 Q1020=
200805140020 METAR ESMX 140020Z AUTO 17001KT 9999NDV NCD 01/M00 Q1020=
200805132350 METAR ESMX 132350Z 19003KT CAVOK 01/M01 Q1020=
200805132320 METAR ESMX 132320Z 17002KT CAVOK 03/00 Q1020=
200805132250 METAR ESMX 132250Z 16003KT CAVOK 04/00 Q1020=
200805132220 METAR ESMX 132220Z 18005KT CAVOK 04/00 Q1020=
200805132150 METAR ESMX 132150Z 17003KT CAVOK 05/01 Q1021=
200805132120 METAR ESMX 132120Z 16003KT CAVOK 06/01 Q1021=
200805132050 METAR ESMX 132050Z 20006KT CAVOK 07/01 Q1020=
200805132020 METAR ESMX 132020Z 20009KT CAVOK 07/01 Q1020=
200805131950 METAR ESMX 131950Z 21009KT CAVOK 08/01 Q1020=
200805131920 METAR ESMX 131920Z 21008KT CAVOK 09/01 Q1020=
200805131850 METAR ESMX 131850Z 20010KT CAVOK 10/01 Q1020=
200805131820 METAR ESMX 131820Z 24004KT CAVOK 13/M04 Q1020=
200805131750 METAR ESMX 131750Z 27004KT CAVOK 14/M04 Q1020=
200805131720 METAR ESMX 131720Z 24005KT 170V280 CAVOK 15/M04 Q1020=
200805131650 METAR ESMX 131650Z 28004KT 240V310 CAVOK 15/M05 Q1020=
200805131620 METAR ESMX 131620Z VRB02KT CAVOK 15/M04 Q1020=
200805131550 METAR ESMX 131550Z 00000KT CAVOK 15/M04 Q1021=
200805131520 METAR ESMX 131520Z VRB04KT CAVOK 16/M03 Q1021=
200805131450 METAR ESMX 131450Z 30005KT 220V010 CAVOK 15/M03 Q1021=
200805131420 METAR ESMX 131420Z 05006KT 340V080 CAVOK 15/M03 Q1021=
200805131350 METAR ESMX 131350Z 01007KT 330V040 CAVOK 15/M04 Q1022=
200805131320 METAR ESMX 131320Z 01005KT CAVOK 14/M04 Q1022=
200805131250 METAR ESMX 131250Z 03005KT CAVOK 14/M04 Q1022=
200805131220 METAR ESMX 131220Z 35006KT 310V040 CAVOK 14/M03 Q1023=
200805131150 METAR ESMX 131150Z 35005KT 300V080 CAVOK 13/M03 Q1023=
200805131120 METAR ESMX 131120Z 30004KT CAVOK 12/M04 Q1024=
200805131050 METAR ESMX 131050Z VRB04KT CAVOK 12/M04 Q1024=
200805131020 METAR ESMX 131020Z 35005KT 290V070 CAVOK 12/M02 Q1024=
200805130950 METAR ESMX 130950Z 08005KT 360V140 CAVOK 12/M02 Q1025=
200805130920 METAR ESMX 130920Z VRB03KT CAVOK 12/M02 Q1025=
200805130850 METAR ESMX 130850Z 05003KT CAVOK 10/M03 Q1025=
200805130820 METAR ESMX 130820Z 09003KT CAVOK 10/M02 Q1025=
200805130750 METAR ESMX 130750Z 04004KT CAVOK 09/M02 Q1025=
200805130720 METAR ESMX 130720Z VRB02KT CAVOK 09/M01 Q1025=
200805130650 METAR ESMX 130650Z 05004KT CAVOK 08/M01 Q1026=
200805130620 METAR ESMX 130620Z 03003KT CAVOK 07/M00 Q1026=
200805130550 METAR ESMX 130550Z 03003KT CAVOK 07/02 Q1025=
200805130520 METAR ESMX 130520Z 02003KT CAVOK 06/03 Q1025=
200805130450 METAR ESMX 130450Z 00000KT 9999 FEW004 03/03 Q1025=
200805130420 METAR ESMX 130420Z 00000KT 9999 R19/P2000U BCFG FEW004 SCT200 M01/M01 Q1025=
200805130350 METAR ESMX 130350Z 00000KT 9999 BCFG SCT200 M02/M02 Q1025=
200805130320 METAR ESMX 130320Z AUTO 00000KT 9999NDV NCD M01/M02 Q1025=
200805130250 METAR ESMX 130250Z AUTO 00000KT 9999NDV NCD M01/M02 Q1025=
200805130220 METAR ESMX 130220Z AUTO 17001KT 9999NDV NCD M01/M02 Q1025=
200805130150 METAR ESMX 130150Z AUTO 18002KT 9999NDV NCD M00/M01 Q1025=
200805130120 METAR ESMX 130120Z AUTO 00000KT 9999NDV NCD 00/M01 Q1025=
200805130050 METAR ESMX 130050Z AUTO 00000KT 9999NDV NCD 00/M01 Q1025=
200805130020 METAR ESMX 130020Z 00000KT CAVOK 01/00 Q1025=
200805122350 METAR ESMX 122350Z 11001KT CAVOK 03/01 Q1025=
200805122320 METAR ESMX 122320Z VRB02KT CAVOK 03/01 Q1025=
200805122250 METAR ESMX 122250Z 12003KT 060V170 CAVOK 04/01 Q1025=
200805122220 METAR ESMX 122220Z 10003KT 060V130 CAVOK 05/01 Q1025=
200805122150 METAR ESMX 122150Z 08003KT 030V160 CAVOK 06/00 Q1025=
200805122120 METAR ESMX 122120Z 10005KT 040V160 CAVOK 06/M01 Q1025=
200805122050 METAR ESMX 122050Z 08005KT 030V150 9999 BKN045 07/M00 Q1025=
200805122020 METAR ESMX 122020Z 11004KT 070V220 9999 BKN041 08/00 Q1024=
200805121950 METAR ESMX 121950Z 12005KT 040V170 9999 BKN038 08/01 Q1024=
200805121920 METAR ESMX 121920Z 10005KT 050V140 9999 BKN038 08/02 Q1024=
200805121850 METAR ESMX 121850Z 11006KT 060V160 9999 FEW027 BKN045 09/03 Q1023=
200805121820 METAR ESMX 121820Z 09005KT 020V160 9999 BKN036 10/04 Q1023=
200805121750 METAR ESMX 121750Z 11006KT 060V160 9999 FEW043 SCT070 11/04 Q1023=
200805121720 METAR ESMX 121720Z 10005KT 020V160 9999 FEW040 BKN065 12/04 Q1022=
200805121650 METAR ESMX 121650Z 07005KT 030V130 CAVOK 12/04 Q1022=
200805121620 METAR ESMX 121620Z 05007KT 020V090 9999 FEW035 BKN059 12/04 Q1022=
200805121550 METAR ESMX 121550Z 06007KT 360V120 9999 SCT039 BKN070 12/04 Q1022=
200805121520 METAR ESMX 121520Z 05008KT 010V100 9999 FEW044 BKN051 12/04 Q1022=
200805121450 METAR ESMX 121450Z 06009KT 020V110 9999 FEW044 BKN055 BKN070 12/04 Q1022=
200805121420 METAR ESMX 121420Z 06007KT 020V110 9999 FEW026 BKN045 12/05 Q1022=
200805121350 METAR ESMX 121350Z 08006KT 030V110 9999 FEW032 BKN046 OVC067 12/06 Q1022=
200805121320 METAR ESMX 121320Z 06008KT 010V100 9999 FEW024 SCT030 BKN058 12/06 Q1022=
200805121250 METAR ESMX 121250Z 09009KT 040V130 9999 SCT023 BKN030 BKN064 12/06 Q1022=
200805121220 METAR ESMX 121220Z 06009KT 9999 FEW025 SCT028 BKN043 12/07 Q1021=
200805121150 METAR ESMX 121150Z 05008KT 9999 SCT029 BKN041 14/07 Q1021=
200805121120 METAR ESMX 121120Z 04010KT 9999 BKN041 14/06 Q1021=
200805121050 METAR ESMX 121050Z 03011KT 360V070 9999 BKN042 15/06 Q1020=
200805121020 METAR ESMX 121020Z 04008KT 010V080 9999 BKN045 16/05 Q1020=
200805120950 METAR ESMX 120950Z 05007KT 010V100 9999 FEW045 BKN055 16/05 Q1020=
200805120920 METAR ESMX 120920Z 04010KT 010V090 CAVOK 17/05 Q1020=
200805120850 METAR ESMX 120850Z 05008KT 010V090 CAVOK 17/06 Q1019=
200805120820 METAR ESMX 120820Z 06009KT 010V100 CAVOK 16/05 Q1019=
200805120750 METAR ESMX 120750Z 06009KT 020V090 CAVOK 16/05 Q1019=
200805120720 METAR ESMX 120720Z 05008KT 350V080 CAVOK 15/05 Q1019=
200805120620 METAR ESMX 120620Z 05010KT 010V080 CAVOK 14/08 Q1018=
200805120520 METAR ESMX 120520Z 35005KT 320V020 CAVOK 14/09 Q1017=
200805120450 METAR ESMX 120450Z 35003KT 300V020 CAVOK 13/09 Q1017=
200805120420 METAR ESMX 120420Z VRB02KT CAVOK 10/07 Q1017=
200805120350 METAR ESMX 120350Z VRB02KT CAVOK 09/06 Q1017=
200805120320 METAR ESMX 120320Z AUTO 00000KT 9999NDV FEW100/// 09/07 Q1017=
200805120250 METAR ESMX 120250Z AUTO VRB02KT 9999NDV NCD 10/07 Q1017=
200805120220 METAR ESMX 120220Z AUTO 25003KT 9999NDV NCD 11/06 Q1017=
200805120150 METAR ESMX 120150Z AUTO 25004KT 9999NDV NCD 11/07 Q1017=
200805120120 METAR ESMX 120120Z AUTO 25004KT 9999NDV NCD 11/06 Q1017=
200805120050 METAR ESMX 120050Z AUTO 25004KT 9999NDV NCD 11/06 Q1017=
200805120020 METAR ESMX 120020Z 26003KT CAVOK 11/06 Q1018=
200805112350 METAR ESMX 112350Z 26004KT CAVOK 12/06 Q1018=
200805112320 METAR ESMX 112320Z 25003KT CAVOK 13/06 Q1018=
200805112250 METAR ESMX 112250Z 26004KT CAVOK 14/06 Q1018=
200805112220 METAR ESMX 112220Z 27004KT CAVOK 14/06 Q1018=
200805112150 METAR ESMX 112150Z 26005KT CAVOK 15/06 Q1018=
200805112120 METAR ESMX 112120Z 27005KT CAVOK 15/06 Q1019=
200805112050 METAR ESMX 112050Z 27005KT CAVOK 16/06 Q1019=
200805112020 METAR ESMX 112020Z 28004KT 250V320 CAVOK 16/05 Q1019=
200805111950 METAR ESMX 111950Z 29004KT CAVOK 17/05 Q1019=
200805111920 METAR ESMX 111920Z 30006KT CAVOK 17/04 Q1019=
200805111850 METAR ESMX 111850Z 29007KT CAVOK 18/04 Q1019=
200805111820 METAR ESMX 111820Z 30007KT 270V330 CAVOK 20/03 Q1019=
200805111750 METAR ESMX 111750Z 30010KT CAVOK 20/03 Q1019=
200805111720 METAR ESMX 111720Z 30008KT 260V340 CAVOK 22/04 Q1019=
200805111650 METAR ESMX 111650Z 29009KT 260V340 CAVOK 23/03 Q1019=
200805111620 METAR ESMX 111620Z 27010KT 230V300 CAVOK 24/03 Q1019=
200805111550 METAR ESMX 111550Z 28012KT 250V310 CAVOK 24/03 Q1019=
200805111520 METAR ESMX 111520Z 28010KT CAVOK 24/04 Q1019=
200805111450 METAR ESMX 111450Z 29009KT 250V330 CAVOK 25/04 Q1019=
200805111420 METAR ESMX 111420Z 31010KT 260V340 CAVOK 25/04 Q1019=
200805111350 METAR ESMX 111350Z 29011KT CAVOK 25/04 Q1020=
200805111320 METAR ESMX 111320Z 26009KT CAVOK 25/05 Q1020=
200805111220 METAR ESMX 111220Z 31008KT CAVOK 25/05 Q1021=
200805111120 METAR ESMX 111120Z 29007KT 230V360 CAVOK 24/05 Q1022=
200805111050 METAR ESMX 111050Z 27007KT 170V340 CAVOK 24/04 Q1022=
200805111020 METAR ESMX 111020Z 26008KT 230V300 CAVOK 24/06 Q1022=
200805110950 METAR ESMX 110950Z 30005KT 250V020 CAVOK 23/07 Q1022=
200805110920 METAR ESMX 110920Z 31006KT 280V350 CAVOK 23/07 Q1022=
200805110850 METAR ESMX 110850Z 33007KT 280V010 CAVOK 22/05 Q1023=
200805110820 METAR ESMX 110820Z 28005KT 230V360 CAVOK 22/06 Q1023=
200805110750 METAR ESMX 110750Z 31005KT 260V350 CAVOK 21/08 Q1023=
200805110720 METAR ESMX 110720Z AUTO 28004KT 230V320 9999NDV NCD 20/06 Q1023=
200805110650 METAR ESMX 110650Z AUTO VRB02KT 9999NDV NCD 19/06 Q1023=
200805110620 METAR ESMX 110620Z AUTO VRB02KT 9999NDV NCD 18/08 Q1023=
200805110550 METAR ESMX 110550Z AUTO VRB02KT 9999NDV NCD 16/09 Q1023=
200805110520 METAR ESMX 110520Z AUTO VRB01KT 9999NDV NCD 14/09 Q1023=
200805110450 METAR ESMX 110450Z AUTO 00000KT 9999NDV NCD 11/09 Q1023=
200805110420 METAR ESMX 110420Z AUTO 00000KT 9999NDV NCD 08/07 Q1023=
200805110350 METAR ESMX 110350Z AUTO 00000KT 9999NDV NCD 06/05 Q1023=
200805110320 METAR ESMX 110320Z AUTO 28001KT 9999NDV NCD 05/04 Q1023=
200805110250 METAR ESMX 110250Z AUTO 19002KT 9999NDV NCD 06/04 Q1023=
200805110220 METAR ESMX 110220Z AUTO 17001KT 9999NDV NCD 06/05 Q1023=
200805110150 METAR ESMX 110150Z AUTO 18002KT 9999NDV NCD 07/05 Q1023=
200805110120 METAR ESMX 110120Z AUTO VRB01KT 9999NDV NCD 07/06 Q1023=
200805110050 METAR ESMX 110050Z AUTO 00000KT 9999NDV NCD 08/06 Q1023=
200805110020 METAR ESMX 110020Z AUTO 00000KT 9999NDV NCD 08/06 Q1023=
200805102350 METAR ESMX 102350Z AUTO 18002KT 9999NDV NCD 09/06 Q1023=
200805102320 METAR ESMX 102320Z AUTO 19002KT 9999NDV NCD 10/06 Q1023=
200805102250 METAR ESMX 102250Z AUTO 15002KT 9999NDV NCD 11/06 Q1023=
200805102220 METAR ESMX 102220Z AUTO 18004KT 9999NDV NCD 12/07 Q1023=
200805102150 METAR ESMX 102150Z AUTO 18004KT 9999NDV NCD 13/06 Q1023=
200805102120 METAR ESMX 102120Z AUTO 18004KT 9999NDV NCD 12/06 Q1023=
200805102050 METAR ESMX 102050Z AUTO 16005KT 9999NDV NCD 17/06 Q1023=
200805102020 METAR ESMX 102020Z AUTO 18006KT 9999NDV NCD 17/06 Q1023=
200805101950 METAR ESMX 101950Z AUTO 16009KT 130V190 9999NDV NCD 19/06 Q1023=
200805101920 METAR ESMX 101920Z AUTO 15008KT 110V170 9999NDV FEW087/// 19/05 Q1022=
200805101850 METAR ESMX 101850Z AUTO 18002KT 9999NDV FEW087/// 18/08 Q1022=
200805101820 METAR ESMX 101820Z AUTO 19002KT 9999NDV NCD 21/07 Q1022=
200805101750 METAR ESMX 101750Z AUTO 15001KT 9999NDV NCD 23/04 Q1022=
200805101720 METAR ESMX 101720Z AUTO VRB02KT 9999NDV NCD 24/03 Q1021=
200805101650 METAR ESMX 101650Z AUTO 09003KT 9999NDV NCD 24/03 Q1022=
200805101620 METAR ESMX 101620Z AUTO 06003KT 010V140 9999NDV NCD 24/03 Q1022=
200805101550 METAR ESMX 101550Z AUTO 04006KT 010V080 9999NDV NCD 24/03 Q1022=
200805101520 METAR ESMX 101520Z AUTO 08005KT 010V130 9999NDV NCD 24/03 Q1022=
200805101450 METAR ESMX 101450Z AUTO 06006KT 010V140 9999NDV NCD 24/03 Q1022=
200805101420 METAR ESMX 101420Z AUTO 03006KT 360V070 9999NDV NCD 25/02 Q1022=
200805101350 METAR ESMX 101350Z AUTO VRB05KT 9999NDV NCD 24/01 Q1022=
200805101320 METAR ESMX 101320Z AUTO VRB04KT 9999NDV NCD 24/01 Q1022=
200805101250 METAR ESMX 101250Z AUTO 03004KT 290V100 9999NDV NCD 24/02 Q1023=
200805101220 METAR ESMX 101220Z AUTO 36007KT 340V040 9999NDV NCD 23/02 Q1023=
200805101150 METAR ESMX 101150Z AUTO 36004KT 290V100 9999NDV NCD 23/03 Q1023=
200805101120 METAR ESMX 101120Z AUTO 07006KT 040V110 9999NDV NCD 23/03 Q1023=
200805101050 METAR ESMX 101050Z AUTO 01005KT 340V050 9999NDV NCD 22/02 Q1023=
200805101020 METAR ESMX 101020Z AUTO 03008KT 9999NDV NCD 22/01 Q1023=
200805100950 METAR ESMX 100950Z AUTO 01007KT 320V050 9999NDV NCD 22/02 Q1023=
200805100920 METAR ESMX 100920Z AUTO 36007KT 9999NDV NCD 22/03 Q1023=
200805100850 METAR ESMX 100850Z AUTO 02008KT 340V050 9999NDV NCD 21/03 Q1023=
200805100820 METAR ESMX 100820Z AUTO 35007KT 9999NDV NCD 20/04 Q1023=
200805100750 METAR ESMX 100750Z AUTO 35006KT 300V030 9999NDV NCD 19/04 Q1023=
200805100720 METAR ESMX 100720Z AUTO 34005KT 270V030 9999NDV NCD 19/06 Q1023=
200805100650 METAR ESMX 100650Z AUTO 02004KT 340V070 9999NDV NCD 18/07 Q1023=
200805100620 METAR ESMX 100620Z AUTO 36004KT 9999NDV NCD 17/08 Q1023=
200805100550 METAR ESMX 100550Z AUTO 35004KT 320V030 9999NDV NCD 15/07 Q1023=
200805100520 METAR ESMX 100520Z AUTO 34002KT 9999NDV NCD 14/08 Q1022=
200805100450 METAR ESMX 100450Z AUTO 00000KT 9999NDV NCD 12/08 Q1022=
200805100420 METAR ESMX 100420Z AUTO 29002KT 9999NDV NCD 07/06 Q1022=
200805100350 METAR ESMX 100350Z AUTO 29001KT 9999NDV NCD 07/05 Q1022=
200805100320 METAR ESMX 100320Z AUTO 28002KT 9999NDV NCD 06/04 Q1022=
200805100250 METAR ESMX 100250Z AUTO 27002KT 9999NDV NCD 06/04 Q1022=
200805100220 METAR ESMX 100220Z AUTO 28002KT 9999NDV NCD 07/05 Q1022=
200805100150 METAR ESMX 100150Z AUTO VRB02KT 9999NDV NCD 07/04 Q1021=
200805100120 METAR ESMX 100120Z AUTO 00000KT 9999NDV NCD 07/04 Q1021=
200805100050 METAR ESMX 100050Z AUTO 33001KT 9999NDV NCD 07/04 Q1021=
200805100020 METAR ESMX 100020Z AUTO 28002KT 9999NDV NCD 08/04 Q1021=
200805092350 METAR ESMX 092350Z AUTO 30002KT 9999NDV NCD 09/05 Q1021=
200805092320 METAR ESMX 092320Z AUTO 34002KT 9999NDV NCD 10/05 Q1021=
200805092250 METAR ESMX 092250Z AUTO 33002KT 9999NDV NCD 11/05 Q1021=
200805092220 METAR ESMX 092220Z AUTO 00000KT 9999NDV NCD 12/05 Q1021=
200805092150 METAR ESMX 092150Z AUTO 30004KT 9999NDV NCD 13/05 Q1020=
200805092120 METAR ESMX 092120Z AUTO 30005KT 9999NDV NCD 15/05 Q1020=
200805092050 METAR ESMX 092050Z AUTO 30005KT 9999NDV FEW087/// 16/05 Q1020=
200805092020 METAR ESMX 092020Z AUTO 29006KT 9999NDV SCT085/// 17/04 Q1020=
200805091950 METAR ESMX 091950Z AUTO 29006KT 9999NDV SCT086/// 19/04 Q1019=
200805091920 METAR ESMX 091920Z AUTO 30006KT 9999NDV BKN086/// 19/05 Q1019=
200805091850 METAR ESMX 091850Z VRB02KT CAVOK 18/07 Q1019=
200805091820 METAR ESMX 091820Z 00000KT CAVOK 19/06 Q1018=
200805091750 METAR ESMX 091750Z 00000KT CAVOK 21/04 Q1018=
200805091720 METAR ESMX 091720Z VRB02KT CAVOK 21/07 Q1018=
200805091650 METAR ESMX 091650Z VRB01KT CAVOK 21/07 Q1018=
200805091620 METAR ESMX 091620Z 00000KT CAVOK 22/05 Q1018=
200805091550 METAR ESMX 091550Z VRB02KT CAVOK 21/03 Q1018=
200805091520 METAR ESMX 091520Z 24006KT 210V280 CAVOK 23/03 Q1018=
200805091450 METAR ESMX 091450Z 29006KT 230V340 CAVOK 24/02 Q1018=
200805091420 METAR ESMX 091420Z 27003KT 220V340 CAVOK 24/02 Q1019=
200805091350 METAR ESMX 091350Z VRB02KT CAVOK 24/02 Q1019=
200805091320 METAR ESMX 091320Z 07003KT 040V120 CAVOK 24/02 Q1019=
200805091250 METAR ESMX 091250Z 01005KT 320V050 CAVOK 23/02 Q1019=
200805091220 METAR ESMX 091220Z 35004KT 270V080 CAVOK 23/03 Q1019=
200805091150 METAR ESMX 091150Z 01005KT 290V060 CAVOK 23/03 Q1019=
200805091120 METAR ESMX 091120Z 03006KT 360V070 CAVOK 23/03 Q1019=
200805091050 METAR ESMX 091050Z 03008KT CAVOK 22/04 Q1019=
200805091020 METAR ESMX 091020Z 03008KT CAVOK 22/04 Q1019=
200805090950 METAR ESMX 090950Z 03004KT 010V100 CAVOK 21/05 Q1020=
200805090920 METAR ESMX 090920Z 01004KT 310V050 CAVOK 20/05 Q1020=
200805090850 METAR ESMX 090850Z VRB02KT CAVOK 20/04 Q1020=
200805090820 METAR ESMX 090820Z VRB02KT CAVOK 19/05 Q1020=
200805090750 METAR ESMX 090750Z 03004KT 340V060 CAVOK 18/05 Q1020=
200805090720 METAR ESMX 090720Z 02003KT 340V050 CAVOK 17/06 Q1020=
200805090650 METAR ESMX 090650Z 03003KT 360V070 CAVOK 15/07 Q1020=
200805090620 METAR ESMX 090620Z VRB02KT CAVOK 14/09 Q1020=
200805090550 METAR ESMX 090550Z VRB01KT CAVOK 12/08 Q1020=
200805090520 METAR ESMX 090520Z VRB01KT CAVOK 10/09 Q1020=
200805090450 METAR ESMX 090450Z 00000KT CAVOK 07/07 Q1020=
200805090420 METAR ESMX 090420Z 00000KT 8000 MIFG NSC 03/03 Q1020=
200805090350 METAR ESMX 090350Z 00000KT 0700 R01/P2000 R19/P2000U MIFG NSC 03/02 Q1020=
200805090320 METAR ESMX 090320Z AUTO 18002KT 0550NDV R01/P2000 R19/P2000U FG NCD 03/02 Q1020=
200805090250 METAR ESMX 090250Z AUTO 17002KT 9999NDV NCD 03/03 Q1020=
200805090220 METAR ESMX 090220Z AUTO 00000KT 9999NDV NCD 03/02 Q1020=
200805090150 METAR ESMX 090150Z AUTO 00000KT 6000NDV BR NCD 04/03 Q1020=
200805090120 METAR ESMX 090120Z AUTO 00000KT 9999NDV NCD 03/02 Q1020=
200805090050 METAR ESMX 090050Z AUTO 18001KT 9999NDV NCD 05/03 Q1020=
200805090020 METAR ESMX 090020Z AUTO 18001KT 9999NDV NCD 05/03 Q1020=
200805082350 METAR ESMX 082350Z AUTO 04001KT 9999NDV NCD 06/04 Q1020=
200805082320 METAR ESMX 082320Z 01001KT CAVOK 07/04 Q1020=
200805082250 METAR ESMX 082250Z 16002KT CAVOK 07/04 Q1020=
200805082220 METAR ESMX 082220Z 16003KT CAVOK 08/05 Q1020=
200805082120 METAR ESMX 082120Z 16004KT CAVOK 12/05 Q1020=
200805082050 METAR ESMX 082050Z 15006KT CAVOK 13/05 Q1020=
200805082020 METAR ESMX 082020Z 15007KT CAVOK 14/05 Q1020=
200805081950 METAR ESMX 081950Z 15006KT CAVOK 14/04 Q1019=
200805081920 METAR ESMX 081920Z 15008KT CAVOK 15/05 Q1019=
200805081850 METAR ESMX 081850Z 16009KT CAVOK 16/05 Q1019=
200805081820 METAR ESMX 081820Z 09003KT 020V190 CAVOK 19/05 Q1019=
200805081750 METAR ESMX 081750Z 04002KT CAVOK 21/03 Q1018=
200805081720 METAR ESMX 081720Z VRB02KT CAVOK 22/02 Q1018=
200805081650 METAR ESMX 081650Z 00000KT CAVOK 23/02 Q1018=
200805081620 METAR ESMX 081620Z VRB01KT CAVOK 22/02 Q1018=
200805081550 METAR ESMX 081550Z 33004KT 240V030 CAVOK 21/02 Q1018=
200805081520 METAR ESMX 081520Z 36004KT 310V050 CAVOK 23/02 Q1018=
200805081450 METAR ESMX 081450Z 34003KT 300V040 CAVOK 23/01 Q1019=
200805081420 METAR ESMX 081420Z 28008KT 260V330 CAVOK 23/02 Q1019=
200805081350 METAR ESMX 081350Z 34005KT 290V030 CAVOK 22/02 Q1019=
200805081320 METAR ESMX 081320Z 01006KT 330V040 CAVOK 22/02 Q1019=
200805081250 METAR ESMX 081250Z 01009KT 320V080 CAVOK 22/01 Q1019=
200805081220 METAR ESMX 081220Z 35006KT 310V020 CAVOK 22/02 Q1019=
200805081150 METAR ESMX 081150Z 01005KT CAVOK 21/04 Q1020=
200805081120 METAR ESMX 081120Z 01006KT 310V040 9999 NSC 21/04 Q1020=
200805081050 METAR ESMX 081050Z 02005KT 330V070 CAVOK 21/04 Q1020=
200805081020 METAR ESMX 081020Z VRB04KT CAVOK 20/04 Q1020=
200805080950 METAR ESMX 080950Z 02005KT 340V060 CAVOK 20/04 Q1020=
200805080920 METAR ESMX 080920Z 05004KT 010V110 CAVOK 19/04 Q1021=
200805080850 METAR ESMX 080850Z 36005KT CAVOK 18/04 Q1021=
200805080820 METAR ESMX 080820Z 09005KT CAVOK 19/04 Q1021=
200805080750 METAR ESMX 080750Z 36003KT 300V050 CAVOK 17/05 Q1021=
200805080720 METAR ESMX 080720Z 35003KT 300V040 CAVOK 17/06 Q1021=
200805080650 METAR ESMX 080650Z 06005KT CAVOK 16/06 Q1021=
200805080620 METAR ESMX 080620Z 05003KT 360V090 CAVOK 15/06 Q1021=
200805080550 METAR ESMX 080550Z 03003KT CAVOK 13/07 Q1021=
200805080520 METAR ESMX 080520Z 01003KT CAVOK 11/07 Q1021=
200805080450 METAR ESMX 080450Z VRB02KT CAVOK 10/07 Q1020=
200805080420 METAR ESMX 080420Z 00000KT CAVOK 04/04 Q1020=
200805080350 METAR ESMX 080350Z 00000KT CAVOK 03/02 Q1020=
200805080320 METAR ESMX 080320Z AUTO 00000KT 9999NDV NCD 03/02 Q1020=
200805080250 METAR ESMX 080250Z AUTO 00000KT 9999NDV NCD 03/02 Q1020=
200805080220 METAR ESMX 080220Z AUTO 00000KT 9999NDV NCD 04/02 Q1020=
200805080150 METAR ESMX 080150Z AUTO 00000KT 9999NDV NCD 03/02 Q1020=
200805080120 METAR ESMX 080120Z AUTO 00000KT 9999NDV NCD 04/02 Q1020=
200805080050 METAR ESMX 080050Z AUTO 00000KT 9999NDV NCD 05/03 Q1020=
200805080020 METAR ESMX 080020Z AUTO 00000KT 9999NDV NCD 06/03 Q1020=
200805072350 METAR ESMX 072350Z AUTO 19002KT 9999NDV NCD 06/03 Q1020=
200805072320 METAR ESMX 072320Z 00000KT CAVOK 06/04 Q1020=
200805072250 METAR ESMX 072250Z 00000KT CAVOK 07/04 Q1020=
200805072220 METAR ESMX 072220Z 29002KT CAVOK 07/04 Q1020=
200805072150 METAR ESMX 072150Z VRB01KT CAVOK 08/04 Q1020=
200805072120 METAR ESMX 072120Z 32001KT CAVOK 09/05 Q1020=
200805072050 METAR ESMX 072050Z 01002KT CAVOK 12/05 Q1020=
200805072020 METAR ESMX 072020Z 01004KT CAVOK 14/05 Q1020=
200805071950 METAR ESMX 071950Z 01005KT CAVOK 14/05 Q1020=
200805071920 METAR ESMX 071920Z 02007KT CAVOK 15/05 Q1020=
200805071850 METAR ESMX 071850Z 36006KT CAVOK 16/06 Q1019=
200805071820 METAR ESMX 071820Z 02008KT CAVOK 19/04 Q1019=
200805071750 METAR ESMX 071750Z 02008KT CAVOK 20/04 Q1019=
200805071720 METAR ESMX 071720Z 02008KT CAVOK 20/03 Q1019=
200805071650 METAR ESMX 071650Z 34006KT CAVOK 19/05 Q1019=
200805071620 METAR ESMX 071620Z 36006KT CAVOK 20/04 Q1019=
200805071550 METAR ESMX 071550Z 35007KT 320V020 CAVOK 20/04 Q1019=
200805071520 METAR ESMX 071520Z 34006KT 290V020 CAVOK 21/03 Q1019=
200805071450 METAR ESMX 071450Z 35005KT 280V010 CAVOK 22/03 Q1019=
200805071420 METAR ESMX 071420Z 34006KT 300V030 CAVOK 21/04 Q1020=
200805071350 METAR ESMX 071350Z 35006KT 270V030 CAVOK 20/04 Q1020=
200805071320 METAR ESMX 071320Z 02007KT 340V060 CAVOK 21/03 Q1020=
200805071250 METAR ESMX 071250Z 30004KT 240V350 CAVOK 21/03 Q1021=
200805071220 METAR ESMX 071220Z 30008KT CAVOK 21/03 Q1021=
200805071150 METAR ESMX 071150Z VRB04KT CAVOK 21/03 Q1021=
200805071120 METAR ESMX 071120Z 35005KT 300V030 CAVOK 20/03 Q1021=
200805071020 METAR ESMX 071020Z 29006KT CAVOK 20/02 Q1022=
200805070950 METAR ESMX 070950Z 32006KT 250V020 CAVOK 19/02 Q1022=
200805070920 METAR ESMX 070920Z 34007KT 290V030 CAVOK 19/03 Q1022=
200805070850 METAR ESMX 070850Z 27007KT CAVOK 18/04 Q1022=
200805070820 METAR ESMX 070820Z 32006KT 290V350 CAVOK 18/03 Q1022=
200805070750 METAR ESMX 070750Z 30003KT 260V020 CAVOK 17/06 Q1022=
200805070720 METAR ESMX 070720Z 34003KT 310V020 CAVOK 16/06 Q1023=
200805070650 METAR ESMX 070650Z 34003KT 270V050 CAVOK 15/07 Q1023=
200805070620 METAR ESMX 070620Z VRB02KT CAVOK 14/06 Q1023=
200805070550 METAR ESMX 070550Z 00000KT CAVOK 14/07 Q1023=
200805070520 METAR ESMX 070520Z 00000KT CAVOK 13/07 Q1023=
200805070450 METAR ESMX 070450Z 30001KT CAVOK 10/07 Q1023=
200805070420 METAR ESMX 070420Z 19002KT CAVOK 07/06 Q1023=
200805070350 METAR ESMX 070350Z 00000KT CAVOK 05/04 Q1023=
200805070320 METAR ESMX 070320Z AUTO 27002KT 9999NDV NCD 05/04 Q1023=
200805070250 METAR ESMX 070250Z AUTO 00000KT 9999NDV NCD 05/04 Q1023=
200805070220 METAR ESMX 070220Z AUTO 00000KT 9999NDV NCD 06/04 Q1024=
200805070150 METAR ESMX 070150Z AUTO 00000KT 9999NDV NCD 05/03 Q1024=
200805070120 METAR ESMX 070120Z AUTO 19001KT 9999NDV FEW082/// 06/04 Q1024=
200805070050 METAR ESMX 070050Z AUTO 27002KT 9999NDV BKN077/// 06/04 Q1024=
200805070020 METAR ESMX 070020Z AUTO VRB01KT 9999NDV NCD 05/03 Q1024=
200805062350 METAR ESMX 062350Z 17001KT CAVOK 07/04 Q1024=
200805062320 METAR ESMX 062320Z 24001KT CAVOK 08/04 Q1024=
200805062250 METAR ESMX 062250Z 19003KT CAVOK 07/04 Q1024=
200805062220 METAR ESMX 062220Z 16002KT CAVOK 09/04 Q1024=
200805062150 METAR ESMX 062150Z 18004KT CAVOK 09/04 Q1025=
200805062120 METAR ESMX 062120Z 18005KT CAVOK 09/03 Q1025=
200805062050 METAR ESMX 062050Z 18006KT CAVOK 12/04 Q1025=
200805062020 METAR ESMX 062020Z 19006KT CAVOK 12/04 Q1025=
200805061950 METAR ESMX 061950Z 20006KT CAVOK 13/05 Q1025=
200805061920 METAR ESMX 061920Z 20006KT CAVOK 14/06 Q1025=
200805061850 METAR ESMX 061850Z 20008KT CAVOK 15/06 Q1025=
200805061820 METAR ESMX 061820Z 21008KT CAVOK 16/06 Q1025=
200805061750 METAR ESMX 061750Z 22007KT CAVOK 17/06 Q1025=
200805061720 METAR ESMX 061720Z VRB02KT CAVOK 19/04 Q1025=
200805061650 METAR ESMX 061650Z 22003KT 180V250 CAVOK 18/05 Q1025=
200805061620 METAR ESMX 061620Z VRB02KT CAVOK 19/04 Q1025=
200805061550 METAR ESMX 061550Z VRB01KT CAVOK 18/04 Q1026=
200805061520 METAR ESMX 061520Z 03003KT 330V060 CAVOK 18/04 Q1026=
200805061450 METAR ESMX 061450Z 02003KT CAVOK 18/03 Q1026=
200805061420 METAR ESMX 061420Z 08004KT 030V110 CAVOK 19/03 Q1027=
200805061350 METAR ESMX 061350Z 05004KT 350V100 CAVOK 18/03 Q1027=
200805061320 METAR ESMX 061320Z VRB02KT CAVOK 18/03 Q1027=
200805061250 METAR ESMX 061250Z 01004KT 320V050 CAVOK 18/03 Q1027=
200805061220 METAR ESMX 061220Z 36006KT 320V040 CAVOK 20/03 Q1028=
200805061150 METAR ESMX 061150Z VRB03KT CAVOK 19/02 Q1028=
200805061120 METAR ESMX 061120Z 01004KT 300V110 CAVOK 18/02 Q1028=
200805061050 METAR ESMX 061050Z 03003KT 320V130 CAVOK 18/03 Q1028=
200805061020 METAR ESMX 061020Z 33006KT CAVOK 19/04 Q1028=
200805060950 METAR ESMX 060950Z 03005KT CAVOK 18/04 Q1028=
200805060920 METAR ESMX 060920Z VRB04KT 9999 FEW047 18/05 Q1029=
200805060850 METAR ESMX 060850Z 08004KT 9999 FEW040 17/06 Q1029=
200805060820 METAR ESMX 060820Z VRB03KT CAVOK 16/06 Q1029=
200805060750 METAR ESMX 060750Z VRB03KT CAVOK 16/06 Q1029=
200805060720 METAR ESMX 060720Z 00000KT CAVOK 16/06 Q1029=
200805060650 METAR ESMX 060650Z VRB02KT CAVOK 14/06 Q1029=
200805060620 METAR ESMX 060620Z VRB03KT CAVOK 13/06 Q1029=
200805060550 METAR ESMX 060550Z 00000KT CAVOK 12/06 Q1029=
200805060520 METAR ESMX 060520Z 00000KT CAVOK 11/09 Q1029=
200805060450 METAR ESMX 060450Z 00000KT CAVOK 08/08 Q1029=
200805060420 METAR ESMX 060420Z 00000KT 9999 MIFG FEW200 05/04 Q1029=
200805060350 METAR ESMX 060350Z 19001KT 9999 R19/P2000U BCFG FEW200 05/04 Q1029=
200805060320 METAR ESMX 060320Z AUTO 00000KT 1100NDV R01/P2000D R19/P2000D NCD 04/04 Q1029=
200805060250 METAR ESMX 060250Z AUTO VRB01KT 5000NDV BCFG NCD 05/05 Q1029=
200805060220 METAR ESMX 060220Z AUTO 00000KT 9999NDV NCD 05/05 Q1029=
200805060150 METAR ESMX 060150Z AUTO 03001KT 9999NDV NCD 05/04 Q1029=
200805060120 METAR ESMX 060120Z AUTO 00000KT 9999NDV NCD 05/04 Q1029=
200805060050 METAR ESMX 060050Z AUTO 00000KT 9999NDV NCD 06/05 Q1029=
200805060020 METAR ESMX 060020Z 00000KT CAVOK 07/05 Q1029=
200805052350 METAR ESMX 052350Z 07002KT CAVOK 08/06 Q1028=
200805052320 METAR ESMX 052320Z 35001KT CAVOK 09/07 Q1029=
200805052250 METAR ESMX 052250Z 05001KT CAVOK 10/07 Q1028=
200805052220 METAR ESMX 052220Z 36002KT CAVOK 10/07 Q1028=
200805052150 METAR ESMX 052150Z 04002KT CAVOK 12/07 Q1028=
200805052120 METAR ESMX 052120Z VRB01KT CAVOK 13/07 Q1028=
200805052050 METAR ESMX 052050Z 10003KT 050V120 CAVOK 14/07 Q1028=
200805052020 METAR ESMX 052020Z 08004KT 050V120 CAVOK 14/07 Q1028=
200805051950 METAR ESMX 051950Z 08004KT 050V120 CAVOK 15/07 Q1028=
200805051920 METAR ESMX 051920Z 06003KT 020V090 CAVOK 16/07 Q1028=
200805051850 METAR ESMX 051850Z 08004KT 050V120 CAVOK 16/07 Q1027=
200805051820 METAR ESMX 051820Z 32005KT CAVOK 17/02 Q1027=
200805051750 METAR ESMX 051750Z 34005KT CAVOK 18/04 Q1027=
200805051720 METAR ESMX 051720Z VRB02KT CAVOK 18/02 Q1027=
200805051650 METAR ESMX 051650Z 09001KT CAVOK 18/03 Q1027=
200805051620 METAR ESMX 051620Z 07003KT CAVOK 18/02 Q1027=
200805051550 METAR ESMX 051550Z 02005KT 340V070 CAVOK 19/02 Q1027=
200805051520 METAR ESMX 051520Z 02005KT CAVOK 20/02 Q1027=
200805051450 METAR ESMX 051450Z 01003KT CAVOK 20/03 Q1027=
200805051420 METAR ESMX 051420Z 36003KT CAVOK 19/01 Q1028=
200805051350 METAR ESMX 051350Z VRB02KT CAVOK 20/01 Q1028=
200805051320 METAR ESMX 051320Z 32005KT CAVOK 20/01 Q1028=
200805051250 METAR ESMX 051250Z VRB06KT CAVOK 19/01 Q1028=
200805051220 METAR ESMX 051220Z 33008KT CAVOK 19/03 Q1028=
200805051150 METAR ESMX 051150Z 26004KT CAVOK 19/03 Q1028=
200805051120 METAR ESMX 051120Z 35007KT CAVOK 18/02 Q1028=
200805051050 METAR ESMX 051050Z 31007KT 280V340 CAVOK 18/04 Q1028=
200805051020 METAR ESMX 051020Z 31007KT 280V360 CAVOK 19/03 Q1028=
200805050950 METAR ESMX 050950Z 31006KT CAVOK 18/04 Q1028=
200805050920 METAR ESMX 050920Z 27005KT CAVOK 18/05 Q1029=
200805050850 METAR ESMX 050850Z VRB04KT CAVOK 17/04 Q1029=
200805050820 METAR ESMX 050820Z VRB02KT CAVOK 18/04 Q1029=
200805050750 METAR ESMX 050750Z VRB02KT CAVOK 17/04 Q1029=
200805050720 METAR ESMX 050720Z VRB01KT CAVOK 16/05 Q1029=
200805050650 METAR ESMX 050650Z VRB02KT CAVOK 14/06 Q1029=
200805050620 METAR ESMX 050620Z VRB02KT CAVOK 13/08 Q1028=
200805050550 METAR ESMX 050550Z VRB02KT CAVOK 11/09 Q1028=
200805050520 METAR ESMX 050520Z 36002KT CAVOK 09/09 Q1028=
200805050450 METAR ESMX 050450Z 00000KT CAVOK 06/06 Q1028=
200805050420 METAR ESMX 050420Z 01001KT 0900 R01/1400 R19/2000 BCFG NSC 04/03 Q1028=
200805050350 METAR ESMX 050350Z 00000KT 0700 R01/P2000 R19/P2000 BCFG NSC 03/03 Q1028=
200805050320 METAR ESMX 050320Z AUTO 00000KT 0250NDV R01/0600 R19/P2000D FG NCD 03/03 Q1028=
200805050250 METAR ESMX 050250Z AUTO 00000KT 0400NDV R01/P2000U R19/0900V1700 FG NCD 03/03 Q1028=
200805050220 METAR ESMX 050220Z AUTO 00000KT 0100NDV R01/P2000U R19/0300V0500 FG NCD 03/03 Q1028=
200805050150 METAR ESMX 050150Z AUTO 00000KT 6000NDV NCD 03/03 Q1028=
200805050120 METAR ESMX 050120Z AUTO 00000KT 0750NDV R01/P2000D R19/P2000D FG NCD 04/04 Q1028=
200805050050 METAR ESMX 050050Z AUTO 00000KT 1500NDV NCD 04/04 Q1028=
200805050020 METAR ESMX 050020Z 00000KT 9999 R01/P2000D R19/P2000U BCFG NSC 05/04 Q1028=
200805042350 METAR ESMX 042350Z 00000KT CAVOK 05/04 Q1028=
200805042320 METAR ESMX 042320Z 00000KT CAVOK 06/05 Q1028=
200805042250 METAR ESMX 042250Z 00000KT CAVOK 06/06 Q1028=
200805042220 METAR ESMX 042220Z 00000KT CAVOK 07/06 Q1027=
200805042150 METAR ESMX 042150Z 00000KT CAVOK 07/07 Q1028=
200805042120 METAR ESMX 042120Z 00000KT CAVOK 08/07 Q1027=
200805042050 METAR ESMX 042050Z 00000KT CAVOK 08/07 Q1027=
200805042020 METAR ESMX 042020Z 00000KT CAVOK 09/07 Q1027=
200805041950 METAR ESMX 041950Z 00000KT CAVOK 10/08 Q1027=
200805041920 METAR ESMX 041920Z VRB01KT CAVOK 10/08 Q1027=
200805041850 METAR ESMX 041850Z 02001KT CAVOK 12/08 Q1027=
200805041820 METAR ESMX 041820Z 00000KT CAVOK 14/08 Q1027=
200805041750 METAR ESMX 041750Z VRB01KT CAVOK 15/07 Q1026=
200805041720 METAR ESMX 041720Z VRB02KT CAVOK 17/05 Q1026=
200805041650 METAR ESMX 041650Z 15005KT CAVOK 17/07 Q1026=
200805041620 METAR ESMX 041620Z 16005KT CAVOK 17/07 Q1026=
200805041550 METAR ESMX 041550Z 01003KT CAVOK 18/07 Q1026=
200805041520 METAR ESMX 041520Z 02009KT 350V050 CAVOK 18/06 Q1026=
200805041450 METAR ESMX 041450Z 31007KT 9999 FEW046 SCT100 18/06 Q1026=
200805041420 METAR ESMX 041420Z 29006KT CAVOK 19/06 Q1026=
200805041350 METAR ESMX 041350Z 28006KT CAVOK 17/06 Q1026=
200805041320 METAR ESMX 041320Z 26003KT 9999 FEW045 BKN085 17/05 Q1027=
200805041250 METAR ESMX 041250Z 27003KT CAVOK 17/06 Q1027=
200805041220 METAR ESMX 041220Z 26003KT CAVOK 17/06 Q1027=
200805041150 METAR ESMX 041150Z 03004KT 9999 SCT043 17/06 Q1027=
200805041120 METAR ESMX 041120Z 03004KT 9999 SCT042 18/06 Q1027=
200805041050 METAR ESMX 041050Z 04004KT 9999 SCT040 17/05 Q1027=
200805041020 METAR ESMX 041020Z 03005KT 9999 SCT035 17/06 Q1027=
200805040950 METAR ESMX 040950Z 34003KT 9999 SCT033 16/07 Q1027=
200805040920 METAR ESMX 040920Z 34003KT 9999 SCT032 15/07 Q1027=
200805040850 METAR ESMX 040850Z 35004KT 9999 SCT030 15/07 Q1027=
200805040820 METAR ESMX 040820Z 03003KT 9999 SCT027 15/08 Q1027=
200805040750 METAR ESMX 040750Z 05004KT 9999 SCT025 14/08 Q1027=
200805040720 METAR ESMX 040720Z 36004KT 9999 FEW022 14/08 Q1027=
200805040650 METAR ESMX 040650Z AUTO 36003KT 310V030 9999NDV NCD 13/08 Q1027=
200805040620 METAR ESMX 040620Z AUTO VRB02KT 9999NDV SCT100/// 11/08 Q1027=
200805040550 METAR ESMX 040550Z AUTO VRB02KT 9999NDV BKN100/// 10/09 Q1027=
200805040520 METAR ESMX 040520Z AUTO 35002KT 9999NDV BKN100/// 09/08 Q1027=
200805040450 METAR ESMX 040450Z AUTO 34003KT 9999NDV BKN099/// 09/08 Q1027=
200805040420 METAR ESMX 040420Z AUTO 00000KT 8000NDV BR BKN099/// 08/08 Q1027=
200805040350 METAR ESMX 040350Z AUTO 31002KT 7000NDV BR FEW086/// BKN098/// 07/06 Q1027=
200805040320 METAR ESMX 040320Z AUTO 00000KT 5000NDV BR SCT085/// OVC099/// 06/06 Q1027=
200805040250 METAR ESMX 040250Z AUTO VRB01KT 7000NDV BR FEW086/// OVC100/// 07/06 Q1027=
200805040220 METAR ESMX 040220Z AUTO VRB01KT 6000NDV BR OVC089/// 06/06 Q1027=
200805040150 METAR ESMX 040150Z AUTO 00000KT 4500NDV BKN093/// 06/06 Q1027=
200805040120 METAR ESMX 040120Z AUTO 00000KT 0650NDV R01/P2000U R19/P2000D BKN100/// 06/06 Q1027=
200805040050 METAR ESMX 040050Z AUTO 30001KT 5000NDV BKN100/// 06/06 Q1027=
200805040020 METAR ESMX 040020Z AUTO 29002KT 1900NDV BKN100/// 06/05 Q1027=
200805032350 METAR ESMX 032350Z AUTO 00000KT 0250NDV R01/P2000U R19/0650V1100 BCFG FEW061/// SCT100/// 07/07 Q1026=
200805032320 METAR ESMX 032320Z AUTO 27001KT 0450NDV R01/P2000D R19/0900VP2000U FEW062/// BKN099/// 06/06 Q1027=
200805032250 METAR ESMX 032250Z AUTO 00000KT 0350NDV R01/P2000U R19/0800V1500U BKN098/// 08/07 Q1026=
200805032220 METAR ESMX 032220Z AUTO 00000KT 0250NDV R01/P2000D R19/0650V1400N BKN098/// 08/08 Q1026=
200805032150 METAR ESMX 032150Z AUTO 00000KT 0650NDV R01/P2000D R19/P2000U FG OVC097/// 09/08 Q1026=
200805032120 METAR ESMX 032120Z AUTO 00000KT 2000NDV BR OVC096/// 09/09 Q1026=
200805032050 METAR ESMX 032050Z AUTO 17001KT 9999NDV OVC094/// 10/09 Q1026=
200805032020 METAR ESMX 032020Z AUTO 00000KT 4800NDV BKN095/// 09/09 Q1026=
200805031950 METAR ESMX 031950Z AUTO VRB01KT 9999NDV BKN096/// 10/09 Q1026 REDZ=
200805031920 METAR ESMX 031920Z AUTO 27003KT 230V290 9999NDV -RA FEW027/// SCT035/// BKN055/// 11/08 Q1026=
200805031850 METAR ESMX 031850Z AUTO 00000KT 9999NDV FEW041/// OVC050/// 12/08 Q1026=
200805031820 METAR ESMX 031820Z AUTO VRB02KT 9999NDV FEW043/// BKN083/// 13/08 Q1026=
200805031750 METAR ESMX 031750Z AUTO VRB02KT 9999NDV FEW046/// SCT061/// OVC078/// 13/08 Q1026=
200805031720 METAR ESMX 031720Z AUTO 08003KT 040V110 9999NDV NCD 13/07 Q1025=
200805031650 METAR ESMX 031650Z AUTO 05004KT 360V100 9999NDV FEW044/// 14/07 Q1025=
200805031620 METAR ESMX 031620Z AUTO 03006KT 350V070 9999NDV FEW056/// SCT082/// 15/06 Q1025=
200805031550 METAR ESMX 031550Z AUTO 34005KT 9999NDV FEW059/// BKN079/// 15/05 Q1025=
200805031520 METAR ESMX 031520Z AUTO 01009KT 340V050 9999NDV FEW022/// BKN050/// BKN066/// 14/07 Q1025=
200805031450 METAR ESMX 031450Z AUTO 03005KT 350V080 9999NDV FEW049/// BKN077/// 15/06 Q1025=
200805031420 METAR ESMX 031420Z AUTO 02005KT 350V050 9999NDV FEW038/// SCT053/// BKN076/// 15/06 Q1025 RERA REDZ=
200805031350 METAR ESMX 031350Z AUTO 02006KT 350V050 9999NDV FEW041/// OVC067/// 14/06 Q1025=
200805031320 METAR ESMX 031320Z AUTO 36007KT 330V030 9999NDV OVC061/// 14/06 Q1025=
200805031250 METAR ESMX 031250Z AUTO 36008KT 9999NDV FEW041/// OVC057/// 14/06 Q1025=
200805031220 METAR ESMX 031220Z AUTO 01007KT 340V040 9999NDV FEW044/// BKN056/// 15/05 Q1025=
200805031150 METAR ESMX 031150Z AUTO 31007KT 9999NDV FEW048/// BKN054/// 14/05 Q1025=
200805031120 METAR ESMX 031120Z AUTO 35007KT 290V030 9999NDV FEW033/// SCT044/// 14/05 Q1025=
200805031050 METAR ESMX 031050Z AUTO 31004KT 220V020 9999NDV FEW031/// 14/06 Q1025=
200805031020 METAR ESMX 031020Z AUTO 33006KT 290V360 9999NDV SCT074/// 13/06 Q1025=
200805030950 METAR ESMX 030950Z AUTO 29005KT 250V320 9999NDV FEW075/// 13/07 Q1025=
200805030920 METAR ESMX 030920Z AUTO 29006KT 260V330 9999NDV BKN074/// 12/06 Q1025=
200805030850 METAR ESMX 030850Z AUTO 29006KT 250V340 9999NDV OVC068/// 11/05 Q1025=
200805030820 METAR ESMX 030820Z AUTO 31005KT 290V350 9999NDV BKN072/// 11/05 Q1025=
200805030750 METAR ESMX 030750Z AUTO 30005KT 270V340 9999NDV SCT045/// 10/06 Q1025=
200805030720 METAR ESMX 030720Z AUTO 28007KT 9999NDV SCT044/// 08/06 Q1024=
200805030650 METAR ESMX 030650Z AUTO 27007KT 9999NDV NCD 09/06 Q1024=
200805030620 METAR ESMX 030620Z AUTO 29005KT 250V330 9999NDV SCT032/// 08/06 Q1024=
200805030550 METAR ESMX 030550Z AUTO 29005KT 9999NDV SCT030/// OVC036/// 07/06 Q1024=
200805030520 METAR ESMX 030520Z AUTO 29004KT 260V330 9999NDV SCT031/// BKN037/// BKN043/// 06/05 Q1023=
200805030450 METAR ESMX 030450Z AUTO 29003KT 9999NDV BKN033/// 06/05 Q1023=
200805030420 METAR ESMX 030420Z AUTO VRB02KT 9999NDV FEW030/// 06/05 Q1023=
200805030350 METAR ESMX 030350Z AUTO 27003KT 9999NDV NCD 05/04 Q1023=
200805030320 METAR ESMX 030320Z AUTO 25005KT 9999NDV NCD 05/04 Q1022=
200805030250 METAR ESMX 030250Z AUTO 26003KT 9999NDV BKN014/// 07/06 Q1022=
200805030220 METAR ESMX 030220Z AUTO 27003KT 240V300 9999NDV OVC014/// 07/06 Q1022=
200805030150 METAR ESMX 030150Z AUTO 28003KT 9999NDV FEW015/// OVC018/// 06/05 Q1022=
200805030120 METAR ESMX 030120Z AUTO 29003KT 9999NDV BKN019/// 07/06 Q1022=
200805030050 METAR ESMX 030050Z AUTO 29003KT 9999NDV BKN019/// 07/06 Q1022=
200805030020 METAR ESMX 030020Z AUTO 28003KT 9999NDV BKN024/// 07/06 Q1022=
200805022350 METAR ESMX 022350Z AUTO 29003KT 9999NDV FEW023/// SCT034/// BKN085/// 07/06 Q1021=
200805022320 METAR ESMX 022320Z AUTO 30003KT 9999NDV FEW023/// BKN086/// 08/06 Q1021=
200805022250 METAR ESMX 022250Z AUTO 28003KT 9999NDV BKN083/// 08/06 Q1021=
200805022220 METAR ESMX 022220Z AUTO 28003KT 9999NDV SCT043/// OVC074/// 08/06 Q1021=
200805022150 METAR ESMX 022150Z AUTO 28003KT 9999NDV SCT041/// BKN074/// OVC086/// 07/06 Q1021=
200805022120 METAR ESMX 022120Z AUTO 00000KT 9999NDV FEW042/// BKN086/// 07/06 Q1021=
200805022050 METAR ESMX 022050Z AUTO 01002KT 9999NDV BKN085/// 08/06 Q1021=
200805022020 METAR ESMX 022020Z AUTO 01004KT 9999NDV OVC078/// 09/07 Q1021=
200805021950 METAR ESMX 021950Z AUTO 01005KT 9999NDV BKN078/// 09/07 Q1020=
200805021920 METAR ESMX 021920Z AUTO 36004KT 330V030 9999NDV BKN079/// 09/07 Q1020=
200805021850 METAR ESMX 021850Z AUTO 02004KT 9999NDV FEW043/// SCT049/// OVC078/// 10/07 Q1020=
200805021820 METAR ESMX 021820Z AUTO 03004KT 9999NDV FEW045/// OVC076/// 10/07 Q1020=
200805021750 METAR ESMX 021750Z 03004KT 360V060 CAVOK 11/07 Q1020=
200805021720 METAR ESMX 021720Z 01006KT CAVOK 11/07 Q1020=
200805021650 METAR ESMX 021650Z 36006KT CAVOK 11/07 Q1019=
200805021620 METAR ESMX 021620Z 01007KT CAVOK 12/07 Q1019=
200805021550 METAR ESMX 021550Z 36008KT CAVOK 12/07 Q1019=
200805021520 METAR ESMX 021520Z 36009KT 9999 FEW030 BKN070 12/07 Q1019=
200805021450 METAR ESMX 021450Z 36009KT 9999 FEW030 BKN060 13/07 Q1019=
200805021420 METAR ESMX 021420Z 36007KT 9999 SCT030 BKN060 13/08 Q1019=
200805021350 METAR ESMX 021350Z 34010KT 310V010 9999 SCT025 BKN060 12/07 Q1019=
200805021320 METAR ESMX 021320Z 34011KT 310V020 9999 SCT020 BKN040 13/08 Q1019=
200805021250 METAR ESMX 021250Z 32009KT 9999 SCT020 BKN030 11/07 Q1019=
200805021220 METAR ESMX 021220Z 30009KT 9999 SCT020 BKN025 12/07 Q1019=
200805021150 METAR ESMX 021150Z 32011KT 260V350 9999 SCT020 BKN040 12/08 Q1018=
200805021120 METAR ESMX 021120Z 31011KT 9999 FEW016 BKN030 12/08 Q1018=
200805021050 METAR ESMX 021050Z 31009KT 9999 FEW014 SCT025 BKN035 11/08 Q1018=
200805021020 METAR ESMX 021020Z 30009KT 9999 FEW016 SCT020 BKN060 11/08 Q1018=
200805020950 METAR ESMX 020950Z 32009KT 290V360 9999 -RA FEW018 SCT026 BKN055 11/08 Q1018=
200805020920 METAR ESMX 020920Z 30009KT 270V360 9999 FEW015 BKN020 BKN055 10/08 Q1018=
200805020850 METAR ESMX 020850Z 32009KT 290V350 9999 FEW014 BKN020 11/08 Q1017=
200805020820 METAR ESMX 020820Z 31007KT 270V340 9999 FEW009 SCT013 BKN021 11/09 Q1017=
200805020750 METAR ESMX 020750Z 31008KT 9999 FEW009 SCT015 BKN022 10/08 Q1017 RERA=
200805020720 METAR ESMX 020720Z 30007KT 280V340 9999 FEW009 SCT011 BKN014 10/09 Q1017=
200805020650 METAR ESMX 020650Z 29007KT 260V330 9999 FEW006 SCT008 OVC010 10/09 Q1017=
200805020620 METAR ESMX 020620Z 29007KT 9999 -RA FEW006 BKN007 OVC009 09/08 Q1017=
200805020550 METAR ESMX 020550Z 30006KT 9999 -RA FEW004 BKN007 09/08 Q1016=
200805020520 METAR ESMX 020520Z 29005KT 9999 -RA SCT006 BKN050 09/09 Q1016=
200805020450 METAR ESMX 020450Z 30005KT 9999 -RA SCT008 BKN050 09/08 Q1016=
200805020420 METAR ESMX 020420Z 31004KT 9999 -RA FEW006 BKN008 09/08 Q1016=
200805020350 METAR ESMX 020350Z 30004KT 9999 -RA BKN004 OVC007 09/08 Q1015=
200805020320 METAR ESMX 020320Z 28004KT 9999 -RA FEW005 BKN006 OVC009 09/08 Q1015 REDZ=
200805020250 METAR ESMX 020250Z AUTO 30004KT 9999NDV -RA FEW005/// OVC006/// 09/08 Q1015 REDZ=
200805020220 METAR ESMX 020220Z AUTO VRB02KT 9999NDV -RA OVC004/// 09/09 Q1015 REDZ=
200805020150 METAR ESMX 020150Z AUTO 31004KT 270V340 9999NDV -DZ FEW004/// SCT005/// BKN007/// 09/09 Q1014 RERA=
200805020120 METAR ESMX 020120Z AUTO 28007KT 9000NDV -RA FEW049/// SCT056/// 09/09 Q1014 REDZ=
200805020050 METAR ESMX 020050Z AUTO 29006KT 9000NDV -RA FEW010/// BKN014/// OVC019/// 09/09 Q1014=
200805020020 METAR ESMX 020020Z 32005KT 9000 -RA FEW009 BKN011 OVC015 09/09 Q1014=
200805012350 METAR ESMX 012350Z 35003KT 1800 RA FEW001 SCT003 OVC005 10/09 Q1014=
200805012320 METAR ESMX 012320Z VRB01KT 1800 RA FEW002 OVC005 10/10 Q1014=
200805012250 METAR ESMX 012250Z VRB01KT 1300 R01/P2000N R19/P2000N -RA OVC005 10/09 Q1014 REDZ=
200805012220 METAR ESMX 012220Z 02002KT 1300 R01/P2000D R19/P2000D DZ BKN002 OVC006 10/10 Q1014 RERA=
200805012150 METAR ESMX 012150Z 00000KT 2200 -RA FEW002 SCT004 OVC006 10/10 Q1014 REDZ=
200805012120 METAR ESMX 012120Z VRB02KT 2200 RA OVC004 10/10 Q1014 REDZ=
200805012050 METAR ESMX 012050Z 00000KT 2300 DZ OVC004 10/10 Q1014 RERA=
200805012020 METAR ESMX 012020Z VRB02KT 2900 DZ OVC003 10/10 Q1013 RERA=
200805011950 METAR ESMX 011950Z 13003KT 3500 DZ OVC004 10/10 Q1013=
200805011920 METAR ESMX 011920Z VRB02KT 3700 -RA OVC005 10/10 Q1013 RERA=
200805011850 METAR ESMX 011850Z 12003KT 4600 -RA OVC006 10/10 Q1013 REDZ=
200805011820 METAR ESMX 011820Z VRB02KT 5000 -DZ OVC007 11/10 Q1013 RERA=
200805011750 METAR ESMX 011750Z 11003KT 070V160 6000 -RA OVC006 11/10 Q1012 REDZ=
200805011720 METAR ESMX 011720Z 11004KT 080V160 6000 -DZ FEW006 OVC008 11/10 Q1012=
200805011650 METAR ESMX 011650Z 11003KT 050V160 6000 -DZ OVC007 11/10 Q1012 RERA=
200805011620 METAR ESMX 011620Z 09004KT 050V140 7000 BR BKN007 OVC010 11/10 Q1012=
200805011550 METAR ESMX 011550Z 11005KT 040V150 8000 BR BKN009 BKN012 11/10 Q1012 RERA=
200805011520 METAR ESMX 011520Z 10005KT 040V150 7000 -RA FEW008 BKN012 11/10 Q1011=
200805011450 METAR ESMX 011450Z 09004KT 050V120 6000 -RA SCT012 BKN016 12/10 Q1011=
200805011420 METAR ESMX 011420Z 12007KT 070V170 9999 -RA BKN015 OVC020 13/10 Q1011=
200805011350 METAR ESMX 011350Z 10007KT 060V160 9999 BKN017 OVC022 13/09 Q1011=
200805011320 METAR ESMX 011320Z 10008KT 040V150 9999 BKN020 14/09 Q1011=
200805011250 METAR ESMX 011250Z 13007KT 070V190 9999 BKN020 BKN060 14/09 Q1011=
200805011220 METAR ESMX 011220Z 10006KT 060V160 9999 FEW019 SCT023 BKN048 14/09 Q1011=
