##########################################################
# Query made at 04/19/2024 21:07:16 UTC
# Time interval: from 12/01/2008 12:00  to 12/31/2008 12:59  UTC
##########################################################

##########################################################
# ESMX, Vaxjo (Sweden)
# WMO index: 02641. WIGOS ID: 0-20000-0-02648
# Latitude 56-51N. Longitude 014-50E. Altitude 199 m.
##########################################################

200812311250 METAR ESMX 311250Z 27007KT 250V310 9999 OVC007 M02/M04 Q1024=
200812311220 METAR ESMX 311220Z 27006KT 9000 BR OVC007 M02/M04 Q1024=
200812311150 METAR ESMX 311150Z 25005KT 210V280 9000 BR OVC010 M02/M04 Q1025=
200812311120 METAR ESMX 311120Z AUTO 27007KT 240V320 8000NDV BR OVC007/// M03/M04 Q1025=
200812311050 METAR ESMX 311050Z AUTO 27006KT 8000NDV BR OVC006/// M03/M04 Q1026=
200812311020 METAR ESMX 311020Z AUTO 27007KT 9000NDV BR OVC006/// M03/M04 Q1026=
200812310950 METAR ESMX 310950Z AUTO 26005KT 8000NDV BR OVC006/// M03/M04 Q1026=
200812310920 METAR ESMX 310920Z AUTO 27005KT 240V310 8000NDV BR OVC006/// M03/M04 Q1027=
200812310850 METAR ESMX 310850Z AUTO 25004KT 7000NDV BR OVC006/// M03/M04 Q1027=
200812310820 METAR ESMX 310820Z AUTO 26004KT 8000NDV BR OVC006/// M03/M04 Q1027=
200812310750 METAR ESMX 310750Z AUTO 26005KT 7000NDV BR OVC006/// M03/M04 Q1027=
200812310720 METAR ESMX 310720Z AUTO 27004KT 240V300 7000NDV BR OVC006/// M03/M04 Q1027=
200812310650 METAR ESMX 310650Z AUTO 26004KT 230V290 7000NDV BR OVC006/// M03/M04 Q1027=
200812310620 METAR ESMX 310620Z AUTO 27004KT 240V300 8000NDV BR OVC005/// M03/M04 Q1028=
200812310550 METAR ESMX 310550Z AUTO 26005KT 8000NDV BR OVC005/// M04/M04 Q1028=
200812310520 METAR ESMX 310520Z AUTO 27004KT 250V320 8000NDV BR OVC006/// M04/M04 Q1029=
200812310450 METAR ESMX 310450Z AUTO 27004KT 9000NDV OVC005/// M04/M05 Q1029=
200812310420 METAR ESMX 310420Z AUTO 28004KT 9999NDV OVC005/// M04/M05 Q1029=
200812310350 METAR ESMX 310350Z AUTO 27005KT 9999NDV OVC005/// M04/M04 Q1030=
200812310320 METAR ESMX 310320Z AUTO 27004KT 230V320 9999NDV OVC005/// M04/M04 Q1030=
200812310250 METAR ESMX 310250Z AUTO 26004KT 9999NDV OVC005/// M04/M05 Q1030=
200812310220 METAR ESMX 310220Z AUTO 26004KT 9999NDV OVC005/// M04/M05 Q1030=
200812310150 METAR ESMX 310150Z AUTO 26004KT 9999NDV OVC005/// M04/M05 Q1031=
200812310120 METAR ESMX 310120Z AUTO 24004KT 210V280 9999NDV OVC005/// M04/M05 Q1031=
200812310050 METAR ESMX 310050Z AUTO 25003KT 200V290 9999NDV OVC005/// M04/M04 Q1031=
200812310020 METAR ESMX 310020Z AUTO 25004KT 9999NDV OVC005/// M04/M04 Q1032=
200812302350 METAR ESMX 302350Z AUTO 24004KT 210V290 9999NDV OVC006/// M04/M04 Q1032=
200812302320 METAR ESMX 302320Z AUTO 24003KT 200V280 9999NDV OVC006/// M03/M04 Q1032=
200812302250 METAR ESMX 302250Z AUTO 25003KT 210V300 9999NDV OVC005/// M03/M04 Q1032=
200812302220 METAR ESMX 302220Z AUTO 31003KT 280V350 9999NDV OVC005/// M03/M04 Q1033=
200812302150 METAR ESMX 302150Z AUTO 25003KT 210V290 9999NDV OVC006/// M03/M04 Q1033=
200812302120 METAR ESMX 302120Z AUTO VRB02KT 9999NDV OVC005/// M03/M04 Q1033=
200812302050 METAR ESMX 302050Z AUTO 23003KT 9999NDV OVC006/// M03/M04 Q1033=
200812302020 METAR ESMX 302020Z AUTO 21004KT 9999NDV OVC005/// M03/M04 Q1033=
200812301950 METAR ESMX 301950Z AUTO 26003KT 9999NDV OVC006/// M03/M04 Q1034=
200812301920 METAR ESMX 301920Z AUTO 21003KT 9999NDV OVC006/// M03/M04 Q1034=
200812301850 METAR ESMX 301850Z AUTO VRB02KT 9999NDV OVC006/// M03/M04 Q1034=
200812301820 METAR ESMX 301820Z VRB02KT 9999 OVC007 M03/M04 Q1034=
200812301750 METAR ESMX 301750Z VRB02KT 9999 OVC008 M03/M04 Q1034=
200812301720 METAR ESMX 301720Z 00000KT 9999 OVC008 M03/M04 Q1034=
200812301650 METAR ESMX 301650Z 00000KT 9999 FEW007 OVC009 M03/M04 Q1034=
200812301620 METAR ESMX 301620Z VRB02KT 9999 OVC006 M03/M04 Q1035=
200812301550 METAR ESMX 301550Z 25002KT 9999 OVC005 M03/M04 Q1035=
200812301520 METAR ESMX 301520Z 20003KT 9999 OVC005 M03/M03 Q1035=
200812301450 METAR ESMX 301450Z 20002KT 9999 OVC004 M03/M03 Q1035=
200812301420 METAR ESMX 301420Z 18003KT 9999 OVC003 M03/M03 Q1035=
200812301350 METAR ESMX 301350Z 19003KT 9999 OVC003 M03/M03 Q1036=
200812301320 METAR ESMX 301320Z 25003KT 200V290 9999 OVC003 M03/M03 Q1036=
200812301250 METAR ESMX 301250Z 26003KT 8000 BR FEW002 OVC003 M02/M03 Q1036=
200812301220 METAR ESMX 301220Z 23002KT 7000 BR OVC003 M02/M03 Q1036=
200812301150 METAR ESMX 301150Z 26003KT 210V300 5000 BR BKN002 OVC005 M02/M03 Q1036=
200812301120 METAR ESMX 301120Z 26003KT 210V290 8000 BR OVC002 M02/M02 Q1037=
200812301050 METAR ESMX 301050Z 26005KT 9000 BR OVC002 M02/M02 Q1037=
200812301020 METAR ESMX 301020Z 27004KT 8000 BR OVC002 M02/M02 Q1037=
200812300950 METAR ESMX 300950Z 24003KT 210V280 9000 BR BKN003 BKN030 M02/M02 Q1037=
200812300920 METAR ESMX 300920Z 24003KT 9000 BR OVC002 M02/M02 Q1037=
200812300850 METAR ESMX 300850Z 22003KT 170V250 9000 BR OVC002 M02/M02 Q1037=
200812300820 METAR ESMX 300820Z 22003KT 8000 OVC001 M02/M02 Q1037=
200812300750 METAR ESMX 300750Z 19003KT 1200 R01/P2000U R19/P2000D OVC002 M02/M02 Q1037=
200812300720 METAR ESMX 300720Z 21003KT 170V230 1100 R01/P2000D R19/P2000D OVC002 M01/M02 Q1037=
200812300650 METAR ESMX 300650Z 21003KT 0900 R01/P2000U R19/P2000U FZFG VV002 M01/M02 Q1037=
200812300620 METAR ESMX 300620Z 19003KT 1200 R01/P2000N R19/P2000D BR OVC002 M01/M02 Q1037=
200812300550 METAR ESMX 300550Z 18003KT 2300 BR OVC002 M01/M02 Q1037=
200812300520 METAR ESMX 300520Z 17002KT 3000 BR OVC002 M02/M02 Q1037=
200812300450 METAR ESMX 300450Z AUTO 18001KT 4100NDV BR OVC001/// M02/M02 Q1037=
200812300420 METAR ESMX 300420Z AUTO 00000KT 9999NDV OVC002/// M02/M02 Q1038=
200812300350 METAR ESMX 300350Z AUTO 00000KT 9999NDV OVC004/// M02/M02 Q1038=
200812300320 METAR ESMX 300320Z AUTO 00000KT 9999NDV OVC005/// M02/M02 Q1038=
200812300250 METAR ESMX 300250Z AUTO 00000KT 9999NDV OVC027/// M02/M03 Q1038=
200812300220 METAR ESMX 300220Z AUTO 00000KT 9999NDV OVC027/// M02/M03 Q1038=
200812300150 METAR ESMX 300150Z AUTO 00000KT 9999NDV OVC028/// M02/M03 Q1038=
200812300120 METAR ESMX 300120Z AUTO 00000KT 9999NDV OVC029/// M03/M03 Q1038=
200812300050 METAR ESMX 300050Z AUTO 00000KT 9999NDV OVC030/// M02/M03 Q1038=
200812300020 METAR ESMX 300020Z VRB01KT 9999 OVC029 M02/M03 Q1038=
200812292350 METAR ESMX 292350Z 00000KT 9999 OVC029 M03/M03 Q1039=
200812292320 METAR ESMX 292320Z 00000KT 9999 OVC030 M03/M03 Q1039=
200812292250 METAR ESMX 292250Z 00000KT 9999 OVC030 M03/M03 Q1039=
200812292220 METAR ESMX 292220Z 00000KT 9999 OVC029 M03/M03 Q1039=
200812292150 METAR ESMX 292150Z 00000KT 9999 OVC030 M03/M03 Q1039=
200812292120 METAR ESMX 292120Z 18002KT 9999 OVC030 M03/M03 Q1039=
200812292050 METAR ESMX 292050Z 18002KT 9999 OVC031 M03/M04 Q1039=
200812292020 METAR ESMX 292020Z 00000KT 9999 OVC032 M04/M04 Q1039=
200812291950 METAR ESMX 291950Z 00000KT 9999 BKN031 M04/M04 Q1039=
200812291920 METAR ESMX 291920Z 00000KT 9999 BKN029 M03/M03 Q1039=
200812291850 METAR ESMX 291850Z 20001KT 9999 FEW020 BKN030 M03/M03 Q1039=
200812291820 METAR ESMX 291820Z 00000KT 9999 OVC028 M03/M03 Q1039=
200812291750 METAR ESMX 291750Z 18001KT 9999 OVC028 M03/M04 Q1039=
200812291720 METAR ESMX 291720Z 00000KT 9999 SCT030 M03/M03 Q1039=
200812291620 METAR ESMX 291620Z 00000KT 9999 OVC018 M02/M02 Q1039=
200812291550 METAR ESMX 291550Z 00000KT 9999 OVC018 M02/M02 Q1039=
200812291520 METAR ESMX 291520Z 00000KT 9999 OVC017 M02/M02 Q1039=
200812291450 METAR ESMX 291450Z 00000KT 9999 OVC017 M02/M02 Q1039=
200812291420 METAR ESMX 291420Z 00000KT 9999 OVC016 M02/M02 Q1039=
200812291350 METAR ESMX 291350Z 00000KT 9999 OVC016 M02/M02 Q1039=
200812291320 METAR ESMX 291320Z 00000KT 9999 OVC015 M02/M02 Q1039=
200812291220 METAR ESMX 291220Z 00000KT 9999 OVC015 M02/M03 Q1039=
200812291150 METAR ESMX 291150Z 00000KT 9999 OVC015 M03/M03 Q1040=
200812291120 METAR ESMX 291120Z 00000KT 9999 OVC016 M03/M03 Q1040=
200812291050 METAR ESMX 291050Z 00000KT 9999 OVC017 M03/M03 Q1040=
200812291020 METAR ESMX 291020Z 00000KT 9999 OVC018 M03/M04 Q1040=
200812290950 METAR ESMX 290950Z 00000KT 9999 OVC018 M04/M04 Q1040=
200812290920 METAR ESMX 290920Z 00000KT 9999 OVC017 M04/M04 Q1040=
200812290850 METAR ESMX 290850Z 00000KT 9999 OVC017 M04/M04 Q1040=
200812290820 METAR ESMX 290820Z 00000KT 9999 FEW002 OVC018 M04/M05 Q1040=
200812290750 METAR ESMX 290750Z 00000KT 9999 BKN001 OVC020 M05/M05 Q1040=
200812290720 METAR ESMX 290720Z 00000KT 9999 BKN001 OVC020 M05/M06 Q1039=
200812290650 METAR ESMX 290650Z 00000KT 9999 FEW001 BKN020 M05/M06 Q1039=
200812290620 METAR ESMX 290620Z 00000KT 8000 0500N R19/1500N BCFG SCT001 BKN020 M06/M06 Q1039=
200812290550 METAR ESMX 290550Z 00000KT 0200 R01/0800 R19/0800 FZFG VV002 M06/M07 Q1039=
200812290520 METAR ESMX 290520Z 00000KT 0150 R01/0750 R19/0500V0750D FZFG VV002 M06/M07 Q1039=
200812290450 METAR ESMX 290450Z 00000KT 0250 R01/0800 R19/0800V1100N FZFG VV002 M06/M06 Q1039=
200812290420 METAR ESMX 290420Z AUTO 00000KT 0200NDV R01/0900N R19/0800 FZFG VV000 M05/M06 Q1039=
200812290350 METAR ESMX 290350Z AUTO 00000KT 0200NDV R01/0800 R19/0800N FZFG VV000 M05/M05 Q1039 RESG RESN=
200812290320 METAR ESMX 290320Z AUTO VRB02KT 0150NDV R01/0800V1500U R19/0700 SG VV000 M04/M05 Q1039 RESN=
200812290250 METAR ESMX 290250Z AUTO 00000KT 0350NDV R01/1000V1500D R19/P2000U -SN VV001 M04/M05 Q1039 RESG=
200812290220 METAR ESMX 290220Z AUTO VRB01KT 0250NDV R01/1100N R19/1000D -SN VV001 M04/M05 Q1039 RESG=
200812290150 METAR ESMX 290150Z AUTO 00000KT 0250NDV R01/0900N R19/0900N SG VV001 M04/M05 Q1039 RESN=
200812290120 METAR ESMX 290120Z AUTO 00000KT 0200NDV R01/1000N R19/0800 SG VV000 M04/M04 Q1039=
200812290050 METAR ESMX 290050Z 01002KT 0200 R01/0650V0900 R19/0750N SG FZFG VV002 M04/M04 Q1039=
200812290020 METAR ESMX 290020Z VRB02KT 0150 R01/0650 R19/0650 FZFG VV002 M03/M04 Q1039=
200812282350 METAR ESMX 282350Z VRB02KT 0150 R01/0650N R19/0650 FZFG VV002 M03/M04 Q1039=
200812282320 METAR ESMX 282320Z VRB02KT 0150 R01/0650N R19/0650N FZFG VV002 M03/M04 Q1039=
200812282250 METAR ESMX 282250Z 36003KT 320V020 0150 R01/0650 R19/0800 FZFG VV002 M03/M04 Q1039=
200812282220 METAR ESMX 282220Z 35003KT 330V030 0150 R01/0650 R19/0650N FZFG VV002 M03/M04 Q1039=
200812282150 METAR ESMX 282150Z 36003KT 340V050 0250 R01/0750VP2000D R19/0900N=
200812282120 METAR ESMX 282120Z 02003KT 0350 R01/0900 R19/1100V1700U FZFG VV002 M03/M03 Q1040=
200812282050 METAR ESMX 282050Z 03004KT 350V070 0400 R01/0900VP2000U R19/1100VP2000U FZFG VV002 M03/M03 Q1040=
200812282020 METAR ESMX 282020Z 05004KT 030V100 0600 R01/1400VP2000D R19/P2000D=
200812281950 METAR ESMX 281950Z 04004KT 0550 R01/1300VP2000U R19/P2000U FZFG VV002 M03/M03 Q1039=
200812281920 METAR ESMX 281920Z 04003KT 360V080 0850 R01/P2000D R19/P2000D FZFG OVC002 M03/M03 Q1039=
200812281850 METAR ESMX 281850Z 03004KT 9999 FEW003 SCT007 M04/M05 Q1039=
200812281820 METAR ESMX 281820Z 02002KT 8000 BR SCT010 BKN015 M05/M05 Q1039=
200812281750 METAR ESMX 281750Z 02002KT 8000 FZMIFG BR SCT015 M05/M06 Q1039=
200812281720 METAR ESMX 281720Z 00000KT 6000 BR FEW003 SCT015 M05/M06 Q1038=
200812281650 METAR ESMX 281650Z VRB01KT 8000 FEW004 SCT015 M04/M05 Q1038=
200812281620 METAR ESMX 281620Z 00000KT 8000 BR SCT013 M04/M04 Q1038=
200812281550 METAR ESMX 281550Z 00000KT 9999 SCT013 BKN015 M04/M04 Q1038=
200812281520 METAR ESMX 281520Z 00000KT 9999 SCT012 BKN080 M04/M04 Q1038=
200812281450 METAR ESMX 281450Z 25001KT 9999 SCT012 BKN080 M03/M04 Q1038=
200812281420 METAR ESMX 281420Z 00000KT 9999 SCT012 BKN080 M03/M04 Q1038=
200812281350 METAR ESMX 281350Z 00000KT 9999 OVC012 M02/M03 Q1038=
200812281320 METAR ESMX 281320Z 32002KT 9999 BKN030 M02/M03 Q1038=
200812281250 METAR ESMX 281250Z 36002KT 9999 FEW005 BKN030 M02/M03 Q1038=
200812281220 METAR ESMX 281220Z 00000KT 9999 FEW005 SCT030 M02/M03 Q1038=
200812281150 METAR ESMX 281150Z 36003KT 330V040 9999 FEW030 M02/M03 Q1038=
200812281120 METAR ESMX 281120Z 36002KT CAVOK M03/M03 Q1038=
200812281050 METAR ESMX 281050Z 35003KT CAVOK M03/M03 Q1039=
200812281020 METAR ESMX 281020Z VRB01KT CAVOK M03/M04 Q1038=
200812280951 METAR COR ESMX 280951Z VRB01KT CAVOK M04/M04 Q1038=
200812280920 METAR ESMX 280920Z AUTO 02001KT 9999NDV NCD M05/M05 Q1038=
200812280850 METAR ESMX 280850Z AUTO 01002KT 9999NDV NCD M05/M05 Q1038=
200812280820 METAR ESMX 280820Z AUTO 01003KT 9999NDV NCD M07/M08 Q1038=
200812280750 METAR ESMX 280750Z AUTO 02003KT 9999NDV NCD M06/M07 Q1038=
200812280720 METAR ESMX 280720Z AUTO 00000KT 9999NDV NCD M06/M07 Q1038=
200812280650 METAR ESMX 280650Z AUTO 31002KT 9999NDV NCD M06/M07 Q1037=
200812280620 METAR ESMX 280620Z AUTO 31003KT 9999NDV NCD M06/M07 Q1037=
200812280550 METAR ESMX 280550Z AUTO 29002KT 9999NDV NCD M06/M07 Q1037=
200812280520 METAR ESMX 280520Z AUTO VRB01KT 9999NDV NCD M06/M06 Q1037=
200812280450 METAR ESMX 280450Z AUTO 32003KT 9999NDV NCD M05/M06 Q1038=
200812280420 METAR ESMX 280420Z AUTO 31002KT 9999NDV NCD M05/M05 Q1038=
200812280350 METAR ESMX 280350Z AUTO 30003KT 9999NDV NCD M05/M05 Q1038=
200812280320 METAR ESMX 280320Z AUTO 32003KT 1000NDV R01/P2000U R19/P2000U BR SCT002/// M04/M05 Q1038=
200812280250 METAR ESMX 280250Z AUTO VRB01KT 0550NDV R01/P2000N R19/P2000D BR BKN003/// M03/M04 Q1038=
200812280220 METAR ESMX 280220Z AUTO 33002KT 1700NDV BR OVC001/// M03/M04 Q1038=
200812280150 METAR ESMX 280150Z AUTO 32004KT 2200NDV BR OVC001/// M03/M03 Q1038=
200812280120 METAR ESMX 280120Z AUTO VRB02KT 8000NDV BR OVC001/// M03/M03 Q1038=
200812280050 METAR ESMX 280050Z AUTO 34003KT 9999NDV OVC001/// M02/M03 Q1038=
200812280020 METAR ESMX 280020Z AUTO 34004KT 9999NDV OVC001/// M02/M02 Q1038=
200812272350 METAR ESMX 272350Z AUTO 35005KT 8000NDV BR OVC001/// M02/M02 Q1038=
200812272320 METAR ESMX 272320Z AUTO 35005KT 6000NDV BR OVC001/// M02/M02 Q1038=
200812272250 METAR ESMX 272250Z AUTO 02004KT 340V040 7000NDV OVC001/// M02/M02 Q1038=
200812272220 METAR ESMX 272220Z AUTO 35004KT 8000NDV BR OVC001/// M02/M02 Q1038=
200812272150 METAR ESMX 272150Z AUTO 01004KT 330V030 9999NDV OVC001/// M02/M02 Q1038=
200812272120 METAR ESMX 272120Z AUTO 02004KT 340V040 9999NDV OVC002/// M02/M02 Q1038=
200812272050 METAR ESMX 272050Z AUTO 35005KT 9999NDV OVC001/// M02/M02 Q1038=
200812272020 METAR ESMX 272020Z AUTO 02005KT 9999NDV OVC002/// M02/M02 Q1038=
200812271950 METAR ESMX 271950Z AUTO 04005KT 9999NDV OVC003/// M02/M02 Q1038=
200812271920 METAR ESMX 271920Z AUTO 36004KT 9999NDV OVC004/// M02/M02 Q1038=
200812271850 METAR ESMX 271850Z AUTO 02004KT 330V050 9999NDV OVC004/// M01/M02 Q1038=
200812271820 METAR ESMX 271820Z AUTO 02006KT 9999NDV OVC004/// M01/M02 Q1038=
200812271750 METAR ESMX 271750Z AUTO 01006KT 9999NDV OVC004/// M01/M02 Q1038=
200812271720 METAR ESMX 271720Z AUTO 02005KT 9999NDV OVC004/// M01/M02 Q1038=
200812271650 METAR ESMX 271650Z AUTO 02006KT 9999NDV OVC004/// M01/M02 Q1038=
200812271620 METAR ESMX 271620Z AUTO 01005KT 9999NDV OVC005/// M00/M01 Q1037=
200812271550 METAR ESMX 271550Z AUTO 03006KT 9999NDV BKN005/// OVC008/// M00/M02 Q1037=
200812271450 METAR ESMX 271450Z AUTO 02006KT 9999NDV OVC007/// M00/M01 Q1037=
200812271420 METAR ESMX 271420Z AUTO 02006KT 9999NDV OVC007/// 00/M01 Q1037=
200812271350 METAR ESMX 271350Z AUTO 02006KT 340V050 9999NDV OVC008/// 00/M01 Q1037=
200812271320 METAR ESMX 271320Z AUTO 01005KT 9999NDV OVC010/// 00/M01 Q1037=
200812271250 METAR ESMX 271250Z AUTO 35005KT 9999NDV OVC012/// 00/M01 Q1037=
200812271220 METAR ESMX 271220Z AUTO 01006KT 9999NDV OVC012/// 00/M01 Q1037=
200812271150 METAR ESMX 271150Z AUTO 34004KT 300V010 9999NDV FEW010/// OVC014/// 00/00 Q1036=
200812271120 METAR ESMX 271120Z AUTO 32002KT 9999NDV OVC013/// 00/00 Q1036=
200812271050 METAR ESMX 271050Z AUTO 00000KT 9999NDV OVC010/// 00/00 Q1037=
200812271020 METAR ESMX 271020Z AUTO VRB02KT 9999NDV FEW009/// OVC010/// 00/00 Q1037=
200812270950 METAR ESMX 270950Z AUTO 36004KT 340V040 9999NDV OVC006/// 00/00 Q1037=
200812270920 METAR ESMX 270920Z AUTO 36005KT 9999NDV FEW006/// OVC007/// 00/00 Q1037=
200812270850 METAR ESMX 270850Z AUTO 34005KT 5000NDV BR FEW006/// OVC007/// 00/00 Q1037=
200812270820 METAR ESMX 270820Z AUTO VRB02KT 4100NDV BR OVC007/// 00/00 Q1037=
200812270750 METAR ESMX 270750Z AUTO VRB01KT 5000NDV BR FEW007/// OVC008/// 00/00 Q1037=
200812270720 METAR ESMX 270720Z AUTO VRB02KT 1800NDV FEW005/// SCT006/// OVC009/// 00/00 Q1037=
200812270650 METAR ESMX 270650Z AUTO 25002KT 2000NDV FEW001/// SCT005/// OVC009/// 00/00 Q1037=
200812270620 METAR ESMX 270620Z AUTO VRB02KT 0450NDV R01/1300V1800U R19/1700N FG VV002 00/00 Q1037=
200812270550 METAR ESMX 270550Z AUTO 22003KT 0350NDV R01/1300N R19/1200N FG VV001 00/00 Q1037=
200812270520 METAR ESMX 270520Z AUTO VRB02KT 0300NDV R01/1000N R19/1100N FG VV001 00/M00 Q1037=
200812270450 METAR ESMX 270450Z AUTO 22003KT 0350NDV R01/1200N R19/1300N FG VV001 00/M00 Q1037=
200812270420 METAR ESMX 270420Z AUTO 21003KT 0400NDV R01/1400N R19/1700D FZFG VV001 M00/M00 Q1037=
200812270350 METAR ESMX 270350Z AUTO 20004KT 0800NDV R01/P2000D R19/P2000D FZFG VV002 M00/M00 Q1038=
200812270320 METAR ESMX 270320Z AUTO 20004KT 1400NDV R01/P2000D R19/P2000D BR OVC001/// M00/M00 Q1038=
200812270250 METAR ESMX 270250Z AUTO 22004KT 2400NDV BR OVC001/// M00/M00 Q1038=
200812270220 METAR ESMX 270220Z AUTO 20004KT 3600NDV BR OVC001/// M00/M00 Q1038=
200812270150 METAR ESMX 270150Z AUTO 21003KT 4100NDV BR OVC003/// M00/M01 Q1038=
200812270050 METAR ESMX 270050Z AUTO 22003KT 5000NDV BR FEW002/// OVC013/// M00/M01 Q1039=
200812270020 METAR ESMX 270020Z AUTO 26003KT 4800NDV BR SCT002/// BKN004/// OVC013/// M01/M01 Q1039=
200812262350 METAR ESMX 262350Z AUTO VRB02KT 5000NDV BR OVC002/// M01/M01 Q1039=
200812262320 METAR ESMX 262320Z AUTO VRB02KT 5000NDV BR OVC002/// M01/M01 Q1040=
200812262250 METAR ESMX 262250Z AUTO 22003KT 5000NDV BR BKN002/// OVC010/// M01/M01 Q1040=
200812262220 METAR ESMX 262220Z AUTO 23002KT 6000NDV BR SCT002/// BKN009/// OVC010/// M01/M01 Q1040=
200812262150 METAR ESMX 262150Z AUTO 25003KT 6000NDV BR OVC003/// M01/M01 Q1040=
200812262120 METAR ESMX 262120Z AUTO 26003KT 5000NDV BR OVC004/// M01/M01 Q1041=
200812262050 METAR ESMX 262050Z AUTO 27001KT 7000NDV BR OVC004/// M01/M01 Q1041=
200812262020 METAR ESMX 262020Z AUTO VRB02KT 8000NDV BR OVC003/// M01/M01 Q1041=
200812261950 METAR ESMX 261950Z VRB02KT 9000 BR OVC003 M01/M01 Q1041=
200812261920 METAR ESMX 261920Z 28003KT 240V300 8000 BR OVC003 M01/M02 Q1041=
200812261850 METAR ESMX 261850Z 29003KT 250V330 8000 BR OVC003 M01/M02 Q1042=
200812261820 METAR ESMX 261820Z 28004KT 240V320 9999 BR OVC003 M01/M02 Q1042=
200812261720 METAR ESMX 261720Z 27002KT 8000 BR FEW002 BKN011 OVC081 M01/M02 Q1042=
200812261650 METAR ESMX 261650Z 25002KT 7000 BR OVC011 M01/M02 Q1042=
200812261620 METAR ESMX 261620Z VRB02KT 7000 BR OVC008 M01/M02 Q1042=
200812261550 METAR ESMX 261550Z VRB02KT 9000 SCT006 OVC009 M01/M02 Q1043=
200812261520 METAR ESMX 261520Z VRB02KT 9999 FEW004 SCT006 OVC008 M01/M02 Q1043=
200812261450 METAR ESMX 261450Z VRB01KT 9999 FEW004 OVC009 M01/M02 Q1043=
200812261420 METAR ESMX 261420Z 00000KT 9999 OVC008 M01/M02 Q1043=
200812261350 METAR ESMX 261350Z 00000KT 9999 FEW006 OVC007 M01/M02 Q1043=
200812261320 METAR ESMX 261320Z 33004KT 9999 BKN003 OVC005 M02/M02 Q1043=
200812261250 METAR ESMX 261250Z 31004KT 9999 BKN002 OVC004 M02/M02 Q1043=
200812261220 METAR ESMX 261220Z VRB02KT 9999 BR OVC002 M02/M02 Q1044=
200812261150 METAR ESMX 261150Z 32003KT 270V350 8000 BR OVC002 M02/M02 Q1044=
200812261120 METAR ESMX 261120Z VRB02KT 2800 BR OVC002 M02/M03 Q1044=
200812261050 METAR ESMX 261050Z 32003KT 5000 BR OVC002 M03/M03 Q1044=
200812261020 METAR ESMX 261020Z VRB02KT 5000 BR OVC002 M03/M03 Q1045=
200812260950 METAR ESMX 260950Z VRB02KT 4500 BR OVC002 M03/M03 Q1045=
200812260920 METAR ESMX 260920Z 26001KT 7000 BR OVC002 M03/M04 Q1045=
200812260850 METAR ESMX 260850Z VRB01KT 7000 BR FEW001 OVC002 M04/M04 Q1045=
200812260820 METAR ESMX 260820Z VRB02KT 4200 BR FEW001 OVC002 M04/M04 Q1045=
200812260750 METAR ESMX 260750Z AUTO 24002KT 9000NDV OVC001/// M04/M05 Q1045=
200812260650 METAR ESMX 260650Z AUTO 28001KT 9999NDV OVC002/// M04/M05 Q1045=
200812260620 METAR ESMX 260620Z AUTO VRB02KT 7000NDV OVC001/// M04/M05 Q1044=
200812260550 METAR ESMX 260550Z AUTO 27002KT 3700NDV OVC001/// M05/M05 Q1044 RESG RESN=
200812260520 METAR ESMX 260520Z AUTO VRB02KT 3500NDV FZUP OVC001/// M05/M05 Q1045=
200812260450 METAR ESMX 260450Z AUTO 26003KT 230V290 4100NDV OVC001/// M05/M05 Q1045=
200812260420 METAR ESMX 260420Z AUTO 27003KT 1000NDV R01/P2000N R19/P2000D OVC001/// M04/M05 Q1045=
200812260350 METAR ESMX 260350Z AUTO 23003KT 0800NDV R01/P2000U R19/P2000D FZFG OVC001/// M04/M05 Q1045 RESG RESN=
200812260320 METAR ESMX 260320Z AUTO 26003KT 220V280 0500NDV R01/1800U R19/1200VP2000D -SN OVC001/// M04/M05 Q1045 RESG=
200812260250 METAR ESMX 260250Z AUTO 27002KT 0450NDV R01/1000VP2000D R19/P2000D SG VV002 M04/M05 Q1045 RESN=
200812260220 METAR ESMX 260220Z AUTO VRB02KT 0450NDV R01/1200V1800U R19/P2000U SG VV001 M04/M05 Q1045 RESN=
200812260150 METAR ESMX 260150Z AUTO VRB02KT 0400NDV R01/1300U R19/1100VP2000U -SN VV001 M04/M05 Q1045 RESG=
200812260120 METAR ESMX 260120Z AUTO 25003KT 0650NDV R01/P2000U R19/P2000D FZUP VV001 M04/M04 Q1045=
200812260050 METAR ESMX 260050Z AUTO 30002KT 0350NDV R01/0900V1400D R19/P2000U=
200812260020 METAR ESMX 260020Z AUTO VRB02KT 0350NDV R01/1000V1500N R19/1200VP2000U -SN VV001 M04/M04 Q1046 RESG=
200812252350 METAR ESMX 252350Z AUTO VRB02KT 0350NDV R01/1000V1800D R19/P2000D SG VV002 M04/M04 Q1046 RESN=
200812252320 METAR ESMX 252320Z AUTO VRB01KT 0500NDV R01/1000VP2000D R19/P2000D=
200812252250 METAR ESMX 252250Z AUTO 00000KT 0300NDV R01/0900V1400D R19/1000V1500D FZFG VV001 M04/M04 Q1045=
200812252220 METAR ESMX 252220Z AUTO VRB01KT 0500NDV R01/1600U R19/1800D FZFG VV002 M03/M04 Q1045=
200812252150 METAR ESMX 252150Z AUTO 32003KT 260V350 0400NDV R01/1100V1600U R19/P2000U FZFG OVC001/// M03/M04 Q1045=
200812252120 METAR ESMX 252120Z AUTO VRB02KT 0350NDV R01/1200N R19/1400VP2000U=
200812252050 METAR ESMX 252050Z AUTO VRB01KT 0700NDV R01/P2000D R19/P2000D FZFG VV002 M04/M04 Q1045=
200812252020 METAR ESMX 252020Z AUTO VRB02KT 0400NDV R01/1300N R19/P2000U FZFG VV001 M03/M04 Q1044=
200812251950 METAR ESMX 251950Z AUTO 00000KT 0300NDV R01/1100N R19/P2000D FZFG OVC000/// M03/M03 Q1044=
200812251850 METAR ESMX 251850Z AUTO VRB02KT 0300NDV R01/0800V1200N R19/P2000D=
200812251750 METAR ESMX 251750Z AUTO 00000KT 1400NDV R01/P2000U R19/P2000D BR VV002 M03/M03 Q1044=
200812251720 METAR ESMX 251720Z AUTO VRB02KT 5000NDV BR OVC001/// M03/M03 Q1044=
200812251650 METAR ESMX 251650Z AUTO VRB02KT 9999NDV OVC001/// M02/M03 Q1044=
200812251620 METAR ESMX 251620Z AUTO VRB02KT 9999NDV OVC001/// M03/M03 Q1043=
200812251550 METAR ESMX 251550Z AUTO VRB02KT 9999NDV OVC001/// M03/M03 Q1043=
200812251520 METAR ESMX 251520Z AUTO VRB02KT 9999NDV OVC002/// M03/M03 Q1043=
200812251450 METAR ESMX 251450Z AUTO 35004KT 320V030 9999NDV OVC001/// M02/M03 Q1043=
200812251350 METAR ESMX 251350Z AUTO 03003KT 340V070 9999NDV OVC001/// M02/M03 Q1042=
200812251320 METAR ESMX 251320Z AUTO VRB02KT 9999NDV OVC001/// M02/M03 Q1041=
200812251250 METAR ESMX 251250Z AUTO 09003KT 030V120 9999NDV OVC001/// M02/M03 Q1041=
200812251150 METAR ESMX 251150Z AUTO 04003KT 340V080 9999NDV BR OVC001/// M03/M03 Q1041=
200812251050 METAR ESMX 251050Z AUTO 02005KT 9999NDV OVC002/// M02/M03 Q1040=
200812250950 METAR ESMX 250950Z AUTO 01005KT 330V070 9999NDV OVC002/// M02/M03 Q1040=
200812250850 METAR ESMX 250850Z AUTO 04006KT 9999NDV OVC002/// M02/M03 Q1040=
200812250750 METAR ESMX 250750Z AUTO 36005KT 9999NDV OVC002/// M02/M03 Q1039=
200812250650 METAR ESMX 250650Z AUTO 03006KT 9999NDV OVC003/// M02/M03 Q1038=
200812250550 METAR ESMX 250550Z AUTO 02007KT 9999NDV OVC004/// M01/M02 Q1037=
200812250520 METAR ESMX 250520Z AUTO 02008KT 9999NDV OVC005/// M01/M02 Q1037=
200812250450 METAR ESMX 250450Z AUTO 36007KT 9999NDV OVC006/// M01/M02 Q1036=
200812250420 METAR ESMX 250420Z AUTO 35005KT 9999NDV OVC007/// M01/M02 Q1036=
200812250350 METAR ESMX 250350Z AUTO 01005KT 9999NDV OVC007/// M01/M02 Q1035=
200812250320 METAR ESMX 250320Z AUTO 02005KT 9999NDV FEW006/// BKN007/// OVC009/// M01/M02 Q1035=
200812250250 METAR ESMX 250250Z AUTO 04003KT 9999NDV FEW007/// OVC027/// M01/M02 Q1035=
200812250220 METAR ESMX 250220Z AUTO 02006KT 9999NDV BKN007/// OVC028/// M01/M02 Q1035=
200812250150 METAR ESMX 250150Z AUTO 01006KT 9999NDV FEW006/// SCT009/// OVC021/// M01/M02 Q1034 RESN RESG=
200812250120 METAR ESMX 250120Z AUTO 02005KT 8000NDV -SN FEW006/// SCT008/// BKN010/// M01/M02 Q1034=
200812250050 METAR ESMX 250050Z AUTO 01007KT 9999NDV -SN FEW006/// OVC008/// M01/M01 Q1033 RESG=
200812242350 METAR ESMX 242350Z AUTO 02009KT 9999NDV BKN006/// OVC010/// M00/M01 Q1033=
200812242320 METAR ESMX 242320Z AUTO 36008KT 9999NDV FEW005/// SCT007/// OVC023/// M00/M01 Q1033=
200812242250 METAR ESMX 242250Z AUTO 36007KT 9999NDV SCT005/// OVC023/// 00/M00 Q1032=
200812242220 METAR ESMX 242220Z AUTO 35006KT 9999NDV FEW008/// OVC024/// 00/M00 Q1032=
200812242150 METAR ESMX 242150Z AUTO 00000KT 9000NDV BR FEW006/// SCT009/// OVC023/// M00/M01 Q1031=
200812242120 METAR ESMX 242120Z AUTO VRB01KT 8000NDV SG FEW003/// SCT011/// OVC024/// M01/M01 Q1031 RESN=
200812242050 METAR ESMX 242050Z AUTO 00000KT 3600NDV -SN FEW006/// SCT011/// OVC024/// M00/M00 Q1030=
200812242020 METAR ESMX 242020Z AUTO 35002KT 3000NDV -SN OVC008/// M00/M00 Q1030=
200812241950 METAR ESMX 241950Z AUTO 04003KT 3400NDV -SN FEW005/// BKN010/// OVC016/// 00/M00 Q1030 RERA REDZ REUP=
200812241920 METAR ESMX 241920Z AUTO 00000KT 5000NDV BKN005/// OVC014/// 00/M00 Q1029=
200812241850 METAR ESMX 241850Z AUTO VRB02KT 9999NDV BKN004/// OVC008/// 00/M00 Q1028=
200812241750 METAR ESMX 241750Z AUTO 03003KT 360V070 9999NDV FEW005/// OVC007/// 00/00 Q1027=
200812241650 METAR ESMX 241650Z AUTO VRB02KT 9000NDV -RA FEW003/// SCT005/// OVC011/// 00/00 Q1026 REDZ=
200812241550 METAR ESMX 241550Z AUTO 02004KT 7000NDV DZ OVC001/// 00/00 Q1025 RERA=
200812241450 METAR ESMX 241450Z VRB02KT 2900 -SN FEW008 BKN011 00/00 Q1024=
200812241420 METAR ESMX 241420Z 02003KT 3000 -SN SCT002 BKN005 OVC009 00/00 Q1024=
200812241350 METAR ESMX 241350Z 01004KT 0700 R01/1400N R19/1700N -SN FG VV002 00/00 Q1024=
200812241250 METAR ESMX 241250Z 35003KT 1100 R01/1800D R19/1700N BR OVC001 01/00 Q1023 RESN=
200812241220 METAR ESMX 241220Z VRB02KT 0750 R01/1200N R19/1100N -SN VV002 01/00 Q1022=
200812241152 METAR COR ESMX 241152Z VRB02KT 0800NDV R01/1200N R19/1200N -SN VV002 00/00 Q1022=
200812241050 METAR ESMX 241050Z AUTO 36001KT 1000NDV R01/1400VP2000D R19/1600D BR VV001 00/M00 Q1022=
200812241020 METAR ESMX 241020Z AUTO 32002KT 1900NDV BR OVC001/// 00/M00 Q1022=
200812240950 METAR ESMX 240950Z AUTO VRB02KT 2600NDV BR VV002 M00/M00 Q1021 RESG RESN=
200812240850 METAR ESMX 240850Z AUTO VRB01KT 2100NDV -SN OVC001/// M01/M01 Q1021 RESG=
200812240750 METAR ESMX 240750Z AUTO 13003KT 080V170 4900NDV SG FEW001/// SCT003/// BKN008/// M01/M01 Q1021 RESN=
200812240650 METAR ESMX 240650Z AUTO 12004KT 090V150 3300NDV SG OVC003/// M01/M01 Q1021 RESN=
200812240620 METAR ESMX 240620Z AUTO 12003KT 100V160 2400NDV -SN OVC002/// M01/M01 Q1022=
200812240550 METAR ESMX 240550Z AUTO VRB02KT 2200NDV -SN BKN002/// OVC007/// M01/M02 Q1022 RESG=
200812240520 METAR ESMX 240520Z AUTO 17002KT 3300NDV -SN FEW008/// OVC015/// M01/M02 Q1022 RESG=
200812240450 METAR ESMX 240450Z AUTO 16004KT 5000NDV BR BKN017/// BKN023/// M02/M02 Q1022 RESN RESG=
200812240420 METAR ESMX 240420Z AUTO 16004KT 130V190 3100NDV -SN FEW007/// SCT021/// BKN028/// M02/M03 Q1023=
200812240350 METAR ESMX 240350Z AUTO 18004KT 6000NDV BR FEW009/// SCT010/// BKN022/// M02/M03 Q1023=
200812240320 METAR ESMX 240320Z AUTO 18004KT 9999NDV BKN008/// OVC028/// M02/M04 Q1023=
200812240250 METAR ESMX 240250Z AUTO VRB02KT 9999NDV FEW009/// SCT030/// BKN053/// M02/M04 Q1024=
200812240220 METAR ESMX 240220Z AUTO VRB01KT 9999NDV BKN007/// OVC009/// M02/M04 Q1024=
200812240150 METAR ESMX 240150Z AUTO VRB01KT 9999NDV FEW007/// SCT008/// OVC035/// M02/M04 Q1024=
200812240050 METAR ESMX 240050Z AUTO 17003KT 9999NDV FEW048/// OVC056/// M02/M05 Q1025=
200812232350 METAR ESMX 232350Z AUTO 18003KT 9999NDV OVC051/// M03/M05 Q1025=
200812232320 METAR ESMX 232320Z AUTO 17002KT 9999NDV SCT057/// M04/M06 Q1026=
200812232250 METAR ESMX 232250Z AUTO VRB02KT 9999NDV NCD M05/M06 Q1026=
200812232150 METAR ESMX 232150Z AUTO 26002KT 9999NDV NCD M05/M07 Q1027=
200812232120 METAR ESMX 232120Z AUTO 21002KT 9999NDV NCD M04/M06 Q1027=
200812232050 METAR ESMX 232050Z AUTO 27003KT 9999NDV NCD M04/M06 Q1027=
200812232020 METAR ESMX 232020Z AUTO 28003KT 9999NDV NCD M03/M06 Q1027=
200812231950 METAR ESMX 231950Z AUTO 28003KT 9999NDV NCD M03/M06 Q1027=
200812231920 METAR ESMX 231920Z AUTO 29003KT 9999NDV NCD M03/M06 Q1027=
200812231850 METAR ESMX 231850Z AUTO VRB01KT 9999NDV NCD M02/M06 Q1028=
200812231750 METAR ESMX 231750Z 29004KT CAVOK M02/M06 Q1027=
200812231650 METAR ESMX 231650Z 30007KT CAVOK M01/M05 Q1027=
200812231620 METAR ESMX 231620Z 29007KT CAVOK M01/M05 Q1027=
200812231550 METAR ESMX 231550Z 29007KT CAVOK M01/M05 Q1027=
200812231520 METAR ESMX 231520Z 29007KT 260V320 CAVOK M01/M06 Q1027=
200812231450 METAR ESMX 231450Z 29007KT CAVOK M00/M05 Q1027=
200812231420 METAR ESMX 231420Z 30005KT CAVOK M00/M05 Q1027=
200812231350 METAR ESMX 231350Z 31007KT CAVOK 01/M05 Q1027=
200812231250 METAR ESMX 231250Z 32009KT 290V350 CAVOK 01/M05 Q1026=
200812231150 METAR ESMX 231150Z 33010KT CAVOK 02/M05 Q1026=
200812231120 METAR ESMX 231120Z 32009KT 290V360 CAVOK 01/M05 Q1026=
200812231050 METAR ESMX 231050Z 33008KT 290V360 CAVOK 01/M05 Q1026=
200812231020 METAR ESMX 231020Z 32008KT 290V350 CAVOK 01/M05 Q1026=
200812230950 METAR ESMX 230950Z 31008KT CAVOK 01/M05 Q1026=
200812230920 METAR ESMX 230920Z 31009KT 270V330 CAVOK 00/M05 Q1026=
200812230850 METAR ESMX 230850Z 31009KT 280V340 CAVOK 00/M05 Q1025=
200812230820 METAR ESMX 230820Z 32009KT CAVOK M00/M06 Q1025=
200812230720 METAR ESMX 230720Z 31009KT CAVOK M01/M06 Q1024=
200812230650 METAR ESMX 230650Z 31009KT 290V350 CAVOK M01/M06 Q1024=
200812230620 METAR ESMX 230620Z 32009KT CAVOK M01/M06 Q1024=
200812230520 METAR ESMX 230520Z 33008KT CAVOK M00/M06 Q1023=
200812230450 METAR ESMX 230450Z 33008KT CAVOK M00/M06 Q1023=
200812230420 METAR ESMX 230420Z AUTO 33011KT 9999NDV NCD 01/M07 Q1022=
200812230350 METAR ESMX 230350Z AUTO 33011KT 9999NDV NCD 01/M07 Q1022=
200812230320 METAR ESMX 230320Z AUTO 32011KT 290V350 9999NDV NCD 01/M08 Q1021=
200812230250 METAR ESMX 230250Z 33012KT CAVOK 02/M08 Q1021=
200812230220 METAR ESMX 230220Z 33013KT 290V350 CAVOK 02/M08 Q1021=
200812230150 METAR ESMX 230150Z 33015G26KT CAVOK 02/M08 Q1020=
200812230120 METAR ESMX 230120Z 32012KT CAVOK 02/M08 Q1020=
200812230050 METAR ESMX 230050Z 32011KT CAVOK 01/M07 Q1020=
200812222350 METAR ESMX 222350Z 31009KT 280V340 CAVOK 01/M06 Q1019=
200812222320 METAR ESMX 222320Z 32009KT CAVOK 01/M05 Q1019=
200812222250 METAR ESMX 222250Z 31009KT CAVOK 02/M05 Q1018=
200812222220 METAR ESMX 222220Z 31009KT 270V340 CAVOK 02/M05 Q1018=
200812222150 METAR ESMX 222150Z 32013G24KT CAVOK 03/M06 Q1017=
200812222120 METAR ESMX 222120Z 31011KT CAVOK 02/M04 Q1017=
200812222050 METAR ESMX 222050Z 31010KT CAVOK 02/M04 Q1017=
200812222020 METAR ESMX 222020Z 31010KT 280V340 CAVOK 03/M04 Q1017=
200812221950 METAR ESMX 221950Z 31010KT CAVOK 03/M04 Q1017=
200812221920 METAR ESMX 221920Z 31011KT 280V340 CAVOK 03/M04 Q1016=
200812221850 METAR ESMX 221850Z 32012KT 290V350 CAVOK 03/M04 Q1016=
200812221820 METAR ESMX 221820Z 32011KT CAVOK 03/M04 Q1015=
200812221750 METAR ESMX 221750Z 32011G22KT 290V350 CAVOK 04/M04 Q1014=
200812221720 METAR ESMX 221720Z 33014KT 300V360 CAVOK 04/M04 Q1013=
200812221650 METAR ESMX 221650Z 33015KT CAVOK 04/M03 Q1012=
200812221550 METAR ESMX 221550Z 32017KT 280V350 9999 FEW045 05/M02 Q1010=
200812221520 METAR ESMX 221520Z 32017G27KT 9999 SCT045 06/M02 Q1009=
200812221450 METAR ESMX 221450Z 31019KT CAVOK 06/M02 Q1008=
200812221350 METAR ESMX 221350Z 31017G27KT 270V340 CAVOK 07/M00 Q1006=
200812221250 METAR ESMX 221250Z 30015G26KT 280V340 CAVOK 07/01 Q1004=
200812221220 METAR ESMX 221220Z 29014KT 260V330 CAVOK 07/02 Q1004=
200812221150 METAR ESMX 221150Z 29014KT CAVOK 07/02 Q1003=
200812221120 METAR ESMX 221120Z 28013KT 250V320 CAVOK 07/03 Q1002=
200812221050 METAR ESMX 221050Z 28015KT 230V300 9999 FEW022 07/03 Q1002=
200812221020 METAR ESMX 221020Z 28013KT 240V320 9999 FEW022 BKN026 BKN031 07/03 Q1001=
200812220950 METAR ESMX 220950Z 27012KT 240V320 9999 BKN020 BKN027 06/03 Q1001=
200812220920 METAR ESMX 220920Z 28013G25KT 240V310 9999 BKN021 OVC029 06/03 Q1001=
200812220850 METAR ESMX 220850Z 27013KT 230V310 9999 FEW018 OVC021 06/03 Q1000=
200812220820 METAR ESMX 220820Z 26014G24KT 6000 BR FEW013 SCT016 BKN019 05/03 Q1000 RERA REDZ=
200812220750 METAR ESMX 220750Z 25014KT 210V290 6000 -RA FEW014 BKN018 OVC023 05/03 Q1000=
200812220650 METAR ESMX 220650Z 25014KT 6000 -RA FEW014 BKN017 OVC023 05/03 Q1001=
200812220550 METAR ESMX 220550Z 26013KT 220V280 9999 OVC022 06/02 Q1002=
200812220520 METAR ESMX 220520Z 27015KT 230V300 9999 FEW022 BKN025 OVC036 06/02 Q1002=
200812220450 METAR ESMX 220450Z 25013G29KT 200V290 9999 FEW020 SCT024 BKN033 06/02 Q1002=
200812220420 METAR ESMX 220420Z AUTO 26011KT 230V290 8000NDV BR FEW018/// SCT028/// BKN032/// 06/03 Q1003 RERA REDZ=
200812220350 METAR ESMX 220350Z AUTO 26014G26KT 230V300 9999NDV FEW022/// SCT027/// BKN035/// 06/02 Q1003=
200812220320 METAR ESMX 220320Z AUTO 26015G25KT 230V290 9999NDV FEW024/// BKN043/// 06/02 Q1003=
200812220250 METAR ESMX 220250Z AUTO 26016KT 210V290 9999NDV FEW024/// SCT045/// BKN051/// 06/02 Q1003=
200812220220 METAR ESMX 220220Z AUTO 27016G27KT 230V290 9999NDV FEW020/// BKN041/// 06/02 Q1003=
200812220150 METAR ESMX 220150Z AUTO 25012KT 220V290 9999NDV FEW020/// SCT024/// BKN041/// 06/03 Q1004=
200812220120 METAR ESMX 220120Z 26012KT 9999 FEW024 BKN040 06/02 Q1004=
200812220050 METAR ESMX 220050Z 25012KT 220V280 9999 FEW022 SCT045 06/02 Q1004=
200812212350 METAR ESMX 212350Z 25011G21KT 220V290 9999 FEW030 BKN085 06/02 Q1005=
200812212320 METAR ESMX 212320Z 27012KT 9999 FEW020 BKN085 06/03 Q1005=
200812212250 METAR ESMX 212250Z 25012KT 210V280 9999 FEW020 BKN055 06/04 Q1005=
200812212220 METAR ESMX 212220Z 23009KT 9999 FEW018 BKN055 06/05 Q1005=
200812212150 METAR ESMX 212150Z 24011KT 9999 SCT012 BKN050 07/05 Q1005=
200812212120 METAR ESMX 212120Z 24010KT 9999 FEW008 SCT012 BKN050 07/06 Q1006 REDZ=
200812212050 METAR ESMX 212050Z 22010KT 6000 DZ BKN003 OVC007 06/05 Q1006 RERA=
200812212020 METAR ESMX 212020Z 22012KT 2500 DZ SCT003 OVC004 05/04 Q1006=
200812211950 METAR ESMX 211950Z 21013KT 3000 DZ OVC004 04/04 Q1007=
200812211920 METAR ESMX 211920Z 20014KT 2500 DZ BKN003 OVC008 04/03 Q1007 RERA=
200812211850 METAR ESMX 211850Z 20016KT 2500 DZ OVC004 04/03 Q1008=
200812211820 METAR ESMX 211820Z 20015KT 2500 DZ FEW003 OVC005 03/03 Q1009=
200812211750 METAR ESMX 211750Z 20013KT 2000 -RA FEW004 OVC005 03/02 Q1010=
200812211720 METAR ESMX 211720Z 19013KT 5000 DZ FEW008 SCT010 BKN013 03/02 Q1011 RERA=
200812211650 METAR ESMX 211650Z 18011KT 9999 FEW007 SCT008 BKN017 03/02 Q1012=
200812211620 METAR ESMX 211620Z 18010KT 9999 FEW008 SCT009 OVC011 03/02 Q1012=
200812211550 METAR ESMX 211550Z 18009KT 9999 FEW008 BKN012 02/01 Q1013=
200812211520 METAR ESMX 211520Z 19008KT 9999 SCT011 02/01 Q1014=
200812211450 METAR ESMX 211450Z 19008KT 9999 SCT017 02/01 Q1014=
200812211350 METAR ESMX 211350Z 20006KT CAVOK 02/00 Q1015=
200812211320 METAR ESMX 211320Z 21005KT CAVOK 02/01 Q1015=
200812211250 METAR ESMX 211250Z 22004KT CAVOK 02/00 Q1015=
200812211220 METAR ESMX 211220Z 25006KT CAVOK 03/00 Q1016=
200812211150 METAR ESMX 211150Z 26006KT CAVOK 03/M00 Q1016=
200812211120 METAR ESMX 211120Z 26006KT CAVOK 03/M00 Q1015=
200812211050 METAR ESMX 211050Z 25004KT CAVOK 03/M00 Q1015=
200812211020 METAR ESMX 211020Z 26007KT CAVOK 02/M00 Q1016=
200812210950 METAR ESMX 210950Z 26005KT 230V300 CAVOK 02/M01 Q1015=
200812210920 METAR ESMX 210920Z AUTO 27005KT 9999NDV NCD 01/M01 Q1015=
200812210850 METAR ESMX 210850Z AUTO 26003KT 220V300 9999NDV NCD 01/M01 Q1015=
200812210820 METAR ESMX 210820Z AUTO 27004KT 9999NDV NCD 00/M02 Q1015=
200812210750 METAR ESMX 210750Z AUTO 28006KT 250V330 9999NDV NCD 00/M02 Q1014=
200812210720 METAR ESMX 210720Z AUTO 27005KT 9999NDV NCD 00/M02 Q1013=
200812210650 METAR ESMX 210650Z AUTO 29006KT 9999NDV NCD 00/M02 Q1013=
200812210620 METAR ESMX 210620Z AUTO 30004KT 9999NDV NCD M00/M02 Q1012=
200812210550 METAR ESMX 210550Z AUTO VRB02KT 9999NDV NCD 00/M02 Q1012=
200812210520 METAR ESMX 210520Z AUTO VRB02KT 9999NDV NCD 01/M02 Q1012=
200812210450 METAR ESMX 210450Z AUTO 30007KT 280V340 9999NDV NCD 01/M02 Q1011=
200812210420 METAR ESMX 210420Z AUTO 30009KT 260V340 9999NDV NCD 01/M02 Q1011=
200812210350 METAR ESMX 210350Z AUTO 31010KT 280V340 9999NDV NCD 02/M02 Q1010=
200812210320 METAR ESMX 210320Z AUTO 30008KT 270V340 9999NDV NCD 01/M02 Q1009=
200812210250 METAR ESMX 210250Z AUTO 30009KT 9999NDV NCD 02/M02 Q1008=
200812210220 METAR ESMX 210220Z AUTO 30009KT 280V340 9999NDV NCD 02/M01 Q1008=
200812210150 METAR ESMX 210150Z AUTO 30010KT 270V330 9999NDV FEW026/// 02/M01 Q1007=
200812210120 METAR ESMX 210120Z AUTO 30014KT 9999NDV BKN023/// 02/M01 Q1006=
200812210050 METAR ESMX 210050Z AUTO 31011KT 290V350 9999NDV FEW018/// OVC021/// 03/M00 Q1005=
200812210020 METAR ESMX 210020Z AUTO 31017KT 280V340 9999NDV FEW017/// OVC020/// 03/00 Q1004=
200812202350 METAR ESMX 202350Z AUTO 30015G25KT 260V340 9999NDV FEW017/// BKN020/// 03/00 Q1003=
200812202320 METAR ESMX 202320Z AUTO 30014G25KT 9999NDV BKN016/// OVC023/// 03/01 Q1002=
200812202250 METAR ESMX 202250Z AUTO 30015KT 9999NDV BKN014/// OVC020/// 03/01 Q1001=
200812202220 METAR ESMX 202220Z AUTO 30014KT 280V340 9999NDV FEW013/// BKN016/// OVC021/// 03/02 Q1000=
200812202150 METAR ESMX 202150Z AUTO 30014G25KT 9999NDV -DZ FEW012/// SCT015/// BKN018/// 04/02 Q0999 RERA=
200812202120 METAR ESMX 202120Z AUTO 30013G24KT 280V340 9999NDV FEW012/// SCT018/// BKN021/// 04/02 Q0998 RERA REDZ=
200812202050 METAR ESMX 202050Z AUTO 29010KT 9999NDV -RA FEW012/// SCT018/// BKN021/// 05/04 Q0997=
200812202020 METAR ESMX 202020Z AUTO 28011KT 240V310 9000NDV -RA FEW018/// SCT025/// BKN029/// 05/04 Q0996=
200812201950 METAR ESMX 201950Z AUTO 27011KT 9999NDV BR FEW007/// BKN020/// 05/04 Q0995 RERA REDZ=
200812201920 METAR ESMX 201920Z AUTO 27008KT 9999NDV BR FEW009/// SCT013/// BKN017/// 05/04 Q0995=
200812201850 METAR ESMX 201850Z AUTO 26007KT 230V290 7000NDV BR FEW009/// SCT012/// BKN020/// 05/04 Q0994 RERA REDZ=
200812201820 METAR ESMX 201820Z AUTO 25006KT 9000NDV -DZ FEW007/// BKN010/// OVC026/// 05/04 Q0994 RERA=
200812201750 METAR ESMX 201750Z AUTO 25008KT 9999NDV BR FEW008/// BKN012/// OVC016/// 05/04 Q0994 RERA REDZ=
200812201720 METAR ESMX 201720Z AUTO 24008KT 9999NDV BR FEW007/// SCT009/// BKN011/// 05/04 Q0993 RERA REDZ=
200812201650 METAR ESMX 201650Z AUTO 24010KT 5000NDV -RA FEW007/// SCT010/// BKN013/// 05/04 Q0993 REDZ=
200812201620 METAR ESMX 201620Z AUTO 23011KT 4900NDV -DZ FEW008/// OVC010/// 05/04 Q0993=
200812201550 METAR ESMX 201550Z AUTO 24011KT 210V280 5000NDV DZ FEW009/// SCT012/// BKN014/// 05/04 Q0993=
200812201520 METAR ESMX 201520Z AUTO 23013KT 190V270 6000NDV DZ BKN011/// OVC018/// 05/04 Q0993 RERA=
200812201450 METAR ESMX 201450Z AUTO 24013G24KT 210V270 6000NDV -RA FEW009/// BKN013/// OVC018/// 05/04 Q0994 REDZ=
200812201420 METAR ESMX 201420Z AUTO 23013KT 6000NDV -RA FEW009/// BKN010/// BKN016/// 05/04 Q0994 REDZ=
200812201350 METAR ESMX 201350Z AUTO 22013KT 4300NDV DZ FEW008/// BKN011/// BKN015/// 05/04 Q0994=
200812201320 METAR ESMX 201320Z AUTO 22012KT 190V250 8000NDV -RA FEW010/// OVC012/// 05/03 Q0995 REDZ=
200812201250 METAR ESMX 201250Z AUTO 22014KT 170V260 7000NDV -RA FEW009/// SCT012/// BKN014/// 05/03 Q0995 REDZ=
200812201220 METAR ESMX 201220Z AUTO 22013KT 200V260 7000NDV DZ FEW009/// OVC012/// 05/04 Q0995 RERA=
200812201150 METAR ESMX 201150Z AUTO 21012KT 190V250 6000NDV DZ FEW007/// SCT009/// BKN012/// 05/04 Q0996=
200812201120 METAR ESMX 201120Z AUTO 21012KT 4000NDV -RA FEW006/// SCT008/// BKN013/// 05/04 Q0996=
200812201050 METAR ESMX 201050Z AUTO 20011KT 7000NDV BR SCT005/// BKN008/// OVC015/// 04/04 Q0997 REDZ=
200812201020 METAR ESMX 201020Z AUTO 20012KT 8000NDV DZ FEW003/// SCT005/// BKN006/// 04/03 Q0998 RERA=
200812200950 METAR ESMX 200950Z AUTO 21011KT 4900NDV RA OVC002/// 03/03 Q0998 REDZ=
200812200920 METAR ESMX 200920Z AUTO 20010KT 9999NDV BKN002/// OVC004/// 03/03 Q0999 RERA REDZ=
200812200850 METAR ESMX 200850Z AUTO 19011KT 9000NDV BR OVC002/// 03/02 Q0999 RERA REDZ=
200812200820 METAR ESMX 200820Z AUTO 18012KT 9000NDV BR BKN004/// OVC007/// 02/02 Q1000 RERA REDZ=
200812200750 METAR ESMX 200750Z AUTO 19013KT 9000NDV FEW004/// OVC006/// 02/01 Q1000=
200812200720 METAR ESMX 200720Z AUTO 18014KT 150V210 7000NDV -DZ FEW006/// BKN007/// OVC009/// 02/01 Q1000 RERA=
200812200650 METAR ESMX 200650Z AUTO 18015KT 5000NDV -DZ FEW005/// SCT007/// BKN009/// 02/01 Q1001 RERA=
200812200620 METAR ESMX 200620Z AUTO 18013KT 7000NDV DZ FEW006/// BKN007/// OVC010/// 02/01 Q1001 RERA=
200812200550 METAR ESMX 200550Z AUTO 17014KT 1900NDV -RA FEW007/// BKN010/// BKN016/// 02/01 Q1002=
200812200520 METAR ESMX 200520Z AUTO 18013KT 9999NDV -RA FEW008/// SCT011/// BKN027/// 02/01 Q1002 REDZ=
200812200450 METAR ESMX 200450Z AUTO 18015KT 9999NDV FEW008/// BKN010/// BKN017/// 03/01 Q1003=
200812200420 METAR ESMX 200420Z AUTO 18014KT 9999NDV FEW007/// BKN008/// OVC012/// 03/01 Q1004=
200812200350 METAR ESMX 200350Z AUTO 18012KT 9999NDV SCT006/// BKN008/// OVC009/// 03/01 Q1005=
200812200320 METAR ESMX 200320Z AUTO 18009KT 9999NDV BKN006/// 02/01 Q1005=
200812200250 METAR ESMX 200250Z AUTO 20011KT 9999NDV FEW005/// BKN006/// OVC008/// 02/01 Q1006=
200812200220 METAR ESMX 200220Z AUTO 20010KT 9999NDV OVC005/// 02/01 Q1007=
200812200150 METAR ESMX 200150Z AUTO 19009KT 9999NDV BKN004/// BKN008/// 02/01 Q1007=
200812200120 METAR ESMX 200120Z AUTO 18006KT 9999NDV FEW007/// SCT009/// BKN012/// 02/01 Q1008=
200812200050 METAR ESMX 200050Z AUTO 20005KT 9999NDV FEW014/// 02/01 Q1009=
200812200020 METAR ESMX 200020Z AUTO 23005KT 9999NDV FEW010/// BKN013/// 02/01 Q1009=
200812192350 METAR ESMX 192350Z AUTO 20005KT 9999NDV OVC012/// 02/01 Q1010=
200812192320 METAR ESMX 192320Z AUTO 21004KT 9999NDV SCT014/// BKN019/// 02/01 Q1010=
200812192250 METAR ESMX 192250Z AUTO 23005KT 9999NDV BKN013/// BKN018/// 02/01 Q1010=
200812192220 METAR ESMX 192220Z AUTO 25005KT 9999NDV BKN012/// 02/01 Q1010=
200812192150 METAR ESMX 192150Z AUTO 26006KT 9999NDV BKN013/// BKN017/// 03/01 Q1010=
200812192120 METAR ESMX 192120Z AUTO 26006KT 9999NDV BKN012/// 03/01 Q1010=
200812192050 METAR ESMX 192050Z AUTO 27007KT 9999NDV OVC012/// 03/01 Q1010=
200812192020 METAR ESMX 192020Z 27008KT 9999 BKN010 03/01 Q1010=
200812191950 METAR ESMX 191950Z 27008KT 230V300 9999 FEW008 BKN010 03/01 Q1010=
200812191920 METAR ESMX 191920Z 28006KT 240V330 9999 FEW007 BKN010 03/01 Q1010=
200812191850 METAR ESMX 191850Z 27008KT 240V300 9999 FEW008 BKN010 03/02 Q1010=
200812191820 METAR ESMX 191820Z 28007KT 9999 FEW007 BKN008 OVC010 03/02 Q1010=
200812191750 METAR ESMX 191750Z 28007KT 9999 BKN009 03/02 Q1010=
200812191720 METAR ESMX 191720Z 28005KT 9999 FEW010 SCT013 03/02 Q1009=
200812191650 METAR ESMX 191650Z 29007KT 9999 FEW006 SCT008 BKN011 04/03 Q1010=
200812191620 METAR ESMX 191620Z 28006KT 9999 FEW011 BKN016 04/03 Q1010=
200812191550 METAR ESMX 191550Z 28004KT 240V320 9999 FEW013 BKN017 04/04 Q1009=
200812191520 METAR ESMX 191520Z 29005KT 9999 FEW007 BKN011 05/04 Q1009=
200812191450 METAR ESMX 191450Z 26004KT 9999 FEW007 BKN010 BKN016 04/04 Q1008 REDZ=
200812191420 METAR ESMX 191420Z 28004KT 9999 -DZ FEW011 SCT032 05/04 Q1008=
200812191350 METAR ESMX 191350Z 28004KT 250V320 8000 DZ FEW002 SCT004 BKN010 05/04 Q1008=
200812191320 METAR ESMX 191320Z 28003KT 250V320 7000 DZ FEW003 OVC004 05/04 Q1008=
200812191250 METAR ESMX 191250Z 26003KT 7000 DZ FEW002 OVC005 05/04 Q1008=
200812191220 METAR ESMX 191220Z 24003KT 7000 DZ SCT003 BKN007 05/04 Q1008 RERA=
200812191150 METAR ESMX 191150Z 23004KT 5000 -RA OVC001 04/04 Q1008 REDZ=
200812191120 METAR ESMX 191120Z 21005KT 4100 DZ OVC002 04/04 Q1008 RERA=
200812191050 METAR ESMX 191050Z 19005KT 3900 BR OVC002 04/04 Q1008 RERA REDZ=
200812191020 METAR ESMX 191020Z 18005KT 2900 DZ OVC002 04/04 Q1008=
200812190950 METAR ESMX 190950Z 18005KT 2600 DZ OVC002 04/04 Q1008 RERA=
200812190920 METAR ESMX 190920Z 17005KT 140V200 3200 DZ OVC002 04/03 Q1008=
200812190850 METAR ESMX 190850Z 17004KT 3300 DZ OVC002 04/03 Q1008=
200812190820 METAR ESMX 190820Z 18004KT 4000 DZ OVC002 04/03 Q1008=
200812190750 METAR ESMX 190750Z 17005KT 3000 +DZ OVC002 04/03 Q1007 RERA=
200812190720 METAR ESMX 190720Z 18004KT 3000 -RA OVC002 04/03 Q1007 REDZ=
200812190650 METAR ESMX 190650Z 22005KT 3100 DZ OVC003 04/03 Q1007 RERA=
200812190620 METAR ESMX 190620Z 18007KT 4600 DZ OVC002 04/03 Q1007 RERA=
200812190550 METAR ESMX 190550Z 18008KT 3700 BR OVC002 04/03 Q1007 REDZ=
200812190520 METAR ESMX 190520Z 18008KT 3400 DZ OVC002 04/03 Q1007 RERA=
200812190450 METAR ESMX 190450Z 18009KT 4300 BR OVC002 03/03 Q1007=
200812190420 METAR ESMX 190420Z 18009KT 3800 BR OVC002 03/03 Q1008 REDZ=
200812190350 METAR ESMX 190350Z 17008KT 1700 DZ OVC002 03/03 Q1008 RERA=
200812190320 METAR ESMX 190320Z 17008KT 140V200 0900 R01/P2000N R19/P2000N FG VV002 03/03 Q1008=
200812190250 METAR ESMX 190250Z 17008KT 0900 R01/P2000N R19/P2000D FG VV002 03/03 Q1008=
200812190220 METAR ESMX 190220Z 18010KT 1700 BR OVC002 03/03 Q1008=
200812190150 METAR ESMX 190150Z 18010KT 1300 R01/P2000D R19/P2000D BR VV002 03/03 Q1009=
200812190120 METAR ESMX 190120Z 19011KT 1000 R01/P2000U R19/P2000U FG VV002 03/03 Q1009=
200812190050 METAR ESMX 190050Z 18010KT 0900 R01/P2000D R19/P2000D FG VV002 03/03 Q1009=
200812190020 METAR ESMX 190020Z 18010KT 1000 R01/P2000N R19/P2000N FG VV002 03/03 Q1010=
200812182350 METAR ESMX 182350Z 18009KT 0800 R01/P2000N R19/P2000U FG VV002 03/03 Q1010=
200812182320 METAR ESMX 182320Z 18011KT 0600 R01/1800N R19/P2000N FG VV002 03/03 Q1011=
200812182250 METAR ESMX 182250Z 18010KT 0900 R01/P2000N R19/P2000D FG VV002 03/03 Q1011=
200812182220 METAR ESMX 182220Z 17010KT 1500 BR OVC002 03/02 Q1011=
200812182150 METAR ESMX 182150Z 17009KT 2000 BR OVC002 03/02 Q1011=
200812182120 METAR ESMX 182120Z 19009KT 2200 BR OVC002 03/02 Q1011=
200812182050 METAR ESMX 182050Z 19010KT 3500 BR OVC002 03/02 Q1011=
200812182020 METAR ESMX 182020Z 19010KT 4000 BR BKN002 OVC003 02/02 Q1011=
200812181950 METAR ESMX 181950Z 17010KT 4500 BR FEW002 OVC003 02/02 Q1011=
200812181920 METAR ESMX 181920Z 17009KT 4700 BR OVC003 02/01 Q1011=
200812181850 METAR ESMX 181850Z 18011KT 4300 -DZ OVC003 02/01 Q1012=
200812181820 METAR ESMX 181820Z 18011KT 6000 -DZ OVC004 02/01 Q1012=
200812181750 METAR ESMX 181750Z 18010KT 8000 BR OVC005 02/01 Q1012=
200812181720 METAR ESMX 181720Z 18011KT 9000 BR OVC006 02/01 Q1012=
200812181650 METAR ESMX 181650Z 17012KT 7000 BR OVC005 02/01 Q1012=
200812181620 METAR ESMX 181620Z 18010KT 140V210 9000 BR OVC006 02/01 Q1012=
200812181550 METAR ESMX 181550Z 17011KT 140V200 6000 BR OVC007 02/01 Q1012=
200812181520 METAR ESMX 181520Z 17010KT 9999 OVC008 02/00 Q1012=
200812181450 METAR ESMX 181450Z 18009KT 9999 OVC008 02/00 Q1012=
200812181420 METAR ESMX 181420Z 17009KT 9999 OVC008 02/00 Q1012=
200812181350 METAR ESMX 181350Z 19008KT 9999 OVC008 02/00 Q1013=
200812181320 METAR ESMX 181320Z 20010KT 9999 OVC008 01/00 Q1012=
200812181250 METAR ESMX 181250Z 20009KT 9999 OVC009 01/M00 Q1012=
200812181220 METAR ESMX 181220Z 21009KT 9999 BKN008 OVC011 01/M00 Q1013=
200812181150 METAR ESMX 181150Z 22009KT 9999 FEW009 BKN011 01/M00 Q1013=
200812181120 METAR ESMX 181120Z 23008KT 200V260 9999 FEW008 OVC009 02/00 Q1013=
200812181050 METAR ESMX 181050Z 21010KT 9999 OVC009 02/00 Q1013=
200812181020 METAR ESMX 181020Z 21010KT 9999 OVC009 02/00 Q1013=
200812180920 METAR ESMX 180920Z 21010KT 190V250 9999 BKN010 02/00 Q1013=
200812180850 METAR ESMX 180850Z 20009KT 9999 OVC012 02/01 Q1013=
200812180820 METAR ESMX 180820Z 21008KT 9999 FEW009 OVC011 02/01 Q1013=
200812180750 METAR ESMX 180750Z 21008KT 9999 OVC012 02/01 Q1013=
200812180720 METAR ESMX 180720Z 20007KT 150V220 9999 OVC013 02/01 Q1013=
200812180650 METAR ESMX 180650Z 20007KT 9999 BKN013 02/01 Q1013=
200812180620 METAR ESMX 180620Z 20007KT 9999 BKN013 02/01 Q1013=
200812180550 METAR ESMX 180550Z 21008KT 9999 BKN007 OVC010 02/01 Q1012=
200812180520 METAR ESMX 180520Z 23008KT 9999 BR BKN006 OVC008 02/01 Q1012=
200812180450 METAR ESMX 180450Z 23006KT 7000 BR FEW005 SCT008 OVC009 02/02 Q1012=
200812180420 METAR ESMX 180420Z AUTO 21004KT 5000NDV BR FEW005/// BKN006/// OVC009/// 02/02 Q1012=
200812180350 METAR ESMX 180350Z AUTO 22004KT 3700NDV BR FEW003/// BKN005/// OVC007/// 02/02 Q1012=
200812180320 METAR ESMX 180320Z 22005KT 5000 BR BKN005 OVC008 02/02 Q1012=
200812180250 METAR ESMX 180250Z 21004KT 5000 BR FEW009 OVC011 02/02 Q1012=
200812180150 METAR ESMX 180150Z 21004KT 5000 BR FEW003 SCT004 BKN006 02/02 Q1011=
200812180120 METAR ESMX 180120Z 24005KT 3100 BR BKN003 OVC005 02/02 Q1011=
200812180050 METAR ESMX 180050Z 26006KT 2700 BR BKN003 OVC004 02/02 Q1011=
200812180020 METAR ESMX 180020Z 23007KT 1800 BR FEW002 OVC004 02/02 Q1010=
200812172350 METAR ESMX 172350Z 21003KT 160V260 2900 BR BKN003 OVC007 02/02 Q1010=
200812172320 METAR ESMX 172320Z 22005KT 2400 BR SCT003 BKN006 OVC013 02/02 Q1011=
200812172250 METAR ESMX 172250Z 22005KT 2200 BR BKN003 OVC006 02/02 Q1011=
200812172220 METAR ESMX 172220Z 21005KT 2100 BR FEW003 OVC005 02/02 Q1010=
200812172150 METAR ESMX 172150Z 21005KT 2300 BR FEW004 BKN005 OVC008 02/02 Q1010=
200812172120 METAR ESMX 172120Z 20005KT 2600 BR FEW004 BKN006 OVC007 02/02 Q1010=
200812172050 METAR ESMX 172050Z 20005KT 2600 BR FEW003 SCT004 BKN008 02/02 Q1010=
200812172020 METAR ESMX 172020Z 19005KT 2800 BR FEW004 SCT005 BKN015 02/02 Q1010=
200812171950 METAR ESMX 171950Z 22004KT 3300 BR BKN004 OVC013 03/02 Q1010 REDZ REUP=
200812171920 METAR ESMX 171920Z 23004KT 3200 -DZ FEW005 BKN006 BKN009 03/02 Q1010 RERA=
200812171850 METAR ESMX 171850Z 21004KT 3100 DZ FEW005 SCT006 BKN008 03/02 Q1009=
200812171820 METAR ESMX 171820Z 22005KT 2900 -DZ BKN005 03/03 Q1009=
200812171750 METAR ESMX 171750Z 22003KT 2500 BR FEW007 BKN025 03/03 Q1009=
200812171720 METAR ESMX 171720Z 22003KT 3000 BR FEW005 OVC029 03/03 Q1009=
200812171650 METAR ESMX 171650Z 20004KT 3200 BR FEW004 BKN031 03/03 Q1009=
200812171550 METAR ESMX 171550Z 20004KT 2300 BR BKN001 OVC004 03/03 Q1008=
200812171520 METAR ESMX 171520Z 22005KT 2400 BR BKN001 OVC003 03/03 Q1008=
200812171450 METAR ESMX 171450Z 20006KT 0900 R19/P2000U FG VV002 03/03 Q1008=
200812171350 METAR ESMX 171350Z 18004KT 2300 BR OVC001 04/03 Q1008=
200812171320 METAR ESMX 171320Z 18004KT 0600 R19/1100V1700N FG VV002 03/03 Q1008=
200812171220 METAR ESMX 171220Z 17004KT 0350 R01/0750 R19/0800N FG VV002 03/03 Q1008=
200812171150 METAR ESMX 171150Z 17003KT 0400 R01/0800N R19/0900N FG VV002 03/03 Q1008=
200812171120 METAR ESMX 171120Z 17003KT 140V200 0350 R19/0900N FG VV002 03/03 Q1008=
200812171050 METAR ESMX 171050Z 16002KT 0450 R01/0900N R19/1000N FG VV002 03/03 Q1008=
200812171020 METAR ESMX 171020Z 15003KT 120V190 0650 R01/1200D R19/1400D FG VV002 03/03 Q1008=
200812170950 METAR ESMX 170950Z 16004KT 110V190 1100 R01/1800D R19/P2000D BR OVC002 03/03 Q1009=
200812170920 METAR ESMX 170920Z 15004KT 110V170 1600 BR OVC002 03/03 Q1009=
200812170850 METAR ESMX 170850Z 15003KT 100V180 2300 BR OVC002 03/03 Q1009=
200812170820 METAR ESMX 170820Z VRB02KT 2600 BR OVC002 03/02 Q1009 REDZ=
200812170750 METAR ESMX 170750Z 13003KT 080V170 2900 -DZ OVC002 03/02 Q1009 RERA=
200812170720 METAR ESMX 170720Z 13003KT 100V170 2800 BR OVC002 03/02 Q1009 REDZ RERA=
200812170620 METAR ESMX 170620Z 14004KT 100V190 2300 DZ OVC002 02/02 Q1009=
200812170550 METAR ESMX 170550Z 14003KT 100V160 2600 DZ OVC002 02/02 Q1010=
200812170520 METAR ESMX 170520Z 14004KT 100V170 2800 -RA OVC003 02/02 Q1010 REDZ=
200812170450 METAR ESMX 170450Z AUTO 14004KT 100V190 2900NDV DZ OVC002/// 02/02 Q1010 RERA=
200812170420 METAR ESMX 170420Z AUTO 14004KT 2100NDV -RA BKN001/// OVC003/// 02/02 Q1011 REDZ=
200812170350 METAR ESMX 170350Z AUTO 14004KT 110V170 0800NDV R01/P2000U R19/P2000U -DZ VV002 02/02 Q1011 RERA=
200812170320 METAR ESMX 170320Z AUTO 15004KT 110V180 0500NDV R01/1600N R19/P2000D FG VV001 02/02 Q1011 REDZ REUP=
200812170250 METAR ESMX 170250Z AUTO 13004KT 110V170 0400NDV R01/1300N R19/1800U -DZ VV001 02/02 Q1011 RERA=
200812170220 METAR ESMX 170220Z AUTO 14003KT 110V180 0300NDV R01/1000U R19/1300U FG VV001 02/02 Q1012=
200812170150 METAR ESMX 170150Z 15004KT 120V190 0250 R01/0900N R19/1200N FG VV002 02/02 Q1012=
200812170120 METAR ESMX 170120Z 15003KT 110V170 0400 R01/1300D R19/1600D FG VV002 02/02 Q1012=
200812170050 METAR ESMX 170050Z 14004KT 080V190 0400 R01/1000V1800U R19/1700U FG VV002 02/02 Q1013=
200812170020 METAR ESMX 170020Z 14004KT 100V170 0300 R01/1000N R19/1700D FG VV002 02/02 Q1013=
200812162350 METAR ESMX 162350Z 14003KT 100V170 0450 R01/1400N R19/P2000U FG VV002 02/02 Q1013=
200812162320 METAR ESMX 162320Z 14003KT 100V170 0350 R01/1200U R19/1500U FG VV002 02/02 Q1013=
200812162250 METAR ESMX 162250Z VRB02KT 0250 R01/0900N R19/1100N FG VV002 02/02 Q1014=
200812162220 METAR ESMX 162220Z VRB02KT 0250 R01/0900N R19/1000N FG VV002 02/02 Q1014=
200812162150 METAR ESMX 162150Z 14003KT 080V190 0200 R01/0800N R19/1000N FG VV002 02/02 Q1014=
200812162120 METAR ESMX 162120Z 15004KT 110V170 0250 R01/0900N R19/1200N FG VV002 02/02 Q1014=
200812162050 METAR ESMX 162050Z 15003KT 110V170 0250 R01/0800N R19/1000N FG VV002 02/02 Q1015=
200812162020 METAR ESMX 162020Z 14003KT 100V190 0250 R01/0900N R19/1100N FG VV002 02/02 Q1015=
200812161950 METAR ESMX 161950Z VRB02KT 0250 R01/1000N R19/1100N FG VV002 02/02 Q1015=
200812161920 METAR ESMX 161920Z 13003KT 090V170 0300 R01/1000N R19/1200N FG VV002 02/02 Q1015=
200812161850 METAR ESMX 161850Z 15003KT 110V190 0300 R01/0900N R19/1100N FG VV002 02/02 Q1015=
200812161820 METAR ESMX 161820Z VRB02KT 0250 R01/1000D R19/1900D FG VV002 02/02 Q1016=
200812161750 METAR ESMX 161750Z VRB02KT 0400 R01/1300D R19/P2000N FG VV002 02/02 Q1016=
200812161720 METAR ESMX 161720Z VRB02KT 0400 R01/1300D R19/P2000U FG VV002 02/02 Q1016=
200812161650 METAR ESMX 161650Z 15003KT 110V190 0250 R01/0900U R19/1700N FG VV002 02/02 Q1016=
200812161620 METAR ESMX 161620Z VRB02KT 0350 R01/0900V1500D R19/1300VP2000U FG VV002 02/02 Q1016=
200812161550 METAR ESMX 161550Z 15003KT 0250 R01/0900N R19/1000N FG VV002 02/02 Q1016=
200812161520 METAR ESMX 161520Z VRB02KT 0250 R01/0800N R19/1200N FG VV002 02/02 Q1016=
200812161450 METAR ESMX 161450Z 17002KT 0400 R01/1400VP2000D R19/1300D FG VV002 02/02 Q1017=
200812161420 METAR ESMX 161420Z 16002KT 0500 R01/1100V1900U R19/1400N FG VV002 02/02 Q1017=
200812161350 METAR ESMX 161350Z VRB02KT 0700 R01/1100VP2000D R19/P2000D FG VV002 02/02 Q1017=
200812161320 METAR ESMX 161320Z VRB02KT 2200 BR OVC002 02/02 Q1017=
200812161250 METAR ESMX 161250Z VRB02KT 1600 BR BKN002 OVC004 02/02 Q1017=
200812161220 METAR ESMX 161220Z VRB02KT 1700 BKN002 OVC005 02/02 Q1017=
200812161150 METAR ESMX 161150Z VRB02KT 1400 R01/P2000U R19/P2000U OVC002 02/02 Q1017=
200812161120 METAR ESMX 161120Z VRB02KT 0500 R01/0800V1200U R19/1100N FG VV002 02/02 Q1018=
200812161050 METAR ESMX 161050Z VRB02KT 0450 R01/1000N R19/0900U FG VV002 02/02 Q1018=
200812161020 METAR ESMX 161020Z VRB01KT 0250 R01/0600N R19/0600N FG VV002 02/02 Q1018=
200812160950 METAR ESMX 160950Z VRB01KT 0250 R01/0600N R19/0600N FG VV002 02/02 Q1019=
200812160920 METAR ESMX 160920Z VRB02KT 0250 R01/0650N R19/0650N FG VV002 02/02 Q1019=
200812160850 METAR ESMX 160850Z VRB02KT 0300 R01/0750 R19/0750 FG VV002 02/01 Q1019=
200812160820 METAR ESMX 160820Z VRB02KT 0350 R01/0900N R19/0900N FG VV002 02/01 Q1019=
200812160750 METAR ESMX 160750Z VRB01KT 0250 R01/0800N R19/0900N FG VV002 02/01 Q1019=
200812160720 METAR ESMX 160720Z 00000KT 0300 R01/1000N R19/0900N FG VV002 02/01 Q1019=
200812160650 METAR ESMX 160650Z VRB02KT 0250 R01/0900N R19/0900N FG VV002 02/01 Q1019=
200812160620 METAR ESMX 160620Z VRB02KT 0300 R01/0800N R19/0900N FG VV002 02/01 Q1019=
200812160550 METAR ESMX 160550Z VRB02KT 0200 R01/0800N R19/0900N FG VV002 02/01 Q1019=
200812160520 METAR ESMX 160520Z VRB01KT 0250 R01/0900N R19/0900N FG VV002 02/02 Q1019=
200812160450 METAR ESMX 160450Z AUTO VRB02KT 0300NDV R01/1000N R19/1100N FG VV001 02/02 Q1019=
200812160420 METAR ESMX 160420Z AUTO VRB01KT 0400NDV R01/1300N R19/1300N FG VV001 02/02 Q1019=
200812160350 METAR ESMX 160350Z AUTO 09003KT 050V140 0350NDV R01/1200U R19/1100N FG VV001 02/01 Q1019=
200812160320 METAR ESMX 160320Z AUTO 06002KT 0200NDV R01/0800N R19/0800N FG VV001 02/01 Q1019=
200812160250 METAR ESMX 160250Z AUTO VRB01KT 0200NDV R01/0800 R19/0800N FG VV001 02/01 Q1019=
200812160220 METAR ESMX 160220Z VRB02KT 0200NDV R01/0750N R19/0800N FG VV001 02/01 Q1020=
200812160150 METAR ESMX 160150Z VRB02KT 0250 R01/0900N R19/0900N FG VV002 02/01 Q1020=
200812160120 METAR ESMX 160120Z VRB02KT 0200 R01/0800N R19/0900N FG VV002 02/01 Q1020=
200812160050 METAR ESMX 160050Z VRB02KT 0200 R01/0800N R19/0900N FG VV002 01/01 Q1020=
200812160020 METAR ESMX 160020Z VRB02KT 0200 R01/0800N R19/0900N FG VV002 01/01 Q1020=
200812152350 METAR ESMX 152350Z 02002KT 0250 R01/0900N R19/1000N FG VV002 01/01 Q1020=
200812152320 METAR ESMX 152320Z VRB01KT 0450 R01/1500D R19/1600D FG VV002 02/01 Q1021=
200812152250 METAR ESMX 152250Z VRB02KT 1000 R01/P2000N R19/P2000D FG VV002 01/01 Q1020=
200812152220 METAR ESMX 152220Z VRB02KT 1200 R01/P2000N R19/P2000U BR OVC001 01/01 Q1021=
200812152150 METAR ESMX 152150Z VRB01KT 0400 R01/1300N R19/1300V1900N FG VV002 01/01 Q1021 REDZ=
200812152120 METAR ESMX 152120Z 05003KT 010V100 0350 R01/1200U R19/1300N FG VV002 01/01 Q1020=
200812152050 METAR ESMX 152050Z 09003KT 030V130 0300 R01/1000N R19/1100N FG VV002 01/01 Q1021=
200812152020 METAR ESMX 152020Z 09003KT 030V130 0300 R01/1100N R19/1200N FG VV002 01/01 Q1021=
200812151950 METAR ESMX 151950Z VRB02KT 0300 R01/1000N R19/1200N FG VV002 01/01 Q1021=
200812151920 METAR ESMX 151920Z VRB02KT 0500 R01/1300N R19/1600N FG VV002 01/01 Q1021=
200812151850 METAR ESMX 151850Z 10003KT 0600 R01/1600N R19/1900D FG VV002 01/01 Q1021=
200812151820 METAR ESMX 151820Z VRB02KT 0600 R01/1900N R19/P2000D FG VV002 01/00 Q1021=
200812151750 METAR ESMX 151750Z VRB02KT 1100 R01/P2000U R19/P2000D BR OVC001 01/00 Q1021=
200812151720 METAR ESMX 151720Z 13004KT 070V200 1200 R01/P2000D R19/P2000D BR OVC002 01/00 Q1021=
200812151650 METAR ESMX 151650Z 12003KT 050V170 2000 BR BKN002 OVC004 01/00 Q1022=
200812151620 METAR ESMX 151620Z 12005KT 070V180 2000 BR OVC002 01/01 Q1021=
200812151550 METAR ESMX 151550Z 12005KT 060V190 2000 BR OVC002 01/01 Q1021=
200812151520 METAR ESMX 151520Z 12004KT 080V160 2500 BR OVC003 01/01 Q1021=
200812151450 METAR ESMX 151450Z 11004KT 050V170 2500 BR OVC003 01/01 Q1022=
200812151420 METAR ESMX 151420Z 12004KT 060V170 2000 BR BKN002 OVC005 01/01 Q1022=
200812151350 METAR ESMX 151350Z 13003KT 080V170 2500 BR SCT002 BKN004 OVC005 01/01 Q1022=
200812151320 METAR ESMX 151320Z 13005KT 070V210 1900 BR OVC001 01/01 Q1022=
200812151150 METAR ESMX 151150Z 09004KT 040V150 1200 R19/P2000N BR OVC001 01/01 Q1022=
200812151120 METAR ESMX 151120Z 10004KT 070V150 1300 R01/1900U R19/P2000N BR OVC001 01/01 Q1022=
200812151050 METAR ESMX 151050Z 10004KT 040V160 1200 R01/1800N R19/P2000U BR OVC002 01/01 Q1022=
200812151020 METAR ESMX 151020Z 10005KT 040V160 1500 BR OVC001 01/01 Q1022=
200812150950 METAR ESMX 150950Z 10005KT 050V140 1700 BR OVC001 01/01 Q1022=
200812150920 METAR ESMX 150920Z 10005KT 050V150 3100 BR OVC002 01/01 Q1023=
200812150850 METAR ESMX 150850Z 11003KT 060V160 6000 BR OVC003 01/01 Q1022=
200812150820 METAR ESMX 150820Z 11006KT 070V150 6000 BR OVC004 01/01 Q1022=
200812150720 METAR ESMX 150720Z 10004KT 060V140 9999 OVC006 02/00 Q1022=
200812150650 METAR ESMX 150650Z 10005KT 020V160 9999 OVC007 02/00 Q1022=
200812150620 METAR ESMX 150620Z 10005KT 030V170 9999 OVC007 02/00 Q1022=
200812150550 METAR ESMX 150550Z 10006KT 050V150 9999 OVC008 02/00 Q1022=
200812150520 METAR ESMX 150520Z 10005KT 050V150 9999 OVC008 02/00 Q1022=
200812150450 METAR ESMX 150450Z 10005KT 9999 OVC008 02/00 Q1022=
200812150420 METAR ESMX 150420Z 10005KT 9999 OVC007 02/00 Q1022=
200812150350 METAR ESMX 150350Z AUTO 11005KT 050V150 9999NDV OVC007/// 02/01 Q1022=
200812150320 METAR ESMX 150320Z AUTO 10005KT 020V150 9999NDV OVC007/// 02/01 Q1022=
200812150250 METAR ESMX 150250Z AUTO 09005KT 040V120 9999NDV OVC007/// 02/01 Q1022=
200812150220 METAR ESMX 150220Z AUTO 09005KT 040V170 9999NDV OVC007/// 02/01 Q1022=
200812150150 METAR ESMX 150150Z AUTO 09006KT 030V140 9999NDV OVC007/// 02/01 Q1022=
200812150120 METAR ESMX 150120Z 09006KT 9999 OVC007 02/01 Q1022=
200812150050 METAR ESMX 150050Z 08005KT 9999 BR BKN006 02/01 Q1022=
200812150020 METAR ESMX 150020Z 09005KT 030V140 8000 BR OVC006 02/01 Q1022=
200812142350 METAR ESMX 142350Z 09005KT 020V140 8000 BR OVC006 02/01 Q1022=
200812142320 METAR ESMX 142320Z 09006KT 020V120 8000 BR OVC006 02/01 Q1022=
200812142250 METAR ESMX 142250Z 09005KT 050V140 9000 BR OVC007 02/01 Q1021=
200812142220 METAR ESMX 142220Z 09006KT 020V140 9999 OVC008 02/01 Q1021=
200812142150 METAR ESMX 142150Z 09006KT 050V130 9999 BR OVC008 02/01 Q1021=
200812142120 METAR ESMX 142120Z 08005KT 360V140 9000 BR OVC008 02/01 Q1021=
200812142050 METAR ESMX 142050Z 08005KT 030V140 9000 BR OVC008 02/01 Q1021=
200812142020 METAR ESMX 142020Z 09005KT 030V160 9000 BR BKN008 02/01 Q1021=
200812141950 METAR ESMX 141950Z 10006KT 050V160 9000 BR BKN008 02/01 Q1021=
200812141920 METAR ESMX 141920Z 09005KT 050V160 8000 BR BKN008 02/01 Q1020=
200812141850 METAR ESMX 141850Z 10005KT 050V200 8000 BR OVC007 02/01 Q1020=
200812141820 METAR ESMX 141820Z 08005KT 350V150 8000 BR BKN007 OVC009 02/01 Q1020=
200812141750 METAR ESMX 141750Z 10004KT 050V140 8000 BR OVC007 02/01 Q1020=
200812141720 METAR ESMX 141720Z VRB05KT 8000 BR OVC007 02/01 Q1020=
200812141650 METAR ESMX 141650Z 08007KT 030V140 8000 BR OVC007 02/01 Q1020=
200812141620 METAR ESMX 141620Z 07007KT 020V110 8000 BR OVC007 02/01 Q1019=
200812141550 METAR ESMX 141550Z 08008KT 040V140 7000 BR OVC006 02/01 Q1019=
200812141520 METAR ESMX 141520Z 09006KT 030V160 7000 BR BKN007 OVC010 02/01 Q1019=
200812141450 METAR ESMX 141450Z 07005KT 020V130 7000 BR OVC007 02/01 Q1019=
200812141420 METAR ESMX 141420Z 08006KT 040V130 8000 BR OVC007 02/01 Q1019=
200812141350 METAR ESMX 141350Z 09005KT 050V140 8000 BR BKN006 OVC009 02/01 Q1019=
200812141250 METAR ESMX 141250Z 09006KT 030V150 8000 BR OVC006 02/01 Q1019=
200812141220 METAR ESMX 141220Z 09006KT 030V140 8000 BR OVC006 02/01 Q1018=
200812141150 METAR ESMX 141150Z 09007KT 020V160 8000 BR OVC006 02/01 Q1018=
200812141120 METAR ESMX 141120Z AUTO 10006KT 020V160 6000NDV BR OVC006/// 02/01 Q1018=
200812141050 METAR ESMX 141050Z AUTO 08007KT 020V150 5000NDV BR OVC005/// 02/01 Q1018=
200812141020 METAR ESMX 141020Z AUTO 09007G18KT 050V130 5000NDV BR OVC005/// 02/01 Q1018=
200812140950 METAR ESMX 140950Z AUTO 10006KT 050V160 4900NDV BR OVC005/// 02/01 Q1018=
200812140920 METAR ESMX 140920Z AUTO 10006KT 020V140 4900NDV BR OVC005/// 02/01 Q1018=
200812140850 METAR ESMX 140850Z AUTO 10006KT 040V160 5000NDV BR OVC006/// 02/01 Q1018=
200812140820 METAR ESMX 140820Z AUTO 10005KT 060V140 5000NDV BR OVC005/// 02/01 Q1018=
200812140750 METAR ESMX 140750Z AUTO 10006KT 060V140 6000NDV BR OVC006/// 02/01 Q1018=
200812140720 METAR ESMX 140720Z AUTO 10006KT 060V160 6000NDV BR BKN006/// OVC008/// 02/01 Q1017=
200812140650 METAR ESMX 140650Z AUTO 12007KT 080V160 7000NDV BR OVC007/// 02/01 Q1017=
200812140620 METAR ESMX 140620Z AUTO 11006KT 070V160 7000NDV BR OVC006/// 02/01 Q1016=
200812140550 METAR ESMX 140550Z AUTO 12008KT 050V200 8000NDV BR OVC007/// 02/01 Q1016=
200812140520 METAR ESMX 140520Z AUTO 11006KT 070V150 8000NDV BR OVC006/// 02/01 Q1016=
200812140450 METAR ESMX 140450Z AUTO 12007KT 070V180 8000NDV BR OVC005/// 02/01 Q1016=
200812140420 METAR ESMX 140420Z AUTO 13007KT 070V170 8000NDV BR FEW005/// OVC007/// 02/01 Q1016=
200812140350 METAR ESMX 140350Z AUTO 13007KT 080V190 8000NDV BR OVC006/// 02/01 Q1015=
200812140320 METAR ESMX 140320Z AUTO 12006KT 030V170 8000NDV BR OVC005/// 02/00 Q1015=
200812140250 METAR ESMX 140250Z AUTO 12007KT 050V230 7000NDV BR OVC007/// 01/00 Q1015=
200812140220 METAR ESMX 140220Z AUTO 11008KT 060V170 8000NDV BR OVC008/// 01/00 Q1015=
200812140150 METAR ESMX 140150Z AUTO 10006KT 040V150 9000NDV BR OVC009/// 01/M00 Q1015=
200812140120 METAR ESMX 140120Z AUTO 11009G19KT 010V160 9999NDV BR OVC009/// 01/M00 Q1015=
200812140050 METAR ESMX 140050Z AUTO 10008KT 050V160 9000NDV BR FEW007/// OVC010/// 01/00 Q1014=
200812140020 METAR ESMX 140020Z AUTO 11008KT 8000NDV BR BKN007/// OVC009/// 01/00 Q1014=
200812132350 METAR ESMX 132350Z AUTO 10007KT 050V160 9000NDV BR FEW006/// BKN008/// OVC010/// 01/00 Q1015=
200812132320 METAR ESMX 132320Z AUTO 10009G19KT 050V150 9000NDV BR BKN006/// OVC010/// 01/00 Q1015=
200812132250 METAR ESMX 132250Z AUTO 10010G23KT 050V150 7000NDV BR FEW004/// BKN006/// OVC010/// 02/01 Q1015=
200812132220 METAR ESMX 132220Z AUTO VRB08G20KT 3300NDV BR OVC002/// 02/01 Q1015=
200812132150 METAR ESMX 132150Z AUTO 10007KT 030V170 2300NDV BR OVC002/// 02/02 Q1015=
200812132120 METAR ESMX 132120Z AUTO 09007KT 040V140 2200NDV BR OVC002/// 02/02 Q1015=
200812132050 METAR ESMX 132050Z AUTO 10007KT 030V160 1800NDV BR OVC002/// 02/01 Q1015=
200812132020 METAR ESMX 132020Z AUTO 10005KT 050V170 2100NDV BR OVC002/// 02/01 Q1016=
200812131950 METAR ESMX 131950Z AUTO 09006KT 050V190 3100NDV BR OVC002/// 02/01 Q1016=
200812131920 METAR ESMX 131920Z AUTO 09005KT 040V140 3000NDV BR OVC003/// 02/01 Q1016=
200812131850 METAR ESMX 131850Z AUTO 08005KT 010V110 5000NDV BR FEW002/// OVC003/// 01/01 Q1016=
200812131820 METAR ESMX 131820Z AUTO 09005KT 040V140 4000NDV BR OVC002/// 01/01 Q1016=
200812131750 METAR ESMX 131750Z AUTO 09005KT 050V140 4900NDV BR OVC001/// 01/01 Q1016=
200812131720 METAR ESMX 131720Z AUTO 08004KT 010V130 4000NDV BR OVC001/// 01/01 Q1016=
200812131650 METAR ESMX 131650Z AUTO 09005KT 040V140 8000NDV BR OVC002/// 01/01 Q1017=
200812131620 METAR ESMX 131620Z AUTO 08005KT 050V130 9999NDV OVC004/// 01/00 Q1017=
200812131550 METAR ESMX 131550Z AUTO 09004KT 050V140 9999NDV OVC004/// 01/00 Q1017=
200812131520 METAR ESMX 131520Z AUTO 09005KT 040V150 9999NDV OVC004/// 01/00 Q1017=
200812131450 METAR ESMX 131450Z AUTO 08004KT 010V130 9999NDV OVC005/// 01/00 Q1017=
200812131420 METAR ESMX 131420Z AUTO 08004KT 030V140 9999NDV OVC004/// 01/00 Q1017=
200812131350 METAR ESMX 131350Z AUTO 09004KT 030V140 9999NDV OVC002/// 00/00 Q1017=
200812131320 METAR ESMX 131320Z AUTO 08004KT 050V140 7000NDV BR OVC002/// 00/M00 Q1018=
200812131250 METAR ESMX 131250Z AUTO 10005KT 060V120 3500NDV BR OVC001/// 00/M00 Q1018=
200812131220 METAR ESMX 131220Z AUTO 09005KT 6000NDV BR OVC001/// M00/M00 Q1018=
200812131150 METAR ESMX 131150Z AUTO 30004KT 5000NDV BR OVC001/// M00/M01 Q1019=
200812131120 METAR ESMX 131120Z AUTO 30004KT 4900NDV BR OVC001/// M01/M01 Q1019=
200812131050 METAR ESMX 131050Z AUTO 29003KT 9999NDV SCT003/// BKN005/// OVC006/// M01/M01 Q1019 RESN RESG=
200812131020 METAR ESMX 131020Z AUTO 10004KT 050V150 2100NDV SG SCT004/// BKN006/// OVC008/// M01/M01 Q1019 RESN=
200812130950 METAR ESMX 130950Z AUTO 29004KT 1600NDV -SN FEW003/// BKN005/// OVC008/// M01/M01 Q1020=
200812130920 METAR ESMX 130920Z AUTO 29003KT 1500NDV -SN SCT004/// BKN008/// OVC010/// M01/M02 Q1020 RESG=
200812130850 METAR ESMX 130850Z AUTO 10005KT 040V140 6000NDV SG OVC003/// M01/M02 Q1020 RESN=
200812130820 METAR ESMX 130820Z AUTO 29004KT 2200NDV SG BKN003/// OVC006/// M01/M02 Q1020=
200812130750 METAR ESMX 130750Z AUTO 07004KT 040V110 4300NDV SG FEW005/// OVC008/// M02/M02 Q1020 RESN=
200812130720 METAR ESMX 130720Z AUTO 29003KT 2900NDV SG OVC005/// M02/M02 Q1020 RESN=
200812130650 METAR ESMX 130650Z AUTO 11004KT 060V120 5000NDV SG OVC006/// M02/M02 Q1020 RESN=
200812130620 METAR ESMX 130620Z AUTO 09005KT 9000NDV SG OVC007/// M02/M02 Q1019 RESN=
200812130550 METAR ESMX 130550Z AUTO 34002KT 3800NDV SG FEW005/// SCT006/// OVC008/// M02/M02 Q1019 RESN=
200812130520 METAR ESMX 130520Z AUTO 34002KT 2200NDV SG OVC005/// M02/M02 Q1019=
200812130450 METAR ESMX 130450Z AUTO 34002KT 4400NDV SG OVC004/// M02/M02 Q1019=
200812130420 METAR ESMX 130420Z AUTO 34002KT 2900NDV SG OVC002/// M02/M02 Q1019 RESN=
200812130350 METAR ESMX 130350Z AUTO 34001KT 4400NDV SG SCT003/// OVC006/// M02/M02 Q1019 RESN=
200812130320 METAR ESMX 130320Z AUTO 34002KT 1800NDV -SN FEW002/// OVC006/// M02/M02 Q1019 RESG=
200812130250 METAR ESMX 130250Z AUTO 00000KT 1300NDV R01/P2000N R19/P2000D -SN OVC001/// M02/M02 Q1019 RESG=
200812130220 METAR ESMX 130220Z AUTO 34003KT 2200NDV SG OVC001/// M02/M02 Q1019=
200812130150 METAR ESMX 130150Z AUTO 34004KT 1600NDV BR OVC001/// M02/M02 Q1019=
200812130120 METAR ESMX 130120Z AUTO 30004KT 5000NDV OVC001/// M01/M02 Q1018=
200812130050 METAR ESMX 130050Z AUTO 29005KT 9999NDV OVC002/// M01/M02 Q1018=
200812130020 METAR ESMX 130020Z AUTO 29004KT 9999NDV OVC003/// M01/M02 Q1018=
200812122350 METAR ESMX 122350Z AUTO 32004KT 9999NDV OVC005/// M01/M02 Q1017=
200812122320 METAR ESMX 122320Z AUTO 33005KT 9999NDV OVC006/// M00/M01 Q1017=
200812122250 METAR ESMX 122250Z AUTO 29004KT 9999NDV OVC005/// M00/M01 Q1017=
200812122220 METAR ESMX 122220Z AUTO 33003KT 9999NDV OVC005/// M00/M01 Q1017=
200812122150 METAR ESMX 122150Z AUTO 32005KT 9999NDV OVC005/// M00/M01 Q1017=
200812122120 METAR ESMX 122120Z AUTO 28003KT 9999NDV OVC006/// M00/M01 Q1016=
200812122050 METAR ESMX 122050Z AUTO 29003KT 9999NDV OVC006/// 00/M00 Q1016=
200812122020 METAR ESMX 122020Z 29003KT 9999 OVC006 00/M00 Q1016=
200812121950 METAR ESMX 121950Z 29003KT 9999 OVC004 00/M00 Q1015=
200812121920 METAR ESMX 121920Z 28004KT 9999 BKN003 00/M00 Q1015=
200812121850 METAR ESMX 121850Z 27005KT 8000 BR BKN002 OVC004 00/M00 Q1014=
200812121820 METAR ESMX 121820Z 27003KT 9999 BKN002 OVC005 M00/M00 Q1014=
200812121750 METAR ESMX 121750Z 27004KT 9999 BKN002 M00/M00 Q1014=
200812121720 METAR ESMX 121720Z 27004KT 9999 BKN002 00/M00 Q1013=
200812121620 METAR ESMX 121620Z 26003KT 9999 -SN BKN002 OVC004 00/00 Q1013=
200812121550 METAR ESMX 121550Z 25003KT 9999 -SN OVC002 00/00 Q1013=
200812121520 METAR ESMX 121520Z 25002KT 6000 -SN SCT001 OVC003 00/00 Q1012=
200812121450 METAR ESMX 121450Z 24001KT 5000 -SN BR OVC003 00/00 Q1012=
200812121420 METAR ESMX 121420Z VRB01KT 3500 -SN BR OVC002 00/00 Q1012=
200812121320 METAR ESMX 121320Z 26001KT 9999 OVC002 00/00 Q1011=
200812121250 METAR ESMX 121250Z 00000KT 9999 -DZ FEW002 OVC003 00/00 Q1011 RERA=
200812121220 METAR ESMX 121220Z 00000KT 9999 -DZ FEW002 OVC003 01/00 Q1011 RERA=
200812121150 METAR ESMX 121150Z 00000KT 9999 -RASN SCT002 BKN004 00/00 Q1011 REDZ=
200812121120 METAR ESMX 121120Z 00000KT 9999 -SN BKN001 OVC005 01/00 Q1011 RESN=
200812121050 METAR ESMX 121050Z 04002KT 2400 SN SCT002 BKN004 01/00 Q1011=
200812121020 METAR ESMX 121020Z 02003KT 2500 RA BKN002 OVC005 01/00 Q1011=
200812120950 METAR ESMX 120950Z 02003KT 350V050 1800 -SN FEW002 SCT005 BKN009 00/00 Q1011=
200812120920 METAR ESMX 120920Z 02003KT 1500 -SN BKN004 00/00 Q1011=
200812120850 METAR ESMX 120850Z 01004KT 1300 R01/P2000D R19/P2000D -SN FEW002 SCT004 BKN010 00/00 Q1011=
200812120820 METAR ESMX 120820Z 01005KT 1300 R01/P2000N R19/P2000U -SN FEW002 SCT005 BKN006 00/M00 Q1011=
200812120720 METAR ESMX 120720Z 02005KT 2200 -SN FEW001 SCT003 BKN005 00/M00 Q1011=
200812120650 METAR ESMX 120650Z 02005KT 1400 R01/P2000U R19/P2000N -SN FEW002 SCT005 BKN007 00/M00 Q1011=
200812120620 METAR ESMX 120620Z 02005KT 1100 R01/P2000D R19/P2000D -SN FEW002 SCT004 BKN006 00/M00 Q1011=
200812120550 METAR ESMX 120550Z 01005KT 1900 -SN FEW003 SCT005 BKN007 00/M00 Q1011=
200812120520 METAR ESMX 120520Z 01006KT 2600 -SN OVC005 M00/M00 Q1011=
200812120450 METAR ESMX 120450Z 02007KT 2600 -SN FEW004 BKN006 OVC008 M00/M00 Q1011=
200812120420 METAR ESMX 120420Z 01007KT 2000 -SN FEW003 BKN006 BKN008 M00/M00 Q1011=
200812120350 METAR ESMX 120350Z AUTO 03007KT 2500NDV -SN FEW004/// BKN006/// M00/M00 Q1012=
200812120320 METAR ESMX 120320Z AUTO 03007KT 2900NDV -SN FEW004/// BKN006/// BKN008/// M00/M00 Q1012=
200812120250 METAR ESMX 120250Z AUTO 03007KT 010V070 2600NDV -SN FEW003/// BKN005/// BKN008/// M00/M00 Q1012=
200812120220 METAR ESMX 120220Z AUTO 03007KT 2000NDV -SN FEW004/// BKN005/// BKN007/// M00/M00 Q1012=
200812120150 METAR ESMX 120150Z AUTO 02007KT 2200NDV -SN FEW004/// BKN006/// M00/M00 Q1013=
200812120120 METAR ESMX 120120Z AUTO 02007KT 3500NDV -SN FEW003/// BKN005/// BKN008/// M00/M00 Q1013=
200812120020 METAR ESMX 120020Z 02006KT 1700 SN FEW002 SCT005 BKN006 M00/M01 Q1014=
200812112350 METAR ESMX 112350Z 01007KT 1600 -SN FEW003 SCT005 M00/M01 Q1014=
200812112320 METAR ESMX 112320Z 02007KT 2800 -SN FEW004 SCT006 BKN009 M01/M01 Q1015=
200812112220 METAR ESMX 112220Z 02005KT 4900 -SN FEW005 M01/M01 Q1015=
200812112150 METAR ESMX 112150Z 03005KT 2100 SN FEW004 BKN006 M01/M01 Q1015=
200812112120 METAR ESMX 112120Z 04006KT 2400 SN OVC004 M01/M01 Q1015=
200812112020 METAR ESMX 112020Z 03006KT 7000 SN BKN005 M01/M02 Q1015=
200812111950 METAR ESMX 111950Z 02005KT 9999 -SN FEW008 BKN013 BKN018 M01/M02 Q1016=
200812111920 METAR ESMX 111920Z 02005KT 9999 FEW006 SCT013 OVC016 M01/M02 Q1016=
200812111820 METAR ESMX 111820Z 02004KT 9999 OVC010 M02/M02 Q1016=
200812111750 METAR ESMX 111750Z 03003KT 9999 BKN016 M02/M03 Q1016=
200812111720 METAR ESMX 111720Z 03004KT 9999 FEW010 BKN015 M02/M03 Q1016=
200812111650 METAR ESMX 111650Z 03002KT 9999 BKN007 OVC010 M02/M03 Q1017=
200812111620 METAR ESMX 111620Z 03003KT 9999 OVC008 M02/M03 Q1017 RESG RESN=
200812111550 METAR ESMX 111550Z 02003KT 9999 -SN FEW008 OVC009 M02/M03 Q1017 RESG=
200812111520 METAR ESMX 111520Z 01003KT 9999 FEW008 OVC009 M01/M02 Q1017 RESN RESG=
200812111450 METAR ESMX 111450Z 02003KT 3000 -SN FEW005 OVC007 M01/M02 Q1017 RESG=
200812111420 METAR ESMX 111420Z 02003KT 2500 -SN OVC003 M01/M02 Q1016 RESG=
200812111350 METAR ESMX 111350Z 01004KT 9999 OVC003 M01/M02 Q1016=
200812111320 METAR ESMX 111320Z 01003KT 9999 OVC004 M01/M02 Q1016=
200812111250 METAR ESMX 111250Z 01002KT 9999 OVC004 M01/M02 Q1016=
200812111220 METAR ESMX 111220Z 35003KT 9999 OVC004 M01/M02 Q1016=
200812111150 METAR ESMX 111150Z 35002KT 9999 OVC005 M01/M02 Q1016=
200812111120 METAR ESMX 111120Z 01002KT 9999 OVC005 M01/M02 Q1016=
200812111050 METAR ESMX 111050Z 33003KT 9999 OVC006 M01/M02 Q1016=
200812111020 METAR ESMX 111020Z 33003KT 9999 OVC006 M01/M02 Q1016=
200812110950 METAR ESMX 110950Z 33001KT 9999 OVC006 M01/M02 Q1016=
200812110920 METAR ESMX 110920Z 33001KT 9999 OVC007 M01/M02 Q1016=
200812110850 METAR ESMX 110850Z 36001KT 9999 FEW005 SCT007 OVC010 M01/M02 Q1016=
200812110820 METAR ESMX 110820Z 33001KT 9999 OVC005 M01/M02 Q1016=
200812110750 METAR ESMX 110750Z 00000KT 9999 OVC005 M01/M02 Q1015=
200812110720 METAR ESMX 110720Z 00000KT 9999 OVC005 M01/M02 Q1015=
200812110650 METAR ESMX 110650Z 00000KT 9999 OVC005 M01/M02 Q1015=
200812110620 METAR ESMX 110620Z 00000KT 9999 OVC006 M01/M02 Q1015=
200812110550 METAR ESMX 110550Z 32002KT 9999 OVC005 M01/M02 Q1015=
200812110520 METAR ESMX 110520Z 32001KT 9999 SCT003 OVC006 M01/M02 Q1014=
200812110450 METAR ESMX 110450Z 32002KT 9999 BKN006 OVC008 M01/M02 Q1014=
200812110420 METAR ESMX 110420Z 32002KT 9999 BKN006 BKN013 M02/M02 Q1014=
200812110350 METAR ESMX 110350Z AUTO 00000KT 9999NDV OVC006/// M01/M02 Q1014=
200812110320 METAR ESMX 110320Z AUTO 32002KT 9999NDV BR OVC006/// M02/M02 Q1014=
200812110250 METAR ESMX 110250Z AUTO 00000KT 7000NDV BR OVC006/// M01/M02 Q1014=
200812110220 METAR ESMX 110220Z AUTO 00000KT 9999NDV FEW005/// OVC007/// M01/M02 Q1014=
200812110150 METAR ESMX 110150Z AUTO 32001KT 9999NDV OVC004/// M01/M02 Q1014=
200812110120 METAR ESMX 110120Z AUTO 33002KT 9999NDV SCT003/// BKN006/// OVC039/// M01/M02 Q1014=
200812110050 METAR ESMX 110050Z 00000KT 9000 FEW004 SCT006 BKN039 M01/M01 Q1013 RESN RESG=
200812110020 METAR ESMX 110020Z 33001KT 5000 -SN FEW003 SCT006 BKN035 M01/M01 Q1013 RESG=
200812102350 METAR ESMX 102350Z 33002KT 3100 SN FEW007 SCT024 BKN037 M01/M01 Q1013=
200812102320 METAR ESMX 102320Z 33002KT 3100 SN FEW007 SCT009 BKN020 M01/M01 Q1013 RESG=
200812102250 METAR ESMX 102250Z 33002KT 9999 FEW006 SCT009 BKN013 M01/M01 Q1013=
200812102220 METAR ESMX 102220Z 33002KT 9999 FEW006 BKN009 M01/M02 Q1013=
200812102150 METAR ESMX 102150Z 33003KT 9999 FEW007 OVC011 M01/M02 Q1013=
200812102050 METAR ESMX 102050Z 34003KT 9999 BKN011 OVC029 M01/M01 Q1012=
200812102020 METAR ESMX 102020Z 34004KT 9999 SCT027 BKN032 OVC045 M01/M01 Q1012=
200812101950 METAR ESMX 101950Z 36003KT 9999 FEW010 OVC026 M01/M01 Q1012=
200812101920 METAR ESMX 101920Z 35002KT 9999 FEW007 SCT027 OVC037 M01/M01 Q1012 RESN=
200812101850 METAR ESMX 101850Z 35003KT 9999 -SN FEW006 SCT026 OVC035 M01/M01 Q1011=
200812101820 METAR ESMX 101820Z 36005KT 9999 FEW026 BKN034 OVC044 M01/M02 Q1011 RESN RESG=
200812101750 METAR ESMX 101750Z 35005KT 9999 -SN FEW008 BKN036 M01/M01 Q1011=
200812101720 METAR ESMX 101720Z 35005KT 9999 -SN FEW006 SCT013 BKN035 M01/M01 Q1011 RESG=
200812101650 METAR ESMX 101650Z 36007KT 8000 SG FEW007 BKN010 OVC016 M00/M01 Q1010 RESN=
200812101620 METAR ESMX 101620Z 01005KT 5000 -SN SCT005 SCT008 BKN010 M00/M01 Q1010=
200812101550 METAR ESMX 101550Z 35006KT 3000 -SN FEW006 SCT008 BKN010 M00/M01 Q1010=
200812101520 METAR ESMX 101520Z 35007KT 9999 -SN FEW006 SCT008 OVC012 M00/M00 Q1009 RESG=
200812101450 METAR ESMX 101450Z 35007KT 6000 SG FEW006 BKN007 OVC012 00/M00 Q1009 RESN=
200812101420 METAR ESMX 101420Z 36007KT 9000 -RASN FEW005 SCT007 BKN010 00/M00 Q1009=
200812101350 METAR ESMX 101350Z 35007KT 5000 -RASN FEW004 SCT007 BKN010 00/00 Q1008=
200812101320 METAR ESMX 101320Z 32004KT 290V350 3500 -RASN FEW004 SCT006 BKN010 00/00 Q1008=
200812101250 METAR ESMX 101250Z 33006KT 4000 RASN FEW004 SCT010 BKN015 00/00 Q1008=
200812101220 METAR ESMX 101220Z 35005KT 3000 RA FEW004 SCT010 BKN015 00/00 Q1008=
200812101150 METAR ESMX 101150Z 34005KT 2500 RA BKN005 00/00 Q1008=
200812101120 METAR ESMX 101120Z 32004KT 1600 +RA FEW002 SCT004 BKN006 00/00 Q1008=
200812101050 METAR ESMX 101050Z 33005KT 2200 RA SCT004 BKN006 00/00 Q1008=
200812101020 METAR ESMX 101020Z 35005KT 4000 -SN VV002 00/00 Q1008=
200812100950 METAR ESMX 100950Z 34004KT 1400 R01/1400VP2000U R19/P2000N -SN BKN004 00/00 Q1008 RERA=
200812100920 METAR ESMX 100920Z 34004KT 2000 -RA FEW002 SCT006 00/00 Q1007 RESN=
200812100850 METAR ESMX 100850Z 34004KT 2800 -SN VV002 00/00 Q1007=
200812100820 METAR ESMX 100820Z 35004KT 1800 -SN VV02 00/00 Q1007=
200812100750 METAR ESMX 100750Z 36004KT 2500 -SN VV002 00/00 Q1007=
200812100720 METAR ESMX 100720Z 01004KT 3300 -SN FEW002 00/00 Q1007=
200812100650 METAR ESMX 100650Z 36004KT 2000 -SN BKN002 00/00 Q1007=
200812100620 METAR ESMX 100620Z 35003KT 2000 -SN FEW001 SCT002 BKN003 00/00 Q1006=
200812100550 METAR ESMX 100550Z 35003KT 1100 R01/P2000D R19/P2000N -SN BKN002 00/00 Q1006=
200812100520 METAR ESMX 100520Z 34004KT 1600 -SN FEW001 SCT005 00/00 Q1006=
200812100450 METAR ESMX 100450Z AUTO 35003KT 1600NDV -SN FEW001/// SCT006/// BKN008/// 00/00 Q1006=
200812100420 METAR ESMX 100420Z AUTO 35003KT 1000NDV R01/P2000U R19/P2000U -SN VV005 00/00 Q1006=
200812100350 METAR ESMX 100350Z AUTO 35003KT 1400NDV R01/P2000D R19/P2000D -SN OVC001/// 00/00 Q1006 RERA=
200812100320 METAR ESMX 100320Z AUTO 36002KT 1400NDV R01/P2000U R19/P2000U +RA SCT001/// BKN004/// BKN012/// 00/00 Q1006=
200812100250 METAR ESMX 100250Z AUTO 35002KT 1200NDV R01/P2000U R19/P2000D +RA BKN001/// OVC008/// 00/00 Q1006=
200812100220 METAR ESMX 100220Z AUTO 01002KT 1700NDV +RA BKN001/// BKN010/// 00/00 Q1006=
200812100150 METAR ESMX 100150Z AUTO 36001KT 3000NDV RA FEW003/// SCT010/// 01/00 Q1006=
200812100120 METAR ESMX 100120Z AUTO 00000KT 4700NDV RA SCT006/// 01/00 Q1006=
200812100050 METAR ESMX 100050Z 10001KT 4300 -SN BKN005 01/01 Q1006=
200812100020 METAR ESMX 100020Z 00000KT 5000 -SN OVC002 01/01 Q1007 REDZ=
200812092320 METAR ESMX 092320Z AUTO 18002KT 6000NDV DZ FEW003/// 01/01 Q1007 RERA=
200812092250 METAR ESMX 092250Z AUTO VRB01KT 9000NDV -RA OVC003/// 02/01 Q1007=
200812092220 METAR ESMX 092220Z 17004KT 9999 FEW012 SCT048 02/01 Q1007=
200812092150 METAR ESMX 092150Z 17004KT 9999 SCT004 OVC013 02/02 Q1007=
200812092120 METAR ESMX 092120Z VRB01KT 0800 R01/P2000N R19/1400VP2000U VV003 02/02 Q1007=
200812092050 METAR ESMX 092050Z 00000KT 0550 R01/P2000U R19/1700D FG VV002 02/02 Q1007=
200812092020 METAR ESMX 092020Z 00000KT 0500 R01/1600N R19/1800U FG VV001 02/02 Q1007=
200812091950 METAR ESMX 091950Z 00000KT 0450 R01/1500N R19/1700D FG OVC001 02/01 Q1007=
200812091920 METAR ESMX 091920Z 00000KT 1700 R01/1700N R19/P2000U FG OVC003 02/02 Q1007=
200812091850 METAR ESMX 091850Z 00000KT 2500 R01/P2000D R19/P2000D BR OVC003 02/02 Q1008=
200812091820 METAR ESMX 091820Z 14001KT 2500 BR SCT005 BKN020 02/01 Q1008=
200812091750 METAR ESMX 091750Z 13001KT 3100 BR FEW002 OVC005 02/01 Q1008=
200812091720 METAR ESMX 091720Z 17002KT 4300 BR FEW003 SCT005 02/01 Q1008=
200812091650 METAR ESMX 091650Z 00000KT 2600 BKN003 OVC066 02/01 Q1008=
200812091620 METAR ESMX 091620Z 00000KT 0800 R01/P2000U R19/P2000U FG FEW005 SCT009 OVC067 02/01 Q1008=
200812091550 METAR ESMX 091550Z 00000KT 2100 BR FEW020 SCT068 02/01 Q1008=
200812091520 METAR ESMX 091520Z 20001KT 6000 BR FEW005 SCT009 02/02 Q1008=
200812091450 METAR ESMX 091450Z 21001KT 8000 BR FEW006 SCT007 BKN009 02/02 Q1008=
200812091420 METAR ESMX 091420Z 00000KT 9999 FEW006 SCT008 BKN068 03/02 Q1008=
200812091350 METAR ESMX 091350Z 23002KT 9999 FEW010 03/02 Q1008=
200812091320 METAR ESMX 091320Z 23004KT CAVOK 03/02 Q1008=
200812091250 METAR ESMX 091250Z 24006KT 9999 FEW009 04/02 QNH1008=
200812091220 METAR ESMX 091220Z 23005KT 9999 FEW007 SCT009 BKN015 04/02 Q1008=
200812091150 METAR ESMX 091150Z VRB02KT 9999 BKN008 OVC011 04/02 Q1009=
200812091120 METAR ESMX 091120Z 24006KT 9999 BKN008 04/02 QNH1009=
200812091050 METAR ESMX 091050Z 24006KT 9999 BKN007 04/02 1009=
200812090950 METAR ESMX 090950Z 24005KT 9999 BKN007 03/03 Q1009=
200812090850 METAR ESMX 090850Z 20004KT 9999 BKN006 03/02 Q1009=
200812090820 METAR ESMX 090820Z 23004KT 9999 BKN015 BKN110 03/02 Q1009=
200812090750 METAR ESMX 090750Z 22004KT 9999 FEW010 BKN015 03/02 Q1009=
200812090720 METAR ESMX 090720Z 23005KT 200V270 9999 FEW006 SCT011 OVC015 03/02 Q1009=
200812090650 METAR ESMX 090650Z 23003KT 9999 BR FEW003 BKN005 OVC015 03/02 Q1009=
200812090620 METAR ESMX 090620Z 22005KT 9000 BR SCT002 BKN005 03/02 Q1009=
200812090550 METAR ESMX 090550Z 23006KT 200V270 8000 BR BKN003 BKN005 03/02 Q1009=
200812090520 METAR ESMX 090520Z AUTO 24006KT 210V290 9000NDV FEW005/// SCT006/// OVC008/// 03/03 Q1009=
200812090450 METAR ESMX 090450Z AUTO 25006KT 220V290 9999NDV FEW005/// SCT007/// BKN008/// 03/03 Q1009=
200812090420 METAR ESMX 090420Z AUTO 23006KT 9999NDV SCT024/// 02/02 Q1009=
200812090350 METAR ESMX 090350Z AUTO 22005KT 9999NDV BKN026/// 03/03 Q1009=
200812090320 METAR ESMX 090320Z AUTO 22004KT 9000NDV FEW025/// BKN028/// 03/03 Q1009=
200812090250 METAR ESMX 090250Z AUTO 24004KT 9000NDV FEW007/// SCT031/// 03/02 Q1009=
200812090220 METAR ESMX 090220Z AUTO 24004KT 9999NDV NCD 03/02 Q1009=
200812090150 METAR ESMX 090150Z AUTO 25004KT 9999NDV FEW012/// 03/02 Q1009=
200812090120 METAR ESMX 090120Z AUTO 24006KT 210V280 9999NDV FEW008/// BKN010/// 05/04 Q1009=
200812090050 METAR ESMX 090050Z 24006KT 210V280 9999 FEW009 SCT014 BKN037 05/04 Q1009=
200812090020 METAR ESMX 090020Z 25004KT 9999 FEW005 SCT016 BKN018 05/05 Q1009=
200812082350 METAR ESMX 082350Z AUTO 28005KT 4100NDV DZ FEW002/// SCT005/// BKN006/// 05/05 Q1009 RERA=
200812082320 METAR ESMX 082320Z AUTO 24007KT 200V260 3300NDV -RA BKN002/// OVC006/// 05/05 Q1009=
200812082250 METAR ESMX 082250Z 23006KT 3100 BR BKN002 OVC005 05/05 Q1009 RERA REDZ=
200812082220 METAR ESMX 082220Z 22006KT 170V240 7000 BR OVC002 05/05 Q1009=
200812082150 METAR ESMX 082150Z 21007KT 3200 BR OVC002 05/04 Q1009=
200812082120 METAR ESMX 082120Z 21007KT 7000 BR OVC003 05/04 Q1009=
200812082050 METAR ESMX 082050Z 20007KT 8000 BR OVC004 05/04 Q1009=
200812082020 METAR ESMX 082020Z 20008KT 8000 BR OVC003 05/04 Q1009=
200812081950 METAR ESMX 081950Z 20008KT 7000 BR OVC003 05/04 Q1009=
200812081920 METAR ESMX 081920Z 20009KT 6000 BR OVC003 05/04 Q1010=
200812081850 METAR ESMX 081850Z 20009KT 5000 BR OVC002 05/04 Q1010=
200812081820 METAR ESMX 081820Z 20010KT 4900 BR OVC003 04/04 Q1010=
200812081750 METAR ESMX 081750Z 20009KT 5000 BR OVC004 04/04 Q1010=
200812081720 METAR ESMX 081720Z 19009KT 5000 BR OVC004 04/04 Q1010=
200812081650 METAR ESMX 081650Z 19009KT 5000 BR SCT003 BKN004 04/04 Q1011 REDZ=
200812081620 METAR ESMX 081620Z 19009KT 4100 DZ BKN004 OVC008 04/03 Q1011=
200812081550 METAR ESMX 081550Z 20008KT 5000 BR FEW003 BKN004 OVC006 04/03 Q1011=
200812081520 METAR ESMX 081520Z 20008KT 4600 BR OVC003 03/03 Q1011=
200812081450 METAR ESMX 081450Z 20008KT 4700 BR OVC003 03/03 Q1012=
200812081420 METAR ESMX 081420Z 20008KT 5000 BR FEW003 OVC005 03/03 Q1012=
200812081350 METAR ESMX 081350Z 20008KT 5000 BR BKN002 OVC004 03/03 Q1012=
200812081320 METAR ESMX 081320Z 20008KT 2200 BR BKN002 03/03 Q1012=
200812081250 METAR ESMX 081250Z 20009KT 1700 BR BKN002 03/02 Q1013=
200812081220 METAR ESMX 081220Z 20009KT 0900 R01/1400N R19/1600N FG VV002 03/02 Q1013=
200812081150 METAR ESMX 081150Z 20008KT 0900 R01/1500N R19/1600U FG VV002 02/02 Q1013=
200812081120 METAR ESMX 081120Z 19008KT 0500 R01/0900N R19/0900N FG VV002 02/02 Q1013=
200812081050 METAR ESMX 081050Z 18008KT 0450 R01/0900N R19/0900N FG VV002 02/01 Q1014=
200812081020 METAR ESMX 081020Z 18006KT 0500 R01/0900N R19/0900N FG VV002 01/01 Q1014=
200812080950 METAR ESMX 080950Z 17007KT 0550 R01/1000D R19/1100N FG VV002 01/01 Q1015=
200812080920 METAR ESMX 080920Z 19008KT 1300 R01/P2000D R19/P2000D BR OVC002 01/01 Q1015=
200812080850 METAR ESMX 080850Z 17007KT 1500 BR OVC002 01/00 Q1015=
200812080820 METAR ESMX 080820Z 18007KT 0900 R01/1600D R19/P2000D FG VV002 01/00 Q1015=
200812080750 METAR ESMX 080750Z 18006KT 1200 R01/P2000N R19/P2000N BR VV002 00/00 Q1016=
200812080720 METAR ESMX 080720Z 18005KT 3000 BR OVC002 M00/M00 Q1016=
200812080650 METAR ESMX 080650Z 17006KT 6000 BR OVC003 M00/M01 Q1016=
200812080620 METAR ESMX 080620Z 18004KT 9999 SCT004 BKN025 M01/M01 Q1016=
200812080550 METAR ESMX 080550Z 17005KT 9999 FEW003 OVC026 M01/M01 Q1016=
200812080520 METAR ESMX 080520Z 17005KT 9999 BKN002 OVC026 M01/M01 Q1017=
200812080450 METAR ESMX 080450Z 16004KT 9999 BKN002 OVC023 M01/M01 Q1017=
200812080420 METAR ESMX 080420Z AUTO 18005KT 7000NDV OVC001/// M01/M01 Q1017=
200812080350 METAR ESMX 080350Z AUTO 17004KT 2900NDV VV001 M01/M01 Q1017=
200812080320 METAR ESMX 080320Z AUTO 19006KT 0750NDV R01/P2000D R19/P2000U FZFG VV001 M01/M02 Q1017=
200812080250 METAR ESMX 080250Z AUTO 21005KT 170V230 0250NDV R01/0900N R19/1100N FZFG VV001 M01/M02 Q1018=
200812080220 METAR ESMX 080220Z AUTO 20004KT 0150NDV R01/0650N R19/0700 FZFG VV001 M02/M02 Q1018=
200812080150 METAR ESMX 080150Z AUTO 14002KT 4100NDV BR SCT018/// M01/M02 Q1018=
200812080120 METAR ESMX 080120Z 18003KT 6000 BR SCT019 M01/M02 Q1018=
200812080050 METAR ESMX 080050Z 21003KT 9000 BKN016 M01/M02 Q1018=
200812080020 METAR ESMX 080020Z 17002KT 9999 BKN015 M01/M01 Q1018=
200812072350 METAR ESMX 072350Z VRB02KT 9999 OVC014 M00/M01 Q1018=
200812072320 METAR ESMX 072320Z 25002KT 9999 OVC012 M00/M01 Q1018=
200812072250 METAR ESMX 072250Z 32002KT 9999 OVC014 M00/M01 Q1018=
200812072220 METAR ESMX 072220Z 33003KT 300V010 9999 BKN012 00/M02 Q1018=
200812072120 METAR ESMX 072120Z 30005KT 9999 OVC007 00/M01 Q1018=
200812072050 METAR ESMX 072050Z 29005KT 9999 OVC008 00/M01 Q1018=
200812072020 METAR ESMX 072020Z 31004KT 270V340 9999 OVC008 00/M01 Q1018=
200812071950 METAR ESMX 071950Z 30004KT 260V330 9999 OVC008 00/M01 Q1018=
200812071920 METAR ESMX 071920Z 30003KT 260V350 9999 OVC008 M00/M01 Q1018=
200812071850 METAR ESMX 071850Z 29004KT 9999 OVC005 M00/M01 Q1018=
200812071820 METAR ESMX 071820Z 28004KT 230V300 9999 OVC005 M00/M01 Q1018=
200812071750 METAR ESMX 071750Z 28005KT 9999 OVC003 M00/M01 Q1018=
200812071720 METAR ESMX 071720Z 28004KT 250V310 9999 OVC003 M00/M01 Q1018=
200812071650 METAR ESMX 071650Z 27004KT 230V300 9999 OVC002 M00/M01 Q1018=
200812071620 METAR ESMX 071620Z 27004KT 240V310 9999 OVC002 M00/M01 Q1017=
200812071550 METAR ESMX 071550Z 26004KT 220V280 9999 OVC002 M00/M01 Q1017=
200812071520 METAR ESMX 071520Z 32005KT 9999 BR OVC003 M00/M01 Q1017=
200812071450 METAR ESMX 071450Z 28005KT 9999 OVC002 00/M00 Q1017=
200812071420 METAR ESMX 071420Z 28004KT 250V320 4500 BR OVC002 00/00 Q1016=
200812071350 METAR ESMX 071350Z 26007KT 2500 BR OVC002 01/00 Q1016=
200812071320 METAR ESMX 071320Z 28005KT 6000 BR OVC002 01/01 Q1016=
200812071250 METAR ESMX 071250Z 28004KT 240V320 9999 OVC003 01/01 Q1016=
200812071220 METAR ESMX 071220Z 27005KT 9999 OVC003 01/00 Q1016=
200812071150 METAR ESMX 071150Z 29005KT 9999 OVC004 01/00 Q1015 REDZ=
200812071120 METAR ESMX 071120Z AUTO 29005KT 9000NDV -RA OVC004/// 01/01 Q1015 REDZ=
200812071050 METAR ESMX 071050Z AUTO 28003KT 6000NDV -RA OVC004/// 01/00 Q1015 REDZ=
200812071020 METAR ESMX 071020Z AUTO 29005KT 9999NDV DZ OVC004/// 01/00 Q1015=
200812070950 METAR ESMX 070950Z AUTO 28005KT 9999NDV DZ OVC004/// 01/00 Q1015 RERA=
200812070920 METAR ESMX 070920Z AUTO 28004KT 9999NDV OVC005/// 01/00 Q1015=
200812070850 METAR ESMX 070850Z AUTO 30004KT 270V340 9999NDV OVC004/// 01/00 Q1014=
200812070820 METAR ESMX 070820Z AUTO 29004KT 260V330 9999NDV OVC005/// 01/00 Q1014=
200812070750 METAR ESMX 070750Z AUTO 29004KT 9999NDV OVC005/// 01/00 Q1014=
200812070720 METAR ESMX 070720Z AUTO 30005KT 9999NDV OVC005/// 01/00 Q1013=
200812070650 METAR ESMX 070650Z AUTO 31004KT 9999NDV OVC006/// 01/00 Q1013=
200812070620 METAR ESMX 070620Z AUTO 30006KT 9999NDV OVC006/// 01/00 Q1013=
200812070550 METAR ESMX 070550Z AUTO 31005KT 9999NDV OVC006/// 01/01 Q1012=
200812070520 METAR ESMX 070520Z AUTO 31005KT 9999NDV OVC006/// 01/01 Q1012=
200812070450 METAR ESMX 070450Z AUTO 32007KT 9999NDV BKN003/// OVC006/// 01/01 Q1012=
200812070420 METAR ESMX 070420Z AUTO 31007KT 290V350 9999NDV OVC002/// 01/01 Q1011=
200812070350 METAR ESMX 070350Z AUTO 31005KT 280V350 9999NDV OVC002/// 01/01 Q1011=
200812070320 METAR ESMX 070320Z AUTO 32007KT 9999NDV OVC002/// 01/01 Q1011=
200812070250 METAR ESMX 070250Z AUTO 30006KT 7000NDV BR OVC001/// 01/01 Q1010=
200812070220 METAR ESMX 070220Z AUTO 30006KT 7000NDV BR OVC001/// 02/01 Q1010=
200812070150 METAR ESMX 070150Z AUTO 31007KT 3900NDV BR OVC001/// 02/01 Q1010=
200812070120 METAR ESMX 070120Z AUTO 31008KT 2700NDV BR OVC001/// 02/02 Q1010=
200812070050 METAR ESMX 070050Z AUTO 32005KT 9999NDV OVC003/// 02/02 Q1009=
200812070020 METAR ESMX 070020Z AUTO 32007KT 9000NDV BR OVC004/// 02/02 Q1009=
200812062350 METAR ESMX 062350Z AUTO 32006KT 8000NDV BR OVC004/// 03/02 Q1009=
200812062320 METAR ESMX 062320Z AUTO 32006KT 6000NDV BR OVC003/// 03/02 Q1008=
200812062250 METAR ESMX 062250Z AUTO 34005KT 8000NDV BR OVC004/// 03/02 Q1008=
200812062220 METAR ESMX 062220Z AUTO 34006KT 7000NDV BR OVC003/// 03/02 Q1008=
200812062150 METAR ESMX 062150Z AUTO 33005KT 6000NDV FEW001/// OVC004/// 03/02 Q1007=
200812062120 METAR ESMX 062120Z AUTO 32006KT 1600NDV OVC001/// 03/02 Q1007=
200812062050 METAR ESMX 062050Z AUTO 32006KT 0600NDV R01/1700N R19/1900D FG VV001 03/02 Q1007=
200812062020 METAR ESMX 062020Z AUTO 34006KT 0900NDV R01/P2000U R19/P2000D BR VV001 03/02 Q1007=
200812061950 METAR ESMX 061950Z AUTO 32005KT 1700NDV BR OVC001/// 03/02 Q1007=
200812061920 METAR ESMX 061920Z AUTO 31004KT 3900NDV BR FEW002/// BKN004/// OVC009/// 02/02 Q1006=
200812061850 METAR ESMX 061850Z AUTO 31003KT 290V350 4700NDV BR FEW003/// SCT004/// BKN007/// 02/02 Q1006=
200812061820 METAR ESMX 061820Z AUTO 31003KT 270V340 5000NDV BR BKN002/// OVC005/// 02/02 Q1006=
200812061750 METAR ESMX 061750Z AUTO 35006KT 5000NDV BR SCT002/// BKN004/// OVC005/// 02/02 Q1006=
200812061720 METAR ESMX 061720Z AUTO 32004KT 5000NDV BR OVC002/// 02/02 Q1005=
200812061650 METAR ESMX 061650Z AUTO 34004KT 6000NDV BR BKN002/// OVC004/// 02/02 Q1005=
200812061620 METAR ESMX 061620Z AUTO 34005KT 3700NDV BR OVC001/// 02/02 Q1005=
200812061550 METAR ESMX 061550Z AUTO 34005KT 3100NDV BR OVC001/// 02/02 Q1004=
200812061520 METAR ESMX 061520Z AUTO 36004KT 4400NDV BR OVC001/// 02/02 Q1004=
200812061450 METAR ESMX 061450Z AUTO 34005KT 3400NDV BR OVC001/// 02/02 Q1004=
200812061420 METAR ESMX 061420Z AUTO 34005KT 3300NDV OVC001/// 02/02 Q1004=
200812061350 METAR ESMX 061350Z AUTO 35005KT 2900NDV OVC001/// 02/02 Q1003=
200812061320 METAR ESMX 061320Z AUTO 34005KT 1100NDV R01/1800N R19/P2000D VV002 02/02 Q1003=
200812061250 METAR ESMX 061250Z AUTO 33004KT 0700NDV R01/1300D R19/1300N FG VV001 02/02 Q1003=
200812061220 METAR ESMX 061220Z AUTO 32003KT 0400NDV R01/0800N R19/1000N FG VV001 02/02 Q1003=
200812061150 METAR ESMX 061150Z AUTO 01004KT 350V050 0400NDV R01/0900N R19/0800 FG VV001 02/02 Q1003=
200812061120 METAR ESMX 061120Z AUTO 01005KT 0250NDV R01/0550 R19/0700N FG VV001 02/02 Q1002=
200812061050 METAR ESMX 061050Z AUTO 35004KT 0200NDV R01/0550N R19/0500N FG VV000 02/02 Q1002=
200812061020 METAR ESMX 061020Z AUTO 36004KT 0300NDV R01/0800 R19/0600 FG VV001 02/02 Q1002=
200812060950 METAR ESMX 060950Z AUTO 36005KT 0300NDV R01/0700 R19/0700 FG VV001 02/01 Q1002=
200812060920 METAR ESMX 060920Z AUTO 01004KT 0300NDV R01/0900 R19/0700 FG VV001 02/02 Q1002=
200812060850 METAR ESMX 060850Z AUTO 01003KT 0250NDV R01/0650N R19/0750N FG VV001 02/02 Q1001=
200812060820 METAR ESMX 060820Z AUTO 02003KT 350V060 0250NDV R01/0650N R19/0700N FG VV001 02/02 Q1001=
200812060750 METAR ESMX 060750Z AUTO 04002KT 0250NDV R01/0900U R19/0700N FG VV001 02/02 Q1001=
200812060720 METAR ESMX 060720Z AUTO 03003KT 350V070 0400NDV R01/0900V1800D R19/1200VP2000D FG VV001 02/02 Q1001=
200812060650 METAR ESMX 060650Z AUTO 02003KT 0300NDV R01/1000N R19/P2000U FG VV001 02/02 Q1000=
200812060620 METAR ESMX 060620Z AUTO 04002KT 0250NDV R01/0900N R19/1400D FG VV001 02/02 Q1000=
200812060550 METAR ESMX 060550Z AUTO VRB02KT 0350NDV R01/1000V1500D R19/1700U FG VV001 02/02 Q1000=
200812060520 METAR ESMX 060520Z AUTO 05003KT 010V080 0450NDV R01/1400V1900N R19/1900U FG VV001 02/02 Q1000=
200812060450 METAR ESMX 060450Z AUTO 04004KT 020V080 0800NDV R01/P2000U R19/P2000N FG VV002 03/02 Q0999=
200812060420 METAR ESMX 060420Z AUTO 01003KT 0550NDV R01/1800U R19/1900U FG VV002 03/02 Q0999=
200812060350 METAR ESMX 060350Z AUTO 36003KT 0500NDV R01/1600D R19/P2000U FG OVC001/// 03/02 Q0999=
200812060320 METAR ESMX 060320Z AUTO 01002KT 0800NDV R01/P2000U R19/P2000D FG OVC001/// 03/02 Q0999=
200812060250 METAR ESMX 060250Z AUTO VRB02KT 0900NDV R01/P2000U R19/P2000U FG OVC001/// 03/02 Q0999=
200812060220 METAR ESMX 060220Z AUTO VRB01KT 0650NDV R01/1900N R19/P2000U FG VV001 03/02 Q0998=
200812060150 METAR ESMX 060150Z AUTO VRB02KT 0700NDV R01/P2000D R19/P2000U FG VV001 03/02 Q0998=
200812060120 METAR ESMX 060120Z AUTO VRB02KT 1200NDV R01/P2000D R19/P2000D OVC001/// 03/03 Q0998=
200812060020 METAR ESMX 060020Z AUTO VRB02KT 1200NDV R01/P2000N R19/P2000U BR OVC001/// 03/03 Q0998=
200812052350 METAR ESMX 052350Z AUTO VRB01KT 1600NDV VV002 03/03 Q0997=
200812052320 METAR ESMX 052320Z AUTO VRB01KT 0900NDV R01/P2000D R19/P2000D VV001 03/03 Q0997=
200812052250 METAR ESMX 052250Z AUTO 00000KT 0750NDV R01/P2000U R19/P2000D FG VV001 03/03 Q0997=
200812052220 METAR ESMX 052220Z AUTO 00000KT 1000NDV R01/P2000U R19/P2000D VV001 03/03 Q0996=
200812052150 METAR ESMX 052150Z AUTO VRB02KT 0750NDV R01/P2000D R19/P2000U VV001 03/03 Q0996=
200812052120 METAR ESMX 052120Z AUTO 17003KT 140V210 0250NDV R01/0900U R19/0800N FG VV000 03/03 Q0996=
200812052050 METAR ESMX 052050Z AUTO 17003KT 130V200 0600NDV R01/P2000D R19/P2000D FG OVC001/// 03/03 Q0996=
200812052020 METAR ESMX 052020Z AUTO VRB01KT 2100NDV BR OVC001/// 03/03 Q0996=
200812051950 METAR ESMX 051950Z VRB02KT 2200 OVC002 03/03 Q0995=
200812051920 METAR ESMX 051920Z VRB02KT 1200 R01/P2000N R19/P2000N VV002 03/03 Q0995=
200812051850 METAR ESMX 051850Z 00000KT 0400 R01/P2000U R19/1300N FG VV002 03/03 Q0995=
200812051820 METAR ESMX 051820Z VRB02KT 0350 R01/1500U R19/1200U FG VV002 03/03 Q0995=
200812051750 METAR ESMX 051750Z 06002KT 0250 R01/1200N R19/0900N FG VV002 03/03 Q0994=
200812051720 METAR ESMX 051720Z VRB01KT 0350 R01/1100N R19/1200N FG VV002 03/03 Q0994=
200812051650 METAR ESMX 051650Z 00000KT 0700 R01/P2000D R19/P2000D FG VV002 03/03 Q0994=
200812051620 METAR ESMX 051620Z VRB01KT 1500 R01/P2000U R19/P2000D BR OVC002 03/03 Q0993=
200812051550 METAR ESMX 051550Z VRB01KT 1900 BR OVC002 03/03 Q0993=
200812051520 METAR ESMX 051520Z VRB02KT 1600 BR OVC002 03/03 Q0993=
200812051450 METAR ESMX 051450Z 13003KT 1400 R01/P2000N R19/P2000N BR OVC002 03/03 Q0992=
200812051420 METAR ESMX 051420Z 14003KT 1900 BR OVC002 03/03 Q0992=
200812051350 METAR ESMX 051350Z 14003KT 2800 BR OVC003 03/03 Q0992=
200812051320 METAR ESMX 051320Z VRB02KT 2300 BR OVC002 03/03 Q0991=
200812051220 METAR ESMX 051220Z 13003KT 090V160 1500 BR OVC002 03/02 Q0991=
200812051120 METAR ESMX 051120Z 13004KT 090V160 4200 BR OVC004 03/02 Q0991=
200812051050 METAR ESMX 051050Z 11003KT 050V150 4600 BR OVC004 03/02 Q0991=
200812051020 METAR ESMX 051020Z 12003KT 090V170 6000 BR OVC004 03/02 Q0991=
200812050950 METAR ESMX 050950Z 13004KT 080V170 7000 BR SCT005 BKN008 03/02 Q0991=
200812050920 METAR ESMX 050920Z 11003KT 070V160 6000 -RA BR BKN004 OVC016 03/02 Q0990=
200812050850 METAR ESMX 050850Z 13003KT 100V160 4100 -RA FEW004 BKN005 OVC008 03/02 Q0990=
200812050820 METAR ESMX 050820Z 15005KT 080V170 4100 -RA BKN005 OVC008 03/02 Q0990=
200812050750 METAR ESMX 050750Z 14005KT 080V190 4900 -RA FEW005 BKN008 03/02 Q0990=
200812050720 METAR ESMX 050720Z 12004KT 070V200 5000 -RA OVC005 03/02 Q0990=
200812050620 METAR ESMX 050620Z 12005KT 070V170 5000 -RA BKN005 03/02 Q0989=
200812050550 METAR ESMX 050550Z 12006KT 060V190 4300 -RA OVC005 03/02 Q0989=
200812050520 METAR ESMX 050520Z 10005KT 030V170 5000 -RA OVC005 03/02 Q0989=
200812050450 METAR ESMX 050450Z 09005KT 030V160 5000 -RA BKN004 OVC006 02/02 Q0989=
200812050420 METAR ESMX 050420Z 09005KT 050V140 5000 -RA BKN004 OVC006 02/02 Q0989 REDZ=
200812050350 METAR ESMX 050350Z AUTO 10005KT 050V160 4800NDV DZ OVC004/// 02/02 Q0989 RERA=
200812050320 METAR ESMX 050320Z AUTO 10005KT 040V150 5000NDV DZ OVC004/// 02/01 Q0990 RERA=
200812050250 METAR ESMX 050250Z AUTO 10007KT 050V160 6000NDV DZ OVC004/// 02/01 Q0990 RERA=
200812050220 METAR ESMX 050220Z AUTO 10006KT 060V150 6000NDV -RA OVC004/// 01/01 Q0990 REDZ=
200812050150 METAR ESMX 050150Z AUTO 10005KT 050V190 6000NDV DZ OVC004/// 01/01 Q0990=
200812050120 METAR ESMX 050120Z AUTO 10006KT 050V150 8000NDV -RA FEW004/// OVC005/// 01/01 Q0991 REDZ=
200812050050 METAR ESMX 050050Z 10004KT 4800 -RA OVC004 01/00 Q0991=
200812050020 METAR ESMX 050020Z 10006KT 040V140 4500 RASN OVC005 01/00 Q0991=
200812042350 METAR ESMX 042350Z 10006KT 040V150 6000 -RASN OVC006 01/00 Q0992 REDZ=
200812042320 METAR ESMX 042320Z 10007KT 070V160 7000 -DZ FEW007 BKN008 OVC010 01/00 Q0992 RERA=
200812042250 METAR ESMX 042250Z 10006KT 050V160 9000 -DZ FEW008 SCT012 BKN016 01/00 Q0992=
200812042220 METAR ESMX 042220Z 09005KT 030V170 9000 -RASN FEW008 SCT021 BKN025 01/00 Q0993=
200812042150 METAR ESMX 042150Z 11006KT 060V160 9999 SCT008 BKN010 OVC047 01/M00 Q0993=
200812042120 METAR ESMX 042120Z 12005KT 9999 SCT008 BKN010 BKN023 01/M00 Q0994=
200812042050 METAR ESMX 042050Z 12006KT 050V180 9999 FEW007 SCT009 BKN011 01/00 Q0994=
200812042020 METAR ESMX 042020Z 12005KT 070V170 9999 FEW007 BKN009 OVC034 01/00 Q0995=
200812041950 METAR ESMX 041950Z 13006KT 060V170 8000 BR BKN006 OVC010 01/00 Q0995=
200812041920 METAR ESMX 041920Z 12005KT 070V170 7000 BR OVC006 01/00 Q0995=
200812041850 METAR ESMX 041850Z 11004KT 7000 BR BKN006 OVC011 01/M00 Q0995=
200812041820 METAR ESMX 041820Z 11004KT 050V170 7000 BR BKN006 OVC009 01/M00 Q0995=
200812041650 METAR ESMX 041650Z VRB02KT 6000 BR FEW007 SCT023 BKN036 00/M01 Q0996=
200812041620 METAR ESMX 041620Z 13003KT 100V170 6000 BR FEW012 BKN025 M00/M01 Q0996=
200812041550 METAR ESMX 041550Z VRB02KT 6000 BR FEW006 BKN030 M00/M01 Q0996=
200812041520 METAR ESMX 041520Z 13003KT 090V170 6000 BR FEW006 SCT017 BKN022 00/M01 Q0996=
200812041450 METAR ESMX 041450Z 15003KT 7000 BR FEW005 BKN015 OVC025 00/M01 Q0996=
200812041420 METAR ESMX 041420Z VRB02KT 7000 BR FEW007 BKN028 00/M01 Q0997=
200812041350 METAR ESMX 041350Z 15004KT 8000 BR SCT008 BKN022 00/M01 Q0997=
200812041320 METAR ESMX 041320Z 16003KT 120V200 7000 BR FEW013 BKN025 00/M01 Q0997=
200812041250 METAR ESMX 041250Z 19005KT 8000 BR FEW006 BKN010 00/M01 Q0997=
200812041220 METAR ESMX 041220Z 18006KT 8000 BR FEW008 BKN026 00/M01 Q0997=
200812041150 METAR ESMX 041150Z 20007KT 9999 FEW009 SCT022 00/M01 Q0997=
200812041120 METAR ESMX 041120Z 22006KT 9999 FEW008 BKN019 00/M01 Q0997=
200812041050 METAR ESMX 041050Z 22010KT 200V260 9999 FEW008 OVC010 00/M01 Q0997=
200812041020 METAR ESMX 041020Z 21008KT 190V250 9999 BR BKN006 OVC011 00/M01 Q0997=
200812040950 METAR ESMX 040950Z 22010KT 8000 BR FEW005 BKN006 OVC009 01/M00 Q0996=
200812040920 METAR ESMX 040920Z 22008KT 7000 BR SCT004 BKN006 BKN007 01/M00 Q0996=
200812040850 METAR ESMX 040850Z 21006KT 6000 BR BKN004 OVC022 01/00 Q0995 RERA REDZ=
200812040820 METAR ESMX 040820Z 21006KT 6000 -RA FEW003 SCT005 BKN006 00/M00 Q0995=
200812040750 METAR ESMX 040750Z 22005KT 8000 -RA BKN003 OVC006 00/M00 Q0995 REUP RESG=
200812040720 METAR ESMX 040720Z 22005KT 8000 BR OVC004 00/M00 Q0995=
200812040620 METAR ESMX 040620Z 25005KT 220V290 9999 -SN OVC004 00/M00 Q0994=
200812040550 METAR ESMX 040550Z 25004KT 210V290 9999 -SN OVC005 M00/M01 Q0993=
200812040520 METAR ESMX 040520Z 27005KT 230V300 9999 -SN BKN006 OVC009 M00/M01 Q0993 RESG=
200812040450 METAR ESMX 040450Z 27006KT 9999 -SN FEW007 SCT009 BKN011 M00/M00 Q0993=
200812040420 METAR ESMX 040420Z 28006KT 9999 SG FEW005 SCT008 BKN010 00/M00 Q0992 RESN=
200812040350 METAR ESMX 040350Z AUTO 28007KT 3100NDV -SN FEW003/// BKN005/// BKN008/// 00/M00 Q0992=
200812040320 METAR ESMX 040320Z AUTO 26004KT 220V290 2600NDV -SN FEW002/// BKN003/// BKN006/// 00/M00 Q0991=
200812040250 METAR ESMX 040250Z AUTO 22004KT 2500NDV -SN FEW003/// SCT005/// BKN007/// 00/M00 Q0991=
200812040220 METAR ESMX 040220Z AUTO 22004KT 2500NDV -SN FEW004/// BKN006/// OVC008/// 00/M00 Q0991=
200812040150 METAR ESMX 040150Z AUTO 21004KT 9999NDV -RA FEW004/// SCT008/// OVC010/// 00/M00 Q0991 REDZ RESN=
200812040120 METAR ESMX 040120Z AUTO 21004KT 8000NDV -RA OVC004/// 00/M00 Q0991=
200812040050 METAR ESMX 040050Z 19003KT 9999 -SN FEW004 BKN005 OVC009 00/M00 Q0991=
200812040020 METAR ESMX 040020Z 18004KT 9999 -SN FEW006 OVC007 00/M00 Q0991 RESG=
200812032350 METAR ESMX 032350Z 17004KT 9999 SG FEW005 SCT007 OVC008 00/M00 Q0991 RESN=
200812032320 METAR ESMX 032320Z 17004KT 9999 SG BKN003 OVC006 00/00 Q0991 RESN=
200812032250 METAR ESMX 032250Z 14003KT 110V190 5000 -SN FEW002 SCT003 BKN004 00/00 Q0991=
200812032220 METAR ESMX 032220Z VRB02KT 2200 -SN FEW002 SCT004 BKN005 00/00 Q0991=
200812032150 METAR ESMX 032150Z VRB02KT 1700 -SN FEW003 BKN004 BKN007 00/00 Q0991=
200812032120 METAR ESMX 032120Z VRB02KT 9000 -SN FEW003 BKN004 OVC006 00/00 Q0992=
200812032050 METAR ESMX 032050Z VRB02KT 2800 -SN FEW002 BKN004 BKN006 00/00 Q0992=
200812032020 METAR ESMX 032020Z VRB02KT 2300 -SN FEW002 SCT004 BKN005 00/00 Q0992=
200812031950 METAR ESMX 031950Z 07003KT 030V110 1800 -SN FEW002 SCT004 BKN006 00/00 Q0993=
200812031920 METAR ESMX 031920Z 06004KT 030V090 2500 -SN FEW003 BKN005 BKN013 00/00 Q0993=
200812031850 METAR ESMX 031850Z 05003KT 020V090 1900 -SN FEW003 SCT006 BKN007 00/M00 Q0994 RERA=
200812031820 METAR ESMX 031820Z 07003KT 020V110 3000 SNRA FEW004 BKN005 00/00 Q0994=
200812031750 METAR ESMX 031750Z 11003KT 050V190 2500 -SNRA FEW003 BKN007 00/M00 Q0995 RESN=
200812031720 METAR ESMX 031720Z VRB02KT 4000 -SN FEW003 BKN005 00/M00 Q0995=
200812031620 METAR ESMX 031620Z 11003KT 060V200 3000 SN SCT007 BKN042 01/00 Q0995=
200812031550 METAR ESMX 031550Z 10003KT 020V140 9999 FEW004 BKN005 01/00 Q0996=
200812031520 METAR ESMX 031520Z VRB02KT 9999 FEW004 BKN010 01/00 Q0996=
200812031420 METAR ESMX 031420Z 12003KT 9999 FEW005 BKN039 01/00 Q0996=
200812031350 METAR ESMX 031350Z 13004KT 9999 SCT006 BKN040 01/00 Q0997=
200812031320 METAR ESMX 031320Z 14005KT 9999 SCT004 BKN008 01/00 Q0997=
200812031150 METAR ESMX 031150Z 16006KT 120V190 9999 FEW009 SCT013 BKN016 02/01 Q0997=
200812031120 METAR ESMX 031120Z 16006T 120V200 9999 FEW012 BKN018 03/01 Q0997=
200812030950 METAR ESMX 030950Z 18010KT 9999 SCT008 OVC010 03/01 Q0998=
200812030920 METAR ESMX 030920Z 17007KT 130V190 9999 FEW008 SCT014 BKN024 02/01 Q0998=
200812030820 METAR ESMX 030820Z 18009KT 9999 FEW008 SCT012 BKN015 03/01 Q0998=
200812030751 METAR COR ESMX 030751Z 18007KT 9999 FEW008 SCT011 BKN014 02/01 Q0998=
200812030720 METAR ESMX 030720Z 18005KT 9999 FEW014 SCT021 BKN026 02/01 Q0998=
200812030650 METAR COR ESMX 030650Z 20007KT 9999 FEW017 OVC019 02/01 Q0998=
200812030620 METAR ESMX 030620Z 21010KT 9999 FEW009 OVC014 02/01 Q0997=
200812030550 METAR COR ESMX 030550Z 21010KT 9999 FEW008 SCT010 BKN018 02/01 Q0997=
200812030520 METAR ESMX 030520Z 21009KT 9999 FEW010 BKN013 BKN018 02/01 Q0997=
200812030450 METAR ESMX 030450Z 21010KT 9999 FEW008 SCT010 OVC013 03/01 Q0997=
200812030420 METAR ESMX 030420Z AUTO 21011KT 9999NDV FEW007/// SCT009/// BKN011/// 03/02 Q0997 REDZ=
200812030350 METAR ESMX 030350Z AUTO 21010KT 9999NDV FEW008/// BKN011/// BKN015/// 03/02 Q0996=
200812030320 METAR ESMX 030320Z AUTO 21011KT 9999NDV FEW007/// SCT009/// BKN011/// 03/02 Q0996=
200812030250 METAR ESMX 030250Z AUTO 22010KT 9999NDV FEW006/// BKN008/// OVC011/// 03/02 Q0996=
200812030220 METAR ESMX 030220Z AUTO 23010KT 9999NDV FEW005/// OVC006/// 03/02 Q0995=
200812030150 METAR ESMX 030150Z AUTO 23009KT 200V260 7000NDV -DZ OVC003/// 03/02 Q0995 RERA=
200812030120 METAR ESMX 030120Z AUTO 23009KT 6000NDV -RA SCT003/// BKN005/// OVC007/// 02/02 Q0995 REDZ=
200812030050 METAR ESMX 030050Z AUTO 22009KT 170V240 9999NDV OVC002/// 02/02 Q0995=
200812030020 METAR ESMX 030020Z 23009KT 9999 OVC003 02/01 Q0995=
200812022350 METAR ESMX 022350Z 22008KT 9999 SCT003 BKN006 OVC011 02/01 Q0994=
200812022320 METAR ESMX 022320Z 23007KT 200V260 9999 -DZ OVC002 01/01 Q0994 RERA=
200812022220 METAR ESMX 022220Z 25007KT 6000 -RASN OVC005 01/00 Q0993=
200812022150 METAR ESMX 022150Z 25010KT 9000 RA OVC005 01/00 Q0993 RESN=
200812022120 METAR ESMX 022120Z 26010KT 3900 -SNRA OVC005 00/00 Q0992 RESG=
200812022050 METAR ESMX 022050Z 26010KT 5000 -SNRA BKN005 OVC009 00/00 Q0992 RESN=
200812022020 METAR ESMX 022020Z 26008KT 4000 -SNRA FEW004 OVC005 00/00 Q0991=
200812021920 METAR ESMX 021920Z 25007KT 4500 +RASN FEW003 BKN005 OVC007 01/00 Q0991 REDZ=
200812021850 METAR ESMX 021850Z 23008KT 7000 -RA SCT002 BKN005 01/01 Q0990=
200812021820 METAR ESMX 021820Z 23007KT 7000 -RASN FEW003 SCT005 OVC006 02/01 Q0990 REDZ=
200812021720 METAR ESMX 021720Z 25005KT 9999 -RA FEW006 OVC013 03/03 Q0989 REDZ=
200812021620 METAR ESMX 021620Z 26005KT 7000 DZ BKN002 04/04 Q0989=
200812021520 METAR ESMX 021520Z 21002KT 0400 R01/1300D R19/P2000D FG VV002 05/05 Q0989=
200812021420 METAR ESMX 021420Z 00000KT 2500 -RA, BR VV002 05/05 Q0989 REDZ=
200812021350 METAR ESMX 021350Z 00000KT 3900 -RA OVC002 05/05 Q0989 REDZ=
200812021320 METAR ESMX 021320Z 00000KT 3800 -RA BR SCT001 OVC002 05/05 Q0989=
200812021250 METAR ESMX 021250Z 02002KT 4900 -DZ BR SCT001 OVC004 05/05 Q0989=
200812021205 METAR ESMX 021205Z 01003KT 2200 DZ BKN002 05/04 Q0989 RERA=
200812021120 METAR ESMX 021120Z 36002KT 4800 DZ BKN002 05/04 Q0989 RERA=
200812021020 METAR ESMX 021020Z 04004KT 9999 OVC004 05/04 Q0990=
200812020920 METAR ESMX 020920Z 03004KT 360V060 9999 OVC004 04/04 Q0990=
200812020820 METAR ESMX 020820Z 04004KT 010V070 8000 -RA OVC004 04/04 Q0991=
200812020720 METAR ESMX 020720Z 03008KT 3000 RA OVC004 04/03 Q0992=
200812020520 METAR ESMX 020520Z 04010KT 9999 -RA SCT004 BKN006 03/02 Q0993=
200812020420 METAR ESMX 020420Z AUTO 03010KT 350V060 5000NDV -RA BKN007/// OVC010/// 03/02 Q0994=
200812020350 METAR ESMX 020350Z AUTO 04010KT 9999NDV -RA FEW005/// OVC007/// 03/02 Q0994=
200812020320 METAR ESMX 020320Z AUTO 04012KT 6000NDV -RA FEW006/// OVC007/// 03/02 Q0995 REDZ=
200812020250 METAR ESMX 020250Z AUTO 03011KT 360V060 7000NDV -RA SCT006/// BKN008/// BKN019/// 03/02 Q0995=
200812020220 METAR ESMX 020220Z AUTO 02012KT 7000NDV -RA OVC006/// 02/02 Q0996 REDZ=
200812020150 METAR ESMX 020150Z AUTO 03011KT 9000NDV -RA SCT005/// BKN009/// OVC024/// 02/02 Q0996 REDZ=
200812020120 METAR ESMX 020120Z AUTO 02010KT 5000NDV -RA FEW004/// BKN006/// 02/02 Q0997=
200812020050 METAR ESMX 020050Z 02007KT 3600 -RA FEW004 SCT007 02/02 Q0998=
200812012320 METAR ESMX 012320Z 06004KT 020V090 5000 BR OVC004 02/01 Q1000=
200812012250 METAR ESMX 012250Z 04007KT 010V080 6000 BR OVC005 02/01 Q1000=
200812012220 METAR ESMX 012220Z 04009KT 010V080 6000 BR BKN005 02/01 Q1000=
200812012152 METAR COR ESMX 012152Z 05006KT 350V110 5000 BR OVC004 02/01 Q1001=
200812012120 METAR ESMX 012120Z 07004KT 020V120 4900 BR OVC004 02/02 Q1001=
200812012050 METAR ESMX 012050Z 05005KT 4100 BR OVC004 02/01 Q1001=
200812012020 METAR ESMX 012020Z 04004KT 010V080 3700 BR OVC004 02/01 Q1002=
200812011950 METAR ESMX 011950Z 09003KT 040V140 4000 BR OVC004 02/01 Q1002=
200812011920 METAR ESMX 011920Z 07003KT 020V130 5000 BR OVC004 02/01 Q1003=
200812011820 METAR ESMX 011820Z 10003KT 050V150 6000 BR BKN006 02/01 Q1003=
200812011720 METAR ESMX 011720Z VRB02KT 7000 BR OVC009 02/01 Q1003=
200812011650 METAR ESMX 011650Z VRB02KT 8000 BR BKN010 02/01 Q1003=
200812011620 METAR ESMX 011620Z 05003KT 8000 BR OVC009 02/01 Q1003=
200812011550 METAR ESMX 011550Z 00000KT 4900 BR OVC008 02/01 Q1003=
200812011520 METAR ESMX 011520Z VRB01KT 7000 BR OVC009 02/01 Q1003=
200812011450 METAR ESMX 011450Z VRB01KT 5000 BR OVC011 03/02 Q1003=
200812011420 METAR ESMX 011420Z 16003KT 7000 BR OVC011 03/01 Q1003=
200812011350 METAR ESMX 011350Z 18003KT 8000 BR OVC011 03/01 Q1003=
200812011320 METAR ESMX 011320Z VRB02KT 6000 BR BKN010 03/02 Q1003=
200812011220 METAR ESMX 011220Z 17002KT 5000 BR OVC008 03/02 Q1003=
