##########################################################
# Query made at 04/19/2024 21:02:09 UTC
# Time interval: from 02/01/2008 12:00  to 02/29/2008 12:59  UTC
##########################################################

##########################################################
# ESMX, Vaxjo (Sweden)
# WMO index: 02641. WIGOS ID: 0-20000-0-02648
# Latitude 56-51N. Longitude 014-50E. Altitude 199 m.
##########################################################

200802291250 METAR ESMX 291250Z 25011KT CAVOK 07/M01 Q1004=
200802291220 METAR ESMX 291220Z 23009KT 200V270 9999 FEW025 07/M00 Q1005=
200802291150 METAR ESMX 291150Z 24010KT 9999 FEW025 SCT200 06/M01 Q1005=
200802291120 METAR ESMX 291120Z 26011KT 230V300 9999 FEW027 SCT150 06/00 Q1006=
200802291050 METAR ESMX 291050Z 26009KT 230V290 9999 FEW022 BKN150 06/01 Q1006=
200802291020 METAR ESMX 291020Z 26008KT 9999 FEW023 BKN150 05/01 Q1006=
200802290950 METAR ESMX 290950Z 27007KT 240V310 9999 FEW020 BKN150 05/01 Q1006=
200802290920 METAR ESMX 290920Z 27010KT 9999 FEW020 BKN150 05/01 Q1006=
200802290850 METAR ESMX 290850Z 27011KT 240V300 9999 SCT020 BKN150 05/01 Q1006=
200802290820 METAR ESMX 290820Z 27011KT 9999 FEW018 BKN020 05/01 Q1006=
200802290750 METAR ESMX 290750Z 28011KT 9999 SCT018 BKN024 04/01 Q1006=
200802290720 METAR ESMX 290720Z 26009KT 220V280 9999 FEW022 BKN150 04/01 Q1006=
200802290650 METAR ESMX 290650Z 27009KT 9999 SCT023 BKN150 04/01 Q1006=
200802290620 METAR ESMX 290620Z 26010KT 230V290 9999 FEW019 BKN021 04/01 Q1006=
200802290550 METAR ESMX 290550Z 26008KT 220V280 9999 SCT016 BKN030 04/02 Q1006=
200802290520 METAR ESMX 290520Z 25009KT 220V290 9999 SCT018 BKN025 04/02 Q1006=
200802290450 METAR ESMX 290450Z 26009KT 210V290 9999 SCT015 BKN025 04/02 Q1006=
200802290420 METAR ESMX 290420Z AUTO 24010KT 200V270 9999NDV FEW014/// SCT017/// BKN022/// 04/02 Q1006=
200802290350 METAR ESMX 290350Z AUTO 23010KT 170V260 9999NDV BKN012/// OVC018/// 04/02 Q1006 REDZ=
200802290320 METAR ESMX 290320Z AUTO 23009KT 200V270 9000NDV BKN013/// OVC018/// 04/02 Q1006=
200802290250 METAR ESMX 290250Z AUTO 23011KT 9999NDV FEW012/// BKN014/// OVC018/// 04/02 Q1007=
200802290220 METAR ESMX 290220Z AUTO 24011KT 9999NDV OVC012/// 03/02 Q1007=
200802290150 METAR ESMX 290150Z AUTO 21010KT 9999NDV FEW012/// SCT015/// BKN018/// 03/02 Q1007 RERA REDZ=
200802290120 METAR ESMX 290120Z AUTO 21008KT 9999NDV FEW007/// BKN010/// BKN020/// 03/02 Q1007 RERA REDZ=
200802290050 METAR ESMX 290050Z AUTO 22010KT 7000NDV -RA FEW009/// BKN011/// BKN015/// 03/02 Q1008 REDZ=
200802290020 METAR ESMX 290020Z 23011KT 7000 DZ SCT010 BKN020 03/02 Q1008 RERA=
200802282350 METAR ESMX 282350Z 23010KT 9999 FEW020 SCT027 BKN030 03/01 Q1009=
200802282320 METAR ESMX 282320Z 23009KT 9999 OVC026 03/01 Q1009=
200802282250 METAR ESMX 282250Z 24008KT 9999 FEW011 02/01 Q1009=
200802282220 METAR ESMX 282220Z 24008KT CAVOK 02/00 Q1009=
200802282150 METAR ESMX 282150Z 23007KT CAVOK 02/00 Q1010=
200802282120 METAR ESMX 282120Z 22007KT CAVOK 02/00 Q1010=
200802282050 METAR ESMX 282050Z 24007KT CAVOK 02/00 Q1010=
200802282020 METAR ESMX 282020Z 22006KT CAVOK 02/00 Q1010=
200802281950 METAR ESMX 281950Z 22007KT CAVOK 02/01 Q1010=
200802281920 METAR ESMX 281920Z 22007KT 9999 NSC 02/01 Q1010=
200802281850 METAR ESMX 281850Z 24008KT 210V280 9999 FEW018 03/01 Q1010=
200802281820 METAR ESMX 281820Z 24008KT 200V270 CAVOK 03/00 Q1010=
200802281750 METAR ESMX 281750Z 25007KT CAVOK 04/M00 Q1010=
200802281720 METAR ESMX 281720Z 24006KT 200V270 CAVOK 04/M00 Q1010=
200802281650 METAR ESMX 281650Z 25008KT CAVOK 04/M01 Q1010=
200802281620 METAR ESMX 281620Z 27011KT 9999 FEW035 05/M01 Q1010=
200802281550 METAR ESMX 281550Z 25009KT 210V300 9999 FEW034 05/M01 Q1010=
200802281520 METAR ESMX 281520Z 25010KT 210V300 9999 FEW035 05/M01 Q1010=
200802281450 METAR ESMX 281450Z 27012G23KT 250V310 9999 FEW030 SCT035 06/M01 Q1009=
200802281420 METAR ESMX 281420Z 26011KT 230V290 9999 FEW035 06/M00 Q1009=
200802281350 METAR ESMX 281350Z 27010KT 230V300 9999 SCT035 06/M00 Q1009=
200802281320 METAR ESMX 281320Z 27011KT 240V300 9999 FEW033 SCT056 06/00 Q1009=
200802281250 METAR ESMX 281250Z 28012G25KT 240V320 9999 FEW020 SCT040 BKN060 05/01 Q1009=
200802281220 METAR ESMX 281220Z 27014KT 240V300 9999 FEW030 SCT040 BKN050 07/00 Q1009=
200802281150 METAR ESMX 281150Z 28012KT 9999 FEW035 SCT045 06/M00 Q1009=
200802281120 METAR ESMX 281120Z 27013KT 240V300 9999 FEW027 SCT031 06/00 Q1009=
200802281050 METAR ESMX 281050Z 26012KT 230V290 9999 FEW023 SCT027 06/01 Q1008=
200802281020 METAR ESMX 281020Z 29012KT 250V330 9999 SCT024 05/00 Q1008=
200802280950 METAR ESMX 280950Z 27011KT 9999 FEW020 05/01 Q1008=
200802280920 METAR ESMX 280920Z 26011KT 240V300 9999 SCT017 05/01 Q1008=
200802280850 METAR ESMX 280850Z 27012KT 240V300 9999 FEW017 04/01 Q1008=
200802280820 METAR ESMX 280820Z 28010KT 250V320 9999 FEW014 03/00 Q1007=
200802280750 METAR ESMX 280750Z 26008KT 230V300 9999 FEW015 03/00 Q1007=
200802280720 METAR ESMX 280720Z 27007KT 9999 FEW015 02/00 Q1007=
200802280650 METAR ESMX 280650Z 26006KT 230V300 9999 FEW011 02/00 Q1006=
200802280620 METAR ESMX 280620Z 26005KT 230V290 9999 FEW012 01/00 Q1006=
200802280550 METAR ESMX 280550Z 26008KT 9999 FEW013 01/M00 Q1005=
200802280520 METAR ESMX 280520Z 27010KT 9999 FEW012 02/00 Q1005=
200802280450 METAR ESMX 280450Z 27010KT 9999 FEW012 02/00 Q1004=
200802280420 METAR ESMX 280420Z AUTO 28009KT 9999NDV NCD 02/M00 Q1004=
200802280350 METAR ESMX 280350Z AUTO 27009KT 250V310 9999NDV NCD 02/00 Q1003=
200802280320 METAR ESMX 280320Z AUTO 27009KT 9999NDV FEW017/// 02/00 Q1003=
200802280250 METAR ESMX 280250Z AUTO 27010KT 9999NDV NCD 02/00 Q1002=
200802280220 METAR ESMX 280220Z AUTO 27010KT 240V300 9999NDV FEW018/// 02/00 Q1002=
200802280150 METAR ESMX 280150Z AUTO 28008KT 9999NDV FEW017/// SCT020/// 03/00 Q1001=
200802280120 METAR ESMX 280120Z AUTO 27009KT 230V330 9999NDV FEW019/// 03/00 Q1001=
200802280050 METAR ESMX 280050Z AUTO 28013KT 9999NDV FEW020/// 03/00 Q1000=
200802280020 METAR ESMX 280020Z 28012G22KT 9999 FEW017 BKN021 03/01 Q1000=
200802272350 METAR ESMX 272350Z 28015KT 250V310 9999 FEW018 SCT021 BKN025 03/01 Q0999=
200802272320 METAR ESMX 272320Z 27015KT 240V300 9999 FEW018 SCT022 03/01 Q0999=
200802272250 METAR ESMX 272250Z 27014KT 9999 FEW019 BKN021 03/01 Q0998=
200802272220 METAR ESMX 272220Z 27014KT 230V320 9999 FEW018 BKN021 BKN026 03/01 Q0998=
200802272150 METAR ESMX 272150Z 27015G25KT 9999 BKN018 04/01 Q0997=
200802272120 METAR ESMX 272120Z 27014KT 240V300 9999 BKN018 03/01 Q0997=
200802272050 METAR ESMX 272050Z 27014KT 230V300 9999 SCT015 03/01 Q0996=
200802272020 METAR ESMX 272020Z 27015KT 240V300 9999 SCT015 BKN020 04/01 Q0995=
200802271950 METAR ESMX 271950Z 28015KT 9999 FEW014 SCT018 BKN022 04/02 Q0995 RERA REDZ=
200802271920 METAR ESMX 271920Z 28015KT 8000 -RA FEW011 BKN014 OVC020 04/02 Q0994 REDZ=
200802271850 METAR ESMX 271850Z 27018G33KT 240V320 9999 -RA BKN014 OVC021 04/02 Q0993=
200802271820 METAR ESMX 271820Z 27020KT 240V300 9999 FEW010 SCT014 BKN017 04/02 Q0993 REDZ=
200802271750 METAR ESMX 271750Z 26016KT 8000 -RA FEW009 OVC011 04/03 Q0992=
200802271720 METAR ESMX 271720Z 27020KT 8000 -RA BKN010 OVC016 04/03 Q0991=
200802271650 METAR ESMX 271650Z 26015G25KT 230V300 9000 -RA FEW009 BKN011 04/03 Q0990=
200802271620 METAR ESMX 271620Z 26017KT 8000 -RA FEW008 OVC011 04/03 Q0989 RERA=
200802271550 METAR ESMX 271550Z 26016G29KT 230V310 6000 -RA BR FEW008 BKN013 05/03 Q0989=
200802271520 METAR ESMX 271520Z 26015KT 230V300 5000 -RA BR FEW008 BKN013 05/04 Q0988=
200802271450 METAR ESMX 271450Z 25013G24KT 7000 -RA FEW009 OVC011 05/04 Q0988 RERA=
200802271420 METAR ESMX 271420Z 25014KT 210V300 9000 -RA OVC010 05/04 Q0987=
200802271350 METAR ESMX 271350Z 25015KT 8000 -RA FEW007 SCT010 BKN013 05/04 Q0987 RERA=
200802271320 METAR ESMX 271320Z 25014G24KT 210V290 4000 -RA SCT008 BKN010 05/04 Q0987=
200802271250 METAR ESMX 271250Z 24014KT 3200 -RA FEW006 BKN009 BKN013 05/04 Q0987=
200802271220 METAR ESMX 271220Z 24014G28KT 200V290 4000 -RA FEW008 OVC010 05/04 Q0987=
200802271150 METAR ESMX 271150Z 25014KT 3200 -RA FEW009 BKN012 BKN017 05/04 Q0987=
200802271120 METAR ESMX 271120Z 25016G27KT 210V290 6000 RA BR FEW010 OVC013 06/04 Q0987=
200802271050 METAR ESMX 271050Z 24017G29KT 210V280 9999 -RA BKN012 OVC017 06/04 Q0987=
200802271020 METAR ESMX 271020Z 25017G27KT 220V290 9999 BKN010 OVC016 06/05 Q0986 REDZ=
200802270950 METAR ESMX 270950Z 23015G26KT 200V280 9999 -RA FEW011 BKN014 OVC018 06/05 Q0986=
200802270920 METAR ESMX 270920Z 24015G26KT 9999 -RA SCT008 BKN010 06/05 Q0986=
200802270850 METAR ESMX 270850Z 23014G27KT 200V270 5000 -RA FEW007 OVC010 06/05 Q0986=
200802270820 METAR ESMX 270820Z 24014KT 200V280 5000 -RA FEW008 OVC010 06/05 Q0986=
200802270750 METAR ESMX 270750Z 24014KT 200V270 9999 -RA FEW008 SCT011 BKN013 06/05 Q0986=
200802270720 METAR ESMX 270720Z 23014KT 190V260 9999 BKN011 OVC016 06/05 Q0986=
200802270650 METAR ESMX 270650Z 24014KT 200V260 9999 BKN010 06/04 Q0986=
200802270620 METAR ESMX 270620Z 23015KT 190V250 9999 FEW008 OVC011 06/05 Q0986 RERA=
200802270550 METAR ESMX 270550Z 24013G24KT 210V270 9999 BR FEW007 BKN009 OVC012 06/05 Q0986=
200802270520 METAR ESMX 270520Z 23015KT 200V260 6000 BR FEW005 OVC010 06/05 Q0986 RERA REDZ=
200802270450 METAR ESMX 270450Z 23013KT 190V270 7000 BR FEW006 OVC010 05/04 Q0986=
200802270420 METAR ESMX 270420Z AUTO 22013KT 180V240 3600NDV -RA FEW006/// BKN007/// OVC010/// 05/04 Q0986 REDZ=
200802270350 METAR ESMX 270350Z AUTO 22013KT 7000NDV -RA FEW008/// OVC011/// 05/04 Q0986 REDZ=
200802270320 METAR ESMX 270320Z AUTO 22013KT 9000NDV DZ FEW009/// OVC011/// 05/04 Q0987=
200802270250 METAR ESMX 270250Z AUTO 22014KT 7000NDV -DZ FEW008/// BKN010/// OVC014/// 05/04 Q0987 RERA=
200802270220 METAR ESMX 270220Z AUTO 21016KT 5000NDV BR FEW008/// OVC010/// 05/04 Q0987 RERA REDZ=
200802270150 METAR ESMX 270150Z AUTO 21014KT 8000NDV BR FEW007/// BKN009/// OVC012/// 05/04 Q0988 REDZ=
200802270120 METAR ESMX 270120Z AUTO 22012KT 8000NDV -RA FEW007/// OVC009/// 05/04 Q0988 REDZ=
200802270050 METAR ESMX 270050Z 22013KT 4800 -RA FEW009 OVC010 05/04 Q0989 REDZ=
200802270020 METAR ESMX 270020Z 22013KT 9999 OVC010 05/03 Q0989=
200802262350 METAR ESMX 262350Z 22013KT 9999 OVC010 05/03 Q0989=
200802262250 METAR ESMX 262250Z 23011KT 9999 FEW012 BKN014 OVC018 05/03 Q0990=
200802262220 METAR ESMX 262220Z 22011KT 9999 BKN012 OVC035 05/03 Q0990=
200802262150 METAR ESMX 262150Z 23012KT 210V270 9999 FEW016 BKN034 05/03 Q0990=
200802262120 METAR ESMX 262120Z 23011G23KT 200V280 9999 FEW013 SCT017 BKN020 05/03 Q0990=
200802262050 METAR ESMX 262050Z 24013KT 9999 FEW015 SCT018 BKN021 05/04 Q0990=
200802262020 METAR ESMX 262020Z 25011KT 9999 FEW017 SCT021 BKN025 05/04 Q0990=
200802261950 METAR ESMX 261950Z 25011KT 210V280 9999 FEW017 SCT022 BKN026 05/04 Q0990 RERA=
200802261920 METAR ESMX 261920Z 25014KT 210V280 9999 -DZ FEW010 SCT015 BKN020 06/05 Q0990 RERA REDZ=
200802261850 METAR ESMX 261850Z 24011KT 210V280 9999 DZ FEW010 SCT015 BKN020 07/05 Q0989=
200802261820 METAR ESMX 261820Z 24012G25KT 200V280 6000 -RA FEW005 BKN007 OVC010 07/06 Q0989=
200802261750 METAR ESMX 261750Z 22011KT 9000 BR FEW005 SCT007 BKN008 07/07 Q0989 RERA=
200802261720 METAR ESMX 261720Z 21013KT 4800 -RA FEW005 SCT006 BKN008 07/07 Q0989=
200802261650 METAR ESMX 261650Z 21011KT 3700 -RA FEW005 BKN006 OVC008 07/07 Q0989=
200802261620 METAR ESMX 261620Z 21012KT 170V230 3100 BR BKN004 OVC008 07/06 Q0989 RERA=
200802261550 METAR ESMX 261550Z 21013KT 5000 -RA FEW005 BKN006 OVC009 07/06 Q0989=
200802261520 METAR ESMX 261520Z 20015KT 160V220 8000 -RA SCT005 OVC007 07/06 Q0990=
200802261450 METAR ESMX 261450Z 20013KT 5000 -RA BKN006 OVC010 07/06 Q0990 REDZ=
200802261420 METAR ESMX 261420Z 20013KT 5000 -RA FEW006 OVC007 07/06 Q0991=
200802261350 METAR ESMX 261350Z 19014KT 4300 -RA FEW005 BKN006 OVC009 06/06 Q0991=
200802261320 METAR ESMX 261320Z 19014KT 7000 BR SCT005 OVC007 06/05 Q0992 RERA=
200802261250 METAR ESMX 261250Z 19014KT 8000 -RA BKN006 OVC009 06/05 Q0992=
200802261220 METAR ESMX 261220Z 18014KT 7000 -RA BKN005 05/05 Q0993 RERA=
200802261150 METAR ESMX 261150Z 18014KT 5000 -RA, BR BKN005 05/04 Q0994 REDZ=
200802261120 METAR ESMX 261120Z 18015KT 4000 -RA OVC004 05/04 Q0995 REDZ=
200802261050 METAR ESMX 261050Z 17012KT 4500 DZ OVC004 04/04 Q0996 RERA=
200802261020 METAR ESMX 261020Z 17010KT 3300 -RA BKN004 04/03 Q0997=
200802260950 METAR ESMX 260950Z 17011KT 3200 RA FEW005 OVC007 04/03 Q0998 REDZ=
200802260920 METAR ESMX 260920Z 17008KT 3500 -RA BKN008 OVC012 04/03 Q0999 REDZ=
200802260850 METAR ESMX 260850Z 18012KT 4300 DZ FEW014 SCT028 BKN032 04/02 Q0999=
200802260820 METAR ESMX 260820Z 17011KT 5000 DZ, BR FEW018 SCT025 BKN036 03/02 Q1000 RERA=
200802260750 METAR ESMX 260750Z 17011KT 6000 DZ FEW020 03/01 Q1001 RERA=
200802260720 METAR ESMX 260720Z 16009KT 9000 SCT035 03/01 Q1001=
200802260650 METAR ESMX 260650Z 17010KT 9999 BKN030 03/01 Q1002=
200802260620 METAR ESMX 260620Z 16008KT 130V190 CAVOK 03/01 Q1003=
200802260550 METAR ESMX 260550Z 17008KT CAVOK 03/01 Q1003=
200802260520 METAR ESMX 260520Z 18010KT CAVOK 03/01 Q1004=
200802260450 METAR ESMX 260450Z 19009KT CAVOK 03/01 Q1005=
200802260420 METAR ESMX 260420Z AUTO 18008KT 9999NDV NCD 03/01 Q1005=
200802260350 METAR ESMX 260350Z AUTO 20008KT 9999NDV NCD 03/01 Q1006=
200802260320 METAR ESMX 260320Z AUTO 20007KT 9999NDV FEW093/// 03/01 Q1007=
200802260250 METAR ESMX 260250Z AUTO 20008KT 9999NDV FEW093/// 03/01 Q1007=
200802260220 METAR ESMX 260220Z AUTO 21009KT 9999NDV SCT013/// BKN017/// 03/01 Q1008=
200802260150 METAR ESMX 260150Z AUTO 23009KT 9999NDV BKN013/// OVC020/// 04/01 Q1008=
200802260120 METAR ESMX 260120Z AUTO 22012KT 190V250 9999NDV BKN011/// OVC016/// 04/02 Q1008=
200802260050 METAR ESMX 260050Z 23010KT 9999 OVC010 04/02 Q1008=
200802260020 METAR ESMX 260020Z 23010KT 200V260 9999 OVC010 04/02 Q1008=
200802252350 METAR ESMX 252350Z 23009KT 9999 BKN010 OVC014 04/02 Q1009=
200802252320 METAR ESMX 252320Z 24010KT 200V280 9999 BKN010 OVC014 04/02 Q1009=
200802252250 METAR ESMX 252250Z 25009KT 9999 OVC011 04/02 Q1009=
200802252220 METAR ESMX 252220Z 25010KT 9999 OVC011 04/02 Q1009=
200802252150 METAR ESMX 252150Z 25010KT 210V280 9999 BKN011 OVC018 04/02 Q1009=
200802252120 METAR ESMX 252120Z 25012KT 9999 SCT014 BKN018 OVC020 04/02 Q1010=
200802252050 METAR ESMX 252050Z 26013KT 220V280 9999 FEW014 BKN017 OVC020 04/02 Q1010=
200802252020 METAR ESMX 252020Z 25012KT 230V290 9999 -SHRA FEW015 SCT017 BKN020 04/02 Q1010=
200802251950 METAR ESMX 251950Z 26012KT 220V290 9999 SCT016 BKN022 BKN046 04/02 Q1010 RERA REDZ=
200802251920 METAR ESMX 251920Z 24011G24KT 9999 -SHRA FEW023 BKN048 05/01 Q1010=
200802251850 METAR ESMX 251850Z 25013KT 9999 FEW023 BKN046 05/01 Q1010=
200802251820 METAR ESMX 251820Z 26014KT 9999 FEW023 SCT029 BKN050 05/01 Q1009=
200802251750 METAR ESMX 251750Z 24012KT 200V280 9999 SCT025 BKN045 05/01 Q1009=
200802251720 METAR ESMX 251720Z 24010KT 200V280 9999 SCT025 BKN076 05/00 Q1009=
200802251650 METAR ESMX 251650Z 25012G23KT 210V300 9999 FEW024 BKN050 05/01 Q1009 RERA REDZ=
200802251620 METAR ESMX 251620Z 25010KT 210V290 9999 FEW039 OVC050 05/01 Q1009 RERA REDZ=
200802251550 METAR ESMX 251550Z 25012KT 210V280 9999 FEW015 BKN050 05/01 Q1009 REDZ RERA=
200802251520 METAR ESMX 251520Z 25014G25KT 220V290 9000 -SHRA FEW024 SCT029 BKN044 05/01 Q1009 RERA=
200802251450 METAR ESMX 251450Z 26016KT 230V290 9999 FEW033 SCT046 BKN051 06/M00 Q1008=
200802251420 METAR ESMX 251420Z 25014G24KT 210V290 9999 FEW030 SCT040 BKN045 06/M00 Q1008=
200802251350 METAR ESMX 251350Z 26017KT 240V300 9999 FEW030 SCT035 BKN040 06/00 Q1008=
200802251320 METAR ESMX 251320Z 28016KT 240V310 9999 FEW033 SCT038 07/M00 Q1008=
200802251250 METAR ESMX 251250Z 29009KT 260V320 9999 FEW027 SCT044 05/02 Q1008 RERA REDZ=
200802251220 METAR ESMX 251220Z 27013G26KT 240V310 9999 FEW032 BKN041 06/M00 Q1007=
200802251150 METAR ESMX 251150Z 28015KT 240V310 9999 FEW030 SCT035 BKN050 06/M00 Q1007=
200802251120 METAR ESMX 251120Z 27014KT 230V300 9999 -SHRA FEW031 SCT037 BKN058 06/M00 Q1007=
200802251050 METAR ESMX 251050Z 28013G26KT 9999 FEW028 SCT036 BKN048 06/00 Q1007=
200802251020 METAR ESMX 251020Z 27015KT 9999 FEW026 SCT031 BKN041 05/00 Q1007=
200802250950 METAR ESMX 250950Z 27017G27KT 240V310 9999 FEW026 SCT030 BKN035 06/M00 Q1006=
200802250920 METAR ESMX 250920Z 28016G27KT 9999 FEW023 SCT027 05/00 Q1006=
200802250850 METAR ESMX 250850Z 26014KT 220V290 9999 BKN021 BKN030 05/01 Q1005=
200802250750 METAR ESMX 250750Z 26013KT 9999 BKN020 04/01 Q1005=
200802250720 METAR ESMX 250720Z 27011KT 9999 FEW020 SCT027 04/00 Q1005=
200802250650 METAR ESMX 250650Z 26012KT 210V290 9999 FEW019 SCT024 BKN028 04/01 Q1005=
200802250620 METAR ESMX 250620Z 26010KT 230V290 9999 SCT019 BKN024 04/01 Q1004=
200802250550 METAR ESMX 250550Z 27010KT 9999 FEW018 BKN021 04/01 Q1004=
200802250520 METAR ESMX 250520Z 26011KT 9999 FEW018 BKN021 04/01 Q1004=
200802250450 METAR ESMX 250450Z 26009KT 230V300 9999 FEW019 BKN022 04/01 Q1004=
200802250420 METAR ESMX 250420Z AUTO 27010KT 240V320 9999NDV FEW020/// BKN024/// BKN033/// 04/01 Q1004=
200802250350 METAR ESMX 250350Z AUTO 26011KT 210V290 9999NDV FEW018/// BKN021/// BKN027/// 04/01 Q1004=
200802250320 METAR ESMX 250320Z AUTO 27010KT 230V300 9999NDV OVC019/// 05/01 Q1004=
200802250250 METAR ESMX 250250Z AUTO 27011KT 240V300 9999NDV FEW018/// BKN020/// 05/01 Q1004=
200802250220 METAR ESMX 250220Z AUTO 27014KT 220V300 9999NDV OVC017/// 05/02 Q1004=
200802250150 METAR ESMX 250150Z 26011G21KT 220V290 9999 FEW019 BKN022 05/02 Q1004=
200802250120 METAR ESMX 250120Z 26012KT 230V290 9999 BKN020 BKN031 05/02 Q1004=
200802250050 METAR ESMX 250050Z 26015KT 9999 SCT018 BKN025 06/02 Q1004=
200802250020 METAR ESMX 250020Z 26016KT 9999 FEW019 BKN022 06/02 Q1004=
200802242350 METAR ESMX 242350Z 26014G24KT 9999 FEW018 BKN021 BKN029 06/03 Q1004=
200802242320 METAR ESMX 242320Z 26011G21KT 210V290 9999 FEW018 SCT022 BKN027 06/03 Q1004=
200802242250 METAR ESMX 242250Z 26014KT 9999 FEW016 BKN019 06/03 Q1004=
200802242220 METAR ESMX 242220Z 25015KT 9999 FEW017 BKN026 06/04 Q1004=
200802242150 METAR ESMX 242150Z 25014G27KT 210V290 9999 FEW008 SCT010 BKN015 07/05 Q1004=
200802242120 METAR ESMX 242120Z 23012KT 7000 -RA FEW007 OVC008 06/05 Q1004=
200802242050 METAR ESMX 242050Z 24015KT 210V280 8000 -RA OVC007 07/05 Q1004=
200802242020 METAR ESMX 242020Z 25013G24KT 210V290 9999 -RA FEW008 OVC009 07/05 Q1004=
200802241950 METAR ESMX 241950Z 24016KT 200V270 8000 -RA OVC010 07/05 Q1004=
200802241920 METAR ESMX 241920Z 24014KT 9999 OVC012 07/05 Q1004=
200802241850 METAR ESMX 241850Z 24014G24KT 9999 OVC012 07/05 Q1004=
200802241820 METAR ESMX 241820Z 23014G25KT 9999 OVC013 07/05 Q1004=
200802241750 METAR ESMX 241750Z 23012G24KT 200V270 9999 -RA OVC013 07/05 Q1004=
200802241720 METAR ESMX 241720Z 24014KT 9999 OVC012 07/05 Q1004=
200802241650 METAR ESMX 241650Z 24014KT 220V280 9999 OVC012 07/05 Q1004 REDZ=
200802241620 METAR ESMX 241620Z 23013KT 210V280 7000 DZ OVC012 07/05 Q1004 RERA=
200802241550 METAR ESMX 241550Z 22014KT 9999 BKN014 OVC018 07/05 Q1005=
200802241520 METAR ESMX 241520Z 23013G25KT 9999 BKN014 OVC022 07/05 Q1005=
200802241450 METAR ESMX 241450Z 24013KT 9999 OVC013 07/05 Q1005=
200802241420 METAR ESMX 241420Z 24013G23KT 9999 OVC012 07/05 Q1005=
200802241350 METAR ESMX 241350Z 24012KT 9999 OVC010 07/05 Q1006=
200802241320 METAR ESMX 241320Z 24013KT 200V270 9999 OVC009 07/05 Q1006=
200802241250 METAR ESMX 241250Z 24014KT 9999 OVC008 07/06 Q1006=
200802241220 METAR ESMX 241220Z 24013KT 9999 BKN008 OVC010 07/06 Q1006=
200802241150 METAR ESMX 241150Z 23012KT 190V260 9999 BKN008 OVC011 07/06 Q1006=
200802241120 METAR ESMX 241120Z 24012KT 210V280 9999 BKN007 OVC011 07/06 Q1006=
200802241050 METAR ESMX 241050Z AUTO 24013KT 9999NDV BKN007/// OVC011/// 07/06 Q1006=
200802241020 METAR ESMX 241020Z AUTO 24013KT 200V270 9999NDV OVC006/// 07/06 Q1006=
200802240950 METAR ESMX 240950Z AUTO 25014KT 200V290 9999NDV BR OVC005/// 07/06 Q1007=
200802240920 METAR ESMX 240920Z AUTO 25015KT 230V290 8000NDV BR OVC004/// 07/06 Q1006=
200802240850 METAR ESMX 240850Z AUTO 25015G25KT 200V270 7000NDV BR OVC005/// 07/06 Q1007=
200802240820 METAR ESMX 240820Z AUTO 25015KT 220V290 4600NDV BR OVC005/// 07/06 Q1006=
200802240750 METAR ESMX 240750Z AUTO 25012KT 220V280 2600NDV BR OVC004/// 07/06 Q1007=
200802240720 METAR ESMX 240720Z AUTO 24014G25KT 5000NDV BR OVC005/// 07/06 Q1006=
200802240650 METAR ESMX 240650Z AUTO 24013G23KT 200V280 5000NDV BR FEW005/// OVC006/// 07/06 Q1006=
200802240620 METAR ESMX 240620Z AUTO 24012G22KT 190V260 5000NDV BR BKN006/// OVC009/// 07/06 Q1006=
200802240550 METAR ESMX 240550Z AUTO 25011KT 200V280 4100NDV BR BKN005/// OVC008/// 07/06 Q1006=
200802240520 METAR ESMX 240520Z AUTO 24013KT 210V280 3200NDV BR BKN005/// OVC009/// 07/06 Q1006 RERA REDZ=
200802240450 METAR ESMX 240450Z AUTO 24011KT 210V290 2300NDV BR FEW005/// SCT007/// BKN008/// 07/06 Q1006=
200802240420 METAR ESMX 240420Z AUTO 25010KT 170V280 3000NDV BR BKN005/// OVC008/// 07/06 Q1006=
200802240350 METAR ESMX 240350Z AUTO 25012KT 210V280 3000NDV BR BKN004/// OVC007/// 07/06 Q1006=
200802240320 METAR ESMX 240320Z AUTO 25013KT 2600NDV BR OVC002/// 07/06 Q1007=
200802240250 METAR ESMX 240250Z AUTO 25011KT 210V280 3400NDV BR OVC002/// 07/06 Q1007=
200802240220 METAR ESMX 240220Z AUTO 24011KT 210V280 5000NDV BR OVC004/// 06/06 Q1007=
200802240150 METAR ESMX 240150Z AUTO 24010KT 4000NDV BR OVC004/// 06/06 Q1007=
200802240120 METAR ESMX 240120Z AUTO 24010KT 210V270 6000NDV BR OVC003/// 06/06 Q1008=
200802240050 METAR ESMX 240050Z AUTO 24008KT 210V280 4900NDV BR OVC003/// 06/05 Q1008=
200802240020 METAR ESMX 240020Z AUTO 23008KT 190V250 6000NDV BR OVC003/// 06/05 Q1008=
200802232350 METAR ESMX 232350Z AUTO 23008KT 190V260 9000NDV BR OVC005/// 06/05 Q1008=
200802232320 METAR ESMX 232320Z AUTO 22007KT 170V250 9000NDV OVC005/// 05/05 Q1008=
200802232250 METAR ESMX 232250Z AUTO 22008KT 190V250 6000NDV BR OVC004/// 05/04 Q1009=
200802232220 METAR ESMX 232220Z AUTO 22007KT 170V240 9999NDV OVC004/// 05/04 Q1009=
200802232150 METAR ESMX 232150Z AUTO 21007KT 9999NDV OVC005/// 05/04 Q1010=
200802232120 METAR ESMX 232120Z AUTO 22008KT 180V250 9000NDV OVC006/// 05/03 Q1010=
200802232050 METAR ESMX 232050Z AUTO 23009KT 9999NDV OVC009/// 05/03 Q1010=
200802232020 METAR ESMX 232020Z AUTO 24009KT 210V280 9999NDV OVC011/// 05/02 Q1010=
200802231950 METAR ESMX 231950Z AUTO 25010G20KT 220V280 9999NDV BKN013/// OVC018/// 05/02 Q1011=
200802231920 METAR ESMX 231920Z AUTO 24010KT 210V280 9999NDV ////// 05/03 Q1010=
200802231850 METAR ESMX 231850Z AUTO 26012G22KT 210V290 9999NDV ////// 05/03 Q1011=
200802231820 METAR ESMX 231820Z AUTO 26011KT 230V300 9999NDV ////// 05/02 Q1011=
200802231750 METAR ESMX 231750Z AUTO 26012KT 9999NDV ////// 05/02 Q1011=
200802231720 METAR ESMX 231720Z AUTO 26010KT 220V290 9999NDV ////// 05/02 Q1011=
200802231650 METAR ESMX 231650Z AUTO 26010KT 220V300 9999NDV ////// 06/01 Q1011=
200802231620 METAR ESMX 231620Z AUTO 26011KT 230V290 9999NDV ////// 06/01 Q1011=
200802231550 METAR ESMX 231550Z AUTO 26011KT 220V280 9999NDV ////// 06/01 Q1011=
200802231520 METAR ESMX 231520Z AUTO 27013KT 230V300 9999NDV ////// 06/01 Q1011=
200802231450 METAR ESMX 231450Z AUTO 27015KT 230V300 9999NDV ////// 06/01 Q1011=
200802231420 METAR ESMX 231420Z AUTO 27014G24KT 230V310 9999NDV ////// 07/01 Q1010=
200802231350 METAR ESMX 231350Z AUTO 28014G26KT 240V300 9999NDV ////// 07/01 Q1010=
200802231320 METAR ESMX 231320Z AUTO 27016KT 9999NDV ////// 07/00 Q1009=
200802231250 METAR ESMX 231250Z AUTO 27018G28KT 240V300 9999NDV ////// 07/01 Q1009=
200802231220 METAR ESMX 231220Z AUTO 28018KT 250V310 9999NDV ////// 07/01 Q1008=
200802231150 METAR ESMX 231150Z AUTO 29017G31KT 250V320 9999NDV ////// 07/M00 Q1008=
200802231120 METAR ESMX 231120Z AUTO 29017KT 240V320 9999NDV ////// 07/M00 Q1007=
200802231050 METAR ESMX 231050Z AUTO 28018KT 240V310 9999NDV ////// 07/M00 Q1007=
200802231020 METAR ESMX 231020Z AUTO 28016KT 9999NDV ////// 07/00 Q1006=
200802230950 METAR ESMX 230950Z AUTO 28018KT 250V320 9999NDV ////// 06/00 Q1006=
200802230920 METAR ESMX 230920Z AUTO 28017KT 250V320 9999NDV ////// 06/00 Q1005=
200802230850 METAR ESMX 230850Z AUTO 28016KT 9999NDV ////// 06/00 Q1004=
200802230820 METAR ESMX 230820Z AUTO 28015KT 250V330 9999NDV ////// 06/00 Q1003=
200802230750 METAR ESMX 230750Z AUTO 28016G26KT 240V320 9999NDV ////// 05/00 Q1003=
200802230720 METAR ESMX 230720Z AUTO 28013KT 240V300 9999NDV ////// 05/00 Q1002=
200802230650 METAR ESMX 230650Z AUTO 27016G27KT 240V300 9999NDV ////// 05/00 Q1002=
200802230620 METAR ESMX 230620Z AUTO 27014KT 230V290 9999NDV ////// 05/00 Q1001=
200802230550 METAR ESMX 230550Z AUTO 27016G27KT 240V300 9999NDV ////// 05/M00 Q1001=
200802230520 METAR ESMX 230520Z AUTO 28015KT 250V330 9999NDV ////// 05/M00 Q1000=
200802230450 METAR ESMX 230450Z AUTO 28017G32KT 230V320 9999NDV ////// 05/M00 Q1000=
200802230420 METAR ESMX 230420Z AUTO 28016G27KT 250V320 9999NDV ////// 05/M00 Q0999=
200802230350 METAR ESMX 230350Z AUTO 28015G29KT 230V330 9999NDV ////// 05/M00 Q0998=
200802230320 METAR ESMX 230320Z AUTO 27017G31KT 220V300 9999NDV ////// 05/M00 Q0998=
200802230250 METAR ESMX 230250Z AUTO 27017G29KT 220V300 9999NDV ////// 05/M00 Q0997=
200802230220 METAR ESMX 230220Z AUTO 27019G31KT 240V350 9999NDV ////// 05/M00 Q0997=
200802230150 METAR ESMX 230150Z AUTO 28020G34KT 250V320 9999NDV ////// 05/M00 Q0996=
200802230120 METAR ESMX 230120Z AUTO 27017G28KT 230V300 9999NDV ////// 05/M00 Q0995=
200802230050 METAR ESMX 230050Z AUTO 28017G29KT 240V310 9999NDV ////// 05/M00 Q0994=
200802230020 METAR ESMX 230020Z AUTO 28018G30KT 250V330 9999NDV ////// 04/M00 Q0994=
200802222350 METAR ESMX 222350Z AUTO 27016G27KT 220V320 9999NDV ////// 04/M00 Q0993 REDZ=
200802222320 METAR ESMX 222320Z AUTO 27022G32KT 8000NDV -DZ ////// 04/00 Q0992 RERA=
200802222250 METAR ESMX 222250Z AUTO 27019G31KT 9999NDV ////// 04/M00 Q0991=
200802222220 METAR ESMX 222220Z AUTO 27019G34KT 230V300 9999NDV ////// 04/M01 Q0991=
200802222150 METAR ESMX 222150Z AUTO 26019G34KT 220V290 9999NDV ////// 05/M01 Q0990=
200802222120 METAR ESMX 222120Z AUTO 27021G36KT 240V300 9999NDV ////// 05/M01 Q0990=
200802222050 METAR ESMX 222050Z 26023G40KT 220V290 9999 BKN033 05/M00 Q0990=
200802222020 METAR ESMX 222020Z 27023G40KT 230V300 9999 BKN033 05/M01 Q0989=
200802221950 METAR ESMX 221950Z 26023G41KT 230V300 9999 BKN030 05/M00 Q0989=
200802221920 METAR ESMX 221920Z 26024G38KT 230V290 9999 BKN030 06/00 Q0989=
200802221850 METAR ESMX 221850Z 25020G39KT 210V280 9999 BKN030 06/01 Q0988=
200802221820 METAR ESMX 221820Z 26025G45KT 230V290 9999 BKN030 06/01 Q0989=
200802221750 METAR ESMX 221750Z 25021G38KT 210V290 9999 SCT020 BKN090 05/01 Q0988=
200802221720 METAR ESMX 221720Z 25020G37KT 210V290 9999 SCT012 BKN020 05/02 Q0988=
200802221650 METAR ESMX 221650Z 27025G49KT 210V300 4800 -RA SCT012 BKN020 06/03 Q0988=
200802221620 METAR ESMX 221620Z 24022G37KT 200V260 6000 -RA BKN014 08/06 Q0987=
200802221550 METAR ESMX 221550Z 23017G35KT 200V270 4200 RA FEW009 BKN013 BKN018 07/06 Q0988=
200802221520 METAR ESMX 221520Z 21020KT 190V250 4500 -RA FEW007 SCT009 BKN011 06/05 Q0989=
200802221450 METAR ESMX 221450Z 21019KT 170V240 3200 RA FEW007 SCT009 BKN010 05/04 Q0991=
200802221420 METAR ESMX 221420Z 22017G28KT 190V250 4200 -RA FEW010 SCT012 BKN015 05/04 Q0992=
200802221350 METAR ESMX 221350Z 23017G30KT 190V260 4800 RA SCT015 BKN019 06/04 Q0994=
200802221320 METAR ESMX 221320Z 23018KT 200V270 9999 DZ BKN020 BKN028 07/04 Q0995=
200802221250 METAR ESMX 221250Z 25017G27KT 210V280 9999 SCT021 BKN031 07/03 Q0996=
200802221220 METAR ESMX 221220Z 25016G32KT 210V300 9999 FEW021 SCT029 08/04 Q0997=
200802221150 METAR ESMX 221150Z 24014G27KT 200V280 9999 SCT024 OVC200 08/04 Q0997=
200802221120 METAR ESMX 221120Z 25016G27KT 210V280 9999 FEW031 OVC200 08/02 Q0998=
200802221050 METAR ESMX 221050Z 26014G30KT 220V290 9999 FEW026 08/02 Q0998=
200802221020 METAR ESMX 221020Z 25014G28KT 210V290 9999 FEW024 SCT029 07/03 Q0998=
200802220950 METAR ESMX 220950Z 26015G26KT 210V290 9999 SCT025 OVC200 07/03 Q0998=
200802220920 METAR ESMX 220920Z 26015G26KT 230V300 9999 FEW030 OVC200 07/03 Q0999=
200802220850 METAR ESMX 220850Z 27016G27KT 9999 FEW039 OVC200 07/02 Q0999=
200802220820 METAR ESMX 220820Z 27015KT 9999 SCT021 OVC200 06/02 Q0998=
200802220750 METAR ESMX 220750Z 27016G27KT 220V290 9999 SCT020 BKN027 06/02 Q0998=
200802220720 METAR ESMX 220720Z 26016G29KT 9999 FEW020 BKN024 06/03 Q0997=
200802220650 METAR ESMX 220650Z 27015G30KT 200V300 9999 SCT020 BKN027 BKN031 06/03 Q0997=
200802220620 METAR ESMX 220620Z 27015G25KT 240V300 9999 FEW019 SCT022 BKN026 06/04 Q0997=
200802220550 METAR ESMX 220550Z 26014G25KT 220V300 9999 FEW015 SCT018 BKN020 06/04 Q0996=
200802220520 METAR ESMX 220520Z 26015KT 230V290 9999 FEW022 06/03 Q0996=
200802220450 METAR ESMX 220450Z 25013KT 220V290 9999 FEW015 BKN052 06/04 Q0996=
200802220420 METAR ESMX 220420Z AUTO 26017G29KT 240V300 9999NDV FEW012/// SCT015/// BKN018/// 07/05 Q0996=
200802220350 METAR ESMX 220350Z AUTO 26020KT 9999NDV FEW007/// SCT010/// BKN013/// 07/05 Q0996=
200802220320 METAR ESMX 220320Z AUTO 24017G30KT 200V290 6000NDV BR FEW007/// SCT008/// OVC010/// 07/06 Q0995=
200802220250 METAR ESMX 220250Z AUTO 24015KT 210V280 8000NDV BR FEW006/// OVC007/// 07/06 Q0995=
200802220220 METAR ESMX 220220Z AUTO 23016G28KT 200V290 3600NDV BR FEW005/// OVC006/// 07/06 Q0996 REDZ=
200802220150 METAR ESMX 220150Z AUTO 23016G27KT 190V270 2100NDV DZ FEW004/// OVC006/// 07/06 Q0996 RERA=
200802220120 METAR ESMX 220120Z AUTO 23015G25KT 200V260 2500NDV BR OVC003/// 06/06 Q0996=
200802220050 METAR ESMX 220050Z 22015KT 190V260 4200 BR OVC004 06/06 Q0997=
200802220020 METAR ESMX 220020Z 23014KT 190V290 4400 BR FEW004 OVC006 06/05 Q0997 REDZ=
200802212350 METAR ESMX 212350Z 22014KT 2100 DZ FEW004 BKN006 OVC008 06/05 Q0998=
200802212320 METAR ESMX 212320Z 21015KT 1700 +DZ BKN004 OVC007 06/05 Q0998 RERA=
200802212250 METAR ESMX 212250Z 22014KT 180V250 2200 BR OVC004 06/05 Q0999=
200802212220 METAR ESMX 212220Z 23013KT 2300 BR BKN005 OVC007 05/05 Q0999 RERA REDZ=
200802212150 METAR ESMX 212150Z 22012KT 200V260 2600 BR OVC004 05/04 Q1000 REDZ=
200802212120 METAR ESMX 212120Z 21014KT 4400 -DZ OVC004 05/04 Q1000 RERA=
200802212050 METAR ESMX 212050Z 22012KT 2600 BR OVC005 05/04 Q1001=
200802212020 METAR ESMX 212020Z 21013KT 1900 BR FEW003 BKN005 OVC008 04/04 Q1001=
200802211950 METAR ESMX 211950Z 21013KT 2200 BR FEW004 BKN005 OVC008 04/04 Q1002=
200802211920 METAR ESMX 211920Z 21012KT 2000 BR OVC005 04/03 Q1002=
200802211850 METAR ESMX 211850Z 21012KT 2200 BR OVC004 04/03 Q1003=
200802211820 METAR ESMX 211820Z 20013KT 1800 BR OVC005 04/03 Q1003=
200802211750 METAR ESMX 211750Z 20012KT 2500 BR OVC006 04/03 Q1004=
200802211720 METAR ESMX 211720Z 20011KT 2500 BR OVC005 03/03 Q1004=
200802211650 METAR ESMX 211650Z 21012KT 170V240 2200 BR OVC005 03/02 Q1004=
200802211620 METAR ESMX 211620Z 21012KT 2000 BR OVC003 03/02 Q1005=
200802211550 METAR ESMX 211550Z 20011KT 1800 BR OVC003 03/02 Q1005=
200802211520 METAR ESMX 211520Z 20011KT 2200 BR OVC004 02/02 Q1006=
200802211450 METAR ESMX 211450Z 21010KT 2500 BR OVC005 02/01 Q1006=
200802211420 METAR ESMX 211420Z 21009KT 180V240 3000 BR OVC006 02/01 Q1007=
200802211350 METAR ESMX 211350Z 22010KT 3500 BR SCT006 OVC008 02/01 Q1007=
200802211320 METAR ESMX 211320Z 21009KT 4500 BR OVC010 02/00 Q1007 RERA=
200802211250 METAR ESMX 211250Z 22009KT 5000 -RA BR OVC011 02/00 Q1008=
200802211220 METAR ESMX 211220Z 21010KT 6000 BR OVC010 02/M00 Q1008=
200802211150 METAR ESMX 211150Z 21009KT 180V240 8000 BR FEW010 OVC013 02/M00 Q1009=
200802211120 METAR ESMX 211120Z 21009KT 180V250 9000 BR BKN012 02/M01 Q1009=
200802211050 METAR ESMX 211050Z 21009KT 9000 BR BKN014 OVC021 02/M00 Q1009=
200802211020 METAR ESMX 211020Z 22010KT 200V260 9000 BR BKN013 OVC023 02/M01 Q1010=
200802210950 METAR ESMX 210950Z 22009KT 8000 BR OVC013 02/M01 Q1009=
200802210920 METAR ESMX 210920Z 24010KT 200V280 7000 BR OVC012 01/M01 Q1010=
200802210850 METAR ESMX 210850Z 23011KT 7000 BR OVC013 01/M01 Q1010=
200802210820 METAR ESMX 210820Z 22010KT 180V240 6000 BR SCT012 OVC016 01/M01 Q1010=
200802210750 METAR ESMX 210750Z 23011KT 6000 BR BKN011 OVC013 01/M01 Q1010=
200802210720 METAR ESMX 210720Z 22008KT 7000 BR FEW013 SCT016 OVC018 01/M01 Q1010=
200802210650 METAR ESMX 210650Z 23010KT 190V280 6000 BR FEW010 OVC013 01/M01 Q1010=
200802210620 METAR ESMX 210620Z 23008KT 190V270 4800 BR FEW005 SCT008 BKN009 01/M00 Q1010=
200802210550 METAR ESMX 210550Z 22008KT 3000 BR OVC003 01/01 Q1011=
200802210520 METAR ESMX 210520Z 21008KT 3800 BR OVC004 01/01 Q1011=
200802210450 METAR ESMX 210450Z 21007KT 5000 BR BKN005 BKN030 01/01 Q1011=
200802210420 METAR ESMX 210420Z AUTO 19006KT 7000NDV BR SCT007/// OVC027/// 02/01 Q1011=
200802210350 METAR ESMX 210350Z AUTO 18005KT 7000NDV BR OVC021/// 02/01 Q1011=
200802210320 METAR ESMX 210320Z AUTO 20005KT 6000NDV BR OVC025/// 01/01 Q1012=
200802210250 METAR ESMX 210250Z AUTO 20005KT 6000NDV BR OVC026/// 01/01 Q1012=
200802210220 METAR ESMX 210220Z AUTO 19005KT 5000NDV BR FEW005/// OVC029/// 01/01 Q1012=
200802210150 METAR ESMX 210150Z AUTO 19005KT 6000NDV BR OVC029/// 01/01 Q1013=
200802210120 METAR ESMX 210120Z AUTO 19005KT 7000NDV BR BKN006/// OVC031/// 02/01 Q1013=
200802210050 METAR ESMX 210050Z 19004KT 9999 FEW006 OVC029 02/00 Q1013=
200802210020 METAR ESMX 210020Z 21004KT 9999 OVC027 02/M00 Q1014=
200802202350 METAR ESMX 202350Z 24005KT 210V280 9999 OVC027 02/M01 Q1014=
200802202320 METAR ESMX 202320Z 24006KT 200V270 9999 OVC026 02/M01 Q1014=
200802202250 METAR ESMX 202250Z 22005KT 9999 OVC028 02/M00 Q1014=
200802202220 METAR ESMX 202220Z 22005KT 9999 OVC026 01/00 Q1015=
200802202150 METAR ESMX 202150Z 22005KT 9999 OVC030 01/00 Q1015=
200802202120 METAR ESMX 202120Z 19005KT 9999 OVC031 00/M00 Q1015=
200802202050 METAR ESMX 202050Z 20005KT 9999 BKN030 M00/M01 Q1015=
200802202020 METAR ESMX 202020Z 20004KT 9999 SCT029 00/M01 Q1015=
200802201950 METAR ESMX 201950Z 20004KT 9999 FEW016 SCT030 01/M00 Q1015=
200802201920 METAR ESMX 201920Z 21004KT 9999 FEW026 00/M01 Q1015=
200802201850 METAR ESMX 201850Z 22005KT 9999 FEW021 SCT025 01/M01 Q1015=
200802201750 METAR ESMX 201750Z 24003KT 190V260 9999 FEW023 OVC060 02/00 Q1015=
200802201720 METAR ESMX 201720Z 25003KT 210V290 9999 BKN025 03/00 Q1015=
200802201650 METAR ESMX 201650Z 24004KT 210V270 9999 FEW026 BKN061 03/00 Q1015=
200802201620 METAR ESMX 201620Z 25007KT CAVOK 04/00 Q1015=
200802201520 METAR ESMX 201520Z 24006KT 190V280 CAVOK 05/01 Q1014=
200802201450 METAR ESMX 201450Z 25008KT 9999 FEQ015 BKN060 05/01 Q1014=
200802201420 METAR ESMX 201420Z 26006KT 220V280 9999 FEW010 BKN060 05/02 Q1014=
200802201350 METAR ESMX 201350Z 26007KT 220V300 9999 FEW017 OVC059 05/02 Q1014=
200802201320 METAR ESMX 201320Z 25005KT 9999 FEW011 SCT017 BKN020 05/03 Q1015=
200802201250 METAR ESMX 201250Z 27008KT 9999 FEW008 SCT013 OVC016 05/03 Q1015=
200802201220 METAR ESMX 201220Z 27008KT 9000 BR FEW004 SCT006 BKN007 04/04 Q1015=
200802201150 METAR ESMX 201150Z 26006KT 230V300 3400 BR BKN001 OVC007 04/04 Q1015=
200802201120 METAR ESMX 201120Z 27006KT 3100 BR OVC002 04/04 Q1015=
200802201050 METAR ESMX 201050Z 26006KT 230V300 3100 BR OVC002 04/04 Q1015=
200802201020 METAR ESMX 201020Z 27006KT 230V320 4300 BR BKN002 04/04 Q1015=
200802200950 METAR ESMX 200950Z 26007KT 230V300 8000 BR BKN002 OVC003 04/04 Q1015=
200802200920 METAR ESMX 200920Z 26006KT 2700 BR OVC002 04/04 Q1015=
200802200850 METAR ESMX 200850Z 25006KT 1700 BR VV002 04/04 Q1015=
200802200820 METAR ESMX 200820Z 25005KT 0900 R01/1400N R19/1600U FG VV002 04/04 Q1015=
200802200750 METAR ESMX 200750Z 24004KT 0750 R01/1300N R19/1500D FG VV002 04/04 Q1015=
200802200720 METAR ESMX 200720Z 24005KT 0900 R01/1600U R19/1800U FG VV002 04/04 Q1015=
200802200650 METAR ESMX 200650Z 24004KT 1100 R01/1500VP2000U R19/P2000U FG VV002 04/04 Q1015=
200802200620 METAR ESMX 200620Z 22004KT 0500 R01/1300N R19/1400N FG VV002 04/03 Q1015=
200802200550 METAR ESMX 200550Z 22004KT 0500 R01/1500D R19/P2000N FG VV002 04/03 Q1015=
200802200520 METAR ESMX 200520Z 24003KT 210V280 0900 R01/P2000D R19/P2000D FG VV002 04/03 Q1015=
200802200450 METAR ESMX 200450Z 23003KT 200V260 2000 BR BKN002 OVC004 04/03 Q1015=
200802200420 METAR ESMX 200420Z AUTO 24005KT 2900NDV BR OVC001/// 03/03 Q1015=
200802200350 METAR ESMX 200350Z AUTO 20004KT 1000NDV R01/P2000N R19/P2000U BR VV002 03/03 Q1015=
200802200320 METAR ESMX 200320Z AUTO 19005KT 1400NDV R01/P2000U R19/P2000U OVC001/// 03/03 Q1015=
200802200250 METAR ESMX 200250Z AUTO 20005KT 1500NDV VV002 03/03 Q1016=
200802200220 METAR ESMX 200220Z AUTO 20004KT 1200NDV R01/P2000D R19/P2000U VV002 03/03 Q1016 RERA REDZ=
200802200150 METAR ESMX 200150Z AUTO 19005KT 0900NDV R01/P2000D R19/P2000N -RA VV001 03/03 Q1016 REDZ=
200802200120 METAR ESMX 200120Z AUTO 17004KT 1100NDV R01/P2000U R19/P2000U VV001 03/03 Q1017=
200802200050 METAR ESMX 200050Z 18004KT 1000 R01/P2000D R19/P2000N BR OVC002 03/03 Q1017=
200802200020 METAR ESMX 200020Z 17003KT 1100 R01/P2000D R19/P2000D BR OVC002 03/03 Q1017=
200802192350 METAR ESMX 192350Z 16003KT 1300 R01/P2000U R19/P2000N BR OVC002 03/03 Q1017=
200802192320 METAR ESMX 192320Z 16003KT 2000 BR OVC002 03/02 Q1017=
200802192220 METAR ESMX 192220Z 17002KT 4500 BR OVC003 03/02 Q1018=
200802192150 METAR ESMX 192150Z VRB02KT 8000 BR OVC005 03/02 Q1018=
200802192120 METAR ESMX 192120Z 22004KT 9999 OVC006 03/02 Q1019=
200802192050 METAR ESMX 192050Z 20003KT 9999 OVC006 03/02 Q1019=
200802192020 METAR ESMX 192020Z 19003KT 9999 OVC008 04/02 Q1019=
200802191950 METAR ESMX 191950Z 20003KT 9999 OVC008 04/02 Q1019=
200802191920 METAR ESMX 191920Z 21005KT 9999 OVC010 04/02 Q1019=
200802191850 METAR ESMX 191850Z 17003KT 9999 BKN013 OVC070 04/01 Q1019=
200802191820 METAR ESMX 191820Z VRB02KT 9999 SCT015 OVC074 04/01 Q1019=
200802191750 METAR ESMX 191750Z 20003KT CAVOK 03/01 Q1019=
200802191720 METAR ESMX 191720Z 20002KT CAVOK 03/01 Q1019=
200802191650 METAR ESMX 191650Z 17004KT CAVOK 04/01 Q1019=
200802191620 METAR ESMX 191620Z 17003KT CAVOK 04/01 Q1019=
200802191550 METAR ESMX 191550Z 16003KT CAVOK 04/01 Q1020=
200802191520 METAR ESMX 191520Z 18002KT CAVOK 04/01 Q1020=
200802191450 METAR ESMX 191450Z 16002KT CAVOK 04/01 Q1020=
200802191420 METAR ESMX 191420Z 16003KT CAVOK 05/01 Q1020=
200802191350 METAR ESMX 191350Z 16003KT 9999 OVC067 05/02 Q1020=
200802191320 METAR ESMX 191320Z VRB01KT CAVOK 04/01 Q1021=
200802191250 METAR ESMX 191250Z 20003KT 9999 OVC055 04/01 Q1021=
200802191220 METAR ESMX 191220Z 20002KT CAVOK 04/01 Q1021=
200802191150 METAR ESMX 191150Z 21003KT CAVOK 04/01 Q1021=
200802191120 METAR ESMX 191120Z 00000KT CAVOK 04/01 Q1021=
200802191050 METAR ESMX 191050Z 00000KT CAVOK 04/01 Q1021=
200802191020 METAR ESMX 191020Z 00000KT CAVOK 03/01 Q1021=
200802190920 METAR ESMX 190920Z 00000KT CAVOK 02/01 Q1021=
200802190850 METAR ESMX 190850Z 00000KT CAVOK 02/01 Q1021=
200802190820 METAR ESMX 190820Z 00000KT CAVOK 02/01 Q1021=
200802190750 METAR ESMX 190750Z 00000KT CAVOK M01/M01 Q1021=
200802190720 METAR ESMX 190720Z 00000KT CAVOK M02/M03 Q1021=
200802190650 METAR ESMX 190650Z VRB01KT CAVOK M02/M02 Q1021=
200802190620 METAR ESMX 190620Z VRB02KT CAVOK M03/M03 Q1020=
200802190550 METAR ESMX 190550Z VRB02KT CAVOK M02/M03 Q1020=
200802190520 METAR ESMX 190520Z 18002KT CAVOK M02/M02 Q1020=
200802190450 METAR ESMX 190450Z 25002KT CAVOK M03/M03 Q1019=
200802190420 METAR ESMX 190420Z AUTO 20002KT 9999NDV NCD M03/M03 Q1019=
200802190350 METAR ESMX 190350Z AUTO 00000KT 9999NDV NCD M03/M03 Q1018=
200802190320 METAR ESMX 190320Z AUTO 00000KT 9999NDV NCD M03/M03 Q1019=
200802190250 METAR ESMX 190250Z AUTO 00000KT 9999NDV NCD M02/M02 Q1018=
200802190220 METAR ESMX 190220Z AUTO VRB02KT 9999NDV NCD M03/M03 Q1018=
200802190150 METAR ESMX 190150Z AUTO VRB01KT 9999NDV NCD M01/M01 Q1018=
200802190120 METAR ESMX 190120Z AUTO 36003KT 9999NDV NCD M01/M01 Q1018=
200802190050 METAR ESMX 190050Z 35001KT CAVOK M01/M01 Q1018=
200802190020 METAR ESMX 190020Z 32002KT CAVOK M00/M01 Q1018=
200802182350 METAR ESMX 182350Z 29002KT CAVOK 01/00 Q1018=
200802182320 METAR ESMX 182320Z VRB02KT CAVOK 01/M00 Q1017=
200802182250 METAR ESMX 182250Z 28004KT CAVOK 01/00 Q1017=
200802182220 METAR ESMX 182220Z 00000KT CAVOK 01/00 Q1017=
200802182150 METAR ESMX 182150Z 27003KT 240V320 CAVOK 03/02 Q1017=
200802182120 METAR ESMX 182120Z 28005KT CAVOK 04/02 Q1016=
200802182050 METAR ESMX 182050Z 30005KT CAVOK 04/02 Q1016=
200802182020 METAR ESMX 182020Z 30006KT 270V330 CAVOK 04/02 Q1016=
200802181950 METAR ESMX 181950Z 29008KT CAVOK 05/02 Q1016=
200802181920 METAR ESMX 181920Z 29007KT CAVOK 05/02 Q1016=
200802181850 METAR ESMX 181850Z 28007KT 250V320 CAVOK 05/01 Q1016=
200802181820 METAR ESMX 181820Z 27008KT CAVOK 06/01 Q1016=
200802181750 METAR ESMX 181750Z 28005KT CAVOK 06/01 Q1016=
200802181720 METAR ESMX 181720Z 26004KT CAVOK 06/01 Q1016=
200802181650 METAR ESMX 181650Z 27004KT CAVOK 06/01 Q1016=
200802181620 METAR ESMX 181620Z 29005KT CAVOK 07/01 Q1016=
200802181550 METAR ESMX 181550Z 29007KT CAVOK 08/02 Q1016=
200802181520 METAR ESMX 181520Z 29007KT CAVOK 08/02 Q1016=
200802181450 METAR ESMX 181450Z 29008KT CAVOK 09/02 Q1016=
200802181420 METAR ESMX 181420Z 29009KT CAVOK 09/02 Q1016=
200802181350 METAR ESMX 181350Z 26008KT CAVOK 10/02 Q1016=
200802181320 METAR ESMX 181320Z 25008KT 220V280 CAVOK 10/03 Q1016=
200802181250 METAR ESMX 181250Z 25005KT CAVOK 10/02 Q1017=
200802181220 METAR ESMX 181220Z 27007KT CAVOK 10/03 Q1017=
200802181150 METAR ESMX 181150Z 25007KT CAVOK 09/03 Q1017=
200802181120 METAR ESMX 181120Z 25005KT CAVOK 08/03 Q1018=
200802181050 METAR ESMX 181050Z 29005KT CAVOK 08/04 Q1018=
200802181020 METAR ESMX 181020Z 29005KT CAVOK 06/03 Q1018=
200802180950 METAR ESMX 180950Z 29005KT CAVOK 05/03 Q1018=
200802180920 METAR ESMX 180920Z 29004KT 250V310 9999 FEW005 SCT200 04/03 Q1018=
200802180850 METAR ESMX 180850Z 28004KT 250V330 9999 FEW005 BKN100 03/02 Q1018=
200802180820 METAR ESMX 180820Z 29003KT 250V320 9999 1000S R01/1400D R19/P2000U=
200802180750 METAR ESMX 180750Z 27002KT 9999 1000S VCFG FEW005 BKN100 01/01 Q1018=
200802180720 METAR ESMX 180720Z 27003KT 9999 FEW006 BKN100 01/01 Q1018=
200802180650 METAR ESMX 180650Z 27002KT 9999 FEW006 BKN100 01/01 Q1018=
200802180550 METAR ESMX 180550Z 30004KT 6000 BR FEW006 02/01 Q1017=
200802180520 METAR ESMX 180520Z 29004KT 8000 BR SCT005 02/02 Q1017=
200802180450 METAR ESMX 180450Z 30005KT 9000 BR SCT006 03/02 Q1017=
200802180420 METAR ESMX 180420Z AUTO 28005KT 9000NDV BR FEW006/// 03/02 Q1017=
200802180350 METAR ESMX 180350Z AUTO 29004KT 250V330 9000NDV BR BKN005/// BKN008/// 04/03 Q1017=
200802180320 METAR ESMX 180320Z AUTO 28004KT 230V330 9000NDV BR OVC005/// 04/03 Q1017=
200802180250 METAR ESMX 180250Z AUTO 28006KT 250V320 9000NDV BR OVC005/// 04/03 Q1017=
200802180220 METAR ESMX 180220Z AUTO 28004KT 230V350 9000NDV BR OVC005/// 04/03 Q1017=
200802180150 METAR ESMX 180150Z AUTO 24003KT 210V320 8000NDV BR BKN006/// 04/03 Q1017=
200802180120 METAR ESMX 180120Z VRB02KT 8000 BR FEW007 BKN009 03/03 Q1017=
200802180050 METAR ESMX 180050Z 23004KT 9000 SCT008 03/02 Q1017=
200802180020 METAR ESMX 180020Z 24003KT 210V280 9999 FEW010 03/02 Q1017=
200802172350 METAR ESMX 172350Z 26005KT 220V280 9999 FEW013 04/02 Q1017=
200802172320 METAR ESMX 172320Z 26005KT 230V290 9999 FEW012 04/03 Q1017=
200802172250 METAR ESMX 172250Z 25005KT 220V280 9999 SCT012 04/03 Q1017=
200802172220 METAR ESMX 172220Z 24005KT 200V280 9999 FEW014 04/03 Q1017=
200802172150 METAR ESMX 172150Z 26008KT 230V290 9999 FEW016 05/03 Q1017=
200802172120 METAR ESMX 172120Z 27008KT 9999 SCT015 05/03 Q1018=
200802172050 METAR ESMX 172050Z 27009KT 9999 BKN017 05/03 Q1017=
200802172020 METAR ESMX 172020Z 26009KT 9999 FEW015 OVC017 05/03 Q1017=
200802171950 METAR ESMX 171950Z 28007KT 9999 BKN015 05/03 Q1018=
200802171920 METAR ESMX 171920Z 27010KT 9999 OVC016 05/03 Q1017=
200802171850 METAR ESMX 171850Z 27008KT 9999 OVC015 05/03 Q1017=
200802171820 METAR ESMX 171820Z 28010KT 9999 OVC015 05/03 Q1018=
200802171750 METAR ESMX 171750Z 28010KT 250V310 9999 OVC014 05/03 Q1018=
200802171720 METAR ESMX 171720Z 27009KT 9999 OVC014 05/02 Q1018=
200802171650 METAR ESMX 171650Z 28011KT 9999 OVC014 05/02 Q1018=
200802171620 METAR ESMX 171620Z 28009KT 240V300 9999 OVC014 05/02 Q1018=
200802171550 METAR ESMX 171550Z 27009KT 9999 OVC013 05/02 Q1019=
200802171520 METAR ESMX 171520Z 28010KT 9999 OVC013 05/02 Q1019=
200802171450 METAR ESMX 171450Z 27011KT 9999 OVC013 05/02 Q1019=
200802171420 METAR ESMX 171420Z 27009KT 230V300 9999 OVC013 05/02 Q1019=
200802171350 METAR ESMX 171350Z 27012KT 9999 OVC013 05/02 Q1020=
200802171320 METAR ESMX 171320Z 27012KT 230V310 9999 OVC013 05/02 Q1020=
200802171250 METAR ESMX 171250Z 27013KT 9999 OVC013 05/02 Q1020=
200802171220 METAR ESMX 171220Z 27014G24KT 9999 OVC014 05/02 Q1020=
200802171150 METAR ESMX 171150Z 28015KT 9999 OVC014 04/01 Q1021=
200802171120 METAR ESMX 171120Z AUTO 27017G29KT 9999NDV OVC014/// 04/01 Q1021=
200802171050 METAR ESMX 171050Z AUTO 27016KT 250V310 9999NDV OVC014/// 04/01 Q1021=
200802171020 METAR ESMX 171020Z AUTO 27016KT 9999NDV OVC012/// 04/01 Q1022=
200802170950 METAR ESMX 170950Z AUTO 27016KT 9999NDV OVC012/// 03/01 Q1022=
200802170920 METAR ESMX 170920Z AUTO 27014G24KT 230V300 9999NDV OVC011/// 03/01 Q1022=
200802170850 METAR ESMX 170850Z AUTO 26014KT 230V290 9999NDV OVC011/// 03/01 Q1023=
200802170820 METAR ESMX 170820Z AUTO 27020KT 9999NDV OVC011/// 03/01 Q1023=
200802170750 METAR ESMX 170750Z AUTO 27016KT 9999NDV OVC010/// 03/01 Q1024=
200802170720 METAR ESMX 170720Z AUTO 26016KT 9999NDV OVC009/// 03/01 Q1024=
200802170650 METAR ESMX 170650Z AUTO 26010KT 210V290 9999NDV BR OVC009/// 02/01 Q1025=
200802170620 METAR ESMX 170620Z AUTO 26014KT 200V290 9000NDV BR OVC008/// 02/01 Q1025=
200802170550 METAR ESMX 170550Z AUTO 26013KT 8000NDV BR OVC008/// 02/01 Q1025=
200802170520 METAR ESMX 170520Z AUTO 26013KT 230V290 8000NDV BR OVC008/// 02/01 Q1026=
200802170450 METAR ESMX 170450Z AUTO 26014KT 9000NDV OVC008/// 02/00 Q1026=
200802170420 METAR ESMX 170420Z AUTO 26014G26KT 230V290 9999NDV OVC008/// 02/00 Q1026=
200802170350 METAR ESMX 170350Z AUTO 26016KT 220V290 9999NDV OVC008/// 02/00 Q1027=
200802170320 METAR ESMX 170320Z AUTO 25014G25KT 220V290 9999NDV OVC008/// 02/00 Q1027=
200802170250 METAR ESMX 170250Z AUTO 26014KT 230V290 9999NDV FEW007/// OVC008/// 01/00 Q1028 REDZ REUP=
200802170220 METAR ESMX 170220Z AUTO 25014G24KT 6000NDV -DZ BKN007/// OVC009/// 01/00 Q1028 RERA=
200802170150 METAR ESMX 170150Z AUTO 26013KT 230V290 4100NDV RA FEW007/// OVC009/// 01/00 Q1029=
200802170120 METAR ESMX 170120Z AUTO 26016KT 4500NDV RA OVC010/// 01/00 Q1030=
200802170050 METAR ESMX 170050Z AUTO 26015KT 230V290 9999NDV OVC011/// 02/M00 Q1030=
200802170020 METAR ESMX 170020Z AUTO 26016KT 220V290 9000NDV -DZ OVC012/// 02/M00 Q1031 RERA=
200802162350 METAR ESMX 162350Z AUTO 25013KT 9999NDV OVC010/// 02/M00 Q1031 RERA REDZ=
200802162320 METAR ESMX 162320Z AUTO 26012KT 230V290 6000NDV -RA FEW009/// BKN010/// BKN013/// 01/M00 Q1032 REDZ=
200802162250 METAR ESMX 162250Z AUTO 25012KT 220V300 6000NDV -RA OVC010/// 01/M00 Q1032=
200802162220 METAR ESMX 162220Z AUTO 26013KT 230V310 9999NDV OVC010/// 02/M00 Q1033=
200802162150 METAR ESMX 162150Z AUTO 26012KT 9000NDV DZ OVC010/// 02/M00 Q1033 RERA=
200802162120 METAR ESMX 162120Z AUTO 25013KT 220V280 9999NDV OVC010/// 02/M00 Q1033=
200802162050 METAR ESMX 162050Z AUTO 26011KT 9999NDV FEW010/// OVC012/// 02/M00 Q1034 RERA=
200802162020 METAR ESMX 162020Z AUTO 26012KT 9999NDV FEW009/// SCT011/// BKN014/// 01/M00 Q1034=
200802161950 METAR ESMX 161950Z AUTO 25010KT 210V290 9999NDV FEW008/// SCT009/// BKN012/// 01/M01 Q1035=
200802161920 METAR ESMX 161920Z AUTO 24009KT 210V270 9999NDV BKN006/// OVC009/// 00/M01 Q1035=
200802161850 METAR ESMX 161850Z AUTO 23008KT 200V270 9999NDV OVC006/// M00/M01 Q1036=
200802161820 METAR ESMX 161820Z AUTO 22009KT 9999NDV OVC006/// M01/M02 Q1036=
200802161750 METAR ESMX 161750Z AUTO 22009KT 200V260 9999NDV OVC007/// M01/M03 Q1037=
200802161720 METAR ESMX 161720Z AUTO 22010KT 9999NDV FEW009/// OVC010/// M01/M03 Q1037 RESN=
200802161650 METAR ESMX 161650Z AUTO 22010KT 6000NDV -SN OVC012/// M01/M04 Q1038=
200802161620 METAR ESMX 161620Z AUTO 21009KT 9999NDV FEW015/// BKN018/// OVC021/// M01/M05 Q1038=
200802161550 METAR ESMX 161550Z AUTO 22009KT 190V260 9999NDV FEW017/// BKN019/// OVC024/// M01/M06 Q1039=
200802161520 METAR ESMX 161520Z AUTO 22009KT 9999NDV OVC020/// M01/M07 Q1039=
200802161450 METAR ESMX 161450Z AUTO 22008KT 170V240 9999NDV OVC022/// M01/M07 Q1040=
200802161420 METAR ESMX 161420Z AUTO 22008KT 9999NDV OVC024/// M01/M08 Q1040=
200802161350 METAR ESMX 161350Z AUTO 22009KT 9999NDV OVC027/// M01/M08 Q1040=
200802161320 METAR ESMX 161320Z AUTO 22007KT 9999NDV OVC030/// M01/M09 Q1041=
200802161250 METAR ESMX 161250Z AUTO 23007KT 9999NDV OVC030/// M01/M09 Q1041=
200802161220 METAR ESMX 161220Z AUTO 24008KT 210V270 9999NDV SCT032/// OVC044/// M01/M09 Q1042=
200802161150 METAR ESMX 161150Z AUTO 25008KT 210V280 9999NDV OVC041/// M01/M08 Q1042=
200802161120 METAR ESMX 161120Z AUTO 23008KT 190V270 9999NDV FEW041/// M01/M08 Q1042=
200802161050 METAR ESMX 161050Z AUTO 23007KT 200V270 9999NDV NCD M02/M08 Q1043=
200802161020 METAR ESMX 161020Z AUTO 23005KT 9999NDV NCD M02/M08 Q1043=
200802160950 METAR ESMX 160950Z AUTO 23005KT 9999NDV NCD M03/M08 Q1043=
200802160920 METAR ESMX 160920Z AUTO 26003KT 230V290 9999NDV NCD M03/M08 Q1044=
200802160850 METAR ESMX 160850Z AUTO 27002KT 9999NDV NCD M04/M08 Q1044=
200802160820 METAR ESMX 160820Z AUTO 00000KT 9999NDV NCD M06/M08 Q1044=
200802160750 METAR ESMX 160750Z AUTO 27002KT 9999NDV NCD M08/M09 Q1043=
200802160720 METAR ESMX 160720Z AUTO 19001KT 9999NDV NCD M10/M11 Q1043=
200802160650 METAR ESMX 160650Z AUTO 00000KT 9999NDV NCD M10/M11 Q1043=
200802160620 METAR ESMX 160620Z AUTO 00000KT 9999NDV NCD M10/M11 Q1043=
200802160550 METAR ESMX 160550Z AUTO VRB01KT 9999NDV NCD M11/M12 Q1043=
200802160520 METAR ESMX 160520Z AUTO 11002KT 9999NDV NCD M09/M10 Q1043=
200802160450 METAR ESMX 160450Z AUTO 00000KT 9999NDV NCD M10/M11 Q1043=
200802160420 METAR ESMX 160420Z AUTO 00000KT 9999NDV NCD M09/M10 Q1043=
200802160350 METAR ESMX 160350Z AUTO 30002KT 9999NDV NCD M09/M10 Q1043=
200802160320 METAR ESMX 160320Z AUTO 00000KT 9999NDV NCD M08/M10 Q1043=
200802160250 METAR ESMX 160250Z AUTO 29003KT 9999NDV NCD M08/M10 Q1043=
200802160220 METAR ESMX 160220Z AUTO 28003KT 230V300 9999NDV NCD M08/M10 Q1042=
200802160150 METAR ESMX 160150Z AUTO VRB02KT 9999NDV NCD M08/M10 Q1042=
200802160120 METAR ESMX 160120Z AUTO 31003KT 9999NDV NCD M07/M10 Q1042=
200802160050 METAR ESMX 160050Z AUTO VRB02KT 9999NDV NCD M07/M09 Q1042=
200802160020 METAR ESMX 160020Z AUTO 30003KT 9999NDV NCD M07/M09 Q1042=
200802152350 METAR ESMX 152350Z AUTO 34006KT 9999NDV NCD M06/M09 Q1042=
200802152320 METAR ESMX 152320Z AUTO 35005KT 9999NDV NCD M06/M09 Q1042=
200802152250 METAR ESMX 152250Z AUTO 32004KT 9999NDV NCD M06/M09 Q1041=
200802152220 METAR ESMX 152220Z AUTO 34007KT 9999NDV NCD M05/M09 Q1041=
200802152150 METAR ESMX 152150Z AUTO 36008KT 9999NDV NCD M05/M09 Q1041=
200802152120 METAR ESMX 152120Z AUTO 36008KT 9999NDV NCD M04/M09 Q1041=
200802152050 METAR ESMX 152050Z AUTO 35009KT 9999NDV NCD M04/M09 Q1041=
200802152020 METAR ESMX 152020Z AUTO 34009KT 9999NDV NCD M04/M09 Q1040=
200802151950 METAR ESMX 151950Z AUTO 34009KT 9999NDV NCD M04/M09 Q1040=
200802151920 METAR ESMX 151920Z 34009KT CAVOK M04/M10 Q1040=
200802151850 METAR ESMX 151850Z 35010KT 300V010 CAVOK M04/M10 Q1040=
200802151820 METAR ESMX 151820Z 34009KT CAVOK M03/M10 Q1040=
200802151750 METAR ESMX 151750Z 34010KT 9999 NSC M03/M10 Q1040=
200802151720 METAR ESMX 151720Z 34008KT CAVOK M04/M11 Q1039=
200802151650 METAR ESMX 151650Z 34007KT CAVOK M03/M11 Q1039=
200802151620 METAR ESMX 151620Z 35009KT CAVOK M03/M11 Q1039=
200802151550 METAR ESMX 151550Z 34011KT CAVOK M02/M12 Q1039=
200802151520 METAR ESMX 151520Z 34012KT CAVOK M02/M12 Q1039=
200802151450 METAR ESMX 151450Z 34011KT CAVOK M01/M12 Q1039=
200802151420 METAR ESMX 151420Z 34012KT 300V010 CAVOK M01/M12 Q1039=
200802151350 METAR ESMX 151350Z 34012KT CAVOK M00/M12 Q1039=
200802151320 METAR ESMX 151320Z 32011KT 290V360 CAVOK M00/M12 Q1039=
200802151250 METAR ESMX 151250Z 33010KT 290V020 CAVOK M00/M12 Q1039=
200802151220 METAR ESMX 151220Z 34012KT CAVOK M00/M15 Q1039=
200802151150 METAR ESMX 151150Z 34011KT 300V010 CAVOK M01/M14 Q1039=
200802151120 METAR ESMX 151120Z 34010KT CAVOK M01/M13 Q1039=
200802151050 METAR ESMX 151050Z 34011KT CAVOK M01/M13 Q1039=
200802151020 METAR ESMX 151020Z 36012KT CAVOK M02/M13 Q1039=
200802150950 METAR ESMX 150950Z 35011KT CAVOK M02/M12 Q1039=
200802150920 METAR ESMX 150920Z 36013KT CAVOK M02/M11 Q1039=
200802150850 METAR ESMX 150850Z 35012KT CAVOK M03/M11 Q1039=
200802150820 METAR ESMX 150820Z 35012KT CAVOK M04/M10 Q1039=
200802150750 METAR ESMX 150750Z 35011KT CAVOK M04/M09 Q1039=
200802150720 METAR ESMX 150720Z 36009KT CAVOK M05/M09 Q1039=
200802150650 METAR ESMX 150650Z 36010KT CAVOK M05/M09 Q1038=
200802150620 METAR ESMX 150620Z 35009KT CAVOK M05/M09 Q1038=
200802150550 METAR ESMX 150550Z 36009KT CAVOK M05/M09 Q1038=
200802150520 METAR ESMX 150520Z 36009KT CAVOK M04/M10 Q1038=
200802150450 METAR ESMX 150450Z 36010KT CAVOK M04/M10 Q1037=
200802150420 METAR ESMX 150420Z AUTO 36010KT 9999NDV NCD M04/M09 Q1037=
200802150350 METAR ESMX 150350Z AUTO 35010KT 9999NDV NCD M04/M09 Q1037=
200802150320 METAR ESMX 150320Z AUTO 34007KT 9999NDV NCD M04/M09 Q1037=
200802150250 METAR ESMX 150250Z AUTO 35008KT 9999NDV NCD M04/M09 Q1037=
200802150220 METAR ESMX 150220Z AUTO 36010KT 9999NDV NCD M03/M09 Q1037=
200802150150 METAR ESMX 150150Z AUTO 01011KT 9999NDV NCD M03/M08 Q1037=
200802150120 METAR ESMX 150120Z AUTO 35014KT 9999NDV NCD M03/M08 Q1036=
200802150050 METAR ESMX 150050Z AUTO 33006KT 9999NDV NCD M04/M07 Q1036=
200802150020 METAR ESMX 150020Z 33006KT 300V360 CAVOK M04/M07 Q1036=
200802142350 METAR ESMX 142350Z 32006KT CAVOK M04/M07 Q1036=
200802142320 METAR ESMX 142320Z 31005KT CAVOK M04/M07 Q1035=
200802142250 METAR ESMX 142250Z 31007KT CAVOK M03/M07 Q1035=
200802142220 METAR ESMX 142220Z 30007KT CAVOK M03/M07 Q1035=
200802142150 METAR ESMX 142150Z 31007KT 9999 FEW047 M03/M07 Q1035=
200802142120 METAR ESMX 142120Z 31007KT 280V340 CAVOK M03/M07 Q1035=
200802142050 METAR ESMX 142050Z 30007KT CAVOK M02/M07 Q1035=
200802142020 METAR ESMX 142020Z 31006KT CAVOK M02/M07 Q1035=
200802141950 METAR ESMX 141950Z 31005KT CAVOK M02/M08 Q1035=
200802141920 METAR ESMX 141920Z 32007KT CAVOK M01/M08 Q1035=
200802141850 METAR ESMX 141850Z 32007KT CAVOK M01/M08 Q1035=
200802141820 METAR ESMX 141820Z 32006KT CAVOK M01/M07 Q1035=
200802141750 METAR ESMX 141750Z 32006KT CAVOK M01/M08 Q1035=
200802141720 METAR ESMX 141720Z 33007KT CAVOK M01/M08 Q1035=
200802141650 METAR ESMX 141650Z 33007KT CAVOK M02/M08 Q1035=
200802141620 METAR ESMX 141620Z 33008KT CAVOK M01/M08 Q1034=
200802141550 METAR ESMX 141550Z 34009KT CAVOK M00/M08 Q1034=
200802141520 METAR ESMX 141520Z 34011KT CAVOK 01/M08 Q1034=
200802141450 METAR ESMX 141450Z 33012KT CAVOK 01/M08 Q1034=
200802141420 METAR ESMX 141420Z 33010KT 9999 SCT046 02/M08 Q1034=
200802141350 METAR ESMX 141350Z 35014KT 9999 SCT046 01/M08 Q1034=
200802141320 METAR ESMX 141320Z 33013KT 300V360 9999 SCT046 02/M08 Q1035=
200802141250 METAR ESMX 141250Z 33011KT 290V360 9999 SCT045 02/M08 Q1035=
200802141220 METAR ESMX 141220Z 35013KT 300V010 9999 FEW040 02/M08 Q1035=
200802141150 METAR ESMX 141150Z 34010KT CAVOK 02/M07 Q1035=
200802141120 METAR ESMX 141120Z 35010KT 320V020 CAVOK 02/M06 Q1036=
200802141050 METAR ESMX 141050Z 34010KT 300V010 CAVOK 01/M06 Q1036=
200802141020 METAR ESMX 141020Z 35009KT 320V020 CAVOK 01/M06 Q1036=
200802140950 METAR ESMX 140950Z 34009KT CAVOK 00/M05 Q1036=
200802140920 METAR ESMX 140920Z 34009KT CAVOK M00/M05 Q1036=
200802140850 METAR ESMX 140850Z 34009KT 310V020 CAVOK M01/M06 Q1036=
200802140820 METAR ESMX 140820Z 34008KT CAVOK M02/M06 Q1037=
200802140750 METAR ESMX 140750Z 34007KT CAVOK M03/M06 Q1037=
200802140720 METAR ESMX 140720Z 33006KT 290V010 CAVOK M04/M07 Q1036=
200802140650 METAR ESMX 140650Z 33007KT CAVOK M04/M07 Q1036=
200802140620 METAR ESMX 140620Z 33006KT CAVOK M04/M07 Q1036=
200802140550 METAR ESMX 140550Z 32006KT CAVOK M04/M06 Q1036=
200802140520 METAR ESMX 140520Z 32006KT CAVOK M04/M06 Q1036=
200802140450 METAR ESMX 140450Z 33005KT 300V360 CAVOK M04/M07 Q1036=
200802140420 METAR ESMX 140420Z AUTO 33006KT 9999NDV NCD M03/M07 Q1036=
200802140350 METAR ESMX 140350Z AUTO 34006KT 9999NDV NCD M04/M07 Q1036=
200802140320 METAR ESMX 140320Z AUTO 35006KT 9999NDV NCD M03/M06 Q1036=
200802140250 METAR ESMX 140250Z AUTO 35007KT 9999NDV NCD M03/M06 Q1036=
200802140220 METAR ESMX 140220Z AUTO 36007KT 9999NDV NCD M03/M05 Q1036=
200802140150 METAR ESMX 140150Z AUTO 01006KT 9999NDV NCD M03/M05 Q1036=
200802140120 METAR ESMX 140120Z AUTO 02007KT 9999NDV NCD M01/M05 Q1036=
200802140050 METAR ESMX 140050Z 36007KT CAVOK M02/M04 Q1036=
200802140020 METAR ESMX 140020Z 01007KT CAVOK M02/M03 Q1036=
200802132320 METAR ESMX 132320Z 01006KT CAVOK M02/M03 Q1035=
200802132250 METAR ESMX 132250Z 36005KT CAVOK M01/M02 Q1035=
200802132220 METAR ESMX 132220Z 02006KT CAVOK M01/M01 Q1034=
200802132150 METAR ESMX 132150Z 01007KT CAVOK M01/M01 Q1034=
200802132120 METAR ESMX 132120Z 36007KT 9000 BR NSC M01/M01 Q1034=
200802132050 METAR ESMX 132050Z 35006KT 9000 BR NSC M01/M02 Q1033=
200802132020 METAR ESMX 132020Z 33004KT 8000 BR NSC M01/M01 Q1033=
200802131950 METAR ESMX 131950Z 32005KT 8000 BR FEW006 M01/M01 Q1033=
200802131920 METAR ESMX 131920Z 34002KT 8000 BR NSC M01/M01 Q1033=
200802131850 METAR ESMX 131850Z 32004KT 7000 BR NSC M00/M01 Q1032=
200802131750 METAR ESMX 131750Z 30004KT 8000 BR NSC 01/00 Q1032=
200802131720 METAR ESMX 131720Z 28004KT CAVOK 01/00 Q1032=
200802131650 METAR ESMX 131650Z 29003KT 250V320 CAVOK 02/01 Q1032=
200802131620 METAR ESMX 131620Z 32003KT 300V070 CAVOK 02/01 Q1032=
200802131550 METAR ESMX 131550Z 31004KT CAVOK 02/01 Q1032=
200802131520 METAR ESMX 131520Z 29005KT 260V320 CAVOK 04/01 Q1031=
200802131450 METAR ESMX 131450Z 28006KT 9999 FEW013 04/02 Q1031=
200802131420 METAR ESMX 131420Z 29007KT 9999 FEW014 05/02 Q1031=
200802131350 METAR ESMX 131350Z 28006KT 250V320 9999 SCT014 04/01 Q1031=
200802131320 METAR ESMX 131320Z 30007KT 9999 BKN014 05/02 Q1031=
200802131250 METAR ESMX 131250Z 32008KT 290V350 9999 BKN013 05/01 Q1031=
200802131220 METAR ESMX 131220Z 31007KT 9999 BKN012 04/01 Q1031=
200802131150 METAR ESMX 131150Z 28006KT 9999 BKN012 04/01 Q1031=
200802131120 METAR ESMX 131120Z 29007KT 260V330 9999 OVC012 04/01 Q1031=
200802131050 METAR ESMX 131050Z 30008KT 9999 OVC012 04/01 Q1031=
200802131020 METAR ESMX 131020Z 30008KT 280V340 9999 OVC011 04/01 Q1031=
200802130950 METAR ESMX 130950Z 30008KT 290V350 9999 OVC011 04/01 Q1031=
200802130920 METAR ESMX 130920Z 31007KT 280V340 9999 OVC010 03/01 Q1031=
200802130850 METAR ESMX 130850Z 33008KT 9999 OVC010 03/01 Q1031=
200802130820 METAR ESMX 130820Z 31008KT 270V340 9999 OVC010 03/01 Q1031=
200802130750 METAR ESMX 130750Z 29006KT 260V330 9999 OVC010 03/01 Q1031=
200802130720 METAR ESMX 130720Z 31008KT 9999 OVC010 03/01 Q1031=
200802130650 METAR ESMX 130650Z 29007KT 260V340 9999 OVC010 03/01 Q1031=
200802130620 METAR ESMX 130620Z 30009KT 260V330 9999 OVC009 03/01 Q1031=
200802130550 METAR ESMX 130550Z 30009KT 270V340 9999 OVC010 03/01 Q1031=
200802130520 METAR ESMX 130520Z 28008KT 250V320 9999 OVC008 02/01 Q1031=
200802130450 METAR ESMX 130450Z 29008KT 9999 OVC008 02/01 Q1031=
200802130420 METAR ESMX 130420Z 29009KT 9999 OVC007 02/01 Q1031=
200802130350 METAR ESMX 130350Z AUTO 29011KT 9999NDV OVC008/// 02/01 Q1031=
200802130320 METAR ESMX 130320Z AUTO 29009KT 250V320 9000NDV OVC007/// 02/01 Q1031=
200802130250 METAR ESMX 130250Z AUTO 28008KT 240V300 9999NDV OVC006/// 02/01 Q1031=
200802130220 METAR ESMX 130220Z AUTO 27007KT 210V300 9999NDV OVC006/// 02/01 Q1032=
200802130150 METAR ESMX 130150Z AUTO 27008KT 9999NDV OVC006/// 02/01 Q1032=
200802130120 METAR ESMX 130120Z AUTO 26008KT 240V300 9999NDV OVC007/// 02/01 Q1033=
200802130050 METAR ESMX 130050Z 26007KT 230V290 9999 OVC008 02/00 Q1033=
200802130020 METAR ESMX 130020Z 26008KT 210V290 9999 OVC008 02/00 Q1033=
200802122350 METAR ESMX 122350Z 27009KT 230V300 9999 OVC007 02/00 Q1033=
200802122320 METAR ESMX 122320Z 26008KT 230V290 9999 OVC007 02/00 Q1033=
200802122250 METAR ESMX 122250Z 27010KT 9999 OVC008 02/00 Q1033=
200802122220 METAR ESMX 122220Z 26009KT 210V310 9999 OVC008 02/00 Q1034=
200802122150 METAR ESMX 122150Z 24009KT 220V290 9999 OVC008 02/00 Q1034=
200802122120 METAR ESMX 122120Z 25007KT 9999 OVC008 01/M00 Q1034=
200802122050 METAR ESMX 122050Z 26008KT 240V300 9999 OVC008 01/M00 Q1034=
200802122020 METAR ESMX 122020Z 26007KT 230V290 9999 OVC008 01/M00 Q1034=
200802121950 METAR ESMX 121950Z 24007KT 210V270 9999 OVC008 01/M00 Q1035=
200802121920 METAR ESMX 121920Z 25007KT 9999 OVC008 01/M00 Q1035=
200802121850 METAR ESMX 121850Z 26008KT 9999 OVC009 01/M00 Q1035=
200802121820 METAR ESMX 121820Z 25008KT 220V290 9999 OVC010 01/M01 Q1036=
200802121750 METAR ESMX 121750Z 26008KT 230V290 9999 OVC011 01/M01 Q1036=
200802121720 METAR ESMX 121720Z 25008KT 200V280 9999 OVC012 02/M01 Q1036=
200802121650 METAR ESMX 121650Z 26005KT 9999 OVC013 02/M01 Q1036=
200802121620 METAR ESMX 121620Z 24005KT 9999 OVC013 02/M01 Q1036=
200802121550 METAR ESMX 121550Z 25006KT 210V300 9999 OVC013 02/M01 Q1036=
200802121520 METAR ESMX 121520Z 24006KT 200V270 9999 OVC013 02/M01 Q1037=
200802121450 METAR ESMX 121450Z 23005KT 200V280 9999 OVC013 02/M01 Q1037=
200802121420 METAR ESMX 121420Z 25005KT 210V280 9999 OVC012 02/M01 Q1037=
200802121350 METAR ESMX 121350Z 26007KT 220V300 9999 OVC012 02/M00 Q1037=
200802121320 METAR ESMX 121320Z 26005KT 9999 OVC012 02/M00 Q1037=
200802121250 METAR ESMX 121250Z 25005KT 220V290 9999 OVC012 02/M00 Q1038=
200802121220 METAR ESMX 121220Z 23004KT 190V260 9999 OVC013 02/M00 Q1038=
200802121150 METAR ESMX 121150Z 25004KT 210V290 9999 OVC013 02/00 Q1038=
200802121120 METAR ESMX 121120Z 26003KT 220V290 9999 OVC014 02/00 Q1038=
200802121050 METAR ESMX 121050Z 24003KT 9999 OVC016 02/00 Q1038=
200802121020 METAR ESMX 121020Z 23003KT 9999 OVC016 02/00 Q1038=
200802120950 METAR ESMX 120950Z 24003KT 9999 OVC016 01/00 Q1038=
200802120920 METAR ESMX 120920Z 22002KT 9999 OVC016 01/00 Q1038=
200802120850 METAR ESMX 120850Z 24002KT 9999 OVC017 01/00 Q1039=
200802120820 METAR ESMX 120820Z 26002KT 9999 OVC017 00/M00 Q1039=
200802120750 METAR ESMX 120750Z 24002KT 9999 OVC018 00/M00 Q1039=
200802120720 METAR ESMX 120720Z 23002KT 9999 OVC019 00/M01 Q1038=
200802120650 METAR ESMX 120650Z 00000KT 9999 OVC019 M00/M01 Q1038=
200802120620 METAR ESMX 120620Z 24002KT 9999 OVC020 M00/M01 Q1038=
200802120550 METAR ESMX 120550Z 23002KT 9999 OVC021 M00/M01 Q1038=
200802120520 METAR ESMX 120520Z 19003KT 9999 OVC022 M01/M01 Q1038=
200802120450 METAR ESMX 120450Z 00000KT 9999 BKN025 M01/M01 Q1038=
200802120420 METAR ESMX 120420Z AUTO 16002KT 9999NDV OVC024/// M01/M02 Q1038=
200802120350 METAR ESMX 120350Z AUTO 19002KT 9999NDV OVC024/// M02/M02 Q1038=
200802120320 METAR ESMX 120320Z AUTO 17001KT 9999NDV BKN025/// M02/M02 Q1038=
200802120250 METAR ESMX 120250Z AUTO 17001KT 9999NDV OVC025/// M02/M03 Q1039=
200802120220 METAR ESMX 120220Z AUTO 00000KT 9999NDV BKN025/// M03/M03 Q1038=
200802120150 METAR ESMX 120150Z AUTO 00000KT 9999NDV BKN025/// M03/M03 Q1039=
200802120120 METAR ESMX 120120Z AUTO 00000KT 9999NDV BKN025/// M03/M03 Q1038=
200802120050 METAR ESMX 120050Z AUTO 18001KT 9999NDV BKN026/// M03/M03 Q1038=
200802120020 METAR ESMX 120020Z 00000KT 9999 BKN025 M03/M04 Q1039=
200802112320 METAR ESMX 112320Z 18002KT 9999 BKN026 M03/M03 Q1039=
200802112250 METAR ESMX 112250Z 00000KT 9999 SCT027 M03/M03 Q1039=
200802112220 METAR ESMX 112220Z 00000KT 9999 FEW027 M03/M03 Q1039=
200802112150 METAR ESMX 112150Z 00000KT CAVOK M03/M03 Q1039=
200802112120 METAR ESMX 112120Z 00000KT CAVOK M03/M03 Q1039=
200802112050 METAR ESMX 112050Z 00000KT CAVOK M02/M02 Q1039=
200802112020 METAR ESMX 112020Z 00000KT 9999 FEW025 M01/M02 Q1039=
200802111920 METAR ESMX 111920Z 00000KT 9999 BKN026 01/M01 Q1039=
200802111850 METAR ESMX 111850Z 00000KT 9999 BKN026 02/M00 Q1039=
200802111820 METAR ESMX 111820Z 35002KT 9999 OVC026 03/M00 Q1038=
200802111750 METAR ESMX 111750Z VRB02KT 9999 OVC026 03/M00 Q1038=
200802111720 METAR ESMX 111720Z 04003KT 9999 OVC025 03/00 Q1038=
200802111650 METAR ESMX 111650Z VRB02KT 9999 OVC026 03/00 Q1038=
200802111620 METAR ESMX 111620Z VRB01KT 9999 BKN026 04/M00 Q1038=
200802111550 METAR ESMX 111550Z 08001KT 9999 BKN025 04/M00 Q1038=
200802111520 METAR ESMX 111520Z 06003KT 360V120 9999 BKN024 05/M00 Q1038=
200802111450 METAR ESMX 111450Z VRB01KT 9999 SCT025 06/M00 Q1038=
200802111420 METAR ESMX 111420Z 10003KT 060V150 9999 SCT024 06/00 Q1037=
200802111350 METAR ESMX 111350Z VRB02KT 9999 FEW024 06/00 Q1037=
200802111320 METAR ESMX 111320Z 36005KT 9999 BKN022 05/00 Q1037=
200802111250 METAR ESMX 111250Z 08005KT 9999 SCT023 06/00 Q1037=
200802111220 METAR ESMX 111220Z 03005KT 9999 SCT023 05/01 Q1037=
200802111150 METAR ESMX 111150Z 02003KT 330V080 9999 FEW013 05/01 Q1037=
200802111120 METAR ESMX 111120Z 36004KT 9999 FEW012 05/01 Q1037=
200802111050 METAR ESMX 111050Z 02004KT 340V070 9999 FEW010 04/01 Q1037=
200802111020 METAR ESMX 111020Z 36005KT CAVOK 04/01 Q1037=
200802110950 METAR ESMX 110950Z 36005KT CAVOK 03/01 Q1037=
200802110920 METAR ESMX 110920Z 01006KT CAVOK 03/01 Q1037=
200802110850 METAR ESMX 110850Z 36003KT CAVOK 02/01 Q1037=
200802110820 METAR ESMX 110820Z 01003KT CAVOK 01/01 Q1037=
200802110750 METAR ESMX 110750Z 01003KT CAVOK 00/00 Q1036=
200802110720 METAR ESMX 110720Z 01002KT CAVOK M01/M01 Q1036=
200802110650 METAR ESMX 110650Z 36001KT CAVOK M01/M01 Q1036=
200802110620 METAR ESMX 110620Z 03003KT 8000 BR NSC 01/00 Q1036=
200802110550 METAR ESMX 110550Z 36003KT 8000 BR NSC 01/00 Q1036=
200802110520 METAR ESMX 110520Z 01003KT 9999 SCT011 01/01 Q1036=
200802110450 METAR ESMX 110450Z 01004KT 9999 FEW007 SCT010 BKN026 03/02 Q1035=
200802110420 METAR ESMX 110420Z 01005KT 9999 FEW010 OVC024 03/02 Q1035=
200802110350 METAR ESMX 110350Z AUTO 01003KT 9999NDV OVC020/// 03/02 Q1035=
200802110320 METAR ESMX 110320Z AUTO 02004KT 9999NDV BKN014/// OVC022/// 04/03 Q1035=
200802110250 METAR ESMX 110250Z AUTO 02004KT 9999NDV OVC013/// 04/03 Q1035=
200802110220 METAR ESMX 110220Z AUTO 03003KT 350V050 9999NDV BR OVC014/// 04/03 Q1034=
200802110150 METAR ESMX 110150Z AUTO 03005KT 9000NDV BR OVC015/// 04/03 Q1034=
200802110120 METAR ESMX 110120Z 02003KT 7000 BR SCT005 OVC015 04/03 Q1034=
200802110050 METAR ESMX 110050Z 36003KT 5000 BR SCT005 OVC014 04/04 Q1034=
200802110020 METAR ESMX 110020Z 03003KT 5000 FEW007 OVC014 04/04 Q1034=
200802102350 METAR ESMX 102350Z 03004KT 2800 FEW002 SCT003 BKN004 04/04 Q1034=
200802102320 METAR ESMX 102320Z 03004KT 2000 BKN001 OVC004 04/04 Q1034=
200802102250 METAR ESMX 102250Z 01002KT 1500 BR OVC002 04/04 Q1033=
200802102220 METAR ESMX 102220Z 00000KT 2100 BR OVC004 04/04 Q1033=
200802102150 METAR ESMX 102150Z 00000KT 2500 BR SCT005 OVC013 04/04 Q1033=
200802102120 METAR ESMX 102120Z 00000KT 3000 BR FEW010 OVC013 04/04 Q1033=
200802102050 METAR ESMX 102050Z 00000KT 3100 BR FEW007 OVC012 05/04 Q1033=
200802102020 METAR ESMX 102020Z VRB02KT 3500 BR SCT007 BKN010 OVC013 05/04 Q1033=
200802101950 METAR ESMX 101950Z 28001KT 3300 BR FEW008 SCT009 OVC011 05/04 Q1033=
200802101920 METAR ESMX 101920Z VRB02KT 2900 BR FEW007 SCT009 OVC011 05/04 Q1032=
200802101850 METAR ESMX 101850Z 26001KT 3000 BR FEW003 OVC008 05/04 Q1032=
200802101820 METAR ESMX 101820Z 25002KT 3300 BR OVC010 05/04 Q1032=
200802101750 METAR ESMX 101750Z 24002KT 4000 BR FEW008 OVC011 05/04 Q1032=
200802101720 METAR ESMX 101720Z VRB01KT 4000 BR BKN006 OVC009 05/04 Q1032=
200802101650 METAR ESMX 101650Z 27002KT 4100 BR BKN006 OVC009 05/04 Q1032=
200802101620 METAR ESMX 101620Z VRB02KT 4400 BR SCT003 BKN006 OVC007 05/04 Q1031=
200802101550 METAR ESMX 101550Z 30003KT 4600 BR OVC004 05/04 Q1031=
200802101520 METAR ESMX 101520Z 30003KT 250V330 5000 BR OVC004 05/04 Q1031=
200802101450 METAR ESMX 101450Z 28005KT 5000 BR OVC004 05/04 Q1031=
200802101420 METAR ESMX 101420Z 29005KT 7000 BR OVC005 05/04 Q1031=
200802101350 METAR ESMX 101350Z 28006KT 8000 BR OVC005 05/04 Q1031=
200802101320 METAR ESMX 101320Z 29007KT 8000 BR OVC006 05/04 Q1030=
200802101250 METAR ESMX 101250Z 29007KT 250V330 8000 BR OVC006 06/04 Q1030=
200802101220 METAR ESMX 101220Z 30005KT 260V330 9999 OVC006 06/04 Q1030=
200802101150 METAR ESMX 101150Z 27005KT 9999 OVC006 05/04 Q1030=
200802101120 METAR ESMX 101120Z AUTO 28005KT 9000NDV HZ OVC005/// 05/04 Q1030=
200802101050 METAR ESMX 101050Z AUTO 29005KT 8000NDV HZ OVC005/// 05/04 Q1030=
200802101020 METAR ESMX 101020Z AUTO 28005KT 8000NDV BR OVC005/// 05/03 Q1030=
200802100950 METAR ESMX 100950Z AUTO 29004KT 250V330 8000NDV BR OVC005/// 04/03 Q1030=
200802100920 METAR ESMX 100920Z AUTO 29003KT 250V320 8000NDV BR OVC005/// 04/03 Q1030=
200802100850 METAR ESMX 100850Z AUTO 28005KT 9000NDV HZ OVC005/// 04/03 Q1030=
200802100820 METAR ESMX 100820Z AUTO 26007KT 8000NDV HZ OVC005/// 04/03 Q1030=
200802100750 METAR ESMX 100750Z AUTO 26004KT 210V290 9999NDV HZ OVC006/// 04/03 Q1030=
200802100720 METAR ESMX 100720Z AUTO 25004KT 9999NDV OVC007/// 04/02 Q1030=
200802100650 METAR ESMX 100650Z AUTO 23004KT 9999NDV OVC008/// 04/02 Q1030=
200802100620 METAR ESMX 100620Z AUTO 25003KT 220V290 9999NDV OVC009/// 04/01 Q1030=
200802100550 METAR ESMX 100550Z AUTO 25003KT 9999NDV OVC010/// 04/01 Q1030=
200802100520 METAR ESMX 100520Z AUTO 25003KT 9999NDV OVC011/// 04/01 Q1030=
200802100450 METAR ESMX 100450Z AUTO 25003KT 220V280 9999NDV OVC012/// 04/01 Q1030=
200802100420 METAR ESMX 100420Z AUTO 00000KT 9999NDV OVC012/// 04/00 Q1030=
200802100350 METAR ESMX 100350Z AUTO VRB02KT 9999NDV BKN016/// 04/M00 Q1030=
200802100320 METAR ESMX 100320Z AUTO 25004KT 9999NDV NCD 04/M00 Q1030=
200802100250 METAR ESMX 100250Z AUTO 25004KT 210V320 9999NDV NCD 04/M01 Q1030=
200802100220 METAR ESMX 100220Z AUTO 23005KT 9999NDV NCD 04/M01 Q1030=
200802100150 METAR ESMX 100150Z AUTO 23007KT 9999NDV NCD 05/M01 Q1030=
200802100120 METAR ESMX 100120Z AUTO 22005KT 9999NDV NCD 04/M01 Q1030=
200802100050 METAR ESMX 100050Z AUTO 22007KT 9999NDV NCD 05/M00 Q1030=
200802100020 METAR ESMX 100020Z AUTO 22008KT 9999NDV NCD 06/M00 Q1030=
200802092350 METAR ESMX 092350Z AUTO 21008KT 9999NDV SCT099/// 06/00 Q1030=
200802092320 METAR ESMX 092320Z AUTO 22008KT 9999NDV FEW095/// 06/00 Q1031=
200802092250 METAR ESMX 092250Z AUTO 22011KT 9999NDV FEW058/// 06/00 Q1031=
200802092220 METAR ESMX 092220Z AUTO 21010KT 9999NDV NCD 06/01 Q1031=
200802092150 METAR ESMX 092150Z AUTO 21009KT 9999NDV FEW110/// 06/02 Q1031=
200802092120 METAR ESMX 092120Z AUTO 22009KT 9999NDV NCD 07/02 Q1031=
200802092050 METAR ESMX 092050Z AUTO 23010KT 9999NDV FEW100/// 07/02 Q1031=
200802092020 METAR ESMX 092020Z AUTO 22010KT 9999NDV FEW100/// 06/02 Q1031=
200802091950 METAR ESMX 091950Z AUTO 21008KT 9999NDV FEW091/// 05/02 Q1031=
200802091920 METAR ESMX 091920Z AUTO 20006KT 9999NDV SCT085/// 05/02 Q1031=
200802091850 METAR ESMX 091850Z AUTO 17005KT 9999NDV FEW082/// 06/02 Q1031=
200802091820 METAR ESMX 091820Z AUTO 22004KT 9999NDV FEW100/// 05/01 Q1032=
200802091750 METAR ESMX 091750Z AUTO 22003KT 9999NDV FEW110/// 03/01 Q1032=
200802091720 METAR ESMX 091720Z AUTO 15002KT 9999NDV FEW110/// 03/02 Q1032=
200802091650 METAR ESMX 091650Z AUTO 17002KT 9999NDV BKN110/// 04/02 Q1032=
200802091620 METAR ESMX 091620Z AUTO 20003KT 9999NDV NCD 05/01 Q1032=
200802091550 METAR ESMX 091550Z AUTO 19003KT 9999NDV NCD 05/01 Q1032=
200802091520 METAR ESMX 091520Z AUTO 22004KT 190V250 9999NDV NCD 06/01 Q1032=
200802091450 METAR ESMX 091450Z AUTO 23007KT 9999NDV NCD 06/01 Q1032=
200802091420 METAR ESMX 091420Z AUTO 22009KT 9999NDV NCD 06/02 Q1032=
200802091350 METAR ESMX 091350Z AUTO 20006KT 9999NDV NCD 07/03 Q1032=
200802091320 METAR ESMX 091320Z AUTO 21005KT 170V240 9999NDV NCD 07/03 Q1032=
200802091250 METAR ESMX 091250Z AUTO 21005KT 9999NDV NCD 07/03 Q1032=
200802091220 METAR ESMX 091220Z AUTO 22006KT 9999NDV NCD 06/03 Q1032=
200802091150 METAR ESMX 091150Z AUTO 21006KT 9999NDV NCD 06/03 Q1032=
200802091120 METAR ESMX 091120Z AUTO 21007KT 9999NDV BR NCD 05/03 Q1033=
200802091050 METAR ESMX 091050Z AUTO 22006KT 9000NDV BR NCD 05/03 Q1033=
200802091020 METAR ESMX 091020Z AUTO 22007KT 7000NDV BR NCD 04/03 Q1033=
200802090950 METAR ESMX 090950Z AUTO 22008KT 6000NDV BR NCD 04/03 Q1033=
200802090920 METAR ESMX 090920Z AUTO 21007KT 5000NDV BR NCD 04/03 Q1033=
200802090850 METAR ESMX 090850Z AUTO 22006KT 4400NDV BR NCD 03/03 Q1033=
200802090820 METAR ESMX 090820Z AUTO 20008KT 3800NDV BR NCD 02/02 Q1033=
200802090750 METAR ESMX 090750Z AUTO 20006KT 2800NDV BR NCD 02/02 Q1033=
200802090720 METAR ESMX 090720Z AUTO 20007KT 2400NDV BR NCD 01/01 Q1032=
200802090650 METAR ESMX 090650Z AUTO 20006KT 3100NDV BR NCD 01/01 Q1033=
200802090620 METAR ESMX 090620Z AUTO 20004KT 2500NDV BR SCT002/// 01/01 Q1033=
200802090550 METAR ESMX 090550Z AUTO 18006KT 2500NDV BR SCT002/// 02/02 Q1032=
200802090520 METAR ESMX 090520Z AUTO 19006KT 2500NDV BR BKN001/// 03/02 Q1032=
200802090450 METAR ESMX 090450Z AUTO 19006KT 2200NDV BR OVC001/// 03/03 Q1033=
200802090420 METAR ESMX 090420Z AUTO 20004KT 1600NDV BR OVC001/// 03/03 Q1033=
200802090350 METAR ESMX 090350Z AUTO 18004KT 2100NDV BR OVC001/// 03/03 Q1033=
200802090320 METAR ESMX 090320Z AUTO 20005KT 2100NDV BR OVC001/// 03/03 Q1033=
200802090250 METAR ESMX 090250Z AUTO 20004KT 160V230 2700NDV BR OVC001/// 04/03 Q1033=
200802090220 METAR ESMX 090220Z AUTO 21005KT 3900NDV BR OVC001/// 04/03 Q1033=
200802090150 METAR ESMX 090150Z AUTO 21005KT 6000NDV OVC001/// 04/04 Q1033=
200802090120 METAR ESMX 090120Z AUTO 22007KT 1700NDV VV002 05/04 Q1033=
200802090050 METAR ESMX 090050Z AUTO 21008KT 0600NDV R01/1800D R19/P2000D FG VV001 05/04 Q1033=
200802090020 METAR ESMX 090020Z AUTO 21007KT 0300NDV R01/1100N R19/1100U FG VV001 05/05 Q1033=
200802082350 METAR ESMX 082350Z AUTO 21005KT 170V230 0300NDV R01/1000N R19/1000N FG VV001 05/05 Q1033=
200802082320 METAR ESMX 082320Z AUTO 20004KT 0400NDV R01/1300N R19/1500D FG VV001 05/05 Q1033=
200802082250 METAR ESMX 082250Z AUTO 21005KT 170V240 0550NDV R01/1700D R19/1900N FG VV001 05/05 Q1033=
200802082220 METAR ESMX 082220Z AUTO 23005KT 0650NDV R01/1900U R19/P2000N FG VV001 05/05 Q1033=
200802082150 METAR ESMX 082150Z AUTO 21006KT 0600NDV R01/1400VP2000U R19/P2000U FG VV002 05/05 Q1033=
200802082120 METAR ESMX 082120Z AUTO 21006KT 0300NDV R01/1100N R19/1500N FG VV001 05/05 Q1033=
200802082050 METAR ESMX 082050Z AUTO 21006KT 0500NDV R01/1600N R19/P2000U FG VV001 05/05 Q1033=
200802082020 METAR ESMX 082020Z AUTO 21005KT 0400NDV R01/1300N R19/1700D FG VV001 05/05 Q1033=
200802081950 METAR ESMX 081950Z 20005KT 0250 R01/1100U R19/0900N FG VV002 05/05 Q1033=
200802081920 METAR ESMX 081920Z 21003KT 0300 R01/1000N R19/1200N FG VV002 05/05 Q1033=
200802081850 METAR ESMX 081850Z 21003KT 190V250 0550 R01/1700D R19/P2000D FG VV002 05/05 Q1033=
200802081820 METAR ESMX 081820Z 22005KT 1300 R01/P2000U R19/P2000U BR VV002 05/05 Q1033=
200802081750 METAR ESMX 081750Z 22005KT 0300 R01/1100V1900U R19/1100U FG VV002 05/05 Q1033=
200802081720 METAR ESMX 081720Z 17003KT 140V200 0300 R01/1100N R19/1000N FG VV002 05/05 Q1033=
200802081650 METAR ESMX 081650Z 18004KT 0250 R01/1100N R19/1000N FG VV002 05/05 Q1033=
200802081620 METAR ESMX 081620Z 18004KT 0200 R01/0900N R19/0800N FG VV002 05/05 Q1032=
200802081550 METAR ESMX 081550Z 19004KT 140V230 0200 R01/0750N R19/0700N FG VV002 05/05 Q1032=
200802081520 METAR ESMX 081520Z 17003KT 120V200 0250 R01/0700N R19/0700 FG VV002 05/05 Q1032=
200802081450 METAR ESMX 081450Z 19004KT 0350 R01/0800N R19/0800N FG VV002 05/05 Q1032=
200802081420 METAR ESMX 081420Z 20004KT 0500 R01/1000N R19/1300D FG VV002 05/05 Q1032=
200802081350 METAR ESMX 081350Z 20005KT 1200 R01/1800N R19/1900D BR OVC002 05/05 Q1032=
200802081320 METAR ESMX 081320Z 19004KT 3000 BR OVC002 05/05 Q1032=
200802081250 METAR ESMX 081250Z 19004KT 2200 OVC002 05/05 Q1032=
200802081220 METAR ESMX 081220Z 20004KT 1100 R01/1700N R19/1500N OVC002 05/05 Q1032=
200802081150 METAR ESMX 081150Z 21005KT 0700 R01/1100U R19/1100V1600U FG VV002 05/04 Q1033=
200802081120 METAR ESMX 081120Z 20005KT 0550 R01/0900N R19/1000N FG VV002 04/04 Q1032=
200802081050 METAR ESMX 081050Z 20005KT 0800 R01/1000N R19/1300N FG VV002 04/04 Q1032=
200802081020 METAR ESMX 081020Z 19004KT 140V210 0500 R01/0900U R19/1000N FG VV002 04/04 Q1032=
200802080950 METAR ESMX 080950Z 19004KT 140V220 0400 R01/0800N R19/0800 FG VV002 04/04 Q1032=
200802080920 METAR ESMX 080920Z 19003KT 140V220 0300 R01/0700N R19/0650N FG VV002 04/03 Q1032=
200802080850 METAR ESMX 080850Z 19004KT 0350 R01/0750N R19/0750N FG VV002 03/03 Q1032=
200802080820 METAR ESMX 080820Z 22004KT 0350 R01/0750N R19/0800N FG VV002 03/03 Q1031=
200802080750 METAR ESMX 080750Z 21004KT 0400 R01/0900N R19/0800N FG VV002 03/03 Q1031=
200802080720 METAR ESMX 080720Z 20005KT 0450 R01/1100N R19/1100N FG VV002 03/02 Q1031=
200802080650 METAR ESMX 080650Z 19006KT 1000 R01/P2000D R19/P2000D BR VV002 03/02 Q1031=
200802080620 METAR ESMX 080620Z 19005KT 3000 BR OVC002 03/02 Q1031=
200802080550 METAR ESMX 080550Z 20006KT 3900 BR OVC002 03/02 Q1030=
200802080520 METAR ESMX 080520Z 20006KT 6000 BR OVC003 03/02 Q1030=
200802080450 METAR ESMX 080450Z 20006KT 8000 BR OVC004 03/02 Q1030=
200802080420 METAR ESMX 080420Z 20006KT 9999 OVC005 03/02 Q1031=
200802080350 METAR ESMX 080350Z AUTO 20007KT 9999NDV OVC006/// 03/01 Q1031=
200802080320 METAR ESMX 080320Z AUTO 20008KT 9999NDV OVC009/// 03/01 Q1030=
200802080250 METAR ESMX 080250Z AUTO 19006KT 9999NDV FEW011/// OVC023/// 02/01 Q1030=
200802080220 METAR ESMX 080220Z AUTO 18005KT 9999NDV FEW026/// OVC032/// 02/01 Q1030=
200802080150 METAR ESMX 080150Z AUTO 19005KT 9999NDV OVC038/// 02/01 Q1030=
200802080120 METAR ESMX 080120Z AUTO 19005KT 9999NDV OVC043/// 02/01 Q1030=
200802080050 METAR ESMX 080050Z 20006KT 9999 BKN047 02/01 Q1030=
200802080020 METAR ESMX 080020Z 20004KT 9999 BKN049 01/00 Q1030=
200802072350 METAR ESMX 072350Z 21005KT 9999 BKN058 BKN083 01/M00 Q1030=
200802072320 METAR ESMX 072320Z 21005KT 9999 FEW074 BKN090 00/M00 Q1030=
200802072250 METAR ESMX 072250Z 21004KT CAVOK 01/M00 Q1030=
200802072220 METAR ESMX 072220Z 22003KT CAVOK 01/M00 Q1030=
200802072150 METAR ESMX 072150Z 21004KT CAVOK 01/00 Q1030=
200802072120 METAR ESMX 072120Z 17003KT CAVOK 01/00 Q1030=
200802072050 METAR ESMX 072050Z 19003KT CAVOK 01/00 Q1030=
200802072020 METAR ESMX 072020Z 17004KT 9999 FEW013 01/00 Q1030=
200802071950 METAR ESMX 071950Z 20003KT 9999 FEW014 00/M00 Q1029=
200802071920 METAR ESMX 071920Z 23002KT 9999 BKN015 01/M00 Q1029=
200802071850 METAR ESMX 071850Z VRB01KT 9999 SCT013 02/00 Q1029=
200802071820 METAR ESMX 071820Z 30003KT 9999 OVC014 02/01 Q1029=
200802071750 METAR ESMX 071750Z 31004KT 270V340 9999 BKN013 03/01 Q1029=
200802071720 METAR ESMX 071720Z 30004KT 9999 BKN013 03/01 Q1028=
200802071650 METAR ESMX 071650Z 31007KT 9999 BKN011 03/01 Q1028=
200802071620 METAR ESMX 071620Z 31004KT 9999 BKN012 03/01 Q1028=
200802071550 METAR ESMX 071550Z 33006KT 9999 BKN013 03/01 Q1027=
200802071520 METAR ESMX 071520Z 34009KT 300V010 9999 BKN012 03/01 Q1027=
200802071450 METAR ESMX 071450Z 34008KT 280V020 9999 BKN012 03/01 Q1026=
200802071420 METAR ESMX 071420Z 33006KT 300V360 9999 BKN012 03/01 Q1026=
200802071350 METAR ESMX 071350Z 32009KT 290V350 9999 BKN010 03/01 Q1025=
200802071320 METAR ESMX 071320Z 32008KT 290V350 9999 OVC011 03/01 Q1024=
200802071250 METAR ESMX 071250Z 31010KT 9999 SCT011 OVC015 03/01 Q1024=
200802071220 METAR ESMX 071220Z 33008KT 9999 BKN010 OVC016 04/02 Q1023=
200802071150 METAR ESMX 071150Z 33011KT 300V360 9999 BKN009 03/02 Q1023=
200802071120 METAR ESMX 071120Z 33009KT 9999 BKN010 OVC014 03/01 Q1022=
200802071050 METAR ESMX 071050Z 32008KT 280V340 9999 BKN010 03/02 Q1022=
200802070920 METAR ESMX 070920Z 33011KT 300V020 9999 OVC006 03/02 Q1020=
200802070850 METAR ESMX 070850Z 33012KT 290V360 9999 OVC006 03/02 Q1019=
200802070820 METAR ESMX 070820Z 32012KT 9999 BKN006 OVC009 03/02 Q1019=
200802070750 METAR ESMX 070750Z 31012KT 9999 OVC009 03/01 Q1018=
200802070650 METAR ESMX 070650Z 31011KT 9999 OVC009 02/01 Q1016=
200802070620 METAR ESMX 070620Z 31010KT 9999 OVC008 02/01 Q1015=
200802070550 METAR ESMX 070550Z 30010KT 9999 OVC009 02/01 Q1015=
200802070520 METAR ESMX 070520Z 31008KT 260V340 9999 FEW008 OVC010 02/01 Q1014=
200802070450 METAR ESMX 070450Z 30008KT 260V330 9999 FEW008 OVC010 02/01 Q1013=
200802070420 METAR ESMX 070420Z 31009KT 280V360 9999 FEW008 BKN010 OVC015 02/02 Q1013=
200802070350 METAR ESMX 070350Z AUTO 31011KT 260V350 9999NDV FEW006/// SCT008/// BKN009/// 03/02 Q1012=
200802070320 METAR ESMX 070320Z AUTO 30008KT 260V330 9999NDV FEW007/// BKN010/// OVC014/// 03/02 Q1011 REDZ RERA=
200802070250 METAR ESMX 070250Z AUTO 29008KT 260V330 9999NDV -DZ FEW005/// SCT007/// BKN008/// 03/02 Q1011=
200802070220 METAR ESMX 070220Z AUTO 29008KT 4400NDV DZ FEW004/// SCT006/// BKN007/// 03/02 Q1010 RERA=
200802070150 METAR ESMX 070150Z AUTO 28009KT 250V320 4800NDV -DZ BKN004/// OVC007/// 03/03 Q1010 RERA=
200802070120 METAR ESMX 070120Z AUTO 28008KT 250V310 7000NDV -DZ OVC007/// 04/03 Q1009 RERA=
200802070050 METAR ESMX 070050Z 26008KT 9999 OVC009 04/02 Q1008=
200802070020 METAR ESMX 070020Z 24007KT 210V290 9999 OVC010 04/02 Q1008=
200802062350 METAR ESMX 062350Z 24008KT 200V270 9999 OVC011 04/02 Q1007=
200802062320 METAR ESMX 062320Z 24008KT 9999 FEW012 OVC016 04/02 Q1007=
200802062250 METAR ESMX 062250Z 24008KT 9999 FEW014 OVC016 04/02 Q1007=
200802062220 METAR ESMX 062220Z 25009KT 9999 FEW011 BKN014 OVC018 04/02 Q1007=
200802062150 METAR ESMX 062150Z 26008KT 220V290 9999 FEW012 BKN014 OVC018 04/02 Q1006=
200802062120 METAR ESMX 062120Z 25009G19KT 210V280 9999 OVC011 04/02 Q1006=
200802062050 METAR ESMX 062050Z 25010KT 220V290 9999 BKN011 04/02 Q1006=
200802062020 METAR ESMX 062020Z 25010KT 9999 FEW011 SCT013 BKN016 04/03 Q1005=
200802061950 METAR ESMX 061950Z 25010KT 220V280 9999 FEW011 OVC013 04/03 Q1005=
200802061920 METAR ESMX 061920Z 25010KT 9999 BR FEW008 BKN010 OVC014 04/03 Q1005=
200802061850 METAR ESMX 061850Z 25012KT 210V280 9000 -RA FEW009 SCT010 OVC013 04/03 Q1004=
200802061820 METAR ESMX 061820Z 25011KT 210V280 9999 -RA FEW009 BKN011 OVC015 04/03 Q1004=
200802061750 METAR ESMX 061750Z 24009KT 9000 -RA FEW009 OVC011 05/03 Q1004=
200802061720 METAR ESMX 061720Z 25010G22KT 200V280 9999 FEW009 OVC011 05/03 Q1004=
200802061350 METAR ESMX 061350Z 23008KT 200V270 9999 FEW012 BKN024 06/04 Q1002=
200802061320 METAR ESMX 061320Z 23009KT 9999 FEW017 BKN027 06/05 Q1001=
200802061250 METAR ESMX 061250Z 24008KT 200V260 9999 FEW009 SCT015 BKN029 06/05 Q1001=
200802061220 METAR ESMX 061220Z 21006KT 9999 DZ FEW005 SCT009 BKN013 06/05 Q1001 RERA=
200802061150 METAR ESMX 061150Z 20007KT 7000 BR FEW004 SCT005 BKN007 06/05 Q1001 REDZ=
200802061120 METAR ESMX 061120Z 21006KT 6000 -DZ BKN003 OVC007 06/05 Q1000 RERA=
200802061050 METAR ESMX 061050Z 20007KT 5000 BR BKN001 OVC003 05/05 Q1001=
200802061020 METAR ESMX 061020Z 18006KT 2000 BR OVC002 05/05 Q1000=
200802060950 METAR ESMX 060950Z 17006KT 2000 BR OVC002 04/04 Q1000=
200802060920 METAR ESMX 060920Z 17007KT 140V200 4000 BR OVC002 04/04 Q1000=
200802060850 METAR ESMX 060850Z 16007KT 5000 BR OVC002 04/03 Q1000 REDZ=
200802060820 METAR ESMX 060820Z 16006KT 120V200 6000 -DZ BKN003 04/03 Q1000=
200802060750 METAR ESMX 060750Z 16006KT 110V200 7000 -RA BKN003 04/03 Q1000=
200802060720 METAR ESMX 060720Z 15007KT 120V190 5000 -RA OVC003 04/03 Q1000=
200802060650 METAR ESMX 060650Z 15006KT 110V170 9999 BKN004 OVC007 04/03 Q1000 RERA REDZ=
200802060620 METAR ESMX 060620Z 15006KT 120V180 5000 -RA BKN005 BKN010 03/03 Q1001=
200802060550 METAR ESMX 060550Z 16007KT 110V190 4800 -RA FEW002 BKN004 OVC006 03/03 Q1001=
200802060520 METAR ESMX 060520Z 16008KT 4000 -RA BKN002 03/03 Q1001 REDZ=
200802060450 METAR ESMX 060450Z 15007KT 110V180 7000 -DZ BKN002 03/03 Q1001=
200802060420 METAR ESMX 060420Z AUTO 14007KT 100V170 6000NDV DZ OVC002/// 03/03 Q1001 RERA=
200802060350 METAR ESMX 060350Z AUTO 16006KT 130V200 7000NDV BR OVC001/// 03/03 Q1002 RERA=
200802060320 METAR ESMX 060320Z AUTO 16007KT 110V200 2000NDV BR OVC001/// 03/03 Q1002 REUP REDZ=
200802060250 METAR ESMX 060250Z AUTO 15008KT 110V190 1700NDV BR OVC001/// 03/03 Q1003=
200802060220 METAR ESMX 060220Z AUTO 15008KT 110V190 2900NDV -RA OVC001/// 03/03 Q1003 REDZ=
200802060150 METAR ESMX 060150Z AUTO 15008KT 110V190 5000NDV -RA OVC002/// 03/02 Q1004=
200802060120 METAR ESMX 060120Z AUTO 16008KT 7000NDV BR OVC004/// 03/02 Q1004=
200802060050 METAR ESMX 060050Z 15009KT 120V200 9000 BR OVC006 03/02 Q1004=
200802060020 METAR ESMX 060020Z 17009KT 140V200 9999 BR FEW007 BKN008 OVC011 03/02 Q1005 RERA REDZ REUP=
200802052350 METAR ESMX 052350Z 16007KT 120V200 5000 -RA FEW008 OVC009 03/02 Q1005 REDZ=
200802052320 METAR ESMX 052320Z 16008KT 6000 -DZ FEW009 OVC010 04/02 Q1005 RERA=
200802052250 METAR ESMX 052250Z 16008KT 120V200 7000 -RA BKN010 04/02 Q1006 REDZ=
200802052150 METAR ESMX 052150Z 16008KT 120V200 7000 BR BKN010 04/02 Q1007=
200802052120 METAR ESMX 052120Z 15010KT 110V190 7000 BR BKN010 04/02 Q1007=
200802052050 METAR ESMX 052050Z 15008KT 120V190 9000 BR BKN010 03/02 Q1008=
200802052020 METAR ESMX 052020Z 16007KT 120V200 9999 FEW012 BKN018 03/02 Q1008=
200802051950 METAR ESMX 051950Z 16008KT 120V200 9999 FEW008 SCT011 BKN013 03/02 Q1009=
200802051920 METAR ESMX 051920Z 16008KT 140V200 9000 BKN006 OVC009 03/02 Q1009=
200802051850 METAR ESMX 051850Z 16008KT 120V200 9999 BKN007 03/01 Q1009=
200802051820 METAR ESMX 051820Z 16008KT 120V200 9999 BKN007 OVC010 03/01 Q1010=
200802051750 METAR ESMX 051750Z 16008KT 120V200 9999 BKN008 03/01 Q1010=
200802051720 METAR ESMX 051720Z 16008KT 120V200 9000 BR OVC008 03/01 Q1010=
200802051650 METAR ESMX 051650Z 15006KT 120V190 9999 OVC010 02/01 Q1010=
200802051620 METAR ESMX 051620Z 14005KT 110V170 9999 BKN012 OVC016 02/00 Q1010=
200802051550 METAR ESMX 051550Z 16006KT 9999 FEW014 02/00 Q1011=
200802051520 METAR ESMX 051520Z 15005KT 110V170 9999 SCT016 BKN150 02/00 Q1011=
200802051450 METAR ESMX 051450Z 16005KT 120V210 9999 BKN013 03/00 Q1011=
200802051420 METAR ESMX 051420Z 17006KT 140V200 9999 BKN013 03/00 Q1011=
200802051250 METAR ESMX 051250Z 17007KT 9999 BKN014 03/00 Q1011=
200802051220 METAR ESMX 051220Z 19009KT 9999 SCT015 03/M00 Q1011=
200802051150 METAR ESMX 051150Z 20007KT 160V220 9999 BKN015 03/00 Q1011=
200802051120 METAR ESMX 051120Z 22008KT 9999 BKN014 03/00 Q1011=
200802051040 METAR ESMX 051040Z 22008KT 9999 BKN015 03/00 Q1012=
200802050950 METAR ESMX 050950Z 20008KT 9999 OVC015 03/01 Q1011=
200802050920 METAR ESMX 050920Z 22007KT 9999 BKN012 OVC020 03/01 Q1011=
200802050850 METAR ESMX 050850Z 22005KT 9999 BR FEW015 OVC020 03/02 Q1011=
200802050820 METAR ESMX 050820Z 21007KT 6000 BR FEW005 SCT015 OVC020 03/02 Q1010=
200802050750 METAR ESMX 050750Z 20005KT 3500 BR OVC005 03/02 Q1010=
200802050720 METAR ESMX 050720Z 22006KT 3000 BR OVC002 03/02 Q1010=
200802050650 METAR ESMX 050650Z 22005KT 1800 BR OVC002 02/02 Q1009=
200802050620 METAR ESMX 050620Z 21007KT 1700 R01/P2000U R19/P2000U BR OVC002 02/02 Q1009=
200802050550 METAR ESMX 050550Z 22007KT 1600 BR OVC002 02/02 Q1009=
200802050520 METAR ESMX 050520Z 20006KT 1300 R01/P2000D R19/P2000D BR OVC002 02/02 Q1008=
200802050450 METAR ESMX 050450Z 20006KT 2400 BR OVC003 02/01 Q1008=
200802050420 METAR ESMX 050420Z 19005KT 2300 BR OVC003 02/01 Q1008=
200802050350 METAR ESMX 050350Z 19005KT 2100 SCT002 BKN004 OVC005 01/01 Q1008=
200802050320 METAR ESMX 050320Z 18006KT 1600 OVC002 01/01 Q1008=
200802050250 METAR ESMX 050250Z 17006KT 0800 R01/P2000U R19/P2000U FG VV002 01/01 Q1007=
200802050220 METAR ESMX 050220Z 16005KT 0600 R01/1800N R19/P2000U FG VV002 01/01 Q1007=
200802050150 METAR ESMX 050150Z 15003KT 110V180 0500 R01/1600D R19/P2000N FG VV002 01/01 Q1007 REDZ=
200802050120 METAR ESMX 050120Z 18005KT 0700 R01/P2000N R19/P2000N -DZ FG VV002 01/01 Q1007=
200802050050 METAR ESMX 050050Z 17007KT 130V200 0700 R01/P2000N R19/P2000D FG VV002 01/01 Q1007=
200802050020 METAR ESMX 050020Z 14005KT 1100 R01/P2000D R19/P2000D BR OVC002 01/01 Q1007=
200802042350 METAR ESMX 042350Z 15005KT 120V190 1500 BR OVC002 01/01 Q1008=
200802042320 METAR ESMX 042320Z 14003KT 090V190 1700 BR OVC002 01/00 Q1007=
200802042250 METAR ESMX 042250Z 15004KT 100V180 2100 BR OVC002 01/00 Q1007=
200802042220 METAR ESMX 042220Z 14004KT 070V190 3000 BR OVC002 00/M00 Q1007=
200802042150 METAR ESMX 042150Z 13004KT 080V170 5000 BR OVC004 00/M00 Q1007=
200802042120 METAR ESMX 042120Z 11005KT 070V170 5000 BR OVC004 00/M01 Q1007=
200802042050 METAR ESMX 042050Z 13005KT 090V170 6000 BR OVC006 00/M01 Q1007=
200802042020 METAR ESMX 042020Z 14004KT 080V190 7000 BR OVC006 00/M01 Q1008=
200802041950 METAR ESMX 041950Z 15006KT 120V200 8000 BR OVC007 00/M01 Q1008=
200802041920 METAR ESMX 041920Z 14005KT 070V180 9000 BR BKN007 00/M01 Q1008=
200802041850 METAR ESMX 041850Z 15007KT 100V190 9000 BR BKN007 01/M01 Q1008=
200802041820 METAR ESMX 041820Z 12005KT 080V160 9000 BR SCT007 M00/M01 Q1008=
200802041750 METAR ESMX 041750Z VRB01KT CAVOK M01/M02 Q1008=
200802041720 METAR ESMX 041720Z 14003KT CAVOK M01/M02 Q1008=
200802041650 METAR ESMX 041650Z 19003KT CAVOK M00/M02 Q1008=
200802041620 METAR ESMX 041620Z 14003KT 080V170 CAVOK 01/M01 Q1007=
200802041550 METAR ESMX 041550Z 15004KT CAVOK 02/M01 Q1007=
200802041520 METAR ESMX 041520Z 14004KT 100V170 CAVOK 02/M01 Q1007=
200802041450 METAR ESMX 041450Z 13004KT CAVOK 03/M00 Q1007=
200802041420 METAR ESMX 041420Z 13004KT 080V170 CAVOK 04/M00 Q1007=
200802041350 METAR ESMX 041350Z 15005KT 100V190 CAVOK 04/M00 Q1007=
200802041320 METAR ESMX 041320Z 15006KT 100V220 CAVOK 04/M00 Q1008=
200802041250 METAR ESMX 041250Z 14006KT 110V180 CAVOK 04/M00 Q1008=
200802041220 METAR ESMX 041220Z 16006KT 110V200 9999 FEW016 04/M00 Q1008=
200802041150 METAR ESMX 041150Z 16007KT 120V210 9999 SCT014 03/M00 Q1009=
200802041120 METAR ESMX 041120Z 16005KT 9999 BKN010 03/00 Q1009=
200802041050 METAR ESMX 041050Z 15006KT 100V190 9999 BKN010 02/M00 Q1009=
200802041020 METAR ESMX 041020Z 14005KT 100V190 9999 FEW008 OVC009 02/M00 Q1009=
200802040950 METAR ESMX 040950Z VRB05KT 9999 BKN008 BKN011 02/M00 Q1009=
200802040920 METAR ESMX 040920Z 15006KT 110V190 9999 BR OVC007 01/M00 Q1009=
200802040850 METAR ESMX 040850Z 15006KT 110V200 9000 BR OVC007 01/M00 Q1010=
200802040820 METAR ESMX 040820Z 16007KT 090V210 9000 BR OVC008 01/M00 Q1010=
200802040750 METAR ESMX 040750Z 14007KT 100V170 8000 BR OVC006 01/M00 Q1010=
200802040720 METAR ESMX 040720Z 15007KT 100V190 9000 BR OVC005 01/M00 Q1010=
200802040650 METAR ESMX 040650Z 15008KT 120V190 9000 BR OVC005 01/M00 Q1010=
200802040620 METAR ESMX 040620Z 14006KT 110V190 8000 BR BKN004 00/M00 Q1009=
200802040550 METAR ESMX 040550Z 14006KT 100V180 9000 BR BKN004 00/M01 Q1010=
200802040520 METAR ESMX 040520Z 13005KT 090V170 9999 FEW005 BKN007 M00/M01 Q1010=
200802040450 METAR ESMX 040450Z 13004KT 090V170 9999 FEW009 M01/M01 Q1010=
200802040420 METAR ESMX 040420Z AUTO 14005KT 110V190 9999NDV NCD M01/M02 Q1010=
200802040350 METAR ESMX 040350Z AUTO 14005KT 080V170 9999NDV NCD M01/M02 Q1011=
200802040320 METAR ESMX 040320Z AUTO 14004KT 080V170 9999NDV NCD M01/M02 Q1011=
200802040250 METAR ESMX 040250Z AUTO 15005KT 110V180 9999NDV NCD M01/M02 Q1011=
200802040220 METAR ESMX 040220Z AUTO 14004KT 090V170 9999NDV NCD M01/M02 Q1012=
200802040150 METAR ESMX 040150Z AUTO 15005KT 9999NDV NCD M00/M02 Q1012=
200802040120 METAR ESMX 040120Z 15005KT CAVOK M00/M02 Q1012=
200802040050 METAR ESMX 040050Z 16005KT 130V200 CAVOK M00/M02 Q1012=
200802040020 METAR ESMX 040020Z 17005KT CAVOK M00/M02 Q1013=
200802032350 METAR ESMX 032350Z 17006KT 140V200 CAVOK M00/M02 Q1013=
200802032320 METAR ESMX 032320Z 16007KT 130V200 CAVOK M00/M02 Q1013=
200802032250 METAR ESMX 032250Z 17008KT 140V200 CAVOK M00/M02 Q1013=
200802032220 METAR ESMX 032220Z 16006KT 140V200 CAVOK M00/M02 Q1014=
200802032150 METAR ESMX 032150Z 17005KT CAVOK M00/M02 Q1014=
200802032120 METAR ESMX 032120Z 18004KT CAVOK M00/M02 Q1014=
200802032050 METAR ESMX 032050Z 18006KT CAVOK 00/M01 Q1014=
200802032020 METAR ESMX 032020Z 19008KT CAVOK 00/M01 Q1014=
200802031950 METAR ESMX 031950Z 20009KT CAVOK 00/M01 Q1014=
200802031920 METAR ESMX 031920Z 20009KT CAVOK 00/M01 Q1014=
200802031850 METAR ESMX 031850Z 19011KT 9999 FEW012 01/M01 Q1014=
200802031820 METAR ESMX 031820Z 19010KT CAVOK 01/M00 Q1014=
200802031750 METAR ESMX 031750Z 20008KT 9999 FEW012 01/M00 Q1014=
200802031720 METAR ESMX 031720Z 19008KT 9999 FEW011 SCT015 01/M00 Q1014=
200802031650 METAR ESMX 031650Z 19009KT 9999 BKN013 01/M00 Q1013=
200802031620 METAR ESMX 031620Z 19008KT CAVOK 02/M00 Q1013=
200802031550 METAR ESMX 031550Z 21010KT CAVOK 02/M00 Q1013=
200802031520 METAR ESMX 031520Z 21010KT CAVOK 02/M01 Q1013=
200802031450 METAR ESMX 031450Z 21010KT 9999 FEW021 03/M00 Q1013=
200802031420 METAR ESMX 031420Z 20010KT 9999 FEW021 03/M00 Q1012=
200802031350 METAR ESMX 031350Z 20011KT CAVOK 04/M00 Q1012=
200802031320 METAR ESMX 031320Z 21016KT 170V250 9999 FEW020 SCT073 05/00 Q1012=
200802031250 METAR ESMX 031250Z 21014KT 9999 FEW020 SCT070 04/00 Q1012=
200802031220 METAR ESMX 031220Z 21015KT 9999 FEW017 SCT020 BKN051 04/M00 Q1012=
200802031150 METAR ESMX 031150Z 20018KT 9999 FEW015 SCT047 BKN070 03/M00 Q1012=
200802031120 METAR ESMX 031120Z AUTO 20013KT 9999NDV FEW013/// SCT016/// BKN024/// 02/M00 Q1012 RERA=
200802031050 METAR ESMX 031050Z AUTO 20015KT 8000NDV -RA FEW007/// SCT019/// BKN052/// 02/00 Q1012 REDZ=
200802031020 METAR ESMX 031020Z AUTO 20015KT 9999NDV -DZ FEW015/// SCT045/// BKN052/// 02/M00 Q1012 RERA=
200802030950 METAR ESMX 030950Z AUTO 20016KT 9999NDV BKN012/// OVC050/// 02/M00 Q1011=
200802030920 METAR ESMX 030920Z AUTO 20016KT 9999NDV OVC013/// 02/M00 Q1011=
200802030850 METAR ESMX 030850Z AUTO 21014KT 170V240 9999NDV OVC013/// 02/M00 Q1011=
200802030820 METAR ESMX 030820Z AUTO 21014KT 9999NDV OVC012/// 02/M01 Q1011=
200802030750 METAR ESMX 030750Z AUTO 21012KT 9999NDV OVC013/// 02/M00 Q1010=
200802030720 METAR ESMX 030720Z AUTO 21014KT 9999NDV OVC014/// 02/M00 Q1010=
200802030650 METAR ESMX 030650Z AUTO 21012KT 170V240 9999NDV OVC014/// 02/M01 Q1010=
200802030620 METAR ESMX 030620Z AUTO 21013KT 9999NDV BKN015/// OVC019/// 02/M01 Q1009 RERA REDZ=
200802030550 METAR ESMX 030550Z AUTO 22014KT 170V250 9999NDV -RA OVC014/// 02/M00 Q1009=
200802030520 METAR ESMX 030520Z AUTO 21015KT 9999NDV OVC012/// 02/M00 Q1009=
200802030450 METAR ESMX 030450Z AUTO 22014KT 9000NDV -DZ FEW008/// SCT009/// OVC011/// 01/M00 Q1008 RERA=
200802030420 METAR ESMX 030420Z AUTO 21013KT 5000NDV DZ FEW008/// OVC010/// 01/M00 Q1008 RERA=
200802030350 METAR ESMX 030350Z AUTO 21014KT 5000NDV -RA FEW009/// BKN011/// OVC015/// 00/M01 Q1008 RESG RESN=
200802030320 METAR ESMX 030320Z AUTO 20016KT 6000NDV SG FEW008/// OVC010/// M00/M01 Q1008 RESN=
200802030250 METAR ESMX 030250Z AUTO 20015KT 3600NDV -SN FEW008/// OVC009/// M01/M01 Q1008 RESG=
200802030220 METAR ESMX 030220Z AUTO 20013KT 5000NDV -SN FEW009/// BKN011/// BKN014/// M01/M02 Q1008=
200802030150 METAR ESMX 030150Z AUTO 19012KT 9000NDV -SN FEW009/// SCT014/// BKN023/// M01/M03 Q1008=
200802030120 METAR ESMX 030120Z AUTO 21010KT 9000NDV -SN FEW018/// SCT048/// M01/M03 Q1008=
200802030050 METAR ESMX 030050Z AUTO 20010KT 9999NDV FEW012/// SCT083/// M02/M03 Q1008=
200802030020 METAR ESMX 030020Z AUTO 20009KT 9999NDV FEW020/// M02/M04 Q1009=
200802022350 METAR ESMX 022350Z AUTO 20009KT 9999NDV NCD M02/M04 Q1008=
200802022320 METAR ESMX 022320Z AUTO 21009KT 9999NDV NCD M02/M04 Q1008=
200802022250 METAR ESMX 022250Z AUTO 20008KT 9999NDV NCD M02/M04 Q1008=
200802022220 METAR ESMX 022220Z AUTO 21007KT 9999NDV NCD M02/M05 Q1007=
200802022150 METAR ESMX 022150Z AUTO 22007KT 9999NDV NCD M02/M04 Q1007=
200802022120 METAR ESMX 022120Z AUTO 22007KT 180V260 9999NDV NCD M02/M05 Q1007=
200802022050 METAR ESMX 022050Z AUTO 24009KT 200V260 9999NDV FEW032/// M01/M05 Q1006=
200802022020 METAR ESMX 022020Z AUTO 25010KT 9999NDV NCD M01/M05 Q1005=
200802021950 METAR ESMX 021950Z AUTO 23008KT 200V270 9999NDV NCD M01/M06 Q1005=
200802021920 METAR ESMX 021920Z AUTO 25010KT 9999NDV FEW042/// M01/M07 Q1004=
200802021850 METAR ESMX 021850Z AUTO 25010KT 210V280 9999NDV NCD M01/M06 Q1003=
200802021820 METAR ESMX 021820Z AUTO 24010G21KT 9999NDV NCD M01/M05 Q1003=
200802021750 METAR ESMX 021750Z AUTO 23011KT 190V260 9999NDV NCD M01/M05 Q1002=
200802021720 METAR ESMX 021720Z AUTO 25011KT 9999NDV NCD M01/M06 Q1001=
200802021650 METAR ESMX 021650Z AUTO 24011G22KT 200V290 9999NDV NCD M00/M06 Q1001=
200802021620 METAR ESMX 021620Z AUTO 25013KT 9999NDV NCD M00/M05 Q1000=
200802021550 METAR ESMX 021550Z AUTO 24012KT 200V300 9999NDV NCD M01/M05 Q0999=
200802021520 METAR ESMX 021520Z AUTO 25015G25KT 9999NDV ////// M00/M05 Q0998=
200802021450 METAR ESMX 021450Z AUTO 25019G30KT 220V280 9999NDV ////// M00/M06 Q0997=
200802021420 METAR ESMX 021420Z AUTO 27023G34KT 230V300 9999NDV -RA ////// 01/M07 Q0997=
200802021350 METAR ESMX 021350Z AUTO 26017G28KT 200V290 9999NDV ////// 02/M07 Q0996=
200802021320 METAR ESMX 021320Z AUTO 26018G31KT 230V290 9999NDV ////// 02/M06 Q0995 RERA=
200802021250 METAR ESMX 021250Z AUTO 26021G40KT 230V290 3800NDV -RA ////// 01/M04 Q0995=
200802021220 METAR ESMX 021220Z AUTO 26022KT 9999NDV FEW043/// 02/M07 Q0993=
200802021150 METAR ESMX 021150Z AUTO 26021G33KT 230V290 9999NDV NCD 02/M07 Q0993=
200802021120 METAR ESMX 021120Z AUTO 26016G26KT 230V290 9999NDV FEW039/// 02/M05 Q0992=
200802021050 METAR ESMX 021050Z AUTO 26017G33KT 220V300 9999NDV FEW027/// 02/M04 Q0991=
200802021020 METAR ESMX 021020Z AUTO 26016KT 9999NDV SCT025/// BKN036/// 02/M02 Q0991=
200802020950 METAR ESMX 020950Z AUTO 26015G26KT 220V300 9999NDV FEW023/// BKN031/// BKN039/// 02/M03 Q0990=
200802020920 METAR ESMX 020920Z AUTO 26016KT 220V290 9999NDV FEW020/// BKN025/// 02/M02 Q0989=
200802020850 METAR ESMX 020850Z AUTO 26015KT 220V300 9999NDV FEW017/// BKN020/// OVC024/// 02/M01 Q0989=
200802020820 METAR ESMX 020820Z AUTO 25014G24KT 230V290 9999NDV FEW012/// OVC016/// 02/M01 Q0988=
200802020750 METAR ESMX 020750Z AUTO 24009KT 200V280 9999NDV BKN012/// BKN020/// 02/00 Q0987=
200802020720 METAR ESMX 020720Z AUTO 24009G21KT 210V280 9999NDV SCT010/// BKN014/// OVC050/// 02/00 Q0986=
200802020650 METAR ESMX 020650Z AUTO 23011KT 200V260 9999NDV FEW011/// SCT014/// BKN053/// 02/00 Q0985=
200802020620 METAR ESMX 020620Z AUTO 23011KT 190V250 9999NDV FEW012/// OVC050/// 02/01 Q0984=
200802020550 METAR ESMX 020550Z AUTO 23010KT 9999NDV FEW013/// SCT023/// BKN042/// 02/01 Q0983=
200802020520 METAR ESMX 020520Z AUTO 24011KT 210V280 9999NDV FEW010/// SCT013/// BKN016/// 02/01 Q0982=
200802020450 METAR ESMX 020450Z AUTO 22013KT 190V250 9999NDV FEW008/// BKN011/// OVC026/// 02/01 Q0981=
200802020420 METAR ESMX 020420Z AUTO 21013KT 9999NDV FEW007/// SCT009/// OVC010/// 02/01 Q0981 REDZ=
200802020350 METAR ESMX 020350Z AUTO 22012G22KT 190V250 9000NDV -RA FEW008/// SCT010/// BKN013/// 02/01 Q0980 REDZ=
200802020320 METAR ESMX 020320Z AUTO 21014KT 170V250 6000NDV DZ FEW006/// SCT009/// BKN011/// 02/01 Q0980 RERA=
200802020250 METAR ESMX 020250Z AUTO 21014KT 6000NDV DZ FEW007/// SCT009/// OVC011/// 02/01 Q0980 RERA=
200802020220 METAR ESMX 020220Z AUTO 21015G25KT 170V230 7000NDV BR FEW007/// SCT010/// BKN012/// 02/01 Q0979 REDZ RERA=
200802020150 METAR ESMX 020150Z AUTO 21016KT 7000NDV DZ FEW008/// BKN010/// 02/01 Q0979 RERA=
200802020120 METAR ESMX 020120Z AUTO 21015KT 7000NDV -DZ BKN009/// OVC014/// 02/01 Q0979 RERA=
200802020050 METAR ESMX 020050Z AUTO 20019KT 8000NDV -DZ FEW010/// SCT013/// BKN016/// 02/01 Q0979 RERA=
200802020020 METAR ESMX 020020Z AUTO 20018KT 9999NDV FEW011/// OVC015/// 02/01 Q0979=
200802012350 METAR ESMX 012350Z AUTO 21016KT 9999NDV FEW011/// SCT016/// BKN019/// 02/01 Q0979 RERA REDZ=
200802012320 METAR ESMX 012320Z AUTO 21020G34KT 9999NDV FEW011/// SCT021/// BKN026/// 02/01 Q0979 REDZ=
200802012250 METAR ESMX 012250Z AUTO 21018KT 9000NDV FEW011/// SCT014/// BKN017/// 02/01 Q0979 RERA REDZ=
200802012220 METAR ESMX 012220Z AUTO 21017KT 170V240 8000NDV -DZ BKN010/// OVC017/// 02/01 Q0979 RERA=
200802012150 METAR ESMX 012150Z AUTO 20018KT 9999NDV -RA FEW011/// BKN014/// OVC020/// 02/01 Q0979 REDZ=
200802012120 METAR ESMX 012120Z AUTO 20016KT 4400NDV -RA FEW008/// BKN010/// OVC017/// 02/01 Q0979 REDZ=
200802012050 METAR ESMX 012050Z AUTO 21016G26KT 7000NDV -DZ FEW008/// SCT011/// BKN013/// 02/01 Q0979 RERA=
200802012020 METAR ESMX 012020Z AUTO 20016KT 7000NDV DZ FEW007/// BKN010/// OVC015/// 02/01 Q0979 RERA=
200802011950 METAR ESMX 011950Z AUTO 20016KT 6000NDV DZ SCT006/// BKN009/// OVC010/// 02/01 Q0979 RERA=
200802011920 METAR ESMX 011920Z 20017KT 9999 -RA FEW007 OVC010 02/01 Q0979=
200802011850 METAR ESMX 011850Z 20014KT 8000 -RA FEW006 SCT008 BKN010 02/02 Q0979=
200802011820 METAR ESMX 011820Z 19014KT 5000 RASN BKN006 BKN010 01/01 Q0979=
200802011750 METAR ESMX 011750Z 20015KT 5000 -RASN FEW006 BKN007 OVC012 02/01 Q0979=
200802011720 METAR ESMX 011720Z 20016G27KT 6000 -RASN FEW006 BKN007 02/01 Q0979=
200802011650 METAR ESMX 011650Z 19016KT 7000 -RA FEW006 BKN008 02/01 Q0979=
200802011620 METAR ESMX 011620Z 19016KT 7000 -RA FEW006 BKN008 OVC010 02/01 Q0979=
200802011550 METAR ESMX 011550Z 19013KT 9000 -RA FEW006 BKN007 OVC010 02/01 Q0979=
200802011520 METAR ESMX 011520Z 18013KT 150V220 9999 -RA FEW006 BKN008 OVC010 02/01 Q0979=
200802011450 METAR ESMX 011450Z 18013KT 140V210 9000 -RA FEW005 BKN009 02/01 Q0979=
200802011350 METAR ESMX 011350Z 18014G24KT 140V220 9999 -RA FEW007 BKN010 BKN014 03/01 Q0979=
200802011320 METAR ESMX 011320Z 18014KT 130V200 9999 -RA FEW009 SCT016 BKN018 03/01 Q0979=
200802011250 METAR ESMX 011250Z 17014KT 140V210 9999 FEW014 SCT018 BKN021 03/01 Q0980=
200802011220 METAR ESMX 011220Z 18014KT 9999 FEW012 BKN016 OVC021 03/01 Q0980=
