##########################################################
# Query made at 04/19/2024 21:05:11 UTC
# Time interval: from 08/01/2008 12:00  to 08/31/2008 12:59  UTC
##########################################################

##########################################################
# ESMX, Vaxjo (Sweden)
# WMO index: 02641. WIGOS ID: 0-20000-0-02648
# Latitude 56-51N. Longitude 014-50E. Altitude 199 m.
##########################################################

200808311250 METAR ESMX 311250Z AUTO 03007KT 350V070 9999NDV OVC058/// 18/08 Q1022=
200808311220 METAR ESMX 311220Z AUTO 01005KT 9999NDV BKN065/// BKN082/// 18/08 Q1022=
200808311150 METAR ESMX 311150Z AUTO 36005KT 340V040 9999NDV BKN064/// BKN087/// 18/09 Q1021=
200808311120 METAR ESMX 311120Z AUTO 35005KT 300V010 9999NDV BKN064/// 18/08 Q1022=
200808311050 METAR ESMX 311050Z AUTO 03003KT 330V080 9999NDV FEW041/// SCT067/// BKN089/// 18/08 Q1021=
200808311020 METAR ESMX 311020Z AUTO VRB04KT 9999NDV FEW078/// BKN089/// 18/08 Q1022=
200808310950 METAR ESMX 310950Z AUTO 04005KT 010V100 9999NDV FEW078/// 17/08 Q1022=
200808310920 METAR ESMX 310920Z AUTO 03005KT 340V080 9999NDV FEW089/// 17/09 Q1022=
200808310850 METAR ESMX 310850Z AUTO 06003KT 340V140 9999NDV FEW110/// 17/09 Q1022=
200808310820 METAR ESMX 310820Z AUTO VRB02KT 9999NDV NCD 17/09 Q1021=
200808310750 METAR ESMX 310750Z AUTO 07003KT 020V130 9999NDV FEW110/// 16/10 Q1021=
200808310720 METAR ESMX 310720Z AUTO 08004KT 040V140 9999NDV NCD 15/10 Q1021=
200808310650 METAR ESMX 310650Z AUTO 06003KT 030V090 9999NDV NCD 14/11 Q1021=
200808310620 METAR ESMX 310620Z AUTO 00000KT 9999NDV NCD 12/11 Q1021=
200808310550 METAR ESMX 310550Z AUTO 00000KT 9999NDV NCD 08/08 Q1021=
200808310520 METAR ESMX 310520Z AUTO 18001KT 9999NDV NCD 07/07 Q1021=
200808310450 METAR ESMX 310450Z AUTO 18002KT 9999NDV NCD 07/07 Q1021=
200808310420 METAR ESMX 310420Z AUTO 28002KT 9999NDV NCD 08/07 Q1020=
200808310350 METAR ESMX 310350Z AUTO 31002KT 9999NDV NCD 07/06 Q1020=
200808310320 METAR ESMX 310320Z AUTO 00000KT 9999NDV NCD 08/08 Q1020=
200808310250 METAR ESMX 310250Z AUTO 27002KT 9999NDV NCD 08/07 Q1020=
200808310220 METAR ESMX 310220Z AUTO 00000KT 9999NDV NCD 08/08 Q1020=
200808310150 METAR ESMX 310150Z AUTO 28002KT 9999NDV NCD 08/07 Q1020=
200808310120 METAR ESMX 310120Z AUTO 00000KT 9999NDV NCD 09/08 Q1020=
200808310050 METAR ESMX 310050Z AUTO 00000KT 9999NDV NCD 08/07 Q1020=
200808310020 METAR ESMX 310020Z AUTO 31003KT 9999NDV NCD 10/09 Q1020=
200808302350 METAR ESMX 302350Z AUTO 30003KT 9999NDV NCD 09/08 Q1020=
200808302320 METAR ESMX 302320Z AUTO VRB02KT 9999NDV NCD 12/09 Q1020=
200808302250 METAR ESMX 302250Z AUTO 28003KT 9999NDV SCT063/// 12/09 Q1020=
200808302220 METAR ESMX 302220Z AUTO 27004KT 9999NDV BKN063/// 13/09 Q1021=
200808302150 METAR ESMX 302150Z AUTO VRB02KT 9999NDV OVC063/// 14/10 Q1021=
200808302120 METAR ESMX 302120Z AUTO 27004KT 9999NDV OVC063/// 14/10 Q1021=
200808302050 METAR ESMX 302050Z AUTO 27003KT 9999NDV OVC065/// 15/10 Q1021=
200808302020 METAR ESMX 302020Z AUTO 27004KT 9999NDV OVC066/// 15/10 Q1020=
200808301950 METAR ESMX 301950Z AUTO 26004KT 9999NDV OVC066/// 15/10 Q1020=
200808301920 METAR ESMX 301920Z AUTO 27005KT 9999NDV OVC069/// 15/10 Q1020=
200808301850 METAR ESMX 301850Z AUTO 26005KT 9999NDV OVC070/// 15/09 Q1020=
200808301820 METAR ESMX 301820Z AUTO 25004KT 9999NDV OVC070/// 16/08 Q1020=
200808301750 METAR ESMX 301750Z AUTO 26003KT 9999NDV BKN073/// 17/08 Q1020=
200808301720 METAR ESMX 301720Z AUTO 26004KT 230V300 9999NDV FEW073/// 18/08 Q1020=
200808301650 METAR ESMX 301650Z AUTO 28004KT 250V340 9999NDV OVC069/// 20/07 Q1020=
200808301620 METAR ESMX 301620Z AUTO 29003KT 9999NDV OVC067/// 19/08 Q1020=
200808301550 METAR ESMX 301550Z AUTO 34004KT 290V030 9999NDV OVC062/// 20/07 Q1020=
200808301520 METAR ESMX 301520Z AUTO 32004KT 290V360 9999NDV OVC071/// 19/08 Q1020=
200808301450 METAR ESMX 301450Z AUTO 30005KT 260V330 9999NDV BKN065/// 19/07 Q1020=
200808301420 METAR ESMX 301420Z AUTO 33006KT 9999NDV NCD 20/06 Q1021=
200808301350 METAR ESMX 301350Z AUTO 01006KT 9999NDV NCD 19/06 Q1021=
200808301320 METAR ESMX 301320Z AUTO 31007KT 280V340 9999NDV FEW060/// 20/06 Q1021=
200808301250 METAR ESMX 301250Z AUTO 34006KT 9999NDV NCD 18/06 Q1021=
200808301220 METAR ESMX 301220Z AUTO 33007KT 290V020 9999NDV FEW056/// 19/06 Q1021=
200808301150 METAR ESMX 301150Z AUTO 33006KT 290V010 9999NDV FEW053/// 20/06 Q1021=
200808301120 METAR ESMX 301120Z 34007KT 280V030 CAVOK 19/07 Q1021=
200808301050 METAR ESMX 301050Z 34008KT CAVOK 19/06 Q1021=
200808301020 METAR ESMX 301020Z 35008KT CAVOK 18/06 Q1021=
200808300950 METAR ESMX 300950Z 32007KT 280V010 CAVOK 18/05 Q1021=
200808300920 METAR ESMX 300920Z 34008KT 310V010 CAVOK 18/07 Q1021=
200808300850 METAR ESMX 300850Z 31008KT CAVOK 17/07 Q1022=
200808300820 METAR ESMX 300820Z AUTO 35007KT 320V020 9999NDV NCD 16/07 Q1021=
200808300750 METAR ESMX 300750Z AUTO 34005KT 290V010 9999NDV NCD 15/08 Q1021=
200808300720 METAR ESMX 300720Z AUTO 28003KT 230V320 9999NDV NCD 14/09 Q1021=
200808300650 METAR ESMX 300650Z AUTO 32004KT 300V010 9999NDV NCD 12/09 Q1021=
200808300620 METAR ESMX 300620Z AUTO 30003KT 270V330 9999NDV NCD 12/08 Q1021=
200808300550 METAR ESMX 300550Z AUTO VRB02KT 9999NDV NCD 09/08 Q1021=
200808300520 METAR ESMX 300520Z AUTO 00000KT 9999NDV NCD 07/07 Q1021=
200808300450 METAR ESMX 300450Z AUTO 28002KT 9999NDV NCD 05/04 Q1020=
200808300420 METAR ESMX 300420Z AUTO VRB01KT 9999NDV NCD 05/03 Q1020=
200808300350 METAR ESMX 300350Z AUTO 00000KT 9999NDV NCD 05/04 Q1020=
200808300320 METAR ESMX 300320Z AUTO 00000KT 9999NDV NCD 06/06 Q1020=
200808300250 METAR ESMX 300250Z AUTO 28003KT 9999NDV NCD 05/04 Q1020=
200808300220 METAR ESMX 300220Z AUTO 00000KT 9999NDV NCD 06/06 Q1020=
200808300150 METAR ESMX 300150Z AUTO VRB02KT 9999NDV NCD 06/05 Q1020=
200808300120 METAR ESMX 300120Z AUTO 28002KT 9999NDV NCD 07/06 Q1019=
200808300050 METAR ESMX 300050Z AUTO VRB02KT 9999NDV NCD 06/05 Q1019=
200808300020 METAR ESMX 300020Z AUTO 00000KT 9999NDV NCD 06/05 Q1019=
200808292350 METAR ESMX 292350Z AUTO 00000KT 9999NDV NCD 06/05 Q1019=
200808292320 METAR ESMX 292320Z AUTO 00000KT 9999NDV NCD 06/05 Q1019=
200808292250 METAR ESMX 292250Z AUTO VRB01KT 9999NDV NCD 08/07 Q1019=
200808292220 METAR ESMX 292220Z AUTO VRB02KT 9999NDV NCD 08/07 Q1018=
200808292150 METAR ESMX 292150Z AUTO VRB01KT 9999NDV NCD 09/07 Q1018=
200808292120 METAR ESMX 292120Z AUTO VRB02KT 9999NDV NCD 08/07 Q1018=
200808292050 METAR ESMX 292050Z AUTO 00000KT 9999NDV NCD 10/08 Q1018=
200808292020 METAR ESMX 292020Z AUTO 30003KT 9999NDV NCD 09/08 Q1017=
200808291950 METAR ESMX 291950Z AUTO 31003KT 9999NDV NCD 10/08 Q1017=
200808291920 METAR ESMX 291920Z AUTO 33005KT 9999NDV FEW064/// 11/08 Q1017=
200808291850 METAR ESMX 291850Z AUTO 34005KT 9999NDV SCT054/// 13/08 Q1016=
200808291820 METAR ESMX 291820Z 35007KT 9999 SCT039 BKN063 15/09 Q1016=
200808291750 METAR ESMX 291750Z 36007KT CAVOK 15/09 Q1015=
200808291720 METAR ESMX 291720Z 36007KT CAVOK 16/08 Q1015=
200808291650 METAR ESMX 291650Z 01008KT CAVOK 16/07 Q1014=
200808291620 METAR ESMX 291620Z 35009KT CAVOK 16/07 Q1014=
200808291550 METAR ESMX 291550Z 35010KT 9999 SCT045 17/07 Q1013=
200808291520 METAR ESMX 291520Z 34011KT 9999 FEW045 17/07 Q1013=
200808291450 METAR ESMX 291450Z 35012KT 9999 FEW046 SCT058 17/08 Q1013=
200808291420 METAR ESMX 291420Z 36011KT 9999 FEW045 SCT055 16/07 Q1013=
200808291350 METAR ESMX 291350Z 36012KT 310V030 9999 SCT045 18/07 Q1012=
200808291250 METAR ESMX 291250Z 34012KT 320V020 9999 FEW043 18/07 Q1012=
200808291220 METAR ESMX 291220Z 32013KT 9999 FEW042 17/07 Q1011=
200808291120 METAR ESMX 291120Z 34012KT 300V020 9999 FEW040 17/08 Q1011=
200808291050 METAR ESMX 291050Z 33013KT 9999 FEW037 17/08 Q1011=
200808291020 METAR ESMX 291020Z 34010KT 290V010 9999 FEW035 17/09 Q1010=
200808290920 METAR ESMX 290920Z 32010KT 290V350 9999 FEW029 16/09 Q1010=
200808290850 METAR ESMX 290850Z 32009KT 300V010 9999 FEW030 16/08 Q1010=
200808290820 METAR ESMX 290820Z 32007KT 9999 FEW020 15/10 Q1010=
200808290750 METAR ESMX 290750Z 32006KT 280V360 9999 FEW015 15/09 Q1009=
200808290720 METAR ESMX 290720Z 32006KT 9999 FEW015 14/10 Q1009=
200808290650 METAR ESMX 290650Z 36006KT 9999 FEW012 14/11 Q1009=
200808290620 METAR ESMX 290620Z 29004KT 9999 FEW008 SCT009 13/11 Q1008=
200808290550 METAR ESMX 290550Z 30005KT 9999 SCT009 BKN011 12/11 Q1008=
200808290520 METAR ESMX 290520Z 33007KT 300V010 9999 OVC006 12/11 Q1008=
200808290450 METAR ESMX 290450Z 32006KT 9999 OVC006 12/11 Q1008=
200808290420 METAR ESMX 290420Z 31005KT 9999 OVC006 12/10 Q1008=
200808290350 METAR ESMX 290350Z 32006KT 9999 BKN006 BKN009 12/11 Q1007=
200808290320 METAR ESMX 290320Z AUTO 32005KT 290V350 9999NDV OVC005/// 12/11 Q1008=
200808290250 METAR ESMX 290250Z AUTO VRB02KT 9999NDV SCT006/// 11/10 Q1007=
200808290220 METAR ESMX 290220Z AUTO 26003KT 220V290 9999NDV NCD 11/10 Q1007=
200808290150 METAR ESMX 290150Z AUTO 26004KT 9999NDV NCD 11/10 Q1007=
200808290120 METAR ESMX 290120Z AUTO 25004KT 9999NDV NCD 11/10 Q1007=
200808290050 METAR ESMX 290050Z AUTO 26003KT 9999NDV NCD 11/10 Q1007=
200808290020 METAR ESMX 290020Z AUTO 26003KT 9999NDV NCD 11/10 Q1008=
200808282350 METAR ESMX 282350Z AUTO 27003KT 9999NDV SCT110/// 11/10 Q1008=
200808282320 METAR ESMX 282320Z 24004KT 210V280 9999 FEW014 11/10 Q1008=
200808282250 METAR ESMX 282250Z 24004KT 200V280 9999 FEW014 11/10 Q1008=
200808282220 METAR ESMX 282220Z 22004KT 9999 FEW015 11/10 Q1008=
200808282150 METAR ESMX 282150Z 24003KT 210V290 CAVOK 11/10 Q1008=
200808282120 METAR ESMX 282120Z 25006KT CAVOK 11/10 Q1008=
200808282050 METAR ESMX 282050Z 25007KT CAVOK 11/10 Q1008=
200808282020 METAR ESMX 282020Z 25007KT 220V290 CAVOK 12/10 Q1008=
200808281950 METAR ESMX 281950Z 26008KT CAVOK 12/10 Q1008=
200808281920 METAR ESMX 281920Z 26007KT 9999 FEW047 13/10 Q1008=
200808281850 METAR ESMX 281850Z 25006KT 9999 SCT046 14/10 Q1008=
200808281820 METAR ESMX 281820Z 25006KT 9999 FEW035 SCT049 13/10 Q1008=
200808281750 METAR ESMX 281750Z 26008KT 220V290 9999 FEW033 14/10 Q1008=
200808281720 METAR ESMX 281720Z 26009KT 9999 FEW029 14/09 Q1008=
200808281650 METAR ESMX 281650Z 27011KT 240V310 9999 FEW033 15/09 Q1008=
200808281620 METAR ESMX 281620Z 26010KT 220V290 9999 FEW035 15/08 Q1008=
200808281550 METAR ESMX 281550Z 26014KT 9999 FEW038 16/08 Q1008=
200808281520 METAR ESMX 281520Z 26012KT 9999 FEW042 16/09 Q1008=
200808281450 METAR ESMX 281450Z 26012G23KT 9999 FEW041 16/08 Q1008=
200808281420 METAR ESMX 281420Z 27013G23KT 230V300 9999 FEW035 16/09 Q1008=
200808281350 METAR ESMX 281350Z 27016KT 9999 FEW039 17/09 Q1008=
200808281320 METAR ESMX 281320Z 28016KT 9999 FEW032 SCT056 16/08 Q1008=
200808281250 METAR ESMX 281250Z 25012KT 220V290 9999 FEW032 SCT061 17/09 Q1007=
200808281220 METAR ESMX 281220Z 27012KT 240V310 9999 SCT033 16/10 Q1008=
200808281150 METAR ESMX 281150Z 26012KT 230V290 9999 SCT034 BKN045 16/10 Q1007=
200808281120 METAR ESMX 281120Z 27014G25KT 230V300 9999 FEW030 SCT039 16/09 Q1007=
200808281050 METAR ESMX 281050Z 27014KT 230V300 9999 SCT035 BKN055 16/09 Q1007=
200808281020 METAR ESMX 281020Z 26009KT 210V300 9999 FEW014 SCT037 BKN045 15/11 Q1007=
200808280950 METAR ESMX 280950Z 25012KT 9999 FEW025 SCT045 15/11 Q1007=
200808280920 METAR ESMX 280920Z 25009KT 210V290 9999 BKN030 15/11 Q1007=
200808280850 METAR ESMX 280850Z 27010KT 220V300 9999 SCT024 BKN045 15/10 Q1007 RERA REDZ=
200808280820 METAR ESMX 280820Z 26012KT 9999 SCT025 BKN047 15/10 Q1007=
200808280750 METAR ESMX 280750Z 27011KT 230V290 9999 FEW022 SCT027 BKN032 15/11 Q1007=
200808280720 METAR ESMX 280720Z 26011KT 230V290 9999 FEW022 SCT027 BKN039 14/11 Q1007=
200808280650 METAR ESMX 280650Z 24011KT 200V270 9999 -SHRA FEW018 SCT023 BKN034 13/11 Q1007=
200808280620 METAR ESMX 280620Z 25013KT 220V290 9999 FEW017 SCT023 OVC043 13/11 Q1007=
200808280550 METAR ESMX 280550Z 24010KT 9999 FEW014 SCT021 BKN027 13/11 Q1007=
200808280520 METAR ESMX 280520Z 24009KT 200V270 9999 SCT016 BKN056 13/11 Q1007=
200808280450 METAR ESMX 280450Z 24008KT 200V260 9999 SCT017 13/11 Q1007=
200808280420 METAR ESMX 280420Z 24010KT 9999 FEW021 SCT046 13/11 Q1007=
200808280350 METAR ESMX 280350Z 26011KT 230V300 9999 FEW013 SCT038 13/11 Q1006=
200808280320 METAR ESMX 280320Z 26012KT 9999 FEW012 SCT017 BKN032 14/12 Q1006 RERA REDZ=
200808280250 METAR ESMX 280250Z AUTO 25010KT 220V290 6000NDV BR FEW010/// BKN013/// OVC018/// 14/13 Q1006=
200808280220 METAR ESMX 280220Z AUTO 25010KT 200V280 9999NDV FEW013/// SCT017/// BKN019/// 14/13 Q1006=
200808280150 METAR ESMX 280150Z AUTO 26011KT 9999NDV FEW012/// SCT018/// BKN041/// 15/13 Q1007=
200808280120 METAR ESMX 280120Z AUTO 25010KT 9999NDV FEW011/// SCT016/// BKN041/// 15/13 Q1007=
200808280050 METAR ESMX 280050Z AUTO 25008KT 230V290 9000NDV FEW008/// SCT014/// BKN025/// 15/14 Q1007 RERA REDZ=
200808280020 METAR ESMX 280020Z AUTO 23009KT 190V270 4500NDV RA FEW008/// OVC010/// 15/14 Q1007=
200808272350 METAR ESMX 272350Z AUTO 25010KT 220V290 9999NDV FEW007/// SCT011/// BKN016/// 15/14 Q1007=
200808272320 METAR ESMX 272320Z 25009KT 220V290 9999 FEW007 SCT009 BKN013 15/14 Q1007 REDZ=
200808272250 METAR ESMX 272250Z 24009KT 210V270 3100 DZ FEW005 SCT006 BKN008 15/14 Q1007 RERA=
200808272150 METAR ESMX 272150Z 25008KT 210V280 9999 FEW009 BKN010 OVC019 16/14 Q1008=
200808272120 METAR ESMX 272120Z 25009KT 220V290 9999 FEW008 BKN012 OVC019 16/14 Q1008=
200808272050 METAR ESMX 272050Z 24010KT 210V270 9999 FEW004 SCT007 BKN009 16/15 Q1008 REDZ RERA=
200808272020 METAR ESMX 272020Z 23010KT 200V260 3400 +DZ FEW007 SCT010 BKN014 16/15 Q1008 RERA=
200808271950 METAR ESMX 271950Z 23011KT 200V260 5000 DZ FEW006 SCT009 BKN012 16/15 Q1008 RERA=
200808271920 METAR ESMX 271920Z 23010KT 190V250 8000 -DZ FEW007 SCT009 BKN011 16/15 Q1008 RERA=
200808271850 METAR ESMX 271850Z 23010KT 9000 FEW008 BKN010 OVC014 16/15 Q1008 RERA REDZ=
200808271820 METAR ESMX 271820Z 23010KT 9999 FEW007 BKN010 OVC014 16/15 Q1009 RERA=
200808271750 METAR ESMX 271750Z 23009KT 200V280 9000 -RA FEW009 BKN013 OVC019 16/15 Q1009 REDZ=
200808271720 METAR ESMX 271720Z 22011KT 190V260 9999 FEW006 BKN010 16/15 Q1009=
200808271650 METAR ESMX 271650Z 22008KT 9999 FEW006 BKN010 16/16 Q1009=
200808271620 METAR ESMX 271620Z 22007KT 6000 -RA BR FEW005 BKN008 16/16 Q1010=
200808271550 METAR ESMX 271550Z 24006KT 7000 -RA BR FEW006 SCT009 BKN028 16/15 Q1010=
200808271520 METAR ESMX 271520Z 22009KT 190V250 4300 RA BR FEW006 BKN010 16/15 Q1010=
200808271450 METAR ESMX 271450Z 23009KT 2700 RA BR SCT008 BKN028 17/16 Q1010=
200808271420 METAR ESMX 271420Z 23009KT 9999 FEW011 BKN025 18/16 Q1011=
200808271350 METAR ESMX 271350Z 24008KT 9999 FEW012 BKN031 18/16 Q1011=
200808271320 METAR ESMX 271320Z 24008KT 9999 FEW008 BKN039 18/16 Q1011=
200808271250 METAR ESMX 271250Z 24008KT 200V270 9999 FEW007 BKN013 18/17 Q1011=
200808271220 METAR ESMX 271220Z 22008KT 180V250 3100 -RA FEW006 SCT008 BKN009 17/16 Q1012=
200808271150 METAR ESMX 271150Z 23010KT 9999 SCT006 BKN010 17/16 Q1012=
200808271120 METAR ESMX 271120Z 22008KT 8000 BR FEW003 SCT005 BKN006 17/16 Q1012=
200808271050 METAR ESMX 271050Z 20007KT 2600 -RA BR SCT005 BKN008 OVC011 17/16 Q1012=
200808271020 METAR ESMX 271020Z 21007KT 3100 BR FEW004 BKN010 17/16 Q1012=
200808270950 METAR ESMX 270950Z 21007KT 170V240 9999 -RA FEW004 SCT005 BKN007 17/16 Q1012=
200808270920 METAR ESMX 270920Z 21007KT 3000 BR FEW004 SCT006 BKN007 17/16 Q1013 RERA=
200808270850 METAR ESMX 270850Z 21006KT 9999 FEW002 OVC010 16/15 Q1013 RERA=
200808270820 METAR ESMX 270820Z 19004KT 160V220 5000 -RA BR FEW002 SCT003 OVC005 15/14 Q1013=
200808270750 METAR ESMX 270750Z 22004KT 2300 -RA BR FEW003 SCT005 BKN009 15/14 Q1013=
200808270720 METAR ESMX 270720Z 21005KT 2000 -RA BR FEW006 OVC012 15/14 Q1013=
200808270650 METAR ESMX 270650Z 20007KT 9000 BR FEW004 SCT015 BKN020 15/14 Q1013 RERA=
200808270620 METAR ESMX 270620Z 21005KT 8000 -RA BR FEW005 SCT022 BKN037 15/14 Q1014=
200808270550 METAR ESMX 270550Z 22004KT 7000 -RA BR FEW040 BKN060 14/14 Q1014=
200808270520 METAR ESMX 270520Z 20006KT 7000 -RA BR FEW040 BKN060 14/13 Q1014 REDZ=
200808270450 METAR ESMX 270450Z 21005KT 9999 DZ SCT040 OVC054 14/13 Q1014=
200808270420 METAR ESMX 270420Z 21004KT 9999 FEW039 SCT057 BKN071 14/13 Q1014=
200808270350 METAR ESMX 270350Z 23005KT 9999 SCT040 BKN110 14/13 Q1014=
200808270320 METAR ESMX 270320Z AUTO 23006KT 9999NDV FEW015/// SCT029/// BKN035/// 14/13 Q1014=
200808270250 METAR ESMX 270250Z AUTO 24004KT 210V270 9999NDV FEW014/// SCT026/// BKN041/// 14/13 Q1014=
200808270220 METAR ESMX 270220Z AUTO 23005KT 9999NDV FEW008/// SCT015/// BKN018/// 14/13 Q1015=
200808270150 METAR ESMX 270150Z AUTO 20005KT 9999NDV FEW016/// OVC039/// 14/13 Q1015=
200808270120 METAR ESMX 270120Z AUTO 22006KT 9999NDV FEW026/// SCT033/// BKN045/// 14/13 Q1015=
200808270050 METAR ESMX 270050Z AUTO 21006KT 9000NDV FEW029/// OVC038/// 14/13 Q1015=
200808270020 METAR ESMX 270020Z AUTO 21005KT 9999NDV FEW040/// OVC049/// 14/13 Q1015=
200808262350 METAR ESMX 262350Z 21006KT 9999 FEW040 SCT050 13/13 Q1015=
200808262320 METAR ESMX 262320Z 21005KT 9999 FEW035 13/12 Q1015=
200808262250 METAR ESMX 262250Z 22004KT 9999 SCT032 13/13 Q1015=
200808262220 METAR ESMX 262220Z 19004KT 9999 FEW035 13/12 Q1015=
200808262150 METAR ESMX 262150Z 21005KT 9999 FEW037 13/13 Q1015=
200808262120 METAR ESMX 262120Z 20005KT CAVOK 13/13 Q1015=
200808262050 METAR ESMX 262050Z 19006KT 9999 FEW042 14/13 Q1015=
200808262020 METAR ESMX 262020Z 20006KT 9999 FEW040 13/12 Q1015=
200808261950 METAR ESMX 261950Z 22005KT CAVOK 13/12 Q1015=
200808261920 METAR ESMX 261920Z 23004KT CAVOK 14/12 Q1015=
200808261850 METAR ESMX 261850Z 25005KT 9999 FEW029 15/13 Q1015=
200808261820 METAR ESMX 261820Z 23007KT 9999 FEW025 16/14 Q1015=
200808261750 METAR ESMX 261750Z 24006KT 9999 FEW016 SCT024 17/15 Q1015=
200808261720 METAR ESMX 261720Z 24007KT 9999 FEW017 BKN058 18/16 Q1015=
200808261650 METAR ESMX 261650Z 24005KT 210V290 9999 SCT016 BKN060 18/16 Q1015=
200808261620 METAR ESMX 261620Z 23008KT 9999 FEW015 SCT019 18/16 Q1015=
200808261550 METAR ESMX 261550Z 24008KT 200V270 9999 FEW009 SCT014 BKN018 18/16 Q1014=
200808261520 METAR ESMX 261520Z 23009KT 200V260 9999 FEW009 SCT016 BKN057 18/16 Q1014=
200808261450 METAR ESMX 261450Z 26007KT 9999 -RA FEW003 SCT005 BKN007 17/16 Q1014=
200808261420 METAR ESMX 261420Z 20008KT 2500 DZ BR OVC004 17/16 Q1014=
200808261350 METAR ESMX 261350Z 19009KT 4000 BR FEW004 BKN005 OVC007 16/16 Q1014=
200808261320 METAR ESMX 261320Z 18008KT 150V210 5000 BR FEW005 SCT007 BKN009 16/15 Q1014 REDZ RERA=
200808261250 METAR ESMX 261250Z 18009KT 4000 DZ BR OVC008 17/15 Q1015 RERA=
200808261220 METAR ESMX 261220Z 19007KT 8000 BR FEW007 OVC010 17/15 Q1015=
200808261150 METAR ESMX 261150Z 17007KT 8000 BR OVC008 16/15 Q1015=
200808261120 METAR ESMX 261120Z 19009KT 9000 BR FEW010 BKN013 16/14 Q1015=
200808261050 METAR ESMX 261050Z 20008KT 9999 FEW008 SCT014 BKN017 17/14 Q1015=
200808261020 METAR ESMX 261020Z 19008KT 9999 BKN010 16/15 Q1015 RERA=
200808260950 METAR ESMX 260950Z 20008KT 9999 FEW008 BKN011 16/14 Q1015=
200808260920 METAR ESMX 260920Z 19007KT 160V230 9999 BR FEW006 SCT010 BKN047 16/14 Q1015=
200808260850 METAR ESMX 260850Z 20007KT 6000 BR BKN005 15/14 Q1015=
200808260820 METAR ESMX 260820Z 20007KT 3900 BR OVC003 14/14 Q1015=
200808260750 METAR ESMX 260750Z 20006KT 3000 OVC002 14/14 Q1015=
200808260720 METAR ESMX 260720Z 19004KT 1800 OVC001 14/13 Q1015=
200808260650 METAR ESMX 260650Z 20004KT 170V240 1000 R01/1400N R19/P2000N BR OVC001 13/13 Q1015 REDZ=
200808260620 METAR ESMX 260620Z 21004KT 0900 R01/1300N R19/1900N BCFG BKN001 13/13 Q1015=
200808260550 METAR ESMX 260550Z 21005KT 1100 R01/1000VP2000U R19/1800U BR BKN001 13/13 Q1015=
200808260520 METAR ESMX 260520Z 22005KT 0900 R01/1000VP2000D R19/P2000N BCFG BKN001 13/12 Q1015=
200808260450 METAR ESMX 260450Z 21004KT 2900 BR BKN031 13/12 Q1015=
200808260420 METAR ESMX 260420Z 22005KT 4000 BR BKN030 12/12 Q1015=
200808260350 METAR ESMX 260350Z 19004KT 3000 BR BKN030 12/11 Q1015=
200808260320 METAR ESMX 260320Z AUTO 21004KT 0900NDV R01/P2000D R19/P2000U BR SCT031/// 11/11 Q1015=
200808260250 METAR ESMX 260250Z AUTO 22004KT 0900NDV R01/P2000D R19/P2000D BR FEW051/// 11/10 Q1015=
200808260220 METAR ESMX 260220Z AUTO 22004KT 7000NDV BR BKN045/// 11/11 Q1015=
200808260150 METAR ESMX 260150Z AUTO 22004KT 9000NDV OVC045/// 12/11 Q1015=
200808260120 METAR ESMX 260120Z AUTO 21004KT 9999NDV OVC052/// 12/11 Q1015=
200808260050 METAR ESMX 260050Z AUTO 19002KT 5000NDV BR BKN050/// 11/10 Q1015=
200808260020 METAR ESMX 260020Z 00000KT 9999 MIFG NSC 10/09 Q1014=
200808252350 METAR ESMX 252350Z VRB02KT 9000 BR NSC 10/09 Q1014=
200808252320 METAR ESMX 252320Z VRB01KT 9000 BR NSC 11/10 Q1014=
200808252150 METAR ESMX 252150Z 25004KT CAVOK 12/11 Q1014=
200808252120 METAR ESMX 252120Z 25003KT CAVOK 13/11 Q1014=
200808252050 METAR ESMX 252050Z 26003KT CAVOK 13/11 Q1014=
200808252020 METAR ESMX 252020Z 24005KT CAVOK 13/11 Q1014=
200808251950 METAR ESMX 251950Z 25002KT CAVOK 14/11 Q1014=
200808251920 METAR ESMX 251920Z 25004KT CAVOK 14/12 Q1014=
200808251850 METAR ESMX 251850Z 25003KT 230V300 CAVOK 14/12 Q1014=
200808251820 METAR ESMX 251820Z 25002KT CAVOK 16/12 Q1013=
200808251750 METAR ESMX 251750Z 28002KT CAVOK 17/12 Q1013=
200808251720 METAR ESMX 251720Z 26003KT CAVOK 18/11 Q1013=
200808251650 METAR ESMX 251650Z 28003KT CAVOK 20/08 Q1013=
200808251620 METAR ESMX 251620Z 28004KT 250V320 CAVOK 19/08 Q1013=
200808251550 METAR ESMX 251550Z 31004KT CAVOK 21/07 Q1013=
200808251520 METAR ESMX 251520Z 30004KT 210V350 CAVOK 21/06 Q1013=
200808251450 METAR ESMX 251450Z 32005KT 270V010 9999 FEW048 21/07 Q1013=
200808251420 METAR ESMX 251420Z 29005KT 260V330 9999 FEW048 21/05 Q1013=
200808251350 METAR ESMX 251350Z 25005KT 220V290 9999 FEW048 21/08 Q1013=
200808251320 METAR ESMX 251320Z 25005KT 200V320 9999 FEW045 21/09 Q1013=
200808251250 METAR ESMX 251250Z 29004KT 230V020 9999 SCT045 21/10 Q1013=
200808251220 METAR ESMX 251220Z 34005KT 320V030 9999 SCT046 21/09 Q1013=
200808251150 METAR ESMX 251150Z VRB03KT 9999 SCT045 21/10 Q1013=
200808251120 METAR ESMX 251120Z VRB03KT 9999 SCT046 20/10 Q1013=
200808251050 METAR ESMX 251050Z 35003KT 250V050 9999 SCT043 18/09 Q1013=
200808251020 METAR ESMX 251020Z 36003KT 320V110 CAVOK 18/09 Q1013=
200808250950 METAR ESMX 250950Z VRB03KT 9999 SCT037 19/08 Q1013=
200808250920 METAR ESMX 250920Z VRB02KT CAVOK 19/09 Q1013=
200808250850 METAR ESMX 250850Z VRB02KT CAVOK 18/11 Q1013=
200808250820 METAR ESMX 250820Z 34004KT 290V020 CAVOK 17/11 Q1013=
200808250750 METAR ESMX 250750Z VRB02KT CAVOK 16/11 Q1013=
200808250720 METAR ESMX 250720Z VRB02KT CAVOK 14/12 Q1013=
200808250650 METAR ESMX 250650Z 00000KT CAVOK 12/12 Q1013=
200808250620 METAR ESMX 250620Z 00000KT CAVOK 12/11 Q1012=
200808250550 METAR ESMX 250550Z 00000KT CAVOK 10/09 Q1012=
200808250520 METAR ESMX 250520Z VRB02KT 0650 R01/0750V1100D R19/P2000D BCFG FEW001 08/08 Q1012=
200808250450 METAR ESMX 250450Z 00000KT 0050 R01/M0150N R19/0150V0350D FG FEW001 07/07 Q1012=
200808250420 METAR ESMX 250420Z 00000KT 0650 R01/1100VP2000 R19/P2000U FG NSC 05/05 Q1012=
200808250352 METAR COR ESMX 250352Z 00000KT 0300 R01/0450V1300U R19/0650V1100 FG NSC 06/05 Q1012=
200808250320 METAR ESMX 250320Z AUTO 00000KT 0200NDV R01/0800 R19/0650 FG NCD 06/05 Q1012=
200808250250 METAR ESMX 250250Z AUTO 00000KT 0100NDV R01/0300 R19/0650 BCFG NCD 06/06 Q1012=
200808250220 METAR ESMX 250220Z AUTO 00000KT 0550NDV R01/P2000 R19/P2000U FG NCD 06/05 Q1012=
200808250150 METAR ESMX 250150Z AUTO 00000KT 0800NDV R01/P2000D R19/P2000D FG FEW001/// 07/06 Q1012=
200808250120 METAR ESMX 250120Z AUTO 00000KT 0350NDV R01/P2000 R19/P2000U BCFG NCD 07/06 Q1012=
200808250050 METAR ESMX 250050Z AUTO 00000KT 0300NDV R01/0800V1800U R19/P2000U BCFG FEW043/// 07/06 Q1012=
200808250020 METAR ESMX 250020Z 00000KT 0250 R01/0500VP2000D R19/P2000D BCFG SCT050 07/07 Q1012=
200808242350 METAR ESMX 242350Z 00000KT 0300 R01/0700V1600U R19/P2000D FG FEW047 08/07 Q1012=
200808242320 METAR ESMX 242320Z 00000KT 0900 BCFG FEW040 08/07 Q1012=
200808242250 METAR ESMX 242250Z 00000KT 6000 BCFG FEW040 09/08 Q1011=
200808242220 METAR ESMX 242220Z 00000KT CAVOK 10/09 Q1011=
200808242150 METAR ESMX 242150Z 16003KT CAVOK 10/10 Q1011=
200808242120 METAR ESMX 242120Z 00000KT CAVOK 11/10 Q1011=
200808242050 METAR ESMX 242050Z VRB01KT 9999 FEW042 12/11 Q1011=
200808242020 METAR ESMX 242020Z 00000KT CAVOK 13/12 Q1011=
200808241950 METAR ESMX 241950Z 00000KT CAVOK 13/12 Q1011=
200808241920 METAR ESMX 241920Z 00000KT CAVOK 14/12 Q1011=
200808241850 METAR ESMX 241850Z 00000KT CAVOK 14/12 Q1011=
200808241820 METAR ESMX 241820Z 00000KT CAVOK 15/13 Q1010=
200808241750 METAR ESMX 241750Z 00000KT CAVOK 16/13 Q1010=
200808241720 METAR ESMX 241720Z 21001KT CAVOK 16/12 Q1010=
200808241620 METAR ESMX 241620Z 00000KT CAVOK 15/11 Q1010=
200808241550 METAR ESMX 241550Z VRB02KT CAVOK 17/10 Q1010=
200808241520 METAR ESMX 241520Z VRB02KT CAVOK 18/10 Q1010=
200808241450 METAR ESMX 241450Z 02004KT 350V070 CAVOK 19/10 Q1010=
200808241420 METAR ESMX 241420Z 01003KT 280V060 CAVOK 18/10 Q1010=
200808241350 METAR ESMX 241350Z VRB02KT CAVOK 18/10 Q1009=
200808241320 METAR ESMX 241320Z 36004KT CAVOK 17/09 Q1009=
200808241250 METAR ESMX 241250Z AUTO 36005KT 330V040 9999NDV NCD 17/08 Q1009=
200808241220 METAR ESMX 241220Z AUTO 36007KT 320V030 9999NDV SCT068/// 17/09 Q1009=
200808241150 METAR ESMX 241150Z AUTO 05005KT 360V100 9999NDV SCT068/// BKN089/// 17/09 Q1009=
200808241120 METAR ESMX 241120Z AUTO 03005KT 340V080 9999NDV NCD 16/10 Q1009=
200808241050 METAR ESMX 241050Z AUTO 36006KT 9999NDV NCD 15/10 Q1009=
200808241020 METAR ESMX 241020Z AUTO 02006KT 9999NDV NCD 14/09 Q1009=
200808240950 METAR ESMX 240950Z AUTO 02007KT 9999NDV NCD 14/10 Q1009=
200808240920 METAR ESMX 240920Z AUTO 03007KT 360V080 9999NDV SCT013/// 14/10 Q1009=
200808240850 METAR ESMX 240850Z AUTO 04009KT 010V070 9999NDV BKN011/// 13/10 Q1009=
200808240820 METAR ESMX 240820Z AUTO 04009KT 020V080 9999NDV SCT011/// 14/10 Q1009=
200808240750 METAR ESMX 240750Z AUTO 03009KT 350V060 9999NDV FEW012/// 13/10 Q1008=
200808240720 METAR ESMX 240720Z AUTO 03010KT 350V060 9999NDV FEW010/// SCT091/// 14/11 Q1008=
200808240650 METAR ESMX 240650Z AUTO 01008KT 9999NDV FEW010/// SCT013/// 13/11 Q1008=
200808240620 METAR ESMX 240620Z AUTO 02008KT 9999NDV FEW008/// BKN009/// 13/11 Q1008=
200808240550 METAR ESMX 240550Z AUTO 02006KT 9999NDV BKN007/// 13/11 Q1008=
200808240520 METAR ESMX 240520Z AUTO 03006KT 9999NDV FEW007/// SCT008/// BKN011/// 13/11 Q1008=
200808240450 METAR ESMX 240450Z AUTO 04008KT 010V080 9999NDV BKN008/// OVC013/// 13/11 Q1008=
200808240420 METAR ESMX 240420Z AUTO 03007KT 360V080 9999NDV BKN008/// OVC013/// 13/11 Q1008=
200808240350 METAR ESMX 240350Z AUTO 03007KT 360V080 9999NDV SCT008/// BKN011/// OVC013/// 13/12 Q1007=
200808240320 METAR ESMX 240320Z AUTO 03008KT 9999NDV FEW008/// SCT010/// BKN013/// 13/12 Q1007=
200808240250 METAR ESMX 240250Z AUTO 02007KT 9999NDV FEW008/// BKN010/// OVC016/// 13/12 Q1007=
200808240220 METAR ESMX 240220Z AUTO 04008KT 9999NDV FEW008/// OVC010/// 13/12 Q1007=
200808240150 METAR ESMX 240150Z AUTO 03007KT 010V070 9999NDV FEW008/// BKN010/// OVC017/// 13/12 Q1007=
200808240120 METAR ESMX 240120Z AUTO 04007KT 9999NDV FEW006/// SCT007/// BKN009/// 13/12 Q1007=
200808240050 METAR ESMX 240050Z AUTO 03007KT 360V070 9999NDV OVC007/// 14/13 Q1007 REDZ=
200808240020 METAR ESMX 240020Z AUTO 02005KT 9999NDV DZ FEW006/// SCT008/// OVC010/// 14/13 Q1007 RERA=
200808232350 METAR ESMX 232350Z AUTO 03005KT 9999NDV FEW005/// SCT007/// BKN010/// 14/13 Q1007 REDZ REUP=
200808232320 METAR ESMX 232320Z AUTO 04008KT 9999NDV -DZ FEW007/// SCT008/// BKN010/// 14/13 Q1007 RERA=
200808232250 METAR ESMX 232250Z AUTO 03007KT 9999NDV -RA FEW007/// BKN009/// OVC012/// 14/13 Q1007 REDZ=
200808232220 METAR ESMX 232220Z AUTO 03007KT 010V070 9999NDV -RA FEW005/// SCT007/// BKN009/// 14/13 Q1007 REDZ=
200808232150 METAR ESMX 232150Z AUTO 02006KT 340V040 9999NDV DZ FEW006/// BKN007/// OVC010/// 14/13 Q1007 RERA=
200808232120 METAR ESMX 232120Z AUTO 03006KT 360V070 9999NDV DZ FEW005/// BKN009/// OVC014/// 14/13 Q1006 RERA=
200808232050 METAR ESMX 232050Z AUTO 02005KT 9999NDV DZ FEW006/// SCT011/// BKN017/// 14/13 Q1006=
200808232020 METAR ESMX 232020Z AUTO 02005KT 9999NDV -RA FEW007/// SCT073/// 14/13 Q1006 REDZ=
200808231950 METAR ESMX 231950Z AUTO 02006KT 9999NDV DZ FEW007/// BKN071/// 14/13 Q1006 RERA=
200808231920 METAR ESMX 231920Z AUTO 03005KT 9000NDV -RA FEW006/// SCT011/// 14/13 Q1006 REDZ=
200808231850 METAR ESMX 231850Z AUTO 02006KT 8000NDV -RA FEW009/// SCT070/// 14/13 Q1006=
200808231820 METAR ESMX 231820Z AUTO 01006KT 8000NDV -RA NCD 14/13 Q1006 REDZ=
200808231750 METAR ESMX 231750Z AUTO 03005KT 9000NDV -RA FEW007/// SCT009/// 14/13 Q1006 REDZ=
200808231720 METAR ESMX 231720Z AUTO 03004KT 350V060 9999NDV -RA FEW007/// 14/13 Q1006=
200808231650 METAR ESMX 231650Z AUTO 04005KT 9999NDV -RA FEW008/// 15/13 Q1006=
200808231620 METAR ESMX 231620Z AUTO 04005KT 360V080 9999NDV -RA NCD 15/13 Q1006=
200808231550 METAR ESMX 231550Z AUTO 06005KT 020V100 9999NDV -RA NCD 15/13 Q1006 REDZ=
200808231520 METAR ESMX 231520Z AUTO 06006KT 020V110 9999NDV -DZ FEW017/// 15/13 Q1006 RERA=
200808231450 METAR ESMX 231450Z AUTO 07006KT 020V110 9999NDV -DZ FEW012/// SCT020/// 16/13 Q1006 RERA=
200808231420 METAR ESMX 231420Z AUTO 07006KT 020V110 9999NDV BKN011/// 16/13 Q1006 REDZ=
200808231350 METAR ESMX 231350Z AUTO 06005KT 020V090 9999NDV -DZ NCD 16/14 Q1006 RERA=
200808231320 METAR ESMX 231320Z AUTO 03008KT 9999NDV -RA FEW017/// 17/13 Q1006=
200808231250 METAR ESMX 231250Z AUTO 04007KT 360V060 9999NDV NCD 17/13 Q1006=
200808231220 METAR ESMX 231220Z AUTO 05008KT 9999NDV SCT052/// 16/13 Q1006=
200808231150 METAR ESMX 231150Z AUTO 05007KT 010V100 9999NDV FEW015/// SCT044/// BKN054/// 16/13 Q1006=
200808231120 METAR ESMX 231120Z AUTO 05007KT 9999NDV FEW015/// SCT017/// BKN020/// 16/13 Q1006=
200808231050 METAR ESMX 231050Z 04007KT 360V100 9999 FEW013 SCT019 BKN027 16/13 Q1006=
200808231020 METAR ESMX 231020Z 03007KT 9999 FEW025 SCT110 16/13 Q1006=
200808230950 METAR ESMX 230950Z 05007KT 020V090 9999 FEW020 16/13 Q1007=
200808230920 METAR ESMX 230920Z 04006KT 360V080 9999 FEW021 16/13 Q1007=
200808230850 METAR ESMX 230850Z 04006KT 360V080 9999 FEW008 15/13 Q1007=
200808230820 METAR ESMX 230820Z 05005KT 020V110 9999 SCT006 15/13 Q1007=
200808230750 METAR ESMX 230750Z 04005KT 9999 SCT005 14/13 Q1007=
200808230720 METAR ESMX 230720Z AUTO 04005KT 9999NDV FEW005/// 14/13 Q1007=
200808230650 METAR ESMX 230650Z AUTO 04005KT 9999NDV FEW004/// 13/12 Q1007=
200808230620 METAR ESMX 230620Z AUTO 04005KT 9999NDV FEW005/// 12/12 Q1007=
200808230550 METAR ESMX 230550Z AUTO 03005KT 9999NDV NCD 12/11 Q1007=
200808230520 METAR ESMX 230520Z AUTO 04005KT 9999NDV NCD 12/11 Q1007=
200808230450 METAR ESMX 230450Z AUTO 03004KT 7000NDV NCD 11/11 Q1007=
200808230420 METAR ESMX 230420Z AUTO 04004KT 0800NDV R01/P2000U R19/P2000D NCD 11/11 Q1008=
200808230350 METAR ESMX 230350Z AUTO VRB02KT 2800NDV NCD 11/10 Q1008=
200808230320 METAR ESMX 230320Z AUTO 03001KT 1400NDV R01/P2000D R19/P2000U FEW002/// 08/08 Q1008=
200808230250 METAR ESMX 230250Z AUTO 05003KT 0700NDV R01/P2000U R19/P2000U BCFG FEW002/// 08/07 Q1008=
200808230220 METAR ESMX 230220Z AUTO 05002KT 0550NDV R01/P2000U R19/P2000U BCFG NCD 08/08 Q1009=
200808230150 METAR ESMX 230150Z AUTO 00000KT 2000NDV NCD 07/07 Q1009=
200808230120 METAR ESMX 230120Z AUTO 00000KT 0250NDV R01/0700V1100 R19/P2000U FG NCD 08/07 Q1009=
200808230050 METAR ESMX 230050Z AUTO 00000KT 0150NDV R01/0275V0550 R19/0350V0650 FG NCD 08/07 Q1009=
200808230020 METAR ESMX 230020Z AUTO 00000KT 1000NDV R01/P2000D R19/P2000U NCD 08/07 Q1009=
200808222350 METAR ESMX 222350Z AUTO 00000KT 1300NDV R01/P2000D R19/P2000U BCFG NCD 09/08 Q1010=
200808222320 METAR ESMX 222320Z AUTO 00000KT 0350NDV R01/P2000U R19/P2000D FG NCD 09/08 Q1010=
200808222250 METAR ESMX 222250Z AUTO 00000KT 1700NDV BR NCD 10/09 Q1010=
200808222220 METAR ESMX 222220Z AUTO 17001KT 9999NDV NCD 10/09 Q1010=
200808222150 METAR ESMX 222150Z AUTO 00000KT 5000NDV BR NCD 11/10 Q1010=
200808222120 METAR ESMX 222120Z AUTO 21003KT 6000NDV NCD 11/10 Q1010=
200808222050 METAR ESMX 222050Z AUTO 26002KT 9999NDV NCD 12/11 Q1010=
200808222020 METAR ESMX 222020Z AUTO 23003KT 9999NDV NCD 12/10 Q1010=
200808221950 METAR ESMX 221950Z AUTO 23003KT 9999NDV NCD 12/11 Q1010=
200808221920 METAR ESMX 221920Z AUTO 19003KT 9999NDV FEW035/// 14/11 Q1010=
200808221850 METAR ESMX 221850Z AUTO 22004KT 9999NDV FEW028/// 14/11 Q1010=
200808221820 METAR ESMX 221820Z 22003KT 9999 FEW038 16/12 Q1010=
200808221750 METAR ESMX 221750Z 25004KT 9999 FEW048 17/12 Q1010=
200808221720 METAR ESMX 221720Z 25003KT 220V290 9999 FEW035 18/12 Q1009=
200808221650 METAR ESMX 221650Z 25005KT 9999 FEW029 17/12 Q1010=
200808221620 METAR ESMX 221620Z 25005KT 210V290 9999 FEW035 18/12 Q1010=
200808221550 METAR ESMX 221550Z 25007KT 210V290 9999 FEW033 19/12 Q1010=
200808221520 METAR ESMX 221520Z 24007KT 9999 FEW032 19/12 Q1010=
200808221450 METAR ESMX 221450Z 20007KT 9999 FEW018 SCT025 18/14 Q1010=
200808221420 METAR ESMX 221420Z 19007KT 9999 FEW021 SCT027 19/14 Q1010=
200808221350 METAR ESMX 221350Z 19006KT 9999 FEW045 18/14 Q1010=
200808221320 METAR ESMX 221320Z 22007KT 9999 FEW046 SCT068 BKN085 18/12 Q1010=
200808221250 METAR ESMX 221250Z 22007KT 190V250 9999 FEW022 SCT081 18/13 Q1010=
200808221220 METAR ESMX 221220Z 25006KT 200V290 9999 FEW017 SCT080 17/13 Q1010=
200808221150 METAR ESMX 221150Z 21008KT 190V260 9999 VCSH FEW032 SCT051 BKN079 17/13 Q1010 RERA=
200808221050 METAR ESMX 221050Z 22007KT 170V260 9999 SCT022 BKN060 18/13 Q1010=
200808221020 METAR ESMX 221020Z 21006KT 9999 FEW022 SCT042 17/13 Q1010=
200808220950 METAR ESMX 220950Z 24006KT 9999 FEW022 SCT033 BKN044 17/13 Q1010 RERA=
200808220920 METAR ESMX 220920Z 23008KT 200V270 9999 SCT025 18/13 Q1010=
200808220850 METAR ESMX 220850Z 26005KT 220V290 9999 SCT018 17/13 Q1010=
200808220750 METAR ESMX 220750Z 23006KT 9999 FEW010 BKN018 16/13 Q1010=
200808220650 METAR ESMX 220650Z 23005KT 200V260 9999 FEW006 BKN010 15/13 Q1010=
200808220620 METAR ESMX 220620Z 21004KT 180V250 9999 BKN015 15/14 Q1010=
200808220550 METAR ESMX 220550Z 24005KT 9999 SCT004 OVC015 14/13 Q1010=
200808220520 METAR ESMX 220520Z 22004KT 9999 BKN005 BKN079 15/14 Q1010=
200808220420 METAR ESMX 220420Z 20006KT 9999 FEW005 BKN008 14/13 Q1010 REDZ=
200808220350 METAR ESMX 220350Z 22006KT 9999 -DZ FEW006 BKN010 14/13 Q1010 RERA=
200808220320 METAR ESMX 220320Z AUTO 20006KT 9999NDV -RA BKN006/// OVC010/// 14/13 Q1010 REDZ=
200808220250 METAR ESMX 220250Z AUTO 22004KT 9999NDV FEW007/// SCT008/// OVC011/// 14/13 Q1010=
200808220220 METAR ESMX 220220Z AUTO 23004KT 200V260 9999NDV BR FEW005/// SCT006/// BKN008/// 14/14 Q1010=
200808220150 METAR ESMX 220150Z AUTO 20005KT 7000NDV BR FEW005/// SCT007/// BKN009/// 14/13 Q1010 REDZ=
200808220120 METAR ESMX 220120Z AUTO 20004KT 9000NDV FEW008/// SCT012/// BKN076/// 14/13 Q1010 RERA REDZ=
200808220050 METAR ESMX 220050Z AUTO 20005KT 9999NDV FEW006/// SCT008/// OVC010/// 14/13 Q1010=
200808220020 METAR ESMX 220020Z AUTO 21005KT 170V230 9999NDV FEW006/// BKN007/// OVC010/// 14/13 Q1010=
200808212350 METAR ESMX 212350Z AUTO 22006KT 9000NDV BKN005/// OVC010/// 14/14 Q1011=
200808212320 METAR ESMX 212320Z 19005KT 9999 FEW011 SCT014 BKN078 14/13 Q1011=
200808212250 METAR ESMX 212250Z 18004KT 9000 FEW019 SCT080 14/13 Q1011=
200808212220 METAR ESMX 212220Z 17003KT 9999 FEW030 14/13 Q1011=
200808212150 METAR ESMX 212150Z 18004KT 9999 FEW017 14/12 Q1011=
200808212120 METAR ESMX 212120Z 18005KT CAVOK 14/13 Q1011=
200808212050 METAR ESMX 212050Z 19005KT CAVOK 14/12 Q1011=
200808212020 METAR ESMX 212020Z 21005KT CAVOK 14/12 Q1011=
200808211950 METAR ESMX 211950Z 20005KT 9999 FEW025 SCT080 14/12 Q1011=
200808211920 METAR ESMX 211920Z 21005KT 9999 FEW025 SCT070 14/12 Q1011=
200808211850 METAR ESMX 211850Z 21004KT 9999 FEW025 SCT070 15/12 Q1010=
200808211820 METAR ESMX 211820Z 24004KT 9999 FEW040 BKN087 16/13 Q1010=
200808211750 METAR ESMX 211750Z 25004KT 220V280 9999 FEW025 SCT040 16/13 Q1010=
200808211720 METAR ESMX 211720Z 25008KT 230V290 9999 FEW040 17/13 Q1010=
200808211650 METAR ESMX 211650Z 25008KT 220V290 9999 SCT030 17/13 Q1010=
200808211620 METAR ESMX 211620Z 25006KT 9999 FEW020 SCT050 17/14 Q1010=
200808211550 METAR ESMX 211550Z 26006KT 9999 FEW020CB SCT035 BKN084 17/15 Q1010 RERA REDZ=
200808211520 METAR ESMX 211520Z 24009KT 9999 SHRA FEW024 SCT033 BKN039 18/11 Q1010=
200808211450 METAR ESMX 211450Z 23012KT 9999 FEW029 SCT041 19/13 Q1010=
200808211420 METAR ESMX 211420Z 24012KT 210V280 9999 FEW037 BKN046 18/12 Q1010=
200808211350 METAR ESMX 211350Z 23010KT 200V270 9999 FEW038 SCT045 19/12 Q1009=
200808211320 METAR ESMX 211320Z 25011KT 190V290 9999 FEW041 SCT048 19/10 Q1009=
200808211250 METAR ESMX 211250Z 26012KT 210V290 9999 FEW045 20/09 Q1009=
200808211220 METAR ESMX 211220Z 25012G22KT 210V290 9999 FEW044 20/10 Q1009=
200808211150 METAR ESMX 211150Z 24013G23KT 200V280 9999 FEW045 20/10 Q1009=
200808211120 METAR ESMX 211120Z 25015KT 200V290 9999 FEW038 19/08 Q1009=
200808211050 METAR ESMX 211050Z 24014KT 200V270 9999 FEW038 19/10 Q1009=
200808211020 METAR ESMX 211020Z 24013KT 200V260 9999 BKN035 18/09 Q1009=
200808210950 METAR ESMX 210950Z 25011G21KT 9999 BKN032 18/10 Q1009=
200808210920 METAR ESMX 210920Z 23013KT 200V260 9999 FEW029 SCT035 17/10 Q1008=
200808210850 METAR ESMX 210850Z 23012KT 9999 FEW026 SCT035 17/12 Q1008=
200808210820 METAR ESMX 210820Z 24012KT 200V280 9999 FEW023 SCT027 BKN031 17/11 Q1008=
200808210750 METAR ESMX 210750Z 25010KT 210V280 9999 FEW023 SCT030 16/12 Q1008=
200808210720 METAR ESMX 210720Z 24010KT 170V270 9999 FEW017 SCT022 16/12 Q1008=
200808210650 METAR ESMX 210650Z 23009KT 200V260 9999 FEW012 SCT018 BKN022 16/13 Q1008=
200808210620 METAR ESMX 210620Z 23010KT 190V280 9999 FEW008 SCT011 BKN016 15/13 Q1007=
200808210538 METAR ESMX 210538Z 22008KT 190V250 9999 FEW008 SCT014 BKN017 14/13 Q1007=
200808210450 METAR ESMX 210450Z 21006KT 9999 FEW018 BKN024 14/13 Q1007=
200808210420 METAR ESMX 210420Z 22006KT 190V250 9999 SCT017 BKN025 14/13 Q1007=
200808210350 METAR ESMX 210350Z AUTO 22006KT 9999NDV FEW008/// SCT010/// BKN012/// 14/13 Q1006=
200808210320 METAR ESMX 210320Z AUTO 22007KT 9999NDV DZ FEW004/// SCT018/// BKN034/// 14/13 Q1006 RERA=
200808210250 METAR ESMX 210250Z AUTO 21007KT 3700NDV +DZ FEW005/// SCT014/// 14/13 Q1006 RERA=
200808210220 METAR ESMX 210220Z AUTO 21008KT 9999NDV FEW049/// SCT067/// 14/13 Q1006=
200808210150 METAR ESMX 210150Z AUTO 21009KT 9999NDV FEW010/// SCT041/// 14/12 Q1006 REDZ=
200808210120 METAR ESMX 210120Z AUTO 22008KT 9999NDV -RA FEW008/// BKN012/// BKN062/// 14/13 Q1006=
200808210050 METAR ESMX 210050Z AUTO 21009KT 9999NDV FEW010/// SCT015/// BKN024/// 14/13 Q1006=
200808210020 METAR ESMX 210020Z AUTO 22008KT 9999NDV FEW008/// SCT014/// BKN018/// 15/13 Q1006=
200808202350 METAR ESMX 202350Z AUTO 22008KT 9999NDV FEW007/// SCT009/// BKN011/// 15/14 Q1006=
200808202320 METAR ESMX 202320Z 22009KT 9999 FEW010 SCT014 BKN080 15/13 Q1006=
200808202250 METAR ESMX 202250Z 21009KT 9999 FEW007 BKN010 BKN024 15/14 Q1006 RERA=
200808202220 METAR ESMX 202220Z 21008KT 190V250 9999 FEW009 BKN011 OVC014 15/14 Q1006=
200808202150 METAR ESMX 202150Z 20007KT 9999 BKN010 OVC018 15/14 Q1006=
200808202120 METAR ESMX 202120Z 21009KT 9999 FEW011 BKN014 BKN028 15/14 Q1006=
200808202050 METAR ESMX 202050Z 22007KT 9999 SCT014 BKN019 BKN092 15/14 Q1006=
200808202020 METAR ESMX 202020Z 20006KT 9999 FEW018 SCT044 15/13 Q1005=
200808201950 METAR ESMX 201950Z 22008KT 9999 FEW019 SCT035 15/13 Q1005=
200808201920 METAR ESMX 201920Z 22008KT 9999 FEW020TCU SCT050 15/13 Q1005=
200808201850 METAR ESMX 201850Z 21007KT 9999 FEW020TCU SCT025 15/14 Q1005=
200808201820 METAR ESMX 201820Z 21004KT 180V300 9999 SCT023 15/14 Q1005=
200808201750 METAR ESMX 201750Z 21004KT 9999 FEW023 SCT033 BKN092 15/14 Q1005=
200808201720 METAR ESMX 201720Z 21005KT 9999 FEW028 SCT035 15/14 Q1004=
200808201650 METAR ESMX 201650Z 21008KT 9999 VCSH FEW018 SCT030CB BKN065 16/14 Q1004 RERA=
200808201620 METAR ESMX 201620Z 22006KT 9999 FEW020 SCT025 BKN046 17/15 Q1004=
200808201550 METAR ESMX 201550Z 21006KT 9999 -SHRA FEW015 SCT026 BKN055 17/15 Q1004 REDZ=
200808201520 METAR ESMX 201520Z 27005KT 9999 -SHRA FEW018CB SCT028 BKN037 17/15 Q1004=
200808201450 METAR ESMX 201450Z 20011KT 9999 -RASH FEW010 FEW020CB SCT029 BKN037 17/15 Q1004=
200808201420 METAR ESMX 201420Z 18009KT 9999 VCSH FEW024CB SCT054 BKN096 19/15 Q1004=
200808201350 METAR ESMX 201350Z 22011KT 190V270 9999 FEW026 SCT037 BKN058 19/13 Q1004=
200808201320 METAR ESMX 201320Z 22010KT 9999 SCT031 BKN057 19/13 Q1004=
200808201250 METAR ESMX 201250Z 21014KT 180V250 9999 SCT030 20/13 Q1004=
200808201220 METAR ESMX 201220Z 19014KT 9999 FEW030 SCT047 19/14 Q1004=
200808201150 METAR ESMX 201150Z 20010KT 9999 SCT043 SCT070 20/14 Q1004=
200808201050 METAR ESMX 201050Z 19012KT 9999 FEW023 SCT045 19/13 Q1004=
200808201020 METAR ESMX 201020Z 20011KT 9999 SCT026 BKN050 18/14 Q1004=
200808200950 METAR ESMX 200950Z 20013KT 9999 FEW019 BKN048 18/14 Q1004=
200808200920 METAR ESMX 200920Z 21009KT 9999 BKN044 18/14 Q1004=
200808200850 METAR ESMX 200850Z 20011KT 9999 FEW013 BKN028 18/15 Q1004=
200808200820 METAR ESMX 200820Z 18010KT 140V210 9999 FEW011 BKN040 17/15 Q1004=
200808200750 METAR ESMX 200750Z 18007KT 150V210 9999 FEW014 SCT044 BKN080 16/15 Q1004=
200808200720 METAR ESMX 200720Z 19008KT 9999 FEW012 SCT084 16/15 Q1004=
200808200650 METAR ESMX 200650Z 17006KT 140V200 9000 BR NSC 16/14 Q1004=
200808200620 METAR ESMX 200620Z 17006KT 8000 BR NSC 15/14 Q1004=
200808200550 METAR ESMX 200550Z 16006KT 120V200 9000 BR FEW030 BKN120 15/14 Q1004=
200808200520 METAR ESMX 200520Z 15005KT 120V180 7000 BR FEW032 SCT120 14/13 Q1004=
200808200450 METAR ESMX 200450Z 15006KT 7000 BR SCT003 BKN100 13/13 Q1004=
200808200420 METAR ESMX 200420Z 15005KT 120V200 3100 BR SCT002 BKN100 13/13 Q1004=
200808200350 METAR ESMX 200350Z 15005KT 110V180 2000 SCT003 BKN100 13/13 Q1004=
200808200320 METAR ESMX 200320Z AUTO 15003KT 110V180 1000NDV R01/P2000U R19/P2000N SCT000/// 13/13 Q1004=
200808200250 METAR ESMX 200250Z AUTO 14004KT 0400NDV R01/1000VP2000U R19/1100VP2000U FG BKN001/// BKN002/// 14/13 Q1004=
200808200220 METAR ESMX 200220Z AUTO 16004KT 140V200 0150NDV R01/0800V1100U R19/0600V0800 FG VV000 13/13 Q1005=
200808200150 METAR ESMX 200150Z AUTO 16003KT 0600NDV R01/P2000N R19/P2000U BR NCD 13/12 Q1005=
200808200120 METAR ESMX 200120Z AUTO 15005KT 4500NDV BR FEW091/// 14/13 Q1005=
200808200050 METAR ESMX 200050Z AUTO 17005KT 7000NDV BR FEW110/// 14/13 Q1005=
200808200020 METAR ESMX 200020Z AUTO 17004KT 9000NDV SCT110/// 14/13 Q1005=
200808192350 METAR ESMX 192350Z 19004KT 7000 BR BKN100 14/13 Q1005=
200808192320 METAR ESMX 192320Z 18004KT CAVOK 14/13 Q1005=
200808192250 METAR ESMX 192250Z 18004KT CAVOK 15/13 Q1005=
200808192220 METAR ESMX 192220Z 18004KT CAVOK 15/14 Q1005=
200808192150 METAR ESMX 192150Z 18004KT 9999 FEW051 BKN100 15/14 Q1005=
200808192120 METAR ESMX 192120Z 21003KT 140V250 9999 FEW006 SCT019 BKN029 15/15 Q1005 RERA=
200808192050 METAR ESMX 192050Z 00000KT 9999 -RA FEW014 SCT016 BKN019 16/14 Q1005=
200808192020 METAR ESMX 192020Z 26005KT 210V300 8000 -RA FEW007 SCT020 BKN034 16/15 Q1005=
200808191950 METAR ESMX 191950Z 18005KT 140V220 9999 FEW007 SCT110 16/15 Q1005=
200808191920 METAR ESMX 191920Z 15006KT 9999 SCT040 16/15 Q1005=
200808191850 METAR ESMX 191850Z 15006KT 120V190 9999 FEW015 SCT040 17/15 Q1005=
200808191820 METAR ESMX 191820Z 14006KT 9999 FEW015 SCT040 17/16 Q1005=
200808191750 METAR ESMX 191750Z 14005KT 110V170 9999 FEW016TCU SCT040 17/16 Q1005=
200808191720 METAR ESMX 191720Z 13004KT 110V170 9999 FEW013 SCT018 BKN021 17/16 Q1005 RERA=
200808191650 METAR ESMX 191650Z 20004KT 9999 VCSH FEW014 SCT032 BKN062 18/16 Q1005 RERA=
200808191620 METAR ESMX 191620Z 16003KT 8000 -SHRA FEW020CB SCT082 18/16 Q1005=
200808191550 METAR ESMX 191550Z 20004KT 9999 VCSH FEW020CB SCT090 19/16 Q1005=
200808191520 METAR ESMX 191520Z 21004KT 180V250 9999 FEW022 19/16 Q1005=
200808191450 METAR ESMX 191450Z 24005KT 9999 FEW020 SCT100 18/16 Q1006=
200808191420 METAR ESMX 191420Z 23005KT 8000 -SHRA FEW015CB SCT058 BKN100 16/15 Q1006 RERA=
200808191350 METAR ESMX 191350Z 28006KT 7000 SHRA FEW009 SCT015CB BKN032 17/15 Q1006=
200808191320 METAR ESMX 191320Z 19006KT 9999 VCSH FEW008 FEW015CB BKN021 19/15 Q1006=
200808191250 METAR ESMX 191250Z 17010KT 150V230 9999 SCT011 BKN015 19/16 Q1006=
200808191220 METAR ESMX 191220Z 17010KT 140V200 9999 SCT010 BKN015 18/15 Q1006=
200808191150 METAR ESMX 191150Z 17009KT 140V200 9999 BKN011 17/15 Q1006 RERA REDZ=
200808191120 METAR ESMX 191120Z 15006KT 120V190 9999 FEW012 BKN015 OVC021 17/15 Q1006 RERA REDZ=
200808191050 METAR ESMX 191050Z 15007KT 9999 FEW008 BKN014 17/14 Q1007=
200808191020 METAR ESMX 191020Z 16007KT 130V210 9999 FEW007 BKN010 17/14 Q1007=
200808190950 METAR ESMX 190950Z 16006KT 130V200 9999 BKN007 16/14 Q1007=
200808190920 METAR ESMX 190920Z 16006KT 9000 BR OVC005 15/14 Q1007=
200808190850 METAR ESMX 190850Z 16005KT 120V190 6000 BR BKN005 15/13 Q1007=
200808190820 METAR ESMX 190820Z 16005KT 110V210 7000 BR SCT006 BKN008 OVC012 15/13 Q1008=
200808190750 METAR ESMX 190750Z 16006KT 7000 BR FEW006 SCT007 BKN010 15/13 Q1008=
200808190720 METAR ESMX 190720Z 16005KT 7000 BR FEW005 BKN008 14/13 Q1008=
200808190650 METAR ESMX 190650Z 20005KT 6000 BR FEW004 BKN006 14/13 Q1008=
200808190620 METAR ESMX 190620Z 17005KT 140V200 4100 BR FEW003 OVC006 14/13 Q1008=
200808190550 METAR ESMX 190550Z 19007KT 5000 BR FEW004 OVC005 14/13 Q1008=
200808190520 METAR ESMX 190520Z 18005KT 5000 BR FEW004 SCT006 BKN008 14/13 Q1008=
200808190450 METAR ESMX 190450Z 19005KT 5000 BR FEW006 BKN008 14/13 Q1008=
200808190420 METAR ESMX 190420Z 20005KT 6000 BR FEW005 BKN007 OVC009 14/13 Q1008=
200808190350 METAR ESMX 190350Z 19005KT 4900 BR FEW004 BKN006 OVC008 14/13 Q1008=
200808190320 METAR ESMX 190320Z 21006KT 6000 BR BKN005 OVC008 13/13 Q1008=
200808190250 METAR ESMX 190250Z AUTO 21006KT 5000NDV BR FEW004/// OVC005/// 13/13 Q1008=
200808190220 METAR ESMX 190220Z AUTO 23005KT 4700NDV BR SCT001/// BKN003/// OVC005/// 13/13 Q1008=
200808190150 METAR ESMX 190150Z AUTO 21006KT 2400NDV BR OVC001/// 13/12 Q1008=
200808190120 METAR ESMX 190120Z AUTO 21006KT 1200NDV R01/P2000N R19/P2000U BR VV002 13/12 Q1008=
200808190050 METAR ESMX 190050Z AUTO 22006KT 1300NDV R01/P2000D R19/P2000D BR OVC001/// 12/12 Q1008=
200808190020 METAR ESMX 190020Z AUTO 21006KT 4400NDV BR SCT002/// BKN004/// OVC005/// 12/12 Q1008=
200808182350 METAR ESMX 182350Z 20005KT 5000 BR FEW006 SCT025 BKN052 11/11 Q1008=
200808182320 METAR ESMX 182320Z 19004KT 5000 BR FEW017 SCT021 11/11 Q1008=
200808182220 METAR ESMX 182220Z 21006KT CAVOK 11/11 Q1008=
200808182150 METAR ESMX 182150Z 20007KT CAVOK 12/11 Q1008=
200808182120 METAR ESMX 182120Z 20006KT CAVOK 12/11 Q1008=
200808182050 METAR ESMX 182050Z 20007KT CAVOK 13/12 Q1007=
200808182020 METAR ESMX 182020Z 22006KT CAVOK 13/12 Q1007=
200808181950 METAR ESMX 181950Z 21005KT CAVOK 13/12 Q1007=
200808181920 METAR ESMX 181920Z 22004KT CAVOK 13/12 Q1007=
200808181850 METAR ESMX 181850Z 25003KT 9999 BKN057 13/12 Q1007=
200808181820 METAR ESMX 181820Z 24003KT 9999 FEW067 SCT088 BKN100 14/12 Q1007 REDZ REUP=
200808181750 METAR ESMX 181750Z 24004KT 9999 -DZ SCT045 BKN080 14/12 Q1007 RERA=
200808181720 METAR ESMX 181720Z 25004KT 9999 -RA FEW040 SCT080 15/13 Q1007 REDZ=
200808181650 METAR ESMX 181650Z 21005KT 9999 -RA FEW040 SCT073 15/13 Q1007=
200808181620 METAR ESMX 181620Z 21006KT 9999 -RA FEW040 BKN062 15/13 Q1007=
200808181550 METAR ESMX 181550Z 21007KT 9999 -RA FEW057 SCT069 15/13 Q1007=
200808181520 METAR ESMX 181520Z 21008KT 9999 -RA BKN060 17/13 Q1007=
200808181450 METAR ESMX 181450Z 22009KT CAVOK 18/11 Q1007=
200808181420 METAR ESMX 181420Z 22008KT CAVOK 19/10 Q1007=
200808181350 METAR ESMX 181350Z 23011KT CAVOK 20/10 Q1007=
200808181320 METAR ESMX 181320Z 23011KT 190V280 9999 FEW046 SCT094 21/10 Q1007=
200808181250 METAR ESMX 181250Z 24011KT 190V270 CAVOK 21/10 Q1007=
200808181220 METAR ESMX 181220Z 23010KT 200V270 9999 FEW046 21/09 Q1007=
200808181120 METAR ESMX 181120Z 23012KT 9999 SCT040 20/10 Q1006=
200808181050 METAR ESMX 181050Z 23012KT 190V250 9999 SCT035 20/11 Q1006=
200808181020 METAR ESMX 181020Z 23011KT 200V270 9999 FEW035 SCT043 19/10 Q1006=
200808180950 METAR ESMX 180950Z 24010KT 210V280 9999 FEW030 SCT041 BKN049 18/11 Q1007=
200808180920 METAR ESMX 180920Z 26009KT 9999 SCT030 18/10 Q1007=
200808180850 METAR ESMX 180850Z 26010KT 180V290 9999 FEW020 17/10 Q1007=
200808180820 METAR ESMX 180820Z 26009KT 220V290 9999 FEW025 17/12 Q1006=
200808180750 METAR ESMX 180750Z 26008KT 220V290 9999 FEW020 16/11 Q1006=
200808180720 METAR ESMX 180720Z 25009KT 210V290 9999 FEW015 15/11 Q1006=
200808180650 METAR ESMX 180650Z 26008KT 220V290 9999 FEW018 15/10 Q1006=
200808180620 METAR ESMX 180620Z 26008KT 220V290 9999 FEW018 14/10 Q1006=
200808180550 METAR ESMX 180550Z 25006KT 210V270 9999 FEW018 13/11 Q1006=
200808180520 METAR ESMX 180520Z 24005KT 9999 FEW015 12/11 Q1006=
200808180450 METAR ESMX 180450Z 26004KT 230V290 9999 FEW017 12/10 Q1006=
200808180420 METAR ESMX 180420Z 27005KT 9999 FEW010 OVC012 12/10 Q1006=
200808180350 METAR ESMX 180350Z 26006KT 9999 FEW009 OVC010 12/10 Q1006=
200808180320 METAR ESMX 180320Z AUTO 27008KT 9999NDV OVC010/// 12/10 Q1006=
200808180250 METAR ESMX 180250Z AUTO 27007KT 230V290 9999NDV FEW010/// OVC012/// 12/11 Q1006=
200808180220 METAR ESMX 180220Z AUTO 29009KT 250V320 9999NDV FEW008/// BKN009/// OVC013/// 12/11 Q1006=
200808180150 METAR ESMX 180150Z AUTO 27007KT 240V320 9999NDV FEW007/// SCT009/// BKN010/// 12/11 Q1006=
200808180120 METAR ESMX 180120Z AUTO 28007KT 9999NDV FEW007/// OVC010/// 12/11 Q1006=
200808180050 METAR ESMX 180050Z 27006KT 240V310 9999 FEW009 OVC012 12/11 Q1006=
200808180020 METAR ESMX 180020Z 29008KT 9999 FEW007 BKN009 OVC012 12/11 Q1006=
200808172350 METAR ESMX 172350Z 28007KT 9999 FEW008 OVC010 12/11 Q1006=
200808172320 METAR ESMX 172320Z 28006KT 250V320 9999 FEW008 OVC011 12/11 Q1006=
200808172250 METAR ESMX 172250Z 30008KT 9999 FEW008 BKN010 OVC014 12/11 Q1006=
200808172220 METAR ESMX 172220Z 29008KT 9999 FEW010 OVC012 12/11 Q1005=
200808172150 METAR ESMX 172150Z 30008KT 9999 FEW009 BKN013 OVC017 12/11 Q1005=
200808172120 METAR ESMX 172120Z 29008KT 9999 FEW008 BKN012 OVC016 12/11 Q1005=
200808172050 METAR ESMX 172050Z 31009KT 270V340 9999 FEW009 OVC010 12/11 Q1005=
200808172020 METAR ESMX 172020Z 30008KT 270V340 9999 OVC010 12/11 Q1005=
200808171950 METAR ESMX 171950Z 31008KT 280V350 9999 FEW007 OVC010 13/12 Q1005 RERA=
200808171920 METAR ESMX 171920Z 31008KT 270V340 9999 -RA FEW008 BKN011 OVC016 13/12 Q1005 REDZ=
200808171850 METAR ESMX 171850Z 31009KT 280V340 9999 DZ FEW008 BKN010 BKN016 13/12 Q1005=
200808171820 METAR ESMX 171820Z 31010KT 9999 -DZ FEW008 SCT010 BKN013 13/12 Q1005 RERA=
200808171750 METAR ESMX 171750Z 31010KT 9999 -DZ FEW010 BKN013 BKN018 13/12 Q1005=
200808171720 METAR ESMX 171720Z 31010KT 260V340 4900 DZ FEW008 SCT011 BKN014 13/12 Q1006 RERA=
200808171650 METAR ESMX 171650Z 31010KT 280V340 9999 -DZ FEW008 BKN012 OVC017 13/12 Q1005 RERA=
200808171620 METAR ESMX 171620Z 31009KT 290V350 9999 FEW008 SCT012 BKN016 13/12 Q1006 REDZ RERA=
200808171550 METAR ESMX 171550Z 30011KT 8000 DZ FEW006 SCT009 OVC018 13/12 Q1006 RERA=
200808171520 METAR ESMX 171520Z 30010KT 280V340 9999 DZ FEW009 SCT015 BKN017 13/12 Q1006=
200808171450 METAR ESMX 171450Z 31011KT 9999 DZ FEW009 BKN012 OVC019 13/12 Q1006=
200808171420 METAR ESMX 171420Z 31011KT 9000 RA FEW008 SCT012 BKN015 13/12 Q1006=
200808171350 METAR ESMX 171350Z 32010KT 7000 RA FEW009 BKN013 BKN018 13/12 Q1007=
200808171320 METAR ESMX 171320Z 32010KT 290V360 9000 RA FEW009 SCT014 BKN017 13/11 Q1007=
200808171250 METAR ESMX 171250Z 33011KT 9999 -RA FEW011 SCT032 BKN038 13/12 Q1007=
200808171220 METAR ESMX 171220Z 33011KT 8000 RA FEW010 BKN034 13/11 Q1007=
200808171150 METAR ESMX 171150Z 33009KT 300V360 9000 RA FEW009 SCT027 BKN035 13/11 Q1007=
200808171120 METAR ESMX 171120Z 33008KT 9999 RA SCT011 OVC140 13/11 Q1007=
200808171050 METAR ESMX 171050Z AUTO 32009KT 9999NDV -RA FEW015/// SCT018/// 13/11 Q1007=
200808171020 METAR ESMX 171020Z AUTO 34007KT 9999NDV DZ FEW014/// SCT018/// BKN071/// 13/11 Q1008 RERA=
200808170950 METAR ESMX 170950Z AUTO 35009KT 9999NDV -DZ SCT071/// 13/11 Q1008 RERA=
200808170920 METAR ESMX 170920Z AUTO 35011KT 9999NDV -RA FEW086/// 13/10 Q1008 REDZ=
200808170850 METAR ESMX 170850Z AUTO 35012KT 9999NDV -DZ SCT076/// 12/10 Q1008 RERA=
200808170820 METAR ESMX 170820Z AUTO 35011KT 9999NDV -RA FEW081/// 12/10 Q1008 REDZ=
200808170750 METAR ESMX 170750Z AUTO 35010KT 9999NDV -DZ NCD 12/10 Q1009 RERA=
200808170720 METAR ESMX 170720Z AUTO 36010KT 9999NDV -RA NCD 12/10 Q1009=
200808170650 METAR ESMX 170650Z AUTO 02010KT 9999NDV -RA NCD 12/09 Q1010 REDZ=
200808170620 METAR ESMX 170620Z AUTO 03009KT 350V060 9999NDV -RA NCD 13/09 Q1010=
200808170550 METAR ESMX 170550Z AUTO 02011KT 9999NDV NCD 13/09 Q1010=
200808170520 METAR ESMX 170520Z AUTO 36010KT 9999NDV NCD 13/09 Q1010=
200808170450 METAR ESMX 170450Z AUTO 35011KT 9999NDV NCD 13/10 Q1009=
200808170420 METAR ESMX 170420Z AUTO 01011KT 9999NDV NCD 14/11 Q1010=
200808170350 METAR ESMX 170350Z AUTO 36009KT 9999NDV FEW012/// SCT015/// BKN021/// 14/12 Q1010=
200808170320 METAR ESMX 170320Z AUTO 36008KT 9999NDV FEW012/// BKN015/// BKN021/// 14/12 Q1010=
200808170250 METAR ESMX 170250Z AUTO 36009KT 9999NDV FEW013/// 14/12 Q1010=
200808170220 METAR ESMX 170220Z AUTO 35009KT 9999NDV FEW012/// 14/12 Q1010=
200808170150 METAR ESMX 170150Z AUTO 36008KT 9999NDV FEW011/// 14/12 Q1010=
200808170120 METAR ESMX 170120Z AUTO 02009KT 9999NDV FEW008/// BKN012/// 14/12 Q1011=
200808170050 METAR ESMX 170050Z AUTO 02009KT 9999NDV FEW006/// SCT008/// BKN009/// 14/12 Q1011=
200808170020 METAR ESMX 170020Z AUTO 01008KT 9999NDV BKN008/// 14/12 Q1011=
200808162350 METAR ESMX 162350Z AUTO 01006KT 9999NDV NCD 13/12 Q1012=
200808162320 METAR ESMX 162320Z AUTO 01005KT 9999NDV FEW030/// 13/12 Q1012=
200808162250 METAR ESMX 162250Z AUTO 02006KT 9999NDV NCD 14/12 Q1012=
200808162220 METAR ESMX 162220Z AUTO 01006KT 9999NDV FEW016/// 14/12 Q1013=
200808162150 METAR ESMX 162150Z AUTO 02006KT 9999NDV NCD 14/12 Q1013=
200808162120 METAR ESMX 162120Z AUTO 03006KT 9999NDV NCD 14/12 Q1012=
200808162050 METAR ESMX 162050Z AUTO 36006KT 9999NDV NCD 14/12 Q1011=
200808162020 METAR ESMX 162020Z AUTO 01005KT 9999NDV FEW091/// 14/12 Q1012=
200808161950 METAR ESMX 161950Z AUTO 02004KT 9999NDV FEW093/// 15/12 Q1012=
200808161920 METAR ESMX 161920Z AUTO 02005KT 350V060 9999NDV BKN083/// 16/12 Q1012=
200808161850 METAR ESMX 161850Z AUTO 02005KT 9999NDV BKN086/// 17/13 Q1012=
200808161820 METAR ESMX 161820Z AUTO 03004KT 9999NDV BKN079/// 17/13 Q1012=
200808161750 METAR ESMX 161750Z AUTO 03005KT 350V070 9999NDV BKN093/// 18/13 Q1012=
200808161720 METAR ESMX 161720Z AUTO 04007KT 9999NDV BKN088/// 18/12 Q1012=
200808161650 METAR ESMX 161650Z AUTO 05007KT 020V090 9999NDV BKN091/// 18/11 Q1012=
200808161620 METAR ESMX 161620Z AUTO 03011KT 360V060 9999NDV FEW066/// 19/12 Q1012=
200808161550 METAR ESMX 161550Z AUTO 07004KT 9999NDV FEW061/// 19/12 Q1012=
200808161520 METAR ESMX 161520Z AUTO 05003KT 010V110 9999NDV SCT074/// 18/11 Q1012=
200808161450 METAR ESMX 161450Z AUTO 05009KT 020V090 9999NDV FEW044/// SCT069/// 19/11 Q1012=
200808161420 METAR ESMX 161420Z AUTO 01006KT 9999NDV FEW070/// BKN090/// 20/11 Q1011=
200808161350 METAR ESMX 161350Z AUTO 05004KT 010V100 9999NDV FEW075/// SCT087/// 19/12 Q1011 RERA REDZ=
200808161320 METAR ESMX 161320Z AUTO 01010KT 9999NDV FEW027/// SCT073/// 21/12 Q1011=
200808161250 METAR ESMX 161250Z AUTO 03008KT 350V060 9999NDV FEW043/// 22/10 Q1011=
200808161220 METAR ESMX 161220Z AUTO 02007KT 9999NDV FEW048/// BKN080/// 21/10 Q1011=
200808161120 METAR ESMX 161120Z AUTO 02006KT 330V060 9999NDV FEW040/// SCT074/// 21/11 Q1012=
200808161050 METAR ESMX 161050Z AUTO 35007KT 9999NDV FEW037/// SCT051/// 20/11 Q1012=
200808161020 METAR ESMX 161020Z AUTO 35006KT 320V020 9999NDV FEW036/// 20/11 Q1012=
200808160950 METAR ESMX 160950Z AUTO 36006KT 330V030 9999NDV NCD 20/11 Q1012=
200808160920 METAR ESMX 160920Z AUTO 36006KT 9999NDV NCD 19/11 Q1012=
200808160850 METAR ESMX 160850Z AUTO 36006KT 330V040 9999NDV NCD 18/11 Q1012=
200808160820 METAR ESMX 160820Z AUTO 03007KT 9999NDV NCD 18/10 Q1011=
200808160750 METAR ESMX 160750Z AUTO 36007KT 330V030 9999NDV NCD 17/11 Q1012=
200808160720 METAR ESMX 160720Z AUTO 35006KT 9999NDV NCD 15/10 Q1012=
200808160650 METAR ESMX 160650Z AUTO 36007KT 9999NDV NCD 15/10 Q1011=
200808160620 METAR ESMX 160620Z AUTO 01007KT 9999NDV NCD 14/11 Q1011=
200808160550 METAR ESMX 160550Z AUTO 01006KT 9999NDV FEW044/// 14/10 Q1011=
200808160520 METAR ESMX 160520Z AUTO 36006KT 9999NDV FEW043/// BKN050/// 14/10 Q1011=
200808160450 METAR ESMX 160450Z AUTO 35005KT 9999NDV FEW048/// 14/10 Q1011=
200808160420 METAR ESMX 160420Z AUTO 34006KT 9999NDV SCT047/// 14/11 Q1011=
200808160350 METAR ESMX 160350Z AUTO 35006KT 9999NDV BKN045/// 13/11 Q1011=
200808160320 METAR ESMX 160320Z AUTO 35005KT 9999NDV FEW044/// SCT087/// 13/11 Q1011=
200808160250 METAR ESMX 160250Z AUTO 34004KT 9999NDV FEW087/// 13/11 Q1011=
200808160220 METAR ESMX 160220Z AUTO 35003KT 320V020 9999NDV SCT085/// 13/11 Q1011=
200808160150 METAR ESMX 160150Z AUTO 34006KT 9999NDV BKN084/// 13/11 Q1011=
200808160120 METAR ESMX 160120Z AUTO 35004KT 9999NDV SCT084/// 13/11 Q1011=
200808160020 METAR ESMX 160020Z AUTO 34003KT 9999NDV NCD 13/11 Q1012=
200808152350 METAR ESMX 152350Z AUTO 33005KT 9999NDV NCD 13/11 Q1012=
200808152320 METAR ESMX 152320Z AUTO 33004KT 9999NDV NCD 14/11 Q1012=
200808152250 METAR ESMX 152250Z AUTO 32003KT 290V010 9999NDV NCD 14/12 Q1012=
200808152220 METAR ESMX 152220Z AUTO 31004KT 9999NDV NCD 14/12 Q1012=
200808152150 METAR ESMX 152150Z AUTO 31004KT 9999NDV NCD 14/12 Q1012=
200808152120 METAR ESMX 152120Z AUTO 32002KT 9999NDV NCD 13/12 Q1012=
200808152050 METAR ESMX 152050Z AUTO 00000KT 9999NDV NCD 13/12 Q1012=
200808152020 METAR ESMX 152020Z AUTO 28001KT 9999NDV FEW085/// 14/11 Q1012=
200808151950 METAR ESMX 151950Z AUTO 28002KT 9999NDV NCD 14/12 Q1012=
200808151920 METAR ESMX 151920Z AUTO 29002KT 9999NDV NCD 15/12 Q1012=
200808151850 METAR ESMX 151850Z AUTO VRB02KT 9999NDV NCD 15/11 Q1012=
200808151820 METAR ESMX 151820Z VRB02KT CAVOK 16/11 Q1012=
200808151750 METAR ESMX 151750Z 30003KT CAVOK 16/12 Q1012=
200808151720 METAR ESMX 151720Z VRB02KT CAVOK 17/13 Q1012=
200808151650 METAR ESMX 151650Z VRB01KT CAVOK 18/13 Q1012=
200808151620 METAR ESMX 151620Z VRB02KT 9999 FEW030 BKN080 18/12 Q1012=
200808151550 METAR ESMX 151550Z VRB02KT 9999 FEW030 BKN080 18/11 Q1012=
200808151520 METAR ESMX 151520Z 29004KT 9999 FEW030 BKN080 19/10 Q1012=
200808151450 METAR ESMX 151450Z VRB04KT 9999 FEW030 BKN089 19/11 Q1012=
200808151420 METAR ESMX 151420Z 33004KT 300V010 9999 FEW031 BKN069 BKN090 19/11 Q1012=
200808151350 METAR ESMX 151350Z 24004KT 170V280 9999 FEW032 SCT071 BKN086 19/11 Q1013=
200808151320 METAR ESMX 151320Z 22007KT 9999 FEW049 BKN084 19/11 Q1013=
200808151250 METAR ESMX 151250Z 29006KT 250V330 9999 SCT030 BKN050 19/12 Q1013=
200808151220 METAR ESMX 151220Z 24006KT 200V280 9999 SCT030 BKN080 19/11 Q1013=
200808151150 METAR ESMX 151150Z 27006KT 200V300 9999 FEW025 BKN080 19/12 Q1013=
200808151120 METAR ESMX 151120Z 25007KT 220V290 9999 FEW025 SCT035 BKN070 19/12 Q1013=
200808151050 METAR ESMX 151050Z 23007KT 9999 FEW025 BKN075 18/11 Q1013=
200808151020 METAR ESMX 151020Z 21006KT 170V270 9999 SCT025 BKN060 17/12 Q1013=
200808150950 METAR ESMX 150950Z 23005KT 190V260 9999 SCT020 BKN050 17/12 Q1013=
200808150920 METAR ESMX 150920Z 25006KT 220V280 9999 FEW020 SCT030 BKN040 17/12 Q1013=
200808150850 METAR ESMX 150850Z 25007KT 220V290 9999 FEW020 BKN040 16/11 Q1013=
200808150820 METAR ESMX 150820Z 22008KT 190V250 9999 SCT025 BKN035 16/11 Q1013=
200808150750 METAR ESMX 150750Z 21009KT 9999 FEW015 SCT025 16/12 Q1013=
200808150720 METAR ESMX 150720Z 24005KT 190V290 9999 FEW015 15/11 Q1013=
200808150650 METAR ESMX 150650Z 19008KT 9999 FEW015 15/12 Q1013=
200808150620 METAR ESMX 150620Z 20008KT 9999 FEW030 14/12 Q1013=
200808150550 METAR ESMX 150550Z 22004KT CAVOK 13/12 Q1013=
200808150520 METAR ESMX 150520Z 20005KT CAVOK 12/11 Q1012=
200808150450 METAR ESMX 150450Z 20005KT CAVOK 11/10 Q1012=
200808150420 METAR ESMX 150420Z 18006KT CAVOK 10/10 Q1012=
200808150350 METAR ESMX 150350Z 19005KT CAVOK 10/09 Q1012=
200808150320 METAR ESMX 150320Z AUTO 18004KT 9999NDV NCD 10/09 Q1012=
200808150250 METAR ESMX 150250Z AUTO 19005KT 9999NDV NCD 10/09 Q1012=
200808150220 METAR ESMX 150220Z AUTO 20006KT 9999NDV NCD 10/09 Q1012=
200808150150 METAR ESMX 150150Z AUTO 19006KT 9999NDV NCD 10/09 Q1012=
200808150120 METAR ESMX 150120Z AUTO 19005KT 9999NDV NCD 10/09 Q1012=
200808150050 METAR ESMX 150050Z AUTO 19005KT 9999NDV NCD 10/09 Q1012=
200808150020 METAR ESMX 150020Z AUTO 20006KT 9999NDV NCD 10/09 Q1012=
200808142350 METAR ESMX 142350Z 19007KT CAVOK 11/10 Q1012=
200808142320 METAR ESMX 142320Z 18007KT CAVOK 12/10 Q1012=
200808142250 METAR ESMX 142250Z 19006KT CAVOK 11/10 Q1011=
200808142220 METAR ESMX 142220Z 21007KT CAVOK 12/10 Q1011=
200808142150 METAR ESMX 142150Z 20006KT CAVOK 12/10 Q1011=
200808142120 METAR ESMX 142120Z 22006KT CAVOK 12/10 Q1011=
200808142050 METAR ESMX 142050Z 22006KT CAVOK 13/10 Q1010=
200808142020 METAR ESMX 142020Z 22006KT CAVOK 13/10 Q1010=
200808141950 METAR ESMX 141950Z 22007KT CAVOK 14/10 Q1010=
200808141920 METAR ESMX 141920Z 22007KT 9999 FEW030 SCT062 14/10 Q1010=
200808141850 METAR ESMX 141850Z 22008KT 9999 FEW030 SCT065 15/11 Q1010=
200808141820 METAR ESMX 141820Z 23012KT 200V260 9999 FEW028 SCT047 16/11 Q1009=
200808141750 METAR ESMX 141750Z 23010KT 9999 SCT032 16/11 Q1009=
200808141720 METAR ESMX 141720Z 22012KT 180V250 CAVOK 16/11 Q1009=
200808141650 METAR ESMX 141650Z 22010KT CAVOK 17/11 Q1008=
200808141620 METAR ESMX 141620Z 24014KT 180V280 9999 FEW035 SCT060 17/11 Q1008=
200808141550 METAR ESMX 141550Z 24012G22KT 200V280 9999 FEW035 BKN045 17/11 Q1008=
200808141520 METAR ESMX 141520Z 24012KT 210V270 9999 FEW023 SCT048 BKN076 17/12 Q1007 RERA REDZ=
200808141450 METAR ESMX 141450Z 22012KT 9999 SHRA FEW035CB SCT060 BKN082 18/12 Q1007=
200808141420 METAR ESMX 141420Z 24013KT 9999 FEW035 SCT045 19/12 Q1007=
200808141350 METAR ESMX 141350Z 22014KT 200V260 9999 FEW040 SCT070 19/10 Q1006=
200808141320 METAR ESMX 141320Z 23014KT 200V260 9999 FEW040 SCT060 19/11 Q1006=
200808141250 METAR ESMX 141250Z 24015G25KT 200V270 9999 FEW040 SCT060 18/11 Q1005=
200808141220 METAR ESMX 141220Z 23017KT 9999 FEW035 20/12 Q1005=
200808141150 METAR ESMX 141150Z 22013G23KT 170V260 9999 FEW030 SCT060 17/13 Q1005=
200808141120 METAR ESMX 141120Z 22012KT 9999 SHRA FEW035 16/14 Q1004=
200808141050 METAR ESMX 141050Z 25013G26KT 200V300 4000 SHRA FEW007 SCT027 BKN040 14/12 Q1004=
200808141020 METAR ESMX 141020Z 21018KT 170V240 9999 FEW020 BKN023 OVC037 17/12 Q1003=
200808140950 METAR ESMX 140950Z 20020KT 9999 FEW016 SCT018 BKN023 17/12 Q1003=
200808140920 METAR ESMX 140920Z 19020KT 9999 BKN017 OVC025 16/12 Q1003=
200808140850 METAR ESMX 140850Z 20016KT 9999 FEW016 SCT020 BKN028 15/12 Q1003=
200808140820 METAR ESMX 140820Z 19017KT 9999 FEW017 OVC021 15/12 Q1003=
200808140750 METAR ESMX 140750Z 19019KT 9999 BKN021 OVC031 15/11 Q1003=
200808140720 METAR ESMX 140720Z 19018KT 160V220 9999 FEW021 BKN025 OVC031 15/11 Q1003=
200808140650 METAR ESMX 140650Z 19018KT 9999 FEW020 SCT024 BKN028 15/11 Q1002=
200808140620 METAR ESMX 140620Z 19017KT 9999 FEW020 SCT024 BKN028 15/11 Q1002=
200808140550 METAR ESMX 140550Z 18016KT 140V210 9999 FEW019 BKN029 15/11 Q1002=
200808140520 METAR ESMX 140520Z 18015KT 9999 FEW020 SCT023 BKN042 15/11 Q1002=
200808140450 METAR ESMX 140450Z 18016KT 9999 FEW018 SCT021 BKN026 15/11 Q1002=
200808140420 METAR ESMX 140420Z 18016KT 140V200 9999 FEW016 SCT021 BKN034 15/12 Q1002=
200808140350 METAR ESMX 140350Z 18015KT 150V220 9999 FEW015 SCT017 BKN020 14/12 Q1002=
200808140320 METAR ESMX 140320Z AUTO 19016KT 9999NDV SCT014/// BKN019/// 14/12 Q1002=
200808140250 METAR ESMX 140250Z AUTO 18013KT 9999NDV FEW015/// SCT018/// BKN074/// 14/12 Q1002=
200808140220 METAR ESMX 140220Z AUTO 18014KT 150V210 9999NDV FEW017/// 14/11 Q1002=
200808140150 METAR ESMX 140150Z AUTO 18011KT 9999NDV NCD 14/11 Q1003=
200808140120 METAR ESMX 140120Z AUTO 17011KT 9999NDV NCD 14/11 Q1003=
200808140050 METAR ESMX 140050Z AUTO 17012KT 9999NDV NCD 14/11 Q1003=
200808140020 METAR ESMX 140020Z AUTO 17011KT 140V210 9999NDV NCD 13/11 Q1003=
200808132350 METAR ESMX 132350Z 17008KT CAVOK 13/10 Q1003=
200808132320 METAR ESMX 132320Z 18010KT CAVOK 13/11 Q1003=
200808132250 METAR ESMX 132250Z 17010KT CAVOK 14/11 Q1004=
200808132220 METAR ESMX 132220Z 18008KT CAVOK 14/11 Q1004=
200808132150 METAR ESMX 132150Z 18011KT CAVOK 14/11 Q1004=
200808132120 METAR ESMX 132120Z 18010KT CAVOK 14/11 Q1003=
200808132050 METAR ESMX 132050Z 19012KT CAVOK 14/11 Q1003=
200808132020 METAR ESMX 132020Z 18009KT CAVOK 14/11 Q1003=
200808131950 METAR ESMX 131950Z 18008KT CAVOK 14/11 Q1003=
200808131920 METAR ESMX 131920Z 18008KT CAVOK 14/11 Q1003=
200808131850 METAR ESMX 131850Z 19009KT CAVOK 15/11 Q1003=
200808131820 METAR ESMX 131820Z 19011KT 9999 FEW038 16/11 Q1003=
200808131720 METAR ESMX 131720Z 22011KT 190V250 9999 FEW038 SCT047 17/10 Q1003=
200808131650 METAR ESMX 131650Z 19011KT 9999 FEW034 BKN097 18/11 Q1002=
200808131620 METAR ESMX 131620Z 20011KT 160V230 9999 FEW043 BKN056 17/11 Q1002 RERA=
200808131550 METAR ESMX 131550Z 21012KT 9999 FEW046 SCT080 19/10 Q1001=
200808131520 METAR ESMX 131520Z 21014KT 170V250 9999 FEW043 20/11 Q1001=
200808131450 METAR ESMX 131450Z 21013KT CAVOK 20/11 Q1001=
200808131420 METAR ESMX 131420Z 22011KT 190V250 9999 FEW045 SCT052 BKN088 20/10 Q1001=
200808131350 METAR ESMX 131350Z 20016KT 9999 FEW048 20/10 Q1001=
200808131320 METAR ESMX 131320Z 20019KT CAVOK 21/09 Q1001=
200808131250 METAR ESMX 131250Z 21016KT 170V250 9999 FEW050 21/09 Q1000=
200808131220 METAR ESMX 131220Z 21016G27KT 9999 FEW048 21/10 Q1000=
200808131120 METAR ESMX 131120Z 18013KT 9999 FEW038 SCT056 20/12 Q1000=
200808131050 METAR ESMX 131050Z 19011KT 150V230 9999 FEW040 SCT069 20/12 Q1000=
200808131020 METAR ESMX 131020Z 19011KT 160V220 9999 FEW038 SCT061 20/12 Q1000=
200808130950 METAR ESMX 130950Z 20016KT 160V220 9999 FEW037 21/11 Q1000=
200808130920 METAR ESMX 130920Z 22010KT 190V260 9999 FEW040 20/12 Q1000=
200808130850 METAR ESMX 130850Z 21012KT 9999 FEW035 20/13 Q1000=
200808130820 METAR ESMX 130820Z 22009KT 170V250 9999 FEW020 19/13 Q1000=
200808130750 METAR ESMX 130750Z 22011KT 9999 FEW011 18/13 Q1000=
200808130720 METAR ESMX 130720Z 21009KT 9999 FEW010 17/14 Q0999=
200808130650 METAR ESMX 130650Z 22010KT 9999 SCT010 16/15 Q0999=
200808130620 METAR ESMX 130620Z 20010KT 9999 FEW009 SCT012 17/15 Q0999=
200808130520 METAR ESMX 130520Z 20007KT 9999 FEW006 15/14 Q0999=
200808130450 METAR ESMX 130450Z 20007KT 9999 SCT010 15/14 Q0998=
200808130420 METAR ESMX 130420Z 22007KT 9999 FEW008 SCT011 15/14 Q0998=
200808130350 METAR ESMX 130350Z 21006KT 9999 BR FEW015 15/14 Q0998=
200808130320 METAR ESMX 130320Z AUTO 21006KT 8000NDV BR FEW009/// SCT015/// 15/14 Q0998=
200808130250 METAR ESMX 130250Z AUTO 20006KT 7000NDV BR FEW008/// SCT012/// BKN022/// 16/15 Q0997=
200808130220 METAR ESMX 130220Z AUTO 21006KT 5000NDV BR FEW006/// SCT011/// 16/15 Q0997=
200808130150 METAR ESMX 130150Z AUTO 20007KT 4800NDV BR FEW007/// SCT015/// BKN021/// 16/15 Q0997=
200808130120 METAR ESMX 130120Z AUTO 20006KT 4000NDV BR FEW006/// SCT008/// BKN012/// 16/15 Q0996=
200808130050 METAR ESMX 130050Z AUTO 20008KT 5000NDV BR FEW005/// SCT009/// BKN014/// 16/16 Q0996=
200808130020 METAR ESMX 130020Z AUTO 18006KT 5000NDV BR FEW004/// SCT006/// BKN009/// 16/15 Q0996=
200808122320 METAR ESMX 122320Z 19005KT 7000 BR FEW005 SCT007 BKN009 16/15 Q0996=
200808122250 METAR ESMX 122250Z 20006KT 9999 FEW008 SCT012 BKN021 16/15 Q0996=
200808122220 METAR ESMX 122220Z 20008KT 9999 FEW006 SCT012 OVC020 16/15 Q0996=
200808122150 METAR ESMX 122150Z 21008KT 9999 FEW008 SCT014 BKN021 16/15 Q0996=
200808122120 METAR ESMX 122120Z 20009KT 9000 BR FEW007 OVC023 16/15 Q0996=
200808122050 METAR ESMX 122050Z 19010KT 8000 BR FEW005 SCT006 BKN008 17/16 Q0996=
200808122020 METAR ESMX 122020Z 19009KT 8000 BR FEW004 BKN005 OVC007 17/16 Q0996=
200808121950 METAR ESMX 121950Z 19009KT 8000 BR SCT003 OVC004 17/16 Q0996=
200808121920 METAR ESMX 121920Z 17007KT 5000 BR BKN002 OVC004 16/16 Q0996=
200808121850 METAR ESMX 121850Z 17006KT 140V200 5000 BR OVC002 16/16 Q0996=
200808121820 METAR ESMX 121820Z 15006KT 120V190 7000 BR OVC001 16/16 Q0996=
200808121750 METAR ESMX 121750Z 15006KT 100V170 9999 OVC003 16/15 Q0996=
200808121720 METAR ESMX 121720Z 14006KT 110V180 9000 BR OVC003 16/15 Q0996=
200808121650 METAR ESMX 121650Z 14004KT 090V200 4800 -RA OVC003 15/15 Q0996=
200808121620 METAR ESMX 121620Z 13004KT 080V160 4900 -RA BKN003 OVC006 15/14 Q0996 REDZ=
200808121550 METAR ESMX 121550Z 09004KT 020V150 4300 -DZ FEW004 OVC006 14/14 Q0997 RERA=
200808121520 METAR ESMX 121520Z 07005KT 020V110 9000 -RA FEW007 BKN008 OVC011 14/14 Q0997=
200808121450 METAR ESMX 121450Z 08005KT 030V130 4000 -RA FEW003 SCT005 BKN007 15/14 Q0998 REDZ=
200808121420 METAR ESMX 121420Z 07005KT 030V140 4100 +DZ FEW003 SCT006 BKN007 15/14 Q0998 RERA=
200808121350 METAR ESMX 121350Z 09004KT 040V140 7000 RA FEW004 SCT007 BKN009 15/14 Q0999=
200808121320 METAR ESMX 121320Z 08004KT 030V130 6000 -RA FEW006 SCT009 BKN025 15/14 Q0999 REDZ=
200808121250 METAR ESMX 121250Z 11006KT 060V160 9999 FEW006 SCT009 BKN016 16/14 Q1000 RERA REDZ=
200808121220 METAR ESMX 121220Z 11007KT 070V160 8000 -RA FEW011 SCT025 BKN066 16/15 Q1000 REDZ=
200808121120 METAR ESMX 121120Z VRB02KT 9000 -RA FEW014 16/14 Q1001=
200808121050 METAR ESMX 121050Z 13005KT 090V170 9999 RA FEW020 SCT027 16/14 Q1001=
200808121020 METAR ESMX 121020Z 14004KT 110V200 9000 -RA FEW022 SCT034 BKN044 17/14 Q1001=
200808120950 METAR ESMX 120950Z 13005KT 080V180 CAVOK 19/14 Q1001=
200808120920 METAR ESMX 120920Z 09003KT 030V150 9999 FEW012 BKN080 18/14 Q1002=
200808120850 METAR ESMX 120850Z 09003KT 040V140 9999 FEW012 BKN080 18/14 Q1002=
200808120820 METAR ESMX 120820Z 12004KT 070V170 9999 FEW010 BKN080 18/14 Q1002=
200808120750 METAR ESMX 120750Z 12004KT 070V180 9999 FEW010 BKN080 18/14 Q1002=
200808120650 METAR ESMX 120650Z 13003KT 050V170 9999 FEW004 BKN080 16/14 Q1003=
200808120620 METAR ESMX 120620Z 14004KT 100V170 9999 FEW002 BKN085 14/14 Q1003=
200808120550 METAR ESMX 120550Z 14004KT 100V170 9999 FEW002 BKN080 14/13 Q1003=
200808120520 METAR ESMX 120520Z 14005KT 110V170 1400 R01/1100VP2000U R19/P2000U SCT002 BKN100 13/13 Q1003=
200808120450 METAR ESMX 120450Z 13004KT 110V170 1100 R01/0900VP2000U R19/P2000D FG SCT001 13/12 Q1003=
200808120420 METAR ESMX 120420Z 15004KT 3500 R01/1200VP2000U R19/P2000D BR NSC 13/12 Q1003=
200808120350 METAR ESMX 120350Z 14004KT 110V180 0900 R01/0900VP2000D R19/1100VP2000N FG 12/12 Q1003=
200808120320 METAR ESMX 120320Z AUTO 15004KT 1100NDV R01/P2000N R19/P2000N BR NCD 12/11 Q1003=
200808120250 METAR ESMX 120250Z AUTO 15004KT 0600NDV R01/P2000U R19/P2000 NCD 12/11 Q1003=
200808120220 METAR ESMX 120220Z AUTO 15004KT 1800NDV NCD 12/11 Q1003=
200808120150 METAR ESMX 120150Z AUTO 16002KT 0350NDV R01/P2000D R19/P2000U BR NCD 11/11 Q1003=
200808120120 METAR ESMX 120120Z AUTO 18003KT 2900NDV BR NCD 13/13 Q1004=
200808120050 METAR ESMX 120050Z AUTO 21005KT 5000NDV BR NCD 13/12 Q1004=
200808120020 METAR ESMX 120020Z AUTO 20005KT 2200NDV BR NCD 12/12 Q1004=
200808112350 METAR ESMX 112350Z 19005KT 4600 BR SCT094 13/12 Q1004=
200808112320 METAR ESMX 112320Z 19005KT 9000 BR NSC 13/12 Q1004=
200808112250 METAR ESMX 112250Z 17005KT 7000 BR NSC 14/13 Q1004=
200808112220 METAR ESMX 112220Z 17003KT CAVOK 14/13 Q1004=
200808112150 METAR ESMX 112150Z 21004KT CAVOK 14/13 Q1004=
200808112120 METAR ESMX 112120Z 20005KT CAVOK 14/13 Q1004=
200808112050 METAR ESMX 112050Z 20006KT CAVOK 14/13 Q1004=
200808112020 METAR ESMX 112020Z 19005KT CAVOK 14/13 Q1004=
200808111950 METAR ESMX 111950Z 20005KT CAVOK 14/13 Q1004=
200808111920 METAR ESMX 111920Z 21005KT 9999 NSC 14/13 Q1004=
200808111850 METAR ESMX 111850Z 20007KT 9999 FEW040 15/13 Q1004=
200808111820 METAR ESMX 111820Z 21006KT 9999 FEW040 BKN075 16/14 Q1003=
200808111750 METAR ESMX 111750Z 21005KT 9999 FEW045CB BKN060 16/14 Q1003=
200808111720 METAR ESMX 111720Z 21006KT 9999 FEW040 18/13 Q1003=
200808111650 METAR ESMX 111650Z 20006KT 9999 FEW042 19/12 Q1003=
200808111620 METAR ESMX 111620Z 21008KT 190V250 CAVOK 19/11 Q1002=
200808111550 METAR ESMX 111550Z 22008KT CAVOK 20/11 Q1003=
200808111520 METAR ESMX 111520Z 23012KT 190V270 9999 FEW045 20/10 Q1002=
200808111450 METAR ESMX 111450Z 24012KT 210V270 9999 FEW047 21/10 Q1002=
200808111420 METAR ESMX 111420Z 25011KT 200V290 9999 FEW051 SCT067 20/11 Q1002=
200808111320 METAR ESMX 111320Z 24013KT 210V270 9999 SCT040 21/10 Q1002=
200808111250 METAR ESMX 111250Z 22012KT 190V250 9999 SCT037 20/13 Q1001=
200808111220 METAR ESMX 111220Z 22013KT 190V310 9999 SCT037 20/12 Q1001=
200808111150 METAR ESMX 111150Z 23010KT 200V270 9999 FEW029 SCT044 BKN057 19/13 Q1001=
200808111120 METAR ESMX 111120Z 21012KT 170V240 9999 FEW027 SCT036 BKN045 19/14 Q1001=
200808111050 METAR ESMX 111050Z 21013KT 170V240 9999 FEW022 SCT043 19/15 Q1001=
200808111020 METAR ESMX 111020Z 20011KT 9999 FEW020 SCT090 17/14 Q1001=
200808110950 METAR ESMX 110950Z 22010KT 170V250 9999 FEW018 SCT030 17/14 Q1001=
200808110920 METAR ESMX 110920Z 20010KT 170V230 9999 FEW016 SCT023 BKN077 19/15 Q1001=
200808110850 METAR ESMX 110850Z 21011KT 180V240 9999 FEW014 SCT022 BKN031 18/14 Q1001=
200808110820 METAR ESMX 110820Z 21009KT 9999 FEW013 SCT017 BKN020 16/14 Q1001=
200808110750 METAR ESMX 110750Z 21010KT 9999 BKN011 OVC017 16/14 Q1001=
200808110720 METAR ESMX 110720Z 20012KT 9999 BKN010 BKN077 16/14 Q1001=
200808110650 METAR ESMX 110650Z 21012KT 9999 FEW009 BKN010 BKN021 15/14 Q1001=
200808110620 METAR ESMX 110620Z 19014KT 9999 FEW009 BKN011 BKN015 15/14 Q1000=
200808110520 METAR ESMX 110520Z 19010KT 9999 FEW009 SCT013 BKN082 14/13 Q1000=
200808110450 METAR ESMX 110450Z 19010KT 9999 FEW019 SCT085 14/12 Q1000=
200808110420 METAR ESMX 110420Z 18008KT 9999 FEW006 13/12 Q1000=
200808110350 METAR ESMX 110350Z 19008KT 9999 FEW005 13/12 Q1000=
200808110320 METAR ESMX 110320Z AUTO 21007KT 9999NDV BKN005/// OVC010/// 14/13 Q1001=
200808110250 METAR ESMX 110250Z AUTO 22005KT 9999NDV FEW008/// BKN010/// BKN014/// 14/13 Q1000=
200808110220 METAR ESMX 110220Z AUTO 23007KT 190V250 9999NDV FEW007/// 14/13 Q1000=
200808110150 METAR ESMX 110150Z AUTO 21008KT 9999NDV FEW007/// BKN009/// BKN013/// 14/13 Q1000=
200808110120 METAR ESMX 110120Z AUTO 21008KT 9999NDV FEW009/// BKN011/// BKN026/// 14/13 Q1000=
200808110050 METAR ESMX 110050Z AUTO 21007KT 9999NDV FEW013/// SCT018/// 14/13 Q1000=
200808110020 METAR ESMX 110020Z 20008KT 9999 FEW009 SCT020 15/14 Q1000=
200808102350 METAR ESMX 102350Z 20007KT 9999 SCT010 BKN080 15/14 Q1000=
200808102320 METAR ESMX 102320Z 20007KT 9999 SCT010 15/14 Q1000=
200808102250 METAR ESMX 102250Z 21009KT 9999 FEW010 15/14 Q1000=
200808102220 METAR ESMX 102220Z 21009KT 9999 FEW010 15/14 Q1000=
200808102150 METAR ESMX 102150Z 20009KT 9999 FEW010 BKN073 16/15 Q1000 REDZ=
200808102120 METAR ESMX 102120Z 22009KT 6000 DZ FEW008 SCT020 BKN061 16/15 Q1000 RERA=
200808102050 METAR ESMX 102050Z 20009KT 9999 FEW007 SCT011 BKN013 16/15 Q1000=
200808102020 METAR ESMX 102020Z 20009KT 9999 FEW007 SCT010 OVC013 16/15 Q1000=
200808101950 METAR ESMX 101950Z 21010KT 9999 FEW006 SCT008 BKN012 16/15 Q1000=
200808101920 METAR ESMX 101920Z 19010KT 9999 BR FEW005 SCT007 BKN008 16/15 Q1000 RERA REDZ=
200808101820 METAR ESMX 101820Z 20011KT 7000 -DZ FEW004 OVC005 16/15 Q0999 RERA=
200808101750 METAR ESMX 101750Z 19012KT 4000 -RA BKN004 OVC007 16/15 Q0999 REDZ=
200808101720 METAR ESMX 101720Z 18010KT 3000 BR OVC006 16/15 Q0999 REDZ RERA=
200808101650 METAR ESMX 101650Z 18010KT 3500 DZ OVC005 16/15 Q1000=
200808101620 METAR ESMX 101620Z 17010KT 4500 DZ OVC004 16/15 Q1000=
200808101550 METAR ESMX 101550Z 17011KT 4000 DZ OVC003 16/15 Q1000=
200808101520 METAR ESMX 101520Z 17010KT 130V190 5000 BR OVC004 16/15 Q1000=
200808101450 METAR ESMX 101450Z 17009KT 5000 DZ BKN005 OVC008 15/15 Q1000=
200808101420 METAR ESMX 101420Z 16008KT 5000 -RA BKN005 15/14 Q1000=
200808101320 METAR ESMX 101320Z 16009KT 5000 DZ OVC004 15/14 Q1001 RERA=
200808101150 METAR ESMX 101150Z 17009KT 120V200 9999 BR OVC004 14/13 Q1002=
200808101120 METAR ESMX 101120Z 18011KT 9999 OVC005 14/13 Q1002=
200808101050 METAR ESMX 101050Z 17012KT 130V200 9999 OVC005 14/13 Q1002=
200808101020 METAR ESMX 101020Z AUTO 17009KT 140V200 9999NDV SCT006/// OVC008/// 14/13 Q1002 REDZ=
200808100950 METAR ESMX 100950Z AUTO 17010KT 9999NDV -DZ FEW006/// OVC007/// 14/13 Q1003 RERA=
200808100920 METAR ESMX 100920Z AUTO 16009KT 120V200 9999NDV -RA FEW005/// SCT006/// BKN008/// 13/12 Q1003 REDZ=
200808100850 METAR ESMX 100850Z AUTO 16008KT 9000NDV -RA FEW006/// SCT008/// BKN010/// 13/12 Q1003=
200808100820 METAR ESMX 100820Z AUTO 16010KT 8000NDV -RA FEW008/// SCT011/// BKN028/// 13/12 Q1003=
200808100750 METAR ESMX 100750Z AUTO 16007KT 120V190 9999NDV DZ FEW024/// SCT033/// 13/11 Q1004 RERA=
200808100720 METAR ESMX 100720Z AUTO 16006KT 9000NDV -RA FEW020/// SCT032/// BKN044/// 13/11 Q1004 REDZ=
200808100650 METAR ESMX 100650Z AUTO 17005KT 9999NDV DZ FEW025/// SCT038/// BKN044/// 13/11 Q1004 RERA=
200808100620 METAR ESMX 100620Z AUTO 18005KT 9999NDV OVC048/// 13/11 Q1004=
200808100550 METAR ESMX 100550Z AUTO 18006KT 9999NDV BKN051/// 12/11 Q1004=
200808100520 METAR ESMX 100520Z AUTO 19006KT 9999NDV BKN053/// 12/11 Q1004 REDZ=
200808100450 METAR ESMX 100450Z AUTO 18005KT 9999NDV -DZ BKN069/// 12/11 Q1004 RERA=
200808100420 METAR ESMX 100420Z AUTO 19004KT 9999NDV DZ SCT073/// 12/11 Q1005 RERA=
200808100350 METAR ESMX 100350Z AUTO 19006KT 9999NDV -RA FEW070/// 12/11 Q1005=
200808100320 METAR ESMX 100320Z AUTO 21005KT 9999NDV FEW079/// BKN090/// 12/10 Q1005=
200808100250 METAR ESMX 100250Z AUTO 18005KT 9999NDV BKN095/// 12/10 Q1005=
200808100220 METAR ESMX 100220Z AUTO 19005KT 9999NDV FEW110/// 12/10 Q1005=
200808100150 METAR ESMX 100150Z AUTO 20005KT 9999NDV NCD 11/10 Q1005=
200808100120 METAR ESMX 100120Z AUTO 21005KT 9999NDV NCD 11/09 Q1005=
200808100050 METAR ESMX 100050Z AUTO 21004KT 170V250 9999NDV NCD 12/10 Q1005=
200808100020 METAR ESMX 100020Z AUTO 24003KT 210V280 9999NDV NCD 12/10 Q1005=
200808092350 METAR ESMX 092350Z AUTO 24004KT 210V280 9999NDV FEW024/// 12/09 Q1006=
200808092320 METAR ESMX 092320Z AUTO 23004KT 9999NDV NCD 12/09 Q1006=
200808092250 METAR ESMX 092250Z AUTO 23004KT 9999NDV NCD 12/09 Q1006=
200808092220 METAR ESMX 092220Z AUTO 23005KT 9999NDV NCD 12/09 Q1006=
200808092150 METAR ESMX 092150Z AUTO 22005KT 9999NDV NCD 13/09 Q1006=
200808092120 METAR ESMX 092120Z AUTO 25006KT 9999NDV NCD 13/09 Q1006=
200808092050 METAR ESMX 092050Z AUTO 25005KT 9999NDV NCD 13/09 Q1005=
200808092020 METAR ESMX 092020Z AUTO 25006KT 210V290 9999NDV NCD 14/09 Q1005=
200808091950 METAR ESMX 091950Z AUTO 26007KT 9999NDV NCD 14/09 Q1005=
200808091920 METAR ESMX 091920Z AUTO 25007KT 210V290 9999NDV NCD 14/09 Q1005=
200808091850 METAR ESMX 091850Z AUTO 27009KT 230V290 9999NDV NCD 15/09 Q1005=
200808091820 METAR ESMX 091820Z AUTO 26011KT 9999NDV NCD 16/09 Q1004=
200808091750 METAR ESMX 091750Z AUTO 27011KT 9999NDV NCD 16/10 Q1004=
200808091720 METAR ESMX 091720Z AUTO 26011KT 230V290 9999NDV NCD 17/10 Q1004=
200808091650 METAR ESMX 091650Z AUTO 26010KT 9999NDV NCD 18/10 Q1004=
200808091620 METAR ESMX 091620Z AUTO 27014G24KT 230V300 9999NDV FEW040/// 18/09 Q1004=
200808091550 METAR ESMX 091550Z AUTO 25013KT 9999NDV NCD 19/10 Q1004=
200808091520 METAR ESMX 091520Z AUTO 25012KT 210V290 9999NDV FEW040/// 19/11 Q1004=
200808091450 METAR ESMX 091450Z AUTO 25014KT 220V280 9999NDV FEW032/// BKN086/// 20/12 Q1003=
200808091420 METAR ESMX 091420Z 26011G21KT 230V290 9999 FEW054 SCT079 BKN090 19/13 Q1004=
200808091350 METAR ESMX 091350Z 26010KT 220V290 9999 FEW025CB SCT040 19/13 Q1004=
200808091320 METAR ESMX 091320Z 28011G26KT 240V300 9999 FEW030 19/13 Q1003=
200808091250 METAR ESMX 091250Z AUTO 26013KT 230V300 9999NDV FEW018/// SCT025/// BKN033/// 18/13 Q1003 RERA=
200808091220 METAR ESMX 091220Z AUTO 24011KT 210V280 9999NDV SCT027/// BKN037/// BKN110/// 21/14 Q1003=
200808091150 METAR ESMX 091150Z AUTO 25009KT 200V290 9999NDV FEW027/// SCT110/// 21/14 Q1003=
200808091120 METAR ESMX 091120Z AUTO 24008KT 210V280 9999NDV FEW030/// SCT091/// 19/14 Q1002=
200808091050 METAR ESMX 091050Z AUTO 28008KT 200V350 9999NDV NCD 20/14 Q1002=
200808091020 METAR ESMX 091020Z AUTO 30008KT 260V330 9999NDV -RA SCT027/// 19/14 Q1002=
200808090950 METAR ESMX 090950Z AUTO 26008KT 230V300 9999NDV FEW025/// SCT046/// 20/14 Q1002=
200808090920 METAR ESMX 090920Z AUTO 30009KT 9999NDV FEW023/// SCT035/// 19/13 Q1002=
200808090850 METAR ESMX 090850Z AUTO 28007KT 250V330 9999NDV FEW020/// SCT037/// 20/13 Q1002=
200808090820 METAR ESMX 090820Z AUTO 26009KT 220V290 9999NDV FEW018/// SCT020/// BKN047/// 19/14 Q1001=
200808090750 METAR ESMX 090750Z AUTO 27008KT 240V320 9999NDV FEW016/// SCT020/// BKN050/// 19/14 Q1001=
200808090720 METAR ESMX 090720Z AUTO 28007KT 250V320 9999NDV FEW012/// SCT019/// BKN031/// 18/14 Q1001=
200808090650 METAR ESMX 090650Z AUTO 26007KT 240V300 9999NDV FEW011/// BKN014/// BKN023/// 17/15 Q1001=
200808090620 METAR ESMX 090620Z AUTO 28007KT 250V320 9999NDV FEW011/// SCT021/// BKN046/// 17/15 Q1001=
200808090550 METAR ESMX 090550Z AUTO 27006KT 9999NDV FEW008/// SCT012/// BKN035/// 16/15 Q1001=
200808090520 METAR ESMX 090520Z AUTO 26005KT 230V290 8000NDV FEW009/// SCT011/// BKN013/// 16/15 Q1000=
200808090450 METAR ESMX 090450Z AUTO 26006KT 9999NDV FEW007/// SCT009/// BKN013/// 15/14 Q1000=
200808090420 METAR ESMX 090420Z AUTO 25006KT 230V290 9999NDV FEW005/// SCT018/// BKN020/// 15/14 Q1000=
200808090350 METAR ESMX 090350Z AUTO 23005KT 210V270 9999NDV FEW005/// SCT008/// BKN011/// 15/14 Q1000=
200808090320 METAR ESMX 090320Z AUTO 24004KT 190V260 9999NDV FEW004/// SCT009/// BKN013/// 15/14 Q0999=
200808090250 METAR ESMX 090250Z AUTO VRB02KT 9999NDV FEW003/// SCT007/// BKN028/// 14/14 Q0999=
200808090220 METAR ESMX 090220Z AUTO 23003KT 9999NDV SCT003/// BKN006/// OVC024/// 14/14 Q0999=
200808090150 METAR ESMX 090150Z AUTO 22004KT 9999NDV FEW006/// SCT012/// BKN018/// 14/14 Q0999=
200808090120 METAR ESMX 090120Z AUTO 21003KT 9999NDV FEW006/// OVC009/// 14/14 Q0999=
200808090050 METAR ESMX 090050Z AUTO 21003KT 9999NDV FEW004/// OVC008/// 14/13 Q0999=
200808090020 METAR ESMX 090020Z AUTO 23003KT 9999NDV SCT004/// OVC007/// 14/14 Q0999=
200808082350 METAR ESMX 082350Z AUTO 22004KT 9999NDV FEW004/// SCT005/// 13/13 Q0999=
200808082320 METAR ESMX 082320Z AUTO 20005KT 6000NDV BR FEW051/// 13/12 Q0999=
200808082250 METAR ESMX 082250Z AUTO 20004KT 9000NDV FEW097/// 14/13 Q0999=
200808082220 METAR ESMX 082220Z AUTO 19005KT 9999NDV BKN095/// 14/13 Q0999=
200808082150 METAR ESMX 082150Z AUTO 20005KT 9999NDV FEW083/// BKN098/// 15/14 Q0999=
200808082120 METAR ESMX 082120Z AUTO 20005KT 9999NDV SCT082/// 15/14 Q0999=
200808082050 METAR ESMX 082050Z AUTO 21005KT 6000NDV -RA BKN068/// 15/14 Q0999 REDZ=
200808082020 METAR ESMX 082020Z AUTO 22006KT 9999NDV BKN080/// 16/14 Q0999=
200808081950 METAR ESMX 081950Z AUTO 22004KT 9999NDV BKN085/// 16/14 Q0999=
200808081920 METAR ESMX 081920Z AUTO 25004KT 9999NDV BKN082/// 16/14 Q0999=
200808081850 METAR ESMX 081850Z AUTO 25004KT 9999NDV FEW020/// BKN094/// BKN100/// 17/14 Q0998=
200808081750 METAR ESMX 081750Z 25005KT CAVOK 18/14 Q0998=
200808081720 METAR ESMX 081720Z 24005KT CAVOK 18/14 Q0998=
200808081620 METAR ESMX 081620Z 24006KT 210V280 CAVOK 19/15 Q0998=
200808081450 METAR ESMX 081450Z VRB01KT 9999 FEW013 SCT072 BKN110 19/16 Q0998 RERA REDZ=
200808081420 METAR ESMX 081420Z 22005KT 190V250 9999 -RA SCT025 17/16 Q0998=
200808081350 METAR ESMX 081350Z 25009KT 200V290 9999 SHRA SCT024CB BKN030 BKN040 19/15 Q0998=
200808081320 METAR ESMX 081320Z 24008KT 210V290 9999 FEW025 SCT051 BKN100 20/15 Q0998=
200808081250 METAR ESMX 081250Z 23009KT 9999 FEW030 BKN050 20/14 Q0998=
200808081220 METAR ESMX 081220Z 26008KT 9999 SCT046 BKN100 20/14 Q0997=
200808081150 METAR ESMX 081150Z 25006KT 210V290 9999 FEW025 SCT040 BKN045 20/14 Q0997=
200808081120 METAR ESMX 081120Z 26008KT 220V280 9999 FEW015 BKN035 19/14 Q0997=
200808081050 METAR ESMX 081050Z 26006KT 220V290 9999 FEW020 SCT040 BKN200 20/15 Q0997=
200808081020 METAR ESMX 081020Z 28008KT 250V320 9999 SCT015 BKN030 19/15 Q0997=
200808080950 METAR ESMX 080950Z 28009KT 9999 FEW016 SCT018 BKN034 19/15 Q0997=
200808080920 METAR ESMX 080920Z 29009KT 260V340 9999 SCT013 BKN018 19/16 Q0996=
200808080850 METAR ESMX 080850Z 29009KT 260V330 9999 FEW009 BKN014 BKN100 19/16 Q0996=
200808080820 METAR ESMX 080820Z 27007KT 240V330 9999 FEW006 SCT010 BKN025 19/17 Q0995=
200808080750 METAR ESMX 080750Z 26007KT 9999 BR FEW005 SCT008 BKN009 18/17 Q0995 RERA REDZ=
200808080720 METAR ESMX 080720Z 24006KT 3500 +DZ BKN006 OVC008 18/16 Q0995 RERA=
200808080650 METAR ESMX 080650Z 23008KT 9999 BKN006 18/16 Q0995=
200808080620 METAR ESMX 080620Z 22007KT 200V260 9999 SCT007 BKN026 18/16 Q0995=
200808080550 METAR ESMX 080550Z 23009KT 9999 SCT007 BKN025 18/16 Q0995=
200808080520 METAR ESMX 080520Z 23008KT 9999 FEW007 SCT028 18/16 Q0995=
200808080450 METAR ESMX 080450Z 21007KT CAVOK 17/15 Q0995=
200808080420 METAR ESMX 080420Z 21005KT CAVOK 16/14 Q0995=
200808080350 METAR ESMX 080350Z AUTO 19004KT 9999NDV BKN032/// 16/14 Q0995=
200808080320 METAR ESMX 080320Z AUTO 17005KT 140V210 9999NDV FEW035/// 17/15 Q0996=
200808080250 METAR ESMX 080250Z AUTO 16004KT 120V180 9999NDV FEW060/// 16/15 Q0996=
200808080220 METAR ESMX 080220Z AUTO 14003KT 110V170 1400NDV R01/P2000U R19/P2000U FEW055/// 16/15 Q0996=
200808080150 METAR ESMX 080150Z AUTO 00000KT 9000NDV NCD 15/14 Q0996=
200808080120 METAR ESMX 080120Z AUTO VRB01KT 9999NDV FEW080/// SCT099/// 17/15 Q0997=
200808080050 METAR ESMX 080050Z AUTO 11004KT 9999NDV FEW085/// 17/16 Q0998 RERA REDZ=
200808080020 METAR ESMX 080020Z AUTO VRB01KT 9000NDV -RA FEW079/// 17/15 Q0998 REDZ=
200808072350 METAR ESMX 072350Z VRB02KT 9999 -RA FEW020 SCT100 17/15 Q0999=
200808072320 METAR ESMX 072320Z 21009G21KT 140V260 9999 RA FEW063 SCT100 18/14 Q1000=
200808072250 METAR ESMX 072250Z 11003KT 080V140 CAVOK 18/15 Q0999=
200808072220 METAR ESMX 072220Z 08004KT 050V110 CAVOK 18/15 Q1000=
200808072150 METAR ESMX 072150Z VRB02KT 9999 VSTS BKN065 18/15 Q1001=
200808072120 METAR ESMX 072120Z 14006KT 110V180 9999 VCTS BKN064 BKN110 19/14 Q1001=
200808072050 METAR ESMX 072050Z 14005KT 080V170 CAVOK 20/14 Q1002=
200808072020 METAR ESMX 072020Z 15006KT 110V180 CAVOK 20/14 Q1002=
200808071950 METAR ESMX 071950Z 14006KT 110V180 CAVOK 20/14 Q1003=
200808071920 METAR ESMX 071920Z 15006KT 120V200 CAVOK 20/14 Q1003=
200808071850 METAR ESMX 071850Z 15005KT 120V190 CAVOK 20/14 Q1003=
200808071820 METAR ESMX 071820Z 15005KT CAVOK 21/14 Q1004=
200808071750 METAR ESMX 071750Z 16007KT 120V200 9999 FEW045 22/14 Q1004=
200808071720 METAR ESMX 071720Z 16007KT 9999 SCT040 23/15 Q1004=
200808071650 METAR ESMX 071650Z 16007KT 9999 SCT040 23/16 Q1004=
200808071620 METAR ESMX 071620Z 17009KT 9999 FEW029 SCT035 BKN047 23/17 Q1005=
200808071550 METAR ESMX 071550Z 17006KT 130V200 9999 FEW029 SCT039 BKN062 24/17 Q1005=
200808071520 METAR ESMX 071520Z 16004KT 140V200 9999 FEW029 SCT039 BKN057 23/17 Q1006=
200808071450 METAR ESMX 071450Z 20006KT 170V240 9999 FEW035 SCT045 24/17 Q1006=
200808071420 METAR ESMX 071420Z 20008KT 9999 FEW033 SCT040 23/16 Q1006=
200808071350 METAR ESMX 071350Z 18008KT 9999 SCT034 BKN042 23/16 Q1006=
200808071320 METAR ESMX 071320Z 20008KT 9999 FEW035 SCT045 24/16 Q1007=
200808071250 METAR ESMX 071250Z 20008KT 9999 FEW032 23/16 Q1007=
200808071220 METAR ESMX 071220Z 20008KT 170V230 9999 FEW030 23/16 Q1007=
200808071150 METAR ESMX 071150Z 19009KT 9999 FEW030 SCT035 23/15 Q1008=
200808071120 METAR ESMX 071120Z 20010KT 170V240 9999 BKN025 22/15 Q1008=
200808071050 METAR ESMX 071050Z 21009KT 9999 BKN025 22/15 Q1008=
200808071020 METAR ESMX 071020Z 19010KT 9999 SCT020 BKN030 21/15 Q1008=
200808070950 METAR ESMX 070950Z 20009KT 160V240 9999 FEW015 BKN020 21/15 Q1009=
200808070920 METAR ESMX 070920Z 20008KT 9999 SCT012 BKN020 20/16 Q1009=
200808070850 METAR ESMX 070850Z 19006KT 9999 BKN012 OVC017 18/15 Q1009=
200808070820 METAR ESMX 070820Z 21008KT 9999 BKN010 18/15 Q1009=
200808070750 METAR ESMX 070750Z 18006KT 150V210 9999 OVC009 17/15 Q1009=
200808070720 METAR ESMX 070720Z 18007KT 9999 OVC008 17/15 Q1009=
200808070650 METAR ESMX 070650Z 18007KT 140V210 9999 BKN008 16/14 Q1009=
200808070620 METAR ESMX 070620Z 19007KT 9999 FEW007 SCT008 BKN009 16/14 Q1009=
200808070550 METAR ESMX 070550Z 19006KT 9999 OVC005 16/14 Q1010=
200808070520 METAR ESMX 070520Z 17007KT 9999 OVC005 15/14 Q1010=
200808070450 METAR ESMX 070450Z 17007KT 9999 SCT007 BKN010 15/14 Q1010=
200808070420 METAR ESMX 070420Z 19007KT 9999 SCT008 BKN010 OVC015 15/14 Q1010=
200808070350 METAR ESMX 070350Z AUTO 17009KT 130V200 9999NDV FEW010/// BKN016/// OVC020/// 15/13 Q1010=
200808070320 METAR ESMX 070320Z AUTO 17009KT 9999NDV FEW009/// OVC016/// 15/13 Q1010=
200808070250 METAR ESMX 070250Z AUTO 17010KT 120V200 9999NDV FEW008/// SCT009/// BKN011/// 15/13 Q1011=
200808070220 METAR ESMX 070220Z AUTO 17008KT 140V200 9999NDV FEW005/// SCT007/// BKN009/// 15/13 Q1011=
200808070150 METAR ESMX 070150Z AUTO 16007KT 9999NDV FEW006/// BKN008/// OVC011/// 15/13 Q1011 REDZ=
200808070120 METAR ESMX 070120Z AUTO 16005KT 110V200 9999NDV -DZ FEW008/// SCT009/// BKN011/// 15/13 Q1012 RERA=
200808070050 METAR ESMX 070050Z AUTO 15006KT 110V190 9999NDV FEW007/// SCT010/// OVC027/// 15/13 Q1012=
200808070020 METAR ESMX 070020Z AUTO 16006KT 120V190 9999NDV BKN007/// OVC034/// 15/13 Q1013 RERA REDZ=
200808062350 METAR ESMX 062350Z AUTO 15006KT 120V180 9999NDV FEW007/// SCT009/// BKN011/// 15/13 Q1013=
200808062320 METAR ESMX 062320Z 16006KT 130V190 9999 FEW007 BKN009 OVC053 15/13 Q1013=
200808062250 METAR ESMX 062250Z 17005KT 130V200 9999 FEW008 OVC053 15/13 Q1013=
200808062220 METAR ESMX 062220Z 16006KT 130V200 CAVOK 15/12 Q1013=
200808062150 METAR ESMX 062150Z 17007KT CAVOK 15/12 Q1013=
200808062120 METAR ESMX 062120Z 17006KT 140V200 CAVOK 15/12 Q1014=
200808062050 METAR ESMX 062050Z 17006KT CAVOK 15/12 Q1014=
200808062020 METAR ESMX 062020Z 17006KT CAVOK 16/12 Q1014=
200808061950 METAR ESMX 061950Z 18007KT CAVOK 16/11 Q1014=
200808061920 METAR ESMX 061920Z 17008KT 150V220 CAVOK 16/11 Q1014=
200808061850 METAR ESMX 061850Z 17006KT 150V210 CAVOK 17/12 Q1014=
200808061820 METAR ESMX 061820Z 18005KT CAVOK 18/12 Q1014=
200808061750 METAR ESMX 061750Z 17004KT CAVOK 18/11 Q1014=
200808061720 METAR ESMX 061720Z 19007KT CAVOK 19/11 Q1014=
200808061650 METAR ESMX 061650Z 18007KT CAVOK 19/12 Q1014=
200808061620 METAR ESMX 061620Z 20009KT 9999 FEW040 SCT080 20/11 Q1014=
200808061550 METAR ESMX 061550Z 21005KT 170V260 CAVOK 20/11 Q1014=
200808061520 METAR ESMX 061520Z 17004KT CAVOK 19/10 Q1014=
200808061420 METAR ESMX 061420Z 20005KT 160V230 9999 FEW035 SCT050 19/11 Q1015=
200808061350 METAR ESMX 061350Z 20005KT 160V250 9999 FEW030 BKN045 20/10 Q1015=
200808061320 METAR ESMX 061320Z 20003KT 160V230 9999 FEW030 SCT050 19/10 Q1015=
200808061250 METAR ESMX 061250Z 20004KT 150V210 9999 BKN035 BKN062 20/10 Q1015=
200808061220 METAR ESMX 061220Z 21005KT 160V250 9999 FEW036 BKN049 19/11 Q1015=
200808061150 METAR ESMX 061150Z 23006KT 190V260 9999 FEW031 SCT038 BKN060 20/10 Q1015=
200808061120 METAR ESMX 061120Z 16006KT 120V210 9999 FEW032 SCT047 19/11 Q1015=
200808061050 METAR ESMX 061050Z VRB02KT 9999 FEW032 SCT040 19/12 Q1015=
200808061020 METAR ESMX 061020Z 34004KT 9999 SCT022 BKN031 17/11 Q1015=
200808060950 METAR ESMX 060950Z VRB03KT 9999 FEW017 SCT020 BKN032 18/12 Q1015=
200808060920 METAR ESMX 060920Z 22003KT 9999 FEW016 SCT020 BKN024 16/11 Q1016=
200808060850 METAR ESMX 060850Z VRB02KT 9999 SCT015 BKN049 16/12 Q1016=
200808060820 METAR ESMX 060820Z VRB02KT 9999 FEW010 SCT027 BKN046 15/12 Q1016=
200808060750 METAR ESMX 060750Z VRB02KT 9999 FEW007 SCT009 BKN027 14/11 Q1015=
200808060720 METAR ESMX 060720Z 02003KT 9999 SCT007 OVC027 14/11 Q1015=
200808060650 METAR ESMX 060650Z 02003KT 9999 SCT007 BKN028 OVC042 13/11 Q1015=
200808060620 METAR ESMX 060620Z VRB02KT 9999 FEW006 SCT008 BKN012 13/11 Q1015=
200808060550 METAR ESMX 060550Z 32003KT 9999 BKN007 OVC010 13/11 Q1015=
200808060520 METAR ESMX 060520Z 32003KT 9999 BKN007 OVC011 12/11 Q1015=
200808060450 METAR ESMX 060450Z 31003KT 9999 BKN006 OVC009 12/11 Q1015=
200808060420 METAR ESMX 060420Z 32004KT 9999 SCT006 BKN010 12/11 Q1015=
200808060350 METAR ESMX 060350Z AUTO 32004KT 9999NDV OVC008/// 12/11 Q1015=
200808060320 METAR ESMX 060320Z AUTO 30004KT 9999NDV BKN008/// OVC042/// 12/11 Q1014=
200808060250 METAR ESMX 060250Z AUTO 32004KT 9999NDV FEW008/// OVC010/// 12/11 Q1014=
200808060220 METAR ESMX 060220Z AUTO 36006KT 9999NDV FEW008/// OVC012/// 12/11 Q1014=
200808060150 METAR ESMX 060150Z AUTO 35006KT 9999NDV FEW008/// SCT010/// OVC013/// 12/11 Q1014=
200808060120 METAR ESMX 060120Z AUTO 34006KT 9999NDV BKN008/// OVC011/// 12/11 Q1014=
200808060050 METAR ESMX 060050Z AUTO 34008KT 9999NDV FEW008/// OVC010/// 12/11 Q1013=
200808060020 METAR ESMX 060020Z AUTO 35007KT 320V020 9999NDV OVC011/// 13/11 Q1013=
200808052350 METAR ESMX 052350Z AUTO 34008KT 9999NDV OVC010/// 13/11 Q1013=
200808052320 METAR ESMX 052320Z 32006KT 290V350 9999 OVC010 13/10 Q1013=
200808052250 METAR ESMX 052250Z 34009KT 300V020 9999 OVC010 13/10 Q1013=
200808052150 METAR ESMX 052150Z 34009KT 9999 FEW011 OVC013 13/11 Q1012=
200808052120 METAR ESMX 052120Z 33006KT 9999 OVC015 13/11 Q1012=
200808052050 METAR ESMX 052050Z 33008KT 290V360 9999 OVC013 13/11 Q1012=
200808052020 METAR ESMX 052020Z 34011KT 9999 OVC015 13/10 Q1011=
200808051950 METAR ESMX 051950Z 34012KT 9999 OVC013 13/11 Q1011=
200808051920 METAR ESMX 051920Z 35012KT 9999 OVC015 14/11 Q1010=
200808051850 METAR ESMX 051850Z 34012KT 9999 BKN015 OVC019 14/11 Q1010=
200808051820 METAR ESMX 051820Z 34011KT 300V010 9999 OVC013 14/11 Q1010=
200808051750 METAR ESMX 051750Z 33011KT 9999 OVC013 14/11 Q1009=
200808051720 METAR ESMX 051720Z 33011KT 300V360 9999 BKN015 OVC020 14/11 Q1009=
200808051650 METAR ESMX 051650Z 34013KT 300V020 9999 OVC017 14/11 Q1008=
200808051620 METAR ESMX 051620Z 33011KT 300V010 9999 SCT015 BKN020 15/11 Q1008=
200808051550 METAR ESMX 051550Z 32011KT 290V010 9999 BKN013 OVC020 14/11 Q1007=
200808051520 METAR ESMX 051520Z 32011KT 290V350 9999 SCT012 BKN018 14/11 Q1007=
200808051450 METAR ESMX 051450Z 34013KT 9999 BKN011 OVC019 15/12 Q1007=
200808051420 METAR ESMX 051420Z 32010KT 9999 FEW013 BKN016 OVC022 14/12 Q1006=
200808051350 METAR ESMX 051350Z 33013KT 9999 FEW012 SCT017 OVC021 15/12 Q1005=
200808051320 METAR ESMX 051320Z 34013KT 9999 FEW014 OVC018 15/12 Q1005 REDZ=
200808051250 METAR ESMX 051250Z 33011KT 290V360 9999 -DZ FEW011 SCT015 OVC017 14/12 Q1004 RERA=
200808051220 METAR ESMX 051220Z 34012KT 9999 -RA OVC015 15/12 Q1004=
200808051150 METAR ESMX 051150Z 34012KT 300V010 9999 FEW013 OVC020 16/13 Q1002=
200808051120 METAR ESMX 051120Z 32010KT 280V360 9999 FEW012 SCT016 BKN020 16/13 Q1002=
200808051050 METAR ESMX 051050Z 33013G23KT 300V010 9999 FEW014 OVC019 16/12 Q1001=
200808051020 METAR ESMX 051020Z 32012KT 290V350 9999 FEW010 SCT013 BKN016 16/13 Q1000=
200808050950 METAR ESMX 050950Z 33013KT 9999 OVC010 15/13 Q0999=
200808050920 METAR ESMX 050920Z 33013G23KT 300V010 9999 BKN010 15/13 Q0999=
200808050850 METAR ESMX 050850Z 33014KT 290V010 9999 FEW008 SCT012 BKN020 15/13 Q0998=
200808050820 METAR ESMX 050820Z 33013KT 8000 -RA FEW009 SCT012 BKN014 15/13 Q0997=
200808050750 METAR ESMX 050750Z 32013KT 8000 -RA FEW010 SCT014 BKN018 15/13 Q0996=
200808050720 METAR ESMX 050720Z 32012KT 290V360 9999 FEW014 SCT026 BKN050 16/14 Q0995=
200808050650 METAR ESMX 050650Z 33013KT 9999 FEW014 SCT022 BKN033 15/13 Q0995=
200808050620 METAR ESMX 050620Z 33013KT 290V010 9999 FEW012 SCT014 BKN020 15/13 Q0994=
200808050550 METAR ESMX 050550Z 32011KT 280V350 9999 SCT012 BKN018 15/13 Q0993=
200808050520 METAR ESMX 050520Z 32013KT 280V350 9999 FEW011 SCT028 BKN040 14/13 Q0993=
200808050450 METAR ESMX 050450Z 32013KT 9999 FEW013 SCT023 BKN029 14/13 Q0992 RERA=
200808050420 METAR ESMX 050420Z 32013KT 280V350 9999 FEW012 SCT022 BKN026 14/12 Q0992=
200808050350 METAR ESMX 050350Z AUTO 32012KT 290V360 9999NDV -RA FEW010/// SCT018/// BKN020/// 14/12 Q0991=
200808050320 METAR ESMX 050320Z AUTO 31012KT 9999NDV FEW009/// SCT011/// BKN017/// 13/12 Q0990=
200808050250 METAR ESMX 050250Z AUTO 32012KT 9999NDV FEW010/// SCT037/// BKN056/// 13/12 Q0989=
200808050220 METAR ESMX 050220Z AUTO 32012KT 9999NDV FEW011/// SCT021/// BKN033/// 13/12 Q0989=
200808050150 METAR ESMX 050150Z AUTO 31011KT 9999NDV FEW010/// SCT026/// BKN057/// 13/12 Q0988 RERA REDZ=
200808050120 METAR ESMX 050120Z AUTO 32013KT 9999NDV -RA FEW007/// SCT012/// BKN017/// 13/12 Q0988=
200808050050 METAR ESMX 050050Z AUTO 32011KT 9999NDV -RA FEW006/// SCT009/// BKN013/// 13/12 Q0987=
200808050020 METAR ESMX 050020Z AUTO 31011KT 9999NDV RA FEW006/// BKN008/// OVC013/// 13/12 Q0987 REDZ=
200808042350 METAR ESMX 042350Z 31010KT 270V340 4000 RA FEW005 BKN008 OVC010 13/12 Q0986=
200808042320 METAR ESMX 042320Z 32011KT 290V350 9999 -DZ FEW005 BKN006 OVC009 13/12 Q0986=
200808042220 METAR ESMX 042220Z 33010KT 6000 DZ FEW002 BKN004 OVC007 13/13 Q0985 RERA=
200808042150 METAR ESMX 042150Z 35008KT 6000 RA FEW003 SCT004 BKN006 14/13 Q0985 REDZ=
200808042120 METAR ESMX 042120Z 34003KT 9999 -RA FEW003 SCT005 BKN006 13/13 Q0984 REDZ=
200808042050 METAR ESMX 042050Z VRB01KT 8000 -RA BKN002 OVC006 13/13 Q0984=
200808042020 METAR ESMX 042020Z 12003KT 080V160 9999 OVC006 13/13 Q0984=
200808041950 METAR ESMX 041950Z 16006KT 8000 BR FEW003 OVC005 14/13 Q0984 RERA REDZ=
200808041920 METAR ESMX 041920Z 16008KT 120V210 5000 RA FEW005 SCT006 BKN008 14/13 Q0984 REDZ=
200808041850 METAR ESMX 041850Z 16010KT 080V190 8000 -RA FEW006 BKN008 OVC011 13/12 Q0984=
200808041820 METAR ESMX 041820Z 17011KT 140V200 8000 -RA FEW006 SCT008 BKN010 13/12 Q0985=
200808041750 METAR ESMX 041750Z 16013KT 120V190 6000 +RA FEW007 SCT009 BKN011 13/12 Q0986=
200808041720 METAR ESMX 041720Z 16014G25KT 110V180 8000 RA SCT010 BKN016 13/12 Q0987=
200808041650 METAR ESMX 041650Z 16016G26KT 140V200 8000 RA FEW009 SCT013 BKN016 14/12 Q0988=
200808041620 METAR ESMX 041620Z 17013KT 130V200 5000 RA FEW012 SCT017 BKN026 14/12 Q0988=
200808041550 METAR ESMX 041550Z 17015KT 9999 -RA FEW021 SCT027 BKN033 15/12 Q0989=
200808041520 METAR ESMX 041520Z 19014KT 160V230 9999 FEW024 SCT031 BKN063 16/12 Q0990=
200808041450 METAR ESMX 041450Z 19017KT 9999 FEW017 SCT027 BKN046 16/12 Q0990=
200808041420 METAR ESMX 041420Z 21014G24KT 170V240 9999 FEW015 SCT020 BKN030 17/14 Q0990=
200808041350 METAR ESMX 041350Z 20015KT 9999 FEW011 SCT014 BKN028 16/14 Q0990=
200808041320 METAR ESMX 041320Z 19016G28KT 9999 FEW007 SCT011 BKN014 17/16 Q0989 RERA=
200808041250 METAR ESMX 041250Z 17009KT 120V200 9999 RA FEW018 SCT040 BKN057 18/16 Q0989=
200808041220 METAR ESMX 041220Z 19005KT 150V220 9999 FEW004 SCT006 BKN011 17/16 Q0989 RERA=
200808041150 METAR ESMX 041150Z 11007KT 050V220 4000 RA FEW005 SCT007 BKN009 16/15 Q0989=
200808041120 METAR ESMX 041120Z 11008KT 070V160 4000 +RA FEW005 SCT007 BKN009 16/15 Q0990=
200808041050 METAR ESMX 041050Z 10009G19KT 050V170 3500 -RA FEW006 SCT009 BKN012 15/15 Q0991=
200808041020 METAR ESMX 041020Z 11009G21KT 010V180 4000 RA FEW007 OVC009 15/14 Q0992=
200808040950 METAR ESMX 040950Z 08008KT 360V140 5000 -RA FEW007 SCT011 BKN014 15/14 Q0993=
200808040920 METAR ESMX 040920Z 09008KT 030V140 6000 RA FEW006 SCT009 BKN013 15/15 Q0994=
200808040850 METAR ESMX 040850Z 09008KT 040V140 7000 RA FEW004 SCT007 BKN008 15/15 Q0995=
200808040820 METAR ESMX 040820Z 09006KT 050V140 5000 RA FEW004 SCT007 BKN011 15/14 Q0996=
200808040750 METAR ESMX 040750Z 10006KT 030V170 6000 RA FEW004 SCT006 BKN008 15/14 Q0998=
200808040720 METAR ESMX 040720Z 09006KT 030V170 2900 +RA FEW006 SCT010 BKN018 14/14 Q0998=
200808040650 METAR ESMX 040650Z 07005KT 020V120 8000 RA SCT012 BKN025 14/13 Q0999=
200808040620 METAR ESMX 040620Z 08005KT 040V130 9000 -RA FEW013 BKN023 14/13 Q1000=
200808040550 METAR ESMX 040550Z 08004KT 030V150 7000 RA FEW024 BKN030 14/13 Q1001=
200808040520 METAR ESMX 040520Z 10003KT 050V140 6000 RA FEW025 BKN040 14/13 Q1001=
200808040450 METAR ESMX 040450Z 15005KT 110V190 6000 RA FEW008 BKN060 14/14 Q1002=
200808040420 METAR ESMX 040420Z 14005KT 9000 -RA FEW066 BKN080 15/14 Q1002 REDZ=
200808040350 METAR ESMX 040350Z 15005KT 9999 -DZ FEW064 BKN075 15/13 Q1003 RERA=
200808040320 METAR ESMX 040320Z AUTO VRB01KT 9999NDV BKN080/// 13/12 Q1003=
200808040250 METAR ESMX 040250Z AUTO VRB01KT 9999NDV NCD 13/11 Q1003=
200808040220 METAR ESMX 040220Z AUTO 17002KT 9999NDV NCD 13/11 Q1004=
200808040150 METAR ESMX 040150Z AUTO 17002KT 9999NDV NCD 13/11 Q1004=
200808040120 METAR ESMX 040120Z AUTO 18005KT 9999NDV NCD 14/12 Q1005=
200808040050 METAR ESMX 040050Z AUTO 19005KT 9999NDV FEW070/// SCT085/// 14/12 Q1005=
200808040020 METAR ESMX 040020Z 20005KT CAVOK 14/12 Q1005=
200808032350 METAR ESMX 032350Z 18005KT CAVOK 13/12 Q1005=
200808032320 METAR ESMX 032320Z 18005KT CAVOK 14/12 Q1006=
200808032250 METAR ESMX 032250Z 19005KT CAVOK 13/12 Q1006=
200808032220 METAR ESMX 032220Z 19004KT CAVOK 14/12 Q1006=
200808032150 METAR ESMX 032150Z 21004KT CAVOK 14/12 Q1006=
200808032120 METAR ESMX 032120Z 19005KT CAVOK 15/11 Q1006=
200808032050 METAR ESMX 032050Z 20005KT CAVOK 15/11 Q1006=
200808032020 METAR ESMX 032020Z 22005KT CAVOK 16/11 Q1006=
200808031950 METAR ESMX 031950Z 22007KT CAVOK 17/12 Q1006=
200808031920 METAR ESMX 031920Z 22005KT CAVOK 18/12 Q1006=
200808031850 METAR ESMX 031850Z 24005KT 210V280 CAVOK 18/12 Q1006=
200808031820 METAR ESMX 031820Z 24007KT 210V290 9999 FEW040 18/11 Q1006=
200808031750 METAR ESMX 031750Z 26009KT 230V290 9999 FEW037 19/10 Q1006=
200808031720 METAR ESMX 031720Z 26009KT 9999 FEW037 20/11 Q1006=
200808031650 METAR ESMX 031650Z 26010KT 220V300 9999 FEW037 20/11 Q1006=
200808031620 METAR ESMX 031620Z 26013KT 9999 FEW035 BKN200 21/11 Q1006=
200808031550 METAR ESMX 031550Z 26011KT 230V300 9999 SCT035 BKN200 20/13 Q1006=
200808031520 METAR ESMX 031520Z 27011KT 230V300 9999 SCT025 SCT100 20/12 Q1006=
200808031450 METAR ESMX 031450Z 27012KT 220V300 9999 SCT025 SCT100 21/13 Q1006=
200808031420 METAR ESMX 031420Z 26012KT 230V290 9999 FEW020TCU SCT040 21/14 Q1006=
200808031350 METAR ESMX 031350Z 21006KT 170V240 9999 FEW020CB SCT045 19/16 Q1006 RERA REDZ=
200808031320 METAR ESMX 031320Z 23006KT 200V280 9999 FEW020CB SCT035 BKN100 18/15 Q1006=
200808031250 METAR ESMX 031250Z 27009KT 240V300 5000 VCTS SCT020CB BKN035 18/15 Q1006 RERA=
200808031220 METAR ESMX 031220Z 21010KT 190V250 9999 SCT020CB BKN035 20/15 Q1006 RERA=
200808031150 METAR ESMX 031150Z 20009KT 170V250 9999 -SHRA FEW02OCB SCT025 BKN041 20/15 Q1006=
200808031120 METAR ESMX 031120Z 22008KT 9999 SCT012TCU BKN025 21/16 Q1006=
200808031051 METAR COR ESMX 031051Z 18005KT 150V210 9999 FEW010 SCT015 BKN040 19/16 Q1007 RERA=
200808031020 METAR ESMX 031020Z AUTO 20005KT 150V230 9999NDV FEW011/// SCT021/// 19/16 Q1007=
200808030950 METAR ESMX 030950Z AUTO 17005KT 140V210 9999NDV FEW014/// SCT022/// BKN063/// 18/16 Q1007 RERA REDZ=
200808030920 METAR ESMX 030920Z AUTO 20006KT 8000NDV -RA FEW033/// SCT037/// BKN071/// 18/15 Q1007 REDZ=
200808030850 METAR ESMX 030850Z AUTO 20006KT 170V240 9999NDV OVC036/// 19/14 Q1007 REDZ RERA=
200808030820 METAR ESMX 030820Z AUTO 20008KT 9999NDV BKN038/// 19/13 Q1007=
200808030750 METAR ESMX 030750Z AUTO 19006KT 9999NDV FEW043/// SCT054/// BKN084/// 19/13 Q1007=
200808030720 METAR ESMX 030720Z AUTO 20007KT 180V240 9999NDV SCT089/// 19/14 Q1008=
200808030650 METAR ESMX 030650Z AUTO 18005KT 9999NDV FEW088/// BKN110/// 18/14 Q1008=
200808030620 METAR ESMX 030620Z AUTO 23006KT 9999NDV SCT100/// 18/14 Q1008=
200808030550 METAR ESMX 030550Z AUTO 21004KT 170V230 9999NDV NCD 17/14 Q1008=
200808030520 METAR ESMX 030520Z AUTO 21004KT 180V250 9999NDV NCD 16/14 Q1008=
200808030450 METAR ESMX 030450Z AUTO 21005KT 9999NDV NCD 15/14 Q1008=
200808030420 METAR ESMX 030420Z AUTO 18003KT 9000NDV BR FEW110/// 13/13 Q1008=
200808030350 METAR ESMX 030350Z AUTO 19004KT 7000NDV BR FEW080/// 13/12 Q1008=
200808030320 METAR ESMX 030320Z AUTO 20006KT 7000NDV BR NCD 12/12 Q1009=
200808030250 METAR ESMX 030250Z AUTO 20005KT 9999NDV FEW055/// 12/11 Q1009=
200808030220 METAR ESMX 030220Z AUTO 19005KT 9999NDV NCD 13/12 Q1009=
200808030150 METAR ESMX 030150Z AUTO 19005KT 9999NDV FEW100/// 14/12 Q1009=
200808030120 METAR ESMX 030120Z AUTO 19006KT 9999NDV FEW100/// 14/12 Q1009=
200808030050 METAR ESMX 030050Z AUTO 19006KT 9999NDV FEW110/// 14/12 Q1009=
200808030020 METAR ESMX 030020Z AUTO 19005KT 9999NDV BKN100/// 15/12 Q1009=
200808022350 METAR ESMX 022350Z AUTO 18005KT 9999NDV FEW090/// BKN100/// 16/13 Q1010=
200808022320 METAR ESMX 022320Z AUTO 18005KT 9999NDV BKN088/// BKN110/// 16/13 Q1010=
200808022250 METAR ESMX 022250Z AUTO 20004KT 9999NDV SCT082/// BKN100/// 16/12 Q1010=
200808022220 METAR ESMX 022220Z AUTO 20004KT 9999NDV FEW080/// SCT092/// BKN110/// 16/12 Q1010=
200808022150 METAR ESMX 022150Z AUTO 22003KT 9999NDV BKN073/// BKN100/// 15/12 Q1010=
200808022120 METAR ESMX 022120Z AUTO 21004KT 9999NDV BKN076/// 15/11 Q1010=
200808022050 METAR ESMX 022050Z AUTO 19003KT 9999NDV FEW083/// 15/11 Q1010=
200808022020 METAR ESMX 022020Z AUTO 22004KT 9999NDV NCD 15/11 Q1011=
200808021950 METAR ESMX 021950Z AUTO 23005KT 9999NDV NCD 16/11 Q1011=
200808021920 METAR ESMX 021920Z AUTO 25005KT 9999NDV NCD 17/11 Q1011=
200808021850 METAR ESMX 021850Z AUTO 26007KT 9999NDV NCD 18/12 Q1011=
200808021820 METAR ESMX 021820Z AUTO 26007KT 9999NDV NCD 19/11 Q1011=
200808021750 METAR ESMX 021750Z AUTO 27008KT 9999NDV NCD 20/11 Q1011=
200808021720 METAR ESMX 021720Z AUTO 26009KT 220V290 9999NDV FEW041/// 20/11 Q1011=
200808021650 METAR ESMX 021650Z AUTO 25009KT 200V270 9999NDV FEW045/// SCT056/// 21/11 Q1011=
200808021620 METAR ESMX 021620Z AUTO 26010KT 210V280 9999NDV FEW050/// 22/10 Q1011=
200808021550 METAR ESMX 021550Z AUTO 25010KT 210V290 9999NDV NCD 22/09 Q1011=
200808021520 METAR ESMX 021520Z AUTO 23010KT 210V270 9999NDV NCD 22/08 Q1011=
200808021450 METAR ESMX 021450Z AUTO 25012KT 9999NDV FEW048/// 23/09 Q1011=
200808021420 METAR ESMX 021420Z AUTO 21013KT 9999NDV FEW046/// 23/10 Q1011=
200808021350 METAR ESMX 021350Z AUTO 26012KT 230V290 9999NDV FEW040/// SCT048/// 23/11 Q1011=
200808021320 METAR ESMX 021320Z AUTO 25011KT 9999NDV FEW033/// SCT039/// BKN044/// 22/12 Q1011=
200808021250 METAR ESMX 021250Z AUTO 25008KT 210V290 9999NDV FEW039/// SCT048/// BKN056/// 21/14 Q1012=
200808021220 METAR ESMX 021220Z AUTO 25007KT 190V300 9999NDV FEW024/// SCT042/// 21/16 Q1012=
200808021150 METAR ESMX 021150Z AUTO 24007KT 9999NDV FEW016/// SCT027/// BKN031/// 20/16 Q1012=
200808021120 METAR ESMX 021120Z AUTO 23005KT 9999NDV FEW010/// BKN013/// OVC019/// 19/15 Q1012=
200808021050 METAR ESMX 021050Z AUTO 22009KT 9999NDV -DZ FEW009/// OVC012/// 18/16 Q1012 RERA=
200808021020 METAR ESMX 021020Z AUTO 17006KT 150V210 9999NDV SCT012/// BKN016/// OVC020/// 19/16 Q1012 RERA REDZ REUP=
200808020950 METAR ESMX 020950Z AUTO 17005KT 140V200 9999NDV FEW013/// SCT045/// 19/16 Q1012 RERA REDZ=
200808020920 METAR ESMX 020920Z AUTO 15005KT 110V170 9999NDV FEW013/// BKN047/// 19/16 Q1013=
200808020850 METAR ESMX 020850Z AUTO 16005KT 120V190 9999NDV FEW016/// SCT023/// OVC044/// 18/16 Q1013=
200808020820 METAR ESMX 020820Z AUTO 15005KT 110V200 9999NDV OVC045/// 19/16 Q1013=
200808020750 METAR ESMX 020750Z AUTO 15003KT 090V180 9999NDV OVC045/// 18/15 Q1013=
200808020720 METAR ESMX 020720Z AUTO VRB02KT 9999NDV BKN047/// 17/16 Q1013=
200808020650 METAR ESMX 020650Z AUTO VRB02KT 9999NDV -DZ BKN055/// 17/15 Q1013 RERA=
200808020620 METAR ESMX 020620Z AUTO 00000KT 9999NDV BKN063/// 16/15 Q1013 RERA REDZ=
200808020550 METAR ESMX 020550Z AUTO 00000KT 9999NDV BKN077/// 16/15 Q1013 RERA REDZ=
200808020520 METAR ESMX 020520Z AUTO 00000KT 9999NDV -RA FEW088/// 16/14 Q1013=
200808020450 METAR ESMX 020450Z AUTO 00000KT 9999NDV SCT095/// BKN110/// 15/14 Q1013=
200808020420 METAR ESMX 020420Z AUTO 00000KT 9999NDV FEW100/// 15/13 Q1013 REDZ RERA=
200808020350 METAR ESMX 020350Z AUTO VRB02KT 9999NDV -RA FEW100/// 16/13 Q1013=
200808020320 METAR ESMX 020320Z AUTO 10003KT 060V160 9999NDV NCD 15/13 Q1013=
200808020250 METAR ESMX 020250Z AUTO 18001KT 9999NDV NCD 13/11 Q1014=
200808020220 METAR ESMX 020220Z AUTO 00000KT 9999NDV NCD 13/11 Q1014=
200808020150 METAR ESMX 020150Z AUTO 00000KT 9999NDV NCD 13/11 Q1014=
200808020120 METAR ESMX 020120Z AUTO 00000KT 9999NDV NCD 13/11 Q1014=
200808020050 METAR ESMX 020050Z AUTO 15003KT 120V180 9999NDV NCD 13/11 Q1015=
200808020020 METAR ESMX 020020Z AUTO VRB02KT 9999NDV NCD 13/10 Q1015=
200808012350 METAR ESMX 012350Z AUTO 00000KT 9999NDV NCD 13/10 Q1015=
200808012320 METAR ESMX 012320Z AUTO 19002KT 9999NDV NCD 13/11 Q1015=
200808012250 METAR ESMX 012250Z AUTO 00000KT 9999NDV NCD 14/11 Q1015=
200808012220 METAR ESMX 012220Z AUTO 11002KT 9999NDV NCD 16/12 Q1015=
200808012150 METAR ESMX 012150Z AUTO VRB02KT 9999NDV NCD 16/11 Q1015=
200808012120 METAR ESMX 012120Z AUTO 15004KT 9999NDV NCD 16/11 Q1015=
200808012050 METAR ESMX 012050Z AUTO 15003KT 9999NDV NCD 17/12 Q1015=
200808012020 METAR ESMX 012020Z AUTO 15004KT 9999NDV NCD 18/12 Q1015=
200808011950 METAR ESMX 011950Z AUTO 17004KT 9999NDV NCD 21/10 Q1015=
200808011920 METAR ESMX 011920Z AUTO 16005KT 9999NDV NCD 23/10 Q1015=
200808011850 METAR ESMX 011850Z AUTO 17005KT 9999NDV NCD 23/10 Q1015=
200808011820 METAR ESMX 011820Z 18006KT CAVOK 24/10 Q1015=
200808011750 METAR ESMX 011750Z 18006KT CAVOK 25/10 Q1015=
200808011720 METAR ESMX 011720Z 17007KT CAVOK 26/09 Q1015=
200808011650 METAR ESMX 011650Z 18007KT 140V210 CAVOK 27/10 Q1015=
200808011620 METAR ESMX 011620Z 20008KT CAVOK 27/10 Q1015=
200808011550 METAR ESMX 011550Z 19006KT 140V240 CAVOK 27/10 Q1016=
200808011520 METAR ESMX 011520Z 19006KT 160V220 CAVOK 28/10 Q1016=
200808011450 METAR ESMX 011450Z 20006KT 150V240 CAVOK 27/10 Q1016=
200808011420 METAR ESMX 011420Z 17006KT 120V220 CAVOK 27/11 Q1016=
200808011350 METAR ESMX 011350Z 17006KT 120V230 CAVOK 27/11 Q1017=
200808011320 METAR ESMX 011320Z 18007KT 140V240 CAVOK 27/10 Q1017=
200808011250 METAR ESMX 011250Z 18006KT 110V250 CAVOK 27/11 Q1017=
200808011220 METAR ESMX 011220Z 22006KT CAVOK 27/11 Q1017=
