##########################################################
# Query made at 04/19/2024 21:01:38 UTC
# Time interval: from 01/01/2008 12:00  to 01/31/2008 12:59  UTC
##########################################################

##########################################################
# ESMX, Vaxjo (Sweden)
# WMO index: 02641. WIGOS ID: 0-20000-0-02648
# Latitude 56-51N. Longitude 014-50E. Altitude 199 m.
##########################################################

200801311250 METAR ESMX 311250Z 19014KT 9999 BKN015 OVC021 03/00 Q1005=
200801311220 METAR ESMX 311220Z 19014KT 9999 FEW013 SCT016 BKN019 03/01 Q1006=
200801311150 METAR ESMX 311150Z 19012KT 9999 FEW012 BKN015 OVC020 03/01 Q1006=
200801311120 METAR ESMX 311120Z 20014KT 9999 BKN010 BKN022 03/01 Q1007=
200801311050 METAR ESMX 311050Z 19012KT 9999 BKN010 03/01 Q1008=
200801311020 METAR ESMX 311020Z 19011KT 9999 FEW009 BKN012 03/01 Q1008=
200801310950 METAR ESMX 310950Z 19011KT 9999 BKN008 BKN013 02/01 Q1009=
200801310920 METAR ESMX 310920Z 19012KT 9999 FEW008 BKN010 02/01 Q1009=
200801310850 METAR ESMX 310850Z 20010KT 9999 FEW009 SCT013 BKN030 02/01 Q1010=
200801310820 METAR ESMX 310820Z 21007KT 9999 FEW008 SCT010 BKN018 02/00 Q1010=
200801310750 METAR ESMX 310750Z 22007KT 9999 FEW008 BKN012 02/00 Q1010=
200801310720 METAR ESMX 310720Z 22007KT 9999 FEW008 OVC010 01/00 Q1010=
200801310650 METAR ESMX 310650Z 22006KT 9999 BKN012 01/00 Q1010=
200801310620 METAR ESMX 310620Z 21005KT 9999 BKN018 01/M00 Q1010=
200801310550 METAR ESMX 310550Z 22004KT 190V250 9999 FEW018 01/M00 Q1010=
200801310520 METAR ESMX 310520Z 25005KT 220V290 9999 BKN025 01/M00 Q1010=
200801310450 METAR ESMX 310450Z 26007KT 9999 OVC025 02/M00 Q1010=
200801310420 METAR ESMX 310420Z AUTO 25008KT 200V280 9999NDV FEW023/// BKN026/// 02/M00 Q1010=
200801310350 METAR ESMX 310350Z AUTO 26007KT 230V290 9999NDV FEW020/// OVC024/// 02/M00 Q1010=
200801310320 METAR ESMX 310320Z AUTO 27007KT 9999NDV FEW019/// BKN021/// 01/00 Q1010=
200801310250 METAR ESMX 310250Z AUTO 26006KT 210V300 9999NDV FEW015/// SCT018/// BKN023/// 02/00 Q1010=
200801310220 METAR ESMX 310220Z AUTO 26007KT 230V320 9999NDV FEW017/// BKN025/// 02/00 Q1010=
200801310150 METAR ESMX 310150Z AUTO 27007KT 9999NDV FEW012/// SCT015/// BKN023/// 01/00 Q1010=
200801310120 METAR ESMX 310120Z AUTO 26007KT 9999NDV FEW012/// SCT029/// 01/00 Q1010=
200801310050 METAR ESMX 310050Z AUTO 26007KT 230V290 8000NDV -RA FEW008/// BKN025/// BKN032/// 02/01 Q1010 REDZ REUP=
200801310020 METAR ESMX 310020Z 26007KT 240V300 9999 -RA FEW008 SCT024 BKN035 02/01 Q1010 REDZ=
200801302350 METAR ESMX 302350Z 25006KT 230V290 9999 -DZ FEW016 BKN023 BKN035 02/00 Q1010 RERA=
200801302320 METAR ESMX 302320Z 26006KT 9999 FEW011 BKN020 02/00 Q1010=
200801302250 METAR ESMX 302250Z 25006KT 220V290 9999 FEW014 OVC022 02/00 Q1010=
200801302220 METAR ESMX 302220Z 26005KT 220V290 9999 FEW012 OVC021 01/00 Q1010=
200801302120 METAR ESMX 302120Z 25006KT 220V280 9999 FEW006 SCT008 BKN012 01/00 Q1009=
200801302050 METAR ESMX 302050Z 25006KT 9999 FEW006 OVC010 01/00 Q1009=
200801302020 METAR ESMX 302020Z 26005KT 9999 FEW012 OVC030 01/00 Q1009=
200801301950 METAR ESMX 301950Z 26006KT 9999 FEW015 BKN018 BKN024 01/M00 Q1009=
200801301920 METAR ESMX 301920Z 27007KT 9999 FEW016 BKN020 01/M00 Q1009=
200801301850 METAR ESMX 301850Z 28009KT 9999 FEW009 SCT020 01/M00 Q1009=
200801301820 METAR ESMX 301820Z 28009KT 9999 FEW010 01/M00 Q1008=
200801301750 METAR ESMX 301750Z 28008KT 240V320 9999 FEW010 SCT015 01/M00 Q1008 RERA=
200801301720 METAR ESMX 301720Z 28010KT 9999 FEW007 SCT011 BKN013 01/00 Q1008=
200801301650 METAR ESMX 301650Z 28010KT 9999 FEW009 BKN015 BKN045 02/00 Q1008=
200801301620 METAR ESMX 301620Z 27008KT 9999 FEW015 SCT043 02/01 Q1007=
200801301550 METAR ESMX 301550Z 28009KT 9999 FEW010 SCT035 02/01 Q1007=
200801301520 METAR ESMX 301520Z 27012KT 240V320 9999 -RA FEW007 SCT010 BKN014 03/02 Q1006=
200801301450 METAR ESMX 301450Z 27011KT 230V290 9999 FEW009 SCT013 BKN019 04/02 Q1006 RERA=
200801301420 METAR ESMX 301420Z 26011KT 220V280 9999 FEW009 SCT013 BKN015 04/03 Q1006=
200801301350 METAR ESMX 301350Z 24010G20KT 210V270 9999 FEW010 SCT013 BKN015 05/03 Q1006=
200801301320 METAR ESMX 301320Z 24011KT 200V270 9999 FEW009 BKN012 BKN020 05/04 Q1006 RERA=
200801301250 METAR ESMX 301250Z 23010KT 9999 FEW006 SCT009 BKN012 05/04 Q1006 RERA=
200801301220 METAR ESMX 301220Z 23012KT 200V260 6000 -RA FEW008 SCT011 BKN014 05/04 Q1006=
200801301150 METAR ESMX 301150Z 22011KT 9999 FEW008 SCT011 BKN013 05/04 Q1006 REDZ=
200801301120 METAR ESMX 301120Z 22011KT 8000 -DZ FEW006 SCT008 BKN010 05/04 Q1007=
200801301050 METAR ESMX 301050Z 22012KT 7000 DZ BKN006 OVC009 05/04 Q1007=
200801301020 METAR ESMX 301020Z 21013KT 8000 DZ BKN005 OVC009 05/04 Q1007=
200801300950 METAR ESMX 300950Z 21014KT 9000 -DZ BKN005 OVC009 05/04 Q1008=
200801300920 METAR ESMX 300920Z 21012KT 7000 -DZ FEW005 BKN006 OVC008 05/04 Q1008=
200801300850 METAR ESMX 300850Z 21013KT 5000 -DZ OVC005 05/04 Q1009=
200801300820 METAR ESMX 300820Z 21012KT 4000 DZ OVC004 04/04 Q1009=
200801300750 METAR ESMX 300750Z 20013KT 3400 DZ OVC003 04/04 Q1009 RERA=
200801300720 METAR ESMX 300720Z 20012KT 3000 DZ BKN001 OVC004 04/04 Q1009 RERA=
200801300650 METAR ESMX 300650Z 21011KT 180V240 1200 R01/P2000U R19/P2000N DZ OVC002 04/04 Q1010 RERA=
200801300620 METAR ESMX 300620Z 20012KT 1000 R01/P2000D R19/P2000D OVC002 04/04 Q1010=
200801300550 METAR ESMX 300550Z 20012KT 1100 R01/P2000U R19/P2000U -DZ OVC002 04/04 Q1010 RERA=
200801300520 METAR ESMX 300520Z 20012KT 0800 R19/P2000N FG VV002 04/04 Q1011=
200801300450 METAR ESMX 300450Z 20013KT 0900 R19/P2000D FG OVC001 05/04 Q1011=
200801300420 METAR ESMX 300420Z AUTO 21012KT 1400NDV R01/P2000N R19/P2000D BR OVC001/// 05/04 Q1012=
200801300350 METAR ESMX 300350Z AUTO 21011KT 1100NDV R01/P2000U R19/P2000U BR OVC001/// 04/04 Q1012=
200801300320 METAR ESMX 300320Z AUTO 20012KT 1600NDV BR OVC001/// 04/04 Q1012=
200801300250 METAR ESMX 300250Z AUTO 20010KT 2000NDV BR OVC002/// 04/04 Q1013=
200801300220 METAR ESMX 300220Z AUTO 20010KT 2100NDV BR OVC003/// 04/04 Q1014=
200801300150 METAR ESMX 300150Z AUTO 21011KT 2800NDV BKN002/// OVC004/// 04/04 Q1014 RERA REDZ=
200801300120 METAR ESMX 300120Z AUTO 21010KT 1200NDV R01/P2000U R19/P2000U RA OVC001/// 04/04 Q1015=
200801300050 METAR ESMX 300050Z 21010KT 0700 R19/1900N FG VV002 04/04 Q1015=
200801300020 METAR ESMX 300020Z 20010KT 0800 R19/P2000D FG VV002 04/04 Q1015=
200801292350 METAR ESMX 292350Z 22010KT 1700 BR OVC001 04/04 Q1016=
200801292320 METAR ESMX 292320Z 21009KT 2200 BR OVC002 04/04 Q1016=
200801292250 METAR ESMX 292250Z 22010KT 3900 BR OVC002 05/04 Q1016=
200801292220 METAR ESMX 292220Z 22009KT 5000 BR OVC003 05/04 Q1017=
200801292150 METAR ESMX 292150Z 23009KT 5000 BR OVC003 05/04 Q1017=
200801292120 METAR ESMX 292120Z 23009KT 5000 BR OVC003 05/04 Q1017=
200801292050 METAR ESMX 292050Z 22009KT 200V260 5000 -DZ BR OVC003 05/04 Q1017=
200801292020 METAR ESMX 292020Z 23009KT 200V260 3900 -DZ BR OVC003 05/04 Q1017=
200801291950 METAR ESMX 291950Z 24009KT 2900 BR OVC003 05/04 Q1017=
200801291920 METAR ESMX 291920Z 24009KT 2500 BR OVC003 04/04 Q1017=
200801291850 METAR ESMX 291850Z 23011KT 2500 BR OVC002 04/04 Q1018 REDZ=
200801291820 METAR ESMX 291820Z 24009KT 210V270 1800 DZ OVC002 04/04 Q1018 RERA=
200801291750 METAR ESMX 291750Z 24010KT 1500 BR OVC002 04/04 Q1018=
200801291720 METAR ESMX 291720Z 24009KT 210V280 1500 BR OVC002 04/04 Q1018=
200801291650 METAR ESMX 291650Z 23011KT 2200 BR OVC002 04/04 Q1018=
200801291620 METAR ESMX 291620Z 23010KT 200V270 3300 BR OVC003 04/04 Q1018=
200801291550 METAR ESMX 291550Z 24009KT 210V270 2400 BR OVC003 04/04 Q1018=
200801291520 METAR ESMX 291520Z 24010KT 3400 BR OVC003 04/04 Q1018=
200801291450 METAR ESMX 291450Z 23009KT 200V270 4400 BR OVC003 04/04 Q1018=
200801291420 METAR ESMX 291420Z 22008KT 190V280 3500 BR OVC004 04/04 Q1018=
200801291350 METAR ESMX 291350Z 24008KT 3700 BR OVC005 04/03 Q1018=
200801291320 METAR ESMX 291320Z 24010KT 210V280 4900 BR OVC005 04/03 Q1019=
200801291250 METAR ESMX 291250Z 24011G22KT 200V280 4100 BR OVC004 04/04 Q1019=
200801291220 METAR ESMX 291220Z 25010KT 3700 BR OVC003 04/04 Q1019=
200801291150 METAR ESMX 291150Z 25010KT 210V280 2600 BR OVC002 04/04 Q1019=
200801291120 METAR ESMX 291120Z 24009KT 200V280 2200 BR OVC002 04/04 Q1019=
200801291050 METAR ESMX 291050Z 24010KT 200V280 2500 BR OVC002 04/04 Q1019=
200801291020 METAR ESMX 291020Z 24009KT 210V300 2600 BR OVC002 04/04 Q1019=
200801290950 METAR ESMX 290950Z 24010KT 2600 BR OVC002 04/04 Q1019=
200801290920 METAR ESMX 290920Z 25011KT 3100 BR OVC002 04/04 Q1019=
200801290850 METAR ESMX 290850Z 25011KT 210V280 6000 BR OVC003 05/04 Q1019=
200801290820 METAR ESMX 290820Z 23009KT 200V270 6000 BR OVC003 04/04 Q1019=
200801290750 METAR ESMX 290750Z 23008KT 6000 BR OVC003 04/04 Q1019=
200801290720 METAR ESMX 290720Z 24009KT 7000 BR OVC003 04/04 Q1019=
200801290650 METAR ESMX 290650Z 24010KT 7000 BR OVC003 04/04 Q1019=
200801290620 METAR ESMX 290620Z 24010KT 9999 BKN005 OVC008 05/04 Q1019=
200801290550 METAR ESMX 290550Z 24008KT 200V270 9999 SCT006 BKN008 05/04 Q1019=
200801290520 METAR ESMX 290520Z 25009KT 220V280 9999 OVC006 06/04 Q1019=
200801290450 METAR ESMX 290450Z 24009KT 9999 BKN006 OVC009 06/04 Q1019=
200801290420 METAR ESMX 290420Z AUTO 26010KT 9999NDV OVC006/// 06/05 Q1019=
200801290350 METAR ESMX 290350Z AUTO 26010KT 230V290 9999NDV BKN006/// OVC009/// 06/04 Q1019=
200801290320 METAR ESMX 290320Z AUTO 27010KT 230V290 9999NDV OVC005/// 05/04 Q1019=
200801290250 METAR ESMX 290250Z AUTO 27011KT 240V300 9999NDV BR OVC003/// 05/05 Q1019=
200801290220 METAR ESMX 290220Z AUTO 27011KT 4600NDV BR OVC001/// 05/05 Q1019=
200801290150 METAR ESMX 290150Z AUTO 26009KT 210V290 2800NDV BR OVC001/// 05/04 Q1019=
200801290120 METAR ESMX 290120Z 26008KT 210V290 5000 BR OVC002 05/04 Q1019=
200801290050 METAR ESMX 290050Z 26007KT 220V290 9999 OVC005 05/04 Q1020=
200801290020 METAR ESMX 290020Z 26007KT 230V290 8000 BR FEW003 OVC005 05/04 Q1020=
200801282350 METAR ESMX 282350Z 24007KT 200V300 7000 BR OVC003 05/04 Q1020=
200801282320 METAR ESMX 282320Z 26009KT 8000 BR OVC004 05/04 Q1020=
200801282250 METAR ESMX 282250Z 24007KT 8000 BR OVC004 05/04 Q1020=
200801282220 METAR ESMX 282220Z 23006KT 190V250 8000 BR OVC004 05/04 Q1020=
200801282150 METAR ESMX 282150Z 24006KT 9999 BKN006 OVC009 05/04 Q1021=
200801282120 METAR ESMX 282120Z 26006KT 220V290 9999 OVC006 05/04 Q1021=
200801282050 METAR ESMX 282050Z 27007KT 240V300 9000 BR OVC005 05/04 Q1021=
200801282020 METAR ESMX 282020Z 25006KT 210V280 8000 BR OVC005 05/04 Q1021=
200801281950 METAR ESMX 281950Z 24005KT 200V290 8000 BR BKN005 OVC007 05/04 Q1021=
200801281920 METAR ESMX 281920Z 25007KT 8000 BR OVC004 05/04 Q1021=
200801281850 METAR ESMX 281850Z 25007KT 7000 BR OVC004 05/04 Q1021=
200801281820 METAR ESMX 281820Z 23006KT 200V260 7000 BR OVC005 05/04 Q1021=
200801281750 METAR ESMX 281750Z 25006KT 220V280 6000 BR OVC003 05/04 Q1021=
200801281720 METAR ESMX 281720Z 23007KT 7000 BR OVC003 04/04 Q1021=
200801281650 METAR ESMX 281650Z 23008KT 7000 BR OVC003 04/04 Q1021=
200801281620 METAR ESMX 281620Z 24007KT 7000 BR OVC002 04/04 Q1022=
200801281550 METAR ESMX 281550Z 22007KT 5000 BR OVC002 04/03 Q1022=
200801281450 METAR ESMX 281450Z 24007KT 7000 BR OVC002 03/03 Q1022=
200801281420 METAR ESMX 281420Z 22005KT 6000 BR OVC002 03/02 Q1022=
200801281350 METAR ESMX 281350Z 20006KT 6000 BR OVC002 02/02 Q1022=
200801281320 METAR ESMX 281320Z 21007KT 5000 OVC002 02/02 Q1022=
200801281250 METAR ESMX 281250Z 22007KT 3500 OVC002 02/01 Q1023 RERA REDZ=
200801281220 METAR ESMX 281220Z 22008KT 1100 R01/1600D R19/1600D BR OVC002 01/01 Q1023=
200801281150 METAR ESMX 281150Z 21009KT 3500 BR OVC002 01/01 Q1023=
200801281120 METAR ESMX 281120Z 20010KT 5000 BR OVC003 01/01 Q1024=
200801281050 METAR ESMX 281050Z 20010KT 9999 SCT005 OVC010 01/00 Q1024=
200801281020 METAR ESMX 281020Z 19009KT 4000 BR OVC008 01/M00 Q1025=
200801280950 METAR ESMX 280950Z 19006KT 9999 FEW018 OVC021 01/M01 Q1025 RERA REDZ=
200801280920 METAR ESMX 280920Z 20007KT 9999 OVC026 01/M02 Q1025=
200801280850 METAR ESMX 280850Z 19006KT 9999 OVC030 01/M02 Q1025=
200801280820 METAR ESMX 280820Z 19006KT 9999 OVC033 00/M03 Q1026=
200801280750 METAR ESMX 280750Z 18004KT 140V200 9999 OVC038 M01/M04 Q1026=
200801280720 METAR ESMX 280720Z 18003KT 9999 BKN043 M01/M04 Q1026=
200801280650 METAR ESMX 280650Z 16004KT 120V190 9999 BKN045 M01/M04 Q1026=
200801280620 METAR ESMX 280620Z VRB02KT CAVOK M02/M04 Q1026=
200801280550 METAR ESMX 280550Z 16003KT CAVOK M02/M04 Q1026=
200801280520 METAR ESMX 280520Z 22004KT CAVOK M03/M05 Q1025=
200801280450 METAR ESMX 280450Z 17004KT CAVOK M02/M05 Q1025=
200801280420 METAR ESMX 280420Z AUTO 17003KT 9999NDV BKN069/// M02/M05 Q1025=
200801280350 METAR ESMX 280350Z AUTO 18003KT 9999NDV SCT072/// BKN110/// M03/M05 Q1026=
200801280320 METAR ESMX 280320Z AUTO 17003KT 9999NDV BKN076/// BKN110/// M03/M05 Q1026=
200801280250 METAR ESMX 280250Z AUTO 24002KT 9999NDV BKN079/// M03/M05 Q1026=
200801280220 METAR ESMX 280220Z AUTO 26003KT 9999NDV BKN079/// M03/M06 Q1026=
200801280150 METAR ESMX 280150Z AUTO 26002KT 9999NDV FEW083/// M04/M06 Q1025=
200801280120 METAR ESMX 280120Z 28006KT CAVOK M03/M06 Q1025=
200801280050 METAR ESMX 280050Z 28005KT CAVOK M03/M06 Q1025=
200801280020 METAR ESMX 280020Z VRB02KT CAVOK M02/M06 Q1024=
200801272350 METAR ESMX 272350Z 27004KT CAVOK M03/M06 Q1024=
200801272320 METAR ESMX 272320Z 29005KT CAVOK M02/M06 Q1024=
200801272250 METAR ESMX 272250Z 29005KT CAVOK M02/M06 Q1023=
200801272220 METAR ESMX 272220Z 29005KT CAVOK M02/M06 Q1023=
200801272150 METAR ESMX 272150Z 30005KT CAVOK M02/M06 Q1022=
200801272120 METAR ESMX 272120Z 30004KT CAVOK M02/M06 Q1022=
200801272050 METAR ESMX 272050Z 30005KT CAVOK M02/M06 Q1021=
200801272020 METAR ESMX 272020Z 30005KT CAVOK M01/M06 Q1021=
200801271950 METAR ESMX 271950Z 31006KT CAVOK M01/M06 Q1021=
200801271920 METAR ESMX 271920Z 30006KT 250V350 CAVOK M01/M06 Q1020=
200801271850 METAR ESMX 271850Z 31006KT 270V350 CAVOK M01/M05 Q1020=
200801271820 METAR ESMX 271820Z 30007KT CAVOK M00/M05 Q1019=
200801271750 METAR ESMX 271750Z 31007KT 280V340 CAVOK M00/M05 Q1018=
200801271720 METAR ESMX 271720Z 31007KT CAVOK 00/M06 Q1018=
200801271650 METAR ESMX 271650Z 31008KT CAVOK 00/M06 Q1017=
200801271620 METAR ESMX 271620Z 31008KT CAVOK 01/M06 Q1016=
200801271550 METAR ESMX 271550Z 32010KT 270V340 CAVOK 01/M06 Q1015=
200801271520 METAR ESMX 271520Z 32009KT CAVOK 01/M06 Q1015=
200801271450 METAR ESMX 271450Z 33010KT CAVOK 02/M06 Q1014=
200801271420 METAR ESMX 271420Z 33011KT 290V360 CAVOK 02/M05 Q1013=
200801271350 METAR ESMX 271350Z 33015KT CAVOK 02/M05 Q1012=
200801271320 METAR ESMX 271320Z 32014KT CAVOK 02/M04 Q1011=
200801271250 METAR ESMX 271250Z 33014KT 300V360 CAVOK 03/M03 Q1010=
200801271220 METAR ESMX 271220Z 34014KT CAVOK 03/M03 Q1009=
200801271150 METAR ESMX 271150Z 34015KT CAVOK 03/M03 Q1009=
200801271120 METAR ESMX 271120Z AUTO 34012KT 9999NDV NCD 03/M02 Q1008=
200801271050 METAR ESMX 271050Z AUTO 34013KT 9999NDV NCD 02/M02 Q1008=
200801271020 METAR ESMX 271020Z AUTO 34013KT 9999NDV FEW020/// 02/M01 Q1007=
200801270950 METAR ESMX 270950Z AUTO 33013KT 290V360 9999NDV FEW018/// SCT021/// 02/M00 Q1006=
200801270920 METAR ESMX 270920Z AUTO 33015KT 9999NDV FEW017/// 02/00 Q1005=
200801270850 METAR ESMX 270850Z AUTO 32011KT 290V360 9999NDV FEW014/// SCT022/// 02/01 Q1004 RERA=
200801270820 METAR ESMX 270820Z AUTO 30010KT 280V340 9999NDV FEW009/// SCT020/// 02/01 Q1004 RERA REDZ=
200801270750 METAR ESMX 270750Z AUTO 29009KT 3300NDV -RA SCT006/// BKN009/// BKN017/// 02/01 Q1003 REDZ=
200801270720 METAR ESMX 270720Z AUTO 27014KT 240V300 7000NDV -RA FEW007/// SCT009/// BKN011/// 02/01 Q1002 REDZ=
200801270650 METAR ESMX 270650Z AUTO 26014KT 230V320 6000NDV DZ BKN008/// OVC013/// 02/01 Q1002 RERA=
200801270620 METAR ESMX 270620Z AUTO 25010KT 5000NDV -RA FEW009/// BKN011/// BKN016/// 02/01 Q1002 REDZ=
200801270550 METAR ESMX 270550Z AUTO 23011KT 7000NDV -DZ FEW009/// SCT017/// BKN023/// 02/00 Q1003 RERA=
200801270520 METAR ESMX 270520Z AUTO 22009KT 190V250 6000NDV -RA FEW007/// SCT016/// 01/M00 Q1003=
200801270450 METAR ESMX 270450Z AUTO 24007KT 9999NDV FEW020/// SCT025/// 02/M01 Q1004=
200801270420 METAR ESMX 270420Z AUTO 25006KT 220V280 9999NDV NCD 01/M02 Q1005=
200801270350 METAR ESMX 270350Z AUTO 26009KT 9999NDV NCD 01/M02 Q1005=
200801270320 METAR ESMX 270320Z AUTO 26008KT 230V290 9999NDV NCD 01/M02 Q1006=
200801270250 METAR ESMX 270250Z AUTO 26005KT 9999NDV NCD 01/M02 Q1006=
200801270220 METAR ESMX 270220Z AUTO 26007KT 230V290 9999NDV NCD 01/M02 Q1006=
200801270150 METAR ESMX 270150Z AUTO 27009KT 9999NDV NCD 01/M02 Q1007=
200801270120 METAR ESMX 270120Z AUTO 28011KT 9999NDV NCD 01/M02 Q1006=
200801270050 METAR ESMX 270050Z AUTO 28012KT 240V320 9999NDV NCD 02/M02 Q1006=
200801270020 METAR ESMX 270020Z AUTO 27013KT 250V320 9999NDV NCD 02/M01 Q1006=
200801262350 METAR ESMX 262350Z AUTO 28011KT 9999NDV FEW028/// 02/M01 Q1005=
200801262320 METAR ESMX 262320Z AUTO 28011KT 240V320 9999NDV FEW027/// 02/M01 Q1005=
200801262250 METAR ESMX 262250Z AUTO 29014KT 250V320 9999NDV FEW028/// 02/M01 Q1005=
200801262220 METAR ESMX 262220Z AUTO 28012KT 250V320 9999NDV FEW023/// SCT027/// 02/M01 Q1004=
200801262150 METAR ESMX 262150Z AUTO 29013KT 250V320 9999NDV NCD 02/M01 Q1004=
200801262120 METAR ESMX 262120Z AUTO 29016G27KT 250V320 9999NDV FEW024/// SCT031/// 02/M01 Q1003=
200801262050 METAR ESMX 262050Z AUTO 28014G24KT 250V320 9999NDV FEW023/// 02/M01 Q1003=
200801262020 METAR ESMX 262020Z AUTO 28015G26KT 250V320 9999NDV FEW025/// SCT029/// 02/M00 Q1003=
200801261950 METAR ESMX 261950Z AUTO 27015G25KT 240V300 9999NDV FEW019/// SCT021/// BKN027/// 03/M00 Q1002=
200801261920 METAR ESMX 261920Z AUTO 28013KT 240V320 9999NDV FEW018/// SCT023/// 03/01 Q1002 REUP=
200801261850 METAR ESMX 261850Z AUTO 28014G24KT 250V310 9999NDV ////// 03/01 Q1001=
200801261820 METAR ESMX 261820Z AUTO 28013KT 9999NDV ////// 04/01 Q1001=
200801261750 METAR ESMX 261750Z AUTO 29012KT 240V330 9999NDV ////// 04/02 Q1000=
200801261720 METAR ESMX 261720Z AUTO 29016KT 260V330 7000NDV DZ ////// 04/02 Q1000 RERA=
200801261650 METAR ESMX 261650Z AUTO 29014KT 250V320 7000NDV DZ ////// 04/02 Q0999 RERA=
200801261620 METAR ESMX 261620Z AUTO 28011KT 250V310 5000NDV -RA ////// 04/02 Q0999=
200801261550 METAR ESMX 261550Z AUTO 29011KT 250V330 9999NDV ////// 04/02 Q0998=
200801261520 METAR ESMX 261520Z AUTO 29011KT 9999NDV ////// 03/02 Q0998=
200801261450 METAR ESMX 261450Z AUTO 30012KT 260V340 9999NDV ////// 03/02 Q0998 REDZ=
200801261420 METAR ESMX 261420Z AUTO 30016G27KT 270V330 9999NDV DZ ////// 03/02 Q0997 RERA=
200801261350 METAR ESMX 261350Z AUTO 30019KT 270V330 5000NDV -RA ////// 03/02 Q0996=
200801261320 METAR ESMX 261320Z AUTO 27022G38KT 240V310 7000NDV -RA ////// 04/03 Q0995=
200801261250 METAR ESMX 261250Z AUTO 26022G32KT 220V290 5000NDV -RA FEW013/// BKN016/// BKN023/// 05/04 Q0995 REDZ=
200801261220 METAR ESMX 261220Z AUTO 25016G33KT 210V280 7000NDV -DZ FEW011/// SCT015/// BKN018/// 06/04 Q0995=
200801261150 METAR ESMX 261150Z AUTO 25016G29KT 200V290 9999NDV -RA FEW011/// SCT015/// BKN018/// 06/04 Q0997 REDZ=
200801261120 METAR ESMX 261120Z AUTO 25016G27KT 5000NDV -RA FEW011/// BKN014/// OVC018/// 06/05 Q0997=
200801261050 METAR ESMX 261050Z AUTO 24011G21KT 9999NDV FEW008/// SCT013/// OVC015/// 06/04 Q0998 RERA=
200801261020 METAR ESMX 261020Z AUTO 23008KT 190V260 8000NDV -RA FEW006/// SCT009/// BKN012/// 05/04 Q1000=
200801260950 METAR ESMX 260950Z AUTO 19006KT 150V220 3200NDV RA FEW006/// SCT015/// BKN017/// 04/03 Q1001=
200801260920 METAR ESMX 260920Z AUTO 21005KT 7000NDV -RA FEW007/// SCT011/// BKN015/// 04/03 Q1002 REDZ=
200801260850 METAR ESMX 260850Z AUTO 23007KT 190V250 9999NDV -DZ FEW008/// SCT019/// BKN023/// 04/03 Q1003 RERA=
200801260820 METAR ESMX 260820Z AUTO 22009KT 180V250 9000NDV -RA FEW010/// BKN014/// 04/03 Q1004 REDZ=
200801260750 METAR ESMX 260750Z AUTO 24010KT 210V280 8000NDV -RA FEW012/// SCT017/// 05/03 Q1005 REDZ=
200801260720 METAR ESMX 260720Z AUTO 23010KT 8000NDV DZ FEW013/// SCT017/// BKN026/// 05/04 Q1006 RERA=
200801260650 METAR ESMX 260650Z AUTO 24010KT 9999NDV -DZ FEW016/// 06/04 Q1006 RERA=
200801260620 METAR ESMX 260620Z AUTO 26009KT 230V290 9999NDV FEW015/// SCT018/// BKN021/// 06/04 Q1007=
200801260550 METAR ESMX 260550Z AUTO 25011KT 9999NDV FEW014/// SCT017/// BKN021/// 06/04 Q1008=
200801260520 METAR ESMX 260520Z AUTO 26011KT 9999NDV FEW019/// SCT024/// BKN029/// 06/03 Q1008=
200801260450 METAR ESMX 260450Z AUTO 26014KT 220V290 9999NDV FEW023/// OVC027/// 06/03 Q1008=
200801260420 METAR ESMX 260420Z AUTO 27014G25KT 9999NDV FEW018/// OVC020/// 06/03 Q1008=
200801260350 METAR ESMX 260350Z AUTO 26013KT 220V300 9999NDV FEW018/// BKN021/// OVC027/// 06/03 Q1009=
200801260320 METAR ESMX 260320Z AUTO 27013KT 9999NDV FEW018/// BKN020/// OVC025/// 06/03 Q1008=
200801260250 METAR ESMX 260250Z AUTO 27012KT 230V290 9999NDV OVC018/// 06/03 Q1009=
200801260220 METAR ESMX 260220Z AUTO 27012KT 230V290 9999NDV FEW020/// OVC023/// 06/03 Q1009=
200801260150 METAR ESMX 260150Z AUTO 27013KT 240V310 9999NDV FEW018/// BKN022/// OVC028/// 06/03 Q1008=
200801260120 METAR ESMX 260120Z AUTO 26012KT 220V290 9999NDV FEW018/// SCT023/// BKN030/// 06/04 Q1008=
200801260050 METAR ESMX 260050Z AUTO 27015G26KT 240V300 9999NDV FEW011/// SCT014/// BKN019/// 06/04 Q1007 RERA REDZ=
200801260020 METAR ESMX 260020Z AUTO 27015G25KT 240V300 9999NDV FEW010/// BKN013/// OVC021/// 07/05 Q1007=
200801252350 METAR ESMX 252350Z AUTO 27014KT 6000NDV FEW012/// BKN014/// OVC019/// 07/05 Q1007 RERA REDZ=
200801252320 METAR ESMX 252320Z AUTO 27014KT 8000NDV -DZ FEW011/// BKN014/// BKN020/// 07/05 Q1006 RERA=
200801252250 METAR ESMX 252250Z AUTO 27017G28KT 230V300 6000NDV DZ FEW011/// SCT014/// BKN017/// 07/05 Q1006 RERA=
200801252220 METAR ESMX 252220Z AUTO 26016KT 210V290 9999NDV -RA BKN010/// OVC017/// 07/06 Q1005=
200801252150 METAR ESMX 252150Z AUTO 26017G31KT 230V300 3900NDV -DZ FEW009/// BKN012/// BKN015/// 07/06 Q1005 REUP RERA=
200801252120 METAR ESMX 252120Z AUTO 26015G26KT 220V300 9000NDV BR FEW009/// BKN012/// OVC018/// 07/06 Q1005 REDZ RERA=
200801252050 METAR ESMX 252050Z AUTO 26015KT 230V290 4300NDV DZ FEW007/// SCT009/// BKN011/// 07/06 Q1005 RERA=
200801252020 METAR ESMX 252020Z AUTO 26015KT 230V290 3700NDV DZ FEW008/// OVC010/// 07/05 Q1005 RERA=
200801251950 METAR ESMX 251950Z AUTO 26017KT 220V290 8000NDV BR FEW009/// BKN011/// OVC015/// 07/05 Q1004 RERA REDZ=
200801251920 METAR ESMX 251920Z 26017G30KT 220V290 6000 -RA FEW008 SCT010 OVC013 07/05 Q1004=
200801251850 METAR ESMX 251850Z 26016G28KT 230V290 4500 RA FEW008 SCT011 BKN013 07/05 Q1004=
200801251820 METAR ESMX 251820Z 25015G27KT 220V280 8000 -RA FEW009 BKN012 BKN018 06/05 Q1005=
200801251750 METAR ESMX 251750Z 25014G26KT 220V290 6000 -RA FEW009 OVC012 06/05 Q1004=
200801251720 METAR ESMX 251720Z 24015KT 200V280 7000 -RA FEW010 SCT012 BKN015 06/05 Q1005=
200801251650 METAR ESMX 251650Z 24015G25KT 190V270 8000 -RA FEW009 SCT011 OVC013 06/05 Q1005=
200801251620 METAR ESMX 251620Z 24013G27KT 210V280 9000 -RA BKN010 OVC015 06/05 Q1005=
200801251550 METAR ESMX 251550Z 24012G22KT 210V280 9000 -RA FEW008 BKN011 OVC016 06/05 Q1006=
200801251520 METAR ESMX 251520Z 24014KT 200V260 8000 -RA SCT010 BKN015 06/05 Q1006=
200801251450 METAR ESMX 251450Z 24013G24KT 210V280 5000 DZ BR SCT008 BKN012 06/05 Q1006 RERA=
200801251420 METAR ESMX 251420Z 23015G27KT 200V270 4500 RA BR SCT008 BKN012 06/04 Q1007=
200801251350 METAR ESMX 251350Z 23016KT 200V270 6000 -RA BR SCT008 BKN012 06/04 Q1007 REDZ=
200801251320 METAR ESMX 251320Z 24016G28KT 200V290 4000 DZ BR SCT008 BKN012 06/05 Q1007 RERA=
200801251250 METAR ESMX 251250Z 24016G26KT 210V270 4500 DZ BR FEW007 SCT009 OVC011 06/04 Q1007 RERA=
200801251220 METAR ESMX 251220Z 24015G26KT 200V280 4800 DZ FEW008 BKN010 OVC014 05/04 Q1008 RERA=
200801251150 METAR ESMX 251150Z 24015G26KT 200V270 6000 DZ FEW009 BKN010 OVC013 05/04 Q1008 RERA=
200801251120 METAR ESMX 251120Z 24016G27KT 200V280 4500 DZ FEW007 OVC009 05/04 Q1008=
200801251050 METAR ESMX 251050Z 23015G25KT 190V260 3000 DZ BR FEW006 BKN008 OVC011 04/03 Q1009 RERA=
200801251020 METAR ESMX 251020Z 22017G28KT 2600 -RA FEW006 BKN009 OVC012 03/03 Q1009 REDZ=
200801250950 METAR ESMX 250950Z 22016G26KT 4500 -RA FEW008 BKN009 BKN013 03/02 Q1010=
200801250920 METAR ESMX 250920Z 23018G31KT 6000 -RA FEW008 BKN010 BKN017 03/02 Q1010=
200801250850 METAR ESMX 250850Z 22019G31KT 4900 -RA BKN011 03/02 Q1010 REDZ=
200801250820 METAR ESMX 250820Z 22019G31KT 180V250 6000 -DZ FEW015 BKN020 03/01 Q1011 RERA=
200801250750 METAR ESMX 250750Z 22015KT 9999 -RA FEW012 SCT023 BKN031 03/01 Q1011=
200801250720 METAR ESMX 250720Z 22014KT 9999 FEW018 BKN020 03/00 Q1012=
200801250650 METAR ESMX 250650Z 21013KT 9999 FEW018 BKN020 BKN029 03/00 Q1012 RERA REDZ=
200801250620 METAR ESMX 250620Z 23011KT 170V260 9999 SCT017 BKN021 03/00 Q1014=
200801250550 METAR ESMX 250550Z 24010KT 9999 FEW018 BKN022 03/00 Q1014=
200801250520 METAR ESMX 250520Z 23009KT 200V260 9999 FEW023 03/M00 Q1015=
200801250450 METAR ESMX 250450Z 25011KT 210V280 9999 FEW017 02/M00 Q1015=
200801250420 METAR ESMX 250420Z AUTO 26013G24KT 220V280 9999NDV FEW017/// BKN020/// 02/M00 Q1015=
200801250350 METAR ESMX 250350Z AUTO 26011KT 230V290 9999NDV SCT020/// 02/M00 Q1014=
200801250320 METAR ESMX 250320Z AUTO 26012KT 9999NDV FEW022/// SCT026/// 02/M00 Q1014=
200801250250 METAR ESMX 250250Z AUTO 26012KT 9999NDV FEW021/// SCT025/// BKN030/// 02/M00 Q1013=
200801250220 METAR ESMX 250220Z AUTO 27013KT 240V300 9999NDV FEW018/// SCT022/// BKN030/// 03/M00 Q1013=
200801250150 METAR ESMX 250150Z AUTO 27014G24KT 220V300 9999NDV FEW018/// BKN020/// BKN026/// 03/00 Q1013=
200801250120 METAR ESMX 250120Z 27014G26KT 230V290 9999 FEW015 BKN020 BKN026 03/00 Q1012=
200801250050 METAR ESMX 250050Z 27013KT 230V300 9999 FEW014 BKN017 OVC025 03/00 Q1011=
200801242350 METAR ESMX 242350Z 27016KT 9999 FEW011 SCT015 BKN017 02/01 Q1011=
200801242320 METAR ESMX 242320Z 26014KT 220V290 9999 SCT011 BKN016 BKN021 02/01 Q1011 RERA=
200801242220 METAR ESMX 242220Z 24012KT 190V290 9999 FEW017 BKN024 03/01 Q1009=
200801242150 METAR ESMX 242150Z 25012KT 9999 FEW015 BKN024 03/01 Q1009=
200801242120 METAR ESMX 242120Z 25011KT 210V280 9999 FEW013 BKN019 03/01 Q1009=
200801242050 METAR ESMX 242050Z 23009KT 9999 FEW014 SCT018 BKN022 04/01 Q1010=
200801242020 METAR ESMX 242020Z 25010KT 9999 FEW017 SCT023 BKN051 04/01 Q1009=
200801241950 METAR ESMX 241950Z 25008KT 220V290 9999 FEW016 SCT021 BKN055 04/02 Q1009=
200801241920 METAR ESMX 241920Z 26011KT 230V290 9999 FEW017 BKN021 05/02 Q1009=
200801241850 METAR ESMX 241850Z 25011G21KT 200V290 9999 BKN016 OVC022 05/03 Q1009=
200801241820 METAR ESMX 241820Z 25009KT 210V290 9999 FEW016 SCT019 BKN021 06/03 Q1009=
200801241750 METAR ESMX 241750Z 24010KT 9999 FEW016 BKN018 06/03 Q1009=
200801241720 METAR ESMX 241720Z 25009KT 210V280 9999 FEW014 SCT019 06/04 Q1009 RERA REDZ=
200801241650 METAR ESMX 241650Z 26010KT 9999 FEW012 SCT019 BKN024 06/04 Q1009 RERA=
200801241620 METAR ESMX 241620Z 25009KT 220V280 6000 RA FEW012 SCT015 BKN018 06/05 Q1009=
200801241550 METAR ESMX 241550Z 24008KT 170V280 9999 FEW010 SCT016 BKN019 07/05 Q1009=
200801241520 METAR ESMX 241520Z 24009KT 7000 -RA FEW010 SCT013 BKN016 07/05 Q1009=
200801241450 METAR ESMX 241450Z 24010KT 210V280 9000 BR BKN011 BKN020 07/05 Q1009=
200801241420 METAR ESMX 241420Z 24010KT 200V260 9999 FEW014 SCT019 BKN022 07/05 Q1009=
200801241350 METAR ESMX 241350Z 25010KT 210V290 9999 FEW012 SCT015 BKN018 07/05 Q1009=
200801241320 METAR ESMX 241320Z 25009KT 9999 FEW012 SCT015 BKN017 07/05 Q1009=
200801241250 METAR ESMX 241250Z 25009KT 200V290 9999 SCT015 BKN020 07/05 Q1009=
200801241220 METAR ESMX 241220Z 25010KT 9999 SCT015 BKN020 07/06 Q1010=
200801241120 METAR ESMX 241120Z 24010KT 200V280 9999 BKN007 OVC010 07/06 Q1010=
200801241050 METAR ESMX 241050Z 24010KT 200V280 9999 SCT007 BKN009 OVC012 07/06 Q1010=
200801241020 METAR ESMX 241020Z 25011KT 9999 FEW004 SCT006 BKN010 07/06 Q1010=
200801240950 METAR ESMX 240950Z 24011KT 210V280 9999 FEW004 OVC005 07/07 Q1010=
200801240920 METAR ESMX 240920Z 25010KT 9999 OVC004 07/07 Q1010=
200801240820 METAR ESMX 240820Z 22009G21KT 190V260 3500 -DZ BKN003 OVC005 06/06 Q1009=
200801240750 METAR ESMX 240750Z 22010KT 6000 DZ OVC002 06/06 Q1009 RERA=
200801240720 METAR ESMX 240720Z 22012KT 2300 BR OVC002 06/06 Q1009=
200801240650 METAR ESMX 240650Z 21012KT 2500 BR OVC002 06/06 Q1009 RERA REDZ=
200801240620 METAR ESMX 240620Z 21012KT 1000 R01/P2000N R19/P2000N BR VV002 05/05 Q1009=
200801240550 METAR ESMX 240550Z 20011KT 2000 BR OVC001 04/04 Q1009=
200801240520 METAR ESMX 240520Z 21010KT 1600 BR OVC001 04/04 Q1009=
200801240450 METAR ESMX 240450Z 20010KT 0800 R19/P2000N FG VV002 04/03 Q1010=
200801240420 METAR ESMX 240420Z AUTO 20010KT 0450NDV R01/1400N R19/1500N FG VV001 03/03 Q1010=
200801240350 METAR ESMX 240350Z AUTO 20009KT 0800NDV R01/P2000N R19/P2000U FG VV001 03/03 Q1010=
200801240320 METAR ESMX 240320Z AUTO 20008KT 0550NDV R01/1700N R19/1700N FG VV001 03/03 Q1011=
200801240250 METAR ESMX 240250Z AUTO 20009KT 0900NDV R01/P2000D R19/P2000D FG VV001 02/02 Q1011=
200801240220 METAR ESMX 240220Z AUTO 19007KT 1700NDV BR OVC001/// 02/02 Q1012 RERA REDZ=
200801240150 METAR ESMX 240150Z AUTO 18007KT 2800NDV BR OVC001/// 02/02 Q1012=
200801240120 METAR ESMX 240120Z AUTO 18008KT 150V230 2200NDV BR OVC001/// 02/02 Q1013=
200801240050 METAR ESMX 240050Z 18007KT 130V220 3300 BR OVC001 02/01 Q1013=
200801240020 METAR ESMX 240020Z 18009KT 1800 BR OVC000 01/01 Q1014=
200801232350 METAR ESMX 232350Z 18007KT 2000 BR OVC001 01/01 Q1014=
200801232320 METAR ESMX 232320Z 17007KT 140V200 2000 -DZ BR OVC001 01/01 Q1014=
200801232250 METAR ESMX 232250Z 17007KT 140V200 2200 BR OVC001 01/01 Q1014=
200801232220 METAR ESMX 232220Z 17007KT 140V200 2400 BR OVC001 01/01 Q1015=
200801232150 METAR ESMX 232150Z 18009KT 5000 -RA BR OVC002 01/01 Q1015=
200801232120 METAR ESMX 232120Z 17008KT 140V210 7000 -SNRA OVC003 01/00 Q1016=
200801232050 METAR ESMX 232050Z 18008KT 150V210 6000 -SN OVC004 01/00 Q1016=
200801232020 METAR ESMX 232020Z 17010KT 140V200 5000 -SN OVC004 01/00 Q1017=
200801231950 METAR ESMX 231950Z 17010KT 6000 -SN OVC003 01/00 Q1017=
200801231920 METAR ESMX 231920Z 17009KT 140V210 7000 -SN FEW003 OVC004 01/00 Q1017=
200801231850 METAR ESMX 231850Z 17009KT 140V200 8000 -SN BKN002 01/00 Q1017=
200801231820 METAR ESMX 231820Z 16008KT 140V200 4000 -SN OVC005 01/00 Q1018=
200801231750 METAR ESMX 231750Z 16007KT 3500 -SN OVC002 00/00 Q1018=
200801231720 METAR ESMX 231720Z 15005KT 110V170 2000 -SN SCT002 OVC005 00/M00 Q1019=
200801231650 METAR ESMX 231650Z 15006KT 2500 -SN BKN003 OVC006 M00/M00 Q1019=
200801231620 METAR ESMX 231620Z 16006KT 2800 -SN OVC005 M00/M01 Q1020=
200801231550 METAR ESMX 231550Z 15005KT 120V190 3100 -SN FEW004 OVC005 M01/M01 Q1020=
200801231520 METAR ESMX 231520Z 16006KT 4500 -SN BKN005 BKN010 M01/M01 Q1020=
200801231450 METAR ESMX 231450Z 17006KT 4000 -SN FEW007 SCT010 BKN015 M01/M02 Q1021=
200801231420 METAR ESMX 231420Z 17006KT 140V200 6000 -SN BKN010 OVC020 M01/M02 Q1021=
200801231350 METAR ESMX 231350Z 17006KT 140V200 5000 -SN FEW011 OVC020 M01/M02 Q1021 RESG=
200801231320 METAR ESMX 231320Z 17006KT 140V200 9999 FEW007 SCT022 BKN030 M00/M03 Q1021 RESN=
200801231250 METAR ESMX 231250Z 16004KT 9999 FEW010 SCT025 OVC030 M01/M03 Q1022=
200801231220 METAR ESMX 231220Z 16005KT 140V220 9999 BKN009 OVC028 M01/M03 Q1022=
200801231150 METAR ESMX 231150Z 16004KT 9999 BKN015 BKN080 M02/M04 Q1022=
200801231120 METAR ESMX 231120Z 16004KT 140V200 9999 SCT025 M02/M04 Q1022=
200801231050 METAR ESMX 231050Z VRB02KT 9999 SCT025 BKN090 M02/M04 Q1023=
200801231020 METAR ESMX 231020Z 19005KT CAVOK M03/M04 Q1023=
200801230950 METAR ESMX 230950Z 16003KT CAVOK M03/M05 Q1023=
200801230920 METAR ESMX 230920Z 19001KT CAVOK M04/M05 Q1023=
200801230850 METAR ESMX 230850Z 00000KT CAVOK M04/M05 Q1023=
200801230820 METAR ESMX 230820Z 16002KT CAVOK M04/M05 Q1023=
200801230750 METAR ESMX 230750Z 19001KT CAVOK M05/M06 Q1023=
200801230720 METAR ESMX 230720Z 20002KT CAVOK M05/M06 Q1023=
200801230650 METAR ESMX 230650Z 25002KT CAVOK M05/M06 Q1023=
200801230620 METAR ESMX 230620Z 26004KT CAVOK M05/M06 Q1023=
200801230550 METAR ESMX 230550Z 25003KT CAVOK M06/M06 Q1023=
200801230520 METAR ESMX 230520Z 26002KT 9999 BKN200 M06/M06 Q1022=
200801230450 METAR ESMX 230450Z VRB02KT 9999 NSC M06/M07 Q1022=
200801230420 METAR ESMX 230420Z AUTO 26003KT 9999NDV NCD M05/M06 Q1022=
200801230350 METAR ESMX 230350Z AUTO 27004KT 9999NDV NCD M06/M07 Q1022=
200801230320 METAR ESMX 230320Z AUTO 27004KT 9999NDV NCD M06/M06 Q1022=
200801230250 METAR ESMX 230250Z AUTO 27005KT 9999NDV NCD M06/M06 Q1022=
200801230220 METAR ESMX 230220Z AUTO 27005KT 9999NDV NCD M05/M06 Q1022=
200801230150 METAR ESMX 230150Z AUTO 29005KT 9999NDV NCD M05/M06 Q1021=
200801230120 METAR ESMX 230120Z AUTO 31005KT 9999NDV NCD M05/M06 Q1021=
200801230050 METAR ESMX 230050Z 29005KT 9999 FEW020 M05/M06 Q1021=
200801230020 METAR ESMX 230020Z 29005KT 9999 FEW018 M05/M06 Q1020=
200801222350 METAR ESMX 222350Z 29005KT 9999 BKN017 M04/M06 Q1020=
200801222320 METAR ESMX 222320Z 30004KT 9999 BKN018 M04/M06 Q1020=
200801222250 METAR ESMX 222250Z 30004KT 9999 SCT017 M03/M06 Q1020=
200801222220 METAR ESMX 222220Z 32006KT 9999 OVC018 M02/M05 Q1019=
200801222150 METAR ESMX 222150Z 31005KT 9999 BKN018 M02/M05 Q1019=
200801222120 METAR ESMX 222120Z 32007KT 9999 BKN020 M02/M05 Q1019=
200801222050 METAR ESMX 222050Z 31007KT 280V340 9999 OVC020 M02/M05 Q1018=
200801222020 METAR ESMX 222020Z 33007KT 9999 OVC020 M02/M05 Q1018=
200801221950 METAR ESMX 221950Z 32011KT 280V340 9999 OVC019 M02/M05 Q1017=
200801221920 METAR ESMX 221920Z 34010KT 9999 OVC018 M02/M05 Q1016=
200801221850 METAR ESMX 221850Z 33012KT 9999 OVC017 M02/M05 Q1016=
200801221820 METAR ESMX 221820Z 33008KT 300V360 9999 OVC016 M01/M04 Q1016=
200801221720 METAR ESMX 221720Z 31009KT 9999 BKN016 M02/M04 Q1015=
200801221650 METAR ESMX 221650Z 33006KT 9999 BKN017 M02/M04 Q1014=
200801221620 METAR ESMX 221620Z 31006KT 290V350 9999 BKN017 M02/M04 Q1014=
200801221550 METAR ESMX 221550Z 30005KT 260V340 9999 FEW018 M02/M05 Q1013=
200801221520 METAR ESMX 221520Z 31007KT 9999 FEW018 M02/M05 Q1012=
200801221450 METAR ESMX 221450Z 31011KT 280V340 9999 OVC018 M01/M04 Q1012=
200801221420 METAR ESMX 221420Z 31012KT 280V350 9999 OVC017 M01/M04 Q1011=
200801221350 METAR ESMX 221350Z 31009KT 9999 FEW017 OVC019 M00/M03 Q1010=
200801221320 METAR ESMX 221320Z 32009KT 290V350 9999 BKN019 M00/M03 Q1010=
200801221250 METAR ESMX 221250Z 31010KT 9999 SCT020 M00/M04 Q1009=
200801221220 METAR ESMX 221220Z 32010KT 290V360 9999 FEW020 BKN030 M00/M04 Q1009=
200801221150 METAR ESMX 221150Z 33010KT 9999 OVC020 M01/M04 Q1008=
200801221120 METAR ESMX 221120Z 32010KT 9999 OVC025 M01/M04 Q1008=
200801221050 METAR ESMX 221050Z 32010KT 290V350 9999 BKN025 M01/M04 Q1007=
200801221020 METAR ESMX 221020Z 33010KT 9999 BKN030 M01/M04 Q1007=
200801220950 METAR ESMX 220950Z 32008KT 290V360 9999 OVC030 M01/M04 Q1006=
200801220920 METAR ESMX 220920Z 32012KT 300V010 9999 OVC030 M02/M04 Q1005=
200801220850 METAR ESMX 220850Z 31010KT 9999 OVC030 M02/M04 Q1004=
200801220820 METAR ESMX 220820Z 31008KT 9999 FEW020 BKN030 M02/M04 Q1004=
200801220750 METAR ESMX 220750Z 31008KT 9999 OVC030 M02/M04 Q1003=
200801220720 METAR ESMX 220720Z 32006KT 9999 SCT020 OVC030 M02/M04 Q1003=
200801220650 METAR ESMX 220650Z 33007KT 9999 FEW020 OVC030 M02/M04 Q1002=
200801220620 METAR ESMX 220620Z 35008KT 9999 OVC020 M02/M04 Q1002=
200801220550 METAR ESMX 220550Z 36010KT 320V020 9999 SCT015 OVC020 M02/M04 Q1001=
200801220520 METAR ESMX 220520Z 35010KT 9999 OVC014 M02/M04 Q1001=
200801220450 METAR ESMX 220450Z 35012KT 9999 OVC017 M02/M04 Q1000=
200801220420 METAR ESMX 220420Z AUTO 34014KT 9999NDV FEW016/// OVC018/// M02/M04 Q0999=
200801220350 METAR ESMX 220350Z AUTO 36013KT 9999NDV OVC014/// M02/M04 Q0999=
200801220320 METAR ESMX 220320Z AUTO 34012KT 300V010 9999NDV OVC010/// M01/M03 Q0998=
200801220250 METAR ESMX 220250Z AUTO 34007KT 9999NDV SG FEW006/// BKN015/// OVC019/// M01/M02 Q0998 RESN=
200801220220 METAR ESMX 220220Z AUTO 32005KT 9999NDV FEW009/// SCT014/// M02/M02 Q0997=
200801220150 METAR ESMX 220150Z AUTO 34004KT 310V030 9999NDV FEW010/// SCT014/// M02/M02 Q0997=
200801220120 METAR ESMX 220120Z AUTO 32004KT 9999NDV FEW006/// M02/M02 Q0997=
200801220050 METAR ESMX 220050Z 34004KT 9999 FEW007 SCT010 BKN043 M01/M01 Q0997=
200801220020 METAR ESMX 220020Z 33003KT 9999 FEW023 BKN043 M01/M02 Q0996=
200801212350 METAR ESMX 212350Z 32004KT 280V340 9999 FEW008 BKN011 M00/M01 Q0996=
200801212320 METAR ESMX 212320Z 31004KT 9999 FEW013 SCT017 M02/M02 Q0996=
200801212250 METAR ESMX 212250Z 30003KT 9999 FEW018 M01/M02 Q0996=
200801212220 METAR ESMX 212220Z 27003KT 9999 FEW014 SCT035 M01/M01 Q0996=
200801212150 METAR ESMX 212150Z 26004KT 9999 FEW034 BKN040 M01/M01 Q0995=
200801212120 METAR ESMX 212120Z 26004KT 9999 BKN032 00/M00 Q0995=
200801212050 METAR ESMX 212050Z 24004KT 9999 FEW020 BKN030 00/M00 Q0995=
200801212020 METAR ESMX 212020Z 25003KT 9999 FEW020 BKN030 00/M00 Q0995=
200801211950 METAR ESMX 211950Z 27003KT 230V300 9999 FEW018 BKN030 01/M00 Q0995=
200801211920 METAR ESMX 211920Z 26004KT 9999 BKN033 00/M00 Q0995=
200801211850 METAR ESMX 211850Z 29003KT 260V330 9999 FEW035 00/M00 Q0995 RESN=
200801211820 METAR ESMX 211820Z 28004KT 250V310 9999 FEW025 01/M00 Q0995=
200801211720 METAR ESMX 211720Z 28010KT 240V320 4400 -SHRA FEW006 SCT015 BKN028 02/00 Q0995=
200801211650 METAR ESMX 211650Z 24008KT 5000 -SHRA FEW006 SCT017 BKN025 02/00 Q0995=
200801211620 METAR ESMX 211620Z 24008KT 210V270 9999 FEW022 OVC047 02/00 Q0995=
200801211550 METAR ESMX 211550Z 25007KT 200V290 9999 FEW021 SCT036 OVC042 02/M00 Q0995=
200801211520 METAR ESMX 211520Z 25007KT 220V280 9999 FEW023 OVC035 02/M00 Q0995=
200801211450 METAR ESMX 211450Z 25008KT 220V280 9999 FEW031 OVC036 02/M00 Q0995=
200801211420 METAR ESMX 211420Z 25008KT 9999 FEW021 SCT027 BKN040 03/M00 Q0995=
200801211350 METAR ESMX 211350Z 27010KT 9999 FEW021 SCT032 BKN040 03/00 Q0995=
200801211320 METAR ESMX 211320Z 27012KT 230V290 9999 FEW016 SCT019 BKN023 03/00 Q0995=
200801211250 METAR ESMX 211250Z 27012G23KT 200V300 9999 FEW011 SCT020 BKN027 03/01 Q0995=
200801211220 METAR ESMX 211220Z 27012KT 230V300 9999 FEW007 SCT011 BKN016 03/01 Q0995=
200801211150 METAR ESMX 211150Z 25012KT 210V280 7000 -SHRA FEW006 SCT015 BKN040 02/01 Q0995=
200801211120 METAR ESMX 211120Z 25011KT 9999 -SHRA FEW010 BKN015 03/01 Q0995=
200801211050 METAR ESMX 211050Z 24011G22KT 200V280 4400 -SHRA FEW008 BKN009 BKN016 03/02 Q0996=
200801211020 METAR ESMX 211020Z 23013KT 200V260 9999 -RA BKN014 BKN020 03/01 Q0996 REDZ=
200801210950 METAR ESMX 210950Z 25013KT 210V280 9999 FEW012 SCT015 BKN020 04/02 Q0997 RERA=
200801210920 METAR ESMX 210920Z 24013KT 9999 FEW011 SCT014 BKN017 04/02 Q0997=
200801210850 METAR ESMX 210850Z 24010KT 210V280 9999 FEW015 SCT040 03/01 Q0997=
200801210820 METAR ESMX 210820Z 24010KT 9999 FEW015 SCT030 BKN035 03/02 Q0997=
200801210750 METAR ESMX 210750Z 25008KT 9999 SCT014 BKN019 BKN045 03/01 Q0998=
200801210720 METAR ESMX 210720Z 26013KT 230V290 9999 FEW012 SCT015 BKN020 03/02 Q0998=
200801210650 METAR ESMX 210650Z 24012G22KT 200V280 9999 SCT010 BKN015 04/02 Q0997=
200801210620 METAR ESMX 210620Z 23011KT 200V260 6000 RA FEW009 BKN010 OVC015 04/03 Q0998=
200801210550 METAR ESMX 210550Z 24010KT 200V270 9000 -RA BKN010 BKN020 04/03 Q0998 REDZ=
200801210520 METAR ESMX 210520Z 24010KT 9999 -RA FEW011 BKN014 04/02 Q0998=
200801210450 METAR ESMX 210450Z 25009KT 220V290 9999 FEW010 BKN014 04/03 Q0999=
200801210420 METAR ESMX 210420Z AUTO 24009KT 9999NDV FEW007/// OVC010/// 04/03 Q0999 REDZ=
200801210350 METAR ESMX 210350Z AUTO 22009KT 200V270 9999NDV -DZ FEW007/// BKN010/// 03/02 Q1000 RERA=
200801210320 METAR ESMX 210320Z AUTO 24009KT 9999NDV -DZ FEW008/// BKN010/// OVC015/// 03/02 Q1000 RERA=
200801210250 METAR ESMX 210250Z AUTO 23010KT 9999NDV SCT010/// BKN020/// 03/02 Q1000 RERA REDZ=
200801210220 METAR ESMX 210220Z AUTO 23008KT 200V260 8000NDV -DZ FEW009/// BKN011/// OVC018/// 03/02 Q1001 RERA=
200801210150 METAR ESMX 210150Z AUTO 23008KT 200V270 7000NDV -RA BKN013/// OVC019/// 03/02 Q1001 REDZ=
200801210120 METAR ESMX 210120Z 23008KT 170V250 9999 -RA FEW015 SCT020 BKN035 03/02 Q1001=
200801210020 METAR ESMX 210020Z 23008KT 190V260 9999 -RA FEW009 SCT012 BKN018 03/02 Q1002 RER=
200801202350 METAR ESMX 202350Z 21009KT 190V250 9999 FEW008 BKN011 OVC024 03/02 Q1002=
200801202320 METAR ESMX 202320Z 22006KT 9999 FEW008 BKN013 03/02 Q1003=
200801202250 METAR ESMX 202250Z 22007KT 190V270 9999 BKN008 OVC013 03/02 Q1003=
200801202220 METAR ESMX 202220Z 23009KT 200V260 9999 -RA SCT010 BKN016 03/02 Q1003=
200801202150 METAR ESMX 202150Z 22010KT 9999 FEW015 OVC034 03/02 Q1003=
200801202120 METAR ESMX 202120Z 22007KT 9999 FEW013 BKN035 03/02 Q1004=
200801202050 METAR ESMX 202050Z 22008KT 9999 FEW011 BKN034 03/02 Q1004=
200801202020 METAR ESMX 202020Z 21008KT 9999 FEW007 SCT014 BKN038 03/02 Q1004=
200801201950 METAR ESMX 201950Z 23005KT 9999 FEW012 BKN022 03/02 Q1004=
200801201920 METAR ESMX 201920Z 24006KT 200V260 9999 FEW008 BKN021 03/02 Q1004=
200801201850 METAR ESMX 201850Z 22006KT 170V270 9999 FEW007 BKN014 03/02 Q1005=
200801201820 METAR ESMX 201820Z 22006KT 9999 FEW007 OVC010 03/02 Q1005=
200801201750 METAR ESMX 201750Z 22007KT 9999 SCT007 OVC010 02/02 Q1005=
200801201720 METAR ESMX 201720Z 20007KT 9999 FEW005 SCT010 BKN030 03/01 Q1005=
200801201650 METAR ESMX 201650Z 21008KT 9999 FEW015 SCT025 BKN035 03/01 Q1006=
200801201620 METAR ESMX 201620Z 22007KT 9999 FEW010 SCT015 BKN025 03/01 Q1006=
200801201550 METAR ESMX 201550Z 21007KT 9999 FEW015 SCT020 BKN030 03/01 Q1006=
200801201520 METAR ESMX 201520Z 21006KT 170V240 9999 FEW015 BKN025 03/01 Q1007=
200801201450 METAR ESMX 201450Z 23006KT 9999 BKN020 04/00 Q1007=
200801201420 METAR ESMX 201420Z 23006KT 200V280 9999 OVC020 04/00 Q1007=
200801201350 METAR ESMX 201350Z 23007KT 9999 BKN020 04/01 Q1008=
200801201320 METAR ESMX 201320Z 23010KT 200V260 9999 BKN020 04/00 Q1008=
200801201250 METAR ESMX 201250Z 24009KT 200V270 9999 OVC020 04/00 Q1008=
200801201220 METAR ESMX 201220Z 23011KT 170V250 9999 FEW020 OVC025 04/00 Q1008=
200801201150 METAR ESMX 201150Z 23010KT 9999 FEW020 BKN025 04/01 Q1009=
200801201121 METAR ESMX 201121Z 24008KT 200V270 9999 FEW015 BKN025 05/02 Q1009=
200801201050 METAR ESMX 201050Z AUTO 22008KT 9999NDV FEW014/// SCT018/// BKN026/// 04/02 Q1010=
200801201020 METAR ESMX 201020Z AUTO 24009KT 9999NDV BKN024/// 04/02 Q1010=
200801200950 METAR ESMX 200950Z AUTO 23008KT 9999NDV FEW019/// BKN023/// 04/01 Q1010=
200801200920 METAR ESMX 200920Z AUTO 21008KT 180V250 9999NDV OVC020/// 04/01 Q1010=
200801200850 METAR ESMX 200850Z AUTO 24006KT 200V260 9999NDV OVC017/// 03/01 Q1010=
200801200820 METAR ESMX 200820Z AUTO 23005KT 9999NDV BKN017/// 03/01 Q1010=
200801200750 METAR ESMX 200750Z AUTO 26008KT 210V290 9999NDV BKN018/// 03/01 Q1010=
200801200720 METAR ESMX 200720Z AUTO 25007KT 9999NDV SCT017/// 02/01 Q1010=
200801200650 METAR ESMX 200650Z AUTO 25007KT 230V290 9999NDV FEW016/// SCT020/// 03/01 Q1009=
200801200620 METAR ESMX 200620Z AUTO 25008KT 210V290 9999NDV BKN018/// 03/01 Q1010=
200801200550 METAR ESMX 200550Z AUTO 26008KT 9999NDV BKN017/// 03/01 Q1010=
200801200520 METAR ESMX 200520Z AUTO 26007KT 220V290 9999NDV FEW018/// SCT020/// 03/00 Q1010=
200801200450 METAR ESMX 200450Z AUTO 26007KT 230V290 9999NDV SCT018/// 03/00 Q1010=
200801200420 METAR ESMX 200420Z AUTO 26010KT 230V300 9999NDV FEW019/// 03/00 Q1010=
200801200350 METAR ESMX 200350Z AUTO 26011KT 220V290 9999NDV NCD 03/00 Q1009=
200801200320 METAR ESMX 200320Z AUTO 26012KT 230V290 9999NDV NCD 03/00 Q1009=
200801200250 METAR ESMX 200250Z AUTO 26012KT 230V290 9999NDV NCD 03/M00 Q1009=
200801200220 METAR ESMX 200220Z AUTO 26013G24KT 9999NDV NCD 03/M00 Q1008=
200801200150 METAR ESMX 200150Z AUTO 26012KT 230V290 9999NDV NCD 03/M00 Q1009=
200801200120 METAR ESMX 200120Z AUTO 26013KT 230V290 9999NDV FEW023/// 03/M00 Q1008=
200801200050 METAR ESMX 200050Z AUTO 27013KT 9999NDV NCD 03/M00 Q1008=
200801200020 METAR ESMX 200020Z AUTO 26011KT 9999NDV FEW024/// 04/M00 Q1007=
200801192350 METAR ESMX 192350Z AUTO 26014G24KT 9999NDV FEW025/// SCT029/// 04/M00 Q1007=
200801192320 METAR ESMX 192320Z AUTO 27014G24KT 240V300 9999NDV FEW025/// BKN029/// BKN038/// 04/00 Q1006=
200801192250 METAR ESMX 192250Z AUTO 27015G25KT 9999NDV FEW025/// BKN030/// 05/00 Q1006=
200801192220 METAR ESMX 192220Z AUTO 27016G26KT 240V300 9999NDV FEW028/// SCT036/// BKN040/// 05/00 Q1005=
200801192150 METAR ESMX 192150Z AUTO 27016KT 9999NDV FEW027/// BKN037/// 05/00 Q1005=
200801192120 METAR ESMX 192120Z AUTO 27017G28KT 9999NDV FEW027/// OVC032/// 05/M00 Q1004=
200801192050 METAR ESMX 192050Z AUTO 26015KT 9999NDV FEW024/// SCT029/// OVC036/// 05/00 Q1004=
200801192020 METAR ESMX 192020Z AUTO 25014KT 220V280 9999NDV FEW016/// SCT033/// BKN043/// 04/01 Q1003=
200801191950 METAR ESMX 191950Z AUTO 26016G28KT 9999NDV FEW017/// SCT025/// BKN029/// 04/01 Q1003=
200801191920 METAR ESMX 191920Z AUTO 26016G27KT 230V290 9999NDV FEW025/// SCT029/// BKN035/// 05/00 Q1002=
200801191850 METAR ESMX 191850Z AUTO 25016G27KT 210V290 9999NDV FEW031/// BKN038/// 05/M00 Q1002=
200801191820 METAR ESMX 191820Z AUTO 26016G27KT 220V290 9999NDV FEW030/// SCT035/// 04/M01 Q1002=
200801191750 METAR ESMX 191750Z AUTO 26016KT 9999NDV FEW030/// 04/M01 Q1001=
200801191720 METAR ESMX 191720Z AUTO 26018G31KT 230V290 9999NDV NCD 04/M01 Q1001=
200801191650 METAR ESMX 191650Z AUTO 27019G30KT 220V290 9999NDV NCD 04/M01 Q1001=
200801191620 METAR ESMX 191620Z AUTO 27021G36KT 240V310 9999NDV FEW031/// SCT038/// 05/M01 Q1000=
200801191550 METAR ESMX 191550Z AUTO 27019G32KT 230V300 9999NDV FEW029/// SCT033/// BKN039/// 05/00 Q1000=
200801191520 METAR ESMX 191520Z AUTO 26018G29KT 230V300 9999NDV FEW027/// BKN032/// 05/00 Q0999=
200801191450 METAR ESMX 191450Z AUTO 26016KT 230V290 9999NDV FEW030/// SCT037/// 05/00 Q0999=
200801191420 METAR ESMX 191420Z AUTO 26019G32KT 240V300 9999NDV FEW031/// SCT037/// 05/M00 Q0998=
200801191350 METAR ESMX 191350Z AUTO 26018G30KT 230V290 9999NDV BKN030/// OVC039/// 06/00 Q0998=
200801191320 METAR ESMX 191320Z AUTO 26017G30KT 200V310 9999NDV FEW030/// SCT035/// BKN041/// 06/01 Q0998=
200801191250 METAR ESMX 191250Z AUTO 25016G28KT 210V290 9999NDV FEW029/// BKN036/// 06/01 Q0997=
200801191220 METAR ESMX 191220Z AUTO 24017G27KT 220V300 9999NDV FEW034/// SCT045/// BKN052/// 06/00 Q0997=
200801191150 METAR ESMX 191150Z AUTO 26021G33KT 9999NDV FEW018/// SCT028/// BKN038/// 06/01 Q0996 RERA REDZ=
200801191120 METAR ESMX 191120Z AUTO 26021G34KT 230V290 9999NDV FEW025/// SCT033/// BKN041/// 06/01 Q0996 RERA REDZ=
200801191050 METAR ESMX 191050Z AUTO 26022G42KT 230V300 9999NDV FEW019/// BKN025/// 06/01 Q0995=
200801191020 METAR ESMX 191020Z AUTO 25018G29KT 9999NDV SCT023/// BKN029/// BKN038/// 06/02 Q0995=
200801190950 METAR ESMX 190950Z AUTO 25020G32KT 210V290 9999NDV FEW025/// BKN031/// BKN040/// 06/02 Q0994=
200801190920 METAR ESMX 190920Z AUTO 24018G30KT 190V320 9999NDV SCT026/// BKN032/// BKN043/// 06/02 Q0994=
200801190850 METAR ESMX 190850Z AUTO 25017G33KT 210V280 9999NDV FEW025/// BKN029/// BKN038/// 06/02 Q0994=
200801190820 METAR ESMX 190820Z AUTO 25020G31KT 220V290 9999NDV FEW024/// SCT027/// BKN031/// 06/02 Q0993=
200801190750 METAR ESMX 190750Z AUTO 25019G31KT 220V290 9999NDV FEW024/// OVC027/// 06/02 Q0992=
200801190720 METAR ESMX 190720Z AUTO 26020G32KT 230V290 9999NDV FEW024/// BKN028/// 06/03 Q0992=
200801190650 METAR ESMX 190650Z AUTO 24017KT 210V280 9999NDV FEW023/// SCT027/// BKN032/// 07/03 Q0991=
200801190620 METAR ESMX 190620Z AUTO 24019G32KT 210V280 9000NDV FEW022/// BKN026/// 07/05 Q0991 RERA=
200801190550 METAR ESMX 190550Z AUTO 24019G32KT 210V280 9999NDV FEW015/// SCT022/// BKN028/// 08/06 Q0990 REDZ RERA=
200801190520 METAR ESMX 190520Z AUTO 23014KT 9999NDV FEW010/// SCT015/// BKN020/// 09/07 Q0990 REDZ=
200801190450 METAR ESMX 190450Z AUTO 22013KT 9999NDV FEW007/// BKN012/// OVC018/// 08/07 Q0990=
200801190420 METAR ESMX 190420Z AUTO 21010KT 9999NDV FEW005/// SCT006/// BKN008/// 07/07 Q0991 REDZ=
200801190350 METAR ESMX 190350Z AUTO 20012KT 4300NDV DZ FEW003/// OVC005/// 06/06 Q0991 RERA=
200801190320 METAR ESMX 190320Z AUTO 19014KT 4400NDV DZ OVC005/// 06/05 Q0992 RERA=
200801190250 METAR ESMX 190250Z AUTO 19015KT 160V230 3900NDV -RA OVC005/// 06/05 Q0992 REDZ=
200801190220 METAR ESMX 190220Z AUTO 18015KT 150V210 5000NDV DZ SCT006/// BKN008/// OVC010/// 05/05 Q0992 RERA=
200801190150 METAR ESMX 190150Z AUTO 17016KT 130V210 9999NDV -RA FEW007/// SCT008/// BKN009/// 05/04 Q0993=
200801190120 METAR ESMX 190120Z AUTO 17016KT 140V220 7000NDV -RA FEW007/// SCT009/// OVC010/// 05/04 Q0994=
200801190050 METAR ESMX 190050Z AUTO 18015G25KT 9999NDV DZ FEW008/// BKN010/// OVC015/// 05/04 Q0994 RERA=
200801190020 METAR ESMX 190020Z AUTO 17015KT 140V210 9999NDV -RA FEW008/// SCT010/// OVC012/// 05/04 Q0996 REDZ=
200801182350 METAR ESMX 182350Z AUTO 18014KT 140V210 7000NDV -RA FEW006/// BKN008/// OVC014/// 05/04 Q0997=
200801182320 METAR ESMX 182320Z AUTO 17012KT 9000NDV -DZ FEW003/// BKN005/// OVC009/// 05/04 Q0999 RERA=
200801182250 METAR ESMX 182250Z AUTO 18013KT 150V210 5000NDV RA OVC003/// 05/05 Q1000 REDZ=
200801182220 METAR ESMX 182220Z AUTO 19012KT 4700NDV BR OVC003/// 05/04 Q1000=
200801182150 METAR ESMX 182150Z AUTO 18011KT 150V210 8000NDV BR OVC006/// 05/04 Q1001=
200801182120 METAR ESMX 182120Z AUTO 19012KT 9999NDV FEW007/// BKN009/// OVC012/// 05/04 Q1002=
200801182050 METAR ESMX 182050Z AUTO 20010KT 9999NDV FEW007/// OVC010/// 05/04 Q1002=
200801182020 METAR ESMX 182020Z AUTO 21010KT 9999NDV FEW006/// SCT008/// BKN009/// 05/05 Q1003=
200801181950 METAR ESMX 181950Z 20011KT 170V240 6000 BR FEW003 SCT005 BKN007 05/05 Q1002=
200801181920 METAR ESMX 181920Z 19009KT 160V220 5000 BR OVC002 05/05 Q1003=
200801181850 METAR ESMX 181850Z 18006KT 3600 BR OVC002 05/05 Q1003 RERA REDZ=
200801181820 METAR ESMX 181820Z 19008KT 5000 BR OVC002 05/04 Q1004=
200801181750 METAR ESMX 181750Z 20007KT 5000 OVC003 04/04 Q1004=
200801181720 METAR ESMX 181720Z 17006KT 140V220 1100 R01/P2000U R19/P2000U VV002 04/04 Q1003=
200801181650 METAR ESMX 181650Z 17005KT 1300 R01/P2000U R19/P2000U -DZ VV002 04/04 Q1004=
200801181620 METAR ESMX 181620Z 16004KT 0350 R01/0900N R19/1000N FG VV002 04/04 Q1004=
200801181550 METAR ESMX 181550Z 16005KT 0250 R01/0900N R19/1100N FG VV002 04/03 Q1004=
200801181520 METAR ESMX 181520Z 15004KT 120V190 0400 R01/1000N R19/1300N FG VV002 04/03 Q1004=
200801181450 METAR ESMX 181450Z 16004KT 120V190 0550 R01/1300N R19/1600N FG VV002 03/03 Q1003=
200801181420 METAR ESMX 181420Z 15005KT 0550 R01/1200N R19/1600U FG VV002 03/03 Q1003=
200801181350 METAR ESMX 181350Z 16004KT 120V200 1000 R01/1800D R19/P2000D BR VV002 03/03 Q1004=
200801181320 METAR ESMX 181320Z 14004KT 080V190 2000 BR OVC002 03/03 Q1003=
200801181250 METAR ESMX 181250Z 16005KT 110V180 1400 R19/P2000N BR OVC001 03/03 Q1003=
200801181220 METAR ESMX 181220Z 15006KT 1400 R19/P2000D BR OVC001 03/03 Q1003=
200801181150 METAR ESMX 181150Z 16006KT 6000 BR OVC003 03/03 Q1003=
200801181120 METAR ESMX 181120Z 15005KT 110V200 9000 BR OVC005 03/02 Q1003=
200801181050 METAR ESMX 181050Z 16007KT 110V200 7000 BR OVC004 03/03 Q1003=
200801181020 METAR ESMX 181020Z 16007KT 120V200 7000 BR FEW003 OVC005 03/03 Q1003=
200801180950 METAR ESMX 180950Z 15006KT 100V190 4600 BR OVC003 03/03 Q1003=
200801180920 METAR ESMX 180920Z 15006KT 110V190 6000 BR OVC004 03/03 Q1003=
200801180850 METAR ESMX 180850Z 14005KT 100V170 8000 BR BKN005 OVC007 03/02 Q1003=
200801180820 METAR ESMX 180820Z 14005KT 090V190 8000 BR BKN006 OVC008 03/02 Q1003=
200801180750 METAR ESMX 180750Z 14005KT 070V180 5000 -RA OVC005 03/03 Q1003=
200801180720 METAR ESMX 180720Z 14006KT 050V180 5000 -RA FEW006 OVC007 03/03 Q1003=
200801180650 METAR ESMX 180650Z 14006KT 080V190 4800 -RA BR FEW005 BKN008 04/03 Q1003=
200801180620 METAR ESMX 180620Z 14005KT 110V180 5000 -RA BKN005 OVC008 04/03 Q1002=
200801180550 METAR ESMX 180550Z 14006KT 3400 -RA OVC004 04/03 Q1003=
200801180520 METAR ESMX 180520Z 12005KT 3000 BR OVC005 04/03 Q1002 REDZ=
200801180450 METAR ESMX 180450Z 13005KT 1900 DZ OVC002 04/03 Q1003 RERA=
200801180420 METAR ESMX 180420Z AUTO 12006KT 060V170 0900NDV R01/P2000U R19/P2000U FG OVC001/// 03/03 Q1003=
200801180350 METAR ESMX 180350Z AUTO 13005KT 050V170 0800NDV R01/P2000D R19/P2000D FG VV001 03/03 Q1003=
200801180320 METAR ESMX 180320Z AUTO 13005KT 060V160 2300NDV BR OVC002/// 03/03 Q1003=
200801180250 METAR ESMX 180250Z AUTO 14005KT 100V170 4800NDV BR OVC003/// 03/03 Q1004=
200801180220 METAR ESMX 180220Z AUTO 13005KT 070V170 3800NDV BR OVC002/// 03/03 Q1004=
200801180150 METAR ESMX 180150Z AUTO 12005KT 050V160 3200NDV BKN002/// OVC004/// 03/03 Q1004=
200801180120 METAR ESMX 180120Z AUTO 12005KT 080V160 1300NDV R01/P2000U R19/P2000U OVC001/// 03/03 Q1004=
200801180050 METAR ESMX 180050Z 14004KT 080V170 1000 R01/P2000N R19/P2000U FG VV002 03/03 Q1005=
200801180020 METAR ESMX 180020Z 14006KT 050V190 1000 R01/P2000N R19/P2000D FG OVC002 03/03 Q1005=
200801172350 METAR ESMX 172350Z 16005KT 120V190 2100 BR OVC002 03/03 Q1005=
200801172250 METAR ESMX 172250Z 15005KT 110V190 1900 BR OVC003 03/03 Q1006=
200801172220 METAR ESMX 172220Z 17006KT 3400 BR OVC003 03/03 Q1006=
200801172150 METAR ESMX 172150Z 16006KT 100V200 5000 BR OVC005 03/02 Q1006=
200801172120 METAR ESMX 172120Z 16005KT 120V200 7000 BR OVC005 03/02 Q1006=
200801172050 METAR ESMX 172050Z 17006KT 140V200 8000 BR OVC006 03/02 Q1006=
200801172020 METAR ESMX 172020Z 18007KT 7000 BR BKN006 OVC008 03/02 Q1006=
200801171950 METAR ESMX 171950Z 17006KT 7000 BR BKN005 OVC008 03/02 Q1006=
200801171920 METAR ESMX 171920Z 17008KT 140V200 6000 BR OVC005 04/03 Q1006=
200801171850 METAR ESMX 171850Z 16006KT 5000 BR OVC006 04/03 Q1006=
200801171820 METAR ESMX 171820Z 17007KT 6000 BR BKN005 OVC010 04/03 Q1006=
200801171750 METAR ESMX 171750Z 17007KT 140V210 7000 BR BKN006 OVC017 04/03 Q1006=
200801171720 METAR ESMX 171720Z 16006KT 6000 BR FEW007 BKN014 OVC019 04/03 Q1006=
200801171650 METAR ESMX 171650Z 17006KT 140V200 7000 BR FEW009 OVC011 04/03 Q1007=
200801171620 METAR ESMX 171620Z 17005KT 8000 BR SCT012 BKN035 04/03 Q1007=
200801171550 METAR ESMX 171550Z 18005KT 8000 BR FEW012 BKN040 04/03 Q1006=
200801171520 METAR ESMX 171520Z 20008KT 9000 FEW014 SCT018 BKN023 04/03 Q1006=
200801171450 METAR ESMX 171450Z 19008KT 9999 FEW010 SCT018 BKN023 05/03 Q1006=
200801171420 METAR ESMX 171420Z 19010KT 9000 BR FEW012 BKN015 05/03 Q1006=
200801171350 METAR ESMX 171350Z 19010KT 9999 FEW011 SCT014 BKN017 05/03 Q1006=
200801171320 METAR ESMX 171320Z 19007KT 150V220 9999 FEW010 BKN018 05/03 Q1006=
200801171220 METAR ESMX 171220Z 18008KT 140V210 9999 SCT010 BKN015 OVC020 05/03 Q1006=
200801171120 METAR ESMX 171120Z 19008KT 9999 FEW012 OVC020 05/03 Q1006=
200801171050 METAR ESMX 171050Z 18008KT 9999 FEW011 BKN018 05/03 Q1006=
200801171020 METAR ESMX 171020Z 20007KT 9999 FEW013 BKN015 OVC020 05/03 Q1006=
200801170950 METAR ESMX 170950Z 21009KT 180V240 9999 FEW014 SCT042 OVC060 04/02 Q1006=
200801170920 METAR ESMX 170920Z 20009KT 9999 BKN013 BKN020 04/02 Q1006=
200801170850 METAR ESMX 170850Z 21009KT 9999 FEW016 BKN020 03/01 Q1005=
200801170820 METAR ESMX 170820Z 20007KT 9999 FEW020 03/01 Q1005=
200801170750 METAR ESMX 170750Z 20008KT 9999 FEW020 03/02 Q1005=
200801170720 METAR ESMX 170720Z 20009KT 9999 SCT025 03/01 Q1004=
200801170650 METAR ESMX 170650Z 20009KT 9999 FEW025 BKN035 04/01 Q1004=
200801170620 METAR ESMX 170620Z 21010KT 9999 FEW016 SCT022 BKN031 04/02 Q1003=
200801170520 METAR ESMX 170520Z 21008KT 9999 FEW018 SCT021 BKN024 04/02 Q1002=
200801170450 METAR ESMX 170450Z 21009KT 9999 FEW019 SCT023 BKN027 05/02 Q1002=
200801170420 METAR ESMX 170420Z AUTO 21011KT 9999NDV FEW026/// SCT035/// 05/02 Q1001=
200801170350 METAR ESMX 170350Z AUTO 22012KT 9999NDV SCT038/// 05/02 Q1001=
200801170320 METAR ESMX 170320Z AUTO 21011KT 190V250 9999NDV FEW023/// SCT043/// 05/02 Q1001=
200801170250 METAR ESMX 170250Z AUTO 21012KT 9999NDV FEW019/// SCT022/// BKN026/// 05/03 Q1000 RERA REDZ=
200801170220 METAR ESMX 170220Z AUTO 20014KT 9999NDV FEW019/// BKN021/// OVC040/// 05/03 Q1000=
200801170150 METAR ESMX 170150Z AUTO 20013KT 9999NDV FEW017/// SCT021/// BKN024/// 05/03 Q1000=
200801170120 METAR ESMX 170120Z AUTO 21012KT 9999NDV FEW017/// SCT021/// BKN025/// 05/03 Q0999=
200801170050 METAR ESMX 170050Z 21012KT 9999 FEW016 BKN020 05/04 Q0999=
200801170020 METAR ESMX 170020Z 20011KT 9999 FEW014 SCT019 BKN021 05/04 Q0998 RERA=
200801162350 METAR ESMX 162350Z 20014KT 9999 -RA FEW015 SCT022 BKN027 05/04 Q0998=
200801162320 METAR ESMX 162320Z 20013KT 9999 FEW018 SCT024 OVC035 06/03 Q0998=
200801162250 METAR ESMX 162250Z 20012KT 9999 FEW020 SCT023 BKN027 06/03 Q0997=
200801162150 METAR ESMX 162150Z 19012KT 9999 OVC020 06/03 Q0996=
200801162120 METAR ESMX 162120Z 20011KT 9999 FEW018 OVC021 05/03 Q0996=
200801162050 METAR ESMX 162050Z 19013KT 9999 OVC020 06/03 Q0995=
200801162020 METAR ESMX 162020Z 18011KT 140V200 9999 OVC023 05/04 Q0995=
200801161950 METAR ESMX 161950Z 17010KT 140V200 9999 FEW017 BKN027 05/03 Q0995=
200801161920 METAR ESMX 161920Z 17011KT 140V200 9999 FEW009 OVC026 05/04 Q0994=
200801161850 METAR ESMX 161850Z 17011KT 9999 FEW007 OVC027 05/04 Q0994=
200801161820 METAR ESMX 161820Z 16011KT 130V200 9999 FEW009 BKN032 05/03 Q0994=
200801161750 METAR ESMX 161750Z 17010KT 9999 FEW006 BKN037 04/03 Q0994=
200801161720 METAR ESMX 161720Z 16009KT 8000 BR SCT006 BKN036 04/03 Q0994=
200801161650 METAR ESMX 161650Z 16009KT 120V200 9999 FEW008 BKN019 04/03 Q0994=
200801161620 METAR ESMX 161620Z 17009KT 9999 FEW009 BKN014 05/03 Q0993=
200801161550 METAR ESMX 161550Z 17009KT 140V200 9999 FEW008 OVC010 05/04 Q0993=
200801161520 METAR ESMX 161520Z 17009KT 9999 FEW009 OVC010 05/04 Q0993=
200801161450 METAR ESMX 161450Z 16008KT 120V190 9000 BR FEW008 OVC010 05/03 Q0992=
200801161420 METAR ESMX 161420Z 17010KT 130V200 9000 BR FEW007 OVC009 05/03 Q0992=
200801161350 METAR ESMX 161350Z 17010KT 9000 BR FEW006 BKN008 OVC010 05/03 Q0992=
200801161320 METAR ESMX 161320Z 17011KT 140V200 8000 BR FEW006 SCT007 OVC010 05/03 Q0992=
200801161250 METAR ESMX 161250Z 16010KT 130V200 8000 BR SCT006 BKN009 OVC011 05/03 Q0991=
200801161220 METAR ESMX 161220Z 17010KT 140V210 8000 BR SCT006 BKN008 OVC010 05/03 Q0991=
200801161150 METAR ESMX 161150Z 17010KT 8000 BR FEW005 SCT007 BKN009 04/03 Q0991=
200801161120 METAR ESMX 161120Z 17010KT 130V190 7000 -DZ BR OVC006 04/03 Q0991=
200801161050 METAR ESMX 161050Z 16010KT 140V200 8000 -DZ BR FEW007 SCT009 BKN013 04/03 Q0991 RERA=
200801161020 METAR ESMX 161020Z 17011KT 7000 BR FEW008 SCT011 BKN016 04/03 Q0991 REDZ=
200801160950 METAR ESMX 160950Z 16011KT 120V190 7000 -DZ BR FEW008 SCT011 BKN015 04/03 Q0991 RERA=
200801160920 METAR ESMX 160920Z 16009KT 120V220 7000 BR FEW007 SCT009 BKN010 04/03 Q0991=
200801160850 METAR ESMX 160850Z 16011KT 8000 BR FEW005 SCT007 BKN009 04/03 Q0991 REDZ RERA=
200801160820 METAR ESMX 160820Z 17010KT 4500 DZ BR FEW007 SCT009 OVC011 04/03 Q0991 RERA=
200801160750 METAR ESMX 160750Z 17010KT 130V210 8000 BR FEW005 SCT007 BKN010 04/03 Q0991 RERA=
200801160720 METAR ESMX 160720Z 16010KT 120V200 7000 BR FEW004 BKN006 OVC008 04/03 Q0991=
200801160650 METAR ESMX 160650Z 17009KT 4000 DZ OVC005 04/03 Q0990 RERA=
200801160620 METAR ESMX 160620Z 16009KT 130V200 5000 -RA FEW004 OVC007 04/03 Q0990=
200801160550 METAR ESMX 160550Z 17009KT 130V200 5000 -RA FEW005 BKN007 OVC009 03/03 Q0990=
200801160520 METAR ESMX 160520Z 16010KT 5000 -RA FEW006 SCT010 BKN012 03/03 Q0990=
200801160450 METAR ESMX 160450Z 16010KT 120V200 5000 -RA FEW008 SCT010 BKN015 04/03 Q0990=
200801160420 METAR ESMX 160420Z AUTO 17010KT 140V200 6000NDV -RA FEW010/// OVC014/// 04/03 Q0990 REDZ=
200801160350 METAR ESMX 160350Z AUTO 16010KT 130V200 7000NDV DZ FEW013/// BKN017/// 04/02 Q0990=
200801160320 METAR ESMX 160320Z AUTO 17011KT 140V210 9000NDV DZ FEW015/// SCT018/// BKN021/// 04/02 Q0990 RERA=
200801160250 METAR ESMX 160250Z AUTO 16011KT 120V200 9999NDV FEW012/// OVC015/// 04/02 Q0991=
200801160220 METAR ESMX 160220Z AUTO 17010KT 140V200 9999NDV BR FEW009/// SCT012/// OVC015/// 04/03 Q0991=
200801160150 METAR ESMX 160150Z AUTO 17012KT 140V200 7000NDV BR FEW008/// SCT009/// BKN011/// 04/03 Q0991 RERA REDZ=
200801160020 METAR ESMX 160020Z 17012KT 130V210 8000 -RA OVC006 04/03 Q0992 REDZ=
200801152350 METAR ESMX 152350Z 17011KT 140V210 8000 BR FEW006 BKN008 OVC012 04/03 Q0992 REDZ REUP=
200801152320 METAR ESMX 152320Z 17011KT 6000 -DZ FEW009 OVC010 04/03 Q0992=
200801152250 METAR ESMX 152250Z 17012KT 140V200 7000 DZ OVC011 04/03 Q0992 RERA=
200801152220 METAR ESMX 152220Z 18012KT 140V210 7000 -RA OVC012 05/03 Q0993 REDZ=
200801152150 METAR ESMX 152150Z 17012KT 9000 BR BKN011 OVC015 05/03 Q0993 REDZ=
200801152120 METAR ESMX 152120Z 17013KT 8000 -DZ OVC010 05/03 Q0993 RERA=
200801152020 METAR ESMX 152020Z 16011KT 140V200 7000 BR OVC008 04/03 Q0994 RERA REUP=
200801151950 METAR ESMX 151950Z 16009KT 130V190 6000 -DZ OVC007 04/03 Q0995=
200801151920 METAR ESMX 151920Z 16009KT 120V200 6000 -DZ OVC007 04/03 Q0995 RERA=
200801151850 METAR ESMX 151850Z 16011KT 120V200 9000 BR OVC007 04/03 Q0996=
200801151820 METAR ESMX 151820Z 16010KT 130V200 8000 BR OVC005 04/03 Q0996=
200801151750 METAR ESMX 151750Z 17011KT 6000 BR OVC005 04/03 Q0997=
200801151720 METAR ESMX 151720Z 16010KT 140V200 6000 BR OVC005 04/03 Q0997=
200801151650 METAR ESMX 151650Z 17010KT 140V200 6000 BR OVC005 04/03 Q0997=
200801151620 METAR ESMX 151620Z 16009KT 6000 BR OVC005 04/03 Q0997=
200801151550 METAR ESMX 151550Z 16009KT 7000 BR OVC006 04/03 Q0998=
200801151520 METAR ESMX 151520Z 16008KT 7000 BR OVC006 04/03 Q0998=
200801151450 METAR ESMX 151450Z 16008KT 130V200 8000 -DZ BR OVC007 04/03 Q0998=
200801151420 METAR ESMX 151420Z 16008KT 120V200 7000 -DZ BR OVC007 04/03 Q0998=
200801151350 METAR ESMX 151350Z 17009KT 140V220 9000 BR OVC008 04/03 Q0999=
200801151320 METAR ESMX 151320Z 17008KT 120V200 9999 OVC009 05/03 Q0999=
200801151250 METAR ESMX 151250Z 17009KT 140V210 9999 OVC010 05/03 Q0999=
200801151220 METAR ESMX 151220Z 19011KT 9999 OVC009 05/03 Q1000=
200801151150 METAR ESMX 151150Z 19012KT 9999 BR BKN009 05/03 Q1000=
200801151120 METAR ESMX 151120Z 18012KT 9000 BR BKN007 05/03 Q1000=
200801151050 METAR ESMX 151050Z 18010KT 130V230 8000 BR BKN007 04/03 Q1000=
200801151020 METAR ESMX 151020Z 18010KT 8000 BR BKN007 04/03 Q1001=
200801150950 METAR ESMX 150950Z 17008KT 140V200 6000 BR BKN006 04/03 Q1001=
200801150920 METAR ESMX 150920Z 17008KT 140V200 6000 BR BKN005 04/03 Q1001=
200801150850 METAR ESMX 150850Z 17008KT 5000 BR BKN005 03/03 Q1001=
200801150820 METAR ESMX 150820Z 17007KT 140V200 4500 BR OVC005 03/03 Q1001=
200801150750 METAR ESMX 150750Z 17009KT 140V200 4700 BR OVC005 03/03 Q1001=
200801150720 METAR ESMX 150720Z 18008KT 4000 BR BKN005 03/02 Q1001=
200801150650 METAR ESMX 150650Z 17008KT 4000 BR BKN005 OVC008 03/02 Q1001 REDZ RERA=
200801150620 METAR ESMX 150620Z 17008KT 4000 -RA OVC005 03/02 Q1001=
200801150550 METAR ESMX 150550Z 17007KT 140V200 3500 -RA BKN005 03/02 Q1001=
200801150520 METAR ESMX 150520Z 16007KT 120V200 5000 BR OVC006 03/02 Q1001 RERA REDZ=
200801150450 METAR ESMX 150450Z 17009KT 7000 BR OVC007 03/02 Q1001=
200801150420 METAR ESMX 150420Z AUTO 17008KT 140V200 6000NDV BR OVC006/// 03/02 Q1001=
200801150350 METAR ESMX 150350Z AUTO 17007KT 140V200 6000NDV BR OVC005/// 03/02 Q1002=
200801150320 METAR ESMX 150320Z AUTO 16006KT 130V210 5000NDV BR BKN006/// OVC008/// 03/02 Q1002=
200801150250 METAR ESMX 150250Z AUTO 17007KT 5000NDV BR OVC006/// 03/02 Q1002=
200801150220 METAR ESMX 150220Z AUTO 17008KT 140V200 5000NDV BR OVC005/// 02/02 Q1003=
200801150150 METAR ESMX 150150Z AUTO 16007KT 110V200 5000NDV BR OVC005/// 02/01 Q1003=
200801150120 METAR ESMX 150120Z AUTO 16006KT 130V200 4700NDV BR OVC005/// 02/01 Q1003=
200801150050 METAR ESMX 150050Z 17007KT 140V200 4600 BR FEW005 SCT007 BKN010 02/01 Q1003=
200801150020 METAR ESMX 150020Z 17007KT 140V200 4500 BR FEW005 SCT007 BKN009 02/01 Q1003=
200801142320 METAR ESMX 142320Z 16005KT 130V190 4400 BR FEW006 SCT007 BKN008 02/01 Q1004=
200801142250 METAR ESMX 142250Z 16006KT 4500 BR FEW006 SCT009 BKN020 02/01 Q1004=
200801142220 METAR ESMX 142220Z 17006KT 5000 BR FEW006 SCT007 BKN020 02/01 Q1004=
200801142150 METAR ESMX 142150Z 16007KT 5000 BR FEW011 OVC025 02/01 Q1004=
200801142120 METAR ESMX 142120Z 17007KT 5000 BR FEW007 SCT022 OVC026 02/01 Q1005=
200801142050 METAR ESMX 142050Z 16007KT 140V210 5000 BR BKN007 OVC030 02/01 Q1005=
200801142020 METAR ESMX 142020Z 17007KT 5000 BR BKN007 OVC011 02/01 Q1005=
200801141950 METAR ESMX 141950Z 17008KT 5000 BR BKN008 BKN012 02/01 Q1005=
200801141920 METAR ESMX 141920Z 18007KT 7000 BR BKN009 02/00 Q1005=
200801141850 METAR ESMX 141850Z 18007KT 7000 BR OVC009 02/00 Q1005=
200801141820 METAR ESMX 141820Z 18009KT 160V220 7000 BR BKN009 02/00 Q1005=
200801141750 METAR ESMX 141750Z 18010KT 7000 BR BKN010 02/00 Q1005=
200801141720 METAR ESMX 141720Z 18011KT 7000 BR BKN011 02/00 Q1005=
200801141650 METAR ESMX 141650Z 18010KT 6000 BR BKN010 03/01 Q1005=
200801141620 METAR ESMX 141620Z 19009KT 5000 BR FEW008 SCT009 OVC011 03/01 Q1005=
200801141550 METAR ESMX 141550Z 18011KT 5000 BR BKN007 03/01 Q1005=
200801141520 METAR ESMX 141520Z 18011KT 140V210 5000 BR BKN007 03/02 Q1005=
200801141450 METAR ESMX 141450Z 17011KT 140V200 5000 BR BKN007 03/02 Q1005=
200801141420 METAR ESMX 141420Z 17011KT 140V200 6000 BR BKN007 04/02 Q1005=
200801141350 METAR ESMX 141350Z 16009KT 140V210 6000 BR BKN007 04/02 Q1005=
200801141320 METAR ESMX 141320Z 17010KT 130V210 6000 BR BKN007 04/02 Q1005=
200801141250 METAR ESMX 141250Z 17013KT 140V200 7000 BR BKN007 04/02 Q1005=
200801141220 METAR ESMX 141220Z 16011KT 120V190 7000 BR OVC006 04/02 Q1005=
200801141150 METAR ESMX 141150Z 16009KT 120V190 7000 BR OVC005 03/02 Q1006=
200801141120 METAR ESMX 141120Z 16007KT 130V200 7000 BR OVC005 03/02 Q1007=
200801141050 METAR ESMX 141050Z 15008KT 100V180 7000 BR OVC006 03/02 Q1008=
200801141020 METAR ESMX 141020Z 16009KT 110V210 8000 BR OVC006 03/01 Q1008=
200801140950 METAR ESMX 140950Z 14007KT 100V190 7000 BR BKN006 02/01 Q1009=
200801140920 METAR ESMX 140920Z 14007KT 100V200 7000 BR BKN005 02/01 Q1009=
200801140850 METAR ESMX 140850Z 15007KT 120V190 6000 BR BKN004 02/01 Q1010=
200801140820 METAR ESMX 140820Z 15007KT 110V190 5000 BR BKN004 02/01 Q1010=
200801140750 METAR ESMX 140750Z 15007KT 110V170 4000 BR OVC004 02/01 Q1011=
200801140720 METAR ESMX 140720Z 16007KT 140V200 4000 BR BKN003 OVC005 01/01 Q1011=
200801140650 METAR ESMX 140650Z 17007KT 3400 BR BKN003 BKN006 01/00 Q1011=
200801140620 METAR ESMX 140620Z 16008KT 4200 BR FEW003 BKN005 01/00 Q1012=
200801140550 METAR ESMX 140550Z 16007KT 140V200 6000 BR FEW005 00/M00 Q1012=
200801140520 METAR ESMX 140520Z 17005KT 7000 BR FEW005 00/M00 Q1012=
200801140450 METAR ESMX 140450Z 16005KT 7000 BR FEW005 00/M00 Q1012=
200801140420 METAR ESMX 140420Z AUTO 16004KT 120V200 7000NDV BR NCD 00/M00 Q1012=
200801140350 METAR ESMX 140350Z AUTO 16005KT 140V200 9000NDV NCD 00/M00 Q1013=
200801140320 METAR ESMX 140320Z AUTO 16005KT 9999NDV NCD 01/M00 Q1013=
200801140250 METAR ESMX 140250Z AUTO 16006KT 9999NDV NCD 01/M00 Q1013=
200801140220 METAR ESMX 140220Z AUTO 17007KT 9999NDV SCT041/// 01/M00 Q1013=
200801140150 METAR ESMX 140150Z 18009KT 9999 FEW020 OVC040 02/00 Q1013=
200801140120 METAR ESMX 140120Z 18010KT 9999 SCT020 OVC038 03/01 Q1013=
200801140050 METAR ESMX 140050Z 18009KT 150V220 9999 FEW016 OVC035 03/01 Q1013=
200801140020 METAR ESMX 140020Z 19007KT 160V220 9999 OVC016 04/02 Q1013=
200801132350 METAR ESMX 132350Z 18005KT 9999 OVC015 03/02 Q1014=
200801132320 METAR ESMX 132320Z 19008KT 9999 FEW007 OVC012 03/02 Q1014=
200801132250 METAR ESMX 132250Z 19007KT 3700 BR FEW005 SCT007 BKN009 03/02 Q1014=
200801132220 METAR ESMX 132220Z 20009KT 4000 BR FEW007 OVC009 03/02 Q1014 REDZ=
200801132150 METAR ESMX 132150Z 20011KT 9999 FEW010 SCT014 OVC020 03/02 Q1014=
200801132120 METAR ESMX 132120Z 19011KT 9999 OVC011 03/02 Q1014=
200801132050 METAR ESMX 132050Z 19011KT 150V210 9999 OVC010 03/02 Q1014=
200801132020 METAR ESMX 132020Z 20011KT 9999 FEW009 OVC011 03/02 Q1014=
200801131950 METAR ESMX 131950Z 19011KT 9999 OVC008 03/02 Q1014 RERA=
200801131920 METAR ESMX 131920Z 19011KT 9000 BR OVC008 03/02 Q1013 REDZ=
200801131850 METAR ESMX 131850Z 18010KT 150V210 9000 DZ OVC007 03/02 Q1013 RERA=
200801131820 METAR ESMX 131820Z 18009KT 160V230 9999 OVC007 03/02 Q1014=
200801131750 METAR ESMX 131750Z 18009KT 150V220 9999 OVC008 03/01 Q1014=
200801131720 METAR ESMX 131720Z 17010KT 120V190 9999 OVC009 03/01 Q1014=
200801131650 METAR ESMX 131650Z 18008KT 9999 OVC010 03/01 Q1014=
200801131620 METAR ESMX 131620Z 18009KT 130V210 9999 BKN011 03/01 Q1014=
200801131550 METAR ESMX 131550Z 19008KT 150V220 9999 BKN010 BKN070 03/01 Q1014=
200801131520 METAR ESMX 131520Z 18005KT 9999 SCT014 BKN018 03/01 Q1014=
200801131450 METAR ESMX 131450Z 20007KT 9999 FEW016 OVC019 03/01 Q1013=
200801131420 METAR ESMX 131420Z 19007KT 9999 FEW015 BKN021 BKN027 03/02 Q1013=
200801131350 METAR ESMX 131350Z 20007KT 9999 SCT023 BKN090 03/01 Q1013=
200801131320 METAR ESMX 131320Z 22008KT 190V250 9999 FEW009 SCT012 BKN022 04/02 Q1013=
200801131250 METAR ESMX 131250Z 21010KT 9999 SCT009 BKN013 04/03 Q1013 RERA=
200801131220 METAR ESMX 131220Z 21009KT 9999 -RA BKN010 04/03 Q1013 REDZ=
200801131150 METAR ESMX 131150Z 21007KT 9999 SCT010 BKN015 04/02 Q1013 RERA=
200801131120 METAR ESMX 131120Z AUTO 23006KT 9999NDV BKN013/// OVC018/// 04/02 Q1013=
200801131050 METAR ESMX 131050Z AUTO 24008KT 200V280 9999NDV FEW011/// BKN014/// OVC018/// 04/02 Q1013=
200801131020 METAR ESMX 131020Z AUTO 23009KT 200V260 9999NDV OVC011/// 04/02 Q1012=
200801130950 METAR ESMX 130950Z AUTO 25009KT 9999NDV FEW013/// BKN015/// 03/01 Q1012=
200801130920 METAR ESMX 130920Z AUTO 25008KT 210V280 9999NDV FEW013/// BKN016/// 03/01 Q1012=
200801130850 METAR ESMX 130850Z AUTO 23006KT 9999NDV FEW016/// SCT019/// 03/01 Q1011=
200801130820 METAR ESMX 130820Z AUTO 25006KT 220V280 9999NDV FEW019/// 02/00 Q1010=
200801130750 METAR ESMX 130750Z AUTO 26009KT 9999NDV FEW018/// BKN020/// 03/00 Q1010=
200801130720 METAR ESMX 130720Z AUTO 26008KT 9999NDV BKN019/// 03/M00 Q1009=
200801130650 METAR ESMX 130650Z AUTO 26009KT 210V290 9999NDV BKN020/// BKN031/// 03/M00 Q1009=
200801130620 METAR ESMX 130620Z AUTO 26010KT 9999NDV BKN020/// 03/M00 Q1008=
200801130550 METAR ESMX 130550Z AUTO 26011KT 220V290 9999NDV FEW019/// BKN022/// 03/00 Q1007=
200801130520 METAR ESMX 130520Z AUTO 26011KT 9999NDV BKN019/// 03/00 Q1007=
200801130450 METAR ESMX 130450Z AUTO 26011KT 9999NDV FEW018/// OVC021/// 03/01 Q1006=
200801130420 METAR ESMX 130420Z AUTO 25010KT 210V290 9999NDV FEW016/// OVC020/// 03/01 Q1006=
200801130350 METAR ESMX 130350Z AUTO 25009KT 220V290 9999NDV FEW017/// OVC020/// 03/01 Q1005=
200801130320 METAR ESMX 130320Z AUTO 26009KT 200V300 9999NDV FEW015/// SCT020/// OVC023/// 03/01 Q1005=
200801130250 METAR ESMX 130250Z AUTO 26010G20KT 230V290 9999NDV FEW012/// SCT018/// BKN020/// 03/01 Q1004=
200801130220 METAR ESMX 130220Z AUTO 27012G23KT 230V300 9999NDV FEW016/// OVC019/// 03/01 Q1003=
200801130150 METAR ESMX 130150Z AUTO 27014KT 230V310 9999NDV FEW010/// BKN015/// OVC020/// 03/01 Q1003=
200801130120 METAR ESMX 130120Z AUTO 26015KT 210V290 9999NDV FEW005/// SCT007/// BKN008/// 03/02 Q1002=
200801130050 METAR ESMX 130050Z AUTO 24011KT 200V270 4500NDV DZ BKN005/// OVC009/// 04/04 Q1000 RERA=
200801130020 METAR ESMX 130020Z AUTO 23010KT 200V270 9999NDV SCT006/// BKN008/// OVC009/// 04/04 Q0999 REDZ=
200801122350 METAR ESMX 122350Z AUTO 23009KT 200V260 8000NDV BKN005/// OVC008/// 04/04 Q0999=
200801122320 METAR ESMX 122320Z AUTO 23010KT 6000NDV BKN005/// OVC008/// 04/03 Q0999 REDZ=
200801122250 METAR ESMX 122250Z AUTO 22009KT 9000NDV FEW007/// OVC009/// 04/03 Q0998=
200801122220 METAR ESMX 122220Z AUTO 22010KT 5000NDV BR SCT006/// BKN009/// OVC012/// 04/03 Q0998 RERA REDZ=
200801122150 METAR ESMX 122150Z AUTO 21010KT 9999NDV BR FEW006/// BKN010/// OVC013/// 04/03 Q0997 REDZ REUP=
200801122120 METAR ESMX 122120Z AUTO 19009KT 6000NDV DZ FEW008/// SCT012/// BKN015/// 04/03 Q0997 RERA=
200801122050 METAR ESMX 122050Z AUTO 17009KT 140V200 7000NDV -DZ FEW009/// SCT012/// BKN014/// 04/03 Q0997=
200801122020 METAR ESMX 122020Z AUTO 17008KT 130V200 6000NDV -RA FEW013/// SCT017/// BKN019/// 04/03 Q0997 REDZ=
200801121950 METAR ESMX 121950Z AUTO 16007KT 140V220 9999NDV FEW016/// SCT026/// BKN036/// 04/02 Q0997 RERA REDZ=
200801121920 METAR ESMX 121920Z AUTO 17007KT 9999NDV FEW015/// OVC038/// 04/02 Q0997=
200801121850 METAR ESMX 121850Z AUTO 18007KT 9999NDV FEW020/// OVC026/// 04/02 Q0997=
200801121820 METAR ESMX 121820Z AUTO 18009KT 9999NDV FEW026/// OVC034/// 04/02 Q0997=
200801121750 METAR ESMX 121750Z AUTO 18008KT 9999NDV FEW020/// SCT061/// 04/02 Q0997=
200801121720 METAR ESMX 121720Z AUTO 18008KT 150V210 9999NDV FEW024/// OVC054/// 04/02 Q0997=
200801121650 METAR ESMX 121650Z AUTO 17007KT 140V210 9000NDV BR FEW014/// OVC053/// 04/02 Q0997=
200801121620 METAR ESMX 121620Z AUTO 18008KT 9000NDV BR FEW028/// OVC053/// 04/02 Q0997=
200801121550 METAR ESMX 121550Z AUTO 17008KT 140V200 9000NDV BR FEW033/// OVC052/// 04/02 Q0997=
200801121520 METAR ESMX 121520Z AUTO 17008KT 9000NDV BR FEW010/// SCT045/// OVC050/// 04/02 Q0997=
200801121450 METAR ESMX 121450Z AUTO 18009KT 9000NDV BR FEW039/// SCT044/// BKN100/// 04/02 Q0997=
200801121420 METAR ESMX 121420Z AUTO 18008KT 9000NDV BR FEW009/// OVC034/// 04/02 Q0997=
200801121350 METAR ESMX 121350Z AUTO 17009KT 140V210 9000NDV BR FEW009/// BKN084/// 04/02 Q0996=
200801121320 METAR ESMX 121320Z AUTO 16008KT 120V200 8000NDV BR BKN081/// 04/02 Q0996=
200801121250 METAR ESMX 121250Z AUTO 16008KT 140V200 8000NDV BR FEW013/// BKN088/// 04/02 Q0996=
200801121220 METAR ESMX 121220Z AUTO 17008KT 140V200 8000NDV BR FEW009/// BKN083/// 04/02 Q0997=
200801121150 METAR ESMX 121150Z AUTO 18010KT 140V200 9000NDV BR FEW009/// SCT086/// 04/03 Q0997=
200801121120 METAR ESMX 121120Z AUTO 18009KT 9000NDV BR FEW009/// 04/03 Q0997=
200801121050 METAR ESMX 121050Z AUTO 16007KT 120V190 8000NDV BR NCD 04/03 Q0997=
200801121020 METAR ESMX 121020Z AUTO 16006KT 120V190 8000NDV BR FEW100/// 04/02 Q0997=
200801120950 METAR ESMX 120950Z AUTO 17007KT 7000NDV BR FEW085/// BKN100/// 04/03 Q0998=
200801120920 METAR ESMX 120920Z AUTO 16008KT 7000NDV BR FEW006/// SCT085/// BKN100/// 04/03 Q0998=
200801120850 METAR ESMX 120850Z AUTO 16009KT 120V200 6000NDV BR BKN005/// 03/03 Q0997=
200801120820 METAR ESMX 120820Z AUTO 16008KT 110V190 6000NDV BR FEW006/// SCT110/// 03/02 Q0997=
200801120750 METAR ESMX 120750Z AUTO 15006KT 110V190 5000NDV BR FEW005/// SCT100/// 03/03 Q0997=
200801120720 METAR ESMX 120720Z AUTO 15005KT 100V170 6000NDV BR BKN004/// BKN093/// 03/03 Q0997=
200801120650 METAR ESMX 120650Z AUTO 17008KT 130V200 6000NDV BR FEW003/// OVC005/// 04/03 Q0998=
200801120620 METAR ESMX 120620Z AUTO 15007KT 4300NDV BR OVC003/// 04/03 Q0997=
200801120550 METAR ESMX 120550Z AUTO 15006KT 3900NDV BR OVC002/// 04/03 Q0998=
200801120520 METAR ESMX 120520Z AUTO 15006KT 3100NDV BR OVC002/// 04/04 Q0998=
200801120450 METAR ESMX 120450Z AUTO 16007KT 120V190 3000NDV BR OVC001/// 04/04 Q0998=
200801120420 METAR ESMX 120420Z AUTO 15007KT 2600NDV BR OVC001/// 04/04 Q0998=
200801120350 METAR ESMX 120350Z AUTO 15006KT 110V170 2400NDV BR OVC001/// 04/04 Q0999=
200801120320 METAR ESMX 120320Z AUTO 16008KT 120V190 2400NDV BR OVC001/// 04/04 Q0999=
200801120250 METAR ESMX 120250Z AUTO 17007KT 120V200 2600NDV BR OVC001/// 05/04 Q0999=
200801120220 METAR ESMX 120220Z AUTO 18009KT 3700NDV BR OVC002/// 05/05 Q1000 REDZ=
200801120150 METAR ESMX 120150Z AUTO 19005KT 2800NDV UP OVC001/// 05/05 Q0999=
200801120120 METAR ESMX 120120Z AUTO 15006KT 120V190 2900NDV BR OVC001/// 05/05 Q0999=
200801120050 METAR ESMX 120050Z AUTO 15006KT 2500NDV -DZ OVC001/// 05/05 Q0999 RERA=
200801120020 METAR ESMX 120020Z AUTO 17008KT 2700NDV DZ OVC001/// 05/05 Q1000 RERA=
200801112350 METAR ESMX 112350Z AUTO 16007KT 130V200 3200NDV BR OVC001/// 05/05 Q1000 REDZ=
200801112320 METAR ESMX 112320Z AUTO 16006KT 5000NDV BR OVC001/// 05/05 Q1000 REDZ RERA=
200801112250 METAR ESMX 112250Z AUTO 16006KT 130V200 4500NDV DZ OVC001/// 05/05 Q1001 RERA=
200801112220 METAR ESMX 112220Z AUTO 16005KT 2200NDV -RA OVC001/// 05/05 Q1001 REDZ=
200801112150 METAR ESMX 112150Z AUTO 15005KT 120V190 0650NDV R01/P2000N R19/P2000D DZ VV001 05/05 Q1001 RERA=
200801112120 METAR ESMX 112120Z AUTO 14005KT 110V170 0400NDV R01/1300N R19/1800U DZ VV001 05/05 Q1001 RERA=
200801112050 METAR ESMX 112050Z AUTO 14004KT 100V170 0250NDV R01/0900N R19/1200N FG VV000 05/04 Q1001=
200801112020 METAR ESMX 112020Z AUTO 15004KT 0250NDV R01/0900N R19/1200U FG VV000 05/04 Q1001=
200801111950 METAR ESMX 111950Z AUTO 13003KT 0350NDV R01/1000V1500U R19/0900V1600U FG VV000 04/04 Q1001 RERA REDZ=
200801111920 METAR ESMX 111920Z 00000KT 0150 R01/0700N R19/0900N FG VV002 03/03 Q1001 REDZ=
200801111850 METAR ESMX 111850Z VRB01KT 0350 R01/0900V1500D R19/P2000U -DZ VV002 03/03 Q1001 RERA=
200801111820 METAR ESMX 111820Z 00000KT 0800 R01/P2000D R19/P2000D FG VV002 03/03 Q1001=
200801111750 METAR ESMX 111750Z 16003KT 3000 BR BKN002 03/03 Q1001=
200801111720 METAR ESMX 111720Z 16002KT 4000 BR SCT010 BKN097 02/01 Q1001=
200801111650 METAR ESMX 111650Z 19002KT 5000 BR FEW011 SCT100 01/01 Q1001=
200801111620 METAR ESMX 111620Z 15005KT 9999 FEW015 01/01 Q1001=
200801111550 METAR ESMX 111550Z VRB01KT 9999 SCT015 02/01 Q1001=
200801111520 METAR ESMX 111520Z 19004KT 9999 FEW015 03/02 Q1001=
200801111450 METAR ESMX 111450Z 22004KT 9999 BKN015 03/02 Q1001=
200801111420 METAR ESMX 111420Z VRB02KT 9999 SCT016 04/03 Q1001=
200801111350 METAR ESMX 111350Z 23004KT 9999 FEW013 SCT016 05/03 Q1001=
200801111320 METAR ESMX 111320Z 22006KT 9999 FEW012 SCT200 05/03 Q1001=
200801111250 METAR ESMX 111250Z 24008KT 9999 FEW016 SCT200 06/04 Q1001=
200801111220 METAR ESMX 111220Z 24006KT 190V270 9999 SCT018 SCT200 06/04 Q1001=
200801111150 METAR ESMX 111150Z 23010KT 9999 SCT018 BKN200 06/04 Q1001=
200801111120 METAR ESMX 111120Z 23010KT 9999 BKN018 06/04 Q1000=
200801111050 METAR ESMX 111050Z 24010KT 9999 FEW016 SCT020 06/04 Q1000=
200801111020 METAR ESMX 111020Z 23012KT 190V250 9999 FEW020 BKN027 06/04 Q1000=
200801110950 METAR ESMX 110950Z 23009KT 9999 FEW017 BKN028 06/04 Q1000=
200801110920 METAR ESMX 110920Z 22009KT 9999 FEW014 SCT028 BKN032 06/04 Q1000=
200801110850 METAR ESMX 110850Z 22010KT 9999 FEW012 SCT020 BKN029 06/04 Q1000=
200801110820 METAR ESMX 110820Z 22008KT 9999 FEW014 SCT017 BKN022 06/05 Q0999=
200801110750 METAR ESMX 110750Z 21009KT 9999 FEW013 SCT016 BKN023 06/05 Q0999=
200801110720 METAR ESMX 110720Z 21011KT 9999 FEW011 SCT017 BKN023 06/05 Q0998=
200801110650 METAR ESMX 110650Z 21012KT 9999 BR FEW007 SCT011 BKN014 06/05 Q0998=
200801110620 METAR ESMX 110620Z 21011KT 9000 BR FEW007 SCT009 BKN011 06/05 Q0998=
200801110550 METAR ESMX 110550Z 20012KT 6000 BR FEW006 SCT008 BKN009 06/05 Q0998=
200801110520 METAR ESMX 110520Z 20012KT 6000 BR BKN005 OVC008 06/05 Q0998=
200801110450 METAR ESMX 110450Z 20013KT 6000 BR OVC004 06/05 Q0998=
200801110420 METAR ESMX 110420Z AUTO 20015KT 6000NDV BR FEW004/// OVC005/// 06/05 Q0998=
200801110350 METAR ESMX 110350Z AUTO 20014KT 5000NDV BR OVC003/// 06/05 Q0998 REDZ=
200801110320 METAR ESMX 110320Z AUTO 20015KT 3100NDV -RA OVC003/// 05/05 Q0998 REUP REDZ=
200801110250 METAR ESMX 110250Z AUTO 20016KT 4100NDV BR OVC002/// 05/05 Q0998=
200801110220 METAR ESMX 110220Z AUTO 19014KT 3300NDV BR OVC003/// 05/04 Q0998=
200801110150 METAR ESMX 110150Z AUTO 19015KT 3900NDV BR BKN005/// OVC007/// 04/04 Q0998 REDZ=
200801110120 METAR ESMX 110120Z AUTO 19014KT 4200NDV -DZ SCT005/// BKN008/// OVC011/// 04/03 Q0999 RERA=
200801110050 METAR ESMX 110050Z 19016KT 4000 -RA BR FEW006 SCT008 OVC010 04/03 Q0999=
200801110020 METAR ESMX 110020Z 19015KT 9999 FEW008 SCT009 OVC010 04/03 Q0999=
200801102350 METAR ESMX 102350Z 18013KT 9999 FEW006 OVC010 04/03 Q0999=
200801102320 METAR ESMX 102320Z 19012KT 170V240 9000 BR OVC006 04/03 Q1000=
200801102250 METAR ESMX 102250Z 19013KT 9999 OVC005 04/03 Q1000 REDZ=
200801102220 METAR ESMX 102220Z 19014KT 7000 -DZ BR OVC005 04/03 Q1000=
200801102150 METAR ESMX 102150Z 20016KT 5000 -DZ BR SCT005 OVC007 04/03 Q1001 RERA=
200801102120 METAR ESMX 102120Z 20013KT 5000 DZ BR FEW005 OVC009 04/03 Q1001=
200801102050 METAR ESMX 102050Z 20014KT 2600 DZ BR FEW006 OVC007 04/03 Q1001=
200801102020 METAR ESMX 102020Z 20012KT 9999 OVC006 04/03 Q1002=
200801101950 METAR ESMX 101950Z 20013KT 9000 BR OVC006 04/03 Q1002=
200801101920 METAR ESMX 101920Z 19014KT 7000 BR OVC005 04/03 Q1002=
200801101850 METAR ESMX 101850Z 20012KT 7000 -DZ BR OVC004 04/03 Q1002=
200801101820 METAR ESMX 101820Z 20013KT 5000 BR FEW004 OVC005 04/03 Q1002 RERA REDZ=
200801101750 METAR ESMX 101750Z 20014KT 5000 BR BKN005 OVC009 04/03 Q1002 RERA REDZ=
200801101720 METAR ESMX 101720Z 20012KT 9999 -RA FEW005 SCT007 OVC010 04/03 Q1003=
200801101650 METAR ESMX 101650Z 20012KT 8000 -RA OVC005 04/03 Q1003 REDZ=
200801101620 METAR ESMX 101620Z 20011KT 9999 DZ FEW005 BKN007 OVC010 04/03 Q1002=
200801101550 METAR ESMX 101550Z 20011KT 9999 DZ FEW005 SCT007 BKN010 04/03 Q1002=
200801101520 METAR ESMX 101520Z 20012KT 9999 DZ SCT006 BKN008 OVC010 03/03 Q1002 RERA=
200801101450 METAR ESMX 101450Z 20014KT 3200 -RA BKN005 OVC008 03/03 Q1002 REDZ=
200801101420 METAR ESMX 101420Z 19013KT 5000 DZ BKN005 OVC010 03/02 Q1002 RERA=
200801101350 METAR ESMX 101350Z 19014KT 6000 -DZ FEW006 BKN007 OVC010 03/02 Q1003 RERA=
200801101320 METAR ESMX 101320Z 19014KT 7000 -RA FEW006 SCT008 BKN010 03/02 Q1002 REDZ=
200801101250 METAR ESMX 101250Z 19015KT 9000 -RA FEW007 BKN008 OVC011 03/02 Q1003=
200801101220 METAR ESMX 101220Z 18016KT 6000 -RA BKN006 OVC009 03/02 Q1003=
200801101150 METAR ESMX 101150Z 18014KT 140V210 5000 -RA OVC007 03/02 Q1003=
200801101120 METAR ESMX 101120Z 17012KT 6000 -RA OVC005 02/02 Q1004=
200801101050 METAR ESMX 101050Z 17011KT 5000 -RA FEW005 BKN007 OVC010 03/02 Q1004=
200801101020 METAR ESMX 101020Z 17011KT 5000 -RA BKN006 OVC009 03/02 Q1005 REDZ=
200801100950 METAR ESMX 100950Z 18012KT 150V210 8000 BR OVC006 03/02 Q1005=
200801100920 METAR ESMX 100920Z 18009KT 9999 OVC007 03/02 Q1006=
200801100850 METAR ESMX 100850Z 19009KT 9999 BKN007 03/02 Q1006=
200801100820 METAR ESMX 100820Z 20011KT 9999 OVC008 02/01 Q1006=
200801100750 METAR ESMX 100750Z 19010KT 9999 OVC008 02/01 Q1006=
200801100720 METAR ESMX 100720Z 21009KT 160V230 9999 BKN007 OVC009 02/01 Q1006=
200801100650 METAR ESMX 100650Z 20009KT 9999 BKN006 OVC010 02/01 Q1006=
200801100620 METAR ESMX 100620Z 21010KT 9999 FEW006 BKN008 OVC010 02/01 Q1007=
200801100550 METAR ESMX 100550Z 21009KT 9999 OVC007 02/01 Q1006=
200801100520 METAR ESMX 100520Z 21010KT 180V240 9999 FEW008 BKN010 02/01 Q1006=
200801100450 METAR ESMX 100450Z 21009KT 180V250 9999 FEW008 BKN013 02/01 Q1006=
200801100420 METAR ESMX 100420Z AUTO 21008KT 9999NDV FEW008/// SCT010/// BKN012/// 02/01 Q1006=
200801100350 METAR ESMX 100350Z AUTO 21008KT 9999NDV BR FEW009/// BKN012/// OVC016/// 02/01 Q1006 REDZ=
200801100320 METAR ESMX 100320Z AUTO 21010KT 7000NDV DZ BKN010/// 02/01 Q1006 RERA=
200801100250 METAR ESMX 100250Z AUTO 22010KT 200V260 9999NDV BKN011/// OVC017/// 03/01 Q1006=
200801100220 METAR ESMX 100220Z AUTO 21012KT 9999NDV OVC011/// 03/01 Q1006=
200801100150 METAR ESMX 100150Z AUTO 21009KT 9999NDV FEW011/// BKN016/// OVC019/// 03/01 Q1006=
200801100120 METAR ESMX 100120Z AUTO 21008KT 9999NDV FEW014/// OVC021/// 03/01 Q1006=
200801100050 METAR ESMX 100050Z 19008KT 8000 BR FEW016 SCT025 BKN030 02/02 Q1006=
200801100020 METAR ESMX 100020Z 20007KT 7000 BR FEW008 SCT012 BKN032 02/02 Q1006=
200801092350 METAR ESMX 092350Z 20008KT 7000 BR FEW008 BKN010 BKN038 02/02 Q1006=
200801092320 METAR ESMX 092320Z 21007KT 9000 BR FEW009 BKN013 03/02 Q1006=
200801092250 METAR ESMX 092250Z 21008KT 8000 BR FEW011 SCT014 03/02 Q1005=
200801092220 METAR ESMX 092220Z 21009KT 180V240 6000 BR FEW005 BKN011 03/02 Q1005=
200801092150 METAR ESMX 092150Z 20010KT 3900 DZ BR SCT006 BKN008 03/02 Q1005=
200801092120 METAR ESMX 092120Z 20010KT 5000 BR SCT005 BKN007 03/02 Q1005=
200801092050 METAR ESMX 092050Z 19009KT 5000 BR OVC004 03/02 Q1005=
200801092020 METAR ESMX 092020Z 19009KT 4900 BR BKN003 OVC006 03/02 Q1005=
200801091950 METAR ESMX 091950Z 18007KT 4500 BR OVC002 03/02 Q1005=
200801091920 METAR ESMX 091920Z 19009KT 140V210 4600 BR OVC002 03/02 Q1005=
200801091850 METAR ESMX 091850Z 19009KT 4500 BR OVC002 02/02 Q1005=
200801091820 METAR ESMX 091820Z 18009KT 150V210 6000 BR OVC003 02/02 Q1005=
200801091750 METAR ESMX 091750Z 19010KT 9999 OVC004 02/02 Q1005=
200801091720 METAR ESMX 091720Z 19008KT 9999 BKN004 02/02 Q1005=
200801091650 METAR ESMX 091650Z 18008KT 9999 BKN004 BKN053 02/02 Q1005 RERA REDZ=
200801091620 METAR ESMX 091620Z 18007KT 140V200 8000 -RA BKN004 OVC007 02/02 Q1005 REDZ=
200801091550 METAR ESMX 091550Z 19010KT 4700 -RA BKN006 02/02 Q1005 REDZ=
200801091520 METAR ESMX 091520Z 18009KT 150V210 5000 -RA FEW006 OVC008 03/02 Q1005 REDZ=
200801091450 METAR ESMX 091450Z 17009KT 9999 DZ FEW008 OVC010 03/02 Q1005 RERA=
200801091420 METAR ESMX 091420Z 17010KT 140V200 9999 FEW009 SCT012 OVC015 03/02 Q1005=
200801091350 METAR ESMX 091350Z 18010KT 150V210 9999 BKN008 BKN014 03/02 Q1005=
200801091320 METAR ESMX 091320Z 18010KT 9999 FEW008 BKN010 BKN041 03/02 Q1005=
200801091250 METAR ESMX 091250Z 17011KT 140V210 9999 BKN007 OVC010 03/02 Q1006=
200801091220 METAR ESMX 091220Z 16010KT 120V200 9999 OVC006 03/02 Q1006=
200801091150 METAR ESMX 091150Z 17011KT 140V210 9999 BKN006 BKN009 03/02 Q1007=
200801091120 METAR ESMX 091120Z 16010KT 130V210 9999 FEW006 BKN008 03/02 Q1007=
200801091050 METAR ESMX 091050Z 17011KT 130V200 9999 BKN005 OVC009 03/02 Q1007=
200801091020 METAR ESMX 091020Z 17012KT 140V200 9999 BR OVC005 03/02 Q1008=
200801090950 METAR ESMX 090950Z 17009KT 9999 BR BKN005 OVC007 03/02 Q1008=
200801090920 METAR ESMX 090920Z 17011KT 140V200 9999 BR OVC004 03/03 Q1009=
200801090850 METAR ESMX 090850Z 18010KT 9000 BR OVC004 03/03 Q1009=
200801090820 METAR ESMX 090820Z 17008KT 5000 BR OVC002 03/03 Q1009 RERA REDZ=
200801090750 METAR ESMX 090750Z 17010KT 120V200 5000 BR OVC002 03/03 Q1010=
200801090720 METAR ESMX 090720Z 17010KT 140V200 4000 BR OVC002 03/03 Q1010=
200801090650 METAR ESMX 090650Z 16009KT 1800 BR OVC002 03/03 Q1010=
200801090620 METAR ESMX 090620Z 17009KT 1300 R01/P2000U R19/P2000N BR OVC002 03/03 Q1010=
200801090550 METAR ESMX 090550Z 16010KT 2200 BR OVC002 03/03 Q1010=
200801090520 METAR ESMX 090520Z 16007KT 120V200 1300 R01/P2000N R19/P2000N BR OVC002 03/03 Q1010=
200801090450 METAR ESMX 090450Z 16007KT 130V190 1200 R01/P2000N R19/P2000 BR OVC002 03/02 Q1011=
200801090420 METAR ESMX 090420Z AUTO 16006KT 1700NDV BR OVC001/// 03/02 Q1011=
200801090350 METAR ESMX 090350Z AUTO 16006KT 2700NDV BR OVC002/// 03/02 Q1011=
200801090320 METAR ESMX 090320Z AUTO 16005KT 6000NDV BR OVC003/// 03/02 Q1012=
200801090250 METAR ESMX 090250Z AUTO 16004KT 7000NDV BR FEW004/// BKN006/// OVC010/// 03/02 Q1012=
200801090220 METAR ESMX 090220Z AUTO 18003KT 8000NDV BR FEW006/// SCT008/// OVC010/// 03/02 Q1012=
200801090150 METAR ESMX 090150Z AUTO 19007KT 8000NDV BR FEW008/// SCT011/// BKN014/// 03/02 Q1012=
200801090120 METAR ESMX 090120Z AUTO 20007KT 7000NDV BR FEW004/// SCT007/// OVC019/// 03/02 Q1012=
200801090050 METAR ESMX 090050Z AUTO 20007KT 7000NDV BR FEW004/// BKN005/// OVC008/// 03/02 Q1012=
200801090020 METAR ESMX 090020Z 19005KT 8000 BR FEW004 BKN007 OVC009 03/02 Q1012=
200801082350 METAR ESMX 082350Z 22005KT 9999 FEW006 SCT008 BKN010 03/02 Q1012=
200801082320 METAR ESMX 082320Z 22005KT 9999 FEW005 SCT008 BKN033 02/01 Q1012=
200801082250 METAR ESMX 082250Z 23006KT 9000 BR FEW006 SCT008 BKN009 03/02 Q1012=
200801082220 METAR ESMX 082220Z 22004KT 9000 BR FEW012 SCT014 BKN016 03/02 Q1012=
200801082150 METAR ESMX 082150Z 23005KT 200V260 9999 FEW007 SCT009 OVC011 03/02 Q1012=
200801082120 METAR ESMX 082120Z 24005KT 9999 SCT008 OVC010 03/02 Q1011=
200801082050 METAR ESMX 082050Z 23006KT 200V260 9999 FEW007 SCT009 BKN010 03/02 Q1011 RERA=
200801082020 METAR ESMX 082020Z 24005KT 9999 FEW008 OVC009 03/02 Q1011=
200801081950 METAR ESMX 081950Z 24006KT 200V280 9999 FEW008 SCT011 BKN013 03/02 Q1011=
200801081920 METAR ESMX 081920Z 24005KT 210V280 9999 FEW007 BKN009 OVC012 03/02 Q1010=
200801081850 METAR ESMX 081850Z 23006KT 9999 FEW008 SCT010 OVC014 03/02 Q1010=
200801081820 METAR ESMX 081820Z 23007KT 9999 FEW008 SCT011 BKN015 03/02 Q1010=
200801081750 METAR ESMX 081750Z 24005KT 190V270 9000 FEW005 SCT010 BKN025 03/02 Q1010=
200801081720 METAR ESMX 081720Z 23007KT 200V260 9999 BR FEW005 SCT010 BKN015 03/02 Q1010 RERA REDZ=
200801081650 METAR ESMX 081650Z 24006KT 200V270 7000 BR FEW006 SCT009 BKN014 03/02 Q1009=
200801081620 METAR ESMX 081620Z 25007KT 220V280 9999 FEW005 BKN010 03/02 Q1009 REDZ=
200801081550 METAR ESMX 081550Z 25007KT 8000 DZ BKN004 OVC007 03/03 Q1008 RERA=
200801081520 METAR ESMX 081520Z 24005KT 210V280 4300 -DZ FEW005 BKN007 OVC010 03/02 Q1008 RERA=
200801081450 METAR ESMX 081450Z 26006KT 9999 FEW005 OVC010 03/02 Q1008 RERA REDZ=
200801081420 METAR ESMX 081420Z 26008KT 220V290 7000 -RA FEW004 OVC005 03/02 Q1008 REDZ=
200801081350 METAR ESMX 081350Z 26006KT 9000 BR FEW004 OVC005 03/02 Q1007 RERA REDZ=
200801081320 METAR ESMX 081320Z 27005KT 9999 FEW008 BKN010 OVC015 03/02 Q1007=
200801081250 METAR ESMX 081250Z 27008KT 230V300 9999 FEW006 SCT009 BKN010 03/02 Q1006=
200801081220 METAR ESMX 081220Z 27009KT 9999 FEW006 SCT008 BKN010 03/02 Q1006 REDZ=
200801081150 METAR ESMX 081150Z 26007KT 1700 DZ BR BKN002 OVC005 03/02 Q1006 RERA=
200801081120 METAR ESMX 081120Z 27008KT 230V290 9999 OVC002 02/02 Q1005=
200801081050 METAR ESMX 081050Z 27007KT 230V310 9999 OVC003 02/02 Q1005=
200801081020 METAR ESMX 081020Z 27009KT 9999 BKN003 OVC005 02/02 Q1004=
200801080950 METAR ESMX 080950Z 28008KT 9999 OVC004 02/01 Q1004=
200801080850 METAR ESMX 080850Z 25009KT 230V290 9999 BKN002 OVC005 03/02 Q1002=
200801080820 METAR ESMX 080820Z 25008KT 200V280 5000 BKN005 OVC007 03/02 Q1002 RERA REDZ=
200801080750 METAR ESMX 080750Z 22007KT 4300 -RA BKN004 OVC006 03/02 Q1001 REDZ=
200801080720 METAR ESMX 080720Z 20007KT 9999 BKN004 OVC007 03/02 Q1001 RERA=
200801080650 METAR ESMX 080650Z 19007KT 160V220 5000 -RA BKN004 03/02 Q1000 REDZ=
200801080620 METAR ESMX 080620Z 17006KT 120V190 7000 DZ BKN005 02/02 Q1000 RERA=
200801080550 METAR ESMX 080550Z 17006KT 140V200 4500 RA BKN005 OVC008 02/02 Q1000=
200801080520 METAR ESMX 080520Z 16008KT 4100 RA FEW004 BKN006 OVC009 02/02 Q1000=
200801080450 METAR ESMX 080450Z 15007KT 110V190 3800 -RA FEW004 BKN005 BKN008 02/02 Q1000=
200801080420 METAR ESMX 080420Z AUTO 15006KT 110V190 4900NDV -RA BKN002/// OVC006/// 03/02 Q1000 REDZ=
200801080350 METAR ESMX 080350Z AUTO 15006KT 110V170 7000NDV -RA OVC002/// 02/02 Q1000=
200801080320 METAR ESMX 080320Z AUTO 14005KT 100V190 4100NDV BR OVC003/// 02/02 Q1000=
200801080250 METAR ESMX 080250Z AUTO 14007KT 100V190 8000NDV BR OVC003/// 02/02 Q1000 REDZ=
200801080220 METAR ESMX 080220Z AUTO 14006KT 090V190 4400NDV -DZ BKN001/// OVC004/// 02/02 Q1000 RERA=
200801080150 METAR ESMX 080150Z AUTO 14006KT 100V200 1600NDV -RA OVC001/// 02/02 Q1000=
200801080120 METAR ESMX 080120Z AUTO 14005KT 090V200 1300NDV R01/P2000D R19/P2000N BR OVC001/// 02/02 Q1001=
200801080050 METAR ESMX 080050Z 13006KT 060V190 2500 BR OVC002 02/01 Q1001=
200801080020 METAR ESMX 080020Z 14007KT 080V180 5000 BR OVC002 02/01 Q1001 RERA=
200801072350 METAR ESMX 072350Z 14005KT 080V170 2200 BR OVC002 02/01 Q1001 RERA REDZ=
200801072320 METAR ESMX 072320Z 13006KT 070V190 1600 -RA OVC002 01/01 Q1001 REDZ=
200801072250 METAR ESMX 072250Z 14006KT 110V190 2100 BR OVC002 01/01 Q1002=
200801072220 METAR ESMX 072220Z 14005KT 080V190 1900 BR OVC002 01/01 Q1002=
200801072150 METAR ESMX 072150Z 13006KT 080V180 3400 BR OVC002 01/01 Q1002=
200801072120 METAR ESMX 072120Z 14006KT 100V190 6000 BR OVC002 01/01 Q1002 REDZ=
200801072050 METAR ESMX 072050Z 15008KT 120V190 9000 -DZ OVC003 01/00 Q1003 RERA=
200801072020 METAR ESMX 072020Z 15008KT 110V200 9999 OVC005 01/00 Q1003 REDZ=
200801071950 METAR ESMX 071950Z 15008KT 120V200 5000 DZ FEW005 BKN007 OVC010 01/00 Q1003 RERA=
200801071920 METAR ESMX 071920Z 14009KT 110V170 6000 -RA BKN005 OVC009 01/00 Q1003=
200801071850 METAR ESMX 071850Z 13006KT 060V160 7000 -RA BKN005 OVC007 01/01 Q1003=
200801071820 METAR ESMX 071820Z 13006KT 040V180 4500 RA OVC005 01/01 Q1004=
200801071750 METAR ESMX 071750Z 14007KT 110V190 4200 -RA FEW006 OVC007 01/01 Q1004=
200801071720 METAR ESMX 071720Z 14009KT 110V170 9999 BKN007 02/01 Q1004=
200801071650 METAR ESMX 071650Z 15007KT 110V180 9999 BKN008 OVC010 02/01 Q1004=
200801071620 METAR ESMX 071620Z 14007KT 080V200 8000 BR FEW006 SCT008 BKN009 02/02 Q1004=
200801071550 METAR ESMX 071550Z 14007KT 090V170 7000 BR SCT006 BKN008 OVC016 02/02 Q1005=
200801071520 METAR ESMX 071520Z 14005KT 090V190 7000 BR BKN005 OVC009 02/02 Q1005=
200801071450 METAR ESMX 071450Z 13005KT 080V190 6000 BR OVC004 02/02 Q1005=
200801071420 METAR ESMX 071420Z 15006KT 110V190 3000 BR OVC002 02/02 Q1006=
200801071350 METAR ESMX 071350Z 15007KT 120V190 3000 BR OVC002 02/02 Q1006=
200801071320 METAR ESMX 071320Z 13004KT 060V170 1400 R01/P2000D R19/P2000D BR VV002 02/02 Q1006=
200801071250 METAR ESMX 071250Z 14004KT 0600 R01/1200N R19/1500N FG VV002 02/02 Q1007=
200801071220 METAR ESMX 071220Z 14004KT 100V190 1200 R01/P2000D R19/P2000D BR OVC002 02/02 Q1007 REDZ RERA=
200801071150 METAR ESMX 071150Z 14003KT 100V190 0900 R01/1600N R19/P2000N DZ VV002 02/01 Q1007 RERA=
200801071120 METAR ESMX 071120Z 14005KT 080V190 0900 R01/1500N R19/1700N FG VV002 02/01 Q1007=
200801071050 METAR ESMX 071050Z 15005KT 110V200 0900 R01/1600D R19/P2000D FG VV002 02/01 Q1007=
200801071020 METAR ESMX 071020Z 15005KT 1100 R01/1700U R19/P2000N BR OVC002 01/01 Q1008=
200801070950 METAR ESMX 070950Z 15005KT 0600 R01/1100N R19/1400U FG VV002 01/01 Q1008=
200801070920 METAR ESMX 070920Z 13006KT 100V160 0600 R01/1100N R19/1300N FG VV002 01/01 Q1008=
200801070850 METAR ESMX 070850Z 15005KT 100V200 0600 R01/1200N R19/1400N FG VV002 01/01 Q1008=
200801070820 METAR ESMX 070820Z 14005KT 0700 R01/1400N R19/1600N FG VV002 01/01 Q1009=
200801070750 METAR ESMX 070750Z 15006KT 110V180 0750 R01/1700D R19/1900N FG VV002 01/01 Q1009=
200801070720 METAR ESMX 070720Z 14007KT 100V180 0900 R01/P2000D R19/P2000D FG VV002 01/01 Q1009=
200801070650 METAR ESMX 070650Z 15006KT 1500 -DZ OVC002 01/01 Q1009=
200801070620 METAR ESMX 070620Z 14005KT 3700 -DZ OVC002 00/00 Q1009 RERA=
200801070550 METAR ESMX 070550Z 15005KT 2800 -SNRA OVC002 00/00 Q1009=
200801070520 METAR ESMX 070520Z 14004KT 1800 SN OVC002 00/00 Q1009=
200801070450 METAR ESMX 070450Z 15004KT 1900 BR VV002 01/00 Q1010=
200801070420 METAR ESMX 070420Z 14005KT 1400 R01/P2000N R19/P2000N BR VV002 00/00 Q1010=
200801070350 METAR ESMX 070350Z AUTO 15004KT 110V180 0800NDV R01/P2000N R19/P2000N FG VV001 00/00 Q1010=
200801070320 METAR ESMX 070320Z AUTO 14004KT 100V170 0600NDV R01/1800N R19/P2000N FG VV001 00/00 Q1010=
200801070250 METAR ESMX 070250Z AUTO 13003KT 080V160 0600NDV R01/1900D R19/P2000N FG VV001 00/00 Q1010=
200801070220 METAR ESMX 070220Z AUTO 13004KT 0500NDV R01/1600N R19/P2000D FG VV001 00/00 Q1010=
200801070150 METAR ESMX 070150Z 17003KT 0400 R01/1300N R19/1600N FG VV002 00/00 Q1010 RERA REDZ=
200801070120 METAR ESMX 070120Z VRB02KT 0500 R01/1400N R19/1800N -RASN FG VV002 00/00 Q1010 REDZ=
200801070050 METAR ESMX 070050Z VRB02KT 0350 R01/1200N R19/1500D FG VV002 00/00 Q1010=
200801070020 METAR ESMX 070020Z 15003KT 0600 R01/1800N R19/P2000D FG VV002 00/00 Q1010=
200801062350 METAR ESMX 062350Z 15002KT 0750 R01/P2000N R19/P2000D FG VV002 00/00 Q1010=
200801062320 METAR ESMX 062320Z 23005KT 1800 BR VV002 00/00 Q1010=
200801062250 METAR ESMX 062250Z VRB02KT 1400 R01/P2000D R19/P2000D BR VV002 00/00 Q1010=
200801062220 METAR ESMX 062220Z 21004KT 1500 R01/P2000D R19/P2000U BR VV002 01/00 Q1010=
200801062150 METAR ESMX 062150Z 22006KT 2700 BR OVC002 01/01 Q1010=
200801062120 METAR ESMX 062120Z 22005KT 3200 BR OVC002 01/01 Q1010=
200801062050 METAR ESMX 062050Z 21003KT 2400 R01/P2000D R19/P2000D BR BKN002 OVC004 01/01 Q1010=
200801062020 METAR ESMX 062020Z 18001KT 0150 R01/0550N R19/0500V0800N FG VV002 01/01 Q1010=
200801061950 METAR ESMX 061950Z 21002KT 0100 R01/0450N R19/0400N FG VV000 01/01 Q1010=
200801061920 METAR ESMX 061920Z 16002KT 0100 R01/0450N R19/0450N FG VV002 01/01 Q1009=
200801061850 METAR ESMX 061850Z 16003KT 0100 R01/0550N R19/0500N FG VV002 01/01 Q1009=
200801061820 METAR ESMX 061820Z 14004KT 110V180 0150 R01/0550N R19/0700N FG VV002 01/01 Q1009=
200801061750 METAR ESMX 061750Z 15003KT 110V190 0150 R01/0600N R19/0700N FG VV002 01/01 Q1009=
200801061720 METAR ESMX 061720Z 14003KT 110V170 0100 R01/0500N R19/0600N FG VV002 01/01 Q1008=
200801061650 METAR ESMX 061650Z VRB02KT 0100 R01/0500N R19/0600N FG VV002 01/01 Q1008=
200801061620 METAR ESMX 061620Z 15003KT 0100 R01/0500N R19/0600N FG VV002 01/01 Q1008=
200801061550 METAR ESMX 061550Z 15003KT 0150 R01/0600N R19/0650N FG VV002 01/01 Q1008=
200801061520 METAR ESMX 061520Z 17003KT 0150 R01/0550N R19/0550 FG VV002 01/01 Q1008=
200801061450 METAR ESMX 061450Z 18003KT 0150 R01/0500N R19/0500N FG VV001 01/01 Q1008=
200801061420 METAR ESMX 061420Z 16004KT 0150 R01/0450N R19/0500N FG VV001 01/01 Q1007=
200801061350 METAR ESMX 061350Z 15005KT 0150 R01/0450N R19/0500N FG VV001 01/01 Q1007=
200801061320 METAR ESMX 061320Z 16005KT 0150 R01/0375N R19/0450N FG VV001 01/01 Q1006=
200801061250 METAR ESMX 061250Z 15005KT 0150 R01/0450N R19/0500N FG VV002 01/01 Q1006=
200801061220 METAR ESMX 061220Z 16005KT 0200 R01/0550N R19/0600 BR VV002 01/01 Q1006=
200801061150 METAR ESMX 061150Z 16005KT 0250 R01/0550N R19/0650N FB VV002 01/01 Q1006=
200801061120 METAR ESMX 061120Z AUTO 16006KT 130V200 0250NDV R01/0550N R19/0650N DZ VV001 01/01 Q1006=
200801061050 METAR ESMX 061050Z AUTO 16006KT 0250NDV R01/0600 R19/0600N -DZ VV000 01/01 Q1006=
200801061020 METAR ESMX 061020Z AUTO 16005KT 120V190 0250NDV R01/0550 R19/0650N -DZ VV000 01/01 Q1005=
200801060950 METAR ESMX 060950Z AUTO 16006KT 0250NDV R01/0550N R19/0650N DZ VV001 01/01 Q1005 RERA=
200801060920 METAR ESMX 060920Z AUTO 15004KT 120V200 0300NDV R01/0700N R19/0750 FG VV001 01/00 Q1005=
200801060850 METAR ESMX 060850Z AUTO 17005KT 130V200 0650NDV R01/1400D R19/1800D FG VV002 00/00 Q1005=
200801060820 METAR ESMX 060820Z AUTO 15005KT 110V190 2300NDV BR OVC002/// 00/00 Q1005 REDZ RERA=
200801060750 METAR ESMX 060750Z AUTO 15005KT 110V190 2800NDV -DZ OVC002/// 00/M00 Q1005 RERA RESN RESG=
200801060720 METAR ESMX 060720Z AUTO 16008KT 3400NDV BR OVC002/// 00/M00 Q1004 RESG RESN REUP=
200801060650 METAR ESMX 060650Z AUTO 15007KT 110V190 2400NDV -SN OVC002/// M00/M00 Q1004 RESG=
200801060620 METAR ESMX 060620Z AUTO 14006KT 100V190 3500NDV -SN OVC002/// M00/M01 Q1004 RESG=
200801060550 METAR ESMX 060550Z AUTO 15007KT 110V190 3100NDV SG OVC002/// M00/M01 Q1004 RESN=
200801060520 METAR ESMX 060520Z AUTO 15006KT 110V180 4400NDV -SN OVC003/// M01/M01 Q1004 RESG=
200801060450 METAR ESMX 060450Z AUTO 14005KT 080V170 5000NDV -SN OVC004/// M01/M01 Q1004=
200801060420 METAR ESMX 060420Z AUTO 13006KT 070V170 8000NDV BR OVC005/// M01/M02 Q1004=
200801060350 METAR ESMX 060350Z AUTO 14006KT 110V190 8000NDV BR OVC006/// M01/M02 Q1004=
200801060320 METAR ESMX 060320Z AUTO 14005KT 080V170 6000NDV -SN OVC006/// M02/M02 Q1004 RESG=
200801060250 METAR ESMX 060250Z AUTO 13005KT 080V190 7000NDV SG OVC007/// M02/M03 Q1004 RESN=
200801060220 METAR ESMX 060220Z AUTO 14005KT 080V200 4500NDV SG OVC007/// M02/M03 Q1005 RESN=
200801060150 METAR ESMX 060150Z AUTO 14006KT 090V190 4600NDV SG OVC007/// M02/M03 Q1005 RESN=
200801060120 METAR ESMX 060120Z AUTO 13006KT 080V170 6000NDV SG OVC007/// M02/M03 Q1005 RESN=
200801060050 METAR ESMX 060050Z AUTO 12005KT 060V180 5000NDV -SN FEW007/// SCT009/// OVC010/// M02/M03 Q1005 RESG=
200801060020 METAR ESMX 060020Z AUTO 13006KT 070V180 2100NDV -SN FEW008/// OVC010/// M02/M03 Q1006=
200801052350 METAR ESMX 052350Z AUTO 13007KT 080V180 2800NDV -SN FEW009/// BKN011/// M02/M04 Q1006=
200801052320 METAR ESMX 052320Z AUTO 13007KT 070V170 3200NDV -SN OVC010/// M02/M04 Q1006 RESG=
200801052250 METAR ESMX 052250Z AUTO 14007KT 080V200 5000NDV SG OVC010/// M02/M04 Q1007 RESN=
200801052220 METAR ESMX 052220Z AUTO 13008KT 070V170 4600NDV -SN OVC011/// M02/M04 Q1007 RESG=
200801052150 METAR ESMX 052150Z AUTO 14008KT 070V170 5000NDV SG OVC012/// M02/M04 Q1007 RESN=
200801052120 METAR ESMX 052120Z AUTO 13008KT 070V180 9000NDV BR OVC012/// M02/M05 Q1007 RESG RESN=
200801052050 METAR ESMX 052050Z AUTO 14011KT 080V170 6000NDV SG OVC010/// M02/M04 Q1008=
200801052020 METAR ESMX 052020Z AUTO 13009G19KT 050V210 8000NDV OVC010/// M02/M04 Q1008=
200801051950 METAR ESMX 051950Z AUTO 13009KT 050V220 9000NDV OVC010/// M02/M04 Q1008=
200801051920 METAR ESMX 051920Z AUTO 13010G21KT 070V200 9000NDV OVC010/// M03/M04 Q1009=
200801051850 METAR ESMX 051850Z AUTO 13010KT 080V170 9000NDV OVC009/// M03/M05 Q1009=
200801051820 METAR ESMX 051820Z AUTO 12010KT 080V170 9000NDV OVC009/// M03/M05 Q1009=
200801051750 METAR ESMX 051750Z AUTO 14008KT 080V200 9000NDV OVC009/// M03/M05 Q1010=
200801051720 METAR ESMX 051720Z AUTO 13010KT 090V200 9999NDV OVC009/// M03/M05 Q1010=
200801051650 METAR ESMX 051650Z AUTO 14007G17KT 080V210 9999NDV OVC009/// M03/M05 Q1011=
200801051620 METAR ESMX 051620Z AUTO 13009KT 070V180 9999NDV OVC008/// M03/M05 Q1011=
200801051550 METAR ESMX 051550Z AUTO 13010G22KT 080V180 9999NDV OVC008/// M03/M05 Q1011=
200801051520 METAR ESMX 051520Z AUTO 13010KT 080V180 9999NDV OVC008/// M03/M04 Q1012=
200801051450 METAR ESMX 051450Z AUTO 12008G19KT 050V170 9000NDV OVC007/// M03/M04 Q1012=
200801051420 METAR ESMX 051420Z AUTO 12009G20KT 070V190 9999NDV OVC007/// M03/M04 Q1012=
200801051350 METAR ESMX 051350Z AUTO 12010G20KT 060V170 9999NDV OVC008/// M03/M04 Q1012=
200801051320 METAR ESMX 051320Z AUTO 13010KT 060V160 9999NDV OVC008/// M03/M04 Q1013=
200801051250 METAR ESMX 051250Z AUTO 13011G21KT 090V170 9999NDV OVC008/// M03/M04 Q1013=
200801051220 METAR ESMX 051220Z AUTO 13010KT 080V200 9999NDV OVC009/// M03/M04 Q1014=
200801051150 METAR ESMX 051150Z AUTO 13011G22KT 070V170 9999NDV OVC009/// M02/M04 Q1014=
200801051120 METAR ESMX 051120Z AUTO 14008G18KT 070V190 9999NDV OVC009/// M02/M04 Q1015=
200801051050 METAR ESMX 051050Z AUTO 13010G23KT 080V180 9999NDV OVC009/// M02/M04 Q1015=
200801051020 METAR ESMX 051020Z AUTO 13009G24KT 070V180 9999NDV OVC009/// M02/M04 Q1015=
200801050950 METAR ESMX 050950Z AUTO 13010G21KT 060V200 9999NDV OVC009/// M02/M04 Q1016=
200801050920 METAR ESMX 050920Z AUTO 13010G20KT 060V190 9999NDV OVC009/// M02/M04 Q1016=
200801050850 METAR ESMX 050850Z AUTO 13010KT 080V170 9999NDV OVC009/// M02/M04 Q1016=
200801050820 METAR ESMX 050820Z AUTO 13011G22KT 090V190 9999NDV OVC010/// M02/M04 Q1017=
200801050750 METAR ESMX 050750Z AUTO 13012KT 070V160 9999NDV OVC010/// M02/M04 Q1017=
200801050720 METAR ESMX 050720Z AUTO 13010KT 050V200 9999NDV OVC010/// M02/M04 Q1017=
200801050650 METAR ESMX 050650Z AUTO 13010G20KT 070V190 9999NDV OVC011/// M02/M04 Q1018=
200801050620 METAR ESMX 050620Z AUTO 12010G22KT 060V170 9999NDV OVC011/// M02/M04 Q1017=
200801050550 METAR ESMX 050550Z AUTO VRB10KT 9999NDV OVC011/// M02/M04 Q1018=
200801050520 METAR ESMX 050520Z AUTO 13011KT 080V170 9999NDV OVC010/// M02/M05 Q1018=
200801050450 METAR ESMX 050450Z AUTO 13012G23KT 090V160 9999NDV OVC012/// M02/M05 Q1019=
200801050420 METAR ESMX 050420Z AUTO 13011G23KT 100V180 9999NDV OVC011/// M02/M05 Q1019=
200801050350 METAR ESMX 050350Z AUTO 13011G22KT 050V170 9999NDV OVC011/// M03/M05 Q1019=
200801050320 METAR ESMX 050320Z AUTO 13011G23KT 080V170 9999NDV OVC011/// M03/M05 Q1020=
200801050250 METAR ESMX 050250Z AUTO 11010KT 050V170 9999NDV OVC012/// M03/M05 Q1020=
200801050220 METAR ESMX 050220Z AUTO 12011G22KT 060V170 9999NDV OVC012/// M03/M05 Q1020=
200801050150 METAR ESMX 050150Z AUTO 12011KT 080V170 9999NDV OVC013/// M03/M05 Q1021=
200801050120 METAR ESMX 050120Z AUTO 12011KT 060V180 9999NDV OVC013/// M03/M05 Q1021=
200801050050 METAR ESMX 050050Z AUTO 12009G19KT 070V180 9999NDV OVC014/// M03/M06 Q1022=
200801050020 METAR ESMX 050020Z AUTO 12010G20KT 070V170 9999NDV OVC013/// M03/M06 Q1022=
200801042350 METAR ESMX 042350Z AUTO 11011KT 070V150 9999NDV OVC014/// M03/M06 Q1023=
200801042320 METAR ESMX 042320Z AUTO 12012G22KT 070V190 9999NDV OVC014/// M03/M06 Q1023=
200801042250 METAR ESMX 042250Z AUTO 12010G21KT 050V170 9999NDV OVC015/// M03/M06 Q1023=
200801042220 METAR ESMX 042220Z AUTO 12008KT 070V170 9999NDV OVC014/// M03/M05 Q1024=
200801042150 METAR ESMX 042150Z AUTO 12010KT 070V160 9999NDV OVC013/// M03/M05 Q1024=
200801042120 METAR ESMX 042120Z AUTO 11010KT 070V160 9999NDV OVC012/// M03/M05 Q1024=
200801042050 METAR ESMX 042050Z AUTO 12011KT 060V160 9999NDV OVC011/// M03/M05 Q1025=
200801042020 METAR ESMX 042020Z AUTO 12009G20KT 070V170 9999NDV OVC011/// M03/M05 Q1025=
200801041950 METAR ESMX 041950Z AUTO 11009KT 040V160 9999NDV OVC011/// M03/M05 Q1026=
200801041920 METAR ESMX 041920Z 11008G20KT 060V150 9999 OVC011 M04/M06 Q1026=
200801041850 METAR ESMX 041850Z 11010KT 9999 OVC013 M04/M06 Q1026=
200801041820 METAR ESMX 041820Z 09007KT 9999 BKN012 M04/M06 Q1027=
200801041750 METAR ESMX 041750Z 11007KT 060V150 9999 OVC010 M05/M06 Q1027=
200801041720 METAR ESMX 041720Z 10010KT 9999 -SN OVC010 M05/M06 Q1027=
200801041650 METAR ESMX 041650Z 11009KT 060V170 9999 -SN OVC010 M05/M07 Q1027=
200801041620 METAR ESMX 041620Z 11010G20KT 9999 -SN OVC013 M05/M07 Q1027=
200801041550 METAR ESMX 041550Z 11009G20KT 9999 -SN OVC016 M04/M07 Q1028=
200801041520 METAR ESMX 041520Z 11013G24KT 050V200 8000 -SN OVC019 M04/M08 Q1027=
200801041450 METAR ESMX 041450Z 11011KT 9999 -SN OVC018 M04/M07 Q1028=
200801041420 METAR ESMX 041420Z 11010G24KT 9999 SCT017 BKN020 M04/M07 Q1028=
200801041350 METAR ESMX 041350Z 10008G21KT 040V160 8000 BR BKN016 OVC021 M03/M06 Q1028=
200801041320 METAR ESMX 041320Z 12009G21KT 8000 SCT016 OVC020 M03/M06 Q1028=
200801041250 METAR ESMX 041250Z 11012G23KT 020V160 9999 FEW016 OVC019 M03/M06 Q1029=
200801041220 METAR ESMX 041220Z 11010KT 070V160 5000 BR FEW015 SCT018 OVC020 M03/M05 Q1029 RESG RESN=
200801041150 METAR ESMX 041150Z 11008KT 040V170 6000 SG FEW014 OVC017 M03/M05 Q1030 RESN=
200801041120 METAR ESMX 041120Z 11009G20KT 070V170 7000 BR FEW015 OVC018 M03/M05 Q1030=
200801041050 METAR ESMX 041050Z 11010KT 060V160 7000 BR OVC014 M03/M06 Q1030 RESN RESG=
200801041020 METAR ESMX 041020Z 11011G23KT 050V160 9000 -SN SCT014 OVC018 M03/M06 Q1031 RESG=
200801040950 METAR ESMX 040950Z 11011KT 050V160 9999 BKN014 M03/M06 Q1031=
200801040920 METAR ESMX 040920Z 11011G24KT 060V170 9999 BKN017 M03/M06 Q1031=
200801040850 METAR ESMX 040850Z 12011G22KT 060V170 9999 BKN016 M03/M06 Q1031=
200801040820 METAR ESMX 040820Z 10009G20KT 050V160 9999 BKN016 M03/M06 Q1031=
200801040750 METAR ESMX 040750Z 10009G24KT 020V170 9999 BKN014 M03/M06 Q1031=
200801040720 METAR ESMX 040720Z 11010G23KT 050V160 9999 BKN015 M03/M06 Q1032=
200801040650 METAR ESMX 040650Z 11009G19KT 060V180 9999 BKN016 M03/M06 Q1031=
200801040620 METAR ESMX 040620Z 11012KT 060V160 9999 BKN018 M02/M06 Q1031=
200801040550 METAR ESMX 040550Z 10010KT 050V150 9999 SCT016 BKN020 M02/M05 Q1031=
200801040520 METAR ESMX 040520Z AUTO 10008G18KT 060V160 9999NDV ////// M02/M05 Q1032=
200801040450 METAR ESMX 040450Z AUTO 11009G21KT 060V170 9999NDV ////// M02/M05 Q1032=
200801040420 METAR ESMX 040420Z AUTO 10012G23KT 060V160 9999NDV ////// M02/M06 Q1032=
200801040350 METAR ESMX 040350Z AUTO VRB11G25KT 9999NDV ////// M02/M05 Q1032=
200801040320 METAR ESMX 040320Z AUTO 10012KT 070V170 9999NDV ////// M02/M05 Q1032=
200801040250 METAR ESMX 040250Z AUTO 11011G21KT 050V160 9999NDV ////// M02/M05 Q1032=
200801040220 METAR ESMX 040220Z AUTO 11010G21KT 060V160 9999NDV ////// M02/M05 Q1032=
200801040150 METAR ESMX 040150Z AUTO 11011G21KT 050V160 9999NDV ////// M02/M05 Q1032=
200801040120 METAR ESMX 040120Z AUTO 11011G21KT 040V170 9999NDV ////// M02/M05 Q1032=
200801040050 METAR ESMX 040050Z 11012G24KT 060V160 9999 BKN020 M02/M05 Q1032=
200801040020 METAR ESMX 040020Z 10008KT 030V160 9999 BKN020 M02/M05 Q1032=
200801032350 METAR ESMX 032350Z 11010KT 040V150 9999 BKN022 M02/M05 Q1032=
200801032320 METAR ESMX 032320Z 11009KT 050V200 9999 BKN020 M02/M05 Q1032=
200801032250 METAR ESMX 032250Z VRB08G20KT 9999 BKN025 M02/M05 Q1032=
200801032220 METAR ESMX 032220Z VRB09KT 9999 BKN025 M02/M05 Q1032=
200801032150 METAR ESMX 032150Z 11009G21KT 070V150 9999 BKN025 M02/M05 Q1032=
200801032120 METAR ESMX 032120Z 11009G19KT 040V150 9999 BKN020 M02/M05 Q1032=
200801032050 METAR ESMX 032050Z 11011KT 020V160 9999 FEW016 BKN020 M01/M05 Q1032=
200801032020 METAR ESMX 032020Z 11011G22KT 050V160 9999 OVC016 M01/M04 Q1031=
200801031950 METAR ESMX 031950Z 11010G22KT 040V170 9999 OVC015 M01/M04 Q1031=
200801031920 METAR ESMX 031920Z 12010G22KT 080V160 9999 OVC015 M01/M04 Q1031=
200801031850 METAR ESMX 031850Z 11009KT 070V150 9999 OVC015 M01/M04 Q1031=
200801031820 METAR ESMX 031820Z 12012KT 060V160 9999 OVC015 M01/M04 Q1031=
200801031750 METAR ESMX 031750Z 12010G26KT 9999 OVC015 M01/M04 Q1031=
200801031720 METAR ESMX 031720Z 12010KT 070V170 9999 -SN OVC014 M02/M04 Q1030 RESG RESN=
200801031650 METAR ESMX 031650Z 11011G21KT 060V150 9999 -SN OVC014 M02/M04 Q1030=
200801031620 METAR ESMX 031620Z 11008G18KT 020V170 9999 -SN OVC013 M02/M04 Q1030 RESG=
200801031550 METAR ESMX 031550Z 10008G18KT 020V190 9000 SG BKN013 OVC018 M02/M04 Q1030 RESN=
200801031520 METAR ESMX 031520Z 10009KT 060V160 3600 -SN FEW013 BKN015 BKN022 M03/M04 Q1030=
200801031450 METAR ESMX 031450Z 10010G21KT 050V170 3300 -SN FEW014 BKN017 M03/M05 Q1030=
200801031420 METAR ESMX 031420Z 10010KT 030V150 2100 -SN FEW013 SCT016 BKN020 M03/M04 Q1030=
200801031350 METAR ESMX 031350Z 10008G18KT 050V190 4700 -SN FEW006 SCT016 BKN019 M03/M05 Q1030=
200801031320 METAR ESMX 031320Z 09008KT 050V150 3200 -SN SCT015 BKN021 BKN028 M03/M05 Q1029=
200801031250 METAR ESMX 031250Z 09008G21KT 020V150 7000 -SN FEW014 SCT017 OVC020 M03/M06 Q1030=
200801031220 METAR ESMX 031220Z 10008G18KT 040V170 9999 -SN FEW015 SCT021 BKN026 M03/M07 Q1030=
200801031150 METAR ESMX 031150Z 12011G21KT 060V170 7000 -SN FEW014 SCT019 BKN023 M03/M06 Q1030=
200801031120 METAR ESMX 031120Z 11009G21KT 030V160 4900 -SN FEW017 SCT020 BKN024 M03/M06 Q1030=
200801031050 METAR ESMX 031050Z 11010G21KT 050V150 7000 -SN FEW015 SCT020 BKN041 M03/M05 Q1030=
200801031020 METAR ESMX 031020Z 11008KT 050V160 5000 -SN FEW012 SCT015 BKN023 M03/M05 Q1030=
200801030950 METAR ESMX 030950Z 10008KT 070V150 3800 -SN FEW012 SCT018 BKN023 M03/M05 Q1030=
200801030920 METAR ESMX 030920Z 10007KT 360V170 5000 -SN FEW016 OVC020 M03/M05 Q1030=
200801030850 METAR ESMX 030850Z VRB08KT 5000 -SN FEW018 OVC020 M03/M05 Q1030 RESG=
200801030820 METAR ESMX 030820Z 10011G23KT 050V140 9999 -SN SCT013 BKN017 OVC020 M02/M05 Q1030=
200801030750 METAR ESMX 030750Z 09009KT 050V140 9999 -SN BKN013 OVC019 M02/M04 Q1030 RESG=
200801030720 METAR ESMX 030720Z 09007KT 030V150 9999 -SN SCT013 OVC015 M02/M05 Q1030 RESG=
200801030650 METAR ESMX 030650Z 08008KT 030V130 9999 -SN SCT015 OVC017 M02/M05 Q1030=
200801030620 METAR ESMX 030620Z VRB07KT 9999 -SN FEW014 BKN017 OVC021 M03/M05 Q1030=
200801030550 METAR ESMX 030550Z 08008KT 040V110 9999 -SN FEW015 SCT017 BKN020 M03/M05 Q1030=
200801030520 METAR ESMX 030520Z 08008KT 020V130 9999 -SN FEW015 SCT018 BKN020 M03/M05 Q1030 RESG=
200801030450 METAR ESMX 030450Z AUTO 09009KT 050V150 9999NDV FEW014/// SCT017/// OVC047/// M03/M05 Q1030 RESG RESN=
200801030420 METAR ESMX 030420Z AUTO 09007KT 340V150 9999NDV -SN FEW011/// SCT014/// BKN018/// M03/M05 Q1030 RESG=
200801030350 METAR ESMX 030350Z AUTO 07007KT 030V110 9999NDV -SN FEW014/// OVC044/// M03/M04 Q1030=
200801030320 METAR ESMX 030320Z AUTO 06007KT 020V110 7000NDV -SN FEW010/// SCT015/// BKN043/// M03/M04 Q1031=
200801030250 METAR ESMX 030250Z AUTO 07007KT 020V120 9999NDV -SN SCT013/// BKN017/// OVC019/// M03/M05 Q1031=
200801030220 METAR ESMX 030220Z AUTO 06008KT 030V110 9000NDV -SN OVC012/// M03/M05 Q1031=
200801030150 METAR ESMX 030150Z AUTO 07010KT 030V110 9000NDV -SN BKN012/// OVC033/// M03/M05 Q1031=
200801030120 METAR ESMX 030120Z 06008KT 020V120 9000 -SN BKN015 BKN035 M03/M05 Q1031=
200801030050 METAR ESMX 030050Z 07009KT 030V110 9999 -SN FEW015 SCT018 BKN040 M03/M05 Q1031=
200801030020 METAR ESMX 030020Z 07008KT 010V110 9999 FEW010 SCT015 BKN020 M03/M05 Q1031 RESN RESG=
200801022320 METAR ESMX 022320Z 07009KT 360V120 9999 -SN FEW015 BKN041 M02/M05 Q1032=
200801022250 METAR ESMX 022250Z 07008KT 030V140 7000 -SN FEW015 BKN040 M02/M04 Q1032=
200801022220 METAR ESMX 022220Z 07008KT 020V130 4200 -SN FEW009 SCT016 BKN025 M02/M04 Q1032=
200801022150 METAR ESMX 022150Z 06008G18KT 360V110 5000 -SN FEW010 SCT013 BKN015 M02/M03 Q1032=
200801022120 METAR ESMX 022120Z 08006KT 030V160 9000 -SN FEW014 SCT016 BKN025 M01/M03 Q1032=
200801022050 METAR ESMX 022050Z 08007KT 350V140 7000 -SN FEW013 BKN016 OVC036 M01/M03 Q1033 RESG=
200801022020 METAR ESMX 022020Z 09007KT 040V140 5000 SG FEW013 SCT016 BKN022 M01/M03 Q1033 RESN=
200801021950 METAR ESMX 021950Z 09005KT 350V170 9999 SG FEW014 SCT020 OVC026 M01/M03 Q1033 RESN=
200801021920 METAR ESMX 021920Z 09006KT 050V140 9999 -SN FEW015 SCT025 OVC030 M01/M03 Q1033 RESG=
200801021850 METAR ESMX 021850Z 07006KT 020V170 9999 SG FEW012 SCT015 OVC017 M01/M02 Q1033 RESN=
200801021820 METAR ESMX 021820Z 09005KT 030V160 8000 SG FEW010 BKN015 OVC025 M01/M02 Q1033 RESN=
200801021750 METAR ESMX 021750Z 10006KT 050V150 9999 -SN FEW006 SCT010 BKN013 M01/M02 Q1033 RESG=
200801021720 METAR ESMX 021720Z 09006KT 030V160 2000 -SN FEW011 SCT018 OVC035 M01/M02 Q1034 RESG=
200801021650 METAR ESMX 021650Z 10006KT 050V140 9999 FEW012 SCT014 OVC044 M01/M02 Q1034 RESN=
200801021620 METAR ESMX 021620Z 09006KT 030V140 9999 -SN FEW009 SCT014 BKN018 M00/M02 Q1034 RESG=
200801021550 METAR ESMX 021550Z 10006KT 030V160 9999 -SN FEW010 SCT013 BKN016 M00/M02 Q1034 RESG=
200801021520 METAR ESMX 021520Z 09005KT 050V130 9999 FEW011 SCT018 OVC050 M00/M02 Q1033 RESG RESN=
200801021450 METAR ESMX 021450Z 09005KT 030V140 9999 SG FEW010 SCT013 BKN017 M00/M02 Q1033 RESN=
200801021420 METAR ESMX 021420Z 08006KT 020V120 8000 -SN FEW010 SCT014 BKN020 M00/M01 Q1034=
200801021350 METAR ESMX 021350Z 10005KT 050V140 9999 FEW011 SCT014 BKN018 M00/M02 Q1033 RESN=
200801021320 METAR ESMX 021320Z 09006KT 020V170 9999 -SN FEW009 SCT013 BKN015 M00/M01 Q1033 RESG=
200801021250 METAR ESMX 021250Z 08006KT 030V120 5000 -SN FEW009 SCT014 BKN017 M00/M01 Q1033=
200801021220 METAR ESMX 021220Z 07006KT 020V150 6000 -SN FEW009 SCT013 BKN017 M00/M01 Q1033=
200801021150 METAR ESMX 021150Z VRB06KT 3000 -SN FEW003 SCT009 BKN012 M00/M01 Q1033=
200801021120 METAR ESMX 021120Z 09006KT 030V140 2000 -SN SCT007 BKN009 M00/M01 Q1033=
200801021050 METAR ESMX 021050Z 08006KT 040V110 3000 -SN FEW006 SCT009 BKN012 00/M01 Q1033=
200801021020 METAR ESMX 021020Z 08005KT 3400 -SN FEW006 SCT009 BKN011 M00/M00 Q1034=
200801020950 METAR ESMX 020950Z 08005KT 2900 -SN FEW006 SCT014 BKN017 00/M01 Q1034=
200801020920 METAR ESMX 020920Z 07005KT 3600 -SN FEW008 SCT014 BKN022 00/M00 Q1034=
200801020850 METAR ESMX 020850Z 05005KT 010V100 1700 -SN FEW003 SCT009 BKN014 00/M01 Q1034 RESG=
200801020820 METAR ESMX 020820Z 06005KT 5000 SG FEW008 SCT009 BKN012 M00/M01 Q1033=
200801020750 METAR ESMX 020750Z 07006KT 9999 FEW009 OVC010 00/M01 Q1033=
200801020720 METAR ESMX 020720Z 06005KT 9999 BKN010 OVC015 00/M01 Q1033=
200801020650 METAR ESMX 020650Z 07006KT 9999 BKN011 OVC017 00/M01 Q1033=
200801020620 METAR ESMX 020620Z 06007KT 9999 FEW010 SCT013 BKN020 00/M01 Q1033 RESG RESN=
200801020550 METAR ESMX 020550Z 05005KT 9999 SG FEW008 BKN011 OVC039 00/M01 Q1033=
200801020520 METAR ESMX 020520Z 07005KT 9999 -SN FEW009 SCT010 BKN012 00/M01 Q1033=
200801020450 METAR ESMX 020450Z 08005KT 5000 -SN FEW005 SCT009 BKN011 00/M00 Q1033=
200801020420 METAR ESMX 020420Z AUTO 06005KT 020V110 5000NDV BR FEW004/// BKN013/// OVC017/// 01/M00 Q1033 REDZ=
200801020350 METAR ESMX 020350Z AUTO 05006KT 350V100 6000NDV -RA FEW010/// SCT017/// BKN035/// 01/M00 Q1033 REDZ=
200801020320 METAR ESMX 020320Z AUTO 06005KT 020V090 9000NDV BR FEW009/// SCT010/// OVC029/// 01/M00 Q1033=
200801020250 METAR ESMX 020250Z AUTO 05006KT 020V080 5000NDV BR FEW008/// SCT011/// BKN019/// 01/M00 Q1033=
200801020220 METAR ESMX 020220Z AUTO 06006KT 020V100 8000NDV BR FEW010/// BKN018/// OVC023/// 01/M00 Q1033=
200801020150 METAR ESMX 020150Z AUTO 06005KT 020V110 9000NDV OVC017/// 01/M00 Q1033=
200801020120 METAR ESMX 020120Z 06005KT 010V110 7000 BR FEW007 SCT010 BKN013 01/M00 Q1033 RERASN=
200801020050 METAR ESMX 020050Z 06006KT 5000 -RASN FEW007 SCT009 OVC010 01/00 Q1033=
200801020020 METAR ESMX 020020Z 08004KT 5000 -RA FEW007 SCT009 BKN011 01/00 Q1033=
200801012350 METAR ESMX 012350Z 09005KT 050V140 5000 -RASN FEW007 BKN009 OVC011 01/00 Q1033=
200801012320 METAR ESMX 012320Z 08006KT 3800 -RASN FEW005 OVC006 01/01 Q1032=
200801012250 METAR ESMX 012250Z 08005KT 2400 BR FEW005 SCT008 BKN009 01/01 Q1032=
200801012220 METAR ESMX 012220Z 08005KT 050V140 3400 BR FEW007 SCT008 BKN010 01/01 Q1032=
200801012150 METAR ESMX 012150Z 07003KT 030V110 6000 BR OVC007 01/01 Q1032=
200801012120 METAR ESMX 012120Z 08004KT 7000 BR FEW006 SCT009 BKN012 01/01 Q1031=
200801012050 METAR ESMX 012050Z 07003KT 030V140 8000 -DZ BKN006 OVC009 01/01 Q1031 RERA=
200801012020 METAR ESMX 012020Z 07003KT 020V130 8000 BR FEW005 SCT008 BKN009 01/01 Q1031 RERA=
200801011950 METAR ESMX 011950Z 05003KT 010V090 6000 BR FEW006 SCT008 OVC043 01/00 Q1031=
200801011920 METAR ESMX 011920Z 07004KT 010V120 3300 BR FEW004 SCT008 BKN023 01/00 Q1030 RESN=
200801011850 METAR ESMX 011850Z 07003KT 020V140 5000 BR FEW005 SCT011 BKN020 01/01 Q1030 RERASN=
200801011820 METAR ESMX 011820Z 08004KT 3700 -SNRA OVC005 01/01 Q1030=
200801011750 METAR ESMX 011750Z 07004KT 5000 BR OVC006 01/01 Q1029=
200801011720 METAR ESMX 011720Z 06004KT 6000 BR OVC008 01/00 Q1029=
200801011650 METAR ESMX 011650Z 06003KT 8000 BR FEW009 SCT012 BKN015 01/00 Q1029=
200801011620 METAR ESMX 011620Z 06004KT 9999 FEW006 BKN007 OVC009 01/00 Q1029=
200801011550 METAR ESMX 011550Z 05005KT 9999 BKN005 OVC008 01/00 Q1028=
200801011520 METAR ESMX 011520Z 03006KT 9999 FEW005 SCT007 BKN009 01/00 Q1028=
200801011450 METAR ESMX 011450Z 04005KT 9999 BKN005 OVC010 01/00 Q1028 RERA REDZ=
200801011420 METAR ESMX 011420Z AUTO 05005KT 020V090 7000NDV -RA OVC004/// 01/00 Q1028=
200801011350 METAR ESMX 011350Z AUTO 04005KT 8000NDV -RA OVC005/// 01/00 Q1027=
200801011320 METAR ESMX 011320Z AUTO 03006KT 360V070 9999NDV -RA OVC005/// 01/00 Q1027=
200801011250 METAR ESMX 011250Z AUTO 03006KT 9999NDV OVC005/// 01/00 Q1027=
200801011220 METAR ESMX 011220Z AUTO 02005KT 9999NDV OVC006/// 01/00 Q1027=
