##########################################################
# Query made at 04/19/2024 21:04:06 UTC
# Time interval: from 06/01/2008 12:00  to 06/30/2008 12:59  UTC
##########################################################

##########################################################
# ESMX, Vaxjo (Sweden)
# WMO index: 02641. WIGOS ID: 0-20000-0-02648
# Latitude 56-51N. Longitude 014-50E. Altitude 199 m.
##########################################################

200806301250 METAR ESMX 301250Z 26016G26KT 240V300 9999 FEW032 SCT040 BKN068 17/09 Q1012=
200806301220 METAR ESMX 301220Z 27009KT 230V300 9999 SCT040 BKN059 16/10 Q1012=
200806301150 METAR ESMX 301150Z 27016G29KT 9999 FEW034 SCT042 BKN051 15/09 Q1012=
200806301120 METAR ESMX 301120Z 29013KT 250V320 9999 SCT021 BKN039 14/10 Q1012=
200806301050 METAR ESMX 301050Z 26012KT 220V320 9999 FEW017 SCT020 BKN040 15/11 Q1011=
200806301020 METAR ESMX 301020Z 29011G21KT 240V330 9999 FEW010 SCT020 BKN025 14/10 Q1011=
200806300950 METAR ESMX 300950Z 26011KT 9999 FEW013 SCT016 BKN023 14/11 Q1010=
200806300920 METAR ESMX 300920Z 25012KT 220V290 9999 FEW011 SCT020 BKN025 14/11 Q1010=
200806300850 METAR ESMX 300850Z 25012KT 200V280 9999 FEW012 SCT015 BKN020 14/11 Q1010=
200806300820 METAR ESMX 300820Z 24010G20KT 210V280 9999 FEW012 SCT020 BKN025 14/12 Q1010 RERA REDZ=
200806300750 METAR ESMX 300750Z 24011KT 210V270 9999 FEW015 SCT020 BKN085 15/11 Q1009=
200806300720 METAR ESMX 300720Z 24009KT 9999 FEW015 SCT040 14/12 Q1009=
200806300650 METAR ESMX 300650Z 24008KT 9999 FEW014 SCT023 BKN050 14/12 Q1009 RERA REDZ=
200806300620 METAR ESMX 300620Z 23011KT 200V270 9999 FEW014 SCT021 BKN030 15/11 Q1009=
200806300550 METAR ESMX 300550Z 22011KT 190V250 9999 FEW014 SCT026 BKN035 15/12 Q1009=
200806300520 METAR ESMX 300520Z 21011KT 9999 FEW010 SCT015 BKN020 14/13 Q1009=
200806300450 METAR ESMX 300450Z 19009KT 9999 FEW011 SCT014 BKN030 14/13 Q1009=
200806300420 METAR ESMX 300420Z 19008KT 9999 SCT030 BKN043 14/12 Q1009=
200806300350 METAR ESMX 300350Z AUTO 18007KT 9999NDV FEW039/// SCT044/// BKN052/// 13/12 Q1010=
200806300320 METAR ESMX 300320Z AUTO 18007KT 7000NDV BR FEW032/// SCT073/// 14/13 Q1010 RERA REDZ=
200806300250 METAR ESMX 300250Z AUTO 18006KT 6000NDV -RA FEW031/// SCT054/// 14/13 Q1010 REDZ=
200806300220 METAR ESMX 300220Z AUTO 19005KT 8000NDV -RA BKN066/// 14/12 Q1010=
200806300150 METAR ESMX 300150Z AUTO 17005KT 9999NDV FEW051/// SCT089/// 14/12 Q1010=
200806300120 METAR ESMX 300120Z AUTO 17004KT 9999NDV BKN077/// 14/12 Q1011=
200806300050 METAR ESMX 300050Z AUTO 18005KT 9999NDV FEW082/// 14/12 Q1011=
200806300020 METAR ESMX 300020Z 18005KT CAVOK 13/11 Q1011=
200806292320 METAR ESMX 292320Z 20005KT CAVOK 14/11 Q1012=
200806292250 METAR ESMX 292250Z 20005KT CAVOK 14/11 Q1012=
200806292220 METAR ESMX 292220Z 18004KT CAVOK 13/11 Q1012=
200806292150 METAR ESMX 292150Z 21005KT CAVOK 13/11 Q1012=
200806292120 METAR ESMX 292120Z 21005KT CAVOK 14/11 Q1012=
200806292050 METAR ESMX 292050Z 23006KT CAVOK 15/11 Q1012=
200806292020 METAR ESMX 292020Z 23003KT CAVOK 15/11 Q1012=
200806291950 METAR ESMX 291950Z 22005KT CAVOK 16/11 Q1012=
200806291920 METAR ESMX 291920Z 23004KT CAVOK 16/12 Q1012=
200806291850 METAR ESMX 291850Z 24005KT CAVOK 17/12 Q1012=
200806291820 METAR ESMX 291820Z 25007KT CAVOK 17/12 Q1012=
200806291750 METAR ESMX 291750Z 25008KT 9999 FEW028 BKN100 17/12 Q1012=
200806291720 METAR ESMX 291720Z 26010KT 230V290 9999 FEW025 SCT090 18/12 Q1012=
200806291650 METAR ESMX 291650Z 26007KT 9999 FEW030 18/12 Q1012=
200806291620 METAR ESMX 291620Z 26008KT 220V300 9999 FEW030 SCT045 18/12 Q1012=
200806291550 METAR ESMX 291550Z 23009KT 200V290 9999 FEW035 SCT045 18/12 Q1012=
200806291520 METAR ESMX 291520Z 25009KT 210V280 9999 FEW035 SCT040 19/12 Q1012=
200806291450 METAR ESMX 291450Z 25010KT 220V290 9999 BKN030 19/12 Q1012=
200806291420 METAR ESMX 291420Z 24007KT 200V290 9999 FEW030 BKN040 19/13 Q1012=
200806291350 METAR ESMX 291350Z 26010KT 9999 FEW030 SCT040 BKN065 19/13 Q1012=
200806291320 METAR ESMX 291320Z 26009KT 9999 SCT045 BKN070 18/14 Q1012=
200806291250 METAR ESMX 291250Z 24010KT 9999 FEW020 SCT035 BKN080 17/13 Q1012=
200806291220 METAR ESMX 291220Z 23009KT 9999 FEW021 SCT073 BKN089 17/14 Q1012=
200806291150 METAR ESMX 291150Z 24008G18KT 9999 SHRA FEW010 SCT025 BKN045 15/13 Q1012=
200806291120 METAR ESMX 291120Z 21009KT 170V250 9999 FEW017 SCT025 BKN040 18/13 Q1011=
200806291050 METAR ESMX 291050Z 21009KT 170V260 9999 FEW015 SCT020 BKN025 17/13 Q1011=
200806291020 METAR ESMX 291020Z 22005KT 200V260 9999 FEW010 SCT050 BKN080 16/13 Q1012 RERA=
200806290950 METAR ESMX 290950Z AUTO 27006KT 210V300 8000NDV RA FEW017/// SCT020/// BKN024/// 15/12 Q1011 REDZ=
200806290920 METAR ESMX 290920Z AUTO 26007KT 9999NDV FEW018/// SCT024/// BKN030/// 16/12 Q1011=
200806290850 METAR ESMX 290850Z AUTO 24007KT 200V290 9999NDV FEW020/// SCT024/// OVC040/// 16/12 Q1011=
200806290820 METAR ESMX 290820Z AUTO 26008KT 9999NDV FEW015/// SCT018/// BKN041/// 16/12 Q1011=
200806290750 METAR ESMX 290750Z AUTO 28008KT 250V310 9999NDV FEW011/// SCT015/// BKN023/// 16/12 Q1011=
200806290720 METAR ESMX 290720Z AUTO 25009KT 9999NDV FEW010/// SCT015/// BKN021/// 15/13 Q1011=
200806290620 METAR ESMX 290620Z AUTO 23005KT 200V280 9999NDV FEW006/// SCT008/// BKN011/// 14/13 Q1011=
200806290550 METAR ESMX 290550Z AUTO 24004KT 200V270 9999NDV FEW005/// SCT014/// BKN017/// 14/13 Q1011=
200806290520 METAR ESMX 290520Z AUTO 21004KT 190V250 9000NDV BR FEW003/// SCT005/// BKN008/// 13/12 Q1011=
200806290450 METAR ESMX 290450Z AUTO 17003KT 140V210 9000NDV FEW003/// BKN006/// BKN009/// 13/12 Q1011=
200806290420 METAR ESMX 290420Z AUTO 19002KT 9999NDV FEW002/// OVC007/// 12/11 Q1011 REDZ REUP=
200806290350 METAR ESMX 290350Z AUTO 00000KT 3200NDV DZ OVC009/// 12/11 Q1010 RERA=
200806290320 METAR ESMX 290320Z AUTO 15002KT 6000NDV RA BKN013/// OVC018/// 12/11 Q1011 REDZ=
200806290250 METAR ESMX 290250Z AUTO VRB02KT 5000NDV -RA FEW010/// OVC023/// 12/11 Q1011=
200806290220 METAR ESMX 290220Z AUTO 20003KT 8000NDV RA FEW029/// OVC034/// 12/11 Q1011 REDZ=
200806290150 METAR ESMX 290150Z AUTO 17003KT 9999NDV FEW025/// BKN039/// BKN047/// 12/10 Q1011=
200806290120 METAR ESMX 290120Z AUTO VRB02KT 9999NDV OVC049/// 12/10 Q1011 RERA REDZ=
200806290050 METAR ESMX 290050Z AUTO 20002KT 9999NDV OVC052/// 12/09 Q1011=
200806290020 METAR ESMX 290020Z AUTO 19003KT 9999NDV OVC053/// 12/09 Q1011=
200806282350 METAR ESMX 282350Z AUTO 21003KT 9999NDV OVC056/// 12/09 Q1011=
200806282320 METAR ESMX 282320Z AUTO 25002KT 9999NDV BKN059/// 12/09 Q1011=
200806282250 METAR ESMX 282250Z AUTO 25003KT 9999NDV OVC065/// 12/09 Q1011=
200806282220 METAR ESMX 282220Z AUTO 24004KT 9999NDV FEW070/// OVC089/// 12/08 Q1011=
200806282150 METAR ESMX 282150Z AUTO 24004KT 9999NDV OVC092/// 12/08 Q1011=
200806282120 METAR ESMX 282120Z AUTO 23004KT 200V260 9999NDV NCD 12/08 Q1011=
200806282050 METAR ESMX 282050Z AUTO 25004KT 9999NDV NCD 12/08 Q1010=
200806282020 METAR ESMX 282020Z AUTO 25004KT 9999NDV NCD 13/08 Q1010=
200806281950 METAR ESMX 281950Z AUTO 25003KT 9999NDV NCD 14/08 Q1010=
200806281920 METAR ESMX 281920Z AUTO 24003KT 9999NDV NCD 16/09 Q1010=
200806281850 METAR ESMX 281850Z AUTO 23003KT 9999NDV NCD 16/10 Q1010=
200806281820 METAR ESMX 281820Z AUTO 21004KT 170V240 9999NDV NCD 17/10 Q1010=
200806281720 METAR ESMX 281720Z AUTO 24005KT 200V280 9999NDV FEW036/// 18/09 Q1010=
200806281650 METAR ESMX 281650Z AUTO 22007KT 9999NDV FEW036/// 18/09 Q1010=
200806281620 METAR ESMX 281620Z AUTO 23008KT 9999NDV SCT073/// 18/09 Q1009=
200806281550 METAR ESMX 281550Z AUTO 21009KT 170V250 9999NDV SCT075/// 18/09 Q1009=
200806281520 METAR ESMX 281520Z AUTO 24006KT 200V310 9999NDV SCT032/// BKN077/// 17/09 Q1009=
200806281450 METAR ESMX 281450Z AUTO 24007KT 9999NDV FEW032/// BKN070/// 18/09 Q1010=
200806281420 METAR ESMX 281420Z AUTO 25007KT 200V270 9999NDV FEW025/// SCT029/// BKN053/// 17/10 Q1010=
200806281320 METAR ESMX 281320Z AUTO 23008KT 200V260 9999NDV FEW047/// BKN076/// 17/10 Q1010=
200806281250 METAR ESMX 281250Z AUTO 22009KT 9999NDV FEW021/// SCT027/// BKN057/// 16/10 Q1010=
200806281220 METAR ESMX 281220Z AUTO 24007KT 200V280 9999NDV FEW030/// BKN075/// 16/10 Q1010=
200806281120 METAR ESMX 281120Z AUTO 20007KT 9999NDV BKN023/// OVC037/// 15/10 Q1010=
200806281050 METAR ESMX 281050Z AUTO 21007KT 9999NDV FEW022/// OVC068/// 16/11 Q1010=
200806281020 METAR ESMX 281020Z AUTO 23006KT 200V260 9999NDV FEW019/// OVC054/// 15/10 Q1010=
200806280950 METAR ESMX 280950Z AUTO 21008KT 9999NDV FEW017/// SCT024/// OVC055/// 14/11 Q1010=
200806280920 METAR ESMX 280920Z AUTO 21007KT 170V240 9999NDV FEW016/// SCT036/// BKN065/// 15/11 Q1010=
200806280850 METAR ESMX 280850Z AUTO 25007KT 9999NDV FEW015/// SCT034/// OVC067/// 14/11 Q1010=
200806280820 METAR ESMX 280820Z AUTO 23005KT 180V280 9999NDV FEW010/// SCT034/// OVC059/// 14/11 Q1010=
200806280750 METAR ESMX 280750Z AUTO 22004KT 190V250 9999NDV FEW010/// SCT017/// BKN032/// 13/11 Q1010=
200806280720 METAR ESMX 280720Z AUTO 23005KT 190V260 9999NDV FEW009/// SCT013/// BKN020/// 13/11 Q1010=
200806280650 METAR ESMX 280650Z AUTO 23006KT 9999NDV FEW008/// SCT009/// BKN012/// 13/11 Q1010=
200806280620 METAR ESMX 280620Z AUTO 22005KT 190V270 9999NDV FEW007/// SCT010/// OVC063/// 12/11 Q1010=
200806280550 METAR ESMX 280550Z AUTO 21005KT 9999NDV FEW006/// OVC062/// 12/11 Q1010=
200806280520 METAR ESMX 280520Z AUTO 20005KT 140V220 9999NDV FEW003/// SCT007/// BKN013/// 11/11 Q1010=
200806280450 METAR ESMX 280450Z AUTO 20003KT 9999NDV SCT002/// BKN015/// OVC059/// 10/10 Q1010=
200806280420 METAR ESMX 280420Z AUTO 22005KT 6000NDV BKN001/// OVC019/// 10/10 Q1010=
200806280350 METAR ESMX 280350Z AUTO 21005KT 0500NDV R01/0800V1800 R19/0800V1100N FG VV001 10/09 Q1010=
200806280320 METAR ESMX 280320Z AUTO 21005KT 0200NDV R01/0400N R19/0750N FG VV000 09/08 Q1010=
200806280250 METAR ESMX 280250Z AUTO 20004KT 0300NDV R01/0700N R19/0650N FG SCT050/// 09/08 Q1010=
200806280220 METAR ESMX 280220Z AUTO 22005KT 0600NDV R01/0750VP2000D R19/P2000D FG NCD 09/08 Q1010=
200806280150 METAR ESMX 280150Z AUTO 23004KT 6000NDV BR NCD 09/08 Q1010=
200806280120 METAR ESMX 280120Z AUTO 26003KT 7000NDV BR NCD 09/09 Q1010=
200806280050 METAR ESMX 280050Z AUTO 27003KT 9000NDV NCD 10/09 Q1010=
200806280020 METAR ESMX 280020Z AUTO 25004KT 9999NDV NCD 11/10 Q1010=
200806272350 METAR ESMX 272350Z AUTO 27004KT 9999NDV FEW004/// SCT020/// 11/10 Q1010=
200806272320 METAR ESMX 272320Z AUTO 26006KT 9999NDV FEW004/// SCT020/// BKN054/// 12/11 Q1010=
200806272250 METAR ESMX 272250Z AUTO 26006KT 230V290 9999NDV FEW004/// SCT006/// BKN008/// 12/11 Q1009=
200806272220 METAR ESMX 272220Z AUTO 26005KT 9999NDV FEW020/// SCT033/// OVC040/// 12/11 Q1009=
200806272150 METAR ESMX 272150Z AUTO 23004KT 9999NDV OVC050/// 12/11 Q1009=
200806272120 METAR ESMX 272120Z AUTO 25004KT 9999NDV FEW049/// BKN061/// 12/11 Q1009=
200806272020 METAR ESMX 272020Z AUTO 27004KT 9999NDV FEW003/// SCT006/// BKN009/// 12/11 Q1009=
200806271920 METAR ESMX 271920Z AUTO 25003KT 9999NDV FEW005/// 12/11 Q1008 RERA REDZ=
200806271850 METAR ESMX 271850Z 25004KT 9999 -RA FEW015 12/11 Q1008 REDZ=
200806271820 METAR ESMX 271820Z 26004KT 9999 -DZ FEW030 12/10 Q1008=
200806271720 METAR ESMX 271720Z 23004KT 9999 -RA FEW015 BKN050 13/11 Q1008=
200806271650 METAR ESMX 271650Z 22002KT 9999 -RA FEW020 SCT065 13/11 Q1008=
200806271620 METAR ESMX 271620Z VRB01KT 9999 -RA SCT045 13/11 Q1008 REDZ=
200806271550 METAR ESMX 271550Z VRB02KT 9999 -RA FEW040 SCT060 13/11 Q1008=
200806271520 METAR ESMX 271520Z VRB01KT 9999 -RA FEW040 SCT050 13/11 Q1008 REDZ=
200806271450 METAR ESMX 271450Z 00000KT 9999 -DZ FEW045 BKN060 13/11 Q1008=
200806271420 METAR ESMX 271420Z 00000KT 9999 -DZ FEW025 SCT040 13/11 Q1008 RERA=
200806271350 METAR ESMX 271350Z 23008KT 190V260 8000 -RA FEW015 SCT035 12/11 Q1009=
200806271320 METAR ESMX 271320Z 19012G28KT 140V230 9999 SHRA OVC040 14/11 Q1009=
200806271250 METAR ESMX 271250Z 17005KT 110V200 9999 BKN040 18/08 Q1008=
200806271220 METAR ESMX 271220Z 15004KT 090V190 9999 FEW040 BKN060 18/09 Q1008=
200806271150 METAR ESMX 271150Z 15004KT 100V190 9999 SCT025 BKN065 19/08 Q1009=
200806271120 METAR ESMX 271120Z 14003KT 100V230 9999 FEW025 SCT065 18/09 Q1009=
200806271050 METAR ESMX 271050Z 17005KT 9999 FEW045 SCT080 17/09 Q1010=
200806271020 METAR ESMX 271020Z 20004KT 100V240 9999 FEW025 BKN150 17/09 Q1010=
200806270950 METAR ESMX 270950Z 20005KT 170V250 9999 FEW025 BKN140 17/09 Q1010=
200806270920 METAR ESMX 270920Z 19008KT 160V240 9999 FEW025 BKN140 16/09 Q1011=
200806270850 METAR ESMX 270850Z 20007KT 160V230 9999 FEW030 BKN140 16/09 Q1011=
200806270820 METAR ESMX 270820Z 22007KT 9999 FEW030 BKN150 16/09 Q1011=
200806270750 METAR ESMX 270750Z 20008KT 9999 FEW025 BKN180 15/10 Q1011=
200806270720 METAR ESMX 270720Z 20007KT 160V240 9999 FEW025 BKN200 15/10 Q1011=
200806270650 METAR ESMX 270650Z 21009KT 9999 FEW015 BKN040 15/10 Q1012=
200806270620 METAR ESMX 270620Z 20008KT 9999 FEW017 SCT045 14/10 Q1012=
200806270550 METAR ESMX 270550Z 17006KT 140V200 9999 FEW045 BKN200 14/10 Q1012=
200806270520 METAR ESMX 270520Z 17005KT CAVOK 12/09 Q1012=
200806270450 METAR ESMX 270450Z 17005KT 140V200 CAVOK 12/09 Q1012=
200806270420 METAR ESMX 270420Z 16004KT 130V190 CAVOK 11/09 Q1012=
200806270350 METAR ESMX 270350Z AUTO 17004KT 9999NDV FEW041/// 10/09 Q1012=
200806270320 METAR ESMX 270320Z AUTO 17004KT 9999NDV NCD 09/08 Q1012=
200806270250 METAR ESMX 270250Z AUTO 17003KT 9999NDV NCD 08/07 Q1012=
200806270220 METAR ESMX 270220Z AUTO 17003KT 9999NDV NCD 08/07 Q1012=
200806270150 METAR ESMX 270150Z AUTO 20003KT 9999NDV NCD 08/07 Q1013=
200806270120 METAR ESMX 270120Z AUTO 20004KT 9999NDV NCD 08/07 Q1013=
200806270050 METAR ESMX 270050Z AUTO 21005KT 9999NDV NCD 09/07 Q1013=
200806270020 METAR ESMX 270020Z AUTO 22006KT 9999NDV NCD 09/06 Q1013=
200806262320 METAR ESMX 262320Z 22005KT CAVOK 09/06 Q1013=
200806262250 METAR ESMX 262250Z 22006KT CAVOK 10/07 Q1013=
200806262220 METAR ESMX 262220Z 21005KT CAVOK 11/07 Q1013=
200806262150 METAR ESMX 262150Z 22005KT CAVOK 11/07 Q1013=
200806262120 METAR ESMX 262120Z 22005KT CAVOK 12/07 Q1013=
200806262050 METAR ESMX 262050Z 21005KT CAVOK 12/07 Q1013=
200806262020 METAR ESMX 262020Z 21004KT CAVOK 13/07 Q1013=
200806261950 METAR ESMX 261950Z 22003KT CAVOK 14/07 Q1013=
200806261920 METAR ESMX 261920Z 25004KT CAVOK 15/07 Q1013=
200806261850 METAR ESMX 261850Z 26007KT 230V310 CAVOK 16/07 Q1013=
200806261820 METAR ESMX 261820Z 27009KT CAVOK 17/06 Q1013=
200806261750 METAR ESMX 261750Z 28012KT CAVOK 18/06 Q1013=
200806261720 METAR ESMX 261720Z 27011G22KT 240V310 CAVOK 18/06 Q1013=
200806261650 METAR ESMX 261650Z 25011KT 220V280 CAVOK 18/08 Q1013=
200806261620 METAR ESMX 261620Z 26012KT 9999 FEW045 18/09 Q1013=
200806261550 METAR ESMX 261550Z 28008KT 240V320 9999 FEW035 18/11 Q1013=
200806261520 METAR ESMX 261520Z 26006KT 220V290 9999 FEW020 SCT068 17/13 Q1013=
200806261450 METAR ESMX 261450Z 24007KT 200V270 9999 FEW013 SCT035 16/14 Q1013=
200806261420 METAR ESMX 261420Z 25008KT 9999 FEW021 SCT027CB 15/14 Q1013 RESHRA=
200806261351 METAR COR ESMX 261351Z 24011KT 210V280 9999 -SHRA FEW024 SCT032CB BKN037 17/11 Q1013=
200806261320 METAR ESMX 261320Z 23010KT 190V250 9999 FEW025 BKN031 17/12 Q1013=
200806261250 METAR ESMX 261250Z 24010KT 200V280 9999 FEW023 SCT076 BKN096 18/12 Q1012=
200806261220 METAR ESMX 261220Z 22011KT 9999 FEW024 SCT047 BKN055 17/13 Q1012 RERA=
200806261150 METAR ESMX 261150Z 22013KT 9999 FEW031 SCT040 BKN051 17/10 Q1012=
200806261120 METAR ESMX 261120Z 22012KT 9999 FEW034 SCT042 BKN052 18/10 Q1012=
200806261050 METAR ESMX 261050Z 20010KT 150V250 9999 BKN040 BKN065 20/08 Q1012=
200806261020 METAR ESMX 261020Z 20011KT 160V240 9999 FEW037 SCT060 20/09 Q1012=
200806260950 METAR ESMX 260950Z 21009KT 170V240 9999 FEW035 19/09 Q1012=
200806260920 METAR ESMX 260920Z 20009KT 160V230 9999 FEW030 18/09 Q1013=
200806260850 METAR ESMX 260850Z 22006KT 180V250 9999 FEW033 BKN083 16/09 Q1013=
200806260820 METAR ESMX 260820Z 22006KT CAVOK 15/09 Q1013=
200806260750 METAR ESMX 260750Z 21006KT 180V240 CAVOK 14/08 Q1013=
200806260650 METAR ESMX 260650Z 21004KT 170V250 CAVOK 13/07 Q1013=
200806260620 METAR ESMX 260620Z 20002KT CAVOK 12/07 Q1013=
200806260550 METAR ESMX 260550Z 23002KT CAVOK 10/07 Q1013=
200806260520 METAR ESMX 260520Z 22002KT CAVOK 10/07 Q1012=
200806260450 METAR ESMX 260450Z 23003KT CAVOK 09/07 Q1012=
200806260420 METAR ESMX 260420Z AUTO 22003KT 9999NDV FEW100/// 09/07 Q1012=
200806260350 METAR ESMX 260350Z AUTO VRB02KT 9999NDV FEW110/// 09/07 Q1012=
200806260320 METAR ESMX 260320Z AUTO 00000KT 9999NDV FEW089/// BKN110/// 08/06 Q1012=
200806260250 METAR ESMX 260250Z AUTO 28002KT 9999NDV BKN110/// 07/05 Q1012=
200806260220 METAR ESMX 260220Z AUTO VRB02KT 9999NDV SCT100/// 08/05 Q1012=
200806260150 METAR ESMX 260150Z AUTO 26003KT 9999NDV BKN110/// 07/05 Q1012=
200806260120 METAR ESMX 260120Z AUTO 26004KT 9999NDV FEW110/// 07/04 Q1012=
200806260050 METAR ESMX 260050Z AUTO 26004KT 9999NDV FEW110/// 07/03 Q1012=
200806260020 METAR ESMX 260020Z AUTO 25004KT 9999NDV NCD 06/02 Q1012=
200806252350 METAR ESMX 252350Z 25004KT CAVOK 08/02 Q1012=
200806252320 METAR ESMX 252320Z 25003KT CAVOK 08/02 Q1012=
200806252250 METAR ESMX 252250Z 26003KT CAVOK 09/03 Q1012=
200806252220 METAR ESMX 252220Z 23004KT CAVOK 09/02 Q1011=
200806252150 METAR ESMX 252150Z 24004KT CAVOK 10/02 Q1011=
200806252120 METAR ESMX 252120Z 24004KT CAVOK 10/02 Q1011=
200806252050 METAR ESMX 252050Z 25003KT 200V290 CAVOK 11/02 Q1011=
200806252020 METAR ESMX 252020Z 25003KT 210V280 CAVOK 12/02 Q1011=
200806251950 METAR ESMX 251950Z 26004KT CAVOK 14/02 Q1011=
200806251920 METAR ESMX 251920Z 26003KT CAVOK 14/02 Q1011=
200806251850 METAR ESMX 251850Z 26005KT 230V300 CAVOK 15/01 Q1011=
200806251820 METAR ESMX 251820Z 26005KT 230V300 CAVOK 16/01 Q1011=
200806251750 METAR ESMX 251750Z 27005KT CAVOK 17/01 Q1011=
200806251720 METAR ESMX 251720Z 26007KT 220V300 CAVOK 18/02 Q1011=
200806251650 METAR ESMX 251650Z 28008KT 250V320 CAVOK 18/02 Q1012=
200806251620 METAR ESMX 251620Z 25006KT 200V270 CAVOK 19/02 Q1012=
200806251550 METAR ESMX 251550Z VRB05KT CAVOK 19/01 Q1012=
200806251520 METAR ESMX 251520Z 25007KT 210V290 CAVOK 18/02 Q1012=
200806251450 METAR ESMX 251450Z 22007KT 190V250 CAVOK 18/03 Q1012=
200806251420 METAR ESMX 251420Z 22008KT CAVOK 18/03 Q1013=
200806251350 METAR ESMX 251350Z 21006KT 140V290 CAVOK 18/04 Q1013=
200806251320 METAR ESMX 251320Z 22008KT 170V250 9999 FEW049 SCT093 18/04 Q1013=
200806251250 METAR ESMX 251250Z 25007KT 220V290 9999 FEW047 17/05 Q1013=
200806251220 METAR ESMX 251220Z 20006KT 140V260 9999 FEW034 17/05 Q1013=
200806251150 METAR ESMX 251150Z 30006KT 250V330 9999 FEW046 17/05 Q1014=
200806251120 METAR ESMX 251120Z 25006KT 150V310 9999 FEW035 SCT130 17/04 Q1014=
200806251050 METAR ESMX 251050Z 20007KT 160V240 9999 FEW035 16/04 Q1014=
200806251020 METAR ESMX 251020Z 22006KT 170V270 9999 FEW030 16/04 Q1014=
200806250950 METAR ESMX 250950Z 22008KT 190V250 CAVOK 16/04 Q1015=
200806250920 METAR ESMX 250920Z 19008KT 9999 FEW040 16/03 Q1015=
200806250850 METAR ESMX 250850Z 20008KT 9999 FEW040 16/06 Q1015=
200806250820 METAR ESMX 250820Z 24004KT 200V290 CAVOK 15/05 Q1015=
200806250750 METAR ESMX 250750Z 27005KT 240V300 CAVOK 14/06 Q1015=
200806250720 METAR ESMX 250720Z 26003KT 200V320 CAVOK 14/07 Q1015=
200806250650 METAR ESMX 250650Z 22004KT 160V300 CAVOK 13/07 Q1015=
200806250620 METAR ESMX 250620Z 26004KT 220V300 9999 FEW010 12/08 Q1016=
200806250550 METAR ESMX 250550Z 27008KT 9999 FEW009 11/08 Q1016=
200806250520 METAR ESMX 250520Z 27006KT 9999 FEW008 10/08 Q1016=
200806250450 METAR ESMX 250450Z 25006KT 210V280 9999 FEW005 09/07 Q1016=
200806250420 METAR ESMX 250420Z 26003KT 210V280 CAVOK 08/07 Q1016=
200806250350 METAR ESMX 250350Z AUTO VRB01KT 9999NDV NCD 07/06 Q1016=
200806250320 METAR ESMX 250320Z AUTO 22004KT 9999NDV NCD 06/05 Q1016=
200806250250 METAR ESMX 250250Z AUTO 21003KT 9999NDV NCD 06/05 Q1016=
200806250220 METAR ESMX 250220Z AUTO VRB02KT 9999NDV NCD 06/05 Q1016=
200806250150 METAR ESMX 250150Z AUTO 25004KT 210V280 9999NDV NCD 07/05 Q1016=
200806250120 METAR ESMX 250120Z AUTO 26004KT 230V290 9999NDV NCD 07/06 Q1016=
200806250050 METAR ESMX 250050Z AUTO 25006KT 9999NDV NCD 07/06 Q1016=
200806250020 METAR ESMX 250020Z AUTO 23006KT 9999NDV NCD 07/05 Q1016=
200806242350 METAR ESMX 242350Z AUTO 25006KT 9999NDV NCD 07/05 Q1016=
200806242320 METAR ESMX 242320Z 24006KT 210V280 CAVOK 07/05 Q1015=
200806242250 METAR ESMX 242250Z 24006KT 210V280 CAVOK 08/05 Q1015=
200806242150 METAR ESMX 242150Z 25006KT CAVOK 08/05 Q1015=
200806242120 METAR ESMX 242120Z 24006KT 200V260 CAVOK 09/05 Q1015=
200806242050 METAR ESMX 242050Z 24005KT CAVOK 09/04 Q1015=
200806242020 METAR ESMX 242020Z 25004KT CAVOK 10/04 Q1015=
200806241950 METAR ESMX 241950Z 27006KT CAVOK 11/04 Q1015=
200806241920 METAR ESMX 241920Z 27007KT 240V300 CAVOK 12/04 Q1014=
200806241850 METAR ESMX 241850Z 27009KT 230V330 CAVOK 13/04 Q1014=
200806241820 METAR ESMX 241820Z 27012KT 240V320 CAVOK 13/04 Q1014=
200806241750 METAR ESMX 241750Z 26012KT 210V300 CAVOK 14/03 Q1014=
200806241720 METAR ESMX 241720Z 27014KT 240V310 9999 SCT045 14/03 Q1014=
200806241650 METAR ESMX 241650Z 27014KT 9999 SCT046 14/03 Q1014=
200806241620 METAR ESMX 241620Z 27013KT 250V310 9999 SCT046 14/03 Q1014=
200806241550 METAR ESMX 241550Z 27015KT 240V300 CAVOK 15/03 Q1014=
200806241520 METAR ESMX 241520Z 28012G22KT 240V330 CAVOK 15/03 Q1013=
200806241450 METAR ESMX 241450Z 26015KT 220V290 9999 FEW046 SCT054 14/04 Q1013=
200806241420 METAR ESMX 241420Z 27015G25KT 220V320 CAVOK 15/04 Q1013=
200806241350 METAR ESMX 241350Z 26018KT 230V290 CAVOK 16/04 Q1013=
200806241320 METAR ESMX 241320Z 28015KT CAVOK 16/03 Q1013=
200806241250 METAR ESMX 241250Z 26017G28KT 210V320 CAVOK 16/02 Q1013=
200806241220 METAR ESMX 241220Z 26016G26KT 230V290 CAVOK 17/04 Q1012=
200806241150 METAR ESMX 241150Z 27017G27KT 9999 BKN045 16/04 Q1012=
200806241120 METAR ESMX 241120Z 27015G25KT 230V330 9999 FEW028 BKN045 BKN055 16/04 Q1012=
200806241050 METAR ESMX 241050Z 28014KT 240V320 9999 FEW040 SCT045 BKN052 14/05 Q1012=
200806241020 METAR ESMX 241020Z 28017G27KT 250V320 9999 FEW035 BKN045 15/04 Q1012=
200806240950 METAR ESMX 240950Z 28018KT 9999 FEW030 BKN045 13/06 Q1012=
200806240920 METAR ESMX 240920Z 29012KT 250V320 9999 BKN022 OVC034 12/06 Q1011=
200806240850 METAR ESMX 240850Z 29016G27KT 250V320 9999 FEW024 BKN028 BKN042 12/06 Q1011=
200806240820 METAR ESMX 240820Z 28013KT 230V330 9999 BKN022 BKN041 12/07 Q1011=
200806240750 METAR ESMX 240750Z 28013KT 250V310 9999 SCT021 BKN028 BKN051 12/06 Q1010=
200806240720 METAR ESMX 240720Z 28015G25KT 250V310 9999 SCT021 BKN029 BKN048 11/06 Q1010=
200806240650 METAR ESMX 240650Z 27016G31KT 240V300 9999 BKN026 11/05 Q1009=
200806240620 METAR ESMX 240620Z 27018KT 240V320 9999 FEW026 BKN030 11/05 Q1009=
200806240550 METAR ESMX 240550Z 26015G25KT 230V310 9999 FEW026 BKN030 11/05 Q1008=
200806240450 METAR ESMX 240450Z 26012KT 9999 FEW027 SCT031 OVC038 10/05 Q1008=
200806240420 METAR ESMX 240420Z 26015KT 230V290 9999 OVC030 10/04 Q1008=
200806240350 METAR ESMX 240350Z AUTO 26014G26KT 9999NDV OVC031/// 10/04 Q1008=
200806240320 METAR ESMX 240320Z AUTO 27014KT 240V310 9999NDV BKN032/// 10/04 Q1007=
200806240250 METAR ESMX 240250Z AUTO 26014G27KT 220V320 9999NDV BKN029/// 10/04 Q1007=
200806240220 METAR ESMX 240220Z AUTO 26014KT 220V290 9999NDV BKN030/// 10/04 Q1007=
200806240150 METAR ESMX 240150Z AUTO 26016G27KT 210V290 9999NDV BKN030/// 10/04 Q1007=
200806240120 METAR ESMX 240120Z AUTO 25015G26KT 230V290 9999NDV OVC030/// 11/05 Q1007=
200806240050 METAR ESMX 240050Z AUTO 26015G29KT 9999NDV OVC030/// 10/05 Q1007=
200806240020 METAR ESMX 240020Z AUTO 26016G27KT 230V300 9999NDV FEW028/// OVC031/// 11/05 Q1007=
200806232350 METAR ESMX 232350Z 26015G26KT 220V290 9999 OVC030 11/05 Q1007=
200806232320 METAR ESMX 232320Z 25015G26KT 200V300 9999 OVC030 11/05 Q1007=
200806232220 METAR ESMX 232220Z 26015KT 230V290 9999 OVC029 11/05 Q1007=
200806232120 METAR ESMX 232120Z 26017G29KT 220V290 9999 OVC030 12/05 Q1006=
200806232050 METAR ESMX 232050Z 26018KT 230V300 9999 OVC035 12/05 Q1006=
200806232020 METAR ESMX 232020Z 26017G27KT 9999 BKN033 OVC041 12/05 Q1006=
200806231950 METAR ESMX 231950Z 26016KT 230V290 9999 FEW030 SCT040 BKN045 12/06 Q1006=
200806231920 METAR ESMX 231920Z 26016G31KT 220V290 9999 FEW040CB BKN050 12/07 Q1005=
200806231850 METAR ESMX 231850Z 25015G26KT 220V290 9999 SHRA FEW025CB SCT040 BKN050 12/08 Q1005=
200806231820 METAR ESMX 231820Z 25014KT 210V270 9999 SHRA FEW023CB SCT030 BKN035 12/09 Q1005=
200806231750 METAR ESMX 231750Z 25014KT 230V290 9999 SHRA FEW025CB SCT035 BKN040 13/09 Q1005=
200806231720 METAR ESMX 231720Z 24012KT 210V280 9999 SHRA FEW022 SCT025CB BKN032 12/10 Q1005=
200806231650 METAR ESMX 231650Z 24011G23KT 200V270 9999 -SHRA FEW014 SCT027CB BKN037 12/10 Q1005=
200806231620 METAR ESMX 231620Z 24011KT 200V280 9999 SHRA FEW017 SCT035CB BKN051 12/10 Q1005 RERA=
200806231550 METAR ESMX 231550Z 26013KT 9999 FEW017 SCT032CB BKN048 13/10 Q1005 RERA=
200806231520 METAR ESMX 231520Z 25013KT 210V280 9999 -SHRA FEW022 SCT031CB BKN041 13/10 Q1005=
200806231450 METAR ESMX 231450Z 25013G23KT 210V280 9999 SHRA FEW020 SCT025CB BKN051 13/11 Q1004 REDZ=
200806231420 METAR ESMX 231420Z 25013G25KT 9999 -SHRA FEW018 SCT027CB 14/11 Q1004=
200806231350 METAR ESMX 231350Z 22014G24KT 200V260 9999 FEW019 SCT025 BKN039 15/12 Q1004=
200806231320 METAR ESMX 231320Z 22010KT 190V260 9999 FEW021 BKN028 BKN034 15/11 Q1004=
200806231250 METAR ESMX 231250Z 21013KT 170V240 9999 FEW020 BKN024 14/11 Q1004=
200806231220 METAR ESMX 231220Z 21011KT 160V240 9999 FEW022 BKN028 OVC033 15/10 Q1004=
200806231150 METAR ESMX 231150Z 21012KT 9000 -SHRA FEW012CB BKN025 14/10 Q1004=
200806231120 METAR ESMX 231120Z 22011KT 9999 FEW015CB BKN030 14/09 Q1004=
200806231050 METAR ESMX 231050Z 22013G24KT 190V270 9999 FEW017 BKN030 15/09 Q1004=
200806231020 METAR ESMX 231020Z 22013G23KT 170V250 9999 FEW028 BKN032 OVC042 16/09 Q1004=
200806230950 METAR ESMX 230950Z 23014KT 200V270 9999 FEW028 BKN044 16/09 Q1003=
200806230920 METAR ESMX 230920Z 23015KT 200V270 9999 FEW025CB BKN030 BKN045 14/09 Q1004=
200806230850 METAR ESMX 230850Z 24011KT 9999 -SHRA FEW015CB BKN035 BKN050 14/10 Q1004=
200806230820 METAR ESMX 230820Z 22013KT 190V260 9999 SCT030TCU BKN050 16/08 Q1004=
200806230750 METAR ESMX 230750Z 23016KT 200V260 9999 FEW030TCU BKN050 16/08 Q1003=
200806230720 METAR ESMX 230720Z 23015G25KT 200V280 9999 FEW020TCU BKN040 17/08 Q1003=
200806230650 METAR ESMX 230650Z 23016G26KT 9999 FEW020 SCT040 16/09 Q1003=
200806230620 METAR ESMX 230620Z 23012KT 200V280 9999 SCT020 16/10 Q1003=
200806230550 METAR ESMX 230550Z 23014KT 9999 FEW018 SCT040 16/11 Q1003=
200806230520 METAR ESMX 230520Z 22012KT 200V270 9999 SCT017 15/11 Q1003=
200806230450 METAR ESMX 230450Z 23010KT 190V280 9999 FEW015 15/11 Q1003=
200806230420 METAR ESMX 230420Z 24010KT 200V270 9999 FEW015 15/12 Q1004=
200806230350 METAR ESMX 230350Z 22011KT 9999 SCT010 15/12 Q1004=
200806230320 METAR ESMX 230320Z AUTO 23007KT 200V260 9999NDV FEW011/// SCT015/// 14/13 Q1004=
200806230250 METAR ESMX 230250Z AUTO 23008KT 9999NDV FEW008/// SCT040/// 15/13 Q1003=
200806230220 METAR ESMX 230220Z AUTO 22006KT 9999NDV FEW008/// BKN010/// BKN014/// 15/14 Q1004=
200806230150 METAR ESMX 230150Z AUTO 22006KT 9999NDV FEW009/// BKN010/// 15/14 Q1004=
200806230120 METAR ESMX 230120Z AUTO 22007KT 9999NDV FEW008/// OVC009/// 15/14 Q1004=
200806230050 METAR ESMX 230050Z 21008KT 9999 SCT007 BKN010 15/14 Q1004=
200806230020 METAR ESMX 230020Z 20010KT 9999 FEW007 BKN010 15/14 Q1005=
200806222350 METAR ESMX 222350Z 17008KT 9999 FEW013 SCT018 BKN050 15/13 Q1005=
200806222320 METAR ESMX 222320Z 17007KT 9999 FEW005 SCT040 BKN110 14/13 Q1005=
200806222250 METAR ESMX 222250Z 17006KT 140V200 9999 FEW005 SCT073 BKN084 14/13 Q1005=
200806222150 METAR ESMX 222150Z 16006KT 100V210 9999 FEW010 SCT100 14/13 Q1006=
200806222120 METAR ESMX 222120Z 16006KT 110V190 9999 FEW038 BKN090 15/12 Q1006=
200806222050 METAR ESMX 222050Z 15007KT 120V190 9999 FEW035 SCT045 BKN100 15/12 Q1007=
200806222020 METAR ESMX 222020Z 15008KT 9999 FEW035 SCT049 BKN100 15/12 Q1007=
200806221950 METAR ESMX 221950Z 16008KT 130V190 9999 FEW031 SCT036 BKN052 15/13 Q1008=
200806221920 METAR ESMX 221920Z 15008KT 110V180 9999 FEW035 SCT150 15/13 Q1008=
200806221850 METAR ESMX 221850Z 16009KT 9999 FEW015 SCT040 16/13 Q1009=
200806221820 METAR ESMX 221820Z 16009KT 110V190 9999 FEW015 SCT045 BKN055 16/13 Q1009=
200806221750 METAR ESMX 221750Z 16008KT 110V200 9999 FEW014 SCT047 16/13 Q1009=
200806221720 METAR ESMX 221720Z 16009KT 120V190 9999 FEW014 BKN022 16/13 Q1010=
200806221650 METAR ESMX 221650Z 17008KT 9999 FEW015 SCT025 BKN070 16/13 Q1010=
200806221620 METAR ESMX 221620Z 17012KT 9999 BKN015 15/12 Q1011=
200806221550 METAR ESMX 221550Z 17009KT 9999 BKN015 15/13 Q1011 REDZ RERA=
200806221520 METAR ESMX 221520Z 17009KT 120V200 9999 SCT015 BKN020 15/12 Q1012=
200806221450 METAR ESMX 221450Z 16010KT 9999 BKN017 15/11 Q1012=
200806221420 METAR ESMX 221420Z 17011KT 140V200 9999 FEW019 SCT023 BKN028 15/11 Q1012=
200806221350 METAR ESMX 221350Z 17010KT 9999 SCT025 BKN060 15/11 Q1013=
200806221320 METAR ESMX 221320Z 17009KT 140V200 9999 FEW012 BKN070 15/10 Q1013=
200806221250 METAR ESMX 221250Z 15007KT 110V170 9999 FEW012 SCT035 BKN080 14/11 Q1013 REDZ=
200806221220 METAR ESMX 221220Z 14005KT 080V170 9999 -DZ FEW010 SCT035 BKN070 13/10 Q1014=
200806221145 METAR COR ESMX 221145Z 15004KT 110V170 9999 -DZ SCT012 BKN040 12/10 Q1015 RERA=
200806221120 METAR ESMX 221120Z 15004KT 110V170 9999 -DZ SCT012 BKN040 12/10 Q1015 RERA=
200806221050 METAR ESMX 221050Z 16005KT 110V200 8000 -RA SCT010 BKN030 11/10 Q1015=
200806221020 METAR ESMX 221020Z AUTO 17007KT 140V220 7000NDV -RA FEW007/// SCT024/// BKN033/// 11/09 Q1016 REDZ=
200806220950 METAR ESMX 220950Z AUTO 20009KT 9999NDV DZ FEW013/// SCT027/// BKN037/// 12/09 Q1016 RERA=
200806220920 METAR ESMX 220920Z AUTO 19007KT 9999NDV -RA FEW014/// BKN039/// BKN047/// 12/09 Q1016 REDZ=
200806220850 METAR ESMX 220850Z AUTO 21005KT 170V240 9999NDV -RA BKN039/// 12/10 Q1016=
200806220820 METAR ESMX 220820Z AUTO 21005KT 170V250 9999NDV DZ BKN037/// 12/09 Q1016=
200806220750 METAR ESMX 220750Z AUTO 21004KT 9999NDV -DZ BKN039/// 12/09 Q1016 RERA=
200806220720 METAR ESMX 220720Z AUTO 23005KT 9999NDV -RA OVC048/// 12/09 Q1016 REDZ=
200806220650 METAR ESMX 220650Z AUTO 23006KT 9999NDV BKN055/// 12/09 Q1016 REDZ RERA=
200806220620 METAR ESMX 220620Z AUTO 22006KT 180V250 9999NDV FEW072/// SCT086/// 11/08 Q1016=
200806220550 METAR ESMX 220550Z AUTO 24004KT 200V280 9999NDV FEW099/// 11/08 Q1016=
200806220520 METAR ESMX 220520Z AUTO 23004KT 9999NDV FEW100/// 11/08 Q1016=
200806220450 METAR ESMX 220450Z AUTO 20004KT 9999NDV NCD 10/08 Q1016=
200806220420 METAR ESMX 220420Z AUTO 19004KT 9999NDV NCD 09/08 Q1016=
200806220350 METAR ESMX 220350Z AUTO 20003KT 9999NDV NCD 08/07 Q1016=
200806220320 METAR ESMX 220320Z AUTO 20004KT 9999NDV NCD 07/06 Q1016=
200806220250 METAR ESMX 220250Z AUTO 22004KT 9999NDV NCD 06/05 Q1016=
200806220220 METAR ESMX 220220Z AUTO 22004KT 9999NDV NCD 06/05 Q1016=
200806220150 METAR ESMX 220150Z AUTO 21004KT 9999NDV NCD 07/06 Q1016=
200806220120 METAR ESMX 220120Z AUTO 23004KT 9999NDV NCD 07/06 Q1016=
200806220050 METAR ESMX 220050Z AUTO 22004KT 9999NDV NCD 07/06 Q1016=
200806220020 METAR ESMX 220020Z AUTO 22004KT 9999NDV NCD 08/06 Q1016=
200806212350 METAR ESMX 212350Z AUTO 22004KT 9999NDV NCD 08/06 Q1016=
200806212320 METAR ESMX 212320Z AUTO 22005KT 9999NDV NCD 09/06 Q1016=
200806212250 METAR ESMX 212250Z AUTO 24004KT 200V270 9999NDV NCD 09/06 Q1016=
200806212220 METAR ESMX 212220Z AUTO 24005KT 200V260 9999NDV NCD 10/06 Q1016=
200806212150 METAR ESMX 212150Z AUTO 26007KT 9999NDV NCD 11/06 Q1016=
200806212120 METAR ESMX 212120Z AUTO 26008KT 9999NDV FEW030/// 11/06 Q1016=
200806212050 METAR ESMX 212050Z AUTO 26009KT 230V290 9999NDV FEW030/// 11/06 Q1016=
200806212020 METAR ESMX 212020Z AUTO 25008KT 210V280 9999NDV NCD 12/06 Q1016=
200806211950 METAR ESMX 211950Z AUTO 26009KT 9999NDV FEW034/// 12/06 Q1015=
200806211920 METAR ESMX 211920Z AUTO 27010KT 230V290 9999NDV FEW037/// 13/06 Q1015=
200806211850 METAR ESMX 211850Z AUTO 25012KT 220V290 9999NDV FEW037/// 13/06 Q1015=
200806211820 METAR ESMX 211820Z AUTO 26012KT 230V290 9999NDV SCT040/// 14/05 Q1015=
200806211750 METAR ESMX 211750Z AUTO 27013KT 9999NDV SCT041/// 14/05 Q1014=
200806211720 METAR ESMX 211720Z AUTO 27016G26KT 220V300 9999NDV SCT042/// 15/05 Q1014=
200806211650 METAR ESMX 211650Z AUTO 27014G28KT 240V320 9999NDV FEW045/// 15/05 Q1014=
200806211620 METAR ESMX 211620Z AUTO 26015G26KT 230V300 9999NDV FEW045/// 15/05 Q1014=
200806211550 METAR ESMX 211550Z AUTO 27015G25KT 230V310 9999NDV SCT049/// 16/05 Q1014=
200806211520 METAR ESMX 211520Z AUTO 27016KT 230V300 9999NDV FEW047/// SCT054/// 15/05 Q1014=
200806211450 METAR ESMX 211450Z AUTO 26017KT 230V290 9999NDV BKN040/// BKN059/// 15/04 Q1014=
200806211420 METAR ESMX 211420Z AUTO 24015KT 210V290 9999NDV SCT040/// BKN046/// BKN059/// 15/07 Q1013=
200806211350 METAR ESMX 211350Z AUTO 26016KT 220V300 9999NDV FEW041/// BKN053/// 16/06 Q1013=
200806211320 METAR ESMX 211320Z AUTO 25017KT 210V290 9999NDV FEW042/// SCT058/// 15/06 Q1013=
200806211250 METAR ESMX 211250Z AUTO 26013KT 230V290 9999NDV FEW027/// SCT035/// BKN048/// 14/07 Q1013=
200806211220 METAR ESMX 211220Z AUTO 24013KT 200V280 9999NDV FEW027/// SCT060/// 15/09 Q1013=
200806211150 METAR ESMX 211150Z AUTO 25014KT 230V290 9999NDV FEW027/// SCT051/// BKN063/// 13/09 Q1013 RERA=
200806211120 METAR ESMX 211120Z AUTO 24017KT 210V270 9999NDV FEW032/// SCT055/// 15/07 Q1012=
200806211050 METAR ESMX 211050Z AUTO 25014KT 220V280 9999NDV FEW027/// SCT042/// BKN051/// 15/08 Q1012=
200806211020 METAR ESMX 211020Z AUTO 25011KT 210V280 9999NDV FEW020/// SCT025/// BKN031/// 13/08 Q1012=
200806210950 METAR ESMX 210950Z AUTO 24011KT 190V270 9999NDV NCD 13/09 Q1012=
200806210920 METAR ESMX 210920Z AUTO 25010KT 220V290 9999NDV FEW020/// SCT048/// 12/09 Q1012 RERA=
200806210850 METAR ESMX 210850Z AUTO 22012KT 9999NDV FEW021/// SCT034/// 13/09 Q1012=
200806210820 METAR ESMX 210820Z AUTO 24009KT 200V270 9999NDV FEW015/// SCT021/// 13/09 Q1012=
200806210750 METAR ESMX 210750Z AUTO 21008KT 170V250 9999NDV FEW009/// SCT089/// 12/10 Q1012=
200806210720 METAR ESMX 210720Z AUTO 22006KT 9999NDV FEW040/// 10/09 Q1012 RERA REDZ=
200806210650 METAR ESMX 210650Z AUTO 23009KT 9999NDV -RA FEW041/// 10/09 Q1012 REDZ=
200806210620 METAR ESMX 210620Z AUTO 23006KT 210V290 9000NDV -RA FEW017/// SCT027/// BKN051/// 10/08 Q1012=
200806210550 METAR ESMX 210550Z AUTO 23008KT 200V260 9999NDV FEW013/// SCT021/// BKN027/// 11/09 Q1012 RERA REDZ=
200806210520 METAR ESMX 210520Z AUTO 22009KT 170V240 9999NDV FEW035/// 11/08 Q1012=
200806210450 METAR ESMX 210450Z AUTO 21006KT 190V250 9999NDV FEW022/// SCT031/// BKN065/// 10/08 Q1012=
200806210420 METAR ESMX 210420Z AUTO 21007KT 9999NDV FEW032/// SCT043/// BKN053/// 10/08 Q1012 RERA REDZ=
200806210350 METAR ESMX 210350Z AUTO 20007KT 9999NDV NCD 09/08 Q1012=
200806210320 METAR ESMX 210320Z AUTO 20007KT 9999NDV NCD 09/08 Q1011=
200806210250 METAR ESMX 210250Z AUTO 20007KT 9999NDV FEW024/// 09/08 Q1012=
200806210220 METAR ESMX 210220Z AUTO 20007KT 9999NDV SCT072/// 09/08 Q1012=
200806210150 METAR ESMX 210150Z AUTO 20005KT 9999NDV FEW043/// 09/08 Q1012=
200806210120 METAR ESMX 210120Z AUTO 20006KT 9999NDV FEW028/// 09/08 Q1012=
200806210050 METAR ESMX 210050Z AUTO 21006KT 9999NDV FEW025/// SCT072/// 09/08 Q1012=
200806210020 METAR ESMX 210020Z AUTO 21005KT 9999NDV FEW061/// 09/08 Q1012=
200806202350 METAR ESMX 202350Z AUTO 19005KT 9999NDV BKN060/// 09/08 Q1012=
200806202320 METAR ESMX 202320Z AUTO 19005KT 9999NDV SCT066/// 09/08 Q1012=
200806202250 METAR ESMX 202250Z AUTO 20006KT 9999NDV FEW049/// 09/08 Q1012=
200806202220 METAR ESMX 202220Z AUTO 22005KT 9999NDV SCT055/// 10/08 Q1012=
200806202150 METAR ESMX 202150Z AUTO 21006KT 9999NDV FEW045/// BKN060/// BKN080/// 10/09 Q1012 REDZ RERA=
200806202120 METAR ESMX 202120Z AUTO 20005KT 9999NDV FEW046/// BKN070/// 10/09 Q1012=
200806202050 METAR ESMX 202050Z AUTO 20007KT 9999NDV FEW054/// SCT083/// 11/08 Q1012=
200806202020 METAR ESMX 202020Z AUTO 24006KT 210V290 9999NDV BKN051/// 12/08 Q1012=
200806201950 METAR ESMX 201950Z AUTO 24008KT 9999NDV FEW053/// SCT099/// 12/09 Q1011 RERA REDZ=
200806201920 METAR ESMX 201920Z AUTO 26012G22KT 9000NDV DZ FEW021/// SCT076/// BKN090/// 12/09 Q1011 RERA=
200806201850 METAR ESMX 201850Z 24005KT 210V270 9999 VCSH FEW030CB SCT100 13/09 Q1011=
200806201820 METAR ESMX 201820Z 24006KT 200V260 9999 VCSH FEW030CB SCT100 13/08 Q1011=
200806201750 METAR ESMX 201750Z 24006KT 9999 VCSH FEW030CB SCT100 13/09 Q1011=
200806201720 METAR ESMX 201720Z 27016G27KT 240V310 9999 -SHRA FEW026CB SCT091 14/08 Q1011=
200806201650 METAR ESMX 201650Z 23011KT 210V270 9999 FEW035 SCT100 16/07 Q1010=
200806201620 METAR ESMX 201620Z 25013KT 220V280 9999 FEW035 SCT100 17/07 Q1010=
200806201550 METAR ESMX 201550Z 28012KT 250V320 9999 VCSH FEW035CB SCT100 16/09 Q1010=
200806201520 METAR ESMX 201520Z AUTO 28010KT 240V300 9999NDV FEW033/// SCT046/// BKN074/// 16/08 Q1010=
200806201450 METAR ESMX 201450Z AUTO 25007KT 190V310 9999NDV FEW039/// SCT050/// BKN075/// 17/08 Q1010=
200806201420 METAR ESMX 201420Z AUTO 27008KT 220V300 9999NDV FEW046/// 18/09 Q1010 RERA=
200806201350 METAR ESMX 201350Z AUTO 28013KT 250V310 9999NDV FEW041/// BKN082/// 17/09 Q1010=
200806201320 METAR ESMX 201320Z AUTO 24009KT 180V280 9999NDV FEW055/// 17/07 Q1010=
200806201250 METAR ESMX 201250Z AUTO 27007KT 230V300 9999NDV FEW013/// SCT085/// 17/08 Q1010=
200806201220 METAR ESMX 201220Z AUTO 21012KT 170V240 9999NDV FEW039/// SCT090/// 19/10 Q1010=
200806201150 METAR ESMX 201150Z AUTO 23012G22KT 200V270 9999NDV FEW035/// 18/10 Q1010=
200806201120 METAR ESMX 201120Z AUTO 24013KT 210V290 9999NDV NCD 17/09 Q1010=
200806201050 METAR ESMX 201050Z AUTO 21008KT 180V240 9999NDV FEW060/// 16/13 Q1010 RERA REDZ=
200806201020 METAR ESMX 201020Z AUTO 20007KT 9999NDV FEW031/// 13/11 Q1010 RERA=
200806200950 METAR ESMX 200950Z AUTO 24008KT 200V270 9999NDV FEW045/// 17/10 Q1010 RERA=
200806200920 METAR ESMX 200920Z AUTO 23010KT 9999NDV FEW033/// BKN064/// 15/10 Q1010 RERA=
200806200850 METAR ESMX 200850Z 23012KT 9999 FEW025TCU BKN060 16/09 Q1010=
200806200820 METAR ESMX 200820Z 22012KT 9999 FEW05TCU SCT060 16/09 Q1010=
200806200750 METAR ESMX 200750Z 22009KT 180V250 9999 FEW025TCU BKN062 16/10 Q1010=
200806200720 METAR ESMX 200720Z 22014KT 9999 FEW021 SCT030 BKN065 16/09 Q1010=
200806200650 METAR ESMX 200650Z 24010KT 9999 SCT020 14/10 Q1010=
200806200620 METAR ESMX 200620Z 22008KT 190V250 9999 FEW014 SCT017 BKN020 13/10 Q1010=
200806200550 METAR ESMX 200550Z 22008KT 190V250 9999 FEW012 SCT020 13/11 Q1010=
200806200520 METAR ESMX 200520Z 21006KT 190V250 9999 FEW010 13/11 Q1010=
200806200450 METAR ESMX 200450Z 22006KT 9999 FEW012 12/11 Q1009=
200806200420 METAR ESMX 200420Z AUTO 22005KT 9999NDV NCD 11/10 Q1009=
200806200350 METAR ESMX 200350Z AUTO 23005KT 9999NDV NCD 11/10 Q1009=
200806200320 METAR ESMX 200320Z AUTO 23005KT 200V270 9999NDV NCD 10/10 Q1009=
200806200250 METAR ESMX 200250Z AUTO 23005KT 9999NDV NCD 11/10 Q1009=
200806200220 METAR ESMX 200220Z AUTO 23005KT 8000NDV BR FEW027/// 11/10 Q1009=
200806200150 METAR ESMX 200150Z AUTO 21006KT 8000NDV BR FEW007/// 11/10 Q1008=
200806200120 METAR ESMX 200120Z AUTO 21006KT 9999NDV FEW021/// 12/11 Q1008=
200806200050 METAR ESMX 200050Z AUTO 21005KT 9999NDV BR FEW018/// SCT022/// 12/11 Q1008=
200806200020 METAR ESMX 200020Z AUTO 21006KT 9000NDV BR FEW008/// SCT012/// 12/11 Q1008=
200806192350 METAR ESMX 192350Z AUTO 21006KT 9000NDV FEW008/// SCT011/// BKN043/// 13/12 Q1008=
200806192320 METAR ESMX 192320Z AUTO 22007KT 7000NDV BR FEW010/// SCT015/// BKN039/// 13/12 Q1008=
200806192250 METAR ESMX 192250Z AUTO 21006KT 5000NDV BR FEW011/// SCT031/// BKN053/// 13/12 Q1008=
200806192220 METAR ESMX 192220Z AUTO 22007KT 6000NDV BR FEW008/// SCT017/// BKN067/// 13/12 Q1008=
200806192150 METAR ESMX 192150Z AUTO 21006KT 4700NDV BR FEW010/// SCT025/// BKN029/// 14/13 Q1008=
200806192120 METAR ESMX 192120Z AUTO 20006KT 5000NDV BR FEW012/// SCT017/// BKN020/// 14/13 Q1008 RERA REDZ=
200806192050 METAR ESMX 192050Z AUTO 20004KT 4300NDV -RA FEW030/// SCT036/// BKN042/// 14/13 Q1008 REDZ=
200806192020 METAR ESMX 192020Z AUTO 22005KT 6000NDV -RA NCD 14/13 Q1008=
200806191950 METAR ESMX 191950Z AUTO 23006KT 190V260 7000NDV RA FEW068/// 14/13 Q1008 REDZ=
200806191920 METAR ESMX 191920Z AUTO 24008KT 6000NDV -RA FEW015/// SCT030/// BKN036/// 14/13 Q1008 REDZ=
200806191850 METAR ESMX 191850Z 17009KT 140V230 9999 SCT020CB BKN070 18/13 Q1007=
200806191820 METAR ESMX 191820Z 16006KT 140V210 9999 FEW040 BKN070 18/12 Q1007=
200806191750 METAR ESMX 191750Z 18005KT 9999 FEW040 BKN050 18/13 Q1007 RERA REDZ=
200806191720 METAR ESMX 191720Z 17008KT 9999 FEW020 BKN078 19/12 Q1007=
200806191650 METAR ESMX 191650Z 16008KT 9999 FEW020CB BKN080 18/13 Q1007=
200806191620 METAR ESMX 191620Z 16007KT 9999 FEW047 SCT065 BKN079 17/12 Q1007 REDZ RERA=
200806191550 METAR ESMX 191550Z 17010KT 9999 -RA FEW035 SCT078 18/11 Q1007=
200806191520 METAR ESMX 191520Z 16009KT 130V200 9999 FEW020 BKN070 20/10 Q1007=
200806191450 METAR ESMX 191450Z 16009KT 110V200 9999 FEW030 BKN070 20/09 Q1008=
200806191420 METAR ESMX 191420Z 16007KT 110V200 9999 FEW017 BKN070 19/09 Q1008 REDZ=
200806191350 METAR ESMX 191350Z 17011KT 130V200 9999 FEW020 BKN080 19/08 Q1009=
200806191320 METAR ESMX 191320Z 17008KT 130V200 9999 FEW025 SCT100 19/09 Q1009=
200806191250 METAR ESMX 191250Z 16009KT 110V200 9999 FEW025 SCT100 20/09 Q1009=
200806191220 METAR ESMX 191220Z 15010KT 9999 FEW020 BKN100 19/09 Q1009=
200806191150 METAR ESMX 191150Z 16007KT 100V210 9999 FEW025 BKN080 18/11 Q1010=
200806191120 METAR ESMX 191120Z 15006KT 120V180 9999 SCT025 BKN060 16/11 Q1010 RERA=
200806191050 METAR ESMX 191050Z 16008KT 120V200 9999 -RA FEW036 BKN080 17/09 Q1010=
200806191020 METAR ESMX 191020Z 17008KT 140V200 9999 SCT040 BKN080 18/09 Q1011=
200806190950 METAR ESMX 190950Z 17007KT 110V220 9999 SCT045 BKN080 19/08 Q1011=
200806190920 METAR ESMX 190920Z 20009KT CAVOK 19/08 Q1011=
200806190850 METAR ESMX 190850Z 17007KT 140V200 CAVOK 18/08 Q1011=
200806190820 METAR ESMX 190820Z 19008KT 160V230 CAVOK 17/08 Q1011=
200806190750 METAR ESMX 190750Z 20007KT CAVOK 16/08 Q1011=
200806190720 METAR ESMX 190720Z 19005KT 140V230 CAVOK 15/09 Q1011=
200806190650 METAR ESMX 190650Z 20006KT CAVOK 14/10 Q1011=
200806190620 METAR ESMX 190620Z 22007KT 9999 -RA FEW090 BKN150 15/09 Q1011=
200806190550 METAR ESMX 190550Z 20008KT 9999 -RA FEW091 BKN150 14/09 Q1011=
200806190520 METAR ESMX 190520Z 20007KT 150V230 CAVOK 15/09 Q1011=
200806190450 METAR ESMX 190450Z 21007KT CAVOK 14/09 Q1011=
200806190420 METAR ESMX 190420Z 21007KT CAVOK 14/09 Q1011=
200806190350 METAR ESMX 190350Z 20007KT CAVOK 13/09 Q1011=
200806190320 METAR ESMX 190320Z AUTO 19006KT 9999NDV FEW056/// 13/09 Q1011=
200806190250 METAR ESMX 190250Z AUTO 18006KT 9999NDV BKN056/// 13/09 Q1011=
200806190220 METAR ESMX 190220Z AUTO 19006KT 9999NDV OVC059/// 13/09 Q1012=
200806190150 METAR ESMX 190150Z AUTO 18005KT 9999NDV FEW062/// OVC078/// 13/09 Q1012=
200806190120 METAR ESMX 190120Z AUTO 19005KT 9999NDV OVC062/// 13/09 Q1012=
200806190050 METAR ESMX 190050Z 21005KT CAVOK 12/08 Q1012=
200806190020 METAR ESMX 190020Z 20005KT CAVOK 12/08 Q1012=
200806182350 METAR ESMX 182350Z 20004KT CAVOK 12/08 Q1012=
200806182320 METAR ESMX 182320Z 20004KT CAVOK 13/08 Q1012=
200806182250 METAR ESMX 182250Z 22004KT CAVOK 13/07 Q1012=
200806182220 METAR ESMX 182220Z 19005KT CAVOK 14/08 Q1012=
200806182150 METAR ESMX 182150Z 19006KT CAVOK 14/08 Q1012=
200806182120 METAR ESMX 182120Z 19006KT CAVOK 14/08 Q1012=
200806182050 METAR ESMX 182050Z 18005KT CAVOK 15/08 Q1012=
200806182020 METAR ESMX 182020Z 18005KT CAVOK 16/08 Q1012=
200806181950 METAR ESMX 181950Z 19005KT CAVOK 16/08 Q1012=
200806181920 METAR ESMX 181920Z 19004KT CAVOK 16/08 Q1012=
200806181850 METAR ESMX 181850Z 21004KT CAVOK 17/07 Q1012=
200806181750 METAR ESMX 181750Z 22006KT 190V250 CAVOK 18/07 Q1012=
200806181720 METAR ESMX 181720Z 23005KT 190V260 CAVOK 18/06 Q1012=
200806181650 METAR ESMX 181650Z 22003KT 180V250 CAVOK 18/06 Q1012=
200806181620 METAR ESMX 181620Z 24007KT CAVOK 18/06 Q1012=
200806181550 METAR ESMX 181550Z 21008KT CAVOK 19/04 Q1012=
200806181520 METAR ESMX 181520Z 22008KT CAVOK 20/05 Q1012=
200806181450 METAR ESMX 181450Z 22009KT 190V260 CAVOK 18/04 Q1012=
200806181420 METAR ESMX 181420Z 22010KT 200V260 9999 FEW051 19/05 Q1012=
200806181350 METAR ESMX 181350Z 23007KT 190V280 9999 FEW040TCU 19/05 Q1012=
200806181320 METAR ESMX 181320Z 22010KT 180V260 9999 FEW040TCU SCT200 20/05 Q1012=
200806181220 METAR ESMX 181220Z 25008KT 220V290 9999 FEW040TCU BKN080 18/05 Q1013=
200806181150 METAR ESMX 181150Z 24009KT 200V280 9999 SCT040TCU BKN080 18/05 Q1013=
200806181120 METAR ESMX 181120Z 22009G21KT 160V260 9999 SCT040TCU BKN070 19/06 Q1013=
200806181050 METAR ESMX 181050Z 25009KT 9999 FEW030CB BKN070 16/06 Q1013=
200806181020 METAR ESMX 181020Z 23008KT 190V270 9999 SCT030TCU BKN070 18/08 Q1013=
200806180950 METAR ESMX 180950Z 24005KT 170V300 9999 FEW030TCU SCT070 17/09 Q1013=
200806180920 METAR ESMX 180920Z 24008KT 200V290 9999 SCT040 16/08 Q1013=
200806180850 METAR ESMX 180850Z 25008KT 210V290 9999 SCT030 16/08 Q1013=
200806180820 METAR ESMX 180820Z 23008KT 190V270 9999 SCT029 16/08 Q1013=
200806180750 METAR ESMX 180750Z 23008KT 190V270 CAVOK 15/09 Q1013=
200806180720 METAR ESMX 180720Z 21009KT CAVOK 14/10 Q1013=
200806180650 METAR ESMX 180650Z 23006KT CAVOK 14/09 Q1013=
200806180620 METAR ESMX 180620Z 22006KT 190V250 CAVOK 12/09 Q1013=
200806180550 METAR ESMX 180550Z 21005KT 190V250 CAVOK 12/09 Q1013=
200806180520 METAR ESMX 180520Z 21005KT CAVOK 11/09 Q1013=
200806180450 METAR ESMX 180450Z 20004KT 9999 FEW075 09/08 Q1013=
200806180420 METAR ESMX 180420Z 22005KT 200V260 CAVOK 09/08 Q1013=
200806180350 METAR ESMX 180350Z 21004KT CAVOK 08/07 Q1013=
200806180320 METAR ESMX 180320Z AUTO 22005KT 9999NDV NCD 07/07 Q1013=
200806180250 METAR ESMX 180250Z AUTO 22005KT 9999NDV NCD 06/05 Q1013=
200806180220 METAR ESMX 180220Z AUTO 22004KT 9999NDV NCD 06/06 Q1013=
200806180150 METAR ESMX 180150Z AUTO 22005KT 3200NDV NCD 06/05 Q1013=
200806180120 METAR ESMX 180120Z AUTO 22005KT 7000NDV NCD 05/05 Q1013=
200806180050 METAR ESMX 180050Z AUTO 22004KT 3100NDV NCD 06/05 Q1013=
200806180020 METAR ESMX 180020Z AUTO 24002KT 2700NDV NCD 07/06 Q1012=
200806172350 METAR ESMX 172350Z 24003KT CAVOK 07/06 Q1012=
200806172320 METAR ESMX 172320Z 22004KT CAVOK 08/06 Q1012=
200806172250 METAR ESMX 172250Z 23004KT CAVOK 08/06 Q1012=
200806172220 METAR ESMX 172220Z 20003KT CAVOK 10/07 Q1012=
200806172150 METAR ESMX 172150Z 24005KT CAVOK 10/07 Q1012=
200806172120 METAR ESMX 172120Z 24005KT 200V270 CAVOK 10/07 Q1012=
200806172050 METAR ESMX 172050Z 23005KT CAVOK 10/07 Q1012=
200806172020 METAR ESMX 172020Z 22004KT CAVOK 10/08 Q1012=
200806171950 METAR ESMX 171950Z 24005KT 9999 SCT040 12/09 Q1012=
200806171920 METAR ESMX 171920Z 24004KT 9999 FEW028 SCT036CB 12/09 Q1012 RESHRA=
200806171850 METAR ESMX 171850Z 32006KT 290V360 9999 -SHRA FEW017 SCT030CB 13/09 Q1011=
200806171820 METAR ESMX 171820Z 27003KT 230V340 9999 FEW032CB SCT045 13/10 Q1011=
200806171750 METAR ESMX 171750Z 24006KT 9999 FEW036CB SCT085 13/09 Q1011=
200806171720 METAR ESMX 171720Z 24008KT 210V310 CAVOK 14/09 Q1010=
200806171650 METAR ESMX 171650Z 24007KT CAVOK 14/09 Q1010=
200806171620 METAR ESMX 171620Z 23009KT 9999 BKN025CB SCT060 13/08 Q1010=
200806171550 METAR ESMX 171550Z 25009KT 9999 FEW025CB 13/09 Q1010=
200806171520 METAR ESMX 171520Z 26011KT 230V290 CAVOK 14/08 Q1010=
200806171450 METAR ESMX 171450Z 25008KT CAVOK 14/09 Q1010=
200806171420 METAR ESMX 171420Z 27011KT 9999 FEW027 15/10 Q1010=
200806171350 METAR ESMX 171350Z 27009KT 230V310 CAVOK 14/10 Q1009=
200806171320 METAR ESMX 171320Z 25009KT 200V280 9999 FEW020 SCT032 BKN039 13/10 Q1009 RERA=
200806171250 METAR ESMX 171250Z 23005KT 180V270 9999 -SHRA FEW022CB SCT027 14/09 Q1009=
200806171220 METAR ESMX 171220Z 22006KT 200V260 9999 FEW025CB SCT044 16/10 Q1009=
200806171150 METAR ESMX 171150Z 25006KT 220V290 9999 FEW020CB SCT050 14/10 Q1009 RERA=
200806171120 METAR ESMX 171120Z 23007KT 9999 -RA FEW020CB SCT050 13/10 Q1009=
200806171050 METAR ESMX 171050Z 24008KT 210V280 9999 -SHRA FEW022CB SCT031 11/09 Q1009=
200806171020 METAR ESMX 171020Z 31004KT 9999 FEW023CB SCT046 12/09 Q1009 RERA=
200806170920 METAR ESMX 170920Z 22007KT 190V270 9999 FEW020CB SCT030 BKN060 14/08 Q1008=
200806170850 METAR ESMX 170850Z 23010KT 200V260 9999 FEW030CB BKN050 12/07 Q1008=
200806170820 METAR ESMX 170820Z 27006KT 240V310 9999 FEW025CB SCT035 BKN050 14/07 Q1008=
200806170750 METAR ESMX 170750Z 24005KT 210V270 9999 SCT020CB BKN060 13/07 Q1008=
200806170720 METAR ESMX 170720Z 27005KT 230V310 9999 FEW025CB BKN060 13/07 Q1008=
200806170650 METAR ESMX 170650Z 28005KT 250V360 9999 FEW025TCU SCT060 12/08 Q1008=
200806170620 METAR ESMX 170620Z 25004KT 9999 FEW025TCU BKN060 11/07 Q1008=
200806170550 METAR ESMX 170550Z 27005KT 9999 FEW025 BKN060 11/08 Q1008=
200806170520 METAR ESMX 170520Z 27003KT 230V320 9999 FEW020 BKN070 10/09 Q1008=
200806170450 METAR ESMX 170450Z 23003KT 9999 FEW025 BKN080 08/08 Q1008=
200806170420 METAR ESMX 170420Z 21002KT CAVOK 08/07 Q1008=
200806170350 METAR ESMX 170350Z 20001KT 9999 FEW008 BKN075 07/07 Q1007=
200806170320 METAR ESMX 170320Z 19002KT CAVOK 06/05 Q1007=
200806170250 METAR ESMX 170250Z AUTO 00000KT 1100NDV R01/P2000U R19/P2000N BCFG BKN068/// 03/03 Q1007=
200806170220 METAR ESMX 170220Z AUTO 00000KT 3500NDV FG NCD 03/03 Q1007=
200806170150 METAR ESMX 170150Z AUTO VRB01KT 0700NDV R01/P2000 R19/P2000U FG NCD 04/03 Q1007=
200806170120 METAR ESMX 170120Z AUTO 19002KT 0600NDV R01/P2000U R19/P2000 FG NCD 05/04 Q1007=
200806170050 METAR ESMX 170050Z AUTO 23003KT 9999NDV FEW046/// 05/04 Q1007=
200806170020 METAR ESMX 170020Z AUTO 21004KT 9999NDV NCD 05/05 Q1007=
200806162350 METAR ESMX 162350Z 19004KT CAVOK 07/06 Q1007=
200806162320 METAR ESMX 162320Z 21003KT CAVOK 06/05 Q1007=
200806162250 METAR ESMX 162250Z 20004KT CAVOK 07/06 Q1007=
200806162220 METAR ESMX 162220Z 17003KT CAVOK 09/08 Q1007=
200806162150 METAR ESMX 162150Z 17003KT CAVOK 09/08 Q1007=
200806162120 METAR ESMX 162120Z 18004KT 9999 SCT049 BKN065 10/08 Q1007=
200806162050 METAR ESMX 162050Z 17005KT 9999 SCT048 BKN070 10/08 Q1007=
200806162020 METAR ESMX 162020Z 17003KT 9999 SCT047 BKN052 11/08 Q1007=
200806161950 METAR ESMX 161950Z 19004KT 9999 FEW045 BKN053 11/08 Q1007=
200806161920 METAR ESMX 161920Z 17003KT 9999 SCT045 12/08 Q1006 REDZ=
200806161850 METAR ESMX 161850Z 16004KT 9999 -SHRA FEW030 BKN055 12/08 Q1006=
200806161820 METAR ESMX 161820Z 18003KT 9999 FEW027 BKN062 12/07 Q1006=
200806161750 METAR ESMX 161750Z 21005KT 9999 FEW026 SCT037 13/07 Q1006=
200806161720 METAR ESMX 161720Z 21007KT 9999 SCT027 14/07 Q1006=
200806161650 METAR ESMX 161650Z 19007KT 150V210 9999 FEW032 14/07 Q1006=
200806161620 METAR ESMX 161620Z 20005KT 170V240 9999 FEW035 13/07 Q1006=
200806161550 METAR ESMX 161550Z 20006KT 9999 -SHRA FEW035CB SCT051 12/07 Q1006=
200806161520 METAR ESMX 161520Z 23008KT 9999 VCSH FEW021 SCT031CB BKN040 11/07 Q1006 RERA=
200806161450 METAR ESMX 161450Z 17008KT 130V210 9999 VCSH FEW031CB SCT046 BKN055 14/07 Q1005=
200806161420 METAR ESMX 161420Z 18011KT 140V210 9999 FEW030 SCT047 BKN054 14/07 Q1006=
200806161350 METAR ESMX 161350Z 17008KT 120V220 9999 FEW030 SCT059 BKN084 14/07 Q1006=
200806161320 METAR ESMX 161320Z 20008KT 160V230 9999 FEW029 SCT082 14/08 Q1006=
200806161250 METAR ESMX 161250Z 22004KT 170V280 9999 FEW030 SCT100 13/08 Q1006=
200806161220 METAR ESMX 161220Z 22011KT 9999 FEW030 SCT070 14/08 Q1006=
200806161150 METAR ESMX 161150Z 23005KT 200V260 9999 VCSH FEW028CB SCT091 13/10 Q1006 RERA=
200806161120 METAR ESMX 161120Z 22009KT 6000 -SHRA FEW009 SCT029CB BKN042 09/07 Q1006 RERA=
200806161050 METAR ESMX 161050Z 16005KT 130V190 9999 -SHRA FEW020 SCT037CB BKN047 10/07 Q1006=
200806161020 METAR ESMX 161020Z 21007KT 180V290 9999 VCSH FEW024 SCT043CB BKN064 13/08 Q1005 RERA=
200806160950 METAR ESMX 160950Z 20014KT 160V250 6000 VCSH FEW040CB SCT050 11/06 Q1005=
200806160920 METAR ESMX 160920Z 17007KT 130V210 9999 FEW030CB SCT040 15/06 Q1005=
200806160850 METAR ESMX 160850Z 21009KT 9999 FEW025CB SCT045 14/07 Q1005=
200806160820 METAR ESMX 160820Z 19008KT 150V220 9999 FEW020TCU SCT035 14/07 Q1005=
200806160750 METAR ESMX 160750Z 16008KT 120V200 9999 FEW020TCU SCT030 BKN070 13/07 Q1005=
200806160720 METAR ESMX 160720Z 17007KT 120V240 9999 SCT015TCU SCT060 13/08 Q1005=
200806160650 METAR ESMX 160650Z 20005KT 160V230 9999 SCT015TCU SCT020 12/09 Q1005=
200806160620 METAR ESMX 160620Z 17006KT 130V210 9999 FEW012TCU SCT017 BKN060 12/09 Q1005=
200806160550 METAR ESMX 160550Z 17006KT 130V210 9999 SCT012 BKN060 12/09 Q1005=
200806160520 METAR ESMX 160520Z 16004KT 110V180 9999 SCT020 BKN060 10/09 Q1005=
200806160450 METAR ESMX 160450Z 15004KT 9999 -RA SCT020 BKN060 10/08 Q1005=
200806160420 METAR ESMX 160420Z 15006KT 9999 FEW019 SCT033 BKN090 10/08 Q1005=
200806160350 METAR ESMX 160350Z 16003KT 9999 FEW018 SCT045 BKN091 09/08 Q1005=
200806160320 METAR ESMX 160320Z 15003KT 9999 FEW025 BKN091 09/08 Q1005=
200806160250 METAR ESMX 160250Z AUTO 17003KT 9999NDV SCT046/// 09/08 Q1005=
200806160220 METAR ESMX 160220Z AUTO 16005KT 9999NDV BKN055/// BKN110/// 09/08 Q1005=
200806160150 METAR ESMX 160150Z AUTO 17005KT 9999NDV FEW023/// BKN058/// 10/08 Q1005 RERA REDZ=
200806160120 METAR ESMX 160120Z AUTO 16006KT 9999NDV -RA SCT043/// BKN064/// 10/09 Q1006=
200806160050 METAR ESMX 160050Z AUTO 16005KT 120V190 9999NDV FEW028/// BKN050/// 11/09 Q1005 RERA REDZ=
200806160020 METAR ESMX 160020Z 16006KT 9999 FEW047 OVC064 11/09 Q1006=
200806152350 METAR ESMX 152350Z 14004KT 9999 SCT021 BKN070 11/08 Q1006=
200806152320 METAR ESMX 152320Z 16004KT 9999 FEW021 SCT037 BKN048 10/08 Q1006=
200806152250 METAR ESMX 152250Z 16004KT CAVOK 11/08 Q1006=
200806152220 METAR ESMX 152220Z 16004KT CAVOK 11/08 Q1006=
200806152150 METAR ESMX 152150Z 14004KT CAVOK 10/08 Q1006=
200806152120 METAR ESMX 152120Z 16005KT CAVOK 11/08 Q1006=
200806152050 METAR ESMX 152050Z 17006KT CAVOK 11/08 Q1006=
200806152020 METAR ESMX 152020Z 16007KT CAVOK 12/08 Q1006=
200806151950 METAR ESMX 151950Z 17007KT CAVOK 12/07 Q1006=
200806151920 METAR ESMX 151920Z 16008KT CAVOK 12/08 Q1005=
200806151850 METAR ESMX 151850Z 17008KT CAVOK 12/07 Q1006=
200806151820 METAR ESMX 151820Z 17011KT CAVOK 13/07 Q1006=
200806151750 METAR ESMX 151750Z 16010KT 9999 FEW036 BKN056 14/08 Q1006=
200806151720 METAR ESMX 151720Z 16007KT 120V190 9999 FEW035 SCT050 14/08 Q1006=
200806151650 METAR ESMX 151650Z 17008KT 9999 FEW034 SCT044 15/08 Q1006=
200806151620 METAR ESMX 151620Z 17007KT 140V210 CAVOK 15/07 Q1006=
200806151550 METAR ESMX 151550Z 18006KT 140V210 9999 FEW040 15/08 Q1006 RESH=
200806151520 METAR ESMX 151520Z 17006KT 120V200 9999 FEW035CB SCT078 13/09 Q1006 RESH=
200806151450 METAR ESMX 151450Z 20013G27KT 160V250 9000 SHRA SCT035CB SCT042 12/07 Q1007=
200806151420 METAR ESMX 151420Z 21009KT 150V250 9999 FEW041 BKN057 16/05 Q1006=
200806151350 METAR ESMX 151350Z 17011KT 9999 FEW035 SCT054 14/05 Q1006=
200806151320 METAR ESMX 151320Z 24012KT 200V270 9999 FEW036 BKN052 13/05 Q1007 RERA=
200806151250 METAR ESMX 151250Z 22011KT 190V250 9999 FEW043 BKN059 BKN083 14/04 Q1006=
200806151220 METAR ESMX 151220Z 15011KT 9999 FEW031 SCT069 14/06 Q1007=
200806151150 METAR ESMX 151150Z 19014KT 160V230 CAVOK 14/06 Q1007=
200806151120 METAR ESMX 151120Z 20012KT 170V250 CAVOK 17/03 Q1006=
200806151050 METAR ESMX 151050Z 22011KT 200V260 9999 FEW046 SCT067 16/04 Q1006=
200806151020 METAR ESMX 151020Z AUTO 20013KT 180V240 9999NDV FEW041/// SCT064/// BKN076/// 16/05 Q1006=
200806150950 METAR ESMX 150950Z AUTO 20010KT 170V260 9999NDV FEW041/// SCT061/// 15/04 Q1007=
200806150920 METAR ESMX 150920Z AUTO 19011KT 9999NDV FEW030/// BKN061/// 15/05 Q1007=
200806150850 METAR ESMX 150850Z AUTO 20011KT 160V240 9999NDV FEW046/// SCT064/// 15/04 Q1007=
200806150820 METAR ESMX 150820Z AUTO 18013KT 160V220 9999NDV SCT040/// BKN054/// 15/04 Q1007=
200806150750 METAR ESMX 150750Z AUTO 20009KT 160V250 9999NDV SCT034/// BKN047/// 14/04 Q1007=
200806150720 METAR ESMX 150720Z AUTO 20008KT 9999NDV SCT034/// 14/05 Q1007=
200806150650 METAR ESMX 150650Z AUTO 22010KT 190V250 9999NDV FEW033/// 13/05 Q1007=
200806150620 METAR ESMX 150620Z AUTO 21009KT 170V240 9999NDV NCD 12/06 Q1007=
200806150550 METAR ESMX 150550Z AUTO 21008KT 180V240 9999NDV NCD 11/06 Q1007=
200806150520 METAR ESMX 150520Z AUTO 21005KT 170V250 9999NDV NCD 10/07 Q1007=
200806150450 METAR ESMX 150450Z AUTO 22007KT 9999NDV NCD 09/07 Q1007=
200806150420 METAR ESMX 150420Z AUTO 18007KT 9999NDV NCD 08/07 Q1007=
200806150350 METAR ESMX 150350Z AUTO 19005KT 9999NDV NCD 07/06 Q1007=
200806150320 METAR ESMX 150320Z AUTO 18004KT 9999NDV NCD 06/05 Q1007=
200806150250 METAR ESMX 150250Z AUTO 18003KT 9999NDV NCD 06/06 Q1007=
200806150220 METAR ESMX 150220Z AUTO 17004KT 9999NDV NCD 06/06 Q1007=
200806150150 METAR ESMX 150150Z AUTO 21005KT 9999NDV NCD 05/04 Q1007=
200806150120 METAR ESMX 150120Z AUTO 20005KT 9999NDV NCD 05/04 Q1007=
200806150050 METAR ESMX 150050Z AUTO 21004KT 9999NDV NCD 05/04 Q1008=
200806150020 METAR ESMX 150020Z AUTO 20006KT 9999NDV NCD 06/05 Q1008=
200806142350 METAR ESMX 142350Z AUTO 20005KT 9999NDV NCD 05/04 Q1008=
200806142320 METAR ESMX 142320Z AUTO 20005KT 9999NDV NCD 06/04 Q1008=
200806142250 METAR ESMX 142250Z AUTO 20005KT 9999NDV NCD 06/05 Q1008=
200806142220 METAR ESMX 142220Z AUTO 20004KT 9999NDV NCD 07/06 Q1008=
200806142150 METAR ESMX 142150Z AUTO 21004KT 9999NDV NCD 08/06 Q1008=
200806142120 METAR ESMX 142120Z AUTO 21004KT 9999NDV NCD 08/05 Q1008=
200806142050 METAR ESMX 142050Z AUTO 20005KT 9999NDV NCD 09/06 Q1008=
200806142020 METAR ESMX 142020Z AUTO 23006KT 9999NDV NCD 10/06 Q1008=
200806141950 METAR ESMX 141950Z AUTO 22007KT 9999NDV NCD 11/05 Q1008=
200806141920 METAR ESMX 141920Z AUTO 22007KT 9999NDV NCD 12/04 Q1008=
200806141850 METAR ESMX 141850Z AUTO 23008KT 190V260 9999NDV NCD 14/05 Q1008=
200806141820 METAR ESMX 141820Z AUTO 25009KT 200V280 9999NDV FEW047/// 15/03 Q1008=
200806141750 METAR ESMX 141750Z AUTO 24006KT 200V270 9999NDV NCD 15/04 Q1008=
200806141720 METAR ESMX 141720Z AUTO 27010KT 9999NDV NCD 16/03 Q1008=
200806141650 METAR ESMX 141650Z AUTO 25010KT 210V290 9999NDV NCD 16/00 Q1008=
200806141620 METAR ESMX 141620Z AUTO 25010KT 210V290 9999NDV FEW063/// 16/M01 Q1008=
200806141550 METAR ESMX 141550Z AUTO 22007KT 160V250 9999NDV FEW039/// BKN059/// 16/05 Q1007=
200806141520 METAR ESMX 141520Z AUTO 18006KT 150V230 9999NDV FEW008/// SCT041/// BKN049/// 15/06 Q1008=
200806141450 METAR ESMX 141450Z AUTO 20014KT 9999NDV FEW045/// SCT056/// 14/05 Q1008=
200806141420 METAR ESMX 141420Z AUTO 22007KT 160V280 9999NDV FEW041/// SCT080/// 16/05 Q1008=
200806141350 METAR ESMX 141350Z AUTO 21012KT 180V250 9999NDV FEW042/// 15/06 Q1008=
200806141320 METAR ESMX 141320Z AUTO 21010KT 9999NDV FEW044/// SCT099/// 16/05 Q1008=
200806141250 METAR ESMX 141250Z AUTO 22011KT 9999NDV FEW040/// SCT077/// 16/05 Q1008=
200806141220 METAR ESMX 141220Z AUTO VRB03KT 9999NDV FEW037/// SCT076/// 14/06 Q1008=
200806141150 METAR ESMX 141150Z AUTO 30005KT 260V360 9999NDV FEW011/// SCT040/// 13/09 Q1008 REDZ RERA=
200806141120 METAR ESMX 141120Z AUTO 28010KT 9999NDV FEW035/// SCT049/// BKN094/// 13/07 Q1008=
200806141050 METAR ESMX 141050Z AUTO 22004KT 170V260 9999NDV SCT041/// BKN054/// BKN091/// 12/07 Q1008 RERA REDZ=
200806141020 METAR ESMX 141020Z AUTO 22013KT 9000NDV -RA FEW033/// SCT041/// 11/08 Q1008=
200806140950 METAR ESMX 140950Z AUTO 24007KT 200V280 9999NDV FEW040/// SCT072/// 14/04 Q1008=
200806140920 METAR ESMX 140920Z AUTO 30010KT 280V340 9999NDV FEW033/// SCT047/// 15/05 Q1007=
200806140850 METAR ESMX 140850Z AUTO 22008KT 160V260 9999NDV SCT036/// BKN061/// 15/04 Q1007=
200806140820 METAR ESMX 140820Z AUTO 26006KT 210V320 9999NDV FEW036/// SCT054/// 14/05 Q1007=
200806140750 METAR ESMX 140750Z AUTO 25008KT 9999NDV FEW034/// SCT055/// 13/05 Q1008=
200806140720 METAR ESMX 140720Z AUTO 23006KT 170V280 9999NDV FEW029/// SCT038/// 14/05 Q1008=
200806140650 METAR ESMX 140650Z AUTO 29007KT 240V320 9999NDV NCD 13/05 Q1008=
200806140620 METAR ESMX 140620Z AUTO 26006KT 210V310 9999NDV NCD 12/06 Q1008=
200806140550 METAR ESMX 140550Z AUTO 28006KT 9999NDV SCT096/// 12/07 Q1007=
200806140520 METAR ESMX 140520Z AUTO 25004KT 160V290 9999NDV BKN080/// BKN100/// 10/07 Q1007=
200806140450 METAR ESMX 140450Z AUTO 27004KT 9999NDV BKN063/// BKN078/// 10/07 Q1007=
200806140420 METAR ESMX 140420Z AUTO 27003KT 240V310 9999NDV OVC063/// 09/07 Q1007=
200806140350 METAR ESMX 140350Z AUTO VRB01KT 9999NDV BKN064/// OVC083/// 09/07 Q1007=
200806140320 METAR ESMX 140320Z AUTO VRB02KT 9999NDV BKN065/// 08/07 Q1007=
200806140250 METAR ESMX 140250Z AUTO 22003KT 9999NDV FEW069/// SCT085/// 07/06 Q1007=
200806140220 METAR ESMX 140220Z AUTO 21004KT 9999NDV FEW051/// 07/05 Q1007=
200806140150 METAR ESMX 140150Z AUTO 23004KT 9999NDV FEW081/// 08/06 Q1007=
200806140120 METAR ESMX 140120Z AUTO 23005KT 9999NDV OVC089/// 08/06 Q1007=
200806140050 METAR ESMX 140050Z AUTO 23003KT 9999NDV OVC074/// 09/07 Q1007=
200806140020 METAR ESMX 140020Z AUTO 23004KT 9999NDV BKN073/// 10/07 Q1007=
200806132350 METAR ESMX 132350Z AUTO 21004KT 9999NDV FEW053/// BKN076/// 10/07 Q1007=
200806132320 METAR ESMX 132320Z AUTO 20003KT 9999NDV OVC054/// 10/07 Q1007=
200806132250 METAR ESMX 132250Z AUTO 21003KT 9999NDV BKN057/// 10/07 Q1007=
200806132220 METAR ESMX 132220Z AUTO 18003KT 9999NDV OVC061/// 10/07 Q1007=
200806132150 METAR ESMX 132150Z AUTO 21005KT 9999NDV FEW063/// BKN079/// 10/06 Q1007=
200806132120 METAR ESMX 132120Z AUTO 21004KT 9999NDV BKN055/// OVC079/// 10/06 Q1007=
200806132050 METAR ESMX 132050Z AUTO 22005KT 9999NDV FEW059/// SCT087/// 09/05 Q1007=
200806132020 METAR ESMX 132020Z AUTO 21003KT 9999NDV NCD 10/05 Q1007=
200806131950 METAR ESMX 131950Z AUTO 21004KT 9999NDV BKN066/// 11/05 Q1006=
200806131920 METAR ESMX 131920Z 22004KT CAVOK 12/05 Q1006=
200806131850 METAR ESMX 131850Z 19005KT CAVOK 13/05 Q1006=
200806131820 METAR ESMX 131820Z 22007KT CAVOK 15/04 Q1006=
200806131750 METAR ESMX 131750Z 23006KT 200V270 CAVOK 15/04 Q1006=
200806131720 METAR ESMX 131720Z 21010KT 180V260 CAVOK 16/05 Q1006=
200806131650 METAR ESMX 131650Z 22010KT 200V260 CAVOK 15/05 Q1006=
200806131620 METAR ESMX 131620Z 23010KT 190V260 CAVOK 16/05 Q1005=
200806131550 METAR ESMX 131550Z 23010KT 200V260 CAVOK 16/05 Q1005=
200806131520 METAR ESMX 131520Z 21012KT CAVOK 17/04 Q1005=
200806131450 METAR ESMX 131450Z 21013KT 9999 SCT050TCU BKN080 17/03 Q1005=
200806131420 METAR ESMX 131420Z 23006KT CAVOK 16/04 Q1005=
200806131350 METAR ESMX 131350Z 20011KT 170V240 CAVOK 17/04 Q1005=
200806131320 METAR ESMX 131320Z 22010KT 9999 SCT040TCU BKN080 16/05 Q1005=
200806131250 METAR ESMX 131250Z 21010KT 180V240 CAVOK 17/04 Q1005=
200806131220 METAR ESMX 131220Z 21009KT 170V240 CAVOK 19/02 Q1005=
200806131150 METAR ESMX 131150Z 21012KT 170V230 CAVOK 17/06 Q1005=
200806131120 METAR ESMX 131120Z 21013KT 160V250 9999 SCT051 BKN078 16/05 Q1005=
200806131050 METAR ESMX 131050Z 20010KT 9999 FEW048 SCT053 17/05 Q1005=
200806131020 METAR ESMX 131020Z 16007KT 120V200 9999 FEW043 SCT080 16/07 Q1005=
200806130950 METAR ESMX 130950Z 15008KT 110V190 9999 SCT035TCU BKN080 15/06 Q1005=
200806130920 METAR ESMX 130920Z 15010KT 110V200 9999 FEW034 SCT087 15/06 Q1005=
200806130850 METAR ESMX 130850Z 19009KT 140V240 9999 -RA FEW033 SCT078 BKN091 14/08 Q1005=
200806130820 METAR ESMX 130820Z 22010KT 9999 FEW034 SCT056 BKN080 15/08 Q1005=
200806130750 METAR ESMX 130750Z 17008KT 9999 FEW030 SCT078 14/07 Q1005=
200806130720 METAR ESMX 130720Z 19008KT 9999 FEW022 SCT032 BKN054 14/08 Q1006=
200806130650 METAR ESMX 130650Z 17007KT 9999 FEW041 SCT047 14/09 Q1006=
200806130620 METAR ESMX 130620Z 14006KT 9999 FEW045 SCT058 14/08 Q1006=
200806130550 METAR ESMX 130550Z 16005KT CAVOK 13/08 Q1005=
200806130520 METAR ESMX 130520Z 16003KT CAVOK 12/09 Q1005=
200806130450 METAR ESMX 130450Z VRB01KT CAVOK 11/08 Q1005=
200806130420 METAR ESMX 130420Z VRB01KT CAVOK 08/07 Q1005=
200806130350 METAR ESMX 130350Z VRB01KT 9999 VCFG FEW110 06/05 Q1006=
200806130320 METAR ESMX 130320Z AUTO 00000KT 9999NDV FEW100/// 05/04 Q1005=
200806130250 METAR ESMX 130250Z AUTO 16003KT 9999NDV NCD 05/04 Q1005=
200806130220 METAR ESMX 130220Z AUTO 19003KT 9999NDV FEW110/// 04/04 Q1005=
200806130150 METAR ESMX 130150Z AUTO 18002KT 9999NDV NCD 04/04 Q1006=
200806130120 METAR ESMX 130120Z AUTO 17002KT 5000NDV BR NCD 05/05 Q1006=
200806130050 METAR ESMX 130050Z AUTO 17002KT 9999NDV NCD 06/05 Q1006=
200806130020 METAR ESMX 130020Z AUTO 17004KT 9999NDV NCD 06/06 Q1006=
200806122350 METAR ESMX 122350Z 20005KT CAVOK 07/06 Q1006=
200806122320 METAR ESMX 122320Z 21004KT CAVOK 08/07 Q1006=
200806122250 METAR ESMX 122250Z 22004KT CAVOK 08/07 Q1006=
200806122220 METAR ESMX 122220Z 22004KT CAVOK 08/07 Q1006=
200806122150 METAR ESMX 122150Z 21004KT CAVOK 08/07 Q1006=
200806122120 METAR ESMX 122120Z 18004KT CAVOK 08/07 Q1006=
200806122050 METAR ESMX 122050Z 20003KT CAVOK 09/07 Q1006=
200806122020 METAR ESMX 122020Z 18004KT CAVOK 09/08 Q1006=
200806121950 METAR ESMX 121950Z 20004KT CAVOK 09/08 Q1006=
200806121920 METAR ESMX 121920Z 19004KT CAVOK 10/07 Q1005=
200806121850 METAR ESMX 121850Z VRB02KT CAVOK 11/09 Q1005=
200806121820 METAR ESMX 121820Z 16003KT 120V210 CAVOK 11/08 Q1005=
200806121750 METAR ESMX 121750Z 32005KT 250V350 9999 VCSH FEW045CB BKN080 11/07 Q1006=
200806121720 METAR ESMX 121720Z 28005KT 250V320 9999 -DZ FEW045 BKN053 12/09 Q1006 RERA=
200806121650 METAR ESMX 121650Z 18004KT CAVOK 13/09 Q1005=
200806121620 METAR ESMX 121620Z 17005KT CAVOK 13/09 Q1005=
200806121550 METAR ESMX 121550Z 13003KT 100V170 9999 -DZ FEW068 SCT082 BKN093 12/09 Q1005 RERA=
200806121520 METAR ESMX 121520Z VRB01KT 9999 FEW026 BKN048 11/09 Q1006 RERA REDZ=
200806121450 METAR ESMX 121450Z 32003KT 6000 RA FEW026 SCT055 12/07 Q1006=
200806121420 METAR ESMX 121420Z 17006KT 120V200 CAVOK 13/06 Q1005=
200806121350 METAR ESMX 121350Z 18011KT CAVOK 11/07 Q1005=
200806121320 METAR ESMX 121320Z 21011KT CAVOK 11/07 Q1005 RERA=
200806121250 METAR ESMX 121250Z 27007KT 230V320 9999 FEW054 SCT079 14/07 Q1005=
200806121220 METAR ESMX 121220Z VRB02KT CAVOK 16/05 Q1004 RERA=
200806121150 METAR ESMX 121150Z 10003KT 9999 -RA FEW024 12/07 Q1005=
200806121120 METAR ESMX 121120Z VRB01KT CAVOK 16/04 Q1004 RERA=
200806121050 METAR ESMX 121050Z 22003KT 160V280 9999 -RA FEW027 SCT043 13/07 Q1005=
200806121020 METAR ESMX 121020Z 03007KT 350V070 CAVOK 16/05 Q1004=
200806120950 METAR ESMX 120950Z 36004KT 330V070 9999 FEW034 SCT061 15/05 Q1004=
200806120920 METAR ESMX 120920Z VRB03KT 9999 SCT038 SCT073 15/06 Q1004=
200806120850 METAR ESMX 120850Z 29005KT 190V350 9999 SCT031 14/07 Q1004=
200806120820 METAR ESMX 120820Z 30005KT 260V320 9999 FEW021 SCT040 13/07 Q1004=
200806120750 METAR ESMX 120750Z 30006KT 240V340 9999 SCT022 13/08 Q1004=
200806120720 METAR ESMX 120720Z 31005KT 9999 BKN014 12/07 Q1004=
200806120650 METAR ESMX 120650Z 29005KT 250V330 9999 SCT015 12/08 Q1004=
200806120620 METAR ESMX 120620Z 27003KT 9999 FEW010 11/07 Q1004=
200806120550 METAR ESMX 120550Z 30004KT 9999 FEW008 10/08 Q1004=
200806120520 METAR ESMX 120520Z 25003KT 9999 SCT012 09/08 Q1004=
200806120450 METAR ESMX 120450Z VRB02KT 9999 FEW023 SCT047 08/07 Q1003 REDZ=
200806120420 METAR ESMX 120420Z VRB02KT 9999 FEW023 BKN035 08/07 Q1003 RERA=
200806120350 METAR ESMX 120350Z 19005KT 9999 -RA FEW023 BKN030 08/07 Q1003=
200806120320 METAR ESMX 120320Z 25003KT 9999 -RA FEW023 BKN035 BKN041 08/07 Q1003 REDZ=
200806120250 METAR ESMX 120250Z AUTO 24005KT 9999NDV DZ FEW027/// SCT033/// OVC037/// 08/06 Q1003 RERA=
200806120220 METAR ESMX 120220Z AUTO 26003KT 190V320 9999NDV -DZ FEW017/// BKN023/// OVC032/// 08/06 Q1003 RERA=
200806120150 METAR ESMX 120150Z AUTO 25004KT 210V300 9999NDV FEW012/// BKN016/// 08/06 Q1003=
200806120120 METAR ESMX 120120Z AUTO 23006KT 9999NDV NCD 07/06 Q1003=
200806120050 METAR ESMX 120050Z AUTO 22006KT 9999NDV NCD 07/06 Q1003=
200806120020 METAR ESMX 120020Z AUTO 21006KT 9999NDV FEW065/// 07/05 Q1003=
200806112350 METAR ESMX 112350Z 23005KT CAVOK 08/05 Q1003=
200806112320 METAR ESMX 112320Z 21006KT CAVOK 07/05 Q1003=
200806112250 METAR ESMX 112250Z 21006KT CAVOK 07/04 Q1003=
200806112220 METAR ESMX 112220Z 22005KT CAVOK 07/04 Q1003=
200806112150 METAR ESMX 112150Z 23005KT CAVOK 08/04 Q1003=
200806112120 METAR ESMX 112120Z 23005KT CAVOK 09/04 Q1003=
200806112050 METAR ESMX 112050Z 23006KT CAVOK 10/04 Q1003=
200806112020 METAR ESMX 112020Z 26007KT 220V280 CAVOK 10/04 Q1003=
200806111950 METAR ESMX 111950Z 25006KT 220V290 CAVOK 11/04 Q1003=
200806111920 METAR ESMX 111920Z 25008KT 9999 FEW043 12/04 Q1003=
200806111850 METAR ESMX 111850Z 27011KT CAVOK 13/03 Q1003=
200806111820 METAR ESMX 111820Z 25011KT 200V290 CAVOK 14/03 Q1003=
200806111750 METAR ESMX 111750Z 25011KT CAVOK 14/03 Q1003=
200806111720 METAR ESMX 111720Z 25012KT 210V290 CAVOK 15/03 Q1003=
200806111650 METAR ESMX 111650Z 26012KT 210V290 9999 FEW048 SCT070 16/04 Q1003=
200806111620 METAR ESMX 111620Z 26013KT CAVOK 15/04 Q1003=
200806111550 METAR ESMX 111550Z 26013KT 220V280 9999 FEW048 SCT067 BKN081 16/05 Q1003=
200806111450 METAR ESMX 111450Z 25014KT 220V290 9999 FEW049 16/04 Q1003=
200806111420 METAR ESMX 111420Z 27015G25KT 240V300 9999 FEW043 BKN061 16/04 Q1003=
200806111350 METAR ESMX 111350Z 28012KT 250V320 9999 FEW045 BKN055 15/04 Q1003=
200806111250 METAR ESMX 111250Z 28014KT 240V310 9999 FEW047 BKN058 15/04 Q1003=
200806111150 METAR ESMX 111150Z 26014G24KT 210V290 9999 FEW025 BKN064 16/05 Q1003=
200806111020 METAR ESMX 111020Z 27013KT 230V340 9999 FEW033 BKN059 14/04 Q1003=
200806110950 METAR ESMX 110950Z 27013G26KT 230V300 9999 FEW037 BKN059 14/05 Q1003=
200806110920 METAR ESMX 110920Z 26014G24KT 210V280 9999 FEW040 SCT049 BKN059 14/05 Q1003=
200806110850 METAR ESMX 110850Z 26014KT 210V290 9999 FEW025 SCT040 14/07 Q1003=
200806110820 METAR ESMX 110820Z 25013KT 210V290 9999 FEW025 BKN040 13/07 Q1003=
200806110750 METAR ESMX 110750Z 25014G24KT 210V290 9999 SCT020 BKN030 12/06 Q1002=
200806110720 METAR ESMX 110720Z 25011KT 210V290 9999 SCT020 BKN040 12/06 Q1002=
200806110650 METAR ESMX 110650Z 25012KT 220V280 9999 FEW015 SCT030 BKN040 11/07 Q1002=
200806110620 METAR ESMX 110620Z 26012KT 9999 FEW014 SCT020 BKN027 11/09 Q1002 RERA=
200806110550 METAR ESMX 110550Z 24014KT 9999 -RA FEW015 SCT018 BKN025 11/09 Q1002=
200806110520 METAR ESMX 110520Z 24011KT 200V270 9999 FEW009 SCT015 BKN017 11/09 Q1002 RERA=
200806110450 METAR ESMX 110450Z 24011KT 7000 -RA FEW007 SCT013 BKN018 10/09 Q1002=
200806110420 METAR ESMX 110420Z 23010KT 9999 FEW010 SCT018 BKN023 10/09 Q1002 RERA=
200806110350 METAR ESMX 110350Z 22008KT 7000 -RA FEW016 SCT023 BKN029 10/09 Q1003=
200806110320 METAR ESMX 110320Z AUTO 24008KT 200V260 9999NDV FEW019/// SCT029/// BKN068/// 10/09 Q1003 RERA=
200806110250 METAR ESMX 110250Z AUTO 24010KT 210V280 5000NDV RA FEW013/// SCT022/// BKN042/// 10/09 Q1003 REDZ=
200806110220 METAR ESMX 110220Z AUTO 23008KT 190V260 9999NDV FEW014/// SCT023/// BKN027/// 10/09 Q1004 RERA REDZ=
200806110150 METAR ESMX 110150Z AUTO 25007KT 210V280 5000NDV RA FEW013/// SCT020/// BKN023/// 10/08 Q1004=
200806110120 METAR ESMX 110120Z AUTO 24011KT 220V280 9999NDV FEW027/// BKN048/// 11/07 Q1004=
200806110050 METAR ESMX 110050Z AUTO 26011KT 230V290 9999NDV FEW023/// SCT027/// BKN034/// 11/07 Q1004=
200806110020 METAR ESMX 110020Z AUTO 26013KT 230V290 9999NDV FEW022/// SCT027/// BKN033/// 12/07 Q1004=
200806102350 METAR ESMX 102350Z 27010KT 230V300 9999 FEW021 SCT026 BKN030 11/08 Q1005 RESHRA=
200806102320 METAR ESMX 102320Z 26011KT 200V290 9999 FEW023 BKN030 12/07 Q1005=
200806102250 METAR ESMX 102250Z 26012KT 230V300 9999 FEW028 12/07 Q1005=
200806102220 METAR ESMX 102220Z 25011G21KT 220V280 9999 FEW025 12/07 Q1005=
200806102150 METAR ESMX 102150Z 25010KT 9999 FEW027 SCT038 12/08 Q1005=
200806102120 METAR ESMX 102120Z 25011KT 220V290 9999 FEW030 SCT040 12/07 Q1006=
200806102050 METAR ESMX 102050Z 25012KT 210V290 9999 FEW031 SCT036 12/07 Q1006=
200806102020 METAR ESMX 102020Z 26012KT 9999 SCT032 13/07 Q1006=
200806101950 METAR ESMX 101950Z 27014G24KT 230V320 9999 FEW039 13/06 Q1006=
200806101920 METAR ESMX 101920Z 26014KT 9999 SCT040 14/06 Q1006=
200806101850 METAR ESMX 101850Z 27016G29KT 9999 FEW039 SCT056 14/06 Q1006=
200806101820 METAR ESMX 101820Z 26014G28KT 220V300 9999 FEW038 SCT050 15/06 Q1006=
200806101750 METAR ESMX 101750Z 26015G28KT 9999 FEW040 SCT050 BKN060 15/07 Q1006=
200806101720 METAR ESMX 101720Z 27017G28KT 9999 FEW039 BKN052 15/07 Q1006=
200806101650 METAR ESMX 101650Z 27016G29KT 9999 FEW035 BKN060 16/07 Q1006=
200806101620 METAR ESMX 101620Z 26020G31KT 9999 SCT035 BKN050 16/07 Q1006=
200806101550 METAR ESMX 101550Z 26020KT 9999 FEW040 BKN050 17/06 Q1006=
200806101520 METAR ESMX 101520Z 26016KT 220V290 9999 BKN045 17/06 Q1006=
200806101450 METAR ESMX 101450Z 26019G30KT 230V300 9999 FEW025 BKN045 18/05 Q1006=
200806101420 METAR ESMX 101420Z 26020G32KT 9999 FEW030TCU SCT056 18/05 Q1006=
200806101350 METAR ESMX 101350Z 26021G31KT 9999 FEW030 SCT050 19/06 Q1006=
200806101320 METAR ESMX 101320Z 27020G34KT 230V300 9999 FEW030 SCT060 19/06 Q1006=
200806101250 METAR ESMX 101250Z 27018G30KT 230V300 9999 FEW025TCU SCT035 18/08 Q1006=
200806101150 METAR ESMX 101150Z 25016G29KT 200V290 9999 FEW035 SCT050 BKN070 18/10 Q1007=
200806101120 METAR ESMX 101120Z 26015G30KT 230V290 9999 SCT036 BKN051 BKN069 19/09 Q1007=
200806101050 METAR ESMX 101050Z 25015G26KT 200V280 9999 FEW037 BKN060 19/10 Q1007=
200806101020 METAR ESMX 101020Z 26017G29KT 230V290 9999 FEW030 SCT040 BKN050 18/09 Q1008=
200806100950 METAR ESMX 100950Z 27020G32KT 240V310 9999 FEW035 BKN055 20/10 Q1008=
200806100920 METAR ESMX 100920Z 25018G29KT 230V290 9999 SCT035 BKN060 20/10 Q1008=
200806100850 METAR ESMX 100850Z 26017G28KT 9999 FEW030 BKN050 19/10 Q1008=
200806100820 METAR ESMX 100820Z 25019G31KT 9999 FEW025 SCT035 BKN055 19/11 Q1008=
200806100750 METAR ESMX 100750Z 25015G26KT 220V280 9999 SCT025 BKN050 18/12 Q1008=
200806100720 METAR ESMX 100720Z 24013G23KT 200V300 9999 FEW020 SCT026 BKN030 17/12 Q1009=
200806100650 METAR ESMX 100650Z 23015KT 9999 FEW017 SCT020 BKN025 17/13 Q1009=
200806100620 METAR ESMX 100620Z 22010KT 9999 FEW015 SCT020 BKN025 15/12 Q1010=
200806100550 METAR ESMX 100550Z 23011KT 9999 SCT014 BKN017 OVC020 15/12 Q1010=
200806100520 METAR ESMX 100520Z 22010KT 9999 SCT016 BKN020 14/12 Q1011=
200806100450 METAR ESMX 100450Z 22010KT 9999 FEW020 SCT025 14/11 Q1011=
200806100420 METAR ESMX 100420Z 23009KT 9999 FEW010 SCT015 13/11 Q1011=
200806100350 METAR ESMX 100350Z 21007KT 180V240 CAVOK 13/11 Q1012=
200806100320 METAR ESMX 100320Z AUTO 22006KT 9999NDV FEW015/// SCT018/// BKN021/// 12/10 Q1012=
200806100250 METAR ESMX 100250Z AUTO 24005KT 9999NDV SCT015/// 12/10 Q1013=
200806100220 METAR ESMX 100220Z AUTO 22006KT 9999NDV NCD 11/10 Q1013=
200806100150 METAR ESMX 100150Z AUTO 22005KT 9999NDV NCD 12/10 Q1013=
200806100120 METAR ESMX 100120Z AUTO 23007KT 9999NDV NCD 12/10 Q1014=
200806100050 METAR ESMX 100050Z AUTO 21005KT 9999NDV NCD 11/09 Q1014=
200806100020 METAR ESMX 100020Z AUTO 23006KT 9999NDV NCD 12/09 Q1014=
200806092350 METAR ESMX 092350Z 23005KT 190V270 CAVOK 13/09 Q1014=
200806092320 METAR ESMX 092320Z 23005KT CAVOK 13/09 Q1015=
200806092250 METAR ESMX 092250Z 25006KT 220V280 CAVOK 14/09 Q1015=
200806092220 METAR ESMX 092220Z 26006KT CAVOK 14/08 Q1015=
200806092150 METAR ESMX 092150Z 26006KT CAVOK 14/07 Q1016=
200806092120 METAR ESMX 092120Z 26006KT CAVOK 15/07 Q1015=
200806092050 METAR ESMX 092050Z 27007KT CAVOK 16/06 Q1016=
200806092020 METAR ESMX 092020Z 26005KT CAVOK 16/05 Q1016=
200806091950 METAR ESMX 091950Z 26004KT 220V300 CAVOK 17/02 Q1016=
200806091920 METAR ESMX 091920Z 27008KT 240V310 CAVOK 18/02 Q1016=
200806091850 METAR ESMX 091850Z 27008KT CAVOK 19/02 Q1015=
200806091820 METAR ESMX 091820Z 25009KT 220V290 CAVOK 20/03 Q1015=
200806091750 METAR ESMX 091750Z 27012KT 240V310 CAVOK 21/04 Q1015=
200806091720 METAR ESMX 091720Z 27011KT 250V310 CAVOK 22/03 Q1015=
200806091650 METAR ESMX 091650Z 28010KT 250V320 CAVOK 23/02 Q1015=
200806091620 METAR ESMX 091620Z 26012KT 230V290 CAVOK 24/02 Q1015=
200806091550 METAR ESMX 091550Z 28011KT CAVOK 24/01 Q1015=
200806091520 METAR ESMX 091520Z 25011KT 210V290 CAVOK 25/02 Q1015=
200806091450 METAR ESMX 091450Z 27009KT 240V320 CAVOK 25/03 Q1015=
200806091420 METAR ESMX 091420Z 28011KT 250V320 CAVOK 25/03 Q1015=
200806091350 METAR ESMX 091350Z 28010KT 230V330 CAVOK 25/03 Q1015=
200806091320 METAR ESMX 091320Z 31010KT 270V340 CAVOK 25/04 Q1015=
200806091250 METAR ESMX 091250Z 29009G19KT 240V340 CAVOK 25/05 Q1015=
200806091220 METAR ESMX 091220Z 30011KT CAVOK 25/06 Q1016=
200806091150 METAR ESMX 091150Z 27010KT 230V320 CAVOK 24/07 Q1016=
200806091120 METAR ESMX 091120Z 29010KT 230V350 CAVOK 23/06 Q1016=
200806091050 METAR ESMX 091050Z 29011KT 260V330 CAVOK 23/06 Q1016=
200806091020 METAR ESMX 091020Z 31009KT 260V350 CAVOK 23/07 Q1016=
200806090950 METAR ESMX 090950Z 27009KT 230V320 CAVOK 22/08 Q1016=
200806090920 METAR ESMX 090920Z 27011KT 240V320 9999 FEW040 21/09 Q1016=
200806090850 METAR ESMX 090850Z 28011KT 250V330 9999 FEW040 21/09 Q1016=
200806090820 METAR ESMX 090820Z 29009G19KT 240V050 9999 FEW025 SCT035 20/10 Q1016=
200806090750 METAR ESMX 090750Z 27010KT 9999 FEW025 SCT035 19/10 Q1016=
200806090720 METAR ESMX 090720Z 28010KT 230V310 9999 FEW025 SCT035 19/11 Q1016=
200806090650 METAR ESMX 090650Z 27011KT 230V320 9999 SCT025 SCT035 18/11 Q1016=
200806090620 METAR ESMX 090620Z 29009KT 9999 SCT020 BKN050 17/11 Q1016=
200806090550 METAR ESMX 090550Z 28012KT 250V310 9999 SCT021 BKN028 17/12 Q1016=
200806090520 METAR ESMX 090520Z 27009KT 240V310 9999 SCT019 17/12 Q1016=
200806090450 METAR ESMX 090450Z 27008KT 230V290 9999 BKN018 16/11 Q1016=
200806090420 METAR ESMX 090420Z 25007KT 210V290 9999 SCT020 BKN150 15/11 Q1016=
200806090350 METAR ESMX 090350Z 27007KT CAVOK 15/10 Q1016=
200806090320 METAR ESMX 090320Z 24006KT 210V290 CAVOK 14/09 Q1016=
200806090250 METAR ESMX 090250Z AUTO 25006KT 9999NDV NCD 14/09 Q1016=
200806090220 METAR ESMX 090220Z AUTO 25005KT 210V290 9999NDV NCD 14/08 Q1016=
200806090150 METAR ESMX 090150Z AUTO 24006KT 210V270 9999NDV NCD 15/08 Q1016=
200806090120 METAR ESMX 090120Z AUTO 24007KT 220V290 9999NDV NCD 15/08 Q1016=
200806090050 METAR ESMX 090050Z AUTO 25007KT 9999NDV NCD 16/08 Q1017=
200806090020 METAR ESMX 090020Z 24007KT CAVOK 16/07 Q1017=
200806082350 METAR ESMX 082350Z 25007KT CAVOK 16/07 Q1017=
200806082320 METAR ESMX 082320Z 25006KT CAVOK 16/06 Q1017=
200806082250 METAR ESMX 082250Z 25006KT CAVOK 16/06 Q1017=
200806082220 METAR ESMX 082220Z 25006KT CAVOK 16/05 Q1018=
200806082150 METAR ESMX 082150Z 26006KT 230V300 CAVOK 17/05 Q1018=
200806082120 METAR ESMX 082120Z 26006KT CAVOK 17/05 Q1018=
200806082050 METAR ESMX 082050Z 28008KT CAVOK 18/05 Q1018=
200806082020 METAR ESMX 082020Z 27008KT CAVOK 19/05 Q1017=
200806081950 METAR ESMX 081950Z 27007KT 240V300 CAVOK 20/05 Q1017=
200806081920 METAR ESMX 081920Z 28006KT 230V310 CAVOK 21/05 Q1017=
200806081850 METAR ESMX 081850Z 28010KT 250V320 CAVOK 22/04 Q1017=
200806081750 METAR ESMX 081750Z 28011G21KT 240V330 CAVOK 24/05 Q1017=
200806081720 METAR ESMX 081720Z 28010KT CAVOK 26/06 Q1017=
200806081650 METAR ESMX 081650Z 29011KT 260V330 CAVOK 26/06 Q1017=
200806081620 METAR ESMX 081620Z 29008KT 250V330 CAVOK 27/08 Q1017=
200806081550 METAR ESMX 081550Z 27010KT CAVOK 27/07 Q1017=
200806081520 METAR ESMX 081520Z 26008KT 220V300 CAVOK 28/05 Q1017=
200806081450 METAR ESMX 081450Z 27008KT 200V330 CAVOK 28/06 Q1018=
200806081420 METAR ESMX 081420Z 23008KT 180V290 CAVOK 28/05 Q1018=
200806081350 METAR ESMX 081350Z 27008KT CAVOK 29/06 Q1018=
200806081320 METAR ESMX 081320Z 25006KT 190V340 CAVOK 29/05 Q1018=
200806081250 METAR ESMX 081250Z VRB04KT CAVOK 28/06 Q1019=
200806081220 METAR ESMX 081220Z 21007KT 110V250 CAVOK 27/05 Q1019=
200806081150 METAR ESMX 081150Z 23007KT 200V260 CAVOK 27/05 Q1019=
200806081120 METAR ESMX 081120Z 31006KT 250V020 CAVOK 26/06 Q1020=
200806081050 METAR ESMX 081050Z 19004KT 080V240 CAVOK 26/07 Q1020=
200806081020 METAR ESMX 081020Z VRB04KT CAVOK 26/08 Q1020=
200806080950 METAR ESMX 080950Z AUTO 24005KT 170V280 9999NDV NCD 25/07 Q1020=
200806080920 METAR ESMX 080920Z AUTO 32003KT 260V060 9999NDV NCD 25/07 Q1020=
200806080850 METAR ESMX 080850Z AUTO VRB02KT 9999NDV NCD 24/06 Q1020=
200806080820 METAR ESMX 080820Z AUTO VRB04KT 9999NDV NCD 23/09 Q1020=
200806080750 METAR ESMX 080750Z AUTO VRB03KT 9999NDV NCD 23/09 Q1020=
200806080720 METAR ESMX 080720Z AUTO VRB02KT 9999NDV NCD 22/10 Q1020=
200806080650 METAR ESMX 080650Z AUTO VRB02KT 9999NDV NCD 21/09 Q1020=
200806080620 METAR ESMX 080620Z AUTO VRB02KT 9999NDV NCD 20/11 Q1020=
200806080550 METAR ESMX 080550Z AUTO 17003KT 110V220 9999NDV NCD 19/11 Q1020=
200806080520 METAR ESMX 080520Z AUTO 00000KT 9999NDV NCD 17/11 Q1021=
200806080450 METAR ESMX 080450Z AUTO 00000KT 9999NDV NCD 17/11 Q1021=
200806080420 METAR ESMX 080420Z AUTO 00000KT 9999NDV NCD 14/11 Q1021=
200806080350 METAR ESMX 080350Z AUTO 18002KT 9999NDV NCD 11/09 Q1021=
200806080320 METAR ESMX 080320Z AUTO 00000KT 9999NDV NCD 09/07 Q1021=
200806080250 METAR ESMX 080250Z AUTO 00000KT 9999NDV NCD 08/07 Q1021=
200806080220 METAR ESMX 080220Z AUTO 00000KT 9999NDV NCD 10/08 Q1021=
200806080150 METAR ESMX 080150Z AUTO 00000KT 9999NDV NCD 10/08 Q1021=
200806080120 METAR ESMX 080120Z AUTO 00000KT 9999NDV NCD 11/09 Q1021=
200806080050 METAR ESMX 080050Z AUTO 12004KT 9999NDV NCD 12/10 Q1021=
200806080020 METAR ESMX 080020Z AUTO 10002KT 9999NDV NCD 12/09 Q1021=
200806072350 METAR ESMX 072350Z AUTO 09003KT 9999NDV NCD 14/10 Q1021=
200806072320 METAR ESMX 072320Z AUTO VRB02KT 9999NDV NCD 14/10 Q1021=
200806072220 METAR ESMX 072220Z AUTO 07004KT 9999NDV NCD 16/11 Q1020=
200806072150 METAR ESMX 072150Z AUTO 08004KT 030V110 9999NDV NCD 17/11 Q1020=
200806072120 METAR ESMX 072120Z AUTO 07004KT 030V110 9999NDV NCD 18/11 Q1020=
200806072050 METAR ESMX 072050Z AUTO VRB04KT 9999NDV NCD 19/10 Q1020=
200806072020 METAR ESMX 072020Z AUTO 09004KT 040V140 9999NDV NCD 20/09 Q1020=
200806071950 METAR ESMX 071950Z AUTO 10004KT 060V140 9999NDV NCD 21/08 Q1019=
200806071920 METAR ESMX 071920Z AUTO 08005KT 050V120 9999NDV NCD 22/08 Q1019=
200806071850 METAR ESMX 071850Z AUTO 07004KT 020V110 9999NDV NCD 23/06 Q1019=
200806071820 METAR ESMX 071820Z AUTO 08005KT 030V120 9999NDV NCD 24/05 Q1018=
200806071750 METAR ESMX 071750Z AUTO 07007KT 030V120 9999NDV NCD 25/04 Q1018=
200806071720 METAR ESMX 071720Z AUTO 07007KT 020V110 9999NDV NCD 26/03 Q1018=
200806071650 METAR ESMX 071650Z AUTO 08007KT 040V120 9999NDV NCD 26/04 Q1018=
200806071620 METAR ESMX 071620Z AUTO 06007KT 020V130 9999NDV NCD 27/02 Q1018=
200806071550 METAR ESMX 071550Z AUTO 06008KT 020V100 9999NDV NCD 27/01 Q1018=
200806071520 METAR ESMX 071520Z AUTO 06008KT 020V120 9999NDV NCD 28/M00 Q1018=
200806071450 METAR ESMX 071450Z AUTO 07008KT 020V120 9999NDV NCD 28/01 Q1018=
200806071420 METAR ESMX 071420Z AUTO 07007KT 020V120 9999NDV NCD 28/02 Q1018=
200806071350 METAR ESMX 071350Z AUTO 11007KT 060V170 9999NDV NCD 29/00 Q1018=
200806071320 METAR ESMX 071320Z AUTO 09007KT 360V160 9999NDV NCD 29/M01 Q1018=
200806071250 METAR ESMX 071250Z AUTO 06007KT 350V120 9999NDV NCD 29/00 Q1018=
200806071220 METAR ESMX 071220Z AUTO 05009KT 020V100 9999NDV NCD 28/M03 Q1018=
200806071150 METAR ESMX 071150Z AUTO 06007KT 020V130 9999NDV NCD 28/M02 Q1018=
200806071120 METAR ESMX 071120Z AUTO 03005KT 300V110 9999NDV NCD 27/03 Q1018=
200806071050 METAR ESMX 071050Z AUTO 35004KT 300V040 9999NDV NCD 27/05 Q1018=
200806071020 METAR ESMX 071020Z AUTO 09005KT 350V160 9999NDV NCD 26/06 Q1018=
200806070950 METAR ESMX 070950Z AUTO 32004KT 250V030 9999NDV NCD 25/07 Q1018=
200806070920 METAR ESMX 070920Z AUTO 04006KT 9999NDV NCD 25/07 Q1018=
200806070850 METAR ESMX 070850Z AUTO 35004KT 310V030 9999NDV NCD 24/08 Q1018=
200806070820 METAR ESMX 070820Z AUTO 03005KT 340V070 9999NDV NCD 23/06 Q1018=
200806070750 METAR ESMX 070750Z AUTO 36004KT 320V040 9999NDV NCD 22/08 Q1018=
200806070720 METAR ESMX 070720Z AUTO 30003KT 240V330 9999NDV NCD 21/09 Q1018=
200806070650 METAR ESMX 070650Z AUTO 35004KT 310V020 9999NDV NCD 20/09 Q1018=
200806070620 METAR ESMX 070620Z AUTO 31003KT 270V010 9999NDV NCD 18/08 Q1018=
200806070550 METAR ESMX 070550Z AUTO 31004KT 280V360 9999NDV NCD 17/08 Q1018=
200806070520 METAR ESMX 070520Z AUTO 28003KT 250V330 9999NDV NCD 16/08 Q1018=
200806070450 METAR ESMX 070450Z AUTO VRB02KT 9999NDV NCD 14/08 Q1018=
200806070420 METAR ESMX 070420Z AUTO 17002KT 9999NDV NCD 10/07 Q1018=
200806070350 METAR ESMX 070350Z AUTO 23002KT 9999NDV NCD 10/07 Q1018=
200806070320 METAR ESMX 070320Z AUTO 23001KT 9999NDV NCD 09/05 Q1018=
200806070250 METAR ESMX 070250Z AUTO 24004KT 9999NDV NCD 10/06 Q1018=
200806070220 METAR ESMX 070220Z AUTO 00000KT 9999NDV NCD 09/06 Q1018=
200806070150 METAR ESMX 070150Z AUTO 22004KT 9999NDV NCD 10/06 Q1018=
200806070120 METAR ESMX 070120Z AUTO 23003KT 9999NDV NCD 10/06 Q1018=
200806070050 METAR ESMX 070050Z AUTO 22004KT 9999NDV NCD 11/06 Q1018=
200806070020 METAR ESMX 070020Z AUTO 22004KT 9999NDV NCD 10/06 Q1018=
200806062350 METAR ESMX 062350Z AUTO 20004KT 9999NDV NCD 12/07 Q1018=
200806062320 METAR ESMX 062320Z AUTO 20003KT 9999NDV NCD 12/07 Q1018=
200806062250 METAR ESMX 062250Z AUTO 19003KT 9999NDV NCD 13/07 Q1018=
200806062220 METAR ESMX 062220Z AUTO 19005KT 9999NDV NCD 13/07 Q1018=
200806062150 METAR ESMX 062150Z AUTO 18004KT 9999NDV NCD 14/07 Q1018=
200806062120 METAR ESMX 062120Z AUTO 17004KT 9999NDV NCD 14/07 Q1018=
200806062050 METAR ESMX 062050Z AUTO 18006KT 9999NDV NCD 14/07 Q1018=
200806062020 METAR ESMX 062020Z AUTO 17005KT 9999NDV NCD 17/07 Q1018=
200806061950 METAR ESMX 061950Z AUTO 17006KT 9999NDV NCD 19/07 Q1018=
200806061920 METAR ESMX 061920Z AUTO 18007KT 9999NDV NCD 20/06 Q1017=
200806061850 METAR ESMX 061850Z 18008KT CAVOK 22/04 Q1017=
200806061820 METAR ESMX 061820Z 22004KT CAVOK 23/00 Q1017=
200806061750 METAR ESMX 061750Z 24003KT CAVOK 24/M01 Q1017=
200806061720 METAR ESMX 061720Z 25003KT 220V300 CAVOK 25/M02 Q1017=
200806061650 METAR ESMX 061650Z 25002KT CAVOK 25/M03 Q1017=
200806061620 METAR ESMX 061620Z 18004KT 130V230 CAVOK 25/M02 Q1017=
200806061550 METAR ESMX 061550Z 18007KT CAVOK 25/M01 Q1018=
200806061520 METAR ESMX 061520Z 15004KT 100V200 CAVOK 25/M02 Q1018=
200806061450 METAR ESMX 061450Z 17005KT 150V210 CAVOK 25/M01 Q1018=
200806061420 METAR ESMX 061420Z VRB02KT CAVOK 25/M01 Q1018=
200806061350 METAR ESMX 061350Z 19006KT CAVOK 25/M02 Q1019=
200806061320 METAR ESMX 061320Z 18005KT 140V230 CAVOK 25/M01 Q1019=
200806061250 METAR ESMX 061250Z VRB03KT CAVOK 25/M02 Q1019=
200806061220 METAR ESMX 061220Z VRB04KT CAVOK 25/M01 Q1019=
200806061150 METAR ESMX 061150Z VRB05KT CAVOK 24/M03 Q1019=
200806061120 METAR ESMX 061120Z 21006KT 150V260 CAVOK 23/M04 Q1020=
200806061050 METAR ESMX 061050Z 22006KT 140V280 CAVOK 23/M01 Q1020=
200806061020 METAR ESMX 061020Z 12004KT 080V150 CAVOK 22/00 Q1020=
200806060950 METAR ESMX 060950Z 11003KT 050V180 CAVOK 22/01 Q1020=
200806060920 METAR ESMX 060920Z 05004KT CAVOK 21/03 Q1020=
200806060850 METAR ESMX 060850Z 16005KT 120V210 CAVOK 21/03 Q1020=
200806060820 METAR ESMX 060820Z 05004KT 010V100 CAVOK 20/03 Q1020=
200806060750 METAR ESMX 060750Z 19003KT 160V250 CAVOK 19/02 Q1021=
200806060720 METAR ESMX 060720Z 11003KT CAVOK 18/05 Q1021=
200806060650 METAR ESMX 060650Z 15003KT 100V190 CAVOK 18/05 Q1021=
200806060620 METAR ESMX 060620Z 05003KT 330V110 CAVOK 17/06 Q1021=
200806060550 METAR ESMX 060550Z 08003KT 040V120 CAVOK 16/08 Q1021=
200806060520 METAR ESMX 060520Z AUTO VRB02KT 9999NDV NCD 15/09 Q1021=
200806060450 METAR ESMX 060450Z AUTO 01002KT 9999NDV NCD 13/09 Q1021=
200806060420 METAR ESMX 060420Z AUTO 00000KT 9999NDV NCD 10/08 Q1021=
200806060350 METAR ESMX 060350Z AUTO 00000KT 9999NDV NCD 05/03 Q1021=
200806060320 METAR ESMX 060320Z AUTO 00000KT 9999NDV NCD 04/03 Q1021=
200806060250 METAR ESMX 060250Z AUTO 00000KT 9999NDV NCD 04/02 Q1021=
200806060220 METAR ESMX 060220Z AUTO 18001KT 9999NDV NCD 04/02 Q1021=
200806060150 METAR ESMX 060150Z AUTO 18002KT 9999NDV NCD 04/02 Q1021=
200806060120 METAR ESMX 060120Z AUTO 00000KT 9999NDV NCD 05/02 Q1022=
200806060050 METAR ESMX 060050Z AUTO 00000KT 9999NDV NCD 05/03 Q1022=
200806060020 METAR ESMX 060020Z AUTO 00000KT 9999NDV NCD 06/03 Q1022=
200806052350 METAR ESMX 052350Z AUTO 17001KT 9999NDV NCD 07/03 Q1022=
200806052320 METAR ESMX 052320Z AUTO 18001KT 9999NDV NCD 08/04 Q1021=
200806052250 METAR ESMX 052250Z AUTO 15003KT 110V170 9999NDV NCD 08/03 Q1021=
200806052220 METAR ESMX 052220Z AUTO 16004KT 9999NDV NCD 08/03 Q1022=
200806052150 METAR ESMX 052150Z AUTO 17002KT 9999NDV NCD 09/03 Q1021=
200806052120 METAR ESMX 052120Z AUTO 16003KT 9999NDV NCD 11/04 Q1021=
200806052050 METAR ESMX 052050Z AUTO 18003KT 9999NDV NCD 12/04 Q1021=
200806052020 METAR ESMX 052020Z AUTO 16003KT 9999NDV NCD 14/03 Q1021=
200806051950 METAR ESMX 051950Z AUTO 14003KT 100V170 9999NDV NCD 17/01 Q1021=
200806051920 METAR ESMX 051920Z AUTO 14004KT 110V170 9999NDV NCD 19/01 Q1021=
200806051850 METAR ESMX 051850Z 15004KT 110V170 CAVOK 20/02 Q1021=
200806051820 METAR ESMX 051820Z 15005KT 110V200 CAVOK 20/02 Q1021=
200806051750 METAR ESMX 051750Z 14006KT 070V190 CAVOK 21/03 Q1020=
200806051720 METAR ESMX 051720Z 11004KT 020V170 CAVOK 22/03 Q1020=
200806051650 METAR ESMX 051650Z 09005KT 040V160 CAVOK 23/03 Q1020=
200806051620 METAR ESMX 051620Z 09005KT 030V180 CAVOK 24/02 Q1020=
200806051550 METAR ESMX 051550Z 09006KT 030V210 CAVOK 24/02 Q1020=
200806051520 METAR ESMX 051520Z 07005KT 340V120 CAVOK 24/03 Q1020=
200806051450 METAR ESMX 051450Z 08005KT 020V140 CAVOK 24/03 Q1020=
200806051420 METAR ESMX 051420Z 08005KT 010V160 CAVOK 24/04 Q1021=
200806051350 METAR ESMX 051350Z VRB04KT CAVOK 24/04 Q1021=
200806051320 METAR ESMX 051320Z VRB05KT CAVOK 24/03 Q1021=
200806051250 METAR ESMX 051250Z VRB04KT CAVOK 23/04 Q1021=
200806051220 METAR ESMX 051220Z 05007KT 010V080 CAVOK 23/04 Q1021=
200806051150 METAR ESMX 051150Z 06006KT 010V150 CAVOK 23/05 Q1022=
200806051120 METAR ESMX 051120Z 09005KT 020V170 CAVOK 22/04 Q1022=
200806051050 METAR ESMX 051050Z 06006KT 030V110 CAVOK 22/04 Q1022=
200806051020 METAR ESMX 051020Z 03006KT 350V110 CAVOK 22/04 Q1022=
200806050950 METAR ESMX 050950Z 06005KT 010V130 CAVOK 21/04 Q1022=
200806050920 METAR ESMX 050920Z 05006KT 350V110 CAVOK 21/04 Q1022=
200806050850 METAR ESMX 050850Z 07005KT 010V160 CAVOK 20/06 Q1023=
200806050820 METAR ESMX 050820Z 06006KT 010V110 CAVOK 19/06 Q1023=
200806050750 METAR ESMX 050750Z 06007KT CAVOK 18/08 Q1023=
200806050720 METAR ESMX 050720Z 04006KT 340V100 CAVOK 18/08 Q1023=
200806050650 METAR ESMX 050650Z 03005KT 010V070 CAVOK 16/08 Q1023=
200806050620 METAR ESMX 050620Z 05006KT 010V090 CAVOK 15/08 Q1023=
200806050550 METAR ESMX 050550Z 08006KT 050V120 CAVOK 14/08 Q1023=
200806050520 METAR ESMX 050520Z 06006KT 030V100 CAVOK 14/08 Q1023=
200806050450 METAR ESMX 050450Z 06004KT 030V120 CAVOK 12/08 Q1023=
200806050420 METAR ESMX 050420Z 04005KT 010V080 CAVOK 12/08 Q1022=
200806050350 METAR ESMX 050350Z 07004KT 030V110 CAVOK 11/07 Q1022=
200806050320 METAR ESMX 050320Z AUTO 06004KT 030V120 9999NDV NCD 10/07 Q1022=
200806050250 METAR ESMX 050250Z AUTO 07004KT 040V110 9999NDV NCD 10/07 Q1022=
200806050220 METAR ESMX 050220Z AUTO 04005KT 020V080 9999NDV NCD 10/06 Q1023=
200806050150 METAR ESMX 050150Z AUTO 03004KT 9999NDV NCD 10/06 Q1023=
200806050120 METAR ESMX 050120Z AUTO 06004KT 9999NDV NCD 09/06 Q1023=
200806050050 METAR ESMX 050050Z AUTO 07003KT 9999NDV NCD 09/07 Q1023=
200806050020 METAR ESMX 050020Z AUTO 06004KT 9999NDV NCD 09/06 Q1022=
200806042350 METAR ESMX 042350Z 06002KT CAVOK 08/05 Q1023=
200806042320 METAR ESMX 042320Z 06003KT 020V080 CAVOK 09/06 Q1022=
200806042250 METAR ESMX 042250Z 05002KT CAVOK 10/06 Q1022=
200806042220 METAR ESMX 042220Z 07002KT CAVOK 11/07 Q1023=
200806042150 METAR ESMX 042150Z 08002KT CAVOK 12/06 Q1022=
200806042120 METAR ESMX 042120Z VRB02KT CAVOK 13/06 Q1022=
200806042050 METAR ESMX 042050Z 09003KT 040V140 CAVOK 15/06 Q1022=
200806042020 METAR ESMX 042020Z 08003KT CAVOK 15/05 Q1022=
200806041950 METAR ESMX 041950Z 08004KT 050V150 CAVOK 16/05 Q1022=
200806041920 METAR ESMX 041920Z 09006KT 050V130 CAVOK 17/06 Q1022=
200806041850 METAR ESMX 041850Z 08005KT 050V120 CAVOK 19/06 Q1021=
200806041820 METAR ESMX 041820Z 08005KT 030V110 CAVOK 20/05 Q1021=
200806041750 METAR ESMX 041750Z 08005KT 040V140 CAVOK 21/04 Q1021=
200806041720 METAR ESMX 041720Z 09006KT 050V150 CAVOK 21/03 Q1021=
200806041650 METAR ESMX 041650Z 08007KT 020V130 CAVOK 22/04 Q1021=
200806041620 METAR ESMX 041620Z 07007KT 030V140 CAVOK 22/05 Q1021=
200806041550 METAR ESMX 041550Z 08007KT 030V140 CAVOK 23/05 Q1021=
200806041520 METAR ESMX 041520Z 08007KT 030V120 CAVOK 23/05 Q1021=
200806041450 METAR ESMX 041450Z 09007KT 050V140 CAVOK 23/05 Q1021=
200806041420 METAR ESMX 041420Z 08007KT 010V170 CAVOK 23/05 Q1021=
200806041350 METAR ESMX 041350Z 09007KT 020V170 CAVOK 23/05 Q1021=
200806041320 METAR ESMX 041320Z 05008KT 010V100 CAVOK 24/06 Q1021=
200806041250 METAR ESMX 041250Z 07007KT 020V170 CAVOK 23/06 Q1021=
200806041220 METAR ESMX 041220Z 08006KT 010V150 CAVOK 23/06 Q1021=
200806041150 METAR ESMX 041150Z 04008KT 360V110 CAVOK 23/06 Q1022=
200806041120 METAR ESMX 041120Z 05007KT 350V140 CAVOK 23/06 Q1022=
200806041050 METAR ESMX 041050Z 07007KT 020V140 CAVOK 22/05 Q1022=
200806041020 METAR ESMX 041020Z 04008KT 020V100 CAVOK 22/05 Q1022=
200806040950 METAR ESMX 040950Z 05005KT 020V110 CAVOK 21/06 Q1022=
200806040920 METAR ESMX 040920Z 05007KT 020V090 CAVOK 21/06 Q1022=
200806040850 METAR ESMX 040850Z 02008KT 340V050 CAVOK 20/06 Q1022=
200806040820 METAR ESMX 040820Z 03008KT CAVOK 19/07 Q1022=
200806040750 METAR ESMX 040750Z 05006KT 360V080 CAVOK 19/07 Q1022=
200806040720 METAR ESMX 040720Z 05006KT 350V120 CAVOK 18/07 Q1022=
200806040650 METAR ESMX 040650Z 04006KT 350V070 CAVOK 16/07 Q1022=
200806040620 METAR ESMX 040620Z 04006KT 360V080 CAVOK 16/08 Q1022=
200806040550 METAR ESMX 040550Z 04006KT 010V070 CAVOK 15/07 Q1022=
200806040520 METAR ESMX 040520Z 05005KT 350V140 CAVOK 14/08 Q1022=
200806040450 METAR ESMX 040450Z 05005KT 020V100 CAVOK 13/08 Q1022=
200806040420 METAR ESMX 040420Z 05005KT 020V080 CAVOK 12/08 Q1022=
200806040350 METAR ESMX 040350Z 04003KT CAVOK 11/07 Q1022=
200806040320 METAR ESMX 040320Z AUTO 05005KT 020V080 9999NDV NCD 10/07 Q1022=
200806040250 METAR ESMX 040250Z AUTO 05005KT 010V080 9999NDV NCD 11/06 Q1022=
200806040220 METAR ESMX 040220Z AUTO 06004KT 9999NDV NCD 11/06 Q1021=
200806040150 METAR ESMX 040150Z AUTO 04004KT 010V080 9999NDV NCD 11/07 Q1021=
200806040120 METAR ESMX 040120Z AUTO 04004KT 360V100 9999NDV NCD 11/07 Q1021=
200806040050 METAR ESMX 040050Z AUTO 06006KT 030V100 9999NDV NCD 12/07 Q1021=
200806040020 METAR ESMX 040020Z AUTO 04004KT 350V090 9999NDV NCD 11/07 Q1021=
200806032350 METAR ESMX 032350Z AUTO 04005KT 350V080 9999NDV NCD 11/06 Q1021=
200806032320 METAR ESMX 032320Z 04006KT CAVOK 12/06 Q1021=
200806032250 METAR ESMX 032250Z 03004KT 360V070 CAVOK 12/06 Q1021=
200806032220 METAR ESMX 032220Z 03005KT CAVOK 12/06 Q1021=
200806032150 METAR ESMX 032150Z 02003KT 350V060 CAVOK 13/06 Q1021=
200806032120 METAR ESMX 032120Z 07004KT 030V110 CAVOK 14/06 Q1021=
200806032050 METAR ESMX 032050Z 05004KT 020V080 CAVOK 14/06 Q1021=
200806032020 METAR ESMX 032020Z 06004KT 020V140 CAVOK 15/06 Q1021=
200806031950 METAR ESMX 031950Z 06004KT 020V120 CAVOK 16/06 Q1021=
200806031920 METAR ESMX 031920Z 06006KT 020V110 CAVOK 17/05 Q1020=
200806031850 METAR ESMX 031850Z 08006KT 030V120 CAVOK 18/05 Q1020=
200806031820 METAR ESMX 031820Z 06008KT 010V100 CAVOK 18/04 Q1020=
200806031750 METAR ESMX 031750Z 05008KT 010V080 CAVOK 19/04 Q1020=
200806031720 METAR ESMX 031720Z 08008KT 020V140 CAVOK 20/05 Q1020=
200806031650 METAR ESMX 031650Z 07009KT 030V110 CAVOK 20/05 Q1020=
200806031620 METAR ESMX 031620Z 07007KT 020V180 CAVOK 20/04 Q1020=
200806031550 METAR ESMX 031550Z 06009KT 020V110 CAVOK 21/05 Q1020=
200806031520 METAR ESMX 031520Z 08007KT 010V130 CAVOK 21/04 Q1020=
200806031450 METAR ESMX 031450Z 06009KT 020V140 CAVOK 21/05 Q1020=
200806031420 METAR ESMX 031420Z 09008KT 020V150 CAVOK 21/05 Q1020=
200806031350 METAR ESMX 031350Z 08008KT 020V130 CAVOK 22/06 Q1020=
200806031320 METAR ESMX 031320Z 09009KT 030V140 CAVOK 22/06 Q1020=
200806031250 METAR ESMX 031250Z 08010G22KT 030V120 CAVOK 22/06 Q1020=
200806031220 METAR ESMX 031220Z 06011KT 020V110 CAVOK 22/06 Q1020=
200806031150 METAR ESMX 031150Z 04010KT 010V080 CAVOK 22/06 Q1019=
200806031120 METAR ESMX 031120Z 05009KT 020V100 CAVOK 22/05 Q1020=
200806031050 METAR ESMX 031050Z 06009KT 360V110 CAVOK 22/06 Q1019=
200806031020 METAR ESMX 031020Z 06008KT 360V110 CAVOK 21/06 Q1020=
200806030950 METAR ESMX 030950Z 05011KT 020V080 CAVOK 20/07 Q1020=
200806030920 METAR ESMX 030920Z 05011KT 020V080 CAVOK 21/06 Q1020=
200806030850 METAR ESMX 030850Z 06009KT 010V120 CAVOK 20/06 Q1020=
200806030820 METAR ESMX 030820Z 08007KT 020V120 CAVOK 20/07 Q1020=
200806030750 METAR ESMX 030750Z 07009KT 030V120 CAVOK 18/06 Q1020=
200806030720 METAR ESMX 030720Z 08008KT 030V150 CAVOK 18/07 Q1020=
200806030650 METAR ESMX 030650Z 06009KT 020V120 CAVOK 17/07 Q1019=
200806030620 METAR ESMX 030620Z 07009KT 030V110 CAVOK 16/06 Q1019=
200806030550 METAR ESMX 030550Z 07009KT 030V100 CAVOK 16/07 Q1019=
200806030520 METAR ESMX 030520Z 06007KT 020V130 CAVOK 15/08 Q1019=
200806030450 METAR ESMX 030450Z 07008KT 030V120 CAVOK 14/08 Q1019=
200806030420 METAR ESMX 030420Z 07007KT 030V110 CAVOK 13/08 Q1019=
200806030350 METAR ESMX 030350Z 07005KT 030V110 CAVOK 13/08 Q1019=
200806030320 METAR ESMX 030320Z AUTO 07006KT 020V110 9999NDV NCD 13/08 Q1019=
200806030250 METAR ESMX 030250Z AUTO 06005KT 350V100 9999NDV NCD 12/10 Q1018=
200806030220 METAR ESMX 030220Z AUTO 06006KT 020V100 9999NDV NCD 13/10 Q1018=
200806030150 METAR ESMX 030150Z AUTO 07006KT 030V110 9999NDV NCD 13/09 Q1018=
200806030120 METAR ESMX 030120Z AUTO 07006KT 030V100 9999NDV NCD 13/09 Q1019=
200806030050 METAR ESMX 030050Z AUTO 07006KT 9999NDV NCD 13/08 Q1018=
200806030020 METAR ESMX 030020Z AUTO 07007KT 030V110 9999NDV NCD 14/07 Q1018=
200806022350 METAR ESMX 022350Z 07006KT 030V110 CAVOK 14/06 Q1018=
200806022320 METAR ESMX 022320Z 07006KT 040V120 CAVOK 15/06 Q1018=
200806022250 METAR ESMX 022250Z 08006KT 040V120 CAVOK 15/07 Q1018=
200806022220 METAR ESMX 022220Z 07007KT 030V120 CAVOK 16/08 Q1017=
200806022150 METAR ESMX 022150Z 08006KT 030V150 CAVOK 18/07 Q1017=
200806022120 METAR ESMX 022120Z 09004KT 050V160 CAVOK 19/08 Q1017=
200806022050 METAR ESMX 022050Z 09005KT 060V140 CAVOK 20/09 Q1017=
200806022020 METAR ESMX 022020Z 12004KT 080V150 CAVOK 21/09 Q1016=
200806021920 METAR ESMX 021920Z 07005KT 010V120 CAVOK 21/06 Q1015=
200806021850 METAR ESMX 021850Z 00000KT CAVOK 24/04 Q1015=
200806021820 METAR ESMX 021820Z 36003KT CAVOK 25/03 Q1015=
200806021750 METAR ESMX 021750Z 02003KT 350V070 CAVOK 27/M01 Q1015=
200806021720 METAR ESMX 021720Z 04003KT 350V080 CAVOK 27/M02 Q1015=
200806021650 METAR ESMX 021650Z 04004KT 360V100 CAVOK 27/M02 Q1015=
200806021620 METAR ESMX 021620Z 07004KT 360V130 CAVOK 28/M01 Q1016=
200806021550 METAR ESMX 021550Z 05004KT 360V110 CAVOK 27/M02 Q1016=
200806021520 METAR ESMX 021520Z 07004KT 020V120 CAVOK 27/M01 Q1016=
200806021450 METAR ESMX 021450Z 07006KT 020V120 CAVOK 27/M01 Q1016=
200806021420 METAR ESMX 021420Z 07005KT 020V150 CAVOK 27/M02 Q1016=
200806021350 METAR ESMX 021350Z 36006KT CAVOK 27/M00 Q1017=
200806021320 METAR ESMX 021320Z 04007KT CAVOK 27/00 Q1017=
200806021250 METAR ESMX 021250Z 01006KT CAVOK 27/M00 Q1017=
200806021220 METAR ESMX 021220Z 01005KT 340V050 CAVOK 27/00 Q1017=
200806021150 METAR ESMX 021150Z 03005KT 330V080 CAVOK 27/01 Q1018=
200806021120 METAR ESMX 021120Z 20007KT 150V260 CAVOK 26/M01 Q1018=
200806021050 METAR ESMX 021050Z 11003KT 050V170 CAVOK 25/M03 Q1018=
200806021020 METAR ESMX 021020Z 19006KT 170V260 CAVOK 25/M03 Q1018=
200806020950 METAR ESMX 020950Z 16004KT 090V210 CAVOK 24/02 Q1018=
200806020920 METAR ESMX 020920Z 19005KT 150V260 CAVOK 23/04 Q1018=
200806020850 METAR ESMX 020850Z VRB02KT CAVOK 23/03 Q1019=
200806020820 METAR ESMX 020820Z VRB04KT CAVOK 22/03 Q1019=
200806020750 METAR ESMX 020750Z 17004KT 120V210 CAVOK 21/05 Q1019=
200806020720 METAR ESMX 020720Z 15005KT CAVOK 20/05 Q1019=
200806020650 METAR ESMX 020650Z 18006KT CAVOK 19/05 Q1019=
200806020620 METAR ESMX 020620Z 14003KT 100V210 CAVOK 18/06 Q1020=
200806020550 METAR ESMX 020550Z 00000KT CAVOK 17/08 Q1020=
200806020520 METAR ESMX 020520Z VRB02KT CAVOK 16/09 Q1020=
200806020450 METAR ESMX 020450Z VRB01KT CAVOK 14/09 Q1020=
200806020420 METAR ESMX 020420Z VRB02KT CAVOK 11/08 Q1020=
200806020350 METAR ESMX 020350Z 05002KT CAVOK 08/06 Q1020=
200806020320 METAR ESMX 020320Z 00000KT CAVOK 06/05 Q1020=
200806020250 METAR ESMX 020250Z AUTO 00000KT 9999NDV NCD 05/04 Q1021=
200806020220 METAR ESMX 020220Z AUTO 00000KT 9999NDV NCD 05/04 Q1021=
200806020150 METAR ESMX 020150Z AUTO 00000KT 9999NDV NCD 06/04 Q1021=
200806020120 METAR ESMX 020120Z AUTO 00000KT 9999NDV NCD 06/04 Q1020=
200806020050 METAR ESMX 020050Z AUTO 00000KT 9999NDV NCD 07/05 Q1020=
200806020020 METAR ESMX 020020Z 00000KT CAVOK 07/04 Q1020=
200806012350 METAR ESMX 012350Z 00000KT CAVOK 08/05 Q1021=
200806012320 METAR ESMX 012320Z VRB01KT CAVOK 09/06 Q1021=
200806012250 METAR ESMX 012250Z 00000KT CAVOK 10/06 Q1021=
200806012220 METAR ESMX 012220Z 00000KT CAVOK 11/05 Q1021=
200806012150 METAR ESMX 012150Z VRB02KT CAVOK 11/05 Q1021=
200806012120 METAR ESMX 012120Z 16002KT CAVOK 14/06 Q1021=
200806012050 METAR ESMX 012050Z 16004KT CAVOK 15/05 Q1020=
200806012020 METAR ESMX 012020Z 14004KT CAVOK 17/04 Q1020=
200806011950 METAR ESMX 011950Z 14003KT 100V170 CAVOK 19/03 Q1020=
200806011920 METAR ESMX 011920Z 14004KT 090V170 CAVOK 20/03 Q1020=
200806011850 METAR ESMX 011850Z 14004KT 080V180 CAVOK 21/02 Q1020=
200806011820 METAR ESMX 011820Z 15005KT 110V200 CAVOK 22/02 Q1020=
200806011750 METAR ESMX 011750Z 15006KT 100V190 CAVOK 23/01 Q1020=
200806011720 METAR ESMX 011720Z 13007KT 110V170 CAVOK 24/02 Q1020=
200806011650 METAR ESMX 011650Z 16007KT 130V200 CAVOK 25/02 Q1020=
200806011620 METAR ESMX 011620Z 16006KT 110V200 CAVOK 25/02 Q1020=
200806011550 METAR ESMX 011550Z 17007KT 120V220 CAVOK 26/01 Q1020=
200806011520 METAR ESMX 011520Z 16006KT 120V200 CAVOK 26/01 Q1020=
200806011450 METAR ESMX 011450Z 17006KT 120V230 CAVOK 26/M00 Q1020=
200806011420 METAR ESMX 011420Z 16005KT 110V210 CAVOK 26/M02 Q1020=
200806011350 METAR ESMX 011350Z 16007KT 110V200 CAVOK 26/M03 Q1020=
200806011320 METAR ESMX 011320Z 15006KT 090V200 CAVOK 26/M01 Q1020=
200806011250 METAR ESMX 011250Z 17007KT 120V210 CAVOK 26/01 Q1021=
200806011220 METAR ESMX 011220Z 17006KT 130V230 CAVOK 26/00 Q1021=
