##########################################################
# Query made at 04/19/2024 21:09:26 UTC
# Time interval: from 04/01/2009 12:00  to 04/30/2009 12:59  UTC
##########################################################

##########################################################
# ESMX, Vaxjo (Sweden)
# WMO index: 02641. WIGOS ID: 0-20000-0-02648
# Latitude 56-51N. Longitude 014-50E. Altitude 199 m.
##########################################################

200904301250 METAR ESMX 301250Z 05008KT 010V140 CAVOK 19/05 Q1022=
200904301220 METAR ESMX 301220Z 07008KT 030V140 CAVOK 19/06 Q1022=
200904301150 METAR ESMX 301150Z 03010KT CAVOK 20/05 Q1022=
200904301120 METAR ESMX 301120Z 07009KT 030V120 CAVOK 19/05 Q1021=
200904301050 METAR ESMX 301050Z 06009KT 030V120 CAVOK 19/05 Q1021=
200904301020 METAR ESMX 301020Z 06008KT 010V110 CAVOK 19/05 Q1021=
200904300950 METAR ESMX 300950Z 06009KT 010V100 CAVOK 19/04 Q1021=
200904300920 METAR ESMX 300920Z 09007KT 050V120 CAVOK 19/05 Q1021=
200904300850 METAR ESMX 300850Z 06008KT 010V100 CAVOK 18/05 Q1021=
200904300820 METAR ESMX 300820Z 05009KT 010V080 CAVOK 17/05 Q1021=
200904300750 METAR ESMX 300750Z 06007KT 020V110 CAVOK 16/05 Q1021=
200904300720 METAR ESMX 300720Z 06007KT 010V110 CAVOK 15/05 Q1021=
200904300650 METAR ESMX 300650Z 06005KT 020V100 CAVOK 13/05 Q1020=
200904300620 METAR ESMX 300620Z 06006KT 020V080 CAVOK 11/05 Q1020=
200904300550 METAR ESMX 300550Z 05006KT 020V120 CAVOK 09/04 Q1020=
200904300520 METAR ESMX 300520Z 04007KT 010V070 CAVOK 07/04 Q1020=
200904300450 METAR ESMX 300450Z 04007KT CAVOK 06/04 Q1020=
200904300420 METAR ESMX 300420Z 04007KT CAVOK 06/03 Q1020=
200904300350 METAR ESMX 300350Z 04008KT CAVOK 05/03 Q1020=
200904300320 METAR ESMX 300320Z AUTO 04007KT 020V080 9999NDV NCD 06/04 Q1019=
200904300250 METAR ESMX 300250Z AUTO 04007KT 9999NDV NCD 06/04 Q1019=
200904300220 METAR ESMX 300220Z AUTO 04007KT 020V080 9999NDV NCD 06/04 Q1019=
200904300150 METAR ESMX 300150Z AUTO 04006KT 9999NDV NCD 06/04 Q1019=
200904300120 METAR ESMX 300120Z AUTO 04005KT 9999NDV NCD 07/05 Q1019=
200904300050 METAR ESMX 300050Z AUTO 04006KT 020V080 9999NDV NCD 07/05 Q1018=
200904300020 METAR ESMX 300020Z AUTO 04007KT 010V070 9999NDV NCD 07/05 Q1018=
200904292350 METAR ESMX 292350Z 03006KT CAVOK 08/05 Q1018=
200904292320 METAR ESMX 292320Z 04006KT 010V070 CAVOK 08/05 Q1018=
200904292250 METAR ESMX 292250Z 04005KT CAVOK 09/05 Q1018=
200904292220 METAR ESMX 292220Z 04005KT CAVOK 10/05 Q1017=
200904292150 METAR ESMX 292150Z 06005KT 360V110 CAVOK 11/05 Q1017=
200904292120 METAR ESMX 292120Z 07006KT 030V120 CAVOK 11/05 Q1016=
200904292050 METAR ESMX 292050Z 07005KT 360V110 CAVOK 12/05 Q1016=
200904292020 METAR ESMX 292020Z 04005KT 020V080 CAVOK 13/05 Q1016=
200904291950 METAR ESMX 291950Z 05004KT 010V090 CAVOK 14/05 Q1016=
200904291920 METAR ESMX 291920Z 05004KT 360V080 CAVOK 16/06 Q1015=
200904291850 METAR ESMX 291850Z 07005KT 040V100 CAVOK 17/06 Q1015=
200904291820 METAR ESMX 291820Z 17005KT CAVOK 20/01 Q1014=
200904291750 METAR ESMX 291750Z 17008KT CAVOK 21/00 Q1013=
200904291720 METAR ESMX 291720Z 19006KT CAVOK 22/01 Q1013=
200904291650 METAR ESMX 291650Z 22005KT 180V250 CAVOK 23/M01 Q1012=
200904291620 METAR ESMX 291620Z VRB03KT CAVOK 24/M00 Q1012=
200904291550 METAR ESMX 291550Z 20006KT CAVOK 24/M01 Q1012=
200904291520 METAR ESMX 291520Z 20007KT 170V240 CAVOK 24/M01 Q1012=
200904291450 METAR ESMX 291450Z 19004KT 120V260 CAVOK 25/M02 Q1012=
200904291420 METAR ESMX 291420Z 17006KT 140V230 CAVOK 24/M03 Q1012=
200904291350 METAR ESMX 291350Z 18010KT CAVOK 24/M01 Q1012=
200904291320 METAR ESMX 291320Z 21009KT 170V250 CAVOK 25/M01 Q1012=
200904291250 METAR ESMX 291250Z 16006KT 120V240 CAVOK 24/00 Q1012=
200904291220 METAR ESMX 291220Z 17008KT 120V250 CAVOK 24/00 Q1012=
200904291150 METAR ESMX 291150Z 19010KT CAVOK 24/M01 Q1011=
200904291120 METAR ESMX 291120Z 15008KT 110V230 CAVOK 24/M00 Q1011=
200904291050 METAR ESMX 291050Z 17011KT 140V200 CAVOK 24/M01 Q1011=
200904291020 METAR ESMX 291020Z 16009KT 120V200 CAVOK 23/01 Q1011=
200904290950 METAR ESMX 290950Z 16005KT 050V220 CAVOK 22/03 Q1011=
200904290920 METAR ESMX 290920Z 16004KT 090V230 CAVOK 22/04 Q1011=
200904290850 METAR ESMX 290850Z 14004KT 050V210 CAVOK 20/04 Q1011=
200904290820 METAR ESMX 290820Z 17005KT 110V210 CAVOK 19/04 Q1011=
200904290750 METAR ESMX 290750Z 16005KT 140V200 CAVOK 18/05 Q1010=
200904290720 METAR ESMX 290720Z 15004KT 110V200 CAVOK 17/05 Q1010=
200904290650 METAR ESMX 290650Z 14003KT 080V190 CAVOK 16/04 Q1010=
200904290620 METAR ESMX 290620Z 13003KT 090V200 CAVOK 15/04 Q1010=
200904290550 METAR ESMX 290550Z 14003KT 100V180 CAVOK 13/05 Q1010=
200904290520 METAR ESMX 290520Z VRB02KT CAVOK 10/07 Q1009=
200904290450 METAR ESMX 290450Z 00000KT CAVOK 07/06 Q1009=
200904290420 METAR ESMX 290420Z VRB01KT CAVOK 05/04 Q1009=
200904290350 METAR ESMX 290350Z 07001KT CAVOK 05/04 Q1009=
200904290320 METAR ESMX 290320Z AUTO VRB02KT 8000NDV NCD 05/04 Q1009=
200904290250 METAR ESMX 290250Z AUTO 01002KT 6000NDV BR NCD 05/04 Q1009=
200904290220 METAR ESMX 290220Z AUTO 02001KT 8000NDV NCD 05/04 Q1009=
200904290150 METAR ESMX 290150Z AUTO 05001KT 9999NDV NCD 06/04 Q1009=
200904290120 METAR ESMX 290120Z AUTO 02001KT 8000NDV NCD 06/05 Q1008=
200904290050 METAR ESMX 290050Z AUTO 00000KT 9999NDV NCD 07/05 Q1008=
200904290020 METAR ESMX 290020Z AUTO 00000KT 9999NDV NCD 07/05 Q1008=
200904282350 METAR ESMX 282350Z 08001KT CAVOK 08/06 Q1008=
200904282320 METAR ESMX 282320Z 09002KT CAVOK 09/06 Q1008=
200904282250 METAR ESMX 282250Z VRB02KT CAVOK 10/07 Q1008=
200904282220 METAR ESMX 282220Z 07001KT CAVOK 10/07 Q1008=
200904282150 METAR ESMX 282150Z 04002KT CAVOK 12/07 Q1008=
200904282050 METAR ESMX 282050Z 10003KT CAVOK 14/07 Q1008=
200904282020 METAR ESMX 282020Z 12004KT CAVOK 15/08 Q1008=
200904281950 METAR ESMX 281950Z 12003KT 090V160 CAVOK 14/07 Q1008=
200904281920 METAR ESMX 281920Z 14003KT 110V170 CAVOK 15/07 Q1008=
200904281850 METAR ESMX 281850Z 14003KT 110V170 CAVOK 16/07 Q1008=
200904281820 METAR ESMX 281820Z 15004KT 110V170 CAVOK 18/07 Q1007=
200904281750 METAR ESMX 281750Z 15003KT 110V170 CAVOK 19/07 Q1007=
200904281720 METAR ESMX 281720Z 16006KT 110V190 CAVOK 19/08 Q1007=
200904281650 METAR ESMX 281650Z 17008KT 140V200 CAVOK 20/08 Q1007=
200904281620 METAR ESMX 281620Z 16008KT 130V210 CAVOK 21/07 Q1006=
200904281550 METAR ESMX 281550Z 13006KT 070V170 CAVOK 22/08 Q1006=
200904281520 METAR ESMX 281520Z 14006KT 060V200 CAVOK 23/08 Q1006=
200904281450 METAR ESMX 281450Z 16009KT 130V200 CAVOK 23/08 Q1006=
200904281420 METAR ESMX 281420Z 16007KT 120V200 CAVOK 23/08 Q1006=
200904281350 METAR ESMX 281350Z 15005KT 090V250 CAVOK 24/08 Q1006=
200904281320 METAR ESMX 281320Z 06004KT 020V130 CAVOK 23/08 Q1006=
200904281250 METAR ESMX 281250Z 35005KT CAVOK 22/09 Q1006=
200904281220 METAR ESMX 281220Z 35005KT 320V020 CAVOK 22/09 Q1007=
200904281150 METAR ESMX 281150Z 01004KT 310V090 CAVOK 21/09 Q1007=
200904281120 METAR ESMX 281120Z 01004KT 300V050 CAVOK 20/09 Q1007=
200904281050 METAR ESMX 281050Z 02003KT 320V120 CAVOK 19/09 Q1007=
200904281020 METAR ESMX 281020Z 06004KT 010V130 CAVOK 18/08 Q1007=
200904280950 METAR ESMX 280950Z 04003KT 300V110 CAVOK 17/08 Q1007=
200904280920 METAR ESMX 280920Z 05004KT 350V100 CAVOK 16/07 Q1007=
200904280850 METAR ESMX 280850Z 04004KT 350V070 CAVOK 15/07 Q1007=
200904280820 METAR ESMX 280820Z 36005KT CAVOK 14/08 Q1007=
200904280750 METAR ESMX 280750Z 04003KT 360V090 CAVOK 13/08 Q1007=
200904280720 METAR ESMX 280720Z 36004KT 320V020 CAVOK 13/08 Q1007=
200904280650 METAR ESMX 280650Z 01005KT CAVOK 12/08 Q1007=
200904280620 METAR ESMX 280620Z 03004KT 360V060 CAVOK 12/08 Q1007=
200904280550 METAR ESMX 280550Z 01004KT 340V060 CAVOK 11/08 Q1007=
200904280520 METAR ESMX 280520Z 01004KT CAVOK 10/08 Q1007=
200904280450 METAR ESMX 280450Z 01002KT CAVOK 10/08 Q1007=
200904280420 METAR ESMX 280420Z 01003KT CAVOK 09/07 Q1007=
200904280350 METAR ESMX 280350Z VRB02KT CAVOK 09/07 Q1007=
200904280320 METAR ESMX 280320Z AUTO 31003KT 9999NDV BKN097/// 09/06 Q1006=
200904280250 METAR ESMX 280250Z AUTO 00000KT 9999NDV FEW075/// BKN097/// BKN110/// 09/07 Q1006=
200904280220 METAR ESMX 280220Z AUTO 00000KT 9999NDV FEW080/// SCT100/// 08/06 Q1006=
200904280150 METAR ESMX 280150Z AUTO 33002KT 9999NDV FEW065/// 09/06 Q1006=
200904280120 METAR ESMX 280120Z AUTO 30003KT 9999NDV FEW064/// 10/06 Q1006=
200904280050 METAR ESMX 280050Z AUTO 29003KT 250V330 9999NDV FEW063/// SCT110/// 11/07 Q1006=
200904280020 METAR ESMX 280020Z 35003KT CAVOK 11/07 Q1006=
200904272350 METAR ESMX 272350Z 26004KT CAVOK 11/07 Q1007=
200904272320 METAR ESMX 272320Z 26002KT CAVOK 10/06 Q1006=
200904272250 METAR ESMX 272250Z 22003KT CAVOK 10/06 Q1006=
200904272220 METAR ESMX 272220Z 23004KT CAVOK 12/07 Q1006=
200904272150 METAR ESMX 272150Z VRB02KT CAVOK 13/07 Q1005=
200904272120 METAR ESMX 272120Z 14003KT 110V170 CAVOK 13/07 Q1006=
200904272050 METAR ESMX 272050Z 16004KT CAVOK 14/07 Q1006=
200904272020 METAR ESMX 272020Z 16005KT 120V190 CAVOK 14/06 Q1005=
200904271950 METAR ESMX 271950Z 16005KT CAVOK 14/06 Q1006=
200904271920 METAR ESMX 271920Z 16006KT CAVOK 14/06 Q1005=
200904271850 METAR ESMX 271850Z 16007KT 140V200 CAVOK 15/06 Q1005=
200904271820 METAR ESMX 271820Z 16008KT CAVOK 15/06 Q1005=
200904271750 METAR ESMX 271750Z 16009KT CAVOK 16/06 Q1005=
200904271720 METAR ESMX 271720Z 17011KT 130V200 CAVOK 16/06 Q1004=
200904271650 METAR ESMX 271650Z 17011KT 140V200 CAVOK 17/06 Q1004=
200904271620 METAR ESMX 271620Z 16012KT CAVOK 17/06 Q1004=
200904271550 METAR ESMX 271550Z 18011KT CAVOK 18/06 Q1004=
200904271520 METAR ESMX 271520Z 17014KT 150V210 CAVOK 19/05 Q1004=
200904271450 METAR ESMX 271450Z 19014KT CAVOK 20/06 Q1004=
200904271420 METAR ESMX 271420Z 18016KT CAVOK 20/05 Q1004=
200904271350 METAR ESMX 271350Z 17015KT CAVOK 20/05 Q1003=
200904271320 METAR ESMX 271320Z 18014KT 140V210 CAVOK 21/05 Q1004=
200904271250 METAR ESMX 271250Z 16013KT 130V200 CAVOK 20/05 Q1003=
200904271220 METAR ESMX 271220Z 16012KT 120V190 CAVOK 19/05 Q1004=
200904271150 METAR ESMX 271150Z 16011KT 120V190 CAVOK 19/05 Q1004=
200904271120 METAR ESMX 271120Z 15010KT 110V200 CAVOK 18/06 Q1004=
200904271050 METAR ESMX 271050Z 17011KT 140V200 CAVOK 17/06 Q1004=
200904271020 METAR COR ESMX 271020Z 15011G22KT 110V190 CAVOK 16/06 Q1004=
200904270950 METAR ESMX 270950Z 16009KT CAVOK 16/06 Q1004=
200904270920 METAR ESMX 270920Z 16009KT 110V190 CAVOK 15/06 Q1004=
200904270850 METAR ESMX 270850Z 16008KT 120V200 CAVOK 16/06 Q1004=
200904270820 METAR ESMX 270820Z 17010KT 140V210 CAVOK 15/06 Q1004=
200904270750 METAR ESMX 270750Z 16011KT 120V210 CAVOK 14/06 Q1004=
200904270720 METAR ESMX 270720Z 16009KT 120V190 CAVOK 14/06 Q1004=
200904270650 METAR ESMX 270650Z 16007KT 120V200 CAVOK 14/06 Q1004=
200904270620 METAR ESMX 270620Z 16007KT 110V210 CAVOK 13/05 Q1004=
200904270550 METAR ESMX 270550Z 15007KT 120V190 CAVOK 12/05 Q1004=
200904270520 METAR ESMX 270520Z 14006KT 080V180 CAVOK 11/05 Q1004=
200904270450 METAR ESMX 270450Z 15006KT 110V190 CAVOK 11/05 Q1004=
200904270420 METAR ESMX 270420Z 14005KT 100V180 CAVOK 10/04 Q1004=
200904270350 METAR ESMX 270350Z 14006KT 110V170 CAVOK 10/04 Q1004=
200904270320 METAR ESMX 270320Z AUTO 14005KT 100V180 9999NDV SCT076/// 10/04 Q1005=
200904270250 METAR ESMX 270250Z AUTO 14006KT 110V170 9999NDV FEW079/// 11/04 Q1005=
200904270220 METAR ESMX 270220Z AUTO 14005KT 080V170 9999NDV FEW079/// 11/04 Q1005=
200904270150 METAR ESMX 270150Z AUTO 14005KT 080V170 9999NDV FEW081/// 11/04 Q1005=
200904270120 METAR ESMX 270120Z AUTO 14006KT 080V170 9999NDV FEW083/// 11/04 Q1006=
200904270050 METAR ESMX 270050Z AUTO 14004KT 100V170 9999NDV SCT074/// 11/04 Q1006=
200904270020 METAR ESMX 270020Z 13006KT CAVOK 11/04 Q1006=
200904262350 METAR ESMX 262350Z 13006KT CAVOK 12/04 Q1006=
200904262320 METAR ESMX 262320Z 13005KT CAVOK 12/04 Q1007=
200904262250 METAR ESMX 262250Z 13005KT CAVOK 11/04 Q1007=
200904262220 METAR ESMX 262220Z 12003KT CAVOK 11/04 Q1008=
200904262150 METAR ESMX 262150Z 12003KT CAVOK 11/04 Q1008=
200904262120 METAR ESMX 262120Z VRB02KT CAVOK 11/04 Q1009=
200904262050 METAR ESMX 262050Z VRB02KT CAVOK 11/04 Q1009=
200904262020 METAR ESMX 262020Z VRB02KT CAVOK 12/04 Q1009=
200904261950 METAR ESMX 261950Z 13002KT CAVOK 12/04 Q1010=
200904261920 METAR ESMX 261920Z 14003KT CAVOK 13/04 Q1010=
200904261850 METAR ESMX 261850Z 15004KT CAVOK 16/04 Q1010=
200904261820 METAR ESMX 261820Z 16006KT CAVOK 17/04 Q1010=
200904261750 METAR ESMX 261750Z 17009KT CAVOK 18/03 Q1010=
200904261720 METAR ESMX 261720Z 17010KT CAVOK 19/03 Q1010=
200904261650 METAR ESMX 261650Z 17011KT CAVOK 20/04 Q1010=
200904261620 METAR ESMX 261620Z 16010KT CAVOK 20/04 Q1011=
200904261550 METAR ESMX 261550Z 17012KT CAVOK 21/04 Q1011=
200904261520 METAR ESMX 261520Z 17012KT CAVOK 21/04 Q1011=
200904261450 METAR ESMX 261450Z 16009KT CAVOK 21/04 Q1011=
200904261420 METAR ESMX 261420Z 18012KT CAVOK 21/03 Q1011=
200904261350 METAR ESMX 261350Z 17012KT 140V200 CAVOK 21/04 Q1012=
200904261320 METAR ESMX 261320Z 16012G22KT 120V200 CAVOK 22/04 Q1012=
200904261250 METAR ESMX 261250Z 18012KT 150V220 CAVOK 22/04 Q1012=
200904261220 METAR ESMX 261220Z 18012KT 150V210 CAVOK 22/04 Q1012=
200904261150 METAR ESMX 261150Z 17012KT 140V200 CAVOK 22/04 Q1013=
200904261120 METAR ESMX 261120Z 16012KT 120V210 CAVOK 22/04 Q1013=
200904261050 METAR ESMX 261050Z 18011KT 140V200 CAVOK 22/05 Q1013=
200904261020 METAR ESMX 261020Z AUTO 17010KT 130V200 9999NDV NCD 21/04 Q1013=
200904260950 METAR ESMX 260950Z AUTO 19010KT 160V220 9999NDV NCD 21/04 Q1013=
200904260920 METAR ESMX 260920Z AUTO 19009KT 9999NDV NCD 19/05 Q1014=
200904260850 METAR ESMX 260850Z AUTO 16005KT 100V210 9999NDV NCD 18/05 Q1014=
200904260820 METAR ESMX 260820Z AUTO 15004KT 100V200 9999NDV NCD 17/05 Q1014=
200904260750 METAR ESMX 260750Z AUTO 15004KT 100V210 9999NDV NCD 15/05 Q1014=
200904260720 METAR ESMX 260720Z AUTO 16004KT 130V200 9999NDV NCD 13/04 Q1014=
200904260650 METAR ESMX 260650Z AUTO 16004KT 120V200 9999NDV NCD 11/04 Q1014=
200904260620 METAR ESMX 260620Z AUTO 15005KT 110V190 9999NDV NCD 10/03 Q1014=
200904260550 METAR ESMX 260550Z AUTO 16004KT 120V200 9999NDV NCD 09/03 Q1014=
200904260520 METAR ESMX 260520Z AUTO 16005KT 120V190 9999NDV NCD 08/03 Q1014=
200904260450 METAR ESMX 260450Z AUTO 15006KT 110V190 9999NDV NCD 07/02 Q1014=
200904260420 METAR ESMX 260420Z AUTO 15006KT 120V190 9999NDV NCD 06/02 Q1014=
200904260350 METAR ESMX 260350Z AUTO 15005KT 9999NDV NCD 06/02 Q1014=
200904260320 METAR ESMX 260320Z AUTO 14004KT 110V170 9999NDV NCD 06/02 Q1015=
200904260250 METAR ESMX 260250Z AUTO 14004KT 090V190 9999NDV NCD 06/02 Q1015=
200904260220 METAR ESMX 260220Z AUTO 14004KT 100V200 9999NDV NCD 06/02 Q1015=
200904260150 METAR ESMX 260150Z AUTO 14004KT 100V190 9999NDV NCD 06/02 Q1015=
200904260120 METAR ESMX 260120Z AUTO 14003KT 080V170 9999NDV NCD 05/01 Q1015=
200904260050 METAR ESMX 260050Z AUTO 14004KT 110V170 9999NDV NCD 05/01 Q1016=
200904260020 METAR ESMX 260020Z AUTO VRB02KT 9999NDV NCD 06/01 Q1016=
200904252350 METAR ESMX 252350Z AUTO 14003KT 100V200 9999NDV NCD 06/01 Q1016=
200904252320 METAR ESMX 252320Z AUTO 15004KT 110V200 9999NDV NCD 07/01 Q1016=
200904252250 METAR ESMX 252250Z AUTO 15005KT 110V190 9999NDV NCD 07/00 Q1016=
200904252220 METAR ESMX 252220Z AUTO 14005KT 100V170 9999NDV NCD 08/00 Q1017=
200904252150 METAR ESMX 252150Z AUTO 14005KT 090V170 9999NDV NCD 08/M00 Q1017=
200904252120 METAR ESMX 252120Z AUTO 14005KT 100V170 9999NDV NCD 08/M01 Q1017=
200904252050 METAR ESMX 252050Z AUTO 14003KT 9999NDV NCD 08/M01 Q1017=
200904252020 METAR ESMX 252020Z AUTO 14003KT 110V170 9999NDV NCD 09/M01 Q1018=
200904251950 METAR ESMX 251950Z AUTO 14004KT 110V180 9999NDV NCD 10/M01 Q1018=
200904251920 METAR ESMX 251920Z AUTO 16006KT 130V190 9999NDV NCD 11/M01 Q1018=
200904251850 METAR ESMX 251850Z AUTO 16006KT 110V180 9999NDV NCD 12/M02 Q1018=
200904251820 METAR ESMX 251820Z AUTO 16006KT 110V180 9999NDV NCD 13/M02 Q1018=
200904251750 METAR ESMX 251750Z AUTO 17008KT 130V210 9999NDV NCD 14/M03 Q1018=
200904251720 METAR ESMX 251720Z AUTO 16008KT 130V200 9999NDV NCD 14/M03 Q1018=
200904251650 METAR ESMX 251650Z AUTO 16010KT 120V200 9999NDV NCD 15/M03 Q1018=
200904251620 METAR ESMX 251620Z AUTO 16009KT 120V190 9999NDV NCD 16/M03 Q1019=
200904251550 METAR ESMX 251550Z AUTO 15010KT 120V200 9999NDV NCD 16/M02 Q1019=
200904251520 METAR ESMX 251520Z AUTO 17012KT 140V200 9999NDV NCD 16/M03 Q1019=
200904251450 METAR ESMX 251450Z AUTO 17012KT 140V210 9999NDV NCD 17/M02 Q1019=
200904251420 METAR ESMX 251420Z AUTO 17010KT 120V200 9999NDV NCD 17/M03 Q1019=
200904251350 METAR ESMX 251350Z AUTO 16009KT 120V200 9999NDV NCD 17/M01 Q1020=
200904251320 METAR ESMX 251320Z AUTO 16010KT 130V200 9999NDV NCD 17/M01 Q1020=
200904251250 METAR ESMX 251250Z AUTO 16010G21KT 120V200 9999NDV NCD 18/M02 Q1020=
200904251220 METAR ESMX 251220Z AUTO 14009KT 080V190 9999NDV NCD 18/M02 Q1021=
200904251150 METAR ESMX 251150Z 17009KT 120V220 CAVOK 17/M00 Q1021=
200904251120 METAR ESMX 251120Z 14007KT 080V180 CAVOK 17/00 Q1021=
200904251050 METAR ESMX 251050Z 14006KT 100V170 CAVOK 17/00 Q1021=
200904251020 METAR ESMX 251020Z 16010KT 140V200 CAVOK 16/M00 Q1022=
200904250950 METAR ESMX 250950Z 17008KT 120V200 CAVOK 16/M01 Q1022=
200904250920 METAR ESMX 250920Z 11006KT 060V160 CAVOK 15/01 Q1023=
200904250850 METAR ESMX 250850Z 16006KT 080V200 CAVOK 15/M01 Q1023=
200904250820 METAR ESMX 250820Z 14005KT 110V180 CAVOK 14/01 Q1023=
200904250750 METAR ESMX 250750Z 15007KT 080V180 CAVOK 13/00 Q1023=
200904250720 METAR ESMX 250720Z 15006KT 100V200 CAVOK 12/M00 Q1023=
200904250650 METAR ESMX 250650Z 15007KT 120V190 CAVOK 11/00 Q1024=
200904250550 METAR ESMX 250550Z 15006KT 130V190 CAVOK 09/01 Q1024=
200904250520 METAR ESMX 250520Z AUTO 15004KT 9999NDV NCD 07/01 Q1023=
200904250450 METAR ESMX 250450Z AUTO VRB02KT 9999NDV NCD 02/01 Q1023=
200904250420 METAR ESMX 250420Z AUTO 00000KT 9999NDV NCD 01/M00 Q1023=
200904250350 METAR ESMX 250350Z AUTO 00000KT 9999NDV NCD 02/01 Q1023=
200904250320 METAR ESMX 250320Z AUTO 16003KT 9999NDV NCD 03/00 Q1023=
200904250250 METAR ESMX 250250Z AUTO 17003KT 9999NDV NCD 06/00 Q1023=
200904250220 METAR ESMX 250220Z AUTO 18004KT 9999NDV NCD 05/01 Q1023=
200904250150 METAR ESMX 250150Z AUTO 18005KT 9999NDV NCD 06/02 Q1024=
200904250120 METAR ESMX 250120Z AUTO 16006KT 9999NDV NCD 06/03 Q1024=
200904250050 METAR ESMX 250050Z AUTO 16003KT 9999NDV NCD 03/01 Q1023=
200904250020 METAR ESMX 250020Z AUTO 16004KT 9999NDV NCD 05/02 Q1023=
200904242350 METAR ESMX 242350Z AUTO 16004KT 9999NDV NCD 04/02 Q1024=
200904242320 METAR ESMX 242320Z AUTO 15004KT 9999NDV NCD 05/02 Q1024=
200904242250 METAR ESMX 242250Z AUTO 15004KT 9999NDV NCD 05/02 Q1024=
200904242220 METAR ESMX 242220Z AUTO VRB02KT 9999NDV NCD 05/02 Q1024=
200904242150 METAR ESMX 242150Z AUTO 15003KT 9999NDV NCD 06/02 Q1024=
200904242120 METAR ESMX 242120Z AUTO 15003KT 9999NDV NCD 09/02 Q1024=
200904242050 METAR ESMX 242050Z AUTO 17004KT 9999NDV NCD 10/02 Q1024=
200904242020 METAR ESMX 242020Z AUTO 17005KT 9999NDV NCD 11/03 Q1024=
200904241950 METAR ESMX 241950Z AUTO 17005KT 9999NDV NCD 12/03 Q1024=
200904241920 METAR ESMX 241920Z AUTO 19007KT 9999NDV NCD 11/02 Q1024=
200904241850 METAR ESMX 241850Z AUTO 18007KT 9999NDV NCD 12/03 Q1024=
200904241820 METAR ESMX 241820Z 18006KT CAVOK 15/02 Q1023=
200904241750 METAR ESMX 241750Z VRB02KT CAVOK 16/02 Q1023=
200904241720 METAR ESMX 241720Z VRB02KT CAVOK 18/01 Q1023=
200904241650 METAR ESMX 241650Z 36003KT CAVOK 18/01 Q1023=
200904241620 METAR ESMX 241620Z VRB02KT CAVOK 19/01 Q1024=
200904241550 METAR ESMX 241550Z 26003KT 190V320 CAVOK 19/01 Q1024=
200904241520 METAR ESMX 241520Z 29004KT 210V350 CAVOK 19/02 Q1024=
200904241450 METAR ESMX 241450Z 22004KT 170V310 CAVOK 19/01 Q1024=
200904241420 METAR ESMX 241420Z VRB02KT CAVOK 18/01 Q1024=
200904241350 METAR ESMX 241350Z VRB04KT CAVOK 19/01 Q1025=
200904241320 METAR ESMX 241320Z 32004KT 240V020 CAVOK 18/01 Q1025=
200904241250 METAR ESMX 241250Z 28007KT 250V320 CAVOK 18/00 Q1025=
200904241220 METAR ESMX 241220Z 31005KT 240V030 CAVOK 18/00 Q1025=
200904241150 METAR ESMX 241150Z 30004KT 190V360 CAVOK 18/01 Q1026=
200904241120 METAR ESMX 241120Z VRB05KT CAVOK 17/02 Q1026=
200904241050 METAR ESMX 241050Z VRB04KT CAVOK 17/02 Q1026=
200904241020 METAR ESMX 241020Z VRB04KT CAVOK 16/03 Q1026=
200904240950 METAR ESMX 240950Z 30008KT 220V340 CAVOK 16/03 Q1026=
200904240920 METAR ESMX 240920Z 32008KT 270V010 CAVOK 16/03 Q1027=
200904240850 METAR ESMX 240850Z 28006KT 250V320 CAVOK 15/03 Q1027=
200904240820 METAR ESMX 240820Z 28004KT 220V020 CAVOK 14/02 Q1027=
200904240750 METAR ESMX 240750Z 30006KT 280V340 CAVOK 13/02 Q1027=
200904240720 METAR ESMX 240720Z 30004KT 250V340 CAVOK 12/02 Q1027=
200904240650 METAR ESMX 240650Z 28004KT 230V310 CAVOK 11/01 Q1027=
200904240620 METAR ESMX 240620Z 29003KT 260V340 CAVOK 09/M00 Q1027=
200904240550 METAR ESMX 240550Z VRB01KT CAVOK 07/01 Q1027=
200904240520 METAR ESMX 240520Z 00000KT CAVOK 04/M00 Q1027=
200904240450 METAR ESMX 240450Z 00000KT CAVOK 00/M02 Q1027=
200904240420 METAR ESMX 240420Z 00000KT CAVOK M01/M03 Q1027=
200904240350 METAR ESMX 240350Z 00000KT CAVOK M01/M03 Q1026=
200904240320 METAR ESMX 240320Z 00000KT CAVOK M01/M03 Q1026=
200904240250 METAR ESMX 240250Z AUTO 00000KT 9999NDV NCD M01/M03 Q1026=
200904240220 METAR ESMX 240220Z AUTO 00000KT 9999NDV NCD M01/M04 Q1026=
200904240150 METAR ESMX 240150Z AUTO 00000KT 9999NDV NCD M01/M04 Q1026=
200904240120 METAR ESMX 240120Z AUTO 19001KT 9999NDV NCD 01/M04 Q1026=
200904240050 METAR ESMX 240050Z AUTO 18002KT 9999NDV NCD 01/M04 Q1026=
200904240020 METAR ESMX 240020Z AUTO 00000KT 9999NDV NCD 01/M04 Q1026=
200904232350 METAR ESMX 232350Z AUTO 20002KT 9999NDV NCD 02/M05 Q1026=
200904232320 METAR ESMX 232320Z 16004KT CAVOK 02/M04 Q1026=
200904232250 METAR ESMX 232250Z 15004KT CAVOK 04/M05 Q1026=
200904232220 METAR ESMX 232220Z 17003KT CAVOK 03/M05 Q1026=
200904232150 METAR ESMX 232150Z 17004KT CAVOK 05/M05 Q1026=
200904232120 METAR ESMX 232120Z 16005KT CAVOK 06/M04 Q1026=
200904232050 METAR ESMX 232050Z 16004KT CAVOK 07/M03 Q1025=
200904232020 METAR ESMX 232020Z 17007KT CAVOK 08/M04 Q1025=
200904231950 METAR ESMX 231950Z 16008KT CAVOK 09/M02 Q1025=
200904231920 METAR ESMX 231920Z 14007KT CAVOK 10/M00 Q1025=
200904231850 METAR ESMX 231850Z 18002KT CAVOK 08/02 Q1024=
200904231820 METAR ESMX 231820Z 11001KT CAVOK 11/02 Q1024=
200904231750 METAR ESMX 231750Z 06002KT CAVOK 14/00 Q1024=
200904231720 METAR ESMX 231720Z 01003KT CAVOK 15/M01 Q1024=
200904231650 METAR ESMX 231650Z VRB02KT CAVOK 15/M01 Q1024=
200904231550 METAR ESMX 231550Z 02005KT 340V080 CAVOK 16/M01 Q1024=
200904231520 METAR ESMX 231520Z 01005KT 320V080 CAVOK 16/M01 Q1024=
200904231450 METAR ESMX 231450Z 06004KT 010V110 CAVOK 16/M01 Q1024=
200904231420 METAR ESMX 231420Z 01004KT 310V070 CAVOK 16/M01 Q1024=
200904231350 METAR ESMX 231350Z 06006KT 020V090 CAVOK 15/M01 Q1024=
200904231250 METAR ESMX 231250Z VRB03KT CAVOK 15/M01 Q1024=
200904231220 METAR ESMX 231220Z 36005KT 290V070 CAVOK 15/M01 Q1024=
200904231120 METAR ESMX 231120Z 35005KT 300V060 CAVOK 14/M01 Q1024=
200904231050 METAR ESMX 231050Z 03004KT 310V090 CAVOK 14/M02 Q1024=
200904231020 METAR ESMX 231020Z 03006KT 350V050 CAVOK 14/M02 Q1024=
200904230950 METAR ESMX 230950Z 02006KT 340V050 CAVOK 13/M02 Q1024=
200904230920 METAR ESMX 230920Z 36005KT 320V030 CAVOK 12/M03 Q1024=
200904230850 METAR ESMX 230850Z 02005KT 340V070 CAVOK 12/M04 Q1024=
200904230820 METAR ESMX 230820Z 01004KT 310V050 CAVOK 12/M05 Q1024=
200904230750 METAR ESMX 230750Z VRB02KT CAVOK 11/M05 Q1024=
200904230720 METAR ESMX 230720Z VRB01KT CAVOK 10/M06 Q1024=
200904230650 METAR ESMX 230650Z VRB01KT CAVOK 08/M01 Q1024=
200904230620 METAR ESMX 230620Z VRB01KT CAVOK 07/M00 Q1023=
200904230550 METAR ESMX 230550Z 00000KT CAVOK 05/01 Q1023=
200904230520 METAR ESMX 230520Z 00000KT CAVOK 04/02 Q1023=
200904230450 METAR ESMX 230450Z 01004KT CAVOK 03/02 Q1023=
200904230420 METAR ESMX 230420Z 01003KT CAVOK 02/01 Q1023=
200904230350 METAR ESMX 230350Z VRB01KT CAVOK M00/M01 Q1022=
200904230320 METAR ESMX 230320Z AUTO 18002KT 8000NDV BR BKN068/// M01/M02 Q1022=
200904230250 METAR ESMX 230250Z AUTO 00000KT 9999NDV NCD M02/M03 Q1022=
200904230220 METAR ESMX 230220Z AUTO 00000KT 9999NDV FEW068/// M02/M03 Q1022=
200904230150 METAR ESMX 230150Z AUTO 00000KT 9999NDV NCD M01/M02 Q1022=
200904230120 METAR ESMX 230120Z AUTO 00000KT 9999NDV NCD M01/M03 Q1022=
200904230050 METAR ESMX 230050Z AUTO 00000KT 9999NDV NCD M01/M02 Q1022=
200904230020 METAR ESMX 230020Z AUTO 00000KT 9999NDV NCD M01/M02 Q1021=
200904222350 METAR ESMX 222350Z AUTO 00000KT 9999NDV NCD M01/M03 Q1021=
200904222320 METAR COR ESMX 222320Z 00000KT CAVOK M01/M03 Q1021=
200904222250 METAR ESMX 222250Z VRB01KT 9999 NSC 02/M02 Q1021=
200904222220 METAR ESMX 222220Z 00000KT CAVOK 02/M02 Q1021=
200904222150 METAR ESMX 222150Z 35001KT CAVOK 03/M01 Q1020=
200904222120 METAR ESMX 222120Z 11001KT CAVOK 05/M02 Q1020=
200904222050 METAR ESMX 222050Z VRB01KT CAVOK 06/M02 Q1020=
200904222020 METAR ESMX 222020Z 12002KT CAVOK 06/M01 Q1020=
200904221950 METAR ESMX 221950Z 11003KT CAVOK 08/M02 Q1020=
200904221920 METAR ESMX 221920Z VRB02KT CAVOK 08/M02 Q1019=
200904221850 METAR ESMX 221850Z 12003KT CAVOK 09/M02 Q1019=
200904221820 METAR ESMX 221820Z 11005KT 060V150 CAVOK 10/M02 Q1019=
200904221750 METAR ESMX 221750Z 12004KT 070V190 CAVOK 11/M02 Q1019=
200904221720 METAR ESMX 221720Z 11004KT 070V170 CAVOK 12/M01 Q1018=
200904221650 METAR ESMX 221650Z 12004KT 070V160 CAVOK 12/M02 Q1018=
200904221620 METAR ESMX 221620Z 13005KT 070V200 CAVOK 14/M01 Q1018=
200904221550 METAR ESMX 221550Z 06004KT 020V110 CAVOK 14/00 Q1018=
200904221520 METAR ESMX 221520Z 09004KT 040V140 CAVOK 14/00 Q1017=
200904221450 METAR ESMX 221450Z 09005KT 040V150 CAVOK 14/00 Q1017=
200904221420 METAR ESMX 221420Z 08004KT 040V160 CAVOK 14/00 Q1017=
200904221350 METAR ESMX 221350Z 08005KT 030V120 CAVOK 14/01 Q1017=
200904221320 METAR ESMX 221320Z 10005KT 040V160 9999 FEW046 14/01 Q1017=
200904221250 METAR ESMX 221250Z 07005KT 020V190 9999 FEW028 14/00 Q1017=
200904221220 METAR ESMX 221220Z 16006KT 120V190 CAVOK 14/M00 Q1017=
200904221150 METAR ESMX 221150Z 10004KT 050V170 CAVOK 14/M00 Q1017=
200904221120 METAR ESMX 221120Z 11004KT 060V170 CAVOK 13/M00 Q1018=
200904221050 METAR ESMX 221050Z 07003KT 330V150 9999 FEW035 13/00 Q1018=
200904221020 METAR ESMX 221020Z VRB02KT CAVOK 13/00 Q1018=
200904220950 METAR ESMX 220950Z VRB03KT CAVOK 13/M01 Q1018=
200904220920 METAR ESMX 220920Z 15004KT 050V210 CAVOK 12/M00 Q1018=
200904220850 METAR ESMX 220850Z 15004KT 070V240 CAVOK 12/M01 Q1018=
200904220820 METAR ESMX 220820Z 15003KT 100V200 CAVOK 11/M02 Q1018=
200904220750 METAR ESMX 220750Z 16003KT 110V210 CAVOK 09/M03 Q1018=
200904220720 METAR ESMX 220720Z 14003KT 060V210 CAVOK 08/M03 Q1018=
200904220650 METAR ESMX 220650Z VRB02KT CAVOK 07/M01 Q1019=
200904220620 METAR ESMX 220620Z 15003KT 100V200 CAVOK 06/M00 Q1019=
200904220550 METAR ESMX 220550Z VRB02KT CAVOK 04/M00 Q1019=
200904220520 METAR ESMX 220520Z 11003KT 070V140 CAVOK 02/M00 Q1019=
200904220450 METAR ESMX 220450Z 10002KT CAVOK 00/M01 Q1019=
200904220420 METAR ESMX 220420Z 10001KT CAVOK M01/M02 Q1020=
200904220350 METAR ESMX 220350Z VRB01KT CAVOK M02/M03 Q1020=
200904220320 METAR ESMX 220320Z AUTO 00000KT 9999NDV NCD M02/M02 Q1020=
200904220250 METAR ESMX 220250Z AUTO VRB01KT 9999NDV NCD M01/M02 Q1021=
200904220220 METAR ESMX 220220Z AUTO 17003KT 9999NDV NCD M01/M02 Q1021=
200904220150 METAR ESMX 220150Z AUTO 17004KT 9999NDV NCD 01/M01 Q1021=
200904220120 METAR ESMX 220120Z AUTO 16004KT 9999NDV NCD 01/M02 Q1021=
200904220050 METAR ESMX 220050Z AUTO VRB04KT 9999NDV NCD 02/M01 Q1021=
200904220020 METAR ESMX 220020Z AUTO 16004KT 9999NDV NCD 02/M01 Q1022=
200904212350 METAR ESMX 212350Z 16003KT CAVOK 01/M02 Q1022=
200904212320 METAR ESMX 212320Z 16003KT CAVOK 02/M02 Q1022=
200904212250 METAR ESMX 212250Z 16005KT CAVOK 03/M03 Q1023=
200904212220 METAR ESMX 212220Z 16004KT CAVOK 03/M03 Q1023=
200904212150 METAR ESMX 212150Z 17005KT CAVOK 04/M03 Q1023=
200904212120 METAR ESMX 212120Z 16005KT 9999 BKN048 04/M02 Q1023=
200904212050 METAR ESMX 212050Z 16006KT 9999 BKN049 05/M02 Q1023=
200904212020 METAR ESMX 212020Z 17006KT 9999 OVC049 05/M04 Q1024=
200904211950 METAR ESMX 211950Z 17008KT CAVOK 06/M04 Q1024=
200904211920 METAR ESMX 211920Z 16007KT CAVOK 07/M04 Q1024=
200904211850 METAR ESMX 211850Z 16006KT CAVOK 08/M03 Q1024=
200904211820 METAR ESMX 211820Z 18006KT CAVOK 08/M03 Q1024=
200904211750 METAR ESMX 211750Z 17008KT CAVOK 09/M04 Q1024=
200904211720 METAR ESMX 211720Z 17008KT CAVOK 10/M03 Q1024=
200904211650 METAR ESMX 211650Z 18009KT CAVOK 11/M03 Q1024=
200904211620 METAR ESMX 211620Z 19010KT 150V230 CAVOK 11/M03 Q1024=
200904211550 METAR ESMX 211550Z 19010KT CAVOK 12/M01 Q1024=
200904211520 METAR ESMX 211520Z 21007KT CAVOK 12/M01 Q1025=
200904211450 METAR ESMX 211450Z 17008KT 120V200 CAVOK 13/M01 Q1025=
200904211420 METAR ESMX 211420Z 21008KT 170V240 CAVOK 12/M01 Q1025=
200904211350 METAR ESMX 211350Z 19009KT 150V220 CAVOK 13/M01 Q1026=
200904211250 METAR ESMX 211250Z 19009KT 150V220 CAVOK 13/M02 Q1026=
200904211220 METAR ESMX 211220Z 18008KT 140V210 CAVOK 12/M02 Q1027=
200904211150 METAR ESMX 211150Z 19008KT 150V230 CAVOK 11/M02 Q1027=
200904211120 METAR ESMX 211120Z 15007KT CAVOK 10/M02 Q1027=
200904211050 METAR ESMX 211050Z 17008KT 130V210 CAVOK 09/M03 Q1028=
200904211020 METAR ESMX 211020Z 19009KT 160V230 CAVOK 09/M03 Q1028=
200904210950 METAR ESMX 210950Z 16007KT 110V200 9999 FEW025 BKN070 08/M03 Q1028=
200904210920 METAR ESMX 210920Z 16006KT 120V200 CAVOK 07/M05 Q1028=
200904210850 METAR ESMX 210850Z 17008KT 130V220 9999 FEW036 BKN067 07/M05 Q1029=
200904210820 METAR ESMX 210820Z 17008KT 140V200 CAVOK 06/M04 Q1029=
200904210750 METAR ESMX 210750Z 15006KT 100V190 CAVOK 06/M04 Q1029=
200904210720 METAR ESMX 210720Z 15006KT 100V210 CAVOK 05/M04 Q1029=
200904210650 METAR ESMX 210650Z 14006KT 060V170 CAVOK 04/M03 Q1029=
200904210620 METAR ESMX 210620Z 15007KT 110V200 CAVOK 03/M02 Q1029=
200904210550 METAR ESMX 210550Z 16006KT 120V190 CAVOK 03/M02 Q1029=
200904210520 METAR ESMX 210520Z 15004KT 100V180 CAVOK 02/M01 Q1029=
200904210450 METAR ESMX 210450Z 15004KT 110V180 CAVOK 02/M01 Q1029=
200904210420 METAR ESMX 210420Z 15003KT 090V190 CAVOK 01/M02 Q1029=
200904210350 METAR ESMX 210350Z 16003KT 090V200 CAVOK 01/M01 Q1029=
200904210320 METAR ESMX 210320Z AUTO VRB03KT 9999NDV OVC056/// 01/M01 Q1029=
200904210250 METAR ESMX 210250Z AUTO 13004KT 090V170 9999NDV BKN051/// 01/M01 Q1029=
200904210220 METAR ESMX 210220Z AUTO 13003KT 080V160 9999NDV FEW052/// 00/M01 Q1029=
200904210150 METAR ESMX 210150Z AUTO 12004KT 080V170 9999NDV NCD 00/M01 Q1029=
200904210120 METAR ESMX 210120Z AUTO 12004KT 060V190 9999NDV FEW054/// 01/M01 Q1029=
200904210050 METAR ESMX 210050Z AUTO 11004KT 070V160 9999NDV NCD 01/M01 Q1029=
200904210020 METAR ESMX 210020Z AUTO 13004KT 070V180 9999NDV NCD 01/M01 Q1029=
200904202350 METAR ESMX 202350Z AUTO 12004KT 060V170 9999NDV NCD 02/M01 Q1029=
200904202320 METAR ESMX 202320Z 12004KT 060V170 9999 FEW015 02/M01 Q1029=
200904202250 METAR ESMX 202250Z 13005KT 080V180 9999 FEW015 02/M01 Q1029=
200904202220 METAR ESMX 202220Z 13004KT 080V170 9999 SCT015 03/M01 Q1029=
200904202150 METAR ESMX 202150Z 13007KT 060V170 9999 BKN013 03/M00 Q1029=
200904202120 METAR ESMX 202120Z 13005KT 080V170 9999 FEW015 04/00 Q1029=
200904202050 METAR ESMX 202050Z 11004KT 030V160 9999 FEW030 04/M00 Q1028=
200904202020 METAR ESMX 202020Z 12005KT 040V170 9999 FEW030 05/M00 Q1028=
200904201950 METAR ESMX 201950Z 12005KT 080V190 9999 SCT030 BKN060 05/M00 Q1028=
200904201920 METAR ESMX 201920Z 13007KT 080V160 9999 BKN025 07/00 Q1028=
200904201850 METAR ESMX 201850Z 14007KT 100V170 9999 SCT025 BKN060 07/01 Q1027=
200904201820 METAR ESMX 201820Z 13007KT 080V170 9999 SCT030 BKN060 08/01 Q1027=
200904201750 METAR ESMX 201750Z 14006KT 080V180 CAVOK 08/01 Q1026=
200904201720 METAR ESMX 201720Z 12007KT 060V160 CAVOK 09/02 Q1026=
200904201650 METAR ESMX 201650Z 14008KT 080V200 CAVOK 09/02 Q1026=
200904201620 METAR ESMX 201620Z 13008KT 080V170 CAVOK 11/02 Q1025=
200904201550 METAR ESMX 201550Z 11007KT 060V160 CAVOK 12/03 Q1025=
200904201520 METAR ESMX 201520Z 13008KT CAVOK 15/M00 Q1025=
200904201450 METAR ESMX 201450Z 31004KT CAVOK 15/M01 Q1025=
200904201420 METAR ESMX 201420Z 30007KT 260V330 CAVOK 17/M00 Q1025=
200904201350 METAR ESMX 201350Z 04005KT 350V090 CAVOK 17/M01 Q1025=
200904201320 METAR ESMX 201320Z 03006KT CAVOK 16/M00 Q1025=
200904201250 METAR ESMX 201250Z 34007KT CAVOK 15/M01 Q1025=
200904201220 METAR ESMX 201220Z 30006KT 250V340 CAVOK 15/00 Q1025=
200904201150 METAR ESMX 201150Z 35005KT 290V030 CAVOK 15/01 Q1025=
200904201120 METAR ESMX 201120Z 29006KT 250V340 CAVOK 14/01 Q1026=
200904201050 METAR ESMX 201050Z 28006KT 240V310 CAVOK 14/02 Q1026=
200904201020 METAR ESMX 201020Z 30005KT 230V010 CAVOK 13/01 Q1026=
200904200950 METAR ESMX 200950Z 35005KT 300V030 CAVOK 13/02 Q1026=
200904200920 METAR ESMX 200920Z 31008KT 260V360 CAVOK 13/03 Q1026=
200904200820 METAR ESMX 200820Z 32006KT 260V020 CAVOK 11/03 Q1026=
200904200750 METAR ESMX 200750Z 31007KT CAVOK 10/03 Q1026=
200904200720 METAR ESMX 200720Z 30005KT 260V010 CAVOK 08/03 Q1026=
200904200650 METAR ESMX 200650Z 28005KT 250V320 CAVOK 07/03 Q1026=
200904200620 METAR ESMX 200620Z 28005KT 240V320 CAVOK 05/02 Q1026=
200904200520 METAR ESMX 200520Z VRB02KT CAVOK 03/01 Q1026=
200904200450 METAR ESMX 200450Z VRB01KT CAVOK 01/M00 Q1025=
200904200420 METAR ESMX 200420Z 22003KT CAVOK 00/M02 Q1025=
200904200350 METAR ESMX 200350Z 19004KT CAVOK M00/M02 Q1025=
200904200320 METAR ESMX 200320Z 19003KT CAVOK M00/M02 Q1025=
200904200250 METAR ESMX 200250Z AUTO 18003KT 9999NDV NCD 01/M02 Q1025=
200904200220 METAR ESMX 200220Z AUTO 23003KT 9999NDV NCD 01/M03 Q1025=
200904200150 METAR ESMX 200150Z AUTO 26003KT 230V310 9999NDV NCD 02/M03 Q1025=
200904200120 METAR ESMX 200120Z AUTO 25006KT 9999NDV NCD 02/M03 Q1025=
200904200050 METAR ESMX 200050Z AUTO 23005KT 9999NDV NCD 01/M03 Q1025=
200904200020 METAR ESMX 200020Z AUTO 24004KT 9999NDV NCD 02/M03 Q1025=
200904192350 METAR ESMX 192350Z 24004KT CAVOK 02/M03 Q1025=
200904192320 METAR COR ESMX 192320Z 23004KT CAVOK 02/M03 Q1026=
200904192250 METAR ESMX 192250Z 25003KT CAVOK 02/M03 Q1026=
200904192220 METAR ESMX 192220Z 25003KT CAVOK 03/M03 Q1026=
200904192150 METAR ESMX 192150Z 23003KT CAVOK 03/M02 Q1026=
200904192120 METAR ESMX 192120Z 23004KT CAVOK 03/M02 Q1026=
200904192050 METAR ESMX 192050Z 25004KT CAVOK 04/M02 Q1026=
200904192020 METAR ESMX 192020Z 24004KT CAVOK 04/M02 Q1026=
200904191950 METAR ESMX 191950Z 24005KT CAVOK 05/M02 Q1026=
200904191920 METAR ESMX 191920Z 25004KT CAVOK 05/M02 Q1026=
200904191850 METAR ESMX 191850Z 25004KT CAVOK 06/M02 Q1026=
200904191820 METAR ESMX 191820Z 26005KT 220V290 CAVOK 07/M02 Q1026=
200904191750 METAR ESMX 191750Z 26005KT 240V300 CAVOK 08/M02 Q1026=
200904191720 METAR ESMX 191720Z 28009KT 240V320 CAVOK 10/M02 Q1026=
200904191650 METAR ESMX 191650Z 28008KT 250V320 CAVOK 10/M02 Q1026=
200904191620 METAR ESMX 191620Z 26008KT 210V300 CAVOK 11/M02 Q1026=
200904191550 METAR ESMX 191550Z 24007KT 200V290 CAVOK 11/M03 Q1026=
200904191520 METAR ESMX 191520Z 28008KT CAVOK 11/M03 Q1027=
200904191450 METAR ESMX 191450Z 24009KT 210V280 CAVOK 11/M03 Q1027=
200904191420 METAR ESMX 191420Z 21009KT 170V240 CAVOK 10/M03 Q1027=
200904191350 METAR ESMX 191350Z 22008KT 190V260 CAVOK 10/M04 Q1028=
200904191320 METAR ESMX 191320Z 21007KT 170V250 CAVOK 10/M06 Q1028=
200904191250 METAR ESMX 191250Z 23007KT 190V270 CAVOK 10/M05 Q1028=
200904191220 METAR ESMX 191220Z 19009KT 9999 FEW044 09/M06 Q1029=
200904191150 METAR ESMX 191150Z 24008KT 200V270 9999 FEW045 SCT050 08/M07 Q1029=
200904191120 METAR ESMX 191120Z 24008KT 9999 FEW045 BKN050 07/M07 Q1029=
200904191050 METAR ESMX 191050Z 21008KT 160V240 CAVOK 07/M08 Q1030=
200904191020 METAR ESMX 191020Z 21007KT 160V240 9999 BKN044 OVC053 06/M08 Q1030=
200904190950 METAR ESMX 190950Z 21007KT 160V240 9999 OVC044 05/M08 Q1030=
200904190920 METAR ESMX 190920Z 19006KT 160V230 9999 OVC043 05/M09 Q1030=
200904190850 METAR ESMX 190850Z 20005KT 160V230 9999 BKN045 04/M06 Q1030=
200904190820 METAR ESMX 190820Z 19005KT 160V250 9999 OVC045 04/M05 Q1030=
200904190750 METAR ESMX 190750Z AUTO 19005KT 160V240 9999NDV FEW045/// OVC054/// 04/M04 Q1030=
200904190720 METAR ESMX 190720Z AUTO 21006KT 170V240 9999NDV OVC052/// 03/M04 Q1030=
200904190650 METAR ESMX 190650Z AUTO 19005KT 9999NDV OVC051/// 03/M03 Q1030=
200904190620 METAR ESMX 190620Z AUTO 20004KT 9999NDV OVC047/// 02/M02 Q1030=
200904190550 METAR ESMX 190550Z AUTO 18003KT 9999NDV OVC050/// 02/M01 Q1030=
200904190520 METAR ESMX 190520Z AUTO 21001KT 9999NDV OVC050/// 01/M01 Q1030=
200904190450 METAR ESMX 190450Z AUTO 19001KT 9999NDV OVC053/// 01/M02 Q1029=
200904190420 METAR ESMX 190420Z AUTO 20002KT 9999NDV OVC052/// 01/M02 Q1029=
200904190350 METAR ESMX 190350Z AUTO 19003KT 9999NDV OVC054/// 01/M02 Q1029=
200904190320 METAR ESMX 190320Z AUTO 16003KT 9999NDV OVC055/// 01/M02 Q1029=
200904190250 METAR ESMX 190250Z AUTO 16003KT 130V200 9999NDV OVC055/// 01/M02 Q1029=
200904190220 METAR ESMX 190220Z AUTO VRB02KT 9999NDV OVC056/// 01/M02 Q1029=
200904190150 METAR ESMX 190150Z AUTO VRB02KT 9999NDV OVC057/// 00/M02 Q1028=
200904190120 METAR ESMX 190120Z AUTO 13003KT 090V170 9999NDV FEW015/// OVC057/// 00/M02 Q1028=
200904190050 METAR ESMX 190050Z AUTO VRB02KT 9999NDV OVC055/// M00/M03 Q1028=
200904190020 METAR ESMX 190020Z AUTO VRB02KT 9999NDV BKN056/// M01/M03 Q1028=
200904182350 METAR ESMX 182350Z AUTO VRB02KT 9999NDV NCD M00/M03 Q1028=
200904182320 METAR ESMX 182320Z AUTO 12004KT 080V160 9999NDV NCD 00/M04 Q1028=
200904182250 METAR ESMX 182250Z AUTO 12004KT 080V180 9999NDV NCD 01/M04 Q1027=
200904182220 METAR ESMX 182220Z AUTO 11003KT 070V150 9999NDV NCD 01/M05 Q1027=
200904182150 METAR ESMX 182150Z AUTO 12003KT 070V200 9999NDV NCD 02/M04 Q1027=
200904182120 METAR ESMX 182120Z AUTO 13004KT 090V170 9999NDV NCD 02/M04 Q1026=
200904182050 METAR ESMX 182050Z AUTO 12005KT 030V170 9999NDV NCD 03/M04 Q1026=
200904182020 METAR ESMX 182020Z AUTO 13005KT 070V170 9999NDV NCD 03/M03 Q1025=
200904181950 METAR ESMX 181950Z AUTO 12005KT 080V180 9999NDV NCD 04/M03 Q1025=
200904181920 METAR ESMX 181920Z AUTO 13005KT 070V170 9999NDV NCD 04/M03 Q1024=
200904181850 METAR ESMX 181850Z AUTO 12007KT 060V170 9999NDV SCT065/// 05/M03 Q1024=
200904181820 METAR ESMX 181820Z AUTO 13006KT 080V180 9999NDV FEW050/// OVC065/// 06/M03 Q1023=
200904181750 METAR ESMX 181750Z AUTO 13007KT 080V170 9999NDV FEW050/// OVC065/// 08/M03 Q1023=
200904181720 METAR ESMX 181720Z AUTO 14006KT 090V190 9999NDV OVC065/// 09/M02 Q1022=
200904181650 METAR ESMX 181650Z AUTO 12007KT 080V160 3600NDV BKN065/// 10/M03 Q1021=
200904181620 METAR ESMX 181620Z AUTO 02004KT 350V070 9999NDV NCD 13/M04 Q1021=
200904181550 METAR ESMX 181550Z AUTO 02003KT 300V080 9999NDV NCD 13/M05 Q1020=
200904181520 METAR ESMX 181520Z AUTO 03005KT 340V070 9999NDV NCD 13/M05 Q1020=
200904181450 METAR ESMX 181450Z AUTO 04006KT 360V080 9999NDV NCD 13/M05 Q1020=
200904181420 METAR ESMX 181420Z AUTO 01004KT 330V080 9999NDV NCD 13/M04 Q1019=
200904181350 METAR ESMX 181350Z AUTO 01003KT 320V120 9999NDV NCD 12/M04 Q1019=
200904181320 METAR ESMX 181320Z AUTO VRB04KT 9999NDV NCD 12/M04 Q1019=
200904181250 METAR ESMX 181250Z AUTO 08004KT 020V140 9999NDV NCD 12/M04 Q1019=
200904181220 METAR ESMX 181220Z AUTO 04003KT 340V110 9999NDV NCD 12/M03 Q1019=
200904181150 METAR ESMX 181150Z 05005KT 350V110 CAVOK 12/M04 Q1019=
200904181120 METAR ESMX 181120Z 05006KT CAVOK 12/M03 Q1019=
200904181050 METAR ESMX 181050Z 03007KT CAVOK 11/M04 Q1019=
200904181020 METAR ESMX 181020Z 03007KT CAVOK 10/M03 Q1018=
200904180950 METAR ESMX 180950Z 01006KT CAVOK 10/M03 Q1018=
200904180920 METAR ESMX 180920Z 02007KT CAVOK 09/M03 Q1018=
200904180850 METAR ESMX 180850Z 01008KT CAVOK 09/M03 Q1018=
200904180820 METAR ESMX 180820Z 06007KT 030V100 CAVOK 08/M03 Q1018=
200904180750 METAR ESMX 180750Z 02007KT CAVOK 07/M03 Q1017=
200904180720 METAR ESMX 180720Z 04009KT CAVOK 07/M03 Q1017=
200904180650 METAR ESMX 180650Z 04008KT CAVOK 07/M02 Q1016=
200904180620 METAR ESMX 180620Z 04010KT CAVOK 06/M02 Q1016=
200904180550 METAR ESMX 180550Z 02009KT CAVOK 05/M02 Q1016=
200904180520 METAR ESMX 180520Z AUTO 01007KT 9999NDV NCD 04/M01 Q1015=
200904180450 METAR ESMX 180450Z AUTO 36006KT 9999NDV NCD 02/M02 Q1015=
200904180420 METAR ESMX 180420Z AUTO 02005KT 9999NDV NCD 03/M02 Q1015=
200904180350 METAR ESMX 180350Z AUTO 02005KT 9999NDV NCD 03/M02 Q1014=
200904180320 METAR ESMX 180320Z AUTO 02005KT 9999NDV NCD 03/M02 Q1014=
200904180250 METAR ESMX 180250Z AUTO 01006KT 9999NDV NCD 02/M02 Q1014=
200904180220 METAR ESMX 180220Z AUTO 36005KT 9999NDV NCD 02/M01 Q1014=
200904180150 METAR ESMX 180150Z AUTO 02004KT 9999NDV NCD 02/M01 Q1013=
200904180120 METAR ESMX 180120Z AUTO 01002KT 9999NDV NCD 01/M02 Q1013=
200904180050 METAR ESMX 180050Z AUTO VRB01KT 9999NDV NCD M00/M02 Q1013=
200904180020 METAR ESMX 180020Z AUTO 01001KT 9999NDV NCD 00/M03 Q1013=
200904172350 METAR ESMX 172350Z AUTO VRB01KT 9999NDV NCD 02/M02 Q1013=
200904172320 METAR ESMX 172320Z AUTO 34001KT 9999NDV NCD 02/M02 Q1012=
200904172250 METAR ESMX 172250Z AUTO 34004KT 9999NDV NCD 02/M01 Q1013=
200904172220 METAR ESMX 172220Z AUTO VRB02KT 9999NDV NCD 03/M01 Q1012=
200904172150 METAR ESMX 172150Z AUTO 35003KT 9999NDV NCD 05/M00 Q1012=
200904172120 METAR ESMX 172120Z AUTO 01004KT 9999NDV NCD 07/01 Q1012=
200904172050 METAR ESMX 172050Z AUTO 01004KT 9999NDV NCD 06/01 Q1012=
200904172020 METAR ESMX 172020Z AUTO 01005KT 9999NDV NCD 07/02 Q1012=
200904171950 METAR ESMX 171950Z AUTO 36004KT 9999NDV NCD 07/02 Q1012=
200904171920 METAR ESMX 171920Z AUTO 35003KT 9999NDV NCD 08/02 Q1012=
200904171850 METAR ESMX 171850Z AUTO 01003KT 9999NDV NCD 09/02 Q1012=
200904171820 METAR ESMX 171820Z 35005KT CAVOK 10/01 Q1011=
200904171750 METAR ESMX 171750Z 35007KT CAVOK 12/00 Q1011=
200904171720 METAR ESMX 171720Z 34008KT CAVOK 14/M00 Q1011=
200904171650 METAR ESMX 171650Z 35007KT CAVOK 14/M01 Q1011=
200904171620 METAR ESMX 171620Z 01005KT 330V030 CAVOK 15/M02 Q1011=
200904171550 METAR ESMX 171550Z 36003KT 290V050 CAVOK 15/M02 Q1011=
200904171520 METAR ESMX 171520Z 36004KT 300V060 CAVOK 15/M02 Q1011=
200904171450 METAR ESMX 171450Z 06004KT 010V160 CAVOK 15/M03 Q1011=
200904171420 METAR ESMX 171420Z 06003KT 330V130 CAVOK 15/M03 Q1012=
200904171350 METAR ESMX 171350Z VRB03KT CAVOK 15/M02 Q1012=
200904171320 METAR ESMX 171320Z 01004KT 320V070 CAVOK 14/M04 Q1012=
200904171250 METAR ESMX 171250Z 02008KT CAVOK 14/M04 Q1013=
200904171220 METAR ESMX 171220Z 07006KT 360V100 CAVOK 15/M04 Q1013=
200904171150 METAR ESMX 171150Z 01007KT 330V060 CAVOK 14/M05 Q1013=
200904171120 METAR ESMX 171120Z 03008KT 350V060 CAVOK 14/M06 Q1013=
200904171050 METAR ESMX 171050Z 03007KT 350V070 CAVOK 13/M05 Q1014=
200904171020 METAR ESMX 171020Z 04006KT 010V100 CAVOK 13/M06 Q1013=
200904170950 METAR ESMX 170950Z 04008KT 010V080 CAVOK 12/M07 Q1014=
200904170920 METAR ESMX 170920Z 01008KT 350V050 CAVOK 11/M08 Q1014=
200904170850 METAR ESMX 170850Z 05007KT 360V100 CAVOK 10/M09 Q1014=
200904170750 METAR ESMX 170750Z 02008KT 340V060 CAVOK 08/M05 Q1015=
200904170650 METAR ESMX 170650Z 04007KT 010V070 CAVOK 05/M04 Q1015=
200904170620 METAR ESMX 170620Z 03007KT CAVOK 04/M05 Q1015=
200904170550 METAR ESMX 170550Z 02004KT CAVOK 03/M03 Q1015=
200904170520 METAR ESMX 170520Z 01003KT CAVOK 00/M02 Q1015=
200904170450 METAR ESMX 170450Z 34005KT CAVOK M02/M02 Q1015=
200904170420 METAR ESMX 170420Z VRB02KT CAVOK M03/M04 Q1015=
200904170350 METAR ESMX 170350Z 36003KT CAVOK M04/M05 Q1015=
200904170320 METAR ESMX 170320Z AUTO VRB01KT 9999NDV NCD M03/M04 Q1015=
200904170250 METAR ESMX 170250Z AUTO 03001KT 9999NDV NCD M03/M05 Q1015=
200904170220 METAR ESMX 170220Z AUTO 04002KT 9999NDV NCD M04/M05 Q1016=
200904170150 METAR ESMX 170150Z AUTO 00000KT 9999NDV NCD M03/M05 Q1016=
200904170120 METAR ESMX 170120Z AUTO 34001KT 9999NDV NCD M04/M05 Q1016=
200904170050 METAR ESMX 170050Z AUTO 00000KT 9999NDV NCD M03/M05 Q1016=
200904170020 METAR ESMX 170020Z AUTO 36001KT 9999NDV NCD M03/M05 Q1016=
200904162350 METAR ESMX 162350Z AUTO 00000KT 9999NDV NCD M03/M05 Q1017=
200904162320 METAR ESMX 162320Z VRB02KT CAVOK M02/M05 Q1017=
200904162250 METAR ESMX 162250Z 08003KT 050V120 CAVOK M01/M05 Q1017=
200904162220 METAR ESMX 162220Z 11002KT CAVOK M00/M05 Q1018=
200904162050 METAR ESMX 162050Z 11002KT CAVOK 03/M05 Q1018=
200904162020 METAR ESMX 162020Z VRB02KT CAVOK 04/M05 Q1018=
200904161950 METAR ESMX 161950Z 11003KT 070V160 CAVOK 05/M05 Q1018=
200904161920 METAR ESMX 161920Z 12004KT 050V190 CAVOK 05/M05 Q1018=
200904161850 METAR ESMX 161850Z 11004KT 070V160 CAVOK 06/M05 Q1018=
200904161820 METAR ESMX 161820Z 11005KT 070V150 CAVOK 07/M05 Q1018=
200904161750 METAR ESMX 161750Z 09005KT 040V130 CAVOK 08/M06 Q1018=
200904161720 METAR ESMX 161720Z 09006KT 050V170 CAVOK 09/M06 Q1018=
200904161650 METAR ESMX 161650Z 08005KT 030V140 CAVOK 10/M05 Q1018=
200904161620 METAR ESMX 161620Z 09005KT 050V140 CAVOK 10/M06 Q1018=
200904161550 METAR ESMX 161550Z 09006KT 030V160 CAVOK 11/M05 Q1018=
200904161520 METAR ESMX 161520Z 09006KT 020V150 CAVOK 11/M05 Q1018=
200904161450 METAR ESMX 161450Z 11007KT 020V170 CAVOK 12/M05 Q1019=
200904161420 METAR ESMX 161420Z 09006KT 040V140 CAVOK 12/M04 Q1019=
200904161320 METAR ESMX 161320Z 16007KT 110V200 CAVOK 13/M04 Q1019=
200904161250 METAR ESMX 161250Z 11007KT 050V140 CAVOK 13/M05 Q1020=
200904161150 METAR ESMX 161150Z 07007KT 030V110 CAVOK 13/M04 Q1020=
200904161120 METAR ESMX 161120Z 09007KT 010V160 CAVOK 13/M05 Q1020=
200904161050 METAR ESMX 161050Z 12007KT 070V170 CAVOK 12/M05 Q1021=
200904161020 METAR ESMX 161020Z 09008KT 020V130 CAVOK 11/M05 Q1021=
200904160950 METAR ESMX 160950Z 09008KT 030V150 CAVOK 12/M05 Q1022=
200904160920 METAR ESMX 160920Z 07009KT 030V140 CAVOK 11/M05 Q1022=
200904160850 METAR ESMX 160850Z 08007KT 030V140 CAVOK 10/M05 Q1022=
200904160820 METAR ESMX 160820Z 10007KT 050V150 CAVOK 09/M05 Q1022=
200904160750 METAR ESMX 160750Z 09007KT 010V170 CAVOK 08/M05 Q1023=
200904160720 METAR ESMX 160720Z 10006KT 050V140 CAVOK 07/M04 Q1023=
200904160650 METAR ESMX 160650Z 08006KT 020V120 CAVOK 06/M03 Q1023=
200904160620 METAR ESMX 160620Z 08005KT 030V130 CAVOK 05/M02 Q1023=
200904160550 METAR ESMX 160550Z 07005KT 350V120 CAVOK 04/M02 Q1023=
200904160520 METAR ESMX 160520Z 07005KT 020V130 CAVOK 03/M02 Q1023=
200904160450 METAR ESMX 160450Z 07005KT 020V110 CAVOK 02/M01 Q1023=
200904160420 METAR ESMX 160420Z 07005KT 030V110 CAVOK 01/M02 Q1023=
200904160350 METAR ESMX 160350Z 07005KT 020V110 CAVOK 01/M02 Q1023=
200904160320 METAR ESMX 160320Z AUTO 07006KT 030V100 9999NDV NCD 01/M02 Q1023=
200904160250 METAR ESMX 160250Z AUTO 07006KT 030V110 9999NDV NCD 02/M02 Q1023=
200904160220 METAR ESMX 160220Z AUTO 06005KT 020V100 9999NDV NCD 02/M02 Q1024=
200904160150 METAR ESMX 160150Z AUTO 06005KT 010V110 9999NDV NCD 02/M02 Q1024=
200904160120 METAR ESMX 160120Z AUTO 06006KT 020V100 9999NDV NCD 02/M02 Q1024=
200904160050 METAR ESMX 160050Z AUTO 06005KT 010V120 9999NDV NCD 02/M02 Q1024=
200904160020 METAR ESMX 160020Z AUTO 06005KT 020V100 9999NDV NCD 02/M02 Q1024=
200904152350 METAR ESMX 152350Z AUTO 07005KT 010V110 9999NDV NCD 03/M01 Q1024=
200904152320 METAR ESMX 152320Z 06006KT 010V110 CAVOK 03/M01 Q1024=
200904152250 METAR ESMX 152250Z 06007KT 010V110 CAVOK 03/M01 Q1024=
200904152220 METAR ESMX 152220Z 06006KT 360V110 CAVOK 03/M01 Q1024=
200904152150 METAR ESMX 152150Z 07007KT 030V100 CAVOK 04/M01 Q1024=
200904152120 METAR ESMX 152120Z 07008KT 030V110 CAVOK 04/M01 Q1024=
200904152050 METAR ESMX 152050Z 05007KT 020V100 CAVOK 04/M01 Q1024=
200904152020 METAR ESMX 152020Z 05007KT 020V120 CAVOK 05/M01 Q1023=
200904151950 METAR ESMX 151950Z 04007KT 360V080 CAVOK 06/00 Q1023=
200904151920 METAR ESMX 151920Z 05008KT CAVOK 07/00 Q1023=
200904151850 METAR ESMX 151850Z 06009KT 020V110 CAVOK 07/M00 Q1023=
200904151820 METAR ESMX 151820Z 06010KT 010V110 CAVOK 08/M01 Q1023=
200904151750 METAR ESMX 151750Z 05009KT 360V100 CAVOK 09/M01 Q1022=
200904151720 METAR ESMX 151720Z 05010KT 010V090 CAVOK 10/M01 Q1022=
200904151650 METAR ESMX 151650Z 05010KT 350V080 CAVOK 11/M03 Q1022=
200904151620 METAR ESMX 151620Z 06009KT 020V120 CAVOK 11/M05 Q1022=
200904151550 METAR ESMX 151550Z 07010KT 020V110 CAVOK 12/M04 Q1021=
200904151520 METAR ESMX 151520Z 04012KT 360V080 CAVOK 13/M03 Q1021=
200904151450 METAR ESMX 151450Z 05009KT 010V110 CAVOK 13/M03 Q1021=
200904151420 METAR ESMX 151420Z 04011KT 360V080 CAVOK 13/M03 Q1021=
200904151350 METAR ESMX 151350Z 04012KT CAVOK 14/M03 Q1021=
200904151320 METAR ESMX 151320Z 06011KT 020V080 CAVOK 14/M01 Q1021=
200904151250 METAR ESMX 151250Z 07008KT 020V100 CAVOK 14/M01 Q1021=
200904151150 METAR ESMX 151150Z 07010KT 020V120 CAVOK 14/M01 Q1021=
200904151120 METAR ESMX 151120Z 06011KT 030V090 CAVOK 13/M01 Q1021=
200904151050 METAR ESMX 151050Z 06010KT 010V120 CAVOK 13/M00 Q1021=
200904151020 METAR ESMX 151020Z 07009KT 030V110 CAVOK 13/01 Q1021=
200904150950 METAR ESMX 150950Z 06008KT 020V100 CAVOK 12/02 Q1021=
200904150820 METAR ESMX 150820Z 08007KT 040V120 9999 OVC063 08/03 Q1021=
200904150750 METAR ESMX 150750Z 07008KT 020V110 CAVOK 07/03 Q1021=
200904150720 METAR ESMX 150720Z 07006KT 020V110 CAVOK 07/03 Q1020=
200904150650 METAR ESMX 150650Z 06005KT 020V130 CAVOK 07/03 Q1020=
200904150620 METAR ESMX 150620Z 04005KT 020V080 CAVOK 06/03 Q1020=
200904150550 METAR ESMX 150550Z 04006KT 350V080 CAVOK 06/02 Q1019=
200904150520 METAR ESMX 150520Z 04003KT CAVOK 06/02 Q1019=
200904150450 METAR ESMX 150450Z 03004KT CAVOK 05/02 Q1019=
200904150420 METAR ESMX 150420Z 07004KT 9999 FEW047 BKN060 05/02 Q1019=
200904150350 METAR ESMX 150350Z 07004KT 9999 SCT048 BKN059 05/02 Q1019=
200904150320 METAR ESMX 150320Z 06005KT 9999 BKN048 06/02 Q1018=
200904150250 METAR ESMX 150250Z AUTO 06006KT 030V100 9999NDV OVC049/// 06/03 Q1018=
200904150220 METAR ESMX 150220Z AUTO 04005KT 9999NDV OVC049/// 06/03 Q1018=
200904150150 METAR ESMX 150150Z AUTO 04004KT 9999NDV OVC048/// 06/02 Q1018=
200904150120 METAR ESMX 150120Z AUTO 06004KT 020V080 9999NDV OVC048/// 06/02 Q1018=
200904150050 METAR ESMX 150050Z AUTO 06003KT 030V100 9999NDV BKN047/// BKN074/// 06/02 Q1018=
200904150020 METAR ESMX 150020Z AUTO 08003KT 050V130 9999NDV BKN046/// 06/02 Q1017=
200904142350 METAR ESMX 142350Z AUTO 05003KT 020V080 9999NDV SCT074/// 06/02 Q1017=
200904142320 METAR ESMX 142320Z 07004KT CAVOK 06/02 Q1017=
200904142250 METAR ESMX 142250Z 05003KT CAVOK 06/02 Q1017=
200904142220 METAR ESMX 142220Z 08003KT CAVOK 06/02 Q1017=
200904142150 METAR ESMX 142150Z 09004KT CAVOK 07/02 Q1017=
200904142120 METAR ESMX 142120Z 08004KT CAVOK 07/03 Q1017=
200904142050 METAR ESMX 142050Z 08004KT CAVOK 08/03 Q1016=
200904142020 METAR ESMX 142020Z 09003KT CAVOK 08/03 Q1016=
200904141950 METAR ESMX 141950Z 10005KT CAVOK 09/03 Q1016=
200904141920 METAR ESMX 141920Z 10004KT CAVOK 10/04 Q1016=
200904141850 METAR ESMX 141850Z 08004KT CAVOK 11/04 Q1015=
200904141820 METAR ESMX 141820Z 11005KT CAVOK 12/05 Q1015=
200904141750 METAR ESMX 141750Z 12006KT CAVOK 13/06 Q1014=
200904141720 METAR ESMX 141720Z 10006KT CAVOK 14/06 Q1014=
200904141650 METAR ESMX 141650Z 09005KT 040V140 CAVOK 15/07 Q1013=
200904141620 METAR ESMX 141620Z 10007KT 040V160 CAVOK 15/07 Q1013=
200904141550 METAR ESMX 141550Z 10008KT 050V160 9999 FEW045 SCT055 17/07 Q1013=
200904141520 METAR ESMX 141520Z 15006KT 100V220 CAVOK 18/04 Q1013=
200904141420 METAR ESMX 141420Z 13005KT 080V190 9999 FEW045 18/05 Q1013=
200904141350 METAR ESMX 141350Z 16006KT 110V250 9999 FEW043 18/04 Q1013=
200904141320 METAR ESMX 141320Z 14006KT 100V200 9999 FEW042 17/05 Q1013=
200904141250 METAR ESMX 141250Z VRB05KT 9999 SCT041 17/06 Q1013=
200904141220 METAR ESMX 141220Z 15005KT 120V200 9999 FEW041 18/06 Q1013=
200904141150 METAR ESMX 141150Z 13005KT 050V170 CAVOK 17/06 Q1013=
200904141120 METAR ESMX 141120Z 16005KT 120V190 CAVOK 16/06 Q1013=
200904141050 METAR ESMX 141050Z 18005KT 140V230 CAVOK 16/06 Q1013=
200904141020 METAR ESMX 141020Z 05004KT 350V160 CAVOK 16/06 Q1013=
200904140950 METAR ESMX 140950Z 13005KT 080V180 CAVOK 16/06 Q1013=
200904140920 METAR ESMX 140920Z 12004KT 360V170 CAVOK 15/06 Q1013=
200904140850 METAR ESMX 140850Z 07004KT 020V120 CAVOK 13/06 Q1013=
200904140820 METAR ESMX 140820Z 06004KT 020V090 CAVOK 12/06 Q1013=
200904140750 METAR ESMX 140750Z 05004KT 020V100 CAVOK 11/06 Q1013=
200904140720 METAR ESMX 140720Z 06004KT 020V110 CAVOK 10/06 Q1013=
200904140650 METAR ESMX 140650Z 08003KT 020V120 CAVOK 09/06 Q1013=
200904140620 METAR ESMX 140620Z VRB02KT 6000 BR NSC 07/06 Q1013=
200904140550 METAR ESMX 140550Z 05002KT 5000 BR NSC 05/05 Q1012=
200904140520 METAR ESMX 140520Z VRB01KT 3500 BR NSC 04/04 Q1012=
200904140450 METAR ESMX 140450Z VRB02KT 3000 BR NSC 03/03 Q1012=
200904140420 METAR ESMX 140420Z 03002KT 8000 BCFG NSC 03/02 Q1012=
200904140350 METAR ESMX 140350Z 01002KT 7000 BCFG NSC 02/02 Q1012=
200904140320 METAR ESMX 140320Z 02002KT 2600 BCFG NSC 02/02 Q1012=
200904140250 METAR ESMX 140250Z AUTO 01002KT 0800NDV R01/P2000N R19/P2000N BCFG NCD 02/02 Q1013=
200904140220 METAR ESMX 140220Z AUTO 01001KT 0300NDV R01/P2000N R19/P2000D FG NCD 02/02 Q1013=
200904140150 METAR ESMX 140150Z AUTO 00000KT 1400NDV R01/P2000N R19/P2000N NCD 03/02 Q1013=
200904140120 METAR ESMX 140120Z AUTO 00000KT 1300NDV R01/P2000N R19/P2000N NCD 03/03 Q1013=
200904140050 METAR ESMX 140050Z AUTO 00000KT 0300NDV R01/0800V1800 R19/P2000N FG NCD 04/03 Q1013=
200904140020 METAR ESMX 140020Z 00000KT 7000 BR NSC 04/03 Q1013=
200904132350 METAR ESMX 132350Z 00000KT 6000 BR NSC 04/03 Q1013=
200904132320 METAR ESMX 132320Z 15001KT 5000 BR NSC 05/04 Q1013=
200904132250 METAR ESMX 132250Z 20001KT 9000 BR NSC 05/04 Q1013=
200904132220 METAR ESMX 132220Z 17002KT 9000 BR NSC 05/04 Q1013=
200904132150 METAR ESMX 132150Z 16002KT 7000 BR NSC 06/04 Q1013=
200904132120 METAR ESMX 132120Z 17001KT CAVOK 07/05 Q1013=
200904132050 METAR ESMX 132050Z 17004KT CAVOK 09/06 Q1013=
200904132020 METAR ESMX 132020Z 17002KT CAVOK 08/05 Q1012=
200904131950 METAR ESMX 131950Z 18004KT CAVOK 09/05 Q1013=
200904131920 METAR ESMX 131920Z 20005KT CAVOK 09/05 Q1013=
200904131850 METAR ESMX 131850Z 17005KT CAVOK 12/06 Q1012=
200904131820 METAR ESMX 131820Z 17004KT CAVOK 12/06 Q1012=
200904131750 METAR ESMX 131750Z 16004KT CAVOK 13/06 Q1012=
200904131720 METAR ESMX 131720Z 16006KT 110V190 CAVOK 14/06 Q1012=
200904131650 METAR ESMX 131650Z 18007KT CAVOK 15/06 Q1012=
200904131620 METAR ESMX 131620Z 15008KT CAVOK 15/05 Q1012=
200904131550 METAR ESMX 131550Z 17007KT 140V200 CAVOK 16/05 Q1012=
200904131520 METAR ESMX 131520Z 17008KT 120V200 CAVOK 17/05 Q1012=
200904131450 METAR ESMX 131450Z 18008KT 9999 FEW040 17/04 Q1012=
200904131420 METAR ESMX 131420Z 16007KT 120V210 9999 FEW040 17/05 Q1012=
200904131350 METAR ESMX 131350Z 17009KT 140V200 9999 FEW040 17/04 Q1012=
200904131320 METAR ESMX 131320Z 19007KT 150V220 9999 FEW035 SCT040 17/06 Q1012=
200904131250 METAR ESMX 131250Z 20007KT 150V240 9999 FEW035 17/08 Q1013=
200904131220 METAR ESMX 131220Z 16005KT 120V230 9999 FEW033 16/07 Q1013=
200904131150 METAR ESMX 131150Z 19008KT 150V220 CAVOK 16/08 Q1013=
200904131120 METAR ESMX 131120Z 16007KT 140V240 CAVOK 15/07 Q1013=
200904131050 METAR ESMX 131050Z AUTO 20008KT 170V230 9999NDV NCD 15/07 Q1013=
200904131020 METAR ESMX 131020Z AUTO 15005KT 110V230 9999NDV NCD 14/07 Q1014=
200904130950 METAR ESMX 130950Z AUTO 16005KT 120V210 9999NDV FEW100/// 13/07 Q1014=
200904130920 METAR ESMX 130920Z AUTO 17005KT 140V210 9999NDV NCD 12/07 Q1014=
200904130850 METAR ESMX 130850Z AUTO 15003KT 090V200 9999NDV BR NCD 11/06 Q1014=
200904130820 METAR ESMX 130820Z AUTO VRB02KT 8000NDV BR NCD 09/06 Q1014=
200904130750 METAR ESMX 130750Z AUTO 16003KT 110V240 5000NDV BR FEW005/// 08/06 Q1014=
200904130720 METAR ESMX 130720Z AUTO 14003KT 080V220 3700NDV BR BKN004/// 07/05 Q1014=
200904130650 METAR ESMX 130650Z AUTO VRB02KT 3300NDV BR OVC003/// 06/05 Q1014=
200904130620 METAR ESMX 130620Z AUTO VRB02KT 3800NDV OVC004/// 05/04 Q1014=
200904130550 METAR ESMX 130550Z AUTO VRB01KT 3000NDV SCT005/// 04/04 Q1014=
200904130520 METAR ESMX 130520Z AUTO 05001KT 3400NDV BCFG NCD 01/01 Q1014=
200904130450 METAR ESMX 130450Z AUTO 00000KT 0250NDV R01/P2000 R19/0900VP2000 FG NCD 01/00 Q1014=
200904130420 METAR ESMX 130420Z AUTO 11001KT 0150NDV R01/0350V0550N R19/P2000 FG NCD 01/01 Q1014=
200904130350 METAR ESMX 130350Z AUTO VRB01KT 0300NDV R01/P2000N R19/0650 BR NCD 03/02 Q1014=
200904130320 METAR ESMX 130320Z AUTO VRB02KT 1900NDV BR NCD 03/03 Q1014=
200904130250 METAR ESMX 130250Z AUTO VRB01KT 4800NDV BR NCD 03/02 Q1014=
200904130220 METAR ESMX 130220Z AUTO 14003KT 070V170 7000NDV BR NCD 04/03 Q1015=
200904130150 METAR ESMX 130150Z AUTO 14004KT 100V180 9000NDV BR NCD 04/03 Q1015=
200904130120 METAR ESMX 130120Z AUTO 13003KT 100V170 8000NDV BR NCD 03/03 Q1015=
200904130050 METAR ESMX 130050Z AUTO VRB02KT 5000NDV BR NCD 03/03 Q1015=
200904130020 METAR ESMX 130020Z AUTO VRB02KT 5000NDV NCD 03/03 Q1015=
200904122350 METAR ESMX 122350Z AUTO 11002KT 2400NDV NCD 03/03 Q1016=
200904122320 METAR ESMX 122320Z AUTO VRB02KT 0700NDV R01/P2000D R19/P2000N FG NCD 03/03 Q1016=
200904122250 METAR ESMX 122250Z AUTO 12001KT 4500NDV BR NCD 04/03 Q1016=
200904122220 METAR ESMX 122220Z AUTO 14003KT 110V170 6000NDV NCD 05/04 Q1016=
200904122150 METAR ESMX 122150Z AUTO 14002KT 6000NDV BR NCD 05/04 Q1016=
200904122120 METAR ESMX 122120Z AUTO 16002KT 9000NDV NCD 05/03 Q1016=
200904122050 METAR ESMX 122050Z AUTO 16003KT 9999NDV NCD 07/05 Q1016=
200904122020 METAR ESMX 122020Z AUTO 15004KT 9999NDV NCD 09/05 Q1016=
200904121950 METAR ESMX 121950Z AUTO 15002KT 9999NDV NCD 08/05 Q1016=
200904121920 METAR ESMX 121920Z AUTO 16004KT 9999NDV NCD 11/05 Q1016=
200904121850 METAR ESMX 121850Z AUTO 16005KT 9999NDV NCD 12/05 Q1016=
200904121820 METAR ESMX 121820Z AUTO 17005KT 9999NDV NCD 12/06 Q1016=
200904121750 METAR ESMX 121750Z AUTO 18006KT 9999NDV NCD 13/06 Q1016=
200904121720 METAR ESMX 121720Z AUTO 17007KT 9999NDV NCD 14/06 Q1016=
200904121650 METAR ESMX 121650Z 19008KT CAVOK 15/06 Q1016=
200904121620 METAR ESMX 121620Z 19005KT 160V230 CAVOK 16/06 Q1016=
200904121550 METAR ESMX 121550Z 17005KT 120V200 CAVOK 16/05 Q1016=
200904121520 METAR COR ESMX 121520Z 17006KT 9999 NSC 16/05 Q1016=
200904121420 METAR ESMX 121420Z 12004KT 060V150 CAVOK 17/05 Q1017=
200904121350 METAR ESMX 121350Z 14005KT 090V200 CAVOK 16/05 Q1017=
200904121320 METAR ESMX 121320Z 11004G15KT 050V190 CAVOK 16/05 Q1017=
200904121250 METAR ESMX 121250Z VRB04KT CAVOK 17/06 Q1017=
200904121220 METAR ESMX 121220Z 14005KT 060V200 CAVOK 15/05 Q1018=
200904121150 METAR ESMX 121150Z VRB05KT CAVOK 15/05 Q1018=
200904121120 METAR ESMX 121120Z 19006KT CAVOK 14/05 Q1018=
200904121050 METAR ESMX 121050Z 17004KT 100V240 CAVOK 13/05 Q1018=
200904121020 METAR ESMX 121020Z 19006KT 130V290 CAVOK 12/05 Q1018=
200904120950 METAR ESMX 120950Z 18004KT 080V230 9999 FEW007 11/05 Q1018=
200904120920 METAR ESMX 120920Z VRB02KT 9999 FEW007 09/05 Q1019=
200904120850 METAR ESMX 120850Z 11004KT 040V190 8000 BR BKN004 07/05 Q1019=
200904120820 METAR ESMX 120820Z AUTO 07003KT 010V140 6000NDV BR OVC002/// 06/04 Q1019=
200904120750 METAR ESMX 120750Z AUTO 10003KT 030V150 4500NDV BR OVC002/// 05/04 Q1019=
200904120720 METAR ESMX 120720Z AUTO 15005KT 080V180 3500NDV BR OVC001/// 05/04 Q1019=
200904120650 METAR ESMX 120650Z AUTO 10003KT 050V160 2000NDV BR VV002 05/04 Q1019=
200904120620 METAR ESMX 120620Z AUTO 10003KT 070V150 1900NDV BR VV002 05/04 Q1019=
200904120550 METAR ESMX 120550Z AUTO VRB02KT 2300NDV BR OVC001/// 05/04 Q1018=
200904120520 METAR ESMX 120520Z AUTO 15003KT 090V180 4500NDV BR OVC001/// 05/04 Q1018=
200904120450 METAR ESMX 120450Z AUTO 12003KT 060V160 5000NDV BR OVC002/// 05/04 Q1018=
200904120420 METAR ESMX 120420Z AUTO 12003KT 060V160 8000NDV BR FEW003/// OVC005/// 05/04 Q1018=
200904120350 METAR ESMX 120350Z AUTO 14004KT 100V170 9999NDV OVC006/// 05/04 Q1018=
200904120320 METAR ESMX 120320Z AUTO 11003KT 040V160 9999NDV OVC007/// 06/04 Q1018=
200904120250 METAR ESMX 120250Z AUTO 15004KT 110V170 9999NDV OVC007/// 06/04 Q1018=
200904120220 METAR ESMX 120220Z AUTO 15004KT 100V190 9999NDV BR OVC007/// 06/04 Q1018=
200904120150 METAR ESMX 120150Z AUTO 13003KT 070V170 9999NDV BR OVC007/// 06/04 Q1018=
200904120120 METAR ESMX 120120Z AUTO 12003KT 050V170 9000NDV BR OVC006/// 06/05 Q1018=
200904120050 METAR ESMX 120050Z AUTO 13004KT 070V190 9000NDV BR OVC006/// 06/05 Q1018=
200904120020 METAR ESMX 120020Z AUTO 12004KT 040V190 9999NDV BR OVC006/// 06/05 Q1019=
200904112350 METAR ESMX 112350Z AUTO 12004KT 070V190 9000NDV BR OVC005/// 06/05 Q1019=
200904112320 METAR ESMX 112320Z AUTO 12003KT 050V190 8000NDV BR OVC004/// 06/05 Q1019=
200904112250 METAR ESMX 112250Z AUTO 12004KT 080V160 7000NDV BR OVC002/// 06/05 Q1019=
200904112220 METAR ESMX 112220Z AUTO 12005KT 070V170 7000NDV BR FEW002/// SCT004/// 05/04 Q1019=
200904112150 METAR ESMX 112150Z AUTO 12003KT 080V170 9999NDV NCD 05/03 Q1019=
200904112120 METAR ESMX 112120Z AUTO VRB02KT 9999NDV NCD 06/04 Q1019=
200904112050 METAR ESMX 112050Z AUTO VRB02KT 9999NDV NCD 07/04 Q1019=
200904112020 METAR ESMX 112020Z AUTO 12003KT 080V160 9999NDV NCD 07/04 Q1019=
200904111950 METAR ESMX 111950Z AUTO 12003KT 070V150 9999NDV NCD 08/04 Q1019=
200904111920 METAR ESMX 111920Z AUTO 12003KT 070V160 9999NDV NCD 09/04 Q1019=
200904111850 METAR ESMX 111850Z AUTO 13003KT 070V170 9999NDV NCD 10/04 Q1019=
200904111820 METAR ESMX 111820Z AUTO 13004KT 070V170 9999NDV NCD 11/04 Q1018=
200904111750 METAR ESMX 111750Z AUTO 13005KT 090V170 9999NDV NCD 12/04 Q1018=
200904111720 METAR ESMX 111720Z AUTO 13005KT 080V180 9999NDV NCD 13/04 Q1018=
200904111650 METAR ESMX 111650Z AUTO 14007KT 110V190 9999NDV NCD 13/04 Q1018=
200904111620 METAR ESMX 111620Z AUTO 14007KT 090V180 9999NDV NCD 14/04 Q1018=
200904111550 METAR ESMX 111550Z AUTO 15007KT 110V210 9999NDV NCD 14/04 Q1018=
200904111520 METAR ESMX 111520Z AUTO 16008KT 120V210 9999NDV FEW043/// 15/04 Q1018=
200904111450 METAR ESMX 111450Z AUTO 14007KT 070V190 9999NDV NCD 15/04 Q1018=
200904111420 METAR ESMX 111420Z AUTO 15008KT 110V200 9999NDV NCD 16/04 Q1018=
200904111350 METAR ESMX 111350Z AUTO 15007KT 090V200 9999NDV FEW042/// 16/04 Q1018=
200904111320 METAR ESMX 111320Z AUTO 14008KT 080V210 9999NDV NCD 15/04 Q1018=
200904111250 METAR ESMX 111250Z AUTO 16007KT 120V210 9999NDV FEW041/// 15/04 Q1018=
200904111220 METAR ESMX 111220Z AUTO 16008KT 110V210 9999NDV FEW041/// 15/04 Q1018=
200904111150 METAR ESMX 111150Z AUTO 15008KT 090V200 9999NDV FEW039/// 15/05 Q1018=
200904111120 METAR ESMX 111120Z AUTO 15009KT 110V200 9999NDV FEW037/// 14/04 Q1019=
200904111050 METAR ESMX 111050Z AUTO 13007KT 070V200 9999NDV FEW037/// 14/04 Q1019=
200904111020 METAR ESMX 111020Z AUTO 14008KT 090V200 9999NDV NCD 14/04 Q1019=
200904110950 METAR ESMX 110950Z AUTO 13007KT 080V180 9999NDV NCD 13/04 Q1019=
200904110920 METAR ESMX 110920Z AUTO 15008KT 100V200 9999NDV NCD 13/04 Q1019=
200904110850 METAR ESMX 110850Z AUTO 14008KT 080V170 9999NDV NCD 12/04 Q1019=
200904110820 METAR ESMX 110820Z AUTO 15007KT 110V170 9999NDV NCD 12/05 Q1019=
200904110750 METAR ESMX 110750Z AUTO 11006KT 070V160 9999NDV NCD 11/04 Q1019=
200904110720 METAR ESMX 110720Z AUTO 13006KT 090V190 9999NDV NCD 10/04 Q1019=
200904110650 METAR ESMX 110650Z AUTO 12004KT 070V160 9999NDV NCD 09/03 Q1019=
200904110620 METAR ESMX 110620Z AUTO 10003KT 060V140 9999NDV NCD 07/03 Q1019=
200904110550 METAR ESMX 110550Z AUTO VRB02KT 9999NDV NCD 03/02 Q1019=
200904110520 METAR ESMX 110520Z AUTO VRB01KT 9999NDV NCD M00/M01 Q1019=
200904110450 METAR ESMX 110450Z AUTO 00000KT 9999NDV NCD M01/M01 Q1019=
200904110420 METAR ESMX 110420Z AUTO 00000KT 9999NDV NCD M01/M02 Q1018=
200904110350 METAR ESMX 110350Z AUTO 08002KT 1600NDV BR NCD M00/M01 Q1018=
200904110320 METAR ESMX 110320Z AUTO 09001KT 1500NDV NCD M00/M01 Q1018=
200904110250 METAR ESMX 110250Z AUTO 13002KT 1100NDV R01/P2000N R19/P2000N NCD M00/M01 Q1018=
200904110220 METAR ESMX 110220Z AUTO 14003KT 100V190 9999NDV NCD 01/01 Q1018=
200904110150 METAR ESMX 110150Z AUTO 12003KT 9999NDV NCD 01/00 Q1018=
200904110120 METAR ESMX 110120Z AUTO 13003KT 9999NDV NCD 02/01 Q1018=
200904110050 METAR ESMX 110050Z AUTO 12003KT 100V160 9999NDV NCD 02/01 Q1018=
200904110020 METAR ESMX 110020Z AUTO 13003KT 9999NDV NCD 03/01 Q1019=
200904102350 METAR ESMX 102350Z AUTO 13003KT 9999NDV NCD 03/01 Q1019=
200904102320 METAR ESMX 102320Z AUTO 14003KT 110V180 9999NDV NCD 01/M00 Q1019=
200904102250 METAR ESMX 102250Z AUTO 12002KT 9999NDV NCD 02/01 Q1019=
200904102220 METAR ESMX 102220Z AUTO 11002KT 9999NDV NCD 03/01 Q1019=
200904102150 METAR ESMX 102150Z AUTO 09002KT 9999NDV NCD 03/01 Q1019=
200904102120 METAR ESMX 102120Z AUTO 00000KT 9999NDV NCD 03/01 Q1019=
200904102050 METAR ESMX 102050Z AUTO 13001KT 9999NDV NCD 04/01 Q1019=
200904102020 METAR ESMX 102020Z AUTO 15002KT 9999NDV NCD 05/02 Q1018=
200904101950 METAR ESMX 101950Z AUTO 15003KT 9999NDV NCD 07/02 Q1018=
200904101920 METAR ESMX 101920Z AUTO 16006KT 9999NDV NCD 10/01 Q1018=
200904101850 METAR ESMX 101850Z AUTO 16006KT 9999NDV NCD 11/01 Q1018=
200904101820 METAR ESMX 101820Z AUTO 17006KT 9999NDV NCD 12/00 Q1018=
200904101750 METAR ESMX 101750Z AUTO 17007KT 9999NDV NCD 13/01 Q1018=
200904101720 METAR ESMX 101720Z AUTO 18007KT 9999NDV NCD 14/01 Q1017=
200904101650 METAR ESMX 101650Z AUTO 18008KT 9999NDV NCD 15/01 Q1017=
200904101620 METAR ESMX 101620Z AUTO 17008KT 9999NDV NCD 16/01 Q1017=
200904101550 METAR ESMX 101550Z AUTO 18007KT 120V210 9999NDV NCD 16/02 Q1017=
200904101520 METAR ESMX 101520Z 18006KT 140V210 CAVOK 16/01 Q1017=
200904101450 METAR ESMX 101450Z 19006KT 150V220 CAVOK 16/M00 Q1017=
200904101420 METAR ESMX 101420Z VRB04KT CAVOK 16/M01 Q1018=
200904101350 METAR ESMX 101350Z 10004KT 070V140 CAVOK 16/M01 Q1018=
200904101320 METAR ESMX 101320Z 19005KT 120V260 CAVOK 16/00 Q1018=
200904101250 METAR ESMX 101250Z 12004KT 060V230 CAVOK 16/00 Q1018=
200904101220 METAR ESMX 101220Z 16006KT 120V190 CAVOK 16/00 Q1019=
200904101150 METAR ESMX 101150Z 16006KT 130V220 CAVOK 15/M00 Q1019=
200904101120 METAR ESMX 101120Z 18006KT 140V220 CAVOK 15/01 Q1019=
200904101050 METAR ESMX 101050Z 16006KT 120V210 CAVOK 14/00 Q1019=
200904101020 METAR ESMX 101020Z 16005KT 110V240 CAVOK 14/02 Q1019=
200904100950 METAR ESMX 100950Z 17004KT 120V230 CAVOK 13/03 Q1019=
200904100920 METAR ESMX 100920Z 15005KT 110V180 CAVOK 13/03 Q1019=
200904100850 METAR ESMX 100850Z 18005KT 140V210 CAVOK 12/04 Q1019=
200904100820 METAR COR ESMX 100820Z 16004KT 120V200 CAVOK 11/04 Q1019=
200904100750 METAR ESMX 100750Z 15003KT 110V170 CAVOK 10/04 Q1019=
200904100720 METAR ESMX 100720Z VRB01KT CAVOK 08/05 Q1019=
200904100650 METAR ESMX 100650Z 00000KT CAVOK 07/06 Q1019=
200904100620 METAR ESMX 100620Z AUTO 00000KT 9999NDV NCD 04/03 Q1019=
200904100550 METAR ESMX 100550Z AUTO 00000KT 7000NDV NCD 00/M00 Q1019=
200904100520 METAR ESMX 100520Z AUTO 00000KT 1900NDV NCD M01/M02 Q1019=
200904100450 METAR ESMX 100450Z AUTO 00000KT 1000NDV R01/P2000D R19/P2000N FZFG NCD M02/M02 Q1019=
200904100420 METAR ESMX 100420Z AUTO 00000KT 0300NDV R01/0750 R19/0900V1500D=
200904100350 METAR ESMX 100350Z AUTO 00000KT 0150NDV R01/0600V0800 R19/0900VP2000N FZFG NCD M02/M02 Q1019=
200904100320 METAR ESMX 100320Z AUTO 00000KT 2200NDV NCD M01/M02 Q1019=
200904100250 METAR ESMX 100250Z AUTO 18002KT 5000NDV FZFG NCD M01/M01 Q1018=
200904100220 METAR ESMX 100220Z AUTO 00000KT 4500NDV NCD M01/M01 Q1019=
200904100150 METAR ESMX 100150Z AUTO 00000KT 0400NDV R01/P2000 R19/P2000N FZFG NCD M02/M02 Q1018=
200904100120 METAR ESMX 100120Z AUTO 00000KT 9000NDV NCD M01/M02 Q1018=
200904100050 METAR ESMX 100050Z AUTO 00000KT 0550NDV R01/P2000N R19/P2000N BCFG NCD M01/M02 Q1018=
200904092350 METAR ESMX 092350Z AUTO 00000KT 2700NDV BR NCD 01/00 Q1018=
200904092320 METAR ESMX 092320Z AUTO 18002KT 8000NDV BR NCD 01/00 Q1018=
200904092250 METAR ESMX 092250Z AUTO VRB01KT 9999NDV NCD 02/01 Q1018=
200904092220 METAR ESMX 092220Z AUTO VRB01KT 9999NDV NCD 03/01 Q1018=
200904092150 METAR ESMX 092150Z AUTO 19003KT 9999NDV NCD 02/01 Q1017=
200904092120 METAR ESMX 092120Z AUTO 24002KT 9999NDV NCD 04/02 Q1017=
200904092050 METAR ESMX 092050Z AUTO 20002KT 9999NDV NCD 06/03 Q1017=
200904092020 METAR ESMX 092020Z AUTO 26002KT 9999NDV NCD 06/03 Q1017=
200904091950 METAR ESMX 091950Z AUTO 25004KT 9999NDV NCD 05/02 Q1017=
200904091920 METAR ESMX 091920Z AUTO 24004KT 9999NDV NCD 06/03 Q1017=
200904091850 METAR ESMX 091850Z AUTO 25004KT 9999NDV NCD 07/03 Q1017=
200904091820 METAR ESMX 091820Z AUTO 25004KT 9999NDV NCD 09/03 Q1016=
200904091750 METAR ESMX 091750Z 26004KT CAVOK 10/03 Q1016=
200904091720 METAR ESMX 091720Z 25004KT CAVOK 12/03 Q1015=
200904091650 METAR ESMX 091650Z 27006KT CAVOK 12/03 Q1015=
200904091620 METAR ESMX 091620Z 26007KT 230V300 CAVOK 13/03 Q1015=
200904091550 METAR ESMX 091550Z 26009KT CAVOK 13/03 Q1015=
200904091520 METAR ESMX 091520Z 30005KT 250V340 CAVOK 13/03 Q1015=
200904091450 METAR ESMX 091450Z 28008KT 240V310 CAVOK 12/03 Q1014=
200904091420 METAR ESMX 091420Z 31005KT 260V010 CAVOK 13/04 Q1014=
200904091350 METAR ESMX 091350Z 26007KT 220V290 9999 FEW042 BKN063 13/03 Q1014=
200904091320 METAR ESMX 091320Z 27007KT 230V290 9999 SCT040 12/03 Q1014=
200904091250 METAR ESMX 091250Z 26006KT 220V290 9999 FEW039 BKN062 12/04 Q1014=
200904091220 METAR ESMX 091220Z 25007KT 9999 FEW036 SCT054 12/04 Q1014=
200904091150 METAR ESMX 091150Z 27007KT 210V300 9999 SCT035 11/04 Q1014=
200904091120 METAR ESMX 091120Z 25009KT 210V280 9999 FEW041 OVC051 11/04 Q1014=
200904091050 METAR ESMX 091050Z 30008KT 260V330 9999 FEW030 SCT036 BKN046 11/04 Q1014=
200904091020 METAR ESMX 091020Z 31008KT 280V350 9999 FEW028 SCT033 10/04 Q1014=
200904090950 METAR ESMX 090950Z 30007KT 260V330 9999 SCT025 11/04 Q1014=
200904090920 METAR ESMX 090920Z 32010KT 9999 FEW018 SCT021 10/05 Q1014=
200904090850 METAR ESMX 090850Z 30006KT 260V340 9999 FEW008 SCT030 10/06 Q1014=
200904090820 METAR ESMX 090820Z 28008KT 7000 BR FEW008 SCT009 BKN013 08/06 Q1013=
200904090750 METAR ESMX 090750Z 27007KT 240V320 6000 BR FEW006 SCT009 BKN020 08/07 Q1013=
200904090720 METAR ESMX 090720Z 27007KT 4000 BR FEW004 SCT005 BKN007 08/07 Q1012=
200904090650 METAR ESMX 090650Z 26005KT 240V300 3200 BR BKN002 BKN005 08/07 Q1012=
200904090620 METAR ESMX 090620Z 25005KT 220V280 2400 OVC002 07/07 Q1011=
200904090550 METAR ESMX 090550Z 21003KT 170V230 1500 BKN002 06/06 Q1011 REDZ=
200904090520 METAR ESMX 090520Z 22003KT 0500 R01/1000V1500U R19/1200U -DZ VV002 06/05 Q1011=
200904090450 METAR ESMX 090450Z 19003KT 0650 R19/1700N FG VV002 06/05 Q1011=
200904090420 METAR ESMX 090420Z 18002KT 1100 R19/P2000D -DZ BR OVC001 06/05 Q1011=
200904090350 METAR ESMX 090350Z 19001KT 1500 R19/P2000N -RA BR BKN002 OVC004 06/05 Q1011=
200904090320 METAR ESMX 090320Z AUTO 21003KT 1000NDV R01/P2000N R19/P2000N -RA FEW002/// SCT009/// BKN028/// 05/05 Q1011=
200904090250 METAR ESMX 090250Z AUTO 16003KT 0800NDV R01/P2000N R19/P2000N -RA FEW004/// SCT013/// BKN027/// 05/05 Q1011=
200904090220 METAR ESMX 090220Z AUTO 15002KT 0250NDV R01/P2000N R19/0800V1400 DZ FEW006/// SCT031/// BKN041/// 05/05 Q1011=
200904090150 METAR ESMX 090150Z AUTO VRB01KT 0700NDV R01/P2000N R19/P2000D -DZ FEW039/// SCT054/// BKN085/// 05/04 Q1011=
200904090120 METAR ESMX 090120Z AUTO 16002KT 0750NDV R01/P2000N R19/P2000D FG FEW046/// SCT100/// 05/04 Q1011=
200904090050 METAR ESMX 090050Z AUTO 22004KT 1100NDV R01/P2000N R19/P2000N NCD 04/04 Q1011=
200904082350 METAR ESMX 082350Z 16003KT 0600 R01/0800VP2000 R19/0450N FG NSC 03/03 Q1010=
200904082320 METAR ESMX 082320Z 17004KT 1200 R19/P2000N NSC 05/05 Q1011=
200904082250 METAR ESMX 082250Z 15003KT 110V180 1500 R19/P2000N BR NSC 05/05 Q1011=
200904082220 METAR ESMX 082220Z 17004KT 2000 BR NSC 07/06 Q1011=
200904082150 METAR ESMX 082150Z 15004KT 2500 BR NSC 07/06 Q1011=
200904082120 METAR ESMX 082120Z 17002KT 3000 BR NSC 06/05 Q1011=
200904082050 METAR ESMX 082050Z 16004KT 4000 BR NSC 08/06 Q1011=
200904082020 METAR ESMX 082020Z 15004KT 5000 BR NSC 08/07 Q1011=
200904081950 METAR ESMX 081950Z 17003KT 6000 BR FEW030 BKN090 07/06 Q1011=
200904081920 METAR ESMX 081920Z 20002KT 5000 BR NSC 07/06 Q1011=
200904081850 METAR ESMX 081850Z 15002KT 6000 BR NSC 08/07 Q1011=
200904081820 METAR ESMX 081820Z 14003KT 8000 BR NSC 10/07 Q1011=
200904081750 METAR ESMX 081750Z 17003KT 9000 HZ FEW025 SCT200 11/07 Q1011=
200904081720 METAR ESMX 081720Z 17005KT 140V200 9999 SCT025 12/07 Q1010=
200904081650 METAR ESMX 081650Z 15005KT 9000 SCT020 12/07 Q1010=
200904081620 METAR ESMX 081620Z 15006KT 9000 SCT020 13/08 Q1010=
200904081550 METAR ESMX 081550Z 15006KT 9000 FEW020 SCT050 12/07 Q1010=
200904081520 METAR ESMX 081520Z 17006KT 140V200 9000 SCT020 SCT050 13/08 Q1010=
200904081450 METAR ESMX 081450Z 15006KT 120V180 9000 FEW022 SCT029 13/08 Q1010=
200904081420 METAR ESMX 081420Z 17008KT 9999 BKN022 13/08 Q1010=
200904081350 METAR ESMX 081350Z 19010KT 9999 FEW024 SCT074 14/08 Q1011=
200904081320 METAR ESMX 081320Z 17007KT 110V210 9999 FEW015 SCT067 13/07 Q1011=
200904081250 METAR ESMX 081250Z 17006KT 120V220 9999 FEW030 SCT079 13/08 Q1011=
200904081220 METAR ESMX 081220Z 14005KT 080V190 CAVOK 12/06 Q1011=
200904081150 METAR ESMX 081150Z 16004KT 110V190 CAVOK 11/06 Q1011=
200904081120 METAR ESMX 081120Z 12005KT 080V160 CAVOK 10/06 Q1011=
200904081050 METAR ESMX 081050Z 15005KT 080V220 CAVOK 09/05 Q1011=
200904081020 METAR ESMX 081020Z 16007KT 110V200 CAVOK 09/05 Q1012=
200904080950 METAR ESMX 080950Z 15008KT 120V190 CAVOK 09/04 Q1012=
200904080920 METAR ESMX 080920Z 14007KT 080V200 CAVOK 09/05 Q1012=
200904080850 METAR ESMX 080850Z 11006KT 050V150 9999 FEW045 BKN090 08/05 Q1011=
200904080750 METAR ESMX 080750Z 12014G26KT 050V180 4000 RA SCT023 BKN060 06/04 Q1011=
200904080720 METAR ESMX 080720Z 14010G20KT 090V200 9000 -RA FEW025 BKN060 06/03 Q1011=
200904080650 METAR ESMX 080650Z 12006KT 050V200 9999 -RA FEW023 BKN060 06/02 Q1011=
200904080620 METAR ESMX 080620Z 13007KT 070V170 9999 RA FEW023 BKN060 06/01 Q1011=
200904080550 METAR ESMX 080550Z 11007KT 070V160 CAVOK 06/M00 Q1011=
200904080520 METAR ESMX 080520Z 11007KT 070V150 CAVOK 05/M01 Q1011=
200904080450 METAR ESMX 080450Z 13005KT 080V190 CAVOK 04/M01 Q1013=
200904080420 METAR ESMX 080420Z 12006KT 070V150 CAVOK 04/M01 Q1013=
200904080350 METAR ESMX 080350Z AUTO 14004KT 100V190 9999NDV NCD 04/M02 Q1013=
200904080320 METAR ESMX 080320Z AUTO 12005KT 070V170 9999NDV NCD 04/M02 Q1013=
200904080250 METAR ESMX 080250Z AUTO 11005KT 070V170 9999NDV NCD 04/M02 Q1013=
200904080220 METAR ESMX 080220Z AUTO 11004KT 070V150 9999NDV NCD 04/M02 Q1013=
200904080150 METAR ESMX 080150Z AUTO 12004KT 060V160 9999NDV NCD 04/M01 Q1013=
200904080120 METAR ESMX 080120Z AUTO 12004KT 070V190 9999NDV NCD 04/M01 Q1014=
200904080050 METAR ESMX 080050Z AUTO 12005KT 080V170 9999NDV NCD 04/M00 Q1014=
200904072350 METAR ESMX 072350Z 12004KT 070V160 CAVOK 05/M00 Q1014=
200904072320 METAR ESMX 072320Z 12004KT 080V170 9999 NSC 05/M00 Q1015=
200904072250 METAR ESMX 072250Z 11005KT 070V160 CAVOK 06/M00 Q1015=
200904072150 METAR ESMX 072150Z 12005KT 070V170 CAVOK 07/00 Q1015=
200904072120 METAR ESMX 072120Z 13004KT 080V200 CAVOK 07/00 Q1015=
200904072050 METAR ESMX 072050Z 13005KT 080V190 CAVOK 07/01 Q1015=
200904072020 METAR ESMX 072020Z 13006KT 080V170 CAVOK 08/01 Q1015=
200904071950 METAR ESMX 071950Z 13004KT 080V170 CAVOK 08/01 Q1015=
200904071920 METAR ESMX 071920Z 14005KT 100V170 CAVOK 09/00 Q1015=
200904071850 METAR ESMX 071850Z 14006KT 080V170 CAVOK 09/M00 Q1015=
200904071820 METAR ESMX 071820Z 16004KT CAVOK 10/01 Q1014=
200904071750 METAR ESMX 071750Z 16006KT CAVOK 11/01 Q1014=
200904071720 METAR ESMX 071720Z 16006KT 120V190 CAVOK 13/02 Q1014=
200904071650 METAR ESMX 071650Z 16004KT 130V190 CAVOK 13/01 Q1014=
200904071620 METAR ESMX 071620Z 14005KT 100V190 CAVOK 14/01 Q1014=
200904071550 METAR ESMX 071550Z 17005KT 140V210 CAVOK 14/01 Q1014=
200904071520 METAR COR ESMX 071520Z 18005KT 140V230 CAVOK 14/01 Q1014=
200904071450 METAR ESMX 071450Z 18005KT 130V220 CAVOK 14/01 Q1014=
200904071420 METAR ESMX 071420Z 08004KT 030V140 9999 FEW045 SCT080 14/00 Q1014=
200904071350 METAR ESMX 071350Z 12004KT 050V170 9999 SCT046 BKN076 14/M00 Q1014=
200904071320 METAR ESMX 071320Z 14004KT 080V200 CAVOK 14/M00 Q1015=
200904071250 METAR ESMX 071250Z 17004KT 140V220 CAVOK 13/00 Q1015=
200904071220 METAR ESMX 071220Z 17005KT 130V210 CAVOK 12/00 Q1015=
200904071150 METAR ESMX 071150Z 16005KT 120V200 9999 FEW040 BKN060 13/M01 Q1015=
200904071120 METAR ESMX 071120Z 17004KT 120V210 9999 FEW040 BKN070 14/M01 Q1015=
200904071050 METAR ESMX 071050Z VRB05KT CAVOK 13/M01 Q1015=
200904071020 METAR ESMX 071020Z VRB04KT CAVOK 12/M01 Q1015=
200904070950 METAR ESMX 070950Z 15006KT 080V200 CAVOK 11/M01 Q1015=
200904070920 METAR ESMX 070920Z 14005KT 090V170 CAVOK 11/M01 Q1015=
200904070850 METAR ESMX 070850Z 14005KT 100V180 CAVOK 10/M01 Q1015=
200904070820 METAR ESMX 070820Z 15004KT 090V200 CAVOK 09/M01 Q1015=
200904070750 METAR ESMX 070750Z VRB02KT CAVOK 08/00 Q1015=
200904070720 METAR ESMX 070720Z 07003KT 360V120 CAVOK 07/01 Q1015=
200904070650 METAR ESMX 070650Z VRB02KT CAVOK 05/01 Q1015=
200904070620 METAR COR ESMX 070620Z VRB02KT CAVOK 03/02 Q1015=
200904070550 METAR ESMX 070550Z 35002KT CAVOK 00/M00 Q1015=
200904070520 METAR ESMX 070520Z 07002KT CAVOK M02/M02 Q1015=
200904070450 METAR ESMX 070450Z 00000KT 9999 MIFG NSC M03/M03 Q1015=
200904070420 METAR ESMX 070420Z 00000KT 9999 MIFG NSC M03/M03 Q1015=
200904070350 METAR ESMX 070350Z 00000KT 9999 MIFG NSC M03/M04 Q1015=
200904070320 METAR ESMX 070320Z AUTO 18001KT 9999NDV NCD M03/M03 Q1015=
200904070250 METAR ESMX 070250Z AUTO 18001KT 9999NDV NCD M03/M03 Q1015=
200904070150 METAR ESMX 070150Z AUTO 00000KT 9999NDV NCD M02/M03 Q1015=
200904070120 METAR ESMX 070120Z AUTO 00000KT 9999NDV NCD M02/M03 Q1016=
200904070050 METAR ESMX 070050Z AUTO 19001KT 9999NDV NCD M01/M02 Q1016=
200904062350 METAR ESMX 062350Z 19001KT CAVOK M01/M03 Q1016=
200904062320 METAR ESMX 062320Z 19001KT CAVOK M00/M02 Q1016=
200904062250 METAR ESMX 062250Z 21002KT CAVOK M01/M02 Q1016=
200904062220 METAR ESMX 062220Z 00000KT CAVOK 01/M02 Q1016=
200904062150 METAR ESMX 062150Z 29002KT CAVOK 02/M02 Q1016=
200904062120 METAR ESMX 062120Z VRB01KT CAVOK 03/M01 Q1016=
200904062050 METAR ESMX 062050Z 27003KT CAVOK 05/M01 Q1016=
200904062020 METAR ESMX 062020Z 25004KT CAVOK 04/M00 Q1016=
200904061950 METAR ESMX 061950Z 26003KT CAVOK 05/M01 Q1016=
200904061920 METAR ESMX 061920Z 26004KT CAVOK 06/M00 Q1016=
200904061850 METAR ESMX 061850Z 25005KT CAVOK 06/M00 Q1016=
200904061820 METAR ESMX 061820Z 24003KT CAVOK 07/M00 Q1016=
200904061750 METAR ESMX 061750Z 25004KT CAVOK 07/M00 Q1016=
200904061720 METAR ESMX 061720Z 26005KT CAVOK 10/00 Q1015=
200904061650 METAR ESMX 061650Z 27008KT 230V290 CAVOK 11/00 Q1015=
200904061550 METAR ESMX 061550Z 27008KT 240V300 CAVOK 13/M01 Q1015=
200904061520 METAR ESMX 061520Z 28008KT 220V330 CAVOK 13/M00 Q1015=
200904061450 METAR ESMX 061450Z 29009KT 250V330 CAVOK 13/M00 Q1016=
200904061420 METAR ESMX 061420Z 29009KT 250V320 CAVOK 13/M01 Q1016=
200904061350 METAR ESMX 061350Z 29009KT 260V340 CAVOK 14/M01 Q1016=
200904061250 METAR ESMX 061250Z 28008KT 240V320 CAVOK 14/M02 Q1017=
200904061220 METAR ESMX 061220Z 24010KT CAVOK 14/M03 Q1017=
200904061150 METAR ESMX 061150Z 27008KT 230V320 CAVOK 14/M02 Q1017=
200904061120 METAR ESMX 061120Z 25008KT 200V300 CAVOK 13/M01 Q1017=
200904061050 METAR ESMX 061050Z 25008KT 200V280 CAVOK 13/M00 Q1018=
200904060950 METAR ESMX 060950Z 24008KT 220V290 CAVOK 12/01 Q1018=
200904060920 METAR ESMX 060920Z 26008KT 230V300 CAVOK 10/01 Q1018=
200904060850 METAR ESMX 060850Z 25008KT 210V280 CAVOK 10/02 Q1018=
200904060820 METAR COR ESMX 060820Z 26008KT 230V300 CAVOK 09/02 Q1018=
200904060750 METAR ESMX 060750Z 25007KT 210V290 CAVOK 08/03 Q1018=
200904060720 METAR ESMX 060720Z 27008KT 240V300 9999 FEW010 SCT200 06/03 Q1018=
200904060650 METAR ESMX 060650Z 25008KT 210V280 9999 SCT010 SCT200 06/03 Q1019=
200904060620 METAR ESMX 060620Z 25007KT 220V280 9999 BKN009 05/03 Q1018=
200904060550 METAR ESMX 060550Z 26007KT 220V280 9999 OVC009 05/03 Q1018=
200904060520 METAR ESMX 060520Z 26007KT 9999 OVC008 04/03 Q1018=
200904060450 METAR ESMX 060450Z 26008KT 9999 OVC009 04/02 Q1018=
200904060420 METAR ESMX 060420Z 27008KT 240V300 9999 OVC008 04/02 Q1018=
200904060350 METAR ESMX 060350Z 26007KT 9999 OVC008 04/02 Q1018=
200904060320 METAR ESMX 060320Z AUTO 25007KT 9999NDV OVC007/// 04/02 Q1018=
200904060250 METAR ESMX 060250Z AUTO 26006KT 230V290 9999NDV OVC007/// 03/02 Q1018=
200904060220 METAR ESMX 060220Z AUTO 26006KT 210V290 9999NDV OVC008/// 03/02 Q1018=
200904060150 METAR ESMX 060150Z AUTO 26005KT 230V290 9999NDV OVC008/// 03/01 Q1018=
200904060120 METAR ESMX 060120Z AUTO 26005KT 220V290 9999NDV SCT009/// 02/01 Q1018=
200904060050 METAR ESMX 060050Z AUTO 26006KT 220V290 9999NDV NCD 02/00 Q1018=
200904060020 METAR ESMX 060020Z 25007KT CAVOK 02/00 Q1018=
200904052350 METAR ESMX 052350Z 24006KT CAVOK 02/M00 Q1018=
200904052320 METAR ESMX 052320Z 23007KT CAVOK 02/M01 Q1018=
200904052250 METAR ESMX 052250Z 25007KT CAVOK 03/M01 Q1018=
200904052220 METAR ESMX 052220Z 25007KT 220V300 CAVOK 03/M01 Q1018=
200904052150 METAR ESMX 052150Z 25007KT CAVOK 03/M01 Q1018=
200904052120 METAR ESMX 052120Z 25006KT CAVOK 04/M00 Q1018=
200904052050 METAR ESMX 052050Z 25007KT CAVOK 04/M00 Q1018=
200904052020 METAR ESMX 052020Z 26008KT CAVOK 05/00 Q1018=
200904051950 METAR ESMX 051950Z 27008KT CAVOK 05/00 Q1018=
200904051920 METAR ESMX 051920Z 27008KT CAVOK 06/00 Q1018=
200904051850 METAR ESMX 051850Z 27009KT CAVOK 06/01 Q1017=
200904051750 METAR ESMX 051750Z 27013KT 240V300 CAVOK 07/01 Q1017=
200904051720 METAR ESMX 051720Z 27011KT CAVOK 08/02 Q1016=
200904051650 METAR ESMX 051650Z 28012KT CAVOK 08/02 Q1016=
200904051620 METAR ESMX 051620Z 26014KT 9999 FEW030 09/02 Q1016=
200904051550 METAR ESMX 051550Z 27013KT 9999 FEW029 09/02 Q1016=
200904051520 METAR ESMX 051520Z 27011G22KT 230V300 9999 SCT029 09/02 Q1016=
200904051450 METAR ESMX 051450Z 26012KT 220V300 9999 BKN027 09/02 Q1016=
200904051350 METAR ESMX 051350Z 27010KT 220V320 9999 SCT016 OVC020 08/04 Q1017=
200904051320 METAR ESMX 051320Z 26007KT 230V300 9999 FEW015 BKN018 OVC024 08/04 Q1017=
200904051250 METAR ESMX 051250Z 25008KT 210V290 9999 FEW014 OVC018 07/04 Q1017=
200904051150 METAR ESMX 051150Z 26010KT 240V300 9999 OVC014 07/04 Q1017=
200904051120 METAR ESMX 051120Z 25010KT 220V290 9999 OVC016 07/03 Q1017=
200904051050 METAR ESMX 051050Z 26011KT 210V290 9000 BR OVC018 08/03 Q1017=
200904051020 METAR ESMX 051020Z 27011KT 230V290 7000 BR OVC019 09/04 Q1016=
200904050950 METAR ESMX 050950Z 27012KT 240V310 8000 BR OVC017 09/04 Q1016=
200904050920 METAR ESMX 050920Z 26009KT 220V290 7000 BR FEW016 BKN018 OVC023 09/04 Q1016=
200904050850 METAR ESMX 050850Z 27010KT 7000 BR BKN012 08/05 Q1016=
200904050750 METAR ESMX 050750Z AUTO 27007KT 240V300 3500NDV BR FEW003/// SCT006/// BKN008/// 07/05 Q1016=
200904050720 METAR ESMX 050720Z AUTO 26007KT 1700NDV BR OVC002/// 06/05 Q1016=
200904050650 METAR ESMX 050650Z AUTO 26008KT 230V290 1100NDV R01/1700D R19/1800D OVC002/// 06/05 Q1015=
200904050550 METAR ESMX 050550Z AUTO 26009KT 230V290 0900NDV R01/1600N R19/1600D FG OVC001/// 06/05 Q1015=
200904050520 METAR ESMX 050520Z AUTO 26006KT 230V290 0700NDV R01/1400D R19/1500D FG OVC001/// 06/06 Q1015=
200904050450 METAR ESMX 050450Z AUTO 26007KT 1200NDV R01/P2000N R19/P2000N BR OVC001/// 06/05 Q1015=
200904050420 METAR ESMX 050420Z AUTO 26008KT 1300NDV R01/P2000N R19/P2000N BR OVC002/// 06/05 Q1014=
200904050350 METAR ESMX 050350Z AUTO 25006KT 220V280 1600NDV BR OVC003/// 07/05 Q1014=
200904050320 METAR ESMX 050320Z AUTO 26007KT 2100NDV BR OVC005/// 07/05 Q1014=
200904050250 METAR ESMX 050250Z AUTO 25006KT 220V280 2200NDV BR OVC006/// 07/05 Q1014=
200904050220 METAR ESMX 050220Z AUTO 26005KT 2300NDV BR FEW006/// SCT072/// 06/05 Q1014=
200904050150 METAR ESMX 050150Z AUTO 25005KT 230V290 2800NDV BR FEW062/// 06/04 Q1014=
200904050050 METAR ESMX 050050Z AUTO 23003KT 9999NDV NCD 05/02 Q1014=
200904042350 METAR ESMX 042350Z AUTO 23004KT 9999NDV NCD 06/02 Q1014=
200904042250 METAR ESMX 042250Z AUTO 22005KT 9999NDV NCD 06/01 Q1014=
200904042220 METAR ESMX 042220Z AUTO 22005KT 9999NDV NCD 06/00 Q1014=
200904042150 METAR ESMX 042150Z AUTO 22004KT 9999NDV NCD 06/00 Q1014=
200904042120 METAR ESMX 042120Z AUTO 22004KT 9999NDV NCD 07/M01 Q1015=
200904042050 METAR ESMX 042050Z AUTO 23003KT 9999NDV NCD 07/M00 Q1014=
200904042020 METAR ESMX 042020Z AUTO 22003KT 9999NDV NCD 07/M01 Q1014=
200904041950 METAR ESMX 041950Z AUTO 20004KT 9999NDV NCD 09/M01 Q1014=
200904041920 METAR ESMX 041920Z AUTO 25003KT 9999NDV NCD 09/M00 Q1014=
200904041850 METAR ESMX 041850Z AUTO 25003KT 9999NDV NCD 08/00 Q1014=
200904041750 METAR ESMX 041750Z AUTO 20002KT 9999NDV NCD 12/01 Q1013=
200904041720 METAR ESMX 041720Z AUTO 22002KT 9999NDV NCD 16/M01 Q1013=
200904041650 METAR ESMX 041650Z AUTO 25004KT 200V280 9999NDV NCD 18/M04 Q1013=
200904041620 METAR ESMX 041620Z AUTO 24004KT 190V290 9999NDV NCD 19/M04 Q1013=
200904041550 METAR ESMX 041550Z 26005KT 250V320 CAVOK 19/M05 Q1014=
200904041520 METAR ESMX 041520Z 22006KT 150V260 CAVOK 19/M03 Q1014=
200904041450 METAR ESMX 041450Z 22004KT 170V270 CAVOK 19/M02 Q1014=
200904041350 METAR ESMX 041350Z 21005KT 170V280 CAVOK 19/M01 Q1014=
200904041320 METAR ESMX 041320Z 29005KT 230V320 CAVOK 19/00 Q1014=
200904041250 METAR ESMX 041250Z 22005KT 140V280 CAVOK 19/01 Q1014=
200904041150 METAR ESMX 041150Z 23004KT 170V340 CAVOK 18/02 Q1015=
200904041120 METAR ESMX 041120Z VRB02KT CAVOK 17/04 Q1015=
200904041050 METAR ESMX 041050Z VRB04KT CAVOK 16/03 Q1015=
200904040950 METAR ESMX 040950Z VRB03KT CAVOK 15/03 Q1016=
200904040920 METAR ESMX 040920Z VRB02KT CAVOK 14/03 Q1016=
200904040850 METAR ESMX 040850Z VRB01KT CAVOK 13/03 Q1016=
200904040750 METAR ESMX 040750Z VRB01KT CAVOK 10/04 Q1015=
200904040720 METAR ESMX 040720Z 00000KT CAVOK 08/04 Q1015=
200904040650 METAR ESMX 040650Z VRB01KT CAVOK 06/03 Q1015=
200904040620 METAR COR ESMX 040620Z VRB02KT CAVOK 02/02 Q1015=
200904040550 METAR ESMX 040550Z AUTO VRB02KT 9999NDV NCD M00/M00 Q1015=
200904040520 METAR ESMX 040520Z AUTO 02002KT 0600NDV R01/0700 R19/P2000D FZFG NCD M02/M03 Q1015=
200904040450 METAR ESMX 040450Z AUTO 00000KT 2900NDV NCD M02/M03 Q1015=
200904040420 METAR ESMX 040420Z AUTO 00000KT 0800NDV R01/P2000N R19/P2000N BCFG NCD M02/M02 Q1016=
200904040350 METAR ESMX 040350Z AUTO 00000KT 1400NDV R01/P2000N R19/P2000N FZFG NCD M02/M03 Q1016=
200904040320 METAR ESMX 040320Z AUTO 00000KT 8000NDV BR NCD M01/M02 Q1016=
200904040250 METAR ESMX 040250Z AUTO 00000KT 9999NDV NCD M02/M02 Q1016=
200904040220 METAR ESMX 040220Z AUTO 19001KT 9999NDV NCD M01/M02 Q1016=
200904040150 METAR ESMX 040150Z AUTO 00000KT 9999NDV NCD M01/M02 Q1016=
200904040120 METAR ESMX 040120Z AUTO 00000KT 9999NDV NCD M01/M01 Q1016=
200904040050 METAR ESMX 040050Z AUTO 16001KT 9999NDV NCD 00/M01 Q1016=
200904032350 METAR ESMX 032350Z AUTO 18001KT 9999NDV NCD 01/00 Q1017=
200904032320 METAR ESMX 032320Z AUTO 00000KT 9999NDV NCD 02/M00 Q1017=
200904032250 METAR ESMX 032250Z AUTO 00000KT 9999NDV NCD 02/01 Q1017=
200904032220 METAR ESMX 032220Z AUTO 30002KT 9999NDV NCD 03/00 Q1017=
200904032150 METAR ESMX 032150Z AUTO VRB01KT 9999NDV NCD 03/00 Q1017=
200904032120 METAR ESMX 032120Z AUTO 30002KT 9999NDV NCD 05/01 Q1017=
200904032050 METAR ESMX 032050Z AUTO 26003KT 9999NDV NCD 06/01 Q1017=
200904031950 METAR ESMX 031950Z AUTO 26004G25KT 9999NDV NCD 06/01 Q1017=
200904031920 METAR ESMX 031920Z AUTO 25003KT 9999NDV NCD 07/02 Q1017=
200904031850 METAR ESMX 031850Z AUTO 27002KT 9999NDV NCD 07/03 Q1017=
200904031820 METAR ESMX 031820Z 28002KT CAVOK 09/03 Q1017=
200904031750 METAR ESMX 031750Z 30002KT CAVOK 12/03 Q1016=
200904031720 METAR ESMX 031720Z 28003KT CAVOK 14/02 Q1016=
200904031650 METAR ESMX 031650Z 29005KT CAVOK 15/02 Q1016=
200904031550 METAR ESMX 031550Z 31006KT 270V330 CAVOK 16/01 Q1017=
200904031520 METAR ESMX 031520Z 29006KT 260V330 CAVOK 17/01 Q1017=
200904031450 METAR ESMX 031450Z 29007KT 250V330 CAVOK 17/00 Q1017=
200904031420 METAR ESMX 031420Z 30007KT CAVOK 17/M00 Q1017=
200904031350 METAR ESMX 031350Z 31010KT CAVOK 17/M01 Q1018=
200904031320 METAR ESMX 031320Z 29007KT 250V340 CAVOK 17/M02 Q1018=
200904031250 METAR ESMX 031250Z 29008KT 260V330 CAVOK 16/M02 Q1018=
200904031220 METAR ESMX 031220Z 26006KT 200V290 CAVOK 16/00 Q1018=
200904031150 METAR ESMX 031150Z 29005KT 240V320 CAVOK 15/M02 Q1019=
200904031120 METAR ESMX 031120Z 25006KT CAVOK 15/M00 Q1019=
200904031050 METAR ESMX 031050Z 28008KT 230V320 CAVOK 14/02 Q1019=
200904030950 METAR ESMX 030950Z 26005KT 200V300 CAVOK 12/02 Q1020=
200904030920 METAR ESMX 030920Z 25004KT 200V280 CAVOK 11/03 Q1020=
200904030850 METAR ESMX 030850Z 24003KT 180V290 CAVOK 09/02 Q1020=
200904030820 METAR ESMX 030820Z 25004KT 200V300 CAVOK 08/02 Q1020=
200904030750 METAR ESMX 030750Z 31004KT 260V350 CAVOK 07/02 Q1020=
200904030720 METAR ESMX 030720Z 27004KT 230V310 CAVOK 06/01 Q1020=
200904030650 METAR ESMX 030650Z 26005KT 220V290 CAVOK 05/00 Q1021=
200904030620 METAR COR ESMX 030620Z 26005KT CAVOK 03/M02 Q1021=
200904030550 METAR ESMX 030550Z 24003KT CAVOK 01/M02 Q1021=
200904030520 METAR ESMX 030520Z 22004KT CAVOK M01/M03 Q1021=
200904030450 METAR ESMX 030450Z 19001KT CAVOK M01/M03 Q1021=
200904030420 METAR ESMX 030420Z 25004KT CAVOK M03/M04 Q1021=
200904030350 METAR ESMX 030350Z 25002KT 9999 FEW010 M02/M04 Q1021=
200904030320 METAR ESMX 030320Z AUTO VRB01KT 9999NDV FEW009/// M01/M03 Q1021=
200904030250 METAR ESMX 030250Z AUTO VRB01KT 9999NDV NCD 00/M03 Q1021=
200904030220 METAR ESMX 030220Z AUTO 24004KT 9999NDV NCD M01/M03 Q1021=
200904030150 METAR ESMX 030150Z AUTO 23004KT 9999NDV NCD M01/M03 Q1022=
200904030120 METAR ESMX 030120Z AUTO VRB02KT 9999NDV NCD 00/M02 Q1022=
200904030050 METAR ESMX 030050Z AUTO 24004KT 9999NDV NCD 00/M02 Q1022=
200904022350 METAR ESMX 022350Z AUTO 24004KT 9999NDV NCD M01/M03 Q1023=
200904022320 METAR ESMX 022320Z 23003KT CAVOK 01/M02 Q1023=
200904022250 METAR ESMX 022250Z 21004KT CAVOK 03/M02 Q1023=
200904022220 METAR ESMX 022220Z 19004KT CAVOK 04/M02 Q1023=
200904022150 METAR ESMX 022150Z 22007KT CAVOK 03/M02 Q1023=
200904022120 METAR ESMX 022120Z 22005KT CAVOK 03/M02 Q1023=
200904022050 METAR ESMX 022050Z 22006KT CAVOK 03/M03 Q1023=
200904022020 METAR ESMX 022020Z 20005KT CAVOK 04/M03 Q1023=
200904021950 METAR ESMX 021950Z 21005KT CAVOK 04/M04 Q1023=
200904021920 METAR ESMX 021920Z 18003KT CAVOK 04/M03 Q1023=
200904021850 METAR ESMX 021850Z 25002KT CAVOK 05/M03 Q1023=
200904021820 METAR ESMX 021820Z 26002KT CAVOK 07/M03 Q1023=
200904021750 METAR ESMX 021750Z 28003KT CAVOK 11/M07 Q1023=
200904021720 METAR ESMX 021720Z 28005KT 250V320 CAVOK 12/M07 Q1023=
200904021650 METAR ESMX 021650Z 25005KT CAVOK 14/M06 Q1023=
200904021550 METAR ESMX 021550Z 24008KT CAVOK 15/M06 Q1024=
200904021520 METAR ESMX 021520Z 22009KT CAVOK 15/M07 Q1024=
200904021450 METAR ESMX 021450Z 23009KT 200V290 CAVOK 15/M05 Q1025=
200904021420 METAR ESMX 021420Z 22009KT 170V260 CAVOK 15/M05 Q1025=
200904021350 METAR ESMX 021350Z 24009KT 200V280 CAVOK 15/M04 Q1025=
200904021320 METAR ESMX 021320Z 25008KT 200V290 CAVOK 15/M04 Q1026=
200904021250 METAR ESMX 021250Z 23009KT CAVOK 14/M03 Q1026=
200904021220 METAR ESMX 021220Z 23009KT 200V280 CAVOK 14/M01 Q1026=
200904021150 METAR ESMX 021150Z 25008KT 210V280 CAVOK 14/00 Q1027=
200904021050 METAR ESMX 021050Z 25009KT 210V280 CAVOK 12/00 Q1027=
200904021020 METAR COR ESMX 021020Z 23009KT 200V270 9999 NSC 12/M01 Q1028=
200904020950 METAR ESMX 020950Z 22010KT CAVOK 10/00 Q1028=
200904020820 METAR ESMX 020820Z 22006KT 190V260 4900 SCT001 BKN003 05/05 Q1028=
200904020750 METAR ESMX 020750Z 22005KT 190V250 1700 BR OVC002 04/04 Q1028=
200904020720 METAR ESMX 020720Z 22004KT 180V260 0750 R01/1000N R19/1200U FG VV002 03/03 Q1028=
200904020650 METAR ESMX 020650Z 24004KT 200V290 0350 R01/0650 R19/0800 FG VV002 02/02 Q1028=
200904020550 METAR ESMX 020550Z 20005KT 0200 R01/0500N R19/0500N FG VV001 01/00 Q1028=
200904020520 METAR ESMX 020520Z 19004KT 0150 R01/0400N R19/0375N FG VV001 00/M00 Q1028=
200904020450 METAR ESMX 020450Z 18003KT 0150 R01/0400N R19/0400N FZFG VV002 M00/M00 Q1028=
200904020420 METAR ESMX 020420Z 19003KT 0100 R01/0300V0400 R19/0350N FZFG VV002 M00/M00 Q1028=
200904020350 METAR ESMX 020350Z 21003KT 0100 R01/0450N R19/0400V0550 FG VV002 00/M00 Q1028=
200904020320 METAR ESMX 020320Z AUTO 18001KT 3500NDV VV002 M02/M02 Q1028=
200904020250 METAR ESMX 020250Z AUTO 00000KT 0450NDV R01/P2000N R19/P2000N FZFG OVC002/// M02/M03 Q1028=
200904020220 METAR ESMX 020220Z AUTO 16001KT 0150NDV R01/P2000N R19/0600V0900 BR FEW004/// M01/M02 Q1028=
200904020150 METAR ESMX 020150Z AUTO VRB01KT 0300NDV R01/P2000N R19/P2000N BR NCD M00/M01 Q1028=
200904020050 METAR ESMX 020050Z AUTO 17003KT 7000NDV BR NCD 02/01 Q1027=
200904020020 METAR ESMX 020020Z AUTO 17004KT 7000NDV BR NCD 02/01 Q1027=
200904012350 METAR ESMX 012350Z 16005KT CAVOK 02/02 Q1027=
200904012250 METAR ESMX 012250Z 16004KT CAVOK 02/00 Q1027=
200904012220 METAR ESMX 012220Z 17004KT 120V210 CAVOK 02/M00 Q1027=
200904012150 METAR ESMX 012150Z 16005KT CAVOK 01/M01 Q1027=
200904012120 METAR ESMX 012120Z 18003KT CAVOK 03/M02 Q1027=
200904012050 METAR ESMX 012050Z 14006KT CAVOK 01/M03 Q1027=
200904011950 METAR ESMX 011950Z 00000KT CAVOK 03/M03 Q1027=
200904011920 METAR ESMX 011920Z 02002KT CAVOK 02/M03 Q1026=
200904011850 METAR ESMX 011850Z 00000KT CAVOK 03/M03 Q1026=
200904011820 METAR ESMX 011820Z 00000KT CAVOK 05/M02 Q1025=
200904011750 METAR ESMX 011750Z VRB01KT CAVOK 08/M03 Q1025=
200904011720 METAR ESMX 011720Z 05003KT 010V140 CAVOK 11/M05 Q1025=
200904011650 METAR ESMX 011650Z 03003KT 360V100 CAVOK 13/M07 Q1025=
200904011620 METAR ESMX 011620Z 36003KT CAVOK 13/M08 Q1024=
200904011550 METAR ESMX 011550Z 35003KT 320V040 CAVOK 13/M08 Q1024=
200904011450 METAR ESMX 011450Z 03003KT 320V080 CAVOK 13/M07 Q1024=
200904011420 METAR ESMX 011420Z 34004KT 290V080 CAVOK 14/M06 Q1024=
200904011350 METAR ESMX 011350Z 02003KT 340V060 CAVOK 14/M07 Q1024=
200904011250 METAR ESMX 011250Z VRB03KT CAVOK 13/M06 Q1023=
200904011220 METAR ESMX 011220Z 34005KT 290V070 CAVOK 13/M05 Q1023=
