##########################################################
# Query made at 04/19/2024 21:12:32 UTC
# Time interval: from 10/01/2009 12:00  to 10/31/2009 12:59  UTC
##########################################################

##########################################################
# ESMX, Vaxjo (Sweden)
# WMO index: 02641. WIGOS ID: 0-20000-0-02648
# Latitude 56-51N. Longitude 014-50E. Altitude 199 m.
##########################################################

200910311250 METAR ESMX 311250Z 36004KT 320V030 CAVOK 05/00 Q1030=
200910311220 METAR ESMX 311220Z 33003KT 260V030 CAVOK 05/00 Q1030=
200910311150 METAR ESMX 311150Z 02004KT 340V050 CAVOK 04/00 Q1030=
200910311050 METAR ESMX 311050Z 30004KT CAVOK 03/M00 Q1031=
200910311020 METAR ESMX 311020Z 29003KT 250V340 CAVOK 03/M00 Q1031=
200910310950 METAR ESMX 310950Z 28003KT CAVOK 02/M00 Q1031=
200910310920 METAR ESMX 310920Z VRB02KT CAVOK 01/M00 Q1031=
200910310850 METAR ESMX 310850Z VRB02KT CAVOK M00/M01 Q1031=
200910310820 METAR ESMX 310820Z 26002KT CAVOK M01/M02 Q1032=
200910310750 METAR ESMX 310750Z 00000KT CAVOK M03/M04 Q1032=
200910310720 METAR ESMX 310720Z 17001KT CAVOK M05/M05 Q1032=
200910310650 METAR ESMX 310650Z AUTO 16002KT 9999NDV NCD M04/M05 Q1032=
200910310620 METAR ESMX 310620Z AUTO 17001KT 9999NDV NCD M05/M06 Q1032=
200910310550 METAR ESMX 310550Z AUTO 17002KT 9999NDV NCD M05/M06 Q1031=
200910310520 METAR ESMX 310520Z AUTO 00000KT 9999NDV NCD M05/M06 Q1031=
200910310450 METAR ESMX 310450Z AUTO 00000KT 9999NDV NCD M05/M06 Q1031=
200910310420 METAR ESMX 310420Z AUTO 00000KT 9999NDV NCD M05/M05 Q1031=
200910310350 METAR ESMX 310350Z AUTO 00000KT 9999NDV NCD M04/M05 Q1031=
200910310320 METAR ESMX 310320Z AUTO VRB01KT 9999NDV NCD M04/M04 Q1032=
200910310250 METAR ESMX 310250Z AUTO 28003KT 9999NDV NCD M04/M05 Q1032=
200910310220 METAR ESMX 310220Z AUTO VRB02KT 9999NDV NCD M03/M04 Q1032=
200910310150 METAR ESMX 310150Z AUTO 26002KT 9999NDV NCD M04/M05 Q1032=
200910310120 METAR ESMX 310120Z AUTO 00000KT 9999NDV NCD M04/M04 Q1032=
200910310050 METAR ESMX 310050Z AUTO 27001KT 9999NDV NCD M04/M04 Q1032=
200910310020 METAR ESMX 310020Z AUTO 00000KT 9999NDV NCD M04/M04 Q1032=
200910302350 METAR ESMX 302350Z AUTO 35001KT 9999NDV NCD M04/M04 Q1032=
200910302320 METAR ESMX 302320Z AUTO 00000KT 9999NDV NCD M03/M04 Q1032=
200910302250 METAR ESMX 302250Z AUTO VRB01KT 9999NDV NCD M03/M03 Q1032=
200910302220 METAR ESMX 302220Z AUTO VRB01KT 9999NDV NCD M03/M03 Q1033=
200910302150 METAR ESMX 302150Z AUTO 00000KT 9999NDV NCD M02/M03 Q1033=
200910302120 METAR ESMX 302120Z VRB01KT 9999 FEW025 M02/M03 Q1032=
200910302050 METAR ESMX 302050Z VRB02KT 9999 FEW022 M01/M02 Q1032=
200910302020 METAR ESMX 302020Z 29002KT 9999 SCT023 M01/M02 Q1032=
200910301950 METAR ESMX 301950Z VRB02KT 9999 BKN024 01/M01 Q1033=
200910301920 METAR ESMX 301920Z 32002KT 9999 OVC025 01/M01 Q1033=
200910301850 METAR ESMX 301850Z 31003KT 260V010 9999 BKN025 03/M01 Q1033=
200910301820 METAR ESMX 301820Z 29004KT 9999 OVC024 03/M01 Q1033=
200910301750 METAR ESMX 301750Z 28005KT 240V340 9999 BKN023 03/M01 Q1033=
200910301720 METAR ESMX 301720Z 29003KT 250V340 9999 BKN022 03/M01 Q1033=
200910301650 METAR ESMX 301650Z 25004KT 230V320 9999 BKN022 04/M01 Q1033=
200910301620 METAR ESMX 301620Z VRB02KT 9999 OVC024 03/M01 Q1033=
200910301550 METAR ESMX 301550Z VRB02KT 9999 OVC023 04/M00 Q1033=
200910301520 METAR ESMX 301520Z VRB02KT 9999 BKN025 04/M00 Q1033=
200910301450 METAR ESMX 301450Z 26003KT 230V300 9999 BKN025 04/M00 Q1033=
200910301420 METAR ESMX 301420Z 35002KT 9999 OVC022 04/M01 Q1033=
200910301350 METAR ESMX 301350Z 00000KT 9999 BKN025 04/M01 Q1033=
200910301320 METAR ESMX 301320Z VRB01KT 9999 BKN025 04/M01 Q1033=
200910301250 METAR ESMX 301250Z VRB02KT 9999 BKN028 04/M00 Q1034=
200910301220 METAR ESMX 301220Z VRB02KT 9999 BKN030 04/M01 Q1034=
200910301150 METAR COR ESMX 301150Z VRB01KT 9999 BKN030 04/M00 Q1034=
200910301120 METAR ESMX 301120Z 03003KT 350V070 9999 SCT030 BKN045 04/M01 Q1034=
200910301050 METAR ESMX 301050Z 14003KT 070V170 9999 BKN025 03/M01 Q1034=
200910301020 METAR ESMX 301020Z VRB02KT 9999 OVC027 03/M01 Q1034=
200910300950 METAR ESMX 300950Z 03004KT 9999 OVC027 03/M01 Q1035=
200910300920 METAR ESMX 300920Z 05003KT 010V080 9999 OVC028 03/M01 Q1034=
200910300850 METAR ESMX 300850Z 05003KT 020V100 9999 OVC027 03/M00 Q1034=
200910300820 METAR ESMX 300820Z 07003KT 040V110 9999 OVC027 03/M00 Q1034=
200910300750 METAR ESMX 300750Z 03003KT 360V060 9999 OVC027 02/M00 Q1034=
200910300720 METAR ESMX 300720Z 02004KT 9999 OVC027 02/M01 Q1034=
200910300650 METAR ESMX 300650Z VRB02KT 9999 OVC026 02/M01 Q1034=
200910300620 METAR ESMX 300620Z 03003KT 9999 OVC026 02/M01 Q1034=
200910300550 METAR ESMX 300550Z VRB02KT 9999 OVC026 02/M01 Q1034=
200910300520 METAR ESMX 300520Z 04003KT 350V080 9999 OVC026 02/M01 Q1033=
200910300450 METAR ESMX 300450Z 05003KT 9999 OVC026 02/M01 Q1033=
200910300420 METAR ESMX 300420Z AUTO 06004KT 9999NDV OVC026/// 02/M01 Q1033=
200910300350 METAR ESMX 300350Z AUTO 04003KT 020V080 9999NDV OVC027/// 02/M01 Q1033=
200910300320 METAR ESMX 300320Z AUTO 05004KT 020V080 9999NDV OVC027/// 02/M00 Q1033=
200910300250 METAR ESMX 300250Z AUTO 03003KT 9999NDV OVC027/// 03/00 Q1033=
200910300220 METAR ESMX 300220Z AUTO 01002KT 9999NDV OVC027/// 02/01 Q1033=
200910300150 METAR ESMX 300150Z AUTO 36004KT 9999NDV OVC027/// 03/00 Q1033=
200910300120 METAR ESMX 300120Z AUTO 03004KT 9999NDV OVC027/// 03/00 Q1033=
200910300050 METAR ESMX 300050Z AUTO 01003KT 9999NDV OVC027/// 03/01 Q1033=
200910300020 METAR ESMX 300020Z 33003KT 9999 OVC026 02/01 Q1033=
200910292350 METAR ESMX 292350Z 36002KT 9999 OVC026 02/01 Q1033=
200910292320 METAR ESMX 292320Z VRB01KT 9999 OVC026 02/01 Q1032=
200910292250 METAR ESMX 292250Z VRB02KT 9999 OVC027 02/00 Q1032=
200910292220 METAR ESMX 292220Z VRB01KT 9999 OVC028 02/00 Q1032=
200910292150 METAR ESMX 292150Z VRB02KT 9999 OVC027 02/00 Q1032=
200910292120 METAR ESMX 292120Z VRB02KT 9999 OVC027 03/00 Q1032=
200910292050 METAR ESMX 292050Z 35005KT 9999 OVC027 03/00 Q1032=
200910292020 METAR ESMX 292020Z 34003KT 9999 OVC028 02/00 Q1032=
200910291950 METAR ESMX 291950Z 33004KT 9999 FEW023 OVC028 03/M00 Q1031=
200910291920 METAR ESMX 291920Z 01002KT 9999 OVC022 03/M00 Q1031=
200910291850 METAR ESMX 291850Z 04005KT 360V070 9999 OVC020 03/M01 Q1031=
200910291820 METAR ESMX 291820Z 06004KT 030V120 9999 OVC020 03/M01 Q1031=
200910291750 METAR ESMX 291750Z 05004KT 010V080 9999 OVC020 03/M01 Q1030=
200910291720 METAR ESMX 291720Z 05003KT 010V100 9999 OVC019 03/M01 Q1030=
200910291650 METAR ESMX 291650Z 01004KT 9999 OVC020 03/M00 Q1030=
200910291620 METAR ESMX 291620Z 02005KT 350V070 9999 OVC019 03/M01 Q1030=
200910291550 METAR ESMX 291550Z 03003KT 340V100 9999 OVC017 03/M01 Q1029=
200910291520 METAR ESMX 291520Z 09004KT 060V150 9999 OVC018 03/M01 Q1029=
200910291450 METAR ESMX 291450Z 02004KT 9999 OVC018 03/M00 Q1028=
200910291420 METAR ESMX 291420Z 07005KT 020V140 9999 OVC018 03/M01 Q1028=
200910291350 METAR ESMX 291350Z 03006KT 9999 BKN018 03/M00 Q1028=
200910291320 METAR ESMX 291320Z 04006KT 020V080 9999 OVC019 04/M00 Q1028=
200910291250 METAR ESMX 291250Z 05008KT 360V090 9999 OVC019 04/M00 Q1028=
200910291220 METAR ESMX 291220Z 04008KT 010V090 9999 BKN019 04/M00 Q1027=
200910291150 METAR ESMX 291150Z 02006KT 350V050 9999 BKN018 04/M00 Q1027=
200910291120 METAR ESMX 291120Z 02009KT 9999 BKN017 04/00 Q1027=
200910291050 METAR ESMX 291050Z 04008KT 010V090 9999 BKN017 04/M00 Q1027=
200910291020 METAR ESMX 291020Z 01007KT 340V050 9999 FEW018 BKN023 04/01 Q1026=
200910290950 METAR ESMX 290950Z 03007KT 9999 SCT013 04/01 Q1026=
200910290920 METAR ESMX 290920Z 01006KT 9999 FEW007 BKN012 02/01 Q1026=
200910290850 METAR ESMX 290850Z 05005KT 010V090 9999 FEW007 BKN010 02/01 Q1026=
200910290820 METAR ESMX 290820Z 03006KT 360V060 9999 FEW007 BKN010 02/01 Q1025=
200910290750 METAR ESMX 290750Z 01006KT 9999 FEW005 BKN010 01/01 Q1025=
200910290720 METAR ESMX 290720Z 05006KT 010V080 9999 BKN005 01/01 Q1024=
200910290650 METAR ESMX 290650Z 02004KT 9999 MIFG FEW018 M00/M01 Q1024=
200910290620 METAR ESMX 290620Z 01002KT 9999 MIFG FEW018 M00/M00 Q1024=
200910290550 METAR ESMX 290550Z 02002KT 9999 MIFG FEW035 M00/M01 Q1023=
200910290520 METAR ESMX 290520Z 00000KT 9999 MIFG FEW035 M01/M01 Q1023=
200910290450 METAR ESMX 290450Z 00000KT 9999 BKN035 M00/M00 Q1022=
200910290420 METAR ESMX 290420Z AUTO 00000KT 9999NDV OVC033/// 00/M00 Q1022=
200910290350 METAR ESMX 290350Z AUTO 00000KT 9999NDV OVC032/// M00/M00 Q1022=
200910290320 METAR ESMX 290320Z AUTO 00000KT 1900NDV OVC031/// M00/M01 Q1022=
200910290250 METAR ESMX 290250Z AUTO 00000KT 0250NDV R01/1200U R19/0800V1400U=
200910290220 METAR ESMX 290220Z AUTO VRB01KT 0100NDV R01/0550N R19/0500N FZFG NCD M00/M00 Q1022=
200910290150 METAR ESMX 290150Z AUTO 28003KT 0200NDV R01/0800V1100N R19/0700=
200910290120 METAR ESMX 290120Z AUTO 29002KT 0800NDV R01/P2000N R19/P2000N FG SCT027/// 01/00 Q1021=
200910290050 METAR ESMX 290050Z AUTO VRB01KT 9000NDV BR SCT002/// BKN023/// 02/01 Q1021=
200910290020 METAR ESMX 290020Z 02002KT 9999 SCT003 BKN023 02/02 Q1021=
200910282350 METAR ESMX 282350Z 01002KT 9999 SCT004 OVC022 03/02 Q1021=
200910282320 METAR ESMX 282320Z 03004KT 9999 OVC003 03/02 Q1021=
200910282250 METAR ESMX 282250Z 03003KT 7000 BR OVC003 03/02 Q1021=
200910282220 METAR ESMX 282220Z 03004KT 350V070 4000 BR OVC002 03/02 Q1021=
200910282150 METAR ESMX 282150Z 04005KT 5000 BR OVC002 03/02 Q1020=
200910282120 METAR ESMX 282120Z 04003KT 010V070 5000 BR OVC003 03/02 Q1020=
200910282050 METAR ESMX 282050Z 04005KT 010V080 7000 BR OVC003 03/02 Q1020=
200910282020 METAR ESMX 282020Z VRB02KT 0800 R01/1200VP2000N R19/P2000N FG VV002 03/03 Q1020=
200910281950 METAR ESMX 281950Z 34003KT 0600 R01/0900N R19/1700U FG VV002 03/02 Q1020=
200910281920 METAR ESMX 281920Z 35003KT 320V030 0250 R01/0900N R19/1000U FG VV002 03/02 Q1019=
200910281850 METAR ESMX 281850Z 34003KT 0400 R01/0900VP2000N R19/1200VP2000N FG VV002 03/03 Q1019=
200910281820 METAR ESMX 281820Z 36003KT 0400 R01/1000V1800U R19/1400VP2000N FG VV002 03/03 Q1019=
200910281750 METAR ESMX 281750Z VRB02KT 0800 R01/P2000N R19/P2000N FG VV002 03/03 Q1019=
200910281720 METAR ESMX 281720Z 03003KT 4900 BR OVC002 03/03 Q1019=
200910281650 METAR ESMX 281650Z 32004KT 4000 BR OVC002 03/02 Q1019=
200910281620 METAR ESMX 281620Z 34004KT 320V020 9999 OVC002 03/03 Q1019=
200910281550 METAR ESMX 281550Z VRB02KT 9999 OVC003 04/03 Q1019=
200910281520 METAR ESMX 281520Z VRB02KT 9999 OVC003 04/03 Q1019=
200910281450 METAR ESMX 281450Z 33003KT 280V030 9999 OVC003 04/03 Q1019=
200910281420 METAR ESMX 281420Z 34003KT 300V010 9999 OVC004 04/03 Q1019=
200910281350 METAR ESMX 281350Z 32003KT 9999 OVC004 04/03 Q1019=
200910281320 METAR ESMX 281320Z VRB02KT 9999 OVC003 03/03 Q1019=
200910281250 METAR ESMX 281250Z 26003KT 9999 OVC002 03/03 Q1019=
200910281220 METAR ESMX 281220Z 27003KT 230V290 9999 FEW002 OVC003 03/03 Q1019=
200910281150 METAR ESMX 281150Z VRB02KT 9999 OVC003 03/02 Q1019=
200910281120 METAR ESMX 281120Z VRB02KT 9999 OVC002 03/02 Q1019=
200910281050 METAR ESMX 281050Z VRB02KT 3400 BR OVC002 02/02 Q1019=
200910281020 METAR ESMX 281020Z VRB02KT 2400 BR OVC002 02/02 Q1019=
200910280950 METAR ESMX 280950Z VRB02KT 3000 BR OVC001 02/01 Q1019=
200910280920 METAR ESMX 280920Z 27004KT 0450 R01/0800V1200 R19/0900V1400U FG OVC001 01/01 Q1019=
200910280850 METAR ESMX 280850Z 32003KT 290V010 0300 R01/0600 R19/0750 FG VV002 01/01 Q1019=
200910280750 METAR ESMX 280750Z 34005KT 0300 R01/0600 R19/0900N FG VV002 01/00 Q1019=
200910280720 METAR ESMX 280720Z 30004KT 0450 R01/0900N R19/1000N FG VV002 00/M00 Q1019=
200910280650 METAR ESMX 280650Z 30003KT 0350 R01/0750N R19/0900N FG VV001 00/M00 Q1019=
200910280620 METAR ESMX 280620Z 30003KT 0300 R01/0700N R19/0800 FZFG VV002 M00/M00 Q1019=
200910280550 METAR ESMX 280550Z 28003KT 0200 R01/0750N R19/1100D FZFG VV002 M00/M00 Q1019=
200910280520 METAR ESMX 280520Z 28003KT 0350 R01/1100N R19/1100D FG VV002 00/M00 Q1018=
200910280450 METAR ESMX 280450Z 31002KT 0300 R01/0900N R19/1000N FG VV002 00/00 Q1018=
200910280420 METAR ESMX 280420Z AUTO 31003KT 0250NDV R01/0900N R19/1000N FG VV001 01/00 Q1018=
200910280350 METAR ESMX 280350Z AUTO 31004KT 0200NDV R01/0800N R19/1000N FG VV001 01/00 Q1018=
200910280320 METAR ESMX 280320Z AUTO 31005KT 0250NDV R01/0900N R19/1000N FG VV001 01/01 Q1018=
200910280250 METAR ESMX 280250Z AUTO 29004KT 0250NDV R01/0900N R19/0900N FG VV001 01/01 Q1018=
200910280220 METAR ESMX 280220Z AUTO 29005KT 0250NDV R01/1300U R19/0900N FG VV000 01/00 Q1018=
200910280150 METAR ESMX 280150Z AUTO VRB02KT 1600NDV NCD M00/M01 Q1018=
200910280120 METAR ESMX 280120Z AUTO VRB02KT 0800NDV R01/P2000N R19/P2000N FZFG NCD M00/M00 Q1018=
200910280050 METAR ESMX 280050Z AUTO VRB01KT 0600NDV R01/P2000N R19/P2000D NCD 00/M00 Q1018=
200910280020 METAR ESMX 280020Z VRB01KT 9999 MIFG NSC 01/00 Q1018=
200910272350 METAR ESMX 272350Z VRB02KT 5000 BR NSC 00/00 Q1018=
200910272320 METAR ESMX 272320Z 31002KT 4000 BR NSC 01/00 Q1018=
200910272250 METAR ESMX 272250Z 29003KT 5000 BR NSC 01/00 Q1018=
200910272220 METAR ESMX 272220Z 29002KT 6000 BR NSC 01/01 Q1018=
200910272150 METAR ESMX 272150Z 30003KT CAVOK 01/01 Q1018=
200910272120 METAR ESMX 272120Z 29003KT CAVOK 01/01 Q1017=
200910272050 METAR ESMX 272050Z 29003KT CAVOK 01/01 Q1017=
200910272020 METAR ESMX 272020Z 29002KT CAVOK 02/02 Q1017=
200910271950 METAR ESMX 271950Z 27002KT CAVOK 02/02 Q1017=
200910271920 METAR ESMX 271920Z VRB02KT CAVOK 03/02 Q1017=
200910271850 METAR ESMX 271850Z 25003KT CAVOK 02/01 Q1017=
200910271820 METAR ESMX 271820Z 28003KT CAVOK 03/02 Q1017=
200910271750 METAR ESMX 271750Z 29005KT CAVOK 03/02 Q1017=
200910271720 METAR ESMX 271720Z 29004KT CAVOK 03/03 Q1016=
200910271650 METAR ESMX 271650Z 27004KT 9999 FEW013 04/03 Q1016=
200910271620 METAR ESMX 271620Z 28004KT 9999 FEW014 04/03 Q1016=
200910271550 METAR ESMX 271550Z 30004KT CAVOK 04/03 Q1016=
200910271520 METAR ESMX 271520Z 31004KT 9999 SCT012 05/04 Q1016=
200910271450 METAR ESMX 271450Z 33007KT 9999 FEW013 BKN015 06/04 Q1016=
200910271420 METAR ESMX 271420Z 33010KT 9999 BKN011 OVC017 07/05 Q1015=
200910271350 METAR ESMX 271350Z 30006KT 9999 SCT011 BKN015 07/06 Q1015=
200910271320 METAR ESMX 271320Z 29005KT 260V320 9999 FEW016 OVC020 07/05 Q1015=
200910271250 METAR ESMX 271250Z 28004KT 250V330 9999 FEW014 BKN017 OVC020 07/05 Q1015=
200910271220 METAR ESMX 271220Z 32005KT 290V360 9999 BKN013 OVC018 07/05 Q1015=
200910271150 METAR ESMX 271150Z 31005KT 9999 FEW010 OVC015 07/05 Q1015=
200910271120 METAR ESMX 271120Z 32008KT 290V350 9999 BKN009 OVC013 07/05 Q1014=
200910271020 METAR ESMX 271020Z 33009KT 290V350 5000 BR SCT006 OVC009 07/06 Q1014=
200910270950 METAR ESMX 270950Z 29007KT 8000 BR FEW006 SCT011 OVC020 08/07 Q1014=
200910270920 METAR ESMX 270920Z 30006KT 260V330 3500 -DZ BR FEW003 SCT005 BKN007 08/07 Q1013=
200910270850 METAR ESMX 270850Z 29007KT 260V320 3000 BR FEW004 SCT006 BKN008 08/07 Q1013 REDZ=
200910270820 METAR ESMX 270820Z 30004KT 4000 DZ BR FEW005 SCT007 BKN009 08/07 Q1013=
200910270750 METAR ESMX 270750Z 30005KT 260V330 5000 BR FEW006 BKN007 OVC013 08/08 Q1013=
200910270720 METAR ESMX 270720Z 29005KT 250V330 7000 -DZ BR FEW005 BKN007 OVC015 09/08 Q1013=
200910270650 METAR ESMX 270650Z 29003KT 7000 BR FEW004 OVC015 09/08 Q1012=
200910270620 METAR ESMX 270620Z 26003KT 5000 BR FEW003 OVC017 09/08 Q1012=
200910270550 METAR ESMX 270550Z 27004KT 250V310 6000 BR SCT002 BKN020 09/08 Q1012=
200910270520 METAR ESMX 270520Z 28004KT 4800 BR SCT001 BKN003 09/08 Q1012=
200910270450 METAR ESMX 270450Z 27004KT 1900 BR OVC002 09/08 Q1012=
200910270420 METAR ESMX 270420Z 27005KT 0800 R01/P2000N R19/P2000N FG VV002 09/08 Q1012=
200910270350 METAR ESMX 270350Z AUTO 27004KT 1200NDV R01/P2000N R19/P2000N VV001 09/08 Q1012=
200910270320 METAR ESMX 270320Z AUTO VRB02KT 1000NDV R01/P2000N R19/P2000N FG VV002 09/08 Q1012=
200910270250 METAR ESMX 270250Z AUTO 25004KT 0900NDV R01/P2000N R19/P2000N FG VV002 09/08 Q1011=
200910270220 METAR ESMX 270220Z AUTO 25002KT 1400NDV R01/P2000N R19/P2000N OVC001/// 09/08 Q1011=
200910270150 METAR ESMX 270150Z AUTO 24002KT 1000NDV R01/P2000N R19/P2000N VV002 09/08 Q1011=
200910270120 METAR ESMX 270120Z AUTO 23001KT 0550NDV R01/1700U R19/1700N FG VV001 09/08 Q1011=
200910270050 METAR ESMX 270050Z 26002KT 0450 R01/1500N R19/P2000D FG VV002 09/08 Q1011=
200910270020 METAR ESMX 270020Z 26003KT 0900 R01/P2000N R19/P2000N FG VV002 09/08 Q1011=
200910262350 METAR ESMX 262350Z VRB02KT 3100 BR OVC002 09/08 Q1011=
200910262320 METAR ESMX 262320Z 28005KT 1900 BR OVC002 09/09 Q1011=
200910262250 METAR ESMX 262250Z VRB02KT 0800 R01/P2000N R19/P2000N BR BKN001 OVC004 09/09 Q1011=
200910262220 METAR ESMX 262220Z 22003KT 0500 R01/P2000N R19/1200VP2000D FG VV004 09/09 Q1011=
200910262150 METAR ESMX 262150Z 21002KT 1400 R01/P2000N R19/P2000N BR OVC002 09/09 Q1011=
200910262120 METAR ESMX 262120Z 20002KT 1500 BR BKN002 09/09 Q1011=
200910262050 METAR ESMX 262050Z 23002KT 0500 R01/P2000N R19/1100V1500D FG VV002 09/09 Q1011=
200910262020 METAR ESMX 262020Z 23002KT 2000 BR BKN002 09/09 Q1010=
200910261950 METAR ESMX 261950Z 22004KT 3800 BR BKN003 OVC005 09/09 Q1010=
200910261920 METAR ESMX 261920Z 20003KT 3100 BR BKN002 OVC004 10/09 Q1010=
200910261850 METAR ESMX 261850Z 18002KT 2200 BR BKN002 09/09 Q1010=
200910261820 METAR ESMX 261820Z 18003KT 2700 BR BKN002 09/09 Q1010=
200910261750 METAR ESMX 261750Z 18003KT 140V200 3500 BR FEW004 SCT005 BKN007 10/09 Q1010=
200910261720 METAR ESMX 261720Z 19003KT 4500 BR FEW005 SCT013 BKN022 10/09 Q1010=
200910261650 METAR ESMX 261650Z 18003KT 4500 BR FEW003 SCT007 BKN010 10/09 Q1010=
200910261620 METAR ESMX 261620Z 18003KT 3000 -DZ BR FEW003 SCT006 BKN010 10/09 Q1010=
200910261550 METAR ESMX 261550Z 17003KT 140V210 4500 BR FEW004 SCT007 BKN012 10/09 Q1009=
200910261520 METAR ESMX 261520Z 17003KT 6000 BR FEW004 SCT005 BKN007 10/09 Q1009 RERA=
200910261450 METAR ESMX 261450Z 15005KT 120V190 4500 -RA BR FEW005 SCT008 BKN013 10/09 Q1009=
200910261420 METAR ESMX 261420Z 17004KT 140V210 3500 -RADZ FEW005 SCT008 BKN010 10/09 Q1009=
200910261350 METAR ESMX 261350Z 16003KT 130V190 7000 BR FEW003 SCT005 BKN008 10/09 Q1009 REDZ=
200910261320 METAR ESMX 261320Z 15003KT 120V190 5000 BR FEW004 SCT007 BKN012 10/09 Q1009=
200910261250 METAR ESMX 261250Z 18005KT 9999 FEW007 SCT010 BKN017 11/09 Q1009=
200910261220 METAR ESMX 261220Z 18005KT 9999 FEW006 SCT010 BKN015 11/09 Q1009=
200910261150 METAR ESMX 261150Z 18006KT 130V200 8000 BR FEW007 SCT009 BKN012 10/09 Q1009=
200910261120 METAR ESMX 261120Z 18007KT 9000 BR FEW006 SCT010 BKN020 11/10 Q1009=
200910261050 METAR ESMX 261050Z 19007KT 9000 BR FEW006 SCT008 BKN015 11/09 Q1009=
200910261020 METAR ESMX 261020Z 19007KT 9000 BR FEW006 SCT009 BKN017 11/09 Q1009=
200910260950 METAR ESMX 260950Z 19007KT 9000 BR FEW005 SCT009 BKN019 11/10 Q1009=
200910260920 METAR ESMX 260920Z 20009KT 6000 BR BKN004 BKN008 10/09 Q1009=
200910260850 METAR ESMX 260850Z 19006KT 160V230 4000 DZ SCT003 BKN006 OVC012 10/09 Q1009 RERA=
200910260820 METAR ESMX 260820Z 18005KT 150V220 7000 BR FEW004 SCT006 BKN014 10/09 Q1009=
200910260750 METAR ESMX 260750Z 18005KT 4700 BR FEW002 BKN007 10/09 Q1009 REDZ=
200910260720 METAR ESMX 260720Z 19005KT 3300 DZ FEW003 BKN005 OVC008 10/09 Q1009=
200910260650 METAR ESMX 260650Z 17006KT 3000 BR FEW003 SCT005 BKN007 10/09 Q1009=
200910260620 METAR ESMX 260620Z 16005KT 9000 BR FEW004 SCT007 BKN010 09/09 Q1008=
200910260550 METAR ESMX 260550Z 17004KT 8000 BR FEW005 SCT007 BKN009 09/09 Q1008=
200910260520 METAR ESMX 260520Z 18006KT 9000 BR FEW004 SCT005 BKN007 09/09 Q1008=
200910260450 METAR ESMX 260450Z 19005KT 8000 BR SCT004 BKN009 09/08 Q1008=
200910260420 METAR ESMX 260420Z AUTO 17006KT 140V200 9999NDV BR FEW003/// SCT004/// BKN007/// 09/09 Q1008=
200910260350 METAR ESMX 260350Z AUTO 16006KT 8000NDV BR FEW002/// SCT004/// BKN006/// 09/09 Q1008=
200910260320 METAR ESMX 260320Z AUTO 15005KT 4100NDV BR FEW003/// SCT004/// BKN053/// 09/09 Q1008=
200910260250 METAR ESMX 260250Z AUTO 17005KT 140V200 5000NDV RA FEW003/// SCT005/// BKN007/// 09/09 Q1008=
200910260220 METAR ESMX 260220Z AUTO 17006KT 140V200 5000NDV -RA FEW002/// BKN004/// OVC007/// 09/09 Q1009=
200910260150 METAR ESMX 260150Z AUTO 17006KT 4200NDV -RA FEW002/// BKN003/// BKN006/// 09/09 Q1009=
200910260120 METAR ESMX 260120Z AUTO 18006KT 2300NDV RA OVC001/// 09/09 Q1009 REDZ=
200910260050 METAR ESMX 260050Z 17006KT 140V210 2900 BR OVC002 09/09 Q1009=
200910260020 METAR ESMX 260020Z 15005KT 110V190 2000 BR OVC002 09/09 Q1009=
200910252350 METAR ESMX 252350Z 15004KT 2000 BR SCT002 BKN006 09/09 Q1009=
200910252250 METAR ESMX 252250Z 18005KT 3700 BR SCT002 BKN005 OVC015 09/09 Q1010=
200910252220 METAR ESMX 252220Z 17005KT 2800 BR OVC002 09/09 Q1010=
200910252150 METAR ESMX 252150Z 18006KT 2100 OVC001 09/09 Q1010=
200910252050 METAR ESMX 252050Z 17005KT 1200 R01/P2000N R19/P2000N FG VV002 09/08 Q1010=
200910252020 METAR ESMX 252020Z 17005KT 140V200 1100 R01/P2000N R19/P2000N VV002 09/08 Q1010=
200910251950 METAR ESMX 251950Z 16004KT 140V200 1100 R01/P2000N R19/P2000N VV002 09/08 Q1010=
200910251920 METAR ESMX 251920Z 18005KT 0900 R01/P2000N R19/P2000N FG VV002 08/08 Q1010=
200910251850 METAR ESMX 251850Z 17004KT 130V210 0700 R01/P2000N R19/P2000N FG VV002 08/08 Q1010=
200910251820 METAR ESMX 251820Z 17005KT 140V200 1000 R19/P2000N BR OVC000 08/08 Q1010=
200910251750 METAR ESMX 251750Z 16005KT 2400 BR OVC001 08/07 Q1010=
200910251720 METAR ESMX 251720Z 16005KT 120V200 4500 BR OVC001 08/07 Q1010=
200910251650 METAR ESMX 251650Z 16006KT 5000 BR OVC002 08/07 Q1010=
200910251620 METAR ESMX 251620Z 17006KT 140V200 7000 BR OVC003 08/07 Q1010=
200910251550 METAR ESMX 251550Z 18006KT 7000 DZ OVC002 08/07 Q1009=
200910251520 METAR ESMX 251520Z 16006KT 120V200 6000 BR OVC002 08/07 Q1009=
200910251450 METAR ESMX 251450Z 16007KT 3800 -RADZ OVC002 08/07 Q1009=
200910251420 METAR ESMX 251420Z 16008KT 120V200 3300 DZ OVC002 08/07 Q1009=
200910251350 METAR ESMX 251350Z 16009KT 130V190 4200 -RADZ OVC002 07/07 Q1009=
200910251320 METAR ESMX 251320Z 15008KT 100V190 4000 -RA OVC003 07/07 Q1009=
200910251250 METAR ESMX 251250Z AUTO 16007KT 120V230 5000NDV BR OVC003/// 07/07 Q1010=
200910251220 METAR ESMX 251220Z AUTO 15007KT 110V200 5000NDV BR FEW003/// OVC005/// 07/06 Q1010=
200910251150 METAR ESMX 251150Z AUTO 15007KT 120V210 4100NDV BR OVC004/// 07/06 Q1010=
200910251120 METAR ESMX 251120Z AUTO 15007KT 110V200 3200NDV BR OVC004/// 07/06 Q1010=
200910251050 METAR ESMX 251050Z AUTO 14006KT 100V190 3600NDV BR FEW004/// OVC005/// 07/06 Q1010 REDZ=
200910251020 METAR ESMX 251020Z AUTO 14007KT 090V170 3400NDV DZ BKN005/// OVC008/// 07/06 Q1011=
200910250950 METAR ESMX 250950Z AUTO 13006KT 080V180 5000NDV BR OVC005/// 07/06 Q1011 REDZ=
200910250920 METAR ESMX 250920Z AUTO 12006KT 070V170 5000NDV -RA FEW004/// OVC005/// 07/06 Q1011 REDZ=
200910250850 METAR ESMX 250850Z AUTO 13006KT 060V190 4500NDV DZ OVC003/// 07/06 Q1011=
200910250820 METAR ESMX 250820Z AUTO 13005KT 080V170 9000NDV DZ OVC004/// 07/06 Q1012=
200910250750 METAR ESMX 250750Z AUTO 13005KT 080V170 9999NDV OVC004/// 06/06 Q1012=
200910250720 METAR ESMX 250720Z AUTO 12004KT 070V180 9999NDV OVC004/// 06/06 Q1012=
200910250650 METAR ESMX 250650Z AUTO 13004KT 060V180 9999NDV OVC003/// 06/05 Q1012=
200910250620 METAR ESMX 250620Z AUTO 08005KT 030V150 9999NDV OVC003/// 06/05 Q1012=
200910250550 METAR ESMX 250550Z AUTO 12004KT 070V170 8000NDV BR OVC002/// 06/05 Q1013=
200910250520 METAR ESMX 250520Z AUTO 11004KT 050V160 3800NDV BR OVC002/// 06/05 Q1013=
200910250450 METAR ESMX 250450Z AUTO 12005KT 070V170 3200NDV BR OVC003/// 06/05 Q1013=
200910250420 METAR ESMX 250420Z AUTO 12004KT 050V170 7000NDV BR OVC003/// 06/05 Q1014=
200910250350 METAR ESMX 250350Z AUTO 10004KT 030V140 6000NDV BR OVC003/// 06/05 Q1014=
200910250320 METAR ESMX 250320Z AUTO 11004KT 050V150 9999NDV OVC005/// 06/05 Q1014=
200910250250 METAR ESMX 250250Z AUTO 11003KT 060V150 9000NDV BR OVC004/// 06/05 Q1014=
200910250220 METAR ESMX 250220Z AUTO 10003KT 030V190 8000NDV BR OVC003/// 06/05 Q1015=
200910250150 METAR ESMX 250150Z AUTO 10003KT 060V160 9999NDV BKN005/// OVC010/// 06/05 Q1015=
200910250120 METAR ESMX 250120Z AUTO VRB02KT 9999NDV FEW006/// SCT008/// OVC012/// 05/05 Q1015=
200910250050 METAR ESMX 250050Z AUTO 10003KT 050V140 9999NDV FEW007/// BKN008/// OVC011/// 05/05 Q1015=
200910250020 METAR ESMX 250020Z AUTO 10003KT 040V170 9999NDV FEW004/// SCT006/// BKN007/// 06/05 Q1015=
200910242350 METAR ESMX 242350Z AUTO 10004KT 050V160 9999NDV OVC005/// 06/05 Q1016=
200910242320 METAR ESMX 242320Z AUTO 08003KT 010V140 9999NDV FEW007/// SCT009/// OVC019/// 06/05 Q1016=
200910242250 METAR ESMX 242250Z AUTO 08004KT 010V120 9999NDV FEW007/// SCT009/// BKN017/// 06/05 Q1016=
200910242220 METAR ESMX 242220Z AUTO 08004KT 020V130 9999NDV FEW007/// BKN018/// OVC022/// 06/05 Q1017=
200910242150 METAR ESMX 242150Z AUTO 09003KT 050V160 9999NDV BKN006/// OVC021/// 06/05 Q1017=
200910242120 METAR ESMX 242120Z AUTO 06003KT 010V140 9999NDV OVC005/// 06/05 Q1017=
200910242050 METAR ESMX 242050Z AUTO VRB02KT 9999NDV OVC006/// 05/05 Q1018=
200910242020 METAR ESMX 242020Z AUTO 07003KT 030V110 9999NDV FEW006/// BKN007/// OVC010/// 05/05 Q1018=
200910241950 METAR ESMX 241950Z AUTO 06004KT 030V110 9999NDV FEW006/// SCT008/// BKN031/// 05/05 Q1018=
200910241920 METAR ESMX 241920Z AUTO 07004KT 030V120 9999NDV FEW005/// SCT007/// OVC027/// 05/04 Q1018=
200910241850 METAR ESMX 241850Z AUTO 07003KT 010V110 9999NDV FEW006/// SCT008/// BKN024/// 05/05 Q1018=
200910241820 METAR ESMX 241820Z AUTO 07004KT 030V120 9000NDV -DZ FEW005/// SCT009/// BKN023/// 05/05 Q1018 REDZ=
200910241750 METAR ESMX 241750Z AUTO 07004KT 020V120 7000NDV DZ FEW007/// BKN008/// BKN020/// 05/05 Q1018=
200910241720 METAR ESMX 241720Z AUTO 08003KT 040V110 7000NDV DZ FEW006/// BKN008/// OVC010/// 05/05 Q1019=
200910241650 METAR ESMX 241650Z AUTO 07003KT 030V110 7000NDV DZ FEW006/// SCT008/// BKN010/// 05/05 Q1019=
200910241620 METAR ESMX 241620Z AUTO 08003KT 030V110 7000NDV -DZ FEW009/// BKN028/// 05/05 Q1019=
200910241550 METAR ESMX 241550Z AUTO 09004KT 040V150 7000NDV -RA FEW015/// SCT044/// 06/05 Q1019 REDZ=
200910241520 METAR ESMX 241520Z AUTO 09003KT 010V140 7000NDV DZ FEW005/// SCT014/// BKN027/// 06/05 Q1019=
200910241450 METAR ESMX 241450Z AUTO 10003KT 010V160 7000NDV -RA FEW004/// BKN007/// OVC012/// 06/05 Q1019 REDZ=
200910241420 METAR ESMX 241420Z AUTO 09003KT 030V170 5000NDV -RA FEW005/// SCT012/// BKN020/// 06/05 Q1019=
200910241350 METAR ESMX 241350Z AUTO VRB02KT 6000NDV -RA FEW007/// SCT011/// BKN022/// 06/05 Q1019=
200910241320 METAR ESMX 241320Z 10003KT 060V160 8000 -RA BKN006 OVC011 06/05 Q1019=
200910241250 METAR ESMX 241250Z 08003KT 030V130 7000 -RA FEW005 OVC009 06/05 Q1019=
200910241220 METAR ESMX 241220Z 05003KT 010V080 7000 -RA FEW006 BKN009 06/05 Q1019=
200910241150 METAR ESMX 241150Z 05004KT 010V090 8000 -RA SCT008 BKN015 06/05 Q1020=
200910241120 METAR ESMX 241120Z 06005KT 010V100 9999 -RA FEW008 BKN025 06/05 Q1020=
200910241050 METAR ESMX 241050Z 05004KT 020V090 9999 FEW007 SCT010 OVC023 06/05 Q1020=
200910240950 METAR ESMX 240950Z 06003KT 020V100 9999 FEW005 BKN007 BKN030 06/05 Q1021=
200910240920 METAR ESMX 240920Z 07003KT 030V100 9999 SCT006 BKN008 06/05 Q1021=
200910240850 METAR ESMX 240850Z 05005KT 020V100 9999 FEW003 BKN005 06/05 Q1021=
200910240820 METAR ESMX 240820Z 05004KT 020V080 9999 BKN003 OVC006 05/05 Q1021=
200910240750 METAR ESMX 240750Z 05004KT 010V080 9999 OVC003 05/05 Q1021=
200910240720 METAR ESMX 240720Z 05004KT 010V080 9999 OVC004 05/04 Q1021=
200910240650 METAR ESMX 240650Z 05004KT 020V100 9999 BKN005 BKN030 05/04 Q1021=
200910240620 METAR ESMX 240620Z AUTO 05005KT 020V080 9000NDV BR FEW003/// OVC004/// 05/04 Q1020=
200910240550 METAR ESMX 240550Z AUTO 05004KT 010V100 7000NDV BR OVC002/// 05/04 Q1020 REDZ=
200910240520 METAR ESMX 240520Z AUTO 04005KT 360V110 3400NDV -DZ BKN002/// OVC005/// 05/04 Q1020=
200910240450 METAR ESMX 240450Z AUTO 04004KT 8000NDV BR OVC002/// 05/04 Q1020=
200910240420 METAR ESMX 240420Z AUTO 04005KT 360V070 4800NDV BR FEW002/// OVC004/// 05/04 Q1020 REDZ=
200910240350 METAR ESMX 240350Z AUTO 04005KT 010V080 3800NDV DZ OVC002/// 05/04 Q1020=
200910240320 METAR ESMX 240320Z AUTO 04005KT 020V080 5000NDV BR BKN002/// OVC004/// 05/05 Q1020=
200910240250 METAR ESMX 240250Z AUTO 05006KT 5000NDV BR OVC003/// 05/05 Q1020=
200910240220 METAR ESMX 240220Z AUTO 04008KT 8000NDV BR FEW003/// BKN004/// OVC006/// 06/05 Q1020=
200910240150 METAR ESMX 240150Z AUTO 05006KT 020V080 6000NDV BR OVC004/// 06/05 Q1020=
200910240120 METAR ESMX 240120Z AUTO 04005KT 9999NDV OVC006/// 06/05 Q1020=
200910240050 METAR ESMX 240050Z AUTO 06005KT 010V110 9999NDV OVC006/// 06/05 Q1020=
200910240020 METAR ESMX 240020Z AUTO 05007KT 020V080 9999NDV OVC005/// 06/05 Q1019=
200910232350 METAR ESMX 232350Z AUTO 06005KT 020V100 9999NDV OVC005/// 06/05 Q1019=
200910232320 METAR ESMX 232320Z AUTO 04005KT 010V070 9999NDV FEW004/// BKN006/// OVC007/// 06/05 Q1019=
200910232250 METAR ESMX 232250Z AUTO 03007KT 9999NDV FEW003/// SCT004/// BKN006/// 06/05 Q1019=
200910232220 METAR ESMX 232220Z AUTO 04005KT 020V080 9999NDV FEW004/// OVC037/// 06/05 Q1019=
200910232150 METAR ESMX 232150Z AUTO 04003KT 010V070 9999NDV OVC035/// 06/05 Q1019=
200910232120 METAR ESMX 232120Z AUTO 04003KT 360V070 9999NDV FEW009/// SCT016/// BKN019/// 06/05 Q1019=
200910232050 METAR ESMX 232050Z AUTO VRB02KT 9999NDV FEW009/// SCT011/// BKN015/// 06/05 Q1019=
200910232020 METAR ESMX 232020Z AUTO VRB02KT 9999NDV FEW009/// BKN010/// OVC015/// 06/05 Q1019=
200910231950 METAR ESMX 231950Z AUTO VRB01KT 9999NDV BKN008/// OVC012/// 06/05 Q1019=
200910231920 METAR ESMX 231920Z AUTO VRB02KT 9999NDV FEW007/// SCT009/// OVC026/// 06/05 Q1019=
200910231850 METAR ESMX 231850Z AUTO VRB02KT 9999NDV FEW008/// OVC025/// 06/05 Q1018=
200910231820 METAR ESMX 231820Z 07003KT 020V130 9999 FEW008 BKN027 06/06 Q1018=
200910231750 METAR ESMX 231750Z 06003KT 030V110 9999 FEW006 SCT012 OVC030 07/06 Q1018=
200910231720 METAR ESMX 231720Z 04004KT 360V080 9999 FEW005 BKN009 07/06 Q1018=
200910231650 METAR ESMX 231650Z 04004KT 350V080 9999 SCT003 BKN009 07/06 Q1018=
200910231620 METAR ESMX 231620Z 03003KT 340V060 9999 SCT005 BKN010 07/06 Q1018 REDZ=
200910231550 METAR ESMX 231550Z 04003KT 020V080 9999 FEW006 SCT010 BKN013 07/06 Q1018=
200910231520 METAR ESMX 231520Z 02004KT 350V060 9999 FEW003 SCT006 BKN007 07/06 Q1017 REDZ=
200910231450 METAR ESMX 231450Z 04004KT 8000 BR FEW003 SCT004 BKN006 07/06 Q1017=
200910231420 METAR ESMX 231420Z 04005KT 9999 SCT004 BKN010 07/06 Q1017=
200910231350 METAR ESMX 231350Z 05005KT 020V080 9000 BR SCT004 BKN008 07/06 Q1017=
200910231320 METAR ESMX 231320Z 04005KT 360V080 9999 FEW006 BKN008 07/06 Q1017=
200910231250 METAR ESMX 231250Z 05005KT 010V080 8000 DZ SCT004 BKN006 07/06 Q1017=
200910231220 METAR ESMX 231220Z 06004KT 020V100 9999 SCT004 BKN008 07/06 Q1017=
200910231150 METAR ESMX 231150Z 06005KT 010V100 9999 SCT005 BKN008 OVC009 07/06 Q1016=
200910231120 METAR ESMX 231120Z 06005KT 020V090 9999 BKN005 OVC009 07/06 Q1016=
200910231050 METAR ESMX 231050Z 05006KT 020V100 9999 SCT006 BKN008 07/06 Q1016=
200910231020 METAR ESMX 231020Z 05005KT 020V110 9999 FEW006 SCT009 OVC010 07/06 Q1016=
200910230950 METAR ESMX 230950Z 05006KT 010V080 9999 FEW008 OVC011 07/06 Q1016=
200910230920 METAR ESMX 230920Z 04005KT 010V080 9999 FEW005 SCT006 BKN007 07/06 Q1016=
200910230850 METAR ESMX 230850Z 05006KT 020V100 9999 BKN005 07/06 Q1016=
200910230820 METAR ESMX 230820Z 04006KT 010V080 8000 BR OVC005 07/06 Q1016=
200910230750 METAR ESMX 230750Z 04005KT 010V070 6000 BR BKN005 OVC008 07/06 Q1016=
200910230720 METAR ESMX 230720Z 05005KT 020V110 9999 OVC006 07/05 Q1016=
200910230650 METAR ESMX 230650Z 05005KT 010V090 9999 FEW007 OVC008 07/06 Q1015=
200910230620 METAR ESMX 230620Z 05005KT 9999 FEW007 SCT009 OVC010 07/06 Q1015=
200910230550 METAR ESMX 230550Z 05005KT 020V080 9999 SCT006 BKN008 06/06 Q1015=
200910230520 METAR ESMX 230520Z 05005KT 010V080 9999 OVC006 06/06 Q1015 REDZ=
200910230450 METAR ESMX 230450Z 05006KT 020V080 9999 DZ OVC005 07/06 Q1015=
200910230420 METAR ESMX 230420Z 04005KT 010V080 9999 OVC005 07/06 Q1015=
200910230350 METAR ESMX 230350Z 06005KT 030V110 9999 OVC005 07/06 Q1015=
200910230320 METAR ESMX 230320Z AUTO 06005KT 010V110 9999NDV OVC005/// 07/06 Q1015=
200910230250 METAR ESMX 230250Z AUTO 06005KT 020V100 9999NDV OVC005/// 06/06 Q1015=
200910230220 METAR ESMX 230220Z AUTO 05005KT 010V080 9999NDV FEW003/// BKN005/// OVC007/// 06/06 Q1015=
200910230150 METAR ESMX 230150Z AUTO 04008KT 9999NDV FEW003/// BKN005/// OVC008/// 06/06 Q1014=
200910230120 METAR ESMX 230120Z AUTO 04006KT 010V080 4500NDV BR BKN002/// OVC006/// 06/06 Q1015=
200910230050 METAR ESMX 230050Z AUTO 04004KT 010V070 5000NDV BR SCT002/// BKN004/// OVC006/// 06/06 Q1015=
200910230020 METAR ESMX 230020Z AUTO 04005KT 010V080 4300NDV BR OVC002/// 06/06 Q1015=
200910222350 METAR ESMX 222350Z AUTO 02005KT 350V060 3600NDV BR OVC002/// 07/06 Q1015=
200910222320 METAR ESMX 222320Z 02005KT 340V050 5000 BR FEW002 OVC004 07/06 Q1015=
200910222250 METAR ESMX 222250Z 03004KT 360V070 5000 BR FEW002 OVC005 07/06 Q1015=
200910222220 METAR ESMX 222220Z 04005KT 3800 BR SCT002 OVC004 07/06 Q1015=
200910222150 METAR ESMX 222150Z 04004KT 360V080 4100 BR FEW003 OVC005 07/06 Q1015 REDZ=
200910222120 METAR ESMX 222120Z 03004KT 5000 BR FEW004 OVC005 07/06 Q1015=
200910222050 METAR ESMX 222050Z 04004KT 010V070 3700 BR OVC005 07/06 Q1015=
200910222020 METAR ESMX 222020Z 05003KT 020V100 9999 FEW005 OVC006 07/06 Q1015=
200910221950 METAR ESMX 221950Z 04005KT 360V070 4800 BR OVC005 07/06 Q1015=
200910221920 METAR ESMX 221920Z 05005KT 350V100 9999 OVC005 07/06 Q1015=
200910221850 METAR ESMX 221850Z 07004KT 020V110 8000 BR OVC005 07/06 Q1015=
200910221820 METAR ESMX 221820Z 04003KT 340V090 9000 BR BKN005 OVC008 07/06 Q1015=
200910221750 METAR ESMX 221750Z 06003KT 360V110 9000 BR OVC005 07/06 Q1015=
200910221720 METAR ESMX 221720Z 05004KT 010V080 4000 DZ BKN005 07/06 Q1015=
200910221650 METAR ESMX 221650Z 04004KT 010V090 6000 DZ FEW007 SCT011 BKN014 07/06 Q1014 REDZ=
200910221620 METAR ESMX 221620Z 05004KT 020V110 5000 -DZ FEW005 SCT009 BKN014 07/06 Q1015=
200910221550 METAR ESMX 221550Z 03004KT 360V070 5000 BR FEW005 OVC008 07/06 Q1014=
200910221520 METAR ESMX 221520Z 04005KT 7000 BR BKN005 07/06 Q1014=
200910221450 METAR ESMX 221450Z 05004KT 010V080 9999 FEW006 OVC008 07/06 Q1014=
200910221420 METAR ESMX 221420Z 04005KT 7000 BR FEW007 OVC009 07/06 Q1014 REDZ=
200910221350 METAR ESMX 221350Z 04006KT 5000 -DZ FEW003 SCT005 BKN009 07/06 Q1014=
200910221320 METAR ESMX 221320Z 04004KT 7000 BR FEW004 BKN006 OVC008 07/06 Q1014=
200910221250 METAR ESMX 221250Z 05003KT 020V080 5000 BR FEW003 SCT006 BKN007 07/06 Q1014=
200910221220 METAR ESMX 221220Z 05005KT 010V080 9999 SCT004 BKN006 07/06 Q1015=
200910221150 METAR ESMX 221150Z 05004KT 010V080 9999 FEW005 SCT006 BKN007 07/06 Q1015=
200910221120 METAR ESMX 221120Z 05004KT 020V080 8000 BR BKN004 OVC007 07/06 Q1015=
200910221050 METAR ESMX 221050Z 05004KT 010V090 5000 BR SCT004 BKN006 07/06 Q1015=
200910221020 METAR ESMX 221020Z 05004KT 5000 BR SCT003 BKN006 07/06 Q1015=
200910220950 METAR ESMX 220950Z 05004KT 020V100 5000 BR SCT003 BKN006 07/06 Q1015=
200910220920 METAR ESMX 220920Z 03004KT 010V070 3400 BR FEW002 BKN004 OVC007 07/06 Q1015=
200910220850 METAR ESMX 220850Z 06003KT 020V100 5000 BR FEW003 BKN005 OVC009 07/06 Q1015=
200910220820 METAR ESMX 220820Z 05003KT 360V090 7000 BR FEW003 SCT006 BKN009 07/06 Q1016=
200910220750 METAR ESMX 220750Z 06004KT 360V080 4000 BR FEW003 SCT005 BKN007 07/06 Q1016=
200910220720 METAR ESMX 220720Z 06004KT 020V120 4200 BR FEW004 OVC005 07/05 Q1016=
200910220650 METAR ESMX 220650Z 05004KT 360V100 9999 OVC006 07/05 Q1016=
200910220620 METAR ESMX 220620Z 07004KT 030V120 9999 OVC006 06/05 Q1015=
200910220550 METAR ESMX 220550Z 05004KT 360V120 9999 FEW006 OVC007 06/05 Q1015=
200910220520 METAR ESMX 220520Z 05004KT 010V100 7000 BR OVC005 06/05 Q1015=
200910220450 METAR ESMX 220450Z 08006KT 040V130 6000 DZ OVC005 06/05 Q1015=
200910220420 METAR ESMX 220420Z 08005KT 020V130 7000 DZ OVC005 06/05 Q1015=
200910220350 METAR ESMX 220350Z 06006KT 020V100 9999 OVC006 07/05 Q1015=
200910220320 METAR ESMX 220320Z AUTO 06006KT 340V110 9999NDV OVC007/// 06/05 Q1015=
200910220250 METAR ESMX 220250Z AUTO 06005KT 030V100 9999NDV OVC006/// 06/05 Q1016=
200910220220 METAR ESMX 220220Z AUTO 04005KT 360V110 9999NDV BKN006/// OVC009/// 06/05 Q1016=
200910220150 METAR ESMX 220150Z AUTO 05006KT 020V100 9999NDV BKN005/// OVC008/// 06/05 Q1016=
200910220120 METAR ESMX 220120Z AUTO 05007KT 010V090 9999NDV OVC005/// 06/05 Q1016=
200910220050 METAR ESMX 220050Z AUTO 05006KT 360V090 9000NDV OVC006/// 06/05 Q1016=
200910220020 METAR ESMX 220020Z AUTO 07006KT 030V110 9999NDV OVC007/// 07/05 Q1016=
200910212350 METAR ESMX 212350Z AUTO 05006KT 010V100 9999NDV OVC007/// 07/05 Q1016=
200910212320 METAR ESMX 212320Z 07006KT 030V110 9999 OVC009 07/05 Q1017=
200910212250 METAR ESMX 212250Z 05007KT 010V090 9999 OVC010 07/04 Q1017=
200910212220 METAR ESMX 212220Z 06006KT 010V110 9999 BKN012 07/04 Q1017=
200910212150 METAR ESMX 212150Z 04005KT 350V100 9999 BKN013 07/04 Q1017=
200910212120 METAR ESMX 212120Z 06004KT 020V110 9999 BKN014 OVC018 06/04 Q1017=
200910212050 METAR ESMX 212050Z 05006KT 020V080 9999 BKN013 06/04 Q1017=
200910212020 METAR ESMX 212020Z 05006G35KT 010V100 9999 BKN015 06/04 Q1017=
200910211950 METAR ESMX 211950Z 05006KT 010V090 9999 BKN014 06/03 Q1017=
200910211920 METAR ESMX 211920Z 04007KT 020V080 9999 BKN014 05/03 Q1017=
200910211850 METAR ESMX 211850Z 04007KT 010V080 9999 BKN014 05/03 Q1017=
200910211820 METAR ESMX 211820Z 05007KT 010V100 9999 SCT015 05/02 Q1017=
200910211750 METAR ESMX 211750Z 05008KT 010V140 9999 BKN015 05/03 Q1017=
200910211720 METAR ESMX 211720Z 05007KT 020V080 9999 FEW014 BKN017 05/03 Q1018=
200910211650 METAR ESMX 211650Z 03006KT 9999 FEW015 BKN018 05/03 Q1018=
200910211620 METAR ESMX 211620Z 05006KT 360V090 9999 FEW017 BKN019 06/03 Q1018=
200910211550 METAR ESMX 211550Z 06007KT 020V110 9999 BKN016 06/03 Q1018=
200910211520 METAR ESMX 211520Z 04006KT 020V100 9999 BKN014 OVC018 06/03 Q1018=
200910211450 METAR ESMX 211450Z 05008KT 020V120 9999 FEW012 BKN015 BKN019 06/04 Q1019=
200910211420 METAR ESMX 211420Z 06009KT 020V110 9999 FEW011 SCT015 BKN019 07/04 Q1019=
200910211350 METAR ESMX 211350Z 07007KT 030V110 9999 FEW014 SCT016 BKN019 07/04 Q1019=
200910211320 METAR ESMX 211320Z 06006KT 020V110 9999 BKN012 BKN028 07/04 Q1019=
200910211250 METAR ESMX 211250Z 07006KT 9999 FEW011 SCT013 BKN017 07/04 Q1019=
200910211220 METAR ESMX 211220Z 07006KT 9999 SCT011 BKN018 07/04 Q1019=
200910211150 METAR ESMX 211150Z 05004KT 9999 FEW008 BKN010 OVC018 07/05 Q1019=
200910211120 METAR ESMX 211120Z 06003KT 020V110 9999 FEW009 OVC010 06/05 Q1020=
200910211050 METAR ESMX 211050Z 03005KT 350V060 9999 FEW007 SCT009 BKN010 06/05 Q1020=
200910211020 METAR ESMX 211020Z 04004KT 020V080 9999 SCT005 OVC007 05/05 Q1020=
200910210950 METAR ESMX 210950Z 05004KT 9999 SKC006 OVC007 05/05 Q1020=
200910210920 METAR ESMX 210920Z 05005KT 360V100 8000 BR BKN004 OVC007 04/04 Q1020=
200910210850 METAR ESMX 210850Z 05005KT 010V090 7000 BR OVC003 04/04 Q1020=
200910210820 METAR ESMX 210820Z 05005KT 360V080 5000 BR FEW002 OVC003 04/03 Q1020=
200910210750 METAR ESMX 210750Z 04005KT 2900 BR OVC002 03/03 Q1020=
200910210720 METAR ESMX 210720Z 06004KT 030V110 1800 BR VV002 03/03 Q1020=
200910210650 METAR ESMX 210650Z 08004KT 020V130 1400 R01/P2000D R19/P2000N VV002 03/02 Q1020=
200910210620 METAR ESMX 210620Z 08005KT 030V150 1600 VV002 02/02 Q1020=
200910210550 METAR ESMX 210550Z VRB03KT 0700 R01/1000D R19/1200N FG VV002 02/02 Q1020=
200910210520 METAR ESMX 210520Z VRB02KT 0600 R01/1200N R19/1300N FG VV002 02/01 Q1020=
200910210450 METAR ESMX 210450Z 09003KT 020V130 0500 R01/1200U R19/1000V1500D FG VV002 02/01 Q1020=
200910210350 METAR ESMX 210350Z 09003KT 050V120 0300 R01/0750N R19/0600 FG FEW010 01/01 Q1020=
200910210320 METAR ESMX 210320Z AUTO 07003KT 1200NDV R01/P2000N R19/P2000N FG FEW013/// 01/00 Q1020=
200910210250 METAR ESMX 210250Z AUTO 08002KT 0200NDV R01/P2000N R19/0900 BR FEW015/// 01/01 Q1020=
200910210220 METAR ESMX 210220Z AUTO 05002KT 1800NDV BR FEW011/// 02/01 Q1020=
200910210150 METAR ESMX 210150Z AUTO 06002KT 1100NDV R01/P2000N R19/P2000N BR FEW010/// 02/02 Q1020=
200910210120 METAR ESMX 210120Z AUTO 04002KT 2600NDV BR FEW013/// 02/02 Q1020=
200910210050 METAR ESMX 210050Z AUTO 04003KT 2900NDV BR BKN013/// 03/03 Q1020=
200910210020 METAR ESMX 210020Z AUTO 05003KT 010V080 4600NDV BR FEW009/// OVC010/// 04/03 Q1020=
200910202350 METAR ESMX 202350Z 03002KT 3500 BR SCT002 BKN007 04/03 Q1020=
200910202320 METAR ESMX 202320Z VRB01KT 2600 BR FEW001 BKN005 04/03 Q1020=
200910202220 METAR ESMX 202220Z VRB02KT 0500 R01/1300U R19/1700U FG VV002 03/03 Q1020=
200910202150 METAR ESMX 202150Z 15005KT 100V190 0400 R19/1000N FG VV002 03/03 Q1020=
200910202120 METAR ESMX 202120Z 13004KT 080V160 0400 R01/0750 R19/0800N FG VV002 03/03 Q1020=
200910202020 METAR ESMX 202020Z 00000KT 9999 R19/1700D FZFG NSC M01/M02 Q1020=
200910201920 METAR ESMX 201920Z 12002KT 9999 R19/P2000U MIFG NSC 00/M00 Q1019=
200910201850 METAR ESMX 201850Z 00000KT 9999 R01/P2000N R19/0400V1200D MIFG NSC M00/M01 Q1019=
200910201820 METAR ESMX 201820Z 00000KT 9999 R19/0800VP2000 MIFG NSC 01/00 Q1019=
200910201750 METAR ESMX 201750Z 00000KT 9999 R19/0800V2000D MIFG NSC 02/01 Q1019=
200910201720 METAR ESMX 201720Z 12002KT CAVOK 02/01 Q1019=
200910201650 METAR ESMX 201650Z 00000KT 0800 R01/0650V1400D R19/0450V1800D BCFG NSC 03/02 Q1019=
200910201620 METAR ESMX 201620Z 00000KT 0400 R01/P2000N R19/P2000D BR BCFG 04/03 Q1019=
200910201550 METAR ESMX 201550Z 10001KT 8000 BR NSC 06/04 Q1018=
200910201520 METAR ESMX 201520Z 06003KT CAVOK 07/05 Q1018=
200910201450 METAR ESMX 201450Z 00000KT 9999 BKN054 08/06 Q1019=
200910201420 METAR ESMX 201420Z VRB01KT CAVOK 09/06 Q1018=
200910201350 METAR ESMX 201350Z VRB01KT 9999 OVC053 09/06 Q1019=
200910201320 METAR ESMX 201320Z 18003KT 9999 OVC048 09/06 Q1019=
200910201250 METAR ESMX 201250Z 16005KT 110V200 9999 FEW012 OVC052 09/06 Q1019=
200910201220 METAR ESMX 201220Z 15004KT 100V190 8000 BR FEW009 BKN012 08/06 Q1019=
200910201150 METAR COR ESMX 201150Z 15005KT 110V190 7000 BR SCT007 BKN013 08/06 Q1019=
200910201120 METAR ESMX 201120Z 16005KT 120V190 6000 BR BKN006 OVC014 08/06 Q1019=
200910201050 METAR ESMX 201050Z 15004KT 100V200 4000 BR BKN006 08/06 Q1019=
200910201020 METAR ESMX 201020Z 15004KT 110V210 5000 BR SCT006 BKN018 08/06 Q1019=
200910200950 METAR ESMX 200950Z 15003KT 110V190 4700 BR FEW005 SCT008 BKN020 08/06 Q1019=
200910200920 METAR ESMX 200920Z 14003KT 110V190 5000 BR BKN005 OVC017 07/06 Q1019=
200910200850 METAR ESMX 200850Z 15003KT 110V180 4000 BR OVC005 07/06 Q1019=
200910200820 METAR ESMX 200820Z 16003KT 120V190 3200 BR OVC005 07/06 Q1018=
200910200750 METAR ESMX 200750Z 16005KT 140V200 2600 BR OVC003 06/05 Q1018=
200910200720 METAR ESMX 200720Z VRB02KT 4000 BR BKN005 06/05 Q1018=
200910200650 METAR ESMX 200650Z 17004KT 130V200 3000 BR OVC004 06/05 Q1017=
200910200620 METAR ESMX 200620Z 16004KT 130V190 3000 BR OVC004 06/05 Q1017=
200910200550 METAR ESMX 200550Z 18006KT 3100 BR OVC004 06/05 Q1017=
200910200520 METAR ESMX 200520Z 18004KT 3100 BR SCT007 OVC056 06/05 Q1017=
200910200450 METAR ESMX 200450Z 16003KT 3000 BR FEW005 OVC056 06/05 Q1016=
200910200420 METAR ESMX 200420Z 17005KT 3200 BR SCT003 BKN005 OVC057 06/05 Q1016=
200910200350 METAR ESMX 200350Z 20010KT 3100 BR BKN004 06/05 Q1016=
200910200320 METAR ESMX 200320Z AUTO 18007KT 4800NDV BR SCT005/// OVC043/// 06/05 Q1016=
200910200250 METAR ESMX 200250Z AUTO 19006KT 5000NDV BR OVC005/// 06/05 Q1016=
200910200220 METAR ESMX 200220Z AUTO 18005KT 140V200 5000NDV BR FEW006/// OVC040/// 07/06 Q1016=
200910200150 METAR ESMX 200150Z AUTO 18006KT 6000NDV BR FEW006/// OVC038/// 07/06 Q1016=
200910200120 METAR ESMX 200120Z AUTO 18005KT 7000NDV BR FEW008/// SCT009/// OVC037/// 07/06 Q1016=
200910200050 METAR ESMX 200050Z AUTO 18006KT 140V200 8000NDV BR FEW008/// BKN010/// OVC029/// 07/06 Q1016=
200910200020 METAR ESMX 200020Z AUTO 21006KT 9000NDV BR FEW008/// SCT009/// OVC021/// 07/06 Q1015=
200910192350 METAR ESMX 192350Z AUTO 19007KT 8000NDV FEW008/// SCT010/// OVC013/// 08/06 Q1015=
200910192320 METAR ESMX 192320Z 20008KT 9000 OVC010 08/06 Q1015=
200910192250 METAR ESMX 192250Z 21007KT 170V240 9000 OVC009 08/06 Q1015=
200910192220 METAR ESMX 192220Z 19007KT 9999 OVC009 08/07 Q1015=
200910192150 METAR ESMX 192150Z 20008KT 9999 OVC009 08/07 Q1015=
200910192120 METAR ESMX 192120Z 21008KT 170V240 9999 -RA OVC009 08/07 Q1015 REDZ=
200910192050 METAR ESMX 192050Z 21009KT 9999 OVC009 08/07 Q1014=
200910192020 METAR ESMX 192020Z 21009KT 170V240 9999 OVC010 08/07 Q1014=
200910191950 METAR ESMX 191950Z 20009KT 9999 OVC009 08/07 Q1014=
200910191920 METAR ESMX 191920Z 20008KT 9999 BKN010 OVC015 08/07 Q1014=
200910191850 METAR ESMX 191850Z 20010KT 9999 BKN010 OVC037 08/07 Q1013=
200910191820 METAR ESMX 191820Z 20009KT 9999 BKN010 OVC016 08/07 Q1013=
200910191750 METAR ESMX 191750Z 20008KT 9999 FEW013 OVC034 08/07 Q1013=
200910191720 METAR ESMX 191720Z 20008KT 9999 FEW014 SCT020 BKN035 08/07 Q1013=
200910191650 METAR ESMX 191650Z 20010KT 9999 SCT014 OVC019 08/07 Q1013=
200910191620 METAR ESMX 191620Z 20009KT 9999 SCT015 OVC020 08/07 Q1013=
200910191550 METAR ESMX 191550Z 20009KT 9999 -RA FEW010 OVC017 08/07 Q1012=
200910191520 METAR ESMX 191520Z 20009KT 9999 FEW013 OVC020 09/07 Q1012=
200910191450 METAR ESMX 191450Z 22011KT 9999 BKN014 OVC020 09/07 Q1012=
200910191420 METAR ESMX 191420Z 21011KT 170V240 9999 OVC015 09/06 Q1012=
200910191350 METAR ESMX 191350Z 21010KT 9999 OVC013 09/06 Q1012=
200910191320 METAR ESMX 191320Z 21010KT 9999 FEW010 OVC014 09/07 Q1012=
200910191250 METAR ESMX 191250Z 21010KT 9999 OVC014 09/07 Q1012=
200910191220 METAR ESMX 191220Z 21011KT 170V240 9999 OVC010 08/06 Q1012=
200910191150 METAR ESMX 191150Z 22010KT 170V240 9999 OVC010 08/06 Q1012=
200910191120 METAR ESMX 191120Z 20011KT 9999 -RA BKN009 OVC011 08/06 Q1012=
200910191050 METAR ESMX 191050Z 21012KT 190V250 9999 -RA OVC010 08/06 Q1012=
200910191020 METAR ESMX 191020Z 22010KT 9999 SCT008 OVC011 08/06 Q1012=
200910190950 METAR ESMX 190950Z 22010KT 9000 BKN007 OVC010 07/06 Q1012=
200910190920 METAR COR ESMX 190920Z 21011KT 9999 -RA BKN006 OVC008 07/06 Q1012=
200910190850 METAR ESMX 190850Z 21011KT 170V240 9999 BKN006 OVC008 07/06 Q1012=
200910190820 METAR ESMX 190820Z 21010KT 9999 BKN005 OVC008 07/05 Q1011=
200910190750 METAR ESMX 190750Z 21012KT 9999 BKN005 OVC007 07/05 Q1011=
200910190720 METAR ESMX 190720Z 20010KT 9999 SCT004 BKN006 OVC008 06/05 Q1011=
200910190650 METAR ESMX 190650Z 20011KT 9999 SCT004 BKN006 OVC011 06/05 Q1011=
200910190620 METAR ESMX 190620Z 19010KT 9999 FEW006 BKN008 06/05 Q1011=
200910190550 METAR ESMX 190550Z 20009KT 9999 BKN005 OVC008 06/05 Q1011=
200910190520 METAR ESMX 190520Z 20009KT 9999 BKN006 OVC009 06/05 Q1011=
200910190450 METAR ESMX 190450Z 20009KT 9999 OVC006 06/05 Q1011=
200910190420 METAR ESMX 190420Z 21009KT 9999 BKN005 OVC008 05/04 Q1011=
200910190350 METAR ESMX 190350Z 19007KT 9999 BKN005 05/04 Q1011=
200910190320 METAR ESMX 190320Z AUTO 20008KT 9999NDV SCT006/// BKN009/// OVC041/// 05/03 Q1011=
200910190250 METAR ESMX 190250Z AUTO 20007KT 9999NDV FEW033/// OVC041/// 04/03 Q1012=
200910190220 METAR ESMX 190220Z AUTO 21007KT 180V250 9999NDV FEW037/// OVC043/// 04/03 Q1012=
200910190150 METAR ESMX 190150Z AUTO 19009KT 9999NDV FEW025/// OVC038/// 04/03 Q1012 REDZ=
200910190120 METAR ESMX 190120Z AUTO 20007KT 9999NDV FEW020/// SCT035/// BKN051/// 04/03 Q1012=
200910190050 METAR ESMX 190050Z AUTO 21007KT 9999NDV OVC043/// 04/02 Q1013=
200910190020 METAR ESMX 190020Z AUTO 19007KT 9999NDV BKN044/// 04/02 Q1013=
200910182350 METAR ESMX 182350Z 19007KT 9999 FEW047 SCT110 04/02 Q1013=
200910182320 METAR ESMX 182320Z 19007KT 9999 SCT048 BKN100 04/02 Q1013=
200910182250 METAR ESMX 182250Z 19007KT 9999 FEW042 BKN048 04/02 Q1013=
200910182220 METAR ESMX 182220Z 20007KT 9999 SCT029 BKN039 OVC048 04/02 Q1014=
200910182150 METAR ESMX 182150Z 21006KT 9999 FEW026 BKN034 BKN100 03/02 Q1014=
200910182120 METAR ESMX 182120Z 21006KT 9999 FEW026 BKN098 BKN110 03/02 Q1014=
200910182050 METAR ESMX 182050Z 21006KT CAVOK 03/01 Q1015=
200910182020 METAR ESMX 182020Z 22004KT CAVOK 03/01 Q1015=
200910181950 METAR ESMX 181950Z 23005KT CAVOK 03/00 Q1015=
200910181920 METAR ESMX 181920Z 23005KT CAVOK 03/00 Q1015=
200910181850 METAR ESMX 181850Z 22005KT 9999 FEW035 03/00 Q1015=
200910181820 METAR ESMX 181820Z 21006KT 9999 FEW037 03/00 Q1015=
200910181750 METAR ESMX 181750Z 22005KT 9999 FEW035 02/M00 Q1016=
200910181720 METAR ESMX 181720Z 22005KT 9999 FEW035 01/M01 Q1016=
200910181650 METAR ESMX 181650Z 21005KT 9999 FEW035 01/M01 Q1016=
200910181620 METAR ESMX 181620Z 21004KT 9999 FEW035 SCT150 02/M01 Q1016=
200910181550 METAR ESMX 181550Z 22003KT 9999 SCT034 03/M01 Q1016=
200910181520 METAR ESMX 181520Z 23003KT 9999 SCT032 04/M01 Q1016=
200910181450 METAR ESMX 181450Z 27004KT 240V310 9999 SCT034 05/M00 Q1016=
200910181420 METAR ESMX 181420Z 28004KT 9999 SCT036 06/M00 Q1016=
200910181350 METAR ESMX 181350Z 29003KT 230V340 9999 FEW030 BKN035 07/00 Q1017=
200910181320 METAR ESMX 181320Z 29006KT 9999 FEW029 BKN034 07/00 Q1017=
200910181250 METAR ESMX 181250Z 25004KT 220V290 9999 BKN028 07/00 Q1017=
200910181220 METAR ESMX 181220Z VRB03KT 9999 FEW027 BKN033 07/00 Q1017=
200910181150 METAR ESMX 181150Z AUTO 32003KT 260V010 9999NDV FEW023/// SCT027/// BKN034/// 06/00 Q1017=
200910181120 METAR ESMX 181120Z AUTO VRB05KT 9999NDV BKN023/// 05/00 Q1018=
200910181050 METAR ESMX 181050Z AUTO 02004KT 340V050 9999NDV BKN022/// 06/00 Q1018=
200910181020 METAR ESMX 181020Z AUTO 34006KT 300V010 9999NDV OVC019/// 05/00 Q1018=
200910180950 METAR ESMX 180950Z AUTO 35007KT 9999NDV OVC018/// 05/01 Q1018=
200910180920 METAR ESMX 180920Z AUTO 34006KT 300V030 9999NDV OVC014/// 04/01 Q1018=
200910180850 METAR ESMX 180850Z AUTO 34007KT 300V020 9999NDV OVC013/// 04/01 Q1019=
200910180820 METAR ESMX 180820Z AUTO 33006KT 9999NDV OVC011/// 04/01 Q1019=
200910180750 METAR ESMX 180750Z AUTO 34007KT 310V020 9999NDV FEW011/// OVC014/// 03/01 Q1019=
200910180720 METAR ESMX 180720Z AUTO 33005KT 9999NDV OVC012/// 02/01 Q1019=
200910180650 METAR ESMX 180650Z AUTO 32006KT 9999NDV OVC011/// 02/01 Q1019=
200910180620 METAR ESMX 180620Z AUTO 29004KT 9999NDV SCT012/// OVC042/// 02/01 Q1019=
200910180550 METAR ESMX 180550Z AUTO 29005KT 9999NDV FEW021/// OVC045/// 01/01 Q1019=
200910180520 METAR ESMX 180520Z AUTO 29003KT 9999NDV SCT008/// OVC046/// 01/00 Q1019=
200910180450 METAR ESMX 180450Z AUTO 32005KT 9999NDV FEW010/// SCT049/// M00/M01 Q1019=
200910180420 METAR ESMX 180420Z AUTO 30003KT 9999NDV FEW012/// 01/M01 Q1019=
200910180350 METAR ESMX 180350Z AUTO 35005KT 9999NDV FEW019/// SCT021/// 02/01 Q1019=
200910180320 METAR ESMX 180320Z AUTO 34006KT 9999NDV FEW020/// BKN023/// 02/01 Q1019=
200910180250 METAR ESMX 180250Z AUTO 35005KT 9999NDV FEW050/// 01/00 Q1019=
200910180220 METAR ESMX 180220Z AUTO 35006KT 9999NDV FEW009/// BKN011/// 03/01 Q1020=
200910180150 METAR ESMX 180150Z AUTO 33003KT 320V020 9999NDV FEW007/// OVC011/// 02/01 Q1020=
200910180120 METAR ESMX 180120Z AUTO 32005KT 9999NDV FEW006/// OVC011/// 02/01 Q1020=
200910180050 METAR ESMX 180050Z AUTO 30003KT 250V350 9999NDV SCT006/// OVC056/// 01/00 Q1020=
200910180020 METAR ESMX 180020Z AUTO VRB01KT 9999NDV FEW007/// 02/01 Q1020=
200910172350 METAR ESMX 172350Z AUTO 33004KT 9999NDV NCD 02/01 Q1020=
200910172320 METAR ESMX 172320Z AUTO 35005KT 9999NDV BKN012/// BKN066/// 03/02 Q1020=
200910172250 METAR ESMX 172250Z AUTO 36006KT 330V040 9999NDV OVC065/// 03/01 Q1020=
200910172220 METAR ESMX 172220Z AUTO 01007KT 9999NDV SCT018/// BKN024/// OVC069/// 04/02 Q1020=
200910172150 METAR ESMX 172150Z AUTO 36007KT 330V030 9999NDV SCT009/// BKN013/// OVC022/// 04/03 Q1020=
200910172120 METAR ESMX 172120Z AUTO 35007KT 9999NDV FEW009/// BKN011/// OVC015/// 04/03 Q1020=
200910172050 METAR ESMX 172050Z AUTO 01006KT 9999NDV SCT010/// BKN015/// OVC022/// 04/03 Q1020=
200910172020 METAR ESMX 172020Z AUTO 02007KT 9999NDV FEW011/// SCT015/// BKN019/// 04/03 Q1020=
200910171950 METAR ESMX 171950Z AUTO 36009KT 9999NDV BKN012/// OVC018/// 04/03 Q1020=
200910171920 METAR ESMX 171920Z AUTO 36009KT 9999NDV FEW010/// BKN013/// 04/03 Q1020=
200910171850 METAR ESMX 171850Z AUTO 01011KT 9999NDV FEW011/// SCT017/// BKN020/// 04/02 Q1020=
200910171820 METAR ESMX 171820Z AUTO 02008KT 350V050 9999NDV FEW016/// BKN021/// OVC068/// 05/02 Q1019 REDZ=
200910171750 METAR ESMX 171750Z AUTO 01010KT 9999NDV SCT046/// OVC068/// 05/02 Q1019=
200910171720 METAR ESMX 171720Z AUTO 36013KT 9999NDV FEW019/// SCT046/// BKN073/// 05/02 Q1019=
200910171650 METAR ESMX 171650Z AUTO 36014KT 320V020 9999NDV FEW021/// SCT024/// BKN028/// 05/02 Q1019=
200910171620 METAR ESMX 171620Z AUTO 36012KT 9999NDV OVC021/// 06/02 Q1019=
200910171550 METAR ESMX 171550Z AUTO 36013KT 9999NDV FEW025/// OVC031/// 06/02 Q1019=
200910171520 METAR ESMX 171520Z AUTO 35016KT 9999NDV FEW020/// BKN025/// OVC032/// 06/02 Q1018=
200910171450 METAR ESMX 171450Z AUTO 34010KT 300V020 9999NDV FEW021/// SCT028/// BKN037/// 06/02 Q1018=
200910171420 METAR ESMX 171420Z AUTO 36012KT 9999NDV FEW012/// SCT024/// BKN049/// 07/02 Q1018=
200910171350 METAR ESMX 171350Z AUTO 02019KT 9999NDV SCT021/// BKN028/// BKN040/// 06/02 Q1018=
200910171320 METAR ESMX 171320Z 35015KT 9999 FEW021 SCT026 07/02 Q1018=
200910171250 METAR ESMX 171250Z 35015KT 9999 SCT020 BKN031 07/02 Q1018=
200910171220 METAR ESMX 171220Z 35013KT 9999 FEW019 SCT023 BKN032 06/02 Q1017=
200910171150 METAR ESMX 171150Z 01014KT 9999 -DZ BKN020 06/02 Q1017=
200910171120 METAR ESMX 171120Z 36014KT 320V020 9999 FEW019 OVC021 06/02 Q1017=
200910171050 METAR ESMX 171050Z 35013KT 9999 OVC018 06/02 Q1017=
200910171020 METAR ESMX 171020Z AUTO 35012KT 9999NDV OVC016/// 06/02 Q1017=
200910170950 METAR ESMX 170950Z 35013KT 9999 OVC016 05/02 Q1017=
200910170920 METAR ESMX 170920Z 36013KT 9999 OVC014 05/02 Q1017=
200910170850 METAR ESMX 170850Z 36012KT 320V030 9999 OVC014 05/02 Q1017=
200910170820 METAR ESMX 170820Z 01016KT 9999 FEW012 BKN014 OVC019 05/02 Q1017=
200910170750 METAR ESMX 170750Z 35013KT 9999 OVC011 05/03 Q1016=
200910170720 METAR ESMX 170720Z 35010KT 9999 BKN011 OVC016 05/03 Q1016=
200910170650 METAR ESMX 170650Z 36012KT 9999 FEW008 SCT013 BKN016 04/03 Q1016=
200910170620 METAR ESMX 170620Z 35009KT 9999 FEW008 BKN013 OVC017 04/03 Q1015=
200910170550 METAR ESMX 170550Z AUTO 01009KT 8000NDV FEW009/// BKN012/// OVC016/// 04/03 Q1015=
200910170520 METAR ESMX 170520Z AUTO 36010KT 9999NDV FEW009/// SCT014/// BKN017/// 04/03 Q1015=
200910170450 METAR ESMX 170450Z AUTO 36009KT 9999NDV FEW009/// SCT012/// BKN015/// 04/03 Q1014=
200910170420 METAR ESMX 170420Z AUTO 36010KT 9999NDV OVC010/// 04/03 Q1014=
200910170350 METAR ESMX 170350Z AUTO 36011KT 9999NDV OVC010/// 04/03 Q1014=
200910170320 METAR ESMX 170320Z AUTO 36012KT 9999NDV BKN011/// 04/02 Q1014=
200910170250 METAR ESMX 170250Z AUTO 36011KT 9999NDV FEW009/// OVC013/// 04/03 Q1013=
200910170220 METAR ESMX 170220Z AUTO 02010KT 9999NDV FEW008/// OVC011/// 04/03 Q1013=
200910170150 METAR ESMX 170150Z AUTO 02010KT 350V050 9999NDV -DZ FEW009/// OVC011/// 04/03 Q1012=
200910170120 METAR ESMX 170120Z AUTO 36010KT 9999NDV DZ FEW009/// BKN012/// OVC016/// 04/03 Q1012=
200910170050 METAR ESMX 170050Z AUTO 35009KT 330V030 9999NDV FEW011/// BKN013/// OVC018/// 04/03 Q1012=
200910170020 METAR ESMX 170020Z AUTO 36009KT 9999NDV DZ FEW011/// BKN014/// OVC018/// 04/03 Q1011=
200910162350 METAR ESMX 162350Z AUTO 35008KT 9999NDV -DZ FEW010/// SCT014/// OVC016/// 04/03 Q1011=
200910162320 METAR ESMX 162320Z AUTO 35008KT 9999NDV -DZ FEW011/// SCT015/// BKN017/// 04/03 Q1011=
200910162250 METAR ESMX 162250Z AUTO 35008KT 330V040 9999NDV DZ FEW010/// OVC014/// 04/03 Q1011=
200910162220 METAR ESMX 162220Z AUTO 36009KT 9999NDV DZ FEW010/// OVC013/// 04/03 Q1011=
200910162150 METAR ESMX 162150Z AUTO 35009KT 9999NDV DZ FEW009/// BKN013/// 04/02 Q1011=
200910162120 METAR ESMX 162120Z AUTO 35009KT 9999NDV -RA FEW011/// OVC013/// 04/02 Q1011=
200910162050 METAR ESMX 162050Z AUTO 35009KT 9999NDV -DZ OVC012/// 04/02 Q1011=
200910162020 METAR ESMX 162020Z AUTO 36009KT 320V030 9999NDV -DZ OVC012/// 04/02 Q1011=
200910161950 METAR ESMX 161950Z AUTO 36008KT 320V040 9999NDV -RA FEW010/// OVC013/// 03/02 Q1010=
200910161920 METAR ESMX 161920Z AUTO 32005KT 290V360 9999NDV -DZ FEW007/// OVC012/// 03/02 Q1010=
200910161850 METAR ESMX 161850Z AUTO 34005KT 9999NDV -DZ FEW006/// SCT008/// BKN013/// 03/02 Q1010=
200910161820 METAR ESMX 161820Z 35008KT 9999 DZ FEW008 SCT014 BKN017 03/02 Q1010=
200910161750 METAR ESMX 161750Z 36007KT 9999 DZ FEW009 SCT011 BKN015 04/02 Q1010=
200910161720 METAR ESMX 161720Z 35008KT 9999 DZ FEW008 SCT013 BKN021 04/03 Q1010=
200910161650 METAR ESMX 161650Z 33005KT 9999 DZ FEW008 SCT012 BKN021 04/03 Q1010=
200910161620 METAR ESMX 161620Z 32005G30KT 9999 DZ FEW007 SCT009 BKN011 04/02 Q1009=
200910161550 METAR ESMX 161550Z 33009KT 300V010 9999 -RA FEW009 SCT011 BKN013 04/02 Q1009 REDZ=
200910161520 METAR ESMX 161520Z 33005KT 290V020 9999 DZ FEW014 BKN020 OVC027 05/02 Q1009=
200910161450 METAR ESMX 161450Z 35005KT 9999 -RA FEW018 SCT028 BKN032 05/02 Q1009=
200910161420 METAR ESMX 161420Z 35007KT 9999 BKN024 BKN040 06/00 Q1008=
200910161350 METAR ESMX 161350Z 01006KT 320V040 9999 FEW022 SCT028 BKN053 06/00 Q1008=
200910161320 METAR ESMX 161320Z 02006KT 350V060 9999 FEW023 SCT028 06/01 Q1008=
200910161250 METAR ESMX 161250Z 03007KT CAVOK 06/00 Q1008=
200910161220 METAR ESMX 161220Z 02007KT 350V050 9999 FEW027 05/01 Q1008=
200910161150 METAR ESMX 161150Z 02008KT CAVOK 05/01 Q1008=
200910161120 METAR ESMX 161120Z 01007KT 340V040 CAVOK 05/01 Q1008=
200910161050 METAR ESMX 161050Z 02005KT 340V060 CAVOK 04/01 Q1008=
200910161020 METAR ESMX 161020Z 02006KT 340V060 CAVOK 04/01 Q1008=
200910160950 METAR ESMX 160950Z 02007KT CAVOK 04/01 Q1008=
200910160920 METAR ESMX 160920Z 01005KT CAVOK 03/01 Q1008=
200910160850 METAR ESMX 160850Z 00000KT CAVOK 00/M01 Q1008=
200910160820 METAR ESMX 160820Z 00000KT CAVOK M01/M02 Q1008=
200910160720 METAR ESMX 160720Z 00000KT CAVOK M02/M03 Q1009=
200910160650 METAR ESMX 160650Z 00000KT CAVOK M03/M04 Q1009=
200910160620 METAR ESMX 160620Z 00000KT CAVOK M03/M04 Q1010=
200910160550 METAR ESMX 160550Z 00000KT CAVOK M03/M04 Q1010=
200910160520 METAR ESMX 160520Z 00000KT CAVOK M03/M04 Q1010=
200910160420 METAR ESMX 160420Z 00000KT CAVOK M04/M04 Q1011=
200910160350 METAR ESMX 160350Z 00000KT CAVOK M04/M05 Q1012=
200910160320 METAR ESMX 160320Z AUTO 19002KT 9999NDV SCT092/// BKN110/// M04/M04 Q1013=
200910160250 METAR ESMX 160250Z AUTO 00000KT 9999NDV FEW110/// M03/M04 Q1013=
200910160220 METAR ESMX 160220Z AUTO 00000KT 9999NDV FEW100/// M04/M04 Q1014=
200910160150 METAR ESMX 160150Z AUTO 00000KT 9999NDV NCD M04/M04 Q1014=
200910160120 METAR ESMX 160120Z AUTO 00000KT 9999NDV NCD M04/M04 Q1014=
200910160050 METAR ESMX 160050Z AUTO 00000KT 9999NDV NCD M04/M05 Q1015=
200910160020 METAR ESMX 160020Z AUTO 28001KT 9999NDV NCD M05/M06 Q1016=
200910152350 METAR ESMX 152350Z AUTO 00000KT 9999NDV NCD M03/M04 Q1017=
200910152320 METAR ESMX 152320Z 00000KT CAVOK M04/M05 Q1017=
200910152250 METAR ESMX 152250Z 20002KT CAVOK M03/M04 Q1018=
200910152220 METAR ESMX 152220Z 00000KT CAVOK M03/M04 Q1018=
200910152150 METAR ESMX 152150Z 00000KT CAVOK M01/M03 Q1019=
200910152120 METAR ESMX 152120Z 32003KT CAVOK M01/M03 Q1020=
200910152050 METAR ESMX 152050Z 35006KT CAVOK M00/M03 Q1020=
200910152020 METAR ESMX 152020Z 34007KT CAVOK 00/M02 Q1020=
200910151950 METAR ESMX 151950Z 35007KT CAVOK 01/M02 Q1021=
200910151920 METAR ESMX 151920Z 34005KT CAVOK 00/M03 Q1021=
200910151820 METAR ESMX 151820Z 36006KT CAVOK 02/M02 Q1022=
200910151750 METAR ESMX 151750Z 35007KT CAVOK 02/M02 Q1022=
200910151720 METAR ESMX 151720Z 35006KT CAVOK 03/M02 Q1022=
200910151650 METAR ESMX 151650Z 35007KT CAVOK 03/M02 Q1022=
200910151620 METAR ESMX 151620Z 34007KT CAVOK 04/M03 Q1022=
200910151550 METAR ESMX 151550Z 36008KT CAVOK 05/M03 Q1022=
200910151520 METAR ESMX 151520Z 36010KT CAVOK 06/M03 Q1022=
200910151450 METAR ESMX 151450Z 35012KT CAVOK 07/M04 Q1022=
200910151420 METAR ESMX 151420Z 36012KT CAVOK 07/M03 Q1022=
200910151350 METAR ESMX 151350Z 36012KT 320V030 CAVOK 07/M03 Q1022=
200910151320 METAR ESMX 151320Z 35011KT 320V020 CAVOK 07/M03 Q1022=
200910151220 METAR ESMX 151220Z 03012KT 350V060 CAVOK 08/M05 Q1023=
200910151150 METAR ESMX 151150Z 02012KT 350V050 CAVOK 07/M05 Q1023=
200910151120 METAR ESMX 151120Z 02014KT CAVOK 07/M05 Q1023=
200910151050 METAR ESMX 151050Z 02013KT 340V050 CAVOK 07/M04 Q1023=
200910151020 METAR ESMX 151020Z 36013KT CAVOK 06/M04 Q1024=
200910150920 METAR ESMX 150920Z 01013KT CAVOK 04/M04 Q1024=
200910150850 METAR ESMX 150850Z 36014KT CAVOK 03/M03 Q1024=
200910150820 METAR ESMX 150820Z 36014KT CAVOK 03/M03 Q1024=
200910150750 METAR ESMX 150750Z 01014KT 340V040 CAVOK 02/M03 Q1024=
200910150720 METAR ESMX 150720Z 36015KT CAVOK 01/M03 Q1024=
200910150650 METAR ESMX 150650Z 01014KT CAVOK 00/M03 Q1024=
200910150620 METAR ESMX 150620Z 35013KT CAVOK 00/M03 Q1024=
200910150550 METAR ESMX 150550Z 36012KT CAVOK 00/M03 Q1024=
200910150520 METAR ESMX 150520Z 35014KT CAVOK 00/M03 Q1024=
200910150450 METAR ESMX 150450Z 35015KT CAVOK 00/M03 Q1024=
200910150420 METAR ESMX 150420Z 35014G24KT CAVOK 00/M03 Q1024=
200910150350 METAR ESMX 150350Z 35015KT CAVOK 00/M03 Q1024=
200910150320 METAR ESMX 150320Z AUTO 36015KT 9999NDV NCD 00/M03 Q1025=
200910150250 METAR ESMX 150250Z AUTO 35015KT 9999NDV NCD 00/M02 Q1025=
200910150220 METAR ESMX 150220Z AUTO 36014KT 9999NDV NCD 00/M03 Q1025=
200910150150 METAR ESMX 150150Z AUTO 35015KT 9999NDV NCD 00/M03 Q1025=
200910150120 METAR ESMX 150120Z AUTO 36015KT 9999NDV NCD 00/M02 Q1025=
200910150050 METAR ESMX 150050Z AUTO 36013KT 9999NDV NCD 00/M03 Q1025=
200910150020 METAR ESMX 150020Z AUTO 35012KT 300V010 9999NDV NCD 00/M02 Q1026=
200910142350 METAR ESMX 142350Z AUTO 35014KT 9999NDV NCD 00/M02 Q1026=
200910142320 METAR ESMX 142320Z 35013KT CAVOK 01/M03 Q1026=
200910142250 METAR ESMX 142250Z 35013KT 320V020 CAVOK 01/M03 Q1026=
200910142220 METAR ESMX 142220Z 36014KT 9999 NSC 01/M03 Q1026=
200910142150 METAR ESMX 142150Z 36015KT CAVOK 01/M03 Q1026=
200910142050 METAR ESMX 142050Z 35014KT CAVOK 01/M03 Q1027=
200910142020 METAR ESMX 142020Z 36014KT CAVOK 01/M03 Q1027=
200910141950 METAR ESMX 141950Z 36017KT 9999 FEW030 02/M03 Q1027=
200910141920 METAR ESMX 141920Z 36015KT 9999 FEW030 02/M03 Q1027=
200910141850 METAR ESMX 141850Z 35015KT 9999 FEW035 02/M03 Q1027=
200910141820 METAR ESMX 141820Z 36016KT 9999 FEW035 03/M03 Q1028=
200910141750 METAR ESMX 141750Z 35016KT 9999 SCT035 03/M03 Q1028=
200910141720 METAR ESMX 141720Z 35015KT 9999 SCT035 03/M03 Q1028=
200910141650 METAR ESMX 141650Z 36015KT 9999 BKN035 03/M03 Q1028=
200910141620 METAR ESMX 141620Z 01016KT 9999 BKN037 04/M03 Q1028=
200910141550 METAR ESMX 141550Z 35017KT 9999 BKN034 04/M03 Q1027=
200910141520 METAR ESMX 141520Z 36016KT 9999 BKN032 04/M03 Q1027=
200910141450 METAR ESMX 141450Z 36016KT 9999 BKN035 04/M03 Q1027=
200910141420 METAR ESMX 141420Z 01017KT 340V040 9999 BKN035 04/M03 Q1027=
200910141350 METAR ESMX 141350Z 01014KT 340V050 9999 BKN034 04/M02 Q1028=
200910141320 METAR ESMX 141320Z 01018KT 9999 SCT035 05/M03 Q1027=
200910141250 METAR ESMX 141250Z 02019KT 9999 SCT033 04/M03 Q1027=
200910141220 METAR ESMX 141220Z 36016KT 9999 SCT035 05/M02 Q1027=
200910141150 METAR ESMX 141150Z 02018KT 350V050 9999 SCT036 05/M03 Q1027=
200910141120 METAR ESMX 141120Z 01015KT 350V050 9999 SCT035 05/M03 Q1027=
200910141050 METAR ESMX 141050Z 02018KT 9999 FEW034 05/M03 Q1028=
200910141020 METAR ESMX 141020Z 01018KT 9999 FEW030 04/M03 Q1028=
200910140950 METAR ESMX 140950Z 01016KT CAVOK 04/M02 Q1028=
200910140920 METAR ESMX 140920Z 36015KT CAVOK 03/M03 Q1028=
200910140850 METAR ESMX 140850Z 36015KT CAVOK 03/M02 Q1028=
200910140820 METAR ESMX 140820Z 01014KT CAVOK 02/M02 Q1028=
200910140750 METAR ESMX 140750Z 36014KT CAVOK 02/M02 Q1028=
200910140720 METAR ESMX 140720Z 36014KT 330V030 CAVOK 01/M02 Q1028=
200910140650 METAR ESMX 140650Z 35014KT CAVOK 00/M02 Q1028=
200910140620 METAR ESMX 140620Z 35013KT CAVOK M00/M03 Q1028=
200910140550 METAR ESMX 140550Z 36012KT CAVOK M00/M03 Q1028=
200910140520 METAR ESMX 140520Z 36013KT 330V030 CAVOK M01/M03 Q1028=
200910140450 METAR ESMX 140450Z 36014KT CAVOK M00/M03 Q1028=
200910140420 METAR ESMX 140420Z 36013KT CAVOK M00/M03 Q1028=
200910140350 METAR ESMX 140350Z 36012KT CAVOK M00/M03 Q1028=
200910140320 METAR ESMX 140320Z AUTO 36012KT 9999NDV NCD M00/M03 Q1027=
200910140250 METAR ESMX 140250Z AUTO 36012KT 9999NDV NCD M00/M03 Q1027=
200910140220 METAR ESMX 140220Z AUTO 36013KT 9999NDV NCD M00/M03 Q1027=
200910140150 METAR ESMX 140150Z AUTO 35012KT 9999NDV NCD M00/M03 Q1027=
200910140120 METAR ESMX 140120Z AUTO 35012KT 9999NDV NCD M00/M03 Q1027=
200910140050 METAR ESMX 140050Z AUTO 35012KT 9999NDV NCD M00/M03 Q1027=
200910140020 METAR ESMX 140020Z AUTO 36012KT 9999NDV NCD M00/M03 Q1027=
200910132350 METAR ESMX 132350Z AUTO 35013KT 9999NDV NCD 00/M03 Q1027=
200910132320 METAR ESMX 132320Z 35011KT CAVOK M00/M03 Q1027=
200910132250 METAR ESMX 132250Z 35009KT CAVOK M00/M03 Q1027=
200910132220 METAR ESMX 132220Z 34011KT CAVOK 00/M04 Q1027=
200910132150 METAR ESMX 132150Z 35011KT CAVOK 01/M03 Q1027=
200910132120 METAR ESMX 132120Z 35010KT CAVOK 00/M03 Q1027=
200910132050 METAR ESMX 132050Z 35009KT 9999 FEW035 00/M04 Q1027=
200910132020 METAR ESMX 132020Z 35009KT 330V030 9999 FEW035 01/M04 Q1027=
200910131950 METAR ESMX 131950Z 01008KT CAVOK 01/M03 Q1027=
200910131920 METAR ESMX 131920Z 35012KT 9999 FEW035 01/M03 Q1027=
200910131850 METAR ESMX 131850Z 35012KT 9999 SCT036 01/M03 Q1027=
200910131820 METAR ESMX 131820Z 35011KT 9999 SCT036 01/M02 Q1026=
200910131750 METAR ESMX 131750Z 34010KT 9999 SCT036 01/M02 Q1026=
200910131720 METAR ESMX 131720Z 31007KT 280V350 9999 SCT035 01/M02 Q1026=
200910131650 METAR ESMX 131650Z 33007KT 9999 FEW036 02/M02 Q1026=
200910131620 METAR ESMX 131620Z 35009KT 9999 FEW034 02/M02 Q1026=
200910131550 METAR ESMX 131550Z 36012KT 330V040 9999 FEW033 02/M02 Q1025=
200910131520 METAR ESMX 131520Z 36012KT 9999 FEW028 03/M02 Q1025=
200910131450 METAR ESMX 131450Z 34014KT 9999 SCT025 03/M02 Q1025=
200910131420 METAR ESMX 131420Z 35013KT 320V020 9999 SCT025 04/M02 Q1025=
200910131350 METAR ESMX 131350Z 33012KT 300V010 9999 FEW023 BKN026 04/M02 Q1024=
200910131250 METAR ESMX 131250Z 34012KT 300V020 9999 BKN024 04/M01 Q1024=
200910131220 METAR ESMX 131220Z 34012KT 9999 BKN020 04/M01 Q1024=
200910131150 METAR ESMX 131150Z 35012KT 9999 BKN020 04/M01 Q1024=
200910131120 METAR ESMX 131120Z 35012KT 9999 SCT020 04/M01 Q1023=
200910131050 METAR ESMX 131050Z 35014KT 9999 SCT022 04/M01 Q1023=
200910131020 METAR ESMX 131020Z 01014KT 330V030 9999 FEW022 05/M00 Q1023=
200910130950 METAR ESMX 130950Z 36014KT 9999 FEW022 04/M01 Q1023=
200910130920 METAR ESMX 130920Z 35014KT 9999 SCT018 03/M01 Q1022=
200910130850 METAR ESMX 130850Z 01012KT 9999 SCT017 03/M01 Q1022=
200910130820 METAR ESMX 130820Z 36012KT 9999 SCT017 03/M01 Q1022=
200910130750 METAR ESMX 130750Z 36010KT 320V030 9999 FEW014 SCT020 03/M00 Q1021=
200910130720 METAR ESMX 130720Z 35011KT 310V020 9999 SCT023 03/M00 Q1021=
200910130650 METAR ESMX 130650Z 35009KT 9999 SCT021 02/M00 Q1021=
200910130620 METAR ESMX 130620Z 35008KT 9999 BKN021 02/00 Q1020=
200910130550 METAR ESMX 130550Z 35009KT 9999 SCT020 02/M00 Q1020=
200910130520 METAR ESMX 130520Z 35009KT 9999 FEW015 SCT020 02/M00 Q1019=
200910130450 METAR ESMX 130450Z 35010KT 9999 FEW015 SCT020 02/00 Q1019=
200910130420 METAR ESMX 130420Z 35009KT 310V020 9999 SCT013 BKN016 02/00 Q1018=
200910130350 METAR ESMX 130350Z 34010KT 320V020 9999 FEW008 BKN012 02/01 Q1018=
200910130320 METAR ESMX 130320Z AUTO 33008KT 300V010 9999NDV FEW006/// SCT018/// 02/01 Q1018=
200910130250 METAR ESMX 130250Z AUTO 32005KT 9999NDV FEW008/// BKN057/// 02/01 Q1018=
200910130220 METAR ESMX 130220Z AUTO 34005KT 9999NDV FEW006/// BKN045/// BKN056/// 02/01 Q1017=
200910130150 METAR ESMX 130150Z AUTO 34006KT 9999NDV FEW006/// SCT031/// OVC046/// 02/01 Q1017=
200910130120 METAR ESMX 130120Z AUTO 32006KT 290V350 9999NDV FEW006/// BKN008/// OVC041/// 01/00 Q1017=
200910130050 METAR ESMX 130050Z AUTO 31004KT 280V340 9999NDV FEW007/// 00/M00 Q1017=
200910130020 METAR ESMX 130020Z AUTO 31006KT 9999NDV FEW009/// SCT058/// 01/M00 Q1017=
200910122350 METAR ESMX 122350Z AUTO 30005KT 9999NDV FEW010/// SCT077/// 01/00 Q1017=
200910122320 METAR ESMX 122320Z 30004KT 9999 FEW015 01/00 Q1017=
200910122250 METAR ESMX 122250Z 30005KT 9999 FEW033 01/00 Q1017=
200910122220 METAR ESMX 122220Z 28003KT 9999 FEW033 01/M00 Q1017=
200910122150 METAR ESMX 122150Z 31005KT CAVOK 01/M00 Q1017=
200910122120 METAR ESMX 122120Z 32003KT 280V340 CAVOK 01/M01 Q1017=
200910122050 METAR ESMX 122050Z 34004KT CAVOK 01/M01 Q1017=
200910122020 METAR ESMX 122020Z 31005KT 280V340 CAVOK 01/M01 Q1016=
200910121950 METAR ESMX 121950Z 30003KT 260V330 CAVOK 01/M01 Q1016=
200910121920 METAR ESMX 121920Z 31004KT CAVOK 01/M01 Q1016=
200910121850 METAR ESMX 121850Z 31003KT CAVOK 01/M01 Q1016=
200910121820 METAR ESMX 121820Z 30004KT CAVOK 02/M01 Q1016=
200910121750 METAR ESMX 121750Z 32005KT 9999 FEW040 02/M01 Q1015=
200910121720 METAR ESMX 121720Z 34008KT 9999 FEW040 04/M01 Q1015=
200910121650 METAR ESMX 121650Z 33008KT 9999 SCT040 04/M01 Q1015=
200910121620 METAR ESMX 121620Z 34011KT 9999 FEW037 05/M00 Q1014=
200910121550 METAR ESMX 121550Z 34010KT 300V360 9999 SCT035 06/M01 Q1014=
200910121520 METAR ESMX 121520Z 34010KT 9999 FEW035 06/M01 Q1014=
200910121450 METAR ESMX 121450Z 34009KT 310V020 9999 FEW035 06/M01 Q1013=
200910121420 METAR ESMX 121420Z 34012KT 320V020 9999 SCT040 06/M01 Q1013=
200910121350 METAR ESMX 121350Z 36009KT 320V020 9999 FEW033 SCT040 06/M01 Q1013=
200910121320 METAR ESMX 121320Z 34010KT 9999 FEW035 SCT042 07/00 Q1013=
200910121250 METAR ESMX 121250Z 35012KT 9999 FEW030 SCT035 07/00 Q1012=
200910121220 METAR ESMX 121220Z 35015KT 9999 FEW025 SCT031 07/M00 Q1012=
200910121150 METAR ESMX 121150Z 36014KT 9999 FEW020 SCT030 06/01 Q1012=
200910121120 METAR ESMX 121120Z 35013KT 9999 SCT020 BKN025 05/01 Q1012=
200910121050 METAR ESMX 121050Z 36012KT 9999 SCT017 BKN023 05/01 Q1012=
200910121020 METAR ESMX 121020Z 36011KT 330V030 9999 SCT013 BKN021 05/02 Q1012=
200910120950 METAR ESMX 120950Z 36014KT 320V030 9999 SCT013 BKN020 04/02 Q1011=
200910120920 METAR ESMX 120920Z 35013KT 9999 SCT015 BKN020 05/01 Q1011=
200910120850 METAR ESMX 120850Z 35013KT 9999 SCT016 BKN020 05/01 Q1010=
200910120820 METAR ESMX 120820Z 35012KT 9999 FEW015 BKN020 04/02 Q1010=
200910120750 METAR ESMX 120750Z 35014G33KT 9999 SCT012 BKN020 04/02 Q1010=
200910120720 METAR ESMX 120720Z 36014KT 9999 SCT012 BKN016 04/02 Q1009=
200910120650 METAR ESMX 120650Z 36013KT 9999 BKN012 04/02 Q1009=
200910120620 METAR ESMX 120620Z 35013KT 9999 FEW010 BKN015 04/02 Q1008=
200910120550 METAR ESMX 120550Z 02013KT 9999 SCT010 BKN015 04/02 Q1008=
200910120520 METAR ESMX 120520Z 36014KT 9999 FEW010 BKN018 04/02 Q1008=
200910120450 METAR ESMX 120450Z 01014KT 9999 -RA BKN010 04/02 Q1007=
200910120420 METAR ESMX 120420Z 36013KT 9999 FEW010 BKN013 04/03 Q1007=
200910120350 METAR ESMX 120350Z 35013KT 9999 -RA FEW011 BKN014 04/03 Q1007=
200910120320 METAR ESMX 120320Z AUTO 01014KT 9999NDV SCT012/// OVC017/// 04/02 Q1006=
200910120250 METAR ESMX 120250Z AUTO 36013KT 9999NDV OVC012/// 05/02 Q1006=
200910120220 METAR ESMX 120220Z AUTO 02012KT 350V060 9999NDV OVC011/// 05/02 Q1006=
200910120150 METAR ESMX 120150Z AUTO 01013KT 9999NDV OVC011/// 04/02 Q1006=
200910120120 METAR ESMX 120120Z AUTO 02014KT 9999NDV OVC009/// 04/02 Q1006=
200910120050 METAR ESMX 120050Z 02012KT 9999 OVC010 04/02 Q1006=
200910120020 METAR ESMX 120020Z 02011KT 350V060 9999 OVC009 05/03 Q1006=
200910112350 METAR ESMX 112350Z 01012KT 340V040 9999 OVC009 05/03 Q1006=
200910112320 METAR ESMX 112320Z 01011KT 9999 SCT009 BKN011 05/03 Q1006=
200910112250 METAR ESMX 112250Z 01010KT 9999 FEW008 OVC010 05/03 Q1006=
200910112220 METAR ESMX 112220Z 01010KT 9999 OVC010 05/03 Q1006=
200910112150 METAR ESMX 112150Z 01010KT 330V040 9999 -RA OVC010 05/03 Q1006=
200910112120 METAR ESMX 112120Z 03008KT 9999 BKN010 OVC016 05/03 Q1006=
200910112050 METAR ESMX 112050Z 04010KT 010V080 9999 BKN010 OVC016 04/03 Q1006=
200910112020 METAR ESMX 112020Z 03009KT 350V060 9999 BKN010 OVC014 04/03 Q1007=
200910111950 METAR ESMX 111950Z 04009KT 010V080 9999 FEW010 BKN013 05/03 Q1007=
200910111920 METAR ESMX 111920Z 06008KT 010V110 9999 SCT011 BKN015 05/03 Q1007=
200910111820 METAR ESMX 111820Z 05007KT 020V090 9999 FEW012 BKN015 05/03 Q1007=
200910111750 METAR ESMX 111750Z 05008KT 010V080 9999 -RA FEW009 SCT013 BKN033 05/03 Q1007=
200910111720 METAR ESMX 111720Z 03007KT 340V060 9999 -DZ FEW009 SCT012 OVC015 05/03 Q1008=
200910111650 METAR ESMX 111650Z 04008KT 010V090 9999 DZ FEW008 SCT013 BKN016 05/03 Q1008=
200910111620 METAR ESMX 111620Z 05008KT 020V110 9999 DZ FEW008 BKN013 BKN019 05/04 Q1008=
200910111550 METAR ESMX 111550Z 06005KT 020V140 9999 DZ FEW009 BKN013 BKN017 05/04 Q1008=
200910111520 METAR ESMX 111520Z 05006KT 010V080 9999 DZ FEW009 OVC011 05/04 Q1008=
200910111450 METAR ESMX 111450Z 05007KT 020V100 9999 DZ FEW010 SCT014 BKN018 05/04 Q1009=
200910111420 METAR ESMX 111420Z 04005KT 350V080 9999 -RA FEW010 SCT014 BKN018 06/04 Q1009 REDZ=
200910111350 METAR ESMX 111350Z 05006KT 350V100 9999 -DZ FEW011 SCT014 BKN019 06/04 Q1009=
200910111320 METAR ESMX 111320Z 06006KT 020V120 9999 -DZ FEW024 06/04 Q1009=
200910111250 METAR ESMX 111250Z 07006KT 030V130 9999 -DZ FEW014 06/04 Q1010 RESHRA=
200910111220 METAR ESMX 111220Z AUTO 05007KT 330V110 9999NDV RA FEW016/// BKN020/// BKN028/// 07/04 Q1010=
200910111150 METAR ESMX 111150Z AUTO 06006KT 320V110 9999NDV FEW017/// SCT024/// BKN037/// 07/04 Q1010 REDZ=
200910111120 METAR ESMX 111120Z AUTO 06006KT 010V140 9999NDV -DZ FEW019/// BKN023/// 08/04 Q1011=
200910111050 METAR ESMX 111050Z AUTO 08006KT 030V150 9999NDV FEW016/// SCT019/// BKN023/// 08/04 Q1011=
200910111020 METAR ESMX 111020Z AUTO 09007KT 020V120 9999NDV FEW015/// SCT018/// BKN020/// 07/04 Q1011=
200910110950 METAR ESMX 110950Z AUTO 09006KT 020V140 9999NDV -RA FEW014/// 07/04 Q1012=
200910110920 METAR ESMX 110920Z AUTO 10006KT 050V170 9999NDV FEW017/// SCT066/// 07/04 Q1012=
200910110850 METAR ESMX 110850Z AUTO 08006KT 010V140 9999NDV SCT012/// BKN017/// OVC021/// 07/05 Q1012=
200910110820 METAR ESMX 110820Z AUTO 07004KT 010V140 9999NDV BKN011/// BKN018/// 07/05 Q1012 REDZ=
200910110750 METAR ESMX 110750Z AUTO 08005KT 020V110 9999NDV -RA BKN010/// OVC015/// 07/05 Q1013=
200910110720 METAR ESMX 110720Z AUTO 05005KT 010V100 9999NDV FEW009/// BKN010/// OVC014/// 06/05 Q1013 REDZ=
200910110650 METAR ESMX 110650Z AUTO 05007KT 360V100 9999NDV DZ OVC010/// 06/05 Q1013=
200910110620 METAR ESMX 110620Z AUTO 06006KT 020V110 9999NDV FEW011/// SCT018/// BKN031/// 06/04 Q1013=
200910110550 METAR ESMX 110550Z AUTO 07006KT 020V150 9999NDV NCD 06/04 Q1013=
200910110520 METAR ESMX 110520Z AUTO 08006KT 020V140 9999NDV FEW012/// 06/04 Q1014=
200910110450 METAR ESMX 110450Z AUTO 08005KT 020V120 9999NDV FEW013/// 06/04 Q1014=
200910110420 METAR ESMX 110420Z AUTO 07005KT 020V130 9999NDV BKN010/// 06/05 Q1014=
200910110350 METAR ESMX 110350Z AUTO 05005KT 010V100 9999NDV FEW011/// 06/05 Q1014=
200910110320 METAR ESMX 110320Z AUTO 06006KT 350V110 9999NDV NCD 06/05 Q1014=
200910110250 METAR ESMX 110250Z AUTO 06006KT 020V100 9999NDV BKN032/// 06/05 Q1015=
200910110220 METAR ESMX 110220Z AUTO 06005KT 020V100 9999NDV SCT031/// OVC058/// 06/05 Q1015=
200910110150 METAR ESMX 110150Z AUTO 07005KT 020V100 9999NDV SCT029/// BKN061/// 06/05 Q1016=
200910110120 METAR ESMX 110120Z AUTO 07005KT 030V120 9999NDV FEW026/// BKN061/// 06/05 Q1016=
200910110050 METAR ESMX 110050Z AUTO 06006KT 030V110 9999NDV SCT057/// BKN100/// 06/05 Q1016=
200910110020 METAR ESMX 110020Z AUTO 07006KT 030V110 9999NDV FEW090/// SCT110/// 06/05 Q1016=
200910102350 METAR ESMX 102350Z AUTO 07005KT 020V110 9999NDV SCT110/// 06/05 Q1017=
200910102320 METAR ESMX 102320Z AUTO 08005KT 010V140 9999NDV NCD 06/05 Q1017=
200910102250 METAR ESMX 102250Z AUTO 08005KT 030V130 9999NDV FEW073/// 06/04 Q1017=
200910102220 METAR ESMX 102220Z AUTO 08005KT 020V140 9999NDV FEW044/// 06/05 Q1017=
200910102150 METAR ESMX 102150Z AUTO 08005KT 030V140 9999NDV FEW039/// SCT051/// 06/05 Q1018=
200910102120 METAR ESMX 102120Z AUTO 07005KT 030V130 9999NDV FEW019/// SCT046/// 06/05 Q1018=
200910102050 METAR ESMX 102050Z AUTO 08005KT 020V130 9999NDV FEW012/// SCT045/// 07/05 Q1018=
200910102020 METAR ESMX 102020Z AUTO 08005KT 040V140 9999NDV FEW010/// SCT033/// 07/05 Q1018=
200910101950 METAR ESMX 101950Z AUTO 08006KT 040V140 9999NDV FEW012/// 06/05 Q1018=
200910101920 METAR ESMX 101920Z AUTO 07006KT 030V140 9999NDV NCD 06/05 Q1019=
200910101850 METAR ESMX 101850Z AUTO 07006KT 030V110 9999NDV FEW007/// 06/05 Q1019=
200910101820 METAR ESMX 101820Z AUTO 07004KT 030V100 9999NDV FEW007/// BKN038/// 06/05 Q1019=
200910101750 METAR ESMX 101750Z AUTO 05005KT 340V110 9999NDV FEW007/// SCT010/// BKN013/// 06/05 Q1019=
200910101720 METAR ESMX 101720Z 06005KT 020V110 9999 FEW007 SCT015 BKN019 06/05 Q1019=
200910101650 METAR ESMX 101650Z 07005KT 030V120 9999 -RA FEW007 SCT009 BKN015 06/05 Q1020=
200910101620 METAR ESMX 101620Z 06005KT 010V100 9999 FEW008 SCT009 BKN011 06/05 Q1020=
200910101550 METAR ESMX 101550Z 06005KT 010V110 9999 -RA FEW009 BKN016 OVC033 06/05 Q1019=
200910101520 METAR ESMX 101520Z 07005KT 020V110 9999 FEW011 SCT044 OVC054 06/05 Q1019=
200910101450 METAR ESMX 101450Z 05005KT 010V100 9999 FEW008 SCT011 BKN041 07/05 Q1020=
200910101420 METAR ESMX 101420Z 06005KT 030V110 9999 FEW010 SCT014 BKN016 07/05 Q1020=
200910101350 METAR ESMX 101350Z 07006KT 020V120 7000 -RA FEW019 SCT026 BKN029 07/05 Q1020=
200910101320 METAR ESMX 101320Z 07006KT 030V120 9999 BKN031 08/05 Q1020=
200910101250 METAR ESMX 101250Z 09007KT 020V140 9999 OVC040 08/04 Q1020=
200910101220 METAR ESMX 101220Z 09005KT 350V130 9999 FEW025 OVC039 07/04 Q1021=
200910101150 METAR ESMX 101150Z 10006KT 020V170 9999 FEW015 SCT021 BKN030 08/04 Q1021=
200910101050 METAR ESMX 101050Z 11006KT 050V170 9999 FEW022 OVC049 09/04 Q1021=
200910101020 METAR ESMX 101020Z 11006KT 050V170 9999 FEW023 09/03 Q1021=
200910100950 METAR ESMX 100950Z 11007KT 060V170 9999 FEW022 SCT031 09/03 Q1022=
200910100920 METAR ESMX 100920Z VRB07KT CAVOK 08/03 Q1022=
200910100850 METAR ESMX 100850Z 12007KT 070V190 9999 SCT018 07/03 Q1022=
200910100820 METAR ESMX 100820Z 13007KT 080V180 9999 FEW016 07/03 Q1022=
200910100750 METAR ESMX 100750Z 12005KT 060V170 CAVOK 07/03 Q1022=
200910100720 METAR ESMX 100720Z 11004KT 060V190 CAVOK 06/03 Q1022=
200910100650 METAR ESMX 100650Z 11003KT 060V150 CAVOK 05/02 Q1022=
200910100620 METAR ESMX 100620Z AUTO VRB02KT 9999NDV FEW060/// 05/02 Q1022=
200910100550 METAR ESMX 100550Z AUTO 12003KT 070V190 9999NDV NCD 04/02 Q1022=
200910100520 METAR ESMX 100520Z AUTO 12003KT 070V160 9999NDV NCD 04/02 Q1022=
200910100450 METAR ESMX 100450Z AUTO VRB02KT 9999NDV NCD 04/02 Q1022=
200910100420 METAR ESMX 100420Z AUTO VRB02KT 9999NDV NCD 04/02 Q1023=
200910100350 METAR ESMX 100350Z AUTO 13003KT 080V160 9999NDV FEW039/// 04/02 Q1023=
200910100320 METAR ESMX 100320Z AUTO VRB02KT 9999NDV NCD 04/02 Q1023=
200910100250 METAR ESMX 100250Z AUTO 12003KT 080V170 9999NDV SCT038/// 04/03 Q1023=
200910100220 METAR ESMX 100220Z AUTO 12004KT 080V160 9999NDV NCD 04/03 Q1023=
200910100150 METAR ESMX 100150Z AUTO 13004KT 070V170 9999NDV NCD 04/03 Q1023=
200910100120 METAR ESMX 100120Z AUTO 14005KT 100V170 9999NDV NCD 05/03 Q1023=
200910100050 METAR ESMX 100050Z AUTO 14004KT 100V190 9999NDV NCD 04/02 Q1023=
200910100020 METAR ESMX 100020Z AUTO 12004KT 9999NDV NCD 04/02 Q1023=
200910092350 METAR ESMX 092350Z AUTO 11003KT 9999NDV NCD 03/02 Q1023=
200910092320 METAR ESMX 092320Z AUTO 10003KT 9999NDV NCD 03/01 Q1023=
200910092250 METAR ESMX 092250Z AUTO 11002KT 9999NDV NCD 03/01 Q1024=
200910092220 METAR ESMX 092220Z AUTO 10003KT 060V120 9999NDV NCD 03/01 Q1024=
200910092150 METAR ESMX 092150Z AUTO 07003KT 020V110 9999NDV NCD 03/01 Q1024=
200910092120 METAR ESMX 092120Z AUTO 06004KT 030V090 9999NDV NCD 03/01 Q1024=
200910092050 METAR ESMX 092050Z AUTO 06003KT 9999NDV NCD 03/02 Q1024=
200910092020 METAR ESMX 092020Z AUTO 06003KT 020V090 9999NDV NCD 03/02 Q1024=
200910091950 METAR ESMX 091950Z AUTO 04001KT 9999NDV NCD 01/M00 Q1024=
200910091920 METAR ESMX 091920Z AUTO 05002KT 9999NDV NCD 01/00 Q1024=
200910091850 METAR ESMX 091850Z AUTO VRB01KT 9999NDV NCD 02/01 Q1024=
200910091820 METAR ESMX 091820Z 02001KT 9999 FEW040 02/01 Q1024=
200910091750 METAR ESMX 091750Z 00000KT 9999 FEW042 02/01 Q1024=
200910091720 METAR ESMX 091720Z 00000KT 9999 BKN042 04/01 Q1023=
200910091650 METAR ESMX 091650Z VRB01KT 9999 SCT041 04/02 Q1023=
200910091620 METAR ESMX 091620Z 20001KT 9999 SCT041 06/02 Q1023=
200910091550 METAR ESMX 091550Z VRB01KT 9999 SCT042 08/02 Q1023=
200910091520 METAR ESMX 091520Z 29002KT 9999 FEW040 10/M00 Q1023=
200910091450 METAR ESMX 091450Z VRB02KT 9999 FEW040 09/M00 Q1022=
200910091420 METAR ESMX 091420Z VRB02KT 9999 FEW035 10/M01 Q1022=
200910091350 METAR ESMX 091350Z 34004KT 300V020 9999 FEW035 09/M00 Q1022=
200910091320 METAR ESMX 091320Z 02006KT 9999 FEW035 10/M00 Q1022=
200910091250 METAR ESMX 091250Z 36007KT 9999 FEW035 10/00 Q1022=
200910091220 METAR ESMX 091220Z 02008KT 340V050 9999 FEW035 10/00 Q1021=
200910091150 METAR ESMX 091150Z 35008KT 9999 FEW035 10/02 Q1021=
200910091120 METAR ESMX 091120Z 35007KT 310V020 9999 FEW025 09/02 Q1021=
200910091050 METAR ESMX 091050Z 01008KT 320V030 9999 FEW023 SCT028 09/02 Q1021=
200910091020 METAR ESMX 091020Z 30010KT 9999 FEW020 SCT025 08/03 Q1020=
200910090950 METAR ESMX 090950Z 34010KT 320V020 9999 FEW020 SCT025 08/02 Q1020=
200910090920 METAR ESMX 090920Z 33008KT 280V010 9999 FEW017 BKN025 07/03 Q1020=
200910090850 METAR ESMX 090850Z 32009KT 280V360 9999 FEW015 SCT020 BKN025 07/03 Q1019=
200910090820 METAR ESMX 090820Z 31009KT 280V340 9999 FEW019 SCT025 07/03 Q1018=
200910090750 METAR ESMX 090750Z 32009KT 290V350 9999 FEW015 SCT020 BKN026 06/03 Q1017=
200910090720 METAR ESMX 090720Z 32008KT 290V350 9999 FEW030 06/03 Q1017=
200910090650 METAR ESMX 090650Z 32010KT 9999 FEW025 05/03 Q1015=
200910090620 METAR ESMX 090620Z 31008KT 280V340 9999 FEW022 05/03 Q1015=
200910090550 METAR ESMX 090550Z 32009KT 280V350 9999 SCT024 BKN028 05/03 Q1014=
200910090520 METAR ESMX 090520Z 31011KT 280V340 9999 SCT016 SCT020 BKN025 05/03 Q1013=
200910090450 METAR ESMX 090450Z 30010KT 9999 BKN018 OVC025 05/02 Q1012=
200910090420 METAR ESMX 090420Z 29012KT 9999 SCT017 BKN020 05/03 Q1011=
200910090350 METAR ESMX 090350Z 30009KT 260V350 9999 BKN017 05/03 Q1011=
200910090320 METAR ESMX 090320Z AUTO 30012KT 270V330 9999NDV FEW018/// BKN028/// 05/02 Q1010=
200910090250 METAR ESMX 090250Z AUTO 29015KT 250V330 9999NDV FEW015/// SCT018/// BKN020/// 06/03 Q1009=
200910090220 METAR ESMX 090220Z AUTO 27009KT 9999NDV NCD 05/03 Q1008=
200910090150 METAR ESMX 090150Z AUTO 26008KT 9999NDV NCD 05/03 Q1007=
200910090120 METAR ESMX 090120Z AUTO 28010KT 9999NDV FEW020/// SCT025/// 06/03 Q1007=
200910090050 METAR ESMX 090050Z AUTO 26008KT 9999NDV FEW019/// SCT042/// BKN048/// 06/04 Q1006=
200910090020 METAR ESMX 090020Z AUTO 25009KT 220V290 9999NDV FEW021/// SCT024/// BKN034/// 06/04 Q1005=
200910082350 METAR ESMX 082350Z 24010KT 210V270 9999 FEW014 BKN024 06/04 Q1005=
200910082320 METAR ESMX 082320Z 26011KT 9999 FEW029 06/03 Q1004=
200910082250 METAR ESMX 082250Z 26012KT 230V290 9999 FEW023 SCT031 BKN046 06/03 Q1004=
200910082220 METAR ESMX 082220Z 25012KT 140V290 9999 FEW017 BKN022 BKN029 07/04 Q1004=
200910082150 METAR ESMX 082150Z 25010KT 210V280 9999 FEW018 BKN022 07/05 Q1003=
200910082120 METAR ESMX 082120Z 22009KT 200V270 9999 FEW019 06/05 Q1003=
200910082050 METAR ESMX 082050Z 22009KT 190V250 9999 FEW018 SCT056 06/05 Q1003=
200910082020 METAR ESMX 082020Z 20009KT 9999 -RA FEW015 SCT020 BKN035 06/04 Q1004=
200910081950 METAR ESMX 081950Z 22008KT 9999 FEW018 SCT039 BKN061 06/04 Q1004=
200910081920 METAR ESMX 081920Z 20008KT 9999 -RA FEW040 05/04 Q1004=
200910081850 METAR ESMX 081850Z 20007KT 9999 FEW040 05/03 Q1004=
200910081820 METAR ESMX 081820Z 22007KT 9999 FEW041 SCT082 06/04 Q1004=
200910081750 METAR ESMX 081750Z 26008KT 9999 FEW010 SCT047 BKN070 06/04 Q1004 RERA=
200910081720 METAR ESMX 081720Z 21011KT 7000 RA FEW011 SCT016 BKN087 08/06 Q1004=
200910081650 METAR ESMX 081650Z 21010KT 9999 FEW011 SCT016 BKN033 08/06 Q1004=
200910081620 METAR ESMX 081620Z 20010KT 9999 FEW022 SCT030 BKN040 08/06 Q1005 RERA=
200910081550 METAR ESMX 081550Z 21009KT 9000 -RA FEW024 SCT031 BKN045 09/05 Q1005=
200910081520 METAR ESMX 081520Z 21011KT 9999 SCT045 BKN100 10/03 Q1005=
200910081450 METAR ESMX 081450Z 23008KT 170V280 9999 FEW032 SCT043 BKN050 11/04 Q1005=
200910081420 METAR ESMX 081420Z 23009KT 200V260 9999 FEW037 SCT044 BKN053 11/05 Q1006=
200910081350 METAR ESMX 081350Z 22013KT 170V240 9999 FEW030 SCT040 BKN050 11/05 Q1006=
200910081320 METAR ESMX 081320Z 24008KT 9999 FEW035 SCT050 11/04 Q1006=
200910081250 METAR ESMX 081250Z 23006KT 190V260 9999 FEW035 12/04 Q1006=
200910081220 METAR ESMX 081220Z 29007KT 250V330 9999 FEW035 12/04 Q1006=
200910081150 METAR ESMX 081150Z 30007KT 270V340 9999 FEW030 11/05 Q1006=
200910081120 METAR ESMX 081120Z 28010KT 250V320 9999 FEW028 11/05 Q1006=
200910081050 METAR ESMX 081050Z 28007KT 230V320 9999 FEW025 11/03 Q1006=
200910081020 METAR ESMX 081020Z 28007KT 250V340 9999 FEW025 10/05 Q1006=
200910080950 METAR ESMX 080950Z 28005KT CAVOK 09/05 Q1007=
200910080920 METAR ESMX 080920Z 28005KT 250V320 CAVOK 09/05 Q1007=
200910080850 METAR ESMX 080850Z 27004KT 240V300 CAVOK 08/05 Q1006=
200910080820 METAR ESMX 080820Z 27006KT 240V300 9999 FEW006 08/06 Q1007=
200910080750 METAR ESMX 080750Z 26005KT 9999 FEW007 06/06 Q1006=
200910080720 METAR ESMX 080720Z 24004KT 9999 FEW003 05/05 Q1006=
200910080650 METAR ESMX 080650Z VRB02KT 9999 FEW003 02/02 Q1006=
200910080620 METAR ESMX 080620Z 21003KT 170V230 9999 0700N R19/P2000 BCFG SCT000 01/00 Q1006=
200910080550 METAR ESMX 080550Z 18002KT 0600 R01/0800V1200 R19/0375V0750 BCFG FEW200 01/00 Q1006=
200910080520 METAR ESMX 080520Z 19003KT 0600 R01/P2000N R19/P2000D BCFG NSC 00/M00 Q1006=
200910080450 METAR ESMX 080450Z 00000KT 9999 BCFG NSC 01/01 Q1006=
200910080420 METAR ESMX 080420Z 18003KT 9999 BCFG NSC 03/03 Q1006=
200910080350 METAR ESMX 080350Z 24002KT 9999 BCFG NSC 04/03 Q1006=
200910080320 METAR ESMX 080320Z AUTO 22003KT 3300NDV NCD 04/03 Q1006=
200910080250 METAR ESMX 080250Z AUTO 22005KT 8000NDV NCD 04/04 Q1006=
200910080220 METAR ESMX 080220Z AUTO 21004KT 9999NDV NCD 05/04 Q1006=
200910080150 METAR ESMX 080150Z AUTO 18004KT 9999NDV NCD 06/05 Q1006=
200910080120 METAR ESMX 080120Z AUTO 25003KT 230V290 9999NDV NCD 06/04 Q1006=
200910080050 METAR ESMX 080050Z AUTO 25004KT 220V290 9999NDV NCD 06/05 Q1006=
200910080020 METAR ESMX 080020Z AUTO 24005KT 210V280 9999NDV NCD 06/05 Q1006=
200910072350 METAR ESMX 072350Z AUTO 23005KT 9999NDV NCD 06/05 Q1006=
200910072320 METAR ESMX 072320Z 23006KT CAVOK 06/04 Q1006=
200910072250 METAR ESMX 072250Z 23005KT CAVOK 06/05 Q1006=
200910072220 METAR ESMX 072220Z 22006KT CAVOK 06/05 Q1006=
200910072150 METAR ESMX 072150Z 23006KT CAVOK 07/04 Q1006=
200910072120 METAR ESMX 072120Z 25005KT 230V290 CAVOK 07/05 Q1006=
200910072050 METAR ESMX 072050Z 24005KT CAVOK 07/05 Q1006=
200910072020 METAR ESMX 072020Z 24006KT 200V260 CAVOK 07/05 Q1006=
200910071950 METAR ESMX 071950Z 22006KT 200V260 CAVOK 07/05 Q1006=
200910071920 METAR ESMX 071920Z 22007KT 9999 FEW028 08/05 Q1005=
200910071850 METAR ESMX 071850Z 24009KT 190V280 9999 FEW028 09/05 Q1005=
200910071820 METAR ESMX 071820Z 26009KT 9999 FEW029 09/05 Q1005=
200910071750 METAR ESMX 071750Z 25008KT 210V290 9999 FEW030 09/05 Q1004=
200910071720 METAR ESMX 071720Z 24010KT 210V290 9999 BKN030 10/05 Q1004=
200910071650 METAR ESMX 071650Z 24008KT 190V290 9999 SCT030 10/05 Q1004=
200910071620 METAR ESMX 071620Z 25012KT 9999 SCT035 10/05 Q1003=
200910071550 METAR ESMX 071550Z 26012KT 220V290 9999 FEW032 11/05 Q1003=
200910071520 METAR ESMX 071520Z 26015G25KT 220V300 9999 FEW035 11/04 Q1003=
200910071450 METAR ESMX 071450Z 26013KT 210V290 9999 FEW036 SCT042 11/04 Q1003=
200910071420 METAR ESMX 071420Z 25015G26KT 210V290 9999 SCT040 11/04 Q1003=
200910071350 METAR ESMX 071350Z 26014KT 220V290 9999 FEW042 12/03 Q1002=
200910071320 METAR ESMX 071320Z 27016KT 230V300 9999 SCT035 11/03 Q1002=
200910071250 METAR ESMX 071250Z 27018KT 9999 FEW035 12/03 Q1002=
200910071220 METAR ESMX 071220Z 26017KT 230V300 9999 SCT035 13/04 Q1002=
200910071150 METAR ESMX 071150Z 26013KT 230V290 9999 FEW034 SCT043 13/05 Q1001=
200910071120 METAR ESMX 071120Z 24014KT 210V280 9999 SCT035 12/05 Q1001=
200910071050 METAR ESMX 071050Z 27011KT 240V310 9999 SCT030 11/05 Q1001=
200910071020 METAR ESMX 071020Z 27016KT 240V320 9999 BKN026 BKN037 12/06 Q1001=
200910070950 METAR ESMX 070950Z 26012KT 240V300 9999 SCT025 12/07 Q1001=
200910070920 METAR ESMX 070920Z 26013KT 9999 SCT025 12/07 Q1001=
200910070850 METAR ESMX 070850Z 30010KT 9999 FEW017 SCT029 11/07 Q1000=
200910070820 METAR ESMX 070820Z 26008KT 230V290 9999 SCT016 BKN079 12/10 Q1000=
200910070750 METAR ESMX 070750Z 28008KT 250V310 9999 FEW009 SCT018 BKN033 11/10 Q0999 REDZ=
200910070720 METAR ESMX 070720Z 28010KT 250V320 4000 DZ BR FEW003 SCT008 BKN011 11/10 Q0999 RERA=
200910070650 METAR ESMX 070650Z 24011KT 210V290 2000 RA BR FEW002 BKN004 13/12 Q0998 REDZ=
200910070620 METAR ESMX 070620Z 22008KT 5000 -DZ BR FEW003 BKN005 13/12 Q0997=
200910070550 METAR ESMX 070550Z 20009KT 2700 +DZ BR BKN003 OVC006 13/12 Q0997=
200910070520 METAR COR ESMX 070520Z 20010KT 3000 -RA BR OVC002 12/12 Q0997=
200910070450 METAR ESMX 070450Z 19010KT 5000 BR BKN003 12/11 Q0997=
200910070420 METAR ESMX 070420Z 19012KT 170V230 6000 BR BKN003 OVC006 12/11 Q0998=
200910070350 METAR ESMX 070350Z 19013KT 6000 -RA SCT003 OVC005 12/11 Q0998=
200910070320 METAR ESMX 070320Z 18013KT 3800 BR OVC004 12/11 Q0998=
200910070250 METAR ESMX 070250Z AUTO 19013KT 3400NDV BR OVC005/// 12/11 Q0999=
200910070220 METAR ESMX 070220Z AUTO 19013KT 7000NDV -RA FEW004/// OVC005/// 11/11 Q0999=
200910070150 METAR ESMX 070150Z AUTO 17012KT 140V200 5000NDV BR BKN004/// OVC007/// 11/10 Q0999=
200910070120 METAR ESMX 070120Z AUTO 17012KT 4200NDV -RA BKN005/// OVC008/// 11/10 Q1000 REDZ=
200910070050 METAR ESMX 070050Z AUTO 18013KT 6000NDV DZ OVC006/// 11/10 Q1000=
200910070020 METAR ESMX 070020Z AUTO 17013KT 150V210 9000NDV -DZ OVC008/// 12/10 Q1001=
200910062350 METAR ESMX 062350Z 17014KT 140V200 9999 OVC009 12/10 Q1001=
200910062320 METAR ESMX 062320Z 17015KT 140V200 9999 OVC010 12/10 Q1002=
200910062250 METAR ESMX 062250Z 17012KT 140V200 9999 OVC011 12/09 Q1003=
200910062220 METAR ESMX 062220Z 17014KT 140V200 9999 BKN013 OVC019 12/09 Q1003=
200910062150 METAR ESMX 062150Z 17016KT 9999 FEW014 SCT017 OVC022 12/09 Q1004=
200910062120 METAR ESMX 062120Z 17013KT 9999 FEW019 BKN024 11/08 Q1004=
200910062050 METAR ESMX 062050Z 17012KT 140V200 9999 BKN025 11/07 Q1005=
200910062020 METAR ESMX 062020Z 16013KT 130V200 9999 BKN024 11/06 Q1006=
200910061950 METAR COR ESMX 061950Z 16011KT 130V190 9999 SCT025 10/06 Q1006=
200910061920 METAR ESMX 061920Z 16012KT 120V210 CAVOK 09/06 Q1007=
200910061850 METAR ESMX 061850Z 16011KT 130V200 9999 SCT029 09/05 Q1008=
200910061820 METAR ESMX 061820Z 16011KT 120V200 9999 BKN030 09/05 Q1008=
200910061750 METAR ESMX 061750Z 16010KT 130V190 9999 SCT031 09/05 Q1009=
200910061720 METAR ESMX 061720Z 16010KT 130V190 CAVOK 09/05 Q1009=
200910061650 METAR ESMX 061650Z 16009KT CAVOK 09/04 Q1010=
200910061620 METAR ESMX 061620Z 17010KT 140V200 CAVOK 10/04 Q1010=
200910061550 METAR ESMX 061550Z 16011KT 130V190 CAVOK 11/04 Q1011=
200910061520 METAR ESMX 061520Z 16008KT 140V200 CAVOK 11/04 Q1012=
200910061450 METAR ESMX 061450Z 17010KT 140V210 CAVOK 12/03 Q1012=
200910061420 METAR ESMX 061420Z 17012KT 140V200 CAVOK 12/02 Q1012=
200910061350 METAR ESMX 061350Z 17014KT 140V200 CAVOK 13/02 Q1013=
200910061320 METAR ESMX 061320Z 17013KT 130V200 9999 FEW035 13/03 Q1013=
200910061250 METAR ESMX 061250Z 17015KT 9999 FEW035 13/04 Q1013=
200910061220 METAR ESMX 061220Z 18011KT 140V200 9999 FEW030 13/05 Q1013=
200910061150 METAR ESMX 061150Z 16012KT 120V200 9999 FEW029 OVC075 13/04 Q1014=
200910061120 METAR ESMX 061120Z 16009KT 120V200 9999 FEW029 OVC075 12/07 Q1014=
200910061050 METAR ESMX 061050Z 17008KT 140V210 CAVOK 11/07 Q1015=
200910061020 METAR ESMX 061020Z 16007KT CAVOK 10/08 Q1015=
200910060950 METAR ESMX 060950Z 15004KT 120V200 CAVOK 08/07 Q1015=
200910060920 METAR ESMX 060920Z 16004KT 120V190 CAVOK 08/07 Q1015=
200910060850 METAR ESMX 060850Z 15004KT 110V200 9999 FEW002 OVC075 07/07 Q1015=
200910060820 METAR ESMX 060820Z 15004KT 110V180 9999 OVC002 06/06 Q1015=
200910060750 METAR ESMX 060750Z 17003KT 140V210 0300 R01/0550N R19/0700N FG VV002 05/04 Q1015=
200910060720 METAR ESMX 060720Z 14003KT 100V180 0150 R01/0500 R19/0350 FG VV001 04/03 Q1015=
200910060650 METAR ESMX 060650Z 00000KT 0100 R01/0175N R19/0375V0500N FG VV001 01/01 Q1015=
200910060620 METAR ESMX 060620Z VRB01KT 0100 R01/0350V0550D R19/0175N FG VV001 00/M00 Q1015=
200910060550 METAR ESMX 060550Z VRB01KT 0200 R01/0375 R19/0650 FZFG VV002 M01/M01 Q1015=
200910060520 METAR ESMX 060520Z 00000KT 0300 R01/0700N R19/0800 FZFG VV002 M01/M01 Q1015=
200910060450 METAR ESMX 060450Z 18001KT 0650 R01/P2000D R19/1500VP2000D FZFG VV002 M02/M02 Q1014=
200910060420 METAR ESMX 060420Z 18002KT 0900 R01/1200V1800U R19/0800V1300 BCFG VV002 M01/M01 Q1014=
200910060350 METAR ESMX 060350Z AUTO VRB01KT 9999NDV FEW000/// M01/M01 Q1014=
200910060320 METAR ESMX 060320Z AUTO 17001KT 3300NDV BR NCD M01/M01 Q1014=
200910060250 METAR ESMX 060250Z AUTO 16002KT 5000NDV BR NCD M00/M01 Q1014=
200910060220 METAR ESMX 060220Z AUTO 00000KT 9999NDV BKN031/// M01/M01 Q1014=
200910060150 METAR ESMX 060150Z AUTO VRB01KT 9999NDV FEW031/// 00/M00 Q1014=
200910060120 METAR ESMX 060120Z AUTO VRB01KT 9999NDV NCD M00/M01 Q1014=
200910060050 METAR ESMX 060050Z AUTO 19003KT 9999NDV NCD 01/01 Q1014=
200910060020 METAR ESMX 060020Z AUTO 20004KT 9999NDV NCD 01/01 Q1014=
200910052350 METAR ESMX 052350Z 21006KT CAVOK 01/00 Q1014=
200910052320 METAR ESMX 052320Z 21004KT CAVOK 02/01 Q1014=
200910052250 METAR ESMX 052250Z 21004KT CAVOK 01/00 Q1013=
200910052220 METAR ESMX 052220Z 19004KT CAVOK 02/01 Q1013=
200910052150 METAR ESMX 052150Z 21003KT CAVOK 02/01 Q1013=
200910052120 METAR ESMX 052120Z 22004KT CAVOK 03/01 Q1013=
200910052050 METAR ESMX 052050Z 22004KT CAVOK 03/02 Q1013=
200910052020 METAR ESMX 052020Z 22005KT CAVOK 03/02 Q1013=
200910051950 METAR ESMX 051950Z 19005KT CAVOK 04/02 Q1012=
200910051920 METAR ESMX 051920Z 22004KT CAVOK 04/02 Q1012=
200910051850 METAR ESMX 051850Z 23005KT CAVOK 05/02 Q1012=
200910051820 METAR ESMX 051820Z 24006KT CAVOK 06/02 Q1012=
200910051750 METAR ESMX 051750Z 22006KT CAVOK 06/01 Q1011=
200910051720 METAR ESMX 051720Z 24005KT 210V270 CAVOK 05/01 Q1011=
200910051650 METAR ESMX 051650Z 25005KT CAVOK 07/01 Q1011=
200910051620 METAR ESMX 051620Z 25006KT 210V290 CAVOK 08/01 Q1010=
200910051550 METAR ESMX 051550Z 26006KT 9999 FEW045 09/01 Q1010=
200910051520 METAR COR ESMX 051520Z 26008KT 9999 FEW045 10/02 Q1010=
200910051450 METAR ESMX 051450Z 26009KT 220V290 CAVOK 11/01 Q1009=
200910051420 METAR ESMX 051420Z 27011KT 230V300 CAVOK 11/02 Q1009=
200910051350 METAR ESMX 051350Z 26013KT 210V280 CAVOK 11/02 Q1009=
200910051320 METAR ESMX 051320Z 27014KT 9999 FEW040 SCT050 11/01 Q1009=
200910051250 METAR ESMX 051250Z 27014KT 240V300 9999 FEW040 SCT050 11/02 Q1008=
200910051220 METAR ESMX 051220Z 28014KT 250V320 9999 FEW040 BKN050 11/03 Q1008=
200910051150 METAR ESMX 051150Z 28011KT 240V310 9999 FEW040 SCT055 10/02 Q1008=
200910051120 METAR ESMX 051120Z 26009KT 210V290 9999 FEW035 SCT040 09/03 Q1008=
200910051050 METAR ESMX 051050Z 28012KT 250V310 9999 FEW030 SCT048 10/03 Q1007=
200910051020 METAR ESMX 051020Z 27013KT 240V300 9999 FEW030 BKN040 10/04 Q1007=
200910050950 METAR ESMX 050950Z 28012G23KT 240V310 9999 FEW025 BKN030 10/04 Q1007=
200910050920 METAR ESMX 050920Z 27013KT 9999 FEW025 SCT032 10/05 Q1007=
200910050850 METAR ESMX 050850Z 27011KT 9999 FEW022 09/04 Q1006=
200910050820 METAR ESMX 050820Z 26009KT 9999 FEW015 09/05 Q1006=
200910050750 METAR ESMX 050750Z 26009KT 230V290 9999 FEW015 08/05 Q1005=
200910050720 METAR ESMX 050720Z 26008KT 9999 FEW010 07/05 Q1005=
200910050650 METAR ESMX 050650Z 27007KT 9999 FEW010 06/04 Q1004=
200910050620 METAR ESMX 050620Z 26006KT 9999 FEW007 05/04 Q1004=
200910050550 METAR ESMX 050550Z 26006KT 9999 FEW007 SCT009 BKN011 05/04 Q1003=
200910050520 METAR ESMX 050520Z 25005KT 9999 FEW007 SCT010 05/04 Q1003=
200910050450 METAR ESMX 050450Z 26005KT 9999 FEW008 SCT035 05/04 Q1002=
200910050420 METAR ESMX 050420Z 26007KT 230V290 9999 FEW038 SCT060 06/04 Q1002=
200910050350 METAR ESMX 050350Z 27008KT 9999 FEW041 SCT060 06/04 Q1002=
200910050320 METAR ESMX 050320Z AUTO 27006KT 9999NDV OVC058/// 05/04 Q1001=
200910050250 METAR ESMX 050250Z AUTO 26007KT 230V290 9999NDV FEW037/// BKN065/// 05/04 Q1000=
200910050220 METAR ESMX 050220Z AUTO 26009KT 9999NDV FEW041/// BKN076/// 05/04 Q1000=
200910050150 METAR ESMX 050150Z AUTO 26008KT 9999NDV FEW079/// 05/04 Q0999=
200910050120 METAR ESMX 050120Z AUTO 27006KT 9999NDV NCD 05/04 Q0999=
200910050050 METAR ESMX 050050Z AUTO 27008KT 9999NDV NCD 06/04 Q0998=
200910050020 METAR ESMX 050020Z 27010KT 9999 NSC 06/04 Q0997=
200910042350 METAR ESMX 042350Z 26009KT 9999 FEW015 06/04 Q0997=
200910042320 METAR ESMX 042320Z 27008KT 9999 FEW015 06/04 Q0996=
200910042250 METAR ESMX 042250Z 27010KT 9999 FEW010 06/05 Q0995=
200910042220 METAR ESMX 042220Z 27009KT 230V300 9999 FEW013 06/05 Q0995=
200910042120 METAR ESMX 042120Z 28008KT 250V310 9999 FEW014 SCT025 07/05 Q0993=
200910042050 METAR ESMX 042050Z 28012KT 9999 FEW021 SCT047 07/05 Q0992=
200910042020 METAR ESMX 042020Z 25010KT 210V290 9999 FEW021 SCT100 07/05 Q0991=
200910041950 METAR ESMX 041950Z 26010G20KT 9999 -SHRA FEW020 BKN100 07/05 Q0991=
200910041920 METAR ESMX 041920Z 27014KT 220V300 9999 -SHRA FEW014 BKN032 08/06 Q0990=
200910041850 METAR ESMX 041850Z 25012KT 210V280 9999 FEW018 SCT026 BKN050 08/06 Q0989=
200910041820 METAR ESMX 041820Z 26014G25KT 9999 -SHRA FEW011 SCT017 BKN024 08/06 Q0989 RERA=
200910041750 METAR ESMX 041750Z 25021G38KT 220V290 5000 SHRA FEW018 BKN025 08/06 Q0988=
200910041720 METAR COR ESMX 041720Z 25016G27KT 230V290 9999 SHRA SCT020 BKN030 09/05 Q0988=
200910041650 METAR ESMX 041650Z 25019KT 9999 FEW020CB SCT030 BKN050 09/05 Q0987=
200910041620 METAR ESMX 041620Z 26020G33KT 230V290 9000 -SHRA FEW020CB BKN028 09/05 Q0987=
200910041550 METAR ESMX 041550Z 24016KT 210V280 9000 -SHRA FEW020CB SCT028 BKN041 09/06 Q0986=
200910041520 METAR ESMX 041520Z 25017G29KT 220V280 9999 FEW020CB BKN030 10/05 Q0986=
200910041450 METAR ESMX 041450Z 26017G28KT 210V300 9999 FEW020CB BKN030 10/06 Q0986=
200910041420 METAR ESMX 041420Z 26018G31KT 9999 SHRA FEW020CB BKN030 10/06 Q0985=
200910041350 METAR ESMX 041350Z 25019KT 210V280 9999 FEW020 SCT025 BKN029 11/07 Q0985=
200910041320 METAR ESMX 041320Z 25014KT 210V280 9999 FEW018 SCT022 BKN025 10/07 Q0985=
200910041250 METAR ESMX 041250Z 23014G24KT 9999 SHRA FEW018 BKN021 BKN031 11/07 Q0984=
200910041220 METAR COR ESMX 041220Z 25016KT 9999 SCT020 BKN030 11/07 Q0984 RERA=
200910041150 METAR ESMX 041150Z AUTO 25015KT 210V290 9999NDV FEW020/// SCT023/// BKN027/// 11/07 Q0984=
200910041120 METAR ESMX 041120Z AUTO 24018G29KT 9999NDV FEW020/// BKN023/// 11/07 Q0983=
200910041050 METAR ESMX 041050Z AUTO 24020G31KT 200V280 9999NDV FEW019/// SCT023/// BKN032/// 11/08 Q0983=
200910041020 METAR ESMX 041020Z AUTO 25016G27KT 220V280 8000NDV FEW016/// BKN020/// BKN031/// 10/08 Q0982=
200910040950 METAR ESMX 040950Z AUTO 24015G26KT 210V280 9000NDV -RA FEW017/// SCT022/// BKN030/// 10/08 Q0982=
200910040920 METAR ESMX 040920Z AUTO 23015G27KT 9000NDV -RA FEW017/// SCT022/// BKN026/// 10/08 Q0982=
200910040850 METAR ESMX 040850Z AUTO 23014G24KT 200V270 9999NDV FEW017/// SCT020/// BKN025/// 10/08 Q0982=
200910040820 METAR ESMX 040820Z AUTO 23013G26KT 190V270 9999NDV FEW015/// BKN021/// BKN049/// 10/08 Q0981=
200910040750 METAR ESMX 040750Z AUTO 24013KT 200V260 9999NDV FEW008/// SCT013/// BKN018/// 09/08 Q0981=
200910040720 METAR ESMX 040720Z AUTO 23014G24KT 7000NDV -RA FEW008/// SCT010/// BKN013/// 09/08 Q0981=
200910040650 METAR ESMX 040650Z AUTO 21015KT 7000NDV RA FEW010/// BKN014/// BKN018/// 09/07 Q0980=
200910040620 METAR ESMX 040620Z AUTO 22020KT 6000NDV -RA FEW010/// SCT014/// BKN018/// 09/07 Q0981=
200910040550 METAR ESMX 040550Z AUTO 21014G24KT 7000NDV -DZ FEW012/// BKN015/// OVC018/// 09/07 Q0981=
200910040520 METAR ESMX 040520Z AUTO 21014KT 170V240 9000NDV -RA FEW014/// SCT018/// BKN025/// 09/07 Q0981=
200910040450 METAR ESMX 040450Z AUTO 21014KT 180V250 9999NDV FEW013/// SCT017/// BKN020/// 09/07 Q0982=
200910040420 METAR ESMX 040420Z AUTO 21013KT 9999NDV FEW011/// SCT017/// BKN023/// 09/07 Q0982=
200910040350 METAR ESMX 040350Z AUTO 22015KT 9999NDV FEW014/// SCT023/// BKN032/// 09/07 Q0982=
200910040320 METAR ESMX 040320Z AUTO 21015G25KT 170V230 9999NDV FEW011/// SCT014/// BKN017/// 09/07 Q0982=
200910040250 METAR ESMX 040250Z AUTO 21015G28KT 170V240 9000NDV -RA FEW010/// SCT015/// BKN021/// 09/08 Q0983=
200910040220 METAR ESMX 040220Z AUTO 21013KT 9999NDV FEW011/// SCT025/// BKN036/// 09/08 Q0983 RERA=
200910040150 METAR ESMX 040150Z AUTO 20014KT 6000NDV RA FEW011/// SCT013/// BKN015/// 09/08 Q0983=
200910040120 METAR ESMX 040120Z AUTO 21013KT 9999NDV FEW010/// SCT015/// BKN018/// 09/08 Q0983=
200910040050 METAR ESMX 040050Z AUTO 20015KT 9999NDV -RA FEW010/// BKN013/// BKN021/// 09/08 Q0984=
200910040020 METAR ESMX 040020Z AUTO 21013G23KT 7000NDV RA FEW008/// SCT012/// BKN015/// 09/08 Q0984=
200910032350 METAR ESMX 032350Z AUTO 21013KT 9999NDV -RA FEW008/// SCT014/// BKN016/// 09/08 Q0984=
200910032320 METAR ESMX 032320Z AUTO 21013G23KT 7000NDV -RA FEW008/// SCT011/// BKN015/// 09/08 Q0984=
200910032250 METAR ESMX 032250Z AUTO 20013KT 9999NDV FEW007/// SCT011/// BKN014/// 09/07 Q0984=
200910032220 METAR ESMX 032220Z AUTO 20013KT 9999NDV FEW008/// SCT012/// BKN039/// 08/07 Q0985=
200910032150 METAR ESMX 032150Z AUTO 20013KT 9999NDV DZ FEW008/// SCT010/// BKN013/// 08/07 Q0985=
200910032120 METAR ESMX 032120Z AUTO 20013KT 9999NDV FEW031/// 08/06 Q0985=
200910032050 METAR ESMX 032050Z AUTO 20011KT 9999NDV FEW049/// 08/06 Q0985 RERA=
200910032020 METAR ESMX 032020Z AUTO 21013KT 170V240 8000NDV -RA FEW026/// 08/06 Q0986 RESHRA=
200910031950 METAR ESMX 031950Z AUTO 21010KT 190V250 7000NDV RA FEW025/// 08/07 Q0987=
200910031920 METAR ESMX 031920Z AUTO 23007KT 9999NDV -DZ FEW029/// SCT048/// BKN055/// 08/07 Q0987=
200910031850 METAR ESMX 031850Z AUTO 25013KT 210V290 5000NDV -RA FEW010/// SCT013/// BKN027/// 08/07 Q0987=
200910031820 METAR ESMX 031820Z AUTO 20014G27KT 9999NDV FEW013/// SCT020/// BKN026/// 11/10 Q0986=
200910031750 METAR ESMX 031750Z 21013KT 9999 FEW013 SCT028 BKN060 11/10 Q0987 RERA=
200910031720 METAR ESMX 031720Z 21020KT 6000 RA FEW009 SCT015 BKN018 12/10 Q0987=
200910031650 METAR ESMX 031650Z 20020KT 9000 -RA FEW010 SCT015 BKN019 12/10 Q0987=
200910031620 METAR ESMX 031620Z 20018G28KT 9999 SCT010 BKN015 12/10 Q0988=
200910031550 METAR ESMX 031550Z 21021KT 9999 -RA SCT010 BKN020 12/10 Q0988=
200910031520 METAR COR ESMX 031520Z 19017KT 9999 FEW010 BKN013 OVC017 12/11 Q0989=
200910031450 METAR ESMX 031450Z 20017KT 9999 FEW010 BKN013 OVC018 12/11 Q0989=
200910031420 METAR ESMX 031420Z 19015KT 9999 FEW008 SCT011 BKN013 12/11 Q0990=
200910031350 METAR ESMX 031350Z 19015KT 150V220 9999 FEW006 SCT008 BKN010 12/11 Q0991 RESHRA=
200910031320 METAR ESMX 031320Z 19013KT 7000 RA FEW006 SCT008 BKN009 11/10 Q0991=
200910031250 METAR ESMX 031250Z 19014KT 9999 DZ SCT005 BKN009 11/10 Q0992=
200910031220 METAR ESMX 031220Z 18010KT 150V210 4900 DZ BKN004 OVC007 10/09 Q0993=
200910031150 METAR ESMX 031150Z 17009KT 9999 -RA OVC003 09/09 Q0993=
200910031120 METAR ESMX 031120Z 16009KT 9999 OVC003 09/08 Q0994=
200910031050 METAR ESMX 031050Z 17009KT 150V210 9999 -RA OVC002 08/07 Q0995=
200910031020 METAR ESMX 031020Z 16010KT 9999 -RA OVC003 08/07 Q0995=
200910030950 METAR ESMX 030950Z 16011KT 120V200 9999 -RA OVC004 06/05 Q0996=
200910030920 METAR ESMX 030920Z 15010KT 110V190 9999 -RA FEW004 BKN007 OVC009 06/05 Q0997 REDZ=
200910030850 METAR ESMX 030850Z 15008KT 110V200 7000 DZ BKN004 OVC009 05/05 Q0998=
200910030820 METAR ESMX 030820Z 14006KT 100V200 9000 -RA FEW004 SCT005 BKN015 05/04 Q0999=
200910030750 METAR ESMX 030750Z 15006KT 110V180 8000 -RA SCT010 BKN017 04/04 Q1000=
200910030720 METAR ESMX 030720Z 15006KT 110V170 8000 -RA FEW014 SCT025 BKN090 04/03 Q1001 REDZ=
200910030650 METAR ESMX 030650Z 16006KT 120V190 9000 DZ FEW013 BKN035 04/03 Q1002=
200910030620 METAR COR ESMX 030620Z 16005KT 130V200 9999 DZ BKN035 03/03 Q1002=
200910030550 METAR ESMX 030550Z AUTO 15005KT 110V190 9999NDV FEW032/// 03/02 Q1003=
200910030520 METAR ESMX 030520Z AUTO 15005KT 120V190 9999NDV NCD 03/02 Q1003=
200910030450 METAR ESMX 030450Z AUTO 16006KT 9999NDV NCD 03/02 Q1004=
200910030420 METAR ESMX 030420Z AUTO 16005KT 9999NDV NCD 02/02 Q1005=
200910030350 METAR ESMX 030350Z AUTO 16004KT 9999NDV NCD 02/02 Q1005=
200910030320 METAR ESMX 030320Z AUTO 16004KT 9999NDV NCD 02/01 Q1006=
200910030250 METAR ESMX 030250Z AUTO 17004KT 9999NDV SCT035/// 02/01 Q1006=
200910030220 METAR ESMX 030220Z AUTO 15005KT 9999NDV FEW035/// 01/01 Q1006=
200910030150 METAR ESMX 030150Z AUTO 17004KT 9999NDV NCD 01/01 Q1006=
200910030120 METAR ESMX 030120Z AUTO 16004KT 9999NDV NCD 01/01 Q1007=
200910030050 METAR ESMX 030050Z AUTO 16003KT 9999NDV NCD M00/M01 Q1007=
200910030020 METAR ESMX 030020Z AUTO 16003KT 9999NDV NCD M00/M01 Q1008=
200910022350 METAR ESMX 022350Z AUTO 20004KT 9999NDV NCD M01/M02 Q1008=
200910022320 METAR ESMX 022320Z AUTO VRB01KT 9999NDV NCD M01/M01 Q1008=
200910022250 METAR ESMX 022250Z AUTO 14001KT 9999NDV NCD M00/M01 Q1008=
200910022220 METAR ESMX 022220Z AUTO 21003KT 9999NDV NCD 00/M00 Q1008=
200910022150 METAR ESMX 022150Z AUTO 23003KT 9999NDV NCD 00/M01 Q1008=
200910022120 METAR ESMX 022120Z AUTO 23003KT 9999NDV NCD 01/M00 Q1008=
200910022050 METAR ESMX 022050Z AUTO 23003KT 9999NDV NCD 01/M01 Q1008=
200910022020 METAR ESMX 022020Z AUTO 24004KT 9999NDV NCD 01/M01 Q1008=
200910021950 METAR ESMX 021950Z AUTO 23005KT 9999NDV NCD 01/M00 Q1008=
200910021920 METAR ESMX 021920Z AUTO VRB04KT 9999NDV NCD 01/M01 Q1008=
200910021850 METAR ESMX 021850Z AUTO 22004KT 9999NDV NCD 00/M01 Q1008=
200910021820 METAR ESMX 021820Z 20003KT CAVOK 01/M00 Q1008=
200910021750 METAR ESMX 021750Z 18003KT CAVOK 01/M00 Q1008=
200910021720 METAR ESMX 021720Z 23002KT CAVOK 02/M00 Q1008=
200910021650 METAR ESMX 021650Z VRB02G20KT CAVOK 04/01 Q1007=
200910021620 METAR ESMX 021620Z 27003KT 240V320 CAVOK 06/00 Q1007=
200910021550 METAR ESMX 021550Z 30004KT CAVOK 07/01 Q1007=
200910021520 METAR ESMX 021520Z 30003KT CAVOK 08/M00 Q1007=
200910021450 METAR ESMX 021450Z 31003KT 270V350 CAVOK 10/M00 Q1006=
200910021420 METAR ESMX 021420Z 27003KT 250V310 CAVOK 09/00 Q1006=
200910021350 METAR ESMX 021350Z 30005KT 280V360 CAVOK 09/M00 Q1006=
200910021320 METAR ESMX 021320Z VRB02KT CAVOK 10/00 Q1006=
200910021250 METAR ESMX 021250Z 34003KT 300V010 CAVOK 09/M00 Q1006=
200910021220 METAR ESMX 021220Z 32002KT 9999 SCT040CB 08/01 Q1006=
200910021150 METAR ESMX 021150Z 36003KT 310V040 CAVOK 09/01 Q1006=
200910021120 METAR ESMX 021120Z 33004KT 290V010 CAVOK 09/01 Q1006=
200910021050 METAR ESMX 021050Z 02005KT 340V060 CAVOK 09/02 Q1006=
200910021020 METAR ESMX 021020Z 02004KT 320V060 CAVOK 08/02 Q1006=
200910020950 METAR ESMX 020950Z 32003KT 280V020 CAVOK 08/02 Q1006=
200910020920 METAR ESMX 020920Z 26003KT 220V330 CAVOK 07/02 Q1006=
200910020850 METAR ESMX 020850Z 28003KT CAVOK 06/03 Q1006=
200910020820 METAR ESMX 020820Z 29004KT 250V320 CAVOK 05/03 Q1006=
200910020750 METAR ESMX 020750Z VRB01KT CAVOK 05/03 Q1006=
200910020720 METAR ESMX 020720Z 25002KT CAVOK 04/03 Q1005=
200910020650 METAR ESMX 020650Z 27003KT 9999 FEW034 01/01 Q1005=
200910020620 METAR ESMX 020620Z 24005KT CAVOK M01/M01 Q1005=
200910020550 METAR ESMX 020550Z 19001KT 9999 BCFG FEW035 M02/M02 Q1005=
200910020520 METAR ESMX 020520Z 00000KT 9999 FEW035 M00/M01 Q1005=
200910020450 METAR ESMX 020450Z 24004KT 9999 FEW031 M01/M02 Q1005=
200910020420 METAR ESMX 020420Z 24004KT CAVOK M01/M01 Q1005=
200910020320 METAR ESMX 020320Z AUTO 25004KT 9999NDV NCD M01/M01 Q1005=
200910020250 METAR ESMX 020250Z AUTO 24004KT 9999NDV NCD M01/M02 Q1005=
200910020220 METAR ESMX 020220Z AUTO 20002KT 9999NDV NCD 00/M00 Q1005=
200910020150 METAR ESMX 020150Z AUTO 24003KT 9999NDV NCD 00/M00 Q1004=
200910020120 METAR ESMX 020120Z AUTO 25004KT 9999NDV NCD M00/M01 Q1004=
200910020050 METAR ESMX 020050Z AUTO 24003KT 9999NDV NCD M00/M01 Q1005=
200910020020 METAR ESMX 020020Z AUTO 25003KT 230V290 9999NDV NCD 01/00 Q1004=
200910012350 METAR ESMX 012350Z AUTO 26004KT 9999NDV NCD 01/01 Q1005=
200910012320 METAR ESMX 012320Z 25003KT CAVOK 01/00 Q1004=
200910012220 METAR COR ESMX 012220Z 24003KT 9999 FEW042 SCT048 02/01 Q1004=
200910012150 METAR ESMX 012150Z 23003KT 9999 FEW042 02/01 Q1004=
200910012120 METAR ESMX 012120Z 26003KT 9999 FEW039 01/00 Q1004=
200910012050 METAR ESMX 012050Z 25004KT CAVOK 00/M01 Q1004=
200910012020 METAR ESMX 012020Z 30003KT 280V340 9999 FEW035 02/00 Q1004=
200910011950 METAR ESMX 011950Z 29004KT 9999 FEW035 03/01 Q1003=
200910011920 METAR ESMX 011920Z 30004KT CAVOK 03/01 Q1003=
200910011850 METAR ESMX 011850Z 29006KT CAVOK 03/01 Q1003=
200910011820 METAR ESMX 011820Z 29004KT CAVOK 03/01 Q1002=
200910011750 METAR ESMX 011750Z 30005KT CAVOK 04/02 Q1002=
200910011720 METAR ESMX 011720Z 31007KT 280V340 CAVOK 05/02 Q1002=
200910011650 METAR ESMX 011650Z 31009KT 9999 FEW025 06/02 Q1001=
200910011620 METAR ESMX 011620Z 31008KT 9999 FEW030 06/02 Q1001=
200910011550 METAR ESMX 011550Z 32008KT 9999 FEW025 SCT050 07/02 Q1000=
200910011520 METAR ESMX 011520Z 31008KT 290V350 9999 FEW025 SCT050 06/03 Q0999=
200910011450 METAR ESMX 011450Z 34012KT 9999 FEW017 SCT035 06/02 Q0999=
200910011420 METAR ESMX 011420Z 35014KT 9999 FEW017 SCT024 06/03 Q0998=
200910011350 METAR ESMX 011350Z 35015KT 9999 FEW012 SCT020 BKN035 06/04 Q0997=
200910011320 METAR ESMX 011320Z 31012KT 290V350 9999 FEW016CB SCT025 BKN035 06/04 Q0996=
200910011250 METAR ESMX 011250Z 31015KT 9999 SHRA FEW014CB SCT030 08/03 Q0995=
200910011220 METAR ESMX 011220Z 29015G25KT 240V330 9999 SCT035CB 10/02 Q0995=
