##########################################################
# Query made at 04/19/2024 21:10:30 UTC
# Time interval: from 06/01/2009 12:00  to 06/30/2009 12:59  UTC
##########################################################

##########################################################
# ESMX, Vaxjo (Sweden)
# WMO index: 02641. WIGOS ID: 0-20000-0-02648
# Latitude 56-51N. Longitude 014-50E. Altitude 199 m.
##########################################################

200906301250 METAR ESMX 301250Z 17004KT 120V210 9999 FEW030CB SCT045 20/18 Q1023=
200906301220 METAR ESMX 301220Z 18005KT 9000 -SHRA FEW040CB SCT050 21/19 Q1022=
200906301150 METAR ESMX 301150Z 19003KT 160V250 9000 SHRA FEW040CB SCT050 20/18 Q1022=
200906301120 METAR ESMX 301120Z 24003KT 190V270 9000 SHRA FEW040CB SCT050 20/19 Q1023=
200906301050 METAR ESMX 301050Z 16006KT 130V190 8000 SHRA FEW030CB SCT050 21/19 Q1022=
200906301020 METAR ESMX 301020Z 18011KT 5000 R01/P2000N R19/P2000D +RA FEW030CB BKN060 21/18 Q1023=
200906300950 METAR ESMX 300950Z 06005KT 010V120 9999 FEW036 SCT041 BKN060 24/17 Q1022=
200906300920 METAR ESMX 300920Z 03005KT 360V070 9999 FEW033 SCT060 23/17 Q1022=
200906300850 METAR ESMX 300850Z 04006KT 010V080 9999 FEW030 24/17 Q1022=
200906300820 METAR ESMX 300820Z 36004KT 330V050 9999 FEW042 BKN059 23/16 Q1022=
200906300750 METAR ESMX 300750Z 35005KT 310V020 CAVOK 22/15 Q1022=
200906300720 METAR ESMX 300720Z 04005KT 010V070 9999 FEW032 SCT076 21/15 Q1022=
200906300650 METAR ESMX 300650Z 05005KT 360V080 9999 FEW040 SCT051 21/14 Q1022=
200906300620 METAR ESMX 300620Z 05005KT 020V090 9999 SCT025 20/14 Q1022=
200906300550 METAR ESMX 300550Z 04005KT 9999 OVC025 18/13 Q1022=
200906300520 METAR ESMX 300520Z 05005KT 020V090 9999 OVC024 17/13 Q1022=
200906300450 METAR ESMX 300450Z 04004KT 010V070 9999 OVC025 17/13 Q1022=
200906300420 METAR ESMX 300420Z 03004KT 9999 OVC025 17/13 Q1022=
200906300350 METAR ESMX 300350Z 04004KT 9999 OVC030 17/13 Q1022=
200906300320 METAR ESMX 300320Z AUTO 04004KT 010V080 9999NDV OVC027/// 16/12 Q1022=
200906300250 METAR ESMX 300250Z AUTO 04004KT 9999NDV OVC031/// 16/12 Q1022=
200906300220 METAR ESMX 300220Z AUTO 03003KT 340V080 9999NDV BKN032/// OVC039/// 16/12 Q1022=
200906300150 METAR ESMX 300150Z AUTO 04003KT 010V080 9999NDV SCT034/// BKN042/// 16/11 Q1022=
200906300120 METAR ESMX 300120Z AUTO 04003KT 9999NDV FEW037/// 16/11 Q1022=
200906300050 METAR ESMX 300050Z AUTO VRB01KT 9999NDV NCD 15/11 Q1022=
200906300020 METAR ESMX 300020Z AUTO 03004KT 9999NDV NCD 16/11 Q1022=
200906292350 METAR ESMX 292350Z 02005KT CAVOK 16/11 Q1022=
200906292320 METAR ESMX 292320Z 02003KT CAVOK 15/11 Q1022=
200906292250 METAR ESMX 292250Z 03002KT CAVOK 16/10 Q1023=
200906292220 METAR ESMX 292220Z 05002KT CAVOK 17/10 Q1023=
200906292150 METAR ESMX 292150Z 07003KT CAVOK 18/10 Q1023=
200906292120 METAR ESMX 292120Z 05004KT 020V110 CAVOK 19/10 Q1023=
200906292050 METAR ESMX 292050Z 07004KT 030V110 CAVOK 20/11 Q1023=
200906292020 METAR ESMX 292020Z 08003KT 040V120 CAVOK 21/11 Q1022=
200906291950 METAR ESMX 291950Z 09004KT 040V140 CAVOK 22/10 Q1022=
200906291920 METAR ESMX 291920Z 09005KT 050V140 CAVOK 23/09 Q1022=
200906291850 METAR ESMX 291850Z 10005KT 050V160 CAVOK 24/09 Q1022=
200906291820 METAR ESMX 291820Z 08006KT 020V130 CAVOK 25/09 Q1021=
200906291750 METAR ESMX 291750Z 08005KT 030V120 CAVOK 25/09 Q1021=
200906291720 METAR ESMX 291720Z 07005KT 040V110 CAVOK 26/08 Q1021=
200906291650 METAR ESMX 291650Z 07006KT 020V140 CAVOK 26/08 Q1021=
200906291620 METAR ESMX 291620Z 05006KT 020V110 CAVOK 27/08 Q1021=
200906291550 METAR ESMX 291550Z 07007KT 030V150 CAVOK 27/07 Q1021=
200906291520 METAR ESMX 291520Z 05009KT 360V110 CAVOK 27/08 Q1021=
200906291450 METAR ESMX 291450Z 06009KT 020V110 CAVOK 27/08 Q1021=
200906291420 METAR ESMX 291420Z 06008KT 010V110 CAVOK 27/09 Q1021=
200906291350 METAR ESMX 291350Z 09008KT 010V140 CAVOK 27/09 Q1021=
200906291320 METAR ESMX 291320Z 09008KT 020V140 CAVOK 27/09 Q1021=
200906291250 METAR ESMX 291250Z 08008KT 020V170 CAVOK 27/09 Q1021=
200906291220 METAR ESMX 291220Z 09009KT 030V140 CAVOK 27/09 Q1022=
200906291150 METAR ESMX 291150Z 08007KT 030V150 CAVOK 27/09 Q1022=
200906291120 METAR ESMX 291120Z 10008KT 020V160 CAVOK 26/09 Q1022=
200906291050 METAR ESMX 291050Z 07009KT 020V110 CAVOK 26/10 Q1022=
200906291020 METAR ESMX 291020Z 06009KT 020V110 CAVOK 26/11 Q1022=
200906290950 METAR ESMX 290950Z 08009KT 020V120 CAVOK 25/11 Q1022=
200906290920 METAR ESMX 290920Z 07010KT 020V110 CAVOK 25/11 Q1022=
200906290850 METAR ESMX 290850Z 07008KT 030V120 CAVOK 24/11 Q1022=
200906290820 METAR ESMX 290820Z 08006KT 020V130 CAVOK 24/11 Q1022=
200906290750 METAR COR ESMX 290750Z 07007KT 020V120 CAVOK 23/11 Q1022=
200906290720 METAR ESMX 290720Z 04006KT 010V110 CAVOK 22/10 Q1022=
200906290650 METAR ESMX 290650Z 04006KT 010V090 CAVOK 20/10 Q1022=
200906290620 METAR ESMX 290620Z 05006KT 360V090 CAVOK 19/10 Q1022=
200906290550 METAR ESMX 290550Z 03007KT 340V060 CAVOK 19/10 Q1022=
200906290520 METAR ESMX 290520Z 05005KT 010V100 CAVOK 18/10 Q1021=
200906290450 METAR ESMX 290450Z 05005KT CAVOK 17/10 Q1021=
200906290420 METAR ESMX 290420Z 06005KT CAVOK 16/10 Q1021=
200906290350 METAR ESMX 290350Z 05003KT CAVOK 15/10 Q1021=
200906290320 METAR ESMX 290320Z 03004KT CAVOK 14/09 Q1021=
200906290250 METAR ESMX 290250Z AUTO 05004KT 010V080 9999NDV NCD 14/10 Q1021=
200906290220 METAR ESMX 290220Z AUTO 03005KT 9999NDV NCD 13/10 Q1021=
200906290150 METAR ESMX 290150Z AUTO 04003KT 350V060 9999NDV NCD 13/10 Q1022=
200906290120 METAR ESMX 290120Z AUTO 36002KT 9999NDV NCD 12/09 Q1022=
200906290050 METAR ESMX 290050Z AUTO 04002KT 9999NDV NCD 11/09 Q1022=
200906290020 METAR ESMX 290020Z AUTO 04002KT 9999NDV NCD 13/09 Q1021=
200906282350 METAR ESMX 282350Z 00000KT CAVOK 13/09 Q1021=
200906282320 METAR ESMX 282320Z 05003KT CAVOK 14/10 Q1021=
200906282250 METAR ESMX 282250Z VRB01KT CAVOK 13/09 Q1021=
200906282220 METAR ESMX 282220Z VRB02KT CAVOK 15/10 Q1021=
200906282150 METAR ESMX 282150Z 04003KT CAVOK 16/10 Q1021=
200906282120 METAR ESMX 282120Z VRB02KT CAVOK 17/10 Q1021=
200906282050 METAR ESMX 282050Z VRB02KT CAVOK 18/10 Q1021=
200906282020 METAR ESMX 282020Z VRB02KT CAVOK 19/09 Q1021=
200906281950 METAR ESMX 281950Z 09003KT CAVOK 21/09 Q1020=
200906281920 METAR ESMX 281920Z 09004KT 030V130 CAVOK 22/08 Q1020=
200906281850 METAR ESMX 281850Z 06005KT 010V120 CAVOK 23/09 Q1020=
200906281820 METAR ESMX 281820Z 06007KT 010V130 CAVOK 24/08 Q1020=
200906281750 METAR ESMX 281750Z 06008KT 020V100 CAVOK 25/08 Q1020=
200906281720 METAR ESMX 281720Z 07006KT 030V140 CAVOK 25/08 Q1020=
200906281650 METAR ESMX 281650Z 06009KT 020V120 CAVOK 25/07 Q1020=
200906281620 METAR ESMX 281620Z 08008KT 040V140 CAVOK 26/08 Q1020=
200906281550 METAR ESMX 281550Z 06007KT 020V100 CAVOK 26/07 Q1020=
200906281520 METAR ESMX 281520Z 08008KT 030V120 CAVOK 26/08 Q1020=
200906281450 METAR ESMX 281450Z 09008KT 030V150 CAVOK 27/09 Q1020=
200906281420 METAR ESMX 281420Z 10009KT 050V140 CAVOK 27/08 Q1020=
200906281350 METAR ESMX 281350Z 05010KT 360V080 CAVOK 27/08 Q1020=
200906281320 METAR ESMX 281320Z 07010KT 020V110 CAVOK 27/08 Q1020=
200906281250 METAR ESMX 281250Z 06009KT 010V140 CAVOK 27/08 Q1020=
200906281220 METAR ESMX 281220Z 06011KT 020V120 CAVOK 27/08 Q1020=
200906281150 METAR ESMX 281150Z 07009KT 020V110 CAVOK 26/09 Q1020=
200906281120 METAR ESMX 281120Z 05010KT 020V100 CAVOK 26/08 Q1020=
200906281050 METAR ESMX 281050Z 04009KT 350V090 CAVOK 25/08 Q1020=
200906281020 METAR ESMX 281020Z AUTO 04009KT 010V090 9999NDV NCD 25/08 Q1020=
200906280950 METAR ESMX 280950Z AUTO 05009KT 020V090 9999NDV NCD 25/07 Q1020=
200906280920 METAR ESMX 280920Z AUTO 05008KT 010V080 9999NDV NCD 25/09 Q1021=
200906280850 METAR ESMX 280850Z AUTO 01008KT 340V050 9999NDV NCD 24/09 Q1021=
200906280820 METAR ESMX 280820Z AUTO 02007KT 340V060 9999NDV NCD 23/09 Q1021=
200906280750 METAR ESMX 280750Z AUTO 02006KT 340V070 9999NDV NCD 22/10 Q1021=
200906280720 METAR ESMX 280720Z AUTO 04005KT 340V100 9999NDV NCD 20/11 Q1021=
200906280650 METAR ESMX 280650Z AUTO 04004KT 350V080 9999NDV NCD 20/10 Q1021=
200906280620 METAR ESMX 280620Z AUTO 02005KT 330V070 9999NDV NCD 19/11 Q1021=
200906280550 METAR ESMX 280550Z AUTO 01005KT 320V030 9999NDV NCD 18/11 Q1021=
200906280520 METAR ESMX 280520Z AUTO 01005KT 9999NDV NCD 17/10 Q1021=
200906280450 METAR ESMX 280450Z AUTO 02004KT 350V060 9999NDV NCD 16/10 Q1021=
200906280420 METAR ESMX 280420Z AUTO 01006KT 9999NDV NCD 14/10 Q1021=
200906280350 METAR ESMX 280350Z AUTO 01008KT 9999NDV NCD 12/10 Q1021=
200906280320 METAR ESMX 280320Z AUTO 02003KT 9999NDV NCD 12/10 Q1021=
200906280250 METAR ESMX 280250Z AUTO 02003KT 9999NDV NCD 11/09 Q1021=
200906280220 METAR ESMX 280220Z AUTO 03003KT 9000NDV NCD 11/09 Q1021=
200906280150 METAR ESMX 280150Z AUTO 02003KT 9999NDV NCD 12/10 Q1021=
200906280120 METAR ESMX 280120Z AUTO 03004KT 9999NDV NCD 12/09 Q1021=
200906280050 METAR ESMX 280050Z AUTO 03004KT 9999NDV NCD 12/09 Q1021=
200906280020 METAR ESMX 280020Z AUTO 03004KT 9999NDV NCD 13/09 Q1021=
200906272350 METAR ESMX 272350Z AUTO 03004KT 9999NDV NCD 14/09 Q1021=
200906272320 METAR ESMX 272320Z AUTO 03005KT 9999NDV NCD 15/09 Q1021=
200906272250 METAR ESMX 272250Z AUTO 04005KT 360V070 9999NDV NCD 15/09 Q1021=
200906272220 METAR ESMX 272220Z AUTO 04005KT 360V060 9999NDV NCD 16/09 Q1022=
200906272150 METAR ESMX 272150Z AUTO 04004KT 010V090 9999NDV NCD 16/09 Q1022=
200906272120 METAR ESMX 272120Z AUTO 05003KT 020V090 9999NDV NCD 17/09 Q1022=
200906272050 METAR ESMX 272050Z AUTO 05004KT 010V080 9999NDV NCD 18/08 Q1022=
200906272020 METAR ESMX 272020Z AUTO 04005KT 010V080 9999NDV NCD 19/08 Q1021=
200906271950 METAR ESMX 271950Z AUTO 06005KT 010V100 9999NDV NCD 20/07 Q1021=
200906271920 METAR ESMX 271920Z AUTO 04005KT 010V100 9999NDV NCD 20/08 Q1021=
200906271850 METAR ESMX 271850Z AUTO 04006KT 010V080 9999NDV NCD 21/07 Q1021=
200906271820 METAR ESMX 271820Z AUTO 04007KT 010V080 9999NDV NCD 22/07 Q1021=
200906271750 METAR ESMX 271750Z AUTO 05011KT 020V090 9999NDV NCD 23/06 Q1021=
200906271720 METAR ESMX 271720Z AUTO 05008G18KT 360V100 9999NDV NCD 24/06 Q1021=
200906271650 METAR ESMX 271650Z 04011KT 010V080 CAVOK 24/05 Q1021=
200906271620 METAR ESMX 271620Z 04012KT 010V080 CAVOK 24/05 Q1021=
200906271550 METAR ESMX 271550Z 05011KT 010V100 CAVOK 25/06 Q1021=
200906271520 METAR ESMX 271520Z AUTO 04012KT 010V080 9999NDV NCD 25/06 Q1021=
200906271450 METAR ESMX 271450Z AUTO 05010KT 010V110 9999NDV NCD 25/06 Q1021=
200906271420 METAR ESMX 271420Z AUTO 04016KT 9999NDV NCD 25/06 Q1021=
200906271350 METAR ESMX 271350Z AUTO 05011KT 010V080 9999NDV NCD 25/06 Q1021=
200906271320 METAR ESMX 271320Z AUTO 04011KT 360V080 9999NDV FEW071/// 25/06 Q1021=
200906271250 METAR ESMX 271250Z AUTO 05011KT 020V110 9999NDV FEW068/// 25/08 Q1021=
200906271220 METAR ESMX 271220Z AUTO 02012KT 350V060 9999NDV NCD 25/08 Q1021=
200906271150 METAR ESMX 271150Z AUTO 05011KT 020V080 9999NDV FEW061/// 24/08 Q1021=
200906271120 METAR ESMX 271120Z AUTO 06012KT 020V100 9999NDV FEW060/// 25/08 Q1021=
200906271050 METAR ESMX 271050Z AUTO 06010G20KT 020V110 9999NDV NCD 24/09 Q1022=
200906271020 METAR ESMX 271020Z AUTO 04012KT 350V090 9999NDV NCD 23/10 Q1022=
200906270950 METAR ESMX 270950Z AUTO 06010KT 010V100 9999NDV FEW050/// 23/10 Q1022=
200906270920 METAR ESMX 270920Z AUTO 05009KT 010V090 9999NDV NCD 23/10 Q1022=
200906270850 METAR ESMX 270850Z AUTO 04009KT 350V100 9999NDV NCD 22/10 Q1022=
200906270820 METAR ESMX 270820Z AUTO 05010KT 360V090 9999NDV NCD 21/11 Q1022=
200906270750 METAR ESMX 270750Z AUTO 05009KT 020V100 9999NDV NCD 21/11 Q1023=
200906270720 METAR ESMX 270720Z AUTO 06010KT 010V110 9999NDV NCD 20/11 Q1022=
200906270650 METAR ESMX 270650Z AUTO 05009KT 010V100 9999NDV NCD 19/11 Q1022=
200906270620 METAR ESMX 270620Z AUTO 05009KT 020V080 9999NDV NCD 18/11 Q1023=
200906270550 METAR ESMX 270550Z AUTO 06007KT 360V090 9999NDV NCD 17/12 Q1023=
200906270520 METAR ESMX 270520Z AUTO 05007KT 020V080 9999NDV NCD 16/11 Q1023=
200906270450 METAR ESMX 270450Z AUTO 04007KT 360V100 9999NDV NCD 16/11 Q1023=
200906270420 METAR ESMX 270420Z AUTO 04005KT 360V080 9999NDV NCD 15/11 Q1023=
200906270350 METAR ESMX 270350Z AUTO 04005KT 010V070 9999NDV NCD 14/11 Q1022=
200906270320 METAR ESMX 270320Z AUTO 03009KT 9999NDV NCD 13/11 Q1022=
200906270250 METAR ESMX 270250Z AUTO 03010KT 350V060 9999NDV NCD 13/11 Q1023=
200906270220 METAR ESMX 270220Z AUTO 03007KT 360V070 9999NDV NCD 13/10 Q1023=
200906270150 METAR ESMX 270150Z AUTO 04004KT 350V080 9999NDV NCD 13/10 Q1023=
200906270120 METAR ESMX 270120Z AUTO 04008KT 330V080 9999NDV NCD 13/10 Q1023=
200906270050 METAR ESMX 270050Z AUTO 03009KT 9999NDV NCD 14/10 Q1023=
200906270020 METAR ESMX 270020Z AUTO 02007KT 9999NDV NCD 13/10 Q1023=
200906262350 METAR ESMX 262350Z AUTO 03007KT 9999NDV NCD 14/10 Q1023=
200906262320 METAR ESMX 262320Z AUTO 04008KT 360V080 9999NDV NCD 14/10 Q1024=
200906262250 METAR ESMX 262250Z AUTO 04008KT 010V080 9999NDV NCD 15/09 Q1024=
200906262220 METAR ESMX 262220Z AUTO 04007KT 010V080 9999NDV NCD 15/09 Q1024=
200906262150 METAR ESMX 262150Z AUTO 04007KT 9999NDV NCD 15/09 Q1024=
200906262120 METAR ESMX 262120Z AUTO 04008KT 010V080 9999NDV NCD 15/10 Q1024=
200906262050 METAR ESMX 262050Z AUTO 04009KT 360V080 9999NDV NCD 16/10 Q1024=
200906262020 METAR ESMX 262020Z AUTO 05008KT 020V080 9999NDV NCD 17/10 Q1024=
200906261950 METAR ESMX 261950Z AUTO 04007KT 010V090 9999NDV NCD 17/09 Q1024=
200906261920 METAR ESMX 261920Z AUTO 05010KT 010V100 9999NDV NCD 18/09 Q1024=
200906261850 METAR ESMX 261850Z AUTO 06011KT 340V100 9999NDV FEW043/// 18/09 Q1023=
200906261820 METAR ESMX 261820Z AUTO 07010KT 020V110 9999NDV FEW043/// 18/09 Q1023=
200906261750 METAR ESMX 261750Z AUTO 05011KT 360V110 9999NDV FEW043/// 19/09 Q1023=
200906261720 METAR ESMX 261720Z 07011KT 020V120 9999 FEW040 19/09 Q1023=
200906261650 METAR ESMX 261650Z 05010G20KT 350V110 9999 FEW039 19/10 Q1023=
200906261620 METAR ESMX 261620Z 08012G24KT 030V150 9999 FEW040 20/10 Q1023=
200906261550 METAR ESMX 261550Z 08012KT 030V140 9999 FEW041 20/10 Q1023=
200906261520 METAR ESMX 261520Z 07013G23KT 030V130 CAVOK 21/10 Q1023=
200906261450 METAR ESMX 261450Z 06012KT 020V100 CAVOK 21/09 Q1023=
200906261420 METAR ESMX 261420Z 07011KT 020V140 CAVOK 21/09 Q1024=
200906261350 METAR ESMX 261350Z 06012G24KT 010V110 CAVOK 21/09 Q1024=
200906261320 METAR ESMX 261320Z 06014KT 020V110 CAVOK 21/09 Q1024=
200906261250 METAR ESMX 261250Z 07010KT 020V120 CAVOK 22/09 Q1024=
200906261220 METAR ESMX 261220Z 08011KT 030V150 CAVOK 22/08 Q1024=
200906261150 METAR ESMX 261150Z 07010KT 030V120 CAVOK 22/09 Q1024=
200906261120 METAR ESMX 261120Z 05013KT 010V100 CAVOK 21/09 Q1024=
200906261050 METAR ESMX 261050Z 07012KT 030V110 CAVOK 22/09 Q1024=
200906261020 METAR ESMX 261020Z 06011KT 020V120 CAVOK 22/09 Q1024=
200906260950 METAR ESMX 260950Z 07012G22KT 020V110 CAVOK 22/10 Q1024=
200906260920 METAR ESMX 260920Z 05013KT 010V080 CAVOK 22/09 Q1024=
200906260850 METAR ESMX 260850Z 05012KT 020V110 CAVOK 22/09 Q1023=
200906260820 METAR ESMX 260820Z 05011KT 010V100 CAVOK 21/10 Q1023=
200906260750 METAR ESMX 260750Z 04012KT 350V080 CAVOK 21/10 Q1023=
200906260720 METAR ESMX 260720Z 06009KT 030V100 CAVOK 21/11 Q1023=
200906260650 METAR ESMX 260650Z 05010KT 010V080 CAVOK 20/11 Q1023=
200906260620 METAR ESMX 260620Z 05009KT 010V090 CAVOK 19/12 Q1023=
200906260550 METAR ESMX 260550Z 04010KT 010V070 CAVOK 18/12 Q1024=
200906260520 METAR ESMX 260520Z 05009KT 020V090 CAVOK 17/11 Q1024=
200906260450 METAR ESMX 260450Z 05008KT 020V120 CAVOK 16/11 Q1024=
200906260420 METAR ESMX 260420Z 05008KT 010V080 CAVOK 15/11 Q1023=
200906260350 METAR ESMX 260350Z 05008KT 020V090 CAVOK 15/11 Q1023=
200906260320 METAR ESMX 260320Z AUTO 04007KT 020V130 9999NDV NCD 14/11 Q1023=
200906260250 METAR ESMX 260250Z AUTO 04008KT 9999NDV NCD 14/11 Q1023=
200906260220 METAR ESMX 260220Z AUTO 04008KT 010V080 9999NDV NCD 14/11 Q1023=
200906260150 METAR ESMX 260150Z AUTO 04008KT 020V090 9999NDV NCD 14/11 Q1023=
200906260120 METAR ESMX 260120Z AUTO 04006KT 020V080 9999NDV NCD 14/11 Q1023=
200906260050 METAR ESMX 260050Z AUTO 05008KT 020V100 9999NDV NCD 15/11 Q1023=
200906260020 METAR ESMX 260020Z AUTO 04009KT 020V080 9999NDV NCD 15/11 Q1023=
200906252350 METAR ESMX 252350Z 05008KT 020V090 CAVOK 15/11 Q1023=
200906252320 METAR ESMX 252320Z 05008KT 020V080 CAVOK 16/11 Q1023=
200906252250 METAR ESMX 252250Z 04008KT 020V080 CAVOK 16/11 Q1023=
200906252220 METAR ESMX 252220Z 04009KT CAVOK 16/11 Q1023=
200906252150 METAR ESMX 252150Z 05006KT 010V080 CAVOK 16/11 Q1023=
200906252120 METAR ESMX 252120Z 05007KT 020V100 CAVOK 17/11 Q1023=
200906252050 METAR ESMX 252050Z 04008KT 340V070 CAVOK 17/11 Q1023=
200906252020 METAR ESMX 252020Z 04007KT 010V080 CAVOK 18/11 Q1023=
200906251950 METAR ESMX 251950Z 06010KT 030V120 CAVOK 19/11 Q1023=
200906251920 METAR ESMX 251920Z 06009KT 020V110 CAVOK 20/11 Q1023=
200906251850 METAR ESMX 251850Z 06009KT 020V100 CAVOK 20/11 Q1023=
200906251820 METAR ESMX 251820Z 05010KT 010V100 CAVOK 21/10 Q1023=
200906251750 METAR ESMX 251750Z 07010KT 020V110 CAVOK 22/10 Q1022=
200906251720 METAR ESMX 251720Z 07012KT 010V120 CAVOK 22/09 Q1022=
200906251650 METAR ESMX 251650Z 08008G18KT 030V110 CAVOK 22/10 Q1022=
200906251620 METAR ESMX 251620Z 08010KT 020V120 CAVOK 23/09 Q1022=
200906251550 METAR ESMX 251550Z 06011KT 010V120 CAVOK 23/08 Q1022=
200906251520 METAR ESMX 251520Z 08010KT 010V140 CAVOK 24/08 Q1022=
200906251450 METAR ESMX 251450Z 07012G24KT 020V110 CAVOK 24/09 Q1022=
200906251420 METAR ESMX 251420Z 08011KT 020V120 CAVOK 24/10 Q1022=
200906251350 METAR ESMX 251350Z 06011G21KT 360V110 CAVOK 24/10 Q1022=
200906251320 METAR ESMX 251320Z 05012KT 020V120 CAVOK 24/11 Q1022=
200906251250 METAR ESMX 251250Z 07012KT 020V100 CAVOK 24/11 Q1022=
200906251220 METAR ESMX 251220Z 08011KT 030V140 CAVOK 24/11 Q1022=
200906251150 METAR ESMX 251150Z 07011G21KT 020V130 CAVOK 23/11 Q1022=
200906251120 METAR ESMX 251120Z 06011G21KT 010V120 9999 SCT045 23/11 Q1022=
200906251050 METAR ESMX 251050Z 06011G21KT 030V120 9999 SCT045 23/11 Q1022=
200906251020 METAR ESMX 251020Z 05012KT 010V100 9999 FEW045 SCT055 22/11 Q1022=
200906250950 METAR ESMX 250950Z 05010KT 010V100 9999 FEW045 22/11 Q1023=
200906250920 METAR ESMX 250920Z 04011KT 010V080 CAVOK 22/11 Q1023=
200906250850 METAR ESMX 250850Z 04011KT 010V080 CAVOK 21/10 Q1023=
200906250820 METAR ESMX 250820Z 05011KT 020V080 CAVOK 21/11 Q1023=
200906250750 METAR ESMX 250750Z 05010KT 010V090 CAVOK 20/10 Q1023=
200906250720 METAR ESMX 250720Z 05011KT 010V080 CAVOK 20/10 Q1023=
200906250650 METAR ESMX 250650Z 03009KT 350V060 CAVOK 18/09 Q1023=
200906250620 METAR ESMX 250620Z 03009KT 360V060 CAVOK 17/09 Q1023=
200906250550 METAR ESMX 250550Z 03010KT 360V060 CAVOK 17/07 Q1023=
200906250520 METAR ESMX 250520Z 03009KT CAVOK 16/07 Q1023=
200906250450 METAR ESMX 250450Z 02010KT CAVOK 15/07 Q1023=
200906250420 METAR ESMX 250420Z 02009KT 330V060 CAVOK 15/07 Q1023=
200906250350 METAR ESMX 250350Z 03009KT CAVOK 14/08 Q1023=
200906250320 METAR ESMX 250320Z AUTO 03008KT 350V070 9999NDV NCD 13/08 Q1024=
200906250250 METAR ESMX 250250Z AUTO 02008KT 350V050 9999NDV NCD 13/08 Q1024=
200906250220 METAR ESMX 250220Z AUTO 03007KT 350V070 9999NDV NCD 13/08 Q1024=
200906250150 METAR ESMX 250150Z AUTO 03007KT 9999NDV NCD 13/08 Q1024=
200906250120 METAR ESMX 250120Z AUTO 02008KT 9999NDV NCD 13/08 Q1024=
200906250050 METAR ESMX 250050Z AUTO 03006KT 350V080 9999NDV NCD 14/08 Q1024=
200906250020 METAR ESMX 250020Z AUTO 03007KT 9999NDV NCD 14/08 Q1024=
200906242350 METAR ESMX 242350Z AUTO 02006KT 9999NDV NCD 14/08 Q1024=
200906242320 METAR ESMX 242320Z 02006KT CAVOK 14/07 Q1024=
200906242250 METAR ESMX 242250Z 04007KT 010V080 CAVOK 15/07 Q1025=
200906242220 METAR ESMX 242220Z 04006KT 010V070 CAVOK 16/07 Q1025=
200906242150 METAR ESMX 242150Z 04006KT 010V090 CAVOK 16/07 Q1025=
200906242120 METAR ESMX 242120Z 04008KT 010V070 CAVOK 17/07 Q1025=
200906242050 METAR ESMX 242050Z 05007KT 350V110 CAVOK 17/07 Q1025=
200906242020 METAR ESMX 242020Z 03007KT 360V060 CAVOK 18/08 Q1025=
200906241950 METAR ESMX 241950Z 05008KT 020V090 CAVOK 19/07 Q1025=
200906241920 METAR ESMX 241920Z 05009KT 020V110 CAVOK 20/07 Q1025=
200906241850 METAR ESMX 241850Z 04010KT 010V080 CAVOK 21/06 Q1024=
200906241820 METAR ESMX 241820Z 04010KT 010V090 CAVOK 21/05 Q1024=
200906241750 METAR ESMX 241750Z 02008KT 320V070 CAVOK 22/05 Q1024=
200906241720 METAR ESMX 241720Z 03011KT 360V070 CAVOK 22/05 Q1024=
200906241650 METAR ESMX 241650Z 05010KT 010V090 CAVOK 22/05 Q1025=
200906241620 METAR ESMX 241620Z 04010KT 010V080 CAVOK 23/06 Q1025=
200906241550 METAR ESMX 241550Z 05010KT 020V110 CAVOK 23/06 Q1025=
200906241520 METAR ESMX 241520Z 04012KT 020V080 CAVOK 24/07 Q1024=
200906241450 METAR ESMX 241450Z 02012KT 350V060 CAVOK 24/06 Q1024=
200906241420 METAR ESMX 241420Z 05013KT 010V090 CAVOK 24/06 Q1024=
200906241350 METAR ESMX 241350Z 07010G20KT 020V100 CAVOK 24/06 Q1024=
200906241320 METAR ESMX 241320Z 05013KT 020V080 CAVOK 24/05 Q1025=
200906241250 METAR ESMX 241250Z 05010KT 020V090 CAVOK 24/05 Q1025=
200906241220 METAR ESMX 241220Z 05011KT 010V110 CAVOK 24/05 Q1025=
200906241150 METAR ESMX 241150Z 04014KT 360V070 CAVOK 24/04 Q1025=
200906241120 METAR ESMX 241120Z 05010KT 020V080 CAVOK 24/06 Q1025=
200906241050 METAR ESMX 241050Z 04012KT 010V080 CAVOK 23/05 Q1025=
200906241020 METAR ESMX 241020Z 05012KT 010V090 CAVOK 23/05 Q1025=
200906240950 METAR ESMX 240950Z 05012KT 010V090 CAVOK 23/06 Q1025=
200906240920 METAR ESMX 240920Z 04011KT 010V100 CAVOK 22/05 Q1025=
200906240850 METAR ESMX 240850Z 05012KT 010V080 CAVOK 22/05 Q1026=
200906240820 METAR ESMX 240820Z 02011KT 340V070 CAVOK 21/06 Q1026=
200906240750 METAR ESMX 240750Z 02009KT 320V070 CAVOK 20/05 Q1026=
200906240720 METAR ESMX 240720Z 02008KT 350V050 CAVOK 19/05 Q1026=
200906240650 METAR ESMX 240650Z 03009KT CAVOK 18/05 Q1026=
200906240620 METAR ESMX 240620Z 36008KT CAVOK 18/07 Q1025=
200906240550 METAR ESMX 240550Z 02008KT CAVOK 16/06 Q1026=
200906240520 METAR ESMX 240520Z 03006KT CAVOK 15/07 Q1026=
200906240450 METAR ESMX 240450Z 03005KT 350V070 CAVOK 14/07 Q1026=
200906240420 METAR ESMX 240420Z 02004KT 350V050 CAVOK 13/07 Q1026=
200906240350 METAR ESMX 240350Z 01003KT CAVOK 10/07 Q1026=
200906240320 METAR ESMX 240320Z AUTO 36002KT 9999NDV NCD 08/06 Q1026=
200906240250 METAR ESMX 240250Z AUTO 01002KT 9999NDV NCD 07/06 Q1026=
200906240220 METAR ESMX 240220Z AUTO 04002KT 9999NDV NCD 08/05 Q1026=
200906240150 METAR ESMX 240150Z AUTO 34001KT 9999NDV NCD 07/05 Q1026=
200906240120 METAR ESMX 240120Z AUTO 36001KT 9999NDV NCD 08/05 Q1026=
200906240050 METAR ESMX 240050Z AUTO 36001KT 9999NDV NCD 08/05 Q1026=
200906240020 METAR ESMX 240020Z AUTO VRB01KT 9999NDV NCD 08/05 Q1026=
200906232350 METAR ESMX 232350Z AUTO 35001KT 9999NDV NCD 09/05 Q1026=
200906232320 METAR ESMX 232320Z 02002KT CAVOK 10/05 Q1026=
200906232250 METAR ESMX 232250Z 01001KT CAVOK 10/04 Q1026=
200906232220 METAR ESMX 232220Z 03001KT CAVOK 10/04 Q1026=
200906232150 METAR ESMX 232150Z 02001KT CAVOK 11/04 Q1027=
200906232120 METAR ESMX 232120Z 00000KT CAVOK 12/04 Q1026=
200906232050 METAR ESMX 232050Z 06002KT CAVOK 15/06 Q1026=
200906232020 METAR ESMX 232020Z VRB02KT CAVOK 16/03 Q1026=
200906231950 METAR ESMX 231950Z 04004KT 020V090 CAVOK 19/02 Q1026=
200906231920 METAR ESMX 231920Z 06004KT 020V120 CAVOK 20/04 Q1026=
200906231850 METAR ESMX 231850Z 06005KT 020V100 CAVOK 21/05 Q1026=
200906231820 METAR ESMX 231820Z 09005KT 050V140 CAVOK 22/05 Q1026=
200906231750 METAR ESMX 231750Z 08005KT 030V130 CAVOK 23/06 Q1026=
200906231720 METAR ESMX 231720Z 02005KT 350V060 CAVOK 23/07 Q1025=
200906231650 METAR ESMX 231650Z 01006KT 330V050 CAVOK 24/07 Q1025=
200906231620 METAR ESMX 231620Z 03007KT 350V070 CAVOK 24/07 Q1026=
200906231550 METAR ESMX 231550Z 05008KT 010V100 CAVOK 24/07 Q1026=
200906231520 METAR ESMX 231520Z 35007KT 300V020 CAVOK 24/07 Q1026=
200906231450 METAR ESMX 231450Z 05007KT 360V100 CAVOK 24/06 Q1026=
200906231420 METAR ESMX 231420Z 35007KT CAVOK 24/07 Q1026=
200906231350 METAR ESMX 231350Z 36007KT 330V030 CAVOK 24/06 Q1026=
200906231320 METAR ESMX 231320Z 36007KT CAVOK 24/07 Q1026=
200906231250 METAR ESMX 231250Z 04005KT 330V070 CAVOK 24/06 Q1027=
200906231220 METAR ESMX 231220Z 03008KT 360V080 CAVOK 23/07 Q1027=
200906231150 METAR ESMX 231150Z 36008KT 330V030 CAVOK 23/08 Q1027=
200906231120 METAR ESMX 231120Z 36009KT 330V030 CAVOK 23/08 Q1027=
200906231050 METAR ESMX 231050Z 35007KT 320V020 CAVOK 23/07 Q1027=
200906231020 METAR ESMX 231020Z 36008KT 300V020 CAVOK 22/08 Q1027=
200906230950 METAR ESMX 230950Z 01007KT 340V050 CAVOK 22/08 Q1027=
200906230920 METAR ESMX 230920Z 02008KT 340V070 CAVOK 21/09 Q1027=
200906230850 METAR ESMX 230850Z 01006KT 330V070 CAVOK 21/08 Q1027=
200906230820 METAR ESMX 230820Z 02005KT 320V070 CAVOK 20/09 Q1028=
200906230750 METAR ESMX 230750Z 36005KT 320V050 CAVOK 20/10 Q1028=
200906230720 METAR ESMX 230720Z 01006KT 330V030 CAVOK 19/10 Q1028=
200906230650 METAR ESMX 230650Z 36004KT CAVOK 18/11 Q1028=
200906230620 METAR ESMX 230620Z 01004KT CAVOK 17/11 Q1028=
200906230550 METAR ESMX 230550Z 02004KT CAVOK 16/11 Q1028=
200906230520 METAR ESMX 230520Z 35003KT CAVOK 15/11 Q1027=
200906230450 METAR ESMX 230450Z 01003KT CAVOK 14/11 Q1028=
200906230420 METAR ESMX 230420Z VRB01KT CAVOK 13/11 Q1028=
200906230350 METAR ESMX 230350Z 00000KT CAVOK 09/08 Q1027=
200906230320 METAR ESMX 230320Z AUTO VRB01KT 9999NDV NCD 07/06 Q1027=
200906230250 METAR ESMX 230250Z AUTO 00000KT 9999NDV NCD 07/06 Q1027=
200906230220 METAR ESMX 230220Z AUTO VRB01KT 9999NDV NCD 06/05 Q1027=
200906230150 METAR ESMX 230150Z AUTO 00000KT 9999NDV NCD 07/06 Q1027=
200906230120 METAR ESMX 230120Z AUTO 00000KT 9999NDV NCD 07/06 Q1027=
200906230050 METAR ESMX 230050Z AUTO VRB01KT 9999NDV NCD 08/07 Q1027=
200906230020 METAR ESMX 230020Z AUTO 00000KT 9999NDV NCD 08/07 Q1027=
200906222350 METAR ESMX 222350Z AUTO 00000KT 9999NDV NCD 08/07 Q1027=
200906222320 METAR ESMX 222320Z VRB01KT CAVOK 08/07 Q1027=
200906222250 METAR ESMX 222250Z VRB01KT CAVOK 10/08 Q1027=
200906222220 METAR ESMX 222220Z 16001KT CAVOK 11/08 Q1027=
200906222150 METAR ESMX 222150Z VRB02KT CAVOK 13/08 Q1027=
200906222120 METAR ESMX 222120Z 16003KT 9999 NSC 15/08 Q1027=
200906222050 METAR ESMX 222050Z 15004KT CAVOK 16/09 Q1027=
200906222020 METAR ESMX 222020Z 17005KT CAVOK 17/09 Q1026=
200906221950 METAR ESMX 221950Z 15005KT 110V190 CAVOK 18/10 Q1026=
200906221920 METAR ESMX 221920Z 10004KT 030V170 CAVOK 19/09 Q1025=
200906221850 METAR ESMX 221850Z 01004KT CAVOK 20/09 Q1025=
200906221820 METAR ESMX 221820Z 01005KT CAVOK 20/07 Q1025=
200906221750 METAR ESMX 221750Z 04006KT 010V070 CAVOK 21/07 Q1025=
200906221720 METAR ESMX 221720Z 02006KT 340V060 CAVOK 21/07 Q1025=
200906221650 METAR ESMX 221650Z 05004KT 020V080 CAVOK 22/05 Q1025=
200906221620 METAR ESMX 221620Z VRB02KT CAVOK 22/05 Q1025=
200906221550 METAR ESMX 221550Z VRB01KT CAVOK 21/05 Q1025=
200906221520 METAR ESMX 221520Z VRB03KT CAVOK 21/04 Q1025=
200906221450 METAR ESMX 221450Z 09004KT 020V150 CAVOK 22/04 Q1025=
200906221420 METAR ESMX 221420Z 02005KT CAVOK 22/05 Q1025=
200906221350 METAR ESMX 221350Z VRB04KT CAVOK 22/05 Q1025=
200906221320 METAR ESMX 221320Z 32005KT 280V010 CAVOK 22/05 Q1025=
200906221250 METAR ESMX 221250Z VRB03KT CAVOK 21/06 Q1025=
200906221220 METAR ESMX 221220Z VRB02KT CAVOK 21/08 Q1025=
200906221150 METAR ESMX 221150Z VRB03KT 9999 FEW045 19/08 Q1025=
200906221120 METAR ESMX 221120Z 36004KT 320V050 9999 FEW048 20/08 Q1025=
200906221050 METAR ESMX 221050Z 36004KT 9999 FEW044 19/08 Q1025=
200906221020 METAR ESMX 221020Z 02007KT 9999 FEW042 20/08 Q1025=
200906220950 METAR ESMX 220950Z 09004KT CAVOK 20/09 Q1025=
200906220920 METAR ESMX 220920Z VRB03KT 9999 FEW040 19/09 Q1025=
200906220850 METAR ESMX 220850Z 31003KT 240V060 9999 FEW040 18/08 Q1025=
200906220820 METAR ESMX 220820Z VRB02KT 9999 FEW030 18/09 Q1025=
200906220750 METAR ESMX 220750Z VRB02KT 9999 FEW025 16/10 Q1025=
200906220720 METAR ESMX 220720Z 35003KT 290V030 CAVOK 16/11 Q1025=
200906220650 METAR ESMX 220650Z VRB02KT CAVOK 16/10 Q1025=
200906220620 METAR ESMX 220620Z VRB02KT CAVOK 14/11 Q1025=
200906220550 METAR ESMX 220550Z 35003KT 320V030 CAVOK 13/11 Q1024=
200906220520 METAR ESMX 220520Z VRB01KT 2000 BCFG 12/11 Q1024=
200906220450 METAR ESMX 220450Z VRB01KT 1000 R01/0700 R19/0800V1500 BCFG BKN000 10/10 Q1024=
200906220420 METAR ESMX 220420Z VRB01KT 0600 R19/0700 R01/2000 BCFG VV002 09/09 Q1024=
200906220350 METAR ESMX 220350Z 05002KT CAVOK 06/06 Q1023=
200906220320 METAR ESMX 220320Z AUTO 02001KT 0350NDV R01/0350V0800 R19/P2000N FG NCD 05/04 Q1023=
200906220250 METAR ESMX 220250Z AUTO VRB01KT 0550NDV R01/0800 R19/P2000N BCFG NCD 04/04 Q1023=
200906220220 METAR ESMX 220220Z AUTO 18002KT 1000NDV R01/P2000N R19/P2000N NCD 05/04 Q1023=
200906220150 METAR ESMX 220150Z AUTO 19001KT 1100NDV R01/P2000N R19/P2000N BR NCD 05/04 Q1023=
200906220120 METAR ESMX 220120Z AUTO 17001KT 0900NDV R01/P2000N R19/0800VP2000 NCD 05/04 Q1022=
200906220050 METAR ESMX 220050Z AUTO 00000KT 1700NDV BR NCD 05/05 Q1022=
200906220020 METAR ESMX 220020Z 18002KT CAVOK 06/05 Q1022=
200906212350 METAR ESMX 212350Z VRB01KT CAVOK 06/05 Q1022=
200906212320 METAR ESMX 212320Z VRB01KT CAVOK 06/06 Q1022=
200906212220 METAR ESMX 212220Z 19001KT CAVOK 08/06 Q1022=
200906212120 METAR ESMX 212120Z 02005KT 350V050 9999 FEW045CB SCT075 11/09 Q1022=
200906212050 METAR ESMX 212050Z 36005KT 9999 FEW050CB BKN072 11/09 Q1022=
200906212020 METAR ESMX 212020Z 00000KT 9999 FEW040CB SCT050 11/09 Q1022=
200906211950 METAR ESMX 211950Z VRB01KT 9999 SCT040CB BKN050 12/09 Q1021=
200906211920 METAR ESMX 211920Z 33003KT 9999 SCT040CB BKN050 13/10 Q1021=
200906211850 METAR ESMX 211850Z 29004KT 9999 SCT040CB BKN058 13/09 Q1020=
200906211820 METAR ESMX 211820Z 28004KT 9999 SCT045CB SCT090 14/09 Q1020=
200906211750 METAR ESMX 211750Z 23006KT 9999 SCT04CB BKN088 14/09 Q1020=
200906211720 METAR ESMX 211720Z 21005KT 9999 FEW040CB SCT090 14/09 Q1019=
200906211650 METAR ESMX 211650Z 23008KT 200V260 9999 SCT048 BKN096 15/09 Q1019=
200906211620 METAR ESMX 211620Z 21005KT 170V240 CAVOK 17/08 Q1019=
200906211550 METAR ESMX 211550Z 35004KT 300V020 CAVOK 18/06 Q1019=
200906211520 METAR ESMX 211520Z 36006KT 320V040 CAVOK 19/08 Q1019=
200906211450 METAR ESMX 211450Z VRB03KT CAVOK 19/07 Q1019=
200906211420 METAR ESMX 211420Z 36005KT 300V050 CAVOK 18/07 Q1019=
200906211350 METAR ESMX 211350Z VRB02KT CAVOK 17/08 Q1019=
200906211320 METAR ESMX 211320Z 36004KT 310V050 CAVOK 17/07 Q1019=
200906211250 METAR ESMX 211250Z 03006KT CAVOK 17/08 Q1019=
200906211220 METAR ESMX 211220Z 36004KT 320V030 9999 FEW037 BKN052 16/08 Q1019=
200906211150 METAR ESMX 211150Z 22003KT 170V290 9999 FEW039 BKN082 17/07 Q1018=
200906211120 METAR ESMX 211120Z VRB03KT CAVOK 17/08 Q1018=
200906211050 METAR ESMX 211050Z 19003KT 140V260 CAVOK 16/06 Q1019=
200906211020 METAR ESMX 211020Z AUTO 19005KT 150V260 9999NDV FEW058/// 16/10 Q1019=
200906210950 METAR ESMX 210950Z AUTO 19004KT 160V230 9999NDV FEW057/// BKN070/// 14/08 Q1018=
200906210920 METAR ESMX 210920Z AUTO 22004KT 160V250 9999NDV FEW032/// OVC058/// 14/08 Q1018=
200906210850 METAR ESMX 210850Z AUTO 13003KT 080V210 9999NDV FEW026/// SCT031/// BKN049/// 14/08 Q1018=
200906210820 METAR ESMX 210820Z AUTO VRB03KT 9999NDV FEW026/// 14/08 Q1018=
200906210750 METAR ESMX 210750Z AUTO 23004KT 190V270 9999NDV FEW016/// SCT025/// BKN029/// 14/08 Q1018=
200906210720 METAR ESMX 210720Z AUTO VRB02KT 9999NDV SCT010/// BKN020/// 13/09 Q1018=
200906210650 METAR ESMX 210650Z AUTO 31003KT 260V350 9999NDV FEW007/// BKN009/// OVC013/// 12/09 Q1017=
200906210620 METAR ESMX 210620Z AUTO 30004KT 260V340 9999NDV FEW004/// BKN006/// OVC008/// 11/10 Q1017=
200906210550 METAR ESMX 210550Z AUTO VRB02KT 8000NDV BKN001/// OVC005/// 10/10 Q1017=
200906210520 METAR ESMX 210520Z AUTO 28003KT 250V320 2800NDV OVC001/// 10/09 Q1017=
200906210450 METAR ESMX 210450Z AUTO 28004KT 250V010 1000NDV R01/1100V1700N R19/1100V1800U FG VV002 10/09 Q1016=
200906210420 METAR ESMX 210420Z AUTO 30003KT 250V350 0900NDV R01/0800VP2000D R19/1000VP2000D FG VV002 09/08 Q1016=
200906210350 METAR ESMX 210350Z AUTO VRB01KT 9999NDV FEW002/// SCT004/// BKN015/// 08/08 Q1016=
200906210320 METAR ESMX 210320Z AUTO 24002KT 9999NDV FEW013/// BKN038/// 07/07 Q1016=
200906210250 METAR ESMX 210250Z AUTO 24003KT 7000NDV FEW026/// BKN031/// 06/06 Q1016=
200906210220 METAR ESMX 210220Z AUTO 23004KT 9999NDV NCD 06/05 Q1016=
200906210150 METAR ESMX 210150Z AUTO 22005KT 7000NDV FEW034/// 06/06 Q1016=
200906210120 METAR ESMX 210120Z AUTO 23003KT 9999NDV NCD 06/06 Q1016=
200906210050 METAR ESMX 210050Z AUTO 22004KT 4100NDV NCD 06/06 Q1016=
200906210020 METAR ESMX 210020Z AUTO 21004G19KT 9999NDV NCD 07/05 Q1016=
200906202350 METAR ESMX 202350Z AUTO 23002KT 6000NDV NCD 07/06 Q1015=
200906202320 METAR ESMX 202320Z AUTO 23002KT 9999NDV NCD 08/07 Q1015=
200906202250 METAR ESMX 202250Z AUTO 22004KT 9999NDV NCD 08/07 Q1015=
200906202220 METAR ESMX 202220Z AUTO 24005KT 9999NDV FEW032/// 08/07 Q1015=
200906202150 METAR ESMX 202150Z AUTO 22004KT 9999NDV FEW034/// 08/07 Q1015=
200906202120 METAR ESMX 202120Z AUTO 23004KT 9999NDV NCD 08/08 Q1014=
200906202050 METAR ESMX 202050Z AUTO 20004KT 9999NDV FEW041/// 09/08 Q1014=
200906202020 METAR ESMX 202020Z AUTO 22004KT 9999NDV FEW071/// 09/07 Q1014=
200906201950 METAR ESMX 201950Z AUTO 21005KT 9999NDV SCT067/// 10/08 Q1014=
200906201920 METAR ESMX 201920Z AUTO 22003KT 9999NDV FEW068/// 11/07 Q1014=
200906201850 METAR ESMX 201850Z AUTO 23003KT 200V260 9999NDV NCD 12/08 Q1014=
200906201820 METAR ESMX 201820Z AUTO 25005KT 220V280 9999NDV NCD 13/08 Q1013=
200906201750 METAR ESMX 201750Z AUTO 23008KT 200V270 9999NDV NCD 13/08 Q1013=
200906201720 METAR ESMX 201720Z 25007KT 200V270 CAVOK 13/08 Q1013=
200906201650 METAR ESMX 201650Z 23008KT 190V280 9999 FEW014 13/08 Q1013=
200906201620 METAR ESMX 201620Z 24007KT 200V280 CAVOK 14/10 Q1013=
200906201550 METAR ESMX 201550Z 22009KT CAVOK 13/09 Q1012=
200906201520 METAR ESMX 201520Z 22008KT 190V250 CAVOK 14/09 Q1012=
200906201450 METAR ESMX 201450Z 23007KT 9999 -RA FEW011 12/09 Q1012=
200906201420 METAR ESMX 201420Z 22009KT 190V270 9999 -RA FEW020 12/09 Q1012=
200906201350 METAR ESMX 201350Z AUTO 23011KT 9999NDV FEW016/// SCT031/// 13/10 Q1012=
200906201320 METAR ESMX 201320Z AUTO 23009KT 9999NDV SCT013/// BKN017/// 13/10 Q1012=
200906201250 METAR ESMX 201250Z AUTO 23006KT 200V270 9999NDV NCD 13/10 Q1012=
200906201220 METAR ESMX 201220Z AUTO 21009KT 9999NDV FEW081/// 11/09 Q1012=
200906201150 METAR ESMX 201150Z AUTO 23008KT 9999NDV -DZ FEW054/// 11/09 Q1011=
200906201120 METAR ESMX 201120Z AUTO 25007KT 9999NDV -RA FEW059/// 11/09 Q1011=
200906201050 METAR ESMX 201050Z AUTO 26011KT 230V290 9999NDV -RA FEW014/// SCT022/// BKN070/// 12/08 Q1011=
200906201020 METAR ESMX 201020Z AUTO 24012KT 9999NDV FEW020/// SCT048/// 13/08 Q1011=
200906200950 METAR ESMX 200950Z AUTO 22010KT 200V260 9999NDV FEW051/// SCT062/// 12/08 Q1010=
200906200920 METAR ESMX 200920Z AUTO 21011KT 9999NDV FEW061/// 12/08 Q1010=
200906200850 METAR ESMX 200850Z AUTO 21010KT 170V250 9999NDV FEW017/// 12/08 Q1010=
200906200820 METAR ESMX 200820Z AUTO 24010KT 9999NDV FEW018/// BKN068/// 12/08 Q1010=
200906200750 METAR ESMX 200750Z AUTO 23008KT 200V260 9999NDV FEW036/// SCT061/// 11/08 Q1010 RERA=
200906200720 METAR ESMX 200720Z AUTO 22010KT 9999NDV FEW021/// SCT044/// BKN066/// 12/08 Q1010=
200906200650 METAR ESMX 200650Z AUTO 23011KT 200V260 9999NDV FEW014/// SCT020/// BKN025/// 12/08 Q1010=
200906200620 METAR ESMX 200620Z AUTO 22009KT 9999NDV FEW011/// SCT016/// BKN020/// 12/08 Q1009=
200906200550 METAR ESMX 200550Z AUTO 21008KT 180V240 9999NDV FEW010/// SCT021/// 11/09 Q1009=
200906200520 METAR ESMX 200520Z AUTO 23006KT 200V260 9999NDV FEW016/// SCT059/// 11/08 Q1009=
200906200450 METAR ESMX 200450Z AUTO 21004KT 180V250 9999NDV FEW007/// SCT011/// BKN019/// 10/09 Q1009=
200906200420 METAR ESMX 200420Z AUTO 20004KT 170V240 9999NDV BKN005/// OVC008/// 09/09 Q1009 REDZ=
200906200350 METAR ESMX 200350Z AUTO 19004KT 9999NDV -RA OVC005/// 09/08 Q1008=
200906200320 METAR ESMX 200320Z AUTO 19004KT 9999NDV BKN006/// OVC045/// 09/08 Q1008=
200906200250 METAR ESMX 200250Z AUTO 21004KT 9999NDV FEW008/// BKN037/// BKN049/// 08/07 Q1008=
200906200220 METAR ESMX 200220Z AUTO 18003KT 9999NDV FEW023/// SCT033/// BKN054/// 08/07 Q1008=
200906200150 METAR ESMX 200150Z AUTO 19003KT 9999NDV FEW040/// BKN049/// 07/07 Q1008=
200906200120 METAR ESMX 200120Z AUTO 23004KT 9999NDV NCD 08/07 Q1008=
200906200050 METAR ESMX 200050Z AUTO 21005KT 9999NDV SCT049/// 08/07 Q1008=
200906200020 METAR ESMX 200020Z AUTO 22008KT 170V250 9999NDV DZ FEW018/// SCT030/// BKN046/// 09/07 Q1008=
200906192350 METAR ESMX 192350Z AUTO 22006KT 9999NDV FEW062/// 08/07 Q1009=
200906192320 METAR ESMX 192320Z AUTO 20005KT 9999NDV FEW023/// SCT061/// 08/07 Q1009=
200906192250 METAR ESMX 192250Z AUTO 21005KT 9999NDV FEW066/// 09/07 Q1009=
200906192220 METAR ESMX 192220Z AUTO 22006KT 9999NDV NCD 10/07 Q1008=
200906192150 METAR ESMX 192150Z AUTO 21007KT 9999NDV -DZ FEW042/// SCT066/// 10/07 Q1008=
200906192120 METAR ESMX 192120Z AUTO 21007KT 9999NDV FEW061/// 10/07 Q1008=
200906192050 METAR ESMX 192050Z AUTO 21006KT 9999NDV NCD 09/06 Q1008=
200906192020 METAR ESMX 192020Z AUTO 21005KT 9999NDV FEW059/// SCT074/// 10/07 Q1008=
200906191950 METAR ESMX 191950Z AUTO 21007KT 9999NDV FEW065/// 11/07 Q1008=
200906191920 METAR ESMX 191920Z AUTO 22007KT 9999NDV FEW070/// 12/07 Q1008=
200906191850 METAR ESMX 191850Z AUTO 22007KT 9999NDV NCD 13/08 Q1008=
200906191820 METAR ESMX 191820Z AUTO 22006KT 9999NDV NCD 13/08 Q1007=
200906191750 METAR ESMX 191750Z AUTO 23008KT 9999NDV FEW034/// 13/08 Q1007=
200906191720 METAR ESMX 191720Z AUTO 24012KT 9999NDV FEW024/// SCT067/// 13/08 Q1007=
200906191650 METAR ESMX 191650Z AUTO 24009KT 210V270 9999NDV BKN061/// 14/09 Q1007=
200906191620 METAR ESMX 191620Z AUTO 24007KT 200V280 9000NDV -DZ FEW030/// SCT060/// 12/10 Q1007=
200906191550 METAR ESMX 191550Z AUTO 22010KT 9999NDV FEW027/// 13/08 Q1007=
200906191520 METAR ESMX 191520Z 23009KT 200V260 9999 FEW019 SCT030 12/09 Q1008=
200906191450 METAR ESMX 191450Z 22009KT 180V260 9999 FEW042 13/09 Q1008=
200906191420 METAR ESMX 191420Z 22007KT 9999 FEW027 SCT042 BKN061 12/10 Q1008 RERA RESHRA=
200906191350 METAR ESMX 191350Z 23006KT 9999 -RA FEW027 SCT043 12/09 Q1008=
200906191320 METAR ESMX 191320Z 20007KT 170V230 9999 FEW047 SCT071 BKN081 14/07 Q1008=
200906191250 METAR ESMX 191250Z 21010KT 9999 FEW029 SCT055 13/07 Q1008=
200906191220 METAR ESMX 191220Z AUTO 21009KT 170V250 9999NDV FEW039/// SCT066/// 14/08 Q1008=
200906191150 METAR ESMX 191150Z AUTO 23013KT 9999NDV -RA FEW051/// BKN079/// 14/07 Q1008=
200906191120 METAR ESMX 191120Z AUTO 24011KT 200V280 9999NDV FEW071/// SCT084/// 16/07 Q1008=
200906191050 METAR ESMX 191050Z AUTO 24010KT 210V270 9999NDV FEW041/// SCT061/// 14/08 Q1008 RERA RESHRA=
200906191020 METAR ESMX 191020Z AUTO 24012KT 200V270 9999NDV -RA FEW035/// SCT040/// BKN050/// 14/07 Q1008=
200906190950 METAR ESMX 190950Z AUTO 23011KT 200V270 9999NDV FEW036/// SCT044/// 14/07 Q1008=
200906190920 METAR ESMX 190920Z AUTO 24008G19KT 180V300 9999NDV -RA FEW026/// SCT044/// BKN061/// 14/08 Q1008=
200906190850 METAR ESMX 190850Z AUTO 21006KT 180V250 9999NDV FEW032/// SCT045/// BKN056/// 13/08 Q1008=
200906190820 METAR ESMX 190820Z AUTO 27003KT 240V330 9999NDV FEW019/// SCT043/// BKN050/// 12/10 Q1008 RERA=
200906190750 METAR ESMX 190750Z AUTO 27008KT 240V320 8000NDV +RA FEW025/// SCT040/// BKN051/// 12/07 Q1008=
200906190720 METAR ESMX 190720Z AUTO 24006KT 200V280 9999NDV FEW025/// SCT042/// BKN055/// 13/07 Q1008=
200906190650 METAR ESMX 190650Z AUTO 25009KT 210V290 9999NDV FEW019/// 13/07 Q1008=
200906190620 METAR ESMX 190620Z AUTO 26010KT 230V300 9999NDV FEW014/// SCT020/// 12/08 Q1008=
200906190550 METAR ESMX 190550Z AUTO 23008KT 190V260 9999NDV FEW015/// SCT056/// 11/09 Q1009=
200906190520 METAR ESMX 190520Z AUTO 26006KT 230V290 9999NDV DZ FEW015/// SCT025/// BKN037/// 10/08 Q1008=
200906190450 METAR ESMX 190450Z AUTO 25005KT 210V290 9999NDV FEW033/// SCT038/// BKN054/// 11/08 Q1008=
200906190420 METAR ESMX 190420Z AUTO 24006KT 210V280 9999NDV FEW020/// 10/08 Q1009=
200906190350 METAR ESMX 190350Z AUTO 23005KT 9999NDV NCD 09/07 Q1009=
200906190320 METAR ESMX 190320Z AUTO 23005KT 9999NDV NCD 08/06 Q1009=
200906190250 METAR ESMX 190250Z AUTO 23006KT 200V270 9999NDV FEW037/// SCT045/// BKN055/// 09/06 Q1009=
200906190220 METAR ESMX 190220Z AUTO 23005KT 9999NDV FEW035/// SCT057/// 09/06 Q1009=
200906190150 METAR ESMX 190150Z AUTO 22005KT 9999NDV NCD 08/06 Q1008=
200906190120 METAR ESMX 190120Z AUTO 25006KT 230V290 9999NDV NCD 09/06 Q1009=
200906190050 METAR ESMX 190050Z AUTO 22005KT 9999NDV NCD 08/06 Q1009=
200906190020 METAR ESMX 190020Z AUTO 22006KT 9999NDV NCD 09/06 Q1009=
200906182350 METAR ESMX 182350Z AUTO 22006KT 9999NDV NCD 10/06 Q1009=
200906182320 METAR ESMX 182320Z AUTO 24004KT 210V290 9999NDV NCD 10/06 Q1009=
200906182250 METAR ESMX 182250Z AUTO 25005KT 210V270 9999NDV NCD 10/06 Q1009=
200906182220 METAR ESMX 182220Z AUTO 24006KT 9999NDV NCD 10/06 Q1009=
200906182150 METAR ESMX 182150Z AUTO 25006KT 210V280 9999NDV NCD 11/06 Q1009=
200906182120 METAR ESMX 182120Z AUTO 25006KT 9999NDV NCD 11/06 Q1009=
200906182050 METAR ESMX 182050Z AUTO 25008KT 210V290 9999NDV NCD 12/06 Q1009=
200906182020 METAR ESMX 182020Z AUTO 25007KT 9999NDV NCD 12/06 Q1009=
200906181950 METAR ESMX 181950Z AUTO 24007KT 210V270 9999NDV NCD 13/06 Q1009=
200906181920 METAR ESMX 181920Z AUTO 26011KT 9999NDV NCD 13/06 Q1009=
200906181850 METAR ESMX 181850Z AUTO 26009KT 9999NDV FEW041/// 14/06 Q1009=
200906181820 METAR ESMX 181820Z 26010KT 230V300 9999 FEW042 14/06 Q1009=
200906181750 METAR ESMX 181750Z 26013KT 220V290 9999 FEW042 14/06 Q1008=
200906181720 METAR ESMX 181720Z 26013KT 220V290 9999 FEW039 SCT047 BKN059 15/07 Q1008=
200906181650 METAR ESMX 181650Z 27013KT 240V300 9999 SCT041 BKN059 15/06 Q1008=
200906181620 METAR ESMX 181620Z 28011KT 250V320 9999 FEW043 BKN051 16/06 Q1008=
200906181550 METAR ESMX 181550Z 27013G23KT 240V320 9999 SCT042 BKN053 16/06 Q1008=
200906181520 METAR ESMX 181520Z 25015KT 200V300 9999 FEW041 SCT052 16/06 Q1008=
200906181450 METAR ESMX 181450Z 25014KT 200V290 9999 FEW048 16/07 Q1008=
200906181420 METAR ESMX 181420Z 26015KT 200V290 9999 FEW038 SCT055 16/07 Q1008=
200906181350 METAR ESMX 181350Z 27015G27KT 230V320 9999 FEW032 SCT052 17/09 Q1008=
200906181320 METAR ESMX 181320Z 27013KT 9999 FEW024 16/10 Q1007=
200906181250 METAR ESMX 181250Z 24012KT 210V290 9999 -RA FEW020 SCT026 BKN038 14/11 Q1007=
200906181220 METAR ESMX 181220Z 25013KT 9999 FEW018 15/12 Q1007=
200906181150 METAR ESMX 181150Z 22010KT 200V260 9999 -RA FEW008 SCT012 BKN017 14/12 Q1006=
200906181120 METAR ESMX 181120Z 21010KT 180V240 9999 FEW005 SCT007 BKN010 14/13 Q1007=
200906181050 METAR ESMX 181050Z 19009KT 4500 DZ FEW003 BKN005 BKN008 12/12 Q1007 REDZ=
200906181020 METAR ESMX 181020Z 17009KT 4000 -DZ FEW003 OVC005 12/11 Q1007=
200906180950 METAR ESMX 180950Z 18009KT 150V220 4500 -RADZ SCT004 OVC008 12/11 Q1007=
200906180920 METAR ESMX 180920Z 17010KT 140V200 9999 -RA SCT005 BKN008 OVC010 11/10 Q1007=
200906180850 METAR ESMX 180850Z 17010KT 130V200 6000 RA FEW005 BKN007 OVC010 11/10 Q1007=
200906180820 METAR ESMX 180820Z 15009KT 110V190 8000 RA FEW008 SCT010 BKN013 11/10 Q1008=
200906180750 METAR ESMX 180750Z 15009KT 110V170 5000 RA FEW030 BKN050 11/10 Q1008=
200906180720 METAR ESMX 180720Z 16011KT 120V190 9999 RA FEW041 BKN058 13/09 Q1009=
200906180650 METAR ESMX 180650Z 15009KT 110V190 CAVOK 13/09 Q1009=
200906180620 METAR ESMX 180620Z 16010KT 120V200 CAVOK 13/09 Q1009=
200906180550 METAR ESMX 180550Z 15008KT 110V200 CAVOK 12/08 Q1010=
200906180520 METAR ESMX 180520Z 15008KT 110V180 CAVOK 12/08 Q1011=
200906180450 METAR ESMX 180450Z 15007KT 110V190 CAVOK 11/08 Q1011=
200906180420 METAR ESMX 180420Z 16007KT 140V200 CAVOK 11/08 Q1012=
200906180350 METAR ESMX 180350Z 17008KT CAVOK 10/07 Q1013=
200906180320 METAR ESMX 180320Z AUTO 17007KT 120V200 9999NDV FEW110/// 10/07 Q1013=
200906180250 METAR ESMX 180250Z AUTO 15007KT 110V180 9999NDV FEW110/// 10/07 Q1014=
200906180220 METAR ESMX 180220Z AUTO 16006KT 120V200 9999NDV NCD 10/06 Q1014=
200906180150 METAR ESMX 180150Z AUTO 17003KT 9999NDV NCD 10/06 Q1015=
200906180120 METAR ESMX 180120Z AUTO 17004KT 9999NDV NCD 10/06 Q1015=
200906180050 METAR ESMX 180050Z AUTO 17004KT 9999NDV NCD 10/05 Q1016=
200906180020 METAR ESMX 180020Z AUTO 18005KT 9999NDV NCD 10/05 Q1016=
200906172350 METAR ESMX 172350Z AUTO 17004KT 9999NDV NCD 10/05 Q1017=
200906172320 METAR ESMX 172320Z 16003KT 140V200 CAVOK 10/05 Q1017=
200906172250 METAR ESMX 172250Z 18003KT CAVOK 10/05 Q1017=
200906172150 METAR ESMX 172150Z 17004KT CAVOK 10/04 Q1017=
200906172120 METAR ESMX 172120Z 22003KT CAVOK 10/04 Q1018=
200906172050 METAR ESMX 172050Z 25003KT CAVOK 11/03 Q1018=
200906172020 METAR ESMX 172020Z 25004KT 210V290 CAVOK 12/03 Q1018=
200906171950 METAR ESMX 171950Z 24005KT 210V280 CAVOK 13/04 Q1018=
200906171920 METAR ESMX 171920Z 24005KT CAVOK 13/05 Q1018=
200906171850 METAR ESMX 171850Z 24005KT CAVOK 15/05 Q1018=
200906171820 METAR ESMX 171820Z 25006KT 220V290 CAVOK 16/06 Q1018=
200906171750 METAR ESMX 171750Z 23007KT 200V290 CAVOK 17/06 Q1018=
200906171720 METAR ESMX 171720Z 18007KT CAVOK 18/08 Q1018=
200906171650 METAR ESMX 171650Z 18005KT 140V210 CAVOK 17/08 Q1018=
200906171620 METAR ESMX 171620Z 19007KT 9999 FEW048 SCT058 16/08 Q1019=
200906171550 METAR ESMX 171550Z 21006KT 160V240 CAVOK 17/07 Q1019=
200906171520 METAR ESMX 171520Z VRB02KT CAVOK 18/06 Q1019=
200906171450 METAR ESMX 171450Z 25007KT 210V300 9999 FEW050CB SCT100 17/07 Q1019=
200906171420 METAR ESMX 171420Z 26008KT 9999 SCT050CB SCT100 18/06 Q1019=
200906171350 METAR ESMX 171350Z 23006KT 170V300 9999 FEW050CB SCT100 19/07 Q1019=
200906171320 METAR ESMX 171320Z 25008KT 220V290 9999 FEW050CB 19/07 Q1019=
200906171250 METAR ESMX 171250Z 21005KT 170V270 9999 FEW042CB 18/06 Q1020=
200906171220 METAR ESMX 171220Z 03005KT 9999 FEW047CB SCT060 16/07 Q1020=
200906171150 METAR ESMX 171150Z 03003KT 9999 -SHRA SCT045CB 16/06 Q1020=
200906171120 METAR ESMX 171120Z 27003KT 200V330 9999 SCT045 17/06 Q1019=
200906171050 METAR ESMX 171050Z 03003KT 300V120 9999 SCT045 17/05 Q1019=
200906171020 METAR ESMX 171020Z VRB02KT 9999 FEW045 18/05 Q1019=
200906170950 METAR ESMX 170950Z 21004KT 110V270 9999 SCT045 17/05 Q1019=
200906170920 METAR ESMX 170920Z 27005KT 240V320 9999 SCT045TCU 17/06 Q1020=
200906170850 METAR ESMX 170850Z 32005KT 280V010 9999 SCT042TCU 17/06 Q1020=
200906170820 METAR ESMX 170820Z 28005KT 250V320 9999 FEW040 17/06 Q1020=
200906170750 METAR ESMX 170750Z 28004KT 230V320 9999 FEW040 16/07 Q1020=
200906170720 METAR ESMX 170720Z 26004KT 200V320 CAVOK 15/08 Q1019=
200906170650 METAR ESMX 170650Z 29005KT 250V330 CAVOK 14/08 Q1019=
200906170620 METAR ESMX 170620Z 29003KT 210V340 CAVOK 14/09 Q1019=
200906170550 METAR ESMX 170550Z VRB02KT CAVOK 13/08 Q1019=
200906170520 METAR ESMX 170520Z VRB02KT CAVOK 12/08 Q1019=
200906170450 METAR ESMX 170450Z 31003KT CAVOK 11/08 Q1018=
200906170420 METAR ESMX 170420Z VRB01KT CAVOK 09/08 Q1018=
200906170350 METAR ESMX 170350Z 00000KT CAVOK 07/06 Q1018=
200906170320 METAR ESMX 170320Z AUTO VRB02KT 9999NDV NCD 07/06 Q1018=
200906170250 METAR ESMX 170250Z AUTO 34002KT 9999NDV NCD 08/06 Q1018=
200906170220 METAR ESMX 170220Z AUTO 30004KT 9999NDV NCD 08/06 Q1017=
200906170150 METAR ESMX 170150Z AUTO 30004KT 9999NDV FEW100/// 08/06 Q1017=
200906170120 METAR ESMX 170120Z AUTO 32005KT 9999NDV FEW100/// 09/06 Q1017=
200906170050 METAR ESMX 170050Z AUTO 30004KT 9999NDV BKN090/// 10/07 Q1017=
200906170020 METAR ESMX 170020Z AUTO VRB01KT 9999NDV OVC083/// 09/08 Q1017=
200906162350 METAR ESMX 162350Z VRB01KT CAVOK 09/08 Q1017=
200906162320 METAR ESMX 162320Z VRB02KT CAVOK 10/09 Q1016=
200906162250 METAR ESMX 162250Z 16002KT CAVOK 10/09 Q1016=
200906162220 METAR ESMX 162220Z 31004KT 280V030 CAVOK 11/09 Q1016=
200906162150 METAR ESMX 162150Z 01006KT 340V050 CAVOK 11/09 Q1016=
200906162050 METAR ESMX 162050Z 34005KT 320V020 9999 FEW035 BKN056 11/10 Q1016=
200906162020 METAR ESMX 162020Z 33004KT 280V360 CAVOK 11/10 Q1016=
200906161950 METAR ESMX 161950Z 31004KT 270V330 9999 VCSH FEW045 BKN080 11/10 Q1016=
200906161920 METAR ESMX 161920Z 30005KT 9999 FEW017 SCT048 BKN059 11/10 Q1015=
200906161850 METAR ESMX 161850Z 28006KT 9999 FEW023 BKN045 11/10 Q1015=
200906161820 METAR ESMX 161820Z 29009KT 9999 -SHRA FEW017 BKN047 11/10 Q1015 RERA=
200906161750 METAR ESMX 161750Z 28009KT 240V320 7000 -SHRA FEW048CB BKN064 11/09 Q1014=
200906161720 METAR ESMX 161720Z 29014KT 9999 SHRA SCT060CB BKN065 14/08 Q1014=
200906161650 METAR ESMX 161650Z VRB04KT CAVOK 17/05 Q1013=
200906161620 METAR ESMX 161620Z 36003KT CAVOK 17/05 Q1013=
200906161550 METAR ESMX 161550Z 25006KT CAVOK 18/04 Q1013=
200906161520 METAR ESMX 161520Z 29009KT CAVOK 18/03 Q1013=
200906161450 METAR ESMX 161450Z 30008KT CAVOK 19/04 Q1013=
200906161420 METAR ESMX 161420Z 31007KT 190V330 CAVOK 19/02 Q1013=
200906161350 METAR ESMX 161350Z 26008KT 210V320 CAVOK 19/03 Q1013=
200906161320 METAR ESMX 161320Z 22008KT 190V250 CAVOK 19/04 Q1013=
200906161250 METAR ESMX 161250Z 25009KT 220V280 CAVOK 19/03 Q1013=
200906161220 METAR ESMX 161220Z 15005KT 110V180 CAVOK 18/M00 Q1013=
200906161150 METAR ESMX 161150Z VRB02KT CAVOK 19/02 Q1013=
200906161120 METAR ESMX 161120Z 15006KT 080V230 CAVOK 17/03 Q1013=
200906161050 METAR ESMX 161050Z 28003KT 240V320 CAVOK 17/02 Q1012=
200906161020 METAR ESMX 161020Z 25004KT 190V280 CAVOK 16/03 Q1012=
200906160950 METAR ESMX 160950Z 15005KT 080V210 CAVOK 18/02 Q1012=
200906160920 METAR ESMX 160920Z 16006KT 120V200 9999 FEW045 17/03 Q1012=
200906160850 METAR ESMX 160850Z 19004KT 120V250 9999 FEW040 17/05 Q1012=
200906160820 METAR ESMX 160820Z VRB03KT 9999 FEW040 16/06 Q1012=
200906160750 METAR ESMX 160750Z 24003KT 170V300 9999 FEW035 16/07 Q1012=
200906160720 METAR ESMX 160720Z VRB01KT CAVOK 15/07 Q1012=
200906160650 METAR ESMX 160650Z 01003KT 330V050 CAVOK 14/06 Q1012=
200906160620 METAR ESMX 160620Z VRB01KT CAVOK 13/07 Q1012=
200906160550 METAR ESMX 160550Z VRB02KT CAVOK 11/07 Q1012=
200906160520 METAR ESMX 160520Z 32004KT 280V340 CAVOK 10/07 Q1012=
200906160450 METAR ESMX 160450Z 29004KT 260V320 CAVOK 09/07 Q1012=
200906160420 METAR ESMX 160420Z 31003KT 260V340 CAVOK 08/07 Q1012=
200906160350 METAR ESMX 160350Z VRB01KT CAVOK 07/06 Q1012=
200906160320 METAR ESMX 160320Z AUTO VRB01KT 9999NDV NCD 06/05 Q1012=
200906160250 METAR ESMX 160250Z AUTO 19002KT 9999NDV NCD 04/03 Q1012=
200906160220 METAR ESMX 160220Z AUTO 18003KT 9999NDV NCD 04/04 Q1012=
200906160150 METAR ESMX 160150Z AUTO 17001KT 9999NDV NCD 05/04 Q1012=
200906160120 METAR ESMX 160120Z AUTO 00000KT 7000NDV NCD 06/05 Q1011=
200906160050 METAR ESMX 160050Z AUTO 27003KT 240V310 9999NDV NCD 07/06 Q1011=
200906160020 METAR ESMX 160020Z AUTO VRB02KT 9999NDV NCD 07/06 Q1011=
200906152350 METAR ESMX 152350Z 27003KT CAVOK 08/06 Q1011=
200906152320 METAR ESMX 152320Z VRB02KT CAVOK 08/06 Q1011=
200906152250 METAR ESMX 152250Z AUTO 27004KT 9999NDV NCD 09/05 Q1011=
200906152220 METAR ESMX 152220Z 26003KT CAVOK 09/05 Q1011=
200906152150 METAR COR ESMX 152150Z 25003KT CAVOK 09/05 Q1011=
200906152120 METAR ESMX 152120Z 25004KT 220V280 CAVOK 10/05 Q1011=
200906152050 METAR ESMX 152050Z 26005KT CAVOK 11/05 Q1011=
200906152020 METAR ESMX 152020Z 25005KT CAVOK 11/04 Q1011=
200906151950 METAR ESMX 151950Z 26005KT CAVOK 13/03 Q1011=
200906151920 METAR ESMX 151920Z 27006KT CAVOK 14/03 Q1011=
200906151850 METAR ESMX 151850Z 27007KT 220V310 CAVOK 15/03 Q1011=
200906151820 METAR ESMX 151820Z 27009KT CAVOK 16/02 Q1010=
200906151750 METAR ESMX 151750Z 28009KT 240V300 CAVOK 16/02 Q1010=
200906151720 METAR ESMX 151720Z 26009KT 220V300 9999 SCT066 18/02 Q1010=
200906151650 METAR ESMX 151650Z 28010KT 240V320 CAVOK 18/01 Q1010=
200906151620 METAR ESMX 151620Z 28010KT CAVOK 17/02 Q1010=
200906151550 METAR ESMX 151550Z 29008KT 230V320 CAVOK 18/03 Q1010=
200906151520 METAR ESMX 151520Z 27014KT CAVOK 19/03 Q1009=
200906151450 METAR ESMX 151450Z 30012KT 260V340 CAVOK 18/02 Q1009=
200906151420 METAR ESMX 151420Z 30013KT 260V330 CAVOK 19/03 Q1009=
200906151350 METAR ESMX 151350Z 29012KT 260V320 CAVOK 18/03 Q1009=
200906151320 METAR ESMX 151320Z 29013KT 260V340 9999 FEW045 19/03 Q1009=
200906151250 METAR ESMX 151250Z 29014KT 260V330 9999 FEW040TCU SCT080 19/06 Q1009=
200906151220 METAR ESMX 151220Z 26010KT 220V290 9999 FEW035TCU SCT080 17/07 Q1009=
200906151150 METAR ESMX 151150Z 27011KT 230V310 9999 SCT035 17/09 Q1009=
200906151120 METAR ESMX 151120Z 24010KT 210V280 9999 FEW025 SCT039 BKN073 17/08 Q1009=
200906151050 METAR ESMX 151050Z 23008KT 200V330 9999 SCT036 17/08 Q1009=
200906151020 METAR ESMX 151020Z 25009KT 210V300 9999 SCT034 16/08 Q1009=
200906150950 METAR ESMX 150950Z 24011KT 190V280 9999 FEW030 SCT044 16/08 Q1009=
200906150920 METAR ESMX 150920Z 23010KT 200V260 9999 FEW028 SCT032 15/08 Q1009=
200906150850 METAR ESMX 150850Z 25009KT 210V300 9999 FEW024 SCT028 BKN034 16/09 Q1008=
200906150820 METAR ESMX 150820Z 25011KT 220V280 9999 FEW023 BKN028 14/08 Q1008=
200906150750 METAR ESMX 150750Z 24010KT 190V290 9999 BKN031 14/09 Q1008=
200906150720 METAR ESMX 150720Z 26010KT 230V290 9999 FEW018 BKN026 12/08 Q1008=
200906150650 METAR ESMX 150650Z 24008KT 210V300 9999 SCT017 OVC023 12/08 Q1008=
200906150620 METAR ESMX 150620Z 27009KT 9999 FEW016 OVC018 12/08 Q1008=
200906150550 METAR ESMX 150550Z 26008KT 200V290 9999 OVC018 12/08 Q1007=
200906150520 METAR ESMX 150520Z 27009KT 220V310 9999 OVC017 11/08 Q1007=
200906150450 METAR ESMX 150450Z 26007KT 200V300 9999 FEW015 OVC018 11/08 Q1007=
200906150420 METAR ESMX 150420Z 23005KT 190V270 9999 OVC016 10/08 Q1007=
200906150350 METAR ESMX 150350Z 24005KT 200V290 9999 OVC013 10/08 Q1007=
200906150320 METAR ESMX 150320Z AUTO 26006KT 220V290 9999NDV OVC012/// 10/07 Q1007=
200906150250 METAR ESMX 150250Z AUTO 26007KT 230V300 9999NDV OVC011/// 09/07 Q1007=
200906150220 METAR ESMX 150220Z AUTO 26007KT 9999NDV OVC011/// 09/07 Q1007=
200906150150 METAR ESMX 150150Z AUTO 24008KT 190V260 9999NDV OVC011/// 09/07 Q1007=
200906150120 METAR ESMX 150120Z AUTO 24007KT 210V270 9999NDV OVC013/// 09/07 Q1007=
200906150050 METAR ESMX 150050Z AUTO 24007KT 200V270 9999NDV OVC012/// 09/07 Q1008=
200906150020 METAR ESMX 150020Z AUTO 25005KT 200V280 9999NDV OVC012/// 09/07 Q1007=
200906142350 METAR ESMX 142350Z 26005KT 9999 OVC013 09/07 Q1007=
200906142320 METAR ESMX 142320Z 27006KT 9999 SCT013 09/07 Q1008=
200906142250 METAR ESMX 142250Z 27007KT 9999 FEW015 10/07 Q1008=
200906142220 METAR COR ESMX 142220Z 26010KT CAVOK 10/07 Q1008=
200906142150 METAR ESMX 142150Z 24009KT 9999 SCT054 10/07 Q1008=
200906142120 METAR ESMX 142120Z 26008KT 9999 FEW022 11/08 Q1008=
200906142050 METAR ESMX 142050Z 26010KT 9999 FEW022 11/08 Q1008=
200906142020 METAR ESMX 142020Z 26010KT 230V290 CAVOK 12/08 Q1007=
200906141950 METAR ESMX 141950Z 24009KT 200V280 9999 FEW025 SCT028 12/08 Q1007=
200906141920 METAR ESMX 141920Z 26010KT 230V290 9999 FEW026 BKN031 13/07 Q1007=
200906141850 METAR ESMX 141850Z 26010KT 230V310 9999 FEW033 SCT041 BKN047 14/07 Q1007=
200906141820 METAR ESMX 141820Z 26012KT 9999 SCT046 14/06 Q1007=
200906141750 METAR ESMX 141750Z 27014KT 240V300 9999 FEW039 BKN046 14/06 Q1008=
200906141720 METAR ESMX 141720Z 27013KT 230V300 9999 FEW042 15/06 Q1008=
200906141650 METAR ESMX 141650Z 25013KT 210V300 CAVOK 16/05 Q1008=
200906141620 METAR ESMX 141620Z 27016KT 220V300 CAVOK 16/02 Q1008=
200906141550 METAR ESMX 141550Z 27016KT CAVOK 17/01 Q1008=
200906141520 METAR ESMX 141520Z 27019KT CAVOK 17/01 Q1008=
200906141450 METAR ESMX 141450Z 26016KT 230V290 CAVOK 18/02 Q1008=
200906141420 METAR ESMX 141420Z 26015KT 230V290 CAVOK 18/03 Q1008=
200906141350 METAR ESMX 141350Z 27016KT 240V300 CAVOK 18/05 Q1008=
200906141320 METAR ESMX 141320Z 27015KT 240V300 CAVOK 18/06 Q1008=
200906141250 METAR ESMX 141250Z 25015KT 200V310 9999 FEW045 19/07 Q1008=
200906141220 METAR ESMX 141220Z 28015KT 250V320 9999 FEW042 19/06 Q1008=
200906141150 METAR ESMX 141150Z 28014KT 240V310 9999 FEW039 19/06 Q1008=
200906141120 METAR ESMX 141120Z 29013KT 250V340 9999 FEW035 19/09 Q1009=
200906141050 METAR ESMX 141050Z 28012KT 250V320 9999 FEW033 18/09 Q1009=
200906141020 METAR ESMX 141020Z AUTO 26013KT 9999NDV FEW035/// 19/10 Q1009=
200906140950 METAR ESMX 140950Z AUTO 26017KT 9999NDV NCD 18/09 Q1009=
200906140920 METAR ESMX 140920Z AUTO 27012KT 230V310 9999NDV NCD 18/11 Q1009=
200906140850 METAR ESMX 140850Z AUTO 28012KT 250V320 9999NDV NCD 17/10 Q1009=
200906140820 METAR ESMX 140820Z AUTO 28011KT 240V320 9999NDV FEW023/// 16/10 Q1009=
200906140750 METAR ESMX 140750Z AUTO 29011KT 250V320 9999NDV FEW017/// SCT020/// 15/10 Q1009=
200906140720 METAR ESMX 140720Z AUTO 29012KT 250V320 9999NDV FEW016/// 14/10 Q1010=
200906140650 METAR ESMX 140650Z AUTO 27011KT 240V310 9999NDV FEW015/// 14/10 Q1010=
200906140620 METAR ESMX 140620Z AUTO 28013KT 250V320 9999NDV FEW014/// 13/10 Q1010=
200906140550 METAR ESMX 140550Z AUTO 28010KT 250V310 9999NDV NCD 13/09 Q1010=
200906140520 METAR ESMX 140520Z AUTO 27011KT 9999NDV FEW010/// 12/09 Q1010=
200906140450 METAR ESMX 140450Z AUTO 26009KT 9999NDV FEW008/// SCT010/// 11/09 Q1010=
200906140420 METAR ESMX 140420Z AUTO 27009KT 9999NDV FEW009/// SCT011/// BKN047/// 11/09 Q1010=
200906140350 METAR ESMX 140350Z AUTO VRB05KT 9999NDV SCT049/// 11/09 Q1010=
200906140320 METAR ESMX 140320Z AUTO 28007KT 250V320 9999NDV BKN050/// 11/09 Q1010=
200906140250 METAR ESMX 140250Z AUTO 28007KT 250V310 9999NDV FEW037/// SCT044/// OVC052/// 11/09 Q1010=
200906140220 METAR ESMX 140220Z AUTO 27006KT 9999NDV FEW039/// SCT043/// BKN056/// 11/09 Q1010=
200906140150 METAR ESMX 140150Z AUTO 28006KT 240V310 9999NDV OVC039/// 11/09 Q1010=
200906140120 METAR ESMX 140120Z AUTO 28007KT 250V320 9999NDV OVC036/// 11/09 Q1010=
200906140050 METAR ESMX 140050Z AUTO 27007KT 240V310 9999NDV FEW042/// 11/08 Q1011=
200906140020 METAR ESMX 140020Z AUTO 27007KT 230V300 9999NDV NCD 11/08 Q1010=
200906132350 METAR ESMX 132350Z AUTO 29007KT 230V310 9999NDV FEW027/// 11/08 Q1011=
200906132320 METAR ESMX 132320Z AUTO 29008KT 250V320 9999NDV FEW035/// 12/08 Q1011=
200906132250 METAR ESMX 132250Z AUTO 29008KT 250V320 9999NDV FEW025/// SCT046/// 12/08 Q1011=
200906132220 METAR ESMX 132220Z AUTO 29010KT 9999NDV BKN020/// BKN035/// 12/09 Q1011=
200906132150 METAR ESMX 132150Z AUTO 27007KT 230V300 9999NDV BKN021/// OVC044/// 13/10 Q1011=
200906132120 METAR ESMX 132120Z AUTO 27007KT 9999NDV FEW015/// BKN043/// 13/11 Q1011=
200906132050 METAR ESMX 132050Z AUTO 29008KT 260V330 9999NDV FEW014/// SCT054/// 13/11 Q1011=
200906132020 METAR ESMX 132020Z AUTO 29008KT 9999NDV FEW014/// SCT016/// BKN021/// 13/11 Q1011=
200906131950 METAR ESMX 131950Z AUTO 28008KT 250V310 9999NDV FEW015/// SCT045/// 13/11 Q1011=
200906131920 METAR ESMX 131920Z AUTO 29008KT 9999NDV FEW020/// 14/11 Q1011=
200906131850 METAR ESMX 131850Z AUTO 29006KT 250V320 9999NDV FEW021/// SCT028/// BKN037/// 14/11 Q1011=
200906131820 METAR ESMX 131820Z AUTO 29004KT 260V330 9999NDV FEW021/// SCT039/// OVC053/// 14/10 Q1011=
200906131750 METAR ESMX 131750Z 30006KT 260V330 9999 FEW025 SCT033 BKN040 15/10 Q1011=
200906131720 METAR ESMX 131720Z 29006KT 9999 FEW024 SCT031 BKN041 15/10 Q1011=
200906131650 METAR ESMX 131650Z 32003KT 260V360 9999 FEW030 BKN051 15/09 Q1011=
200906131620 METAR ESMX 131620Z 31005KT 9999 FEW031 SCT037 OVC046 15/09 Q1011=
200906131550 METAR ESMX 131550Z 31007KT 9999 FEW030 BKN049 15/09 Q1011=
200906131520 METAR ESMX 131520Z 33008KT 290V360 9999 FEW030 BKN042 15/08 Q1011=
200906131450 METAR ESMX 131450Z 31008KT 280V340 9999 FEW025 BKN042 15/09 Q1010=
200906131420 METAR ESMX 131420Z 32009KT 280V360 9999 FEW029 BKN046 15/09 Q1010=
200906131350 METAR ESMX 131350Z 34007KT 300V010 9999 FEW025 BKN045 15/08 Q1010=
200906131320 METAR ESMX 131320Z 33008KT 290V030 9999 FEW023 OVC041 14/09 Q1010=
200906131220 METAR ESMX 131220Z 31010KT 9999 FEW023 BKN038 14/09 Q1009=
200906131150 METAR ESMX 131150Z 33010KT 300V010 9999 SCT022 BKN035 14/09 Q1009=
200906131120 METAR ESMX 131120Z 32008KT 280V350 9999 FEW017 BKN035 BKN041 14/09 Q1009=
200906131050 METAR ESMX 131050Z 32007KT 9999 FEW012 BKN032 13/10 Q1009=
200906131020 METAR ESMX 131020Z 33008KT 9999 FEW012 BKN031 13/10 Q1008=
200906130950 METAR ESMX 130950Z 32009KT 280V350 9999 FEW012 SCT020 BKN030 12/10 Q1008=
200906130920 METAR ESMX 130920Z 31007G29KT 280V340 9999 FEW013 SCT024 BKN029 12/10 Q1008 REDZ=
200906130850 METAR ESMX 130850Z 30008KT 9999 FEW008 SCT014 BKN018 12/10 Q1007=
200906130820 METAR ESMX 130820Z 32007KT 9999 FEW007 SCT008 BKN012 12/10 Q1007=
200906130750 METAR ESMX 130750Z 33009KT 300V360 5000 BR FEW008 OVC020 11/10 Q1007 REDZ=
200906130720 METAR ESMX 130720Z 34009KT 300V010 5000 -DZ FEW008 SCT011 BKN014 11/10 Q1007=
200906130650 METAR ESMX 130650Z 33008KT 300V010 4200 -RA FEW007 SCT009 BKN014 11/09 Q1006=
200906130620 METAR ESMX 130620Z 32009KT 9999 -SHRA FEW009 BKN010 11/09 Q1006=
200906130550 METAR ESMX 130550Z AUTO 32009KT 290V350 9999NDV FEW010/// SCT013/// BKN017/// 11/09 Q1006=
200906130520 METAR ESMX 130520Z AUTO 31008KT 9999NDV FEW008/// BKN010/// OVC014/// 11/09 Q1005=
200906130450 METAR ESMX 130450Z AUTO 32007KT 290V350 9999NDV FEW008/// BKN012/// OVC016/// 11/09 Q1005=
200906130420 METAR ESMX 130420Z AUTO 32007KT 9999NDV FEW008/// OVC017/// 10/09 Q1005=
200906130350 METAR ESMX 130350Z AUTO 32008KT 9999NDV FEW009/// BKN012/// OVC021/// 10/09 Q1004=
200906130320 METAR ESMX 130320Z AUTO 33008KT 300V360 9999NDV FEW008/// OVC010/// 10/09 Q1004=
200906130250 METAR ESMX 130250Z AUTO 32010KT 9999NDV SCT006/// OVC009/// 10/09 Q1004=
200906130220 METAR ESMX 130220Z AUTO 33009KT 9999NDV FEW006/// SCT008/// BKN010/// 10/09 Q1003=
200906130150 METAR ESMX 130150Z AUTO 34009KT 9999NDV FEW007/// OVC014/// 10/09 Q1003=
200906130120 METAR ESMX 130120Z AUTO 33010KT 6000NDV BR FEW004/// SCT006/// BKN008/// 10/09 Q1003 REDZ=
200906130050 METAR ESMX 130050Z AUTO 32010KT 4100NDV DZ FEW005/// SCT006/// BKN007/// 10/09 Q1003=
200906130020 METAR ESMX 130020Z AUTO 33009KT 3600NDV DZ BKN005/// BKN015/// 10/09 Q1002=
200906122350 METAR ESMX 122350Z AUTO 32009KT 290V360 3800NDV DZ FEW005/// SCT007/// BKN008/// 10/09 Q1002=
200906122320 METAR ESMX 122320Z AUTO 32008KT 6000NDV BR FEW006/// BKN007/// OVC009/// 10/09 Q1002=
200906122250 METAR ESMX 122250Z AUTO 31008KT 3200NDV BR FEW005/// BKN008/// OVC011/// 10/09 Q1002=
200906122220 METAR ESMX 122220Z AUTO 31008KT 5000NDV DZ FEW004/// SCT006/// BKN008/// 10/09 Q1002=
200906122150 METAR ESMX 122150Z AUTO 31008KT 4300NDV BR FEW006/// SCT008/// BKN009/// 10/09 Q1001=
200906122120 METAR ESMX 122120Z AUTO 32007KT 290V350 9999NDV FEW007/// SCT009/// OVC011/// 10/09 Q1001=
200906122050 METAR ESMX 122050Z AUTO 32008KT 7000NDV BR FEW009/// SCT016/// BKN021/// 10/09 Q1001=
200906122020 METAR ESMX 122020Z AUTO 33007KT 290V350 9999NDV FEW009/// OVC034/// 10/09 Q1001=
200906121950 METAR ESMX 121950Z AUTO 34008KT 9999NDV FEW012/// OVC030/// 11/09 Q1000=
200906121920 METAR ESMX 121920Z 34009KT 9999 FEW016 SCT024 OVC028 11/09 Q1000 REDZ=
200906121850 METAR ESMX 121850Z 34008G33KT 9999 FEW012 BKN028 11/10 Q1000=
200906121820 METAR ESMX 121820Z 35009KT 9999 FEW013 SCT025 OVC031 11/10 Q1000=
200906121750 METAR ESMX 121750Z 34008KT 9999 FEW008 SCT016 BKN019 11/10 Q1000=
200906121720 METAR ESMX 121720Z 02007KT 9999 FEW005 SCT009 BKN011 11/10 Q1000=
200906121650 METAR ESMX 121650Z 01006KT 340V040 8000 BR FEW007 SCT013 BKN019 11/10 Q0999 RERA=
200906121620 METAR ESMX 121620Z 02007KT 340V040 8000 -RA FEW007 SCT009 BKN012 11/10 Q0999=
200906121550 METAR ESMX 121550Z 02007KT 9999 -RA FEW007 BKN010 OVC015 12/10 Q0999=
200906121520 METAR ESMX 121520Z 02009KT 9999 -RA FEW009 BKN012 12/10 Q0998=
200906121450 METAR ESMX 121450Z 03007KT 9999 FEW010 BKN012 12/11 Q0998=
200906121420 METAR ESMX 121420Z 02009KT 350V050 9999 -RA FEW009 SCT013 BKN016 13/11 Q0998=
200906121350 METAR ESMX 121350Z 36008KT 9999 FEW007 SCT010 BKN012 14/12 Q0998=
200906121320 METAR ESMX 121320Z 36009KT 9999 SCT005 SCT007 BKN009 13/12 Q0998=
200906121250 METAR ESMX 121250Z 01008KT 340V040 9999 SCT004 BKN008 13/12 Q0998=
200906121220 METAR ESMX 121220Z 02008KT 340V060 5000 DZ SCT004 BKN007 13/12 Q0998=
200906121150 METAR ESMX 121150Z 03007KT 010V070 5000 DZ OVC005 12/11 Q0998=
200906121120 METAR ESMX 121120Z 02008KT 340V050 9999 OVC004 12/11 Q0998=
200906121050 METAR ESMX 121050Z 04008KT 340V070 9999 SCT004 BKN005 12/11 Q0998=
200906121020 METAR ESMX 121020Z 04009KT 360V070 9999 SCT004 BKN005 12/11 Q0998=
200906120950 METAR ESMX 120950Z 02009KT 350V050 9999 OVC006 12/11 Q0998=
200906120920 METAR ESMX 120920Z 03009KT 350V060 9999 SCT006 OVC012 12/11 Q0998=
200906120850 METAR ESMX 120850Z 04009KT 350V070 9999 -RA SCT007 BKN012 13/11 Q0998=
200906120820 METAR ESMX 120820Z 04008KT 9999 -RA SCT005 BKN010 12/12 Q0998=
200906120750 METAR ESMX 120750Z 04008KT 360V070 9999 -RA SCT004 BKN007 12/11 Q0998 RESHRA=
200906120720 METAR ESMX 120720Z 04007KT 010V070 9999 -RA SCT006 BKN008 12/11 Q0998=
200906120650 METAR ESMX 120650Z 04008KT 020V080 9999 -RA OVC005 12/11 Q0998=
200906120620 METAR ESMX 120620Z 04008KT 010V080 9999 -RA OVC005 12/11 Q0998=
200906120550 METAR ESMX 120550Z 04007KT 020V090 9999 -RA OVC004 11/11 Q0998=
200906120520 METAR ESMX 120520Z 05007KT 9999 -RA OVC005 11/10 Q0999=
200906120450 METAR ESMX 120450Z 04009KT 9999 -RA OVC005 11/10 Q0999=
200906120420 METAR ESMX 120420Z 05008KT 010V090 9000 -RA OVC006 11/10 Q0999=
200906120350 METAR ESMX 120350Z 04008KT 010V090 9999 -RA OVC006 11/10 Q0999=
200906120320 METAR ESMX 120320Z AUTO 05007KT 020V090 9999NDV -RA BKN006/// OVC009/// 11/10 Q0999=
200906120250 METAR ESMX 120250Z AUTO 05008KT 010V110 9999NDV -RA FEW007/// SCT009/// OVC010/// 11/10 Q1000=
200906120220 METAR ESMX 120220Z AUTO 05007KT 010V090 9999NDV -RA OVC009/// 11/10 Q1000 RESHRA=
200906120150 METAR ESMX 120150Z AUTO 05008KT 360V100 6000NDV -RA OVC012/// 11/09 Q1001=
200906120120 METAR ESMX 120120Z AUTO 05009KT 010V130 9999NDV -RA OVC016/// 11/09 Q1001=
200906120050 METAR ESMX 120050Z AUTO 06008KT 010V110 9999NDV BKN017/// OVC020/// 11/09 Q1001=
200906120020 METAR ESMX 120020Z AUTO 05008KT 350V090 9999NDV -DZ BKN021/// OVC054/// 11/09 Q1002=
200906112350 METAR ESMX 112350Z AUTO 06009KT 010V140 9999NDV -DZ OVC021/// 11/09 Q1002=
200906112320 METAR ESMX 112320Z 05006KT 360V100 9999 -RA BKN025 BKN054 11/09 Q1002=
200906112250 METAR ESMX 112250Z 05006KT 360V110 9999 -RA BKN022 12/08 Q1003=
200906112220 METAR ESMX 112220Z 04005KT 350V080 9999 -RA SCT022 BKN041 OVC062 12/09 Q1003=
200906112150 METAR ESMX 112150Z 06005KT 020V130 9999 FEW035 BKN058 12/09 Q1003=
200906112120 METAR ESMX 112120Z 06005KT 020V090 9999 FEW035 BKN063 12/09 Q1004=
200906112050 METAR ESMX 112050Z 06005KT 010V100 9999 -RA FEW036 OVC063 12/10 Q1004=
200906112020 METAR ESMX 112020Z 06004KT 020V140 9999 -RA FEW045 BKN063 12/10 Q1004=
200906111950 METAR ESMX 111950Z 07004KT 030V140 9999 FEW045 BKN060 12/10 Q1005=
200906111920 METAR ESMX 111920Z VRB03KT 9999 -RA SCT045 BKN064 13/10 Q1005=
200906111850 METAR ESMX 111850Z VRB03KT 9999 -RA SCT045 BKN066 13/11 Q1005=
200906111820 METAR ESMX 111820Z 13006KT 070V190 9999 -RA SCT045 BKN067 14/11 Q1006=
200906111750 METAR ESMX 111750Z 13009KT 060V170 9999 -RA BKN040 BKN065 16/10 Q1006=
200906111720 METAR ESMX 111720Z 14006KT 080V170 9999 FEW035 SCT045 BKN055 17/08 Q1006=
200906111650 METAR ESMX 111650Z 11004KT 050V160 9999 SCT040 BKN060 18/09 Q1006=
200906111620 METAR ESMX 111620Z 03005KT 350V080 9999 FEW043 SCT057 BKN097 18/10 Q1006=
200906111550 METAR ESMX 111550Z 04006KT 350V070 9999 FEW044 BKN097 18/10 Q1006=
200906111520 METAR ESMX 111520Z 02003KT 9999 SCT040 BKN048 BKN068 17/10 Q1007=
200906111450 METAR ESMX 111450Z 03005KT 350V060 9999 SCT045 SCT057 18/09 Q1007=
200906111420 METAR ESMX 111420Z 03004KT 9999 SCT040 BKN064 17/10 Q1007=
200906111350 METAR ESMX 111350Z 02005KT 340V060 9999 SCT040 BKN065 18/09 Q1008=
200906111320 METAR ESMX 111320Z 06003KT 340V120 9999 SCT039 BKN050 19/09 Q1008=
200906111250 METAR ESMX 111250Z VRB02KT 9999 FEW040 19/08 Q1008=
200906111220 METAR ESMX 111220Z 20005KT 140V240 9999 FEW040 18/08 Q1008=
200906111150 METAR ESMX 111150Z 21006KT 9999 FEW034 18/07 Q1008=
200906111120 METAR ESMX 111120Z 22006KT 160V280 9999 SCT032 17/08 Q1009=
200906111050 METAR ESMX 111050Z 20006KT 150V230 9999 SCT030 17/08 Q1009=
200906111020 METAR ESMX 111020Z 22008KT 9999 BKN027 17/09 Q1009=
200906110950 METAR ESMX 110950Z 21011KT 9999 FEW020 BKN030 15/09 Q1009=
200906110920 METAR ESMX 110920Z 19012KT 150V230 9999 SCT024 15/09 Q1010=
200906110850 METAR ESMX 110850Z 20012KT 160V230 9999 SCT021 SCT200 15/09 Q1009=
200906110820 METAR ESMX 110820Z 20010KT 9999 FEW018 BKN025 14/09 Q1009=
200906110750 METAR ESMX 110750Z 19010KT 160V230 9999 FEW015 BKN025 13/09 Q1009=
200906110720 METAR ESMX 110720Z 20009KT 9999 SCT014 BKN024 12/09 Q1009=
200906110650 METAR ESMX 110650Z 19010KT 9999 SCT015 BKN025 12/09 Q1009=
200906110620 METAR ESMX 110620Z 19009KT 9999 FEW013 BKN025 12/09 Q1009=
200906110520 METAR ESMX 110520Z 18009KT 9999 BKN024 11/09 Q1009=
200906110450 METAR ESMX 110450Z 19007KT 150V210 9999 FEW015 BKN026 12/09 Q1009=
200906110420 METAR ESMX 110420Z 20007KT 9999 FEW015 BKN022 11/09 Q1009=
200906110350 METAR ESMX 110350Z 19006KT 9999 FEW014 BKN024 11/09 Q1009=
200906110320 METAR ESMX 110320Z AUTO 20007KT 150V220 9999NDV FEW011/// SCT016/// BKN026/// 11/09 Q1009=
200906110250 METAR ESMX 110250Z AUTO 22010KT 9999NDV FEW008/// OVC010/// 11/09 Q1009=
200906110220 METAR ESMX 110220Z AUTO 22008G24KT 080V250 9999NDV FEW012/// SCT023/// BKN027/// 12/10 Q1008 REDZ=
200906110150 METAR ESMX 110150Z AUTO 21009KT 9999NDV FEW009/// SCT011/// BKN016/// 12/10 Q1008=
200906110120 METAR ESMX 110120Z AUTO 21008KT 9999NDV FEW006/// SCT010/// BKN014/// 12/10 Q1008=
200906110050 METAR ESMX 110050Z AUTO 21008KT 9999NDV FEW007/// BKN008/// OVC010/// 12/11 Q1008=
200906110020 METAR ESMX 110020Z AUTO 19008KT 9999NDV BKN007/// OVC011/// 12/11 Q1008=
200906102350 METAR ESMX 102350Z AUTO 19008KT 9999NDV FEW008/// BKN009/// OVC013/// 12/11 Q1008=
200906102320 METAR ESMX 102320Z 19008KT 9999 SCT007 BKN011 OVC015 12/11 Q1008=
200906102250 METAR ESMX 102250Z 19008KT 9999 FEW007 SCT008 OVC010 12/11 Q1008=
200906102220 METAR ESMX 102220Z 20009KT 9999 -RA FEW008 BKN015 12/11 Q1009=
200906102150 METAR ESMX 102150Z 18006KT 9999 FEW012 SCT016 BKN019 13/11 Q1009=
200906102120 METAR ESMX 102120Z 18007KT 9999 FEW010 SCT019 OVC029 13/11 Q1009=
200906102050 METAR ESMX 102050Z 19007KT 160V230 9999 FEW018 SCT024 BKN030 13/11 Q1008=
200906102020 METAR ESMX 102020Z 20007KT 170V240 9999 FEW017 SCT020 BKN024 13/11 Q1008=
200906101950 METAR ESMX 101950Z 19007KT 9999 FEW016 BKN065 13/11 Q1008=
200906101920 METAR ESMX 101920Z 19008KT 9999 FEW023 SCT040 BKN065 13/12 Q1008=
200906101850 METAR ESMX 101850Z 20004KT 9999 FEW019 SCT026 BKN055 14/12 Q1008=
200906101820 METAR ESMX 101820Z 18006KT 150V210 9999 FEW017 SCT023 BKN060 14/12 Q1008=
200906101750 METAR ESMX 101750Z 19007KT 9999 FEW016 SCT025 BKN060 14/13 Q1008=
200906101720 METAR ESMX 101720Z 20009KT 9999 SCT007 BKN055 14/12 Q1008=
200906101650 METAR ESMX 101650Z 19010KT 9999 VCSH FEW010 SCT015CB BKN036 15/13 Q1008=
200906101620 METAR ESMX 101620Z 16008KT 130V190 7000 -SHRA FEW009 SCT016CB BKN020 14/13 Q1008 RERA=
200906101550 METAR ESMX 101550Z 16007KT 120V190 7000 -SHRA FEW008 BKN017CB 14/13 Q1008=
200906101520 METAR ESMX 101520Z 16007KT 120V200 6000 -SHRA SCT007 BKN015CB 15/13 Q1008=
200906101450 METAR ESMX 101450Z 15006KT 120V200 8000 BR FEW005 BKN017 14/13 Q1008 RERA=
200906101420 METAR ESMX 101420Z 18007KT 5000 SHRA SCT009 BKN012CB 14/13 Q1009=
200906101350 METAR ESMX 101350Z 18008KT 150V210 6000 RA SCT010 OVC014 14/12 Q1009=
200906101320 METAR ESMX 101320Z 17007KT 110V200 9999 SCT011 BKN017 15/12 Q1009=
200906101250 METAR COR ESMX 101250Z 17010KT 130V200 9999 FEW010 BKN015 15/12 Q1009=
200906101220 METAR ESMX 101220Z 17008KT 110V200 9999 SCT009 BKN012 15/13 Q1008=
200906101150 METAR ESMX 101150Z 16007KT 120V190 9999 BKN007 BKN011 15/12 Q1008=
200906101120 METAR ESMX 101120Z 16006KT 120V190 9999 OVC007 14/12 Q1008=
200906101050 METAR ESMX 101050Z 16006KT 120V200 9999 OVC004 13/12 Q1008=
200906101020 METAR ESMX 101020Z 16004KT 110V230 9999 OVC004 13/11 Q1008=
200906100950 METAR ESMX 100950Z 14003KT 080V170 9999 BKN005 12/11 Q1009=
200906100920 METAR ESMX 100920Z 14005KT 080V190 9999 FEW006 BKN007 OVC009 12/10 Q1009=
200906100850 METAR ESMX 100850Z 14003KT 100V190 9999 OVC006 12/11 Q1008=
200906100820 METAR ESMX 100820Z 08003KT 020V160 9999 -RA BKN005 OVC009 12/10 Q1008=
200906100750 METAR ESMX 100750Z VRB02KT 9999 -DZ OVC006 11/10 Q1008=
200906100720 METAR ESMX 100720Z 12004KT 060V190 9999 OVC005 11/10 Q1008=
200906100650 METAR ESMX 100650Z 12004KT 060V190 9999 -RA FEW004 OVC006 11/09 Q1008=
200906100620 METAR ESMX 100620Z 13003KT 070V170 9999 FEW003 OVC004 10/09 Q1008=
200906100550 METAR ESMX 100550Z 13003KT 070V160 9999 BKN002 OVC005 10/09 Q1008=
200906100520 METAR ESMX 100520Z VRB02KT 4200 BR SCT002 BKN004 09/09 Q1008=
200906100450 METAR ESMX 100450Z 18004KT 150V210 2800 BR OVC002 09/09 Q1009=
200906100420 METAR ESMX 100420Z 11004KT 050V180 4200 BR OVC003 09/08 Q1009=
200906100350 METAR ESMX 100350Z 11004KT 060V170 9999 OVC004 09/08 Q1009=
200906100320 METAR ESMX 100320Z AUTO 10003KT 030V170 9999NDV OVC004/// 09/08 Q1009=
200906100250 METAR ESMX 100250Z AUTO 11003KT 070V170 9999NDV FEW005/// OVC006/// 09/08 Q1009=
200906100220 METAR ESMX 100220Z AUTO VRB02KT 9999NDV FEW005/// OVC006/// 09/08 Q1009=
200906100150 METAR ESMX 100150Z AUTO 10003KT 060V150 9999NDV FEW006/// OVC009/// 09/08 Q1009=
200906092150 METAR ESMX 092150Z 08004KT 040V140 7000 RA FEW007 BKN027 08/07 Q1010=
200906092120 METAR ESMX 092120Z 08007KT 030V130 7000 RA FEW009 SCT036 BKN062 08/07 Q1011=
200906092050 METAR ESMX 092050Z 08007KT 010V150 8000 RA SCT036 BKN042 08/07 Q1011=
200906092020 METAR ESMX 092020Z 08005KT 010V140 8000 -RA BKN042 09/08 Q1012=
200906091950 METAR ESMX 091950Z 10006KT 050V150 8000 RA SCT043 09/08 Q1012=
200906091920 METAR ESMX 091920Z 09009KT 030V140 9999 -RA FEW014 SCT060 10/08 Q1011=
200906091850 METAR ESMX 091850Z 10006KT 050V150 9999 -RA FEW016 SCT069 11/09 Q1012 REDZ=
200906091820 METAR ESMX 091820Z 10005KT 040V160 9999 -DZ BKN061 12/08 Q1012 REDZ=
200906091750 METAR ESMX 091750Z 12006KT 070V180 9999 -RA FEW030 SCT060 12/08 Q1012=
200906091720 METAR ESMX 091720Z 12006KT 070V160 9999 -RA FEW036 BKN120 14/08 Q1012=
200906091650 METAR ESMX 091650Z 13006KT 070V170 9999 FEW034 BKN120 14/07 Q1012=
200906091620 METAR ESMX 091620Z 13007KT 050V190 9999 FEW037 BKN150 15/07 Q1012=
200906091550 METAR ESMX 091550Z 13006KT 070V170 9999 FEW044 BKN150 16/05 Q1012=
200906091520 METAR ESMX 091520Z 11006KT 050V160 CAVOK 17/05 Q1012=
200906091450 METAR ESMX 091450Z 12005KT 080V180 CAVOK 17/05 Q1012=
200906091420 METAR ESMX 091420Z 12004KT 060V190 CAVOK 17/03 Q1013=
200906091350 METAR ESMX 091350Z 16005KT 080V210 CAVOK 17/03 Q1013=
200906091320 METAR ESMX 091320Z 19006KT CAVOK 17/02 Q1013=
200906091250 METAR ESMX 091250Z 10005KT 040V160 9999 FEW047 17/03 Q1013=
200906091220 METAR ESMX 091220Z VRB04KT 9999 FEW045 17/04 Q1013=
200906091150 METAR ESMX 091150Z 07004KT 360V150 9999 FEW040 16/03 Q1014=
200906091120 METAR ESMX 091120Z VRB02KT 9999 FEW040 16/05 Q1014=
200906091050 METAR ESMX 091050Z VRB04KT 9999 FEW040 16/04 Q1014=
200906091020 METAR ESMX 091020Z 06003KT 340V140 9999 FEW038 SCT200 15/05 Q1014=
200906090950 METAR ESMX 090950Z 07004KT 360V140 9999 FEW034 SCT082 14/04 Q1014=
200906090920 METAR ESMX 090920Z 03005KT 350V060 9999 SCT030 14/04 Q1014=
200906090850 METAR ESMX 090850Z 05004KT 350V120 9999 SCT030 14/04 Q1014=
200906090820 METAR ESMX 090820Z 04004KT 350V080 9999 SCT025 13/06 Q1014=
200906090750 METAR ESMX 090750Z VRB02KT 9999 SCT020 13/06 Q1014=
200906090720 METAR ESMX 090720Z 04004KT 330V120 9999 SCT018 11/05 Q1014=
200906090650 METAR ESMX 090650Z 05004KT 350V110 9999 SCT016 11/05 Q1014=
200906090620 METAR ESMX 090620Z 08003KT 020V170 9999 BKN016 10/05 Q1014=
200906090550 METAR ESMX 090550Z 04004KT 350V080 9999 BKN015 09/05 Q1014=
200906090520 METAR ESMX 090520Z VRB02KT 9999 BKN015 09/05 Q1014=
200906090450 METAR ESMX 090450Z VRB02KT 9999 BKN015 08/07 Q1014=
200906090420 METAR ESMX 090420Z VRB01KT 9999 BKN013 07/06 Q1014=
200906090350 METAR ESMX 090350Z VRB01KT 9999 BKN012 07/06 Q1013=
200906090320 METAR ESMX 090320Z 00000KT 9999 BKN012 06/05 Q1013=
200906090250 METAR ESMX 090250Z AUTO VRB02KT 9999NDV OVC011/// 05/04 Q1013=
200906090220 METAR ESMX 090220Z AUTO 06003KT 350V100 9999NDV OVC011/// 04/04 Q1013=
200906090150 METAR ESMX 090150Z AUTO 05003KT 9999NDV BKN012/// 05/04 Q1012=
200906090120 METAR ESMX 090120Z AUTO 03003KT 9999NDV BKN012/// 03/03 Q1012=
200906090050 METAR ESMX 090050Z AUTO 00000KT 9999NDV BKN013/// 03/02 Q1012=
200906090020 METAR ESMX 090020Z AUTO 29001KT 9999NDV FEW012/// 04/03 Q1012=
200906082350 METAR ESMX 082350Z VRB02KT 9999 FEW016 05/04 Q1012=
200906082320 METAR ESMX 082320Z 02003KT 9999 SCT018 06/05 Q1012=
200906082250 METAR ESMX 082250Z 02004KT 9999 FEW009 SCT011 BKN018 08/07 Q1012=
200906082220 METAR ESMX 082220Z 36003KT 9999 FEW008 BKN017 08/07 Q1011=
200906082150 METAR ESMX 082150Z 36004KT 9999 SCT010 BKN015 08/07 Q1011=
200906082120 METAR ESMX 082120Z 36003KT 9999 BKN009 BKN014 07/06 Q1011=
200906082050 METAR ESMX 082050Z 03004KT 9999 FEW010 SCT024 BKN043 08/07 Q1011=
200906082020 METAR ESMX 082020Z 35005KT 9999 FEW013 SCT016 BKN034 09/07 Q1011=
200906081950 METAR ESMX 081950Z 34005KT 9999 FEW010 BKN015 09/07 Q1010=
200906081920 METAR ESMX 081920Z 01005KT 9999 FEW008 SCT034 10/07 Q1010=
200906081850 METAR ESMX 081850Z 02006KT 9999 FEW007 SCT029 BKN033 10/07 Q1010=
200906081820 METAR ESMX 081820Z 01006KT 9999 FEW010 SCT036 BKN043 10/07 Q1010=
200906081750 METAR ESMX 081750Z 01006KT 9999 FEW020 BKN028 10/07 Q1010=
200906081720 METAR ESMX 081720Z 36005KT 9999 FEW016 SCT029 BKN052 11/07 Q1009=
200906081650 METAR ESMX 081650Z 01006KT 330V030 9999 SCT040 BKN095 11/07 Q1009=
200906081620 METAR ESMX 081620Z 01005KT 9999 FEW035 SCT040 BKN090 11/06 Q1009=
200906081550 METAR ESMX 081550Z 02005KT 350V070 9999 FEW020 SCT037 BKN070 11/07 Q1009=
200906081520 METAR ESMX 081520Z 36006KT 330V030 9999 FEW013 SCT034 BKN077 11/07 Q1009=
200906081450 METAR ESMX 081450Z 01005KT 340V050 9999 FEW023 SCT029 BKN042 10/08 Q1009=
200906081420 METAR ESMX 081420Z 05004KT 320V110 9999 FEW015 SCT021 BKN045 11/08 Q1009=
200906081350 METAR ESMX 081350Z VRB02KT 9999 -RA FEW012 SCT018 BKN040 10/08 Q1009=
200906081320 METAR ESMX 081320Z VRB02KT 9999 -RA FEW013 SCT030 BKN035 09/08 Q1009=
200906081250 METAR ESMX 081250Z 05005KT 350V110 9999 -RA FEW005 SCT025 BKN030 10/08 Q1009=
200906081220 METAR ESMX 081220Z 04005KT 360V080 9999 -RA SCT020 BKN031 10/08 Q1009=
200906081150 METAR ESMX 081150Z 17005KT 130V200 9999 -RA BKN023CB BKN034 09/07 Q1009=
200906081120 METAR ESMX 081120Z 21003KT 140V250 9999 FEW017CB SCT032 BKN040 10/06 Q1008 RERA=
200906081050 METAR ESMX 081050Z 02009KT 340V050 9999 FEW025CB SCT030 13/06 Q1008=
200906081020 METAR ESMX 081020Z 06006KT 010V090 9999 BKN035 13/05 Q1008=
200906080950 METAR ESMX 080950Z VRB04KT 9999 FEW030 BKN055 12/05 Q1008=
200906080920 METAR ESMX 080920Z 09005KT 040V160 9999 FEW026 SCT035 12/05 Q1009=
200906080850 METAR ESMX 080850Z 05006KT 010V100 9999 SCT022 BKN052 11/05 Q1009=
200906080750 METAR ESMX 080750Z 09006KT 350V150 9999 FEW019 SCT022 BKN036 10/05 Q1009=
200906080720 METAR ESMX 080720Z 06006KT 010V110 9999 SCT016 BKN020 OVC036 10/05 Q1009=
200906080650 METAR ESMX 080650Z 06006KT 020V120 9999 SCT013 BKN018 OVC032 09/05 Q1009=
200906080620 METAR ESMX 080620Z 07006KT 020V120 9999 SCT011 BKN033 09/06 Q1009=
200906080550 METAR ESMX 080550Z 07005KT 030V110 9999 BKN009 BKN048 09/06 Q1009=
200906080520 METAR ESMX 080520Z 05007KT 020V100 9999 OVC009 08/05 Q1009=
200906080450 METAR ESMX 080450Z 05006KT 360V090 9999 FEW010 BKN013 07/05 Q1009=
200906080420 METAR ESMX 080420Z 02005KT 350V060 9999 FEW010 SCT060 BKN080 07/05 Q1010=
200906080350 METAR COR ESMX 080350Z 03004KT 360V060 9999 FEW010 BKN080 06/04 Q1010=
200906080320 METAR ESMX 080320Z AUTO 03004KT 360V070 9999NDV FEW060/// 06/04 Q1010=
200906080250 METAR ESMX 080250Z AUTO 02005KT 9999NDV NCD 05/04 Q1010=
200906080220 METAR ESMX 080220Z AUTO 03004KT 360V060 9999NDV FEW039/// 05/03 Q1010=
200906080150 METAR ESMX 080150Z AUTO VRB02KT 9999NDV NCD 04/03 Q1010=
200906080120 METAR ESMX 080120Z AUTO 03004KT 360V070 9999NDV NCD 04/02 Q1010=
200906080050 METAR ESMX 080050Z AUTO VRB02KT 9999NDV NCD 05/03 Q1010=
200906080020 METAR ESMX 080020Z 06004KT 020V110 CAVOK 06/03 Q1010=
200906072350 METAR ESMX 072350Z 06004KT 020V100 CAVOK 06/03 Q1010=
200906072320 METAR ESMX 072320Z 05003KT 010V100 CAVOK 06/03 Q1010=
200906072250 METAR ESMX 072250Z 05004KT 360V110 CAVOK 07/03 Q1010=
200906072220 METAR ESMX 072220Z 08003KT 030V140 CAVOK 07/03 Q1010=
200906072150 METAR ESMX 072150Z 06003KT 330V120 CAVOK 07/02 Q1010=
200906072120 METAR ESMX 072120Z 08003KT 030V120 CAVOK 07/02 Q1010=
200906072050 METAR ESMX 072050Z 09004KT 060V130 CAVOK 08/02 Q1009=
200906071950 METAR ESMX 071950Z 05005KT 020V100 CAVOK 09/01 Q1009=
200906071920 METAR ESMX 071920Z 08006KT 020V120 CAVOK 10/01 Q1009=
200906071850 METAR ESMX 071850Z 07007KT 030V110 CAVOK 10/M00 Q1008=
200906071820 METAR ESMX 071820Z 05006KT 020V100 CAVOK 11/01 Q1008=
200906071750 METAR ESMX 071750Z 04007KT 360V080 CAVOK 12/00 Q1008=
200906071720 METAR ESMX 071720Z 03010KT 350V060 CAVOK 13/M01 Q1008=
200906071650 METAR ESMX 071650Z 03008KT 350V080 CAVOK 14/M03 Q1007=
200906071620 METAR ESMX 071620Z 04009KT 010V090 CAVOK 14/M03 Q1007=
200906071550 METAR ESMX 071550Z 05010KT 010V090 CAVOK 15/M03 Q1007=
200906071520 METAR ESMX 071520Z 05008KT 360V130 CAVOK 15/M04 Q1007=
200906071450 METAR ESMX 071450Z 06007KT 030V110 CAVOK 15/M02 Q1007=
200906071420 METAR ESMX 071420Z 05009KT 010V100 CAVOK 14/M02 Q1007=
200906071350 METAR ESMX 071350Z 10005KT 050V160 CAVOK 15/M04 Q1007=
200906071320 METAR ESMX 071320Z 06008KT 020V110 CAVOK 15/M03 Q1007=
200906071250 METAR ESMX 071250Z 05009KT 010V080 CAVOK 14/M03 Q1007=
200906071220 METAR ESMX 071220Z 04009KT CAVOK 14/M02 Q1007=
200906071150 METAR ESMX 071150Z 07007KT 020V120 CAVOK 15/M01 Q1007=
200906071120 METAR ESMX 071120Z 08007KT 030V170 9999 SCT048 15/M00 Q1007=
200906071050 METAR ESMX 071050Z 06007KT 020V120 9999 SCT045 13/01 Q1007=
200906071020 METAR ESMX 071020Z AUTO 08008KT 040V130 9999NDV FEW047/// 14/01 Q1007=
200906070950 METAR ESMX 070950Z AUTO 06007KT 350V110 9999NDV SCT044/// BKN052/// 12/01 Q1007=
200906070920 METAR ESMX 070920Z AUTO 05010KT 020V080 9999NDV FEW041/// SCT046/// BKN052/// 12/01 Q1007=
200906070850 METAR ESMX 070850Z AUTO 08008KT 020V120 9999NDV FEW040/// 12/02 Q1007=
200906070820 METAR ESMX 070820Z AUTO 06009KT 010V110 9999NDV FEW052/// 11/02 Q1007=
200906070750 METAR ESMX 070750Z AUTO 05008KT 010V110 9999NDV FEW045/// 11/03 Q1007=
200906070720 METAR ESMX 070720Z AUTO 06008KT 010V100 9999NDV NCD 09/03 Q1007=
200906070650 METAR ESMX 070650Z AUTO 05009KT 010V100 9999NDV NCD 09/03 Q1007=
200906070620 METAR ESMX 070620Z AUTO 05009KT 350V100 9999NDV NCD 09/03 Q1007=
200906070550 METAR ESMX 070550Z AUTO 05009KT 350V100 9999NDV NCD 09/03 Q1007=
200906070520 METAR ESMX 070520Z AUTO 04008KT 350V070 9999NDV NCD 08/03 Q1007=
200906070450 METAR ESMX 070450Z AUTO 04008KT 010V080 9999NDV NCD 07/04 Q1007=
200906070420 METAR ESMX 070420Z AUTO 04005KT 010V070 9999NDV NCD 06/04 Q1007=
200906070350 METAR ESMX 070350Z AUTO 03007KT 9999NDV FEW010/// 06/04 Q1007=
200906070320 METAR ESMX 070320Z AUTO 02006KT 9999NDV NCD 04/03 Q1007=
200906070250 METAR ESMX 070250Z AUTO 02005KT 9999NDV NCD 04/03 Q1007=
200906070220 METAR ESMX 070220Z AUTO 03004KT 010V070 9999NDV NCD 02/01 Q1007=
200906070150 METAR ESMX 070150Z AUTO 02002KT 9999NDV NCD 02/01 Q1007=
200906070120 METAR ESMX 070120Z AUTO VRB01KT 9999NDV NCD 03/02 Q1007=
200906070050 METAR ESMX 070050Z AUTO 00000KT 9999NDV NCD 01/01 Q1008=
200906070020 METAR ESMX 070020Z AUTO VRB01KT 9999NDV NCD 02/01 Q1008=
200906062350 METAR ESMX 062350Z AUTO 07001KT 9999NDV NCD 04/02 Q1008=
200906062320 METAR ESMX 062320Z AUTO 11002KT 9999NDV NCD 04/02 Q1008=
200906062250 METAR ESMX 062250Z AUTO 11002KT 9999NDV NCD 05/02 Q1008=
200906062220 METAR ESMX 062220Z AUTO 13003KT 9999NDV FEW083/// 05/02 Q1008=
200906062150 METAR ESMX 062150Z AUTO 11003KT 9999NDV SCT083/// 05/02 Q1008=
200906062120 METAR ESMX 062120Z AUTO VRB02KT 9999NDV NCD 06/02 Q1008=
200906062050 METAR ESMX 062050Z AUTO VRB02KT 9999NDV NCD 06/02 Q1008=
200906062020 METAR ESMX 062020Z AUTO 16003KT 110V190 9999NDV NCD 07/02 Q1008=
200906061950 METAR ESMX 061950Z AUTO 15004KT 110V180 9999NDV NCD 09/02 Q1008=
200906061920 METAR ESMX 061920Z AUTO 15006KT 080V190 9999NDV NCD 10/02 Q1008=
200906061850 METAR ESMX 061850Z AUTO 14004KT 100V210 9999NDV NCD 11/01 Q1008=
200906061820 METAR ESMX 061820Z AUTO 15004KT 040V170 9999NDV NCD 12/01 Q1008=
200906061750 METAR ESMX 061750Z 13005KT 080V170 CAVOK 12/01 Q1008=
200906061720 METAR ESMX 061720Z 13004KT 070V170 CAVOK 12/00 Q1008=
200906061650 METAR ESMX 061650Z 15004KT 110V190 CAVOK 13/00 Q1008=
200906061620 METAR ESMX 061620Z 14004KT 090V190 CAVOK 13/00 Q1008=
200906061550 METAR ESMX 061550Z 11004KT 060V150 CAVOK 13/M00 Q1008=
200906061520 METAR ESMX 061520Z 12003KT 030V190 CAVOK 13/M01 Q1008=
200906061450 METAR ESMX 061450Z 10004KT 040V160 CAVOK 13/M01 Q1008=
200906061420 METAR ESMX 061420Z 11004KT 040V160 CAVOK 13/M01 Q1009=
200906061350 METAR ESMX 061350Z AUTO 13003KT 010V170 9999NDV FEW056/// OVC075/// 13/M01 Q1008=
200906061320 METAR ESMX 061320Z AUTO 14003KT 050V220 9999NDV OVC056/// 13/M01 Q1009=
200906061250 METAR ESMX 061250Z AUTO VRB01KT 9999NDV BKN057/// 14/M01 Q1009=
200906061220 METAR ESMX 061220Z AUTO VRB03KT 9999NDV BKN055/// 13/M02 Q1009=
200906061150 METAR ESMX 061150Z AUTO 17005KT 120V220 9999NDV OVC057/// 13/M01 Q1009=
200906061120 METAR ESMX 061120Z AUTO VRB05KT 9999NDV BKN057/// 13/M02 Q1009=
200906061050 METAR ESMX 061050Z AUTO 15004KT 060V240 9999NDV FEW061/// 13/M01 Q1009=
200906061020 METAR ESMX 061020Z AUTO 33004KT 260V050 9999NDV NCD 13/M01 Q1009=
200906060950 METAR ESMX 060950Z AUTO 02005KT 320V140 9999NDV NCD 12/M01 Q1010=
200906060920 METAR ESMX 060920Z AUTO 04005KT 310V070 9999NDV FEW053/// 11/M01 Q1010=
200906060850 METAR ESMX 060850Z AUTO VRB03KT 9999NDV FEW053/// 11/M00 Q1010=
200906060820 METAR ESMX 060820Z AUTO VRB02KT 9999NDV NCD 11/M02 Q1010=
200906060750 METAR ESMX 060750Z AUTO 05005KT 350V110 9999NDV NCD 11/M01 Q1010=
200906060720 METAR ESMX 060720Z AUTO 04004KT 320V110 9999NDV FEW038/// 10/01 Q1010=
200906060650 METAR ESMX 060650Z AUTO 08003KT 020V190 9999NDV NCD 10/03 Q1010=
200906060620 METAR ESMX 060620Z AUTO 04003KT 010V080 9999NDV NCD 09/02 Q1010=
200906060550 METAR ESMX 060550Z AUTO VRB01KT 9999NDV NCD 08/03 Q1010=
200906060520 METAR ESMX 060520Z AUTO VRB02KT 9999NDV NCD 07/06 Q1010=
200906060450 METAR ESMX 060450Z AUTO VRB01KT 9999NDV NCD 05/05 Q1010=
200906060420 METAR ESMX 060420Z AUTO VRB02KT 8000NDV NCD 03/03 Q1010=
200906060350 METAR ESMX 060350Z AUTO 00000KT 8000NDV BR SCT059/// 02/02 Q1010=
200906060320 METAR ESMX 060320Z AUTO VRB01KT 6000NDV BKN060/// 01/00 Q1010=
200906060250 METAR ESMX 060250Z AUTO 00000KT 5000NDV BKN061/// 00/M00 Q1009=
200906060220 METAR ESMX 060220Z AUTO 00000KT 1300NDV R01/P2000N R19/P2000N FZFG BKN063/// M00/M01 Q1009=
200906060150 METAR ESMX 060150Z AUTO VRB01KT 1500NDV BKN064/// 00/00 Q1009=
200906060120 METAR ESMX 060120Z AUTO 20002KT 4500NDV NCD M01/M01 Q1009=
200906060050 METAR ESMX 060050Z AUTO 00000KT 0300NDV R01/P2000N R19/0800V1300 BCFG NCD M01/M01 Q1010=
200906060020 METAR ESMX 060020Z AUTO 00000KT 4800NDV NCD 00/M00 Q1009=
200906052350 METAR ESMX 052350Z AUTO VRB01KT 1100NDV R01/P2000N R19/P2000N FG NCD 00/M00 Q1009=
200906052320 METAR ESMX 052320Z AUTO 00000KT 2200NDV BR NCD 01/01 Q1009=
200906052250 METAR ESMX 052250Z AUTO VRB01KT 2300NDV BR NCD 01/00 Q1009=
200906052220 METAR ESMX 052220Z AUTO 18002KT 0300NDV R01/P2000N R19/0600V1900N BR NCD 01/00 Q1009=
200906052150 METAR ESMX 052150Z AUTO 18002KT 0150NDV R01/P2000N R19/0400V0900U BR NCD 02/02 Q1009=
200906052120 METAR ESMX 052120Z AUTO 00000KT 0650NDV R01/P2000N R19/P2000N BR NCD 03/02 Q1009=
200906052050 METAR ESMX 052050Z AUTO 21001KT 1200NDV R01/P2000N R19/P2000D BR FEW057/// 04/03 Q1008=
200906052020 METAR ESMX 052020Z AUTO VRB01KT 8000NDV BR FEW047/// BKN055/// 05/04 Q1008=
200906051950 METAR ESMX 051950Z AUTO VRB02KT 9999NDV SCT041/// 06/04 Q1008=
200906051920 METAR ESMX 051920Z AUTO 00000KT 9999NDV BKN043/// 06/05 Q1008=
200906051850 METAR ESMX 051850Z AUTO 02004KT 9999NDV SCT027/// BKN037/// BKN044/// 07/05 Q1007 RERA=
200906051820 METAR ESMX 051820Z 04008KT 010V070 8000 -RA FEW019 OVC024 06/04 Q1007=
200906051750 METAR ESMX 051750Z 01005KT 340V050 9999 FEW018 SCT021 BKN056 09/04 Q1007=
200906051720 METAR ESMX 051720Z 35004KT 320V020 9999 SCT042 BKN056 08/05 Q1007=
200906051650 METAR ESMX 051650Z 35009KT 320V030 9999 FEW021 BKN045 08/05 Q1006=
200906051620 METAR ESMX 051620Z 02008KT 350V060 9999 FEW020 SCT038 BKN060 09/04 Q1006=
200906051550 METAR ESMX 051550Z 03008KT 350V060 9999 FEW034 SCT047 BKN053 09/04 Q1006=
200906051520 METAR ESMX 051520Z 03011KT 350V060 9999 FEW020 SCT028 BKN034 08/05 Q1006=
200906051450 METAR ESMX 051450Z 36011KT 9999 FEW020 SCT035 09/05 Q1005 RESHRA=
200906051420 METAR ESMX 051420Z 36007KT 330V030 9999 FEW027 BKN056 08/06 Q1005=
200906051350 METAR ESMX 051350Z 03011KT 360V060 9999 FEW017 SCT020 BKN025 08/05 Q1005=
200906051320 METAR ESMX 051320Z 36008KT 330V030 9999 FEW014 SCT020 BKN031 09/06 Q1004 RESHRA=
200906051250 METAR ESMX 051250Z 02008KT 9999 -SHRA FEW013 BKN023 07/05 Q1004=
200906051220 METAR ESMX 051220Z 01007KT 330V050 9999 SHRA FEW017 SCT022 BKN028 09/05 Q1003 RESHRA=
200906051150 METAR ESMX 051150Z 36009KT 330V030 9999 SHRA FEW015 SCT023 BKN098 07/05 Q1003=
200906051120 METAR ESMX 051120Z 36010KT 9999 BKN022 10/05 Q1003=
200906051050 METAR ESMX 051050Z 01016KT 9999 RA FEW015 SCT023 08/04 Q1003=
200906051020 METAR ESMX 051020Z 36013KT 9999 FEW013 SCT019 BKN030 08/05 Q1002=
200906050950 METAR ESMX 050950Z 35013KT 320V030 9999 FEW013 SCT026 BKN044 07/05 Q1002=
200906050920 METAR ESMX 050920Z 34009KT 320V020 9999 -RA FEW016 SCT024 BKN029 08/05 Q1002=
200906050850 METAR ESMX 050850Z 36010KT 9999 -RA FEW013 SCT021 BKN030 07/05 Q1001=
200906050820 METAR ESMX 050820Z 34010KT 9999 -SHRA FEW014 SCT017 BKN024 08/04 Q1001=
200906050750 METAR ESMX 050750Z 34008KT 9999 -DZ FEW011 SCT015 BKN021 07/05 Q1001=
200906050720 METAR ESMX 050720Z 36009KT 9999 -DZ FEW011 SCT018 BKN025 07/04 Q1001=
200906050650 METAR ESMX 050650Z 34010KT 9999 -RA FEW010 SCT012 BKN019 06/04 Q1000 REDZ=
200906050620 METAR ESMX 050620Z 34009KT 9999 DZ FEW012 SCT019 BKN024 06/04 Q1000=
200906050550 METAR ESMX 050550Z 34009KT 9999 -DZ FEW013 OVC025 06/04 Q1000=
200906050520 METAR ESMX 050520Z 33007KT 300V010 9999 FEW011 SCT017 OVC021 06/04 Q1000=
200906050450 METAR ESMX 050450Z 33008KT 290V010 9999 FEW013 SCT017 BKN024 06/04 Q1000=
200906050420 METAR ESMX 050420Z 33007KT 300V010 9999 FEW010 SCT024 BKN027 06/04 Q1000 REDZ=
200906050350 METAR ESMX 050350Z 31006KT 9999 BKN010 BKN025 06/04 Q0999=
200906050320 METAR ESMX 050320Z 31006KT 9999 FEW010 SCT019 BKN027 05/04 Q0999=
200906050250 METAR ESMX 050250Z AUTO 31007KT 9999NDV SCT009/// BKN012/// 05/04 Q0999=
200906050220 METAR ESMX 050220Z AUTO 31005KT 9999NDV -DZ BKN010/// OVC015/// 05/04 Q0999=
200906050150 METAR ESMX 050150Z AUTO 30004KT 9999NDV -DZ FEW011/// BKN014/// BKN025/// 05/04 Q0999=
200906050120 METAR ESMX 050120Z AUTO 29004KT 9999NDV DZ FEW012/// SCT014/// BKN026/// 05/04 Q0999=
200906050050 METAR ESMX 050050Z AUTO 30004KT 9999NDV -DZ FEW017/// OVC020/// 05/04 Q0999=
200906050020 METAR ESMX 050020Z AUTO 29003KT 250V320 9999NDV UP FEW013/// SCT020/// BKN024/// 05/03 Q0999=
200906042350 METAR ESMX 042350Z AUTO 27003KT 240V300 9999NDV FEW014/// SCT021/// BKN025/// 05/03 Q1000=
200906042320 METAR ESMX 042320Z 30003KT 250V330 9999 FEW018 SCT022 05/03 Q1000=
200906042250 METAR ESMX 042250Z 28003KT CAVOK 04/02 Q1000=
200906042220 METAR ESMX 042220Z 27002KT 9999 FEW022 03/01 Q1000=
200906042150 METAR ESMX 042150Z 26001KT 9999 FEW035 04/01 Q1000=
200906042120 METAR ESMX 042120Z 28003KT 9999 FEW038 05/02 Q1000=
200906042050 METAR ESMX 042050Z 31004KT CAVOK 06/02 Q1000=
200906042020 METAR ESMX 042020Z 29004KT CAVOK 06/01 Q1001=
200906041950 METAR ESMX 041950Z 28004KT CAVOK 07/00 Q1000=
200906041920 METAR ESMX 041920Z 27004KT CAVOK 08/00 Q1000=
200906041850 METAR ESMX 041850Z 27010KT 9999 FEW014 SCT100 09/00 Q1000=
200906041820 METAR ESMX 041820Z 33013KT 9999 -SHRA FEW014 FEW025CB SCT040 08/01 Q1000=
200906041750 METAR ESMX 041750Z 31008KT 270V340 9999 FEW035CB SCT065 11/M01 Q1000=
200906041720 METAR ESMX 041720Z 34005KT 9999 FEW040CB 11/M00 Q1000=
200906041650 METAR ESMX 041650Z 30010KT 270V330 9999 FEW035CB 11/M01 Q1000=
200906041620 METAR ESMX 041620Z 34007KT 290V020 9999 FEW040CB 12/M00 Q1000=
200906041550 METAR ESMX 041550Z 33007KT 290V010 9999 -RA FEW040CB SCT064 12/01 Q1001=
200906041520 METAR ESMX 041520Z 34015KT 9999 FEW040CB SCT064 11/02 Q1001=
200906041450 METAR ESMX 041450Z 28012KT 9999 -RA FEW038CB BKN067 12/M02 Q1001=
200906041420 METAR ESMX 041420Z 30011KT 270V340 9999 FEW020CB SCT060 13/M04 Q1001=
200906041350 METAR ESMX 041350Z 29010KT 9999 FEW020CB SCT045 14/M02 Q1000=
200906041320 METAR ESMX 041320Z 32015KT 9999 FEW020CB SCT045 14/M02 Q1000=
200906041250 METAR ESMX 041250Z 30012KT 260V330 CAVOK 12/M04 Q1001=
200906041220 METAR ESMX 041220Z 32012KT 290V350 CAVOK 14/M02 Q1001=
200906041150 METAR ESMX 041150Z 33013KT 290V350 CAVOK 13/M02 Q1001=
200906041120 METAR ESMX 041120Z 31013KT CAVOK 12/M03 Q1001=
200906041050 METAR ESMX 041050Z 30012KT 280V340 CAVOK 13/M02 Q1001=
200906041020 METAR ESMX 041020Z 31013KT 280V340 9999 FEW035 SCT057 BKN068 13/M02 Q1001=
200906040950 METAR ESMX 040950Z 32013KT 290V350 9999 FEW035 SCT057 BKN068 12/M03 Q1001=
200906040920 METAR ESMX 040920Z 32010KT 280V010 9999 FEW045 SCT060 12/M00 Q1002=
200906040850 METAR ESMX 040850Z 27011KT 9999 FEW040 SCT050 12/01 Q1002=
200906040820 METAR ESMX 040820Z 30010KT 250V010 9999 SCT039 11/01 Q1002=
200906040750 METAR ESMX 040750Z 32010KT 280V350 9999 FEW036 SCT043 11/01 Q1002=
200906040720 METAR ESMX 040720Z 31010KT 270V360 9999 SCT035 09/01 Q1002=
200906040650 METAR ESMX 040650Z 30010KT 270V340 9999 FEW033 09/01 Q1002=
200906040620 METAR ESMX 040620Z 30008KT 260V350 9999 FEW025 09/02 Q1002=
200906040550 METAR ESMX 040550Z 34010KT 9999 FEW015 08/01 Q1002=
200906040520 METAR ESMX 040520Z 32010KT CAVOK 08/01 Q1002=
200906040450 METAR ESMX 040450Z 31008KT CAVOK 07/02 Q1002=
200906040420 METAR ESMX 040420Z 32006KT CAVOK 07/01 Q1002=
200906040350 METAR ESMX 040350Z 31006KT CAVOK 06/01 Q1002=
200906040320 METAR ESMX 040320Z 31005KT CAVOK 05/01 Q1002=
200906040250 METAR ESMX 040250Z AUTO 30007KT 9999NDV NCD 05/01 Q1003=
200906040220 METAR ESMX 040220Z AUTO 30005KT 9999NDV NCD 04/01 Q1003=
200906040150 METAR ESMX 040150Z AUTO 28006KT 9999NDV NCD 05/01 Q1003=
200906040120 METAR ESMX 040120Z AUTO 29007KT 9999NDV NCD 05/01 Q1003=
200906040050 METAR ESMX 040050Z AUTO 29006KT 9999NDV NCD 05/01 Q1003=
200906040020 METAR ESMX 040020Z AUTO 27007KT 9999NDV NCD 05/01 Q1003=
200906032350 METAR ESMX 032350Z AUTO 27004KT 230V290 9999NDV NCD 05/00 Q1003=
200906032320 METAR ESMX 032320Z 30006KT 270V330 CAVOK 06/00 Q1004=
200906032250 METAR ESMX 032250Z 30005KT CAVOK 06/00 Q1004=
200906032220 METAR ESMX 032220Z 30005KT CAVOK 06/01 Q1004=
200906032150 METAR ESMX 032150Z 30005KT CAVOK 06/01 Q1004=
200906032120 METAR ESMX 032120Z 31006KT 280V340 CAVOK 06/00 Q1004=
200906032050 METAR ESMX 032050Z 31005KT CAVOK 07/01 Q1005=
200906032020 METAR ESMX 032020Z 32009KT CAVOK 09/00 Q1005=
200906031950 METAR ESMX 031950Z 32007KT 290V360 CAVOK 09/M01 Q1005=
200906031920 METAR ESMX 031920Z 32007KT 290V350 CAVOK 09/M01 Q1004=
200906031850 METAR ESMX 031850Z 33009KT 300V360 CAVOK 10/M02 Q1004=
200906031820 METAR ESMX 031820Z 33007KT CAVOK 11/M02 Q1004=
200906031750 METAR ESMX 031750Z 31008KT 280V340 CAVOK 11/M02 Q1004=
200906031720 METAR ESMX 031720Z 32009KT 280V350 CAVOK 12/M03 Q1004=
200906031650 METAR ESMX 031650Z 31010KT 280V340 CAVOK 13/M03 Q1004=
200906031620 METAR ESMX 031620Z 34012KT CAVOK 13/M02 Q1004=
200906031550 METAR ESMX 031550Z 33014KT 290V360 CAVOK 13/M02 Q1004=
200906031520 METAR ESMX 031520Z 35012KT 320V030 CAVOK 12/M03 Q1004=
200906031450 METAR ESMX 031450Z 34008KT 9999 FEW045CB SCT060 11/02 Q1005=
200906031420 METAR ESMX 031420Z 36008KT 320V040 9999 FEW045CB SCT070 10/03 Q1005=
200906031350 METAR ESMX 031350Z 01009KT 9999 FEW030CB SCT060 10/04 Q1005=
200906031320 METAR ESMX 031320Z 01019KT 9999 FEW030CB SCT050 BKN060 10/02 Q1005=
200906031250 METAR ESMX 031250Z 35014KT 9999 FEW030CB SCT050 12/03 Q1005=
200906031220 METAR ESMX 031220Z 01013KT 9999 FEW025CB SCT050 12/04 Q1005 RESHRA=
200906031150 METAR ESMX 031150Z 35018KT 9999 FEW035CB 13/05 Q1005=
200906031120 METAR ESMX 031120Z 33012KT 9999 FEW027CB 09/04 Q1005=
200906031050 METAR ESMX 031050Z 32015KT 9999 -SHRA FEW015CB SCT040 09/04 Q1005=
200906031020 METAR ESMX 031020Z 32016KT 9999 RA FEW019 SCT046 BKN072 11/04 Q1004=
200906030950 METAR ESMX 030950Z 34014KT 310V020 9999 FEW030 12/05 Q1004=
200906030920 METAR ESMX 030920Z 35012KT 320V020 9999 FEW025 SCT040 11/05 Q1005=
200906030850 METAR ESMX 030850Z 34014KT 320V020 9999 FEW025 SCT074 10/04 Q1005=
200906030820 METAR ESMX 030820Z 32012KT 290V350 9999 SCT025 10/04 Q1005=
200906030750 METAR ESMX 030750Z 35013KT 300V020 9999 -RA FEW028CB SCT041 BKN071 11/05 Q1005=
200906030720 METAR ESMX 030720Z 35012KT 9999 FEW031 SCT060 12/04 Q1005=
200906030650 METAR ESMX 030650Z 36013KT 9999 SCT020 11/05 Q1005=
200906030620 METAR ESMX 030620Z 35013KT 9999 FEW018 SCT023 BKN071 10/06 Q1005=
200906030520 METAR ESMX 030520Z 36012KT 9999 FEW020 10/05 Q1005=
200906030450 METAR ESMX 030450Z 36013KT 330V030 9999 SCT013 08/06 Q1005=
200906030420 METAR ESMX 030420Z 35012KT 9999 FEW010 BKN013 BKN016 08/06 Q1005=
200906030350 METAR ESMX 030350Z 36013KT 9999 FEW009 BKN011 08/06 Q1005=
200906030320 METAR ESMX 030320Z 35013KT 9999 FEW008 SCT013 BKN022 08/06 Q1005=
200906030250 METAR ESMX 030250Z AUTO 34011KT 9999NDV FEW009/// BKN020/// OVC025/// 08/06 Q1004=
200906030220 METAR ESMX 030220Z AUTO 32008KT 280V350 9999NDV BKN010/// OVC019/// 08/07 Q1004=
200906030150 METAR ESMX 030150Z AUTO 31006KT 9999NDV FEW008/// BKN026/// OVC033/// 08/07 Q1005=
200906030120 METAR ESMX 030120Z AUTO 35008KT 320V030 9999NDV FEW007/// SCT009/// BKN024/// 08/07 Q1005=
200906030050 METAR ESMX 030050Z AUTO 34008KT 9999NDV FEW006/// SCT008/// BKN010/// 08/07 Q1005=
200906030020 METAR ESMX 030020Z AUTO 35009KT 9999NDV FEW011/// SCT015/// OVC020/// 08/07 Q1005=
200906022350 METAR ESMX 022350Z AUTO 36009KT 9999NDV FEW008/// SCT013/// BKN016/// 08/07 Q1006 REDZ=
200906022320 METAR ESMX 022320Z 36008KT 9999 -RA FEW006 SCT008 BKN009 08/07 Q1006=
200906022250 METAR ESMX 022250Z 03008KT 9999 FEW007 SCT009 BKN010 08/07 Q1006=
200906022220 METAR ESMX 022220Z 03008KT 360V060 9999 FEW008 BKN011 OVC035 08/07 Q1006=
200906022150 METAR ESMX 022150Z 03009KT 350V080 9999 FEW008 SCT010 BKN013 09/07 Q1006=
200906022120 METAR ESMX 022120Z 02010KT 350V060 7000 -RA FEW006 BKN010 OVC014 09/07 Q1007 REDZ=
200906022050 METAR ESMX 022050Z 03010KT 350V060 9999 -DZ FEW008 BKN010 OVC014 09/08 Q1007=
200906022020 METAR ESMX 022020Z 03008KT 010V070 9999 -RA FEW008 SCT009 OVC011 09/08 Q1006=
200906021950 METAR ESMX 021950Z 04008KT 010V080 5000 -RA SCT009 BKN010 OVC014 09/08 Q1007=
200906021920 METAR ESMX 021920Z 05009KT 020V110 9999 DZ BKN011 OVC016 09/08 Q1007=
200906021850 METAR ESMX 021850Z 03010KT 010V070 9999 -RA BKN012 10/07 Q1007=
200906021820 METAR ESMX 021820Z 05008KT 020V110 9999 FEW013 SCT016 BKN020 10/07 Q1007=
200906021750 METAR ESMX 021750Z 05009KT 020V090 9999 FEW015 SCT018 BKN080 11/07 Q1007=
200906021720 METAR ESMX 021720Z 07006KT 030V140 9999 FEW040 SCT080 11/07 Q1006=
200906021650 METAR ESMX 021650Z 08008KT 030V150 CAVOK 12/07 Q1007=
200906021620 METAR ESMX 021620Z 09010G20KT 020V150 CAVOK 12/07 Q1007=
200906021550 METAR ESMX 021550Z 08010KT 010V120 CAVOK 12/08 Q1007=
200906021520 METAR ESMX 021520Z 07011G21KT 030V130 CAVOK 13/08 Q1007=
200906021450 METAR ESMX 021450Z 06011KT 010V100 9999 -RA FEW050CB 13/09 Q1008=
200906021420 METAR ESMX 021420Z 04016KT 9999 -RA FEW010CB SCT050 BKN077 16/11 Q1008=
200906021350 METAR ESMX 021350Z 12004KT 070V180 9999 FEW020 SCT040 21/10 Q1007=
200906021250 METAR ESMX 021250Z 21009KT CAVOK 22/09 Q1007=
200906021220 METAR ESMX 021220Z 24007KT 190V270 CAVOK 24/09 Q1008=
200906021150 METAR ESMX 021150Z 22007KT 170V250 9999 FEW050TCU SCT080 BKN110 24/08 Q1009=
200906021120 METAR ESMX 021120Z 19006KT 110V280 CAVOK 23/09 Q1009=
200906021050 METAR ESMX 021050Z 19006KT 140V250 CAVOK 22/10 Q1010=
200906021020 METAR ESMX 021020Z 18006KT 120V220 CAVOK 22/11 Q1010=
200906020950 METAR ESMX 020950Z 23007KT 200V260 CAVOK 23/10 Q1011=
200906020920 METAR ESMX 020920Z 21005KT 150V250 CAVOK 22/09 Q1011=
200906020850 METAR ESMX 020850Z 13005KT 070V190 CAVOK 21/09 Q1012=
200906020820 METAR ESMX 020820Z VRB03KT CAVOK 21/10 Q1012=
200906020750 METAR ESMX 020750Z 16005KT 110V220 CAVOK 20/09 Q1013=
200906020720 METAR ESMX 020720Z 18006KT CAVOK 19/08 Q1013=
200906020650 METAR ESMX 020650Z 17005KT 130V200 CAVOK 18/08 Q1014=
200906020620 METAR ESMX 020620Z 10003KT 060V150 CAVOK 17/08 Q1014=
200906020550 METAR ESMX 020550Z VRB01KT CAVOK 16/08 Q1015=
200906020520 METAR ESMX 020520Z 06003KT 020V120 CAVOK 15/08 Q1015=
200906020450 METAR ESMX 020450Z VRB02KT CAVOK 15/08 Q1015=
200906020420 METAR ESMX 020420Z VRB02KT CAVOK 14/08 Q1016=
200906020350 METAR ESMX 020350Z VRB02KT CAVOK 13/08 Q1016=
200906020320 METAR ESMX 020320Z AUTO 05003KT 9999NDV NCD 12/07 Q1016=
200906020250 METAR ESMX 020250Z AUTO 06003KT 010V100 9999NDV NCD 12/07 Q1016=
200906020220 METAR ESMX 020220Z AUTO 06003KT 9999NDV NCD 12/07 Q1017=
200906020150 METAR ESMX 020150Z AUTO 06006KT 9999NDV NCD 12/07 Q1017=
200906020120 METAR ESMX 020120Z AUTO 08004KT 040V120 9999NDV NCD 12/07 Q1017=
200906020050 METAR ESMX 020050Z AUTO 08003KT 030V120 9999NDV NCD 13/07 Q1017=
200906020020 METAR ESMX 020020Z AUTO VRB02KT 9999NDV NCD 13/06 Q1018=
200906012350 METAR ESMX 012350Z AUTO 06003KT 020V100 9999NDV NCD 14/06 Q1018=
200906012320 METAR ESMX 012320Z 08003KT 040V110 CAVOK 15/08 Q1018=
200906012250 METAR ESMX 012250Z 09004KT 060V140 CAVOK 16/10 Q1018=
200906012220 METAR ESMX 012220Z 11004KT CAVOK 16/10 Q1018=
200906012150 METAR ESMX 012150Z 13003KT CAVOK 15/10 Q1018=
200906012120 METAR ESMX 012120Z 20002KT CAVOK 17/10 Q1018=
200906012050 METAR ESMX 012050Z 15004KT CAVOK 18/11 Q1018=
200906012020 METAR ESMX 012020Z 15005KT 130V190 CAVOK 20/10 Q1018=
200906011950 METAR ESMX 011950Z 16007KT CAVOK 21/10 Q1018=
200906011920 METAR ESMX 011920Z 14004KT 080V170 CAVOK 22/09 Q1017=
200906011850 METAR ESMX 011850Z 07002KT CAVOK 22/06 Q1017=
200906011820 METAR ESMX 011820Z VRB02KT CAVOK 25/07 Q1017=
200906011750 METAR ESMX 011750Z 06003KT 010V100 CAVOK 26/03 Q1017=
200906011720 METAR ESMX 011720Z 36003KT CAVOK 26/05 Q1018=
200906011650 METAR ESMX 011650Z 09003KT 030V120 CAVOK 26/04 Q1018=
200906011620 METAR ESMX 011620Z 35003KT 310V030 CAVOK 26/04 Q1018=
200906011520 METAR ESMX 011520Z 05004KT 340V100 CAVOK 27/05 Q1019=
200906011450 METAR ESMX 011450Z 02003KT 320V080 CAVOK 27/04 Q1019=
200906011420 METAR ESMX 011420Z 34004KT 280V080 CAVOK 26/05 Q1019=
200906011350 METAR ESMX 011350Z 34005KT 290V030 CAVOK 26/05 Q1020=
200906011320 METAR ESMX 011320Z 35005KT 300V040 CAVOK 26/07 Q1020=
200906011250 METAR ESMX 011250Z 01006KT 330V050 CAVOK 26/05 Q1020=
200906011220 METAR ESMX 011220Z 34007KT CAVOK 26/06 Q1021=
