##########################################################
# Query made at 04/19/2024 21:11:32 UTC
# Time interval: from 08/01/2009 12:00  to 08/31/2009 12:59  UTC
##########################################################

##########################################################
# ESMX, Vaxjo (Sweden)
# WMO index: 02641. WIGOS ID: 0-20000-0-02648
# Latitude 56-51N. Longitude 014-50E. Altitude 199 m.
##########################################################

200908311250 METAR ESMX 311250Z 20008KT 9999 FEW020 BKN045 17/12 Q1016=
200908311220 METAR ESMX 311220Z 19009KT 150V230 9999 FEW019 SCT025 BKN041 17/12 Q1016=
200908311150 METAR ESMX 311150Z 21008KT 9999 FEW020 SCT039 OVC043 17/12 Q1016=
200908311120 METAR ESMX 311120Z 22008KT 190V250 9999 FEW014 SCT021 BKN040 15/12 Q1016=
200908311050 METAR ESMX 311050Z 21010KT 170V240 9999 FEW020 SCT028 BKN045 16/12 Q1016=
200908311020 METAR ESMX 311020Z 22011KT 9999 FEW022 SCT028 BKN035 16/11 Q1016=
200908310950 METAR ESMX 310950Z 22011KT 180V250 9999 FEW021 SCT025 BKN029 16/11 Q1016=
200908310920 METAR ESMX 310920Z 22011KT 180V250 9999 FEW020 BKN030 15/11 Q1016=
200908310850 METAR ESMX 310850Z 23011KT 200V260 9999 FEW017 BKN050 16/12 Q1016=
200908310820 METAR ESMX 310820Z 24012KT 200V270 9999 FEW019 BKN030 15/11 Q1016=
200908310750 METAR ESMX 310750Z 23011KT 190V250 9999 FEW017 SCT025 15/11 Q1016=
200908310720 METAR ESMX 310720Z 22008KT 190V250 9999 SCT020 15/12 Q1015=
200908310650 METAR ESMX 310650Z 22008KT 9999 FEW015 14/12 Q1015=
200908310620 METAR ESMX 310620Z 21007KT 9999 FEW015 12/11 Q1015=
200908310550 METAR ESMX 310550Z 20008KT 9999 FEW020 SCT035 12/10 Q1015=
200908310520 METAR ESMX 310520Z 20009KT 9999 SCT040 BKN050 12/11 Q1015=
200908310450 METAR ESMX 310450Z 20009KT 9999 FEW025 SCT054 11/10 Q1015=
200908310420 METAR ESMX 310420Z 20007KT 9999 SCT052 10/09 Q1015=
200908310350 METAR ESMX 310350Z 18007KT CAVOK 09/09 Q1014=
200908310320 METAR ESMX 310320Z 19005KT CAVOK 09/08 Q1014=
200908310250 METAR ESMX 310250Z AUTO 20006KT 9999NDV NCD 09/08 Q1014=
200908310220 METAR ESMX 310220Z AUTO 19006KT 9999NDV NCD 09/09 Q1014=
200908310150 METAR ESMX 310150Z AUTO 19006KT 9999NDV NCD 09/08 Q1014=
200908310050 METAR ESMX 310050Z AUTO 21006KT 9999NDV SCT058/// 10/09 Q1014=
200908310020 METAR ESMX 310020Z AUTO 21006KT 9999NDV NCD 09/08 Q1014=
200908302350 METAR ESMX 302350Z 21006KT 9999 FEW025 09/08 Q1013=
200908302320 METAR ESMX 302320Z 19006KT CAVOK 09/08 Q1013=
200908302250 METAR ESMX 302250Z 19007KT 9999 FEW026 SCT068 10/09 Q1013=
200908302220 METAR ESMX 302220Z 19005KT 9999 FEW031 SCT060 10/09 Q1013=
200908302150 METAR ESMX 302150Z 20005KT 9999 FEW025 SCT045 10/09 Q1013=
200908302120 METAR ESMX 302120Z 20006KT CAVOK 10/09 Q1013=
200908302050 METAR ESMX 302050Z 22007KT 9999 SCT045 BKN070 11/09 Q1013=
200908302020 METAR ESMX 302020Z 21005KT CAVOK 10/09 Q1013=
200908301950 METAR ESMX 301950Z 21005KT CAVOK 10/09 Q1013=
200908301920 METAR ESMX 301920Z 21006KT 9999 NSC 11/09 Q1012=
200908301850 METAR ESMX 301850Z 22005KT CAVOK 11/09 Q1012=
200908301820 METAR ESMX 301820Z 22004KT 9999 FEW032 12/09 Q1012=
200908301750 METAR ESMX 301750Z 23006KT 9999 FEW032 13/09 Q1012=
200908301720 METAR ESMX 301720Z 23008KT 9999 SCT040 14/09 Q1012=
200908301650 METAR ESMX 301650Z 23006KT 200V260 9999 FEW040 15/10 Q1012=
200908301620 METAR ESMX 301620Z 25008KT 210V290 9999 FEW030 15/10 Q1011=
200908301550 METAR ESMX 301550Z 25005KT 210V290 9999 FEW020CB 16/11 Q1011=
200908301520 METAR ESMX 301520Z 25005KT 210V300 9999 FEW020CB SCT075 15/11 Q1011=
200908301450 METAR ESMX 301450Z 20008KT 9999 FEW020CB SCT070 15/11 Q1011=
200908301420 METAR ESMX 301420Z 21008KT 160V240 9999 FEW020CB SCT050 15/12 Q1011=
200908301350 METAR ESMX 301350Z 21005KT 170V250 9999 FEW015CB SCT050 13/11 Q1011 RESHRA=
200908301320 METAR ESMX 301320Z 25008KT 200V280 9999 -SHRA SCT014CB BKN050 12/09 Q1011=
200908301250 METAR ESMX 301250Z 20008KT 160V250 9999 -SHRA FEW015CB BKN050 15/11 Q1011=
200908301220 METAR ESMX 301220Z 19006KT 150V230 9999 FEW015CB SCT050 14/11 Q1011=
200908301150 METAR ESMX 301150Z 22004KT 170V240 9999 FEW014CB SCT040 BKN080 12/10 Q1012=
200908301120 METAR ESMX 301120Z 27005KT 9999 FEW020CB SCT040 BKN080 14/11 Q1011 RERA=
200908301050 METAR ESMX 301050Z 23004KT 200V260 9999 FEW015CB SCT040 BKN080 12/11 Q1011 RESHRA=
200908301020 METAR ESMX 301020Z AUTO 26006KT 230V300 8000NDV RA FEW058/// 12/11 Q1011=
200908300950 METAR ESMX 300950Z AUTO 22008G21KT 9999NDV -RA FEW036/// SCT060/// 14/11 Q1011=
200908300920 METAR ESMX 300920Z AUTO 20007KT 9999NDV FEW048/// 14/11 Q1011=
200908300850 METAR ESMX 300850Z AUTO 23009KT 9999NDV FEW027/// 13/11 Q1011=
200908300820 METAR ESMX 300820Z AUTO 22008KT 9999NDV FEW021/// 13/11 Q1011 RERA RESHRA=
200908300750 METAR ESMX 300750Z AUTO 22011KT 9999NDV -RA SCT010/// BKN014/// BKN023/// 13/10 Q1011=
200908300720 METAR ESMX 300720Z AUTO 21010KT 9999NDV FEW010/// 12/10 Q1011=
200908300650 METAR ESMX 300650Z AUTO 20009KT 9999NDV FEW033/// 12/10 Q1011=
200908300620 METAR ESMX 300620Z AUTO 20009KT 9999NDV FEW005/// SCT007/// BKN009/// 12/10 Q1011=
200908300550 METAR ESMX 300550Z AUTO 19009KT 9999NDV SCT005/// BKN008/// 11/10 Q1011=
200908300520 METAR ESMX 300520Z AUTO 19007KT 9999NDV FEW003/// BKN004/// BKN030/// 10/10 Q1011=
200908300450 METAR ESMX 300450Z AUTO 20009KT 9999NDV BKN002/// OVC004/// 10/10 Q1011=
200908300420 METAR ESMX 300420Z AUTO 21008KT 9999NDV OVC002/// 10/09 Q1010=
200908300350 METAR ESMX 300350Z AUTO 20008KT 9999NDV BKN002/// 10/09 Q1010=
200908300320 METAR ESMX 300320Z AUTO 20007KT 9999NDV SCT001/// 09/09 Q1010=
200908300250 METAR ESMX 300250Z AUTO 20007KT 9999NDV FEW002/// SCT003/// 09/09 Q1010=
200908300220 METAR ESMX 300220Z AUTO 20007KT 9999NDV FEW003/// 10/09 Q1010=
200908300150 METAR ESMX 300150Z AUTO 20007KT 9999NDV NCD 09/09 Q1010=
200908300120 METAR ESMX 300120Z AUTO 19006KT 9999NDV NCD 09/08 Q1010=
200908300050 METAR ESMX 300050Z AUTO 20006KT 9999NDV FEW034/// 09/09 Q1010=
200908300020 METAR ESMX 300020Z AUTO 20006KT 9999NDV FEW021/// 10/09 Q1010=
200908292350 METAR ESMX 292350Z AUTO 20007KT 9999NDV FEW097/// 10/09 Q1010=
200908292320 METAR ESMX 292320Z AUTO 21007KT 9999NDV NCD 10/09 Q1010=
200908292250 METAR ESMX 292250Z AUTO 21006KT 9999NDV NCD 10/09 Q1010=
200908292220 METAR ESMX 292220Z AUTO 20006KT 9999NDV FEW022/// 10/09 Q1010=
200908292150 METAR ESMX 292150Z AUTO 19007KT 9999NDV FEW026/// 10/09 Q1010=
200908292120 METAR ESMX 292120Z AUTO 20006KT 9999NDV FEW021/// 10/09 Q1010=
200908292050 METAR ESMX 292050Z AUTO 21006KT 9999NDV FEW024/// 11/09 Q1010=
200908292020 METAR ESMX 292020Z AUTO 20006KT 9999NDV NCD 11/09 Q1010=
200908291950 METAR ESMX 291950Z AUTO 19006KT 9999NDV FEW063/// 11/09 Q1010=
200908291920 METAR ESMX 291920Z AUTO 19005KT 9999NDV FEW030/// 11/09 Q1010=
200908291850 METAR ESMX 291850Z AUTO 19006KT 9999NDV NCD 11/09 Q1010=
200908291820 METAR ESMX 291820Z AUTO 19006KT 160V230 9999NDV FEW043/// 12/09 Q1009=
200908291750 METAR ESMX 291750Z 19007KT 9999 FEW035 13/09 Q1009=
200908291720 METAR ESMX 291720Z 19010KT 9999 FEW020CB SCT035 BKN050 14/10 Q1009=
200908291650 METAR ESMX 291650Z 20008KT 9999 FEW030CB 15/10 Q1009=
200908291620 METAR ESMX 291620Z 20009KT 9999 FEW020CB 16/10 Q1009=
200908291550 METAR ESMX 291550Z 20012KT 9999 FEW020CB SCT050 16/09 Q1009=
200908291520 METAR ESMX 291520Z 19012KT 9999 FEW017CB SCT045 16/08 Q1009=
200908291450 METAR ESMX 291450Z 21011KT 170V240 9999 FEW025CB SCT050 16/09 Q1009=
200908291420 METAR ESMX 291420Z AUTO 23010KT 200V260 9999NDV FEW044/// 18/09 Q1008=
200908291350 METAR ESMX 291350Z AUTO 24009KT 210V280 9999NDV FEW075/// 17/08 Q1009=
200908291320 METAR ESMX 291320Z AUTO 24010KT 200V280 9999NDV NCD 17/10 Q1009=
200908291250 METAR ESMX 291250Z AUTO 22009KT 180V260 9999NDV FEW036/// 16/09 Q1009=
200908291220 METAR ESMX 291220Z AUTO 25009KT 9999NDV FEW066/// 15/10 Q1009=
200908291150 METAR ESMX 291150Z AUTO 27011KT 9999NDV FEW030/// SCT040/// BKN073/// 14/10 Q1009=
200908291120 METAR ESMX 291120Z AUTO 23007KT 190V260 9999NDV FEW056/// 14/11 Q1009=
200908291050 METAR ESMX 291050Z AUTO 21012KT 8000NDV -RA FEW057/// SCT080/// 12/10 Q1009=
200908291020 METAR ESMX 291020Z AUTO 21009KT 8000NDV -RA FEW022/// SCT089/// 12/10 Q1009=
200908290950 METAR ESMX 290950Z AUTO 22006KT 190V260 6000NDV -RA FEW027/// SCT052/// 13/10 Q1008=
200908290920 METAR ESMX 290920Z AUTO 22010KT 170V260 9999NDV -RA FEW024/// SCT058/// BKN070/// 15/09 Q1008=
200908290850 METAR ESMX 290850Z AUTO 21010KT 170V240 9999NDV FEW020/// SCT023/// BKN027/// 16/10 Q1008=
200908290820 METAR ESMX 290820Z AUTO 22011KT 9999NDV FEW018/// SCT022/// BKN041/// 14/10 Q1008=
200908290750 METAR ESMX 290750Z AUTO 22011KT 180V250 9999NDV FEW016/// SCT028/// BKN054/// 14/10 Q1008=
200908290720 METAR ESMX 290720Z AUTO 21012KT 7000NDV BR FEW014/// SCT018/// BKN033/// 13/11 Q1008=
200908290650 METAR ESMX 290650Z AUTO 20014KT 9999NDV SCT014/// BKN055/// 13/10 Q1007=
200908290620 METAR ESMX 290620Z AUTO 19012KT 9999NDV SCT052/// 13/10 Q1007=
200908290550 METAR ESMX 290550Z AUTO 21011KT 9999NDV BKN053/// 13/10 Q1007=
200908290520 METAR ESMX 290520Z AUTO 21011KT 9999NDV NCD 12/09 Q1007=
200908290450 METAR ESMX 290450Z AUTO 19010KT 9999NDV NCD 11/09 Q1006=
200908290420 METAR ESMX 290420Z AUTO 18009KT 9999NDV NCD 11/08 Q1006=
200908290350 METAR ESMX 290350Z AUTO 19009KT 9999NDV NCD 11/08 Q1006=
200908290320 METAR ESMX 290320Z AUTO 19009KT 150V210 9999NDV NCD 11/08 Q1006=
200908290250 METAR ESMX 290250Z AUTO 19011KT 9999NDV NCD 11/08 Q1006=
200908290220 METAR ESMX 290220Z AUTO 18009KT 9999NDV NCD 12/09 Q1006=
200908290150 METAR ESMX 290150Z AUTO 18006KT 140V200 9999NDV NCD 12/09 Q1006=
200908290120 METAR ESMX 290120Z AUTO 17006KT 9999NDV NCD 12/09 Q1006=
200908290050 METAR ESMX 290050Z AUTO 18008KT 9999NDV NCD 12/09 Q1006=
200908290020 METAR ESMX 290020Z AUTO 18007KT 9999NDV NCD 12/10 Q1006=
200908282350 METAR ESMX 282350Z AUTO 18006KT 9999NDV NCD 12/10 Q1006=
200908282320 METAR ESMX 282320Z AUTO 19007KT 9999NDV NCD 12/10 Q1006=
200908282250 METAR ESMX 282250Z AUTO 20007KT 9999NDV NCD 13/10 Q1006=
200908282220 METAR ESMX 282220Z AUTO 18006KT 9999NDV FEW026/// SCT110/// 13/10 Q1006=
200908282150 METAR ESMX 282150Z AUTO 18005KT 9999NDV SCT032/// BKN110/// 14/11 Q1006=
200908282120 METAR ESMX 282120Z AUTO 17004KT 140V200 9999NDV FEW041/// SCT100/// 14/11 Q1006=
200908282050 METAR ESMX 282050Z AUTO 18006KT 9999NDV FEW100/// 14/11 Q1006=
200908282020 METAR ESMX 282020Z AUTO 20005KT 9999NDV FEW100/// 14/11 Q1006=
200908281950 METAR ESMX 281950Z AUTO 21005KT 9999NDV BKN073/// BKN092/// 15/11 Q1006=
200908281920 METAR ESMX 281920Z AUTO 23005KT 9999NDV FEW052/// SCT068/// BKN090/// 15/11 Q1006=
200908281850 METAR ESMX 281850Z AUTO 25011KT 210V280 9999NDV FEW033/// BKN049/// 17/11 Q1005=
200908281820 METAR ESMX 281820Z 24016KT 9999 FEW023 SCT037 BKN055 17/13 Q1005=
200908281750 METAR ESMX 281750Z 22011KT 9999 FEW030 SCT040 19/14 Q1004=
200908281720 METAR ESMX 281720Z 21014KT 9999 FEW025TCU SCT035 20/14 Q1004=
200908281620 METAR ESMX 281620Z 17009KT 140V200 9999 FEW026 SCT050 BKN100 20/16 Q1004=
200908281550 METAR ESMX 281550Z 16011KT 110V210 CAVOK 20/16 Q1004=
200908281520 METAR ESMX 281520Z 16009KT 120V190 CAVOK 20/16 Q1004=
200908281450 METAR ESMX 281450Z 16008KT 110V190 CAVOK 21/16 Q1004=
200908281420 METAR ESMX 281420Z 16009KT 110V190 CAVOK 21/16 Q1005=
200908281350 METAR ESMX 281350Z 16011KT 120V190 CAVOK 22/16 Q1005=
200908281320 METAR ESMX 281320Z 18011KT CAVOK 23/16 Q1005=
200908281250 METAR ESMX 281250Z 17006KT CAVOK 22/16 Q1005=
200908281220 METAR ESMX 281220Z 15003KT 110V190 CAVOK 22/16 Q1006=
200908281150 METAR ESMX 281150Z 15005KT 100V190 CAVOK 21/16 Q1006=
200908281120 METAR ESMX 281120Z 15005KT 120V190 CAVOK 22/16 Q1006=
200908281050 METAR ESMX 281050Z 14006KT CAVOK 21/15 Q1007=
200908281020 METAR ESMX 281020Z 16005KT 120V200 CAVOK 22/15 Q1007=
200908280950 METAR ESMX 280950Z 14004KT 100V170 CAVOK 21/15 Q1007=
200908280920 METAR ESMX 280920Z 14003KT CAVOK 20/15 Q1008=
200908280850 METAR ESMX 280850Z 14005KT CAVOK 21/15 Q1008=
200908280820 METAR ESMX 280820Z VRB02KT CAVOK 20/16 Q1008=
200908280750 METAR ESMX 280750Z 13003KT CAVOK 19/15 Q1009=
200908280720 METAR ESMX 280720Z VRB02KT CAVOK 18/16 Q1009=
200908280650 METAR ESMX 280650Z 15003KT CAVOK 18/15 Q1009=
200908280620 METAR ESMX 280620Z 15003KT CAVOK 18/16 Q1009=
200908280550 METAR ESMX 280550Z 17003KT CAVOK 17/15 Q1009=
200908280520 METAR ESMX 280520Z 14003KT CAVOK 16/15 Q1009=
200908280450 METAR ESMX 280450Z 16003KT 9999 FEW049 SCT055 16/15 Q1010=
200908280420 METAR ESMX 280420Z 14003KT CAVOK 16/15 Q1010=
200908280350 METAR ESMX 280350Z 16003KT CAVOK 16/15 Q1010=
200908280320 METAR ESMX 280320Z 16003KT CAVOK 16/15 Q1010=
200908280250 METAR ESMX 280250Z AUTO 15004KT 9999NDV FEW053/// 17/14 Q1011=
200908280220 METAR ESMX 280220Z AUTO 16003KT 120V200 9999NDV BKN051/// BKN088/// 17/14 Q1011=
200908280150 METAR ESMX 280150Z AUTO 16004KT 120V180 9999NDV BKN050/// OVC085/// 17/14 Q1011=
200908280120 METAR ESMX 280120Z AUTO 16005KT 9999NDV BKN048/// OVC089/// 17/13 Q1011=
200908280020 METAR ESMX 280020Z AUTO 17005KT 9999NDV BKN088/// 17/12 Q1012=
200908272350 METAR ESMX 272350Z AUTO 16005KT 140V200 9999NDV BKN085/// 17/12 Q1012=
200908272320 METAR ESMX 272320Z 17006KT CAVOK 18/12 Q1012=
200908272250 METAR ESMX 272250Z 17005KT CAVOK 18/12 Q1012=
200908272150 METAR ESMX 272150Z 17005KT 140V200 CAVOK 18/11 Q1013=
200908272120 METAR ESMX 272120Z 17006KT CAVOK 18/12 Q1013=
200908272050 METAR ESMX 272050Z 16006KT CAVOK 18/11 Q1013=
200908272020 METAR ESMX 272020Z 17006KT CAVOK 18/11 Q1013=
200908271950 METAR ESMX 271950Z 16007KT CAVOK 18/11 Q1013=
200908271920 METAR ESMX 271920Z 16007KT CAVOK 19/11 Q1013=
200908271850 METAR ESMX 271850Z 16007KT 120V190 CAVOK 19/11 Q1013=
200908271820 METAR ESMX 271820Z 15006KT CAVOK 20/12 Q1013=
200908271750 METAR ESMX 271750Z 16006KT CAVOK 21/12 Q1013=
200908271720 METAR ESMX 271720Z 16007KT 140V200 CAVOK 21/12 Q1013=
200908271650 METAR ESMX 271650Z 16007KT 120V190 CAVOK 22/12 Q1013=
200908271620 METAR ESMX 271620Z 18010KT 150V210 CAVOK 23/11 Q1013=
200908271550 METAR ESMX 271550Z 19011KT CAVOK 23/11 Q1013=
200908271520 METAR ESMX 271520Z 20010KT CAVOK 23/11 Q1013=
200908271450 METAR ESMX 271450Z 20011KT 160V230 CAVOK 24/11 Q1013=
200908271420 METAR ESMX 271420Z 20011KT 160V220 CAVOK 24/11 Q1014=
200908271350 METAR ESMX 271350Z 20010KT CAVOK 23/12 Q1014=
200908271320 METAR ESMX 271320Z 19011KT CAVOK 23/11 Q1014=
200908271250 METAR ESMX 271250Z 22012KT 170V250 9999 SCT049 24/11 Q1014=
200908271220 METAR ESMX 271220Z 20011KT 170V230 9999 FEW047 23/11 Q1014=
200908271150 METAR ESMX 271150Z 21011KT 170V240 9999 FEW047 23/11 Q1014=
200908271120 METAR ESMX 271120Z 20012KT 140V230 9999 FEW045 22/12 Q1014=
200908271050 METAR ESMX 271050Z VRB11KT CAVOK 22/12 Q1014=
200908271020 METAR ESMX 271020Z 20011KT 160V230 CAVOK 22/12 Q1014=
200908270950 METAR ESMX 270950Z 19011KT CAVOK 21/12 Q1015=
200908270920 METAR ESMX 270920Z 20011KT CAVOK 20/12 Q1015=
200908270850 METAR ESMX 270850Z 20011KT CAVOK 20/13 Q1015=
200908270820 METAR ESMX 270820Z 19006KT 160V230 CAVOK 18/13 Q1015=
200908270750 METAR ESMX 270750Z 19007KT 150V210 9999 BKN045 OVC064 17/14 Q1015=
200908270720 METAR ESMX 270720Z 19006KT 9999 BKN045 16/13 Q1015=
200908270650 METAR ESMX 270650Z 19004KT 9999 BKN045 15/13 Q1015=
200908270620 METAR ESMX 270620Z 19005KT 9999 BKN045 14/13 Q1015=
200908270550 METAR ESMX 270550Z 19006KT CAVOK 14/13 Q1015=
200908270520 METAR ESMX 270520Z 18005KT CAVOK 13/12 Q1015=
200908270450 METAR ESMX 270450Z 18004KT CAVOK 13/12 Q1015=
200908270420 METAR ESMX 270420Z 19005KT 9000 BR NSC 12/11 Q1015=
200908270350 METAR ESMX 270350Z 19004KT 9999 MIFG NSC 12/11 Q1014=
200908270320 METAR ESMX 270320Z AUTO 21003KT 9000NDV NCD 12/11 Q1015=
200908270250 METAR ESMX 270250Z AUTO 19004KT 9999NDV NCD 12/11 Q1015=
200908270220 METAR ESMX 270220Z AUTO 19005KT 9999NDV NCD 12/11 Q1015=
200908270150 METAR ESMX 270150Z AUTO 21005KT 9999NDV NCD 12/11 Q1014=
200908270120 METAR ESMX 270120Z AUTO 21005KT 9999NDV NCD 12/11 Q1014=
200908270050 METAR ESMX 270050Z AUTO 20005KT 9999NDV NCD 12/11 Q1014=
200908270020 METAR ESMX 270020Z AUTO 21005KT 9999NDV NCD 12/11 Q1014=
200908262350 METAR ESMX 262350Z AUTO 21004KT 9999NDV NCD 12/11 Q1014=
200908262320 METAR ESMX 262320Z 19005KT CAVOK 13/11 Q1014=
200908262250 METAR ESMX 262250Z 18006KT CAVOK 13/11 Q1014=
200908262220 METAR ESMX 262220Z 18005KT 9999 FEW028 14/11 Q1014=
200908262120 METAR ESMX 262120Z 19005KT CAVOK 13/11 Q1014=
200908262050 METAR ESMX 262050Z 19006KT CAVOK 14/11 Q1014=
200908262020 METAR ESMX 262020Z 20005KT CAVOK 13/11 Q1014=
200908261950 METAR ESMX 261950Z 18004KT CAVOK 14/11 Q1014=
200908261920 METAR ESMX 261920Z 21005KT CAVOK 14/11 Q1014=
200908261850 METAR ESMX 261850Z 22006KT CAVOK 14/11 Q1014=
200908261750 METAR ESMX 261750Z 21004KT 9999 FEW040 16/11 Q1013=
200908261720 METAR ESMX 261720Z 21005KT 9999 FEW040 16/11 Q1013=
200908261650 METAR ESMX 261650Z 23008KT 9999 FEW040 17/11 Q1013=
200908261620 METAR ESMX 261620Z 25010KT 210V290 9999 FEW041 18/10 Q1013=
200908261550 METAR ESMX 261550Z 26010KT 220V290 9999 SCT040 18/10 Q1013=
200908261520 METAR ESMX 261520Z 25011KT 210V290 9999 SCT040 19/10 Q1012=
200908261450 METAR ESMX 261450Z 24012KT 200V270 9999 BKN040 18/09 Q1012=
200908261420 METAR ESMX 261420Z 25011KT 210V280 9999 BKN040 19/10 Q1012=
200908261350 METAR ESMX 261350Z 24012KT 210V280 9999 SCT035 19/11 Q1012=
200908261320 METAR ESMX 261320Z 24013KT 200V260 9999 SCT035 19/11 Q1012=
200908261250 METAR ESMX 261250Z 25010KT 220V290 9999 SCT032 19/11 Q1012=
200908261220 METAR ESMX 261220Z 26013KT 210V290 9999 SCT030 18/11 Q1012=
200908261150 METAR ESMX 261150Z 25013KT 210V290 9999 SCT030 18/11 Q1011=
200908261120 METAR ESMX 261120Z 24012KT 210V280 9999 SCT040 18/11 Q1011=
200908261050 METAR ESMX 261050Z 24012KT 210V280 9999 FEW032 SCT045 18/12 Q1011=
200908261020 METAR ESMX 261020Z 28010KT 9999 FEW025 SCT040 17/11 Q1011=
200908260950 METAR ESMX 260950Z 28011KT 9999 FEW020 SCT025 16/11 Q1011=
200908260920 METAR ESMX 260920Z 28014KT 9999 FEW015 BKN020 16/12 Q1011=
200908260850 METAR ESMX 260850Z 27010KT 210V290 9999 FEW012 SCT015 BKN018 16/13 Q1010=
200908260820 METAR ESMX 260820Z 27010KT 9999 SCT015 SCT030 15/12 Q1010=
200908260750 METAR ESMX 260750Z 26010KT 220V290 9999 FEW010 BKN013 OVC020 15/13 Q1010=
200908260720 METAR ESMX 260720Z 23010KT 180V250 9999 SCT010 BKN030 17/15 Q1009=
200908260650 METAR ESMX 260650Z 22008KT 170V250 9999 FEW005 SCT010 BKN020 17/16 Q1008=
200908260620 METAR ESMX 260620Z 22008KT 5000 BR BKN005 17/16 Q1008=
200908260550 METAR ESMX 260550Z 20008KT 6000 BR FEW005 BKN006 OVC010 17/16 Q1008=
200908260520 METAR ESMX 260520Z 17007KT 140V210 5000 -RA SCT002 BKN006 16/16 Q1008=
200908260450 METAR ESMX 260450Z 16006KT 120V190 5000 -RA BKN003 16/15 Q1008=
200908260420 METAR ESMX 260420Z 17006KT 110V200 7000 -RA FEW002 BKN005 16/15 Q1008=
200908260350 METAR ESMX 260350Z 15004KT 120V190 5000 -RA FEW003 SCT020 BKN045 16/15 Q1008=
200908260320 METAR ESMX 260320Z AUTO 16004KT 6000NDV -RA FEW035/// 16/15 Q1008=
200908260250 METAR ESMX 260250Z AUTO 16005KT 120V190 7000NDV RA FEW016/// 16/15 Q1008 RESHRA=
200908260220 METAR ESMX 260220Z AUTO 17007G74KT 6000NDV RA FEW021/// 16/15 Q1009=
200908260150 METAR ESMX 260150Z AUTO 17007KT 120V200 7000NDV RA FEW039/// BKN045/// 17/15 Q1009=
200908260120 METAR ESMX 260120Z AUTO 12003KT 080V160 9999NDV FEW064/// SCT088/// BKN100/// 16/14 Q1008=
200908260050 METAR ESMX 260050Z AUTO 13003KT 080V190 9999NDV -RA SCT050/// BKN066/// 17/14 Q1009=
200908260020 METAR ESMX 260020Z AUTO VRB02KT 9999NDV FEW058/// BKN072/// BKN087/// 16/14 Q1009=
200908252350 METAR ESMX 252350Z AUTO VRB02KT 9999NDV BKN063/// 16/14 Q1009=
200908252320 METAR ESMX 252320Z 13003KT 100V180 CAVOK 16/14 Q1010=
200908252250 METAR ESMX 252250Z VRB02KT CAVOK 16/14 Q1010=
200908252220 METAR ESMX 252220Z VRB02KT CAVOK 16/14 Q1010=
200908252150 METAR ESMX 252150Z 13003KT 090V190 CAVOK 17/14 Q1010=
200908252120 METAR ESMX 252120Z 13004KT 060V170 CAVOK 17/13 Q1011=
200908252050 METAR ESMX 252050Z 13004KT 080V210 CAVOK 17/13 Q1011=
200908252020 METAR ESMX 252020Z 12004KT 080V150 CAVOK 17/13 Q1011=
200908251950 METAR ESMX 251950Z 12003KT 070V150 CAVOK 17/13 Q1011=
200908251920 METAR ESMX 251920Z 14004KT 100V190 CAVOK 18/13 Q1012=
200908251850 METAR ESMX 251850Z 14005KT 100V170 CAVOK 18/13 Q1012=
200908251820 METAR ESMX 251820Z 14005KT 110V190 CAVOK 18/13 Q1012=
200908251750 METAR ESMX 251750Z 15006KT 110V200 CAVOK 19/13 Q1012=
200908251720 METAR ESMX 251720Z 16005KT 120V190 CAVOK 20/13 Q1012=
200908251650 METAR ESMX 251650Z 15006KT CAVOK 20/13 Q1012=
200908251620 METAR ESMX 251620Z 16007KT 120V190 CAVOK 21/12 Q1012=
200908251550 METAR ESMX 251550Z 16007KT 120V190 CAVOK 21/12 Q1012=
200908251520 METAR ESMX 251520Z 17007KT 140V200 CAVOK 22/11 Q1012=
200908251450 METAR ESMX 251450Z 16009KT 130V200 CAVOK 22/11 Q1012=
200908251420 METAR ESMX 251420Z 17009KT 120V200 CAVOK 23/10 Q1012=
200908251350 METAR ESMX 251350Z 16009KT 130V200 CAVOK 23/10 Q1012=
200908251320 METAR ESMX 251320Z 16009KT 110V200 9999 FEW045 23/10 Q1012=
200908251250 METAR ESMX 251250Z 15010KT 110V200 9999 FEW045 23/10 Q1012=
200908251220 METAR ESMX 251220Z 16009KT 120V190 9999 FEW045 23/10 Q1012=
200908251150 METAR COR ESMX 251150Z 16010KT 110V200 9999 FEW045 23/10 Q1013=
200908251120 METAR ESMX 251120Z 15009KT 110V190 9999 FEW045 22/11 Q1013=
200908251050 METAR ESMX 251050Z 16009KT 110V200 9999 SCT040 22/12 Q1013=
200908250950 METAR ESMX 250950Z 13006KT 070V230 9999 FEW040 21/14 Q1013=
200908250920 METAR ESMX 250920Z 13007KT 080V170 CAVOK 20/13 Q1013=
200908250850 METAR ESMX 250850Z 13007KT 080V170 CAVOK 20/14 Q1013=
200908250820 METAR ESMX 250820Z 11006KT 050V160 CAVOK 19/13 Q1013=
200908250750 METAR ESMX 250750Z 12005KT 070V180 CAVOK 18/13 Q1014=
200908250720 METAR ESMX 250720Z 11007KT 080V140 CAVOK 17/13 Q1014=
200908250650 METAR ESMX 250650Z 12005KT 080V170 CAVOK 16/13 Q1014=
200908250620 METAR ESMX 250620Z 12006KT 070V160 9999 FEW007 15/13 Q1014=
200908250550 METAR ESMX 250550Z 12005KT 070V170 9999 SCT006 15/13 Q1014=
200908250520 METAR ESMX 250520Z 13004KT 070V200 9999 BKN004 14/13 Q1014=
200908250450 METAR ESMX 250450Z 12006KT 080V160 9999 BKN003 14/13 Q1014=
200908250420 METAR ESMX 250420Z 13006KT 070V160 9999 BKN004 14/13 Q1014=
200908250350 METAR ESMX 250350Z AUTO 13006KT 070V160 9999NDV BKN003/// 13/12 Q1014=
200908250320 METAR ESMX 250320Z AUTO 12005KT 070V160 9999NDV FEW006/// 13/12 Q1015=
200908250250 METAR ESMX 250250Z AUTO 13005KT 080V170 9999NDV NCD 13/12 Q1015=
200908250220 METAR ESMX 250220Z AUTO 13005KT 080V160 9999NDV NCD 13/11 Q1015=
200908250150 METAR ESMX 250150Z AUTO 13005KT 080V160 9999NDV NCD 13/11 Q1015=
200908250120 METAR ESMX 250120Z AUTO 13006KT 090V170 9999NDV NCD 13/11 Q1016=
200908250050 METAR ESMX 250050Z AUTO 13004KT 090V160 9999NDV NCD 12/11 Q1016=
200908250020 METAR ESMX 250020Z AUTO 12005KT 080V160 9999NDV NCD 12/11 Q1016=
200908242350 METAR ESMX 242350Z AUTO 12004KT 9999NDV NCD 12/10 Q1016=
200908242320 METAR ESMX 242320Z 13004KT 080V160 CAVOK 12/10 Q1017=
200908242250 METAR ESMX 242250Z 13004KT 090V160 CAVOK 12/10 Q1017=
200908242220 METAR ESMX 242220Z 12004KT 080V150 CAVOK 12/10 Q1017=
200908242150 METAR ESMX 242150Z 13003KT 100V170 CAVOK 12/10 Q1017=
200908242120 METAR ESMX 242120Z AUTO 14003KT 090V170 9999NDV NCD 12/10 Q1017=
200908242050 METAR ESMX 242050Z 15003KT 120V190 CAVOK 12/09 Q1017=
200908242020 METAR ESMX 242020Z 15004KT CAVOK 13/09 Q1017=
200908241950 METAR ESMX 241950Z 16004KT 140V200 CAVOK 14/09 Q1017=
200908241920 METAR ESMX 241920Z 15004KT 110V170 CAVOK 16/09 Q1017=
200908241850 METAR ESMX 241850Z 16004KT CAVOK 16/11 Q1017=
200908241820 METAR ESMX 241820Z 16004KT 120V190 CAVOK 17/11 Q1017=
200908241750 METAR ESMX 241750Z 16006KT 130V190 CAVOK 18/11 Q1017=
200908241720 METAR ESMX 241720Z 16005KT 130V190 CAVOK 19/11 Q1017=
200908241650 METAR ESMX 241650Z 18006KT CAVOK 20/10 Q1017=
200908241620 METAR ESMX 241620Z 18007KT 140V210 CAVOK 20/10 Q1018=
200908241550 METAR ESMX 241550Z 18007KT 150V230 CAVOK 21/10 Q1018=
200908241520 METAR ESMX 241520Z 17008KT 130V210 CAVOK 21/10 Q1018=
200908241450 METAR ESMX 241450Z 18009KT CAVOK 21/10 Q1018=
200908241420 METAR ESMX 241420Z 18008KT 150V210 9999 FEW045 21/11 Q1019=
200908241350 METAR ESMX 241350Z 16006KT 110V200 CAVOK 21/10 Q1019=
200908241320 METAR ESMX 241320Z 18008KT CAVOK 21/10 Q1019=
200908241250 METAR ESMX 241250Z 16006KT 100V200 CAVOK 21/10 Q1019=
200908241220 METAR ESMX 241220Z 16007KT 140V210 CAVOK 21/11 Q1020=
200908241150 METAR ESMX 241150Z 15006KT 110V190 CAVOK 21/10 Q1020=
200908241120 METAR ESMX 241120Z 15006KT 080V210 CAVOK 20/11 Q1020=
200908241050 METAR ESMX 241050Z 15007KT 120V180 CAVOK 20/11 Q1020=
200908241020 METAR ESMX 241020Z 16007KT 100V210 CAVOK 20/10 Q1020=
200908240950 METAR ESMX 240950Z 18008KT 150V210 CAVOK 20/11 Q1021=
200908240920 METAR ESMX 240920Z 15007KT 110V190 CAVOK 19/10 Q1021=
200908240850 METAR ESMX 240850Z 17005KT 140V220 CAVOK 19/11 Q1021=
200908240820 METAR ESMX 240820Z 16005KT 120V200 CAVOK 18/11 Q1021=
200908240750 METAR ESMX 240750Z 16005KT 130V200 CAVOK 17/11 Q1021=
200908240720 METAR ESMX 240720Z 16005KT 120V190 CAVOK 16/12 Q1021=
200908240650 METAR ESMX 240650Z 16004KT 110V200 CAVOK 16/11 Q1021=
200908240620 METAR ESMX 240620Z 16003KT 100V200 CAVOK 15/12 Q1021=
200908240550 METAR ESMX 240550Z VRB01KT CAVOK 13/12 Q1021=
200908240520 METAR ESMX 240520Z 00000KT 9999 SCT045 SCT060 11/10 Q1021=
200908240450 METAR ESMX 240450Z 00000KT 9999 SCT046 10/09 Q1021=
200908240420 METAR ESMX 240420Z VRB01KT CAVOK 09/09 Q1021=
200908240350 METAR ESMX 240350Z 00000KT CAVOK 09/08 Q1021=
200908240320 METAR ESMX 240320Z VRB01KT CAVOK 08/08 Q1022=
200908240250 METAR ESMX 240250Z AUTO VRB02KT 9999NDV FEW062/// 09/08 Q1022=
200908240220 METAR ESMX 240220Z AUTO VRB02KT 9999NDV NCD 09/08 Q1022=
200908240150 METAR ESMX 240150Z AUTO 17002KT 9999NDV BKN050/// 09/08 Q1022=
200908240120 METAR ESMX 240120Z AUTO 00000KT 9999NDV FEW053/// 10/09 Q1022=
200908240050 METAR ESMX 240050Z AUTO 00000KT 9999NDV NCD 11/10 Q1022=
200908240020 METAR ESMX 240020Z 00000KT CAVOK 11/09 Q1022=
200908232350 METAR ESMX 232350Z 18001KT CAVOK 11/09 Q1022=
200908232320 METAR ESMX 232320Z 00000KT CAVOK 11/09 Q1022=
200908232250 METAR ESMX 232250Z 17001KT CAVOK 11/09 Q1023=
200908232220 METAR ESMX 232220Z 17002KT CAVOK 12/09 Q1023=
200908232150 METAR ESMX 232150Z 15004KT CAVOK 12/10 Q1023=
200908232120 METAR ESMX 232120Z 17001KT CAVOK 11/09 Q1023=
200908232050 METAR ESMX 232050Z 17001KT CAVOK 11/08 Q1023=
200908232020 METAR ESMX 232020Z 00000KT CAVOK 11/08 Q1023=
200908231950 METAR ESMX 231950Z 18002KT CAVOK 11/08 Q1023=
200908231920 METAR ESMX 231920Z 18002KT CAVOK 11/08 Q1023=
200908231850 METAR ESMX 231850Z 22002KT CAVOK 12/09 Q1023=
200908231820 METAR ESMX 231820Z 24002KT CAVOK 13/08 Q1023=
200908231750 METAR ESMX 231750Z 24003KT CAVOK 15/07 Q1023=
200908231720 METAR ESMX 231720Z 25003KT CAVOK 16/06 Q1023=
200908231650 METAR ESMX 231650Z 27007KT CAVOK 18/06 Q1023=
200908231620 METAR ESMX 231620Z 26008KT CAVOK 18/05 Q1023=
200908231550 METAR ESMX 231550Z 28008KT CAVOK 19/08 Q1023=
200908231520 METAR ESMX 231520Z 27007KT CAVOK 19/07 Q1023=
200908231450 METAR ESMX 231450Z 24008KT 200V290 CAVOK 20/08 Q1023=
200908231420 METAR ESMX 231420Z 24008KT 210V280 9999 FEW048 SCT065 18/07 Q1023=
200908231350 METAR ESMX 231350Z 24008KT 200V260 9999 FEW047 SCT070 20/07 Q1023=
200908231320 METAR ESMX 231320Z 25007KT 9999 FEW046 20/08 Q1024=
200908231250 METAR ESMX 231250Z 24008KT 190V280 CAVOK 20/09 Q1024=
200908231220 METAR ESMX 231220Z 26006KT 230V300 CAVOK 19/08 Q1024=
200908231150 METAR ESMX 231150Z 22009KT 190V260 9999 FEW043 SCT080 20/07 Q1024=
200908231120 METAR ESMX 231120Z 21007KT 170V240 9999 FEW040 19/08 Q1024=
200908231050 METAR ESMX 231050Z 23008KT 200V260 9999 FEW041 18/09 Q1025=
200908231020 METAR ESMX 231020Z AUTO 25006KT 190V350 9999NDV FEW061/// 18/07 Q1024=
200908230950 METAR ESMX 230950Z AUTO 22007KT 9999NDV SCT035/// BKN059/// BKN073/// 17/09 Q1025=
200908230920 METAR ESMX 230920Z AUTO 24006KT 210V280 9999NDV FEW063/// 18/10 Q1025=
200908230850 METAR ESMX 230850Z AUTO 26009KT 9999NDV FEW027/// 17/10 Q1025=
200908230820 METAR ESMX 230820Z AUTO 23006KT 150V290 9999NDV FEW019/// 17/12 Q1025=
200908230750 METAR ESMX 230750Z AUTO 23004KT 180V280 9999NDV NCD 16/12 Q1025=
200908230720 METAR ESMX 230720Z AUTO 23004KT 200V260 9999NDV FEW053/// 15/11 Q1025=
200908230650 METAR ESMX 230650Z AUTO 23003KT 170V270 9999NDV NCD 14/11 Q1025=
200908230620 METAR ESMX 230620Z AUTO 18003KT 130V220 9999NDV NCD 12/10 Q1025=
200908230550 METAR ESMX 230550Z AUTO VRB02KT 9999NDV NCD 11/10 Q1025=
200908230520 METAR ESMX 230520Z AUTO 17003KT 9999NDV NCD 09/09 Q1024=
200908230450 METAR ESMX 230450Z AUTO 15002KT 9999NDV NCD 07/06 Q1024=
200908230420 METAR ESMX 230420Z AUTO 12001KT 9000NDV NCD 06/06 Q1024=
200908230350 METAR ESMX 230350Z AUTO 19001KT 9999NDV NCD 06/05 Q1024=
200908230320 METAR ESMX 230320Z AUTO 18002KT 9999NDV NCD 07/06 Q1024=
200908230250 METAR ESMX 230250Z AUTO 17002KT 9999NDV NCD 07/06 Q1024=
200908230220 METAR ESMX 230220Z AUTO 14001KT 9999NDV NCD 07/07 Q1024=
200908230150 METAR ESMX 230150Z AUTO 18002KT 9999NDV NCD 08/07 Q1024=
200908230120 METAR ESMX 230120Z AUTO 22002KT 9999NDV NCD 07/06 Q1024=
200908230050 METAR ESMX 230050Z AUTO 23004KT 9999NDV NCD 08/07 Q1024=
200908230020 METAR ESMX 230020Z AUTO 23004KT 9999NDV NCD 08/07 Q1024=
200908222350 METAR ESMX 222350Z AUTO 23003KT 9999NDV NCD 09/07 Q1024=
200908222320 METAR ESMX 222320Z AUTO 25003KT 9999NDV NCD 09/07 Q1023=
200908222250 METAR ESMX 222250Z AUTO 26003KT 9999NDV NCD 09/08 Q1024=
200908222220 METAR ESMX 222220Z AUTO 25003KT 9999NDV NCD 09/08 Q1023=
200908222150 METAR ESMX 222150Z AUTO 24003KT 9999NDV NCD 10/08 Q1023=
200908222120 METAR ESMX 222120Z AUTO 25003KT 9999NDV NCD 10/08 Q1023=
200908222050 METAR ESMX 222050Z AUTO 26003KT 9999NDV NCD 10/08 Q1023=
200908222020 METAR ESMX 222020Z AUTO 26002KT 9999NDV NCD 11/08 Q1023=
200908221950 METAR ESMX 221950Z AUTO 25004KT 9999NDV NCD 12/08 Q1023=
200908221920 METAR ESMX 221920Z AUTO 25004KT 9999NDV NCD 12/08 Q1022=
200908221850 METAR ESMX 221850Z AUTO 25004KT 9999NDV NCD 13/08 Q1022=
200908221820 METAR ESMX 221820Z AUTO 25005KT 9999NDV NCD 14/09 Q1022=
200908221750 METAR ESMX 221750Z AUTO 26004KT 230V290 9999NDV NCD 15/09 Q1021=
200908221720 METAR ESMX 221720Z 25006KT CAVOK 16/08 Q1021=
200908221650 METAR ESMX 221650Z 26008KT 230V290 9999 FEW045 17/09 Q1021=
200908221550 METAR ESMX 221550Z 27009KT 9999 FEW043 18/07 Q1020=
200908221520 METAR ESMX 221520Z 24008KT 200V280 9999 FEW044 19/08 Q1020=
200908221450 METAR ESMX 221450Z 26010KT 220V300 9999 FEW045 19/09 Q1020=
200908221420 METAR ESMX 221420Z AUTO 29008KT 9999NDV FEW041/// SCT051/// BKN076/// 18/09 Q1020=
200908221350 METAR ESMX 221350Z AUTO 26011KT 9999NDV FEW043/// 19/09 Q1020=
200908221320 METAR ESMX 221320Z AUTO 28009KT 9999NDV FEW041/// 19/10 Q1020=
200908221250 METAR ESMX 221250Z AUTO 26008KT 220V320 9999NDV SCT038/// BKN046/// 19/10 Q1020=
200908221220 METAR ESMX 221220Z AUTO 30009KT 250V340 9999NDV FEW027/// SCT046/// 18/10 Q1019=
200908221150 METAR ESMX 221150Z AUTO 26008KT 210V290 9999NDV FEW036/// SCT045/// BKN087/// 19/10 Q1019=
200908221120 METAR ESMX 221120Z AUTO 23011KT 200V270 9999NDV FEW042/// 20/10 Q1019=
200908221050 METAR ESMX 221050Z AUTO 22011KT 190V250 9999NDV FEW034/// 19/08 Q1019=
200908221020 METAR ESMX 221020Z AUTO 24010KT 200V260 9999NDV NCD 19/11 Q1019=
200908220950 METAR ESMX 220950Z AUTO 27009KT 230V310 9999NDV FEW022/// SCT036/// BKN075/// 17/10 Q1019=
200908220920 METAR ESMX 220920Z AUTO 24008KT 200V270 9999NDV FEW026/// 18/12 Q1019=
200908220850 METAR ESMX 220850Z AUTO 24007KT 210V280 9999NDV FEW015/// SCT026/// 17/13 Q1019=
200908220820 METAR ESMX 220820Z AUTO 24006KT 200V290 9999NDV FEW010/// SCT017/// 16/13 Q1018=
200908220750 METAR ESMX 220750Z AUTO 26007KT 230V300 9999NDV FEW005/// SCT009/// 15/14 Q1018=
200908220720 METAR ESMX 220720Z AUTO 26005KT 220V300 9999NDV FEW002/// SCT004/// BKN006/// 14/14 Q1018=
200908220650 METAR ESMX 220650Z AUTO 26006KT 4300NDV OVC001/// 14/14 Q1018=
200908220620 METAR ESMX 220620Z AUTO 23005KT 0900NDV R01/1000VP2000U R19/1700D FG OVC001/// 14/13 Q1018=
200908220550 METAR ESMX 220550Z AUTO 23004KT 200V260 0750NDV R01/0800V1600 R19/1000VP2000D FG VV001 13/13 Q1017=
200908220520 METAR ESMX 220520Z AUTO VRB02KT 0450NDV R01/0700 R19/0600V1900D FG VV001 13/13 Q1017=
200908220450 METAR ESMX 220450Z AUTO VRB02KT 0200NDV R01/0650N R19/0550 FG VV001 13/13 Q1017=
200908220420 METAR ESMX 220420Z AUTO 27003KT 0200NDV R01/0600 R19/0650N FG VV001 13/13 Q1017=
200908220350 METAR ESMX 220350Z AUTO 27003KT 220V300 0300NDV R01/0800N R19/1100D FG VV001 13/13 Q1017=
200908220320 METAR ESMX 220320Z AUTO 26003KT 1000NDV R01/P2000N R19/P2000N BR VV001 13/13 Q1017=
200908220250 METAR ESMX 220250Z AUTO 26004KT 1800NDV BR SCT001/// 14/13 Q1017=
200908220220 METAR ESMX 220220Z AUTO 25004KT 4200NDV BR NCD 13/13 Q1017=
200908220150 METAR ESMX 220150Z AUTO 27004KT 6000NDV BR FEW006/// SCT008/// 14/14 Q1016=
200908220120 METAR ESMX 220120Z AUTO 27007KT 240V300 7000NDV BR SCT004/// BKN006/// OVC008/// 15/14 Q1016=
200908220050 METAR ESMX 220050Z AUTO 24004KT 210V280 5000NDV BR FEW005/// BKN006/// OVC008/// 15/15 Q1016=
200908220020 METAR ESMX 220020Z AUTO 22003KT 4200NDV BR FEW006/// 15/14 Q1016=
200908212350 METAR ESMX 212350Z AUTO 24004KT 200V260 3600NDV BR FEW003/// 15/15 Q1016=
200908212320 METAR ESMX 212320Z AUTO 23004KT 3500NDV BR FEW002/// BKN004/// 16/15 Q1016=
200908212250 METAR ESMX 212250Z AUTO 21004KT 3300NDV BR FEW002/// SCT004/// BKN006/// 16/15 Q1016=
200908212220 METAR ESMX 212220Z AUTO 21004KT 3300NDV -RA SCT001/// 16/16 Q1016=
200908212150 METAR ESMX 212150Z AUTO 19004KT 4100NDV BR FEW004/// 16/15 Q1016 REDZ=
200908212120 METAR ESMX 212120Z AUTO 20002KT 4100NDV BR FEW005/// SCT008/// 16/15 Q1016=
200908212050 METAR ESMX 212050Z AUTO VRB01KT 9000NDV -RA FEW031/// 16/15 Q1016 REDZ=
200908212020 METAR ESMX 212020Z AUTO 22003KT 5000NDV DZ FEW001/// 16/16 Q1017=
200908211950 METAR ESMX 211950Z AUTO 23003KT 5000NDV -RA FEW003/// SCT098/// 17/16 Q1017=
200908211920 METAR ESMX 211920Z AUTO 22003KT 4900NDV -RA FEW003/// BKN076/// 17/16 Q1016=
200908211850 METAR ESMX 211850Z AUTO 24003KT 6000NDV DZ BKN054/// 17/16 Q1016=
200908211820 METAR ESMX 211820Z AUTO VRB02KT 8000NDV -RA FEW042/// 17/17 Q1016=
200908211750 METAR ESMX 211750Z 29004KT 8000 -RA SCT005 18/17 Q1016=
200908211720 METAR ESMX 211720Z 26004KT 240V310 7000 -SHRA SCT005 SCT025CB 18/17 Q1016=
200908211650 METAR ESMX 211650Z 27004KT 240V300 7000 -SHRA FEW005 SCT008 BKN025CB 18/17 Q1016=
200908211620 METAR ESMX 211620Z VRB02KT 4900 -SHRA SCT011 SCT025CB 18/17 Q1016=
200908211550 METAR ESMX 211550Z 20005KT 8000 SHRA FEW014 SCT018CB BKN022 19/17 Q1016=
200908211520 METAR ESMX 211520Z 17003KT 140V200 8000 -SHRA SCT022CB BKN025 20/16 Q1016=
200908211450 METAR ESMX 211450Z 16003KT CAVOK 20/16 Q1016=
200908211420 METAR ESMX 211420Z 15004KT CAVOK 21/15 Q1016=
200908211350 METAR ESMX 211350Z 15003KT CAVOK 21/15 Q1016=
200908211320 METAR ESMX 211320Z 16004KT 120V190 CAVOK 21/15 Q1016=
200908211250 METAR ESMX 211250Z 17004KT 140V200 CAVOK 22/15 Q1016=
200908211220 METAR ESMX 211220Z 17006KT 130V200 CAVOK 22/15 Q1016=
200908211150 METAR ESMX 211150Z 16007KT 130V210 9999 FEW040 SCT070 23/15 Q1017=
200908211120 METAR ESMX 211120Z 20009KT 9999 FEW030 SCT060 23/17 Q1017=
200908211050 METAR ESMX 211050Z 19009KT 150V220 9999 FEW027 SCT070 23/16 Q1017=
200908211020 METAR ESMX 211020Z 18010KT 150V210 CAVOK 22/15 Q1017=
200908210950 METAR ESMX 210950Z 19009KT CAVOK 22/16 Q1017=
200908210920 METAR ESMX 210920Z 18006KT 140V210 CAVOK 22/16 Q1017=
200908210850 METAR ESMX 210850Z 13006KT 080V200 CAVOK 21/15 Q1016=
200908210820 METAR ESMX 210820Z 15005KT 080V240 CAVOK 19/15 Q1016=
200908210750 METAR ESMX 210750Z 13007KT 100V170 9999 FEW040 SCT080 19/15 Q1016=
200908210720 METAR ESMX 210720Z 12006KT 070V150 CAVOK 17/14 Q1016=
200908210650 METAR ESMX 210650Z 11006KT 060V140 8000 -RA FEW040 BKN080 17/14 Q1016=
200908210620 METAR ESMX 210620Z 19006KT 140V230 CAVOK 18/14 Q1017=
200908210550 METAR ESMX 210550Z 13006KT 090V170 CAVOK 17/14 Q1017=
200908210520 METAR ESMX 210520Z 13005KT 090V180 CAVOK 16/13 Q1017=
200908210450 METAR ESMX 210450Z 16005KT 110V200 CAVOK 16/13 Q1018=
200908210420 METAR ESMX 210420Z 16007KT 120V200 CAVOK 16/13 Q1018=
200908210350 METAR ESMX 210350Z AUTO 15007KT 090V180 9999NDV NCD 16/13 Q1018=
200908210320 METAR ESMX 210320Z AUTO 14006KT 100V180 9999NDV NCD 16/13 Q1018=
200908210250 METAR ESMX 210250Z AUTO 14007KT 100V170 9999NDV NCD 16/13 Q1018=
200908210220 METAR ESMX 210220Z AUTO 14006KT 090V180 9999NDV BKN075/// 16/13 Q1018=
200908210150 METAR ESMX 210150Z AUTO 15006KT 120V190 9999NDV FEW073/// SCT110/// 16/13 Q1019=
200908210120 METAR ESMX 210120Z AUTO 16006KT 110V200 9999NDV FEW110/// 16/13 Q1019=
200908210050 METAR ESMX 210050Z AUTO 13009KT 080V190 9999NDV NCD 15/13 Q1018=
200908210020 METAR ESMX 210020Z AUTO 12008KT 070V180 9999NDV NCD 15/13 Q1019=
200908202350 METAR ESMX 202350Z AUTO 12005KT 070V160 9999NDV NCD 15/13 Q1019=
200908202320 METAR ESMX 202320Z 13004KT 080V200 CAVOK 15/12 Q1020=
200908202250 METAR ESMX 202250Z 13005KT 080V170 CAVOK 15/12 Q1020=
200908202220 METAR ESMX 202220Z 13005KT 060V190 CAVOK 15/12 Q1020=
200908202150 METAR ESMX 202150Z 12005KT 050V160 CAVOK 15/12 Q1020=
200908202120 METAR ESMX 202120Z 13004KT 090V190 CAVOK 15/12 Q1020=
200908202050 METAR ESMX 202050Z 13006KT 080V160 CAVOK 15/11 Q1020=
200908202020 METAR ESMX 202020Z 14006KT 090V170 CAVOK 16/11 Q1021=
200908201950 METAR ESMX 201950Z 13006KT 070V180 CAVOK 16/11 Q1021=
200908201920 METAR ESMX 201920Z 13006KT 050V180 CAVOK 17/11 Q1021=
200908201850 METAR ESMX 201850Z 13007KT 060V180 CAVOK 17/11 Q1021=
200908201820 METAR ESMX 201820Z 14006KT 110V200 CAVOK 19/11 Q1021=
200908201750 METAR ESMX 201750Z 16008KT 120V180 CAVOK 20/11 Q1021=
200908201720 METAR ESMX 201720Z 15007KT 100V210 CAVOK 20/10 Q1022=
200908201650 METAR ESMX 201650Z 15008KT 100V190 CAVOK 21/10 Q1022=
200908201620 METAR ESMX 201620Z 15007KT 110V190 CAVOK 21/11 Q1022=
200908201550 METAR ESMX 201550Z 16011KT 140V210 CAVOK 22/10 Q1023=
200908201520 METAR ESMX 201520Z 17010KT 130V210 CAVOK 22/10 Q1023=
200908201450 METAR ESMX 201450Z 17010KT 130V210 CAVOK 23/10 Q1023=
200908201420 METAR ESMX 201420Z 16011KT 120V190 CAVOK 22/09 Q1023=
200908201350 METAR ESMX 201350Z 16011KT 110V210 CAVOK 22/10 Q1023=
200908201320 METAR ESMX 201320Z 16011KT 120V210 CAVOK 22/10 Q1024=
200908201250 METAR ESMX 201250Z 15010KT 110V190 CAVOK 22/11 Q1024=
200908201220 METAR ESMX 201220Z 16008KT 100V220 CAVOK 22/11 Q1024=
200908201150 METAR ESMX 201150Z 17011KT 130V200 CAVOK 22/12 Q1025=
200908201120 METAR ESMX 201120Z 16009KT 110V200 CAVOK 22/12 Q1025=
200908201050 METAR ESMX 201050Z 16009KT 120V200 CAVOK 22/12 Q1025=
200908201020 METAR ESMX 201020Z 16009KT 120V200 CAVOK 21/12 Q1025=
200908200950 METAR ESMX 200950Z 16010KT 120V200 CAVOK 20/11 Q1026=
200908200920 METAR ESMX 200920Z 16009KT 120V190 CAVOK 20/11 Q1026=
200908200850 METAR ESMX 200850Z 16008KT 110V200 CAVOK 20/11 Q1026=
200908200820 METAR ESMX 200820Z 16009KT 130V200 CAVOK 19/12 Q1025=
200908200750 METAR ESMX 200750Z 15009KT 100V170 CAVOK 17/12 Q1025=
200908200720 METAR ESMX 200720Z 16008KT 100V190 CAVOK 16/12 Q1025=
200908200650 METAR ESMX 200650Z 16009KT 120V200 CAVOK 16/12 Q1025=
200908200620 METAR ESMX 200620Z 16008KT 120V200 CAVOK 15/12 Q1026=
200908200550 METAR ESMX 200550Z 15007KT 120V190 CAVOK 14/11 Q1026=
200908200520 METAR ESMX 200520Z 15005KT 110V190 CAVOK 13/11 Q1026=
200908200450 METAR ESMX 200450Z 15005KT 110V190 CAVOK 12/10 Q1026=
200908200420 METAR ESMX 200420Z 14004KT 100V170 CAVOK 12/10 Q1026=
200908200350 METAR ESMX 200350Z AUTO 14004KT 9999NDV NCD 11/10 Q1026=
200908200320 METAR ESMX 200320Z AUTO 14004KT 9999NDV NCD 12/10 Q1026=
200908200250 METAR ESMX 200250Z AUTO 14004KT 110V200 9999NDV NCD 12/10 Q1026=
200908200220 METAR ESMX 200220Z AUTO 15005KT 110V190 9999NDV NCD 11/10 Q1026=
200908200150 METAR ESMX 200150Z AUTO 15004KT 120V180 9999NDV NCD 12/11 Q1026=
200908200120 METAR ESMX 200120Z AUTO 15005KT 9999NDV NCD 12/10 Q1026=
200908200050 METAR ESMX 200050Z AUTO 14005KT 090V170 9999NDV NCD 11/10 Q1026=
200908200020 METAR ESMX 200020Z AUTO 15004KT 9999NDV NCD 11/10 Q1026=
200908192350 METAR ESMX 192350Z AUTO 13003KT 9999NDV NCD 11/09 Q1026=
200908192320 METAR ESMX 192320Z 13003KT CAVOK 10/09 Q1026=
200908192250 METAR ESMX 192250Z 14003KT CAVOK 10/09 Q1026=
200908192220 METAR ESMX 192220Z 15003KT CAVOK 11/09 Q1026=
200908192150 METAR ESMX 192150Z 19004KT CAVOK 13/09 Q1026=
200908192120 METAR ESMX 192120Z 15004KT 120V190 CAVOK 12/09 Q1026=
200908192050 METAR ESMX 192050Z 16004KT CAVOK 13/09 Q1026=
200908192020 METAR ESMX 192020Z 18003KT CAVOK 13/08 Q1026=
200908191950 METAR ESMX 191950Z 18003KT CAVOK 13/09 Q1026=
200908191920 METAR ESMX 191920Z 18004KT CAVOK 13/09 Q1025=
200908191850 METAR ESMX 191850Z 17004KT CAVOK 15/09 Q1025=
200908191820 METAR ESMX 191820Z 16006KT CAVOK 17/10 Q1025=
200908191750 METAR ESMX 191750Z 17005KT CAVOK 18/09 Q1024=
200908191720 METAR ESMX 191720Z 17003KT CAVOK 18/09 Q1024=
200908191650 METAR ESMX 191650Z 17003KT CAVOK 19/09 Q1024=
200908191620 METAR ESMX 191620Z 16004KT 110V200 CAVOK 20/08 Q1024=
200908191550 METAR ESMX 191550Z 16005KT CAVOK 20/08 Q1025=
200908191520 METAR ESMX 191520Z 15003KT 110V210 CAVOK 19/09 Q1024=
200908191450 METAR ESMX 191450Z 15004KT 110V230 CAVOK 21/07 Q1024=
200908191420 METAR ESMX 191420Z 18004KT 120V220 CAVOK 20/07 Q1024=
200908191350 METAR ESMX 191350Z 15004KT 070V230 CAVOK 21/08 Q1024=
200908191320 METAR ESMX 191320Z 19005KT 170V230 9999 FEW045 19/07 Q1024=
200908191250 METAR ESMX 191250Z 15005KT 9999 FEW045 20/08 Q1024=
200908191220 METAR ESMX 191220Z 13003KT 9999 FEW045 19/10 Q1024=
200908191150 METAR ESMX 191150Z 17004KT 100V200 9999 FEW045 20/09 Q1024=
200908191120 METAR ESMX 191120Z 21004KT 140V260 9999 FEW035 18/09 Q1024=
200908191050 METAR ESMX 191050Z 20003KT 160V270 9999 FEW039 19/09 Q1024=
200908191020 METAR ESMX 191020Z 18007KT CAVOK 19/11 Q1024=
200908190950 METAR ESMX 190950Z VRB02KT CAVOK 18/10 Q1024=
200908190920 METAR ESMX 190920Z VRB02KT CAVOK 17/11 Q1024=
200908190850 METAR ESMX 190850Z VRB02KT 9999 FEW005 SCT006 BKN008 15/12 Q1024=
200908190820 METAR ESMX 190820Z VRB02KT 9999 BKN005 13/13 Q1024=
200908190750 METAR ESMX 190750Z VRB02KT 4500 OVC002 12/11 Q1023=
200908190720 METAR ESMX 190720Z VRB02KT 0900 R01/0800V1500N R19/1200VP2000U FG VV002 11/11 Q1023=
200908190650 METAR ESMX 190650Z VRB02KT 0400 R01/0750 R19/0750VP2000N FG VV002 10/10 Q1023=
200908190620 METAR ESMX 190620Z VRB03KT 0150 R01/0275V0500N R19/0375V0550N FG VV002 10/10 Q1023=
200908190550 METAR ESMX 190550Z 26003KT 230V290 0150 R01/0200V0325 R19/0350V0550N FG VV002 10/10 Q1022=
200908190520 METAR ESMX 190520Z 29002KT 0250 R01/0550 R19/0650N FG VV002 09/09 Q1022=
200908190450 METAR ESMX 190450Z 16001KT 0800 R01/1100VP2000 R19/P2000N BCFG VV002 07/07 Q1021=
200908190420 METAR ESMX 190420Z VRB02KT 0900 R01/P2000 R19/P2000N BCFG FEW005 06/05 Q1021=
200908190350 METAR ESMX 190350Z 26002KT 2300 BCFG NSC 05/05 Q1021=
200908190320 METAR ESMX 190320Z AUTO 00000KT 0300NDV R01/P2000 R19/P2000N FG NCD 07/07 Q1021=
200908190250 METAR ESMX 190250Z AUTO 17002KT 9999NDV NCD 08/07 Q1020=
200908190220 METAR ESMX 190220Z AUTO 00000KT 0550NDV R01/P2000N R19/P2000N FG FEW004/// BKN007/// 08/07 Q1020=
200908190150 METAR ESMX 190150Z AUTO 28001KT 5000NDV BR NCD 08/07 Q1020=
200908190120 METAR ESMX 190120Z AUTO 27002KT 9999NDV NCD 08/07 Q1020=
200908190050 METAR ESMX 190050Z AUTO 27003KT 9999NDV NCD 08/07 Q1020=
200908190020 METAR ESMX 190020Z AUTO VRB02KT 9999NDV NCD 10/08 Q1019=
200908182350 METAR ESMX 182350Z AUTO 28003KT 9999NDV NCD 10/09 Q1019=
200908182320 METAR ESMX 182320Z 28004KT CAVOK 10/09 Q1019=
200908182250 METAR ESMX 182250Z 27004KT CAVOK 10/08 Q1019=
200908182220 METAR ESMX 182220Z 28005KT CAVOK 10/08 Q1018=
200908182150 METAR ESMX 182150Z 27004KT CAVOK 11/08 Q1018=
200908182120 METAR ESMX 182120Z 26006KT CAVOK 11/08 Q1018=
200908182050 METAR ESMX 182050Z 26005KT CAVOK 11/08 Q1018=
200908182020 METAR ESMX 182020Z 26005KT CAVOK 12/08 Q1017=
200908181950 METAR ESMX 181950Z 25005KT 200V280 CAVOK 13/08 Q1017=
200908181920 METAR ESMX 181920Z 26007KT CAVOK 13/08 Q1016=
200908181850 METAR ESMX 181850Z 27006KT CAVOK 13/08 Q1015=
200908181750 METAR ESMX 181750Z 27009KT CAVOK 16/09 Q1014=
200908181720 METAR ESMX 181720Z 27010KT 240V300 CAVOK 17/08 Q1014=
200908181650 METAR ESMX 181650Z 28010KT 250V320 CAVOK 17/08 Q1014=
200908181620 METAR ESMX 181620Z 28011KT 240V320 9999 FEW042 17/08 Q1013=
200908181550 METAR ESMX 181550Z 27013KT 210V300 9999 FEW042 18/09 Q1013=
200908181520 METAR ESMX 181520Z 26010KT 210V300 9999 FEW042 18/09 Q1013=
200908181450 METAR ESMX 181450Z 28015KT 250V320 9999 FEW041 18/09 Q1013=
200908181420 METAR ESMX 181420Z 27014KT 9999 FEW039 SCT049 19/09 Q1012=
200908181350 METAR ESMX 181350Z 26015KT 230V310 9999 FEW038 SCT046 BKN054 19/09 Q1012=
200908181320 METAR ESMX 181320Z 27014KT 9999 FEW038 SCT048 BKN054 19/10 Q1012=
200908181250 METAR ESMX 181250Z 27015KT 240V300 9999 FEW040 SCT077 19/10 Q1011=
200908181220 METAR ESMX 181220Z 27014KT 9999 FEW037 SCT044 19/10 Q1011=
200908181150 METAR ESMX 181150Z 28013KT 240V320 9999 FEW034 SCT058 BKN068 18/09 Q1011=
200908181120 METAR ESMX 181120Z 27012KT 240V320 9999 FEW032 SCT043 BKN064 18/10 Q1010=
200908181050 METAR ESMX 181050Z 27015KT 240V310 9999 FEW031 18/10 Q1010=
200908181020 METAR ESMX 181020Z 28012KT 250V320 9999 FEW027 SCT056 17/11 Q1010=
200908180950 METAR ESMX 180950Z 28012G23KT 250V320 9999 FEW026 SCT031 BKN035 16/10 Q1010=
200908180920 METAR ESMX 180920Z 28013KT 250V320 9999 FEW027 BKN033 16/10 Q1009=
200908180850 METAR ESMX 180850Z 28013KT 9999 FEW024 SCT032 16/10 Q1009=
200908180820 METAR ESMX 180820Z 27011KT 9999 FEW021 SCT030 15/10 Q1008=
200908180750 METAR ESMX 180750Z 26009KT 200V290 9999 FEW019 SCT026 14/10 Q1008=
200908180720 METAR ESMX 180720Z 27009KT 230V300 9999 FEW017 BKN022 14/10 Q1008=
200908180650 METAR ESMX 180650Z 25008KT 210V290 9999 FEW014 SCT017 BKN019 14/11 Q1008=
200908180620 METAR ESMX 180620Z 26008KT 230V300 9999 FEW010 BKN014 OVC020 13/11 Q1008=
200908180550 METAR ESMX 180550Z 26013KT 9999 FEW009 BKN013 13/11 Q1007=
200908180520 METAR ESMX 180520Z 24009KT 210V290 9999 FEW012 SCT018 13/11 Q1007=
200908180450 METAR ESMX 180450Z 26008KT 220V290 9999 FEW006 BKN017 12/11 Q1007=
200908180420 METAR ESMX 180420Z 25008KT 9999 FEW008 SCT016 12/11 Q1006=
200908180350 METAR ESMX 180350Z 25006KT 210V280 9999 FEW014 BKN021 12/11 Q1006=
200908180320 METAR ESMX 180320Z 24005KT 9999 FEW013 BKN019 12/11 Q1006=
200908180250 METAR ESMX 180250Z AUTO 24005KT 210V280 9999NDV FEW005/// SCT008/// 12/11 Q1006=
200908180220 METAR ESMX 180220Z AUTO 25006KT 190V280 9999NDV FEW005/// SCT007/// BKN020/// 13/12 Q1006=
200908180150 METAR ESMX 180150Z AUTO 26007KT 9999NDV FEW006/// SCT010/// BKN015/// 13/12 Q1006=
200908180120 METAR ESMX 180120Z AUTO 24007KT 210V280 9999NDV FEW007/// SCT011/// BKN014/// 13/12 Q1006=
200908180050 METAR ESMX 180050Z AUTO 25006KT 9999NDV FEW008/// SCT009/// BKN011/// 13/12 Q1006=
200908180020 METAR ESMX 180020Z AUTO 25006KT 9999NDV SCT006/// BKN009/// OVC012/// 13/12 Q1006=
200908172350 METAR ESMX 172350Z 24006KT 9999 FEW008 SCT009 BKN011 13/12 Q1005=
200908172320 METAR ESMX 172320Z 22007KT 9999 SCT011 13/12 Q1006=
200908172250 METAR ESMX 172250Z 22008KT 9999 FEW006 SCT014 13/12 Q1006=
200908172220 METAR ESMX 172220Z 22006KT 9999 FEW013 SCT015 13/12 Q1006=
200908172150 METAR ESMX 172150Z 21005KT 9999 SCT011 BKN016 13/12 Q1006=
200908172120 METAR ESMX 172120Z 21007KT 9999 FEW058 BKN085 13/12 Q1006=
200908172050 METAR ESMX 172050Z 21005KT 9999 -RA SCT063 13/12 Q1006=
200908172020 METAR ESMX 172020Z 22010KT 190V250 9000 RA FEW010 SCT057 13/12 Q1006=
200908171950 METAR ESMX 171950Z 22015KT 170V250 2500 RA FEW015 SCT020CB BKN041 14/13 Q1006=
200908171920 METAR ESMX 171920Z 21004KT 9999 RA FEW020 SCT041 BKN072 14/13 Q1006=
200908171850 METAR ESMX 171850Z 24005KT 210V290 9999 FEW024 OVC071 15/13 Q1006=
200908171750 METAR ESMX 171750Z 24003KT 9999 FEW013 SCT041 BKN063 15/13 Q1006 RESHRA=
200908171720 METAR ESMX 171720Z 26005KT 230V290 5000 -RA FEW007 SCT025 BKN042 16/13 Q1006=
200908171650 METAR ESMX 171650Z 26005KT 9999 FEW035 BKN050 17/12 Q1006=
200908171620 METAR ESMX 171620Z 24006KT 200V260 9999 FEW031 OVC052 17/12 Q1006=
200908171550 METAR ESMX 171550Z 23007KT 200V260 9999 FEW025 BKN050 17/11 Q1007=
200908171520 METAR ESMX 171520Z 23007KT 190V270 9999 BKN040 17/12 Q1007=
200908171450 METAR ESMX 171450Z 24009KT 200V270 9999 SCT035 17/11 Q1007=
200908171420 METAR ESMX 171420Z 24010KT 9999 FEW038 BKN071 18/11 Q1007=
200908171350 METAR ESMX 171350Z 25010KT 220V290 9999 BKN040 19/11 Q1007=
200908171320 METAR ESMX 171320Z 25009KT 210V280 9999 FEW030 SCT045 19/11 Q1007=
200908171250 METAR ESMX 171250Z 25012KT 210V290 9999 FEW035 SCT040 19/11 Q1007=
200908171220 METAR ESMX 171220Z 25013KT 9999 FEW044 BKN072 18/11 Q1007=
200908171150 METAR ESMX 171150Z 24012KT 210V280 9999 FEW033 BKN068 18/11 Q1007=
200908171120 METAR ESMX 171120Z 25012KT 210V290 9999 FEW028 SCT068 18/11 Q1007=
200908171050 METAR ESMX 171050Z 25015KT 200V300 9999 SCT030 18/11 Q1007=
200908171020 METAR ESMX 171020Z 23013KT 190V290 9999 FEW028 SCT041 BKN063 18/12 Q1007=
200908170950 METAR ESMX 170950Z 25010KT 220V290 9999 FEW029 18/12 Q1006=
200908170920 METAR ESMX 170920Z 25011KT 210V280 9999 FEW027 SCT035 BKN061 18/11 Q1006=
200908170850 METAR ESMX 170850Z 23011KT 200V280 9999 FEW023 BKN045 17/11 Q1006=
200908170820 METAR ESMX 170820Z 24010KT 200V280 9999 FEW025 BKN040 17/11 Q1006=
200908170750 METAR ESMX 170750Z 24013KT 200V280 9999 FEW022 SCT040 17/11 Q1006=
200908170720 METAR ESMX 170720Z 24013KT 9999 FEW021 SCT028 16/11 Q1006=
200908170650 METAR ESMX 170650Z 23011KT 9999 FEW017 SCT025 16/12 Q1006=
200908170620 METAR ESMX 170620Z 25015KT 9999 FEW014 SCT025 15/12 Q1006=
200908170550 METAR ESMX 170550Z 24009KT 200V270 9999 FEW015 SCT045 15/12 Q1006=
200908170520 METAR COR ESMX 170520Z 23010KT 9999 VCSH FEW008 FEW018CB SCT046 14/12 Q1006=
200908170450 METAR ESMX 170450Z 23007KT 9999 FEW019 BKN060 14/12 Q1005=
200908170420 METAR ESMX 170420Z 21007KT 9999 FEW019 BKN064 14/12 Q1005=
200908170350 METAR ESMX 170350Z 23007KT 9999 FEW015 SCT020 14/12 Q1005=
200908170320 METAR ESMX 170320Z AUTO 23007KT 9999NDV NCD 13/11 Q1005=
200908170250 METAR ESMX 170250Z AUTO 23008KT 200V260 9999NDV FEW024/// SCT056/// 14/12 Q1005 REDZ=
200908170220 METAR ESMX 170220Z AUTO 23008KT 9999NDV FEW046/// 14/12 Q1006=
200908170150 METAR ESMX 170150Z AUTO 24009KT 200V290 9999NDV FEW022/// SCT029/// BKN069/// 15/12 Q1006=
200908170120 METAR ESMX 170120Z AUTO 23010KT 200V260 9999NDV FEW018/// SCT023/// BKN063/// 15/12 Q1005=
200908170050 METAR ESMX 170050Z AUTO 22011KT 170V240 9999NDV FEW018/// SCT025/// BKN031/// 15/12 Q1005=
200908170020 METAR ESMX 170020Z AUTO 22010KT 9999NDV FEW020/// SCT029/// BKN039/// 16/12 Q1006=
200908162350 METAR ESMX 162350Z 23011KT 9999 FEW026 BKN050 16/12 Q1006=
200908162320 METAR ESMX 162320Z 21010KT 9999 SCT020 BKN050 15/12 Q1006 REDZ=
200908162050 METAR ESMX 162050Z 23009KT 9999 FEW026 BKN045 16/12 Q1007=
200908162020 METAR ESMX 162020Z 21007KT 9999 FEW025 SCT045 16/12 Q1007=
200908161950 METAR ESMX 161950Z 23007KT 200V260 9999 OVC044 17/12 Q1007=
200908161920 METAR ESMX 161920Z 22007KT 190V250 9999 FEW030 BKN045 17/12 Q1007=
200908161850 METAR ESMX 161850Z 22009KT 190V260 9999 SCT030 BKN040 17/12 Q1006=
200908161820 METAR ESMX 161820Z 23009KT 190V260 9999 FEW035 BKN050 17/11 Q1006=
200908161750 METAR ESMX 161750Z 23009KT 200V260 CAVOK 18/11 Q1006=
200908161720 METAR ESMX 161720Z 24009KT 200V280 9999 FEW041 BKN052 18/11 Q1007=
200908161650 METAR ESMX 161650Z 23010KT 200V280 9999 FEW038 SCT053 19/12 Q1007=
200908161620 METAR ESMX 161620Z 25011KT 9999 FEW035 SCT040 BKN054 19/11 Q1007=
200908161550 METAR ESMX 161550Z 25013KT 9999 FEW038 SCT050 19/11 Q1007=
200908161520 METAR ESMX 161520Z 24013KT 210V270 9999 FEW037 BKN049 19/11 Q1006=
200908161450 METAR ESMX 161450Z 24015KT 210V270 9999 FEW036 SCT045 BKN056 20/11 Q1006=
200908161420 METAR ESMX 161420Z 23012KT 200V280 9999 FEW037 SCT044 BKN054 20/11 Q1007=
200908161350 METAR ESMX 161350Z 25013KT 210V290 9999 FEW039 SCT058 20/11 Q1006=
200908161320 METAR ESMX 161320Z 25015KT 210V280 9999 FEW041 BKN050 20/10 Q1006=
200908161250 METAR ESMX 161250Z 25013KT 210V280 9999 FEW047 20/10 Q1006=
200908161220 METAR ESMX 161220Z 25012KT 210V290 9999 FEW042 19/10 Q1006=
200908161150 METAR ESMX 161150Z 26014KT 200V300 CAVOK 20/11 Q1006=
200908161120 METAR ESMX 161120Z 26015KT 220V290 9999 FEW037 SCT049 19/11 Q1006=
200908161050 METAR ESMX 161050Z AUTO 24016G27KT 200V280 9999NDV FEW039/// SCT055/// 21/13 Q1005=
200908161020 METAR ESMX 161020Z AUTO 25017KT 190V280 9999NDV FEW029/// SCT062/// 20/13 Q1006=
200908160950 METAR ESMX 160950Z AUTO 23015KT 190V270 9999NDV FEW030/// SCT071/// 20/15 Q1005=
200908160920 METAR ESMX 160920Z AUTO 23013KT 200V260 9999NDV FEW034/// 19/15 Q1005=
200908160850 METAR ESMX 160850Z AUTO 22010KT 9999NDV -RA FEW017/// SCT020/// BKN029/// 17/15 Q1006=
200908160820 METAR ESMX 160820Z AUTO 23015KT 9999NDV FEW017/// BKN021/// OVC031/// 18/14 Q1005=
200908160750 METAR ESMX 160750Z AUTO 21014KT 9999NDV FEW017/// BKN021/// BKN028/// 18/15 Q1006=
200908160720 METAR ESMX 160720Z AUTO 21015KT 9999NDV FEW015/// SCT017/// BKN020/// 18/15 Q1005=
200908160650 METAR ESMX 160650Z AUTO 21015KT 180V250 9999NDV BKN013/// BKN020/// 17/15 Q1006=
200908160620 METAR ESMX 160620Z AUTO 22012KT 9999NDV FEW011/// BKN014/// BKN022/// 17/15 Q1006=
200908160550 METAR ESMX 160550Z AUTO 20012KT 9999NDV SCT010/// BKN014/// OVC019/// 17/15 Q1006=
200908160520 METAR ESMX 160520Z AUTO 20011KT 9999NDV SCT010/// BKN051/// 17/15 Q1006=
200908160450 METAR ESMX 160450Z AUTO 21010KT 9999NDV FEW010/// SCT015/// BKN044/// 16/15 Q1006=
200908160420 METAR ESMX 160420Z AUTO 23009KT 9999NDV FEW009/// SCT011/// BKN014/// 16/15 Q1006=
200908160350 METAR ESMX 160350Z AUTO 23008KT 180V260 9999NDV BKN010/// OVC023/// 16/15 Q1006=
200908160320 METAR ESMX 160320Z AUTO 23011KT 9999NDV BKN010/// OVC017/// 16/15 Q1006=
200908160250 METAR ESMX 160250Z AUTO 22009KT 200V260 9999NDV FEW011/// SCT016/// BKN032/// 16/15 Q1006=
200908160220 METAR ESMX 160220Z AUTO 22009KT 9999NDV FEW010/// BKN012/// OVC016/// 16/15 Q1006 REDZ=
200908160150 METAR ESMX 160150Z AUTO 22009KT 5000NDV FEW011/// SCT017/// BKN039/// 16/14 Q1006=
200908160120 METAR ESMX 160120Z AUTO 23009KT 190V250 9999NDV FEW013/// SCT018/// BKN061/// 16/14 Q1006=
200908160050 METAR ESMX 160050Z AUTO 22012KT 9000NDV BR FEW012/// SCT019/// BKN037/// 17/15 Q1007=
200908160020 METAR ESMX 160020Z AUTO 21013KT 9000NDV BR FEW016/// SCT029/// BKN043/// 17/15 Q1007=
200908152350 METAR ESMX 152350Z AUTO 20012KT 8000NDV BR FEW021/// 17/15 Q1007=
200908152320 METAR ESMX 152320Z AUTO 20012KT 8000NDV BR FEW059/// 17/15 Q1007=
200908152250 METAR ESMX 152250Z AUTO 20011KT 8000NDV BR BKN055/// 16/15 Q1008=
200908152220 METAR ESMX 152220Z AUTO 19011KT 9000NDV BR FEW047/// OVC053/// 17/15 Q1008=
200908152150 METAR ESMX 152150Z AUTO 19008KT 7000NDV BR FEW039/// BKN049/// 16/15 Q1008=
200908152120 METAR ESMX 152120Z AUTO 19008KT 6000NDV BR FEW030/// SCT042/// OVC051/// 16/15 Q1008=
200908152050 METAR ESMX 152050Z AUTO 19009KT 5000NDV BR FEW004/// BKN038/// BKN055/// 16/15 Q1009=
200908152020 METAR ESMX 152020Z AUTO 18007KT 2900NDV BR FEW003/// BKN005/// BKN008/// 16/15 Q1009=
200908151950 METAR ESMX 151950Z AUTO 18008KT 2500NDV BR FEW003/// SCT005/// BKN006/// 16/15 Q1009=
200908151920 METAR ESMX 151920Z 18008KT 3300 BR FEW005 SCT006 BKN008 16/15 Q1009=
200908151850 METAR ESMX 151850Z 19009KT 3500 BR FEW005 SCT006 BKN008 16/15 Q1009=
200908151820 METAR ESMX 151820Z 19008KT 3500 BR FEW004 BKN010 16/15 Q1010=
200908151750 METAR ESMX 151750Z 19008KT 3600 BR FEW003 OVC005 15/15 Q1010=
200908151720 METAR ESMX 151720Z 17008KT 3200 BR OVC004 15/14 Q1010 REDZ=
200908151650 METAR ESMX 151650Z 16008KT 4500 DZ OVC004 14/14 Q1010=
200908151620 METAR ESMX 151620Z AUTO 16007KT 130V200 4500NDV DZ FEW003/// OVC004/// 14/13 Q1010=
200908151550 METAR ESMX 151550Z AUTO 16009KT 120V190 6000NDV -RA FEW003/// BKN005/// OVC008/// 14/13 Q1011=
200908151520 METAR ESMX 151520Z AUTO 16008KT 130V190 7000NDV -RA FEW004/// SCT006/// BKN008/// 14/13 Q1011 REDZ=
200908151450 METAR ESMX 151450Z AUTO 17007KT 5000NDV DZ FEW004/// SCT006/// BKN008/// 14/13 Q1012=
200908151420 METAR ESMX 151420Z AUTO 15007KT 120V190 3800NDV DZ FEW008/// OVC010/// 14/13 Q1012=
200908151350 METAR ESMX 151350Z AUTO 15006KT 100V190 9999NDV -DZ FEW009/// BKN011/// OVC015/// 14/12 Q1012=
200908151320 METAR ESMX 151320Z AUTO 16007KT 140V210 9999NDV -RA FEW013/// BKN021/// OVC028/// 14/12 Q1013 REDZ=
200908151250 METAR ESMX 151250Z AUTO 17008KT 130V200 9999NDV -RA FEW017/// OVC030/// 15/12 Q1013 REDZ=
200908151220 METAR ESMX 151220Z AUTO 18007KT 140V200 9999NDV -DZ OVC035/// 15/11 Q1013=
200908151150 METAR ESMX 151150Z AUTO 17008KT 9999NDV -RA BKN044/// BKN066/// 15/10 Q1013 REDZ=
200908151120 METAR ESMX 151120Z AUTO 18008KT 140V220 9999NDV FEW029/// SCT039/// OVC048/// 16/10 Q1014=
200908151050 METAR ESMX 151050Z AUTO 19009KT 150V210 9999NDV BKN031/// BKN043/// 16/10 Q1014=
200908151020 METAR ESMX 151020Z AUTO 19009KT 150V220 9999NDV FEW033/// SCT039/// BKN045/// 17/10 Q1014=
200908150950 METAR ESMX 150950Z AUTO 17009KT 9999NDV FEW035/// SCT041/// 17/09 Q1014=
200908150920 METAR ESMX 150920Z AUTO 21008KT 170V240 9999NDV FEW029/// SCT038/// 17/09 Q1014=
200908150850 METAR ESMX 150850Z AUTO 19008KT 9999NDV FEW027/// BKN031/// 17/09 Q1014=
200908150820 METAR ESMX 150820Z AUTO 18009KT 140V210 9999NDV FEW024/// 16/10 Q1014=
200908150750 METAR ESMX 150750Z AUTO 19007KT 160V240 9999NDV FEW022/// SCT026/// 16/10 Q1014=
200908150720 METAR ESMX 150720Z AUTO 18006KT 140V210 9999NDV NCD 15/10 Q1015=
200908150650 METAR ESMX 150650Z AUTO 20005KT 170V230 9999NDV NCD 14/10 Q1014=
200908150620 METAR ESMX 150620Z AUTO 22004KT 180V260 9999NDV NCD 14/11 Q1014=
200908150550 METAR ESMX 150550Z AUTO 22004KT 9999NDV NCD 13/10 Q1014=
200908150520 METAR ESMX 150520Z AUTO 21004KT 9999NDV NCD 11/10 Q1014=
200908150450 METAR ESMX 150450Z AUTO 22004KT 9999NDV NCD 10/09 Q1014=
200908150420 METAR ESMX 150420Z AUTO 21005KT 9999NDV NCD 10/09 Q1014=
200908150350 METAR ESMX 150350Z AUTO 22004KT 9999NDV NCD 10/09 Q1014=
200908150320 METAR ESMX 150320Z AUTO 21005KT 9999NDV FEW028/// 10/09 Q1014=
200908150250 METAR ESMX 150250Z AUTO 21005KT 9999NDV NCD 10/09 Q1014=
200908150220 METAR ESMX 150220Z AUTO 22004KT 9999NDV FEW027/// 09/08 Q1014=
200908150150 METAR ESMX 150150Z AUTO 21003KT 9999NDV NCD 10/08 Q1015=
200908150120 METAR ESMX 150120Z AUTO 21003KT 9999NDV NCD 09/09 Q1014=
200908150050 METAR ESMX 150050Z AUTO 17003KT 9999NDV NCD 08/07 Q1014=
200908150020 METAR ESMX 150020Z AUTO 18003KT 9999NDV FEW054/// 08/08 Q1014=
200908142350 METAR ESMX 142350Z AUTO VRB01KT 9999NDV NCD 08/07 Q1014=
200908142320 METAR ESMX 142320Z AUTO 00000KT 9999NDV NCD 09/08 Q1014=
200908142250 METAR ESMX 142250Z AUTO 25001KT 9999NDV NCD 10/08 Q1014=
200908142220 METAR ESMX 142220Z AUTO 26003KT 9999NDV NCD 10/08 Q1014=
200908142150 METAR ESMX 142150Z AUTO 25004KT 9999NDV NCD 10/08 Q1014=
200908142120 METAR ESMX 142120Z AUTO 23003KT 9999NDV NCD 11/07 Q1014=
200908142050 METAR ESMX 142050Z AUTO 24004KT 9999NDV NCD 11/07 Q1014=
200908142020 METAR ESMX 142020Z AUTO 26005KT 9999NDV NCD 11/07 Q1014=
200908141950 METAR ESMX 141950Z AUTO 25004KT 9999NDV NCD 11/06 Q1013=
200908141920 METAR ESMX 141920Z AUTO 24004KT 200V280 9999NDV NCD 13/06 Q1013=
200908141850 METAR ESMX 141850Z AUTO 27005KT 250V310 9999NDV NCD 14/06 Q1013=
200908141820 METAR ESMX 141820Z 26004KT CAVOK 14/07 Q1013=
200908141750 METAR ESMX 141750Z 26008KT 230V290 CAVOK 16/07 Q1012=
200908141720 METAR ESMX 141720Z 27007KT 250V310 CAVOK 17/07 Q1012=
200908141650 METAR ESMX 141650Z 27008KT 230V310 CAVOK 18/07 Q1012=
200908141620 METAR ESMX 141620Z 27010KT CAVOK 18/07 Q1012=
200908141550 METAR ESMX 141550Z 26009KT 230V290 CAVOK 18/07 Q1012=
200908141520 METAR ESMX 141520Z 27010KT 220V300 9999 FEW048 19/07 Q1012=
200908141450 METAR ESMX 141450Z 28004KT 250V320 CAVOK 18/09 Q1012=
200908141420 METAR ESMX 141420Z 27008KT 240V300 CAVOK 17/09 Q1012=
200908141350 METAR ESMX 141350Z 28009KT 260V330 9999 FEW027 18/10 Q1012=
200908141320 METAR ESMX 141320Z 26006KT 9999 FEW024 17/10 Q1012=
200908141250 METAR ESMX 141250Z 31004KT 280V340 9999 FEW021 14/10 Q1012=
200908141220 METAR ESMX 141220Z 23014KT 9000 -RA SCT043 BKN074 15/10 Q1012=
200908141150 METAR ESMX 141150Z 23010KT 200V260 9999 FEW044 SCT082 19/09 Q1011=
200908141120 METAR ESMX 141120Z 30009KT 280V060 9999 SCT045CB 19/08 Q1011=
200908141050 METAR ESMX 141050Z 28010KT 230V310 9999 FEW045 18/09 Q1011=
200908141020 METAR ESMX 141020Z 29010KT 250V320 9999 SCT045 18/09 Q1011=
200908140950 METAR ESMX 140950Z 28009KT 240V320 CAVOK 17/09 Q1011=
200908140920 METAR ESMX 140920Z 29008KT 240V330 CAVOK 17/09 Q1011=
200908140850 METAR ESMX 140850Z 28008KT 250V310 CAVOK 16/08 Q1011=
200908140820 METAR ESMX 140820Z 29008KT CAVOK 16/10 Q1010=
200908140750 METAR ESMX 140750Z 28007KT 250V320 CAVOK 15/11 Q1010=
200908140720 METAR ESMX 140720Z 31005KT 280V350 9999 FEW008 14/12 Q1010=
200908140650 METAR ESMX 140650Z 29004KT 240V320 9999 FEW007 12/12 Q1010=
200908140620 METAR ESMX 140620Z 28005KT 230V330 9999 BKN004 11/11 Q1010=
200908140550 METAR ESMX 140550Z 27006KT 9999 BKN002 11/10 Q1010=
200908140520 METAR ESMX 140520Z 24005KT 210V270 6000 BR OVC002 11/10 Q1009=
200908140450 METAR ESMX 140450Z 27003KT 230V340 0900 R01/1100VP2000U R19/0900V1700U FG VV002 10/10 Q1009=
200908140420 METAR ESMX 140420Z 26004KT 220V300 0500 R01/0900 R19/0800 FG VV003 10/10 Q1009=
200908140350 METAR ESMX 140350Z 26005KT 0800 R01/0900 R19/1100VP2000D FG OVC003 10/09 Q1009=
200908140320 METAR ESMX 140320Z AUTO 25004KT 9999NDV NCD 09/09 Q1009=
200908140250 METAR ESMX 140250Z AUTO 26004KT 9999NDV NCD 09/09 Q1008=
200908140220 METAR ESMX 140220Z AUTO VRB01KT 3900NDV BR NCD 10/09 Q1008=
200908140150 METAR ESMX 140150Z AUTO 26003KT 9999NDV NCD 10/10 Q1008=
200908140120 METAR ESMX 140120Z AUTO 29005KT 9999NDV NCD 11/10 Q1008=
200908140050 METAR ESMX 140050Z AUTO 27006KT 9999NDV FEW004/// 11/11 Q1008=
200908140020 METAR ESMX 140020Z AUTO 29007KT 260V330 9999NDV BKN001/// BKN004/// 11/11 Q1008=
200908132350 METAR ESMX 132350Z AUTO 26006KT 230V290 0800NDV R01/P2000N R19/P2000N FG BKN000/// 11/11 Q1008=
200908132320 METAR COR ESMX 132320Z 27006KT 5000 R01/P2000N R19/P2000N BR BKN003 11/11 Q1007=
200908132250 METAR ESMX 132250Z AUTO 26005KT 9999NDV FEW030/// 11/10 Q1007=
200908132220 METAR ESMX 132220Z AUTO 26004KT 9999NDV FEW030/// SCT041/// BKN050/// 12/11 Q1008=
200908132150 METAR ESMX 132150Z 27005KT 9999 FEW033 BKN041 BKN055 12/11 Q1008=
200908132120 METAR ESMX 132120Z 27005KT 9999 OVC045 12/11 Q1007=
200908132050 METAR ESMX 132050Z 29003KT 9999 BKN010 BKN045 11/11 Q1007=
200908132020 METAR ESMX 132020Z 27005KT 9999 FEW012 11/10 Q1007=
200908131950 METAR ESMX 131950Z 27005KT CAVOK 11/11 Q1007=
200908131920 METAR ESMX 131920Z 27005KT CAVOK 12/11 Q1006=
200908131850 METAR ESMX 131850Z 27005KT CAVOK 12/11 Q1006=
200908131820 METAR ESMX 131820Z 29004KT 250V320 CAVOK 13/12 Q1006=
200908131750 METAR ESMX 131750Z 22007G71KT 190V250 9999 FEW030CB 14/12 Q1005=
200908131720 METAR ESMX 131720Z 27004KT 230V310 9999 -SHRA FEW030CB BKN060 13/12 Q1006=
200908131650 METAR ESMX 131650Z 27004KT 240V330 9999 SHRA FEW030CB SCT055 BKN065 13/12 Q1006=
200908131620 METAR ESMX 131620Z VRB02KT 4800 -RA FEW030CB SCT060 13/12 Q1006=
200908131550 METAR ESMX 131550Z 22004KT 9999 FEW030CB SCT060 13/12 Q1006=
200908131520 METAR ESMX 131520Z VRB02KT 9999 FEW030CB BKN061 13/12 Q1006=
200908131450 METAR ESMX 131450Z 30005KT 260V030 6000 RA FEW035CB BKN055 13/12 Q1006=
200908131420 METAR ESMX 131420Z 25007KT 210V280 9999 SHRA FEW035CB BKN055 14/11 Q1006=
200908131350 METAR ESMX 131350Z 19003KT 140V220 9999 FEW050CB BKN060 14/11 Q1005 RERA=
200908131320 METAR ESMX 131320Z 27009KT 9999 -SHRA FEW033CB BKN066 16/10 Q1006=
200908131250 METAR ESMX 131250Z 25007KT 210V290 9999 FEW031CB SCT040 BKN070 19/11 Q1005=
200908131220 METAR ESMX 131220Z 26009KT 9999 FEW035CB BKN055 18/11 Q1006=
200908131150 METAR ESMX 131150Z 30007KT 270V330 9999 SCT030CB BKN055 18/12 Q1005=
200908131120 METAR ESMX 131120Z 32010KT 9999 FEW010CB SCT043 BKN080 19/12 Q1005=
200908131050 METAR ESMX 131050Z 26005KT 190V300 9999 FEW024CB SCT080 18/12 Q1005=
200908131020 METAR ESMX 131020Z 27004KT 230V310 9999 FEW017CB SCT070 17/13 Q1005=
200908130950 METAR ESMX 130950Z 28004KT 240V330 9999 FEW013CB BKN060 16/13 Q1006=
200908130920 METAR ESMX 130920Z 28003KT 250V330 9999 FEW010CB BKN060 16/13 Q1006=
200908130850 METAR ESMX 130850Z 27005KT 9999 FEW007 FEW020CB BKN057 15/13 Q1006 RERA RESHRA=
200908130820 METAR ESMX 130820Z 28007KT 240V300 5000 -SHRA FEW012 FEW020CB SCT030 14/12 Q1005=
200908130750 METAR ESMX 130750Z 23006KT 9999 SCT009 FEW012CB BKN020 15/13 Q1005=
200908130720 METAR ESMX 130720Z 27004KT 220V320 9999 SCT005 FEW020CB SCT070 15/13 Q1005=
200908130650 METAR ESMX 130650Z 28005KT 240V320 9000 SCT004 FEW020CB BKN070 14/13 Q1005=
200908130620 METAR ESMX 130620Z 26003KT 200V290 9000 FEW005 SCT020 BKN024 13/13 Q1005=
200908130550 METAR ESMX 130550Z 24003KT 210V280 9999 SCT010 BKN030 13/12 Q1005=
200908130520 METAR ESMX 130520Z 27003KT 9999 FEW005 SCT020 BKN050 13/12 Q1005=
200908130450 METAR ESMX 130450Z 26004KT 9999 SHRA FEW005 SCT030 BKN050 13/12 Q1005=
200908130420 METAR ESMX 130420Z 26004KT 240V300 9999 SCT004 BKN040 13/12 Q1005=
200908130350 METAR ESMX 130350Z 27004KT 9000 SCT003 OVC030 12/12 Q1005=
200908130320 METAR ESMX 130320Z AUTO 25003KT 9999NDV FEW003/// BKN037/// OVC045/// 12/11 Q1005=
200908130250 METAR ESMX 130250Z AUTO 24004KT 9999NDV FEW004/// SCT038/// OVC054/// 11/11 Q1005=
200908130220 METAR ESMX 130220Z AUTO 24004KT 9999NDV SCT062/// BKN110/// 10/10 Q1005=
200908130150 METAR ESMX 130150Z AUTO 24004KT 9999NDV SCT039/// BKN061/// 11/10 Q1005=
200908130120 METAR ESMX 130120Z AUTO 24003KT 9999NDV FEW039/// BKN044/// 10/09 Q1005=
200908130020 METAR ESMX 130020Z AUTO 23002KT 0350NDV R01/P2000N R19/0550V1900 NCD 09/09 Q1006=
200908122350 METAR ESMX 122350Z AUTO 24002KT 3400NDV NCD 10/10 Q1006=
200908122320 METAR ESMX 122320Z 24004KT CAVOK 10/09 Q1006=
200908122250 METAR ESMX 122250Z 23004KT CAVOK 11/10 Q1006=
200908122220 METAR ESMX 122220Z 24004KT CAVOK 10/09 Q1006=
200908122150 METAR ESMX 122150Z 25004KT CAVOK 11/09 Q1006=
200908122050 METAR ESMX 122050Z 24003KT 210V270 CAVOK 12/10 Q1006=
200908122020 METAR ESMX 122020Z 22004KT CAVOK 12/10 Q1006=
200908121950 METAR ESMX 121950Z 24003KT CAVOK 13/10 Q1006=
200908121920 METAR ESMX 121920Z 23004KT CAVOK 13/10 Q1006=
200908121850 METAR ESMX 121850Z 25004KT CAVOK 14/10 Q1006=
200908121820 METAR ESMX 121820Z 26004G24KT 210V300 CAVOK 15/11 Q1006=
200908121750 METAR ESMX 121750Z 26005KT CAVOK 16/11 Q1006=
200908121720 METAR ESMX 121720Z 26007KT 200V290 9999 FEW040CB 17/11 Q1006=
200908121650 METAR ESMX 121650Z 24009KT 200V260 9999 FEW030CB 17/11 Q1006=
200908121620 METAR ESMX 121620Z 25009KT 230V290 9999 FEW030CB SCT090 17/10 Q1006=
200908121550 METAR ESMX 121550Z 25009KT 220V290 9999 -RA FEW030CB 17/11 Q1006=
200908121520 METAR ESMX 121520Z 25007KT 200V290 9999 FEW030CB BKN072 18/11 Q1006=
200908121450 METAR ESMX 121450Z 26008KT 220V290 9999 FEW030CB SCT080 17/11 Q1006=
200908121420 METAR ESMX 121420Z 26010KT 220V290 9999 FEW030CB SCT085 18/11 Q1006=
200908121350 METAR ESMX 121350Z 27011KT 240V310 9999 FEW034CB SCT099 19/11 Q1006=
200908121320 METAR ESMX 121320Z 26012KT 210V310 9999 FEW025 SCT090 19/12 Q1006=
200908121250 METAR ESMX 121250Z 24010KT 210V270 9999 FEW030CB SCT090 17/12 Q1006=
200908121220 METAR ESMX 121220Z 26015KT 9999 -SHRA FEW030CB SCT100 17/12 Q1007=
200908121150 METAR ESMX 121150Z 25008G19KT 190V280 7000 FEW025CB SCT055 16/12 Q1007 RESHRA=
200908121120 METAR ESMX 121120Z 24009KT 190V280 9999 FEW038 SCT052 17/12 Q1007=
200908121050 METAR ESMX 121050Z 25010KT 210V280 9999 FEW037 18/11 Q1006=
200908121020 METAR ESMX 121020Z 25012KT 210V290 9999 FEW035 SCT100 20/11 Q1006=
200908120950 METAR ESMX 120950Z 28011KT 240V320 9999 FEW030 SCT090 19/11 Q1007=
200908120920 METAR ESMX 120920Z 29013KT 9999 FEW026 18/12 Q1007=
200908120850 METAR ESMX 120850Z 28011KT 240V310 9999 FEW030 18/12 Q1007=
200908120820 METAR ESMX 120820Z 27011KT 230V290 9999 FEW021 17/13 Q1007=
200908120750 METAR ESMX 120750Z 26009KT 9999 FEW017 SCT024 17/13 Q1007=
200908120720 METAR ESMX 120720Z 27008KT 230V300 9999 FEW019 BKN023 16/13 Q1007=
200908120650 METAR ESMX 120650Z 26008KT 9999 FEW020 SCT085 15/13 Q1007=
200908120620 METAR ESMX 120620Z 24008KT 9999 FEW010 SCT030 14/13 Q1007=
200908120550 METAR ESMX 120550Z 25007KT 210V280 9999 FEW009 BKN015 14/13 Q1007=
200908120520 METAR ESMX 120520Z 25006KT 9999 FEW008 BKN025 14/13 Q1007=
200908120450 METAR ESMX 120450Z 24006KT 210V270 9999 FEW006 BKN011 14/13 Q1007=
200908120420 METAR ESMX 120420Z 24005KT 9999 SCT006 BKN012 14/13 Q1007=
200908120350 METAR ESMX 120350Z 22005KT 9999 SCT006 BKN011 14/13 Q1007=
200908120320 METAR ESMX 120320Z AUTO 21006KT 9999NDV BKN006/// OVC010/// 13/13 Q1007=
200908120250 METAR ESMX 120250Z AUTO 19004KT 9999NDV -DZ FEW011/// BKN015/// 13/13 Q1007=
200908120220 METAR ESMX 120220Z AUTO 18003KT 9999NDV OVC012/// 13/13 Q1007=
200908120150 METAR ESMX 120150Z AUTO 21003KT 190V250 9999NDV FEW013/// OVC016/// 13/12 Q1007=
200908120120 METAR ESMX 120120Z AUTO 24005KT 9999NDV FEW013/// SCT015/// 13/12 Q1007=
200908120050 METAR ESMX 120050Z AUTO 24006KT 200V280 9999NDV BKN013/// BKN035/// 13/12 Q1007=
200908120020 METAR ESMX 120020Z AUTO 25006KT 9999NDV FEW018/// 13/12 Q1007=
200908112350 METAR ESMX 112350Z AUTO 23005KT 9999NDV FEW019/// 12/12 Q1007=
200908112320 METAR ESMX 112320Z 22004KT 9999 FEW026 12/12 Q1008=
200908112220 METAR ESMX 112220Z 22005KT CAVOK 13/12 Q1008=
200908112150 METAR ESMX 112150Z 19004KT 150V220 9999 FEW021 13/12 Q1008=
200908112120 METAR ESMX 112120Z 22003KT 9999 FEW020 14/13 Q1008=
200908112050 METAR ESMX 112050Z VRB02KT 9999 FEW034 SCT041 14/13 Q1008=
200908112020 METAR ESMX 112020Z 28007KT 230V320 8000 -SHRA FEW010 SCT017 BKN020CB 15/14 Q1009=
200908111950 METAR ESMX 111950Z 23004KT 210V270 9999 FEW025 OVC075 15/14 Q1009=
200908111920 METAR ESMX 111920Z 23002KT 9999 FEW020 BKN070 14/13 Q1009=
200908111850 METAR ESMX 111850Z 25003KT 210V280 9999 FEW035 BKN066 15/14 Q1009=
200908111820 METAR ESMX 111820Z 29006KT 260V320 9999 -SHRA FEW023CB BKN041 15/14 Q1009=
200908111750 METAR ESMX 111750Z 28004KT 240V320 9999 -SHRA SCT020CB BKN045 16/14 Q1009=
200908111720 METAR ESMX 111720Z 28005KT 250V320 9999 FEW025CB SCT040 16/15 Q1009=
200908111650 METAR ESMX 111650Z 27005KT 9999 FEW030CB SCT040 16/14 Q1009=
200908111620 METAR ESMX 111620Z 25005KT 220V280 9999 FEW040CB SCT062 17/14 Q1009 RESHRA=
200908111550 METAR ESMX 111550Z 26009G19KT 230V320 2300 -SHRA FEW020CB SCT044 15/13 Q1009=
200908111520 METAR ESMX 111520Z 23008KT 190V260 9999 FEW017CB SCT030 19/14 Q1009=
200908111450 METAR ESMX 111450Z 21008KT 170V250 9999 FEW015CB SCT045 18/15 Q1009=
200908111420 METAR ESMX 111420Z 22006KT 180V260 9999 FEW025CB SCT060 17/15 Q1010=
200908111350 METAR ESMX 111350Z 23003KT 200V270 9999 FEW025CB SCT055 16/15 Q1010 RESHRA=
200908111320 METAR ESMX 111320Z 24007KT 210V280 9999 SHRA FEW023CB BKN040 16/14 Q1010=
200908111250 METAR ESMX 111250Z 20005KT 9999 SHRA FEW035CB SCT047 18/13 Q1010=
200908111220 METAR ESMX 111220Z 28004KT 230V330 9999 FEW026CB SCT050 18/13 Q1010=
200908111150 METAR ESMX 111150Z 30006KT 270V330 9999 FEW035CB SCT044 17/13 Q1010=
200908111120 METAR ESMX 111120Z 29007KT 250V310 9999 FEW030CB SCT036 19/12 Q1010=
200908111050 METAR ESMX 111050Z 30006KT 270V330 9999 FEW012 SCT030 19/11 Q1010=
200908111020 METAR ESMX 111020Z 26008KT 9999 FEW020 SCT050 18/12 Q1011=
200908110950 METAR ESMX 110950Z 28005KT 200V340 9999 FEW014 SCT050 17/13 Q1011=
200908110920 METAR ESMX 110920Z 26006KT 210V280 9999 FEW015 17/14 Q1011=
200908110850 METAR ESMX 110850Z 28006KT 9999 FEW005 SCT010 17/15 Q1010=
200908110820 METAR ESMX 110820Z 26005KT 230V300 9999 FEW005 SCT007 BKN037 16/15 Q1010=
200908110750 METAR ESMX 110750Z 22005KT 9999 FEW005 SCT020 16/15 Q1010=
200908110720 METAR ESMX 110720Z 18005KT 9999 SCT006 BKN024 16/15 Q1010=
200908110650 METAR ESMX 110650Z VRB01KT 9999 FEW010 SCT030 16/15 Q1010=
200908110620 METAR ESMX 110620Z 30001KT 9999 FEW015 16/15 Q1010=
200908110550 METAR ESMX 110550Z VRB01KT 9999 SCT010 15/15 Q1010=
200908110520 METAR ESMX 110520Z VRB02KT 9000 BR FEW010 SCT040 15/15 Q1010=
200908110450 METAR ESMX 110450Z 09003KT 060V130 8000 BR FEW006 BKN074 15/15 Q1010=
200908110420 METAR ESMX 110420Z VRB02KT 8000 -RA BR FEW005 SCT006 BKN065 15/14 Q1010=
200908110350 METAR ESMX 110350Z VRB01KT 8000 -RA SCT004 BKN080 15/14 Q1011=
200908110320 METAR ESMX 110320Z AUTO 11002KT 3000NDV RA NCD 15/14 Q1011 RESHRA=
200908110250 METAR ESMX 110250Z AUTO VRB01KT 3900NDV RA FEW055/// 15/14 Q1011=
200908110220 METAR ESMX 110220Z AUTO 22002KT 9999NDV -RA FEW026/// SCT034/// BKN056/// 15/14 Q1012=
200908110150 METAR ESMX 110150Z AUTO VRB02KT 9999NDV OVC054/// 15/14 Q1012=
200908110120 METAR ESMX 110120Z AUTO VRB01KT 9999NDV -RA FEW053/// SCT076/// 15/14 Q1012=
200908110050 METAR ESMX 110050Z AUTO 27009KT 9999NDV OVC067/// 16/13 Q1012=
200908110020 METAR ESMX 110020Z AUTO 14004KT 100V190 9999NDV FEW063/// OVC075/// 16/13 Q1012=
200908102350 METAR ESMX 102350Z 14005KT CAVOK 16/13 Q1012=
200908102320 METAR ESMX 102320Z 15006KT CAVOK 16/13 Q1012=
200908102250 METAR ESMX 102250Z 14005KT 100V180 CAVOK 16/13 Q1012=
200908102220 METAR ESMX 102220Z 14005KT 100V170 CAVOK 16/13 Q1012=
200908102150 METAR ESMX 102150Z 14005KT 100V170 CAVOK 16/13 Q1013=
200908102120 METAR ESMX 102120Z 13005KT CAVOK 17/13 Q1013=
200908102050 METAR ESMX 102050Z 15005KT CAVOK 17/13 Q1013=
200908102020 METAR ESMX 102020Z 14004KT 110V170 CAVOK 17/12 Q1013=
200908101950 METAR ESMX 101950Z 14005KT 110V180 CAVOK 18/12 Q1014=
200908101850 METAR ESMX 101850Z 12003KT CAVOK 17/13 Q1014=
200908101820 METAR ESMX 101820Z VRB02KT CAVOK 18/13 Q1014=
200908101750 METAR ESMX 101750Z 14003KT 110V190 CAVOK 18/14 Q1014=
200908101720 METAR ESMX 101720Z 14003KT CAVOK 19/14 Q1014=
200908101650 METAR ESMX 101650Z 13003KT 060V170 CAVOK 19/15 Q1015=
200908101620 METAR ESMX 101620Z 15003KT 110V180 CAVOK 19/15 Q1015=
200908101550 METAR ESMX 101550Z 15005KT 110V180 CAVOK 20/15 Q1015=
200908101520 METAR ESMX 101520Z 14004KT 090V190 CAVOK 21/15 Q1015=
200908101450 METAR ESMX 101450Z 15005KT 100V170 CAVOK 20/15 Q1016=
200908101420 METAR ESMX 101420Z 13003KT 090V180 CAVOK 19/16 Q1016=
200908101350 METAR ESMX 101350Z 12004KT 090V190 CAVOK 19/16 Q1016=
200908101320 METAR ESMX 101320Z 08004KT 040V140 CAVOK 19/16 Q1016=
200908101250 METAR ESMX 101250Z 17005KT 100V200 9999 SCT030 BKN060 20/17 Q1017=
200908101220 METAR ESMX 101220Z 26005KT 200V290 9999 FEW030CB SCT050 20/15 Q1017=
200908101150 METAR ESMX 101150Z 28006KT 9999 -SHRA FEW025CB SCT035 19/15 Q1016=
200908101120 METAR COR ESMX 101120Z 22009KT 9999 -SHRA FEW030CB SCT035 22/15 Q1016=
200908101050 METAR ESMX 101050Z 18006KT 150V210 9999 FEW026 23/14 Q1017=
200908101020 METAR ESMX 101020Z 18006KT 120V210 CAVOK 22/16 Q1017=
200908100950 METAR ESMX 100950Z 15005KT 100V190 CAVOK 22/15 Q1017=
200908100920 METAR ESMX 100920Z 17005KT 120V210 CAVOK 21/15 Q1017=
200908100850 METAR ESMX 100850Z 15005KT 100V190 CAVOK 21/15 Q1017=
200908100820 METAR ESMX 100820Z VRB03KT CAVOK 20/15 Q1017=
200908100750 METAR ESMX 100750Z 14004KT 070V200 CAVOK 20/16 Q1017=
200908100720 METAR ESMX 100720Z 13004KT 080V160 CAVOK 19/16 Q1017=
200908100650 METAR ESMX 100650Z 12003KT 070V170 9999 FEW010 BKN100 18/15 Q1018=
200908100620 METAR ESMX 100620Z 13003KT 080V180 9999 FEW007 BKN200 17/15 Q1018=
200908100550 METAR ESMX 100550Z 13003KT 070V180 9999 FEW005 BKN200 17/15 Q1018=
200908100520 METAR ESMX 100520Z 13003KT 070V160 9999 FEW002 SCT200 16/15 Q1018=
200908100450 METAR ESMX 100450Z 12003KT 070V170 9000 BR FEW004 15/15 Q1018=
200908100420 METAR ESMX 100420Z 13003KT 080V170 9999 FEW004 15/14 Q1018=
200908100350 METAR ESMX 100350Z VRB02KT CAVOK 15/14 Q1019=
200908100320 METAR ESMX 100320Z AUTO VRB02KT 9000NDV NCD 14/13 Q1019=
200908100250 METAR ESMX 100250Z AUTO 12003KT 090V160 9999NDV NCD 15/14 Q1019=
200908100220 METAR ESMX 100220Z AUTO 13003KT 100V170 9999NDV NCD 15/14 Q1019=
200908100150 METAR ESMX 100150Z AUTO 14003KT 100V170 9999NDV NCD 16/14 Q1019=
200908100120 METAR ESMX 100120Z AUTO 14004KT 110V170 9999NDV NCD 16/14 Q1019=
200908100050 METAR ESMX 100050Z AUTO 14005KT 100V170 9999NDV NCD 17/14 Q1020=
200908100020 METAR ESMX 100020Z AUTO 14005KT 9999NDV NCD 17/14 Q1020=
200908092350 METAR ESMX 092350Z 14004KT 100V170 CAVOK 17/14 Q1020=
200908092320 METAR ESMX 092320Z 14006KT 120V180 CAVOK 17/13 Q1020=
200908092250 METAR ESMX 092250Z 15005KT CAVOK 17/13 Q1020=
200908092220 METAR ESMX 092220Z 14005KT 100V170 CAVOK 18/13 Q1020=
200908092150 METAR ESMX 092150Z 16006KT CAVOK 18/13 Q1020=
200908092120 METAR ESMX 092120Z 15004KT 120V190 CAVOK 18/12 Q1020=
200908092050 METAR ESMX 092050Z 16003KT 120V190 CAVOK 17/12 Q1020=
200908092020 METAR ESMX 092020Z 15005KT CAVOK 18/12 Q1020=
200908091950 METAR ESMX 091950Z 15003KT CAVOK 17/12 Q1020=
200908091920 METAR ESMX 091920Z 18003KT CAVOK 19/11 Q1020=
200908091850 METAR ESMX 091850Z 18004KT CAVOK 19/12 Q1020=
200908091820 METAR ESMX 091820Z 19006KT CAVOK 20/12 Q1020=
200908091750 METAR ESMX 091750Z 17005KT CAVOK 22/12 Q1020=
200908091720 METAR ESMX 091720Z 16006KT 130V190 CAVOK 22/11 Q1020=
200908091650 METAR ESMX 091650Z 17008KT 130V200 CAVOK 23/11 Q1020=
200908091620 METAR ESMX 091620Z 16007KT 120V190 CAVOK 24/11 Q1020=
200908091550 METAR ESMX 091550Z 16009KT 110V190 CAVOK 25/11 Q1020=
200908091520 METAR ESMX 091520Z 18007KT 140V210 CAVOK 25/12 Q1020=
200908091450 METAR ESMX 091450Z 15007KT 110V180 CAVOK 24/11 Q1020=
200908091420 METAR ESMX 091420Z 15008KT 110V200 CAVOK 25/11 Q1020=
200908091350 METAR ESMX 091350Z 17009KT 130V200 CAVOK 24/11 Q1021=
200908091320 METAR ESMX 091320Z 19010KT 160V230 CAVOK 26/13 Q1021=
200908091250 METAR ESMX 091250Z 18009KT 150V210 CAVOK 25/13 Q1021=
200908091220 METAR ESMX 091220Z 16007KT 120V190 9999 FEW046 SCT076 25/13 Q1021=
200908091150 METAR ESMX 091150Z 17008KT 130V200 CAVOK 25/13 Q1021=
200908091120 METAR ESMX 091120Z 16008KT 120V200 9999 FEW043 24/14 Q1021=
200908091050 METAR ESMX 091050Z 17008KT 120V200 CAVOK 24/13 Q1021=
200908091020 METAR ESMX 091020Z 14007KT 050V200 CAVOK 24/13 Q1022=
200908090920 METAR ESMX 090920Z AUTO 12006KT 060V180 9999NDV NCD 23/14 Q1022=
200908090850 METAR ESMX 090850Z AUTO 13007KT 100V170 9999NDV NCD 21/13 Q1022=
200908090820 METAR ESMX 090820Z AUTO 14005KT 080V180 9999NDV NCD 21/14 Q1022=
200908090750 METAR ESMX 090750Z AUTO 13005KT 080V200 9999NDV NCD 21/15 Q1022=
200908090720 METAR ESMX 090720Z AUTO 11004KT 050V230 9999NDV NCD 19/15 Q1022=
200908090650 METAR ESMX 090650Z AUTO 12004KT 080V190 9999NDV FEW007/// 19/15 Q1022=
200908090620 METAR ESMX 090620Z AUTO VRB03KT 9999NDV FEW005/// SCT006/// 17/15 Q1022=
200908090550 METAR ESMX 090550Z AUTO 07003KT 020V120 9999NDV BKN003/// BKN009/// 16/15 Q1023=
200908090520 METAR ESMX 090520Z AUTO 10003KT 050V200 8000NDV BR BKN003/// BKN005/// 16/14 Q1023=
200908090450 METAR ESMX 090450Z AUTO 11003KT 070V160 6000NDV BR BKN003/// 15/14 Q1023=
200908090420 METAR ESMX 090420Z AUTO 10003KT 010V160 6000NDV BR FEW003/// BKN004/// BKN008/// 15/14 Q1023=
200908090350 METAR ESMX 090350Z AUTO VRB02KT 6000NDV BR FEW003/// BKN004/// 15/14 Q1023=
200908090320 METAR ESMX 090320Z AUTO 11003KT 050V150 6000NDV BR BKN003/// 15/14 Q1023=
200908090250 METAR ESMX 090250Z AUTO 11003KT 070V140 6000NDV BR BKN002/// 14/14 Q1023=
200908090220 METAR ESMX 090220Z AUTO 12003KT 080V160 6000NDV BR BKN003/// 15/14 Q1023=
200908090150 METAR ESMX 090150Z AUTO 11004KT 070V160 7000NDV BR SCT003/// BKN005/// 14/14 Q1023=
200908090120 METAR ESMX 090120Z AUTO 12003KT 070V150 7000NDV BR SCT004/// 15/14 Q1023=
200908090050 METAR ESMX 090050Z AUTO 11003KT 060V140 7000NDV BR FEW003/// SCT004/// 15/14 Q1023=
200908090020 METAR ESMX 090020Z AUTO 12004KT 080V160 7000NDV BR BKN001/// 15/14 Q1023=
200908082350 METAR ESMX 082350Z AUTO 12005KT 080V150 5000NDV BR BKN001/// 15/15 Q1023=
200908082320 METAR ESMX 082320Z AUTO 12005KT 070V150 9999NDV FEW004/// 15/14 Q1023=
200908082250 METAR ESMX 082250Z AUTO 12003KT 9999NDV NCD 15/14 Q1023=
200908082220 METAR ESMX 082220Z AUTO 12003KT 080V150 9999NDV NCD 15/13 Q1023=
200908082150 METAR ESMX 082150Z AUTO 13003KT 090V160 9999NDV NCD 16/13 Q1023=
200908082120 METAR ESMX 082120Z AUTO 13003KT 090V160 9999NDV NCD 16/12 Q1023=
200908082050 METAR ESMX 082050Z AUTO VRB02KT 9999NDV NCD 16/12 Q1023=
200908082020 METAR ESMX 082020Z AUTO VRB02KT 9999NDV NCD 17/12 Q1023=
200908081950 METAR ESMX 081950Z AUTO 14003KT 100V170 9999NDV NCD 18/11 Q1023=
200908081920 METAR ESMX 081920Z AUTO 14003KT 100V190 9999NDV NCD 19/11 Q1022=
200908081850 METAR ESMX 081850Z AUTO 14003KT 100V170 9999NDV NCD 20/11 Q1022=
200908081820 METAR ESMX 081820Z AUTO 13004KT 080V180 9999NDV NCD 21/11 Q1022=
200908081720 METAR ESMX 081720Z AUTO 16006KT 100V170 9999NDV NCD 23/12 Q1022=
200908081650 METAR ESMX 081650Z AUTO 13006KT 070V190 9999NDV NCD 23/11 Q1022=
200908081620 METAR ESMX 081620Z AUTO 14006KT 100V190 9999NDV NCD 24/11 Q1022=
200908081550 METAR ESMX 081550Z AUTO 15006KT 100V220 9999NDV FEW057/// 24/11 Q1022=
200908081520 METAR ESMX 081520Z AUTO 14006KT 080V200 9999NDV FEW056/// 24/10 Q1022=
200908081450 METAR ESMX 081450Z AUTO 12007KT 070V170 9999NDV FEW060/// 25/11 Q1022=
200908081420 METAR ESMX 081420Z AUTO 16007KT 120V220 9999NDV SCT056/// 25/11 Q1022=
200908081350 METAR ESMX 081350Z AUTO 15006KT 100V190 9999NDV FEW063/// 25/11 Q1022=
200908081320 METAR ESMX 081320Z AUTO 14006KT 080V200 9999NDV FEW057/// 25/11 Q1022=
200908081250 METAR ESMX 081250Z AUTO 14005KT 080V220 9999NDV FEW054/// 25/11 Q1022=
200908081220 METAR ESMX 081220Z AUTO 14009KT 090V200 9999NDV SCT050/// 25/11 Q1022=
200908081150 METAR ESMX 081150Z AUTO 11008KT 060V160 9999NDV FEW050/// 25/12 Q1022=
200908081120 METAR ESMX 081120Z AUTO 14007KT 080V180 9999NDV FEW049/// 24/11 Q1023=
200908081050 METAR ESMX 081050Z AUTO 13008KT 080V170 9999NDV NCD 24/11 Q1023=
200908081020 METAR ESMX 081020Z AUTO 11007KT 060V170 9999NDV NCD 24/12 Q1023=
200908080950 METAR ESMX 080950Z AUTO 14007KT 050V180 9999NDV NCD 24/12 Q1023=
200908080920 METAR ESMX 080920Z AUTO 15007KT 100V190 9999NDV NCD 23/12 Q1023=
200908080850 METAR ESMX 080850Z AUTO 13005KT 060V190 9999NDV NCD 22/12 Q1023=
200908080820 METAR ESMX 080820Z AUTO VRB06KT 9999NDV NCD 21/13 Q1023=
200908080750 METAR ESMX 080750Z AUTO 13005KT 080V190 9999NDV NCD 21/13 Q1023=
200908080720 METAR ESMX 080720Z AUTO 12004KT 060V170 9999NDV NCD 20/15 Q1023=
200908080650 METAR ESMX 080650Z AUTO VRB03KT 9999NDV NCD 19/15 Q1023=
200908080620 METAR ESMX 080620Z AUTO 06004KT 030V090 9999NDV NCD 18/15 Q1023=
200908080550 METAR ESMX 080550Z AUTO 06003KT 020V110 9999NDV NCD 17/15 Q1023=
200908080520 METAR ESMX 080520Z AUTO VRB03KT 9000NDV BR FEW005/// 15/14 Q1024=
200908080450 METAR ESMX 080450Z AUTO 10004KT 070V160 8000NDV BR BKN005/// 15/14 Q1024=
200908080420 METAR ESMX 080420Z AUTO 12004KT 060V160 9000NDV BR OVC005/// 15/14 Q1024=
200908080350 METAR ESMX 080350Z AUTO 12004KT 070V170 9000NDV BR OVC005/// 15/14 Q1024=
200908080320 METAR ESMX 080320Z AUTO 12004KT 060V170 9000NDV BR OVC005/// 15/14 Q1024=
200908080250 METAR ESMX 080250Z AUTO 11003KT 060V180 8000NDV BR OVC005/// 15/14 Q1024=
200908080220 METAR ESMX 080220Z AUTO 10003KT 040V150 6000NDV FEW003/// OVC005/// 15/14 Q1024=
200908080150 METAR ESMX 080150Z AUTO 12004KT 080V170 3800NDV BKN001/// BKN004/// 14/13 Q1024=
200908080120 METAR ESMX 080120Z AUTO 13005KT 100V170 5000NDV BR FEW005/// 14/13 Q1024=
200908080050 METAR ESMX 080050Z AUTO 09003KT 070V130 9999NDV NCD 13/12 Q1024=
200908080020 METAR ESMX 080020Z AUTO 09002KT 9999NDV NCD 11/10 Q1024=
200908072350 METAR ESMX 072350Z AUTO VRB01KT 9999NDV NCD 11/10 Q1024=
200908072320 METAR ESMX 072320Z AUTO 00000KT 9999NDV NCD 11/10 Q1024=
200908072250 METAR ESMX 072250Z AUTO 00000KT 9999NDV NCD 11/10 Q1024=
200908072220 METAR ESMX 072220Z AUTO 00000KT 9999NDV NCD 12/10 Q1024=
200908072150 METAR ESMX 072150Z AUTO 00000KT 9999NDV NCD 13/11 Q1024=
200908072120 METAR ESMX 072120Z AUTO 00000KT 9999NDV NCD 14/11 Q1024=
200908072050 METAR ESMX 072050Z AUTO VRB02KT 9999NDV NCD 14/11 Q1024=
200908072020 METAR ESMX 072020Z AUTO 16001KT 9999NDV NCD 15/11 Q1024=
200908071950 METAR ESMX 071950Z AUTO 15003KT 9999NDV NCD 17/12 Q1024=
200908071920 METAR ESMX 071920Z AUTO 13003KT 100V160 9999NDV NCD 18/11 Q1024=
200908071850 METAR ESMX 071850Z AUTO 15004KT 110V170 9999NDV NCD 21/10 Q1024=
200908071820 METAR ESMX 071820Z AUTO 13004KT 100V180 9999NDV NCD 22/09 Q1024=
200908071750 METAR ESMX 071750Z AUTO VRB02KT 9999NDV NCD 24/09 Q1023=
200908071720 METAR ESMX 071720Z 11004KT 030V150 CAVOK 24/10 Q1023=
200908071650 METAR ESMX 071650Z AUTO 13004KT 070V170 9999NDV NCD 25/12 Q1023=
200908071620 METAR ESMX 071620Z 12004KT 070V160 CAVOK 24/12 Q1023=
200908071550 METAR ESMX 071550Z 13005KT 080V180 CAVOK 26/13 Q1023=
200908071520 METAR ESMX 071520Z 14005KT 090V200 CAVOK 26/12 Q1023=
200908071450 METAR ESMX 071450Z 14004KT 050V200 CAVOK 26/13 Q1024=
200908071420 METAR ESMX 071420Z 16006KT 080V220 CAVOK 26/12 Q1024=
200908071350 METAR ESMX 071350Z 08005KT 030V140 CAVOK 25/13 Q1024=
200908071320 METAR ESMX 071320Z 10005KT 010V160 CAVOK 26/12 Q1024=
200908071250 METAR ESMX 071250Z 09005KT 030V150 CAVOK 25/13 Q1024=
200908071220 METAR ESMX 071220Z 09004KT 020V160 CAVOK 25/13 Q1025=
200908071150 METAR ESMX 071150Z 11004KT 030V160 CAVOK 24/13 Q1025=
200908071120 METAR ESMX 071120Z VRB03KT CAVOK 26/13 Q1025=
200908071050 METAR ESMX 071050Z 05005KT 350V120 9999 FEW046 25/13 Q1025=
200908071020 METAR ESMX 071020Z 03004KT 340V110 CAVOK 25/13 Q1025=
200908070950 METAR ESMX 070950Z 03003KT 330V110 CAVOK 24/13 Q1025=
200908070920 METAR ESMX 070920Z 04005KT 350V080 CAVOK 24/12 Q1026=
200908070850 METAR ESMX 070850Z VRB02KT CAVOK 23/13 Q1026=
200908070820 METAR ESMX 070820Z 36004KT 310V040 CAVOK 23/13 Q1026=
200908070750 METAR ESMX 070750Z VRB02KT CAVOK 22/13 Q1026=
200908070720 METAR ESMX 070720Z VRB02KT CAVOK 21/15 Q1026=
200908070650 METAR ESMX 070650Z VRB02KT CAVOK 20/16 Q1026=
200908070620 METAR ESMX 070620Z 35003KT 320V020 CAVOK 18/16 Q1026=
200908070550 METAR ESMX 070550Z VRB02KT CAVOK 17/17 Q1026=
200908070450 METAR ESMX 070450Z 00000KT 9999 BCFG NSC 13/12 Q1026=
200908070420 METAR ESMX 070420Z AUTO VRB01KT 0650NDV R01/P2000 R19/P2000N BCFG NCD 11/11 Q1026=
200908070350 METAR ESMX 070350Z AUTO 00000KT 0150NDV R01/0150V0300 R19/0300 BCFG FEW001/// 10/10 Q1026=
200908070320 METAR ESMX 070320Z AUTO 00000KT 0250NDV R01/0450VP2000N R19/0400V0550 BCFG SCT001/// 10/09 Q1026=
200908070150 METAR ESMX 070150Z AUTO 00000KT 9999NDV BCFG NCD 11/10 Q1026=
200908070120 METAR ESMX 070120Z AUTO 17001KT 9999NDV NCD 11/11 Q1026=
200908070050 METAR ESMX 070050Z AUTO 17001KT 1000NDV R01/P2000N R19/P2000N BR NCD 12/11 Q1026=
200908070020 METAR ESMX 070020Z AUTO 00000KT 1500NDV BR NCD 12/12 Q1026=
200908062350 METAR ESMX 062350Z 17001KT 9999 MIFG NSC 13/12 Q1026=
200908062320 METAR ESMX 062320Z 17001KT CAVOK 14/13 Q1026=
200908062250 METAR ESMX 062250Z 00000KT CAVOK 14/13 Q1026=
200908062220 METAR ESMX 062220Z 00000KT CAVOK 14/13 Q1026=
200908062150 METAR ESMX 062150Z 18002KT CAVOK 16/14 Q1026=
200908062120 METAR ESMX 062120Z 19003KT CAVOK 15/13 Q1026=
200908062050 METAR ESMX 062050Z 17003KT CAVOK 19/15 Q1026=
200908062020 METAR ESMX 062020Z 19004KT CAVOK 18/15 Q1026=
200908061950 METAR ESMX 061950Z 15005KT CAVOK 20/16 Q1026=
200908061920 METAR ESMX 061920Z 16007KT CAVOK 21/16 Q1026=
200908061850 METAR ESMX 061850Z 15005KT 100V200 CAVOK 23/13 Q1025=
200908061820 METAR ESMX 061820Z 14003KT 100V170 CAVOK 24/13 Q1025=
200908061750 METAR ESMX 061750Z 17004KT CAVOK 24/14 Q1025=
200908061720 METAR ESMX 061720Z VRB01KT CAVOK 25/12 Q1025=
200908061650 METAR ESMX 061650Z VRB02KT CAVOK 26/11 Q1025=
200908061620 METAR ESMX 061620Z VRB02KT CAVOK 26/12 Q1025=
200908061550 METAR ESMX 061550Z VRB02KT CAVOK 26/11 Q1025=
200908061520 METAR ESMX 061520Z 27003KT 220V320 CAVOK 26/11 Q1025=
200908061450 METAR ESMX 061450Z 25003KT 200V290 CAVOK 26/12 Q1025=
200908061420 METAR ESMX 061420Z VRB02KT CAVOK 24/14 Q1025=
200908061350 METAR ESMX 061350Z 02005KT 340V070 CAVOK 25/13 Q1025=
200908061320 METAR ESMX 061320Z 35003KT 290V050 CAVOK 26/13 Q1025=
200908061250 METAR ESMX 061250Z 32004KT 280V010 CAVOK 25/12 Q1025=
200908061220 METAR ESMX 061220Z 35005KT 310V030 CAVOK 25/14 Q1025=
200908061150 METAR ESMX 061150Z 34003KT 260V050 CAVOK 25/13 Q1026=
200908061120 METAR ESMX 061120Z 33004KT 290V020 CAVOK 24/14 Q1026=
200908061050 METAR ESMX 061050Z VRB03KT CAVOK 24/14 Q1026=
200908061020 METAR ESMX 061020Z 32003KT 270V050 CAVOK 23/14 Q1026=
200908060950 METAR ESMX 060950Z 36004KT 300V050 CAVOK 23/14 Q1026=
200908060920 METAR ESMX 060920Z 36005KT 330V040 CAVOK 23/15 Q1026=
200908060850 METAR ESMX 060850Z VRB03KT CAVOK 23/15 Q1026=
200908060820 METAR ESMX 060820Z 35003KT 320V050 CAVOK 22/15 Q1026=
200908060750 METAR ESMX 060750Z 04003KT 360V110 CAVOK 20/16 Q1026=
200908060720 METAR ESMX 060720Z VRB02KT CAVOK 20/16 Q1026=
200908060650 METAR ESMX 060650Z VRB02KT CAVOK 19/16 Q1026=
200908060620 METAR ESMX 060620Z VRB02KT CAVOK 18/17 Q1026=
200908060550 METAR ESMX 060550Z 01002KT 8000 NSC 17/16 Q1026=
200908060520 METAR ESMX 060520Z VRB01KT 0100 R01/0150V0250N R19/0375V0750U FG BKN001 15/14 Q1026=
200908060450 METAR ESMX 060450Z 00000KT 0550 R19/0800V1600 BCFG OVC000 12/12 Q1026=
200908060420 METAR ESMX 060420Z AUTO 19001KT 0200NDV R01/0325V1600 R19/0400V0650 FG NCD 11/10 Q1025=
200908060350 METAR ESMX 060350Z AUTO 18001KT 0100NDV R01/0400V1200D R19/0150V0750U BCFG NCD 10/10 Q1025=
200908060320 METAR ESMX 060320Z AUTO 18001KT 0250NDV R01/0700VP2000 R19/P2000 FG NCD 10/10 Q1025=
200908060250 METAR ESMX 060250Z AUTO 00000KT 0150NDV R01/0375V0750 R19/P2000N BCFG NCD 11/10 Q1025=
200908060220 METAR ESMX 060220Z AUTO 19001KT 0250NDV R01/0650VP2000 R19/P2000N FG NCD 12/11 Q1025=
200908060150 METAR ESMX 060150Z AUTO 00000KT 1100NDV R01/P2000 R19/P2000N NCD 12/11 Q1025=
200908060120 METAR ESMX 060120Z AUTO 00000KT 0900NDV R01/P2000N R19/P2000N FG NCD 12/11 Q1025=
200908060050 METAR ESMX 060050Z AUTO 00000KT 6000NDV NCD 12/12 Q1025=
200908060020 METAR ESMX 060020Z AUTO 17001KT 0300NDV R01/P2000N R19/0400V0650 FG NCD 14/13 Q1025=
200908052350 METAR ESMX 052350Z 00000KT 9999 BCFG NSC 14/13 Q1025=
200908052320 METAR ESMX 052320Z 17001KT CAVOK 14/13 Q1025=
200908052250 METAR ESMX 052250Z 18002KT CAVOK 14/13 Q1025=
200908052220 METAR ESMX 052220Z 20004KT CAVOK 16/14 Q1025=
200908052150 METAR ESMX 052150Z 15004KT CAVOK 17/15 Q1025=
200908052120 METAR ESMX 052120Z 16005KT CAVOK 18/15 Q1025=
200908052050 METAR ESMX 052050Z 16004KT CAVOK 18/16 Q1025=
200908052020 METAR ESMX 052020Z 16005KT CAVOK 19/16 Q1025=
200908051920 METAR ESMX 051920Z 35003KT CAVOK 19/16 Q1024=
200908051850 METAR ESMX 051850Z 02004KT CAVOK 20/16 Q1024=
200908051820 METAR ESMX 051820Z 02005KT 9999 FEW043 SCT110 21/16 Q1024=
200908051750 METAR ESMX 051750Z 34006KT CAVOK 22/16 Q1024=
200908051720 METAR ESMX 051720Z 28003KT 9999 SCT046 BKN054 23/16 Q1023=
200908051650 METAR ESMX 051650Z VRB02KT CAVOK 22/16 Q1023=
200908051620 METAR ESMX 051620Z 34004KT CAVOK 23/15 Q1023=
200908051550 METAR COR ESMX 051550Z 35004KT CAVOK 22/15 Q1023=
200908051520 METAR ESMX 051520Z 01004KT CAVOK 22/16 Q1023=
200908051450 METAR ESMX 051450Z 01005KT 340V040 CAVOK 23/15 Q1023=
200908051420 METAR ESMX 051420Z 34006KT 300V040 CAVOK 24/14 Q1024=
200908051350 METAR ESMX 051350Z 35003KT 290V020 CAVOK 24/14 Q1024=
200908051320 METAR ESMX 051320Z 03004KT 320V080 CAVOK 24/14 Q1024=
200908051250 METAR ESMX 051250Z 36005KT 330V060 CAVOK 24/14 Q1024=
200908051220 METAR ESMX 051220Z 04004KT 360V080 CAVOK 24/14 Q1024=
200908051150 METAR ESMX 051150Z 02005KT 340V070 CAVOK 23/14 Q1024=
200908051120 METAR ESMX 051120Z 02007KT CAVOK 22/15 Q1024=
200908051050 METAR ESMX 051050Z 01006KT 320V110 9999 FEW044 24/15 Q1024=
200908051020 METAR ESMX 051020Z 36005KT 320V050 CAVOK 24/15 Q1024=
200908050950 METAR ESMX 050950Z 02005KT 330V080 9999 FEW040 23/15 Q1024=
200908050920 METAR ESMX 050920Z 03005KT 350V060 9999 FEW040 22/15 Q1024=
200908050850 METAR ESMX 050850Z VRB04KT 9999 SCT046 22/15 Q1024=
200908050820 METAR ESMX 050820Z 35004KT 310V020 9999 FEW045 21/15 Q1024=
200908050750 METAR ESMX 050750Z 33004KT 300V360 CAVOK 21/15 Q1023=
200908050720 METAR ESMX 050720Z 04004KT 020V090 CAVOK 20/15 Q1023=
200908050650 METAR ESMX 050650Z 04003KT 010V080 CAVOK 19/15 Q1023=
200908050620 METAR ESMX 050620Z 36003KT 300V030 CAVOK 18/15 Q1023=
200908050550 METAR ESMX 050550Z 02004KT 340V040 9999 FEW040 17/15 Q1023=
200908050520 METAR ESMX 050520Z 36002KT 9999 FEW041 16/15 Q1023=
200908050450 METAR ESMX 050450Z VRB01KT 9999 FEW040 14/14 Q1023=
200908050420 METAR ESMX 050420Z 00000KT 9999 SCT040 13/12 Q1023=
200908050350 METAR ESMX 050350Z AUTO 01001KT 0650NDV R01/P2000N R19/P2000 BR NCD 12/12 Q1023=
200908050320 METAR ESMX 050320Z AUTO 36001KT 3700NDV BR SCT100/// 13/12 Q1023=
200908050250 METAR ESMX 050250Z AUTO 30001KT 9999NDV BKN100/// 12/11 Q1023=
200908050220 METAR ESMX 050220Z AUTO 29001KT 9999NDV BKN100/// 12/12 Q1023=
200908050150 METAR ESMX 050150Z AUTO 00000KT 0350NDV R01/P2000N R19/P2000N FG SCT100/// 13/12 Q1023=
200908050120 METAR ESMX 050120Z AUTO 00000KT 1300NDV R01/P2000N R19/P2000N BR NCD 14/13 Q1023=
200908050050 METAR ESMX 050050Z AUTO 33001KT 9999NDV FEW050/// 14/13 Q1023=
200908050020 METAR ESMX 050020Z AUTO 00000KT 9000NDV NCD 14/14 Q1023=
200908042350 METAR ESMX 042350Z 00000KT CAVOK 15/14 Q1023=
200908042320 METAR ESMX 042320Z 00000KT CAVOK 15/14 Q1023=
200908042250 METAR ESMX 042250Z 28001KT CAVOK 15/14 Q1023=
200908042220 METAR ESMX 042220Z VRB01KT CAVOK 15/14 Q1023=
200908042150 METAR ESMX 042150Z 29001KT CAVOK 15/14 Q1023=
200908042120 METAR ESMX 042120Z VRB01KT CAVOK 15/14 Q1022=
200908042050 METAR ESMX 042050Z 28001KT CAVOK 15/14 Q1022=
200908042020 METAR ESMX 042020Z 00000KT CAVOK 16/14 Q1022=
200908041950 METAR ESMX 041950Z 30001KT CAVOK 16/15 Q1022=
200908041920 METAR ESMX 041920Z VRB01KT CAVOK 17/15 Q1022=
200908041850 METAR ESMX 041850Z 30002KT CAVOK 18/14 Q1022=
200908041820 METAR ESMX 041820Z 30002KT CAVOK 19/14 Q1022=
200908041750 METAR ESMX 041750Z 30003KT CAVOK 19/14 Q1022=
200908041720 METAR ESMX 041720Z 32002KT CAVOK 19/14 Q1022=
200908041650 METAR ESMX 041650Z 29003KT CAVOK 20/13 Q1022=
200908041620 METAR ESMX 041620Z 31003KT CAVOK 20/13 Q1022=
200908041550 METAR ESMX 041550Z VRB02KT CAVOK 20/13 Q1022=
200908041520 METAR ESMX 041520Z 34003KT 310V030 CAVOK 21/12 Q1022=
200908041450 METAR ESMX 041450Z 35003KT 290V030 CAVOK 21/13 Q1022=
200908041420 METAR ESMX 041420Z 34003KT 280V050 CAVOK 21/13 Q1021=
200908041350 METAR ESMX 041350Z 36004KT 330V050 CAVOK 21/13 Q1021=
200908041320 METAR ESMX 041320Z 02005KT 320V060 CAVOK 21/12 Q1021=
200908041250 METAR ESMX 041250Z VRB02KT CAVOK 20/14 Q1021=
200908041220 METAR ESMX 041220Z VRB01KT CAVOK 19/14 Q1021=
200908041150 METAR ESMX 041150Z VRB02KT CAVOK 19/14 Q1021=
200908041120 METAR ESMX 041120Z 00000KT CAVOK 18/14 Q1021=
200908041050 METAR ESMX 041050Z 33003KT 320V020 CAVOK 18/14 Q1021=
200908041020 METAR ESMX 041020Z 35003KT CAVOK 18/14 Q1021=
200908040950 METAR ESMX 040950Z 03004KT CAVOK 18/14 Q1021=
200908040920 METAR ESMX 040920Z 01002KT CAVOK 17/15 Q1021=
200908040850 METAR ESMX 040850Z VRB02KT CAVOK 17/15 Q1021=
200908040820 METAR ESMX 040820Z 01002KT CAVOK 17/15 Q1021=
200908040750 METAR ESMX 040750Z 01003KT CAVOK 16/15 Q1020=
200908040720 METAR ESMX 040720Z 01004G34KT CAVOK 16/14 Q1020=
200908040650 METAR ESMX 040650Z 36004KT CAVOK 16/14 Q1020=
200908040620 METAR ESMX 040620Z 01003KT CAVOK 16/14 Q1020=
200908040550 METAR ESMX 040550Z 02003KT 9999 FEW005 15/14 Q1019=
200908040520 METAR ESMX 040520Z 33003KT 310V010 CAVOK 15/14 Q1019=
200908040450 METAR ESMX 040450Z 00000KT CAVOK 14/13 Q1019=
200908040420 METAR COR ESMX 040420Z 00000KT CAVOK 13/12 Q1019=
200908040350 METAR ESMX 040350Z AUTO 00000KT 9999NDV NCD 13/12 Q1019=
200908040320 METAR ESMX 040320Z AUTO 00000KT 3900NDV BR NCD 13/12 Q1019=
200908040250 METAR ESMX 040250Z AUTO VRB01KT 9999NDV NCD 14/13 Q1018=
200908040220 METAR ESMX 040220Z AUTO 04002KT 9999NDV FEW110/// 14/13 Q1018=
200908040150 METAR ESMX 040150Z AUTO 05002KT 9999NDV FEW110/// 14/13 Q1018=
200908040120 METAR ESMX 040120Z AUTO 05003KT 9999NDV SCT110/// 15/13 Q1018=
200908040050 METAR ESMX 040050Z AUTO 07003KT 030V100 9999NDV SCT110/// 15/13 Q1018=
200908040020 METAR ESMX 040020Z AUTO 07003KT 030V090 9999NDV BKN058/// BKN110/// 16/13 Q1018=
200908032350 METAR ESMX 032350Z 06003KT 030V100 CAVOK 16/13 Q1018=
200908032320 METAR ESMX 032320Z 08003KT 050V130 CAVOK 16/13 Q1018=
200908032250 METAR ESMX 032250Z 08002KT CAVOK 16/13 Q1018=
200908032220 METAR ESMX 032220Z VRB01KT CAVOK 17/13 Q1018=
200908032150 METAR ESMX 032150Z VRB02KT CAVOK 17/13 Q1018=
200908032120 METAR ESMX 032120Z 07003KT 020V120 CAVOK 17/13 Q1017=
200908032050 METAR ESMX 032050Z VRB02KT CAVOK 17/14 Q1017=
200908032020 METAR ESMX 032020Z VRB01KT CAVOK 18/13 Q1017=
200908031950 METAR ESMX 031950Z VRB02KT CAVOK 18/13 Q1017=
200908031920 METAR ESMX 031920Z 09003KT 050V120 CAVOK 18/13 Q1017=
200908031850 METAR ESMX 031850Z VRB02KT CAVOK 19/13 Q1016=
200908031820 METAR ESMX 031820Z 10003KT 020V170 CAVOK 20/13 Q1016=
200908031750 METAR ESMX 031750Z 10003KT 070V160 CAVOK 21/12 Q1015=
200908031720 METAR ESMX 031720Z 11004KT 070V170 9999 FEW047 SCT110 21/12 Q1015=
200908031650 METAR ESMX 031650Z 12004KT 070V200 CAVOK 22/12 Q1015=
200908031620 METAR ESMX 031620Z 12005KT 070V160 CAVOK 22/13 Q1015=
200908031550 METAR ESMX 031550Z VRB02KT CAVOK 23/14 Q1015=
200908031520 METAR ESMX 031520Z 08003KT 030V110 CAVOK 22/15 Q1014=
200908031450 METAR ESMX 031450Z VRB02KT CAVOK 23/16 Q1014=
200908031420 METAR ESMX 031420Z 07004KT 020V110 CAVOK 22/15 Q1014=
200908031350 METAR ESMX 031350Z 35003KT 330V030 CAVOK 21/16 Q1014=
200908031320 METAR ESMX 031320Z 02003KT 9999 -DZ FEW091 20/17 Q1014=
200908031250 METAR ESMX 031250Z VRB02KT CAVOK 20/16 Q1014=
200908031220 METAR ESMX 031220Z 02003KT CAVOK 20/15 Q1014=
200908031150 METAR ESMX 031150Z 00000KT CAVOK 20/15 Q1014=
200908031120 METAR ESMX 031120Z VRB02KT CAVOK 20/14 Q1014=
200908031050 METAR ESMX 031050Z VRB01KT CAVOK 20/14 Q1014=
200908031020 METAR ESMX 031020Z 11004KT 070V170 CAVOK 20/14 Q1014=
200908030950 METAR ESMX 030950Z 11004KT 060V150 CAVOK 20/14 Q1014=
200908030920 METAR ESMX 030920Z 11005KT 050V160 CAVOK 20/14 Q1013=
200908030850 METAR ESMX 030850Z 09006KT 030V120 CAVOK 20/14 Q1013=
200908030820 METAR ESMX 030820Z 09007KT 020V150 CAVOK 20/14 Q1013=
200908030750 METAR ESMX 030750Z 09005KT 030V150 CAVOK 19/15 Q1013=
200908030720 METAR ESMX 030720Z 08006KT 040V140 CAVOK 19/15 Q1012=
200908030650 METAR ESMX 030650Z 05005KT 350V080 CAVOK 19/15 Q1012=
200908030620 METAR ESMX 030620Z 06004KT 360V140 CAVOK 18/15 Q1012=
200908030550 METAR ESMX 030550Z 07006KT 040V120 CAVOK 17/14 Q1012=
200908030520 METAR ESMX 030520Z 07005KT 030V110 CAVOK 17/14 Q1012=
200908030450 METAR ESMX 030450Z 06004KT 010V110 CAVOK 16/14 Q1012=
200908030420 METAR ESMX 030420Z AUTO 07005KT 030V110 9999NDV SCT056/// BKN080/// BKN100/// 16/14 Q1012=
200908030350 METAR ESMX 030350Z AUTO 05006KT 010V080 9999NDV FEW081/// 16/14 Q1012=
200908030320 METAR ESMX 030320Z AUTO 04004KT 010V080 9999NDV FEW077/// 16/14 Q1012=
200908030250 METAR ESMX 030250Z AUTO 06004KT 020V100 9999NDV NCD 16/14 Q1012=
200908030220 METAR ESMX 030220Z AUTO 07004KT 020V110 9999NDV FEW110/// 16/13 Q1012=
200908030150 METAR ESMX 030150Z AUTO 05005KT 010V080 9999NDV BKN100/// 16/13 Q1012=
200908030120 METAR ESMX 030120Z AUTO 06004KT 020V100 9999NDV BKN100/// 16/13 Q1013=
200908030050 METAR ESMX 030050Z AUTO 05004KT 010V080 9999NDV BKN100/// 16/13 Q1012=
200908030020 METAR ESMX 030020Z 02003KT CAVOK 16/13 Q1013=
200908022350 METAR ESMX 022350Z 07003KT CAVOK 16/13 Q1013=
200908022320 METAR ESMX 022320Z 05002KT CAVOK 16/13 Q1013=
200908022250 METAR ESMX 022250Z VRB02KT CAVOK 16/13 Q1013=
200908022220 METAR ESMX 022220Z VRB02KT CAVOK 16/13 Q1013=
200908022150 METAR ESMX 022150Z VRB02KT CAVOK 16/13 Q1013=
200908022120 METAR ESMX 022120Z 10005KT 020V180 9999 FEW110 16/13 Q1012 RERA=
200908022050 METAR ESMX 022050Z 10006KT 030V150 9999 -RA FEW100 17/13 Q1012=
200908022020 METAR ESMX 022020Z 10005KT 050V160 9999 -SHRA FEW030 18/14 Q1013=
200908021950 METAR ESMX 021950Z 10004KT 040V160 CAVOK 19/12 Q1013=
200908021920 METAR ESMX 021920Z 11004KT 050V160 CAVOK 20/12 Q1013=
200908021850 METAR ESMX 021850Z 11003KT 060V170 CAVOK 20/12 Q1013=
200908021820 METAR ESMX 021820Z 12004KT 070V200 CAVOK 21/12 Q1013=
200908021750 METAR ESMX 021750Z 13005KT 080V190 CAVOK 21/12 Q1012=
200908021720 METAR ESMX 021720Z 14005KT 080V200 CAVOK 22/11 Q1012=
200908021650 METAR ESMX 021650Z 13006KT 090V180 CAVOK 22/11 Q1012=
200908021620 METAR ESMX 021620Z 14005KT 090V170 CAVOK 23/11 Q1012=
200908021550 METAR ESMX 021550Z 15004KT 100V190 CAVOK 23/10 Q1012=
200908021520 METAR ESMX 021520Z 17007KT 140V210 CAVOK 24/10 Q1012=
200908021450 METAR ESMX 021450Z 18006KT 140V200 CAVOK 25/10 Q1012=
200908021420 METAR ESMX 021420Z 16006KT 120V200 CAVOK 24/10 Q1012=
200908021350 METAR ESMX 021350Z 13005KT 100V170 CAVOK 24/09 Q1012=
200908021320 METAR ESMX 021320Z 17006KT CAVOK 24/10 Q1012=
200908021250 METAR ESMX 021250Z 18005KT CAVOK 24/09 Q1012=
200908021220 METAR ESMX 021220Z 16007KT 120V210 CAVOK 24/09 Q1013=
200908021150 METAR ESMX 021150Z 16005KT 110V210 CAVOK 23/10 Q1013=
200908021120 METAR ESMX 021120Z 11006KT 060V170 CAVOK 23/10 Q1013=
200908021050 METAR ESMX 021050Z 11005KT 050V160 CAVOK 23/10 Q1013=
200908021020 METAR ESMX 021020Z 06005KT 360V110 CAVOK 22/11 Q1013=
200908020950 METAR ESMX 020950Z 06005KT 360V140 CAVOK 22/10 Q1013=
200908020920 METAR ESMX 020920Z AUTO 05005KT 350V110 9999NDV FEW055/// 21/10 Q1013=
200908020850 METAR ESMX 020850Z AUTO 12005KT 070V170 9999NDV FEW028/// 20/10 Q1013=
200908020820 METAR ESMX 020820Z AUTO 12005KT 070V180 9999NDV FEW059/// 20/10 Q1013=
200908020750 METAR ESMX 020750Z AUTO 09003KT 030V130 9999NDV FEW082/// 18/11 Q1013=
200908020720 METAR ESMX 020720Z AUTO 06003KT 030V120 9999NDV FEW054/// 18/11 Q1013=
200908020650 METAR ESMX 020650Z AUTO 09003KT 050V130 9999NDV NCD 17/11 Q1014=
200908020620 METAR ESMX 020620Z AUTO VRB02KT 9999NDV NCD 16/11 Q1014=
200908020550 METAR ESMX 020550Z AUTO VRB01KT 9999NDV NCD 16/11 Q1014=
200908020520 METAR ESMX 020520Z AUTO VRB02KT 9999NDV NCD 15/10 Q1014=
200908020450 METAR ESMX 020450Z AUTO VRB01KT 9999NDV NCD 14/11 Q1014=
200908020420 METAR ESMX 020420Z AUTO 11001KT 9999NDV NCD 12/11 Q1014=
200908020350 METAR ESMX 020350Z AUTO 00000KT 9999NDV NCD 11/10 Q1014=
200908020320 METAR ESMX 020320Z AUTO 00000KT 9999NDV NCD 11/10 Q1014=
200908020250 METAR ESMX 020250Z AUTO 00000KT 9999NDV FEW100/// 12/10 Q1015=
200908020220 METAR ESMX 020220Z AUTO VRB01KT 9999NDV SCT100/// 12/10 Q1015=
200908020150 METAR ESMX 020150Z AUTO 00000KT 9999NDV FEW100/// 12/11 Q1015=
200908020120 METAR ESMX 020120Z AUTO 00000KT 9999NDV SCT100/// 12/10 Q1015=
200908020050 METAR ESMX 020050Z AUTO 18002KT 9999NDV FEW100/// 12/10 Q1015=
200908020020 METAR ESMX 020020Z AUTO 18002KT 9999NDV SCT100/// 12/10 Q1015=
200908012350 METAR ESMX 012350Z AUTO VRB01KT 9999NDV FEW100/// 12/10 Q1015=
200908012320 METAR ESMX 012320Z AUTO VRB01KT 9999NDV NCD 12/09 Q1015=
200908012250 METAR ESMX 012250Z AUTO 00000KT 9999NDV NCD 12/10 Q1015=
200908012220 METAR ESMX 012220Z AUTO 00000KT 9999NDV FEW100/// 13/10 Q1016=
200908012150 METAR ESMX 012150Z AUTO 17001KT 9999NDV NCD 13/10 Q1016=
200908012120 METAR ESMX 012120Z AUTO 00000KT 9999NDV NCD 13/10 Q1016=
200908012050 METAR ESMX 012050Z AUTO 20001KT 9999NDV NCD 13/10 Q1016=
200908012020 METAR ESMX 012020Z AUTO 24003KT 9999NDV NCD 14/09 Q1016=
200908011950 METAR ESMX 011950Z AUTO 25002KT 9999NDV NCD 14/09 Q1016=
200908011920 METAR ESMX 011920Z AUTO 24002KT 9999NDV NCD 15/08 Q1016=
200908011850 METAR ESMX 011850Z AUTO 26004KT 9999NDV NCD 16/08 Q1016=
200908011820 METAR ESMX 011820Z AUTO 26003KT 9999NDV NCD 17/09 Q1016=
200908011750 METAR ESMX 011750Z AUTO 28003KT 250V320 9999NDV NCD 18/09 Q1016=
200908011720 METAR ESMX 011720Z AUTO 27004KT 9999NDV NCD 18/08 Q1016=
200908011650 METAR ESMX 011650Z AUTO 30005KT 260V330 9999NDV NCD 19/09 Q1016=
200908011620 METAR ESMX 011620Z AUTO 30005KT 260V340 9999NDV NCD 19/07 Q1016=
200908011550 METAR ESMX 011550Z AUTO 29006KT 250V320 9999NDV NCD 20/08 Q1016=
200908011520 METAR ESMX 011520Z AUTO 28007KT 250V340 9999NDV NCD 20/08 Q1016=
200908011450 METAR ESMX 011450Z AUTO 31008KT 9999NDV NCD 21/07 Q1016=
200908011420 METAR ESMX 011420Z AUTO 26008KT 210V290 9999NDV NCD 21/08 Q1016=
200908011350 METAR ESMX 011350Z AUTO 23008KT 200V260 9999NDV NCD 21/08 Q1017=
200908011320 METAR ESMX 011320Z AUTO 25008KT 220V300 9999NDV NCD 21/09 Q1017=
200908011250 METAR ESMX 011250Z AUTO 27007KT 210V300 9999NDV NCD 20/08 Q1017=
200908011220 METAR ESMX 011220Z AUTO 22010KT 9999NDV NCD 20/08 Q1017=
