##########################################################
# Query made at 04/19/2024 21:07:48 UTC
# Time interval: from 01/01/2009 12:00  to 01/31/2009 12:59  UTC
##########################################################

##########################################################
# ESMX, Vaxjo (Sweden)
# WMO index: 02641. WIGOS ID: 0-20000-0-02648
# Latitude 56-51N. Longitude 014-50E. Altitude 199 m.
##########################################################

200901311250 METAR ESMX 311250Z AUTO 01006KT 9999NDV OVC031/// M00/M03 Q1028=
200901311220 METAR ESMX 311220Z AUTO 36006KT 9999NDV OVC032/// M01/M03 Q1028=
200901311150 METAR ESMX 311150Z AUTO 35006KT 9999NDV OVC033/// M01/M03 Q1028=
200901311120 METAR ESMX 311120Z AUTO 01007KT 9999NDV SCT029/// OVC036/// M01/M03 Q1029=
200901311050 METAR ESMX 311050Z AUTO 01006KT 9999NDV FEW010/// OVC029/// M01/M03 Q1029=
200901311020 METAR ESMX 311020Z AUTO 02006KT 9999NDV OVC029/// M01/M03 Q1029=
200901310950 METAR ESMX 310950Z AUTO 03006KT 9999NDV OVC030/// M01/M03 Q1029=
200901310920 METAR ESMX 310920Z AUTO 04006KT 010V080 9999NDV FEW011/// OVC032/// M01/M03 Q1029=
200901310850 METAR ESMX 310850Z AUTO 04005KT 9999NDV OVC027/// M01/M03 Q1029=
200901310820 METAR ESMX 310820Z AUTO 02005KT 9999NDV OVC028/// M02/M03 Q1029=
200901310750 METAR ESMX 310750Z AUTO 36004KT 9999NDV OVC028/// M02/M03 Q1029=
200901310720 METAR ESMX 310720Z AUTO 02005KT 9999NDV OVC030/// M02/M03 Q1029=
200901310650 METAR ESMX 310650Z AUTO 03004KT 9999NDV OVC031/// M02/M03 Q1029=
200901310620 METAR ESMX 310620Z AUTO 03004KT 9999NDV OVC029/// M02/M03 Q1029=
200901310550 METAR ESMX 310550Z AUTO 03004KT 9999NDV OVC029/// M02/M03 Q1029=
200901310520 METAR ESMX 310520Z AUTO 04003KT 010V080 9999NDV OVC028/// M02/M03 Q1029=
200901310450 METAR ESMX 310450Z AUTO 02004KT 9999NDV FEW022/// OVC028/// M02/M03 Q1029=
200901310420 METAR ESMX 310420Z AUTO 02004KT 9999NDV FEW006/// SCT008/// OVC029/// M02/M03 Q1029=
200901310350 METAR ESMX 310350Z AUTO 02004KT 9999NDV SCT007/// OVC029/// M02/M03 Q1029=
200901310320 METAR ESMX 310320Z AUTO 03004KT 9999NDV OVC023/// M02/M03 Q1030=
200901310250 METAR ESMX 310250Z AUTO 04005KT 9999NDV OVC027/// M02/M03 Q1030=
200901310220 METAR ESMX 310220Z AUTO 03004KT 9999NDV OVC027/// M02/M03 Q1030=
200901310150 METAR ESMX 310150Z AUTO 02005KT 9999NDV OVC026/// M02/M03 Q1030=
200901310120 METAR ESMX 310120Z AUTO 02005KT 9999NDV OVC026/// M02/M03 Q1029=
200901310050 METAR ESMX 310050Z AUTO 03004KT 9999NDV OVC026/// M02/M03 Q1029=
200901310020 METAR ESMX 310020Z AUTO 03003KT 9999NDV OVC023/// M02/M03 Q1029=
200901302350 METAR ESMX 302350Z AUTO 02004KT 9999NDV OVC025/// M02/M03 Q1029=
200901302320 METAR ESMX 302320Z AUTO 02003KT 9999NDV OVC028/// M02/M03 Q1029=
200901302250 METAR ESMX 302250Z AUTO 02003KT 9999NDV OVC026/// M02/M03 Q1029=
200901302220 METAR ESMX 302220Z AUTO 02003KT 9999NDV OVC025/// M02/M03 Q1030=
200901302150 METAR ESMX 302150Z AUTO 04003KT 9999NDV OVC024/// M02/M03 Q1030=
200901302120 METAR ESMX 302120Z AUTO 04005KT 9999NDV OVC023/// M02/M03 Q1030=
200901302050 METAR ESMX 302050Z 05004KT 9999 OVC022 M02/M03 Q1030=
200901302020 METAR ESMX 302020Z 36004KT 9999 OVC021 M02/M03 Q1030=
200901301950 METAR ESMX 301950Z 02004KT 9999 OVC021 M02/M03 Q1030=
200901301920 METAR ESMX 301920Z 01004KT 9999 OVC020 M02/M03 Q1029=
200901301850 METAR ESMX 301850Z 01004KT 9999 SCT013 BKN018 OVC020 M01/M03 Q1029 RESN RESG=
200901301820 METAR ESMX 301820Z 09005KT 9999 -SN SCT012 OVC017 M01/M02 Q1029=
200901301750 METAR ESMX 301750Z 08004KT 9999 -SN FEW015 OVC018 M01/M02 Q1029=
200901301720 METAR ESMX 301720Z 09004KT 7000 -SN FEW009 BKN019 M01/M01 Q1029=
200901301650 METAR ESMX 301650Z VRB02KT 5000 -SN FEW008 SCT013 BKN016 M00/M01 Q1029 RESG=
200901301620 METAR ESMX 301620Z 00000KT 2700 -SN FEW004 SCT009 BKN012 M00/M01 Q1029=
200901301550 METAR ESMX 301550Z 07003KT 3200 -SN FEW003 SCT006 BKN008 M00/M01 Q1029 RESG=
200901301520 METAR ESMX 301520Z 02005KT 5000 SG FEW006 SCT009 BKN011 00/M01 Q1029 REDZ RERA RESN=
200901301450 METAR ESMX 301450Z 02004KT 9999 -RA FEW010 SCT012 OVC019 00/M01 Q1028 REDZ=
200901301420 METAR ESMX 301420Z 03005KT 9999 FEW010 OVC019 00/M01 Q1029 REDZ=
200901301350 METAR ESMX 301350Z 01005KT 9999 FEW007 SCT016 OVC020 00/M01 Q1029=
200901301320 METAR ESMX 301320Z 36005KT 4600 -RASN FEW007 SCT008 BKN014 00/M00 Q1029 REDZ=
200901301250 METAR ESMX 301250Z 01005KT 4100 -RA FEW007 BKN008 OVC011 01/M00 Q1029 REDZ=
200901301220 METAR ESMX 301220Z 35005KT 4200 -SN FEW004 BKN006 OVC013 00/M00 Q1029=
200901301150 METAR ESMX 301150Z 01005KT 9999 -SN FEW006 SCT007 BKN011 01/M00 Q1029=
200901301120 METAR ESMX 301120Z 36003KT 5000 -RA BKN006 OVC009 00/M01 Q1029=
200901301050 METAR ESMX 301050Z 03004KT 9999 BKN005 OVC006 00/M01 Q1029=
200901301020 METAR ESMX 301020Z 07004KT 9000 BR OVC004 00/M00 Q1029=
200901300950 METAR ESMX 300950Z 03004KT 360V070 7000 BR OVC005 01/M00 Q1029=
200901300920 METAR ESMX 300920Z 01004KT 6000 BR OVC004 00/M00 Q1028=
200901300850 METAR ESMX 300850Z 01005KT 7000 BR OVC004 00/M00 Q1028=
200901300820 METAR ESMX 300820Z 01006KT 7000 BR OVC005 01/M00 Q1028=
200901300750 METAR ESMX 300750Z 36007KT 7000 BR OVC005 01/M00 Q1028=
200901300720 METAR ESMX 300720Z 01008KT 8000 BR OVC006 01/M00 Q1028=
200901300650 METAR ESMX 300650Z 02006KT 7000 BR OVC005 01/M00 Q1028=
200901300620 METAR ESMX 300620Z 36007KT 5000 BR FEW004 OVC005 01/00 Q1028=
200901300550 METAR ESMX 300550Z 33005KT 3100 BR OVC003 01/00 Q1028=
200901300520 METAR ESMX 300520Z 34004KT 3900 BR OVC004 00/M00 Q1028=
200901300450 METAR ESMX 300450Z 32004KT 280V340 4200 BR FEW004 BKN007 00/M00 Q1028=
200901300420 METAR ESMX 300420Z AUTO 32004KT 4700NDV BR FEW007/// OVC009/// 00/M00 Q1028=
200901300350 METAR ESMX 300350Z AUTO 31004KT 5000NDV BR FEW009/// OVC010/// 00/M00 Q1028=
200901300320 METAR ESMX 300320Z AUTO 30005KT 280V340 5000NDV BR OVC010/// 00/M00 Q1028=
200901300250 METAR ESMX 300250Z AUTO 29004KT 6000NDV BR OVC010/// 00/M00 Q1028=
200901300220 METAR ESMX 300220Z AUTO 30004KT 6000NDV BR OVC010/// 00/M00 Q1028=
200901300150 METAR ESMX 300150Z AUTO 30004KT 6000NDV BR OVC010/// 00/M00 Q1028=
200901300120 METAR ESMX 300120Z AUTO 30004KT 5000NDV BR FEW009/// OVC010/// 00/M00 Q1027=
200901300050 METAR ESMX 300050Z AUTO 29003KT 6000NDV BR FEW009/// OVC010/// 00/M00 Q1027=
200901300020 METAR ESMX 300020Z 29004KT 6000 BR OVC010 00/M00 Q1027=
200901292350 METAR ESMX 292350Z 30003KT 6000 BR FEW009 OVC010 00/M01 Q1027=
200901292250 METAR ESMX 292250Z 29004KT 6000 BR OVC010 00/M00 Q1027=
200901292220 METAR ESMX 292220Z 29003KT 5000 BR OVC010 00/M00 Q1027=
200901292150 METAR ESMX 292150Z 28003KT 6000 BR OVC010 00/M01 Q1027=
200901292120 METAR ESMX 292120Z 29002KT 6000 BR FEW009 OVC010 00/M01 Q1027=
200901292050 METAR ESMX 292050Z 29004KT 6000 BR OVC010 00/M01 Q1027=
200901292020 METAR ESMX 292020Z 28004KT 6000 BR BKN011 00/M01 Q1027=
200901291950 METAR ESMX 291950Z 29003KT 6000 BR OVC010 00/M01 Q1027=
200901291920 METAR ESMX 291920Z 31003KT 6000 BR OVC011 00/M01 Q1027=
200901291850 METAR ESMX 291850Z VRB02KT 8000 BR OVC013 00/M01 Q1027=
200901291820 METAR ESMX 291820Z VRB02KT 7000 BR OVC014 00/M01 Q1027=
200901291750 METAR ESMX 291750Z 35003KT 8000 BR OVC014 00/M01 Q1027=
200901291720 METAR ESMX 291720Z 32004KT 7000 BR OVC016 00/M01 Q1027=
200901291650 METAR ESMX 291650Z 30003KT 8000 BR OVC017 00/M01 Q1026=
200901291620 METAR ESMX 291620Z 33003KT 5000 -SN FEW016 OVC020 00/M01 Q1026=
200901291550 METAR ESMX 291550Z 30004KT 280V340 8000 -SN SCT018 BKN022 00/M01 Q1026=
200901291520 METAR ESMX 291520Z 28004KT 8000 BR OVC017 00/M01 Q1026=
200901291450 METAR ESMX 291450Z 30004KT 8000 BR FEW009 OVC019 00/M01 Q1026=
200901291420 METAR ESMX 291420Z 30004KT 9999 OVC020 00/M01 Q1026=
200901291350 METAR ESMX 291350Z 30004KT 270V330 9999 BKN021 00/M01 Q1026=
200901291320 METAR ESMX 291320Z 30005KT 9999 BR FEW009 OVC022 00/M01 Q1025=
200901291250 METAR ESMX 291250Z 29004KT 8000 BR SCT010 OVC024 00/M01 Q1025=
200901291220 METAR ESMX 291220Z 27006KT 6000 -DZ FEW007 SCT021 OVC027 00/M01 Q1025=
200901291150 METAR ESMX 291150Z 28006KT 7000 -DZ FEW007 SCT019 BKN022 00/M01 Q1025=
200901291120 METAR ESMX 291120Z 27006KT 5000 -SG FEW015 SCT018 BKN026 00/M02 Q1025 REDZ=
200901291050 METAR ESMX 291050Z 30005KT 7000 -SG FEW015 OVC020 00/M02 Q1025=
200901291020 METAR ESMX 291020Z 29005KT 9999 OVC016 00/M02 Q1025=
200901290950 METAR ESMX 290950Z 29005KT 9000 FEW015 OVC021 M00/M02 Q1025=
200901290920 METAR ESMX 290920Z 28005KT 9999 BKN014 OVC022 M00/M02 Q1025=
200901290850 METAR ESMX 290850Z 29004KT 9999 FEW015 OVC024 M00/M02 Q1025=
200901290820 METAR ESMX 290820Z 28004KT 9999 SCT014 OVC025 M01/M02 Q1024=
200901290750 METAR ESMX 290750Z 28002KT 9999 FEW015 OVC020 M01/M03 Q1024=
200901290720 METAR ESMX 290720Z 26003KT 9999 FEW019 OVC022 M01/M03 Q1024=
200901290650 METAR ESMX 290650Z 26003KT 9999 SCT017 OVC020 M01/M03 Q1024=
200901290620 METAR ESMX 290620Z 26001KT 9999 OVC018 M01/M03 Q1024=
200901290550 METAR ESMX 290550Z 22001KT 9999 OVC019 M01/M03 Q1023=
200901290520 METAR ESMX 290520Z 00000KT 9999 BKN020 M01/M03 Q1023=
200901290450 METAR ESMX 290450Z 31002KT 9999 FEW014 BKN020 M01/M03 Q1023=
200901290420 METAR ESMX 290420Z AUTO 33004KT 300V010 9999NDV OVC013/// M01/M03 Q1024=
200901290350 METAR ESMX 290350Z AUTO 31004KT 280V340 9999NDV OVC014/// M01/M03 Q1023=
200901290320 METAR ESMX 290320Z AUTO 29007KT 260V320 9999NDV OVC013/// M01/M03 Q1023=
200901290250 METAR ESMX 290250Z AUTO 31005KT 290V350 9999NDV OVC013/// M01/M03 Q1023=
200901290220 METAR ESMX 290220Z AUTO 31007KT 9999NDV OVC013/// M01/M03 Q1023=
200901290150 METAR ESMX 290150Z AUTO 31005KT 270V340 9999NDV OVC013/// M00/M03 Q1023=
200901290120 METAR ESMX 290120Z AUTO 30005KT 9999NDV OVC013/// M00/M03 Q1023=
200901290050 METAR ESMX 290050Z 29004KT 250V330 9999 OVC013 M00/M03 Q1023=
200901290020 METAR ESMX 290020Z 28006KT 9999 OVC013 M00/M03 Q1023=
200901282350 METAR ESMX 282350Z 28005KT 250V320 9999 OVC012 M00/M03 Q1023=
200901282320 METAR ESMX 282320Z 29005KT 9999 OVC013 M00/M03 Q1022=
200901282250 METAR ESMX 282250Z 28005KT 240V320 9999 OVC013 M00/M03 Q1022=
200901282220 METAR ESMX 282220Z 26005KT 220V290 9999 OVC013 M01/M03 Q1022=
200901282120 METAR ESMX 282120Z 27004KT 9999 OVC013 M01/M03 Q1022=
200901282020 METAR ESMX 282020Z 28006KT 250V320 9999 OVC013 M01/M03 Q1022=
200901281950 METAR ESMX 281950Z 27007KT 9999 OVC013 M01/M03 Q1021=
200901281920 METAR ESMX 281920Z 27006KT 9999 OVC013 M01/M03 Q1022=
200901281850 METAR ESMX 281850Z 26005KT 230V320 9999 OVC013 M01/M03 Q1021=
200901281820 METAR ESMX 281820Z 26006KT 9999 OVC013 M00/M03 Q1021=
200901281750 METAR ESMX 281750Z 26005KT 210V290 9999 OVC012 M00/M03 Q1021=
200901281720 METAR ESMX 281720Z 24004KT 9999 OVC015 M00/M03 Q1021=
200901281650 METAR ESMX 281650Z 26004KT 210V320 9999 OVC015 M00/M03 Q1021=
200901281620 METAR ESMX 281620Z 24004KT 200V270 9999 OVC014 M00/M03 Q1021=
200901281550 METAR ESMX 281550Z 26005KT 220V280 9999 OVC014 M00/M03 Q1021=
200901281520 METAR ESMX 281520Z 24005KT 9999 OVC015 M00/M03 Q1020=
200901281450 METAR ESMX 281450Z 24005KT 9999 OVC016 M00/M03 Q1020=
200901281420 METAR ESMX 281420Z 25004KT 9999 OVC015 M00/M03 Q1020=
200901281350 METAR ESMX 281350Z 24005KT 200V270 9999 OVC015 M00/M03 Q1020=
200901281320 METAR ESMX 281320Z 25004KT 200V290 9999 OVC015 M00/M03 Q1020=
200901281250 METAR ESMX 281250Z 24004KT 9999 OVC015 M00/M03 Q1020=
200901281220 METAR ESMX 281220Z 23006KT 9999 OVC016 M00/M03 Q1020=
200901281150 METAR ESMX 281150Z 23007KT 9999 OVC016 M00/M03 Q1020=
200901281120 METAR ESMX 281120Z 25007KT 9999 OVC017 M00/M03 Q1020=
200901281050 METAR ESMX 281050Z 23005KT 200V260 9999 OVC018 M00/M03 Q1019=
200901281020 METAR ESMX 281020Z 22005KT 9999 OVC018 M00/M03 Q1019=
200901280950 METAR ESMX 280950Z 22004KT 9999 OVC018 M00/M03 Q1019=
200901280920 METAR ESMX 280920Z 22005KT 9999 OVC018 M00/M03 Q1019=
200901280850 METAR ESMX 280850Z 21003KT 9999 OVC019 M01/M03 Q1019=
200901280820 METAR ESMX 280820Z 21003KT 9999 OVC020 M01/M03 Q1019=
200901280750 METAR ESMX 280750Z 23003KT 9999 OVC019 M01/M03 Q1019=
200901280720 METAR ESMX 280720Z 23004KT 9999 OVC019 M01/M03 Q1019=
200901280650 METAR ESMX 280650Z 24004KT 9999 OVC019 M01/M04 Q1019=
200901280620 METAR ESMX 280620Z 23003KT 9999 OVC019 M01/M03 Q1019=
200901280550 METAR ESMX 280550Z 26003KT 9999 OVC019 M00/M04 Q1019=
200901280520 METAR ESMX 280520Z 27004KT 240V300 9999 OVC020 M01/M04 Q1019=
200901280450 METAR ESMX 280450Z 27004KT 240V310 9999 OVC020 M00/M04 Q1019=
200901280420 METAR ESMX 280420Z AUTO VRB02KT 9999NDV OVC021/// M01/M03 Q1019=
200901280350 METAR ESMX 280350Z AUTO 29003KT 9999NDV OVC021/// M00/M04 Q1018=
200901280320 METAR ESMX 280320Z AUTO VRB02KT 9999NDV OVC021/// M00/M04 Q1018=
200901280250 METAR ESMX 280250Z AUTO VRB01KT 9999NDV OVC021/// M00/M04 Q1018=
200901280220 METAR ESMX 280220Z AUTO 27003KT 220V320 9999NDV OVC020/// M00/M03 Q1018=
200901280150 METAR ESMX 280150Z AUTO 27003KT 9999NDV OVC019/// M00/M03 Q1018=
200901280120 METAR ESMX 280120Z AUTO 28004KT 230V300 9999NDV OVC020/// M00/M03 Q1018=
200901280050 METAR ESMX 280050Z 28004KT 240V310 9999 OVC021 M00/M03 Q1018=
200901280020 METAR ESMX 280020Z 26003KT 9999 OVC020 M00/M03 Q1018=
200901272350 METAR ESMX 272350Z 27004KT 240V300 9999 OVC019 M00/M03 Q1018=
200901272320 METAR ESMX 272320Z 28005KT 9999 OVC018 M00/M02 Q1018=
200901272250 METAR ESMX 272250Z 28003KT 9999 OVC018 M00/M02 Q1018=
200901272220 METAR ESMX 272220Z 27004KT 240V320 9999 OVC019 M00/M02 Q1018=
200901272150 METAR ESMX 272150Z 28003KT 250V310 9999 OVC021 00/M01 Q1018=
200901272050 METAR ESMX 272050Z 26003KT 9999 OVC020 00/M01 Q1018=
200901272020 METAR ESMX 272020Z 28002KT 9999 OVC017 00/M01 Q1017=
200901271950 METAR ESMX 271950Z 27002KT 9999 OVC017 00/M01 Q1017=
200901271920 METAR ESMX 271920Z 30003KT 9999 OVC017 00/M01 Q1017=
200901271850 METAR ESMX 271850Z 26001KT 9999 OVC018 00/M01 Q1017=
200901271820 METAR ESMX 271820Z VRB02KT 9999 OVC018 00/M01 Q1017=
200901271750 METAR ESMX 271750Z 24002KT 9999 OVC017 01/M01 Q1017=
200901271720 METAR ESMX 271720Z 28002KT 9999 OVC017 01/M01 Q1017=
200901271650 METAR ESMX 271650Z 26003KT 9999 OVC016 01/M01 Q1017=
200901271620 METAR ESMX 271620Z 29003KT 250V350 9999 OVC016 01/M01 Q1016=
200901271550 METAR ESMX 271550Z 27002KT 9999 FEW018 OVC020 01/M01 Q1016=
200901271520 METAR ESMX 271520Z VRB02KT 9999 OVC018 01/M00 Q1016=
200901271450 METAR ESMX 271450Z 27002KT 9999 OVC018 01/00 Q1016=
200901271420 METAR ESMX 271420Z 28002KT 9999 OVC020 01/M00 Q1015=
200901271350 METAR ESMX 271350Z 32002KT 9999 FEW010 OVC021 01/M00 Q1015=
200901271320 METAR ESMX 271320Z VRB02KT 9999 OVC020 02/00 Q1015=
200901271250 METAR ESMX 271250Z 34004KT 9999 FEW008 OVC020 02/00 Q1015=
200901271220 METAR ESMX 271220Z 32004KT 9999 FEW010 OVC019 01/00 Q1015=
200901271150 METAR ESMX 271150Z 30003KT 270V340 9999 OVC010 01/00 Q1015=
200901271120 METAR ESMX 271120Z 30004KT 9999 OVC009 01/00 Q1015=
200901271050 METAR ESMX 271050Z 30003KT 9999 OVC007 01/01 Q1015=
200901271020 METAR ESMX 271020Z 31003KT 9999 BKN005 OVC007 01/01 Q1015=
200901270920 METAR ESMX 270920Z 34002KT 3000 BR OVC002 01/01 Q1014=
200901270850 METAR ESMX 270850Z 34002KT 0700 R19/1400D FG VV002 01/00 Q1014=
200901270820 METAR ESMX 270820Z 32002KT 5000 BR FEW001 SCT002 OVC004 00/00 Q1014=
200901270750 METAR ESMX 270750Z VRB02KT 4900 BR OVC005 00/00 Q1013=
200901270720 METAR ESMX 270720Z 30002KT 2300 BR OVC003 00/00 Q1013=
200901270650 METAR ESMX 270650Z 00000KT 2500 DZ FEW003 OVC004 00/00 Q1013=
200901270620 METAR ESMX 270620Z VRB02KT 2000 DZ SCT001 BKN005 OVC021 00/00 Q1013=
200901270550 METAR ESMX 270550Z 00000KT 1000 R01/P2000D R19/P2000D -DZ OVC002 00/00 Q1013 RERA=
200901270520 METAR ESMX 270520Z 32002KT 1000 R01/P2000U R19/P2000U -DZ SCT002 OVC004 00/00 Q1012 RERA=
200901270450 METAR ESMX 270450Z 32002KT 0900 R01/P2000D R19/P2000D -DZ VV002 00/00 Q1012=
200901270420 METAR ESMX 270420Z AUTO 33002KT 0750NDV R01/P2000N R19/P2000U FG OVC001/// 01/00 Q1012=
200901270350 METAR ESMX 270350Z AUTO 30001KT 0900NDV R01/P2000D R19/P2000D FG VV002 01/00 Q1012=
200901270320 METAR ESMX 270320Z AUTO 31002KT 1300NDV R01/P2000D R19/P2000D BR OVC002/// 01/00 Q1012=
200901270250 METAR ESMX 270250Z AUTO 00000KT 3200NDV BR OVC001/// 01/00 Q1012=
200901270220 METAR ESMX 270220Z AUTO 35001KT 3900NDV BR BKN002/// OVC006/// 01/00 Q1011=
200901270150 METAR ESMX 270150Z AUTO 32002KT 3600NDV FEW003/// OVC005/// 01/00 Q1011=
200901270120 METAR ESMX 270120Z AUTO 01002KT 1600NDV FEW002/// OVC005/// 01/00 Q1011=
200901270050 METAR ESMX 270050Z 01002KT 1000 R01/P2000D R19/P2000U BR OVC002 01/00 Q1011=
200901270020 METAR ESMX 270020Z 35003KT 0900 R01/P2000U R19/P2000N FG VV002 01/00 Q1011=
200901262350 METAR ESMX 262350Z 35003KT 1700 BR OVC002 01/00 Q1010=
200901262320 METAR ESMX 262320Z 35002KT 2600 BR OVC002 01/00 Q1010=
200901262220 METAR ESMX 262220Z 01003KT 2000 BR OVC002 01/00 Q1010=
200901262150 METAR ESMX 262150Z 36003KT 2400 BR OVC002 01/01 Q1010=
200901262120 METAR ESMX 262120Z 34004KT 1100 R01/P2000U R19/P2000U BR OVC002 01/00 Q1010=
200901262050 METAR ESMX 262050Z VRB02KT 2000 BR OVC002 01/00 Q1010=
200901262020 METAR ESMX 262020Z 31003KT 5000 BR BKN004 OVC007 01/00 Q1010=
200901261950 METAR ESMX 261950Z 32002KT 3500 BR SCT005 OVC008 01/00 Q1010 REDZ=
200901261920 METAR ESMX 261920Z VRB01KT 2600 -RA FEW005 OVC006 01/00 Q1010=
200901261850 METAR ESMX 261850Z 28002KT 4000 -RASN SCT005 OVC008 01/00 Q1009=
200901261820 METAR ESMX 261820Z 33001KT 9999 OVC006 01/00 Q1009=
200901261750 METAR ESMX 261750Z 33002KT 9000 BR FEW006 OVC008 01/00 Q1009=
200901261720 METAR ESMX 261720Z 34004KT 9999 FEW006 OVC008 01/00 Q1008=
200901261650 METAR ESMX 261650Z 34004KT 9000 BR FEW005 OVC006 01/00 Q1008=
200901261620 METAR ESMX 261620Z 35003KT 7000 BR SCT004 OVC007 01/00 Q1008=
200901261550 METAR ESMX 261550Z 35002KT 7000 BR BKN005 OVC007 01/00 Q1008=
200901261520 METAR ESMX 261520Z 36003KT 7000 -DZ BKN005 01/00 Q1007=
200901261450 METAR ESMX 261450Z 36004KT 7000 -DZ SCT004 BKN015 01/01 Q1007=
200901261420 METAR ESMX 261420Z 35005KT 6000 -DZ SCT001 BKN005 01/01 Q1007=
200901261350 METAR ESMX 261350Z 35005KT 5000 -DZ OVC002 01/01 Q1007=
200901261320 METAR ESMX 261320Z 34004KT 5000 -DZ OVC002 01/01 Q1007=
200901261250 METAR ESMX 261250Z 34004KT 5000 -DZ OVC002 01/01 Q1007=
200901261220 METAR ESMX 261220Z 34004KT 3500 -DZ OVC002 01/01 Q1007=
200901261150 METAR ESMX 261150Z 32003KT 4700 DZ OVC003 01/00 Q1007=
200901261120 METAR ESMX 261120Z 32004KT 290V350 6000 -DZ OVC003 01/00 Q1007=
200901261050 METAR ESMX 261050Z 32003KT 4100 -SG OVC004 01/00 Q1007=
200901261020 METAR ESMX 261020Z 30004KT 8000 -DZ OVC005 01/00 Q1007 RERA=
200901260950 METAR ESMX 260950Z 31004KT 9999 OVC004 01/00 Q1007=
200901260920 METAR ESMX 260920Z 32004KT 9999 OVC005 01/00 Q1007=
200901260850 METAR ESMX 260850Z 32004KT 9999 FEW006 SCT007 OVC010 01/M00 Q1006=
200901260820 METAR ESMX 260820Z 32005KT 9999 BKN007 OVC010 01/M00 Q1006=
200901260750 METAR ESMX 260750Z 30004KT 9999 BKN008 00/M00 Q1006=
200901260720 METAR ESMX 260720Z 30005KT 9999 FEW007 SCT008 OVC020 00/M00 Q1005=
200901260650 METAR ESMX 260650Z 30005KT 9999 FEW012 SCT016 OVC020 00/M00 Q1005=
200901260620 METAR ESMX 260620Z 29003KT 9999 OVC011 00/M00 Q1005=
200901260550 METAR ESMX 260550Z 30004KT 9999 BKN014 00/M00 Q1005=
200901260520 METAR ESMX 260520Z 32003KT 270V350 9999 OVC013 00/M00 Q1005=
200901260450 METAR ESMX 260450Z 30003KT 9999 BKN013 OVC018 00/M00 Q1005=
200901260420 METAR ESMX 260420Z AUTO 27004KT 9999NDV SCT012/// OVC020/// 00/M00 Q1005=
200901260350 METAR ESMX 260350Z AUTO 29004KT 9999NDV OVC011/// 00/M00 Q1005=
200901260320 METAR ESMX 260320Z AUTO 29004KT 9999NDV FEW003/// OVC012/// 01/M00 Q1005=
200901260250 METAR ESMX 260250Z AUTO 27003KT 9999NDV OVC013/// 01/M00 Q1004=
200901260220 METAR ESMX 260220Z AUTO 28004KT 9999NDV FEW010/// OVC012/// 01/00 Q1004=
200901260150 METAR ESMX 260150Z AUTO 28004KT 240V310 9999NDV FEW002/// SCT009/// OVC011/// 01/00 Q1004=
200901260120 METAR ESMX 260120Z 28003KT 9999 BR FEW002 SCT003 BKN006 01/00 Q1004=
200901260050 METAR ESMX 260050Z 26003KT 9000 BR OVC002 01/00 Q1004=
200901252350 METAR ESMX 252350Z 26004KT 6000 BR FEW001 SCT003 BKN009 01/00 Q1004=
200901252320 METAR ESMX 252320Z 25003KT 7000 BR OVC002 01/01 Q1003=
200901252250 METAR ESMX 252250Z 27003KT 7000 BR FEW002 SCT006 BKN014 01/01 Q1003=
200901252220 METAR ESMX 252220Z 26003KT 220V290 8000 BR OVC015 01/01 Q1003=
200901252150 METAR ESMX 252150Z 27003KT 240V300 9999 FEW003 SCT006 OVC017 01/01 Q1003=
200901252120 METAR ESMX 252120Z 27004KT 8000 BR FEW003 BKN018 01/00 Q1002=
200901252050 METAR ESMX 252050Z 26006KT 9999 FEW004 SCT006 BKN018 01/01 Q1002=
200901252020 METAR ESMX 252020Z 27004KT 9999 FEW005 BKN007 01/01 Q1002=
200901251950 METAR ESMX 251950Z 29003KT 9999 FEW010 SCT014 BKN016 01/01 Q1002=
200901251920 METAR ESMX 251920Z VRB02KT 8000 BR BKN005 OVC008 01/01 Q1001=
200901251850 METAR ESMX 251850Z 00000KT 9999 FEW006 SCT008 BKN010 01/01 Q1001=
200901251820 METAR ESMX 251820Z 26002KT 9999 BKN024 01/00 Q1001=
200901251750 METAR ESMX 251750Z 26003KT 9999 BKN024 01/01 Q1000=
200901251720 METAR ESMX 251720Z 27002KT 9999 FEW014 OVC024 02/01 Q1000=
200901251650 METAR ESMX 251650Z 28002KT 9999 FEW015 BKN023 02/01 Q1000=
200901251620 METAR ESMX 251620Z VRB02KT 9999 BKN023 02/01 Q1000=
200901251550 METAR ESMX 251550Z 29004KT 9999 BKN021 02/01 Q1000=
200901251520 METAR ESMX 251520Z 28005KT 240V320 9999 OVC020 02/01 Q0999=
200901251450 METAR ESMX 251450Z 28003KT 9999 OVC018 02/01 Q0999=
200901251420 METAR ESMX 251420Z 26004KT 230V290 9999 FEW015 OVC018 03/01 Q0999=
200901251350 METAR ESMX 251350Z 26003KT 230V300 9999 OVC018 03/01 Q0998=
200901251320 METAR ESMX 251320Z 28003KT 9999 FEW013 OVC017 02/01 Q0998=
200901251250 METAR ESMX 251250Z 27003KT 9999 FEW012 OVC014 02/01 Q0998=
200901251220 METAR ESMX 251220Z 26006KT 9999 FEW011 OVC014 02/01 Q0998=
200901251150 METAR ESMX 251150Z 28005KT 9999 SCT012 OVC016 02/00 Q0997=
200901251120 METAR ESMX 251120Z 25004KT 220V280 9999 OVC012 02/00 Q0997=
200901251050 METAR ESMX 251050Z 26006KT 190V280 9999 OVC010 02/01 Q0997=
200901251020 METAR ESMX 251020Z 25004KT 200V280 9999 FEW006 BKN014 OVC021 02/01 Q0997=
200901250950 METAR ESMX 250950Z 24005KT 190V270 9999 FEW006 BKN008 OVC011 02/01 Q0996=
200901250920 METAR ESMX 250920Z AUTO 25005KT 230V290 9999NDV FEW007/// BKN013/// OVC019/// 02/01 Q0996=
200901250850 METAR ESMX 250850Z AUTO 25005KT 9999NDV FEW005/// SCT007/// BKN008/// 02/01 Q0996=
200901250820 METAR ESMX 250820Z AUTO 24006KT 9999NDV BKN005/// OVC008/// 02/02 Q0995=
200901250750 METAR ESMX 250750Z AUTO 24006KT 200V270 9999NDV BKN005/// OVC008/// 02/02 Q0995=
200901250720 METAR ESMX 250720Z AUTO 21005KT 6000NDV BR FEW002/// SCT004/// BKN005/// 02/01 Q0994 RERA REDZ=
200901250650 METAR ESMX 250650Z AUTO 20006KT 2700NDV -RA BKN001/// OVC003/// 01/01 Q0994 REDZ=
200901250620 METAR ESMX 250620Z AUTO 21005KT 1000NDV R01/P2000U R19/P2000U -RA VV001 01/01 Q0994 REDZ=
200901250550 METAR ESMX 250550Z AUTO 18004KT 0700NDV R01/P2000U R19/P2000U FG VV001 01/01 Q0993=
200901250520 METAR ESMX 250520Z AUTO 17004KT 0750NDV R01/P2000N R19/P2000D FG VV001 01/01 Q0993=
200901250450 METAR ESMX 250450Z AUTO 17004KT 0400NDV R01/1400N R19/1400N FG VV001 01/01 Q0993 RERA REDZ=
200901250420 METAR ESMX 250420Z AUTO 16004KT 0500NDV R01/1600D R19/1800N FG VV001 01/01 Q0992=
200901250350 METAR ESMX 250350Z AUTO 16004KT 130V190 0500NDV R01/1600D R19/1800U FG VV001 01/01 Q0992=
200901250320 METAR ESMX 250320Z AUTO 16003KT 0500NDV R01/1500N R19/1500D FG VV001 01/01 Q0992=
200901250250 METAR ESMX 250250Z AUTO 16003KT 0700NDV R01/P2000D R19/P2000N FG VV001 01/01 Q0991=
200901250220 METAR ESMX 250220Z AUTO 14003KT 100V170 0800NDV R01/P2000N R19/P2000D FG VV002 01/01 Q0991=
200901250150 METAR ESMX 250150Z AUTO 18004KT 1400NDV R01/P2000D R19/P2000D BR OVC001/// 01/01 Q0991=
200901250120 METAR ESMX 250120Z AUTO 18004KT 150V210 2200NDV BR OVC002/// 01/01 Q0991=
200901250050 METAR ESMX 250050Z AUTO 16003KT 2500NDV BR FEW002/// OVC004/// 01/00 Q0990 RERA REDZ=
200901250020 METAR ESMX 250020Z AUTO 16003KT 1500NDV -RA SCT002/// BKN004/// OVC006/// 01/00 Q0990 REDZ=
200901242350 METAR ESMX 242350Z AUTO 16003KT 2500NDV -RA BKN004/// OVC007/// 01/01 Q0990=
200901242320 METAR ESMX 242320Z AUTO 18005KT 3900NDV BR FEW003/// BKN005/// OVC007/// 01/01 Q0990=
200901242250 METAR ESMX 242250Z AUTO 18005KT 150V210 2800NDV BR BKN001/// OVC004/// 01/01 Q0989=
200901242220 METAR ESMX 242220Z AUTO 17005KT 2300NDV BR BKN001/// OVC004/// 02/01 Q0989 REDZ=
200901242150 METAR ESMX 242150Z AUTO 16004KT 2400NDV -DZ SCT005/// BKN007/// OVC009/// 02/01 Q0988 RERA=
200901242120 METAR ESMX 242120Z AUTO 16004KT 5000NDV BR FEW005/// SCT008/// OVC010/// 02/01 Q0988=
200901242050 METAR ESMX 242050Z AUTO 14004KT 110V170 4700NDV BR FEW004/// SCT005/// BKN007/// 02/01 Q0988=
200901242020 METAR ESMX 242020Z AUTO 14003KT 100V190 2700NDV BR FEW004/// SCT006/// BKN008/// 02/01 Q0987=
200901241950 METAR ESMX 241950Z AUTO 15004KT 7000NDV BR FEW003/// SCT005/// BKN006/// 02/01 Q0987=
200901241920 METAR ESMX 241920Z AUTO 15004KT 4100NDV BR FEW003/// BKN005/// OVC007/// 02/01 Q0986=
200901241850 METAR ESMX 241850Z AUTO 15005KT 110V170 7000NDV BR BKN004/// OVC007/// 02/01 Q0986=
200901241820 METAR ESMX 241820Z AUTO 16006KT 140V200 9999NDV BKN004/// OVC007/// 02/01 Q0986=
200901241750 METAR ESMX 241750Z AUTO 16007KT 8000NDV FEW004/// BKN005/// OVC008/// 03/02 Q0985=
200901241720 METAR ESMX 241720Z AUTO 16006KT 120V190 9999NDV BKN003/// OVC007/// 03/02 Q0985 REDZ=
200901241650 METAR ESMX 241650Z 14005KT 100V180 3300 -DZ FEW003 OVC005 03/02 Q0984 RERA=
200901241620 METAR ESMX 241620Z 14005KT 060V180 3100 BR OVC005 03/02 Q0984=
200901241550 METAR ESMX 241550Z 14006KT 100V170 4900 BR OVC005 03/02 Q0983=
200901241520 METAR ESMX 241520Z 14006KT 080V210 9999 OVC005 03/02 Q0983=
200901241450 METAR ESMX 241450Z 14006KT 090V170 9999 BKN005 03/03 Q0982=
200901241420 METAR ESMX 241420Z 13005KT 070V200 9999 OVC005 03/03 Q0982=
200901241350 METAR ESMX 241350Z 13006KT 080V190 9999 BKN005 03/03 Q0981=
200901241320 METAR ESMX 241320Z 13005KT 090V170 8000 BR BKN005 03/03 Q0981=
200901241250 METAR ESMX 241250Z AUTO 13006KT 080V170 4000NDV BR OVC004/// 03/03 Q0981=
200901241220 METAR ESMX 241220Z AUTO 13006KT 070V170 6000NDV BR OVC005/// 03/03 Q0980=
200901241150 METAR ESMX 241150Z AUTO 13006KT 070V180 6000NDV BR OVC004/// 03/03 Q0980=
200901241120 METAR ESMX 241120Z AUTO 13006KT 080V170 3700NDV BR OVC004/// 03/03 Q0980=
200901241050 METAR ESMX 241050Z AUTO 13005KT 090V170 2900NDV BR OVC004/// 03/03 Q0980=
200901241020 METAR ESMX 241020Z AUTO 12005KT 050V170 5000NDV BR BKN006/// OVC010/// 03/03 Q0979 REDZ RERA=
200901240950 METAR ESMX 240950Z AUTO 12005KT 070V170 3100NDV -RA BKN005/// OVC007/// 03/03 Q0979 REDZ=
200901240920 METAR ESMX 240920Z AUTO 13005KT 060V170 6000NDV BR OVC005/// 03/03 Q0979=
200901240850 METAR ESMX 240850Z AUTO 13006KT 090V170 9000NDV BKN006/// OVC010/// 03/02 Q0979 REDZ=
200901240820 METAR ESMX 240820Z AUTO 11005KT 060V170 9999NDV -DZ FEW006/// BKN008/// OVC011/// 03/02 Q0979 RERA=
200901240750 METAR ESMX 240750Z AUTO 11006KT 070V150 8000NDV -RA SCT006/// OVC008/// 03/03 Q0978=
200901240720 METAR ESMX 240720Z AUTO 11006KT 070V150 9000NDV DZ BKN005/// OVC009/// 03/03 Q0978=
200901240650 METAR ESMX 240650Z AUTO 10006KT 040V170 5000NDV DZ BKN005/// OVC008/// 03/03 Q0978 RERA=
200901240620 METAR ESMX 240620Z AUTO 11006KT 050V170 5000NDV -RA OVC004/// 03/03 Q0978 REDZ=
200901240550 METAR ESMX 240550Z AUTO 10006KT 040V170 2700NDV BR FEW003/// OVC004/// 03/03 Q0978 REDZ=
200901240520 METAR ESMX 240520Z AUTO 10006KT 050V150 2300NDV -DZ BKN003/// OVC005/// 03/02 Q0978=
200901240450 METAR ESMX 240450Z AUTO 09007KT 050V140 3000NDV -DZ FEW002/// OVC003/// 03/02 Q0978=
200901240420 METAR ESMX 240420Z AUTO 09008KT 050V150 1900NDV DZ OVC002/// 03/02 Q0978 RERA=
200901240350 METAR ESMX 240350Z AUTO 09007KT 030V140 2600NDV BR OVC003/// 03/02 Q0978=
200901240320 METAR ESMX 240320Z AUTO 09008KT 030V140 2400NDV BR OVC004/// 03/02 Q0978=
200901240250 METAR ESMX 240250Z AUTO 09009KT 010V140 4200NDV BR OVC004/// 02/02 Q0978=
200901240220 METAR ESMX 240220Z AUTO 08008G19KT 030V160 4200NDV BR OVC005/// 02/01 Q0978 REDZ=
200901240150 METAR ESMX 240150Z AUTO 08007KT 030V120 7000NDV -RA SCT005/// BKN007/// OVC008/// 02/01 Q0978 REDZ=
200901240120 METAR ESMX 240120Z AUTO 08008KT 020V120 3800NDV -RA OVC004/// 02/01 Q0978 REDZ=
200901240050 METAR ESMX 240050Z AUTO 08007KT 030V120 8000NDV -DZ OVC005/// 01/01 Q0979 RERA=
200901240020 METAR ESMX 240020Z AUTO 08008KT 040V120 6000NDV RA OVC006/// 01/00 Q0979=
200901232350 METAR ESMX 232350Z AUTO 09010G20KT 040V140 9999NDV DZ FEW007/// BKN008/// OVC010/// 01/01 Q0979 RERA=
200901232320 METAR ESMX 232320Z AUTO 09009KT 040V120 4800NDV RA FEW007/// SCT008/// OVC009/// 01/00 Q0979 REDZ=
200901232250 METAR ESMX 232250Z AUTO 09008G18KT 010V140 4300NDV BR FEW006/// SCT008/// OVC009/// 01/01 Q0980 RERA REDZ REUP=
200901232220 METAR ESMX 232220Z AUTO 08009G20KT 010V130 3200NDV -RA FEW006/// BKN008/// OVC010/// 01/01 Q0980 REDZ=
200901232150 METAR ESMX 232150Z AUTO 09009KT 040V150 4400NDV DZ BKN004/// OVC007/// 01/01 Q0981 RERA=
200901232120 METAR ESMX 232120Z AUTO 09011G24KT 040V140 4200NDV BR OVC005/// 01/01 Q0981=
200901232050 METAR ESMX 232050Z 10009KT 040V150 3900 BR OVC005 01/01 Q0982 RERA=
200901232020 METAR ESMX 232020Z 09008KT 040V140 2500 -DZ OVC005 01/00 Q0982=
200901231950 METAR ESMX 231950Z 10008KT 030V140 2800 -DZ BKN004 OVC007 01/00 Q0982 RERA=
200901231920 METAR ESMX 231920Z 10008G19KT 010V140 3300 -DZ BKN003 01/00 Q0983=
200901231850 METAR ESMX 231850Z 10012G22KT 060V140 9000 BR BKN003 01/M00 Q0983=
200901231820 METAR ESMX 231820Z 10011G21KT 040V150 7000 BR OVC002 01/00 Q0983=
200901231750 METAR ESMX 231750Z 10009G20KT 340V150 4200 BR OVC002 01/00 Q0983=
200901231720 METAR ESMX 231720Z 10010G21KT 040V160 5000 BR OVC002 01/00 Q0984=
200901231650 METAR ESMX 231650Z 11009KT 050V160 3800 BR OVC002 00/00 Q0984=
200901231620 METAR ESMX 231620Z 11011KT 060V170 3500 BR BKN003 00/M00 Q0984=
200901231550 METAR ESMX 231550Z 10009KT 050V150 6000 BR OVC004 00/M01 Q0984=
200901231520 METAR ESMX 231520Z 10008G19KT 050V190 8000 BR OVC005 00/M01 Q0984=
200901231450 METAR ESMX 231450Z 10009KT 050V140 9999 BKN006 00/M01 Q0985=
200901231420 METAR ESMX 231420Z 10009KT 040V160 9000 BR OVC006 00/M01 Q0985=
200901231350 METAR ESMX 231350Z 10010KT 060V150 9999 BKN005 OVC007 00/M01 Q0986=
200901231320 METAR ESMX 231320Z 13010KT 070V190 9000 OVC007 00/M01 Q0987=
200901231250 METAR ESMX 231250Z 13009G19KT 080V180 9999 BKN009 01/M01 Q0987=
200901231220 METAR ESMX 231220Z 13009KT 060V170 9999 OVC009 01/M01 Q0987=
200901231150 METAR ESMX 231150Z 13010G21KT 080V170 9999 OVC010 01/M01 Q0987=
200901231120 METAR ESMX 231120Z 13008KT 050V200 9999 OVC010 01/M01 Q0988=
200901231050 METAR ESMX 231050Z 13009KT 050V180 9999 OVC010 01/M01 Q0989=
200901231020 METAR ESMX 231020Z 12007KT 020V180 9999 OVC009 01/M01 Q0989=
200901230950 METAR ESMX 230950Z 14008KT 080V190 9999 OVC009 01/M01 Q0990=
200901230920 METAR ESMX 230920Z 15010KT 9999 OVC009 01/M01 Q0990=
200901230850 METAR ESMX 230850Z 15008KT 110V190 9999 OVC009 01/M01 Q0991=
200901230820 METAR ESMX 230820Z 14009KT 080V170 9999 OVC009 01/M01 Q0991=
200901230750 METAR ESMX 230750Z 15008KT 110V200 9999 OVC009 01/M01 Q0991=
200901230720 METAR ESMX 230720Z 15011KT 9999 FEW009 OVC010 01/M01 Q0991=
200901230650 METAR ESMX 230650Z 15008KT 110V190 9999 FEW009 BKN010 01/M01 Q0991=
200901230620 METAR ESMX 230620Z 15008G18KT 110V180 9999 OVC009 01/M01 Q0991=
200901230550 METAR ESMX 230550Z 14009KT 110V180 9999 FEW008 SCT009 OVC010 01/M01 Q0992=
200901230520 METAR ESMX 230520Z 14009KT 100V170 9999 SCT008 OVC010 01/M01 Q0992=
200901230450 METAR ESMX 230450Z 15008KT 100V190 9999 OVC008 01/M01 Q0993=
200901230420 METAR ESMX 230420Z 14010KT 100V190 9999 OVC008 01/M01 Q0992=
200901230350 METAR ESMX 230350Z AUTO 15009KT 110V180 9999NDV BKN008/// OVC012/// 00/M01 Q0993=
200901230320 METAR ESMX 230320Z AUTO 15009KT 080V200 9999NDV BKN007/// OVC010/// 00/M01 Q0993=
200901230250 METAR ESMX 230250Z AUTO 14009G19KT 090V190 9999NDV OVC007/// 00/M01 Q0993=
200901230220 METAR ESMX 230220Z AUTO 15008KT 100V200 9999NDV OVC007/// 00/M01 Q0994=
200901230150 METAR ESMX 230150Z AUTO 14009KT 100V180 9999NDV BR OVC004/// 00/M01 Q0994=
200901230120 METAR ESMX 230120Z AUTO 15009KT 120V200 8000NDV BR OVC005/// 00/M01 Q0995=
200901230050 METAR ESMX 230050Z 14009KT 110V190 9999 OVC006 00/M01 Q0995=
200901230020 METAR ESMX 230020Z 15008KT 110V200 9999 OVC006 M00/M01 Q0996=
200901222350 METAR ESMX 222350Z 15008KT 100V170 9999 OVC007 M00/M01 Q0996=
200901222320 METAR ESMX 222320Z 15007KT 080V190 9999 OVC006 M00/M01 Q0997=
200901222250 METAR ESMX 222250Z 15008KT 110V180 9999 BKN006 OVC009 M00/M01 Q0997=
200901222220 METAR ESMX 222220Z 14004KT 9999 FEW008 OVC015 M00/M02 Q0998=
200901222150 METAR ESMX 222150Z 14004KT 9999 SCT008 BKN016 M01/M02 Q0998=
200901222120 METAR ESMX 222120Z 14004KT 9999 BKN014 M00/M02 Q0998=
200901222050 METAR ESMX 222050Z 13003KT 9999 OVC015 M01/M02 Q0999=
200901222020 METAR ESMX 222020Z 13003KT 9999 OVC014 M01/M02 Q0999=
200901221950 METAR ESMX 221950Z 14003KT 9999 FEW007 SCT009 OVC011 M01/M02 Q0999=
200901221920 METAR ESMX 221920Z 16007KT 9999 OVC007 M01/M02 Q1000=
200901221850 METAR ESMX 221850Z 16005KT 9999 OVC007 M01/M02 Q1000=
200901221820 METAR ESMX 221820Z 19008KT 9999 BKN006 OVC008 M01/M02 Q1000=
200901221750 METAR ESMX 221750Z 20006KT 9999 OVC007 M01/M02 Q1000=
200901221720 METAR ESMX 221720Z 18006KT 9999 BKN005 OVC009 M00/M02 Q1001=
200901221650 METAR ESMX 221650Z 20005KT 9999 OVC009 M00/M01 Q1001=
200901221620 METAR ESMX 221620Z 20004KT 9999 FEW007 OVC009 M00/M02 Q1001=
200901221550 METAR ESMX 221550Z 18004KT 150V220 9999 OVC008 M00/M01 Q1001=
200901221520 METAR ESMX 221520Z 16005KT 110V200 9999 FEW005 OVC007 M00/M01 Q1001=
200901221450 METAR ESMX 221450Z 19006KT 9999 OVC007 M00/M01 Q1001=
200901221420 METAR ESMX 221420Z 21006KT 9999 OVC007 M00/M00 Q1002=
200901221350 METAR ESMX 221350Z 21006KT 9999 FEW006 OVC009 M00/M00 Q1002=
200901221320 METAR ESMX 221320Z 19005KT 9999 FEW006 OVC008 00/M00 Q1002=
200901221250 METAR ESMX 221250Z 21005KT 9999 FEW006 OVC011 00/00 Q1002=
200901221220 METAR ESMX 221220Z 21006KT 9000 BR SCT002 BKN004 OVC006 00/00 Q1002=
200901221150 METAR ESMX 221150Z 21004KT 2000 OVC002 01/00 Q1003=
200901221120 METAR ESMX 221120Z 20004KT 3100 OVC003 01/01 Q1003=
200901221050 METAR ESMX 221050Z 21003KT 170V250 0350 R01/0900 R19/0800 FG VV002 01/01 Q1003=
200901221020 METAR ESMX 221020Z 18003KT 0250 R01/0500N R19/0500N FG VV002 01/01 Q1004=
200901220950 METAR ESMX 220950Z 17003KT 0350 R01/0700N R19/0800N FG VV002 01/00 Q1004=
200901220920 METAR ESMX 220920Z 16003KT 0550 R01/1100D R19/1400D FG VV002 01/00 Q1004=
200901220850 METAR ESMX 220850Z 15003KT 0800 R01/1500N R19/1900N FG VV002 00/00 Q1004=
200901220820 METAR ESMX 220820Z 16003KT 0650 R01/1400V1900U R19/1400N FG VV002 00/00 Q1004=
200901220750 METAR ESMX 220750Z VRB02KT 0450 R01/1100N R19/1300D FG VV002 01/00 Q1004=
200901220720 METAR ESMX 220720Z 15003KT 0600 R01/1500D R19/P2000D FG VV002 01/00 Q1005=
200901220650 METAR ESMX 220650Z VRB02KT 1300 R01/P2000U R19/P2000N BR VV002 00/00 Q1005=
200901220550 METAR ESMX 220550Z VRB01KT 1300 R01/P2000D R19/P2000D -RA VV002 00/00 Q1005 REDZ=
200901220520 METAR ESMX 220520Z 00000KT 1200 R01/P2000N R19/P2000D -DZ BR VV002 00/00 Q1005 RERA=
200901220450 METAR ESMX 220450Z 06001KT 0700 R01/1300VP2000U R19/1400U FG VV002 00/00 Q1005=
200901220420 METAR ESMX 220420Z AUTO 00000KT 0550NDV R01/1800D R19/1800D FG VV001 00/00 Q1005 REDZ=
200901220350 METAR ESMX 220350Z AUTO 07001KT 0550NDV R01/1700U R19/P2000U -RA VV001 00/00 Q1006=
200901220320 METAR ESMX 220320Z AUTO 01002KT 0250NDV R01/0900N R19/1100N -RA VV001 00/M00 Q1006=
200901220250 METAR ESMX 220250Z AUTO 00000KT 0350NDV R01/1100N R19/1200D FG VV001 00/M00 Q1006=
200901220220 METAR ESMX 220220Z AUTO 08003KT 040V130 0350NDV R01/1200N R19/1300U FG VV001 00/M00 Q1006=
200901220150 METAR ESMX 220150Z AUTO 08003KT 020V130 0250NDV R01/0900N R19/1100N FZFG VV000 M00/M00 Q1006=
200901220120 METAR ESMX 220120Z AUTO 07003KT 040V100 0250NDV R01/0900N R19/1100N FZFG VV001 M00/M00 Q1007=
200901220050 METAR ESMX 220050Z 04003KT 0200 R01/0800N R19/0900N FZFG VV002 M00/M01 Q1007=
200901220020 METAR ESMX 220020Z 01003KT 0150 R01/0700N R19/0800N FZFG VV002 M00/M01 Q1007=
200901212350 METAR ESMX 212350Z 04003KT 0250 R01/0800N R19/1000N FZFG VV002 M00/M01 Q1007=
200901212320 METAR ESMX 212320Z 04003KT 0400 R01/1300N R19/1500N FZFG VV002 M00/M01 Q1008=
200901212250 METAR ESMX 212250Z 03003KT 0450 R01/1400N R19/1600U FZFG VV002 M00/M00 Q1008=
200901212220 METAR ESMX 212220Z 04003KT 0350 R01/1200N R19/1300N FZFG VV002 M00/M01 Q1008=
200901212150 METAR ESMX 212150Z 05003KT 020V080 0300 R01/1100N R19/1200N FZFG VV002 M00/M01 Q1008=
200901212120 METAR ESMX 212120Z 03003KT 0450 R01/1400N R19/1500N FZFG VV002 M00/M01 Q1008=
200901212050 METAR ESMX 212050Z 35003KT 0600 R01/1800N R19/P2000N FZFG VV002 M00/M01 Q1008=
200901212020 METAR ESMX 212020Z 35001KT 0900 R01/P2000D R19/P2000D FZFGFG VV002 M00/M00 Q1009=
200901211950 METAR ESMX 211950Z VRB02KT 2200 BR OVC002 M00/M00 Q1009=
200901211920 METAR ESMX 211920Z VRB02KT 2300 BR OVC002 M00/M01 Q1009=
200901211850 METAR ESMX 211850Z 13004KT 070V170 1500 R01/P2000U R19/P2000U BR VV002 M00/M01 Q1009=
200901211820 METAR ESMX 211820Z VRB02KT 1500 R01/P2000U R19/P2000D BR OVC002 M01/M01 Q1009=
200901211750 METAR ESMX 211750Z 12003KT 050V170 1200 R01/P2000D R19/P2000D BR OVC002 M00/M01 Q1009=
200901211720 METAR ESMX 211720Z 11003KT 050V160 2000 BR OVC002 M00/M01 Q1009=
200901211650 METAR ESMX 211650Z VRB02KT 3300 BR OVC002 M00/M00 Q1009=
200901211620 METAR ESMX 211620Z 16003KT 080V190 3400 BR OVC002 M00/M00 Q1008=
200901211550 METAR ESMX 211550Z 12003KT 060V170 2200 BR OVC002 M00/M00 Q1008=
200901211520 METAR ESMX 211520Z 14004KT 110V170 2800 BR OVC002 M00/M00 Q1008=
200901211450 METAR ESMX 211450Z 15003KT 120V190 2700 OVC002 M00/M00 Q1008=
200901211420 METAR ESMX 211420Z VRB02KT 3100 OVC002 M00/M00 Q1008=
200901211350 METAR ESMX 211350Z VRB02KT 0750 R01/1100V1500N R19/1300N FG OVC002 00/M00 Q1008=
200901211320 METAR ESMX 211320Z 16004KT 130V190 0650 R01/0900V1300U R19/1100V1600U FZFG VV002 M00/M00 Q1008=
200901211250 METAR ESMX 211250Z 17004KT 140V210 0500 R01/1000N R19/1000N FZFG VV002 M00/M00 Q1008=
200901211220 METAR ESMX 211220Z 15004KT 110V180 1100 R01/1500N R19/P2000N BR OVC002 M01/M01 Q1008=
200901211150 METAR ESMX 211150Z 17008KT 130V200 1200 R01/1600N R19/P2000D BR OVC002 M01/M01 Q1008=
200901211120 METAR ESMX 211120Z 17007KT 140V200 1200 R01/1600U R19/1900D BR OVC002 M01/M01 Q1008=
200901211050 METAR ESMX 211050Z 16005KT 1900 BR VV002 M01/M01 Q1008=
200901211020 METAR ESMX 211020Z 15005KT 110V200 4000 BR SCT002 BKN028 M01/M01 Q1008=
200901210950 METAR ESMX 210950Z 14003KT 090V180 3800 BR FEW003 OVC027 M01/M01 Q1008=
200901210920 METAR ESMX 210920Z 16004KT 120V200 4000 BR FEW003 OVC027 M01/M01 Q1007=
200901210850 METAR ESMX 210850Z 16005KT 4000 BR SCT003 OVC028 M01/M01 Q1007=
200901210820 METAR ESMX 210820Z 16005KT 120V190 4000 BR SCT002 OVC027 M01/M01 Q1007=
200901210750 METAR ESMX 210750Z 15005KT 120V190 4000 BR SCT003 OVC030 M01/M01 Q1007=
200901210720 METAR ESMX 210720Z 16004KT 3500 BR FEW003 OVC029 M01/M01 Q1007=
200901210650 METAR ESMX 210650Z 16004KT 3600 BR SCT002 OVC030 M01/M01 Q1006=
200901210620 METAR ESMX 210620Z 16003KT 140V200 3400 BR FEW003 OVC031 M01/M01 Q1006=
200901210550 METAR ESMX 210550Z 15004KT 130V190 3100 BR SCT002 BKN004 OVC030 M01/M01 Q1006=
200901210520 METAR ESMX 210520Z 15005KT 100V230 2400 BR BKN002 BKN028 M01/M01 Q1005=
200901210450 METAR ESMX 210450Z 14005KT 2500 BR BKN001 BKN028 M01/M01 Q1005=
200901210420 METAR ESMX 210420Z AUTO 14005KT 080V170 0500NDV R01/1400VP2000U R19/P2000U FZFG VV001 M01/M01 Q1004=
200901210350 METAR ESMX 210350Z AUTO 16005KT 130V200 0200NDV R01/0800N R19/0900=
200901210320 METAR ESMX 210320Z AUTO 17004KT 0200NDV R01/0750 R19/0800 FZFG VV000 M01/M01 Q1004=
200901210250 METAR ESMX 210250Z AUTO 17004KT 140V210 0150NDV R01/0650N R19/0900D FZFG FEW000/// SCT019/// M01/M02 Q1004=
200901210220 METAR ESMX 210220Z AUTO 15004KT 110V170 2000NDV BR OVC017/// M00/M01 Q1004=
200901210150 METAR ESMX 210150Z AUTO 15003KT 120V190 4300NDV BR BKN016/// M01/M01 Q1003=
200901210120 METAR ESMX 210120Z AUTO 18003KT 7000NDV BR BKN016/// 01/M00 Q1003=
200901210050 METAR ESMX 210050Z 17004KT 140V200 7000 BR OVC018 01/M00 Q1003=
200901210020 METAR ESMX 210020Z 17003KT 8000 BR OVC018 01/M00 Q1003=
200901202350 METAR ESMX 202350Z 19003KT 7000 BR OVC017 01/M00 Q1003=
200901202320 METAR ESMX 202320Z 21004KT 9000 BR BKN016 01/M00 Q1002=
200901202250 METAR ESMX 202250Z 19006KT 8000 BR OVC017 01/M00 Q1002=
200901202220 METAR ESMX 202220Z 18006KT 7000 BR OVC019 01/00 Q1001=
200901202150 METAR ESMX 202150Z 18006KT 7000 BR OVC017 01/00 Q1001=
200901202120 METAR ESMX 202120Z 19005KT 6000 BR OVC014 01/00 Q1001=
200901202050 METAR ESMX 202050Z 18006KT 6000 BR OVC013 01/00 Q1001=
200901202020 METAR ESMX 202020Z 19006KT 7000 BR FEW009 OVC011 01/00 Q1000=
200901201950 METAR ESMX 201950Z 20009KT 7000 BR FEW006 OVC010 01/00 Q1000=
200901201920 METAR ESMX 201920Z 18006KT 5000 BR SCT008 00/00 Q0999=
200901201850 METAR ESMX 201850Z 19007KT 5000 BR FEW005 M00/M01 Q0998=
200901201820 METAR ESMX 201820Z 18007KT 6000 BR NSC 00/M00 Q0998=
200901201750 METAR ESMX 201750Z 17006KT 9000 BR FEW013 01/00 Q0997=
200901201720 METAR ESMX 201720Z 19007KT 9999 FEW017 01/M00 Q0997=
200901201650 METAR ESMX 201650Z 18008KT 9999 BKN016 02/00 Q0997=
200901201620 METAR ESMX 201620Z 17009KT 9999 BKN019 02/00 Q0996=
200901201550 METAR ESMX 201550Z 17005KT 9999 FEW027 02/01 Q0996=
200901201520 METAR ESMX 201520Z 17005KT 9999 FEW017 BKN027 02/01 Q0995=
200901201450 METAR ESMX 201450Z 18006KT 9999 BKN027 02/01 Q0995=
200901201420 METAR ESMX 201420Z 18007KT 9999 SCT033 03/01 Q0995=
200901201350 METAR ESMX 201350Z 17006KT 9999 FEW032 SCT037 03/01 Q0994=
200901201320 METAR ESMX 201320Z 19010KT 9999 FEW010 BKN033 03/01 Q0994=
200901201250 METAR ESMX 201250Z 19009KT 9999 FEW008 SCT011 03/02 Q0994=
200901201220 METAR ESMX 201220Z 18007KT 9999 FEW025 03/02 Q0993=
200901201150 METAR ESMX 201150Z 19007KT 9999 FEW027 SCT048 03/02 Q0993=
200901201120 METAR ESMX 201120Z 20008KT 9999 FEW008 SCT015 BKN027 03/02 Q0993=
200901201050 METAR ESMX 201050Z 18007KT 8000 BR FEW004 BKN008 OVC012 02/02 Q0992=
200901201020 METAR ESMX 201020Z 16007KT 4900 BR SCT002 BKN006 OVC010 02/01 Q0992=
200901200950 METAR ESMX 200950Z 15007KT 110V190 5000 BR BKN002 OVC006 02/01 Q0992=
200901200920 METAR ESMX 200920Z 15007KT 5000 BR OVC002 01/01 Q0991=
200901200850 METAR ESMX 200850Z 15007KT 110V170 8000 BR OVC003 01/01 Q0991=
200901200820 METAR ESMX 200820Z 15008KT 110V180 9000 BR BKN003 OVC007 01/00 Q0991 RESN RESG=
200901200750 METAR ESMX 200750Z 14008KT 110V170 5000 -SN BKN002 OVC005 01/00 Q0990=
200901200720 METAR ESMX 200720Z 15006KT 110V170 1000 R01/P2000U R19/P2000 -SN FEW002 OVC004 01/00 Q0990 RERA=
200901200650 METAR ESMX 200650Z 15008KT 110V190 2800 RA OVC003 01/01 Q0990=
200901200620 METAR ESMX 200620Z 14008KT 100V190 2600 RA OVC002 01/01 Q0989=
200901200550 METAR ESMX 200550Z 14008KT 100V180 1600 BR OVC001 01/01 Q0988=
200901200520 METAR ESMX 200520Z 14008G18KT 100V190 2000 BR OVC001 01/01 Q0989=
200901200450 METAR ESMX 200450Z 13009KT 060V170 5000 BR OVC003 01/00 Q0989=
200901200420 METAR ESMX 200420Z AUTO 14008KT 100V180 9000NDV OVC004/// 01/00 Q0990=
200901200350 METAR ESMX 200350Z AUTO 15009KT 100V190 9999NDV OVC005/// 01/00 Q0989 RERA REDZ=
200901200320 METAR ESMX 200320Z AUTO 14008KT 080V170 9999NDV OVC006/// 01/M00 Q0989=
200901200250 METAR ESMX 200250Z AUTO 13008KT 070V170 9999NDV OVC006/// 01/M00 Q0989 RERA REDZ=
200901200220 METAR ESMX 200220Z AUTO 12008KT 080V160 5000NDV -RA OVC006/// 01/M00 Q0989 REDZ=
200901200150 METAR ESMX 200150Z AUTO 13007KT 070V180 3700NDV -RA OVC007/// 01/00 Q0990 REDZ=
200901200120 METAR ESMX 200120Z AUTO 13007KT 070V190 9999NDV -DZ OVC007/// 01/M00 Q0991 RERA=
200901200050 METAR ESMX 200050Z 12007KT 060V170 6000 SN BKN009 01/M00 Q0991=
200901200020 METAR ESMX 200020Z 12007KT 080V160 9999 -SHSN BKN008 OVC011 01/M01 Q0991=
200901192350 METAR ESMX 192350Z 12009G20KT 080V170 9999 OVC007 01/M01 Q0991=
200901192320 METAR ESMX 192320Z 11008KT 040V180 9999 BKN008 OVC010 01/M01 Q0992=
200901192250 METAR ESMX 192250Z 12008G18KT 080V170 9999 OVC009 01/M01 Q0992=
200901192220 METAR ESMX 192220Z 13008KT 080V190 9999 OVC009 01/M01 Q0993=
200901192150 METAR ESMX 192150Z 14008KT 080V200 9999 BKN010 OVC014 01/M01 Q0993=
200901192120 METAR ESMX 192120Z 13006KT 090V180 9999 BKN010 OVC016 01/M01 Q0993=
200901192050 METAR ESMX 192050Z 14007KT 090V230 9999 FEW010 BKN012 OVC016 01/M01 Q0994=
200901192020 METAR ESMX 192020Z 14008KT 100V170 9999 FEW010 BKN016 01/M01 Q0994=
200901191950 METAR ESMX 191950Z 14006KT 080V200 9999 FEW008 OVC016 01/M00 Q0994=
200901191920 METAR ESMX 191920Z 13006KT 080V170 9999 FEW006 BKN012 01/M00 Q0995=
200901191850 METAR ESMX 191850Z 15006KT 080V180 9000 BR FEW005 OVC008 01/M00 Q0995=
200901191820 METAR ESMX 191820Z 15006KT 110V170 7000 BR FEW004 OVC006 01/M00 Q0995=
200901191750 METAR ESMX 191750Z 15006KT 110V190 7000 BR OVC005 00/M00 Q0995=
200901191720 METAR ESMX 191720Z 14006KT 080V180 8000 BR OVC004 00/M00 Q0995=
200901191650 METAR ESMX 191650Z 14005KT 110V170 7000 BR OVC004 01/M00 Q0995=
200901191620 METAR ESMX 191620Z 15005KT 110V200 5000 BR FEW004 BKN005 OVC008 01/00 Q0996=
200901191550 METAR ESMX 191550Z 15004KT 5000 BR FEW006 OVC007 01/00 Q0996=
200901191520 METAR ESMX 191520Z 16004KT 8000 BR FEW004 SCT006 BKN007 01/00 Q0996=
200901191450 METAR ESMX 191450Z 17004KT 8000 BR FEW004 OVC006 01/00 Q0996=
200901191420 METAR ESMX 191420Z 17003KT 130V200 7000 BR FEW003 OVC005 01/00 Q0996=
200901191350 METAR ESMX 191350Z 17004KT 120V200 5000 BR FEW003 SCT005 BKN006 01/01 Q0996=
200901191320 METAR ESMX 191320Z 20006KT 6000 BR BKN003 OVC005 01/01 Q0996=
200901191250 METAR ESMX 191250Z 20005KT 170V250 7000 BR OVC003 01/01 Q0996=
200901191220 METAR ESMX 191220Z 20004KT 160V230 7000 BR OVC005 01/01 Q0996=
200901191150 METAR ESMX 191150Z 21007KT 9000 BR BKN004 OVC007 01/01 Q0996=
200901191120 METAR ESMX 191120Z 22005KT 9999 FEW004 OVC006 02/01 Q0996=
200901191050 METAR ESMX 191050Z 23006KT 9999 OVC005 02/01 Q0996=
200901191020 METAR ESMX 191020Z 23006KT 9999 FEW006 BKN008 BKN011 02/01 Q0996=
200901190950 METAR ESMX 190950Z 22005KT 9999 FEW010 BKN013 02/01 Q0996=
200901190920 METAR ESMX 190920Z 24007KT 9999 FEW005 SCT007 OVC010 01/01 Q0996=
200901190850 METAR ESMX 190850Z 23006KT 9999 FEW002 SCT005 BKN006 01/01 Q0996=
200901190820 METAR ESMX 190820Z 22005KT 6000 BKN002 OVC005 01/01 Q0996=
200901190750 METAR ESMX 190750Z 22005KT 2900 OVC002 01/01 Q0996=
200901190720 METAR ESMX 190720Z 20005KT 0900 R01/P2000D R19/P2000D FG VV002 01/00 Q0995=
200901190650 METAR ESMX 190650Z 18005KT 2100 BR BKN002 01/00 Q0995=
200901190620 METAR ESMX 190620Z 19005KT 4600 -RA OVC001 01/00 Q0995=
200901190550 METAR ESMX 190550Z 16005KT 2000 RASN BKN002 01/00 Q0995 REDZ=
200901190520 METAR ESMX 190520Z 16005KT 140V200 1300 R01/P2000D R19/P2000D -RASN OVC002 00/00 Q0994=
200901190450 METAR ESMX 190450Z 15006KT 5000 -DZ OVC002 01/00 Q0994 RESN RESG RERA=
200901190420 METAR ESMX 190420Z AUTO 14006KT 110V170 6000NDV -SN FEW003/// OVC004/// 00/00 Q0994 RESG=
200901190350 METAR ESMX 190350Z AUTO 15006KT 110V170 2500NDV -SN FEW003/// OVC004/// 00/00 Q0994=
200901190320 METAR ESMX 190320Z AUTO 14005KT 100V190 1900NDV -SN FEW003/// OVC004/// 00/00 Q0994 RERA=
200901190250 METAR ESMX 190250Z AUTO 14006KT 110V180 3000NDV -RA FEW003/// OVC004/// 01/00 Q0994=
200901190220 METAR ESMX 190220Z AUTO 14006KT 090V170 3100NDV -RA OVC004/// 01/00 Q0994=
200901190150 METAR ESMX 190150Z AUTO 14005KT 100V170 2700NDV -RA OVC004/// 01/00 Q0994=
200901190120 METAR ESMX 190120Z 14006KT 080V170 2400 SNRA OVC003 01/00 Q0994=
200901190050 METAR ESMX 190050Z 14005KT 080V180 2000 RA OVC002 00/00 Q0994=
200901182320 METAR ESMX 182320Z 14007KT 080V170 0500 R01/1600N R19/1800N FG VV002 01/00 Q0995=
200901182250 METAR ESMX 182250Z 15007KT 110V200 0500 R01/1600N R19/P2000N FG VV002 01/00 Q0995=
200901182220 METAR ESMX 182220Z 14006KT 080V180 0500 R01/1500N R19/P2000N FG VV002 00/00 Q0995=
200901182150 METAR ESMX 182150Z 13007G18KT 010V170 0550 R01/1700N R19/P2000N FG VV002 00/00 Q0995=
200901182120 METAR ESMX 182120Z 13007KT 090V180 1000 R01/P2000D R19/P2000D BR OVC001 00/00 Q0996=
200901182050 METAR ESMX 182050Z 13006G16KT 060V180 1300 R01/P2000D R19/P2000N OVC002 00/00 Q0996=
200901182020 METAR ESMX 182020Z 12008KT 070V160 1200 R01/P2000N R19/P2000N OVC001 00/M00 Q0996=
200901181950 METAR ESMX 181950Z 13007KT 080V200 1000 R01/P2000U R19/P2000U FZFG VV002 M00/M00 Q0997=
200901181920 METAR ESMX 181920Z 13007KT 070V190 0700 R01/P2000U R19/P2000N FZFG VV002 M00/M00 Q0997=
200901181850 METAR ESMX 181850Z 13006KT 080V180 0650 R01/1900N R19/P2000N FZDZ VV002 M00/M00 Q0998=
200901181820 METAR ESMX 181820Z 14007KT 080V200 1100 R19/P2000D OVC001 M00/M01 Q0998=
200901181750 METAR ESMX 181750Z 11007KT 050V160 1300 R19/P2000U FZDZ BR OVC001 M00/M01 Q0998=
200901181720 METAR ESMX 181720Z 11008KT 050V170 1200 R19/P2000U BR OVC001 M01/M01 Q0998=
200901181650 METAR ESMX 181650Z 12006KT 080V170 1500 BR OVC001 M01/M01 Q0999=
200901181620 METAR ESMX 181620Z 11007KT 040V160 1300 R19/P2000U BR OVC001 M01/M01 Q0999=
200901181550 METAR ESMX 181550Z 12008KT 070V170 1000 R19/P2000D FZFG OVC001 M01/M01 Q0999=
200901181520 METAR ESMX 181520Z 11008KT 050V170 0900 R19/P2000N FZFG OVC001 M01/M01 Q1000=
200901181450 METAR ESMX 181450Z 13006KT 070V190 0800 R01/1900U R19/P2000N FZFG OVC001 M01/M01 Q1001=
200901181350 METAR ESMX 181350Z 14007KT 080V200 0700 R19/1800N FZFG VV002 M01/M01 Q1002=
200901181320 METAR ESMX 181320Z 13007KT 090V180 1500 BR OVC002 M01/M02 Q1002=
200901181250 METAR ESMX 181250Z 13007KT 070V170 4000 BR OVC003 M01/M02 Q1002=
200901181220 METAR ESMX 181220Z 14008KT 110V170 4200 BR OVC003 M01/M02 Q1003=
200901181150 METAR ESMX 181150Z 13008KT 080V200 5000 BR OVC004 M01/M02 Q1003=
200901181050 METAR ESMX 181050Z 13008KT 070V200 8000 BR OVC007 M01/M03 Q1004=
200901181020 METAR ESMX 181020Z 11010KT 080V170 9000 BR OVC007 M01/M03 Q1004=
200901180950 METAR ESMX 180950Z 13007KT 080V170 9000 BR OVC008 M01/M03 Q1006=
200901180920 METAR ESMX 180920Z AUTO 14008KT 100V170 9999NDV OVC008/// M01/M03 Q1007=
200901180850 METAR ESMX 180850Z AUTO 15008KT 100V200 9999NDV OVC008/// M02/M03 Q1007=
200901180820 METAR ESMX 180820Z AUTO 13008KT 070V170 9999NDV OVC009/// M02/M04 Q1006=
200901180750 METAR ESMX 180750Z AUTO 13008KT 080V170 9999NDV OVC010/// M02/M04 Q1007=
200901180720 METAR ESMX 180720Z AUTO 13007KT 080V160 9999NDV OVC010/// M02/M04 Q1008=
200901180650 METAR ESMX 180650Z AUTO 13008KT 080V170 9999NDV OVC010/// M02/M04 Q1008=
200901180620 METAR ESMX 180620Z AUTO 12007KT 060V170 9999NDV OVC010/// M02/M04 Q1008=
200901180550 METAR ESMX 180550Z AUTO 13008KT 090V170 9999NDV OVC011/// M02/M04 Q1008=
200901180520 METAR ESMX 180520Z AUTO 14007KT 070V210 9999NDV OVC012/// M02/M04 Q1009=
200901180450 METAR ESMX 180450Z AUTO 14007KT 110V190 9999NDV OVC013/// M02/M05 Q1009=
200901180420 METAR ESMX 180420Z AUTO 13007KT 080V160 9999NDV OVC014/// M02/M05 Q1010=
200901180350 METAR ESMX 180350Z AUTO 13007KT 060V210 9999NDV OVC016/// M02/M05 Q1010 RESN=
200901180320 METAR ESMX 180320Z AUTO 14008KT 090V190 9999NDV -SN OVC016/// M02/M05 Q1010=
200901180250 METAR ESMX 180250Z AUTO 14008KT 100V180 9999NDV OVC016/// M02/M05 Q1011=
200901180220 METAR ESMX 180220Z AUTO 15007KT 100V210 9999NDV OVC018/// M02/M05 Q1011=
200901180150 METAR ESMX 180150Z AUTO 14007KT 100V180 9999NDV OVC016/// M02/M05 Q1012=
200901180120 METAR ESMX 180120Z AUTO 13006KT 080V230 9999NDV OVC016/// M02/M05 Q1012=
200901180050 METAR ESMX 180050Z AUTO 13006KT 080V200 9999NDV OVC017/// M02/M05 Q1012=
200901172350 METAR ESMX 172350Z AUTO 13006KT 080V190 9999NDV BKN020/// M02/M06 Q1013=
200901172320 METAR ESMX 172320Z AUTO 13005KT 070V180 9999NDV BKN020/// M02/M06 Q1013=
200901172250 METAR ESMX 172250Z AUTO 13005KT 070V180 9999NDV OVC023/// M02/M06 Q1014=
200901172220 METAR ESMX 172220Z AUTO 13005KT 090V180 9999NDV OVC022/// M02/M06 Q1014=
200901172150 METAR ESMX 172150Z AUTO 13006KT 070V170 9999NDV OVC022/// M03/M06 Q1015=
200901172120 METAR ESMX 172120Z AUTO 13006KT 070V180 9999NDV OVC022/// M03/M06 Q1015=
200901172050 METAR ESMX 172050Z AUTO 12005KT 050V170 9999NDV OVC022/// M03/M06 Q1015=
200901172020 METAR ESMX 172020Z AUTO 14006KT 100V190 9999NDV OVC020/// M03/M06 Q1016=
200901171950 METAR ESMX 171950Z AUTO 14006KT 110V190 9999NDV OVC019/// M03/M06 Q1016=
200901171920 METAR ESMX 171920Z AUTO 13008KT 080V170 9999NDV OVC019/// M03/M06 Q1016=
200901171850 METAR ESMX 171850Z AUTO 13009KT 080V160 9999NDV OVC019/// M03/M06 Q1017=
200901171750 METAR ESMX 171750Z AUTO 11006KT 070V170 9999NDV OVC021/// M03/M06 Q1017=
200901171720 METAR ESMX 171720Z AUTO 11006KT 070V150 9999NDV OVC022/// M03/M07 Q1018=
200901171650 METAR ESMX 171650Z AUTO 12006KT 070V170 9999NDV OVC024/// M03/M06 Q1018=
200901171620 METAR ESMX 171620Z AUTO 11007KT 060V200 9999NDV OVC022/// M03/M06 Q1018=
200901171550 METAR ESMX 171550Z AUTO 11005KT 060V170 9999NDV FEW021/// OVC026/// M03/M06 Q1019=
200901171520 METAR ESMX 171520Z AUTO 11006KT 070V160 9999NDV FEW021/// OVC027/// M03/M06 Q1019=
200901171450 METAR ESMX 171450Z AUTO 12005KT 070V190 9999NDV OVC027/// M03/M06 Q1020=
200901171420 METAR ESMX 171420Z AUTO 11005KT 060V170 9999NDV FEW014/// OVC027/// M03/M05 Q1020=
200901171350 METAR ESMX 171350Z AUTO 12006KT 080V170 9999NDV FEW015/// OVC021/// M03/M05 Q1020=
200901171320 METAR ESMX 171320Z AUTO 13005KT 080V170 9999NDV OVC020/// M02/M06 Q1021=
200901171250 METAR ESMX 171250Z AUTO 12006KT 070V160 9999NDV OVC021/// M02/M06 Q1021=
200901171220 METAR ESMX 171220Z AUTO 13005KT 080V190 9999NDV OVC020/// M02/M06 Q1021=
200901171150 METAR ESMX 171150Z AUTO 13006KT 080V200 9999NDV OVC020/// M02/M07 Q1021=
200901171120 METAR ESMX 171120Z AUTO 13007KT 070V190 9999NDV OVC020/// M02/M07 Q1022=
200901171050 METAR ESMX 171050Z AUTO 13007KT 080V170 9999NDV OVC021/// M02/M07 Q1022=
200901171020 METAR ESMX 171020Z AUTO 13008KT 080V170 9999NDV OVC020/// M03/M07 Q1022=
200901170950 METAR ESMX 170950Z AUTO 13007KT 080V170 9999NDV OVC019/// M03/M06 Q1023=
200901170920 METAR ESMX 170920Z AUTO 13005KT 080V200 9999NDV OVC021/// M03/M06 Q1023=
200901170850 METAR ESMX 170850Z AUTO 13005KT 070V170 9999NDV OVC020/// M03/M06 Q1024=
200901170820 METAR ESMX 170820Z AUTO 12006KT 070V160 9999NDV OVC020/// M03/M07 Q1024=
200901170750 METAR ESMX 170750Z AUTO 14005KT 080V180 9999NDV OVC020/// M03/M06 Q1024=
200901170650 METAR ESMX 170650Z AUTO 12004KT 080V160 9999NDV OVC020/// M03/M06 Q1024=
200901170620 METAR ESMX 170620Z AUTO 13004KT 9999NDV OVC021/// M03/M06 Q1024=
200901170550 METAR ESMX 170550Z AUTO 12003KT 080V160 9999NDV OVC021/// M03/M06 Q1024=
200901170520 METAR ESMX 170520Z AUTO 12004KT 030V200 9999NDV OVC021/// M03/M06 Q1024=
200901170450 METAR ESMX 170450Z AUTO 11004KT 050V160 9999NDV OVC023/// M03/M06 Q1024=
200901170420 METAR ESMX 170420Z AUTO 12004KT 080V150 9999NDV OVC023/// M03/M06 Q1025=
200901170350 METAR ESMX 170350Z AUTO 12003KT 040V170 9999NDV OVC023/// M03/M06 Q1025=
200901170320 METAR ESMX 170320Z AUTO 11003KT 070V160 9999NDV OVC023/// M03/M06 Q1025=
200901170250 METAR ESMX 170250Z AUTO 12004KT 070V170 9999NDV OVC024/// M03/M06 Q1025=
200901170220 METAR ESMX 170220Z AUTO 10003KT 050V150 9999NDV OVC024/// M03/M06 Q1026=
200901170150 METAR ESMX 170150Z AUTO 10003KT 070V130 9999NDV OVC024/// M03/M06 Q1026=
200901170120 METAR ESMX 170120Z AUTO 09004KT 9999NDV OVC024/// M03/M06 Q1026=
200901170050 METAR ESMX 170050Z AUTO 10003KT 9999NDV OVC025/// M03/M06 Q1026=
200901162350 METAR ESMX 162350Z AUTO 10002KT 9999NDV OVC024/// M03/M06 Q1026=
200901162320 METAR ESMX 162320Z AUTO 13002KT 9999NDV OVC024/// M04/M06 Q1027=
200901162250 METAR ESMX 162250Z AUTO 10002KT 9999NDV OVC025/// M04/M06 Q1027=
200901162220 METAR ESMX 162220Z AUTO 11002KT 9999NDV OVC022/// M03/M06 Q1027=
200901162150 METAR ESMX 162150Z AUTO VRB02KT 9999NDV OVC023/// M03/M06 Q1027=
200901162120 METAR ESMX 162120Z AUTO 14004KT 080V200 9999NDV OVC023/// M03/M06 Q1027=
200901162050 METAR ESMX 162050Z AUTO 14004KT 9999NDV OVC022/// M03/M06 Q1027=
200901162020 METAR ESMX 162020Z 13003KT 9999 OVC022 M04/M06 Q1028=
200901161950 METAR ESMX 161950Z 10003KT 9999 OVC022 M04/M06 Q1028=
200901161850 METAR ESMX 161850Z VRB02KT 9999 BKN022 M04/M06 Q1028=
200901161820 METAR ESMX 161820Z 07002KT 9999 OVC024 M04/M06 Q1028=
200901161750 METAR ESMX 161750Z 07001KT 9999 OVC024 M04/M06 Q1028=
200901161650 METAR ESMX 161650Z 00000KT 9999 OVC024 M04/M06 Q1028=
200901161620 METAR ESMX 161620Z 00000KT 9999 OVC025 M04/M06 Q1028=
200901161450 METAR ESMX 161450Z 00000KT 9999 BKN024 M05/M06 Q1028=
200901161350 METAR ESMX 161350Z 05002KT 9999 BKN024 M05/M06 Q1028=
200901161250 METAR ESMX 161250Z 00000KT 9999 FEW026 BKN200 M04/M07 Q1029=
200901161220 METAR ESMX 161220Z 07001KT CAVOK M05/M07 Q1029=
200901161150 METAR ESMX 161150Z VRB02KT CAVOK M05/M07 Q1029=
200901161120 METAR ESMX 161120Z 08004KT CAVOK M05/M08 Q1029=
200901161050 METAR ESMX 161050Z 06003KT CAVOK M06/M08 Q1030=
200901161020 METAR ESMX 161020Z 02003KT 9999 FEW028 M07/M08 Q1030=
200901160950 METAR ESMX 160950Z 35003KT 320V040 CAVOK M07/M09 Q1030=
200901160920 METAR ESMX 160920Z 03002KT CAVOK M08/M09 Q1030=
200901160850 METAR ESMX 160850Z 03002KT CAVOK M09/M10 Q1029=
200901160820 METAR ESMX 160820Z 02002KT CAVOK M10/M11 Q1029=
200901160750 METAR ESMX 160750Z 02001KT CAVOK M12/M13 Q1029=
200901160650 METAR ESMX 160650Z 34002KT CAVOK M10/M11 Q1029=
200901160620 METAR ESMX 160620Z 03002KT CAVOK M10/M10 Q1028=
200901160550 METAR ESMX 160550Z 03001KT CAVOK M09/M10 Q1028=
200901160520 METAR ESMX 160520Z 02002KT 9999 NSC M09/M10 Q1028=
200901160450 METAR ESMX 160450Z AUTO 03002KT 9999NDV NCD M09/M09 Q1028=
200901160420 METAR ESMX 160420Z AUTO 03003KT 9999NDV NCD M08/M09 Q1028=
200901160350 METAR ESMX 160350Z AUTO 03002KT 9999NDV NCD M09/M09 Q1028=
200901160320 METAR ESMX 160320Z AUTO 03003KT 9999NDV NCD M08/M09 Q1028=
200901160250 METAR ESMX 160250Z AUTO 35002KT 9999NDV NCD M09/M09 Q1028=
200901160220 METAR ESMX 160220Z AUTO 03002KT 9999NDV NCD M09/M09 Q1028=
200901160150 METAR ESMX 160150Z AUTO 03002KT 9999NDV NCD M08/M09 Q1027=
200901160120 METAR ESMX 160120Z AUTO 03002KT 9999NDV NCD M08/M08 Q1027=
200901160050 METAR ESMX 160050Z AUTO 03002KT 9999NDV NCD M07/M08 Q1027=
200901160020 METAR ESMX 160020Z 04002KT CAVOK M06/M08 Q1027=
200901152350 METAR ESMX 152350Z 04003KT 9999 NSC M06/M07 Q1027=
200901152250 METAR ESMX 152250Z 01005KT 9999 FEW010 M06/M07 Q1027=
200901152220 METAR ESMX 152220Z 02005KT 9999 FEW012 M05/M06 Q1026=
200901152150 METAR ESMX 152150Z 03006KT 9999 BKN012 M04/M05 Q1026=
200901152120 METAR ESMX 152120Z 04007KT 9999 BKN012 M04/M06 Q1026=
200901152050 METAR ESMX 152050Z 04003KT 010V070 9999 BKN014 M04/M05 Q1026=
200901152020 METAR ESMX 152020Z 04004KT 9999 SCT017 M04/M05 Q1025=
200901151950 METAR ESMX 151950Z 03005KT 9999 BKN018 M04/M05 Q1025=
200901151920 METAR ESMX 151920Z 03005KT 9999 FEW020 M04/M05 Q1025=
200901151850 METAR ESMX 151850Z 02005KT 9999 BKN023 M04/M04 Q1024=
200901151750 METAR ESMX 151750Z 36002KT 9000 SCT018 M04/M04 Q1024=
200901151720 METAR ESMX 151720Z 00000KT 9999 FEW045 M04/M04 Q1023=
200901151650 METAR ESMX 151650Z 35001KT 9999 FEW015 SCT045 M04/M04 Q1023=
200901151620 METAR ESMX 151620Z 35003KT 9999 FEW025 BKN045 M03/M04 Q1022=
200901151550 METAR ESMX 151550Z 36003KT 9999 FEW023 BKN044 M02/M03 Q1022=
200901151450 METAR ESMX 151450Z 02004KT 9999 SCT009 BKN013 OVC016 M02/M03 Q1022=
200901151420 METAR ESMX 151420Z 02007KT 9999 BKN009 M02/M03 Q1021=
200901151350 METAR ESMX 151350Z 02006KT 340V040 9999 BKN009 M02/M03 Q1021=
200901151250 METAR ESMX 151250Z 36006KT 9999 FEW008 SCT012 M01/M03 Q1020=
200901151220 METAR ESMX 151220Z 01008KT 9999 BKN008 M02/M03 Q1020=
200901151150 METAR ESMX 151150Z 01008KT 9999 BKN008 M01/M03 Q1020=
200901151120 METAR ESMX 151120Z 36006KT 9999 FEW011 M01/M03 Q1019=
200901151050 METAR ESMX 151050Z 36005KT CAVOK M01/M03 Q1019=
200901151020 METAR ESMX 151020Z 36006KT CAVOK M01/M03 Q1019=
200901150950 METAR ESMX 150950Z 34005KT CAVOK M02/M03 Q1019=
200901150920 METAR ESMX 150920Z 34004KT CAVOK M02/M03 Q1018=
200901150850 METAR ESMX 150850Z 33003KT 9999 FEW007 M03/M04 Q1018=
200901150820 METAR ESMX 150820Z 31002KT 9999 FEW007 M03/M04 Q1018=
200901150750 METAR ESMX 150750Z 34003KT 9999 BKN006 M02/M03 Q1018=
200901150650 METAR ESMX 150650Z 36004KT 9999 FEW004 OVC006 M02/M03 Q1017=
200901150620 METAR ESMX 150620Z 02006KT 9999 BKN004 M02/M03 Q1016=
200901150550 METAR ESMX 150550Z 36005KT 9999 BKN003 M02/M03 Q1016=
200901150520 METAR ESMX 150520Z 35003KT 9999 SCT004 M02/M03 Q1016=
200901150450 METAR ESMX 150450Z AUTO 35004KT 9999NDV SCT004/// BKN007/// M02/M03 Q1016=
200901150420 METAR ESMX 150420Z AUTO 36007KT 9999NDV OVC004/// M01/M02 Q1015=
200901150350 METAR ESMX 150350Z AUTO 34005KT 9999NDV OVC005/// M01/M02 Q1015=
200901150320 METAR ESMX 150320Z AUTO 34005KT 9999NDV OVC005/// M01/M01 Q1015=
200901150250 METAR ESMX 150250Z AUTO 36004KT 9999NDV FEW006/// BKN009/// OVC068/// M01/M01 Q1015=
200901150220 METAR ESMX 150220Z AUTO 34003KT 9999NDV SCT009/// OVC018/// M00/M01 Q1014=
200901150150 METAR ESMX 150150Z AUTO 31003KT 9999NDV OVC011/// 00/M01 Q1014=
200901150120 METAR ESMX 150120Z AUTO 30003KT 270V350 9999NDV OVC011/// 00/M00 Q1014=
200901150050 METAR ESMX 150050Z 30003KT 9999 OVC010 00/M00 Q1014=
200901150020 METAR ESMX 150020Z 31004KT 9999 FEW009 OVC011 01/00 Q1014=
200901142350 METAR ESMX 142350Z 33004KT 9999 OVC011 01/00 Q1013=
200901142250 METAR ESMX 142250Z AUTO 29002KT 3800NDV BR OVC011/// 01/00 Q1013=
200901142220 METAR ESMX 142220Z AUTO 00000KT 4000NDV BR OVC012/// 00/00 Q1013=
200901142150 METAR ESMX 142150Z 00000KT 5000 BR OVC012 01/00 Q1013=
200901142120 METAR ESMX 142120Z VRB02KT 5000 BR FEW013 BKN066 00/M00 Q1012=
200901142050 METAR ESMX 142050Z 30003KT 5000 BR BKN068 OVC091 00/M00 Q1012=
200901142020 METAR ESMX 142020Z 30003KT 5000 FEW068 OVC085 00/M00 Q1012=
200901141950 METAR ESMX 141950Z 29004KT 6000 BR OVC090 00/M00 Q1012=
200901141920 METAR ESMX 141920Z 27001KT 3500 MIFG BKN090 01/00 Q1012=
200901141850 METAR ESMX 141850Z 00000KT 9999 BR FEW015 BKN080 01/01 Q1011=
200901141820 METAR ESMX 141820Z 19002KT 9999 FEW015 BKN080 01/01 Q1011=
200901141750 METAR ESMX 141750Z 28001KT 6000 BR OVC015 02/01 Q1011=
200901141650 METAR ESMX 141650Z 30001KT 9999 BKN018 02/02 Q1011=
200901141620 METAR ESMX 141620Z VRB01KT 9999 FEW010 OVC012 02/02 Q1011=
200901141550 METAR ESMX 141550Z 32004KT 9999 FEW009 OVC011 02/02 Q1011=
200901141450 METAR ESMX 141450Z 23003KT 6000 BR SCT002 BKN004 OVC007 03/03 Q1010=
200901141420 METAR ESMX 141420Z 24003KT 200V270 4000 BR OVC002 03/03 Q1010=
200901141350 METAR ESMX 141350Z 21003KT 2500 BR OVC002 03/03 Q1009=
200901141250 METAR ESMX 141250Z 21003KT 4500 BR OVC002 03/03 Q1009=
200901141220 METAR ESMX 141220Z 23004KT 200V260 7000 BR OVC002 03/03 Q1009=
200901141150 METAR ESMX 141150Z 26004KT 230V290 9000 BR OVC003 03/03 Q1009=
200901141050 METAR ESMX 141050Z 26004KT 230V290 4500 BR OVC002 03/03 Q1009=
200901141020 METAR ESMX 141020Z 23004KT 200V260 4000 BR OVC001 03/03 Q1009=
200901140950 METAR ESMX 140950Z 23004KT 0800 R01/1400N R19/P2000U FG OVC002 03/03 Q1009=
200901140850 METAR ESMX 140850Z 21004KT 0350 R01/0800N R19/1000N FG VV002 03/03 Q1009=
200901140820 METAR ESMX 140820Z 22004KT 190V250 0450 R01/1100N R19/1200N FG VV002 03/03 Q1009=
200901140750 METAR ESMX 140750Z 22004KT 0300 R01/0900N R19/1100N FG VV002 03/03 Q1009=
200901140650 METAR ESMX 140650Z 18005KT 0650 R01/1900N R19/P2000D FG VV002 03/03 Q1008=
200901140620 METAR ESMX 140620Z 20005KT 0800 R01/P2000D R19/P2000U FG VV002 03/03 Q1008=
200901140550 METAR ESMX 140550Z 19005KT 0550 R01/1700N R19/1800N FG VV002 03/03 Q1008=
200901140520 METAR ESMX 140520Z 21005KT 1200 R19/P2000D BR OVC001 03/03 Q1008=
200901140450 METAR ESMX 140450Z 20005KT 1300 R19/P2000U BR BKN001 OVC004 03/03 Q1008=
200901140420 METAR ESMX 140420Z AUTO 21004KT 2200NDV BR FEW003/// SCT007/// BKN009/// 03/03 Q1008=
200901140050 METAR ESMX 140050Z 22004KT 6000 BR FEW003 OVC004 03/03 Q1008=
200901132320 METAR ESMX 132320Z 25006KT 210V280 5000 BR FEW002 BKN005 04/03 Q1008=
200901132220 METAR ESMX 132220Z 24007KT 200V270 1500 BR OVC001 04/03 Q1008=
200901132150 METAR ESMX 132150Z 23008KT 0750 R19/P2000U FG VV002 04/03 Q1007=
200901132120 METAR ESMX 132120Z 22008KT 0500 R19/1800D FG VV002 04/03 Q1007=
200901132020 METAR ESMX 132020Z 22007KT 4000 BR OVC001 04/03 Q1007=
200901131950 METAR ESMX 131950Z 21006KT 8000 BR OVC002 03/03 Q1007=
200901131920 METAR ESMX 131920Z 21007KT 9000 BR OVC003 03/03 Q1007=
200901131850 METAR ESMX 131850Z 21008KT 4600 -DZ BR OVC002 03/03 Q1007=
200901131820 METAR ESMX 131820Z 20010KT 2000 -RA OVC002 03/03 Q1007 REDZ=
200901131750 METAR ESMX 131750Z 20009KT 0650 R01/1900U R19/P2000U FG VV002 03/03 Q1006=
200901131720 METAR ESMX 131720Z 20008KT 1200 R01/P2000D R19/P2000D BR OVC002 03/03 Q1006=
200901131650 METAR ESMX 131650Z 21008KT 3600 OVC002 03/03 Q1006=
200901131620 METAR ESMX 131620Z 22008KT 1900 DZ OVC002 03/03 Q1006 RERA=
200901131550 METAR ESMX 131550Z 22008KT 0900 R01/P2000U R19/P2000N FG OVC002 03/03 Q1006=
200901131520 METAR ESMX 131520Z 22009KT 0600 R01/1700N R19/P2000N FG VV002 03/03 Q1006=
200901131450 METAR ESMX 131450Z 21009KT 0800 R01/1400N R19/1600N FG VV002 03/03 Q1006=
200901131420 METAR ESMX 131420Z 21009KT 1500 R19/P2000D BR OVC002 03/03 Q1005=
200901131350 METAR ESMX 131350Z 22009KT 2000 BR OVC002 03/03 Q1006=
200901131320 METAR ESMX 131320Z 22009KT 3000 BR OVC002 03/03 Q1005=
200901131250 METAR ESMX 131250Z 22009KT 4100 BR OVC002 03/03 Q1005=
200901131220 METAR ESMX 131220Z 22009KT 4600 BR OVC002 03/03 Q1005=
200901131150 METAR ESMX 131150Z 22009KT 3500 BR OVC002 03/03 Q1005=
200901131120 METAR ESMX 131120Z 21009KT 2000 BR OVC002 03/02 Q1005=
200901131050 METAR ESMX 131050Z 20009KT 2000 BR OVC002 02/02 Q1005=
200901131020 METAR ESMX 131020Z 19009KT 1800 R01/P2000N R19/P2000N BR OVC002 02/02 Q1005=
200901130950 METAR ESMX 130950Z 19008KT 1500 R01/P2000N R19/P2000N BR OVC002 02/02 Q1005=
200901130920 METAR ESMX 130920Z 19008KT 2100 BR OVC002 02/01 Q1005=
200901130850 METAR ESMX 130850Z 20007KT 2100 BR OVC002 02/01 Q1005=
200901130820 METAR ESMX 130820Z 20007KT 1800 BR OVC002 02/01 Q1004=
200901130750 METAR ESMX 130750Z 20007KT 1800 BR OVC002 01/01 Q1004=
200901130720 METAR ESMX 130720Z 20009KT 1300 R01/P2000D R19/P2000D BR OVC002 01/01 Q1004=
200901130650 METAR ESMX 130650Z 19009KT 1800 BR OVC001 01/01 Q1004=
200901130620 METAR ESMX 130620Z 20009KT 2100 BR OVC002 01/01 Q1003=
200901130550 METAR ESMX 130550Z 21010KT 1700 BR OVC002 01/01 Q1003=
200901130520 METAR ESMX 130520Z 21011KT 2000 BR OVC002 01/01 Q1004=
200901130450 METAR ESMX 130450Z 20011KT 2500 BR OVC002 01/01 Q1004=
200901130420 METAR ESMX 130420Z AUTO 21011KT 4700NDV BR OVC003/// 01/00 Q1004=
200901130350 METAR ESMX 130350Z AUTO 19011KT 5000NDV -RA OVC004/// 01/00 Q1004=
200901130320 METAR ESMX 130320Z AUTO 20011KT 2500NDV -RA OVC004/// 01/00 Q1004=
200901130250 METAR ESMX 130250Z AUTO 21011KT 3200NDV RA OVC004/// 01/01 Q1004=
200901130220 METAR ESMX 130220Z AUTO 21012KT 2500NDV -RA OVC003/// 01/01 Q1004=
200901130150 METAR ESMX 130150Z AUTO 20011KT 3500NDV BR OVC004/// 02/01 Q1004=
200901130120 METAR ESMX 130120Z 20010KT 2200 -RA BR OVC004 02/01 Q1004=
200901130050 METAR ESMX 130050Z 20010KT 3300 -RA BR FEW005 BKN006 02/01 Q1005=
200901130020 METAR ESMX 130020Z 20011KT 3200 RA BR FEW005 OVC006 02/01 Q1005=
200901122350 METAR ESMX 122350Z 21011KT 3000 RA BR OVC004 02/01 Q1006 REDZ=
200901122320 METAR ESMX 122320Z 21011KT 2000 DZ BR OVC004 02/01 Q1006=
200901122250 METAR ESMX 122250Z 21013G23KT 140V240 2400 BR OVC005 02/01 Q1005=
200901122220 METAR ESMX 122220Z 21013KT 5000 BR OVC005 02/01 Q1006=
200901122150 METAR ESMX 122150Z 20013KT 4900 BR OVC004 02/01 Q1006=
200901122120 METAR ESMX 122120Z 21013KT 3100 -DZ BR OVC005 02/01 Q1007=
200901122050 METAR ESMX 122050Z 22014KT 4000 -DZ BR OVC006 02/01 Q1007=
200901122020 METAR ESMX 122020Z 21012KT 6000 -DZ BR OVC007 02/01 Q1007=
200901121950 METAR ESMX 121950Z 21014KT 180V240 9999 OVC009 02/00 Q1007=
200901121920 METAR ESMX 121920Z 22014KT 9999 OVC012 03/00 Q1007=
200901121850 METAR ESMX 121850Z 21013KT 9999 BKN014 03/M00 Q1007=
200901121820 METAR ESMX 121820Z 21014KT 9999 OVC017 03/M00 Q1007 REDZ=
200901121750 METAR ESMX 121750Z 21014KT 9999 -DZ OVC020 03/M01 Q1008 RERA=
200901121720 METAR ESMX 121720Z 21013KT 170V240 9999 OVC020 03/M01 Q1008=
200901121650 METAR ESMX 121650Z 21013KT 9999 OVC021 03/M01 Q1007=
200901121620 METAR ESMX 121620Z 21013KT 9999 OVC021 04/M01 Q1007=
200901121550 METAR ESMX 121550Z 21015KT 170V240 9999 SCT021 OVC026 04/M02 Q1007=
200901121520 METAR ESMX 121520Z 22016KT 9999 OVC022 04/M02 Q1007=
200901121450 METAR ESMX 121450Z 22014KT 9999 OVC021 04/M02 Q1007=
200901121350 METAR ESMX 121350Z 22014KT 9999 OVC021 05/M01 Q1008=
200901121320 METAR ESMX 121320Z 22015G27KT 200V260 9999 BKN020 05/M02 Q1008=
200901121220 METAR ESMX 121220Z 22015G25KT 9999 FEW017 BKN022 05/M01 Q1008=
200901121150 METAR ESMX 121150Z 22015KT 190V250 9999 BKN025 04/M02 Q1008=
200901121120 METAR ESMX 121120Z 21017KT 9999 BKN021 04/M02 Q1008=
200901121050 METAR ESMX 121050Z 21016KT 9999 BKN025 05/M02 Q1009=
200901121020 METAR ESMX 121020Z 20013KT 9999 BKN020 04/M02 Q1009=
200901120950 METAR ESMX 120950Z 20015KT 9999 SCT020 BKN045 03/M03 Q1009=
200901120920 METAR ESMX 120920Z 21015KT 9999 BKN020 03/M03 Q1010=
200901120850 METAR ESMX 120850Z 21015KT 9999 BKN020 03/M03 Q1010=
200901120820 METAR ESMX 120820Z 21013KT 9999 SCT022 03/M03 Q1010=
200901120750 METAR ESMX 120750Z 20014KT 9999 BKN027 03/M03 Q1010=
200901120720 METAR ESMX 120720Z 20013KT 9999 FEW035 03/M03 Q1010=
200901120650 METAR ESMX 120650Z 21013KT CAVOK 04/M03 Q1010=
200901120620 METAR ESMX 120620Z 21015KT CAVOK 04/M03 Q1010=
200901120550 METAR ESMX 120550Z 21014KT CAVOK 04/M03 Q1010=
200901120520 METAR ESMX 120520Z 21014KT 170V240 CAVOK 03/M03 Q1011=
200901120450 METAR ESMX 120450Z AUTO 20013KT 9999NDV FEW076/// 03/M03 Q1011=
200901120420 METAR ESMX 120420Z AUTO 20013KT 9999NDV SCT096/// 03/M03 Q1011=
200901120350 METAR ESMX 120350Z AUTO 22013KT 9999NDV BKN095/// 04/M03 Q1011=
200901120320 METAR ESMX 120320Z AUTO 22012KT 190V250 9999NDV FEW053/// SCT092/// 04/M03 Q1012=
200901120250 METAR ESMX 120250Z AUTO 22012KT 9999NDV FEW062/// 04/M03 Q1012=
200901120220 METAR ESMX 120220Z AUTO 21013KT 190V250 9999NDV FEW063/// SCT091/// 04/M03 Q1012=
200901120150 METAR ESMX 120150Z AUTO 22012KT 200V260 9999NDV FEW066/// BKN080/// 04/M03 Q1013=
200901120120 METAR ESMX 120120Z 22013KT 170V250 9999 SCT039 BKN046 03/M03 Q1013=
200901120050 METAR ESMX 120050Z 22014KT 9999 FEW036 BKN041 04/M03 Q1012=
200901120020 METAR ESMX 120020Z 21014KT 9999 SCT091 03/M03 Q1013=
200901112350 METAR ESMX 112350Z 23011G21KT 200V260 9999 BKN034 BKN098 03/M02 Q1013=
200901112320 METAR ESMX 112320Z 22012KT 9999 FEW025 BKN029 OVC036 03/M02 Q1013=
200901112250 METAR ESMX 112250Z 21010KT 180V240 9999 BKN034 BKN058 02/M03 Q1014=
200901112220 METAR ESMX 112220Z 21009KT 9999 SCT032 02/M03 Q1014=
200901112150 METAR ESMX 112150Z 21010KT 9999 BR OVC032 01/M03 Q1014=
200901112120 METAR ESMX 112120Z 21010KT 8000 BR BKN032 01/M03 Q1014=
200901112050 METAR ESMX 112050Z 20010KT 7000 BR BKN034 00/M03 Q1014=
200901112020 METAR ESMX 112020Z 20012KT 7000 BR FEW040 M00/M03 Q1014=
200901111950 METAR ESMX 111950Z 20011KT 6000 BR NSC M01/M03 Q1015=
200901111920 METAR ESMX 111920Z 20011KT 6000 BR NSC M01/M03 Q1015=
200901111850 METAR ESMX 111850Z 20013KT 6000 BR NSC M01/M03 Q1015=
200901111820 METAR ESMX 111820Z 20013KT 6000 BR NSC M01/M03 Q1015=
200901111750 METAR ESMX 111750Z 20012KT 6000 BR NSC M01/M03 Q1015=
200901111720 METAR ESMX 111720Z 20012KT 6000 BR NSC M01/M03 Q1015=
200901111650 METAR ESMX 111650Z 21013KT 6000 BR FEW020 M01/M03 Q1016=
200901111620 METAR ESMX 111620Z 21012KT 6000 BR FEW019 M01/M03 Q1016=
200901111550 METAR ESMX 111550Z 21013KT 7000 BR SCT017 M00/M03 Q1016=
200901111520 METAR ESMX 111520Z 21013KT 7000 BR NSC M00/M02 Q1016=
200901111450 METAR ESMX 111450Z 20011KT 7000 BR NSC M00/M02 Q1016=
200901111420 METAR ESMX 111420Z 20013KT CAVOK 00/M02 Q1016=
200901111350 METAR ESMX 111350Z 20012KT CAVOK 01/M02 Q1017=
200901111320 METAR ESMX 111320Z 20012KT CAVOK 01/M02 Q1017=
200901111250 METAR ESMX 111250Z 20013KT CAVOK 01/M02 Q1017=
200901111220 METAR ESMX 111220Z 20014KT CAVOK 01/M02 Q1017=
200901111150 METAR ESMX 111150Z 20012KT CAVOK 00/M02 Q1018=
200901111120 METAR ESMX 111120Z 21011KT CAVOK M00/M03 Q1019=
200901111050 METAR ESMX 111050Z 20010KT CAVOK M00/M03 Q1019=
200901111020 METAR ESMX 111020Z 20011KT CAVOK M01/M03 Q1018=
200901110950 METAR ESMX 110950Z 22011KT CAVOK M01/M03 Q1019=
200901110920 METAR ESMX 110920Z AUTO 20013KT 9999NDV NCD M01/M03 Q1018=
200901110850 METAR ESMX 110850Z AUTO 20012KT 9999NDV NCD M01/M03 Q1019=
200901110820 METAR ESMX 110820Z AUTO 20012KT 9999NDV NCD M01/M03 Q1019=
200901110750 METAR ESMX 110750Z AUTO 20013KT 9999NDV NCD M01/M03 Q1019=
200901110720 METAR ESMX 110720Z AUTO 20012KT 9999NDV NCD M01/M03 Q1020=
200901110650 METAR ESMX 110650Z AUTO 20012KT 9999NDV NCD M01/M04 Q1020=
200901110620 METAR ESMX 110620Z AUTO 19010KT 9999NDV NCD M01/M03 Q1020=
200901110550 METAR ESMX 110550Z AUTO 19009KT 9999NDV NCD M01/M03 Q1020=
200901110520 METAR ESMX 110520Z AUTO 18009KT 9999NDV NCD M01/M02 Q1020=
200901110450 METAR ESMX 110450Z AUTO 19010KT 9999NDV NCD M01/M02 Q1020=
200901110420 METAR ESMX 110420Z AUTO 20010KT 9999NDV NCD M01/M02 Q1020=
200901110350 METAR ESMX 110350Z AUTO 19013KT 9999NDV FEW011/// M01/M02 Q1020=
200901110320 METAR ESMX 110320Z AUTO 19013KT 9999NDV SCT010/// M01/M02 Q1020=
200901110250 METAR ESMX 110250Z AUTO 20014KT 9999NDV SCT011/// M00/M02 Q1021=
200901110220 METAR ESMX 110220Z AUTO 21012KT 9999NDV BKN012/// 00/M02 Q1021=
200901110150 METAR ESMX 110150Z AUTO 21012KT 9999NDV BKN012/// 00/M02 Q1021=
200901110120 METAR ESMX 110120Z AUTO 20015KT 9999NDV BKN012/// 00/M02 Q1021=
200901110050 METAR ESMX 110050Z AUTO 21014KT 9999NDV OVC013/// 01/M01 Q1022=
200901110020 METAR ESMX 110020Z AUTO 21009KT 9999NDV OVC016/// 01/M02 Q1023=
200901102350 METAR ESMX 102350Z AUTO 21008KT 9999NDV OVC020/// 01/M02 Q1023=
200901102320 METAR ESMX 102320Z AUTO 22008KT 180V250 9999NDV FEW017/// OVC020/// 01/M02 Q1023=
200901102250 METAR ESMX 102250Z AUTO 23012KT 9999NDV OVC016/// 01/M02 Q1023=
200901102220 METAR ESMX 102220Z AUTO 23012KT 200V270 9999NDV BKN014/// OVC019/// 01/M02 Q1023=
200901102150 METAR ESMX 102150Z AUTO 22012KT 190V260 9999NDV OVC012/// 01/M01 Q1023=
200901102120 METAR ESMX 102120Z AUTO 23011KT 190V260 9999NDV OVC011/// 02/M00 Q1024=
200901102050 METAR ESMX 102050Z AUTO 23008KT 9999NDV OVC011/// 02/00 Q1024=
200901102020 METAR ESMX 102020Z AUTO 22008KT 9999NDV OVC015/// 02/00 Q1024=
200901101950 METAR ESMX 101950Z AUTO 22007KT 9999NDV OVC020/// 02/00 Q1024=
200901101920 METAR ESMX 101920Z AUTO 21008KT 9999NDV OVC021/// 02/00 Q1023=
200901101850 METAR ESMX 101850Z AUTO 21007KT 9999NDV FEW018/// OVC021/// 02/01 Q1023=
200901101820 METAR ESMX 101820Z AUTO 22008KT 9999NDV FEW010/// OVC020/// 02/01 Q1024=
200901101750 METAR ESMX 101750Z AUTO 24008KT 9999NDV FEW008/// SCT012/// BKN014/// 02/01 Q1024=
200901101720 METAR ESMX 101720Z AUTO 22005KT 9999NDV FEW011/// OVC015/// 02/01 Q1024=
200901101650 METAR ESMX 101650Z AUTO 24008KT 210V270 9999NDV FEW006/// BKN010/// OVC013/// 02/01 Q1024=
200901101620 METAR ESMX 101620Z AUTO 23007KT 190V260 8000NDV BR FEW005/// OVC007/// 02/02 Q1024=
200901101550 METAR ESMX 101550Z AUTO 24006KT 9000NDV BR FEW006/// OVC008/// 02/02 Q1024=
200901101520 METAR ESMX 101520Z AUTO 24007KT 8000NDV BR FEW005/// OVC007/// 02/02 Q1024=
200901101450 METAR ESMX 101450Z AUTO 24008KT 210V270 7000NDV BR BKN006/// OVC008/// 02/02 Q1024=
200901101420 METAR ESMX 101420Z AUTO 23006KT 8000NDV BR FEW005/// SCT007/// BKN009/// 02/02 Q1024=
200901101350 METAR ESMX 101350Z AUTO 25007KT 220V280 7000NDV BR BKN005/// OVC009/// 02/02 Q1024=
200901101320 METAR ESMX 101320Z AUTO 25007KT 220V280 6000NDV BR OVC004/// 02/02 Q1024=
200901101250 METAR ESMX 101250Z AUTO 25006KT 210V290 5000NDV BR BKN005/// OVC007/// 02/02 Q1024=
200901101220 METAR ESMX 101220Z AUTO 26008KT 6000NDV BR OVC003/// 02/02 Q1024=
200901101150 METAR ESMX 101150Z AUTO 25006KT 3000NDV BR SCT002/// BKN005/// OVC007/// 02/02 Q1025=
200901101120 METAR ESMX 101120Z AUTO 26008KT 230V300 4800NDV BR SCT003/// OVC004/// 02/02 Q1025=
200901101050 METAR ESMX 101050Z AUTO 26008KT 230V300 4400NDV BR OVC003/// 02/02 Q1025=
200901101020 METAR ESMX 101020Z AUTO 27008KT 2700NDV BR SCT003/// BKN005/// OVC007/// 02/02 Q1025=
200901100950 METAR ESMX 100950Z AUTO 25006G16KT 190V300 4500NDV BR FEW001/// OVC003/// 02/02 Q1025=
200901100920 METAR ESMX 100920Z AUTO 26008KT 230V290 3200NDV BR OVC001/// 02/02 Q1025=
200901100850 METAR ESMX 100850Z AUTO 26006KT 230V300 2200NDV BR OVC001/// 02/02 Q1025=
200901100820 METAR ESMX 100820Z AUTO 25006KT 220V290 1600NDV BR OVC001/// 02/02 Q1025=
200901100750 METAR ESMX 100750Z AUTO 27006KT 240V300 1800NDV BR OVC001/// 02/01 Q1025=
200901100720 METAR ESMX 100720Z AUTO 26005KT 220V290 1800NDV BR OVC001/// 02/01 Q1024=
200901100650 METAR ESMX 100650Z AUTO 27007KT 1600NDV BR OVC001/// 02/01 Q1024=
200901100620 METAR ESMX 100620Z AUTO 27007KT 240V320 2900NDV BR OVC001/// 02/01 Q1024=
200901100550 METAR ESMX 100550Z AUTO 26006KT 230V290 4300NDV BR OVC001/// 02/01 Q1024=
200901100520 METAR ESMX 100520Z AUTO 28009KT 5000NDV OVC001/// 02/02 Q1024=
200901100450 METAR ESMX 100450Z AUTO 26006KT 2900NDV OVC001/// 02/02 Q1024=
200901100420 METAR ESMX 100420Z AUTO 26006KT 1200NDV R01/P2000U R19/P2000D OVC001/// 02/02 Q1024=
200901100350 METAR ESMX 100350Z AUTO 27006KT 230V300 0500NDV R01/1600N R19/P2000N FG VV002 02/02 Q1024=
200901100320 METAR ESMX 100320Z AUTO 25005KT 0400NDV R01/1300N R19/P2000U FG VV001 02/02 Q1024=
200901100250 METAR ESMX 100250Z AUTO 26006KT 0650NDV R01/1900U R19/P2000D FG VV001 02/02 Q1024=
200901100220 METAR ESMX 100220Z AUTO 27005KT 230V320 1000NDV R01/P2000D R19/P2000D FG VV002 02/02 Q1024=
200901100150 METAR ESMX 100150Z AUTO 26006KT 230V290 0800NDV R01/P2000U R19/P2000D FG VV002 02/02 Q1024=
200901100120 METAR ESMX 100120Z AUTO 26006KT 230V290 0500NDV R01/1600D R19/P2000N FG VV001 02/02 Q1023=
200901100050 METAR ESMX 100050Z AUTO 26006KT 220V290 0800NDV R01/P2000U R19/P2000N FG VV002 02/02 Q1023=
200901100020 METAR ESMX 100020Z AUTO 25006KT 0600NDV R01/1900D R19/P2000N FG VV001 02/02 Q1024=
200901092350 METAR ESMX 092350Z AUTO 23007KT 0450NDV R01/1400N R19/1700N FG VV001 02/02 Q1023=
200901092320 METAR ESMX 092320Z AUTO 25005KT 0400NDV R01/1300U R19/1400N FG VV001 02/02 Q1023=
200901092250 METAR ESMX 092250Z AUTO 25006KT 210V280 0300NDV R01/1100N R19/1200N FG VV001 02/02 Q1023=
200901092220 METAR ESMX 092220Z AUTO 22004KT 0250NDV R01/0900N R19/0900N FG VV001 02/02 Q1023=
200901092150 METAR ESMX 092150Z AUTO 25004KT 200V290 0200NDV R01/0700 R19/0900N FG VV001 03/02 Q1023=
200901092120 METAR ESMX 092120Z AUTO 25003KT 220V290 0200NDV R01/0800N R19/0800V1200D FG VV001 03/02 Q1023=
200901092050 METAR ESMX 092050Z 29004KT 250V330 0400 R01/1300N R19/1200VP2000N FG VV002 03/02 Q1022=
200901092020 METAR ESMX 092020Z 27004KT 240V310 0800 R01/P2000D R19/P2000N FG VV002 03/03 Q1022=
200901091950 METAR ESMX 091950Z 26004KT 4000 BR OVC002 03/03 Q1022=
200901091920 METAR ESMX 091920Z 26004KT 220V290 7000 BR OVC002 03/03 Q1022=
200901091850 METAR ESMX 091850Z 26004KT 8000 BR OVC002 04/03 Q1022=
200901091820 METAR ESMX 091820Z 29004KT 250V320 9000 BR OVC002 04/03 Q1021=
200901091750 METAR ESMX 091750Z 30006KT 9999 OVC003 04/03 Q1021=
200901091720 METAR ESMX 091720Z 30005KT 260V330 9999 BKN004 04/03 Q1021=
200901091650 METAR ESMX 091650Z 29007KT 9999 BKN005 04/03 Q1020=
200901091620 METAR ESMX 091620Z 27007KT 250V320 9999 BKN006 04/03 Q1020=
200901091550 METAR ESMX 091550Z 28007KT 9999 BKN005 04/03 Q1020=
200901091520 METAR ESMX 091520Z 27007KT 9999 BKN006 04/03 Q1019=
200901091450 METAR ESMX 091450Z 28006KT 250V310 9999 SCT008 04/03 Q1019=
200901091420 METAR ESMX 091420Z 28006KT 9999 FEW010 04/03 Q1019=
200901091350 METAR ESMX 091350Z 27008KT 9999 FEW010 05/03 Q1018=
200901091320 METAR ESMX 091320Z 27006KT 9999 FEW010 05/03 Q1018=
200901091250 METAR ESMX 091250Z 27006KT 230V290 9999 FEW015 06/03 Q1018=
200901091220 METAR ESMX 091220Z 26008KT 9999 FEW012 06/04 Q1017=
200901091150 METAR ESMX 091150Z 27007KT 9999 SCT011 06/04 Q1017=
200901091120 METAR ESMX 091120Z 27006KT 9999 FEW008 SCT012 06/04 Q1017=
200901091050 METAR ESMX 091050Z 25004KT 200V290 9999 FEW010 SCT014 05/03 Q1017=
200901091020 METAR ESMX 091020Z 26005KT 230V300 9999 FEW010 05/03 Q1016=
200901090950 METAR ESMX 090950Z 27008KT 240V300 9999 BKN009 05/03 Q1016=
200901090920 METAR ESMX 090920Z 26008KT 9999 BKN009 05/03 Q1016=
200901090820 METAR ESMX 090820Z 27007KT 240V310 9999 OVC009 05/03 Q1015=
200901090750 METAR ESMX 090750Z 27008KT 230V300 9999 FEW008 BKN011 05/03 Q1014=
200901090720 METAR ESMX 090720Z 27008KT 240V310 9999 FEW008 BKN010 04/03 Q1014=
200901090650 METAR ESMX 090650Z 27010KT 9999 BR FEW006 BKN008 04/03 Q1014=
200901090620 METAR ESMX 090620Z 27010KT 8000 BR OVC005 04/03 Q1014=
200901090550 METAR ESMX 090550Z 27011KT 5000 -DZ SCT005 BKN007 04/03 Q1013=
200901090520 METAR ESMX 090520Z 28011KT 5000 -DZ SCT005 BKN007 04/03 Q1013=
200901090450 METAR ESMX 090450Z AUTO 28009KT 250V320 5000NDV BR OVC005/// 04/03 Q1013=
200901090420 METAR ESMX 090420Z AUTO 27012KT 6000NDV BR OVC006/// 04/03 Q1012=
200901090350 METAR ESMX 090350Z AUTO 27012KT 8000NDV BR OVC006/// 04/03 Q1012=
200901090320 METAR ESMX 090320Z AUTO 26011KT 200V320 9999NDV OVC007/// 04/03 Q1012=
200901090250 METAR ESMX 090250Z AUTO 27012KT 240V300 9999NDV OVC007/// 04/03 Q1012=
200901090220 METAR ESMX 090220Z AUTO 27012KT 9999NDV OVC008/// 04/03 Q1012=
200901090150 METAR ESMX 090150Z AUTO 26015G26KT 9999NDV OVC008/// 04/02 Q1012=
200901090120 METAR ESMX 090120Z AUTO 26014G24KT 220V290 9999NDV FEW009/// OVC011/// 04/02 Q1012=
200901090050 METAR ESMX 090050Z AUTO 26014G24KT 230V290 9999NDV OVC011/// 04/02 Q1013=
200901090020 METAR ESMX 090020Z 26014G24KT 9999 BKN011 OVC015 04/02 Q1012=
200901082350 METAR ESMX 082350Z 26014KT 230V290 9999 OVC011 04/02 Q1012=
200901082320 METAR ESMX 082320Z 26014G24KT 220V290 9999 FEW013 OVC015 04/02 Q1013=
200901082250 METAR ESMX 082250Z 26014KT 230V290 9999 FEW013 BKN016 OVC020 04/02 Q1013=
200901082220 METAR ESMX 082220Z 27012G23KT 9999 FEW012 BKN015 OVC019 04/02 Q1013=
200901082150 METAR ESMX 082150Z 27013KT 240V310 9999 FEW011 OVC013 04/02 Q1013=
200901082120 METAR ESMX 082120Z 26014KT 9999 SCT010 OVC015 04/02 Q1013=
200901082050 METAR ESMX 082050Z 25014KT 220V290 9999 FEW010 OVC014 04/02 Q1013=
200901082020 METAR ESMX 082020Z 26013KT 9999 FEW006 SCT009 BKN011 04/03 Q1013=
200901081950 METAR ESMX 081950Z 26013KT 230V290 9999 -DZ SCT002 BKN006 03/03 Q1013=
200901081920 METAR ESMX 081920Z 26013KT 230V290 4900 BR SCT002 OVC004 03/02 Q1013=
200901081850 METAR ESMX 081850Z 26013KT 3000 -DZ OVC002 03/02 Q1013=
200901081820 METAR ESMX 081820Z 26012G23KT 3400 BR OVC002 03/02 Q1013=
200901081750 METAR ESMX 081750Z 26013KT 3000 DZ BR OVC002 02/02 Q1013=
200901081720 METAR ESMX 081720Z 26013G24KT 230V290 2300 DZ BR OVC002 02/02 Q1013=
200901081650 METAR ESMX 081650Z 26015KT 2400 DZ BR OVC003 02/02 Q1013=
200901081620 METAR ESMX 081620Z 25013KT 210V280 2300 DZ BR OVC002 02/02 Q1014=
200901081520 METAR ESMX 081520Z 26015KT 220V290 2100 DZ BR OVC002 02/01 Q1014=
200901081450 METAR ESMX 081450Z 25012KT 3000 BR OVC002 01/01 Q1014=
200901081420 METAR ESMX 081420Z 25012KT 220V280 4000 -DZ BR OVC002 01/01 Q1014=
200901081350 METAR ESMX 081350Z 25012KT 210V280 5000 BR OVC002 01/00 Q1015=
200901081320 METAR ESMX 081320Z 24011KT 9000 -DZ BR OVC003 00/M00 Q1015=
200901081220 METAR ESMX 081220Z 23012KT 200V260 7000 BR SCT006 BKN009 OVC011 M01/M02 Q1016=
200901081150 METAR ESMX 081150Z 22011KT 200V260 3500 -SN FEW007 BKN009 OVC012 M02/M03 Q1016=
200901081120 METAR ESMX 081120Z 23013KT 5000 -SN FEW007 OVC010 M02/M04 Q1016=
200901081050 METAR ESMX 081050Z 22012KT 5000 -SN FEW007 OVC008 M03/M04 Q1017=
200901081020 METAR ESMX 081020Z 21012KT 4700 -SN FEW007 BKN009 BKN015 M03/M04 Q1017=
200901080950 METAR ESMX 080950Z 19011KT 9999 -SN FEW010 BKN031 M04/M05 Q1018 RESG=
200901080920 METAR ESMX 080920Z 21007KT 7000 -SN FEW028 SCT041 M05/M06 Q1019=
200901080850 METAR ESMX 080850Z 20007KT 2300 -SN FEW014 SCT028 BKN041 M05/M06 Q1019=
200901080820 METAR ESMX 080820Z 22007KT 5000 -SN FEW008 SCT050 M06/M07 Q1020=
200901080750 METAR ESMX 080750Z 20007KT 4900 -SN FEW009 M08/M09 Q1020=
200901080720 METAR ESMX 080720Z 20007KT 9999 FEW028 M08/M10 Q1020=
200901080650 METAR ESMX 080650Z 20007KT 9999 FEW028 M09/M11 Q1020=
200901080620 METAR ESMX 080620Z 20007KT CAVOK M10/M12 Q1020=
200901080550 METAR ESMX 080550Z 21006KT CAVOK M11/M13 Q1020=
200901080520 METAR ESMX 080520Z 21006KT CAVOK M12/M14 Q1021=
200901080451 METAR COR ESMX 080451Z 21004KT CAVOK M12/M14 Q1021=
200901080420 METAR ESMX 080420Z AUTO 20003KT 160V230 9999NDV NCD M13/M14 Q1021=
200901080350 METAR ESMX 080350Z AUTO 23004KT 9999NDV NCD M12/M14 Q1021=
200901080320 METAR ESMX 080320Z AUTO 23004KT 9999NDV NCD M12/M13 Q1022=
200901080250 METAR ESMX 080250Z AUTO 26003KT 9999NDV NCD M11/M12 Q1022=
200901080220 METAR ESMX 080220Z AUTO 26004KT 9999NDV NCD M11/M12 Q1022=
200901080150 METAR ESMX 080150Z AUTO 26005KT 9999NDV NCD M11/M12 Q1022=
200901080120 METAR ESMX 080120Z AUTO 26005KT 9999NDV NCD M11/M12 Q1021=
200901080050 METAR ESMX 080050Z AUTO 27006KT 9999NDV NCD M10/M12 Q1021=
200901080020 METAR ESMX 080020Z 28004KT CAVOK M11/M12 Q1021=
200901072350 METAR ESMX 072350Z 27006KT CAVOK M11/M12 Q1021=
200901072320 METAR ESMX 072320Z 26005KT CAVOK M11/M12 Q1020=
200901072250 METAR ESMX 072250Z 28005KT CAVOK M10/M11 Q1020=
200901072220 METAR ESMX 072220Z 28005KT CAVOK M10/M11 Q1020=
200901072150 METAR ESMX 072150Z 28005KT CAVOK M10/M11 Q1019=
200901072120 METAR ESMX 072120Z 27003KT CAVOK M11/M12 Q1019=
200901072050 METAR ESMX 072050Z 25002KT CAVOK M11/M12 Q1019=
200901072020 METAR ESMX 072020Z 28003KT CAVOK M10/M11 Q1018=
200901071950 METAR ESMX 071950Z 29004KT CAVOK M09/M10 Q1018=
200901071920 METAR ESMX 071920Z 29005KT CAVOK M08/M10 Q1017=
200901071850 METAR ESMX 071850Z 30006KT CAVOK M08/M10 Q1017=
200901071820 METAR ESMX 071820Z 31005KT 280V340 CAVOK M08/M09 Q1016=
200901071750 METAR ESMX 071750Z 30006KT CAVOK M07/M09 Q1016=
200901071720 METAR ESMX 071720Z 29005KT CAVOK M07/M09 Q1015=
200901071650 METAR ESMX 071650Z 31005KT CAVOK M07/M08 Q1015=
200901071620 METAR ESMX 071620Z 30005KT CAVOK M07/M08 Q1014=
200901071550 METAR ESMX 071550Z 31006KT CAVOK M06/M08 Q1014=
200901071520 METAR ESMX 071520Z 31007KT CAVOK M06/M08 Q1013=
200901071450 METAR ESMX 071450Z 32007KT CAVOK M05/M07 Q1013=
200901071420 METAR ESMX 071420Z 32006KT 290V010 CAVOK M05/M07 Q1012=
200901071350 METAR ESMX 071350Z 31004KT CAVOK M04/M07 Q1011=
200901071250 METAR ESMX 071250Z 33007KT CAVOK M04/M07 Q1010=
200901071220 METAR ESMX 071220Z 34007KT CAVOK M04/M07 Q1010=
200901071150 METAR ESMX 071150Z 33007KT CAVOK M04/M07 Q1009=
200901071120 METAR ESMX 071120Z 34009KT CAVOK M04/M07 Q1009=
200901071050 METAR ESMX 071050Z 34008KT CAVOK M04/M07 Q1008=
200901071020 METAR ESMX 071020Z 32006KT CAVOK M05/M07 Q1008=
200901070950 METAR ESMX 070950Z 33006KT 300V360 CAVOK M04/M07 Q1008=
200901070920 METAR ESMX 070920Z 34007KT CAVOK M05/M07 Q1007=
200901070850 METAR ESMX 070850Z 33008KT CAVOK M05/M06 Q1006=
200901070820 METAR ESMX 070820Z 32007KT 280V340 CAVOK M05/M06 Q1006=
200901070750 METAR ESMX 070750Z 31006KT 9999 FEW023 M04/M06 Q1005=
200901070720 METAR ESMX 070720Z 32007KT 9999 FEW018 SCT023 BKN027 M03/M05 Q1004=
200901070650 METAR ESMX 070650Z 31008KT 9999 BKN026 M03/M05 Q1004=
200901070620 METAR ESMX 070620Z 32008KT 9999 FEW025 BKN029 M02/M04 Q1003=
200901070550 METAR ESMX 070550Z 32008KT 9999 FEW020 SCT030 M03/M04 Q1003=
200901070520 METAR ESMX 070520Z 32010KT 290V350 9999 FEW015 SCT021 BKN025 M02/M03 Q1002=
200901070450 METAR ESMX 070450Z 33012KT 9999 FEW014 BKN016 BKN020 M01/M03 Q1002=
200901070420 METAR ESMX 070420Z AUTO 32010KT 1200NDV R01/P2000D R19/P2000 FEW057/// SCT076/// BKN096/// M01/M02 Q1001=
200901070350 METAR ESMX 070350Z AUTO 33009KT 9999NDV FEW012/// BKN048/// M00/M01 Q1001 REFZRA RESN RESG=
200901070320 METAR ESMX 070320Z AUTO 32009KT 9999NDV FEW009/// SCT014/// BKN016/// 00/M00 Q1000 RERA RESN RESG=
200901070250 METAR ESMX 070250Z AUTO 30007KT 2500NDV RA FEW003/// SCT006/// BKN009/// 00/00 Q1000 RESN=
200901070220 METAR ESMX 070220Z AUTO 28008KT 1500NDV RA BKN004/// OVC007/// 00/00 Q1000 RESN=
200901070150 METAR ESMX 070150Z AUTO 25007KT 5000NDV -SN FEW003/// BKN005/// OVC007/// 00/M00 Q0999 RESG=
200901070120 METAR ESMX 070120Z 22007KT 2300 -SN BKN004 OVC007 M00/M00 Q0999=
200901070050 METAR ESMX 070050Z 23009KT 2000 -SN FEW004 BKN006 OVC010 M00/M01 Q1000=
200901070020 METAR ESMX 070020Z 22011KT 2000 -SN FEW006 SCT007 BKN009 M00/M01 Q1000=
200901062350 METAR ESMX 062350Z 22013KT 2100 -SN FEW006 SCT009 BKN011 M00/M01 Q1000=
200901062320 METAR ESMX 062320Z 22013KT 1900 -SN FEW006 SCT009 BKN012 M00/M01 Q1001=
200901062250 METAR ESMX 062250Z 23014KT 200V260 1600 -SN FEW006 SCT008 BKN012 M00/M01 Q1002=
200901062220 METAR ESMX 062220Z 24015KT 1700 -SN FEW007 BKN010 M00/M01 Q1002=
200901062150 METAR ESMX 062150Z 22015KT 1500 -SN FEW007 SCT009 BKN011 M00/M01 Q1003=
200901062120 METAR ESMX 062120Z 23015KT 3000 -SN FEW007 BKN011 M00/M01 Q1003=
200901062050 METAR ESMX 062050Z 23014KT 190V260 1000 R01/P2000D R19/P2000 SN FEW008 BKN012 M00/M01 Q1004=
200901062020 METAR ESMX 062020Z 24014G26KT 9999 -SN OVC012 00/M02 Q1004=
200901061950 METAR ESMX 061950Z 24015KT 200V260 9999 BKN014 OVC020 00/M02 Q1005=
200901061920 METAR ESMX 061920Z 24016G26KT 210V270 9999 BKN015 OVC020 00/M02 Q1005=
200901061850 METAR ESMX 061850Z 24014G25KT 200V290 9999 BKN016 OVC022 00/M02 Q1006=
200901061820 METAR ESMX 061820Z 25014KT 9999 BKN016 OVC022 00/M02 Q1006=
200901061750 METAR ESMX 061750Z 24015KT 9999 OVC017 00/M02 Q1006=
200901061720 METAR ESMX 061720Z 26015KT 9999 BKN020 00/M02 Q1007=
200901061650 METAR ESMX 061650Z 24013G25KT 210V270 9999 OVC018 00/M02 Q1008=
200901061620 METAR ESMX 061620Z 25014G24KT 220V280 9999 OVC018 00/M02 Q1008=
200901061550 METAR ESMX 061550Z 25013G26KT 210V310 9999 BKN020 OVC030 00/M02 Q1009=
200901061520 METAR ESMX 061520Z 25013KT 9999 FEW017 SCT019 BKN023 00/M02 Q1009=
200901061420 METAR ESMX 061420Z 24011KT 210V280 9999 FEW017 SCT023 BKN029 00/M02 Q1010=
200901061320 METAR ESMX 061320Z 25011KT 9999 FEW013 BKN019 00/M02 Q1010=
200901061220 METAR ESMX 061220Z AUTO 25011G23KT 210V320 9999NDV FEW013/// SCT016/// OVC020/// 00/M02 Q1011=
200901061150 METAR ESMX 061150Z AUTO 23010KT 200V260 9999NDV FEW012/// SCT016/// BKN019/// M00/M02 Q1012=
200901061120 METAR ESMX 061120Z AUTO 23009KT 200V260 9999NDV FEW011/// SCT013/// BKN017/// M01/M02 Q1012=
200901061050 METAR ESMX 061050Z AUTO 23012KT 9999NDV FEW008/// SCT013/// BKN039/// M01/M02 Q1013=
200901061020 METAR ESMX 061020Z AUTO 23008KT 200V260 9999NDV FEW007/// SCT009/// BKN011/// M02/M03 Q1013=
200901060950 METAR ESMX 060950Z AUTO 22010KT 9999NDV FEW006/// SCT008/// BKN010/// M02/M03 Q1014=
200901060920 METAR ESMX 060920Z AUTO 22009KT 9999NDV BKN005/// OVC010/// M02/M03 Q1015=
200901060850 METAR ESMX 060850Z AUTO 23008KT 9999NDV OVC005/// M03/M03 Q1015=
200901060820 METAR ESMX 060820Z AUTO 21007KT 9999NDV FEW004/// OVC006/// M03/M04 Q1015=
200901060750 METAR ESMX 060750Z AUTO 22007KT 9999NDV OVC004/// M04/M04 Q1016=
200901060720 METAR ESMX 060720Z AUTO 21006KT 9999NDV OVC005/// M04/M05 Q1016=
200901060650 METAR ESMX 060650Z AUTO 23007KT 9999NDV OVC005/// M04/M05 Q1016=
200901060620 METAR ESMX 060620Z AUTO 23007KT 9999NDV OVC005/// M05/M06 Q1017=
200901060550 METAR ESMX 060550Z AUTO 21008KT 9999NDV OVC005/// M06/M07 Q1017=
200901060520 METAR ESMX 060520Z AUTO 22007KT 9999NDV FEW007/// SCT018/// BKN020/// M06/M07 Q1018=
200901060450 METAR ESMX 060450Z AUTO 21007KT 9999NDV BKN016/// BKN021/// M06/M07 Q1018=
200901060420 METAR ESMX 060420Z AUTO 21007KT 9999NDV BKN031/// M07/M08 Q1019=
200901060350 METAR ESMX 060350Z AUTO 22006KT 9999NDV BKN031/// M08/M09 Q1019=
200901060320 METAR ESMX 060320Z AUTO 22006KT 9999NDV FEW027/// M09/M10 Q1020=
200901060250 METAR ESMX 060250Z AUTO 22006KT 9999NDV NCD M10/M11 Q1020=
200901060220 METAR ESMX 060220Z AUTO 21004KT 9999NDV NCD M11/M12 Q1021=
200901060150 METAR ESMX 060150Z AUTO 21005KT 9999NDV BKN001/// M11/M13 Q1021=
200901060120 METAR ESMX 060120Z AUTO 22004KT 9999NDV NCD M11/M12 Q1021=
200901060050 METAR ESMX 060050Z AUTO 22003KT 9999NDV NCD M12/M14 Q1022=
200901060020 METAR ESMX 060020Z AUTO 19003KT 9999NDV SCT010/// M12/M13 Q1022=
200901052350 METAR ESMX 052350Z AUTO 22003KT 9999NDV BKN009/// M11/M12 Q1023=
200901052320 METAR ESMX 052320Z AUTO 23004KT 9999NDV FEW009/// SCT011/// M12/M13 Q1023=
200901052250 METAR ESMX 052250Z AUTO 22004KT 9999NDV NCD M13/M15 Q1023=
200901052220 METAR ESMX 052220Z AUTO 23003KT 1300NDV R01/P2000U R19/P2000U NCD M12/M13 Q1023 RESN=
200901052150 METAR ESMX 052150Z 24003KT 5000 -SN SCT002 M13/M15 Q1023 RESN=
200901052120 METAR ESMX 052120Z 24001KT 9999 FEW003 M13/M14 Q1024=
200901052050 METAR ESMX 052050Z 28004KT 9999 SCT002 M12/M13 Q1024 RESN=
200901052020 METAR ESMX 052020Z 25003KT 8000 IC FEW002 M13/M14 Q1024=
200901051920 METAR ESMX 051920Z 26003KT 5000 IC NSC M14/M15 Q1024=
200901051850 METAR ESMX 051850Z 25003KT 5000 IC NSC M14/M15 Q1024=
200901051820 METAR ESMX 051820Z 25002KT 5000 IC NSC M13/M15 Q1024=
200901051750 METAR ESMX 051750Z 24003KT 9000 CI NSC M13/M14 Q1024=
200901051720 METAR ESMX 051720Z 19004KT 9000 IC NSC M13/M14 Q1024=
200901051650 METAR ESMX 051650Z 25003KT CAVOK M14/M16 Q1024=
200901051620 METAR ESMX 051620Z 25002KT CAVOK M13/M14 Q1024=
200901051550 METAR ESMX 051550Z 27002KT CAVOK M12/M13 Q1024=
200901051520 METAR ESMX 051520Z 27002KT CAVOK M11/M12 Q1024=
200901051420 METAR ESMX 051420Z 26003KT CAVOK M08/M10 Q1024=
200901051350 METAR ESMX 051350Z 28004KT CAVOK M07/M09 Q1024=
200901051320 METAR ESMX 051320Z 29004KT CAVOK M07/M09 Q1024=
200901051250 METAR ESMX 051250Z VRB02KT CAVOK M07/M09 Q1023=
200901051220 METAR ESMX 051220Z 32005KT CAVOK M07/M09 Q1023=
200901051150 METAR ESMX 051150Z 31004KT CAVOK M08/M10 Q1023=
200901051120 METAR ESMX 051120Z 32005KT CAVOK M09/M10 Q1023=
200901051050 METAR ESMX 051050Z 29004KT CAVOK M09/M10 Q1023=
200901051020 METAR ESMX 051020Z VRB02KT CAVOK M10/M11 Q1023=
200901050950 METAR ESMX 050950Z 00000KT 9999 FEW007 M11/M12 Q1023=
200901050920 METAR ESMX 050920Z 00000KT 9999 SCT007 M12/M13 Q1023=
200901050820 METAR ESMX 050820Z 29003KT 9999 FEW007 M15/M16 Q1022=
200901050720 METAR ESMX 050720Z 31001KT 9999 SCT007 M17/M18 Q1022=
200901050650 METAR ESMX 050650Z 00000KT CAVOK M17/M19 Q1021=
200901050620 METAR ESMX 050620Z 00000KT CAVOK M16/M18 Q1021=
200901050550 METAR ESMX 050550Z 00000KT CAVOK M17/M18 Q1020=
200901050520 METAR ESMX 050520Z 29001KT CAVOK M17/M18 Q1020=
200901050450 METAR ESMX 050450Z 34002KT CAVOK M16/M18 Q1020=
200901050420 METAR ESMX 050420Z AUTO 28002KT 9999NDV NCD M16/M18 Q1020=
200901050350 METAR ESMX 050350Z AUTO 29001KT 9999NDV NCD M16/M18 Q1020=
200901050320 METAR ESMX 050320Z AUTO 33002KT 9999NDV NCD M17/M18 Q1020=
200901050250 METAR ESMX 050250Z AUTO VRB02KT 9999NDV NCD M15/M17 Q1019=
200901050220 METAR ESMX 050220Z AUTO 02003KT 9999NDV NCD M14/M17 Q1019=
200901050150 METAR ESMX 050150Z AUTO 03004KT 9999NDV NCD M12/M15 Q1019=
200901050120 METAR ESMX 050120Z 03003KT CAVOK M13/M14 Q1019=
200901050050 METAR ESMX 050050Z 01004KT CAVOK M12/M14 Q1019=
200901042350 METAR ESMX 042350Z 02006KT CAVOK M13/M14 Q1018=
200901042250 METAR ESMX 042250Z 01006KT CAVOK M13/M14 Q1018=
200901042220 METAR ESMX 042220Z 02006KT CAVOK M12/M14 Q1018=
200901042150 METAR ESMX 042150Z 02006KT CAVOK M12/M13 Q1017=
200901042120 METAR ESMX 042120Z 01006KT CAVOK M13/M14 Q1017=
200901042050 METAR ESMX 042050Z 01004KT CAVOK M12/M14 Q1017=
200901042020 METAR ESMX 042020Z 02005KT CAVOK M12/M13 Q1017=
200901041950 METAR ESMX 041950Z 01005KT CAVOK M12/M13 Q1016=
200901041850 METAR ESMX 041850Z 01005KT CAVOK M11/M13 Q1016=
200901041820 METAR ESMX 041820Z 01005KT CAVOK M11/M13 Q1016=
200901041750 METAR ESMX 041750Z 01004KT CAVOK M11/M12 Q1015=
200901041720 METAR ESMX 041720Z 01005KT CAVOK M11/M12 Q1015=
200901041650 METAR ESMX 041650Z 36004KT CAVOK M11/M12 Q1015=
200901041620 METAR ESMX 041620Z 01004KT CAVOK M10/M12 Q1015=
200901041550 METAR ESMX 041550Z 02005KT CAVOK M10/M12 Q1015=
200901041520 METAR ESMX 041520Z 02006KT CAVOK M09/M12 Q1014=
200901041450 METAR ESMX 041450Z 01006KT CAVOK M09/M12 Q1014=
200901041420 METAR ESMX 041420Z 02006KT CAVOK M07/M11 Q1014=
200901041350 METAR ESMX 041350Z 01005KT CAVOK M07/M11 Q1014=
200901041320 METAR ESMX 041320Z 01005KT CAVOK M06/M10 Q1014=
200901041250 METAR ESMX 041250Z 01004KT CAVOK M06/M09 Q1014=
200901041220 METAR ESMX 041220Z 02006KT CAVOK M06/M09 Q1014=
200901041150 METAR ESMX 041150Z 03005KT CAVOK M07/M09 Q1014=
200901041120 METAR ESMX 041120Z 01005KT CAVOK M07/M09 Q1014=
200901041050 METAR ESMX 041050Z 01005KT CAVOK M08/M10 Q1014=
200901041020 METAR ESMX 041020Z 02005KT CAVOK M08/M10 Q1014=
200901040950 METAR ESMX 040950Z 01005KT CAVOK M09/M10 Q1014=
200901040920 METAR ESMX 040920Z 36006KT CAVOK M09/M11 Q1014=
200901040850 METAR ESMX 040850Z AUTO 02004KT 9999NDV NCD M10/M11 Q1014=
200901040820 METAR ESMX 040820Z AUTO 03004KT 9999NDV FEW082/// M09/M10 Q1014=
200901040750 METAR ESMX 040750Z AUTO 02005KT 9999NDV BKN082/// M09/M10 Q1014=
200901040720 METAR ESMX 040720Z AUTO 01005KT 9999NDV BKN081/// M09/M10 Q1013=
200901040650 METAR ESMX 040650Z AUTO 02005KT 9999NDV BKN082/// M09/M10 Q1013=
200901040620 METAR ESMX 040620Z AUTO 03004KT 9999NDV OVC082/// M10/M11 Q1013=
200901040550 METAR ESMX 040550Z AUTO 33004KT 9999NDV BKN082/// M11/M12 Q1013=
200901040520 METAR ESMX 040520Z AUTO 35004KT 9999NDV BKN083/// M10/M11 Q1013=
200901040450 METAR ESMX 040450Z AUTO 01004KT 9999NDV BKN083/// M10/M11 Q1013=
200901040420 METAR ESMX 040420Z AUTO 02005KT 9999NDV BKN084/// M09/M10 Q1013=
200901040350 METAR ESMX 040350Z AUTO 02005KT 9999NDV BKN083/// M09/M09 Q1012=
200901040320 METAR ESMX 040320Z AUTO 01005KT 9999NDV BKN084/// M09/M10 Q1012=
200901040250 METAR ESMX 040250Z AUTO 36006KT 9999NDV BKN085/// M09/M10 Q1012=
200901040220 METAR ESMX 040220Z AUTO 35004KT 9999NDV BKN086/// M09/M10 Q1012=
200901040150 METAR ESMX 040150Z AUTO 36006KT 9999NDV SCT090/// M09/M10 Q1012=
200901040120 METAR ESMX 040120Z AUTO 01006KT 9999NDV FEW092/// M09/M10 Q1012=
200901040050 METAR ESMX 040050Z AUTO 01005KT 9999NDV NCD M08/M09 Q1012=
200901040020 METAR ESMX 040020Z AUTO 36007KT 9999NDV FEW088/// M07/M08 Q1012=
200901032350 METAR ESMX 032350Z AUTO 36007KT 9999NDV SCT083/// M07/M08 Q1012=
200901032320 METAR ESMX 032320Z AUTO 36008KT 9999NDV NCD M07/M08 Q1011=
200901032250 METAR ESMX 032250Z AUTO 35007KT 9999NDV NCD M07/M08 Q1011=
200901032220 METAR ESMX 032220Z AUTO 35006KT 9999NDV FEW100/// M07/M09 Q1011=
200901032150 METAR ESMX 032150Z AUTO 35006KT 9999NDV NCD M06/M08 Q1011=
200901032120 METAR ESMX 032120Z AUTO 35007KT 9999NDV NCD M05/M07 Q1010=
200901032050 METAR ESMX 032050Z AUTO 36009KT 9999NDV BKN013/// M04/M06 Q1010=
200901032020 METAR ESMX 032020Z AUTO 02009KT 9999NDV BKN014/// M04/M06 Q1010=
200901031950 METAR ESMX 031950Z AUTO 35008KT 9999NDV NCD M05/M07 Q1009=
200901031920 METAR ESMX 031920Z AUTO 01008KT 9999NDV SCT015/// M03/M06 Q1009=
200901031850 METAR ESMX 031850Z AUTO 01006KT 9999NDV FEW016/// SCT020/// M04/M06 Q1008=
200901031820 METAR ESMX 031820Z AUTO 01012KT 9999NDV SCT015/// OVC019/// M02/M05 Q1008=
200901031750 METAR ESMX 031750Z AUTO 02014KT 9999NDV BKN012/// OVC019/// M02/M04 Q1008=
200901031720 METAR ESMX 031720Z AUTO 35012KT 9999NDV FEW017/// OVC022/// M01/M04 Q1007=
200901031650 METAR ESMX 031650Z AUTO 36014KT 9999NDV FEW018/// OVC022/// M01/M04 Q1007=
200901031620 METAR ESMX 031620Z AUTO 34011KT 9999NDV FEW016/// OVC021/// M01/M03 Q1006=
200901031550 METAR ESMX 031550Z AUTO 34009KT 9999NDV FEW013/// SCT016/// BKN020/// M00/M02 Q1006=
200901031520 METAR ESMX 031520Z AUTO 32009KT 9999NDV FEW014/// BKN023/// M00/M02 Q1006=
200901031450 METAR ESMX 031450Z AUTO 33006KT 9999NDV FEW012/// OVC019/// M00/M01 Q1005=
200901031420 METAR ESMX 031420Z AUTO 33006KT 9999NDV FEW010/// BKN014/// OVC020/// M00/M01 Q1005=
200901031350 METAR ESMX 031350Z AUTO 32005KT 9999NDV FEW008/// OVC011/// M00/M01 Q1005=
200901031320 METAR ESMX 031320Z AUTO 29006KT 9999NDV SCT005/// BKN008/// BKN011/// M00/M01 Q1005 RESG RESN=
200901031250 METAR ESMX 031250Z AUTO 28004KT 9999NDV SG OVC005/// M00/M01 Q1005 RESN=
200901031220 METAR ESMX 031220Z AUTO 25003KT 190V290 3200NDV -SN FEW005/// BKN007/// OVC010/// M01/M01 Q1005=
200901031150 METAR ESMX 031150Z AUTO 24004KT 2600NDV -SN FEW007/// SCT008/// BKN010/// M01/M02 Q1006 RESG=
200901031120 METAR ESMX 031120Z AUTO 23004KT 200V260 1600NDV -SN FEW010/// SCT013/// M02/M02 Q1006=
200901031050 METAR ESMX 031050Z AUTO 22005KT 1600NDV -SN FEW006/// BKN011/// M02/M03 Q1007=
200901031020 METAR ESMX 031020Z AUTO 23005KT 4400NDV -SN FEW005/// SCT016/// M02/M03 Q1008=
200901030950 METAR ESMX 030950Z AUTO 24006KT 210V270 8000NDV -SN FEW029/// SCT064/// M02/M03 Q1008 RESG=
200901030920 METAR ESMX 030920Z AUTO 24006KT 210V290 9999NDV BKN051/// M03/M04 Q1009=
200901030850 METAR ESMX 030850Z AUTO 22004KT 9999NDV BKN065/// M04/M05 Q1010=
200901030820 METAR ESMX 030820Z AUTO 24004KT 210V270 9999NDV NCD M05/M06 Q1010=
200901030750 METAR ESMX 030750Z AUTO 24005KT 9999NDV NCD M06/M07 Q1010=
200901030720 METAR ESMX 030720Z AUTO 24005KT 9999NDV NCD M06/M07 Q1011=
200901030650 METAR ESMX 030650Z AUTO 16004KT 9999NDV NCD M07/M08 Q1011=
200901030620 METAR ESMX 030620Z AUTO 18004KT 9999NDV NCD M07/M07 Q1012=
200901030550 METAR ESMX 030550Z AUTO 24003KT 200V270 9999NDV NCD M07/M08 Q1012=
200901030520 METAR ESMX 030520Z AUTO 23006KT 9999NDV NCD M08/M08 Q1013=
200901030450 METAR ESMX 030450Z AUTO 22003KT 9999NDV NCD M06/M07 Q1013=
200901030420 METAR ESMX 030420Z AUTO 23004KT 200V260 9999NDV NCD M07/M07 Q1014=
200901030350 METAR ESMX 030350Z AUTO 23005KT 9999NDV NCD M07/M08 Q1014=
200901030320 METAR ESMX 030320Z AUTO 22005KT 9999NDV NCD M07/M08 Q1015=
200901030250 METAR ESMX 030250Z AUTO 18005KT 9999NDV BKN023/// BKN029/// M06/M07 Q1015=
200901030220 METAR ESMX 030220Z AUTO 20005KT 9999NDV FEW023/// M07/M08 Q1016=
200901030150 METAR ESMX 030150Z AUTO 21005KT 9999NDV FEW024/// SCT029/// M07/M08 Q1016=
200901030120 METAR ESMX 030120Z AUTO 23006KT 9999NDV NCD M06/M07 Q1017=
200901030050 METAR ESMX 030050Z AUTO 24006KT 210V270 9999NDV NCD M06/M07 Q1017=
200901030020 METAR ESMX 030020Z AUTO 23005KT 9999NDV NCD M07/M08 Q1018=
200901022350 METAR ESMX 022350Z AUTO 26004KT 9999NDV FEW097/// M07/M08 Q1019=
200901022320 METAR ESMX 022320Z AUTO 25005KT 9999NDV BKN095/// M06/M07 Q1019=
200901022250 METAR ESMX 022250Z AUTO 25004KT 220V280 9999NDV BKN096/// M07/M08 Q1020=
200901022220 METAR ESMX 022220Z AUTO 26005KT 9999NDV NCD M07/M08 Q1020=
200901022150 METAR ESMX 022150Z AUTO 24004KT 9999NDV NCD M07/M08 Q1021=
200901022120 METAR ESMX 022120Z AUTO 25005KT 9999NDV NCD M08/M09 Q1021=
200901022050 METAR ESMX 022050Z AUTO 26005KT 9999NDV NCD M08/M10 Q1021=
200901022020 METAR ESMX 022020Z 25006KT CAVOK M08/M10 Q1022=
200901021950 METAR ESMX 021950Z 25005KT CAVOK M08/M10 Q1022=
200901021920 METAR ESMX 021920Z 27006KT CAVOK M07/M10 Q1022=
200901021850 METAR ESMX 021850Z 27005KT CAVOK M08/M10 Q1023=
200901021820 METAR ESMX 021820Z 27006KT CAVOK M08/M09 Q1023=
200901021750 METAR ESMX 021750Z 27006KT CAVOK M08/M09 Q1023=
200901021720 METAR ESMX 021720Z 28007KT CAVOK M07/M09 Q1023=
200901021650 METAR ESMX 021650Z 27006KT CAVOK M07/M09 Q1023=
200901021620 METAR ESMX 021620Z 27006KT CAVOK M07/M09 Q1024=
200901021550 METAR ESMX 021550Z 29006KT CAVOK M07/M08 Q1024=
200901021520 METAR ESMX 021520Z 28006KT CAVOK M06/M08 Q1024=
200901021450 METAR ESMX 021450Z 30007KT CAVOK M06/M08 Q1024=
200901021420 METAR ESMX 021420Z 30005KT CAVOK M05/M08 Q1024=
200901021350 METAR ESMX 021350Z 31007KT 270V340 CAVOK M05/M07 Q1024=
200901021320 METAR ESMX 021320Z 31006KT CAVOK M04/M07 Q1024=
200901021250 METAR ESMX 021250Z 32009KT CAVOK M04/M07 Q1024=
200901021220 METAR ESMX 021220Z 32009KT CAVOK M04/M07 Q1024=
200901021150 METAR ESMX 021150Z 31008KT 270V340 CAVOK M05/M07 Q1024=
200901021120 METAR ESMX 021120Z 32007KT 280V340 CAVOK M05/M07 Q1025=
200901021050 METAR ESMX 021050Z 32010KT 290V350 CAVOK M05/M08 Q1025=
200901021020 METAR ESMX 021020Z 34006KT 300V010 CAVOK M06/M08 Q1024=
200901020950 METAR ESMX 020950Z 33003KT 290V030 CAVOK M07/M09 Q1024=
200901020920 METAR ESMX 020920Z 32003KT 280V350 CAVOK M08/M10 Q1024=
200901020850 METAR ESMX 020850Z 29003KT CAVOK M09/M10 Q1024=
200901020820 METAR ESMX 020820Z 29004KT CAVOK M11/M12 Q1024=
200901020750 METAR ESMX 020750Z 30005KT CAVOK M10/M11 Q1024=
200901020720 METAR ESMX 020720Z 31005KT CAVOK M10/M11 Q1024=
200901020650 METAR ESMX 020650Z 00000KT CAVOK M10/M11 Q1024=
200901020620 METAR ESMX 020620Z 29005KT CAVOK M10/M11 Q1024=
200901020550 METAR ESMX 020550Z 29004KT CAVOK M12/M12 Q1024=
200901020520 METAR ESMX 020520Z AUTO 00000KT 9999NDV NCD M11/M12 Q1024=
200901020450 METAR ESMX 020450Z AUTO VRB02KT 9999NDV NCD M11/M12 Q1024=
200901020420 METAR ESMX 020420Z AUTO 30003KT 270V330 9999NDV NCD M10/M11 Q1024=
200901020350 METAR ESMX 020350Z AUTO VRB02KT 9999NDV NCD M11/M12 Q1024=
200901020320 METAR ESMX 020320Z AUTO 30002KT 9999NDV NCD M11/M11 Q1025=
200901020250 METAR ESMX 020250Z AUTO 33004KT 9999NDV NCD M10/M11 Q1025=
200901020220 METAR ESMX 020220Z AUTO 31003KT 9999NDV NCD M12/M13 Q1025=
200901020150 METAR ESMX 020150Z AUTO 31003KT 9999NDV NCD M12/M12 Q1025=
200901020120 METAR ESMX 020120Z AUTO 34002KT 9999NDV NCD M12/M13 Q1025=
200901020050 METAR ESMX 020050Z 00000KT CAVOK M12/M13 Q1025=
200901020020 METAR ESMX 020020Z 00000KT CAVOK M11/M12 Q1025=
200901012350 METAR ESMX 012350Z VRB01KT CAVOK M11/M12 Q1025=
200901012320 METAR ESMX 012320Z 30002KT CAVOK M11/M12 Q1025=
200901012250 METAR ESMX 012250Z 30002KT CAVOK M10/M11 Q1026=
200901012220 METAR ESMX 012220Z 31003KT CAVOK M11/M12 Q1026=
200901012150 METAR ESMX 012150Z 30003KT CAVOK M11/M12 Q1026=
200901012120 METAR ESMX 012120Z 30003KT CAVOK M10/M11 Q1026=
200901012050 METAR ESMX 012050Z 31002KT CAVOK M09/M09 Q1026=
200901012020 METAR ESMX 012020Z 32003KT CAVOK M09/M10 Q1026=
200901011950 METAR ESMX 011950Z 32004KT CAVOK M09/M10 Q1026=
200901011920 METAR ESMX 011920Z 31004KT CAVOK M09/M10 Q1026=
200901011850 METAR ESMX 011850Z 33004KT CAVOK M09/M10 Q1026=
200901011820 METAR ESMX 011820Z AUTO 30004KT 9999NDV NCD M08/M09 Q1026=
200901011750 METAR ESMX 011750Z AUTO 32005KT 9999NDV NCD M08/M09 Q1026=
200901011720 METAR ESMX 011720Z AUTO 32005KT 9999NDV NCD M09/M09 Q1026=
200901011650 METAR ESMX 011650Z AUTO 32002KT 9999NDV NCD M07/M08 Q1026=
200901011620 METAR ESMX 011620Z AUTO 31004KT 9999NDV NCD M07/M07 Q1026=
200901011550 METAR ESMX 011550Z AUTO 32004KT 9999NDV NCD M06/M07 Q1026=
200901011520 METAR ESMX 011520Z AUTO 32005KT 9999NDV NCD M06/M08 Q1025=
200901011450 METAR ESMX 011450Z AUTO 31004KT 9999NDV NCD M04/M06 Q1025=
200901011420 METAR ESMX 011420Z AUTO 33003KT 9999NDV NCD M04/M07 Q1025=
200901011350 METAR ESMX 011350Z AUTO 33006KT 9999NDV NCD M03/M06 Q1025=
200901011320 METAR ESMX 011320Z AUTO 34005KT 9999NDV NCD M03/M06 Q1025=
200901011250 METAR ESMX 011250Z AUTO 35007KT 9999NDV NCD M02/M06 Q1025=
200901011220 METAR ESMX 011220Z AUTO 35006KT 9999NDV NCD M02/M06 Q1025=
