##########################################################
# Query made at 04/19/2024 21:13:37 UTC
# Time interval: from 12/01/2009 12:00  to 12/31/2009 12:59  UTC
##########################################################

##########################################################
# ESMX, Vaxjo (Sweden)
# WMO index: 02641. WIGOS ID: 0-20000-0-02648
# Latitude 56-51N. Longitude 014-50E. Altitude 199 m.
##########################################################

200912311250 METAR ESMX 311250Z AUTO 36003KT 9999NDV NCD M09/M10 Q1002=
200912311220 METAR ESMX 311220Z AUTO 36003KT 9999NDV NCD M09/M10 Q1002=
200912311150 METAR ESMX 311150Z AUTO 01003KT 9999NDV NCD M09/M11 Q1002=
200912311120 METAR ESMX 311120Z AUTO 01002KT 9999NDV NCD M10/M11 Q1003=
200912311050 METAR ESMX 311050Z AUTO 01002KT 9999NDV NCD M10/M12 Q1003=
200912311020 METAR ESMX 311020Z AUTO 36002KT 9999NDV NCD M11/M12 Q1003=
200912310950 METAR ESMX 310950Z AUTO 01002KT 9999NDV NCD M11/M13 Q1003=
200912310920 METAR ESMX 310920Z AUTO 36003KT 9999NDV NCD M12/M13 Q1003=
200912310850 METAR ESMX 310850Z AUTO 36003KT 9999NDV NCD M13/M14 Q1003=
200912310820 METAR ESMX 310820Z AUTO 36002KT 9999NDV NCD M14/M16 Q1003=
200912310750 METAR ESMX 310750Z AUTO 01003KT 9999NDV NCD M13/M15 Q1003=
200912310720 METAR ESMX 310720Z AUTO 01002KT 9999NDV NCD M15/M16 Q1003=
200912310650 METAR ESMX 310650Z AUTO 36001KT 9999NDV NCD M15/M17 Q1003=
200912310620 METAR ESMX 310620Z AUTO 01001KT 9999NDV NCD M15/M17 Q1003=
200912310550 METAR ESMX 310550Z AUTO 31001KT 9999NDV NCD M16/M18 Q1003=
200912310520 METAR ESMX 310520Z AUTO 00000KT 9999NDV NCD M16/M18 Q1003=
200912310450 METAR ESMX 310450Z AUTO 00000KT 9999NDV NCD M16/M18 Q1003=
200912310420 METAR ESMX 310420Z AUTO 00000KT 9999NDV NCD M16/M18 Q1003=
200912310350 METAR ESMX 310350Z AUTO 00000KT 9999NDV NCD M16/M18 Q1003=
200912310320 METAR ESMX 310320Z AUTO 00000KT 9999NDV NCD M16/M18 Q1003=
200912310250 METAR ESMX 310250Z AUTO 18001KT 9999NDV NCD M15/M17 Q1003=
200912310220 METAR ESMX 310220Z AUTO 18001KT 9999NDV NCD M15/M16 Q1003=
200912310150 METAR ESMX 310150Z AUTO 00000KT 9999NDV NCD M15/M16 Q1004=
200912310120 METAR ESMX 310120Z AUTO 19001KT 9999NDV NCD M15/M16 Q1004=
200912310050 METAR ESMX 310050Z AUTO 00000KT 9999NDV NCD M15/M16 Q1004=
200912310020 METAR ESMX 310020Z AUTO 00000KT 9999NDV NCD M14/M16 Q1004=
200912302350 METAR ESMX 302350Z AUTO 00000KT 9999NDV NCD M14/M16 Q1004=
200912302320 METAR ESMX 302320Z AUTO 34001KT 9999NDV NCD M14/M15 Q1004=
200912302250 METAR ESMX 302250Z AUTO 01001KT 9999NDV NCD M13/M15 Q1004=
200912302220 METAR ESMX 302220Z AUTO 36002KT 9999NDV NCD M13/M14 Q1004=
200912302150 METAR ESMX 302150Z AUTO 36002KT 9999NDV NCD M13/M14 Q1004=
200912302120 METAR ESMX 302120Z AUTO 36002KT 9999NDV NCD M12/M14 Q1004=
200912302050 METAR ESMX 302050Z AUTO 35003KT 9999NDV NCD M13/M15 Q1004=
200912302020 METAR ESMX 302020Z AUTO 02002KT 9999NDV NCD M13/M15 Q1005=
200912301950 METAR ESMX 301950Z AUTO VRB01KT 9999NDV NCD M13/M15 Q1005=
200912301920 METAR ESMX 301920Z AUTO 00000KT 9999NDV NCD M13/M14 Q1005=
200912301850 METAR ESMX 301850Z AUTO 19001KT 9999NDV NCD M12/M14 Q1005=
200912301820 METAR ESMX 301820Z AUTO 35002KT 9999NDV NCD M12/M13 Q1005=
200912301750 METAR ESMX 301750Z AUTO VRB01KT 9999NDV NCD M12/M13 Q1005=
200912301720 METAR ESMX 301720Z 36002KT CAVOK M11/M12 Q1005=
200912301650 METAR ESMX 301650Z 00000KT CAVOK M11/M12 Q1005=
200912301620 METAR ESMX 301620Z 29001KT CAVOK M11/M12 Q1004=
200912301550 METAR ESMX 301550Z 30003KT CAVOK M11/M12 Q1004=
200912301520 METAR ESMX 301520Z 35003KT CAVOK M08/M10 Q1004=
200912301450 METAR ESMX 301450Z 36004KT CAVOK M08/M10 Q1004=
200912301420 METAR ESMX 301420Z 02002KT CAVOK M07/M11 Q1005=
200912301350 METAR ESMX 301350Z 02003KT CAVOK M05/M10 Q1005=
200912301320 METAR ESMX 301320Z 01003KT CAVOK M05/M09 Q1005=
200912301250 METAR ESMX 301250Z 01004KT CAVOK M05/M09 Q1005=
200912301220 METAR ESMX 301220Z 01004KT CAVOK M06/M10 Q1005=
200912301150 METAR ESMX 301150Z 01004KT CAVOK M06/M10 Q1005=
200912301120 METAR ESMX 301120Z 36004KT CAVOK M07/M10 Q1005=
200912301050 METAR ESMX 301050Z 36004KT CAVOK M07/M10 Q1005=
200912301020 METAR ESMX 301020Z 36004KT CAVOK M07/M09 Q1006=
200912300950 METAR ESMX 300950Z 01003KT CAVOK M08/M10 Q1006=
200912300920 METAR ESMX 300920Z 02003KT CAVOK M08/M10 Q1006=
200912300850 METAR ESMX 300850Z 02003KT CAVOK M08/M10 Q1006=
200912300820 METAR ESMX 300820Z 01004KT CAVOK M08/M10 Q1005=
200912300750 METAR ESMX 300750Z 02004KT CAVOK M08/M10 Q1005=
200912300720 METAR ESMX 300720Z 03004KT CAVOK M08/M09 Q1005=
200912300650 METAR ESMX 300650Z 02007KT CAVOK M07/M09 Q1005=
200912300620 METAR ESMX 300620Z AUTO 01005KT 9999NDV NCD M07/M08 Q1005=
200912300550 METAR ESMX 300550Z AUTO 03004KT 9999NDV FEW006/// M07/M08 Q1005=
200912300520 METAR ESMX 300520Z AUTO 03004KT 9999NDV FEW007/// M06/M07 Q1005=
200912300450 METAR ESMX 300450Z AUTO 02006KT 350V060 9999NDV BKN007/// M05/M06 Q1005=
200912300420 METAR ESMX 300420Z AUTO 05006KT 020V080 9999NDV OVC008/// M04/M06 Q1005=
200912300350 METAR ESMX 300350Z AUTO 05005KT 020V080 9999NDV OVC005/// M04/M05 Q1005=
200912300320 METAR ESMX 300320Z AUTO 05005KT 020V090 9999NDV OVC004/// M04/M05 Q1005=
200912300250 METAR ESMX 300250Z AUTO 06004KT 020V110 9999NDV OVC004/// M04/M04 Q1005=
200912300220 METAR ESMX 300220Z AUTO 06004KT 020V140 9999NDV OVC005/// M03/M04 Q1005=
200912300150 METAR ESMX 300150Z AUTO 03004KT 360V060 9999NDV OVC005/// M03/M04 Q1005=
200912300120 METAR ESMX 300120Z 03003KT 9999 OVC006 M03/M04 Q1005=
200912300050 METAR ESMX 300050Z 04003KT 9999 OVC006 M03/M04 Q1005=
200912300020 METAR ESMX 300020Z 02004KT 9999 OVC007 M03/M04 Q1005=
200912292350 METAR ESMX 292350Z VRB02KT 9999 OVC008 M03/M04 Q1005=
200912292320 METAR ESMX 292320Z 05003KT 9999 OVC008 M03/M04 Q1005=
200912292250 METAR ESMX 292250Z 01004KT 9999 OVC009 M03/M04 Q1006=
200912292220 METAR ESMX 292220Z 01003KT 9999 OVC011 M03/M04 Q1006=
200912292150 METAR ESMX 292150Z 01003KT 9999 OVC009 M03/M04 Q1006=
200912292120 METAR ESMX 292120Z 01003KT 9999 FEW006 OVC009 M03/M04 Q1006=
200912292050 METAR ESMX 292050Z 03003KT 9999 OVC007 M03/M03 Q1005=
200912292020 METAR ESMX 292020Z 00000KT 9999 OVC007 M03/M03 Q1005=
200912291950 METAR ESMX 291950Z 34003KT 9999 FEW005 OVC006 M03/M03 Q1005=
200912291920 METAR ESMX 291920Z 06003KT 9999 OVC005 M03/M03 Q1005=
200912291850 METAR ESMX 291850Z 04004KT 9999 OVC005 M03/M03 Q1005=
200912291820 METAR ESMX 291820Z 02002KT 9999 OVC005 M03/M03 Q1005=
200912291750 METAR ESMX 291750Z 09002KT 9999 OVC006 M03/M03 Q1005=
200912291720 METAR ESMX 291720Z 02002KT 9999 OVC007 M03/M04 Q1005=
200912291650 METAR ESMX 291650Z 00000KT 9999 OVC008 M03/M03 Q1005=
200912291620 METAR ESMX 291620Z VRB01KT 9999 OVC008 M02/M03 Q1005=
200912291550 METAR ESMX 291550Z VRB01KT 9999 FEW005 OVC010 M02/M03 Q1005=
200912291520 METAR ESMX 291520Z 02003KT 8000 -SN BR OVC004 M02/M03 Q1005=
200912291450 METAR ESMX 291450Z VRB02KT 8000 -SN BR OVC004 M02/M03 Q1005=
200912291420 METAR ESMX 291420Z 35004KT 2000 -SN BR SCT002 BKN004 OVC006 M02/M02 Q1005=
200912291350 METAR ESMX 291350Z VRB01KT 0750 R01/1400U R19/1600N FZFG VV002 M02/M02 Q1005=
200912291320 METAR ESMX 291320Z 00000KT 0700 R01/1100N R19/1400N FZFG VV002 M02/M02 Q1005=
200912291250 METAR ESMX 291250Z 00000KT 1000 R01/1600N R19/P2000D BR VV002 M02/M03 Q1005=
200912291220 METAR ESMX 291220Z 00000KT 2700 BR OVC002 M02/M03 Q1005=
200912291150 METAR ESMX 291150Z 00000KT 7000 BR OVC003 M02/M03 Q1005=
200912291120 METAR ESMX 291120Z VRB01KT 9000 BKN002 OVC004 M03/M03 Q1004=
200912291050 METAR ESMX 291050Z 00000KT 9999 SCT003 OVC005 M03/M04 Q1004=
200912291020 METAR ESMX 291020Z 00000KT 9999 BKN006 M03/M04 Q1004=
200912290950 METAR ESMX 290950Z VRB01KT 9999 SCT007 BKN013 M04/M05 Q1004=
200912290920 METAR ESMX 290920Z 00000KT 9999 FEW008 BKN012 M05/M06 Q1004=
200912290850 METAR ESMX 290850Z 18003KT 9999 SCT020 SCT100 M06/M06 Q1004=
200912290820 METAR COR ESMX 290820Z 18001KT 9999 FEW028 SCT100 M07/M08 Q1004=
200912290750 METAR ESMX 290750Z 18003KT 9999 SCT030 M08/M09 Q1003=
200912290720 METAR ESMX 290720Z 19002KT 9999 SCT015 M09/M10 Q1003=
200912290650 METAR ESMX 290650Z 22002KT 9999 OVC012 M09/M10 Q1003=
200912290620 METAR ESMX 290620Z AUTO 18003KT 9999NDV FEW012/// M09/M10 Q1002=
200912290550 METAR ESMX 290550Z AUTO 00000KT 9999NDV FEW002/// BKN014/// M08/M09 Q1002=
200912290520 METAR ESMX 290520Z AUTO VRB01KT 9999NDV SCT002/// M08/M09 Q1002=
200912290450 METAR ESMX 290450Z AUTO 15001KT 9999NDV SCT002/// M07/M08 Q1002=
200912290420 METAR ESMX 290420Z AUTO 18001KT 9999NDV OVC003/// M07/M08 Q1002=
200912290350 METAR ESMX 290350Z AUTO 15002KT 9999NDV SCT002/// M07/M07 Q1002=
200912290320 METAR ESMX 290320Z AUTO 21003KT 5000NDV BR BKN003/// M06/M07 Q1002=
200912290250 METAR ESMX 290250Z AUTO 16002KT 9999NDV FEW003/// SCT005/// M07/M08 Q1001=
200912290220 METAR ESMX 290220Z AUTO VRB01KT 9999NDV FEW006/// M07/M08 Q1001=
200912290150 METAR ESMX 290150Z AUTO 00000KT 9999NDV FEW008/// M06/M07 Q1001=
200912290120 METAR ESMX 290120Z AUTO 00000KT 9999NDV FEW017/// M06/M07 Q1001=
200912290050 METAR ESMX 290050Z AUTO 26005KT 9999NDV NCD M07/M07 Q1001=
200912290020 METAR ESMX 290020Z 25004KT CAVOK M07/M07 Q1000=
200912282350 METAR ESMX 282350Z VRB02KT CAVOK M06/M07 Q1000=
200912282320 METAR ESMX 282320Z 27004KT CAVOK M05/M06 Q1000=
200912282250 METAR ESMX 282250Z 28004KT CAVOK M05/M06 Q1000=
200912282220 METAR ESMX 282220Z 27005KT CAVOK M05/M06 Q1000=
200912282150 METAR ESMX 282150Z 27005KT CAVOK M05/M06 Q0999=
200912282120 METAR ESMX 282120Z 28007KT 250V310 CAVOK M04/M05 Q0999=
200912282050 METAR ESMX 282050Z 28006KT CAVOK M04/M05 Q0998=
200912282020 METAR ESMX 282020Z 28008KT 9999 FEW010 M03/M05 Q0998=
200912281950 METAR ESMX 281950Z 29008KT 9999 SCT010 M03/M04 Q0997=
200912281920 METAR ESMX 281920Z 28008KT 250V320 9999 FEW011 M03/M04 Q0997=
200912281850 METAR ESMX 281850Z 30007KT 280V350 9999 FEW011 SCT014 M02/M04 Q0997=
200912281820 METAR ESMX 281820Z 30010KT 270V330 9999 BKN010 BKN015 M02/M03 Q0996=
200912281750 METAR ESMX 281750Z 30010KT 270V340 9999 FEW010 BKN013 M01/M03 Q0996=
200912281720 METAR ESMX 281720Z 29008KT 250V320 9999 FEW009 SCT012 M01/M03 Q0996=
200912281620 METAR ESMX 281620Z 28005KT 250V320 9999 BKN010 BKN015 M01/M02 Q0995=
200912281550 METAR ESMX 281550Z 26004KT 220V300 9999 FEW012 M01/M02 Q0995=
200912281520 METAR ESMX 281520Z 27005KT 9999 FEW011 BKN016 M00/M01 Q0994=
200912281450 METAR ESMX 281450Z 27007KT 9999 FEW010 SCT015 BKN017 00/M02 Q0994=
200912281420 METAR ESMX 281420Z 28006KT 250V320 9999 SCT014 BKN019 00/M01 Q0994=
200912281350 METAR ESMX 281350Z 27006KT 220V300 9999 FEW014 BKN017 00/M01 Q0993=
200912281320 METAR ESMX 281320Z 28004KT 9999 FEW005 BKN010 00/M01 Q0993=
200912281250 METAR ESMX 281250Z 29006KT 250V330 9999 FEW005 SCT008 BKN010 01/M00 Q0993=
200912281220 METAR ESMX 281220Z 28007KT 250V320 9000 BR SCT004 BKN008 01/01 Q0993=
200912281150 METAR ESMX 281150Z 22006KT 5000 -RA BKN002 OVC004 01/01 Q0993 RERASN=
200912281120 METAR ESMX 281120Z 21007KT 5000 -RA OVC002 01/01 Q0992=
200912281050 METAR ESMX 281050Z 19006KT 2000 -DZ OVC002 01/01 Q0993=
200912281020 METAR ESMX 281020Z 19008KT 1200 R01/1700D R19/1900D -RA BR OVC002 01/01 Q0993=
200912280950 METAR ESMX 280950Z 21007KT 2500 BR OVC002 01/01 Q0993=
200912280920 METAR ESMX 280920Z 17007KT 2500 BR OVC002 01/01 Q0993=
200912280850 METAR ESMX 280850Z 19006KT 2500 BR OVC002 01/01 Q0993=
200912280820 METAR ESMX 280820Z 18005KT 2000 BR OVC002 01/01 Q0993=
200912280750 METAR ESMX 280750Z 17005KT 2500 BR OVC002 01/01 Q0993=
200912280720 METAR ESMX 280720Z 17006KT 130V200 2000 BR OVC002 01/01 Q0992=
200912280650 METAR ESMX 280650Z 17006KT 2000 BR OVC002 01/01 Q0992=
200912280620 METAR ESMX 280620Z 17006KT 2200 BR OVC002 01/01 Q0992=
200912280550 METAR ESMX 280550Z AUTO 17005KT 3100NDV BR OVC001/// 02/01 Q0992=
200912280520 METAR ESMX 280520Z AUTO 19007KT 3400NDV BR OVC002/// 01/01 Q0992=
200912280450 METAR ESMX 280450Z AUTO 18008KT 3700NDV BR OVC001/// 02/01 Q0992=
200912280420 METAR ESMX 280420Z AUTO 20007KT 3000NDV BR OVC001/// 01/01 Q0993=
200912280350 METAR ESMX 280350Z AUTO 17009KT 2100NDV BR OVC001/// 02/01 Q0993=
200912280320 METAR ESMX 280320Z AUTO 18009KT 2100NDV BR OVC001/// 02/01 Q0993=
200912280250 METAR ESMX 280250Z AUTO 18009KT 1800NDV OVC001/// 02/01 Q0993=
200912280220 METAR ESMX 280220Z AUTO 18008KT 1200NDV R01/P2000N R19/P2000N OVC001/// 01/01 Q0994=
200912280150 METAR ESMX 280150Z AUTO 18007KT 0800NDV R01/P2000N R19/P2000N FG VV002 01/01 Q0994=
200912280120 METAR ESMX 280120Z AUTO 18009KT 1000NDV R01/P2000N R19/P2000N BR OVC001/// 02/01 Q0994=
200912280050 METAR ESMX 280050Z AUTO 18007KT 3400NDV BR OVC001/// 01/01 Q0994=
200912280020 METAR ESMX 280020Z 18008KT 1900 BR OVC002 01/01 Q0994=
200912272350 METAR ESMX 272350Z 19008KT 1200 R01/P2000N R19/P2000N -DZ OVC002 01/01 Q0994=
200912272320 METAR ESMX 272320Z 19008KT 1100 R01/P2000N R19/P2000N DZ OVC002 01/01 Q0994=
200912272250 METAR ESMX 272250Z 18009KT 2800 DZ OVC002 01/01 Q0995=
200912272220 METAR ESMX 272220Z 18008KT 0700 R01/P2000N R19/P2000N FG VV002 01/01 Q0995=
200912272150 METAR ESMX 272150Z 17008KT 1900 BR OVC001 01/01 Q0995 RERA=
200912272120 METAR ESMX 272120Z 18008KT 9999 OVC002 01/01 Q0995=
200912272050 METAR ESMX 272050Z 17007KT 140V200 7000 -RA OVC003 01/01 Q0995=
200912272020 METAR ESMX 272020Z 17006KT 140V200 6000 -RA OVC002 01/01 Q0995 REDZ=
200912271950 METAR ESMX 271950Z 18008KT 4700 DZ OVC002 01/01 Q0995=
200912271920 METAR ESMX 271920Z 18008KT 4700 -RA OVC002 01/01 Q0995=
200912271850 METAR ESMX 271850Z 18008KT 0800 R01/P2000N R19/P2000N FG VV002 02/01 Q0995=
200912271820 METAR ESMX 271820Z 18009KT 0750 R01/P2000N R19/P2000N FG VV002 02/01 Q0995=
200912271750 METAR ESMX 271750Z 17007KT 0550 R01/1700U R19/1800N FG VV002 02/01 Q0995=
200912271720 METAR ESMX 271720Z 17007KT 0550 R01/1700D R19/P2000D FG VV002 02/01 Q0995=
200912271650 METAR ESMX 271650Z 16007KT 2700 -DZ OVC002 02/01 Q0995=
200912271620 METAR ESMX 271620Z 16006KT 130V200 2000 -RA OVC002 02/01 Q0996=
200912271550 METAR ESMX 271550Z 16005KT 120V200 1500 -RA BR OVC002 02/01 Q0996=
200912271520 METAR ESMX 271520Z 14004KT 100V170 0550 R01/1600N R19/P2000N -DZ FG VV002 02/01 Q0996=
200912271450 METAR ESMX 271450Z 15004KT 110V190 0900 R01/P2000N R19/P2000N FG VV003 02/01 Q0996=
200912271420 METAR ESMX 271420Z 15004KT 120V180 1600 BR SCT002 OVC005 02/01 Q0997=
200912271350 METAR ESMX 271350Z 17004KT 4000 BR FEW004 OVC006 02/01 Q0997=
200912271320 METAR ESMX 271320Z 20010KT 8000 BR SCT003 BKN010 02/01 Q0997=
200912271250 METAR ESMX 271250Z AUTO 20007KT 6000NDV BR FEW006/// SCT008/// BKN009/// 02/02 Q0997=
200912271220 METAR ESMX 271220Z AUTO 22008KT 8000NDV BR FEW001/// SCT003/// BKN005/// 02/02 Q0997=
200912271150 METAR ESMX 271150Z AUTO 21008KT 2000NDV BR OVC001/// 02/02 Q0997 REDZ=
200912271120 METAR ESMX 271120Z AUTO 20007KT 2500NDV BR OVC001/// 02/02 Q0997=
200912271050 METAR ESMX 271050Z AUTO 18007KT 1000NDV R01/1400U R19/1300V1900D BR VV002 02/01 Q0997=
200912271020 METAR ESMX 271020Z AUTO 19006KT 1400NDV R01/1800U R19/P2000N -RA OVC001/// 02/01 Q0997 REDZ=
200912270950 METAR ESMX 270950Z AUTO 17006KT 150V210 1700NDV BR OVC001/// 02/01 Q0997=
200912270920 METAR ESMX 270920Z AUTO 17005KT 1700NDV OVC001/// 02/01 Q0997=
200912270850 METAR ESMX 270850Z AUTO 18004KT 0900NDV R01/P2000N R19/1500U VV001 01/01 Q0997=
200912270820 METAR ESMX 270820Z AUTO 19004KT 160V220 0700NDV R01/1300N R19/1100V1600D FG VV001 01/01 Q0997=
200912270750 METAR ESMX 270750Z AUTO 17004KT 1400NDV R01/P2000N R19/P2000N OVC001/// 01/01 Q0997=
200912270720 METAR ESMX 270720Z AUTO 21007KT 2600NDV OVC001/// 01/01 Q0997=
200912270650 METAR ESMX 270650Z AUTO 20005KT 1000NDV R01/P2000N R19/P2000N FG VV002 01/01 Q0997=
200912270620 METAR ESMX 270620Z AUTO 19005KT 0650NDV R01/1900N R19/P2000N FG VV002 01/01 Q0997=
200912270550 METAR ESMX 270550Z AUTO 21005KT 190V250 0400NDV R01/1200VP2000U R19/1000V1600U FG VV001 01/00 Q0996=
200912270520 METAR ESMX 270520Z AUTO 20003KT 0250NDV R01/0900N R19/0900N FG VV001 00/M00 Q0996=
200912270450 METAR ESMX 270450Z AUTO 21004KT 0300NDV R01/1000N R19/1000N FZFG VV001 M00/M00 Q0997=
200912270420 METAR ESMX 270420Z AUTO VRB02KT 0500NDV R01/1600N R19/1500N FZFG VV001 M01/M01 Q0997=
200912270350 METAR ESMX 270350Z AUTO 16003KT 120V190 0650NDV R01/1900N R19/P2000N FZFG VV001 M01/M02 Q0997=
200912270320 METAR ESMX 270320Z AUTO 16002KT 1100NDV R01/P2000N R19/P2000N BR OVC001/// M01/M02 Q0997=
200912270250 METAR ESMX 270250Z AUTO 16002KT 4100NDV BR OVC003/// M02/M02 Q0997=
200912270220 METAR ESMX 270220Z AUTO 18003KT 5000NDV BR OVC005/// M02/M02 Q0997=
200912270150 METAR ESMX 270150Z AUTO 19003KT 9999NDV SG OVC007/// M02/M02 Q0997=
200912270120 METAR ESMX 270120Z AUTO 20004KT 5000NDV SG FEW009/// OVC011/// M02/M02 Q0997=
200912270050 METAR ESMX 270050Z AUTO VRB02KT 3200NDV -SN OVC011/// M02/M03 Q0997=
200912270020 METAR ESMX 270020Z AUTO 21003KT 9999NDV FEW012/// OVC015/// M02/M03 Q0997=
200912262350 METAR ESMX 262350Z AUTO 21003KT 6000NDV -SN FEW013/// SCT015/// OVC018/// M02/M03 Q0997=
200912262320 METAR ESMX 262320Z AUTO 22004KT 9999NDV SCT015/// OVC021/// M02/M03 Q0997=
200912262250 METAR ESMX 262250Z AUTO 22004KT 9999NDV FEW019/// BKN028/// OVC035/// M02/M03 Q0997=
200912262220 METAR ESMX 262220Z AUTO 21005KT 9999NDV SCT019/// BKN025/// OVC041/// M02/M03 Q0997=
200912262150 METAR ESMX 262150Z AUTO 21004KT 9999NDV FEW043/// SCT049/// M03/M04 Q0996=
200912262120 METAR ESMX 262120Z AUTO 22004KT 9999NDV NCD M04/M04 Q0996=
200912262050 METAR ESMX 262050Z AUTO 27003KT 9999NDV FEW012/// M02/M04 Q0996=
200912262020 METAR ESMX 262020Z AUTO 28005KT 250V320 9999NDV OVC011/// M01/M03 Q0996=
200912261950 METAR ESMX 261950Z AUTO 28007KT 250V310 9999NDV OVC013/// M01/M03 Q0995=
200912261920 METAR ESMX 261920Z AUTO 28008KT 9999NDV FEW009/// BKN012/// OVC015/// M01/M03 Q0995=
200912261850 METAR ESMX 261850Z AUTO 27008KT 9999NDV FEW009/// OVC011/// M01/M03 Q0995=
200912261820 METAR ESMX 261820Z AUTO 28006KT 250V320 9999NDV OVC012/// M01/M03 Q0995=
200912261750 METAR ESMX 261750Z AUTO 28009KT 9999NDV FEW006/// SCT009/// OVC011/// M01/M03 Q0994=
200912261720 METAR ESMX 261720Z AUTO 29007KT 3300NDV -SN FEW011/// SCT014/// OVC018/// M01/M02 Q0994=
200912261650 METAR ESMX 261650Z AUTO 28007KT 9999NDV FZUP FEW011/// BKN013/// OVC023/// M00/M02 Q0994=
200912261620 METAR ESMX 261620Z AUTO 29008KT 9999NDV FEW007/// SCT011/// BKN015/// M00/M02 Q0993=
200912261550 METAR ESMX 261550Z AUTO 28008KT 9999NDV FEW013/// OVC021/// M00/M01 Q0993 RESG=
200912261520 METAR ESMX 261520Z AUTO 29008KT 250V320 9999NDV OVC020/// 00/M01 Q0992=
200912261450 METAR ESMX 261450Z AUTO 29010KT 250V320 9999NDV FEW008/// SCT011/// OVC021/// 00/M02 Q0992=
200912261420 METAR ESMX 261420Z AUTO 28007KT 250V320 9999NDV FEW007/// SCT012/// OVC026/// 00/M01 Q0992=
200912261350 METAR ESMX 261350Z AUTO 28008KT 250V310 9999NDV FEW006/// BKN008/// OVC011/// 00/M01 Q0991=
200912261320 METAR ESMX 261320Z AUTO 30008KT 270V340 9999NDV OVC010/// 00/M01 Q0991=
200912261250 METAR ESMX 261250Z AUTO 29008KT 9999NDV FEW006/// SCT009/// BKN015/// 00/M01 Q0990=
200912261220 METAR ESMX 261220Z AUTO 30006KT 9999NDV FEW008/// SCT009/// BKN011/// 01/M01 Q0989 REDZ=
200912261150 METAR ESMX 261150Z AUTO 30007KT 260V330 9999NDV FEW006/// SCT009/// BKN022/// 00/M00 Q0989=
200912261120 METAR ESMX 261120Z AUTO 29008KT 3800NDV -RA FEW004/// SCT005/// BKN009/// 01/M00 Q0989=
200912261050 METAR ESMX 261050Z 28006KT 3600 -SNRA FEW004 SCT006 BKN008 01/00 Q0988=
200912261020 METAR ESMX 261020Z 29006KT 250V320 4100 SN FEW004 SCT007 BKN009 01/00 Q0988=
200912260950 METAR ESMX 260950Z 29006KT 2100 SNRA FEW005 SCT007 BKN016 01/00 Q0988=
200912260920 METAR ESMX 260920Z 30004KT 2300 -RA FEW005 SCT007 BKN010 00/00 Q0987=
200912260850 METAR ESMX 260850Z AUTO 30004KT 2600NDV DZ BKN005/// OVC009/// 00/00 Q0986=
200912260820 METAR ESMX 260820Z AUTO 31004KT 2000NDV RA FEW004/// SCT005/// BKN009/// 00/00 Q0986=
200912260750 METAR ESMX 260750Z AUTO 31004KT 270V330 2500NDV -SN FEW005/// OVC008/// 00/00 Q0985=
200912260720 METAR ESMX 260720Z AUTO 31003KT 1900NDV -SN OVC005/// 00/00 Q0985 RERA=
200912260650 METAR ESMX 260650Z AUTO 31002KT 1800NDV -RA FEW003/// OVC006/// 00/00 Q0984=
200912260620 METAR ESMX 260620Z AUTO 35002KT 2600NDV DZ FEW001/// SCT002/// BKN011/// 00/M00 Q0984 RESG=
200912260550 METAR ESMX 260550Z AUTO 01002KT 3000NDV SG FEW001/// SCT004/// BKN012/// 00/00 Q0984=
200912260520 METAR ESMX 260520Z AUTO VRB01KT 3100NDV SG BKN001/// BKN015/// 00/00 Q0984=
200912260450 METAR ESMX 260450Z AUTO VRB01KT 2500NDV -SN VV001 00/00 Q0983=
200912260420 METAR ESMX 260420Z AUTO 06002KT 2400NDV -SN BKN001/// BKN006/// 00/00 Q0983=
200912260350 METAR ESMX 260350Z AUTO VRB02KT 2300NDV -SN FEW002/// BKN004/// OVC010/// 00/00 Q0983=
200912260320 METAR ESMX 260320Z AUTO 06003KT 020V080 2200NDV -SN FEW004/// SCT009/// 00/00 Q0983=
200912260250 METAR ESMX 260250Z AUTO 05003KT 020V120 2200NDV +DZ FEW006/// 01/00 Q0983=
200912260220 METAR ESMX 260220Z AUTO VRB02KT 2600NDV +DZ FEW005/// SCT009/// BKN011/// 01/00 Q0983=
200912260150 METAR ESMX 260150Z AUTO 07003KT 030V110 2800NDV -DZ BKN004/// BKN013/// 01/00 Q0983=
200912260120 METAR ESMX 260120Z AUTO 07003KT 340V130 4200NDV RA FEW003/// OVC005/// 01/00 Q0984=
200912260050 METAR ESMX 260050Z AUTO 06004KT 010V110 4000NDV -DZ OVC003/// 01/00 Q0984 REDZ=
200912260020 METAR ESMX 260020Z AUTO 05005KT 020V100 2200NDV DZ OVC002/// 01/00 Q0984=
200912252350 METAR ESMX 252350Z AUTO 06005KT 020V110 2400NDV DZ OVC002/// 01/01 Q0984=
200912252320 METAR ESMX 252320Z AUTO 07005KT 040V120 9999NDV FEW003/// OVC004/// 01/00 Q0984=
200912252250 METAR ESMX 252250Z AUTO 07006KT 030V120 9999NDV OVC005/// 01/00 Q0984=
200912252220 METAR ESMX 252220Z AUTO 07006KT 030V120 9999NDV OVC005/// 01/00 Q0984=
200912252150 METAR ESMX 252150Z AUTO 05007KT 010V090 9999NDV OVC005/// 01/00 Q0984=
200912252120 METAR ESMX 252120Z AUTO 06007KT 010V100 9999NDV BR BKN005/// OVC009/// 01/00 Q0984 REDZ=
200912252050 METAR ESMX 252050Z AUTO 06007KT 020V090 3800NDV DZ FEW006/// OVC007/// 01/00 Q0984=
200912252020 METAR ESMX 252020Z AUTO 07005KT 020V120 5000NDV -RA OVC006/// 01/00 Q0985=
200912251950 METAR ESMX 251950Z AUTO 06005KT 010V100 5000NDV -RA FEW005/// OVC007/// 01/01 Q0985 REDZ=
200912251920 METAR ESMX 251920Z AUTO 06006KT 010V100 4900NDV DZ OVC006/// 01/00 Q0985=
200912251850 METAR ESMX 251850Z AUTO 07006KT 030V120 5000NDV -DZ FEW007/// OVC008/// 01/00 Q0985=
200912251820 METAR ESMX 251820Z AUTO 07007KT 010V120 5000NDV -RA FEW008/// OVC009/// 01/00 Q0985=
200912251750 METAR ESMX 251750Z AUTO 07007KT 020V110 8000NDV -RA FEW008/// BKN010/// BKN014/// 01/00 Q0985 REDZ=
200912251720 METAR ESMX 251720Z AUTO 06008KT 020V090 8000NDV -RA FEW007/// SCT009/// BKN011/// 01/01 Q0985=
200912251650 METAR ESMX 251650Z AUTO 08007KT 020V130 5000NDV -RA FEW007/// OVC009/// 02/01 Q0986=
200912251620 METAR ESMX 251620Z AUTO 06008KT 010V120 6000NDV -RA OVC008/// 02/01 Q0986=
200912251550 METAR ESMX 251550Z AUTO 05009KT 340V100 7000NDV -RA FEW007/// OVC009/// 02/01 Q0986=
200912251520 METAR ESMX 251520Z AUTO 07010KT 030V120 6000NDV -RA FEW007/// BKN008/// OVC012/// 02/01 Q0986=
200912251450 METAR ESMX 251450Z AUTO 05009KT 360V110 7000NDV -RA BKN006/// OVC010/// 02/01 Q0986=
200912251420 METAR ESMX 251420Z AUTO 08009KT 020V110 6000NDV -RA FEW005/// OVC007/// 02/01 Q0986=
200912251350 METAR ESMX 251350Z AUTO 05009KT 010V100 9999NDV DZ OVC005/// 02/01 Q0986=
200912251320 METAR ESMX 251320Z AUTO 04010KT 010V080 9999NDV DZ OVC005/// 02/01 Q0986=
200912251250 METAR ESMX 251250Z AUTO 06009KT 020V100 9000NDV DZ OVC004/// 02/01 Q0987=
200912251220 METAR ESMX 251220Z AUTO 06010KT 020V120 6000NDV -RA OVC002/// 02/01 Q0988 REDZ=
200912251150 METAR ESMX 251150Z AUTO 07010KT 040V120 2100NDV -DZ OVC001/// 02/01 Q0988 REDZ=
200912251120 METAR ESMX 251120Z AUTO 07009KT 030V110 2800NDV DZ OVC001/// 02/01 Q0989=
200912251050 METAR ESMX 251050Z AUTO VRB09G20KT 5000NDV -RA OVC002/// 02/01 Q0989=
200912251020 METAR ESMX 251020Z AUTO 06009KT 010V100 9999NDV OVC004/// 02/01 Q0990=
200912250950 METAR ESMX 250950Z AUTO 07010KT 020V110 9999NDV OVC005/// 02/01 Q0990 REDZ=
200912250920 METAR ESMX 250920Z AUTO 08008KT 030V140 9999NDV OVC005/// 02/01 Q0991=
200912250850 METAR ESMX 250850Z AUTO 06008KT 350V110 9999NDV OVC005/// 01/01 Q0991=
200912250820 METAR ESMX 250820Z AUTO 07009KT 020V110 9999NDV -DZ OVC005/// 01/01 Q0991=
200912250750 METAR ESMX 250750Z AUTO 05009KT 010V090 5000NDV -DZ OVC004/// 01/01 Q0992 REDZ=
200912250720 METAR ESMX 250720Z AUTO 07009KT 030V110 7000NDV BR OVC005/// 01/00 Q0992=
200912250650 METAR ESMX 250650Z AUTO 07008KT 020V100 9999NDV OVC005/// 01/00 Q0993=
200912250620 METAR ESMX 250620Z AUTO 06009KT 030V110 9999NDV OVC005/// 01/00 Q0993=
200912250550 METAR ESMX 250550Z AUTO 07008KT 030V110 8000NDV BR OVC005/// 01/01 Q0993=
200912250520 METAR ESMX 250520Z AUTO 07007KT 020V140 9000NDV UP BKN005/// OVC008/// 01/00 Q0994=
200912250450 METAR ESMX 250450Z AUTO 06007KT 030V110 9999NDV -RA OVC006/// 01/01 Q0994=
200912250420 METAR ESMX 250420Z AUTO 07007KT 030V120 9999NDV OVC006/// 01/01 Q0995=
200912250350 METAR ESMX 250350Z AUTO 07006KT 030V120 9999NDV OVC005/// 01/01 Q0995=
200912250320 METAR ESMX 250320Z AUTO 07006KT 030V120 3900NDV BR OVC004/// 01/01 Q0996=
200912250250 METAR ESMX 250250Z AUTO 08007KT 040V140 4300NDV BR OVC004/// 01/01 Q0996=
200912250220 METAR ESMX 250220Z AUTO 08006KT 030V130 4400NDV BR FEW003/// OVC005/// 01/01 Q0997=
200912250150 METAR ESMX 250150Z AUTO 08007KT 030V110 2200NDV BR OVC001/// 01/01 Q0997=
200912250120 METAR ESMX 250120Z AUTO 08007KT 030V120 2000NDV BR OVC002/// 01/01 Q0998=
200912250050 METAR ESMX 250050Z AUTO 07006KT 360V140 2300NDV BR OVC003/// 01/00 Q0998=
200912250020 METAR ESMX 250020Z AUTO 07006KT 030V120 6000NDV BR OVC005/// 01/00 Q0998=
200912242350 METAR ESMX 242350Z AUTO 09006KT 040V140 7000NDV BR OVC005/// 01/00 Q0999=
200912242320 METAR ESMX 242320Z AUTO 09007KT 040V150 7000NDV BR OVC005/// 01/00 Q0999=
200912242250 METAR ESMX 242250Z AUTO 09008KT 050V150 8000NDV BR OVC005/// 01/M00 Q0999=
200912242220 METAR ESMX 242220Z AUTO 09007KT 040V160 9000NDV BR OVC005/// 01/M00 Q0999=
200912242150 METAR ESMX 242150Z AUTO 09007KT 050V140 9000NDV BR OVC006/// 01/M00 Q1000=
200912242120 METAR ESMX 242120Z AUTO 09006KT 040V170 8000NDV BR OVC006/// 00/M01 Q1000=
200912242050 METAR ESMX 242050Z AUTO 08005KT 020V120 7000NDV BR OVC006/// 00/M01 Q1001=
200912242020 METAR ESMX 242020Z AUTO 08004KT 020V140 8000NDV BR OVC007/// M00/M01 Q1001=
200912241950 METAR ESMX 241950Z AUTO 09005KT 040V130 9999NDV OVC008/// M00/M02 Q1001=
200912241920 METAR ESMX 241920Z AUTO 10005KT 060V150 9999NDV OVC009/// M01/M02 Q1002=
200912241850 METAR ESMX 241850Z AUTO 10006KT 050V160 9999NDV BKN010/// M01/M02 Q1002=
200912241820 METAR ESMX 241820Z AUTO 10005KT 070V160 9999NDV OVC012/// M01/M02 Q1002=
200912241750 METAR ESMX 241750Z AUTO 10005KT 030V160 9999NDV OVC011/// M01/M03 Q1003=
200912241720 METAR ESMX 241720Z AUTO 12005KT 070V170 9999NDV OVC010/// M01/M03 Q1003=
200912241650 METAR ESMX 241650Z AUTO 12006KT 070V160 9999NDV OVC011/// M01/M03 Q1004=
200912241620 METAR ESMX 241620Z AUTO 11005KT 040V170 9999NDV OVC011/// M01/M03 Q1004=
200912241550 METAR ESMX 241550Z AUTO 12004KT 070V170 9999NDV OVC013/// M01/M03 Q1004=
200912241520 METAR ESMX 241520Z AUTO 12004KT 020V170 9999NDV BKN013/// M01/M03 Q1004=
200912241450 METAR ESMX 241450Z AUTO 12004KT 050V170 9999NDV OVC014/// M00/M03 Q1003=
200912241420 METAR ESMX 241420Z AUTO 14006KT 100V170 9999NDV OVC014/// M00/M03 Q1003=
200912241350 METAR ESMX 241350Z AUTO 15005KT 100V200 9999NDV OVC014/// 00/M03 Q1003=
200912241320 METAR ESMX 241320Z AUTO 16007KT 120V190 9999NDV OVC015/// 00/M02 Q1003=
200912241250 METAR ESMX 241250Z AUTO 16008KT 130V200 9999NDV OVC015/// 00/M03 Q1003=
200912241220 METAR ESMX 241220Z AUTO 15007KT 100V210 9999NDV OVC015/// 00/M02 Q1003=
200912241150 METAR ESMX 241150Z AUTO 17007KT 130V200 9999NDV OVC015/// 01/M02 Q1003=
200912241120 METAR ESMX 241120Z AUTO 15007KT 110V190 9999NDV OVC015/// 01/M02 Q1004=
200912241050 METAR ESMX 241050Z AUTO 14007KT 110V170 9999NDV FEW010/// OVC019/// 00/M01 Q1004=
200912241020 METAR ESMX 241020Z AUTO 15005KT 110V180 9999NDV FEW008/// SCT010/// OVC021/// 00/M01 Q1004=
200912240950 METAR ESMX 240950Z AUTO 16004KT 9999NDV FEW006/// SCT008/// OVC018/// 00/M01 Q1004=
200912240920 METAR ESMX 240920Z AUTO 16004KT 120V190 9999NDV BKN007/// OVC010/// 00/M01 Q1004=
200912240850 METAR ESMX 240850Z AUTO 16004KT 120V200 9999NDV OVC006/// M00/M01 Q1004=
200912240820 METAR ESMX 240820Z AUTO 17006KT 140V200 9999NDV OVC007/// M00/M02 Q1004=
200912240750 METAR ESMX 240750Z AUTO 17005KT 120V210 9999NDV OVC007/// M00/M02 Q1003=
200912240720 METAR ESMX 240720Z AUTO 17004KT 140V200 9999NDV OVC008/// M00/M02 Q1003=
200912240650 METAR ESMX 240650Z AUTO 16005KT 9999NDV OVC009/// M00/M02 Q1003=
200912240620 METAR ESMX 240620Z AUTO 17006KT 9999NDV OVC008/// M00/M02 Q1002=
200912240550 METAR ESMX 240550Z AUTO 18005KT 140V210 9999NDV OVC009/// M00/M02 Q1002=
200912240520 METAR ESMX 240520Z AUTO 15004KT 120V180 9999NDV FEW009/// OVC011/// M00/M02 Q1002=
200912240450 METAR ESMX 240450Z AUTO 16004KT 140V200 9999NDV OVC012/// M00/M02 Q1002=
200912240420 METAR ESMX 240420Z AUTO 16004KT 120V200 9999NDV OVC013/// M00/M02 Q1002=
200912240350 METAR ESMX 240350Z AUTO 17004KT 140V220 9999NDV OVC012/// M00/M02 Q1002=
200912240320 METAR ESMX 240320Z AUTO 19007KT 9999NDV OVC010/// M00/M02 Q1002=
200912240250 METAR ESMX 240250Z AUTO 18005KT 9999NDV FEW011/// BKN014/// OVC017/// M00/M02 Q1002=
200912240220 METAR ESMX 240220Z AUTO 18005KT 9000NDV OVC017/// M00/M02 Q1001=
200912240150 METAR ESMX 240150Z AUTO 22004KT 9999NDV OVC016/// M00/M02 Q1001=
200912240120 METAR ESMX 240120Z AUTO 22006KT 9999NDV FEW010/// OVC014/// M00/M02 Q1001=
200912240050 METAR ESMX 240050Z AUTO 21005KT 170V260 9000NDV BR FEW007/// SCT009/// OVC012/// M00/M01 Q1000=
200912240020 METAR ESMX 240020Z AUTO 20005KT 160V230 8000NDV BR OVC010/// M00/M01 Q1000=
200912232350 METAR ESMX 232350Z AUTO 22007KT 7000NDV BR FEW003/// SCT005/// BKN006/// 00/M01 Q1000=
200912232320 METAR ESMX 232320Z AUTO 22006KT 5000NDV BR OVC004/// 00/M01 Q0999=
200912232250 METAR ESMX 232250Z AUTO 20007KT 6000NDV BR OVC004/// 00/M01 Q0999=
200912232220 METAR ESMX 232220Z AUTO 21007KT 190V250 5000NDV BR OVC004/// 00/M01 Q0999=
200912232150 METAR ESMX 232150Z AUTO 21006KT 6000NDV BR BKN004/// OVC008/// 00/M01 Q0999=
200912232120 METAR ESMX 232120Z AUTO 22006KT 5000NDV BR BKN004/// OVC006/// 00/M00 Q0998=
200912232050 METAR ESMX 232050Z AUTO 21006KT 5000NDV BR OVC005/// 00/M01 Q0998=
200912232020 METAR ESMX 232020Z AUTO 19007KT 6000NDV BR BKN007/// OVC010/// 00/M01 Q0998=
200912231950 METAR ESMX 231950Z AUTO 18004KT 6000NDV BR OVC009/// 00/M01 Q0997=
200912231920 METAR ESMX 231920Z 23006KT 200V270 6000 BR SCT008 OVC010 00/M01 Q0997=
200912231850 METAR ESMX 231850Z 23008KT 9999 OVC007 00/M01 Q0997=
200912231820 METAR ESMX 231820Z 23009KT 9999 BR FEW007 SCT009 BKN010 00/M01 Q0997=
200912231750 METAR ESMX 231750Z 20007KT 8000 BR SCT010 BKN016 00/M01 Q0996=
200912231720 METAR ESMX 231720Z 20007KT 8000 BR FEW007 SCT009 BKN010 00/M01 Q0996=
200912231650 METAR ESMX 231650Z 23006KT 8000 BR BKN005 OVC008 01/M00 Q0995=
200912231620 METAR ESMX 231620Z 23008KT 8000 BR OVC005 00/M00 Q0995=
200912231550 METAR ESMX 231550Z 23006KT 200V260 7000 BR FEW003 OVC004 01/M00 Q0995=
200912231520 METAR ESMX 231520Z 22007KT 5000 BR OVC004 01/M00 Q0994=
200912231450 METAR ESMX 231450Z 22006KT 5000 BR FEW003 BKN006 OVC013 01/M00 Q0994=
200912231420 METAR ESMX 231420Z 23007KT 5000 BR OVC003 01/M00 Q0994=
200912231350 METAR ESMX 231350Z 21008KT 4500 BR BKN002 OVC003 01/00 Q0993=
200912231320 METAR ESMX 231320Z 20008KT 3600 -DZ OVC003 01/00 Q0993=
200912231250 METAR ESMX 231250Z 21007KT 4600 BR OVC003 01/M00 Q0992=
200912231220 METAR ESMX 231220Z 22006KT 4100 BR OVC003 01/00 Q0992=
200912231150 METAR ESMX 231150Z 21005KT 4500 -RA OVC003 01/00 Q0992=
200912231120 METAR ESMX 231120Z 22006KT 6000 BR OVC003 01/00 Q0991=
200912231050 METAR ESMX 231050Z 20005KT 6000 BR OVC004 01/00 Q0991=
200912231020 METAR ESMX 231020Z 19005KT 6000 BR OVC005 01/00 Q0991=
200912230950 METAR ESMX 230950Z 18006KT 5000 BR BKN005 01/M00 Q0991=
200912230920 METAR ESMX 230920Z 22005KT 6000 BR SCT005 BKN007 OVC010 01/00 Q0991=
200912230850 METAR ESMX 230850Z 21005KT 5000 BR FEW005 BKN007 OVC010 01/00 Q0990=
200912230820 METAR ESMX 230820Z 22005KT 6000 BR FEW004 BKN006 01/00 Q0990=
200912230750 METAR ESMX 230750Z 22007KT 3000 -SN BKN004 OVC008 01/00 Q0990=
200912230720 METAR ESMX 230720Z 23007KT 200V260 4500 -SN SCT004 BKN008 00/00 Q0989=
200912230650 METAR ESMX 230650Z 24005KT 3100 -SN BKN004 OVC008 00/00 Q0989=
200912230620 METAR ESMX 230620Z 23006KT 4000 -SN FEW003 OVC004 00/00 Q0988=
200912230550 METAR ESMX 230550Z 23006KT 2000 -SN BKN003 BKN006 00/00 Q0988=
200912230520 METAR ESMX 230520Z 22007KT 2500 -SN FEW003 OVC004 00/00 Q0987=
200912230450 METAR ESMX 230450Z 21008KT 3000 -SN FEW003 BKN005 OVC007 00/00 Q0987=
200912230420 METAR ESMX 230420Z AUTO 20008KT 2300NDV -RA FEW002/// OVC004/// 00/M00 Q0987=
200912230350 METAR ESMX 230350Z AUTO 22005KT 3000NDV -SN BKN003/// M00/M01 Q0986 RESG=
200912230320 METAR ESMX 230320Z AUTO 22005KT 1400NDV R01/P2000N R19/P2000N -SN FEW004/// SCT028/// M00/M01 Q0986=
200912230250 METAR ESMX 230250Z AUTO 23005KT 2100NDV -SN BKN004/// M00/M01 Q0985 RESG=
200912230220 METAR ESMX 230220Z AUTO 22005KT 4400NDV -SN BKN005/// OVC008/// M01/M01 Q0985=
200912230150 METAR ESMX 230150Z 17002KT 2000 -SN OVC005 M02/M02 Q0984=
200912230120 METAR ESMX 230120Z 19004KT 3000 SN FEW005 SCT007 BKN009 M02/M02 Q0984=
200912230050 METAR ESMX 230050Z 18005KT 4000 -SN FEW006 BKN010 OVC015 M02/M02 Q0984=
200912230020 METAR ESMX 230020Z 18007KT 3000 -SN FEW006 OVC010 M02/M02 Q0984=
200912222350 METAR ESMX 222350Z 19006KT 5000 -SN OVC006 M02/M03 Q0984=
200912222320 METAR ESMX 222320Z 20008KT 5000 -SN OVC006 M02/M03 Q0983=
200912222250 METAR ESMX 222250Z 21010KT 7000 BR BKN007 OVC010 M02/M03 Q0983=
200912222220 METAR ESMX 222220Z 23010KT 9000 BR FEW003 BKN004 OVC010 M01/M02 Q0982=
200912222150 METAR ESMX 222150Z 22008KT 200V260 4500 BR FEW003 SCT004 OVC006 M01/M02 Q0982=
200912222120 METAR ESMX 222120Z 21008KT 160V240 9999 SCT006 BKN008 OVC010 M01/M02 Q0982=
200912222050 METAR ESMX 222050Z 18006KT 9999 FEW007 SCT009 BKN010 M01/M01 Q0982=
200912222020 METAR ESMX 222020Z 18003KT 150V220 7000 -SN FEW005 SCT007 BKN009 M01/M01 Q0981=
200912221950 METAR ESMX 221950Z VRB01KT 5000 -SN SCT005 BKN008 M01/M01 Q0981=
200912221920 METAR ESMX 221920Z VRB02KT 2000 SN SCT006 BKN018 M01/M01 Q0981=
200912221850 METAR ESMX 221850Z 08003KT 050V130 0800 R01/P2000N R19/P2000N SN VV003 M01/M01 Q0982=
200912221820 METAR ESMX 221820Z VRB02KT 0650 R01/P2000N R19/P2000 SN VV003 M01/M02 Q0982=
200912221750 METAR ESMX 221750Z 08004KT 040V140 0750 R01/P2000N R19/P2000N SN VV002 M01/M02 Q0983=
200912221720 METAR ESMX 221720Z 06004KT 360V120 1100 R01/P2000N R19/P2000N SN VV009 M01/M02 Q0983=
200912221650 METAR ESMX 221650Z 07006KT 020V120 0700 R01/P2000N R19/P2000N SN FEW000 SCT006 M01/M02 Q0983=
200912221620 METAR ESMX 221620Z 05006KT 020V100 0750 R01/P2000N R19/P2000N SN FEW006 SCT009 M02/M02 Q0984=
200912221550 METAR ESMX 221550Z 07007KT 030V140 0900 R01/P2000N R19/P2000N SN FEW007 BKN010 M02/M02 Q0985=
200912221520 METAR ESMX 221520Z 08007KT 030V120 2200 SN OVC008 M02/M02 Q0986=
200912221450 METAR ESMX 221450Z 08007KT 030V130 6000 -SN FEW009 BKN010 M02/M03 Q0987=
200912221420 METAR ESMX 221420Z 08007KT 030V130 9999 BKN010 M02/M04 Q0987=
200912221350 METAR ESMX 221350Z 08006KT 040V110 9999 BKN010 BKN014 M02/M04 Q0988=
200912221320 METAR ESMX 221320Z 09007KT 050V140 9999 BKN009 M02/M04 Q0989=
200912221250 METAR ESMX 221250Z 09005KT 040V150 9999 SCT011 BKN015 M03/M04 Q0990=
200912221220 METAR ESMX 221220Z 10005KT 050V170 9999 FEW010 OVC016 M03/M05 Q0990=
200912221150 METAR ESMX 221150Z 10004KT 060V150 9999 SCT009 OVC016 M03/M05 Q0991=
200912221120 METAR ESMX 221120Z 10005KT 060V160 9999 FEW010 OVC016 M03/M05 Q0992=
200912221050 METAR ESMX 221050Z 12004KT 020V170 9999 OVC015 M04/M05 Q0993=
200912221020 METAR ESMX 221020Z 11005KT 070V170 9999 FEW012 OVC015 M04/M06 Q0994=
200912220950 METAR ESMX 220950Z 13005KT 090V170 9999 SCT010 OVC020 M04/M06 Q0995=
200912220920 METAR ESMX 220920Z 14005KT 100V190 9999 FEW017 OVC020 M05/M06 Q0995=
200912220850 METAR ESMX 220850Z 12003KT 020V190 9999 OVC020 M05/M06 Q0995=
200912220820 METAR ESMX 220820Z 12003KT 060V200 9999 OVC022 M05/M06 Q0995=
200912220750 METAR ESMX 220750Z VRB02KT 9999 OVC022 M06/M07 Q0996=
200912220720 METAR ESMX 220720Z VRB01KT 9999 OVC022 M06/M07 Q0996=
200912220650 METAR ESMX 220650Z VRB02KT 9999 OVC020 M06/M07 Q0996=
200912220620 METAR ESMX 220620Z VRB02KT 9999 OVC021 M07/M08 Q0997=
200912220550 METAR ESMX 220550Z VRB02KT 9999 OVC023 M08/M09 Q0997=
200912220450 METAR ESMX 220450Z 11002KT 9999 OVC024 M10/M11 Q0998=
200912220420 METAR ESMX 220420Z AUTO VRB02KT 9999NDV OVC024/// M10/M11 Q0998=
200912220350 METAR ESMX 220350Z AUTO VRB01KT 9999NDV OVC022/// M11/M12 Q0999=
200912220320 METAR ESMX 220320Z AUTO 00000KT 9999NDV FEW016/// BKN023/// M12/M13 Q0999=
200912220250 METAR ESMX 220250Z AUTO VRB01KT 9999NDV OVC026/// M12/M14 Q0999=
200912220220 METAR ESMX 220220Z AUTO 00000KT 9999NDV FEW023/// OVC026/// M13/M14 Q0999=
200912220150 METAR ESMX 220150Z VRB01KT 9999 BKN026 M14/M15 Q0999=
200912220120 METAR ESMX 220120Z VRB01KT 9999 BKN025 M15/M16 Q0999=
200912212350 METAR ESMX 212350Z 00000KT 9999 SCT025 M17/M19 Q1000=
200912212320 METAR ESMX 212320Z 00000KT 9999 FEW001 M17/M19 Q1000=
200912212250 METAR ESMX 212250Z 00000KT 9999 SCT001 M17/M19 Q1000=
200912212220 METAR ESMX 212220Z 00000KT 9999 FZFG SCT001 M17/M19 Q1000=
200912212150 METAR ESMX 212150Z 00000KT 8000 FZFG BR SCT000 M17/M19 Q1000=
200912212120 METAR ESMX 212120Z 34001KT 9999 1500N BR SCT000 M16/M18 Q1000=
200912212050 METAR ESMX 212050Z VRB01KT 9999 SCT000 OVC001 M17/M18 Q1000=
200912212020 METAR ESMX 212020Z VRB01KT 9999 OVC001 M16/M18 Q1000=
200912211950 METAR ESMX 211950Z 00000KT 9999 BKN001 M16/M18 Q1000=
200912211920 METAR COR ESMX 211920Z 00000KT 9999 FEW001 M16/M18 Q0999=
200912211850 METAR ESMX 211850Z 00000KT CAVOK M16/M18 Q0999=
200912211820 METAR ESMX 211820Z 00000KT CAVOK M16/M18 Q1000=
200912211750 METAR ESMX 211750Z 00000KT CAVOK M15/M17 Q0999=
200912211720 METAR ESMX 211720Z 00000KT CAVOK M14/M16 Q0999=
200912211650 METAR ESMX 211650Z VRB02KT CAVOK M14/M15 Q0999=
200912211620 METAR ESMX 211620Z 17001KT CAVOK M14/M15 Q0999=
200912211550 METAR ESMX 211550Z 18001KT CAVOK M13/M15 Q0999=
200912211520 METAR ESMX 211520Z 13001KT CAVOK M12/M14 Q0999=
200912211450 METAR ESMX 211450Z 17002KT CAVOK M11/M13 Q0999=
200912211420 METAR ESMX 211420Z 22004KT CAVOK M11/M12 Q0999=
200912211350 METAR ESMX 211350Z 18003KT 9999 NSC M10/M11 Q0999=
200912211320 METAR ESMX 211320Z 18002KT CAVOK M10/M11 Q0999=
200912211250 METAR ESMX 211250Z VRB01KT 9999 FEW030 M10/M11 Q0999=
200912211220 METAR ESMX 211220Z 01001KT 9999 SCT028 M10/M11 Q0999=
200912211150 METAR ESMX 211150Z VRB01KT 9999 FEW047 BKN053 M09/M10 Q0999=
200912211120 METAR ESMX 211120Z VRB02KT 9999 FEW017 BKN027 M09/M11 Q0998=
200912211050 METAR ESMX 211050Z 00000KT 9999 FEW021 OVC028 M08/M09 Q0998=
200912211020 METAR ESMX 211020Z 00000KT 9999 FEW019 BKN028 M09/M10 Q0998=
200912210950 METAR ESMX 210950Z 00000KT 9999 FEW020 BKN028 M10/M11 Q0998=
200912210920 METAR ESMX 210920Z 00000KT 9999 FEW023 BKN028 M10/M12 Q0998=
200912210850 METAR ESMX 210850Z 00000KT 9999 SCT029 OVC076 M11/M12 Q0998=
200912210820 METAR ESMX 210820Z VRB01KT 9999 SCT028 OVC075 M11/M12 Q0998=
200912210750 METAR ESMX 210750Z VRB01KT 9999 BKN027 M12/M13 Q0998=
200912210720 METAR ESMX 210720Z VRB01KT 9999 OVC027 M12/M14 Q0997=
200912210650 METAR ESMX 210650Z VRB01KT 9999 BKN028 M13/M14 Q0997=
200912210620 METAR ESMX 210620Z 00000KT 9999 FEW030 OVC073 M12/M13 Q0997=
200912210550 METAR ESMX 210550Z VRB01KT CAVOK M12/M13 Q0997=
200912210520 METAR ESMX 210520Z 00000KT CAVOK M11/M12 Q0997=
200912210420 METAR ESMX 210420Z AUTO 00000KT 9999NDV OVC073/// M10/M11 Q0997=
200912210350 METAR ESMX 210350Z AUTO 00000KT 6000NDV -SN FEW006/// BKN074/// M09/M10 Q0997=
200912210320 METAR ESMX 210320Z AUTO 21001KT 1900NDV -SN FEW011/// SCT022/// BKN034/// M09/M10 Q0997=
200912210250 METAR ESMX 210250Z AUTO VRB02KT 4800NDV -SN FEW008/// OVC028/// M09/M10 Q0997=
200912210220 METAR ESMX 210220Z AUTO 00000KT 3100NDV -SN FEW005/// SCT022/// BKN028/// M09/M10 Q0997=
200912210150 METAR ESMX 210150Z AUTO 00000KT 1200NDV R01/P2000N R19/P2000N -SN FEW006/// M09/M10 Q0997=
200912210050 METAR ESMX 210050Z 02002KT 3900 -SN FEW018 BKN080 M09/M10 Q0997=
200912210020 METAR ESMX 210020Z 03003KT 4900 -SN FEW045 BKN080 M08/M09 Q0997=
200912202350 METAR ESMX 202350Z 05001KT 5000 -SN FEW043 SCT070 M09/M10 Q0997=
200912202320 METAR ESMX 202320Z 05001KT 4900 -SN FEW007 SCT070 M09/M10 Q0997=
200912202250 METAR ESMX 202250Z 00000KT 3100 -SN FEW027 BKN070 M09/M10 Q0997=
200912202150 METAR ESMX 202150Z 19001KT 1700 SN FEW005 BKN070 M09/M10 Q0997=
200912202120 METAR ESMX 202120Z 19002KT 2000 R19/P2000N SN FEW006 BKN070 M08/M09 Q0998=
200912202050 METAR ESMX 202050Z 00000KT 5000 -SN FEW031 BKN070 M09/M10 Q0997=
200912202020 METAR ESMX 202020Z 00000KT 9999 FEW040 BKN053 M09/M10 Q0997=
200912201950 METAR ESMX 201950Z 00000KT 9999 FEW035 OVC056 M09/M10 Q0997=
200912201850 METAR ESMX 201850Z 12001KT 5000 -SN FEW025 SCT037 BKN060 M09/M10 Q0997=
200912201820 METAR ESMX 201820Z 12001KT 3500 -SN FEW018 SCT027 BKN060 M09/M11 Q0997=
200912201750 METAR ESMX 201750Z VRB01KT 6000 -SN FEW008 SCT038 BKN060 M10/M11 Q0998=
200912201720 METAR ESMX 201720Z 00000KT 5000 -SN FEW013 SCT023 BKN060 M10/M11 Q0998=
200912201650 METAR ESMX 201650Z 12002KT 9999 FEW020 SCT060 M10/M11 Q0998=
200912201620 METAR ESMX 201620Z VRB01KT 7000 -SN SCT018 M10/M11 Q0998=
200912201550 METAR ESMX 201550Z 12001KT 7000 -SN BKN020 M09/M10 Q0998=
200912201520 METAR ESMX 201520Z VRB01KT 5000 -SN BKN020 M07/M09 Q0998=
200912201450 METAR ESMX 201450Z VRB02KT 7000 -SN FEW016 OVC020 M07/M09 Q0998=
200912201420 METAR ESMX 201420Z VRB02KT 6000 -SN OVC018 M07/M09 Q0999=
200912201350 METAR ESMX 201350Z VRB02KT 5000 -SN OVC019 M07/M09 Q0999=
200912201320 METAR ESMX 201320Z VRB02KT 9999 -SN OVC020 M07/M09 Q0999=
200912201250 METAR ESMX 201250Z AUTO 00000KT 5000NDV -SN FEW014/// OVC022/// M07/M09 Q0999=
200912201220 METAR ESMX 201220Z AUTO 00000KT 6000NDV -SN FEW018/// M07/M09 Q0999=
200912201150 METAR ESMX 201150Z AUTO VRB02KT 9999NDV FEW014/// M07/M10 Q0999=
200912201120 METAR ESMX 201120Z AUTO VRB02KT 9999NDV NCD M06/M09 Q0999=
200912201050 METAR ESMX 201050Z AUTO VRB02KT 9999NDV IC BKN014/// M07/M10 Q0999=
200912201020 METAR ESMX 201020Z AUTO 08003KT 040V120 9999NDV BKN016/// M08/M10 Q1000 RESG=
200912200950 METAR ESMX 200950Z AUTO 09003KT 030V120 9999NDV -SN FEW009/// BKN015/// M08/M10 Q1000=
200912200920 METAR ESMX 200920Z AUTO 09003KT 020V140 7000NDV -SN OVC015/// M08/M10 Q1000=
200912200850 METAR ESMX 200850Z AUTO VRB02KT 9000NDV -SN OVC015/// M08/M10 Q1000=
200912200820 METAR ESMX 200820Z AUTO VRB02KT 9999NDV IC OVC014/// M09/M10 Q1000=
200912200750 METAR ESMX 200750Z AUTO VRB02KT 9999NDV -SN OVC014/// M09/M10 Q1000=
200912200720 METAR ESMX 200720Z AUTO VRB02KT 9999NDV OVC014/// M09/M11 Q1000=
200912200650 METAR ESMX 200650Z AUTO VRB02KT 9999NDV -SN BKN015/// OVC024/// M09/M10 Q1000=
200912200620 METAR ESMX 200620Z AUTO 07003KT 050V110 9999NDV -SN SCT017/// BKN021/// M09/M10 Q1000=
200912200550 METAR ESMX 200550Z AUTO 06003KT 020V100 8000NDV -SN FEW021/// SCT031/// BKN043/// M09/M10 Q1001=
200912200520 METAR ESMX 200520Z AUTO 07003KT 020V100 9999NDV FEW030/// SCT042/// OVC050/// M09/M11 Q1001=
200912200450 METAR ESMX 200450Z AUTO 06003KT 030V100 9999NDV FEW036/// M10/M11 Q1001=
200912200420 METAR ESMX 200420Z AUTO 08004KT 030V110 9999NDV FEW071/// M09/M11 Q1001=
200912200350 METAR ESMX 200350Z AUTO 08004KT 050V110 9999NDV FEW034/// SCT039/// M09/M11 Q1001=
200912200320 METAR ESMX 200320Z AUTO 08004KT 030V130 9999NDV SCT033/// OVC066/// M09/M10 Q1002=
200912200250 METAR ESMX 200250Z AUTO 07003KT 020V110 9999NDV FEW029/// SCT033/// BKN066/// M09/M10 Q1002=
200912200220 METAR ESMX 200220Z AUTO 07003KT 030V120 9999NDV FEW022/// SCT033/// BKN040/// M09/M10 Q1002=
200912200150 METAR ESMX 200150Z AUTO 08003KT 040V120 9999NDV BKN025/// OVC067/// M08/M10 Q1002=
200912200120 METAR ESMX 200120Z AUTO 08003KT 050V110 9999NDV SCT034/// OVC063/// M08/M10 Q1002=
200912200050 METAR ESMX 200050Z AUTO VRB02KT 9999NDV BKN034/// OVC064/// M08/M10 Q1002=
200912200020 METAR ESMX 200020Z AUTO 07003KT 030V110 9999NDV OVC063/// M08/M10 Q1002=
200912192350 METAR ESMX 192350Z AUTO 08003KT 050V120 9999NDV OVC062/// M08/M09 Q1003=
200912192320 METAR ESMX 192320Z AUTO 08003KT 9999NDV BKN030/// OVC063/// M08/M09 Q1003=
200912192250 METAR ESMX 192250Z AUTO VRB02KT 9999NDV SCT037/// OVC060/// M08/M10 Q1003=
200912192220 METAR ESMX 192220Z AUTO VRB02KT 9999NDV FEW032/// SCT041/// OVC061/// M08/M10 Q1003=
200912192150 METAR ESMX 192150Z AUTO VRB02KT 9999NDV FEW044/// OVC061/// M08/M10 Q1004=
200912192120 METAR ESMX 192120Z AUTO 11002KT 9999NDV FEW033/// OVC062/// M08/M10 Q1004=
200912192050 METAR ESMX 192050Z AUTO VRB02KT 9999NDV FEW037/// SCT054/// OVC064/// M09/M10 Q1004=
200912192020 METAR ESMX 192020Z AUTO VRB02KT 9999NDV BKN032/// OVC054/// M08/M10 Q1004=
200912191950 METAR ESMX 191950Z AUTO VRB02KT 9999NDV BKN031/// BKN053/// M08/M09 Q1004=
200912191920 METAR ESMX 191920Z AUTO 15003KT 120V190 9999NDV IC FEW040/// BKN053/// M08/M09 Q1004 RESG=
200912191850 METAR ESMX 191850Z AUTO 14004KT 100V170 9999NDV SG BKN024/// BKN054/// M08/M09 Q1004=
200912191820 METAR ESMX 191820Z AUTO 15004KT 100V190 6000NDV -SN SCT025/// M08/M09 Q1005=
200912191750 METAR ESMX 191750Z AUTO 15005KT 110V190 5000NDV -SN FEW027/// M08/M09 Q1005=
200912191720 METAR ESMX 191720Z AUTO 16004KT 3800NDV -SN NCD M07/M09 Q1005=
200912191650 METAR ESMX 191650Z AUTO 16005KT 120V190 3700NDV -SN FEW010/// SCT034/// BKN052/// M07/M09 Q1005=
200912191620 METAR ESMX 191620Z AUTO 15006KT 080V170 4200NDV -SN FEW008/// SCT009/// BKN016/// M07/M09 Q1005=
200912191550 METAR ESMX 191550Z AUTO 14005KT 080V170 3700NDV -SN FEW009/// BKN015/// OVC019/// M07/M08 Q1005=
200912191520 METAR ESMX 191520Z AUTO 14006KT 110V180 2900NDV -SN FEW012/// BKN019/// M07/M08 Q1005=
200912191450 METAR ESMX 191450Z AUTO VRB02KT 1100NDV R01/P2000N R19/P2000N -SN FEW020/// BKN025/// M07/M08 Q1005=
200912191420 METAR ESMX 191420Z 12003KT 060V160 2000 -SN SCT010 BKN020 M07/M08 Q1005=
200912191350 METAR ESMX 191350Z 11003KT 060V170 7000 -SN SCT010 BKN020 M07/M08 Q1005=
200912191320 METAR ESMX 191320Z 11003KT 050V160 9999 -SN SCT010 BKN017 M06/M08 Q1006=
200912191250 METAR ESMX 191250Z 10003KT 040V150 3800 -SN SCT013 BKN025 M06/M08 Q1006=
200912191220 METAR ESMX 191220Z 07004KT 020V120 9999 -SN FEW010 SCT020 M06/M09 Q1006=
200912191150 METAR ESMX 191150Z 06006KT 020V100 9999 FEW012 M06/M09 Q1006=
200912191120 METAR ESMX 191120Z 03006KT 9999 FEW045 SCT080 M06/M09 Q1006=
200912191050 METAR ESMX 191050Z 03005KT CAVOK M07/M09 Q1007=
200912191020 METAR ESMX 191020Z 02006KT 9999 FEW025 BKN070 M07/M10 Q1007=
200912190950 METAR ESMX 190950Z 02005KT 350V060 9999 -SN SCT030 BKN070 M08/M10 Q1008=
200912190920 METAR ESMX 190920Z 03005KT 360V060 9999 FEW030 SCT095 M08/M11 Q1008=
200912190850 METAR ESMX 190850Z 02006KT 9999 BKN030 M09/M11 Q1009=
200912190820 METAR ESMX 190820Z 02005KT 9999 FEW020 SCT035 M10/M11 Q1009=
200912190750 METAR ESMX 190750Z 02005KT 9999 FEW020 M10/M12 Q1009=
200912190720 METAR ESMX 190720Z 02006KT 9999 FEW025 M11/M12 Q1009=
200912190650 METAR ESMX 190650Z AUTO 02004KT 9999NDV FEW025/// M11/M12 Q1009=
200912190620 METAR ESMX 190620Z AUTO 02003KT 350V050 9999NDV NCD M10/M12 Q1009=
200912190550 METAR ESMX 190550Z AUTO 02003KT 350V060 9999NDV NCD M10/M12 Q1010=
200912190520 METAR ESMX 190520Z AUTO 05003KT 010V090 9999NDV NCD M09/M11 Q1010=
200912190450 METAR ESMX 190450Z AUTO 05004KT 010V080 9999NDV NCD M09/M12 Q1011=
200912190420 METAR ESMX 190420Z AUTO 05004KT 020V080 9999NDV FEW025/// M09/M11 Q1011=
200912190350 METAR ESMX 190350Z AUTO 02003KT 350V070 9999NDV FEW022/// BKN033/// M09/M11 Q1011=
200912190320 METAR ESMX 190320Z AUTO 02004KT 340V040 9999NDV BKN032/// M10/M12 Q1012=
200912190250 METAR ESMX 190250Z AUTO 03005KT 9999NDV NCD M10/M11 Q1012=
200912190220 METAR ESMX 190220Z AUTO 03005KT 9999NDV NCD M10/M12 Q1012=
200912190150 METAR ESMX 190150Z AUTO 02005KT 9999NDV NCD M09/M12 Q1013=
200912190120 METAR ESMX 190120Z AUTO 03004KT 9999NDV NCD M09/M11 Q1013=
200912190050 METAR ESMX 190050Z AUTO 02004KT 360V070 9999NDV NCD M09/M11 Q1013=
200912190020 METAR ESMX 190020Z AUTO 04004KT 010V070 9999NDV NCD M08/M11 Q1013=
200912182350 METAR ESMX 182350Z AUTO 05004KT 020V110 9999NDV NCD M07/M10 Q1013=
200912182320 METAR ESMX 182320Z AUTO 06005KT 020V110 9999NDV FEW021/// M07/M10 Q1014=
200912182250 METAR ESMX 182250Z AUTO 07006KT 020V110 9999NDV NCD M07/M10 Q1014=
200912182220 METAR ESMX 182220Z AUTO 05004KT 010V110 9999NDV NCD M07/M10 Q1014=
200912182150 METAR ESMX 182150Z AUTO 06005KT 030V090 9999NDV NCD M07/M10 Q1014=
200912182120 METAR ESMX 182120Z 04005KT 010V090 CAVOK M07/M10 Q1015=
200912182050 METAR ESMX 182050Z 06005KT 020V100 CAVOK M06/M10 Q1015=
200912182020 METAR ESMX 182020Z 04005KT CAVOK M06/M10 Q1015=
200912181950 METAR ESMX 181950Z 05005KT CAVOK M06/M10 Q1015=
200912181920 METAR ESMX 181920Z 05005KT CAVOK M07/M10 Q1015=
200912181850 METAR ESMX 181850Z 05005KT CAVOK M07/M10 Q1016=
200912181820 METAR ESMX 181820Z 06005KT CAVOK M06/M09 Q1016=
200912181750 METAR ESMX 181750Z 07005KT 030V110 CAVOK M06/M09 Q1016=
200912181720 METAR ESMX 181720Z 07006KT 030V100 CAVOK M06/M10 Q1016=
200912181650 METAR ESMX 181650Z 05006KT 360V080 CAVOK M06/M09 Q1016=
200912181620 METAR ESMX 181620Z 06007KT 010V110 CAVOK M05/M09 Q1016=
200912181550 METAR ESMX 181550Z 07007KT 020V110 CAVOK M05/M09 Q1016=
200912181520 METAR ESMX 181520Z 06007KT 010V110 CAVOK M05/M09 Q1016=
200912181450 METAR ESMX 181450Z 07007KT 020V110 CAVOK M05/M09 Q1016=
200912181420 METAR ESMX 181420Z 05006KT 350V080 CAVOK M05/M09 Q1017=
200912181350 METAR ESMX 181350Z 06006KT 030V100 CAVOK M05/M09 Q1017=
200912181320 METAR ESMX 181320Z 04007KT 010V090 CAVOK M04/M09 Q1017=
200912181250 METAR ESMX 181250Z 06006KT 010V100 CAVOK M04/M09 Q1017=
200912181220 METAR ESMX 181220Z 06006KT 020V100 CAVOK M04/M08 Q1017=
200912181150 METAR ESMX 181150Z 05007KT 020V100 CAVOK M04/M08 Q1017=
200912181120 METAR ESMX 181120Z 06007KT 020V110 CAVOK M04/M08 Q1017=
200912181050 METAR ESMX 181050Z 06007KT 340V110 CAVOK M05/M08 Q1017=
200912181020 METAR ESMX 181020Z 06007KT 020V100 CAVOK M05/M08 Q1017=
200912180950 METAR ESMX 180950Z 04007KT 340V100 CAVOK M05/M08 Q1018=
200912180920 METAR ESMX 180920Z 06007KT 020V110 CAVOK M05/M08 Q1018=
200912180850 METAR ESMX 180850Z 04008KT 360V070 9999 FEW027 M05/M08 Q1018=
200912180820 METAR ESMX 180820Z 06008KT 020V090 CAVOK M05/M08 Q1018=
200912180750 METAR ESMX 180750Z 05008KT 020V080 CAVOK M05/M08 Q1018=
200912180720 METAR ESMX 180720Z 05010KT 360V080 CAVOK M05/M08 Q1018=
200912180650 METAR ESMX 180650Z 05010KT 020V100 9999 SCT028 M05/M08 Q1018=
200912180620 METAR ESMX 180620Z 05010KT 020V090 9999 BKN028 M05/M08 Q1018=
200912180550 METAR ESMX 180550Z 05011KT 350V080 9999 FEW028 M05/M08 Q1018=
200912180520 METAR ESMX 180520Z 05010KT 020V080 9999 SCT028 M05/M08 Q1018=
200912180450 METAR ESMX 180450Z 05009KT 010V080 9999 BKN024 M06/M08 Q1018=
200912180420 METAR ESMX 180420Z AUTO 04009KT 020V080 9999NDV BKN024/// M06/M08 Q1018=
200912180350 METAR ESMX 180350Z AUTO 04010KT 020V080 9999NDV BKN025/// M05/M08 Q1018=
200912180320 METAR ESMX 180320Z AUTO 04011KT 020V080 9999NDV BKN025/// M05/M08 Q1018=
200912180250 METAR ESMX 180250Z AUTO 04010KT 010V080 9999NDV BKN026/// M05/M08 Q1019=
200912180220 METAR ESMX 180220Z AUTO 04011KT 350V070 9999NDV FEW023/// SCT028/// M05/M08 Q1018=
200912180150 METAR ESMX 180150Z 04011KT 9999 FEW027 M05/M08 Q1019=
200912180120 METAR ESMX 180120Z 04011KT 360V070 9999 FEW022 M05/M08 Q1019=
200912180050 METAR ESMX 180050Z 04010KT 010V080 9999 FEW015 M05/M08 Q1019=
200912180020 METAR ESMX 180020Z 04011KT 9999 FEW015 M05/M08 Q1019=
200912172350 METAR ESMX 172350Z 04011KT 010V080 9999 FEW016 M05/M08 Q1019=
200912172320 METAR ESMX 172320Z 04010KT 010V090 9999 FEW016 M05/M08 Q1019=
200912172250 METAR ESMX 172250Z 04012KT 9999 FEW015 M05/M07 Q1019=
200912172220 METAR ESMX 172220Z 05011KT 010V070 9999 FEW017 SCT027 M04/M07 Q1019=
200912172150 METAR ESMX 172150Z 04010G20KT 350V080 9999 BKN016 BKN035 M04/M07 Q1019=
200912172120 METAR ESMX 172120Z 06009KT 020V110 9999 -SN BKN015 OVC022 M03/M06 Q1018=
200912172050 METAR ESMX 172050Z 05010KT 020V100 9999 -SN FEW017 SCT022 BKN027 M03/M06 Q1018=
200912172020 METAR ESMX 172020Z 06008KT 020V140 9999 -SN FEW015 BKN025 M03/M06 Q1018=
200912171950 METAR ESMX 171950Z 05007KT 360V100 9999 -SN FEW018 OVC025 M03/M05 Q1018=
200912171920 METAR ESMX 171920Z 06006KT 020V100 9999 -SN OVC026 M03/M05 Q1017=
200912171850 METAR ESMX 171850Z 05005KT 020V080 9999 FEW023 OVC031 M03/M05 Q1017=
200912171820 METAR ESMX 171820Z 07004KT 030V110 9999 -SN FEW009 OVC030 M04/M05 Q1017=
200912171750 METAR ESMX 171750Z 04005KT 010V080 9999 FEW009 BKN011 OVC025 M04/M05 Q1016=
200912171720 METAR ESMX 171720Z 02007KT 350V050 4700 -SN FEW010 OVC012 M05/M06 Q1016=
200912171650 METAR ESMX 171650Z 04008KT 360V080 6000 -SN FEW008 SCT012 BKN015 M05/M06 Q1016=
200912171620 METAR ESMX 171620Z 02008KT 9999 -SN SCT010 BKN020 BKN033 M05/M07 Q1016=
200912171550 METAR ESMX 171550Z 02009KT 9999 -SN OVC013 M06/M08 Q1015=
200912171520 METAR ESMX 171520Z 02010KT 9999 -SN FEW012 OVC016 M06/M08 Q1015=
200912171450 METAR ESMX 171450Z 02010KT 3700 -SN FEW010 BKN016 BKN024 M06/M08 Q1015=
200912171420 METAR ESMX 171420Z 01011KT 340V040 5000 -SN FEW016 SCT020 BKN024 M06/M08 Q1015=
200912171350 METAR ESMX 171350Z 01014KT 7000 -SN OVC017 M06/M09 Q1015=
200912171320 METAR ESMX 171320Z 02013KT 9999 -SN FEW017 BKN020 OVC028 M06/M09 Q1015=
200912171250 METAR ESMX 171250Z 02015KT 7000 -SN BKN016 M06/M09 Q1015=
200912171220 METAR ESMX 171220Z 02016KT 7000 -SN BKN017 M07/M09 Q1015=
200912171150 METAR ESMX 171150Z 02016KT 9999 -SN BKN018 M07/M09 Q1015=
200912171120 METAR ESMX 171120Z 01015KT 9999 BKN017 M07/M10 Q1015=
200912171050 METAR ESMX 171050Z 01022KT 9999 IC OVC017 M07/M10 Q1015 RESG=
200912171020 METAR ESMX 171020Z 36016KT 9999 -SN FEW015 SCT018 M07/M10 Q1015=
200912170950 METAR ESMX 170950Z 01014KT 9999 -SN FEW012 SCT017 M07/M10 Q1015=
200912170920 METAR ESMX 170920Z 02015KT 9999 -SN FEW013 SCT017 M07/M10 Q1015=
200912170850 METAR ESMX 170850Z 01014KT 330V030 9999 -SN BKN016 M07/M10 Q1015=
200912170820 METAR ESMX 170820Z 01014KT 9999 -SN SCT015 BKN020 M07/M10 Q1015=
200912170750 METAR ESMX 170750Z 02015KT 9999 SCT016 BKN020 M07/M10 Q1015=
200912170720 METAR ESMX 170720Z 01014KT 9999 SCT016 BKN020 M07/M09 Q1015=
200912170650 METAR ESMX 170650Z 02012KT 9999 SCT014 BKN020 M07/M09 Q1014=
200912170620 METAR ESMX 170620Z 02015KT 350V050 9999 SCT014 BKN018 M06/M09 Q1014=
200912170550 METAR ESMX 170550Z 01013G23KT 9999 BKN016 M06/M09 Q1014=
200912170520 METAR ESMX 170520Z 02014KT 9999 -SN FEW014 SCT019 BKN027 M07/M09 Q1014=
200912170450 METAR ESMX 170450Z 02013KT 340V050 9999 FEW016 SCT019 BKN022 M07/M09 Q1014=
200912170420 METAR ESMX 170420Z AUTO 02014KT 9999NDV -SN FEW013/// SCT016/// BKN018/// M07/M09 Q1014=
200912170350 METAR ESMX 170350Z AUTO 02013KT 9999NDV FEW014/// SCT021/// M07/M09 Q1014=
200912170320 METAR ESMX 170320Z AUTO 03014KT 350V050 9999NDV FEW014/// SCT017/// M07/M09 Q1013=
200912170250 METAR ESMX 170250Z AUTO 02015KT 9999NDV BKN016/// M06/M09 Q1013=
200912170220 METAR ESMX 170220Z AUTO 02013KT 350V060 9999NDV BKN017/// M06/M09 Q1014=
200912170150 METAR ESMX 170150Z 01014KT 9999 FEW014 SCT020 M06/M09 Q1013=
200912170120 METAR ESMX 170120Z 02015G25KT 9999 FEW014 BKN017 M06/M08 Q1014=
200912170050 METAR ESMX 170050Z 03014G26KT 9999 BKN014 BKN020 M06/M08 Q1014=
200912170020 METAR ESMX 170020Z 02014KT 350V050 9999 FEW018 M06/M08 Q1013=
200912162350 METAR ESMX 162350Z 01018KT 9999 FEW018 SCT020 M05/M08 Q1013=
200912162320 METAR ESMX 162320Z 03014KT 350V070 9999 FEW016 BKN019 M05/M07 Q1013=
200912162250 METAR ESMX 162250Z 01014KT 340V050 9999 -SN FEW016 BKN019 M04/M07 Q1013=
200912162220 METAR ESMX 162220Z 03014KT 350V060 9999 FEW015 BKN017 BKN021 M04/M06 Q1013=
200912162150 METAR ESMX 162150Z 03014KT 360V060 9999 FEW016 SCT019 M04/M06 Q1013=
200912162120 METAR ESMX 162120Z 03015KT 350V070 9999 -SN FEW015 SCT020 BKN064 M03/M06 Q1013=
200912162050 METAR ESMX 162050Z 03013KT 9999 FEW014 SCT017 BKN021 M03/M05 Q1012=
200912162020 METAR ESMX 162020Z 03011KT 360V070 9999 FEW013 SCT018 BKN064 M03/M05 Q1012=
200912161950 METAR ESMX 161950Z 03013KT 350V080 9999 -SN FEW014 SCT018 BKN077 M03/M05 Q1012=
200912161920 METAR ESMX 161920Z 03013G23KT 010V070 9999 -SN FEW013 SCT020 BKN025 M03/M05 Q1011=
200912161850 METAR ESMX 161850Z 04012KT 010V080 9999 FEW014 BKN021 M03/M05 Q1011=
200912161820 METAR ESMX 161820Z 03014KT 360V070 7000 -SN FEW014 BKN020 M03/M05 Q1011=
200912161750 METAR ESMX 161750Z 03012KT 9000 -SN FEW011 SCT016 BKN021 M02/M04 Q1011=
200912161720 METAR ESMX 161720Z 04015KT 010V080 9999 FEW014 SCT018 BKN024 M02/M04 Q1011=
200912161650 METAR ESMX 161650Z 04013G23KT 360V060 9999 -SN SCT010 BKN018 M02/M04 Q1010 RESG=
200912161620 METAR ESMX 161620Z 04012G22KT 9999 SG FEW013 SCT016 BKN020 M01/M03 Q1010=
200912161550 METAR ESMX 161550Z 04012KT 010V070 9999 SCT012 BKN015 M01/M03 Q1010=
200912161520 METAR ESMX 161520Z 04010KT 010V080 9999 FEW012 BKN015 M01/M03 Q1010=
200912161450 METAR ESMX 161450Z 04012KT 010V080 9999 SG FEW012 BKN014 OVC019 M01/M02 Q1009=
200912161420 METAR ESMX 161420Z 04007KT 360V080 9999 -SN FEW008 BKN010 OVC014 M01/M02 Q1009 RESG=
200912161350 METAR ESMX 161350Z 02007KT 7000 -SN FEW005 BKN008 M01/M02 Q1009=
200912161320 METAR ESMX 161320Z 02005KT 9999 BKN006 M01/M02 Q1008=
200912161250 METAR ESMX 161250Z 36004KT 9999 BKN006 BKN035 M01/M02 Q1008=
200912161220 METAR ESMX 161220Z 36003KT 9999 SCT006 BKN029 M01/M02 Q1008=
200912161150 METAR ESMX 161150Z 36004KT 9999 SCT005 OVC030 M01/M02 Q1008=
200912161120 METAR ESMX 161120Z 01003KT 9999 FEW007 BKN030 M01/M02 Q1008=
200912161050 METAR ESMX 161050Z 02002KT 9999 OVC025 M01/M02 Q1008=
200912161020 METAR ESMX 161020Z 36004KT 9999 BKN024 M02/M03 Q1008=
200912160920 METAR ESMX 160920Z 33003KT 9999 BKN025 M02/M03 Q1008=
200912160850 METAR ESMX 160850Z 35003KT 9999 SCT024 BKN030 M02/M03 Q1008=
200912160820 METAR ESMX 160820Z VRB01KT 9999 BKN030 M02/M03 Q1007=
200912160750 METAR ESMX 160750Z VRB01KT 9999 BKN030 M02/M03 Q1007=
200912160720 METAR ESMX 160720Z VRB01KT 9999 BKN024 M02/M03 Q1007=
200912160620 METAR ESMX 160620Z 03003KT 9999 OVC025 M02/M02 Q1007=
200912160550 METAR ESMX 160550Z 26004KT 9999 -SN FEW007 SCT020 OVC030 M02/M02 Q1007=
200912160520 METAR ESMX 160520Z 36005KT 6000 -SN FEW008 SCT020 OVC034 M02/M02 Q1007=
200912160450 METAR ESMX 160450Z 26005KT 8000 -SN FEW007 SCT021 BKN030 M02/M02 Q1007=
200912160420 METAR ESMX 160420Z AUTO 26005KT 3400NDV SG FEW009/// SCT013/// BKN026/// M01/M02 Q1007=
200912160350 METAR ESMX 160350Z AUTO 34004KT 320V020 2100NDV -SN FEW006/// BKN013/// M01/M01 Q1007 RESG=
200912160320 METAR ESMX 160320Z AUTO 26003KT 3400NDV SG BKN004/// OVC010/// M01/M01 Q1007=
200912160250 METAR ESMX 160250Z AUTO 26002KT 2500NDV SG FEW003/// SCT005/// BKN006/// M01/M01 Q1008=
200912160220 METAR ESMX 160220Z AUTO 01001KT 2200NDV -SN FEW006/// SCT008/// BKN010/// M01/M01 Q1008=
200912160150 METAR ESMX 160150Z AUTO 26001KT 2300NDV -SN FEW004/// SCT006/// BKN009/// M01/M01 Q1008=
200912160120 METAR ESMX 160120Z 00000KT 9999 BKN004 OVC007 M01/M01 Q1008=
200912160050 METAR ESMX 160050Z 35002KT 5000 -SN FEW006 BKN020 OVC025 M01/M01 Q1008=
200912160020 METAR ESMX 160020Z 26004KT 3900 -SN BKN008 OVC020 M00/M01 Q1009=
200912152350 METAR ESMX 152350Z 33004KT 9999 -SN FEW005 BKN013 OVC018 M00/M00 Q1009=
200912152320 METAR ESMX 152320Z 26003KT 9999 -SN SCT004 BKN014 OVC016 00/M00 Q1009=
200912152250 METAR ESMX 152250Z VRB02KT 8000 -SN SCT004 OVC005 00/M00 Q1009=
200912152220 METAR ESMX 152220Z 27003KT 5000 -SN SCT003 BKN018 00/M00 Q1009=
200912152150 METAR ESMX 152150Z 28004KT 5000 -SN OVC005 00/00 Q1010=
200912152120 METAR ESMX 152120Z 27004KT 6000 -SN BKN002 OVC005 00/00 Q1010=
200912152050 METAR ESMX 152050Z 23004KT 200V270 5000 -SN OVC002 00/00 Q1010=
200912152020 METAR ESMX 152020Z 23005KT 2700 -SN OVC002 00/00 Q1010=
200912151950 METAR ESMX 151950Z 21004KT 3600 -SN OVC003 00/00 Q1010=
200912151920 METAR ESMX 151920Z 22006KT 4000 -SN OVC003 00/00 Q1010=
200912151850 METAR ESMX 151850Z 22007KT 6000 -SN OVC003 00/00 Q1010=
200912151820 METAR ESMX 151820Z 23008KT 7000 -SN OVC003 00/M00 Q1011=
200912151750 METAR ESMX 151750Z 22007KT 3500 SN OVC003 00/M00 Q1011=
200912151720 METAR ESMX 151720Z 20007KT 4000 -SN FEW003 OVC004 M00/M00 Q1011 RESN=
200912151650 METAR ESMX 151650Z 21008KT 1800 SN OVC003 M00/M01 Q1011=
200912151620 METAR ESMX 151620Z 21007KT 3000 SN FEW003 BKN005 M00/M01 Q1012=
200912151520 METAR ESMX 151520Z 21009KT 2000 SN FEW004 BKN006 M01/M01 Q1012=
200912151450 METAR ESMX 151450Z 19009KT 1800 SN OVC004 M01/M01 Q1013=
200912151420 METAR ESMX 151420Z 18009KT 2500 -SN OVC005 M01/M02 Q1013=
200912151350 METAR ESMX 151350Z 19009KT 2700 -SN SCT005 BKN008 M01/M02 Q1014=
200912151320 METAR ESMX 151320Z 17008KT 1700 -SN BKN005 BKN014 M01/M02 Q1014=
200912151250 METAR ESMX 151250Z 17006KT 2100 -SN FEW005 SCT006 BKN008 M01/M02 Q1015=
200912151220 METAR ESMX 151220Z 17006KT 1600 -SN SCT005 M02/M02 Q1015=
200912151150 METAR ESMX 151150Z 18007KT 1300 R01/1500VP2000U R19/1500VP2000N -SN BKN005 M02/M02 Q1016=
200912151120 METAR COR ESMX 151120Z 18006KT 1500 SN BKN005 M02/M02 Q1016=
200912151050 METAR ESMX 151050Z 19007KT 1400 R01/P2000D R19/P2000D -SN FEW004 BKN006 M02/M03 Q1017=
200912151020 METAR ESMX 151020Z 20008KT 2900 -SN BKN004 BKN040 M02/M03 Q1017=
200912150950 METAR ESMX 150950Z 18006KT 4700 -SN SCT005 BKN012 M02/M03 Q1018=
200912150920 METAR ESMX 150920Z 21007KT 6000 -SN FEW005 OVC007 M03/M03 Q1018=
200912150820 METAR ESMX 150820Z 23005KT 9999 BKN005 M03/M04 Q1018=
200912150750 METAR ESMX 150750Z 22004KT 9999 BKN005 M03/M04 Q1018=
200912150720 METAR ESMX 150720Z 20005KT 9999 FEW005 BKN029 M03/M04 Q1019=
200912150650 METAR ESMX 150650Z 19005KT 9999 FEW006 BKN024 M03/M04 Q1019=
200912150620 METAR ESMX 150620Z 19004KT 9999 BKN025 M03/M04 Q1019=
200912150550 METAR ESMX 150550Z 22004KT 9999 FEW020 OVC024 M03/M04 Q1019=
200912150520 METAR ESMX 150520Z 17003KT 140V220 9999 BKN017 M03/M04 Q1019=
200912150450 METAR ESMX 150450Z VRB01KT 9999 BKN010 M03/M04 Q1020=
200912150420 METAR ESMX 150420Z AUTO 19002KT 9999NDV OVC010/// M03/M04 Q1020=
200912150350 METAR ESMX 150350Z AUTO 22002KT 9999NDV OVC010/// M03/M04 Q1020=
200912150320 METAR ESMX 150320Z AUTO 21002KT 9000NDV SG OVC010/// M03/M04 Q1020=
200912150250 METAR ESMX 150250Z AUTO 21002KT 5000NDV -SN FEW011/// BKN016/// OVC020/// M03/M04 Q1020 RESG=
200912150220 METAR ESMX 150220Z AUTO 24002KT 3900NDV SG FEW012/// BKN020/// M03/M04 Q1021=
200912150150 METAR ESMX 150150Z AUTO 19001KT 9999NDV SCT011/// OVC021/// M03/M04 Q1021=
200912150120 METAR ESMX 150120Z 00000KT 9999 BKN010 M03/M04 Q1021=
200912150050 METAR ESMX 150050Z 20001KT 9999 BKN010 M03/M04 Q1021=
200912150020 METAR ESMX 150020Z VRB01KT 9999 BKN011 M03/M04 Q1021=
200912142350 METAR ESMX 142350Z 20001KT 9999 BKN011 M04/M04 Q1021=
200912142320 METAR ESMX 142320Z VRB01KT 9999 BKN010 M04/M05 Q1021=
200912142250 METAR ESMX 142250Z 00000KT 9999 BKN010 M05/M06 Q1021=
200912142220 METAR ESMX 142220Z 18002KT 9999 BKN010 M04/M05 Q1022=
200912142150 METAR ESMX 142150Z 28001KT 9999 FEW010 SCT015 BKN115 M04/M05 Q1022=
200912142120 METAR ESMX 142120Z VRB01KT 9999 FEW013 SCT110 M04/M05 Q1022=
200912142050 METAR ESMX 142050Z VRB01KT 9999 FEW013 BKN110 M04/M05 Q1022=
200912142020 METAR ESMX 142020Z VRB01KT 9999 SCT012 BKN110 M03/M04 Q1022=
200912141950 METAR ESMX 141950Z 26002KT 9999 BKN012 M03/M04 Q1022=
200912141920 METAR ESMX 141920Z 00000KT 9999 OVC010 M02/M04 Q1022=
200912141850 METAR ESMX 141850Z VRB02KT 9999 OVC010 M02/M04 Q1022=
200912141820 METAR ESMX 141820Z 08003KT 040V130 9999 OVC011 M02/M04 Q1021=
200912141750 METAR ESMX 141750Z 05003KT 020V100 9999 OVC011 M02/M04 Q1022=
200912141720 METAR ESMX 141720Z 04003KT 010V080 9999 BKN011 M02/M04 Q1022=
200912141650 METAR ESMX 141650Z 04002KT 9999 BKN013 M04/M05 Q1022=
200912141620 METAR ESMX 141620Z 03003KT 9999 SCT013 BKN016 M04/M05 Q1022=
200912141550 METAR ESMX 141550Z VRB01KT 9999 BKN014 M05/M06 Q1022=
200912141520 METAR ESMX 141520Z 00000KT 9999 BKN014 M04/M05 Q1022=
200912141450 METAR ESMX 141450Z 31002KT 9999 FEW014 M03/M05 Q1022=
200912141420 METAR ESMX 141420Z 34003KT 9999 SCT015 M03/M05 Q1022=
200912141350 METAR ESMX 141350Z 33003KT 9999 FEW015 M02/M05 Q1022=
200912141320 METAR ESMX 141320Z 36004KT 340V050 9999 SCT014 M02/M05 Q1022=
200912141250 METAR ESMX 141250Z 02005KT 9999 SCT013 M01/M05 Q1022=
200912141220 METAR ESMX 141220Z 02005KT 350V060 9999 BKN013 M02/M05 Q1022=
200912141150 METAR ESMX 141150Z 01005KT 9999 BKN012 M01/M04 Q1022=
200912141120 METAR ESMX 141120Z 04005KT 010V070 9999 BKN011 M02/M04 Q1022=
200912141050 METAR ESMX 141050Z 36006KT 9999 BKN010 M02/M04 Q1022=
200912141020 METAR ESMX 141020Z 35006KT 320V040 9999 -SN BKN011 M02/M04 Q1022=
200912140950 METAR ESMX 140950Z 04005KT 9999 OVC010 M02/M04 Q1022=
200912140920 METAR ESMX 140920Z 35005KT 310V030 9999 -SN OVC009 M02/M04 Q1022=
200912140850 METAR ESMX 140850Z 36007KT 300V030 9999 OVC009 M02/M04 Q1022=
200912140820 METAR ESMX 140820Z 01005KT 330V040 9999 OVC009 M02/M04 Q1022=
200912140750 METAR ESMX 140750Z 03008KT 9999 OVC010 M02/M04 Q1022=
200912140720 METAR ESMX 140720Z 35006KT 9999 -SN OVC008 M02/M03 Q1022=
200912140650 METAR ESMX 140650Z 36005KT 9999 -SN OVC008 M02/M03 Q1022=
200912140620 METAR ESMX 140620Z 02004KT 360V080 9999 -SN OVC008 M02/M03 Q1022=
200912140550 METAR ESMX 140550Z 04006KT 9999 OVC011 M02/M03 Q1022=
200912140520 METAR COR ESMX 140520Z 35007KT 9999 OVC010 M01/M03 Q1022=
200912140450 METAR ESMX 140450Z 04008KT 9999 OVC011 M01/M03 Q1022=
200912140420 METAR ESMX 140420Z AUTO 35007KT 9999NDV OVC012/// M01/M03 Q1022=
200912140350 METAR ESMX 140350Z AUTO 35007KT 9999NDV -SN OVC012/// M01/M03 Q1022=
200912140320 METAR ESMX 140320Z AUTO 02006KT 340V060 9999NDV OVC012/// M01/M03 Q1022=
200912140250 METAR ESMX 140250Z AUTO 01006KT 330V030 9999NDV OVC012/// M01/M03 Q1022=
200912140220 METAR ESMX 140220Z AUTO 02006KT 9999NDV -SN OVC011/// M01/M03 Q1022=
200912140150 METAR ESMX 140150Z AUTO 36008KT 6000NDV -SN OVC011/// M01/M03 Q1023=
200912140120 METAR ESMX 140120Z 36007KT 9999 -SN OVC010 M01/M03 Q1023=
200912140050 METAR ESMX 140050Z 36007KT 9999 OVC011 M01/M03 Q1023=
200912140020 METAR ESMX 140020Z 35006KT 9999 OVC013 M01/M03 Q1023=
200912132350 METAR ESMX 132350Z 35006KT 9999 OVC012 M01/M04 Q1023=
200912132320 METAR ESMX 132320Z 01007KT 9999 OVC012 M01/M04 Q1024=
200912132250 METAR ESMX 132250Z 02006KT 9999 FEW009 OVC011 M02/M04 Q1024=
200912132220 METAR ESMX 132220Z 36006KT 330V030 9000 -SN OVC010 M01/M03 Q1024=
200912132150 METAR ESMX 132150Z 02006KT 340V070 9999 -SN OVC008 M01/M03 Q1024=
200912132120 METAR ESMX 132120Z 36007KT 9999 OVC009 M01/M03 Q1024=
200912132050 METAR ESMX 132050Z 04007KT 020V080 9999 OVC009 M01/M03 Q1024=
200912132020 METAR ESMX 132020Z 03008KT 9999 OVC010 M01/M03 Q1024=
200912131950 METAR ESMX 131950Z 03007KT 360V070 9999 OVC010 M01/M03 Q1024=
200912131920 METAR ESMX 131920Z 03007KT 9999 -SN OVC011 M01/M03 Q1024=
200912131850 METAR ESMX 131850Z 35006KT 9999 -SN OVC010 M01/M03 Q1024=
200912131820 METAR ESMX 131820Z 36005KT 9999 -SN OVC010 M01/M03 Q1024=
200912131750 METAR ESMX 131750Z 01006KT 9999 -SN OVC010 M01/M03 Q1024=
200912131720 METAR ESMX 131720Z 01008KT 9999 -SN OVC011 M01/M03 Q1024=
200912131650 METAR ESMX 131650Z 35008KT 9999 -SN OVC011 M01/M03 Q1024=
200912131620 METAR ESMX 131620Z 36008KT 9999 -SN OVC012 M01/M03 Q1024=
200912131550 METAR ESMX 131550Z 03008KT 9999 -SN OVC013 M00/M03 Q1024=
200912131520 METAR ESMX 131520Z 04004KT 9999 -SN OVC010 M00/M02 Q1024=
200912131450 METAR ESMX 131450Z 04004KT 9999 FEW008 OVC012 M00/M02 Q1024=
200912131420 METAR ESMX 131420Z 36006KT 330V030 9999 OVC014 M00/M02 Q1024 RESN=
200912131350 METAR ESMX 131350Z 36007KT 9999 -SN FEW009 OVC016 M00/M02 Q1024=
200912131320 METAR ESMX 131320Z 03008KT 6000 -SN FEW010 OVC013 M00/M02 Q1025=
200912131250 METAR ESMX 131250Z AUTO 02009KT 350V060 9999NDV -SN OVC014/// 00/M02 Q1025=
200912131220 METAR ESMX 131220Z AUTO 36011KT 9999NDV OVC015/// 00/M02 Q1025=
200912131150 METAR ESMX 131150Z AUTO 36006KT 6000NDV -RA FEW005/// SCT008/// BKN014/// 00/M00 Q1025=
200912131120 METAR ESMX 131120Z AUTO 34006KT 3500NDV -RA FEW004/// SCT007/// BKN009/// 00/M00 Q1025 RESHRA=
200912131050 METAR ESMX 131050Z AUTO 35006KT 330V030 6000NDV RA FEW008/// SCT010/// BKN013/// 01/M01 Q1025=
200912131020 METAR ESMX 131020Z AUTO 36006KT 9999NDV FEW009/// SCT014/// BKN020/// 01/M01 Q1025 RERA=
200912130950 METAR ESMX 130950Z AUTO 35007KT 310V010 9999NDV OVC010/// 01/M01 Q1026=
200912130920 METAR ESMX 130920Z AUTO 34008KT 9999NDV OVC010/// 00/M01 Q1026=
200912130850 METAR ESMX 130850Z AUTO 34007KT 9999NDV OVC010/// 00/M01 Q1026=
200912130820 METAR ESMX 130820Z AUTO 35007KT 9999NDV FEW009/// OVC011/// 00/M01 Q1026=
200912130750 METAR ESMX 130750Z AUTO 01008KT 9999NDV OVC011/// 00/M02 Q1026=
200912130720 METAR ESMX 130720Z AUTO 01008KT 340V040 9999NDV OVC011/// 00/M02 Q1026=
200912130650 METAR ESMX 130650Z AUTO 33007KT 9999NDV OVC012/// M00/M01 Q1026=
200912130620 METAR ESMX 130620Z AUTO 33005KT 300V010 9999NDV OVC014/// M01/M02 Q1026=
200912130550 METAR ESMX 130550Z AUTO 35004KT 9999NDV OVC013/// M02/M03 Q1026=
200912130520 METAR ESMX 130520Z AUTO 29003KT 9999NDV SG FEW004/// SCT005/// BKN014/// M03/M03 Q1026=
200912130450 METAR ESMX 130450Z AUTO 33004KT 9999NDV FEW005/// SCT006/// BKN008/// M03/M03 Q1026=
200912130420 METAR ESMX 130420Z AUTO 34003KT 240V060 9999NDV FEW006/// SCT011/// BKN021/// M03/M04 Q1026=
200912130350 METAR ESMX 130350Z AUTO 31003KT 9999NDV FEW007/// SCT008/// BKN011/// M03/M03 Q1027 RESG=
200912130320 METAR ESMX 130320Z AUTO 31004KT 9999NDV FEW007/// SCT023/// BKN026/// M02/M03 Q1027=
200912130250 METAR ESMX 130250Z AUTO 33005KT 9999NDV FEW016/// M03/M04 Q1027=
200912130220 METAR ESMX 130220Z AUTO 34003KT 9999NDV BKN044/// M03/M03 Q1027=
200912130150 METAR ESMX 130150Z AUTO 30003KT 9999NDV BKN048/// M03/M03 Q1028=
200912130120 METAR ESMX 130120Z AUTO 32004KT 9999NDV FEW054/// SCT110/// M03/M04 Q1028=
200912130050 METAR ESMX 130050Z AUTO 31003KT 9999NDV NCD M02/M03 Q1028=
200912130020 METAR ESMX 130020Z AUTO 35003KT 310V010 9999NDV FEW060/// SCT071/// BKN100/// M02/M03 Q1028=
200912122350 METAR ESMX 122350Z AUTO 35003KT 9999NDV FEW071/// SCT097/// M01/M03 Q1028=
200912122320 METAR ESMX 122320Z AUTO 35004KT 9999NDV FEW079/// BKN092/// M01/M02 Q1029=
200912122250 METAR ESMX 122250Z AUTO 34003KT 9999NDV SCT090/// M02/M03 Q1029=
200912122220 METAR ESMX 122220Z AUTO 35005KT 9999NDV NCD M02/M03 Q1029=
200912122150 METAR ESMX 122150Z AUTO 35006KT 9999NDV SCT057/// M01/M02 Q1029=
200912122120 METAR ESMX 122120Z AUTO 35007KT 9999NDV OVC054/// M01/M02 Q1029=
200912122050 METAR ESMX 122050Z AUTO 01006KT 9999NDV FEW042/// OVC049/// M00/M02 Q1029=
200912122020 METAR ESMX 122020Z AUTO 02005KT 9999NDV SCT041/// OVC051/// M00/M02 Q1029=
200912121950 METAR ESMX 121950Z AUTO 01006KT 9999NDV FEW040/// OVC048/// M00/M02 Q1029=
200912121920 METAR ESMX 121920Z AUTO 02007KT 9999NDV OVC038/// M00/M02 Q1029=
200912121850 METAR ESMX 121850Z AUTO 03007KT 330V060 9999NDV BKN011/// OVC044/// M00/M02 Q1029=
200912121820 METAR ESMX 121820Z AUTO 01006KT 330V030 9999NDV OVC012/// 00/M02 Q1030=
200912121750 METAR ESMX 121750Z AUTO 02007KT 340V050 9999NDV OVC011/// 00/M02 Q1030=
200912121720 METAR ESMX 121720Z AUTO 02005KT 9999NDV OVC011/// 00/M02 Q1030=
200912121650 METAR ESMX 121650Z AUTO 03007KT 9999NDV OVC011/// 00/M02 Q1030=
200912121620 METAR ESMX 121620Z AUTO 02007KT 9999NDV OVC011/// 00/M02 Q1030=
200912121550 METAR ESMX 121550Z AUTO 02006KT 9999NDV OVC012/// 00/M02 Q1030=
200912121520 METAR ESMX 121520Z AUTO 02005KT 350V060 9999NDV OVC013/// 00/M02 Q1030=
200912121450 METAR ESMX 121450Z 01007KT 9999 OVC013 01/M02 Q1030=
200912121420 METAR ESMX 121420Z 01007KT 350V050 9999 BKN013 01/M02 Q1030=
200912121350 METAR ESMX 121350Z 04007KT 9999 BKN013 01/M02 Q1030=
200912121320 METAR ESMX 121320Z 02005KT 9999 BKN015 01/M02 Q1030=
200912121250 METAR ESMX 121250Z 03004KT 350V070 9999 FEW016 SCT020 01/M02 Q1030=
200912121220 METAR ESMX 121220Z 01008KT 9999 BKN013 00/M02 Q1030=
200912121150 METAR ESMX 121150Z 02008KT 350V060 9999 BKN013 01/M02 Q1030=
200912121120 METAR ESMX 121120Z 01008KT 350V060 9999 BKN013 BKN031 01/M02 Q1031=
200912121050 METAR ESMX 121050Z 01008KT 9999 FEW013 SCT041 01/M02 Q1031=
200912121020 METAR ESMX 121020Z 02006KT 9999 FEW034 SCT040 01/M02 Q1031=
200912120950 METAR ESMX 120950Z 01009KT 9999 FEW011 SCT033 00/M02 Q1031=
200912120920 METAR ESMX 120920Z 03010KT 360V080 9999 FEW010 SCT013 BKN040 01/M01 Q1031=
200912120850 METAR ESMX 120850Z 03009KT 9999 -SHSN FEW009 BKN010 01/M01 Q1031=
200912120820 METAR ESMX 120820Z 36009KT 9999 BKN008 OVC010 01/M01 Q1030=
200912120750 METAR ESMX 120750Z 02009KT 9999 FEW008 SCT009 OVC011 01/M01 Q1030=
200912120720 METAR ESMX 120720Z 02007KT 9999 BKN007 OVC011 01/M01 Q1030=
200912120650 METAR ESMX 120650Z AUTO 02007KT 9999NDV OVC007/// 00/M01 Q1030=
200912120620 METAR ESMX 120620Z AUTO 02006KT 350V060 9999NDV FEW007/// OVC009/// 00/M01 Q1030=
200912120550 METAR ESMX 120550Z AUTO 01007KT 9999NDV FEW007/// BKN009/// BKN016/// M00/M02 Q1030=
200912120520 METAR ESMX 120520Z AUTO 02009KT 9999NDV FEW007/// SCT008/// BKN011/// M00/M02 Q1030=
200912120450 METAR ESMX 120450Z AUTO 02008KT 9999NDV FEW009/// SCT012/// M00/M02 Q1029=
200912120420 METAR ESMX 120420Z AUTO 01007KT 9999NDV OVC011/// M00/M02 Q1029=
200912120350 METAR ESMX 120350Z AUTO 01007KT 340V040 9999NDV OVC012/// 00/M02 Q1029=
200912120320 METAR ESMX 120320Z AUTO 03006KT 360V070 9999NDV SCT013/// BKN024/// OVC057/// M00/M02 Q1029=
200912120250 METAR ESMX 120250Z AUTO 02007KT 360V060 9999NDV OVC013/// 00/M02 Q1029=
200912120220 METAR ESMX 120220Z AUTO 02008KT 340V050 9999NDV BKN015/// OVC021/// 00/M03 Q1029=
200912120150 METAR ESMX 120150Z AUTO 02009KT 9999NDV BKN013/// OVC022/// 00/M02 Q1029=
200912120120 METAR ESMX 120120Z AUTO 02009KT 9999NDV SG OVC011/// 00/M02 Q1029=
200912120050 METAR ESMX 120050Z AUTO 02008KT 9999NDV -SN OVC012/// 00/M02 Q1029=
200912120020 METAR ESMX 120020Z AUTO 36008KT 9999NDV -SN FEW014/// BKN018/// OVC025/// 00/M02 Q1029 RESG=
200912112350 METAR ESMX 112350Z AUTO 01009KT 330V030 9999NDV FEW014/// SCT019/// BKN021/// 00/M03 Q1029=
200912112320 METAR ESMX 112320Z AUTO 01007KT 9999NDV FEW021/// OVC024/// M00/M03 Q1029=
200912112250 METAR ESMX 112250Z AUTO 01006KT 9999NDV FEW019/// OVC025/// 00/M04 Q1029=
200912112220 METAR ESMX 112220Z 03009KT 360V070 9999 OVC019 00/M04 Q1029=
200912112150 METAR ESMX 112150Z 02010KT 9999 OVC018 00/M04 Q1029=
200912112120 METAR ESMX 112120Z 36012KT 9999 OVC015 00/M03 Q1029=
200912112050 METAR ESMX 112050Z 36012KT 9999 OVC014 00/M02 Q1029=
200912112020 METAR ESMX 112020Z 01009KT 340V060 9999 OVC013 01/M01 Q1029=
200912111950 METAR ESMX 111950Z 03008KT 350V050 9999 OVC012 01/M01 Q1029=
200912111920 METAR ESMX 111920Z 02008KT 350V050 9999 OVC014 01/M02 Q1029=
200912111850 METAR ESMX 111850Z 03008KT 9999 BKN016 01/M02 Q1029=
200912111820 METAR ESMX 111820Z 02009KT 9999 FEW015 01/M01 Q1029=
200912111750 METAR ESMX 111750Z 03009KT 360V060 9999 BKN023 02/M00 Q1028=
200912111720 METAR ESMX 111720Z 36008KT 9999 OVC022 02/00 Q1028=
200912111650 METAR ESMX 111650Z 36007KT 9999 FEW012 SCT019 OVC022 02/01 Q1028=
200912111620 METAR ESMX 111620Z 36007KT 330V030 9999 OVC015 02/01 Q1028=
200912111550 METAR ESMX 111550Z 01008KT 9999 FEW011 OVC014 03/01 Q1028=
200912111520 METAR ESMX 111520Z 02009KT 9999 FEW009 OVC012 02/01 Q1028=
200912111450 METAR ESMX 111450Z 02007KT 9999 FEW009 OVC011 02/01 Q1028=
200912111420 METAR ESMX 111420Z 01008KT 9999 OVC010 02/01 Q1028=
200912111350 METAR ESMX 111350Z 02008KT 9999 BKN009 OVC013 02/01 Q1028=
200912111320 METAR ESMX 111320Z 02007KT 340V050 9999 FEW007 SCT009 OVC011 02/01 Q1028=
200912111250 METAR ESMX 111250Z 02008KT 9999 OVC008 02/01 Q1027=
200912111220 METAR ESMX 111220Z 01008KT 9999 OVC007 02/01 Q1027=
200912111150 METAR ESMX 111150Z 36008KT 9999 OVC008 02/01 Q1027=
200912111120 METAR ESMX 111120Z 02009KT 9999 OVC008 02/01 Q1027=
200912111050 METAR ESMX 111050Z 01007KT 330V030 9999 FEW007 OVC009 02/01 Q1027=
200912111020 METAR ESMX 111020Z 36007KT 9999 OVC007 02/01 Q1027=
200912110950 METAR ESMX 110950Z 36006KT 320V020 9999 OVC005 02/01 Q1027=
200912110920 METAR ESMX 110920Z 36007KT 9999 OVC005 02/01 Q1027=
200912110850 METAR ESMX 110850Z 35006KT 9999 OVC005 02/01 Q1027=
200912110820 METAR ESMX 110820Z 35007KT 9999 OVC005 02/01 Q1027=
200912110750 METAR ESMX 110750Z 36006KT 9999 OVC005 02/01 Q1027=
200912110720 METAR ESMX 110720Z 36007KT 9999 OVC005 02/01 Q1027=
200912110650 METAR ESMX 110650Z 36008KT 9999 BKN005 02/00 Q1027=
200912110620 METAR ESMX 110620Z 35008KT 9999 OVC007 02/00 Q1026=
200912110550 METAR ESMX 110550Z 34007KT 9999 FEW006 BKN008 01/00 Q1026=
200912110520 METAR ESMX 110520Z 36005KT 9999 OVC007 01/00 Q1026=
200912110450 METAR ESMX 110450Z 36007KT 9999 OVC007 01/M00 Q1026=
200912110420 METAR ESMX 110420Z AUTO 35007KT 9999NDV OVC007/// 01/M00 Q1026=
200912110350 METAR ESMX 110350Z AUTO 35008KT 9999NDV OVC007/// 02/00 Q1026=
200912110320 METAR ESMX 110320Z AUTO 36007KT 330V030 9999NDV SCT007/// OVC053/// 02/01 Q1026=
200912110250 METAR ESMX 110250Z AUTO 01007KT 320V040 9999NDV OVC007/// 02/01 Q1025=
200912110220 METAR ESMX 110220Z AUTO 02006KT 9999NDV OVC006/// 02/01 Q1025=
200912110150 METAR ESMX 110150Z AUTO 01005KT 9999NDV OVC006/// 02/01 Q1025=
200912110120 METAR ESMX 110120Z AUTO 02005KT 9999NDV OVC006/// 02/01 Q1025=
200912110050 METAR ESMX 110050Z AUTO 02006KT 9999NDV OVC005/// 02/01 Q1025=
200912110020 METAR ESMX 110020Z 02005KT 9999 OVC005 02/01 Q1025=
200912102320 METAR ESMX 102320Z 03006KT 9999 OVC006 02/01 Q1024=
200912102220 METAR ESMX 102220Z 04005KT 9999 OVC006 02/01 Q1024=
200912102150 METAR ESMX 102150Z 03005KT 9999 OVC006 02/01 Q1024=
200912102120 METAR ESMX 102120Z 02004KT 350V060 9999 OVC007 02/01 Q1024=
200912102050 METAR ESMX 102050Z 03004KT 9999 OVC007 02/01 Q1024=
200912102020 METAR ESMX 102020Z 03004KT 9999 OVC006 02/01 Q1023=
200912101950 METAR ESMX 101950Z 04004KT 9999 OVC006 02/01 Q1023=
200912101850 METAR ESMX 101850Z 04005KT 9999 SCT006 BKN021 OVC041 02/01 Q1023=
200912101820 METAR ESMX 101820Z 04005KT 9999 BKN007 OVC040 03/01 Q1023=
200912101750 METAR ESMX 101750Z 04005KT 020V080 9999 FEW008 OVC041 03/01 Q1022=
200912101720 METAR ESMX 101720Z 06004KT 030V110 9999 FEW015 BKN040 03/01 Q1022=
200912101650 METAR ESMX 101650Z 05004KT 020V090 9999 FEW009 SCT016 OVC039 03/01 Q1022=
200912101620 METAR ESMX 101620Z 06004KT 030V100 9999 BKN014 OVC043 03/01 Q1022=
200912101550 METAR ESMX 101550Z 05004KT 020V100 9999 OVC015 03/01 Q1022=
200912101520 METAR ESMX 101520Z 05004KT 010V090 9999 SCT014 BKN021 03/01 Q1022=
200912101450 METAR ESMX 101450Z 05004KT 020V080 9999 FEW014 BKN020 03/01 Q1022=
200912101420 METAR ESMX 101420Z 04003KT 360V100 9999 OVC015 03/01 Q1022=
200912101350 METAR ESMX 101350Z 04003KT 350V080 9999 BKN014 03/01 Q1021=
200912101320 METAR ESMX 101320Z 08003KT 030V110 9999 BKN013 03/01 Q1021=
200912101250 METAR ESMX 101250Z 08004KT 040V120 9999 BKN012 03/01 Q1021=
200912101220 METAR ESMX 101220Z 08004KT 050V110 9999 OVC012 03/01 Q1021=
200912101120 METAR ESMX 101120Z VRB02KT 9999 SCT010 BKN046 03/01 Q1022=
200912101050 METAR ESMX 101050Z 11004KT 060V170 9999 BKN010 OVC046 03/01 Q1022=
200912101020 METAR ESMX 101020Z 12004KT 080V160 9999 FEW010 OVC043 03/01 Q1022=
200912100950 METAR ESMX 100950Z 10004KT 050V150 9999 SCT012 OVC043 03/01 Q1022=
200912100920 METAR ESMX 100920Z 09003KT 030V140 9999 FEW013 SCT019 OVC043 03/01 Q1022=
200912100850 METAR ESMX 100850Z 09003KT 040V170 9999 BKN011 OVC043 03/01 Q1022=
200912100820 METAR ESMX 100820Z 10003KT 040V150 9999 OVC011 02/01 Q1022=
200912100750 METAR ESMX 100750Z VRB02KT 9999 OVC012 02/01 Q1022=
200912100720 METAR ESMX 100720Z VRB02KT 9999 BKN009 OVC035 02/01 Q1023=
200912100650 METAR ESMX 100650Z 11003KT 050V160 9999 BKN008 OVC032 02/01 Q1023=
200912100620 METAR ESMX 100620Z 13003KT 090V170 9999 FEW010 SCT019 OVC031 02/01 Q1023=
200912100550 METAR ESMX 100550Z 14004KT 100V170 9999 FEW010 BKN015 03/01 Q1023=
200912100520 METAR ESMX 100520Z 13004KT 090V180 9999 FEW010 BKN013 02/01 Q1023=
200912100450 METAR ESMX 100450Z 13003KT 100V180 9999 BKN013 OVC041 03/01 Q1023=
200912100420 METAR ESMX 100420Z AUTO 12003KT 070V190 9999NDV OVC014/// 02/01 Q1023=
200912100350 METAR ESMX 100350Z AUTO 13004KT 090V170 9999NDV BKN015/// OVC023/// 02/01 Q1023=
200912100320 METAR ESMX 100320Z AUTO 13003KT 080V160 9999NDV OVC015/// 02/01 Q1023=
200912100250 METAR ESMX 100250Z AUTO VRB02KT 9999NDV OVC015/// 02/01 Q1023=
200912100220 METAR ESMX 100220Z AUTO VRB02KT 9999NDV OVC018/// 02/01 Q1024=
200912100150 METAR ESMX 100150Z AUTO 14003KT 100V170 9999NDV OVC020/// 02/01 Q1024=
200912100120 METAR ESMX 100120Z AUTO 15003KT 100V180 9999NDV OVC021/// 02/02 Q1024=
200912100050 METAR ESMX 100050Z 14003KT 100V180 9999 OVC023 02/02 Q1024=
200912100020 METAR ESMX 100020Z VRB02KT 9999 OVC026 02/01 Q1024=
200912092320 METAR ESMX 092320Z VRB02KT 8000 BR OVC032 02/01 Q1024=
200912092250 METAR ESMX 092250Z VRB02KT 3700 BR OVC036 02/01 Q1025=
200912092220 METAR ESMX 092220Z VRB01KT 5000 BR OVC037 01/01 Q1025=
200912092150 METAR ESMX 092150Z 14002KT 8000 BR OVC038 01/01 Q1025=
200912092120 METAR ESMX 092120Z 13002KT 3800 BR OVC039 01/01 Q1025=
200912092050 METAR ESMX 092050Z VRB01KT 4000 BR OVC041 01/01 Q1025=
200912092020 METAR ESMX 092020Z 00000KT 5000 BR OVC041 01/01 Q1025=
200912091950 METAR ESMX 091950Z VRB02KT 7000 BR OVC040 02/01 Q1025=
200912091920 METAR ESMX 091920Z 15002KT 8000 BR OVC040 02/01 Q1025=
200912091820 METAR ESMX 091820Z 20002KT 7000 BR FEW007 OVC040 02/01 Q1025=
200912091750 METAR ESMX 091750Z 21002KT 9999 FEW007 OVC038 02/01 Q1025=
200912091720 METAR ESMX 091720Z VRB01KT 9999 OVC037 02/01 Q1025=
200912091650 METAR ESMX 091650Z VRB01KT 9999 OVC037 02/02 Q1024=
200912091620 METAR ESMX 091620Z VRB01KT 9999 OVC036 02/02 Q1024=
200912091550 METAR ESMX 091550Z 09004KT 060V120 9999 OVC033 02/02 Q1024=
200912091520 METAR ESMX 091520Z VRB02KT 9999 OVC032 02/02 Q1024=
200912091450 METAR ESMX 091450Z VRB01KT 9999 FEW030 OVC034 02/02 Q1024=
200912091420 METAR ESMX 091420Z 09001KT 9999 FEW030 OVC034 03/02 Q1024=
200912091350 METAR ESMX 091350Z 00000KT 9999 OVC034 03/02 Q1024=
200912091320 METAR ESMX 091320Z VRB01KT 9999 OVC034 03/02 Q1024=
200912091250 METAR ESMX 091250Z 08001KT 9999 OVC034 03/02 Q1024=
200912091220 METAR ESMX 091220Z VRB01KT 9999 OVC034 03/02 Q1023=
200912091150 METAR ESMX 091150Z VRB01KT 9999 OVC034 03/02 Q1023=
200912091120 METAR ESMX 091120Z VRB01KT 9999 FEW027 OVC034 03/02 Q1024=
200912091050 METAR ESMX 091050Z 09001KT 9999 FEW026 OVC035 03/02 Q1024=
200912091020 METAR ESMX 091020Z VRB01KT 9999 FEW022 OVC034 03/02 Q1023=
200912090950 METAR ESMX 090950Z 00000KT 9999 OVC027 02/02 Q1023=
200912090920 METAR ESMX 090920Z 36001KT 9999 OVC029 02/02 Q1023=
200912090850 METAR ESMX 090850Z VRB01KT 9999 FEW025 OVC030 02/02 Q1023=
200912090820 METAR ESMX 090820Z 05002KT 9999 OVC031 02/02 Q1023=
200912090750 METAR ESMX 090750Z 02002KT 9999 OVC032 02/01 Q1023=
200912090720 METAR ESMX 090720Z 04003KT 9999 OVC031 02/02 Q1022=
200912090650 METAR ESMX 090650Z 04001KT 9999 OVC032 02/01 Q1022=
200912090620 METAR ESMX 090620Z 04002KT 9999 OVC033 02/01 Q1022=
200912090550 METAR ESMX 090550Z VRB01KT 9999 OVC033 02/01 Q1022=
200912090520 METAR ESMX 090520Z VRB01KT 9999 FEW005 BKN030 02/01 Q1021=
200912090450 METAR ESMX 090450Z 01001KT 9999 FEW005 BKN030 02/01 Q1021=
200912090420 METAR ESMX 090420Z AUTO 03001KT 9999NDV FEW005/// OVC035/// 02/02 Q1021=
200912090350 METAR ESMX 090350Z AUTO 04003KT 9999NDV FEW004/// OVC034/// 02/02 Q1021=
200912090320 METAR ESMX 090320Z AUTO 05003KT 020V080 9999NDV OVC034/// 03/02 Q1021=
200912090250 METAR ESMX 090250Z AUTO VRB02KT 9999NDV OVC034/// 03/02 Q1021=
200912090220 METAR ESMX 090220Z AUTO 04004KT 020V080 9999NDV FEW012/// OVC035/// 03/02 Q1021=
200912090150 METAR ESMX 090150Z AUTO 04004KT 9999NDV FEW019/// OVC035/// 03/02 Q1021=
200912090120 METAR ESMX 090120Z AUTO 04003KT 9999NDV FEW015/// BKN018/// OVC036/// 03/02 Q1020=
200912090050 METAR ESMX 090050Z AUTO 04004KT 9999NDV FEW018/// SCT028/// OVC036/// 03/02 Q1020=
200912090020 METAR ESMX 090020Z 04003KT 9999 SCT025 BKN035 03/02 Q1020=
200912082350 METAR ESMX 082350Z VRB02KT 9999 FEW010 BKN035 03/02 Q1020=
200912082320 METAR ESMX 082320Z 02002KT 9999 SCT008 OVC036 03/02 Q1020=
200912082250 METAR ESMX 082250Z VRB02KT 9999 FEW007 BKN009 03/02 Q1020=
200912082220 METAR ESMX 082220Z 04001KT 9999 SCT007 OVC033 03/02 Q1019=
200912082150 METAR ESMX 082150Z 05002KT 9999 SCT007 OVC033 03/02 Q1019=
200912082120 METAR ESMX 082120Z 03003KT 9999 BKN008 OVC035 03/02 Q1019=
200912082050 METAR ESMX 082050Z 02002KT 9999 BKN009 OVC033 03/02 Q1019=
200912082020 METAR ESMX 082020Z VRB02KT 9999 FEW008 BKN010 OVC033 03/02 Q1018=
200912081950 METAR ESMX 081950Z VRB01KT 9999 BKN008 OVC033 03/02 Q1018=
200912081920 METAR ESMX 081920Z VRB02KT 9999 OVC007 03/02 Q1018=
200912081850 METAR ESMX 081850Z VRB02KT 9999 OVC008 03/02 Q1018=
200912081820 METAR ESMX 081820Z 05003KT 360V110 9999 OVC007 03/02 Q1017=
200912081750 METAR ESMX 081750Z 05005KT 350V110 9999 BKN007 OVC010 03/02 Q1017=
200912081720 METAR ESMX 081720Z 05005KT 020V110 9999 BKN009 03/02 Q1017=
200912081650 METAR ESMX 081650Z 06004KT 030V100 9999 FEW009 OVC040 03/02 Q1017=
200912081620 METAR ESMX 081620Z 07003KT 010V120 9999 FEW012 OVC041 03/02 Q1017=
200912081550 METAR ESMX 081550Z 06004KT 020V080 9999 FEW010 BKN015 03/02 Q1017=
200912081520 METAR ESMX 081520Z 07004KT 030V110 9999 BKN011 BKN042 03/02 Q1016=
200912081450 METAR ESMX 081450Z 07004KT 040V110 9999 BKN012 OVC041 04/02 Q1016=
200912081420 METAR ESMX 081420Z 08003KT 050V110 9999 FEW009 BKN012 04/03 Q1016=
200912081350 METAR ESMX 081350Z 08003KT 060V120 9999 FEW010 SCT012 BKN015 04/03 Q1016=
200912081320 METAR ESMX 081320Z 05003KT 020V080 9999 FEW009 SCT013 BKN015 04/03 Q1015=
200912081220 METAR ESMX 081220Z VRB02KT 9999 FEW008 OVC010 04/03 Q1015=
200912081120 METAR ESMX 081120Z 09003KT 030V160 9999 OVC022 04/03 Q1015=
200912081050 METAR ESMX 081050Z 10003KT 060V140 9999 FEW008 OVC019 04/03 Q1015=
200912081020 METAR ESMX 081020Z 09005KT 060V140 9999 BKN007 OVC011 04/03 Q1015=
200912080950 METAR ESMX 080950Z 10004KT 040V190 9999 FEW007 BKN010 OVC014 04/03 Q1015=
200912080920 METAR ESMX 080920Z 10003KT 050V150 9999 -RA FEW004 OVC006 04/04 Q1014=
200912080850 METAR ESMX 080850Z 10005KT 050V160 7000 -RA BR SCT005 BKN010 04/04 Q1014=
200912080820 METAR ESMX 080820Z VRB01KT 3900 -RA BR FEW003 OVC005 05/04 Q1014=
200912080750 METAR ESMX 080750Z VRB01KT 4000 -RA BR SCT002 OVC004 04/04 Q1014=
200912080620 METAR ESMX 080620Z VRB02KT 6000 BR BKN002 BKN020 04/04 Q1013=
200912080550 METAR ESMX 080550Z VRB01KT 8000 BR OVC003 04/03 Q1013=
200912080520 METAR ESMX 080520Z VRB02KT 8000 BR OVC003 04/03 Q1012=
200912080450 METAR ESMX 080450Z VRB02KT 7000 BR OVC003 04/03 Q1012=
200912080420 METAR ESMX 080420Z AUTO 05002KT 5000NDV BR OVC001/// 04/03 Q1012=
200912080350 METAR ESMX 080350Z AUTO VRB02KT 5000NDV BR OVC002/// 04/03 Q1012=
200912080320 METAR ESMX 080320Z AUTO VRB02KT 6000NDV BR OVC001/// 04/03 Q1012=
200912080250 METAR ESMX 080250Z AUTO 06002KT 7000NDV BR OVC002/// 04/03 Q1012=
200912080220 METAR ESMX 080220Z AUTO 07003KT 030V100 7000NDV BR FEW003/// SCT008/// BKN014/// 04/03 Q1012=
200912080150 METAR ESMX 080150Z AUTO VRB02KT 3800NDV BR FEW001/// OVC005/// 04/03 Q1012=
200912080120 METAR ESMX 080120Z AUTO VRB02KT 8000NDV SCT001/// OVC003/// 04/03 Q1013=
200912080050 METAR ESMX 080050Z AUTO VRB02KT 9999NDV FEW011/// BKN017/// OVC020/// 04/03 Q1013=
200912080020 METAR ESMX 080020Z VRB02KT 9999 OVC014 04/03 Q1013=
200912072350 METAR ESMX 072350Z 18003KT 9999 SCT010 OVC014 04/03 Q1012=
200912072320 METAR ESMX 072320Z VRB02KT 9999 OVC008 04/03 Q1012=
200912072250 METAR ESMX 072250Z VRB02KT 9999 OVC008 04/03 Q1012=
200912072220 METAR ESMX 072220Z VRB02KT 9999 OVC010 04/03 Q1012=
200912072150 METAR ESMX 072150Z VRB02KT 9999 OVC009 04/03 Q1012=
200912072120 METAR ESMX 072120Z VRB02KT 9999 OVC008 04/03 Q1012=
200912072050 METAR ESMX 072050Z VRB02KT 9999 OVC008 04/03 Q1012=
200912072020 METAR ESMX 072020Z 10003KT 050V140 9999 OVC008 04/03 Q1012=
200912071950 METAR ESMX 071950Z VRB02KT 9999 OVC009 04/04 Q1012=
200912071920 METAR ESMX 071920Z VRB02KT 9999 OVC008 04/04 Q1012=
200912071850 METAR ESMX 071850Z VRB01KT 9999 OVC008 04/04 Q1012=
200912071820 METAR ESMX 071820Z VRB02KT 9999 OVC007 05/04 Q1011=
200912071750 METAR ESMX 071750Z VRB01KT 8000 BR OVC008 05/04 Q1011=
200912071720 METAR ESMX 071720Z 10001KT 9000 BR FEW007 OVC009 05/04 Q1011=
200912071650 METAR ESMX 071650Z VRB02KT 9999 BKN007 05/04 Q1011=
200912071620 METAR ESMX 071620Z 20002KT 7000 BR FEW005 OVC008 05/04 Q1011=
200912071520 METAR ESMX 071520Z VRB02KT 8000 FEW002 SCT004 OVC006 05/04 Q1011=
200912071350 METAR ESMX 071350Z VRB02KT 0400 R01/1000V1800N R19/0900N FG VV002 05/05 Q1010=
200912071250 METAR ESMX 071250Z VRB02KT 0350 R01/0800N R19/1000N FG VV002 05/05 Q1010=
200912071220 METAR ESMX 071220Z VRB02KT 0450 R01/0900N R19/1200D FG VV002 05/04 Q1010=
200912071150 METAR ESMX 071150Z 17002KT 0900 R01/1300N R19/1600D FG VV002 05/04 Q1009=
200912071120 METAR ESMX 071120Z 12003KT 070V170 0800 R01/1400N R19/1700N FG VV002 05/04 Q1009=
200912071050 METAR ESMX 071050Z 16003KT 110V190 1500 R19/P2000N BR OVC001 05/04 Q1009=
200912071020 METAR ESMX 071020Z 15004KT 110V190 2500 BR OVC002 05/04 Q1009=
200912070950 METAR ESMX 070950Z 16004KT 120V190 3500 BR SCT002 BKN005 05/04 Q1009=
200912070920 METAR ESMX 070920Z 14005KT 090V190 3700 BR FEW002 OVC004 05/04 Q1008 REDZ=
200912070850 METAR ESMX 070850Z 14005KT 080V170 2100 -DZ FEW003 OVC005 05/04 Q1008=
200912070820 METAR ESMX 070820Z 15004KT 100V190 6000 BR OVC005 05/04 Q1008=
200912070750 METAR ESMX 070750Z 14005KT 100V190 8000 BR BKN006 05/04 Q1007=
200912070720 METAR ESMX 070720Z 13005KT 080V170 8000 -DZ SCT006 BKN008 05/04 Q1007=
200912070650 METAR ESMX 070650Z 14005KT 090V170 6000 -RA FEW006 SCT007 BKN008 05/04 Q1007=
200912070620 METAR ESMX 070620Z 15005KT 110V180 7000 -RA FEW006 SCT008 BKN009 05/04 Q1007=
200912070550 METAR ESMX 070550Z 14006KT 100V190 6000 -RA FEW006 SCT007 BKN008 05/04 Q1007=
200912070520 METAR ESMX 070520Z 14006KT 080V170 6000 -RA FEW006 BKN009 05/04 Q1006=
200912070450 METAR ESMX 070450Z 14006KT 080V190 5000 -RA FEW005 OVC008 05/04 Q1006=
200912070420 METAR ESMX 070420Z AUTO 14006KT 100V200 5000NDV -RA OVC005/// 05/04 Q1006=
200912070350 METAR ESMX 070350Z AUTO 14006KT 080V170 4800NDV -RA OVC005/// 05/04 Q1006=
200912070320 METAR ESMX 070320Z AUTO VRB06KT 4600NDV -RA OVC005/// 05/04 Q1006=
200912070250 METAR ESMX 070250Z AUTO 13007KT 070V170 4100NDV -RA OVC005/// 05/04 Q1006=
200912070220 METAR ESMX 070220Z AUTO 14007KT 080V170 3900NDV -RA OVC005/// 05/04 Q1006=
200912070150 METAR ESMX 070150Z 13007KT 090V170 5000 -RA OVC006 05/03 Q1006=
200912070120 METAR ESMX 070120Z 13006KT 070V190 7000 BR OVC006 05/03 Q1006=
200912070050 METAR ESMX 070050Z 13006KT 070V180 9000 BR OVC007 05/03 Q1006=
200912070020 METAR ESMX 070020Z 12006KT 060V170 9000 BR BKN007 OVC009 04/03 Q1006=
200912062350 METAR ESMX 062350Z 12006KT 050V170 9999 FEW007 SCT010 OVC020 04/03 Q1007=
200912062320 METAR ESMX 062320Z 11005KT 060V160 9999 FEW006 BKN013 04/03 Q1007=
200912062250 METAR ESMX 062250Z 14008KT 090V210 7000 BR BKN005 OVC008 04/03 Q1007=
200912062220 METAR ESMX 062220Z 14006KT 100V190 4700 BR BKN006 OVC009 04/03 Q1007=
200912062150 METAR ESMX 062150Z 13006KT 070V180 6000 BR BKN005 OVC009 04/03 Q1007=
200912062120 METAR ESMX 062120Z VRB06KT 6000 BR BKN005 04/03 Q1008=
200912062050 METAR ESMX 062050Z 14005KT 100V170 4000 BR FEW006 OVC007 04/03 Q1008=
200912062020 METAR ESMX 062020Z 13008KT 070V210 7000 BR FEW006 BKN009 04/02 Q1008=
200912061950 METAR ESMX 061950Z 13006KT 080V200 4900 BR FEW005 BKN006 OVC009 03/03 Q1008=
200912061920 METAR ESMX 061920Z 13006KT 070V170 3600 BR OVC004 03/03 Q1008=
200912061850 METAR ESMX 061850Z 11005KT 060V170 3700 BR OVC004 03/02 Q1008=
200912061820 METAR ESMX 061820Z 11005KT 070V160 4500 BR BKN004 03/02 Q1009=
200912061750 METAR ESMX 061750Z 11004KT 060V160 5000 BR BKN005 03/02 Q1009=
200912061720 METAR ESMX 061720Z 11004KT 070V170 4400 BR BKN005 03/02 Q1009=
200912061650 METAR ESMX 061650Z 11005KT 060V160 5000 BR OVC005 03/02 Q1009=
200912061620 METAR ESMX 061620Z 11005KT 070V160 4600 BR FEW008 OVC009 03/01 Q1010=
200912061550 METAR ESMX 061550Z 11005KT 070V200 9999 FEW012 BKN017 OVC020 03/01 Q1010=
200912061520 METAR ESMX 061520Z 10005KT 050V150 9999 OVC019 03/00 Q1010=
200912061450 METAR ESMX 061450Z 11005KT 030V160 9999 SCT018 OVC022 03/00 Q1010=
200912061420 METAR ESMX 061420Z 11005KT 070V180 9999 OVC018 03/00 Q1010=
200912061350 METAR ESMX 061350Z VRB06KT 9999 OVC014 03/00 Q1010=
200912061320 METAR ESMX 061320Z 13006KT 060V170 9999 OVC013 03/01 Q1011=
200912061250 METAR ESMX 061250Z AUTO 12006KT 070V160 9999NDV OVC012/// 03/01 Q1011=
200912061220 METAR ESMX 061220Z AUTO 12006KT 070V160 9999NDV BKN011/// OVC018/// 03/01 Q1011=
200912061150 METAR ESMX 061150Z AUTO 12006KT 070V190 9999NDV SCT011/// BKN025/// OVC030/// 03/01 Q1011=
200912061120 METAR ESMX 061120Z AUTO 12004KT 060V180 9999NDV BKN012/// OVC033/// 03/01 Q1011=
200912061050 METAR ESMX 061050Z AUTO 12004KT 030V170 9999NDV FEW012/// OVC032/// 03/01 Q1012=
200912061020 METAR ESMX 061020Z AUTO 11004KT 010V170 9999NDV FEW011/// SCT022/// OVC027/// 03/01 Q1012=
200912060950 METAR ESMX 060950Z AUTO 12005KT 060V190 9999NDV SCT012/// BKN020/// OVC028/// 03/01 Q1012=
200912060920 METAR ESMX 060920Z AUTO 11006KT 040V160 9999NDV FEW012/// OVC027/// 03/01 Q1012=
200912060850 METAR ESMX 060850Z AUTO 13006KT 060V170 9999NDV FEW012/// OVC029/// 03/01 Q1012=
200912060820 METAR ESMX 060820Z AUTO 13006KT 080V200 9999NDV SCT010/// BKN016/// OVC032/// 03/01 Q1012=
200912060750 METAR ESMX 060750Z AUTO 13005KT 090V210 9999NDV FEW010/// BKN016/// OVC057/// 03/01 Q1012=
200912060720 METAR ESMX 060720Z AUTO 12005KT 080V170 9999NDV FEW016/// OVC054/// 03/01 Q1012=
200912060650 METAR ESMX 060650Z AUTO 12005KT 070V200 9999NDV BKN015/// OVC055/// 03/01 Q1012=
200912060620 METAR ESMX 060620Z AUTO 13005KT 080V170 9999NDV OVC016/// 03/01 Q1012=
200912060550 METAR ESMX 060550Z AUTO 11005KT 050V160 9999NDV FEW017/// OVC019/// 03/01 Q1011=
200912060520 METAR ESMX 060520Z AUTO 11004KT 070V160 9999NDV OVC020/// 03/01 Q1012=
200912060450 METAR ESMX 060450Z AUTO 13004KT 060V200 9999NDV FEW021/// OVC057/// 03/01 Q1011=
200912060420 METAR ESMX 060420Z AUTO 12004KT 060V170 9999NDV OVC056/// 02/01 Q1011=
200912060350 METAR ESMX 060350Z AUTO 11004KT 020V150 9999NDV OVC057/// 02/01 Q1011=
200912060320 METAR ESMX 060320Z AUTO 11004KT 040V150 9999NDV BKN059/// 02/01 Q1012=
200912060250 METAR ESMX 060250Z AUTO 12004KT 070V170 9999NDV BKN071/// 03/01 Q1012=
200912060220 METAR ESMX 060220Z AUTO 11005KT 070V150 9999NDV FEW024/// BKN077/// 03/01 Q1012=
200912060150 METAR ESMX 060150Z AUTO 12005KT 050V160 9999NDV OVC020/// 03/01 Q1012=
200912060120 METAR ESMX 060120Z AUTO 13005KT 070V170 9999NDV OVC019/// 04/01 Q1012=
200912060050 METAR ESMX 060050Z AUTO 14004KT 080V190 9999NDV FEW013/// OVC020/// 04/01 Q1012=
200912060020 METAR ESMX 060020Z AUTO 13005KT 100V180 9999NDV OVC019/// 04/01 Q1012=
200912052350 METAR ESMX 052350Z AUTO 12005KT 060V190 9999NDV OVC020/// 04/01 Q1012=
200912052320 METAR ESMX 052320Z AUTO 12005KT 050V170 9999NDV SCT010/// OVC019/// 04/01 Q1012=
200912052250 METAR ESMX 052250Z AUTO 15007KT 110V190 9999NDV BR FEW012/// SCT014/// OVC017/// 04/01 Q1012=
200912052220 METAR ESMX 052220Z AUTO 14005KT 100V170 8000NDV BR FEW013/// OVC015/// 04/02 Q1012=
200912052150 METAR ESMX 052150Z AUTO 14006KT 100V210 8000NDV BR FEW012/// OVC015/// 04/02 Q1012=
200912052120 METAR ESMX 052120Z AUTO 14005KT 080V200 8000NDV BR FEW010/// OVC014/// 04/02 Q1012=
200912052050 METAR ESMX 052050Z AUTO 14005KT 080V180 7000NDV BR FEW008/// OVC010/// 04/02 Q1012=
200912052020 METAR ESMX 052020Z AUTO 14005KT 080V220 6000NDV BR OVC007/// 04/02 Q1012=
200912051950 METAR ESMX 051950Z AUTO 14007KT 110V190 6000NDV BR BKN007/// OVC010/// 04/02 Q1012=
200912051920 METAR ESMX 051920Z AUTO 13005KT 060V170 6000NDV BR FEW010/// OVC016/// 04/02 Q1012=
200912051850 METAR ESMX 051850Z AUTO 14005KT 080V170 7000NDV BR OVC015/// 04/02 Q1012=
200912051820 METAR ESMX 051820Z AUTO 14005KT 080V190 7000NDV BR FEW009/// OVC016/// 04/02 Q1012=
200912051750 METAR ESMX 051750Z AUTO 14005KT 070V190 5000NDV BR FEW007/// SCT009/// OVC015/// 04/02 Q1012=
200912051720 METAR ESMX 051720Z AUTO 15006KT 110V190 4800NDV BR BKN006/// OVC012/// 04/02 Q1012=
200912051650 METAR ESMX 051650Z AUTO 16005KT 120V190 5000NDV BR OVC006/// 04/02 Q1012=
200912051620 METAR ESMX 051620Z AUTO 14007KT 100V170 6000NDV BR FEW007/// OVC008/// 04/02 Q1012=
200912051550 METAR ESMX 051550Z AUTO 14005KT 080V210 6000NDV BR SCT006/// BKN009/// OVC013/// 04/02 Q1012=
200912051520 METAR ESMX 051520Z AUTO 15005KT 110V180 5000NDV BR OVC008/// 04/02 Q1012=
200912051450 METAR ESMX 051450Z AUTO 15005KT 100V200 5000NDV BR FEW008/// OVC010/// 04/03 Q1012=
200912051420 METAR ESMX 051420Z 15005KT 110V190 5000 BR SCT007 BKN009 OVC013 04/03 Q1012=
200912051350 METAR ESMX 051350Z 14005KT 100V190 5000 BR FEW007 OVC009 04/03 Q1012=
200912051320 METAR ESMX 051320Z 14005KT 110V170 5000 BR FEW008 BKN010 OVC016 04/03 Q1012=
200912051250 METAR ESMX 051250Z 16006KT 5000 BR FEW006 SCT013 OVC017 04/03 Q1012=
200912051220 METAR ESMX 051220Z 16005KT 3600 BR FEW005 SCT006 BKN009 04/03 Q1012=
200912051150 METAR ESMX 051150Z 15005KT 110V190 3200 BR FEW004 BKN005 OVC019 04/03 Q1012=
200912051120 METAR ESMX 051120Z 17007KT 3100 BR FEW004 SCT005 BKN007 04/03 Q1012 REDZ=
200912051050 METAR ESMX 051050Z 17004KT 2700 -RA FEW001 SCT003 BKN005 05/04 Q1012=
200912051020 METAR ESMX 051020Z 14004KT 100V190 2000 BR BKN001 OVC005 05/04 Q1012=
200912050950 METAR ESMX 050950Z 15004KT 120V180 1900 BR SCT003 OVC005 04/04 Q1012=
200912050920 METAR ESMX 050920Z 16005KT 130V200 3900 BR BKN004 OVC007 04/04 Q1012=
200912050850 METAR ESMX 050850Z 14004KT 080V170 3800 BR FEW005 OVC006 04/04 Q1012=
200912050820 METAR ESMX 050820Z 13005KT 100V180 3800 -DZ BKN004 OVC008 04/04 Q1012=
200912050750 METAR ESMX 050750Z 14005KT 100V170 3900 -RA BKN005 OVC008 04/04 Q1012=
200912050720 METAR ESMX 050720Z 14005KT 100V190 3400 -RA FEW003 OVC005 04/04 Q1012=
200912050650 METAR ESMX 050650Z AUTO 14007KT 080V170 2200NDV -RA OVC002/// 04/04 Q1012=
200912050620 METAR ESMX 050620Z AUTO 14006KT 080V180 5000NDV BR FEW003/// OVC005/// 04/03 Q1012=
200912050550 METAR ESMX 050550Z AUTO 16008KT 110V180 3600NDV -RA OVC002/// 05/04 Q1012=
200912050520 METAR ESMX 050520Z AUTO 16007KT 110V190 2600NDV -RA FEW003/// BKN004/// OVC007/// 05/04 Q1011 REDZ=
200912050450 METAR ESMX 050450Z AUTO 14006KT 110V190 2900NDV BR OVC001/// 05/05 Q1011=
200912050420 METAR ESMX 050420Z AUTO 11004KT 070V170 1900NDV BR OVC001/// 05/04 Q1011=
200912050350 METAR ESMX 050350Z AUTO 10005KT 060V150 6000NDV BR OVC001/// 05/04 Q1012=
200912050320 METAR ESMX 050320Z AUTO 10005KT 050V140 2800NDV BR OVC001/// 05/04 Q1012=
200912050250 METAR ESMX 050250Z AUTO 09004KT 040V150 1700NDV BR OVC001/// 04/04 Q1012=
200912050220 METAR ESMX 050220Z AUTO 08003KT 020V140 4100NDV BR OVC002/// 04/04 Q1012=
200912050150 METAR ESMX 050150Z AUTO 07004KT 010V120 3600NDV BR OVC002/// 04/03 Q1012=
200912050120 METAR ESMX 050120Z AUTO 07004KT 020V110 2000NDV BR OVC001/// 04/03 Q1013=
200912050050 METAR ESMX 050050Z AUTO 07005KT 040V140 1600NDV BR OVC001/// 04/03 Q1013=
200912050020 METAR ESMX 050020Z AUTO 06006KT 010V120 2700NDV BR OVC003/// 04/03 Q1013=
200912042350 METAR ESMX 042350Z AUTO 09005KT 040V140 6000NDV BR OVC005/// 04/03 Q1013=
200912042320 METAR ESMX 042320Z AUTO 09005KT 350V130 9000NDV OVC006/// 04/03 Q1014=
200912042250 METAR ESMX 042250Z AUTO 09005KT 010V150 9999NDV OVC007/// 04/03 Q1014=
200912042220 METAR ESMX 042220Z AUTO 09006KT 040V140 9999NDV OVC007/// 04/02 Q1014=
200912042150 METAR ESMX 042150Z AUTO 08006KT 020V140 9999NDV OVC008/// 04/02 Q1014=
200912042120 METAR ESMX 042120Z AUTO 08004KT 020V150 9999NDV BKN008/// OVC010/// 04/02 Q1014=
200912042050 METAR ESMX 042050Z 09005KT 030V140 9999 OVC009 04/02 Q1014=
200912042020 METAR ESMX 042020Z 08006KT 050V150 9999 OVC010 04/02 Q1014=
200912041950 METAR ESMX 041950Z 09005KT 050V140 9999 BKN012 04/02 Q1014=
200912041920 METAR ESMX 041920Z 08006KT 040V130 9999 FEW012 SCT014 OVC021 04/02 Q1014=
200912041850 METAR ESMX 041850Z 08005KT 030V130 9999 FEW011 SCT014 BKN017 04/02 Q1014=
200912041820 METAR ESMX 041820Z 08005KT 050V120 9999 FEW013 BKN015 OVC019 04/02 Q1014=
200912041750 METAR ESMX 041750Z 08004KT 030V120 9999 FEW016 OVC019 04/02 Q1014=
200912041720 METAR ESMX 041720Z 08005KT 020V120 9999 FEW014 OVC017 05/02 Q1014=
200912041650 METAR ESMX 041650Z 10004KT 060V160 9999 BKN011 OVC017 05/02 Q1014=
200912041620 METAR ESMX 041620Z 11004KT 050V170 9999 BKN014 05/02 Q1014=
200912041550 METAR ESMX 041550Z 10005KT 060V160 9999 BKN014 OVC019 05/02 Q1013=
200912041520 METAR ESMX 041520Z 09005KT 050V130 9999 OVC015 05/02 Q1013=
200912041450 METAR ESMX 041450Z 10005KT 040V170 9999 FEW013 OVC016 05/02 Q1013=
200912041420 METAR ESMX 041420Z 10005KT 050V170 9999 FEW013 OVC019 05/02 Q1013=
200912041350 METAR ESMX 041350Z 09003KT 040V150 9999 FEW015 OVC020 05/02 Q1013=
200912041320 METAR ESMX 041320Z 10005KT 050V160 9999 OVC019 05/02 Q1013=
200912041250 METAR ESMX 041250Z 10006KT 040V150 9999 OVC017 05/02 Q1013=
200912041220 METAR ESMX 041220Z 10006KT 040V160 9999 OVC015 05/02 Q1013=
200912041150 METAR ESMX 041150Z 10005KT 060V150 9999 OVC014 05/02 Q1013=
200912041120 METAR ESMX 041120Z 11005KT 050V170 9999 OVC012 05/02 Q1013=
200912041050 METAR ESMX 041050Z 11006KT 050V170 9999 OVC012 05/02 Q1013=
200912041020 METAR ESMX 041020Z 12006KT 080V170 9999 OVC012 05/02 Q1013=
200912040950 METAR ESMX 040950Z VRB05KT 9999 OVC013 05/02 Q1012=
200912040920 METAR ESMX 040920Z 12006KT 060V160 9999 OVC013 05/02 Q1012=
200912040850 METAR ESMX 040850Z 11005KT 060V160 9999 OVC012 04/02 Q1012=
200912040750 METAR ESMX 040750Z 10005KT 040V160 9999 OVC009 04/02 Q1011=
200912040720 METAR ESMX 040720Z 11005KT 060V160 9999 OVC009 04/02 Q1011=
200912040650 METAR ESMX 040650Z 12004KT 050V170 9999 OVC010 04/02 Q1011=
200912040620 METAR ESMX 040620Z 13005KT 070V210 9999 OVC010 04/02 Q1011=
200912040550 METAR ESMX 040550Z 12005KT 070V200 9999 OVC008 04/02 Q1011=
200912040520 METAR ESMX 040520Z 13007KT 070V190 9999 OVC008 04/02 Q1010=
200912040450 METAR ESMX 040450Z 12007KT 070V170 9999 OVC008 04/02 Q1010=
200912040420 METAR ESMX 040420Z AUTO 11006KT 050V200 9999NDV OVC009/// 04/02 Q1010=
200912040350 METAR ESMX 040350Z AUTO 13007KT 080V160 9999NDV OVC008/// 04/02 Q1010=
200912040320 METAR ESMX 040320Z AUTO 12007KT 070V190 9999NDV OVC009/// 04/02 Q1010=
200912040250 METAR ESMX 040250Z AUTO 11006KT 060V170 9999NDV OVC009/// 04/02 Q1009=
200912040220 METAR ESMX 040220Z AUTO 11007KT 070V150 9999NDV OVC009/// 04/02 Q1009=
200912040150 METAR ESMX 040150Z AUTO 11005KT 080V170 9999NDV OVC009/// 04/02 Q1010=
200912040120 METAR ESMX 040120Z AUTO 12007KT 070V160 9999NDV OVC009/// 04/02 Q1009=
200912040050 METAR ESMX 040050Z 12005KT 060V170 9999 OVC008 04/02 Q1009=
200912040020 METAR ESMX 040020Z 11006KT 050V170 9999 OVC008 03/02 Q1009=
200912032350 METAR ESMX 032350Z 11006KT 030V170 9999 OVC008 03/02 Q1010=
200912032320 METAR ESMX 032320Z 11005KT 050V190 9999 OVC008 03/01 Q1010=
200912032250 METAR ESMX 032250Z 10006KT 040V140 9999 OVC008 03/01 Q1010=
200912032220 METAR ESMX 032220Z 10006KT 350V150 9999 OVC007 03/01 Q1010=
200912032150 METAR ESMX 032150Z 11006KT 030V160 9999 OVC007 03/01 Q1010=
200912032120 METAR ESMX 032120Z 11005KT 050V170 9999 OVC006 03/01 Q1010=
200912032050 METAR ESMX 032050Z 11005KT 050V160 9999 OVC007 02/01 Q1010=
200912032020 METAR ESMX 032020Z 10005KT 030V150 9999 OVC007 02/01 Q1009=
200912031950 METAR ESMX 031950Z 11006KT 060V170 9999 BKN007 OVC010 02/01 Q1009=
200912031920 METAR ESMX 031920Z 10005KT 050V160 9999 BKN006 BKN009 02/01 Q1010=
200912031850 METAR ESMX 031850Z 10005KT 360V170 9999 BKN006 OVC008 02/01 Q1010=
200912031820 METAR ESMX 031820Z 09005KT 030V160 9999 BKN006 OVC010 02/01 Q1010=
200912031750 METAR ESMX 031750Z 10005KT 350V160 9999 BKN006 02/01 Q1010=
200912031720 METAR ESMX 031720Z 10005KT 060V150 9999 SCT004 BKN008 02/01 Q1010=
200912031650 METAR ESMX 031650Z 09004KT 030V150 9999 OVC003 02/01 Q1010=
200912031620 METAR ESMX 031620Z 11006KT 060V170 9999 OVC004 02/01 Q1010=
200912031550 METAR ESMX 031550Z 11005KT 050V160 9999 OVC005 02/01 Q1010=
200912031520 METAR ESMX 031520Z 11004KT 040V170 9999 OVC005 02/01 Q1010=
200912031450 METAR ESMX 031450Z 12004KT 020V160 9999 SCT007 BKN009 02/00 Q1011=
200912031420 METAR ESMX 031420Z 11003KT 050V180 9999 FEW008 SCT011 BKN084 02/00 Q1011=
200912031350 METAR ESMX 031350Z 12003KT 080V200 9999 FEW012 SCT090 02/00 Q1011=
200912031320 METAR ESMX 031320Z 10004KT 070V160 9999 FEW012 SCT090 03/00 Q1011=
200912031250 METAR ESMX 031250Z 10004KT 040V160 9999 FEW020 03/01 Q1011=
200912031220 METAR ESMX 031220Z 12005KT 080V160 9999 FEW020 04/01 Q1011=
200912031120 METAR ESMX 031120Z 12004KT 050V160 9999 FEW013 SCT019 02/00 Q1011=
200912031050 METAR ESMX 031050Z 14005KT 090V180 9999 FEW020 02/M00 Q1012=
200912031020 METAR ESMX 031020Z 16004KT 110V190 9999 SCT017 02/M00 Q1012=
200912030950 METAR ESMX 030950Z VRB02KT 9999 SCT016 BKN030 00/M00 Q1012=
200912030920 METAR ESMX 030920Z VRB02KT 9999 SCT016 SCT150 M01/M01 Q1012=
200912030850 METAR ESMX 030850Z VRB02KT 9999 FEW023 SCT150 M01/M01 Q1013=
200912030750 METAR ESMX 030750Z VRB02KT CAVOK M02/M02 Q1013=
200912030720 METAR ESMX 030720Z 18002KT CAVOK M02/M02 Q1012=
200912030650 METAR ESMX 030650Z 15002KT CAVOK M02/M02 Q1012=
200912030620 METAR ESMX 030620Z 04002KT 9999 FEW003 SCT150 M02/M02 Q1012=
200912030550 METAR ESMX 030550Z 07003KT 040V140 9999 FEW002 SCT150 M01/M02 Q1012=
200912030520 METAR ESMX 030520Z 09003KT 060V150 7000 BR BKN002 M01/M01 Q1012=
200912030450 METAR ESMX 030450Z 08004KT 040V150 0800 R01/P2000N R19/P2000N FZFG VV002 M01/M01 Q1012=
200912030420 METAR ESMX 030420Z AUTO 09003KT 040V140 0700NDV R01/P2000N R19/P2000N FZFG VV001 M01/M01 Q1012=
200912030350 METAR ESMX 030350Z AUTO 10003KT 040V160 0600NDV R01/1400VP2000D R19/P2000N FZFG VV001 M01/M01 Q1013=
200912030320 METAR ESMX 030320Z AUTO 07005KT 030V110 0550NDV R01/1100VP2000D R19/P2000N FZFG VV001 M01/M01 Q1012=
200912030250 METAR ESMX 030250Z AUTO 07004KT 030V110 0600NDV R01/1400VP2000D R19/P2000D FZFG VV001 M01/M01 Q1012=
200912030220 METAR ESMX 030220Z AUTO 07005KT 030V140 0900NDV R01/P2000N R19/P2000N FZFG VV001 M01/M01 Q1012=
200912030150 METAR ESMX 030150Z AUTO 06004KT 030V140 0900NDV R01/P2000N R19/P2000N FZFG VV001 M01/M02 Q1013=
200912030120 METAR ESMX 030120Z AUTO 06005KT 0600NDV R01/P2000D R19/P2000N FZFG VV001 M01/M01 Q1013=
200912030050 METAR ESMX 030050Z 07005KT 050V110 2000 BR OVC002 M01/M01 Q1013=
200912030020 METAR ESMX 030020Z 04006KT 2000 BR OVC002 M01/M01 Q1013=
200912022350 METAR ESMX 022350Z 04004KT 010V080 4500 BR OVC002 M01/M01 Q1013=
200912022320 METAR ESMX 022320Z 04005KT 010V070 3500 BR OVC002 M01/M01 Q1013=
200912022250 METAR ESMX 022250Z 03005KT 360V070 9999 OVC002 M00/M01 Q1013=
200912022220 METAR ESMX 022220Z 05004KT 020V080 9999 OVC002 M00/M01 Q1013=
200912022150 METAR ESMX 022150Z 04004KT 9999 OVC002 M00/M01 Q1013=
200912022120 METAR ESMX 022120Z 04005KT 010V070 9999 OVC003 M00/M01 Q1013=
200912022050 METAR ESMX 022050Z 04004KT 010V090 9999 OVC004 M00/M01 Q1013=
200912022020 METAR ESMX 022020Z 04004KT 010V070 9999 OVC004 00/M01 Q1013=
200912021950 METAR ESMX 021950Z VRB02KT 9999 OVC004 00/M01 Q1013=
200912021920 METAR ESMX 021920Z 08003KT 360V150 9999 OVC005 00/M01 Q1013=
200912021850 METAR ESMX 021850Z 08003KT 360V150 9999 BKN005 00/M01 Q1013=
200912021820 METAR ESMX 021820Z 07004KT 030V110 9999 BKN007 00/M01 Q1013=
200912021750 METAR ESMX 021750Z 04003KT 350V080 9999 BKN007 00/M01 Q1013=
200912021720 METAR ESMX 021720Z 06005KT 020V090 9999 BKN007 00/M01 Q1013=
200912021650 METAR ESMX 021650Z 05005KT 020V110 9999 BKN007 00/M01 Q1013=
200912021620 METAR ESMX 021620Z 04006KT 9999 OVC007 00/M01 Q1013=
200912021550 METAR ESMX 021550Z 04005KT 360V090 9999 BKN008 01/M01 Q1013=
200912021520 METAR ESMX 021520Z 05006KT 020V080 9999 BKN009 01/M01 Q1013=
200912021450 METAR ESMX 021450Z 05006KT 010V090 9999 FEW008 OVC010 01/M01 Q1013=
200912021420 METAR ESMX 021420Z 06005KT 9999 OVC011 01/M01 Q1013=
200912021350 METAR ESMX 021350Z 05006KT 020V080 9999 OVC009 01/M01 Q1013=
200912021320 METAR ESMX 021320Z 05008KT 010V080 9999 BKN008 01/M01 Q1013=
200912021250 METAR ESMX 021250Z 03007KT 340V070 9999 BKN008 01/M01 Q1013=
200912021220 METAR ESMX 021220Z 04008KT 010V070 9999 BKN008 01/M01 Q1013=
200912021150 METAR ESMX 021150Z 02006KT 9999 SCT009 01/M01 Q1013=
200912021120 METAR ESMX 021120Z 01006KT 9999 FEW011 00/M01 Q1013=
200912021050 METAR ESMX 021050Z 02006KT 9999 FEW009 00/M01 Q1013=
200912021020 METAR ESMX 021020Z 36006KT 9999 FEW012 M00/M01 Q1013=
200912020950 METAR ESMX 020950Z 36007KT 9999 FEW012 M01/M02 Q1013=
200912020920 METAR ESMX 020920Z 01006KT 9999 FEW009 OVC013 M01/M02 Q1013=
200912020850 METAR ESMX 020850Z 01005KT 9999 FEW007 OVC009 M01/M02 Q1013=
200912020820 METAR ESMX 020820Z 03006KT 360V070 9999 FEW005 OVC006 M01/M02 Q1013=
200912020750 METAR ESMX 020750Z 02006KT 350V060 9999 FEW004 OVC005 M02/M02 Q1013=
200912020720 METAR ESMX 020720Z 04006KT 010V070 9999 OVC004 M02/M03 Q1013=
200912020650 METAR ESMX 020650Z 04003KT 350V100 9999 BKN005 M02/M03 Q1013=
200912020620 METAR ESMX 020620Z 02005KT 340V060 9999 BKN005 M03/M03 Q1013=
200912020550 METAR ESMX 020550Z 08006KT 030V140 9999 BKN004 M03/M03 Q1013=
200912020520 METAR ESMX 020520Z 09005KT 9999 SCT005 M03/M04 Q1013=
200912020450 METAR ESMX 020450Z 02003KT CAVOK M03/M04 Q1013=
200912020420 METAR ESMX 020420Z 02005KT CAVOK M03/M04 Q1013=
200912020350 METAR ESMX 020350Z AUTO 01004KT 9999NDV NCD M04/M05 Q1013=
200912020320 METAR ESMX 020320Z AUTO 01005KT 9999NDV NCD M04/M05 Q1013=
200912020250 METAR ESMX 020250Z AUTO 01003KT 9999NDV NCD M03/M04 Q1013=
200912020220 METAR ESMX 020220Z AUTO 36004KT 9999NDV NCD M03/M04 Q1012=
200912020150 METAR ESMX 020150Z AUTO 35005KT 9999NDV NCD M04/M05 Q1012=
200912020120 METAR ESMX 020120Z AUTO 01005KT 9999NDV NCD M03/M04 Q1012=
200912020050 METAR ESMX 020050Z 01005KT CAVOK M03/M04 Q1012=
200912020020 METAR ESMX 020020Z 36006KT CAVOK M03/M03 Q1012=
200912012350 METAR ESMX 012350Z 01005KT CAVOK M03/M03 Q1012=
200912012320 METAR ESMX 012320Z 35006KT CAVOK M02/M03 Q1012=
200912012250 METAR ESMX 012250Z 35008KT CAVOK M02/M03 Q1012=
200912012220 METAR ESMX 012220Z 35006KT CAVOK M02/M03 Q1012=
200912012150 METAR ESMX 012150Z 36005KT CAVOK M03/M04 Q1012=
200912012120 METAR ESMX 012120Z 01005KT CAVOK M02/M03 Q1011=
200912012050 METAR ESMX 012050Z 36005KT CAVOK M02/M03 Q1011=
200912012020 METAR ESMX 012020Z 35007KT CAVOK M01/M03 Q1011=
200912011950 METAR ESMX 011950Z 35007KT CAVOK M01/M02 Q1011=
200912011920 METAR ESMX 011920Z 35008KT CAVOK M01/M02 Q1011=
200912011850 METAR ESMX 011850Z 35008KT CAVOK M01/M02 Q1010=
200912011820 METAR ESMX 011820Z 35009KT CAVOK M00/M02 Q1010=
200912011750 METAR ESMX 011750Z 34008KT CAVOK M00/M02 Q1010=
200912011720 METAR ESMX 011720Z 35008KT CAVOK M01/M02 Q1010=
200912011650 METAR ESMX 011650Z 35008KT CAVOK M00/M02 Q1010=
200912011620 METAR ESMX 011620Z 34008KT CAVOK 00/M02 Q1009=
200912011550 METAR ESMX 011550Z 34007KT CAVOK M00/M02 Q1009=
200912011520 METAR ESMX 011520Z 33007KT CAVOK 00/M01 Q1009=
200912011450 METAR ESMX 011450Z 34007KT CAVOK 00/M01 Q1008=
200912011420 METAR ESMX 011420Z 34008KT 300V010 9999 FEW015 01/M01 Q1008=
200912011350 METAR ESMX 011350Z 34008KT 9999 FEW015 SCT020 01/M01 Q1007=
200912011320 METAR ESMX 011320Z 35009KT 9999 FEW015 SCT020 01/M01 Q1007=
200912011250 METAR ESMX 011250Z 35010KT 320V020 9999 FEW015 BKN020 02/M01 Q1007=
200912011220 METAR ESMX 011220Z 35009KT 320V020 9999 SCT013 BKN017 02/M01 Q1006=
