##########################################################
# Query made at 04/19/2024 21:13:06 UTC
# Time interval: from 11/01/2009 12:00  to 11/30/2009 12:59  UTC
##########################################################

##########################################################
# ESMX, Vaxjo (Sweden)
# WMO index: 02641. WIGOS ID: 0-20000-0-02648
# Latitude 56-51N. Longitude 014-50E. Altitude 199 m.
##########################################################

200911301250 METAR ESMX 301250Z 16006KT 120V200 9000 BR OVC007 06/04 Q0995=
200911301220 METAR ESMX 301220Z 15004KT 110V190 9000 BR OVC007 06/04 Q0995=
200911301150 METAR ESMX 301150Z 15004KT 110V200 9000 BR OVC007 06/04 Q0995=
200911301120 METAR ESMX 301120Z 15005KT 100V170 9000 BR OVC005 06/04 Q0995=
200911301050 METAR ESMX 301050Z 16005KT 140V220 9000 BR OVC005 06/04 Q0995=
200911301020 METAR ESMX 301020Z 15005KT 100V190 9999 BKN007 05/04 Q0996=
200911300950 METAR ESMX 300950Z 12003KT 080V160 9999 FEW008 SCT110 05/04 Q0996=
200911300920 METAR ESMX 300920Z 13004KT 080V170 9999 FEW008 SCT025 05/04 Q0996=
200911300850 METAR ESMX 300850Z 16003KT 110V200 9000 BR SCT015 05/04 Q0997=
200911300820 METAR ESMX 300820Z VRB02KT 8000 BR SCT008 05/04 Q0996=
200911300750 METAR ESMX 300750Z VRB01KT 9000 BR SCT005 05/04 Q0996=
200911300720 METAR ESMX 300720Z 16003KT 130V200 9000 BR BKN005 05/04 Q0997=
200911300650 METAR ESMX 300650Z 16005KT 130V190 9000 BR BKN004 05/04 Q0997=
200911300620 METAR ESMX 300620Z 15007KT 120V200 8000 BR BKN004 05/04 Q0997=
200911300550 METAR ESMX 300550Z 15006KT 120V190 7000 BR BKN004 05/04 Q0997=
200911300520 METAR ESMX 300520Z 13006KT 100V170 6000 BR BKN003 05/05 Q0997=
200911300450 METAR ESMX 300450Z 14006KT 110V170 6000 BR OVC003 06/05 Q0997=
200911300420 METAR ESMX 300420Z AUTO 16006KT 120V190 7000NDV BR BKN004/// 06/05 Q0997=
200911300350 METAR ESMX 300350Z AUTO 14006KT 110V170 7000NDV BR OVC003/// 06/05 Q0997=
200911300320 METAR ESMX 300320Z AUTO 14006KT 110V170 6000NDV BR BKN003/// OVC069/// 06/05 Q0997=
200911300250 METAR ESMX 300250Z AUTO 15006KT 110V180 5000NDV BR BKN003/// OVC006/// 06/05 Q0997=
200911300220 METAR ESMX 300220Z AUTO 16007KT 6000NDV BR OVC003/// 06/05 Q0998=
200911300150 METAR ESMX 300150Z AUTO 15006KT 6000NDV BR OVC004/// 06/05 Q0998=
200911300120 METAR ESMX 300120Z AUTO 16006KT 140V200 6000NDV BR OVC004/// 06/05 Q0998=
200911300050 METAR ESMX 300050Z 16007KT 7000 BR OVC004 06/05 Q0998=
200911292250 METAR ESMX 292250Z 17006KT 9999 BR OVC004 07/06 Q0998=
200911292220 METAR ESMX 292220Z 16007KT 110V190 9000 BR FEW001 SCT003 BKN005 07/06 Q0998=
200911292150 METAR ESMX 292150Z 16007KT 120V190 4500 -DZ OVC002 06/06 Q0998=
200911292120 METAR ESMX 292120Z 14007KT 1700 DZ OVC002 06/06 Q0998=
200911292050 METAR ESMX 292050Z 15006KT 120V190 1900 DZ OVC002 06/05 Q0998=
200911292020 METAR ESMX 292020Z 14006KT 100V190 3600 -RA OVC002 05/05 Q0999=
200911291950 METAR ESMX 291950Z 14005KT 080V200 5000 -DZ OVC002 05/05 Q0998=
200911291920 METAR ESMX 291920Z 13005KT 080V170 4300 -RA OVC002 05/04 Q0999 REDZ=
200911291850 METAR ESMX 291850Z 12004KT 070V170 6000 -DZ OVC002 05/04 Q0999=
200911291820 METAR ESMX 291820Z 14004KT 080V170 4300 -RA OVC002 05/04 Q0999=
200911291750 METAR ESMX 291750Z 14004KT 100V170 3600 BR OVC002 04/04 Q0999=
200911291720 METAR ESMX 291720Z 13005KT 4400 BR OVC002 04/04 Q0999=
200911291650 METAR ESMX 291650Z 12003KT 5000 BR BKN002 OVC003 04/03 Q0999=
200911291620 METAR ESMX 291620Z 09004KT 4100 BR OVC002 03/03 Q0999=
200911291550 METAR ESMX 291550Z 08003KT 3200 BR OVC002 03/03 Q0999=
200911291520 METAR ESMX 291520Z 09003KT 030V140 3500 BR OVC002 03/03 Q0999=
200911291450 METAR ESMX 291450Z 09003KT 030V140 4900 BR OVC002 03/02 Q0999=
200911291350 METAR ESMX 291350Z 13003KT 070V170 3200 BR BKN001 OVC004 03/02 Q0999=
200911291320 METAR ESMX 291320Z 16004KT 090V190 2700 BR OVC004 03/02 Q0999=
200911291220 METAR ESMX 291220Z AUTO VRB02KT 9999NDV BR OVC001/// 04/03 Q0999=
200911291150 METAR ESMX 291150Z AUTO 15003KT 110V190 5000NDV BR FEW002/// SCT003/// BKN004/// 04/03 Q0999=
200911291120 METAR ESMX 291120Z AUTO 17005KT 8000NDV BR SCT003/// BKN005/// 04/03 Q0999=
200911291050 METAR ESMX 291050Z AUTO VRB02KT 9999NDV SCT003/// BKN027/// 05/03 Q0998=
200911291020 METAR ESMX 291020Z AUTO VRB01KT 9999NDV SCT002/// BKN027/// 05/04 Q0998=
200911290950 METAR ESMX 290950Z AUTO VRB02KT 9999NDV BKN002/// OVC028/// 04/04 Q0998=
200911290920 METAR ESMX 290920Z AUTO VRB01KT 9999NDV SCT002/// OVC028/// 04/03 Q0998=
200911290850 METAR ESMX 290850Z AUTO 15002KT 9999NDV OVC028/// 04/03 Q0997=
200911290820 METAR ESMX 290820Z AUTO 18002KT 7000NDV BR OVC028/// 04/03 Q0997=
200911290750 METAR ESMX 290750Z AUTO 18002KT 9000NDV FEW007/// OVC028/// 04/03 Q0997=
200911290720 METAR ESMX 290720Z AUTO 21002KT 9999NDV FEW010/// OVC029/// 03/03 Q0996=
200911290650 METAR ESMX 290650Z AUTO 22003KT 200V260 9999NDV OVC010/// 04/03 Q0996=
200911290620 METAR ESMX 290620Z AUTO 24004KT 9999NDV OVC010/// 04/03 Q0996=
200911290550 METAR ESMX 290550Z AUTO 22005KT 190V250 9999NDV FEW005/// OVC011/// 04/03 Q0996=
200911290520 METAR ESMX 290520Z AUTO 21003KT 160V240 9999NDV FEW001/// SCT004/// BKN009/// 04/03 Q0995=
200911290450 METAR ESMX 290450Z AUTO 20004KT 6000NDV BR FEW002/// SCT005/// OVC011/// 04/03 Q0995=
200911290420 METAR ESMX 290420Z AUTO 22004KT 9999NDV FEW003/// SCT005/// BKN008/// 04/03 Q0995=
200911290350 METAR ESMX 290350Z AUTO VRB01KT 9999NDV OVC003/// 03/02 Q0995=
200911290320 METAR ESMX 290320Z AUTO 21003KT 170V240 9999NDV BKN005/// BKN007/// 03/02 Q0994=
200911290250 METAR ESMX 290250Z AUTO 17004KT 130V210 9999NDV OVC006/// 03/02 Q0994=
200911290220 METAR ESMX 290220Z AUTO 17003KT 140V200 9999NDV OVC009/// 03/02 Q0994 REDZ=
200911290150 METAR ESMX 290150Z AUTO 17003KT 9999NDV -DZ BKN012/// 03/02 Q0994=
200911290120 METAR ESMX 290120Z AUTO 15004KT 090V190 9999NDV -RA FEW007/// SCT010/// BKN016/// 03/02 Q0994=
200911290050 METAR ESMX 290050Z AUTO 16008KT 9999NDV -RA FEW008/// SCT009/// BKN013/// 03/02 Q0994=
200911290020 METAR ESMX 290020Z AUTO 17008KT 9999NDV -RA FEW008/// SCT018/// 04/02 Q0994=
200911282350 METAR ESMX 282350Z AUTO 15005KT 090V190 9000NDV RA FEW006/// SCT008/// BKN016/// 05/04 Q0994=
200911282320 METAR ESMX 282320Z AUTO 12004KT 020V170 9000NDV -RA BKN005/// OVC011/// 05/04 Q0995=
200911282250 METAR ESMX 282250Z AUTO 12005KT 070V160 9000NDV -RA BKN006/// OVC010/// 05/04 Q0995=
200911282220 METAR ESMX 282220Z AUTO 13004KT 080V170 9999NDV BKN006/// OVC010/// 05/04 Q0995=
200911282150 METAR ESMX 282150Z AUTO 13004KT 080V180 9999NDV BKN006/// OVC010/// 05/04 Q0996=
200911282120 METAR ESMX 282120Z AUTO 14004KT 080V190 9999NDV FEW013/// SCT015/// BKN021/// 05/04 Q0996=
200911282050 METAR ESMX 282050Z AUTO 16005KT 110V180 9999NDV FEW008/// BKN031/// 05/04 Q0997=
200911282020 METAR ESMX 282020Z AUTO 15004KT 110V170 9999NDV FEW008/// BKN010/// BKN041/// 05/03 Q0997=
200911281950 METAR ESMX 281950Z AUTO 16005KT 120V190 9999NDV FEW009/// SCT011/// BKN017/// 05/03 Q0997 REDZ=
200911281920 METAR ESMX 281920Z AUTO 16005KT 9999NDV FEW023/// OVC028/// 05/03 Q0997=
200911281850 METAR ESMX 281850Z AUTO 17007KT 9999NDV OVC026/// 05/03 Q0998=
200911281820 METAR ESMX 281820Z AUTO 18008KT 9999NDV FEW027/// SCT032/// 05/03 Q0998=
200911281750 METAR ESMX 281750Z AUTO 16006KT 9999NDV FEW013/// OVC038/// 05/04 Q0998=
200911281720 METAR ESMX 281720Z AUTO 17007KT 9999NDV SCT021/// OVC042/// 05/04 Q0998=
200911281650 METAR ESMX 281650Z AUTO 19008KT 9999NDV FEW008/// 05/04 Q0998=
200911281620 METAR ESMX 281620Z AUTO 19008KT 9999NDV FEW015/// SCT038/// 05/03 Q0998=
200911281550 METAR ESMX 281550Z AUTO 19009KT 9999NDV FEW008/// SCT010/// BKN030/// 05/04 Q0998=
200911281520 METAR ESMX 281520Z AUTO 18007KT 9999NDV FEW009/// SCT013/// BKN035/// 05/04 Q0998=
200911281450 METAR ESMX 281450Z AUTO 19007KT 9999NDV FEW012/// SCT014/// BKN019/// 05/04 Q0998=
200911281420 METAR ESMX 281420Z 21007KT 9999 -RA FEW014 BKN017 OVC039 06/04 Q0997=
200911281350 METAR ESMX 281350Z 21007KT 9999 SCT013 BKN020 06/04 Q0997=
200911281320 METAR ESMX 281320Z 20009KT 9999 FEW009 BKN013 BKN027 06/05 Q0997=
200911281250 METAR ESMX 281250Z 22007KT 190V250 9999 FEW009 SCT013 BKN020 06/05 Q0997 RERA=
200911281220 METAR ESMX 281220Z 21008KT 9999 FEW010 SCT012 BKN016 06/05 Q0997=
200911281150 METAR ESMX 281150Z 21008KT 9999 -RA FEW009 SCT012 BKN014 06/05 Q0997=
200911281120 METAR ESMX 281120Z 20007KT 9999 BKN010 BKN024 06/05 Q0997=
200911281050 METAR ESMX 281050Z 20009KT 9999 DZ BKN008 OVC014 06/04 Q0997=
200911281020 METAR ESMX 281020Z 19009KT 9999 OVC008 06/04 Q0997=
200911280950 METAR ESMX 280950Z 20008KT 9999 OVC009 06/04 Q0997=
200911280920 METAR ESMX 280920Z 21010KT 9999 OVC011 05/04 Q0997=
200911280850 METAR ESMX 280850Z 20010KT 9999 OVC010 05/03 Q0997=
200911280820 METAR ESMX 280820Z 21008KT 170V240 9999 BKN011 05/04 Q0997=
200911280750 METAR ESMX 280750Z 21009KT 9999 FEW011 BKN014 05/03 Q0996=
200911280720 METAR ESMX 280720Z 20009KT 9999 OVC011 05/03 Q0996=
200911280650 METAR ESMX 280650Z AUTO 20009KT 170V230 9999NDV OVC011/// 05/03 Q0996=
200911280620 METAR ESMX 280620Z AUTO 20008KT 9999NDV FEW009/// SCT015/// BKN017/// 05/04 Q0995=
200911280550 METAR ESMX 280550Z AUTO 21008KT 9999NDV FEW007/// BKN011/// OVC018/// 05/04 Q0995=
200911280520 METAR ESMX 280520Z AUTO 20007KT 9999NDV FEW008/// SCT012/// BKN017/// 05/04 Q0995=
200911280450 METAR ESMX 280450Z AUTO 20007KT 9999NDV BR FEW007/// BKN011/// OVC017/// 05/04 Q0995=
200911280420 METAR ESMX 280420Z AUTO 20008KT 9999NDV FEW008/// OVC010/// 05/04 Q0995 REDZ=
200911280350 METAR ESMX 280350Z AUTO 19010KT 9999NDV FEW009/// SCT011/// BKN032/// 05/04 Q0995=
200911280320 METAR ESMX 280320Z AUTO 19010KT 9999NDV FEW009/// BKN011/// BKN016/// 05/04 Q0995=
200911280250 METAR ESMX 280250Z AUTO 20008KT 9999NDV FEW009/// BKN011/// BKN020/// 05/04 Q0995=
200911280220 METAR ESMX 280220Z AUTO 19009KT 9999NDV FEW007/// BKN010/// OVC014/// 05/04 Q0995=
200911280150 METAR ESMX 280150Z AUTO 20009KT 9999NDV FEW006/// SCT008/// OVC010/// 05/04 Q0995=
200911280120 METAR ESMX 280120Z AUTO 22008KT 180V250 9999NDV BKN005/// OVC009/// 05/04 Q0995=
200911280050 METAR ESMX 280050Z AUTO 21008KT 9999NDV OVC006/// 05/04 Q0995=
200911280020 METAR ESMX 280020Z AUTO 20007KT 9999NDV FEW007/// BKN008/// OVC010/// 05/03 Q0994=
200911272350 METAR ESMX 272350Z AUTO 21007KT 9999NDV FEW008/// BKN011/// BKN053/// 04/03 Q0995=
200911272320 METAR ESMX 272320Z AUTO 20007KT 9999NDV FEW026/// SCT051/// 04/03 Q0995=
200911272250 METAR ESMX 272250Z AUTO 20007KT 9999NDV OVC022/// 05/04 Q0995=
200911272220 METAR ESMX 272220Z AUTO 23007KT 190V260 9999NDV FEW011/// BKN018/// OVC022/// 05/03 Q0994=
200911272150 METAR ESMX 272150Z AUTO 22005KT 9999NDV FEW010/// SCT013/// BKN015/// 05/04 Q0994=
200911272120 METAR ESMX 272120Z 22006KT 190V260 3900 -RA FEW003 SCT005 BKN007 05/04 Q0994=
200911272050 METAR ESMX 272050Z 20006KT 8000 -RA BKN005 OVC009 05/04 Q0994=
200911272020 METAR ESMX 272020Z 19005KT 9999 FEW003 BKN005 OVC009 05/04 Q0994=
200911271950 METAR ESMX 271950Z 20007KT 9999 FEW007 BKN012 OVC023 05/04 Q0993=
200911271920 METAR ESMX 271920Z 20006KT 9999 FEW006 SCT012 BKN029 05/04 Q0993=
200911271850 METAR ESMX 271850Z 19007KT 9999 FEW019 SCT025 BKN036 05/04 Q0993=
200911271820 METAR ESMX 271820Z 19008KT 9999 FEW018 SCT028 OVC031 05/04 Q0993 REDZ=
200911271750 METAR ESMX 271750Z 19009KT 9999 -RA FEW008 SCT009 BKN011 05/04 Q0993=
200911271720 METAR ESMX 271720Z 17006KT 150V210 9999 SCT007 BKN009 OVC011 05/04 Q0993=
200911271650 METAR ESMX 271650Z 18006KT 9999 FEW010 SCT019 OVC029 05/04 Q0993=
200911271620 METAR ESMX 271620Z 17007KT 9999 FEW009 SCT012 BKN023 06/04 Q0993=
200911271550 METAR ESMX 271550Z 16007KT 140V200 9999 FEW011 SCT013 OVC020 06/04 Q0993=
200911271520 METAR ESMX 271520Z 17006KT 130V190 9999 OVC012 06/04 Q0994=
200911271450 METAR ESMX 271450Z 17006KT 9999 FEW013 SCT016 BKN020 06/04 Q0994=
200911271420 METAR ESMX 271420Z 18006KT 9999 SCT016 OVC028 06/03 Q0994=
200911271350 METAR ESMX 271350Z 18007KT 9999 OVC023 06/03 Q0994=
200911271320 METAR ESMX 271320Z 18009KT 9999 FEW025 OVC029 06/03 Q0994=
200911271220 METAR ESMX 271220Z 18011KT 9999 FEW014 SCT017 BKN020 06/04 Q0994=
200911271150 METAR COR ESMX 271150Z 19011KT 9999 SCT012 BKN030 06/04 Q0995=
200911271120 METAR ESMX 271120Z 20009KT 9999 FEW010 SCT013 BKN015 06/04 Q0995=
200911271050 METAR ESMX 271050Z 20009KT 9999 FEW011 SCT022 OVC029 06/04 Q0995=
200911271020 METAR ESMX 271020Z 19011KT 9999 FEW010 OVC029 06/04 Q0995=
200911270920 METAR ESMX 270920Z 21011KT 9999 FEW005 SCT008 BKN012 06/04 Q0995 RERA RESHRA=
200911270850 METAR ESMX 270850Z 19011KT 9999 -RA FEW011 BKN013 06/04 Q0995=
200911270820 METAR ESMX 270820Z 21011KT 9999 FEW010 BKN013 OVC019 06/04 Q0995=
200911270750 METAR ESMX 270750Z 19012KT 9999 FEW011 SCT014 BKN016 05/04 Q0995 REDZ=
200911270720 METAR ESMX 270720Z 21012KT 9999 FEW012 SCT015 BKN019 05/04 Q0995=
200911270650 METAR ESMX 270650Z 21011KT 170V230 9999 FEW011 SCT013 BKN016 05/04 Q0995=
200911270620 METAR ESMX 270620Z 20012KT 9999 FEW010 BKN013 OVC017 05/04 Q0995=
200911270520 METAR ESMX 270520Z 20014KT 9999 FEW010 SCT013 BKN016 05/03 Q0995=
200911270450 METAR ESMX 270450Z 22012KT 9999 FEW010 BKN017 05/03 Q0995=
200911270420 METAR ESMX 270420Z AUTO 22012KT 200V260 9999NDV FEW012/// OVC015/// 05/03 Q0995=
200911270350 METAR ESMX 270350Z AUTO 21013KT 9999NDV BKN013/// 06/04 Q0995=
200911270320 METAR ESMX 270320Z AUTO 22009KT 9999NDV FEW011/// SCT014/// BKN017/// 05/04 Q0995=
200911270250 METAR ESMX 270250Z AUTO 21009KT 9999NDV FEW017/// SCT022/// BKN027/// 05/03 Q0995=
200911270220 METAR ESMX 270220Z AUTO 22011KT 9999NDV FEW010/// BKN013/// OVC020/// 05/03 Q0995=
200911270150 METAR ESMX 270150Z AUTO 22010KT 190V260 9999NDV FEW011/// SCT014/// BKN017/// 06/04 Q0995=
200911270120 METAR ESMX 270120Z AUTO 23012KT 9999NDV OVC012/// 06/04 Q0995=
200911270050 METAR ESMX 270050Z 22012KT 9999 FEW011 OVC014 06/04 Q0995=
200911270020 METAR ESMX 270020Z 22012KT 9999 FEW009 SCT013 BKN015 06/04 Q0995=
200911262350 METAR ESMX 262350Z 20010KT 9999 FEW008 SCT011 BKN016 06/05 Q0995=
200911262320 METAR ESMX 262320Z 21010KT 9999 -DZ FEW008 SCT011 BKN016 05/04 Q0995=
200911262250 METAR ESMX 262250Z 21008KT 8000 RA FEW011 SCT023 BKN032 05/04 Q0995=
200911262220 METAR ESMX 262220Z 21011KT 9999 -RA FEW008 SCT011 BKN015 05/04 Q0995=
200911262150 METAR ESMX 262150Z 20011KT 9999 FEW009 SCT012 BKN017 05/04 Q0995=
200911262120 METAR ESMX 262120Z 21010KT 9999 FEW012 BKN015 BKN039 05/04 Q0995=
200911262050 METAR ESMX 262050Z 21011KT 9999 FEW013 BKN016 05/04 Q0995=
200911262020 METAR ESMX 262020Z 22009KT 9999 FEW009 SCT013 BKN019 05/04 Q0995=
200911261950 METAR ESMX 261950Z 22011KT 9999 -RA FEW010 SCT017 BKN019 06/05 Q0995=
200911261920 METAR ESMX 261920Z 20011KT 9999 -RA FEW021 SCT026 05/04 Q0995=
200911261850 METAR ESMX 261850Z 22008KT 5000 RA FEW014 SCT021 BKN026 05/04 Q0996=
200911261820 METAR ESMX 261820Z 27011KT 240V300 5000 -RA FEW009 SCT015 BKN018 05/03 Q0996=
200911261750 METAR ESMX 261750Z 19015KT 9999 FEW012 SCT016 BKN019 07/05 Q0995=
200911261720 METAR ESMX 261720Z 20012KT 9999 FEW012 SCT018 BKN025 06/05 Q0995=
200911261650 METAR ESMX 261650Z 21013KT 9999 FEW010 SCT015 BKN019 07/05 Q0996=
200911261620 METAR ESMX 261620Z 20012KT 9000 DZ FEW012 BKN016 BKN048 07/05 Q0996=
200911261550 METAR ESMX 261550Z 20012KT 160V230 9999 FEW009 SCT013 BKN015 07/05 Q0996 RERA=
200911261520 METAR ESMX 261520Z 21009KT 170V240 6000 -RA FEW010 SCT013 BKN017 07/05 Q0996=
200911261450 METAR ESMX 261450Z 20012KT 8000 DZ FEW017 BKN021 BKN028 07/05 Q0996=
200911261420 METAR ESMX 261420Z 19012KT 9999 -RA FEW019 OVC022 08/05 Q0996=
200911261350 METAR ESMX 261350Z 20012KT 9999 SCT021 BKN028 08/05 Q0996=
200911261250 METAR ESMX 261250Z 20014KT 9999 SCT020 BKN025 08/05 Q0997=
200911261220 METAR ESMX 261220Z 22011KT 9999 SCT020 BKN030 08/05 Q0997=
200911261150 METAR ESMX 261150Z 21012KT 170V230 9999 SCT020 BKN025 08/05 Q0997=
200911261120 METAR ESMX 261120Z 21014KT 9999 FEW019 SCT024 BKN034 08/05 Q0997=
200911261050 METAR ESMX 261050Z 22018KT 9999 FEW017 BKN020 BKN026 08/05 Q0997=
200911261020 METAR ESMX 261020Z 21014KT 180V250 9999 SCT015 BKN020 08/05 Q0996=
200911260950 METAR ESMX 260950Z 23014KT 9999 SCT015 BKN020 08/05 Q0996=
200911260920 METAR ESMX 260920Z 21013KT 9999 SCT015 BKN020 08/05 Q0996=
200911260850 METAR ESMX 260850Z 21012KT 170V240 9999 FEW010 BKN015 07/05 Q0996=
200911260820 METAR ESMX 260820Z 23012KT 9999 -SHRA SCT010 FEW015CB BKN020 07/05 Q0996 RERA=
200911260750 METAR ESMX 260750Z 21013KT 9999 SCT010 BKN017 07/05 Q0996=
200911260720 METAR ESMX 260720Z 22011KT 9999 FEW012 SCT014 BKN018 07/05 Q0995=
200911260650 METAR ESMX 260650Z 21013KT 9999 FEW011 BKN014 BKN021 07/05 Q0995=
200911260620 METAR ESMX 260620Z 20014KT 170V230 9999 FEW009 BKN012 OVC017 07/05 Q0995=
200911260550 METAR ESMX 260550Z 21013KT 9999 SCT011 BKN018 07/05 Q0995=
200911260520 METAR ESMX 260520Z 21013KT 9999 DZ FEW012 SCT016 BKN025 06/05 Q0995=
200911260450 METAR ESMX 260450Z 20012KT 9999 SCT011 BKN016 BKN035 07/05 Q0995=
200911260420 METAR ESMX 260420Z AUTO 20013KT 9999NDV BKN011/// OVC016/// 07/05 Q0995=
200911260350 METAR ESMX 260350Z AUTO 20012KT 9999NDV OVC012/// 07/05 Q0995=
200911260320 METAR ESMX 260320Z AUTO 19012KT 9999NDV FEW011/// BKN013/// BKN019/// 07/05 Q0995=
200911260250 METAR ESMX 260250Z AUTO 20012KT 9999NDV BKN011/// OVC017/// 07/05 Q0995=
200911260220 METAR ESMX 260220Z AUTO 20010KT 9999NDV FEW014/// BKN017/// 06/05 Q0995=
200911260150 METAR ESMX 260150Z AUTO 20012KT 9999NDV FEW012/// SCT016/// 06/05 Q0995=
200911260120 METAR ESMX 260120Z AUTO 20012KT 9999NDV SCT011/// BKN016/// 06/05 Q0996=
200911260050 METAR ESMX 260050Z 19013KT 9999 FEW009 BKN014 07/05 Q0996=
200911260020 METAR ESMX 260020Z 19010KT 9999 FEW013 SCT017 BKN020 07/05 Q0996=
200911252350 METAR ESMX 252350Z 19010KT 9999 FEW018 SCT023 07/05 Q0996=
200911252320 METAR ESMX 252320Z 19009KT 9999 FEW017 SCT024 07/06 Q0996=
200911252250 METAR ESMX 252250Z 21008KT 9999 FEW015 SCT025 07/05 Q0996=
200911252220 METAR ESMX 252220Z 21010KT 9999 FEW013 SCT018 08/06 Q0996=
200911252150 METAR ESMX 252150Z 19010KT 9999 FEW012 SCT016 BKN020 08/07 Q0996=
200911252120 METAR ESMX 252120Z 20008KT 9999 FEW013 SCT020 BKN057 08/07 Q0995=
200911252050 METAR ESMX 252050Z 21008KT 9999 FEW017 SCT020 08/07 Q0996=
200911252020 METAR ESMX 252020Z 20011KT 9999 FEW013 SCT021 BKN028 08/07 Q0995=
200911251950 METAR ESMX 251950Z 21011KT 9999 FEW013 SCT017 BKN020 09/07 Q0995=
200911251920 METAR ESMX 251920Z 21010KT 9999 FEW013 SCT018 BKN021 09/07 Q0995=
200911251850 METAR ESMX 251850Z 21010KT 9999 FEW011 SCT015 BKN020 09/07 Q0995=
200911251820 METAR ESMX 251820Z 21010KT 170V230 9999 FEW008 SCT010 BKN015 09/08 Q0995=
200911251750 METAR ESMX 251750Z 21013KT 170V240 9999 BR SCT007 BKN009 OVC011 09/08 Q0995=
200911251720 METAR ESMX 251720Z 21013KT 170V240 9999 -DZ BKN006 OVC009 09/08 Q0995=
200911251650 METAR ESMX 251650Z 19014KT 4500 -RA FEW005 SCT007 BKN008 09/08 Q0995=
200911251620 METAR ESMX 251620Z 19014KT 5000 -RA FEW006 SCT007 BKN009 09/08 Q0995=
200911251550 METAR ESMX 251550Z 19014KT 5000 -RA FEW006 SCT008 BKN009 09/08 Q0995=
200911251520 METAR ESMX 251520Z 19014KT 4200 -RA FEW008 SCT009 BKN011 09/08 Q0995=
200911251450 METAR ESMX 251450Z 18013KT 5000 DZ FEW006 BKN010 OVC014 09/08 Q0995=
200911251420 METAR ESMX 251420Z 19012KT 3000 DZ FEW010 BKN013 OVC018 09/08 Q0996=
200911251350 METAR ESMX 251350Z 19012KT 9999 -RA SCT012 OVC014 10/08 Q0996=
200911251320 METAR ESMX 251320Z 20014KT 9999 OVC013 10/08 Q0996=
200911251250 METAR ESMX 251250Z 19013KT 9999 SCT011 OVC013 10/08 Q0996=
200911251220 METAR ESMX 251220Z 19013KT 9999 FEW010 OVC013 10/08 Q0997=
200911251150 METAR ESMX 251150Z 19012KT 9999 BKN010 10/08 Q0997=
200911251120 METAR ESMX 251120Z 21011KT 9999 FEW010 BKN013 OVC017 10/08 Q0998=
200911251050 METAR ESMX 251050Z 20011KT 9999 FEW009 OVC013 10/08 Q0998=
200911251020 METAR ESMX 251020Z 21010KT 9999 -DZ FEW009 OVC012 10/09 Q0998=
200911250950 METAR ESMX 250950Z 20010KT 9999 FEW008 OVC011 10/09 Q0998=
200911250920 METAR ESMX 250920Z 21010KT 170V240 9999 BR FEW007 OVC010 10/09 Q0998=
200911250850 METAR ESMX 250850Z 21011KT 180V250 8000 BR FEW006 SCT007 BKN009 10/09 Q0998=
200911250820 METAR ESMX 250820Z 21009KT 8000 BR FEW005 SCT006 OVC008 10/09 Q0998=
200911250750 METAR ESMX 250750Z 19011KT 6000 DZ SCT003 BKN006 09/09 Q0998=
200911250720 METAR ESMX 250720Z 19009KT 3400 DZ OVC002 09/08 Q0998=
200911250650 METAR ESMX 250650Z 19008KT 5000 BR OVC002 08/08 Q0998=
200911250620 METAR ESMX 250620Z 19009KT 4000 BR OVC002 08/07 Q0998=
200911250550 METAR ESMX 250550Z 19009KT 8000 BR BKN002 OVC004 08/07 Q0998=
200911250520 METAR ESMX 250520Z 20008KT 160V240 6000 -DZ BR OVC002 07/06 Q0998 REDZ=
200911250450 METAR ESMX 250450Z 17007KT 140V200 3000 DZ BR OVC002 07/06 Q0998=
200911250420 METAR ESMX 250420Z AUTO 16006KT 3800NDV -RA OVC002/// 06/06 Q0998=
200911250350 METAR ESMX 250350Z AUTO 16005KT 4000NDV -RA OVC003/// 06/06 Q0998 REDZ=
200911250320 METAR ESMX 250320Z AUTO 18007KT 7000NDV DZ OVC003/// 06/05 Q0999=
200911250250 METAR ESMX 250250Z AUTO 18007KT 7000NDV -RA OVC004/// 06/05 Q0999 REDZ=
200911250220 METAR ESMX 250220Z AUTO 19007KT 9000NDV -DZ OVC005/// 06/05 Q0999=
200911250150 METAR ESMX 250150Z AUTO 19007KT 9999NDV BKN005/// OVC008/// 06/05 Q0999=
200911250120 METAR ESMX 250120Z AUTO 19006KT 9999NDV SCT005/// BKN007/// OVC013/// 06/05 Q0999=
200911250050 METAR ESMX 250050Z 18005KT 9999 SCT006 BKN014 BKN019 06/05 Q0999=
200911250020 METAR ESMX 250020Z 19005KT 9999 FEW014 SCT019 05/05 Q0999=
200911242350 METAR ESMX 242350Z 21005KT 9999 FEW024 05/04 Q0999=
200911242320 METAR ESMX 242320Z 21006KT 9999 FEW023 05/04 Q0999=
200911242250 METAR ESMX 242250Z 21005KT 9999 FEW009 SCT023 05/04 Q0999=
200911242220 METAR ESMX 242220Z 22005KT 9999 BKN020 06/04 Q0999=
200911242150 METAR ESMX 242150Z 25006KT 200V290 9999 BKN021 07/04 Q0999=
200911242120 METAR ESMX 242120Z 26008KT 230V320 9999 FEW018 OVC022 07/04 Q0999=
200911242020 METAR ESMX 242020Z 25007KT 9999 FEW012 OVC022 07/05 Q0998=
200911241950 METAR ESMX 241950Z 27009KT 230V300 9999 FEW017 BKN024 07/05 Q0998=
200911241920 METAR ESMX 241920Z 26009KT 230V310 9999 FEW014 OVC023 07/05 Q0997=
200911241850 METAR ESMX 241850Z 26010KT 9999 FEW008 BKN010 07/05 Q0997=
200911241820 METAR ESMX 241820Z 26009KT 9999 SCT010 BKN030 07/05 Q0996=
200911241750 METAR ESMX 241750Z 26008KT 220V290 9999 FEW007 SCT012 OVC029 07/05 Q0996=
200911241720 METAR ESMX 241720Z 25008KT 220V280 9999 SCT007 BKN010 07/06 Q0995=
200911241650 METAR ESMX 241650Z 24010KT 9999 FEW006 SCT009 BKN028 07/05 Q0995=
200911241620 METAR ESMX 241620Z 24009KT 210V270 9000 BR SCT008 BKN014 06/05 Q0995=
200911241550 METAR ESMX 241550Z 24008KT 9999 FEW010 BKN012 BKN023 07/05 Q0995=
200911241520 METAR ESMX 241520Z 23009KT 200V270 9999 FEW012 SCT014 BKN017 07/05 Q0995=
200911241450 METAR ESMX 241450Z 24009KT 9999 FEW011 SCT015 BKN018 07/05 Q0994=
200911241420 METAR ESMX 241420Z 25011KT 220V280 9999 FEW013 SCT018 OVC021 07/05 Q0994 REDZ=
200911241350 METAR ESMX 241350Z 26011KT 7000 -DZ FEW015 SCT019 BKN022 07/05 Q0994=
200911241320 METAR ESMX 241320Z 24011KT 210V280 9999 SCT020 OVC030 08/05 Q0993=
200911241250 METAR ESMX 241250Z 25013KT 9999 FEW020 BKN025 08/05 Q0993=
200911241220 METAR ESMX 241220Z 26012KT 230V290 9999 SCT020 BKN025 08/05 Q0993=
200911241150 METAR ESMX 241150Z 25011KT 200V290 9999 SCT017 BKN025 08/05 Q0992=
200911241120 METAR ESMX 241120Z 26013KT 220V280 9999 SCT015 BKN020 08/05 Q0992=
200911241050 METAR ESMX 241050Z 26012KT 230V290 9999 SCT010 BKN020 08/05 Q0992=
200911241020 METAR ESMX 241020Z 25011KT 200V280 9999 FEW011 SCT015 BKN019 07/05 Q0992=
200911240950 METAR ESMX 240950Z 26012KT 230V300 9999 FEW012 SCT015 BKN019 07/05 Q0991=
200911240920 METAR ESMX 240920Z 26011KT 9999 FEW011 SCT015 BKN019 07/05 Q0991=
200911240850 METAR ESMX 240850Z 26010KT 230V300 9999 SCT010 BKN017 07/05 Q0990=
200911240820 METAR ESMX 240820Z 25010KT 220V290 9999 FEW010 BKN015 07/05 Q0989=
200911240750 METAR ESMX 240750Z 26009KT 9999 FEW008 SCT012 BKN016 07/05 Q0989=
200911240720 METAR ESMX 240720Z 25009KT 9999 FEW008 SCT011 BKN015 06/05 Q0989=
200911240650 METAR ESMX 240650Z 23009KT 200V260 4100 FEW006 SCT009 BKN012 06/05 Q0988=
200911240620 METAR ESMX 240620Z 22008KT 170V240 7000 -RA FEW007 SCT010 BKN014 07/06 Q0988=
200911240550 METAR ESMX 240550Z 19006KT 9000 -RA FEW015 SCT023 BKN028 07/06 Q0987=
200911240520 METAR ESMX 240520Z 21007KT 160V240 9999 FEW009 BKN013 BKN041 07/05 Q0987=
200911240450 METAR ESMX 240450Z 21006KT 9999 FEW008 SCT010 BKN013 06/05 Q0987=
200911240420 METAR ESMX 240420Z AUTO 23006KT 200V260 9999NDV FEW008/// SCT011/// BKN041/// 07/06 Q0987=
200911240350 METAR ESMX 240350Z AUTO 21008KT 170V240 9000NDV -RA FEW007/// SCT008/// BKN010/// 07/06 Q0987=
200911240320 METAR ESMX 240320Z AUTO 21008KT 9000NDV FEW008/// SCT011/// BKN014/// 07/06 Q0987=
200911240250 METAR ESMX 240250Z AUTO 19009KT 9000NDV BR FEW006/// SCT009/// BKN014/// 07/06 Q0987=
200911240220 METAR ESMX 240220Z AUTO 19008KT 8000NDV BR FEW010/// SCT029/// BKN042/// 07/06 Q0987=
200911240150 METAR ESMX 240150Z AUTO 19008KT 9000NDV BR FEW008/// SCT011/// BKN018/// 07/06 Q0987=
200911240120 METAR ESMX 240120Z AUTO 19011KT 8000NDV DZ FEW008/// BKN010/// OVC021/// 07/06 Q0987=
200911240050 METAR ESMX 240050Z 19010KT 9999 FEW008 OVC010 07/06 Q0987=
200911240020 METAR ESMX 240020Z 19010KT 9999 SCT009 BKN012 07/06 Q0987=
200911232350 METAR ESMX 232350Z 19010KT 7000 -DZ FEW008 BKN010 OVC014 07/06 Q0987=
200911232320 METAR ESMX 232320Z 18011KT 9999 FEW008 OVC010 07/06 Q0987=
200911232250 METAR ESMX 232250Z 19010KT 9999 FEW009 SCT012 OVC014 07/06 Q0988=
200911232220 METAR ESMX 232220Z 19012KT 9999 FEW009 OVC011 07/06 Q0988=
200911232150 METAR ESMX 232150Z 19013KT 9999 FEW009 BKN011 OVC017 07/06 Q0988=
200911232120 METAR ESMX 232120Z 19011KT 8000 DZ FEW008 OVC012 07/06 Q0988=
200911232050 METAR ESMX 232050Z 19011KT 9000 BR FEW008 OVC009 07/06 Q0988=
200911232020 METAR ESMX 232020Z 19012KT 9999 FEW008 SCT009 OVC011 07/06 Q0988=
200911231950 METAR ESMX 231950Z 19012KT 9999 -RA FEW006 BKN008 OVC010 07/06 Q0988=
200911231920 METAR ESMX 231920Z 19012KT 8000 -DZ FEW008 SCT009 OVC011 07/06 Q0988=
200911231850 METAR ESMX 231850Z 20012KT 9999 FEW008 BKN010 OVC014 07/06 Q0989=
200911231820 METAR ESMX 231820Z 19012KT 9999 -RA FEW009 SCT010 BKN015 07/06 Q0989=
200911231750 METAR ESMX 231750Z 19012KT 9999 FEW008 SCT011 BKN015 07/06 Q0989=
200911231720 METAR ESMX 231720Z 20011KT 9999 FEW007 BKN008 OVC012 07/06 Q0989=
200911231650 METAR ESMX 231650Z 19011KT 9999 FEW007 SCT008 BKN010 07/06 Q0989=
200911231620 METAR ESMX 231620Z 19012KT 9999 FEW006 SCT008 BKN012 07/06 Q0989=
200911231550 METAR ESMX 231550Z 18011KT 9999 -DZ FEW007 SCT009 BKN015 06/05 Q0989=
200911231520 METAR ESMX 231520Z 19012KT 9999 -RA FEW007 BKN010 OVC016 06/05 Q0990=
200911231450 METAR ESMX 231450Z 18011KT 9999 DZ FEW008 SCT013 BKN017 06/05 Q0990=
200911231420 METAR ESMX 231420Z 19013KT 9999 -DZ FEW008 SCT012 BKN016 07/05 Q0990=
200911231350 METAR ESMX 231350Z 20015KT 9999 DZ FEW010 BKN015 07/05 Q0990=
200911231320 METAR ESMX 231320Z 18018KT 9999 FEW009 BKN015 07/05 Q0990=
200911231250 METAR ESMX 231250Z 18014KT 9999 FEW009 BKN011 OVC016 07/05 Q0991=
200911231220 METAR ESMX 231220Z 18014KT 9999 FEW008 OVC010 07/05 Q0991=
200911231150 METAR ESMX 231150Z 19016KT 8000 -RA BR FEW008 OVC010 07/06 Q0992=
200911231120 METAR ESMX 231120Z 18013KT 9999 -DZ FEW009 BKN014 07/05 Q0992=
200911231050 METAR ESMX 231050Z 17013KT 120V200 9999 DZ FEW010 BKN015 07/05 Q0992=
200911231020 METAR ESMX 231020Z 18014KT 150V210 9999 BKN012 OVC020 07/05 Q0993=
200911230950 METAR ESMX 230950Z 19016KT 9999 FEW014 BKN016 OVC020 07/05 Q0993=
200911230920 METAR ESMX 230920Z 18013KT 9999 FEW015 BKN018 BKN027 07/05 Q0993=
200911230850 METAR ESMX 230850Z 18012KT 150V210 9999 -RA SCT015 BKN054 07/05 Q0993=
200911230820 METAR ESMX 230820Z 18012KT 9999 -RA FEW013 SCT017 BKN020 07/05 Q0994=
200911230750 METAR ESMX 230750Z 18013KT 140V200 8000 -RA FEW015 SCT018 BKN030 07/05 Q0994=
200911230720 METAR ESMX 230720Z 18013KT 9999 FEW014 SCT018 BKN030 07/05 Q0994=
200911230650 METAR ESMX 230650Z 20013KT 9999 BKN014 BKN020 07/05 Q0994=
200911230620 METAR ESMX 230620Z 19014KT 150V210 9999 SCT014 BKN017 07/05 Q0994=
200911230550 METAR ESMX 230550Z 18015KT 9999 FEW015 SCT018 BKN021 07/05 Q0994=
200911230520 METAR ESMX 230520Z 18014KT 9999 FEW014 SCT017 OVC021 07/05 Q0994=
200911230450 METAR ESMX 230450Z 19013KT 9999 FEW018 SCT030 OVC036 07/05 Q0995=
200911230420 METAR ESMX 230420Z AUTO 19013KT 9999NDV FEW016/// SCT020/// BKN038/// 07/05 Q0995=
200911230350 METAR ESMX 230350Z AUTO 19013KT 9999NDV FEW012/// SCT019/// BKN024/// 07/05 Q0995=
200911230320 METAR ESMX 230320Z AUTO 19014KT 9999NDV FEW011/// SCT014/// BKN016/// 07/06 Q0995=
200911230250 METAR ESMX 230250Z AUTO 18012KT 9999NDV FEW009/// BKN011/// BKN016/// 07/06 Q0996=
200911230220 METAR ESMX 230220Z AUTO 17012KT 9999NDV -RA FEW010/// SCT016/// BKN021/// 07/06 Q0996=
200911230150 METAR ESMX 230150Z AUTO 17010KT 9999NDV FEW009/// SCT031/// BKN045/// 07/06 Q0997=
200911230120 METAR ESMX 230120Z 17008KT 9999 FEW036 SCT041 07/06 Q0997=
200911230050 METAR ESMX 230050Z 17008KT 9999 FEW008 SCT010 07/06 Q0998=
200911230020 METAR ESMX 230020Z 18009KT 9999 FEW009 SCT012 BKN040 08/06 Q0998=
200911222350 METAR ESMX 222350Z 19010KT 9999 FEW009 SCT012 BKN016 08/06 Q0999=
200911222320 METAR ESMX 222320Z 19010KT 9999 FEW010 SCT015 BKN022 08/07 Q0999=
200911222250 METAR ESMX 222250Z 20009KT 9999 FEW010 SCT021 BKN025 08/07 Q1000=
200911222220 METAR ESMX 222220Z 20010KT 9999 FEW009 SCT012 BKN018 08/07 Q1000 REDZ=
200911222150 METAR ESMX 222150Z 20010KT 9000 -RA FEW009 SCT014 BKN018 08/07 Q1000=
200911222120 METAR ESMX 222120Z 20010KT 9999 FEW009 SCT011 BKN013 08/07 Q1000=
200911222050 METAR ESMX 222050Z 21008KT 9999 FEW011 BKN014 BKN024 08/07 Q1000=
200911222020 METAR ESMX 222020Z 22008KT 9999 FEW013 SCT016 BKN020 08/07 Q1000=
200911221950 METAR ESMX 221950Z 23012KT 9999 FEW010 SCT016 BKN042 09/07 Q1000=
200911221920 METAR ESMX 221920Z 20011KT 4600 -RA FEW005 SCT007 BKN008 09/08 Q1000=
200911221850 METAR ESMX 221850Z 22008KT 9000 RA FEW005 SCT008 BKN010 09/08 Q1000=
200911221820 METAR ESMX 221820Z 22008KT 5000 -RA FEW006 BKN010 09/08 Q1000=
200911221750 METAR ESMX 221750Z 22009KT 9999 FEW011 BKN015 BKN040 09/08 Q1000=
200911221720 METAR ESMX 221720Z 24009KT 200V270 9999 -RA FEW009 SCT013 BKN042 09/08 Q1000=
200911221650 METAR ESMX 221650Z 24010KT 200V260 9000 -RA FEW005 SCT007 BKN010 09/08 Q1001=
200911221620 METAR ESMX 221620Z 20010KT 8000 -RA BR SCT004 OVC006 09/08 Q1000=
200911221550 METAR ESMX 221550Z 19011KT 7000 -RA BR BKN004 OVC006 09/08 Q1000=
200911221520 METAR ESMX 221520Z 18011KT 5000 -RA BR OVC004 09/08 Q1001=
200911221450 METAR ESMX 221450Z 17012KT 120V190 5000 -RA BR OVC003 09/08 Q1001=
200911221420 METAR ESMX 221420Z 16012KT 5000 -RA BR FEW005 SCT006 BKN008 09/08 Q1001=
200911221350 METAR ESMX 221350Z 17010KT 140V210 6000 -RA BR FEW004 SCT006 BKN008 09/08 Q1001=
200911221320 METAR ESMX 221320Z 17008KT 5000 -RA BR FEW005 SCT034 BKN056 09/08 Q1002 REDZ=
200911221250 METAR ESMX 221250Z AUTO 17008KT 140V210 6000NDV DZ FEW007/// SCT046/// BKN056/// 09/08 Q1003=
200911221220 METAR ESMX 221220Z AUTO 16009KT 120V190 5000NDV DZ FEW005/// SCT059/// 09/08 Q1003=
200911221150 METAR ESMX 221150Z AUTO 17008KT 4600NDV -RA BKN002/// OVC005/// 09/08 Q1004=
200911221120 METAR ESMX 221120Z AUTO 16009KT 110V190 3800NDV -DZ OVC002/// 08/08 Q1005=
200911221050 METAR ESMX 221050Z AUTO 17008KT 140V210 4200NDV DZ OVC002/// 08/07 Q1006=
200911221020 METAR ESMX 221020Z AUTO 16009KT 130V200 4000NDV DZ OVC002/// 08/07 Q1006=
200911220950 METAR ESMX 220950Z AUTO 16008KT 3600NDV DZ OVC001/// 08/07 Q1006=
200911220920 METAR ESMX 220920Z AUTO 16008KT 2200NDV +DZ OVC001/// 08/07 Q1007=
200911220850 METAR ESMX 220850Z AUTO 16008KT 130V190 2400NDV BR OVC001/// 08/07 Q1007=
200911220820 METAR ESMX 220820Z AUTO 17008KT 150V210 2400NDV BR OVC001/// 08/07 Q1007=
200911220750 METAR ESMX 220750Z AUTO 16008KT 120V190 3100NDV -RA OVC002/// 08/07 Q1008 REDZ=
200911220720 METAR ESMX 220720Z AUTO 17009KT 140V210 3400NDV DZ OVC001/// 08/07 Q1008=
200911220650 METAR ESMX 220650Z AUTO 16008KT 120V190 1500NDV DZ OVC001/// 07/07 Q1009=
200911220620 METAR ESMX 220620Z AUTO 17007KT 130V210 1500NDV BR OVC001/// 07/07 Q1009=
200911220550 METAR ESMX 220550Z AUTO 16008KT 130V200 1400NDV R01/P2000N R19/P2000N BR OVC001/// 07/07 Q1010=
200911220520 METAR ESMX 220520Z AUTO 17007KT 130V210 1300NDV R01/P2000N R19/P2000N BR OVC001/// 07/06 Q1010=
200911220450 METAR ESMX 220450Z AUTO 16006KT 110V200 1300NDV R01/P2000N R19/P2000N BR OVC001/// 06/06 Q1011=
200911220420 METAR ESMX 220420Z AUTO 16007KT 120V200 1500NDV BR OVC001/// 06/06 Q1011=
200911220350 METAR ESMX 220350Z AUTO 16006KT 130V200 6000NDV BR OVC002/// 06/05 Q1012=
200911220320 METAR ESMX 220320Z AUTO 16005KT 110V180 5000NDV BR OVC002/// 05/05 Q1012=
200911220250 METAR ESMX 220250Z AUTO 15004KT 4300NDV BR OVC001/// 05/05 Q1013=
200911220220 METAR ESMX 220220Z AUTO 16004KT 110V190 2500NDV BR OVC001/// 05/04 Q1014=
200911220150 METAR ESMX 220150Z AUTO 17005KT 3200NDV BR OVC001/// 05/04 Q1015=
200911220120 METAR ESMX 220120Z AUTO 17006KT 8000NDV BR BKN002/// OVC005/// 05/04 Q1016=
200911220050 METAR ESMX 220050Z AUTO 18009KT 4300NDV BR BKN001/// OVC004/// 05/04 Q1016=
200911220020 METAR ESMX 220020Z AUTO 18007KT 9999NDV OVC005/// 06/05 Q1016=
200911212350 METAR ESMX 212350Z AUTO 16004KT 120V190 9999NDV FEW008/// BKN010/// 06/04 Q1017=
200911212320 METAR ESMX 212320Z AUTO 16004KT 9999NDV BKN011/// 06/04 Q1017=
200911212250 METAR ESMX 212250Z AUTO 18005KT 9999NDV FEW006/// OVC011/// 06/05 Q1017=
200911212220 METAR ESMX 212220Z AUTO 19006KT 9999NDV FEW006/// SCT008/// OVC011/// 06/05 Q1018=
200911212150 METAR ESMX 212150Z AUTO 18006KT 9000NDV FEW009/// OVC015/// 06/05 Q1018=
200911212120 METAR ESMX 212120Z AUTO 20005KT 9999NDV OVC017/// 07/05 Q1018=
200911212050 METAR ESMX 212050Z AUTO 21006KT 9999NDV FEW007/// OVC020/// 07/05 Q1018=
200911212020 METAR ESMX 212020Z AUTO 22006KT 9999NDV OVC020/// 07/05 Q1018=
200911211950 METAR ESMX 211950Z AUTO 21006KT 9999NDV FEW018/// BKN022/// 07/05 Q1018=
200911211920 METAR ESMX 211920Z AUTO 23004KT 200V260 9999NDV FEW017/// OVC020/// 08/05 Q1018=
200911211850 METAR ESMX 211850Z AUTO 24004KT 9999NDV FEW014/// OVC018/// 08/05 Q1018=
200911211820 METAR ESMX 211820Z AUTO 24006KT 200V280 9999NDV OVC016/// 08/05 Q1019=
200911211750 METAR ESMX 211750Z AUTO 27008KT 230V310 9999NDV OVC016/// 08/05 Q1019=
200911211720 METAR ESMX 211720Z AUTO 24005KT 210V280 9999NDV BKN018/// 08/05 Q1018=
200911211650 METAR ESMX 211650Z AUTO 25007KT 200V280 9999NDV OVC019/// 08/05 Q1019=
200911211620 METAR ESMX 211620Z AUTO 25007KT 220V280 9999NDV OVC019/// 08/05 Q1019=
200911211550 METAR ESMX 211550Z AUTO 25006KT 210V290 9999NDV OVC019/// 08/05 Q1019=
200911211520 METAR ESMX 211520Z AUTO 26006KT 9999NDV OVC019/// 08/04 Q1018=
200911211450 METAR ESMX 211450Z AUTO 26009KT 230V290 9999NDV FEW017/// OVC020/// 08/04 Q1019=
200911211420 METAR ESMX 211420Z 26010KT 210V290 9999 BKN019 08/04 Q1019=
200911211350 METAR ESMX 211350Z 25010KT 210V290 9999 BKN020 09/05 Q1018=
200911211320 METAR ESMX 211320Z 26009KT 230V290 9999 FEW018 BKN020 09/05 Q1018=
200911211250 METAR ESMX 211250Z 26011KT 230V300 9999 FEW018 BKN020 09/05 Q1019=
200911211220 METAR ESMX 211220Z 26013KT 200V290 9999 FEW018 OVC022 09/05 Q1018=
200911211150 METAR ESMX 211150Z 26012KT 9999 FEW018 BKN020 09/06 Q1018=
200911211120 METAR ESMX 211120Z 26011KT 220V290 9999 FEW019 BKN022 09/06 Q1018=
200911211050 METAR ESMX 211050Z 25012KT 220V280 9999 BKN021 09/06 Q1018=
200911211020 METAR ESMX 211020Z 25010KT 210V280 9999 FEW018 BKN025 09/06 Q1018=
200911210950 METAR ESMX 210950Z 24014KT 210V270 9999 FEW019 BKN025 09/06 Q1018=
200911210920 METAR ESMX 210920Z 26013KT 230V320 9999 FEW016 BKN028 09/06 Q1017=
200911210850 METAR ESMX 210850Z 26011KT 230V290 9999 FEW015 SCT019 BKN030 09/06 Q1017=
200911210820 METAR ESMX 210820Z 25011KT 210V290 9999 SCT017 BKN032 09/06 Q1016=
200911210750 METAR ESMX 210750Z 26011KT 230V290 9999 FEW015 SCT017 BKN020 09/06 Q1016=
200911210720 METAR ESMX 210720Z 26012KT 230V300 9999 FEW014 BKN016 09/06 Q1016=
200911210650 METAR ESMX 210650Z AUTO 26012KT 9999NDV BKN014/// BKN021/// 09/06 Q1015=
200911210620 METAR ESMX 210620Z AUTO 26011KT 9999NDV BKN014/// BKN021/// 09/06 Q1015=
200911210550 METAR ESMX 210550Z AUTO 25010KT 210V280 9999NDV FEW013/// SCT016/// BKN019/// 09/06 Q1014=
200911210520 METAR ESMX 210520Z AUTO 25010KT 220V290 9999NDV FEW014/// SCT043/// 09/07 Q1014=
200911210450 METAR ESMX 210450Z AUTO 26013KT 210V290 9999NDV FEW016/// 09/07 Q1014=
200911210420 METAR ESMX 210420Z AUTO 26012KT 230V290 9999NDV FEW016/// SCT053/// 10/07 Q1013=
200911210350 METAR ESMX 210350Z AUTO 26012KT 210V300 9999NDV FEW015/// SCT019/// BKN025/// 10/08 Q1013=
200911210320 METAR ESMX 210320Z AUTO 23011KT 200V280 9999NDV FEW014/// SCT018/// BKN021/// 10/08 Q1012=
200911210250 METAR ESMX 210250Z AUTO 24010KT 190V280 9999NDV FEW014/// SCT016/// BKN021/// 10/08 Q1012=
200911210220 METAR ESMX 210220Z AUTO 25011KT 220V290 9999NDV FEW014/// SCT018/// BKN045/// 10/08 Q1012=
200911210150 METAR ESMX 210150Z AUTO 25010KT 210V290 9999NDV FEW014/// SCT019/// BKN031/// 11/08 Q1012=
200911210120 METAR ESMX 210120Z AUTO 25014KT 220V290 9999NDV FEW015/// SCT017/// BKN020/// 11/08 Q1012=
200911210050 METAR ESMX 210050Z AUTO 24011KT 210V270 9999NDV BKN013/// BKN021/// 11/09 Q1011=
200911210020 METAR ESMX 210020Z AUTO 23010KT 200V260 9999NDV FEW012/// SCT016/// BKN020/// 11/09 Q1011=
200911202350 METAR ESMX 202350Z AUTO 23010KT 200V260 9999NDV FEW010/// SCT013/// BKN016/// 11/09 Q1011=
200911202320 METAR ESMX 202320Z AUTO 25011KT 210V270 9000NDV BR FEW006/// SCT008/// BKN009/// 11/10 Q1011 REDZ=
200911202250 METAR ESMX 202250Z AUTO 24010KT 7000NDV BR BKN003/// OVC006/// 10/10 Q1011=
200911202220 METAR ESMX 202220Z AUTO 23010KT 6000NDV BR OVC003/// 10/09 Q1010=
200911202150 METAR ESMX 202150Z AUTO 23012KT 210V280 7000NDV BR OVC005/// 10/09 Q1010=
200911202120 METAR ESMX 202120Z AUTO 23011KT 9999NDV OVC006/// 10/09 Q1010=
200911202050 METAR ESMX 202050Z 22012KT 9999 OVC006 10/08 Q1010=
200911202020 METAR ESMX 202020Z 23011KT 190V260 9999 OVC008 09/08 Q1010=
200911201950 METAR ESMX 201950Z 21012KT 9999 OVC010 09/07 Q1010=
200911201920 METAR ESMX 201920Z 23012KT 9999 OVC013 09/07 Q1010=
200911201850 METAR ESMX 201850Z 21010KT 160V240 9999 BKN015 09/07 Q1010=
200911201820 METAR ESMX 201820Z 21010KT 9999 SCT017 09/06 Q1010=
200911201750 METAR ESMX 201750Z 21011KT CAVOK 09/06 Q1010=
200911201720 METAR ESMX 201720Z 20010KT CAVOK 09/06 Q1010=
200911201650 METAR ESMX 201650Z 19010KT CAVOK 09/06 Q1010=
200911201620 METAR ESMX 201620Z 19010KT CAVOK 09/06 Q1010=
200911201550 METAR ESMX 201550Z 18010KT CAVOK 09/06 Q1010=
200911201520 METAR ESMX 201520Z 19010KT CAVOK 09/06 Q1010=
200911201450 METAR ESMX 201450Z 18009KT CAVOK 09/06 Q1010=
200911201420 METAR ESMX 201420Z 19010KT CAVOK 10/06 Q1010=
200911201350 METAR ESMX 201350Z 19011KT CAVOK 10/06 Q1010=
200911201250 METAR ESMX 201250Z 19010KT CAVOK 10/06 Q1011=
200911201220 METAR ESMX 201220Z 19010KT CAVOK 10/06 Q1011=
200911201150 METAR ESMX 201150Z 19008KT CAVOK 10/06 Q1011=
200911201120 METAR ESMX 201120Z 20010KT CAVOK 09/05 Q1011=
200911201050 METAR ESMX 201050Z 19010KT CAVOK 09/05 Q1012=
200911201020 METAR ESMX 201020Z 20012KT CAVOK 08/05 Q1012=
200911200950 METAR ESMX 200950Z 21011KT CAVOK 08/05 Q1012=
200911200850 METAR ESMX 200850Z 22009KT 9999 FEW013 07/05 Q1012=
200911200820 METAR ESMX 200820Z 22008KT 190V250 9999 FEW012 07/05 Q1012=
200911200750 METAR ESMX 200750Z 22011KT 9999 SCT011 BKN200 07/05 Q1012=
200911200720 METAR ESMX 200720Z 22011KT 9999 OVC010 08/06 Q1012=
200911200650 METAR ESMX 200650Z 22009KT 9999 OVC010 08/06 Q1011=
200911200620 METAR ESMX 200620Z 23009KT 170V280 9999 OVC012 08/06 Q1011=
200911200550 METAR ESMX 200550Z 23008KT 200V270 9999 OVC013 08/05 Q1011=
200911200520 METAR ESMX 200520Z 21008KT 190V250 9999 OVC013 08/05 Q1011=
200911200450 METAR ESMX 200450Z 23009KT 180V260 9999 OVC014 08/05 Q1011=
200911200420 METAR ESMX 200420Z AUTO 23009KT 210V270 9999NDV OVC014/// 08/06 Q1011=
200911200350 METAR ESMX 200350Z AUTO 23009KT 200V270 9999NDV OVC014/// 08/06 Q1011=
200911200320 METAR ESMX 200320Z AUTO 24010KT 200V260 9999NDV OVC014/// 08/06 Q1011=
200911200250 METAR ESMX 200250Z AUTO 21010KT 9999NDV OVC016/// 08/06 Q1011=
200911200220 METAR ESMX 200220Z AUTO 21011KT 9999NDV OVC016/// 08/06 Q1011=
200911200150 METAR ESMX 200150Z AUTO 23011KT 200V260 9999NDV BKN013/// OVC018/// 08/06 Q1011=
200911200120 METAR ESMX 200120Z AUTO 23012KT 9999NDV OVC013/// 09/06 Q1011=
200911200050 METAR ESMX 200050Z AUTO 22011KT 9999NDV OVC012/// 09/07 Q1011=
200911200020 METAR ESMX 200020Z 23011KT 9999 FEW013 BKN015 OVC024 09/06 Q1011=
200911192350 METAR ESMX 192350Z 22012KT 190V250 9999 BKN012 OVC018 09/07 Q1011=
200911192320 METAR ESMX 192320Z 21013G23KT 170V240 9999 OVC011 09/07 Q1011=
200911192250 METAR ESMX 192250Z 21012KT 190V250 9999 FEW010 BKN013 OVC017 10/08 Q1010=
200911192220 METAR ESMX 192220Z 23010KT 9999 OVC011 10/08 Q1010=
200911192150 METAR ESMX 192150Z 23011KT 9999 FEW009 OVC010 10/08 Q1010=
200911192120 METAR ESMX 192120Z 22011KT 180V250 9999 BR FEW007 OVC009 10/09 Q1010=
200911192050 METAR ESMX 192050Z 22010KT 9000 BR BKN006 OVC010 10/09 Q1010=
200911192020 METAR ESMX 192020Z 23010KT 200V260 7000 BR OVC006 10/09 Q1010=
200911191950 METAR ESMX 191950Z 22010KT 7000 BR OVC006 10/09 Q1010=
200911191920 METAR ESMX 191920Z 22009KT 190V250 8000 BR OVC007 10/09 Q1010=
200911191850 METAR ESMX 191850Z 24009KT 200V270 8000 BR FEW007 BKN009 10/09 Q1010=
200911191820 METAR ESMX 191820Z 24009KT 210V280 7000 BR FEW007 BKN008 OVC011 10/09 Q1010=
200911191750 METAR ESMX 191750Z 23010KT 200V260 6000 BR FEW006 OVC008 10/09 Q1010=
200911191720 METAR ESMX 191720Z 24009KT 7000 BR FEW006 OVC008 10/09 Q1009=
200911191650 METAR ESMX 191650Z 23010KT 8000 -DZ FEW006 OVC008 10/09 Q1009=
200911191620 METAR ESMX 191620Z 22010KT 160V250 5000 -RA BKN005 OVC008 10/10 Q1009=
200911191550 METAR ESMX 191550Z 24011KT 8000 -DZ OVC005 10/09 Q1009=
200911191520 METAR ESMX 191520Z 22008KT 200V270 9999 -RA FEW005 BKN007 OVC010 10/09 Q1009=
200911191450 METAR ESMX 191450Z 23008KT 200V270 4700 -RA FEW003 SCT006 OVC007 10/09 Q1009 REDZ=
200911191420 METAR ESMX 191420Z 21008KT 180V240 2200 -DZ FEW003 OVC004 10/09 Q1009=
200911191350 METAR ESMX 191350Z 21008KT 2400 BR OVC003 09/09 Q1009=
200911191320 METAR ESMX 191320Z 20008KT 170V240 5000 BR BKN002 OVC005 09/08 Q1009=
200911191250 METAR ESMX 191250Z 19008KT 8000 BR OVC002 08/08 Q1008=
200911191220 METAR ESMX 191220Z 18007KT 3500 BR BKN002 OVC004 08/07 Q1009=
200911191150 METAR ESMX 191150Z 18006KT 9999 BR OVC003 07/07 Q1008=
200911191120 METAR ESMX 191120Z 18007KT 4500 BR FEW004 SCT006 BKN010 07/06 Q1008 REDZ=
200911191050 METAR ESMX 191050Z 19006KT 8000 BR FEW006 SCT009 BKN012 07/06 Q1009=
200911191020 METAR ESMX 191020Z 20007KT 6000 BR FEW007 SCT010 BKN015 07/06 Q1009=
200911190950 METAR ESMX 190950Z 22007KT 9999 FEW007 BKN010 07/06 Q1009=
200911190920 METAR ESMX 190920Z 20008KT 9999 FEW008 SCT009 BKN011 07/06 Q1008=
200911190850 METAR ESMX 190850Z 23006KT 9999 DZ FEW009 BKN014 07/06 Q1009=
200911190820 METAR ESMX 190820Z 23006KT 9999 -RA FEW009 BKN015 07/06 Q1008=
200911190750 METAR ESMX 190750Z 23008KT 9999 FEW009 BKN015 07/06 Q1008=
200911190720 METAR ESMX 190720Z 23006KT 9999 FEW010 SCT013 BKN016 07/06 Q1007=
200911190650 METAR ESMX 190650Z 22006KT 190V250 9999 FEW008 BKN012 07/06 Q1007=
200911190620 METAR ESMX 190620Z 26007KT 9999 FEW008 BKN010 07/05 Q1007=
200911190550 METAR ESMX 190550Z 26007KT 9999 BKN007 06/05 Q1007=
200911190520 METAR ESMX 190520Z 26007KT 9999 BKN008 06/05 Q1007=
200911190450 METAR ESMX 190450Z 26007KT 9999 FEW008 BKN010 05/04 Q1006=
200911190420 METAR ESMX 190420Z AUTO 28007KT 9999NDV FEW009/// BKN011/// 05/04 Q1006=
200911190350 METAR ESMX 190350Z AUTO 28009KT 9999NDV BKN012/// 05/04 Q1005=
200911190320 METAR ESMX 190320Z AUTO 28010KT 9999NDV FEW013/// SCT016/// 05/03 Q1005=
200911190250 METAR ESMX 190250Z AUTO 27011KT 250V320 9999NDV BKN014/// 06/03 Q1004=
200911190220 METAR ESMX 190220Z AUTO 27010KT 9999NDV FEW016/// SCT024/// 06/04 Q1004=
200911190150 METAR ESMX 190150Z AUTO 28012KT 250V320 9999NDV FEW014/// SCT017/// BKN020/// 06/04 Q1003=
200911190120 METAR ESMX 190120Z AUTO 28013KT 260V320 9999NDV BKN014/// OVC020/// 06/04 Q1003=
200911190050 METAR ESMX 190050Z AUTO 29016KT 260V320 9999NDV FEW013/// BKN016/// OVC020/// 06/04 Q1001=
200911190020 METAR ESMX 190020Z 28013KT 240V320 9999 FEW012 BKN015 OVC019 07/05 Q1000=
200911182350 METAR ESMX 182350Z 29013KT 9999 FEW013 BKN017 OVC022 07/05 Q0999=
200911182320 METAR ESMX 182320Z 29014G24KT 9999 FEW012 BKN015 OVC019 07/05 Q0997=
200911182250 METAR ESMX 182250Z 30015KT 9999 FEW013 BKN015 OVC020 07/05 Q0996=
200911182220 METAR ESMX 182220Z 30016G26KT 9999 FEW008 BKN011 OVC015 07/05 Q0994=
200911182150 METAR ESMX 182150Z 29014KT 250V330 8000 BR FEW007 SCT009 OVC011 07/05 Q0993=
200911182120 METAR ESMX 182120Z 29011KT 240V320 9999 FEW008 BKN012 06/05 Q0991=
200911182050 METAR ESMX 182050Z 30011KT 9999 FEW008 SCT009 BKN011 06/05 Q0990=
200911182020 METAR ESMX 182020Z 29012KT 260V330 9999 FEW006 SCT009 BKN011 06/05 Q0988 REDZ=
200911181950 METAR ESMX 181950Z 25008KT 5000 -DZ FEW007 SCT009 BKN011 06/05 Q0986=
200911181920 METAR ESMX 181920Z 18010KT 9000 -RA FEW007 SCT010 BKN014 06/05 Q0985 REDZ=
200911181850 METAR ESMX 181850Z 20013KT 170V240 6000 -RA FEW010 SCT015 BKN019 06/05 Q0985 RESHRA=
200911181820 METAR ESMX 181820Z 20014KT 9999 RA FEW015 SCT017 BKN021 06/05 Q0986=
200911181750 METAR ESMX 181750Z 20016KT 9999 RA FEW008 SCT019 BKN024 07/05 Q0987=
200911181720 METAR ESMX 181720Z 19019KT 5000 RA FEW007 SCT009 BKN012 07/06 Q0987=
200911181650 METAR ESMX 181650Z 16014KT 120V190 9000 RA FEW009 SCT011 BKN014 07/05 Q0988=
200911181620 METAR ESMX 181620Z 17017KT 140V210 8000 RA FEW011 SCT014 BKN016 07/05 Q0990=
200911181550 METAR ESMX 181550Z 17018KT 7000 RA FEW009 SCT015 BKN020 07/06 Q0992=
200911181520 METAR ESMX 181520Z 17017KT 8000 RA FEW009 SCT012 BKN015 07/06 Q0993=
200911181450 METAR ESMX 181450Z 17015KT 8000 RA FEW009 SCT013 BKN016 07/06 Q0995=
200911181420 METAR ESMX 181420Z 17018KT 9000 RA FEW009 SCT012 BKN014 08/06 Q0996=
200911181350 METAR ESMX 181350Z 17016KT 8000 -RA FEW009 BKN012 OVC016 08/06 Q0997=
200911181320 METAR ESMX 181320Z 18015KT 8000 -RA FEW008 SCT011 BKN015 08/07 Q0998=
200911181250 METAR ESMX 181250Z 19015KT 9999 -RA FEW009 SCT012 BKN015 08/07 Q0999=
200911181220 METAR ESMX 181220Z 19016KT 9999 DZ FEW008 SCT010 BKN015 08/07 Q0999=
200911181150 METAR ESMX 181150Z 19017KT 9999 -RA FEW007 SCT010 BKN015 08/07 Q1000=
200911181120 METAR ESMX 181120Z 19015KT 9999 FEW007 SCT009 BKN011 08/07 Q1001=
200911181050 METAR ESMX 181050Z 19015KT 9000 DZ BKN008 OVC012 08/07 Q1001=
200911181020 METAR ESMX 181020Z 20014KT 9999 SCT007 BKN008 08/07 Q1002 RERA=
200911180950 METAR ESMX 180950Z 19009KT 8000 -RA FEW006 SCT009 BKN011 08/07 Q1002=
200911180920 METAR ESMX 180920Z 20011KT 6000 -RA FEW006 SCT009 BKN016 08/07 Q1003=
200911180850 METAR ESMX 180850Z 19014KT 9999 DZ FEW007 SCT009 BKN011 08/07 Q1003=
200911180820 METAR ESMX 180820Z 19014KT 9999 -RA FEW008 BKN012 OVC017 08/06 Q1003=
200911180750 METAR ESMX 180750Z 20016KT 9999 -RA SCT008 BKN012 08/06 Q1003=
200911180720 METAR ESMX 180720Z 20014KT 9999 FEW009 BKN012 08/06 Q1003=
200911180650 METAR ESMX 180650Z 21014KT 9999 -DZ BKN011 08/06 Q1003=
200911180620 METAR ESMX 180620Z 22012KT 9999 BKN010 OVC016 08/06 Q1004=
200911180550 METAR ESMX 180550Z 19010KT 9999 SCT010 BKN014 OVC020 07/06 Q1003=
200911180520 METAR ESMX 180520Z 20010KT 9999 FEW015 SCT021 BKN027 07/06 Q1004=
200911180450 METAR ESMX 180450Z 21010KT 9999 SCT010 BKN017 BKN036 07/06 Q1004=
200911180420 METAR ESMX 180420Z AUTO 20009KT 9999NDV FEW009/// SCT012/// BKN019/// 07/06 Q1004=
200911180350 METAR ESMX 180350Z AUTO 22009KT 9999NDV FEW007/// BKN010/// BKN015/// 07/06 Q1004=
200911180320 METAR ESMX 180320Z AUTO 20008KT 7000NDV -DZ FEW009/// SCT011/// BKN017/// 07/06 Q1004=
200911180250 METAR ESMX 180250Z AUTO 20006KT 9999NDV FEW014/// SCT018/// BKN024/// 06/05 Q1004=
200911180220 METAR ESMX 180220Z AUTO 22007KT 9999NDV FEW012/// BKN017/// BKN030/// 07/05 Q1004=
200911180150 METAR ESMX 180150Z AUTO 21007KT 9999NDV FEW013/// SCT017/// BKN020/// 07/06 Q1004=
200911180120 METAR ESMX 180120Z AUTO 21008KT 9999NDV FEW010/// SCT013/// BKN017/// 07/06 Q1004=
200911180050 METAR ESMX 180050Z 22010KT 9999 FEW009 SCT013 BKN016 07/06 Q1003=
200911180020 METAR ESMX 180020Z 20009KT 9999 FEW006 BKN012 OVC020 07/06 Q1003=
200911172350 METAR ESMX 172350Z 20010KT 9999 BR FEW007 BKN010 OVC015 07/07 Q1003=
200911172320 METAR ESMX 172320Z 19009KT 8000 BR FEW017 BKN020 OVC031 07/06 Q1003=
200911172220 METAR ESMX 172220Z 20008KT 7000 BR FEW006 SCT008 BKN010 07/06 Q1003=
200911172150 METAR ESMX 172150Z 19008KT 5000 BR FEW005 SCT006 BKN008 07/06 Q1003=
200911172120 METAR ESMX 172120Z 18008KT 5000 -RA BR FEW006 SCT008 BKN010 07/06 Q1003=
200911172050 METAR ESMX 172050Z 19008KT 6000 -RA BR FEW005 BKN006 OVC009 07/06 Q1003=
200911172020 METAR ESMX 172020Z 20008KT 7000 BR FEW005 SCT007 BKN009 07/06 Q1003=
200911171950 METAR ESMX 171950Z 19010KT 5000 -RA FEW007 SCT008 OVC010 07/06 Q1003=
200911171920 METAR ESMX 171920Z 18007KT 8000 BR FEW008 SCT015 BKN022 07/06 Q1003 RERA=
200911171850 METAR ESMX 171850Z 18006KT 9000 BR FEW008 SCT012 BKN014 07/06 Q1003=
200911171820 METAR ESMX 171820Z 18008KT 9000 BR FEW009 SCT013 BKN015 07/06 Q1003=
200911171750 METAR ESMX 171750Z 19008KT 9999 BR FEW013 BKN020 OVC025 07/06 Q1003=
200911171720 METAR ESMX 171720Z 19006KT 8000 BR FEW006 SCT022 BKN033 07/07 Q1003=
200911171650 METAR ESMX 171650Z 18006KT 7000 BR FEW006 SCT015 BKN028 07/07 Q1003=
200911171620 METAR ESMX 171620Z 19006KT 160V220 6000 BR SCT005 BKN013 OVC041 08/07 Q1003=
200911171550 METAR ESMX 171550Z 17005KT 7000 BR BKN030 08/07 Q1003=
200911171520 METAR ESMX 171520Z 20006KT 9000 BR SCT010 BKN030 08/07 Q1003=
200911171450 METAR ESMX 171450Z 20006KT 8000 BR FEW011 BKN020 BKN032 08/07 Q1003=
200911171420 METAR ESMX 171420Z 20007KT 6000 BR FEW005 SCT006 BKN008 08/07 Q1003=
200911171350 METAR ESMX 171350Z 21008KT 6000 BR SCT005 BKN008 OVC011 08/07 Q1003=
200911171320 METAR ESMX 171320Z 20008KT 8000 BR FEW004 SCT006 BKN009 09/08 Q1003=
200911171250 METAR ESMX 171250Z 21007KT 8000 BR FEW004 BKN006 OVC007 09/08 Q1003=
200911171220 METAR ESMX 171220Z 20007KT 8000 BR FEW004 BKN006 OVC008 09/08 Q1003=
200911171150 METAR ESMX 171150Z 21008KT 7000 BR FEW003 OVC005 08/08 Q1003=
200911171120 METAR ESMX 171120Z 20008KT 7000 BR FEW003 SCT004 OVC006 08/08 Q1003=
200911171050 METAR ESMX 171050Z 19007KT 8000 BR SCT002 BKN005 08/08 Q1003 REDZ=
200911171020 METAR ESMX 171020Z 19007KT 2000 BR FEW002 OVC004 08/07 Q1004=
200911170950 METAR ESMX 170950Z 17006KT 140V220 1500 BR FEW002 OVC003 07/07 Q1004=
200911170920 METAR ESMX 170920Z 17005KT 3000 BR FEW002 OVC003 07/06 Q1004=
200911170850 METAR ESMX 170850Z 17005KT 5000 BR BKN002 OVC004 07/06 Q1004=
200911170820 METAR ESMX 170820Z 17005KT 140V210 7000 BR BKN002 OVC004 07/06 Q1004=
200911170750 METAR ESMX 170750Z 17004KT 5000 BR FEW002 OVC003 06/06 Q1004=
200911170720 METAR ESMX 170720Z 15005KT 120V180 7000 -DZ FEW002 OVC004 06/06 Q1004=
200911170650 METAR ESMX 170650Z 16005KT 130V190 8000 -DZ FEW002 OVC005 06/06 Q1004=
200911170620 METAR ESMX 170620Z 15006KT 120V210 5000 -RA FEW003 OVC005 06/06 Q1004=
200911170550 METAR ESMX 170550Z 14006KT 100V180 8000 -RA FEW004 OVC007 06/06 Q1003=
200911170520 METAR ESMX 170520Z 14005KT 100V170 8000 -RA BKN004 OVC007 06/06 Q1004=
200911170450 METAR ESMX 170450Z 15005KT 100V200 9000 -RA OVC003 06/06 Q1004=
200911170420 METAR ESMX 170420Z AUTO 14006KT 100V180 7000NDV -RA OVC004/// 06/06 Q1004=
200911170350 METAR ESMX 170350Z AUTO 14006KT 100V170 7000NDV DZ OVC003/// 06/06 Q1004=
200911170320 METAR ESMX 170320Z AUTO 14007KT 100V170 5000NDV -RA OVC003/// 06/06 Q1004=
200911170250 METAR ESMX 170250Z AUTO 15006KT 110V200 4600NDV -RA OVC003/// 06/06 Q1005 REDZ=
200911170220 METAR ESMX 170220Z AUTO 14007KT 100V170 8000NDV -DZ OVC005/// 07/06 Q1005=
200911170150 METAR ESMX 170150Z AUTO 16009KT 110V210 9999NDV FEW004/// BKN005/// OVC007/// 07/06 Q1005=
200911170120 METAR ESMX 170120Z AUTO 16007KT 130V200 5000NDV BR OVC004/// 07/06 Q1006=
200911170050 METAR ESMX 170050Z 15006KT 8000 BR FEW005 BKN006 07/06 Q1006=
200911170020 METAR ESMX 170020Z 13004KT 070V170 6000 BR BKN005 OVC009 07/06 Q1006=
200911162350 METAR ESMX 162350Z 13004KT 080V180 8000 BR SCT005 BKN007 07/06 Q1006=
200911162320 METAR ESMX 162320Z 14005KT 080V180 8000 BR SCT004 BKN006 07/06 Q1007=
200911162250 METAR ESMX 162250Z 14004KT 090V210 6000 BR FEW002 BKN004 07/06 Q1007=
200911162220 METAR ESMX 162220Z 12004KT 070V160 3100 BR OVC003 07/06 Q1007=
200911162150 METAR ESMX 162150Z 14004KT 100V170 8000 BR FEW004 OVC005 07/07 Q1008=
200911162120 METAR ESMX 162120Z 15004KT 120V190 9000 BR FEW002 SCT006 BKN010 07/07 Q1008=
200911162050 METAR ESMX 162050Z 16006KT 130V190 1600 -RA BR OVC001 07/07 Q1008=
200911162020 METAR ESMX 162020Z 15004KT 110V190 0900 R19/P2000N FG VV002 07/07 Q1008=
200911161950 METAR ESMX 161950Z 14004KT 070V210 0750 R19/P2000N FG VV002 07/07 Q1008=
200911161920 METAR ESMX 161920Z 13003KT 060V190 0800 R19/P2000N FG VV002 07/06 Q1008=
200911161850 METAR ESMX 161850Z 15004KT 110V170 1900 BR OVC001 07/06 Q1009=
200911161820 METAR ESMX 161820Z 15004KT 110V180 2000 BR BKN002 07/06 Q1009=
200911161750 METAR ESMX 161750Z 15003KT 110V190 9999 SCT005 BKN010 07/06 Q1009=
200911161720 METAR ESMX 161720Z 16003KT 120V200 9999 BR SCT003 BKN006 07/06 Q1009=
200911161650 METAR ESMX 161650Z 14003KT 100V170 3300 BR OVC002 07/06 Q1009=
200911161620 METAR ESMX 161620Z VRB02KT 2700 BR OVC002 07/06 Q1009=
200911161550 METAR ESMX 161550Z VRB02KT 1600 BR OVC002 07/06 Q1009=
200911161520 METAR ESMX 161520Z 13004KT 080V190 2000 BR OVC002 07/06 Q1009=
200911161450 METAR ESMX 161450Z 14003KT 080V190 2000 BR OVC003 07/06 Q1009=
200911161420 METAR ESMX 161420Z 14003KT 080V230 2700 BR FEW002 OVC004 07/06 Q1010=
200911161350 METAR ESMX 161350Z VRB02KT 2100 BR FEW002 SCT004 BKN006 07/06 Q1010=
200911161320 METAR ESMX 161320Z 10003KT 030V170 3000 BR BKN002 OVC006 07/06 Q1010=
200911161250 METAR ESMX 161250Z VRB02KT 5000 BR OVC004 07/06 Q1010=
200911161220 METAR ESMX 161220Z VRB02KT 6000 BR FEW002 OVC004 07/06 Q1010=
200911161150 METAR ESMX 161150Z 06003KT 030V100 8000 BR FEW002 OVC004 07/06 Q1010=
200911161120 METAR ESMX 161120Z VRB02KT 9000 BR FEW002 OVC004 07/06 Q1010=
200911161050 METAR ESMX 161050Z 10003KT 070V150 9000 BR OVC002 07/06 Q1011=
200911161020 METAR ESMX 161020Z VRB02KT 9000 BR OVC002 07/06 Q1011=
200911160950 METAR ESMX 160950Z 10003KT 060V140 6000 BR BKN003 OVC005 06/06 Q1011=
200911160920 METAR ESMX 160920Z 09003KT 050V160 8000 BR SCT003 BKN005 06/06 Q1010=
200911160850 METAR ESMX 160850Z VRB02KT 6000 BR SCT003 BKN004 06/06 Q1011=
200911160820 METAR ESMX 160820Z 16003KT 7000 BR BKN003 OVC006 06/05 Q1010=
200911160750 METAR ESMX 160750Z VRB02KT 9999 OVC005 06/05 Q1010=
200911160720 METAR ESMX 160720Z 17003KT 9999 OVC006 06/06 Q1010=
200911160650 METAR ESMX 160650Z VRB01KT 9999 OVC006 06/05 Q1010=
200911160620 METAR ESMX 160620Z 14003KT 100V180 9999 OVC005 06/06 Q1010=
200911160550 METAR ESMX 160550Z 13003KT 090V170 9999 OVC005 06/06 Q1010=
200911160520 METAR ESMX 160520Z 15003KT 110V190 9000 BR BKN002 OVC005 06/06 Q1010=
200911160450 METAR ESMX 160450Z 16003KT 120V190 8000 BR BKN001 OVC004 06/06 Q1010=
200911160420 METAR ESMX 160420Z AUTO 14004KT 110V180 6000NDV OVC001/// 06/06 Q1010=
200911160350 METAR ESMX 160350Z AUTO 16003KT 120V200 0750NDV R01/P2000N R19/P2000N FG VV001 07/06 Q1010=
200911160320 METAR ESMX 160320Z AUTO VRB02KT 0450NDV R01/1500N R19/P2000D FG VV001 07/06 Q1010=
200911160250 METAR ESMX 160250Z AUTO 14003KT 080V170 1400NDV R01/P2000N R19/P2000N BR VV001 07/06 Q1010=
200911160220 METAR ESMX 160220Z AUTO VRB02KT 4500NDV BR FEW045/// BKN050/// 07/06 Q1010=
200911160150 METAR ESMX 160150Z AUTO VRB01KT 3900NDV -RA FEW001/// SCT027/// BKN034/// 07/06 Q1010=
200911160120 METAR ESMX 160120Z AUTO 15003KT 110V180 4200NDV -RA SCT001/// BKN021/// BKN038/// 07/07 Q1010=
200911160050 METAR ESMX 160050Z 13002KT 3000 R19/P2000N BCFG BR FEW000 BKN035 07/06 Q1010=
200911160020 METAR ESMX 160020Z VRB01KT 4000 BR BKN032 07/07 Q1010=
200911152350 METAR ESMX 152350Z 13002KT 6000 BR FEW003 BKN042 07/07 Q1011=
200911152320 METAR ESMX 152320Z 14003KT 100V170 7000 -RA FEW003 SCT027 BKN034 08/07 Q1011 RERA=
200911152250 METAR ESMX 152250Z 18004KT 140V200 6000 RA FEW002 BKN010 BKN014 08/07 Q1011=
200911152220 METAR ESMX 152220Z VRB02KT 8000 RA FEW001 OVC010 08/07 Q1011=
200911152150 METAR ESMX 152150Z 13003KT 2300 BR SCT002 OVC009 08/07 Q1011=
200911152120 METAR ESMX 152120Z VRB01KT 5000 BR OVC007 08/07 Q1011=
200911152050 METAR ESMX 152050Z 21003KT 8000 BR FEW002 OVC008 08/07 Q1011=
200911152020 METAR ESMX 152020Z 18003KT 4000 BR SCT003 BKN004 08/08 Q1011=
200911151950 METAR ESMX 151950Z 19002KT 4500 -DZ BR FEW002 SCT011 BKN029 08/07 Q1011=
200911151920 METAR ESMX 151920Z 19003KT 6000 BR BKN002 OVC004 08/08 Q1011=
200911151850 METAR ESMX 151850Z VRB02KT 6000 -DZ SCT003 BKN010 08/08 Q1011=
200911151820 METAR ESMX 151820Z 21003KT 5000 -DZ FEW003 SCT008 BKN010 08/08 Q1011=
200911151750 METAR ESMX 151750Z 20003KT 6000 -DZ FEW003 BKN007 08/08 Q1010=
200911151720 METAR ESMX 151720Z 19005KT 5000 BR FEW003 OVC006 08/08 Q1010=
200911151650 METAR ESMX 151650Z 17004KT 140V200 5000 BR FEW002 OVC006 08/08 Q1010=
200911151620 METAR ESMX 151620Z 16004KT 4500 BR FEW002 OVC006 08/08 Q1010=
200911151550 METAR ESMX 151550Z 16004KT 130V200 3800 BR OVC003 08/08 Q1010 REDZ=
200911151520 METAR ESMX 151520Z 15004KT 2400 DZ OVC005 08/08 Q1010=
200911151450 METAR ESMX 151450Z 15004KT 130V190 4200 DZ OVC004 09/08 Q1010=
200911151420 METAR ESMX 151420Z 15004KT 9000 BR OVC006 09/08 Q1010=
200911151350 METAR ESMX 151350Z 15004KT 9999 FEW004 OVC008 09/08 Q1009=
200911151320 METAR ESMX 151320Z 16004KT 130V190 9999 FEW006 OVC008 09/08 Q1009=
200911151250 METAR ESMX 151250Z AUTO 18006KT 140V210 9999NDV SCT006/// OVC008/// 09/08 Q1009=
200911151220 METAR ESMX 151220Z AUTO 14004KT 100V190 9999NDV FEW005/// BKN007/// 09/08 Q1009=
200911151150 METAR ESMX 151150Z AUTO 19008KT 140V210 9000NDV BR OVC005/// 09/08 Q1009=
200911151120 METAR ESMX 151120Z AUTO 18006KT 150V210 9000NDV BR OVC005/// 09/08 Q1009=
200911151050 METAR ESMX 151050Z AUTO 16005KT 120V190 6000NDV BR OVC005/// 09/08 Q1009=
200911151020 METAR ESMX 151020Z AUTO 17005KT 120V190 8000NDV BR FEW004/// OVC006/// 09/08 Q1009=
200911150950 METAR ESMX 150950Z AUTO 17005KT 140V200 5000NDV BR BKN004/// OVC007/// 09/08 Q1009=
200911150920 METAR ESMX 150920Z AUTO 16006KT 120V200 6000NDV BR OVC004/// 09/08 Q1009=
200911150850 METAR ESMX 150850Z AUTO 19007KT 5000NDV BR OVC004/// 09/08 Q1009=
200911150820 METAR ESMX 150820Z AUTO 17006KT 4600NDV BR FEW004/// OVC005/// 08/08 Q1008=
200911150750 METAR ESMX 150750Z AUTO 15005KT 110V170 3600NDV BR FEW003/// SCT005/// OVC007/// 08/08 Q1008=
200911142350 METAR ESMX 142350Z AUTO 15008KT 100V190 2600NDV -RA OVC002/// 09/08 Q1007=
200911142320 METAR ESMX 142320Z AUTO 13007KT 080V160 3200NDV DZ OVC003/// 09/08 Q1007=
200911142250 METAR ESMX 142250Z AUTO 15007KT 110V190 2900NDV -RA OVC003/// 09/08 Q1007 REDZ=
200911142220 METAR ESMX 142220Z AUTO 14007KT 090V180 3700NDV DZ OVC004/// 09/08 Q1007=
200911142150 METAR ESMX 142150Z AUTO 14006KT 100V170 4400NDV BR OVC005/// 09/08 Q1007=
200911142120 METAR ESMX 142120Z AUTO 15008KT 110V190 4700NDV BR OVC005/// 09/08 Q1008=
200911142050 METAR ESMX 142050Z AUTO 15008KT 100V190 4800NDV BR OVC005/// 09/08 Q1008=
200911142020 METAR ESMX 142020Z AUTO 15008KT 110V190 4300NDV BR SCT004/// BKN006/// BKN009/// 09/08 Q1008=
200911141950 METAR ESMX 141950Z AUTO 14009KT 110V170 3400NDV BR OVC003/// 09/08 Q1008=
200911141920 METAR ESMX 141920Z AUTO 14008KT 100V170 3200NDV BR OVC003/// 08/08 Q1008=
200911141850 METAR ESMX 141850Z AUTO 14010KT 110V170 3500NDV BR OVC003/// 08/07 Q1008=
200911141820 METAR ESMX 141820Z AUTO 17008KT 110V200 4600NDV BR BKN004/// 08/07 Q1009=
200911141750 METAR ESMX 141750Z AUTO 14007KT 090V170 3400NDV BR OVC004/// 09/08 Q1008=
200911141720 METAR ESMX 141720Z 14009KT 100V170 4000 BR BKN004 BKN006 09/08 Q1008=
200911141650 METAR ESMX 141650Z 15008KT 110V170 4300 BR FEW004 BKN006 09/08 Q1009=
200911141620 METAR ESMX 141620Z 14008KT 110V190 4400 BR SCT004 OVC006 09/08 Q1009=
200911141550 METAR ESMX 141550Z 14008KT 080V170 5000 BR FEW005 BKN010 09/08 Q1009=
200911141520 METAR ESMX 141520Z 14007KT 110V170 5000 BR FEW006 OVC008 09/08 Q1009=
200911141450 METAR ESMX 141450Z 14007KT 100V170 5000 BR FEW004 OVC008 09/08 Q1009=
200911141420 METAR ESMX 141420Z 14006KT 080V170 5000 BR FEW002 OVC005 09/08 Q1009=
200911141350 METAR ESMX 141350Z 15006KT 110V190 4700 BR BKN003 OVC005 09/08 Q1010=
200911141320 METAR ESMX 141320Z 15006KT 110V180 4000 BR BKN003 OVC005 09/08 Q1010=
200911141250 METAR ESMX 141250Z 15008KT 110V190 4000 BR OVC002 09/08 Q1010=
200911141220 METAR ESMX 141220Z 15006KT 110V190 4000 OVC002 09/08 Q1010=
200911141150 METAR ESMX 141150Z 15008KT 120V190 1600 OVC002 08/08 Q1010=
200911141120 METAR ESMX 141120Z 15006KT 110V190 0650 R01/1100N R19/1400U FG VV002 08/08 Q1010=
200911141050 METAR ESMX 141050Z 15006KT 100V190 0400 R01/0800 R19/1000N FG VV002 08/08 Q1010=
200911141020 METAR ESMX 141020Z 14006KT 100V210 0400 R01/0800 R19/0900N FG VV002 08/07 Q1011=
200911140950 METAR ESMX 140950Z 14006KT 100V180 0400 R01/0800 R19/1000N FG VV002 08/07 Q1011=
200911140920 METAR ESMX 140920Z 15005KT 110V180 0400 R01/0800 R19/0800N FG VV002 08/07 Q1011=
200911140850 METAR ESMX 140850Z 15006KT 110V190 0300 R01/0700N R19/0750 FG VV002 07/07 Q1010=
200911140820 METAR ESMX 140820Z 15006KT 110V170 0300 R01/0650N R19/0750 FG VV002 07/07 Q1010=
200911140750 METAR ESMX 140750Z 16006KT 120V200 0300 R01/0750 R19/0800N FG VV002 07/06 Q1010=
200911140720 METAR ESMX 140720Z 14007KT 110V190 0350 R01/0800N R19/1000N FG VV002 07/06 Q1010=
200911140650 METAR ESMX 140650Z AUTO 15007KT 110V200 0600NDV R01/1200V1900D R19/P2000D FG VV001 07/06 Q1010=
200911140620 METAR ESMX 140620Z AUTO 14007KT 100V180 2000NDV BR OVC001/// 06/06 Q1010=
200911140550 METAR ESMX 140550Z AUTO 15008KT 110V180 9999NDV OVC002/// 06/06 Q1010=
200911140520 METAR ESMX 140520Z AUTO 14007KT 100V190 9999NDV OVC003/// 06/05 Q1010=
200911140450 METAR ESMX 140450Z AUTO 14007KT 080V170 9999NDV OVC004/// 06/05 Q1009 REDZ=
200911140420 METAR ESMX 140420Z AUTO 13008KT 080V170 4700NDV DZ OVC003/// 06/05 Q1009=
200911140350 METAR ESMX 140350Z AUTO 13007KT 080V170 6000NDV DZ OVC004/// 06/05 Q1010=
200911140320 METAR ESMX 140320Z AUTO 14007KT 080V190 9999NDV -DZ OVC003/// 05/05 Q1010=
200911140250 METAR ESMX 140250Z AUTO 13007KT 080V190 4500NDV -RA OVC004/// 05/05 Q1010=
200911140220 METAR ESMX 140220Z AUTO 14008KT 080V190 5000NDV -RA OVC004/// 05/04 Q1010=
200911140150 METAR ESMX 140150Z AUTO 14007KT 090V190 4800NDV -RA OVC004/// 05/04 Q1010=
200911140120 METAR ESMX 140120Z AUTO 13007KT 090V170 9000NDV -RA OVC003/// 05/04 Q1010=
200911140050 METAR ESMX 140050Z AUTO 13006KT 080V190 9000NDV DZ OVC003/// 04/04 Q1010=
200911140020 METAR ESMX 140020Z AUTO 13006KT 080V170 3900NDV DZ OVC003/// 04/03 Q1011=
200911132350 METAR ESMX 132350Z AUTO 14006KT 090V170 6000NDV DZ OVC004/// 04/03 Q1011=
200911132320 METAR ESMX 132320Z AUTO 13006KT 030V180 7000NDV DZ OVC005/// 04/03 Q1011=
200911132250 METAR ESMX 132250Z AUTO 14008KT 080V170 7000NDV DZ OVC005/// 03/03 Q1011=
200911132220 METAR ESMX 132220Z AUTO 14006KT 080V190 9999NDV -RA OVC005/// 03/02 Q1011 REDZ=
200911132150 METAR ESMX 132150Z AUTO 14006KT 050V200 9999NDV DZ OVC005/// 03/02 Q1011=
200911132120 METAR ESMX 132120Z AUTO 13007KT 090V180 6000NDV -RA BKN005/// OVC008/// 03/02 Q1011=
200911132050 METAR ESMX 132050Z 14007KT 070V200 6000 -RA OVC006 02/02 Q1012=
200911132020 METAR ESMX 132020Z 13007KT 070V170 9999 DZ OVC006 02/01 Q1012=
200911131950 METAR ESMX 131950Z 13007KT 080V170 9999 DZ OVC008 02/01 Q1012=
200911131920 METAR ESMX 131920Z 13006KT 080V200 8000 DZ FEW006 OVC010 02/01 Q1012=
200911131850 METAR ESMX 131850Z 12006KT 070V210 8000 -RA FEW006 SCT008 BKN015 01/01 Q1012=
200911131820 METAR ESMX 131820Z 12006KT 050V190 6000 -RASN FEW008 SCT010 BKN015 01/00 Q1012=
200911131750 METAR ESMX 131750Z 12005KT 070V170 8000 DZ FEW009 SCT010 BKN024 02/00 Q1013=
200911131720 METAR ESMX 131720Z 11006KT 060V150 9999 -DZ FEW009 SCT012 BKN019 02/00 Q1013=
200911131650 METAR ESMX 131650Z 12006KT 070V170 9999 -SN FEW010 OVC019 02/M00 Q1013=
200911131620 METAR ESMX 131620Z 12006KT 050V170 9999 -SN OVC020 02/M01 Q1013=
200911131550 METAR ESMX 131550Z 12005KT 060V170 9999 OVC020 02/M02 Q1012=
200911131520 METAR ESMX 131520Z 12005KT 040V170 9999 OVC021 02/M02 Q1013=
200911131450 METAR ESMX 131450Z 11005KT 060V160 9999 OVC022 02/M03 Q1013=
200911131420 METAR ESMX 131420Z 11004KT 030V160 9999 OVC024 02/M03 Q1013=
200911131350 METAR ESMX 131350Z 11005KT 070V150 9999 OVC024 02/M03 Q1013=
200911131320 METAR ESMX 131320Z 11006KT 070V150 9999 -SHSN BKN027 01/M04 Q1013=
200911131250 METAR ESMX 131250Z 11005KT 050V160 9999 BKN027 01/M04 Q1013=
200911131220 METAR ESMX 131220Z 11004KT 020V160 9999 BKN028 01/M04 Q1014=
200911131150 METAR ESMX 131150Z 12004KT 070V170 9999 BKN030 01/M04 Q1014=
200911131120 METAR ESMX 131120Z 12005KT 040V170 9999 BKN031 01/M04 Q1014=
200911131050 METAR ESMX 131050Z 08004KT 020V140 9999 FEW035 BKN150 01/M04 Q1013=
200911131020 METAR ESMX 131020Z 08004KT 020V110 9999 FEW037 01/M04 Q1014=
200911130950 METAR ESMX 130950Z 06004KT 010V120 CAVOK 01/M04 Q1014=
200911130920 METAR ESMX 130920Z 07005KT 040V130 CAVOK 01/M04 Q1014=
200911130850 METAR ESMX 130850Z 08005KT 040V110 CAVOK 00/M04 Q1013=
200911130820 METAR ESMX 130820Z 06006KT 9999 FEW035 00/M04 Q1013=
200911130750 METAR ESMX 130750Z 07005KT 9999 SCT035 M01/M04 Q1013=
200911130720 METAR ESMX 130720Z 07004KT 030V100 9999 SCT035 M01/M04 Q1013=
200911130650 METAR ESMX 130650Z 07005KT 030V110 9999 BKN036 M01/M04 Q1013=
200911130620 METAR ESMX 130620Z 04003KT 360V070 9999 OVC036 M00/M04 Q1013=
200911130550 METAR ESMX 130550Z 04004KT 020V080 9999 OVC036 M00/M04 Q1013=
200911130520 METAR ESMX 130520Z 05005KT 020V100 9999 OVC036 M00/M04 Q1013=
200911130450 METAR ESMX 130450Z 06005KT 030V100 9999 OVC036 M00/M04 Q1013=
200911130420 METAR COR ESMX 130420Z 06004KT 020V110 9999NDV OVC037 00/M03 Q1013=
200911130350 METAR ESMX 130350Z AUTO 06005KT 020V100 9999NDV OVC036/// 00/M03 Q1013=
200911130320 METAR ESMX 130320Z AUTO 04004KT 9999NDV OVC037/// 00/M02 Q1013=
200911130250 METAR ESMX 130250Z AUTO 04004KT 9999NDV OVC037/// 00/M02 Q1013=
200911130220 METAR ESMX 130220Z AUTO 03005KT 9999NDV OVC037/// 00/M02 Q1012=
200911130150 METAR ESMX 130150Z AUTO 04004KT 360V060 9999NDV OVC037/// 00/M02 Q1012=
200911130120 METAR ESMX 130120Z AUTO 04006KT 010V070 9999NDV OVC038/// 00/M02 Q1012=
200911130020 METAR ESMX 130020Z 04005KT 9999 OVC037 01/M02 Q1012=
200911122350 METAR ESMX 122350Z 03005KT 9999 FEW013 OVC038 01/M02 Q1012=
200911122320 METAR ESMX 122320Z 03004KT 350V070 9999 OVC039 01/M01 Q1012=
200911122250 METAR ESMX 122250Z 03004KT 9999 SCT010 BKN014 OVC041 01/M01 Q1012=
200911122220 METAR ESMX 122220Z 03004KT 350V080 9999 FEW010 SCT013 OVC041 01/M01 Q1012=
200911122150 METAR ESMX 122150Z 04005KT 020V100 9999 BKN010 OVC041 01/M01 Q1012=
200911122120 METAR ESMX 122120Z 05005KT 020V090 9999 OVC010 01/M01 Q1012=
200911122050 METAR ESMX 122050Z 06006KT 020V080 9999 OVC010 01/M01 Q1011=
200911122020 METAR ESMX 122020Z 06005KT 030V110 9999 OVC010 02/M00 Q1011=
200911121950 METAR ESMX 121950Z 05006KT 020V080 9999 OVC010 02/M00 Q1011=
200911121920 METAR ESMX 121920Z 05005KT 9999 OVC009 02/M00 Q1011=
200911121850 METAR ESMX 121850Z 04005KT 010V070 9999 OVC010 02/M00 Q1011=
200911121820 METAR ESMX 121820Z 02005KT 9999 OVC011 02/M00 Q1011=
200911121750 METAR ESMX 121750Z 04003KT 010V070 9999 OVC014 02/M00 Q1011=
200911121720 METAR ESMX 121720Z 05005KT 350V080 9999 SCT010 OVC015 02/M00 Q1011=
200911121650 METAR ESMX 121650Z 05005KT 010V100 9999 SCT010 BKN014 OVC016 02/00 Q1010=
200911121620 METAR ESMX 121620Z 03005KT 9999 OVC009 02/00 Q1010=
200911121550 METAR ESMX 121550Z 04005KT 9999 OVC010 02/00 Q1010=
200911121520 METAR ESMX 121520Z 04004KT 9999 FEW008 BKN010 OVC016 02/00 Q1010=
200911121450 METAR ESMX 121450Z 04005KT 360V080 9999 FEW007 SCT009 OVC012 02/00 Q1010=
200911121420 METAR ESMX 121420Z 03005KT 340V070 9999 BKN010 OVC015 02/00 Q1010=
200911121350 METAR ESMX 121350Z 04005KT 350V080 9999 BKN009 OVC016 02/00 Q1010=
200911121320 METAR ESMX 121320Z 04005KT 010V070 9999 FEW008 SCT010 OVC013 02/01 Q1010=
200911121250 METAR ESMX 121250Z 03006KT 360V060 9999 FEW010 BKN013 02/01 Q1010 REDZ=
200911121220 METAR ESMX 121220Z 04007KT 9999 FEW009 SCT011 OVC015 02/01 Q1010=
200911121150 METAR ESMX 121150Z 04005KT 360V080 9999 FEW008 BKN010 OVC014 02/01 Q1010=
200911121120 METAR ESMX 121120Z 04005KT 010V080 9999 FEW008 BKN012 02/01 Q1010=
200911121050 METAR ESMX 121050Z 05004KT 020V080 9999 FEW008 SCT009 BKN012 02/01 Q1010=
200911121020 METAR ESMX 121020Z 04005KT 010V080 9999 FEW005 SCT008 BKN009 02/01 Q1010=
200911120950 METAR ESMX 120950Z 03005KT 5000 -RA BR BKN006 02/01 Q1010=
200911120920 METAR ESMX 120920Z 03005KT 9999 -RA BKN006 02/01 Q1010=
200911120850 METAR ESMX 120850Z 02004KT 350V060 9999 BKN007 02/01 Q1010=
200911120820 METAR ESMX 120820Z 02003KT 6000 -DZ BKN006 02/01 Q1010=
200911120750 METAR ESMX 120750Z 06004KT 020V090 7000 -DZ FEW006 SCT008 OVC010 02/00 Q1010=
200911120720 METAR ESMX 120720Z 04005KT 020V080 9999 BKN010 02/00 Q1010=
200911120650 METAR ESMX 120650Z 04004KT 350V070 9999 BKN008 02/00 Q1010=
200911120620 METAR ESMX 120620Z 04005KT 360V080 9999 BKN008 OVC012 02/00 Q1010=
200911120550 METAR ESMX 120550Z 04006KT 010V070 9999 BKN008 02/00 Q1010=
200911120520 METAR ESMX 120520Z 03007KT 9999 OVC008 02/00 Q1010=
200911120450 METAR ESMX 120450Z 03007KT 9999 FEW008 BKN010 02/00 Q1010=
200911120420 METAR ESMX 120420Z 04006KT 010V080 9999 FEW008 OVC010 02/00 Q1010=
200911120350 METAR ESMX 120350Z 02006KT 350V070 9999 FEW008 OVC010 02/00 Q1010=
200911120320 METAR ESMX 120320Z 03006KT 350V070 9999 FEW009 OVC010 02/00 Q1010=
200911120250 METAR ESMX 120250Z 03006KT 360V070 9999 FEW009 OVC011 02/M00 Q1010=
200911120220 METAR ESMX 120220Z 03006KT 350V060 9999 SCT008 OVC011 02/00 Q1010=
200911120150 METAR ESMX 120150Z 03006KT 350V060 9999 FEW009 OVC011 02/00 Q1011=
200911120120 METAR ESMX 120120Z 04006KT 010V080 9999 SCT008 BKN011 OVC013 02/00 Q1011=
200911120050 METAR ESMX 120050Z 04007KT 010V080 9999 OVC008 02/00 Q1011=
200911120020 METAR ESMX 120020Z 04006KT 9999 FEW006 SCT008 BKN010 01/00 Q1011=
200911112350 METAR ESMX 112350Z 04005KT 9999 -RA SCT008 BKN010 OVC013 02/00 Q1011=
200911112320 METAR ESMX 112320Z 04005KT 360V080 9999 FEW008 SCT011 BKN015 02/00 Q1011 REUP=
200911112250 METAR ESMX 112250Z 03006KT 340V070 9999 FEW008 SCT010 BKN015 02/00 Q1011=
200911112220 METAR ESMX 112220Z 05006KT 020V100 9999 FEW008 OVC010 02/00 Q1011=
200911112150 METAR ESMX 112150Z 02007KT 350V060 9999 FEW008 OVC009 02/01 Q1011=
200911112120 METAR ESMX 112120Z 04006KT 9999 FEW007 SCT009 BKN011 02/01 Q1011=
200911112050 METAR ESMX 112050Z 02005KT 9999 OVC009 02/01 Q1011=
200911112020 METAR ESMX 112020Z 04006KT 010V070 9999 FEW009 OVC010 02/00 Q1012=
200911111950 METAR ESMX 111950Z 04007KT 010V070 9999 OVC010 02/00 Q1012=
200911111920 METAR ESMX 111920Z 04006KT 360V070 9999 FEW010 OVC012 02/00 Q1012=
200911111850 METAR ESMX 111850Z 04006KT 010V080 9999 FEW009 BKN010 OVC016 02/01 Q1012=
200911111820 METAR ESMX 111820Z 04005KT 360V080 9999 FEW011 SCT015 BKN018 02/01 Q1011=
200911111750 METAR ESMX 111750Z 03008KT 9999 BKN008 02/01 Q1011=
200911111720 METAR ESMX 111720Z 03005KT 9999 FEW008 BKN010 OVC016 02/01 Q1011=
200911111650 METAR ESMX 111650Z 04005KT 010V080 9999 FEW010 SCT018 BKN030 02/01 Q1011 REDZ=
200911111620 METAR ESMX 111620Z 05006KT 010V080 9999 FEW008 SCT016 BKN022 02/01 Q1011=
200911111550 METAR ESMX 111550Z 05005KT 020V090 9999 FEW008 SCT011 BKN022 02/01 Q1011=
200911111520 METAR ESMX 111520Z 04006KT 350V080 9999 FEW009 SCT016 BKN024 03/01 Q1011=
200911111450 METAR ESMX 111450Z 05005KT 010V080 9999 BKN026 03/01 Q1011=
200911111420 METAR ESMX 111420Z 07005KT 030V110 9999 FEW011 SCT017 BKN030 03/01 Q1011=
200911111350 METAR ESMX 111350Z 07007KT 030V150 9000 -RA FEW010 SCT012 BKN019 03/01 Q1011=
200911111320 METAR ESMX 111320Z VRB05KT 9999 BKN018 04/01 Q1011=
200911111250 METAR ESMX 111250Z 06008KT 010V110 9999 BKN014 OVC023 04/01 Q1011=
200911111220 METAR ESMX 111220Z 07007KT 020V100 9999 BKN014 04/01 Q1011=
200911111150 METAR ESMX 111150Z 06006KT 030V100 9999 FEW012 BKN014 04/01 Q1011=
200911111120 METAR ESMX 111120Z 07007KT 030V110 9999 FEW010 BKN013 04/02 Q1011=
200911111050 METAR ESMX 111050Z 09006KT 030V170 9999 BKN008 04/02 Q1011=
200911111020 METAR ESMX 111020Z 04006KT 340V080 9999 FEW009 BKN011 04/02 Q1011=
200911110920 METAR ESMX 110920Z 06007KT 020V100 9999 BKN009 OVC014 04/02 Q1011=
200911110850 METAR ESMX 110850Z 06008KT 030V110 9999 OVC008 04/02 Q1011=
200911110820 METAR ESMX 110820Z 06007KT 020V110 9999 OVC006 04/02 Q1011=
200911110750 METAR ESMX 110750Z 04005KT 350V080 9999 OVC006 03/02 Q1011=
200911110720 METAR ESMX 110720Z 03005KT 350V080 9999 BKN005 OVC008 03/02 Q1011=
200911110650 METAR ESMX 110650Z 04007KT 360V080 9999 OVC004 03/02 Q1011=
200911110620 METAR ESMX 110620Z 04008KT 360V060 9999 OVC004 03/02 Q1011=
200911110550 METAR ESMX 110550Z 04008KT 010V070 9999 OVC005 03/02 Q1010=
200911110520 METAR ESMX 110520Z 04008KT 9999 BKN005 OVC009 03/02 Q1010=
200911110450 METAR COR ESMX 110450Z 05010KT 020V080 9999NDV BKN006 03/02 Q1010=
200911110420 METAR ESMX 110420Z AUTO 04009KT 9999NDV OVC005/// 03/02 Q1010=
200911110350 METAR ESMX 110350Z AUTO 04009KT 9999NDV OVC005/// 04/03 Q1010=
200911110320 METAR ESMX 110320Z AUTO 03006KT 330V070 9999NDV OVC005/// 04/03 Q1010=
200911110250 METAR ESMX 110250Z AUTO 04005KT 010V070 9999NDV OVC004/// 04/03 Q1010=
200911110220 METAR ESMX 110220Z AUTO 02005KT 340V050 8000NDV BR OVC004/// 04/03 Q1010=
200911110150 METAR ESMX 110150Z AUTO 02005KT 350V050 9999NDV OVC004/// 04/03 Q1010=
200911110120 METAR ESMX 110120Z AUTO 02005KT 8000NDV BR OVC004/// 03/03 Q1010=
200911110050 METAR ESMX 110050Z 04006KT 6000 BR OVC003 03/03 Q1010=
200911110020 METAR ESMX 110020Z 03006KT 010V070 6000 BR OVC004 03/03 Q1010=
200911102350 METAR ESMX 102350Z 04007KT 010V070 4700 BR OVC004 03/03 Q1010=
200911102320 METAR ESMX 102320Z 04006KT 4900 BR OVC003 03/03 Q1010=
200911102250 METAR ESMX 102250Z 04007KT 5000 BR OVC003 04/03 Q1010=
200911102220 METAR ESMX 102220Z 04007KT 8000 BR OVC003 04/03 Q1010=
200911102150 METAR ESMX 102150Z 04007KT 6000 BR BKN003 04/03 Q1010=
200911102120 METAR ESMX 102120Z 03006KT 3800 BR BKN003 04/03 Q1010=
200911102050 METAR ESMX 102050Z 02006KT 340V050 8000 BKN005 04/03 Q1010=
200911102020 METAR ESMX 102020Z 01005KT 9999 SCT003 BKN006 OVC008 04/03 Q1010=
200911101950 METAR ESMX 101950Z 04006KT 010V090 9999 FEW005 BKN008 OVC010 04/03 Q1010=
200911101920 METAR ESMX 101920Z 04006KT 010V080 9000 BR FEW007 BKN008 OVC011 04/03 Q1010=
200911101850 METAR ESMX 101850Z 05006KT 010V090 9000 BR FEW008 BKN009 04/03 Q1010=
200911101820 METAR ESMX 101820Z 07006KT 020V110 9999 FEW007 BKN008 05/03 Q1010=
200911101750 METAR ESMX 101750Z 06007KT 030V100 9999 BKN006 05/03 Q1010=
200911101720 METAR ESMX 101720Z 04006KT 360V080 9999 BKN006 05/03 Q1010=
200911101650 METAR ESMX 101650Z 05006KT 020V090 9999 BKN007 05/03 Q1009=
200911101620 METAR ESMX 101620Z 04007KT 010V080 9999 BKN008 05/04 Q1009=
200911101550 METAR ESMX 101550Z 05007KT 020V080 9999 SCT007 BKN009 OVC011 05/04 Q1009=
200911101520 METAR ESMX 101520Z 04008KT 9999 BKN006 05/04 Q1009=
200911101450 METAR ESMX 101450Z 04008KT 9999 SCT006 OVC008 05/04 Q1009=
200911101420 METAR ESMX 101420Z 04009KT 010V080 8000 BR FEW004 BKN006 OVC008 05/04 Q1009 REDZ=
200911101350 METAR ESMX 101350Z 04006KT 3400 -RA BR FEW003 BKN005 OVC007 05/04 Q1010 REDZ=
200911101320 METAR ESMX 101320Z 04006KT 4000 BR SCT003 BKN005 05/04 Q1010=
200911101250 METAR ESMX 101250Z 06006KT 030V120 5000 BR FEW004 BKN008 OVC010 05/04 Q1010=
200911101220 METAR ESMX 101220Z 05005KT 020V100 3400 BR FEW004 SCT005 BKN008 05/04 Q1010=
200911101150 METAR ESMX 101150Z 05006KT 010V100 5000 BR SCT007 OVC009 05/04 Q1010=
200911101120 METAR ESMX 101120Z 05006KT 010V090 9999 BKN007 OVC012 05/04 Q1010=
200911101050 METAR ESMX 101050Z 04008KT 020V080 9999 BKN008 OVC011 05/04 Q1010=
200911101020 METAR ESMX 101020Z 04006KT 020V080 9999 FEW006 BKN008 05/04 Q1010=
200911100950 METAR ESMX 100950Z 05006KT 010V080 9999 FEW005 SCT007 BKN009 05/04 Q1010=
200911100920 METAR ESMX 100920Z 04007KT 360V070 9999 FEW004 BKN005 OVC010 05/04 Q1010=
200911100850 METAR ESMX 100850Z 05005KT 020V090 9000 FEW003 BKN005 OVC007 04/04 Q1010=
200911100820 METAR ESMX 100820Z 05005KT 020V110 9999 FEW003 BKN005 OVC007 04/04 Q1010=
200911100750 METAR ESMX 100750Z 04005KT 010V080 8000 -DZ FEW003 OVC004 04/04 Q1010=
200911100720 METAR ESMX 100720Z 02006KT 350V050 9000 -DZ BKN004 04/04 Q1010=
200911100650 METAR ESMX 100650Z 02006KT 350V060 7000 -DZ BKN003 OVC006 04/04 Q1010=
200911100620 METAR ESMX 100620Z 04006KT 010V080 3800 DZ FEW003 BKN005 OVC007 04/04 Q1011=
200911100550 METAR ESMX 100550Z 04007KT 4300 -DZ FEW002 OVC004 04/04 Q1010 REDZ=
200911100520 METAR ESMX 100520Z 03007KT 360V070 3200 -DZ BKN002 OVC006 04/03 Q1010=
200911100450 METAR ESMX 100450Z 04007KT 3700 -DZ FEW003 BKN005 OVC007 04/03 Q1011=
200911100420 METAR ESMX 100420Z AUTO 04007KT 6000NDV -RA FEW005/// BKN007/// OVC009/// 04/03 Q1011=
200911100350 METAR ESMX 100350Z AUTO 04007KT 9999NDV -RA BKN005/// OVC008/// 04/03 Q1011 REDZ=
200911100320 METAR ESMX 100320Z AUTO 04006KT 360V070 4600NDV -RA OVC005/// 04/03 Q1011=
200911100250 METAR ESMX 100250Z AUTO 04009KT 010V070 6000NDV BR OVC005/// 04/03 Q1011=
200911100220 METAR ESMX 100220Z AUTO 04009KT 9999NDV BKN005/// OVC009/// 04/03 Q1011=
200911100150 METAR ESMX 100150Z AUTO 04008KT 010V070 8000NDV BR BKN005/// OVC008/// 04/03 Q1012=
200911100120 METAR ESMX 100120Z AUTO 03010KT 360V060 4500NDV BR BKN005/// OVC008/// 04/03 Q1012=
200911100050 METAR ESMX 100050Z 03009KT 5000 BR FEW004 BKN005 04/03 Q1012=
200911100020 METAR ESMX 100020Z 04009KT 010V080 3200 -DZ FEW004 BKN005 04/03 Q1013=
200911092350 METAR ESMX 092350Z 04009KT 010V070 7000 -DZ FEW005 BKN006 04/03 Q1013=
200911092320 METAR ESMX 092320Z 04009KT 8000 -DZ SCT004 BKN005 04/03 Q1013=
200911092250 METAR ESMX 092250Z 04010KT 360V080 6000 DZ SCT004 OVC005 04/03 Q1014=
200911092220 METAR ESMX 092220Z 04010KT 350V070 5000 DZ SCT003 BKN004 03/03 Q1014=
200911092150 METAR ESMX 092150Z 05010KT 010V100 5000 -RA OVC004 03/03 Q1014 REDZ=
200911092120 METAR ESMX 092120Z 04011KT 9999 DZ OVC005 03/03 Q1014=
200911092050 METAR ESMX 092050Z 05013G24KT 020V080 9999 -RA OVC005 03/03 Q1014=
200911092020 METAR ESMX 092020Z 04012KT 010V080 9999 -RA SCT005 BKN006 03/02 Q1015 REDZ=
200911091950 METAR ESMX 091950Z 04012KT 360V070 9999 -RA OVC005 03/02 Q1015=
200911091920 METAR ESMX 091920Z 04014KT 360V070 9999 -RA SCT005 BKN006 03/02 Q1015=
200911091850 METAR ESMX 091850Z 04012KT 010V080 9999 -RA OVC005 03/02 Q1016 REDZ=
200911091820 METAR ESMX 091820Z 05011KT 020V080 9999 -RA OVC005 03/02 Q1016=
200911091750 METAR ESMX 091750Z 04011KT 9999 -RA OVC005 03/02 Q1016=
200911091720 METAR ESMX 091720Z 04012KT 9999 -RA OVC006 03/02 Q1016=
200911091650 METAR ESMX 091650Z 04014KT 9999 -RA BKN006 03/02 Q1016=
200911091620 METAR ESMX 091620Z 04013KT 010V080 9999 -RA FEW005 BKN007 04/02 Q1017=
200911091550 METAR ESMX 091550Z 04011KT 020V080 9999 OVC006 04/02 Q1017=
200911091520 METAR ESMX 091520Z 04014KT 020V080 9999 OVC008 04/02 Q1017=
200911091450 METAR ESMX 091450Z 04013KT 9999 SCT007 OVC009 04/02 Q1017=
200911091420 METAR ESMX 091420Z 03013KT 340V070 9999 OVC008 04/02 Q1017=
200911091350 METAR ESMX 091350Z 05012KT 360V080 9999 OVC007 04/02 Q1018=
200911091320 METAR ESMX 091320Z 04014KT 360V070 9999 OVC006 04/02 Q1018=
200911091250 METAR ESMX 091250Z 04011KT 010V080 9999 OVC007 04/02 Q1018=
200911091220 METAR ESMX 091220Z 04013KT 010V070 9999 OVC007 04/02 Q1018=
200911091150 METAR ESMX 091150Z 03012KT 350V060 9999 OVC007 04/02 Q1019=
200911091120 METAR ESMX 091120Z 04013KT 010V080 9999 OVC007 04/02 Q1019=
200911091050 METAR ESMX 091050Z 05013G23KT 020V100 9999 BKN008 04/02 Q1019=
200911091020 METAR ESMX 091020Z 06011KT 020V100 9999 SCT006 BKN010 04/02 Q1020=
200911090950 METAR ESMX 090950Z 04011G21KT 360V080 9999 SCT008 BKN010 04/02 Q1020=
200911090920 METAR ESMX 090920Z 04014KT 9999 BKN007 OVC010 04/02 Q1019=
200911090850 METAR ESMX 090850Z 05011KT 010V100 9999 OVC007 04/02 Q1019=
200911090820 METAR ESMX 090820Z 05010KT 010V120 9999 OVC007 04/02 Q1020=
200911090750 METAR ESMX 090750Z 04011KT 010V080 9999 OVC006 04/02 Q1020=
200911090720 METAR ESMX 090720Z 05011KT 010V070 9999 OVC006 03/02 Q1020=
200911090650 METAR ESMX 090650Z 04011KT 010V080 9999 OVC006 03/02 Q1020=
200911090620 METAR ESMX 090620Z 05011KT 020V090 9999 OVC006 03/02 Q1020=
200911090550 METAR ESMX 090550Z 04011KT 010V080 9999 OVC006 03/02 Q1020=
200911090520 METAR ESMX 090520Z 04010KT 010V080 9999 OVC007 03/02 Q1020=
200911090450 METAR ESMX 090450Z 04009KT 010V080 9999 OVC007 04/02 Q1020=
200911090420 METAR ESMX 090420Z AUTO 05010KT 020V100 9999NDV OVC008/// 04/02 Q1020=
200911090350 METAR ESMX 090350Z AUTO 05008KT 020V100 9999NDV OVC009/// 04/02 Q1020=
200911090320 METAR ESMX 090320Z AUTO 06009KT 020V100 9999NDV OVC011/// 04/01 Q1020=
200911090250 METAR ESMX 090250Z AUTO 05009G19KT 360V100 9999NDV OVC011/// 04/02 Q1020=
200911090220 METAR ESMX 090220Z AUTO 05008KT 360V090 9999NDV OVC012/// 05/02 Q1019=
200911090150 METAR ESMX 090150Z AUTO 05008KT 010V080 9999NDV FEW014/// OVC016/// 05/02 Q1019=
200911090120 METAR ESMX 090120Z 06009KT 020V100 9999 OVC014 05/02 Q1019=
200911090050 METAR ESMX 090050Z 05009KT 340V100 9999 OVC015 05/02 Q1019=
200911090020 METAR ESMX 090020Z 07007KT 020V110 9999 OVC017 05/02 Q1019=
200911082350 METAR ESMX 082350Z 07008KT 010V110 9999 BKN012 OVC016 05/03 Q1019=
200911082320 METAR ESMX 082320Z 05007KT 010V100 9999 BKN011 OVC015 05/03 Q1019=
200911082250 METAR ESMX 082250Z 06005KT 010V110 9999 OVC013 05/03 Q1019=
200911082220 METAR ESMX 082220Z 07006KT 020V110 9999 OVC012 05/03 Q1019=
200911082150 METAR ESMX 082150Z 08005KT 030V140 9999 OVC016 05/02 Q1019=
200911082120 METAR ESMX 082120Z 08006KT 030V140 9999 FEW009 BKN011 OVC015 05/03 Q1019=
200911082050 METAR ESMX 082050Z 06004KT 020V120 9999 OVC010 05/03 Q1019=
200911082020 METAR ESMX 082020Z 05004KT 020V080 9999 FEW010 OVC015 05/03 Q1019=
200911081950 METAR ESMX 081950Z 06004KT 360V110 9999 SCT009 OVC012 04/03 Q1019=
200911081920 METAR ESMX 081920Z 08005KT 020V130 9999 FEW008 OVC010 05/03 Q1019=
200911081850 METAR ESMX 081850Z 07008KT 020V110 9999 OVC010 05/03 Q1018=
200911081820 METAR ESMX 081820Z 08007KT 040V120 9999 OVC012 05/03 Q1018=
200911081750 METAR ESMX 081750Z 07005KT 010V140 9999 OVC010 05/03 Q1018=
200911081720 METAR ESMX 081720Z 09006KT 010V150 9999 OVC011 05/03 Q1018=
200911081650 METAR ESMX 081650Z 10008KT 050V150 9999 OVC011 05/02 Q1017=
200911081620 METAR ESMX 081620Z 09006KT 020V160 9999 OVC012 05/02 Q1017=
200911081550 METAR ESMX 081550Z 09007KT 040V140 9999 OVC012 05/03 Q1017=
200911081520 METAR ESMX 081520Z 10005KT 050V150 9999 OVC012 06/03 Q1016=
200911081450 METAR ESMX 081450Z 10005KT 050V160 9999 OVC012 06/03 Q1016=
200911081420 METAR ESMX 081420Z 10005KT 050V170 9999 OVC012 06/03 Q1016=
200911081350 METAR ESMX 081350Z 11006KT 020V160 9999 OVC013 06/03 Q1016=
200911081320 METAR ESMX 081320Z 11006KT 030V170 9999 OVC012 06/03 Q1015=
200911081250 METAR ESMX 081250Z AUTO 12006KT 060V190 9999NDV OVC011/// 06/03 Q1015=
200911081220 METAR ESMX 081220Z AUTO 12007KT 060V170 9999NDV FEW013/// SCT015/// BKN017/// 06/03 Q1015=
200911081150 METAR ESMX 081150Z AUTO 11007KT 020V150 9999NDV BKN011/// OVC016/// 06/04 Q1015=
200911081120 METAR ESMX 081120Z AUTO 10008KT 040V140 9999NDV BKN011/// OVC019/// 06/04 Q1014=
200911081050 METAR ESMX 081050Z AUTO 11006KT 060V170 9999NDV FEW008/// BKN010/// OVC013/// 06/04 Q1014=
200911081020 METAR ESMX 081020Z AUTO 11005KT 050V180 9999NDV SCT006/// OVC010/// 06/04 Q1013=
200911080950 METAR ESMX 080950Z AUTO 11005KT 060V170 9999NDV OVC005/// 06/04 Q1013=
200911080920 METAR ESMX 080920Z AUTO 11005KT 050V170 9999NDV OVC005/// 06/05 Q1013=
200911080850 METAR ESMX 080850Z AUTO 12006KT 040V170 9999NDV OVC007/// 06/04 Q1012=
200911080820 METAR ESMX 080820Z AUTO 11007KT 070V160 9000NDV BR OVC005/// 06/05 Q1012=
200911080750 METAR ESMX 080750Z AUTO 12005KT 060V170 9999NDV OVC005/// 06/05 Q1012=
200911080720 METAR ESMX 080720Z AUTO 11006KT 030V190 7000NDV BR OVC003/// 06/05 Q1011=
200911080650 METAR ESMX 080650Z AUTO 10005KT 060V150 3400NDV BR OVC001/// 06/05 Q1011=
200911080620 METAR ESMX 080620Z AUTO 09005KT 030V150 1900NDV BR OVC001/// 05/05 Q1010=
200911080550 METAR ESMX 080550Z AUTO VRB02KT 2300NDV BR OVC001/// 05/04 Q1010=
200911080520 METAR ESMX 080520Z AUTO 07003KT 030V110 1700NDV BR OVC001/// 05/04 Q1010=
200911080450 METAR ESMX 080450Z AUTO 06003KT 020V100 1700NDV BR OVC001/// 04/04 Q1009=
200911080420 METAR ESMX 080420Z AUTO 05003KT 020V090 1400NDV R01/P2000N R19/P2000N BR SCT002/// OVC004/// 04/03 Q1009=
200911080350 METAR ESMX 080350Z AUTO 06003KT 350V090 7000NDV BR FEW006/// BKN007/// OVC009/// 05/03 Q1009=
200911080320 METAR ESMX 080320Z AUTO VRB02KT 9999NDV OVC010/// 05/03 Q1009=
200911080250 METAR ESMX 080250Z AUTO 09003KT 010V150 9999NDV OVC010/// 05/03 Q1009=
200911080220 METAR ESMX 080220Z AUTO 09004KT 050V160 9999NDV FEW005/// SCT008/// OVC010/// 05/03 Q1008=
200911080150 METAR ESMX 080150Z AUTO 10005KT 040V150 7000NDV BR OVC005/// 04/03 Q1008=
200911080120 METAR ESMX 080120Z AUTO 09005KT 030V140 6000NDV BR OVC004/// 05/03 Q1008=
200911080050 METAR ESMX 080050Z AUTO 11004KT 060V150 6000NDV BR OVC004/// 05/04 Q1008=
200911080020 METAR ESMX 080020Z AUTO 11005KT 050V170 6000NDV BR OVC005/// 05/04 Q1008=
200911072350 METAR ESMX 072350Z AUTO 10004KT 030V150 7000NDV BR OVC006/// 05/03 Q1008=
200911072320 METAR ESMX 072320Z AUTO 12004KT 070V170 9000NDV BR OVC007/// 05/03 Q1007=
200911072250 METAR ESMX 072250Z AUTO 10005KT 030V150 7000NDV BR OVC007/// 05/03 Q1007=
200911072220 METAR ESMX 072220Z AUTO 10004KT 050V160 9000NDV BR OVC008/// 05/03 Q1007=
200911072150 METAR ESMX 072150Z AUTO 10005KT 050V160 9000NDV BR FEW007/// OVC009/// 05/03 Q1006=
200911072120 METAR ESMX 072120Z AUTO 11005KT 050V150 9000NDV BR FEW007/// OVC009/// 05/03 Q1006=
200911072050 METAR ESMX 072050Z AUTO 11004KT 070V160 9000NDV BR OVC008/// 05/03 Q1006=
200911072020 METAR ESMX 072020Z AUTO 12006KT 010V170 9000NDV BR SCT008/// OVC010/// 05/03 Q1006=
200911071950 METAR ESMX 071950Z AUTO 11005KT 060V140 6000NDV BR BKN006/// OVC009/// 05/04 Q1006=
200911071920 METAR ESMX 071920Z AUTO 11004KT 050V160 6000NDV BR OVC006/// 05/04 Q1006=
200911071850 METAR ESMX 071850Z AUTO 11004KT 050V190 5000NDV BR BKN006/// OVC009/// 05/03 Q1006=
200911071820 METAR ESMX 071820Z AUTO 11005KT 070V150 6000NDV BR OVC007/// 05/03 Q1005=
200911071750 METAR ESMX 071750Z AUTO 11007KT 070V150 6000NDV BR OVC007/// 05/03 Q1005=
200911071720 METAR ESMX 071720Z AUTO 12005KT 070V160 5000NDV BR SCT006/// BKN008/// OVC009/// 05/03 Q1005=
200911071650 METAR ESMX 071650Z AUTO 11005KT 070V160 6000NDV BR FEW006/// SCT008/// BKN009/// 05/03 Q1005=
200911071620 METAR ESMX 071620Z AUTO 10004KT 060V170 6000NDV BR OVC007/// 05/03 Q1005=
200911071550 METAR ESMX 071550Z AUTO 13005KT 080V170 6000NDV BR OVC007/// 05/03 Q1005=
200911071520 METAR ESMX 071520Z AUTO 11006KT 070V160 6000NDV BR OVC007/// 05/04 Q1005=
200911071450 METAR ESMX 071450Z AUTO 12007KT 060V170 5000NDV BR OVC006/// 05/04 Q1005=
200911071420 METAR ESMX 071420Z 11006KT 070V160 6000 BR BKN006 06/04 Q1005=
200911071350 METAR ESMX 071350Z 12005KT 060V180 9000 BR SCT010 BKN013 06/04 Q1005=
200911071320 METAR ESMX 071320Z 13007KT 080V190 9000 HZ OVC010 06/04 Q1004=
200911071250 METAR ESMX 071250Z 12006KT 080V180 9000 HZ OVC010 07/05 Q1004=
200911071220 METAR ESMX 071220Z 12006KT 060V170 9000 HZ OVC010 07/04 Q1004=
200911071150 METAR ESMX 071150Z 13005KT 080V200 9000 BR BKN010 07/05 Q1004=
200911071120 METAR ESMX 071120Z 13006KT 080V190 8000 BR FEW007 BKN009 OVC013 07/05 Q1004=
200911071050 METAR ESMX 071050Z 13005KT 080V180 7000 BR BKN007 07/05 Q1004=
200911071020 METAR ESMX 071020Z 14005KT 080V170 6000 BR OVC006 07/05 Q1004=
200911070950 METAR ESMX 070950Z 13006KT 060V200 5000 BR OVC006 07/05 Q1004=
200911070920 METAR ESMX 070920Z 12006KT 080V170 5000 BR OVC005 07/05 Q1004=
200911070850 METAR ESMX 070850Z 13005KT 070V190 6000 BR BKN006 OVC008 07/05 Q1005=
200911070820 METAR ESMX 070820Z 15005KT 110V220 6000 BR OVC006 07/05 Q1005=
200911070750 METAR ESMX 070750Z 14005KT 080V180 6000 BR FEW005 BKN007 07/06 Q1004=
200911070720 METAR ESMX 070720Z 13006KT 100V200 6000 BR BKN005 07/06 Q1005=
200911070650 METAR ESMX 070650Z AUTO 13005KT 080V170 6000NDV BR BKN005/// OVC008/// 07/06 Q1004=
200911070620 METAR ESMX 070620Z AUTO 14005KT 100V180 4700NDV BR OVC003/// 07/06 Q1004=
200911070550 METAR ESMX 070550Z AUTO 15006KT 100V200 3700NDV BR OVC003/// 07/06 Q1004=
200911070520 METAR ESMX 070520Z AUTO 14006KT 090V170 4300NDV BR OVC004/// 07/06 Q1004=
200911070450 METAR ESMX 070450Z AUTO 14007KT 110V190 3300NDV BR BKN002/// OVC005/// 07/06 Q1004=
200911070420 METAR ESMX 070420Z AUTO 15006KT 080V180 2200NDV BR OVC002/// 07/06 Q1004=
200911070350 METAR ESMX 070350Z AUTO 15007KT 110V180 2500NDV BR OVC002/// 07/06 Q1005=
200911070320 METAR ESMX 070320Z AUTO 15007KT 110V170 2300NDV BR OVC002/// 07/06 Q1005=
200911070250 METAR ESMX 070250Z AUTO 15006KT 100V180 2600NDV BR OVC002/// 07/06 Q1005=
200911070220 METAR ESMX 070220Z AUTO 14005KT 110V180 3600NDV BR OVC003/// 07/06 Q1005=
200911070150 METAR ESMX 070150Z AUTO 15005KT 3200NDV BR OVC003/// 07/06 Q1005=
200911070120 METAR ESMX 070120Z AUTO 15005KT 100V180 4300NDV BR OVC003/// 07/06 Q1005=
200911070050 METAR ESMX 070050Z AUTO 15005KT 120V180 5000NDV BR FEW005/// SCT007/// BKN009/// 07/06 Q1005=
200911070020 METAR ESMX 070020Z AUTO 14005KT 100V170 5000NDV BR FEW006/// BKN008/// OVC011/// 07/06 Q1005=
200911062350 METAR ESMX 062350Z AUTO 15005KT 6000NDV BR FEW007/// SCT008/// BKN010/// 07/06 Q1005=
200911062320 METAR ESMX 062320Z AUTO 16005KT 6000NDV BR FEW005/// SCT007/// BKN009/// 07/06 Q1005=
200911062250 METAR ESMX 062250Z AUTO 16007KT 120V200 6000NDV BR FEW004/// BKN006/// OVC009/// 07/06 Q1006=
200911062220 METAR ESMX 062220Z AUTO 15006KT 120V190 6000NDV BR BKN005/// OVC008/// 07/06 Q1006=
200911062150 METAR ESMX 062150Z AUTO 15005KT 110V180 7000NDV BR FEW004/// SCT006/// BKN013/// 06/06 Q1006=
200911062120 METAR ESMX 062120Z 17006KT 140V200 8000 BR FEW006 SCT010 BKN019 07/06 Q1006=
200911062050 METAR ESMX 062050Z 17006KT 6000 BR SCT002 BKN005 OVC007 07/06 Q1006=
200911062020 METAR ESMX 062020Z 16007KT 3800 BR OVC002 07/06 Q1006=
200911061950 METAR ESMX 061950Z 17005KT 140V200 3500 BR OVC002 06/06 Q1006=
200911061920 METAR ESMX 061920Z 15006KT 120V190 7000 BR FEW004 SCT005 BKN007 06/06 Q1006 RESHRA=
200911061850 METAR ESMX 061850Z 14005KT 100V170 4700 BR SCT002 BKN006 06/06 Q1006 RERA=
200911061820 METAR ESMX 061820Z 16006KT 3000 RA BKN003 06/06 Q1006=
200911061750 METAR ESMX 061750Z 15005KT 110V170 1500 BR OVC002 06/06 Q1006=
200911061720 METAR ESMX 061720Z 16005KT 120V190 5000 BR BKN005 06/06 Q1006=
200911061650 METAR ESMX 061650Z 15005KT 120V190 4300 BR SCT003 BKN005 06/06 Q1006=
200911061620 METAR ESMX 061620Z 16005KT 130V200 4000 BR OVC003 06/06 Q1006 REDZ=
200911061550 METAR ESMX 061550Z 16006KT 130V200 5000 DZ SCT004 BKN007 06/05 Q1006=
200911061520 METAR ESMX 061520Z 16006KT 120V200 7000 BR BKN005 OVC010 07/05 Q1006=
200911061450 METAR ESMX 061450Z 15006KT 9999 FEW006 BKN035 07/05 Q1006=
200911061420 METAR ESMX 061420Z 15006KT 120V190 9999 FEW006 BKN007 OVC010 07/06 Q1006=
200911061350 METAR ESMX 061350Z 15005KT 110V180 9999 FEW006 BKN008 OVC011 07/06 Q1006=
200911061320 METAR ESMX 061320Z 15005KT 110V180 8000 BR BKN006 OVC010 07/06 Q1005=
200911061250 METAR ESMX 061250Z 14005KT 110V170 9999 -DZ FEW007 OVC008 07/06 Q1005 REDZ=
200911061220 METAR ESMX 061220Z 15005KT 120V180 8000 BR BKN006 OVC009 07/06 Q1005=
200911061150 METAR ESMX 061150Z 16005KT 130V190 8000 BR FEW006 SCT009 BKN011 07/06 Q1005=
200911061120 METAR ESMX 061120Z 16006KT 080V200 6000 BR FEW007 SCT008 BKN012 07/06 Q1005=
200911061050 METAR ESMX 061050Z 16005KT 120V190 8000 BR SCT007 OVC010 07/06 Q1005=
200911061020 METAR ESMX 061020Z 15005KT 090V190 7000 BR BKN006 OVC007 07/06 Q1005=
200911060950 METAR ESMX 060950Z 14005KT 070V190 5000 BR SCT005 OVC007 07/06 Q1005=
200911060920 METAR ESMX 060920Z 14004KT 080V210 4800 BR OVC005 07/06 Q1005=
200911060850 METAR ESMX 060850Z 13004KT 4000 -RA SCT003 OVC005 07/06 Q1005=
200911060820 METAR ESMX 060820Z 14005KT 100V200 3200 BR SCT003 OVC004 07/06 Q1005=
200911060750 METAR ESMX 060750Z 14005KT 100V190 2700 BR SCT002 OVC003 07/06 Q1005=
200911060720 METAR ESMX 060720Z 13004KT 080V180 2000 BR BKN002 OVC003 07/06 Q1005=
200911060650 METAR ESMX 060650Z 13005KT 080V160 2500 BR SCT002 OVC003 07/06 Q1005=
200911060620 METAR ESMX 060620Z 13004KT 060V170 6000 BR OVC006 07/06 Q1005=
200911060550 METAR ESMX 060550Z 13004KT 080V190 6000 BR SCT005 OVC007 07/06 Q1004=
200911060520 METAR ESMX 060520Z 12004KT 060V180 5000 BR OVC005 07/06 Q1004=
200911060450 METAR ESMX 060450Z VRB04KT 6000 BR BKN006 07/06 Q1004=
200911060420 METAR ESMX 060420Z AUTO 12005KT 070V160 6000NDV BR SCT005/// BKN007/// OVC011/// 07/06 Q1004=
200911060350 METAR ESMX 060350Z AUTO 13005KT 080V170 7000NDV BR OVC004/// 07/06 Q1004=
200911060320 METAR ESMX 060320Z AUTO 13004KT 090V190 8000NDV BR OVC004/// 07/06 Q1004 REDZ=
200911060250 METAR ESMX 060250Z AUTO 13004KT 080V210 9000NDV BR OVC005/// 06/06 Q1004=
200911060220 METAR ESMX 060220Z AUTO 13004KT 100V170 9999NDV BR FEW004/// BKN005/// OVC007/// 06/06 Q1004=
200911060150 METAR ESMX 060150Z AUTO 11003KT 060V170 7000NDV BR OVC004/// 06/06 Q1003=
200911060120 METAR ESMX 060120Z AUTO 13003KT 080V220 6000NDV BR OVC003/// 06/06 Q1003=
200911060050 METAR ESMX 060050Z AUTO 12003KT 070V160 5000NDV BR OVC003/// 06/05 Q1003 REDZ=
200911060020 METAR ESMX 060020Z 11003KT 040V190 5000 BR OVC003 06/05 Q1003=
200911052350 METAR ESMX 052350Z VRB02KT 4000 BR BKN004 OVC010 06/05 Q1003=
200911052320 METAR ESMX 052320Z 13003KT 090V170 3800 BR FEW002 OVC003 06/05 Q1003=
200911052250 METAR ESMX 052250Z 14003KT 090V170 2700 BR OVC002 06/05 Q1003=
200911052220 METAR ESMX 052220Z 13004KT 070V170 2200 BR OVC001 06/05 Q1002=
200911052150 METAR ESMX 052150Z 14004KT 100V190 1500 BR OVC001 05/05 Q1002=
200911052120 METAR ESMX 052120Z 13003KT 100V170 1300 R19/P2000N BR OVC001 05/04 Q1002=
200911052020 METAR ESMX 052020Z 12003KT 080V170 2000 BR OVC001 04/04 Q1002=
200911051950 METAR ESMX 051950Z VRB02KT 2400 BR OVC001 03/03 Q1002=
200911051920 METAR ESMX 051920Z 09003KT 060V140 5000 BR OVC003 03/03 Q1001=
200911051850 METAR COR ESMX 051850Z VRB01KT 5000 -RA SCT004 OVC007 03/03 Q1001=
200911051820 METAR ESMX 051820Z 28003KT 260V340 6000 -RA SCT003 BKN007 03/02 Q1001 RESHRA=
200911051750 METAR ESMX 051750Z VRB02KT 3500 -RA BKN002 OVC005 03/02 Q1001=
200911051720 METAR ESMX 051720Z VRB02KT 8000 -DZ FEW003 OVC005 03/02 Q1000=
200911051650 METAR ESMX 051650Z VRB02KT 8000 -DZ OVC005 03/02 Q1000=
200911051620 METAR ESMX 051620Z VRB02KT 9999 FEW002 OVC005 02/02 Q1000=
200911051550 METAR ESMX 051550Z VRB02KT 9999 OVC005 02/02 Q0999=
200911051520 METAR ESMX 051520Z VRB01KT 9999 SCT003 OVC005 02/02 Q0999=
200911051450 METAR ESMX 051450Z VRB01KT 9999 FEW002 OVC004 02/01 Q0998=
200911051420 METAR ESMX 051420Z VRB02KT 9999 OVC003 02/01 Q0998=
200911051350 METAR ESMX 051350Z VRB01KT 9999 -DZ FEW002 OVC004 02/01 Q0997=
200911051320 METAR ESMX 051320Z VRB01KT 8000 -DZ FEW002 OVC005 01/01 Q0997=
200911051250 METAR ESMX 051250Z VRB01KT 9999 -RA OVC006 01/01 Q0997=
200911051220 METAR ESMX 051220Z 04003KT 010V070 9999 -DZ BKN005 OVC007 02/01 Q0996=
200911051150 METAR ESMX 051150Z 04004KT 9999 -DZ BKN005 OVC006 01/01 Q0996=
200911051120 METAR ESMX 051120Z 04004KT 360V060 9999 -DZ SCT007 OVC009 01/01 Q0996=
200911051050 METAR ESMX 051050Z 03005KT 9999 -RASN BKN006 OVC009 01/01 Q0995=
200911051020 METAR ESMX 051020Z 03006KT 360V070 6000 -RASN BKN005 OVC008 01/00 Q0995=
200911050950 METAR ESMX 050950Z 04007KT 7000 -RASN OVC007 01/00 Q0995=
200911050920 METAR ESMX 050920Z 04008KT 010V070 9999 -RASN SCT006 BKN009 OVC011 01/00 Q0995=
200911050850 METAR ESMX 050850Z 04008KT 360V080 9999 -RASN SCT007 BKN009 OVC010 01/00 Q0995=
200911050820 METAR ESMX 050820Z 04009KT 9999 -RASN BKN007 OVC010 01/00 Q0995=
200911050750 METAR ESMX 050750Z 04009KT 9999 -RASN FEW006 SCT008 OVC009 01/00 Q0994=
200911050720 METAR ESMX 050720Z 04010KT 9999 -RASN OVC008 01/00 Q0994=
200911050650 METAR ESMX 050650Z 02009KT 350V070 9999 -RASN FEW006 BKN007 OVC011 01/M00 Q0994=
200911050620 METAR ESMX 050620Z 04009KT 010V090 9999 FEW006 SCT009 BKN012 01/M00 Q0994=
200911050550 METAR ESMX 050550Z 04009KT 010V080 9999 SN FEW007 BKN008 OVC012 01/M00 Q0994=
200911050520 METAR ESMX 050520Z 05009KT 020V110 9999 -SN FEW008 BKN011 01/M00 Q0994=
200911050450 METAR ESMX 050450Z 05009KT 020V080 9999 -SN FEW008 OVC010 01/M00 Q0994=
200911050420 METAR ESMX 050420Z AUTO 06010KT 010V110 9999NDV -RA FEW008/// BKN010/// OVC014/// 01/M00 Q0994=
200911050350 METAR ESMX 050350Z AUTO 06009KT 030V110 7000NDV -RA FEW008/// SCT010/// BKN013/// 01/M00 Q0994=
200911050320 METAR ESMX 050320Z AUTO 05009KT 350V080 5000NDV RA FEW009/// OVC011/// 01/M00 Q0994 REDZ=
200911050250 METAR ESMX 050250Z AUTO 05009KT 010V100 9999NDV DZ FEW010/// BKN012/// OVC016/// 01/M00 Q0994=
200911050220 METAR ESMX 050220Z AUTO 07009G19KT 020V120 4300NDV RA OVC010/// 01/M00 Q0994=
200911050150 METAR ESMX 050150Z AUTO 05008KT 010V090 9999NDV -DZ FEW007/// BKN011/// BKN017/// 01/M00 Q0994=
200911050120 METAR ESMX 050120Z AUTO 05008KT 360V090 5000NDV -RA FEW006/// SCT009/// BKN011/// 01/M00 Q0995 RERA=
200911050050 METAR ESMX 050050Z AUTO 07009KT 030V110 2700NDV +RA FEW007/// BKN010/// OVC014/// 01/M00 Q0995=
200911050020 METAR ESMX 050020Z 05009KT 350V110 8000 -SN FEW011 BKN014 OVC018 01/M01 Q0995=
200911042350 METAR ESMX 042350Z 07009KT 030V110 6000 -SN FEW011 BKN014 01/M00 Q0995=
200911042320 METAR ESMX 042320Z 06009KT 360V120 6000 -SN BKN013 01/M00 Q0995=
200911042250 METAR ESMX 042250Z 07009KT 020V120 8000 -SN OVC015 02/M01 Q0995=
200911042220 METAR ESMX 042220Z 08010KT 030V140 9999 -SN OVC018 02/M02 Q0995=
200911042150 METAR ESMX 042150Z 09009G20KT 020V160 9999 -SN OVC018 02/M02 Q0995=
200911042120 METAR ESMX 042120Z 10011KT 050V160 9999 -SN OVC019 02/M02 Q0995=
200911042050 METAR ESMX 042050Z VRB11KT 7000 -SN OVC019 02/M02 Q0995=
200911042020 METAR ESMX 042020Z 10010KT 040V150 9999 -SN BKN020 02/M02 Q0995=
200911041950 METAR ESMX 041950Z 10011G25KT 060V150 8000 -SN OVC018 02/M02 Q0995=
200911041920 METAR ESMX 041920Z 09009KT 040V170 9999 -SN BKN015 02/M01 Q0995=
200911041850 METAR ESMX 041850Z 10011KT 070V160 8000 -SN BKN016 02/M01 Q0995=
200911041820 METAR ESMX 041820Z 08013KT 040V110 9999 -SN OVC016 02/M01 Q0995=
200911041750 METAR ESMX 041750Z 09009KT 020V130 9999 -SN OVC017 02/M02 Q0995=
200911041720 METAR ESMX 041720Z 09010KT 040V160 9999 -SN OVC017 02/M02 Q0995=
200911041650 METAR ESMX 041650Z 08010G20KT 040V140 9999 FEW016 OVC020 01/M02 Q0995=
200911041620 METAR ESMX 041620Z 08010KT 030V120 9999 FEW017 SCT020 BKN035 01/M02 Q0995=
200911041550 METAR ESMX 041550Z 08009G21KT 040V130 9999 BKN014 OVC021 01/M02 Q0995=
200911041520 METAR ESMX 041520Z 07008KT 010V120 9999 FEW014 BKN017 OVC031 01/M02 Q0995=
200911041450 METAR ESMX 041450Z 08010KT 040V140 9999 BKN014 OVC020 01/M02 Q0996=
200911041420 METAR ESMX 041420Z 08008KT 040V140 9999 BKN015 OVC020 01/M02 Q0996=
200911041350 METAR ESMX 041350Z 08009KT 040V130 9999 -SN SCT015 OVC020 01/M02 Q0996=
200911041320 METAR ESMX 041320Z 08009KT 030V140 8000 -SN FEW017 SCT020 BKN025 01/M03 Q0996=
200911041250 METAR ESMX 041250Z 09009G23KT 040V150 9999 FEW020 SCT026 OVC043 01/M03 Q0996=
200911041220 METAR ESMX 041220Z 10009KT 040V150 9999 FEW021 BKN041 01/M03 Q0996=
200911041150 METAR ESMX 041150Z 10011KT 030V140 9999 FEW017 BKN040 01/M03 Q0997=
200911041120 METAR ESMX 041120Z 09010G21KT 050V160 9999 -SN FEW014 BKN017 OVC022 00/M02 Q0997=
200911041050 METAR ESMX 041050Z 09008KT 040V150 9999 -SN FEW018 BKN020 OVC027 00/M03 Q0997=
200911041020 METAR ESMX 041020Z 10009G19KT 020V140 9999 FEW022 SCT025 OVC034 01/M04 Q0998=
200911040950 METAR ESMX 040950Z 10008G19KT 020V160 9999 SCT023 BKN031 OVC037 01/M04 Q0998=
200911040920 METAR ESMX 040920Z 10010G23KT 050V150 9999 OVC023 01/M04 Q0998=
200911040850 METAR ESMX 040850Z 10012KT 050V160 9999 OVC024 01/M05 Q0998=
200911040820 METAR ESMX 040820Z 11010KT 060V160 9999 BKN024 01/M04 Q0998=
200911040750 METAR ESMX 040750Z 11010G21KT 050V170 9999 BKN023 01/M04 Q0999=
200911040720 METAR ESMX 040720Z 11009G20KT 030V160 9999 BKN023 01/M04 Q0999=
200911040650 METAR ESMX 040650Z 12009KT 060V170 9999 OVC020 01/M04 Q0999=
200911040620 METAR ESMX 040620Z 12009KT 050V160 9999 BKN022 01/M04 Q0999=
200911040550 METAR ESMX 040550Z 11009KT 070V160 9999 BKN022 01/M04 Q0999=
200911040520 METAR ESMX 040520Z 12008KT 040V170 9999 OVC020 01/M04 Q0999=
200911040450 METAR ESMX 040450Z 13011G22KT 030V170 9999 OVC020 01/M04 Q0999=
200911040420 METAR ESMX 040420Z AUTO 12008G18KT 070V170 9999NDV OVC021/// 00/M04 Q1000=
200911040350 METAR ESMX 040350Z AUTO 11015G26KT 070V160 9999NDV OVC021/// 00/M04 Q1000=
200911040320 METAR ESMX 040320Z AUTO 13012G23KT 030V180 9999NDV OVC020/// 00/M04 Q1000=
200911040250 METAR ESMX 040250Z AUTO 12009G19KT 050V200 9999NDV OVC019/// 00/M04 Q1000=
200911040220 METAR ESMX 040220Z AUTO 13011G23KT 080V200 9999NDV OVC018/// 01/M04 Q1000=
200911040150 METAR ESMX 040150Z AUTO 13010G21KT 060V180 9999NDV OVC019/// 01/M04 Q1001=
200911040120 METAR ESMX 040120Z AUTO 12013KT 070V160 9999NDV OVC020/// 01/M04 Q1001=
200911040050 METAR ESMX 040050Z 11009G21KT 060V160 9999 OVC019 01/M03 Q1001=
200911040020 METAR ESMX 040020Z 13008KT 040V180 9999 OVC019 02/M02 Q1001=
200911032350 METAR ESMX 032350Z VRB09KT 9999 OVC020 02/M02 Q1001=
200911032320 METAR ESMX 032320Z 12010G21KT 040V170 9999 OVC020 02/M03 Q1002=
200911032250 METAR ESMX 032250Z 14011G22KT 070V170 9999 OVC020 02/M03 Q1002=
200911032220 METAR ESMX 032220Z 13009KT 080V200 9999 OVC020 02/M02 Q1002=
200911032150 METAR ESMX 032150Z 14009KT 080V180 9999 OVC020 02/M02 Q1002=
200911032120 METAR ESMX 032120Z 14009KT 090V180 9999 OVC020 03/M02 Q1003=
200911032050 METAR ESMX 032050Z 14011KT 080V190 9999 OVC020 03/M02 Q1003=
200911032020 METAR ESMX 032020Z 14010KT 090V170 9999 BKN020 03/M01 Q1003=
200911031950 METAR ESMX 031950Z 14011KT 090V230 9999 OVC020 03/M01 Q1003=
200911031920 METAR ESMX 031920Z 14009G21KT 090V180 9999 OVC018 03/M01 Q1003=
200911031850 METAR ESMX 031850Z 14010KT 060V180 9999 FEW018 OVC020 03/M01 Q1003=
200911031820 METAR ESMX 031820Z 13009G20KT 070V170 9999 BKN017 03/M01 Q1003=
200911031750 METAR ESMX 031750Z 13008KT 070V200 9999 OVC017 03/M01 Q1003=
200911031720 METAR ESMX 031720Z 13009KT 080V170 9999 BKN017 03/M00 Q1003=
200911031650 METAR ESMX 031650Z 13008KT 080V190 9999 OVC017 03/M00 Q1003=
200911031620 METAR ESMX 031620Z 13010KT 060V180 9999 FEW018 OVC020 03/M00 Q1003=
200911031550 METAR ESMX 031550Z 13008KT 050V170 9999 FEW017 OVC020 03/M00 Q1003=
200911031520 METAR ESMX 031520Z VRB08KT 9999 BKN018 03/M00 Q1003=
200911031450 METAR ESMX 031450Z 13008KT 080V190 9999 FEW020 04/M00 Q1003=
200911031420 METAR ESMX 031420Z 12007KT 070V160 9999 FEW024 05/00 Q1003=
200911031350 METAR ESMX 031350Z 14008KT 100V180 9999 FEW022 05/00 Q1003=
200911031250 METAR ESMX 031250Z VRB09KT 9999 FEW021 05/00 Q1003=
200911031220 METAR ESMX 031220Z 13007KT 050V200 9999 FEW020 05/00 Q1003=
200911031150 METAR ESMX 031150Z 14008KT 100V170 9999 SCT017 05/01 Q1003=
200911031120 METAR ESMX 031120Z 14008KT 070V170 9999 BKN013 04/01 Q1004=
200911031050 METAR ESMX 031050Z 13007G17KT 070V190 9999 BKN013 04/01 Q1004=
200911031020 METAR ESMX 031020Z 12009KT 080V190 9999 BR FEW011 SCT014 BKN016 04/01 Q1004=
200911030950 METAR ESMX 030950Z 12006KT 060V190 9000 BR SCT012 BKN015 04/02 Q1004=
200911030920 METAR ESMX 030920Z 14007KT 080V200 9000 BR SCT010 OVC013 04/02 Q1004=
200911030850 METAR ESMX 030850Z 14008KT 090V190 8000 BR FEW010 BKN012 04/01 Q1004=
200911030820 METAR ESMX 030820Z 14007KT 070V170 8000 BR FEW011 BKN013 03/01 Q1004=
200911030750 METAR ESMX 030750Z 13007G17KT 080V190 8000 BR FEW010 OVC013 03/01 Q1004=
200911030720 METAR ESMX 030720Z 13006KT 070V190 7000 BR FEW009 OVC011 03/02 Q1004=
200911030650 METAR ESMX 030650Z 13005KT 100V170 6000 BR FEW009 OVC012 03/02 Q1004=
200911030620 METAR ESMX 030620Z 13006KT 080V170 5000 BR FEW008 SCT009 BKN011 04/02 Q1004=
200911030550 METAR ESMX 030550Z 14007KT 080V190 5000 BR FEW005 SCT007 BKN008 04/02 Q1004=
200911030520 METAR ESMX 030520Z 14008KT 110V200 3600 BR OVC004 04/03 Q1004=
200911030450 METAR ESMX 030450Z 13005KT 050V180 2000 BR FEW003 OVC004 04/03 Q1003=
200911030420 METAR ESMX 030420Z AUTO 13005KT 070V190 2100NDV BR FEW003/// OVC004/// 04/03 Q1003 REDZ=
200911030350 METAR ESMX 030350Z AUTO 13005KT 080V180 1900NDV BR BKN003/// OVC005/// 04/04 Q1003=
200911030320 METAR ESMX 030320Z AUTO 13006KT 060V200 3400NDV BR OVC003/// 05/04 Q1003=
200911030250 METAR ESMX 030250Z AUTO 13006KT 050V170 3700NDV BR OVC004/// 05/04 Q1003=
200911030220 METAR ESMX 030220Z AUTO 12005KT 060V170 4600NDV DZ FEW003/// OVC005/// 05/04 Q1003=
200911030150 METAR ESMX 030150Z AUTO 13004KT 070V170 3900NDV -DZ FEW002/// OVC004/// 05/04 Q1003=
200911030120 METAR ESMX 030120Z AUTO 13003KT 080V190 3000NDV -DZ OVC002/// 05/04 Q1003=
200911030050 METAR ESMX 030050Z 13003KT 070V170 3200 DZ OVC003 05/04 Q1003=
200911030020 METAR ESMX 030020Z 14004KT 110V180 4000 BR FEW004 BKN005 OVC007 05/04 Q1003=
200911022350 METAR ESMX 022350Z 14004KT 080V190 3900 -DZ OVC004 05/04 Q1003=
200911022320 METAR ESMX 022320Z 14004KT 100V190 3700 DZ SCT004 OVC006 05/04 Q1003=
200911022250 METAR ESMX 022250Z 14005KT 090V170 4100 DZ FEW004 BKN005 OVC007 05/04 Q1003=
200911022220 METAR ESMX 022220Z 14004KT 100V180 4300 -RA FEW004 OVC005 05/04 Q1003 REDZ=
200911022150 METAR ESMX 022150Z 14005KT 4000 DZ FEW004 OVC005 05/04 Q1003=
200911022120 METAR ESMX 022120Z 14004KT 110V190 4000 DZ BKN004 OVC008 05/04 Q1003=
200911022050 METAR ESMX 022050Z 15005KT 3900 -RA OVC004 04/04 Q1003=
200911022020 METAR ESMX 022020Z 15005KT 100V190 4100 -RA FEW002 OVC005 04/04 Q1003=
200911021950 METAR ESMX 021950Z 14005KT 3000 DZ BKN003 OVC005 04/03 Q1003=
200911021920 METAR ESMX 021920Z 15004KT 110V200 3000 -RA OVC004 04/03 Q1003=
200911021850 METAR ESMX 021850Z 14005KT 3700 BR FEW005 OVC006 04/03 Q1003=
200911021820 METAR ESMX 021820Z 15005KT 3500 -DZ OVC006 04/03 Q1003=
200911021750 METAR ESMX 021750Z 15006KT 100V190 4500 -RA BR OVC009 04/02 Q1003=
200911021720 METAR ESMX 021720Z 15005KT 050V180 7000 -RA OVC011 04/02 Q1002=
200911021650 METAR ESMX 021650Z 15005KT 110V180 8000 BR OVC012 04/02 Q1002=
200911021620 METAR ESMX 021620Z 14006KT 090V180 8000 -RA OVC013 04/02 Q1002=
200911021550 METAR ESMX 021550Z 14006KT 100V180 9999 -RA OVC013 04/02 Q1002=
200911021520 METAR ESMX 021520Z 14006KT 060V190 9999 -RA OVC013 04/01 Q1002=
200911021450 METAR ESMX 021450Z 15007KT 110V170 9999 -RA OVC014 04/01 Q1002=
200911021420 METAR ESMX 021420Z 14008KT 110V190 9999 OVC014 04/01 Q1002=
200911021350 METAR ESMX 021350Z 14008KT 100V170 9999 OVC015 04/01 Q1002=
200911021320 METAR ESMX 021320Z 14008KT 090V180 9999 OVC017 04/01 Q1002=
200911021250 METAR ESMX 021250Z 13009KT 080V190 9999 OVC016 04/01 Q1002=
200911021220 METAR ESMX 021220Z 14009KT 100V180 9999 BKN016 04/01 Q1002=
200911021150 METAR ESMX 021150Z 13008G18KT 090V180 9999 BKN017 04/01 Q1002=
200911021120 METAR ESMX 021120Z 14008KT 080V180 9999 FEW017 SCT019 BKN150 04/00 Q1003=
200911021050 METAR ESMX 021050Z 13008KT 080V170 9999 FEW018 BKN150 04/00 Q1003=
200911021020 METAR ESMX 021020Z 13010KT 080V190 9999 SCT016 BKN200 04/M00 Q1003=
200911020950 METAR ESMX 020950Z 13011G21KT 100V170 9999 SCT015 BKN200 04/M00 Q1004=
200911020920 METAR ESMX 020920Z 12009KT 060V170 9999 BKN016 03/M00 Q1004=
200911020850 METAR ESMX 020850Z 12008KT 050V160 9999 BKN015 03/00 Q1004=
200911020820 METAR ESMX 020820Z 12008KT 070V170 9999 BKN014 03/00 Q1005=
200911020750 METAR ESMX 020750Z 13009KT 040V190 9999 BKN015 03/M00 Q1005=
200911020720 METAR ESMX 020720Z 13009KT 080V170 9999 BKN015 03/M00 Q1005=
200911020650 METAR ESMX 020650Z 13010G20KT 070V180 9999 BKN015 03/M00 Q1006=
200911020620 METAR ESMX 020620Z 13010KT 050V180 9999 BKN015 03/M00 Q1006=
200911020550 METAR ESMX 020550Z 13010KT 080V170 9999 BKN016 03/M00 Q1006=
200911020520 METAR ESMX 020520Z 13010KT 080V180 9999 BKN016 03/M01 Q1007=
200911020450 METAR ESMX 020450Z 13010KT 070V180 9999 BKN016 03/M01 Q1007=
200911020420 METAR ESMX 020420Z 14011G24KT 080V190 9999 BKN016 BKN021 03/M00 Q1008=
200911020350 METAR ESMX 020350Z AUTO 14014KT 110V170 9999NDV OVC016/// 03/M00 Q1008=
200911020320 METAR ESMX 020320Z AUTO 14011KT 080V190 9999NDV OVC015/// 03/M00 Q1009=
200911020250 METAR ESMX 020250Z AUTO 14011G21KT 070V200 9999NDV OVC015/// 03/M00 Q1009=
200911020220 METAR ESMX 020220Z AUTO 14010G21KT 100V170 9999NDV OVC015/// 03/00 Q1009=
200911020150 METAR ESMX 020150Z AUTO 13009KT 080V170 9999NDV BKN016/// 03/00 Q1009=
200911020120 METAR ESMX 020120Z AUTO 14008KT 080V180 9999NDV OVC015/// 04/00 Q1010=
200911020050 METAR ESMX 020050Z 13009G19KT 080V180 9999 OVC015 04/00 Q1010=
200911020020 METAR ESMX 020020Z 14009KT 100V200 9999 OVC015 04/01 Q1011=
200911012350 METAR ESMX 012350Z 14009KT 090V200 9999 OVC015 04/01 Q1011=
200911012320 METAR ESMX 012320Z 14009KT 060V190 9999 OVC015 04/01 Q1012=
200911012250 METAR ESMX 012250Z 15009KT 110V190 9999 OVC015 04/01 Q1012=
200911012220 METAR ESMX 012220Z 13008KT 080V190 9999 BKN016 04/01 Q1013=
200911012150 METAR ESMX 012150Z 13007KT 080V170 9999 SCT017 BKN089 04/01 Q1013=
200911012120 METAR ESMX 012120Z 13007KT 080V190 9999 SCT018 03/01 Q1013=
200911012050 METAR ESMX 012050Z 14007KT 100V240 9999 SCT019 03/01 Q1014=
200911012020 METAR ESMX 012020Z 13007KT 080V190 9999 SCT019 03/01 Q1014=
200911011950 METAR ESMX 011950Z 14007KT 070V190 9999 FEW019 BKN083 03/01 Q1015=
200911011920 METAR ESMX 011920Z 14008KT 100V180 9999 FEW014 BKN084 03/01 Q1015=
200911011850 METAR ESMX 011850Z 13007KT 070V170 9999 FEW011 SCT019 BKN083 03/01 Q1015=
200911011820 METAR ESMX 011820Z 13007KT 080V180 9999 FEW012 SCT014 BKN018 03/01 Q1016=
200911011750 METAR ESMX 011750Z 14006KT 080V180 9999 FEW014 BKN017 03/01 Q1016=
200911011720 METAR ESMX 011720Z 14007KT 080V190 9999 BKN015 03/01 Q1016=
200911011650 METAR ESMX 011650Z 14007KT 100V200 9999 BKN015 03/01 Q1017=
200911011620 METAR ESMX 011620Z 13006KT 030V170 9999 FEW017 03/00 Q1017=
200911011550 METAR ESMX 011550Z 14007KT 070V180 CAVOK 03/00 Q1017=
200911011520 METAR ESMX 011520Z 14005KT 090V190 CAVOK 03/00 Q1018=
200911011450 METAR ESMX 011450Z 14005KT 100V190 9999 FEW015 04/00 Q1018=
200911011420 METAR ESMX 011420Z 13006KT 090V180 9999 FEW015 04/01 Q1018=
200911011350 METAR ESMX 011350Z 13004KT 070V210 9999 FEW015 04/02 Q1019=
200911011320 METAR ESMX 011320Z 12005KT 070V170 9999 FEW014 04/02 Q1019=
200911011250 METAR ESMX 011250Z AUTO 13007KT 060V180 9999NDV FEW015/// 04/01 Q1020=
200911011220 METAR ESMX 011220Z AUTO 13006KT 060V190 9999NDV SCT022/// 04/02 Q1020=
