##########################################################
# Query made at 04/19/2024 21:12:02 UTC
# Time interval: from 09/01/2009 12:00  to 09/30/2009 12:59  UTC
##########################################################

##########################################################
# ESMX, Vaxjo (Sweden)
# WMO index: 02641. WIGOS ID: 0-20000-0-02648
# Latitude 56-51N. Longitude 014-50E. Altitude 199 m.
##########################################################

200909301250 METAR ESMX 301250Z 22013KT 180V250 9999 FEW045 SCT055 12/01 Q1009=
200909301220 METAR ESMX 301220Z 24011KT 200V270 9999 FEW043 SCT055 11/02 Q1009=
200909301150 METAR ESMX 301150Z 24008KT 200V280 9999 FEW044 SCT060 12/03 Q1010=
200909301120 METAR ESMX 301120Z 23010KT 200V260 9999 FEW040 SCT065 12/03 Q1010=
200909301050 METAR ESMX 301050Z 24009KT 200V270 9999 FEW035 SCT060 BKN080 12/03 Q1011=
200909301020 METAR ESMX 301020Z 21009KT 170V260 9999 FEW037 SCT058 12/03 Q1011=
200909300950 METAR ESMX 300950Z 23009KT 200V270 CAVOK 12/03 Q1011=
200909300920 METAR ESMX 300920Z 21008KT 170V260 CAVOK 11/03 Q1012=
200909300850 METAR ESMX 300850Z 21008KT CAVOK 10/03 Q1012=
200909300820 METAR ESMX 300820Z 23007KT CAVOK 08/03 Q1012=
200909300750 METAR ESMX 300750Z 18004KT CAVOK 07/03 Q1012=
200909300720 METAR ESMX 300720Z 20004KT CAVOK 05/03 Q1012=
200909300650 METAR ESMX 300650Z 23004KT CAVOK 03/02 Q1012=
200909300620 METAR ESMX 300620Z VRB02KT CAVOK 01/M00 Q1013=
200909300550 METAR ESMX 300550Z 25003KT 170V290 CAVOK 00/M01 Q1012=
200909300520 METAR ESMX 300520Z VRB02KT CAVOK 00/M01 Q1012=
200909300450 METAR ESMX 300450Z 26002KT CAVOK M00/M01 Q1013=
200909300420 METAR ESMX 300420Z 26003KT CAVOK M00/M01 Q1013=
200909300350 METAR ESMX 300350Z 26003KT CAVOK M02/M03 Q1012=
200909300320 METAR ESMX 300320Z 26002KT CAVOK M00/M01 Q1012=
200909300250 METAR ESMX 300250Z AUTO 25003KT 9999NDV NCD M01/M01 Q1012=
200909300220 METAR ESMX 300220Z AUTO 25001KT 9999NDV NCD 00/M01 Q1012=
200909300150 METAR ESMX 300150Z AUTO 24003KT 9999NDV NCD 01/M00 Q1012=
200909300120 METAR ESMX 300120Z AUTO 25003KT 9999NDV NCD 01/M00 Q1012=
200909300050 METAR ESMX 300050Z AUTO 26003KT 9999NDV NCD 02/00 Q1012=
200909300020 METAR ESMX 300020Z AUTO VRB02KT 9999NDV NCD 02/00 Q1012=
200909292350 METAR ESMX 292350Z AUTO 30003KT 270V340 9999NDV NCD 01/M00 Q1012=
200909292320 METAR ESMX 292320Z 29005KT CAVOK 03/01 Q1012=
200909292250 METAR ESMX 292250Z 28005KT CAVOK 03/01 Q1012=
200909292220 METAR ESMX 292220Z 26006KT CAVOK 02/00 Q1011=
200909292150 METAR ESMX 292150Z 26004KT CAVOK 02/00 Q1011=
200909292120 METAR ESMX 292120Z 27004KT CAVOK 03/01 Q1011=
200909292050 METAR ESMX 292050Z 28004KT CAVOK 04/01 Q1011=
200909292020 METAR ESMX 292020Z 27004KT CAVOK 04/01 Q1010=
200909291950 METAR ESMX 291950Z 28004KT CAVOK 04/01 Q1010=
200909291920 METAR ESMX 291920Z 28004KT CAVOK 05/01 Q1010=
200909291850 METAR ESMX 291850Z 27005KT CAVOK 06/01 Q1010=
200909291820 METAR ESMX 291820Z 28004KT CAVOK 06/01 Q1010=
200909291750 METAR ESMX 291750Z 29004KT CAVOK 07/01 Q1009=
200909291720 METAR ESMX 291720Z 28004KT CAVOK 08/02 Q1009=
200909291650 METAR ESMX 291650Z 28004KT 250V320 CAVOK 08/02 Q1009=
200909291620 METAR ESMX 291620Z 29006KT CAVOK 09/01 Q1008=
200909291550 METAR ESMX 291550Z 29009KT 240V320 CAVOK 10/01 Q1008=
200909291520 METAR ESMX 291520Z 27010KT 230V300 9999 FEW048 11/00 Q1008=
200909291450 METAR ESMX 291450Z 29009KT 250V320 9999 FEW046 11/01 Q1008=
200909291420 METAR ESMX 291420Z 26009KT 230V290 9999 BKN047 12/01 Q1008=
200909291350 METAR ESMX 291350Z 28010KT 250V310 CAVOK 12/01 Q1008=
200909291320 METAR ESMX 291320Z 29011KT 250V330 CAVOK 12/01 Q1008=
200909291250 METAR ESMX 291250Z 28012KT 250V330 CAVOK 11/M00 Q1008=
200909291220 METAR ESMX 291220Z 30013KT 250V330 9999 FEW045 11/M00 Q1008=
200909291150 METAR ESMX 291150Z 28012KT 240V330 9999 FEW040 11/M00 Q1008=
200909291120 METAR ESMX 291120Z 29012KT 260V330 9999 FEW040 10/M01 Q1008=
200909291050 METAR ESMX 291050Z 28011KT 250V320 CAVOK 10/00 Q1008=
200909291020 METAR ESMX 291020Z 30010KT 250V340 CAVOK 10/M01 Q1008=
200909290950 METAR ESMX 290950Z 29011KT CAVOK 10/M01 Q1008=
200909290920 METAR ESMX 290920Z 29007KT 250V340 CAVOK 09/00 Q1008=
200909290850 METAR ESMX 290850Z 29008KT CAVOK 08/01 Q1008=
200909290820 METAR ESMX 290820Z 28005KT 240V330 CAVOK 07/02 Q1009=
200909290750 METAR ESMX 290750Z 27005KT 230V320 CAVOK 06/03 Q1008=
200909290720 METAR ESMX 290720Z 25005KT 210V300 CAVOK 05/03 Q1008=
200909290650 METAR ESMX 290650Z 26004KT CAVOK 04/03 Q1008=
200909290620 METAR ESMX 290620Z 27004KT CAVOK 03/02 Q1008=
200909290550 METAR ESMX 290550Z 27004KT 9999 NSC 02/02 Q1008=
200909290520 METAR ESMX 290520Z 27005KT CAVOK 02/01 Q1007=
200909290450 METAR ESMX 290450Z 25005KT CAVOK 01/01 Q1007=
200909290420 METAR ESMX 290420Z 26004KT CAVOK 02/01 Q1007=
200909290350 METAR ESMX 290350Z 26003KT 220V310 CAVOK 03/01 Q1006=
200909290320 METAR ESMX 290320Z AUTO 31004KT 9999NDV NCD 04/02 Q1006=
200909290250 METAR ESMX 290250Z AUTO 31004KT 9999NDV NCD 04/02 Q1006=
200909290220 METAR ESMX 290220Z AUTO 32006KT 280V340 9999NDV NCD 05/03 Q1006=
200909290150 METAR ESMX 290150Z AUTO 32007KT 9999NDV FEW079/// 06/04 Q1006=
200909290120 METAR ESMX 290120Z AUTO 31008KT 9999NDV BKN078/// 06/04 Q1005=
200909290050 METAR ESMX 290050Z AUTO 31008KT 290V350 9999NDV BKN066/// 06/04 Q1005=
200909290020 METAR ESMX 290020Z AUTO 29007KT 250V320 9999NDV BKN061/// 06/04 Q1004=
200909282350 METAR ESMX 282350Z AUTO 29008KT 260V330 9999NDV FEW045/// SCT068/// 06/05 Q1004=
200909282320 METAR ESMX 282320Z 31013KT 280V350 9999 -RA FEW017 SCT030 BKN040 07/04 Q1004=
200909282250 METAR ESMX 282250Z 27010KT 240V310 9999 FEW025 SCT045 10/07 Q1003=
200909282220 METAR ESMX 282220Z 27012KT 240V300 9999 FEW022 BKN045 10/07 Q1003=
200909282150 METAR ESMX 282150Z 27011KT 230V300 9999 FEW020 BKN025 BKN045 11/07 Q1003=
200909282120 METAR ESMX 282120Z 26010KT 230V290 9999 FEW021 BKN043 11/07 Q1003=
200909282050 METAR ESMX 282050Z 27010KT 230V300 9999 FEW019 BKN023 OVC043 11/07 Q1003=
200909282020 METAR ESMX 282020Z 26010KT 210V290 9999 FEW020 SCT024 BKN031 10/07 Q1003=
200909281950 METAR ESMX 281950Z 25010KT 210V300 9999 FEW020 SCT025 10/07 Q1003=
200909281920 METAR ESMX 281920Z 26012G22KT 230V290 9999 FEW017 BKN020 BKN036 11/07 Q1004=
200909281850 METAR ESMX 281850Z 26011KT 9999 FEW019 BKN024 BKN035 11/07 Q1004=
200909281820 METAR ESMX 281820Z 26011KT 9999 FEW028 BKN035 11/06 Q1004=
200909281750 METAR ESMX 281750Z 26012KT 230V290 9999 FEW026 SCT035 11/06 Q1004=
200909281720 METAR ESMX 281720Z 27012KT 9999 FEW028 SCT035 11/07 Q1005=
200909281650 METAR ESMX 281650Z 25013KT 210V280 9999 FEW029 SCT036 12/07 Q1005=
200909281620 METAR ESMX 281620Z 26011G21KT 240V300 9999 FEW028 BKN032 12/07 Q1005=
200909281550 METAR ESMX 281550Z 27012KT 220V290 9999 FEW036 SCT050 12/07 Q1005=
200909281520 METAR ESMX 281520Z 27015KT 230V320 9999 FEW035 SCT055 13/06 Q1005=
200909281450 METAR ESMX 281450Z 27014KT 240V320 9999 FEW035 SCT040 13/06 Q1005=
200909281420 METAR ESMX 281420Z 26015KT 9999 FEW035 SCT045 13/06 Q1006=
200909281350 METAR ESMX 281350Z 28018G29KT 230V310 9999 FEW036 SCT040 13/06 Q1006=
200909281320 METAR ESMX 281320Z 27012G23KT 240V320 9999 FEW030 SCT035 13/07 Q1006=
200909281250 METAR ESMX 281250Z 27012KT 220V300 9999 FEW030 BKN037 13/07 Q1007=
200909281220 METAR ESMX 281220Z 27013KT 240V320 9999 FEW026 SCT032 BKN037 14/07 Q1007=
200909281150 METAR ESMX 281150Z 28015KT 250V310 9999 FEW021 SCT027 BKN030 14/08 Q1007=
200909281120 METAR ESMX 281120Z 26014KT 230V290 9999 SCT020 BKN035 13/10 Q1007=
200909281050 METAR ESMX 281050Z 25011KT 210V290 9999 SCT020 BKN027 14/10 Q1007=
200909281020 METAR ESMX 281020Z 27015KT 9999 SCT018 BKN030 13/10 Q1007=
200909280950 METAR ESMX 280950Z 27013KT 230V300 9999 SCT012 BKN025 14/11 Q1007=
200909280920 METAR ESMX 280920Z 27010KT 210V300 9999 SCT010 BKN020 14/12 Q1008=
200909280850 METAR ESMX 280850Z 26013KT 230V290 9999 FEW011 SCT016 BKN020 14/12 Q1008=
200909280820 METAR COR ESMX 280820Z 26011KT 230V310 9999 FEW009 SCT014 BKN017 14/12 Q1008 REDZ=
200909280750 METAR ESMX 280750Z 26013KT 210V300 9999 FEW008 BKN012 BKN019 14/12 Q1008=
200909280720 METAR ESMX 280720Z 25010KT 210V280 9999 DZ FEW007 BKN010 14/13 Q1008=
200909280650 METAR ESMX 280650Z 25009KT 210V280 9000 -RA SCT005 BKN008 13/12 Q1008=
200909280620 METAR ESMX 280620Z 22010KT 8000 -DZ SCT005 BKN007 OVC009 13/12 Q1008=
200909280550 METAR ESMX 280550Z 21009KT 7000 -RA SCT006 BKN009 13/12 Q1009=
200909280520 METAR ESMX 280520Z 23010KT 8000 -RA SCT005 BKN010 13/12 Q1009=
200909280450 METAR ESMX 280450Z 23009KT 200V260 7000 -RA FEW005 SCT010 BKN015 13/12 Q1010=
200909280420 METAR ESMX 280420Z 23010KT 9000 -RA FEW007 SCT010 BKN020 13/12 Q1010=
200909280350 METAR ESMX 280350Z 23010KT 9999 -RA FEW008 SCT015 13/12 Q1011=
200909280320 METAR ESMX 280320Z AUTO 24012KT 210V290 9000NDV DZ BKN010/// 13/11 Q1011=
200909280250 METAR ESMX 280250Z AUTO 25011KT 210V280 9999NDV OVC012/// 14/11 Q1012=
200909280220 METAR ESMX 280220Z AUTO 24011KT 210V290 9999NDV OVC013/// 14/11 Q1012=
200909280150 METAR ESMX 280150Z AUTO 24010KT 210V280 9999NDV OVC013/// 14/11 Q1012=
200909280120 METAR ESMX 280120Z AUTO 23010KT 190V300 9999NDV FEW014/// BKN016/// OVC021/// 14/11 Q1013=
200909280050 METAR ESMX 280050Z AUTO 23010KT 9999NDV BKN015/// OVC022/// 14/11 Q1013=
200909280020 METAR ESMX 280020Z 23012KT 9999 FEW019 OVC021 14/11 Q1014=
200909272350 METAR ESMX 272350Z 24010G20KT 200V260 9999 FEW016 BKN022 14/11 Q1014=
200909272320 METAR ESMX 272320Z 24011KT 210V280 9999 FEW014 BKN020 14/11 Q1014=
200909272250 METAR ESMX 272250Z 22008KT 9999 FEW014 SCT020 13/11 Q1014=
200909272220 METAR ESMX 272220Z 23010KT 9999 FEW012 BKN020 14/11 Q1015=
200909272150 METAR ESMX 272150Z 23009KT 9999 BKN014 OVC020 13/11 Q1015=
200909272120 METAR ESMX 272120Z 23008KT 9999 FEW014 SCT020 OVC035 13/11 Q1016=
200909272050 METAR ESMX 272050Z 22009KT 9999 SCT013 OVC033 13/11 Q1016=
200909272020 METAR ESMX 272020Z 23008KT 200V270 9999 BKN014 OVC019 13/11 Q1017=
200909271950 METAR ESMX 271950Z 23008KT 200V260 9999 FEW015 OVC025 13/11 Q1017=
200909271920 METAR ESMX 271920Z 21009KT 180V240 9999 FEW017 OVC025 13/10 Q1017=
200909271850 METAR ESMX 271850Z 22009KT 170V240 9999 FEW018 OVC025 13/10 Q1017=
200909271820 METAR ESMX 271820Z 23009KT 9999 OVC023 13/10 Q1018=
200909271750 METAR ESMX 271750Z 22008KT 9999 OVC023 13/09 Q1018=
200909271720 METAR ESMX 271720Z 24008KT 9999 OVC021 13/09 Q1018=
200909271650 METAR ESMX 271650Z 24009KT 9999 OVC019 13/09 Q1018=
200909271620 METAR ESMX 271620Z 26007KT 230V290 9999 FEW021 OVC024 14/09 Q1018=
200909271550 METAR ESMX 271550Z 24009KT 210V280 9999 OVC022 14/09 Q1019=
200909271520 METAR ESMX 271520Z 25009KT 220V280 9999 BKN023 14/09 Q1019=
200909271450 METAR ESMX 271450Z 25010KT 210V280 9999 OVC022 14/09 Q1019=
200909271420 METAR ESMX 271420Z 23011KT 160V260 9999 OVC021 14/09 Q1019=
200909271350 METAR ESMX 271350Z 24009KT 210V280 9999 OVC021 14/09 Q1019=
200909271320 METAR ESMX 271320Z 26011KT 230V290 9999 OVC022 14/09 Q1020=
200909271250 METAR ESMX 271250Z 26012KT 220V290 9999 OVC020 14/09 Q1020=
200909271220 METAR ESMX 271220Z 27012KT 230V300 9999 OVC020 14/09 Q1020=
200909271150 METAR ESMX 271150Z AUTO 24010KT 200V290 9999NDV OVC020/// 14/09 Q1020=
200909271120 METAR ESMX 271120Z AUTO 25010KT 210V280 9999NDV FEW015/// OVC018/// 13/10 Q1021=
200909271050 METAR ESMX 271050Z AUTO 26011KT 200V290 9999NDV OVC015/// 13/10 Q1021=
200909271020 METAR ESMX 271020Z AUTO 24011KT 200V280 9999NDV OVC015/// 13/10 Q1021=
200909270950 METAR ESMX 270950Z AUTO 24010KT 190V290 9999NDV OVC017/// 14/10 Q1021=
200909270920 METAR ESMX 270920Z AUTO 24010KT 190V290 9999NDV OVC019/// 14/09 Q1021=
200909270850 METAR ESMX 270850Z AUTO 26009KT 210V290 9999NDV OVC019/// 13/09 Q1021=
200909270820 METAR ESMX 270820Z AUTO 24009KT 190V280 9999NDV OVC020/// 13/09 Q1021=
200909270750 METAR ESMX 270750Z AUTO 23010KT 200V270 9999NDV OVC018/// 13/09 Q1021=
200909270720 METAR ESMX 270720Z AUTO 25009KT 210V290 9999NDV OVC020/// 13/09 Q1021=
200909270650 METAR ESMX 270650Z AUTO 24008KT 210V280 9999NDV OVC020/// 13/09 Q1021=
200909270620 METAR ESMX 270620Z AUTO 25007KT 210V280 9999NDV OVC020/// 13/09 Q1021=
200909270550 METAR ESMX 270550Z AUTO 24009KT 190V280 9999NDV OVC018/// 13/09 Q1021=
200909270520 METAR ESMX 270520Z AUTO 25010KT 220V290 9999NDV OVC017/// 13/09 Q1021=
200909270450 METAR ESMX 270450Z AUTO 25008G18KT 200V280 9999NDV OVC016/// 13/09 Q1021=
200909270420 METAR ESMX 270420Z AUTO 25009KT 220V280 9999NDV OVC016/// 13/09 Q1021=
200909270350 METAR ESMX 270350Z AUTO 25009KT 210V290 9999NDV OVC018/// 13/09 Q1021=
200909270320 METAR ESMX 270320Z AUTO 26010KT 220V310 9999NDV OVC017/// 13/09 Q1021=
200909270250 METAR ESMX 270250Z AUTO 24008KT 200V280 9999NDV OVC018/// 13/09 Q1022=
200909270220 METAR ESMX 270220Z AUTO 25009KT 220V280 9999NDV OVC018/// 13/09 Q1022=
200909270150 METAR ESMX 270150Z AUTO 24006KT 190V260 9999NDV OVC020/// 13/09 Q1022=
200909270120 METAR ESMX 270120Z AUTO 27011KT 240V320 9999NDV OVC020/// 13/09 Q1022=
200909270050 METAR ESMX 270050Z AUTO 25008KT 170V290 9999NDV OVC020/// 13/09 Q1022=
200909270020 METAR ESMX 270020Z AUTO 26008G18KT 230V300 9999NDV OVC021/// 13/09 Q1022=
200909262350 METAR ESMX 262350Z AUTO 25009KT 9999NDV OVC021/// 13/09 Q1022=
200909262320 METAR ESMX 262320Z AUTO 25009KT 220V290 9999NDV OVC022/// 13/09 Q1022=
200909262250 METAR ESMX 262250Z AUTO 23008KT 9999NDV OVC023/// 13/09 Q1022=
200909262220 METAR ESMX 262220Z AUTO 25009KT 210V280 9999NDV OVC023/// 13/09 Q1023=
200909262150 METAR ESMX 262150Z AUTO 25008KT 220V290 9999NDV OVC021/// 14/10 Q1023=
200909262120 METAR ESMX 262120Z AUTO 25007KT 220V330 9999NDV OVC020/// 14/10 Q1023=
200909262050 METAR ESMX 262050Z AUTO 26007KT 230V290 9999NDV OVC020/// 14/10 Q1023=
200909262020 METAR ESMX 262020Z AUTO 25008KT 160V280 9999NDV OVC020/// 14/10 Q1023=
200909261950 METAR ESMX 261950Z AUTO 25008KT 210V300 9999NDV OVC019/// 14/10 Q1023=
200909261920 METAR ESMX 261920Z AUTO 26007KT 230V290 9999NDV OVC020/// 14/10 Q1023=
200909261850 METAR ESMX 261850Z AUTO 25008KT 9999NDV OVC022/// 14/10 Q1023=
200909261820 METAR ESMX 261820Z AUTO 26010KT 220V290 9999NDV OVC023/// 14/10 Q1022=
200909261750 METAR ESMX 261750Z 25008KT 9999 FEW020 OVC024 14/10 Q1022=
200909261720 METAR ESMX 261720Z 25007KT 210V280 9999 FEW021 OVC024 13/10 Q1022=
200909261650 METAR ESMX 261650Z 23007KT 200V270 9999 FEW019 OVC024 14/10 Q1022=
200909261620 METAR ESMX 261620Z 23007KT 9999 OVC022 14/10 Q1022=
200909261550 METAR ESMX 261550Z 24008KT 210V290 9999 OVC022 14/10 Q1022=
200909261520 METAR ESMX 261520Z 24008KT 200V280 9999 FEW020 OVC023 14/10 Q1022=
200909261450 METAR ESMX 261450Z 25009KT 210V280 9999 OVC018 14/10 Q1022=
200909261420 METAR ESMX 261420Z 26008KT 230V290 9999 FEW016 SCT019 OVC022 14/10 Q1022=
200909261350 METAR ESMX 261350Z 25009KT 210V290 9999 FEW013 BKN016 OVC019 14/11 Q1022=
200909261320 METAR ESMX 261320Z 25011KT 210V280 9999 OVC013 14/11 Q1022=
200909261250 METAR ESMX 261250Z 24008KT 210V290 9999 OVC014 14/11 Q1022=
200909261220 METAR ESMX 261220Z 25007KT 200V290 9999 OVC014 14/11 Q1022=
200909261150 METAR ESMX 261150Z 26009KT 230V290 9999 BKN015 OVC019 14/10 Q1022=
200909261120 METAR ESMX 261120Z 27010KT 9999 FEW014 SCT018 OVC020 13/11 Q1022 REDZ=
200909261050 METAR ESMX 261050Z 27009KT 230V290 4800 DZ FEW008 OVC010 13/11 Q1022=
200909261020 METAR ESMX 261020Z 26007KT 230V290 6000 BR OVC010 13/11 Q1022=
200909260950 METAR ESMX 260950Z 26008KT 230V290 9999 OVC012 14/11 Q1022=
200909260920 METAR ESMX 260920Z 27011KT 9999 BKN013 OVC016 13/11 Q1022=
200909260850 METAR ESMX 260850Z 26013KT 9999 FEW009 SCT011 OVC014 13/10 Q1022=
200909260820 METAR ESMX 260820Z 26010KT 220V290 9999 FEW009 BKN011 OVC014 13/11 Q1022=
200909260750 METAR ESMX 260750Z 25010KT 210V280 9999 BKN010 OVC016 13/11 Q1022=
200909260720 METAR ESMX 260720Z 26008KT 9999 FEW009 OVC010 13/11 Q1021=
200909260650 METAR ESMX 260650Z 26008KT 9999 BKN009 OVC014 13/11 Q1021=
200909260620 METAR ESMX 260620Z AUTO 26008KT 230V290 9000NDV BR FEW006/// SCT009/// BKN014/// 12/11 Q1021=
200909260550 METAR ESMX 260550Z AUTO 26009KT 6000NDV BR FEW007/// SCT008/// OVC010/// 12/11 Q1021=
200909260520 METAR ESMX 260520Z AUTO 25007KT 190V290 9999NDV FEW009/// BKN011/// OVC015/// 13/11 Q1021=
200909260450 METAR ESMX 260450Z AUTO 27009KT 9999NDV OVC010/// 13/11 Q1020=
200909260420 METAR ESMX 260420Z AUTO 26008KT 230V290 9999NDV OVC010/// 13/11 Q1020=
200909260350 METAR ESMX 260350Z AUTO 23007KT 200V280 9999NDV FEW011/// OVC017/// 13/11 Q1020=
200909260320 METAR ESMX 260320Z AUTO 27010KT 9999NDV SCT010/// OVC015/// 13/11 Q1020=
200909260250 METAR ESMX 260250Z AUTO 25008KT 9999NDV OVC011/// 13/11 Q1020=
200909260220 METAR ESMX 260220Z AUTO 26008KT 230V300 9999NDV OVC013/// 13/10 Q1020=
200909260150 METAR ESMX 260150Z AUTO 26008KT 9999NDV OVC014/// 13/10 Q1020=
200909260120 METAR ESMX 260120Z AUTO 26008KT 9999NDV OVC014/// 13/10 Q1020=
200909260050 METAR ESMX 260050Z AUTO 28011KT 250V320 9999NDV OVC013/// 13/10 Q1020=
200909260020 METAR ESMX 260020Z AUTO 25008KT 210V290 9999NDV OVC014/// 13/10 Q1020=
200909252350 METAR ESMX 252350Z AUTO 24006KT 210V290 9999NDV OVC015/// 13/10 Q1020=
200909252320 METAR ESMX 252320Z AUTO 27007KT 240V310 9999NDV OVC016/// 13/10 Q1020=
200909252250 METAR ESMX 252250Z AUTO 27007KT 240V300 9999NDV OVC017/// 13/10 Q1020=
200909252220 METAR ESMX 252220Z AUTO 27009KT 240V310 9999NDV OVC017/// 13/10 Q1020=
200909252150 METAR ESMX 252150Z AUTO 27010KT 240V310 9999NDV OVC016/// 13/10 Q1020=
200909252120 METAR ESMX 252120Z AUTO 27008KT 9999NDV OVC016/// 13/10 Q1020=
200909252050 METAR ESMX 252050Z AUTO 26010KT 240V300 9999NDV OVC016/// 14/10 Q1020=
200909252020 METAR ESMX 252020Z AUTO 26009KT 220V290 9999NDV OVC018/// 14/10 Q1020=
200909251950 METAR ESMX 251950Z AUTO 27011KT 230V330 9999NDV OVC018/// 14/10 Q1020=
200909251920 METAR ESMX 251920Z AUTO 26009KT 9999NDV OVC019/// 14/10 Q1020=
200909251850 METAR ESMX 251850Z AUTO 27010KT 250V320 9999NDV OVC019/// 14/10 Q1020=
200909251820 METAR ESMX 251820Z 26012KT 9999 OVC020 14/10 Q1020=
200909251750 METAR ESMX 251750Z 27011KT 230V300 9999 OVC020 14/10 Q1019=
200909251720 METAR ESMX 251720Z 26010KT 230V290 9999 OVC019 14/10 Q1019=
200909251650 METAR ESMX 251650Z 26009KT 230V300 9999 OVC020 14/11 Q1019=
200909251620 METAR ESMX 251620Z 26009KT 9999 BKN020 14/11 Q1019=
200909251550 METAR ESMX 251550Z 24010KT 200V260 9999 FEW018 OVC020 14/11 Q1018=
200909251520 METAR ESMX 251520Z 25009KT 190V300 9999 OVC018 14/11 Q1019=
200909251450 METAR ESMX 251450Z 27009KT 240V300 9999 OVC017 15/11 Q1019=
200909251420 METAR ESMX 251420Z 26011KT 210V290 9999 OVC017 15/11 Q1018=
200909251350 METAR ESMX 251350Z 28012KT 230V300 9999 OVC017 15/11 Q1018=
200909251320 METAR ESMX 251320Z 26009KT 240V300 9999 OVC016 15/11 Q1018=
200909251250 METAR ESMX 251250Z 27010KT 230V290 9999 BKN015 OVC020 15/11 Q1018=
200909251220 METAR ESMX 251220Z 27010KT 220V300 9999 OVC015 15/11 Q1018=
200909251150 METAR ESMX 251150Z 26010KT 210V310 9999 OVC014 14/11 Q1018=
200909251120 METAR ESMX 251120Z 25009KT 200V290 9999 OVC013 14/11 Q1018=
200909251050 METAR ESMX 251050Z 27011KT 230V310 9999 OVC015 14/11 Q1018=
200909251020 METAR ESMX 251020Z 27011KT 230V300 9999 OVC015 14/11 Q1018=
200909250950 METAR ESMX 250950Z 26009KT 220V300 9999 BKN015 14/11 Q1018=
200909250920 METAR ESMX 250920Z 27008KT 240V320 9999 BKN015 14/11 Q1018=
200909250850 METAR ESMX 250850Z 27009KT 240V310 9999 BKN015 13/11 Q1017=
200909250820 METAR ESMX 250820Z 28008KT 230V320 9999 FEW012 BKN018 13/10 Q1017=
200909250750 METAR ESMX 250750Z 27007KT 230V310 9999 FEW013 BKN020 12/11 Q1017=
200909250720 METAR ESMX 250720Z 25006KT 210V280 9999 FEW015 SCT020 12/10 Q1017=
200909250650 METAR ESMX 250650Z 25005G20KT 210V280 9999 FEW015 BKN020 11/10 Q1017=
200909250620 METAR ESMX 250620Z 22005KT 190V260 9999 FEW013 BKN020 11/10 Q1017=
200909250550 METAR ESMX 250550Z 22005KT 180V250 9999 FEW010 BKN020 10/09 Q1017=
200909250520 METAR ESMX 250520Z 21005KT 180V250 9999 FEW008 SCT018 BKN020 10/09 Q1017=
200909250450 METAR ESMX 250450Z 23005KT 9999 FEW005 SCT014 BKN020 09/09 Q1017=
200909250420 METAR ESMX 250420Z 23005KT 8000 BR FEW002 SCT005 BKN020 09/08 Q1016=
200909250350 METAR ESMX 250350Z 22005KT 7000 BR OVC002 08/08 Q1016=
200909250320 METAR ESMX 250320Z AUTO 23005KT 5000NDV BR BKN001/// OVC008/// 08/08 Q1017=
200909250250 METAR ESMX 250250Z AUTO 23004KT 4700NDV BR SCT002/// BKN008/// BKN009/// 08/07 Q1016=
200909250220 METAR ESMX 250220Z AUTO 22004KT 5000NDV BR SCT002/// BKN008/// 07/07 Q1016=
200909250150 METAR ESMX 250150Z AUTO 23005KT 5000NDV BR FEW003/// 07/07 Q1016=
200909250120 METAR ESMX 250120Z AUTO 19004KT 3000NDV BR NCD 07/06 Q1016=
200909250050 METAR ESMX 250050Z AUTO 21003KT 8000NDV BR NCD 08/07 Q1016=
200909250020 METAR ESMX 250020Z AUTO 22003KT 190V250 9000NDV NCD 07/07 Q1016=
200909242350 METAR ESMX 242350Z AUTO 23003KT 9999NDV NCD 08/07 Q1016=
200909242320 METAR ESMX 242320Z AUTO 24004KT 200V290 9999NDV NCD 08/07 Q1015=
200909242250 METAR ESMX 242250Z 25004KT 220V280 CAVOK 08/07 Q1015=
200909242220 METAR ESMX 242220Z 26004KT CAVOK 08/07 Q1015=
200909242150 METAR ESMX 242150Z 25005KT CAVOK 08/07 Q1015=
200909242120 METAR ESMX 242120Z 25006KT 220V290 CAVOK 09/07 Q1015=
200909242050 METAR ESMX 242050Z 25007KT 230V290 CAVOK 09/07 Q1015=
200909242020 METAR ESMX 242020Z 26007KT 9999 FEW025 09/07 Q1015=
200909241950 METAR ESMX 241950Z 25005KT 230V290 9999 FEW025 09/06 Q1014=
200909241920 METAR ESMX 241920Z 25006KT 9999 FEW025 09/06 Q1014=
200909241850 METAR ESMX 241850Z 26005KT 230V300 9999 FEW027 10/07 Q1014=
200909241820 METAR ESMX 241820Z 28008KT CAVOK 11/07 Q1013=
200909241750 METAR ESMX 241750Z 27010KT 9999 FEW030 12/07 Q1013=
200909241720 METAR ESMX 241720Z 27010KT 9999 FEW035 12/07 Q1012=
200909241650 METAR ESMX 241650Z 28008KT 240V310 9999 FEW035 13/07 Q1012=
200909241620 METAR ESMX 241620Z 27007KT 240V310 9999 FEW035 13/08 Q1012=
200909241550 METAR ESMX 241550Z 27012KT 230V310 9999 FEW040 14/07 Q1011=
200909241520 METAR ESMX 241520Z 26014KT 230V300 9999 FEW040 14/06 Q1011=
200909241450 METAR ESMX 241450Z 27017KT 240V310 9999 FEW040 15/06 Q1011=
200909241420 METAR ESMX 241420Z 27017G28KT 240V320 9999 FEW040 15/05 Q1011=
200909241350 METAR ESMX 241350Z 27020KT 9999 FEW040 SCT045 14/04 Q1011=
200909241320 METAR ESMX 241320Z 27017KT 9999 SCT040 16/05 Q1011=
200909241250 METAR ESMX 241250Z 29013KT 260V320 9999 FEW035 SCT040 15/08 Q1011=
200909241220 METAR ESMX 241220Z 25015G25KT 210V290 9999 FEW034 SCT040 15/08 Q1011=
200909241150 METAR ESMX 241150Z 26015KT 230V300 9999 FEW032 SCT040 14/08 Q1011=
200909241120 METAR ESMX 241120Z 23014G24KT 170V260 9999 FEW022 SCT035 14/09 Q1011=
200909241050 METAR ESMX 241050Z 25015KT 210V290 9999 FEW020 SCT024 BKN028 14/10 Q1011=
200909241020 METAR ESMX 241020Z 24018G28KT 210V270 9000 FEW017 BKN023 BKN037 14/10 Q1011=
200909240950 METAR ESMX 240950Z 24015KT 9999 FEW014 SCT019 BKN024 14/11 Q1011=
200909240920 METAR ESMX 240920Z 23010KT 200V260 9999 FEW011 SCT015 BKN018 13/11 Q1012=
200909240850 METAR ESMX 240850Z 21011KT 190V250 9999 FEW008 SCT010 BKN013 12/11 Q1012=
200909240820 METAR ESMX 240820Z 21010KT 9999 FEW008 BKN011 OVC020 12/10 Q1012=
200909240750 METAR ESMX 240750Z 21011KT 180V240 9999 FEW007 SCT017 BKN053 11/10 Q1012=
200909240720 METAR ESMX 240720Z 22011KT 5000 DZ SCT012 SCT045 BKN051 11/09 Q1012=
200909240650 METAR ESMX 240650Z 22010KT 9000 DZ FEW041 SCT049 BKN061 11/09 Q1012=
200909240620 METAR ESMX 240620Z 22008KT 9999 -RA FEW045 BKN051 10/09 Q1012=
200909240550 METAR ESMX 240550Z 22007KT 170V240 CAVOK 09/08 Q1013=
200909240520 METAR ESMX 240520Z 23007KT CAVOK 09/07 Q1013=
200909240450 METAR ESMX 240450Z 21008KT CAVOK 09/07 Q1013=
200909240420 METAR ESMX 240420Z 21007KT 9999 FEW035 09/08 Q1013=
200909240350 METAR ESMX 240350Z 22007KT 9999 FEW040 08/07 Q1013=
200909240320 METAR ESMX 240320Z AUTO 22006KT 9999NDV NCD 08/07 Q1013=
200909240250 METAR ESMX 240250Z AUTO 25005KT 210V270 9999NDV NCD 08/07 Q1013=
200909240220 METAR ESMX 240220Z AUTO 23005KT 190V260 9999NDV NCD 09/07 Q1013=
200909240150 METAR ESMX 240150Z AUTO 23006KT 190V260 9999NDV NCD 09/07 Q1013=
200909240120 METAR ESMX 240120Z AUTO 25006KT 9999NDV NCD 09/07 Q1013=
200909240050 METAR ESMX 240050Z AUTO 25008KT 230V290 9999NDV FEW019/// 09/08 Q1013=
200909240020 METAR ESMX 240020Z AUTO 26006KT 220V290 9999NDV NCD 09/08 Q1013=
200909232350 METAR ESMX 232350Z AUTO 25008KT 230V290 9999NDV FEW023/// 10/08 Q1013=
200909232320 METAR ESMX 232320Z 25008KT 230V290 9999 FEW028 09/08 Q1013=
200909232250 METAR ESMX 232250Z 24008KT 190V270 CAVOK 10/08 Q1013=
200909232220 METAR ESMX 232220Z 25008KT 9999 FEW020 10/08 Q1013=
200909232150 METAR ESMX 232150Z 25008KT 210V280 9999 FEW022 10/08 Q1013=
200909232050 METAR ESMX 232050Z 25008KT 210V280 CAVOK 10/08 Q1012=
200909232020 METAR ESMX 232020Z 25010KT 230V290 9999 FEW030 10/08 Q1012=
200909231950 METAR ESMX 231950Z 25008KT 220V290 9999 FEW030 10/09 Q1012=
200909231920 METAR ESMX 231920Z 25009KT 210V280 9999 FEW031 10/09 Q1012=
200909231850 METAR ESMX 231850Z 24007KT 210V270 9999 FEW030 11/09 Q1012=
200909231820 METAR ESMX 231820Z 25008KT 210V280 9999 FEW031 11/09 Q1012=
200909231750 METAR ESMX 231750Z 23006KT 200V260 CAVOK 11/10 Q1012=
200909231720 METAR ESMX 231720Z 26007KT 200V290 CAVOK 11/09 Q1012=
200909231650 METAR ESMX 231650Z 25008KT 220V290 9999 FEW023 11/10 Q1012=
200909231620 METAR ESMX 231620Z 25009KT 230V290 CAVOK 12/10 Q1012=
200909231550 METAR ESMX 231550Z 26010KT 8000 -RA FEW021 SCT048 12/10 Q1012=
200909231520 METAR ESMX 231520Z 25009KT 210V290 9999 -RA FEW028 SCT049 BKN081 13/10 Q1012=
200909231450 METAR ESMX 231450Z 26011KT CAVOK 14/08 Q1012=
200909231420 METAR ESMX 231420Z 27012KT 210V300 9999 FEW028 14/09 Q1012=
200909231350 METAR ESMX 231350Z 26011KT CAVOK 14/09 Q1012=
200909231320 METAR ESMX 231320Z 25009KT 200V290 9999 FEW041 BKN051 12/09 Q1013=
200909231250 METAR ESMX 231250Z 27012KT 220V300 6000 BR FEW007 SCT026 BKN034 12/10 Q1013=
200909231220 METAR ESMX 231220Z 27013KT 240V320 9999 FEW024 BKN034 BKN061 14/08 Q1013=
200909231150 METAR ESMX 231150Z 27013KT 240V310 9999 FEW033 SCT048 BKN061 15/08 Q1012=
200909231120 METAR ESMX 231120Z 27013G23KT 220V310 9999 FEW037 BKN053 15/08 Q1012=
200909231050 METAR ESMX 231050Z 26012KT 220V290 9999 FEW035 SCT040 15/08 Q1012=
200909231020 METAR ESMX 231020Z 26013G23KT 240V300 9999 SCT040 15/08 Q1012=
200909230950 METAR ESMX 230950Z 26014KT 9999 FEW037 SCT045 15/08 Q1012=
200909230920 METAR ESMX 230920Z 27018KT 240V300 9999 FEW032 SCT040 15/08 Q1012=
200909230850 METAR ESMX 230850Z 27018KT 9999 FEW026 SCT030 15/08 Q1012=
200909230820 METAR ESMX 230820Z 25011G21KT 190V290 9999 FEW021 SCT025 15/09 Q1011=
200909230750 METAR ESMX 230750Z 26014KT 230V290 9999 FEW021 SCT026 14/10 Q1011=
200909230720 METAR ESMX 230720Z 26012KT 230V290 9999 FEW020 SCT025 14/10 Q1011=
200909230650 METAR ESMX 230650Z 24011KT 190V280 9999 FEW020 SCT025 13/10 Q1011=
200909230620 METAR ESMX 230620Z 24010KT 190V280 9999 FEW018 SCT025 13/10 Q1011=
200909230550 METAR ESMX 230550Z 25008KT 9999 FEW018 SCT025 13/10 Q1011=
200909230520 METAR ESMX 230520Z 23009KT 190V260 9999 FEW019 SCT025 12/10 Q1011=
200909230450 METAR ESMX 230450Z 23008KT 200V260 9999 FEW017 SCT025 13/09 Q1011=
200909230420 METAR ESMX 230420Z 23008KT 200V270 9999 FEW020 SCT025 12/09 Q1011=
200909230350 METAR ESMX 230350Z 25007KT 210V280 9999 SCT019 12/10 Q1011=
200909230320 METAR ESMX 230320Z AUTO 24011KT 210V280 9999NDV FEW018/// SCT023/// BKN048/// 13/10 Q1011=
200909230250 METAR ESMX 230250Z AUTO 24011KT 200V280 9999NDV DZ SCT022/// BKN029/// OVC049/// 13/10 Q1011=
200909230220 METAR ESMX 230220Z AUTO 25013G25KT 210V290 9999NDV FEW022/// SCT027/// BKN041/// 14/09 Q1011=
200909230150 METAR ESMX 230150Z AUTO 24010KT 200V280 9999NDV FEW027/// OVC048/// 13/10 Q1011=
200909230120 METAR ESMX 230120Z AUTO 26012KT 210V290 9999NDV FEW023/// BKN048/// 14/10 Q1011=
200909230050 METAR ESMX 230050Z AUTO 26010KT 230V290 9999NDV FEW019/// SCT022/// BKN028/// 14/11 Q1011=
200909230020 METAR ESMX 230020Z AUTO 26012KT 220V290 9999NDV FEW020/// SCT023/// BKN027/// 14/11 Q1011=
200909222350 METAR ESMX 222350Z AUTO 24012KT 210V290 9999NDV SCT020/// BKN026/// OVC031/// 15/11 Q1011=
200909222320 METAR ESMX 222320Z 24011G21KT 200V270 9999 FEW022 SCT026 OVC041 14/11 Q1011=
200909222250 METAR ESMX 222250Z 23011KT 190V270 9999 OVC045 14/11 Q1011=
200909222220 METAR ESMX 222220Z 25012KT 210V300 9999 FEW024 OVC043 15/11 Q1012=
200909222150 METAR ESMX 222150Z 24012KT 190V300 9999 FEW038 OVC044 15/11 Q1012=
200909222120 METAR ESMX 222120Z 24011KT 200V290 9999 FEW033 BKN046 14/11 Q1012=
200909222050 METAR ESMX 222050Z 25012KT 220V280 9999 FEW017 SCT022 BKN038 14/11 Q1012=
200909222020 METAR ESMX 222020Z 25010KT 9999 FEW015 SCT020 BKN024 14/12 Q1012=
200909221950 METAR ESMX 221950Z 24011G21KT 210V290 9999 FEW014 SCT020 BKN029 15/12 Q1012=
200909221920 METAR ESMX 221920Z 23011KT 190V270 9999 FEW012 SCT019 BKN042 14/12 Q1012=
200909221820 METAR ESMX 221820Z 23010KT 200V270 9999 FEW007 SCT012 BKN016 14/13 Q1012 REDZ=
200909221750 METAR ESMX 221750Z 23008KT 200V260 5000 -RA FEW007 BKN010 14/13 Q1012=
200909221720 METAR ESMX 221720Z 24010KT 210V270 3700 -RA FEW011 OVC015 15/13 Q1012=
200909221650 METAR ESMX 221650Z 23012KT 200V260 5000 -RA FEW011 OVC018 15/13 Q1012=
200909221620 METAR ESMX 221620Z 23016KT 8000 BR FEW015 OVC025 15/13 Q1012=
200909221550 METAR ESMX 221550Z 22013KT 190V250 9999 FEW016 BKN019 OVC025 16/12 Q1012=
200909221520 METAR ESMX 221520Z 23012KT 9999 FEW017 BKN025 16/12 Q1012=
200909221450 METAR ESMX 221450Z 21013KT 170V240 9999 FEW020 BKN025 16/12 Q1012=
200909221420 METAR ESMX 221420Z 22011KT 180V260 9999 FEW020 BKN025 16/12 Q1012=
200909221350 METAR ESMX 221350Z 23010KT 190V260 9999 FEW018 BKN025 15/12 Q1013=
200909221320 METAR ESMX 221320Z 21012KT 9999 FEW018 BKN025 15/12 Q1013=
200909221250 METAR ESMX 221250Z 22013KT 190V250 9999 FEW015 BKN020 15/12 Q1014=
200909221220 METAR ESMX 221220Z 22013KT 9999 FEW010 BKN015 15/12 Q1014=
200909221150 METAR ESMX 221150Z 22013KT 9999 -RA FEW008 BKN015 14/12 Q1014=
200909221120 METAR ESMX 221120Z 23013KT 170V250 9999 -RA FEW010 BKN015 14/12 Q1014=
200909221050 METAR ESMX 221050Z 22012KT 9999 -RA FEW007 OVC009 14/12 Q1014=
200909221020 METAR ESMX 221020Z 21012KT 180V240 9999 -RA BKN010 14/12 Q1014=
200909220950 METAR ESMX 220950Z 21014KT 9999 -RA BKN012 14/12 Q1014=
200909220920 METAR ESMX 220920Z 21013KT 9999 -RA BKN012 14/12 Q1015=
200909220850 METAR ESMX 220850Z 21011KT 170V250 9999 -RA FEW013 BKN016 14/12 Q1015=
200909220820 METAR ESMX 220820Z 21011KT 170V250 9999 -RA FEW013 BKN016 14/12 Q1015=
200909220750 METAR ESMX 220750Z 20012KT 9999 SCT013 BKN044 14/11 Q1015=
200909220720 METAR ESMX 220720Z 21011KT 180V250 9999 BKN010 OVC018 14/11 Q1016=
200909220650 METAR ESMX 220650Z 20010KT 170V240 9999 BKN009 13/11 Q1016=
200909220620 METAR COR ESMX 220620Z 20012KT 9999 -RA BKN009 13/11 Q1016=
200909220550 METAR ESMX 220550Z 20010KT 9999 FEW009 OVC010 13/11 Q1016=
200909220520 METAR ESMX 220520Z 20008KT 9999 SCT009 BKN030 13/11 Q1016=
200909220450 METAR ESMX 220450Z 21008G20KT 9999 SCT009 BKN028 12/11 Q1017=
200909220420 METAR ESMX 220420Z 20008KT 9999 SCT009 BKN030 12/11 Q1017=
200909220350 METAR ESMX 220350Z 20009KT 9999 FEW010 BKN033 12/11 Q1017=
200909220320 METAR ESMX 220320Z AUTO 21009KT 170V240 9999NDV FEW015/// SCT020/// BKN024/// 12/11 Q1017=
200909220250 METAR ESMX 220250Z AUTO 20009KT 9999NDV FEW011/// SCT025/// BKN029/// 12/11 Q1017=
200909220220 METAR ESMX 220220Z AUTO 20009KT 9999NDV FEW010/// SCT020/// BKN027/// 12/11 Q1017=
200909220150 METAR ESMX 220150Z AUTO 20010KT 9999NDV FEW010/// SCT019/// BKN023/// 12/11 Q1018=
200909220120 METAR ESMX 220120Z AUTO 20009KT 9999NDV FEW010/// SCT013/// BKN016/// 12/10 Q1018=
200909220050 METAR ESMX 220050Z AUTO 20009KT 170V240 9999NDV SCT012/// BKN031/// OVC039/// 12/11 Q1018=
200909220020 METAR ESMX 220020Z AUTO 21008KT 170V240 9999NDV FEW012/// OVC042/// 13/10 Q1018=
200909212350 METAR ESMX 212350Z AUTO 20009KT 9999NDV FEW035/// BKN045/// 13/10 Q1018=
200909212320 METAR ESMX 212320Z 20008KT 9999 FEW022 SCT028 OVC048 12/10 Q1018=
200909212250 METAR ESMX 212250Z 20008KT 9999 FEW020 OVC047 12/10 Q1018=
200909212220 METAR ESMX 212220Z 20008KT 9999 FEW035 OVC047 12/10 Q1018=
200909212150 METAR ESMX 212150Z 21006KT 9999 OVC049 13/10 Q1018=
200909212120 METAR ESMX 212120Z 21007KT 9999 SCT036 OVC052 13/09 Q1019=
200909212050 METAR ESMX 212050Z 22008KT 9999 OVC036 13/09 Q1019=
200909212020 METAR ESMX 212020Z 21008KT 9999 OVC036 13/09 Q1019=
200909211950 METAR ESMX 211950Z 22007KT 190V260 9999 FEW035 OVC041 13/09 Q1019=
200909211920 METAR ESMX 211920Z 20007KT 9999 FEW030 BKN041 12/09 Q1019=
200909211850 METAR ESMX 211850Z 22007KT 9999 FEW035 BKN040 12/09 Q1019=
200909211820 METAR ESMX 211820Z 22007KT 9999 BKN040 12/08 Q1019=
200909211750 METAR ESMX 211750Z 22006KT 9999 BKN040 12/08 Q1019=
200909211720 METAR ESMX 211720Z 21004KT 9999 BKN040 12/07 Q1019=
200909211650 METAR ESMX 211650Z 24006KT 9999 FEW043 12/07 Q1019=
200909211620 METAR ESMX 211620Z 24006KT 9999 FEW040 13/07 Q1019=
200909211550 METAR ESMX 211550Z 24009KT 200V280 9999 FEW037 BKN044 14/06 Q1019=
200909211520 METAR ESMX 211520Z 25009KT 210V280 9999 SCT038 14/06 Q1019=
200909211450 METAR ESMX 211450Z 27008KT 230V290 9999 SCT041 14/07 Q1019=
200909211420 METAR ESMX 211420Z 26011KT 230V300 9999 FEW038 SCT044 15/06 Q1019=
200909211350 METAR ESMX 211350Z 27013KT 230V300 9999 SCT040 15/06 Q1019=
200909211320 METAR ESMX 211320Z 26012KT 220V300 9999 FEW040 16/06 Q1019=
200909211250 METAR ESMX 211250Z 28012KT 250V320 9999 SCT041 15/06 Q1019=
200909211220 METAR ESMX 211220Z 24013KT 210V270 9999 SCT040 16/06 Q1019=
200909211150 METAR ESMX 211150Z 26011KT 210V300 9999 BKN038 16/06 Q1019=
200909211120 METAR ESMX 211120Z 25011KT 220V290 9999 FEW039 SCT044 16/07 Q1019=
200909211050 METAR ESMX 211050Z 28009KT 250V310 9999 SCT040 14/05 Q1019=
200909211020 METAR ESMX 211020Z 27010KT 220V300 9999 SCT040 15/08 Q1019=
200909210950 METAR ESMX 210950Z 28009KT 250V320 9999 SCT040 13/07 Q1019=
200909210920 METAR ESMX 210920Z 27009KT 220V300 9999 SCT023 BKN033 15/08 Q1019=
200909210850 METAR ESMX 210850Z 26009KT 230V300 9999 FEW021 SCT030 14/08 Q1019=
200909210820 METAR ESMX 210820Z 27008KT 230V310 9999 FEW019 SCT022 13/09 Q1019=
200909210750 METAR ESMX 210750Z 26007KT 230V290 9999 SCT017 13/09 Q1019=
200909210720 METAR ESMX 210720Z 26007KT 230V290 9999 FEW008 SCT011 12/09 Q1019=
200909210650 METAR ESMX 210650Z 26006KT 210V290 9999 FEW007 SCT009 BKN013 11/09 Q1019=
200909210620 METAR ESMX 210620Z 27006KT 230V300 9999 FEW008 SCT012 BKN015 11/09 Q1018=
200909210550 METAR ESMX 210550Z 25007KT 210V280 9999 FEW009 BKN015 11/09 Q1018=
200909210520 METAR ESMX 210520Z 26006KT 230V300 9999 FEW010 BKN013 11/09 Q1018=
200909210450 METAR ESMX 210450Z 26006KT 230V290 9999 FEW008 SCT011 BKN015 11/09 Q1018=
200909210420 METAR ESMX 210420Z 27007KT 9999 FEW007 OVC010 11/09 Q1018=
200909210350 METAR ESMX 210350Z 27006KT 240V300 9999 SCT006 BKN009 11/09 Q1018=
200909210320 METAR ESMX 210320Z AUTO 27006KT 240V310 9999NDV OVC006/// 11/10 Q1018=
200909210250 METAR ESMX 210250Z AUTO 26005KT 230V290 9999NDV FEW005/// OVC007/// 10/09 Q1017=
200909210220 METAR ESMX 210220Z AUTO 26005KT 9999NDV OVC008/// 10/09 Q1017=
200909210150 METAR ESMX 210150Z AUTO 25006KT 220V290 9999NDV FEW007/// BKN009/// 10/09 Q1017=
200909210120 METAR ESMX 210120Z AUTO 25006KT 9999NDV FEW011/// 10/09 Q1017=
200909210050 METAR ESMX 210050Z AUTO 25005KT 9999NDV FEW016/// 10/09 Q1017=
200909210020 METAR ESMX 210020Z AUTO 26005KT 240V300 9999NDV FEW014/// BKN020/// 11/10 Q1017=
200909202350 METAR ESMX 202350Z 25008KT 9999 FEW012 SCT016 BKN022 12/10 Q1017=
200909202320 METAR ESMX 202320Z 26006KT 9999 SCT005 BKN020 12/10 Q1017=
200909202220 METAR ESMX 202220Z 25005KT 220V290 7000 BR FEW004 SCT006 BKN008 12/11 Q1017=
200909202150 METAR ESMX 202150Z 26004KT 8000 BR SCT006 OVC008 12/11 Q1016=
200909202120 METAR ESMX 202120Z 24004KT 9000 BR FEW006 SCT008 11/10 Q1016=
200909202020 METAR ESMX 202020Z 25005KT CAVOK 12/10 Q1016=
200909201950 METAR ESMX 201950Z 24004KT 9999 SCT035 BKN080 13/10 Q1016=
200909201920 METAR ESMX 201920Z 27006KT 240V300 9999 SCT035 BKN080 14/11 Q1016=
200909201850 METAR ESMX 201850Z 26005KT 230V320 9999 FEW033 BKN038 BKN050 15/11 Q1016=
200909201820 METAR ESMX 201820Z 28006KT 9999 BKN037 16/10 Q1016=
200909201750 METAR ESMX 201750Z 28008KT 9999 SCT040 BKN070 16/10 Q1015=
200909201720 METAR ESMX 201720Z 26005KT 9999 SCT046 BKN080 17/11 Q1015=
200909201650 METAR ESMX 201650Z 26005KT CAVOK 17/11 Q1015=
200909201620 METAR ESMX 201620Z 25005KT CAVOK 18/10 Q1015=
200909201450 METAR ESMX 201450Z 22007KT 9999 FEW043 20/11 Q1015=
200909201420 METAR ESMX 201420Z 21010KT 9999 FEW048 20/11 Q1015=
200909201350 METAR ESMX 201350Z 23012KT 190V260 9999 FEW047 20/10 Q1015=
200909201320 METAR ESMX 201320Z 20012KT 160V220 9999 FEW045 21/09 Q1015=
200909201250 METAR ESMX 201250Z 20010KT 160V230 9999 FEW042 21/10 Q1015=
200909201220 METAR ESMX 201220Z AUTO 18010KT 9999NDV NCD 20/11 Q1016=
200909201150 METAR ESMX 201150Z AUTO 19009KT 150V230 9999NDV NCD 20/12 Q1016=
200909201120 METAR ESMX 201120Z AUTO 17008KT 120V210 9999NDV NCD 19/11 Q1016=
200909201050 METAR ESMX 201050Z AUTO 15006KT 110V200 9999NDV NCD 17/12 Q1016=
200909201020 METAR ESMX 201020Z AUTO 16004KT 090V190 9999NDV NCD 16/12 Q1017=
200909200950 METAR ESMX 200950Z AUTO 16005KT 110V200 9999NDV FEW004/// SCT006/// 15/12 Q1017=
200909200920 METAR ESMX 200920Z AUTO 16004KT 110V200 9999NDV OVC001/// 13/12 Q1017=
200909200850 METAR ESMX 200850Z AUTO 14003KT 080V180 2900NDV VV001 12/11 Q1017=
200909200820 METAR ESMX 200820Z AUTO VRB02KT 0550NDV R01/0800 R19/0900V1800N FG VV001 11/11 Q1017=
200909200750 METAR ESMX 200750Z AUTO VRB01KT 0250NDV R01/0450N R19/0700 FG VV001 11/10 Q1017=
200909200720 METAR ESMX 200720Z AUTO VRB02KT 0200NDV R01/0375V0500N R19/0500N FG VV001 10/10 Q1017=
200909200650 METAR ESMX 200650Z AUTO VRB02KT 0150NDV R01/0350 R19/0400N FG VV000 10/10 Q1017=
200909200620 METAR ESMX 200620Z AUTO VRB02KT 0200NDV R01/0450N R19/0450N FG VV000 10/10 Q1017=
200909200550 METAR ESMX 200550Z AUTO VRB01KT 0150NDV R01/0400N R19/0450N FG VV000 10/09 Q1017=
200909200520 METAR ESMX 200520Z AUTO VRB01KT 0100NDV R01/0300N R19/0350N FG VV000 09/09 Q1017=
200909200450 METAR ESMX 200450Z AUTO 00000KT 0150NDV R01/0450N R19/0450N FG VV000 08/08 Q1017=
200909200420 METAR ESMX 200420Z AUTO 00000KT 0100NDV R01/0500N R19/0450N FG VV000 08/07 Q1018=
200909200350 METAR ESMX 200350Z AUTO 00000KT 0100NDV R01/0500N R19/0450N FG VV000 07/07 Q1018=
200909200320 METAR ESMX 200320Z AUTO 00000KT 0100NDV R01/0500N R19/0500N FG VV000 07/07 Q1018=
200909200250 METAR ESMX 200250Z AUTO 00000KT 0100NDV R01/0400N R19/0450N FG VV000 07/06 Q1018=
200909200220 METAR ESMX 200220Z AUTO 00000KT 0050NDV R01/0300N R19/0350N FG VV000 07/06 Q1018=
200909200150 METAR ESMX 200150Z AUTO 00000KT 0100NDV R01/0400V0600 R19/0350N FG VV000 07/06 Q1019=
200909200120 METAR ESMX 200120Z AUTO 00000KT 0050NDV R01/0450N R19/0250V0375N FG VV000 07/06 Q1019=
200909200050 METAR ESMX 200050Z AUTO 20002KT 0100NDV R01/0450N R19/0300V0550 FG VV000 06/06 Q1019=
200909200020 METAR ESMX 200020Z AUTO 19001KT 0150NDV R01/0700 R19/0900VP2000 FG NCD 06/05 Q1019=
200909192350 METAR ESMX 192350Z AUTO 17001KT 0200NDV R01/0650V1300 R19/P2000N FG NCD 06/05 Q1019=
200909192320 METAR ESMX 192320Z AUTO 16001KT 0150NDV R01/0800VP2000 R19/0450V0800 FG NCD 06/05 Q1020 REDZ=
200909192250 METAR ESMX 192250Z AUTO 00000KT 1100NDV R01/P2000N R19/P2000N FG NCD 06/06 Q1020=
200909192220 METAR ESMX 192220Z AUTO VRB01KT 2400NDV NCD 07/06 Q1020=
200909192150 METAR ESMX 192150Z AUTO 15002KT 8000NDV NCD 07/06 Q1020=
200909192120 METAR ESMX 192120Z AUTO 20002KT 9999NDV NCD 08/07 Q1020=
200909192050 METAR ESMX 192050Z AUTO 16003KT 9999NDV NCD 08/07 Q1020=
200909192020 METAR ESMX 192020Z AUTO 16003KT 9999NDV NCD 09/07 Q1020=
200909191950 METAR ESMX 191950Z AUTO 16004KT 9999NDV NCD 11/08 Q1020=
200909191920 METAR ESMX 191920Z AUTO 17004KT 9999NDV NCD 13/08 Q1020=
200909191850 METAR ESMX 191850Z AUTO 16005KT 9999NDV NCD 13/08 Q1020=
200909191820 METAR ESMX 191820Z AUTO 16005KT 9999NDV NCD 14/09 Q1020=
200909191750 METAR ESMX 191750Z 15005KT CAVOK 14/10 Q1020=
200909191720 METAR ESMX 191720Z 15004KT CAVOK 14/10 Q1020=
200909191650 METAR ESMX 191650Z 16005KT CAVOK 17/09 Q1020=
200909191620 METAR ESMX 191620Z 16005KT CAVOK 18/09 Q1020=
200909191550 METAR ESMX 191550Z 17005KT 130V190 9999 FEW045 18/09 Q1020=
200909191520 METAR ESMX 191520Z 15006KT 120V190 9999 FEW045 19/09 Q1020=
200909191450 METAR ESMX 191450Z 16005KT 100V210 9999 FEW045 19/09 Q1021=
200909191420 METAR ESMX 191420Z 16006KT 120V200 9999 FEW045 19/08 Q1021=
200909191350 METAR ESMX 191350Z 17004KT 100V220 9999 FEW043 20/09 Q1021=
200909191320 METAR ESMX 191320Z 15007KT 120V200 9999 FEW040 19/09 Q1021=
200909191250 METAR ESMX 191250Z 17006KT 120V200 9999 FEW042 19/09 Q1021=
200909191220 METAR ESMX 191220Z 19005KT 150V230 CAVOK 19/08 Q1022=
200909191150 METAR ESMX 191150Z 16006KT 110V200 CAVOK 19/07 Q1022=
200909191120 METAR ESMX 191120Z 21007KT CAVOK 18/06 Q1022=
200909191050 METAR ESMX 191050Z 13006KT CAVOK 18/06 Q1022=
200909191020 METAR ESMX 191020Z 15004KT 100V220 CAVOK 17/06 Q1022=
200909190950 METAR ESMX 190950Z 13005KT 070V170 CAVOK 17/06 Q1023=
200909190920 METAR ESMX 190920Z 19004KT 160V250 CAVOK 16/07 Q1023=
200909190850 METAR ESMX 190850Z 21006KT CAVOK 15/06 Q1023=
200909190820 METAR ESMX 190820Z 20005KT 150V240 CAVOK 14/09 Q1023=
200909190750 METAR ESMX 190750Z VRB02KT CAVOK 12/10 Q1023=
200909190720 METAR ESMX 190720Z 00000KT 9999 BCFG FEW003 10/10 Q1023=
200909190650 METAR ESMX 190650Z 00000KT 0400 R01/0700N R19/0900 FG VV002 09/08 Q1023=
200909190620 METAR ESMX 190620Z 00000KT 0100 R01/0700N R19/M0150N FG VV002 07/06 Q1023=
200909190550 METAR ESMX 190550Z 19001KT 0100 R01/0400V0700 R19/0150N FG VV001 05/04 Q1023=
200909190520 METAR ESMX 190520Z AUTO 00000KT 0050NDV R01/0900V1700U R19/0150N FG VV000 03/03 Q1023=
200909190450 METAR ESMX 190450Z AUTO 18001KT 0100NDV R01/0450 R19/0200V0325N FG VV000 03/02 Q1023=
200909190420 METAR ESMX 190420Z AUTO 19001KT 0050NDV R01/P2000N R19/0275N FG VV000 03/03 Q1023=
200909190350 METAR ESMX 190350Z AUTO 18002KT 0150NDV R01/0500 R19/0800 FG VV000 03/03 Q1023=
200909190320 METAR ESMX 190320Z AUTO 18001KT 0200NDV R01/0900 R19/1000 FG VV000 03/03 Q1023=
200909190250 METAR ESMX 190250Z AUTO 18001KT 0200NDV R01/P2000N R19/0700 FG VV000 03/03 Q1023=
200909190220 METAR ESMX 190220Z AUTO 16001KT 0300NDV R01/0800V1400 R19/0900VP2000D FG VV000 03/03 Q1023=
200909190150 METAR ESMX 190150Z AUTO 00000KT 6000NDV FG NCD 03/02 Q1023=
200909190120 METAR ESMX 190120Z AUTO 00000KT 0650NDV R01/P2000D R19/P2000N FG NCD 04/03 Q1023=
200909190050 METAR ESMX 190050Z AUTO 18001KT 9999NDV NCD 04/03 Q1023=
200909190020 METAR ESMX 190020Z AUTO 18001KT 4900NDV NCD 05/04 Q1023=
200909182350 METAR ESMX 182350Z AUTO 16001KT 9999NDV BR NCD 05/04 Q1023=
200909182320 METAR ESMX 182320Z AUTO 16001KT 9999NDV NCD 06/05 Q1023=
200909182250 METAR ESMX 182250Z AUTO 18002KT 9999NDV NCD 06/05 Q1023=
200909182220 METAR ESMX 182220Z AUTO 13001KT 9999NDV NCD 06/06 Q1023=
200909182150 METAR ESMX 182150Z AUTO 16002KT 9999NDV NCD 06/05 Q1023=
200909182120 METAR ESMX 182120Z AUTO 23002KT 9999NDV NCD 06/05 Q1023=
200909182050 METAR ESMX 182050Z AUTO VRB01KT 9999NDV NCD 05/04 Q1023=
200909182020 METAR ESMX 182020Z AUTO 17002KT 9999NDV NCD 07/05 Q1023=
200909181950 METAR ESMX 181950Z AUTO 19001KT 9999NDV NCD 07/05 Q1023=
200909181920 METAR ESMX 181920Z AUTO 17002KT 9999NDV NCD 08/06 Q1023=
200909181850 METAR ESMX 181850Z AUTO 24003KT 9999NDV NCD 08/06 Q1023=
200909181820 METAR ESMX 181820Z AUTO 22003KT 9999NDV NCD 09/07 Q1023=
200909181750 METAR ESMX 181750Z 20002KT CAVOK 10/07 Q1023=
200909181720 METAR ESMX 181720Z 21001KT CAVOK 10/07 Q1023=
200909181650 METAR ESMX 181650Z 22002KT CAVOK 12/08 Q1022=
200909181620 METAR ESMX 181620Z VRB02KT CAVOK 16/07 Q1022=
200909181550 METAR ESMX 181550Z VRB02KT CAVOK 17/06 Q1022=
200909181520 METAR ESMX 181520Z 27004KT 240V310 CAVOK 18/05 Q1023=
200909181450 METAR ESMX 181450Z 24003KT 140V280 CAVOK 18/05 Q1023=
200909181420 METAR ESMX 181420Z 25004KT 190V290 CAVOK 18/04 Q1023=
200909181350 METAR ESMX 181350Z 27004KT 240V310 CAVOK 18/03 Q1023=
200909181320 METAR ESMX 181320Z 26006KT 230V290 CAVOK 18/04 Q1023=
200909181250 METAR ESMX 181250Z 25004KT 200V290 CAVOK 18/04 Q1023=
200909181220 METAR ESMX 181220Z VRB04KT CAVOK 17/06 Q1023=
200909181150 METAR ESMX 181150Z VRB02KT CAVOK 17/07 Q1024=
200909181120 METAR ESMX 181120Z 28004KT 210V330 CAVOK 16/05 Q1024=
200909181050 METAR ESMX 181050Z VRB03KT CAVOK 16/06 Q1024=
200909181020 METAR ESMX 181020Z 30003KT 240V360 CAVOK 16/07 Q1024=
200909180950 METAR ESMX 180950Z VRB01KT CAVOK 15/08 Q1024=
200909180920 METAR ESMX 180920Z 00000KT CAVOK 14/07 Q1024=
200909180850 METAR ESMX 180850Z VRB01KT CAVOK 12/09 Q1024=
200909180820 METAR ESMX 180820Z VRB02KT CAVOK 11/10 Q1024=
200909180750 METAR ESMX 180750Z VRB01KT 9999 FEW002 09/09 Q1023=
200909180720 METAR ESMX 180720Z VRB01KT 0250 R01/0375V0550N R19/0800 FG SCT002 08/08 Q1023=
200909180620 METAR ESMX 180620Z 00000KT 0100 R01/0150N R19/0450 FG VV002 07/06 Q1023=
200909180550 METAR ESMX 180550Z VRB01KT 0100 R01/0175V0600U R19/0175N FG VV002 04/04 Q1023=
200909180520 METAR ESMX 180520Z 24001KT 0100 R01/0275N R19/0200N FG VV002 03/03 Q1023=
200909180450 METAR ESMX 180450Z 19002KT 0100 R01/0200V0300 R19/0225V0325N FG VV002 03/03 Q1022 REDZ=
200909180420 METAR ESMX 180420Z 19001KT 0100 R01/0200N R19/0275V0400N FG VV002 03/03 Q1022=
200909180350 METAR ESMX 180350Z 00000KT 0100 R01/0225N R19/0250V0375N FG VV001 02/02 Q1022=
200909180320 METAR ESMX 180320Z AUTO 19001KT 0050NDV R01/0900 R19/0175V0300N FG VV000 01/01 Q1022=
200909180250 METAR ESMX 180250Z AUTO 00000KT 1700NDV BR VV001 01/01 Q1022=
200909180220 METAR ESMX 180220Z AUTO 00000KT 9999NDV NCD 01/01 Q1022=
200909180150 METAR ESMX 180150Z AUTO 16001KT 9999NDV NCD 02/01 Q1022=
200909180120 METAR ESMX 180120Z AUTO 19002KT 9999NDV NCD 02/01 Q1022=
200909180050 METAR ESMX 180050Z AUTO 16001KT 1600NDV NCD 03/02 Q1022=
200909180020 METAR ESMX 180020Z AUTO 00000KT 2200NDV BR NCD 02/01 Q1022=
200909172350 METAR ESMX 172350Z AUTO 19002KT 9999NDV NCD 03/02 Q1022=
200909172320 METAR ESMX 172320Z 18001KT CAVOK 03/02 Q1022=
200909172220 METAR ESMX 172220Z 16001KT CAVOK 03/02 Q1022=
200909172150 METAR ESMX 172150Z 17002KT CAVOK 03/03 Q1021=
200909172120 METAR ESMX 172120Z 18001KT CAVOK 04/03 Q1021=
200909172050 METAR ESMX 172050Z 18001KT CAVOK 04/04 Q1021=
200909172020 METAR ESMX 172020Z 17002KT CAVOK 04/04 Q1021=
200909171950 METAR ESMX 171950Z 18002KT CAVOK 05/04 Q1021=
200909171920 METAR ESMX 171920Z 17001KT CAVOK 05/04 Q1021=
200909171850 METAR ESMX 171850Z 17002KT CAVOK 06/05 Q1021=
200909171820 METAR ESMX 171820Z 18001KT CAVOK 07/05 Q1020=
200909171750 METAR ESMX 171750Z 21001KT CAVOK 08/06 Q1020=
200909171720 METAR ESMX 171720Z 18002KT CAVOK 10/07 Q1020=
200909171650 METAR ESMX 171650Z VRB02KT CAVOK 11/07 Q1020=
200909171620 METAR ESMX 171620Z 31002KT CAVOK 12/07 Q1020=
200909171550 METAR ESMX 171550Z 30003KT CAVOK 15/06 Q1020=
200909171520 METAR ESMX 171520Z 32003KT 260V010 CAVOK 16/06 Q1019=
200909171450 METAR ESMX 171450Z VRB02KT CAVOK 15/06 Q1020=
200909171420 METAR ESMX 171420Z 35003KT 310V040 CAVOK 15/06 Q1020=
200909171350 METAR ESMX 171350Z 33003KT 300V360 CAVOK 15/05 Q1020=
200909171320 METAR ESMX 171320Z 29004KT 260V320 CAVOK 15/07 Q1020=
200909171250 METAR ESMX 171250Z VRB02KT CAVOK 15/06 Q1020=
200909171220 METAR ESMX 171220Z VRB02KT CAVOK 15/06 Q1020=
200909171150 METAR ESMX 171150Z VRB02KT CAVOK 14/05 Q1020=
200909171120 METAR ESMX 171120Z 33003KT 290V020 CAVOK 14/06 Q1020=
200909171050 METAR ESMX 171050Z 33003KT 290V020 CAVOK 13/06 Q1019=
200909171020 METAR ESMX 171020Z 35004KT 320V040 CAVOK 13/06 Q1019=
200909170950 METAR ESMX 170950Z 36004KT 320V030 CAVOK 13/06 Q1019=
200909170920 METAR ESMX 170920Z 35005KT CAVOK 13/06 Q1019=
200909170850 METAR ESMX 170850Z 02005KT CAVOK 12/07 Q1019=
200909170820 METAR ESMX 170820Z 35006KT CAVOK 12/07 Q1019=
200909170750 METAR ESMX 170750Z 36005KT CAVOK 12/07 Q1018=
200909170720 METAR ESMX 170720Z 01006KT CAVOK 10/07 Q1018=
200909170650 METAR ESMX 170650Z 35006KT CAVOK 08/08 Q1018=
200909170620 METAR ESMX 170620Z 32001KT CAVOK 05/05 Q1018=
200909170550 METAR ESMX 170550Z VRB01KT CAVOK 04/03 Q1018=
200909170520 METAR ESMX 170520Z 00000KT CAVOK 03/02 Q1017=
200909170450 METAR ESMX 170450Z 17001KT 9999 MIFG NSC 04/04 Q1017=
200909170420 METAR ESMX 170420Z VRB01KT 9999 BCFG NSC 03/02 Q1017=
200909170350 METAR COR ESMX 170350Z VRB01KT 9999 MIFG NSC 03/03 Q1017=
200909170320 METAR ESMX 170320Z AUTO 28003KT 9999NDV NCD 03/03 Q1017=
200909170250 METAR ESMX 170250Z AUTO VRB01KT 9999NDV NCD 05/04 Q1016=
200909170220 METAR ESMX 170220Z AUTO VRB02KT 9999NDV NCD 04/03 Q1016=
200909170150 METAR ESMX 170150Z AUTO 32003KT 9999NDV NCD 04/03 Q1016=
200909170120 METAR ESMX 170120Z AUTO 00000KT 0500NDV R01/1100VP2000D R19/P2000N FG NCD 07/06 Q1016=
200909170050 METAR ESMX 170050Z AUTO VRB01KT 1000NDV R01/P2000N R19/P2000N BR NCD 07/06 Q1016=
200909170020 METAR ESMX 170020Z AUTO VRB01KT 4900NDV BR NCD 07/06 Q1016=
200909162350 METAR ESMX 162350Z AUTO 28003KT 9999NDV NCD 08/07 Q1016=
200909162320 METAR ESMX 162320Z 27003KT CAVOK 08/07 Q1016=
200909162250 METAR ESMX 162250Z 26004KT CAVOK 09/07 Q1016=
200909162220 METAR ESMX 162220Z 27004KT CAVOK 09/07 Q1016=
200909162150 METAR ESMX 162150Z 27003KT CAVOK 09/07 Q1016=
200909162120 METAR ESMX 162120Z 26004KT 9999 FEW048 09/07 Q1016=
200909162050 METAR ESMX 162050Z 26004KT 9999 SCT047 10/07 Q1016=
200909162020 METAR ESMX 162020Z 27005KT 9999 BKN048 11/08 Q1016=
200909161950 METAR ESMX 161950Z 26004KT 9999 BKN048 11/08 Q1016=
200909161920 METAR ESMX 161920Z 27005KT 9999 SCT048 11/07 Q1016=
200909161850 METAR ESMX 161850Z 27005KT 9999 BKN048 12/07 Q1016=
200909161750 METAR ESMX 161750Z 26006KT 9999 BKN044 13/08 Q1016=
200909161720 METAR ESMX 161720Z 25004KT 230V290 9999 BKN045 13/08 Q1015=
200909161650 METAR ESMX 161650Z 27005KT 9999 SCT047 14/08 Q1015=
200909161620 METAR ESMX 161620Z 27007KT 9999 SCT047 15/08 Q1015=
200909161550 METAR ESMX 161550Z 26007KT 230V300 9999 SCT048 15/08 Q1015=
200909161520 METAR ESMX 161520Z 27009KT 240V300 9999 SCT041 16/08 Q1015=
200909161450 METAR ESMX 161450Z 26007KT 220V290 9999 FEW041 SCT047 16/07 Q1016=
200909161420 METAR ESMX 161420Z 24007KT 190V300 9999 SCT041 17/07 Q1016=
200909161350 METAR ESMX 161350Z 26009KT 230V290 9999 SCT042 17/08 Q1016=
200909161320 METAR ESMX 161320Z 27009KT 240V300 9999 SCT041 16/07 Q1016=
200909161250 METAR ESMX 161250Z 27010KT 240V310 9999 FEW045 17/08 Q1016=
200909161220 METAR ESMX 161220Z 26011KT 220V290 9999 SCT040 17/08 Q1017=
200909161150 METAR ESMX 161150Z 27011KT 230V300 9999 SCT040 16/07 Q1017=
200909161120 METAR ESMX 161120Z 27012KT 240V310 9999 SCT035 17/08 Q1017=
200909161050 METAR ESMX 161050Z 24010KT 190V280 9999 SCT035 16/08 Q1018=
200909161020 METAR ESMX 161020Z 28011KT 250V320 9999 SCT034 16/08 Q1018=
200909160950 METAR ESMX 160950Z 23009KT 200V270 9999 SCT025 16/10 Q1018=
200909160920 METAR ESMX 160920Z 27007KT 200V300 9999 SCT020 15/10 Q1018=
200909160820 METAR ESMX 160820Z 25006KT 220V290 CAVOK 14/10 Q1019=
200909160750 METAR ESMX 160750Z 26004KT 220V300 CAVOK 13/10 Q1019=
200909160720 METAR ESMX 160720Z 24004KT 210V280 CAVOK 11/09 Q1019=
200909160650 METAR ESMX 160650Z 25003KT 220V280 CAVOK 10/09 Q1019=
200909160620 METAR ESMX 160620Z 25003KT CAVOK 08/08 Q1019=
200909160550 METAR ESMX 160550Z 18002KT 9999 BCFG 06/06 Q1019=
200909160520 METAR ESMX 160520Z 18002KT 9999 R19/1000 FEW000 05/05 Q1019=
200909160450 METAR ESMX 160450Z VRB01KT 9999 R19/0800V2000 BCFG FEW000 05/04 Q1019=
200909160350 METAR ESMX 160350Z 00000KT 0500 R01/0900 R19/0300V0550 BCFG NSC 04/04 Q1020=
200909160320 METAR ESMX 160320Z AUTO VRB01KT 0200NDV R01/P2000 R19/0550 FG FEW000/// 05/04 Q1020=
200909160250 METAR ESMX 160250Z AUTO 17001KT 2400NDV R01/1400 R19/P2000N NCD 06/06 Q1020=
200909160220 METAR ESMX 160220Z AUTO 17001KT 1500NDV NCD 07/06 Q1020=
200909160150 METAR ESMX 160150Z AUTO 22003KT 6000NDV NCD 07/06 Q1021=
200909160120 METAR ESMX 160120Z AUTO 23004KT 9999NDV NCD 07/07 Q1021=
200909160050 METAR ESMX 160050Z AUTO 22003KT 8000NDV NCD 07/06 Q1022=
200909160020 METAR ESMX 160020Z AUTO 23004KT 9999NDV NCD 06/05 Q1022=
200909152350 METAR ESMX 152350Z AUTO 22004KT 9999NDV NCD 08/07 Q1022=
200909152320 METAR ESMX 152320Z 21002KT 9999 MIFG NSC 08/07 Q1022=
200909152150 METAR ESMX 152150Z 00000KT CAVOK 06/05 Q1023=
200909152050 METAR ESMX 152050Z 17001KT CAVOK 07/06 Q1023=
200909152020 METAR ESMX 152020Z 16001KT CAVOK 07/06 Q1023=
200909151950 METAR ESMX 151950Z 00000KT CAVOK 07/06 Q1023=
200909151920 METAR ESMX 151920Z 18002KT CAVOK 09/08 Q1024=
200909151850 METAR ESMX 151850Z 00000KT CAVOK 09/08 Q1024=
200909151820 METAR ESMX 151820Z 00000KT CAVOK 09/08 Q1024=
200909151750 METAR ESMX 151750Z VRB01KT CAVOK 11/09 Q1024=
200909151720 METAR ESMX 151720Z 00000KT CAVOK 13/10 Q1024=
200909151650 METAR ESMX 151650Z 35001KT CAVOK 16/10 Q1024=
200909151620 METAR ESMX 151620Z 01002KT 9999 FEW040 17/09 Q1024=
200909151550 METAR ESMX 151550Z 35003KT 300V020 9999 FEW040 18/07 Q1025=
200909151520 METAR ESMX 151520Z VRB02KT 9999 FEW040 18/08 Q1025=
200909151450 METAR ESMX 151450Z 02003KT 330V070 9999 FEW040 18/07 Q1025=
200909151420 METAR ESMX 151420Z 01003KT 290V060 9999 FEW035 18/08 Q1026=
200909151350 METAR ESMX 151350Z 35004KT 320V030 9999 FEW035 18/08 Q1026=
200909151320 METAR ESMX 151320Z 33004KT 290V010 9999 FEW035 18/08 Q1026=
200909151250 METAR ESMX 151250Z 02004KT 340V080 9999 FEW030 18/08 Q1027=
200909151220 METAR ESMX 151220Z 34006KT 9999 FEW025 18/08 Q1027=
200909151150 METAR ESMX 151150Z 34006KT 300V030 9999 FEW020 17/08 Q1027=
200909151120 METAR ESMX 151120Z 35006KT 320V050 9999 FEW020 17/09 Q1027=
200909151050 METAR ESMX 151050Z 06005KT 010V100 9999 FEW020 17/09 Q1028=
200909151020 METAR ESMX 151020Z 02005KT 340V060 9999 FEW025 17/09 Q1028=
200909150950 METAR ESMX 150950Z 04006KT 010V080 9999 FEW025 16/10 Q1028=
200909150920 METAR ESMX 150920Z 04006KT 350V130 9999 FEW020 15/10 Q1029=
200909150850 METAR ESMX 150850Z 02006KT 350V050 9999 FEW010 15/11 Q1029=
200909150820 METAR ESMX 150820Z 02004KT 330V070 9999 FEW004 SCT006 12/11 Q1029=
200909150750 METAR ESMX 150750Z 04005KT 9999 BKN003 12/11 Q1029=
200909150720 METAR ESMX 150720Z 03006KT 350V080 9999 OVC003 11/10 Q1029=
200909150650 METAR ESMX 150650Z 03005KT 9999 SCT002 BKN003 10/10 Q1029=
200909150620 METAR ESMX 150620Z 03005KT 7000 BR SCT001 BKN002 10/10 Q1029=
200909150550 METAR ESMX 150550Z 01005KT 1900 BR FEW001 OVC002 10/09 Q1029=
200909150520 METAR ESMX 150520Z 02006KT 0650 R01/0900V1900U R19/1100V1900N FG VV002 10/09 Q1029=
200909150450 METAR ESMX 150450Z 01007KT 0550 R01/P2000D R19/0900VP2000D FG VV002 09/09 Q1029=
200909150420 METAR ESMX 150420Z 02005KT 4000 R01/0700 R19/P2000N BCFG SCT002 BKN004 08/07 Q1029=
200909150350 METAR ESMX 150350Z 02003KT 9999 R01/0400V0550N R19/P2000N BCFG NSC 08/08 Q1029=
200909150320 METAR ESMX 150320Z AUTO 35002KT 0150NDV R01/0600 R19/P2000N FG NCD 08/08 Q1030=
200909150250 METAR ESMX 150250Z AUTO 01003KT 0150NDV R01/0325V0800 R19/P2000N FG NCD 08/08 Q1030=
200909150220 METAR ESMX 150220Z AUTO 01003KT 0400NDV R01/0900 R19/P2000N FG NCD 08/08 Q1030=
200909150150 METAR ESMX 150150Z AUTO 03004KT 0650NDV R01/P2000D R19/P2000N FG NCD 09/08 Q1030=
200909150120 METAR ESMX 150120Z AUTO 02004KT 0300NDV R01/0550V1300 R19/P2000N BCFG NCD 09/08 Q1030=
200909150050 METAR ESMX 150050Z AUTO 01003KT 0150NDV R01/0375V0550 R19/0800VP2000U FG NCD 08/08 Q1030=
200909150020 METAR ESMX 150020Z AUTO 03002KT 0500NDV R01/P2000N R19/P2000 BR NCD 08/08 Q1030=
200909142350 METAR ESMX 142350Z 01002KT CAVOK 09/07 Q1030=
200909142320 METAR ESMX 142320Z 04004KT 010V080 CAVOK 10/09 Q1031=
200909142250 METAR ESMX 142250Z 03004KT CAVOK 10/09 Q1031=
200909142220 METAR ESMX 142220Z 03004KT CAVOK 11/09 Q1031=
200909142150 METAR ESMX 142150Z 03005KT CAVOK 11/09 Q1031=
200909142120 METAR ESMX 142120Z 01004KT CAVOK 10/09 Q1031=
200909142050 METAR ESMX 142050Z 02005KT CAVOK 10/09 Q1031=
200909142020 METAR ESMX 142020Z 02003KT CAVOK 10/09 Q1030=
200909141950 METAR ESMX 141950Z 03003KT 350V060 CAVOK 11/09 Q1031=
200909141920 METAR ESMX 141920Z 02002KT CAVOK 10/08 Q1030=
200909141820 METAR ESMX 141820Z 04003KT 010V070 CAVOK 12/09 Q1030=
200909141750 METAR ESMX 141750Z 03003KT 360V070 CAVOK 13/09 Q1030=
200909141720 METAR ESMX 141720Z 06003KT 020V100 CAVOK 14/09 Q1030=
200909141650 METAR ESMX 141650Z 04006KT 9999 FEW032 15/09 Q1029=
200909141620 METAR ESMX 141620Z 04006KT 020V080 9999 FEW040 15/10 Q1029=
200909141550 METAR ESMX 141550Z 05007KT 010V080 9999 FEW045 16/09 Q1029=
200909141520 METAR ESMX 141520Z 04009KT 010V070 9999 FEW035 16/09 Q1029=
200909141450 METAR ESMX 141450Z 04008KT 9999 FEW034 17/09 Q1029=
200909141420 METAR ESMX 141420Z 03008KT 350V060 9999 FEW040 17/09 Q1029=
200909141350 METAR ESMX 141350Z 02009KT 350V060 9999 FEW038 17/09 Q1029=
200909141320 METAR ESMX 141320Z 02009KT 340V080 9999 FEW040 16/09 Q1029=
200909141250 METAR ESMX 141250Z 04010KT 010V080 9999 FEW031 SCT043 16/08 Q1029=
200909141220 METAR ESMX 141220Z 04009KT 010V100 9999 FEW032 16/08 Q1029=
200909141150 METAR ESMX 141150Z 06009KT 010V110 9999 FEW025 SCT032 16/08 Q1028=
200909141120 METAR ESMX 141120Z 04009KT 010V070 9999 FEW023 SCT035 15/09 Q1028=
200909141050 METAR ESMX 141050Z 04009KT 010V080 9999 FEW024 SCT030 15/09 Q1028=
200909141020 METAR ESMX 141020Z 02010KT 350V070 9999 FEW025 BKN035 15/10 Q1028=
200909140950 METAR ESMX 140950Z 05010KT 020V110 9999 FEW023 BKN030 14/09 Q1028=
200909140920 METAR ESMX 140920Z 04009KT 010V070 9999 FEW023 BKN030 14/09 Q1028=
200909140850 METAR ESMX 140850Z 05007KT 020V090 9999 FEW020 BKN025 14/09 Q1028=
200909140820 METAR ESMX 140820Z 04010KT 010V090 9999 FEW018 SCT025 13/08 Q1028=
200909140750 METAR ESMX 140750Z 04009KT 010V080 9999 FEW018 SCT025 13/09 Q1027=
200909140650 METAR ESMX 140650Z 03010KT 9999 FEW015 SCT023 12/09 Q1027=
200909140620 METAR ESMX 140620Z 04008KT 360V070 9999 FEW011 SCT021 12/10 Q1026=
200909140550 METAR ESMX 140550Z 03009KT 9999 FEW010 SCT020 11/10 Q1026=
200909140520 METAR ESMX 140520Z 01007KT 9999 FEW013 SCT023 11/10 Q1025=
200909140450 METAR ESMX 140450Z 02008KT 9999 FEW015 SCT022 10/09 Q1025=
200909140420 METAR ESMX 140420Z 02007KT 9999 FEW015 10/09 Q1025=
200909140350 METAR ESMX 140350Z 02008KT 9999 FEW015 11/09 Q1025=
200909140320 METAR ESMX 140320Z AUTO 02009KT 9999NDV FEW015/// 11/09 Q1025=
200909140250 METAR ESMX 140250Z AUTO 01010KT 9999NDV NCD 11/09 Q1025=
200909140220 METAR ESMX 140220Z AUTO 02008KT 9999NDV NCD 11/09 Q1024=
200909140150 METAR ESMX 140150Z AUTO 03009KT 340V050 9999NDV FEW019/// 11/09 Q1024=
200909140120 METAR ESMX 140120Z AUTO 04009KT 010V070 9999NDV BKN018/// 12/09 Q1024=
200909140050 METAR ESMX 140050Z AUTO 03011KT 350V060 9999NDV FEW014/// SCT033/// BKN038/// 12/10 Q1024=
200909140020 METAR ESMX 140020Z 02009KT 9999 FEW015 BKN032 12/10 Q1024=
200909132350 METAR ESMX 132350Z 03008KT 350V060 9999 BKN014 OVC020 13/10 Q1024=
200909132320 METAR ESMX 132320Z 02010KT 350V050 9999 FEW016 BKN020 OVC027 13/10 Q1024=
200909132250 METAR ESMX 132250Z 04009KT 010V080 9999 FEW013 BKN016 13/10 Q1023=
200909132220 METAR ESMX 132220Z 03009KT 350V060 9999 BKN011 13/10 Q1023=
200909132150 METAR ESMX 132150Z 03008KT 360V070 9999 BKN010 12/10 Q1023=
200909132120 METAR ESMX 132120Z 03009KT 360V070 9999 BKN010 12/10 Q1023=
200909132050 METAR ESMX 132050Z 01008KT 9999 SCT010 12/10 Q1022=
200909132020 METAR ESMX 132020Z 02008KT 360V080 9999 FEW012 12/10 Q1022=
200909131950 METAR ESMX 131950Z 01009KT CAVOK 12/10 Q1022=
200909131920 METAR ESMX 131920Z 02010KT CAVOK 12/10 Q1022=
200909131850 METAR ESMX 131850Z 02008KT 9999 FEW027 12/10 Q1021=
200909131820 METAR ESMX 131820Z 02009KT 350V050 CAVOK 13/10 Q1021=
200909131750 METAR ESMX 131750Z 02009KT CAVOK 13/10 Q1020=
200909131720 METAR ESMX 131720Z 02009KT CAVOK 13/10 Q1020=
200909131650 METAR ESMX 131650Z 02011KT CAVOK 14/10 Q1020=
200909131620 METAR ESMX 131620Z 03011KT 360V060 9999 FEW019 BKN068 14/10 Q1019=
200909131550 METAR ESMX 131550Z 01012KT 9999 FEW016 SCT020 BKN028 15/11 Q1019=
200909131520 METAR ESMX 131520Z 03011KT 350V060 9999 FEW017 SCT021 BKN053 14/11 Q1018=
200909131450 METAR ESMX 131450Z 03012KT 360V070 9999 FEW018 SCT030 BKN066 15/11 Q1018=
200909131420 METAR ESMX 131420Z 03012KT 360V060 9999 FEW028 15/11 Q1017=
200909131350 METAR ESMX 131350Z 03012KT 9999 FEW040 OVC059 14/11 Q1017=
200909131320 METAR ESMX 131320Z 01015KT 340V050 9999 -RA FEW020 SCT029 BKN040 13/11 Q1017 REDZ=
200909131250 METAR ESMX 131250Z 36014KT 9999 FEW020 SCT025 OVC058 14/10 Q1016=
200909131220 METAR ESMX 131220Z 02014KT 9999 FEW017 SCT024 BKN032 14/10 Q1016=
200909131150 METAR ESMX 131150Z 02015KT 9999 FEW015 SCT019 BKN024 15/11 Q1016=
200909131120 METAR ESMX 131120Z 03012KT 9999 FEW013 SCT016 BKN019 13/11 Q1015=
200909131050 METAR ESMX 131050Z 02013KT 9999 FEW012 SCT015 BKN018 12/10 Q1015=
200909131020 METAR ESMX 131020Z 01012KT 9999 FEW009 BKN012 OVC015 12/10 Q1014=
200909130950 METAR ESMX 130950Z AUTO 36012KT 330V030 9999NDV FEW010/// BKN012/// OVC017/// 12/10 Q1014=
200909130920 METAR ESMX 130920Z AUTO 36013KT 9999NDV FEW011/// BKN014/// OVC019/// 12/10 Q1014=
200909130850 METAR ESMX 130850Z AUTO 36015KT 9999NDV FEW010/// BKN013/// BKN020/// 12/10 Q1014=
200909130820 METAR ESMX 130820Z AUTO 36011KT 9999NDV FEW009/// SCT014/// BKN020/// 12/10 Q1013=
200909130750 METAR ESMX 130750Z AUTO 35011KT 9999NDV -DZ FEW007/// SCT012/// BKN017/// 12/10 Q1013 RESHRA=
200909130720 METAR ESMX 130720Z AUTO 36010KT 9999NDV -RA FEW006/// SCT007/// BKN010/// 11/10 Q1013=
200909130650 METAR ESMX 130650Z AUTO 35010KT 9999NDV -RA SCT006/// BKN045/// BKN062/// 11/10 Q1013=
200909130620 METAR ESMX 130620Z AUTO 35007KT 9999NDV -DZ FEW021/// SCT083/// 11/10 Q1013 REDZ=
200909130550 METAR ESMX 130550Z AUTO 36007KT 9999NDV DZ FEW022/// SCT033/// BKN044/// 11/10 Q1013=
200909130520 METAR ESMX 130520Z AUTO 36010KT 9999NDV +RA BKN030/// BKN044/// 11/10 Q1012=
200909130450 METAR ESMX 130450Z AUTO 34006KT 290V010 9999NDV FEW006/// SCT032/// BKN068/// 10/10 Q1012=
200909130420 METAR ESMX 130420Z AUTO 34006KT 9999NDV BKN099/// 10/09 Q1012=
200909130350 METAR ESMX 130350Z AUTO 36007KT 7000NDV FEW099/// 09/09 Q1012=
200909130320 METAR ESMX 130320Z AUTO 34005KT 0900NDV R01/P2000N R19/P2000N FG NCD 09/08 Q1012=
200909130250 METAR ESMX 130250Z AUTO VRB01KT 7000NDV BR NCD 09/09 Q1012=
200909130220 METAR ESMX 130220Z AUTO 33003KT 9999NDV FEW008/// BKN062/// 10/09 Q1012=
200909130150 METAR ESMX 130150Z AUTO 30003KT 9999NDV FEW010/// SCT026/// BKN071/// 10/09 Q1012=
200909130120 METAR ESMX 130120Z AUTO 28002KT 9999NDV FEW021/// BKN069/// 11/10 Q1012=
200909130050 METAR ESMX 130050Z AUTO 28003KT 9999NDV FEW023/// BKN068/// 11/10 Q1013=
200909130020 METAR ESMX 130020Z AUTO 25002KT 9999NDV FEW023/// BKN065/// 11/10 Q1013=
200909122350 METAR ESMX 122350Z AUTO 25002KT 9999NDV FEW021/// SCT034/// OVC063/// 11/10 Q1013=
200909122320 METAR ESMX 122320Z AUTO VRB02KT 9999NDV FEW042/// OVC052/// 11/10 Q1013=
200909122250 METAR ESMX 122250Z AUTO 26004KT 9999NDV OVC059/// 11/10 Q1013=
200909122220 METAR ESMX 122220Z AUTO 22003KT 9999NDV FEW026/// OVC059/// 11/10 Q1014=
200909122150 METAR ESMX 122150Z AUTO 24003KT 210V290 9999NDV FEW040/// OVC060/// 12/10 Q1014=
200909122120 METAR ESMX 122120Z AUTO 24004KT 9999NDV SCT050/// BKN066/// 11/10 Q1014=
200909122050 METAR ESMX 122050Z AUTO 23004KT 9999NDV SCT095/// 11/10 Q1014=
200909122020 METAR ESMX 122020Z AUTO 24004KT 9999NDV BKN052/// 11/10 Q1014=
200909121950 METAR ESMX 121950Z AUTO 23003KT 9999NDV FEW045/// 11/10 Q1015=
200909121920 METAR ESMX 121920Z AUTO 23003KT 9999NDV NCD 12/09 Q1015=
200909121850 METAR ESMX 121850Z AUTO 24006KT 9999NDV FEW030/// SCT043/// 12/10 Q1015=
200909121820 METAR ESMX 121820Z AUTO 23005KT 190V260 9999NDV FEW030/// BKN040/// 13/10 Q1016=
200909121750 METAR ESMX 121750Z 22004KT 9999 FEW034 12/10 Q1016=
200909121720 METAR ESMX 121720Z 24005KT CAVOK 14/10 Q1016=
200909121650 METAR ESMX 121650Z 23005KT 200V270 CAVOK 15/10 Q1016=
200909121620 METAR ESMX 121620Z 25007KT 9999 FEW034 SCT049 BKN100 15/10 Q1016=
200909121550 METAR ESMX 121550Z 24005KT 210V270 9999 SCT028 15/11 Q1017=
200909121520 METAR ESMX 121520Z 25007KT 9999 FEW026 16/11 Q1017=
200909121450 METAR ESMX 121450Z 25005KT 9999 FEW030 BKN045 15/12 Q1018 RERA RESHRA=
200909121420 METAR ESMX 121420Z 24005KT 210V280 9999 FEW035 16/10 Q1018=
200909121350 METAR ESMX 121350Z 26008KT 230V290 9999 FEW044 17/10 Q1019=
200909121320 METAR ESMX 121320Z 24007KT 210V290 9999 FEW034 SCT041 17/09 Q1019=
200909121250 METAR ESMX 121250Z 23005KT 9999 FEW038 17/09 Q1019=
200909121220 METAR ESMX 121220Z 25008KT 200V280 9999 FEW037 17/08 Q1020=
200909121150 METAR ESMX 121150Z 26007KT 220V310 9999 FEW036 17/09 Q1020=
200909121120 METAR ESMX 121120Z 21008KT 190V250 CAVOK 17/08 Q1020=
200909121050 METAR ESMX 121050Z 22005KT 110V280 CAVOK 18/08 Q1021=
200909121020 METAR ESMX 121020Z 25007KT CAVOK 17/09 Q1022=
200909120950 METAR ESMX 120950Z 26006KT 200V300 CAVOK 17/08 Q1022=
200909120920 METAR ESMX 120920Z 24004KT 200V310 CAVOK 16/10 Q1022=
200909120850 METAR ESMX 120850Z 27004KT 230V310 CAVOK 15/10 Q1023=
200909120820 METAR ESMX 120820Z 27004KT 210V300 CAVOK 14/10 Q1023=
200909120750 METAR ESMX 120750Z VRB02KT CAVOK 12/11 Q1023=
200909120720 METAR ESMX 120720Z VRB01KT CAVOK 10/10 Q1023=
200909120650 METAR ESMX 120650Z VRB01KT CAVOK 09/08 Q1024=
200909120620 METAR ESMX 120620Z 00000KT CAVOK 07/07 Q1024=
200909120550 METAR ESMX 120550Z AUTO 00000KT 3100NDV NCD 05/04 Q1024=
200909120520 METAR ESMX 120520Z AUTO 00000KT 1700NDV NCD 04/04 Q1024=
200909120450 METAR ESMX 120450Z AUTO 00000KT 1500NDV FG NCD 04/04 Q1024=
200909120420 METAR ESMX 120420Z AUTO 00000KT 9999NDV NCD 05/04 Q1024=
200909120350 METAR ESMX 120350Z AUTO 00000KT 0900NDV R01/P2000N R19/P2000N FG NCD 04/03 Q1024=
200909120320 METAR ESMX 120320Z AUTO 28001KT 9999NDV NCD 05/05 Q1024=
200909120250 METAR ESMX 120250Z AUTO 00000KT 9999NDV NCD 05/05 Q1025=
200909120220 METAR ESMX 120220Z AUTO 00000KT 0900NDV R01/P2000N R19/P2000 BR NCD 05/05 Q1025=
200909120150 METAR ESMX 120150Z AUTO 27001KT 9999NDV NCD 05/04 Q1025=
200909120120 METAR ESMX 120120Z AUTO 00000KT 9999NDV NCD 07/07 Q1025=
200909120050 METAR ESMX 120050Z AUTO 27001KT 9999NDV NCD 06/05 Q1026=
200909120020 METAR ESMX 120020Z AUTO VRB01KT 9999NDV NCD 08/07 Q1026=
200909112350 METAR ESMX 112350Z AUTO 00000KT 9999NDV NCD 07/06 Q1026=
200909112320 METAR ESMX 112320Z AUTO VRB01KT 9999NDV NCD 07/06 Q1026=
200909112250 METAR ESMX 112250Z AUTO 19001KT 9999NDV NCD 08/06 Q1026=
200909112220 METAR ESMX 112220Z AUTO 00000KT 9999NDV NCD 09/08 Q1026=
200909112150 METAR ESMX 112150Z AUTO 00000KT 9999NDV NCD 10/08 Q1026=
200909112120 METAR ESMX 112120Z AUTO 26002KT 9999NDV NCD 10/08 Q1026=
200909112050 METAR ESMX 112050Z AUTO 28004KT 9999NDV NCD 11/08 Q1026=
200909112020 METAR ESMX 112020Z AUTO 26003KT 9999NDV NCD 12/08 Q1026=
200909111950 METAR ESMX 111950Z AUTO 25003KT 9999NDV NCD 10/08 Q1027=
200909111920 METAR ESMX 111920Z AUTO 18002KT 9999NDV NCD 10/08 Q1027=
200909111850 METAR ESMX 111850Z AUTO 18002KT 9999NDV NCD 10/08 Q1027=
200909111820 METAR ESMX 111820Z 18002KT CAVOK 11/08 Q1027=
200909111750 METAR ESMX 111750Z 19002KT CAVOK 11/09 Q1027=
200909111720 METAR ESMX 111720Z 19001KT CAVOK 13/09 Q1027=
200909111650 METAR ESMX 111650Z 27001KT CAVOK 16/08 Q1027=
200909111620 METAR ESMX 111620Z 27002KT CAVOK 17/07 Q1027=
200909111550 METAR ESMX 111550Z 27003KT 230V320 CAVOK 18/08 Q1028=
200909111520 METAR ESMX 111520Z 26003KT 190V290 9999 FEW045 18/08 Q1028=
200909111450 METAR ESMX 111450Z 26003KT 230V300 9999 FEW045 17/08 Q1028=
200909111420 METAR ESMX 111420Z 25005KT 210V280 9999 FEW045 19/07 Q1028=
200909111350 METAR ESMX 111350Z 31004KT 9999 FEW040 17/08 Q1029=
200909111320 METAR ESMX 111320Z 31004KT 260V350 CAVOK 18/08 Q1029=
200909111250 METAR ESMX 111250Z 34003KT 290V080 9999 FEW035 18/09 Q1029=
200909111220 METAR ESMX 111220Z 34003KT 290V020 9999 FEW030 18/08 Q1029=
200909111150 METAR ESMX 111150Z 02004KT 340V050 7000 FEW032 18/08 Q1029=
200909111120 METAR ESMX 111120Z 34004KT 290V020 9999 FEW035 18/08 Q1030=
200909111050 METAR ESMX 111050Z 03005KT 300V070 9999 FEW037 18/08 Q1030=
200909111020 METAR ESMX 111020Z 34005KT 310V020 CAVOK 17/09 Q1030=
200909110950 METAR ESMX 110950Z 02003KT 340V070 CAVOK 18/10 Q1030=
200909110920 METAR ESMX 110920Z 01003KT 330V060 CAVOK 17/09 Q1030=
200909110850 METAR ESMX 110850Z VRB02KT CAVOK 16/08 Q1031=
200909110820 METAR ESMX 110820Z VRB02KT CAVOK 15/08 Q1031=
200909110750 METAR ESMX 110750Z VRB01KT CAVOK 15/09 Q1031=
200909110720 METAR ESMX 110720Z VRB02KT CAVOK 13/11 Q1031=
200909110650 METAR ESMX 110650Z VRB01KT CAVOK 11/11 Q1030=
200909110620 METAR ESMX 110620Z 03001KT CAVOK 10/10 Q1030=
200909110550 METAR ESMX 110550Z 18001KT 9999 MIFG NSC 06/06 Q1031=
200909110520 METAR ESMX 110520Z 00000KT 9999 R01/1000N R19/P2000N BCFG NSC 04/04 Q1031=
200909110450 METAR ESMX 110450Z 00000KT 1100 R01/P2000N R19/P2000N BCFG SKC 04/04 Q1031=
200909110420 METAR ESMX 110420Z 00000KT 1100 R01/P2000N R19/P2000N BCFG SKC 04/03 Q1030=
200909110350 METAR ESMX 110350Z 00000KT 0900 R01/1700 R19/P2000 FG NSC 04/04 Q1030=
200909110320 METAR ESMX 110320Z AUTO 00000KT 0550NDV R01/1200VP2000D R19/P2000N FG NCD 04/04 Q1030=
200909110250 METAR ESMX 110250Z AUTO 00000KT 0700NDV R01/P2000N R19/P2000N NCD 05/04 Q1030=
200909110220 METAR ESMX 110220Z AUTO 00000KT 0250NDV R01/0750 R19/P2000N BCFG NCD 05/04 Q1030=
200909110150 METAR ESMX 110150Z AUTO 00000KT 0750NDV R01/P2000D R19/P2000N FG NCD 05/05 Q1030=
200909110120 METAR ESMX 110120Z AUTO 00000KT 9999NDV NCD 05/05 Q1030=
200909110050 METAR ESMX 110050Z AUTO 04001KT 6000NDV NCD 06/05 Q1030=
200909110020 METAR ESMX 110020Z AUTO 00000KT 1900NDV NCD 06/05 Q1030=
200909102350 METAR ESMX 102350Z AUTO VRB01KT 9999NDV NCD 06/05 Q1031=
200909102320 METAR ESMX 102320Z 00000KT CAVOK 07/06 Q1030=
200909102250 METAR ESMX 102250Z VRB01KT CAVOK 07/06 Q1030=
200909102220 METAR ESMX 102220Z 03002KT CAVOK 08/07 Q1030=
200909102150 METAR ESMX 102150Z 04003KT CAVOK 09/08 Q1030=
200909102120 METAR ESMX 102120Z VRB02KT CAVOK 10/09 Q1030=
200909102050 METAR ESMX 102050Z VRB02KT CAVOK 11/10 Q1030=
200909102020 METAR ESMX 102020Z VRB01KT CAVOK 09/08 Q1030=
200909101950 METAR ESMX 101950Z 35002KT CAVOK 10/09 Q1030=
200909101920 METAR ESMX 101920Z 00000KT CAVOK 10/08 Q1030=
200909101850 METAR ESMX 101850Z 17001KT CAVOK 11/09 Q1029=
200909101820 METAR ESMX 101820Z 00000KT CAVOK 13/10 Q1029=
200909101750 METAR ESMX 101750Z 00000KT CAVOK 14/09 Q1029=
200909101720 METAR ESMX 101720Z 01003KT CAVOK 16/10 Q1029=
200909101650 METAR ESMX 101650Z 36003KT 340V040 CAVOK 18/10 Q1029=
200909101620 METAR ESMX 101620Z 03004KT CAVOK 19/09 Q1029=
200909101550 METAR ESMX 101550Z 01006KT CAVOK 19/08 Q1029=
200909101520 METAR ESMX 101520Z 34005KT CAVOK 19/09 Q1029=
200909101450 METAR ESMX 101450Z 35006KT 320V020 CAVOK 20/08 Q1029=
200909101420 METAR ESMX 101420Z 36006KT CAVOK 20/07 Q1029=
200909101350 METAR ESMX 101350Z 36006KT CAVOK 20/07 Q1028=
200909101320 METAR ESMX 101320Z 36005KT 330V040 CAVOK 20/07 Q1028=
200909101250 METAR ESMX 101250Z 35006KT CAVOK 20/08 Q1028=
200909101220 METAR ESMX 101220Z 35006KT 320V020 CAVOK 20/08 Q1028=
200909101150 METAR ESMX 101150Z 35005KT 320V030 CAVOK 19/10 Q1029=
200909101120 METAR ESMX 101120Z 36005KT 320V040 CAVOK 19/11 Q1028=
200909101050 METAR ESMX 101050Z 01004KT 340V050 CAVOK 18/11 Q1029=
200909101020 METAR ESMX 101020Z 01004KT 330V050 CAVOK 18/10 Q1028=
200909100950 METAR ESMX 100950Z VRB02KT CAVOK 17/11 Q1028=
200909100920 METAR ESMX 100920Z 32003KT 260V020 CAVOK 16/11 Q1028=
200909100850 METAR ESMX 100850Z VRB02KT CAVOK 16/11 Q1028=
200909100820 METAR ESMX 100820Z 36004KT 320V030 CAVOK 15/10 Q1028=
200909100750 METAR ESMX 100750Z 36004KT CAVOK 14/11 Q1028=
200909100720 METAR ESMX 100720Z 01005KT CAVOK 13/10 Q1028=
200909100650 METAR ESMX 100650Z 36005KT CAVOK 12/11 Q1028=
200909100620 METAR ESMX 100620Z 36005KT CAVOK 11/11 Q1028=
200909100550 METAR ESMX 100550Z VRB01KT CAVOK 10/09 Q1027=
200909100520 METAR ESMX 100520Z VRB02KT CAVOK 09/09 Q1027=
200909100450 METAR ESMX 100450Z 00000KT CAVOK 10/09 Q1027=
200909100420 METAR ESMX 100420Z 31003KT CAVOK 09/09 Q1027=
200909100350 METAR ESMX 100350Z 31002KT CAVOK 09/09 Q1027=
200909100320 METAR ESMX 100320Z VRB01KT CAVOK 09/09 Q1027=
200909100250 METAR ESMX 100250Z AUTO 29002KT 9999NDV NCD 10/09 Q1027=
200909100220 METAR ESMX 100220Z AUTO 31003KT 9999NDV NCD 10/09 Q1027=
200909100150 METAR ESMX 100150Z AUTO VRB02KT 9999NDV NCD 10/09 Q1027=
200909100120 METAR ESMX 100120Z AUTO 32003KT 9999NDV NCD 12/10 Q1027=
200909100050 METAR ESMX 100050Z AUTO 29002KT 9999NDV NCD 13/10 Q1027=
200909100020 METAR ESMX 100020Z AUTO 32002KT 9999NDV SCT110/// 13/10 Q1027=
200909092350 METAR ESMX 092350Z AUTO 32002KT 9999NDV FEW110/// 13/10 Q1026=
200909092320 METAR ESMX 092320Z VRB02KT CAVOK 13/10 Q1026=
200909092250 METAR ESMX 092250Z 32003KT CAVOK 14/10 Q1026=
200909092220 METAR ESMX 092220Z 33006KT CAVOK 14/10 Q1026=
200909092150 METAR ESMX 092150Z 31005KT CAVOK 14/10 Q1026=
200909092120 METAR ESMX 092120Z 31005KT CAVOK 15/10 Q1026=
200909092050 METAR ESMX 092050Z 32005KT CAVOK 15/11 Q1026=
200909092020 METAR ESMX 092020Z 30005KT 260V340 CAVOK 15/11 Q1025=
200909091950 METAR ESMX 091950Z 30004KT CAVOK 15/12 Q1025=
200909091920 METAR ESMX 091920Z 29003KT 9999 FEW037 SCT065 15/12 Q1025=
200909091850 METAR ESMX 091850Z 31003KT 9999 BKN030 16/12 Q1025=
200909091820 METAR ESMX 091820Z 30003KT 9999 FEW030 SCT043 BKN054 16/12 Q1024=
200909091750 METAR ESMX 091750Z 29007KT 9999 BKN043 17/12 Q1024=
200909091720 METAR ESMX 091720Z 30005KT 240V320 9999 FEW046 BKN053 18/14 Q1024=
200909091650 METAR ESMX 091650Z 29003KT 260V340 9999 FEW020 BKN060 18/14 Q1024=
200909091620 METAR ESMX 091620Z 30005KT 9999 FEW020 BKN070 18/15 Q1023=
200909091550 METAR ESMX 091550Z 30008KT 260V330 9999 FEW020 BKN068 20/15 Q1023=
200909091520 METAR ESMX 091520Z 30008KT 270V330 9999 FEW020 BKN068 20/16 Q1023=
200909091450 METAR ESMX 091450Z 29007KT 250V320 CAVOK 22/15 Q1022=
200909091420 METAR ESMX 091420Z 28008KT 250V320 CAVOK 23/15 Q1022=
200909091350 METAR ESMX 091350Z 23008KT 200V260 CAVOK 24/15 Q1022=
200909091320 METAR ESMX 091320Z 22010KT CAVOK 24/15 Q1022=
200909091250 METAR ESMX 091250Z 20011KT 170V240 CAVOK 24/14 Q1022=
200909091220 METAR ESMX 091220Z 18012KT CAVOK 24/15 Q1022=
200909091150 METAR ESMX 091150Z 19011KT CAVOK 24/14 Q1022=
200909091120 METAR ESMX 091120Z 19010KT 150V220 CAVOK 24/15 Q1022=
200909091050 METAR ESMX 091050Z 18011KT 150V210 CAVOK 23/14 Q1022=
200909091020 METAR ESMX 091020Z 20009KT CAVOK 23/14 Q1022=
200909090950 METAR ESMX 090950Z 19011KT 140V210 CAVOK 21/14 Q1022=
200909090920 METAR ESMX 090920Z 19010KT 140V220 CAVOK 21/13 Q1022=
200909090850 METAR ESMX 090850Z 18009KT CAVOK 20/14 Q1022=
200909090820 METAR ESMX 090820Z 17008KT CAVOK 19/13 Q1022=
200909090750 METAR ESMX 090750Z 18010KT 150V210 CAVOK 18/13 Q1022=
200909090720 METAR ESMX 090720Z 17008KT CAVOK 18/13 Q1021=
200909090650 METAR ESMX 090650Z 17008KT 140V200 CAVOK 17/13 Q1021=
200909090620 METAR ESMX 090620Z 17007KT 130V200 CAVOK 16/12 Q1021=
200909090550 METAR ESMX 090550Z 17007KT 140V200 CAVOK 15/12 Q1021=
200909090520 METAR ESMX 090520Z 17007KT CAVOK 15/12 Q1021=
200909090450 METAR ESMX 090450Z 17006KT CAVOK 14/12 Q1021=
200909090420 METAR ESMX 090420Z 18005KT CAVOK 14/12 Q1021=
200909090350 METAR ESMX 090350Z 17007KT CAVOK 14/12 Q1021=
200909090320 METAR ESMX 090320Z AUTO 17007KT 9999NDV NCD 15/12 Q1021=
200909090250 METAR ESMX 090250Z AUTO 17007KT 070V210 9999NDV NCD 15/12 Q1021=
200909090220 METAR ESMX 090220Z AUTO 17007KT 9999NDV NCD 15/12 Q1021=
200909090150 METAR ESMX 090150Z AUTO 17007KT 9999NDV NCD 15/12 Q1021=
200909090120 METAR ESMX 090120Z AUTO 18006KT 9999NDV NCD 15/12 Q1021=
200909090050 METAR ESMX 090050Z AUTO 17007KT 9999NDV NCD 15/12 Q1022=
200909090020 METAR ESMX 090020Z AUTO 18007KT 160V220 9999NDV NCD 15/12 Q1022=
200909082350 METAR ESMX 082350Z AUTO 18006KT 9999NDV NCD 15/12 Q1022=
200909082320 METAR ESMX 082320Z 17007KT CAVOK 15/12 Q1022=
200909082250 METAR ESMX 082250Z 17007KT CAVOK 14/12 Q1022=
200909082220 METAR ESMX 082220Z 17007KT CAVOK 15/12 Q1022=
200909082150 METAR ESMX 082150Z 17007KT CAVOK 15/12 Q1022=
200909082120 METAR ESMX 082120Z 16005KT CAVOK 14/12 Q1023=
200909082050 METAR ESMX 082050Z 16006KT CAVOK 14/12 Q1023=
200909082020 METAR ESMX 082020Z 17006KT CAVOK 15/12 Q1023=
200909081950 METAR ESMX 081950Z 16005KT CAVOK 15/12 Q1023=
200909081920 METAR ESMX 081920Z 17006KT CAVOK 16/12 Q1023=
200909081850 METAR ESMX 081850Z 17004KT CAVOK 16/12 Q1023=
200909081820 METAR ESMX 081820Z 16006KT CAVOK 17/12 Q1023=
200909081720 METAR ESMX 081720Z 16006KT 120V190 CAVOK 18/13 Q1022=
200909081650 METAR ESMX 081650Z 16008KT 120V190 CAVOK 19/12 Q1022=
200909081620 METAR ESMX 081620Z 16008KT CAVOK 20/12 Q1022=
200909081550 METAR ESMX 081550Z 17008KT 9999 FEW033 21/13 Q1022=
200909081520 METAR ESMX 081520Z 17009KT 120V200 9999 FEW035 21/14 Q1022=
200909081450 METAR ESMX 081450Z 18008KT 9999 BKN048 21/14 Q1023=
200909081420 METAR ESMX 081420Z 17007KT 130V210 9999 BKN048 20/14 Q1023=
200909081350 METAR ESMX 081350Z 19007KT 9999 FEW035 BKN050 20/14 Q1023=
200909081320 METAR ESMX 081320Z 21007KT 9999 FEW033 BKN043 20/14 Q1023=
200909081250 METAR ESMX 081250Z 20006KT 9999 FEW035 BKN045 20/14 Q1023=
200909081220 METAR ESMX 081220Z 22007KT 9999 BKN035 OVC050 19/13 Q1024=
200909081150 METAR ESMX 081150Z 21009KT 9999 BKN030 OVC045 19/13 Q1023=
200909081120 METAR ESMX 081120Z 21009KT 170V240 9999 FEW030 BKN045 20/13 Q1023=
200909081050 METAR ESMX 081050Z 20011KT 170V240 9999 FEW028 SCT035 BKN045 20/14 Q1023=
200909081020 METAR ESMX 081020Z 22010KT 9999 FEW027 SCT031 BKN046 20/14 Q1023=
200909080920 METAR ESMX 080920Z 22011KT 9999 FEW025 SCT045 19/14 Q1023=
200909080850 METAR ESMX 080850Z 22010KT 190V250 9999 SCT040 19/14 Q1023=
200909080820 METAR ESMX 080820Z 20010KT 9999 SCT038 17/14 Q1023=
200909080750 METAR ESMX 080750Z 20009KT 9999 SCT041 16/13 Q1023=
200909080720 METAR ESMX 080720Z 19008KT 9999 FEW042 15/13 Q1023=
200909080650 METAR ESMX 080650Z 21006KT 9999 FEW012 SCT025 15/13 Q1023=
200909080620 METAR ESMX 080620Z 19008KT 9999 FEW012 SCT015 15/13 Q1022=
200909080550 METAR ESMX 080550Z 21006KT 170V240 9999 SCT012 15/13 Q1022=
200909080520 METAR COR ESMX 080520Z 18007KT 9999 FEW020 14/13 Q1022=
200909080450 METAR ESMX 080450Z 18007KT 9999 FEW020 SCT035 14/13 Q1022=
200909080420 METAR ESMX 080420Z 19007KT 9999 FEW024 SCT032 BKN040 14/13 Q1022=
200909080350 METAR ESMX 080350Z 20006KT 9999 SCT015 BKN032 14/13 Q1022=
200909080320 METAR ESMX 080320Z AUTO 18005KT 9000NDV SCT056/// 14/12 Q1021=
200909080250 METAR ESMX 080250Z AUTO 18006KT 9999NDV OVC057/// 14/13 Q1022=
200909080220 METAR ESMX 080220Z AUTO 19007KT 9999NDV FEW017/// OVC063/// 14/12 Q1022=
200909080150 METAR ESMX 080150Z AUTO 20007KT 9999NDV BKN016/// BKN065/// 14/12 Q1021=
200909080120 METAR ESMX 080120Z AUTO 19007KT 160V230 9999NDV OVC015/// 15/13 Q1021=
200909080050 METAR ESMX 080050Z AUTO 20007KT 9999NDV OVC017/// 15/13 Q1021=
200909080020 METAR ESMX 080020Z AUTO 19007KT 9999NDV OVC019/// 14/13 Q1021=
200909072350 METAR ESMX 072350Z 19008KT 9999 OVC021 14/13 Q1021=
200909072320 METAR ESMX 072320Z 19007KT 9999 OVC024 14/12 Q1021=
200909072250 METAR ESMX 072250Z 18008KT 9999 OVC024 14/12 Q1020=
200909072220 METAR ESMX 072220Z 18007KT 9999 BKN026 14/12 Q1021=
200909072150 METAR ESMX 072150Z 19007KT 9999 FEW025 BKN030 14/12 Q1021=
200909072120 METAR ESMX 072120Z 19008KT 9999 FEW026 BKN033 14/11 Q1021=
200909072050 METAR ESMX 072050Z 18007KT 9999 SCT035 13/11 Q1020=
200909072020 METAR ESMX 072020Z 17008KT CAVOK 14/11 Q1020=
200909071950 METAR ESMX 071950Z 18007KT CAVOK 14/11 Q1021=
200909071920 METAR ESMX 071920Z 18006KT CAVOK 13/10 Q1021=
200909071850 METAR ESMX 071850Z 19005KT CAVOK 13/10 Q1020=
200909071820 METAR ESMX 071820Z 17005KT CAVOK 14/11 Q1020=
200909071750 METAR ESMX 071750Z 17005KT 9999 BKN046 15/11 Q1020=
200909071720 METAR ESMX 071720Z 19006KT 9999 BKN045 15/11 Q1020=
200909071650 METAR ESMX 071650Z 18004KT 160V220 9999 FEW020 BKN045 15/11 Q1020=
200909071620 METAR ESMX 071620Z 17004KT 9999 FEW020 BKN050 15/11 Q1020=
200909071550 METAR ESMX 071550Z 18005KT 9999 FEW020 BKN045 16/11 Q1020=
200909071520 METAR ESMX 071520Z 19004KT 150V230 9999 FEW020 BKN040 16/11 Q1020=
200909071450 METAR ESMX 071450Z 20003KT 150V230 9999 FEW020 BKN040 16/11 Q1020=
200909071420 METAR ESMX 071420Z 22006KT 9999 FEW020 BKN040 16/11 Q1020=
200909071350 METAR ESMX 071350Z 23006KT 9999 FEW020 BKN040 16/10 Q1020=
200909071320 METAR ESMX 071320Z 24007KT 210V270 9999 SCT035 BKN045 16/10 Q1020=
200909071250 METAR ESMX 071250Z 24006KT 200V260 9999 SCT030 BKN040 16/10 Q1020=
200909071220 METAR ESMX 071220Z 22007KT 9999 FEW023 SCT030 BKN040 16/11 Q1019=
200909071150 METAR ESMX 071150Z 20009KT 160V240 9999 FEW024 SCT035 BKN045 16/11 Q1019=
200909071120 METAR ESMX 071120Z 22010KT 9999 FEW022 SCT045 15/11 Q1019=
200909071050 METAR ESMX 071050Z 22009KT 9999 FEW026 SCT030 BKN040 15/10 Q1019=
200909071020 METAR ESMX 071020Z 24009KT 210V280 9999 FEW017 SCT029 BKN038 15/10 Q1019=
200909070950 METAR ESMX 070950Z 23008KT 9999 FEW015 SCT025 BKN035 15/11 Q1019=
200909070920 METAR ESMX 070920Z 22008KT 9999 FEW017 SCT021 BKN040 15/12 Q1019=
200909070850 METAR ESMX 070850Z 24006KT 200V290 9999 FEW014 SCT023 BKN035 14/12 Q1019=
200909070820 METAR ESMX 070820Z 27005KT 9999 FEW010 SCT015 BKN020 13/12 Q1019=
200909070750 METAR ESMX 070750Z 23007KT 210V270 9999 FEW005 SCT008 BKN015 14/12 Q1019=
200909070720 METAR ESMX 070720Z 25007KT 220V280 9999 FEW006 SCT009 BKN012 14/12 Q1018=
200909070650 METAR ESMX 070650Z 25004KT 210V300 6000 VCSH FEW007CB SCT011 BKN015 13/12 Q1018 RERA=
200909070620 METAR ESMX 070620Z 24006KT 210V280 9000 VCSH FEW007CB SCT009 BKN019 13/12 Q1018 RERA=
200909070550 METAR ESMX 070550Z 22006KT 9999 FEW009 SCT015 BKN030 13/12 Q1018=
200909070520 METAR ESMX 070520Z 21007KT 170V240 9999 FEW007 SCT010 BKN017 13/12 Q1018=
200909070450 METAR ESMX 070450Z 22007KT 9999 FEW005 SCT010 BKN015 13/12 Q1017=
200909070420 METAR ESMX 070420Z 20006KT 170V230 9999 FEW005 SCT007 BKN013 13/12 Q1017=
200909070350 METAR ESMX 070350Z 21006KT 9999 SCT005 BKN045 12/12 Q1017=
200909070320 METAR ESMX 070320Z AUTO 21004KT 9999NDV FEW005/// SCT007/// BKN009/// 13/12 Q1017=
200909070250 METAR ESMX 070250Z AUTO 21005KT 9999NDV FEW013/// 12/12 Q1017=
200909070220 METAR ESMX 070220Z AUTO 23005KT 9999NDV FEW008/// 12/12 Q1017=
200909070150 METAR ESMX 070150Z AUTO 23004KT 200V260 9999NDV FEW012/// SCT015/// 12/11 Q1017=
200909070120 METAR ESMX 070120Z AUTO 24004KT 9999NDV SCT014/// BKN019/// 13/11 Q1017=
200909070050 METAR ESMX 070050Z AUTO 26005KT 9999NDV FEW011/// SCT021/// 13/12 Q1017=
200909070020 METAR ESMX 070020Z AUTO 26007KT 230V300 9999NDV BKN015/// 13/12 Q1017=
200909062350 METAR ESMX 062350Z 25005KT 220V280 9999 BKN022 13/12 Q1017=
200909062320 METAR ESMX 062320Z 22004KT 190V250 9999 FEW008 SCT013 BKN020 13/12 Q1016=
200909062250 METAR ESMX 062250Z 25005KT 9999 FEW008 SCT011 BKN017 13/12 Q1016=
200909062220 METAR ESMX 062220Z 25004KT 9999 FEW007 SCT040 12/11 Q1016=
200909062150 METAR ESMX 062150Z 24005KT 9999 FEW010 12/11 Q1016=
200909062120 METAR ESMX 062120Z 23006KT 9999 FEW016 SCT025 13/11 Q1016=
200909062050 METAR ESMX 062050Z 25006KT 9999 FEW014 SCT019 BKN026 13/11 Q1016=
200909062020 METAR ESMX 062020Z 23006KT 9999 FEW020 13/11 Q1015=
200909061950 METAR ESMX 061950Z 24006KT CAVOK 13/11 Q1015=
200909061920 METAR ESMX 061920Z 25006KT 9999 FEW042 13/10 Q1015=
200909061850 METAR ESMX 061850Z 23005KT 9999 SCT040 13/10 Q1015=
200909061820 METAR ESMX 061820Z 25004KT 220V280 CAVOK 13/09 Q1015=
200909061750 METAR ESMX 061750Z 27006KT 240V320 9999 FEW035 15/09 Q1014=
200909061720 METAR ESMX 061720Z 27008KT 9999 FEW035 16/10 Q1014=
200909061650 METAR ESMX 061650Z 27008KT 230V290 9999 FEW035 17/10 Q1014=
200909061620 METAR ESMX 061620Z 27009KT 240V300 9999 FEW037 17/10 Q1013=
200909061550 METAR ESMX 061550Z 27010KT 240V320 9999 FEW035 18/10 Q1013=
200909061520 METAR ESMX 061520Z 27012KT 9999 FEW039 18/09 Q1013=
200909061450 METAR ESMX 061450Z 27012KT 240V300 9999 FEW042 18/08 Q1013=
200909061420 METAR ESMX 061420Z 27013KT 230V290 9999 FEW037 18/08 Q1012=
200909061350 METAR ESMX 061350Z 26013KT 220V290 9999 FEW037 18/08 Q1012=
200909061320 METAR ESMX 061320Z 27012KT 9999 FEW036 18/09 Q1012=
200909061250 METAR ESMX 061250Z 28011KT 250V320 9999 SCT035 18/10 Q1012=
200909061220 METAR ESMX 061220Z 26012KT 230V290 9999 FEW027 SCT038 18/10 Q1012=
200909061150 METAR ESMX 061150Z 27010KT 9999 SCT026 BKN032 17/11 Q1011=
200909061120 METAR ESMX 061120Z 28011KT 240V300 9999 FEW021 SCT024 BKN036 17/11 Q1011=
200909061050 METAR ESMX 061050Z 28010KT 240V320 9999 FEW025 SCT029 BKN033 16/11 Q1011=
200909061020 METAR ESMX 061020Z 27012KT 240V310 9999 FEW020 BKN025 16/12 Q1011=
200909060950 METAR ESMX 060950Z 26012KT 230V290 9999 FEW018 BKN021 16/11 Q1011=
200909060920 METAR ESMX 060920Z 27011KT 240V300 9999 FEW016 BKN019 15/11 Q1010=
200909060850 METAR ESMX 060850Z AUTO 27009KT 230V320 9999NDV FEW014/// BKN016/// OVC020/// 15/12 Q1010=
200909060820 METAR ESMX 060820Z AUTO 26010KT 230V290 9999NDV FEW014/// BKN018/// BKN024/// 14/11 Q1010=
200909060750 METAR ESMX 060750Z AUTO 27010KT 230V300 9999NDV FEW011/// SCT014/// OVC017/// 14/12 Q1009=
200909060720 METAR ESMX 060720Z AUTO 27015KT 9999NDV BKN011/// BKN019/// 14/12 Q1009=
200909060650 METAR ESMX 060650Z AUTO 27009KT 230V290 9999NDV FEW009/// BKN012/// OVC016/// 13/11 Q1009=
200909060620 METAR ESMX 060620Z AUTO 26008KT 230V290 9999NDV FEW009/// SCT011/// BKN014/// 13/12 Q1008=
200909060550 METAR ESMX 060550Z AUTO 26009KT 9999NDV FEW009/// SCT011/// BKN013/// 13/12 Q1008=
200909060520 METAR ESMX 060520Z AUTO 26008KT 230V290 9999NDV FEW007/// SCT010/// BKN012/// 13/12 Q1008=
200909060450 METAR ESMX 060450Z AUTO 26008KT 9999NDV FEW008/// OVC011/// 13/12 Q1007=
200909060420 METAR ESMX 060420Z AUTO 26007KT 230V300 9999NDV FEW010/// SCT016/// OVC045/// 13/12 Q1007=
200909060350 METAR ESMX 060350Z AUTO 26008KT 9999NDV FEW007/// SCT011/// BKN015/// 13/12 Q1007=
200909060320 METAR ESMX 060320Z AUTO 27007KT 230V290 9999NDV FEW006/// SCT009/// BKN013/// 13/12 Q1007=
200909060250 METAR ESMX 060250Z AUTO 27007KT 9999NDV FEW007/// OVC009/// 13/12 Q1007 REDZ=
200909060220 METAR ESMX 060220Z AUTO 26006KT 9999NDV DZ FEW007/// BKN009/// OVC012/// 13/12 Q1006=
200909060150 METAR ESMX 060150Z AUTO 27006KT 230V300 9999NDV FEW007/// BKN010/// OVC017/// 13/12 Q1006=
200909060120 METAR ESMX 060120Z AUTO 27007KT 230V290 9999NDV FEW008/// SCT012/// BKN014/// 13/12 Q1006=
200909060050 METAR ESMX 060050Z AUTO 27007KT 240V300 9999NDV FEW010/// SCT016/// BKN070/// 13/12 Q1006=
200909060020 METAR ESMX 060020Z AUTO 27008KT 240V300 9999NDV FEW010/// BKN013/// 13/12 Q1005=
200909052350 METAR ESMX 052350Z AUTO 27007KT 240V300 9999NDV FEW009/// SCT012/// BKN014/// 13/12 Q1005=
200909052320 METAR ESMX 052320Z AUTO 28009KT 9999NDV FEW008/// BKN011/// 14/12 Q1005=
200909052250 METAR ESMX 052250Z AUTO 27008KT 230V300 9999NDV FEW006/// SCT008/// BKN010/// 13/12 Q1005=
200909052220 METAR ESMX 052220Z AUTO 28008KT 240V300 9999NDV FEW007/// OVC008/// 14/12 Q1005=
200909052150 METAR ESMX 052150Z AUTO 28007KT 250V320 9999NDV FEW009/// SCT013/// BKN037/// 14/13 Q1005 RESHRA=
200909052120 METAR ESMX 052120Z AUTO 29008KT 260V330 5000NDV +RA FEW010/// SCT039/// 13/13 Q1004=
200909052050 METAR ESMX 052050Z AUTO 27003KT 9999NDV FEW014/// SCT027/// BKN063/// 14/13 Q1004=
200909052020 METAR ESMX 052020Z AUTO 27005KT 230V300 9999NDV -RA FEW013/// BKN064/// 14/13 Q1004=
200909051950 METAR ESMX 051950Z AUTO 25002KT 9999NDV -RA FEW064/// 13/12 Q1003 RESHRA=
200909051920 METAR ESMX 051920Z AUTO 26005KT 6000NDV RA FEW013/// 13/13 Q1003=
200909051850 METAR ESMX 051850Z AUTO 23003KT 5000NDV +RA FEW009/// SCT027/// BKN040/// 14/13 Q1003=
200909051820 METAR ESMX 051820Z 21003KT 9000 -RA FEW015 BKN070 14/13 Q1003=
200909051750 METAR ESMX 051750Z 23003KT 8000 RA FEW014 SCT070 BKN150 14/13 Q1003=
200909051720 METAR ESMX 051720Z 24004KT 9999 FEW010 SCT054 BKN075 14/13 Q1002=
200909051650 METAR ESMX 051650Z 24005KT 9999 FEW008 SCT013 BKN056 15/13 Q1002=
200909051620 METAR ESMX 051620Z 23004KT 9999 SCT015 BKN057 15/13 Q1002=
200909051550 METAR ESMX 051550Z 21006KT 9999 SCT013 BKN063 15/13 Q1001=
200909051520 METAR ESMX 051520Z 22006KT 9999 FEW014 SCT037 BKN070 15/13 Q1001 RERA=
200909051450 METAR ESMX 051450Z 24005KT 190V270 5000 -RA FEW023 SCT030 BKN063 15/13 Q1001=
200909051420 METAR ESMX 051420Z 20006KT 160V230 9999 FEW017 SCT023 BKN078 17/12 Q1001=
200909051350 METAR ESMX 051350Z 16004KT 9999 FEW012 SCT019 BKN023 16/13 Q1001=
200909051320 METAR ESMX 051320Z 16007KT 120V200 9999 VCSH FEW012 BKN017 BKN023 17/13 Q1001=
200909051250 METAR ESMX 051250Z 14005KT 110V170 9999 VCSH FEW011 BKN014 BKN022 16/13 Q1000=
200909051220 METAR ESMX 051220Z 16005KT 110V200 9999 VCSH FEW011 SCT023 BKN041 16/14 Q1001=
200909051150 METAR ESMX 051150Z 17006KT 130V200 9999 FEW011 SCT026 BKN041 15/13 Q1001 REDZ RERA=
200909051120 METAR ESMX 051120Z 19011KT 9999 -RA FEW021 SCT025 BKN034 16/12 Q1000=
200909051050 METAR ESMX 051050Z 18009KT 9999 FEW022 BKN027 BKN037 16/11 Q1000=
200909051020 METAR ESMX 051020Z 15007KT 110V190 9999 FEW020 SCT032 BKN037 16/11 Q1000=
200909050950 METAR ESMX 050950Z 17009KT 140V200 9999 FEW021 SCT030 BKN041 16/11 Q1000=
200909050920 METAR ESMX 050920Z 16009KT 120V200 9999 FEW018 BKN021 15/10 Q1000=
200909050850 METAR ESMX 050850Z 17008KT 110V200 9999 FEW017 BKN020 15/10 Q1000=
200909050820 METAR ESMX 050820Z 17009KT 140V210 9999 BKN017 BKN035 14/10 Q1000=
200909050750 METAR ESMX 050750Z 17010KT 120V200 9999 FEW025 BKN033 BKN057 14/10 Q1000=
200909050720 METAR ESMX 050720Z 16009KT 120V190 9999 FEW014 BKN031 13/10 Q1000=
200909050650 METAR ESMX 050650Z 17010KT 130V210 9999 SCT014 BKN034 13/10 Q1000=
200909050620 METAR ESMX 050620Z 17008KT 140V200 9999 FEW034 BKN070 13/10 Q1000=
200909050550 METAR ESMX 050550Z 16008KT 110V200 9999 FEW018 BKN034 12/09 Q1000=
200909050520 METAR ESMX 050520Z AUTO 17008KT 9999NDV OVC028/// 12/09 Q1000=
200909050450 METAR ESMX 050450Z AUTO 17008KT 140V210 9999NDV OVC025/// 12/09 Q1000=
200909050420 METAR ESMX 050420Z AUTO 16008KT 140V200 9999NDV OVC025/// 12/09 Q1000=
200909050350 METAR ESMX 050350Z AUTO 17007KT 9999NDV FEW027/// BKN030/// 12/09 Q0999=
200909050320 METAR ESMX 050320Z AUTO 17009KT 9999NDV BKN030/// 12/08 Q1000=
200909050250 METAR ESMX 050250Z AUTO 17009KT 9999NDV FEW028/// 12/08 Q1000=
200909050220 METAR ESMX 050220Z AUTO 17009KT 140V200 9999NDV NCD 12/08 Q1000=
200909050150 METAR ESMX 050150Z AUTO 17009KT 9999NDV NCD 12/08 Q1000=
200909050120 METAR ESMX 050120Z AUTO 17009KT 150V210 9999NDV NCD 12/08 Q0999=
200909050050 METAR ESMX 050050Z AUTO 18010KT 9999NDV NCD 12/08 Q1000=
200909050020 METAR ESMX 050020Z AUTO 18010KT 9999NDV NCD 12/08 Q1000=
200909042350 METAR ESMX 042350Z AUTO 17010KT 150V210 9999NDV NCD 12/09 Q1000=
200909042320 METAR ESMX 042320Z AUTO 17009KT 9999NDV NCD 13/08 Q0999=
200909042250 METAR ESMX 042250Z AUTO 17009KT 9999NDV NCD 13/08 Q0999=
200909042220 METAR ESMX 042220Z AUTO 17010KT 140V200 9999NDV NCD 13/08 Q1000=
200909042150 METAR ESMX 042150Z AUTO 18014KT 9999NDV OVC057/// 14/08 Q1000=
200909042120 METAR ESMX 042120Z AUTO 18013KT 9999NDV OVC055/// 14/09 Q1000=
200909042050 METAR ESMX 042050Z AUTO 18014KT 9999NDV OVC057/// 14/09 Q0999=
200909042020 METAR ESMX 042020Z AUTO 18013KT 9999NDV OVC057/// 14/09 Q0999=
200909041950 METAR ESMX 041950Z AUTO 18014KT 140V200 9999NDV BKN063/// 14/08 Q0999=
200909041920 METAR ESMX 041920Z AUTO 18015KT 9999NDV FEW040/// SCT055/// BKN066/// 14/08 Q0999=
200909041850 METAR ESMX 041850Z AUTO 18014KT 140V210 9999NDV OVC047/// 15/08 Q0998=
200909041820 METAR ESMX 041820Z 19014KT 160V220 9999 FEW047 OVC052 15/08 Q0998=
200909041750 METAR ESMX 041750Z 18015KT 140V210 9999 FEW041 BKN054 15/08 Q0998=
200909041720 METAR ESMX 041720Z 19014KT 160V250 9999 BKN051 15/09 Q0998=
200909041650 METAR ESMX 041650Z 18015KT 160V230 9999 FEW038 SCT046 BKN054 15/09 Q0997=
200909041620 METAR ESMX 041620Z 18016KT 9999 FEW036 BKN059 15/09 Q0997=
200909041550 METAR ESMX 041550Z 19018KT 9999 SCT032 BKN071 15/09 Q0997=
200909041520 METAR ESMX 041520Z 18021G32KT 9999 SCT034 BKN043 BKN075 16/09 Q0997=
200909041450 METAR ESMX 041450Z 20020KT 9999 FEW036 BKN067 16/08 Q0997=
200909041420 METAR ESMX 041420Z 19020G33KT 9999 FEW035 BKN064 15/09 Q0997=
200909041350 METAR ESMX 041350Z 19020G30KT 160V220 9999 FEW031 SCT039 BKN068 16/10 Q0997=
200909041320 METAR ESMX 041320Z 19018KT 9999 FEW033 SCT040 BKN062 15/09 Q0997=
200909041250 METAR ESMX 041250Z 19019KT 160V220 9999 FEW034 SCT050 16/09 Q0997=
200909041220 METAR ESMX 041220Z 19019KT 9999 -SHRA FEW035 BKN040 16/08 Q0996=
200909041150 METAR ESMX 041150Z 19017KT 9999 FEW030 SCT037 BKN046 15/09 Q0996=
200909041120 METAR ESMX 041120Z 19017G27KT 160V230 9999 FEW029 SCT035 BKN039 16/09 Q0996=
200909041050 METAR ESMX 041050Z 19020KT 9999 FEW030 SCT035 BKN045 15/10 Q0995=
200909041020 METAR ESMX 041020Z 19016KT 9999 FEW031 SCT041 BKN060 15/09 Q0995=
200909040950 METAR ESMX 040950Z 21019KT 170V240 9999 FEW029 SCT041 BKN048 15/09 Q0995=
200909040920 METAR ESMX 040920Z 19018KT 9999 FEW025 SCT035 BKN040 16/10 Q0995=
200909040850 METAR ESMX 040850Z 19023KT 170V230 9999 SCT023 BKN030 15/10 Q0995=
200909040820 METAR ESMX 040820Z 19018KT 9999 FEW021 SCT030 15/10 Q0995=
200909040750 METAR ESMX 040750Z 18018KT 9999 FEW020 SCT025 BKN035 14/10 Q0995=
200909040720 METAR ESMX 040720Z 19017KT 150V220 9999 FEW018 BKN025 14/10 Q0995=
200909040650 METAR ESMX 040650Z 18015KT 140V200 9999 FEW016 SCT025 13/10 Q0994=
200909040620 METAR ESMX 040620Z 19013G23KT 160V220 9999 FEW015 SCT020 BKN025 13/10 Q0994=
200909040550 METAR ESMX 040550Z 17013KT 140V210 9999 FEW015 SCT030 12/10 Q0994=
200909040520 METAR ESMX 040520Z 17013KT 130V200 9999 FEW017 SCT030 BKN060 12/10 Q0994=
200909040450 METAR ESMX 040450Z 18012KT 9999 FEW017 SCT035 BKN060 12/10 Q0994=
200909040420 METAR ESMX 040420Z 18013KT 140V200 9999 FEW020 BKN050 BKN072 12/10 Q0994=
200909040350 METAR ESMX 040350Z 18013KT 9999 FEW016 BKN061 12/10 Q0994=
200909040320 METAR ESMX 040320Z AUTO 18012KT 9999NDV FEW012/// SCT017/// BKN036/// 12/10 Q0994=
200909040250 METAR ESMX 040250Z AUTO 17012KT 150V210 9999NDV FEW011/// SCT015/// BKN018/// 12/11 Q0994 RESHRA=
200909040220 METAR ESMX 040220Z AUTO 18014KT 6000NDV -RA FEW011/// SCT015/// BKN018/// 12/11 Q0994=
200909040150 METAR ESMX 040150Z AUTO 19017KT 150V210 9999NDV FEW014/// BKN016/// OVC020/// 13/11 Q0994=
200909040120 METAR ESMX 040120Z AUTO 18011KT 150V210 9999NDV FEW012/// SCT015/// BKN019/// 13/11 Q0994 REDZ=
200909040050 METAR ESMX 040050Z AUTO 18011KT 9999NDV FEW010/// SCT015/// BKN018/// 13/11 Q0994=
200909040020 METAR ESMX 040020Z AUTO 17010KT 130V200 9999NDV FEW009/// SCT014/// BKN017/// 13/11 Q0994=
200909032350 METAR ESMX 032350Z AUTO 18009KT 9999NDV FEW009/// SCT013/// BKN047/// 13/11 Q0994=
200909032320 METAR ESMX 032320Z 18009KT 9999 FEW010 SCT014 BKN041 13/11 Q0993=
200909032250 METAR ESMX 032250Z 19009KT 9999 FEW010 SCT021 BKN024 13/12 Q0994=
200909032220 METAR ESMX 032220Z 19011KT 9999 FEW009 SCT011 BKN013 13/12 Q0994=
200909032150 METAR ESMX 032150Z 19011KT 9999 FEW010 BKN012 OVC017 14/13 Q0994=
200909032120 METAR ESMX 032120Z 19010KT 9999 FEW010 SCT015 BKN018 14/13 Q0994=
200909032050 METAR ESMX 032050Z 18008KT 9999 FEW008 SCT012 BKN017 14/13 Q0994=
200909032020 METAR ESMX 032020Z 18009KT 9999 FEW007 SCT009 OVC010 14/13 Q0994=
200909031950 METAR ESMX 031950Z 16008KT 140V200 9999 FEW007 SCT009 BKN012 14/13 Q0993=
200909031920 METAR ESMX 031920Z 17007KT 9999 FEW010 BKN014 OVC034 14/13 Q0993=
200909031850 METAR ESMX 031850Z 18006KT 140V200 9999 -RA FEW011 SCT035 BKN045 15/13 Q0994=
200909031820 METAR ESMX 031820Z 19011KT 9999 -RA FEW013 SCT020 BKN069 15/13 Q0994=
200909031750 METAR ESMX 031750Z 20010KT 9999 -RA FEW014 SCT031 BKN041 15/14 Q0994=
200909031720 METAR ESMX 031720Z 18008KT 140V200 9000 -RA FEW010 SCT019 BKN030 16/14 Q0994=
200909031650 METAR ESMX 031650Z 17006KT 9000 -RA FEW010 BKN030 BKN045 16/14 Q0994=
200909031620 METAR ESMX 031620Z 16006KT 9999 FEW009 SCT015 BKN035 16/15 Q0994=
200909031550 METAR ESMX 031550Z 15005KT 110V190 9999 FEW012 SCT025 BKN035 17/15 Q0995 RERA=
200909031520 METAR ESMX 031520Z 16007KT 120V190 9999 FEW008 SCT015 BKN025 16/15 Q0995=
200909031450 METAR ESMX 031450Z 12006KT 060V160 5000 -RA FEW006 SCT010 BKN015 16/15 Q0995=
200909031420 METAR ESMX 031420Z 13008KT 070V210 9000 -RA FEW006 SCT008 BKN011 16/15 Q0996=
200909031350 METAR ESMX 031350Z 11008KT 060V170 3000 RA FEW007 BKN009 OVC015 15/15 Q0996=
200909031320 METAR ESMX 031320Z 10006KT 050V160 9999 -RA FEW006 BKN008 OVC012 15/14 Q0996=
200909031250 METAR ESMX 031250Z 08006KT 030V150 9000 -RA FEW006 SCT010 BKN015 14/13 Q0997 RERA=
200909031220 METAR ESMX 031220Z 08006KT 040V140 4300 -RA FEW007 BKN015 14/13 Q0999=
200909031150 METAR ESMX 031150Z 11008KT 050V170 8000 RA FEW008 BKN011 14/13 Q1000=
200909031120 METAR ESMX 031120Z 11009KT 060V170 8000 RA FEW006 SCT009 BKN011 15/14 Q1000=
200909031020 METAR ESMX 031020Z 10007KT 050V150 9999 -RA OVC009 16/14 Q1002=
200909030950 METAR ESMX 030950Z 10007KT 040V160 9999 BKN011 16/14 Q1002=
200909030920 METAR COR ESMX 030920Z 08006KT 030V190 9999 BKN012 16/14 Q1003=
200909030750 METAR ESMX 030750Z 11007KT 040V160 9999 FEW012 BKN100 16/13 Q1005=
200909030720 METAR ESMX 030720Z 10003KT 040V150 CAVOK 14/13 Q1005=
200909030650 METAR ESMX 030650Z 09003KT 350V160 9999 FEW004 BKN100 14/13 Q1006=
200909030620 METAR ESMX 030620Z 09004KT 030V150 4000 BR SCT002 BKN003 13/13 Q1006=
200909030550 METAR ESMX 030550Z 09003KT 050V120 4000 BR SCT002 BKN040 13/13 Q1007=
200909030520 METAR ESMX 030520Z 12003KT 080V160 3500 BKN002 13/12 Q1007=
200909030450 METAR ESMX 030450Z 12003KT 080V180 1900 BR BKN002 13/12 Q1008=
200909030420 METAR ESMX 030420Z 13003KT 080V160 0250 R01/0800 R19/0800 FG VV002 12/12 Q1008=
200909030350 METAR ESMX 030350Z 10003KT 070V130 0200 R01/0750 R19/0900N FG VV002 12/12 Q1008=
200909030320 METAR ESMX 030320Z AUTO VRB02KT 0300NDV R01/P2000N R19/0650VP2000D FG SCT001/// 12/12 Q1008=
200909030250 METAR ESMX 030250Z AUTO 15004KT 1800NDV BR NCD 12/12 Q1009=
200909030220 METAR ESMX 030220Z AUTO 15004KT 2700NDV BR NCD 13/12 Q1009=
200909030150 METAR ESMX 030150Z AUTO 15003KT 120V190 3800NDV BR FEW002/// 13/12 Q1009=
200909030120 METAR ESMX 030120Z AUTO 16003KT 120V190 5000NDV BR NCD 13/12 Q1010=
200909030050 METAR ESMX 030050Z AUTO 15003KT 110V200 8000NDV BR NCD 13/12 Q1010=
200909030020 METAR ESMX 030020Z AUTO 15003KT 110V170 8000NDV BR NCD 13/12 Q1010=
200909022350 METAR ESMX 022350Z AUTO 16004KT 9999NDV NCD 13/12 Q1010=
200909022320 METAR ESMX 022320Z 16004KT CAVOK 13/12 Q1011=
200909022250 METAR ESMX 022250Z 16004KT CAVOK 13/12 Q1011=
200909022220 METAR ESMX 022220Z 17004KT 140V200 CAVOK 14/12 Q1011=
200909022150 METAR ESMX 022150Z 18005KT CAVOK 14/12 Q1011=
200909022020 METAR ESMX 022020Z 17004KT CAVOK 14/12 Q1011=
200909021950 METAR ESMX 021950Z 17003KT CAVOK 14/12 Q1011=
200909021920 METAR ESMX 021920Z 17004KT CAVOK 14/12 Q1011=
200909021850 METAR ESMX 021850Z 18004KT CAVOK 15/12 Q1011=
200909021820 METAR ESMX 021820Z 19004KT CAVOK 15/12 Q1011=
200909021750 METAR ESMX 021750Z 19004KT CAVOK 15/12 Q1011=
200909021720 METAR ESMX 021720Z 21005KT 9999 FEW035 BKN055 15/12 Q1011=
200909021650 METAR ESMX 021650Z 20006KT 9999 FEW030 BKN055 15/13 Q1011=
200909021620 METAR ESMX 021620Z 21005KT 9999 FEW040 BKN055 17/11 Q1011=
200909021550 METAR ESMX 021550Z 22006KT 9999 SCT040 18/10 Q1011=
200909021520 METAR ESMX 021520Z 22006KT 190V260 9999 FEW040 18/10 Q1011=
200909021450 METAR ESMX 021450Z 22010KT 190V260 9999 FEW040 19/09 Q1011=
200909021420 METAR ESMX 021420Z 22012KT 180V250 9999 FEW048 19/10 Q1011=
200909021350 METAR ESMX 021350Z 22012KT 170V240 9999 FEW040 SCT060 19/09 Q1011=
200909021320 METAR ESMX 021320Z 24009KT 210V300 9999 SCT045 20/10 Q1011=
200909021250 METAR ESMX 021250Z 22011KT 160V260 9999 SCT040 20/10 Q1011=
200909021220 METAR ESMX 021220Z 22009KT 170V250 9999 FEW040 SCT055 19/11 Q1011=
200909021150 METAR ESMX 021150Z 22012KT 190V250 9999 FEW042 BKN068 18/10 Q1010=
200909021120 METAR ESMX 021120Z 22013KT 9999 FEW035 SCT045 19/10 Q1010=
200909021050 METAR ESMX 021050Z 20013KT 160V230 9999 SCT040 19/12 Q1010=
200909021020 METAR ESMX 021020Z 21013KT 160V240 9999 FEW036 SCT048 BKN056 18/12 Q1010=
200909020950 METAR ESMX 020950Z 23010KT 200V280 9999 SCT033 18/11 Q1010=
200909020920 METAR ESMX 020920Z 21011KT 190V250 9999 SCT023 BKN031 18/12 Q1010=
200909020850 METAR ESMX 020850Z 21011KT 170V250 9999 FEW019 SCT024 BKN028 17/13 Q1009=
200909020820 METAR ESMX 020820Z 22009KT 180V260 9999 FEW018 SCT027 17/13 Q1009=
200909020750 METAR ESMX 020750Z 21009KT 170V260 9999 FEW011 SCT015 BKN020 16/13 Q1009=
200909020720 METAR ESMX 020720Z 20011KT 9999 FEW008 SCT012 BKN016 16/13 Q1009=
200909020650 METAR ESMX 020650Z 21010KT 180V250 9999 FEW006 SCT009 BKN011 15/13 Q1009=
200909020620 METAR ESMX 020620Z 22005KT 190V250 9999 FEW007 SCT009 BKN011 15/14 Q1009=
200909020550 METAR ESMX 020550Z 20006KT 9999 BKN004 OVC007 15/14 Q1008=
200909020520 METAR ESMX 020520Z 20007KT 9999 FEW005 BKN007 OVC009 15/14 Q1008=
200909020450 METAR ESMX 020450Z 20006KT 9999 FEW005 SCT009 BKN039 14/14 Q1008 REDZ=
200909020420 METAR ESMX 020420Z 20008KT 9999 FEW003 SCT008 OVC040 14/14 Q1008=
200909020350 METAR ESMX 020350Z 18004KT 140V220 9999 FEW020 SCT080 BKN090 14/14 Q1007=
200909020320 METAR ESMX 020320Z AUTO 20004KT 170V230 9999NDV BR FEW008/// SCT009/// BKN020/// 15/14 Q1007=
200909020250 METAR ESMX 020250Z AUTO 23005KT 200V280 9999NDV FEW006/// BKN015/// OVC023/// 15/14 Q1007=
200909020220 METAR ESMX 020220Z AUTO 22005KT 190V250 9999NDV FEW008/// SCT022/// BKN097/// 15/14 Q1007 RERA=
200909020150 METAR ESMX 020150Z AUTO 22005KT 170V260 9999NDV -RA FEW008/// SCT011/// 15/14 Q1007=
200909020120 METAR ESMX 020120Z AUTO 19005KT 7000NDV RA FEW047/// 15/14 Q1008=
200909020050 METAR ESMX 020050Z AUTO 21006KT 6000NDV RA FEW027/// SCT074/// 16/14 Q1008=
200909020020 METAR ESMX 020020Z AUTO 17003KT 9999NDV BKN071/// 16/13 Q1007=
200909012350 METAR ESMX 012350Z 15001KT CAVOK 16/13 Q1007=
200909012320 METAR ESMX 012320Z VRB01KT CAVOK 16/13 Q1007=
200909012220 METAR ESMX 012220Z 19006KT CAVOK 17/13 Q1008=
200909012150 METAR ESMX 012150Z 20006KT CAVOK 15/12 Q1008=
200909012050 METAR ESMX 012050Z 16006KT CAVOK 17/12 Q1008=
200909012020 METAR ESMX 012020Z 16006KT CAVOK 17/12 Q1008=
200909011950 METAR ESMX 011950Z 15007KT 120V200 CAVOK 18/12 Q1008=
200909011920 METAR ESMX 011920Z 15006KT 110V180 CAVOK 18/11 Q1008=
200909011850 METAR ESMX 011850Z 16007KT 110V200 CAVOK 19/11 Q1008=
200909011750 METAR ESMX 011750Z 16007KT 110V190 CAVOK 20/11 Q1008=
200909011720 METAR ESMX 011720Z 16008KT 140V210 CAVOK 21/11 Q1009=
200909011650 METAR ESMX 011650Z 16009KT 120V190 CAVOK 21/11 Q1009=
200909011620 METAR ESMX 011620Z 16011KT 100V190 CAVOK 21/11 Q1009=
200909011550 METAR ESMX 011550Z 16011KT 120V220 CAVOK 22/11 Q1010=
200909011520 METAR ESMX 011520Z 17012KT 140V210 CAVOK 23/10 Q1010=
200909011450 METAR ESMX 011450Z 16012KT 130V190 CAVOK 23/09 Q1010=
200909011420 METAR ESMX 011420Z 17015KT CAVOK 23/10 Q1010=
200909011350 METAR ESMX 011350Z 17013KT CAVOK 24/11 Q1010=
200909011320 METAR ESMX 011320Z 16011KT CAVOK 24/12 Q1010=
200909011250 METAR ESMX 011250Z 17013KT 140V210 CAVOK 24/12 Q1011=
200909011220 METAR ESMX 011220Z 16013KT 110V200 CAVOK 24/11 Q1011=
