##########################################################
# Query made at 04/19/2024 21:16:33 UTC
# Time interval: from 06/01/2010 12:00  to 06/30/2010 12:59  UTC
##########################################################

##########################################################
# ESMX, Vaxjo (Sweden)
# WMO index: 02641. WIGOS ID: 0-20000-0-02648
# Latitude 56-51N. Longitude 014-50E. Altitude 199 m.
##########################################################

201006301250 METAR ESMX 301250Z 23011KT 180V250 9999 SCT035 20/12 Q1015=
201006301220 METAR ESMX 301220Z 24011KT 9999 SCT031 BKN046 20/12 Q1015=
201006301120 METAR ESMX 301120Z 23012KT 200V260 9999 SCT025 20/12 Q1015=
201006301050 METAR ESMX 301050Z 22011KT 190V250 9999 SCT025 21/14 Q1015=
201006301020 METAR ESMX 301020Z 26012KT 230V300 9999 FEW020 SCT045 19/13 Q1015=
201006300950 METAR ESMX 300950Z 22013KT 200V260 9999 FEW023 BKN048 20/13 Q1014=
201006300920 METAR ESMX 300920Z 25012KT 200V270 9999 FEW023 BKN050 20/14 Q1014=
201006300850 METAR ESMX 300850Z 22010KT 160V260 9999 SCT022 BKN044 19/14 Q1014=
201006300820 METAR ESMX 300820Z 24009KT 200V280 9999 FEW024 BKN040 19/14 Q1014=
201006300750 METAR ESMX 300750Z 24008KT 200V280 9999 FEW018 BKN040 19/14 Q1014=
201006300720 METAR ESMX 300720Z 24008KT 200V280 9999 FEW016 BKN045 19/14 Q1014=
201006300650 METAR ESMX 300650Z 26006KT 220V280 CAVOK 18/15 Q1014=
201006300620 METAR ESMX 300620Z 25006KT 200V290 9999 FEW007 18/15 Q1014=
201006300550 METAR ESMX 300550Z 24006KT 210V280 9999 FEW006 17/15 Q1015=
201006300520 METAR ESMX 300520Z 22006KT CAVOK 16/15 Q1015=
201006300450 METAR ESMX 300450Z 21004KT 170V230 8000 BR NSC 15/15 Q1015=
201006300420 METAR ESMX 300420Z VRB02KT 6000 BR SCT010 14/13 Q1015=
201006300350 METAR ESMX 300350Z 26004KT 220V280 6000 BR NSC 14/13 Q1015=
201006300320 METAR ESMX 300320Z AUTO 14005KT 9999NDV FEW100/// 15/14 Q1014=
201006300250 METAR ESMX 300250Z AUTO 15004KT 110V190 8000NDV -RA FEW047/// 15/14 Q1014=
201006300220 METAR ESMX 300220Z AUTO VRB02KT 9999NDV FEW043/// BKN049/// 15/13 Q1015=
201006300150 METAR ESMX 300150Z AUTO VRB02KT 2400NDV -RA FEW013/// SCT053/// BKN074/// 15/13 Q1015=
201006300120 METAR ESMX 300120Z AUTO 20006KT 9999NDV BKN072/// BKN086/// 15/12 Q1015=
201006300050 METAR ESMX 300050Z AUTO VRB02KT 9999NDV SCT072/// BKN100/// 15/12 Q1015=
201006300020 METAR ESMX 300020Z AUTO 15004KT 120V190 9999NDV BKN082/// 15/11 Q1015=
201006292350 METAR ESMX 292350Z AUTO 17004KT 9999NDV FEW093/// 16/11 Q1015=
201006292320 METAR ESMX 292320Z 20004KT 160V220 CAVOK 14/10 Q1016=
201006292250 METAR ESMX 292250Z 17004KT CAVOK 17/11 Q1016=
201006292220 METAR ESMX 292220Z 18004KT CAVOK 16/10 Q1016=
201006292150 METAR ESMX 292150Z 17005KT CAVOK 18/11 Q1016=
201006292120 METAR ESMX 292120Z 17005KT CAVOK 18/12 Q1016=
201006292050 METAR ESMX 292050Z 16006KT CAVOK 19/13 Q1016=
201006292020 METAR ESMX 292020Z 18005KT 140V210 CAVOK 20/13 Q1016=
201006291950 METAR ESMX 291950Z 17006KT CAVOK 21/13 Q1016=
201006291920 METAR ESMX 291920Z 16007KT CAVOK 22/11 Q1016=
201006291850 METAR ESMX 291850Z 17007KT 140V200 CAVOK 23/10 Q1016=
201006291820 METAR ESMX 291820Z 18007KT 140V210 CAVOK 24/08 Q1016=
201006291750 METAR ESMX 291750Z 18008KT 140V210 CAVOK 25/07 Q1016=
201006291720 METAR ESMX 291720Z 17008KT 140V200 CAVOK 25/06 Q1016=
201006291650 METAR ESMX 291650Z 17008KT 140V200 CAVOK 26/08 Q1016=
201006291620 METAR ESMX 291620Z 19009KT 160V220 CAVOK 26/07 Q1016=
201006291550 METAR ESMX 291550Z 16008KT 110V170 CAVOK 27/05 Q1016=
201006291520 METAR ESMX 291520Z VRB04KT CAVOK 27/05 Q1017=
201006291450 METAR ESMX 291450Z 20005KT 120V260 CAVOK 27/04 Q1017=
201006291420 METAR ESMX 291420Z 23006KT 190V260 CAVOK 26/02 Q1017=
201006291350 METAR ESMX 291350Z VRB06KT CAVOK 26/03 Q1017=
201006291320 METAR ESMX 291320Z 17006KT 130V200 CAVOK 26/03 Q1018=
201006291250 METAR ESMX 291250Z 16006KT 070V210 CAVOK 26/05 Q1018=
201006291220 METAR ESMX 291220Z 14005KT 080V200 CAVOK 26/07 Q1018=
201006291150 METAR ESMX 291150Z 15005KT 090V220 CAVOK 26/08 Q1018=
201006291120 METAR ESMX 291120Z 21004KT 160V290 CAVOK 25/08 Q1018=
201006291050 METAR ESMX 291050Z 20005KT 110V250 CAVOK 25/09 Q1018=
201006291020 METAR ESMX 291020Z 16004KT 060V230 CAVOK 24/10 Q1018=
201006290950 METAR ESMX 290950Z 18003KT 110V250 CAVOK 24/11 Q1019=
201006290920 METAR ESMX 290920Z 18004KT 110V250 9999 FEW045 23/12 Q1019=
201006290850 METAR ESMX 290850Z VRB02KT CAVOK 22/12 Q1019=
201006290820 METAR ESMX 290820Z 18004KT 140V240 CAVOK 23/12 Q1019=
201006290750 METAR ESMX 290750Z 10004KT 060V160 CAVOK 22/11 Q1019=
201006290720 METAR ESMX 290720Z VRB02KT CAVOK 21/12 Q1020=
201006290650 METAR ESMX 290650Z VRB02KT CAVOK 21/12 Q1020=
201006290620 METAR ESMX 290620Z VRB02KT CAVOK 19/13 Q1020=
201006290550 METAR ESMX 290550Z VRB02KT CAVOK 18/13 Q1020=
201006290520 METAR ESMX 290520Z VRB02KT CAVOK 17/13 Q1020=
201006290450 METAR ESMX 290450Z VRB02KT CAVOK 16/13 Q1020=
201006290420 METAR ESMX 290420Z 16002KT CAVOK 14/13 Q1020=
201006290350 METAR ESMX 290350Z VRB01KT CAVOK 12/11 Q1020=
201006290320 METAR ESMX 290320Z AUTO 18001KT 2900NDV NCD 10/09 Q1020=
201006290250 METAR ESMX 290250Z AUTO VRB02KT 2600NDV NCD 10/10 Q1020=
201006290220 METAR ESMX 290220Z AUTO 16003KT 0400NDV R01/P2000N R19/0500VP2000 BCFG NCD 10/09 Q1020=
201006290150 METAR ESMX 290150Z AUTO 17001KT 1300NDV R01/P2000N R19/P2000N BR NCD 11/10 Q1020=
201006290120 METAR ESMX 290120Z AUTO 20002KT 9999NDV NCD 11/10 Q1020=
201006290050 METAR ESMX 290050Z AUTO 17002KT 9999NDV NCD 12/11 Q1020=
201006290020 METAR ESMX 290020Z 19002KT CAVOK 11/10 Q1020=
201006282350 METAR ESMX 282350Z 17003KT CAVOK 12/11 Q1020=
201006282320 METAR ESMX 282320Z 17003KT CAVOK 14/11 Q1020=
201006282250 METAR ESMX 282250Z 18003KT CAVOK 13/11 Q1020=
201006282220 METAR ESMX 282220Z 18004KT CAVOK 14/11 Q1020=
201006282150 METAR ESMX 282150Z 17005KT CAVOK 16/12 Q1020=
201006282120 METAR ESMX 282120Z 17005KT CAVOK 16/12 Q1020=
201006282050 METAR ESMX 282050Z 18005KT CAVOK 17/11 Q1020=
201006282020 METAR ESMX 282020Z 17006KT CAVOK 18/11 Q1020=
201006281950 METAR ESMX 281950Z 18007KT CAVOK 19/12 Q1020=
201006281920 METAR ESMX 281920Z 17008KT CAVOK 20/12 Q1020=
201006281850 METAR ESMX 281850Z 16009KT 120V210 CAVOK 21/11 Q1020=
201006281820 METAR ESMX 281820Z 16008KT 120V190 CAVOK 22/11 Q1020=
201006281750 METAR ESMX 281750Z 17008KT CAVOK 23/10 Q1020=
201006281720 METAR ESMX 281720Z 17008KT 130V200 CAVOK 24/09 Q1020=
201006281650 METAR ESMX 281650Z 18007KT 100V210 CAVOK 25/09 Q1020=
201006281620 METAR ESMX 281620Z 16006KT 100V210 CAVOK 25/09 Q1020=
201006281550 METAR ESMX 281550Z 17006KT 100V200 CAVOK 25/09 Q1020=
201006281520 METAR ESMX 281520Z 16006KT 110V210 CAVOK 25/09 Q1020=
201006281450 METAR ESMX 281450Z 18006KT CAVOK 25/08 Q1020=
201006281420 METAR ESMX 281420Z 16007KT 110V200 CAVOK 25/08 Q1020=
201006281350 METAR ESMX 281350Z 15008KT 110V190 CAVOK 25/08 Q1021=
201006281320 METAR ESMX 281320Z 15007KT 110V190 CAVOK 25/09 Q1021=
201006281250 METAR ESMX 281250Z 19007KT 150V240 CAVOK 25/09 Q1021=
201006281220 METAR ESMX 281220Z 17008KT 120V230 CAVOK 25/09 Q1021=
201006281150 METAR ESMX 281150Z 15006KT 110V220 CAVOK 25/08 Q1021=
201006281120 METAR ESMX 281120Z 17007KT 130V210 CAVOK 24/06 Q1021=
201006281050 METAR ESMX 281050Z 16006KT 100V210 CAVOK 23/07 Q1022=
201006281020 METAR ESMX 281020Z 13006KT 080V170 CAVOK 23/05 Q1022=
201006280950 METAR ESMX 280950Z 19005KT 120V210 CAVOK 23/06 Q1022=
201006280920 METAR ESMX 280920Z 18004KT 120V240 CAVOK 23/08 Q1022=
201006280850 METAR ESMX 280850Z 15004KT 080V230 CAVOK 21/09 Q1022=
201006280820 METAR ESMX 280820Z 13005KT 050V190 CAVOK 21/11 Q1022=
201006280750 METAR ESMX 280750Z 15004KT 090V200 CAVOK 21/11 Q1022=
201006280720 METAR ESMX 280720Z 15003KT 090V230 CAVOK 20/11 Q1022=
201006280650 METAR ESMX 280650Z 20004KT 160V240 CAVOK 19/12 Q1022=
201006280620 METAR ESMX 280620Z 21005KT CAVOK 18/11 Q1022=
201006280550 METAR ESMX 280550Z VRB02KT CAVOK 18/12 Q1023=
201006280520 METAR ESMX 280520Z VRB02KT CAVOK 17/12 Q1022=
201006280450 METAR ESMX 280450Z VRB02KT CAVOK 16/12 Q1022=
201006280420 METAR ESMX 280420Z 20001KT CAVOK 14/12 Q1022=
201006280350 METAR ESMX 280350Z VRB01KT CAVOK 10/10 Q1022=
201006280320 METAR ESMX 280320Z AUTO 17001KT 9999NDV NCD 09/08 Q1022=
201006280250 METAR ESMX 280250Z AUTO 18001KT 9999NDV NCD 09/08 Q1022=
201006280220 METAR ESMX 280220Z AUTO VRB01KT 9999NDV NCD 09/08 Q1022=
201006280150 METAR ESMX 280150Z AUTO 15003KT 110V170 9999NDV NCD 10/08 Q1022=
201006280120 METAR ESMX 280120Z AUTO 18002KT 9999NDV NCD 09/08 Q1022=
201006280050 METAR ESMX 280050Z AUTO 18002KT 9999NDV NCD 10/09 Q1023=
201006280020 METAR ESMX 280020Z AUTO 17002KT 9999NDV NCD 11/09 Q1023=
201006272350 METAR ESMX 272350Z 21003KT CAVOK 11/10 Q1023=
201006272320 METAR ESMX 272320Z 20004KT CAVOK 12/10 Q1023=
201006272250 METAR ESMX 272250Z 20004KT CAVOK 12/10 Q1023=
201006272220 METAR ESMX 272220Z 18004KT CAVOK 12/10 Q1023=
201006272120 METAR ESMX 272120Z 18004KT CAVOK 14/10 Q1022=
201006272050 METAR ESMX 272050Z 16003KT CAVOK 15/10 Q1022=
201006272020 METAR ESMX 272020Z 20004KT 180V240 CAVOK 15/10 Q1022=
201006271950 METAR ESMX 271950Z 17006KT 130V190 CAVOK 18/10 Q1022=
201006271920 METAR ESMX 271920Z 18006KT CAVOK 19/10 Q1022=
201006271850 METAR ESMX 271850Z 18008KT CAVOK 21/09 Q1021=
201006271820 METAR ESMX 271820Z 26005KT 230V300 CAVOK 22/09 Q1021=
201006271750 METAR ESMX 271750Z 26005KT 220V290 CAVOK 23/08 Q1021=
201006271720 METAR ESMX 271720Z 25006KT CAVOK 23/08 Q1021=
201006271650 METAR ESMX 271650Z 22006KT 190V270 CAVOK 24/08 Q1021=
201006271620 METAR ESMX 271620Z 26006KT 230V320 CAVOK 24/08 Q1021=
201006271550 METAR ESMX 271550Z 20007KT 170V260 CAVOK 24/08 Q1021=
201006271520 METAR ESMX 271520Z 21007KT 160V250 CAVOK 24/08 Q1021=
201006271450 METAR ESMX 271450Z 19008KT 160V220 CAVOK 25/09 Q1021=
201006271420 METAR ESMX 271420Z 28006KT 230V320 CAVOK 25/09 Q1021=
201006271350 METAR ESMX 271350Z 21008KT 160V250 CAVOK 25/09 Q1021=
201006271320 METAR ESMX 271320Z 20006KT 160V250 CAVOK 24/09 Q1022=
201006271250 METAR ESMX 271250Z 21008KT 180V250 CAVOK 24/10 Q1022=
201006271220 METAR ESMX 271220Z 23006KT 190V280 CAVOK 24/10 Q1022=
201006271150 METAR ESMX 271150Z 22008KT 9999 FEW051 23/10 Q1022=
201006271120 METAR ESMX 271120Z 21009KT 170V260 CAVOK 23/10 Q1022=
201006271050 METAR ESMX 271050Z 20009KT 160V230 9999 FEW047 21/09 Q1022=
201006271020 METAR ESMX 271020Z 24005KT CAVOK 23/11 Q1022=
201006270950 METAR ESMX 270950Z 21008KT CAVOK 22/10 Q1022=
201006270920 METAR ESMX 270920Z 20007KT 160V230 CAVOK 22/10 Q1022=
201006270850 METAR ESMX 270850Z 17005KT 100V230 CAVOK 21/11 Q1022=
201006270820 METAR ESMX 270820Z AUTO 23005KT 190V280 9999NDV NCD 21/10 Q1022=
201006270750 METAR ESMX 270750Z AUTO 19004KT 150V230 9999NDV NCD 20/10 Q1021=
201006270720 METAR ESMX 270720Z AUTO VRB02KT 9999NDV NCD 19/10 Q1021=
201006270650 METAR ESMX 270650Z AUTO VRB02KT 9999NDV NCD 19/10 Q1021=
201006270620 METAR ESMX 270620Z AUTO VRB02KT 9999NDV NCD 17/10 Q1021=
201006270550 METAR ESMX 270550Z AUTO 02003KT 9999NDV NCD 16/10 Q1021=
201006270520 METAR ESMX 270520Z AUTO 32003KT 290V360 9999NDV NCD 15/10 Q1021=
201006270450 METAR ESMX 270450Z AUTO 32003KT 290V010 9999NDV NCD 13/10 Q1021=
201006270420 METAR ESMX 270420Z AUTO 30003KT 260V340 9999NDV NCD 12/10 Q1020=
201006270350 METAR ESMX 270350Z AUTO 28003KT 9999NDV NCD 09/08 Q1020=
201006270320 METAR ESMX 270320Z AUTO 19002KT 9999NDV NCD 07/06 Q1020=
201006270250 METAR ESMX 270250Z AUTO 16001KT 9999NDV NCD 07/06 Q1020=
201006270220 METAR ESMX 270220Z AUTO 28001KT 9999NDV NCD 08/07 Q1020=
201006270150 METAR ESMX 270150Z AUTO 24003KT 230V360 9999NDV NCD 07/06 Q1020=
201006270120 METAR ESMX 270120Z AUTO 18002KT 9999NDV NCD 08/07 Q1019=
201006270050 METAR ESMX 270050Z AUTO 21002KT 9999NDV NCD 08/07 Q1019=
201006270020 METAR ESMX 270020Z AUTO 36001KT 9999NDV NCD 10/08 Q1019=
201006262350 METAR ESMX 262350Z AUTO VRB02KT 9999NDV NCD 10/09 Q1019=
201006262320 METAR ESMX 262320Z AUTO VRB01KT 9999NDV NCD 11/09 Q1019=
201006262250 METAR ESMX 262250Z AUTO 28004KT 9999NDV NCD 12/09 Q1019=
201006262220 METAR ESMX 262220Z AUTO 28004KT 9999NDV NCD 13/09 Q1019=
201006262150 METAR ESMX 262150Z AUTO 27005KT 9999NDV NCD 13/09 Q1018=
201006262120 METAR ESMX 262120Z AUTO 27005KT 230V300 9999NDV NCD 14/09 Q1018=
201006262050 METAR ESMX 262050Z AUTO 26005KT 9999NDV NCD 15/09 Q1018=
201006262020 METAR ESMX 262020Z AUTO 26007KT 9999NDV FEW067/// 16/09 Q1017=
201006261950 METAR ESMX 261950Z AUTO 27008KT 240V310 9999NDV NCD 17/09 Q1017=
201006261920 METAR ESMX 261920Z AUTO 26007KT 9999NDV NCD 18/09 Q1016=
201006261850 METAR ESMX 261850Z AUTO 27006KT 9999NDV SCT059/// 19/09 Q1016=
201006261820 METAR ESMX 261820Z AUTO 27008KT 240V300 9999NDV BKN059/// 20/09 Q1016=
201006261750 METAR ESMX 261750Z AUTO 27007KT 240V310 9999NDV SCT060/// 21/08 Q1016=
201006261720 METAR ESMX 261720Z AUTO 28007KT 240V320 9999NDV FEW064/// 21/08 Q1015=
201006261650 METAR ESMX 261650Z AUTO 26006KT 220V300 9999NDV NCD 22/08 Q1015=
201006261620 METAR ESMX 261620Z AUTO 30008KT 250V340 9999NDV NCD 22/08 Q1015=
201006261550 METAR ESMX 261550Z AUTO 25008KT 230V290 9999NDV FEW059/// 22/08 Q1015=
201006261520 METAR ESMX 261520Z AUTO 28008KT 9999NDV FEW055/// 22/08 Q1015=
201006261450 METAR ESMX 261450Z AUTO 29006KT 250V340 9999NDV NCD 22/08 Q1015=
201006261420 METAR ESMX 261420Z AUTO 27008KT 9999NDV FEW056/// 22/08 Q1015=
201006261350 METAR ESMX 261350Z AUTO 31008KT 280V350 9999NDV SCT052/// BKN067/// 21/08 Q1014=
201006261320 METAR ESMX 261320Z AUTO 30010KT 9999NDV FEW055/// BKN071/// 22/09 Q1014=
201006261250 METAR ESMX 261250Z AUTO 26008KT 9999NDV FEW031/// SCT055/// BKN074/// 20/09 Q1014=
201006261220 METAR ESMX 261220Z AUTO 29010KT 9999NDV FEW046/// BKN064/// 21/09 Q1014=
201006261150 METAR ESMX 261150Z AUTO 28010KT 240V320 9999NDV FEW064/// 20/09 Q1014=
201006261120 METAR ESMX 261120Z AUTO 31009KT 290V350 9999NDV FEW042/// SCT072/// 20/10 Q1014=
201006261050 METAR ESMX 261050Z AUTO 27008KT 230V340 9999NDV FEW039/// 19/09 Q1014=
201006261020 METAR ESMX 261020Z AUTO 29009KT 270V330 9999NDV FEW039/// SCT047/// 20/10 Q1013=
201006260950 METAR ESMX 260950Z AUTO 29011G22KT 250V330 9999NDV FEW037/// 18/09 Q1013=
201006260920 METAR ESMX 260920Z AUTO 28010KT 250V320 9999NDV NCD 19/10 Q1013=
201006260850 METAR ESMX 260850Z AUTO 26011KT 230V300 9999NDV FEW033/// 18/10 Q1013=
201006260820 METAR ESMX 260820Z AUTO 28010KT 250V320 9999NDV NCD 17/10 Q1013=
201006260750 METAR ESMX 260750Z AUTO 28010KT 240V320 9999NDV FEW027/// 17/09 Q1013=
201006260720 METAR ESMX 260720Z AUTO 27010KT 230V320 9999NDV FEW023/// 16/10 Q1012=
201006260650 METAR ESMX 260650Z AUTO 27011KT 240V310 9999NDV FEW021/// SCT025/// BKN028/// 16/10 Q1012=
201006260620 METAR ESMX 260620Z AUTO 28011KT 240V320 9999NDV FEW019/// BKN021/// 14/09 Q1012=
201006260550 METAR ESMX 260550Z AUTO 25010KT 210V290 9999NDV FEW018/// BKN020/// 14/09 Q1012=
201006260520 METAR ESMX 260520Z AUTO 27010KT 230V310 9999NDV OVC016/// 14/10 Q1012=
201006260450 METAR ESMX 260450Z AUTO 27009KT 230V320 9999NDV BKN015/// 13/09 Q1012=
201006260420 METAR ESMX 260420Z AUTO 26007KT 220V290 9999NDV NCD 13/09 Q1012=
201006260350 METAR ESMX 260350Z AUTO 25006KT 210V290 9999NDV NCD 12/09 Q1011=
201006260320 METAR ESMX 260320Z AUTO 25006KT 210V280 9999NDV NCD 11/08 Q1011=
201006260250 METAR ESMX 260250Z AUTO 22005KT 190V250 9999NDV FEW034/// 11/08 Q1011=
201006260220 METAR ESMX 260220Z AUTO 25006KT 210V280 9999NDV OVC032/// 12/09 Q1011=
201006260150 METAR ESMX 260150Z AUTO 26007KT 9999NDV OVC030/// 12/08 Q1012=
201006260120 METAR ESMX 260120Z AUTO 24004KT 9999NDV OVC031/// 12/09 Q1012=
201006260050 METAR ESMX 260050Z AUTO 26005KT 9999NDV OVC031/// 12/08 Q1012=
201006260020 METAR ESMX 260020Z AUTO 26004KT 9999NDV BKN032/// 12/08 Q1012=
201006252350 METAR ESMX 252350Z AUTO 25005KT 220V280 9999NDV NCD 11/08 Q1012=
201006252320 METAR ESMX 252320Z AUTO 23004KT 200V260 9999NDV FEW037/// 11/08 Q1012=
201006252250 METAR ESMX 252250Z AUTO 21004KT 180V240 9999NDV OVC036/// 11/09 Q1012=
201006252220 METAR ESMX 252220Z AUTO 21004KT 9999NDV FEW037/// 11/08 Q1012=
201006252150 METAR ESMX 252150Z AUTO 24004KT 210V290 9999NDV NCD 12/08 Q1012=
201006252120 METAR ESMX 252120Z AUTO 26004KT 220V290 9999NDV NCD 13/08 Q1012=
201006252050 METAR ESMX 252050Z AUTO 27005KT 9999NDV NCD 13/08 Q1012=
201006252020 METAR ESMX 252020Z AUTO 25005KT 200V290 9999NDV NCD 14/08 Q1012=
201006251950 METAR ESMX 251950Z AUTO 27006KT 230V290 9999NDV NCD 15/08 Q1012=
201006251920 METAR ESMX 251920Z AUTO 27008KT 9999NDV NCD 16/08 Q1012=
201006251850 METAR ESMX 251850Z 27009KT 240V300 CAVOK 17/08 Q1011=
201006251820 METAR ESMX 251820Z 27009KT CAVOK 18/08 Q1011=
201006251750 METAR ESMX 251750Z 28009KT 250V320 CAVOK 19/08 Q1011=
201006251720 METAR ESMX 251720Z 27009KT 230V300 CAVOK 20/08 Q1011=
201006251650 METAR ESMX 251650Z 29010KT CAVOK 21/08 Q1011=
201006251620 METAR ESMX 251620Z 25011KT 220V290 CAVOK 21/08 Q1011=
201006251550 METAR ESMX 251550Z 29011KT CAVOK 22/09 Q1011=
201006251520 METAR ESMX 251520Z 27011KT 240V310 CAVOK 22/09 Q1011=
201006251450 METAR ESMX 251450Z 27012KT 230V300 9999 SCT048 22/09 Q1011=
201006251420 METAR ESMX 251420Z 27009KT 240V320 9999 FEW046 21/10 Q1011=
201006251350 METAR COR ESMX 251350Z 29009KT 9999 FEW046 SCT083 22/11 Q1011=
201006251320 METAR ESMX 251320Z AUTO 26007KT 230V300 9999NDV FEW041/// SCT072/// 20/11 Q1011=
201006251250 METAR ESMX 251250Z AUTO 28008KT 230V300 9999NDV FEW038/// SCT080/// 20/11 Q1012=
201006251220 METAR ESMX 251220Z AUTO 29006KT 240V330 9999NDV FEW038/// BKN074/// 21/11 Q1012=
201006251150 METAR ESMX 251150Z AUTO 26007KT 220V320 9999NDV FEW036/// SCT041/// BKN084/// 21/11 Q1012=
201006251120 METAR ESMX 251120Z AUTO 25010KT 9999NDV FEW036/// SCT084/// 21/12 Q1012=
201006251050 METAR ESMX 251050Z AUTO 25008KT 210V280 9999NDV FEW037/// 21/12 Q1012=
201006251020 METAR ESMX 251020Z AUTO 29009KT 9999NDV FEW024/// SCT029/// BKN055/// 20/13 Q1012=
201006250950 METAR ESMX 250950Z AUTO 28007KT 250V320 9999NDV FEW026/// SCT033/// BKN045/// 19/12 Q1012=
201006250920 METAR ESMX 250920Z AUTO 25006KT 190V290 9999NDV FEW026/// SCT036/// BKN084/// 19/12 Q1012=
201006250850 METAR ESMX 250850Z AUTO 24008KT 9999NDV SCT026/// BKN031/// BKN084/// 19/12 Q1012=
201006250820 METAR ESMX 250820Z AUTO 28006KT 9999NDV FEW026/// SCT036/// BKN047/// 19/12 Q1012=
201006250750 METAR ESMX 250750Z AUTO 25006KT 210V290 9999NDV FEW027/// SCT063/// 19/12 Q1012=
201006250720 METAR ESMX 250720Z AUTO 29006KT 9999NDV FEW047/// BKN059/// 18/12 Q1012=
201006250650 METAR ESMX 250650Z AUTO 28005KT 240V330 9999NDV SCT054/// 18/12 Q1012=
201006250620 METAR ESMX 250620Z AUTO 29004KT 250V320 9999NDV FEW058/// 17/12 Q1012=
201006250550 METAR ESMX 250550Z AUTO 28003KT 250V320 9999NDV NCD 17/12 Q1012=
201006250520 METAR ESMX 250520Z AUTO 26004KT 9999NDV NCD 15/12 Q1012=
201006250450 METAR ESMX 250450Z AUTO VRB01KT 9999NDV NCD 14/12 Q1012=
201006250420 METAR ESMX 250420Z AUTO 27003KT 9999NDV NCD 13/12 Q1013=
201006250350 METAR ESMX 250350Z AUTO 18002KT 8000NDV BR NCD 11/10 Q1013=
201006250320 METAR ESMX 250320Z AUTO 18002KT 9999NDV NCD 11/10 Q1013=
201006250250 METAR ESMX 250250Z AUTO 24004KT 9999NDV NCD 09/08 Q1013=
201006250220 METAR ESMX 250220Z AUTO 25003KT 9999NDV NCD 10/08 Q1013=
201006250150 METAR ESMX 250150Z AUTO 23002KT 9999NDV NCD 11/09 Q1013=
201006250120 METAR ESMX 250120Z AUTO VRB01KT 9999NDV FEW057/// 11/10 Q1013=
201006250050 METAR ESMX 250050Z AUTO 26004KT 9999NDV SCT051/// 11/09 Q1013=
201006250020 METAR ESMX 250020Z AUTO 22002KT 9999NDV BKN054/// 12/10 Q1013=
201006242350 METAR ESMX 242350Z AUTO 25002KT 9999NDV BKN054/// 13/10 Q1014=
201006242320 METAR ESMX 242320Z AUTO 25003KT 9999NDV NCD 12/10 Q1014=
201006242250 METAR ESMX 242250Z AUTO 24003KT 9999NDV NCD 13/10 Q1014=
201006242220 METAR ESMX 242220Z AUTO 23003KT 9999NDV NCD 12/10 Q1014=
201006242150 METAR ESMX 242150Z AUTO 24004KT 9999NDV NCD 14/10 Q1014=
201006242120 METAR ESMX 242120Z AUTO 23004KT 9999NDV NCD 14/10 Q1014=
201006242050 METAR ESMX 242050Z AUTO 21004KT 9999NDV NCD 15/10 Q1014=
201006242020 METAR ESMX 242020Z AUTO 18005KT 9999NDV NCD 17/10 Q1014=
201006241950 METAR ESMX 241950Z AUTO 18006KT 9999NDV FEW057/// 17/09 Q1014=
201006241920 METAR ESMX 241920Z 18008KT CAVOK 19/10 Q1014=
201006241850 METAR ESMX 241850Z 18007KT 150V210 CAVOK 20/10 Q1014=
201006241820 METAR ESMX 241820Z 28005KT CAVOK 21/08 Q1013=
201006241750 METAR ESMX 241750Z 24004KT 210V280 CAVOK 23/07 Q1014=
201006241720 METAR ESMX 241720Z 27005KT 230V320 CAVOK 23/06 Q1014=
201006241650 METAR ESMX 241650Z 21005KT 180V240 CAVOK 23/07 Q1014=
201006241620 METAR ESMX 241620Z 26005KT 210V310 CAVOK 24/07 Q1014=
201006241550 METAR ESMX 241550Z 24005KT 170V300 CAVOK 24/07 Q1014=
201006241520 METAR ESMX 241520Z 23004KT 160V320 CAVOK 24/08 Q1014=
201006241450 METAR ESMX 241450Z 22003KT 110V290 CAVOK 24/08 Q1015=
201006241420 METAR ESMX 241420Z 18006KT CAVOK 24/07 Q1015=
201006241350 METAR ESMX 241350Z VRB04KT CAVOK 23/07 Q1015=
201006241320 METAR ESMX 241320Z 12006KT 080V150 CAVOK 23/07 Q1015=
201006241250 METAR ESMX 241250Z 16005KT 050V200 CAVOK 23/08 Q1015=
201006241220 METAR ESMX 241220Z 16007KT 060V200 9999 FEW047 22/09 Q1016=
201006241150 METAR ESMX 241150Z VRB03KT 9999 FEW045 22/10 Q1016=
201006241120 METAR ESMX 241120Z 19005KT 140V240 CAVOK 22/11 Q1016=
201006241050 METAR ESMX 241050Z 27005KT 220V310 CAVOK 21/10 Q1016=
201006241020 METAR ESMX 241020Z VRB04KT 9999 FEW042 21/10 Q1016=
201006240950 METAR ESMX 240950Z VRB04KT 9999 FEW040 21/11 Q1016=
201006240920 METAR ESMX 240920Z 19005KT 150V230 9999 FEW040 20/10 Q1017=
201006240850 METAR ESMX 240850Z 19006KT 160V230 9999 FEW035 19/10 Q1017=
201006240820 METAR ESMX 240820Z 15003KT 070V230 9999 FEW035 19/11 Q1017=
201006240750 METAR ESMX 240750Z VRB02KT 9000 FEWO35 18/10 Q1017=
201006240720 METAR ESMX 240720Z VRB01KT CAVOK 18/10 Q1017=
201006240650 METAR ESMX 240650Z VRB02KT CAVOK 18/10 Q1017=
201006240620 METAR ESMX 240620Z VRB02KT CAVOK 17/10 Q1017=
201006240550 METAR ESMX 240550Z VRB01KT CAVOK 16/11 Q1017=
201006240520 METAR ESMX 240520Z VRB01KT CAVOK 15/11 Q1017=
201006240450 METAR ESMX 240450Z VRB01KT CAVOK 12/11 Q1017=
201006240420 METAR ESMX 240420Z 00000KT CAVOK 10/10 Q1018=
201006240350 METAR ESMX 240350Z 00000KT CAVOK 07/07 Q1018=
201006240320 METAR ESMX 240320Z AUTO VRB01KT 8000NDV NCD 06/05 Q1017=
201006240250 METAR ESMX 240250Z AUTO 17001KT 9000NDV NCD 05/04 Q1018=
201006240220 METAR ESMX 240220Z AUTO 18002KT 9999NDV NCD 06/05 Q1018=
201006240150 METAR ESMX 240150Z AUTO 20001KT 9999NDV NCD 06/05 Q1018=
201006240120 METAR ESMX 240120Z AUTO 18002KT 9999NDV NCD 06/05 Q1018=
201006240050 METAR ESMX 240050Z AUTO 17002KT 9999NDV NCD 06/06 Q1018=
201006240020 METAR ESMX 240020Z AUTO 18001KT 9999NDV NCD 07/06 Q1018=
201006232350 METAR ESMX 232350Z 00000KT CAVOK 07/06 Q1018=
201006232320 METAR ESMX 232320Z 20002KT CAVOK 07/06 Q1018=
201006232250 METAR ESMX 232250Z 24002KT CAVOK 08/07 Q1018=
201006232220 METAR ESMX 232220Z 18002KT CAVOK 09/07 Q1018=
201006232150 METAR ESMX 232150Z 00000KT CAVOK 09/08 Q1019=
201006232120 METAR ESMX 232120Z 27001KT CAVOK 10/08 Q1019=
201006232050 METAR ESMX 232050Z 25004KT CAVOK 12/08 Q1019=
201006232020 METAR ESMX 232020Z 23003KT CAVOK 13/08 Q1019=
201006231950 METAR ESMX 231950Z 24003KT CAVOK 14/09 Q1019=
201006231920 METAR ESMX 231920Z 26005KT CAVOK 16/09 Q1019=
201006231850 METAR ESMX 231850Z 27005KT CAVOK 17/09 Q1019=
201006231820 METAR ESMX 231820Z 25006KT CAVOK 18/09 Q1019=
201006231750 METAR ESMX 231750Z 27005KT 220V300 CAVOK 18/09 Q1018=
201006231720 METAR ESMX 231720Z 25005KT 210V280 CAVOK 18/09 Q1018=
201006231650 METAR ESMX 231650Z 25006KT 220V280 CAVOK 19/09 Q1019=
201006231550 METAR ESMX 231550Z 26006KT 210V310 9999 NSC 19/09 Q1019=
201006231450 METAR ESMX 231450Z 24007KT 200V280 9999 FEW045 20/10 Q1019=
201006231420 METAR ESMX 231420Z 24006KT 200V320 9999 FEW043 19/10 Q1019=
201006231350 METAR ESMX 231350Z 21006KT 150V250 9999 FEW040 20/09 Q1020=
201006231220 METAR ESMX 231220Z 15006KT 9999 SCT036 19/09 Q1020=
201006231150 METAR ESMX 231150Z 25006KT 200V290 9999 FEW036 19/10 Q1020=
201006231120 METAR ESMX 231120Z 22006KT 180V260 9999 FEW036 19/10 Q1020=
201006231050 METAR ESMX 231050Z 23006KT 190V290 9999 FEW032 SCT037 18/10 Q1020=
201006230920 METAR ESMX 230920Z 23004KT 120V290 9999 SCT030 17/09 Q1020=
201006230850 METAR ESMX 230850Z 22003KT 140V290 9999 FEW031 17/09 Q1020=
201006230820 METAR ESMX 230820Z 23006KT 170V260 9999 SCT028 17/09 Q1020=
201006230750 METAR ESMX 230750Z 24005KT 180V280 CAVOK 16/09 Q1020=
201006230720 METAR ESMX 230720Z 27004KT 220V330 9999 FEW024 16/08 Q1020=
201006230650 METAR ESMX 230650Z 31004KT 260V360 CAVOK 15/08 Q1020=
201006230620 METAR ESMX 230620Z VRB02KT 9999 FEW012 15/10 Q1020=
201006230550 METAR ESMX 230550Z 33004KT 240V010 9999 FEW008 14/10 Q1020=
201006230520 METAR ESMX 230520Z VRB02KT CAVOK 13/10 Q1020=
201006230450 METAR ESMX 230450Z 26003KT 240V320 CAVOK 11/10 Q1020=
201006230420 METAR ESMX 230420Z VRB02KT CAVOK 10/09 Q1020=
201006230350 METAR ESMX 230350Z 18001KT CAVOK 07/07 Q1020=
201006230320 METAR ESMX 230320Z AUTO 18002KT 9999NDV NCD 05/05 Q1020=
201006230250 METAR ESMX 230250Z AUTO 16001KT 9000NDV NCD 06/05 Q1020=
201006230220 METAR ESMX 230220Z AUTO VRB01KT 9999NDV NCD 05/04 Q1020=
201006230150 METAR ESMX 230150Z AUTO 25003KT 9999NDV NCD 06/05 Q1020=
201006230120 METAR ESMX 230120Z AUTO 26002KT 9999NDV NCD 05/04 Q1020=
201006230050 METAR ESMX 230050Z AUTO 22002KT 9999NDV NCD 05/04 Q1020=
201006230020 METAR ESMX 230020Z AUTO 24002KT 9999NDV NCD 06/05 Q1020=
201006222350 METAR ESMX 222350Z 18001KT CAVOK 06/05 Q1020=
201006222320 METAR ESMX 222320Z 29001KT CAVOK 06/05 Q1020=
201006222250 METAR ESMX 222250Z 26001KT CAVOK 08/07 Q1020=
201006222220 METAR ESMX 222220Z 26002KT CAVOK 08/06 Q1020=
201006222150 METAR ESMX 222150Z 27002KT CAVOK 09/07 Q1020=
201006222120 METAR ESMX 222120Z 26003KT CAVOK 10/07 Q1020=
201006222050 METAR ESMX 222050Z 27005KT CAVOK 11/07 Q1020=
201006222020 METAR ESMX 222020Z 27005KT CAVOK 12/07 Q1020=
201006221950 METAR ESMX 221950Z 27006KT CAVOK 13/08 Q1020=
201006221920 METAR ESMX 221920Z 27006KT CAVOK 14/08 Q1020=
201006221850 METAR ESMX 221850Z 28007KT CAVOK 15/08 Q1020=
201006221820 METAR ESMX 221820Z 26009KT 230V290 CAVOK 16/09 Q1019=
201006221750 METAR ESMX 221750Z 28011KT 250V320 CAVOK 17/08 Q1019=
201006221720 METAR ESMX 221720Z 27012KT CAVOK 18/07 Q1019=
201006221650 METAR ESMX 221650Z 27012KT CAVOK 19/06 Q1019=
201006221620 METAR ESMX 221620Z 26010KT 220V300 CAVOK 20/07 Q1019=
201006221550 METAR ESMX 221550Z 25005KT 210V290 CAVOK 19/06 Q1019=
201006221520 METAR ESMX 221520Z 28007KT CAVOK 19/07 Q1019=
201006221450 METAR ESMX 221450Z 25008KT 220V300 CAVOK 19/07 Q1019=
201006221420 METAR ESMX 221420Z 24007KT CAVOK 20/07 Q1019=
201006221350 METAR ESMX 221350Z 24004KT 200V290 CAVOK 21/06 Q1019=
201006221320 METAR ESMX 221320Z 30005KT 260V340 CAVOK 20/05 Q1019=
201006221250 METAR ESMX 221250Z 24005KT 170V300 CAVOK 20/05 Q1019=
201006221220 METAR ESMX 221220Z VRB03KT CAVOK 20/05 Q1019=
201006221150 METAR ESMX 221150Z VRB04KT CAVOK 20/06 Q1019=
201006221120 METAR ESMX 221120Z 33005KT 270V360 CAVOK 20/05 Q1019=
201006221050 METAR ESMX 221050Z VRB02KT CAVOK 19/06 Q1020=
201006221020 METAR ESMX 221020Z VRB01KT CAVOK 19/06 Q1020=
201006220950 METAR ESMX 220950Z VRB02KT CAVOK 18/06 Q1020=
201006220920 METAR ESMX 220920Z VRB02KT CAVOK 18/06 Q1020=
201006220850 METAR ESMX 220850Z VRB02KT CAVOK 18/07 Q1020=
201006220820 METAR ESMX 220820Z 25004KT 210V290 CAVOK 16/09 Q1020=
201006220750 METAR ESMX 220750Z 24004KT 170V260 CAVOK 15/10 Q1020=
201006220720 METAR ESMX 220720Z 27004KT 250V320 CAVOK 15/09 Q1020=
201006220650 METAR ESMX 220650Z 29003KT 250V330 CAVOK 15/10 Q1020=
201006220620 METAR ESMX 220620Z 30005KT 260V330 CAVOK 14/09 Q1020=
201006220550 METAR ESMX 220550Z 30004KT 260V330 CAVOK 15/09 Q1020=
201006220520 METAR ESMX 220520Z 00000KT CAVOK 14/11 Q1020=
201006220450 METAR ESMX 220450Z VRB01KT CAVOK 11/10 Q1019=
201006220420 METAR ESMX 220420Z 00000KT CAVOK 10/09 Q1019=
201006220350 METAR ESMX 220350Z 00000KT CAVOK 08/07 Q1019=
201006220320 METAR ESMX 220320Z AUTO 00000KT 9999NDV SCT078/// OVC095/// 07/06 Q1019=
201006220250 METAR ESMX 220250Z AUTO 27001KT 9999NDV FEW079/// OVC092/// 06/05 Q1019=
201006220220 METAR ESMX 220220Z AUTO 18001KT 9999NDV FEW081/// BKN094/// 06/05 Q1019=
201006220150 METAR ESMX 220150Z AUTO 00000KT 9999NDV FEW097/// 06/05 Q1019=
201006220120 METAR ESMX 220120Z AUTO 15001KT 9999NDV BKN097/// 05/05 Q1019=
201006220050 METAR ESMX 220050Z AUTO 20002KT 9999NDV BCFG FEW097/// 05/04 Q1019=
201006220020 METAR ESMX 220020Z AUTO 00000KT 0450NDV R01/P2000N R19/P2000D BR FEW079/// 05/04 Q1019=
201006212350 METAR ESMX 212350Z 17001KT CAVOK 05/04 Q1019=
201006212320 METAR ESMX 212320Z VRB01KT CAVOK 06/05 Q1019=
201006212250 METAR ESMX 212250Z 00000KT CAVOK 06/05 Q1019=
201006212220 METAR ESMX 212220Z 18001KT CAVOK 06/05 Q1019=
201006212150 METAR ESMX 212150Z 18001KT CAVOK 07/06 Q1019=
201006212120 METAR ESMX 212120Z 18001KT CAVOK 08/07 Q1019=
201006212050 METAR ESMX 212050Z 08001KT CAVOK 09/07 Q1019=
201006212020 METAR ESMX 212020Z 07003KT CAVOK 11/09 Q1019=
201006211950 METAR ESMX 211950Z 08002KT CAVOK 11/08 Q1019=
201006211920 METAR ESMX 211920Z 04003KT CAVOK 13/08 Q1019=
201006211850 METAR ESMX 211850Z 08003KT 040V110 CAVOK 14/09 Q1018=
201006211820 METAR ESMX 211820Z 06004KT 020V100 CAVOK 15/08 Q1018=
201006211750 METAR ESMX 211750Z 07006KT 040V110 CAVOK 15/09 Q1018=
201006211720 METAR ESMX 211720Z 04008KT 010V070 CAVOK 16/09 Q1018=
201006211650 METAR ESMX 211650Z 04008KT CAVOK 16/09 Q1018=
201006211620 METAR ESMX 211620Z 02008KT 350V050 CAVOK 16/08 Q1018=
201006211550 METAR ESMX 211550Z 05008KT 020V100 CAVOK 15/08 Q1017=
201006211520 METAR ESMX 211520Z 02013KT 340V050 9999 VCSH FEW042CB 16/09 Q1017=
201006211450 METAR ESMX 211450Z 36006KT 330V070 9999 VCSH FEW042CB 16/10 Q1017=
201006211420 METAR ESMX 211420Z 04009KT 9999 -RA FEW042CB SCT059 13/08 Q1017=
201006211350 METAR ESMX 211350Z 34014KT 9999 VCSH FEW042CB SCT064 17/09 Q1017=
201006211320 METAR ESMX 211320Z 36008KT 330V040 9999 VCSH FEW040CB BKN062 16/08 Q1017=
201006211250 METAR ESMX 211250Z 36008KT 9999 FEW043TCU SCT073 18/06 Q1016=
201006211220 METAR ESMX 211220Z 34008KT 300V030 9999 FEW043TCU BKN077 18/07 Q1016=
201006211150 METAR ESMX 211150Z 01013KT 330V040 9999 SCT043 BKN058 18/07 Q1016=
201006211120 METAR ESMX 211120Z 35007KT 310V040 9999 FEW040TCU SCT070 18/08 Q1016=
201006211050 METAR ESMX 211050Z 36008KT 320V030 9999 SCT030 17/09 Q1016=
201006211020 METAR ESMX 211020Z 35009KT 9999 FEW026 SCT076 16/09 Q1016=
201006210950 METAR ESMX 210950Z 01010KT 9999 SCT029 BKN075 16/09 Q1016=
201006210920 METAR ESMX 210920Z 01009KT 320V050 9999 SCT030 BKN070 16/08 Q1016=
201006210850 METAR ESMX 210850Z 35009KT 320V020 9999 SCT025 BKN070 16/09 Q1016=
201006210820 METAR ESMX 210820Z 35006KT CAVOK 16/09 Q1016=
201006210750 METAR ESMX 210750Z 36006KT 320V030 CAVOK 15/09 Q1016=
201006210720 METAR ESMX 210720Z 34007KT 320V020 CAVOK 15/09 Q1016=
201006210650 METAR ESMX 210650Z 36006KT 330V040 CAVOK 15/10 Q1016=
201006210620 METAR ESMX 210620Z 01008KT CAVOK 14/09 Q1015=
201006210550 METAR ESMX 210550Z 01006KT CAVOK 13/09 Q1015=
201006210520 METAR ESMX 210520Z 01006KT 340V040 CAVOK 13/09 Q1015=
201006210450 METAR ESMX 210450Z 36006KT CAVOK 12/09 Q1015=
201006210420 METAR ESMX 210420Z 34006KT CAVOK 10/09 Q1015=
201006210350 METAR ESMX 210350Z 34005KT CAVOK 09/08 Q1014=
201006210320 METAR ESMX 210320Z AUTO VRB02KT 9999NDV OVC074/// 09/08 Q1014=
201006210250 METAR ESMX 210250Z AUTO VRB01KT 9999NDV OVC073/// 07/07 Q1014=
201006210220 METAR ESMX 210220Z AUTO 34001KT 9999NDV BKN074/// 07/06 Q1014=
201006210150 METAR ESMX 210150Z AUTO 33001KT 9999NDV BKN072/// 07/07 Q1013=
201006210120 METAR ESMX 210120Z AUTO VRB01KT 9999NDV BKN072/// 06/05 Q1013=
201006210050 METAR ESMX 210050Z AUTO VRB01KT 9999NDV OVC068/// 06/05 Q1013=
201006210020 METAR ESMX 210020Z AUTO VRB01KT 9999NDV FEW067/// 05/04 Q1013=
201006202350 METAR ESMX 202350Z 00000KT CAVOK 06/05 Q1013=
201006202320 METAR ESMX 202320Z 00000KT CAVOK 06/06 Q1013=
201006202250 METAR ESMX 202250Z 18002KT CAVOK 07/06 Q1013=
201006202220 METAR ESMX 202220Z 21001KT CAVOK 07/07 Q1013=
201006202150 METAR ESMX 202150Z 00000KT CAVOK 08/07 Q1013=
201006202120 METAR ESMX 202120Z 00000KT CAVOK 09/07 Q1013=
201006202050 METAR ESMX 202050Z 22002KT CAVOK 10/08 Q1012=
201006202020 METAR ESMX 202020Z VRB01KT CAVOK 11/09 Q1012=
201006201950 METAR ESMX 201950Z 00000KT CAVOK 12/09 Q1012=
201006201920 METAR ESMX 201920Z 00000KT CAVOK 14/08 Q1011=
201006201850 METAR ESMX 201850Z 30003KT 260V330 9999 FEW030CB SCT047 14/08 Q1011=
201006201820 METAR ESMX 201820Z 31004KT 9999 FEW027CB SCT035 13/08 Q1011=
201006201750 METAR ESMX 201750Z 18005KT 140V240 9999 FEW024TCU SCT032 BKN050 14/09 Q1010=
201006201720 METAR ESMX 201720Z 20007KT 9999 FEW025TCU SCT040 15/09 Q1010=
201006201650 METAR ESMX 201650Z 18006KT 9999 FEW025TCU SCT040 14/09 Q1010=
201006201620 METAR ESMX 201620Z 19007KT 150V210 9999 FEW025TCU SCT030 15/09 Q1010=
201006201550 METAR ESMX 201550Z 17006KT 130V210 9999 FEW025TCU SCT035 15/09 Q1010=
201006201520 METAR ESMX 201520Z 15005KT 110V190 9999 FEW025 SCT070 14/09 Q1010=
201006201450 METAR ESMX 201450Z 16005KT 110V210 9999 FEW026 15/09 Q1009=
201006201420 METAR ESMX 201420Z 18005KT 120V230 9999 FEW030TCU 15/08 Q1009=
201006201350 METAR ESMX 201350Z 17007KT 130V210 9999 FEW025CB SCT070 14/08 Q1009=
201006201320 METAR ESMX 201320Z 19010KT 9999 FEW030 BKN050 14/09 Q1009=
201006201250 METAR ESMX 201250Z 17009KT 9999 FEW023 SCT032 BKN049 14/08 Q1009=
201006201220 METAR ESMX 201220Z 18006KT 120V230 9999 FEW025 BKN045 15/09 Q1009=
201006201150 METAR ESMX 201150Z 16008KT 110V190 9999 SCT030 BKN040 14/08 Q1009=
201006201120 METAR ESMX 201120Z 16006KT 110V200 9999 FEW020 BKN030 14/07 Q1009=
201006201050 METAR ESMX 201050Z 18007KT 140V210 9999 FEW016CB BKN045 13/09 Q1008=
201006201020 METAR ESMX 201020Z 16006KT 110V210 9999 -SHRA FEW017 SCT045 BKN110 12/09 Q1008=
201006200950 METAR ESMX 200950Z 17006KT 110V210 9999 -RA FEW022 SCT039 12/09 Q1008=
201006200920 METAR ESMX 200920Z 17005KT 120V200 9999 DZ FEW023 BKN042 11/08 Q1007=
201006200850 METAR ESMX 200850Z 15005KT 090V170 9999 -DZ FEW037 SCT065 12/09 Q1007=
201006200820 METAR ESMX 200820Z AUTO 16005KT 100V190 9999NDV FEW041/// BKN057/// 12/08 Q1007=
201006200750 METAR ESMX 200750Z AUTO 21004KT 160V240 9999NDV FEW039/// SCT044/// BKN065/// 12/08 Q1007=
201006200720 METAR ESMX 200720Z AUTO 21005KT 170V250 9999NDV FEW014/// BKN059/// 11/08 Q1006=
201006200650 METAR ESMX 200650Z AUTO 22006KT 190V260 9999NDV FEW020/// SCT058/// BKN075/// 12/09 Q1006=
201006200620 METAR ESMX 200620Z AUTO 19005KT 9999NDV FEW077/// 11/09 Q1006=
201006200550 METAR ESMX 200550Z AUTO 20006KT 9999NDV FEW008/// SCT022/// BKN066/// 10/09 Q1006=
201006200520 METAR ESMX 200520Z AUTO 18006KT 150V210 9999NDV FEW006/// SCT009/// 11/09 Q1006 RERA RESHRA=
201006200450 METAR ESMX 200450Z AUTO 16006KT 130V190 9000NDV RA FEW015/// OVC067/// 10/09 Q1005=
201006200420 METAR ESMX 200420Z AUTO 16004KT 120V200 9999NDV BR FEW013/// SCT049/// BKN064/// 10/09 Q1005=
201006200350 METAR ESMX 200350Z AUTO 17004KT 120V190 9000NDV BR SCT009/// BKN032/// OVC042/// 09/08 Q1005=
201006200320 METAR ESMX 200320Z AUTO 16005KT 8000NDV BR FEW003/// SCT005/// BKN008/// 09/08 Q1004=
201006200250 METAR ESMX 200250Z AUTO 16003KT 100V200 7000NDV -RA SCT004/// BKN007/// BKN014/// 09/09 Q1004=
201006200220 METAR ESMX 200220Z AUTO VRB01KT 5000NDV DZ FEW006/// SCT010/// BKN020/// 09/08 Q1004=
201006200150 METAR ESMX 200150Z AUTO VRB02KT 9000NDV BR FEW006/// SCT014/// BKN017/// 09/08 Q1003=
201006200120 METAR ESMX 200120Z AUTO 15003KT 120V190 9000NDV BR FEW005/// SCT006/// BKN011/// 09/08 Q1003=
201006200050 METAR ESMX 200050Z AUTO VRB02KT 8000NDV BR BKN005/// OVC008/// 09/08 Q1003=
201006200020 METAR ESMX 200020Z AUTO VRB02KT 8000NDV BR FEW005/// SCT006/// BKN008/// 07/06 Q1003=
201006192350 METAR ESMX 192350Z AUTO 15003KT 110V190 9999NDV FEW004/// SCT007/// 08/07 Q1003=
201006192320 METAR ESMX 192320Z AUTO 00000KT 9999NDV BR NCD 06/05 Q1003=
201006192250 METAR ESMX 192250Z AUTO 18001KT 9999NDV NCD 06/05 Q1003=
201006192220 METAR ESMX 192220Z AUTO 17003KT 9999NDV NCD 07/05 Q1002=
201006192150 METAR ESMX 192150Z AUTO 17002KT 9999NDV FEW024/// BKN027/// 10/07 Q1002=
201006192120 METAR ESMX 192120Z AUTO 19004KT 9999NDV FEW023/// SCT070/// 08/06 Q1002=
201006192050 METAR ESMX 192050Z AUTO 16004KT 9999NDV FEW066/// 11/07 Q1002=
201006192020 METAR ESMX 192020Z AUTO 16002KT 9999NDV BKN067/// 11/07 Q1001=
201006191950 METAR ESMX 191950Z AUTO 16003KT 130V200 9999NDV OVC066/// 12/07 Q1001=
201006191920 METAR ESMX 191920Z AUTO 22004KT 9999NDV OVC057/// 13/07 Q1001=
201006191850 METAR ESMX 191850Z AUTO 21005KT 9999NDV OVC056/// 13/07 Q1000=
201006191820 METAR ESMX 191820Z 19005KT 160V230 CAVOK 13/06 Q1000=
201006191750 METAR ESMX 191750Z 17006KT 130V200 CAVOK 14/07 Q1000=
201006191720 METAR ESMX 191720Z 16006KT 110V190 CAVOK 13/06 Q0999=
201006191650 METAR ESMX 191650Z 15007KT 120V180 9999 FEW045 13/07 Q0999=
201006191620 METAR ESMX 191620Z 17009KT 140V210 9999 SCT040 13/07 Q0999=
201006191550 METAR ESMX 191550Z 20008KT 9999 FEW040 BKN050 14/04 Q0999=
201006191520 METAR ESMX 191520Z 22007KT 160V280 9999 FEW033 SCT060 14/06 Q0999=
201006191450 METAR ESMX 191450Z 20005KT 150V230 9999 FEW040 SCT062 14/06 Q0999=
201006191420 METAR ESMX 191420Z 27005KT 200V320 9999 FEW030 BKN048 14/06 Q0999=
201006190950 METAR COR ESMX 190950Z 19008KT 160V230 9999 -SHRA FEW040CB SCT080 15/04 Q0997=
201006190920 METAR ESMX 190920Z 20011KT 170V240 9999 FEW035CB BKN060 16/06 Q0997=
201006190850 METAR ESMX 190850Z 19010KT 160V230 9999 FEW034 SCT086 15/05 Q0997=
201006190820 METAR ESMX 190820Z 22009KT 200V270 9999 FEW027 SCT057 14/06 Q0997=
201006190750 METAR ESMX 190750Z 21007KT 9999 FEW029 BKN065 14/06 Q0997=
201006190720 METAR ESMX 190720Z 21009KT 170V240 9999 FEW025 SCT064 14/08 Q0997=
201006190650 METAR ESMX 190650Z 18008KT 9999 SCT025 13/07 Q0997=
201006190620 METAR ESMX 190620Z 18008KT CAVOK 12/07 Q0997=
201006190550 METAR COR ESMX 190550Z 21006KT 180V250 CAVOK 12/08 Q0997=
201006190520 METAR ESMX 190520Z AUTO 21006KT 180V240 9999NDV NCD 11/07 Q0997=
201006190450 METAR ESMX 190450Z AUTO 18005KT 9999NDV NCD 09/07 Q0997=
201006190420 METAR ESMX 190420Z AUTO 16005KT 120V210 9999NDV NCD 08/06 Q0997=
201006190350 METAR ESMX 190350Z AUTO 16004KT 9999NDV NCD 07/05 Q0997=
201006190320 METAR ESMX 190320Z AUTO 17004KT 9999NDV NCD 06/04 Q0997=
201006190250 METAR ESMX 190250Z AUTO 17004KT 9999NDV NCD 06/04 Q0997=
201006190220 METAR ESMX 190220Z AUTO 19003KT 9999NDV NCD 06/04 Q0997=
201006190150 METAR ESMX 190150Z AUTO 20004KT 9999NDV NCD 06/04 Q0997=
201006190120 METAR ESMX 190120Z AUTO 22004KT 9999NDV NCD 05/04 Q0997=
201006190050 METAR ESMX 190050Z AUTO 22004KT 9999NDV NCD 05/04 Q0997=
201006190020 METAR ESMX 190020Z AUTO 22004KT 9999NDV NCD 06/04 Q0997=
201006182350 METAR ESMX 182350Z AUTO 22004KT 9999NDV NCD 06/04 Q0998=
201006182320 METAR ESMX 182320Z AUTO 23005KT 9999NDV NCD 06/04 Q0998=
201006182250 METAR ESMX 182250Z AUTO 22004KT 9999NDV NCD 07/04 Q0998=
201006182220 METAR ESMX 182220Z AUTO 23005KT 9999NDV NCD 07/04 Q0998=
201006182150 METAR ESMX 182150Z AUTO 22005KT 9999NDV FEW054/// 07/04 Q0998=
201006182120 METAR ESMX 182120Z AUTO 22004KT 9999NDV BKN050/// 08/05 Q0998=
201006182050 METAR ESMX 182050Z AUTO 21003KT 9999NDV OVC053/// 10/05 Q0998=
201006182020 METAR ESMX 182020Z AUTO 24003KT 9999NDV BKN056/// 09/05 Q0998=
201006181950 METAR ESMX 181950Z AUTO 24002KT 9999NDV BKN056/// 09/05 Q0998=
201006181920 METAR ESMX 181920Z 24002KT CAVOK 11/05 Q0998=
201006181850 METAR ESMX 181850Z 32004KT 280V010 CAVOK 13/05 Q0999=
201006181820 METAR ESMX 181820Z 33008KT 300V010 CAVOK 13/06 Q0999=
201006181750 METAR ESMX 181750Z 26008KT 230V300 CAVOK 14/02 Q0998=
201006181720 METAR ESMX 181720Z 27012KT CAVOK 16/03 Q0999=
201006181650 METAR ESMX 181650Z 26013KT CAVOK 16/04 Q0999=
201006181620 METAR ESMX 181620Z 25011KT 200V290 9999 FEW045 SCT070 16/05 Q0999=
201006181550 METAR ESMX 181550Z 23012KT 200V260 9999 FEW036 BKN065 15/05 Q0999=
201006181520 METAR ESMX 181520Z 23011G21KT 180V260 9999 FEW044 SCT060 16/06 Q0999=
201006181450 METAR ESMX 181450Z 25009KT 220V290 9999 FEW045 SCT060 16/06 Q0999=
201006181420 METAR ESMX 181420Z 24012KT 9999 FEW045 SCT060 17/07 Q1000=
201006181350 METAR ESMX 181350Z 23016KT 9999 FEW046 BKN060 18/07 Q1000=
201006181320 METAR ESMX 181320Z 23013KT 180V270 9999 FEW046 SCT065 16/06 Q1000=
201006181250 METAR ESMX 181250Z 23015KT 9999 SCT045 18/07 Q1000=
201006181220 METAR ESMX 181220Z 22013KT 9999 FEW041 SCT049 17/07 Q1000=
201006181150 METAR ESMX 181150Z 23012G25KT 190V270 9999 FEW026 SCT041 BKN049 17/08 Q1001=
201006181120 METAR ESMX 181120Z 25011KT 190V280 9999 SCT035 18/09 Q1001=
201006181050 METAR ESMX 181050Z 26012KT 210V290 9999 FEW023 SCT031 BKN044 17/10 Q1002=
201006181020 METAR ESMX 181020Z 25011KT 200V290 9999 FEW017 SCT023 BKN033 15/11 Q1002=
201006180950 METAR ESMX 180950Z 24008KT 200V290 9999 FEW012 SCT015 BKN023 14/10 Q1003=
201006180920 METAR ESMX 180920Z 25009KT 210V280 9999 SCT011 BKN017 OVC026 13/11 Q1003 REDZ=
201006180850 METAR ESMX 180850Z VRB07G19KT 9000 DZ FEW007 BKN010 OVC021 12/11 Q1003=
201006180820 METAR ESMX 180820Z 20008KT 9999 BKN005 12/11 Q1003=
201006180750 METAR ESMX 180750Z 22007KT 6000 BR FEW003 OVC004 12/11 Q1004=
201006180720 METAR ESMX 180720Z 22007KT 200V260 3800 BR OVC003 11/11 Q1004=
201006180650 METAR ESMX 180650Z 21008KT 4500 BR OVC003 11/10 Q1004=
201006180620 METAR ESMX 180620Z 20009KT 3200 BR OVC004 11/10 Q1005=
201006180550 METAR ESMX 180550Z 21009KT 2500 BR OVC005 11/10 Q1005=
201006180520 METAR ESMX 180520Z 22010KT 170V240 6000 BR OVC008 11/09 Q1006=
201006180450 METAR ESMX 180450Z 23012KT 200V270 9999 OVC010 11/09 Q1006=
201006180420 METAR ESMX 180420Z 22012KT 190V270 9999 OVC010 11/09 Q1007=
201006180350 METAR ESMX 180350Z 22012KT 190V250 9999 OVC012 12/09 Q1007=
201006180320 METAR ESMX 180320Z AUTO 21013KT 9999NDV OVC012/// 12/09 Q1008=
201006180250 METAR ESMX 180250Z AUTO 18007KT 9999NDV OVC013/// 11/09 Q1008=
201006180220 METAR ESMX 180220Z AUTO 20007KT 9999NDV OVC016/// 11/09 Q1009=
201006180150 METAR ESMX 180150Z AUTO 20006KT 9999NDV OVC018/// 11/09 Q1010=
201006180120 METAR ESMX 180120Z AUTO 22006KT 9999NDV OVC015/// 11/08 Q1011=
201006180050 METAR ESMX 180050Z AUTO 23007KT 190V260 9999NDV OVC013/// 11/08 Q1011=
201006180020 METAR ESMX 180020Z AUTO 24008KT 200V280 9999NDV OVC011/// 11/08 Q1012=
201006172350 METAR ESMX 172350Z 22007KT 9999 OVC011 11/08 Q1012=
201006172320 METAR ESMX 172320Z 22008KT 9999 OVC011 11/09 Q1013=
201006172250 METAR ESMX 172250Z 23009KT 9999 OVC010 11/09 Q1013=
201006172220 METAR ESMX 172220Z 24009KT 200V260 9999 OVC010 11/09 Q1014=
201006172150 METAR ESMX 172150Z 23005KT 200V270 9999 BKN012 11/09 Q1014=
201006172120 METAR ESMX 172120Z 24005KT CAVOK 11/08 Q1015=
201006172050 METAR ESMX 172050Z 23006KT CAVOK 12/09 Q1015=
201006172020 METAR ESMX 172020Z 25007KT CAVOK 13/09 Q1015=
201006171950 METAR ESMX 171950Z 25006KT CAVOK 14/09 Q1015=
201006171920 METAR ESMX 171920Z 23007KT CAVOK 15/10 Q1015=
201006171850 METAR ESMX 171850Z 24006KT 210V270 CAVOK 17/09 Q1015=
201006171820 METAR ESMX 171820Z 23006KT 190V270 CAVOK 18/09 Q1016=
201006171750 METAR ESMX 171750Z 23007KT CAVOK 19/08 Q1016=
201006171720 METAR ESMX 171720Z 23006KT CAVOK 19/08 Q1016=
201006171650 METAR ESMX 171650Z 21007KT 180V250 CAVOK 19/07 Q1017=
201006171620 METAR ESMX 171620Z 24006KT 200V300 CAVOK 20/08 Q1017=
201006171550 METAR ESMX 171550Z 22006KT 180V280 CAVOK 20/08 Q1017=
201006171520 METAR ESMX 171520Z 25007KT 210V290 CAVOK 20/07 Q1018=
201006171450 METAR ESMX 171450Z 25006KT CAVOK 19/06 Q1018=
201006171420 METAR ESMX 171420Z 23007KT 190V280 CAVOK 19/07 Q1018=
201006171350 METAR ESMX 171350Z 28007KT 190V320 CAVOK 19/08 Q1019=
201006171320 METAR ESMX 171320Z 22005KT 160V290 CAVOK 19/08 Q1019=
201006171250 METAR ESMX 171250Z 27007KT 240V300 CAVOK 19/09 Q1019=
201006171220 METAR ESMX 171220Z 26007KT 220V300 CAVOK 19/08 Q1020=
201006171150 METAR ESMX 171150Z 23005KT 170V310 CAVOK 19/09 Q1020=
201006171120 METAR ESMX 171120Z 24008KT 190V280 CAVOK 18/08 Q1020=
201006171050 METAR ESMX 171050Z 24005KT 160V290 CAVOK 18/08 Q1020=
201006171020 METAR ESMX 171020Z 30005KT CAVOK 17/08 Q1021=
201006170950 METAR ESMX 170950Z 24006KT 170V270 CAVOK 17/09 Q1021=
201006170920 METAR ESMX 170920Z 19008KT 160V220 9999 FEW030 17/08 Q1021=
201006170850 METAR ESMX 170850Z 25006KT 220V340 9999 FEW030 16/08 Q1021=
201006170820 METAR ESMX 170820Z 24004KT 170V320 9999 FEW025 16/09 Q1021=
201006170750 METAR ESMX 170750Z 26005KT 220V290 9999 BKN020 15/08 Q1021=
201006170720 METAR ESMX 170720Z 28003KT 200V320 9999 BKN020 15/09 Q1021=
201006170650 METAR ESMX 170650Z 29005KT 230V320 9999 SCT020 14/09 Q1021=
201006170620 METAR ESMX 170620Z 28004KT 220V320 CAVOK 14/09 Q1021=
201006170550 METAR ESMX 170550Z 30003KT 260V350 CAVOK 13/10 Q1021=
201006170520 METAR ESMX 170520Z 28003KT CAVOK 12/09 Q1021=
201006170450 METAR ESMX 170450Z 26003KT 230V290 CAVOK 11/09 Q1022=
201006170420 METAR ESMX 170420Z 23003KT CAVOK 10/08 Q1022=
201006170350 METAR ESMX 170350Z 23003KT CAVOK 08/07 Q1022=
201006170320 METAR ESMX 170320Z AUTO 22002KT 9999NDV NCD 06/04 Q1022=
201006170250 METAR ESMX 170250Z AUTO 17003KT 9999NDV NCD 06/05 Q1022=
201006170220 METAR ESMX 170220Z AUTO 17001KT 9999NDV NCD 05/04 Q1022=
201006170150 METAR ESMX 170150Z AUTO 21001KT 9999NDV NCD 06/05 Q1022=
201006170120 METAR ESMX 170120Z AUTO 25003KT 9999NDV NCD 06/05 Q1022=
201006170050 METAR ESMX 170050Z AUTO 25003KT 9999NDV NCD 07/05 Q1022=
201006170020 METAR ESMX 170020Z AUTO 24003KT 9999NDV NCD 07/05 Q1022=
201006162350 METAR ESMX 162350Z 25002KT CAVOK 08/05 Q1022=
201006162320 METAR ESMX 162320Z 24003KT CAVOK 08/05 Q1022=
201006162250 METAR ESMX 162250Z 23003KT CAVOK 09/05 Q1022=
201006162220 METAR ESMX 162220Z 24003KT CAVOK 09/05 Q1022=
201006162150 METAR ESMX 162150Z 22004KT CAVOK 09/04 Q1022=
201006162120 METAR ESMX 162120Z 22005KT CAVOK 10/04 Q1022=
201006162050 METAR ESMX 162050Z 21005KT CAVOK 12/04 Q1022=
201006162020 METAR ESMX 162020Z 24004KT CAVOK 12/04 Q1021=
201006161950 METAR ESMX 161950Z 23005KT CAVOK 13/03 Q1021=
201006161920 METAR ESMX 161920Z 25005KT CAVOK 14/03 Q1021=
201006161850 METAR ESMX 161850Z 26005KT CAVOK 15/03 Q1021=
201006161820 METAR ESMX 161820Z 27007KT 230V290 CAVOK 17/02 Q1021=
201006161750 METAR ESMX 161750Z 28009KT CAVOK 18/02 Q1021=
201006161720 METAR ESMX 161720Z 27009KT 240V320 CAVOK 18/02 Q1021=
201006161650 METAR ESMX 161650Z 25010KT 220V290 CAVOK 19/03 Q1021=
201006161620 METAR ESMX 161620Z 30012KT CAVOK 20/04 Q1021=
201006161550 METAR ESMX 161550Z 27009KT 240V330 CAVOK 20/06 Q1021=
201006161520 METAR ESMX 161520Z 26007KT 220V290 CAVOK 20/06 Q1021=
201006161450 METAR ESMX 161450Z 26009KT 230V290 CAVOK 21/06 Q1021=
201006161420 METAR ESMX 161420Z 23011KT CAVOK 21/05 Q1021=
201006161350 METAR ESMX 161350Z 27004KT 230V350 CAVOK 20/05 Q1022=
201006161320 METAR ESMX 161320Z 21007KT 170V240 CAVOK 20/06 Q1022=
201006161250 METAR ESMX 161250Z 21008KT 170V240 CAVOK 21/06 Q1022=
201006161220 METAR ESMX 161220Z 22008KT 190V260 CAVOK 20/05 Q1022=
201006161150 METAR ESMX 161150Z 21006KT CAVOK 18/05 Q1023=
201006161120 METAR ESMX 161120Z 22006KT 170V260 CAVOK 20/05 Q1023=
201006161050 METAR ESMX 161050Z 26006KT 220V280 CAVOK 18/05 Q1023=
201006161020 METAR ESMX 161020Z 23005KT 160V280 CAVOK 18/06 Q1023=
201006160950 METAR ESMX 160950Z 24004KT 190V260 9999 SCT045 17/05 Q1023=
201006160920 METAR ESMX 160920Z 24005KT 210V280 9999 FEW045 SCT053 17/05 Q1024=
201006160850 METAR ESMX 160850Z 23003KT 140V260 CAVOK 17/07 Q1024=
201006160820 METAR ESMX 160820Z 32003KT 240V020 CAVOK 17/07 Q1024=
201006160720 METAR ESMX 160720Z 33003KT 260V030 CAVOK 16/07 Q1024=
201006160650 METAR ESMX 160650Z 01003KT 330V060 CAVOK 16/09 Q1024=
201006160620 METAR ESMX 160620Z 35003KT 290V030 CAVOK 14/09 Q1024=
201006160550 METAR ESMX 160550Z VRB02KT CAVOK 12/08 Q1024=
201006160520 METAR ESMX 160520Z VRB02KT CAVOK 11/08 Q1024=
201006160450 METAR ESMX 160450Z 00000KT CAVOK 10/09 Q1024=
201006160420 METAR ESMX 160420Z VRB01KT CAVOK 07/07 Q1024=
201006160350 METAR ESMX 160350Z 19002KT CAVOK 04/04 Q1024=
201006160320 METAR ESMX 160320Z AUTO 17001KT 9999NDV NCD 03/02 Q1024=
201006160250 METAR ESMX 160250Z AUTO 00000KT 9999NDV NCD 03/02 Q1023=
201006160220 METAR ESMX 160220Z AUTO 14001KT 9999NDV NCD 03/02 Q1023=
201006160150 METAR ESMX 160150Z AUTO 00000KT 9999NDV NCD 03/03 Q1023=
201006160120 METAR ESMX 160120Z AUTO 16001KT 9999NDV NCD 04/03 Q1023=
201006160050 METAR ESMX 160050Z AUTO 29001KT 9999NDV NCD 03/03 Q1023=
201006160020 METAR ESMX 160020Z AUTO 27002KT 9999NDV NCD 04/03 Q1023=
201006152350 METAR ESMX 152350Z AUTO 18001KT 9999NDV NCD 04/03 Q1023=
201006152320 METAR ESMX 152320Z AUTO 18001KT 9999NDV NCD 04/04 Q1023=
201006152250 METAR ESMX 152250Z AUTO 26002KT 9999NDV NCD 05/04 Q1022=
201006152220 METAR ESMX 152220Z AUTO 20002KT 9999NDV NCD 05/05 Q1022=
201006152150 METAR ESMX 152150Z AUTO 21002KT 9999NDV NCD 06/06 Q1022=
201006152120 METAR ESMX 152120Z AUTO 00000KT 0650NDV R01/P2000N R19/P2000D BR NCD 07/06 Q1022=
201006152050 METAR ESMX 152050Z 12002KT CAVOK 09/08 Q1021=
201006152020 METAR ESMX 152020Z 26003KT CAVOK 09/07 Q1021=
201006151950 METAR ESMX 151950Z 23003KT CAVOK 11/09 Q1021=
201006151920 METAR ESMX 151920Z 21002KT CAVOK 13/09 Q1021=
201006151850 METAR ESMX 151850Z 23005KT CAVOK 13/09 Q1020=
201006151820 METAR ESMX 151820Z 21004KT CAVOK 14/09 Q1020=
201006151750 METAR ESMX 151750Z 19003KT 150V210 CAVOK 14/09 Q1020=
201006151720 METAR ESMX 151720Z 23007KT 200V260 CAVOK 13/09 Q1020=
201006151650 METAR ESMX 151650Z 21004KT CAVOK 13/09 Q1020=
201006151620 METAR ESMX 151620Z 21005KT 170V230 CAVOK 13/09 Q1020=
201006151550 METAR ESMX 151550Z 18004KT 150V210 9999 VCSH FEW028CB SCT075 14/09 Q1019=
201006151520 METAR ESMX 151520Z 14005KT 100V190 9999 VCSH FEW028CB SCT074 11/09 Q1019=
201006151450 METAR ESMX 151450Z 11007KT 070V160 9999 TSRA FEW027CB SCT058 15/08 Q1019=
201006151420 METAR ESMX 151420Z 04003KT 330V110 9999 VCSH FEW050CB BKN076 16/08 Q1019=
201006151350 METAR ESMX 151350Z 34005KT 300V040 9999 VCSH FEW030CB SCT081 17/06 Q1019=
201006151320 METAR ESMX 151320Z 34006KT 280V010 9999 VCSH FEW029CB SCT053 16/08 Q1018=
201006151250 METAR ESMX 151250Z 30005KT 260V350 9999 FEW029CB SCT080 14/10 Q1018=
201006151220 METAR ESMX 151220Z 33007KT 300V010 9999 VCSH FEW041CB SCT050 12/09 Q1018=
201006151150 METAR ESMX 151150Z VRB02KT 9999 -RA FEW029CB SCT044 10/08 Q1018=
201006151120 METAR ESMX 151120Z 30006KT 240V340 9999 VCSH FEW008 FEW027CB SCT067 09/06 Q1018 RERA=
201006151050 METAR ESMX 151050Z 03006KT 350V060 9999 -SHRA FEW026CB BKN041 14/07 Q1018=
201006151020 METAR ESMX 151020Z 35006KT 320V020 9999 VCSH FEW047CB SCT072 15/07 Q1017=
201006150950 METAR ESMX 150950Z 01009KT 320V050 9999 VCSH FEW032CB SCT059 15/07 Q1017=
201006150920 METAR ESMX 150920Z 36004KT 310V050 9999 VCSH FEW030CB SCT070 16/07 Q1017=
201006150850 METAR ESMX 150850Z 35006KT 300V020 9999 VCSH FEW025CB SCT070 16/09 Q1017=
201006150750 METAR ESMX 150750Z VRB01KT CAVOK 13/09 Q1016=
201006150720 METAR ESMX 150720Z 02003KT 340V090 9999 FEW020 SCT045 13/09 Q1016=
201006150650 METAR ESMX 150650Z 01003KT 280V080 9999 SCT045 14/09 Q1016=
201006150620 METAR ESMX 150620Z VRB02KT 9999 FEW030 SCT044 13/08 Q1016=
201006150550 METAR ESMX 150550Z VRB01KT 9999 FEW032 SCT047 12/09 Q1016=
201006150520 METAR ESMX 150520Z VRB02KT 9999 FEW034 BKN052 10/08 Q1016=
201006150450 METAR ESMX 150450Z VRB02KT 9999 FEW035 SCT070 09/08 Q1016=
201006150420 METAR ESMX 150420Z VRB02KT 9999 SCT030 BKN090 08/07 Q1016=
201006150350 METAR ESMX 150350Z 00000KT 9999 FEW002 BKN090 07/06 Q1016=
201006150320 METAR ESMX 150320Z AUTO VRB02KT 9999NDV NCD 06/06 Q1016=
201006150250 METAR ESMX 150250Z AUTO 21004KT 9999NDV NCD 06/05 Q1016=
201006150220 METAR ESMX 150220Z AUTO 15002KT 9999NDV BR FEW026/// 06/06 Q1016=
201006150150 METAR ESMX 150150Z AUTO VRB01KT 9999NDV SCT026/// 06/05 Q1016=
201006150120 METAR ESMX 150120Z AUTO 00000KT 9999NDV BKN025/// 08/06 Q1015=
201006150050 METAR ESMX 150050Z AUTO 29001KT 9999NDV SCT061/// 08/06 Q1015=
201006150020 METAR ESMX 150020Z AUTO 26003KT 9999NDV FEW062/// 08/06 Q1015=
201006142350 METAR ESMX 142350Z AUTO 26003KT 9999NDV SCT028/// BKN043/// BKN055/// 09/07 Q1015=
201006142320 METAR ESMX 142320Z 26003KT 9999 FEW025 BKN030 09/07 Q1015=
201006142250 METAR ESMX 142250Z 25004KT 230V290 9999 BKN030 09/07 Q1015=
201006142220 METAR ESMX 142220Z 26004KT 9999 SCT038 BKN100 08/06 Q1015=
201006142150 METAR ESMX 142150Z 26004KT CAVOK 08/06 Q1015=
201006142120 METAR ESMX 142120Z 24004KT CAVOK 08/06 Q1015=
201006142050 METAR ESMX 142050Z 23003KT CAVOK 09/06 Q1015=
201006142020 METAR ESMX 142020Z 26003KT CAVOK 09/06 Q1015=
201006141950 METAR ESMX 141950Z 25004KT CAVOK 11/06 Q1014=
201006141920 METAR ESMX 141920Z 27005KT CAVOK 12/06 Q1014=
201006141850 METAR ESMX 141850Z 27006KT 230V300 CAVOK 13/06 Q1014=
201006141820 METAR ESMX 141820Z 26004KT CAVOK 14/07 Q1014=
201006141750 METAR ESMX 141750Z 27008KT 9999 FEW040 BKN100 13/06 Q1014=
201006141720 METAR ESMX 141720Z 26007KT 210V290 9999 FEW040 BKN100 14/06 Q1013=
201006141650 METAR ESMX 141650Z 27007KT 220V310 CAVOK 15/06 Q1013=
201006141620 METAR ESMX 141620Z 28008KT 250V320 CAVOK 16/06 Q1013=
201006141550 METAR ESMX 141550Z 28008KT 250V320 9999 SCT041 BKN057 16/06 Q1013=
201006141520 METAR ESMX 141520Z 27006KT 230V350 9999 FEW040 BKN055 17/07 Q1013=
201006141450 METAR ESMX 141450Z 31006KT 9999 SCT035 BKN055 16/07 Q1013=
201006141420 METAR ESMX 141420Z VRB03KT 9999 FEW030 BKN050 16/07 Q1013=
201006141350 METAR ESMX 141350Z 28005KT 230V320 9999 FEW030 OVC050 15/07 Q1013=
201006141250 METAR ESMX 141250Z 28007KT 9999 SCT029 OVC040 14/07 Q1013=
201006141220 METAR ESMX 141220Z 29007KT 9999 FEW029 OVC038 14/07 Q1013=
201006141150 METAR ESMX 141150Z 27005KT 220V330 9999 FEW030 OVC038 14/07 Q1013=
201006141120 METAR ESMX 141120Z 26007KT 9999 FEW026 OVC037 14/07 Q1013=
201006141050 METAR ESMX 141050Z 30007KT 260V330 9999 SCT024 OVC030 13/07 Q1013=
201006141020 METAR ESMX 141020Z 28006KT 230V330 9999 FEW025 OVC030 13/08 Q1013=
201006140920 METAR ESMX 140920Z 26006KT 220V290 9999 SCT024 OVC027 13/07 Q1013=
201006140850 METAR ESMX 140850Z 25005KT 210V300 9999 OVC023 13/07 Q1013=
201006140820 METAR ESMX 140820Z 24006KT 200V280 9999 BKN022 12/07 Q1013=
201006140750 METAR ESMX 140750Z 26007KT 210V280 9999 BKN019 12/07 Q1013=
201006140720 METAR ESMX 140720Z 26005KT 190V300 9999 BKN016 11/07 Q1012=
201006140650 METAR ESMX 140650Z 27007KT 230V320 9999 BKN015 11/07 Q1012=
201006140620 METAR ESMX 140620Z 29008KT 260V330 9999 FEW012 OVC016 11/07 Q1012=
201006140550 METAR ESMX 140550Z 28007KT 240V320 9999 BKN010 11/08 Q1012=
201006140520 METAR ESMX 140520Z 24005KT 200V290 9999 FEW010 10/07 Q1012=
201006140450 METAR ESMX 140450Z 23005KT CAVOK FEW015 08/07 Q1012=
201006140420 METAR ESMX 140420Z 21005KT 180V250 9999 FEW014 08/07 Q1012=
201006140350 METAR ESMX 140350Z 22003KT 190V260 CAVOK 07/06 Q1011=
201006140320 METAR ESMX 140320Z AUTO VRB02KT 9999NDV NCD 06/05 Q1011=
201006140250 METAR ESMX 140250Z AUTO 22003KT 9999NDV NCD 06/05 Q1011=
201006140220 METAR ESMX 140220Z AUTO 20004KT 9999NDV NCD 06/06 Q1011=
201006140150 METAR ESMX 140150Z AUTO 21005KT 9999NDV NCD 06/05 Q1011=
201006140120 METAR ESMX 140120Z AUTO 22005KT 9999NDV NCD 06/05 Q1011=
201006140050 METAR ESMX 140050Z AUTO 22005KT 9999NDV NCD 06/05 Q1011=
201006140020 METAR ESMX 140020Z AUTO 22004KT 9999NDV NCD 07/05 Q1011=
201006132350 METAR ESMX 132350Z 22004KT CAVOK 07/05 Q1011=
201006132320 METAR ESMX 132320Z 23005KT CAVOK 07/05 Q1011=
201006132250 METAR ESMX 132250Z 23005KT CAVOK 07/05 Q1011=
201006132220 METAR ESMX 132220Z 23003KT CAVOK 08/06 Q1010=
201006132150 METAR ESMX 132150Z 23004KT CAVOK 08/06 Q1010=
201006132120 METAR ESMX 132120Z 24004KT 210V270 9999 FEW040 08/05 Q1010=
201006132050 METAR ESMX 132050Z 24005KT 200V260 9999 SCT038 10/06 Q1010=
201006132020 METAR ESMX 132020Z 25007KT 9999 OVC033 11/06 Q1010=
201006131950 METAR ESMX 131950Z 26008KT 9999 OVC033 11/05 Q1010=
201006131920 METAR ESMX 131920Z 25009KT 9999 OVC033 11/05 Q1010=
201006131850 METAR ESMX 131850Z 27009KT 9999 OVC035 12/06 Q1009=
201006131820 METAR ESMX 131820Z 26009KT 230V290 9999 OVC032 12/06 Q1009=
201006131750 METAR ESMX 131750Z 24008KT 200V280 9999 BKN032 12/06 Q1009=
201006131720 METAR ESMX 131720Z 25009KT 210V280 9999 BKN030 13/07 Q1009=
201006131650 METAR ESMX 131650Z 25010KT 9999 BKN027 13/07 Q1009=
201006131620 METAR ESMX 131620Z 24009KT 210V280 9999 BKN028 13/07 Q1008=
201006131550 METAR ESMX 131550Z 25009KT 210V280 9999 FEW024 OVC028 13/07 Q1008=
201006131520 METAR ESMX 131520Z 24008KT 9999 OVC022 12/08 Q1009=
201006131450 METAR ESMX 131450Z 24008KT 210V290 9999 FEW014 OVC021 13/08 Q1009=
201006131420 METAR ESMX 131420Z 23013KT 200V270 9999 OVC014 12/08 Q1009=
201006131350 METAR ESMX 131350Z 24011KT 210V280 9999 BKN011 OVC016 12/09 Q1008=
201006131320 METAR ESMX 131320Z 24010KT 210V290 9999 OVC013 12/09 Q1008=
201006131250 METAR ESMX 131250Z 23009KT 190V270 9999 OVC015 13/09 Q1008=
201006131220 METAR ESMX 131220Z 24011KT 200V270 9999 OVC014 13/10 Q1008=
201006131150 METAR ESMX 131150Z 25012KT 210V280 9999 BKN016 OVC022 14/10 Q1008=
201006131120 METAR ESMX 131120Z 23012KT 9999 FEW016 BKN022 15/10 Q1008=
201006131050 METAR ESMX 131050Z 23013KT 9999 FEW020 BKN037 16/11 Q1008=
201006131020 METAR ESMX 131020Z 23013KT 200V280 9999 FEW019 SCT022 BKN026 16/11 Q1007=
201006130950 METAR ESMX 130950Z 25013KT 220V300 9999 SCT021 BKN029 OVC037 16/10 Q1007=
201006130920 METAR ESMX 130920Z 23010KT 190V280 9999 FEW022 SCT029 BKN034 16/11 Q1006=
201006130850 METAR ESMX 130850Z 25012KT 230V290 9999 FEW020 SCT026 BKN043 17/11 Q1006=
201006130820 METAR ESMX 130820Z AUTO 26011KT 220V290 9999NDV FEW021/// 16/12 Q1006=
201006130750 METAR ESMX 130750Z AUTO 26012KT 220V290 9999NDV FEW020/// SCT025/// BKN030/// 16/11 Q1005=
201006130720 METAR ESMX 130720Z AUTO 27011KT 240V310 9999NDV FEW017/// SCT020/// 16/11 Q1005=
201006130650 METAR ESMX 130650Z AUTO 28011KT 250V320 9999NDV FEW014/// SCT018/// BKN062/// 15/11 Q1004=
201006130620 METAR ESMX 130620Z AUTO 28010KT 250V320 9999NDV BKN013/// 14/11 Q1004=
201006130550 METAR ESMX 130550Z AUTO 28011KT 250V320 9999NDV BKN011/// 13/11 Q1004=
201006130520 METAR ESMX 130520Z AUTO 27009KT 9999NDV BKN010/// 13/11 Q1003=
201006130450 METAR ESMX 130450Z AUTO 27012KT 9999NDV BKN009/// BKN071/// 13/11 Q1003=
201006130420 METAR ESMX 130420Z AUTO 28009KT 9999NDV FEW009/// BKN010/// 12/10 Q1002=
201006130350 METAR ESMX 130350Z AUTO 28008KT 9999NDV FEW008/// OVC010/// 12/10 Q1002=
201006130320 METAR ESMX 130320Z AUTO 28009KT 240V300 9999NDV FEW009/// BKN011/// 12/10 Q1001=
201006130250 METAR ESMX 130250Z AUTO 28010KT 9999NDV FEW009/// BKN012/// 12/10 Q1001=
201006130220 METAR ESMX 130220Z AUTO 28009KT 250V310 9999NDV FEW009/// SCT012/// BKN043/// 11/10 Q1000=
201006130150 METAR ESMX 130150Z AUTO 28009KT 250V320 5000NDV -DZ FEW008/// BKN013/// OVC043/// 11/10 Q1000=
201006130120 METAR ESMX 130120Z AUTO 27010KT 240V300 9999NDV FEW009/// SCT012/// OVC044/// 11/10 Q1000=
201006130050 METAR ESMX 130050Z AUTO 28009KT 250V320 9999NDV FEW009/// SCT013/// BKN016/// 11/10 Q0999=
201006130020 METAR ESMX 130020Z AUTO 27010KT 230V320 9999NDV FEW009/// SCT013/// BKN016/// 11/10 Q0999=
201006122350 METAR ESMX 122350Z AUTO 28009KT 250V320 9999NDV FEW007/// SCT010/// BKN013/// 11/10 Q0998=
201006122320 METAR ESMX 122320Z AUTO 27010KT 9999NDV FEW005/// SCT008/// BKN010/// 11/10 Q0998 REDZ=
201006122250 METAR ESMX 122250Z AUTO 26009KT 2600NDV DZ FEW006/// SCT008/// BKN009/// 11/10 Q0997=
201006122220 METAR ESMX 122220Z AUTO 24009KT 200V270 9999NDV FEW007/// SCT009/// BKN010/// 10/09 Q0997=
201006122150 METAR ESMX 122150Z AUTO 22011KT 200V260 9999NDV -RA FEW006/// BKN008/// BKN012/// 10/09 Q0997 REDZ=
201006122120 METAR ESMX 122120Z AUTO 23011KT 200V260 3900NDV DZ FEW006/// BKN008/// 10/09 Q0997=
201006122050 METAR ESMX 122050Z AUTO 22010KT 9000NDV FEW007/// OVC009/// 10/09 Q0997=
201006122020 METAR ESMX 122020Z AUTO 24011KT 9999NDV FEW007/// BKN010/// OVC014/// 10/09 Q0997=
201006121950 METAR ESMX 121950Z AUTO 23011KT 200V260 9999NDV FEW008/// SCT013/// BKN020/// 10/09 Q0997=
201006121920 METAR ESMX 121920Z AUTO 22011KT 2800NDV DZ FEW008/// OVC010/// 10/09 Q0997=
201006121850 METAR ESMX 121850Z AUTO 23013KT 190V270 9999NDV FEW008/// OVC012/// 10/08 Q0997 REDZ=
201006121820 METAR ESMX 121820Z 21016KT 6000 RA FEW016 BKN022 BKN028 11/08 Q0997=
201006121750 METAR ESMX 121750Z 22014G25KT 190V250 9999 BKN021 BKN045 11/07 Q0997=
201006121720 METAR ESMX 121720Z 22019G29KT 9999 FEW025 BKN031 BKN057 12/07 Q0997=
201006121650 METAR ESMX 121650Z 23016KT 200V260 9999 BKN027 BKN044 12/07 Q0997=
201006121620 METAR ESMX 121620Z 23019KT 9999 -RA BKN031 BKN044 13/06 Q0997=
201006121550 METAR ESMX 121550Z 24016G26KT 200V270 9999 FEW026 SCT035 BKN060 13/06 Q0997=
201006121520 METAR ESMX 121520Z 23016KT 200V260 9999 SCT032 BKN065 14/07 Q0997 RERA=
201006121450 METAR ESMX 121450Z AUTO 25016G26KT 200V270 9999NDV FEW032/// SCT042/// BKN061/// 13/07 Q0997=
201006121420 METAR ESMX 121420Z AUTO 23021KT 9999NDV FEW032/// SCT041/// 14/07 Q0997=
201006121350 METAR ESMX 121350Z AUTO 24017G27KT 200V270 9999NDV FEW023/// SCT030/// BKN051/// 14/08 Q0997=
201006121320 METAR ESMX 121320Z AUTO 24014G24KT 9999NDV FEW019/// SCT023/// BKN028/// 13/09 Q0997=
201006121250 METAR ESMX 121250Z AUTO 22014KT 180V250 9999NDV FEW016/// SCT058/// 13/10 Q0997 RESHRA=
201006121220 METAR ESMX 121220Z AUTO 24014KT 210V280 9999NDV -RA FEW026/// SCT044/// 11/09 Q0998=
201006121150 METAR ESMX 121150Z AUTO 25013KT 200V280 9999NDV FEW019/// SCT040/// BKN050/// 11/10 Q0997=
201006121120 METAR ESMX 121120Z AUTO 24013KT 210V280 9999NDV FEW018/// SCT056/// 11/09 Q0997=
201006121050 METAR ESMX 121050Z AUTO 25015G25KT 210V280 9999NDV -RA FEW013/// SCT056/// 11/09 Q0997 RERA=
201006121020 METAR ESMX 121020Z AUTO 23012KT 200V260 6000NDV -RA FEW019/// SCT023/// BKN028/// 12/09 Q0997=
201006120950 METAR ESMX 120950Z 23018G28KT 200V260 9999 FEW019 SCT022 BKN027 13/09 Q0997=
201006120920 METAR ESMX 120920Z 21022G32KT 170V250 9999 FEW021 SCT025 BKN029 13/08 Q0997=
201006120850 METAR ESMX 120850Z 22020G32KT 180V260 9999 FEW021 SCT025 14/08 Q0997=
201006120820 METAR ESMX 120820Z 24018KT 9999 FEW022 SCT027 BKN033 13/08 Q0997=
201006120750 METAR ESMX 120750Z 22017G27KT 170V250 9999 SCT021 BKN028 BKN035 13/08 Q0997=
201006120720 METAR ESMX 120720Z 24015KT 210V280 9999 SCT020 BKN028 BKN035 12/08 Q0997=
201006120650 METAR ESMX 120650Z 24013KT 200V290 9999 BKN020 12/08 Q0997=
201006120620 METAR ESMX 120620Z 25014KT 190V290 9999 FEW022 BKN048 12/07 Q0997=
201006120550 METAR ESMX 120550Z AUTO 24013KT 210V290 9999NDV FEW030/// OVC040/// 11/07 Q0997=
201006120520 METAR ESMX 120520Z AUTO 24013KT 210V290 9999NDV FEW019/// SCT024/// BKN028/// 10/07 Q0997=
201006120450 METAR ESMX 120450Z AUTO 25012KT 210V280 9999NDV FEW021/// SCT026/// BKN034/// 10/07 Q0997=
201006120420 METAR ESMX 120420Z AUTO 25012G22KT 210V290 9999NDV FEW020/// SCT023/// BKN033/// 10/07 Q0997=
201006120350 METAR ESMX 120350Z AUTO 25012KT 9999NDV FEW014/// SCT020/// BKN024/// 10/07 Q0997=
201006120320 METAR ESMX 120320Z AUTO 25013KT 210V290 9999NDV FEW017/// SCT020/// BKN024/// 10/07 Q0997=
201006120250 METAR ESMX 120250Z AUTO 24012KT 200V280 9000NDV -DZ FEW016/// BKN019/// OVC038/// 09/07 Q0996=
201006120220 METAR ESMX 120220Z AUTO 25013KT 9999NDV FEW016/// SCT020/// BKN024/// 10/07 Q0996=
201006120150 METAR ESMX 120150Z AUTO 26013G24KT 230V290 9999NDV FEW018/// SCT022/// BKN026/// 10/08 Q0996=
201006120120 METAR ESMX 120120Z AUTO 26016KT 9999NDV FEW011/// SCT017/// BKN025/// 10/08 Q0996=
201006120050 METAR ESMX 120050Z AUTO 26012KT 210V290 9999NDV FEW017/// SCT046/// BKN061/// 11/09 Q0995=
201006120020 METAR ESMX 120020Z AUTO 24015KT 210V280 9999NDV FEW006/// SCT007/// BKN009/// 12/10 Q0995=
201006112350 METAR ESMX 112350Z AUTO 26012G22KT 230V300 7000NDV -RA FEW008/// SCT009/// BKN011/// 13/11 Q0994=
201006112320 METAR ESMX 112320Z AUTO 26015G25KT 210V290 9999NDV FEW005/// SCT007/// BKN008/// 13/12 Q0994 REDZ=
201006112250 METAR ESMX 112250Z AUTO 24011KT 210V280 3500NDV DZ FEW005/// BKN006/// BKN010/// 14/13 Q0994=
201006112220 METAR ESMX 112220Z AUTO 25011KT 9999NDV SCT006/// BKN009/// OVC013/// 14/13 Q0993=
201006112150 METAR ESMX 112150Z AUTO 26014KT 230V290 9999NDV FEW009/// SCT011/// BKN016/// 15/13 Q0993=
201006112120 METAR ESMX 112120Z AUTO 23012KT 200V260 9999NDV FEW006/// SCT008/// BKN011/// 16/15 Q0992=
201006112050 METAR ESMX 112050Z AUTO 18014KT 6000NDV UP SCT006/// BKN008/// OVC010/// 16/15 Q0992=
201006112020 METAR ESMX 112020Z AUTO 17012KT 140V210 6000NDV -RA FEW006/// SCT008/// BKN010/// 16/15 Q0993 REDZ=
201006111950 METAR ESMX 111950Z AUTO 17009KT 6000NDV -RA FEW005/// SCT006/// BKN008/// 16/15 Q0993 RESHRA=
201006111920 METAR ESMX 111920Z 17011KT 5000 -RA SCT002 BKN005 OVC007 15/15 Q0994=
201006111850 METAR ESMX 111850Z 15007KT 120V190 3600 RA BKN002 OVC007 15/14 Q0994 RERA=
201006111820 METAR ESMX 111820Z 16007KT 120V200 4000 -RA BKN001 OVC004 15/14 Q0995 RESHRA=
201006111750 METAR ESMX 111750Z 17007KT 2800 -DZ BR OVC001 15/14 Q0995=
201006111720 METAR ESMX 111720Z 16007KT 110V200 4100 BR OVC002 15/14 Q0996 REDZ=
201006111650 METAR ESMX 111650Z 18007KT 150V220 3000 BR OVC002 15/14 Q0997=
201006111620 METAR ESMX 111620Z 19008KT 6000 BR OVC003 15/14 Q0997=
201006111550 METAR ESMX 111550Z 19007KT 9999 OVC004 15/14 Q0997=
201006111520 METAR ESMX 111520Z 18008KT 140V200 9999 DZ OVC004 15/14 Q0998=
201006111450 METAR ESMX 111450Z 21006KT 190V260 9999 DZ OVC004 15/14 Q0998=
201006111420 METAR ESMX 111420Z 18009KT 140V210 9999 DZ SCT005 BKN008 OVC010 15/14 Q0999=
201006111350 METAR ESMX 111350Z 19004KT 9999 -RA FEW004 OVC008 15/14 Q0999=
201006111320 METAR ESMX 111320Z 17005KT 120V210 9999 -RA OVC004 15/14 Q0999=
201006111250 METAR ESMX 111250Z 17005KT 140V200 9999 DZ FEW003 BKN005 OVC008 15/14 Q0999=
201006111220 METAR ESMX 111220Z 17005KT 140V210 9000 -RA OVC004 15/14 Q1000=
201006111150 METAR ESMX 111150Z VRB02KT 9999 OVC005 15/13 Q1000=
201006111120 METAR ESMX 111120Z VRB02KT 9999 -RA BKN004 OVC007 14/13 Q1000=
201006111050 METAR ESMX 111050Z VRB02KT 9999 -RA OVC004 14/13 Q1000=
201006111020 METAR ESMX 111020Z 25004KT 200V290 9999 OVC004 14/13 Q1001=
201006110950 METAR ESMX 110950Z 24005KT 210V270 9000 BR OVC003 14/13 Q1002=
201006110920 METAR ESMX 110920Z 24004KT 6000 BR OVC002 14/13 Q1002=
201006110850 METAR ESMX 110850Z VRB02KT 4500 BR OVC002 13/13 Q1002=
201006110820 METAR ESMX 110820Z VRB01KT 5000 BR OVC003 13/12 Q1002=
201006110750 METAR ESMX 110750Z VRB01KT 7000 BR OVC004 13/12 Q1002=
201006110720 METAR ESMX 110720Z VRB02KT 5000 BR OVC003 13/12 Q1003=
201006110650 METAR ESMX 110650Z 02003KT 350V070 3600 BR BKN002 OVC005 13/12 Q1003=
201006110620 METAR ESMX 110620Z VRB02KT 3000 BR SCT002 OVC004 13/12 Q1003 REDZ=
201006110550 METAR ESMX 110550Z 02005KT 2000 -DZ BR BKN001 OVC005 12/12 Q1003=
201006110520 METAR ESMX 110520Z 01003KT 1700 DZ BR OVC001 12/12 Q1004=
201006110450 METAR ESMX 110450Z 35003KT 2000 BR BKN002 OVC003 12/12 Q1004 REDZ=
201006110420 METAR ESMX 110420Z 35003KT 2500 -DZ BR OVC002 12/12 Q1004=
201006110350 METAR ESMX 110350Z 27003KT 230V300 1600 +DZ BR OVC004 12/12 Q1005=
201006110320 METAR COR ESMX 110320Z VRB01KT 4000 BR OVC005 12/12 Q1004=
201006110250 METAR ESMX 110250Z AUTO 07004KT 030V120 8000NDV BR OVC006/// 12/11 Q1004=
201006110220 METAR ESMX 110220Z AUTO 08003KT 010V190 9999NDV FEW007/// BKN008/// OVC012/// 12/11 Q1005=
201006110150 METAR ESMX 110150Z AUTO 06004KT 020V110 9999NDV FEW006/// SCT008/// BKN009/// 12/11 Q1005=
201006110120 METAR ESMX 110120Z AUTO 05004KT 010V090 9999NDV FEW006/// BKN008/// OVC017/// 12/11 Q1006=
201006110050 METAR ESMX 110050Z AUTO 07006KT 9999NDV FEW007/// SCT010/// OVC022/// 12/11 Q1006=
201006110020 METAR ESMX 110020Z AUTO 05006KT 010V080 9999NDV FEW008/// OVC024/// 12/11 Q1007=
201006102350 METAR ESMX 102350Z 05006KT 010V080 9999 FEW006 SCT007 BKN009 12/11 Q1007=
201006102320 METAR ESMX 102320Z 05005KT 360V090 9999 -RA FEW006 BKN007 OVC026 12/11 Q1008=
201006102250 METAR ESMX 102250Z 06006KT 030V110 9999 -RA FEW006 SCT008 BKN026 12/11 Q1009=
201006102220 METAR ESMX 102220Z 08005KT 050V130 9999 FEW006 SCT009 BKN057 12/11 Q1009 RERA=
201006102150 METAR ESMX 102150Z 05005KT 350V120 9999 -RA FEW007 OVC008 12/11 Q1010=
201006102120 METAR ESMX 102120Z 06006KT 010V100 9999 -RA SCT007 BKN012 12/11 Q1010=
201006102050 METAR ESMX 102050Z 05007KT 020V100 9999 -RA FEW006 BKN010 BKN057 12/11 Q1010=
201006102020 METAR ESMX 102020Z 06007KT 020V100 9999 -DZ FEW008 SCT009 BKN011 12/11 Q1010=
201006101950 METAR ESMX 101950Z 06006KT 020V110 9999 SCT007 BKN010 12/11 Q1011=
201006101920 METAR ESMX 101920Z 06006KT 020V100 9999 FEW007 SCT009 OVC010 12/11 Q1011=
201006101850 METAR ESMX 101850Z 05006KT 020V110 9999 -RA FEW007 OVC009 12/11 Q1011=
201006101820 METAR ESMX 101820Z 05006KT 010V080 9999 -RA FEW008 SCT010 BKN013 12/11 Q1011=
201006101750 METAR ESMX 101750Z 06005KT 020V100 9999 -RA FEW006 SCT008 BKN010 12/11 Q1012=
201006101720 METAR ESMX 101720Z 07005KT 030V110 9999 -RA FEW007 SCT008 BKN010 12/11 Q1012=
201006101650 METAR ESMX 101650Z 06008KT 020V110 9999 -RA FEW009 SCT013 BKN100 12/11 Q1012=
201006101620 METAR ESMX 101620Z 06006KT 350V120 9999 -RA FEW006 SCT010 BKN100 13/11 Q1012=
201006101550 METAR ESMX 101550Z 06006KT 020V110 9999 -RA FEW008 BKN100 13/11 Q1013=
201006101520 METAR ESMX 101520Z 05008KT 020V090 9999 -RA FEW025 BKN100 13/12 Q1013=
201006101450 METAR ESMX 101450Z 04007KT 010V080 9999 -RA BKN027 14/11 Q1013=
201006101420 METAR ESMX 101420Z 07007KT 030V110 9999 -RA FEW019 OVC029 14/11 Q1014=
201006101250 METAR ESMX 101250Z 06007KT 350V110 9999 BKN027 15/11 Q1013=
201006101220 METAR ESMX 101220Z 07007KT 020V110 9999 FEW020 BKN027 15/11 Q1014=
201006101150 METAR ESMX 101150Z 07008KT 010V110 9999 SCT027 BKN084 15/11 Q1014=
201006101120 METAR ESMX 101120Z 05008KT 350V080 9999 SCT016 OVC024 15/11 Q1014=
201006101050 METAR ESMX 101050Z 05007KT 010V090 9999 SCT014 BKN020 14/11 Q1014=
201006101020 METAR ESMX 101020Z 05007KT 010V110 9999 -RA BKN020 14/11 Q1014=
201006100950 METAR ESMX 100950Z 05008KT 010V080 9999 -RA OVC019 15/11 Q1014=
201006100920 METAR ESMX 100920Z 07007KT 030V110 9999 FEW019 BKN022 14/11 Q1014=
201006100850 METAR ESMX 100850Z 05008KT 020V110 9999 FEW016 SCT023 BKN093 14/11 Q1014=
201006100820 METAR ESMX 100820Z 05008KT 010V120 9999 -RA SCT014 BKN103 14/11 Q1014=
201006100750 METAR ESMX 100750Z 05007KT 340V100 9999 -RA SCT014 BKN037 BKN079 14/11 Q1014=
201006100720 METAR ESMX 100720Z 04006KT 010V080 9999 FEW012 SCT016 OVC032 13/10 Q1014=
201006100650 METAR ESMX 100650Z 06007KT 360V120 9999 FEW012 OVC029 13/10 Q1014=
201006100620 METAR ESMX 100620Z 05007KT 350V100 9999 FEW013 BKN028 13/10 Q1014=
201006100550 METAR ESMX 100550Z 05007KT 020V080 9999 OVC027 13/10 Q1013=
201006100520 METAR ESMX 100520Z 06007KT 020V110 9999 OVC026 12/10 Q1013=
201006100450 METAR ESMX 100450Z 05006KT 020V100 9999 OVC026 12/10 Q1013=
201006100420 METAR ESMX 100420Z 06005KT 010V140 9999 OVC024 12/10 Q1013=
201006100350 METAR ESMX 100350Z 05006KT 030V090 9999 FEW015 OVC025 12/10 Q1013=
201006100320 METAR ESMX 100320Z AUTO 06006KT 020V120 9999NDV OVC024/// 12/10 Q1013=
201006100250 METAR ESMX 100250Z AUTO 06007KT 020V110 9999NDV FEW010/// OVC024/// 12/10 Q1013=
201006100220 METAR ESMX 100220Z AUTO 05007KT 020V090 9999NDV FEW008/// OVC009/// 12/10 Q1013=
201006100150 METAR ESMX 100150Z AUTO 05007KT 020V100 9999NDV OVC007/// 12/10 Q1012=
201006100120 METAR ESMX 100120Z AUTO 05007KT 020V100 9999NDV FEW007/// BKN008/// OVC010/// 12/10 Q1012=
201006100050 METAR ESMX 100050Z AUTO 06007KT 020V120 9999NDV OVC007/// 12/10 Q1012=
201006100020 METAR ESMX 100020Z AUTO 06007KT 030V110 9999NDV FEW007/// OVC009/// 12/10 Q1012=
201006092350 METAR ESMX 092350Z 05006KT 9999 SCT009 BKN025 11/10 Q1013=
201006092320 METAR ESMX 092320Z 05006KT 360V110 9999 FEW010 OVC024 11/10 Q1013=
201006092250 METAR ESMX 092250Z 05005KT 010V090 9999 FEW011 OVC024 11/09 Q1013=
201006092220 METAR ESMX 092220Z 07005KT 030V110 9999 FEW013 OVC024 11/09 Q1013=
201006092150 METAR ESMX 092150Z 07006KT 040V110 9999 FEW010 SCT014 OVC023 11/09 Q1013=
201006092120 METAR ESMX 092120Z 05005KT 360V100 9999 SCT010 OVC022 11/10 Q1013=
201006092050 METAR ESMX 092050Z 07006KT 030V110 9999 FEW010 BKN021 OVC028 11/10 Q1013=
201006092020 METAR ESMX 092020Z 07008KT 9999 FEW012 OVC030 11/10 Q1012=
201006091950 METAR ESMX 091950Z 06007KT 020V100 9999 FEW009 SCT011 BKN014 12/10 Q1012=
201006091920 METAR ESMX 091920Z 06007KT 030V100 9999 FEW011 BKN022 OVC032 12/10 Q1012=
201006091850 METAR ESMX 091850Z 05006KT 010V080 9999 FEW015 OVC022 12/10 Q1012=
201006091820 METAR ESMX 091820Z 06006KT 9999 FEW010 SCT012 BKN015 12/11 Q1012=
201006091750 METAR ESMX 091750Z 08005KT 040V160 9999 FEW009 SCT012 BKN015 12/11 Q1012=
201006091720 METAR ESMX 091720Z 08006KT 030V120 9999 FEW012 BKN020 12/11 Q1012=
201006091650 METAR ESMX 091650Z 06006KT 010V120 9999 SCT012 BKN020 12/11 Q1011=
201006091620 METAR ESMX 091620Z 07007KT 020V110 9999 FEW009 SCT013 OVC018 13/11 Q1011=
201006091550 METAR ESMX 091550Z 03006KT 350V080 9999 FEW006 SCT009 BKN016 13/12 Q1011=
201006091520 METAR ESMX 091520Z 06006KT 020V110 9999 SCT008 BKN045 13/12 Q1011 REDZ=
201006091450 METAR ESMX 091450Z 04006KT 360V070 9999 -DZ FEW006 SCT009 BKN021 13/12 Q1011=
201006091420 METAR ESMX 091420Z 36006KT 340V040 9999 DZ FEW012 SCT041 BKN047 13/12 Q1011=
201006091350 METAR ESMX 091350Z 03005KT 350V060 5000 RA SCT010 BKN050 13/12 Q1011 REDZ=
201006091320 METAR ESMX 091320Z 03005KT 350V070 9999 DZ SCT010 BKN040 13/12 Q1011=
201006091250 METAR ESMX 091250Z 05005KT 010V100 9999 DZ SCT010 BKN040 13/12 Q1011=
201006091220 METAR ESMX 091220Z 04003KT 360V080 9000 -RA FEW010 BKN030 13/12 Q1012=
201006091150 METAR ESMX 091150Z 09004KT 040V130 9000 RA FEW008 SCT013 BKN043 13/12 Q1012=
201006091120 METAR ESMX 091120Z 09003KT 040V140 9999 -RA FEW008 SCT035 13/12 Q1012=
201006091050 METAR ESMX 091050Z 07003KT 020V110 9999 -RA FEW005 BKN011 13/12 Q1012=
201006091020 METAR ESMX 091020Z 06003KT 010V110 9999 -RA BKN010 13/11 Q1012=
201006090950 METAR ESMX 090950Z 07005KT 030V140 9999 -RA FEW005 BKN009 13/11 Q1012=
201006090920 METAR ESMX 090920Z 07004KT 020V120 9999 -DZ FEW005 BKN008 12/11 Q1012=
201006090850 METAR ESMX 090850Z 08004KT 030V140 9999 -RA FEW005 SCT007 BKN010 12/11 Q1012=
201006090820 METAR ESMX 090820Z 06003KT 020V100 9999 -RA FEW007 BKN010 12/11 Q1012=
201006090750 METAR ESMX 090750Z 07003KT 030V110 9999 DZ FEW010 BKN040 12/10 Q1012=
201006090720 METAR ESMX 090720Z 05004KT 020V080 9999 -RA FEW006 BKN010 12/11 Q1012=
201006090650 METAR ESMX 090650Z 06003KT 350V110 9999 -RA FEW005 SCT006 OVC010 12/10 Q1012=
201006090620 METAR ESMX 090620Z 09003KT 010V140 9000 -DZ OVC004 12/10 Q1012=
201006090550 METAR ESMX 090550Z 08003KT 040V120 4800 BR OVC005 11/10 Q1012=
201006090520 METAR ESMX 090520Z 08003KT 020V150 4000 BR OVC002 10/10 Q1012=
201006090450 METAR ESMX 090450Z 11003KT 060V170 0800 R01/0900V1400N R19/P2000D FG VV002 10/09 Q1011=
201006090420 METAR ESMX 090420Z 14004KT 080V200 0800 R01/1100VP2000U R19/1000V1600U FG VV002 10/09 Q1012=
201006090350 METAR ESMX 090350Z 14003KT 070V190 0400 R01/0800 R19/0750 FG VV002 09/09 Q1011=
201006090320 METAR ESMX 090320Z AUTO 14003KT 080V170 0900NDV R01/1400VP2000D R19/1600N VV001 09/09 Q1011=
201006090250 METAR ESMX 090250Z AUTO 11003KT 050V160 1100NDV R01/1800N R19/P2000D BR VV001 09/09 Q1011=
201006090220 METAR ESMX 090220Z AUTO VRB02KT 2600NDV BR BKN003/// 09/08 Q1011=
201006090150 METAR ESMX 090150Z AUTO 15004KT 110V190 5000NDV BR NCD 09/08 Q1011=
201006090120 METAR ESMX 090120Z AUTO 15004KT 110V200 8000NDV BR BKN025/// 10/08 Q1011=
201006090050 METAR ESMX 090050Z AUTO 15005KT 120V190 3500NDV SCT025/// 10/09 Q1011=
201006090020 METAR ESMX 090020Z AUTO VRB02KT 0900NDV R01/P2000N R19/P2000N FEW024/// 09/08 Q1011=
201006082350 METAR ESMX 082350Z 16004KT 120V190 9999 BKN021 10/09 Q1011=
201006082320 METAR ESMX 082320Z 15004KT 7000 FEW020 09/09 Q1011=
201006082250 METAR ESMX 082250Z 14003KT 100V160 CAVOK 09/08 Q1011=
201006082220 METAR ESMX 082220Z 16004KT 7000 SCT006 10/09 Q1011=
201006082150 METAR ESMX 082150Z 14003KT 100V180 9999 SCT006 11/10 Q1011=
201006082120 METAR ESMX 082120Z 15004KT 100V170 9000 SCT004 12/11 Q1011=
201006082050 METAR ESMX 082050Z 14003KT 110V180 9999 SCT004 12/11 Q1011=
201006082020 METAR ESMX 082020Z 13003KT 080V170 9999 SCT005 12/11 Q1011=
201006081950 METAR ESMX 081950Z 11003KT 070V150 9999 FEW007 13/11 Q1010=
201006081920 METAR ESMX 081920Z 14004KT 070V190 9999 FEW007 13/11 Q1010=
201006081850 METAR ESMX 081850Z 13005KT 100V180 9999 SCT006 13/12 Q1010=
201006081820 METAR ESMX 081820Z 11005KT 060V170 9999 BKN006 OVC010 14/12 Q1010=
201006081750 METAR ESMX 081750Z 12006KT 070V170 9999 FEW007 SCT008 BKN009 14/12 Q1010=
201006081720 METAR ESMX 081720Z 10005KT 010V160 9999 FEW010 SCT024 BKN028 15/12 Q1010=
201006081650 METAR ESMX 081650Z 14004KT 030V190 9999 FEW020CB SCT025 BKN040 16/12 Q1010=
201006081620 METAR ESMX 081620Z 17007KT 9999 FEW020 SCT034 BKN039 16/11 Q1009=
201006081550 METAR ESMX 081550Z 18008KT 130V200 9999 FEW021CB BKN045 16/11 Q1009=
201006081520 METAR ESMX 081520Z 19010KT 9999 FEW021 BKN025 OVC046 16/11 Q1009=
201006081450 METAR ESMX 081450Z 17006KT 110V200 9999 FEW027 SCT044 OVC052 16/11 Q1009=
201006081420 METAR ESMX 081420Z 16004KT 110V200 9999 FEW040 OVC060 17/10 Q1009=
201006081350 METAR ESMX 081350Z 14004KT 080V170 9999 FEW032 OVC059 17/10 Q1009=
201006081320 METAR ESMX 081320Z 15004KT 100V200 9999 FEW030 SCT052 17/10 Q1009=
201006081250 METAR ESMX 081250Z 06004KT 350V120 9999 FEW041 BKN053 17/11 Q1009=
201006081220 METAR ESMX 081220Z 11005KT 040V170 9999 FEW028 BKN040 17/12 Q1009=
201006081150 METAR ESMX 081150Z 15003KT 080V200 9999 FEW028 SCT035 BKN055 17/11 Q1009=
201006081120 METAR ESMX 081120Z 16003KT 110V220 9999 FEW027 SCT031 BKN043 17/10 Q1009=
201006081050 METAR ESMX 081050Z 17004KT 080V210 9999 FEW026 BKN039 17/10 Q1009=
201006081020 METAR ESMX 081020Z 18005KT 150V230 9999 FEW028 SCT043 16/10 Q1009=
201006080950 METAR ESMX 080950Z 11004KT 010V150 9999 SCT040 16/10 Q1009=
201006080920 METAR ESMX 080920Z 15004KT 030V200 9999 FEW042 16/11 Q1009=
201006080850 METAR ESMX 080850Z VRB03KT 9999 FEW025 SCT067 16/09 Q1009=
201006080820 METAR ESMX 080820Z 07006KT 9999 SCT041 15/10 Q1009=
201006080750 METAR ESMX 080750Z VRB02KT 9999 SCT041 16/09 Q1009=
201006080720 METAR ESMX 080720Z VRB02KT CAVOK 15/10 Q1009=
201006080650 METAR ESMX 080650Z VRB02KT 9999 FEW037 15/10 Q1008=
201006080620 METAR ESMX 080620Z VRB01KT 9999 SCT036 13/10 Q1008=
201006080550 METAR ESMX 080550Z VRB01KT 9999 BKN035 12/09 Q1008=
201006080520 METAR ESMX 080520Z VRB02KT 9999 BKN034 12/09 Q1008=
201006080450 METAR ESMX 080450Z 02004KT 9999 FEW007 BKN034 12/10 Q1007=
201006080420 METAR ESMX 080420Z 02004KT 9999 FEW006 BKN030 11/10 Q1007=
201006080350 METAR ESMX 080350Z 36005KT 9999 FEW007 SCT031 BKN080 10/09 Q1007=
201006080320 METAR ESMX 080320Z AUTO 33003KT 300V010 9000NDV BR FEW006/// OVC077/// 10/10 Q1007=
201006080250 METAR ESMX 080250Z AUTO 31003KT 9999NDV FEW006/// SCT008/// OVC074/// 10/09 Q1007=
201006080220 METAR ESMX 080220Z AUTO 31003KT 9999NDV BR FEW006/// OVC062/// 10/10 Q1006=
201006080150 METAR ESMX 080150Z AUTO 31004KT 9000NDV BR FEW006/// SCT007/// BKN009/// 11/10 Q1006=
201006080120 METAR ESMX 080120Z AUTO 31005KT 280V340 8000NDV BR BKN005/// OVC008/// 11/10 Q1006=
201006080050 METAR ESMX 080050Z AUTO 33005KT 9000NDV OVC004/// 11/10 Q1006=
201006080020 METAR ESMX 080020Z AUTO 32005KT 9999NDV OVC006/// 11/10 Q1006=
201006072350 METAR ESMX 072350Z AUTO 32006KT 9999NDV FEW005/// OVC007/// 11/10 Q1006=
201006072320 METAR ESMX 072320Z 31005KT 9999 SCT005 OVC009 11/10 Q1005=
201006072250 METAR ESMX 072250Z 33006KT 300V010 9999 BKN005 OVC009 11/10 Q1005=
201006072220 METAR ESMX 072220Z 32006KT 9999 SCT006 BKN008 OVC041 11/10 Q1005=
201006072150 METAR ESMX 072150Z 34006KT 9999 FEW007 BKN008 OVC011 11/10 Q1004=
201006072120 METAR ESMX 072120Z 32008KT 9999 FEW007 SCT010 BKN013 11/10 Q1004=
201006072050 METAR ESMX 072050Z 33008KT 9999 FEW009 OVC029 11/10 Q1004=
201006072020 METAR ESMX 072020Z 35010KT 9999 FEW011 SCT018 BKN021 11/10 Q1003=
201006071950 METAR ESMX 071950Z 35010KT 9999 -RA FEW008 BKN016 11/10 Q1003 REDZ=
201006071920 METAR ESMX 071920Z 34012KT 9999 -DZ FEW008 SCT014 BKN017 12/10 Q1003=
201006071850 METAR ESMX 071850Z 35012KT 9999 -RA FEW008 BKN012 OVC017 12/10 Q1002=
201006071820 METAR ESMX 071820Z 35011KT 9999 -RA FEW008 BKN012 OVC018 12/10 Q1002=
201006071750 METAR ESMX 071750Z 36011KT 9999 -RA FEW006 BKN011 12/11 Q1002=
201006071720 METAR ESMX 071720Z 36012KT 8000 -RA FEW007 BKN010 BKN015 12/11 Q1001=
201006071650 METAR ESMX 071650Z 01013KT 5000 RA FEW007 BKN011 BKN016 12/11 Q1001=
201006071620 METAR ESMX 071620Z 01012KT 8000 -RA FEW007 SCT014 BKN036 12/11 Q1001=
201006071550 METAR ESMX 071550Z 01013KT 9000 -RA FEW010 OVC047 12/11 Q1001=
201006071520 METAR ESMX 071520Z 01009KT 9999 -RA FEW015 SCT046 BKN050 13/11 Q1001=
201006071450 METAR ESMX 071450Z 03011KT 9999 -RA FEW015 SCT043 BKN056 13/11 Q1002=
201006071420 METAR ESMX 071420Z 01011KT 340V050 9999 -RA SCT010 BKN060 14/12 Q1002=
201006071350 METAR ESMX 071350Z 03008KT 360V060 9000 -RA FEW015 SCT035 BKN060 13/11 Q1001=
201006071320 METAR ESMX 071320Z 02008KT 9999 -RA SCT042 BKN068 14/12 Q1002=
201006071250 METAR ESMX 071250Z 02007KT 9999 -RA SCT041 BKN057 14/12 Q1002=
201006071220 METAR ESMX 071220Z 04006KT 010V070 8000 -RA OVC042 14/11 Q1003=
201006071150 METAR ESMX 071150Z 05006KT 010V080 9999 -RA BKN045 15/11 Q1003=
201006071120 METAR ESMX 071120Z 08005KT 030V130 9999 -RA FEW033 BKN043 16/10 Q1003=
201006071050 METAR ESMX 071050Z 07006KT 020V110 9999 FEW044 BKN120 16/10 Q1003=
201006071020 METAR ESMX 071020Z 06008KT 020V100 CAVOK 16/10 Q1004=
201006070950 METAR ESMX 070950Z 03007KT 360V070 CAVOK 16/11 Q1004=
201006070920 METAR ESMX 070920Z 08005KT 050V140 CAVOK 17/11 Q1004=
201006070850 METAR ESMX 070850Z 06005KT 020V100 CAVOK 17/11 Q1004=
201006070820 METAR ESMX 070820Z 04003KT 010V090 CAVOK 17/11 Q1005=
201006070750 METAR ESMX 070750Z VRB02KT CAVOK 17/12 Q1006=
201006070720 METAR ESMX 070720Z 06004KT 010V110 CAVOK 16/12 Q1006=
201006070650 METAR ESMX 070650Z 06003KT 020V120 CAVOK 16/12 Q1006=
201006070550 METAR ESMX 070550Z 07003KT 340V120 CAVOK 14/11 Q1006=
201006070520 METAR ESMX 070520Z 08003KT 040V130 CAVOK 14/11 Q1006=
201006070450 METAR ESMX 070450Z 05003KT 010V090 CAVOK 14/12 Q1006=
201006070420 METAR ESMX 070420Z VRB02KT CAVOK 13/12 Q1007=
201006070350 METAR ESMX 070350Z VRB02KT CAVOK 12/11 Q1007=
201006070320 METAR ESMX 070320Z 11001KT CAVOK 11/10 Q1007=
201006070250 METAR ESMX 070250Z AUTO VRB01KT 8000NDV BR NCD 11/10 Q1007=
201006070220 METAR ESMX 070220Z AUTO 18002KT 6000NDV BR NCD 11/10 Q1008=
201006070150 METAR ESMX 070150Z AUTO 01001KT 9999NDV FEW099/// 11/10 Q1008=
201006070120 METAR ESMX 070120Z AUTO 36001KT 9999NDV SCT100/// 11/09 Q1008=
201006070050 METAR ESMX 070050Z AUTO VRB02KT 9999NDV FEW100/// 11/10 Q1008=
201006070020 METAR ESMX 070020Z AUTO VRB01KT 9999NDV NCD 11/09 Q1009=
201006062350 METAR ESMX 062350Z 01001KT CAVOK 11/09 Q1009=
201006062320 METAR ESMX 062320Z VRB02KT CAVOK 11/09 Q1009=
201006062250 METAR ESMX 062250Z 23003KT CAVOK 12/10 Q1009=
201006062220 METAR ESMX 062220Z 25004KT CAVOK 12/10 Q1010=
201006062150 METAR ESMX 062150Z 23003KT CAVOK 13/10 Q1010=
201006062120 METAR ESMX 062120Z 24004KT CAVOK 13/10 Q1010=
201006062050 METAR ESMX 062050Z 23003KT 200V260 CAVOK 14/10 Q1010=
201006062020 METAR ESMX 062020Z 24003KT 210V270 CAVOK 14/10 Q1010=
201006061950 METAR ESMX 061950Z 25004KT CAVOK 15/10 Q1010=
201006061920 METAR ESMX 061920Z 25003KT 210V280 CAVOK 16/10 Q1010=
201006061850 METAR ESMX 061850Z 26004KT CAVOK 16/10 Q1010=
201006061820 METAR ESMX 061820Z 27006KT CAVOK 17/10 Q1010=
201006061750 METAR ESMX 061750Z 27007KT CAVOK 18/09 Q1010=
201006061720 METAR ESMX 061720Z 24007KT CAVOK 18/09 Q1010=
201006061650 METAR ESMX 061650Z 24008KT CAVOK 19/09 Q1010=
201006061620 METAR ESMX 061620Z 28010KT 250V320 CAVOK 19/10 Q1011=
201006061550 METAR ESMX 061550Z 27011KT 240V320 CAVOK 20/09 Q1011=
201006061520 METAR ESMX 061520Z 24011KT CAVOK 20/09 Q1011=
201006061450 METAR ESMX 061450Z 26010KT 230V290 CAVOK 21/10 Q1011=
201006061420 METAR ESMX 061420Z 28010KT 250V310 CAVOK 21/09 Q1011=
201006061350 METAR ESMX 061350Z 23012KT CAVOK 21/09 Q1011=
201006061320 METAR ESMX 061320Z 27012KT 230V300 CAVOK 21/08 Q1011=
201006061250 METAR ESMX 061250Z 26012KT 220V290 CAVOK 22/09 Q1011=
201006061220 METAR ESMX 061220Z 25012KT 210V290 CAVOK 22/07 Q1011=
201006061150 METAR ESMX 061150Z 23012KT 190V280 CAVOK 22/08 Q1011=
201006061120 METAR ESMX 061120Z 25012KT 210V290 CAVOK 22/08 Q1011=
201006061050 METAR ESMX 061050Z 26010KT CAVOK 22/08 Q1011=
201006061020 METAR ESMX 061020Z 24011KT 210V270 CAVOK 20/08 Q1012=
201006060950 METAR ESMX 060950Z 25008KT 210V290 CAVOK 20/09 Q1012=
201006060920 METAR ESMX 060920Z 26009KT 220V300 CAVOK 19/08 Q1012=
201006060850 METAR ESMX 060850Z 25007KT 200V300 CAVOK 18/08 Q1012=
201006060820 METAR ESMX 060820Z AUTO 23010KT 200V260 9999NDV NCD 17/09 Q1012=
201006060750 METAR ESMX 060750Z AUTO 26009KT 230V300 9999NDV NCD 16/10 Q1012=
201006060720 METAR ESMX 060720Z AUTO 24007KT 190V290 9999NDV NCD 15/10 Q1013=
201006060650 METAR ESMX 060650Z AUTO 25008KT 210V290 9999NDV FEW012/// 13/10 Q1013=
201006060620 METAR ESMX 060620Z AUTO 25007KT 200V290 9999NDV BKN010/// 13/09 Q1013=
201006060550 METAR ESMX 060550Z AUTO 27007KT 230V310 9999NDV OVC009/// 12/09 Q1013=
201006060520 METAR ESMX 060520Z AUTO 26007KT 220V300 9999NDV OVC009/// 11/09 Q1013=
201006060450 METAR ESMX 060450Z AUTO 22006KT 170V250 9999NDV OVC010/// 11/09 Q1013=
201006060420 METAR ESMX 060420Z AUTO 24005KT 210V290 9999NDV OVC011/// 10/09 Q1013=
201006060350 METAR ESMX 060350Z AUTO 20003KT 160V230 9999NDV BKN011/// 09/08 Q1013=
201006060320 METAR ESMX 060320Z AUTO 20004KT 9999NDV FEW013/// 08/07 Q1013=
201006060250 METAR ESMX 060250Z AUTO 22005KT 9999NDV NCD 07/06 Q1013=
201006060220 METAR ESMX 060220Z AUTO 22005KT 9999NDV NCD 08/06 Q1014=
201006060150 METAR ESMX 060150Z AUTO 22005KT 9999NDV NCD 07/06 Q1014=
201006060120 METAR ESMX 060120Z AUTO 22005KT 9999NDV NCD 07/05 Q1014=
201006060050 METAR ESMX 060050Z AUTO 19004KT 9999NDV NCD 07/05 Q1014=
201006060020 METAR ESMX 060020Z AUTO 20004KT 9999NDV NCD 08/05 Q1014=
201006052350 METAR ESMX 052350Z AUTO 22002KT 9999NDV NCD 09/05 Q1015=
201006052320 METAR ESMX 052320Z AUTO 23003KT 9999NDV NCD 10/05 Q1015=
201006052250 METAR ESMX 052250Z AUTO 23004KT 200V260 9999NDV NCD 10/05 Q1015=
201006052220 METAR ESMX 052220Z AUTO 22005KT 9999NDV NCD 11/05 Q1015=
201006052150 METAR ESMX 052150Z AUTO 23005KT 9999NDV NCD 12/05 Q1015=
201006052120 METAR ESMX 052120Z AUTO 23005KT 9999NDV NCD 12/05 Q1015=
201006052050 METAR ESMX 052050Z AUTO 23005KT 9999NDV NCD 12/04 Q1015=
201006052020 METAR ESMX 052020Z AUTO 23004KT 9999NDV NCD 13/04 Q1015=
201006051950 METAR ESMX 051950Z AUTO 23003KT 9999NDV NCD 14/05 Q1015=
201006051920 METAR ESMX 051920Z AUTO 26003KT 9999NDV NCD 15/05 Q1015=
201006051850 METAR ESMX 051850Z AUTO 24006KT 200V270 9999NDV NCD 17/05 Q1015=
201006051820 METAR ESMX 051820Z 26009KT 220V290 CAVOK 18/04 Q1015=
201006051750 METAR ESMX 051750Z 26010KT 230V290 CAVOK 18/05 Q1015=
201006051720 METAR ESMX 051720Z 24010KT CAVOK 19/06 Q1015=
201006051650 METAR ESMX 051650Z 24010KT CAVOK 21/06 Q1015=
201006051620 METAR ESMX 051620Z 26011KT 220V290 CAVOK 21/07 Q1015=
201006051550 METAR ESMX 051550Z 27012KT 230V300 CAVOK 21/07 Q1016=
201006051520 METAR ESMX 051520Z 23010G25KT CAVOK 21/07 Q1016=
201006051450 METAR ESMX 051450Z 26011KT 230V300 CAVOK 22/08 Q1016=
201006050950 METAR ESMX 050950Z 23009KT 170V290 CAVOK 21/04 Q1018=
201006050920 METAR ESMX 050920Z 14009KT CAVOK 21/04 Q1018=
201006050850 METAR ESMX 050850Z 20008KT 170V230 CAVOK 20/04 Q1019=
201006050820 METAR ESMX 050820Z 23007KT 190V270 CAVOK 20/05 Q1019=
201006050750 METAR ESMX 050750Z 17005KT 100V210 CAVOK 19/04 Q1019=
201006050720 METAR ESMX 050720Z 22005KT CAVOK 18/04 Q1019=
201006050650 METAR ESMX 050650Z 22005KT 170V260 CAVOK 18/06 Q1019=
201006050620 METAR ESMX 050620Z AUTO 23005KT 200V260 9999NDV NCD 17/06 Q1019=
201006050550 METAR ESMX 050550Z AUTO VRB02KT 9999NDV NCD 16/08 Q1019=
201006050520 METAR ESMX 050520Z AUTO 00000KT 9999NDV NCD 14/09 Q1019=
201006050450 METAR ESMX 050450Z AUTO 00000KT 9999NDV NCD 12/08 Q1019=
201006050420 METAR ESMX 050420Z AUTO 00000KT 9999NDV NCD 10/08 Q1019=
201006050350 METAR ESMX 050350Z AUTO 20002KT 9999NDV NCD 06/05 Q1019=
201006050320 METAR ESMX 050320Z AUTO 17001KT 9999NDV NCD 05/04 Q1019=
201006050250 METAR ESMX 050250Z AUTO 18002KT 9999NDV NCD 05/04 Q1019=
201006050220 METAR ESMX 050220Z AUTO 18002KT 9999NDV NCD 05/04 Q1019=
201006050150 METAR ESMX 050150Z AUTO 17001KT 9999NDV NCD 05/04 Q1019=
201006050120 METAR ESMX 050120Z AUTO 00000KT 9999NDV NCD 05/04 Q1019=
201006050050 METAR ESMX 050050Z AUTO 17001KT 9999NDV NCD 05/04 Q1019=
201006050020 METAR ESMX 050020Z AUTO 18002G17KT 9999NDV NCD 06/05 Q1019=
201006042350 METAR ESMX 042350Z AUTO 00000KT 9999NDV NCD 07/05 Q1019=
201006042320 METAR ESMX 042320Z AUTO 00000KT 9999NDV NCD 07/06 Q1019=
201006042250 METAR ESMX 042250Z AUTO 18001KT 9999NDV NCD 08/06 Q1019=
201006042220 METAR ESMX 042220Z AUTO VRB01KT 9999NDV NCD 09/07 Q1019=
201006042150 METAR ESMX 042150Z AUTO VRB01KT 9999NDV NCD 10/08 Q1018=
201006042120 METAR ESMX 042120Z AUTO VRB01KT 9999NDV NCD 10/07 Q1018=
201006042050 METAR ESMX 042050Z AUTO 00000KT 9999NDV FEW075/// 12/08 Q1018=
201006042020 METAR ESMX 042020Z AUTO VRB02KT 9999NDV SCT077/// 14/08 Q1018=
201006041950 METAR ESMX 041950Z AUTO VRB02KT 9999NDV BKN076/// 16/08 Q1018=
201006041920 METAR ESMX 041920Z AUTO 17004KT 130V190 9999NDV SCT077/// 17/08 Q1018=
201006041850 METAR ESMX 041850Z 17005KT 100V210 CAVOK 18/08 Q1017=
201006041820 METAR ESMX 041820Z 22007KT CAVOK 19/08 Q1017=
201006041750 METAR ESMX 041750Z 02006KT CAVOK 20/06 Q1017=
201006041720 METAR ESMX 041720Z 36005KT 320V040 CAVOK 22/04 Q1017=
201006041650 METAR ESMX 041650Z 33005KT 290V360 CAVOK 22/05 Q1017=
201006041620 METAR ESMX 041620Z 35005KT CAVOK 23/04 Q1017=
201006041550 METAR ESMX 041550Z 31010KT CAVOK 23/05 Q1017=
201006041520 METAR ESMX 041520Z 02007KT 350V060 CAVOK 22/05 Q1017=
201006041450 METAR ESMX 041450Z 36006KT 330V030 CAVOK 22/05 Q1017=
201006041420 METAR ESMX 041420Z 36006KT 330V040 CAVOK 23/05 Q1017=
201006041350 METAR ESMX 041350Z 33004KT 250V040 CAVOK 22/06 Q1017=
201006041320 METAR ESMX 041320Z 33007KT 300V010 CAVOK 22/05 Q1017=
201006041250 METAR ESMX 041250Z 35006KT 250V050 CAVOK 23/04 Q1017=
201006041220 METAR ESMX 041220Z 32004KT 240V020 CAVOK 22/05 Q1017=
201006041150 METAR ESMX 041150Z 04006KT CAVOK 22/06 Q1017=
201006041120 METAR ESMX 041120Z 02004KT 320V080 CAVOK 22/05 Q1017=
201006041050 METAR ESMX 041050Z 35005KT 280V040 CAVOK 21/05 Q1018=
201006041020 METAR ESMX 041020Z 03006KT 360V060 CAVOK 20/06 Q1018=
201006040950 METAR ESMX 040950Z 03004KT 340V080 CAVOK 21/08 Q1018=
201006040920 METAR ESMX 040920Z 36005KT 300V050 CAVOK 20/09 Q1018=
201006040850 METAR ESMX 040850Z 01005KT 320V060 CAVOK 20/09 Q1018=
201006040820 METAR ESMX 040820Z 03007KT CAVOK 19/09 Q1018=
201006040750 METAR ESMX 040750Z 01005KT 320V050 CAVOK 18/08 Q1018=
201006040720 METAR ESMX 040720Z 35006KT 290V020 CAVOK 17/09 Q1017=
201006040650 METAR ESMX 040650Z 36006KT CAVOK 17/08 Q1017=
201006040620 METAR ESMX 040620Z 01008KT CAVOK 16/08 Q1017=
201006040550 METAR ESMX 040550Z 02008KT CAVOK 15/08 Q1017=
201006040520 METAR ESMX 040520Z 01006KT 340V040 CAVOK 14/07 Q1017=
201006040450 METAR ESMX 040450Z 01005KT CAVOK 13/08 Q1016=
201006040420 METAR ESMX 040420Z 02005KT CAVOK 11/07 Q1016=
201006040350 METAR ESMX 040350Z 34002KT CAVOK 10/06 Q1016=
201006040320 METAR ESMX 040320Z AUTO 20002KT 9999NDV NCD 08/06 Q1016=
201006040250 METAR ESMX 040250Z AUTO 30003KT 9999NDV NCD 07/05 Q1016=
201006040220 METAR ESMX 040220Z AUTO 32004KT 9999NDV NCD 07/05 Q1016=
201006040150 METAR ESMX 040150Z AUTO 34004KT 9999NDV NCD 07/05 Q1016=
201006040120 METAR ESMX 040120Z AUTO 33004KT 9999NDV NCD 09/06 Q1016=
201006040050 METAR ESMX 040050Z AUTO 34004KT 9999NDV NCD 09/06 Q1016=
201006040020 METAR ESMX 040020Z AUTO 30005KT 9999NDV NCD 10/06 Q1016=
201006032350 METAR ESMX 032350Z AUTO 29007KT 9999NDV NCD 11/06 Q1016=
201006032320 METAR ESMX 032320Z 29006KT CAVOK 11/06 Q1016=
201006032250 METAR ESMX 032250Z 27005KT CAVOK 10/06 Q1016=
201006032220 METAR ESMX 032220Z 27003KT CAVOK 10/06 Q1016=
201006032150 METAR ESMX 032150Z 18003KT CAVOK 10/06 Q1016=
201006032120 METAR ESMX 032120Z 17002KT CAVOK 11/06 Q1016=
201006032050 METAR ESMX 032050Z 27002KT CAVOK 12/06 Q1015=
201006032020 METAR ESMX 032020Z 33002KT CAVOK 14/06 Q1015=
201006031950 METAR ESMX 031950Z 01004KT CAVOK 16/07 Q1015=
201006031920 METAR ESMX 031920Z 36005KT CAVOK 16/08 Q1015=
201006031850 METAR ESMX 031850Z 01005KT CAVOK 19/07 Q1014=
201006031820 METAR ESMX 031820Z 32006KT CAVOK 20/06 Q1014=
201006031750 METAR ESMX 031750Z 33007KT CAVOK 21/05 Q1014=
201006031720 METAR ESMX 031720Z 32006KT 290V350 CAVOK 21/06 Q1014=
201006031650 METAR ESMX 031650Z 35007KT 310V050 CAVOK 22/05 Q1014=
201006031620 METAR ESMX 031620Z 34009KT 310V010 CAVOK 22/05 Q1014=
201006031550 METAR ESMX 031550Z 35008KT CAVOK 22/06 Q1015=
201006031520 METAR ESMX 031520Z 29009KT 260V330 CAVOK 22/06 Q1015=
201006031450 METAR ESMX 031450Z 26008KT 230V300 CAVOK 22/06 Q1015=
201006031420 METAR ESMX 031420Z 31009KT 280V350 CAVOK 22/05 Q1015=
201006031350 METAR ESMX 031350Z 29010KT CAVOK 22/06 Q1015=
201006031320 METAR ESMX 031320Z 31010KT 280V010 CAVOK 21/05 Q1015=
201006031250 METAR ESMX 031250Z 35008KT CAVOK 21/07 Q1015=
201006031220 METAR ESMX 031220Z 29011KT CAVOK 21/07 Q1016=
201006031150 METAR ESMX 031150Z 30007KT 240V010 9999 FEW046 20/08 Q1016=
201006031120 METAR ESMX 031120Z 29010KT 260V330 9999 FEW045 20/07 Q1016=
201006031050 METAR ESMX 031050Z 31010KT 280V350 9999 FEW043 20/09 Q1016=
201006031020 METAR ESMX 031020Z 31011KT 280V010 9999 FEW045 19/08 Q1016=
201006030950 METAR ESMX 030950Z 28009KT 260V320 CAVOK 18/08 Q1016=
201006030920 METAR ESMX 030920Z 30008KT 250V360 CAVOK 18/07 Q1016=
201006030850 METAR ESMX 030850Z 28008KT 240V320 CAVOK 18/07 Q1016=
201006030820 METAR ESMX 030820Z 29009KT 250V330 CAVOK 17/07 Q1016=
201006030750 METAR ESMX 030750Z 27009KT 240V310 CAVOK 17/08 Q1016=
201006030720 METAR ESMX 030720Z 27007KT CAVOK 17/07 Q1016=
201006030650 METAR ESMX 030650Z 29008KT 250V330 CAVOK 16/07 Q1016=
201006030620 METAR ESMX 030620Z 30005KT 260V340 CAVOK 15/07 Q1016=
201006030550 METAR ESMX 030550Z 29005KT 250V320 CAVOK 14/08 Q1017=
201006030450 METAR ESMX 030450Z 29005KT 260V320 CAVOK 13/06 Q1017=
201006030420 METAR ESMX 030420Z 27003KT 250V310 CAVOK 12/05 Q1017=
201006030350 METAR ESMX 030350Z 25002KT CAVOK 09/05 Q1017=
201006030320 METAR ESMX 030320Z AUTO 29003KT 9999NDV NCD 07/04 Q1017=
201006030250 METAR ESMX 030250Z AUTO 29004KT 9999NDV NCD 06/04 Q1017=
201006030220 METAR ESMX 030220Z AUTO 27001KT 9999NDV NCD 07/04 Q1017=
201006030150 METAR ESMX 030150Z AUTO 25001KT 9999NDV NCD 09/05 Q1017=
201006030120 METAR ESMX 030120Z AUTO 31004KT 9999NDV NCD 09/05 Q1017=
201006030050 METAR ESMX 030050Z AUTO 32006KT 9999NDV NCD 10/05 Q1017=
201006030020 METAR ESMX 030020Z AUTO 32007KT 9999NDV NCD 09/06 Q1017=
201006022350 METAR ESMX 022350Z AUTO VRB01KT 9999NDV NCD 07/05 Q1017=
201006022320 METAR ESMX 022320Z VRB01KT CAVOK 08/06 Q1017=
201006022250 METAR ESMX 022250Z VRB01KT CAVOK 09/06 Q1017=
201006022220 METAR ESMX 022220Z VRB02KT CAVOK 10/06 Q1017=
201006022150 METAR ESMX 022150Z VRB01KT CAVOK 11/07 Q1017=
201006022120 METAR ESMX 022120Z 18003KT CAVOK 11/07 Q1017=
201006022050 METAR ESMX 022050Z 13003KT CAVOK 14/07 Q1017=
201006022020 METAR ESMX 022020Z 14003KT CAVOK 16/07 Q1017=
201006021950 METAR ESMX 021950Z 14004KT 110V170 CAVOK 17/05 Q1017=
201006021920 METAR ESMX 021920Z 01003KT CAVOK 18/04 Q1016=
201006021850 METAR ESMX 021850Z 36003KT CAVOK 20/04 Q1016=
201006021820 METAR ESMX 021820Z 01004KT CAVOK 21/02 Q1016=
201006021750 METAR ESMX 021750Z 01003KT 320V030 CAVOK 22/00 Q1016=
201006021720 METAR ESMX 021720Z 01004KT 330V030 CAVOK 23/M01 Q1016=
201006021620 METAR ESMX 021620Z 02004KT 330V060 CAVOK 23/M01 Q1016=
201006021550 METAR ESMX 021550Z 36006KT 320V030 CAVOK 23/M02 Q1016=
201006021520 METAR ESMX 021520Z 05006KT 350V090 CAVOK 23/M02 Q1016=
201006021450 METAR ESMX 021450Z 03006KT 350V070 CAVOK 24/M02 Q1016=
201006021350 METAR ESMX 021350Z 02006KT 330V070 CAVOK 23/M02 Q1016=
201006021320 METAR ESMX 021320Z 08006KT CAVOK 23/M01 Q1016=
201006021250 METAR ESMX 021250Z 03007KT 350V100 CAVOK 23/M01 Q1016=
201006021220 METAR ESMX 021220Z 04007KT 320V060 CAVOK 22/M03 Q1016=
201006021150 METAR ESMX 021150Z 03008KT 340V070 CAVOK 22/M03 Q1016=
201006021120 METAR ESMX 021120Z 04009KT 360V070 CAVOK 22/M03 Q1016=
201006021050 METAR ESMX 021050Z 05009KT 350V100 CAVOK 22/M03 Q1016=
201006020950 METAR ESMX 020950Z 02012KT 350V060 CAVOK 20/M03 Q1016=
201006020920 METAR ESMX 020920Z 02011KT 350V070 CAVOK 20/00 Q1016=
201006020850 METAR ESMX 020850Z 36011KT CAVOK 19/02 Q1016=
201006020820 METAR ESMX 020820Z 03009KT 350V070 CAVOK 18/02 Q1016=
201006020750 METAR ESMX 020750Z 03010KT 340V060 CAVOK 17/02 Q1016=
201006020720 METAR ESMX 020720Z 03008KT 330V060 CAVOK 17/04 Q1016=
201006020650 METAR ESMX 020650Z 01009KT 340V050 CAVOK 16/05 Q1016=
201006020620 METAR ESMX 020620Z 36008KT CAVOK 15/05 Q1016=
201006020550 METAR ESMX 020550Z 36009KT CAVOK 14/05 Q1016=
201006020520 METAR ESMX 020520Z 35006KT 320V020 CAVOK 13/05 Q1016=
201006020450 METAR ESMX 020450Z 01006KT 340V040 CAVOK 12/05 Q1016=
201006020350 METAR ESMX 020350Z 36006KT CAVOK 08/04 Q1016=
201006020320 METAR ESMX 020320Z AUTO 36004KT 9999NDV NCD 08/04 Q1016=
201006020250 METAR ESMX 020250Z AUTO 35005KT 9999NDV NCD 08/04 Q1016=
201006020220 METAR ESMX 020220Z AUTO 36004KT 9999NDV NCD 08/04 Q1016=
201006020150 METAR ESMX 020150Z AUTO 35005KT 9999NDV SCT079/// 09/04 Q1015=
201006020120 METAR ESMX 020120Z AUTO 36004KT 320V020 9999NDV BKN089/// 10/04 Q1016=
201006020050 METAR ESMX 020050Z AUTO 02006KT 9999NDV FEW091/// 11/04 Q1015=
201006020020 METAR ESMX 020020Z AUTO 02006KT 9999NDV BKN085/// BKN110/// 11/04 Q1015=
201006012350 METAR ESMX 012350Z 01007KT CAVOK 12/04 Q1015=
201006012320 METAR ESMX 012320Z 01006KT CAVOK 12/03 Q1016=
201006012250 METAR ESMX 012250Z 01006KT CAVOK 12/03 Q1015=
201006012220 METAR ESMX 012220Z 03007KT 360V070 CAVOK 12/03 Q1015=
201006012150 METAR ESMX 012150Z 03006KT CAVOK 12/03 Q1015=
201006012120 METAR ESMX 012120Z 03006KT 010V070 CAVOK 12/03 Q1015=
201006012020 METAR ESMX 012020Z 02007KT CAVOK 13/02 Q1015=
201006011950 METAR ESMX 011950Z 03006KT CAVOK 13/02 Q1015=
201006011920 METAR ESMX 011920Z 03007KT CAVOK 13/01 Q1015=
201006011850 METAR ESMX 011850Z 03008KT 360V070 CAVOK 14/00 Q1015=
201006011820 METAR ESMX 011820Z 03009KT CAVOK 14/01 Q1014=
201006011750 METAR ESMX 011750Z 02007KT 350V050 CAVOK 14/03 Q1014=
201006011720 METAR ESMX 011720Z 04009KT 010V070 CAVOK 15/03 Q1014=
201006011650 METAR ESMX 011650Z 02007KT 330V060 CAVOK 14/04 Q1014=
201006011620 METAR ESMX 011620Z 01008KT CAVOK 14/04 Q1014=
201006011550 METAR ESMX 011550Z 02009KT CAVOK 14/04 Q1014=
201006011520 METAR ESMX 011520Z 04012KT CAVOK 15/04 Q1014=
201006011450 METAR ESMX 011450Z 04011KT 350V070 CAVOK 15/04 Q1014=
201006011420 METAR ESMX 011420Z 01008KT 340V050 CAVOK 15/05 Q1014=
201006011350 METAR ESMX 011350Z 03011KT 360V060 CAVOK 14/05 Q1014=
201006011320 METAR ESMX 011320Z 03010KT 340V060 CAVOK 15/05 Q1014=
201006011250 METAR ESMX 011250Z 04011KT CAVOK 14/04 Q1014=
201006011220 METAR ESMX 011220Z 03011KT 360V060 CAVOK 14/05 Q1014=
