##########################################################
# Query made at 04/19/2024 21:19:05 UTC
# Time interval: from 11/01/2010 12:00  to 11/30/2010 12:59  UTC
##########################################################

##########################################################
# ESMX, Vaxjo (Sweden)
# WMO index: 02641. WIGOS ID: 0-20000-0-02648
# Latitude 56-51N. Longitude 014-50E. Altitude 199 m.
##########################################################

201011301250 METAR ESMX 301250Z 01008KT 340V050 9999 FEW030 M08/M11 Q1024=
201011301220 METAR ESMX 301220Z 02009KT 9999 FEW027 M08/M12 Q1024=
201011301150 METAR ESMX 301150Z 01009KT 9999 TOB016 FEW020 BKN025 M09/M12 Q1024=
201011301120 METAR ESMX 301120Z 01009KT 330V040 9999 FEW027 BKN046 M08/M11 Q1024=
201011301050 METAR ESMX 301050Z 36010KT 4400 -SN FEW006 SCT025 M09/M11 Q1025=
201011301020 METAR ESMX 301020Z 02008KT 2900 -SN FEW015 BKN025 M09/M11 Q1025=
201011300950 METAR ESMX 300950Z 01009KT 9999 FEW009 BKN035 M09/M12 Q1025=
201011300920 METAR ESMX 300920Z 01008KT 9999 FEW016 SCT024 M10/M12 Q1024=
201011300850 METAR ESMX 300850Z 01009KT 9999 FEW044 BKN054 M10/M12 Q1024=
201011300820 METAR ESMX 300820Z 02009KT 9999 FEW024 M10/M13 Q1024=
201011300750 METAR ESMX 300750Z 02008KT 9999 FEW010 SCT015 M10/M13 Q1024=
201011300720 METAR ESMX 300720Z 02009KT 340V050 9999 -SN FEW019 BKN025 M10/M12 Q1024=
201011300450 METAR ESMX 300450Z 01013KT 6000 -SN FEW011 SCT024 BKN033 M10/M12 Q1023=
201011300420 METAR ESMX 300420Z AUTO 02013KT 9999NDV FEW012/// SCT034/// M10/M13 Q1022=
201011300350 METAR ESMX 300350Z AUTO 01012KT 9999NDV NCD M10/M13 Q1022=
201011300320 METAR ESMX 300320Z AUTO 36011KT 340V040 9999NDV -SN FEW013/// SCT033/// M10/M12 Q1022=
201011300250 METAR ESMX 300250Z AUTO 02013KT 9999NDV FEW015/// M10/M12 Q1022 RESG=
201011300220 METAR ESMX 300220Z AUTO 02015KT 6000NDV IC FEW013/// SCT053/// M09/M12 Q1022=
201011300150 METAR ESMX 300150Z AUTO 02014KT 9999NDV NCD M09/M12 Q1022=
201011300120 METAR ESMX 300120Z AUTO 02013KT 9999NDV FEW017/// M09/M11 Q1022=
201011300050 METAR ESMX 300050Z 02011KT 350V060 9999 FEW014 SCT017 M09/M11 Q1022=
201011300020 METAR ESMX 300020Z 01013KT 9999 FEW015 SCT019 M08/M10 Q1022=
201011292350 METAR ESMX 292350Z 02013KT 5000 -SN FEW013 SCT030 BKN039 M08/M10 Q1022=
201011292320 METAR ESMX 292320Z 02015KT 2400 -SN FEW012 SCT018 M08/M09 Q1022=
201011292250 METAR ESMX 292250Z 02011KT 1200 R01/P2000N R19/P2000N SN FEW005 SCT013 BKN048 M08/M09 Q1022=
201011292220 METAR ESMX 292220Z 36011KT 4000 -SN FEW015 SCT027 M08/M09 Q1022=
201011292150 METAR ESMX 292150Z 36012KT 4200 -SN FEW016 SCT039 M08/M09 Q1021 RESG=
201011292120 METAR ESMX 292120Z 36012KT 7000 -SN FEW024 BKN055 M08/M10 Q1021=
201011292050 METAR ESMX 292050Z 02011KT 9999 SCT010 M08/M10 Q1021=
201011292020 METAR ESMX 292020Z 01012KT 9999 FEW010 SCT014 M08/M10 Q1021=
201011291950 METAR ESMX 291950Z 02011KT 9999 FEW015 SCT056 M08/M10 Q1021=
201011291920 METAR ESMX 291920Z 02012KT 340V060 9999 -SN FEW010 SCT015 M08/M10 Q1021=
201011291850 METAR ESMX 291850Z 02012KT 9999 -SN FEW010 SCT045 M08/M10 Q1021=
201011291820 METAR ESMX 291820Z 02011KT 9999 -SN FEW011 SCT014 BKN022 M08/M10 Q1020=
201011291750 METAR ESMX 291750Z 02011KT 340V050 6000 -SN FEW006 SCT011 BKN025 M08/M10 Q1020=
201011291720 METAR ESMX 291720Z 02010KT 9999 -SN FEW006 SCT008 BKN011 M08/M09 Q1020=
201011291650 METAR ESMX 291650Z 01010KT 8000 -SN FEW010 SCT020 BKN027 M08/M09 Q1020=
201011291620 METAR ESMX 291620Z 02010KT 5000 -SN FEW008 BKN027 M07/M09 Q1020=
201011291550 METAR ESMX 291550Z 01011KT 9999 -SN FEW011 SCT023 BKN031 M07/M09 Q1020=
201011291520 METAR ESMX 291520Z 01011KT 5000 -SN SCT012 BKN022 BKN031 M07/M09 Q1020=
201011291450 METAR ESMX 291450Z 02011KT 350V050 9999 -SN FEW010 SCT013 BKN016 M07/M09 Q1020=
201011291420 METAR ESMX 291420Z 03013KT 350V060 9999 BKN014 M07/M09 Q1020=
201011291350 METAR ESMX 291350Z 03013KT 9999 FEW010 BKN021 M07/M09 Q1020 RESN=
201011291320 METAR ESMX 291320Z 03014KT 9999 FEW014 SCT016 BKN030 M06/M09 Q1020=
201011291250 METAR ESMX 291250Z 03014KT 9999 -SN FEW014 SCT016 M06/M08 Q1020=
201011291220 METAR ESMX 291220Z 03012KT 010V070 9999 -SN BKN014 M06/M08 Q1020=
201011291150 METAR ESMX 291150Z 04013KT 5000 SN BKN013 M06/M08 Q1020=
201011291120 METAR ESMX 291120Z 02012KT 9000 -SN FEW012 BKN015 M06/M08 Q1020=
201011291050 METAR ESMX 291050Z 02012KT 5000 -SN FEW013 SCT016 BKN018 M06/M08 Q1020=
201011291020 METAR ESMX 291020Z 03013KT 350V060 8000 -SN FEW007 BKN018 M05/M07 Q1020=
201011290950 METAR ESMX 290950Z 04012KT 010V100 9999 -SN FEW013 SCT017 BKN020 M04/M07 Q1021=
201011290920 METAR ESMX 290920Z 04012KT 020V090 9999 FEW015 SCT021 M05/M08 Q1021=
201011290850 METAR ESMX 290850Z 04010KT 360V070 9999 SCT025 M06/M09 Q1021=
201011290820 METAR ESMX 290820Z 04010KT 9999 -SN FEW015 SCT030 M06/M09 Q1021=
201011290750 METAR ESMX 290750Z 04009KT 9999 FEW027 M06/M09 Q1021=
201011290720 METAR ESMX 290720Z 05011KT 020V080 CAVOK M05/M09 Q1020=
201011290650 METAR ESMX 290650Z 07013G25KT 020V110 9999 FEW033 M05/M10 Q1020=
201011290620 METAR ESMX 290620Z 05012G24KT 010V100 9999 FEW033 M05/M09 Q1020=
201011290550 METAR ESMX 290550Z 05013KT 360V100 9999 -SN FEW020 BKN035 M05/M08 Q1020=
201011290520 METAR ESMX 290520Z 04013KT 360V110 9999 -SN FEW019 BKN037 BKN046 M05/M08 Q1020=
201011290450 METAR ESMX 290450Z 04013KT 020V130 6000 -SN FEW014 SCT020 BKN039 M05/M07 Q1020=
201011290420 METAR ESMX 290420Z AUTO 05014KT 020V080 3900NDV -SN FEW014/// SCT017/// OVC020/// M04/M06 Q1020=
201011290350 METAR ESMX 290350Z AUTO 04012KT 020V090 4300NDV -SN FEW012/// OVC015/// M04/M06 Q1020=
201011290320 METAR ESMX 290320Z AUTO 05012KT 360V080 3500NDV -SN FEW013/// OVC015/// M04/M06 Q1020=
201011290250 METAR ESMX 290250Z AUTO 04010KT 360V070 5000NDV -SN BKN014/// OVC019/// M04/M06 Q1020=
201011290220 METAR ESMX 290220Z 05013KT 010V100 6000 -SN OVC014 M04/M06 Q1020=
201011290150 METAR ESMX 290150Z 05011KT 020V080 6000 -SN BKN014 OVC038 M04/M06 Q1020=
201011290120 METAR ESMX 290120Z 06011KT 020V100 5000 -SN SCT014 BKN020 M03/M06 Q1020=
201011290050 METAR ESMX 290050Z 07009KT 020V110 8000 -SN FEW016 SCT019 BKN023 M03/M06 Q1020=
201011290020 METAR ESMX 290020Z 08008G19KT 020V140 9999 -SN FEW024 OVC031 M03/M06 Q1020=
201011282350 METAR ESMX 282350Z 08009KT 020V140 6000 -SN FEW012 BKN014 OVC018 M03/M05 Q1020=
201011282320 METAR ESMX 282320Z 05007KT 340V100 9999 -SN OVC013 M03/M05 Q1020=
201011282250 METAR ESMX 282250Z 06009KT 030V110 9999 -SN BKN012 OVC016 M03/M05 Q1020=
201011282220 METAR ESMX 282220Z 06010KT 010V100 9999 -SN FEW013 SCT016 BKN018 M03/M05 Q1019=
201011282150 METAR ESMX 282150Z 06008KT 020V100 9999 -SN FEW015 SCT021 BKN032 M04/M06 Q1019=
201011282120 METAR ESMX 282120Z 06008KT 020V100 9999 FEW018 SCT022 BKN038 M04/M06 Q1019=
201011282050 METAR ESMX 282050Z 06010KT 020V110 9999 FEW014 OVC017 M03/M06 Q1019 RESG=
201011282020 METAR ESMX 282020Z 07010G20KT 020V110 9000 -SN FEW012 SCT015 BKN017 M03/M05 Q1019=
201011281950 METAR ESMX 281950Z 07010G20KT 010V130 8000 -SN FEW011 SCT015 BKN018 M02/M04 Q1019=
201011281920 METAR ESMX 281920Z 08006KT 040V150 4600 -SN FEW011 BKN014 BKN018 M02/M04 Q1019=
201011281850 METAR ESMX 281850Z 08008KT 030V120 8000 -SN FEW012 BKN015 M02/M04 Q1018=
201011281820 METAR ESMX 281820Z 08008KT 030V140 9999 -SN FEW014 SCT017 M02/M04 Q1018=
201011281750 METAR ESMX 281750Z 08011KT 040V120 6000 -SN BKN013 M02/M04 Q1018=
201011281720 METAR ESMX 281720Z 08009G21KT 030V120 9999 -SN FEW015 BKN017 M02/M04 Q1017=
201011281650 METAR ESMX 281650Z 08010G21KT 040V140 9999 -SN FEW013 SCT016 BKN020 M02/M03 Q1017=
201011281620 METAR ESMX 281620Z 08010KT 020V140 5000 -SN FEW011 SCT015 BKN018 M02/M03 Q1016=
201011281550 METAR ESMX 281550Z 08010G21KT 030V140 4000 -SN FEW010 BKN015 OVC020 M02/M03 Q1016=
201011281520 METAR ESMX 281520Z 08009KT 020V120 3500 -SN FEW011 BKN015 BKN019 M01/M02 Q1016=
201011281450 METAR ESMX 281450Z 08009G21KT 020V140 3500 -SN FEW009 BKN012 BKN018 M01/M02 Q1015=
201011281420 METAR ESMX 281420Z 08009KT 020V140 3000 -SN SCT010 BKN014 BKN017 M01/M02 Q1015=
201011281350 METAR ESMX 281350Z 09008KT 030V140 2500 -SN FEW009 SCT012 BKN014 M01/M01 Q1014=
201011281320 METAR ESMX 281320Z 09008KT 020V160 3400 -SN FEW008 SCT012 BKN015 M01/M01 Q1014=
201011281250 METAR ESMX 281250Z 10007KT 040V160 3600 -SN FEW009 SCT012 BKN015 M01/M01 Q1014=
201011281220 METAR ESMX 281220Z 09007KT 040V160 2000 SN FEW007 BKN010 M00/M01 Q1013=
201011281150 METAR ESMX 281150Z 09006KT 030V150 3000 -SN FEW006 SCT008 BKN010 M00/M01 Q1013=
201011281120 METAR ESMX 281120Z 08005KT 010V130 3500 -SN FEW006 BKN010 BKN014 M00/M01 Q1013=
201011281050 METAR ESMX 281050Z 09004KT 360V140 2000 SN FEW005 SCT007 BKN009 M01/M02 Q1012=
201011281020 METAR ESMX 281020Z 07003KT 030V120 3500 -SN FEW007 BKN008 M01/M02 Q1012=
201011280950 METAR ESMX 280950Z 07003KT 030V120 5000 -SN OVC006 M02/M03 Q1012=
201011280920 METAR ESMX 280920Z AUTO 05003KT 020V110 2400NDV -SN SCT000/// OVC006/// M03/M04 Q1012=
201011280850 METAR ESMX 280850Z AUTO 04004KT 010V070 0800NDV R01/0800VP2000D R19/1300VP2000D SN VV003 M03/M04 Q1012=
201011280820 METAR ESMX 280820Z AUTO 04004KT 360V080 9999NDV OVC003/// M04/M05 Q1011=
201011280750 METAR ESMX 280750Z AUTO 06003KT 020V110 9999NDV OVC004/// M04/M05 Q1011=
201011280720 METAR ESMX 280720Z AUTO 04004KT 9999NDV -SN OVC005/// M05/M06 Q1011 RESG=
201011280650 METAR ESMX 280650Z AUTO 03005KT 350V070 8000NDV SG OVC007/// M05/M06 Q1011=
201011280620 METAR ESMX 280620Z AUTO 04006KT 9999NDV OVC007/// M05/M06 Q1010=
201011280550 METAR ESMX 280550Z AUTO 03007KT 9999NDV OVC007/// M05/M06 Q1010=
201011280520 METAR ESMX 280520Z AUTO 03006KT 9999NDV OVC008/// M05/M06 Q1010=
201011280450 METAR ESMX 280450Z AUTO 01007KT 9999NDV BKN009/// OVC015/// M05/M07 Q1009=
201011280420 METAR ESMX 280420Z AUTO 01008KT 9999NDV OVC009/// M05/M07 Q1009=
201011280350 METAR ESMX 280350Z AUTO 01009KT 9999NDV OVC010/// M06/M07 Q1009=
201011280320 METAR ESMX 280320Z AUTO 02009KT 9999NDV OVC011/// M06/M07 Q1009=
201011280250 METAR ESMX 280250Z AUTO 02008KT 9999NDV OVC012/// M06/M07 Q1009=
201011280220 METAR ESMX 280220Z AUTO 02009KT 9999NDV OVC012/// M06/M07 Q1009=
201011280150 METAR ESMX 280150Z AUTO 02010KT 9999NDV SCT012/// OVC038/// M06/M07 Q1009=
201011280120 METAR ESMX 280120Z AUTO 02011KT 9999NDV FEW013/// SCT015/// BKN018/// M06/M07 Q1009=
201011280050 METAR ESMX 280050Z AUTO 02010KT 9999NDV BKN014/// OVC019/// M06/M07 Q1009=
201011280020 METAR ESMX 280020Z AUTO 02011KT 9000NDV IC FEW012/// OVC020/// M06/M07 Q1009 RESG=
201011272350 METAR ESMX 272350Z AUTO 02011KT 2800NDV IC FEW006/// SCT008/// BKN022/// M06/M07 Q1009=
201011272320 METAR ESMX 272320Z AUTO 01013KT 1800NDV -SN BKN005/// BKN008/// M06/M07 Q1009=
201011272250 METAR ESMX 272250Z AUTO 01013KT 1300NDV R01/P2000N R19/P2000N -SN FEW006/// SCT007/// BKN009/// M06/M07 Q1009=
201011272220 METAR ESMX 272220Z AUTO 01013KT 350V050 1200NDV R01/P2000N R19/P2000N -SN SCT005/// BKN008/// M06/M07 Q1009=
201011272150 METAR ESMX 272150Z AUTO 02015KT 0750NDV R01/P2000D R19/P2000N SN BKN005/// BKN009/// M05/M06 Q1009=
201011272120 METAR ESMX 272120Z AUTO 01013KT 0900NDV R01/P2000N R19/P2000N SN FEW001/// BKN005/// M06/M07 Q1009=
201011272050 METAR ESMX 272050Z AUTO 01011KT 0500NDV R01/1000VP2000D R19/1400VP2000U +SN VV002 M06/M07 Q1009=
201011272020 METAR ESMX 272020Z AUTO 02011KT 0450NDV R01/1900N R19/0700VP2000 SN VV004 M06/M07 Q1009=
201011271950 METAR ESMX 271950Z AUTO 01012KT 340V050 1200NDV R01/P2000N R19/P2000N -SN FEW005/// SCT007/// BKN010/// M06/M07 Q1009=
201011271920 METAR ESMX 271920Z AUTO 02011KT 350V060 3600NDV -SN FEW009/// BKN011/// M06/M07 Q1009=
201011271850 METAR ESMX 271850Z AUTO 02010KT 5000NDV -SN BKN010/// M06/M08 Q1009=
201011271820 METAR ESMX 271820Z AUTO 01012KT 9999NDV BKN010/// M06/M08 Q1009=
201011271750 METAR ESMX 271750Z AUTO 01012KT 9999NDV BKN010/// M06/M08 Q1009=
201011271720 METAR ESMX 271720Z AUTO 01011KT 9999NDV OVC010/// M06/M08 Q1009=
201011271650 METAR ESMX 271650Z AUTO 03012KT 9999NDV SCT011/// OVC020/// M06/M08 Q1009=
201011271620 METAR ESMX 271620Z AUTO 03013KT 9999NDV FEW011/// OVC021/// M06/M08 Q1009=
201011271550 METAR ESMX 271550Z AUTO 04011KT 350V060 9999NDV SCT011/// OVC022/// M06/M08 Q1009=
201011271520 METAR ESMX 271520Z AUTO 03011KT 360V080 9999NDV FEW012/// BKN022/// M07/M09 Q1009=
201011271450 METAR ESMX 271450Z AUTO 01012KT 9999NDV BKN012/// BKN022/// M06/M09 Q1009=
201011271420 METAR ESMX 271420Z AUTO 02011KT 340V050 9999NDV SCT012/// BKN020/// M06/M08 Q1009=
201011271350 METAR ESMX 271350Z AUTO 02011KT 9999NDV OVC011/// M06/M08 Q1008=
201011271320 METAR ESMX 271320Z AUTO 02011KT 350V050 9999NDV OVC012/// M06/M08 Q1008=
201011271250 METAR ESMX 271250Z 03011KT 9999 BKN011 M06/M08 Q1008=
201011271220 METAR ESMX 271220Z 03012KT 9999 BKN011 M06/M08 Q1008=
201011271150 METAR ESMX 271150Z 02012KT 350V070 9999 BKN011 M06/M08 Q1008=
201011271120 METAR ESMX 271120Z 03012KT 9999 BKN011 M06/M08 Q1008=
201011271050 METAR ESMX 271050Z 04012KT 9999 OVC011 M06/M08 Q1008=
201011271020 METAR ESMX 271020Z 03011KT 9999 BKN011 M06/M09 Q1009=
201011270950 METAR ESMX 270950Z 03010KT 010V070 9999 SCT011 M07/M09 Q1009=
201011270920 METAR ESMX 270920Z 03011KT 010V070 9999 SCT010 M07/M09 Q1009=
201011270850 METAR ESMX 270850Z 03010KT 9999 BKN012 M07/M09 Q1008=
201011270820 METAR ESMX 270820Z 03011KT 360V060 9999 FEW010 SCT018 M08/M10 Q1008=
201011270750 METAR ESMX 270750Z 03011KT 9999 FEW009 BKN015 M08/M10 Q1008=
201011270720 METAR ESMX 270720Z 02010KT 340V060 9999 BKN009 M08/M10 Q1008=
201011270650 METAR ESMX 270650Z AUTO 04011KT 360V070 9999NDV OVC009/// M08/M09 Q1008=
201011270620 METAR ESMX 270620Z AUTO 03012KT 9999NDV OVC008/// M08/M09 Q1008=
201011270550 METAR ESMX 270550Z AUTO 04013KT 9999NDV OVC008/// M08/M09 Q1008=
201011270520 METAR ESMX 270520Z AUTO 03011KT 350V070 9999NDV OVC008/// M08/M10 Q1007=
201011270450 METAR ESMX 270450Z AUTO 01009KT 9999NDV OVC008/// M08/M10 Q1007=
201011270420 METAR ESMX 270420Z AUTO 03011KT 350V070 9999NDV BKN009/// M09/M10 Q1007=
201011270350 METAR ESMX 270350Z AUTO 03009KT 9999NDV FEW011/// M09/M11 Q1008=
201011270320 METAR ESMX 270320Z AUTO 03009KT 9999NDV FEW012/// M09/M11 Q1008=
201011270250 METAR ESMX 270250Z AUTO 01007KT 9999NDV NCD M09/M11 Q1008=
201011270220 METAR ESMX 270220Z AUTO 01009KT 9999NDV NCD M09/M11 Q1008=
201011270150 METAR ESMX 270150Z AUTO 04010KT 020V080 9999NDV NCD M09/M11 Q1008=
201011270120 METAR ESMX 270120Z AUTO 04010KT 9999NDV NCD M08/M11 Q1008=
201011270050 METAR ESMX 270050Z AUTO 04009KT 9999NDV NCD M08/M11 Q1008=
201011270020 METAR ESMX 270020Z AUTO 04012KT 9999NDV NCD M08/M11 Q1008=
201011262350 METAR ESMX 262350Z AUTO 04013KT 9999NDV NCD M08/M11 Q1008=
201011262320 METAR ESMX 262320Z AUTO 04011KT 020V080 9999NDV NCD M08/M10 Q1008=
201011262250 METAR ESMX 262250Z AUTO 04011KT 9999NDV NCD M08/M10 Q1008=
201011262220 METAR ESMX 262220Z AUTO 04011KT 9999NDV NCD M08/M10 Q1008=
201011262150 METAR ESMX 262150Z AUTO 03008KT 9999NDV FEW012/// M08/M10 Q1008=
201011262120 METAR ESMX 262120Z 04010KT 9999 SCT013 M08/M10 Q1007=
201011262050 METAR ESMX 262050Z 03008KT 360V070 9999 BKN012 M08/M10 Q1007=
201011262020 METAR ESMX 262020Z 03010KT 9999 BKN010 M08/M10 Q1007=
201011261950 METAR ESMX 261950Z 03009KT 350V070 9999 BKN010 M08/M09 Q1007=
201011261920 METAR ESMX 261920Z 04010KT 9999 BKN010 M07/M09 Q1006=
201011261850 METAR ESMX 261850Z 03011KT 9999 BKN011 M07/M09 Q1006=
201011261820 METAR ESMX 261820Z 04012KT 020V080 9999 SCT013 M07/M09 Q1006=
201011261750 METAR ESMX 261750Z 03011KT 9999 BKN011 M06/M09 Q1006=
201011261720 METAR ESMX 261720Z 04011KT 010V070 9999 BKN011 BKN039 M06/M08 Q1006=
201011261650 METAR ESMX 261650Z 04012KT 9999 -SN BKN010 M06/M08 Q1006=
201011261620 METAR ESMX 261620Z 03011KT 9999 -SN OVC011 M06/M08 Q1006 RESG=
201011261550 METAR ESMX 261550Z 03010KT 9999 -SN OVC010 M06/M07 Q1006=
201011261520 METAR ESMX 261520Z 04009KT 350V060 9999 -SN OVC010 M05/M07 Q1006=
201011261450 METAR ESMX 261450Z 04009KT 360V070 9999 -SN BKN011 OVC048 M05/M07 Q1005=
201011261420 METAR ESMX 261420Z 04011KT 9999 -SN FEW011 SCT014 BKN018 M05/M07 Q1005=
201011261350 METAR ESMX 261350Z 03009KT 360V070 6000 -SN BKN011 BKN046 M05/M07 Q1005=
201011261320 METAR ESMX 261320Z 04009KT 9999 -SN BKN013 M05/M07 Q1005=
201011261250 METAR ESMX 261250Z 03010KT 8000 -SN BKN012 M05/M07 Q1005=
201011261220 METAR ESMX 261220Z 04010KT 010V070 9000 -SN FEW011 SCT017 M05/M07 Q1005=
201011261150 METAR ESMX 261150Z 03010KT 6000 -SN FEW012 SCT018 M05/M07 Q1005=
201011261120 METAR ESMX 261120Z 03009KT 350V070 5000 -SN FEW006 SCT011 BKN014 M05/M07 Q1005=
201011261050 METAR ESMX 261050Z 03008KT 350V060 4300 -SN FEW008 BKN012 M05/M07 Q1005=
201011261020 METAR ESMX 261020Z 04009KT 360V070 8000 -SN FEW010 SCT012 BKN015 M05/M07 Q1005=
201011260950 METAR ESMX 260950Z 04009KT 6000 -SN FEW011 BKN015 M05/M07 Q1005=
201011260920 METAR ESMX 260920Z 03009KT 350V070 6000 -SN FEW012 SCT023 BKN040 M06/M07 Q1005=
201011260850 METAR ESMX 260850Z 03008KT 7000 -SN FEW012 BKN040 M06/M07 Q1004=
201011260820 METAR ESMX 260820Z 04009KT 010V080 5000 -SN FEW011 BKN040 M06/M07 Q1004=
201011260750 METAR ESMX 260750Z 02007KT 9999 -SN FEW012 BKN038 M06/M07 Q1004=
201011260720 METAR ESMX 260720Z 01007KT 7000 -SN FEW014 BKN038 M06/M07 Q1004=
201011260650 METAR ESMX 260650Z 02007KT 350V070 7000 -SN FEW010 BKN035 M06/M07 Q1003=
201011260620 METAR ESMX 260620Z 02009KT 6000 -SN SCT007 OVC034 M06/M07 Q1003=
201011260550 METAR ESMX 260550Z 01009KT 4000 -SN FEW007 BKN023 M06/M07 Q1003=
201011260520 METAR ESMX 260520Z 01008KT 8000 -SN FEW006 BKN018 M06/M07 Q1003=
201011260450 METAR ESMX 260450Z 01008KT 3000 -SN FEW006 BKN013 M06/M07 Q1003=
201011260420 METAR ESMX 260420Z AUTO 02009KT 3400NDV -SN FEW026/// M06/M07 Q1003=
201011260350 METAR ESMX 260350Z AUTO 01008KT 2300NDV -SN FEW010/// M06/M07 Q1003=
201011260320 METAR ESMX 260320Z AUTO 01009KT 3700NDV -SN FEW009/// SCT033/// M06/M07 Q1003=
201011260250 METAR ESMX 260250Z AUTO 02010KT 9999NDV SG FEW009/// SCT011/// BKN029/// M06/M08 Q1003=
201011260220 METAR ESMX 260220Z AUTO 01010KT 7000NDV IC FEW009/// SCT011/// BKN035/// M06/M08 Q1003=
201011260150 METAR ESMX 260150Z AUTO 02010KT 5000NDV SG FEW011/// M06/M08 Q1003=
201011260120 METAR ESMX 260120Z AUTO 02008KT 9999NDV SG FEW009/// BKN010/// M06/M08 Q1003=
201011260050 METAR ESMX 260050Z AUTO 02010KT 9999NDV IC BKN009/// BKN031/// M06/M07 Q1003=
201011260020 METAR ESMX 260020Z 02009KT 9000 -SN SCT010 BKN015 M06/M07 Q1003=
201011252350 METAR ESMX 252350Z 02009KT 3500 -SN FEW009 BKN011 M05/M07 Q1003=
201011252320 METAR ESMX 252320Z 02009KT 4500 -SN FEW009 SCT011 BKN014 M05/M07 Q1003=
201011252250 METAR ESMX 252250Z 02009KT 5000 -SN FEW009 SCT011 M05/M07 Q1003=
201011252220 METAR ESMX 252220Z 02009KT 6000 -SN FEW009 BKN010 M05/M07 Q1003=
201011252150 METAR ESMX 252150Z 02009KT 5000 -SN FEW010 BKN012 M05/M07 Q1003=
201011252120 METAR ESMX 252120Z 03009KT 7000 -SN BKN010 M05/M07 Q1003=
201011252050 METAR ESMX 252050Z 36009KT 7000 -SN BKN010 M05/M07 Q1003=
201011252020 METAR ESMX 252020Z 03009KT 6000 -SN SCT010 BKN015 M05/M07 Q1003 RESG=
201011251950 METAR ESMX 251950Z 03011KT 9999 -SN FEW011 SCT013 M05/M07 Q1002=
201011251920 METAR ESMX 251920Z 01009KT 340V040 6000 -SN SCT010 BKN015 M05/M06 Q1002=
201011251850 METAR ESMX 251850Z 03010KT 4300 -SN FEW011 SCT013 M05/M06 Q1002=
201011251820 METAR ESMX 251820Z 03010KT 4500 -SN FEW010 SCT014 M04/M06 Q1002=
201011251750 METAR ESMX 251750Z 02010KT 2300 -SN SCT010 BKN014 M04/M06 Q1002=
201011251720 METAR ESMX 251720Z 01010KT 5000 -SN SCT012 M04/M06 Q1002=
201011251650 METAR ESMX 251650Z 35009KT 6000 -SG FEW011 SCT015 M04/M06 Q1002=
201011251620 METAR ESMX 251620Z 36008KT 6000 -SN FEW011 BKN014 M04/M06 Q1002=
201011251550 METAR ESMX 251550Z 02008KT 9000 -SG FEW012 M04/M06 Q1002=
201011251520 METAR ESMX 251520Z 02009KT 6000 SG FEW013 M04/M06 Q1002=
201011251450 METAR ESMX 251450Z 01009KT 6000 SG SCT013 M04/M06 Q1002=
201011251420 METAR ESMX 251420Z 02009KT 340V050 5000 SG FEW014 BKN016 M04/M06 Q1002=
201011251350 METAR ESMX 251350Z 02010KT 8000 -SN FEW013 BKN015 M04/M06 Q1001=
201011251320 METAR ESMX 251320Z 02010KT 9000 -SN FEW012 SCT016 BKN018 M03/M06 Q1001=
201011251250 METAR ESMX 251250Z 02010KT 9999 -SN FEW015 SCT019 M03/M06 Q1001=
201011251220 METAR ESMX 251220Z 02011KT 8000 -SN BKN016 M03/M06 Q1001=
201011251150 METAR ESMX 251150Z 02011KT 7000 -SN FEW012 BKN014 M03/M06 Q1001=
201011251120 METAR ESMX 251120Z 36013KT 340V050 6000 -SN BKN014 M03/M06 Q1001=
201011251050 METAR ESMX 251050Z 01013KT 9999 -SN SCT015 BKN017 M04/M06 Q1001=
201011251020 METAR ESMX 251020Z 36014KT 6000 -SN FEW012 SCT016 M04/M06 Q1001 RESG=
201011250950 METAR ESMX 250950Z 01011KT 5000 -SN FEW010 BKN025 M04/M06 Q1001=
201011250920 METAR ESMX 250920Z 01010KT 5000 -SN FEW010 BKN025 M04/M05 Q1001=
201011250850 METAR ESMX 250850Z 36012KT 4000 -SN FEW012 BKN016 M04/M05 Q1000=
201011250820 METAR ESMX 250820Z 35012KT 3000 R01/P2000N R19/P2000N -SN BKN012 M04/M05 Q1000=
201011250750 METAR ESMX 250750Z 35012KT 4000 -SN FEW012 BKN020 M04/M05 Q1000=
201011250720 METAR ESMX 250720Z 35012KT 4000 -SN FEW012 BKN020 M04/M05 Q1000=
201011250650 METAR ESMX 250650Z 35013KT 4000 -SN FEW012 BKN020 M04/M05 Q0999=
201011250620 METAR ESMX 250620Z 36013KT 3500 -SN SCT006 BKN010 M04/M05 Q0999=
201011250550 METAR ESMX 250550Z 35013KT 2500 -SN SCT006 BKN010 M04/M05 Q0999=
201011250520 METAR ESMX 250520Z 36013KT 2000 -SN FEW007 SCT010 M04/M05 Q0999=
201011250450 METAR ESMX 250450Z 36013KT 2000 -SN FEW006 SCT010 M03/M04 Q0998=
201011250420 METAR ESMX 250420Z AUTO 36013KT 3200NDV -SN FEW011/// M03/M04 Q0998=
201011250350 METAR ESMX 250350Z AUTO 36013KT 3500NDV -SN FEW014/// M03/M04 Q0998=
201011250320 METAR ESMX 250320Z AUTO 36013KT 2000NDV -SN FEW005/// SCT007/// BKN013/// M03/M04 Q0998=
201011250250 METAR ESMX 250250Z AUTO 35014KT 1300NDV R01/P2000N R19/P2000N -SN BKN005/// BKN009/// M03/M04 Q0997=
201011250220 METAR ESMX 250220Z AUTO 36014KT 1000NDV R01/P2000N R19/P2000N -SN BKN005/// M03/M04 Q0997=
201011250150 METAR ESMX 250150Z AUTO 36014KT 1500NDV -SN FEW005/// SCT009/// M03/M04 Q0997=
201011250120 METAR ESMX 250120Z AUTO 34012KT 2400NDV -SN FEW014/// M03/M04 Q0997=
201011250050 METAR ESMX 250050Z 35014KT 1800 -SN FEW013 SCT016 BKN021 M03/M04 Q0997=
201011250020 METAR ESMX 250020Z 34013KT 3800 -SN FEW009 SCT015 M03/M04 Q0997=
201011242350 METAR ESMX 242350Z 35013KT 1800 -SN FEW006 SCT009 M03/M04 Q0997=
201011242320 METAR ESMX 242320Z 34014KT 2100 -SN FEW006 SCT015 M03/M04 Q0997=
201011242250 METAR ESMX 242250Z 34014KT 3700 -SN FEW009 SCT016 M03/M04 Q0997=
201011242220 METAR ESMX 242220Z 34012KT 2400 -SN SCT011 M03/M04 Q0997=
201011242150 METAR ESMX 242150Z 34012KT 320V020 3400 -SN FEW012 M03/M04 Q0997=
201011242120 METAR ESMX 242120Z 34013KT 3900 -SN FEW012 M03/M04 Q0997=
201011242050 METAR ESMX 242050Z 34013KT 4800 -SN FEW006 SCT013 M03/M04 Q0996=
201011242020 METAR ESMX 242020Z 34014KT 3500 -SN FEW008 SCT013 M03/M04 Q0996=
201011241950 METAR ESMX 241950Z 35012KT 4000 -SN FEW008 SCT015 M03/M04 Q0996=
201011241920 METAR ESMX 241920Z 34012KT 300V010 2800 -SN FEW013 SCT018 M03/M04 Q0996=
201011241850 METAR ESMX 241850Z 35012KT 5000 -SN FEW014 SCT017 M03/M05 Q0996=
201011241820 METAR ESMX 241820Z 34012KT 310V020 7000 -SN FEW014 SCT018 BKN022 M03/M05 Q0996=
201011241750 METAR ESMX 241750Z 34012KT 9999 SG FEW015 SCT018 BKN023 M02/M05 Q0996=
201011241720 METAR ESMX 241720Z 34013KT 9999 -SN FEW016 SCT019 BKN024 M02/M05 Q0996=
201011241650 METAR ESMX 241650Z 34012KT 9999 FEW015 BKN017 BKN026 M02/M05 Q0996=
201011241620 METAR ESMX 241620Z 34011KT 9999 -SN FEW016 BKN018 BKN023 M02/M05 Q0996=
201011241550 METAR ESMX 241550Z 34011KT 9999 -SN BKN015 BKN021 M02/M05 Q0996 RESG=
201011241520 METAR ESMX 241520Z 35011KT 9999 SG FEW015 SCT017 OVC020 M02/M05 Q0996=
201011241450 METAR ESMX 241450Z 35011KT 320V020 9999 SG FEW014 BKN018 OVC021 M02/M05 Q0996=
201011241420 METAR ESMX 241420Z 35012KT 310V020 7000 SG FEW014 OVC018 M02/M05 Q0995=
201011241350 METAR ESMX 241350Z 34011KT 310V020 8000 SG FEW013 SCT019 BKN022 M02/M04 Q0995=
201011241320 METAR ESMX 241320Z 34012KT 9999 -SN FEW015 SCT019 OVC021 M02/M04 Q0996=
201011241250 METAR ESMX 241250Z 34012KT 320V020 9999 SG FEW013 SCT016 OVC019 M02/M04 Q0995=
201011241220 METAR ESMX 241220Z 36013KT 9999 SG FEW014 SCT017 OVC020 M02/M05 Q0995=
201011241150 METAR ESMX 241150Z 34013KT 9999 -SN SCT013 BKN020 M02/M04 Q0995=
201011241120 METAR ESMX 241120Z 35013KT 9999 -SN SCT012 BKN020 M02/M04 Q0995=
201011241050 METAR ESMX 241050Z 34013KT 8000 -SN SCT012 BKN020 M02/M05 Q0995=
201011241020 METAR ESMX 241020Z 35013KT 5000 -SN FEW013 SCT020 BKN027 M02/M04 Q0995=
201011240950 METAR ESMX 240950Z 36014KT 330V040 4400 -SN FEW014 BKN018 M02/M05 Q0995=
201011240920 METAR ESMX 240920Z 36013KT 3400 -SN FEW013 BKN017 BKN022 M02/M04 Q0995=
201011240850 METAR ESMX 240850Z 36015KT 2700 -SN FEW013 SCT016 BKN019 M02/M04 Q0995=
201011240820 METAR ESMX 240820Z 35013KT 4700 -SN FEW012 SCT015 BKN017 M02/M04 Q0995=
201011240750 METAR ESMX 240750Z 35013KT 6000 -SN FEW012 BKN015 OVC019 M02/M04 Q0995=
201011240720 METAR ESMX 240720Z 36013KT 8000 -SN FEW013 BKN016 M03/M04 Q0995=
201011240650 METAR ESMX 240650Z 35013KT 8000 -SN FEW012 BKN016 BKN021 M03/M05 Q0995=
201011240620 METAR ESMX 240620Z 36014KT 330V030 7000 -SN FEW013 OVC016 M03/M05 Q0995=
201011240550 METAR ESMX 240550Z 35014KT 7000 -SN FEW012 BKN018 M03/M05 Q0994=
201011240520 METAR ESMX 240520Z 35014KT 7000 -SN FEW011 BKN015 M03/M05 Q0994 RESN=
201011240450 METAR ESMX 240450Z 36013KT 4000 SN FEW007 BKN016 M03/M05 Q0994=
201011240420 METAR ESMX 240420Z AUTO 35015KT 8000NDV -SN FEW013/// SCT018/// M03/M05 Q0994=
201011240350 METAR ESMX 240350Z AUTO 36015KT 3000NDV -SN FEW010/// SCT015/// M03/M05 Q0994=
201011240320 METAR ESMX 240320Z AUTO 35014KT 2500NDV -SN FEW007/// M03/M05 Q0994=
201011240250 METAR ESMX 240250Z AUTO 35016KT 3600NDV -SN FEW012/// BKN015/// M03/M05 Q0994=
201011240220 METAR ESMX 240220Z AUTO 35015KT 4200NDV -SN FEW013/// BKN017/// M03/M05 Q0994=
201011240120 METAR ESMX 240120Z 36015KT 3600 SN FEW012 BKN015 M03/M05 Q0995=
201011232350 METAR ESMX 232350Z 35017KT 4000 SN FEW013 BKN017 M04/M05 Q0995=
201011232320 METAR ESMX 232320Z 36016KT 5000 -SN FEW014 BKN017 M03/M05 Q0995=
201011232250 METAR ESMX 232250Z 01017KT 6000 -SN FEW012 BKN020 M03/M05 Q0995=
201011232220 METAR ESMX 232220Z 36016KT 7000 -SN FEW012 BKN018 M03/M05 Q0995=
201011232150 METAR ESMX 232150Z 01018KT 8000 -SN FEW008 BKN015 M03/M05 Q0995=
201011232120 METAR ESMX 232120Z 01020KT 5000 -SN FEW007 BKN016 M03/M05 Q0995 RESN=
201011232020 METAR ESMX 232020Z 01017KT 330V040 2500 SN SCT006 BKN014 M03/M04 Q0995=
201011231950 METAR ESMX 231950Z 02017KT 3500 -SN FEW007 BKN016 M03/M04 Q0995=
201011231920 METAR ESMX 231920Z 01018KT 3000 -SN FEW010 BKN015 M02/M03 Q0995=
201011231850 METAR ESMX 231850Z 02018KT 4000 -SN FEW010 BKN015 M02/M03 Q0995=
201011231820 METAR ESMX 231820Z 02018KT 3000 -SN FEW012 SCT015 BKN018 M02/M03 Q0995=
201011231750 METAR ESMX 231750Z 02019G29KT 3000 -SN FEW011 BKN016 M01/M02 Q0994=
201011231720 METAR ESMX 231720Z 01017KT 4500 -SN FEW011 BKN018 M01/M02 Q0994=
201011231650 METAR ESMX 231650Z 01016KT 4000 -SN SCT012 BKN015 M01/M02 Q0994=
201011231620 METAR ESMX 231620Z 03017G27KT 4000 -SN FEW010 BKN015 M00/M01 Q0994=
201011231550 METAR ESMX 231550Z 02016KT 3400 -SN FEW010 SCT013 OVC016 M00/M01 Q0994=
201011231520 METAR ESMX 231520Z 02016KT 3300 -SN FEW009 BKN012 OVC017 M00/M01 Q0994=
201011231450 METAR ESMX 231450Z 02017KT 2200 -SN FEW008 BKN010 OVC015 M00/M01 Q0994=
201011231420 METAR COR ESMX 231420Z 02016KT 1800 -SN FEW007 SCT010 OVC013 00/M00 Q0993=
201011231350 METAR ESMX 231350Z 01016KT 2200 -SNRA SCT011 OVC015 01/M01 Q0993=
201011231320 METAR ESMX 231320Z 01016G26KT 9999 DZ BKN010 OVC014 01/M00 Q0993=
201011231220 METAR ESMX 231220Z 02016KT 360V060 9999 -DZ FEW010 OVC015 01/M00 Q0993=
201011231150 METAR ESMX 231150Z 01017KT 9999 -DZ BKN010 OVC015 01/00 Q0993=
201011231120 METAR ESMX 231120Z 02016KT 350V060 9999 -DZ FEW008 SCT011 OVC013 02/00 Q0994=
201011231050 METAR ESMX 231050Z 03017KT 350V070 9999 -DZ FEW009 OVC011 02/01 Q0994=
201011231020 METAR ESMX 231020Z 02016G35KT 350V050 9999 -DZ FEW008 OVC012 02/01 Q0994=
201011230950 METAR ESMX 230950Z 02014G24KT 340V050 9999 -RA FEW007 SCT009 OVC011 02/01 Q0994=
201011230920 METAR ESMX 230920Z 01014KT 340V050 9999 -RA FEW006 SCT007 BKN009 01/01 Q0994=
201011230850 METAR ESMX 230850Z 01013KT 6000 -RA FEW006 BKN007 01/00 Q0994=
201011230820 METAR ESMX 230820Z 02013KT 340V050 9000 -RA BKN005 OVC009 02/01 Q0994=
201011230750 METAR ESMX 230750Z 03014KT 010V070 9000 -RASN BKN006 OVC009 02/01 Q0995=
201011230720 METAR COR ESMX 230720Z 03013KT 9999 -RASN OVC006 02/01 Q0994=
201011230650 METAR ESMX 230650Z 02013KT 9999 -RASN FEW005 OVC007 02/01 Q0994=
201011230620 METAR ESMX 230620Z 03012KT 350V060 9999 -RASN OVC005 01/01 Q0995=
201011230550 METAR ESMX 230550Z 02013KT 9000 -SNRA BKN005 OVC009 01/01 Q0995=
201011230520 METAR ESMX 230520Z 02013KT 9999 -SNRA SCT006 BKN008 BKN010 02/01 Q0995=
201011230450 METAR ESMX 230450Z 03012KT 360V060 9999 -RASN BKN007 OVC010 02/01 Q0995=
201011230420 METAR ESMX 230420Z AUTO 04014KT 9999NDV -RA BKN007/// OVC010/// 02/01 Q0995=
201011230350 METAR ESMX 230350Z AUTO 03013G23KT 9999NDV -RA OVC007/// 02/01 Q0996 REDZ=
201011230320 METAR ESMX 230320Z AUTO 04013KT 360V060 9999NDV -DZ FEW007/// BKN009/// 02/01 Q0996=
201011230250 METAR ESMX 230250Z AUTO 04013KT 360V070 9999NDV -RA FEW006/// BKN008/// OVC010/// 01/01 Q0996=
201011230220 METAR ESMX 230220Z AUTO 02012KT 9999NDV -RA FEW006/// BKN007/// OVC009/// 01/01 Q0997=
201011230150 METAR ESMX 230150Z AUTO 03013KT 010V070 8000NDV -RA BKN005/// BKN009/// 01/01 Q0997=
201011230120 METAR ESMX 230120Z 03010KT 4900 -SN BKN004 OVC008 01/00 Q0997=
201011230020 METAR ESMX 230020Z 03011KT 3600 -SN OVC005 01/00 Q0998=
201011222350 METAR ESMX 222350Z 03012KT 350V060 5000 -SN OVC005 01/00 Q0999=
201011222320 METAR ESMX 222320Z 03011KT 7000 -SNRA BKN005 OVC008 01/00 Q0999=
201011222250 METAR ESMX 222250Z 03012KT 9000 -SNRA SCT005 OVC007 01/00 Q1000=
201011222220 METAR ESMX 222220Z 03012KT 6000 -SN FEW004 OVC005 01/00 Q1000=
201011222150 METAR ESMX 222150Z 03011KT 350V060 7000 -SN BKN005 OVC007 01/00 Q1001=
201011222120 METAR ESMX 222120Z 03013KT 360V070 9000 -SN OVC005 01/01 Q1002=
201011222050 METAR ESMX 222050Z 03011KT 7000 -SNRA OVC005 01/01 Q1002=
201011222020 METAR ESMX 222020Z 03011KT 9000 -SN BKN005 OVC007 01/01 Q1002=
201011221950 METAR ESMX 221950Z 03010KT 9999 -SN OVC005 01/00 Q1003=
201011221920 METAR ESMX 221920Z 03010KT 5000 -SN FEW003 OVC005 01/00 Q1003=
201011221850 METAR ESMX 221850Z 03009KT 3000 -SN BKN004 OVC006 01/00 Q1004=
201011221820 METAR ESMX 221820Z 02009KT 3000 -SN FEW002 OVC004 01/00 Q1005=
201011221750 METAR ESMX 221750Z 01009KT 2500 -SN SCT002 OVC005 01/00 Q1005=
201011221720 METAR ESMX 221720Z 01008KT 3000 -SN BKN003 OVC005 01/00 Q1005=
201011221650 METAR COR ESMX 221650Z 02009KT 4200 -SN FEW003 OVC004 01/00 Q1005=
201011221620 METAR ESMX 221620Z 01010KT 9000 -RASN OVC004 01/01 Q1006=
201011221550 METAR ESMX 221550Z 02010KT 9999 -RA OVC004 02/01 Q1006=
201011221520 METAR ESMX 221520Z 03010KT 9999 -RA OVC004 02/01 Q1007=
201011221450 METAR ESMX 221450Z 03010KT 9999 -RA OVC003 02/01 Q1007=
201011221420 METAR ESMX 221420Z 03009KT 9999 -RA OVC003 02/01 Q1008=
201011221350 METAR ESMX 221350Z 03008KT 360V070 9999 -RA OVC003 02/01 Q1008=
201011221320 METAR ESMX 221320Z 02008KT 340V060 9999 OVC003 02/02 Q1009=
201011221250 METAR ESMX 221250Z 04008KT 9999 OVC003 02/01 Q1009=
201011221220 METAR ESMX 221220Z 04009KT 010V070 9999 OVC004 02/02 Q1009=
201011221150 METAR ESMX 221150Z 03009KT 9999 OVC004 02/02 Q1010=
201011221120 METAR ESMX 221120Z 04008KT 9999 OVC004 02/02 Q1010=
201011221050 METAR ESMX 221050Z 04009KT 010V070 9999 OVC004 02/01 Q1011=
201011221020 METAR ESMX 221020Z 04008KT 010V070 9999 OVC004 02/02 Q1011=
201011220950 METAR ESMX 220950Z 04009KT 9999 OVC005 02/01 Q1012=
201011220920 METAR ESMX 220920Z 04008KT 360V060 9999 OVC005 02/01 Q1012=
201011220850 METAR ESMX 220850Z 03008KT 9999 OVC005 02/01 Q1012=
201011220820 METAR ESMX 220820Z 04008KT 010V070 9999 OVC004 02/01 Q1012=
201011220750 METAR ESMX 220750Z 03008KT 9999 -RA OVC004 01/01 Q1012=
201011220720 METAR ESMX 220720Z 04007KT 9999 -RASN OVC004 01/01 Q1013=
201011220650 METAR ESMX 220650Z 04009KT 9999 BR OVC004 01/01 Q1013=
201011220620 METAR ESMX 220620Z 03009KT 9999 OVC004 01/01 Q1013=
201011220550 METAR ESMX 220550Z 04009KT 360V060 9999 -RASN FEW004 OVC005 01/01 Q1013=
201011220520 METAR ESMX 220520Z 03008KT 9999 -RASN FEW004 OVC006 01/01 Q1013=
201011220450 METAR ESMX 220450Z 03007KT 9999 -SNRA SCT003 OVC005 01/00 Q1013=
201011220420 METAR ESMX 220420Z AUTO 03008KT 5000NDV -SN FEW003/// OVC005/// 01/00 Q1014 RERA=
201011220350 METAR ESMX 220350Z AUTO 04009KT 7000NDV RA OVC004/// 01/00 Q1014=
201011220320 METAR ESMX 220320Z AUTO 04009KT 010V070 9999NDV -RA OVC005/// 01/01 Q1014=
201011220250 METAR ESMX 220250Z AUTO 03009KT 9999NDV OVC005/// 01/01 Q1014=
201011220220 METAR ESMX 220220Z AUTO 04008KT 010V070 9999NDV FEW005/// OVC007/// 01/01 Q1015=
201011220150 METAR ESMX 220150Z AUTO 03008KT 350V070 9999NDV OVC005/// 01/00 Q1015=
201011220120 METAR ESMX 220120Z 02008KT 350V060 9999 -RASN OVC004 01/00 Q1015=
201011220050 METAR ESMX 220050Z 03008KT 9999 -SN FEW004 OVC006 01/00 Q1015=
201011220020 METAR ESMX 220020Z 03009KT 360V060 6000 -SN FEW004 OVC005 01/00 Q1015=
201011212350 METAR ESMX 212350Z 03009KT 7000 -SN FEW004 OVC005 01/00 Q1015=
201011212320 METAR ESMX 212320Z 03010KT 010V070 9000 -RASN OVC005 01/01 Q1016=
201011212250 METAR ESMX 212250Z 03010KT 9999 -RASN OVC005 01/01 Q1016=
201011212220 METAR ESMX 212220Z 03011KT 9999 -RASN OVC005 02/01 Q1016=
201011212150 METAR ESMX 212150Z 03011KT 360V060 9999 -RASN BKN005 OVC008 02/01 Q1016=
201011212120 METAR ESMX 212120Z 04010KT 9999 -DZ BKN006 OVC008 02/01 Q1016=
201011212050 METAR ESMX 212050Z 03010KT 9999 -RA OVC006 02/02 Q1016=
201011212020 METAR ESMX 212020Z 04009KT 010V070 9999 -RASN FEW006 OVC008 02/02 Q1016=
201011211950 METAR ESMX 211950Z 03011KT 9999 -RA OVC007 03/02 Q1016 RESHRA=
201011211920 METAR ESMX 211920Z 04011KT 010V070 9999 -RASN OVC006 03/02 Q1016=
201011211850 METAR ESMX 211850Z 04010KT 9999 OVC006 03/02 Q1016=
201011211820 METAR ESMX 211820Z 04011KT 010V080 9999 FEW006 OVC007 03/02 Q1016=
201011211750 METAR ESMX 211750Z 04010KT 010V070 9999 -RA FEW007 OVC009 03/02 Q1016=
201011211720 METAR ESMX 211720Z 04010KT 010V070 9999 FEW007 OVC009 03/02 Q1016=
201011211650 METAR ESMX 211650Z 04009KT 010V070 9999 FEW007 BKN010 BKN023 03/02 Q1016=
201011211620 METAR ESMX 211620Z 03010KT 010V070 9999 FEW009 BKN011 BKN025 03/02 Q1016=
201011211550 METAR ESMX 211550Z 04009KT 360V060 9999 FEW007 SCT008 BKN010 04/03 Q1016=
201011211520 METAR ESMX 211520Z 03008KT 9999 FEW005 BKN007 OVC009 03/03 Q1016=
201011211450 METAR ESMX 211450Z 03007KT 9999 FEW006 SCT007 BKN009 03/02 Q1016=
201011211420 METAR ESMX 211420Z 03008KT 340V050 9999 -RA OVC006 03/02 Q1016=
201011211350 METAR ESMX 211350Z 03009KT 360V070 9999 FEW006 OVC008 04/03 Q1016=
201011211220 METAR ESMX 211220Z 02010KT 9999 OVC006 03/03 Q1016=
201011211150 METAR ESMX 211150Z 02009KT 9999 OVC007 03/02 Q1016=
201011211120 METAR ESMX 211120Z 02010KT 9999 OVC007 03/02 Q1016=
201011211050 METAR ESMX 211050Z 02009KT 9999 FEW006 OVC008 04/03 Q1016=
201011211020 METAR ESMX 211020Z 02009KT 9999 OVC006 04/03 Q1016=
201011210950 METAR ESMX 210950Z 02007KT 9999 -RA OVC006 03/03 Q1016=
201011210920 METAR ESMX 210920Z AUTO 02007KT 9999NDV -RA OVC005/// 03/02 Q1016=
201011210850 METAR ESMX 210850Z AUTO 02007KT 9999NDV -RA OVC005/// 03/02 Q1016=
201011210820 METAR ESMX 210820Z AUTO 01007KT 9999NDV DZ OVC005/// 02/02 Q1016=
201011210750 METAR ESMX 210750Z AUTO 36007KT 9999NDV -RA BKN005/// OVC008/// 02/02 Q1016=
201011210720 METAR ESMX 210720Z AUTO 36007KT 9999NDV -RA FEW004/// BKN006/// OVC009/// 02/02 Q1016=
201011210650 METAR ESMX 210650Z AUTO 36008KT 8000NDV DZ SCT005/// OVC007/// 02/02 Q1016=
201011210620 METAR ESMX 210620Z AUTO 01007KT 9999NDV DZ FEW004/// OVC005/// 02/02 Q1016=
201011210550 METAR ESMX 210550Z AUTO 01007KT 9000NDV -RA BKN004/// OVC007/// 03/02 Q1016 REDZ=
201011210520 METAR ESMX 210520Z AUTO 02007KT 9999NDV DZ FEW004/// OVC005/// 03/02 Q1016=
201011210450 METAR ESMX 210450Z AUTO 02006KT 9999NDV -RA OVC004/// 03/02 Q1017=
201011210420 METAR ESMX 210420Z AUTO 02007KT 9999NDV -RA FEW004/// BKN005/// BKN007/// 03/03 Q1017=
201011210350 METAR ESMX 210350Z AUTO 02006KT 9999NDV -RA FEW005/// SCT006/// BKN008/// 03/03 Q1017=
201011210320 METAR ESMX 210320Z AUTO 02006KT 9999NDV -RA FEW003/// BKN004/// BKN007/// 03/03 Q1017=
201011210250 METAR ESMX 210250Z AUTO 01007KT 7000NDV DZ BKN002/// OVC007/// 04/03 Q1017=
201011210220 METAR ESMX 210220Z AUTO 01005KT 4300NDV DZ FEW002/// SCT005/// BKN015/// 04/03 Q1017=
201011210150 METAR ESMX 210150Z AUTO 02004KT 4400NDV DZ FEW002/// SCT004/// BKN013/// 04/03 Q1017=
201011210120 METAR ESMX 210120Z AUTO 03003KT 5000NDV DZ BKN002/// BKN027/// 04/03 Q1017=
201011210050 METAR ESMX 210050Z AUTO 03004KT 5000NDV -RA SCT002/// BKN004/// OVC013/// 04/03 Q1018=
201011210020 METAR ESMX 210020Z AUTO 04005KT 3900NDV BR OVC001/// 04/03 Q1018=
201011202350 METAR ESMX 202350Z AUTO 04005KT 5000NDV BR OVC001/// 04/03 Q1018=
201011202320 METAR ESMX 202320Z AUTO 04004KT 5000NDV OVC001/// 04/03 Q1018=
201011202250 METAR ESMX 202250Z AUTO 04005KT 1200NDV R01/P2000N R19/P2000N OVC001/// 04/03 Q1018=
201011202220 METAR ESMX 202220Z AUTO 04006KT 0650NDV R01/1900N R19/P2000N FG VV001 04/03 Q1018=
201011202150 METAR ESMX 202150Z AUTO 04005KT 2300NDV VV001 04/03 Q1018=
201011202120 METAR ESMX 202120Z AUTO 04004KT 360V060 1800NDV OVC001/// 04/03 Q1018=
201011202050 METAR ESMX 202050Z AUTO 04003KT 0650NDV R01/P2000N R19/P2000N FG OVC001/// 04/03 Q1018=
201011202020 METAR ESMX 202020Z AUTO 04003KT 0500NDV R01/1700D R19/1500N FG VV001 04/03 Q1018=
201011201950 METAR ESMX 201950Z AUTO 04004KT 0650NDV R01/P2000N R19/1900D FG VV001 04/03 Q1018=
201011201920 METAR ESMX 201920Z AUTO 03003KT 1500NDV BR VV002 04/03 Q1018=
201011201850 METAR ESMX 201850Z AUTO 04004KT 3600NDV BR VV002 04/03 Q1018=
201011201820 METAR ESMX 201820Z AUTO 05003KT 020V080 6000NDV BR OVC001/// 04/03 Q1018=
201011201750 METAR ESMX 201750Z AUTO 04003KT 4600NDV OVC001/// 04/03 Q1018=
201011201720 METAR ESMX 201720Z AUTO 05003KT 010V100 9999NDV OVC001/// 04/03 Q1018=
201011201650 METAR ESMX 201650Z AUTO 04003KT 9999NDV OVC002/// 04/03 Q1017=
201011201620 METAR ESMX 201620Z AUTO 04004KT 9999NDV BKN004/// OVC007/// 04/03 Q1017=
201011201550 METAR ESMX 201550Z AUTO 04002KT 9999NDV OVC017/// 04/03 Q1017=
201011201520 METAR ESMX 201520Z AUTO VRB02KT 9999NDV FEW013/// SCT018/// BKN040/// 04/03 Q1017=
201011201450 METAR ESMX 201450Z AUTO 07003KT 030V100 9999NDV DZ FEW014/// SCT034/// BKN041/// 04/03 Q1017=
201011201420 METAR ESMX 201420Z AUTO 07003KT 020V110 9999NDV FEW006/// OVC015/// 04/03 Q1017=
201011201350 METAR ESMX 201350Z AUTO 07003KT 9999NDV BKN017/// OVC020/// 04/03 Q1017=
201011201320 METAR ESMX 201320Z AUTO 00000KT 9999NDV OVC018/// 04/04 Q1017=
201011201250 METAR ESMX 201250Z VRB02KT 9999 OVC020 04/03 Q1017=
201011201220 METAR ESMX 201220Z VRB02KT 9999 OVC020 04/03 Q1017=
201011201150 METAR ESMX 201150Z VRB02KT 9999 FEW006 OVC020 04/03 Q1017=
201011201120 METAR ESMX 201120Z VRB02KT 9999 SCT005 BKN008 OVC021 04/03 Q1017=
201011201050 METAR ESMX 201050Z VRB02KT 9999 FEW004 OVC006 04/03 Q1017=
201011201020 METAR ESMX 201020Z 17004KT 9999 FEW005 SCT008 BKN011 04/03 Q1017=
201011200950 METAR ESMX 200950Z VRB02KT 9999 FEW005 BKN071 04/03 Q1017=
201011200920 METAR ESMX 200920Z 09003KT 020V140 9999 FEW003 BKN020 04/03 Q1016=
201011200850 METAR ESMX 200850Z VRB01KT 9999 OVC004 03/02 Q1016=
201011200820 METAR ESMX 200820Z 16004KT 120V200 5000 BR BKN003 BKN016 02/02 Q1016=
201011200750 METAR ESMX 200750Z 15006KT 080V200 0600 R01/0900 R19/1000VP2000N FG VV002 03/02 Q1016=
201011200720 METAR ESMX 200720Z 16006KT 110V190 2000 BR OVC002 03/02 Q1016=
201011200650 METAR ESMX 200650Z AUTO 14004KT 080V190 0650NDV R01/1200VP2000N R19/P2000N FG OVC001/// 03/03 Q1015=
201011200620 METAR ESMX 200620Z AUTO 14003KT 090V170 0400NDV R01/1300D R19/P2000N FG OVC001/// 03/03 Q1015=
201011200550 METAR ESMX 200550Z AUTO 13003KT 080V170 1600NDV BR OVC001/// 03/03 Q1014=
201011200520 METAR ESMX 200520Z AUTO VRB02KT 1700NDV BR OVC001/// 03/03 Q1014=
201011200450 METAR ESMX 200450Z AUTO 05003KT 360V080 1800NDV BR VV002 03/03 Q1014=
201011200420 METAR ESMX 200420Z AUTO 05004KT 020V080 2700NDV BR OVC002/// 03/02 Q1014=
201011200350 METAR ESMX 200350Z AUTO 04008KT 2900NDV -DZ OVC003/// 03/02 Q1013=
201011200320 METAR ESMX 200320Z AUTO 04007KT 3300NDV DZ FEW003/// OVC004/// 02/02 Q1013=
201011200250 METAR ESMX 200250Z AUTO 04007KT 010V070 3000NDV DZ OVC004/// 02/02 Q1013=
201011200220 METAR ESMX 200220Z AUTO 04009KT 010V080 9999NDV OVC005/// 02/02 Q1013=
201011200150 METAR ESMX 200150Z AUTO 03008KT 360V060 6000NDV BR OVC005/// 02/01 Q1013=
201011200120 METAR ESMX 200120Z AUTO 03009KT 8000NDV BR OVC005/// 02/01 Q1013=
201011200050 METAR ESMX 200050Z AUTO 03010KT 7000NDV BR OVC005/// 02/01 Q1013=
201011200020 METAR ESMX 200020Z AUTO 03010KT 350V060 9999NDV OVC006/// 01/01 Q1014=
201011192350 METAR ESMX 192350Z AUTO 03011KT 9999NDV -DZ OVC006/// 01/01 Q1014=
201011192320 METAR ESMX 192320Z AUTO 03010KT 8000NDV RA OVC006/// 01/01 Q1014 REDZ=
201011192250 METAR ESMX 192250Z AUTO 03010KT 350V060 8000NDV -RA OVC006/// 01/00 Q1014 RERA=
201011192220 METAR ESMX 192220Z AUTO 03011KT 360V070 5000NDV RA FEW005/// BKN007/// OVC010/// 01/00 Q1014=
201011192150 METAR ESMX 192150Z AUTO 03010KT 4600NDV -RA OVC007/// 01/00 Q1014=
201011192120 METAR ESMX 192120Z 02011KT 9999 -RASN FEW007 OVC009 01/00 Q1014=
201011192050 METAR ESMX 192050Z 03011KT 9999 -RASN FEW008 OVC009 01/00 Q1014=
201011192020 METAR ESMX 192020Z 03012KT 010V070 9999 -RASN FEW008 OVC010 01/01 Q1015=
201011191950 METAR ESMX 191950Z 02012KT 9999 -RASN FEW008 OVC010 01/00 Q1015=
201011191920 METAR ESMX 191920Z 02011KT 350V060 9999 -RASN OVC008 01/00 Q1015=
201011191850 METAR ESMX 191850Z 03011KT 360V060 9999 -SNRA OVC008 01/00 Q1015=
201011191820 METAR ESMX 191820Z 03012KT 360V070 9999 -SN OVC008 01/00 Q1015=
201011191750 METAR ESMX 191750Z 03011KT 9999 -SN FEW009 OVC011 01/00 Q1015=
201011191720 METAR ESMX 191720Z 03010KT 9000 -SN FEW005 SCT008 BKN009 00/00 Q1015=
201011191650 METAR ESMX 191650Z 03011KT 2500 SN FEW005 BKN008 00/00 Q1015=
201011191620 METAR ESMX 191620Z 02010KT 2000 SN FEW005 SCT007 BKN009 00/M00 Q1015=
201011191550 METAR ESMX 191550Z 03010KT 1900 SN FEW004 SCT007 BKN008 00/M00 Q1015=
201011191520 METAR ESMX 191520Z 02009KT 2000 SN FEW004 BKN007 00/M00 Q1015=
201011191450 METAR ESMX 191450Z 03009KT 360V070 2000 SN FEW004 OVC007 00/M00 Q1015=
201011191420 METAR ESMX 191420Z 01010KT 350V050 2400 SN FEW005 BKN008 01/00 Q1015=
201011191350 METAR ESMX 191350Z 02009KT 4500 SN FEW004 BKN006 01/00 Q1015=
201011191320 METAR ESMX 191320Z 03010KT 2500 SN BKN006 OVC011 01/00 Q1016=
201011191250 METAR ESMX 191250Z 04011KT 010V070 9000 -SNRA OVC009 01/00 Q1016=
201011191220 METAR ESMX 191220Z 04010KT 3500 SNRA OVC009 01/00 Q1016=
201011191150 METAR ESMX 191150Z 03012KT 4500 -SNRA OVC008 01/M00 Q1016=
201011191050 METAR ESMX 191050Z 04010KT 9000 -RASN BKN006 01/M00 Q1016=
201011191020 METAR ESMX 191020Z 03012KT 350V060 6000 OVC006 01/M01 Q1016=
201011190950 METAR ESMX 190950Z 04012KT 360V070 9999 OVC008 01/M01 Q1017=
201011190920 METAR ESMX 190920Z 04010KT 360V070 9999 OVC010 01/M01 Q1017=
201011190850 METAR ESMX 190850Z 04011KT 010V070 6000 SG OVC009 01/M01 Q1017=
201011190820 METAR ESMX 190820Z 04010KT 9999 -SN OVC009 01/M01 Q1017=
201011190750 METAR ESMX 190750Z 03010KT 360V070 9999 OVC010 01/M01 Q1017=
201011190720 METAR ESMX 190720Z 03010KT 9999 OVC009 01/M01 Q1017=
201011190650 METAR ESMX 190650Z 02010KT 330V050 9999 OVC009 00/M01 Q1017=
201011190620 METAR ESMX 190620Z 04010KT 360V070 9999 OVC010 00/M02 Q1017=
201011190550 METAR ESMX 190550Z 04010KT 360V070 9999 OVC011 00/M02 Q1017=
201011190520 METAR ESMX 190520Z 03011KT 9999 OVC011 00/M02 Q1017=
201011190450 METAR ESMX 190450Z 04011KT 010V070 9999 OVC011 00/M02 Q1017=
201011190420 METAR ESMX 190420Z AUTO 03010KT 9999NDV -SN OVC011/// 00/M02 Q1017 REUP=
201011190350 METAR ESMX 190350Z AUTO 04011KT 360V070 9999NDV OVC011/// 00/M02 Q1017=
201011190320 METAR ESMX 190320Z AUTO 04013KT 9999NDV OVC011/// 00/M02 Q1017=
201011190250 METAR ESMX 190250Z AUTO 03010KT 350V070 9999NDV OVC012/// 00/M02 Q1017=
201011190220 METAR ESMX 190220Z AUTO 03011KT 350V060 9999NDV OVC012/// 00/M02 Q1017=
201011190150 METAR ESMX 190150Z AUTO 04010KT 020V080 9999NDV OVC012/// 00/M02 Q1018=
201011190120 METAR ESMX 190120Z AUTO 04010KT 9999NDV OVC013/// 00/M02 Q1017=
201011190050 METAR ESMX 190050Z AUTO 04010KT 010V070 9999NDV OVC012/// 00/M02 Q1018=
201011190020 METAR ESMX 190020Z 03010KT 350V070 9999 OVC012 00/M02 Q1018=
201011182350 METAR ESMX 182350Z 04011KT 010V070 9999 OVC012 00/M02 Q1018=
201011182320 METAR ESMX 182320Z 04012KT 360V060 9999 OVC012 00/M02 Q1018=
201011182250 METAR ESMX 182250Z 04013KT 9999 OVC012 00/M02 Q1018=
201011182220 METAR ESMX 182220Z 03011KT 010V070 9999 BKN013 OVC025 00/M02 Q1018=
201011182150 METAR ESMX 182150Z 04011KT 010V080 9999 OVC012 01/M02 Q1019=
201011182120 METAR ESMX 182120Z 04009KT 010V070 9999 OVC013 01/M02 Q1018=
201011182050 METAR ESMX 182050Z 04010KT 010V080 9999 BKN011 OVC026 01/M02 Q1018=
201011182020 METAR ESMX 182020Z 04012KT 9999 OVC011 01/M02 Q1018=
201011181950 METAR ESMX 181950Z 04011KT 010V070 9999 OVC011 01/M02 Q1018=
201011181920 METAR ESMX 181920Z 05008KT 020V100 9999 OVC012 01/M02 Q1018=
201011181850 METAR ESMX 181850Z 04011KT 020V080 9999 OVC012 01/M02 Q1018=
201011181820 METAR ESMX 181820Z 04012KT 9999 BKN012 01/M02 Q1018=
201011181750 METAR ESMX 181750Z 04012KT 010V070 9999 -SN OVC011 01/M01 Q1018=
201011181720 METAR ESMX 181720Z 04011KT 010V070 9999 -SN OVC009 01/M01 Q1018=
201011181650 METAR ESMX 181650Z 04010KT 8000 -SHSN BKN011 01/M01 Q1018 RESN=
201011181550 METAR ESMX 181550Z 04010KT 9999 OVC010 01/M01 Q1017=
201011181520 METAR ESMX 181520Z 03009KT 9999 OVC010 01/M01 Q1017=
201011181450 METAR ESMX 181450Z 04010KT 360V070 9999 BKN010 OVC016 01/M01 Q1017=
201011181420 METAR ESMX 181420Z 03012KT 9999 BKN010 01/M01 Q1017=
201011181250 METAR ESMX 181250Z 04009KT 010V080 9999 OVC010 01/M01 Q1017=
201011181220 METAR ESMX 181220Z 04010KT 010V080 9999 OVC010 01/M01 Q1017=
201011181150 METAR ESMX 181150Z 04011KT 9999 BKN010 01/M01 Q1017=
201011181120 METAR ESMX 181120Z 03011KT 9999 OVC011 01/M01 Q1017=
201011181050 METAR ESMX 181050Z 03010KT 340V070 9999 BKN010 01/M01 Q1017=
201011181020 METAR ESMX 181020Z 04010KT 360V060 9999 OVC009 01/M01 Q1017=
201011180950 METAR ESMX 180950Z 03011KT 350V070 9999 OVC010 01/M01 Q1017=
201011180920 METAR ESMX 180920Z 04010KT 9999 OVC008 01/M01 Q1018=
201011180850 METAR ESMX 180850Z 04010KT 350V080 9999 OVC008 01/M01 Q1018=
201011180820 METAR ESMX 180820Z 03010KT 010V070 9999 OVC009 01/M01 Q1017=
201011180750 METAR ESMX 180750Z 02009KT 350V060 9999 OVC009 01/M01 Q1017=
201011180720 METAR ESMX 180720Z 03011KT 9999 OVC009 01/M01 Q1017=
201011180650 METAR ESMX 180650Z 03011KT 350V080 9999 OVC009 01/M01 Q1017=
201011180620 METAR ESMX 180620Z 04013KT 360V070 9999 OVC009 01/M01 Q1017=
201011180550 METAR ESMX 180550Z 04011KT 350V070 9999 OVC010 01/M01 Q1017=
201011180520 METAR ESMX 180520Z 03011KT 010V080 9999 OVC012 01/M01 Q1017=
201011180450 METAR ESMX 180450Z 03011KT 350V060 9999 OVC013 01/M01 Q1017=
201011180420 METAR ESMX 180420Z AUTO 03010KT 360V060 9999NDV OVC014/// 01/M02 Q1017=
201011180350 METAR ESMX 180350Z AUTO 04012KT 360V060 9999NDV SCT017/// OVC029/// 01/M02 Q1017=
201011180320 METAR ESMX 180320Z AUTO 03010KT 9999NDV BKN030/// 01/M02 Q1018=
201011180250 METAR ESMX 180250Z AUTO 04011KT 9999NDV OVC031/// 01/M02 Q1018=
201011180220 METAR ESMX 180220Z AUTO 04012KT 350V080 9999NDV BKN032/// 01/M02 Q1018=
201011180150 METAR ESMX 180150Z AUTO 03013KT 010V070 9999NDV FEW016/// OVC033/// 01/M02 Q1018=
201011180120 METAR ESMX 180120Z AUTO 03011KT 9999NDV SCT033/// 01/M02 Q1018=
201011180050 METAR ESMX 180050Z AUTO 04011KT 9999NDV BKN033/// 01/M02 Q1019=
201011180020 METAR ESMX 180020Z 04014KT 9999 SCT035 01/M02 Q1019=
201011172350 METAR ESMX 172350Z 04010KT 010V070 9999 FEW035 01/M02 Q1019=
201011172320 METAR ESMX 172320Z 04010KT 020V080 9999 SCT035 01/M02 Q1019=
201011172250 METAR ESMX 172250Z 05011KT 020V090 9999 FEW018 BKN020 02/M02 Q1019=
201011172220 METAR ESMX 172220Z 04013KT 020V100 9999 FEW018 SCT038 OVC100 02/M01 Q1020=
201011172150 METAR ESMX 172150Z 04013KT 010V080 9999 FEW015 SCT019 BKN100 02/M01 Q1020=
201011172120 METAR ESMX 172120Z 04012KT 020V080 9999 SCT016 BKN020 BKN100 02/M01 Q1020=
201011172050 METAR ESMX 172050Z 04012KT 020V080 9999 FEW014 SCT016 BKN037 02/M01 Q1020=
201011172020 METAR ESMX 172020Z 04011KT 010V080 9999 FEW013 SCT024 BKN036 02/M00 Q1021=
201011171950 METAR ESMX 171950Z 04011KT 9999 FEW006 SCT012 BKN020 02/M00 Q1021=
201011171920 METAR ESMX 171920Z 05011KT 020V080 9999 BKN015 02/M00 Q1021=
201011171850 METAR ESMX 171850Z 05010KT 020V080 9999 SCT014 BKN020 02/M00 Q1021=
201011171820 METAR ESMX 171820Z 05011KT 010V080 9999 BKN014 BKN022 02/M00 Q1021=
201011171750 METAR ESMX 171750Z 05011KT 020V090 9999 BKN013 02/M00 Q1022=
201011171720 METAR ESMX 171720Z 05011KT 9999 BKN014 02/M00 Q1022=
201011171650 METAR ESMX 171650Z 04010KT 9999 BKN014 02/M00 Q1022=
201011171620 METAR ESMX 171620Z 05010KT 020V080 9999 BKN013 02/00 Q1022=
201011171550 METAR ESMX 171550Z 05009KT 020V090 9999 BKN014 02/00 Q1023=
201011171450 METAR ESMX 171450Z 06008KT 020V090 9999 BKN013 03/00 Q1023=
201011171420 METAR ESMX 171420Z 05008KT 020V100 9999 SCT013 BKN031 03/00 Q1023=
201011171350 METAR ESMX 171350Z 05008KT 020V100 9999 SCT012 BKN028 03/01 Q1023=
201011171320 METAR ESMX 171320Z 05010KT 020V100 9999 BKN011 BKN015 03/01 Q1023=
201011171250 METAR ESMX 171250Z 05009KT 020V080 9999 OVC010 03/01 Q1024=
201011171220 METAR ESMX 171220Z 04010KT 9999 FEW009 OVC010 03/01 Q1024=
201011171150 METAR ESMX 171150Z 05007KT 020V080 9999 SCT009 BKN011 OVC013 03/01 Q1024=
201011171120 METAR ESMX 171120Z 05008KT 020V080 9999 BKN010 03/01 Q1025=
201011171050 METAR ESMX 171050Z 05006KT 010V090 9999 BKN008 02/01 Q1025=
201011170950 METAR ESMX 170950Z 05006KT 010V080 9999 BKN006 OVC009 02/01 Q1026=
201011170920 METAR ESMX 170920Z 06005KT 020V100 9999 OVC006 02/01 Q1026=
201011170850 METAR ESMX 170850Z 05005KT 020V090 9999 FEW007 BKN010 02/01 Q1026=
201011170820 METAR ESMX 170820Z 04007KT 9999 SCT008 BKN017 01/00 Q1026=
201011170750 METAR ESMX 170750Z 04007KT 020V080 9999 SCT007 BKN010 01/01 Q1026=
201011170720 METAR ESMX 170720Z 05007KT 010V090 9999 OVC006 01/00 Q1026=
201011170650 METAR ESMX 170650Z 06005KT 020V100 9999 BKN006 01/00 Q1026=
201011170620 METAR ESMX 170620Z 07006KT 020V110 9999 OVC005 01/01 Q1026=
201011170550 METAR ESMX 170550Z 07008KT 030V120 9999 OVC006 01/01 Q1026=
201011170520 METAR ESMX 170520Z 04005KT 340V070 9999 SCT008 BKN010 01/01 Q1026=
201011170450 METAR ESMX 170450Z 03005KT 340V080 9999 BKN009 01/00 Q1026=
201011170420 METAR ESMX 170420Z AUTO 02004KT 350V060 9999NDV FEW006/// OVC009/// 01/01 Q1026=
201011170350 METAR ESMX 170350Z AUTO 07004KT 020V130 9999NDV OVC005/// 01/01 Q1027=
201011170320 METAR ESMX 170320Z AUTO 09004KT 040V140 9999NDV SCT001/// OVC004/// 01/00 Q1027=
201011170250 METAR ESMX 170250Z AUTO 07004KT 040V110 1300NDV R01/P2000N R19/P2000N FG OVC001/// 00/00 Q1027=
201011170220 METAR ESMX 170220Z AUTO 07005KT 020V110 1000NDV R01/P2000N R19/P2000N VV002 00/M00 Q1027=
201011170150 METAR ESMX 170150Z AUTO 07006KT 020V110 0300NDV R01/1100N R19/1200V1800N FZUP VV001 M00/M01 Q1027=
201011170120 METAR ESMX 170120Z AUTO 07004KT 040V110 9999NDV FEW004/// M01/M01 Q1027=
201011170050 METAR ESMX 170050Z 06003KT 010V100 CAVOK M02/M02 Q1027=
201011170020 METAR ESMX 170020Z 15004KT CAVOK M01/M02 Q1027=
201011162350 METAR ESMX 162350Z 15003KT CAVOK M04/M04 Q1027=
201011162320 METAR ESMX 162320Z 15003KT CAVOK M03/M04 Q1027=
201011162250 METAR ESMX 162250Z 15003KT 6000 BR NSC M03/M03 Q1027=
201011162220 METAR ESMX 162220Z 15002KT 2500 BR NSC M02/M03 Q1027=
201011162150 METAR ESMX 162150Z 03002KT 2500 BR NSC M02/M03 Q1027=
201011162120 METAR ESMX 162120Z 02002KT 2500 BR NSC M02/M02 Q1027=
201011162050 METAR ESMX 162050Z 03002KT 2500 BR FEW003 M02/M02 Q1027=
201011162020 METAR ESMX 162020Z 04003KT 0700 R01/P2000N R19/P2000N FZFG VV004 M01/M02 Q1027=
201011161950 METAR ESMX 161950Z 15002KT 0450 R01/0900N R19/P2000D FZFG VV004 M02/M02 Q1027=
201011161920 METAR ESMX 161920Z 05002KT 0450 R01/1200D R19/1100VP2000D FZFG VV003 M02/M02 Q1027=
201011161850 METAR ESMX 161850Z 01003KT 0200 R01/0650 R19/0800V1300U FZFG VV002 M02/M02 Q1027=
201011161820 METAR ESMX 161820Z 35001KT 0100 R01/0250 R19/0600 FZFG VV002 M02/M02 Q1027=
201011161750 METAR ESMX 161750Z 15002KT 0100 R01/0300 R19/0700VP2000D FZFG VV002 M02/M02 Q1027=
201011161720 METAR ESMX 161720Z 36001KT 0900 R01/1000N R19/P2000N FZFG VV002 M02/M02 Q1026=
201011161650 METAR ESMX 161650Z 35001KT 7000 BCFG FEW002 M01/M02 Q1026=
201011161620 METAR ESMX 161620Z 00000KT 0900 R01/1000VP2000N R19/P2000N FZFG NSC M01/M01 Q1026=
201011161550 METAR ESMX 161550Z 00000KT 3000 BR NSC M01/M01 Q1026=
201011161520 METAR ESMX 161520Z 00000KT 9999 BCFG NSC M01/M01 Q1026=
201011161450 METAR ESMX 161450Z 18001KT CAVOK 00/M00 Q1026=
201011161420 METAR ESMX 161420Z 00000KT CAVOK 00/M00 Q1026=
201011161350 METAR ESMX 161350Z 00000KT CAVOK 01/01 Q1025=
201011161320 METAR ESMX 161320Z 02002KT CAVOK 01/01 Q1025=
201011161250 METAR ESMX 161250Z 02002KT CAVOK 02/01 Q1025=
201011161220 METAR ESMX 161220Z 01002KT CAVOK 01/01 Q1025=
201011161150 METAR ESMX 161150Z 35002KT CAVOK 01/01 Q1025=
201011161120 METAR ESMX 161120Z 33001KT CAVOK 01/00 Q1025=
201011161050 METAR ESMX 161050Z VRB02KT CAVOK 00/M00 Q1025=
201011161020 METAR ESMX 161020Z 29001KT CAVOK 00/M00 Q1024=
201011160950 METAR ESMX 160950Z 00000KT CAVOK 00/00 Q1024=
201011160920 METAR ESMX 160920Z VRB01KT CAVOK M00/M01 Q1024=
201011160850 METAR ESMX 160850Z VRB01KT CAVOK M01/M01 Q1024=
201011160820 METAR ESMX 160820Z 17003KT CAVOK M01/M01 Q1023=
201011160750 METAR ESMX 160750Z 19002KT CAVOK M02/M02 Q1023=
201011160720 METAR ESMX 160720Z 17002KT 9999 FEW002 SCT200 M03/M03 Q1023=
201011160650 METAR ESMX 160650Z VRB01KT 9999 R01/P2000N R19/P2000D BCFG NSC M02/M02 Q1022=
201011160620 METAR ESMX 160620Z VRB02KT 9999 BCFG NSC M01/M01 Q1021=
201011160550 METAR ESMX 160550Z VRB02KT CAVOK M01/M01 Q1021=
201011160520 METAR ESMX 160520Z 29002KT CAVOK M00/M01 Q1021=
201011160450 METAR ESMX 160450Z 31003KT CAVOK M02/M02 Q1020=
201011160420 METAR ESMX 160420Z AUTO 30002KT 9000NDV BR NCD M01/M01 Q1020=
201011160350 METAR ESMX 160350Z AUTO 32002KT 9999NDV NCD M00/M01 Q1020=
201011160320 METAR ESMX 160320Z AUTO 30003KT 9999NDV NCD M00/M01 Q1020=
201011160250 METAR ESMX 160250Z AUTO 24002KT 6000NDV BR NCD M01/M01 Q1019=
201011160220 METAR ESMX 160220Z AUTO 26003KT 9000NDV BR NCD M01/M02 Q1019=
201011160150 METAR ESMX 160150Z AUTO 23001KT 5000NDV NCD M00/M00 Q1019=
201011160120 METAR ESMX 160120Z AUTO VRB02KT 9999NDV NCD 00/00 Q1019=
201011160050 METAR ESMX 160050Z AUTO 25004KT 9999NDV NCD 00/M00 Q1018=
201011160020 METAR ESMX 160020Z VRB01KT 9999 FEW003 00/M00 Q1018=
201011152350 METAR ESMX 152350Z VRB02KT 9999 FEW002 00/M00 Q1017=
201011152320 METAR ESMX 152320Z 25005KT CAVOK 01/00 Q1017=
201011152250 METAR ESMX 152250Z 25004KT 220V310 CAVOK 01/00 Q1017=
201011152220 METAR ESMX 152220Z 25003KT CAVOK 01/01 Q1016=
201011152150 METAR ESMX 152150Z 22003KT 190V250 CAVOK 02/01 Q1016=
201011152120 METAR ESMX 152120Z 22005KT 9999 FEW020 02/01 Q1015=
201011152050 METAR ESMX 152050Z 25005KT 9999 FEW020 03/01 Q1015=
201011152020 METAR ESMX 152020Z 26004KT 9999 FEW017 SCT022 04/02 Q1014=
201011151950 METAR ESMX 151950Z 27008KT 240V300 9999 BKN020 04/02 Q1013=
201011151920 METAR ESMX 151920Z 26007KT 9999 FEW015 BKN020 05/03 Q1013=
201011151850 METAR ESMX 151850Z 25006KT 9999 FEW016 SCT020 04/02 Q1012=
201011151820 METAR ESMX 151820Z 25007KT 9999 FEW018 SCT021 05/03 Q1011=
201011151750 METAR ESMX 151750Z 26008KT 230V290 9999 FEW019 SCT022 BKN026 06/03 Q1011=
201011151720 METAR ESMX 151720Z 25009KT 9999 FEW018 SCT021 BKN034 06/03 Q1010=
201011151650 METAR ESMX 151650Z 25009KT 9999 FEW015 SCT020 BKN035 06/04 Q1010=
201011151620 METAR ESMX 151620Z 22008KT 9999 SCT016 BKN025 06/04 Q1009=
201011151550 METAR ESMX 151550Z 22008KT 190V260 9999 FEW017 SCT020 BKN024 06/04 Q1008=
201011151520 METAR ESMX 151520Z 23007KT 9999 FEW015 SCT021 BKN026 06/04 Q1008=
201011151450 METAR ESMX 151450Z 24008KT 8000 -RA FEW017 SCT021 BKN027 07/04 Q1008=
201011151420 METAR ESMX 151420Z 24007KT 210V280 9999 FEW018 SCT022 BKN026 07/04 Q1007=
201011151350 METAR ESMX 151350Z 23008KT 210V290 9999 SCT020 BKN030 07/04 Q1007=
201011151320 METAR ESMX 151320Z 24009KT 9999 FEW018 BKN030 07/04 Q1006=
201011151250 METAR ESMX 151250Z 24009KT 9999 FEW020 BKN024 07/04 Q1006=
201011151220 METAR ESMX 151220Z 24014KT 9999 FEW018 SCT022 BKN025 07/04 Q1006=
201011151150 METAR ESMX 151150Z 24010KT 200V280 9999 FEW017 SCT020 BKN024 07/04 Q1005=
201011151120 METAR ESMX 151120Z 26010KT 9999 SCT016 BKN025 07/04 Q1004=
201011151050 METAR ESMX 151050Z 25011KT 230V290 9999 FEW013 SCT018 BKN020 06/04 Q1004=
201011151020 METAR ESMX 151020Z 26011KT 230V290 9999 SCT011 BKN015 OVC018 06/04 Q1003=
201011150950 METAR ESMX 150950Z 26011KT 9999 OVC010 06/04 Q1003=
201011150920 METAR ESMX 150920Z 26014KT 9999 OVC011 06/04 Q1002=
201011150850 METAR ESMX 150850Z 26015KT 9999 FEW010 SCT013 BKN015 07/04 Q1000=
201011150820 METAR ESMX 150820Z 24023G33KT 9999 SCT012 BKN017 08/06 Q0999 RERA=
201011150750 METAR ESMX 150750Z 20015KT 9999 SCT012 BKN018 09/07 Q0997=
201011150720 METAR ESMX 150720Z 20014KT 160V230 9999 FEW013 BKN016 OVC019 09/07 Q0997=
201011150650 METAR ESMX 150650Z 19013KT 9999 FEW013 SCT015 BKN019 09/08 Q0996=
201011150620 METAR ESMX 150620Z 20012KT 170V230 9999 FEW015 SCT020 OVC062 10/08 Q0996=
201011150550 METAR ESMX 150550Z 19013KT 9999 FEW010 BKN015 10/08 Q0996=
201011150520 METAR ESMX 150520Z 19012KT 9999 FEW007 BKN010 10/09 Q0996=
201011150450 METAR ESMX 150450Z 17011KT 150V210 9999 FEW005 BKN008 10/09 Q0996=
201011150420 METAR ESMX 150420Z AUTO 16008KT 120V200 7000NDV BR FEW005/// SCT007/// BKN008/// 09/09 Q0996=
201011150350 METAR ESMX 150350Z AUTO 18008KT 9000NDV BR FEW004/// BKN006/// OVC010/// 09/08 Q0996=
201011150320 METAR ESMX 150320Z AUTO 16006KT 5000NDV BR BKN001/// OVC011/// 07/07 Q0996=
201011150250 METAR ESMX 150250Z AUTO 15006KT 110V170 4800NDV BR BKN001/// OVC004/// 06/06 Q0996 REDZ=
201011150220 METAR ESMX 150220Z AUTO 14003KT 110V170 3000NDV DZ OVC001/// 06/05 Q0997=
201011150150 METAR ESMX 150150Z AUTO VRB02KT 3000NDV DZ OVC001/// 06/05 Q0997=
201011150120 METAR ESMX 150120Z AUTO 13003KT 080V170 1600NDV DZ VV001 06/05 Q0997=
201011150050 METAR ESMX 150050Z 13004KT 080V180 1500 -RA BR OVC000 05/05 Q0997=
201011150020 METAR ESMX 150020Z 12004KT 070V160 3100 BR OVC001 05/05 Q0997=
201011142350 METAR ESMX 142350Z 12003KT 070V170 5000 -RA BR OVC002 05/04 Q0997 RERA=
201011142250 METAR ESMX 142250Z 10003KT 050V160 4000 -RA BR FEW003 BKN006 05/04 Q0997=
201011142220 METAR ESMX 142220Z 11003KT 050V190 4100 -DZ BR BKN003 OVC007 05/04 Q0997=
201011142150 METAR ESMX 142150Z 07003KT 030V120 6000 -DZBR FEW003 BKN005 05/04 Q0997=
201011142120 METAR ESMX 142120Z 04004KT 010V080 4000 -DZ BR FEW003 OVC005 05/04 Q0997=
201011142050 METAR ESMX 142050Z 04005KT 020V080 8000 -DZ BR SCT002 OVC004 05/04 Q0997=
201011142020 METAR ESMX 142020Z 05007KT 5000 -DZ BR OVC003 05/04 Q0997=
201011141950 METAR ESMX 141950Z 05004KT 010V120 5000 -DZ BR FEW002 BKN003 05/04 Q0996 REDZ=
201011141920 METAR ESMX 141920Z 05007KT 020V080 4500 DZ SCT002 OVC004 05/04 Q0996=
201011141850 METAR ESMX 141850Z 04007KT 5000 DZ BKN003 OVC005 05/04 Q0996=
201011141820 METAR ESMX 141820Z 04007KT 4500 DZ BKN003 OVC005 05/04 Q0997=
201011141750 METAR ESMX 141750Z 04007KT 5000 -DZ SCT003 BKN005 05/04 Q0996=
201011141720 METAR ESMX 141720Z 03005KT 350V060 4500 DZ FEW004 SCT020 BKN027 05/04 Q0996=
201011141650 METAR ESMX 141650Z 03007KT 010V070 5000 DZ FEW003 BKN026 05/04 Q0997=
201011141620 METAR ESMX 141620Z 04005KT 5000 DZ FEW010 BKN024 05/04 Q0997=
201011141550 METAR ESMX 141550Z VRB02KT 4500 DZ FEW006 SCT014 BKN027 05/04 Q0997=
201011141520 METAR ESMX 141520Z 05003KT 020V090 5000 -RA SCT005 SCT022 05/05 Q0997=
201011141450 METAR ESMX 141450Z VRB02KT 6000 -RA FEW005 SCT022 05/05 Q0997=
201011141420 METAR ESMX 141420Z 14004KT 100V170 5000 -RA SCT024 05/05 Q0997=
201011141350 METAR ESMX 141350Z 14003KT 090V190 9000 -RA FEW015 SCT027 06/04 Q0997=
201011141320 METAR ESMX 141320Z 15004KT 080V190 9999 -RA SCT045 06/04 Q0997=
201011141250 METAR ESMX 141250Z 15004KT 110V180 CAVOK 06/04 Q0997=
201011141220 METAR ESMX 141220Z 16004KT 110V200 9999 FEW006 06/04 Q0997=
201011141150 METAR ESMX 141150Z 16005KT 9999 SCT005 06/04 Q0997=
201011141120 METAR ESMX 141120Z 18004KT 160V220 9999 FEW006 06/04 Q0998=
201011141050 METAR ESMX 141050Z 18007KT 9999 FEW006 SCT008 06/04 Q0998=
201011141020 METAR ESMX 141020Z 18007KT 9999 BKN006 06/04 Q0998=
201011140950 METAR ESMX 140950Z 19006KT 9999 BKN005 05/04 Q0998=
201011140920 METAR ESMX 140920Z AUTO 19008KT 9999NDV BKN004/// 05/04 Q0998=
201011140850 METAR ESMX 140850Z AUTO 19008KT 9999NDV OVC003/// 05/04 Q0998=
201011140820 METAR ESMX 140820Z AUTO 20009KT 9000NDV BR OVC002/// 04/04 Q0997=
201011140750 METAR ESMX 140750Z AUTO 19007KT 9000NDV OVC002/// 04/03 Q0997=
201011140720 METAR ESMX 140720Z AUTO 20005KT 9999NDV OVC003/// 03/03 Q0997=
201011140650 METAR ESMX 140650Z AUTO 20007KT 9000NDV OVC005/// 03/03 Q0996=
201011140620 METAR ESMX 140620Z AUTO 21008KT 9999NDV SCT006/// BKN009/// BKN013/// 04/03 Q0996=
201011140550 METAR ESMX 140550Z AUTO 22008KT 9999NDV BKN007/// BKN012/// 04/03 Q0996=
201011140520 METAR ESMX 140520Z AUTO 22008KT 9999NDV OVC006/// 04/03 Q0995=
201011140450 METAR ESMX 140450Z AUTO 20008KT 9999NDV FEW007/// BKN009/// 04/03 Q0995=
201011140420 METAR ESMX 140420Z AUTO 20008KT 170V230 9999NDV SCT008/// OVC010/// 04/03 Q0995=
201011140350 METAR ESMX 140350Z AUTO 22009KT 9999NDV OVC008/// 05/03 Q0995=
201011140320 METAR ESMX 140320Z AUTO 21008KT 9999NDV FEW007/// BKN008/// OVC011/// 05/03 Q0994=
201011140250 METAR ESMX 140250Z AUTO 22010KT 9999NDV OVC008/// 05/03 Q0994=
201011140220 METAR ESMX 140220Z AUTO 21011KT 9999NDV FEW008/// OVC009/// 05/03 Q0993=
201011140150 METAR ESMX 140150Z AUTO 20009KT 9999NDV OVC009/// 05/03 Q0993=
201011140120 METAR ESMX 140120Z AUTO 22010KT 9999NDV OVC010/// 05/03 Q0993=
201011140050 METAR ESMX 140050Z AUTO 22010KT 170V250 9999NDV FEW011/// SCT014/// BKN018/// 05/04 Q0992=
201011140020 METAR ESMX 140020Z AUTO 21011KT 170V240 9999NDV FEW012/// BKN021/// 05/04 Q0992=
201011132350 METAR ESMX 132350Z AUTO 22009KT 9999NDV FEW012/// SCT016/// BKN022/// 05/04 Q0991=
201011132320 METAR ESMX 132320Z AUTO 23010KT 9999NDV FEW015/// SCT024/// BKN036/// 06/04 Q0991=
201011132250 METAR ESMX 132250Z AUTO 22011KT 190V250 9999NDV FEW013/// SCT017/// BKN022/// 06/04 Q0991=
201011132220 METAR ESMX 132220Z AUTO 21011KT 9999NDV FEW018/// SCT022/// BKN026/// 06/04 Q0990=
201011132150 METAR ESMX 132150Z AUTO 22011KT 9999NDV FEW015/// SCT019/// BKN021/// 06/04 Q0990=
201011132120 METAR ESMX 132120Z AUTO 23009KT 9999NDV FEW017/// SCT023/// OVC041/// 06/04 Q0990=
201011132050 METAR ESMX 132050Z AUTO 22009KT 9999NDV FEW015/// BKN041/// 06/04 Q0989=
201011132020 METAR ESMX 132020Z AUTO 23009KT 9999NDV FEW007/// SCT011/// BKN014/// 06/04 Q0989=
201011131950 METAR ESMX 131950Z AUTO 23007KT 190V260 9999NDV FEW014/// SCT019/// BKN026/// 06/05 Q0988 REDZ=
201011131920 METAR ESMX 131920Z AUTO 24010KT 200V280 9999NDV -DZ FEW013/// SCT018/// BKN033/// 06/04 Q0988 REDZ=
201011131850 METAR ESMX 131850Z AUTO 26011KT 8000NDV -RA FEW015/// SCT017/// BKN021/// 06/04 Q0987=
201011131820 METAR ESMX 131820Z AUTO 23012G23KT 200V260 9999NDV FEW014/// BKN017/// OVC021/// 06/04 Q0987=
201011131750 METAR ESMX 131750Z AUTO 23012KT 200V260 9999NDV FEW015/// BKN018/// OVC023/// 06/04 Q0986=
201011131720 METAR ESMX 131720Z AUTO 24012KT 9999NDV FEW017/// OVC022/// 07/04 Q0986=
201011131650 METAR ESMX 131650Z AUTO 24010KT 9999NDV FEW014/// BKN020/// OVC028/// 06/04 Q0985=
201011131620 METAR ESMX 131620Z AUTO 23011KT 9999NDV -DZ FEW016/// BKN018/// OVC024/// 07/04 Q0985 REDZ=
201011131550 METAR ESMX 131550Z AUTO 24011KT 9000NDV -DZ FEW019/// BKN022/// 07/04 Q0984=
201011131520 METAR ESMX 131520Z AUTO 23014KT 9999NDV -DZ FEW020/// SCT028/// BKN032/// 07/04 Q0984=
201011131450 METAR ESMX 131450Z AUTO 22013KT 9999NDV FEW027/// SCT032/// BKN038/// 07/04 Q0983=
201011131420 METAR ESMX 131420Z AUTO 22010KT 190V260 9999NDV FEW025/// BKN035/// 07/04 Q0983 REDZ=
201011131350 METAR ESMX 131350Z AUTO 24010KT 9999NDV -DZ FEW019/// SCT034/// BKN039/// 07/04 Q0983=
201011131320 METAR ESMX 131320Z AUTO 22010KT 9999NDV DZ FEW020/// SCT033/// BKN040/// 06/04 Q0982=
201011131250 METAR ESMX 131250Z AUTO 23012KT 170V260 9999NDV -RA FEW023/// SCT031/// BKN038/// 07/04 Q0982 REDZ=
201011131220 METAR ESMX 131220Z 23014KT 200V260 9999 -SHRA FEW016 BKN021 07/04 Q0981=
201011131150 METAR ESMX 131150Z 24010KT 220V280 9999 FEW015 BKN020 07/04 Q0981=
201011131120 METAR ESMX 131120Z 24015KT 9999 -SHRA FEW010 SCT014CB BKN024 07/04 Q0981=
201011131050 METAR ESMX 131050Z 23011KT 190V290 7000 -SHRA FEW007 SCT013CB BKN015 06/05 Q0980 RERA=
201011131020 METAR ESMX 131020Z 24011KT 7000 SHRA FEW011 SCT016CB BKN019 06/05 Q0980=
201011130950 METAR ESMX 130950Z 23013KT 200V270 9000 -SHRA FEW010 SCT015CB OVC020 06/05 Q0980=
201011130920 METAR ESMX 130920Z 22014KT 200V260 9000 -SHRA FEW010 SCT014CB BKN018 06/05 Q0979=
201011130850 METAR ESMX 130850Z 22014G24KT 190V250 8000 -SHRA FEW009 BKN012 06/05 Q0979=
201011130820 METAR ESMX 130820Z 23012KT 6000 -SHRA FEW008 BKN011CB OVC019 06/05 Q0979=
201011130750 METAR ESMX 130750Z 22011KT 8000 -SHRA FEW008 SCT013CB BKN020 06/05 Q0979=
201011130720 METAR ESMX 130720Z AUTO 23011KT 200V260 9999NDV -RA FEW009/// SCT015/// OVC018/// 06/05 Q0979=
201011130650 METAR ESMX 130650Z AUTO 21011KT 170V240 5000NDV -RA FEW010/// SCT013/// BKN017/// 06/05 Q0979=
201011130620 METAR ESMX 130620Z AUTO 22013KT 190V260 6000NDV -DZ FEW008/// OVC010/// 06/05 Q0978=
201011130550 METAR ESMX 130550Z AUTO 23010KT 7000NDV -RA FEW007/// SCT011/// BKN014/// 06/05 Q0978=
201011130520 METAR ESMX 130520Z AUTO 23010KT 200V260 7000NDV -DZ FEW009/// SCT011/// BKN014/// 06/05 Q0978=
201011130450 METAR ESMX 130450Z AUTO 22010KT 9999NDV FEW011/// BKN014/// 06/05 Q0978 REDZ=
201011130420 METAR ESMX 130420Z AUTO 23011KT 190V260 9999NDV BKN012/// OVC019/// 07/05 Q0978=
201011130350 METAR ESMX 130350Z AUTO 23010KT 190V260 9999NDV FEW009/// SCT013/// BKN015/// 07/05 Q0978=
201011130320 METAR ESMX 130320Z AUTO 23008KT 200V260 4400NDV -DZ FEW007/// BKN009/// OVC013/// 06/05 Q0978=
201011130250 METAR ESMX 130250Z AUTO 24006KT 210V280 4700NDV BR OVC010/// 06/05 Q0977=
201011130220 METAR ESMX 130220Z AUTO 24007KT 210V270 4300NDV -RA FEW007/// BKN011/// OVC015/// 06/05 Q0977=
201011130150 METAR ESMX 130150Z AUTO 26010KT 9999NDV FEW015/// OVC018/// 06/04 Q0977=
201011130120 METAR ESMX 130120Z AUTO 26010KT 230V290 9999NDV FEW015/// SCT029/// 06/04 Q0977=
201011130050 METAR ESMX 130050Z AUTO 27012KT 9999NDV OVC014/// 06/04 Q0976=
201011130020 METAR ESMX 130020Z AUTO 25013KT 220V300 9999NDV BKN014/// OVC020/// 06/04 Q0976=
201011122350 METAR ESMX 122350Z AUTO 26011KT 220V290 9999NDV FEW017/// BKN031/// OVC038/// 06/04 Q0976=
201011122320 METAR ESMX 122320Z AUTO 25013KT 9999NDV FEW012/// BKN016/// OVC031/// 07/04 Q0975=
201011122250 METAR ESMX 122250Z AUTO 25012KT 220V290 9999NDV BR FEW011/// BKN014/// OVC020/// 07/05 Q0975 REDZ=
201011122220 METAR ESMX 122220Z AUTO 26012KT 220V290 9999NDV FEW011/// BKN014/// OVC018/// 07/05 Q0974=
201011122150 METAR ESMX 122150Z AUTO 26019KT 9999NDV FEW012/// BKN014/// OVC020/// 07/05 Q0974=
201011122120 METAR ESMX 122120Z AUTO 25015G25KT 220V300 9999NDV FEW006/// BKN011/// BKN019/// 07/05 Q0974=
201011122050 METAR ESMX 122050Z 25011KT 210V280 9999 FEW008 BKN012 07/06 Q0973=
201011122020 METAR ESMX 122020Z 23011KT 200V270 7000 -RA FEW006 BKN009 07/06 Q0973=
201011121950 METAR ESMX 121950Z 24013KT 210V280 6000 -RADZ FEW009 OVC011 07/06 Q0973=
201011121920 METAR ESMX 121920Z 24012KT 8000 -RA FEW008 BKN011 07/05 Q0972=
201011121850 METAR ESMX 121850Z 24012KT 210V280 7000 -RA FEW007 BKN010 07/06 Q0972=
201011121820 METAR ESMX 121820Z 24013KT 200V270 8000 -RA FEW006 BKN010 07/06 Q0971=
201011121750 METAR ESMX 121750Z 23012KT 200V260 8000 -RA SCT005 BKN010 07/06 Q0971=
201011121720 METAR ESMX 121720Z 21014KT 8000 -RA SCT006 BKN015 07/05 Q0971 RERA=
201011121650 METAR ESMX 121650Z 22013KT 170V240 7000 RA FEW008 BKN015 07/06 Q0971=
201011121620 METAR ESMX 121620Z 19012KT 9999 -RA FEW008 BKN019 07/06 Q0971=
201011121550 METAR ESMX 121550Z 19011KT 160V220 7000 -RA FEW012 BKN020 07/06 Q0971=
201011121520 METAR ESMX 121520Z 20013KT 8000 -RA BR FEW011 SCT015 BKN020 07/05 Q0971=
201011121450 METAR ESMX 121450Z 19012KT 7000 -RA BR FEW008 SCT011 BKN015 07/06 Q0971=
201011121420 METAR ESMX 121420Z 20010KT 160V230 8000 -RA BR FEW008 SCT013 BKN023 07/06 Q0971=
201011121350 METAR ESMX 121350Z 19010KT 7000 -RA BR FEW006 SCT011 BKN014 07/06 Q0971=
201011121320 METAR ESMX 121320Z 17007KT 110V210 8000 -RA BR FEW005 SCT007 BKN010 07/06 Q0971=
201011121250 METAR ESMX 121250Z 17008KT 140V200 6000 -RA BR FEW005 SCT008 BKN022 07/06 Q0971=
201011121220 METAR ESMX 121220Z 17008KT 130V200 7000 -RA BR BKN006 BKN009 07/06 Q0972=
201011121150 METAR ESMX 121150Z 16007KT 120V190 5000 -RA BR BKN005 OVC009 07/06 Q0972 RESHRA=
201011121120 METAR ESMX 121120Z 16007KT 130V190 6000 -RA BR BKN005 OVC008 07/06 Q0972=
201011121050 METAR ESMX 121050Z 15007KT 110V190 9000 BR FEW005 BKN007 OVC010 06/06 Q0973=
201011121020 METAR ESMX 121020Z 15006KT 110V170 8000 BR FEW005 SCT008 06/05 Q0973=
201011120950 METAR ESMX 120950Z 16007KT 120V190 9000 BR FEW003 BKN006 06/05 Q0973=
201011120920 METAR ESMX 120920Z 17007KT 140V210 9000 BR SCT003 BKN005 06/05 Q0974=
201011120850 METAR ESMX 120850Z 15006KT 120V190 4300 BR BKN002 OVC005 05/05 Q0974=
201011120820 METAR ESMX 120820Z 16005KT 130V200 3700 -DZ BKN002 05/04 Q0974=
201011120750 METAR ESMX 120750Z 16005KT 130V200 3000 -DZ OVC002 05/04 Q0974=
201011120720 METAR ESMX 120720Z 16005KT 120V190 1600 BR OVC002 04/04 Q0975=
201011120650 METAR ESMX 120650Z 14005KT 110V190 1700 BR OVC002 04/03 Q0975=
201011120620 METAR ESMX 120620Z 14005KT 110V200 3200 DZ OVC002 03/03 Q0975=
201011120550 METAR ESMX 120550Z 16006KT 130V200 5000 BR SCT002 BKN005 03/03 Q0975=
201011120520 METAR ESMX 120520Z 16005KT 110V200 8000 BR FEW003 OVC004 03/02 Q0975=
201011120450 METAR ESMX 120450Z 15006KT 070V190 9999 DZ FEW005 SCT008 OVC010 02/02 Q0975=
201011120420 METAR ESMX 120420Z AUTO 16008KT 110V190 7000NDV -RA FEW006/// BKN007/// OVC010/// 02/02 Q0976=
201011120350 METAR ESMX 120350Z AUTO 16010KT 110V190 8000NDV RA BKN006/// OVC009/// 03/02 Q0976=
201011120320 METAR ESMX 120320Z AUTO 14008KT 100V190 9999NDV -RA FEW006/// SCT007/// BKN009/// 03/02 Q0976 REDZ=
201011120250 METAR ESMX 120250Z AUTO 16009KT 120V200 9999NDV -RA FEW006/// SCT008/// BKN010/// 03/02 Q0977=
201011120220 METAR ESMX 120220Z AUTO 17010KT 130V200 8000NDV -RA SCT006/// BKN008/// BKN010/// 03/02 Q0978=
201011120150 METAR ESMX 120150Z AUTO 17014KT 9000NDV -DZ FEW007/// BKN008/// OVC011/// 04/02 Q0978 REDZ=
201011120120 METAR ESMX 120120Z AUTO 15010KT 110V200 8000NDV DZ FEW006/// BKN008/// OVC011/// 04/02 Q0979=
201011120050 METAR ESMX 120050Z 16011KT 130V200 6000 -RA BKN010 OVC016 04/02 Q0979=
201011120020 METAR ESMX 120020Z 15010KT 080V190 9999 -DZ BKN013 OVC019 04/02 Q0980=
201011112350 METAR ESMX 112350Z 15010KT 110V170 9999 -DZ FEW013 OVC015 04/02 Q0981=
201011112320 METAR ESMX 112320Z 16011KT 120V190 9999 OVC014 04/02 Q0982=
201011112250 METAR ESMX 112250Z 16011KT 110V220 9999 FEW015 BKN019 OVC024 04/02 Q0983=
201011112220 METAR ESMX 112220Z 15009KT 080V190 9999 FEW014 BKN016 OVC021 04/02 Q0984=
201011112150 METAR ESMX 112150Z 14010KT 100V180 9999 FEW013 SCT017 BKN032 04/02 Q0986=
201011112120 METAR ESMX 112120Z 16008KT 130V200 9999 SCT012 BKN016 BKN022 04/02 Q0987=
201011112050 METAR ESMX 112050Z 16008KT 120V220 9999 FEW010 SCT014 BKN018 04/02 Q0988=
201011112020 METAR ESMX 112020Z 17008KT 140V210 9999 SCT011 BKN015 BKN020 04/02 Q0989=
201011111950 METAR ESMX 111950Z 16010KT 110V210 9999 FEW009 BKN012 BKN016 04/02 Q0990=
201011111920 METAR ESMX 111920Z 16008KT 120V190 9999 FEW007 BKN012 03/02 Q0990=
201011111850 METAR ESMX 111850Z 16008KT 140V210 9999 FEW004 SCT012 BKN022 03/02 Q0991=
201011111820 METAR ESMX 111820Z 14007KT 110V170 9000 BR FEW004 BKN050 03/02 Q0992=
201011111750 METAR ESMX 111750Z 15007KT 8000 BR FEW006 BKN009 OVC014 02/02 Q0993=
201011111720 METAR ESMX 111720Z 16006KT 9000 BR FEW004 SCT007 BKN011 02/02 Q0994=
201011111650 METAR ESMX 111650Z 15006KT 110V190 3000 -RA FEW007 SCT015 BKN025 02/02 Q0994=
201011111620 METAR ESMX 111620Z 15007KT 9999 FEW005 SCT030 BKN060 02/01 Q0994=
201011111550 METAR ESMX 111550Z 16007KT 130V190 9999 SCT048 BKN068 02/01 Q0995=
201011111520 METAR ESMX 111520Z 16007KT 9999 FEW009 SCT011 BKN040 02/01 Q0995=
201011111450 METAR ESMX 111450Z 17006KT 9999 FEW010 BKN045 02/01 Q0996=
201011111420 METAR ESMX 111420Z 19007KT 9999 FEW011 BKN050 02/01 Q0996=
201011111350 METAR ESMX 111350Z 19008KT 9999 SCT010 OVC046 03/01 Q0996=
201011111320 METAR ESMX 111320Z 20008KT 9999 FEW010 OVC042 03/01 Q0996=
201011111250 METAR ESMX 111250Z 19009KT 9999 FEW008 BKN040 02/01 Q0997=
201011111220 METAR ESMX 111220Z 20008KT 9999 OVC042 02/01 Q0997=
201011111150 METAR ESMX 111150Z 20007KT 9999 FEW007 OVC038 02/01 Q0997=
201011111120 METAR ESMX 111120Z 19008KT 9999 FEW007 OVC035 02/01 Q0997=
201011111050 METAR ESMX 111050Z 19009KT 9999 FEW007 OVC040 02/01 Q0997=
201011111020 METAR ESMX 111020Z 19007KT 9999 FEW005 OVC040 02/01 Q0997=
201011110950 METAR ESMX 110950Z 21007KT 9999 FEW006 OVC037 01/00 Q0998=
201011110920 METAR ESMX 110920Z 21007KT 170V240 9999 FEW004 SCT005 BKN038 01/01 Q0997=
201011110850 METAR ESMX 110850Z 22007KT 190V250 9999 FEW003 BKN005 01/00 Q0997=
201011110820 METAR ESMX 110820Z 22008KT 9999 BR BKN004 01/01 Q0997=
201011110750 METAR ESMX 110750Z 21006KT 6000 BR OVC002 01/00 Q0997=
201011110720 METAR ESMX 110720Z 21004KT 7000 BR SCT002 BKN014 OVC019 01/00 Q0997=
201011110650 METAR ESMX 110650Z 21005KT 5000 BR OVC002 01/00 Q0996=
201011110620 METAR ESMX 110620Z 22006KT 6000 BR SCT002 BKN005 OVC045 01/00 Q0996=
201011110550 METAR ESMX 110550Z 21005KT 9000 BR FEW004 SCT013 OVC045 00/00 Q0996=
201011110520 METAR ESMX 110520Z 21005KT 190V250 8000 BR SCT003 BKN015 OVC045 00/00 Q0996=
201011110450 METAR ESMX 110450Z 22004KT 4000 BR BKN003 OVC030 01/00 Q0995=
201011110420 METAR ESMX 110420Z AUTO 22003KT 1200NDV R01/P2000N R19/P2000N VV002 00/00 Q0995=
201011110350 METAR ESMX 110350Z AUTO VRB02KT 0500NDV R01/1500U R19/1700N FG VV001 01/00 Q0995=
201011110320 METAR ESMX 110320Z AUTO VRB02KT 0500NDV R01/1600N R19/P2000N FG VV002 01/00 Q0995=
201011110250 METAR ESMX 110250Z AUTO 27003KT 230V290 0800NDV R01/P2000D R19/P2000N FG OVC001/// 01/00 Q0995=
201011110220 METAR ESMX 110220Z AUTO 26003KT 210V290 6000NDV BR OVC001/// 01/00 Q0994=
201011110150 METAR ESMX 110150Z AUTO 26004KT 220V290 7000NDV OVC001/// 01/01 Q0994=
201011110120 METAR ESMX 110120Z AUTO VRB02KT 9999NDV BKN002/// OVC004/// 01/01 Q0994=
201011110050 METAR ESMX 110050Z 26002KT 9999 FEW003 SCT006 OVC029 02/01 Q0994=
201011110020 METAR ESMX 110020Z VRB02KT 9000 -DZ SCT002 BKN005 BKN030 02/01 Q0994 REDZ=
201011102350 METAR ESMX 102350Z 25003KT 210V280 3800 DZ OVC004 02/01 Q0993=
201011102320 METAR ESMX 102320Z 22003KT 4400 -DZ FEW003 SCT008 BKN012 02/01 Q0993=
201011102250 METAR ESMX 102250Z 20002KT 4300 -RA FEW016 02/01 Q0993=
201011102220 METAR ESMX 102220Z 18002KT 3700 -RA FEW027 02/01 Q0993=
201011102150 METAR ESMX 102150Z 16003KT 4900 BR BKN034 02/02 Q0993=
201011102120 METAR ESMX 102120Z 16002KT 5000 BR BKN033 02/02 Q0993=
201011102050 METAR ESMX 102050Z 17003KT 4200 DZ FEW002 02/02 Q0993=
201011102020 METAR ESMX 102020Z 13002KT 3500 DZ FEW016 SCT033 02/01 Q0992=
201011101950 METAR ESMX 101950Z 00000KT 4000 -RA BKN003 02/01 Q0992=
201011101920 METAR ESMX 101920Z VRB01KT 6000 BR BKN003 OVC035 02/01 Q0992=
201011101850 METAR ESMX 101850Z 17002KT 8000 BR FEW003 OVC030 02/01 Q0992=
201011101820 METAR ESMX 101820Z 16003KT 9999 OVC028 02/01 Q0992=
201011101750 METAR ESMX 101750Z 15002KT 9000 BR FEW023 OVC027 02/01 Q0991=
201011101720 METAR ESMX 101720Z 20001KT 7000 BR FEW004 OVC019 02/01 Q0991=
201011101650 METAR ESMX 101650Z 00000KT 5000 BR FEW003 OVC018 02/01 Q0991=
201011101620 METAR ESMX 101620Z 14001KT 7000 BR OVC003 02/01 Q0991=
201011101550 METAR ESMX 101550Z 15001KT 7000 BR BKN004 02/01 Q0990=
201011101520 METAR ESMX 101520Z 16002KT 9999 BKN003 OVC005 02/01 Q0990=
201011101450 METAR ESMX 101450Z 17002KT 6000 BR OVC002 02/01 Q0990=
201011101420 METAR ESMX 101420Z VRB02KT 8000 BR BKN002 OVC015 02/01 Q0990=
201011101350 METAR ESMX 101350Z 26002KT 5000 -RA BR OVC002 02/01 Q0990=
201011101320 METAR ESMX 101320Z VRB02KT 5000 -RA BR BKN002 OVC015 02/01 Q0989=
201011101250 METAR ESMX 101250Z VRB01KT 7000 BR BKN003 OVC015 02/01 Q0989=
201011101220 METAR ESMX 101220Z 16003KT 7000 BR OVC002 02/01 Q0989=
201011101150 METAR ESMX 101150Z VRB02KT 5000 BR BKN002 OVC015 02/01 Q0989=
201011101120 METAR ESMX 101120Z 14002KT 4500 BR FEW003 OVC010 02/01 Q0989=
201011101050 METAR ESMX 101050Z VRB01KT 8000 BR FEW004 SCT009 OVC010 01/01 Q0989=
201011101020 METAR ESMX 101020Z VRB02KT 8000 BR OVC008 01/00 Q0989=
201011100950 METAR ESMX 100950Z 16003KT 9999 BKN010 01/00 Q0989=
201011100920 METAR ESMX 100920Z 18002KT 9999 FEW009 BKN018 OVC022 01/00 Q0988=
201011100850 METAR ESMX 100850Z 19002KT 9999 SCT009 BKN012 01/00 Q0988 REDZ=
201011100820 METAR ESMX 100820Z 18001KT 4600 -DZ BKN010 OVC013 01/M00 Q0988=
201011100750 METAR ESMX 100750Z 23002KT 9999 OVC009 00/M00 Q0988=
201011100720 METAR ESMX 100720Z 18001KT 9999 FEW005 OVC010 00/M00 Q0988=
201011100650 METAR ESMX 100650Z 00000KT 9999 FEW006 OVC009 00/M00 Q0987=
201011100620 METAR ESMX 100620Z 00000KT 9999 OVC007 00/M00 Q0987=
201011100550 METAR ESMX 100550Z 00000KT 9999 OVC006 00/M01 Q0987=
201011100520 METAR ESMX 100520Z 00000KT 9999 OVC006 00/M01 Q0987=
201011100450 METAR ESMX 100450Z 00000KT 9999 OVC007 00/M01 Q0986=
201011100420 METAR ESMX 100420Z AUTO 00000KT 9999NDV OVC007/// 00/M01 Q0986=
201011100350 METAR ESMX 100350Z AUTO 00000KT 9999NDV OVC009/// 00/M01 Q0986=
201011100320 METAR ESMX 100320Z AUTO 00000KT 9999NDV OVC008/// 00/M01 Q0986=
201011100250 METAR ESMX 100250Z AUTO 00000KT 9999NDV OVC009/// 00/M01 Q0986=
201011100220 METAR ESMX 100220Z AUTO 00000KT 9999NDV FEW006/// OVC011/// 00/M00 Q0985=
201011100150 METAR ESMX 100150Z AUTO 00000KT 9999NDV FEW004/// OVC011/// 00/M00 Q0985=
201011100120 METAR ESMX 100120Z 00000KT 9000 BR FEW002 SCT004 BKN007 00/M00 Q0985=
201011100050 METAR ESMX 100050Z 00000KT 5000 BR BKN003 OVC005 00/M00 Q0985=
201011100020 METAR ESMX 100020Z 00000KT 8000 BR BKN004 OVC013 00/M00 Q0985=
201011092350 METAR ESMX 092350Z 00000KT 9999 FEW003 SCT004 BKN006 00/M00 Q0984=
201011092320 METAR ESMX 092320Z 00000KT 9999 FEW004 OVC007 00/M00 Q0984=
201011092250 METAR ESMX 092250Z 00000KT 9999 FEW007 SCT008 OVC016 00/M00 Q0984=
201011092220 METAR ESMX 092220Z 00000KT 9999 SCT005 OVC016 00/M00 Q0984=
201011092150 METAR ESMX 092150Z 00000KT 9999 FEW004 OVC018 00/M00 Q0984=
201011092120 METAR ESMX 092120Z 00000KT 9999 FEW011 OVC020 00/M00 Q0984=
201011092050 METAR ESMX 092050Z 00000KT 9999 -SG FEW011 OVC020 00/M00 Q0983=
201011092020 METAR ESMX 092020Z 27003KT 8000 -SG SCT011 BKN021 OVC036 00/M00 Q0983=
201011091950 METAR ESMX 091950Z 26003KT 9999 FEW009 BKN011 BKN022 00/M00 Q0983=
201011091920 METAR ESMX 091920Z 29004KT 9999 -RA FEW006 BKN009 OVC013 01/M00 Q0983=
201011091850 METAR ESMX 091850Z 31004KT 9999 -RASN FEW007 SCT009 BKN030 01/M00 Q0982=
201011091820 METAR ESMX 091820Z 28004KT 9999 -RA FEW007 SCT009 OVC025 01/M00 Q0982=
201011091750 METAR ESMX 091750Z 33007KT 300V360 9999 -RASN FEW007 SCT010 BKN025 01/M00 Q0981=
201011091720 METAR ESMX 091720Z 32006KT 5000 -RASN FEW006 BKN009 01/M00 Q0981=
201011091650 METAR ESMX 091650Z 34007KT 6000 -SN FEW006 SCT007 BKN010 01/00 Q0981=
201011091620 METAR ESMX 091620Z 32007KT 280V350 8000 -SN FEW005 OVC014 01/00 Q0981=
201011091550 METAR ESMX 091550Z 34007KT 5000 -SN FEW004 SCT006 OVC008 01/00 Q0981=
201011091520 METAR ESMX 091520Z 34007KT 8000 -RASN FEW005 OVC011 01/00 Q0981=
201011091450 METAR ESMX 091450Z 34007KT 8000 -RASN FEW004 SCT007 OVC010 01/00 Q0981=
201011091420 METAR ESMX 091420Z 35008KT 4600 -RASN FEW005 SCT007 OVC009 01/00 Q0981=
201011091350 METAR ESMX 091350Z 36008KT 8000 -RASN FEW007 OVC010 01/00 Q0981=
201011091320 METAR ESMX 091320Z 01008KT 340V050 7000 -RASN FEW007 OVC010 01/00 Q0981=
201011091250 METAR ESMX 091250Z 02010KT 7000 -RASN FEW009 OVC015 02/01 Q0981=
201011091220 METAR ESMX 091220Z 03009KT 350V060 8000 -RASN FEW008 OVC010 02/01 Q0981=
201011091150 METAR ESMX 091150Z 03012KT 6000 -RASN FEW007 OVC013 02/01 Q0981=
201011091120 METAR ESMX 091120Z 03012KT 6000 -RASN FEW007 OVC012 01/01 Q0981=
201011091050 METAR ESMX 091050Z 04012KT 010V070 9999 -RASN FEW008 OVC010 02/01 Q0982=
201011091020 METAR ESMX 091020Z 03014KT 360V080 9999 -RASN FEW009 OVC012 02/01 Q0982=
201011090950 METAR ESMX 090950Z 03012KT 9999 -RASN FEW008 BKN010 BKN014 02/01 Q0982=
201011090920 METAR ESMX 090920Z 03011KT 9000 -RASN FEW007 BKN009 BKN012 01/01 Q0982=
201011090850 METAR ESMX 090850Z 03012KT 7000 -RASN FEW006 BKN009 BKN014 01/00 Q0982=
201011090820 METAR ESMX 090820Z 04012KT 010V080 8000 -RASN FEW007 BKN009 01/00 Q0982=
201011090750 METAR ESMX 090750Z 04012KT 010V070 9000 -RASN FEW007 BKN008 01/00 Q0983=
201011090720 METAR ESMX 090720Z 04012KT 9000 -RASN FEW008 BKN010 01/01 Q0983=
201011090650 METAR ESMX 090650Z 03012KT 360V070 3800 -SNRA FEW005 SCT007 BKN009 01/00 Q0983=
201011090620 METAR ESMX 090620Z 04013KT 010V070 6000 -RASN FEW006 BKN008 BKN012 01/00 Q0983=
201011090550 METAR ESMX 090550Z 04015KT 9999 -RASN FEW008 OVC010 01/00 Q0983=
201011090520 METAR ESMX 090520Z 04013KT 010V070 9999 -RASN FEW008 OVC010 01/01 Q0984=
201011090450 METAR ESMX 090450Z 03012G22KT 9999 -RASN FEW008 BKN010 OVC014 01/01 Q0984=
201011090420 METAR ESMX 090420Z AUTO 03013KT 9999NDV -RA SCT007/// BKN009/// BKN013/// 01/01 Q0984=
201011090350 METAR ESMX 090350Z AUTO 04013KT 010V070 9999NDV -RA FEW007/// SCT008/// OVC010/// 01/01 Q0984=
201011090320 METAR ESMX 090320Z AUTO 04013KT 360V060 8000NDV -RA FEW007/// SCT009/// BKN011/// 01/00 Q0985=
201011090250 METAR ESMX 090250Z AUTO 03014KT 360V060 9999NDV -RA FEW007/// OVC010/// 01/01 Q0985=
201011090220 METAR ESMX 090220Z AUTO 03014KT 9999NDV -RA FEW008/// BKN011/// OVC015/// 01/01 Q0986=
201011090150 METAR ESMX 090150Z AUTO 03014KT 350V060 8000NDV -RA FEW007/// SCT009/// BKN012/// 01/01 Q0986=
201011090120 METAR ESMX 090120Z AUTO 03014KT 8000NDV -RA FEW005/// SCT007/// BKN009/// 01/01 Q0987=
201011090050 METAR ESMX 090050Z 03012KT 9000 -SNRA FEW006 SCT008 BKN010 01/00 Q0987=
201011090020 METAR ESMX 090020Z 02012KT 7000 -SNRA FEW006 SCT008 BKN009 01/01 Q0987=
201011082350 METAR ESMX 082350Z 03011KT 6000 -SN FEW006 OVC009 01/00 Q0988=
201011082320 METAR ESMX 082320Z 01011KT 3800 -SN FEW007 BKN012 OVC015 00/M00 Q0988=
201011082250 METAR ESMX 082250Z 02010KT 4500 -SN FEW008 SCT015 BKN020 00/M00 Q0989=
201011082220 METAR ESMX 082220Z 02014KT 2000 -SN FEW006 SCT008 BKN010 00/M00 Q0989=
201011082150 METAR ESMX 082150Z 02014KT 2600 -SN FEW006 SCT008 BKN011 00/M00 Q0990=
201011082120 METAR ESMX 082120Z 02012KT 2600 SN FEW005 SCT007 BKN008 00/M00 Q0990=
201011082050 METAR ESMX 082050Z 04013KT 5000 SNRA FEW009 SCT016 BKN019 01/M01 Q0991=
201011082020 METAR ESMX 082020Z 04012KT 9999 -SN FEW022 BKN030 OVC036 02/M02 Q0991=
201011081950 METAR ESMX 081950Z 04012KT 9999 SCT030 02/M02 Q0991=
201011081920 METAR ESMX 081920Z 04010KT 350V070 9999 SCT035 01/M02 Q0992=
201011081850 METAR ESMX 081850Z 04009KT 9999 FEW025 SCT046 01/M01 Q0992=
201011081820 METAR ESMX 081820Z 04012KT 9999 FEW016 01/M01 Q0993=
201011081750 METAR ESMX 081750Z 04010KT 9999 FEW022 02/M02 Q0993=
201011081720 METAR ESMX 081720Z 04010KT 9999 FEW026 02/M02 Q0993=
201011081650 METAR ESMX 081650Z 04010KT 010V080 9999 FEW040 02/M02 Q0993=
201011081620 METAR ESMX 081620Z 04010KT 010V090 9999 BKN044 02/M02 Q0994=
201011081550 METAR ESMX 081550Z 04008KT 010V070 9999 FEW043 01/M02 Q0994=
201011081520 METAR ESMX 081520Z 04009KT 9999 FEW025 01/M02 Q0994=
201011081450 METAR ESMX 081450Z 04008KT 020V080 9999 FEW029 01/M02 Q0994=
201011081420 METAR ESMX 081420Z 05008KT 010V100 9999 FEW026 01/M02 Q0994=
201011081350 METAR ESMX 081350Z 05009KT 010V080 9999 FEW025 02/M02 Q0995=
201011081320 METAR ESMX 081320Z 06007KT 020V150 9999 FEW025 02/M02 Q0995=
201011081250 METAR ESMX 081250Z 04009KT 350V100 9999 FEW020 03/M01 Q0996=
201011081220 METAR ESMX 081220Z 08008KT 030V140 9999 SCT018 02/M01 Q0996=
201011081150 METAR ESMX 081150Z 08008KT 030V130 9999 SCT020 02/M01 Q0996=
201011081120 METAR ESMX 081120Z 06006KT 020V100 9999 FEW005 02/00 Q0997=
201011081050 METAR ESMX 081050Z 03005KT 340V060 9999 FEW005 01/00 Q0997=
201011081020 METAR ESMX 081020Z 02005KT 350V070 9999 FEW003 00/M00 Q0998=
201011080950 METAR ESMX 080950Z 07003KT 020V120 9999 FEW001 SCT004 M01/M01 Q0998=
201011080920 METAR ESMX 080920Z 07003KT 030V130 3400 BR BKN001 M01/M02 Q0998=
201011080850 METAR ESMX 080850Z 05003KT 010V090 9999 FEW005 M01/M02 Q0998=
201011080820 METAR ESMX 080820Z 05003KT 9999 FEW005 M02/M02 Q0998=
201011080750 METAR ESMX 080750Z 06002KT 9999 FEW003 M02/M03 Q0999=
201011080720 METAR ESMX 080720Z VRB02KT 9999 FEW002 M03/M03 Q0999=
201011080650 METAR ESMX 080650Z 06002KT 9999 FEW001 M04/M04 Q0999=
201011080620 METAR ESMX 080620Z 08002KT 5000 BCFG SCT002 SCT200 M04/M04 Q0999=
201011080550 METAR ESMX 080550Z 10002KT 0400 R01/0900 R19/P2000N FZFG VV003 M03/M04 Q0999=
201011080520 METAR ESMX 080520Z 13002KT 0300 R01/0900 R19/0750V1600D FZFG VV002 M03/M04 Q0999=
201011080450 METAR ESMX 080450Z 14002KT 0200 R01/0700N R19/0750 FZFG VV002 M05/M05 Q0999=
201011080420 METAR ESMX 080420Z AUTO 17001KT 0700NDV R01/P2000N R19/P2000N VV000 M06/M07 Q0999=
201011080350 METAR ESMX 080350Z AUTO 00000KT 9999NDV VV001 M06/M07 Q1000=
201011080320 METAR ESMX 080320Z AUTO 00000KT 9000NDV BCFG NCD M06/M06 Q1000=
201011080250 METAR ESMX 080250Z AUTO 00000KT 0900NDV R01/P2000N R19/P2000N FZFG SCT000/// BKN002/// M06/M07 Q1000=
201011080220 METAR ESMX 080220Z AUTO 17001KT 9999NDV VV001 M05/M06 Q1000=
201011080150 METAR ESMX 080150Z AUTO 17001KT 1300NDV R01/P2000N R19/P2000N FZFG VV000 M05/M05 Q1000=
201011080120 METAR ESMX 080120Z AUTO 17001KT 0150NDV R01/P2000N R19/0450 FZFG VV000 M06/M06 Q1000=
201011080050 METAR ESMX 080050Z 17001KT 0800 R01/P2000N R19/0750V1900 FZFG VV003 M05/M05 Q1000=
201011080020 METAR ESMX 080020Z 00000KT 0500 R01/1200VP2000U R19/0800V1700 FZFG VV003 M05/M06 Q1001=
201011072350 METAR ESMX 072350Z 17001KT 0150 R01/0500 R19/0700V1800D FZFG VV002 M04/M05 Q1001=
201011072320 METAR ESMX 072320Z 17001KT 0300 R01/0800V1500U R19/0800V1300N FZFG SCT000 M03/M03 Q1001=
201011072250 METAR ESMX 072250Z 17001KT 0800 R01/P2000N R19/0800V1800 NSC M03/M04 Q1002=
201011072220 METAR ESMX 072220Z 17002KT 2000 BR NSC M03/M03 Q1002=
201011072150 METAR ESMX 072150Z 17002KT 4000 BR NSC M03/M03 Q1002=
201011072120 METAR ESMX 072120Z 17003KT 6000 BR NSC M01/M02 Q1002=
201011072050 METAR ESMX 072050Z 18003KT 7000 BR NSC M03/M03 Q1002=
201011072020 METAR ESMX 072020Z 19004KT 5000 BR NSC M02/M02 Q1002=
201011071950 METAR ESMX 071950Z 20004KT 3500 BR NSC M01/M02 Q1002=
201011071920 METAR ESMX 071920Z 21003KT 1200 R01/P2000N R19/P2000N BR NSC M01/M02 Q1002=
201011071850 METAR ESMX 071850Z 22004KT CAVOK M01/M02 Q1002=
201011071820 METAR ESMX 071820Z 20004KT CAVOK M02/M02 Q1002=
201011071750 METAR ESMX 071750Z 17003KT 9999 FEW020 M01/M02 Q1002=
201011071720 METAR ESMX 071720Z 20004KT 9999 FEW020 M01/M02 Q1003=
201011071650 METAR ESMX 071650Z 18004KT 9999 FEW020 M00/M01 Q1002=
201011071620 METAR ESMX 071620Z 21004KT 9999 FEW020 00/M01 Q1002=
201011071550 METAR ESMX 071550Z 22004KT 9999 FEW020 00/M01 Q1002=
201011071520 METAR ESMX 071520Z 23003KT 9999 FEW028 01/M01 Q1002=
201011071450 METAR ESMX 071450Z 20003KT 9999 FEW020 02/M00 Q1003=
201011071420 METAR ESMX 071420Z 22004KT 9999 FEW020 03/00 Q1003=
201011071350 METAR ESMX 071350Z 23005KT 9999 FEW024 04/00 Q1003=
201011071320 METAR ESMX 071320Z AUTO 21006KT 9999NDV FEW028/// 04/00 Q1003=
201011071250 METAR ESMX 071250Z AUTO 24005KT 200V280 9999NDV NCD 04/M00 Q1003=
201011071220 METAR ESMX 071220Z AUTO 23007KT 9999NDV NCD 03/00 Q1004=
201011071150 METAR ESMX 071150Z AUTO 21004KT 9999NDV NCD 03/01 Q1004=
201011071120 METAR ESMX 071120Z AUTO 23005KT 200V270 9999NDV NCD 03/00 Q1004=
201011071050 METAR ESMX 071050Z AUTO 22005KT 9999NDV NCD 03/00 Q1004=
201011071020 METAR ESMX 071020Z AUTO 23005KT 9999NDV NCD 02/M00 Q1004=
201011070950 METAR ESMX 070950Z AUTO 23004KT 9999NDV FEW053/// 01/M01 Q1005=
201011070920 METAR ESMX 070920Z AUTO 24005KT 200V270 9999NDV SCT027/// BKN037/// 01/M01 Q1005=
201011070850 METAR ESMX 070850Z AUTO 23005KT 9999NDV FEW028/// SCT031/// BKN048/// 00/M01 Q1005=
201011070820 METAR ESMX 070820Z AUTO 22005KT 9999NDV FEW038/// OVC057/// M01/M02 Q1005=
201011070750 METAR ESMX 070750Z AUTO 21004KT 9999NDV OVC054/// M01/M02 Q1005=
201011070720 METAR ESMX 070720Z AUTO 19004KT 9999NDV FEW036/// OVC058/// M02/M02 Q1005=
201011070650 METAR ESMX 070650Z AUTO 20002KT 9999NDV OVC056/// M02/M03 Q1005=
201011070620 METAR ESMX 070620Z AUTO 21002KT 9999NDV BKN056/// M04/M04 Q1005=
201011070550 METAR ESMX 070550Z AUTO 20002KT 9999NDV BKN056/// M04/M04 Q1005=
201011070520 METAR ESMX 070520Z AUTO VRB01KT 9999NDV NCD M04/M04 Q1005=
201011070450 METAR ESMX 070450Z AUTO 19003KT 9999NDV NCD M03/M04 Q1005=
201011070420 METAR ESMX 070420Z AUTO 18001KT 9999NDV NCD M04/M04 Q1005=
201011070350 METAR ESMX 070350Z AUTO 22003KT 9999NDV NCD M04/M04 Q1005=
201011070320 METAR ESMX 070320Z AUTO 20002KT 9999NDV NCD M03/M03 Q1005=
201011070250 METAR ESMX 070250Z AUTO 20001KT 9999NDV NCD M03/M03 Q1005=
201011070220 METAR ESMX 070220Z AUTO 25002KT 9999NDV NCD M03/M03 Q1005=
201011070150 METAR ESMX 070150Z AUTO 25002KT 4600NDV NCD M03/M04 Q1005=
201011070120 METAR ESMX 070120Z AUTO VRB01KT 9999NDV NCD M03/M03 Q1005=
201011070050 METAR ESMX 070050Z AUTO 26002KT 9999NDV NCD M03/M03 Q1005=
201011070020 METAR ESMX 070020Z AUTO 27002KT 9999NDV NCD M02/M02 Q1006=
201011062350 METAR ESMX 062350Z AUTO 28002KT 9999NDV NCD M02/M02 Q1006=
201011062320 METAR ESMX 062320Z AUTO 29003KT 9999NDV NCD M02/M03 Q1006=
201011062250 METAR ESMX 062250Z AUTO 29004KT 9999NDV NCD M02/M02 Q1005=
201011062220 METAR ESMX 062220Z AUTO 29003KT 5000NDV NCD M01/M02 Q1005=
201011062150 METAR ESMX 062150Z AUTO 28001KT 9999NDV NCD M01/M02 Q1005=
201011062120 METAR ESMX 062120Z AUTO 32003KT 280V350 9999NDV BKN072/// M00/M01 Q1005=
201011062050 METAR ESMX 062050Z AUTO 31003KT 9999NDV BKN072/// 00/M01 Q1005=
201011062020 METAR ESMX 062020Z AUTO 31003KT 9999NDV BKN073/// 01/M00 Q1005=
201011061950 METAR ESMX 061950Z AUTO 32004KT 9999NDV BKN073/// 01/00 Q1005=
201011061920 METAR ESMX 061920Z AUTO 32003KT 290V350 9999NDV BKN074/// 01/01 Q1005=
201011061850 METAR ESMX 061850Z AUTO 32004KT 9999NDV FEW056/// BKN074/// 02/01 Q1005=
201011061820 METAR ESMX 061820Z AUTO 32003KT 9999NDV OVC070/// 02/01 Q1004=
201011061750 METAR ESMX 061750Z AUTO 30004KT 9999NDV OVC073/// 02/01 Q1004=
201011061720 METAR ESMX 061720Z AUTO 34004KT 9999NDV OVC074/// 02/01 Q1004=
201011061650 METAR ESMX 061650Z AUTO 34005KT 9999NDV FEW016/// OVC072/// 03/01 Q1004=
201011061620 METAR ESMX 061620Z AUTO 34005KT 310V010 9999NDV FEW017/// BKN069/// 03/01 Q1004=
201011061550 METAR ESMX 061550Z AUTO 35007KT 9999NDV BKN013/// OVC067/// 03/01 Q1003=
201011061520 METAR ESMX 061520Z AUTO 34007KT 9999NDV SCT017/// OVC069/// 03/01 Q1003=
201011061450 METAR ESMX 061450Z AUTO 36008KT 9999NDV FEW036/// SCT058/// 03/01 Q1003=
201011061420 METAR ESMX 061420Z AUTO 35007KT 9999NDV FEW018/// SCT044/// BKN054/// 05/03 Q1002=
201011061350 METAR ESMX 061350Z AUTO 01007KT 9999NDV BKN038/// 05/03 Q1002=
201011061320 METAR ESMX 061320Z AUTO 36005KT 9999NDV FEW021/// SCT026/// BKN030/// 05/03 Q1002=
201011061250 METAR ESMX 061250Z 31003KT 260V350 9999 FEW012 SCT032 BKN037 05/04 Q1002=
201011061220 METAR ESMX 061220Z 33003KT 9999 FEW011 SCT020 05/03 Q1002 REDZ=
201011061150 METAR ESMX 061150Z 33004KT 290V010 8000 -RA FEW007 SCT011 BKN015 06/05 Q1002=
201011061120 METAR ESMX 061120Z 32005KT 280V350 9999 FEW006 SCT012 BKN031 05/04 Q1002=
201011061050 METAR ESMX 061050Z 30004KT 9999 FEW005 BKN020 BKN030 05/05 Q1002=
201011061020 METAR ESMX 061020Z 32003KT 280V360 9999 FEW007 SCT025 05/04 Q1001=
201011060950 METAR ESMX 060950Z 28003KT 9999 FEW005 SCT025 BKN030 05/04 Q1001=
201011060920 METAR ESMX 060920Z 33004KT 290V350 7000 -RA SCT003 BKN009 04/04 Q1001=
201011060850 METAR ESMX 060850Z VRB02KT 3100 -RA OVC002 05/04 Q1001=
201011060820 METAR ESMX 060820Z VRB01KT 5000 BR OVC003 04/04 Q1001=
201011060750 METAR ESMX 060750Z VRB01KT 6000 BR OVC002 04/04 Q1001=
201011060720 METAR ESMX 060720Z 20002KT 2500 BR VV002 04/04 Q1001=
201011060650 METAR ESMX 060650Z AUTO 21001KT 1000NDV R01/P2000N R19/P2000N VV001 04/04 Q1002=
201011060620 METAR ESMX 060620Z AUTO 20002KT 0700NDV R01/P2000N R19/1400VP2000D FG VV001 04/04 Q1002=
201011060550 METAR ESMX 060550Z AUTO 19003KT 2600NDV VV002 04/03 Q1002=
201011060520 METAR ESMX 060520Z AUTO VRB02KT 0700NDV R01/P2000N R19/P2000D VV001 04/03 Q1002=
201011060450 METAR ESMX 060450Z AUTO 17002KT 1000NDV R01/P2000N R19/P2000N VV001 04/03 Q1002=
201011060420 METAR ESMX 060420Z AUTO 23003KT 210V270 0650NDV R01/P2000N R19/1900N FG VV002 03/03 Q1003=
201011060350 METAR ESMX 060350Z AUTO 19004KT 140V210 2800NDV OVC001/// 03/03 Q1003=
201011060320 METAR ESMX 060320Z AUTO 18002KT 0900NDV R01/P2000N R19/P2000N FG VV002 02/02 Q1003=
201011060250 METAR ESMX 060250Z AUTO 17003KT 1200NDV R01/P2000N R19/P2000N BR FEW001/// SCT002/// BKN004/// 03/02 Q1003=
201011060220 METAR ESMX 060220Z AUTO 19003KT 1400NDV R01/P2000N R19/P2000N BR FEW002/// BKN004/// 02/02 Q1004=
201011060150 METAR ESMX 060150Z AUTO VRB02KT 9999NDV OVC002/// 03/03 Q1004=
201011060120 METAR ESMX 060120Z AUTO 22003KT 190V260 9999NDV BKN003/// BKN007/// 04/03 Q1004=
201011060050 METAR ESMX 060050Z AUTO 24005KT 9999NDV FEW004/// SCT007/// 03/03 Q1005=
201011060020 METAR ESMX 060020Z AUTO 22005KT 8000NDV FEW006/// 02/02 Q1005=
201011052350 METAR ESMX 052350Z AUTO 21005KT 9999NDV NCD 03/02 Q1005=
201011052320 METAR ESMX 052320Z AUTO 23005KT 9999NDV SCT013/// 03/03 Q1006=
201011052250 METAR ESMX 052250Z AUTO 22005KT 9999NDV FEW013/// SCT016/// 03/03 Q1006=
201011052220 METAR ESMX 052220Z AUTO 22006KT 9999NDV BKN014/// BKN025/// 04/03 Q1006=
201011052150 METAR ESMX 052150Z AUTO 24005KT 9999NDV FEW013/// SCT016/// BKN019/// 04/03 Q1007=
201011052120 METAR ESMX 052120Z AUTO 23006KT 9999NDV FEW032/// 04/03 Q1007=
201011052050 METAR ESMX 052050Z AUTO 23007KT 9999NDV FEW013/// SCT017/// BKN035/// 04/03 Q1007=
201011052020 METAR ESMX 052020Z 23006KT 9999 FEW013 SCT016 BKN029 04/03 Q1007=
201011051950 METAR ESMX 051950Z 24008KT 200V270 9999 BKN027 05/04 Q1007=
201011051920 METAR ESMX 051920Z 23007KT 9999 FEW007 BKN025 04/03 Q1007=
201011051850 METAR ESMX 051850Z 23006KT 200V270 9999 SCT006 OVC011 05/04 Q1007=
201011051820 METAR ESMX 051820Z 26007KT 9999 FEW011 OVC014 04/03 Q1007=
201011051750 METAR ESMX 051750Z 25007KT 9999 SCT010 04/03 Q1007=
201011051720 METAR ESMX 051720Z 25006KT 9999 FEW011 04/03 Q1006=
201011051650 METAR ESMX 051650Z 25007KT CAVOK 04/03 Q1006=
201011051620 METAR ESMX 051620Z 28005KT 9999 FEW015 04/03 Q1006=
201011051550 METAR ESMX 051550Z 28005KT 9999 FEW015 04/03 Q1006=
201011051520 METAR ESMX 051520Z 28007KT 9999 FEW015 05/04 Q1006=
201011051450 METAR ESMX 051450Z 27006KT 9999 FEW015 05/04 Q1005=
201011051420 METAR ESMX 051420Z 27004KT 220V300 9999 FEW013 06/04 Q1005=
201011051350 METAR ESMX 051350Z 31007KT 9999 FEW011 SCT017 06/04 Q1004=
201011051320 METAR ESMX 051320Z 31005KT 9999 FEW007 06/05 Q1003=
201011051250 METAR ESMX 051250Z 31004KT 260V340 9999 FEW005 SCT013 BKN052 06/05 Q1002=
201011051220 METAR ESMX 051220Z 33003KT 290V360 9999 -DZ FEW005 SCT007 BKN010 06/05 Q1002=
201011051150 METAR ESMX 051150Z 31003KT 280V340 9999 FEW004 BKN025 06/05 Q1002=
201011051120 METAR ESMX 051120Z VRB01KT 8000 -DZ FEW003 BKN018 06/05 Q1002=
201011051050 METAR ESMX 051050Z VRB02KT 7000 -RA FEW003 BKN007 BKN026 06/05 Q1002=
201011051020 METAR ESMX 051020Z VRB01KT 9999 -RA FEW004 BKN016 BKN032 06/05 Q1001=
201011050950 METAR ESMX 050950Z VRB02KT 9999 -RA BKN004 06/05 Q1001=
201011050920 METAR ESMX 050920Z VRB01KT 9999 BKN004 OVC021 05/05 Q1000=
201011050850 METAR ESMX 050850Z VRB02KT 4000 BR FEW002 BKN005 OVC023 05/04 Q1001=
201011050820 METAR ESMX 050820Z 25002KT 6000 BR FEW001 BKN019 BKN023 05/04 Q1000 REDZ=
201011050750 METAR ESMX 050750Z 26002KT 3400 -RA FEW002 OVC014 05/04 Q1000=
201011050720 METAR ESMX 050720Z VRB02KT 7000 BR BKN014 OVC020 05/04 Q1000=
201011050650 METAR ESMX 050650Z VRB02KT 4100 -DZ BKN016 04/04 Q1000=
201011050620 METAR ESMX 050620Z VRB02KT 3100 BR BKN016 04/04 Q0999 REDZ=
201011050550 METAR ESMX 050550Z 18003KT 8000 BR OVC016 04/04 Q0999=
201011050520 METAR ESMX 050520Z 17002KT 8000 -RA BKN017 05/04 Q0999=
201011050450 METAR ESMX 050450Z 16002KT 9000 -RA FEW002 BKN015 04/04 Q0999=
201011050420 METAR ESMX 050420Z AUTO 18002KT 3000NDV -RA BKN015/// OVC020/// 05/04 Q1000=
201011050350 METAR ESMX 050350Z AUTO 19003KT 9999NDV -RA FEW016/// OVC020/// 04/04 Q1000=
201011050320 METAR ESMX 050320Z AUTO 19004KT 9999NDV -RA BKN018/// BKN031/// 05/04 Q1000=
201011050250 METAR ESMX 050250Z AUTO 20002KT 9999NDV -RA FEW021/// BKN024/// BKN031/// 05/04 Q1000=
201011050220 METAR ESMX 050220Z AUTO 18004KT 9999NDV -RA FEW030/// SCT034/// BKN050/// 05/04 Q1000 REDZ=
201011050150 METAR ESMX 050150Z AUTO 19002KT 9999NDV DZ OVC034/// 05/03 Q1001=
201011050120 METAR ESMX 050120Z AUTO 22004KT 9999NDV -RA OVC040/// 06/03 Q1001 REUP=
201011050050 METAR ESMX 050050Z AUTO 23005KT 9999NDV OVC043/// 06/03 Q1001=
201011050020 METAR ESMX 050020Z 21004KT 9999 FEW017 BKN045 06/04 Q1001=
201011042350 METAR ESMX 042350Z 19006KT 9999 FEW017 BKN050 06/04 Q1002=
201011042320 METAR ESMX 042320Z 21005KT 9999 FEW017 SCT070 06/04 Q1002=
201011042250 METAR ESMX 042250Z 24005KT CAVOK 06/04 Q1003=
201011042220 METAR ESMX 042220Z 23007KT CAVOK 06/04 Q1003=
201011042150 METAR ESMX 042150Z 23007KT 190V260 CAVOK 06/04 Q1003=
201011042120 METAR ESMX 042120Z 26007KT 240V300 CAVOK 06/04 Q1003=
201011042050 METAR ESMX 042050Z 26007KT 230V290 CAVOK 06/03 Q1003=
201011042020 METAR ESMX 042020Z 25008KT CAVOK 06/03 Q1003=
201011041950 METAR ESMX 041950Z 25007KT CAVOK 06/03 Q1003=
201011041850 METAR ESMX 041850Z 26005KT 230V320 9999 FEW023 06/03 Q1004=
201011041820 METAR ESMX 041820Z 26007KT 9999 FEW020 06/03 Q1004=
201011041750 METAR ESMX 041750Z 25008KT 9999 FEW023 06/03 Q1004=
201011041720 METAR ESMX 041720Z 25009KT 9999 FEW026 06/03 Q1004=
201011041650 METAR ESMX 041650Z 26011KT 9999 FEW026 06/03 Q1004=
201011041620 METAR ESMX 041620Z 26011KT 220V290 9999 FEW028 06/03 Q1004=
201011041550 METAR ESMX 041550Z 26011KT 230V300 9999 FEW031 SCT036 07/03 Q1004=
201011041520 METAR ESMX 041520Z 26010KT 220V290 9999 FEW026 SCT030 07/03 Q1003=
201011041450 METAR ESMX 041450Z 26009KT 230V300 9999 FEW025 07/03 Q1003=
201011041420 METAR ESMX 041420Z 28015KT 9999 FEW029 08/03 Q1003=
201011041350 METAR ESMX 041350Z 26014KT 220V300 9999 FEW029 SCT036 09/03 Q1002=
201011041320 METAR ESMX 041320Z 27012KT 240V300 9999 FEW027 SCT033 09/03 Q1002=
201011041250 METAR ESMX 041250Z 27016KT 230V320 9999 SCT031 BKN040 09/03 Q1002=
201011041220 METAR ESMX 041220Z 27011KT 9999 FEW024 BKN043 08/04 Q1003=
201011041150 METAR ESMX 041150Z 26010KT 220V280 9999 FEW025 SCT047 08/04 Q1002=
201011041120 METAR ESMX 041120Z 25012KT 230V300 9999 FEW022 SCT029 09/04 Q1002=
201011041050 METAR ESMX 041050Z 25012KT 200V290 9999 FEW022 BKN027 09/04 Q1002=
201011041020 METAR ESMX 041020Z 26013KT 210V290 9999 SCT022 BKN028 08/04 Q1002=
201011040950 METAR ESMX 040950Z 26015KT 220V290 9999 FEW020 SCT024 08/03 Q1002=
201011040920 METAR ESMX 040920Z 26014KT 230V290 9999 FEW019 BKN024 08/04 Q1001=
201011040850 METAR ESMX 040850Z 25010KT 210V290 9999 FEW017 SCT022 BKN032 07/04 Q1001=
201011040820 METAR ESMX 040820Z 24008KT 210V270 9999 FEW018 SCT040 07/05 Q1002=
201011040750 METAR ESMX 040750Z 26007KT 230V290 9999 FEW014 BKN035 06/04 Q1002 REDZ=
201011040720 METAR ESMX 040720Z 22008KT 9999 FEW018 BKN034 06/04 Q1002=
201011040650 METAR ESMX 040650Z 22008KT 9999 FEW012 05/04 Q1001=
201011040620 METAR ESMX 040620Z 23009KT CAVOK 05/04 Q1001=
201011040550 METAR ESMX 040550Z 23010KT 190V250 9999 SCT015 BKN020 06/04 Q1001=
201011040520 METAR ESMX 040520Z 24009KT 210V270 9999 SCT015 BKN022 06/04 Q1001=
201011040450 METAR ESMX 040450Z 25009KT 210V290 9999 SCT020 BKN034 06/04 Q1001=
201011040420 METAR ESMX 040420Z AUTO 25012KT 210V290 9999NDV FEW016/// SCT020/// BKN034/// 06/04 Q1001=
201011040350 METAR ESMX 040350Z AUTO 23011KT 200V280 9999NDV FEW017/// SCT025/// BKN031/// 06/04 Q1001=
201011040320 METAR ESMX 040320Z AUTO 23011KT 200V280 9999NDV BKN032/// 06/04 Q1001=
201011040250 METAR ESMX 040250Z AUTO 23010G20KT 190V260 9999NDV FEW016/// BKN032/// 06/04 Q1001=
201011040220 METAR ESMX 040220Z AUTO 26012KT 9999NDV FEW015/// SCT018/// BKN026/// 06/04 Q1001=
201011040150 METAR ESMX 040150Z AUTO 25010KT 9999NDV FEW019/// SCT024/// BKN028/// 06/04 Q1001=
201011040120 METAR ESMX 040120Z AUTO 25009KT 210V290 9999NDV FEW022/// SCT029/// 06/04 Q1001=
201011040050 METAR ESMX 040050Z AUTO 25011KT 210V300 9999NDV SCT023/// BKN028/// BKN043/// 07/03 Q1001=
201011040020 METAR ESMX 040020Z 25011G21KT 220V290 9999 BKN021 BKN036 07/04 Q1000=
201011032350 METAR ESMX 032350Z 25013KT 9999 FEW019 BKN024 OVC030 07/04 Q1000=
201011032320 METAR ESMX 032320Z 25011KT 210V290 9999 FEW019 SCT024 BKN029 07/04 Q1000=
201011032250 METAR ESMX 032250Z 25014KT 220V300 9999 FEW019 SCT024 BKN027 07/04 Q0999 REDZ=
201011032220 METAR ESMX 032220Z 25013KT 9999 -RA FEW021 BKN025 BKN034 07/04 Q0999=
201011032150 METAR ESMX 032150Z 26011KT 9999 FEW023 SCT027 BKN034 07/04 Q0999=
201011032120 METAR ESMX 032120Z 25012KT 9999 SCT020 OVC040 07/04 Q0999=
201011032050 METAR ESMX 032050Z 24012KT 200V280 9999 FEW021 SCT030 BKN038 07/04 Q0999=
201011032020 METAR ESMX 032020Z 23011KT 180V280 8000 -RA FEW021 SCT027 BKN031 07/05 Q0998 REDZ=
201011031950 METAR ESMX 031950Z 23012KT 210V270 9999 -DZ SCT020 BKN030 07/04 Q0998=
201011031920 METAR ESMX 031920Z 23013KT 200V260 9999 FEW020 SCT026 BKN030 07/04 Q0998=
201011031850 METAR ESMX 031850Z 22011KT 180V260 9999 SCT018 BKN040 07/05 Q0998=
201011031820 METAR ESMX 031820Z 23011KT 9999 FEW015 SCT020 BKN028 07/05 Q0997=
201011031750 METAR ESMX 031750Z 22011KT 9999 FEW013 SCT020 BKN052 07/05 Q0997=
201011031720 METAR ESMX 031720Z 24010KT 210V280 9999 FEW010 SCT015 06/05 Q0997=
201011031650 METAR ESMX 031650Z 22010KT 9999 FEW010 SCT013 BKN016 06/05 Q0997=
201011031620 METAR ESMX 031620Z 22009KT 190V250 9999 SCT011 BKN016 BKN021 06/05 Q0997=
201011031550 METAR ESMX 031550Z 23010KT 200V260 9999 FEW011 SCT022 06/05 Q0996=
201011031520 METAR ESMX 031520Z 22010KT 9999 FEW019 06/05 Q0996=
201011031450 METAR ESMX 031450Z 24010KT 9999 FEW015 06/05 Q0996=
201011031420 METAR ESMX 031420Z 22012KT 9999 FEW015 07/05 Q0995=
201011031350 METAR ESMX 031350Z 24011G21KT 210V280 9999 FEW036 07/05 Q0995=
201011031320 METAR ESMX 031320Z 26012KT 220V300 9999 -RA FEW012 BKN020 08/05 Q0995=
201011031250 METAR ESMX 031250Z 24010KT 210V280 8000 -RA FEW012 SCT018 09/07 Q0994=
201011031220 METAR ESMX 031220Z 23011KT 200V260 9999 -RA FEW015 SCT018 BKN020 09/07 Q0994=
201011031150 METAR ESMX 031150Z 22013KT 190V280 9999 FEW012 SCT016 BKN019 09/07 Q0994=
201011031120 METAR ESMX 031120Z 23011KT 200V270 9999 SCT013 BKN018 09/08 Q0994=
201011031050 METAR ESMX 031050Z 23014KT 200V260 9999 FEW009 SCT019 BKN025 09/07 Q0994=
201011031020 METAR ESMX 031020Z 22014KT 9999 FEW014 SCT020 BKN040 10/07 Q0994=
201011030950 METAR ESMX 030950Z 23012KT 200V260 9999 FEW012 SCT017 BKN022 10/08 Q0994=
201011030920 METAR ESMX 030920Z 23012KT 9999 FEW012 SCT033 BKN040 10/08 Q0994=
201011030850 METAR ESMX 030850Z 21012KT 9999 FEW012 SCT018 BKN020 10/08 Q0994=
201011030820 METAR ESMX 030820Z 20015KT 9999 -DZ FEW008 BKN014 10/09 Q0994=
201011030750 METAR ESMX 030750Z 20015KT 9999 FEW007 BKN013 10/08 Q0994=
201011030720 METAR ESMX 030720Z 19017KT 6000 DZ FEW006 OVC010 09/08 Q0994=
201011030650 METAR ESMX 030650Z 19018KT 7000 DZ FEW006 OVC010 09/08 Q0994 RERA=
201011030620 METAR ESMX 030620Z 18015KT 5000 RA FEW006 OVC008 09/08 Q0994=
201011030520 METAR ESMX 030520Z 17015KT 130V200 7000 -DZ FEW007 BKN009 OVC012 09/08 Q0995=
201011030450 METAR COR ESMX 030450Z 18014KT 8000 DZ SCT006 BKN010 09/08 Q0996=
201011030420 METAR ESMX 030420Z AUTO 18014KT 9000NDV DZ FEW006/// SCT009/// BKN011/// 09/08 Q0997=
201011030350 METAR ESMX 030350Z AUTO 19011KT 6000NDV -RA FEW005/// SCT007/// BKN008/// 09/08 Q0997 REDZ=
201011030320 METAR ESMX 030320Z AUTO 19013KT 6000NDV -RA FEW007/// SCT009/// BKN048/// 09/08 Q0998=
201011030250 METAR ESMX 030250Z AUTO 19013KT 6000NDV BR FEW008/// SCT009/// OVC011/// 09/08 Q0999=
201011030220 METAR ESMX 030220Z AUTO 19010KT 6000NDV BR FEW007/// BKN010/// OVC015/// 09/08 Q0999=
201011030150 METAR ESMX 030150Z AUTO 19012KT 5000NDV BR FEW006/// SCT008/// BKN010/// 09/08 Q1000=
201011030120 METAR ESMX 030120Z AUTO 19011KT 5000NDV BR FEW005/// BKN008/// OVC012/// 09/08 Q1000=
201011030050 METAR ESMX 030050Z AUTO 19009KT 6000NDV BR SCT004/// BKN007/// OVC015/// 08/07 Q1001=
201011030020 METAR ESMX 030020Z 17007KT 9000 BR FEW004 SCT010 BKN050 07/07 Q1001=
201011022320 METAR ESMX 022320Z 20011KT 9999 -RA FEW005 SCT025 BKN050 07/06 Q1001=
201011022250 METAR ESMX 022250Z 20008KT 9999 DZ SCT005 BKN020 07/06 Q1002 RESHRA=
201011022220 METAR COR ESMX 022220Z 24008KT 200V280 4000 -RA FEW003 SCT004 BKN005 08/07 Q1002 REDZ=
201011022120 METAR ESMX 022120Z 20014KT 3200 BR OVC002 08/07 Q1002=
201011022050 METAR ESMX 022050Z 20013KT 4500 BR BKN003 OVC006 08/07 Q1002=
201011022020 METAR ESMX 022020Z 19012KT 9999 OVC005 08/07 Q1002 REDZ=
201011021950 METAR ESMX 021950Z 19012KT 7000 DZ BKN005 OVC008 08/07 Q1002=
201011021920 METAR ESMX 021920Z 19014KT 5000 -RA SCT005 OVC007 07/07 Q1002 REDZ=
201011021850 METAR ESMX 021850Z 18012KT 4400 -RA SCT006 BKN007 07/07 Q1003=
201011021820 METAR ESMX 021820Z 17010KT 9000 -DZ BKN005 OVC009 08/07 Q1003=
201011021750 METAR ESMX 021750Z 17013KT 140V200 7000 DZ BKN005 OVC008 08/07 Q1003=
201011021720 METAR ESMX 021720Z 17011KT 130V190 7000 -RA OVC004 08/07 Q1004=
201011021650 METAR ESMX 021650Z 17010KT 140V200 8000 -DZ OVC004 08/07 Q1004 RERA=
201011021620 METAR ESMX 021620Z 17010KT 5000 -RA OVC002 07/07 Q1004=
201011021550 METAR ESMX 021550Z 16010KT 130V190 2800 -RA OVC002 07/07 Q1005=
201011021520 METAR ESMX 021520Z 16009KT 140V200 1800 BR OVC001 07/07 Q1005=
201011021450 METAR ESMX 021450Z 16008KT 1500 BR OVC001 07/06 Q1005=
201011021420 METAR ESMX 021420Z 16008KT 120V200 2600 BR OVC002 07/06 Q1006=
201011021350 METAR ESMX 021350Z 17009KT 130V200 3400 BR OVC002 06/06 Q1006=
201011021320 METAR ESMX 021320Z 17006KT 3200 BR OVC002 06/06 Q1007=
201011021250 METAR ESMX 021250Z 16005KT 120V200 2500 BR OVC001 06/05 Q1007=
201011021220 METAR ESMX 021220Z 17005KT 140V200 2400 BR OVC001 06/05 Q1008=
201011021150 METAR ESMX 021150Z 17006KT 140V200 0900 R01/1400N R19/1700N FG VV002 05/05 Q1008=
201011021120 METAR ESMX 021120Z 16007KT 130V200 1500 BR OVC001 05/05 Q1009=
201011021050 METAR ESMX 021050Z 18008KT 140V210 3900 BR OVC001 05/05 Q1009=
201011020950 METAR ESMX 020950Z 18007KT 140V210 1500 BR OVC001 05/05 Q1010=
201011020920 METAR ESMX 020920Z 16006KT 130V200 2700 BR OVC001 05/05 Q1010=
201011020850 METAR ESMX 020850Z 17006KT 140V200 4500 BR OVC002 05/04 Q1011=
201011020820 METAR ESMX 020820Z 16005KT 120V210 2700 BR OVC002 05/04 Q1011=
201011020750 METAR ESMX 020750Z 17007KT 1500 BR OVC001 05/05 Q1011=
201011020650 METAR ESMX 020650Z 17003KT 140V200 0400 R19/1000N FG VV002 05/05 Q1011=
201011020620 METAR ESMX 020620Z 17004KT 140V210 0500 R19/1300N FG VV002 05/05 Q1011=
201011020550 METAR ESMX 020550Z 20003KT 160V220 0500 R01/1500U R19/1700N FG VV002 05/05 Q1011=
201011020520 METAR ESMX 020520Z 18003KT 150V210 0900 R01/P2000N R19/P2000N FG VV002 05/05 Q1011=
201011020450 METAR ESMX 020450Z VRB02KT 2500 BR OVC002 05/05 Q1011=
201011020420 METAR ESMX 020420Z AUTO 20002KT 1500NDV BR OVC001/// 05/05 Q1011=
201011020350 METAR ESMX 020350Z AUTO VRB01KT 2400NDV BR OVC001/// 05/05 Q1011=
201011020320 METAR ESMX 020320Z AUTO VRB01KT 2600NDV BR OVC002/// 06/05 Q1011=
201011020250 METAR ESMX 020250Z AUTO VRB01KT 3500NDV BR OVC002/// 06/05 Q1011=
201011020220 METAR ESMX 020220Z AUTO VRB02KT 3800NDV BR OVC001/// 06/05 Q1011=
201011020150 METAR ESMX 020150Z AUTO VRB01KT 4400NDV BR OVC002/// 06/05 Q1011=
201011020120 METAR ESMX 020120Z VRB02KT 3000 BR OVC002 06/05 Q1011=
201011020050 METAR ESMX 020050Z VRB01KT 3500 BR OVC002 06/05 Q1012=
201011020020 METAR ESMX 020020Z VRB03KT 4000 BR OVC002 06/05 Q1012=
201011012350 METAR ESMX 012350Z 29003KT 250V330 4000 BR OVC002 06/05 Q1012=
201011012320 METAR ESMX 012320Z 33004KT 290V350 4000 BR OVC002 06/05 Q1012=
201011012250 METAR ESMX 012250Z 31003KT 270V340 3000 BR OVC002 06/05 Q1011=
201011012220 METAR ESMX 012220Z 31003KT 1500 BR OVC002 06/05 Q1012=
201011012150 METAR ESMX 012150Z 35003KT 0600 R01/1800U R19/P2000N FG VV002 06/05 Q1012=
201011012120 METAR ESMX 012120Z 31004KT 0550 R01/1300N R19/1600N FG VV002 06/05 Q1011=
201011012050 METAR ESMX 012050Z VRB02KT 0300 R01/1000V1400N R19/1100VP2000D FG VV002 06/05 Q1011=
201011012020 METAR ESMX 012020Z VRB02KT 0250 R01/0800N R19/1000N FG VV002 06/05 Q1011=
201011011950 METAR ESMX 011950Z 28003KT 250V330 0300 R01/1000N R19/1200N FG VV002 06/05 Q1011=
201011011920 METAR ESMX 011920Z VRB02KT 0350 R01/1100D R19/1100V1200D FG VV002 06/05 Q1011=
201011011850 METAR ESMX 011850Z VRB01KT 0900 R01/1300VP2000D R19/P2000N FG VV002 06/05 Q1011=
201011011820 METAR ESMX 011820Z VRB01KT 0650 R01/1900D R19/P2000N FG VV002 06/06 Q1011=
201011011750 METAR ESMX 011750Z VRB01KT 0800 R19/P2000N FG VV002 06/06 Q1011=
201011011720 METAR COR ESMX 011720Z VRB02KT 1200 R19/P2000N BR VV002 06/06 Q1010=
201011011650 METAR ESMX 011650Z 33004KT 300V360 4000 BR BKN001 OVC004 06/06 Q1010=
201011011620 METAR ESMX 011620Z 31005KT 280V360 6000 BR BKN002 06/06 Q1010=
201011011550 METAR ESMX 011550Z 31006KT 8000 BR OVC003 07/06 Q1010=
201011011520 METAR ESMX 011520Z 31004KT 290V350 9999 BKN005 BKN110 07/06 Q1010=
201011011450 METAR ESMX 011450Z 28003KT 240V300 9999 FEW006 SCT060 BKN110 08/06 Q1010=
201011011420 METAR ESMX 011420Z 25002KT 9999 SCT043 BKN110 09/07 Q1009=
201011011350 METAR ESMX 011350Z 31004KT 280V350 9999 SCT042 09/07 Q1009=
201011011320 METAR COR ESMX 011320Z 30005KT 9999 FEW006 SCT040 10/07 Q1009=
201011011250 METAR ESMX 011250Z 30004KT 9999 SCT006 SCT040 09/08 Q1009=
201011011220 METAR ESMX 011220Z VRB01KT 9999 FEW006 BKN041 09/08 Q1009=
