##########################################################
# Query made at 04/19/2024 21:18:35 UTC
# Time interval: from 10/01/2010 12:00  to 10/31/2010 12:59  UTC
##########################################################

##########################################################
# ESMX, Vaxjo (Sweden)
# WMO index: 02641. WIGOS ID: 0-20000-0-02648
# Latitude 56-51N. Longitude 014-50E. Altitude 199 m.
##########################################################

201010311250 METAR ESMX 311250Z AUTO 20004KT 9999NDV FEW006/// SCT007/// BKN025/// 10/09 Q1007=
201010311220 METAR ESMX 311220Z AUTO 18004KT 140V200 9999NDV BR FEW007/// SCT014/// OVC017/// 10/09 Q1007=
201010311150 METAR ESMX 311150Z AUTO 18004KT 9000NDV BR FEW009/// OVC019/// 10/09 Q1007=
201010311120 METAR ESMX 311120Z AUTO 21004KT 170V240 9000NDV BR FEW007/// OVC017/// 10/09 Q1007=
201010311050 METAR ESMX 311050Z AUTO 23004KT 190V280 8000NDV BR FEW005/// SCT008/// BKN016/// 10/09 Q1006=
201010311020 METAR ESMX 311020Z AUTO 26004KT 220V300 6000NDV BR BKN002/// OVC005/// 10/09 Q1006=
201010310950 METAR ESMX 310950Z AUTO 25005KT 220V290 4600NDV FEW002/// BKN004/// OVC006/// 10/09 Q1006=
201010310920 METAR ESMX 310920Z AUTO 21005KT 160V250 1500NDV BKN001/// OVC003/// 09/09 Q1006=
201010310850 METAR ESMX 310850Z AUTO 22005KT 190V250 1000NDV R01/1300VP2000U R19/P2000N FG OVC001/// 09/09 Q1006=
201010310820 METAR ESMX 310820Z AUTO 22005KT 1000NDV R01/1500N R19/1900N FG VV002 09/09 Q1005=
201010310750 METAR ESMX 310750Z AUTO 21005KT 0500NDV R01/0900N R19/1500N FG VV002 09/08 Q1005=
201010310720 METAR ESMX 310720Z AUTO 21005KT 0450NDV R01/0900N R19/1000N FG VV001 09/08 Q1005=
201010310650 METAR ESMX 310650Z AUTO 20006KT 0400NDV R01/1000N R19/0900N FG VV001 08/08 Q1005=
201010310620 METAR ESMX 310620Z AUTO 20005KT 0350NDV R01/1000N R19/1100N FG VV001 08/08 Q1004=
201010310550 METAR ESMX 310550Z AUTO 20005KT 1000NDV R01/P2000N R19/P2000N BR OVC001/// 08/08 Q1004=
201010310520 METAR ESMX 310520Z AUTO 18004KT 150V220 2000NDV BR OVC002/// 08/08 Q1004=
201010310450 METAR ESMX 310450Z AUTO 18004KT 1900NDV BR FEW002/// OVC006/// 08/07 Q1004=
201010310420 METAR ESMX 310420Z AUTO 16003KT 120V190 1700NDV BR OVC002/// 08/07 Q1003=
201010310350 METAR ESMX 310350Z AUTO 17004KT 1900NDV BR BKN002/// OVC014/// 08/07 Q1003=
201010310320 METAR ESMX 310320Z AUTO 17004KT 140V200 1800NDV BR BKN001/// OVC029/// 08/07 Q1003 REDZ=
201010310250 METAR ESMX 310250Z AUTO 17005KT 140V200 1500NDV BR OVC001/// 08/07 Q1003=
201010310220 METAR ESMX 310220Z AUTO 16004KT 1200NDV R01/P2000N R19/P2000N BR OVC001/// 08/07 Q1003=
201010310150 METAR ESMX 310150Z AUTO 15003KT 110V190 1200NDV R01/P2000N R19/P2000N BR BKN001/// OVC056/// 08/07 Q1003=
201010310120 METAR ESMX 310120Z AUTO 16003KT 110V180 1400NDV R01/P2000N R19/P2000N BR BKN001/// OVC032/// 08/07 Q1003=
201010310050 METAR ESMX 310050Z AUTO 15003KT 110V190 1400NDV R01/P2000N R19/P2000N BR OVC001/// 08/07 Q1004=
201010310020 METAR ESMX 310020Z AUTO 16002KT 1700NDV BR BKN002/// BKN063/// 08/07 Q1004 REDZ=
201010302350 METAR ESMX 302350Z AUTO 15004KT 110V180 1800NDV DZ BKN002/// BKN066/// 07/07 Q1004=
201010302320 METAR ESMX 302320Z AUTO 15004KT 120V190 2200NDV -DZ BKN061/// 07/07 Q1004=
201010302250 METAR ESMX 302250Z AUTO 13005KT 100V160 2200NDV BR FEW002/// BKN070/// 07/07 Q1003=
201010302220 METAR ESMX 302220Z AUTO 15003KT 110V180 3000NDV BR FEW002/// SCT091/// BKN100/// 07/07 Q1004=
201010302150 METAR ESMX 302150Z AUTO 16004KT 120V180 3400NDV -DZ BKN027/// 07/07 Q1004=
201010302120 METAR ESMX 302120Z AUTO 16005KT 120V190 4600NDV -DZ FEW030/// BKN055/// 08/07 Q1004=
201010302050 METAR ESMX 302050Z AUTO 18004KT 4400NDV -DZ FEW048/// 08/07 Q1004=
201010302020 METAR ESMX 302020Z AUTO 17004KT 5000NDV BR BKN052/// 07/06 Q1004=
201010301950 METAR ESMX 301950Z AUTO 17005KT 7000NDV BR NCD 08/07 Q1004=
201010301920 METAR ESMX 301920Z AUTO 17005KT 6000NDV BR FEW100/// 08/07 Q1004=
201010301850 METAR ESMX 301850Z AUTO 16005KT 7000NDV BR FEW098/// 08/07 Q1003=
201010301820 METAR ESMX 301820Z AUTO 17006KT 8000NDV BR SCT097/// 08/07 Q1003=
201010301750 METAR ESMX 301750Z AUTO 17007KT 8000NDV BR NCD 08/07 Q1003=
201010301720 METAR ESMX 301720Z AUTO 17006KT 140V210 8000NDV NCD 08/07 Q1003=
201010301650 METAR ESMX 301650Z AUTO 17006KT 9000NDV NCD 08/07 Q1003=
201010301620 METAR ESMX 301620Z AUTO 17006KT 9999NDV NCD 08/07 Q1002=
201010301550 METAR ESMX 301550Z AUTO 17006KT 9999NDV NCD 09/07 Q1002=
201010301520 METAR ESMX 301520Z AUTO 17006KT 9999NDV NCD 10/07 Q1002=
201010301450 METAR ESMX 301450Z AUTO 18007KT 9999NDV NCD 10/07 Q1002=
201010301420 METAR ESMX 301420Z AUTO 17007KT 9999NDV NCD 10/07 Q1001=
201010301350 METAR ESMX 301350Z AUTO 17008KT 140V200 9999NDV NCD 10/08 Q1001=
201010301320 METAR ESMX 301320Z AUTO 17006KT 130V190 9999NDV NCD 10/07 Q1001=
201010301250 METAR ESMX 301250Z AUTO 18007KT 120V210 9999NDV NCD 11/08 Q1001=
201010301220 METAR ESMX 301220Z AUTO 17008KT 9999NDV NCD 10/07 Q1001=
201010301150 METAR ESMX 301150Z 17009KT 9999 FEW013 10/07 Q1001=
201010301120 METAR ESMX 301120Z 17009KT 9999 FEW012 SCT020 10/07 Q1002=
201010301050 METAR ESMX 301050Z 18008KT 150V210 9999 SCT013 09/07 Q1001=
201010301020 METAR ESMX 301020Z 18008KT 9999 SCT013 09/07 Q1001=
201010300950 METAR ESMX 300950Z 17008KT 140V210 9000 BR BKN012 09/07 Q1001=
201010300920 METAR ESMX 300920Z 18008KT 130V210 9999 BR BKN010 09/07 Q1002=
201010300850 METAR ESMX 300850Z 17009KT 140V210 9000 BR BKN009 08/07 Q1001=
201010300820 METAR ESMX 300820Z 17009KT 140V200 8000 BR FEW008 SCT010 08/06 Q1002=
201010300750 METAR ESMX 300750Z 16008KT 130V230 7000 BR FEW007 BKN009 08/06 Q1001=
201010300720 METAR ESMX 300720Z 17008KT 130V210 7000 BR FEW007 BKN009 08/06 Q1002=
201010300650 METAR ESMX 300650Z 16008KT 140V200 7000 BR FEW008 BKN010 08/06 Q1001=
201010300620 METAR ESMX 300620Z 14007KT 080V180 7000 BR BKN009 08/06 Q1001=
201010300550 METAR ESMX 300550Z AUTO 18007KT 7000NDV BR FEW008/// 08/06 Q1002=
201010300520 METAR ESMX 300520Z AUTO 17007KT 140V200 7000NDV BR FEW007/// 08/06 Q1002=
201010300450 METAR ESMX 300450Z AUTO 16007KT 130V190 6000NDV BR NCD 07/06 Q1002=
201010300420 METAR ESMX 300420Z AUTO 17007KT 140V200 6000NDV BR NCD 07/06 Q1003=
201010300350 METAR ESMX 300350Z AUTO 16006KT 120V200 7000NDV BR NCD 07/06 Q1003=
201010300320 METAR ESMX 300320Z AUTO 17007KT 140V200 7000NDV BR NCD 07/06 Q1003=
201010300250 METAR ESMX 300250Z AUTO 16008KT 120V190 5000NDV BR FEW005/// 07/06 Q1003=
201010300220 METAR ESMX 300220Z AUTO 16008KT 5000NDV BR SCT005/// BKN007/// 07/06 Q1004=
201010300150 METAR ESMX 300150Z AUTO 15007KT 5000NDV BR BKN005/// 08/07 Q1004=
201010300120 METAR ESMX 300120Z AUTO 16006KT 120V200 5000NDV BR FEW006/// SCT008/// BKN009/// 08/07 Q1005=
201010300050 METAR ESMX 300050Z AUTO 17007KT 5000NDV BR BKN008/// 08/07 Q1005=
201010300020 METAR ESMX 300020Z AUTO 16008KT 110V190 5000NDV BR BKN007/// 08/07 Q1006=
201010292350 METAR ESMX 292350Z AUTO 16007KT 5000NDV BR FEW008/// 08/07 Q1006=
201010292320 METAR ESMX 292320Z AUTO 16007KT 4900NDV BR FEW009/// 09/07 Q1006=
201010292250 METAR ESMX 292250Z AUTO 16007KT 120V200 5000NDV BR FEW009/// SCT011/// 09/07 Q1006=
201010292220 METAR ESMX 292220Z AUTO 17008KT 120V200 5000NDV BR FEW009/// OVC011/// 09/07 Q1007=
201010292150 METAR ESMX 292150Z AUTO 17009KT 130V200 4700NDV BR FEW008/// OVC010/// 09/08 Q1008=
201010292120 METAR ESMX 292120Z AUTO 17010KT 140V210 5000NDV BR BKN007/// OVC010/// 09/08 Q1008=
201010292050 METAR ESMX 292050Z AUTO 17010KT 120V200 5000NDV BR BKN008/// OVC010/// 09/08 Q1008=
201010292020 METAR ESMX 292020Z AUTO 17009KT 120V200 6000NDV BR FEW008/// BKN010/// OVC013/// 09/07 Q1008=
201010291950 METAR ESMX 291950Z AUTO 17009KT 130V210 6000NDV BR FEW007/// BKN009/// OVC012/// 09/08 Q1008=
201010291920 METAR ESMX 291920Z 18009KT 140V210 6000 BR FEW005 OVC010 09/08 Q1008=
201010291850 METAR ESMX 291850Z 17008KT 150V210 4700 BR SCT004 BKN015 09/08 Q1008=
201010291820 METAR ESMX 291820Z 17006KT 7000 BR BKN014 09/08 Q1009=
201010291750 METAR ESMX 291750Z 17009KT 8000 BR FEW008 OVC013 09/08 Q1009=
201010291720 METAR ESMX 291720Z 18009KT 160V230 7000 BR FEW006 OVC013 09/08 Q1009=
201010291650 METAR ESMX 291650Z 19007KT 6000 BR FEW007 SCT010 BKN012 09/08 Q1009=
201010291620 METAR ESMX 291620Z 19006KT 7000 BR FEW012 OVC017 09/08 Q1009=
201010291550 METAR ESMX 291550Z 19006KT 7000 BR FEW018 OVC020 10/09 Q1009=
201010291520 METAR ESMX 291520Z 18006KT 6000 BR FEW005 OVC020 10/09 Q1010=
201010291450 METAR ESMX 291450Z 18006KT 6000 BR FEW004 SCT015 OVC025 10/09 Q1010=
201010291420 METAR ESMX 291420Z 19007KT 9000 BR SCT005 BKN008 10/09 Q1010=
201010291350 METAR ESMX 291350Z 19006KT 3500 -DZ OVC003 10/09 Q1010=
201010291320 METAR ESMX 291320Z 19007KT 5000 -DZ BKN005 10/09 Q1010=
201010291250 METAR ESMX 291250Z 19009KT 9000 -DZ BKN005 OVC008 10/08 Q1010=
201010291220 METAR ESMX 291220Z 19008KT 8000 BKN006 OVC009 09/08 Q1011=
201010291150 METAR ESMX 291150Z 19008KT 9999 FEW009 OVC011 10/08 Q1011=
201010291120 METAR ESMX 291120Z 19008KT 9999 FEW010 OVC018 10/08 Q1011=
201010291050 METAR ESMX 291050Z 20008KT 9999 FEW009 SCT011 BKN020 09/08 Q1011=
201010291020 METAR ESMX 291020Z 21007KT 9999 FEW009 OVC050 09/07 Q1011=
201010290950 METAR ESMX 290950Z 22007KT 9999 FEW007 BKN008 OVC010 09/07 Q1011=
201010290920 METAR ESMX 290920Z 20007KT 9999 SCT007 OVC009 09/07 Q1011=
201010290850 METAR ESMX 290850Z 21008KT 9999 FEW006 SCT008 BKN016 08/07 Q1011=
201010290820 METAR ESMX 290820Z 21007KT 9999 FEW005 SCT017 08/07 Q1011=
201010290750 METAR ESMX 290750Z 20006KT 9999 FEW006 BKN017 08/07 Q1010=
201010290720 METAR ESMX 290720Z 19005KT 9999 SCT019 BKN110 07/06 Q1010=
201010290650 METAR ESMX 290650Z 22005KT 9999 BKN023 BKN110 07/06 Q1010=
201010290620 METAR ESMX 290620Z 21006KT 9999 BKN024 07/06 Q1010=
201010290550 METAR ESMX 290550Z 23006KT 9999 SCT022 BKN100 07/06 Q1010=
201010290520 METAR ESMX 290520Z 23007KT 190V260 CAVOK 07/06 Q1009=
201010290450 METAR ESMX 290450Z 24008KT 210V280 CAVOK 07/06 Q1009=
201010290420 METAR ESMX 290420Z 22007KT 190V250 9999 SCT013 07/06 Q1009=
201010290350 METAR COR ESMX 290350Z 23008KT 9999 SCT011 07/06 Q1009=
201010290320 METAR ESMX 290320Z AUTO 25009KT 210V280 9999NDV FEW012/// 07/06 Q1009=
201010290250 METAR ESMX 290250Z AUTO 24008KT 210V280 9999NDV FEW014/// SCT017/// 08/06 Q1009=
201010290220 METAR ESMX 290220Z AUTO 24010KT 200V260 9999NDV FEW011/// BKN014/// 08/06 Q1009=
201010290150 METAR ESMX 290150Z AUTO 24008KT 210V280 9999NDV BKN011/// BKN017/// 08/06 Q1009=
201010290120 METAR ESMX 290120Z AUTO 24009KT 210V280 9999NDV OVC010/// 08/06 Q1009=
201010290050 METAR ESMX 290050Z AUTO 23009KT 200V260 9999NDV BKN011/// OVC019/// 08/06 Q1009=
201010290020 METAR ESMX 290020Z AUTO 25008KT 210V270 9999NDV SCT012/// BKN016/// OVC035/// 08/06 Q1009=
201010282350 METAR ESMX 282350Z AUTO 25011KT 9999NDV FEW012/// BKN015/// BKN036/// 08/06 Q1009=
201010282320 METAR ESMX 282320Z 24009KT 200V270 9999 FEW012 BKN015 BKN020 08/06 Q1009=
201010282250 METAR ESMX 282250Z 24009KT 9999 FEW014 SCT033 07/06 Q1009=
201010282220 METAR ESMX 282220Z 25008KT 9999 FEW021 OVC027 08/06 Q1009=
201010282150 METAR ESMX 282150Z 23008KT 9999 FEW013 OVC027 08/06 Q1009=
201010282120 METAR ESMX 282120Z 24008KT 9999 FEW013 OVC030 08/06 Q1009=
201010282050 METAR ESMX 282050Z 25010KT 230V290 9999 FEW011 SCT013 OVC031 08/06 Q1009=
201010282020 METAR ESMX 282020Z 25009KT 220V280 9999 FEW011 SCT016 BKN033 08/06 Q1008=
201010281950 METAR ESMX 281950Z 25009KT 220V290 9999 FEW010 SCT014 BKN017 08/06 Q1008=
201010281920 METAR ESMX 281920Z 25009KT 9999 FEW011 BKN014 OVC038 08/07 Q1008=
201010281850 METAR ESMX 281850Z 25010KT 200V280 9999 FEW010 SCT015 BKN043 08/07 Q1008=
201010281820 METAR ESMX 281820Z 24008KT 210V280 9999 FEW009 BKN011 BKN047 08/07 Q1007=
201010281750 METAR ESMX 281750Z 23009KT 9999 FEW008 SCT015 BKN048 08/07 Q1007=
201010281720 METAR ESMX 281720Z 23009KT 9999 FEW007 BKN010 OVC052 08/07 Q1007=
201010281650 METAR ESMX 281650Z 23010KT 9999 FEW007 BKN010 BKN018 08/07 Q1007=
201010281620 METAR ESMX 281620Z 23010KT 9999 FEW009 SCT014 BKN017 08/07 Q1007=
201010281550 METAR ESMX 281550Z 23011KT 9999 FEW007 SCT012 BKN015 08/07 Q1007=
201010281520 METAR ESMX 281520Z 22011KT 9999 FEW008 SCT010 BKN013 08/07 Q1006=
201010281450 METAR ESMX 281450Z 21011KT 7000 -RA FEW011 SCT014 BKN018 08/07 Q1006 REDZ=
201010281420 METAR ESMX 281420Z 21010KT 9999 FEW027 SCT033 BKN039 08/07 Q1006 RERA=
201010281350 METAR ESMX 281350Z 21012KT 8000 -RA FEW008 SCT013 08/07 Q1007=
201010281320 METAR ESMX 281320Z 21012KT 170V250 5000 RA FEW010 BKN013 BKN019 09/07 Q1007 REDZ=
201010281250 METAR ESMX 281250Z 20010KT 9999 -RA FEW011 SCT013 BKN015 09/07 Q1007=
201010281220 METAR ESMX 281220Z 20011KT 9999 FEW008 BKN011 OVC023 10/08 Q1007=
201010281150 METAR ESMX 281150Z 20011KT 170V230 9999 FEW008 BKN010 OVC029 10/08 Q1008=
201010281120 METAR ESMX 281120Z 20009KT 170V240 9999 BR FEW006 SCT007 BKN009 09/08 Q1008=
201010281050 METAR ESMX 281050Z 21008KT 180V240 6000 BR SCT004 BKN008 09/08 Q1008=
201010281020 METAR ESMX 281020Z 20008KT 4600 BR FEW006 SCT008 BKN009 09/08 Q1008 RERA=
201010280950 METAR ESMX 280950Z 20008KT 170V240 8000 BR FEW006 SCT009 BKN011 09/08 Q1009=
201010280920 METAR ESMX 280920Z 21009KT 8000 BR FEW006 SCT008 BKN009 09/07 Q1009=
201010280850 METAR ESMX 280850Z 20009KT 8000 BR BKN006 OVC010 09/08 Q1009 REDZ=
201010280820 METAR ESMX 280820Z 21009KT 8000 BR FEW006 BKN008 09/07 Q1009=
201010280750 METAR ESMX 280750Z 21010KT 9999 FEW006 SCT007 BKN010 09/07 Q1009=
201010280720 METAR ESMX 280720Z 22010KT 190V250 9000 BR FEW006 BKN010 09/07 Q1009=
201010280650 METAR ESMX 280650Z 21010KT 9999 SCT006 BKN010 08/07 Q1009=
201010280620 METAR ESMX 280620Z 21009KT 9000 BR SCT005 BKN008 OVC009 08/07 Q1009=
201010280550 METAR ESMX 280550Z 20009KT 9000 BR SCT006 OVC008 08/07 Q1010=
201010280520 METAR ESMX 280520Z 21007KT 170V240 9999 BR FEW007 SCT009 BKN011 08/07 Q1010=
201010280450 METAR ESMX 280450Z 21009KT 9999 BR FEW006 OVC008 08/07 Q1010=
201010280420 METAR ESMX 280420Z 20008KT 9000 BR FEW005 OVC007 08/07 Q1010=
201010280350 METAR ESMX 280350Z 20008KT 9000 BR FEW005 BKN008 08/07 Q1010=
201010280320 METAR ESMX 280320Z AUTO 22008KT 9000NDV BR FEW007/// BKN010/// BKN016/// 08/07 Q1010=
201010280250 METAR ESMX 280250Z AUTO 22008KT 9999NDV BR FEW006/// SCT009/// BKN011/// 08/08 Q1010=
201010280220 METAR ESMX 280220Z AUTO 22006KT 8000NDV BR FEW004/// SCT006/// BKN008/// 08/08 Q1010=
201010280150 METAR ESMX 280150Z AUTO 20008KT 9000NDV BR FEW004/// SCT005/// BKN007/// 08/08 Q1011=
201010280120 METAR ESMX 280120Z AUTO 20009KT 8000NDV BR BKN003/// OVC006/// 08/08 Q1011=
201010272350 METAR ESMX 272350Z AUTO 20007KT 1700NDV BR OVC001/// 08/07 Q1011=
201010272320 METAR ESMX 272320Z 20008KT 170V230 2000 BR OVC002 08/07 Q1011=
201010272250 METAR ESMX 272250Z 19009KT 2900 BR OVC002 07/07 Q1011=
201010272220 METAR ESMX 272220Z 19009KT 4800 BR OVC002 07/07 Q1011=
201010272150 METAR ESMX 272150Z 20010KT 2200 BR OVC002 07/07 Q1011=
201010272120 METAR ESMX 272120Z 21009KT 2200 BR OVC002 07/06 Q1011=
201010272050 METAR ESMX 272050Z 20010KT 5000 BR OVC003 07/06 Q1011=
201010272020 METAR ESMX 272020Z 19012KT 3900 BR OVC003 07/06 Q1011=
201010271950 METAR ESMX 271950Z 19011KT 4000 -DZ OVC002 06/06 Q1011=
201010271920 METAR ESMX 271920Z 19012KT 3400 BR OVC002 06/06 Q1012=
201010271850 METAR ESMX 271850Z 19012KT 4100 DZ OVC001 06/05 Q1012=
201010271820 METAR ESMX 271820Z 18012KT 2600 BR OVC002 06/05 Q1012 REDZ=
201010271750 METAR ESMX 271750Z 18013KT 150V210 2500 -DZ OVC003 06/05 Q1012=
201010271720 METAR ESMX 271720Z 18013KT 5000 BR OVC003 06/05 Q1012=
201010271650 METAR ESMX 271650Z 18013KT 7000 BR OVC005 05/05 Q1012 REDZ=
201010271620 METAR ESMX 271620Z 18012KT 6000 BR FEW005 OVC006 05/05 Q1012=
201010271550 METAR ESMX 271550Z 18012KT 3000 DZ SCT005 BKN006 05/04 Q1013=
201010271520 METAR ESMX 271520Z 18013KT 150V210 3200 DZ SCT005 BKN010 05/04 Q1013=
201010271450 METAR ESMX 271450Z 18014KT 5000 BR FEW007 BKN010 OVC014 06/04 Q1013=
201010271420 METAR ESMX 271420Z 18012KT 150V210 8000 BR FEW008 SCT011 OVC013 06/05 Q1014 REDZ=
201010271350 METAR ESMX 271350Z 17010KT 9999 -DZ FEW010 SCT017 BKN020 06/05 Q1014=
201010271320 METAR ESMX 271320Z 18011KT 150V210 9999 -RA FEW015 BKN028 BKN037 06/04 Q1014=
201010271250 METAR ESMX 271250Z 16012KT 9000 -RA FEW032 SCT037 06/04 Q1015=
201010271220 METAR ESMX 271220Z 17013KT 140V210 8000 -RA FEW012 BKN040 06/04 Q1015=
201010271150 METAR ESMX 271150Z 18011KT 150V210 8000 -RA FEW015 BKN040 07/04 Q1016=
201010271120 METAR ESMX 271120Z 17010KT 9999 -RA OVC040 07/04 Q1016=
201010271050 METAR ESMX 271050Z 16012KT 120V200 9999 -RA FEW015 BKN041 BKN056 07/04 Q1016=
201010271020 METAR ESMX 271020Z 17011KT 130V210 9999 FEW012 SCT060 07/04 Q1017=
201010270950 METAR ESMX 270950Z 18010KT 140V230 9999 FEW012 BKN060 06/04 Q1017=
201010270920 METAR ESMX 270920Z 17009KT 130V190 9999 FEW004 06/04 Q1018=
201010270850 METAR ESMX 270850Z 18009KT 150V210 7000 BR FEW004 05/05 Q1018=
201010270820 METAR ESMX 270820Z 17007KT 3700 BR BKN004 04/04 Q1019=
201010270750 METAR ESMX 270750Z 15006KT 120V180 2500 BR OVC002 03/03 Q1019=
201010270720 METAR ESMX 270720Z 16006KT 3500 BR OVC001 02/02 Q1020=
201010270650 METAR ESMX 270650Z 16005KT 4000 BR OVC002 02/01 Q1020=
201010270620 METAR ESMX 270620Z 16006KT 6000 BR FEW003 OVC005 01/01 Q1020=
201010270550 METAR ESMX 270550Z 16006KT 7000 BR FEW005 OVC079 01/01 Q1020=
201010270520 METAR ESMX 270520Z 15007KT 120V180 8000 BR FEW009 BKN082 01/00 Q1020=
201010270450 METAR ESMX 270450Z 15005KT 120V180 9000 SCT008 BKN012 01/00 Q1020=
201010270420 METAR ESMX 270420Z 14004KT 110V180 9999 FEW013 SCT016 BKN018 00/00 Q1021=
201010270350 METAR ESMX 270350Z 15003KT 110V200 9999 FEW011 BKN020 00/M00 Q1021=
201010270320 METAR ESMX 270320Z AUTO 15002KT 0900NDV R01/P2000N R19/P2000N OVC020/// M00/M01 Q1021=
201010270250 METAR ESMX 270250Z AUTO 16003KT 0250NDV R01/1200VP2000D R19/1000N=
201010270220 METAR ESMX 270220Z AUTO 16002KT 0500NDV R01/P2000N R19/1600U FZFG VV000 M00/M01 Q1022=
201010270150 METAR ESMX 270150Z AUTO 17003KT 0600NDV R01/P2000N R19/1300VP2000D=
201010270120 METAR ESMX 270120Z AUTO 17003KT 0250NDV R01/1100U R19/0900N FZFG VV000 M00/M01 Q1022=
201010270050 METAR ESMX 270050Z AUTO 16004KT 0450NDV R01/1400N R19/1300VP2000D=
201010270020 METAR ESMX 270020Z AUTO 16004KT 1100NDV R01/P2000N R19/P2000N BR FEW002/// M01/M01 Q1023=
201010262350 METAR ESMX 262350Z AUTO 16002KT 3400NDV BR NCD M02/M02 Q1023=
201010262320 METAR ESMX 262320Z 19002KT CAVOK M01/M02 Q1023=
201010262250 METAR ESMX 262250Z 19003KT CAVOK M01/M01 Q1023=
201010262220 METAR ESMX 262220Z 22003KT CAVOK M01/M02 Q1023=
201010262150 METAR ESMX 262150Z 21003KT CAVOK M01/M01 Q1023=
201010262120 METAR ESMX 262120Z 19002KT CAVOK M00/M01 Q1023=
201010262050 METAR ESMX 262050Z 17004KT CAVOK 00/M01 Q1023=
201010262020 METAR ESMX 262020Z 23003KT CAVOK M00/M01 Q1023=
201010261950 METAR ESMX 261950Z 23003KT CAVOK M00/M01 Q1023=
201010261850 METAR ESMX 261850Z 23004KT CAVOK 01/M01 Q1023=
201010261820 METAR ESMX 261820Z 24005KT CAVOK 01/M01 Q1023=
201010261750 METAR ESMX 261750Z 22004KT CAVOK 02/M01 Q1023=
201010261720 METAR ESMX 261720Z 23004KT CAVOK 00/M02 Q1023=
201010261650 METAR ESMX 261650Z 22004KT CAVOK 02/M01 Q1022=
201010261620 METAR ESMX 261620Z 18003KT CAVOK 02/M01 Q1022=
201010261550 METAR ESMX 261550Z 24003KT CAVOK 03/M01 Q1022=
201010261520 METAR ESMX 261520Z 28004KT CAVOK 05/M01 Q1022=
201010261450 METAR ESMX 261450Z 27006KT CAVOK 06/M01 Q1022=
201010261420 METAR ESMX 261420Z 28006KT CAVOK 07/M02 Q1022=
201010261350 METAR ESMX 261350Z 28008KT CAVOK 07/M02 Q1022=
201010261250 METAR ESMX 261250Z 28008KT CAVOK 07/M02 Q1021=
201010261150 METAR ESMX 261150Z 28009KT CAVOK 06/M03 Q1021=
201010261120 METAR ESMX 261120Z 28008KT CAVOK 06/M02 Q1021=
201010261050 METAR ESMX 261050Z 28006KT CAVOK 06/M03 Q1021=
201010261020 METAR ESMX 261020Z 28005KT CAVOK 05/M02 Q1021=
201010260950 METAR ESMX 260950Z 28005KT 240V330 CAVOK 04/M01 Q1021=
201010260920 METAR ESMX 260920Z 27004KT 250V310 CAVOK 03/M01 Q1021=
201010260850 METAR ESMX 260850Z 31003KT 270V350 CAVOK 02/M00 Q1020=
201010260820 METAR ESMX 260820Z 29005KT CAVOK 01/M01 Q1020=
201010260750 METAR ESMX 260750Z 27003KT CAVOK M00/M01 Q1020=
201010260720 METAR ESMX 260720Z 29004KT 250V320 CAVOK M01/M02 Q1020=
201010260650 METAR ESMX 260650Z 29003KT CAVOK M04/M04 Q1019=
201010260620 METAR ESMX 260620Z 29001KT CAVOK M03/M03 Q1019=
201010260550 METAR ESMX 260550Z 29002KT CAVOK M03/M03 Q1019=
201010260520 METAR ESMX 260520Z 28003KT CAVOK M03/M03 Q1018=
201010260450 METAR ESMX 260450Z 28004KT 270V330 CAVOK M03/M03 Q1018=
201010260420 METAR ESMX 260420Z 28003KT 230V300 CAVOK M04/M05 Q1018=
201010260350 METAR ESMX 260350Z 29002KT CAVOK M03/M04 Q1017=
201010260320 METAR ESMX 260320Z 26002KT CAVOK M03/M03 Q1017=
201010260250 METAR ESMX 260250Z AUTO VRB02KT 9999NDV NCD M02/M02 Q1017=
201010260220 METAR ESMX 260220Z AUTO VRB02KT 9999NDV NCD M03/M04 Q1017=
201010260150 METAR ESMX 260150Z AUTO 29002KT 9999NDV NCD M03/M04 Q1016=
201010260120 METAR ESMX 260120Z AUTO 18001KT 3100NDV NCD M02/M03 Q1016=
201010260050 METAR ESMX 260050Z AUTO VRB02KT 9999NDV NCD M03/M03 Q1016=
201010260020 METAR ESMX 260020Z AUTO VRB01KT 9999NDV NCD M02/M03 Q1016=
201010252350 METAR ESMX 252350Z AUTO VRB01KT 0550NDV R01/P2000N R19/P2000N FZFG NCD M02/M02 Q1015=
201010252320 METAR ESMX 252320Z 00000KT CAVOK M02/M02 Q1015=
201010252250 METAR ESMX 252250Z 36004KT CAVOK M02/M02 Q1014=
201010252220 METAR ESMX 252220Z 36004KT CAVOK M01/M02 Q1014=
201010252150 METAR ESMX 252150Z 03003KT CAVOK M00/M01 Q1014=
201010252120 METAR ESMX 252120Z 03003KT CAVOK M00/M01 Q1014=
201010252050 METAR ESMX 252050Z 01004KT 9999 FEW030 M01/M02 Q1013=
201010252020 METAR ESMX 252020Z VRB01KT 9999 FEW030 M01/M02 Q1013=
201010251950 METAR ESMX 251950Z VRB01KT CAVOK M01/M02 Q1013=
201010251920 METAR ESMX 251920Z VRB01KT CAVOK M00/M01 Q1013=
201010251850 METAR ESMX 251850Z 00000KT 9999 FEW030 00/M00 Q1012=
201010251820 METAR ESMX 251820Z VRB01KT 9999 FEW032 SCT037 01/M00 Q1012=
201010251750 METAR ESMX 251750Z 23004KT 9999 BKN027 BKN035 01/00 Q1012=
201010251720 METAR ESMX 251720Z 20003KT 9999 SCT028 00/M00 Q1012=
201010251650 METAR ESMX 251650Z VRB02KT 9999 FEW030 00/M01 Q1012=
201010251620 METAR ESMX 251620Z VRB01KT 9999 FEW035 01/M00 Q1012=
201010251550 METAR ESMX 251550Z 17002KT 9999 FEW035 02/00 Q1011=
201010251520 METAR ESMX 251520Z 22001KT 9999 FEW035 03/01 Q1011=
201010251450 METAR ESMX 251450Z VRB02KT 9999 FEW035 06/M00 Q1011=
201010251420 METAR ESMX 251420Z 26004KT 210V290 9999 FEW035 06/M00 Q1011=
201010251350 METAR ESMX 251350Z 28006KT 9999 FEW035 07/M01 Q1011=
201010251250 METAR ESMX 251250Z 28007KT CAVOK 07/M00 Q1011=
201010251220 METAR ESMX 251220Z 27007KT CAVOK 07/01 Q1011=
201010251150 METAR ESMX 251150Z 28006KT 230V320 CAVOK 06/M01 Q1011=
201010251120 METAR ESMX 251120Z 30006KT 260V330 CAVOK 05/00 Q1011=
201010251050 METAR ESMX 251050Z 29007KT 240V340 CAVOK 05/02 Q1011=
201010250950 METAR ESMX 250950Z 31006KT 280V350 CAVOK 05/02 Q1010=
201010250920 METAR ESMX 250920Z 28006KT 250V320 CAVOK 04/02 Q1010=
201010250850 METAR ESMX 250850Z 29007KT CAVOK 03/01 Q1010=
201010250820 METAR ESMX 250820Z 29006KT 260V330 CAVOK 03/01 Q1009=
201010250750 METAR ESMX 250750Z 30005KT 270V330 CAVOK 02/01 Q1009=
201010250720 METAR ESMX 250720Z 30004KT CAVOK 01/01 Q1008=
201010250650 METAR ESMX 250650Z 30004KT CAVOK 01/00 Q1008=
201010250620 METAR ESMX 250620Z 30005KT CAVOK 01/M00 Q1008=
201010250550 METAR ESMX 250550Z 30003KT CAVOK 00/M00 Q1007=
201010250520 METAR ESMX 250520Z 29003KT CAVOK 01/M00 Q1007=
201010250450 METAR ESMX 250450Z 30004KT 270V330 CAVOK 01/M00 Q1006=
201010250420 METAR ESMX 250420Z 30004KT 9999 SCR008 SCT080 01/00 Q1006=
201010250350 METAR ESMX 250350Z 30004KT 9999 SCT008 SCT080 01/00 Q1006=
201010250320 METAR ESMX 250320Z AUTO 32006KT 9999NDV FEW066/// 01/00 Q1005=
201010250250 METAR ESMX 250250Z AUTO 32007KT 280V340 9999NDV SCT006/// BKN009/// BKN064/// 02/01 Q1005=
201010250220 METAR ESMX 250220Z AUTO 33007KT 9999NDV FEW006/// SCT008/// BKN009/// 02/01 Q1004=
201010250150 METAR ESMX 250150Z AUTO 34007KT 9999NDV SCT011/// OVC052/// 02/01 Q1004=
201010250120 METAR ESMX 250120Z AUTO 34010KT 9999NDV FEW007/// SCT009/// OVC010/// 03/01 Q1004=
201010250050 METAR ESMX 250050Z AUTO 34009KT 9999NDV FEW007/// OVC009/// 03/02 Q1003=
201010250020 METAR ESMX 250020Z AUTO 34008KT 9999NDV FEW007/// OVC009/// 03/02 Q1003=
201010242350 METAR ESMX 242350Z 35009KT 9999 -DZ FEW006 OVC009 03/02 Q1002=
201010242320 METAR ESMX 242320Z 34009KT 9999 -DZ FEW006 SCT009 OVC010 02/02 Q1002=
201010242250 METAR ESMX 242250Z 34009KT 9999 -RA FEW004 SCT006 BKN010 02/01 Q1002 REDZ=
201010242150 METAR ESMX 242150Z 36010KT 330V040 9999 -DZ FEW005 SCT007 BKN010 02/01 Q1001=
201010242120 METAR ESMX 242120Z 36010KT 9999 DZ FEW006 SCT007 BKN009 02/01 Q1000=
201010242050 METAR ESMX 242050Z 35010KT 9999 -DZ BKN006 OVC010 02/01 Q1000=
201010242020 METAR ESMX 242020Z 35011KT 9999 OVC006 03/02 Q0999 REDZ=
201010241950 METAR ESMX 241950Z 35011KT 9999 -DZ OVC005 03/02 Q0999=
201010241920 METAR ESMX 241920Z 01012KT 9999 BKN004 OVC005 04/03 Q0998=
201010241850 METAR ESMX 241850Z 36009KT 330V030 9999 OVC004 06/05 Q0997=
201010241820 METAR ESMX 241820Z 03008KT 350V060 9999 OVC004 06/05 Q0997=
201010241750 METAR ESMX 241750Z 01007KT 9999 OVC005 06/05 Q0996=
201010241720 METAR ESMX 241720Z 02006KT 9000 BR FEW003 BKN005 07/06 Q0996=
201010241650 METAR ESMX 241650Z 03004KT 360V060 7000 BR FEW004 BKN020 07/06 Q0996=
201010241550 METAR ESMX 241550Z 03004KT 6000 BR SCT010 BKN021 07/06 Q0995=
201010241520 METAR ESMX 241520Z 03002KT 6000 BR SCT008 BKN043 07/06 Q0995=
201010241450 METAR ESMX 241450Z VRB01KT 9000 BR FEW010 BKN040 08/06 Q0994=
201010241420 METAR ESMX 241420Z VRB02KT 9999 FEW010 BKN036 08/06 Q0994=
201010241350 METAR ESMX 241350Z 11002KT 9999 FEW007 SCT018 BKN035 08/06 Q0994=
201010241320 METAR ESMX 241320Z VRB02KT 9999 SCT008 BKN033 08/06 Q0994=
201010241250 METAR ESMX 241250Z VRB02KT 9999 FEW010 BKN035 08/06 Q0994=
201010241220 METAR ESMX 241220Z 20004KT 150V220 9999 BKN007 BKN024 08/06 Q0994=
201010241150 METAR ESMX 241150Z 20005KT 9999 SCT007 BKN011 08/06 Q0994=
201010241120 METAR ESMX 241120Z 16004KT 120V190 9999 -SHRA FEW005 BKN008 07/06 Q0994=
201010241050 METAR ESMX 241050Z 18005KT 140V200 8000 BR FEW005 BKN008 07/06 Q0994=
201010241020 METAR ESMX 241020Z 17005KT 150V220 6000 -RA BR FEW005 BKN007 07/06 Q0994 RERA=
201010240950 METAR ESMX 240950Z 16005KT 130V190 5000 RA BR FEW005 BKN008 07/06 Q0994=
201010240920 METAR ESMX 240920Z 16004KT 120V190 4200 RA BR BKN003 BKN007 06/06 Q0994=
201010240850 METAR ESMX 240850Z 15004KT 110V180 4000 RA BR BKN002 OVC005 06/05 Q0994=
201010240820 METAR ESMX 240820Z AUTO 15004KT 100V190 3500NDV -RA OVC002/// 06/05 Q0994=
201010240750 METAR ESMX 240750Z AUTO 15003KT 110V170 3300NDV -DZ FEW003/// BKN004/// OVC007/// 06/05 Q0994=
201010240720 METAR ESMX 240720Z AUTO 15004KT 110V180 5000NDV -RA FEW004/// SCT005/// BKN007/// 05/05 Q0994=
201010240650 METAR ESMX 240650Z AUTO 12003KT 080V170 4700NDV -RA FEW004/// BKN006/// OVC017/// 05/04 Q0994=
201010240620 METAR ESMX 240620Z AUTO 14003KT 100V170 5000NDV -RA BKN004/// OVC008/// 05/04 Q0994=
201010240550 METAR ESMX 240550Z AUTO 13003KT 080V180 5000NDV -RA BKN005/// OVC009/// 05/04 Q0994=
201010240520 METAR ESMX 240520Z AUTO 13003KT 070V200 5000NDV -RA FEW007/// SCT010/// BKN015/// 05/04 Q0994=
201010240450 METAR ESMX 240450Z AUTO 12004KT 080V190 7000NDV -DZ FEW011/// BKN020/// 05/04 Q0994=
201010240420 METAR ESMX 240420Z AUTO 15004KT 100V190 6000NDV -RA FEW012/// SCT018/// BKN022/// 05/04 Q0995=
201010240350 METAR ESMX 240350Z AUTO 15005KT 090V200 5000NDV -RA FEW014/// SCT021/// 05/04 Q0995=
201010240320 METAR ESMX 240320Z AUTO 15005KT 110V170 6000NDV -RA FEW005/// SCT028/// 06/04 Q0995=
201010240250 METAR ESMX 240250Z AUTO 15004KT 110V190 5000NDV DZ FEW006/// SCT009/// BKN012/// 06/05 Q0995=
201010240220 METAR ESMX 240220Z AUTO 14004KT 080V180 5000NDV -RA FEW006/// SCT010/// 06/05 Q0995 REDZ=
201010240150 METAR ESMX 240150Z AUTO 14004KT 080V210 6000NDV DZ FEW006/// SCT008/// BKN016/// 06/05 Q0996=
201010240120 METAR ESMX 240120Z AUTO 13004KT 080V170 6000NDV -RA FEW005/// SCT007/// BKN012/// 07/06 Q0996 REDZ=
201010240050 METAR ESMX 240050Z AUTO 15003KT 100V200 8000NDV BR FEW008/// SCT014/// BKN018/// 07/05 Q0997=
201010240020 METAR ESMX 240020Z AUTO 14003KT 040V200 6000NDV BR FEW016/// SCT095/// 06/05 Q0997=
201010232350 METAR ESMX 232350Z AUTO 13004KT 080V170 6000NDV BR OVC087/// 06/05 Q0997=
201010232320 METAR ESMX 232320Z AUTO 14004KT 080V160 5000NDV BR FEW006/// OVC082/// 06/06 Q0998=
201010232250 METAR ESMX 232250Z AUTO 13004KT 100V160 4900NDV BR FEW007/// BKN008/// 07/06 Q0998=
201010232220 METAR ESMX 232220Z AUTO 13004KT 100V170 5000NDV BR FEW008/// BKN011/// 07/06 Q0999=
201010232150 METAR ESMX 232150Z AUTO 14004KT 110V170 5000NDV BR FEW007/// SCT009/// BKN013/// 07/06 Q0999=
201010232120 METAR ESMX 232120Z AUTO 16005KT 100V190 6000NDV BR FEW007/// SCT011/// BKN053/// 07/06 Q0999=
201010232050 METAR ESMX 232050Z AUTO 17006KT 140V200 7000NDV BR FEW007/// OVC008/// 07/06 Q0999=
201010232020 METAR ESMX 232020Z AUTO 16006KT 140V200 7000NDV BR FEW007/// BKN009/// OVC011/// 07/06 Q1000=
201010231950 METAR ESMX 231950Z AUTO 18007KT 150V210 8000NDV BR SCT009/// BKN013/// BKN072/// 07/05 Q1000=
201010231920 METAR ESMX 231920Z AUTO 18007KT 140V200 8000NDV BR FEW009/// BKN011/// 07/05 Q1000=
201010231850 METAR ESMX 231850Z AUTO 19008KT 9000NDV BR FEW009/// SCT013/// 07/06 Q1000=
201010231820 METAR ESMX 231820Z AUTO 19011KT 9000NDV BR FEW011/// SCT017/// 07/06 Q1000=
201010231750 METAR ESMX 231750Z AUTO 19010KT 140V210 9999NDV BR FEW010/// BKN013/// 08/06 Q1001=
201010231720 METAR ESMX 231720Z AUTO 18009KT 8000NDV BR FEW009/// SCT013/// BKN016/// 07/06 Q1001=
201010231650 METAR ESMX 231650Z AUTO 19008KT 6000NDV BR FEW007/// SCT009/// BKN010/// 07/06 Q1001=
201010231620 METAR ESMX 231620Z AUTO 19009KT 5000NDV BR FEW007/// BKN008/// OVC010/// 08/06 Q1001=
201010231550 METAR ESMX 231550Z AUTO 19009KT 5000NDV BR FEW007/// SCT009/// OVC010/// 08/06 Q1001=
201010231520 METAR ESMX 231520Z AUTO 20010KT 6000NDV BR FEW007/// BKN008/// OVC012/// 08/06 Q1001=
201010231450 METAR ESMX 231450Z AUTO 19010KT 5000NDV BR FEW006/// SCT008/// BKN009/// 08/07 Q1001=
201010231420 METAR ESMX 231420Z AUTO 20012KT 4600NDV DZ FEW005/// BKN007/// OVC010/// 08/07 Q1001=
201010231350 METAR ESMX 231350Z AUTO 20011KT 4400NDV DZ OVC005/// 08/07 Q1001=
201010231320 METAR ESMX 231320Z AUTO 20012KT 5000NDV BR SCT005/// BKN007/// OVC009/// 08/07 Q1001=
201010231250 METAR ESMX 231250Z AUTO 21012KT 7000NDV BR FEW006/// BKN007/// OVC010/// 08/07 Q1001=
201010231220 METAR ESMX 231220Z AUTO 20011KT 6000NDV -DZ FEW005/// SCT007/// BKN009/// 08/07 Q1001=
201010231150 METAR ESMX 231150Z 21011KT 7000 -DZ SCT006 BKN010 08/07 Q1001=
201010231120 METAR ESMX 231120Z 20010KT 8000 BR FEW006 BKN010 08/07 Q1002=
201010231050 METAR ESMX 231050Z 20009KT 9999 FEW006 OVC010 08/07 Q1002=
201010231020 METAR ESMX 231020Z 20010KT 9999 FEW005 OVC011 08/07 Q1002=
201010230950 METAR ESMX 230950Z 21009KT 5000 -DZ FEW005 SCT007 BKN008 08/07 Q1002=
201010230920 METAR ESMX 230920Z 22005KT 200V280 6000 -RA SCT009 BKN015 BKN036 08/07 Q1002=
201010230850 METAR ESMX 230850Z 22010KT 9000 -RA FEW005 SCT008 OVC030 08/07 Q1002=
201010230820 METAR ESMX 230820Z 20009KT 9000 -RA FEW003 BKN005 OVC009 07/07 Q1002=
201010230750 METAR ESMX 230750Z 21008KT 9000 -RA BKN002 OVC005 07/07 Q1002=
201010230720 METAR ESMX 230720Z 19006KT 7000 BR OVC002 06/06 Q1002=
201010230650 METAR ESMX 230650Z 19007KT 4500 -RA OVC002 06/05 Q1002=
201010230620 METAR ESMX 230620Z 19006KT 5000 BR VV003 05/05 Q1002=
201010230550 METAR ESMX 230550Z AUTO 17003KT 7000NDV -RA OVC001/// 04/03 Q1002 REDZ=
201010230520 METAR ESMX 230520Z AUTO 17004KT 140V200 3600NDV DZ OVC001/// 04/03 Q1002=
201010230450 METAR ESMX 230450Z AUTO 16004KT 140V200 4600NDV DZ OVC001/// 03/03 Q1002=
201010230420 METAR ESMX 230420Z AUTO 16003KT 110V190 8000NDV DZ SCT002/// OVC005/// 03/03 Q1002=
201010230350 METAR ESMX 230350Z AUTO 16004KT 8000NDV DZ SCT001/// BKN004/// BKN008/// 03/02 Q1003=
201010230320 METAR ESMX 230320Z AUTO 16003KT 110V220 5000NDV -RA OVC001/// 03/02 Q1003=
201010230250 METAR ESMX 230250Z AUTO 15004KT 8000NDV DZ OVC001/// 03/02 Q1003=
201010230220 METAR ESMX 230220Z AUTO 15003KT 9000NDV -RA BKN002/// BKN029/// 03/02 Q1003 REDZ=
201010230150 METAR ESMX 230150Z AUTO 16004KT 8000NDV -RA FEW013/// SCT041/// 03/02 Q1004 REDZ=
201010230120 METAR ESMX 230120Z AUTO 16004KT 9999NDV DZ FEW010/// BKN026/// 03/02 Q1004=
201010230050 METAR ESMX 230050Z AUTO 15003KT 110V170 9999NDV -RA FEW031/// 03/02 Q1005=
201010230020 METAR ESMX 230020Z AUTO 17003KT 9999NDV -RA FEW013/// 03/01 Q1005=
201010222350 METAR ESMX 222350Z AUTO 18003KT 9999NDV -RA NCD 03/01 Q1006=
201010222320 METAR ESMX 222320Z AUTO 19003KT 8000NDV -RA FEW021/// 03/01 Q1006=
201010222250 METAR ESMX 222250Z AUTO 20005KT 9999NDV DZ FEW028/// 03/01 Q1006=
201010222220 METAR ESMX 222220Z AUTO 19008KT 9999NDV NCD 03/01 Q1006=
201010222150 METAR ESMX 222150Z AUTO 19008KT 9999NDV FEW100/// 03/00 Q1007=
201010222120 METAR ESMX 222120Z AUTO 20007KT 9999NDV NCD 02/00 Q1007=
201010222050 METAR ESMX 222050Z AUTO 21007KT 9999NDV NCD 02/M00 Q1007=
201010222020 METAR ESMX 222020Z AUTO 21008KT 9999NDV NCD 02/M00 Q1008=
201010221950 METAR ESMX 221950Z AUTO 20006KT 9999NDV NCD 02/M00 Q1008=
201010221920 METAR ESMX 221920Z 22006KT CAVOK 03/M00 Q1008=
201010221850 METAR ESMX 221850Z 22007KT CAVOK 03/M01 Q1008=
201010221820 METAR ESMX 221820Z 23007KT CAVOK 03/M01 Q1008=
201010221750 METAR ESMX 221750Z 23007KT CAVOK 03/M00 Q1008=
201010221720 METAR ESMX 221720Z 23008KT 200V260 CAVOK 03/M01 Q1008=
201010221650 METAR ESMX 221650Z 22007KT CAVOK 03/M01 Q1008=
201010221620 METAR ESMX 221620Z 23007KT CAVOK 03/M02 Q1008=
201010221550 METAR ESMX 221550Z 25009KT CAVOK 04/M01 Q1007=
201010221520 METAR ESMX 221520Z 25008KT 210V280 CAVOK 05/M01 Q1007=
201010221450 METAR ESMX 221450Z 26007KT 230V320 CAVOK 06/M01 Q1007=
201010221420 METAR COR ESMX 221420Z 28007KT 240V350 CAVOK 06/M00 Q1006=
201010221350 METAR ESMX 221350Z 28008KT CAVOK 06/00 Q1006=
201010221320 METAR ESMX 221320Z 29009KT 260V350 CAVOK 06/M00 Q1006=
201010221250 METAR ESMX 221250Z 29012KT 250V320 9999 FEW028 05/M01 Q1005=
201010221150 METAR ESMX 221150Z 30013KT 9999 FEW025 05/00 Q1004=
201010221120 METAR ESMX 221120Z 27012KT 240V320 9999 FEW020 SCT038 05/01 Q1004=
201010221050 METAR ESMX 221050Z 28011KT 240V330 9999 FEW012 04/01 Q1003=
201010221020 METAR ESMX 221020Z 29011KT 260V330 9999 FEW008 04/02 Q1002=
201010220950 METAR ESMX 220950Z 29009KT 9999 FEW007 03/02 Q1002=
201010220920 METAR ESMX 220920Z 29009KT 9999 FEW006 SCT019 02/01 Q1001 RERA=
201010220850 METAR ESMX 220850Z 29010KT 260V330 3800 RASN FEW006 SCT010 BKN015 03/01 Q1000=
201010220820 METAR ESMX 220820Z 23007KT 9999 FEW010 BKN020 03/01 Q1000=
201010220750 METAR ESMX 220750Z 21008KT 9999 FEW008 BKN020 03/01 Q0999=
201010220720 METAR ESMX 220720Z 29006KT 7000 DZ FEW007 SCT009 BKN011 02/01 Q0999=
201010220650 METAR ESMX 220650Z 19010KT 9999 FEW005 SCT011 BKN013 02/01 Q0998=
201010220620 METAR ESMX 220620Z 20009KT 9999 FEW006 SCT008 BKN009 01/01 Q0999=
201010220550 METAR ESMX 220550Z 22008KT 9999 FEW007 SCT009 OVC012 01/00 Q0999=
201010220520 METAR ESMX 220520Z 22009KT 9999 FEW009 SCT014 BKN019 01/00 Q0999=
201010220450 METAR ESMX 220450Z 23008KT 9999 FEW024 SCT031 BKN045 01/M01 Q0999=
201010220420 METAR COR ESMX 220420Z 22006KT 9999 -SN FEW036 BKN064 01/M00 Q0999=
201010220350 METAR ESMX 220350Z 22004KT CAVOK 01/M00 Q0999=
201010220320 METAR ESMX 220320Z AUTO 25003KT 9999NDV FEW008/// BKN010/// 01/M00 Q0999=
201010220250 METAR ESMX 220250Z AUTO 28009KT 250V320 9999NDV OVC010/// 02/00 Q0999=
201010220220 METAR ESMX 220220Z AUTO 28006KT 9999NDV FEW014/// SCT017/// BKN030/// 02/00 Q0999=
201010220150 METAR ESMX 220150Z AUTO 27011KT 9999NDV FEW013/// SCT018/// 02/M00 Q0998=
201010220120 METAR ESMX 220120Z AUTO 27012KT 9999NDV FEW016/// SCT019/// BKN021/// 02/M00 Q0998=
201010220050 METAR ESMX 220050Z AUTO 26015KT 9999NDV NCD 02/M00 Q0998=
201010220020 METAR ESMX 220020Z AUTO 25017KT 220V280 9999NDV NCD 02/M00 Q0997=
201010212350 METAR ESMX 212350Z 26014G25KT 230V300 9999 FEW020 02/M00 Q0997=
201010212320 METAR ESMX 212320Z 25015G27KT 220V290 9999 -RA FEW008 SCT023 02/01 Q0997 RERASN=
201010212250 METAR ESMX 212250Z 21016KT 170V240 9999 FEW025 BKN040 03/01 Q0996=
201010212220 METAR ESMX 212220Z 22015G27KT 9999 FEW016 SCT052 03/01 Q0997=
201010212150 METAR ESMX 212150Z 20016KT 9999 FEW009 SCT012 BKN028 03/01 Q0997=
201010212120 METAR ESMX 212120Z 19014KT 9999 FEW007 SCT010 BKN013 02/01 Q0998=
201010212050 METAR ESMX 212050Z 19014KT 9999 -RA FEW005 SCT008 BKN010 02/01 Q0999=
201010212020 METAR ESMX 212020Z 19016KT 140V210 9999 -RASN FEW005 OVC007 02/01 Q1000=
201010211950 METAR ESMX 211950Z 18015KT 8000 -SNRA BKN005 OVC008 01/01 Q1000=
201010211920 METAR ESMX 211920Z 17009KT 8000 -SNRA FEW005 OVC007 01/00 Q1001=
201010211850 METAR ESMX 211850Z 17012KT 140V200 7000 -SNRA SCT005 OVC009 02/00 Q1002=
201010211820 METAR ESMX 211820Z 17008KT 120V200 9999 FEW010 SCT024 BKN030 02/00 Q1003=
201010211750 METAR ESMX 211750Z 17008KT 9999 FEW004 BKN006 01/01 Q1003=
201010211720 METAR ESMX 211720Z 18008KT 9999 OVC004 01/01 Q1004=
201010211650 METAR ESMX 211650Z 16007KT 100V190 9999 OVC004 01/00 Q1004=
201010211620 METAR ESMX 211620Z 17006KT 120V200 9999 BKN006 01/00 Q1005=
201010211550 METAR ESMX 211550Z 20007KT 9999 SCT005 BKN009 01/00 Q1006=
201010211520 METAR ESMX 211520Z 18008KT 9999 FEW007 BKN015 02/00 Q1007=
201010211450 METAR ESMX 211450Z 21008KT 9999 FEW008 BKN015 02/00 Q1007=
201010211420 METAR ESMX 211420Z 19007KT 9999 FEW009 SCT012 BKN014 02/00 Q1007=
201010211350 METAR ESMX 211350Z 22008KT 9999 -SN FEW012 SCT018 BKN047 02/M00 Q1008=
201010211320 METAR ESMX 211320Z 20009KT CAVOK 03/M01 Q1008=
201010211250 METAR ESMX 211250Z 19006KT CAVOK 02/M01 Q1008=
201010211220 METAR ESMX 211220Z 21007KT CAVOK 03/M02 Q1008=
201010211150 METAR ESMX 211150Z 21007KT CAVOK 02/M01 Q1008=
201010211120 METAR ESMX 211120Z 22005KT CAVOK 02/M01 Q1008=
201010211050 METAR ESMX 211050Z 24005KT 210V280 CAVOK 01/M01 Q1008=
201010211020 METAR ESMX 211020Z 26005KT CAVOK 01/M01 Q1008=
201010210950 METAR ESMX 210950Z 27004KT 240V300 CAVOK 01/M01 Q1008=
201010210920 METAR ESMX 210920Z 27004KT 230V320 CAVOK M00/M02 Q1008=
201010210850 METAR ESMX 210850Z 28005KT 240V310 CAVOK M01/M02 Q1008=
201010210820 METAR ESMX 210820Z 27004KT CAVOK M01/M03 Q1008=
201010210750 METAR ESMX 210750Z 26004KT 230V300 CAVOK M02/M03 Q1008=
201010210720 METAR ESMX 210720Z 26004KT CAVOK M03/M04 Q1007=
201010210650 METAR ESMX 210650Z 26003KT 210V290 CAVOK M03/M04 Q1007=
201010210620 METAR ESMX 210620Z 29005KT CAVOK M03/M04 Q1006=
201010210550 METAR ESMX 210550Z 30006KT CAVOK M03/M03 Q1006=
201010210520 METAR ESMX 210520Z 30006KT CAVOK M02/M03 Q1006=
201010210450 METAR ESMX 210450Z 30005KT CAVOK M02/M03 Q1006=
201010210420 METAR ESMX 210420Z 31005KT 290V350 CAVOK M02/M03 Q1005=
201010210350 METAR ESMX 210350Z 31005KT CAVOK M02/M03 Q1005=
201010210320 METAR ESMX 210320Z AUTO 31005KT 9999NDV NCD M02/M02 Q1004=
201010210250 METAR ESMX 210250Z AUTO 31005KT 280V340 9999NDV NCD M02/M03 Q1004=
201010210220 METAR ESMX 210220Z AUTO 33006KT 290V010 9999NDV NCD M01/M02 Q1004=
201010210150 METAR ESMX 210150Z AUTO 32008KT 9999NDV NCD M01/M02 Q1003=
201010210120 METAR ESMX 210120Z AUTO 33007KT 9999NDV NCD M01/M02 Q1003=
201010210050 METAR ESMX 210050Z AUTO 34009KT 9999NDV -SN NCD M01/M02 Q1003=
201010210020 METAR ESMX 210020Z AUTO 34012KT 5000NDV -SN FEW009/// M01/M02 Q1003=
201010202350 METAR ESMX 202350Z 34011KT 3000 -SN FEW006 BKN012 M01/M01 Q1002=
201010202320 METAR ESMX 202320Z 34011KT 2500 -SN FEW006 BKN008 M01/M01 Q1002=
201010202250 METAR ESMX 202250Z 34011KT 300V020 2000 SN SCT005 OVC008 M01/M01 Q1001=
201010202220 METAR ESMX 202220Z 34013KT 2000 SN OVC005 M00/M01 Q1001=
201010202150 METAR ESMX 202150Z 33010KT 1000 R01/P2000N R19/P2000N SNRA SCT004 OVC007 00/M00 Q1001=
201010202120 METAR ESMX 202120Z 34008KT 300V020 1700 SNRA FEW004 BKN007 00/M00 Q1000=
201010202050 METAR ESMX 202050Z 35013KT 2200 SNRA FEW005 BKN007 00/M00 Q1000=
201010202020 METAR ESMX 202020Z 34012KT 2500 SNRA FEW004 SCT006 OVC009 00/M00 Q1000=
201010201950 METAR ESMX 201950Z 35012KT 5000 -SNRA FEW005 SCT008 OVC011 01/00 Q1000=
201010201920 METAR ESMX 201920Z 35011KT 8000 -SNRA FEW005 SCT007 OVC009 01/00 Q0999=
201010201850 METAR ESMX 201850Z 36011KT 7000 -SNRA FEW006 OVC008 01/00 Q0999=
201010201820 METAR ESMX 201820Z 01011KT 8000 -RASN FEW006 OVC008 01/01 Q0999=
201010201750 METAR ESMX 201750Z 36011KT 5000 -SNRA FEW005 OVC007 01/01 Q0998=
201010201720 METAR ESMX 201720Z 02012KT 9999 -RA BKN006 OVC010 02/01 Q0998=
201010201650 METAR ESMX 201650Z 01010KT 9999 -DZ BKN005 OVC010 02/01 Q0998=
201010201620 METAR ESMX 201620Z 36013KT 9999 -DZ FEW006 BKN007 OVC010 02/01 Q0997=
201010201550 METAR ESMX 201550Z 36012KT 330V030 9999 FEW007 OVC013 03/02 Q0997=
201010201520 METAR ESMX 201520Z 35011KT 9999 BKN007 OVC010 04/03 Q0997=
201010201450 METAR ESMX 201450Z 35011KT 9999 OVC006 04/03 Q0996=
201010201420 METAR ESMX 201420Z 35012KT 5000 -DZ FEW006 OVC008 05/03 Q0996=
201010201350 METAR ESMX 201350Z 35011KT 9000 DZ FEW005 SCT007 BKN009 05/04 Q0996=
201010201320 METAR ESMX 201320Z 36011KT 9999 -RA FEW007 SCT012 BKN025 06/05 Q0996=
201010201250 METAR ESMX 201250Z 34010KT 9999 FEW005 SCT008 BKN018 06/05 Q0995=
201010201220 METAR ESMX 201220Z 35008KT 9999 SCT008 BKN015 07/06 Q0995=
201010201150 METAR ESMX 201150Z 34006KT 310V010 9999 FEW006 BKN025 08/05 Q0995=
201010201120 METAR ESMX 201120Z 04004KT 9999 SCT020 BKN035 07/05 Q0995=
201010201050 METAR ESMX 201050Z 36005KT 9999 -DZ FEW009 SCT019 BKN038 08/05 Q0995=
201010201020 METAR ESMX 201020Z VRB01KT 9999 FEW008 BKN015 08/06 Q0995=
201010200950 METAR ESMX 200950Z VRB01KT 9999 SCT008 BKN015 08/06 Q0995=
201010200920 METAR ESMX 200920Z VRB01KT 9999 FEW005 BKN012 08/06 Q0995=
201010200850 METAR ESMX 200850Z VRB02KT 9999 SCT004 BKN015 08/07 Q0995=
201010200820 METAR ESMX 200820Z VRB02KT 9000 SCT004 BKN006 07/06 Q0995=
201010200750 METAR ESMX 200750Z VRB01KT 9999 BKN005 07/06 Q0995=
201010200720 METAR ESMX 200720Z VRB02KT 9999 SCT004 BKN008 06/05 Q0995=
201010200620 METAR ESMX 200620Z VRB03KT 2000 BR OVC002 06/05 Q0995=
201010200550 METAR ESMX 200550Z VRB02KT 1000 R19/P2000 BR SCT001 BKN003 06/05 Q0995=
201010200520 METAR ESMX 200520Z VRB03KT 1000 R19/P2000 BR OVC002 06/06 Q0994=
201010200450 METAR ESMX 200450Z VRB02KT 1000 R19/P2000 BR SCT001 BKN003 06/05 Q0994=
201010200420 METAR ESMX 200420Z VRB02KT 1000 R19/P2000 BR SCT001 BKN004 06/05 Q0994=
201010200350 METAR ESMX 200350Z 14004KT 3500 BR BKN002 BKN027 06/05 Q0994 RERA=
201010200320 METAR ESMX 200320Z 19003KT 5000 RA BR OVC003 06/05 Q0994=
201010192150 METAR ESMX 192150Z 18004KT 150V210 8000 BR FEW006 SCT024 BKN043 06/05 Q0995=
201010192120 METAR ESMX 192120Z 18005KT 9000 BR FEW016 SCT031 06/05 Q0995=
201010192050 METAR ESMX 192050Z 18005KT 9999 FEW015 BKN030 06/06 Q0995=
201010192020 METAR ESMX 192020Z 18006KT 9000 -RA FEW005 BKN030 06/06 Q0995=
201010191950 METAR ESMX 191950Z 18006KT 9999 SCT006 BKN020 06/05 Q0995=
201010191920 METAR ESMX 191920Z 18006KT 9000 BR FEW006 BKN018 06/06 Q0995=
201010191850 METAR ESMX 191850Z 17007KT 8000 -RA FEW006 SCT025 BKN036 06/06 Q0995=
201010191820 METAR ESMX 191820Z 16006KT 130V190 9999 FEW004 BKN034 06/06 Q0995=
201010191750 METAR ESMX 191750Z 16006KT 9999 FEW030 SCT038 06/05 Q0995=
201010191720 METAR ESMX 191720Z 16005KT 120V200 9999 SCT038 06/05 Q0995=
201010191650 METAR ESMX 191650Z 17005KT 9999 FEW015 SCT040 06/05 Q0995=
201010191620 METAR ESMX 191620Z 18005KT 150V210 9999 FEW015 SCT040 06/05 Q0995=
201010191550 METAR ESMX 191550Z 18005KT 9999 FEW020 SCT050 07/05 Q0995=
201010191520 METAR ESMX 191520Z 18006KT 9999 FEW020 07/05 Q0995=
201010191450 METAR ESMX 191450Z 20006KT 9999 SCT018 08/06 Q0995=
201010191420 METAR ESMX 191420Z 19009KT 160V220 9999 SCT024 09/06 Q0995=
201010191350 METAR ESMX 191350Z 19007KT 9999 FEW011 SCT020 BKN028 08/06 Q0996=
201010191320 METAR ESMX 191320Z 21006KT 9999 SCT010 BKN014 08/06 Q0996=
201010191250 METAR ESMX 191250Z 19008KT 9999 FEW012 SCT026 BKN039 08/06 Q0996=
201010191220 METAR ESMX 191220Z 20009KT 160V220 9999 FEW006 SCT013 BKN023 08/07 Q0996=
201010191150 METAR ESMX 191150Z 19008KT 9999 SCT006 BKN010 08/06 Q0996=
201010191120 METAR ESMX 191120Z 20009KT 9999 FEW005 BKN020 07/06 Q0997=
201010191050 METAR ESMX 191050Z 19008KT 8000 -DZ FEW005 BKN008 BKN025 07/06 Q0997=
201010191020 METAR ESMX 191020Z 20010KT 9999 -DZ FEW005 SCT007 BKN008 07/06 Q0997=
201010190950 METAR ESMX 190950Z 18009KT 160V220 9000 -DZ SCT005 BKN007 07/06 Q0997=
201010190920 METAR ESMX 190920Z 16010KT 130V190 7000 -RA FEW006 BKN008 OVC010 07/06 Q0997=
201010190850 METAR ESMX 190850Z 17010KT 7000 -RA FEW005 BKN010 BKN028 07/06 Q0997=
201010190820 METAR ESMX 190820Z 17011KT 140V210 7000 -RA FEW006 OVC007 07/06 Q0998=
201010190750 METAR ESMX 190750Z 18012KT 7000 -RA FEW006 OVC008 07/05 Q0998=
201010190720 METAR ESMX 190720Z 16010KT 110V200 6000 -RA FEW004 BKN006 OVC008 06/05 Q0998=
201010190650 METAR ESMX 190650Z 16010KT 130V200 4900 -RA OVC005 06/05 Q0998=
201010190620 METAR ESMX 190620Z 17011KT 130V210 4500 -RA OVC004 06/05 Q0999=
201010190550 METAR ESMX 190550Z 17012KT 4000 -RA OVC003 06/05 Q0999=
201010190520 METAR ESMX 190520Z 17010KT 4000 -DZ OVC004 06/05 Q0999=
201010190450 METAR ESMX 190450Z 17011KT 130V200 6000 -RA OVC004 06/05 Q1000=
201010190420 METAR ESMX 190420Z 17010KT 130V200 6000 -RA BKN005 OVC008 06/05 Q1000=
201010190350 METAR ESMX 190350Z 16010KT 140V210 6000 -RA FEW004 BKN006 06/05 Q1001=
201010190320 METAR ESMX 190320Z AUTO 17010KT 4900NDV DZ FEW006/// BKN007/// OVC009/// 06/05 Q1001=
201010190250 METAR ESMX 190250Z AUTO 16011KT 120V190 5000NDV DZ SCT007/// BKN009/// OVC012/// 06/05 Q1002=
201010190220 METAR ESMX 190220Z AUTO 17010KT 140V200 5000NDV -RA FEW008/// SCT011/// BKN014/// 06/04 Q1002=
201010190150 METAR ESMX 190150Z AUTO 17011KT 140V200 6000NDV -RA FEW011/// OVC015/// 06/04 Q1003 RESHRA=
201010190120 METAR ESMX 190120Z AUTO 17011KT 7000NDV -RA FEW014/// BKN017/// OVC023/// 06/04 Q1004=
201010190050 METAR ESMX 190050Z AUTO 18011KT 140V200 8000NDV DZ OVC015/// 06/04 Q1004=
201010190020 METAR ESMX 190020Z AUTO 17011KT 130V200 8000NDV DZ OVC017/// 07/04 Q1005=
201010182350 METAR ESMX 182350Z 17013KT 140V200 9999 SCT021 BKN066 07/04 Q1005=
201010182320 METAR ESMX 182320Z 17010KT 9999 SCT020 OVC064 07/04 Q1006=
201010182250 METAR ESMX 182250Z 17011KT 140V200 9999 BKN015 OVC063 07/04 Q1006=
201010182220 METAR ESMX 182220Z 17012KT 9999 FEW016 BKN051 07/04 Q1007=
201010182050 METAR COR ESMX 182050Z 18014KT 9999 FEW045 BKN051 07/02 Q1008=
201010182020 METAR ESMX 182020Z 18013KT 140V200 9999 FEW044 BKN059 06/03 Q1009=
201010181950 METAR ESMX 181950Z 18013KT 150V210 9999 FEW043 BKN062 06/03 Q1009=
201010181920 METAR ESMX 181920Z 17012KT 9999 BKN040 OVC060 06/03 Q1009=
201010181850 METAR ESMX 181850Z 17011KT 150V210 9999 BKN038 06/03 Q1010=
201010181820 METAR ESMX 181820Z 17012KT 9999 FEW020 BKN037 06/02 Q1010=
201010181750 METAR ESMX 181750Z 17011KT 9999 SCT021 BKN034 06/02 Q1011=
201010181720 METAR ESMX 181720Z 17010KT 140V200 9999 -RA BKN022 OVC031 06/02 Q1011=
201010181650 METAR ESMX 181650Z 18011KT 140V210 9999 SCT024 BKN030 OVC034 06/01 Q1012=
201010181620 METAR ESMX 181620Z 18012KT 9999 FEW025 OVC039 07/01 Q1012=
201010181550 METAR ESMX 181550Z 20013KT 9999 OVC043 07/01 Q1012=
201010181520 METAR ESMX 181520Z 20012KT 9999 BKN045 07/00 Q1012=
201010181450 METAR ESMX 181450Z 20010KT CAVOK 08/00 Q1013=
201010181420 METAR ESMX 181420Z 20014KT CAVOK 08/M00 Q1013=
201010181350 METAR ESMX 181350Z 19014KT 150V210 9999 FEW041 SCT100 08/M00 Q1013=
201010181320 METAR ESMX 181320Z 20015KT 9999 SCT041 09/M00 Q1014=
201010181250 METAR ESMX 181250Z 22013G23KT 190V250 9999 FEW041 08/M00 Q1014=
201010181220 METAR ESMX 181220Z 21015KT 180V240 9999 SCT041 09/M00 Q1015=
201010181150 METAR ESMX 181150Z 21012KT 170V240 9999 FEW035 SCT041 08/00 Q1015=
201010181120 METAR ESMX 181120Z 21013KT 170V250 9999 SCT030 08/01 Q1016=
201010181050 METAR ESMX 181050Z 19014KT 9999 SCT026 07/01 Q1016=
201010181020 METAR ESMX 181020Z 19013KT 9999 FEW019 SCT025 07/02 Q1017=
201010180950 METAR ESMX 180950Z 20012KT CAVOK 07/02 Q1017=
201010180920 METAR ESMX 180920Z 19011KT CAVOK 08/02 Q1017=
201010180850 METAR ESMX 180850Z 18009KT 150V210 CAVOK 04/01 Q1018=
201010180820 METAR ESMX 180820Z 19009KT CAVOK 04/01 Q1018=
201010180750 METAR ESMX 180750Z 19009KT CAVOK 03/01 Q1018=
201010180720 METAR ESMX 180720Z 18008KT 9999 FEW040 BKN060 03/01 Q1018=
201010180650 METAR ESMX 180650Z 18006KT 150V210 9999 SCT040 OVC060 03/01 Q1018=
201010180620 METAR ESMX 180620Z 21007KT 9999 OVC037 02/00 Q1018=
201010180550 METAR ESMX 180550Z 21007KT 9999 OVC030 02/M00 Q1018=
201010180520 METAR ESMX 180520Z 19007KT 9999 OVC028 02/M00 Q1018=
201010180450 METAR ESMX 180450Z 19008KT 9999 SCT024 OVC032 02/M00 Q1018=
201010180420 METAR ESMX 180420Z 19008KT 9999 FEW023 BKN030 02/M00 Q1019=
201010180350 METAR ESMX 180350Z 18007KT 9999 OVC020 01/M00 Q1019=
201010180320 METAR ESMX 180320Z AUTO 18007KT 9999NDV SCT013/// BKN019/// OVC024/// 01/M01 Q1019=
201010180250 METAR ESMX 180250Z AUTO 18007KT 9999NDV FEW015/// OVC018/// 01/M01 Q1019=
201010180220 METAR ESMX 180220Z AUTO 19007KT 9999NDV BKN018/// OVC031/// 00/M02 Q1020 REUP RESG=
201010180150 METAR ESMX 180150Z AUTO 20006KT 9999NDV BKN022/// OVC030/// 00/M03 Q1020=
201010180120 METAR ESMX 180120Z AUTO 19006KT 9999NDV SCT023/// OVC036/// M00/M03 Q1020=
201010180050 METAR ESMX 180050Z AUTO 19005KT 9999NDV FEW025/// SCT030/// BKN034/// M01/M04 Q1020=
201010180020 METAR ESMX 180020Z AUTO 18003KT 9999NDV NCD M02/M04 Q1021=
201010172350 METAR ESMX 172350Z AUTO 19004KT 9999NDV NCD M02/M04 Q1021=
201010172320 METAR ESMX 172320Z 20004KT CAVOK M02/M04 Q1021=
201010172250 METAR ESMX 172250Z 21004KT CAVOK M02/M04 Q1021=
201010172220 METAR ESMX 172220Z 21004KT CAVOK M03/M05 Q1021=
201010172150 METAR ESMX 172150Z 21005KT CAVOK M03/M04 Q1021=
201010172120 METAR ESMX 172120Z 22005KT CAVOK M02/M04 Q1022=
201010172050 METAR ESMX 172050Z 21005KT CAVOK M02/M04 Q1022=
201010172020 METAR ESMX 172020Z 22004KT CAVOK M02/M04 Q1022=
201010171950 METAR ESMX 171950Z 23004KT CAVOK M01/M04 Q1022=
201010171920 METAR ESMX 171920Z 23005KT CAVOK M02/M05 Q1022=
201010171850 METAR ESMX 171850Z 22004KT CAVOK M01/M04 Q1022=
201010171820 METAR ESMX 171820Z 22004KT CAVOK M01/M04 Q1022=
201010171750 METAR ESMX 171750Z 22004KT CAVOK M01/M04 Q1022=
201010171720 METAR ESMX 171720Z 22004KT CAVOK M01/M04 Q1022=
201010171650 METAR ESMX 171650Z 22003KT CAVOK 00/M03 Q1022=
201010171620 METAR ESMX 171620Z 22003KT CAVOK 01/M03 Q1022=
201010171550 METAR ESMX 171550Z 22002KT CAVOK 04/M04 Q1022=
201010171520 METAR ESMX 171520Z 26003KT CAVOK 06/M04 Q1022=
201010171450 METAR ESMX 171450Z 26005KT 220V290 CAVOK 07/M04 Q1022=
201010171420 METAR ESMX 171420Z 27004KT 220V300 CAVOK 07/M04 Q1022=
201010171350 METAR ESMX 171350Z 23005KT 200V260 CAVOK 07/M04 Q1022=
201010171320 METAR ESMX 171320Z 24004KT 170V300 CAVOK 07/M04 Q1022=
201010171250 METAR ESMX 171250Z 26006KT 210V290 CAVOK 08/M04 Q1022=
201010171220 METAR ESMX 171220Z 30005KT 260V350 CAVOK 07/M05 Q1023=
201010171150 METAR ESMX 171150Z 33005KT 290V040 CAVOK 07/M04 Q1023=
201010171120 METAR ESMX 171120Z 25004KT 220V300 CAVOK 07/M04 Q1023=
201010171050 METAR COR ESMX 171050Z 30005KT 240V350 CAVOK 07/M04 Q1023=
201010171020 METAR ESMX 171020Z 30004KT 260V340 CAVOK 06/M03 Q1024=
201010170950 METAR ESMX 170950Z 27005KT 240V320 CAVOK 06/M04 Q1023=
201010170920 METAR ESMX 170920Z 27003KT 220V360 CAVOK 05/M03 Q1023=
201010170850 METAR ESMX 170850Z 29003KT 250V330 CAVOK 03/M02 Q1024=
201010170820 METAR ESMX 170820Z AUTO VRB02KT 9999NDV NCD 02/M02 Q1023=
201010170750 METAR ESMX 170750Z AUTO 24002KT 9999NDV NCD 01/M02 Q1023=
201010170720 METAR ESMX 170720Z AUTO 18001KT 9999NDV NCD M01/M02 Q1023=
201010170650 METAR ESMX 170650Z AUTO 18003KT 9999NDV NCD M04/M05 Q1023=
201010170620 METAR ESMX 170620Z AUTO 18002KT 9999NDV NCD M06/M07 Q1023=
201010170550 METAR ESMX 170550Z AUTO 20002KT 9999NDV NCD M06/M07 Q1023=
201010170520 METAR ESMX 170520Z AUTO 18002KT 9999NDV NCD M05/M06 Q1023=
201010170450 METAR ESMX 170450Z AUTO 19001KT 9999NDV NCD M05/M06 Q1023=
201010170420 METAR ESMX 170420Z AUTO 00000KT 9999NDV NCD M05/M06 Q1023=
201010170350 METAR ESMX 170350Z AUTO 25002KT 9999NDV FEW048/// M05/M06 Q1022=
201010170320 METAR ESMX 170320Z AUTO VRB01KT 9999NDV BKN048/// M04/M05 Q1023=
201010170250 METAR ESMX 170250Z AUTO 24002KT 9999NDV BKN048/// M04/M05 Q1023=
201010170220 METAR ESMX 170220Z AUTO 23002KT 9999NDV BKN048/// M04/M05 Q1023=
201010170150 METAR ESMX 170150Z AUTO VRB02KT 9999NDV SCT049/// M04/M05 Q1023=
201010170120 METAR ESMX 170120Z AUTO VRB01KT 9999NDV FEW048/// M04/M05 Q1023=
201010170050 METAR ESMX 170050Z AUTO VRB02KT 9999NDV NCD M06/M07 Q1023=
201010170020 METAR ESMX 170020Z AUTO 18003KT 9999NDV NCD M05/M06 Q1023=
201010162350 METAR ESMX 162350Z AUTO 18001KT 9999NDV NCD M05/M06 Q1023=
201010162320 METAR ESMX 162320Z AUTO VRB01KT 9999NDV FEW044/// M05/M06 Q1022=
201010162250 METAR ESMX 162250Z AUTO 17002KT 9999NDV SCT044/// M04/M06 Q1022=
201010162220 METAR ESMX 162220Z AUTO 17002KT 9999NDV BKN043/// M04/M05 Q1022=
201010162150 METAR ESMX 162150Z AUTO 00000KT 9999NDV SCT043/// M04/M05 Q1022=
201010162120 METAR ESMX 162120Z AUTO 19002KT 9999NDV NCD M04/M06 Q1022=
201010162050 METAR ESMX 162050Z AUTO 16001KT 9999NDV NCD M03/M05 Q1022=
201010162020 METAR ESMX 162020Z AUTO 17001KT 9999NDV NCD M03/M05 Q1022=
201010161950 METAR ESMX 161950Z AUTO 17002KT 9999NDV NCD M03/M05 Q1022=
201010161920 METAR ESMX 161920Z AUTO 28002KT 9999NDV NCD M03/M05 Q1022=
201010161850 METAR ESMX 161850Z AUTO 19002KT 9999NDV NCD M04/M06 Q1021=
201010161820 METAR ESMX 161820Z AUTO 17002KT 9999NDV NCD M03/M06 Q1021=
201010161750 METAR ESMX 161750Z AUTO 18002KT 9999NDV NCD M02/M05 Q1021=
201010161720 METAR ESMX 161720Z AUTO 00000KT 9999NDV NCD M02/M05 Q1021=
201010161650 METAR ESMX 161650Z AUTO 32002KT 9999NDV NCD M00/M04 Q1021=
201010161620 METAR ESMX 161620Z AUTO 31004KT 260V330 9999NDV NCD M00/M05 Q1020=
201010161550 METAR ESMX 161550Z AUTO 31002KT 9999NDV NCD 03/M06 Q1020=
201010161520 METAR ESMX 161520Z AUTO 34004KT 9999NDV NCD 04/M06 Q1020=
201010161450 METAR ESMX 161450Z AUTO 34003KT 310V020 9999NDV NCD 05/M06 Q1020=
201010161420 METAR ESMX 161420Z AUTO VRB02KT 9999NDV NCD 06/M07 Q1020=
201010161350 METAR ESMX 161350Z AUTO 01006KT 320V040 9999NDV NCD 06/M06 Q1020=
201010161320 METAR ESMX 161320Z AUTO 35004KT 290V030 9999NDV NCD 06/M06 Q1019=
201010161250 METAR ESMX 161250Z AUTO 01007KT 330V040 9999NDV NCD 06/M07 Q1019=
201010161220 METAR ESMX 161220Z AUTO 01005KT 340V060 9999NDV NCD 06/M08 Q1019=
201010161150 METAR ESMX 161150Z 36006KT 320V020 CAVOK 05/M07 Q1019=
201010161120 METAR ESMX 161120Z 36006KT 330V040 CAVOK 05/M05 Q1019=
201010161050 METAR ESMX 161050Z 35007KT CAVOK 05/M05 Q1019=
201010161020 METAR ESMX 161020Z 02007KT 340V080 CAVOK 05/M05 Q1019=
201010160950 METAR ESMX 160950Z 02008KT CAVOK 04/M04 Q1019=
201010160920 METAR ESMX 160920Z 01007KT CAVOK 03/M03 Q1019=
201010160850 METAR ESMX 160850Z 01006KT 340V040 CAVOK 03/M02 Q1019=
201010160820 METAR ESMX 160820Z 01006KT CAVOK 02/M02 Q1018=
201010160750 METAR ESMX 160750Z 01005KT CAVOK 01/M01 Q1018=
201010160720 METAR ESMX 160720Z 36005KT CAVOK M01/M02 Q1018=
201010160650 METAR ESMX 160650Z 35004KT CAVOK M02/M03 Q1017=
201010160550 METAR ESMX 160550Z AUTO 01003KT 9999NDV NCD M02/M03 Q1016=
201010160520 METAR ESMX 160520Z AUTO 01004KT 9999NDV NCD M03/M04 Q1016=
201010160450 METAR ESMX 160450Z AUTO 01005KT 9999NDV NCD M04/M05 Q1016=
201010160420 METAR ESMX 160420Z AUTO 02004KT 9999NDV NCD M03/M04 Q1015=
201010160350 METAR ESMX 160350Z AUTO 02003KT 9999NDV NCD M03/M03 Q1015=
201010160320 METAR ESMX 160320Z AUTO 02004KT 9999NDV NCD M03/M04 Q1015=
201010160250 METAR ESMX 160250Z AUTO 36003KT 1500NDV NCD M02/M03 Q1014=
201010160220 METAR ESMX 160220Z AUTO 35002KT 9999NDV NCD M04/M04 Q1014=
201010160150 METAR ESMX 160150Z AUTO 35002KT 9999NDV NCD M02/M03 Q1014=
201010160120 METAR ESMX 160120Z AUTO 01004KT 9999NDV NCD M03/M04 Q1014=
201010160050 METAR ESMX 160050Z AUTO 01003KT 9999NDV NCD M04/M04 Q1014=
201010160020 METAR ESMX 160020Z AUTO VRB01KT 9999NDV NCD M04/M04 Q1013=
201010152350 METAR ESMX 152350Z AUTO 00000KT 9999NDV NCD M04/M05 Q1013=
201010152320 METAR ESMX 152320Z AUTO VRB01KT 9999NDV NCD M02/M03 Q1013=
201010152250 METAR ESMX 152250Z AUTO 01004KT 9999NDV NCD M03/M04 Q1013=
201010152220 METAR ESMX 152220Z AUTO 02003KT 340V050 9999NDV NCD M03/M04 Q1012=
201010152150 METAR ESMX 152150Z AUTO 02004KT 9999NDV NCD M02/M03 Q1012=
201010152120 METAR ESMX 152120Z AUTO VRB01KT 9999NDV NCD M02/M03 Q1012=
201010152050 METAR ESMX 152050Z AUTO 36001KT 9999NDV NCD M02/M04 Q1012=
201010151850 METAR ESMX 151850Z 01005KT 9999 FEW041 M00/M02 Q1011=
201010151820 METAR ESMX 151820Z 36002KT 9999 FEW045 M02/M03 Q1010=
201010151750 METAR ESMX 151750Z 36002KT 9999 FEW045 M01/M03 Q1010=
201010151720 METAR ESMX 151720Z 00000KT 9999 FEW045 M01/M03 Q1010=
201010151650 METAR ESMX 151650Z 00000KT 9999 FEW045 01/M02 Q1010=
201010151620 METAR ESMX 151620Z 00000KT 9999 FEW043 02/M01 Q1009=
201010151550 METAR ESMX 151550Z 30003KT 9999 FEW045 04/M02 Q1009=
201010151520 METAR ESMX 151520Z 28004KT 9999 FEW045 06/M02 Q1009=
201010151450 METAR ESMX 151450Z 30005KT 260V340 9999 FEW045 07/M02 Q1009=
201010151420 METAR ESMX 151420Z 29004KT 260V340 9999 FEW040 07/M02 Q1009=
201010151350 METAR ESMX 151350Z 28005KT 190V310 CAVOK 07/M03 Q1009=
201010151320 METAR ESMX 151320Z 32005KT 280V020 CAVOK 07/M03 Q1009=
201010151250 METAR ESMX 151250Z 32007KT CAVOK 07/M03 Q1009=
201010151220 METAR ESMX 151220Z 30006KT 250V010 CAVOK 07/M03 Q1010=
201010151150 METAR ESMX 151150Z 29005KT 250V010 CAVOK 07/M02 Q1010=
201010151120 METAR ESMX 151120Z 32006KT 290V350 CAVOK 07/M02 Q1010=
201010151050 METAR ESMX 151050Z 30007KT 240V320 CAVOK 06/M02 Q1010=
201010151020 METAR ESMX 151020Z 32007KT 290V360 CAVOK 06/M02 Q1010=
201010150950 METAR ESMX 150950Z 33004KT 280V010 CAVOK 05/M01 Q1010=
201010150920 METAR ESMX 150920Z 35004KT CAVOK 05/M01 Q1010=
201010150850 METAR ESMX 150850Z 36003KT CAVOK 04/00 Q1010=
201010150820 METAR ESMX 150820Z 34003KT CAVOK 03/00 Q1010=
201010150750 METAR ESMX 150750Z 32003KT 280V010 CAVOK 01/M01 Q1010=
201010150720 METAR ESMX 150720Z VRB01KT 9999 NSC M01/M02 Q1010=
201010150650 METAR ESMX 150650Z 27003KT CAVOK M03/M04 Q1010=
201010150620 METAR ESMX 150620Z 28004KT CAVOK M03/M04 Q1010=
201010150550 METAR ESMX 150550Z 32003KT CAVOK M04/M04 Q1010=
201010150520 METAR ESMX 150520Z 31002KT CAVOK M03/M04 Q1010=
201010150450 METAR ESMX 150450Z 30002KT CAVOK M03/M04 Q1010=
201010150420 METAR ESMX 150420Z VRB02KT CAVOK M01/M02 Q1010=
201010150350 METAR ESMX 150350Z 31004KT CAVOK M02/M03 Q1010=
201010150320 METAR ESMX 150320Z AUTO 30004KT 250V330 9999NDV NCD M01/M03 Q1010=
201010150250 METAR ESMX 150250Z AUTO 32005KT 9999NDV NCD M01/M03 Q1010=
201010150220 METAR ESMX 150220Z AUTO 32004KT 9999NDV NCD M01/M03 Q1010=
201010150150 METAR ESMX 150150Z AUTO 30004KT 9999NDV NCD M01/M03 Q1010=
201010150120 METAR ESMX 150120Z AUTO 30003KT 9999NDV NCD M01/M03 Q1009=
201010150050 METAR ESMX 150050Z AUTO 30004KT 9999NDV NCD M01/M03 Q1009=
201010150020 METAR ESMX 150020Z AUTO 28005KT 9999NDV NCD 00/M03 Q1009=
201010142350 METAR ESMX 142350Z AUTO 29006KT 9999NDV NCD M01/M03 Q1009=
201010142320 METAR ESMX 142320Z 29005KT CAVOK M00/M03 Q1009=
201010142250 METAR ESMX 142250Z 30004KT CAVOK 01/M02 Q1009=
201010142220 METAR ESMX 142220Z 30006KT CAVOK 02/M02 Q1009=
201010142150 METAR ESMX 142150Z 29007KT CAVOK 02/M02 Q1009=
201010142120 METAR ESMX 142120Z 29005KT CAVOK 02/M02 Q1009=
201010142050 METAR ESMX 142050Z 29005KT CAVOK 03/M02 Q1009=
201010142020 METAR ESMX 142020Z 29006KT CAVOK 03/M02 Q1008=
201010141950 METAR ESMX 141950Z 30006KT CAVOK 03/M01 Q1008=
201010141920 METAR ESMX 141920Z 30005KT CAVOK 03/M01 Q1008=
201010141850 METAR ESMX 141850Z 30005KT CAVOK 03/M01 Q1008=
201010141820 METAR ESMX 141820Z 31004KT 280V350 CAVOK 04/M00 Q1008=
201010141750 METAR ESMX 141750Z 30004KT CAVOK 04/M00 Q1008=
201010141720 METAR ESMX 141720Z 30003KT 280V340 CAVOK 05/M01 Q1007=
201010141650 METAR ESMX 141650Z 32006KT 280V340 CAVOK 05/M01 Q1007=
201010141620 METAR ESMX 141620Z 32006KT CAVOK 06/M01 Q1007=
201010141550 METAR ESMX 141550Z 33008KT CAVOK 07/M02 Q1007=
201010141520 METAR ESMX 141520Z 32008KT CAVOK 09/00 Q1006=
201010141450 METAR ESMX 141450Z 31006KT 280V350 CAVOK 09/04 Q1006=
201010141420 METAR ESMX 141420Z 30006KT 270V330 CAVOK 09/04 Q1006=
201010141350 METAR ESMX 141350Z 31007KT 280V340 CAVOK 09/04 Q1006=
201010141320 METAR ESMX 141320Z 31008KT 9999 BKN062 10/05 Q1006=
201010141250 METAR ESMX 141250Z 30008KT 9999 FEW025 BKN066 10/05 Q1006=
201010141220 METAR ESMX 141220Z 32008KT 290V350 9999 FEW011 SCT042 BKN053 10/05 Q1006 RERA=
201010141150 METAR ESMX 141150Z 32011KT 280V360 9999 FEW022 SCT043 BKN050 11/05 Q1005=
201010141120 METAR ESMX 141120Z 32009KT 9999 FEW021 BKN029 11/06 Q1005=
201010141050 METAR ESMX 141050Z 32011KT 290V020 9999 FEW018 BKN031 10/06 Q1005=
201010141020 METAR ESMX 141020Z 32009KT 9999 FEW014 SCT020 BKN031 09/06 Q1005=
201010140950 METAR ESMX 140950Z 34007KT 9999 FEW011 SCT016 BKN022 10/07 Q1005=
201010140920 METAR ESMX 140920Z 30005KT 9999 FEW009 BKN015 09/07 Q1005=
201010140850 METAR ESMX 140850Z 30007KT 9999 FEW008 BKN015 BKN110 08/07 Q1005=
201010140820 METAR ESMX 140820Z 30006KT 260V350 9999 BR FEW008 BKN012 08/07 Q1005=
201010140750 METAR ESMX 140750Z 29006KT 9999 FEW006 BKN010 08/07 Q1005=
201010140720 METAR ESMX 140720Z 28005KT 260V320 9999 FEW004 BKN007 08/07 Q1004=
201010140650 METAR ESMX 140650Z 27004KT 230V290 9999 BKN004 OVC007 08/07 Q1004=
201010140620 METAR ESMX 140620Z 26004KT 220V300 9999 BKN005 OVC026 08/07 Q1004=
201010140550 METAR ESMX 140550Z 26005KT 230V290 9000 BR SCT003 BKN005 07/07 Q1004=
201010140520 METAR ESMX 140520Z 24006KT 210V280 7000 -RA BR OVC004 07/07 Q1005=
201010140450 METAR ESMX 140450Z 23006KT 5000 BR BKN003 OVC005 07/06 Q1005=
201010140420 METAR ESMX 140420Z 23005KT 200V260 4000 -DZ FEW002 OVC006 07/06 Q1005=
201010140350 METAR ESMX 140350Z 21005KT 3000 -DZ FEW002 OVC004 07/06 Q1006=
201010140320 METAR ESMX 140320Z AUTO 21005KT 2100NDV DZ BKN002/// OVC004/// 07/06 Q1006=
201010140250 METAR ESMX 140250Z AUTO 19005KT 2600NDV BR BKN002/// OVC005/// 07/06 Q1007 REDZ=
201010140220 METAR ESMX 140220Z AUTO 19005KT 2000NDV DZ BKN002/// OVC005/// 06/06 Q1007=
201010140150 METAR ESMX 140150Z AUTO 22005KT 2300NDV DZ OVC002/// 06/06 Q1008=
201010140120 METAR ESMX 140120Z AUTO 20006KT 3000NDV BR FEW002/// BKN004/// BKN012/// 06/05 Q1008=
201010140050 METAR ESMX 140050Z AUTO 22005KT 2700NDV DZ OVC006/// 06/05 Q1009=
201010140020 METAR ESMX 140020Z AUTO 19006KT 3500NDV BR SCT007/// BKN009/// OVC021/// 06/05 Q1009=
201010132350 METAR ESMX 132350Z AUTO 21007KT 7000NDV BR FEW008/// SCT010/// BKN030/// 06/05 Q1010=
201010132320 METAR ESMX 132320Z 20005KT 9999 FEW010 SCT020 BKN030 06/04 Q1010=
201010132250 METAR ESMX 132250Z 19006KT 9999 -RA BKN018 OVC031 06/04 Q1011=
201010132220 METAR ESMX 132220Z 20006KT 180V240 9000 FEW018 SCT025 BKN028 06/03 Q1011=
201010132150 METAR ESMX 132150Z 21005KT 9999 OVC033 06/03 Q1012=
201010132120 METAR ESMX 132120Z 22005KT 9999 SCT034 BKN083 06/03 Q1012=
201010132050 METAR ESMX 132050Z 19005KT CAVOK 06/02 Q1013=
201010132020 METAR ESMX 132020Z 19005KT CAVOK 06/02 Q1013=
201010131950 METAR ESMX 131950Z 18004KT CAVOK 06/02 Q1013=
201010131920 METAR ESMX 131920Z 20004KT CAVOK 06/02 Q1014=
201010131850 METAR ESMX 131850Z 19004KT CAVOK 06/02 Q1014=
201010131820 METAR ESMX 131820Z 19003KT CAVOK 05/02 Q1015=
201010131750 METAR ESMX 131750Z 20003KT CAVOK 05/02 Q1015=
201010131720 METAR ESMX 131720Z 21002KT CAVOK 06/02 Q1015=
201010131650 METAR ESMX 131650Z 22004KT CAVOK 06/02 Q1015=
201010131620 METAR ESMX 131620Z 22003KT CAVOK 07/02 Q1015=
201010131550 METAR ESMX 131550Z 24002KT CAVOK 07/01 Q1015=
201010131520 METAR ESMX 131520Z 26003KT 230V300 CAVOK 08/01 Q1016=
201010131450 METAR ESMX 131450Z 27003KT CAVOK 08/00 Q1016=
201010131420 METAR ESMX 131420Z 29005KT CAVOK 09/M00 Q1016=
201010131350 METAR ESMX 131350Z 29003KT 270V330 CAVOK 09/M00 Q1016=
201010131320 METAR ESMX 131320Z 28005KT CAVOK 09/M01 Q1016=
201010131250 METAR ESMX 131250Z 31004KT 250V010 CAVOK 09/M01 Q1016=
201010131220 METAR ESMX 131220Z 35003KT 300V030 CAVOK 09/M01 Q1017=
201010131150 METAR ESMX 131150Z 02004KT CAVOK 09/M01 Q1017=
201010131120 METAR ESMX 131120Z 01004KT 320V030 CAVOK 09/M01 Q1017=
201010131050 METAR ESMX 131050Z 36006KT 320V030 CAVOK 08/M01 Q1017=
201010131020 METAR ESMX 131020Z 31006KT CAVOK 07/01 Q1018=
201010130950 METAR ESMX 130950Z 31004KT CAVOK 07/01 Q1018=
201010130920 METAR ESMX 130920Z 31005KT 260V350 CAVOK 06/00 Q1018=
201010130850 METAR ESMX 130850Z 32003KT 290V010 CAVOK 04/00 Q1018=
201010130820 METAR ESMX 130820Z VRB02KT CAVOK 04/00 Q1018=
201010130750 METAR ESMX 130750Z VRB01KT CAVOK 03/02 Q1018=
201010130720 METAR ESMX 130720Z 00000KT CAVOK 01/00 Q1018=
201010130650 METAR ESMX 130650Z 27001KT CAVOK M02/M02 Q1018=
201010130620 METAR ESMX 130620Z VRB01KT CAVOK M03/M03 Q1018=
201010130550 METAR ESMX 130550Z 17002KT CAVOK M03/M03 Q1018=
201010130520 METAR ESMX 130520Z 17001KT CAVOK M03/M04 Q1018=
201010130450 METAR ESMX 130450Z 16001KT CAVOK M03/M03 Q1018=
201010130420 METAR ESMX 130420Z 00000KT CAVOK M03/M03 Q1018=
201010130350 METAR ESMX 130350Z 30001KT 9999 BCFG SKC M03/M03 Q1018=
201010130320 METAR ESMX 130320Z AUTO 19001KT 2000NDV BCFG NCD M03/M03 Q1018=
201010130250 METAR ESMX 130250Z AUTO 00000KT 0500NDV R01/P2000D R19/P2000N FZFG NCD M03/M03 Q1018=
201010130220 METAR ESMX 130220Z AUTO 00000KT 5000NDV BR NCD M02/M02 Q1019=
201010130150 METAR ESMX 130150Z AUTO 00000KT 9999NDV NCD M02/M03 Q1019=
201010130120 METAR ESMX 130120Z AUTO 00000KT 9999NDV NCD M03/M03 Q1019=
201010130050 METAR ESMX 130050Z AUTO 00000KT 9999NDV NCD M02/M03 Q1019=
201010130020 METAR ESMX 130020Z AUTO 17001KT 9999NDV NCD M02/M02 Q1019=
201010122350 METAR ESMX 122350Z AUTO 18001KT 9999NDV NCD M01/M02 Q1019=
201010122320 METAR ESMX 122320Z 00000KT CAVOK M01/M02 Q1019=
201010122250 METAR ESMX 122250Z VRB01KT CAVOK M02/M02 Q1018=
201010122220 METAR ESMX 122220Z 06002KT CAVOK M01/M02 Q1019=
201010122150 METAR ESMX 122150Z 06002KT CAVOK M00/M01 Q1019=
201010122120 METAR ESMX 122120Z VRB01KT CAVOK M01/M01 Q1019=
201010122050 METAR ESMX 122050Z 36002KT CAVOK M00/M01 Q1019=
201010122020 METAR ESMX 122020Z 00000KT CAVOK 00/M01 Q1018=
201010121950 METAR ESMX 121950Z 16001KT CAVOK 01/00 Q1018=
201010121920 METAR ESMX 121920Z VRB01KT CAVOK 02/00 Q1018=
201010121850 METAR ESMX 121850Z 03003KT 9999 FEW040 02/00 Q1018=
201010121820 METAR ESMX 121820Z VRB01KT CAVOK 02/01 Q1018=
201010121750 METAR ESMX 121750Z VRB01KT CAVOK 03/01 Q1018=
201010121720 METAR ESMX 121720Z 00000KT CAVOK 05/02 Q1018=
201010121650 METAR ESMX 121650Z 01003KT 360V070 CAVOK 06/02 Q1017=
201010121620 METAR ESMX 121620Z 02005KT CAVOK 07/01 Q1017=
201010121550 METAR ESMX 121550Z 01004KT CAVOK 08/02 Q1017=
201010121520 METAR ESMX 121520Z 35006KT CAVOK 09/02 Q1017=
201010121450 METAR ESMX 121450Z 35006KT 320V020 CAVOK 10/01 Q1017=
201010121420 METAR ESMX 121420Z 36006KT 330V030 CAVOK 11/01 Q1017=
201010121350 METAR ESMX 121350Z 36009KT CAVOK 11/01 Q1017=
201010121320 METAR ESMX 121320Z 01008KT 320V030 9999 FEW041 12/02 Q1017=
201010121250 METAR ESMX 121250Z 34008KT 290V020 CAVOK 12/02 Q1017=
201010121220 METAR ESMX 121220Z 32008KT 290V010 CAVOK 11/02 Q1016=
201010121150 METAR ESMX 121150Z 34008KT 290V360 CAVOK 11/02 Q1016=
201010121120 METAR ESMX 121120Z 32008KT 280V360 CAVOK 11/02 Q1016=
201010121050 METAR ESMX 121050Z 33007KT 260V020 CAVOK 11/03 Q1017=
201010121020 METAR ESMX 121020Z 32009KT 290V020 CAVOK 11/02 Q1017=
201010120950 METAR ESMX 120950Z 30006KT 250V010 CAVOK 10/03 Q1017=
201010120920 METAR ESMX 120920Z 32005KT 280V010 CAVOK 08/04 Q1017=
201010120850 METAR ESMX 120850Z 33006KT 290V360 CAVOK 07/04 Q1017=
201010120820 METAR ESMX 120820Z 31005KT 270V350 CAVOK 06/04 Q1017=
201010120750 METAR ESMX 120750Z 29007KT CAVOK 05/03 Q1017=
201010120720 METAR ESMX 120720Z 30006KT CAVOK 04/03 Q1017=
201010120650 METAR COR ESMX 120650Z 30004KT CAVOK 01/01 Q1017=
201010120620 METAR ESMX 120620Z VRB02KT CAVOK M00/M00 Q1017=
201010120550 METAR ESMX 120550Z VRB02KT CAVOK M00/M01 Q1017=
201010120520 METAR ESMX 120520Z 30002KT CAVOK 00/M00 Q1017=
201010120450 METAR ESMX 120450Z 29003KT CAVOK 00/M00 Q1017=
201010120420 METAR ESMX 120420Z 31005KT CAVOK 00/M00 Q1017=
201010120350 METAR ESMX 120350Z 31004KT CAVOK 01/00 Q1016=
201010120320 METAR ESMX 120320Z AUTO 30005KT 9999NDV NCD 01/00 Q1016=
201010120250 METAR ESMX 120250Z AUTO 30004KT 9999NDV NCD 01/01 Q1016=
201010120220 METAR ESMX 120220Z AUTO 33004KT 9999NDV NCD 01/00 Q1016=
201010120150 METAR ESMX 120150Z AUTO VRB02KT 9999NDV NCD 02/01 Q1016=
201010120120 METAR ESMX 120120Z AUTO 26003KT 220V290 9999NDV NCD 01/01 Q1016=
201010120050 METAR ESMX 120050Z AUTO VRB02KT 9999NDV NCD 01/00 Q1016=
201010120020 METAR ESMX 120020Z AUTO 26004KT 9999NDV NCD 00/M00 Q1017=
201010112350 METAR ESMX 112350Z 26005KT CAVOK 00/M00 Q1017=
201010112320 METAR ESMX 112320Z 25004KT CAVOK 00/M00 Q1017=
201010112250 METAR ESMX 112250Z 25004KT CAVOK M01/M01 Q1017=
201010112220 METAR ESMX 112220Z 26003KT CAVOK 00/M01 Q1017=
201010112150 METAR ESMX 112150Z 25004KT CAVOK 01/M00 Q1017=
201010112120 METAR ESMX 112120Z 25003KT CAVOK 01/00 Q1018=
201010112050 METAR ESMX 112050Z 26003KT CAVOK 01/00 Q1018=
201010112020 METAR ESMX 112020Z 27003KT CAVOK M00/M01 Q1018=
201010111950 METAR ESMX 111950Z 29003KT CAVOK 00/M01 Q1018=
201010111920 METAR ESMX 111920Z 27003KT CAVOK M00/M01 Q1018=
201010111850 METAR ESMX 111850Z 28003KT CAVOK 00/M01 Q1018=
201010111820 METAR ESMX 111820Z 26003KT CAVOK 01/M00 Q1018=
201010111750 METAR ESMX 111750Z 24003KT 220V300 CAVOK 02/00 Q1018=
201010111720 METAR ESMX 111720Z 25002KT CAVOK 02/01 Q1018=
201010111650 METAR ESMX 111650Z 26002KT CAVOK 04/01 Q1018=
201010111620 METAR ESMX 111620Z 28003KT CAVOK 06/02 Q1018=
201010111550 METAR ESMX 111550Z 28004KT CAVOK 08/01 Q1018=
201010111520 METAR ESMX 111520Z 29004KT CAVOK 09/01 Q1018=
201010111450 METAR ESMX 111450Z 29006KT CAVOK 10/01 Q1018=
201010111420 METAR ESMX 111420Z 31007KT 280V360 CAVOK 10/02 Q1018=
201010111350 METAR ESMX 111350Z 29006KT 240V340 CAVOK 10/02 Q1019=
201010111320 METAR ESMX 111320Z 28006KT 250V350 CAVOK 10/02 Q1019=
201010111250 METAR ESMX 111250Z 30004KT 230V350 CAVOK 10/02 Q1019=
201010111220 METAR ESMX 111220Z 30006KT 250V350 CAVOK 10/01 Q1019=
201010111150 METAR ESMX 111150Z 33005KT 260V040 CAVOK 10/01 Q1019=
201010111120 METAR ESMX 111120Z 30007KT 260V350 CAVOK 10/01 Q1020=
201010111050 METAR ESMX 111050Z 35005KT 320V020 CAVOK 09/01 Q1020=
201010111020 METAR ESMX 111020Z 31005KT 270V360 CAVOK 08/02 Q1020=
201010110950 METAR ESMX 110950Z 30005KT 250V340 CAVOK 07/03 Q1020=
201010110920 METAR ESMX 110920Z 32003KT 240V010 CAVOK 07/02 Q1020=
201010110850 METAR ESMX 110850Z VRB02KT CAVOK 06/04 Q1021=
201010110820 METAR ESMX 110820Z VRB02KT CAVOK 04/04 Q1021=
201010110750 METAR ESMX 110750Z VRB02KT CAVOK 04/03 Q1021=
201010110720 METAR ESMX 110720Z 00000KT CAVOK 03/03 Q1021=
201010110650 METAR ESMX 110650Z 00000KT CAVOK 01/00 Q1021=
201010110620 METAR ESMX 110620Z 00000KT 9999 R01/P2000N R19/0900U BCFG FEW002 M01/M01 Q1021=
201010110550 METAR ESMX 110550Z 00000KT 0800 R01/0750V1900D R19/0450N FZFG FEW002 M00/M01 Q1020=
201010110520 METAR ESMX 110520Z VRB01KT 0700 R01/0900V1700 R19/0800 FZFG FEW002 M00/M01 Q1021=
201010110450 METAR ESMX 110450Z 33002KT 0300 R01/0550 R19/0800V1300 FG NSC 00/00 Q1021=
201010110420 METAR ESMX 110420Z VRB01KT 0350 R19/0700V1200D FG VV002 01/01 Q1021=
201010110350 METAR ESMX 110350Z VRB02KT 0400 R19/1000V1800U FG BKN001 01/01 Q1021=
201010110320 METAR ESMX 110320Z AUTO VRB02KT 0150NDV R01/0550N R19/1500D FG VV002 02/02 Q1021=
201010110250 METAR ESMX 110250Z AUTO VRB02KT 0100NDV R01/0375N R19/0900 FG VV001 02/02 Q1020=
201010110220 METAR ESMX 110220Z AUTO 32003KT 0100NDV R01/0375N R19/0500N FG VV000 02/02 Q1020=
201010110150 METAR ESMX 110150Z AUTO 30003KT 270V330 0100NDV R01/0400N R19/0700 FG VV001 03/02 Q1020=
201010110120 METAR ESMX 110120Z AUTO 35004KT 0100NDV R01/0450N R19/0900V1800U FG VV001 02/02 Q1021=
201010110050 METAR ESMX 110050Z AUTO VRB02KT 0150NDV R01/0450 R19/P2000N FG VV001 02/02 Q1021=
201010110020 METAR ESMX 110020Z 01004KT 0500 R19/1200VP2000N FG VV003 02/02 Q1021=
201010102350 METAR ESMX 102350Z 36004KT 9999 R19/P2000N BCFG FEW001 02/02 Q1021=
201010102320 METAR ESMX 102320Z 01003KT 9999 MIFG SKC 02/02 Q1021=
201010102250 METAR ESMX 102250Z 01004KT 9999 MIFG SKC 03/02 Q1021=
201010102220 METAR ESMX 102220Z 35004KT 9999 MIFG SKC 02/02 Q1021=
201010102150 METAR ESMX 102150Z 01002KT 9999 MIFG SKC 04/04 Q1021=
201010102120 METAR ESMX 102120Z 36003KT CAVOK 05/04 Q1020=
201010102050 METAR ESMX 102050Z 02004KT 9999 FEW030 06/05 Q1020=
201010102020 METAR ESMX 102020Z 03003KT 350V060 9999 FEW028 06/05 Q1021=
201010101920 METAR ESMX 101920Z 03005KT 9999 FEW012 BKN022 08/05 Q1020=
201010101850 METAR ESMX 101850Z 02008KT 9999 BKN011 08/05 Q1020=
201010101820 METAR ESMX 101820Z 02009KT 9999 FEW018 07/05 Q1020=
201010101750 METAR ESMX 101750Z 02009KT CAVOK 08/05 Q1020=
201010101720 METAR ESMX 101720Z 35008KT CAVOK 08/05 Q1019=
201010101650 METAR ESMX 101650Z 35005KT CAVOK 08/05 Q1019=
201010101620 METAR ESMX 101620Z 34005KT CAVOK 10/05 Q1019=
201010101550 METAR ESMX 101550Z 33004KT CAVOK 11/06 Q1019=
201010101520 METAR ESMX 101520Z 32004KT 290V350 CAVOK 11/05 Q1019=
201010101450 METAR ESMX 101450Z 33005KT 290V010 CAVOK 12/06 Q1019=
201010101420 METAR ESMX 101420Z 32006KT CAVOK 12/05 Q1019=
201010101350 METAR ESMX 101350Z 32006KT 280V360 CAVOK 12/05 Q1019=
201010101320 METAR ESMX 101320Z 32008KT 280V020 CAVOK 13/05 Q1020=
201010101250 METAR ESMX 101250Z 28005KT 250V320 CAVOK 12/05 Q1019=
201010101220 METAR ESMX 101220Z 28006KT 250V320 CAVOK 12/05 Q1020=
201010101150 METAR ESMX 101150Z 29005KT 250V320 CAVOK 12/05 Q1020=
201010101120 METAR ESMX 101120Z 29005KT 260V330 CAVOK 12/06 Q1020=
201010101050 METAR ESMX 101050Z 29006KT 260V330 CAVOK 11/06 Q1021=
201010101020 METAR ESMX 101020Z 27004KT 240V320 CAVOK 10/06 Q1021=
201010100950 METAR ESMX 100950Z 29004KT 250V330 CAVOK 08/07 Q1021=
201010100920 METAR ESMX 100920Z 27004KT 210V290 9999 FEW005 SCT200 06/06 Q1021=
201010100850 METAR ESMX 100850Z VRB02KT 9999 FEW003 SCT200 05/04 Q1022=
201010100820 METAR ESMX 100820Z AUTO 21003KT 180V270 2900NDV BKN000/// 03/02 Q1022=
201010100750 METAR ESMX 100750Z AUTO VRB02KT 1100NDV R01/1100V1700U R19/1600D VV001 02/01 Q1022=
201010100720 METAR ESMX 100720Z AUTO 19003KT 0900NDV R01/0900V1500D R19/P2000N FG VV001 01/00 Q1022=
201010100650 METAR ESMX 100650Z AUTO VRB01KT 0600NDV R01/1000N R19/0900VP2000D=
201010100620 METAR ESMX 100620Z AUTO 21002KT 0800NDV R01/1000V1300N R19/P2000D=
201010100550 METAR ESMX 100550Z AUTO 21003KT 1100NDV R01/P2000D R19/1200VP2000U SCT000/// M00/M01 Q1022=
201010100520 METAR ESMX 100520Z AUTO 21002KT 0100NDV R01/0900 R19/0450 FZFG VV000 M00/M01 Q1023=
201010100450 METAR ESMX 100450Z AUTO VRB01KT 0100NDV R01/0450V0650N R19/0450N FG VV000 01/00 Q1023 REDZ=
201010100420 METAR ESMX 100420Z AUTO 20001KT 0050NDV R01/0200V0300N R19/0375N FG VV000 01/01 Q1023=
201010100350 METAR ESMX 100350Z AUTO 19001KT 0050NDV R01/0225N R19/0300N FG VV001 01/01 Q1023=
201010100320 METAR ESMX 100320Z AUTO 18001KT 0050NDV R01/0275N R19/0400N FG VV000 01/01 Q1023=
201010100250 METAR ESMX 100250Z AUTO 00000KT 0050NDV R01/0400V0600N R19/0300N FG VV000 01/01 Q1024 REDZ=
201010100220 METAR ESMX 100220Z AUTO VRB01KT 0050NDV R01/0225N R19/0175V0325N -RA VV000 01/01 Q1024=
201010100150 METAR ESMX 100150Z AUTO 00000KT 0100NDV R01/0375V0550N R19/0650N FG VV000 01/01 Q1024=
201010100120 METAR ESMX 100120Z AUTO VRB01KT 0100NDV R01/0700 R19/0350 FG VV000 02/01 Q1024=
201010100050 METAR ESMX 100050Z AUTO 17002KT 0050NDV R01/0225N R19/0250N FG VV000 01/01 Q1025=
201010100020 METAR ESMX 100020Z AUTO 00000KT 0100NDV R01/0350V0550 R19/0375V0550N FZFG VV001 M00/M01 Q1025=
201010092350 METAR ESMX 092350Z AUTO 19001KT 0100NDV R01/0450 R19/0325V0550=
201010092320 METAR ESMX 092320Z AUTO 00000KT 0150NDV R01/P2000 R19/0500 BCFG NCD 00/M00 Q1026=
201010092250 METAR ESMX 092250Z AUTO VRB01KT 0350NDV R01/P2000N R19/P2000D NCD 01/00 Q1026=
201010092220 METAR ESMX 092220Z AUTO 17002KT 0250NDV R01/0800V1300U R19/P2000N FG NCD 02/01 Q1026=
201010092150 METAR ESMX 092150Z AUTO 16001KT 0200NDV R01/0650 R19/P2000N FG NCD 02/01 Q1027=
201010092120 METAR ESMX 092120Z AUTO VRB02KT 3600NDV BR NCD 02/02 Q1027=
201010092050 METAR ESMX 092050Z AUTO 16003KT 5000NDV BR NCD 04/03 Q1027=
201010092020 METAR ESMX 092020Z AUTO 17002KT 9000NDV NCD 04/03 Q1027=
201010091950 METAR ESMX 091950Z AUTO VRB02KT 9999NDV NCD 04/03 Q1028=
201010091920 METAR ESMX 091920Z AUTO 18003KT 9999NDV NCD 04/03 Q1028=
201010091850 METAR ESMX 091850Z AUTO 19003KT 8000NDV NCD 05/04 Q1028=
201010091820 METAR ESMX 091820Z 00000KT CAVOK 05/04 Q1028=
201010091750 METAR ESMX 091750Z 17001KT CAVOK 05/04 Q1028=
201010091720 METAR ESMX 091720Z 18002KT CAVOK 07/05 Q1028=
201010091650 METAR ESMX 091650Z 17001KT CAVOK 07/06 Q1028=
201010091620 METAR ESMX 091620Z 05001KT CAVOK 09/06 Q1028=
201010091550 METAR ESMX 091550Z 17002KT CAVOK 12/08 Q1028=
201010091450 METAR ESMX 091450Z AUTO 17003KT 9999NDV NCD 13/06 Q1028=
201010091420 METAR ESMX 091420Z AUTO 17003KT 110V220 9999NDV NCD 14/05 Q1029=
201010091350 METAR ESMX 091350Z AUTO 14004KT 050V200 9999NDV NCD 14/06 Q1029=
201010091320 METAR ESMX 091320Z AUTO 14004KT 060V180 9999NDV NCD 14/05 Q1029=
201010091250 METAR ESMX 091250Z AUTO 13003KT 080V200 9999NDV NCD 14/05 Q1030=
201010091220 METAR ESMX 091220Z AUTO 16003KT 080V220 9999NDV NCD 14/05 Q1030=
201010091150 METAR ESMX 091150Z 17004KT 100V210 CAVOK 13/05 Q1030=
201010091120 METAR ESMX 091120Z VRB03KT CAVOK 13/05 Q1031=
201010091050 METAR ESMX 091050Z 07004KT 020V160 CAVOK 12/06 Q1031=
201010091020 METAR ESMX 091020Z 06004KT 360V100 CAVOK 11/06 Q1031=
201010090950 METAR ESMX 090950Z 09005KT 050V150 9999 FEW015 11/06 Q1031=
201010090920 METAR ESMX 090920Z 06004KT 020V140 9999 FEW012 10/06 Q1032=
201010090820 METAR ESMX 090820Z 12006KT 080V160 9999 SCT010 09/06 Q1032=
201010090750 METAR ESMX 090750Z 10004KT 010V170 9000 BR SCT008 08/06 Q1032=
201010090720 METAR ESMX 090720Z 08004KT 050V150 8000 BR BKN006 07/06 Q1032=
201010090650 METAR ESMX 090650Z 11005KT 050V160 8000 BR BKN005 07/06 Q1032=
201010090620 METAR ESMX 090620Z AUTO 11005KT 050V160 6000NDV BR FEW005/// 07/06 Q1031=
201010090550 METAR ESMX 090550Z AUTO 09005KT 040V150 5000NDV BR FEW005/// 07/06 Q1032=
201010090520 METAR ESMX 090520Z AUTO 09004KT 050V140 4700NDV BR FEW006/// 07/06 Q1032=
201010090450 METAR ESMX 090450Z AUTO 05004KT 020V090 5000NDV BR FEW006/// 07/06 Q1032=
201010090420 METAR ESMX 090420Z AUTO 04005KT 020V080 4900NDV BR NCD 07/06 Q1032=
201010090350 METAR ESMX 090350Z AUTO 05004KT 010V080 4500NDV BR NCD 07/06 Q1032=
201010090320 METAR ESMX 090320Z AUTO 05003KT 020V080 4500NDV BR SCT006/// BKN009/// 07/06 Q1032=
201010090250 METAR ESMX 090250Z AUTO 06003KT 010V170 5000NDV BR FEW007/// 07/06 Q1032=
201010090220 METAR ESMX 090220Z AUTO 09003KT 050V140 5000NDV BR NCD 07/06 Q1032=
201010090150 METAR ESMX 090150Z AUTO 08004KT 050V120 4800NDV BR FEW110/// 07/06 Q1032=
201010090120 METAR ESMX 090120Z AUTO 09003KT 050V140 5000NDV BR FEW110/// 07/06 Q1032=
201010090050 METAR ESMX 090050Z AUTO 08003KT 020V110 5000NDV BR NCD 07/06 Q1032=
201010090020 METAR ESMX 090020Z AUTO 10003KT 060V140 4500NDV BR FEW006/// 07/06 Q1032=
201010082350 METAR ESMX 082350Z AUTO 09004KT 050V130 4500NDV BR BKN006/// 07/06 Q1032=
201010082320 METAR ESMX 082320Z AUTO 09004KT 030V130 4800NDV BR FEW006/// 07/06 Q1032=
201010082250 METAR ESMX 082250Z AUTO 08004KT 040V120 4900NDV BR NCD 07/06 Q1032=
201010082220 METAR ESMX 082220Z AUTO 07004KT 020V120 4800NDV BR NCD 07/06 Q1033=
201010082150 METAR ESMX 082150Z AUTO 08004KT 040V110 4600NDV BR FEW010/// SCT110/// 07/06 Q1033=
201010082120 METAR ESMX 082120Z AUTO 08003KT 040V120 5000NDV BR FEW010/// BKN110/// 07/06 Q1033=
201010082050 METAR ESMX 082050Z AUTO 07005KT 030V110 5000NDV BR BKN009/// OVC012/// 07/06 Q1033=
201010082020 METAR ESMX 082020Z AUTO 08003KT 030V110 6000NDV BR BKN009/// 07/06 Q1033=
201010081950 METAR ESMX 081950Z AUTO VRB02KT 6000NDV BR FEW010/// SCT110/// 07/06 Q1032=
201010081920 METAR ESMX 081920Z AUTO 09003KT 040V140 6000NDV BR SCT100/// 08/06 Q1032=
201010081850 METAR ESMX 081850Z AUTO 08004KT 040V130 6000NDV BR BKN100/// 08/06 Q1032=
201010081820 METAR ESMX 081820Z 09003KT 020V140 6000 BR NSC 08/06 Q1032=
201010081750 METAR ESMX 081750Z 10004KT 070V140 6000 BR FEW011 BKN100 08/06 Q1032=
201010081720 METAR ESMX 081720Z VRB02KT 7000 BR FEW010 BKN100 08/07 Q1032=
201010081650 METAR ESMX 081650Z VRB02KT 6000 BR FEW008 BKN089 08/07 Q1031=
201010081620 METAR ESMX 081620Z 06005KT 360V140 7000 BR FEW010 BKN110 08/07 Q1031=
201010081550 METAR ESMX 081550Z 10004KT 050V140 7000 BR FEW010 BKN110 09/07 Q1031=
201010081520 METAR ESMX 081520Z 14003KT 070V200 6000 BR FEW010 09/07 Q1032=
201010081450 METAR ESMX 081450Z VRB03KT 8000 BR FEW010 SCT070 09/07 Q1031=
201010081420 METAR ESMX 081420Z 10006KT 050V140 9999 BR FEW011 BKN090 09/07 Q1031=
201010081350 METAR ESMX 081350Z 14004KT 090V180 9999 BR SCT010 BKN090 09/07 Q1032=
201010081320 METAR ESMX 081320Z 11005KT 060V200 8000 BR FEW010 BKN100 09/07 Q1031=
201010081250 METAR ESMX 081250Z 08006KT 020V140 8000 BR FEW010 BKN090 09/07 Q1031=
201010081220 METAR ESMX 081220Z 11004KT 060V180 7000 BR SCT010 BKN090 09/08 Q1032=
201010081150 METAR ESMX 081150Z 17003KT 110V220 7000 BR FEW009 BKN013 09/08 Q1032=
201010081120 METAR ESMX 081120Z 07005KT 030V100 6000 BR FEW007 SCT010 BKN013 09/08 Q1031=
201010081050 METAR ESMX 081050Z 11003KT 030V200 5000 BR FEW007 BKN008 09/08 Q1032=
201010081020 METAR ESMX 081020Z 10004KT 060V160 6000 BR SCT006 BKN100 09/08 Q1031=
201010080950 METAR ESMX 080950Z VRB02KT 5000 BR FEW005 BKN080 09/08 Q1032=
201010080920 METAR ESMX 080920Z 10003KT 050V200 5000 BR FEW007 BKN080 09/08 Q1032=
201010080850 METAR ESMX 080850Z 11004KT 060V170 5000 BR FEW005 BKN090 09/08 Q1031=
201010080820 METAR ESMX 080820Z 12003KT 070V160 5000 BR FEW005 BKN090 08/08 Q1031=
201010080750 METAR ESMX 080750Z 13003KT 070V170 5000 BR FEW005 BKN090 08/08 Q1031=
201010080720 METAR ESMX 080720Z 13003KT 080V170 5000 BR FEW005 BKN090 08/07 Q1031=
201010080650 METAR ESMX 080650Z VRB02KT 5000 BR FEW005 BKN090 08/07 Q1031=
201010080620 METAR ESMX 080620Z VRB01KT 5000 BR FEW005 BKN088 08/07 Q1031=
201010080550 METAR ESMX 080550Z VRB01KT 4000 BR FEW005 BKN090 08/07 Q1030=
201010080520 METAR ESMX 080520Z 12003KT 060V180 3400 BR FEW005 BKN080 08/07 Q1030=
201010080450 METAR ESMX 080450Z 13003KT 100V160 3800 -RA FEW006 08/07 Q1030=
201010080420 METAR ESMX 080420Z VRB02KT 3700 -RA FEW005 08/07 Q1030=
201010080350 METAR ESMX 080350Z VRB02KT 3700 BR FEW004 SCT089 08/08 Q1030 RESHRA=
201010080320 METAR ESMX 080320Z AUTO VRB02KT 3300NDV -RA FEW004/// 08/08 Q1030=
201010080250 METAR ESMX 080250Z AUTO VRB02KT 3900NDV BR SCT077/// 08/08 Q1030=
201010080220 METAR ESMX 080220Z AUTO VRB01KT 3900NDV BR BKN004/// BKN082/// 08/08 Q1030=
201010080150 METAR ESMX 080150Z AUTO VRB02KT 3600NDV BR FEW004/// BKN076/// 08/08 Q1030=
201010080120 METAR ESMX 080120Z AUTO 13003KT 070V190 4200NDV -DZ FEW072/// SCT082/// 08/08 Q1029=
201010080050 METAR ESMX 080050Z AUTO 13003KT 060V170 3900NDV BR BKN068/// 08/08 Q1029=
201010080020 METAR ESMX 080020Z AUTO VRB02KT 3800NDV BR BKN067/// BKN084/// 08/08 Q1029=
201010072350 METAR ESMX 072350Z AUTO 10002KT 3500NDV -DZ BKN085/// 08/08 Q1029=
201010072320 METAR ESMX 072320Z VRB01KT 3000 -RA FEW005 SCT056 08/08 Q1029=
201010072250 METAR ESMX 072250Z VRB02KT 3500 -RA FEW005 OVC055 08/08 Q1030 REDZ=
201010072220 METAR ESMX 072220Z 07003KT 040V120 3900 -DZ FEW005 OVC054 08/08 Q1030=
201010072150 METAR ESMX 072150Z VRB02KT 4100 BR FEW003 OVC054 08/08 Q1030=
201010072120 METAR ESMX 072120Z VRB02KT 3800 BR FEW002 SCT004 BKN006 08/08 Q1030 REDZ=
201010072020 METAR ESMX 072020Z VRB02KT 2700 +DZ FEW003 BKN005 OVC007 08/08 Q1030=
201010071950 METAR ESMX 071950Z VRB02KT 3700 -RA FEW003 SCT005 BKN011 09/08 Q1029 REDZ=
201010071920 METAR ESMX 071920Z VRB02KT 4900 DZ FEW003 BKN005 OVC008 09/08 Q1029=
201010071850 METAR ESMX 071850Z VRB02KT 5000 DZ FEW003 SCT007 BKN008 09/08 Q1029=
201010071820 METAR ESMX 071820Z 10003KT 050V130 6000 -RA FEW007 BKN008 OVC010 09/08 Q1029 REDZ=
201010071750 METAR ESMX 071750Z VRB02KT 5000 DZ FEW004 SCT007 BKN008 09/08 Q1029=
201010071720 METAR ESMX 071720Z 11003KT 070V160 6000 -RA FEW004 SCT006 OVC007 09/08 Q1028=
201010071650 METAR ESMX 071650Z 11003KT 070V140 9999 -RA FEW004 OVC005 09/08 Q1028=
201010071620 METAR ESMX 071620Z VRB02KT 9999 FEW005 OVC006 09/08 Q1028=
201010071550 METAR ESMX 071550Z 11003KT 040V160 9999 -RA OVC005 09/08 Q1028=
201010071520 METAR ESMX 071520Z VRB02KT 9999 -RA FEW004 BKN005 OVC007 09/08 Q1027=
201010071450 METAR ESMX 071450Z 16003KT 100V240 9999 -DZ OVC004 09/08 Q1027=
201010071420 METAR ESMX 071420Z 16004KT 120V200 9999 -RA OVC004 09/08 Q1027 REDZ=
201010071350 METAR ESMX 071350Z 17005KT 140V200 9999 -DZ FEW004 OVC005 09/08 Q1027=
201010071320 METAR ESMX 071320Z 15005KT 120V190 9999 -DZ FEW004 OVC006 09/09 Q1027=
201010071250 METAR ESMX 071250Z 15005KT 100V220 9999 -RA BKN005 OVC007 09/08 Q1026=
201010071220 METAR ESMX 071220Z 13004KT 080V170 9999 -RA FEW005 BKN007 BKN064 09/08 Q1026=
201010071150 METAR ESMX 071150Z 13005KT 080V190 9000 -RA FEW004 BKN005 BKN008 09/09 Q1026=
201010071120 METAR ESMX 071120Z 13004KT 080V160 6000 -RA FEW002 BKN004 OVC006 09/09 Q1026=
201010071050 METAR ESMX 071050Z 15004KT 090V200 4200 -RA SCT003 BKN004 09/09 Q1026=
201010071020 METAR ESMX 071020Z 16005KT 120V190 3500 -RA SCT003 BKN005 09/09 Q1026=
201010070950 METAR ESMX 070950Z 16005KT 5000 -RA FEW003 BKN006 10/09 Q1026=
201010070920 METAR ESMX 070920Z 17005KT 140V210 4400 -RA FEW003 OVC005 09/09 Q1026=
201010070850 METAR ESMX 070850Z 17005KT 140V230 4400 -RA OVC004 09/09 Q1025=
201010070820 METAR ESMX 070820Z 16005KT 110V200 5000 -RA OVC004 10/09 Q1025=
201010070750 METAR ESMX 070750Z 16006KT 130V210 4400 -RA OVC004 09/09 Q1024=
201010070720 METAR ESMX 070720Z 16006KT 110V200 6000 -RA OVC004 10/09 Q1024=
201010070650 METAR ESMX 070650Z 16007KT 120V190 6000 -RA OVC005 10/09 Q1024=
201010070620 METAR ESMX 070620Z 16007KT 120V190 4900 -RA FEW004 OVC005 10/09 Q1023=
201010070550 METAR ESMX 070550Z 15008KT 110V200 4700 -RA FEW005 OVC007 10/09 Q1023=
201010070520 METAR ESMX 070520Z 15008KT 120V190 4300 -RA FEW006 BKN009 10/09 Q1023=
201010070450 METAR ESMX 070450Z 16008KT 120V200 4800 -RA FEW009 10/09 Q1022=
201010070420 METAR ESMX 070420Z 16008KT 130V190 7000 -RA FEW014 BKN020 10/08 Q1022 REDZ=
201010070350 METAR ESMX 070350Z 16007KT 120V200 8000 -RA FEW013 BKN021 10/08 Q1022=
201010070320 METAR ESMX 070320Z AUTO 16008KT 140V210 9999NDV -DZ BKN019/// OVC028/// 11/08 Q1022=
201010070250 METAR ESMX 070250Z AUTO 16009KT 130V190 9999NDV SCT020/// OVC028/// 11/08 Q1021=
201010070220 METAR ESMX 070220Z AUTO 15009KT 110V190 9999NDV FEW020/// OVC026/// 11/08 Q1021=
201010070150 METAR ESMX 070150Z AUTO 15008KT 120V200 9999NDV BKN020/// OVC026/// 11/08 Q1021=
201010070120 METAR ESMX 070120Z AUTO 16009KT 110V200 9999NDV OVC020/// 11/08 Q1021=
201010070050 METAR ESMX 070050Z AUTO 16009KT 130V200 9999NDV OVC020/// 11/08 Q1021=
201010070020 METAR ESMX 070020Z 16009KT 140V200 9999 OVC020 11/08 Q1021=
201010062350 METAR ESMX 062350Z 15009KT 110V200 9999 OVC020 11/08 Q1020=
201010062320 METAR ESMX 062320Z 15009KT 110V190 9999 FEW019 OVC022 11/08 Q1021=
201010062250 METAR ESMX 062250Z 17009KT 130V210 9999 FEW019 OVC022 11/08 Q1021=
201010062220 METAR ESMX 062220Z 16009KT 130V220 9999 OVC023 11/08 Q1021=
201010062150 METAR ESMX 062150Z 16010KT 120V200 9999 OVC019 12/07 Q1021=
201010062120 METAR ESMX 062120Z 17010KT 090V200 9999 FEW019 OVC023 12/08 Q1020=
201010062050 METAR ESMX 062050Z 17010KT 130V200 9999 FEW020 OVC025 11/08 Q1020=
201010061950 METAR ESMX 061950Z 15008KT 110V190 9999 OVC027 10/07 Q1020=
201010061920 METAR ESMX 061920Z 15009KT 110V180 9999 OVC026 10/07 Q1020=
201010061850 METAR ESMX 061850Z 14008KT 100V170 9999 OVC024 10/07 Q1020=
201010061820 METAR ESMX 061820Z 14008KT 100V190 9999 OVC023 10/07 Q1020=
201010061750 METAR ESMX 061750Z 14007KT 080V190 9999 BKN023 10/07 Q1020=
201010061720 METAR ESMX 061720Z 13007KT 080V160 9999 FEW016 OVC024 10/07 Q1020=
201010061650 METAR ESMX 061650Z 14007KT 100V190 9999 FEW017 OVC021 10/07 Q1019=
201010061620 METAR ESMX 061620Z 14007KT 100V190 9999 SCT014 OVC018 10/07 Q1019=
201010061550 METAR ESMX 061550Z 13008KT 070V190 9999 OVC012 10/07 Q1019=
201010061520 METAR ESMX 061520Z 14007KT 100V180 9999 OVC012 10/07 Q1019=
201010061450 METAR ESMX 061450Z 13006KT 070V170 9999 OVC012 10/07 Q1019=
201010061420 METAR ESMX 061420Z 14007KT 080V200 9999 OVC012 10/07 Q1019=
201010061350 METAR ESMX 061350Z 13008KT 070V190 9999 OVC012 10/07 Q1019=
201010061320 METAR ESMX 061320Z 13007KT 070V170 9999 OVC013 10/07 Q1019=
201010061250 METAR ESMX 061250Z 15008KT 110V200 9999 OVC013 10/07 Q1019=
201010061220 METAR ESMX 061220Z 15008KT 100V210 9999 OVC013 10/07 Q1019=
201010061150 METAR ESMX 061150Z 13006KT 070V200 9999 OVC011 10/07 Q1019=
201010061120 METAR ESMX 061120Z 13007KT 080V170 9999 OVC011 09/06 Q1019=
201010061050 METAR ESMX 061050Z 14007KT 080V170 9999 OVC011 09/06 Q1019=
201010061020 METAR ESMX 061020Z 13008KT 070V190 9999 OVC011 09/06 Q1019=
201010060950 METAR ESMX 060950Z 14007KT 090V190 9999 OVC011 09/06 Q1019=
201010060920 METAR ESMX 060920Z 12007KT 060V170 9999 OVC010 09/06 Q1019=
201010060850 METAR ESMX 060850Z 13006KT 060V170 9999 OVC009 08/06 Q1019=
201010060820 METAR ESMX 060820Z 13007KT 080V170 9999 OVC009 08/06 Q1019=
201010060750 METAR ESMX 060750Z 13008KT 060V170 9999 OVC009 08/06 Q1019=
201010060720 METAR ESMX 060720Z 13008KT 060V200 9999 OVC009 08/06 Q1019=
201010060650 METAR ESMX 060650Z 14008KT 100V190 9999 OVC009 08/06 Q1019=
201010060620 METAR ESMX 060620Z 13009KT 090V170 9999 OVC009 08/06 Q1018=
201010060550 METAR ESMX 060550Z 14008KT 100V190 9999 OVC010 08/06 Q1019=
201010060520 METAR ESMX 060520Z 14007KT 070V200 9999 OVC011 08/06 Q1018=
201010060450 METAR ESMX 060450Z 14006KT 070V200 9999 OVC012 08/06 Q1018=
201010060420 METAR ESMX 060420Z 14007KT 110V180 9999 OVC013 09/06 Q1018=
201010060350 METAR ESMX 060350Z 13007KT 080V170 9999 FEW015 OVC027 09/06 Q1018=
201010060320 METAR ESMX 060320Z AUTO 14007KT 100V220 9999NDV OVC027/// 09/06 Q1017=
201010060250 METAR ESMX 060250Z AUTO 13005KT 070V170 9999NDV OVC028/// 09/06 Q1017=
201010060220 METAR ESMX 060220Z AUTO 13006KT 080V170 9999NDV SCT029/// 09/06 Q1017=
201010060150 METAR ESMX 060150Z AUTO 13005KT 050V170 9999NDV BKN029/// BKN049/// 09/06 Q1018=
201010060120 METAR ESMX 060120Z AUTO 14006KT 100V220 9999NDV SCT030/// OVC046/// 10/06 Q1018=
201010060050 METAR ESMX 060050Z AUTO 14007KT 110V180 9999NDV FEW030/// OVC046/// 10/06 Q1017=
201010060020 METAR ESMX 060020Z AUTO 14007KT 090V190 9999NDV BKN030/// OVC045/// 10/06 Q1017=
201010052350 METAR ESMX 052350Z AUTO 13007KT 090V190 9999NDV SCT029/// OVC047/// 10/06 Q1017=
201010052320 METAR ESMX 052320Z VRB07KT 9999 FEW028 OVC045 10/06 Q1017=
201010052250 METAR ESMX 052250Z 13007KT 100V190 9999 BKN030 10/06 Q1017=
201010052220 METAR ESMX 052220Z 14006KT 080V170 9999 OVC029 10/06 Q1017=
201010052150 METAR ESMX 052150Z 13007KT 070V190 9999 BKN029 OVC039 10/06 Q1017=
201010052120 METAR ESMX 052120Z 13007KT 060V170 9999 OVC029 10/06 Q1017=
201010052050 METAR ESMX 052050Z 14008KT 080V170 9999 OVC030 10/06 Q1017=
201010052020 METAR ESMX 052020Z 14007KT 080V180 9999 FEW038 OVC042 10/06 Q1017=
201010051950 METAR ESMX 051950Z 13009KT 060V170 9999 OVC041 09/06 Q1017=
201010051920 METAR ESMX 051920Z VRB07KT 9999 BKN038 09/06 Q1017=
201010051850 METAR ESMX 051850Z 13008KT 080V170 9999 SCT038 09/06 Q1017=
201010051820 METAR ESMX 051820Z 12007KT 050V190 CAVOK 09/06 Q1016=
201010051750 METAR ESMX 051750Z 12008KT 040V170 CAVOK 09/06 Q1016=
201010051720 METAR ESMX 051720Z 12008G18KT 060V170 CAVOK 09/06 Q1016=
201010051650 METAR ESMX 051650Z 12008G20KT 080V190 9999 FEW018 09/06 Q1016=
201010051620 METAR ESMX 051620Z 12008KT 060V170 9999 FEW018 SCT200 10/06 Q1016=
201010051550 METAR ESMX 051550Z 12011KT 070V170 9999 SCT020 10/06 Q1016=
201010051520 METAR ESMX 051520Z 13008KT 070V190 9999 SCT022 11/06 Q1016=
201010051450 METAR ESMX 051450Z 13008KT 070V190 9999 FEW024 11/06 Q1015=
201010051420 METAR ESMX 051420Z 14010KT 100V170 9999 FEW023 12/06 Q1015=
201010051320 METAR ESMX 051320Z 12008KT 050V180 CAVOK 12/06 Q1015=
201010051250 METAR ESMX 051250Z 13008KT 060V170 CAVOK 13/06 Q1015=
201010051220 METAR ESMX 051220Z 12010G20KT 070V170 CAVOK 13/06 Q1015=
201010051150 METAR ESMX 051150Z 12010G20KT 070V170 CAVOK 14/07 Q1015=
201010051120 METAR ESMX 051120Z 13008KT 060V210 9999 FEW020 BKN200 13/06 Q1015=
201010051050 METAR ESMX 051050Z 12010G21KT 050V180 9999 FEW020 BKN200 13/07 Q1015=
201010051020 METAR ESMX 051020Z 13010KT 070V190 9999 FEW020 SCT200 12/06 Q1015=
201010050950 METAR ESMX 050950Z VRB09KT 9999 FEW021 SCT150 12/06 Q1015=
201010050920 METAR ESMX 050920Z 12007KT 070V160 9999 FEW018 SCT090 11/06 Q1015=
201010050850 METAR ESMX 050850Z 14007KT 080V170 9999 SCT015 SCT080 10/07 Q1016=
201010050820 METAR ESMX 050820Z 13009KT 060V170 9999 SCT013 BKN080 09/06 Q1016=
201010050750 METAR ESMX 050750Z 13007KT 070V190 9999 BKN012 09/06 Q1016=
201010050720 METAR ESMX 050720Z 13006KT 070V190 9999 FEW009 BKN011 08/06 Q1016=
201010050650 METAR ESMX 050650Z 12007KT 070V170 9999 BKN010 08/06 Q1015=
201010050620 METAR ESMX 050620Z 12005KT 060V220 9999 SCT010 BKN090 07/06 Q1016=
201010050550 METAR ESMX 050550Z 12007KT 070V190 9999 FEW010 SCT100 07/05 Q1016=
201010050520 METAR ESMX 050520Z 13005KT 060V190 CAVOK 07/05 Q1015=
201010050450 METAR ESMX 050450Z 13005KT 070V170 CAVOK 07/05 Q1015=
201010050420 METAR ESMX 050420Z 12006KT 070V170 CAVOK 07/05 Q1015=
201010050350 METAR ESMX 050350Z 12005KT 060V170 CAVOK 07/05 Q1015=
201010050320 METAR ESMX 050320Z AUTO 12006KT 070V170 9999NDV NCD 07/05 Q1015=
201010050250 METAR ESMX 050250Z AUTO 12006KT 060V160 9999NDV NCD 07/05 Q1015=
201010050220 METAR ESMX 050220Z AUTO 13005KT 080V180 9999NDV NCD 07/05 Q1015=
201010050150 METAR ESMX 050150Z AUTO 12005KT 080V160 9999NDV NCD 08/05 Q1016=
201010050120 METAR ESMX 050120Z AUTO 13004KT 080V170 9999NDV NCD 08/05 Q1016=
201010050050 METAR ESMX 050050Z AUTO 13005KT 080V180 9999NDV NCD 08/05 Q1015=
201010050020 METAR ESMX 050020Z AUTO 13006KT 080V190 9999NDV NCD 08/05 Q1016=
201010042350 METAR ESMX 042350Z 13006KT 090V180 CAVOK 08/05 Q1016=
201010042320 METAR ESMX 042320Z 13006KT 070V170 CAVOK 08/05 Q1015=
201010042250 METAR ESMX 042250Z 13006KT 090V190 CAVOK 09/06 Q1015=
201010042220 METAR ESMX 042220Z 13006KT 060V170 CAVOK 09/06 Q1016=
201010042150 METAR ESMX 042150Z 13006KT 080V200 CAVOK 09/06 Q1016=
201010042120 METAR ESMX 042120Z 14006KT 080V190 CAVOK 09/06 Q1016=
201010042050 METAR ESMX 042050Z 14007KT 100V170 CAVOK 09/06 Q1015=
201010042020 METAR ESMX 042020Z 13006KT 060V180 CAVOK 09/06 Q1015=
201010041950 METAR ESMX 041950Z 14005KT 090V210 CAVOK 09/06 Q1015=
201010041920 METAR ESMX 041920Z 13006KT 090V180 CAVOK 09/06 Q1015=
201010041850 METAR ESMX 041850Z 14006KT 100V200 CAVOK 10/06 Q1015=
201010041820 METAR ESMX 041820Z 14006KT 090V200 CAVOK 10/07 Q1015=
201010041750 METAR ESMX 041750Z 13006KT 070V200 CAVOK 10/07 Q1015=
201010041720 METAR ESMX 041720Z 13006KT 070V170 CAVOK 10/07 Q1015=
201010041650 METAR ESMX 041650Z 13005KT 070V170 CAVOK 11/07 Q1015=
201010041620 METAR ESMX 041620Z 14007KT 110V190 CAVOK 11/06 Q1015=
201010041550 METAR ESMX 041550Z 14007KT 070V200 CAVOK 12/06 Q1015=
201010041520 METAR ESMX 041520Z 14009KT 080V190 CAVOK 13/06 Q1015=
201010041450 METAR ESMX 041450Z 14010KT 090V190 CAVOK 13/06 Q1015=
201010041420 METAR ESMX 041420Z 14011KT 070V190 CAVOK 14/06 Q1014=
201010041350 METAR ESMX 041350Z 15010KT 080V200 CAVOK 15/06 Q1014=
201010041320 METAR ESMX 041320Z 15009KT 110V190 CAVOK 15/06 Q1015=
201010041250 METAR ESMX 041250Z 15011KT 100V200 CAVOK 15/06 Q1015=
201010041220 METAR ESMX 041220Z 14010KT 090V180 CAVOK 15/07 Q1015=
201010041150 METAR ESMX 041150Z 16009KT 100V210 CAVOK 15/07 Q1015=
201010041120 METAR ESMX 041120Z 15010KT 100V210 9999 FEW030 15/07 Q1015=
201010041050 METAR ESMX 041050Z 13009KT 070V180 CAVOK 14/07 Q1015=
201010041020 METAR ESMX 041020Z 14009KT 090V190 CAVOK 14/08 Q1015=
201010040950 METAR ESMX 040950Z 14007KT 080V190 CAVOK 13/08 Q1015=
201010040920 METAR ESMX 040920Z 14008KT 090V180 CAVOK 12/07 Q1016=
201010040850 METAR ESMX 040850Z 14009KT 100V200 CAVOK 12/07 Q1016=
201010040820 METAR ESMX 040820Z 15008G18KT 100V190 9999 FEW012 11/07 Q1016=
201010040750 METAR ESMX 040750Z 14008KT 090V240 9999 FEW012 10/07 Q1016=
201010040720 METAR ESMX 040720Z 14007KT 090V190 9999 SCT009 09/07 Q1016=
201010040650 METAR ESMX 040650Z 14007KT 080V170 9999 BKN008 09/07 Q1016=
201010040620 METAR ESMX 040620Z 13006KT 060V220 9999 OVC007 08/07 Q1016=
201010040550 METAR ESMX 040550Z 13005KT 080V170 9999 BKN008 08/07 Q1016=
201010040520 METAR ESMX 040520Z 14005KT 070V180 9999 BKN010 08/07 Q1016=
201010040450 METAR ESMX 040450Z 14005KT 070V190 9999 FEW008 BKN010 08/07 Q1016=
201010040420 METAR ESMX 040420Z 15004KT 090V200 9999 FEW009 BKN011 08/06 Q1016=
201010040350 METAR ESMX 040350Z 14006KT 100V190 9999 FEW009 OVC011 08/06 Q1016=
201010040320 METAR ESMX 040320Z AUTO 14006KT 100V220 9999NDV FEW009/// BKN011/// 08/06 Q1016=
201010040250 METAR ESMX 040250Z AUTO 14006KT 070V200 9999NDV SCT010/// 08/07 Q1016=
201010040220 METAR ESMX 040220Z AUTO 14006KT 090V190 9999NDV SCT010/// 08/07 Q1016=
201010040150 METAR ESMX 040150Z AUTO 14005KT 080V190 9999NDV SCT011/// 08/07 Q1016=
201010040120 METAR ESMX 040120Z AUTO 13005KT 080V190 9999NDV NCD 09/07 Q1016=
201010040050 METAR ESMX 040050Z AUTO 13005KT 080V190 9999NDV NCD 09/07 Q1017=
201010040020 METAR ESMX 040020Z AUTO 13005KT 070V190 9999NDV NCD 09/07 Q1017=
201010032350 METAR ESMX 032350Z 14006KT 090V180 CAVOK 09/07 Q1017=
201010032320 METAR ESMX 032320Z 14006KT 080V170 CAVOK 09/06 Q1017=
201010032250 METAR ESMX 032250Z 14006KT 060V190 CAVOK 09/06 Q1017=
201010032220 METAR ESMX 032220Z 14006KT 100V190 CAVOK 09/06 Q1018=
201010032150 METAR ESMX 032150Z 14006KT 100V200 CAVOK 09/07 Q1018=
201010032120 METAR ESMX 032120Z 14006KT 080V190 CAVOK 09/07 Q1018=
201010032050 METAR ESMX 032050Z 13006KT 070V200 CAVOK 09/07 Q1018=
201010032020 METAR ESMX 032020Z 14007KT 080V200 CAVOK 09/07 Q1018=
201010031950 METAR ESMX 031950Z 13007KT 080V200 CAVOK 09/07 Q1018=
201010031920 METAR ESMX 031920Z 14007KT 080V190 CAVOK 09/07 Q1018=
201010031850 METAR ESMX 031850Z 14007KT 090V170 CAVOK 09/06 Q1018=
201010031820 METAR ESMX 031820Z 13007KT 080V170 CAVOK 09/06 Q1019=
201010031750 METAR ESMX 031750Z 13006KT 080V170 CAVOK 10/06 Q1019=
201010031720 METAR ESMX 031720Z 12007KT 070V190 9999 FEW020 BKN080 10/06 Q1019=
201010031650 METAR ESMX 031650Z 13008KT 080V170 9999 FEW020 BKN080 10/06 Q1019=
201010031620 METAR ESMX 031620Z 13007KT 080V250 9999 FEW022 BKN080 10/06 Q1019=
201010031550 METAR ESMX 031550Z 14009KT 080V190 CAVOK 11/06 Q1019=
201010031520 METAR ESMX 031520Z 13010KT 090V200 CAVOK 11/05 Q1019=
201010031450 METAR ESMX 031450Z 14009G19KT 080V190 CAVOK 11/05 Q1019=
201010031420 METAR ESMX 031420Z 15010KT 120V180 CAVOK 12/05 Q1019=
201010031350 METAR ESMX 031350Z 14010KT 100V170 CAVOK 12/05 Q1019=
201010031320 METAR ESMX 031320Z 15010KT 110V190 CAVOK 12/04 Q1019=
201010031250 METAR ESMX 031250Z 14010KT 080V190 CAVOK 13/04 Q1020=
201010031220 METAR ESMX 031220Z 14011KT 100V190 CAVOK 13/04 Q1020=
201010031150 METAR ESMX 031150Z 14011G22KT 070V200 CAVOK 12/04 Q1020=
201010031120 METAR ESMX 031120Z 15010G20KT 090V220 CAVOK 13/05 Q1020=
201010031050 METAR ESMX 031050Z 16012KT 110V200 CAVOK 12/04 Q1021=
201010031020 METAR ESMX 031020Z 15011G21KT 110V200 CAVOK 12/04 Q1021=
201010030950 METAR ESMX 030950Z 14010G21KT 070V190 CAVOK 12/04 Q1021=
201010030920 METAR ESMX 030920Z 15011G22KT 110V210 CAVOK 12/04 Q1021=
201010030850 METAR ESMX 030850Z 15010G21KT 100V200 CAVOK 12/05 Q1021=
201010030820 METAR ESMX 030820Z AUTO 15010G24KT 110V210 9999NDV NCD 11/05 Q1021=
201010030750 METAR ESMX 030750Z AUTO 15009KT 110V190 9999NDV FEW014/// 10/06 Q1021=
201010030720 METAR ESMX 030720Z AUTO 16009KT 110V190 9999NDV BKN010/// 09/07 Q1021=
201010030650 METAR ESMX 030650Z AUTO 15008KT 110V190 9999NDV OVC009/// 09/06 Q1021=
201010030620 METAR ESMX 030620Z AUTO 15009KT 100V190 9999NDV BKN009/// BKN013/// 08/06 Q1021=
201010030550 METAR ESMX 030550Z AUTO 15008KT 090V200 9999NDV OVC009/// 08/06 Q1020=
201010030520 METAR ESMX 030520Z AUTO 15008KT 080V200 9999NDV OVC009/// 08/06 Q1020=
201010030450 METAR ESMX 030450Z AUTO 14007KT 100V180 9999NDV OVC010/// 08/06 Q1021=
201010030420 METAR ESMX 030420Z AUTO 12005KT 070V160 9999NDV FEW013/// 07/06 Q1021=
201010030350 METAR ESMX 030350Z AUTO VRB05KT 9999NDV NCD 08/05 Q1021=
201010030320 METAR ESMX 030320Z AUTO 14005KT 090V190 9999NDV FEW015/// 08/06 Q1021=
201010030250 METAR ESMX 030250Z AUTO 14005KT 080V190 9999NDV FEW021/// SCT027/// 08/06 Q1021=
201010030220 METAR ESMX 030220Z AUTO 13006KT 090V200 9999NDV OVC024/// 08/06 Q1021=
201010030150 METAR ESMX 030150Z AUTO 14006KT 080V190 9999NDV OVC024/// 09/06 Q1021=
201010030120 METAR ESMX 030120Z AUTO 13007KT 080V190 9999NDV OVC026/// 09/06 Q1021=
201010030050 METAR ESMX 030050Z AUTO 13007KT 070V160 9999NDV OVC024/// 09/05 Q1021=
201010030020 METAR ESMX 030020Z AUTO 14006KT 080V190 9999NDV FEW019/// OVC024/// 09/05 Q1022=
201010022350 METAR ESMX 022350Z AUTO 14007KT 100V190 9999NDV OVC026/// 09/05 Q1022=
201010022320 METAR ESMX 022320Z AUTO 13006KT 070V170 9999NDV OVC025/// 09/05 Q1021=
201010022250 METAR ESMX 022250Z AUTO 13005KT 080V180 9999NDV OVC025/// 09/05 Q1022=
201010022220 METAR ESMX 022220Z AUTO 14006KT 100V170 9999NDV FEW018/// OVC021/// 09/05 Q1022=
201010022150 METAR ESMX 022150Z AUTO 15007KT 110V200 9999NDV OVC019/// 09/05 Q1022=
201010022120 METAR ESMX 022120Z AUTO 14007KT 090V190 9999NDV OVC020/// 09/05 Q1022=
201010022050 METAR ESMX 022050Z AUTO VRB06KT 9999NDV OVC023/// 09/05 Q1022=
201010022020 METAR ESMX 022020Z AUTO 13006KT 100V170 9999NDV OVC025/// 09/06 Q1022=
201010021950 METAR ESMX 021950Z AUTO 13005KT 070V190 9999NDV FEW018/// OVC025/// 09/06 Q1022=
201010021920 METAR ESMX 021920Z AUTO 13006KT 070V190 9999NDV FEW019/// OVC022/// 09/06 Q1022=
201010021850 METAR ESMX 021850Z 12006KT 070V180 9999 OVC021 09/05 Q1022=
201010021820 METAR ESMX 021820Z 12006KT 060V170 9999 OVC022 09/05 Q1022=
201010021750 METAR ESMX 021750Z 13007KT 070V180 9999 OVC023 09/04 Q1022=
201010021720 METAR ESMX 021720Z 13008KT 060V200 9999 OVC024 09/04 Q1022=
201010021650 METAR ESMX 021650Z 14005KT 100V190 9999 OVC024 09/05 Q1022=
201010021620 METAR ESMX 021620Z 14006KT 060V200 9999 FEW023 OVC026 09/05 Q1022=
201010021550 METAR ESMX 021550Z 13007KT 070V180 9999 OVC021 10/05 Q1022=
201010021520 METAR ESMX 021520Z AUTO 13007KT 080V190 9999NDV FEW023/// OVC027/// 10/05 Q1022=
201010021450 METAR ESMX 021450Z AUTO 14006KT 100V190 9999NDV FEW024/// OVC028/// 10/05 Q1022=
201010021420 METAR ESMX 021420Z AUTO 13006KT 070V200 9999NDV OVC020/// 10/05 Q1022=
201010021350 METAR ESMX 021350Z AUTO 13006KT 090V170 9999NDV BKN021/// OVC027/// 10/05 Q1022=
201010021320 METAR ESMX 021320Z AUTO 14009KT 090V180 9999NDV OVC023/// 10/05 Q1022=
201010021250 METAR ESMX 021250Z AUTO 14008KT 050V210 9999NDV OVC025/// 10/04 Q1022=
201010021220 METAR ESMX 021220Z AUTO 14008KT 080V190 9999NDV OVC027/// 10/04 Q1022=
201010021150 METAR ESMX 021150Z 14007KT 080V190 9999 OVC032 11/04 Q1022=
201010021120 METAR ESMX 021120Z 14009KT 080V190 9999 BKN034 11/04 Q1022=
201010021050 METAR ESMX 021050Z 14008KT 100V180 9999 BKN030 10/04 Q1022=
201010021020 METAR ESMX 021020Z 14007KT 100V180 9999 FEW030 BKN035 10/04 Q1022=
201010020950 METAR ESMX 020950Z 12009KT 050V190 9999 FEW025 SCT031 BKN036 11/04 Q1022=
201010020920 METAR ESMX 020920Z 14006KT 080V210 9999 FEW026 SCT030 BKN037 10/04 Q1022=
201010020850 METAR ESMX 020850Z 13008KT 050V160 9999 FEW022 SCT026 10/04 Q1022=
201010020820 METAR ESMX 020820Z 14005KT 080V190 9999 SCT035 10/05 Q1022=
201010020750 METAR ESMX 020750Z 10004KT 030V190 9999 SCT035 09/05 Q1022=
201010020720 METAR ESMX 020720Z 11005KT 030V160 9999 FEW035 08/05 Q1022=
201010020650 METAR ESMX 020650Z 11004KT 060V150 CAVOK 08/04 Q1022=
201010020620 METAR ESMX 020620Z 10004KT 030V170 CAVOK 06/04 Q1022=
201010020550 METAR ESMX 020550Z AUTO 10003KT 050V160 9999NDV SCT024/// 06/03 Q1022=
201010020520 METAR ESMX 020520Z AUTO 10003KT 050V170 9999NDV FEW020/// 06/03 Q1021=
201010020450 METAR ESMX 020450Z AUTO VRB02KT 9999NDV FEW019/// SCT021/// BKN026/// 06/03 Q1022=
201010020420 METAR ESMX 020420Z AUTO 11003KT 060V230 9999NDV BKN029/// 07/03 Q1022=
201010020350 METAR ESMX 020350Z AUTO 08003KT 010V150 9999NDV OVC030/// 07/03 Q1022=
201010020320 METAR ESMX 020320Z AUTO 09003KT 020V160 9999NDV OVC030/// 07/03 Q1022=
201010020250 METAR ESMX 020250Z AUTO 10003KT 060V160 9999NDV OVC028/// 07/03 Q1022=
201010020220 METAR ESMX 020220Z AUTO 09004KT 050V150 9999NDV OVC029/// 07/03 Q1022=
201010020150 METAR ESMX 020150Z AUTO 08003KT 030V130 9999NDV OVC028/// 07/03 Q1022=
201010020120 METAR ESMX 020120Z AUTO 09003KT 030V140 9999NDV OVC026/// 07/04 Q1022=
201010020050 METAR ESMX 020050Z AUTO 11003KT 060V220 9999NDV OVC026/// 07/04 Q1022=
201010020020 METAR ESMX 020020Z AUTO 10003KT 040V160 9999NDV OVC025/// 07/04 Q1022=
201010012350 METAR ESMX 012350Z AUTO 11003KT 050V160 9999NDV OVC026/// 07/04 Q1022=
201010012320 METAR ESMX 012320Z AUTO 10004KT 060V150 9999NDV OVC024/// 07/04 Q1022=
201010012250 METAR ESMX 012250Z AUTO 10003KT 020V160 9999NDV OVC027/// 07/04 Q1022=
201010012220 METAR ESMX 012220Z AUTO 09003KT 050V140 9999NDV OVC028/// 07/04 Q1022=
201010012150 METAR ESMX 012150Z AUTO 09003KT 020V160 9999NDV OVC029/// 08/04 Q1022=
201010012120 METAR ESMX 012120Z AUTO 10003KT 040V160 9999NDV OVC027/// 07/04 Q1022=
201010012050 METAR ESMX 012050Z AUTO 10004KT 050V160 9999NDV OVC029/// 08/04 Q1022=
201010012020 METAR ESMX 012020Z AUTO 12003KT 070V180 9999NDV OVC029/// 08/04 Q1022=
201010011950 METAR ESMX 011950Z AUTO 10004KT 050V150 9999NDV OVC029/// 08/04 Q1022=
201010011920 METAR ESMX 011920Z AUTO 10004KT 050V140 9999NDV OVC030/// 08/04 Q1022=
201010011850 METAR ESMX 011850Z 10005KT 060V160 9999 OVC032 08/04 Q1022=
201010011820 METAR ESMX 011820Z 08004KT 030V120 9999 BKN032 08/04 Q1022=
201010011750 METAR ESMX 011750Z 10003KT 050V150 9999 OVC039 08/04 Q1022=
201010011720 METAR ESMX 011720Z 10004KT 060V160 9999 BKN040 08/04 Q1022=
201010011650 METAR ESMX 011650Z 12004KT 040V170 9999 FEW026 BKN038 09/04 Q1022=
201010011620 METAR ESMX 011620Z 13004KT 080V190 9999 FEW028 BKN040 10/04 Q1021=
201010011550 METAR ESMX 011550Z 11004KT 060V170 9999 BKN043 10/04 Q1021=
201010011520 METAR ESMX 011520Z 12003KT 070V170 9999 BKN038 10/03 Q1021=
201010011450 METAR ESMX 011450Z VRB04KT 9999 BKN045 10/03 Q1021=
201010011420 METAR ESMX 011420Z 13005KT 080V180 9999 FEW035 BKN043 11/02 Q1021=
201010011350 METAR ESMX 011350Z 15005KT 070V190 9999 BKN041 11/03 Q1021=
201010011320 METAR ESMX 011320Z 14007KT 100V180 9999 FEW037 BKN046 11/03 Q1021=
201010011250 METAR ESMX 011250Z 12006KT 070V190 9999 FEW034 SCT038 BKN045 11/03 Q1021=
201010011220 METAR ESMX 011220Z 13005KT 080V170 9999 SCT031 OVC044 11/04 Q1022=
