##########################################################
# Query made at 04/19/2024 21:18:06 UTC
# Time interval: from 09/01/2010 12:00  to 09/30/2010 12:59  UTC
##########################################################

##########################################################
# ESMX, Vaxjo (Sweden)
# WMO index: 02641. WIGOS ID: 0-20000-0-02648
# Latitude 56-51N. Longitude 014-50E. Altitude 199 m.
##########################################################

201009301250 METAR ESMX 301250Z VRB02KT 9999 BKN033 OVC038 10/04 Q1023=
201009301220 METAR ESMX 301220Z 08004KT 9999 OVC035 10/03 Q1023=
201009301150 METAR ESMX 301150Z 06004KT 9999 OVC035 11/04 Q1023=
201009301120 METAR ESMX 301120Z 05005KT 9999 OVC030 10/04 Q1023=
201009301050 METAR ESMX 301050Z 06004KT 9999 BKN036 10/04 Q1023=
201009301020 METAR ESMX 301020Z 06005KT 010V140 9999 BKN033 11/04 Q1023=
201009300950 METAR ESMX 300950Z 07005KT 020V120 9999 SCT033 10/04 Q1023=
201009300920 METAR ESMX 300920Z 11005KT 040V170 9999 SCT030 11/03 Q1024=
201009300850 METAR ESMX 300850Z 05007KT 360V100 9999 FEW027 SCT035 10/03 Q1024=
201009300820 METAR ESMX 300820Z 05006KT 340V110 9999 FEW027 SCT035 10/04 Q1024=
201009300750 METAR ESMX 300750Z 06007KT 030V110 9999 SCT032 10/03 Q1024=
201009300720 METAR ESMX 300720Z 05006KT 020V090 9999 BKN031 08/04 Q1024=
201009300650 METAR ESMX 300650Z 04005KT 010V070 9999 BKN031 07/05 Q1024=
201009300620 METAR ESMX 300620Z 04004KT 360V070 9999 BKN031 07/05 Q1024=
201009300550 METAR ESMX 300550Z 03003KT 9999 BKN030 07/05 Q1023=
201009300520 METAR ESMX 300520Z 02004KT 9999 BKN031 06/05 Q1023=
201009300450 METAR ESMX 300450Z 03004KT 9999 BKN031 06/05 Q1023=
201009300420 METAR ESMX 300420Z 03003KT 9999 OVC030 06/05 Q1023=
201009300350 METAR ESMX 300350Z 02003KT 9999 OVC031 06/05 Q1023=
201009300320 METAR ESMX 300320Z AUTO 03003KT 9999NDV OVC028/// 06/05 Q1023=
201009300250 METAR ESMX 300250Z AUTO 02003KT 9999NDV OVC031/// 06/05 Q1023=
201009300220 METAR ESMX 300220Z AUTO 36002KT 9999NDV OVC030/// 05/04 Q1023=
201009300150 METAR ESMX 300150Z AUTO 03003KT 350V060 9999NDV OVC031/// 05/05 Q1023=
201009300120 METAR ESMX 300120Z AUTO 03003KT 9999NDV OVC031/// 05/04 Q1024=
201009300050 METAR ESMX 300050Z AUTO VRB02KT 9999NDV BKN029/// 03/02 Q1024=
201009300020 METAR ESMX 300020Z AUTO VRB01KT 9999NDV OVC026/// 03/02 Q1024=
201009292350 METAR ESMX 292350Z 36003KT 9999 BKN028 02/01 Q1024=
201009292320 METAR ESMX 292320Z 01003KT 9999 SCT029 04/03 Q1024=
201009292250 METAR ESMX 292250Z 03003KT 9999 FEW033 05/04 Q1024=
201009292220 METAR ESMX 292220Z 05003KT 9999 FEW033 04/04 Q1024=
201009292150 METAR ESMX 292150Z 01004KT CAVOK 04/03 Q1024=
201009292120 METAR ESMX 292120Z 02003KT CAVOK 04/03 Q1024=
201009292050 METAR ESMX 292050Z 02004KT CAVOK 04/03 Q1023=
201009292020 METAR ESMX 292020Z VRB02KT CAVOK 03/02 Q1023=
201009291950 METAR ESMX 291950Z VRB02KT CAVOK 03/02 Q1023=
201009291850 METAR ESMX 291850Z 04003KT 350V080 9999 FEW040 05/05 Q1023=
201009291820 METAR ESMX 291820Z 00000KT 9999 FEW040 05/04 Q1023=
201009291750 METAR ESMX 291750Z 00000KT 9999 FEW039 06/04 Q1023=
201009291720 METAR ESMX 291720Z 13002KT 9999 FEW040 07/05 Q1023=
201009291650 METAR ESMX 291650Z 08003KT 020V140 9999 SCT040 09/05 Q1023=
201009291620 METAR ESMX 291620Z VRB02KT 9999 SCT050 09/05 Q1022=
201009291550 METAR ESMX 291550Z 05004KT 020V100 9999 SCT040 10/04 Q1022=
201009291520 METAR ESMX 291520Z 05005KT 360V080 9999 BKN037 11/04 Q1022=
201009291450 METAR ESMX 291450Z 04005KT 010V080 9999 BKN037 11/05 Q1022=
201009291420 METAR ESMX 291420Z 05006KT 020V100 9999 FEW033 SCT042 12/04 Q1022=
201009291350 METAR ESMX 291350Z 02007KT 340V060 9999 SCT040 12/04 Q1022=
201009291320 METAR ESMX 291320Z 03007KT 350V070 9999 BKN037 11/03 Q1022=
201009291250 METAR ESMX 291250Z 01010KT 9999 SCT037 11/04 Q1022=
201009291220 METAR ESMX 291220Z 36008KT 9999 SCT036 12/04 Q1022=
201009291150 METAR ESMX 291150Z 36007KT 320V050 9999 FEW034 11/04 Q1022=
201009291120 METAR ESMX 291120Z 01010KT 9999 FEW027 11/04 Q1022=
201009291050 METAR ESMX 291050Z 03010KT 340V060 9999 FEW026 BKN029 10/04 Q1022=
201009291020 METAR ESMX 291020Z 01011KT 340V040 9999 FEW023 10/04 Q1022=
201009290950 METAR ESMX 290950Z 01010KT 330V040 9999 FEW021 10/04 Q1022=
201009290920 METAR ESMX 290920Z 02012KT 9999 FEW021 BKN024 10/04 Q1022=
201009290850 METAR ESMX 290850Z 02009KT 360V060 9999 SCT021 10/05 Q1022=
201009290820 METAR ESMX 290820Z 36008KT 330V030 9999 FEW045 09/05 Q1022=
201009290750 METAR ESMX 290750Z 36009KT 9999 FEW011 SCT043 07/05 Q1022=
201009290720 METAR ESMX 290720Z 36007KT 9999 FEW010 SCT044 06/04 Q1022=
201009290650 METAR ESMX 290650Z 35009KT 9999 SCT010 06/04 Q1022=
201009290620 METAR ESMX 290620Z 36009KT 9999 BKN008 06/05 Q1022=
201009290550 METAR ESMX 290550Z 02010KT 340V060 9999 BKN009 06/04 Q1022=
201009290520 METAR ESMX 290520Z 36010KT 9999 BKN008 05/04 Q1021=
201009290450 METAR ESMX 290450Z 36009KT 9999 FEW006 BKN008 05/04 Q1021=
201009290420 METAR ESMX 290420Z 36010KT 9999 FEW005 SCT007 05/04 Q1021=
201009290350 METAR ESMX 290350Z 01010KT 9999 FEW006 SCT007 BKN010 05/04 Q1021=
201009290320 METAR ESMX 290320Z AUTO 36011KT 9999NDV FEW006/// 05/04 Q1020=
201009290250 METAR ESMX 290250Z AUTO 36009KT 9999NDV FEW008/// 05/03 Q1020=
201009290220 METAR ESMX 290220Z AUTO 35009KT 9999NDV NCD 04/03 Q1020=
201009290150 METAR ESMX 290150Z AUTO 35009KT 9999NDV NCD 05/03 Q1020=
201009290120 METAR ESMX 290120Z AUTO 35011KT 9999NDV NCD 05/03 Q1020=
201009290050 METAR ESMX 290050Z AUTO 35009KT 9999NDV NCD 05/03 Q1020=
201009290020 METAR ESMX 290020Z AUTO 34008KT 9999NDV NCD 05/02 Q1020=
201009282350 METAR ESMX 282350Z AUTO 34010KT 9999NDV SCT038/// 05/03 Q1020=
201009282320 METAR ESMX 282320Z 35009KT 9999 SCT040 05/03 Q1020=
201009282250 METAR ESMX 282250Z 35009KT 9999 SCT040 06/03 Q1020=
201009282220 METAR ESMX 282220Z 01009KT 9999 SCT040 06/03 Q1019=
201009282150 METAR ESMX 282150Z 02010KT 9999 SCT040 06/02 Q1019=
201009282120 METAR ESMX 282120Z 02011KT 9999 BKN038 07/02 Q1019=
201009282050 METAR ESMX 282050Z 02010KT 9999 FEW038 07/02 Q1019=
201009282020 METAR ESMX 282020Z 02011KT 9999 FEW045 07/02 Q1019=
201009281950 METAR ESMX 281950Z 02009KT 9999 FEW045 07/02 Q1019=
201009281920 METAR ESMX 281920Z 02009KT 9999 FEW045 07/01 Q1019=
201009281850 METAR ESMX 281850Z 01009KT 9999 FEW046 08/02 Q1018=
201009281820 METAR ESMX 281820Z 36008KT CAVOK 08/03 Q1018=
201009281750 METAR ESMX 281750Z 03009KT 9999 SCT045 09/02 Q1018=
201009281720 METAR ESMX 281720Z 02009KT 9999 SCT043 09/02 Q1017=
201009281650 METAR ESMX 281650Z 03010KT 9999 SCT045 09/02 Q1017=
201009281620 METAR ESMX 281620Z 02011KT 9999 FEW045 10/02 Q1017=
201009281550 METAR ESMX 281550Z 02011KT 340V050 9999 FEW046 11/02 Q1016=
201009281520 METAR ESMX 281520Z 01011KT 9999 FEW045 11/02 Q1016=
201009281450 METAR ESMX 281450Z 03013KT 360V060 9999 SCT045 11/01 Q1016=
201009281420 METAR ESMX 281420Z 04010KT 010V070 9999 FEW041 SCT045 11/02 Q1016=
201009281350 METAR ESMX 281350Z 03016KT 350V060 9999 SCT042 11/01 Q1016=
201009281320 METAR ESMX 281320Z 02015G25KT 350V050 9999 FEW036 BKN040 10/02 Q1016=
201009281250 METAR ESMX 281250Z 02015G25KT 9999 BKN035 10/02 Q1015=
201009281220 METAR ESMX 281220Z 01015KT 350V060 9999 BKN032 09/02 Q1015=
201009281150 METAR ESMX 281150Z 02014KT 9999 BKN030 09/03 Q1015=
201009281120 METAR ESMX 281120Z 03014G24KT 340V090 9999 BKN030 09/03 Q1015=
201009281050 METAR ESMX 281050Z 01013KT 340V050 9999 BKN028 09/03 Q1015=
201009281020 METAR ESMX 281020Z 02014KT 9999 BKN027 09/03 Q1014=
201009280950 METAR ESMX 280950Z 02016G28KT 340V060 9999 BKN025 09/03 Q1014=
201009280920 METAR ESMX 280920Z 03015KT 360V060 9999 BKN022 09/03 Q1014=
201009280850 METAR ESMX 280850Z 03013KT 350V070 9999 BKN020 09/03 Q1014=
201009280750 METAR ESMX 280750Z 02018KT 340V040 9999 FEW020 SCT033 08/03 Q1013=
201009280720 METAR ESMX 280720Z 02015KT 350V060 9999 FEW020 SCT035 07/03 Q1013=
201009280650 METAR ESMX 280650Z 01014KT 9999 FEW020 07/03 Q1013=
201009280550 METAR ESMX 280550Z 02013KT 350V060 9999 FEW015 06/03 Q1012=
201009280520 METAR ESMX 280520Z 02015KT 340V050 9999 FEW015 06/03 Q1012=
201009280450 METAR ESMX 280450Z 02014KT 9999 FEW015 06/03 Q1012=
201009280420 METAR ESMX 280420Z 02015G25KT 9999 FEW015 06/03 Q1012=
201009280350 METAR ESMX 280350Z 02016KT 9999 SCT015 BKN030 06/03 Q1012=
201009280320 METAR ESMX 280320Z AUTO 02015KT 9999NDV FEW016/// BKN034/// 06/04 Q1012=
201009280250 METAR ESMX 280250Z AUTO 02015KT 350V060 9999NDV FEW015/// 06/03 Q1012=
201009280220 METAR ESMX 280220Z AUTO 02014KT 9999NDV FEW017/// 06/03 Q1012=
201009280150 METAR ESMX 280150Z AUTO 02014KT 9999NDV FEW016/// SCT019/// 07/04 Q1012=
201009280120 METAR ESMX 280120Z AUTO 02015KT 9999NDV BKN016/// 07/04 Q1012=
201009280050 METAR ESMX 280050Z AUTO 01013KT 9999NDV OVC017/// 07/04 Q1012=
201009280020 METAR ESMX 280020Z AUTO 01013KT 9999NDV BKN018/// 07/04 Q1012=
201009272350 METAR ESMX 272350Z AUTO 01014KT 9999NDV OVC019/// 08/04 Q1012=
201009272320 METAR ESMX 272320Z 02014KT 9999 OVC020 08/04 Q1012=
201009272250 METAR ESMX 272250Z 02014KT 340V050 9999 OVC021 08/04 Q1012=
201009272220 METAR ESMX 272220Z 02013KT 9999 OVC022 08/04 Q1013=
201009272150 METAR ESMX 272150Z 02013KT 350V050 9999 OVC020 09/05 Q1013=
201009272120 METAR ESMX 272120Z 03014KT 340V070 9999 OVC020 09/05 Q1013=
201009272050 METAR ESMX 272050Z 02014KT 350V060 9999 OVC020 09/05 Q1013=
201009272020 METAR ESMX 272020Z 04015KT 9999 OVC020 09/05 Q1013=
201009271950 METAR ESMX 271950Z 03015KT 350V060 9999 OVC022 09/05 Q1013=
201009271920 METAR ESMX 271920Z 04015KT 360V080 9999 OVC023 09/05 Q1013=
201009271850 METAR ESMX 271850Z 02015KT 340V050 9999 OVC022 09/05 Q1013=
201009271820 METAR ESMX 271820Z 03014KT 350V080 9999 OVC023 09/05 Q1013=
201009271750 METAR ESMX 271750Z 04016KT 010V080 9999 OVC025 10/05 Q1013=
201009271720 METAR ESMX 271720Z 02014KT 360V060 9999 OVC025 10/05 Q1013=
201009271650 METAR ESMX 271650Z 03014KT 350V060 9999 OVC024 10/05 Q1013=
201009271620 METAR ESMX 271620Z 03014G26KT 360V080 9999 OVC022 10/06 Q1013=
201009271550 METAR ESMX 271550Z 03018G28KT 9999 OVC018 10/06 Q1012=
201009271520 METAR ESMX 271520Z 03014G25KT 360V060 9999 OVC016 10/07 Q1012=
201009271450 METAR ESMX 271450Z 02014KT 9999 OVC013 10/07 Q1012=
201009271420 METAR ESMX 271420Z 03014G24KT 9999 OVC010 10/07 Q1012=
201009271250 METAR ESMX 271250Z 04016G26KT 9999 OVC007 10/08 Q1013=
201009271220 METAR ESMX 271220Z 03015KT 360V060 9999 OVC007 10/08 Q1012=
201009271150 METAR ESMX 271150Z 03014G24KT 010V070 9999 OVC007 10/09 Q1012=
201009271120 METAR ESMX 271120Z 02014KT 350V060 9999 OVC007 10/09 Q1012=
201009271050 METAR ESMX 271050Z 02014KT 9999 OVC006 11/09 Q1012=
201009271020 METAR ESMX 271020Z 04018KT 9999 OVC007 11/09 Q1012=
201009270950 METAR ESMX 270950Z 03013KT 340V060 9999 OVC006 11/09 Q1012=
201009270920 METAR ESMX 270920Z 04014G27KT 010V080 9999 OVC006 11/09 Q1012=
201009270850 METAR ESMX 270850Z 04012KT 010V080 9999 OVC006 11/09 Q1012=
201009270820 METAR ESMX 270820Z 04014G26KT 360V080 9999 OVC005 11/09 Q1012=
201009270750 METAR ESMX 270750Z 04014KT 010V070 9999 OVC005 10/09 Q1012=
201009270720 METAR ESMX 270720Z 04014KT 340V080 9000 BR OVC005 10/09 Q1012=
201009270650 METAR ESMX 270650Z 02016G27KT 350V050 9000 BR OVC005 10/09 Q1012=
201009270620 METAR ESMX 270620Z 04014G24KT 360V070 9000 BR OVC005 10/09 Q1012=
201009270550 METAR ESMX 270550Z 02015KT 350V060 9999 OVC005 10/09 Q1012=
201009270520 METAR ESMX 270520Z 04012KT 9999 OVC005 10/09 Q1012=
201009270450 METAR ESMX 270450Z 03013KT 350V060 9999 OVC005 10/09 Q1012=
201009270420 METAR ESMX 270420Z 04012KT 360V070 9999 BR OVC005 10/09 Q1012=
201009270350 METAR ESMX 270350Z 02011KT 340V060 5000 BR OVC004 10/09 Q1012=
201009270320 METAR ESMX 270320Z AUTO 04013KT 360V080 6000NDV BR OVC004/// 10/09 Q1012=
201009270250 METAR ESMX 270250Z AUTO 03012KT 4000NDV BR OVC004/// 10/09 Q1012=
201009270220 METAR ESMX 270220Z AUTO 03011KT 350V070 4000NDV BR OVC004/// 10/09 Q1013=
201009270150 METAR ESMX 270150Z AUTO 03012KT 4900NDV BR OVC004/// 10/09 Q1013=
201009270120 METAR ESMX 270120Z AUTO 03011KT 360V060 4100NDV BR OVC004/// 10/09 Q1013=
201009270050 METAR ESMX 270050Z AUTO 02010KT 350V060 4500NDV BR OVC004/// 10/09 Q1013=
201009270020 METAR ESMX 270020Z AUTO 04010KT 350V070 7000NDV BR OVC004/// 11/09 Q1013=
201009262350 METAR ESMX 262350Z 03012KT 010V070 9000 BR OVC005 11/09 Q1013=
201009262320 METAR ESMX 262320Z 03010KT 350V070 9999 OVC006 11/09 Q1013=
201009262250 METAR ESMX 262250Z 04010KT 9999 BR OVC006 10/09 Q1014=
201009262220 METAR ESMX 262220Z 03010KT 360V080 6000 BR OVC005 10/09 Q1014=
201009262150 METAR ESMX 262150Z 03012KT 360V070 7000 BR OVC005 10/09 Q1014=
201009262120 METAR ESMX 262120Z 04011KT 9000 OVC005 11/09 Q1014=
201009262050 METAR ESMX 262050Z 04012KT 360V060 9999 OVC006 11/09 Q1014=
201009262020 METAR ESMX 262020Z 04012KT 9999 OVC006 11/09 Q1014=
201009261950 METAR ESMX 261950Z 04012KT 010V080 9999 OVC006 11/09 Q1014=
201009261920 METAR ESMX 261920Z 04013KT 010V070 9999 OVC006 11/09 Q1014=
201009261850 METAR ESMX 261850Z 04014KT 360V070 9999 OVC005 11/09 Q1014=
201009261820 METAR ESMX 261820Z 04012KT 010V080 9999 OVC006 11/09 Q1013=
201009261750 METAR ESMX 261750Z 04013KT 360V070 9999 OVC005 11/09 Q1013=
201009261720 METAR ESMX 261720Z 05013KT 010V080 9999 OVC006 11/09 Q1013=
201009261650 METAR ESMX 261650Z 04015KT 010V070 9999 OVC006 11/09 Q1013=
201009261620 METAR ESMX 261620Z 05011KT 020V090 9999 OVC006 11/09 Q1013=
201009261550 METAR ESMX 261550Z 04013KT 010V070 9999 OVC005 11/10 Q1013=
201009261520 METAR ESMX 261520Z 04012KT 360V060 9999 OVC005 11/10 Q1013=
201009261450 METAR ESMX 261450Z 03011G21KT 350V070 9999 OVC005 11/10 Q1013=
201009261420 METAR ESMX 261420Z 04012KT 9999 OVC005 11/10 Q1013=
201009261350 METAR ESMX 261350Z 04011KT 360V080 9999 OVC006 11/10 Q1013=
201009261320 METAR ESMX 261320Z 04011KT 9999 OVC006 11/10 Q1013=
201009261250 METAR ESMX 261250Z 05011KT 010V080 9999 OVC006 11/10 Q1012=
201009261220 METAR ESMX 261220Z 04013KT 010V080 9999 OVC007 11/10 Q1012=
201009261150 METAR ESMX 261150Z AUTO 04012KT 300V070 9999NDV OVC007/// 11/09 Q1012=
201009261120 METAR ESMX 261120Z AUTO 04011KT 010V070 9999NDV OVC007/// 11/09 Q1012=
201009261050 METAR ESMX 261050Z AUTO 04014KT 020V080 9999NDV OVC007/// 11/09 Q1012=
201009261020 METAR ESMX 261020Z AUTO 04010KT 010V080 9999NDV OVC007/// 11/09 Q1012=
201009260950 METAR ESMX 260950Z AUTO 04012KT 010V090 9999NDV OVC007/// 11/09 Q1012=
201009260920 METAR ESMX 260920Z AUTO 04012KT 350V070 9999NDV OVC007/// 11/09 Q1012=
201009260850 METAR ESMX 260850Z AUTO 03012KT 9999NDV OVC007/// 11/09 Q1012=
201009260820 METAR ESMX 260820Z AUTO 04012KT 360V080 9999NDV OVC006/// 11/09 Q1012=
201009260750 METAR ESMX 260750Z AUTO 04012KT 350V070 9999NDV BR OVC006/// 11/09 Q1011=
201009260720 METAR ESMX 260720Z AUTO 04012KT 9999NDV OVC006/// 11/09 Q1011=
201009260650 METAR ESMX 260650Z AUTO 04011KT 010V080 9999NDV OVC006/// 11/09 Q1011=
201009260620 METAR ESMX 260620Z AUTO 04011KT 010V070 9999NDV OVC006/// 11/09 Q1011=
201009260550 METAR ESMX 260550Z AUTO 05009KT 360V080 9999NDV OVC007/// 11/09 Q1011=
201009260520 METAR ESMX 260520Z AUTO 05011KT 020V080 9999NDV FEW007/// OVC008/// 11/10 Q1011=
201009260450 METAR ESMX 260450Z AUTO 04010KT 010V080 9999NDV OVC007/// 11/10 Q1011=
201009260420 METAR ESMX 260420Z AUTO 04011G21KT 360V100 9999NDV OVC007/// 12/10 Q1010=
201009260350 METAR ESMX 260350Z AUTO 04009KT 010V080 9999NDV OVC006/// 12/10 Q1010=
201009260320 METAR ESMX 260320Z AUTO 04011KT 010V070 9999NDV OVC006/// 12/11 Q1010=
201009260250 METAR ESMX 260250Z AUTO 05010KT 010V080 9999NDV OVC006/// 13/11 Q1009=
201009260220 METAR ESMX 260220Z AUTO 05010KT 020V100 9999NDV FEW006/// BKN007/// OVC010/// 13/11 Q1009=
201009260150 METAR ESMX 260150Z AUTO 04011KT 9999NDV BR OVC006/// 13/12 Q1009=
201009260120 METAR ESMX 260120Z AUTO 04010KT 7000NDV BR OVC004/// 13/12 Q1009=
201009260050 METAR ESMX 260050Z AUTO 03007KT 350V070 2400NDV BR SCT003/// OVC005/// 13/13 Q1009=
201009260020 METAR ESMX 260020Z AUTO 05007KT 020V100 3000NDV BR OVC004/// 13/13 Q1008=
201009252350 METAR ESMX 252350Z AUTO 04009KT 1600NDV BR FEW002/// OVC004/// 13/13 Q1008=
201009252320 METAR ESMX 252320Z AUTO 04009KT 2900NDV BR OVC004/// 14/13 Q1008=
201009252250 METAR ESMX 252250Z AUTO 05009KT 010V080 3900NDV BR BKN005/// OVC007/// 14/13 Q1008=
201009252220 METAR ESMX 252220Z AUTO 04008KT 010V080 5000NDV BR FEW005/// SCT006/// BKN008/// 15/13 Q1007=
201009252150 METAR ESMX 252150Z AUTO 05007KT 020V080 5000NDV BR FEW007/// BKN008/// OVC011/// 15/14 Q1007=
201009252120 METAR ESMX 252120Z AUTO 04005KT 3900NDV FEW006/// SCT008/// OVC021/// 15/14 Q1007=
201009252050 METAR ESMX 252050Z AUTO 07004KT 040V100 4400NDV FEW015/// SCT019/// OVC021/// 15/14 Q1006=
201009252020 METAR ESMX 252020Z AUTO 01003KT 1000NDV R01/P2000N R19/P2000N FEW018/// BKN021/// 14/13 Q1006=
201009251950 METAR ESMX 251950Z AUTO 00000KT 0400NDV R01/P2000 R19/P2000N BCFG FEW023/// 14/13 Q1006=
201009251920 METAR ESMX 251920Z 00000KT 1500 BR FEW021 14/13 Q1006=
201009251850 METAR ESMX 251850Z 23003KT 2800 BR FEW026 14/13 Q1005=
201009251820 METAR ESMX 251820Z VRB02KT 4300 BR BKN025 15/14 Q1005=
201009251750 METAR ESMX 251750Z 28003KT 7000 BR FEW019 BKN024 16/14 Q1005=
201009251720 METAR ESMX 251720Z 29002KT 7000 BR FEW012 OVC019 16/14 Q1004=
201009251650 METAR ESMX 251650Z 30002KT 7000 BR FEW011 SCT014 OVC018 17/14 Q1004=
201009251620 METAR ESMX 251620Z 29002KT 8000 BR BKN011 OVC014 17/15 Q1004=
201009251550 METAR ESMX 251550Z 28004KT 8000 BR SCT015 OVC057 17/15 Q1003=
201009251520 METAR ESMX 251520Z 29003KT 270V330 9000 BR BKN012 18/15 Q1003=
201009251450 METAR ESMX 251450Z AUTO 27003KT 9000NDV BR NCD 18/15 Q1003=
201009251420 METAR ESMX 251420Z AUTO 24003KT 210V300 9000NDV BR FEW015/// SCT035/// 18/15 Q1002=
201009251350 METAR ESMX 251350Z AUTO 26005KT 8000NDV HZ FEW013/// SCT017/// OVC024/// 18/15 Q1002=
201009251320 METAR ESMX 251320Z AUTO VRB02KT 9999NDV HZ FEW018/// SCT021/// 18/14 Q1002=
201009251250 METAR ESMX 251250Z AUTO 12003KT 080V170 9999NDV HZ FEW018/// 19/14 Q1002=
201009251220 METAR ESMX 251220Z AUTO 09003KT 020V150 9999NDV HZ FEW018/// 18/14 Q1001=
201009251150 METAR ESMX 251150Z AUTO 17003KT 130V250 9000NDV BR NCD 19/14 Q1001=
201009251120 METAR ESMX 251120Z VRB01KT 9000 BR SCT012 19/14 Q1001=
201009251050 METAR ESMX 251050Z VRB01KT 8000 BR SCT012 18/14 Q1001=
201009251020 METAR ESMX 251020Z 16003KT 090V200 7000 BR FEW008 SCT010 17/13 Q1001=
201009250950 METAR ESMX 250950Z 18004KT 140V210 7000 BR BKN008 17/13 Q1001=
201009250920 METAR ESMX 250920Z VRB01KT 5000 BR BKN005 16/14 Q1001=
201009250850 METAR ESMX 250850Z VRB01KT 4600 BR BKN003 BKN006 15/14 Q1000=
201009250820 METAR ESMX 250820Z VRB01KT 4000 BR OVC003 14/14 Q1000=
201009250750 METAR ESMX 250750Z VRB01KT 2500 OVC003 14/13 Q1000=
201009250720 METAR ESMX 250720Z VRB02KT 1400 R01/1600N R19/P2000N BR OVC003 13/13 Q1000=
201009250650 METAR ESMX 250650Z 04003KT 350V080 0550 R01/0800V1200N R19/1000V1500U FG VV002 13/13 Q0999=
201009250620 METAR ESMX 250620Z 00000KT 0250 R01/0550N R19/0550 FG VV002 13/12 Q1000=
201009250550 METAR ESMX 250550Z AUTO VRB02KT 0200NDV R01/0500N R19/0700N FG VV000 13/12 Q0999=
201009250520 METAR ESMX 250520Z AUTO VRB01KT 0150NDV R01/0400N R19/0375N FG VV000 12/12 Q0999=
201009250450 METAR ESMX 250450Z AUTO VRB01KT 0150NDV R01/0550N R19/0550 FG VV000 12/12 Q0999=
201009250420 METAR ESMX 250420Z AUTO VRB02KT 0300NDV R01/1000V1900D R19/0800VP2000D FG VV000 13/12 Q0999=
201009250350 METAR ESMX 250350Z AUTO 08004KT 040V120 0500NDV R01/1600D R19/1400VP2000N FG VV001 13/12 Q0998=
201009250320 METAR ESMX 250320Z AUTO VRB02KT 0600NDV R01/1400VP2000D R19/P2000N FG VV001 13/12 Q0999=
201009250250 METAR ESMX 250250Z AUTO VRB02KT 1100NDV R01/P2000N R19/P2000N BR OVC001/// 13/12 Q0999=
201009250220 METAR ESMX 250220Z AUTO VRB02KT 1300NDV R01/P2000N R19/P2000N BR OVC001/// 13/13 Q0999=
201009250150 METAR ESMX 250150Z AUTO 16004KT 140V200 1500NDV BR OVC002/// 13/13 Q0999=
201009250120 METAR ESMX 250120Z AUTO 19003KT 130V240 1300NDV R01/P2000N R19/P2000N BR BKN001/// 13/13 Q1000=
201009250050 METAR ESMX 250050Z AUTO 15004KT 110V200 1200NDV R01/P2000N R19/P2000N BR BKN002/// 13/12 Q0999=
201009250020 METAR ESMX 250020Z AUTO 14003KT 100V200 1400NDV R01/P2000N R19/P2000N BR OVC002/// 13/12 Q0999=
201009242350 METAR ESMX 242350Z AUTO 15005KT 110V170 1300NDV R01/P2000N R19/P2000N BR BKN002/// 13/12 Q0999=
201009242320 METAR ESMX 242320Z AUTO 14003KT 100V200 1200NDV R01/P2000N R19/P2000N BR NCD 13/12 Q0999=
201009242250 METAR ESMX 242250Z AUTO 14004KT 110V170 1600NDV BR NCD 13/12 Q0999=
201009242220 METAR ESMX 242220Z AUTO VRB02KT 1500NDV BR FEW041/// 13/12 Q0999=
201009242150 METAR ESMX 242150Z AUTO 14004KT 110V170 1500NDV BR FEW005/// 13/12 Q1000=
201009242120 METAR ESMX 242120Z AUTO 16004KT 1800NDV BR FEW094/// 13/13 Q1000=
201009242050 METAR ESMX 242050Z AUTO 16004KT 120V190 2000NDV BR FEW004/// SCT100/// 14/13 Q1000=
201009242020 METAR ESMX 242020Z AUTO 17006KT 2400NDV BR OVC004/// 14/13 Q1000=
201009241950 METAR ESMX 241950Z 16006KT 3000 BR BKN004 14/13 Q1000=
201009241920 METAR ESMX 241920Z 17007KT 3800 BR BKN005 14/13 Q1000=
201009241850 METAR ESMX 241850Z 18007KT 5000 BR FEW004 BKN007 14/12 Q1000=
201009241820 METAR ESMX 241820Z 16006KT 8000 BR FEW008 14/12 Q1000=
201009241750 METAR ESMX 241750Z 16007KT CAVOK 15/12 Q1000=
201009241720 METAR ESMX 241720Z 16006KT CAVOK 15/13 Q0999=
201009241650 METAR ESMX 241650Z 16007KT 130V190 CAVOK 16/13 Q0999=
201009241620 METAR ESMX 241620Z 16006KT CAVOK 17/13 Q1000=
201009241550 METAR ESMX 241550Z 16008KT 120V190 CAVOK 18/14 Q0999=
201009241520 METAR ESMX 241520Z 17008KT 140V200 CAVOK 19/14 Q0999=
201009241450 METAR ESMX 241450Z 17008KT 140V200 CAVOK 19/14 Q1000=
201009241420 METAR ESMX 241420Z 17006KT 9999 FEW025 19/14 Q1000=
201009241350 METAR ESMX 241350Z 18007KT 140V210 9999 FEW040 19/14 Q1000=
201009241320 METAR ESMX 241320Z 16008KT 130V200 CAVOK 19/14 Q1000=
201009241250 METAR ESMX 241250Z 17009KT 140V200 CAVOK 19/13 Q1000=
201009241220 METAR ESMX 241220Z 18010KT 9999 FEW045 19/13 Q1000=
201009241150 METAR ESMX 241150Z 15008KT 110V190 CAVOK 18/13 Q1000=
201009241120 METAR ESMX 241120Z 16009KT 120V180 CAVOK 17/13 Q1001=
201009241050 METAR ESMX 241050Z 17009KT 100V190 9999 FEW048 16/13 Q1001=
201009241020 METAR ESMX 241020Z 17008KT 130V200 CAVOK 16/13 Q1001=
201009240950 METAR ESMX 240950Z 16007KT 120V210 CAVOK 15/12 Q1001=
201009240920 METAR ESMX 240920Z 16007KT 110V190 8000 BR FEW004 15/12 Q1002=
201009240850 METAR ESMX 240850Z 15005KT 110V190 6000 BR FEW003 13/13 Q1002=
201009240820 METAR ESMX 240820Z 16004KT 110V200 2800 BR BKN002 12/12 Q1003=
201009240750 METAR ESMX 240750Z 17004KT 130V200 1700 BR OVC001 12/11 Q1003=
201009240720 METAR ESMX 240720Z 15004KT 110V200 0550 R01/0900N R19/1000U FG VV002 11/11 Q1003=
201009240650 METAR ESMX 240650Z 15004KT 100V200 0300 R01/0600N R19/0900N FG VV002 11/10 Q1003=
201009240620 METAR ESMX 240620Z 14005KT 100V170 0300 R01/0650N R19/0900N FG VV002 11/10 Q1003=
201009240550 METAR ESMX 240550Z 14004KT 080V190 0250 R01/0600N R19/0900N FG VV002 10/10 Q1003=
201009240520 METAR ESMX 240520Z 13003KT 080V180 0200 R01/0600N R19/0800N FG VV002 10/10 Q1004=
201009240450 METAR ESMX 240450Z 13003KT 080V170 0200 R01/0700N R19/0800 FG VV002 10/10 Q1004=
201009240420 METAR ESMX 240420Z 13003KT 080V170 0200 R01/0750 R19/0900N FG VV002 10/10 Q1004=
201009240350 METAR ESMX 240350Z VRB02KT 0200 R01/0750 R19/0750 FG VV002 10/10 Q1004=
201009240320 METAR ESMX 240320Z AUTO 14003KT 080V200 0200NDV R01/0750 R19/0900N FG VV001 10/10 Q1005=
201009240250 METAR ESMX 240250Z AUTO 14003KT 080V190 0200NDV R01/0800 R19/0900N FG VV000 10/10 Q1005=
201009240220 METAR ESMX 240220Z AUTO 15003KT 110V190 0200NDV R01/0700N R19/1100N FG VV000 10/10 Q1005=
201009240150 METAR ESMX 240150Z AUTO 15003KT 110V200 0150NDV R01/0700N R19/0900N FG VV000 10/10 Q1006=
201009240120 METAR ESMX 240120Z AUTO 16004KT 120V190 0150NDV R01/0650N R19/0900N FG VV000 10/10 Q1006=
201009240050 METAR ESMX 240050Z AUTO 15004KT 110V190 0150NDV R01/0650N R19/0900N FG VV001 11/10 Q1007=
201009240020 METAR ESMX 240020Z AUTO 14005KT 0200NDV R01/0750 R19/0800V1200N FG VV001 10/10 Q1007=
201009232350 METAR ESMX 232350Z AUTO VRB01KT 0250NDV R01/1400VP2000D R19/0450V0750 FG NCD 10/10 Q1008=
201009232320 METAR ESMX 232320Z 14003KT 0700 R01/0800VP2000D R19/P2000 FG NSC 10/10 Q1008=
201009232250 METAR ESMX 232250Z 00000KT 0150 R01/0450 R19/0375V0900 FG NSC 10/09 Q1008=
201009232220 METAR ESMX 232220Z 15002KT 0750 R01/P2000N R19/P2000N FG NSC 10/10 Q1008=
201009232150 METAR ESMX 232150Z VRB02KT 2100 BR NSC 11/10 Q1009=
201009232120 METAR ESMX 232120Z 16004KT 2500 BR SCT091 12/11 Q1009=
201009232050 METAR ESMX 232050Z 16004KT 130V190 3300 BR SCT090 12/11 Q1009=
201009232020 METAR ESMX 232020Z 15005KT 3600 BR FEW090 12/11 Q1009=
201009231950 METAR ESMX 231950Z 15004KT 110V180 4500 BR FEW030 12/11 Q1010=
201009231920 METAR ESMX 231920Z 16004KT 110V190 6000 BR FEW030 13/11 Q1010=
201009231850 METAR ESMX 231850Z 16006KT 8000 BR FEW030 13/11 Q1010=
201009231820 METAR ESMX 231820Z 16007KT 9000 BR FEW030 13/12 Q1010=
201009231750 METAR ESMX 231750Z 16007KT 130V190 8000 BR FEW030 14/11 Q1010=
201009231720 METAR ESMX 231720Z 16005KT 9999 FEW030 15/12 Q1010=
201009231650 METAR ESMX 231650Z 16005KT CAVOK 15/12 Q1010=
201009231620 METAR ESMX 231620Z 16006KT 120V190 9999 FEW030 16/12 Q1010=
201009231550 METAR ESMX 231550Z 16006KT 120V190 9999 SCT030 17/12 Q1010=
201009231520 METAR ESMX 231520Z 16006KT 110V190 9999 SCT030 17/12 Q1011=
201009231450 METAR ESMX 231450Z 16007KT 120V190 9999 FEW035 18/12 Q1011=
201009231420 METAR ESMX 231420Z 17009KT 130V200 9999 FEW040 18/12 Q1011=
201009231350 METAR ESMX 231350Z 16008KT 120V210 9999 FEW045 19/12 Q1011=
201009231320 METAR ESMX 231320Z 16008KT 120V190 9999 FEW040 18/12 Q1011=
201009231250 METAR ESMX 231250Z 17009KT 140V200 9999 FEW045 18/12 Q1012=
201009231150 METAR ESMX 231150Z 18011KT 150V210 9999 FEW045 17/12 Q1013=
201009231120 METAR ESMX 231120Z 18010G20KT 140V220 CAVOK 17/11 Q1013=
201009231050 METAR ESMX 231050Z 16007KT 9999 FEW015 16/12 Q1013=
201009231020 METAR ESMX 231020Z 15006KT CAVOK 15/12 Q1013=
201009230950 METAR ESMX 230950Z 16005KT 110V200 9999 FEW034 SCT044 15/12 Q1014=
201009230920 METAR ESMX 230920Z 15005KT 9999 FEW035 BKN043 13/11 Q1014=
201009230850 METAR ESMX 230850Z 16005KT 9999 BR SCT005 BKN042 13/11 Q1014=
201009230820 METAR ESMX 230820Z 16005KT 9000 BR BKN005 BKN042 12/11 Q1015=
201009230750 METAR ESMX 230750Z 16005KT 6000 BR BKN003 OVC005 12/11 Q1015=
201009230720 METAR ESMX 230720Z 17006KT 5000 BR BKN002 OVC004 11/10 Q1015=
201009230650 METAR ESMX 230650Z 16005KT 4000 BR BKN002 OVC003 11/10 Q1015=
201009230620 METAR ESMX 230620Z 17006KT 3300 BR BKN002 OVC003 10/10 Q1015=
201009230550 METAR ESMX 230550Z 16005KT 3000 BR OVC002 10/10 Q1016=
201009230520 METAR ESMX 230520Z 17005KT 3000 BR OVC002 10/09 Q1016=
201009230450 METAR ESMX 230450Z 17006KT 3000 BR OVC002 10/09 Q1016=
201009230420 METAR ESMX 230420Z 17006KT 140V200 3000 BR OVC002 10/09 Q1016=
201009230350 METAR ESMX 230350Z 17006KT 130V200 2000 BR OVC002 10/09 Q1016=
201009230320 METAR ESMX 230320Z AUTO 17006KT 1800NDV OVC001/// 09/09 Q1017=
201009230250 METAR ESMX 230250Z AUTO 17005KT 120V210 0900NDV R01/P2000N R19/P2000N FG VV001 09/08 Q1017=
201009230220 METAR ESMX 230220Z AUTO 16005KT 120V200 0500NDV R01/1600N R19/P2000D FG VV001 08/08 Q1018=
201009230150 METAR ESMX 230150Z AUTO 16004KT 130V210 2300NDV BR FEW001/// SCT003/// 08/08 Q1018=
201009230120 METAR ESMX 230120Z AUTO 17005KT 8000NDV BR NCD 08/08 Q1018=
201009230050 METAR ESMX 230050Z AUTO 17004KT 140V210 8000NDV BR NCD 08/07 Q1018=
201009230020 METAR ESMX 230020Z AUTO 18004KT 150V210 7000NDV NCD 08/07 Q1019=
201009222350 METAR ESMX 222350Z AUTO 18004KT 9999NDV NCD 08/07 Q1019=
201009222320 METAR ESMX 222320Z 19005KT CAVOK 07/07 Q1019=
201009222250 METAR ESMX 222250Z 17004KT 8000 BR NSC 07/07 Q1019=
201009222150 METAR ESMX 222150Z 19005KT CAVOK 08/07 Q1020=
201009222120 METAR ESMX 222120Z 18005KT CAVOK 08/07 Q1019=
201009222050 METAR ESMX 222050Z 19005KT CAVOK 09/07 Q1020=
201009222020 METAR ESMX 222020Z 18005KT CAVOK 09/08 Q1020=
201009221950 METAR ESMX 221950Z 18004KT CAVOK 10/08 Q1020=
201009221920 METAR ESMX 221920Z 19005KT CAVOK 09/07 Q1020=
201009221850 METAR ESMX 221850Z 19004KT CAVOK 10/07 Q1020=
201009221820 METAR ESMX 221820Z 18004KT CAVOK 10/08 Q1020=
201009221750 METAR ESMX 221750Z 17003KT CAVOK 11/08 Q1020=
201009221720 METAR ESMX 221720Z 18004KT CAVOK 10/08 Q1021=
201009221650 METAR ESMX 221650Z 19003KT CAVOK 12/08 Q1021=
201009221620 METAR ESMX 221620Z 19003KT 9999 FEW030 13/08 Q1021=
201009221550 METAR ESMX 221550Z 20005KT 9999 SCT031 13/08 Q1021=
201009221520 METAR ESMX 221520Z 19005KT 150V230 9999 SCT031 14/08 Q1021=
201009221450 METAR ESMX 221450Z 21006KT 180V240 9999 FEW030 14/08 Q1021=
201009221420 METAR ESMX 221420Z 19004KT 130V240 CAVOK 15/08 Q1021=
201009221350 METAR ESMX 221350Z 22006KT 190V260 CAVOK 14/07 Q1022=
201009221320 METAR ESMX 221320Z 23006KT 190V300 9999 FEW030 15/07 Q1022=
201009221250 METAR ESMX 221250Z 23005KT 160V260 CAVOK 15/07 Q1022=
201009221220 METAR ESMX 221220Z 22006KT CAVOK 14/07 Q1022=
201009221150 METAR ESMX 221150Z 20006KT 160V240 9999 FEW030 15/06 Q1022=
201009221120 METAR ESMX 221120Z 17006KT 140V200 9999 SCT026 14/07 Q1023=
201009221050 METAR ESMX 221050Z 21006KT 160V230 9999 FEW025 14/07 Q1023=
201009221020 METAR ESMX 221020Z 22007KT 190V260 9999 SCT021 14/07 Q1023=
201009220950 METAR ESMX 220950Z 24004KT 200V260 9999 FEW021 SCT025 13/07 Q1023=
201009220920 METAR ESMX 220920Z 24003KT 160V310 9999 FEW016 12/07 Q1023=
201009220850 METAR ESMX 220850Z 25003KT 160V300 CAVOK 12/08 Q1023=
201009220820 METAR ESMX 220820Z VRB02KT CAVOK 11/08 Q1023=
201009220750 METAR ESMX 220750Z VRB01KT CAVOK 10/08 Q1023=
201009220720 METAR ESMX 220720Z VRB02KT CAVOK 08/08 Q1023=
201009220650 METAR ESMX 220650Z VRB02KT CAVOK 07/07 Q1022=
201009220620 METAR ESMX 220620Z 20002KT 9999 FEW001 05/04 Q1022=
201009220550 METAR ESMX 220550Z 18001KT 9999 MIFG NSC 03/03 Q1022=
201009220520 METAR ESMX 220520Z 17003KT 9999 R19/1400VP2000 BCFG SCT200 02/02 Q1022=
201009220450 METAR ESMX 220450Z 20001KT 9999 BCFG NSC 02/02 Q1022=
201009220420 METAR ESMX 220420Z 16002KT 9999 R01/0800VP2000D R19/P2000N BCFG NSC 02/01 Q1022=
201009220350 METAR ESMX 220350Z 17001KT 9999 BCFG NSC 03/02 Q1021=
201009220320 METAR ESMX 220320Z AUTO 16002KT 0750NDV R01/P2000D R19/P2000N FG NCD 04/03 Q1021=
201009220250 METAR ESMX 220250Z AUTO 17002KT 2300NDV NCD 03/03 Q1021=
201009220220 METAR ESMX 220220Z AUTO 16001KT 1400NDV R01/P2000N R19/P2000N BR NCD 04/04 Q1021=
201009220150 METAR ESMX 220150Z AUTO 16001KT 4000NDV BR NCD 05/04 Q1021=
201009220120 METAR ESMX 220120Z AUTO 26002KT 1200NDV R01/P2000N R19/P2000N NCD 04/03 Q1021=
201009220050 METAR ESMX 220050Z AUTO 26002KT 9999NDV NCD 05/05 Q1021=
201009220020 METAR ESMX 220020Z AUTO 26003KT 9999NDV NCD 06/05 Q1021=
201009212350 METAR ESMX 212350Z AUTO 27005KT 250V310 9999NDV NCD 06/06 Q1021=
201009212320 METAR ESMX 212320Z 26004KT 230V290 CAVOK 06/05 Q1020=
201009212250 METAR ESMX 212250Z 26004KT 230V290 9999 FEW040 07/06 Q1020=
201009212220 METAR ESMX 212220Z 25004KT 220V280 9999 FEW042 07/06 Q1020=
201009212150 METAR ESMX 212150Z 26004KT CAVOK 07/06 Q1020=
201009212120 METAR ESMX 212120Z 25005KT 9999 SCT042 06/05 Q1019=
201009212050 METAR ESMX 212050Z 26004KT 9999 SCT043 06/05 Q1019=
201009212020 METAR ESMX 212020Z 26003KT 9999 FEW043 05/04 Q1019=
201009211950 METAR ESMX 211950Z 27003KT 9999 FEW044 07/06 Q1019=
201009211920 METAR ESMX 211920Z 31003KT 9999 FEW042 06/05 Q1018=
201009211850 METAR ESMX 211850Z 28003KT 9999 FEW041 06/05 Q1018=
201009211820 METAR ESMX 211820Z 29004KT CAVOK 07/05 Q1017=
201009211750 METAR ESMX 211750Z 32003KT CAVOK 08/06 Q1017=
201009211720 METAR ESMX 211720Z 32005KT 9999 FEW045 10/06 Q1016=
201009211650 METAR ESMX 211650Z 32005KT 9999 FEW044 12/07 Q1016=
201009211620 METAR ESMX 211620Z 31007KT 280V360 9999 SCT040 12/07 Q1016=
201009211550 METAR ESMX 211550Z 33009KT 300V020 9999 FEW038 13/07 Q1015=
201009211520 METAR ESMX 211520Z 32011KT 270V340 9999 SCT040 14/07 Q1014=
201009211450 METAR ESMX 211450Z 31011KT 270V340 9999 SCT039 14/07 Q1014=
201009211420 METAR ESMX 211420Z 30013KT 9999 FEW032 SCT038 14/07 Q1013=
201009211350 METAR ESMX 211350Z 32011KT 280V010 9999 FEW034 SCT041 13/07 Q1013=
201009211320 METAR ESMX 211320Z 29012KT 260V340 9999 SCT029 13/07 Q1013=
201009211250 METAR ESMX 211250Z 30013KT 270V360 9999 BKN033 13/07 Q1012=
201009211220 METAR ESMX 211220Z 30013G23KT 250V350 9999 FEW022 SCT028 BKN031 13/07 Q1012=
201009211150 METAR ESMX 211150Z 30011KT 260V330 9999 BKN020 BKN030 12/07 Q1011=
201009211120 METAR ESMX 211120Z 29011KT 250V320 9999 FEW022 OVC026 11/08 Q1011=
201009211050 METAR ESMX 211050Z 29010KT 250V330 9999 FEW015 BKN020 11/07 Q1010=
201009211020 METAR ESMX 211020Z 29011KT 9999 OVC017 11/07 Q1010=
201009210950 METAR ESMX 210950Z 27010KT 240V310 9999 FEW017 SCT020 OVC025 11/07 Q1009=
201009210920 METAR ESMX 210920Z 28012KT 250V320 9999 OVC014 10/08 Q1008=
201009210850 METAR ESMX 210850Z 28013KT 250V310 9999 OVC019 10/08 Q1008=
201009210820 METAR ESMX 210820Z 28012KT 230V320 9999 FEW016 BKN020 10/08 Q1008=
201009210750 METAR ESMX 210750Z 26013KT 9999 FEW018 OVC020 10/08 Q1007=
201009210720 METAR ESMX 210720Z 27013G25KT 240V310 9999 SCT013 BKN022 10/08 Q1007=
201009210650 METAR ESMX 210650Z 25010KT 210V290 9999 SCT013 BKN020 10/08 Q1006=
201009210620 METAR ESMX 210620Z 26010KT 9999 FEW014 BKN017 10/08 Q1006=
201009210550 METAR ESMX 210550Z 24007KT 200V280 9999 FEW019 BKN023 10/08 Q1005=
201009210520 METAR ESMX 210520Z 26006KT 230V310 9999 SCT015 BKN025 10/08 Q1005=
201009210450 METAR ESMX 210450Z 28009KT 240V320 9999 FEW018 BKN020 OVC026 10/08 Q1005=
201009210420 METAR ESMX 210420Z 27011KT 230V320 9999 FEW013 OVC019 10/08 Q1005=
201009210350 METAR ESMX 210350Z 27012KT 240V310 9999 FEW007 SCT009 BKN011 11/09 Q1004=
201009210320 METAR ESMX 210320Z AUTO 25008KT 210V280 9999NDV FEW010/// SCT013/// BKN016/// 12/10 Q1004=
201009210250 METAR ESMX 210250Z AUTO 24008KT 210V290 9999NDV FEW014/// SCT059/// 12/10 Q1004=
201009210220 METAR ESMX 210220Z AUTO 24008KT 210V280 6000NDV BR FEW007/// SCT012/// BKN037/// 12/11 Q1003=
201009210150 METAR ESMX 210150Z AUTO 24007KT 9999NDV FEW007/// SCT011/// BKN014/// 12/11 Q1003=
201009210120 METAR ESMX 210120Z AUTO 24006KT 210V280 9999NDV DZ FEW012/// SCT032/// 12/12 Q1003 RERA=
201009210050 METAR ESMX 210050Z AUTO 27007KT 230V310 2400NDV RA FEW005/// SCT008/// BKN011/// 13/12 Q1003=
201009210020 METAR ESMX 210020Z AUTO 19009KT 9999NDV +RA FEW005/// BKN007/// OVC010/// 13/12 Q1003=
201009202350 METAR ESMX 202350Z 19009KT 9999 -DZ FEW006 SCT007 BKN009 13/12 Q1003=
201009202320 METAR ESMX 202320Z 19009KT 9999 -DZ FEW006 SCT007 BKN009 13/12 Q1004 REDZ=
201009202250 METAR ESMX 202250Z 19010KT 9999 FEW005 SCT007 BKN008 13/12 Q1004=
201009202220 METAR ESMX 202220Z 18009KT 150V210 9999 -RA BKN005 OVC008 13/12 Q1004=
201009202150 METAR ESMX 202150Z 18008KT 140V200 9000 -RA OVC004 13/12 Q1004=
201009202050 METAR ESMX 202050Z 18009KT 9999 BKN005 OVC009 13/12 Q1005=
201009202020 METAR ESMX 202020Z 19010KT 9999 FEW005 BKN006 OVC009 13/12 Q1005=
201009201950 METAR ESMX 201950Z 19011KT 9999 FEW005 BKN007 OVC011 13/12 Q1005=
201009201920 METAR ESMX 201920Z 19011KT 9999 SCT005 BKN008 OVC010 13/12 Q1005=
201009201850 METAR ESMX 201850Z 19013KT 9999 BKN005 OVC008 13/12 Q1005=
201009201820 METAR ESMX 201820Z 19011KT 9999 -RA FEW005 BKN006 OVC008 12/12 Q1005=
201009201750 METAR ESMX 201750Z 18012KT 140V200 9999 -RA SCT005 BKN008 12/12 Q1005=
201009201720 METAR ESMX 201720Z 19010KT 9999 -RA BKN005 OVC009 12/11 Q1005=
201009201650 METAR ESMX 201650Z 18010KT 110V200 9999 -RA SCT005 BKN008 12/12 Q1005=
201009201620 METAR ESMX 201620Z 18010KT 140V210 9999 -RA FEW005 BKN007 OVC009 13/12 Q1006=
201009201550 METAR ESMX 201550Z 17010KT 140V200 9000 -RA FEW005 SCT007 BKN009 13/12 Q1006=
201009201520 METAR ESMX 201520Z 17010KT 140V200 3500 RA BKN006 13/12 Q1006=
201009201450 METAR ESMX 201450Z 17007KT 140V200 9999 -RA FEW005 SCT006 BKN007 13/12 Q1006=
201009201420 METAR ESMX 201420Z 16007KT 130V200 9000 -RA FEW005 BKN006 OVC010 13/12 Q1007=
201009201350 METAR ESMX 201350Z 16006KT 100V200 9000 -RA OVC006 13/12 Q1007=
201009201320 METAR ESMX 201320Z 15005KT 110V190 8000 -RA FEW007 OVC008 13/11 Q1007 REDZ=
201009201250 METAR ESMX 201250Z 14005KT 100V180 9999 DZ SCT007 BKN018 12/11 Q1008=
201009201220 METAR ESMX 201220Z 15006KT 110V170 9999 DZ SCT015 BKN025 13/11 Q1008=
201009201150 METAR ESMX 201150Z 16007KT 110V200 9999 DZ SCT020 BKN035 13/10 Q1008=
201009201120 METAR ESMX 201120Z 16007KT 9999 FEW019 SCT041 BKN051 14/09 Q1008=
201009201050 METAR ESMX 201050Z 16005KT 9999 FEW013 SCT044 BKN099 13/09 Q1009=
201009201020 METAR ESMX 201020Z 16006KT 9999 SCT010 BKN039 BKN053 13/09 Q1009=
201009200950 METAR ESMX 200950Z 14005KT 9999 FEW009 SCT042 OVC050 12/09 Q1009=
201009200920 METAR ESMX 200920Z 18005KT 9999 FEW008 BKN010 OVC048 12/09 Q1009=
201009200850 METAR ESMX 200850Z 16005KT 9999 FEW007 SCT009 BKN011 11/09 Q1009=
201009200820 METAR ESMX 200820Z 17005KT 9999 BKN006 BKN009 11/09 Q1009=
201009200750 METAR ESMX 200750Z 16004KT 9999 BKN005 BKN008 11/10 Q1009=
201009200720 METAR ESMX 200720Z 18004KT 9999 SCT005 OVC008 10/10 Q1009=
201009200650 METAR ESMX 200650Z 18004KT 8000 BR SCT002 OVC004 10/10 Q1009=
201009200620 METAR ESMX 200620Z 16004KT 4800 BR SCT001 OVC003 10/09 Q1009=
201009200550 METAR ESMX 200550Z 18003KT 5000 BR SCT001 BKN003 OVC005 10/09 Q1009=
201009200520 METAR ESMX 200520Z 16003KT 3900 BR FEW002 SCT004 OVC006 10/09 Q1008=
201009200450 METAR ESMX 200450Z 15003KT 4900 BR FEW002 SCT004 BKN005 10/09 Q1008=
201009200420 METAR ESMX 200420Z 15003KT 4100 BR FEW003 OVC005 09/09 Q1008=
201009200350 METAR ESMX 200350Z VRB02KT 4300 BR FEW003 OVC005 09/09 Q1008=
201009200320 METAR ESMX 200320Z AUTO 00000KT 0800NDV R01/P2000N R19/P2000N FEW001/// OVC003/// 09/08 Q1008=
201009200250 METAR ESMX 200250Z AUTO VRB01KT 0450NDV R01/P2000N R19/1400N VV002 09/09 Q1008=
201009200220 METAR ESMX 200220Z AUTO 17002KT 0500NDV R01/P2000N R19/1600N FG VV001 09/09 Q1008=
201009200150 METAR ESMX 200150Z AUTO VRB02KT 0400NDV R01/1200N R19/1300N FG VV001 09/08 Q1009=
201009200120 METAR ESMX 200120Z AUTO 21003KT 0550NDV R01/1700D R19/P2000D FG VV001 09/08 Q1009=
201009200050 METAR ESMX 200050Z AUTO 21004KT 0500NDV R01/1700U R19/1500N FG VV001 08/08 Q1009=
201009200020 METAR ESMX 200020Z AUTO 20005KT 0300NDV R01/1100U R19/1100N FG VV001 08/07 Q1009=
201009192350 METAR ESMX 192350Z 19005KT 1000 R01/P2000N R19/1400N FG VV002 07/07 Q1009=
201009192320 METAR ESMX 192320Z 20005KT 2000 BR FEW025 SCT045 06/05 Q1009=
201009192250 METAR ESMX 192250Z 20004KT 8000 BR SCT047 06/05 Q1009=
201009192220 METAR ESMX 192220Z 20004KT CAVOK 05/05 Q1009=
201009192150 METAR ESMX 192150Z 19005KT CAVOK 05/05 Q1009=
201009192120 METAR ESMX 192120Z 22005KT CAVOK 05/04 Q1009=
201009192050 METAR ESMX 192050Z 22005KT CAVOK 06/05 Q1009=
201009192020 METAR ESMX 192020Z 22006KT CAVOK 06/05 Q1008=
201009191950 METAR ESMX 191950Z 22006KT CAVOK 07/05 Q1008=
201009191920 METAR ESMX 191920Z 20006KT CAVOK 07/06 Q1008=
201009191850 METAR ESMX 191850Z 21006KT CAVOK 08/06 Q1008=
201009191820 METAR ESMX 191820Z 23006KT CAVOK 08/06 Q1008=
201009191750 METAR ESMX 191750Z 23006KT CAVOK 09/07 Q1007=
201009191720 METAR ESMX 191720Z 23006KT 9999 FEW020 09/07 Q1007=
201009191650 METAR ESMX 191650Z 23007KT 9999 FEW020 10/08 Q1007=
201009191620 METAR ESMX 191620Z 22009KT 9999 FEW018 11/08 Q1007=
201009191550 METAR ESMX 191550Z 23009KT 9999 FEW014 BKN049 11/09 Q1007=
201009191520 METAR ESMX 191520Z 24008KT 210V280 9999 -SHRA FEW010 SCT020CB BKN060 11/09 Q1007=
201009191420 METAR ESMX 191420Z 24009KT 210V280 9999 -SHRA FEW015 SCT020CB BKN057 11/09 Q1006=
201009191350 METAR ESMX 191350Z 25012KT 210V290 9999 SCT020 BKN055 12/08 Q1006=
201009191320 METAR ESMX 191320Z 25010KT 210V290 9999 SCT021 BKN049 12/08 Q1006=
201009191250 METAR ESMX 191250Z 26013KT 220V290 9999 BKN018 12/08 Q1006=
201009191220 METAR ESMX 191220Z 24013KT 200V270 9999 BKN016 12/08 Q1006=
201009191150 METAR ESMX 191150Z AUTO 24011KT 170V280 9999NDV FEW015/// SCT018/// BKN024/// 12/08 Q1005=
201009191120 METAR ESMX 191120Z AUTO 24015KT 9999NDV FEW015/// SCT019/// BKN022/// 12/08 Q1006=
201009191050 METAR ESMX 191050Z AUTO 23011KT 9999NDV FEW018/// BKN020/// BKN030/// 12/08 Q1005=
201009191020 METAR ESMX 191020Z AUTO 26013KT 9999NDV FEW017/// BKN023/// OVC044/// 12/09 Q1005 REDZ=
201009190950 METAR ESMX 190950Z AUTO 25012KT 220V290 9999NDV FEW019/// SCT021/// BKN025/// 12/08 Q1005=
201009190920 METAR ESMX 190920Z AUTO 25013KT 9999NDV FEW016/// SCT021/// BKN028/// 12/09 Q1005=
201009190850 METAR ESMX 190850Z AUTO 23012KT 200V280 9999NDV FEW014/// SCT017/// BKN019/// 12/09 Q1005=
201009190820 METAR ESMX 190820Z AUTO 24010KT 200V290 9999NDV FEW013/// BKN016/// OVC022/// 11/09 Q1004=
201009190750 METAR ESMX 190750Z AUTO 25012KT 210V280 9999NDV FEW012/// SCT015/// OVC017/// 11/09 Q1004=
201009190720 METAR ESMX 190720Z AUTO 23009KT 200V280 9999NDV FEW011/// BKN014/// OVC044/// 10/08 Q1004=
201009190650 METAR ESMX 190650Z AUTO 22007KT 9999NDV BKN011/// OVC016/// 10/08 Q1004=
201009190620 METAR ESMX 190620Z AUTO 22008KT 9999NDV SCT010/// BKN014/// OVC021/// 10/08 Q1004=
201009190550 METAR ESMX 190550Z AUTO 23008KT 200V270 9999NDV FEW010/// SCT015/// BKN020/// 10/08 Q1003=
201009190520 METAR ESMX 190520Z AUTO 23007KT 190V260 9999NDV FEW010/// SCT016/// BKN026/// 09/08 Q1003=
201009190450 METAR ESMX 190450Z AUTO 23007KT 9999NDV FEW009/// SCT014/// BKN016/// 09/08 Q1003=
201009190420 METAR ESMX 190420Z AUTO 22007KT 9999NDV FEW009/// SCT015/// OVC039/// 09/08 Q1003=
201009190350 METAR ESMX 190350Z AUTO 23007KT 210V290 9999NDV FEW009/// SCT014/// OVC037/// 09/08 Q1003=
201009190320 METAR ESMX 190320Z AUTO 23008KT 190V260 9999NDV FEW009/// OVC036/// 09/08 Q1003=
201009190250 METAR ESMX 190250Z AUTO 22009KT 9000NDV FEW008/// SCT016/// OVC039/// 09/08 Q1002=
201009190220 METAR ESMX 190220Z AUTO 22009KT 9999NDV FEW008/// SCT020/// BKN040/// 09/08 Q1002=
201009190150 METAR ESMX 190150Z AUTO 22007KT 9999NDV FEW008/// SCT012/// BKN016/// 09/08 Q1002=
201009190120 METAR ESMX 190120Z AUTO 22008KT 9999NDV FEW006/// SCT009/// BKN012/// 09/08 Q1002=
201009190050 METAR ESMX 190050Z AUTO 23007KT 210V270 9999NDV FEW007/// SCT008/// BKN010/// 09/08 Q1002=
201009190020 METAR ESMX 190020Z AUTO 23009KT 200V260 9999NDV FEW006/// SCT007/// BKN009/// 09/08 Q1002=
201009182350 METAR ESMX 182350Z AUTO 23008KT 9000NDV BR FEW007/// SCT008/// BKN010/// 09/08 Q1002=
201009182320 METAR ESMX 182320Z AUTO 24007KT 210V270 7000NDV BR FEW006/// SCT009/// BKN011/// 09/08 Q1002=
201009182250 METAR ESMX 182250Z AUTO 21009KT 170V240 5000NDV -RA FEW007/// BKN011/// BKN024/// 09/08 Q1002 REDZ=
201009182220 METAR ESMX 182220Z AUTO 23011KT 9999NDV FEW011/// SCT017/// BKN028/// 09/08 Q1002=
201009182150 METAR ESMX 182150Z AUTO 22008KT 9999NDV FEW011/// SCT021/// 10/08 Q1002=
201009182120 METAR ESMX 182120Z AUTO 22009KT 9999NDV FEW008/// SCT016/// BKN047/// 10/08 Q1002=
201009182050 METAR ESMX 182050Z AUTO 23010KT 190V260 5000NDV DZ FEW014/// SCT017/// BKN022/// 10/08 Q1002=
201009182020 METAR ESMX 182020Z AUTO 25009KT 210V280 9999NDV FEW014/// SCT021/// OVC050/// 10/08 Q1002=
201009181950 METAR ESMX 181950Z AUTO 25011KT 200V290 9999NDV FEW014/// SCT017/// BKN020/// 10/08 Q1002 REDZ=
201009181920 METAR ESMX 181920Z AUTO 25011KT 210V300 9999NDV FEW014/// SCT020/// BKN024/// 10/08 Q1002=
201009181850 METAR ESMX 181850Z 25011KT 210V280 9999 FEW015 BKN019 OVC024 10/08 Q1002=
201009181820 METAR ESMX 181820Z 25010KT 9999 SCT014 BKN019 11/09 Q1001=
201009181750 METAR ESMX 181750Z 24010KT 200V280 9999 FEW015 SCT018 BKN021 11/09 Q1001=
201009181720 METAR ESMX 181720Z 25008KT 9999 FEW011 SCT015CB BKN025 11/09 Q1001 REDZ=
201009181650 METAR ESMX 181650Z 26011KT 230V290 9999 FEW015 SCT030 BKN054 11/09 Q1000=
201009181620 METAR ESMX 181620Z 25011KT 9999 FEW017 BKN025 11/09 Q1000=
201009181550 METAR ESMX 181550Z 26012KT 9999 FEW017 BKN020 12/09 Q1000=
201009181520 METAR ESMX 181520Z 26009KT 220V290 9999 FEW016 BKN020 12/09 Q1000=
201009181220 METAR ESMX 181220Z 22009KT 6000 RA SCT006 BKN010 09/08 Q0998=
201009181150 METAR ESMX 181150Z 22008KT 5000 RA FEW009 SCT015 BKN022 09/08 Q0999=
201009181120 METAR ESMX 181120Z 24007KT 6000 -RA FEW023 BKN031 08/07 Q0999=
201009181050 METAR ESMX 181050Z 25008KT 220V290 5000 RA FEW010 SCT017 BKN020 08/07 Q0999=
201009181020 METAR ESMX 181020Z 24012KT 4500 RA FEW010 SCT015 BKN024 08/07 Q0999=
201009180950 METAR ESMX 180950Z 23013KT 5000 RA FEW010 SCT017 BKN023 08/06 Q0999=
201009180920 METAR ESMX 180920Z 21015KT 180V240 5000 RA FEW019 SCT027 BKN030 09/06 Q0999=
201009180850 METAR ESMX 180850Z 24013G26KT 210V270 9999 VCSH FEW020CB SCT032 09/06 Q0999 RESHRA=
201009180820 METAR ESMX 180820Z 22012KT 9999 -RA FEW023CB SCT033 08/06 Q0999=
201009180750 METAR ESMX 180750Z 24013KT 210V280 9999 FEW020 SCT025CB BKN029 09/06 Q0999=
201009180720 METAR ESMX 180720Z 23013KT 190V260 9999 BKN025CB 09/06 Q0998 RERA=
201009180650 METAR ESMX 180650Z 23010KT 200V260 9999 VCSH FEW026CB 09/06 Q0998=
201009180620 METAR ESMX 180620Z 24011KT 200V270 9999 FEW030 08/06 Q0998=
201009180550 METAR ESMX 180550Z AUTO 22008KT 9999NDV FEW026/// 08/06 Q0998=
201009180520 METAR ESMX 180520Z AUTO 23008KT 200V260 9999NDV FEW025/// 09/07 Q0998=
201009180450 METAR ESMX 180450Z AUTO 24009KT 200V270 9999NDV FEW023/// 09/07 Q0998=
201009180420 METAR ESMX 180420Z AUTO 23010KT 190V250 9999NDV FEW013/// SCT017/// BKN023/// 09/07 Q0998=
201009180350 METAR ESMX 180350Z AUTO 24010KT 200V290 9999NDV FEW013/// SCT019/// BKN023/// 10/08 Q0997=
201009180320 METAR ESMX 180320Z AUTO 25010KT 210V290 6000NDV DZ FEW007/// SCT013/// BKN020/// 10/08 Q0997=
201009180250 METAR ESMX 180250Z AUTO 24010KT 200V280 6000NDV FEW007/// SCT008/// BKN011/// 10/08 Q0997=
201009180220 METAR ESMX 180220Z AUTO 23010KT 5000NDV DZ SCT007/// BKN010/// OVC015/// 10/09 Q0997 REDZ=
201009180150 METAR ESMX 180150Z AUTO 23009KT 200V260 9999NDV FEW008/// BKN010/// OVC014/// 10/09 Q0997=
201009180120 METAR ESMX 180120Z AUTO 23009KT 180V260 9999NDV FEW009/// SCT011/// BKN013/// 10/09 Q0997=
201009180050 METAR ESMX 180050Z AUTO 24010KT 210V270 8000NDV BR FEW008/// BKN011/// OVC033/// 10/09 Q0997 REDZ=
201009180020 METAR ESMX 180020Z AUTO 22010KT 160V270 9999NDV FEW008/// BKN010/// OVC015/// 11/09 Q0996=
201009172350 METAR ESMX 172350Z AUTO 24010KT 210V270 9999NDV FEW009/// SCT011/// BKN014/// 11/09 Q0996=
201009172320 METAR ESMX 172320Z AUTO 23008KT 190V260 9999NDV FEW009/// SCT015/// BKN018/// 11/10 Q0996=
201009172250 METAR ESMX 172250Z AUTO 24008KT 210V290 9999NDV FEW008/// SCT012/// BKN015/// 11/10 Q0996=
201009172220 METAR ESMX 172220Z AUTO 24007KT 210V280 9999NDV FEW007/// SCT008/// BKN010/// 11/10 Q0996=
201009172150 METAR ESMX 172150Z AUTO 22007KT 9999NDV -RA FEW006/// SCT011/// BKN016/// 10/09 Q0996=
201009172120 METAR ESMX 172120Z AUTO 23007KT 200V260 9999NDV -RA FEW005/// SCT010/// BKN022/// 10/09 Q0996=
201009172050 METAR ESMX 172050Z AUTO 24005KT 210V270 9999NDV FEW008/// BKN010/// 10/09 Q0996=
201009172020 METAR ESMX 172020Z AUTO 26008KT 9999NDV FEW009/// SCT011/// BKN014/// 10/09 Q0995=
201009171950 METAR ESMX 171950Z AUTO 26009KT 9999NDV FEW007/// BKN011/// OVC022/// 11/09 Q0995=
201009171920 METAR ESMX 171920Z AUTO 21011KT 9999NDV FEW005/// SCT008/// BKN010/// 10/09 Q0994 RERA=
201009171850 METAR ESMX 171850Z 18010KT 140V210 6000 -RA FEW006 SCT010 BKN020 10/09 Q0994=
201009171820 METAR ESMX 171820Z 18009KT 9000 -RA FEW006 BKN050 10/09 Q0994=
201009171750 METAR ESMX 171750Z 19012KT 8000 RA FEW006 SCT010 BKN020 10/09 Q0994=
201009171720 METAR ESMX 171720Z 16009KT 120V190 6000 RA SCT010 BKN017 10/09 Q0994=
201009171650 METAR ESMX 171650Z 17009KT 140V200 9999 -RA SCT020CB BKN045 10/08 Q0995=
201009171620 METAR ESMX 171620Z 21012KT 180V240 9999 -RA FEW016CB SCT030 BKN051 10/08 Q0995=
201009171550 METAR ESMX 171550Z 18010KT 9999 DZ SCT020 BKN040 11/08 Q0995=
201009171520 METAR ESMX 171520Z 20013KT 9999 FEW020 SCT061 11/08 Q0995=
201009171450 METAR ESMX 171450Z 20014KT 9999 FEW020 SCT050 12/08 Q0996=
201009171420 METAR ESMX 171420Z 20015KT 9999 FEW025 SCT035 BKN046 12/07 Q0996=
201009171350 METAR ESMX 171350Z 21014KT 170V250 9999 BKN023 13/08 Q0996=
201009171320 METAR ESMX 171320Z 21015KT 9999 BKN020 12/08 Q0996=
201009171250 METAR ESMX 171250Z 21014KT 160V240 9999 FEW018 SCT021 BKN025 12/08 Q0996=
201009171220 METAR ESMX 171220Z 20012KT 160V240 9999 SCT017 BKN025 12/09 Q0996=
201009171150 METAR ESMX 171150Z 21011KT 170V240 9999 FEW021CB SCT038 BKN057 11/09 Q0996=
201009171120 METAR ESMX 171120Z 22016KT 9999 -RA FEW016CB SCT058 11/08 Q0996 RESHRA=
201009171050 METAR ESMX 171050Z 21012KT 170V250 9999 -RA SCT020CB SCT032 12/09 Q0996=
201009171020 METAR ESMX 171020Z 21012KT 9000 -RA FEW015CB SCT021 BKN035 11/08 Q0996=
201009170950 METAR ESMX 170950Z 20014KT 9999 -SHRA FEW015CB SCT021 BKN042 11/08 Q0996=
201009170920 METAR ESMX 170920Z 22011KT 190V250 9999 -SHRA FEW016CB SCT022 BKN031 11/08 Q0996=
201009170850 METAR ESMX 170850Z 20010KT 9999 VCSH FEW007 SCT015CB BKN019 11/09 Q0997=
201009170820 METAR ESMX 170820Z 20012KT 9999 -SHRA FEW013CB SCT020 10/08 Q0997=
201009170750 METAR ESMX 170750Z 20013KT 9999 FEW010 SCT015 BKN045 11/09 Q0996=
201009170720 METAR ESMX 170720Z 20013KT 9999 FEW010 SCT015CB BKN028 10/09 Q0996 RERA=
201009170650 METAR ESMX 170650Z 20012KT 9999 FEW009 SCT016 BKN086 10/08 Q0996=
201009170620 METAR ESMX 170620Z 21011KT 9999 FEW008 SCT053 10/08 Q0996=
201009170550 METAR ESMX 170550Z 20012KT 9999 FEW007 BKN012 10/08 Q0996=
201009170520 METAR ESMX 170520Z 20011KT 9999 -SHRA FEW006 SCT013CB BKN029 09/08 Q0996=
201009170450 METAR ESMX 170450Z 21011KT 8000 -RA FEW006 SCT010 BKN014 09/08 Q0996=
201009170420 METAR ESMX 170420Z 20010KT 5000 -RA FEW006 SCT008 BKN012 09/08 Q0996=
201009170350 METAR ESMX 170350Z 19011KT 9999 FEW008 SCT012 BKN015 09/08 Q0996=
201009170320 METAR ESMX 170320Z AUTO 21011KT 9999NDV FEW007/// SCT012/// BKN022/// 09/08 Q0996 REDZ=
201009170250 METAR ESMX 170250Z AUTO 20010KT 9999NDV FEW009/// SCT012/// BKN015/// 09/08 Q0996=
201009170220 METAR ESMX 170220Z AUTO 20010KT 9999NDV FEW008/// SCT009/// BKN011/// 10/08 Q0996=
201009170150 METAR ESMX 170150Z AUTO 20011KT 9999NDV FEW008/// BKN011/// OVC015/// 10/08 Q0996 REDZ=
201009170120 METAR ESMX 170120Z AUTO 20011KT 9999NDV FEW008/// BKN011/// OVC014/// 10/08 Q0996=
201009170050 METAR ESMX 170050Z AUTO 21010KT 9999NDV FEW009/// SCT013/// BKN016/// 10/08 Q0996=
201009170020 METAR ESMX 170020Z AUTO 21009KT 9999NDV FEW008/// SCT011/// 09/08 Q0997=
201009162350 METAR ESMX 162350Z AUTO 20011KT 9999NDV FEW006/// SCT009/// 09/08 Q0997=
201009162320 METAR ESMX 162320Z 21011KT 9999 FEW007 SCT009 BKN011 10/09 Q0997=
201009162250 METAR ESMX 162250Z 20010KT 9999 FEW008 BKN010 10/09 Q0996=
201009162220 METAR ESMX 162220Z 20008KT 9999 FEW015 SCT041 10/08 Q0997=
201009162150 METAR ESMX 162150Z 21009KT 170V240 9999 DZ FEW019 SCT025 10/09 Q0996=
201009162120 METAR ESMX 162120Z 22010KT 9999 -RA FEW008 SCT013 10/09 Q0996=
201009162050 METAR ESMX 162050Z 23009KT 200V260 9999 FEW009 SCT012 BKN066 10/09 Q0996 REDZ=
201009162020 METAR ESMX 162020Z 22009KT 9999 OVC010 11/09 Q0996=
201009161950 METAR ESMX 161950Z 21010KT 9999 FEW011 SCT014 BKN029 11/09 Q0996=
201009161920 METAR ESMX 161920Z 21010KT 9999 FEW013 SCT019 BKN061 11/09 Q0996=
201009161850 METAR ESMX 161850Z 20011KT 9999 FEW009 SCT013 OVC017 11/09 Q0995=
201009161820 METAR ESMX 161820Z 19012KT 160V220 9999 -RA FEW011 SCT016 BKN026 11/09 Q0995=
201009161750 METAR ESMX 161750Z 21011KT 9999 FEW023 SCT028 BKN034 11/09 Q0995=
201009161720 METAR ESMX 161720Z 19012KT 9999 DZ FEW021 SCT037 BKN043 12/09 Q0995=
201009161650 METAR ESMX 161650Z 19007KT 9999 VCSH FEW025CB SCT065 12/09 Q0995=
201009161620 METAR ESMX 161620Z 20010KT 9999 FEW020 12/09 Q0995=
201009161550 METAR ESMX 161550Z 20012KT 170V230 9999 FEW030 SCT050 13/09 Q0995=
201009161520 METAR ESMX 161520Z 22012KT 200V260 9999 FEW023 SCT035 14/08 Q0995=
201009161450 METAR ESMX 161450Z 21013KT 170V240 9999 FEW023CB SCT038 14/08 Q0995=
201009161420 METAR ESMX 161420Z 25014KT 210V300 9999 FEW020CB BKN036 14/08 Q0995=
201009161350 METAR ESMX 161350Z 27008KT 220V300 9999 FEW021 BKN033 13/09 Q0995=
201009161320 METAR ESMX 161320Z 24009KT 210V280 9999 VCSH SCT020CB BKN100 14/09 Q0994=
201009161250 METAR ESMX 161250Z 25011KT 200V280 9999 VCSH FEW020 SCT030CB BKN080 13/08 Q0994=
201009161220 METAR ESMX 161220Z 25015G25KT 220V280 9999 VCSH FEW023CB SCT033 14/08 Q0994=
201009161150 METAR ESMX 161150Z 23017KT 200V260 9999 FEW022 SCT033 14/09 Q0993=
201009161120 METAR ESMX 161120Z 25009KT 170V320 9999 FEW020CB SCT042 13/10 Q0993=
201009161050 METAR ESMX 161050Z 23012KT 200V260 9999 VCSH FEW021CB SCT044 13/09 Q0993 RERA=
201009161020 METAR ESMX 161020Z 23011KT 200V260 9999 FEW014 SCT025 12/10 Q0993=
201009160950 METAR ESMX 160950Z 23010KT 200V270 9999 FEW014 SCT020 12/09 Q0993=
201009160920 METAR ESMX 160920Z 21011KT 9999 FEW010 SCT035 11/09 Q0993=
201009160850 METAR ESMX 160850Z 21011KT 190V250 9999 FEW010 SCT014 BKN020 10/09 Q0992=
201009160820 METAR ESMX 160820Z 21012KT 9999 FEW007 SCT020 BKN034 09/08 Q0992=
201009160750 METAR ESMX 160750Z 22014KT 7000 -RA FEW008 SCT011 BKN016 09/07 Q0991=
201009160720 METAR ESMX 160720Z 22013KT 9999 -RA FEW010 SCT013 BKN015 09/07 Q0991=
201009160650 METAR ESMX 160650Z 21017G28KT 170V240 6000 -RA FEW008 BKN011 08/07 Q0990=
201009160620 METAR ESMX 160620Z 20020KT 8000 RA FEW010 OVC013 09/07 Q0990=
201009160550 METAR ESMX 160550Z 20017KT 170V230 9999 -RA FEW013 BKN015 BKN020 09/07 Q0989=
201009160520 METAR ESMX 160520Z 20017KT 9999 FEW012 BKN017 BKN025 09/07 Q0989=
201009160450 METAR ESMX 160450Z 19015KT 8000 -RA FEW011 SCT017 BKN020 09/08 Q0989=
201009160420 METAR ESMX 160420Z 19013KT 150V230 9999 -RA FEW009 SCT012 BKN020 09/08 Q0989=
201009160350 METAR ESMX 160350Z 19014KT 9999 -RA SCT011 OVC017 09/08 Q0989=
201009160320 METAR ESMX 160320Z AUTO 19016KT 6000NDV -RA FEW012/// OVC017/// 09/08 Q0989=
201009160250 METAR ESMX 160250Z AUTO 20016KT 9000NDV FEW015/// OVC019/// 10/08 Q0989=
201009160220 METAR ESMX 160220Z AUTO 19016KT 9999NDV -DZ OVC019/// 10/07 Q0989=
201009160150 METAR ESMX 160150Z AUTO 19018KT 9999NDV FEW018/// BKN022/// OVC027/// 10/07 Q0989=
201009160120 METAR ESMX 160120Z AUTO 20016KT 9999NDV FEW016/// BKN020/// BKN027/// 10/08 Q0989 REDZ=
201009160050 METAR ESMX 160050Z AUTO 18016KT 140V210 9999NDV FEW012/// SCT021/// BKN025/// 11/08 Q0989=
201009160020 METAR ESMX 160020Z AUTO 18015KT 9999NDV FEW016/// SCT021/// BKN025/// 11/08 Q0990=
201009152350 METAR ESMX 152350Z AUTO 17013KT 140V200 9999NDV -RA FEW017/// BKN022/// BKN047/// 11/09 Q0990=
201009152320 METAR ESMX 152320Z 17013KT 150V210 9999 FEW016 SCT025 BKN030 11/08 Q0990=
201009152250 METAR ESMX 152250Z 18014G25KT 9999 FEW019 SCT023 BKN030 11/08 Q0991=
201009152220 METAR ESMX 152220Z 17013KT 9999 FEW024 BKN033 OVC050 11/08 Q0991=
201009152150 METAR ESMX 152150Z 18012KT 140V210 9999 FEW027 BKN037 OVC047 11/08 Q0992=
201009152120 METAR ESMX 152120Z 17012KT 130V190 9999 FEW025 SCT032 OVC041 11/08 Q0992=
201009152050 METAR ESMX 152050Z 17011KT 140V200 9999 OVC038 11/08 Q0993=
201009152020 METAR ESMX 152020Z 16011KT 130V200 9999 FEW041 BKN049 10/08 Q0993=
201009151950 METAR ESMX 151950Z 16010KT 130V200 9999 -RA BKN041 10/08 Q0994=
201009151920 METAR ESMX 151920Z 16009KT 130V200 9999 -RA FEW034 BKN042 10/07 Q0995=
201009151850 METAR ESMX 151850Z 17012KT 140V210 9999 -RA BKN041 10/07 Q0995=
201009151820 METAR ESMX 151820Z 17010KT 140V210 9999 DZ FEW035 BKN045 11/07 Q0996=
201009151750 METAR ESMX 151750Z 20019KT 9999 SCT045 BKN075 11/07 Q0996=
201009151720 METAR ESMX 151720Z 17010KT 130V190 9999 FEW036 BKN092 11/07 Q0996=
201009151650 METAR ESMX 151650Z 18010KT 140V210 9999 FEW037 12/07 Q0996=
201009151620 METAR ESMX 151620Z 19009KT CAVOK 12/07 Q0997=
201009151550 METAR ESMX 151550Z 21010KT 9999 FEW035 SCT045 13/07 Q0997=
201009151520 METAR ESMX 151520Z 22010KT 190V260 9999 SCT045 13/06 Q0997=
201009151450 METAR ESMX 151450Z 22009KT 190V270 9999 FEW037 SCT059 13/05 Q0997=
201009151420 METAR ESMX 151420Z 21014KT 9999 SCT036 SCT059 13/06 Q0997=
201009151350 METAR ESMX 151350Z 23011KT 190V260 9999 SCT040 14/06 Q0997=
201009151320 METAR ESMX 151320Z 25011KT 220V280 9999 FEW043 SCT058 15/05 Q0997=
201009151250 METAR ESMX 151250Z 25011KT 220V280 9999 FEW034 SCT041 14/04 Q0997=
201009151220 METAR ESMX 151220Z 23008KT 190V270 9999 FEW030 14/07 Q0997=
201009151150 METAR ESMX 151150Z 23009KT 190V260 9999 FEW025CB SCT036 13/09 Q0997=
201009151120 METAR ESMX 151120Z 24014KT 9000 -SHRA FEW025CB SCT032 12/09 Q0997=
201009151050 METAR ESMX 151050Z 23010KT 200V260 9999 FEW020CB SCT050 12/08 Q0997=
201009151020 METAR ESMX 151020Z 23011KT 190V260 9999 VCSH FEW025CB SCT037 12/08 Q0996=
201009150950 METAR ESMX 150950Z 22009KT 9999 VCSH FEW022CB SCT037 11/08 Q0996 RERA=
201009150920 METAR ESMX 150920Z 22009KT 190V260 9999 FEW016 SCT028 BKN038 12/08 Q0996=
201009150850 METAR ESMX 150850Z 22008KT 190V250 9999 FEW013 SCT018 BKN033 13/09 Q0996=
201009150820 METAR ESMX 150820Z 23007KT 200V280 9999 FEW010TCU BKN070 12/10 Q0996=
201009150750 METAR ESMX 150750Z 22005KT 200V260 9999 FEW020 BKN070 11/10 Q0996=
201009150720 METAR ESMX 150720Z 21006KT 9999 FEW015 SCT025 BKN070 11/10 Q0996=
201009150650 METAR ESMX 150650Z 21006KT 170V240 9999 FEW015 SCT025 BKN070 11/10 Q0996=
201009150620 METAR ESMX 150620Z 22006KT 9999 FEW015 BKN060 11/10 Q0995=
201009150550 METAR ESMX 150550Z 22006KT 9999 FEW012 SCT040 11/10 Q0995=
201009150520 METAR ESMX 150520Z 22005KT 9999 FEW012 SCT040 11/10 Q0995=
201009150450 METAR COR ESMX 150450Z 21005KT 9999 FEW012 SCT040 10/10 Q0995=
201009150420 METAR ESMX 150420Z 19004KT 9999 FEW014 BKN060 11/10 Q0995=
201009150350 METAR ESMX 150350Z 19004KT 110V210 9999 -RA FEW007 BKN045 11/10 Q0996=
201009150320 METAR ESMX 150320Z AUTO 17003KT 9000NDV -RA FEW047/// 12/11 Q0996=
201009150250 METAR ESMX 150250Z AUTO 23003KT 150V300 9999NDV -RA FEW047/// 12/11 Q0996=
201009150220 METAR ESMX 150220Z AUTO 25006KT 210V270 9999NDV FEW047/// 12/11 Q0997 RERA=
201009150150 METAR ESMX 150150Z AUTO 27009KT 240V320 4200NDV -RA FEW005/// SCT010/// 12/11 Q0997=
201009150120 METAR ESMX 150120Z AUTO 21007KT 9000NDV -RA FEW011/// 13/12 Q0997 RESHRA=
201009150050 METAR ESMX 150050Z AUTO 21009KT 8000NDV -RA FEW005/// SCT008/// BKN011/// 13/12 Q0997=
201009150020 METAR ESMX 150020Z AUTO 23010KT 200V260 5000NDV RA FEW007/// SCT012/// BKN029/// 15/13 Q0997=
201009142350 METAR ESMX 142350Z 20011KT 9999 BKN011 15/14 Q0998=
201009142320 METAR ESMX 142320Z 19011KT 9999 FEW008 BKN010 15/14 Q0998=
201009142250 METAR ESMX 142250Z 19011KT 9999 FEW006 OVC011 15/14 Q0999=
201009142220 METAR ESMX 142220Z 20010KT 160V220 9999 -RA FEW006 BKN009 15/14 Q0999=
201009142150 METAR ESMX 142150Z 19011KT 9000 -RA FEW006 BKN008 15/14 Q0999 RERA=
201009142120 METAR ESMX 142120Z 18010KT 5000 RA FEW005 BKN007 15/14 Q1000=
201009142050 METAR ESMX 142050Z 18010KT 9999 BKN005 OVC011 15/14 Q1000=
201009142020 METAR ESMX 142020Z 18010KT 9999 FEW005 BKN007 14/14 Q1001=
201009141950 METAR ESMX 141950Z 17009KT 140V200 9999 FEW006 BKN009 14/13 Q1001=
201009141920 METAR ESMX 141920Z 17010KT 140V200 9000 -RA FEW010 SCT025 BKN080 14/13 Q1002=
201009141850 METAR COR ESMX 141850Z 18007KT 9999 -RA FEW010 SCT024 BKN080 14/13 Q1002=
201009141820 METAR ESMX 141820Z 18007KT 9999 FEW017 SCT023 BKN029 14/13 Q1002=
201009141750 METAR ESMX 141750Z 21007KT 9999 FEW009 BKN025 14/13 Q1003=
201009141720 METAR ESMX 141720Z 19006KT 9999 FEW008 BKN015 14/13 Q1003=
201009141650 METAR ESMX 141650Z 20007KT 9999 FEW005 SCT008 BKN010 15/14 Q1003=
201009141620 METAR ESMX 141620Z 19009KT 9999 SCT005 BKN008 OVC013 15/14 Q1003=
201009141550 METAR ESMX 141550Z 19008KT 9999 SCT004 BKN007 14/14 Q1004=
201009141520 METAR ESMX 141520Z 20009KT 160V230 9999 OVC003 14/13 Q1004 RERA REDZ=
201009141450 METAR ESMX 141450Z 19010KT 150V210 4100 RA OVC004 14/13 Q1004=
201009141420 METAR ESMX 141420Z 18009KT 140V210 9999 BR OVC004 14/13 Q1004=
201009141350 METAR ESMX 141350Z 17009KT 3700 BR FEW004 BKN005 OVC007 13/12 Q1005=
201009141320 METAR ESMX 141320Z 18011KT 4400 DZ FEW005 OVC006 13/12 Q1005=
201009141250 METAR ESMX 141250Z 17010KT 140V200 4700 BR FEW005 BKN007 OVC009 13/12 Q1005=
201009141220 METAR ESMX 141220Z 18011KT 3800 -DZ FEW005 OVC007 13/12 Q1005=
201009141150 METAR ESMX 141150Z 17011KT 9999 BR BKN006 OVC010 13/12 Q1006=
201009141120 METAR ESMX 141120Z 17010KT 120V210 5000 -DZ FEW005 BKN007 OVC010 13/11 Q1006 REDZ=
201009141050 METAR ESMX 141050Z 19011KT 160V220 4700 -DZ SCT006 BKN007 12/11 Q1007=
201009141020 METAR ESMX 141020Z 17011KT 140V200 9999 OVC007 12/11 Q1007=
201009140950 METAR ESMX 140950Z 17012KT 9999 FEW008 OVC009 12/11 Q1007=
201009140920 METAR ESMX 140920Z 18012KT 160V230 9999 BKN009 OVC013 12/11 Q1008=
201009140850 METAR ESMX 140850Z 17013KT 140V200 9999 FEW008 BKN012 OVC020 12/11 Q1008=
201009140820 METAR ESMX 140820Z 17012KT 110V210 6000 -RA FEW009 BKN012 OVC017 12/11 Q1009 REDZ=
201009140750 METAR ESMX 140750Z 17011G22KT 6000 DZ OVC011 12/10 Q1009=
201009140720 METAR ESMX 140720Z 17011KT 140V200 9999 FEW013 SCT021 BKN029 12/10 Q1009=
201009140650 METAR ESMX 140650Z 18010KT 140V200 9999 FEW009 BKN035 12/10 Q1010=
201009140620 METAR ESMX 140620Z 17009KT 120V200 9999 DZ FEW007 BKN011 12/10 Q1010=
201009140550 METAR ESMX 140550Z 16009KT 130V210 9999 -RA FEW008 BKN010 BKN040 11/10 Q1011=
201009140520 METAR ESMX 140520Z 17008KT 140V210 9999 FEW017 SCT040 11/10 Q1011=
201009140450 METAR ESMX 140450Z 16006KT 130V200 9999 FEW019 BKN039 10/09 Q1012=
201009140420 METAR ESMX 140420Z 16006KT 130V210 9999 FEW047 BKN150 10/09 Q1012=
201009140350 METAR ESMX 140350Z 16005KT CAVOK 10/09 Q1012=
201009140320 METAR ESMX 140320Z AUTO 18005KT 9999NDV NCD 10/09 Q1013=
201009140250 METAR ESMX 140250Z AUTO 19006KT 9999NDV NCD 09/09 Q1013=
201009140220 METAR ESMX 140220Z AUTO 19007KT 9999NDV NCD 09/09 Q1014=
201009140150 METAR ESMX 140150Z AUTO 19006KT 9999NDV BR NCD 09/08 Q1014=
201009140120 METAR ESMX 140120Z AUTO 18006KT 8000NDV BR NCD 09/08 Q1015=
201009140050 METAR ESMX 140050Z AUTO 18005KT 6000NDV BR NCD 09/09 Q1015=
201009140020 METAR ESMX 140020Z AUTO 20005KT 6000NDV NCD 09/09 Q1016=
201009132350 METAR ESMX 132350Z 20005KT 9999 MIFG NSC 09/09 Q1016=
201009132320 METAR ESMX 132320Z 20005KT 9999 MIFG NSC 09/08 Q1016=
201009132250 METAR ESMX 132250Z 19004KT 9999 MIFG NSC 09/09 Q1017=
201009132220 METAR ESMX 132220Z 20004KT 9999 MIFG NSC 09/09 Q1017=
201009132150 METAR ESMX 132150Z 22004KT 9999 MIFG NSC 09/08 Q1017=
201009132050 METAR ESMX 132050Z 23004KT 9999 FEW017 10/09 Q1017=
201009132020 METAR ESMX 132020Z 23004KT 9999 FEW016 10/09 Q1017=
201009131950 METAR ESMX 131950Z 25005KT CAVOK 11/09 Q1017=
201009131920 METAR ESMX 131920Z 25005KT CAVOK 11/09 Q1017=
201009131850 METAR ESMX 131850Z 25004KT CAVOK 12/09 Q1017=
201009131820 METAR ESMX 131820Z 25005KT CAVOK 12/09 Q1017=
201009131750 METAR ESMX 131750Z 25004KT 230V290 CAVOK 13/10 Q1017=
201009131720 METAR ESMX 131720Z 25005KT CAVOK 14/10 Q1017=
201009131650 METAR ESMX 131650Z 24005KT 200V280 9999 FEW036 15/10 Q1017=
201009131620 METAR ESMX 131620Z 26008KT 230V290 9999 FEW033 15/10 Q1017=
201009131550 METAR ESMX 131550Z 25006KT 210V290 9999 FEW030 17/10 Q1017=
201009131520 METAR ESMX 131520Z 26007KT 230V300 CAVOK 17/10 Q1017=
201009131450 METAR ESMX 131450Z 26006KT 9999 FEW033 16/10 Q1017=
201009131420 METAR ESMX 131420Z 25009KT 220V290 9999 FEW033 17/10 Q1017=
201009131350 METAR ESMX 131350Z 29005KT 260V330 9999 FEW027 SCT048 16/11 Q1017=
201009131320 METAR ESMX 131320Z 28007KT 250V320 9999 FEW028 17/10 Q1017=
201009131250 METAR ESMX 131250Z 29009KT 9999 FEW020 17/11 Q1018=
201009131220 METAR ESMX 131220Z 27007KT 240V300 9999 FEW020 SCT040 16/11 Q1018=
201009131150 METAR ESMX 131150Z 31004KT 270V010 9999 BKN018 16/11 Q1018=
201009131120 METAR ESMX 131120Z 29005KT 260V320 9999 FEW015 BKN020 16/13 Q1018=
201009131050 METAR ESMX 131050Z 30005KT 250V340 9999 FEW010 BKN015 15/12 Q1018=
201009131020 METAR ESMX 131020Z 29003KT 230V350 9999 FEW006 SCT010 14/12 Q1018=
201009130950 METAR ESMX 130950Z 01004KT 330V050 9999 FEW008 BKN060 14/12 Q1017=
201009130920 METAR ESMX 130920Z 31004KT 270V010 9999 FEW003 SCT020 BKN060 13/12 Q1018=
201009130850 METAR ESMX 130850Z 29004KT 260V330 9999 DZ FEW004 SCT010 BKN015 13/12 Q1018=
201009130820 METAR ESMX 130820Z 31003KT 9999 RA FEW005 BKN013 13/12 Q1017=
201009130750 METAR ESMX 130750Z 34005KT 310V020 9999 RA FEW008 BKN015 13/12 Q1017=
201009130720 METAR ESMX 130720Z 32005KT 9999 -RA FEW008 SCT010 BKN030 13/12 Q1017=
201009130650 METAR ESMX 130650Z 35003KT 9999 -RA FEW006 SCT015 BKN030 13/12 Q1017=
201009130620 METAR ESMX 130620Z 33005KT 9999 -DZ FEW006 SCT015 BKN030 13/12 Q1017=
201009130550 METAR ESMX 130550Z 33006KT 9999 -RA FEW005 SCT011 BKN020 13/12 Q1017=
201009130520 METAR ESMX 130520Z 35007KT 6000 RA FEW006 SCT023 BKN035 13/12 Q1017 RESHRA=
201009130450 METAR ESMX 130450Z 33006KT 290V010 9999 RA FEW005 SCT015 BKN025 13/12 Q1017=
201009130420 METAR ESMX 130420Z 32007KT 4500 RA FEW005 SCT015 BKN018 13/12 Q1017=
201009130350 METAR ESMX 130350Z 30006KT 8000 BR FEW006 SCT007 BKN011 14/13 Q1016=
201009130320 METAR ESMX 130320Z AUTO 31005KT 270V330 9999NDV -DZ FEW001/// SCT010/// OVC023/// 15/14 Q1017=
201009130250 METAR ESMX 130250Z AUTO 00000KT 2400NDV -DZ FEW002/// SCT019/// BKN030/// 15/14 Q1017 RESHRA=
201009130220 METAR ESMX 130220Z AUTO 00000KT 4100NDV BR FEW019/// OVC027/// 15/14 Q1017=
201009130150 METAR ESMX 130150Z AUTO 25003KT 200V310 2700NDV BR FEW002/// SCT008/// BKN012/// 15/14 Q1017=
201009130120 METAR ESMX 130120Z AUTO 14004KT 110V180 2600NDV BR FEW001/// SCT003/// BKN015/// 15/14 Q1017=
201009130050 METAR ESMX 130050Z AUTO 12001KT 0800NDV R01/P2000N R19/P2000D -DZ BKN001/// BKN019/// 15/15 Q1017=
201009130020 METAR ESMX 130020Z AUTO 13001KT 2300NDV BR FEW001/// BKN007/// BKN038/// 15/15 Q1017 REDZ=
201009122350 METAR ESMX 122350Z 31002KT 3600 BR FEW001 BKN004 OVC007 15/15 Q1017 RERA=
201009122320 METAR ESMX 122320Z 16002KT 2700 -RA FEW007 SCT021 BKN026 15/15 Q1017=
201009122250 METAR ESMX 122250Z 15003KT 3300 -RA FEW018 SCT024 BKN039 15/15 Q1017=
201009122220 METAR ESMX 122220Z 17002KT 3900 BR BKN024 BKN041 16/15 Q1018=
201009122150 METAR ESMX 122150Z VRB02KT 4800 BR FEW011 SCT016 BKN021 16/15 Q1018=
201009122050 METAR ESMX 122050Z 16003KT 5000 BR OVC010 16/15 Q1018=
201009122020 METAR ESMX 122020Z 17002KT 1100 R01/P2000N R19/P2000N BR FEW011 SCT039 15/14 Q1018=
201009121950 METAR ESMX 121950Z 15003KT 5000 BR FEW013 BKN100 15/15 Q1017=
201009121920 METAR ESMX 121920Z 16002KT 5000 BR BKN014 BKN100 16/15 Q1017=
201009121850 METAR ESMX 121850Z 19001KT 4500 BR SCT015 BKN019 15/14 Q1018=
201009121820 METAR ESMX 121820Z 17002KT 5000 BR FEW031 16/15 Q1017=
201009121750 METAR ESMX 121750Z VRB02KT 8000 BR FEW015 16/15 Q1017=
201009121720 METAR ESMX 121720Z 29003KT 230V330 9999 FEW021 BKN053 17/15 Q1017=
201009121650 METAR ESMX 121650Z 26005KT 9999 -DZ FEW016 SCT025 BKN045 17/15 Q1017=
201009121620 METAR ESMX 121620Z 18004KT 9999 FEW028 BKN053 19/15 Q1017=
201009121550 METAR ESMX 121550Z 19005KT 9999 BKN027 BKN065 19/15 Q1017=
201009121520 METAR ESMX 121520Z 18005KT 9999 SCT028 OVC059 19/15 Q1017=
201009121450 METAR ESMX 121450Z 19008KT 150V220 9999 FEW025 SCT032 OVC065 20/15 Q1017=
201009121420 METAR ESMX 121420Z 18009KT 140V210 9999 FEW030 BKN067 20/15 Q1017=
201009121350 METAR ESMX 121350Z 19012KT 9999 FEW026 SCT034 BKN067 20/14 Q1017=
201009121320 METAR ESMX 121320Z 16009KT 120V200 9999 SCT026 20/14 Q1017=
201009121250 METAR ESMX 121250Z 18011KT 110V220 CAVOK 20/14 Q1017=
201009121220 METAR ESMX 121220Z 20012KT 9999 FEW027 SCT060 21/14 Q1017=
201009121150 METAR ESMX 121150Z 19012KT CAVOK 21/14 Q1017=
201009121120 METAR ESMX 121120Z 19011KT 150V210 CAVOK 21/14 Q1018=
201009121050 METAR ESMX 121050Z 20010KT CAVOK 20/14 Q1018=
201009121020 METAR ESMX 121020Z AUTO 17007KT 9999NDV BKN051/// 19/15 Q1018=
201009120950 METAR ESMX 120950Z AUTO 18007KT 9999NDV OVC051/// 19/14 Q1018=
201009120920 METAR ESMX 120920Z AUTO 16007KT 120V200 9999NDV OVC051/// 19/15 Q1018=
201009120850 METAR ESMX 120850Z AUTO 16006KT 130V200 9999NDV FEW008/// SCT047/// BKN054/// 17/14 Q1018=
201009120820 METAR ESMX 120820Z AUTO 16006KT 110V190 9999NDV HZ BKN007/// BKN050/// 16/14 Q1018=
201009120750 METAR ESMX 120750Z 17005KT 130V200 8000 BR BKN007 BKN054 16/14 Q1018=
201009120720 METAR ESMX 120720Z 17006KT 8000 BR BKN006 OVC008 15/14 Q1018=
201009120650 METAR ESMX 120650Z AUTO 17005KT 140V210 6000NDV BR FEW005/// SCT007/// OVC053/// 15/14 Q1018=
201009120620 METAR ESMX 120620Z AUTO 17006KT 130V210 5000NDV BR FEW006/// SCT041/// BKN056/// 15/14 Q1018=
201009120550 METAR ESMX 120550Z AUTO 17006KT 130V200 3700NDV BR FEW004/// BKN059/// 14/13 Q1018=
201009120520 METAR ESMX 120520Z AUTO 16006KT 2800NDV BR FEW003/// OVC061/// 14/13 Q1017=
201009120450 METAR ESMX 120450Z AUTO 17005KT 150V210 3300NDV BR FEW037/// SCT065/// 14/13 Q1018=
201009120420 METAR ESMX 120420Z AUTO 22004KT 170V260 3900NDV BR FEW066/// SCT077/// 13/12 Q1018=
201009120350 METAR ESMX 120350Z AUTO 17006KT 140V200 4700NDV BR FEW054/// SCT080/// 14/13 Q1017=
201009120320 METAR ESMX 120320Z AUTO 17007KT 4400NDV BR FEW053/// OVC066/// 15/13 Q1017=
201009120250 METAR ESMX 120250Z AUTO 17006KT 3800NDV BR FEW048/// OVC067/// 14/13 Q1018=
201009120220 METAR ESMX 120220Z AUTO 17006KT 3000NDV BR FEW005/// SCT059/// BKN069/// 14/13 Q1018=
201009120150 METAR ESMX 120150Z AUTO 17006KT 2900NDV BR FEW004/// OVC052/// 14/14 Q1018=
201009120120 METAR ESMX 120120Z AUTO 18006KT 3100NDV BR FEW004/// SCT006/// BKN052/// 15/14 Q1018=
201009120050 METAR ESMX 120050Z AUTO 18007KT 2700NDV BR OVC003/// 15/14 Q1018=
201009120020 METAR ESMX 120020Z AUTO 17006KT 140V200 2700NDV BR BKN004/// OVC006/// 15/14 Q1018=
201009112350 METAR ESMX 112350Z AUTO 18006KT 140V210 2700NDV BR OVC004/// 15/14 Q1018=
201009112320 METAR ESMX 112320Z AUTO 18005KT 2500NDV BR OVC003/// 15/14 Q1018=
201009112250 METAR ESMX 112250Z AUTO 19006KT 2600NDV BR OVC004/// 15/14 Q1018=
201009112220 METAR ESMX 112220Z AUTO 18005KT 2700NDV BR OVC003/// 14/14 Q1018=
201009112150 METAR ESMX 112150Z AUTO 18006KT 150V210 2900NDV BR OVC003/// 14/14 Q1018=
201009112120 METAR ESMX 112120Z AUTO 20006KT 2600NDV BR BKN003/// OVC006/// 14/14 Q1018=
201009112050 METAR ESMX 112050Z AUTO 20007KT 2900NDV BR BKN003/// OVC006/// 14/14 Q1018=
201009112020 METAR ESMX 112020Z AUTO 19007KT 2100NDV BR OVC002/// 14/14 Q1018=
201009111950 METAR ESMX 111950Z AUTO 20009KT 3700NDV BR OVC002/// 14/14 Q1018=
201009111920 METAR ESMX 111920Z AUTO 19008KT 2700NDV BR OVC002/// 15/14 Q1018=
201009111850 METAR ESMX 111850Z 18007KT 2900 BR OVC003 15/14 Q1018=
201009111820 METAR ESMX 111820Z 16005KT 120V190 2600 BR FEW003 OVC005 15/14 Q1018 REDZ=
201009111750 METAR ESMX 111750Z 16006KT 2200 -DZ FEW003 SCT006 OVC008 15/14 Q1018=
201009111720 METAR ESMX 111720Z 16005KT 120V190 2000 BR SCT006 BKN008 15/14 Q1018=
201009111650 METAR ESMX 111650Z 18006KT 3500 BR FEW008 OVC011 15/14 Q1018=
201009111620 METAR ESMX 111620Z 16005KT 120V190 3500 BR OVC010 15/14 Q1018=
201009111550 METAR ESMX 111550Z 16005KT 120V190 4500 BR FEW007 BKN011 OVC015 15/14 Q1018=
201009111520 METAR ESMX 111520Z AUTO 17006KT 3200NDV BR SCT010/// BKN015/// OVC018/// 15/14 Q1018=
201009111450 METAR ESMX 111450Z AUTO 16005KT 120V190 6000NDV BR FEW012/// OVC015/// 15/13 Q1018=
201009111420 METAR ESMX 111420Z AUTO 17005KT 130V200 5000NDV BR FEW015/// SCT017/// BKN022/// 16/13 Q1018=
201009111350 METAR ESMX 111350Z AUTO 16004KT 120V210 9999NDV FEW014/// SCT016/// BKN019/// 16/13 Q1018=
201009111320 METAR ESMX 111320Z AUTO 15005KT 110V190 9999NDV OVC013/// 15/12 Q1018=
201009111250 METAR ESMX 111250Z AUTO 18005KT 150V210 9999NDV SCT013/// BKN018/// OVC024/// 15/12 Q1018=
201009111220 METAR ESMX 111220Z AUTO 18006KT 140V200 9999NDV FEW015/// OVC018/// 15/12 Q1018=
201009111150 METAR ESMX 111150Z 19008KT 160V220 9999 FEW013 SCT017 BKN020 15/12 Q1019=
201009111120 METAR ESMX 111120Z 21007KT 9999 BKN013 15/12 Q1018=
201009111050 METAR ESMX 111050Z 21007KT 160V240 9999 FEW015 OVC019 15/12 Q1018=
201009111020 METAR ESMX 111020Z 21008KT 170V250 9999 FEW013 SCT017 OVC019 16/12 Q1018=
201009110950 METAR ESMX 110950Z 21009KT 170V250 9999 SCT010 BKN016 OVC023 16/12 Q1018=
201009110920 METAR ESMX 110920Z 20009KT 160V230 9999 FEW008 SCT010 BKN014 15/13 Q1018=
201009110850 METAR ESMX 110850Z 20006KT 170V240 9999 FEW006 SCT008 BKN015 14/13 Q1018=
201009110820 METAR ESMX 110820Z 21005KT 5000 BR FEW004 SCT007 BKN013 14/13 Q1018 REDZ=
201009110750 METAR ESMX 110750Z 20006KT 170V240 2400 DZ FEW004 SCT006 BKN007 13/13 Q1018=
201009110720 METAR ESMX 110720Z 21006KT 9000 FEW005 SCT007 BKN009 14/13 Q1018=
201009110650 METAR ESMX 110650Z 21006KT 9999 FEW004 BKN006 13/13 Q1018=
201009110620 METAR ESMX 110620Z 22006KT 180V250 6000 BR FEW002 BKN004 13/13 Q1017=
201009110550 METAR ESMX 110550Z AUTO 23004KT 3100NDV BR FEW003/// SCT005/// BKN006/// 13/12 Q1017 REDZ=
201009110520 METAR ESMX 110520Z AUTO 20004KT 2900NDV DZ FEW004/// SCT006/// BKN007/// 13/12 Q1017=
201009110450 METAR ESMX 110450Z AUTO 21004KT 180V240 9999NDV FEW003/// SCT005/// BKN007/// 13/12 Q1017=
201009110420 METAR ESMX 110420Z AUTO 22005KT 9999NDV SCT003/// BKN006/// OVC010/// 13/12 Q1017=
201009110350 METAR ESMX 110350Z AUTO 21006KT 9000NDV BR OVC003/// 13/12 Q1017=
201009110320 METAR ESMX 110320Z AUTO 20005KT 7000NDV BR FEW003/// OVC004/// 13/12 Q1016=
201009110250 METAR ESMX 110250Z AUTO 19004KT 9000NDV FEW002/// OVC004/// 13/12 Q1016=
201009110220 METAR ESMX 110220Z AUTO 17004KT 140V210 3900NDV BR OVC002/// 13/12 Q1016 REDZ=
201009110150 METAR ESMX 110150Z AUTO 17004KT 150V210 2500NDV -RA BKN003/// OVC006/// 13/12 Q1017=
201009110050 METAR ESMX 110050Z AUTO 17004KT 9000NDV BR OVC004/// 13/12 Q1016=
201009110020 METAR ESMX 110020Z AUTO 16004KT 120V190 8000NDV BR FEW003/// BKN005/// OVC007/// 13/12 Q1016=
201009102350 METAR ESMX 102350Z AUTO 15004KT 110V190 4100NDV BR FEW005/// BKN006/// OVC008/// 13/12 Q1016=
201009102320 METAR ESMX 102320Z AUTO 15003KT 120V190 8000NDV BR FEW013/// SCT019/// OVC023/// 13/12 Q1016=
201009102250 METAR ESMX 102250Z AUTO 17003KT 7000NDV BR FEW006/// OVC017/// 13/12 Q1016=
201009102220 METAR ESMX 102220Z AUTO 17004KT 6000NDV BR FEW005/// SCT007/// BKN009/// 13/12 Q1016=
201009102150 METAR ESMX 102150Z AUTO 16004KT 120V190 6000NDV BR FEW005/// SCT007/// BKN010/// 14/13 Q1016=
201009102120 METAR ESMX 102120Z AUTO 16003KT 6000NDV BR FEW005/// SCT009/// BKN043/// 14/13 Q1016=
201009102050 METAR ESMX 102050Z AUTO 15003KT 6000NDV BR FEW005/// SCT009/// BKN038/// 13/13 Q1016=
201009102020 METAR ESMX 102020Z AUTO 15003KT 120V180 8000NDV HZ FEW006/// SCT008/// BKN011/// 14/13 Q1016=
201009101950 METAR ESMX 101950Z AUTO 16004KT 120V190 9999NDV SCT005/// BKN008/// OVC013/// 14/12 Q1016=
201009101920 METAR ESMX 101920Z AUTO 15003KT 100V190 9999NDV FEW007/// SCT010/// BKN017/// 14/12 Q1016=
201009101850 METAR ESMX 101850Z 15004KT 110V190 9999 FEW015 OVC021 14/12 Q1016=
201009101820 METAR ESMX 101820Z 16004KT 130V190 9999 SCT009 BKN024 13/12 Q1016=
201009101750 METAR ESMX 101750Z 16003KT 120V210 9999 FEW010 SCT014 14/12 Q1016=
201009101720 METAR ESMX 101720Z 16003KT 9999 FEW009 BKN013 14/12 Q1016=
201009101650 METAR ESMX 101650Z 16002KT 9999 FEW011 SCT014 BKN019 14/12 Q1016=
201009101620 METAR ESMX 101620Z 16005KT 120V210 9999 FEW010 SCT023 BKN034 14/12 Q1016=
201009101550 METAR ESMX 101550Z 16005KT 110V190 9999 FEW010 BKN025 14/12 Q1016=
201009101520 METAR ESMX 101520Z 16004KT 9999 FEW010 BKN020 14/12 Q1016=
201009101450 METAR ESMX 101450Z 19005KT 9999 FEW010 SCT014 OVC017 14/13 Q1016=
201009101420 METAR ESMX 101420Z 16004KT 120V220 9999 FEW011 BKN017 OVC022 15/13 Q1016=
201009101320 METAR ESMX 101320Z 15004KT 110V180 9999 FEW007 BKN013 14/13 Q1016=
201009101250 METAR ESMX 101250Z 15004KT 090V200 9999 BKN004 BKN015 14/13 Q1016=
201009101150 METAR ESMX 101150Z 09003KT 040V140 2300 BR FEW004 BKN007 OVC009 14/13 Q1016=
201009101120 METAR ESMX 101120Z 10004KT 040V160 4400 BR FEW004 BKN006 OVC008 14/13 Q1016=
201009101050 METAR ESMX 101050Z 09004KT 030V120 3300 BR FEW005 BKN006 OVC009 13/13 Q1016=
201009101020 METAR ESMX 101020Z 09003KT 030V160 3800 -RA FEW005 OVC006 13/13 Q1016=
201009100950 METAR ESMX 100950Z VRB04KT 4000 BR FEW004 OVC005 13/12 Q1016=
201009100920 METAR ESMX 100920Z 08005KT 010V130 2900 BR FEW004 BKN006 13/12 Q1016=
201009100550 METAR ESMX 100550Z 07006KT 020V110 9999 FEW009 BKN013 OVC027 12/11 Q1016=
201009100520 METAR ESMX 100520Z 07006KT 030V110 9999 FEW009 BKN026 12/11 Q1016=
201009100450 METAR ESMX 100450Z 06006KT 360V100 8000 -RA FEW005 SCT009 BKN020 12/12 Q1016=
201009100420 METAR ESMX 100420Z 06006KT 020V090 9999 -RA FEW007 SCT010 BKN030 12/11 Q1017 REDZ=
201009100350 METAR ESMX 100350Z 05006KT 020V100 6000 -RA FEW005 BKN008 12/11 Q1017=
201009100320 METAR ESMX 100320Z AUTO 07005KT 030V110 9000NDV BR FEW006/// SCT011/// BKN049/// 12/11 Q1017=
201009100250 METAR ESMX 100250Z AUTO 04006KT 360V110 8000NDV -RA BKN011/// BKN057/// 12/11 Q1017=
201009100220 METAR ESMX 100220Z AUTO 06006KT 020V120 9999NDV -RA BKN012/// OVC021/// 12/11 Q1017=
201009100150 METAR ESMX 100150Z AUTO 07006KT 010V100 9999NDV FEW066/// BKN084/// 12/11 Q1017=
201009100120 METAR ESMX 100120Z AUTO 06006KT 020V110 9999NDV BKN082/// 12/10 Q1018=
201009100050 METAR ESMX 100050Z AUTO 07006KT 020V110 9999NDV FEW046/// SCT087/// 12/10 Q1018=
201009100020 METAR ESMX 100020Z AUTO 07007KT 020V110 9999NDV BKN045/// 12/10 Q1018=
201009092350 METAR ESMX 092350Z AUTO 07006KT 020V110 9999NDV FEW033/// SCT040/// BKN046/// 12/10 Q1019=
201009092320 METAR ESMX 092320Z 07006KT 030V120 9999 FEW030 SCT040 12/10 Q1019=
201009092120 METAR ESMX 092120Z 07007KT 040V110 9999 SCT040 12/09 Q1019=
201009092050 METAR ESMX 092050Z 08006KT 010V140 9999 FEW020 SCT045 12/09 Q1020=
201009092020 METAR ESMX 092020Z 07006KT 020V110 9999 FEW020 SCT040 12/09 Q1020=
201009091950 METAR ESMX 091950Z 07006KT 030V120 9999 FEW020 SCT040 12/09 Q1020=
201009091920 METAR ESMX 091920Z 07006KT 020V130 9999 FEW020 BKN040 13/09 Q1020=
201009091850 METAR ESMX 091850Z 09007KT 020V150 9999 SCT021 BKN040 13/09 Q1021=
201009091820 METAR ESMX 091820Z 09006KT 050V140 9999 BKN025 OVC040 13/09 Q1021=
201009091750 METAR ESMX 091750Z 10007KT 050V150 9999 FEW030 SCT040 13/08 Q1021=
201009091720 METAR ESMX 091720Z 09006KT 010V160 9999 SCT030 14/08 Q1021=
201009091650 METAR ESMX 091650Z 11008KT 050V170 9999 FEW035 14/08 Q1020=
201009091620 METAR ESMX 091620Z 09009KT 040V140 CAVOK 15/07 Q1020=
201009091550 METAR ESMX 091550Z 08009G20KT 040V140 CAVOK 15/07 Q1020=
201009091520 METAR ESMX 091520Z 10007KT 360V160 9999 FEW040 17/07 Q1020=
201009091450 METAR ESMX 091450Z 10010KT 050V140 9999 FEW045 16/07 Q1020=
201009091420 METAR ESMX 091420Z 07008KT 360V150 CAVOK 18/07 Q1020=
201009091350 METAR ESMX 091350Z 09008KT 020V140 CAVOK 17/06 Q1020=
201009091320 METAR ESMX 091320Z 11009G20KT 060V160 CAVOK 18/05 Q1020=
201009091250 METAR ESMX 091250Z 12009G20KT 080V170 CAVOK 18/07 Q1021=
201009091220 METAR ESMX 091220Z 09009KT 030V140 9999 SCT045 17/06 Q1021=
201009091150 METAR ESMX 091150Z 12010KT 060V180 9999 FEW046 SCT053 18/07 Q1021=
201009091120 METAR ESMX 091120Z 12009KT 060V170 9999 FEW040 BKN045 18/07 Q1021=
201009091050 METAR ESMX 091050Z 12009KT 040V170 9999 FEW040 SCT050 17/07 Q1021=
201009091020 METAR ESMX 091020Z 10009G19KT 020V190 9999 FEW040 SCT050 17/07 Q1022=
201009090950 METAR ESMX 090950Z 10010G20KT 050V170 9999 FEW036 SCT043 17/08 Q1022=
201009090920 METAR ESMX 090920Z 10008KT 050V160 9999 FEW034 SCT041 16/08 Q1022=
201009090850 METAR ESMX 090850Z 12008KT 050V170 9999 FEW028 SCT043 16/09 Q1022=
201009090820 METAR ESMX 090820Z 10009KT 050V140 9999 FEW031 16/09 Q1022=
201009090750 METAR ESMX 090750Z 10010KT 050V160 9999 FEW017 15/09 Q1022=
201009090720 METAR ESMX 090720Z 09009KT 050V150 9999 FEW017 14/10 Q1021=
201009090650 METAR ESMX 090650Z 10008KT 040V160 9999 SCT013 14/11 Q1021=
201009090620 METAR ESMX 090620Z 09006KT 020V150 9999 SCT010 13/11 Q1021=
201009090550 METAR ESMX 090550Z 09006KT 020V140 9999 FEW011 12/11 Q1021=
201009090520 METAR ESMX 090520Z 09006KT 040V130 CAVOK 12/10 Q1021=
201009090450 METAR ESMX 090450Z 09006KT 050V160 CAVOK 12/10 Q1021=
201009090420 METAR ESMX 090420Z 09006KT 030V140 CAVOK 12/10 Q1021=
201009090350 METAR ESMX 090350Z 09007KT 040V140 CAVOK 12/10 Q1021=
201009090320 METAR ESMX 090320Z 08006KT 030V130 CAVOK 12/10 Q1021=
201009090250 METAR ESMX 090250Z AUTO 08005KT 020V140 9999NDV NCD 12/10 Q1021=
201009090220 METAR ESMX 090220Z AUTO 09005KT 050V140 9999NDV NCD 11/10 Q1021=
201009090150 METAR ESMX 090150Z AUTO 09005KT 020V140 9999NDV NCD 11/10 Q1021=
201009090120 METAR ESMX 090120Z AUTO 08006KT 030V130 9999NDV NCD 11/10 Q1021=
201009090050 METAR ESMX 090050Z AUTO VRB06KT 9999NDV NCD 12/10 Q1021=
201009090020 METAR ESMX 090020Z AUTO 09006KT 030V140 9999NDV NCD 12/10 Q1021=
201009082350 METAR ESMX 082350Z 09006KT 040V140 CAVOK 12/10 Q1021=
201009082320 METAR ESMX 082320Z 09005KT CAVOK 12/10 Q1021=
201009082250 METAR ESMX 082250Z 09006KT 050V140 CAVOK 12/10 Q1021=
201009082220 METAR ESMX 082220Z 08005KT 040V170 CAVOK 11/10 Q1021=
201009082150 METAR ESMX 082150Z 07006KT 030V110 CAVOK 11/09 Q1021=
201009082120 METAR ESMX 082120Z 08005KT CAVOK 11/09 Q1021=
201009082050 METAR ESMX 082050Z 07005KT CAVOK 11/09 Q1021=
201009082020 METAR ESMX 082020Z 08005KT CAVOK 11/09 Q1021=
201009081950 METAR ESMX 081950Z 07006KT CAVOK 11/08 Q1021=
201009081920 METAR ESMX 081920Z 08005KT CAVOK 12/08 Q1021=
201009081850 METAR ESMX 081850Z 08006KT 030V140 CAVOK 12/08 Q1021=
201009081820 METAR ESMX 081820Z 09005KT 030V150 9999 FEW030 13/07 Q1021=
201009081750 METAR ESMX 081750Z 09006KT 050V160 CAVOK 13/06 Q1021=
201009081720 METAR ESMX 081720Z 09006KT 050V150 CAVOK 14/06 Q1021=
201009081650 METAR ESMX 081650Z 10009G19KT 040V150 CAVOK 15/05 Q1021=
201009081620 METAR ESMX 081620Z 10008KT 060V180 9999 FEW039 16/07 Q1021=
201009081550 METAR ESMX 081550Z 10008KT 030V140 9999 FEW042 BKN050 15/07 Q1021=
201009081520 METAR ESMX 081520Z 09008KT 020V140 9999 FEW042 BKN050 16/08 Q1021=
201009081450 METAR ESMX 081450Z 10007KT 040V150 9999 FEW041 BKN053 16/08 Q1021=
201009081420 METAR ESMX 081420Z 09008KT 020V150 9999 FEW039 BKN049 16/08 Q1021=
201009081350 METAR ESMX 081350Z 09009KT 040V150 9999 SCT043 BKN053 16/08 Q1021=
201009081320 METAR ESMX 081320Z 09008KT 050V160 9999 BKN046 16/07 Q1021=
201009081250 METAR ESMX 081250Z 10010G20KT 010V150 9999 BKN044 18/07 Q1021=
201009081220 METAR ESMX 081220Z 14008KT 090V200 9999 SCT045 18/07 Q1021=
201009081150 METAR ESMX 081150Z 09009KT 010V140 9999 SCT042 17/06 Q1021=
201009081120 METAR ESMX 081120Z 11008KT 050V160 9999 SCT042 18/08 Q1021=
201009081050 METAR ESMX 081050Z 09009KT 050V150 9999 FEW038 BKN043 17/08 Q1021=
201009081020 METAR ESMX 081020Z 09007KT 030V160 9999 FEW038 SCT050 16/08 Q1021=
201009080950 METAR ESMX 080950Z 10009G20KT 010V170 9999 FEW035 SCT050 16/08 Q1021=
201009080920 METAR ESMX 080920Z 10009G19KT 020V150 9999 FEW025 SCT040 16/09 Q1021=
201009080850 METAR ESMX 080850Z 10008KT 050V170 9999 FEW021 SCT033 16/10 Q1021=
201009080820 METAR ESMX 080820Z 08007KT 030V140 9999 FEW017 SCT045 15/11 Q1022=
201009080750 METAR ESMX 080750Z 08007KT 040V120 9999 BKN042 15/11 Q1022=
201009080720 METAR ESMX 080720Z 07005KT 040V110 9999 SCT040 14/11 Q1022=
201009080650 METAR ESMX 080650Z 08005KT 030V140 9999 FEW007 BKN011 13/11 Q1022=
201009080620 METAR ESMX 080620Z 08006KT 040V140 9999 BKN006 12/11 Q1022=
201009080550 METAR ESMX 080550Z 06005KT 020V110 9999 BKN005 12/11 Q1022=
201009080520 METAR ESMX 080520Z 07005KT 030V130 9999 BKN004 12/11 Q1022=
201009080450 METAR ESMX 080450Z 04005KT 010V080 9999 OVC004 12/11 Q1022=
201009080420 METAR ESMX 080420Z 07003KT 030V120 9999 SCT004 BKN006 12/11 Q1022=
201009080350 METAR ESMX 080350Z 07004KT 020V110 9999 BKN004 11/11 Q1022=
201009080320 METAR ESMX 080320Z AUTO 06004KT 020V100 9999NDV SCT004/// 11/11 Q1022=
201009080250 METAR ESMX 080250Z AUTO 06004KT 010V110 9999NDV NCD 11/10 Q1021=
201009080220 METAR ESMX 080220Z AUTO 04004KT 350V080 9999NDV FEW005/// 11/10 Q1021=
201009080150 METAR ESMX 080150Z AUTO 05005KT 020V090 9999NDV NCD 11/10 Q1021=
201009080120 METAR ESMX 080120Z AUTO 02004KT 9999NDV NCD 11/10 Q1022=
201009080050 METAR ESMX 080050Z AUTO VRB02KT 9999NDV FEW008/// 12/10 Q1022=
201009080020 METAR ESMX 080020Z AUTO 07004KT 010V150 9999NDV SCT009/// 12/11 Q1022=
201009072350 METAR ESMX 072350Z AUTO 09004KT 360V140 9999NDV FEW009/// BKN011/// 12/11 Q1022=
201009072320 METAR ESMX 072320Z 08005KT 030V140 9999 SCT011 BKN016 13/11 Q1022=
201009072250 METAR ESMX 072250Z 09004KT 040V140 9999 BKN012 13/11 Q1022=
201009072220 METAR ESMX 072220Z 10003KT 030V150 9999 BKN013 12/10 Q1022=
201009072150 METAR ESMX 072150Z 10005KT 060V140 9999 FEW014 BKN016 12/10 Q1022=
201009072120 METAR ESMX 072120Z 10007KT 040V160 9999 FEW014 12/10 Q1022=
201009072050 METAR ESMX 072050Z 08005KT 040V140 CAVOK 11/10 Q1022=
201009072020 METAR ESMX 072020Z 09006KT 040V160 CAVOK 12/09 Q1022=
201009071950 METAR ESMX 071950Z 09006KT 040V140 CAVOK 12/10 Q1022=
201009071920 METAR ESMX 071920Z 07005KT 020V140 9999 FEW015 12/10 Q1022=
201009071850 METAR ESMX 071850Z VRB04KT 9999 FEW015 12/10 Q1022=
201009071820 METAR ESMX 071820Z 08006KT 040V120 9999 FEW017 13/10 Q1022=
201009071750 METAR ESMX 071750Z 08006KT 040V110 9999 FEW022 13/10 Q1022=
201009071720 METAR ESMX 071720Z 08007KT 030V120 9999 FEW022 14/10 Q1022=
201009071650 METAR ESMX 071650Z 08008KT 030V120 9999 FEW021 15/10 Q1021=
201009071620 METAR ESMX 071620Z 09007KT 030V130 9999 FEW031 15/11 Q1021=
201009071550 METAR ESMX 071550Z 06008KT 020V110 9999 FEW024 SCT031 16/10 Q1021=
201009071520 METAR ESMX 071520Z 08008KT 030V140 9999 FEW025 SCT040 15/10 Q1021=
201009071450 METAR ESMX 071450Z 09010G20KT 050V130 9999 FEW026 SCT029 BKN059 16/10 Q1021=
201009071420 METAR ESMX 071420Z 07008KT 030V130 9999 SCT029 BKN057 17/10 Q1021=
201009071350 METAR ESMX 071350Z 09007KT 020V140 9999 SCT029 BKN042 16/10 Q1022=
201009071320 METAR ESMX 071320Z 07006KT 010V120 9999 FEW032 BKN036 BKN054 16/10 Q1022=
201009071250 METAR ESMX 071250Z 09007KT 040V150 9999 FEW032 BKN037 BKN051 16/10 Q1022=
201009071220 METAR ESMX 071220Z 08006KT 020V120 9999 SCT037 BKN045 16/10 Q1022=
201009071150 METAR ESMX 071150Z 08009KT 040V140 9999 FEW032 BKN035 17/09 Q1022=
201009071120 METAR ESMX 071120Z VRB07KT 9999 FEW035 SCT045 17/10 Q1022=
201009071050 METAR ESMX 071050Z 08008KT 040V120 9999 SCT035 17/09 Q1022=
201009071020 METAR ESMX 071020Z 09008KT 030V140 9999 SCT030 16/09 Q1022=
201009070950 METAR ESMX 070950Z 10007KT 050V170 9999 BKN028 16/10 Q1022=
201009070920 METAR ESMX 070920Z 09008KT 020V140 9999 FEW028 SCT034 15/09 Q1022=
201009070850 METAR ESMX 070850Z 09007KT 030V130 9999 FEW020 16/09 Q1022=
201009070820 METAR ESMX 070820Z 08007KT 040V130 9999 FEW020 15/09 Q1023=
201009070750 METAR ESMX 070750Z 06007KT 010V110 9999 FEW015 14/09 Q1023=
201009070720 METAR ESMX 070720Z 06008KT 020V110 9999 FEW010 13/10 Q1023=
201009070650 METAR ESMX 070650Z 07007KT 040V110 9999 FEW008 12/10 Q1023=
201009070620 METAR ESMX 070620Z 07007KT 020V120 9999 SCT008 11/10 Q1023=
201009070550 METAR ESMX 070550Z 05006KT 350V110 9999 BKN005 OVC008 11/10 Q1023=
201009070520 METAR ESMX 070520Z 06007KT 9999 FEW003 BKN005 10/10 Q1023=
201009070450 METAR ESMX 070450Z 06006KT 020V100 5000 BR OVC002 10/09 Q1023=
201009070420 METAR ESMX 070420Z 06007KT 030V110 5000 2000S BR OVC002 10/09 Q1023=
201009070350 METAR ESMX 070350Z 06006KT 010V110 3500 BR SCT002 BKN004 10/09 Q1023=
201009070320 METAR ESMX 070320Z AUTO 06005KT 010V100 9999NDV FEW005/// 09/09 Q1023=
201009070250 METAR ESMX 070250Z AUTO 04004KT 350V100 9999NDV NCD 09/08 Q1024=
201009070220 METAR ESMX 070220Z AUTO 06004KT 020V080 9999NDV NCD 09/08 Q1024=
201009070150 METAR ESMX 070150Z AUTO 07005KT 030V100 9999NDV NCD 09/08 Q1024=
201009070120 METAR ESMX 070120Z AUTO 07003KT 030V110 9999NDV NCD 09/08 Q1024=
201009070050 METAR ESMX 070050Z AUTO 04004KT 350V100 9999NDV NCD 09/08 Q1024=
201009070020 METAR ESMX 070020Z AUTO 06003KT 030V110 9999NDV NCD 09/08 Q1024=
201009062350 METAR ESMX 062350Z AUTO 06005KT 020V100 9999NDV NCD 09/08 Q1024=
201009062320 METAR ESMX 062320Z 07004KT 030V110 CAVOK 09/08 Q1025=
201009062250 METAR ESMX 062250Z 05004KT 010V100 CAVOK 10/08 Q1025=
201009062220 METAR ESMX 062220Z 08003KT 040V110 CAVOK 09/08 Q1025=
201009062150 METAR ESMX 062150Z 07004KT 030V110 CAVOK 10/08 Q1025=
201009062120 METAR ESMX 062120Z 07005KT 020V100 CAVOK 10/07 Q1025=
201009062050 METAR ESMX 062050Z 07004KT 040V120 CAVOK 10/07 Q1025=
201009062020 METAR ESMX 062020Z 06004KT 020V150 CAVOK 10/07 Q1025=
201009061950 METAR ESMX 061950Z 07003KT 030V110 CAVOK 10/07 Q1025=
201009061920 METAR ESMX 061920Z 08004KT 040V120 CAVOK 11/07 Q1025=
201009061850 METAR ESMX 061850Z 07003KT 040V110 CAVOK 12/07 Q1025=
201009061820 METAR ESMX 061820Z 07004KT 040V110 9999 SCT045 12/08 Q1025=
201009061750 METAR ESMX 061750Z 07003KT 040V120 9999 SCT040 13/08 Q1025=
201009061720 METAR ESMX 061720Z 07003KT 030V100 CAVOK 13/08 Q1025=
201009061650 METAR ESMX 061650Z 07004KT 030V110 CAVOK 14/08 Q1025=
201009061620 METAR ESMX 061620Z 05005KT 010V100 CAVOK 14/07 Q1025=
201009061550 METAR ESMX 061550Z 06004KT 020V110 9999 SCT045 OVC058 14/07 Q1025=
201009061520 METAR ESMX 061520Z 05005KT 020V090 9999 BKN046 BKN055 14/07 Q1025=
201009061450 METAR ESMX 061450Z 08006KT 030V130 9999 SCT049 BKN060 15/07 Q1025=
201009061420 METAR ESMX 061420Z 06008KT 020V090 9999 FEW041 BKN060 15/08 Q1025=
201009061350 METAR ESMX 061350Z 07006KT 020V140 9999 SCT041 BKN055 16/07 Q1025=
201009061320 METAR ESMX 061320Z 05005KT 010V110 9999 SCT049 17/07 Q1025=
201009061250 METAR ESMX 061250Z VRB05KT 9999 FEW037 SCT064 17/06 Q1026=
201009061220 METAR ESMX 061220Z 07004KT 020V140 9999 FEW033 SCT078 16/08 Q1026=
201009061150 METAR ESMX 061150Z 10005KT 060V150 9999 FEW030 SCT037 16/08 Q1026=
201009061120 METAR ESMX 061120Z 09004KT 030V140 9999 FEW033 SCT066 15/08 Q1026=
201009061050 METAR ESMX 061050Z 09005KT 050V150 9999 FEW030 BKN070 15/07 Q1026=
201009061020 METAR ESMX 061020Z 05006KT 010V100 9999 FEW030 BKN075 15/07 Q1026=
201009060950 METAR ESMX 060950Z 06006KT 020V100 9999 FEW028 BKN073 15/07 Q1026=
201009060920 METAR ESMX 060920Z 04005KT 360V080 CAVOK 14/08 Q1027=
201009060850 METAR ESMX 060850Z 04006KT CAVOK 14/07 Q1027=
201009060820 METAR ESMX 060820Z 06005KT 360V130 CAVOK 13/08 Q1027=
201009060750 METAR ESMX 060750Z 06004KT 020V110 CAVOK 13/08 Q1027=
201009060720 METAR ESMX 060720Z 06004KT 9999 FEW035 BKN085 12/08 Q1027=
201009060650 METAR ESMX 060650Z 06003KT 020V100 9999 SCT035 BKN090 11/08 Q1027=
201009060620 METAR ESMX 060620Z 06003KT 030V100 9999 FEW041 BKN089 11/09 Q1027=
201009060550 METAR ESMX 060550Z 04004KT 360V060 CAVOK 10/09 Q1026=
201009060520 METAR ESMX 060520Z 04003KT CAVOK 10/09 Q1026=
201009060450 METAR ESMX 060450Z 03001KT 9999 FEW045 BKN090 08/07 Q1026=
201009060420 METAR ESMX 060420Z 01001KT 9999 FEW047 BKN100 08/07 Q1026=
201009060350 METAR ESMX 060350Z 00000KT 9999 FEW046 BKN100 07/07 Q1026=
201009060320 METAR ESMX 060320Z AUTO 00000KT 9999NDV BKN049/// OVC100/// 07/06 Q1026=
201009060250 METAR ESMX 060250Z AUTO 02001KT 9999NDV OVC100/// 08/07 Q1026=
201009060220 METAR ESMX 060220Z AUTO VRB01KT 9999NDV BKN100/// 07/06 Q1026=
201009060150 METAR ESMX 060150Z AUTO 00000KT 9999NDV BKN100/// 07/06 Q1026=
201009060120 METAR ESMX 060120Z AUTO 00000KT 9999NDV SCT100/// 07/06 Q1026=
201009060050 METAR ESMX 060050Z AUTO 00000KT 9999NDV FEW059/// 07/06 Q1026=
201009060020 METAR ESMX 060020Z AUTO 00000KT 9999NDV BKN056/// 07/06 Q1026=
201009052350 METAR ESMX 052350Z 00000KT CAVOK 07/06 Q1026=
201009052320 METAR ESMX 052320Z 17001KT CAVOK 08/07 Q1026=
201009052250 METAR ESMX 052250Z 20001KT CAVOK 08/07 Q1026=
201009052220 METAR ESMX 052220Z 00000KT CAVOK 07/06 Q1026=
201009052150 METAR ESMX 052150Z 03001KT CAVOK 07/06 Q1026=
201009052120 METAR ESMX 052120Z 06001KT CAVOK 08/06 Q1026=
201009052050 METAR ESMX 052050Z 18001KT CAVOK 08/06 Q1026=
201009052020 METAR ESMX 052020Z 00000KT CAVOK 07/06 Q1026=
201009051950 METAR ESMX 051950Z 18002KT CAVOK 07/06 Q1026=
201009051920 METAR ESMX 051920Z 27001KT CAVOK 07/06 Q1026=
201009051850 METAR ESMX 051850Z 00000KT CAVOK 08/07 Q1026=
201009051820 METAR ESMX 051820Z VRB01KT CAVOK 09/07 Q1026=
201009051750 METAR ESMX 051750Z 00000KT CAVOK 11/08 Q1026=
201009051720 METAR ESMX 051720Z 00000KT CAVOK 12/08 Q1026=
201009051650 METAR ESMX 051650Z 32002KT CAVOK 14/08 Q1025=
201009051620 METAR ESMX 051620Z 31003KT 280V350 CAVOK 16/05 Q1025=
201009051550 METAR ESMX 051550Z 34004KT 310V020 9999 FEW047 SCT062 16/05 Q1026=
201009051520 METAR ESMX 051520Z 34003KT 300V040 CAVOK 16/04 Q1026=
201009051450 METAR ESMX 051450Z VRB02KT CAVOK 17/03 Q1026=
201009051420 METAR ESMX 051420Z 36003KT 300V060 CAVOK 17/03 Q1026=
201009051350 METAR ESMX 051350Z VRB02KT CAVOK 17/04 Q1026=
201009051320 METAR ESMX 051320Z 10003KT 040V140 CAVOK 17/03 Q1026=
201009051250 METAR ESMX 051250Z VRB02KT CAVOK 17/03 Q1026=
201009051220 METAR ESMX 051220Z VRB02KT CAVOK 17/02 Q1026=
201009051150 METAR ESMX 051150Z AUTO VRB02KT 9999NDV NCD 15/02 Q1026=
201009051120 METAR ESMX 051120Z AUTO 15003KT 080V240 9999NDV NCD 15/03 Q1026=
201009051050 METAR ESMX 051050Z AUTO 04003KT 330V090 9999NDV NCD 15/02 Q1027=
201009051020 METAR ESMX 051020Z AUTO 11004KT 050V160 9999NDV NCD 15/01 Q1027=
201009050950 METAR ESMX 050950Z AUTO 33003KT 270V020 9999NDV NCD 14/00 Q1027=
201009050920 METAR ESMX 050920Z AUTO 35003KT 290V070 9999NDV NCD 14/02 Q1027=
201009050850 METAR ESMX 050850Z AUTO 03004KT 340V060 9999NDV NCD 13/02 Q1027=
201009050820 METAR ESMX 050820Z AUTO VRB02KT 9999NDV NCD 13/05 Q1027=
201009050750 METAR ESMX 050750Z AUTO 01003KT 330V050 9999NDV NCD 12/05 Q1027=
201009050720 METAR ESMX 050720Z AUTO 03003KT 9999NDV NCD 10/06 Q1027=
201009050650 METAR ESMX 050650Z AUTO 01003KT 9999NDV NCD 09/07 Q1027=
201009050620 METAR ESMX 050620Z AUTO 00000KT 9999NDV NCD 07/06 Q1027=
201009050550 METAR ESMX 050550Z AUTO 00000KT 0250NDV R01/0800VP2000 R19/0400V0550 FG SCT001/// 03/03 Q1027=
201009050520 METAR ESMX 050520Z 00000KT 3500 PRFG VV002 01/01 Q1027=
201009050450 METAR ESMX 050450Z AUTO 00000KT 9999NDV VV001 M00/M01 Q1026=
201009050420 METAR ESMX 050420Z AUTO 17001KT 9999NDV NCD M00/M01 Q1026=
201009050350 METAR ESMX 050350Z AUTO 00000KT 1600NDV NCD 00/M00 Q1026=
201009050320 METAR ESMX 050320Z AUTO 17001KT 9999NDV NCD 00/M00 Q1026=
201009050250 METAR ESMX 050250Z AUTO 00000KT 9999NDV NCD 01/00 Q1026=
201009050220 METAR ESMX 050220Z AUTO 17001KT 9999NDV NCD 00/M00 Q1026=
201009050150 METAR ESMX 050150Z AUTO 17001KT 4100NDV BR NCD 01/01 Q1026=
201009050120 METAR ESMX 050120Z AUTO 00000KT 9999NDV NCD 01/00 Q1026=
201009050050 METAR ESMX 050050Z AUTO 00000KT 9999NDV NCD 01/01 Q1026=
201009050020 METAR ESMX 050020Z AUTO VRB01KT 9999NDV NCD 01/01 Q1026=
201009042350 METAR ESMX 042350Z AUTO 18001KT 9999NDV NCD 02/01 Q1026=
201009042320 METAR ESMX 042320Z AUTO 00000KT 9999NDV NCD 02/02 Q1026=
201009042250 METAR ESMX 042250Z AUTO 00000KT 9999NDV NCD 03/02 Q1026=
201009042220 METAR ESMX 042220Z AUTO 00000KT 9999NDV NCD 04/03 Q1026=
201009042150 METAR ESMX 042150Z AUTO 18001KT 9999NDV NCD 04/03 Q1025=
201009042120 METAR ESMX 042120Z AUTO 00000KT 9999NDV NCD 04/03 Q1025=
201009042050 METAR ESMX 042050Z AUTO 19001KT 9999NDV NCD 04/03 Q1025=
201009042020 METAR ESMX 042020Z AUTO 18001KT 9999NDV NCD 05/04 Q1025=
201009041950 METAR ESMX 041950Z AUTO 00000KT 9999NDV NCD 05/04 Q1025=
201009041920 METAR ESMX 041920Z AUTO 19001KT 9999NDV NCD 06/05 Q1025=
201009041850 METAR ESMX 041850Z AUTO VRB01KT 9999NDV NCD 08/05 Q1025=
201009041820 METAR ESMX 041820Z 03002KT CAVOK 09/05 Q1024=
201009041750 METAR ESMX 041750Z 34006KT CAVOK 11/06 Q1024=
201009041720 METAR ESMX 041720Z 35006KT CAVOK 13/06 Q1024=
201009041650 METAR ESMX 041650Z 34005KT CAVOK 12/06 Q1024=
201009041620 METAR ESMX 041620Z 34006KT CAVOK 14/03 Q1023=
201009041550 METAR ESMX 041550Z 03005KT CAVOK 15/04 Q1023=
201009041520 METAR ESMX 041520Z 01005KT 320V030 CAVOK 15/02 Q1023=
201009041450 METAR ESMX 041450Z AUTO 34004KT 300V020 9999NDV NCD 15/03 Q1023=
201009041420 METAR ESMX 041420Z AUTO 36005KT 320V040 9999NDV FEW057/// 14/02 Q1023=
201009041350 METAR ESMX 041350Z AUTO 36003KT 320V090 9999NDV NCD 16/02 Q1023=
201009041320 METAR ESMX 041320Z AUTO 01006KT 330V030 9999NDV SCT055/// 15/02 Q1023=
201009041250 METAR ESMX 041250Z AUTO VRB02KT 9999NDV FEW055/// 16/02 Q1023=
201009041220 METAR ESMX 041220Z AUTO 35005KT 290V020 9999NDV FEW055/// 16/02 Q1023=
201009041150 METAR ESMX 041150Z 36005KT 320V030 CAVOK 15/02 Q1023=
201009041120 METAR ESMX 041120Z 02004KT 330V070 CAVOK 14/02 Q1023=
201009041050 METAR ESMX 041050Z 36004KT 320V050 CAVOK 14/02 Q1023=
201009041020 METAR ESMX 041020Z 02006KT 340V060 CAVOK 14/01 Q1023=
201009040950 METAR ESMX 040950Z 36006KT 330V040 CAVOK 14/02 Q1023=
201009040920 METAR ESMX 040920Z 02007KT CAVOK 13/02 Q1023=
201009040850 METAR ESMX 040850Z 01007KT CAVOK 13/04 Q1023=
201009040820 METAR ESMX 040820Z 02006KT CAVOK 12/05 Q1023=
201009040750 METAR ESMX 040750Z 02004KT 320V050 CAVOK 11/05 Q1023=
201009040720 METAR ESMX 040720Z VRB02KT CAVOK 09/06 Q1022=
201009040650 METAR ESMX 040650Z VRB01KT CAVOK 07/06 Q1022=
201009040620 METAR ESMX 040620Z 00000KT CAVOK 06/05 Q1022=
201009040550 METAR ESMX 040550Z AUTO VRB01KT 9999NDV NCD 03/03 Q1022=
201009040520 METAR ESMX 040520Z AUTO 29001KT 9999NDV NCD 02/01 Q1022=
201009040450 METAR ESMX 040450Z AUTO 00000KT 9999NDV NCD 01/00 Q1021=
201009040420 METAR ESMX 040420Z AUTO 01001KT 7000NDV NCD 00/M00 Q1021=
201009040350 METAR ESMX 040350Z AUTO 00000KT 9999NDV NCD 01/00 Q1021=
201009040320 METAR ESMX 040320Z AUTO 00000KT 1400NDV R01/P2000N R19/P2000N NCD 01/01 Q1021=
201009040250 METAR ESMX 040250Z AUTO 00000KT 9999NDV NCD 01/01 Q1020=
201009040220 METAR ESMX 040220Z AUTO 02001KT 7000NDV BR NCD 02/02 Q1020=
201009040150 METAR ESMX 040150Z AUTO 01001KT 9999NDV NCD 03/02 Q1020=
201009040120 METAR ESMX 040120Z AUTO 02002KT 9999NDV NCD 03/02 Q1020=
201009040050 METAR ESMX 040050Z AUTO 02002KT 9999NDV NCD 04/03 Q1020=
201009040020 METAR ESMX 040020Z AUTO 02002KT 9999NDV NCD 05/04 Q1020=
201009032350 METAR ESMX 032350Z AUTO 01001KT 9999NDV FEW087/// 03/03 Q1020=
201009032320 METAR ESMX 032320Z AUTO VRB01KT 9999NDV NCD 03/02 Q1019=
201009032250 METAR ESMX 032250Z AUTO 36002KT 9999NDV NCD 03/02 Q1019=
201009032220 METAR ESMX 032220Z AUTO 00000KT 9999NDV NCD 04/03 Q1019=
201009032150 METAR ESMX 032150Z AUTO 00000KT 9999NDV FEW100/// 04/03 Q1019=
201009032120 METAR ESMX 032120Z AUTO 00000KT 9999NDV NCD 04/03 Q1019=
201009032050 METAR ESMX 032050Z AUTO 32001KT 9999NDV NCD 05/03 Q1019=
201009032020 METAR ESMX 032020Z AUTO 34002KT 9999NDV NCD 05/03 Q1019=
201009031950 METAR ESMX 031950Z AUTO 30001KT 9999NDV NCD 06/04 Q1019=
201009031920 METAR ESMX 031920Z AUTO 34002KT 9999NDV NCD 08/04 Q1018=
201009031850 METAR ESMX 031850Z 35004KT CAVOK 09/04 Q1018=
201009031820 METAR ESMX 031820Z 35005KT CAVOK 10/04 Q1018=
201009031750 METAR ESMX 031750Z 36007KT CAVOK 11/04 Q1018=
201009031650 METAR ESMX 031650Z 01007KT CAVOK 13/04 Q1017=
201009031620 METAR ESMX 031620Z 35009KT CAVOK 13/04 Q1017=
201009031520 METAR ESMX 031520Z 34008KT CAVOK 14/03 Q1017=
201009031450 METAR ESMX 031450Z 31006KT 270V340 CAVOK 14/02 Q1017=
201009031420 METAR ESMX 031420Z 32008KT 280V350 CAVOK 14/02 Q1017=
201009031350 METAR ESMX 031350Z 33009KT CAVOK 14/02 Q1017=
201009031320 METAR ESMX 031320Z 32008KT CAVOK 14/02 Q1017=
201009031250 METAR ESMX 031250Z 33007KT CAVOK 14/03 Q1017=
201009031220 METAR ESMX 031220Z 34009KT 290V020 CAVOK 14/02 Q1017=
201009031150 METAR ESMX 031150Z 31008KT 280V340 9999 FEW048 14/02 Q1017=
201009031120 METAR ESMX 031120Z 34009KT 9999 FEW046 14/03 Q1017=
201009031050 METAR ESMX 031050Z 35011KT 320V030 CAVOK 14/03 Q1017=
201009031020 METAR ESMX 031020Z 34011KT CAVOK 14/02 Q1017=
201009030950 METAR ESMX 030950Z 31013KT CAVOK 14/02 Q1017=
201009030920 METAR ESMX 030920Z 33011KT 280V010 CAVOK 13/02 Q1017=
201009030850 METAR ESMX 030850Z 34010KT 290V020 CAVOK 13/03 Q1017=
201009030820 METAR ESMX 030820Z 34008KT 290V020 CAVOK 12/04 Q1017=
201009030750 METAR ESMX 030750Z 34007KT 290V020 CAVOK 12/04 Q1017=
201009030720 METAR ESMX 030720Z 32007KT 290V010 CAVOK 11/05 Q1017=
201009030650 METAR ESMX 030650Z 30006KT 280V340 CAVOK 09/05 Q1017=
201009030620 METAR ESMX 030620Z 31004KT 280V340 CAVOK 08/05 Q1017=
201009030550 METAR ESMX 030550Z 31003KT 260V350 CAVOK 06/04 Q1017=
201009030520 METAR ESMX 030520Z 31005KT CAVOK 04/03 Q1017=
201009030450 METAR ESMX 030450Z 30004KT CAVOK 04/03 Q1017=
201009030420 METAR ESMX 030420Z 28003KT 230V320 CAVOK 03/03 Q1017=
201009030350 METAR ESMX 030350Z 30002KT CAVOK 04/03 Q1017=
201009030320 METAR ESMX 030320Z AUTO 30005KT 9999NDV NCD 04/03 Q1017=
201009030250 METAR ESMX 030250Z AUTO 31005KT 9999NDV NCD 04/03 Q1017=
201009030220 METAR ESMX 030220Z AUTO VRB01KT 9999NDV NCD 05/04 Q1017=
201009030150 METAR ESMX 030150Z AUTO 32003KT 290V350 9999NDV NCD 06/04 Q1017=
201009030120 METAR ESMX 030120Z AUTO 31003KT 9999NDV NCD 06/04 Q1017=
201009030050 METAR ESMX 030050Z AUTO 32005KT 9999NDV NCD 06/05 Q1017=
201009030020 METAR ESMX 030020Z AUTO 32006KT 9999NDV NCD 06/04 Q1017=
201009022350 METAR ESMX 022350Z AUTO 32005KT 9999NDV NCD 07/05 Q1017=
201009022320 METAR ESMX 022320Z 32005KT CAVOK 08/05 Q1017=
201009022250 METAR ESMX 022250Z 34006KT CAVOK 09/06 Q1017=
201009022220 METAR ESMX 022220Z 32006KT CAVOK 09/05 Q1017=
201009022150 METAR ESMX 022150Z 31007KT CAVOK 09/05 Q1017=
201009022120 METAR ESMX 022120Z 32007KT CAVOK 08/05 Q1017=
201009022050 METAR ESMX 022050Z 32007KT 290V360 CAVOK 09/05 Q1017=
201009022020 METAR ESMX 022020Z 32006KT 280V340 CAVOK 09/05 Q1017=
201009021950 METAR ESMX 021950Z 31006KT CAVOK 09/05 Q1017=
201009021920 METAR ESMX 021920Z 32006KT 300V010 CAVOK 09/05 Q1017=
201009021850 METAR ESMX 021850Z 32006KT CAVOK 10/05 Q1017=
201009021820 METAR ESMX 021820Z 32007KT 300V360 CAVOK 11/05 Q1017=
201009021750 METAR ESMX 021750Z 34008KT CAVOK 12/05 Q1017=
201009021720 METAR ESMX 021720Z 35010KT CAVOK 13/04 Q1016=
201009021650 METAR ESMX 021650Z 34011KT CAVOK 14/04 Q1016=
201009021620 METAR ESMX 021620Z 35011KT CAVOK 14/04 Q1016=
201009021550 METAR ESMX 021550Z 33009KT 300V010 CAVOK 15/04 Q1016=
201009021520 METAR ESMX 021520Z 35009KT CAVOK 14/04 Q1016=
201009021450 METAR ESMX 021450Z 35009KT 320V020 CAVOK 14/03 Q1016=
201009021420 METAR ESMX 021420Z 36010KT CAVOK 15/03 Q1016=
201009021350 METAR ESMX 021350Z 35010KT 320V020 CAVOK 16/03 Q1016=
201009021320 METAR ESMX 021320Z 35010KT CAVOK 15/03 Q1016=
201009021250 METAR ESMX 021250Z 35010KT CAVOK 15/02 Q1016=
201009021220 METAR ESMX 021220Z 36014KT CAVOK 14/02 Q1016=
201009021150 METAR ESMX 021150Z 36012KT CAVOK 16/02 Q1016=
201009021120 METAR COR ESMX 021120Z 01013KT CAVOK 15/02 Q1016=
201009021050 METAR ESMX 021050Z 35014KT 9999 FEW048 15/03 Q1016=
201009021020 METAR ESMX 021020Z 36011KT 340V060 9999 FEW048 14/03 Q1017=
201009020950 METAR ESMX 020950Z 01011KT 320V040 9999 FEW045 15/04 Q1017=
201009020920 METAR ESMX 020920Z 36011KT 320V020 9999 SCT044 15/05 Q1017=
201009020850 METAR ESMX 020850Z 01013KT 330V050 9999 FEW040 14/03 Q1017=
201009020820 METAR ESMX 020820Z 04011KT 360V080 9999 FEW040 14/04 Q1016=
201009020750 METAR ESMX 020750Z 02009KT 350V070 9999 FEW032 13/05 Q1016=
201009020720 METAR ESMX 020720Z 02010KT 350V060 CAVOK 12/05 Q1016=
201009020650 METAR ESMX 020650Z 01010KT 340V040 CAVOK 12/05 Q1016=
201009020620 METAR ESMX 020620Z 02009KT CAVOK 11/05 Q1016=
201009020550 METAR ESMX 020550Z 02009KT 340V050 CAVOK 10/06 Q1016=
201009020520 METAR ESMX 020520Z 01009KT 340V050 CAVOK 10/07 Q1016=
201009020450 METAR ESMX 020450Z 02009KT 9999 FEW035 10/07 Q1016=
201009020420 METAR ESMX 020420Z 36010KT 9999 FEW008 SCT020 BKN029 11/09 Q1016=
201009020350 METAR ESMX 020350Z 02009KT 9999 SCT007 BKN010 11/10 Q1015=
201009020320 METAR ESMX 020320Z AUTO 01007KT 340V040 9999NDV FEW007/// BKN008/// BKN010/// 11/10 Q1015=
201009020250 METAR ESMX 020250Z AUTO 02008G32KT 9999NDV FEW009/// SCT012/// BKN017/// 12/10 Q1015=
201009020220 METAR ESMX 020220Z AUTO 36008KT 9999NDV FEW010/// SCT013/// BKN016/// 11/10 Q1015=
201009020150 METAR ESMX 020150Z AUTO 35007KT 9999NDV FEW006/// OVC010/// 11/10 Q1015=
201009020120 METAR ESMX 020120Z AUTO 35007KT 9999NDV BKN006/// 11/10 Q1015=
201009020050 METAR ESMX 020050Z AUTO 01007KT 9999NDV FEW006/// BKN007/// 11/10 Q1015=
201009020020 METAR ESMX 020020Z AUTO 01006KT 9999NDV BKN092/// 11/10 Q1015=
201009012350 METAR ESMX 012350Z AUTO 02007KT 9999NDV FEW039/// OVC080/// 12/10 Q1015=
201009012320 METAR ESMX 012320Z 01007KT 330V030 CAVOK 12/10 Q1015=
201009012250 METAR ESMX 012250Z 02005KT CAVOK 12/10 Q1015=
201009012220 METAR ESMX 012220Z 03005KT CAVOK 12/10 Q1015=
201009012150 METAR ESMX 012150Z 03005KT CAVOK 13/11 Q1014=
201009012120 METAR ESMX 012120Z 02005KT CAVOK 13/11 Q1015=
201009012050 METAR ESMX 012050Z 01004KT CAVOK 13/11 Q1015=
201009012020 METAR ESMX 012020Z 35004KT CAVOK 12/11 Q1014=
201009011950 METAR ESMX 011950Z 35004KT CAVOK 12/11 Q1014=
201009011920 METAR ESMX 011920Z 29003KT CAVOK 12/11 Q1014=
201009011850 METAR ESMX 011850Z 30004KT CAVOK 13/10 Q1014=
201009011820 METAR ESMX 011820Z 28004KT CAVOK 13/10 Q1014=
201009011750 METAR ESMX 011750Z 24001KT 9999 FEW050CB BKN094 13/10 Q1014=
201009011720 METAR ESMX 011720Z 29003KT 9999 VCSH FEW045CB SCT085 14/10 Q1014=
201009011650 METAR ESMX 011650Z 30007KT 260V330 9999 FEW045CB SCT065 15/10 Q1014=
201009011620 METAR ESMX 011620Z 03005KT 9999 VCSH FEW045CB SCT060 15/10 Q1014=
201009011550 METAR ESMX 011550Z 03005KT 350V070 9999 FEW040CB SCT045 17/09 Q1014=
201009011520 METAR ESMX 011520Z 01005KT 330V060 9999 VCSH FEW040CB SCT045 19/08 Q1014=
201009011450 METAR ESMX 011450Z 34003KT 300V030 9999 SCT045 19/08 Q1014=
201009011420 METAR ESMX 011420Z 34003KT 280V040 9999 SCT045 18/08 Q1014=
201009011350 METAR ESMX 011350Z 33004KT 280V030 9999 FEW040 19/07 Q1014=
201009011320 METAR ESMX 011320Z 34005KT 260V060 9999 FEW040 19/08 Q1014=
201009011250 METAR ESMX 011250Z 35004KT 300V060 9999 FEW040 17/07 Q1014=
201009011220 METAR ESMX 011220Z VRB03KT 9999 FEW040 18/08 Q1014=
