##########################################################
# Query made at 04/19/2024 21:17:33 UTC
# Time interval: from 08/01/2010 12:00  to 08/31/2010 12:59  UTC
##########################################################

##########################################################
# ESMX, Vaxjo (Sweden)
# WMO index: 02641. WIGOS ID: 0-20000-0-02648
# Latitude 56-51N. Longitude 014-50E. Altitude 199 m.
##########################################################

201008311250 METAR ESMX 311250Z 34003KT 280V030 9999 FEW040 16/08 Q1016=
201008311220 METAR ESMX 311220Z 34004KT 9999 FEW040 16/08 Q1017=
201008311120 METAR ESMX 311120Z 35004KT 320V020 9999 SCT035 16/07 Q1017=
201008311050 METAR ESMX 311050Z VRB03KT 9999 FEW030 SCT058 17/08 Q1017=
201008311020 METAR ESMX 311020Z 27004KT 9999 FEW028 15/08 Q1017=
201008310950 METAR ESMX 310950Z 02004KT 320V060 9999 FEW028 15/08 Q1017=
201008310920 METAR COR ESMX 310920Z 02004KT 290V080 9999 FEW025 15/09 Q1017=
201008310850 METAR ESMX 310850Z 03004KT 350V060 9999 FEW020 14/09 Q1017=
201008310820 METAR ESMX 310820Z 35004KT 310V030 9999 FEW015 13/09 Q1017=
201008310750 METAR ESMX 310750Z 35004KT 9999 FEW015 13/09 Q1017=
201008310720 METAR ESMX 310720Z 03005KT CAVOK 12/10 Q1017=
201008310650 METAR ESMX 310650Z 36005KT 320V030 CAVOK 11/10 Q1017=
201008310620 METAR ESMX 310620Z 33003KT 300V010 CAVOK 10/09 Q1017=
201008310550 METAR ESMX 310550Z VRB01KT 9999 FEW003 08/07 Q1017=
201008310520 METAR ESMX 310520Z 32002KT 9999 BCFG SCT002 06/05 Q1017=
201008310450 METAR ESMX 310450Z 00000KT 0200 R01/0900V1500 R19/0375V0550N BCFG FEW002 03/03 Q1017=
201008310420 METAR ESMX 310420Z 00000KT 0600 R01/0300 R19/1000D FG FEW003 04/04 Q1017=
201008310350 METAR ESMX 310350Z 00000KT 1000 R01/0600 R19/P2000N BCFG NSC 05/04 Q1016=
201008310320 METAR ESMX 310320Z AUTO 00000KT 0200NDV R01/0800V1100 R19/P2000N FG NCD 04/04 Q1016=
201008310250 METAR ESMX 310250Z AUTO 29002KT 3600NDV NCD 04/04 Q1016=
201008310220 METAR ESMX 310220Z AUTO 27002KT 1100NDV R01/P2000N R19/P2000N FG NCD 04/04 Q1016=
201008310150 METAR ESMX 310150Z AUTO VRB01KT 2400NDV FEW004/// 05/04 Q1016=
201008310120 METAR ESMX 310120Z AUTO 31002KT 0400NDV R01/0900V1300 R19/P2000 FG NCD 05/05 Q1016=
201008310050 METAR ESMX 310050Z AUTO 30003KT 7000NDV BR FEW004/// 06/05 Q1016=
201008310020 METAR ESMX 310020Z AUTO 32003KT 4300NDV BR NCD 08/07 Q1016=
201008302350 METAR ESMX 302350Z AUTO 34005KT 9999NDV NCD 08/07 Q1016=
201008302320 METAR ESMX 302320Z 02004KT CAVOK 08/07 Q1016=
201008302250 METAR ESMX 302250Z 35004KT CAVOK 07/07 Q1016=
201008302220 METAR ESMX 302220Z 36004KT CAVOK 08/07 Q1016=
201008302150 METAR ESMX 302150Z 34004KT CAVOK 09/08 Q1016=
201008302120 METAR ESMX 302120Z 36007KT CAVOK 09/08 Q1016=
201008302050 METAR ESMX 302050Z 36005KT CAVOK 09/08 Q1016=
201008302020 METAR ESMX 302020Z 36006KT CAVOK 09/08 Q1015=
201008301950 METAR ESMX 301950Z 36005KT CAVOK 10/09 Q1015=
201008301920 METAR ESMX 301920Z 35006KT CAVOK 10/08 Q1015=
201008301850 METAR ESMX 301850Z 01004KT CAVOK 10/09 Q1015=
201008301820 METAR ESMX 301820Z 36004KT 9999 FEW035 11/09 Q1015=
201008301750 METAR ESMX 301750Z 34007KT 9999 FEW035 12/09 Q1015=
201008301720 METAR ESMX 301720Z 02007KT 340V050 9999 FEW035CB 12/09 Q1015=
201008301650 METAR ESMX 301650Z 01008KT 340V040 9999 -SHRA FEW030CB 13/09 Q1014=
201008301620 METAR ESMX 301620Z 02007KT 350V050 9999 FEW030CB SCT067 15/09 Q1014=
201008301550 METAR ESMX 301550Z 03009KT 9999 FEW035 SCT072 14/09 Q1014 RESH=
201008301520 METAR ESMX 301520Z 01008KT 340V050 9999 FEW035 15/09 Q1013=
201008301450 METAR ESMX 301450Z 02010KT 9999 FEW035 16/08 Q1013=
201008301420 METAR ESMX 301420Z 03008KT 9999 FEW032 SCT071 16/08 Q1013=
201008301350 METAR ESMX 301350Z 01009KT 9999 FEW025 SCT070 16/08 Q1013=
201008301320 METAR ESMX 301320Z 01010KT 9999 FEW030 SCT065 16/08 Q1013=
201008301250 METAR ESMX 301250Z 01008KT 9999 FEW028 SCT065 15/08 Q1013=
201008301220 METAR ESMX 301220Z 36010KT 9999 FEW026 SCT060 16/08 Q1013=
201008301150 METAR ESMX 301150Z 01009KT 9999 FEW026 BKN062 15/09 Q1013=
201008301120 METAR ESMX 301120Z 01010KT 340V040 9999 SCT027 BKN057 15/08 Q1013=
201008301050 METAR ESMX 301050Z 02008KT 350V060 9999 FEW025 BKN052 14/08 Q1013=
201008301020 METAR ESMX 301020Z 01010KT 9999 FEW020 SCT029 BKN047 14/09 Q1013=
201008300950 METAR ESMX 300950Z 01011KT 340V050 9999 FEW018 SCT022 14/09 Q1012=
201008300920 METAR ESMX 300920Z 02008KT 340V060 9999 SCT016 13/09 Q1012=
201008300850 METAR ESMX 300850Z 01009KT 320V030 9999 FEW015 SCT018 13/10 Q1012=
201008300820 METAR ESMX 300820Z 02009KT 9999 FEW011 BKN017 12/09 Q1012=
201008300750 METAR ESMX 300750Z 36007KT 330V050 9999 SCT010 12/09 Q1011=
201008300720 METAR ESMX 300720Z 02007KT 340V050 9999 BKN006 11/09 Q1011=
201008300650 METAR ESMX 300650Z 01007KT 9999 BKN006 10/09 Q1011=
201008300620 METAR ESMX 300620Z 03007KT 350V060 9999 BKN006 09/08 Q1011=
201008300550 METAR ESMX 300550Z 02006KT 9999 SCT005 10/08 Q1010=
201008300520 METAR ESMX 300520Z 01006KT 9999 FEW006 09/08 Q1010=
201008300450 METAR ESMX 300450Z 01006KT 9999 FEW023 08/07 Q1010=
201008300420 METAR ESMX 300420Z 03006KT 9999 FEW020 08/08 Q1010=
201008300350 METAR ESMX 300350Z 02005KT 9999 FEW016 08/07 Q1009=
201008300320 METAR ESMX 300320Z AUTO 03005KT 9999NDV NCD 09/08 Q1009=
201008300250 METAR ESMX 300250Z AUTO 03005KT 010V070 9999NDV NCD 09/08 Q1009=
201008300220 METAR ESMX 300220Z AUTO 03005KT 9999NDV NCD 09/08 Q1009=
201008300150 METAR ESMX 300150Z AUTO 03005KT 9999NDV FEW006/// 08/08 Q1009=
201008300120 METAR ESMX 300120Z AUTO 04005KT 9999NDV FEW004/// SCT006/// 09/08 Q1008=
201008300050 METAR ESMX 300050Z AUTO 03006KT 9999NDV FEW007/// 08/08 Q1008=
201008300020 METAR ESMX 300020Z AUTO 06004KT 010V110 9999NDV NCD 08/08 Q1008=
201008292350 METAR ESMX 292350Z 03004KT CAVOK 08/07 Q1008=
201008292320 METAR ESMX 292320Z 07003KT CAVOK 08/08 Q1008=
201008292250 METAR ESMX 292250Z 05003KT 9999 NSC 09/08 Q1008=
201008292220 METAR ESMX 292220Z 03003KT 360V070 CAVOK 09/08 Q1008=
201008292150 METAR ESMX 292150Z 03003KT 350V060 CAVOK 09/08 Q1008=
201008292120 METAR ESMX 292120Z 01001KT CAVOK 07/06 Q1007=
201008292050 METAR ESMX 292050Z 05004KT 9999 FEW045 08/07 Q1007=
201008292020 METAR ESMX 292020Z VRB01KT 9999 FEW045 07/07 Q1007=
201008291950 METAR ESMX 291950Z 00000KT 9999 FEW045 08/07 Q1007=
201008291920 METAR ESMX 291920Z 00000KT 9999 FEW045 09/08 Q1007=
201008291850 METAR ESMX 291850Z 00000KT 9999 FEW042CB SCT050 09/08 Q1007=
201008291820 METAR ESMX 291820Z VRB01KT 9999 VCSH FEW040CB SCT060 09/08 Q1007=
201008291750 METAR ESMX 291750Z 04002KT 9999 VCSH FEW040CB SCT062 10/08 Q1006=
201008291720 METAR ESMX 291720Z 22001KT 9999 FEW035CB SCT057 11/09 Q1006=
201008291650 METAR ESMX 291650Z 20003KT 170V230 9999 VCSH FEW035CB SCT051 12/08 Q1006=
201008291620 METAR ESMX 291620Z 23004KT 180V250 9999 VCSH FEW035CB SCT058 12/09 Q1006=
201008291550 METAR ESMX 291550Z 20009KT 9999 VCSH FEW035CB SCT045 14/08 Q1006=
201008291520 METAR ESMX 291520Z 04003KT 360V110 9999 VCSH FEW035CB SCT062 16/08 Q1006=
201008291450 METAR ESMX 291450Z 04004KT 350V080 9999 FEW035CB SCT059 15/09 Q1006=
201008291420 METAR ESMX 291420Z 01003KT 330V070 9999 VCSH FEW035CB SCT056 15/09 Q1006=
201008291350 METAR ESMX 291350Z VRB02KT 9999 -RA FEW035CB SCT060 14/10 Q1006=
201008291320 METAR ESMX 291320Z 35004KT 320V020 9999 VCSH FEW035CB SCT074 BKN106 15/09 Q1006=
201008291250 METAR ESMX 291250Z 01003KT 340V040 9999 VCSH FEW035CB SCT073 BKN089 15/08 Q1006=
201008291220 METAR ESMX 291220Z AUTO VRB03KT 9999NDV FEW035/// SCT051/// BKN072/// 15/08 Q1006=
201008291150 METAR ESMX 291150Z AUTO VRB02KT 9999NDV FEW053/// SCT066/// 15/08 Q1006=
201008291120 METAR ESMX 291120Z AUTO 07003KT 020V180 9999NDV NCD 16/09 Q1006=
201008291050 METAR ESMX 291050Z AUTO VRB02KT 9999NDV FEW066/// 14/08 Q1006=
201008291020 METAR ESMX 291020Z AUTO VRB02KT 9999NDV FEW038/// SCT061/// 13/09 Q1006 RERA=
201008290950 METAR ESMX 290950Z AUTO 30010KT 260V320 9000NDV -RA FEW023/// SCT029/// BKN042/// 13/09 Q1006=
201008290920 METAR ESMX 290920Z AUTO 23005KT 190V280 9999NDV SCT022/// BKN058/// 14/09 Q1006=
201008290850 METAR ESMX 290850Z AUTO 27003KT 230V320 9999NDV FEW018/// SCT033/// 13/09 Q1006=
201008290820 METAR ESMX 290820Z AUTO 29003KT 220V340 9999NDV FEW014/// SCT019/// 14/10 Q1006=
201008290750 METAR ESMX 290750Z AUTO 26004KT 220V290 9999NDV NCD 12/09 Q1006=
201008290720 METAR ESMX 290720Z AUTO 22004KT 190V260 9999NDV NCD 12/09 Q1006=
201008290650 METAR ESMX 290650Z AUTO 22003KT 170V250 9999NDV FEW024/// 10/09 Q1006=
201008290620 METAR ESMX 290620Z AUTO 20003KT 170V240 9999NDV FEW023/// 09/09 Q1006=
201008290550 METAR ESMX 290550Z AUTO 21004KT 9999NDV NCD 08/08 Q1006=
201008290520 METAR ESMX 290520Z AUTO 22005KT 9999NDV FEW025/// 08/07 Q1005=
201008290450 METAR ESMX 290450Z AUTO 22005KT 9999NDV BKN022/// 08/07 Q1005=
201008290420 METAR ESMX 290420Z AUTO 21005KT 2600NDV NCD 07/06 Q1005=
201008290350 METAR ESMX 290350Z AUTO 21006KT 2200NDV FEW029/// 06/06 Q1005=
201008290320 METAR ESMX 290320Z AUTO 22005KT 9999NDV FEW027/// 07/06 Q1005=
201008290250 METAR ESMX 290250Z AUTO 22005KT 9999NDV NCD 06/06 Q1005=
201008290220 METAR ESMX 290220Z AUTO 22005KT 0600NDV R01/P2000N R19/P2000D NCD 06/06 Q1005=
201008290150 METAR ESMX 290150Z AUTO 22004KT 0550NDV R01/P2000N R19/1200VP2000D NCD 06/06 Q1006=
201008290120 METAR ESMX 290120Z AUTO 22004KT 0400NDV R01/P2000N R19/1100VP2000U NCD 07/06 Q1006=
201008290050 METAR ESMX 290050Z AUTO 22003KT 9999NDV NCD 07/07 Q1006=
201008290020 METAR ESMX 290020Z AUTO 22006KT 9999NDV NCD 08/07 Q1006=
201008282350 METAR ESMX 282350Z AUTO 22005KT 9999NDV NCD 08/07 Q1006=
201008282320 METAR ESMX 282320Z AUTO 22005KT 0700NDV R01/P2000N R19/P2000N FEW030/// 08/07 Q1006=
201008282250 METAR ESMX 282250Z AUTO 23004KT 0600NDV R01/P2000N R19/P2000N NCD 08/07 Q1006=
201008282220 METAR ESMX 282220Z AUTO 22004KT 0650NDV R01/P2000N R19/P2000N NCD 08/07 Q1006=
201008282150 METAR ESMX 282150Z AUTO 22004KT 0400NDV R01/P2000N R19/0900VP2000U NCD 08/07 Q1006=
201008282120 METAR ESMX 282120Z AUTO 23003KT 0750NDV R01/P2000N R19/P2000D BR NCD 08/08 Q1006=
201008282050 METAR ESMX 282050Z AUTO 20003KT 3100NDV FEW029/// SCT057/// 09/09 Q1006=
201008282020 METAR ESMX 282020Z AUTO 19001KT 9999NDV FEW035/// SCT042/// BKN067/// 10/09 Q1006=
201008281950 METAR ESMX 281950Z AUTO VRB02KT 9999NDV FEW027/// 10/09 Q1006=
201008281920 METAR ESMX 281920Z AUTO 27003KT 230V320 3900NDV RA FEW032/// SCT048/// 11/10 Q1006=
201008281850 METAR ESMX 281850Z 25006KT 8000 SHRA FEW032CB SCT039 11/10 Q1006=
201008281820 METAR ESMX 281820Z 14002KT 9999 FEW030CB SCT072 11/10 Q1006=
201008281750 METAR ESMX 281750Z 14003KT 110V180 9999 VCSH FEW025CB SCT060 12/10 Q1006=
201008281720 METAR ESMX 281720Z 24004KT 9999 -SHRA FEW024CB BKN055 12/10 Q1006=
201008281650 METAR ESMX 281650Z 26002KT 9999 VCSH FEW025 SCT033 13/10 Q1006=
201008281620 METAR ESMX 281620Z 23003KT 180V260 9999 VCSH FEW024 SCT078 13/10 Q1006 RESHRA=
201008281550 METAR COR ESMX 281550Z 25008KT 9999 SHRA FEW024 BKN071 14/11 Q1006=
201008281520 METAR ESMX 281520Z VRB02KT 9999 FEW020 SCT095 14/12 Q1006=
201008281450 METAR ESMX 281450Z AUTO VRB02KT 9999NDV NCD 15/11 Q1006=
201008281420 METAR ESMX 281420Z AUTO VRB01KT 9999NDV NCD 15/11 Q1006=
201008281350 METAR ESMX 281350Z AUTO VRB02KT 9999NDV -RA FEW034/// 13/12 Q1006=
201008281320 METAR ESMX 281320Z AUTO VRB02KT 6000NDV -RA FEW023/// SCT055/// 12/10 Q1006=
201008281250 METAR ESMX 281250Z AUTO 35007KT 320V030 4100NDV -RA BKN026/// 12/10 Q1006=
201008281220 METAR ESMX 281220Z AUTO 31009KT 9999NDV FEW020/// SCT024/// BKN030/// 16/09 Q1006=
201008281150 METAR ESMX 281150Z AUTO 20005KT 140V250 9999NDV FEW018/// BKN021/// BKN034/// 16/11 Q1006=
201008281120 METAR ESMX 281120Z AUTO 15005KT 070V190 9999NDV FEW014/// SCT019/// BKN025/// 16/10 Q1006=
201008281050 METAR ESMX 281050Z AUTO 15005KT 100V190 9999NDV FEW013/// SCT015/// BKN020/// 15/11 Q1005=
201008281020 METAR ESMX 281020Z AUTO 16004KT 100V200 9999NDV FEW010/// SCT013/// OVC025/// 15/12 Q1006=
201008280950 METAR ESMX 280950Z AUTO VRB02KT 9999NDV FEW007/// SCT010/// BKN013/// 14/11 Q1006=
201008280920 METAR ESMX 280920Z AUTO VRB01KT 9999NDV BKN006/// 13/12 Q1006=
201008280850 METAR ESMX 280850Z AUTO VRB02KT 9999NDV -RA FEW015/// SCT048/// 12/12 Q1006 RESHRA=
201008280820 METAR ESMX 280820Z AUTO 30004KT 270V340 3500NDV +RA FEW005/// SCT013/// BKN017/// 12/11 Q1006=
201008280750 METAR ESMX 280750Z AUTO VRB01KT 9999NDV -DZ BKN005/// OVC008/// 13/11 Q1006=
201008280720 METAR ESMX 280720Z AUTO VRB01KT 9999NDV FEW005/// BKN020/// 13/12 Q1005=
201008280650 METAR ESMX 280650Z AUTO VRB02KT 9999NDV -DZ BKN020/// 12/11 Q1005=
201008280620 METAR ESMX 280620Z AUTO 09003KT 050V120 9999NDV -RA FEW017/// BKN057/// 12/11 Q1005 REDZ=
201008280550 METAR ESMX 280550Z AUTO 03003KT 360V080 9999NDV DZ SCT019/// BKN022/// 12/11 Q1005=
201008280520 METAR ESMX 280520Z AUTO VRB02KT 6000NDV -RA FEW017/// BKN053/// 12/11 Q1005=
201008280450 METAR ESMX 280450Z AUTO 14003KT 080V170 7000NDV -RA FEW009/// BKN049/// 12/11 Q1005=
201008280420 METAR ESMX 280420Z AUTO 06003KT 030V100 7000NDV -RA FEW024/// BKN036/// 12/11 Q1005=
201008280350 METAR ESMX 280350Z AUTO VRB01KT 7000NDV FEW017/// OVC035/// 12/11 Q1005=
201008280320 METAR ESMX 280320Z AUTO VRB02KT 9999NDV SCT043/// BKN052/// OVC066/// 12/11 Q1005=
201008280250 METAR ESMX 280250Z AUTO 08003KT 030V110 9999NDV FEW026/// BKN031/// OVC065/// 12/11 Q1005=
201008280220 METAR ESMX 280220Z AUTO 09003KT 060V130 9999NDV BKN023/// OVC047/// 12/11 Q1005=
201008280150 METAR ESMX 280150Z AUTO VRB02KT 9999NDV FEW023/// SCT044/// OVC063/// 12/11 Q1005=
201008280120 METAR ESMX 280120Z 05004KT 020V090 9999 FEW008 BKN026 12/11 Q1005=
201008280050 METAR ESMX 280050Z 05004KT 010V110 9999 SCT008 BKN025 12/11 Q1005=
201008280020 METAR COR ESMX 280020Z 06004KT 020V110 9999 BKN010 12/11 Q1005=
201008272350 METAR ESMX 272350Z AUTO 04003KT 360V070 9999NDV FEW023/// SCT032/// BKN045/// 13/12 Q1005=
201008272320 METAR ESMX 272320Z AUTO 04003KT 350V090 9999NDV FEW009/// OVC031/// 13/12 Q1005=
201008272250 METAR ESMX 272250Z AUTO 04003KT 360V100 9999NDV -DZ FEW014/// SCT033/// BKN060/// 13/12 Q1005=
201008272220 METAR ESMX 272220Z AUTO 06003KT 020V100 9999NDV -DZ FEW008/// SCT010/// OVC013/// 13/12 Q1005=
201008272150 METAR ESMX 272150Z AUTO 03003KT 340V050 9999NDV -DZ FEW007/// OVC010/// 13/12 Q1004=
201008272120 METAR ESMX 272120Z AUTO 06004KT 020V110 9999NDV DZ FEW009/// SCT011/// OVC057/// 13/12 Q1004=
201008272050 METAR ESMX 272050Z 07004KT 020V110 9999 -SHRA FEW038CB BKN050 13/12 Q1004=
201008272020 METAR ESMX 272020Z 05005KT 020V100 9999 -SHRA FEW011 SCT030CB BKN041 13/12 Q1004=
201008271950 METAR ESMX 271950Z 05004KT 350V080 9999 BKN035 13/12 Q1004=
201008271920 METAR ESMX 271920Z 09004KT 050V130 9999 FEW042 BKN063 14/12 Q1004=
201008271850 METAR ESMX 271850Z 04004KT 350V090 9999 FEW012CB BKN037 14/11 Q1004=
201008271820 METAR ESMX 271820Z 07005KT 030V110 9999 VCSH FEW020CB BKN031 14/12 Q1004=
201008271750 METAR ESMX 271750Z 05004KT 010V100 9999 VCSH FEW020CB BKN031 14/12 Q1004=
201008271720 METAR ESMX 271720Z 04004KT 360V070 9999 VCSH FEW021CB SCT048 14/12 Q1003=
201008271650 METAR ESMX 271650Z 04008KT 9999 VCSH FEW021CB SCT044 15/12 Q1003=
201008271620 METAR ESMX 271620Z 02011KT 9999 SCT045 18/11 Q1003=
201008271550 METAR ESMX 271550Z 34003KT 300V030 9999 SCT050 17/10 Q1003=
201008271520 METAR ESMX 271520Z 02004KT 320V070 9999 SCT048 18/09 Q1003=
201008271450 METAR ESMX 271450Z VRB03KT 9999 FEW040 19/09 Q1003=
201008271420 METAR ESMX 271420Z 35003KT 240V040 9999 FEW040 18/09 Q1003=
201008271350 METAR ESMX 271350Z 36004KT 260V050 9999 SCT037 19/09 Q1003=
201008271320 METAR ESMX 271320Z 36004KT 320V070 9999 SCT035 18/10 Q1003=
201008271250 METAR ESMX 271250Z VRB03KT 9999 FEW030 18/10 Q1003=
201008271220 METAR ESMX 271220Z 04005KT 360V110 9999 FEW025 17/10 Q1003=
201008271150 METAR ESMX 271150Z 35004KT 310V030 9999 FEW020 17/10 Q1003=
201008271120 METAR ESMX 271120Z 01004KT 290V070 9999 FEW015 15/11 Q1004=
201008271050 METAR ESMX 271050Z VRB02KT 9999 SCT006 14/11 Q1004=
201008271020 METAR ESMX 271020Z 01006KT 9999 OVC004 12/10 Q1004=
201008270950 METAR ESMX 270950Z 36005KT 330V040 9999 OVC004 11/10 Q1004=
201008270920 METAR ESMX 270920Z 35005KT 320V030 9999 OVC004 11/10 Q1004=
201008270850 METAR ESMX 270850Z 02004KT 9999 OVC003 11/10 Q1004=
201008270820 METAR ESMX 270820Z 01004KT 340V060 5000 BR OVC002 10/10 Q1004=
201008270750 METAR ESMX 270750Z 01005KT 2600 1100S BCFG VV002 10/10 Q1004=
201008270720 METAR ESMX 270720Z 01005KT 7000 1000N BCFG VV002 11/10 Q1004=
201008270650 METAR ESMX 270650Z 02004KT 4500 BR SCT002 BKN006 10/10 Q1004=
201008270620 METAR ESMX 270620Z 02004KT 340V050 0250 R01/0600N R19/0350V0800U FG VV002 10/09 Q1004=
201008270550 METAR ESMX 270550Z VRB01KT 9999 3000N BR SCT002 08/08 Q1004=
201008270520 METAR ESMX 270520Z 00000KT 9000 0600N R01/1100VP2000U R19/0650 BCFG SCT002 06/06 Q1004=
201008270450 METAR ESMX 270450Z 17002KT 1200 R01/1700 R19/1500 BCFG SCT002 05/05 Q1004=
201008270420 METAR ESMX 270420Z 00000KT 0400 R01/0700U R19/0700 FG VV002 04/04 Q1004=
201008270350 METAR ESMX 270350Z 18004KT 0200 R01/0500V0750D R19/0750VP2000D FG VV002 05/05 Q1005=
201008270320 METAR ESMX 270320Z AUTO VRB01KT 0250NDV R01/0750V1100D R19/P2000D FG NCD 04/04 Q1004=
201008270250 METAR ESMX 270250Z AUTO 17001KT 0250NDV R01/0900 R19/0800V1900D FG NCD 05/04 Q1004=
201008270220 METAR ESMX 270220Z AUTO 00000KT 0300NDV R01/0800V1300U R19/P2000N FG NCD 05/04 Q1005=
201008270150 METAR ESMX 270150Z AUTO 00000KT 0150NDV R01/0800VP2000N R19/0550V0900 FG NCD 06/06 Q1005=
201008270120 METAR ESMX 270120Z AUTO 24002KT 1100NDV R01/P2000N R19/P2000N BR NCD 06/06 Q1005=
201008270050 METAR ESMX 270050Z AUTO 23003KT 9999NDV NCD 06/06 Q1005=
201008270020 METAR ESMX 270020Z AUTO 22003KT 6000NDV BR NCD 06/06 Q1005=
201008262350 METAR ESMX 262350Z 25002KT CAVOK 06/06 Q1005=
201008262320 METAR ESMX 262320Z 27001KT CAVOK 07/06 Q1005=
201008262250 METAR ESMX 262250Z 20004KT CAVOK 07/06 Q1006=
201008262220 METAR ESMX 262220Z 00000KT CAVOK 09/08 Q1006=
201008262150 METAR ESMX 262150Z VRB02KT CAVOK 09/08 Q1006=
201008262120 METAR ESMX 262120Z VRB02KT CAVOK 10/08 Q1006=
201008262050 METAR ESMX 262050Z 25005KT CAVOK 10/08 Q1006=
201008262020 METAR ESMX 262020Z 25005G24KT CAVOK 11/08 Q1005=
201008261950 METAR ESMX 261950Z 25005KT CAVOK 11/09 Q1005=
201008261920 METAR ESMX 261920Z 25006KT CAVOK 12/09 Q1005=
201008261850 METAR ESMX 261850Z 24005KT CAVOK 12/09 Q1005=
201008261820 METAR ESMX 261820Z 23005KT CAVOK 13/09 Q1005=
201008261750 METAR ESMX 261750Z 24005KT 190V280 CAVOK 14/09 Q1005=
201008261720 METAR ESMX 261720Z 26006KT 220V290 CAVOK 15/09 Q1005=
201008261650 METAR ESMX 261650Z 27009KT 240V300 CAVOK 16/09 Q1005=
201008261620 METAR ESMX 261620Z 24009KT 200V280 CAVOK 16/09 Q1005=
201008261550 METAR ESMX 261550Z 26010KT 220V290 9999 FEW038 17/09 Q1005=
201008261520 METAR ESMX 261520Z 25009KT 210V290 9999 FEW038 SCT059 16/09 Q1005=
201008261450 METAR ESMX 261450Z 26010KT 9999 FEW037 BKN057 17/09 Q1005=
201008261420 METAR ESMX 261420Z 25011KT 220V290 9999 FEW044 BKN058 16/09 Q1005=
201008261350 METAR ESMX 261350Z 25010KT 210V290 9999 FEW030 BKN056 17/10 Q1005=
201008261320 METAR ESMX 261320Z 25010KT 200V280 9999 FEW030 BKN050 17/10 Q1005=
201008261250 METAR ESMX 261250Z 25008KT 220V290 9999 FEW025 BKN048 16/11 Q1005=
201008261220 METAR ESMX 261220Z 24010KT 200V280 9999 SKC025 BKN047 16/10 Q1005=
201008261150 METAR ESMX 261150Z 27010KT 230V300 9999 FEW025 BKN043 BKN052 15/10 Q1005=
201008261120 METAR ESMX 261120Z 28007KT 9999 FEW027 BKN032 OVC042 15/10 Q1005=
201008261050 METAR ESMX 261050Z 27008KT 9999 FEW021 SCT029 BKN035 15/10 Q1005=
201008261020 METAR ESMX 261020Z 27008KT 230V310 9999 FEW021 BKN030 14/10 Q1005=
201008260950 METAR ESMX 260950Z 28010KT 9999 FEW018 BKN031 15/10 Q1005=
201008260920 METAR ESMX 260920Z 26011KT 210V300 9999 FEW019 BKN031 14/10 Q1005=
201008260850 METAR ESMX 260850Z 24009KT 210V270 9999 FEW021 BKN031 14/11 Q1005=
201008260820 METAR ESMX 260820Z 25008KT 200V280 9999 FEW023 OVC029 14/10 Q1005=
201008260750 METAR ESMX 260750Z 23009KT 200V300 9999 FEW025 OVC029 13/09 Q1005=
201008260720 METAR ESMX 260720Z 26008KT 220V300 9999 OVC029 13/09 Q1004=
201008260650 METAR ESMX 260650Z 26010KT 210V290 9999 FEW020 OVC030 13/10 Q1004=
201008260620 METAR ESMX 260620Z 25007KT 220V280 9999 OVC030 12/10 Q1004=
201008260550 METAR ESMX 260550Z 25008KT 200V280 9999 FEW017 OVC029 12/10 Q1004=
201008260520 METAR ESMX 260520Z 26008KT 220V280 9999 FEW020 OVC029 12/10 Q1004=
201008260450 METAR ESMX 260450Z 24009KT 200V280 9999 FEW010 OVC030 12/10 Q1004 REDZ=
201008260420 METAR ESMX 260420Z 26009KT 240V310 9999 FEW030 OVC036 12/09 Q1004=
201008260350 METAR ESMX 260350Z 26009KT 9999 FEW020 OVC034 12/09 Q1004=
201008260320 METAR ESMX 260320Z AUTO 26010KT 9999NDV OVC034/// 12/10 Q1004=
201008260250 METAR ESMX 260250Z AUTO 26010KT 9999NDV FEW015/// OVC035/// 12/10 Q1004=
201008260220 METAR ESMX 260220Z AUTO 26010KT 9999NDV FEW011/// SCT014/// OVC036/// 12/10 Q1004=
201008260150 METAR ESMX 260150Z AUTO 25010KT 220V280 9999NDV FEW010/// OVC013/// 12/11 Q1004=
201008260120 METAR ESMX 260120Z AUTO 26011KT 9999NDV SCT010/// OVC014/// 12/11 Q1004=
201008260050 METAR ESMX 260050Z AUTO 26010KT 9999NDV BKN010/// OVC019/// 12/11 Q1004=
201008260020 METAR ESMX 260020Z AUTO 25009KT 210V290 9999NDV FEW008/// SCT010/// OVC013/// 12/11 Q1003=
201008252350 METAR ESMX 252350Z AUTO 26010KT 220V290 9999NDV FEW009/// BKN012/// OVC016/// 12/11 Q1004=
201008252320 METAR ESMX 252320Z 25011KT 9999 FEW009 OVC011 12/11 Q1004=
201008252250 METAR ESMX 252250Z 25010KT 220V300 9999 FEW008 BKN010 OVC015 12/11 Q1003=
201008252220 METAR ESMX 252220Z 24009KT 200V270 9999 FEW009 BKN012 12/11 Q1003=
201008252150 METAR ESMX 252150Z 25010KT 210V280 8000 BR FEW009 BKN012 OVC017 12/11 Q1003=
201008252120 METAR ESMX 252120Z 25009KT 220V280 6000 BR FEW007 SCT012 BKN014 12/11 Q1003=
201008252050 METAR ESMX 252050Z 25009KT 220V290 3200 -RA FEW007 SCT009 BKN011 12/11 Q1002=
201008252020 METAR ESMX 252020Z 25010KT 210V280 5000 -DZ FEW006 SCT008 BKN010 12/11 Q1002=
201008251950 METAR ESMX 251950Z 25009KT 3700 RA FEW007 SCT009 BKN010 12/11 Q1002=
201008251920 METAR ESMX 251920Z 24010KT 200V270 6000 BR FEW007 BKN010 BKN014 12/11 Q1002=
201008251850 METAR ESMX 251850Z 25012KT 7000 -RA FEW011 BKN014 BKN020 12/11 Q1002=
201008251820 METAR ESMX 251820Z 24012KT 8000 -RA FEW012 SCT016 BKN019 13/11 Q1001=
201008251750 METAR ESMX 251750Z 25013KT 220V290 9999 -RA FEW011 SCT015 BKN018 13/11 Q1001 REDZ=
201008251720 METAR ESMX 251720Z 26014KT 230V300 5000 -DZ FEW013 SCT019 BKN022 13/11 Q1000=
201008251650 METAR ESMX 251650Z 26013G24KT 230V320 5000 -DZ FEW009 SCT012 BKN016 13/11 Q1000 RERA=
201008251620 METAR ESMX 251620Z 26015KT 230V290 4500 DZ FEW010 SCT015 BKN019 13/11 Q1000=
201008251550 METAR ESMX 251550Z 24013KT 200V270 8000 -DZ SCT012 BKN019 BKN024 13/12 Q0999=
201008251520 METAR ESMX 251520Z 25014KT 220V290 4500 DZ SCT014 BKN019 13/12 Q0999=
201008251450 METAR ESMX 251450Z 25013G24KT 210V280 9000 -RA FEW014 SCT019 BKN022 13/12 Q0999=
201008251420 METAR ESMX 251420Z 23013G24KT 200V280 9999 -DZ FEW013 SCT019 BKN023 13/12 Q0998=
201008251350 METAR ESMX 251350Z 25016KT 8000 DZ FEW010 SCT014 BKN022 13/12 Q0998=
201008251320 METAR ESMX 251320Z 25014G24KT 220V290 7000 -RA FEW009 BKN013 OVC018 13/12 Q0998=
201008251250 METAR ESMX 251250Z 24013KT 210V280 8000 -RA FEW008 BKN011 OVC017 13/12 Q0998=
201008251220 METAR ESMX 251220Z 23014KT 200V260 5000 RA FEW008 SCT011 OVC013 13/12 Q0997=
201008251150 METAR ESMX 251150Z 25015KT 200V290 3500 -RA FEW007 BKN010 BKN013 13/12 Q0997=
201008251120 METAR ESMX 251120Z 25015G25KT 210V290 3000 DZ FEW006 SCT009 BKN011 13/12 Q0996=
201008251050 METAR ESMX 251050Z 23013G23KT 200V280 2500 -RA FEW007 SCT009 BKN011 13/12 Q0996 REDZ=
201008251020 METAR ESMX 251020Z 25014KT 4100 DZ FEW006 BKN010 OVC015 13/12 Q0996=
201008250950 METAR ESMX 250950Z 23013KT 200V270 4500 DZ FEW006 SCT010 BKN014 13/12 Q0995=
201008250920 METAR ESMX 250920Z 23013KT 3000 DZ FEW006 SCT010 BKN012 13/12 Q0995=
201008250850 METAR ESMX 250850Z 24013KT 210V280 3500 DZ FEW006 SCT009 BKN011 13/12 Q0994=
201008250820 METAR ESMX 250820Z 24015G26KT 2900 DZ FEW007 SCT009 BKN011 13/12 Q0994=
201008250750 METAR ESMX 250750Z 23014G25KT 190V250 2700 DZ FEW008 BKN010 BKN014 13/11 Q0993=
201008250720 METAR ESMX 250720Z 23015G25KT 190V260 4500 DZ FEW009 BKN011 OVC016 13/11 Q0993=
201008250650 METAR ESMX 250650Z 22015G27KT 7000 DZ FEW009 BKN012 OVC016 13/11 Q0993=
201008250620 METAR ESMX 250620Z 23016KT 170V260 9999 -RA FEW010 SCT012 BKN015 12/11 Q0992=
201008250550 METAR ESMX 250550Z 20015KT 160V230 7000 -RA FEW007 SCT011 BKN014 12/11 Q0992=
201008250520 METAR ESMX 250520Z 19014KT 8000 -RA FEW006 SCT008 OVC011 12/11 Q0993=
201008250450 METAR ESMX 250450Z 19013KT 6000 -RA FEW006 SCT009 BKN011 11/10 Q0993=
201008250420 METAR ESMX 250420Z 19013KT 9999 -RA FEW008 SCT010 BKN015 11/10 Q0994=
201008250350 METAR ESMX 250350Z 18013KT 9999 DZ FEW009 SCT020 BKN025 11/10 Q0994=
201008250320 METAR ESMX 250320Z AUTO 19012KT 7000NDV FEW012/// SCT020/// BKN026/// 11/09 Q0994=
201008250250 METAR ESMX 250250Z AUTO 19012KT 9999NDV -RA FEW019/// SCT024/// BKN028/// 11/09 Q0995 REDZ=
201008250220 METAR ESMX 250220Z AUTO 20013KT 9999NDV FEW031/// SCT067/// 11/08 Q0995=
201008250150 METAR ESMX 250150Z AUTO 20012KT 9999NDV FEW021/// SCT026/// 11/08 Q0995=
201008250120 METAR ESMX 250120Z AUTO 19010KT 9999NDV FEW023/// 11/09 Q0996=
201008250050 METAR ESMX 250050Z AUTO 19011KT 9999NDV FEW021/// BKN025/// BKN038/// 11/09 Q0996=
201008250020 METAR ESMX 250020Z AUTO 19011KT 9999NDV FEW024/// SCT046/// BKN056/// 12/09 Q0996=
201008242350 METAR ESMX 242350Z 19011KT 9999 FEW045 11/09 Q0996=
201008242320 METAR ESMX 242320Z 20010KT CAVOK 11/09 Q0997=
201008242250 METAR ESMX 242250Z 20011KT CAVOK 11/08 Q0997=
201008242220 METAR ESMX 242220Z 21010KT CAVOK 11/08 Q0997=
201008242150 METAR ESMX 242150Z 19010KT 9999 FEW040 SCT066 12/09 Q0997=
201008242120 METAR ESMX 242120Z 19010KT 9999 FEW037 12/09 Q0997=
201008242050 METAR ESMX 242050Z 20011KT CAVOK 12/09 Q0997=
201008242020 METAR ESMX 242020Z 20011KT 160V230 9999 FEW028 SCT039 13/09 Q0998=
201008241950 METAR ESMX 241950Z 21010KT 9999 SCT030 13/10 Q0997=
201008241920 METAR ESMX 241920Z 21010KT 9999 FEW022 SCT045 13/10 Q0997=
201008241850 METAR ESMX 241850Z 21012KT 180V250 9999 FEW028 SCT040 13/10 Q0998=
201008241820 METAR ESMX 241820Z 21011KT 9999 FEW025 SCT045 14/10 Q0997=
201008241750 METAR ESMX 241750Z 22015KT 9999 FEW030CB SCT050 14/09 Q0997=
201008241720 METAR ESMX 241720Z 23017KT 9999 FEW028 SCT038 15/10 Q0997=
201008241650 METAR ESMX 241650Z 21013KT 190V250 9999 BKN032 15/11 Q0997=
201008241620 METAR ESMX 241620Z 23014KT 9999 FEW020 SCT030 BKN062 15/12 Q0997=
201008241550 METAR ESMX 241550Z 23014KT 200V260 9999 FEW027 SCT055 15/12 Q0997=
201008241520 METAR ESMX 241520Z 22015KT 9999 VCSH SCT026CB SCT081 15/12 Q0997=
201008241450 METAR ESMX 241450Z 21016KT 9999 RA FEW025CB SCT030 17/12 Q0996=
201008241420 METAR ESMX 241420Z 22019KT 9999 VCSH SCT035CB BKN046 18/11 Q0996=
201008241350 METAR ESMX 241350Z 23015KT 190V280 9999 VCSH SCT035CB BKN045 18/10 Q0996=
201008241320 METAR ESMX 241320Z 23020KT 9999 FEW033 SCT039 19/12 Q0996=
201008241250 METAR ESMX 241250Z 24014KT 200V270 9999 SCT028 18/12 Q0996=
201008241220 METAR ESMX 241220Z 23014KT 190V260 9999 SCT023 17/13 Q0996=
201008241150 METAR ESMX 241150Z 24012KT 210V270 9999 FEW017CB SCT028 16/12 Q0996=
201008241120 METAR ESMX 241120Z 23011KT 200V280 9999 FEW020CB SCT032 15/13 Q0995=
201008241050 METAR ESMX 241050Z 22009KT 200V260 9999 FEW006 SCT025CB 16/14 Q0995 RERA=
201008241020 METAR ESMX 241020Z 22018KT 9999 RA FEW027CB SCT029 BKN034 17/11 Q0994=
201008240950 METAR ESMX 240950Z 22016KT 190V260 9999 FEW026 SCT033 BKN040 17/11 Q0994=
201008240920 METAR ESMX 240920Z 21016KT 9999 SCT024 17/12 Q0994=
201008240850 METAR ESMX 240850Z 22014KT 180V250 9999 FEW020 SCT039 17/13 Q0994=
201008240820 METAR ESMX 240820Z 23013KT 200V260 9999 SCT014 BKN024 16/13 Q0993 REDZ=
201008240750 METAR ESMX 240750Z 23013KT 200V260 9999 SCT013 BKN020 16/13 Q0993=
201008240720 METAR ESMX 240720Z 22009KT 190V260 9999 SCT015 BKN040 16/13 Q0993=
201008240650 METAR COR ESMX 240650Z 21010KT 9999 SCT016 BKN040 15/13 Q0992=
201008240620 METAR ESMX 240620Z 21009KT 170V240 9999 SCT014 BKN050 15/14 Q0992=
201008240550 METAR ESMX 240550Z 21011KT 9999 SCT014 BKN035 15/14 Q0992=
201008240520 METAR ESMX 240520Z 18012KT 140V210 9999 -RA FEW007 OVC009 15/14 Q0992 RERA=
201008240450 METAR ESMX 240450Z 17008KT 140V210 9000 -RA OVC010 15/13 Q0992=
201008240420 METAR ESMX 240420Z 18010KT 150V210 9999 OVC010 15/13 Q0992=
201008240350 METAR ESMX 240350Z 18008KT 9999 FEW011 OVC015 14/13 Q0992=
201008240320 METAR ESMX 240320Z AUTO 18009KT 9999NDV FEW021/// 14/12 Q0992=
201008240250 METAR ESMX 240250Z AUTO 18009KT 9999NDV FEW015/// SCT022/// 14/12 Q0992=
201008240220 METAR ESMX 240220Z AUTO 19010KT 9999NDV FEW016/// SCT019/// BKN022/// 14/13 Q0992=
201008240150 METAR ESMX 240150Z AUTO 20010KT 9999NDV FEW013/// SCT022/// BKN028/// 15/13 Q0992=
201008240120 METAR ESMX 240120Z AUTO 21008KT 9999NDV FEW016/// BKN021/// BKN031/// 15/13 Q0992=
201008240050 METAR ESMX 240050Z AUTO 20014G25KT 9999NDV FEW015/// BKN027/// 16/14 Q0992=
201008240020 METAR ESMX 240020Z AUTO 19011KT 9999NDV FEW011/// SCT016/// BKN020/// 16/15 Q0992=
201008232350 METAR ESMX 232350Z 21010KT 9999 FEW033 17/15 Q0992=
201008232320 METAR ESMX 232320Z 20015KT 170V240 9999 FEW012 SCT025 17/15 Q0992=
201008232250 METAR ESMX 232250Z 18010KT 150V220 9999 FEW006 BKN015 18/17 Q0992=
201008232220 METAR ESMX 232220Z 17007KT 140V200 9999 FEW004 SCT006 BKN008 17/16 Q0992=
201008232150 METAR ESMX 232150Z 16007KT 110V200 9999 BKN003 OVC007 17/16 Q0993 RERA=
201008232120 METAR ESMX 232120Z VRB02KT 7000 -RA FEW003 SCT006 BKN008 16/15 Q0993=
201008232050 METAR ESMX 232050Z 15006KT 090V190 6000 RA FEW005 SCT014 BKN030 16/15 Q0994=
201008232020 METAR ESMX 232020Z 15006KT 100V220 6000 -RA OVC004 15/15 Q0994 REDZ=
201008231950 METAR ESMX 231950Z 13006KT 070V180 7000 RA BKN005 OVC008 15/14 Q0995=
201008231920 METAR ESMX 231920Z 10006KT 050V150 6000 +RA FEW006 SCT010 OVC015 15/14 Q0995=
201008231850 METAR ESMX 231850Z 10006KT 030V150 7000 -RA BKN019 OVC027 14/13 Q0996=
201008231820 METAR ESMX 231820Z 10004KT 050V160 9999 RA FEW024 SCT034 BKN060 14/13 Q0997=
201008231750 METAR ESMX 231750Z 12005KT 070V190 9999 -RA FEW030 BKN060 15/12 Q0998=
201008231720 METAR ESMX 231720Z 15006KT 080V190 9999 -RA FEW048 SCT078 16/12 Q0999=
201008231650 METAR ESMX 231650Z 15006KT 110V190 9999 -RA FEW035 17/12 Q0999=
201008231620 METAR ESMX 231620Z 15007KT 110V200 9999 FEW031 18/12 Q1000=
201008231550 METAR ESMX 231550Z VRB02KT CAVOK 18/11 Q1000=
201008231520 METAR ESMX 231520Z 15003KT 110V190 CAVOK 18/11 Q1001=
201008231450 METAR ESMX 231450Z 15004KT 080V200 9999 FEW040 19/10 Q1002=
201008231420 METAR ESMX 231420Z 15007KT 120V180 9999 FEW040 19/10 Q1002=
201008231350 METAR ESMX 231350Z 16006KT 110V210 9999 FEW040 20/09 Q1003=
201008231320 METAR ESMX 231320Z 18007KT 9999 FEW040 19/08 Q1003=
201008231250 METAR ESMX 231250Z 21004KT 9999 SCT036 19/09 Q1003=
201008231220 METAR ESMX 231220Z 17006KT 100V210 9999 SCT036 19/09 Q1004=
201008231150 METAR ESMX 231150Z 19008KT 150V230 9999 SCT036 19/10 Q1004=
201008231120 METAR ESMX 231120Z 23007KT 190V260 9999 SCT034 19/11 Q1005=
201008231050 METAR ESMX 231050Z 21007KT 160V260 9999 BKN032 19/10 Q1005=
201008231020 METAR ESMX 231020Z 23007KT 200V290 9999 SCT030 18/10 Q1005=
201008230950 METAR ESMX 230950Z 24008KT 9999 SCT030 18/11 Q1005=
201008230920 METAR ESMX 230920Z 23007KT 190V250 9999 FEW024 BKN027 16/11 Q1006=
201008230850 METAR ESMX 230850Z 21006KT 170V240 9999 SCT022 BKN029 16/10 Q1006=
201008230820 METAR ESMX 230820Z 22006KT 170V260 9999 FEW020 BKN024 16/11 Q1006=
201008230750 METAR ESMX 230750Z 22005KT 180V260 9999 FEW014 BKN022 15/10 Q1006=
201008230720 METAR ESMX 230720Z 26006KT 9999 FEW015 15/11 Q1006=
201008230650 METAR ESMX 230650Z 23005KT 9999 FEW012 14/12 Q1006=
201008230620 METAR ESMX 230620Z 21005KT 180V240 CAVOK 13/13 Q1006=
201008230550 METAR ESMX 230550Z 20005KT CAVOK 12/11 Q1006=
201008230520 METAR ESMX 230520Z 19004KT 0750 R01/0800V1300U R19/0800V1500U FG VV002 11/11 Q1007=
201008230450 METAR ESMX 230450Z 21005KT 0200 R01/0375V0550N R19/0800V1800U FG VV002 11/10 Q1006=
201008230420 METAR ESMX 230420Z 21005KT 0800 R01/1300 R19/2000 BCFG FEW018 10/10 Q1006=
201008230350 METAR ESMX 230350Z 21005KT 8000 MIFG BR FEW018 10/10 Q1007=
201008230320 METAR ESMX 230320Z AUTO 23004KT 1000NDV R01/P2000N R19/P2000N NCD 10/10 Q1006=
201008230250 METAR ESMX 230250Z AUTO 24003KT 210V280 0600NDV R01/P2000N R19/P2000N NCD 11/10 Q1006=
201008230220 METAR ESMX 230220Z AUTO 26002KT 9999NDV NCD 11/10 Q1007=
201008230150 METAR ESMX 230150Z AUTO 28004KT 240V300 9999NDV NCD 12/11 Q1007=
201008230120 METAR ESMX 230120Z AUTO 27004KT 9999NDV FEW015/// SCT019/// 12/12 Q1007=
201008230050 METAR ESMX 230050Z AUTO 22004KT 9999NDV NCD 12/12 Q1007=
201008230020 METAR ESMX 230020Z AUTO 21004KT 170V260 9999NDV NCD 12/12 Q1007=
201008222350 METAR ESMX 222350Z 23004KT CAVOK 12/12 Q1007=
201008222320 METAR ESMX 222320Z 21005KT CAVOK 12/12 Q1007=
201008222250 METAR ESMX 222250Z 21004KT CAVOK 13/12 Q1007=
201008222220 METAR ESMX 222220Z 22005KT CAVOK 13/12 Q1007=
201008222150 METAR ESMX 222150Z 20005KT CAVOK 13/12 Q1007=
201008222120 METAR ESMX 222120Z 22005KT CAVOK 13/12 Q1007=
201008222050 METAR ESMX 222050Z 22004KT CAVOK 13/12 Q1007=
201008222020 METAR ESMX 222020Z 20005KT CAVOK 13/12 Q1007=
201008221950 METAR ESMX 221950Z 22005KT CAVOK 13/11 Q1008=
201008221920 METAR ESMX 221920Z 23004KT CAVOK 14/11 Q1008=
201008221850 METAR ESMX 221850Z 23004KT 200V260 CAVOK 14/11 Q1007=
201008221820 METAR ESMX 221820Z 23004KT CAVOK 15/12 Q1007=
201008221750 METAR ESMX 221750Z 26006KT CAVOK 17/12 Q1007=
201008221720 METAR ESMX 221720Z 25007KT 9999 FEW025 18/12 Q1007=
201008221650 METAR ESMX 221650Z 26007KT 230V300 9999 FEW025 18/12 Q1008=
201008221620 METAR ESMX 221620Z 26008KT 9999 FEW029 19/12 Q1008=
201008221550 METAR ESMX 221550Z 26007KT 9999 FEW020 18/13 Q1008=
201008221520 METAR ESMX 221520Z 25006KT 200V290 9999 FEW020 18/13 Q1008=
201008221450 METAR ESMX 221450Z 27009KT 230V300 9999 FEW021 18/13 Q1008=
201008221420 METAR ESMX 221420Z 29010KT 9999 SCT018 19/14 Q1008=
201008221350 METAR ESMX 221350Z 26012KT 230V300 9999 FEW015 SCT021 BKN025 18/14 Q1009=
201008221320 METAR ESMX 221320Z 26011KT 230V300 9999 FEW014 SCT022 BKN025 19/15 Q1009=
201008221250 METAR ESMX 221250Z 24009KT 9999 FEW013 BKN016 OVC020 18/15 Q1009=
201008221220 METAR ESMX 221220Z 27007KT 220V300 9999 FEW013 BKN015 BKN044 18/15 Q1009=
201008221150 METAR ESMX 221150Z AUTO 26008KT 220V300 9999NDV FEW010/// SCT016/// OVC021/// 17/15 Q1009=
201008221120 METAR ESMX 221120Z AUTO 28006KT 240V310 9999NDV BR FEW008/// OVC011/// 16/15 Q1009 REDZ=
201008221050 METAR ESMX 221050Z AUTO 28006KT 240V320 8000NDV FEW007/// SCT010/// BKN015/// 17/15 Q1009=
201008221020 METAR ESMX 221020Z AUTO 29008KT 9999NDV FEW006/// SCT008/// BKN009/// 17/15 Q1009=
201008220950 METAR ESMX 220950Z AUTO 29010KT 9999NDV FEW006/// SCT010/// BKN020/// 18/16 Q1009 RESHRA=
201008220920 METAR ESMX 220920Z AUTO 21010KT 160V250 3500NDV RA FEW005/// SCT015/// BKN019/// 19/17 Q1009=
201008220850 METAR ESMX 220850Z AUTO 21012KT 160V230 9999NDV FEW012/// SCT016/// BKN023/// 19/17 Q1009=
201008220820 METAR ESMX 220820Z AUTO 21009KT 170V240 9999NDV FEW012/// SCT014/// BKN021/// 19/17 Q1009=
201008220750 METAR ESMX 220750Z AUTO 22010KT 9999NDV FEW008/// SCT011/// BKN014/// 19/17 Q1009=
201008220720 METAR ESMX 220720Z AUTO 22010KT 180V270 9999NDV FEW008/// SCT009/// OVC011/// 19/17 Q1009=
201008220650 METAR ESMX 220650Z AUTO 21010KT 9999NDV FEW006/// BKN008/// OVC014/// 18/17 Q1010=
201008220620 METAR ESMX 220620Z AUTO 19010KT 5000NDV BR FEW005/// SCT008/// BKN010/// 18/17 Q1010=
201008220550 METAR ESMX 220550Z AUTO 19010KT 7000NDV DZ FEW005/// SCT007/// BKN010/// 17/16 Q1010=
201008220520 METAR ESMX 220520Z AUTO 19010KT 7000NDV -RA FEW006/// BKN008/// OVC011/// 17/16 Q1010=
201008220450 METAR ESMX 220450Z AUTO 19009KT 9999NDV -DZ FEW006/// SCT008/// OVC010/// 17/16 Q1011=
201008220420 METAR ESMX 220420Z AUTO 20009KT 9999NDV FEW006/// OVC009/// 17/16 Q1011 REDZ=
201008220350 METAR ESMX 220350Z AUTO 19006KT 9999NDV FEW006/// SCT008/// OVC010/// 17/16 Q1011=
201008220320 METAR ESMX 220320Z AUTO 20006KT 9999NDV FEW007/// SCT010/// BKN015/// 17/16 Q1011=
201008220250 METAR ESMX 220250Z AUTO 21007KT 9999NDV FEW005/// BKN008/// OVC016/// 17/16 Q1012=
201008220220 METAR ESMX 220220Z AUTO 22006KT 9999NDV FEW007/// SCT008/// BKN009/// 17/16 Q1012=
201008220150 METAR ESMX 220150Z AUTO 22006KT 190V250 9999NDV FEW006/// SCT008/// BKN012/// 17/16 Q1013=
201008220120 METAR ESMX 220120Z AUTO 24006KT 200V270 6000NDV FEW007/// SCT010/// BKN013/// 17/16 Q1013=
201008220050 METAR ESMX 220050Z AUTO 22009KT 190V260 9999NDV FEW007/// SCT010/// BKN014/// 18/16 Q1013=
201008220020 METAR ESMX 220020Z AUTO 23009KT 9999NDV FEW006/// SCT008/// BKN011/// 18/17 Q1013=
201008212350 METAR ESMX 212350Z AUTO 21007KT 9999NDV FEW004/// SCT007/// BKN009/// 18/17 Q1013=
201008212320 METAR ESMX 212320Z AUTO 22007KT 4100NDV FEW005/// SCT009/// BKN025/// 18/17 Q1013=
201008212250 METAR ESMX 212250Z AUTO 23008KT 9999NDV FEW005/// SCT007/// BKN009/// 18/17 Q1014=
201008212220 METAR ESMX 212220Z AUTO 21007KT 4600NDV FEW005/// SCT008/// BKN011/// 18/17 Q1014 REDZ=
201008212150 METAR ESMX 212150Z AUTO 23006KT 9999NDV FEW006/// SCT009/// BKN010/// 18/17 Q1014=
201008212120 METAR ESMX 212120Z AUTO 21007KT 9999NDV BR FEW006/// SCT008/// BKN010/// 18/17 Q1014=
201008212050 METAR ESMX 212050Z AUTO 23007KT 210V270 9999NDV FEW006/// SCT009/// OVC011/// 18/17 Q1014=
201008212020 METAR ESMX 212020Z AUTO 23008KT 190V260 8000NDV BR FEW006/// SCT008/// BKN010/// 18/17 Q1014=
201008211950 METAR ESMX 211950Z AUTO 22007KT 180V250 9999NDV -DZ FEW006/// SCT009/// BKN011/// 18/17 Q1015=
201008211920 METAR ESMX 211920Z AUTO 22011KT 190V250 8000NDV DZ FEW008/// BKN011/// BKN019/// 18/17 Q1015=
201008211850 METAR ESMX 211850Z AUTO 21009KT 8000NDV DZ FEW012/// BKN014/// BKN019/// 19/17 Q1015=
201008211820 METAR ESMX 211820Z 24007KT 210V280 9999 BKN013 OVC019 19/17 Q1015=
201008211750 METAR ESMX 211750Z 23010KT 200V290 9999 FEW015 SCT017 BKN020 20/17 Q1015=
201008211720 METAR ESMX 211720Z 25008KT 210V280 9999 FEW016 SCT019 BKN033 20/16 Q1015=
201008211650 METAR ESMX 211650Z 24008KT 210V280 9999 FEW015 BKN033 20/17 Q1015=
201008211620 METAR ESMX 211620Z 25008KT 210V280 9999 FEW015 BKN025 20/17 Q1015=
201008211550 METAR ESMX 211550Z 23010KT 200V260 9999 FEW015 BKN025 21/17 Q1015=
201008211520 METAR ESMX 211520Z AUTO 24009KT 200V270 9999NDV FEW016/// SCT019/// BKN021/// 20/17 Q1016=
201008211450 METAR ESMX 211450Z AUTO 25011KT 9999NDV FEW016/// OVC019/// 21/17 Q1016=
201008211420 METAR ESMX 211420Z AUTO 25012KT 220V280 9999NDV FEW016/// SCT022/// BKN036/// 21/17 Q1016=
201008211350 METAR ESMX 211350Z AUTO 25014KT 220V280 9999NDV FEW023/// SCT028/// BKN035/// 22/16 Q1015=
201008211320 METAR ESMX 211320Z AUTO 24011KT 9999NDV BKN024/// BKN037/// 23/17 Q1015=
201008211250 METAR ESMX 211250Z AUTO 23009KT 200V260 9999NDV FEW023/// SCT027/// OVC030/// 22/17 Q1016=
201008211220 METAR ESMX 211220Z AUTO 24009KT 200V260 9999NDV FEW024/// SCT030/// BKN039/// 23/17 Q1016=
201008211150 METAR ESMX 211150Z AUTO 23011KT 9999NDV FEW024/// BKN028/// OVC036/// 21/16 Q1016=
201008211120 METAR ESMX 211120Z AUTO 23009KT 9999NDV OVC030/// 22/16 Q1016=
201008211050 METAR ESMX 211050Z AUTO 23011KT 9999NDV BKN033/// 23/16 Q1016=
201008211020 METAR ESMX 211020Z AUTO 21014KT 9999NDV NCD 24/15 Q1016=
201008210950 METAR ESMX 210950Z AUTO 22014KT 190V250 9999NDV FEW053/// 23/15 Q1016=
201008210920 METAR ESMX 210920Z AUTO 21011KT 170V240 9999NDV FEW053/// 23/16 Q1016=
201008210850 METAR ESMX 210850Z AUTO 20011KT 9999NDV NCD 22/16 Q1016=
201008210820 METAR ESMX 210820Z AUTO 20010KT 9999NDV NCD 20/16 Q1016=
201008210750 METAR ESMX 210750Z AUTO 19009KT 9999NDV FEW067/// 20/15 Q1016=
201008210720 METAR ESMX 210720Z AUTO 19009KT 9999NDV OVC046/// 19/15 Q1017=
201008210650 METAR ESMX 210650Z AUTO 19009KT 9999NDV OVC048/// 18/15 Q1017=
201008210620 METAR ESMX 210620Z AUTO 19008KT 9999NDV FEW045/// SCT054/// BKN110/// 18/15 Q1017=
201008210550 METAR ESMX 210550Z AUTO 19008KT 9999NDV FEW046/// OVC052/// 17/15 Q1017=
201008210520 METAR ESMX 210520Z AUTO 18006KT 9999NDV FEW035/// BKN052/// 16/14 Q1017=
201008210450 METAR ESMX 210450Z AUTO 19006KT 9999NDV NCD 15/14 Q1017=
201008210420 METAR ESMX 210420Z AUTO 18006KT 9999NDV BKN054/// 15/14 Q1017=
201008210350 METAR ESMX 210350Z AUTO 18007KT 9999NDV OVC057/// 16/14 Q1017=
201008210320 METAR ESMX 210320Z AUTO 17005KT 9999NDV FEW050/// BKN061/// 15/14 Q1017=
201008210250 METAR ESMX 210250Z AUTO 18005KT 150V210 9999NDV SCT044/// OVC057/// 15/14 Q1017=
201008210220 METAR ESMX 210220Z AUTO 17006KT 140V210 9999NDV FEW038/// OVC042/// 15/14 Q1017=
201008210150 METAR ESMX 210150Z AUTO 16005KT 130V200 9999NDV OVC039/// 15/14 Q1017 RESHRA=
201008210120 METAR ESMX 210120Z AUTO 18004KT 150V230 4800NDV -RA FEW004/// BKN039/// 15/14 Q1018 RERA=
201008210050 METAR ESMX 210050Z AUTO 20007KT 4600NDV -RA FEW029/// 15/14 Q1018 REDZ=
201008210020 METAR ESMX 210020Z AUTO 20007KT 9999NDV -DZ BKN031/// BKN091/// 15/14 Q1018=
201008202350 METAR ESMX 202350Z AUTO 19008KT 9999NDV -DZ BKN031/// 16/14 Q1018=
201008202320 METAR ESMX 202320Z AUTO 20005KT 9999NDV -DZ OVC033/// 16/14 Q1018=
201008202250 METAR ESMX 202250Z AUTO 18006KT 140V200 9999NDV FEW016/// OVC036/// 16/14 Q1018=
201008202220 METAR ESMX 202220Z AUTO 17005KT 130V200 9999NDV DZ FEW018/// BKN037/// 16/13 Q1018=
201008202150 METAR ESMX 202150Z AUTO 17004KT 140V200 9999NDV OVC035/// 16/13 Q1018=
201008202120 METAR ESMX 202120Z AUTO 17004KT 140V200 9999NDV OVC036/// 16/14 Q1018=
201008202050 METAR ESMX 202050Z AUTO 19004KT 9999NDV OVC039/// 17/13 Q1018=
201008202020 METAR ESMX 202020Z AUTO 20005KT 160V220 9999NDV BKN042/// OVC061/// 16/13 Q1018=
201008201950 METAR ESMX 201950Z AUTO 21005KT 9999NDV SCT034/// BKN040/// OVC047/// 17/13 Q1018=
201008201920 METAR ESMX 201920Z AUTO 18004KT 9999NDV FEW028/// OVC038/// 17/13 Q1019=
201008201850 METAR ESMX 201850Z 20002KT 9999 FEW044 SCT057 OVC062 17/13 Q1019=
201008201820 METAR ESMX 201820Z 23002KT CAVOK 17/13 Q1019=
201008201750 METAR ESMX 201750Z 21003KT 9999 BKN069 18/13 Q1018=
201008201720 METAR ESMX 201720Z 23003KT 9999 FEW045 18/12 Q1018=
201008201650 METAR ESMX 201650Z 24005KT 210V270 9999 FEW045 18/12 Q1018=
201008201620 METAR ESMX 201620Z 26006KT 9999 FEW030 SCT096 19/12 Q1018=
201008201550 METAR ESMX 201550Z 24005KT 210V280 9999 FEW040 19/11 Q1018=
201008201520 METAR ESMX 201520Z 25008KT 210V290 9999 FEW040 SCT060 19/10 Q1018=
201008201450 METAR ESMX 201450Z 26010KT 230V290 9999 FEW043 SCT057 20/09 Q1018=
201008201420 METAR ESMX 201420Z 22008KT 170V270 9999 FEW041 SCT054 20/10 Q1018=
201008201350 METAR ESMX 201350Z 23008KT 190V280 9999 FEW045 20/11 Q1018=
201008201320 METAR ESMX 201320Z 23009KT 200V260 9999 FEW048 SCT060 21/11 Q1018=
201008201250 METAR ESMX 201250Z 27010KT 220V290 9999 FEW028 SCT047 20/09 Q1018=
201008201220 METAR ESMX 201220Z 25010KT 200V280 9999 FEW046 SCT058 21/11 Q1018=
201008201150 METAR ESMX 201150Z 24007KT 200V280 9999 SCT043 20/11 Q1018=
201008201120 METAR ESMX 201120Z 29008KT 250V320 9999 SCT037 18/11 Q1018=
201008201050 METAR ESMX 201050Z 22008KT 200V260 9999 FEW033 19/12 Q1018=
201008201020 METAR ESMX 201020Z 25009KT 220V290 9999 FEW030 SCT042 18/12 Q1018=
201008200950 METAR ESMX 200950Z 22008KT 170V260 9999 FEW028 SCT033 BKN039 19/12 Q1018=
201008200920 METAR ESMX 200920Z 25008KT 210V280 9999 SCT029 18/12 Q1018=
201008200850 METAR ESMX 200850Z 24009KT 9999 SCT025 18/12 Q1018=
201008200820 METAR ESMX 200820Z 26009KT 220V290 9999 SCT022 17/11 Q1018=
201008200750 METAR ESMX 200750Z 25008KT 210V280 9999 SCT022 17/12 Q1017=
201008200720 METAR ESMX 200720Z 26009KT 220V290 9999 SCT016 16/13 Q1017=
201008200650 METAR ESMX 200650Z 22007KT 180V260 9999 SCT012 15/13 Q1017=
201008200620 METAR ESMX 200620Z 25005KT 210V280 CAVOK 14/13 Q1017=
201008200550 METAR ESMX 200550Z 21004KT CAVOK 13/12 Q1017=
201008200520 METAR ESMX 200520Z 22004KT CAVOK 12/11 Q1017=
201008200450 METAR ESMX 200450Z 21005KT CAVOK 10/10 Q1017=
201008200420 METAR ESMX 200420Z 21005KT CAVOK 10/09 Q1016=
201008200350 METAR ESMX 200350Z 21005KT 9999 FEW022 09/09 Q1016=
201008200320 METAR ESMX 200320Z AUTO 21005KT 3900NDV NCD 10/09 Q1016=
201008200250 METAR ESMX 200250Z AUTO 22005KT 8000NDV SCT021/// BKN026/// 10/09 Q1016=
201008200220 METAR ESMX 200220Z AUTO 21004KT 3100NDV BR FEW020/// 10/09 Q1016=
201008200150 METAR ESMX 200150Z AUTO 21004KT 9999NDV NCD 10/09 Q1016=
201008200120 METAR ESMX 200120Z AUTO 21003KT 8000NDV NCD 10/10 Q1015=
201008200050 METAR ESMX 200050Z AUTO 22001KT 3200NDV NCD 10/09 Q1015=
201008200020 METAR ESMX 200020Z AUTO 25004KT 9999NDV NCD 11/10 Q1015=
201008192350 METAR ESMX 192350Z AUTO 25003KT 9999NDV NCD 11/10 Q1015=
201008192320 METAR ESMX 192320Z 26004KT CAVOK 12/10 Q1015=
201008192250 METAR ESMX 192250Z 26004KT CAVOK 12/10 Q1014=
201008192220 METAR ESMX 192220Z 27003KT CAVOK 12/11 Q1014=
201008192150 METAR ESMX 192150Z 26005KT CAVOK 13/11 Q1014=
201008192120 METAR ESMX 192120Z 26005KT CAVOK 13/11 Q1013=
201008192050 METAR ESMX 192050Z 26004KT CAVOK 13/11 Q1013=
201008192020 METAR ESMX 192020Z 26003KT CAVOK 14/11 Q1013=
201008191950 METAR ESMX 191950Z 26005KT CAVOK 14/11 Q1012=
201008191920 METAR ESMX 191920Z 26004KT CAVOK 15/11 Q1012=
201008191850 METAR ESMX 191850Z 28005KT CAVOK 16/11 Q1011=
201008191820 METAR ESMX 191820Z 28007KT 250V310 9999 FEW025 SCT070 17/12 Q1011=
201008191750 METAR ESMX 191750Z 28004KT 240V310 9999 FEW035 BKN072 18/13 Q1011=
201008191720 METAR ESMX 191720Z 27005KT 9999 FEW035 BKN070 17/13 Q1010=
201008191650 METAR ESMX 191650Z 28007KT 9999 FEW025 BKN070 17/13 Q1010=
201008191620 METAR ESMX 191620Z 28008KT 240V320 9999 FEW025 BKN064 17/13 Q1010=
201008191550 METAR ESMX 191550Z 28008KT 9999 FEW025 SCT070 17/13 Q1009=
201008191520 METAR ESMX 191520Z 28007KT 250V320 9999 -RA FEW025 SCT070 17/13 Q1009=
201008191450 METAR ESMX 191450Z 29006KT 260V330 9999 FEW025 SCT068 17/14 Q1009=
201008191420 METAR ESMX 191420Z 30007KT 270V330 9999 FEW025 BKN057 17/13 Q1008=
201008191350 METAR ESMX 191350Z 29006KT 260V330 9999 -DZ FEW027 BKN055 17/14 Q1008=
201008191320 METAR ESMX 191320Z 29008KT 260V340 9999 FEW020 SCT046 17/14 Q1008 REDZ=
201008191250 METAR ESMX 191250Z 29005KT 250V330 9999 SCT016 BKN025 16/13 Q1007 RERA=
201008191220 METAR ESMX 191220Z 27008KT 240V320 9999 -DZ SCT020 BKN055 16/13 Q1007=
201008191150 METAR ESMX 191150Z 30008KT 270V330 9999 -RA FEW020 BKN056 17/13 Q1007=
201008191120 METAR ESMX 191120Z 30008KT 9999 -RA FEW019 SCT028 BKN035 17/13 Q1006=
201008191050 METAR ESMX 191050Z 30010KT 270V340 9999 SCT018 BKN054 17/13 Q1006=
201008191020 METAR ESMX 191020Z 31007KT 9999 SCT020 BKN055 17/12 Q1006=
201008190950 METAR ESMX 190950Z 30009KT 260V330 9999 SCT018 BKN050 17/13 Q1005=
201008190920 METAR ESMX 190920Z 28008KT 9999 FEW019 BKN065 16/13 Q1005=
201008190850 METAR ESMX 190850Z 28009KT 250V310 9999 FEW014 SCT019 BKN025 16/12 Q1005=
201008190820 METAR ESMX 190820Z 27007KT 220V300 9999 FEW015 SCT023 BKN069 16/13 Q1005=
201008190750 METAR ESMX 190750Z 24006KT 210V290 9999 -DZ FEW013 SCT066 15/13 Q1004=
201008190720 METAR ESMX 190720Z 27006KT 210V290 9999 -RA FEW011 SCT052 15/13 Q1004=
201008190650 METAR ESMX 190650Z 25005KT 210V290 9999 FEW012 SCT040 14/12 Q1004=
201008190620 METAR ESMX 190620Z 25006KT 210V300 9999 FEW007 SCT024 BKN034 14/12 Q1004=
201008190550 METAR ESMX 190550Z 24005KT 200V270 9999 FEW006 OVC056 14/12 Q1004=
201008190520 METAR ESMX 190520Z 23005KT 9999 FEW006 OVC056 14/13 Q1003=
201008190450 METAR ESMX 190450Z 23005KT 200V270 9999 FEW006 SCT012 OVC055 14/13 Q1003=
201008190420 METAR ESMX 190420Z 24005KT 210V270 9999 FEW007 SCT038 BKN050 14/13 Q1003=
201008190350 METAR ESMX 190350Z 26005KT 9999 FEW008 SCT037 BKN048 14/12 Q1002=
201008190320 METAR ESMX 190320Z AUTO VRB06KT 9999NDV BKN041/// 14/13 Q1002=
201008190250 METAR ESMX 190250Z AUTO 25007KT 9999NDV FEW009/// BKN040/// 14/13 Q1002=
201008190220 METAR ESMX 190220Z AUTO 25007KT 220V280 9000NDV FEW007/// SCT011/// BKN027/// 14/14 Q1002=
201008190150 METAR ESMX 190150Z AUTO 24005KT 200V280 4900NDV BR FEW005/// SCT007/// BKN024/// 15/14 Q1002=
201008190120 METAR ESMX 190120Z AUTO 24005KT 200V260 3800NDV BR FEW006/// SCT023/// BKN040/// 15/14 Q1002=
201008190050 METAR ESMX 190050Z AUTO 25004KT 200V300 9999NDV FEW009/// BKN011/// OVC047/// 15/14 Q1002=
201008190020 METAR ESMX 190020Z AUTO 25005KT 210V270 9999NDV FEW009/// OVC012/// 15/14 Q1002=
201008182350 METAR ESMX 182350Z AUTO 24004KT 9999NDV FEW007/// SCT010/// OVC020/// 15/14 Q1002=
201008182320 METAR ESMX 182320Z 24004KT 9999 FEW012 BKN020 15/14 Q1001=
201008182250 METAR ESMX 182250Z 24002KT 9999 SCT033 BKN035 14/13 Q1001=
201008182220 METAR ESMX 182220Z 26004KT 9999 FEW026 BKN032 15/14 Q1001=
201008182150 METAR ESMX 182150Z 25004KT 9999 FEW019 SCT023 BKN031 15/14 Q1001=
201008182120 METAR ESMX 182120Z 20004KT 9999 FEW010 SCT015 BKN025 15/14 Q1001=
201008182050 METAR ESMX 182050Z 20002KT 6000 BR FEW013 SCT018 15/14 Q1000=
201008182020 METAR ESMX 182020Z 18002KT 5000 BR FEW028 SCT043 15/14 Q1000=
201008181950 METAR ESMX 181950Z 17003KT 9999 FEW013 SCT015 BKN020 16/15 Q1000=
201008181920 METAR ESMX 181920Z 16003KT 120V240 9999 FEW017 SCT080 16/15 Q1000=
201008181850 METAR ESMX 181850Z 13003KT 100V160 9999 FEW020 SCT080 16/15 Q1000=
201008181820 METAR ESMX 181820Z 13003KT 100V160 9999 FEW035 SCT080 16/15 Q1000=
201008181750 METAR ESMX 181750Z VRB02KT 9999 FEW035 SCT080 16/15 Q1000=
201008181720 METAR ESMX 181720Z VRB02KT 9999 FEW030 BKN095 16/15 Q1000=
201008181650 METAR ESMX 181650Z VRB02KT 9999 FEW021 SCT028 BKN092 17/15 Q1000=
201008181620 METAR ESMX 181620Z 15003KT 110V180 9999 FEW021 SCT028 BKN092 19/15 Q1000=
201008181550 METAR ESMX 181550Z 16005KT 110V190 9999 FEW019 BKN072 BKN100 19/15 Q1000=
201008181520 METAR ESMX 181520Z 14005KT 100V200 9999 FEW024 SCT085 19/15 Q1000=
201008181450 METAR ESMX 181450Z 13003KT 080V170 9999 FEW020CB SCT051 19/16 Q1000=
201008181420 METAR ESMX 181420Z VRB02KT 9999 FEW020CB SCT051 18/16 Q1000 RERA=
201008181350 METAR ESMX 181350Z 12005KT 060V200 9999 FEW020CB SCT089 20/14 Q1000=
201008181320 METAR ESMX 181320Z 13006KT 070V190 9999 FEW020CB SCT079 BKN100 20/15 Q1000=
201008181250 METAR ESMX 181250Z 15006KT 080V190 9999 FEW020CB BKN080 19/15 Q1000=
201008181220 METAR ESMX 181220Z 14005KT 070V190 9999 FEW030 BKN078 19/14 Q1000=
201008181150 METAR ESMX 181150Z 17007KT 140V200 9999 FEW025 SCT080 18/15 Q1000=
201008181120 METAR ESMX 181120Z 15005KT 100V190 9999 FEW025 BKN080 19/14 Q1000=
201008181050 METAR ESMX 181050Z 11005KT 050V180 9999 FEW025 BKN081 20/14 Q1000=
201008181020 METAR ESMX 181020Z 12006KT 9999 FEW027 SCT036 BKN080 20/13 Q1000=
201008180950 METAR ESMX 180950Z 14004KT 110V170 9999 FEW032 SCT048 BKN061 19/15 Q1001 REDZ=
201008180920 METAR ESMX 180920Z 11004KT 050V180 9999 SCT023 BKN055 19/14 Q1001=
201008180850 METAR ESMX 180850Z 14007KT 080V200 9999 FEW023 BKN045 20/13 Q1001=
201008180820 METAR ESMX 180820Z 13006KT 060V220 9999 SCT021 BKN038 19/14 Q1001=
201008180750 METAR ESMX 180750Z 10004KT 030V170 9999 FEW011 BKN046 19/15 Q1001=
201008180720 METAR ESMX 180720Z 09003KT 020V150 9999 FEW008 BKN040 17/15 Q1001=
201008180650 METAR ESMX 180650Z 07004KT 350V130 9999 SCT007 BKN010 17/15 Q1001=
201008180620 METAR ESMX 180620Z 08004KT 050V150 9999 SCT005 BKN010 16/14 Q1001=
201008180550 METAR ESMX 180550Z 07004KT 010V110 9999 SCT005 BKN011 16/15 Q1001=
201008180520 METAR ESMX 180520Z 08003KT 350V120 9999 SCT005 OVC009 16/15 Q1001=
201008180450 METAR ESMX 180450Z 08003KT 050V120 9999 FEW005 OVC008 16/15 Q1001=
201008180420 METAR ESMX 180420Z 11003KT 050V140 9999 BR OVC009 16/15 Q1001=
201008180350 METAR ESMX 180350Z VRB02KT 8000 BR SCT006 BKN008 15/15 Q1001=
201008180320 METAR ESMX 180320Z AUTO 11004KT 060V150 5000NDV BR FEW001/// BKN004/// OVC006/// 15/15 Q1001=
201008180250 METAR ESMX 180250Z AUTO VRB02KT 3600NDV BR OVC001/// 15/14 Q1001=
201008180220 METAR ESMX 180220Z AUTO VRB01KT 6000NDV BR OVC001/// 15/14 Q1002=
201008180150 METAR ESMX 180150Z AUTO 11003KT 080V160 9999NDV FEW003/// SCT020/// BKN034/// 14/14 Q1002=
201008180120 METAR ESMX 180120Z AUTO 11003KT 080V150 9999NDV FEW004/// SCT020/// BKN035/// 14/14 Q1002=
201008180050 METAR ESMX 180050Z AUTO 11002KT 9999NDV FEW017/// BKN042/// 14/13 Q1002=
201008180020 METAR ESMX 180020Z AUTO VRB02KT 9999NDV FEW004/// SCT091/// 14/13 Q1002=
201008172350 METAR ESMX 172350Z AUTO VRB02KT 1200NDV R01/P2000N R19/P2000N NCD 14/13 Q1002=
201008172320 METAR ESMX 172320Z 17004KT 9999 BKN004 15/14 Q1002=
201008172250 METAR ESMX 172250Z 16006KT 110V190 9999 BKN003 15/14 Q1002=
201008172220 METAR ESMX 172220Z 16005KT 110V210 9999 FEW003 BKN005 15/14 Q1002=
201008172150 METAR ESMX 172150Z 15005KT 110V190 9999 SCT004 15/14 Q1002=
201008172120 METAR ESMX 172120Z 15004KT 110V170 CAVOK 15/14 Q1002=
201008172050 METAR ESMX 172050Z 17005KT 9999 FEW020 16/14 Q1002=
201008172020 METAR ESMX 172020Z 16006KT 9999 FEW020 16/14 Q1002=
201008171950 METAR ESMX 171950Z 16007KT 120V200 9999 FEW016 BKN039 17/14 Q1002=
201008171920 METAR ESMX 171920Z 16007KT 100V200 9999 FEW013 SCT019 BKN021 17/14 Q1002=
201008171850 METAR ESMX 171850Z 16006KT 120V200 9999 FEW012 SCT015 OVC037 17/15 Q1002=
201008171820 METAR ESMX 171820Z 16007KT 140V210 9999 FEW013 OVC031 18/15 Q1002=
201008171750 METAR ESMX 171750Z 16007KT 120V200 9999 FEW013 SCT029 OVC033 18/15 Q1002=
201008171720 METAR ESMX 171720Z 17008KT 9999 SCT013 BKN019 OVC027 18/15 Q1002=
201008171650 METAR ESMX 171650Z 16006KT 120V190 9999 FEW015 SCT018 BKN022 18/15 Q1002=
201008171620 METAR ESMX 171620Z 16007KT 110V210 9999 FEW016 BKN020 OVC027 18/15 Q1002=
201008171550 METAR ESMX 171550Z 17007KT 9999 FEW017 SCT020 OVC025 19/15 Q1002=
201008171520 METAR ESMX 171520Z 16010KT 120V190 9999 FEW014 SCT018 OVC020 19/15 Q1001=
201008171450 METAR ESMX 171450Z 16011KT 110V200 9999 FEW014 SCT019 BKN021 20/16 Q1001=
201008171420 METAR ESMX 171420Z 14010KT 090V180 9999 SCT029 22/16 Q1001=
201008171350 METAR ESMX 171350Z 12009KT 080V170 9999 FEW025 SCT045 BKN053 22/16 Q1001=
201008171320 METAR ESMX 171320Z 10008KT 060V140 9999 FEW025 SCT045 BKN053 23/16 Q1001=
201008171250 METAR ESMX 171250Z 11008KT 050V210 9999 FEW025 SCT030 22/16 Q1001=
201008171220 METAR ESMX 171220Z 13008KT 070V190 9999 SCT020 24/17 Q1001=
201008171150 METAR ESMX 171150Z 08008KT 040V140 9999 SCT015 BKN051 22/19 Q1001=
201008171120 METAR ESMX 171120Z 07010KT 030V110 9999 FEW011 SCT018 22/19 Q1001=
201008171050 METAR ESMX 171050Z 04008KT 350V090 9999 SCT008 BKN012 22/19 Q1001=
201008171020 METAR ESMX 171020Z 05008KT 020V110 9999 FEW007 SCT009 OVC011 20/19 Q1002=
201008170950 METAR ESMX 170950Z 05008KT 020V100 9999 FEW005 SCT015 BKN071 20/19 Q1002=
201008170920 METAR ESMX 170920Z 04010KT 9999 DZ FEW006 BKN011 19/19 Q1002=
201008170850 METAR ESMX 170850Z 04009KT 9999 FEW004 BKN008 19/18 Q1003 RERA=
201008170820 METAR ESMX 170820Z 04008KT 020V100 8000 -RA SCT002 OVC004 19/18 Q1003=
201008170750 METAR ESMX 170750Z 04009KT 360V070 4000 -RA OVC002 18/18 Q1004=
201008170720 METAR ESMX 170720Z 03009KT 350V070 3900 BR OVC002 18/17 Q1004=
201008170650 METAR ESMX 170650Z 03010KT 350V060 4300 BR OVC002 18/17 Q1004=
201008170620 METAR ESMX 170620Z 03009KT 4900 BR OVC002 18/17 Q1005=
201008170550 METAR ESMX 170550Z 04010KT 360V080 5000 BR OVC002 17/17 Q1005=
201008170520 METAR ESMX 170520Z 03010KT 350V060 5000 BR OVC002 17/17 Q1005=
201008170450 METAR ESMX 170450Z 03008KT 4500 BR OVC003 17/16 Q1006=
201008170420 METAR ESMX 170420Z 04008KT 360V080 3100 BR OVC003 17/16 Q1006=
201008170350 METAR ESMX 170350Z 03009KT 360V070 5000 BR OVC003 17/16 Q1007=
201008170320 METAR ESMX 170320Z AUTO 04009KT 350V070 4200NDV BR OVC003/// 17/16 Q1007=
201008170250 METAR ESMX 170250Z AUTO 02009KT 340V050 5000NDV BR OVC003/// 17/16 Q1008=
201008170220 METAR ESMX 170220Z AUTO 03010KT 5000NDV BR FEW003/// OVC004/// 17/16 Q1008=
201008170150 METAR ESMX 170150Z AUTO 03010KT 7000NDV BR OVC003/// 17/16 Q1009=
201008170120 METAR ESMX 170120Z AUTO 03010KT 8000NDV BR OVC004/// 18/17 Q1009=
201008170050 METAR ESMX 170050Z AUTO 04009KT 360V080 9000NDV BR OVC004/// 18/17 Q1010=
201008170020 METAR ESMX 170020Z AUTO 04009KT 020V080 4400NDV BR OVC003/// 18/17 Q1010=
201008162350 METAR ESMX 162350Z 04009KT 3100 BR FEW002 OVC004 19/18 Q1010=
201008162320 METAR ESMX 162320Z 05007KT 020V090 3200 BR OVC003 19/18 Q1011=
201008162250 METAR ESMX 162250Z 05007KT 360V100 5000 BR BKN003 OVC007 19/18 Q1011=
201008162220 METAR ESMX 162220Z 04008KT 020V100 5000 BR OVC004 19/18 Q1011=
201008162150 METAR ESMX 162150Z 04009KT 010V070 9000 OVC006 19/18 Q1012=
201008162120 METAR ESMX 162120Z 06006KT 360V100 9999 OVC007 20/18 Q1012=
201008162050 METAR ESMX 162050Z 06006KT 020V120 9999 OVC008 20/18 Q1012=
201008162020 METAR ESMX 162020Z 06005KT 020V110 9999 OVC010 20/18 Q1013=
201008161950 METAR ESMX 161950Z 04006KT 010V080 9999 OVC014 20/18 Q1013=
201008161920 METAR ESMX 161920Z 05006KT 020V110 9000 OVC015 20/18 Q1013=
201008161850 METAR ESMX 161850Z 07006KT 030V110 9999 BKN016 OVC020 21/17 Q1013=
201008161820 METAR ESMX 161820Z 06005KT 010V100 9999 SCT019 BKN025 21/17 Q1013=
201008161750 METAR ESMX 161750Z 05006KT 340V080 9999 SCT020 BKN026 21/17 Q1013=
201008161720 METAR ESMX 161720Z 06007KT 350V160 9999 SCT021 BKN027 21/17 Q1013=
201008161650 METAR ESMX 161650Z 07007KT 020V130 9999 FEW021 BKN026 22/17 Q1013=
201008161620 METAR ESMX 161620Z 05008KT 010V100 9999 SCT025 22/17 Q1013=
201008161550 METAR ESMX 161550Z 06007KT 350V120 9999 SCT023 BKN059 23/18 Q1013=
201008161520 METAR ESMX 161520Z 05010KT 010V110 9999 BKN025 23/18 Q1013=
201008161450 METAR ESMX 161450Z 07009KT 030V120 9999 BKN025 23/18 Q1013=
201008161420 METAR ESMX 161420Z 04008KT 360V070 9999 SCT025 BKN076 23/18 Q1013=
201008161350 METAR COR ESMX 161350Z 05009KT 020V080 9999 FEW020 BKN100 24/19 Q1013=
201008161320 METAR ESMX 161320Z 05009KT 020V100 9999 FEW016 SCT091 23/18 Q1013=
201008161250 METAR ESMX 161250Z 05011KT 020V080 9999 SCT016 BKN085 23/18 Q1013=
201008161220 METAR ESMX 161220Z 04009KT 360V100 9999 SCT016 BKN085 22/18 Q1014=
201008161150 METAR ESMX 161150Z 05010KT 020V120 9999 BKN016 22/18 Q1014=
201008161120 METAR ESMX 161120Z 07008KT 020V140 9999 BKN015 22/18 Q1014=
201008161050 METAR ESMX 161050Z 07009KT 010V120 9999 OVC015 21/17 Q1014=
201008161020 METAR ESMX 161020Z 04007KT 010V110 9999 BKN010 20/17 Q1014=
201008160950 METAR ESMX 160950Z 05008KT 010V100 9999 BKN008 20/17 Q1014=
201008160920 METAR ESMX 160920Z 05009KT 010V080 9999 OVC008 19/17 Q1014=
201008160850 METAR ESMX 160850Z 05006KT 020V080 9999 OVC008 18/16 Q1015=
201008160820 METAR ESMX 160820Z 05008KT 020V100 9999 OVC009 18/16 Q1015=
201008160750 METAR ESMX 160750Z 04010KT 9999 OVC008 18/16 Q1015=
201008160720 METAR ESMX 160720Z 04008KT 010V080 9999 FEW007 OVC009 17/16 Q1015=
201008160650 METAR ESMX 160650Z 05007KT 360V090 9999 OVC007 17/16 Q1016=
201008160620 METAR ESMX 160620Z 05009KT 020V100 9999 OVC006 17/16 Q1016=
201008160550 METAR ESMX 160550Z 07006KT 020V110 9999 OVC006 17/16 Q1016=
201008160520 METAR ESMX 160520Z 07007KT 010V110 9999 OVC007 17/16 Q1016 REDZ=
201008160450 METAR ESMX 160450Z 05007KT 330V110 9999 OVC008 18/16 Q1016=
201008160420 METAR ESMX 160420Z 06007KT 020V110 9999 BKN008 OVC010 18/16 Q1015=
201008160350 METAR ESMX 160350Z 06009KT 020V100 9999 OVC008 18/16 Q1015=
201008160320 METAR ESMX 160320Z AUTO 04011KT 020V080 9999NDV BKN007/// OVC009/// 18/16 Q1015=
201008160250 METAR ESMX 160250Z AUTO 04011KT 010V070 9999NDV OVC007/// 18/17 Q1015=
201008160220 METAR ESMX 160220Z AUTO 05010KT 020V090 9999NDV OVC007/// 18/17 Q1016=
201008160150 METAR ESMX 160150Z AUTO 05010KT 020V080 9999NDV OVC006/// 18/17 Q1016=
201008160120 METAR ESMX 160120Z AUTO 06007KT 010V080 9999NDV -RA OVC007/// 19/17 Q1016=
201008160050 METAR ESMX 160050Z AUTO 05008KT 010V090 9999NDV OVC008/// 19/17 Q1017 RERA=
201008160020 METAR ESMX 160020Z AUTO 06007KT 030V110 9999NDV -RA OVC009/// 19/17 Q1017=
201008152350 METAR ESMX 152350Z 05008KT 360V110 9999 BKN010 19/17 Q1017=
201008152320 METAR ESMX 152320Z 05009KT 010V080 9999 BKN011 19/16 Q1017=
201008152250 METAR ESMX 152250Z 05008KT 020V110 9999 BKN012 18/16 Q1017=
201008152220 METAR ESMX 152220Z 04008KT 350V090 9999 SCT013 19/16 Q1017=
201008152150 METAR ESMX 152150Z 07007KT 020V120 9999 FEW012 SCT016 BKN095 19/16 Q1017=
201008152120 METAR ESMX 152120Z 07007KT 020V140 9999 BKN015 19/17 Q1018=
201008152050 METAR ESMX 152050Z 08006KT 020V120 9999 SCT012 BKN087 19/17 Q1018=
201008152020 METAR ESMX 152020Z 08005KT 020V140 9999 SCT012 19/17 Q1017=
201008151950 METAR ESMX 151950Z 07003KT 030V110 9999 FEW019 19/17 Q1017=
201008151920 METAR ESMX 151920Z 03003KT 360V060 9999 SCT020 19/17 Q1016=
201008151850 METAR ESMX 151850Z 07003KT 040V110 9999 BKN022 20/17 Q1017=
201008151820 METAR ESMX 151820Z 09004KT 050V110 9999 FEW024 21/17 Q1016=
201008151750 METAR ESMX 151750Z 10004KT 050V140 CAVOK 22/17 Q1016=
201008151720 METAR ESMX 151720Z 10003KT 040V160 CAVOK 22/18 Q1016=
201008151650 METAR ESMX 151650Z 08005KT 040V120 CAVOK 22/17 Q1016=
201008151620 METAR ESMX 151620Z 12004KT 070V170 9999 FEW035 22/18 Q1016=
201008151550 METAR ESMX 151550Z 12003KT 050V200 9999 FEW012 SCT030 21/18 Q1017=
201008151520 METAR ESMX 151520Z 12004KT 070V170 9999 FEW012 BKN017 21/18 Q1017=
201008151450 METAR ESMX 151450Z 12005KT 070V180 9999 FEW009 SCT010 OVC015 20/18 Q1017=
201008151420 METAR ESMX 151420Z 14005KT 090V210 9999 BKN011 OVC017 20/18 Q1017=
201008151350 METAR ESMX 151350Z 14005KT 070V190 9999 BKN011 OVC017 21/18 Q1017=
201008151320 METAR ESMX 151320Z 14007KT 100V180 9999 FEW009 SCT011 BKN020 21/18 Q1017=
201008151250 METAR ESMX 151250Z 12006KT 080V170 9999 FEW005 SCT008 BKN011 20/18 Q1017=
201008151220 METAR ESMX 151220Z 10005KT 040V150 7000 BR FEW006 SCT008 BKN014 20/18 Q1016=
201008151150 METAR ESMX 151150Z 10005KT 050V140 9999 FEW005 BKN007 OVC010 20/18 Q1016=
201008151120 METAR ESMX 151120Z 08005KT 030V120 6000 BR FEW005 OVC011 19/18 Q1016=
201008151050 METAR ESMX 151050Z 10005KT 050V190 4500 -DZ BR FEW009 OVC012 19/18 Q1016=
201008151020 METAR ESMX 151020Z 10004KT 030V170 9999 FEW011 OVC013 20/18 Q1016=
201008150950 METAR ESMX 150950Z 09005KT 030V130 9999 FEW009 OVC011 20/18 Q1016=
201008150920 METAR ESMX 150920Z AUTO 10005KT 060V140 9999NDV OVC009/// 20/17 Q1016=
201008150850 METAR ESMX 150850Z AUTO 10003KT 050V160 9999NDV OVC010/// 20/17 Q1016=
201008150820 METAR ESMX 150820Z AUTO 07005KT 020V120 9999NDV OVC011/// 19/17 Q1016=
201008150750 METAR ESMX 150750Z AUTO 09005KT 040V170 9999NDV FEW014/// SCT017/// BKN029/// 20/17 Q1015=
201008150720 METAR ESMX 150720Z AUTO 11005KT 070V170 9999NDV FEW009/// SCT010/// OVC024/// 20/17 Q1016=
201008150650 METAR ESMX 150650Z AUTO 10004KT 050V150 9999NDV FEW007/// BKN009/// 19/17 Q1015=
201008150620 METAR ESMX 150620Z AUTO 09004KT 010V160 9999NDV OVC007/// 19/17 Q1015=
201008150550 METAR ESMX 150550Z AUTO 09004KT 040V140 9999NDV OVC007/// 18/17 Q1015=
201008150520 METAR ESMX 150520Z AUTO 09004KT 060V140 9999NDV FEW007/// SCT010/// OVC015/// 19/17 Q1015=
201008150450 METAR ESMX 150450Z AUTO 11004KT 070V170 8000NDV BR FEW007/// SCT009/// BKN022/// 19/18 Q1015=
201008150420 METAR ESMX 150420Z AUTO 07003KT 030V110 7000NDV BR BKN014/// OVC024/// 19/18 Q1015=
201008150350 METAR ESMX 150350Z AUTO 07003KT 030V100 7000NDV BR FEW002/// SCT004/// BKN007/// 19/18 Q1015 REDZ=
201008150320 METAR ESMX 150320Z AUTO 07004KT 030V110 1400NDV R01/P2000N R19/P2000N DZ OVC003/// 19/18 Q1015=
201008150250 METAR ESMX 150250Z AUTO 07003KT 030V150 1700NDV BR OVC004/// 19/18 Q1015=
201008150220 METAR ESMX 150220Z AUTO 03005KT 350V080 6000NDV BR FEW006/// OVC007/// 19/18 Q1015=
201008150150 METAR ESMX 150150Z AUTO 05005KT 010V080 8000NDV BR OVC008/// 19/18 Q1015=
201008150120 METAR ESMX 150120Z AUTO 04007KT 8000NDV -DZ OVC008/// 19/18 Q1015=
201008150050 METAR ESMX 150050Z AUTO 04006KT 020V080 8000NDV BR FEW007/// BKN010/// OVC027/// 19/18 Q1015=
201008150020 METAR ESMX 150020Z AUTO 03005KT 350V070 8000NDV BR FEW007/// SCT009/// OVC024/// 19/18 Q1016=
201008142350 METAR ESMX 142350Z AUTO 02005KT 5000NDV BR SCT012/// BKN024/// 19/18 Q1016=
201008142320 METAR ESMX 142320Z AUTO 02005KT 6000NDV BR OVC013/// 19/19 Q1016=
201008142250 METAR ESMX 142250Z AUTO 02005KT 4100NDV BR SCT015/// 19/18 Q1016=
201008142220 METAR ESMX 142220Z AUTO 02004KT 6000NDV BR FEW016/// 19/18 Q1016=
201008142150 METAR ESMX 142150Z AUTO 03004KT 9000NDV FEW013/// SCT072/// 20/18 Q1016=
201008142120 METAR ESMX 142120Z AUTO 02005KT 9999NDV FEW014/// SCT018/// BKN054/// 20/19 Q1016=
201008142050 METAR ESMX 142050Z AUTO 02006KT 9999NDV FEW021/// SCT051/// BKN074/// 20/19 Q1016=
201008142020 METAR ESMX 142020Z AUTO 01005KT 6000NDV +RA FEW054/// 20/19 Q1016=
201008141950 METAR ESMX 141950Z 36004KT 9999 BKN021 20/19 Q1016=
201008141920 METAR ESMX 141920Z 03005KT 9999 FEW023 21/19 Q1016=
201008141850 METAR ESMX 141850Z 01004KT 9999 FEW015 BKN100 21/20 Q1016=
201008141820 METAR ESMX 141820Z 01006KT CAVOK 22/20 Q1016=
201008141750 METAR ESMX 141750Z AUTO 03005KT 9999NDV FEW100/// 22/20 Q1016=
201008141720 METAR ESMX 141720Z AUTO 02005KT 9999NDV FEW110/// 22/20 Q1016=
201008141650 METAR ESMX 141650Z AUTO 01004KT 9999NDV NCD 22/20 Q1016=
201008141620 METAR ESMX 141620Z AUTO 04003KT 010V100 9999NDV -RA FEW034/// 23/20 Q1017=
201008141550 METAR ESMX 141550Z AUTO 04003KT 010V090 9999NDV -RA FEW033/// BKN100/// 23/19 Q1017=
201008141520 METAR ESMX 141520Z AUTO 03005KT 9999NDV BKN100/// 23/19 Q1017=
201008141450 METAR ESMX 141450Z AUTO 02005KT 9999NDV FEW049/// SCT110/// 24/19 Q1017=
201008141420 METAR ESMX 141420Z AUTO 02005KT 350V070 9999NDV FEW062/// 24/19 Q1017=
201008141350 METAR ESMX 141350Z AUTO 03008KT 350V060 9999NDV NCD 25/19 Q1017=
201008141320 METAR ESMX 141320Z AUTO 03008KT 350V070 9999NDV NCD 25/18 Q1017=
201008141250 METAR ESMX 141250Z AUTO 01006G35KT 9999NDV FEW064/// 24/18 Q1018=
201008141220 METAR ESMX 141220Z AUTO 36007KT 320V030 9999NDV FEW053/// 24/18 Q1018=
201008141150 METAR ESMX 141150Z AUTO 04008KT 9999NDV NCD 24/18 Q1018=
201008141120 METAR ESMX 141120Z AUTO 02006KT 330V050 9999NDV NCD 23/18 Q1018=
201008141050 METAR ESMX 141050Z AUTO 36006KT 320V040 9999NDV FEW090/// 22/18 Q1018=
201008141020 METAR ESMX 141020Z AUTO 02007KT 330V060 9999NDV FEW015/// SCT018/// 22/18 Q1018=
201008140950 METAR ESMX 140950Z AUTO 05005KT 010V080 9999NDV BKN015/// 22/17 Q1019=
201008140920 METAR ESMX 140920Z AUTO 04005KT 360V070 9999NDV FEW010/// SCT013/// OVC016/// 20/18 Q1019=
201008140850 METAR ESMX 140850Z AUTO 02005KT 9999NDV OVC006/// 20/18 Q1019=
201008140820 METAR ESMX 140820Z AUTO 04006KT 9999NDV OVC006/// 20/18 Q1019=
201008140750 METAR ESMX 140750Z AUTO 03006KT 350V060 9999NDV HZ OVC006/// 19/18 Q1019=
201008140720 METAR ESMX 140720Z AUTO 05007KT 010V080 9999NDV OVC006/// 19/18 Q1019=
201008140650 METAR ESMX 140650Z AUTO 04005KT 360V070 9999NDV OVC006/// 19/18 Q1019=
201008140620 METAR ESMX 140620Z AUTO 03005KT 360V060 9999NDV BR OVC006/// 19/18 Q1019=
201008140550 METAR ESMX 140550Z AUTO 02004KT 350V060 8000NDV BR FEW005/// OVC006/// 19/18 Q1019=
201008140520 METAR ESMX 140520Z AUTO 01005KT 7000NDV BR SCT003/// OVC006/// 18/18 Q1019=
201008140450 METAR ESMX 140450Z AUTO 02006KT 4300NDV BR OVC002/// 18/17 Q1019=
201008140420 METAR ESMX 140420Z AUTO 02006KT 5000NDV BR OVC003/// 18/17 Q1019=
201008140350 METAR ESMX 140350Z AUTO 01007KT 4300NDV BR OVC002/// 18/17 Q1019=
201008140320 METAR ESMX 140320Z AUTO 02007KT 5000NDV BR OVC002/// 18/17 Q1019=
201008140250 METAR ESMX 140250Z AUTO 35007KT 8000NDV BR OVC002/// 17/17 Q1019=
201008140220 METAR ESMX 140220Z AUTO 35007KT 8000NDV BR OVC002/// 17/17 Q1019=
201008140150 METAR ESMX 140150Z AUTO 34006KT 7000NDV BR OVC002/// 17/17 Q1019=
201008140120 METAR ESMX 140120Z AUTO 32004KT 290V010 7000NDV BR BKN002/// OVC024/// 17/16 Q1019=
201008140050 METAR ESMX 140050Z AUTO 30003KT 260V330 5000NDV BR SCT014/// OVC023/// 16/15 Q1019=
201008140020 METAR ESMX 140020Z AUTO 30003KT 8000NDV BR FEW021/// 15/15 Q1019=
201008132350 METAR ESMX 132350Z AUTO 31002KT 9000NDV SCT020/// 16/15 Q1019=
201008132320 METAR ESMX 132320Z AUTO VRB02KT 9000NDV SCT019/// 16/15 Q1019=
201008132250 METAR ESMX 132250Z AUTO VRB02KT 9999NDV NCD 16/16 Q1019=
201008132220 METAR ESMX 132220Z AUTO 28002KT 9999NDV NCD 17/16 Q1019=
201008132150 METAR ESMX 132150Z AUTO 28003KT 9999NDV NCD 17/16 Q1019=
201008132120 METAR ESMX 132120Z AUTO 28003KT 9999NDV NCD 18/16 Q1019=
201008132050 METAR ESMX 132050Z AUTO 27004KT 9999NDV NCD 18/17 Q1019=
201008132020 METAR ESMX 132020Z AUTO 27005KT 9999NDV NCD 18/17 Q1019=
201008131950 METAR ESMX 131950Z AUTO 26004KT 9999NDV FEW054/// 19/17 Q1019=
201008131920 METAR ESMX 131920Z 28003KT 9999 FEW027 BKN047 20/17 Q1019=
201008131850 METAR ESMX 131850Z 27003KT 9999 SCT021 BKN030 21/17 Q1019=
201008131820 METAR ESMX 131820Z 27003KT 9999 BKN042 21/17 Q1018=
201008131750 METAR ESMX 131750Z 32003KT 290V010 9999 FEW041 22/17 Q1018=
201008131720 METAR ESMX 131720Z 33005KT 290V030 9999 FEW022 22/17 Q1018=
201008131650 METAR ESMX 131650Z 30005KT 270V330 9999 FEW025 23/18 Q1017=
201008131620 METAR ESMX 131620Z 29006KT 9999 FEW020 SCT025 BKN047 23/18 Q1017=
201008131550 METAR ESMX 131550Z 25005KT 210V280 9999 FEW031 SCT043 BKN050 23/18 Q1017=
201008131520 METAR ESMX 131520Z 26007KT 220V290 9999 FEW021 SCT027 BKN046 23/18 Q1017=
201008131450 METAR ESMX 131450Z 25007KT 190V280 9999 FEW019 SCT027 24/19 Q1017=
201008131420 METAR ESMX 131420Z 23007KT 210V280 9999 FEW025 SCT040 24/19 Q1017=
201008131320 METAR ESMX 131320Z 16005KT 120V200 9999 FEW025 SCT045 25/18 Q1016=
201008131250 METAR ESMX 131250Z 16004KT 100V200 9999 FEW025 SCT045 25/19 Q1016=
201008131220 METAR ESMX 131220Z 06004KT 020V110 9999 FEW024 SCT044 24/19 Q1016=
201008131150 METAR ESMX 131150Z 07004KT 020V100 9999 FEW022 SCT031 23/19 Q1016=
201008131120 METAR ESMX 131120Z 07003KT 030V120 9999 FEW013 23/18 Q1016=
201008131050 METAR ESMX 131050Z 08004KT 040V120 9999 FEW014 SCT019 BKN059 22/19 Q1016=
201008131020 METAR ESMX 131020Z 10004KT 050V170 9999 FEW008 BKN016 BKN019 21/19 Q1016=
201008130950 METAR ESMX 130950Z 09003KT 040V140 9999 FEW008 BKN015 OVC018 21/19 Q1016=
201008130920 METAR ESMX 130920Z 11003KT 9000 BR FEW007 OVC015 21/19 Q1016=
201008130850 METAR ESMX 130850Z VRB02KT 8000 BR FEW005 BKN007 OVC012 20/19 Q1016=
201008130820 METAR ESMX 130820Z 09003KT 040V160 8000 BR BKN004 20/19 Q1015=
201008130750 METAR ESMX 130750Z 05004KT 020V080 6000 BR BKN050 19/19 Q1015=
201008130720 METAR ESMX 130720Z VRB02KT 5000 BR BKN039 19/18 Q1015=
201008130650 METAR ESMX 130650Z 06003KT 020V100 3700 -RA FEW003 BKN028 18/18 Q1015=
201008130620 METAR ESMX 130620Z 09004KT 050V130 0600 R01/P2000N R19/0175VP2000U +RATS ////// 18/17 Q1015 RESHRA=
201008130550 METAR ESMX 130550Z 13003KT 060V190 1100 R01/P2000N R19/P2000D +RA FEW008 SCT038 18/17 Q1014=
201008130520 METAR ESMX 130520Z 09003KT 030V170 1100 R01/P2000N R19/P2000N RA FEW035 SCT044 BKN067 18/17 Q1014=
201008130450 METAR ESMX 130450Z 09004KT 030V140 7000 BR FEW038 BKN066 18/17 Q1014 RERA=
201008130420 METAR ESMX 130420Z 08005KT 030V140 5000 -RA FEW048 BKN070 18/17 Q1014=
201008130350 METAR ESMX 130350Z 09004KT 020V140 6000 -RA NSC 18/17 Q1014=
201008130320 METAR ESMX 130320Z AUTO 08003KT 050V130 7000NDV +RA FEW076/// 19/17 Q1014=
201008130250 METAR ESMX 130250Z AUTO 14003KT 060V190 9999NDV RA FEW016/// SCT031/// BKN093/// 20/17 Q1014=
201008130220 METAR ESMX 130220Z AUTO 14003KT 080V190 9999NDV OVC019/// 20/17 Q1014=
201008130150 METAR ESMX 130150Z AUTO 14005KT 090V180 9999NDV FEW058/// SCT094/// 20/16 Q1014=
201008130120 METAR ESMX 130120Z AUTO 16007KT 120V230 9999NDV FEW059/// 20/16 Q1014=
201008130050 METAR ESMX 130050Z AUTO 10006KT 040V160 9999NDV FEW059/// 20/16 Q1013=
201008130020 METAR ESMX 130020Z AUTO VRB07KT 9999NDV FEW059/// SCT100/// 20/16 Q1013=
201008122350 METAR ESMX 122350Z AUTO 07006KT 010V140 9999NDV FEW083/// 19/16 Q1014=
201008122320 METAR ESMX 122320Z 08005KT 020V140 CAVOK 19/16 Q1014=
201008122250 METAR ESMX 122250Z 08006KT 020V140 CAVOK 19/16 Q1015=
201008122220 METAR ESMX 122220Z 08005KT 020V160 CAVOK 19/16 Q1015=
201008122150 METAR ESMX 122150Z 08006KT 030V140 CAVOK 19/16 Q1015=
201008122120 METAR ESMX 122120Z 07006KT 020V140 CAVOK 19/16 Q1015=
201008122050 METAR ESMX 122050Z 07006KT 040V110 CAVOK 19/16 Q1015=
201008122020 METAR ESMX 122020Z 07006KT 030V120 CAVOK 20/16 Q1015=
201008121950 METAR ESMX 121950Z 07005KT 040V110 CAVOK 20/16 Q1016=
201008121920 METAR ESMX 121920Z 08004KT 030V120 CAVOK 20/16 Q1016=
201008121850 METAR ESMX 121850Z 08003KT 050V120 CAVOK 20/16 Q1016=
201008121820 METAR ESMX 121820Z 10003KT 050V130 CAVOK 21/16 Q1015=
201008121750 METAR ESMX 121750Z 12003KT 080V150 CAVOK 21/16 Q1015=
201008121720 METAR ESMX 121720Z VRB01KT 7000 FEW039 21/17 Q1015=
201008121650 METAR ESMX 121650Z 01004KT 9999 FEW039 SCT046 22/17 Q1015=
201008121620 METAR ESMX 121620Z 02005KT CAVOK 22/17 Q1015=
201008121550 METAR ESMX 121550Z 02004KT 9999 SCT037 BKN049 22/17 Q1016=
201008121520 METAR ESMX 121520Z 02004KT 340V070 9999 -RA FEW039 SCT045 BKN110 23/16 Q1016=
201008121450 METAR ESMX 121450Z 35004KT 9999 FEW042 24/15 Q1016=
201008121420 METAR ESMX 121420Z VRB02KT 9999 FEW046 24/15 Q1016=
201008121350 METAR ESMX 121350Z VRB02KT CAVOK 24/15 Q1016=
201008121320 METAR ESMX 121320Z VRB02KT CAVOK 25/14 Q1016=
201008121250 METAR ESMX 121250Z 17004KT 080V210 CAVOK 24/14 Q1016=
201008121220 METAR ESMX 121220Z 14003KT 080V250 CAVOK 23/13 Q1016=
201008121150 METAR ESMX 121150Z 14005KT 080V210 CAVOK 24/12 Q1016=
201008121120 METAR ESMX 121120Z 16005KT 100V220 CAVOK 24/14 Q1016=
201008121050 METAR ESMX 121050Z 17005KT 140V210 CAVOK 23/13 Q1016=
201008121020 METAR ESMX 121020Z 13005KT 080V170 CAVOK 23/13 Q1016=
201008120950 METAR ESMX 120950Z 14004KT 100V210 9999 NSC 22/13 Q1016=
201008120920 METAR ESMX 120920Z VRB04KT 9999 FEW030 21/14 Q1016=
201008120850 METAR ESMX 120850Z 12004KT 070V170 9999 FEW025 21/14 Q1016=
201008120820 METAR ESMX 120820Z 09003KT 050V170 9999 FEW020 20/15 Q1016=
201008120750 METAR ESMX 120750Z VRB02KT 9999 FEW010 19/16 Q1016=
201008120720 METAR ESMX 120720Z 14004KT 080V190 9999 FEW005 SCT007 18/15 Q1016=
201008120650 METAR ESMX 120650Z 18004KT 6000 BR BKN004 17/16 Q1016=
201008120620 METAR ESMX 120620Z 17005KT 140V200 4000 BR OVC003 16/15 Q1015=
201008120550 METAR ESMX 120550Z 17003KT 140V200 6000 BR OVC005 16/15 Q1015=
201008120520 METAR ESMX 120520Z VRB02KT 9999 SCT006 BKN018 16/15 Q1015=
201008120450 METAR ESMX 120450Z 12003KT 080V160 8000 BR SCT020 BKN110 15/15 Q1015=
201008120420 METAR ESMX 120420Z VRB02KT 9000 BR BKN022 15/14 Q1015=
201008120350 METAR ESMX 120350Z 12003KT 090V150 7000 BR SCT020 BKN027 15/14 Q1015=
201008120320 METAR ESMX 120320Z AUTO VRB02KT 4200NDV BR FEW019/// BKN024/// OVC031/// 14/14 Q1015=
201008120250 METAR ESMX 120250Z AUTO VRB02KT 3200NDV BR FEW017/// SCT019/// BKN022/// 13/13 Q1015=
201008120220 METAR ESMX 120220Z AUTO VRB02KT 4500NDV BR BKN021/// 13/13 Q1014=
201008120150 METAR ESMX 120150Z AUTO 15003KT 110V170 2900NDV FEW088/// 12/12 Q1014=
201008120120 METAR ESMX 120120Z AUTO 14003KT 0700NDV R01/P2000N R19/P2000N FEW026/// 13/12 Q1014=
201008120050 METAR ESMX 120050Z AUTO VRB01KT 0250NDV R01/0900VP2000N R19/0800VP2000 BCFG NCD 13/12 Q1014=
201008120020 METAR ESMX 120020Z AUTO VRB01KT 0300NDV R01/P2000N R19/0700VP2000 BCFG FEW100/// 13/13 Q1014=
201008112350 METAR ESMX 112350Z VRB02KT 9999 BCFG NSC 13/12 Q1014=
201008112320 METAR ESMX 112320Z VRB01KT 9999 MIFG NSC 15/14 Q1014=
201008112250 METAR ESMX 112250Z 15002KT CAVOK 16/14 Q1014=
201008112220 METAR ESMX 112220Z 16004KT CAVOK 16/15 Q1014=
201008112150 METAR ESMX 112150Z 16004KT 9999 FEW033 BKN071 17/15 Q1014=
201008112120 METAR ESMX 112120Z 17004KT 9999 OVC032 17/15 Q1014=
201008112050 METAR ESMX 112050Z 17005KT 9999 FEW033 SCT057 OVC084 17/15 Q1014=
201008112020 METAR ESMX 112020Z 17004KT CAVOK 17/15 Q1014=
201008111950 METAR ESMX 111950Z 16005KT 9999 FEW038 SCT052 18/15 Q1014=
201008111920 METAR ESMX 111920Z 17004KT 9999 VCSH FEW035CB BKN041 OVC051 18/16 Q1013=
201008111850 METAR ESMX 111850Z 16004KT 9999 FEW042 SCT051 OVC062 18/16 Q1013=
201008111820 METAR ESMX 111820Z 16004KT 120V190 CAVOK 18/16 Q1013=
201008111750 METAR ESMX 111750Z 16004KT 120V190 CAVOK 18/16 Q1013=
201008111720 METAR ESMX 111720Z 15005KT 120V180 CAVOK 18/15 Q1013=
201008111650 METAR ESMX 111650Z 15005KT 120V190 CAVOK 18/16 Q1013=
201008111620 METAR ESMX 111620Z 16005KT 120V200 CAVOK 18/16 Q1013=
201008111550 METAR ESMX 111550Z 17006KT 140V210 9999 DZ FEW055 18/16 Q1013=
201008111520 METAR ESMX 111520Z 17006KT 140V210 9999 DZ NSC 19/16 Q1013=
201008111420 METAR ESMX 111420Z 16007KT 130V200 9999 -RA FEW066 SCT095 20/16 Q1013 REDZ=
201008111350 METAR ESMX 111350Z 16007KT 110V190 CAVOK 20/15 Q1013=
201008111320 METAR ESMX 111320Z 17010KT CAVOK 21/15 Q1013=
201008111250 METAR ESMX 111250Z 16010KT 120V190 CAVOK 21/14 Q1012=
201008111220 METAR ESMX 111220Z 16010KT 110V200 9999 FEW025 BKN060 22/15 Q1012=
201008111150 METAR ESMX 111150Z 15011KT 110V190 9999 FEW025 23/14 Q1012=
201008111120 METAR ESMX 111120Z 16011KT 110V200 9999 FEW025 23/14 Q1012=
201008111050 METAR ESMX 111050Z 15011KT 090V210 9999 FEW025 24/14 Q1012=
201008111020 METAR ESMX 111020Z 16009KT 110V210 9999 FEW020 23/15 Q1012=
201008110950 METAR ESMX 110950Z 14010KT 110V170 9999 FEW025 23/15 Q1012=
201008110920 METAR ESMX 110920Z 15008KT 100V200 9999 FEW025 22/15 Q1012=
201008110850 METAR ESMX 110850Z 15007KT 110V200 9999 FEW025 23/16 Q1012=
201008110820 METAR ESMX 110820Z 16006KT 120V210 9999 FEW020 22/16 Q1012=
201008110750 METAR ESMX 110750Z 16007KT 120V200 CAVOK 20/16 Q1013=
201008110720 METAR ESMX 110720Z 14005KT 100V200 9999 FEW008 20/16 Q1013=
201008110650 METAR ESMX 110650Z 15006KT 110V210 9999 FEW006 18/16 Q1013=
201008110620 METAR ESMX 110620Z 15006KT 100V190 9999 BKN006 17/15 Q1013=
201008110550 METAR ESMX 110550Z 15005KT 100V190 9999 BKN005 17/15 Q1013=
201008110520 METAR ESMX 110520Z 15004KT 090V210 9999 SCT004 16/15 Q1013=
201008110450 METAR ESMX 110450Z 13004KT 080V160 9000 FEW003 15/14 Q1013=
201008110420 METAR ESMX 110420Z 11004KT 030V160 8000 BR OVC003 15/14 Q1013=
201008110350 METAR ESMX 110350Z 12005KT 080V160 6000 BR OVC003 15/14 Q1013=
201008110320 METAR ESMX 110320Z AUTO 14004KT 100V170 6000NDV BR OVC002/// 15/14 Q1013=
201008110250 METAR ESMX 110250Z AUTO 14005KT 110V180 6000NDV BR BKN002/// OVC004/// 15/14 Q1013=
201008110220 METAR ESMX 110220Z AUTO 14004KT 100V190 5000NDV BR OVC002/// 15/14 Q1014=
201008110150 METAR ESMX 110150Z AUTO 13003KT 080V180 7000NDV BR BKN003/// BKN005/// 15/14 Q1014=
201008110120 METAR ESMX 110120Z AUTO 14004KT 080V170 5000NDV BR FEW002/// BKN004/// BKN006/// 15/14 Q1014=
201008110050 METAR ESMX 110050Z AUTO 14005KT 100V180 4600NDV BR BKN002/// BKN005/// 15/14 Q1014=
201008110020 METAR ESMX 110020Z AUTO 15005KT 110V200 9000NDV BR BKN003/// 15/14 Q1015=
201008102350 METAR ESMX 102350Z AUTO 15005KT 9000NDV BR BKN004/// 15/14 Q1015=
201008102320 METAR ESMX 102320Z 16005KT 120V190 9000 BR OVC005 15/14 Q1015=
201008102250 METAR ESMX 102250Z 16005KT 140V200 9000 BKN004 15/14 Q1015=
201008102220 METAR ESMX 102220Z 16006KT 110V190 9999 SCT004 15/14 Q1015=
201008102150 METAR ESMX 102150Z 16005KT CAVOK 15/13 Q1015=
201008102120 METAR ESMX 102120Z 16005KT CAVOK 15/12 Q1015=
201008102050 METAR ESMX 102050Z 16005KT CAVOK 15/12 Q1015=
201008102020 METAR ESMX 102020Z 16005KT CAVOK 16/12 Q1015=
201008101950 METAR ESMX 101950Z 16005KT CAVOK 16/12 Q1015=
201008101920 METAR ESMX 101920Z 16005KT CAVOK 17/12 Q1015=
201008101850 METAR ESMX 101850Z 16004KT CAVOK 17/12 Q1015=
201008101820 METAR ESMX 101820Z 17004KT CAVOK 18/13 Q1015=
201008101750 METAR ESMX 101750Z 17004KT CAVOK 19/12 Q1015=
201008101720 METAR ESMX 101720Z 17004KT 9999 FEW040 SCT060 19/12 Q1015=
201008101650 METAR ESMX 101650Z 18007KT 9999 FEW040 SCT071 19/11 Q1015=
201008101620 METAR ESMX 101620Z 16006KT 120V200 9999 FEW040 OVC071 20/12 Q1015=
201008101550 METAR ESMX 101550Z 19007KT 9999 FEW040 BKN068 20/12 Q1015=
201008101520 METAR ESMX 101520Z 20006KT 9999 FEW040 BKN058 20/12 Q1015=
201008101450 METAR ESMX 101450Z 19005KT 9999 FEW040 BKN064 19/12 Q1015=
201008101420 METAR ESMX 101420Z 20003KT 9999 FEW040 BKN066 19/12 Q1015=
201008101350 METAR ESMX 101350Z 21004KT 170V240 9999 FEW040 BKN066 19/12 Q1015=
201008101320 METAR ESMX 101320Z 23005KT 200V260 9999 SCT039 20/11 Q1015=
201008101250 METAR ESMX 101250Z 21006KT 9999 FEW031 BKN058 19/12 Q1015=
201008101220 METAR ESMX 101220Z 25004KT 210V280 9999 FEW031 BKN058 19/12 Q1016=
201008101150 METAR ESMX 101150Z 24007KT 200V280 9999 FEW031 BKN060 19/12 Q1016=
201008101120 METAR ESMX 101120Z 22007KT 180V250 9999 FEW024 SCT063 19/12 Q1016=
201008101050 METAR ESMX 101050Z 23008KT 200V260 9999 SCT027 BKN058 18/13 Q1016=
201008101020 METAR ESMX 101020Z 22008KT 9999 SCT025 BKN055 18/12 Q1016=
201008100950 METAR COR ESMX 100950Z 22005KT 170V280 9999 FEW025 BKN047 19/12 Q1016=
201008100920 METAR ESMX 100920Z 24005KT 9999 FEW025 OVC047 17/12 Q1016=
201008100850 METAR ESMX 100850Z 22008KT 9999 FEW018 SCT023 BKN039 17/13 Q1016=
201008100820 METAR ESMX 100820Z 22008KT 9999 FEW015 BKN042 17/13 Q1016=
201008100750 METAR ESMX 100750Z 23007KT 200V260 9999 FEW014 SCT019 BKN041 16/13 Q1016=
201008100720 METAR ESMX 100720Z 24007KT 210V270 9999 FEW014 SCT018 BKN048 16/13 Q1016=
201008100650 METAR ESMX 100650Z 25006KT 220V300 9999 FEW016 SCT040 OVC046 16/13 Q1015=
201008100620 METAR ESMX 100620Z 23007KT 9999 BKN044 15/12 Q1015=
201008100550 METAR ESMX 100550Z 23007KT 190V260 9999 FEW016 SCT046 15/12 Q1015=
201008100520 METAR ESMX 100520Z 21006KT 9999 FEW016 SCT044 14/12 Q1015=
201008100450 METAR ESMX 100450Z 21005KT 9999 FEW020 OVC043 14/11 Q1015=
201008100420 METAR ESMX 100420Z 20005KT 9999 FEW020 OVC042 13/11 Q1014=
201008100350 METAR ESMX 100350Z 22005KT 9999 BKN040 13/11 Q1014=
201008100320 METAR ESMX 100320Z AUTO 23004KT 9999NDV OVC038/// 13/11 Q1014=
201008100250 METAR ESMX 100250Z AUTO 22004KT 9999NDV OVC037/// 13/11 Q1014=
201008100220 METAR ESMX 100220Z AUTO 23004KT 9999NDV OVC035/// 13/11 Q1014=
201008100150 METAR ESMX 100150Z AUTO 22005KT 9999NDV OVC031/// 14/11 Q1014=
201008100120 METAR ESMX 100120Z AUTO 23005KT 9999NDV OVC032/// 14/12 Q1014=
201008100050 METAR ESMX 100050Z AUTO 22004KT 9999NDV OVC032/// 14/12 Q1014=
201008100020 METAR ESMX 100020Z AUTO 23004KT 9999NDV FEW029/// OVC033/// 14/12 Q1014=
201008092350 METAR ESMX 092350Z AUTO 23006KT 200V260 9999NDV OVC033/// 14/12 Q1014=
201008092320 METAR ESMX 092320Z 22005KT 190V260 9999 OVC033 14/12 Q1014=
201008092250 METAR ESMX 092250Z 23006KT 9999 OVC032 14/13 Q1014=
201008092220 METAR ESMX 092220Z 23006KT 9999 FEW013 OVC036 14/13 Q1014=
201008092150 METAR ESMX 092150Z 23006KT 9999 FEW013 OVC035 14/13 Q1014=
201008092120 METAR ESMX 092120Z 23006KT 9999 FEW012 OVC035 15/13 Q1013=
201008092050 METAR ESMX 092050Z 23005KT 9999 OVC032 15/13 Q1013=
201008092020 METAR ESMX 092020Z 23006KT 200V260 9999 FEW011 OVC032 15/14 Q1013=
201008091950 METAR ESMX 091950Z 23005KT 200V260 9999 FEW010 SCT016 OVC032 15/14 Q1013=
201008091920 METAR ESMX 091920Z 23005KT 9999 FEW024 OVC029 15/14 Q1013=
201008091850 METAR ESMX 091850Z 23007KT 9999 FEW013 SCT016 OVC034 15/14 Q1013=
201008091820 METAR ESMX 091820Z 22007KT 200V260 9999 FEW016 OVC032 16/14 Q1012=
201008091750 METAR ESMX 091750Z 22007KT 9999 OVC022 16/14 Q1012=
201008091720 METAR ESMX 091720Z 23007KT 9999 FEW012 SCT015 BKN018 16/14 Q1012=
201008091650 METAR ESMX 091650Z 23008KT 9999 FEW011 SCT020 OVC030 16/14 Q1012=
201008091620 METAR ESMX 091620Z 23005KT 180V260 9999 FEW019 SCT022 BKN025 16/14 Q1012=
201008091550 METAR ESMX 091550Z 26007KT 230V290 9999 FEW007 SCT008 BKN011 16/14 Q1012=
201008091520 METAR ESMX 091520Z 23005KT 200V260 9999 FEW010 BKN012 OVC018 16/15 Q1012=
201008091450 METAR ESMX 091450Z 23008KT 190V270 9999 FEW008 SCT012 BKN014 17/15 Q1012=
201008091420 METAR ESMX 091420Z 25006KT 210V290 9999 FEW010 SCT014 BKN017 17/15 Q1012=
201008091350 METAR ESMX 091350Z 25007KT 220V290 9999 FEW008 SCT010 BKN015 17/15 Q1011=
201008091320 METAR ESMX 091320Z 23007KT 200V270 3400 DZ FEW008 SCT013 BKN020 17/15 Q1011=
201008091250 METAR ESMX 091250Z 25008KT 220V300 9999 FEW007 BKN010 OVC015 17/15 Q1011=
201008091220 METAR ESMX 091220Z 25008KT 210V290 9000 -RA FEW008 SCT021 BKN040 16/15 Q1011 REDZ=
201008091150 METAR ESMX 091150Z 25009KT 220V280 5000 DZ FEW006 SCT009 BKN012 16/15 Q1011=
201008091120 METAR ESMX 091120Z 25011KT 200V280 5000 -RA FEW005 SCT007 BKN009 16/15 Q1011=
201008091050 METAR ESMX 091050Z 25009KT 230V290 9000 -RA SCT006 BKN008 OVC011 16/15 Q1010=
201008091020 METAR ESMX 091020Z 25009KT 9000 BR FEW005 SCT007 BKN008 16/15 Q1010=
201008090950 METAR ESMX 090950Z 24009KT 200V290 4900 BR FEW004 BKN006 16/15 Q1010=
201008090920 METAR ESMX 090920Z 26008KT 220V290 4500 BR FEW005 SCT006 BKN009 16/15 Q1010=
201008090850 METAR ESMX 090850Z 26008KT 240V300 3400 -RA FEW005 SCT006 BKN007 16/15 Q1010=
201008090820 METAR ESMX 090820Z 26008KT 230V290 7000 -RA FEW004 BKN007 OVC011 16/15 Q1009=
201008090750 METAR ESMX 090750Z 26007KT 230V300 5000 DZ FEW005 OVC006 16/15 Q1009=
201008090720 METAR ESMX 090720Z 25008KT 220V290 5000 RA FEW003 SCT005 OVC006 16/15 Q1009=
201008090650 METAR ESMX 090650Z 26008KT 230V290 4500 DZ SCT003 OVC005 16/15 Q1008=
201008090620 METAR ESMX 090620Z 26008KT 6000 -RA FEW002 OVC004 16/15 Q1008=
201008090550 METAR ESMX 090550Z 25007KT 220V280 5500 -RA SCT002 BKN003 OVC009 16/15 Q1008=
201008090520 METAR ESMX 090520Z 26008KT 230V290 5000 BR VV003 16/15 Q1008=
201008090450 METAR ESMX 090450Z 26007KT 240V310 1700 DZ SCT002 BKN003 16/15 Q1008=
201008090420 METAR ESMX 090420Z 27005KT 220V300 2400 DZ SCT002 BKN004 16/16 Q1008 RERA=
201008090350 METAR ESMX 090350Z 27005KT 230V300 3400 -RA SCT003 BKN005 16/16 Q1007=
201008090320 METAR ESMX 090320Z AUTO 27004KT 7000NDV -RA OVC001/// 16/16 Q1007 REDZ=
201008090250 METAR ESMX 090250Z AUTO 28004KT 240V300 2100NDV DZ VV003 16/16 Q1008=
201008090220 METAR ESMX 090220Z AUTO 27004KT 1700NDV +DZ BKN001/// BKN004/// 16/15 Q1008=
201008090150 METAR ESMX 090150Z AUTO 27004KT 9999NDV OVC001/// 16/15 Q1007=
201008090120 METAR ESMX 090120Z AUTO 25003KT 9999NDV OVC002/// 16/15 Q1007=
201008090050 METAR ESMX 090050Z AUTO 29003KT 260V330 9999NDV OVC002/// 16/15 Q1007=
201008090020 METAR ESMX 090020Z AUTO 29004KT 3800NDV BR BKN002/// OVC004/// 16/15 Q1007 REDZ=
201008082350 METAR ESMX 082350Z 28005KT 2300 DZ SCT003 BKN005 16/15 Q1007=
201008082320 METAR ESMX 082320Z 30006KT 3600 -RA OVC002 16/16 Q1008=
201008082250 METAR ESMX 082250Z 28004KT 6000 OVC005 16/16 Q1008=
201008082220 METAR ESMX 082220Z 27004KT 9999 OVC006 16/16 Q1008 RETS=
201008082150 METAR ESMX 082150Z 33004KT 9999 BKN005 16/16 Q1008=
201008082120 METAR ESMX 082120Z 32003KT 300V010 9999 FEW003 BKN005 OVC009 16/16 Q1008=
201008082050 METAR ESMX 082050Z 33004KT 290V010 9000 BR FEW003 SCT005 BKN007 16/16 Q1008=
201008082020 METAR ESMX 082020Z 31005KT 3000 BR FEW003 OVC004 16/16 Q1008=
201008081950 METAR ESMX 081950Z 31005KT 9999 OVC004 16/16 Q1008=
201008081920 METAR ESMX 081920Z 32004KT 7000 BR OVC005 16/16 Q1008=
201008081850 METAR ESMX 081850Z 34004KT 300V010 4800 BR SCT002 BKN005 17/16 Q1008=
201008081820 METAR ESMX 081820Z 34004KT 8000 BR FEW004 BKN006 17/16 Q1008=
201008081750 METAR ESMX 081750Z 35005KT 9999 FEW004 BKN006 17/16 Q1008=
201008081720 METAR ESMX 081720Z 34005KT 9999 SCT005 BKN009 17/16 Q1008=
201008081650 METAR ESMX 081650Z 33005KT 9999 FEW004 BKN006 OVC009 17/16 Q1008=
201008081620 METAR ESMX 081620Z 35005KT 330V030 9999 BKN006 OVC010 17/16 Q1008=
201008081550 METAR ESMX 081550Z 35005KT 9999 FEW004 BKN006 OVC008 17/16 Q1008=
201008081520 METAR ESMX 081520Z 35005KT 9999 FEW004 SCT005 OVC007 17/16 Q1009=
201008081450 METAR ESMX 081450Z 36005KT 9000 BR BKN005 OVC008 17/16 Q1009=
201008081420 METAR ESMX 081420Z 36006KT 8000 BR FEW003 SCT005 BKN008 17/16 Q1009=
201008081350 METAR ESMX 081350Z 36006KT 3500 BR FEW003 SCT005 BKN008 16/15 Q1009=
201008081320 METAR ESMX 081320Z 36006KT 340V040 7000 BR FEW005 BKN007 OVC009 16/15 Q1009=
201008081250 METAR ESMX 081250Z 01008KT 340V040 9999 FEW006 BKN008 OVC010 17/15 Q1009=
201008081220 METAR ESMX 081220Z 02007KT 9999 BKN005 OVC010 17/15 Q1010=
201008081150 METAR ESMX 081150Z 36006KT 320V030 9999 SCT003 BKN007 OVC010 17/15 Q1010=
201008081120 METAR ESMX 081120Z AUTO 34006KT 9999NDV FEW004/// BKN005/// OVC008/// 16/15 Q1010=
201008081050 METAR ESMX 081050Z AUTO 35005KT 9999NDV BKN004/// OVC008/// 16/15 Q1010=
201008081020 METAR ESMX 081020Z AUTO 35006KT 9999NDV SCT004/// BKN007/// OVC009/// 16/15 Q1010=
201008080950 METAR ESMX 080950Z AUTO 34006KT 310V010 9999NDV FEW004/// SCT006/// OVC011/// 16/15 Q1010=
201008080920 METAR ESMX 080920Z AUTO 34007KT 7000NDV BR FEW003/// SCT005/// OVC007/// 16/15 Q1010=
201008080850 METAR ESMX 080850Z AUTO 35007KT 4000NDV -DZ FEW002/// BKN005/// OVC007/// 16/15 Q1011=
201008080820 METAR ESMX 080820Z AUTO 35006KT 320V020 3700NDV DZ BKN003/// OVC006/// 15/15 Q1011=
201008080750 METAR ESMX 080750Z AUTO 36007KT 330V040 6000NDV -DZ OVC003/// 15/14 Q1010=
201008080720 METAR ESMX 080720Z AUTO 34007KT 8000NDV BR FEW003/// OVC005/// 16/15 Q1010=
201008080650 METAR ESMX 080650Z AUTO 34006KT 6000NDV DZ BKN003/// OVC007/// 16/15 Q1011 REDZ=
201008080620 METAR ESMX 080620Z AUTO 34006KT 300V010 3800NDV +DZ FEW003/// SCT005/// BKN006/// 15/15 Q1011=
201008080550 METAR ESMX 080550Z AUTO 35007KT 5000NDV RA FEW004/// OVC005/// 15/14 Q1011 REDZ=
201008080520 METAR ESMX 080520Z AUTO 35008KT 9999NDV OVC005/// 15/14 Q1011=
201008080450 METAR ESMX 080450Z AUTO 34008KT 300V010 9999NDV OVC005/// 15/14 Q1011=
201008080420 METAR ESMX 080420Z AUTO 32006KT 300V360 9999NDV FEW005/// OVC007/// 15/14 Q1011 REDZ=
201008080350 METAR ESMX 080350Z AUTO 33007KT 6000NDV DZ FEW005/// BKN006/// OVC009/// 15/14 Q1011=
201008080320 METAR ESMX 080320Z AUTO 34008KT 8000NDV DZ FEW006/// BKN007/// OVC010/// 15/14 Q1012=
201008080250 METAR ESMX 080250Z AUTO 36009KT 9999NDV FEW007/// BKN009/// OVC017/// 15/14 Q1012=
201008080220 METAR ESMX 080220Z AUTO 35009KT 9999NDV -DZ FEW008/// SCT009/// BKN013/// 15/14 Q1012 REDZ=
201008080150 METAR ESMX 080150Z AUTO 36009KT 9999NDV OVC015/// 16/14 Q1012=
201008080120 METAR ESMX 080120Z AUTO 36009KT 320V030 9999NDV FEW015/// SCT017/// OVC028/// 16/14 Q1012=
201008080050 METAR ESMX 080050Z AUTO 34009KT 9999NDV OVC027/// 16/14 Q1012=
201008080020 METAR ESMX 080020Z AUTO 34005KT 9999NDV OVC028/// 16/14 Q1013=
201008072350 METAR ESMX 072350Z AUTO 33007KT 9999NDV BKN020/// OVC027/// 16/14 Q1013 REDZ=
201008072320 METAR ESMX 072320Z AUTO 36007KT 7000NDV DZ BKN016/// BKN021/// 16/14 Q1013=
201008072250 METAR ESMX 072250Z AUTO 36007KT 9999NDV OVC018/// 17/13 Q1014=
201008072220 METAR ESMX 072220Z AUTO 35006KT 9999NDV OVC021/// 18/13 Q1014=
201008072150 METAR ESMX 072150Z AUTO 35007KT 9999NDV OVC019/// 18/13 Q1014=
201008072120 METAR ESMX 072120Z AUTO 35006KT 9999NDV OVC020/// 18/13 Q1014=
201008072050 METAR ESMX 072050Z AUTO 35006KT 9999NDV OVC020/// 18/13 Q1014=
201008072020 METAR ESMX 072020Z AUTO 35006KT 9999NDV OVC020/// 18/14 Q1014=
201008071950 METAR ESMX 071950Z AUTO 35007KT 9999NDV OVC021/// 18/13 Q1015=
201008071920 METAR ESMX 071920Z AUTO 01006KT 340V050 9999NDV SCT024/// OVC039/// 18/14 Q1015=
201008071850 METAR ESMX 071850Z AUTO 03005KT 9999NDV FEW039/// BKN049/// 18/14 Q1015=
201008071820 METAR ESMX 071820Z AUTO 03008KT 350V050 9999NDV FEW039/// SCT055/// BKN110/// 19/14 Q1015=
201008071750 METAR ESMX 071750Z AUTO 01007KT 340V040 9999NDV -DZ OVC038/// 19/15 Q1015=
201008071720 METAR ESMX 071720Z AUTO 03006KT 350V060 9999NDV -DZ OVC037/// 19/14 Q1015=
201008071650 METAR ESMX 071650Z AUTO 03007KT 9999NDV -DZ OVC039/// 19/14 Q1015=
201008071620 METAR ESMX 071620Z AUTO 04007KT 9999NDV OVC038/// 20/14 Q1015=
201008071550 METAR ESMX 071550Z AUTO 02006KT 9999NDV OVC034/// 20/14 Q1015=
201008071520 METAR ESMX 071520Z AUTO 05006KT 020V080 9999NDV OVC034/// 21/15 Q1015=
201008071450 METAR ESMX 071450Z AUTO 03007KT 350V090 9999NDV OVC032/// 22/15 Q1015=
201008071420 METAR ESMX 071420Z AUTO 02008KT 9999NDV BKN032/// 23/14 Q1015=
201008071350 METAR ESMX 071350Z AUTO 01009KT 340V040 9999NDV FEW041/// 23/14 Q1015=
201008071320 METAR ESMX 071320Z AUTO 34008KT 300V020 9999NDV FEW028/// 22/15 Q1015=
201008071250 METAR ESMX 071250Z AUTO 35008KT 9999NDV FEW024/// 21/15 Q1016=
201008071220 METAR ESMX 071220Z AUTO 35008KT 310V030 9999NDV NCD 22/15 Q1016=
201008071150 METAR ESMX 071150Z AUTO 02008KT 9999NDV FEW025/// 21/15 Q1016=
201008071120 METAR ESMX 071120Z AUTO 03007KT 010V070 9999NDV FEW022/// SCT110/// 21/15 Q1017=
201008071050 METAR ESMX 071050Z AUTO 02007KT 350V070 9999NDV SCT100/// 20/14 Q1017=
201008071020 METAR ESMX 071020Z AUTO 03008KT 9999NDV SCT100/// 19/13 Q1017=
201008070950 METAR ESMX 070950Z AUTO 01006KT 9999NDV -DZ FEW098/// 19/15 Q1017=
201008070920 METAR ESMX 070920Z AUTO 02006KT 350V050 9999NDV BKN092/// 19/15 Q1017=
201008070850 METAR ESMX 070850Z AUTO 01006KT 9999NDV BKN083/// 19/16 Q1017=
201008070820 METAR ESMX 070820Z AUTO 02006KT 360V060 9999NDV BKN083/// 19/16 Q1017=
201008070750 METAR ESMX 070750Z AUTO 01006KT 9999NDV BKN086/// 18/16 Q1017=
201008070720 METAR ESMX 070720Z AUTO 02004KT 9999NDV BKN092/// 18/16 Q1017=
201008070650 METAR ESMX 070650Z AUTO 03004KT 9999NDV SCT096/// 18/16 Q1017=
201008070620 METAR ESMX 070620Z AUTO 02003KT 350V060 9999NDV FEW100/// 17/15 Q1017=
201008070550 METAR ESMX 070550Z AUTO 04005KT 9999NDV BKN098/// 17/15 Q1017=
201008070520 METAR ESMX 070520Z AUTO 05004KT 9999NDV BKN098/// 16/15 Q1017=
201008070450 METAR ESMX 070450Z AUTO 04004KT 9999NDV OVC097/// 16/15 Q1018=
201008070420 METAR ESMX 070420Z AUTO 05002KT 9999NDV BKN097/// 16/15 Q1018=
201008070350 METAR ESMX 070350Z AUTO 03002KT 9000NDV BKN100/// 15/14 Q1017=
201008070320 METAR ESMX 070320Z AUTO 34002KT 9999NDV FEW110/// 14/13 Q1017=
201008070250 METAR ESMX 070250Z AUTO VRB01KT 9999NDV NCD 13/13 Q1017=
201008070220 METAR ESMX 070220Z AUTO VRB01KT 8000NDV BR NCD 13/12 Q1018=
201008070150 METAR ESMX 070150Z AUTO 00000KT 9999NDV NCD 13/12 Q1018=
201008070120 METAR ESMX 070120Z AUTO 29001KT 9999NDV NCD 12/12 Q1018=
201008070050 METAR ESMX 070050Z AUTO 00000KT 9000NDV NCD 13/12 Q1018=
201008070020 METAR ESMX 070020Z AUTO VRB01KT 0550NDV R01/P2000N R19/P2000N NCD 13/13 Q1018=
201008062350 METAR ESMX 062350Z AUTO 00000KT 9999NDV NCD 14/13 Q1018=
201008062320 METAR ESMX 062320Z AUTO VRB02KT 2900NDV NCD 14/13 Q1018=
201008062250 METAR ESMX 062250Z AUTO 16003KT 9999NDV NCD 14/13 Q1018=
201008062220 METAR ESMX 062220Z AUTO VRB02KT 9999NDV NCD 14/13 Q1018=
201008062150 METAR ESMX 062150Z AUTO VRB02KT 9999NDV NCD 16/14 Q1018=
201008062120 METAR ESMX 062120Z AUTO VRB01KT 9999NDV NCD 16/14 Q1018=
201008062050 METAR ESMX 062050Z AUTO 06003KT 9999NDV FEW042/// SCT110/// 17/15 Q1018=
201008062020 METAR ESMX 062020Z AUTO 04002KT 9999NDV BKN041/// 17/15 Q1018=
201008061950 METAR ESMX 061950Z AUTO VRB02KT 9999NDV BKN058/// 18/15 Q1018=
201008061920 METAR ESMX 061920Z AUTO 01002KT 9999NDV FEW048/// BKN055/// 18/16 Q1018=
201008061850 METAR ESMX 061850Z 35003KT CAVOK 18/15 Q1018=
201008061820 METAR ESMX 061820Z 36005KT CAVOK 19/15 Q1017=
201008061750 METAR ESMX 061750Z 34006KT CAVOK 20/15 Q1017=
201008061720 METAR ESMX 061720Z 31005KT 280V340 CAVOK 21/15 Q1017=
201008061650 METAR ESMX 061650Z 16004KT 130V200 CAVOK 23/13 Q1017=
201008061620 METAR ESMX 061620Z 15004KT 100V200 CAVOK 23/12 Q1017=
201008061550 METAR ESMX 061550Z 15005KT 100V190 CAVOK 23/12 Q1017=
201008061520 METAR ESMX 061520Z 13004KT 070V170 CAVOK 24/13 Q1016=
201008061450 METAR ESMX 061450Z 17006KT 120V200 CAVOK 25/13 Q1017=
201008061420 METAR ESMX 061420Z 16005KT 9999 FEW045 24/13 Q1016=
201008061320 METAR ESMX 061320Z 17007KT 120V210 9999 FEW046 25/13 Q1016=
201008061250 METAR ESMX 061250Z 15007KT 9999 FEW091 SCT100 25/13 Q1016=
201008061220 METAR ESMX 061220Z 11006KT 070V150 9999 FEW047 SCT100 25/13 Q1016=
201008061150 METAR ESMX 061150Z 14007KT 080V200 CAVOK 24/13 Q1016=
201008061120 METAR ESMX 061120Z 14006KT 070V210 CAVOK 24/13 Q1016=
201008061050 METAR ESMX 061050Z 14006KT 080V200 CAVOK 24/13 Q1016=
201008061020 METAR ESMX 061020Z 15007KT 110V190 CAVOK 23/11 Q1016=
201008060950 METAR ESMX 060950Z 16006KT 080V200 CAVOK 24/13 Q1016=
201008060920 METAR ESMX 060920Z 13006KT 100V170 CAVOK 22/12 Q1016=
201008060850 METAR ESMX 060850Z 14007KT 090V190 CAVOK 21/12 Q1016=
201008060820 METAR ESMX 060820Z 13005KT 100V180 CAVOK 20/13 Q1016=
201008060750 METAR ESMX 060750Z VRB02KT CAVOK 19/14 Q1016=
201008060720 METAR ESMX 060720Z 12004KT 070V170 9999 FEW030 BKN055 18/15 Q1016=
201008060650 METAR ESMX 060650Z 09003KT 030V140 9999 FEW030 BKN053 17/14 Q1016=
201008060620 METAR ESMX 060620Z 10004KT 050V160 9999 FEW030 OVC086 16/14 Q1015=
201008060550 METAR ESMX 060550Z 10003KT 070V140 9999 FEW008 BKN090 16/14 Q1015=
201008060520 METAR ESMX 060520Z 11003KT 040V200 9999 FEW008 BKN085 16/14 Q1015=
201008060450 METAR ESMX 060450Z 11005KT 070V170 9999 FEW008 OVC088 16/14 Q1015=
201008060420 METAR ESMX 060420Z AUTO 13005KT 060V170 9999NDV BKN089/// 16/14 Q1015=
201008060350 METAR ESMX 060350Z AUTO 10003KT 040V150 9999NDV BKN097/// 15/14 Q1014=
201008060320 METAR ESMX 060320Z AUTO 11004KT 070V160 9999NDV FEW043/// BKN100/// 15/14 Q1014=
201008060250 METAR ESMX 060250Z AUTO 11003KT 060V160 9999NDV FEW052/// 15/13 Q1014=
201008060220 METAR ESMX 060220Z AUTO 11003KT 040V150 9999NDV NCD 15/13 Q1014=
201008060150 METAR ESMX 060150Z AUTO 11004KT 060V150 9999NDV NCD 15/13 Q1014=
201008060120 METAR ESMX 060120Z AUTO 12003KT 080V160 9999NDV NCD 15/13 Q1014=
201008060050 METAR ESMX 060050Z AUTO 12003KT 080V150 9999NDV NCD 15/13 Q1014=
201008060020 METAR ESMX 060020Z AUTO 12003KT 070V170 9999NDV NCD 15/13 Q1014=
201008052350 METAR ESMX 052350Z AUTO 11003KT 060V150 9999NDV NCD 15/14 Q1014=
201008052320 METAR ESMX 052320Z 13003KT 080V170 CAVOK 15/14 Q1014=
201008052250 METAR ESMX 052250Z 12003KT 070V170 CAVOK 15/14 Q1014=
201008052220 METAR ESMX 052220Z 12003KT 080V170 CAVOK 16/14 Q1014=
201008052150 METAR ESMX 052150Z 12003KT 070V170 CAVOK 16/13 Q1014=
201008052120 METAR ESMX 052120Z 12003KT 070V160 CAVOK 16/13 Q1013=
201008052050 METAR ESMX 052050Z 13003KT 060V190 CAVOK 17/13 Q1013=
201008052020 METAR ESMX 052020Z 11003KT 070V150 CAVOK 17/13 Q1013=
201008051950 METAR ESMX 051950Z VRB04KT CAVOK 17/12 Q1013=
201008051920 METAR ESMX 051920Z 14003KT CAVOK 18/13 Q1013=
201008051850 METAR ESMX 051850Z 14004KT 110V180 CAVOK 19/13 Q1012=
201008051820 METAR ESMX 051820Z 15003KT CAVOK 20/13 Q1012=
201008051750 METAR ESMX 051750Z 16004KT 080V200 CAVOK 21/12 Q1012=
201008051720 METAR ESMX 051720Z 17007KT 140V210 CAVOK 21/11 Q1012=
201008051650 METAR ESMX 051650Z 15007KT 110V190 CAVOK 21/11 Q1012=
201008051620 METAR ESMX 051620Z 18008KT 140V210 9999 FEW045 22/12 Q1011=
201008051550 METAR ESMX 051550Z 16007KT 130V210 9999 FEW045 22/12 Q1012=
201008051520 METAR ESMX 051520Z 17008KT 120V200 9999 FEW045 22/12 Q1011=
201008051450 METAR ESMX 051450Z 17008KT 110V220 9999 FEW045 22/13 Q1011=
201008051420 METAR ESMX 051420Z 16007KT 120V200 9999 FEW045 BKN200 22/12 Q1011=
201008051350 METAR ESMX 051350Z 16007KT 120V190 9999 FEW045 BKN200 22/12 Q1011=
201008051320 METAR ESMX 051320Z 15007KT 100V200 9999 FEW045 SCT100 22/12 Q1011=
201008051250 METAR ESMX 051250Z 17009KT 120V200 9999 FEW043 SCT098 23/11 Q1011=
201008051220 METAR ESMX 051220Z 17009KT 130V210 9999 SCT040 23/12 Q1011=
201008051150 METAR ESMX 051150Z 17009KT 140V200 9999 SCT041 23/12 Q1010=
201008051120 METAR ESMX 051120Z 17009KT 120V220 9999 SCT038 23/12 Q1010=
201008051050 METAR ESMX 051050Z 16008KT 120V210 9999 SCT036 23/12 Q1010=
201008051020 METAR ESMX 051020Z 17009KT 130V200 9999 FEW035 23/13 Q1010=
201008050950 METAR ESMX 050950Z 17007KT 120V200 9999 FEW033 22/13 Q1010=
201008050920 METAR ESMX 050920Z 13006KT 070V170 9999 FEW033 21/14 Q1010=
201008050850 METAR ESMX 050850Z 13006KT 090V170 CAVOK 20/14 Q1010=
201008050820 METAR ESMX 050820Z 12005KT 060V170 CAVOK 20/14 Q1010=
201008050750 METAR ESMX 050750Z 14006KT 100V190 CAVOK 19/14 Q1010=
201008050720 METAR ESMX 050720Z 14006KT 080V170 CAVOK 19/14 Q1010=
201008050650 METAR ESMX 050650Z 14006KT 100V190 CAVOK 18/14 Q1010=
201008050620 METAR ESMX 050620Z 14005KT 080V180 CAVOK 17/14 Q1010=
201008050550 METAR ESMX 050550Z 13004KT 070V190 CAVOK 16/14 Q1009=
201008050520 METAR ESMX 050520Z 13004KT 080V170 9999 FEW005 BKN100 15/14 Q1009=
201008050450 METAR ESMX 050450Z 12005KT 050V170 9999 SCT005 BKN100 15/14 Q1009=
201008050420 METAR ESMX 050420Z AUTO 12005KT 070V170 9999NDV BKN088/// 15/14 Q1009=
201008050350 METAR ESMX 050350Z AUTO 14005KT 090V180 9999NDV BKN085/// 15/14 Q1009=
201008050320 METAR ESMX 050320Z AUTO 14005KT 110V190 9999NDV OVC089/// 14/13 Q1009=
201008050250 METAR ESMX 050250Z AUTO 14004KT 100V180 9999NDV FEW077/// BKN093/// 14/13 Q1009=
201008050220 METAR ESMX 050220Z AUTO 13003KT 100V160 9000NDV BR SCT085/// 14/13 Q1009=
201008050150 METAR ESMX 050150Z AUTO 13003KT 090V160 7000NDV BR FEW002/// 13/13 Q1009=
201008050120 METAR ESMX 050120Z AUTO 13004KT 100V160 5000NDV BKN001/// 14/13 Q1009=
201008050050 METAR ESMX 050050Z AUTO 14004KT 090V170 3100NDV OVC001/// 14/13 Q1009=
201008050020 METAR ESMX 050020Z AUTO 15005KT 100V170 0700NDV R01/P2000D R19/P2000N FG VV001 14/13 Q1009=
201008042350 METAR ESMX 042350Z AUTO 12004KT 090V150 6000NDV BR FEW001/// SCT003/// 13/12 Q1009=
201008042320 METAR ESMX 042320Z 13003KT CAVOK 13/12 Q1009=
201008042250 METAR ESMX 042250Z 13003KT 100V170 CAVOK 13/12 Q1009=
201008042220 METAR ESMX 042220Z 14003KT 110V180 CAVOK 13/12 Q1009=
201008042150 METAR ESMX 042150Z 14004KT CAVOK 14/12 Q1009=
201008042120 METAR ESMX 042120Z 15004KT 110V190 CAVOK 15/12 Q1009=
201008042050 METAR ESMX 042050Z 16006KT CAVOK 15/12 Q1009=
201008042020 METAR ESMX 042020Z 16005KT 130V200 CAVOK 15/13 Q1008=
201008041950 METAR ESMX 041950Z 15006KT 120V190 CAVOK 16/13 Q1009=
201008041920 METAR ESMX 041920Z 15005KT CAVOK 17/12 Q1008=
201008041850 METAR ESMX 041850Z 16005KT 110V190 9999 FEW040 BKN054 17/12 Q1008=
201008041820 METAR ESMX 041820Z 16006KT 9999 FEW040 SCT075 18/12 Q1008=
201008041750 METAR ESMX 041750Z 16006KT CAVOK 18/12 Q1008=
201008041720 METAR ESMX 041720Z 17006KT 130V210 9999 FEW045 19/12 Q1008=
201008041650 METAR ESMX 041650Z 16003KT 120V200 9999 FEW045 19/12 Q1008=
201008041620 METAR ESMX 041620Z 20003KT 9999 FEW045 19/11 Q1008=
201008041550 METAR ESMX 041550Z 20006KT 160V240 9999 FEW045 SCT079 19/11 Q1008=
201008041520 METAR ESMX 041520Z 21007KT 9999 FEW045 20/10 Q1008=
201008041450 METAR ESMX 041450Z 21008KT 170V240 9999 FEW045 SCT080 20/11 Q1008=
201008041420 METAR ESMX 041420Z 23006KT 190V260 9999 FEW044 BKN070 20/11 Q1008=
201008041350 METAR ESMX 041350Z 24005KT 210V270 9999 FEW042 SCT076 19/11 Q1008=
201008041320 METAR ESMX 041320Z 27003KT 230V300 9999 FEW042 SCT055 19/11 Q1008=
201008041250 METAR ESMX 041250Z 22006KT 170V250 9999 FEW035 BKN069 19/11 Q1008=
201008041220 METAR ESMX 041220Z 17005KT 100V230 9999 SCT035 19/11 Q1008=
201008041150 METAR ESMX 041150Z 25006KT 200V280 9999 FEW035 SCT051 18/11 Q1008=
201008041120 METAR ESMX 041120Z 24008KT 190V280 9999 VCSH FEW035 SCT076 20/12 Q1008=
201008041050 METAR ESMX 041050Z 25008KT 210V290 9999 FEW031 SCT077 18/11 Q1008=
201008041020 METAR ESMX 041020Z 24007KT 210V280 9999 FEW026 SCT035 BKN074 18/12 Q1008=
201008040950 METAR ESMX 040950Z 22007KT 170V260 9999 FEW022 SCT049 18/12 Q1008=
201008040920 METAR ESMX 040920Z 25008KT 210V280 9999 FEW026 SCT035 BKN042 17/12 Q1008=
201008040850 METAR ESMX 040850Z 28009KT 240V320 9999 FEW025 SCT030 BKN036 18/11 Q1008=
201008040820 METAR ESMX 040820Z 25008KT 220V290 9999 FEW024 SCT028 BKN037 17/11 Q1008=
201008040750 METAR ESMX 040750Z 28007KT 250V320 9999 FEW024 BKN029 BKN036 16/11 Q1008=
201008040720 METAR ESMX 040720Z 29009KT 9999 FEW017 SCT021 BKN029 16/11 Q1008=
201008040650 METAR ESMX 040650Z 25008KT 9999 SCT015 15/12 Q1008=
201008040620 METAR ESMX 040620Z 26007KT 9999 FEW020 14/11 Q1008=
201008040550 METAR ESMX 040550Z 25003KT 9999 FEW019 12/11 Q1008=
201008040520 METAR ESMX 040520Z 23002KT 9999 SCT033 12/10 Q1008=
201008040450 METAR ESMX 040450Z VRB02KT 9999 FEW040 12/11 Q1008=
201008040420 METAR ESMX 040420Z AUTO 23002KT 9999NDV NCD 11/10 Q1008=
201008040350 METAR ESMX 040350Z AUTO 25003KT 9999NDV NCD 11/10 Q1007=
201008040320 METAR ESMX 040320Z AUTO 24002KT 9999NDV NCD 11/10 Q1007=
201008040250 METAR ESMX 040250Z AUTO 26003KT 9999NDV NCD 11/10 Q1007=
201008040220 METAR ESMX 040220Z AUTO 27003KT 250V320 9999NDV NCD 12/10 Q1008=
201008040150 METAR ESMX 040150Z AUTO VRB02KT 9999NDV NCD 12/10 Q1008=
201008040120 METAR ESMX 040120Z AUTO 29005KT 250V330 9999NDV NCD 13/10 Q1008=
201008040050 METAR ESMX 040050Z AUTO 30005KT 9999NDV NCD 13/10 Q1008=
201008040020 METAR ESMX 040020Z AUTO 30005KT 270V360 9999NDV NCD 13/10 Q1008=
201008032350 METAR ESMX 032350Z AUTO 30005KT 270V360 9999NDV NCD 13/10 Q1008=
201008032320 METAR ESMX 032320Z 30006KT 280V030 CAVOK 14/11 Q1008=
201008032250 METAR ESMX 032250Z 30006KT 280V340 CAVOK 14/11 Q1008=
201008032220 METAR ESMX 032220Z 30007KT 270V340 CAVOK 14/11 Q1008=
201008032150 METAR ESMX 032150Z 29007KT 260V320 CAVOK 15/11 Q1008=
201008032120 METAR ESMX 032120Z 29007KT CAVOK 15/11 Q1008=
201008032050 METAR ESMX 032050Z 29006KT CAVOK 15/12 Q1008=
201008032020 METAR ESMX 032020Z 29006KT CAVOK 16/12 Q1008=
201008031950 METAR ESMX 031950Z 28004KT 250V310 CAVOK 16/12 Q1008=
201008031920 METAR ESMX 031920Z 28004KT 250V320 CAVOK 16/12 Q1008=
201008031850 METAR ESMX 031850Z 28005KT CAVOK 17/12 Q1008=
201008031820 METAR ESMX 031820Z 28005KT CAVOK 17/12 Q1008=
201008031750 METAR ESMX 031750Z 28005KT CAVOK 18/12 Q1008=
201008031720 METAR ESMX 031720Z 28006KT CAVOK 18/12 Q1008=
201008031650 METAR ESMX 031650Z 28006KT CAVOK 19/13 Q1008=
201008031620 METAR ESMX 031620Z 27007KT 240V310 CAVOK 19/13 Q1008=
201008031550 METAR ESMX 031550Z 30008KT 260V330 CAVOK 20/13 Q1008=
201008031520 METAR ESMX 031520Z 28006KT 250V320 CAVOK 20/14 Q1008=
201008031450 METAR ESMX 031450Z 28008KT 9999 SCT072 20/13 Q1008=
201008031420 METAR ESMX 031420Z 27008KT 240V300 9999 FEW035 SCT047 BKN071 20/14 Q1009=
201008031350 METAR ESMX 031350Z 29005KT 250V340 9999 FEW033 BKN073 21/13 Q1009=
201008031320 METAR ESMX 031320Z 27004KT 9999 FEW035 SCT070 21/13 Q1009=
201008031250 METAR ESMX 031250Z 29004KT 250V340 9999 FEW044 SCT054 21/13 Q1009=
201008031220 METAR ESMX 031220Z 31005KT 260V340 9999 FEW036 SCT059 21/13 Q1009=
201008031150 METAR ESMX 031150Z 31004KT 240V030 CAVOK 21/12 Q1009=
201008031120 METAR ESMX 031120Z 27004KT 200V330 9999 FEW030 21/12 Q1009=
201008031050 METAR ESMX 031050Z 35004KT 300V040 9999 FEW022 20/12 Q1010=
201008031020 METAR ESMX 031020Z 30004KT 230V010 9999 FEW022 20/13 Q1010=
201008030950 METAR ESMX 030950Z 32004KT 290V010 9999 FEW017 19/14 Q1010=
201008030920 METAR ESMX 030920Z 32005KT 280V050 9999 FEW015 19/14 Q1010=
201008030850 METAR ESMX 030850Z 29006KT 9999 SCT012 BKN070 19/14 Q1010=
201008030820 METAR ESMX 030820Z 29005KT 9999 BKN015 19/16 Q1010=
201008030750 METAR ESMX 030750Z 27005KT 240V310 9999 BKN006 18/15 Q1011=
201008030720 METAR ESMX 030720Z 24003KT 9999 SCT003 18/16 Q1011=
201008030650 METAR ESMX 030650Z 00000KT 9999 BKN004 17/16 Q1011=
201008030620 METAR ESMX 030620Z 25003KT 210V280 9999 BKN005 16/15 Q1011=
201008030550 METAR ESMX 030550Z 20003KT 130V250 9999 FEW050 BKN066 16/15 Q1011=
201008030520 METAR ESMX 030520Z 15002KT 9999 FEW030 BKN058 16/15 Q1011 RERA=
201008030450 METAR ESMX 030450Z VRB02KT 4700 -RA SCT008 BKN010 15/15 Q1011=
201008030420 METAR ESMX 030420Z AUTO 21004KT 1000NDV R01/1900D R19/P2000N -RA OVC001/// 15/15 Q1011=
201008030350 METAR ESMX 030350Z AUTO 17002KT 0150NDV R01/0550V0800N R19/0500N FG VV001 15/15 Q1011=
201008030320 METAR ESMX 030320Z AUTO VRB01KT 0350NDV R01/0900V1600D R19/P2000N FG FEW002/// OVC005/// 15/15 Q1011=
201008030250 METAR ESMX 030250Z AUTO VRB03KT 6000NDV BR FEW005/// SCT052/// BKN062/// 14/13 Q1011=
201008030220 METAR ESMX 030220Z AUTO VRB02KT 9999NDV BKN086/// 16/15 Q1011=
201008030150 METAR ESMX 030150Z AUTO VRB02KT 9999NDV FEW066/// BKN086/// 16/15 Q1011=
201008030120 METAR ESMX 030120Z AUTO VRB02KT 9000NDV SCT065/// OVC086/// 15/15 Q1011=
201008030050 METAR ESMX 030050Z AUTO VRB02KT 8000NDV FEW065/// BKN087/// 15/14 Q1011=
201008030020 METAR ESMX 030020Z AUTO 00000KT 9999NDV FEW082/// SCT094/// 15/14 Q1011=
201008022350 METAR ESMX 022350Z AUTO VRB01KT 0500NDV R01/P2000N R19/P2000N FG OVC066/// 15/14 Q1012=
201008022320 METAR ESMX 022320Z 21001KT 7000 BR BKN070 15/14 Q1012=
201008022250 METAR ESMX 022250Z 00000KT 9000 BR SCT070 15/14 Q1012=
201008022220 METAR ESMX 022220Z 00000KT CAVOK 16/15 Q1012=
201008022150 METAR ESMX 022150Z 17002KT CAVOK 16/15 Q1012=
201008022120 METAR ESMX 022120Z 16004KT CAVOK 18/16 Q1012=
201008022050 METAR ESMX 022050Z 16005KT CAVOK 18/16 Q1012=
201008022020 METAR ESMX 022020Z 16003KT 120V200 CAVOK 16/15 Q1012=
201008021950 METAR ESMX 021950Z 00000KT CAVOK 17/15 Q1012=
201008021920 METAR ESMX 021920Z 00000KT 9999 FEW040 17/15 Q1012=
201008021850 METAR ESMX 021850Z VRB01KT 9999 FEW040 18/15 Q1012=
201008021820 METAR ESMX 021820Z VRB02KT 9999 FEW040 21/15 Q1012=
201008021750 METAR ESMX 021750Z 18003KT 130V290 9999 SCT037 21/14 Q1012=
201008021720 METAR ESMX 021720Z VRB01KT 9999 FEW038 23/13 Q1012=
201008021650 METAR ESMX 021650Z 15003KT 100V210 9999 FEW041 22/15 Q1012=
201008021620 METAR ESMX 021620Z 12003KT 060V180 9999 FEW040 22/15 Q1012=
201008021550 METAR ESMX 021550Z 28005KT 250V320 9999 FEW036 23/14 Q1012=
201008021520 METAR ESMX 021520Z 29006KT 9999 FEW030CB SCT035 23/13 Q1012=
201008021450 METAR ESMX 021450Z 28004KT 170V320 9999 FEW030CB SCT035 22/14 Q1012=
201008021420 METAR ESMX 021420Z 25005KT 200V300 9999 SCT032 22/14 Q1012=
201008021350 METAR ESMX 021350Z 28005KT 250V330 9999 FEW035 SCT090 22/15 Q1012=
201008021320 METAR ESMX 021320Z 22004KT 160V260 9999 FEW028 SCT034 22/15 Q1012=
201008021250 METAR ESMX 021250Z 23005KT 170V290 9999 SCT034 22/15 Q1012=
201008021220 METAR ESMX 021220Z 26003KT 210V320 9999 SCT025 21/15 Q1012=
201008021150 METAR ESMX 021150Z 20005KT 160V250 9999 SCT024 21/15 Q1012=
201008021120 METAR ESMX 021120Z 22004KT 190V260 9999 FEW020 21/14 Q1012=
201008021050 METAR ESMX 021050Z 22005KT 170V270 9999 FEW015 SCT024 21/16 Q1012=
201008021020 METAR ESMX 021020Z 23004KT 190V280 9999 SCT015 20/16 Q1013=
201008020950 METAR ESMX 020950Z 22003KT 160V260 9999 FEW005 SCT009 BKN013 19/16 Q1013=
201008020920 METAR ESMX 020920Z 23005KT 200V270 9999 FEW004 BKN005 18/17 Q1013=
201008020850 METAR ESMX 020850Z 20004KT 160V230 9999 FEW004 SCT053 17/16 Q1013=
201008020820 METAR ESMX 020820Z 22004KT 6000 -RA FEW002 SCT027 BKN050 17/16 Q1012=
201008020750 METAR ESMX 020750Z 21003KT 5000 -RA FEW002 SCT005 16/16 Q1012=
201008020720 METAR ESMX 020720Z 20003KT 170V230 5000 -RA SCT002 BKN015 16/16 Q1012=
201008020650 METAR ESMX 020650Z 21002KT 3500 RA SCT002 BKN013 16/16 Q1012=
201008020620 METAR ESMX 020620Z VRB02KT 3500 RA SCT033 16/16 Q1012=
201008020550 METAR ESMX 020550Z VRB02KT 4000 RA FEW033 SCT051 16/16 Q1012=
201008020520 METAR ESMX 020520Z 14004KT 5500 -RA FEW042 16/16 Q1012=
201008020450 METAR ESMX 020450Z 14004KT 5000 -RA FEW089 16/15 Q1012=
201008020420 METAR ESMX 020420Z AUTO VRB02KT 3700NDV -RA FEW089/// SCT110/// 16/15 Q1012=
201008020350 METAR ESMX 020350Z AUTO VRB02KT 2200NDV BR FEW074/// SCT100/// 16/15 Q1012=
201008020320 METAR ESMX 020320Z AUTO VRB01KT 4200NDV BR BKN064/// 16/15 Q1012=
201008020250 METAR ESMX 020250Z AUTO 16003KT 4700NDV BR FEW034/// BKN069/// BKN092/// 16/15 Q1013=
201008020220 METAR ESMX 020220Z AUTO 16003KT 6000NDV BR BKN072/// 16/15 Q1013=
201008020150 METAR ESMX 020150Z AUTO 17004KT 120V200 7000NDV BR FEW058/// SCT089/// BKN100/// 17/16 Q1013=
201008020120 METAR ESMX 020120Z AUTO 15004KT 110V190 8000NDV BR FEW038/// BKN061/// 17/16 Q1013=
201008020050 METAR ESMX 020050Z AUTO 15003KT 110V180 8000NDV BR SCT061/// BKN097/// 17/16 Q1013=
201008020020 METAR ESMX 020020Z AUTO VRB02KT 7000NDV FEW062/// BKN100/// 17/16 Q1013=
201008012350 METAR ESMX 012350Z 12002KT 2000 BCFG BR FEW039 SCT045 BKN051 16/15 Q1013=
201008012320 METAR ESMX 012320Z 00000KT 1000 R01/0800 R19/1200VP2000U BCFG FEW053 SCT064 16/15 Q1013=
201008012250 METAR ESMX 012250Z VRB01KT 1100 R01/0750V1300N R19/0800V1600D BCFG FEW020 SCT030 16/15 Q1013=
201008012220 METAR ESMX 012220Z 00000KT 1200 R01/0800V1400N R19/0800V1300U FGBC FEW034 SCT091 16/15 Q1014=
201008012150 METAR ESMX 012150Z 00000KT 1200 R01/P2000D R19/P2000N BCFG SCT082 16/16 Q1014=
201008012120 METAR ESMX 012120Z 00000KT 1500 R01/0800VP2000D R19/P2000N BCFG FEW052 17/16 Q1013=
201008012050 METAR ESMX 012050Z 18001KT 6000 BR FEW043 SCT055 17/16 Q1013=
201008012020 METAR ESMX 012020Z 22002KT 9999 FEW022 SCT074 BKN087 17/16 Q1013=
201008011950 METAR ESMX 011950Z VRB01KT 9999 -RA SCT023 BKN061 18/17 Q1013=
201008011920 METAR ESMX 011920Z 24004KT 9999 RASH BKN024 18/16 Q1013=
201008011850 METAR ESMX 011850Z VRB01KT 9999 BKN026 19/16 Q1013=
201008011820 METAR ESMX 011820Z 22003KT 180V240 9999 FEW027 SCT040 BKN065 19/16 Q1013=
201008011750 METAR ESMX 011750Z 23003KT 9999 FEW035 SCT050 BKN078 19/16 Q1013=
201008011720 METAR ESMX 011720Z 23004KT 9999 FEW040 SCT057 20/16 Q1013=
201008011650 METAR ESMX 011650Z 23004KT 190V260 9999 FEW035 SCT055 21/16 Q1012=
201008011620 METAR ESMX 011620Z 25006KT 210V290 9999 VCSH FEW036CB SCT060 22/15 Q1012=
201008011550 METAR ESMX 011550Z 18010KT 140V200 9999 FEW050 SCT066 22/15 Q1012=
201008011520 METAR ESMX 011520Z 18012KT 9999 SCT040 BKN055 23/15 Q1012=
201008011450 METAR ESMX 011450Z 17007KT 120V190 9999 SCT040 BKN055 22/15 Q1012=
201008011420 METAR ESMX 011420Z 19012KT 9999 FEW039 SCT084 24/15 Q1012=
201008011320 METAR ESMX 011320Z 19009KT 140V220 9999 FEW035 24/16 Q1012=
201008011250 METAR ESMX 011250Z 17008KT 140V210 9999 FEW032 SCT050 BKN083 23/15 Q1012=
201008011220 METAR ESMX 011220Z 18008KT 140V220 9999 FEW034 SCT077 23/15 Q1012=
