##########################################################
# Query made at 04/19/2024 21:15:34 UTC
# Time interval: from 04/01/2010 12:00  to 04/30/2010 12:59  UTC
##########################################################

##########################################################
# ESMX, Vaxjo (Sweden)
# WMO index: 02641. WIGOS ID: 0-20000-0-02648
# Latitude 56-51N. Longitude 014-50E. Altitude 199 m.
##########################################################

201004301250 METAR ESMX 301250Z VRB02KT 5000 BR FEW030 BKN100 11/10 Q0997=
201004301220 METAR ESMX 301220Z 04002KT 5000 -RA FEW030 BKN100 11/10 Q0997=
201004301150 METAR ESMX 301150Z 06004KT 6000 BR FEW030 BKN100 11/10 Q0998=
201004301120 METAR ESMX 301120Z 05004KT 5000 -RA FEW030 BKN100 11/10 Q0998=
201004301050 METAR ESMX 301050Z 12003KT 070V150 4000 -RA FEW020 BKN050 11/09 Q0999=
201004301020 METAR ESMX 301020Z 20007KT 6000 -RA FEW027 SCT063 11/09 Q1000=
201004300950 METAR ESMX 300950Z 20013KT 4400 -RA FEW027 SCT059 11/09 Q1000=
201004300920 METAR ESMX 300920Z 18004KT 110V220 8000 RA FEW050 BKN080 12/10 Q1000=
201004300850 METAR ESMX 300850Z 17006KT 140V200 8000 -RA SCT050 BKN080 13/09 Q1000=
201004300820 METAR ESMX 300820Z 14004KT CAVOK 13/09 Q1000=
201004300750 METAR ESMX 300750Z 16005KT 130V200 CAVOK 13/08 Q1000=
201004300720 METAR ESMX 300720Z VRB03KT 9999 FEW045 SCT100 13/08 Q1000=
201004300650 METAR ESMX 300650Z 16004KT 130V190 9999 BR FEW050 BKN100 12/08 Q1001=
201004300620 METAR ESMX 300620Z 13003KT 100V170 9000 BR FEW050 BKN100 12/08 Q1001=
201004300550 METAR ESMX 300550Z 14003KT 100V190 9000 BR FEW050 BKN100 12/08 Q1001=
201004300520 METAR ESMX 300520Z 17003KT 150V210 7000 BR FEW050 SCT100 11/08 Q1002=
201004300450 METAR ESMX 300450Z 14004KT 100V170 7000 BR FEW055 SCT070 10/08 Q1002=
201004300420 METAR ESMX 300420Z 13004KT 110V170 6000 BR SCT055 09/07 Q1002=
201004300350 METAR ESMX 300350Z 20003KT 6000 BR BKN050 09/07 Q1002=
201004300320 METAR ESMX 300320Z AUTO 16002KT 5000NDV BR BKN069/// 08/07 Q1003=
201004300250 METAR ESMX 300250Z AUTO 13002KT 6000NDV BR FEW079/// BKN092/// 08/07 Q1003=
201004300220 METAR ESMX 300220Z AUTO 13001KT 5000NDV BR SCT090/// 09/07 Q1003=
201004300150 METAR ESMX 300150Z AUTO 22001KT 7000NDV BR FEW099/// SCT110/// 09/07 Q1003=
201004300120 METAR ESMX 300120Z AUTO 21004KT 7000NDV BR FEW100/// SCT110/// 10/07 Q1004=
201004300050 METAR ESMX 300050Z AUTO 22003KT 8000NDV BR FEW110/// 10/07 Q1004=
201004300020 METAR ESMX 300020Z AUTO 22003KT 8000NDV BR NCD 10/07 Q1004=
201004292350 METAR ESMX 292350Z AUTO 22004KT 8000NDV BR NCD 11/07 Q1004=
201004292320 METAR ESMX 292320Z 22005KT 8000 BR NSC 11/07 Q1004=
201004292250 METAR ESMX 292250Z 22005KT 8000 BR NSC 11/07 Q1004=
201004292220 METAR ESMX 292220Z 21006KT 7000 BR NSC 11/07 Q1004=
201004292150 METAR ESMX 292150Z 19006KT 7000 BR FEW093 BKN110 12/07 Q1004=
201004292120 METAR ESMX 292120Z 19006KT 7000 BR BKN090 12/07 Q1005=
201004292050 METAR ESMX 292050Z 19007KT 7000 BR NSC 12/07 Q1005=
201004292020 METAR ESMX 292020Z 21005KT 8000 BR NSC 12/07 Q1005=
201004291950 METAR ESMX 291950Z 22006KT CAVOK 12/07 Q1006=
201004291920 METAR ESMX 291920Z 22006KT CAVOK 13/06 Q1006=
201004291850 METAR ESMX 291850Z 23005KT CAVOK 14/06 Q1006=
201004291820 METAR ESMX 291820Z 24007KT 200V280 CAVOK 16/06 Q1006=
201004291750 METAR ESMX 291750Z 26008KT CAVOK 17/06 Q1006=
201004291720 METAR ESMX 291720Z 25006KT 200V280 CAVOK 18/07 Q1006=
201004291650 METAR ESMX 291650Z 17005KT CAVOK 18/09 Q1006=
201004291620 METAR ESMX 291620Z 19008KT CAVOK 18/08 Q1006=
201004291550 METAR ESMX 291550Z 20010KT 170V240 CAVOK 18/08 Q1006=
201004291520 METAR ESMX 291520Z 22009KT CAVOK 18/08 Q1007=
201004291450 METAR ESMX 291450Z 22011KT CAVOK 18/08 Q1007=
201004291420 METAR ESMX 291420Z 21011KT 190V250 CAVOK 18/08 Q1007=
201004291350 METAR ESMX 291350Z 23011KT 190V270 CAVOK 18/08 Q1008=
201004291320 METAR ESMX 291320Z 22009KT 190V260 CAVOK 17/09 Q1008=
201004291250 METAR ESMX 291250Z 20010KT 9999 FEW045 17/09 Q1009=
201004291220 METAR ESMX 291220Z 21010KT 180V240 9999 FEW047 16/10 Q1009=
201004291150 METAR ESMX 291150Z 22010KT 190V250 9000 FEW047 16/09 Q1009=
201004291120 METAR ESMX 291120Z 23009KT 9000 BKN071 16/09 Q1009=
201004291050 METAR ESMX 291050Z 21011KT 9000 FEW026 BKN085 16/09 Q1010=
201004291020 METAR ESMX 291020Z 23012KT CAVOK 16/09 Q1010=
201004290950 METAR ESMX 290950Z 21012KT 9999 FEW045 16/09 Q1010=
201004290920 METAR ESMX 290920Z 21011KT CAVOK 15/09 Q1010=
201004290850 METAR ESMX 290850Z 20012KT CAVOK 14/09 Q1010=
201004290820 METAR ESMX 290820Z 19009KT CAVOK 13/09 Q1011=
201004290750 METAR ESMX 290750Z 22008KT 9999 FEW045 12/09 Q1011=
201004290720 METAR ESMX 290720Z 20009KT CAVOK 11/09 Q1011=
201004290650 METAR ESMX 290650Z 19009KT 8000 BR NSC 10/08 Q1011=
201004290620 METAR ESMX 290620Z 21008KT 8000 BR FEW080 09/08 Q1012=
201004290550 METAR ESMX 290550Z 20006KT 6000 BR NSC 09/08 Q1012=
201004290520 METAR ESMX 290520Z 20007KT 6000 -RA NSC 09/08 Q1012 REDZ=
201004290450 METAR ESMX 290450Z 20008KT 7000 -DZ NSC 09/07 Q1012=
201004290420 METAR ESMX 290420Z 23007KT 9000 -RA BKN075 09/07 Q1013=
201004290350 METAR ESMX 290350Z 23008KT 200V260 9000 BR SCT075 09/07 Q1013=
201004290320 METAR ESMX 290320Z AUTO 21008KT 9999NDV SCT083/// 09/07 Q1013=
201004290250 METAR ESMX 290250Z AUTO 22007KT 190V250 9999NDV OVC083/// 09/07 Q1014=
201004290220 METAR ESMX 290220Z AUTO 21007KT 9999NDV OVC081/// 09/07 Q1014=
201004290150 METAR ESMX 290150Z AUTO 21007KT 9999NDV BKN082/// 09/07 Q1014=
201004290120 METAR ESMX 290120Z AUTO 21007KT 9999NDV FEW031/// BKN083/// 09/07 Q1014=
201004290050 METAR ESMX 290050Z AUTO 21007KT 9999NDV FEW030/// 09/07 Q1015=
201004290020 METAR ESMX 290020Z AUTO 18007KT 9999NDV SCT099/// 08/07 Q1015=
201004282350 METAR ESMX 282350Z AUTO 19007KT 9999NDV BKN100/// 08/07 Q1015=
201004282320 METAR ESMX 282320Z 19008KT 9999 FEW045 08/07 Q1016=
201004282250 METAR ESMX 282250Z 20009KT 9999 FEW050 08/07 Q1016=
201004282220 METAR ESMX 282220Z 20008KT 9999 FEW048 09/07 Q1016=
201004282150 METAR ESMX 282150Z 19011KT 9999 BKN045 08/07 Q1016=
201004282120 METAR ESMX 282120Z 19009KT CAVOK 08/07 Q1017=
201004282050 METAR ESMX 282050Z 18009KT 9999 FEW040 BKN050 08/07 Q1017=
201004282020 METAR ESMX 282020Z 20007KT 9999 FEW040 BKN045 08/07 Q1018=
201004281950 METAR ESMX 281950Z 21007KT 170V240 9999 SCT035 BKN045 08/07 Q1018=
201004281920 METAR ESMX 281920Z 19007KT 9999 BKN040 08/07 Q1018=
201004281850 METAR ESMX 281850Z 18007KT 9999 -RA FEW025 BKN035 08/07 Q1018=
201004281820 METAR ESMX 281820Z 21005KT 9999 -RA FEW020 SCT030 BKN040 08/07 Q1019=
201004281750 METAR ESMX 281750Z 21006KT 8000 -RA FEW020 SCT030 BKN040 08/07 Q1019=
201004281720 METAR ESMX 281720Z 22007KT 9999 -DZ FEW036 SCT046 BKN067 09/07 Q1019=
201004281650 METAR ESMX 281650Z 23007KT 9999 DZ FEW023 SCT026 BKN043 09/07 Q1020=
201004281620 METAR ESMX 281620Z 24008KT 210V280 9999 DZ FEW027 SCT048 10/06 Q1020=
201004281550 METAR COR ESMX 281550Z 24006KT 210V280 CAVOK 11/08 Q1020=
201004281520 METAR ESMX 281520Z 28004KT 250V330 9999 DZ FEW027 SCT041 12/07 Q1020=
201004281450 METAR ESMX 281450Z 29008KT 250V330 9999 -RA FEW038 BKN047 BKN063 13/05 Q1020=
201004281420 METAR ESMX 281420Z 26009KT CAVOK 14/03 Q1020=
201004281350 METAR ESMX 281350Z 27009KT 240V310 9999 FEW039 SCT095 14/05 Q1020=
201004281320 METAR ESMX 281320Z 26008KT 220V300 9999 FEW039 SCT055 15/05 Q1020=
201004281250 METAR ESMX 281250Z 24008KT 210V270 9999 BKN037 BKN049 15/05 Q1020=
201004281220 METAR ESMX 281220Z 21007KT 170V250 9999 BKN035 14/06 Q1021=
201004281150 METAR ESMX 281150Z 24008KT 210V270 9999 SCT031 14/05 Q1021=
201004281120 METAR ESMX 281120Z VRB05KT 9999 FEW026 SCT029 13/05 Q1021=
201004281050 METAR ESMX 281050Z 20005KT 150V260 9999 FEW020 SCT025 BKN079 12/05 Q1021=
201004281020 METAR ESMX 281020Z 21005KT 150V260 9999 BKN016 11/05 Q1022=
201004280950 METAR ESMX 280950Z 19005KT 110V250 9999 BKN015 10/05 Q1022=
201004280920 METAR ESMX 280920Z 20005KT 140V260 9999 OVC010 09/05 Q1022=
201004280850 METAR ESMX 280850Z 19005KT 150V230 9999 OVC008 08/05 Q1022=
201004280820 METAR ESMX 280820Z 20003KT 150V250 9999 OVC007 07/05 Q1022=
201004280750 METAR ESMX 280750Z 22004KT 190V270 9999 OVC007 07/05 Q1022=
201004280720 METAR ESMX 280720Z 19003KT 150V270 9999 OVC006 07/05 Q1022=
201004280650 METAR ESMX 280650Z 21004KT 170V240 9999 OVC006 07/05 Q1021=
201004280620 METAR ESMX 280620Z 20004KT 9999 OVC006 07/05 Q1021=
201004280550 METAR ESMX 280550Z 27004KT 240V300 9999 OVC006 07/05 Q1021=
201004280520 METAR ESMX 280520Z 34002KT 9999 OVC006 07/05 Q1021=
201004280450 METAR ESMX 280450Z 35004KT 300V010 9999 OVC006 07/05 Q1021=
201004280420 METAR ESMX 280420Z 32005KT 280V350 9999 OVC007 07/05 Q1021=
201004280350 METAR ESMX 280350Z 30005KT 260V340 9999 OVC008 07/05 Q1021=
201004280320 METAR ESMX 280320Z AUTO 29005KT 9999NDV OVC009/// 07/05 Q1020=
201004280250 METAR ESMX 280250Z AUTO 30006KT 260V330 9999NDV OVC009/// 07/05 Q1020=
201004280220 METAR ESMX 280220Z AUTO 30006KT 9999NDV OVC010/// 07/05 Q1020=
201004280150 METAR ESMX 280150Z AUTO 30007KT 9999NDV OVC010/// 07/05 Q1020=
201004280120 METAR ESMX 280120Z AUTO 27005KT 240V300 9999NDV OVC011/// 07/05 Q1020=
201004280050 METAR ESMX 280050Z AUTO 27008KT 240V300 9999NDV OVC011/// 07/04 Q1020=
201004280020 METAR ESMX 280020Z AUTO 27008KT 9999NDV OVC011/// 08/05 Q1020=
201004272350 METAR ESMX 272350Z 27007KT 9999 OVC012 08/05 Q1020=
201004272320 METAR ESMX 272320Z 28009KT 240V310 9999 OVC013 08/05 Q1020=
201004272250 METAR ESMX 272250Z 28006G25KT 240V310 9999 OVC013 08/05 Q1020=
201004272220 METAR ESMX 272220Z 28008KT 250V320 9999 BKN011 08/05 Q1019=
201004272120 METAR ESMX 272120Z 27008KT 9999 SCT013 BKN017 08/06 Q1019=
201004272050 METAR ESMX 272050Z 26007KT 230V290 9999 BKN017 08/06 Q1019=
201004272020 METAR ESMX 272020Z 26007KT 230V300 9999 BKN020 09/06 Q1019=
201004271950 METAR ESMX 271950Z 25006KT 210V290 9999 OVC021 09/05 Q1019=
201004271850 METAR ESMX 271850Z 27007KT 230V300 9999 FEW018 OVC020 09/06 Q1019=
201004271820 METAR ESMX 271820Z 27005KT 9999 FEW018 OVC021 10/06 Q1018=
201004271750 METAR ESMX 271750Z 27008KT 240V320 9999 BKN018 10/06 Q1018=
201004271720 METAR ESMX 271720Z 28008KT 250V310 9999 FEW015 OVC018 10/06 Q1018=
201004271650 METAR ESMX 271650Z 26008KT 220V310 9999 OVC016 10/06 Q1018=
201004271620 METAR ESMX 271620Z 27011KT 9999 OVC014 10/06 Q1018=
201004271550 METAR ESMX 271550Z 27010KT 240V300 9999 BKN014 OVC018 10/06 Q1018=
201004271520 METAR ESMX 271520Z 27010KT 240V300 9999 FEW013 OVC017 10/06 Q1018=
201004271450 METAR ESMX 271450Z 26011KT 9999 FEW020 SCT023 BKN027 11/06 Q1018=
201004271420 METAR ESMX 271420Z 26010KT 230V310 9999 FEW025 BKN028 12/06 Q1018=
201004271350 METAR ESMX 271350Z 27009KT 230V310 9999 FEW025 BKN028 13/06 Q1018=
201004271320 METAR ESMX 271320Z 28011KT 240V310 9999 BKN028 13/05 Q1018=
201004271250 METAR ESMX 271250Z 27013KT 9999 SCT026 BKN034 13/06 Q1018=
201004271220 METAR ESMX 271220Z 27011KT 240V300 9999 SCT022 14/06 Q1017=
201004271150 METAR ESMX 271150Z 30010KT 260V340 9999 SCT023 13/06 Q1017=
201004271120 METAR ESMX 271120Z 30008KT 250V350 9999 BKN021 12/06 Q1017=
201004271050 METAR ESMX 271050Z 29010KT 9999 BKN021 12/06 Q1017=
201004271020 METAR ESMX 271020Z 30010KT 260V330 9999 SCT020 12/06 Q1017=
201004270950 METAR ESMX 270950Z 27009KT 240V300 8000 BR BKN015 BKN022 11/06 Q1017=
201004270920 METAR ESMX 270920Z 28009KT 240V310 7000 BR OVC015 11/07 Q1017=
201004270850 METAR ESMX 270850Z 28009KT 250V320 6000 BR BKN013 11/07 Q1017=
201004270820 METAR ESMX 270820Z 29009KT 260V330 6000 BR FEW011 BKN013 OVC017 11/06 Q1017=
201004270750 METAR ESMX 270750Z 29009KT 250V320 8000 BR BKN010 11/07 Q1017=
201004270720 METAR ESMX 270720Z 28007KT 250V320 9999 FEW019 SCT023 11/07 Q1016=
201004270650 METAR ESMX 270650Z 28007KT 240V300 9999 SCT022 BKN040 09/06 Q1016=
201004270620 METAR ESMX 270620Z 29005KT 9999 FEW025 BKN045 09/06 Q1016=
201004270550 METAR ESMX 270550Z 29006KT 9999 FEW040 BKN045 08/05 Q1016=
201004270520 METAR ESMX 270520Z 30003KT 9999 SCT034 OVC052 08/03 Q1016=
201004270450 METAR ESMX 270450Z 30005KT 270V330 9999 BKN035 08/02 Q1016=
201004270420 METAR ESMX 270420Z 29005KT 9999 FEW041 OVC058 07/01 Q1016=
201004270350 METAR ESMX 270350Z 30004KT 280V350 9999 FEW041 BKN065 06/01 Q1016=
201004270320 METAR ESMX 270320Z AUTO 29002KT 9999NDV NCD 05/00 Q1016=
201004270250 METAR ESMX 270250Z AUTO 27003KT 9999NDV FEW094/// 04/01 Q1016=
201004270220 METAR ESMX 270220Z AUTO 24001KT 9999NDV NCD 04/01 Q1016=
201004270150 METAR ESMX 270150Z AUTO 30001KT 9999NDV NCD 04/01 Q1016=
201004270120 METAR ESMX 270120Z AUTO VRB02KT 9999NDV NCD 04/01 Q1017=
201004270050 METAR ESMX 270050Z AUTO VRB01KT 9999NDV FEW078/// 05/01 Q1016=
201004270020 METAR ESMX 270020Z AUTO 35001KT 9999NDV FEW084/// 04/00 Q1017=
201004262350 METAR ESMX 262350Z 36002KT CAVOK 04/00 Q1017=
201004262320 METAR ESMX 262320Z 00000KT CAVOK 04/M00 Q1017=
201004262250 METAR ESMX 262250Z 00000KT CAVOK 04/M00 Q1017=
201004262220 METAR ESMX 262220Z 00000KT CAVOK 04/M00 Q1017=
201004262150 METAR ESMX 262150Z 00000KT CAVOK 05/M00 Q1018=
201004262120 METAR ESMX 262120Z VRB01KT CAVOK 05/M00 Q1018=
201004262050 METAR ESMX 262050Z 00000KT CAVOK 06/M01 Q1018=
201004262020 METAR ESMX 262020Z 14003KT 090V160 CAVOK 08/M00 Q1018=
201004261950 METAR ESMX 261950Z 14003KT 110V170 CAVOK 08/M00 Q1019=
201004261920 METAR ESMX 261920Z 17003KT CAVOK 08/M00 Q1019=
201004261850 METAR ESMX 261850Z 16003KT CAVOK 10/M00 Q1019=
201004261820 METAR ESMX 261820Z 17002KT CAVOK 12/M01 Q1019=
201004261750 METAR ESMX 261750Z 18005KT CAVOK 13/M03 Q1019=
201004261720 METAR ESMX 261720Z 18008KT 140V210 CAVOK 14/M03 Q1019=
201004261650 METAR ESMX 261650Z 17009KT CAVOK 15/M03 Q1019=
201004261620 METAR ESMX 261620Z 18010KT CAVOK 15/M03 Q1019=
201004261550 METAR ESMX 261550Z 18010KT CAVOK 15/M03 Q1019=
201004261520 METAR ESMX 261520Z 18010KT CAVOK 16/M02 Q1019=
201004261450 METAR ESMX 261450Z 18011KT 140V210 CAVOK 16/M02 Q1020=
201004261420 METAR ESMX 261420Z 18011KT 140V210 CAVOK 17/M01 Q1020=
201004261350 METAR ESMX 261350Z 17011KT 140V200 CAVOK 17/M01 Q1020=
201004261320 METAR ESMX 261320Z 18011KT 140V210 CAVOK 17/M01 Q1020=
201004261250 METAR ESMX 261250Z 18012KT 140V210 CAVOK 16/M01 Q1021=
201004261220 METAR ESMX 261220Z 17011KT 120V200 CAVOK 17/M00 Q1021=
201004261150 METAR ESMX 261150Z 19011KT 160V230 9999 FEW040 17/M02 Q1021=
201004261120 METAR ESMX 261120Z 15009KT 100V190 CAVOK 17/M02 Q1021=
201004261050 METAR ESMX 261050Z 16010KT 130V190 CAVOK 16/M03 Q1022=
201004261020 METAR ESMX 261020Z 17009KT 120V200 9999 FEW049 17/M03 Q1022=
201004260950 METAR ESMX 260950Z 16008KT 110V200 9999 FEW041 15/M02 Q1022=
201004260920 METAR ESMX 260920Z 16011KT CAVOK 15/M02 Q1022=
201004260850 METAR ESMX 260850Z 15005KT 090V190 CAVOK 13/M01 Q1023=
201004260820 METAR ESMX 260820Z 14005KT 050V180 CAVOK 12/M01 Q1023=
201004260750 METAR ESMX 260750Z 16005KT 100V200 CAVOK 11/M01 Q1023=
201004260720 METAR ESMX 260720Z 15005KT 110V190 CAVOK 10/00 Q1023=
201004260650 METAR ESMX 260650Z 15005KT 110V200 CAVOK 09/00 Q1024=
201004260620 METAR ESMX 260620Z 14006KT 080V190 CAVOK 07/00 Q1024=
201004260550 METAR ESMX 260550Z 14004KT 080V190 CAVOK 06/00 Q1024=
201004260520 METAR ESMX 260520Z 13004KT 080V160 CAVOK 04/00 Q1024=
201004260450 METAR ESMX 260450Z VRB01KT CAVOK 01/M01 Q1024=
201004260420 METAR ESMX 260420Z VRB02KT CAVOK M00/M02 Q1024=
201004260350 METAR ESMX 260350Z 08002KT CAVOK M00/M02 Q1024=
201004260320 METAR ESMX 260320Z AUTO VRB02KT 9999NDV NCD M00/M02 Q1024=
201004260250 METAR ESMX 260250Z AUTO VRB02KT 9999NDV NCD M00/M02 Q1025=
201004260220 METAR ESMX 260220Z AUTO 06002KT 9999NDV NCD M00/M02 Q1025=
201004260150 METAR ESMX 260150Z AUTO 08002KT 9999NDV NCD M01/M03 Q1025=
201004260120 METAR ESMX 260120Z AUTO 03002KT 9999NDV NCD M00/M03 Q1025=
201004260050 METAR ESMX 260050Z AUTO 10003KT 9999NDV OVC100/// 00/M03 Q1025=
201004260020 METAR ESMX 260020Z 00000KT CAVOK M01/M03 Q1026=
201004252350 METAR ESMX 252350Z 00000KT CAVOK M00/M03 Q1026=
201004252320 METAR ESMX 252320Z VRB01KT CAVOK M00/M03 Q1026=
201004252250 METAR ESMX 252250Z 11002KT CAVOK 00/M04 Q1026=
201004252220 METAR ESMX 252220Z VRB01KT CAVOK 01/M03 Q1027=
201004252150 METAR ESMX 252150Z 08001KT CAVOK 02/M03 Q1027=
201004252120 METAR ESMX 252120Z VRB01KT CAVOK 03/M03 Q1027=
201004252050 METAR ESMX 252050Z 16003KT CAVOK 05/M03 Q1027=
201004252020 METAR ESMX 252020Z 16004KT CAVOK 06/M03 Q1027=
201004251950 METAR ESMX 251950Z 17005KT CAVOK 07/M05 Q1027=
201004251920 METAR ESMX 251920Z 17005KT CAVOK 08/M05 Q1027=
201004251850 METAR ESMX 251850Z 17006KT CAVOK 08/M06 Q1027=
201004251820 METAR ESMX 251820Z 16005KT CAVOK 09/M06 Q1027=
201004251750 METAR ESMX 251750Z 18006KT CAVOK 10/M06 Q1027=
201004251720 METAR ESMX 251720Z 16006KT CAVOK 11/M07 Q1027=
201004251650 METAR ESMX 251650Z 18007KT 160V220 CAVOK 12/M09 Q1027=
201004251620 METAR ESMX 251620Z 16007KT 120V190 CAVOK 12/M10 Q1027=
201004251550 METAR ESMX 251550Z 18007KT 140V220 CAVOK 13/M10 Q1027=
201004251520 METAR ESMX 251520Z 16009KT 120V190 CAVOK 13/M10 Q1027=
201004251450 METAR ESMX 251450Z 15008KT 110V190 CAVOK 14/M12 Q1027=
201004251420 METAR ESMX 251420Z 14007KT 100V180 CAVOK 14/M13 Q1028=
201004251350 METAR ESMX 251350Z 14008KT 100V180 CAVOK 14/M11 Q1028=
201004251320 METAR ESMX 251320Z 17009KT 120V210 CAVOK 14/M12 Q1028=
201004251250 METAR ESMX 251250Z 16009KT 110V210 CAVOK 14/M08 Q1028=
201004251220 METAR ESMX 251220Z 17009KT 140V210 CAVOK 14/M07 Q1028=
201004251150 METAR ESMX 251150Z AUTO 15008KT 070V190 9999NDV FEW110/// 13/M05 Q1029=
201004251120 METAR ESMX 251120Z AUTO 18007KT 9999NDV NCD 13/M06 Q1029=
201004251050 METAR ESMX 251050Z AUTO 18007KT 120V240 9999NDV NCD 13/M07 Q1029=
201004251020 METAR ESMX 251020Z AUTO 23008KT 180V260 9999NDV NCD 13/M05 Q1029=
201004250950 METAR ESMX 250950Z AUTO 18007KT 140V240 9999NDV NCD 12/M06 Q1029=
201004250920 METAR ESMX 250920Z AUTO 22008KT 180V260 9999NDV FEW052/// 11/M04 Q1030=
201004250850 METAR ESMX 250850Z AUTO 21009KT 170V250 9999NDV NCD 11/M03 Q1030=
201004250820 METAR ESMX 250820Z AUTO 22008KT 170V260 9999NDV NCD 10/M04 Q1030=
201004250750 METAR ESMX 250750Z AUTO 20006KT 160V220 9999NDV NCD 09/M01 Q1029=
201004250720 METAR ESMX 250720Z AUTO 16003KT 110V200 9999NDV NCD 08/M00 Q1029=
201004250650 METAR ESMX 250650Z AUTO VRB01KT 9999NDV NCD 05/M00 Q1029=
201004250620 METAR ESMX 250620Z AUTO 00000KT 9999NDV NCD 03/M00 Q1029=
201004250550 METAR ESMX 250550Z AUTO 00000KT 9999NDV NCD 02/M01 Q1029=
201004250520 METAR ESMX 250520Z AUTO VRB01KT 9999NDV NCD 01/M01 Q1029=
201004250450 METAR ESMX 250450Z AUTO 00000KT 9999NDV NCD M01/M02 Q1028=
201004250420 METAR ESMX 250420Z AUTO 19001KT 9999NDV NCD M03/M04 Q1028=
201004250350 METAR ESMX 250350Z AUTO 17001KT 9999NDV NCD M04/M04 Q1028=
201004250320 METAR ESMX 250320Z AUTO 00000KT 9999NDV NCD M04/M05 Q1028=
201004250250 METAR ESMX 250250Z AUTO 17001KT 9999NDV NCD M04/M04 Q1028=
201004250220 METAR ESMX 250220Z AUTO 18001KT 9999NDV NCD M04/M05 Q1028=
201004250150 METAR ESMX 250150Z AUTO VRB01KT 9999NDV NCD M04/M06 Q1028=
201004250120 METAR ESMX 250120Z AUTO 00000KT 9999NDV NCD M03/M04 Q1027=
201004250050 METAR ESMX 250050Z AUTO 13001KT 9999NDV NCD M02/M04 Q1027=
201004250020 METAR ESMX 250020Z AUTO VRB01KT 9999NDV NCD M02/M03 Q1027=
201004242350 METAR ESMX 242350Z AUTO 20003KT 9999NDV NCD M02/M04 Q1027=
201004242320 METAR ESMX 242320Z AUTO 00000KT 9999NDV NCD M00/M03 Q1027=
201004242250 METAR ESMX 242250Z AUTO 26002KT 9999NDV NCD 01/M03 Q1026=
201004242220 METAR ESMX 242220Z AUTO 28002KT 9999NDV NCD 01/M03 Q1026=
201004242150 METAR ESMX 242150Z AUTO 24003KT 9999NDV NCD 02/M03 Q1026=
201004242120 METAR ESMX 242120Z AUTO 26004KT 9999NDV NCD 01/M03 Q1026=
201004242050 METAR ESMX 242050Z AUTO 24004KT 9999NDV NCD 03/M03 Q1025=
201004242020 METAR ESMX 242020Z AUTO 25004KT 9999NDV NCD 03/M03 Q1025=
201004241950 METAR ESMX 241950Z AUTO 26003KT 9999NDV NCD 05/M03 Q1025=
201004241920 METAR ESMX 241920Z AUTO 26003KT 9999NDV NCD 06/M04 Q1024=
201004241850 METAR ESMX 241850Z AUTO 27004KT 9999NDV NCD 07/M04 Q1024=
201004241820 METAR ESMX 241820Z AUTO 27005KT 9999NDV NCD 08/M04 Q1023=
201004241750 METAR ESMX 241750Z AUTO 27007KT 9999NDV NCD 09/M04 Q1023=
201004241720 METAR ESMX 241720Z AUTO 27009KT 9999NDV NCD 10/M05 Q1022=
201004241650 METAR ESMX 241650Z AUTO 28009KT 240V310 9999NDV SCT063/// 11/M05 Q1022=
201004241620 METAR ESMX 241620Z AUTO 29009KT 9999NDV FEW066/// 11/M05 Q1022=
201004241550 METAR ESMX 241550Z AUTO 26008KT 210V290 9999NDV SCT064/// 12/M05 Q1021=
201004241520 METAR ESMX 241520Z AUTO 26010KT 9999NDV SCT061/// BKN079/// 12/M04 Q1021=
201004241450 METAR ESMX 241450Z AUTO 28010KT 250V340 9999NDV FEW061/// 12/M04 Q1021=
201004241420 METAR ESMX 241420Z AUTO 33007KT 290V360 9999NDV FEW063/// SCT075/// 11/M04 Q1021=
201004241350 METAR ESMX 241350Z AUTO 31007KT 250V340 9999NDV FEW072/// SCT087/// 11/M04 Q1021=
201004241320 METAR ESMX 241320Z AUTO 30010KT 250V330 9999NDV FEW059/// SCT082/// 11/M05 Q1020=
201004241250 METAR ESMX 241250Z AUTO 31009KT 9999NDV FEW060/// BKN070/// 10/M05 Q1020=
201004241220 METAR ESMX 241220Z AUTO 28009KT 250V320 9999NDV FEW057/// SCT068/// 10/M04 Q1020=
201004241150 METAR ESMX 241150Z AUTO 30008KT 230V340 9999NDV SCT053/// 10/M04 Q1020=
201004241120 METAR ESMX 241120Z AUTO 31009KT 260V350 9999NDV SCT051/// 09/M04 Q1019=
201004241050 METAR ESMX 241050Z AUTO 30010KT 240V330 9999NDV FEW050/// 09/M04 Q1019=
201004241020 METAR ESMX 241020Z AUTO 27010KT 230V300 9999NDV FEW047/// 09/M03 Q1019=
201004240920 METAR ESMX 240920Z 29009KT 260V340 CAVOK 08/M03 Q1018=
201004240850 METAR ESMX 240850Z 26010KT CAVOK 08/M04 Q1018=
201004240820 METAR ESMX 240820Z 28009KT 230V320 CAVOK 07/M03 Q1018=
201004240750 METAR ESMX 240750Z 28009KT 230V310 CAVOK 06/M03 Q1017=
201004240650 METAR ESMX 240650Z 29009KT CAVOK 05/M02 Q1016=
201004240620 METAR ESMX 240620Z 28008KT CAVOK 04/M01 Q1016=
201004240550 METAR ESMX 240550Z AUTO 27007KT 9999NDV NCD 03/M01 Q1016=
201004240520 METAR ESMX 240520Z AUTO 27007KT 9999NDV NCD 02/M01 Q1015=
201004240450 METAR ESMX 240450Z AUTO 26006KT 9999NDV NCD 01/M02 Q1015=
201004240420 METAR ESMX 240420Z AUTO 26005KT 9999NDV NCD M00/M02 Q1014=
201004240350 METAR ESMX 240350Z AUTO 26005KT 9999NDV NCD M00/M02 Q1014=
201004240320 METAR ESMX 240320Z AUTO 25005KT 9999NDV NCD M01/M02 Q1014=
201004240250 METAR ESMX 240250Z AUTO 24004KT 200V280 9999NDV NCD M00/M02 Q1013=
201004240220 METAR ESMX 240220Z AUTO 26006KT 220V290 9999NDV NCD 00/M02 Q1013=
201004240150 METAR ESMX 240150Z AUTO 26008KT 9999NDV NCD 01/M02 Q1012=
201004240120 METAR ESMX 240120Z AUTO 25008KT 9999NDV NCD 01/M02 Q1012=
201004240050 METAR ESMX 240050Z AUTO 26006KT 240V300 9999NDV NCD 00/M02 Q1012=
201004240020 METAR ESMX 240020Z AUTO 25006KT 9999NDV NCD 00/M02 Q1011=
201004232350 METAR ESMX 232350Z AUTO 27005KT 240V300 9999NDV FEW026/// 00/M02 Q1011=
201004232320 METAR ESMX 232320Z AUTO 26005KT 9999NDV FEW027/// 01/M02 Q1011=
201004232250 METAR ESMX 232250Z AUTO 25005KT 9999NDV NCD 00/M02 Q1011=
201004232220 METAR ESMX 232220Z AUTO 23004KT 200V260 9999NDV NCD M00/M02 Q1011=
201004232150 METAR ESMX 232150Z AUTO 24004KT 9999NDV NCD 01/M02 Q1010=
201004232120 METAR ESMX 232120Z AUTO 24005KT 200V270 9999NDV NCD 01/M02 Q1010=
201004232050 METAR ESMX 232050Z AUTO 24005KT 200V260 9999NDV NCD 01/M02 Q1010=
201004232020 METAR ESMX 232020Z AUTO 26008KT 230V290 9999NDV NCD 02/M02 Q1010=
201004231950 METAR ESMX 231950Z AUTO 25010KT 210V290 9999NDV NCD 02/M01 Q1010=
201004231920 METAR ESMX 231920Z AUTO 26008KT 9999NDV FEW055/// 02/M02 Q1010=
201004231850 METAR ESMX 231850Z 27011KT 9999 FEW039 SCT049 BKN091 03/M02 Q1010=
201004231820 METAR ESMX 231820Z 26011KT 220V290 9999 FEW049 SCT091 03/M02 Q1009=
201004231750 METAR ESMX 231750Z 26008KT 220V290 9999 FEW047 03/M01 Q1009=
201004231720 METAR ESMX 231720Z 26013KT 9999 FEW043CB SCT061 03/M00 Q1008 RERA=
201004231650 METAR ESMX 231650Z 28017G32KT 260V330 5000 SHRA FEW008 SCT040CB BKN048 06/M02 Q1008=
201004231620 METAR ESMX 231620Z 24014KT 200V260 9999 FEW037CB SCT047 07/M02 Q1008=
201004231550 METAR ESMX 231550Z 25016KT 230V290 9999 SCT038CB BKN065 08/M02 Q1008=
201004231450 METAR ESMX 231450Z 24013KT 210V300 9999 FEW036CB SCT078 07/M01 Q1008=
201004231420 METAR ESMX 231420Z 24017KT 9999 VCSH FEW032CB SCT075 07/M02 Q1008=
201004231250 METAR ESMX 231250Z 26016KT 230V290 9999 VCSH FEW025CB BKN038 08/M01 Q1008=
201004231220 METAR ESMX 231220Z 25014G25KT 210V280 9999 VCSH FEW025CB SCT071 07/M02 Q1008=
201004231120 METAR ESMX 231120Z 25012KT 220V290 9999 SHRA FEW030CB BKN040 06/M01 Q1008=
201004231050 METAR ESMX 231050Z 26007KT 230V290 9999 FEW006 SCT025CB 05/02 Q1008 RESHRA=
201004231020 METAR ESMX 231020Z 22014KT 200V260 3000 SHGSRA BKN022CB BKN031 06/01 Q1008=
201004230920 METAR ESMX 230920Z 22010KT 9999 FEW011 SCT033 06/02 Q1008=
201004230850 METAR ESMX 230850Z 23006KT 200V260 9999 FEW015 SCT025 04/03 Q1009=
201004230820 METAR ESMX 230820Z 25012KT 210V290 9999 FEW005 BKN020 06/01 Q1008 RERA=
201004230750 METAR ESMX 230750Z 22010KT 9999 FEW013 BKN020 05/01 Q1008=
201004230720 METAR ESMX 230720Z 24010KT 210V280 9999 FEW013 BKN028 05/01 Q1009=
201004230650 METAR ESMX 230650Z 24008KT 200V260 9999 FEW007 BKN022 04/02 Q1009=
201004230620 METAR ESMX 230620Z 23006KT 200V270 9999 FEW010 BKN025 03/01 Q1009=
201004230550 METAR ESMX 230550Z 22007KT 190V250 9999 BKN035 02/00 Q1009=
201004230520 METAR ESMX 230520Z 22005KT CAVOK 01/00 Q1009=
201004230450 METAR ESMX 230450Z 22005KT CAVOK 00/M01 Q1009=
201004230420 METAR ESMX 230420Z 22006KT 9999 FEW012 M01/M02 Q1009=
201004230350 METAR ESMX 230350Z 24004KT 9999 FEW012 M00/M01 Q1009=
201004230320 METAR ESMX 230320Z AUTO 24005KT 9999NDV FEW017/// 00/M01 Q1009=
201004230250 METAR ESMX 230250Z AUTO 26006KT 9999NDV OVC012/// 01/M01 Q1009=
201004230220 METAR ESMX 230220Z AUTO 26007KT 230V290 9999NDV FEW012/// 00/M01 Q1009=
201004230150 METAR ESMX 230150Z AUTO 26006KT 9999NDV NCD M00/M02 Q1008=
201004230120 METAR ESMX 230120Z AUTO 26005KT 9999NDV FEW014/// M00/M02 Q1009=
201004230050 METAR ESMX 230050Z AUTO 26005KT 9999NDV BKN012/// 00/M02 Q1009=
201004230020 METAR ESMX 230020Z AUTO 26005KT 9999NDV FEW012/// M00/M03 Q1009=
201004222350 METAR ESMX 222350Z AUTO 26006KT 9999NDV NCD M00/M04 Q1009=
201004222320 METAR ESMX 222320Z AUTO 27006KT 9999NDV NCD 00/M04 Q1009=
201004222250 METAR ESMX 222250Z AUTO 26006KT 9999NDV NCD 00/M05 Q1009=
201004222220 METAR ESMX 222220Z AUTO 27006KT 9999NDV NCD 01/M06 Q1009=
201004222150 METAR ESMX 222150Z AUTO 27007KT 9999NDV NCD 01/M06 Q1008=
201004222120 METAR ESMX 222120Z AUTO 27006KT 9999NDV NCD 02/M07 Q1008=
201004222050 METAR ESMX 222050Z AUTO 27006KT 9999NDV NCD 02/M06 Q1008=
201004222020 METAR ESMX 222020Z AUTO 27006KT 9999NDV NCD 02/M06 Q1008=
201004221950 METAR ESMX 221950Z 26005KT 9999 FEW030 03/M05 Q1008=
201004221920 METAR ESMX 221920Z 25005KT 9999 FEW030CB 03/M04 Q1008=
201004221850 METAR ESMX 221850Z 26004KT 9999 FEW040CB 04/M04 Q1008=
201004221820 METAR ESMX 221820Z 30007KT 270V330 9999 FEW025CB 05/M04 Q1008=
201004221750 METAR ESMX 221750Z 29007KT 250V330 9999 FEW010 FEW025CB 06/M04 Q1008=
201004221720 METAR ESMX 221720Z 28008KT 250V320 9999 FEW024CB SCT110 06/M04 Q1008=
201004221650 METAR ESMX 221650Z 28012KT 240V320 9999 VCSH FEW050CB FEW077 07/M04 Q1007=
201004221620 METAR ESMX 221620Z 27013KT 9999 VCSH FEW049CB 07/M05 Q1007=
201004221550 METAR ESMX 221550Z 29013KT 250V320 9999 VCSH FEW047CB 07/M05 Q1007=
201004221520 METAR ESMX 221520Z 28013KT 250V330 9999 VCSH FEW029 FEW053CB 07/M04 Q1007=
201004221450 METAR ESMX 221450Z 28014KT 240V310 9999 VCSH FEW047CB SCT057 08/M03 Q1007=
201004221420 METAR ESMX 221420Z 29012KT 250V320 9999 VCSH FEW045CB SCT075 07/M04 Q1007=
201004221350 METAR ESMX 221350Z 28012KT 240V320 9999 VCSH FEW022 FEW047CB SCT052 05/M02 Q1007=
201004221320 METAR ESMX 221320Z 26014G24KT 230V290 9999 VCSH FEW010 FEW039CB 04/M02 Q1007 RESHSN=
201004221250 METAR ESMX 221250Z 29015KT 260V320 9999 VCSH FEW019 SCT045CB 06/M04 Q1007 RESHGS=
201004221220 METAR ESMX 221220Z 28007KT 240V320 9999 VCSH FEW020 FEW035CB 07/M02 Q1007 RESHRA=
201004221150 METAR ESMX 221150Z 29015KT 260V330 9999 SCT048CB 07/M05 Q1007=
201004221120 METAR ESMX 221120Z 26012KT 220V290 9999 SCT045 08/M04 Q1007=
201004221050 METAR ESMX 221050Z 28012KT 250V310 9999 BKN049 06/M05 Q1007=
201004221020 METAR ESMX 221020Z 30014KT 260V340 9999 BKN049 07/M05 Q1007=
201004220950 METAR ESMX 220950Z 29014KT 9999 BKN048 06/M05 Q1007=
201004220920 METAR ESMX 220920Z 32016KT 290V350 9999 FEW045 07/M04 Q1007=
201004220850 METAR ESMX 220850Z 29012KT 250V330 9999 FEW038 06/M03 Q1007=
201004220820 METAR ESMX 220820Z 28012KT 240V320 CAVOK 05/M01 Q1007=
201004220750 METAR ESMX 220750Z 30012KT 270V340 CAVOK 04/M02 Q1007=
201004220720 METAR ESMX 220720Z 30012KT 270V340 CAVOK 04/M02 Q1007=
201004220650 METAR ESMX 220650Z 30011KT 270V340 CAVOK 03/M01 Q1007=
201004220620 METAR ESMX 220620Z 30010KT 260V340 CAVOK 02/M02 Q1007=
201004220550 METAR ESMX 220550Z 30011KT 260V340 CAVOK 01/M02 Q1006=
201004220520 METAR ESMX 220520Z 30012KT CAVOK 00/M02 Q1006=
201004220450 METAR ESMX 220450Z 30011KT CAVOK M00/M02 Q1006=
201004220420 METAR ESMX 220420Z 28008KT 250V320 9999 FEW020 M00/M02 Q1006=
201004220350 METAR ESMX 220350Z 29008KT 9999 FEW020 M00/M02 Q1006=
201004220320 METAR ESMX 220320Z AUTO 29008KT 260V330 9999NDV BKN049/// 00/M02 Q1006=
201004220250 METAR ESMX 220250Z AUTO 31008KT 270V330 9999NDV BKN046/// 00/M01 Q1006=
201004220220 METAR ESMX 220220Z AUTO 31008KT 9999NDV FEW022/// SCT030/// BKN041/// 00/M01 Q1006=
201004220150 METAR ESMX 220150Z AUTO 30007KT 9999NDV FEW013/// SCT025/// BKN030/// 01/M00 Q1006=
201004220120 METAR ESMX 220120Z AUTO 30006KT 9999NDV -RA FEW016/// SCT019/// BKN026/// 01/M00 Q1006=
201004220050 METAR ESMX 220050Z AUTO 29007KT 9999NDV SCT016/// BKN041/// BKN046/// 00/M01 Q1006=
201004220020 METAR ESMX 220020Z AUTO 30007KT 270V330 9999NDV UP FEW018/// BKN036/// 00/M01 Q1006=
201004212350 METAR ESMX 212350Z AUTO 30007KT 9999NDV FEW006/// SCT010/// M00/M01 Q1006=
201004212320 METAR ESMX 212320Z 29007KT 5000 -SN SCT008 BKN016 M00/M01 Q1006=
201004212250 METAR ESMX 212250Z 29006KT 6000 -SN FEW008 SCT050 M00/M01 Q1006=
201004212150 METAR COR ESMX 212150Z 27006KT 9999 SCT050 M00/M01 Q1006=
201004212120 METAR ESMX 212120Z 27004KT 240V300 9999 SCT050 M00/M01 Q1006=
201004212050 METAR ESMX 212050Z 29006KT 9999 FEW005 BKN058 00/M00 Q1006=
201004212020 METAR ESMX 212020Z 29005KT CAVOK 00/M00 Q1006=
201004211950 METAR COR ESMX 211950Z 30005KT 9999 FEW008 M00/M01 Q1006=
201004211920 METAR ESMX 211920Z 27003KT 9999 FEW008 00/M01 Q1006=
201004211850 METAR ESMX 211850Z VRB02KT 9999 FEW008 01/M00 Q1005=
201004211820 METAR ESMX 211820Z 32005KT 290V350 9999 FEW009 SCT020 01/00 Q1005=
201004211750 METAR ESMX 211750Z 32006KT 9000 -RA FEW006 SCT016 BKN050 01/00 Q1005=
201004211720 METAR ESMX 211720Z 27006KT 230V300 9999 VCSH SCT012 FEW025CB BKN047 02/01 Q1005=
201004211650 METAR ESMX 211650Z 24005KT 200V270 9999 VCSH FEW006 SCT025CB BKN070 02/01 Q1004=
201004211620 METAR ESMX 211620Z 28009KT 240V330 5000 SHSN FEW006 SCT026CB BKN044 01/M00 Q1004=
201004211550 METAR ESMX 211550Z 28002KT 9999 -SHGS FEW010 SCT025CB BKN050 04/M00 Q1004=
201004211520 METAR ESMX 211520Z 01005KT 330V070 9999 -SHGS FEW026CB SCT042 BKN051 04/M00 Q1004=
201004211450 METAR ESMX 211450Z 33005KT 260V030 9999 VCSH FEW025CB SCT092 06/M01 Q1004=
201004211420 METAR ESMX 211420Z 31005KT 280V340 9999 FEW025 SCT060 05/M00 Q1004=
201004211350 METAR ESMX 211350Z 34007KT 9999 FEW027 BKN040 04/00 Q1004=
201004211320 METAR ESMX 211320Z 34008KT 9999 SCT015 BKN031 04/01 Q1004=
201004211250 METAR ESMX 211250Z 30006KT 270V340 9999 FEW020 BKN063 04/02 Q1004=
201004211220 METAR ESMX 211220Z 33007KT 9999 -SHSN FEW010 SCT033 BKN037 03/M00 Q1004=
201004211150 METAR ESMX 211150Z 35008KT 9999 SCT020 BKN033 BKN051 04/00 Q1004=
201004211120 METAR ESMX 211120Z 35007KT 320V030 9999 FEW021 BKN031 BKN044 04/M00 Q1004=
201004211050 METAR ESMX 211050Z 36008KT 320V050 9999 SCT013 OVC042 04/01 Q1004=
201004211020 METAR ESMX 211020Z 33008KT 9999 FEW018 BKN034 03/00 Q1004=
201004210850 METAR ESMX 210850Z 33007KT 300V010 9999 BKN020 OVC029 02/M00 Q1003=
201004210820 METAR ESMX 210820Z 32006KT 9999 SCT010 BKN015 OVC017 01/M00 Q1003=
201004210720 METAR ESMX 210720Z 30006KT 260V330 9999 FEW010 OVC013 01/M00 Q1002=
201004210650 METAR ESMX 210650Z 31005KT 9999 FEW010 BKN016 OVC020 01/M00 Q1002=
201004210620 METAR ESMX 210620Z 32006KT 290V350 9999 FEW008 SCT011 OVC016 01/M00 Q1002=
201004210550 METAR ESMX 210550Z 34008KT 9999 FEW009 OVC013 01/M01 Q1002=
201004210520 METAR ESMX 210520Z 33007KT 9999 OVC009 01/M01 Q1002=
201004210450 METAR ESMX 210450Z 32005KT 9999 FEW005 SCT008 OVC011 01/M00 Q1002=
201004210420 METAR ESMX 210420Z 33006KT 9999 -RA FEW004 SCT006 BKN009 01/M00 Q1002=
201004210350 METAR ESMX 210350Z 33006KT 9999 SCT004 BKN006 OVC011 01/00 Q1002 REDZ=
201004210320 METAR ESMX 210320Z 35006KT 7000 -DZ FEW002 SCT003 BKN006 01/00 Q1002=
201004210250 METAR ESMX 210250Z AUTO 34005KT 4000NDV -RA OVC001/// 01/00 Q1002=
201004210220 METAR ESMX 210220Z AUTO 02004KT 2200NDV -RA OVC001/// 01/00 Q1002=
201004210150 METAR ESMX 210150Z AUTO 03003KT 2300NDV BR SCT001/// OVC003/// 01/00 Q1002=
201004210120 METAR ESMX 210120Z AUTO 02003KT 3000NDV -DZ FEW003/// OVC004/// 01/00 Q1002=
201004210050 METAR ESMX 210050Z AUTO VRB01KT 2800NDV -RA OVC003/// 01/00 Q1002=
201004210020 METAR ESMX 210020Z AUTO VRB01KT 4300NDV -SN OVC003/// 01/00 Q1003 RESG=
201004202350 METAR ESMX 202350Z AUTO 03003KT 350V080 2600NDV SG FEW002/// SCT005/// BKN006/// 01/00 Q1003=
201004202320 METAR ESMX 202320Z AUTO 02003KT 330V070 1000NDV R01/P2000N R19/P2000N -SN VV004 00/M00 Q1003=
201004202250 METAR ESMX 202250Z AUTO 07003KT 030V110 0800NDV R01/P2000N R19/P2000N SN FEW001/// BKN003/// OVC007/// 01/00 Q1004=
201004202220 METAR ESMX 202220Z AUTO 06003KT 020V110 0650NDV R01/P2000N R19/P2000N -SN VV002 00/M00 Q1004=
201004202150 METAR ESMX 202150Z AUTO 08003KT 040V140 0800NDV R01/P2000N R19/P2000N SN VV002 01/M00 Q1004=
201004202120 METAR ESMX 202120Z AUTO 08003KT 020V110 1600NDV -SN BKN002/// 01/M00 Q1005 RERA=
201004202050 METAR ESMX 202050Z 10003KT 060V140 1700 RA BKN002 01/M00 Q1005=
201004202020 METAR ESMX 202020Z 14004KT 080V180 3100 RA FEW004 BKN006 01/00 Q1006=
201004201950 METAR ESMX 201950Z 15006KT 110V190 5000 -RA FEW007 SCT009 02/01 Q1006 RESHRA=
201004201920 METAR ESMX 201920Z 17007KT 140V200 9000 DZ FEW011 SCT016 BKN064 03/01 Q1006=
201004201850 METAR ESMX 201850Z 16008KT 140V200 9999 -DZ FEW014 SCT020 BKN045 03/00 Q1007=
201004201820 METAR ESMX 201820Z 17008KT 9999 FEW030 SCT045 04/M01 Q1007 REUP=
201004201750 METAR ESMX 201750Z 17009KT 9999 FEW030 BKN150 05/M01 Q1007=
201004201720 METAR ESMX 201720Z 17009KT CAVOK 06/M03 Q1007=
201004201650 METAR ESMX 201650Z 16008KT 120V200 CAVOK 06/M04 Q1007=
201004201620 METAR ESMX 201620Z 16007KT 120V190 9999 FEW045 BKN068 06/M04 Q1007=
201004201550 METAR ESMX 201550Z 15006KT 100V190 9999 FEW044 BKN065 07/M04 Q1008=
201004201520 METAR ESMX 201520Z 17006KT 120V200 9999 FEW043 BKN071 07/M04 Q1008=
201004201450 METAR ESMX 201450Z 17008KT 110V200 CAVOK 07/M04 Q1008=
201004201420 METAR ESMX 201420Z 17009KT 140V200 9999 OVC049 07/M05 Q1009=
201004201350 METAR ESMX 201350Z 16007KT 9999 BKN049 07/M06 Q1009=
201004201320 METAR ESMX 201320Z 20008KT CAVOK 07/M05 Q1009=
201004201250 METAR ESMX 201250Z 19007KT 9999 BKN047 07/M05 Q1010=
201004201220 METAR ESMX 201220Z 19009KT 130V230 9999 FEW045 OVC058 07/M04 Q1010=
201004201120 METAR ESMX 201120Z 21007KT 190V250 CAVOK 07/M05 Q1011=
201004201050 METAR ESMX 201050Z 20011KT 170V240 9999 SCT049 07/M05 Q1011=
201004201020 METAR ESMX 201020Z 23008KT 9999 SCT047 07/M06 Q1011=
201004200950 METAR ESMX 200950Z 28009KT 240V310 9999 SCT042 07/M05 Q1011=
201004200920 METAR ESMX 200920Z 26007KT 220V340 9999 FEW038 07/M04 Q1012=
201004200850 METAR ESMX 200850Z 23009KT 9999 FEW038 06/M04 Q1012=
201004200720 METAR ESMX 200720Z 27008KT 230V320 CAVOK 04/M03 Q1012=
201004200650 METAR ESMX 200650Z 28008KT CAVOK 03/M02 Q1012=
201004200620 METAR ESMX 200620Z 29005KT 240V330 CAVOK 02/M02 Q1012=
201004200550 METAR ESMX 200550Z 26004KT CAVOK 01/M02 Q1012=
201004200520 METAR ESMX 200520Z 27005KT CAVOK M01/M03 Q1012=
201004200450 METAR ESMX 200450Z 23003KT CAVOK M02/M03 Q1012=
201004200420 METAR ESMX 200420Z 26004KT CAVOK M03/M04 Q1012=
201004200350 METAR ESMX 200350Z 25003KT CAVOK M03/M04 Q1012=
201004200320 METAR ESMX 200320Z AUTO 25003KT 9999NDV NCD M03/M05 Q1012=
201004200250 METAR ESMX 200250Z AUTO 26004KT 9999NDV NCD M02/M04 Q1012=
201004200220 METAR ESMX 200220Z AUTO 25005KT 9999NDV NCD M02/M04 Q1012=
201004200150 METAR ESMX 200150Z AUTO 25005KT 9999NDV SCT058/// M02/M04 Q1012=
201004200120 METAR ESMX 200120Z AUTO 25005KT 9999NDV SCT059/// M02/M05 Q1012=
201004200050 METAR ESMX 200050Z AUTO 25004KT 9999NDV FEW061/// M02/M05 Q1012=
201004200020 METAR ESMX 200020Z AUTO 25005KT 9999NDV NCD M02/M05 Q1012=
201004192350 METAR ESMX 192350Z AUTO 25004KT 9999NDV NCD M01/M05 Q1012=
201004192320 METAR ESMX 192320Z AUTO 26003KT 9999NDV NCD M01/M05 Q1012=
201004192250 METAR ESMX 192250Z AUTO 22003KT 9999NDV NCD M01/M05 Q1013=
201004192220 METAR ESMX 192220Z AUTO 24004KT 9999NDV FEW065/// 00/M05 Q1013=
201004192150 METAR ESMX 192150Z 27005KT CAVOK 01/M05 Q1013=
201004192120 METAR ESMX 192120Z 26005KT CAVOK 01/M05 Q1013=
201004192050 METAR ESMX 192050Z 26005KT CAVOK 01/M06 Q1013=
201004192020 METAR ESMX 192020Z 26005KT CAVOK 02/M06 Q1013=
201004191950 METAR ESMX 191950Z 26006KT CAVOK 03/M06 Q1013=
201004191920 METAR ESMX 191920Z 26006KT CAVOK 03/M06 Q1013=
201004191850 METAR ESMX 191850Z 26005KT CAVOK 04/M07 Q1012=
201004191820 METAR ESMX 191820Z 25005KT CAVOK 04/M07 Q1012=
201004191750 METAR ESMX 191750Z 25006KT CAVOK 06/M07 Q1012=
201004191720 METAR ESMX 191720Z 27007KT 240V310 CAVOK 07/M07 Q1012=
201004191650 METAR ESMX 191650Z 27008KT 230V300 CAVOK 08/M07 Q1012=
201004191620 METAR ESMX 191620Z 26009KT CAVOK 08/M07 Q1012=
201004191550 METAR ESMX 191550Z 26009KT 230V290 CAVOK 08/M07 Q1012=
201004191520 METAR ESMX 191520Z 26008KT 210V310 CAVOK 09/M08 Q1012=
201004191450 METAR ESMX 191450Z 32004KT 290V020 CAVOK 08/M09 Q1012=
201004191420 METAR ESMX 191420Z 28005KT 250V320 CAVOK 08/M10 Q1012=
201004191350 METAR ESMX 191350Z 29007KT CAVOK 08/M10 Q1012=
201004191320 METAR ESMX 191320Z 24006KT 170V290 CAVOK 08/M13 Q1012=
201004191250 METAR ESMX 191250Z 28009KT CAVOK 10/M12 Q1012=
201004191220 METAR ESMX 191220Z 33008KT 290V020 CAVOK 09/M11 Q1012=
201004191150 METAR ESMX 191150Z 31005KT 230V360 CAVOK 09/M11 Q1012=
201004191120 METAR ESMX 191120Z 29006KT 240V340 CAVOK 08/M10 Q1012=
201004191050 METAR ESMX 191050Z 29006KT 250V350 CAVOK 09/M08 Q1012=
201004190950 METAR COR ESMX 190950Z 33008KT 290V350 CAVOK 07/M07 Q1012=
201004190920 METAR ESMX 190920Z 32007KT 270V020 9999 FEW049 08/M06 Q1012=
201004190850 METAR ESMX 190850Z 29008KT 250V320 9999 FEW045 07/M06 Q1012=
201004190820 METAR ESMX 190820Z 32008KT 270V010 CAVOK 07/M05 Q1011=
201004190750 METAR ESMX 190750Z 32007KT 290V350 CAVOK 06/M03 Q1011=
201004190720 METAR ESMX 190720Z 29005KT CAVOK 05/M01 Q1011=
201004190650 METAR ESMX 190650Z 31006KT CAVOK 04/M00 Q1011=
201004190620 METAR ESMX 190620Z 26007KT 220V290 CAVOK 03/00 Q1010=
201004190550 METAR ESMX 190550Z 27007KT CAVOK 02/00 Q1010=
201004190520 METAR ESMX 190520Z 26005KT CAVOK 00/M00 Q1010=
201004190450 METAR ESMX 190450Z 25004KT CAVOK M01/M01 Q1010=
201004190420 METAR ESMX 190420Z 24004KT CAVOK M02/M02 Q1010=
201004190350 METAR ESMX 190350Z 25004KT CAVOK M02/M03 Q1010=
201004190320 METAR ESMX 190320Z AUTO 24004KT 210V270 9999NDV NCD M02/M02 Q1010=
201004190250 METAR ESMX 190250Z AUTO 25004KT 9999NDV NCD M01/M02 Q1010=
201004190220 METAR ESMX 190220Z AUTO 25005KT 9999NDV NCD M01/M02 Q1009=
201004190150 METAR ESMX 190150Z AUTO 25004KT 9999NDV NCD M01/M02 Q1009=
201004190120 METAR ESMX 190120Z AUTO 26005KT 9999NDV NCD M00/M01 Q1009=
201004190050 METAR ESMX 190050Z AUTO 26004KT 9999NDV NCD M01/M02 Q1009=
201004190020 METAR ESMX 190020Z AUTO 25003KT 210V290 9999NDV NCD M01/M02 Q1009=
201004182350 METAR ESMX 182350Z AUTO 23003KT 200V270 9999NDV NCD M00/M02 Q1009=
201004182320 METAR ESMX 182320Z AUTO 24003KT 220V290 9999NDV NCD 00/M02 Q1010=
201004182250 METAR ESMX 182250Z AUTO 24005KT 9999NDV NCD 00/M02 Q1009=
201004182220 METAR ESMX 182220Z AUTO 24005KT 9999NDV NCD 01/M03 Q1009=
201004182150 METAR ESMX 182150Z AUTO 24005KT 9999NDV NCD 01/M03 Q1009=
201004182120 METAR ESMX 182120Z 24004KT CAVOK 01/M03 Q1009=
201004182050 METAR ESMX 182050Z 25005KT CAVOK 02/M03 Q1009=
201004182020 METAR ESMX 182020Z 26005KT CAVOK 03/M03 Q1009=
201004181950 METAR ESMX 181950Z 26006KT CAVOK 04/M03 Q1009=
201004181850 METAR ESMX 181850Z 26009KT CAVOK 05/M03 Q1009=
201004181820 METAR ESMX 181820Z 27011KT CAVOK 06/M04 Q1009=
201004181750 METAR ESMX 181750Z 27013KT 9999 FEW045 07/M04 Q1008=
201004181720 METAR ESMX 181720Z 26011KT 230V300 9999 FEW045 08/M04 Q1008=
201004181650 METAR ESMX 181650Z 26014KT 230V290 CAVOK 08/M03 Q1008=
201004181620 METAR ESMX 181620Z 27016KT 9999 SCT047 09/M02 Q1008=
201004181550 METAR ESMX 181550Z 27015KT 240V300 9999 FEW048 BKN057 09/M01 Q1008=
201004181520 METAR ESMX 181520Z 27014KT 240V310 9999 SCT044 BKN055 09/M01 Q1008=
201004181450 METAR ESMX 181450Z 28012KT 240V310 9999 BKN040 09/01 Q1008=
201004181420 METAR ESMX 181420Z 26015KT 220V290 9999 BKN037 BKN049 09/00 Q1008=
201004181350 METAR ESMX 181350Z 24015KT 210V280 9999 BKN038 BKN050 09/00 Q1008=
201004181320 METAR ESMX 181320Z 24016KT 210V290 9999 FEW030 SCT044 BKN049 09/00 Q1008=
201004181250 METAR ESMX 181250Z 24014KT 9999 FEW028 SCT032 BKN038 08/02 Q1009=
201004181220 METAR ESMX 181220Z 24013KT 9999 FEW024 SCT030 BKN038 08/04 Q1009=
201004181150 METAR ESMX 181150Z AUTO 24011KT 170V300 9999NDV FEW016/// SCT021/// BKN028/// 07/04 Q1009=
201004181120 METAR ESMX 181120Z AUTO 26009KT 220V290 9999NDV FEW007/// SCT010/// BKN019/// 06/05 Q1009 REDZ=
201004181050 METAR ESMX 181050Z AUTO 28008KT 250V320 6000NDV DZ FEW007/// SCT009/// BKN010/// 05/04 Q1009=
201004181020 METAR ESMX 181020Z AUTO 32011KT 6000NDV -RA FEW006/// SCT011/// BKN016/// 06/04 Q1009=
201004180950 METAR ESMX 180950Z AUTO 23010KT 200V260 9999NDV OVC016/// 07/03 Q1008=
201004180920 METAR ESMX 180920Z AUTO 24014KT 9999NDV OVC013/// 07/03 Q1008=
201004180850 METAR ESMX 180850Z AUTO 26014G24KT 240V300 9999NDV OVC016/// 07/03 Q1008=
201004180820 METAR ESMX 180820Z AUTO 24013KT 200V280 9999NDV OVC018/// 07/03 Q1008=
201004180750 METAR ESMX 180750Z AUTO 26016KT 9999NDV OVC016/// 07/03 Q1008=
201004180720 METAR ESMX 180720Z AUTO 25013KT 9999NDV OVC015/// 07/03 Q1008=
201004180650 METAR ESMX 180650Z AUTO 24011KT 200V270 9999NDV FEW012/// OVC015/// 06/03 Q1008=
201004180620 METAR ESMX 180620Z AUTO 23011KT 190V260 9999NDV OVC011/// 06/04 Q1008=
201004180550 METAR ESMX 180550Z AUTO 25011KT 220V290 9999NDV OVC011/// 06/04 Q1008 REDZ=
201004180520 METAR ESMX 180520Z AUTO 23009KT 180V270 9999NDV FEW014/// SCT017/// BKN020/// 06/03 Q1008=
201004180450 METAR ESMX 180450Z AUTO 24009KT 200V280 9999NDV FEW017/// SCT021/// BKN026/// 06/03 Q1007=
201004180420 METAR ESMX 180420Z AUTO 25011KT 200V280 9999NDV FEW017/// BKN020/// BKN031/// 06/03 Q1007=
201004180350 METAR ESMX 180350Z AUTO 26012KT 230V300 9999NDV OVC019/// 06/02 Q1007=
201004180320 METAR ESMX 180320Z AUTO 25010KT 220V290 9999NDV OVC020/// 06/03 Q1007=
201004180250 METAR ESMX 180250Z AUTO 26011KT 220V290 9999NDV FEW020/// SCT025/// BKN029/// 07/02 Q1007=
201004180220 METAR ESMX 180220Z AUTO 26014KT 230V290 9999NDV FEW017/// BKN020/// OVC024/// 06/03 Q1007=
201004180150 METAR ESMX 180150Z AUTO 24011KT 210V280 9999NDV OVC017/// 06/03 Q1007=
201004180120 METAR ESMX 180120Z AUTO 25011KT 220V290 9999NDV OVC019/// 06/03 Q1007=
201004180050 METAR ESMX 180050Z AUTO 25011G21KT 9999NDV OVC020/// 06/03 Q1007=
201004180020 METAR ESMX 180020Z AUTO 24011KT 210V290 9999NDV OVC020/// 07/02 Q1007=
201004172350 METAR ESMX 172350Z AUTO 26014KT 230V290 9999NDV OVC019/// 07/03 Q1007=
201004172320 METAR ESMX 172320Z AUTO 26011KT 210V290 9999NDV OVC019/// 07/03 Q1007=
201004172250 METAR ESMX 172250Z AUTO 26012G23KT 9999NDV OVC020/// 07/03 Q1007=
201004172220 METAR ESMX 172220Z AUTO 26015KT 220V290 9999NDV OVC019/// 07/03 Q1007=
201004172150 METAR ESMX 172150Z AUTO 26015KT 220V290 9999NDV OVC020/// 07/03 Q1007=
201004172120 METAR ESMX 172120Z AUTO 26014KT 230V290 9999NDV OVC020/// 07/03 Q1007=
201004172050 METAR ESMX 172050Z AUTO 26014KT 220V300 9999NDV OVC021/// 07/03 Q1007=
201004172020 METAR ESMX 172020Z AUTO 26011KT 9999NDV OVC022/// 07/03 Q1007=
201004171950 METAR ESMX 171950Z AUTO 26014KT 230V300 9999NDV OVC022/// 07/03 Q1007=
201004171920 METAR ESMX 171920Z AUTO 26015G25KT 9999NDV OVC023/// 07/02 Q1007=
201004171850 METAR ESMX 171850Z AUTO 25014KT 220V290 9999NDV OVC024/// 07/02 Q1007=
201004171820 METAR ESMX 171820Z AUTO 25012KT 190V280 9999NDV OVC024/// 08/02 Q1007=
201004171750 METAR ESMX 171750Z AUTO 25012KT 9999NDV OVC024/// 08/02 Q1007=
201004171720 METAR ESMX 171720Z AUTO 25013KT 220V290 9999NDV BKN024/// OVC031/// 08/02 Q1007=
201004171650 METAR ESMX 171650Z AUTO 24014G24KT 170V260 9999NDV BKN024/// OVC031/// 08/02 Q1007=
201004171620 METAR ESMX 171620Z AUTO 26014G24KT 230V290 9999NDV OVC023/// 08/02 Q1007=
201004171550 METAR ESMX 171550Z AUTO 26013KT 220V280 9999NDV BKN025/// OVC032/// 08/02 Q1008=
201004171520 METAR ESMX 171520Z AUTO 26017KT 220V290 9999NDV BKN027/// OVC036/// 08/02 Q1007=
201004171450 METAR ESMX 171450Z AUTO 26016KT 220V300 9999NDV FEW025/// SCT030/// OVC037/// 08/02 Q1007=
201004171420 METAR ESMX 171420Z AUTO 26017KT 230V290 9999NDV FEW027/// OVC031/// 08/02 Q1008=
201004171350 METAR ESMX 171350Z AUTO 26016KT 210V290 9999NDV FEW026/// OVC030/// 09/02 Q1008=
201004171320 METAR ESMX 171320Z AUTO 26015KT 230V300 9999NDV FEW024/// SCT030/// OVC035/// 08/02 Q1008=
201004171250 METAR ESMX 171250Z AUTO 26018KT 9999NDV FEW021/// SCT026/// OVC029/// 08/02 Q1008=
201004171220 METAR ESMX 171220Z AUTO 26015KT 230V300 9999NDV BKN021/// OVC035/// 08/03 Q1008=
201004171150 METAR ESMX 171150Z AUTO 26012KT 230V290 9999NDV OVC021/// 07/02 Q1008=
201004171120 METAR ESMX 171120Z AUTO 24012KT 190V280 9999NDV SCT021/// BKN027/// OVC032/// 07/03 Q1009=
201004171050 METAR ESMX 171050Z AUTO 25014KT 9999NDV FEW021/// SCT024/// BKN028/// 07/02 Q1009=
201004171020 METAR ESMX 171020Z AUTO 26014KT 230V300 9999NDV BKN021/// OVC028/// 07/02 Q1009=
201004170950 METAR ESMX 170950Z 24013KT 190V270 9999 FEW017 BKN022 07/03 Q1009=
201004170920 METAR ESMX 170920Z 25010G23KT 9999 BKN015 OVC020 06/03 Q1009=
201004170850 METAR ESMX 170850Z 24010KT 210V280 9999 OVC013 06/03 Q1009=
201004170820 METAR ESMX 170820Z 23009KT 200V300 9999 OVC011 06/03 Q1010=
201004170750 METAR ESMX 170750Z 23009KT 9999 OVC011 05/04 Q1010=
201004170720 METAR ESMX 170720Z 23010KT 200V270 9000 -SHRA SCT013 BKN017 05/03 Q1010=
201004170650 METAR ESMX 170650Z 23008KT 180V260 9999 -SHRA FEW014 BKN016 05/03 Q1010=
201004170620 METAR ESMX 170620Z 23008KT 9999 FEW012 BKN014 05/03 Q1011=
201004161750 METAR ESMX 161750Z 32006KT CAVOK 07/M07 Q1014=
201004161720 METAR ESMX 161720Z 32009KT CAVOK 09/M08 Q1014=
201004161620 METAR ESMX 161620Z 33010KT CAVOK 10/M08 Q1013=
201004161550 METAR ESMX 161550Z 34013KT 310V010 CAVOK 11/M08 Q1013=
201004161520 METAR ESMX 161520Z 32010KT 280V350 CAVOK 10/M08 Q1013=
201004161450 METAR ESMX 161450Z 31012KT CAVOK 11/M06 Q1013=
201004161420 METAR ESMX 161420Z 31010KT 260V340 CAVOK 12/M06 Q1013=
201004161350 METAR ESMX 161350Z 32013KT CAVOK 11/M06 Q1013=
201004161320 METAR ESMX 161320Z 34012KT CAVOK 11/M05 Q1013=
201004161250 METAR ESMX 161250Z 33011G21KT 300V030 CAVOK 11/M04 Q1012=
201004161220 METAR ESMX 161220Z 34014KT CAVOK 11/M04 Q1012=
201004161150 METAR ESMX 161150Z 33012KT 280V350 9999 FEW029 SCT056 11/M03 Q1012=
201004161120 METAR ESMX 161120Z 34013KT 300V020 CAVOK 10/M05 Q1012=
201004161050 METAR ESMX 161050Z 34013KT 9999 FEW049 10/M03 Q1012=
201004161020 METAR ESMX 161020Z 33013KT 290V010 9999 FEW039 10/M02 Q1012=
201004160950 METAR ESMX 160950Z 33014KT 300V010 9999 FEW040 09/M01 Q1012=
201004160920 METAR ESMX 160920Z 34013KT 9999 FEW031 08/M00 Q1011=
201004160850 METAR ESMX 160850Z 34015KT 9999 SCT030 07/M00 Q1011=
201004160820 METAR ESMX 160820Z 34014KT 9999 SCT027 07/M00 Q1011=
201004160750 METAR ESMX 160750Z 33014KT 300V010 9999 SCT023 07/00 Q1010=
201004160720 METAR ESMX 160720Z 32014KT 280V350 CAVOK 07/01 Q1010=
201004160650 METAR ESMX 160650Z 31013KT 290V350 CAVOK 06/01 Q1010=
201004160620 METAR ESMX 160620Z 32014KT CAVOK 06/01 Q1009=
201004160550 METAR ESMX 160550Z 31009KT 270V350 CAVOK 05/02 Q1009=
201004160520 METAR ESMX 160520Z 29009KT 260V320 CAVOK 04/02 Q1009=
201004160450 METAR ESMX 160450Z 27007KT 240V300 CAVOK 04/02 Q1009=
201004160420 METAR ESMX 160420Z 28006KT CAVOK 04/02 Q1008=
201004160350 METAR ESMX 160350Z 29006KT 9999 FEW011 SCT016 BKN063 05/02 Q1008=
201004160320 METAR ESMX 160320Z AUTO 29008KT 260V320 9999NDV OVC010/// 05/03 Q1008=
201004160250 METAR ESMX 160250Z AUTO 27008KT 9999NDV OVC011/// 05/03 Q1008=
201004160220 METAR ESMX 160220Z AUTO 25008KT 210V290 9999NDV OVC011/// 06/03 Q1008=
201004160150 METAR ESMX 160150Z AUTO 24008KT 200V270 9999NDV BKN011/// 05/03 Q1008=
201004160120 METAR ESMX 160120Z AUTO 25007KT 9999NDV BKN011/// 05/03 Q1009=
201004160050 METAR ESMX 160050Z AUTO 26009KT 9999NDV OVC011/// 05/03 Q1009=
201004160020 METAR ESMX 160020Z AUTO 25009KT 220V280 9999NDV BKN011/// 05/03 Q1010=
201004152350 METAR ESMX 152350Z AUTO 26008KT 9999NDV BKN011/// 05/03 Q1010=
201004152320 METAR ESMX 152320Z AUTO 26007KT 230V290 9999NDV BKN012/// 05/03 Q1010=
201004152250 METAR ESMX 152250Z AUTO 25009KT 9999NDV BKN013/// 05/02 Q1010=
201004152220 METAR ESMX 152220Z AUTO 26007KT 220V280 9999NDV BKN014/// 05/02 Q1011=
201004152150 METAR ESMX 152150Z 26006KT 230V290 9999 BKN015 05/02 Q1011=
201004152120 METAR ESMX 152120Z 25005KT 9999 SCT015 05/02 Q1011=
201004152050 METAR ESMX 152050Z 25005KT CAVOK 05/01 Q1011=
201004152020 METAR ESMX 152020Z 25007KT CAVOK 06/01 Q1012=
201004151950 METAR ESMX 151950Z 25007KT 210V290 CAVOK 07/01 Q1012=
201004151920 METAR ESMX 151920Z 25008KT CAVOK 07/00 Q1012=
201004151850 METAR ESMX 151850Z 26007KT 220V290 CAVOK 08/00 Q1012=
201004151820 METAR ESMX 151820Z 26007KT 230V290 CAVOK 09/M00 Q1012=
201004151750 METAR ESMX 151750Z 25008KT 210V280 CAVOK 10/M02 Q1012=
201004151720 METAR ESMX 151720Z 25008KT 200V280 CAVOK 11/M02 Q1013=
201004151650 METAR ESMX 151650Z 27010KT 230V290 CAVOK 11/M02 Q1013=
201004151620 METAR ESMX 151620Z 27011KT CAVOK 13/M03 Q1013=
201004151550 METAR ESMX 151550Z 27011KT 230V330 CAVOK 13/M03 Q1013=
201004151520 METAR ESMX 151520Z 27010KT 230V310 CAVOK 14/M03 Q1013=
201004151450 METAR ESMX 151450Z 26011KT 230V290 CAVOK 14/M01 Q1014=
201004151420 METAR ESMX 151420Z 26010KT 220V300 CAVOK 15/M01 Q1014=
201004151350 METAR ESMX 151350Z 23009KT 210V270 CAVOK 15/M00 Q1014=
201004151320 METAR ESMX 151320Z 26008KT 230V300 CAVOK 14/M00 Q1015=
201004151250 METAR ESMX 151250Z 26009KT CAVOK 15/M00 Q1015=
201004151220 METAR ESMX 151220Z 24009KT 200V280 CAVOK 14/M01 Q1016=
201004151150 METAR ESMX 151150Z 27005KT 230V310 CAVOK 14/M01 Q1016=
201004151120 METAR ESMX 151120Z 23009KT CAVOK 13/M01 Q1016=
201004151050 METAR ESMX 151050Z VRB06KT CAVOK 13/01 Q1017=
201004151020 METAR ESMX 151020Z 23007KT 190V250 CAVOK 12/00 Q1017=
201004150950 METAR ESMX 150950Z 19007KT 150V230 CAVOK 11/00 Q1017=
201004150920 METAR ESMX 150920Z 20008KT 160V250 CAVOK 11/01 Q1018=
201004150850 METAR ESMX 150850Z 21007KT 160V240 CAVOK 10/00 Q1018=
201004150820 METAR ESMX 150820Z 20008KT CAVOK 09/M00 Q1018=
201004150750 METAR ESMX 150750Z 21007KT 170V250 CAVOK 09/M00 Q1018=
201004150720 METAR ESMX 150720Z 22006KT 190V250 CAVOK 07/M00 Q1019=
201004150650 METAR ESMX 150650Z 21004KT 170V240 CAVOK 05/00 Q1019=
201004150620 METAR ESMX 150620Z VRB02KT CAVOK 03/02 Q1019=
201004150550 METAR ESMX 150550Z 20001KT CAVOK M00/M01 Q1019=
201004150520 METAR ESMX 150520Z 00000KT CAVOK M02/M02 Q1019=
201004150450 METAR ESMX 150450Z 00000KT 9999 BCFG NSC M03/M03 Q1019=
201004150350 METAR ESMX 150350Z 00000KT 9999 BCFG NSC M03/M04 Q1020=
201004150320 METAR ESMX 150320Z AUTO 17001KT 9999NDV NCD M03/M03 Q1020=
201004150250 METAR ESMX 150250Z AUTO 18001KT 9999NDV NCD M03/M03 Q1020=
201004150220 METAR ESMX 150220Z AUTO 00000KT 9999NDV NCD M02/M03 Q1020=
201004150150 METAR ESMX 150150Z AUTO 00000KT 9999NDV NCD M02/M03 Q1020=
201004150120 METAR ESMX 150120Z AUTO 00000KT 9999NDV NCD M02/M03 Q1020=
201004150050 METAR ESMX 150050Z AUTO 18001KT 9999NDV NCD M02/M03 Q1021=
201004150020 METAR ESMX 150020Z AUTO 20001KT 9999NDV NCD M01/M02 Q1021=
201004142350 METAR ESMX 142350Z AUTO 16001KT 9999NDV NCD M01/M02 Q1021=
201004142320 METAR ESMX 142320Z VRB01KT CAVOK M00/M02 Q1021=
201004142250 METAR ESMX 142250Z 00000KT CAVOK 01/M02 Q1021=
201004142220 METAR ESMX 142220Z 16001KT CAVOK 01/M01 Q1022=
201004142150 METAR ESMX 142150Z 15004KT CAVOK 03/M01 Q1022=
201004142120 METAR ESMX 142120Z 16004KT CAVOK 04/M01 Q1022=
201004142050 METAR ESMX 142050Z 15005KT 120V190 CAVOK 06/M01 Q1022=
201004142020 METAR ESMX 142020Z 14005KT 100V170 CAVOK 06/M01 Q1021=
201004141950 METAR ESMX 141950Z 14006KT 100V180 CAVOK 07/M01 Q1021=
201004141920 METAR ESMX 141920Z 00000KT CAVOK 04/M00 Q1021=
201004141820 METAR ESMX 141820Z 00000KT CAVOK 06/00 Q1021=
201004141750 METAR ESMX 141750Z 01001KT CAVOK 10/M01 Q1021=
201004141720 METAR ESMX 141720Z VRB02KT CAVOK 11/M01 Q1020=
201004141650 METAR ESMX 141650Z 04003KT 350V080 CAVOK 12/M03 Q1020=
201004141620 METAR ESMX 141620Z 02004KT 340V100 CAVOK 12/M03 Q1021=
201004141550 METAR ESMX 141550Z 02005KT 340V070 CAVOK 12/M03 Q1021=
201004141520 METAR ESMX 141520Z 01003KT 300V080 CAVOK 12/M03 Q1021=
201004141450 METAR ESMX 141450Z 02004KT 340V100 CAVOK 13/M03 Q1021=
201004141420 METAR ESMX 141420Z VRB04KT CAVOK 13/M02 Q1021=
201004141350 METAR ESMX 141350Z 36005KT 310V070 CAVOK 13/M02 Q1021=
201004141320 METAR ESMX 141320Z 02006KT 350V050 CAVOK 12/M03 Q1022=
201004141250 METAR ESMX 141250Z VRB05KT CAVOK 12/M03 Q1022=
201004141220 METAR ESMX 141220Z 01007KT 330V060 CAVOK 12/M02 Q1022=
201004141150 METAR ESMX 141150Z 05005KT 340V140 9999 FEW049 12/M02 Q1022=
201004141120 METAR ESMX 141120Z 04007KT 360V080 9999 FEW048 12/M02 Q1022=
201004141050 METAR ESMX 141050Z 03009KT 9999 FEW048 11/M02 Q1022=
201004141020 METAR ESMX 141020Z 01010KT 340V050 9999 SCT044 11/M02 Q1022=
201004140950 METAR ESMX 140950Z 02010KT 340V070 9999 SCT043 11/M01 Q1023=
201004140920 METAR ESMX 140920Z 02008KT 340V060 9999 FEW043 10/M01 Q1023=
201004140850 METAR ESMX 140850Z 04009KT 010V070 CAVOK 10/M01 Q1023=
201004140820 METAR ESMX 140820Z 02008KT CAVOK 08/M01 Q1023=
201004140750 METAR ESMX 140750Z 35008KT CAVOK 08/00 Q1023=
201004140720 METAR ESMX 140720Z 04006KT 350V080 CAVOK 07/00 Q1023=
201004140650 METAR ESMX 140650Z 36005KT CAVOK 06/01 Q1023=
201004140620 METAR ESMX 140620Z 01006KT CAVOK 04/01 Q1023=
201004140550 METAR ESMX 140550Z 36004KT CAVOK 03/01 Q1023=
201004140520 METAR ESMX 140520Z 01005KT CAVOK 00/M00 Q1023=
201004140450 METAR ESMX 140450Z 03003KT CAVOK M01/M01 Q1023=
201004140420 METAR ESMX 140420Z 02003KT CAVOK M01/M01 Q1023=
201004140350 METAR ESMX 140350Z 02004KT CAVOK M02/M03 Q1023=
201004140320 METAR ESMX 140320Z AUTO 35002KT 9999NDV NCD M03/M03 Q1023=
201004140250 METAR ESMX 140250Z AUTO 01002KT 9999NDV NCD M01/M02 Q1023=
201004140220 METAR ESMX 140220Z AUTO 01003KT 9999NDV NCD M00/M01 Q1023=
201004140150 METAR ESMX 140150Z AUTO 32002KT 9999NDV NCD M00/M01 Q1023=
201004140120 METAR ESMX 140120Z AUTO 01003KT 9999NDV NCD 00/M00 Q1023=
201004140050 METAR ESMX 140050Z AUTO 01005KT 9999NDV NCD M00/M01 Q1023=
201004140020 METAR ESMX 140020Z AUTO 02002KT 9999NDV NCD M00/M01 Q1023=
201004132350 METAR ESMX 132350Z AUTO 02002KT 9999NDV NCD 01/M00 Q1023=
201004132320 METAR ESMX 132320Z VRB02KT CAVOK 00/M00 Q1023=
201004132250 METAR ESMX 132250Z 01002KT CAVOK 01/M00 Q1023=
201004132220 METAR ESMX 132220Z 35003KT CAVOK 01/M01 Q1023=
201004132150 METAR ESMX 132150Z VRB02KT CAVOK 03/01 Q1023=
201004132120 METAR ESMX 132120Z 06003KT 030V100 CAVOK 04/01 Q1023=
201004132050 METAR ESMX 132050Z 08003KT 020V170 CAVOK 04/01 Q1022=
201004132020 METAR ESMX 132020Z 07003KT CAVOK 05/02 Q1022=
201004131950 METAR ESMX 131950Z 06003KT CAVOK 04/01 Q1022=
201004131920 METAR ESMX 131920Z 03003KT CAVOK 05/01 Q1021=
201004131850 METAR ESMX 131850Z 04003KT CAVOK 05/01 Q1021=
201004131820 METAR ESMX 131820Z 04005KT 010V070 CAVOK 07/01 Q1021=
201004131750 METAR ESMX 131750Z 04008KT 360V090 CAVOK 08/01 Q1021=
201004131720 METAR ESMX 131720Z 04009KT 010V070 CAVOK 10/02 Q1020=
201004131650 METAR ESMX 131650Z 04009KT CAVOK 10/02 Q1020=
201004131620 METAR ESMX 131620Z 06007KT 020V110 CAVOK 11/01 Q1020=
201004131550 METAR ESMX 131550Z 02010KT 340V060 CAVOK 12/02 Q1020=
201004131520 METAR ESMX 131520Z 04009KT 360V070 CAVOK 11/02 Q1020=
201004131450 METAR ESMX 131450Z 02010KT 350V050 CAVOK 11/02 Q1020=
201004131420 METAR ESMX 131420Z 01014KT CAVOK 11/02 Q1019=
201004131350 METAR ESMX 131350Z 01012KT 9999 FEW036 BKN084 12/02 Q1019=
201004131320 METAR ESMX 131320Z 02008KT 350V060 9999 FEW049 BKN097 13/00 Q1019=
201004131250 METAR ESMX 131250Z 02008KT 340V070 9999 FEW038 BKN098 13/M00 Q1019=
201004131220 METAR ESMX 131220Z 36007KT CAVOK 13/M01 Q1019=
201004131150 METAR ESMX 131150Z 01007KT 330V040 CAVOK 13/M02 Q1019=
201004131120 METAR ESMX 131120Z 01006KT 330V030 CAVOK 12/M02 Q1019=
201004131050 METAR ESMX 131050Z 03006KT 360V070 CAVOK 12/M02 Q1019=
201004131020 METAR ESMX 131020Z 03006KT CAVOK 12/M02 Q1019=
201004130950 METAR ESMX 130950Z 03007KT 350V070 CAVOK 12/M02 Q1019=
201004130920 METAR ESMX 130920Z 02003KT 330V060 CAVOK 10/M01 Q1019=
201004130850 METAR ESMX 130850Z 36003KT 310V040 CAVOK 10/M01 Q1019=
201004130820 METAR ESMX 130820Z 03005KT CAVOK 09/00 Q1020=
201004130720 METAR ESMX 130720Z 01003KT CAVOK 07/01 Q1020=
201004130650 METAR ESMX 130650Z 03002KT CAVOK 05/01 Q1020=
201004130550 METAR ESMX 130550Z VRB01KT CAVOK 02/01 Q1020=
201004130520 METAR ESMX 130520Z 33001KT 6000 BR NSC M01/M02 Q1020=
201004130450 METAR ESMX 130450Z 31001KT 8000 BR NSC M03/M03 Q1021=
201004130420 METAR ESMX 130420Z 00000KT 9000 FZFG NSC M03/M04 Q1021=
201004130350 METAR ESMX 130350Z 00000KT 7000 BCFG NSC M03/M04 Q1021=
201004130320 METAR ESMX 130320Z AUTO 19001KT 8000NDV BR NCD M03/M04 Q1021=
201004130250 METAR ESMX 130250Z AUTO 00000KT 5000NDV BR NCD M03/M03 Q1021=
201004130220 METAR ESMX 130220Z AUTO 00000KT 9999NDV NCD M03/M03 Q1021=
201004130150 METAR ESMX 130150Z AUTO 00000KT 9999NDV NCD M02/M03 Q1021=
201004130120 METAR ESMX 130120Z AUTO 18002KT 8000NDV BR NCD M01/M02 Q1022=
201004130050 METAR ESMX 130050Z AUTO 18001KT 9999NDV NCD M01/M02 Q1022=
201004130020 METAR ESMX 130020Z AUTO 15001KT 9999NDV NCD M00/M01 Q1022=
201004122350 METAR ESMX 122350Z AUTO 20002KT 9999NDV NCD 01/M01 Q1022=
201004122320 METAR ESMX 122320Z 00000KT CAVOK 01/M01 Q1023=
201004122250 METAR ESMX 122250Z 18003KT CAVOK 04/00 Q1023=
201004122220 METAR ESMX 122220Z 18004KT CAVOK 04/01 Q1023=
201004122150 METAR ESMX 122150Z 22006KT CAVOK 04/01 Q1023=
201004122120 METAR ESMX 122120Z 23007KT CAVOK 04/02 Q1023=
201004122050 METAR ESMX 122050Z 23005KT CAVOK 05/02 Q1023=
201004122020 METAR ESMX 122020Z 22008KT CAVOK 06/03 Q1023=
201004121950 METAR ESMX 121950Z 21006KT CAVOK 06/02 Q1023=
201004121920 METAR ESMX 121920Z 21004KT CAVOK 04/01 Q1023=
201004121850 METAR ESMX 121850Z VRB01KT CAVOK 06/02 Q1024=
201004121820 METAR ESMX 121820Z 18001KT CAVOK 07/02 Q1024=
201004121750 METAR ESMX 121750Z 00000KT CAVOK 09/02 Q1024=
201004121720 METAR ESMX 121720Z VRB01KT CAVOK 11/02 Q1024=
201004121650 METAR ESMX 121650Z 35002KT CAVOK 13/M01 Q1024=
201004121620 METAR ESMX 121620Z 34003KT 310V040 CAVOK 14/M00 Q1024=
201004121550 METAR ESMX 121550Z VRB01KT CAVOK 14/M00 Q1025=
201004121520 METAR ESMX 121520Z 06003KT 020V140 CAVOK 13/00 Q1025=
201004121450 METAR ESMX 121450Z 36003KT 270V040 CAVOK 12/00 Q1025=
201004121420 METAR ESMX 121420Z 33004KT 280V030 CAVOK 13/00 Q1025=
201004121350 METAR ESMX 121350Z 36004KT 310V080 CAVOK 13/01 Q1026=
201004121320 METAR ESMX 121320Z 35005KT 310V020 CAVOK 13/01 Q1026=
201004121250 METAR ESMX 121250Z 35004KT 280V090 CAVOK 13/01 Q1026=
201004121220 METAR ESMX 121220Z 36005KT 310V100 CAVOK 13/02 Q1027=
201004121150 METAR ESMX 121150Z 01007KT 330V050 CAVOK 13/02 Q1027=
201004121120 METAR ESMX 121120Z 36006KT 320V040 9999 FEW040 12/01 Q1027=
201004121050 METAR ESMX 121050Z 04006KT CAVOK 11/01 Q1027=
201004121020 METAR ESMX 121020Z 04007KT 010V080 CAVOK 11/02 Q1028=
201004120950 METAR ESMX 120950Z 36007KT 310V030 CAVOK 11/02 Q1028=
201004120920 METAR ESMX 120920Z 04006KT 350V080 CAVOK 09/02 Q1028=
201004120850 METAR ESMX 120850Z 36008KT 340V050 CAVOK 09/02 Q1028=
201004120820 METAR ESMX 120820Z 01007KT 340V040 CAVOK 08/02 Q1029=
201004120750 METAR ESMX 120750Z 04008KT 360V090 CAVOK 07/02 Q1029=
201004120720 METAR ESMX 120720Z 05009KT CAVOK 06/02 Q1029=
201004120650 METAR ESMX 120650Z 02007KT 340V050 CAVOK 04/02 Q1029=
201004120620 METAR ESMX 120620Z 04007KT 010V070 CAVOK 03/01 Q1029=
201004120550 METAR ESMX 120550Z 02007KT CAVOK 02/01 Q1029=
201004120520 METAR ESMX 120520Z 01005KT CAVOK 00/M00 Q1029=
201004120450 METAR ESMX 120450Z 34004KT CAVOK M00/M01 Q1029=
201004120420 METAR ESMX 120420Z 01004KT 330V040 CAVOK M00/M01 Q1029=
201004120350 METAR ESMX 120350Z 04005KT CAVOK 01/00 Q1029=
201004120320 METAR ESMX 120320Z AUTO 04007KT 9999NDV NCD 01/00 Q1029=
201004120250 METAR ESMX 120250Z AUTO 02006KT 9999NDV NCD 01/00 Q1029=
201004120220 METAR ESMX 120220Z AUTO 03006KT 9999NDV NCD 01/00 Q1030=
201004120150 METAR ESMX 120150Z AUTO 03007KT 9999NDV NCD 01/M00 Q1030=
201004120120 METAR ESMX 120120Z AUTO 03007KT 9999NDV NCD 02/00 Q1030=
201004120050 METAR ESMX 120050Z AUTO 03004KT 9999NDV NCD 02/00 Q1030=
201004120020 METAR ESMX 120020Z 02005KT CAVOK 02/M00 Q1030=
201004112350 METAR COR ESMX 112350Z 03005KT CAVOK 03/01 Q1031=
201004112250 METAR ESMX 112250Z 04005KT 010V070 CAVOK 03/01 Q1031=
201004112220 METAR ESMX 112220Z 03005KT CAVOK 03/01 Q1031=
201004112150 METAR ESMX 112150Z 03005KT CAVOK 03/01 Q1031=
201004112120 METAR ESMX 112120Z 03005KT CAVOK 04/01 Q1031=
201004112050 METAR ESMX 112050Z 04005KT 010V070 CAVOK 05/01 Q1031=
201004112020 METAR ESMX 112020Z 04004KT 360V080 CAVOK 05/02 Q1031=
201004111950 METAR ESMX 111950Z 03004KT 010V070 CAVOK 04/02 Q1031=
201004111920 METAR ESMX 111920Z 01005KT CAVOK 04/02 Q1031=
201004111850 METAR ESMX 111850Z 02005KT 9999 FEW032 05/01 Q1031=
201004111820 METAR ESMX 111820Z 02006KT 9999 FEW031 07/02 Q1031=
201004111750 METAR ESMX 111750Z 02006KT 9999 FEW030 07/02 Q1031=
201004111720 METAR ESMX 111720Z 03008KT 9999 SCT028 08/02 Q1031=
201004111650 METAR ESMX 111650Z 03012KT 9999 FEW027 08/02 Q1031=
201004111620 METAR ESMX 111620Z 02009KT 9999 FEW030 10/03 Q1031=
201004111550 METAR ESMX 111550Z 05009KT 020V080 9999 FEW030 10/02 Q1031=
201004111520 METAR ESMX 111520Z 04010KT 010V080 9999 FEW030 10/02 Q1031=
201004111450 METAR ESMX 111450Z 04009KT 020V080 9999 FEW030 11/03 Q1031=
201004111420 METAR ESMX 111420Z 03011KT 350V070 9999 FEW035 11/02 Q1031=
201004111350 METAR ESMX 111350Z 05009KT 020V100 9999 FEW040 12/02 Q1032=
201004111320 METAR ESMX 111320Z 03012KT 9999 FEW040 12/02 Q1032=
201004111250 METAR ESMX 111250Z 03009KT 350V090 9999 FEW040 12/02 Q1032=
201004111220 METAR ESMX 111220Z 02011KT 9999 FEW040 12/02 Q1032=
201004111150 METAR ESMX 111150Z AUTO 04010KT 010V080 9999NDV NCD 11/02 Q1032=
201004111120 METAR ESMX 111120Z AUTO 04010KT 010V080 9999NDV NCD 11/02 Q1032=
201004111050 METAR ESMX 111050Z AUTO 05009KT 360V100 9999NDV NCD 11/02 Q1032=
201004111020 METAR ESMX 111020Z AUTO 02010KT 340V060 9999NDV NCD 10/02 Q1032=
201004110950 METAR ESMX 110950Z AUTO 02009KT 350V060 9999NDV NCD 09/02 Q1032=
201004110920 METAR ESMX 110920Z AUTO 01009KT 9999NDV NCD 09/03 Q1032=
201004110850 METAR ESMX 110850Z AUTO 02008KT 340V050 9999NDV NCD 08/02 Q1032=
201004110820 METAR ESMX 110820Z AUTO 01010KT 9999NDV NCD 07/02 Q1032=
201004110750 METAR ESMX 110750Z AUTO 04009KT 350V080 9999NDV BKN081/// 06/02 Q1032=
201004110720 METAR ESMX 110720Z AUTO 03009KT 9999NDV FEW082/// 05/02 Q1032=
201004110650 METAR ESMX 110650Z AUTO 03008KT 350V070 9999NDV FEW009/// BKN083/// 04/02 Q1032=
201004110620 METAR ESMX 110620Z AUTO 02009KT 350V050 9999NDV SCT008/// OVC084/// 04/01 Q1031=
201004110550 METAR ESMX 110550Z AUTO 02009KT 9999NDV OVC008/// 03/01 Q1031=
201004110520 METAR ESMX 110520Z AUTO 02010KT 9999NDV FEW008/// SCT010/// OVC084/// 03/01 Q1031=
201004110450 METAR ESMX 110450Z AUTO 01009KT 9999NDV FEW011/// OVC086/// 03/01 Q1031=
201004110420 METAR ESMX 110420Z AUTO 02009KT 9999NDV OVC086/// 03/01 Q1031=
201004110350 METAR ESMX 110350Z AUTO 01010KT 9999NDV FEW009/// OVC086/// 03/01 Q1031=
201004110320 METAR ESMX 110320Z AUTO 02010KT 9999NDV FEW010/// OVC077/// 03/01 Q1031=
201004110250 METAR ESMX 110250Z AUTO 03010KT 9999NDV SCT010/// OVC067/// 03/01 Q1031=
201004110220 METAR ESMX 110220Z AUTO 02010KT 9999NDV OVC010/// 04/01 Q1031=
201004110150 METAR ESMX 110150Z AUTO 02009KT 9999NDV BKN010/// BKN051/// 04/02 Q1031=
201004110120 METAR ESMX 110120Z AUTO 03009KT 350V060 9999NDV OVC010/// 04/02 Q1031=
201004110050 METAR ESMX 110050Z AUTO 03009KT 9999NDV OVC010/// 04/02 Q1031=
201004110020 METAR ESMX 110020Z AUTO 02010KT 9999NDV OVC010/// 04/02 Q1031=
201004102350 METAR ESMX 102350Z AUTO 02011KT 350V050 9999NDV OVC010/// 04/02 Q1031=
201004102320 METAR ESMX 102320Z AUTO 02011KT 9999NDV OVC009/// 04/02 Q1030=
201004102250 METAR ESMX 102250Z AUTO 01012KT 9999NDV OVC008/// 04/02 Q1030=
201004102220 METAR ESMX 102220Z AUTO 02011KT 9999NDV BKN008/// OVC011/// 04/02 Q1030=
201004102150 METAR ESMX 102150Z AUTO 02010KT 350V050 9999NDV BKN007/// OVC011/// 04/02 Q1030=
201004102120 METAR ESMX 102120Z AUTO 01010KT 9999NDV BKN007/// OVC009/// 04/02 Q1030=
201004102050 METAR ESMX 102050Z AUTO 02010KT 9999NDV OVC007/// 04/02 Q1030=
201004102020 METAR ESMX 102020Z AUTO 02010KT 350V060 9999NDV FEW006/// BKN007/// OVC011/// 04/02 Q1030=
201004101950 METAR ESMX 101950Z AUTO 02011KT 9999NDV OVC006/// 04/02 Q1030=
201004101920 METAR ESMX 101920Z AUTO 02011KT 9999NDV OVC006/// 04/02 Q1030=
201004101850 METAR ESMX 101850Z AUTO 02010KT 8000NDV BR OVC005/// 04/02 Q1029=
201004101820 METAR ESMX 101820Z AUTO 02011KT 9999NDV OVC006/// 04/02 Q1029=
201004101750 METAR ESMX 101750Z AUTO 01010KT 9999NDV OVC006/// 04/02 Q1029=
201004101720 METAR ESMX 101720Z AUTO 01013KT 9999NDV OVC007/// 04/02 Q1029=
201004101650 METAR ESMX 101650Z AUTO 36011KT 9999NDV BKN007/// OVC010/// 04/02 Q1028=
201004101620 METAR ESMX 101620Z AUTO 02011KT 9999NDV FEW007/// SCT009/// OVC010/// 04/03 Q1028=
201004101550 METAR ESMX 101550Z AUTO 02011KT 9999NDV OVC007/// 04/02 Q1028=
201004101520 METAR ESMX 101520Z AUTO 02012KT 9999NDV OVC009/// 04/02 Q1028=
201004101450 METAR ESMX 101450Z AUTO 02011KT 9999NDV OVC009/// 04/02 Q1028=
201004101420 METAR ESMX 101420Z AUTO 01013KT 9999NDV OVC008/// 04/02 Q1028=
201004101350 METAR ESMX 101350Z AUTO 01010KT 330V040 9999NDV OVC007/// 04/02 Q1028=
201004101320 METAR ESMX 101320Z 01011KT 9999 OVC008 04/02 Q1027=
201004101250 METAR ESMX 101250Z 36014KT 330V030 9999 BKN011 OVC015 05/02 Q1027=
201004101220 METAR ESMX 101220Z 01012KT 9999 FEW011 OVC014 05/02 Q1027=
201004101150 METAR ESMX 101150Z 36012KT 9999 -RA FEW012 OVC016 04/02 Q1027=
201004101050 METAR ESMX 101050Z 36013KT 9999 OVC018 05/01 Q1027=
201004101020 METAR ESMX 101020Z 36011KT 9999 OVC020 05/00 Q1027=
201004100950 METAR ESMX 100950Z 35014KT 9999 OVC020 05/01 Q1026=
201004100920 METAR ESMX 100920Z 36012KT 9999 OVC023 05/00 Q1026=
201004100850 METAR ESMX 100850Z 35011KT 9999 BKN022 06/00 Q1026=
201004100820 METAR ESMX 100820Z 34011KT 9999 BKN020 06/01 Q1026=
201004100750 METAR ESMX 100750Z 35011KT 9999 FEW018 SCT037 BKN047 05/00 Q1026=
201004100650 METAR ESMX 100650Z 34012KT 9999 FEW025 SCT043 05/01 Q1025=
201004100620 METAR ESMX 100620Z 34009KT 310V020 9999 SCT022 03/00 Q1025=
201004100550 METAR ESMX 100550Z AUTO 32009KT 9999NDV SCT022/// 02/00 Q1025=
201004100520 METAR ESMX 100520Z AUTO 32006KT 9999NDV NCD 02/00 Q1025=
201004100450 METAR ESMX 100450Z AUTO 35007KT 9999NDV NCD 01/M00 Q1025=
201004100420 METAR ESMX 100420Z AUTO 34007KT 9999NDV NCD 01/M00 Q1025=
201004100350 METAR ESMX 100350Z AUTO 35006KT 9999NDV FEW022/// 01/M00 Q1025=
201004100320 METAR ESMX 100320Z AUTO 35007KT 9999NDV NCD 01/M01 Q1025=
201004100250 METAR ESMX 100250Z AUTO 34006KT 9999NDV NCD 01/M01 Q1024=
201004100220 METAR ESMX 100220Z AUTO 35004KT 9999NDV NCD 02/M00 Q1024=
201004100150 METAR ESMX 100150Z AUTO 34004KT 290V010 9999NDV NCD 02/M00 Q1024=
201004100120 METAR ESMX 100120Z AUTO 33004KT 300V010 9999NDV NCD 02/M00 Q1024=
201004100050 METAR ESMX 100050Z AUTO 33004KT 290V350 9999NDV NCD 02/M00 Q1024=
201004100020 METAR ESMX 100020Z AUTO 32004KT 290V350 9999NDV NCD 02/00 Q1024=
201004092350 METAR ESMX 092350Z AUTO 31004KT 9999NDV NCD 02/M00 Q1023=
201004092320 METAR ESMX 092320Z AUTO 29004KT 9999NDV BKN068/// 01/M00 Q1023=
201004092250 METAR ESMX 092250Z AUTO 27001KT 9999NDV FEW075/// 02/00 Q1023=
201004092220 METAR ESMX 092220Z AUTO 28003KT 230V300 9999NDV BKN068/// 00/M01 Q1023=
201004092150 METAR ESMX 092150Z AUTO VRB01KT 9999NDV NCD 00/M01 Q1023=
201004092120 METAR ESMX 092120Z AUTO 26002KT 9999NDV BKN065/// 01/M01 Q1023=
201004092050 METAR ESMX 092050Z AUTO 17002KT 9999NDV FEW065/// 00/M01 Q1023=
201004092020 METAR ESMX 092020Z AUTO VRB01KT 9999NDV NCD 02/M00 Q1023=
201004091950 METAR ESMX 091950Z AUTO 32001KT 9999NDV NCD 02/00 Q1023=
201004091920 METAR ESMX 091920Z AUTO VRB01KT 9999NDV NCD 03/01 Q1023=
201004091850 METAR ESMX 091850Z VRB02KT CAVOK 04/01 Q1023=
201004091820 METAR ESMX 091820Z 01004KT CAVOK 06/01 Q1022=
201004091750 METAR ESMX 091750Z 36005KT 9999 FEW045 06/01 Q1022=
201004091650 METAR ESMX 091650Z 01007KT CAVOK 09/01 Q1021=
201004091620 METAR ESMX 091620Z 35011KT CAVOK 09/01 Q1022=
201004091550 METAR ESMX 091550Z 36012KT 9999 FEW039 10/02 Q1021=
201004091520 METAR ESMX 091520Z 34010KT 300V010 9999 FEW041 11/00 Q1021=
201004091450 METAR ESMX 091450Z 28007KT 240V320 9999 FEW044 11/02 Q1020=
201004091420 METAR ESMX 091420Z 32006KT 9999 VCSH FEW016 10/03 Q1020=
201004091350 METAR ESMX 091350Z 31008KT 270V350 9999 -RA SCT047 BKN054 11/01 Q1020=
201004091320 METAR ESMX 091320Z 30007KT 270V360 9999 FEW045 BKN051 12/00 Q1020=
201004091250 METAR ESMX 091250Z 29007KT 250V320 9999 FEW041 BKN051 12/02 Q1020=
201004091220 METAR ESMX 091220Z 29009KT 240V340 9999 FEW038 BKN044 11/02 Q1020=
201004091150 METAR ESMX 091150Z 27009KT 230V300 9999 FEW031 BKN040 10/02 Q1020=
201004091120 METAR ESMX 091120Z 31007KT 9999 FEW030 BKN035 10/02 Q1020=
201004091050 METAR ESMX 091050Z 30009KT 270V330 9999 FEW026 SCT030 09/02 Q1021=
201004091020 METAR ESMX 091020Z 28009KT 250V330 9999 FEW023 SCT030 10/03 Q1021=
201004090950 METAR ESMX 090950Z 30010KT 9999 BKN021 09/03 Q1021=
201004090920 METAR ESMX 090920Z 30009KT 9999 FEW016 SCT020 BKN024 08/02 Q1021=
201004090850 METAR ESMX 090850Z 26011KT 230V300 9999 FEW015 SCT017 BKN020 07/03 Q1021=
201004090820 METAR ESMX 090820Z 27008KT 9999 BKN014 OVC019 07/03 Q1021=
201004090750 METAR ESMX 090750Z 25007KT 210V280 9999 FEW011 OVC016 06/03 Q1021=
201004090720 METAR ESMX 090720Z 26007KT 230V290 9999 FEW009 OVC012 05/02 Q1021=
201004090650 METAR ESMX 090650Z 26008KT 230V300 9999 BKN008 OVC011 04/03 Q1021=
201004090620 METAR ESMX 090620Z 27005KT 240V310 9999 BR SCT007 OVC010 04/03 Q1021=
201004090550 METAR ESMX 090550Z 26007KT 230V290 8000 BR BKN005 OVC008 04/02 Q1020=
201004090520 METAR ESMX 090520Z 26007KT 220V290 7000 BR OVC005 04/02 Q1020=
201004090450 METAR ESMX 090450Z 25008KT 210V280 7000 BR OVC006 04/02 Q1020=
201004090420 METAR ESMX 090420Z 24006KT 210V280 8000 BR BKN007 04/02 Q1020=
201004090350 METAR ESMX 090350Z 27008KT 210V290 7000 BR FEW006 BKN009 04/02 Q1020=
201004090320 METAR ESMX 090320Z AUTO 25004KT 3600NDV BR FEW006/// SCT007/// BKN009/// 05/03 Q1020=
201004090250 METAR ESMX 090250Z AUTO 26006KT 230V290 3400NDV BR FEW006/// SCT008/// BKN010/// 05/03 Q1020=
201004090220 METAR ESMX 090220Z AUTO 24003KT 210V270 3000NDV BR FEW008/// SCT012/// BKN015/// 05/04 Q1020=
201004090150 METAR ESMX 090150Z AUTO 26004KT 230V290 2800NDV BR FEW006/// SCT014/// OVC017/// 05/04 Q1020=
201004090120 METAR ESMX 090120Z AUTO 28007KT 240V320 2400NDV BR FEW003/// BKN005/// OVC007/// 05/04 Q1020=
201004090050 METAR ESMX 090050Z AUTO 26008KT 230V290 2000NDV BR FEW005/// SCT006/// BKN008/// 05/04 Q1020=
201004090020 METAR ESMX 090020Z AUTO 26006KT 210V300 3000NDV BR FEW008/// SCT010/// OVC013/// 06/04 Q1020=
201004082320 METAR ESMX 082320Z 26008KT 210V290 2500 BR FEW002 SCT004 BKN010 06/05 Q1020=
201004082150 METAR ESMX 082150Z 19005KT 2000 -RA BR SCT003 BKN005 07/06 Q1020 RERA=
201004082120 METAR ESMX 082120Z 18005KT 2500 RA BR FEW007 BKN010 07/06 Q1020=
201004082020 METAR ESMX 082020Z 19005KT 4000 -RA BR FEW011 BKN034 07/05 Q1021=
201004081950 METAR ESMX 081950Z 18006KT 6000 -RA BR BKN034 07/05 Q1021=
201004081920 METAR ESMX 081920Z 16007KT 7000 -RA BR FEW041 BKN060 08/05 Q1021=
201004081850 METAR COR ESMX 081850Z 18007KT 8000 -RA BR FEW045 BKN060 08/05 Q1021=
201004081820 METAR ESMX 081820Z 18008KT 9000 BR NSC 09/05 Q1021=
201004081720 METAR ESMX 081720Z 17010KT 140V200 CAVOK 10/04 Q1021=
201004081650 METAR ESMX 081650Z 18008KT CAVOK 10/04 Q1021=
201004081620 METAR ESMX 081620Z 18009KT CAVOK 11/04 Q1021=
201004081550 METAR ESMX 081550Z 18008KT CAVOK 11/04 Q1021=
201004081520 METAR ESMX 081520Z 18010KT 130V200 CAVOK 11/04 Q1021=
201004081450 METAR ESMX 081450Z 18011KT CAVOK 12/03 Q1021=
201004081420 METAR ESMX 081420Z 17012KT 150V210 9999 FEW040 12/03 Q1022=
201004081350 METAR ESMX 081350Z 17010KT 120V200 9999 FEW040 13/03 Q1022=
201004081320 METAR ESMX 081320Z 17009KT 120V210 CAVOK 12/03 Q1022=
201004081250 METAR ESMX 081250Z 17010KT 130V200 9999 FEW045 12/04 Q1022=
201004081220 METAR ESMX 081220Z 18011KT 140V200 CAVOK 12/04 Q1023=
201004081150 METAR ESMX 081150Z 17011KT 130V210 9999 FEW024 12/03 Q1023=
201004081120 METAR ESMX 081120Z 17012G22KT 130V200 CAVOK 12/03 Q1023=
201004081050 METAR ESMX 081050Z 16011KT 110V190 CAVOK 12/03 Q1023=
201004081020 METAR ESMX 081020Z 17007KT 140V220 CAVOK 11/03 Q1023=
201004080950 METAR ESMX 080950Z 15006KT 110V210 CAVOK 10/03 Q1023=
201004080920 METAR ESMX 080920Z 15006KT 110V190 CAVOK 09/03 Q1024=
201004080850 METAR ESMX 080850Z 15007KT 110V190 CAVOK 07/03 Q1024=
201004080820 METAR ESMX 080820Z 16006KT 120V190 CAVOK 06/02 Q1024=
201004080750 METAR ESMX 080750Z 16005KT 100V210 CAVOK 05/02 Q1024=
201004080720 METAR ESMX 080720Z 15004KT 110V200 9000 BR NSC 03/01 Q1024=
201004080650 METAR ESMX 080650Z 16006KT 120V190 8000 BR FEW004 02/01 Q1024=
201004080620 METAR ESMX 080620Z 16006KT 110V200 7000 BR FEW005 02/00 Q1024=
201004080550 METAR ESMX 080550Z 16006KT 110V190 7000 BR FEW005 01/00 Q1024=
201004080520 METAR ESMX 080520Z 15005KT 120V180 CAVOK 01/M00 Q1024=
201004080450 METAR ESMX 080450Z 15005KT 080V200 CAVOK 00/M01 Q1024=
201004080350 METAR COR ESMX 080350Z 15005KT 100V190 CAVOK 00/M01 Q1024=
201004080320 METAR ESMX 080320Z AUTO 15004KT 110V180 9999NDV NCD 00/M01 Q1024=
201004080250 METAR ESMX 080250Z AUTO 14003KT 090V200 9999NDV NCD 00/M02 Q1024=
201004080220 METAR ESMX 080220Z AUTO 15003KT 110V190 9999NDV NCD 00/M02 Q1024=
201004080150 METAR ESMX 080150Z AUTO VRB02KT 9999NDV NCD 00/M02 Q1024=
201004080120 METAR ESMX 080120Z AUTO 14003KT 090V190 9999NDV NCD 00/M02 Q1024=
201004080050 METAR ESMX 080050Z AUTO 14003KT 100V190 9999NDV NCD 00/M02 Q1025=
201004080020 METAR ESMX 080020Z AUTO 13003KT 080V170 9999NDV NCD 01/M02 Q1025=
201004072350 METAR ESMX 072350Z 15003KT 120V190 CAVOK 02/M02 Q1025=
201004072320 METAR ESMX 072320Z 14003KT 110V180 CAVOK 02/M02 Q1025=
201004072250 METAR ESMX 072250Z 15004KT 110V200 CAVOK 02/M02 Q1025=
201004072150 METAR ESMX 072150Z 15005KT CAVOK 03/M01 Q1025=
201004072050 METAR ESMX 072050Z 17005KT CAVOK 04/M00 Q1026=
201004072020 METAR ESMX 072020Z 17004KT CAVOK 05/M00 Q1025=
201004071950 METAR ESMX 071950Z 17004KT CAVOK 05/M00 Q1025=
201004071920 METAR ESMX 071920Z 16005KT CAVOK 06/M00 Q1025=
201004071850 METAR ESMX 071850Z 18005KT CAVOK 06/00 Q1025=
201004071820 METAR ESMX 071820Z 19005KT CAVOK 06/00 Q1025=
201004071750 METAR ESMX 071750Z 18005KT CAVOK 08/00 Q1024=
201004071720 METAR ESMX 071720Z 18007KT CAVOK 09/01 Q1024=
201004071650 METAR ESMX 071650Z 17007KT 140V200 CAVOK 10/00 Q1024=
201004071620 METAR ESMX 071620Z 16007KT 120V190 CAVOK 11/00 Q1024=
201004071550 METAR ESMX 071550Z 17007KT 140V210 CAVOK 12/00 Q1024=
201004071520 METAR ESMX 071520Z 16007KT 130V200 CAVOK 12/01 Q1025=
201004071450 METAR ESMX 071450Z 15008KT 120V190 CAVOK 12/00 Q1025=
201004071420 METAR ESMX 071420Z 16008KT 120V190 CAVOK 12/00 Q1025=
201004071350 METAR ESMX 071350Z 15008KT 110V190 9999 FEW040 12/00 Q1025=
201004071320 METAR ESMX 071320Z 19009KT 150V210 9999 FEW040 13/01 Q1025=
201004071250 METAR ESMX 071250Z 18007KT 140V210 9999 FEW043 13/01 Q1025=
201004071220 METAR COR ESMX 071220Z 21008KT 9999 FEW040 12/01 Q1025=
201004071150 METAR ESMX 071150Z 14008KT 110V180 9999 FEW041 12/01 Q1025=
201004071120 METAR ESMX 071120Z 15007KT 120V200 9999 FEW040 12/01 Q1026=
201004071050 METAR ESMX 071050Z 15008KT 090V200 CAVOK 12/02 Q1026=
201004071020 METAR ESMX 071020Z 16009KT 100V220 CAVOK 11/02 Q1026=
201004070950 METAR ESMX 070950Z 16009KT 120V190 CAVOK 11/01 Q1026=
201004070920 METAR ESMX 070920Z 18010KT CAVOK 10/03 Q1026=
201004070850 METAR ESMX 070850Z 18008KT 140V210 CAVOK 10/02 Q1026=
201004070820 METAR ESMX 070820Z 16005KT 120V200 CAVOK 09/01 Q1026=
201004070750 METAR ESMX 070750Z 17005KT 140V200 CAVOK 09/01 Q1026=
201004070720 METAR ESMX 070720Z 17004KT 110V230 CAVOK 08/01 Q1026=
201004070650 METAR ESMX 070650Z 15004KT 110V190 CAVOK 07/01 Q1026=
201004070620 METAR ESMX 070620Z 16004KT 120V210 CAVOK 05/01 Q1026=
201004070550 METAR ESMX 070550Z 15004KT 110V180 CAVOK 04/01 Q1026=
201004070520 METAR ESMX 070520Z VRB02KT CAVOK 04/01 Q1026=
201004070450 METAR ESMX 070450Z 16002KT CAVOK 04/01 Q1026=
201004070420 METAR ESMX 070420Z 15002KT CAVOK 03/02 Q1026=
201004070350 METAR ESMX 070350Z 15002KT 9000 HZ OVC052 04/02 Q1026=
201004070320 METAR ESMX 070320Z 16002KT 7000 HZ SCT032 OVC054 04/02 Q1026=
201004070250 METAR ESMX 070250Z AUTO 15003KT 6000NDV HZ OVC032/// 04/02 Q1026=
201004070220 METAR ESMX 070220Z AUTO 15003KT 5000NDV HZ OVC031/// 04/03 Q1026=
201004070150 METAR ESMX 070150Z AUTO 16003KT 6000NDV BR OVC032/// 04/03 Q1026=
201004070120 METAR ESMX 070120Z AUTO 16003KT 5000NDV BR OVC030/// 04/03 Q1026=
201004070050 METAR ESMX 070050Z AUTO VRB02KT 6000NDV BR OVC030/// 03/02 Q1026=
201004070020 METAR ESMX 070020Z AUTO 18002KT 6000NDV BR OVC029/// 02/02 Q1026=
201004062350 METAR ESMX 062350Z 17003KT 9999 SCT029 02/01 Q1026=
201004062320 METAR ESMX 062320Z 17003KT 9999 FEW027 BKN044 03/02 Q1026=
201004062250 METAR ESMX 062250Z 17003KT 9000 FEW027 BKN041 04/02 Q1026=
201004062220 METAR ESMX 062220Z 15004KT 110V170 9999 BKN042 04/02 Q1026=
201004062150 METAR ESMX 062150Z 14003KT 9999 BKN043 05/03 Q1025=
201004062120 METAR ESMX 062120Z 17003KT 9999 BKN029 OVC044 06/03 Q1025=
201004062050 METAR ESMX 062050Z 16003KT 9999 OVC028 07/03 Q1025=
201004062020 METAR ESMX 062020Z 18004KT 9999 FEW025 OVC029 07/03 Q1025=
201004061950 METAR ESMX 061950Z 18005KT 9999 OVC027 07/04 Q1025=
201004061920 METAR ESMX 061920Z 18004KT 9999 OVC024 07/03 Q1025=
201004061850 METAR ESMX 061850Z 18005KT 9999 OVC025 07/04 Q1025=
201004061820 METAR ESMX 061820Z 18003KT 9999 BKN029 08/04 Q1025=
201004061750 METAR ESMX 061750Z 19004KT 9999 BKN029 08/04 Q1025=
201004061720 METAR ESMX 061720Z 20004KT 9999 FEW028 OVC031 08/04 Q1025=
201004061650 METAR ESMX 061650Z 20006KT 9999 OVC029 08/03 Q1025=
201004061620 METAR ESMX 061620Z 19006KT 9999 OVC029 09/03 Q1025=
201004061550 METAR ESMX 061550Z 20006KT 9999 BKN030 09/03 Q1025=
201004061520 METAR ESMX 061520Z 23006KT 200V260 9999 BKN033 OVC040 09/02 Q1025=
201004061450 METAR ESMX 061450Z 21007KT 9999 BKN035 09/02 Q1025=
201004061420 METAR ESMX 061420Z 23006KT 210V270 9999 BKN038 10/02 Q1025=
201004061350 METAR ESMX 061350Z 21007KT 170V250 9999 BKN040 10/01 Q1025=
201004061320 METAR ESMX 061320Z 23006KT 190V270 9999 BKN041 10/01 Q1025=
201004061250 METAR ESMX 061250Z 22006KT 9999 BKN043 10/00 Q1025=
201004061220 METAR ESMX 061220Z 19008KT 9999 BKN044 11/01 Q1025=
201004061150 METAR ESMX 061150Z 20010KT 9999 FEW046 11/M01 Q1025=
201004061120 METAR ESMX 061120Z 22008KT 170V260 9999 BKN044 10/M01 Q1025=
201004061050 METAR ESMX 061050Z 21009KT 170V250 9999 BKN041 10/M00 Q1025=
201004061020 METAR ESMX 061020Z 19008KT 150V230 9999 BKN035 09/M00 Q1026=
201004060950 METAR ESMX 060950Z 18007KT 150V230 9999 FEW025 BKN030 09/M01 Q1026=
201004060920 METAR ESMX 060920Z 19007KT 150V220 9999 SCT027 BKN033 08/01 Q1026=
201004060850 METAR ESMX 060850Z 19006KT 150V230 9999 FEW019 BKN023 08/01 Q1026=
201004060820 METAR ESMX 060820Z 18005KT 120V200 9999 SCT014 SCT040 08/02 Q1026=
201004060750 METAR ESMX 060750Z 23003KT 200V280 9999 FEW006 SCT042 06/03 Q1026=
201004060720 METAR ESMX 060720Z VRB02KT 9999 FEW006 BKN042 04/03 Q1026=
201004060650 METAR ESMX 060650Z 23003KT 200V270 9000 BR BKN042 04/03 Q1026=
201004060620 METAR ESMX 060620Z 22004KT 9000 BR BKN041 03/02 Q1025=
201004060550 METAR ESMX 060550Z VRB02KT 9000 BR BKN040 02/02 Q1025=
201004060520 METAR ESMX 060520Z VRB01KT 9999 OVC041 02/01 Q1025=
201004060450 METAR ESMX 060450Z 20002KT 9999 BKN040 02/02 Q1024=
201004060420 METAR ESMX 060420Z 24003KT 9999 BKN037 02/01 Q1025=
201004060350 METAR ESMX 060350Z VRB01KT 7000 BR OVC036 02/01 Q1025=
201004060320 METAR ESMX 060320Z 24003KT 8000 OVC035 02/01 Q1025=
201004060250 METAR ESMX 060250Z AUTO 23003KT 6000NDV OVC037/// 01/01 Q1024=
201004060220 METAR ESMX 060220Z AUTO 22003KT 4700NDV BR OVC039/// 01/01 Q1024=
201004060150 METAR ESMX 060150Z AUTO 20003KT 3200NDV BR OVC042/// 01/00 Q1024=
201004060120 METAR ESMX 060120Z AUTO 21004KT 2000NDV BR FEW042/// BKN048/// M00/M01 Q1024=
201004060050 METAR ESMX 060050Z AUTO 21004KT 3400NDV BR BKN050/// 01/00 Q1024=
201004060020 METAR ESMX 060020Z 18003KT 6000 BR SCT052 01/01 Q1024=
201004052350 METAR ESMX 052350Z 19003KT 8000 BR BKN053 01/00 Q1024=
201004052320 METAR ESMX 052320Z 17003KT 7000 BR BKN052 02/02 Q1024=
201004052250 METAR ESMX 052250Z VRB01KT CAVOK 03/02 Q1023=
201004052220 METAR ESMX 052220Z VRB01KT CAVOK 03/02 Q1023=
201004052150 METAR ESMX 052150Z 00000KT 9999 BKN016 OVC054 03/02 Q1023=
201004052120 METAR ESMX 052120Z VRB01KT 9999 BKN015 OVC054 04/02 Q1023=
201004052050 METAR ESMX 052050Z VRB02KT 9999 FEW021 BKN053 04/02 Q1023=
201004052020 METAR ESMX 052020Z VRB02KT 9999 FEW018 SCT020 OVC053 04/02 Q1023=
201004051950 METAR ESMX 051950Z 28003KT 240V320 9999 BKN020 04/03 Q1022=
201004051920 METAR ESMX 051920Z 26004KT 9999 FEW007 SCT008 OVC018 05/03 Q1022=
201004051850 METAR ESMX 051850Z 26005KT 210V290 9999 BKN008 OVC010 05/03 Q1022=
201004051820 METAR ESMX 051820Z 26005KT 9999 BKN007 OVC011 05/03 Q1021=
201004051750 METAR ESMX 051750Z 26005KT 9999 BKN007 05/04 Q1021=
201004051720 METAR ESMX 051720Z 26005KT 9000 BR FEW006 BKN008 05/04 Q1021=
201004051650 METAR ESMX 051650Z 28003KT 250V310 9000 BR FEW009 BKN010 05/04 Q1020=
201004051620 METAR ESMX 051620Z 26005KT 9999 BKN009 06/04 Q1020=
201004051520 METAR ESMX 051520Z 28004KT 6000 BR FEW006 SCT008 BKN010 05/04 Q1020=
201004051450 METAR ESMX 051450Z 31003KT 240V350 8000 -RA BR SCT006 BKN009 05/04 Q1020=
201004051420 METAR ESMX 051420Z VRB01KT 9000 -RA BR OVC009 05/04 Q1019=
201004051350 METAR ESMX 051350Z VRB01KT 9000 BR BKN008 05/04 Q1019=
201004051320 METAR ESMX 051320Z VRB02KT 9000 BR OVC008 05/04 Q1019=
201004051250 METAR ESMX 051250Z VRB02KT 8000 BR BKN008 05/04 Q1018=
201004051220 METAR ESMX 051220Z VRB02KT 9000 BR SCT006 BKN007 05/04 Q1018=
201004051150 METAR ESMX 051150Z VRB02KT 9000 BR OVC005 05/04 Q1018=
201004051050 METAR ESMX 051050Z VRB02KT 5000 BR OVC005 04/04 Q1018=
201004051020 METAR ESMX 051020Z VRB02KT 1200 R01/1400U R19/P2000N BR OVC001 04/03 Q1017=
201004050950 METAR ESMX 050950Z 35002KT 0900 R01/1300VP2000N R19/0900V1500D FG VV002 04/03 Q1017=
201004050920 METAR ESMX 050920Z VRB02KT 1000 R01/1000V1600U R19/0900V1700N BR VV002 04/03 Q1017=
201004050850 METAR ESMX 050850Z 01003KT 330V030 0400 R01/0900D R19/0700 BR VV002 04/03 Q1016=
201004050820 METAR ESMX 050820Z 36002KT 0650 R01/1200N R19/1000D BR VV002 03/03 Q1016=
201004050750 METAR ESMX 050750Z VRB02KT 0900 R01/1200V1800N R19/1200D BR VV002 03/03 Q1016=
201004050720 METAR ESMX 050720Z 06003KT 2000 BR OVC001 03/02 Q1015=
201004050650 METAR ESMX 050650Z 04003KT 3400 BR OVC002 03/02 Q1015=
201004050620 METAR ESMX 050620Z VRB01KT 4200 BR OVC002 03/02 Q1015=
201004050550 METAR ESMX 050550Z AUTO VRB01KT 4100NDV BR OVC001/// 03/02 Q1015=
201004050520 METAR ESMX 050520Z AUTO VRB01KT 2600NDV BR OVC001/// 02/02 Q1014=
201004050450 METAR ESMX 050450Z AUTO VRB02KT 1300NDV R01/P2000N R19/P2000N BR OVC001/// 02/02 Q1014=
201004050420 METAR ESMX 050420Z AUTO 07003KT 360V120 1200NDV R01/P2000N R19/P2000N OVC001/// 02/02 Q1014 RESHRA=
201004050350 METAR ESMX 050350Z AUTO 07004KT 020V120 2100NDV -RA OVC000/// 02/02 Q1014=
201004050320 METAR ESMX 050320Z AUTO VRB01KT 0500NDV R01/1600N R19/1600D -RA VV001 02/02 Q1014=
201004050250 METAR ESMX 050250Z AUTO 09003KT 030V160 0750NDV R01/P2000N R19/P2000N FG VV002 03/02 Q1014=
201004050220 METAR ESMX 050220Z AUTO 08003KT 030V120 2000NDV BR OVC002/// 03/02 Q1013=
201004050150 METAR ESMX 050150Z AUTO 06004KT 030V110 5000NDV BR OVC002/// 03/02 Q1013=
201004050120 METAR ESMX 050120Z AUTO VRB02KT 9999NDV OVC004/// 03/01 Q1013=
201004050050 METAR ESMX 050050Z AUTO 06004KT 030V100 9999NDV OVC005/// 03/01 Q1013=
201004050020 METAR ESMX 050020Z AUTO 07003KT 020V130 9999NDV OVC006/// 03/01 Q1013=
201004042350 METAR ESMX 042350Z AUTO 10004KT 030V150 9999NDV OVC007/// 03/01 Q1013=
201004042320 METAR ESMX 042320Z AUTO 10004KT 060V140 9999NDV OVC008/// 03/01 Q1013=
201004042250 METAR ESMX 042250Z AUTO 09006KT 050V140 9999NDV OVC010/// 03/00 Q1013=
201004042220 METAR ESMX 042220Z AUTO 09005KT 040V140 9999NDV FEW013/// OVC015/// 03/00 Q1013=
201004042150 METAR ESMX 042150Z AUTO 10006KT 030V160 9999NDV OVC019/// 03/00 Q1013=
201004042120 METAR ESMX 042120Z AUTO 10005KT 050V150 9999NDV BKN022/// OVC029/// 03/00 Q1013=
201004042050 METAR ESMX 042050Z AUTO 11008KT 040V140 9999NDV BKN027/// OVC032/// 04/00 Q1013=
201004042020 METAR ESMX 042020Z AUTO 10007KT 050V150 9999NDV OVC030/// 04/00 Q1013=
201004041950 METAR ESMX 041950Z AUTO 10006KT 050V190 9999NDV OVC032/// 04/00 Q1014=
201004041920 METAR ESMX 041920Z AUTO 10008KT 040V140 9999NDV OVC033/// 04/00 Q1013=
201004041850 METAR ESMX 041850Z AUTO 10007KT 050V140 9999NDV FEW026/// OVC038/// 04/M00 Q1014=
201004041820 METAR ESMX 041820Z AUTO 10007KT 050V160 9999NDV OVC026/// 04/M01 Q1014=
201004041750 METAR ESMX 041750Z AUTO 10008KT 050V150 9999NDV OVC036/// 04/M01 Q1013=
201004041720 METAR ESMX 041720Z AUTO 10007KT 030V170 9999NDV OVC034/// 04/M01 Q1013=
201004041650 METAR ESMX 041650Z AUTO 10005KT 010V150 9999NDV OVC035/// 05/M01 Q1013=
201004041620 METAR ESMX 041620Z AUTO 09007KT 050V140 9999NDV OVC035/// 04/M01 Q1013=
201004041550 METAR ESMX 041550Z AUTO 08006KT 040V150 9999NDV OVC039/// 04/M01 Q1013=
201004041520 METAR ESMX 041520Z AUTO 09006KT 040V130 9999NDV -DZ FEW021/// OVC044/// 04/M01 Q1013=
201004041450 METAR ESMX 041450Z 06006KT 010V110 9999 FEW008 BKN050 04/M00 Q1014=
201004041420 METAR ESMX 041420Z 10008KT 050V140 9999 FEW011 BKN052 04/M00 Q1014=
201004041350 METAR ESMX 041350Z 12011G23KT 060V160 9999 FEW015 SCT025 06/M03 Q1014=
201004041320 METAR ESMX 041320Z 11007KT 060V190 9999 FEW039 06/M04 Q1014=
201004041250 METAR ESMX 041250Z 10008KT 060V160 9999 FEW045 07/M04 Q1014=
201004041220 METAR ESMX 041220Z 10007KT 050V150 CAVOK 07/M04 Q1014=
201004041150 METAR ESMX 041150Z AUTO 11008KT 050V160 9999NDV FEW061/// 07/M05 Q1014=
201004041120 METAR ESMX 041120Z AUTO 11008KT 050V150 9999NDV NCD 07/M04 Q1014=
201004041050 METAR ESMX 041050Z AUTO 11007KT 060V170 9999NDV FEW052/// 07/M03 Q1015=
201004041020 METAR ESMX 041020Z AUTO 11007KT 040V160 9999NDV FEW059/// 07/M03 Q1015=
201004040950 METAR ESMX 040950Z AUTO 10007KT 020V140 9999NDV FEW053/// 06/M03 Q1015=
201004040920 METAR ESMX 040920Z AUTO 11007KT 080V160 9999NDV FEW059/// 06/M02 Q1016=
201004040850 METAR ESMX 040850Z AUTO 10006KT 050V160 9999NDV FEW057/// 05/M03 Q1016=
201004040820 METAR ESMX 040820Z AUTO 12007KT 040V200 9999NDV NCD 06/M02 Q1016=
201004040750 METAR ESMX 040750Z AUTO 12006KT 050V170 9999NDV FEW058/// 05/M02 Q1016=
201004040720 METAR ESMX 040720Z AUTO 09006KT 030V140 9999NDV NCD 04/M02 Q1016=
201004040650 METAR ESMX 040650Z AUTO 06003KT 010V120 9999NDV NCD 02/M02 Q1016=
201004040620 METAR ESMX 040620Z AUTO 06003KT 020V080 9999NDV NCD 01/M02 Q1016=
201004040550 METAR ESMX 040550Z AUTO 06002KT 9999NDV NCD M01/M02 Q1016=
201004040520 METAR ESMX 040520Z AUTO VRB02KT 9999NDV NCD M02/M03 Q1016=
201004040450 METAR ESMX 040450Z AUTO 06003KT 9999NDV NCD M03/M03 Q1016=
201004040420 METAR ESMX 040420Z AUTO VRB01KT 9999NDV NCD M04/M05 Q1016=
201004040350 METAR ESMX 040350Z AUTO 05002KT 9999NDV NCD M04/M04 Q1016=
201004040320 METAR ESMX 040320Z AUTO 03002KT 9999NDV NCD M04/M04 Q1016=
201004040250 METAR ESMX 040250Z AUTO 03001KT 9999NDV NCD M03/M04 Q1016=
201004040220 METAR ESMX 040220Z AUTO 03002KT 9999NDV NCD M03/M04 Q1016=
201004040150 METAR ESMX 040150Z AUTO 04003KT 9999NDV NCD M02/M03 Q1016=
201004040120 METAR ESMX 040120Z AUTO 06003KT 9999NDV NCD M02/M03 Q1017=
201004040050 METAR ESMX 040050Z AUTO VRB01KT 9999NDV NCD M02/M03 Q1017=
201004040020 METAR ESMX 040020Z AUTO 07002KT 9999NDV NCD M02/M03 Q1017=
201004032350 METAR ESMX 032350Z AUTO VRB02KT 9999NDV NCD M02/M03 Q1017=
201004032320 METAR ESMX 032320Z AUTO VRB01KT 9999NDV NCD M01/M03 Q1017=
201004032250 METAR ESMX 032250Z AUTO VRB01KT 9999NDV NCD M01/M03 Q1017=
201004032220 METAR ESMX 032220Z AUTO VRB02KT 9999NDV NCD M00/M03 Q1017=
201004032150 METAR ESMX 032150Z AUTO VRB02KT 9999NDV NCD 00/M03 Q1018=
201004032120 METAR ESMX 032120Z AUTO VRB01KT 9999NDV NCD 00/M03 Q1018=
201004032050 METAR ESMX 032050Z AUTO VRB01KT 9999NDV NCD 01/M03 Q1018=
201004032020 METAR ESMX 032020Z AUTO VRB02KT 9999NDV NCD 03/M03 Q1018=
201004031950 METAR ESMX 031950Z AUTO 13003KT 080V170 9999NDV NCD 04/M03 Q1017=
201004031920 METAR ESMX 031920Z AUTO 14004KT 100V190 9999NDV NCD 05/M03 Q1017=
201004031850 METAR ESMX 031850Z AUTO 14004KT 080V180 9999NDV NCD 06/M03 Q1017=
201004031820 METAR ESMX 031820Z AUTO 14005KT 110V170 9999NDV NCD 07/M03 Q1017=
201004031750 METAR ESMX 031750Z AUTO 13003KT 060V190 9999NDV NCD 07/M02 Q1017=
201004031720 METAR ESMX 031720Z AUTO 14004KT 110V190 9999NDV SCT056/// 08/M02 Q1017=
201004031650 METAR ESMX 031650Z AUTO 14004KT 100V170 9999NDV BKN056/// 09/M02 Q1016=
201004031620 METAR ESMX 031620Z AUTO 12007KT 040V170 9999NDV BKN057/// 09/M02 Q1016=
201004031550 METAR ESMX 031550Z AUTO 15006KT 100V190 9999NDV BKN057/// 11/M04 Q1016=
201004031520 METAR ESMX 031520Z AUTO 14006KT 070V190 9999NDV BKN058/// 10/M04 Q1016=
201004031450 METAR ESMX 031450Z AUTO 16008KT 110V200 9999NDV BKN059/// 11/M04 Q1016=
201004031420 METAR ESMX 031420Z AUTO 15007KT 110V200 9999NDV SCT058/// 11/M04 Q1017=
201004031350 METAR ESMX 031350Z AUTO 15007KT 070V170 9999NDV NCD 11/M05 Q1017=
201004031320 METAR ESMX 031320Z AUTO 15007KT 100V200 9999NDV NCD 10/M05 Q1017=
201004031250 METAR ESMX 031250Z AUTO 15006KT 080V230 9999NDV NCD 10/M03 Q1017=
201004031220 METAR ESMX 031220Z AUTO 15008KT 080V210 9999NDV NCD 10/M04 Q1017=
201004031150 METAR ESMX 031150Z AUTO 16008KT 100V230 9999NDV NCD 10/M05 Q1017=
201004031120 METAR ESMX 031120Z AUTO 16007KT 110V200 9999NDV NCD 10/M05 Q1018=
201004031050 METAR ESMX 031050Z AUTO 15006KT 090V230 9999NDV NCD 09/M05 Q1018=
201004031020 METAR ESMX 031020Z AUTO 17005KT 130V220 9999NDV NCD 09/M04 Q1018=
201004030950 METAR ESMX 030950Z AUTO 16005KT 120V210 9999NDV NCD 08/M05 Q1018=
201004030920 METAR ESMX 030920Z AUTO VRB04KT 9999NDV NCD 08/M04 Q1018=
201004030850 METAR ESMX 030850Z AUTO 17004KT 120V250 9999NDV NCD 07/M03 Q1018=
201004030820 METAR ESMX 030820Z AUTO 16003KT 110V200 9999NDV NCD 06/M03 Q1018=
201004030750 METAR ESMX 030750Z AUTO VRB02KT 9999NDV NCD 05/M02 Q1018=
201004030720 METAR ESMX 030720Z AUTO VRB02KT 9999NDV NCD 03/M01 Q1017=
201004030650 METAR ESMX 030650Z AUTO VRB01KT 9999NDV NCD 01/01 Q1017=
201004030620 METAR ESMX 030620Z AUTO VRB01KT 9999NDV NCD M01/M01 Q1017=
201004030550 METAR ESMX 030550Z AUTO 05001KT 9999NDV NCD M04/M04 Q1017=
201004030520 METAR ESMX 030520Z AUTO 07001KT 6000NDV NCD M05/M05 Q1017=
201004030450 METAR ESMX 030450Z AUTO VRB01KT 4400NDV BCFG NCD M05/M06 Q1017=
201004030420 METAR ESMX 030420Z AUTO 00000KT 4100NDV BCFG NCD M05/M06 Q1017=
201004030350 METAR ESMX 030350Z AUTO 04001KT 0750NDV R01/P2000N R19/P2000N FZFG NCD M05/M06 Q1017=
201004030320 METAR ESMX 030320Z AUTO 00000KT 2900NDV NCD M05/M05 Q1017=
201004030250 METAR ESMX 030250Z AUTO VRB01KT 0750NDV R01/P2000N R19/P2000N FZFG NCD M04/M05 Q1017=
201004030220 METAR ESMX 030220Z AUTO 01001KT 0800NDV R01/P2000N R19/P2000N BCFG NCD M04/M04 Q1017=
201004030150 METAR ESMX 030150Z AUTO 01001KT 1000NDV R01/P2000N R19/P2000N BR NCD M04/M04 Q1017=
201004030120 METAR ESMX 030120Z AUTO 05001KT 0900NDV R01/P2000N R19/P2000N BR NCD M03/M04 Q1017=
201004030050 METAR ESMX 030050Z AUTO 00000KT 3800NDV BR NCD M03/M03 Q1017=
201004030020 METAR ESMX 030020Z AUTO 02001KT 5000NDV BR NCD M03/M03 Q1017=
201004022350 METAR ESMX 022350Z AUTO 00000KT 7000NDV BR NCD M03/M03 Q1017=
201004022320 METAR ESMX 022320Z AUTO 00000KT 5000NDV BR NCD M03/M03 Q1017=
201004022250 METAR ESMX 022250Z AUTO VRB02KT 9000NDV NCD M02/M03 Q1017=
201004022220 METAR ESMX 022220Z AUTO 15003KT 9999NDV NCD M01/M03 Q1017=
201004022150 METAR ESMX 022150Z AUTO 16003KT 9999NDV NCD M00/M02 Q1017=
201004022120 METAR ESMX 022120Z AUTO 17004KT 9999NDV NCD 01/M02 Q1017=
201004022050 METAR ESMX 022050Z AUTO 15005KT 9999NDV NCD 02/M01 Q1016=
201004022020 METAR ESMX 022020Z AUTO 15005KT 9999NDV NCD 03/M01 Q1016=
201004021950 METAR ESMX 021950Z AUTO 16005KT 9999NDV NCD 03/M01 Q1016=
201004021920 METAR ESMX 021920Z AUTO 15006KT 9999NDV NCD 04/M01 Q1016=
201004021850 METAR ESMX 021850Z AUTO 16005KT 9999NDV NCD 04/M01 Q1016=
201004021820 METAR ESMX 021820Z 16005KT CAVOK 05/M01 Q1016=
201004021750 METAR ESMX 021750Z 14005KT CAVOK 05/M01 Q1016=
201004021720 METAR ESMX 021720Z 16005KT 120V190 CAVOK 06/M01 Q1015=
201004021650 METAR ESMX 021650Z 17006KT 140V200 CAVOK 07/M01 Q1015=
201004021620 METAR ESMX 021620Z 18009KT 150V210 CAVOK 07/M01 Q1015=
201004021550 METAR ESMX 021550Z 18008KT 9999 FEW038 BKN050 08/M00 Q1015=
201004021520 METAR ESMX 021520Z 18009KT 9999 FEW047 BKN053 07/M00 Q1015=
201004021450 METAR ESMX 021450Z 20011KT 9999 SCT035 07/M01 Q1015=
201004021420 METAR ESMX 021420Z 19011KT 9999 FEW035 SCT049 OVC061 07/M00 Q1016=
201004021350 METAR ESMX 021350Z 19010KT 150V220 9999 FEW036 SCT052 07/M01 Q1016=
201004021320 METAR ESMX 021320Z 21010KT 9999 SCT036 07/M00 Q1015=
201004021250 METAR ESMX 021250Z 20012KT 9999 FEW025CB SCT042 07/M01 Q1015=
201004021220 METAR ESMX 021220Z 20009KT 150V250 9999 VCSH FEW030CB SCT050 07/M02 Q1015=
201004021150 METAR ESMX 021150Z AUTO 19010KT 150V240 9999NDV BKN053/// 07/M01 Q1015=
201004021120 METAR ESMX 021120Z AUTO 20008KT 9999NDV FEW035/// SCT055/// 07/M01 Q1016=
201004021050 METAR ESMX 021050Z 21008KT 160V240 9999 SCT032 07/M01 Q1016=
201004021020 METAR ESMX 021020Z AUTO 19008KT 140V230 9999NDV FEW023/// SCT029/// BKN035/// 06/M01 Q1016=
201004020950 METAR ESMX 020950Z AUTO 18007KT 110V210 9999NDV FEW016/// SCT029/// 06/01 Q1016=
201004020920 METAR ESMX 020920Z AUTO 18009KT 9999NDV FEW014/// OVC024/// 04/01 Q1015=
201004020850 METAR ESMX 020850Z AUTO 18008KT 140V220 9999NDV FEW013/// SCT017/// OVC025/// 04/01 Q1015=
201004020820 METAR ESMX 020820Z AUTO 19008KT 150V230 9999NDV BKN015/// OVC026/// 04/01 Q1015=
201004020750 METAR ESMX 020750Z AUTO 19007KT 140V220 9999NDV FEW013/// OVC028/// 04/00 Q1015=
201004020720 METAR ESMX 020720Z AUTO 19008KT 160V220 9999NDV FEW009/// OVC011/// 03/01 Q1014=
201004020650 METAR ESMX 020650Z AUTO 17008KT 140V200 9999NDV FEW009/// BKN010/// OVC013/// 03/01 Q1014=
201004020620 METAR ESMX 020620Z AUTO 17006KT 140V200 9999NDV BKN011/// OVC023/// 02/00 Q1014=
201004020550 METAR ESMX 020550Z AUTO 15007KT 110V170 9999NDV BR FEW011/// OVC029/// 02/00 Q1013=
201004020520 METAR ESMX 020520Z AUTO 16006KT 140V200 8000NDV BR FEW009/// BKN011/// OVC025/// 02/00 Q1013=
201004020450 METAR ESMX 020450Z 16005KT 9999 FEW025 BKN034 02/00 Q1013=
201004020420 METAR ESMX 020420Z 16007KT 9999 FEW012 BKN026 02/00 Q1012=
201004020350 METAR ESMX 020350Z 17006KT 9999 OVC026 02/00 Q1012=
201004020320 METAR ESMX 020320Z 17005KT 9999 BKN024 OVC032 02/M00 Q1012=
201004020250 METAR ESMX 020250Z 16005KT 9999 OVC021 02/M00 Q1012=
201004020220 METAR ESMX 020220Z 17005KT 140V200 9999 OVC017 02/M00 Q1012=
201004020150 METAR ESMX 020150Z 16005KT 9999 BKN014 OVC020 02/M00 Q1012=
201004020120 METAR ESMX 020120Z 19009KT 9999 OVC010 02/00 Q1011=
201004020050 METAR ESMX 020050Z 16007KT 9999 OVC012 02/M00 Q1011=
201004020020 METAR ESMX 020020Z 16008KT 9999 BKN013 02/M00 Q1011=
201004012350 METAR ESMX 012350Z 15007KT 9999 FEW015 SCT030 01/M00 Q1011=
201004012320 METAR ESMX 012320Z 17008KT 9999 FEW033 01/M01 Q1011=
201004012250 METAR ESMX 012250Z 16007KT 9999 FEW031 01/M01 Q1010=
201004012220 METAR ESMX 012220Z 16008KT CAVOK 02/M00 Q1010=
201004012150 METAR ESMX 012150Z 16007KT CAVOK 02/M01 Q1010=
201004012120 METAR ESMX 012120Z 16008KT 130V190 CAVOK 02/M01 Q1010=
201004012050 METAR ESMX 012050Z 16008KT 140V210 CAVOK 03/M01 Q1009=
201004012020 METAR ESMX 012020Z 17007KT CAVOK 03/M01 Q1009=
201004011950 METAR ESMX 011950Z 17006KT 9999 FEW038 04/M00 Q1009=
201004011920 METAR ESMX 011920Z 19004KT 9999 SCT035 03/00 Q1009=
201004011850 METAR ESMX 011850Z 23006KT 190V260 9999 SCT030 BKN041 04/00 Q1008=
201004011820 METAR ESMX 011820Z 20010KT 9999 BKN030 05/M00 Q1008=
201004011750 METAR ESMX 011750Z 20013KT 9999 SCT030 05/M01 Q1008=
201004011720 METAR ESMX 011720Z 21012KT 9999 FEW035 SCT057 06/M00 Q1007=
201004011650 METAR ESMX 011650Z 21014KT 9999 FEW034 SCT058 07/M00 Q1006=
201004011620 METAR ESMX 011620Z 20015KT 9999 FEW040 BKN060 07/M00 Q1006=
201004011550 METAR ESMX 011550Z 19016KT 9999 FEW040 BKN070 07/M01 Q1006=
201004011520 METAR ESMX 011520Z 18017KT 150V210 9999 FEW040 SCT060 08/M02 Q1005=
201004011420 METAR ESMX 011420Z 18015KT 150V210 9999 FEW038 SCT049 BKN075 08/00 Q1004=
201004011350 METAR ESMX 011350Z 18016KT 9999 FEW032 BKN069 09/01 Q1004=
201004011320 METAR ESMX 011320Z 19011KT 9999 FEW037 SCT066 09/02 Q1003=
201004011250 METAR ESMX 011250Z 17008KT 9999 FEW025 BKN056 09/03 Q1003=
201004011220 METAR ESMX 011220Z 16007KT 100V200 9999 FEW018 BKN026 09/03 Q1003=
