##########################################################
# Query made at 04/19/2024 21:14:36 UTC
# Time interval: from 02/01/2010 12:00  to 02/28/2010 12:59  UTC
##########################################################

##########################################################
# ESMX, Vaxjo (Sweden)
# WMO index: 02641. WIGOS ID: 0-20000-0-02648
# Latitude 56-51N. Longitude 014-50E. Altitude 199 m.
##########################################################

201002281250 METAR ESMX 281250Z AUTO 13005KT 060V180 9999NDV FEW006/// OVC008/// 06/03 Q0992=
201002281220 METAR ESMX 281220Z AUTO 12004KT 080V160 9999NDV BKN005/// BKN043/// 05/03 Q0993=
201002281150 METAR ESMX 281150Z AUTO 14004KT 100V170 9999NDV BR OVC004/// 05/03 Q0993=
201002281120 METAR ESMX 281120Z AUTO 13004KT 080V190 8000NDV BR BKN003/// OVC006/// 04/03 Q0993=
201002281050 METAR ESMX 281050Z AUTO 13004KT 080V170 7000NDV BR FEW003/// SCT009/// OVC030/// 03/03 Q0994=
201002281020 METAR ESMX 281020Z AUTO 13004KT 110V190 7000NDV BR FEW002/// BKN003/// OVC012/// 03/02 Q0994=
201002280950 METAR ESMX 280950Z AUTO 15004KT 110V200 5000NDV BR BKN002/// OVC004/// 03/02 Q0994=
201002280920 METAR ESMX 280920Z AUTO 16004KT 120V190 2500NDV -RA OVC001/// 02/02 Q0994=
201002280850 METAR ESMX 280850Z AUTO 17005KT 1400NDV R01/2000N R19/1000VP2000N -DZ VV002 02/01 Q0994=
201002280820 METAR ESMX 280820Z AUTO 16005KT 120V190 0450NDV R01/0800N R19/0750 FG VV001 02/01 Q0994=
201002280750 METAR ESMX 280750Z AUTO 15005KT 0250NDV R01/0450N R19/0550N FG VV001 02/01 Q0994=
201002280720 METAR ESMX 280720Z AUTO 18005KT 0350NDV R01/0700 R19/0750 FG VV001 02/01 Q0994=
201002280650 METAR ESMX 280650Z AUTO 16004KT 0450NDV R01/0900N R19/0900N FG VV001 02/01 Q0994=
201002280620 METAR ESMX 280620Z AUTO 16005KT 0650NDV R01/1100V1700D R19/1300VP2000D FG VV002 02/01 Q0994=
201002280550 METAR ESMX 280550Z AUTO 16004KT 3800NDV BR OVC002/// 02/01 Q0994=
201002280520 METAR ESMX 280520Z AUTO 17004KT 6000NDV BR FEW003/// SCT004/// BKN006/// 02/01 Q0994=
201002280450 METAR ESMX 280450Z AUTO 21005KT 9000NDV FEW006/// SCT008/// BKN009/// 02/01 Q0994=
201002280420 METAR ESMX 280420Z AUTO 20006KT 9999NDV FEW006/// SCT008/// OVC010/// 02/01 Q0994=
201002280350 METAR ESMX 280350Z AUTO 19008KT 160V230 6000NDV BR FEW006/// SCT009/// OVC013/// 02/01 Q0994=
201002280320 METAR ESMX 280320Z AUTO 20010KT 8000NDV BR BKN005/// OVC008/// 02/01 Q0994=
201002280250 METAR ESMX 280250Z AUTO 19011KT 8000NDV BR OVC003/// 02/01 Q0994=
201002280220 METAR ESMX 280220Z AUTO 20010KT 4800NDV BR OVC002/// 02/01 Q0994=
201002280150 METAR ESMX 280150Z AUTO 18009KT 3100NDV BR FEW002/// SCT004/// OVC005/// 02/01 Q0994=
201002280120 METAR ESMX 280120Z AUTO 19009KT 6000NDV BR BKN005/// OVC008/// 02/01 Q0994=
201002280050 METAR ESMX 280050Z AUTO 18008KT 5000NDV BR OVC003/// 02/01 Q0994=
201002280020 METAR ESMX 280020Z AUTO 18008KT 7000NDV BR OVC005/// 01/01 Q0994=
201002272350 METAR ESMX 272350Z AUTO 19008KT 6000NDV BR OVC004/// 01/00 Q0995=
201002272320 METAR ESMX 272320Z AUTO 19010KT 8000NDV BR OVC006/// 01/00 Q0995=
201002272250 METAR ESMX 272250Z AUTO 20011KT 9999NDV FEW006/// SCT008/// OVC010/// 01/00 Q0995=
201002272220 METAR ESMX 272220Z AUTO 20011KT 9999NDV FEW005/// SCT007/// BKN008/// 01/00 Q0995=
201002272150 METAR ESMX 272150Z AUTO 20011KT 9999NDV BR OVC005/// 01/00 Q0994=
201002272120 METAR ESMX 272120Z AUTO 19011KT 9999NDV OVC005/// 01/00 Q0995=
201002272050 METAR ESMX 272050Z AUTO 18011KT 9999NDV BR OVC005/// 01/00 Q0994=
201002272020 METAR ESMX 272020Z AUTO 19011KT 6000NDV -DZ SCT002/// OVC004/// 01/01 Q0994=
201002271950 METAR ESMX 271950Z AUTO 19011KT 3700NDV BR OVC003/// 01/01 Q0994=
201002271920 METAR ESMX 271920Z AUTO 19012KT 2800NDV BR OVC002/// 01/01 Q0994=
201002271850 METAR ESMX 271850Z AUTO 18011KT 3700NDV BR OVC003/// 01/01 Q0994=
201002271820 METAR ESMX 271820Z AUTO 17009KT 9999NDV BKN004/// OVC007/// 01/01 Q0994=
201002271750 METAR ESMX 271750Z AUTO 18010KT 9999NDV OVC004/// 01/00 Q0994=
201002271720 METAR ESMX 271720Z AUTO 17008KT 9999NDV OVC005/// 01/01 Q0994=
201002271650 METAR ESMX 271650Z AUTO 17009KT 9999NDV -RA OVC005/// 02/01 Q0994=
201002271620 METAR ESMX 271620Z AUTO 17010KT 9999NDV OVC006/// 02/01 Q0994=
201002271550 METAR ESMX 271550Z AUTO 17008KT 9999NDV OVC007/// 02/01 Q0994=
201002271520 METAR ESMX 271520Z AUTO 17009KT 9999NDV OVC007/// 02/01 Q0994=
201002271450 METAR ESMX 271450Z AUTO 18008KT 150V210 8000NDV BR OVC006/// 02/01 Q0994=
201002271420 METAR ESMX 271420Z 17008KT 8000 BR OVC008 03/01 Q0994=
201002271350 METAR ESMX 271350Z 18008KT 9000 BR FEW008 OVC010 03/01 Q0994=
201002271320 METAR ESMX 271320Z 17007KT 130V190 9999 BR SCT009 BKN013 03/01 Q0994=
201002271250 METAR ESMX 271250Z 19010KT 8000 BR FEW007 SCT008 BKN012 03/01 Q0994=
201002271220 METAR ESMX 271220Z 17006KT 140V200 6000 BR FEW006 OVC008 03/02 Q0994=
201002271150 METAR ESMX 271150Z 17006KT 130V190 5000 BR BKN004 OVC008 03/02 Q0994=
201002271120 METAR ESMX 271120Z 19009KT 4000 BR OVC004 02/01 Q0995=
201002271050 METAR ESMX 271050Z 19009KT 4000 BR BKN003 OVC005 02/01 Q0995=
201002271020 METAR ESMX 271020Z 18006KT 2200 BR OVC002 02/01 Q0994=
201002270950 METAR ESMX 270950Z 18006KT 1800 BR OVC002 02/01 Q0994=
201002270920 METAR ESMX 270920Z 18006KT 1300 R01/1400D R19/1700N BR OVC002 01/01 Q0994=
201002270850 METAR ESMX 270850Z 17004KT 1900 BR OVC002 01/01 Q0994=
201002270820 METAR ESMX 270820Z 18005KT 1500 SNRA BKN001 OVC003 01/00 Q0994=
201002270750 METAR ESMX 270750Z 18004KT 1200 R01/1200VP2000U R19/1100V1800N +SN VV003 01/00 Q0994=
201002270720 METAR ESMX 270720Z 18005KT 1000 R01/1600N R19/1600N -SN OVC002 01/00 Q0994=
201002270650 METAR ESMX 270650Z 18004KT 150V210 1000 R01/1700N R19/1900N -RA OVC002 01/00 Q0993=
201002270620 METAR ESMX 270620Z AUTO 17002KT 1000NDV R01/P2000N R19/P2000N -DZ VV002 01/00 Q0993=
201002270550 METAR ESMX 270550Z AUTO 19003KT 0250NDV R01/P2000D R19/0800V1300D -RA VV001 01/00 Q0993=
201002270520 METAR ESMX 270520Z AUTO VRB01KT 0250NDV R01/1100V1800D R19/0900N FG VV000 01/00 Q0993=
201002270450 METAR ESMX 270450Z AUTO VRB01KT 0200NDV R01/0800N R19/1000N FG VV000 01/00 Q0993=
201002270420 METAR ESMX 270420Z AUTO VRB02KT 0200NDV R01/0800 R19/1000N FG VV001 01/00 Q0992=
201002270350 METAR ESMX 270350Z AUTO 11003KT 060V150 0250NDV R01/0900N R19/1600N FG VV001 01/00 Q0992=
201002270320 METAR ESMX 270320Z AUTO 11003KT 040V170 0600NDV R01/1800N R19/P2000N FG OVC001/// 01/00 Q0992=
201002270250 METAR ESMX 270250Z AUTO VRB02KT 1000NDV R01/P2000N R19/P2000N BR OVC001/// 01/00 Q0992=
201002270220 METAR ESMX 270220Z AUTO VRB02KT 1100NDV R01/P2000N R19/P2000N BR OVC001/// 01/00 Q0992=
201002270150 METAR ESMX 270150Z AUTO 10003KT 050V150 1100NDV R01/P2000N R19/P2000N BR OVC001/// 01/00 Q0992=
201002270120 METAR ESMX 270120Z AUTO 08003KT 040V140 1100NDV R01/P2000N R19/P2000N BR OVC002/// 01/01 Q0992=
201002270050 METAR ESMX 270050Z AUTO VRB02KT 1200NDV R01/P2000N R19/P2000N BR OVC002/// 01/01 Q0992=
201002270020 METAR ESMX 270020Z AUTO VRB02KT 1300NDV R01/P2000N R19/P2000N OVC002/// 01/01 Q0992=
201002262350 METAR ESMX 262350Z AUTO 09003KT 030V140 1200NDV R01/P2000N R19/P2000N OVC002/// 01/01 Q0992=
201002262320 METAR ESMX 262320Z AUTO 09003KT 040V160 1000NDV R01/P2000N R19/P2000N FG OVC002/// 01/01 Q0992=
201002262250 METAR ESMX 262250Z AUTO 10003KT 070V160 1000NDV R01/P2000N R19/P2000N BR OVC002/// 02/01 Q0993=
201002262220 METAR ESMX 262220Z AUTO 11003KT 050V160 1100NDV R01/P2000N R19/P2000N BR OVC002/// 02/01 Q0993=
201002262150 METAR ESMX 262150Z AUTO 13003KT 060V180 1300NDV R01/P2000N R19/P2000N BR OVC003/// 02/01 Q0993=
201002262120 METAR ESMX 262120Z AUTO VRB01KT 1800NDV BR OVC004/// 02/01 Q0992=
201002262050 METAR ESMX 262050Z VRB02KT 1900 BR OVC004 02/01 Q0992=
201002262020 METAR ESMX 262020Z VRB02KT 1900 BR BKN005 BKN100 01/01 Q0992=
201002261950 METAR ESMX 261950Z VRB02KT 2400 BR SCT006 BKN100 02/01 Q0992=
201002261920 METAR ESMX 261920Z VRB02KT 3000 BR FEW004 SCT006 BKN100 02/01 Q0992=
201002261850 METAR ESMX 261850Z 09004KT 050V140 4000 BR SCT005 BKN100 02/01 Q0992=
201002261820 METAR ESMX 261820Z 13004KT 080V160 3800 BR OVC004 02/01 Q0993=
201002261750 METAR ESMX 261750Z 11004KT 070V150 5000 BR BKN005 OVC100 03/01 Q0993=
201002261720 METAR ESMX 261720Z 10004KT 060V160 9999 FEW005 BKN100 03/02 Q0992=
201002261650 METAR ESMX 261650Z 09005KT 060V120 CAVOK 03/02 Q0992=
201002261620 METAR ESMX 261620Z 08003KT 040V130 CAVOK 04/02 Q0992=
201002261550 METAR ESMX 261550Z 07005KT 030V110 CAVOK 04/02 Q0992=
201002261520 METAR ESMX 261520Z 10004KT 060V140 CAVOK 05/03 Q0992=
201002261450 METAR ESMX 261450Z 12004KT 080V160 CAVOK 06/03 Q0992=
201002261420 METAR ESMX 261420Z 10005KT 070V140 CAVOK 06/03 Q0992=
201002261350 METAR ESMX 261350Z 11005KT 070V160 CAVOK 06/03 Q0992=
201002261320 METAR ESMX 261320Z 13005KT 080V170 CAVOK 06/03 Q0992=
201002261220 METAR ESMX 261220Z 14005KT 090V180 7000 BR NSC 06/03 Q0993=
201002261150 METAR ESMX 261150Z 14004KT 100V200 6000 BR NSC 06/03 Q0993=
201002261120 METAR ESMX 261120Z 11004KT 040V140 7000 BR NSC 05/03 Q0993=
201002261050 METAR ESMX 261050Z 11004KT 360V170 4000 BR FEW005 BKN065 04/03 Q0993=
201002261020 METAR ESMX 261020Z 12004KT 030V160 3500 BR FEW004 SCT006 BKN066 03/03 Q0993=
201002260950 METAR ESMX 260950Z 12004KT 070V160 2600 BR BKN003 03/02 Q0994=
201002260920 METAR ESMX 260920Z 10003KT 060V140 1800 BR OVC002 02/02 Q0994=
201002260820 METAR ESMX 260820Z 13004KT 080V170 0750 R19/1500N FG OVC001 02/01 Q0994=
201002260750 METAR ESMX 260750Z 13003KT 080V170 0800 R19/1500N FG VV002 01/01 Q0994=
201002260720 METAR ESMX 260720Z 11003KT 050V170 0550 R01/1000N R19/1200N FG VV002 01/01 Q0994=
201002260650 METAR ESMX 260650Z 13004KT 070V170 0400 R01/0800N R19/1200N FG VV002 01/01 Q0994=
201002260620 METAR ESMX 260620Z 14004KT 090V220 0800 R19/P2000D FG VV002 01/01 Q0994=
201002260550 METAR ESMX 260550Z 14005KT 100V190 1500 DZ OVC002 01/01 Q0994=
201002260520 METAR ESMX 260520Z 13005KT 070V170 1500 DZ OVC002 01/01 Q0994=
201002260450 METAR ESMX 260450Z 13005KT 080V160 1000 FG VV002 01/01 Q0994=
201002260420 METAR ESMX 260420Z AUTO 14004KT 100V170 0350NDV R01/1200N R19/1800U -DZ VV001 01/01 Q0994=
201002260350 METAR ESMX 260350Z AUTO 15004KT 100V190 0350NDV R01/1200N R19/1700N FG VV001 01/01 Q0995=
201002260320 METAR ESMX 260320Z AUTO 13005KT 060V190 0450NDV R01/1400N R19/1900N FG VV001 01/01 Q0995=
201002260250 METAR ESMX 260250Z AUTO 13005KT 100V190 0400NDV R01/1300N R19/1800N FG VV001 01/01 Q0995=
201002260220 METAR ESMX 260220Z AUTO 13005KT 080V170 0400NDV R01/1300N R19/1900N FG VV001 01/01 Q0995=
201002260150 METAR ESMX 260150Z AUTO 12004KT 070V170 0500NDV R01/1600N R19/P2000N FG VV001 01/01 Q0995=
201002260120 METAR ESMX 260120Z AUTO 13005KT 080V170 0500NDV R01/1500N R19/P2000N FG VV001 01/01 Q0996=
201002260050 METAR ESMX 260050Z 13006KT 090V170 0800 FG VV002 01/01 Q0996=
201002260020 METAR ESMX 260020Z 13005KT 080V170 0800 R01/1600N R19/P2000N FG VV002 01/00 Q0996=
201002252350 METAR ESMX 252350Z 13006KT 070V170 1000 FG VV002 01/00 Q0996=
201002252320 METAR ESMX 252320Z 13005KT 080V190 0900 FG VV002 01/00 Q0997=
201002252250 METAR ESMX 252250Z 13005KT 080V180 1000 FG VV002 01/00 Q0997=
201002252220 METAR ESMX 252220Z 12005KT 080V170 1000 FG VV002 00/00 Q0997=
201002252150 METAR ESMX 252150Z 12006KT 080V170 1500 BR OVC002 00/00 Q0997=
201002252120 METAR ESMX 252120Z 13006KT 080V170 2000 BR OVC002 00/M00 Q0998=
201002252050 METAR ESMX 252050Z 14006KT 070V170 1500 FG VV002 00/M00 Q0998=
201002252020 METAR ESMX 252020Z 12006KT 020V170 0600 R01/1800D R19/P2000N FG VV002 00/M00 Q0998=
201002251950 METAR ESMX 251950Z 13006KT 080V200 0800 BR VV002 00/M00 Q0998=
201002251920 METAR ESMX 251920Z 12006KT 070V170 1100 BR OVC002 M00/M00 Q0998=
201002251850 METAR ESMX 251850Z 11006KT 060V160 3000 BR OVC002 M00/M01 Q0998=
201002251820 METAR ESMX 251820Z 12007KT 080V170 3100 BR OVC002 M00/M01 Q0998=
201002251750 METAR ESMX 251750Z 12007KT 070V170 2600 BR OVC001 M00/M01 Q0999=
201002251720 METAR ESMX 251720Z 13008KT 080V170 2500 BR OVC002 M00/M01 Q0999=
201002251650 METAR ESMX 251650Z 13006KT 080V180 2300 BR OVC002 M00/M01 Q0999=
201002251620 METAR ESMX 251620Z 12006KT 070V170 5000 BR OVC003 M00/M01 Q0999=
201002251550 METAR ESMX 251550Z 12007KT 070V190 4900 BR OVC002 M00/M01 Q0999=
201002251520 METAR ESMX 251520Z 11006KT 070V170 4300 -FZRA BR OVC002 M00/M01 Q0999=
201002251450 METAR ESMX 251450Z 12007KT 080V170 4500 -RASN BR OVC002 M00/M01 Q1000=
201002251420 METAR ESMX 251420Z 11008KT 070V150 4400 -RASN BR OVC002 M00/M01 Q1000=
201002251350 METAR ESMX 251350Z 12007KT 050V170 5000 -SNRA BR OVC003 M00/M01 Q1000=
201002251320 METAR ESMX 251320Z 12007KT 070V170 6000 BR OVC002 M00/M01 Q1001=
201002251250 METAR ESMX 251250Z 13008KT 080V170 4400 BR OVC002 M00/M01 Q1001=
201002251220 METAR ESMX 251220Z 10007KT 050V140 3600 -SN OVC002 M00/M01 Q1001=
201002251150 METAR ESMX 251150Z 12007KT 070V170 3200 -SN OVC002 M01/M01 Q1001=
201002251120 METAR ESMX 251120Z 12006KT 070V180 2000 -SN BR OVC001 M01/M01 Q1002=
201002251020 METAR ESMX 251020Z VRB06KT 1200 R01/1100VP2000N R19/1700D BR OVC002 M01/M02 Q1002=
201002250950 METAR ESMX 250950Z 12006G17KT 040V170 4000 BR OVC002 M01/M02 Q1003=
201002250920 METAR ESMX 250920Z 12006KT 070V160 8000 BR OVC003 M02/M03 Q1003=
201002250850 METAR ESMX 250850Z 11006KT 070V170 9999 OVC005 M02/M03 Q1003=
201002250820 METAR ESMX 250820Z 11006KT 040V150 9999 OVC007 M02/M03 Q1003=
201002250750 METAR ESMX 250750Z 11006KT 070V170 8000 SG OVC007 M02/M03 Q1003=
201002250720 METAR ESMX 250720Z 11007KT 070V170 9999 SG OVC007 M02/M04 Q1003=
201002250650 METAR ESMX 250650Z 10006KT 040V150 9999 OVC008 M02/M04 Q1003=
201002250620 METAR ESMX 250620Z 11006KT 070V150 9999 OVC009 M03/M04 Q1003=
201002250550 METAR ESMX 250550Z 10005KT 040V150 9999 BKN009 OVC024 M03/M04 Q1003=
201002250520 METAR ESMX 250520Z 09006KT 050V150 9999 FEW009 SCT011 OVC027 M03/M04 Q1004=
201002250450 METAR ESMX 250450Z 10006KT 040V160 8000 SG FEW009 SCT012 OVC028 M03/M04 Q1004=
201002250420 METAR ESMX 250420Z AUTO 10006KT 050V140 4000NDV -SN FEW007/// SCT010/// BKN018/// M03/M04 Q1004=
201002250350 METAR ESMX 250350Z AUTO 09006KT 050V140 5000NDV -SN BKN008/// OVC033/// M03/M04 Q1004=
201002250320 METAR ESMX 250320Z AUTO 10006KT 020V140 9999NDV -SN OVC008/// M03/M04 Q1005=
201002250250 METAR ESMX 250250Z AUTO 09005KT 040V130 9999NDV OVC008/// M03/M04 Q1005=
201002250220 METAR ESMX 250220Z AUTO 09005KT 030V170 9999NDV OVC008/// M03/M04 Q1005=
201002250150 METAR ESMX 250150Z AUTO 09004KT 030V170 9999NDV OVC008/// M03/M05 Q1006=
201002250120 METAR ESMX 250120Z AUTO 09005KT 050V140 9999NDV OVC008/// M03/M05 Q1006=
201002250050 METAR ESMX 250050Z AUTO VRB04KT 9999NDV OVC008/// M04/M05 Q1006=
201002250020 METAR ESMX 250020Z 11006KT 070V150 9999 OVC008 M04/M05 Q1006=
201002242350 METAR ESMX 242350Z 10005KT 060V160 9999 OVC008 M04/M05 Q1006=
201002242320 METAR ESMX 242320Z 11005KT 060V160 9999 OVC008 M04/M05 Q1007=
201002242250 METAR ESMX 242250Z 09004KT 040V140 9999 SCT008 M06/M06 Q1007=
201002242220 METAR ESMX 242220Z VRB02KT 9999 BKN009 M07/M08 Q1007=
201002242150 METAR ESMX 242150Z 10003KT 050V150 9999 SCT006 M07/M08 Q1007=
201002242120 METAR ESMX 242120Z 07004KT 030V110 CAVOK M07/M08 Q1007=
201002242050 METAR ESMX 242050Z 07003KT 040V100 CAVOK M06/M08 Q1007=
201002242020 METAR ESMX 242020Z 06003KT 020V100 CAVOK M06/M08 Q1007=
201002241950 METAR ESMX 241950Z 05003KT 020V100 CAVOK M06/M08 Q1007=
201002241920 METAR ESMX 241920Z 06004KT 030V100 CAVOK M06/M07 Q1007=
201002241850 METAR ESMX 241850Z 07004KT CAVOK M06/M08 Q1008=
201002241820 METAR ESMX 241820Z 07005KT CAVOK M05/M07 Q1008=
201002241750 METAR ESMX 241750Z 07003KT 030V110 CAVOK M05/M07 Q1008=
201002241720 METAR ESMX 241720Z 07003KT 040V110 CAVOK M05/M06 Q1008=
201002241650 METAR ESMX 241650Z 07002KT CAVOK M05/M07 Q1008=
201002241620 METAR ESMX 241620Z VRB01KT CAVOK M05/M06 Q1008=
201002241550 METAR ESMX 241550Z 06002KT CAVOK M05/M07 Q1008=
201002241520 METAR ESMX 241520Z VRB02KT CAVOK M05/M07 Q1008=
201002241450 METAR ESMX 241450Z 36003KT CAVOK M05/M07 Q1008=
201002241420 METAR ESMX 241420Z 01002KT CAVOK M05/M07 Q1007=
201002241350 METAR ESMX 241350Z 36003KT CAVOK M05/M08 Q1008=
201002241320 METAR ESMX 241320Z 35002KT CAVOK M05/M07 Q1008=
201002241250 METAR ESMX 241250Z 00000KT CAVOK M03/M05 Q1008=
201002241220 METAR ESMX 241220Z VRB02KT CAVOK M05/M07 Q1008=
201002241150 METAR ESMX 241150Z 21003KT CAVOK M06/M07 Q1008=
201002241120 METAR ESMX 241120Z VRB01KT CAVOK M06/M07 Q1007=
201002241050 METAR ESMX 241050Z VRB02KT 9999 FEW004 M06/M07 Q1007=
201002241020 METAR ESMX 241020Z 05003KT 030V100 9999 SCT003 M06/M08 Q1007=
201002240950 METAR ESMX 240950Z VRB02KT 9999 BKN002 M07/M08 Q1007=
201002240920 METAR ESMX 240920Z 36001KT 6000 BR BKN002 M07/M08 Q1007=
201002240850 METAR ESMX 240850Z VRB02KT 8000 BR BKN002 M08/M09 Q1007=
201002240820 METAR ESMX 240820Z VRB01KT 6000 BR BKN002 M08/M09 Q1007=
201002240750 METAR ESMX 240750Z VRB01KT 7000 BR BKN002 M08/M08 Q1007=
201002240720 METAR ESMX 240720Z 03003KT 360V070 7000 BR BKN002 M08/M09 Q1006=
201002240650 METAR ESMX 240650Z 30003KT 7000 BR BKN002 M08/M09 Q1006=
201002240620 METAR ESMX 240620Z VRB02KT 4200 -SN BKN002 M08/M09 Q1006=
201002240550 METAR ESMX 240550Z 35003KT 4300 BR OVC002 M07/M08 Q1006=
201002240520 METAR ESMX 240520Z 34004KT 6000 BR OVC003 M07/M08 Q1006=
201002240450 METAR ESMX 240450Z 29004KT 260V340 5000 BR OVC003 M07/M08 Q1006=
201002240420 METAR ESMX 240420Z AUTO 22003KT 200V260 4200NDV BR OVC002/// M07/M08 Q1005=
201002240350 METAR ESMX 240350Z AUTO 24003KT 5000NDV BR OVC001/// M07/M08 Q1005=
201002240320 METAR ESMX 240320Z AUTO 24003KT 210V270 2600NDV BR OVC001/// M07/M08 Q1005=
201002240250 METAR ESMX 240250Z AUTO 21005KT 2100NDV BR OVC001/// M07/M08 Q1004=
201002240220 METAR ESMX 240220Z AUTO 21004KT 6000NDV BR OVC001/// M07/M08 Q1004=
201002240150 METAR ESMX 240150Z AUTO 24005KT 3900NDV BR OVC001/// M07/M08 Q1004=
201002240120 METAR ESMX 240120Z AUTO 22005KT 7000NDV BR OVC002/// M07/M07 Q1003=
201002240050 METAR ESMX 240050Z 24005KT 9000 OVC002 M06/M07 Q1003=
201002240020 METAR ESMX 240020Z 23004KT 200V260 9999 OVC004 M06/M07 Q1003=
201002232350 METAR ESMX 232350Z 22003KT 9999 OVC006 M06/M07 Q1003=
201002232320 METAR ESMX 232320Z VRB02KT 9999 OVC007 M06/M07 Q1002=
201002232250 METAR ESMX 232250Z 19003KT 9999 OVC009 M06/M07 Q1002=
201002232220 METAR ESMX 232220Z 22002KT 9999 OVC010 M07/M08 Q1002=
201002232150 METAR ESMX 232150Z 24004KT 9999 OVC009 M07/M08 Q1001=
201002232120 METAR ESMX 232120Z 19003KT 160V250 9999 OVC009 M07/M08 Q1001=
201002232050 METAR ESMX 232050Z VRB01KT 9999 OVC009 M08/M09 Q1000=
201002232020 METAR ESMX 232020Z 20002KT 9999 OVC009 M09/M10 Q1000=
201002231950 METAR COR ESMX 231950Z 20002KT 9999 BKN010 M09/M10 Q1000=
201002231920 METAR ESMX 231920Z 23001KT 9999 R01/P2000 R19/P2000 BCFG FEW004 M11/M12 Q0999=
201002231850 METAR ESMX 231850Z VRB02KT 9999 OVC005 M07/M08 Q0999=
201002231820 METAR ESMX 231820Z 34005KT 9999 BKN006 M06/M07 Q0999=
201002231750 METAR ESMX 231750Z 31003KT 280V340 9999 BKN006 M06/M07 Q0998=
201002231720 METAR ESMX 231720Z 33004KT 290V360 9999 BKN007 M06/M07 Q0997=
201002231650 METAR ESMX 231650Z 31006KT 9999 BKN009 M05/M07 Q0997=
201002231620 METAR ESMX 231620Z 30006KT 9999 BKN010 BKN013 M05/M06 Q0996=
201002231550 METAR ESMX 231550Z 31005KT 280V340 9999 BKN011 BKN034 M04/M06 Q0996=
201002231520 METAR ESMX 231520Z 33006KT 9999 FEW011 BKN031 M04/M07 Q0995=
201002231450 METAR ESMX 231450Z 33008KT 9999 FEW013 BKN015 M04/M06 Q0994=
201002231420 METAR ESMX 231420Z 32008KT 9999 FEW012 BKN016 M04/M06 Q0994=
201002231350 METAR ESMX 231350Z 32010KT 9999 FEW009 OVC012 M04/M05 Q0993=
201002231320 METAR ESMX 231320Z 34010KT 9999 BKN011 M03/M06 Q0993=
201002231250 METAR ESMX 231250Z 35008KT 9999 BKN011 M03/M05 Q0992=
201002231220 METAR ESMX 231220Z 35007KT 9999 FEW011 SCT020 M03/M05 Q0991=
201002231150 METAR ESMX 231150Z 35008KT 7000 -SN FEW010 SCT013 M03/M04 Q0990=
201002231120 METAR ESMX 231120Z 35009KT 5000 -SN FEW009 SCT013 M03/M05 Q0990=
201002231050 METAR ESMX 231050Z 35008KT 7000 -SN FEW010 SCT013 BKN020 M04/M05 Q0989=
201002231020 METAR ESMX 231020Z 34009KT 3000 -SN FEW005 SCT010 BKN013 M04/M04 Q0989=
201002230950 METAR ESMX 230950Z 35009KT 9999 -SN FEW010 BKN013 OVC022 M03/M04 Q0988=
201002230920 METAR ESMX 230920Z 34007KT 9000 -SN FEW008 SCT011 BKN026 M03/M04 Q0987=
201002230850 METAR ESMX 230850Z 36007KT 5000 -SN FEW005 BKN012 M04/M04 Q0987=
201002230820 METAR ESMX 230820Z 35007KT 300V020 3000 -SN BKN005 OVC008 M04/M04 Q0987=
201002230750 METAR ESMX 230750Z 35008KT 3000 -SN BKN006 OVC010 M03/M04 Q0986=
201002230720 METAR ESMX 230720Z 34007KT 1300 -SN SCT006 BKN010 OVC013 M03/M04 Q0986=
201002230650 METAR ESMX 230650Z 34006KT 2100 -SN FEW007 BKN008 OVC010 M03/M03 Q0986=
201002230620 METAR ESMX 230620Z 33005KT 3400 -SN FEW005 BKN007 OVC022 M03/M03 Q0985=
201002230550 METAR ESMX 230550Z 01005KT 3100 -SN FEW005 BKN022 M03/M03 Q0985=
201002230520 METAR ESMX 230520Z 03005KT 2500 -SN SCT006 M03/M03 Q0985=
201002230450 METAR COR ESMX 230450Z 03005KT 2300NDV -SN BKN006 M03/M03 Q0986=
201002230420 METAR ESMX 230420Z AUTO 04005KT 1800NDV -SN BKN006/// M03/M03 Q0986=
201002230350 METAR ESMX 230350Z AUTO 04005KT 2100NDV -SN FEW006/// M03/M03 Q0986=
201002230320 METAR ESMX 230320Z AUTO 03005KT 3700NDV -SN FEW009/// M03/M03 Q0986=
201002230250 METAR ESMX 230250Z AUTO 04006KT 2500NDV -SN FEW006/// BKN019/// M03/M04 Q0986=
201002230220 METAR ESMX 230220Z AUTO 03005KT 4500NDV -SN OVC018/// M03/M04 Q0987=
201002230150 METAR ESMX 230150Z AUTO 03005KT 4200NDV -SN BKN002/// OVC018/// M03/M04 Q0987=
201002230120 METAR ESMX 230120Z AUTO 04006KT 2400NDV -SN OVC001/// M04/M04 Q0987=
201002230050 METAR ESMX 230050Z 04005KT 2600 -SN OVC002 M04/M04 Q0988=
201002230020 METAR ESMX 230020Z 03004KT 1900 -SN OVC002 M04/M05 Q0988=
201002222350 METAR ESMX 222350Z 04005KT 3000 SG OVC001 M04/M05 Q0988=
201002222320 METAR ESMX 222320Z 04004KT 1800 -SN OVC001 M04/M05 Q0989=
201002222250 METAR ESMX 222250Z 04004KT 1200 R01/P2000N R19/P2000N BR OVC002 M04/M05 Q0989=
201002222220 METAR ESMX 222220Z 03004KT 2000 BR OVC001 M05/M05 Q0989=
201002222150 METAR ESMX 222150Z 03004KT 1200 R01/P2000N R19/P2000N BR OVC001 M05/M06 Q0990=
201002222120 METAR ESMX 222120Z 02004KT 1500 BR OVC001 M05/M06 Q0990=
201002222050 METAR ESMX 222050Z 02005KT 1700 BR OVC002 M05/M06 Q0991=
201002222020 METAR ESMX 222020Z 04005KT 2400 BR OVC002 M05/M06 Q0991=
201002221920 METAR ESMX 221920Z 04007KT 5000 BR OVC003 M05/M06 Q0991=
201002221850 METAR ESMX 221850Z 06005KT 020V080 4100 -SN OVC003 M06/M06 Q0992=
201002221820 METAR ESMX 221820Z 04005KT 020V080 6000 -SN BR BKN004 M06/M07 Q0992=
201002221750 METAR ESMX 221750Z 04005KT 9999 IC BKN006 M06/M07 Q0992=
201002221720 METAR ESMX 221720Z 04004KT 360V070 9999 IC OVC007 M06/M07 Q0992=
201002221650 METAR ESMX 221650Z 06004KT 020V090 8000 IC OVC009 M06/M07 Q0993=
201002221620 METAR ESMX 221620Z 04005KT 020V080 8000 IC OVC010 M06/M07 Q0993=
201002221550 METAR ESMX 221550Z 02005KT 350V070 9999 IC OVC010 M06/M07 Q0993 RESG=
201002221520 METAR ESMX 221520Z 02005KT 350V060 6000 SG OVC010 M06/M07 Q0993=
201002221450 METAR ESMX 221450Z 05004KT 020V100 6000 -SN OVC009 M06/M07 Q0994=
201002221420 METAR ESMX 221420Z 07004KT 030V120 3300 -SN FEW006 OVC015 M06/M07 Q0994=
201002221350 METAR ESMX 221350Z 07005KT 040V140 2000 -SN FEW005 SCT014 BKN018 M07/M08 Q0994=
201002221320 METAR ESMX 221320Z 07006KT 030V130 2500 SN FEW005 SCT019 M07/M08 Q0994=
201002221250 METAR ESMX 221250Z 06006KT 020V110 1500 R01/1200U R19/1200N SN SCT005 BKN027 M06/M07 Q0995=
201002221220 METAR ESMX 221220Z 08005KT 020V130 1200 R01/1000V1800D R19/1000VP2000D SN FEW007 BKN010 M06/M07 Q0995=
201002221150 METAR ESMX 221150Z 05006KT 010V100 2000 R01/1300V2000N R19/0150VP2000D -SN FEW006 OVC008 M06/M08 Q0995=
201002221120 METAR ESMX 221120Z 07004KT 020V110 4200 -SN OVC006 M07/M08 Q0996=
201002221050 METAR ESMX 221050Z 07003KT 040V120 9999 OVC006 M08/M09 Q0997=
201002221020 METAR ESMX 221020Z VRB02KT 9999 OVC005 M10/M11 Q0997=
201002220950 METAR ESMX 220950Z VRB02KT 8000 BR OVC003 M13/M14 Q0997=
201002220920 METAR ESMX 220920Z 36003KT 5000 -SN OVC003 M15/M16 Q0998=
201002220850 METAR ESMX 220850Z 36002KT 5000 -SN OVC002 M16/M18 Q0998=
201002220820 METAR ESMX 220820Z 36002KT 3000 -SN OVC002 M18/M20 Q0998=
201002220750 METAR ESMX 220750Z 36002KT 3000 -SN OVC002 M19/M22 Q0998=
201002220720 METAR ESMX 220720Z 36002KT 4000 -SN OVC002 M21/M23 Q0999=
201002220650 METAR ESMX 220650Z 01001KT 8000 -SN BKN002 M22/M24 Q0999=
201002220620 METAR ESMX 220620Z AUTO 01002KT 9999NDV NCD M23/M25 Q0999=
201002220550 METAR ESMX 220550Z 36002KT CAVOK M23/M26 Q0999=
201002220520 METAR ESMX 220520Z 01001KT CAVOK M23/M26 Q0999=
201002220450 METAR ESMX 220450Z 01002KT CAVOK M24/M26 Q0999=
201002220420 METAR ESMX 220420Z VRB01KT CAVOK M22/M24 Q0999=
201002220350 METAR ESMX 220350Z AUTO 00000KT 9999NDV OVC001/// M21/M23 Q0999=
201002220320 METAR ESMX 220320Z AUTO 00000KT 4400NDV -SN OVC001/// M21/M23 Q0999=
201002220250 METAR ESMX 220250Z AUTO 01003KT 6000NDV -SN OVC001/// M22/M25 Q0999=
201002220220 METAR ESMX 220220Z AUTO 01001KT 1800NDV -SN FEW002/// OVC008/// M22/M24 Q1000=
201002220150 METAR ESMX 220150Z AUTO VRB01KT 5000NDV FEW008/// M22/M24 Q1000=
201002220120 METAR ESMX 220120Z 01001KT CAVOK M22/M24 Q1000=
201002220050 METAR ESMX 220050Z 00000KT 9999 SCT007 M21/M24 Q1000=
201002220020 METAR ESMX 220020Z 17001KT 9999 FEW008 M21/M24 Q1000=
201002212350 METAR ESMX 212350Z 00000KT CAVOK M21/M23 Q1000=
201002212320 METAR ESMX 212320Z 11001KT CAVOK M20/M21 Q1000=
201002212250 METAR ESMX 212250Z 00000KT CAVOK M19/M21 Q0999=
201002212220 METAR ESMX 212220Z 18001KT CAVOK M19/M21 Q1000=
201002212150 METAR ESMX 212150Z VRB01KT CAVOK M19/M21 Q0999=
201002212120 METAR ESMX 212120Z 19001KT CAVOK M18/M19 Q0999=
201002212050 METAR ESMX 212050Z 00000KT CAVOK M17/M18 Q0999=
201002212020 METAR ESMX 212020Z 27001KT CAVOK M16/M17 Q0999=
201002211950 METAR ESMX 211950Z 00000KT 9999 -SN FEW004 SCT009 M15/M16 Q0999=
201002211920 METAR ESMX 211920Z 32002KT 2600 -SN OVC009 M13/M14 Q0998=
201002211850 METAR ESMX 211850Z VRB01KT 6000 -SN OVC011 M13/M14 Q0998=
201002211820 METAR ESMX 211820Z 31004KT 6000 -SN OVC012 M12/M14 Q0998=
201002211750 METAR ESMX 211750Z 31005KT 5000 -SN FEW008 BKN011 BKN032 M11/M13 Q0997=
201002211720 METAR ESMX 211720Z 31005KT 5000 -SN OVC011 M10/M12 Q0997=
201002211650 METAR ESMX 211650Z 30005KT 5000 -SN OVC011 M10/M12 Q0997=
201002211550 METAR ESMX 211550Z 32003KT 260V350 3100 -SN FEW012 SCT021 OVC028 M10/M11 Q0996=
201002211520 METAR ESMX 211520Z 01004KT 8000 -SN OVC021 M09/M11 Q0995=
201002211450 METAR ESMX 211450Z 34006KT 6000 -SN FEW009 OVC020 M10/M12 Q0995=
201002211420 METAR ESMX 211420Z 33006KT 290V010 4700 -SN FEW007 OVC017 M09/M11 Q0995=
201002211350 METAR ESMX 211350Z 33006KT 6000 -SN SCT008 OVC017 M09/M11 Q0994=
201002211320 METAR ESMX 211320Z 32006KT 6000 -SN SCT007 BKN018 M09/M11 Q0994=
201002211250 METAR ESMX 211250Z AUTO 35006KT 4200NDV -SN FEW006/// BKN008/// OVC017/// M09/M11 Q0993=
201002211220 METAR ESMX 211220Z AUTO 34006KT 0900NDV R01/P2000 R19/P2000N -SN FEW008/// SCT009/// OVC015/// M09/M11 Q0993=
201002211150 METAR ESMX 211150Z AUTO 34006KT 9999NDV SG OVC014/// M09/M11 Q0993=
201002211120 METAR ESMX 211120Z AUTO 36007KT 9999NDV OVC014/// M09/M11 Q0992=
201002211050 METAR ESMX 211050Z AUTO 36009KT 9999NDV -SN OVC014/// M09/M11 Q0992=
201002211020 METAR ESMX 211020Z AUTO 36009KT 9999NDV -SN OVC014/// M09/M11 Q0992=
201002210950 METAR ESMX 210950Z AUTO 03008KT 9999NDV OVC014/// M09/M11 Q0991=
201002210920 METAR ESMX 210920Z AUTO 02008KT 9999NDV OVC014/// M09/M11 Q0991=
201002210850 METAR ESMX 210850Z AUTO 01008KT 9999NDV OVC015/// M09/M11 Q0991=
201002210820 METAR ESMX 210820Z AUTO 36009KT 9000NDV IC OVC016/// M09/M11 Q0990 RESG=
201002210750 METAR ESMX 210750Z AUTO 03007KT 4500NDV IC FEW007/// OVC018/// M09/M10 Q0990=
201002210720 METAR ESMX 210720Z AUTO 02007KT 1300NDV R01/1700N R19/1700N -SN FEW002/// BKN006/// M09/M10 Q0990=
201002210650 METAR ESMX 210650Z AUTO 02007KT 1200NDV R01/P2000D R19/P2000D -SN VV006 M09/M10 Q0989=
201002210620 METAR ESMX 210620Z AUTO 03006KT 1300NDV R01/P2000N R19/P2000N -SN SCT005/// BKN008/// M09/M10 Q0989=
201002210550 METAR ESMX 210550Z AUTO 03007KT 2100NDV -SN FEW009/// BKN016/// M09/M10 Q0989=
201002210520 METAR ESMX 210520Z AUTO 02007KT 350V060 2900NDV -SN FEW006/// BKN015/// M09/M10 Q0989=
201002210450 METAR ESMX 210450Z AUTO 03007KT 1600NDV -SN BKN005/// M09/M10 Q0989=
201002210420 METAR ESMX 210420Z AUTO 02007KT 1600NDV -SN SCT005/// BKN008/// M08/M09 Q0989=
201002210350 METAR ESMX 210350Z AUTO 04006KT 010V070 1400NDV R01/P2000N R19/P2000N -SN FEW007/// M08/M09 Q0989=
201002210320 METAR ESMX 210320Z AUTO 05006KT 010V080 0900NDV R01/P2000N R19/P2000N -SN FEW006/// SCT007/// M07/M08 Q0989=
201002210250 METAR ESMX 210250Z AUTO 05006KT 020V080 1500NDV -SN FEW006/// SCT007/// BKN009/// M07/M08 Q0988=
201002210220 METAR ESMX 210220Z AUTO 04007KT 360V070 5000NDV -SN FEW007/// OVC008/// M07/M08 Q0989 RESG=
201002210150 METAR ESMX 210150Z AUTO 04007KT 8000NDV IC OVC007/// M06/M07 Q0988 RESG=
201002210120 METAR ESMX 210120Z AUTO 06006KT 7000NDV IC OVC008/// M06/M06 Q0988=
201002210050 METAR ESMX 210050Z AUTO 05006KT 360V100 5000NDV -SN OVC007/// M05/M06 Q0988=
201002210020 METAR ESMX 210020Z AUTO 04005KT 350V100 9999NDV SG OVC008/// M05/M06 Q0988=
201002202350 METAR ESMX 202350Z AUTO 05004KT 350V090 4200NDV -SN FEW007/// OVC010/// M05/M05 Q0989=
201002202320 METAR ESMX 202320Z AUTO 05006KT 020V080 3800NDV -SN FEW006/// OVC009/// M04/M05 Q0989=
201002202250 METAR ESMX 202250Z AUTO 05005KT 360V110 1900NDV -SN FEW005/// OVC009/// M04/M05 Q0989=
201002202220 METAR ESMX 202220Z AUTO 07005KT 020V120 1500NDV -SN FEW005/// SCT008/// BKN010/// M03/M04 Q0989=
201002202150 METAR ESMX 202150Z AUTO 06006KT 020V110 1200NDV R01/P2000N R19/P2000N -SN FEW005/// BKN006/// OVC008/// M03/M03 Q0989=
201002202120 METAR ESMX 202120Z AUTO 05004KT 010V100 1400NDV R01/P2000N R19/P2000N -SN OVC005/// M03/M03 Q0989=
201002202050 METAR ESMX 202050Z AUTO 06004KT 030V120 3800NDV -SN OVC005/// M03/M03 Q0989=
201002202020 METAR ESMX 202020Z AUTO 07005KT 020V110 3900NDV -SN SCT005/// OVC008/// M03/M03 Q0990=
201002201950 METAR ESMX 201950Z AUTO 10004KT 070V140 9999NDV -SN FEW005/// SCT007/// OVC008/// M03/M03 Q0990=
201002201920 METAR ESMX 201920Z AUTO 08005KT 050V110 3500NDV -SN BKN006/// OVC008/// M03/M03 Q0990=
201002201850 METAR ESMX 201850Z AUTO 08005KT 030V120 5000NDV -SN BKN005/// OVC011/// M03/M03 Q0990=
201002201820 METAR ESMX 201820Z AUTO 09004KT 050V130 2100NDV -SN SCT005/// BKN007/// OVC008/// M02/M03 Q0990=
201002201750 METAR ESMX 201750Z AUTO 10004KT 050V160 1700NDV -SN FEW005/// OVC007/// M02/M03 Q0990=
201002201720 METAR ESMX 201720Z AUTO 07004KT 020V140 2000NDV -SN OVC006/// M02/M03 Q0990=
201002201650 METAR ESMX 201650Z AUTO 08004KT 040V140 5000NDV -SN OVC006/// M02/M02 Q0990=
201002201620 METAR ESMX 201620Z AUTO 07003KT 030V140 5000NDV -SN FEW006/// OVC007/// M02/M02 Q0990=
201002201550 METAR ESMX 201550Z AUTO 08003KT 040V110 9000NDV -SN OVC007/// M01/M02 Q0990=
201002201520 METAR ESMX 201520Z AUTO 07003KT 020V110 8000NDV -SN OVC006/// M01/M02 Q0990=
201002201450 METAR ESMX 201450Z 10004KT 070V140 3400 -SN OVC006 M01/M02 Q0990=
201002201420 METAR ESMX 201420Z 08003KT 050V140 4400 -SN OVC007 M01/M02 Q0990 RESG=
201002201350 METAR ESMX 201350Z 08004KT 040V120 6000 SG OVC007 M01/M02 Q0990=
201002201320 METAR ESMX 201320Z 06004KT 020V100 6000 -SN FEW005 SCT007 BKN008 M01/M02 Q0990=
201002201250 METAR ESMX 201250Z 06004KT 020V080 1900 -SN FEW005 SCT008 BKN012 M01/M02 Q0990=
201002201220 METAR ESMX 201220Z 08004KT 040V120 1600 -SN FEW006 OVC010 M01/M02 Q0990=
201002201150 METAR ESMX 201150Z 07004KT 030V110 2800 -SN FEW009 OVC011 M01/M02 Q0990=
201002201120 METAR ESMX 201120Z AUTO 07003KT 030V110 5000NDV -SN FEW006/// SCT009/// OVC011/// M01/M02 Q0990=
201002201050 METAR ESMX 201050Z 09003KT 050V140 1900 -SN FEW005 BKN010 M01/M02 Q0990=
201002201020 METAR ESMX 201020Z 09003KT 030V140 1200 R01/1300N R19/1000V1700N -SN FEW005 BKN006 BKN009 M01/M02 Q0990=
201002200950 METAR ESMX 200950Z 08003KT 020V140 1900 -SN FEW005 SCT008 BKN012 M01/M02 Q0990=
201002200920 METAR ESMX 200920Z 05004KT 010V110 1000 R01/1400N R19/1300U -SN OVC007 M02/M02 Q0990=
201002200850 METAR ESMX 200850Z 07004KT 030V120 0500 R01/1200N R19/0400V1200N SN NSC M02/M02 Q0990=
201002200820 METAR ESMX 200820Z 07004KT 030V110 0800 R01/1200N R19/1100 SN FEW007 M02/M03 Q0990=
201002200750 METAR ESMX 200750Z 08004KT 030V130 0900 R01/1400N R19/1300N -SN FEW006 M02/M03 Q0990=
201002200720 METAR COR ESMX 200720Z 07004KT 010V120 1200NDV R01/1900N R19/1400VP2000D -SN OVC008 M02/M03 Q0990=
201002200650 METAR ESMX 200650Z AUTO 08005KT 030V140 1200NDV R01/P2000N R19/P2000N -SN FEW007/// SCT010/// M02/M03 Q0990=
201002200620 METAR ESMX 200620Z AUTO 09006KT 040V140 1100NDV R01/P2000N R19/P2000N -SN FEW006/// SCT009/// BKN011/// M02/M03 Q0989=
201002200550 METAR ESMX 200550Z AUTO 08007KT 030V120 1400NDV R01/P2000N R19/P2000N -SN FEW007/// SCT009/// BKN011/// M02/M03 Q0989=
201002200520 METAR ESMX 200520Z AUTO 08007KT 040V150 1700NDV -SN FEW007/// BKN010/// BKN014/// M03/M03 Q0989=
201002200450 METAR ESMX 200450Z AUTO VRB07KT 1800NDV -SN FEW008/// BKN010/// M03/M03 Q0990=
201002200420 METAR ESMX 200420Z AUTO 09008KT 020V150 4100NDV -SN FEW009/// OVC010/// M03/M03 Q0990=
201002200350 METAR ESMX 200350Z AUTO 08008KT 030V140 3800NDV -SN FEW009/// OVC010/// M03/M04 Q0990=
201002200320 METAR ESMX 200320Z AUTO 08007KT 040V140 2900NDV -SN FEW008/// BKN010/// M03/M04 Q0990=
201002200250 METAR ESMX 200250Z AUTO 08007KT 030V120 1600NDV -SN FEW006/// SCT009/// BKN011/// M03/M04 Q0991=
201002200220 METAR ESMX 200220Z AUTO 08008KT 020V140 1900NDV -SN FEW006/// BKN008/// OVC010/// M04/M04 Q0991=
201002200150 METAR ESMX 200150Z AUTO 08008KT 030V140 3100NDV -SN OVC005/// M04/M04 Q0991=
201002200120 METAR ESMX 200120Z AUTO 07009KT 020V120 4600NDV -SN OVC004/// M04/M05 Q0992=
201002200050 METAR ESMX 200050Z AUTO 08008KT 030V140 6000NDV BR OVC004/// M04/M05 Q0992=
201002200020 METAR ESMX 200020Z AUTO 07008KT 030V120 5000NDV -SN OVC004/// M04/M05 Q0992=
201002192350 METAR ESMX 192350Z AUTO 07007KT 020V110 3400NDV -SN OVC004/// M04/M05 Q0993=
201002192320 METAR ESMX 192320Z AUTO 07006KT 020V110 7000NDV BR OVC005/// M04/M05 Q0993=
201002192250 METAR ESMX 192250Z AUTO 07007KT 020V120 9999NDV OVC006/// M04/M05 Q0993=
201002192220 METAR ESMX 192220Z 06007KT 010V120 8000 SG OVC008 M04/M05 Q0993=
201002192150 METAR ESMX 192150Z 06006KT 020V120 9999 -SN OVC010 M05/M05 Q0994=
201002192120 METAR ESMX 192120Z 08006KT 040V120 0800 R01/P2000N R19/P2000N -SN FEW000 SCT009 M05/M05 Q0994=
201002192050 METAR ESMX 192050Z 07005KT 030V110 0500 R01/1400VP2000N R19/0700VP2000D SN FEW002 SCT006 BKN011 M05/M05 Q0994=
201002192020 METAR ESMX 192020Z 07007KT 010V120 1400 R01/P2000N R19/P2000N -SN BKN005 M05/M05 Q0994=
201002191950 METAR ESMX 191950Z 07008KT 030V120 1600 -SN FEW006 SCT011 BKN014 M04/M05 Q0994=
201002191920 METAR ESMX 191920Z 08007KT 030V120 4700 -SN FEW011 SCT014 BKN028 M04/M05 Q0994=
201002191850 METAR ESMX 191850Z 08006KT 030V130 6000 -SN FEW005 SCT010 OVC027 M04/M05 Q0994=
201002191820 METAR ESMX 191820Z 06007KT 010V120 1500 -SN FEW005 SCT006 BKN010 M04/M05 Q0994=
201002191750 METAR ESMX 191750Z 08008KT 050V140 3700 -SN FEW009 OVC011 M04/M05 Q0994=
201002191720 METAR ESMX 191720Z 09007KT 040V160 9999 -SN FEW009 OVC011 M03/M04 Q0994=
201002191650 METAR ESMX 191650Z 07007KT 020V120 7000 -SN FEW006 SCT009 BKN012 M03/M04 Q0994=
201002191620 METAR ESMX 191620Z 09007KT 030V120 3900 -SN FEW002 SCT006 BKN013 M03/M03 Q0994=
201002191550 METAR ESMX 191550Z 08007KT 030V120 0700 R01/0900VP2000 R19/0350V1100N SN VV001 M02/M03 Q0994=
201002191520 METAR ESMX 191520Z 09007KT 040V130 3400 -SN FEW001 SCT006 BKN010 M02/M02 Q0994=
201002191450 METAR ESMX 191450Z 09006KT 050V140 0700 R01/1000V1500D R19/1200 SN FEW004 BKN006 M02/M02 Q0995=
201002191350 METAR ESMX 191350Z 09005KT 350V150 5000 BR BKN004 M01/M02 Q0995=
201002191320 METAR ESMX 191320Z 08005KT 4500 BR BKN003 M01/M02 Q0995=
201002191250 METAR ESMX 191250Z 09005KT 3800 BR BKN002 M01/M02 Q0996=
201002191220 METAR ESMX 191220Z 09005KT 4000 BR BKN002 M01/M02 Q0996=
201002191150 METAR ESMX 191150Z 10004KT 3500 BR SCT001 BKN002 M01/M02 Q0996=
201002191120 METAR ESMX 191120Z 13004KT 3000 BR BKN002 M01/M02 Q0996=
201002190950 METAR ESMX 190950Z 08003KT 040V130 0500 R01/0800 R19/0800N FZFG VV002 M02/M02 Q0996=
201002190920 METAR ESMX 190920Z VRB02KT 0450 R01/0750 R19/0750 FZFG VV002 M02/M02 Q0996=
201002190850 METAR ESMX 190850Z 10003KT 020V140 0400 R01/0750 R19/0800 FZFG VV002 M02/M02 Q0995=
201002190820 METAR ESMX 190820Z 10003KT 050V140 0400 R01/0750 R19/0750N FZFG VV002 M02/M02 Q0995=
201002190750 METAR ESMX 190750Z VRB02KT 0350 R01/0700 R19/0800 FZFG VV002 M02/M03 Q0995=
201002190720 METAR ESMX 190720Z VRB02KT 0400 R01/0900N R19/0900N FZFG VV002 M02/M03 Q0995=
201002190650 METAR ESMX 190650Z VRB01KT 0600 R01/1200D R19/1300N FZFG VV002 M02/M03 Q0995=
201002190620 METAR ESMX 190620Z VRB02KT 0750 R01/1800D R19/1800N FZFG VV002 M02/M03 Q0995=
201002190550 METAR ESMX 190550Z VRB01KT 1500 -SN VV002 M02/M03 Q0995=
201002190520 METAR ESMX 190520Z VRB02KT 1500 -SN OVC002 M02/M03 Q0995=
201002190450 METAR ESMX 190450Z VRB02KT 1500 BR OVC002 M02/M03 Q0995=
201002190420 METAR ESMX 190420Z AUTO VRB02KT 1400NDV R01/P2000N R19/P2000N BR OVC001/// M02/M03 Q0995=
201002190350 METAR ESMX 190350Z AUTO VRB02KT 1600NDV BR OVC001/// M02/M03 Q0995=
201002190320 METAR ESMX 190320Z AUTO 06003KT 030V110 1500NDV BR OVC002/// M03/M03 Q0995=
201002190250 METAR ESMX 190250Z AUTO 06003KT 1800NDV BR FEW003/// OVC004/// M03/M03 Q0995=
201002190220 METAR ESMX 190220Z AUTO 08003KT 050V110 3500NDV BR OVC005/// M03/M03 Q0995=
201002190150 METAR ESMX 190150Z AUTO 05003KT 7000NDV BR OVC006/// M03/M03 Q0995=
201002190120 METAR ESMX 190120Z AUTO 04004KT 020V090 9999NDV BR OVC006/// M03/M03 Q0995=
201002190050 METAR ESMX 190050Z 07003KT 030V110 9999 OVC006 M03/M03 Q0995=
201002190020 METAR ESMX 190020Z 06004KT 020V100 9999 OVC007 M03/M04 Q0995=
201002182350 METAR ESMX 182350Z 06003KT 020V110 9999 OVC007 M03/M04 Q0995=
201002182320 METAR ESMX 182320Z 06005KT 030V110 9999 OVC008 M03/M04 Q0995=
201002182250 METAR ESMX 182250Z 06005KT 020V130 9000 BR OVC009 M03/M04 Q0995=
201002182220 METAR ESMX 182220Z 07004KT 020V100 9000 BR OVC010 M03/M04 Q0996=
201002182150 METAR ESMX 182150Z 07005KT 020V110 8000 -SN FEW011 BKN025 OVC030 M03/M04 Q0996=
201002182120 METAR ESMX 182120Z 07005KT 030V110 3300 -SN FEW006 BKN032 M04/M04 Q0996=
201002182050 METAR ESMX 182050Z 06006KT 020V110 4000 -SN FEW010 BKN015 M04/M04 Q0996=
201002182020 METAR ESMX 182020Z 06006KT 040V110 2000 -SN BKN010 M04/M04 Q0997=
201002181950 METAR ESMX 181950Z 05005KT 010V080 1000 -SN BKN010 M04/M04 Q0997=
201002181920 METAR ESMX 181920Z 08004KT 030V130 0750 SN BKN010 M04/M04 Q0997=
201002181850 METAR ESMX 181850Z 08005KT 040V140 0800 SN FEW007 BKN015 M04/M04 Q0997=
201002181820 METAR ESMX 181820Z 09005KT 050V150 0800 SN FEW006 BKN015 M04/M04 Q0998=
201002181750 METAR ESMX 181750Z 09005KT 040V130 1500 SN FEW005 BKN008 M03/M04 Q0998=
201002181720 METAR ESMX 181720Z 07006KT 350V120 1400 R01/P2000N R19/P2000N -SN FEW005 SCT009 BKN012 M03/M05 Q0998=
201002181650 METAR ESMX 181650Z 08009KT 040V120 2000 R01/P2000N R19/P2000N -SN SCT006 OVC012 M03/M05 Q0998=
201002181620 METAR ESMX 181620Z 09007KT 030V150 4000 -SN OVC012 M03/M05 Q0998=
201002181550 METAR ESMX 181550Z VRB08KT 8000 BR OVC012 M02/M05 Q0998=
201002181520 METAR ESMX 181520Z 08009G19KT 030V170 9999 OVC015 M02/M05 Q0999=
201002181450 METAR ESMX 181450Z 07008KT 020V120 9999 FEW015 BKN017 OVC024 M02/M05 Q0999=
201002181420 METAR ESMX 181420Z 08008KT 020V150 9000 BR BKN014 OVC018 M02/M05 Q0999=
201002181350 METAR ESMX 181350Z 09006KT 040V140 6000 BR SCT013 BKN018 M02/M05 Q1000=
201002181320 METAR ESMX 181320Z 08006KT 030V150 8000 BR OVC012 M02/M05 Q1000=
201002181250 METAR ESMX 181250Z 08008G18KT 040V140 7000 BR OVC010 M02/M05 Q1000=
201002181220 METAR ESMX 181220Z 08007KT 030V130 7000 BR OVC008 M02/M04 Q1001=
201002181150 METAR ESMX 181150Z 07008KT 020V120 6000 BR OVC008 M02/M04 Q1001=
201002181120 METAR ESMX 181120Z 09009KT 040V130 5000 BR OVC007 M02/M04 Q1001=
201002181050 METAR ESMX 181050Z 08008KT 030V120 5000 BR OVC007 M03/M04 Q1001=
201002181020 METAR ESMX 181020Z 08007KT 040V130 5000 BR OVC007 M03/M04 Q1001=
201002180950 METAR ESMX 180950Z 08007KT 030V140 6000 BR OVC008 M03/M04 Q1002=
201002180920 METAR ESMX 180920Z 06007KT 350V110 5000 BR OVC008 M03/M04 Q1002=
201002180850 METAR ESMX 180850Z 09007KT 040V140 6000 BR OVC008 M03/M05 Q1002=
201002180820 METAR ESMX 180820Z 08007KT 040V130 6000 BR OVC008 M03/M05 Q1002=
201002180750 METAR ESMX 180750Z 08006KT 020V120 6000 BR OVC009 M03/M05 Q1002 RESN=
201002180720 METAR ESMX 180720Z 08007KT 040V140 7000 -SN OVC009 M03/M05 Q1002=
201002180650 METAR ESMX 180650Z 08006KT 030V130 8000 BR OVC009 M03/M05 Q1002 RESN=
201002180620 METAR ESMX 180620Z 08007KT 040V120 5000 -SN OVC010 M03/M05 Q1002=
201002180550 METAR ESMX 180550Z 10006KT 030V150 7000 -SN OVC009 M03/M05 Q1002=
201002180520 METAR COR ESMX 180520Z 08006KT 040V120 9999 -SN OVC011 M03/M05 Q1002=
201002180450 METAR ESMX 180450Z 08005KT 050V120 9999 OVC010 M03/M05 Q1002=
201002180420 METAR ESMX 180420Z AUTO 07004KT 030V130 9000NDV -SN OVC011/// M03/M05 Q1002=
201002180350 METAR ESMX 180350Z AUTO 07004KT 030V120 9999NDV BR FEW016/// OVC021/// M03/M05 Q1002=
201002180320 METAR ESMX 180320Z AUTO 08004KT 020V120 9000NDV BR FEW015/// OVC019/// M03/M05 Q1002=
201002180250 METAR ESMX 180250Z AUTO 07005KT 030V120 8000NDV BR SCT010/// BKN015/// OVC018/// M03/M05 Q1002=
201002180220 METAR ESMX 180220Z AUTO 08004KT 040V130 7000NDV BR OVC008/// M03/M05 Q1002=
201002180150 METAR ESMX 180150Z AUTO 08004KT 040V140 8000NDV BR BKN008/// OVC015/// M03/M05 Q1002=
201002180120 METAR ESMX 180120Z AUTO 07004KT 040V120 9000NDV BKN009/// OVC015/// M03/M05 Q1002=
201002180050 METAR ESMX 180050Z AUTO 07003KT 030V110 9000NDV OVC012/// M03/M05 Q1003=
201002180020 METAR ESMX 180020Z 07004KT 030V110 9999 FEW012 OVC016 M03/M05 Q1003=
201002172350 METAR ESMX 172350Z 07004KT 030V100 9000 OVC015 M03/M05 Q1003=
201002172320 METAR ESMX 172320Z 06004KT 030V100 9000 OVC016 M03/M05 Q1003=
201002172250 METAR ESMX 172250Z 06004KT 020V110 9999 FEW007 OVC017 M03/M05 Q1003=
201002172220 METAR ESMX 172220Z 07004KT 020V140 9999 FEW007 SCT008 BKN010 M03/M05 Q1003=
201002172150 METAR ESMX 172150Z 07004KT 030V100 9999 BKN008 OVC010 M03/M05 Q1003=
201002172120 METAR ESMX 172120Z 07004KT 030V120 9999 BKN008 OVC014 M03/M05 Q1004=
201002172050 METAR ESMX 172050Z 06004KT 020V110 9999 FEW010 OVC015 M04/M05 Q1003=
201002172020 METAR ESMX 172020Z 05004KT 020V080 9999 OVC017 M04/M06 Q1004=
201002171950 METAR ESMX 171950Z 06004KT 020V100 9999 OVC020 M04/M06 Q1004=
201002171920 METAR ESMX 171920Z 07004KT 030V140 9999 OVC021 M04/M06 Q1004=
201002171850 METAR ESMX 171850Z 07004KT 040V110 9999 FEW013 SCT020 BKN023 M04/M06 Q1004=
201002171820 METAR ESMX 171820Z 08004KT 040V140 9999 SCT012 BKN026 M03/M06 Q1004=
201002171750 METAR ESMX 171750Z 09006KT 040V150 9999 OVC011 M02/M05 Q1004=
201002171720 METAR ESMX 171720Z 08003KT 020V120 9999 SCT011 OVC017 M02/M04 Q1004=
201002171650 METAR ESMX 171650Z 08004KT 030V140 9999 FEW012 BKN018 M02/M04 Q1004=
201002171620 METAR ESMX 171620Z 09004KT 050V130 9999 SCT009 BKN015 M02/M04 Q1004=
201002171550 METAR ESMX 171550Z 08004KT 030V140 9999 FEW009 BKN011 OVC023 M02/M04 Q1004=
201002171520 METAR ESMX 171520Z 08005KT 050V130 9999 SCT009 BKN014 M02/M03 Q1004=
201002171450 METAR ESMX 171450Z 05004KT 360V090 9999 SCT009 OVC015 M02/M04 Q1004 RESN=
201002171420 METAR ESMX 171420Z 06004KT 030V090 9999 -SN BKN008 OVC011 M01/M04 Q1004=
201002171350 METAR ESMX 171350Z 05004KT 020V110 9999 -SN OVC008 M01/M03 Q1004=
201002171320 METAR ESMX 171320Z 07003KT 020V110 9999 OVC009 M01/M04 Q1005=
201002171250 METAR ESMX 171250Z 09003KT 050V150 9999 OVC009 M01/M04 Q1005=
201002171220 METAR ESMX 171220Z 08004KT 050V120 9999 FEW009 OVC010 M01/M04 Q1005=
201002171150 METAR ESMX 171150Z 07004KT 040V110 9999 SCT008 BKN011 M02/M04 Q1005=
201002171120 METAR ESMX 171120Z 08004KT 040V120 9999 BKN007 OVC021 M02/M04 Q1006=
201002171050 METAR ESMX 171050Z 09005KT 030V130 9999 OVC006 M02/M04 Q1006=
201002171020 METAR ESMX 171020Z 08004KT 030V130 9999 OVC006 M03/M04 Q1006=
201002170950 METAR ESMX 170950Z 07003KT 020V110 5000 OVC006 M03/M05 Q1006=
201002170920 METAR ESMX 170920Z 04003KT 8000 BR OVC007 M04/M06 Q1006=
201002170850 METAR ESMX 170850Z 05003KT 010V070 7000 OVC007 M04/M06 Q1006=
201002170820 METAR ESMX 170820Z 04003KT 010V080 9999 OVC008 M05/M06 Q1006=
201002170750 METAR ESMX 170750Z 02004KT 9999 OVC009 M05/M06 Q1006=
201002170720 METAR ESMX 170720Z 04003KT 360V080 9999 OVC009 M05/M07 Q1006=
201002170650 METAR ESMX 170650Z 06003KT 030V100 9999 SCT009 BKN020 M06/M07 Q1006=
201002170620 METAR ESMX 170620Z 07003KT 030V110 9999 SCT008 BKN019 M06/M07 Q1006=
201002170550 METAR ESMX 170550Z 04003KT 9999 FEW015 BKN018 M06/M07 Q1006=
201002170450 METAR ESMX 170450Z 01003KT 9999 SCT016 OVC065 M06/M07 Q1007=
201002170420 METAR ESMX 170420Z AUTO 04003KT 010V080 9999NDV OVC065/// M06/M07 Q1007=
201002170350 METAR ESMX 170350Z AUTO VRB02KT 9999NDV OVC060/// M06/M07 Q1007=
201002170320 METAR ESMX 170320Z AUTO VRB02KT 9999NDV OVC058/// M06/M07 Q1007=
201002170250 METAR ESMX 170250Z AUTO VRB01KT 9999NDV OVC064/// M06/M07 Q1007=
201002170220 METAR ESMX 170220Z AUTO VRB02KT 9999NDV BKN059/// M06/M07 Q1007=
201002170150 METAR ESMX 170150Z AUTO 06003KT 030V110 9999NDV OVC066/// M06/M07 Q1008=
201002170120 METAR ESMX 170120Z AUTO 06003KT 020V100 9999NDV OVC067/// M06/M07 Q1008=
201002170050 METAR ESMX 170050Z VRB02KT CAVOK M06/M07 Q1008=
201002170020 METAR ESMX 170020Z 08003KT 030V110 CAVOK M05/M07 Q1008=
201002162320 METAR ESMX 162320Z 07003KT 040V110 CAVOK M05/M06 Q1008=
201002162250 METAR ESMX 162250Z 07003KT 030V110 9999 FEW010 OVC066 M05/M06 Q1008=
201002162150 METAR ESMX 162150Z VRB02KT 9999 FEW010 OVC067 M04/M06 Q1008=
201002162120 METAR ESMX 162120Z 10004KT 040V150 9999 BKN009 M04/M06 Q1008=
201002162050 METAR ESMX 162050Z VRB02KT 9999 SCT009 OVC068 M04/M05 Q1008=
201002162020 METAR ESMX 162020Z 10003KT 070V140 9999 -SN SCT010 BKN068 M04/M05 Q1008=
201002161950 METAR ESMX 161950Z 10003KT 020V140 9999 -SN FEW013 BKN068 M03/M05 Q1008=
201002161920 METAR ESMX 161920Z 12003KT 070V160 9999 -SN SCT015 BKN070 M03/M05 Q1008=
201002161850 METAR ESMX 161850Z 11003KT 050V160 9999 -SN FEW010 BKN019 M03/M05 Q1008=
201002161820 METAR ESMX 161820Z 11004KT 070V170 9999 -SN SCT010 OVC015 M03/M05 Q1008=
201002161750 METAR ESMX 161750Z 11005KT 070V210 9999 -SN SCT010 OVC013 M03/M04 Q1008=
201002161720 METAR ESMX 161720Z 11003KT 070V150 9999 -SN OVC009 M02/M04 Q1008=
201002161650 METAR ESMX 161650Z VRB02KT 9999 -SN FEW010 OVC018 M02/M04 Q1008=
201002161620 METAR ESMX 161620Z VRB02KT 9999 -SN FEW011 OVC018 M02/M04 Q1008=
201002161550 METAR ESMX 161550Z VRB02KT 9999 -SN FEW010 OVC017 M02/M04 Q1007=
201002161520 METAR ESMX 161520Z VRB02KT 8000 -SN OVC014 M02/M04 Q1007=
201002161450 METAR ESMX 161450Z 14003KT 080V220 9999 -SN OVC011 M02/M04 Q1007=
201002161420 METAR ESMX 161420Z VRB02KT 9999 -SN OVC011 M02/M04 Q1008=
201002161350 METAR ESMX 161350Z 14004KT 070V170 9999 -SN OVC011 M02/M04 Q1008=
201002161320 METAR ESMX 161320Z 13004KT 070V160 9999 -SN OVC011 M02/M04 Q1008=
201002161250 METAR ESMX 161250Z 14004KT 100V180 9999 -SN OVC010 M02/M04 Q1008=
201002161220 METAR ESMX 161220Z 16005KT 130V200 9999 BKN009 OVC014 M02/M04 Q1008=
201002161150 METAR ESMX 161150Z 13005KT 080V180 9999 BKN007 OVC013 M02/M04 Q1008=
201002161120 METAR ESMX 161120Z VRB02KT 9999 BKN007 OVC015 M02/M04 Q1008 RESN=
201002161050 METAR ESMX 161050Z 15003KT 110V190 8000 -SN OVC007 M02/M04 Q1008=
201002161020 METAR ESMX 161020Z 14005KT 080V170 7000 -SN FEW006 OVC010 M02/M04 Q1008=
201002160950 METAR ESMX 160950Z 15004KT 110V210 9999 FEW006 OVC012 M02/M04 Q1008=
201002160920 METAR ESMX 160920Z VRB02KT 9999 BKN005 OVC015 M02/M04 Q1008=
201002160850 METAR ESMX 160850Z VRB02KT 9999 FEW007 BKN012 OVC044 M03/M04 Q1008=
201002160820 METAR ESMX 160820Z VRB02KT 9999 FEW007 OVC044 M03/M05 Q1007=
201002160750 METAR ESMX 160750Z VRB02KT 9999 SCT035 OVC045 M04/M05 Q1008=
201002160720 METAR ESMX 160720Z VRB02KT 9999 FEW021 OVC033 M04/M05 Q1008=
201002160650 METAR ESMX 160650Z VRB01KT 9999 BKN021 OVC031 M05/M05 Q1008=
201002160620 METAR ESMX 160620Z 00000KT 9999 BKN019 OVC030 M05/M05 Q1008=
201002160550 METAR ESMX 160550Z VRB01KT 9999 -SN OVC017 M05/M05 Q1007=
201002160450 METAR ESMX 160450Z VRB01KT 9999 -SN FEW007 BKN018 M05/M05 Q1008=
201002160420 METAR ESMX 160420Z AUTO VRB01KT 9999NDV -SN FEW013/// SCT020/// OVC034/// M04/M05 Q1008=
201002160350 METAR ESMX 160350Z AUTO VRB02KT 6000NDV -SN FEW008/// OVC034/// M04/M05 Q1008=
201002160320 METAR ESMX 160320Z AUTO VRB02KT 9999NDV -SN FEW010/// OVC031/// M04/M05 Q1008=
201002160250 METAR ESMX 160250Z AUTO VRB02KT 8000NDV SG OVC029/// M04/M05 Q1008=
201002160220 METAR ESMX 160220Z AUTO 10002KT 4400NDV -SN SCT033/// M04/M05 Q1008=
201002160150 METAR ESMX 160150Z AUTO 11001KT 4100NDV -SN NCD M04/M05 Q1008=
201002160120 METAR ESMX 160120Z AUTO VRB02KT 3200NDV -SN NCD M04/M05 Q1008=
201002160050 METAR ESMX 160050Z VRB02KT 2600 SN SCT005 BKN033 M04/M05 Q1009=
201002160020 METAR ESMX 160020Z VRB01KT 4700 -SN NSC M04/M05 Q1009=
201002152350 METAR ESMX 152350Z VRB02KT 3500 -SN FEW006 BKN015 M04/M05 Q1009=
201002152320 METAR ESMX 152320Z VRB02KT 3300 -SN FEW009 BKN010 BKN015 M04/M05 Q1009=
201002152250 METAR ESMX 152250Z VRB02KT 3000 SN OVC010 M04/M05 Q1009=
201002152220 METAR ESMX 152220Z VRB02KT 3900 SN FEW010 BKN025 M04/M05 Q1009=
201002152150 METAR ESMX 152150Z VRB01KT 4500 -SN BKN010 BKN024 M04/M05 Q1009=
201002152120 METAR ESMX 152120Z VRB02KT 9999 -SN OVC011 M04/M05 Q1009=
201002152050 METAR ESMX 152050Z VRB01KT 9999 BKN010 M04/M05 Q1009=
201002152020 METAR ESMX 152020Z VRB02KT 9999 SCT012 OVC018 M04/M05 Q1009=
201002151950 METAR ESMX 151950Z 12001KT 9999 OVC017 M04/M05 Q1009=
201002151920 METAR ESMX 151920Z 09001KT 9999 -SN OVC015 M04/M05 Q1009=
201002151850 METAR ESMX 151850Z 10001KT 9999 -SN OVC013 M04/M05 Q1009=
201002151820 METAR ESMX 151820Z 00000KT 9999 BKN012 OVC030 M04/M05 Q1009=
201002151750 METAR ESMX 151750Z 00000KT 9999 BKN013 OVC025 M04/M05 Q1009=
201002151720 METAR ESMX 151720Z 00000KT 9999 OVC015 M04/M05 Q1009=
201002151650 METAR ESMX 151650Z 22002KT 9999 BKN015 OVC030 M04/M05 Q1009=
201002151620 METAR ESMX 151620Z 18003KT 9999 OVC015 M03/M05 Q1009=
201002151550 METAR ESMX 151550Z 17003KT 9999 OVC014 M03/M05 Q1010=
201002151520 METAR ESMX 151520Z 17003KT 9999 OVC014 M03/M05 Q1010=
201002151450 METAR ESMX 151450Z VRB02KT 9999 OVC015 M03/M06 Q1010=
201002151420 METAR ESMX 151420Z 17003KT 9999 OVC015 M03/M06 Q1010=
201002151350 METAR ESMX 151350Z 19003KT 9999 OVC013 M03/M06 Q1010=
201002151320 METAR ESMX 151320Z 18003KT 150V210 9999 OVC013 M03/M06 Q1010=
201002151250 METAR ESMX 151250Z VRB01KT 9999 OVC013 M03/M06 Q1010=
201002151220 METAR ESMX 151220Z VRB01KT 9999 OVC013 M03/M06 Q1011=
201002151150 METAR ESMX 151150Z VRB01KT 9999 OVC012 M03/M06 Q1011=
201002151120 METAR ESMX 151120Z 03002KT 9999 OVC012 M03/M06 Q1011=
201002151050 METAR ESMX 151050Z 36003KT 9999 FEW013 OVC020 M04/M06 Q1011=
201002151020 METAR ESMX 151020Z 35002KT 9999 SCT011 OVC019 M04/M06 Q1011=
201002150950 METAR ESMX 150950Z VRB01KT 9999 BKN012 OVC018 M04/M07 Q1011=
201002150920 METAR ESMX 150920Z VRB02KT 9999 FEW011 OVC017 M04/M07 Q1011=
201002150850 METAR ESMX 150850Z VRB02KT 9999 OVC016 M05/M07 Q1011=
201002150820 METAR ESMX 150820Z VRB02KT 9999 FEW012 OVC015 M05/M07 Q1011=
201002150750 METAR ESMX 150750Z VRB02KT 9999 OVC012 M05/M07 Q1011=
201002150720 METAR ESMX 150720Z VRB02KT 9999 FEW009 OVC013 M06/M07 Q1011=
201002150650 METAR ESMX 150650Z 04002KT 9999 SCT006 OVC010 M06/M07 Q1012=
201002150620 METAR ESMX 150620Z VRB02KT 9999 OVC006 M06/M07 Q1012=
201002150550 METAR ESMX 150550Z 05003KT 020V110 9000 BR OVC006 M06/M07 Q1012=
201002150520 METAR ESMX 150520Z 03003KT 7000 BR OVC004 M06/M07 Q1012=
201002150450 METAR ESMX 150450Z 04003KT 6000 BR OVC003 M06/M07 Q1012=
201002150420 METAR ESMX 150420Z AUTO 03003KT 7000NDV BR OVC003/// M06/M07 Q1012=
201002150350 METAR ESMX 150350Z AUTO 02004KT 350V060 8000NDV BR OVC003/// M06/M07 Q1012=
201002150320 METAR ESMX 150320Z AUTO 02004KT 9000NDV OVC004/// M06/M07 Q1012=
201002150250 METAR ESMX 150250Z AUTO 02003KT 9999NDV OVC004/// M05/M06 Q1013=
201002150220 METAR ESMX 150220Z AUTO 03002KT 9999NDV OVC005/// M05/M06 Q1013=
201002150150 METAR ESMX 150150Z AUTO VRB02KT 9999NDV OVC005/// M05/M06 Q1013=
201002150120 METAR ESMX 150120Z AUTO VRB02KT 9999NDV OVC005/// M05/M06 Q1013=
201002150050 METAR ESMX 150050Z 08003KT 040V120 9999 OVC006 M05/M06 Q1013=
201002150020 METAR ESMX 150020Z 05003KT 010V070 9999 OVC005 M05/M06 Q1014=
201002142350 METAR ESMX 142350Z 04003KT 360V070 9999 OVC005 M05/M06 Q1014=
201002142320 METAR ESMX 142320Z 04003KT 9999 OVC006 M05/M07 Q1014=
201002142250 METAR ESMX 142250Z 03003KT 9999 OVC007 M05/M07 Q1014=
201002142220 METAR ESMX 142220Z 04004KT 010V080 9999 SCT009 OVC065 M05/M07 Q1014=
201002142150 METAR ESMX 142150Z 03005KT 9999 FEW023 BKN053 OVC065 M05/M06 Q1014=
201002142120 METAR ESMX 142120Z 02004KT CAVOK M05/M06 Q1014=
201002142050 METAR ESMX 142050Z 02004KT 9999 FEW008 OVC052 M05/M06 Q1014=
201002142020 METAR ESMX 142020Z 02004KT 9999 FEW009 OVC053 M04/M06 Q1014=
201002141950 METAR ESMX 141950Z 03003KT 9999 BKN010 OVC053 M04/M06 Q1015=
201002141920 METAR ESMX 141920Z 04004KT 9999 FEW046 OVC053 M04/M06 Q1015=
201002141850 METAR ESMX 141850Z 04004KT CAVOK M04/M06 Q1015=
201002141820 METAR ESMX 141820Z 03003KT CAVOK M04/M06 Q1015=
201002141750 METAR ESMX 141750Z 03004KT CAVOK M04/M06 Q1015=
201002141720 METAR ESMX 141720Z 03005KT 9999 FEW044 BKN052 M04/M06 Q1015=
201002141650 METAR ESMX 141650Z 36005KT 9999 BKN041 M04/M06 Q1015=
201002141620 METAR ESMX 141620Z 03003KT 9999 OVC042 M03/M06 Q1015=
201002141550 METAR ESMX 141550Z 01004KT 9999 OVC041 M03/M06 Q1015=
201002141520 METAR ESMX 141520Z 01004KT 9999 SCT012 OVC042 M03/M06 Q1015=
201002141450 METAR ESMX 141450Z 36004KT 9999 BKN011 OVC040 M03/M06 Q1015=
201002141420 METAR ESMX 141420Z 01004KT 9999 BKN010 OVC039 M03/M06 Q1015=
201002141350 METAR ESMX 141350Z 01003KT 9999 OVC038 M03/M06 Q1015=
201002141320 METAR ESMX 141320Z 35003KT 9999 BKN028 OVC036 M04/M06 Q1016=
201002141250 METAR ESMX 141250Z 36002KT 9999 FEW023 OVC028 M04/M06 Q1016=
201002141220 METAR ESMX 141220Z AUTO 36003KT 4800NDV OVC027/// M04/M06 Q1016=
201002141150 METAR ESMX 141150Z AUTO 35003KT 9999NDV FEW024/// OVC033/// M04/M06 Q1016=
201002141120 METAR ESMX 141120Z AUTO 36004KT 9999NDV FEW008/// OVC035/// M04/M06 Q1016=
201002141050 METAR ESMX 141050Z AUTO 36005KT 9999NDV FEW007/// BKN022/// OVC038/// M04/M06 Q1016=
201002141020 METAR ESMX 141020Z AUTO 36004KT 9999NDV SCT006/// BKN021/// OVC029/// M05/M06 Q1016=
201002140950 METAR ESMX 140950Z AUTO 02004KT 9999NDV FEW006/// OVC017/// M05/M06 Q1016=
201002140920 METAR ESMX 140920Z AUTO 02004KT 350V060 9999NDV OVC005/// M05/M06 Q1016=
201002140850 METAR ESMX 140850Z AUTO 02004KT 9999NDV BKN005/// OVC024/// M05/M06 Q1016=
201002140820 METAR ESMX 140820Z AUTO 03005KT 9999NDV BKN006/// OVC025/// M05/M06 Q1016=
201002140750 METAR ESMX 140750Z AUTO 01005KT 9999NDV BR OVC005/// M05/M06 Q1016=
201002140720 METAR ESMX 140720Z AUTO 03005KT 010V070 7000NDV BR BKN005/// BKN031/// M06/M06 Q1016=
201002140650 METAR ESMX 140650Z AUTO 02005KT 3900NDV BR OVC006/// M06/M07 Q1016=
201002140620 METAR ESMX 140620Z AUTO 03004KT 9000NDV OVC007/// M06/M07 Q1016=
201002140550 METAR ESMX 140550Z AUTO 01004KT 9999NDV OVC007/// M06/M07 Q1016=
201002140520 METAR ESMX 140520Z AUTO 36005KT 9999NDV OVC008/// M06/M07 Q1016=
201002140450 METAR ESMX 140450Z AUTO 02004KT 9999NDV OVC009/// M06/M07 Q1015=
201002140420 METAR ESMX 140420Z AUTO 02004KT 9999NDV SCT009/// OVC047/// M06/M07 Q1016=
201002140350 METAR ESMX 140350Z AUTO 03003KT 9999NDV OVC046/// M06/M07 Q1015=
201002140320 METAR ESMX 140320Z AUTO 03003KT 9999NDV OVC046/// M06/M07 Q1015=
201002140250 METAR ESMX 140250Z AUTO 02004KT 9999NDV OVC047/// M06/M07 Q1015=
201002140220 METAR ESMX 140220Z AUTO 03004KT 9999NDV OVC048/// M06/M07 Q1015=
201002140150 METAR ESMX 140150Z AUTO 01004KT 9999NDV OVC050/// M06/M07 Q1015=
201002140120 METAR ESMX 140120Z AUTO 01004KT 9999NDV OVC050/// M06/M07 Q1016=
201002140050 METAR ESMX 140050Z AUTO 02006KT 9999NDV IC OVC052/// M06/M07 Q1016=
201002140020 METAR ESMX 140020Z AUTO 02006KT 9000NDV IC OVC053/// M05/M07 Q1016 RESG=
201002132350 METAR ESMX 132350Z AUTO 02005KT 3600NDV SG SCT054/// M05/M07 Q1016=
201002132320 METAR ESMX 132320Z AUTO 01006KT 6000NDV IC SCT053/// M05/M07 Q1015=
201002132250 METAR ESMX 132250Z AUTO 02005KT 3500NDV -SN FEW048/// BKN057/// M05/M07 Q1016=
201002132220 METAR ESMX 132220Z AUTO 02005KT 9999NDV IC SCT010/// BKN049/// OVC060/// M05/M07 Q1016 RESG=
201002132150 METAR ESMX 132150Z AUTO 02005KT 5000NDV IC OVC010/// M05/M07 Q1015=
201002132120 METAR ESMX 132120Z AUTO 02006KT 9999NDV IC OVC009/// M05/M07 Q1015=
201002132050 METAR ESMX 132050Z AUTO 02005KT 9999NDV -SN OVC009/// M05/M07 Q1015 RESG=
201002132020 METAR ESMX 132020Z AUTO 01006KT 9999NDV SG OVC009/// M05/M07 Q1015=
201002131950 METAR ESMX 131950Z AUTO 01006KT 340V050 9999NDV OVC009/// M05/M07 Q1015=
201002131920 METAR ESMX 131920Z AUTO 01006KT 9999NDV OVC010/// M05/M07 Q1015=
201002131850 METAR ESMX 131850Z AUTO 02006KT 9999NDV OVC011/// M05/M07 Q1015=
201002131820 METAR ESMX 131820Z AUTO 02006KT 9999NDV OVC011/// M05/M07 Q1015=
201002131750 METAR ESMX 131750Z AUTO 02006KT 9999NDV OVC011/// M05/M07 Q1015=
201002131720 METAR ESMX 131720Z AUTO 02006KT 9999NDV OVC012/// M05/M07 Q1015=
201002131650 METAR ESMX 131650Z AUTO 02006KT 9999NDV -SN OVC013/// M05/M07 Q1015=
201002131620 METAR ESMX 131620Z AUTO 02007KT 9999NDV OVC013/// M05/M07 Q1015=
201002131550 METAR ESMX 131550Z AUTO 02007KT 9999NDV OVC014/// M04/M07 Q1015=
201002131520 METAR ESMX 131520Z AUTO 02008KT 9999NDV SCT015/// OVC050/// M05/M07 Q1015=
201002131450 METAR ESMX 131450Z AUTO 01008KT 9999NDV -SN FEW016/// OVC048/// M05/M07 Q1015=
201002131420 METAR ESMX 131420Z 01009KT 9999 -SN FEW014 SCT048 M05/M07 Q1014=
201002131350 METAR ESMX 131350Z 01009KT 9999 -SN BKN013 BKN056 M05/M07 Q1015=
201002131320 METAR ESMX 131320Z 36010KT 9999 -SN SCT014 OVC060 M04/M07 Q1015=
201002131250 METAR ESMX 131250Z 01011KT 9999 -SN SCT015 BKN053 M04/M07 Q1015=
201002131220 METAR ESMX 131220Z 01010KT 9999 -SN BKN014 BKN056 M04/M07 Q1015=
201002131150 METAR ESMX 131150Z 01010KT 3700 -SN FEW008 BKN015 M04/M07 Q1015=
201002131120 METAR ESMX 131120Z 01010KT 1600 -SN OVC013 M05/M07 Q1015=
201002131050 METAR ESMX 131050Z 01010KT 5000 -SN BKN014 M05/M07 Q1015=
201002131020 METAR ESMX 131020Z 01009KT 4600 -SN SCT014 BKN066 M05/M07 Q1016=
201002130950 METAR ESMX 130950Z 36010KT 7000 -SN SCT014 M05/M07 Q1016=
201002130920 METAR ESMX 130920Z 01009KT 4500 -SN SCT014 M05/M07 Q1015=
201002130850 METAR ESMX 130850Z 01010KT 2900 -SN FEW027 M05/M07 Q1015=
201002130820 METAR ESMX 130820Z 01010KT 3700 -SN FEW022 M05/M07 Q1015=
201002130750 METAR ESMX 130750Z 02010KT 3200 -SN FEW010 M05/M07 Q1015=
201002130720 METAR COR ESMX 130720Z 01010KT 4000 -SN FEW010 M06/M07 Q1015=
201002130650 METAR ESMX 130650Z AUTO 02010KT 2300NDV -SN FEW007/// M06/M07 Q1015=
201002130620 METAR ESMX 130620Z AUTO 02010KT 2600NDV -SN FEW009/// M06/M07 Q1016=
201002130550 METAR ESMX 130550Z AUTO 02010KT 3000NDV -SN NCD M06/M07 Q1016=
201002130520 METAR ESMX 130520Z AUTO 02010KT 3300NDV -SN NCD M06/M07 Q1016=
201002130450 METAR ESMX 130450Z AUTO 02010KT 2100NDV -SN FEW007/// M06/M07 Q1016=
201002130420 METAR ESMX 130420Z AUTO 02010KT 2000NDV -SN NCD M06/M07 Q1016=
201002130350 METAR ESMX 130350Z AUTO 36011KT 1800NDV -SN FEW006/// M05/M07 Q1016=
201002130320 METAR ESMX 130320Z AUTO 02011KT 1700NDV -SN FEW013/// M05/M07 Q1016=
201002130250 METAR ESMX 130250Z AUTO 01011KT 2600NDV -SN FEW008/// M05/M07 Q1016=
201002130220 METAR ESMX 130220Z AUTO 01011KT 1600NDV -SN FEW006/// M05/M07 Q1016=
201002130150 METAR ESMX 130150Z AUTO 01012KT 1500NDV -SN FEW007/// M05/M07 Q1017=
201002130120 METAR ESMX 130120Z AUTO 02013KT 1600NDV -SN FEW006/// SCT014/// M05/M06 Q1017=
201002130050 METAR ESMX 130050Z AUTO 01014KT 2100NDV -SN FEW019/// BKN022/// M05/M06 Q1017=
201002130020 METAR ESMX 130020Z AUTO 36012KT 1800NDV -SN FEW006/// M05/M06 Q1017=
201002122350 METAR ESMX 122350Z AUTO 01013KT 1300NDV R01/P2000N R19/P2000N -SN BKN005/// M05/M06 Q1017=
201002122320 METAR ESMX 122320Z AUTO 01011KT 1300NDV R01/P2000N R19/P2000N -SN BKN006/// OVC008/// M04/M05 Q1018=
201002122250 METAR ESMX 122250Z AUTO 01010KT 1300NDV R01/P2000N R19/P2000N SG SCT006/// M04/M06 Q1018=
201002122220 METAR ESMX 122220Z AUTO 02011KT 2300NDV SG FEW020/// M04/M06 Q1018=
201002122150 METAR ESMX 122150Z 01012KT 3600 -SN FEW015 M04/M06 Q1018=
201002122120 METAR ESMX 122120Z 01010KT 5000 -SN FEW016 SCT021 M04/M06 Q1018=
201002122050 METAR ESMX 122050Z 02012KT 8000 -SN FEW017 BKN019 BKN024 M04/M07 Q1019=
201002122020 METAR ESMX 122020Z 02014KT 340V040 9999 -SN OVC016 M04/M07 Q1019=
201002121950 METAR ESMX 121950Z 02014KT 350V050 9999 BKN016 OVC020 M04/M07 Q1019=
201002121920 METAR ESMX 121920Z 01014KT 9999 BKN015 M04/M07 Q1019=
201002121850 METAR ESMX 121850Z 03014G24KT 360V060 9999 BKN015 M04/M07 Q1019=
201002121820 METAR ESMX 121820Z 02015G25KT 9999 OVC014 M04/M07 Q1019=
201002121750 METAR ESMX 121750Z 03014KT 350V060 9999 FEW012 OVC014 M04/M07 Q1019=
201002121720 METAR ESMX 121720Z 02014KT 9999 FEW010 OVC012 M04/M06 Q1019=
201002121650 METAR ESMX 121650Z 02014KT 9999 -SN OVC009 M04/M06 Q1019=
201002121620 METAR ESMX 121620Z 03015G26KT 340V050 9999 OVC008 M04/M06 Q1020=
201002121550 METAR ESMX 121550Z 02015KT 340V060 9999 BKN008 M05/M06 Q1020=
201002121520 METAR ESMX 121520Z 02015KT 340V070 9999 OVC007 M05/M06 Q1020=
201002121450 METAR ESMX 121450Z 02017KT 340V050 9999 OVC007 M05/M06 Q1019=
201002121420 METAR ESMX 121420Z 02015KT 9999 OVC008 M05/M07 Q1019=
201002121320 METAR ESMX 121320Z 03012KT 360V060 8000 BR OVC006 M05/M06 Q1020=
201002121250 METAR ESMX 121250Z 03012KT 9999 OVC007 M05/M07 Q1020=
201002121220 METAR ESMX 121220Z 03010KT 350V070 9999 OVC008 M06/M08 Q1020=
201002121150 METAR ESMX 121150Z 04009KT 010V070 9999 OVC009 M06/M08 Q1020=
201002121050 METAR ESMX 121050Z 04013KT 010V070 9999 BKN010 M06/M09 Q1020=
201002121020 METAR ESMX 121020Z 03012KT 9999 OVC009 M07/M09 Q1020=
201002120950 METAR ESMX 120950Z 02011KT 350V060 9999 OVC008 M07/M09 Q1020=
201002120920 METAR ESMX 120920Z 04010KT 9999 OVC008 M07/M09 Q1020=
201002120850 METAR ESMX 120850Z 03013KT 9999 OVC008 M07/M09 Q1020=
201002120820 METAR ESMX 120820Z 03010KT 9999 OVC007 M07/M09 Q1019=
201002120750 METAR ESMX 120750Z 04010KT 9999 OVC007 M07/M09 Q1019=
201002120720 METAR ESMX 120720Z 03010KT 010V070 9999 OVC007 M08/M09 Q1019=
201002120650 METAR ESMX 120650Z 01010KT 9999 OVC007 M08/M09 Q1018=
201002120620 METAR ESMX 120620Z 02009KT 9999 OVC007 M08/M09 Q1018=
201002120550 METAR ESMX 120550Z 02008KT 9999 OVC006 M08/M09 Q1018=
201002120520 METAR ESMX 120520Z 02008KT 9999 OVC005 M09/M10 Q1018=
201002120450 METAR ESMX 120450Z 02007KT 360V060 9999 OVC005 M09/M10 Q1018=
201002120420 METAR ESMX 120420Z AUTO 01008KT 7000NDV IC OVC005/// M09/M10 Q1018=
201002120350 METAR ESMX 120350Z AUTO 01011KT 4400NDV BR OVC004/// M09/M10 Q1018=
201002120320 METAR ESMX 120320Z AUTO 02012KT 9999NDV OVC005/// M09/M10 Q1018=
201002120250 METAR ESMX 120250Z AUTO 02011KT 9999NDV OVC007/// M08/M09 Q1018=
201002120220 METAR ESMX 120220Z AUTO 01008KT 9999NDV OVC007/// M08/M10 Q1018=
201002120150 METAR ESMX 120150Z AUTO 02007KT 9999NDV OVC007/// M08/M10 Q1019=
201002120120 METAR ESMX 120120Z AUTO 02007KT 360V060 9999NDV OVC007/// M09/M10 Q1019=
201002120050 METAR ESMX 120050Z AUTO 04007KT 9999NDV OVC007/// M08/M10 Q1019=
201002120020 METAR ESMX 120020Z 04006KT 9999 OVC008 M08/M10 Q1019=
201002112350 METAR ESMX 112350Z 03008KT 9999 BKN009 M07/M09 Q1019=
201002112320 METAR ESMX 112320Z 01007KT 9999 OVC010 M07/M09 Q1019=
201002112250 METAR ESMX 112250Z 01007KT 9999 OVC011 M07/M09 Q1019=
201002112220 METAR ESMX 112220Z 04007KT 9999 OVC011 M06/M09 Q1019=
201002112150 METAR ESMX 112150Z 03007KT 9999 BKN011 M06/M08 Q1019=
201002112120 METAR ESMX 112120Z 05007KT 020V080 9999 OVC011 M06/M08 Q1019=
201002112050 METAR ESMX 112050Z 05008KT 010V090 9999 OVC011 M05/M08 Q1019=
201002112020 METAR ESMX 112020Z 04006KT 9999 OVC012 M05/M08 Q1019=
201002111950 METAR ESMX 111950Z 03005KT 9999 OVC012 M05/M08 Q1019=
201002111920 METAR ESMX 111920Z 06007KT 020V100 9999 OVC013 M05/M07 Q1019=
201002111850 METAR ESMX 111850Z 06007KT 010V110 9999 OVC013 M05/M07 Q1019=
201002111820 METAR ESMX 111820Z 04007KT 9999 OVC014 M05/M07 Q1019=
201002111750 METAR ESMX 111750Z 04007KT 360V070 9999 OVC015 M04/M07 Q1019=
201002111720 METAR ESMX 111720Z 04008KT 020V080 9999 OVC015 M04/M07 Q1019=
201002111650 METAR ESMX 111650Z 04007KT 020V080 9999 OVC016 M04/M07 Q1019=
201002111620 METAR ESMX 111620Z 03007KT 010V070 9999 OVC016 M04/M07 Q1019=
201002111550 METAR ESMX 111550Z 05006KT 020V090 9999 OVC016 M04/M07 Q1019=
201002111520 METAR ESMX 111520Z 03007KT 9999 OVC016 M04/M07 Q1019=
201002111450 METAR ESMX 111450Z 05006KT 010V100 9999 OVC016 M04/M07 Q1019=
201002111420 METAR ESMX 111420Z 03007KT 350V060 9999 OVC016 M04/M07 Q1019=
201002111350 METAR ESMX 111350Z 05005KT 020V100 9999 OVC016 M04/M07 Q1019=
201002111320 METAR ESMX 111320Z 06006KT 020V100 9999 OVC015 M04/M07 Q1019=
201002111250 METAR ESMX 111250Z 03006KT 350V060 9999 OVC016 M04/M07 Q1019=
201002111220 METAR ESMX 111220Z 01008KT 9999 OVC016 M04/M07 Q1019=
201002111150 METAR ESMX 111150Z 03007KT 340V060 9999 OVC017 M04/M07 Q1019=
201002111120 METAR ESMX 111120Z 01008KT 9999 OVC017 M04/M07 Q1019=
201002111050 METAR ESMX 111050Z 01007KT 9999 OVC017 M04/M07 Q1020=
201002111020 METAR ESMX 111020Z 02006KT 9999 OVC017 M04/M07 Q1020=
201002110950 METAR ESMX 110950Z 01008KT 9999 OVC017 M04/M07 Q1020=
201002110920 METAR ESMX 110920Z 01008KT 9999 OVC017 M05/M07 Q1020=
201002110850 METAR ESMX 110850Z 36006KT 9999 OVC017 M05/M08 Q1020=
201002110820 METAR ESMX 110820Z 01006KT 9999 OVC016 M05/M08 Q1020=
201002110750 METAR ESMX 110750Z 02006KT 9999 OVC016 M05/M08 Q1020=
201002110720 METAR ESMX 110720Z 01006KT 9999 OVC018 M05/M08 Q1020=
201002110650 METAR ESMX 110650Z 01007KT 9999 OVC018 M05/M08 Q1019=
201002110620 METAR ESMX 110620Z 02006KT 9999 OVC018 M05/M08 Q1019=
201002110550 METAR ESMX 110550Z 01007KT 9999 OVC018 M06/M08 Q1019=
201002110520 METAR ESMX 110520Z 01005KT 9999 -SG OVC020 M06/M07 Q1019=
201002110450 METAR ESMX 110450Z 36006KT 9999 OVC019 M06/M07 Q1019=
201002110420 METAR ESMX 110420Z AUTO 36006KT 9999NDV OVC020/// M06/M07 Q1019=
201002110350 METAR ESMX 110350Z AUTO 36006KT 9999NDV OVC020/// M06/M07 Q1019=
201002110320 METAR ESMX 110320Z AUTO 01004KT 9999NDV IC OVC019/// M06/M07 Q1019 RESG=
201002110250 METAR ESMX 110250Z AUTO 36006KT 9999NDV -SN OVC019/// M05/M07 Q1019 RESG=
201002110220 METAR ESMX 110220Z AUTO 01007KT 9999NDV -SN OVC018/// M05/M07 Q1019=
201002110150 METAR ESMX 110150Z AUTO 01005KT 9999NDV OVC019/// M05/M07 Q1019=
201002110120 METAR ESMX 110120Z AUTO 36006KT 9999NDV IC FEW017/// OVC021/// M05/M07 Q1019=
201002110050 METAR ESMX 110050Z AUTO 03007KT 9999NDV IC OVC020/// M05/M07 Q1019=
201002110020 METAR ESMX 110020Z 02006KT 9999 -SG SCT010 BKN020 M05/M07 Q1019=
201002102350 METAR ESMX 102350Z 02006KT 9999 -SN FEW012 OVC020 M05/M07 Q1019 RESG=
201002102320 METAR ESMX 102320Z 01007KT 9999 -SG SCT011 BKN020 M05/M07 Q1019 RESG=
201002102250 METAR ESMX 102250Z 02006KT 9999 -SN FEW012 OVC020 M05/M07 Q1019 RESG=
201002102220 METAR ESMX 102220Z 01006KT 9999 -SN FEW012 SCT016 OVC021 M05/M06 Q1019=
201002102150 METAR ESMX 102150Z 01004KT 9999 -SN FEW014 SCT017 BKN025 M05/M07 Q1019=
201002102120 METAR ESMX 102120Z 01005KT 9999 SG FEW017 OVC022 M04/M07 Q1019=
201002102050 METAR ESMX 102050Z 04005KT 360V080 9999 -SN FEW021 OVC025 M04/M07 Q1019=
201002102020 METAR ESMX 102020Z 05006KT 020V080 9999 -SN FEW018 OVC024 M04/M06 Q1019=
201002101950 METAR ESMX 101950Z 04007KT 010V070 9999 SG FEW019 OVC023 M04/M07 Q1019=
201002101920 METAR ESMX 101920Z 04009KT 010V070 9999 -SN FEW019 OVC023 M04/M07 Q1019=
201002101850 METAR ESMX 101850Z 05007KT 020V100 9999 -SN SCT018 BKN025 M04/M07 Q1018=
201002101820 METAR ESMX 101820Z 05006KT 020V090 9999 -SG FEW011 SCT015 BKN025 M04/M06 Q1018=
201002101750 METAR ESMX 101750Z 03005KT 9999 -SG FEW011 SCT015 BKN020 M05/M06 Q1018=
201002101720 METAR ESMX 101720Z 02007KT 9999 -SG FEW010 BKN025 M04/M07 Q1018=
201002101650 METAR ESMX 101650Z 03007KT 360V070 9999 -SG FEW020 BKN027 M04/M07 Q1017=
201002101620 METAR ESMX 101620Z 04008KT 9999 FEW016 SCT032 M04/M07 Q1017=
201002101550 METAR ESMX 101550Z 03008KT 360V060 9999 SCT016 BKN024 M03/M06 Q1017=
201002101520 METAR ESMX 101520Z 03009KT 9999 -SHSN FEW015 BKN023 M03/M06 Q1017=
201002101450 METAR ESMX 101450Z 04009KT 010V080 9999 SCT015 SCT030 M03/M06 Q1017=
201002101420 METAR ESMX 101420Z 05009KT 020V080 9999 SCT015 BKN029 M03/M06 Q1017=
201002101350 METAR ESMX 101350Z 04008KT 010V070 9999 SCT017 BKN024 M03/M06 Q1017=
201002101320 METAR ESMX 101320Z 04010KT 9999 FEW018 BKN021 BKN029 M03/M06 Q1017=
201002101250 METAR ESMX 101250Z 03009KT 9999 FEW015 SCT019 BKN024 M03/M06 Q1017=
201002101220 METAR ESMX 101220Z 05010KT 020V080 9999 FEW014 BKN017 OVC020 M03/M06 Q1017=
201002101150 METAR ESMX 101150Z 05009KT 020V080 9999 FEW016 BKN021 M02/M06 Q1016=
201002101120 METAR ESMX 101120Z 04010KT 9999 SCT020 BKN024 M02/M06 Q1016=
201002101050 METAR ESMX 101050Z 05008KT 020V080 9999 BKN014 BKN021 M03/M06 Q1016=
201002101020 METAR ESMX 101020Z 05009KT 020V100 9999 FEW011 OVC014 M03/M06 Q1016=
201002100950 METAR ESMX 100950Z 05007KT 020V100 9999 SCT011 BKN016 M03/M05 Q1016=
201002100920 METAR ESMX 100920Z 04009KT 350V070 9999 FEW011 BKN013 M03/M06 Q1016=
201002100850 METAR ESMX 100850Z 04009KT 010V080 9999 OVC009 M04/M05 Q1016=
201002100820 METAR ESMX 100820Z 02008KT 9999 SG OVC008 M04/M05 Q1015=
201002100750 METAR ESMX 100750Z 02008KT 350V060 9999 -SN OVC007 M04/M05 Q1015 RESG=
201002100720 METAR ESMX 100720Z 02008KT 9999 -SN OVC007 M04/M06 Q1015=
201002100650 METAR ESMX 100650Z 03008KT 350V060 9999 OVC008 M04/M06 Q1014=
201002100620 METAR ESMX 100620Z 02006KT 9999 OVC009 M04/M06 Q1014=
201002100550 METAR ESMX 100550Z 02006KT 9999 OVC008 M05/M06 Q1014=
201002100520 METAR ESMX 100520Z 01005KT 9999 -SN BKN007 OVC023 M05/M06 Q1014=
201002100450 METAR ESMX 100450Z 03005KT 9999 SCT006 BKN015 OVC024 M05/M06 Q1014=
201002100420 METAR ESMX 100420Z AUTO 03005KT 360V060 9999NDV OVC004/// M05/M06 Q1014=
201002100350 METAR ESMX 100350Z AUTO 04007KT 010V070 9999NDV OVC005/// M05/M06 Q1014=
201002100320 METAR ESMX 100320Z AUTO 03007KT 9999NDV SCT006/// OVC022/// M05/M06 Q1013=
201002100250 METAR ESMX 100250Z AUTO 01007KT 9999NDV FEW007/// OVC020/// M05/M06 Q1013=
201002100220 METAR ESMX 100220Z AUTO 03006KT 350V060 9999NDV OVC007/// M05/M07 Q1013=
201002100150 METAR ESMX 100150Z AUTO 02009KT 9999NDV OVC006/// M05/M06 Q1013=
201002100120 METAR ESMX 100120Z AUTO 02007KT 350V060 9999NDV OVC005/// M05/M06 Q1013=
201002100050 METAR ESMX 100050Z AUTO 03005KT 360V070 9999NDV OVC006/// M05/M06 Q1013=
201002100020 METAR ESMX 100020Z 03005KT 360V070 9999 OVC006 M05/M05 Q1013=
201002092350 METAR ESMX 092350Z 04005KT 010V080 9999 OVC007 M05/M06 Q1013=
201002092250 METAR ESMX 092250Z 06005KT 010V110 9999 OVC007 M05/M06 Q1012=
201002092220 METAR ESMX 092220Z 04003KT 350V090 9999 OVC008 M05/M06 Q1012=
201002092150 METAR ESMX 092150Z 04003KT 360V080 9999 FEW007 OVC009 M05/M06 Q1012=
201002092120 METAR ESMX 092120Z 04003KT 9999 FEW006 OVC007 M05/M06 Q1012=
201002092050 METAR ESMX 092050Z 06004KT 020V110 9999 BKN005 OVC007 M05/M06 Q1012=
201002092020 METAR ESMX 092020Z 03003KT 350V070 9999 OVC005 M05/M06 Q1012=
201002091950 METAR ESMX 091950Z 08003KT 030V150 9999 OVC005 M05/M06 Q1011=
201002091920 METAR ESMX 091920Z 05003KT 360V100 9999 OVC005 M05/M06 Q1011=
201002091850 METAR ESMX 091850Z 04004KT 010V070 9999 OVC005 M05/M06 Q1011=
201002091820 METAR ESMX 091820Z 03006KT 9999 OVC005 M05/M06 Q1011=
201002091750 METAR ESMX 091750Z 06004KT 360V110 9999 OVC006 M05/M06 Q1011=
201002091720 METAR ESMX 091720Z 02004KT 350V050 9999 OVC006 M05/M06 Q1011=
201002091650 METAR ESMX 091650Z 02003KT 9999 OVC006 M05/M06 Q1011=
201002091620 METAR ESMX 091620Z 05003KT 9999 OVC006 M05/M06 Q1010=
201002091550 METAR ESMX 091550Z 03005KT 350V080 9999 OVC005 M05/M06 Q1010=
201002091520 METAR ESMX 091520Z 05004KT 6000 OVC006 M05/M06 Q1010=
201002091450 METAR ESMX 091450Z VRB02KT 9999 OVC006 M05/M05 Q1010=
201002091420 METAR ESMX 091420Z 02004KT 340V060 9999 OVC006 M05/M06 Q1010=
201002091350 METAR ESMX 091350Z 34003KT 280V050 9999 OVC006 M05/M05 Q1009=
201002091320 METAR ESMX 091320Z 35005KT 9999 OVC006 M04/M05 Q1009=
201002091250 METAR ESMX 091250Z VRB02KT 9999 OVC005 M04/M05 Q1009=
201002091220 METAR ESMX 091220Z 02003KT 9999 OVC006 M04/M05 Q1009=
201002091150 METAR ESMX 091150Z 01004KT 9999 OVC005 M05/M05 Q1009=
201002091120 METAR ESMX 091120Z 34004KT 9999 OVC005 M05/M05 Q1010=
201002091050 METAR ESMX 091050Z 33003KT 9999 OVC005 M05/M05 Q1010=
201002091020 METAR ESMX 091020Z 35003KT 300V020 9999 OVC006 M05/M06 Q1010=
201002090950 METAR ESMX 090950Z 30004KT 9999 OVC005 M05/M05 Q1010=
201002090920 METAR ESMX 090920Z 29004KT 9999 OVC005 M05/M05 Q1009=
201002090850 METAR ESMX 090850Z 33004KT 290V360 9999 OVC004 M05/M05 Q1009=
201002090820 METAR ESMX 090820Z 30004KT 270V330 8000 BR OVC004 M05/M05 Q1009=
201002090750 METAR ESMX 090750Z 29003KT 260V320 9000 BR OVC004 M05/M05 Q1009=
201002090720 METAR ESMX 090720Z 30003KT 8000 BR OVC004 M05/M05 Q1009=
201002090650 METAR ESMX 090650Z 32006KT 9000 BR OVC003 M05/M05 Q1009=
201002090620 METAR ESMX 090620Z 30003KT 260V330 8000 BR OVC003 M05/M05 Q1008=
201002090550 METAR ESMX 090550Z 29005KT 260V330 9000 BR OVC003 M05/M05 Q1008=
201002090520 METAR ESMX 090520Z 29005KT 260V320 8000 BR OVC003 M05/M05 Q1008=
201002090450 METAR ESMX 090450Z 29005KT 8000 BR OVC003 M05/M05 Q1008=
201002090420 METAR ESMX 090420Z AUTO 30004KT 9999NDV OVC003/// M05/M05 Q1009=
201002090350 METAR ESMX 090350Z AUTO 30003KT 270V330 9999NDV OVC003/// M05/M05 Q1009=
201002090320 METAR ESMX 090320Z AUTO 30003KT 9999NDV OVC004/// M05/M05 Q1009=
201002090250 METAR ESMX 090250Z AUTO 31003KT 280V350 9999NDV OVC004/// M05/M05 Q1009=
201002090220 METAR ESMX 090220Z AUTO 31003KT 9999NDV OVC004/// M05/M05 Q1009=
201002090150 METAR ESMX 090150Z AUTO 31003KT 270V340 9999NDV BR OVC004/// M05/M05 Q1009=
201002090120 METAR ESMX 090120Z AUTO 32004KT 290V010 9000NDV BR OVC004/// M05/M05 Q1009=
201002090050 METAR ESMX 090050Z AUTO 31003KT 270V340 7000NDV BR OVC004/// M05/M05 Q1009=
201002090020 METAR ESMX 090020Z 30003KT 260V340 6000 BR OVC004 M05/M05 Q1009=
201002082350 METAR ESMX 082350Z VRB01KT 5000 BR OVC003 M05/M06 Q1009=
201002082320 METAR ESMX 082320Z 28002KT 4500 BR OVC003 M05/M06 Q1009=
201002082250 METAR ESMX 082250Z 28002KT 4000 BR OVC002 M05/M06 Q1009=
201002082220 METAR ESMX 082220Z VRB02KT 4000 BR OVC002 M05/M06 Q1010=
201002082150 METAR ESMX 082150Z 27002KT 5000 BR OVC002 M05/M06 Q1010=
201002082120 METAR ESMX 082120Z 27002KT 5000 BR OVC002 M05/M06 Q1010=
201002082050 METAR ESMX 082050Z 28002KT 5000 BR OVC002 M05/M06 Q1010=
201002082020 METAR ESMX 082020Z VRB02KT 5000 BR OVC002 M06/M06 Q1010=
201002081950 METAR ESMX 081950Z 29003KT 5000 BR OVC002 M06/M06 Q1011=
201002081920 METAR ESMX 081920Z 27003KT 250V310 8000 BR OVC002 M06/M07 Q1011=
201002081850 METAR ESMX 081850Z 30003KT 9999 OVC003 M06/M07 Q1011=
201002081820 METAR ESMX 081820Z 28003KT 9999 OVC005 M06/M07 Q1011=
201002081750 METAR ESMX 081750Z 29003KT 260V330 9999 OVC005 M06/M07 Q1011=
201002081720 METAR ESMX 081720Z 29004KT 240V330 9999 OVC005 M06/M07 Q1012=
201002081650 METAR ESMX 081650Z 29004KT 260V320 9999 OVC005 M06/M07 Q1012=
201002081620 METAR ESMX 081620Z 28004KT 9999 OVC005 M06/M07 Q1012=
201002081550 METAR ESMX 081550Z 27003KT 9999 OVC007 M06/M08 Q1013=
201002081520 METAR ESMX 081520Z 24003KT 9999 OVC010 M07/M08 Q1013=
201002081450 METAR ESMX 081450Z 22003KT 9999 OVC006 M07/M08 Q1013=
201002081420 METAR ESMX 081420Z 27003KT 9999 OVC006 M07/M08 Q1013=
201002081350 METAR ESMX 081350Z 28004KT 250V310 9999 OVC005 M06/M07 Q1013=
201002081320 METAR ESMX 081320Z 30005KT 9999 OVC004 M06/M07 Q1013=
201002081250 METAR ESMX 081250Z 28004KT 240V310 9999 OVC003 M07/M08 Q1014=
201002081220 METAR ESMX 081220Z 26003KT 220V320 9999 OVC003 M07/M08 Q1014=
201002081150 METAR ESMX 081150Z 25003KT 9999 OVC003 M07/M08 Q1014=
201002081120 METAR ESMX 081120Z VRB02KT 9999 OVC003 M07/M08 Q1014=
201002081050 METAR ESMX 081050Z 28003KT 9000 BR M07/M08 Q1015=
201002081020 METAR ESMX 081020Z 29003KT 250V320 8000 BR OVC003 M08/M09 Q1015=
201002080950 METAR ESMX 080950Z 27003KT 8000 BR OVC002 M08/M09 Q1015=
201002080920 METAR ESMX 080920Z VRB02KT 9000 BR OVC004 M08/M09 Q1016=
201002080850 METAR ESMX 080850Z VRB02KT 9000 BR OVC002 M08/M09 Q1016=
201002080820 METAR ESMX 080820Z 28003KT 230V300 6000 BR OVC003 M08/M09 Q1016=
201002080750 METAR ESMX 080750Z 30004KT 4000 BR OVC003 M08/M09 Q1016=
201002080720 METAR ESMX 080720Z 27003KT 2500 OVC002 M08/M09 Q1017=
201002080650 METAR ESMX 080650Z 27003KT 240V300 1100 R01/P2000D R19/P2000N BR OVC002 M08/M09 Q1017=
201002080620 METAR ESMX 080620Z 29003KT 250V330 1200 R01/P2000N R19/P2000N OVC002 M08/M09 Q1017=
201002080550 METAR ESMX 080550Z 29004KT 1500 R01/P2000N R19/P2000N BR OVC002 M08/M09 Q1017=
201002080520 METAR ESMX 080520Z 28003KT 250V310 1500 BR OVC001 M08/M09 Q1017=
201002080450 METAR ESMX 080450Z 28004KT 240V330 1200 R19/P2000N BR OVC001 M07/M08 Q1017=
201002080420 METAR ESMX 080420Z AUTO 29004KT 240V330 0900NDV R01/P2000N R19/P2000N FZFG VV002 M07/M08 Q1018=
201002080350 METAR ESMX 080350Z AUTO 26004KT 0700NDV R01/P2000N R19/P2000N FZFG OVC001/// M07/M08 Q1018=
201002080320 METAR ESMX 080320Z AUTO 28004KT 250V310 0900NDV R01/P2000N R19/P2000N FZFG OVC001/// M07/M08 Q1018=
201002080250 METAR ESMX 080250Z AUTO 27004KT 240V300 0900NDV R01/P2000N R19/P2000N FZFG OVC001/// M07/M08 Q1019=
201002080220 METAR ESMX 080220Z AUTO 27004KT 250V310 1700NDV BR OVC001/// M07/M08 Q1019=
201002080150 METAR ESMX 080150Z AUTO 28003KT 250V330 1800NDV BR OVC001/// M07/M08 Q1019=
201002080120 METAR ESMX 080120Z 28004KT 250V320 1600 BR OVC001 M07/M08 Q1020=
201002080050 METAR ESMX 080050Z 29004KT 260V320 2200 BR OVC001 M07/M08 Q1020=
201002080020 METAR COR ESMX 080020Z 27004KT 250V310 1500 BR OVC001 M08/M08 Q1021=
201002072350 METAR ESMX 072350Z 25003KT 1200 BR OVC001 M08/M08 Q1021=
201002072320 METAR ESMX 072320Z 27004KT 1200 3000N BR OVC001 M07/M08 Q1021=
201002072250 METAR ESMX 072250Z 30003KT 260V360 4000 BR OVC001 M07/M08 Q1021=
201002072220 METAR ESMX 072220Z 30003KT 240V330 4700 BR OVC002 M07/M08 Q1021=
201002072150 METAR ESMX 072150Z 26003KT 230V290 6000 BR OVC002 M07/M08 Q1022=
201002072120 METAR ESMX 072120Z 25003KT 230V290 9999 OVC003 M07/M08 Q1022=
201002072050 METAR ESMX 072050Z 27003KT 9999 OVC003 M07/M08 Q1022=
201002072020 METAR ESMX 072020Z 33003KT 290V360 9999 OVC004 M07/M08 Q1022=
201002071950 METAR ESMX 071950Z VRB02KT 9999 OVC005 M07/M08 Q1022=
201002071920 METAR ESMX 071920Z VRB02KT 9999 OVC006 M07/M08 Q1023=
201002071850 METAR ESMX 071850Z 33003KT 290V350 9999 OVC006 M07/M08 Q1023=
201002071820 METAR ESMX 071820Z 34004KT 280V020 9999 OVC006 M07/M08 Q1023=
201002071750 METAR ESMX 071750Z 36005KT 9999 OVC007 M07/M08 Q1023=
201002071720 METAR ESMX 071720Z 36005KT 330V040 9999 OVC007 M06/M08 Q1023=
201002071650 METAR ESMX 071650Z 36005KT 9999 OVC007 M06/M08 Q1023=
201002071620 METAR ESMX 071620Z 36004KT 320V040 9999 OVC007 M06/M08 Q1024=
201002071550 METAR ESMX 071550Z 34004KT 290V010 9999 OVC007 M06/M08 Q1024=
201002071520 METAR ESMX 071520Z 35004KT 320V030 9999 OVC006 M06/M08 Q1024=
201002071450 METAR ESMX 071450Z 34005KT 300V020 9999 OVC006 M06/M07 Q1024=
201002071420 METAR ESMX 071420Z 33004KT 270V020 9999 OVC007 M06/M07 Q1024=
201002071350 METAR ESMX 071350Z 01003KT 320V060 9999 OVC007 M06/M08 Q1024=
201002071320 METAR ESMX 071320Z 36004KT 9999 OVC007 M06/M07 Q1025=
201002071250 METAR ESMX 071250Z AUTO 01003KT 9999NDV OVC007/// M06/M07 Q1025=
201002071220 METAR ESMX 071220Z AUTO VRB02KT 9999NDV OVC007/// M05/M07 Q1025=
201002071150 METAR ESMX 071150Z AUTO VRB02KT 9999NDV OVC008/// M06/M08 Q1025=
201002071120 METAR ESMX 071120Z AUTO VRB02KT 9999NDV OVC008/// M06/M08 Q1025=
201002071050 METAR ESMX 071050Z AUTO 36001KT 9999NDV OVC008/// M06/M08 Q1025=
201002071020 METAR ESMX 071020Z AUTO VRB01KT 9999NDV OVC008/// M05/M07 Q1025=
201002070950 METAR ESMX 070950Z AUTO VRB01KT 9999NDV OVC006/// M05/M07 Q1026=
201002070920 METAR ESMX 070920Z AUTO VRB01KT 9999NDV OVC006/// M06/M07 Q1026=
201002070850 METAR ESMX 070850Z AUTO VRB01KT 9999NDV OVC006/// M06/M08 Q1026=
201002070820 METAR ESMX 070820Z AUTO VRB01KT 9999NDV OVC006/// M06/M08 Q1026=
201002070750 METAR ESMX 070750Z AUTO VRB01KT 9999NDV OVC006/// M06/M08 Q1026=
201002070720 METAR ESMX 070720Z AUTO 00000KT 9999NDV OVC006/// M06/M08 Q1025=
201002070650 METAR ESMX 070650Z AUTO VRB02KT 9999NDV OVC006/// M06/M08 Q1026=
201002070620 METAR ESMX 070620Z AUTO VRB02KT 9999NDV OVC006/// M06/M08 Q1026=
201002070550 METAR ESMX 070550Z AUTO 01003KT 9999NDV OVC006/// M06/M07 Q1026=
201002070520 METAR ESMX 070520Z AUTO VRB02KT 9999NDV OVC005/// M06/M07 Q1026=
201002070450 METAR ESMX 070450Z AUTO 03004KT 350V070 9999NDV OVC005/// M06/M07 Q1026=
201002070420 METAR ESMX 070420Z AUTO VRB02KT 9999NDV OVC005/// M06/M07 Q1026=
201002070350 METAR ESMX 070350Z AUTO 06003KT 010V120 9999NDV OVC005/// M06/M07 Q1026=
201002070320 METAR ESMX 070320Z AUTO VRB01KT 9999NDV OVC005/// M06/M07 Q1026=
201002070250 METAR ESMX 070250Z AUTO VRB02KT 9999NDV OVC005/// M06/M07 Q1026=
201002070220 METAR ESMX 070220Z AUTO VRB02KT 9999NDV OVC005/// M06/M07 Q1026=
201002070150 METAR ESMX 070150Z AUTO VRB02KT 9999NDV OVC005/// M06/M07 Q1026=
201002070120 METAR ESMX 070120Z AUTO 03003KT 350V070 9999NDV OVC005/// M06/M07 Q1026=
201002070050 METAR ESMX 070050Z AUTO 01003KT 340V050 9999NDV OVC005/// M05/M07 Q1026=
201002070020 METAR ESMX 070020Z AUTO 04003KT 010V080 9999NDV OVC005/// M05/M07 Q1026=
201002062350 METAR ESMX 062350Z AUTO VRB02KT 9999NDV OVC005/// M05/M06 Q1026=
201002062320 METAR ESMX 062320Z AUTO 04003KT 010V070 9999NDV OVC006/// M05/M06 Q1026=
201002062250 METAR ESMX 062250Z AUTO VRB02KT 9999NDV OVC006/// M05/M06 Q1026=
201002062220 METAR ESMX 062220Z AUTO VRB02KT 9999NDV OVC006/// M05/M06 Q1026=
201002062150 METAR ESMX 062150Z AUTO VRB02KT 9999NDV OVC006/// M05/M06 Q1026=
201002062120 METAR ESMX 062120Z AUTO 10003KT 040V170 9999NDV OVC007/// M05/M06 Q1026=
201002062050 METAR ESMX 062050Z AUTO 11003KT 040V160 9999NDV OVC007/// M05/M06 Q1026=
201002062020 METAR ESMX 062020Z AUTO 09004KT 050V130 9999NDV OVC007/// M05/M06 Q1026=
201002061950 METAR ESMX 061950Z AUTO 12005KT 080V160 9999NDV OVC007/// M05/M06 Q1026=
201002061920 METAR ESMX 061920Z AUTO 08004KT 020V120 9999NDV OVC007/// M04/M06 Q1025=
201002061850 METAR ESMX 061850Z AUTO VRB02KT 9999NDV OVC008/// M04/M06 Q1025=
201002061820 METAR ESMX 061820Z AUTO 08004KT 020V180 9999NDV OVC008/// M04/M06 Q1025=
201002061750 METAR ESMX 061750Z AUTO 07005KT 020V120 9999NDV OVC008/// M04/M06 Q1025=
201002061720 METAR ESMX 061720Z AUTO 08004KT 010V130 9999NDV OVC008/// M04/M06 Q1025=
201002061650 METAR ESMX 061650Z AUTO 09005KT 040V120 9999NDV OVC009/// M04/M06 Q1025=
201002061620 METAR ESMX 061620Z 09004KT 040V160 9999 OVC010 M04/M06 Q1024=
201002061550 METAR ESMX 061550Z 06005KT 020V110 9999 OVC010 M04/M06 Q1024=
201002061520 METAR ESMX 061520Z 10003KT 040V150 9999 OVC010 M03/M06 Q1024=
201002061450 METAR ESMX 061450Z 06004KT 020V120 9999 OVC010 M03/M05 Q1024=
201002061420 METAR ESMX 061420Z AUTO 10004KT 020V170 9999NDV OVC010/// M03/M05 Q1024=
201002061350 METAR ESMX 061350Z AUTO 11005KT 060V160 9999NDV OVC010/// M03/M05 Q1024=
201002061320 METAR ESMX 061320Z AUTO 10005KT 060V160 9999NDV OVC010/// M03/M05 Q1024=
201002061250 METAR ESMX 061250Z AUTO 09006KT 030V170 9999NDV OVC009/// M03/M05 Q1024=
201002061220 METAR ESMX 061220Z AUTO 12006KT 070V160 9999NDV OVC010/// M02/M05 Q1024=
201002061150 METAR ESMX 061150Z AUTO 10006KT 060V160 9999NDV OVC010/// M02/M05 Q1024=
201002061120 METAR ESMX 061120Z AUTO 11005KT 020V160 9999NDV OVC010/// M02/M05 Q1024=
201002061050 METAR ESMX 061050Z AUTO 10006KT 050V160 9999NDV OVC010/// M02/M05 Q1024=
201002061020 METAR ESMX 061020Z 09007KT 040V130 9999 OVC010 M02/M05 Q1024=
201002060950 METAR ESMX 060950Z 10009KT 070V150 9999 OVC010 M02/M05 Q1024=
201002060920 METAR ESMX 060920Z 10007KT 070V140 9999 OVC010 M02/M05 Q1024=
201002060850 METAR ESMX 060850Z AUTO 10007KT 030V160 9999NDV BKN010/// M02/M05 Q1024=
201002060820 METAR ESMX 060820Z AUTO 09007KT 050V150 9999NDV OVC011/// M02/M05 Q1023=
201002060750 METAR ESMX 060750Z AUTO 09007KT 030V140 9999NDV OVC011/// M02/M05 Q1023=
201002060720 METAR ESMX 060720Z AUTO 09004KT 050V130 9999NDV OVC010/// M02/M04 Q1023=
201002060650 METAR ESMX 060650Z AUTO VRB07KT 9999NDV OVC010/// M02/M05 Q1022=
201002060620 METAR ESMX 060620Z AUTO 10006KT 010V150 9999NDV OVC011/// M02/M04 Q1022=
201002060550 METAR ESMX 060550Z AUTO VRB05KT 9999NDV OVC011/// M02/M05 Q1022=
201002060520 METAR ESMX 060520Z AUTO 10006KT 050V190 9999NDV OVC011/// M02/M04 Q1022=
201002060450 METAR ESMX 060450Z AUTO 09005KT 040V140 9999NDV OVC011/// M02/M04 Q1022=
201002060420 METAR ESMX 060420Z AUTO 09007KT 030V150 9999NDV OVC011/// M02/M04 Q1022=
201002060350 METAR ESMX 060350Z AUTO 09006KT 040V140 9999NDV BKN011/// M02/M04 Q1022=
201002060320 METAR ESMX 060320Z AUTO 10005KT 050V140 9999NDV BKN010/// M02/M04 Q1022=
201002060250 METAR ESMX 060250Z AUTO 08004KT 020V180 9999NDV OVC010/// M02/M04 Q1022=
201002060220 METAR ESMX 060220Z AUTO 09004KT 060V140 9999NDV OVC010/// M02/M04 Q1022=
201002060150 METAR ESMX 060150Z AUTO 10005KT 020V140 9999NDV BR OVC011/// M02/M04 Q1022=
201002060120 METAR ESMX 060120Z AUTO 10006KT 050V160 9999NDV BR BKN011/// M02/M04 Q1022=
201002060050 METAR ESMX 060050Z AUTO 12007KT 060V170 9999NDV BR OVC010/// M02/M04 Q1022=
201002060020 METAR ESMX 060020Z AUTO 11007KT 070V170 9999NDV BR BKN010/// M02/M04 Q1022=
201002052350 METAR ESMX 052350Z AUTO 11007KT 070V160 9000NDV BR OVC010/// M02/M03 Q1022=
201002052320 METAR ESMX 052320Z AUTO 11006KT 070V150 9000NDV BR OVC010/// M02/M03 Q1022=
201002052250 METAR ESMX 052250Z AUTO 11007KT 060V160 9000NDV BR OVC010/// M02/M03 Q1022=
201002052220 METAR ESMX 052220Z AUTO 11007KT 060V180 9000NDV BR OVC010/// M02/M03 Q1022=
201002052150 METAR ESMX 052150Z AUTO 12006KT 060V170 9000NDV BR OVC009/// M02/M03 Q1022=
201002052120 METAR ESMX 052120Z AUTO 12007KT 080V170 9000NDV OVC009/// M02/M03 Q1022=
201002052020 METAR ESMX 052020Z 11005KT 050V220 9000 BR BKN009 M02/M03 Q1021=
201002051950 METAR ESMX 051950Z 11005KT 030V160 9000 BR BKN009 M01/M03 Q1021=
201002051920 METAR ESMX 051920Z 12007KT 080V170 9999 OVC009 M01/M03 Q1021=
201002051850 METAR ESMX 051850Z 12006KT 070V200 9999 BKN009 M01/M03 Q1021=
201002051820 METAR ESMX 051820Z 11008KT 060V160 9000 BR SCT010 M02/M03 Q1021=
201002051750 METAR ESMX 051750Z 11005KT 060V170 9000 BR FEW010 M02/M03 Q1021=
201002051720 METAR ESMX 051720Z 11006KT 070V170 9000 BR FEW007 M02/M03 Q1021=
201002051650 METAR ESMX 051650Z 12006KT 060V180 CAVOK M01/M03 Q1021=
201002051620 METAR ESMX 051620Z 10006KT 050V150 CAVOK M01/M03 Q1020=
201002051550 METAR ESMX 051550Z 10005KT 020V170 CAVOK M01/M03 Q1020=
201002051520 METAR ESMX 051520Z 10006KT 030V190 CAVOK 00/M03 Q1020=
201002051450 METAR ESMX 051450Z 11005KT 070V160 CAVOK 01/M02 Q1020=
201002051420 METAR ESMX 051420Z 12007KT 080V190 CAVOK 01/M02 Q1020=
201002051350 METAR ESMX 051350Z 12007KT 070V170 CAVOK 01/M02 Q1020=
201002051320 METAR ESMX 051320Z 13007KT 080V170 9999 FEW011 01/M02 Q1020=
201002051250 METAR ESMX 051250Z 13006KT 070V210 9999 FEW011 01/M02 Q1020=
201002051220 METAR ESMX 051220Z 14008G18KT 080V200 9999 BKN011 00/M02 Q1021=
201002051150 METAR ESMX 051150Z 12008KT 050V170 9999 BKN011 00/M02 Q1021=
201002051120 METAR COR ESMX 051120Z 12007KT 9999 SCT015 00/M02 Q1021=
201002051050 METAR ESMX 051050Z 12006KT 060V170 9999 FEW011 00/M02 Q1021=
201002051020 METAR ESMX 051020Z 11005KT 060V160 9999 FEW009 M01/M02 Q1021=
201002050950 METAR ESMX 050950Z 12004KT 080V170 9999 FEW007 SCT009 M02/M02 Q1021=
201002050920 METAR ESMX 050920Z 11004KT 060V170 8000 BR BKN006 BKN010 M02/M03 Q1021=
201002050850 METAR ESMX 050850Z 12003KT 060V170 8000 BR FEW006 BKN007 M03/M03 Q1021=
201002050820 METAR ESMX 050820Z 10003KT 9000 BR BKN005 BKN007 M03/M04 Q1021=
201002050750 METAR ESMX 050750Z 10003KT 9999 BKN005 M03/M04 Q1021=
201002050720 METAR ESMX 050720Z 11003KT 9999 BKN006 M03/M04 Q1021=
201002050650 METAR ESMX 050650Z 11004KT 9999 OVC005 M03/M04 Q1021=
201002050620 METAR ESMX 050620Z 11003KT 9999 OVC004 M03/M04 Q1021=
201002050550 METAR ESMX 050550Z 10003KT 9000 BR OVC004 M06/M07 Q1021=
201002050520 METAR ESMX 050520Z 09003KT 050V150 8000 BR BKN003 M04/M05 Q1021 RESG=
201002050450 METAR ESMX 050450Z VRB02KT 6000 IC BKN002 M06/M06 Q1021=
201002050020 METAR ESMX 050020Z 00000KT 7000 SCT007 M16/M18 Q1021=
201002042350 METAR ESMX 042350Z 00000KT 7000 BR MIFG NSC M16/M18 Q1021=
201002042320 METAR ESMX 042320Z VRB01KT 4000 R01/1000VP2000U R19/P2000N BR MIFG NSC M16/M17 Q1021=
201002042220 METAR ESMX 042220Z 00000KT 4000 R01/P2000D R19/0800V1100U BR MIFG NSC M14/M15 Q1020=
201002042150 METAR ESMX 042150Z VRB02KT 2000 R01/P2000N R19/0800V1200 BR MIFG NSC M14/M15 Q1020=
201002042120 METAR ESMX 042120Z 00000KT 2000 R01/0700VP2000D R19/0900VP2000D BR MIFG NSC M13/M15 Q1020=
201002042050 METAR ESMX 042050Z 00000KT 1200 R01/0800 R19/0900V1400N BR MIFG NSC M13/M15 Q1019=
201002042020 METAR ESMX 042020Z VRB01KT 2000 R01/0800 R19/0400V0700 BR MIFG NSC M12/M13 Q1019=
201002041950 METAR ESMX 041950Z VRB01KT 4000 R01/P2000N R19/0700 BR MIFG NSC M11/M12 Q1019=
201002041920 METAR ESMX 041920Z 00000KT 2500 R01/P2000D R19/0325V1100N BR MIFG NSC M10/M11 Q1019=
201002041850 METAR ESMX 041850Z 00000KT 3000 R01/P2000N R19/1000VP2000 BR MIFG NSC M09/M10 Q1019=
201002041820 METAR ESMX 041820Z 00000KT 3000 R01/P2000N R19/0200V0325 BR MIFG NSC M09/M10 Q1018=
201002041750 METAR ESMX 041750Z 17002KT 6000 BR MIFG FEW029 M08/M09 Q1018=
201002041720 METAR ESMX 041720Z 17002KT 5000 BR BCFG FEW029 M06/M07 Q1017=
201002041650 METAR ESMX 041650Z 17003KT 7000 BR MIFG FEW029 M06/M07 Q1017=
201002041620 METAR ESMX 041620Z 19002KT 7000 BR BKN028 M05/M05 Q1017=
201002041550 METAR ESMX 041550Z 16002KT 9999 BKN028 BKN032 M04/M05 Q1017=
201002041520 METAR ESMX 041520Z 15003KT 9999 BKN030 M04/M05 Q1016=
201002041450 METAR ESMX 041450Z 18003KT 9999 SCT010 SCT029 M02/M04 Q1016=
201002041420 METAR ESMX 041420Z 22005KT 9999 SCT010 BKN040 M02/M04 Q1016=
201002041350 METAR ESMX 041350Z 24005KT 9999 SCT012 BKN040 M02/M04 Q1015=
201002041320 METAR ESMX 041320Z 22006KT 190V250 9999 FEW012 SCT015 BKN039 M01/M03 Q1015=
201002041250 METAR ESMX 041250Z 24006KT 200V260 9999 SCT011 BKN018 BKN410 M01/M03 Q1015=
201002041220 METAR ESMX 041220Z 23006KT 9999 FEW013 BKN018 M01/M03 Q1015=
201002041150 METAR ESMX 041150Z 22005KT 9999 BKN012 M01/M03 Q1014=
201002041120 METAR ESMX 041120Z 23007KT 200V260 9999 FEW008 OVC010 M01/M03 Q1014=
201002041050 METAR ESMX 041050Z 23006KT 9999 FEW008 OVC010 M01/M02 Q1013=
201002041020 METAR ESMX 041020Z 22006KT 200V260 9999 BKN008 OVC012 M01/M02 Q1013=
201002040950 METAR ESMX 040950Z 23006KT 190V270 8000 -SG FEW006 OVC009 M01/M02 Q1012=
201002040920 METAR ESMX 040920Z 25005KT 8000 SG SCT006 BKN008 OVC010 M01/M02 Q1012=
201002040850 METAR ESMX 040850Z 23006KT 6000 SG BKN005 OVC009 M01/M02 Q1011=
201002040820 METAR ESMX 040820Z 24005KT 210V270 7000 -SN OVC004 M01/M02 Q1011=
201002040750 METAR ESMX 040750Z 24005KT 210V280 9000 BR OVC004 M01/M02 Q1010=
201002040720 METAR ESMX 040720Z 23004KT 9999 OVC005 M01/M02 Q1010=
201002040650 METAR ESMX 040650Z 21005KT 9999 SCT006 BKN009 OVC012 M01/M02 Q1009=
201002040620 METAR ESMX 040620Z 21004KT 9999 OVC011 M01/M03 Q1009=
201002040550 METAR ESMX 040550Z 22005KT 190V250 9999 FEW006 OVC011 M01/M02 Q1009=
201002040520 METAR ESMX 040520Z 24004KT 210V280 9999 SCT006 BKN009 M01/M02 Q1008=
201002040450 METAR ESMX 040450Z 23004KT 9999 -SN BKN006 OVC009 M01/M02 Q1008=
201002040420 METAR ESMX 040420Z AUTO 22004KT 4200NDV OVC007/// M02/M02 Q1007=
201002040350 METAR ESMX 040350Z AUTO 24005KT 9999NDV FEW006/// OVC011/// M02/M02 Q1007=
201002040320 METAR ESMX 040320Z AUTO 23004KT 9999NDV FEW005/// SCT009/// OVC012/// M02/M02 Q1007=
201002040250 METAR ESMX 040250Z AUTO 24004KT 9999NDV SCT005/// BKN007/// OVC012/// M02/M02 Q1006=
201002040220 METAR ESMX 040220Z AUTO 23005KT 7000NDV -SN FEW006/// SCT007/// BKN010/// M02/M02 Q1005=
201002040150 METAR ESMX 040150Z AUTO 19004KT 3400NDV -SN FEW008/// SCT010/// M02/M02 Q1005=
201002040120 METAR ESMX 040120Z AUTO 20004KT 2300NDV -SN FEW010/// SCT013/// BKN016/// M02/M02 Q1004=
201002040050 METAR ESMX 040050Z 19005KT 0700 R01/P2000N R19/P2000 SN FEW005 BKN008 M02/M02 Q1004=
201002040020 METAR ESMX 040020Z 20004KT 1200 R01/P2000N R19/P2000N -SN FEW006 OVC011 M02/M03 Q1003=
201002032350 METAR ESMX 032350Z 19005KT 2300 -SN BKN005 OVC020 M02/M03 Q1003 RESG=
201002032320 METAR ESMX 032320Z 19006KT 7000 -SN FEW007 SCT010 BKN013 M02/M03 Q1002=
201002032250 METAR ESMX 032250Z 18006KT 6000 -SN FEW008 SCT015 BKN028 M02/M03 Q1002=
201002032220 METAR ESMX 032220Z 19006KT 6000 -SN FEW007 SCT008 BKN016 M02/M03 Q1001=
201002032150 METAR ESMX 032150Z 19006KT 9000 -SN FEW007 SCT009 BKN012 M02/M03 Q1001=
201002032120 METAR ESMX 032120Z 18006KT 7000 -SN FEW005 SCT007 BKN009 M02/M03 Q1000=
201002032050 METAR ESMX 032050Z 18005KT 3500 -SN SCT021 BKN027 M02/M03 Q1000=
201002032020 METAR ESMX 032020Z 18006KT 4300 -SN SCT011 BKN028 M02/M03 Q0999=
201002031950 METAR ESMX 031950Z 18006KT 9999 FEW015 BKN026 M02/M03 Q0999=
201002031920 METAR ESMX 031920Z 18006KT 9999 -SN BKN026 M03/M03 Q0998=
201002031850 METAR ESMX 031850Z 18008KT 9999 SCT024 OVC053 M03/M04 Q0997=
201002031820 METAR ESMX 031820Z 21006KT 9999 SCT015 BKN050 M03/M03 Q0997=
201002031750 METAR COR ESMX 031750Z 22006KT 9999 FEW007 SCT020 BKN040 M02/M03 Q0996=
201002031720 METAR ESMX 031720Z 23007KT 200V260 2000 -SN SCT006 BKN018 M02/M03 Q0996=
201002031650 METAR ESMX 031650Z 23008KT 200V260 4000 -SN FEW008 BKN010 M02/M02 Q0995=
201002031620 METAR ESMX 031620Z 23009KT 3000 -SN FEW008 OVC010 M02/M02 Q0995=
201002031550 METAR ESMX 031550Z 22009KT 2500 -SN FEW006 SCT009 BKN011 M02/M02 Q0994=
201002031520 METAR ESMX 031520Z 22007KT 0750 R01/1100VP2000U R19/P2000N -SN FEW005 SCT008 BKN010 M01/M02 Q0993=
201002031450 METAR ESMX 031450Z 16006KT 110V200 5000 -SN SCT005 BKN007 OVC009 M01/M02 Q0992=
201002031420 METAR ESMX 031420Z 17005KT 140V200 3800 -SN FEW005 SCT007 BKN011 M01/M02 Q0992=
201002031350 METAR ESMX 031350Z 17004KT 140V200 1800 -SN SCT006 BKN012 M01/M02 Q0992=
201002031320 METAR ESMX 031320Z 20005KT 5000 -SN FEW010 SCT022 BKN035 M01/M02 Q0991=
201002031250 METAR ESMX 031250Z 19007KT 9999 FEW007 BKN013 BKN017 M01/M02 Q0991=
201002031220 METAR ESMX 031220Z 18006KT 5000 -SN SCT005 BKN008 OVC011 M01/M02 Q0990=
201002031150 METAR ESMX 031150Z 15005KT 120V210 2600 -SN FEW006 BKN007 OVC010 M01/M02 Q0990=
201002031120 METAR ESMX 031120Z 15005KT 100V200 3000 -SN FEW006 SCT008 OVC009 M01/M02 Q0989=
201002031050 METAR ESMX 031050Z 15006KT 110V170 5000 -SN FEW004 OVC005 M01/M02 Q0989 RESG=
201002031020 METAR ESMX 031020Z 15006KT 110V170 5000 SG OVC004 M01/M02 Q0988=
201002030950 METAR ESMX 030950Z 14005KT 110V170 5000 SG OVC005 M01/M02 Q0988=
201002030920 METAR ESMX 030920Z 15005KT 120V190 5000 -SN OVC005 M01/M02 Q0987 RESG=
201002030850 METAR ESMX 030850Z 13005KT 080V170 7000 SG OVC006 M02/M02 Q0987=
201002030820 METAR ESMX 030820Z 14005KT 110V200 4000 -SN OVC006 M02/M02 Q0987=
201002030750 METAR ESMX 030750Z 14004KT 080V200 5000 SG OVC006 M02/M03 Q0986=
201002030720 METAR ESMX 030720Z 14005KT 080V190 4000 -SN FEW006 OVC008 M02/M03 Q0986=
201002030650 METAR ESMX 030650Z 14004KT 090V200 5000 -SN FEW008 OVC009 M02/M03 Q0986=
201002030620 METAR ESMX 030620Z 12003KT 070V160 9000 -SN FEW008 SCT015 BKN019 M02/M03 Q0986=
201002030550 METAR ESMX 030550Z 16006KT 110V180 9999 -SN FEW013 BKN023 OVC030 M02/M03 Q0985=
201002030520 METAR ESMX 030520Z 16005KT 110V200 9999 -SN FEW011 SCT016 BKN020 M02/M03 Q0985=
201002030450 METAR ESMX 030450Z 16006KT 110V220 9999 -SN FEW006 SCT011 BKN015 M01/M02 Q0985=
201002030420 METAR ESMX 030420Z AUTO 13004KT 070V170 9999NDV -SN SCT005/// BKN007/// OVC011/// M01/M02 Q0985=
201002030350 METAR ESMX 030350Z AUTO 14004KT 090V200 9999NDV SG SCT005/// BKN008/// OVC011/// M01/M02 Q0985=
201002030320 METAR ESMX 030320Z AUTO 13004KT 080V190 9000NDV -SN BKN005/// OVC009/// M02/M02 Q0985=
201002030250 METAR ESMX 030250Z AUTO 12005KT 070V190 1300NDV R01/P2000N R19/P2000N -SN FEW005/// BKN007/// OVC010/// M02/M02 Q0985=
201002030220 METAR ESMX 030220Z AUTO 12005KT 070V220 1800NDV -SN SCT005/// BKN008/// M02/M02 Q0985=
201002030150 METAR ESMX 030150Z AUTO 12005KT 070V170 0800NDV R01/P2000N R19/P2000N -SN BKN005/// OVC008/// M02/M02 Q0985=
201002030120 METAR ESMX 030120Z AUTO 12006KT 070V170 1300NDV R01/P2000N R19/P2000N -SN FEW006/// BKN007/// OVC009/// M02/M02 Q0986=
201002030050 METAR ESMX 030050Z 11006KT 070V160 1300 R01/P2000N R19/P2000N -SN FEW006 SCT008 BKN009 M02/M03 Q0986=
201002030020 METAR ESMX 030020Z 12007KT 040V190 2000 -SN SCT007 BKN009 M02/M03 Q0986=
201002022350 METAR ESMX 022350Z 12007KT 070V170 1800 -SN FEW007 SCT009 BKN010 M02/M03 Q0987=
201002022320 METAR ESMX 022320Z 12008KT 060V180 2000 -SN FEW007 SCT009 BKN010 M02/M03 Q0987=
201002022250 METAR ESMX 022250Z 13008KT 050V200 2100 -SN FEW008 SCT009 BKN011 M02/M03 Q0988=
201002022220 METAR ESMX 022220Z 13008G18KT 080V180 2400 -SN FEW008 BKN009 BKN013 M02/M03 Q0988=
201002022150 METAR ESMX 022150Z 13008KT 070V170 2500 -SN FEW007 SCT009 OVC010 M02/M03 Q0989=
201002022120 METAR ESMX 022120Z 14008KT 100V170 1900 -SN FEW008 BKN009 BKN014 M02/M03 Q0989=
201002022050 METAR ESMX 022050Z 14011KT 090V180 2200 -SN FEW008 BKN010 BKN017 M02/M03 Q0990=
201002022020 METAR ESMX 022020Z 14009KT 070V180 1900 -SN FEW005 SCT008 BKN009 M02/M03 Q0990=
201002021950 METAR ESMX 021950Z 14010KT 100V170 2100 -SN FEW007 OVC010 M02/M03 Q0991=
201002021920 METAR ESMX 021920Z 14011KT 080V160 2500 SN FEW008 OVC010 M02/M03 Q0991=
201002021850 METAR ESMX 021850Z 14010KT 100V190 3000 -SN FEW006 SCT009 BKN010 M02/M03 Q0992=
201002021820 METAR ESMX 021820Z 15012KT 110V180 1900 -SN FEW007 SCT009 BKN011 M02/M03 Q0993=
201002021750 METAR ESMX 021750Z 14008KT 090V180 3000 SN FEW007 SCT008 BKN010 M02/M03 Q0993=
201002021720 METAR ESMX 021720Z 15010KT 110V190 3000 SN FEW008 OVC010 M02/M03 Q0994=
201002021650 METAR ESMX 021650Z 15011G22KT 100V170 5000 -SN BKN007 OVC011 M01/M03 Q0994=
201002021620 METAR ESMX 021620Z 15010G25KT 120V190 9000 -SN OVC008 M01/M03 Q0995=
201002021550 METAR ESMX 021550Z 15010KT 090V200 6000 -SN BKN008 OVC011 M02/M03 Q0995=
201002021520 METAR ESMX 021520Z 15010KT 120V190 9999 BKN008 OVC012 M02/M03 Q0996=
201002021450 METAR ESMX 021450Z 16009KT 120V190 9999 OVC008 M02/M03 Q0997=
201002021420 METAR ESMX 021420Z 16009KT 130V200 8000 BR OVC007 M02/M03 Q0997=
201002021350 METAR ESMX 021350Z 16007KT 120V190 8000 BR OVC006 M02/M03 Q0998=
201002021320 METAR ESMX 021320Z 17010KT 140V200 8000 BR OVC006 M02/M03 Q0998=
201002021250 METAR ESMX 021250Z 16008KT 8000 BR OVC005 M02/M03 Q0998=
201002021220 METAR ESMX 021220Z 17009KT 9000 BR BKN006 M02/M03 Q0999=
201002021150 METAR ESMX 021150Z 18011KT 7000 BR OVC004 M03/M03 Q0999=
201002021120 METAR ESMX 021120Z 17010KT 6000 BR OVC003 M03/M04 Q0999=
201002021050 METAR ESMX 021050Z 19009KT 140V220 5000 BR OVC003 M04/M04 Q1000=
201002021020 METAR ESMX 021020Z 16007KT 7000 BR BKN005 M05/M05 Q1000=
201002020950 METAR ESMX 020950Z 18007KT 9000 BR SCT006 BKN008 OVC011 M05/M06 Q1000=
201002020920 METAR ESMX 020920Z 17007KT 130V200 5000 -SN FEW003 SCT011 BKN014 M06/M07 Q1000=
201002020850 METAR ESMX 020850Z 17007KT 2300 -SN BKN006 M07/M07 Q1000=
201002020820 METAR ESMX 020820Z 18006KT 2000 -SN FEW005 BKN006 M07/M08 Q1000=
201002020750 METAR ESMX 020750Z 17006KT 1600 -SN BKN006 M07/M08 Q1001=
201002020720 METAR ESMX 020720Z 16007KT 120V180 1600 R19/P2000N SN BKN006 M08/M09 Q1001=
201002020650 METAR ESMX 020650Z 14005KT 0400 R01/1400N R19/1000V1800 +SN VV006 M08/M09 Q1001=
201002020620 METAR ESMX 020620Z 18005KT 0900 R01/P2000N R19/P2000N SN FEW004 BKN006 M08/M09 Q1001=
201002020550 METAR ESMX 020550Z 17003KT 6000 -SN OVC004 M08/M09 Q1002=
201002020520 METAR ESMX 020520Z 18004KT 130V200 9999 OVC004 M08/M09 Q1002=
201002020450 METAR ESMX 020450Z 22005KT 9999 OVC003 M08/M09 Q1002=
201002020420 METAR ESMX 020420Z AUTO 24005KT 9999NDV OVC003/// M08/M09 Q1002=
201002020350 METAR ESMX 020350Z AUTO 25003KT 200V280 9999NDV OVC004/// M07/M08 Q1002=
201002020320 METAR ESMX 020320Z AUTO 26005KT 230V300 9999NDV OVC001/// M06/M07 Q1002=
201002020250 METAR ESMX 020250Z AUTO 26005KT 230V290 6000NDV BR OVC002/// M06/M07 Q1002=
201002020220 METAR ESMX 020220Z AUTO 28007KT 250V310 5000NDV BR OVC002/// M06/M07 Q1002=
201002020150 METAR ESMX 020150Z AUTO 31007KT 5000NDV BR OVC002/// M05/M06 Q1002=
201002020120 METAR ESMX 020120Z AUTO 26007KT 7000NDV BR OVC002/// M05/M05 Q1002=
201002020050 METAR ESMX 020050Z AUTO 30008KT 4900NDV BR OVC002/// M04/M04 Q1002=
201002020020 METAR ESMX 020020Z 30008KT 270V330 7000 OVC002 M03/M04 Q1002=
201002012350 METAR ESMX 012350Z 28008KT 5000 OVC002 M03/M03 Q1001=
201002012320 METAR ESMX 012320Z 27005KT 1500 R01/P2000N R19/P2000N FZFG OVC002 M03/M03 Q1001=
201002012250 METAR ESMX 012250Z 26004KT 1000 R01/P2000N R19/P2000N FZFG OVC002 M03/M03 Q1001=
201002012220 METAR ESMX 012220Z 25005KT 0600 R01/1800D R19/P2000N FZFG OVC002 M03/M03 Q1001=
201002012150 METAR ESMX 012150Z 25004KT 0600 R01/1500N R19/P2000D FZFG VV002 M03/M04 Q1001=
201002012120 METAR ESMX 012120Z 26003KT 220V280 1000 R01/P2000N R19/P2000N BR OVC002 M04/M04 Q1001=
201002012050 METAR ESMX 012050Z 24004KT 220V280 3000 BR OVC002 M04/M04 Q1001=
201002012020 METAR ESMX 012020Z 24003KT 8000 BR FEW005 OVC025 M04/M05 Q1001=
201002011950 METAR ESMX 011950Z 23002KT 9999 BKN020 M05/M05 Q1001=
201002011920 METAR ESMX 011920Z 26004KT CAVOK M04/M05 Q1001=
201002011850 METAR ESMX 011850Z 28004KT 9999 FEW030 OVC055 M03/M04 Q1001=
201002011820 METAR ESMX 011820Z VRB01KT 3000 R01/0800 R19/0900VP2000U BCFG FEW030 OVC050 M03/M03 Q1001=
201002011750 METAR ESMX 011750Z 25002KT 0250 R01/P2000N R19/0650V1000D BCFG FEW046 OVC053 M04/M04 Q1001=
201002011720 METAR ESMX 011720Z 12001KT 9999 SCT044 BKN053 M02/M03 Q1001=
201002011650 METAR ESMX 011650Z 27001KT 4500 SCT026 BKN043 M02/M02 Q1001=
201002011620 METAR ESMX 011620Z VRB02KT 9999 BKN020 M01/M02 Q1001=
201002011550 METAR ESMX 011550Z 23002KT 9999 FEW010 BKN015 M01/M02 Q1001=
201002011520 METAR ESMX 011520Z 24005KT 200V280 2700 -SN FEW004 SCT006 BKN008 M00/M01 Q1000=
201002011450 METAR ESMX 011450Z 18002KT 7000 -SN FEW009 SCT013 BKN016 00/M01 Q1000=
201002011420 METAR ESMX 011420Z 17003KT 140V200 9999 FEW003 BKN006 OVC009 00/M01 Q1000 RESN=
201002011350 METAR ESMX 011350Z 18003KT 1600 -SN FEW006 SCT012 BKN017 00/M01 Q1000=
201002011320 METAR ESMX 011320Z 19004KT 5000 -SN FEW005 BKN007 00/M01 Q1000=
201002011250 METAR ESMX 011250Z 15003KT 2100 -SN FEW005 SCT007 BKN008 00/M01 Q0999=
201002011220 METAR ESMX 011220Z 16003KT 110V190 7000 -SN BKN006 OVC008 00/M01 Q0999=
