##########################################################
# Query made at 04/19/2024 21:14:08 UTC
# Time interval: from 01/01/2010 12:00  to 01/31/2010 12:59  UTC
##########################################################

##########################################################
# ESMX, Vaxjo (Sweden)
# WMO index: 02641. WIGOS ID: 0-20000-0-02648
# Latitude 56-51N. Longitude 014-50E. Altitude 199 m.
##########################################################

201001311250 METAR ESMX 311250Z AUTO VRB02KT 9000NDV IC OVC009/// M11/M12 Q0996=
201001311220 METAR ESMX 311220Z AUTO 06003KT 030V100 2900NDV -SN OVC011/// M12/M13 Q0996=
201001311150 METAR ESMX 311150Z AUTO 06003KT 020V100 2000NDV -SN OVC012/// M13/M15 Q0996=
201001311120 METAR ESMX 311120Z AUTO 36003KT 7000NDV -SN OVC014/// M14/M15 Q0996=
201001311050 METAR ESMX 311050Z AUTO VRB02KT 3000NDV -SN FEW009/// SCT020/// BKN025/// M14/M16 Q0996=
201001311020 METAR ESMX 311020Z AUTO 36002KT 4500NDV -SN SCT018/// BKN031/// M15/M17 Q0996=
201001310950 METAR ESMX 310950Z AUTO 01002KT 1300NDV R01/1200VP2000D R19/1200VP2000D -SN FEW006/// SCT008/// BKN053/// M16/M18 Q0996=
201001310920 METAR ESMX 310920Z AUTO VRB01KT 5000NDV -SN FEW032/// M17/M19 Q0996=
201001310850 METAR ESMX 310850Z AUTO VRB01KT 9999NDV FEW033/// M17/M19 Q0996=
201001310820 METAR ESMX 310820Z AUTO 00000KT 9999NDV NCD M19/M21 Q0996=
201001310750 METAR ESMX 310750Z AUTO 05001KT 9999NDV NCD M20/M22 Q0995=
201001310720 METAR ESMX 310720Z AUTO 00000KT 9999NDV NCD M20/M22 Q0995=
201001310650 METAR ESMX 310650Z AUTO 00000KT 9999NDV NCD M21/M23 Q0995=
201001310620 METAR ESMX 310620Z AUTO 17001KT 9999NDV NCD M22/M25 Q0995=
201001310550 METAR ESMX 310550Z AUTO 00000KT 9999NDV NCD M24/M26 Q0994=
201001310520 METAR ESMX 310520Z AUTO 01001KT 9999NDV NCD M24/M27 Q0994=
201001310450 METAR ESMX 310450Z AUTO 00000KT 9999NDV NCD M22/M25 Q0994=
201001310420 METAR ESMX 310420Z AUTO 18001KT 9999NDV NCD M23/M25 Q0994=
201001310350 METAR ESMX 310350Z AUTO VRB01KT 9999NDV FEW089/// M22/M24 Q0994=
201001310320 METAR ESMX 310320Z AUTO 17001KT 9999NDV NCD M22/M24 Q0994=
201001310250 METAR ESMX 310250Z AUTO 17001KT 9999NDV NCD M22/M24 Q0993=
201001310220 METAR ESMX 310220Z AUTO 00000KT 9999NDV NCD M22/M24 Q0993=
201001310150 METAR ESMX 310150Z AUTO 00000KT 9999NDV NCD M21/M23 Q0993=
201001310120 METAR ESMX 310120Z AUTO 28001KT 9999NDV NCD M21/M24 Q0992=
201001310050 METAR ESMX 310050Z AUTO 29002KT 9999NDV NCD M21/M23 Q0992=
201001310020 METAR ESMX 310020Z AUTO 29002KT 9999NDV NCD M20/M22 Q0992=
201001302350 METAR ESMX 302350Z AUTO 28004KT 9999NDV NCD M21/M24 Q0992=
201001302320 METAR ESMX 302320Z AUTO 30004G29KT 290V020 9999NDV NCD M21/M23 Q0992=
201001302250 METAR ESMX 302250Z AUTO 32004KT 9999NDV NCD M20/M22 Q0991=
201001302220 METAR ESMX 302220Z AUTO 33004KT 290V350 9999NDV NCD M18/M20 Q0991=
201001302150 METAR ESMX 302150Z AUTO 31004KT 9999NDV NCD M20/M23 Q0991=
201001302120 METAR ESMX 302120Z AUTO 32004KT 9999NDV NCD M20/M21 Q0991 RESG=
201001302050 METAR ESMX 302050Z AUTO 34004KT 9999NDV NCD M18/M20 Q0990=
201001302020 METAR ESMX 302020Z AUTO 33004KT 9999NDV NCD M18/M20 Q0990=
201001301950 METAR ESMX 301950Z AUTO 34005KT 9999NDV NCD M18/M19 Q0990=
201001301920 METAR ESMX 301920Z AUTO 34007KT 9999NDV NCD M17/M19 Q0990=
201001301850 METAR ESMX 301850Z AUTO 34005KT 9999NDV NCD M16/M18 Q0990=
201001301820 METAR ESMX 301820Z AUTO 34007KT 9999NDV NCD M17/M18 Q0989=
201001301750 METAR ESMX 301750Z AUTO 35004KT 9999NDV NCD M16/M18 Q0989=
201001301720 METAR ESMX 301720Z AUTO 35006KT 9999NDV NCD M17/M18 Q0989=
201001301650 METAR ESMX 301650Z AUTO 36008KT 9999NDV NCD M16/M18 Q0989=
201001301620 METAR ESMX 301620Z AUTO 35008KT 9999NDV NCD M14/M17 Q0988=
201001301550 METAR ESMX 301550Z AUTO 35008KT 9999NDV NCD M14/M16 Q0988=
201001301520 METAR ESMX 301520Z AUTO 35010KT 9999NDV NCD M13/M16 Q0988=
201001301450 METAR ESMX 301450Z AUTO 35008KT 9999NDV NCD M13/M16 Q0988=
201001301420 METAR ESMX 301420Z AUTO 01010KT 9999NDV NCD M12/M15 Q0987=
201001301350 METAR ESMX 301350Z AUTO 01010KT 9999NDV NCD M12/M15 Q0987=
201001301320 METAR ESMX 301320Z AUTO 01010KT 9999NDV NCD M12/M15 Q0987=
201001301250 METAR ESMX 301250Z AUTO 02010KT 9999NDV NCD M12/M15 Q0987=
201001301220 METAR ESMX 301220Z AUTO 02011KT 9999NDV NCD M12/M15 Q0987=
201001301150 METAR ESMX 301150Z AUTO 02012KT 9999NDV NCD M12/M15 Q0987=
201001301120 METAR ESMX 301120Z AUTO 01012KT 9999NDV NCD M13/M15 Q0987=
201001301050 METAR ESMX 301050Z AUTO 01012KT 9999NDV FEW093/// M13/M16 Q0987=
201001301020 METAR ESMX 301020Z AUTO 02011KT 9999NDV NCD M14/M16 Q0987=
201001300950 METAR ESMX 300950Z AUTO 36009KT 9999NDV NCD M15/M17 Q0987=
201001300920 METAR ESMX 300920Z AUTO 02007KT 9999NDV NCD M16/M18 Q0987=
201001300850 METAR ESMX 300850Z AUTO 02007KT 9999NDV NCD M16/M18 Q0987=
201001300820 METAR ESMX 300820Z AUTO 02007KT 9999NDV NCD M15/M17 Q0987=
201001300750 METAR ESMX 300750Z AUTO 02008KT 9999NDV NCD M15/M17 Q0987=
201001300720 METAR ESMX 300720Z AUTO 02008KT 9999NDV NCD M16/M17 Q0987=
201001300650 METAR ESMX 300650Z AUTO 02008KT 9999NDV NCD M15/M17 Q0987=
201001300620 METAR ESMX 300620Z AUTO 02007KT 9999NDV NCD M15/M17 Q0986=
201001300550 METAR ESMX 300550Z AUTO 03006KT 9999NDV NCD M15/M16 Q0986=
201001300520 METAR ESMX 300520Z AUTO 02007KT 9999NDV NCD M15/M17 Q0986=
201001300450 METAR ESMX 300450Z AUTO 03007KT 9999NDV NCD M15/M17 Q0987=
201001300420 METAR ESMX 300420Z AUTO 02007KT 9999NDV NCD M15/M17 Q0987=
201001300350 METAR ESMX 300350Z AUTO 02006KT 9999NDV NCD M15/M17 Q0987=
201001300320 METAR ESMX 300320Z AUTO 02007KT 9999NDV NCD M15/M17 Q0987=
201001300250 METAR ESMX 300250Z AUTO 03007KT 9999NDV NCD M15/M17 Q0987=
201001300220 METAR ESMX 300220Z AUTO 02007KT 9999NDV FEW008/// M15/M17 Q0987=
201001300150 METAR ESMX 300150Z AUTO 02007KT 9999NDV BR BKN008/// M14/M16 Q0987 RESG=
201001300120 METAR ESMX 300120Z AUTO 03007KT 9999NDV IC OVC009/// M13/M15 Q0987=
201001300050 METAR ESMX 300050Z AUTO 01007KT 9000NDV -SN BKN006/// OVC009/// M13/M14 Q0987=
201001300020 METAR ESMX 300020Z AUTO 04008KT 8000NDV -SN OVC006/// M13/M14 Q0987=
201001292350 METAR ESMX 292350Z AUTO 04008KT 8000NDV -SN OVC006/// M13/M14 Q0987=
201001292320 METAR ESMX 292320Z AUTO 04007KT 9000NDV -SN OVC006/// M13/M15 Q0987=
201001292250 METAR ESMX 292250Z AUTO 03007KT 9000NDV -SN OVC007/// M14/M15 Q0987=
201001292220 METAR ESMX 292220Z AUTO 04006KT 9999NDV BR BKN008/// M14/M16 Q0987=
201001292150 METAR ESMX 292150Z 04007KT 9000 BR FEW028 M14/M15 Q0987=
201001292120 METAR ESMX 292120Z 03008KT 9000 BR FEW025 SCT037 M13/M15 Q0987=
201001292050 METAR ESMX 292050Z 03008KT 9000 BR FEW007 BKN027 BKN036 M13/M14 Q0987=
201001292020 METAR ESMX 292020Z 04007KT 9000 BR SCT007 OVC026 M12/M14 Q0987=
201001291950 METAR ESMX 291950Z 04008KT 9000 BR BKN007 M12/M13 Q0986=
201001291920 METAR ESMX 291920Z 05004KT 8000 BR BKN006 M12/M14 Q0986=
201001291850 METAR ESMX 291850Z 05006KT 010V080 9000 BR OVC006 M12/M14 Q0986=
201001291820 METAR ESMX 291820Z 04007KT 9000 BR SCT006 M13/M14 Q0986=
201001291750 METAR ESMX 291750Z 04005KT 8000 BR FEW007 M14/M16 Q0986=
201001291720 METAR ESMX 291720Z 05003KT CAVOK M12/M13 Q0986=
201001291650 METAR ESMX 291650Z 04004KT CAVOK M12/M13 Q0986=
201001291620 METAR ESMX 291620Z 04004KT 010V080 CAVOK M11/M12 Q0986=
201001291550 METAR ESMX 291550Z 05003KT CAVOK M11/M12 Q0986=
201001291520 METAR ESMX 291520Z VRB02KT CAVOK M10/M11 Q0986=
201001291450 METAR ESMX 291450Z 07003KT 040V120 CAVOK M09/M11 Q0985=
201001291420 METAR ESMX 291420Z 07004KT CAVOK M08/M10 Q0985=
201001291350 METAR ESMX 291350Z 05004KT 020V080 CAVOK M08/M09 Q0985=
201001291320 METAR ESMX 291320Z 05004KT 9000 BR NSC M08/M09 Q0985=
201001291250 METAR ESMX 291250Z 05004KT 020V090 8000 BR NSC M08/M09 Q0985=
201001291220 METAR ESMX 291220Z 02003KT 350V090 7000 BR NSC M10/M11 Q0986=
201001291150 METAR ESMX 291150Z 36004KT 7000 BR SKC M11/M12 Q0986=
201001291120 METAR ESMX 291120Z 35002KT 8000 BR SKC M12/M13 Q0986=
201001291050 METAR ESMX 291050Z 36002KT 7000 BR SKC M12/M14 Q0986=
201001291020 METAR ESMX 291020Z 36002KT 7000 BR SKC M13/M15 Q0986=
201001290950 METAR ESMX 290950Z 36001KT 7000 BR SKC M14/M16 Q0986=
201001290920 METAR ESMX 290920Z 35002KT 7000 BR NSC M15/M17 Q0986=
201001290850 METAR ESMX 290850Z 02001KT 5000 BR SKC M17/M19 Q0986=
201001290820 METAR ESMX 290820Z 36001KT 5000 BR SKC M17/M19 Q0986=
201001290750 METAR ESMX 290750Z 01001KT 5000 BR NSC M18/M20 Q0986=
201001290720 METAR ESMX 290720Z 02002KT 4500 BR FEW010 M17/M19 Q0986=
201001290650 METAR ESMX 290650Z 01002KT 4000 BR FEW006 M16/M17 Q0986=
201001290620 METAR ESMX 290620Z 02001KT 2000 BR FEW006 M15/M16 Q0986=
201001290550 METAR ESMX 290550Z VRB01KT 2000 BR FEW006 M15/M16 Q0986=
201001290520 METAR ESMX 290520Z VRB02KT 4500 BR SCT005 M13/M14 Q0986=
201001290450 METAR ESMX 290450Z 01003KT 5000 BR OVC004 M12/M14 Q0986=
201001290420 METAR ESMX 290420Z AUTO 03003KT 350V070 5000NDV OVC003/// M12/M14 Q0986=
201001290350 METAR ESMX 290350Z AUTO 04003KT 010V070 1200NDV R01/P2000N R19/P2000N FEW004/// M14/M16 Q0986=
201001290320 METAR ESMX 290320Z AUTO 04004KT 2700NDV NCD M12/M13 Q0985=
201001290250 METAR ESMX 290250Z AUTO 01004KT 0650NDV R01/P2000N R19/P2000D FEW000/// M12/M14 Q0985=
201001290220 METAR ESMX 290220Z AUTO 35002KT 0650NDV R01/P2000N R19/P2000N FZFG SCT000/// M12/M13 Q0986=
201001290150 METAR ESMX 290150Z AUTO 36003KT 2800NDV NCD M12/M13 Q0986=
201001290120 METAR ESMX 290120Z AUTO 04005KT 3800NDV OVC005/// M10/M11 Q0985=
201001290050 METAR ESMX 290050Z 02003KT 5000 BR BKN006 M11/M12 Q0986=
201001290020 METAR ESMX 290020Z 02005KT 4000 BR FEW008 M10/M11 Q0986=
201001282350 METAR ESMX 282350Z 01002KT 4000 BR FEW030 M10/M10 Q0986=
201001282320 METAR ESMX 282320Z 35003KT 6000 BR FEW029 M09/M10 Q0986=
201001282220 METAR ESMX 282220Z 01007KT 9000 BR BKN009 BKN026 M06/M08 Q0986=
201001282150 METAR ESMX 282150Z 03007KT 8000 BR BKN011 OVC030 M06/M08 Q0985=
201001282120 METAR ESMX 282120Z 01003KT 5000 -SN FEW024 BKN029 M06/M08 Q0985 RESN=
201001282050 METAR ESMX 282050Z 04004KT 3000 SN FEW016 BKN030 M06/M07 Q0985=
201001281950 METAR ESMX 281950Z 05006KT 020V080 5000 SN FEW009 OVC014 M04/M06 Q0985=
201001281920 METAR ESMX 281920Z 32009KT 9999 -SN SCT012 BKN020 M03/M06 Q0984=
201001281850 METAR ESMX 281850Z 31007KT 280V340 7000 -SN FEW014 BKN025 M03/M05 Q0984=
201001281820 METAR ESMX 281820Z 31007KT 280V340 6000 -SN FEW008 SCT025 BKN030 M03/M05 Q0984=
201001281750 METAR ESMX 281750Z 31008KT 280V340 8000 -SN FEW004 SCT019 BKN028 M03/M05 Q0984=
201001281720 METAR ESMX 281720Z 31006KT 6000 -SN FEW009 BKN019 M03/M06 Q0984=
201001281650 METAR ESMX 281650Z 32008KT 290V350 6000 -SN FEW006 SCT016 BKN023 M03/M06 Q0984=
201001281620 METAR ESMX 281620Z 31008KT 9999 -SN FEW008 SCT026 BKN030 M03/M06 Q0984=
201001281550 METAR ESMX 281550Z 30007KT 9999 SG FEW015 BKN030 M03/M06 Q0984=
201001281520 METAR ESMX 281520Z 31005KT 280V340 9999 OVC022 M03/M06 Q0984=
201001281450 METAR ESMX 281450Z 31008KT 9999 -SN FEW023 SCT030 OVC035 M03/M06 Q0984=
201001281420 METAR ESMX 281420Z 31008KT 9999 FEW014 SCT020 BKN024 M02/M05 Q0984=
201001281350 METAR ESMX 281350Z 33007KT 300V010 9999 -SN SCT010 OVC015 M03/M04 Q0984=
201001281320 METAR ESMX 281320Z 34008KT 9999 -SN BKN014 OVC020 M03/M05 Q0984=
201001281250 METAR ESMX 281250Z 34011KT 320V020 9999 FEW022 OVC027 M02/M06 Q0984=
201001281220 METAR ESMX 281220Z 34012KT 9999 SG FEW019 OVC030 M02/M05 Q0984=
201001281150 METAR ESMX 281150Z 33011KT 290V350 9999 SG FEW016 SCT034 BKN045 M02/M05 Q0984=
201001281120 METAR ESMX 281120Z 33011KT 290V350 9999 -SN FEW015 SCT040 M02/M05 Q0984=
201001281050 METAR ESMX 281050Z 33011KT 290V010 9999 -SN FEW018 BKN040 M02/M05 Q0984=
201001281020 METAR ESMX 281020Z 31012KT 9999 -SN FEW014 SCT020 OVC037 M02/M05 Q0984=
201001280950 METAR ESMX 280950Z 31011KT 9999 -SN FEW016 OVC037 M02/M05 Q0984=
201001280920 METAR ESMX 280920Z 31012KT 9999 -SN FEW015 SCT037 OVC041 M02/M05 Q0983=
201001280850 METAR ESMX 280850Z 32013KT 9999 -SN FEW026 OVC042 M02/M05 Q0983=
201001280820 METAR ESMX 280820Z 32014KT 9999 -SN FEW024 SCT031 BKN043 M02/M05 Q0983=
201001280750 METAR ESMX 280750Z 31015KT 9999 -SN FEW017 SCT032 OVC051 M02/M05 Q0983=
201001280720 METAR ESMX 280720Z 32015KT 290V360 9999 -SN FEW012 SCT015 OVC018 M02/M05 Q0983=
201001280650 METAR ESMX 280650Z 32013KT 9999 -SN FEW011 SCT014 BKN017 M02/M04 Q0983=
201001280620 METAR ESMX 280620Z 32013G23KT 300V020 9999 -SN SCT011 BKN018 OVC020 M02/M04 Q0982 RESG=
201001280550 METAR ESMX 280550Z 32014KT 290V350 9999 -SN SG FEW013 OVC015 M02/M04 Q0982=
201001280520 METAR ESMX 280520Z 31014KT 9999 -SN SG BKN012 OVC018 M02/M04 Q0982=
201001280450 METAR ESMX 280450Z 32013G23KT 290V350 9999 -SN BKN013 M02/M04 Q0982=
201001280420 METAR ESMX 280420Z AUTO 32015KT 290V350 9999NDV OVC013/// M02/M04 Q0982=
201001280350 METAR ESMX 280350Z AUTO 31017KT 280V340 9999NDV OVC013/// M02/M04 Q0982=
201001280320 METAR ESMX 280320Z AUTO 33016KT 300V020 9999NDV OVC012/// M02/M04 Q0982=
201001280250 METAR ESMX 280250Z AUTO 33018KT 9000NDV SG OVC011/// M02/M03 Q0982=
201001280220 METAR ESMX 280220Z AUTO 34014KT 9999NDV BKN014/// OVC022/// M01/M04 Q0982=
201001280150 METAR ESMX 280150Z AUTO 32010KT 9999NDV BKN012/// OVC017/// M02/M04 Q0983=
201001280120 METAR ESMX 280120Z 33013KT 9999 -SN FEW014 SCT017 BKN024 M02/M04 Q0983=
201001280050 METAR ESMX 280050Z 33014KT 9999 -SN FEW013 SCT019 BKN035 M03/M04 Q0983=
201001280020 METAR ESMX 280020Z 33014KT 9999 -SN FEW010 BKN045 M02/M04 Q0983=
201001272320 METAR ESMX 272320Z 34011KT 9999 FEW012 BKN040 BKN092 M03/M04 Q0982=
201001272250 METAR ESMX 272250Z 32009KT 280V350 9999 -SN FEW007 BKN015 OVC036 M03/M04 Q0982=
201001272220 METAR ESMX 272220Z 30006KT 8000 BR FEW007 SCT019 BKN021 M04/M05 Q0982=
201001272150 METAR ESMX 272150Z 28003KT 7000 -SN BKN008 BKN038 M04/M05 Q0982=
201001272120 METAR ESMX 272120Z VRB01KT 3000 -SN BKN008 OVC012 M04/M05 Q0983=
201001272050 METAR ESMX 272050Z 20002KT 4000 -SN SCT011 BKN014 BKN030 M05/M05 Q0983 RESN=
201001272020 METAR ESMX 272020Z 18004KT 1800 SN SCT007 BKN010 M04/M05 Q0984 RESN=
201001271950 METAR ESMX 271950Z 17006KT 0800 R19/P2000N +SN VV003 M04/M05 Q0985=
201001271920 METAR ESMX 271920Z 18008KT 2500 SN SCT005 BKN014 M04/M05 Q0986=
201001271850 METAR ESMX 271850Z 18011KT 2000 SN SCT005 BKN012 M05/M06 Q0987=
201001271820 METAR ESMX 271820Z 18013KT 130V200 2700 -SN FEW006 SCT009 BKN011 M05/M06 Q0988=
201001271750 METAR ESMX 271750Z 18013KT 1500 R01/P2000N R19/P2000N -SN SCT006 BKN010 M05/M06 Q0989=
201001271720 METAR ESMX 271720Z 19015KT 1000 R01/P2000N R19/P2000N SN VV007 M05/M06 Q0991=
201001271650 METAR ESMX 271650Z 19017KT 1000 R01/P2000N R19/P2000N SN FEW006 BKN008 M05/M06 Q0993=
201001271620 METAR ESMX 271620Z 19018KT 1000 R01/P2000N R19/P2000N SN VV005 M04/M05 Q0994=
201001271550 METAR ESMX 271550Z 18014KT 0800 R01/P2000N R19/P2000D SN VV005 M04/M04 Q0996=
201001271520 METAR ESMX 271520Z 18016KT 1000 R01/P2000N R19/1400VP2000U SN VV005 M03/M04 Q0997=
201001271450 METAR ESMX 271450Z 18014KT 0750 R01/1400N R19/1100V1600N SN VV006 M03/M04 Q0999=
201001271420 METAR ESMX 271420Z 18014KT 1400 R01/P2000N R19/P2000N -SN OVC005 M03/M04 Q1001 RESG=
201001271350 METAR ESMX 271350Z 19013KT 3000 SG OVC005 M04/M04 Q1003=
201001271320 METAR ESMX 271320Z 18014KT 140V200 5000 SG OVC005 M04/M05 Q1004=
201001271250 METAR ESMX 271250Z 18012KT 150V210 7000 -SN SCT006 OVC009 M04/M05 Q1006 RESG=
201001271220 METAR ESMX 271220Z 19011KT 4000 -SN FEW008 BKN011 M04/M05 Q1008=
201001271150 METAR ESMX 271150Z 19011KT 0700 R01/1100N R19/1000V1300N -SN VV002 M04/M05 Q1010=
201001271120 METAR ESMX 271120Z 19010KT 4000 -SN OVC006 M04/M05 Q1011=
201001271050 METAR ESMX 271050Z 19010KT 1500 SN OVC005 M05/M05 Q1013=
201001271020 METAR ESMX 271020Z 19009KT 5000 -SN FEW006 OVC009 M05/M06 Q1015=
201001270950 METAR ESMX 270950Z 19008KT 2900 -SN FEW000 SCT008 M05/M06 Q1016=
201001270920 METAR ESMX 270920Z 18006KT 1000 R01/0900VP2000D R19/1000V1800D SN VV002 M06/M06 Q1017=
201001270850 METAR ESMX 270850Z 18007KT 1000 R01/1300VP2000U R19/1200V1900N -SN VV002 M06/M06 Q1018=
201001270820 METAR ESMX 270820Z 19006KT 9000 OVC008 M06/M07 Q1019=
201001270750 METAR ESMX 270750Z 19006KT 9999 BR BKN009 OVC013 M06/M07 Q1021=
201001270720 METAR ESMX 270720Z 20005KT 7000 BR SCT002 OVC013 M06/M07 Q1022=
201001270650 METAR ESMX 270650Z 19004KT 5000 BR OVC002 M07/M08 Q1023=
201001270620 METAR ESMX 270620Z 18004KT 5000 BR OVC002 M07/M08 Q1024=
201001270550 METAR ESMX 270550Z 18004KT 6000 BR OVC002 M07/M08 Q1025=
201001270520 METAR ESMX 270520Z 17003KT 6000 BR OVC002 M08/M09 Q1025=
201001270450 METAR ESMX 270450Z 16003KT 5000 BR OVC002 M08/M09 Q1026=
201001270420 METAR ESMX 270420Z AUTO 15002KT 5000NDV BR OVC001/// M08/M09 Q1027=
201001270350 METAR ESMX 270350Z AUTO VRB02KT 2000NDV IC OVC001/// M08/M09 Q1028=
201001270320 METAR ESMX 270320Z AUTO 16002KT 1100NDV R01/P2000N R19/P2000N OVC001/// M08/M09 Q1029=
201001270250 METAR ESMX 270250Z AUTO VRB02KT 1200NDV R01/P2000N R19/P2000N OVC001/// M08/M09 Q1030=
201001270220 METAR ESMX 270220Z AUTO VRB02KT 0750NDV R01/P2000N R19/P2000N FZFG VV002 M09/M10 Q1030=
201001270150 METAR ESMX 270150Z AUTO VRB01KT 1300NDV R01/P2000N R19/P2000N OVC001/// M09/M10 Q1031=
201001270120 METAR ESMX 270120Z AUTO VRB01KT 1300NDV R01/P2000N R19/P2000N VV002 M09/M10 Q1032=
201001270050 METAR ESMX 270050Z 00000KT 0700 R01/P2000N R19/P2000N FZFG VV003 M09/M10 Q1033=
201001270020 METAR ESMX 270020Z VRB01KT 1000 R01/P2000N R19/P2000N BR VV002 M09/M10 Q1034=
201001262350 METAR ESMX 262350Z VRB01KT 1500 BR OVC002 M09/M10 Q1034=
201001262320 METAR ESMX 262320Z 35002KT 1100 R01/P2000N R19/P2000N BR OVC002 M09/M10 Q1035=
201001262250 METAR ESMX 262250Z 36003KT 1300 R01/P2000N R19/P2000N BR OVC002 M09/M10 Q1035=
201001262220 METAR ESMX 262220Z 01003KT 2400 BR OVC002 M09/M10 Q1036=
201001262150 METAR ESMX 262150Z VRB02KT 4200 BR OVC002 M09/M10 Q1036=
201001262120 METAR ESMX 262120Z 01004KT 4900 SG OVC003 M09/M10 Q1036=
201001262050 METAR ESMX 262050Z 36004KT 7000 BR OVC004 M09/M10 Q1037=
201001262020 METAR ESMX 262020Z 34005KT 290V020 9000 OVC003 M09/M10 Q1037=
201001261950 METAR ESMX 261950Z 34005KT 7000 BR OVC003 M09/M10 Q1037=
201001261920 METAR ESMX 261920Z 33004KT 290V360 7000 BR OVC003 M09/M10 Q1038=
201001261850 METAR COR ESMX 261850Z 29004KT 8000 BR OVC003 M09/M10 Q1038=
201001261820 METAR ESMX 261820Z 28003KT 9999 -SG OVC004 M09/M10 Q1038=
201001261750 METAR ESMX 261750Z 28003KT 9999 -SG SCT005 OVC008 M09/M10 Q1039=
201001261720 METAR ESMX 261720Z VRB01KT 9999 OVC009 M09/M10 Q1039=
201001261650 METAR ESMX 261650Z VRB01KT 9999 OVC010 M09/M10 Q1039=
201001261620 METAR ESMX 261620Z 29003KT 260V320 9999 BKN007 OVC010 M08/M09 Q1039=
201001261450 METAR ESMX 261450Z VRB02KT 9999 OVC007 M08/M09 Q1039=
201001261420 METAR ESMX 261420Z 30003KT 250V070 9999 BKN008 M08/M09 Q1040=
201001261350 METAR ESMX 261350Z VRB01KT 9999 SCT010 M08/M09 Q1040=
201001261320 METAR ESMX 261320Z VRB01KT 9999 FEW010 M08/M09 Q1040=
201001261250 METAR ESMX 261250Z VRB01KT CAVOK M08/M09 Q1040=
201001261220 METAR ESMX 261220Z 35001KT CAVOK M08/M09 Q1040=
201001261150 METAR ESMX 261150Z 00000KT CAVOK M09/M10 Q1040=
201001261050 METAR ESMX 261050Z 00000KT 8000 BR FEW003 M11/M13 Q1041=
201001261020 METAR ESMX 261020Z 00000KT 4000 BR SCT002 M11/M13 Q1041=
201001260950 METAR ESMX 260950Z 00000KT 3000 BR BKN002 M12/M14 Q1041=
201001260920 METAR ESMX 260920Z 00000KT 4000 BR BKN002 M12/M14 Q1041=
201001260850 METAR ESMX 260850Z 00000KT 4000 BR BKN002 M14/M16 Q1041=
201001260820 METAR ESMX 260820Z 00000KT 6000 1000N BR BKN002 M15/M16 Q1041=
201001260750 METAR ESMX 260750Z 00000KT 0750 R01/0700V1500N R19/P2000N FZFG VV002 M15/M17 Q1041=
201001260720 METAR ESMX 260720Z 00000KT 3000 VV002 M16/M18 Q1041=
201001260650 METAR ESMX 260650Z 00000KT 2500 BR BKN002 M16/M17 Q1040=
201001260620 METAR ESMX 260620Z VRB01KT 0750 R01/P2000N R19/P2000 FZFG VV002 M16/M17 Q1041=
201001260550 METAR ESMX 260550Z 00000KT 0100 R01/0650N R19/0225V0325 FZFG VV002 M16/M18 Q1040=
201001260520 METAR ESMX 260520Z 00000KT 0100 R01/0500 R19/0550 FZFG VV002 M16/M18 Q1040=
201001260450 METAR ESMX 260450Z 00000KT 0150 R01/0500 R19/P0800 FZFG VV002 M16/M18 Q1040=
201001260420 METAR ESMX 260420Z AUTO 00000KT 0550NDV R01/P2000N R19/1200VP2000U=
201001260350 METAR ESMX 260350Z AUTO 01001KT 9999NDV VV001 M17/M18 Q1040=
201001260320 METAR ESMX 260320Z AUTO 02001KT 9999NDV VV001 M17/M19 Q1041=
201001260250 METAR ESMX 260250Z AUTO 00000KT 9999NDV FEW001/// SCT059/// M16/M18 Q1040=
201001260220 METAR ESMX 260220Z AUTO 00000KT 9999NDV BKN058/// M16/M18 Q1040=
201001260150 METAR ESMX 260150Z AUTO 35001KT 9999NDV SCT058/// M16/M18 Q1040=
201001260120 METAR ESMX 260120Z AUTO 01001KT 9999NDV FEW057/// M16/M17 Q1040=
201001260050 METAR ESMX 260050Z AUTO 00000KT 9000NDV FEW058/// M15/M17 Q1040=
201001260020 METAR ESMX 260020Z 00000KT CAVOK M14/M16 Q1040=
201001252350 METAR ESMX 252350Z 00000KT CAVOK M14/M16 Q1040=
201001252320 METAR ESMX 252320Z 00000KT CAVOK M13/M14 Q1040=
201001252250 METAR ESMX 252250Z 00000KT CAVOK M13/M14 Q1040=
201001252220 METAR ESMX 252220Z 00000KT CAVOK M11/M12 Q1040=
201001252120 METAR ESMX 252120Z 00000KT CAVOK M10/M11 Q1040=
201001252050 METAR ESMX 252050Z 00000KT 9999 OVC075 M09/M10 Q1040=
201001252020 METAR ESMX 252020Z 00000KT 9999 OVC073 M09/M11 Q1040=
201001251950 METAR ESMX 251950Z 00000KT 9999 OVC077 M10/M11 Q1040=
201001251920 METAR ESMX 251920Z 00000KT 9999 OVC076 M10/M11 Q1040=
201001251850 METAR ESMX 251850Z 00000KT CAVOK M10/M12 Q1040=
201001251820 METAR ESMX 251820Z 00000KT CAVOK M11/M12 Q1039=
201001251750 METAR ESMX 251750Z 02001KT CAVOK M11/M12 Q1039=
201001251720 METAR ESMX 251720Z 00000KT CAVOK M11/M12 Q1039=
201001251650 METAR ESMX 251650Z 36001KT CAVOK M10/M11 Q1039=
201001251620 METAR ESMX 251620Z 00000KT CAVOK M10/M11 Q1039=
201001251550 METAR ESMX 251550Z 00000KT CAVOK M09/M10 Q1039=
201001251520 METAR ESMX 251520Z 00000KT CAVOK M08/M09 Q1039=
201001251450 METAR ESMX 251450Z 01001KT CAVOK M07/M08 Q1039=
201001251420 METAR ESMX 251420Z 01002KT CAVOK M06/M08 Q1038=
201001251350 METAR ESMX 251350Z 36002KT CAVOK M06/M08 Q1038=
201001251320 METAR ESMX 251320Z VRB02KT CAVOK M05/M08 Q1038=
201001251250 METAR ESMX 251250Z 35002KT CAVOK M04/M08 Q1039=
201001251220 METAR ESMX 251220Z VRB02KT CAVOK M05/M08 Q1039=
201001251150 METAR ESMX 251150Z VRB01KT CAVOK M06/M07 Q1039=
201001251120 METAR ESMX 251120Z 00000KT CAVOK M06/M07 Q1039=
201001251050 METAR ESMX 251050Z VRB01KT CAVOK M07/M08 Q1039=
201001251020 METAR ESMX 251020Z 35001KT CAVOK M07/M08 Q1039=
201001250950 METAR ESMX 250950Z VRB01KT CAVOK M08/M09 Q1039=
201001250920 METAR ESMX 250920Z 06001KT CAVOK M09/M10 Q1039=
201001250850 METAR ESMX 250850Z VRB01KT 9999 SCT019 M09/M10 Q1039=
201001250820 METAR ESMX 250820Z VRB01KT 9999 FEW019 BKN110 M11/M12 Q1039=
201001250750 METAR ESMX 250750Z 35002KT 9999 FEW019 BKN110 M12/M13 Q1039=
201001250720 METAR ESMX 250720Z 02001KT 9999 BKN019 BKN110 M12/M14 Q1038=
201001250650 METAR ESMX 250650Z 00000KT 9999 BKN019 M12/M13 Q1038=
201001250620 METAR ESMX 250620Z 35003KT 9999 OVC019 M12/M13 Q1038=
201001250550 METAR ESMX 250550Z 01002KT 9999 BKN018 M12/M13 Q1038=
201001250520 METAR ESMX 250520Z 00000KT 9999 SCT019 M12/M13 Q1038=
201001250450 METAR ESMX 250450Z VRB01KT 9999 BKN019 M12/M13 Q1038=
201001250420 METAR ESMX 250420Z AUTO VRB01KT 9999NDV BKN019/// M12/M13 Q1038=
201001250350 METAR ESMX 250350Z AUTO VRB01KT 9999NDV BKN019/// M12/M14 Q1038=
201001250320 METAR ESMX 250320Z AUTO 35001KT 9999NDV BKN019/// M12/M14 Q1038=
201001250250 METAR ESMX 250250Z AUTO 01002KT 9999NDV BKN018/// M12/M14 Q1038=
201001250220 METAR ESMX 250220Z AUTO 05002KT 9999NDV BKN018/// M12/M14 Q1038=
201001250150 METAR ESMX 250150Z AUTO 01001KT 9999NDV BKN018/// M11/M13 Q1038=
201001250120 METAR ESMX 250120Z AUTO 36002KT 9999NDV OVC018/// M11/M12 Q1038=
201001250050 METAR ESMX 250050Z 01002KT 9999 OVC018 M10/M12 Q1038=
201001250020 METAR ESMX 250020Z 01002KT 9999 BKN019 M10/M12 Q1038=
201001242350 METAR ESMX 242350Z 01003KT 9999 OVC019 M10/M12 Q1038=
201001242320 METAR ESMX 242320Z 34002KT 9999 OVC020 M11/M12 Q1038=
201001242250 METAR ESMX 242250Z VRB02KT 9999 OVC019 M11/M12 Q1038=
201001242220 METAR ESMX 242220Z VRB01KT 9999 OVC019 M11/M13 Q1038=
201001242150 METAR ESMX 242150Z VRB02KT 9999 OVC019 M12/M13 Q1038=
201001242120 METAR ESMX 242120Z 07002KT 9999 BKN019 M12/M13 Q1038=
201001242050 METAR ESMX 242050Z VRB01KT 9999 BKN020 M10/M11 Q1038=
201001242020 METAR ESMX 242020Z VRB02KT 9999 BKN020 M11/M12 Q1038=
201001241950 METAR ESMX 241950Z VRB02KT 9999 SCT020 M12/M13 Q1037=
201001241920 METAR ESMX 241920Z VRB02KT CAVOK M10/M11 Q1037=
201001241850 METAR ESMX 241850Z VRB02KT 9999 SCT021 M10/M11 Q1037=
201001241820 METAR ESMX 241820Z VRB02KT 9999 FEW022 M08/M10 Q1037=
201001241750 METAR ESMX 241750Z 10003KT 040V170 CAVOK M08/M10 Q1037=
201001241720 METAR ESMX 241720Z VRB02KT 9999 FEW020 M07/M10 Q1038=
201001241650 METAR ESMX 241650Z 10003KT 050V150 9999 FEW021 M06/M09 Q1037=
201001241620 METAR ESMX 241620Z VRB02KT 9999 FEW020 M06/M09 Q1037=
201001241550 METAR ESMX 241550Z 11003KT 050V160 CAVOK M06/M09 Q1037=
201001241520 METAR ESMX 241520Z 11003KT 070V190 CAVOK M06/M09 Q1037=
201001241450 METAR ESMX 241450Z VRB02KT CAVOK M06/M09 Q1037=
201001241420 METAR ESMX 241420Z 12003KT 070V160 CAVOK M05/M10 Q1037=
201001241350 METAR ESMX 241350Z 13004KT 060V170 CAVOK M05/M10 Q1037=
201001241320 METAR ESMX 241320Z 14005KT 090V190 CAVOK M05/M10 Q1037=
201001241250 METAR ESMX 241250Z AUTO 14006KT 090V180 9999NDV NCD M05/M10 Q1037=
201001241220 METAR ESMX 241220Z AUTO 13005KT 060V170 9999NDV FEW084/// M05/M10 Q1037=
201001241150 METAR ESMX 241150Z AUTO 13006KT 050V190 9999NDV NCD M05/M11 Q1037=
201001241120 METAR ESMX 241120Z AUTO 13006KT 080V180 9999NDV NCD M05/M11 Q1037=
201001241050 METAR ESMX 241050Z AUTO 12004KT 070V190 9999NDV NCD M05/M11 Q1037=
201001241020 METAR ESMX 241020Z AUTO 13004KT 050V190 9999NDV NCD M06/M10 Q1037=
201001240950 METAR ESMX 240950Z AUTO 11003KT 060V170 9999NDV NCD M06/M10 Q1037=
201001240920 METAR ESMX 240920Z AUTO 11003KT 060V160 9999NDV NCD M07/M10 Q1037=
201001240850 METAR ESMX 240850Z AUTO VRB02KT 9999NDV NCD M07/M10 Q1037=
201001240820 METAR ESMX 240820Z AUTO VRB02KT 9999NDV NCD M07/M10 Q1037=
201001240750 METAR ESMX 240750Z AUTO VRB02KT 9999NDV NCD M08/M10 Q1037=
201001240720 METAR ESMX 240720Z AUTO 09003KT 030V140 9999NDV NCD M08/M10 Q1037=
201001240650 METAR ESMX 240650Z AUTO 07003KT 360V120 9999NDV NCD M08/M10 Q1036=
201001240620 METAR ESMX 240620Z AUTO 07003KT 020V100 9999NDV NCD M08/M10 Q1036=
201001240550 METAR ESMX 240550Z AUTO VRB02KT 9999NDV NCD M08/M10 Q1036=
201001240520 METAR ESMX 240520Z AUTO VRB02KT 9999NDV FEW023/// M07/M10 Q1036=
201001240450 METAR ESMX 240450Z AUTO 08003KT 030V110 9999NDV BKN023/// M07/M10 Q1036=
201001240420 METAR ESMX 240420Z AUTO 08003KT 040V110 9999NDV BKN024/// M07/M09 Q1036=
201001240350 METAR ESMX 240350Z AUTO 09003KT 040V130 9999NDV BKN023/// M06/M09 Q1036=
201001240320 METAR ESMX 240320Z AUTO 10005KT 050V140 9999NDV OVC018/// M06/M09 Q1036=
201001240250 METAR ESMX 240250Z AUTO 13005KT 080V190 9999NDV OVC017/// M06/M09 Q1036=
201001240220 METAR ESMX 240220Z AUTO 13006KT 060V160 9999NDV OVC017/// M06/M09 Q1036=
201001240150 METAR ESMX 240150Z AUTO 12006KT 030V190 9999NDV OVC017/// M06/M09 Q1036=
201001240120 METAR ESMX 240120Z AUTO 12005KT 060V200 9999NDV OVC017/// M06/M09 Q1036=
201001240050 METAR ESMX 240050Z AUTO 11005KT 040V190 9999NDV OVC017/// M06/M09 Q1036=
201001240020 METAR ESMX 240020Z AUTO 10006KT 060V170 9999NDV OVC017/// M06/M09 Q1036=
201001232350 METAR ESMX 232350Z AUTO 10005KT 060V160 9999NDV -SN OVC017/// M06/M09 Q1037 RESG=
201001232320 METAR ESMX 232320Z AUTO 11007KT 060V170 9999NDV -SN OVC017/// M06/M09 Q1037=
201001232250 METAR ESMX 232250Z AUTO 10005KT 030V150 9999NDV IC OVC014/// M06/M09 Q1037=
201001232220 METAR ESMX 232220Z AUTO 10007KT 060V160 9999NDV OVC014/// M06/M09 Q1037=
201001232150 METAR ESMX 232150Z AUTO 11005KT 060V170 9999NDV OVC014/// M06/M09 Q1037=
201001232120 METAR ESMX 232120Z AUTO 10006KT 050V150 9999NDV IC OVC014/// M06/M09 Q1037=
201001232050 METAR ESMX 232050Z AUTO 09007KT 030V140 9999NDV OVC014/// M06/M09 Q1036=
201001232020 METAR ESMX 232020Z AUTO 10007KT 050V160 9999NDV OVC015/// M05/M09 Q1036=
201001231950 METAR ESMX 231950Z AUTO 09006KT 050V160 9999NDV OVC014/// M05/M08 Q1036=
201001231920 METAR ESMX 231920Z AUTO 10007KT 040V150 9999NDV OVC014/// M05/M08 Q1036=
201001231850 METAR ESMX 231850Z AUTO 10006KT 040V150 9999NDV OVC014/// M05/M08 Q1036=
201001231820 METAR ESMX 231820Z AUTO 08006KT 040V120 9999NDV OVC013/// M05/M08 Q1036=
201001231750 METAR ESMX 231750Z AUTO 09006KT 050V140 9999NDV OVC014/// M05/M08 Q1036=
201001231720 METAR ESMX 231720Z AUTO 08006KT 020V120 9999NDV OVC015/// M05/M08 Q1036=
201001231650 METAR ESMX 231650Z AUTO 09005KT 050V140 9999NDV OVC016/// M05/M08 Q1036=
201001231620 METAR ESMX 231620Z AUTO 08005KT 030V140 9999NDV OVC017/// M04/M08 Q1036=
201001231550 METAR ESMX 231550Z AUTO 09006KT 050V140 9999NDV OVC018/// M04/M08 Q1035=
201001231520 METAR ESMX 231520Z AUTO 10006KT 040V140 9999NDV OVC018/// M04/M08 Q1035=
201001231450 METAR ESMX 231450Z AUTO 11004KT 050V160 9999NDV OVC018/// M04/M08 Q1035=
201001231420 METAR ESMX 231420Z AUTO 11006KT 030V160 9999NDV OVC018/// M04/M08 Q1035=
201001231350 METAR ESMX 231350Z AUTO 11005KT 060V160 9999NDV BKN018/// M04/M08 Q1035=
201001231320 METAR ESMX 231320Z AUTO 12006KT 070V160 9999NDV BKN017/// M03/M07 Q1035=
201001231250 METAR ESMX 231250Z AUTO 12007KT 080V160 9999NDV BKN017/// M03/M07 Q1035=
201001231220 METAR ESMX 231220Z AUTO 12007KT 080V180 9999NDV SCT016/// M03/M07 Q1035=
201001231150 METAR ESMX 231150Z AUTO 12007KT 060V160 9999NDV FEW015/// M03/M07 Q1035=
201001231120 METAR ESMX 231120Z AUTO 12006KT 070V170 9999NDV NCD M03/M06 Q1035=
201001231050 METAR ESMX 231050Z AUTO 12005KT 080V180 9999NDV NCD M04/M06 Q1035=
201001231020 METAR ESMX 231020Z AUTO VRB02KT 9999NDV SCT013/// M07/M08 Q1035=
201001230950 METAR ESMX 230950Z AUTO 06003KT 8000NDV NCD M07/M08 Q1035=
201001230920 METAR ESMX 230920Z AUTO 05003KT 8000NDV NCD M08/M09 Q1035=
201001230850 METAR ESMX 230850Z AUTO 07003KT 040V110 9999NDV NCD M11/M12 Q1035=
201001230820 METAR ESMX 230820Z AUTO VRB02KT 8000NDV NCD M13/M14 Q1035=
201001230750 METAR ESMX 230750Z AUTO 05002KT 8000NDV BR NCD M14/M15 Q1035=
201001230720 METAR ESMX 230720Z AUTO 02002KT 8000NDV BR NCD M13/M14 Q1035=
201001230650 METAR ESMX 230650Z AUTO 01002KT 9000NDV BR NCD M12/M13 Q1034=
201001230620 METAR ESMX 230620Z AUTO 06002KT 7000NDV BR NCD M12/M13 Q1034=
201001230550 METAR ESMX 230550Z AUTO 06003KT 030V110 9000NDV BR NCD M11/M12 Q1034=
201001230520 METAR ESMX 230520Z AUTO 06003KT 030V110 8000NDV BR NCD M10/M11 Q1034=
201001230450 METAR ESMX 230450Z AUTO 07003KT 5000NDV BR NCD M12/M13 Q1034=
201001230420 METAR ESMX 230420Z AUTO 06002KT 6000NDV BR NCD M12/M13 Q1034=
201001230350 METAR ESMX 230350Z AUTO 06002KT 7000NDV BR NCD M11/M13 Q1034=
201001230320 METAR ESMX 230320Z AUTO 06003KT 3000NDV BR NCD M10/M11 Q1034=
201001230250 METAR ESMX 230250Z AUTO 06002KT 6000NDV NCD M10/M10 Q1035=
201001230220 METAR ESMX 230220Z AUTO VRB02KT 4900NDV NCD M09/M10 Q1035=
201001230150 METAR ESMX 230150Z AUTO 07002KT 1300NDV R01/P2000N R19/P2000N NCD M08/M09 Q1035=
201001230120 METAR ESMX 230120Z AUTO VRB02KT 9999NDV NCD M07/M08 Q1035=
201001230050 METAR ESMX 230050Z AUTO VRB02KT 9999NDV NCD M06/M07 Q1035=
201001230020 METAR ESMX 230020Z AUTO VRB02KT 9999NDV NCD M05/M07 Q1035=
201001222350 METAR ESMX 222350Z AUTO 12003KT 060V170 9999NDV BKN080/// M04/M07 Q1035=
201001222320 METAR ESMX 222320Z AUTO 12003KT 070V160 9999NDV OVC082/// M04/M07 Q1035=
201001222250 METAR ESMX 222250Z AUTO 13004KT 070V170 9999NDV OVC082/// M04/M06 Q1035=
201001222220 METAR ESMX 222220Z AUTO 13004KT 080V170 9999NDV OVC082/// M03/M06 Q1035=
201001222150 METAR ESMX 222150Z AUTO 12004KT 070V180 9999NDV OVC081/// M03/M06 Q1035=
201001222120 METAR ESMX 222120Z AUTO 13004KT 070V190 9999NDV OVC080/// M03/M06 Q1035=
201001222050 METAR ESMX 222050Z 12004KT 050V190 CAVOK M03/M06 Q1035=
201001222020 METAR ESMX 222020Z 12004KT 070V170 CAVOK M04/M06 Q1035=
201001221950 METAR ESMX 221950Z 11003KT 060V170 9999 SCT015 M04/M06 Q1034=
201001221920 METAR ESMX 221920Z 10004KT 040V150 9999 SCT017 M04/M06 Q1034=
201001221850 METAR ESMX 221850Z 10003KT 030V190 9999 BKN011 OVC015 M04/M06 Q1034=
201001221820 METAR ESMX 221820Z 10004KT 050V160 9999 OVC012 M03/M06 Q1034=
201001221750 METAR ESMX 221750Z 10004KT 060V150 9999 OVC013 M03/M06 Q1034=
201001221720 METAR ESMX 221720Z 10006KT 050V150 9999 BKN014 M03/M06 Q1034=
201001221650 METAR ESMX 221650Z 10005KT 030V140 9999 SCT014 M03/M06 Q1034=
201001221620 METAR ESMX 221620Z 08004KT 030V110 9999 SCT017 M04/M06 Q1034=
201001221550 METAR ESMX 221550Z 08003KT 020V140 9999 BKN015 M04/M06 Q1035=
201001221520 METAR ESMX 221520Z 08003KT 050V120 9999 BKN016 M03/M06 Q1035=
201001221450 METAR ESMX 221450Z 10004KT 020V170 9999 BKN015 M03/M06 Q1034=
201001221420 METAR ESMX 221420Z 12006KT 070V160 9999 BKN015 M02/M06 Q1034=
201001221350 METAR ESMX 221350Z 11005KT 070V170 9999 FEW014 BKN016 M02/M06 Q1034=
201001221320 METAR ESMX 221320Z 09006KT 040V160 9999 BKN012 M02/M05 Q1034=
201001221250 METAR ESMX 221250Z 09005KT 030V150 9999 FEW009 OVC013 M02/M05 Q1034=
201001221220 METAR ESMX 221220Z 09005KT 050V170 9999 BKN009 OVC011 M02/M04 Q1034=
201001221150 METAR ESMX 221150Z 09004KT 040V140 9999 OVC010 M02/M05 Q1035=
201001221120 METAR ESMX 221120Z 10005KT 020V150 9999 OVC012 M02/M05 Q1035=
201001221050 METAR ESMX 221050Z 11005KT 060V160 9999 FEW011 BKN013 OVC018 M02/M05 Q1035=
201001221020 METAR ESMX 221020Z 11006KT 060V150 9999 BKN010 M03/M05 Q1035=
201001220950 METAR ESMX 220950Z 10004KT 030V150 9999 OVC009 M03/M05 Q1035=
201001220920 METAR ESMX 220920Z 10006KT 070V160 9999 OVC009 M03/M05 Q1035=
201001220850 METAR ESMX 220850Z 10004KT 040V160 9999 OVC009 M03/M05 Q1035=
201001220820 METAR ESMX 220820Z 11005KT 040V170 9999 OVC010 M03/M05 Q1035=
201001220750 METAR ESMX 220750Z 11006KT 020V150 9999 OVC010 M03/M05 Q1034=
201001220720 METAR ESMX 220720Z 10006KT 020V170 9999 OVC010 M03/M05 Q1034=
201001220650 METAR ESMX 220650Z 11005KT 050V170 9999 OVC010 M03/M05 Q1034=
201001220620 METAR ESMX 220620Z 11005KT 070V160 9999 OVC010 M03/M05 Q1034=
201001220550 METAR ESMX 220550Z 11005KT 060V160 9999 OVC010 M03/M05 Q1034=
201001220520 METAR ESMX 220520Z 10005KT 050V160 9999 OVC010 M03/M05 Q1034=
201001220450 METAR ESMX 220450Z 09004KT 040V130 9999 BKN010 OVC030 M03/M05 Q1034=
201001220420 METAR ESMX 220420Z AUTO 08004KT 040V120 9999NDV FEW012/// OVC028/// M04/M05 Q1034=
201001220350 METAR ESMX 220350Z AUTO 07003KT 010V120 9999NDV FEW013/// OVC039/// M04/M06 Q1034=
201001220320 METAR ESMX 220320Z AUTO 06003KT 020V120 9999NDV OVC033/// M04/M06 Q1034=
201001220250 METAR ESMX 220250Z AUTO 07005KT 040V110 9999NDV FEW016/// OVC028/// M04/M06 Q1034=
201001220220 METAR ESMX 220220Z AUTO 08005KT 030V160 9999NDV OVC016/// M04/M06 Q1034=
201001220150 METAR ESMX 220150Z 07005KT 030V120 9999 OVC018 M04/M06 Q1034=
201001220120 METAR ESMX 220120Z 08005KT 030V130 9999 OVC020 M04/M06 Q1034=
201001220050 METAR ESMX 220050Z 08005KT 030V140 9999 OVC020 M04/M06 Q1034=
201001220020 METAR ESMX 220020Z 09005KT 040V130 9999 OVC022 M04/M06 Q1034=
201001212350 METAR ESMX 212350Z 08005KT 050V120 9999 OVC022 M04/M06 Q1034=
201001212320 METAR ESMX 212320Z 08006KT 040V120 9999 FEW018 BKN022 M04/M06 Q1034=
201001212250 METAR ESMX 212250Z 08006KT 040V140 9999 FEW017 BKN020 M03/M07 Q1034=
201001212220 METAR ESMX 212220Z 11006KT 040V170 9999 SCT016 BKN020 M03/M06 Q1034=
201001212150 METAR ESMX 212150Z VRB05KT 9999 SCT014 BKN020 M03/M06 Q1034=
201001212120 METAR ESMX 212120Z 10006KT 060V160 9999 FEW014 BKN016 M03/M06 Q1034=
201001212050 METAR ESMX 212050Z 10005KT 040V170 9999 FEW013 BKN016 OVC020 M03/M06 Q1034=
201001212020 METAR ESMX 212020Z 10005KT 050V140 9999 BKN014 OVC019 M03/M06 Q1034=
201001211950 METAR ESMX 211950Z 09006KT 030V140 9999 BKN014 OVC020 M03/M06 Q1033=
201001211920 METAR ESMX 211920Z 09006KT 030V160 9999 BKN014 M03/M05 Q1033=
201001211850 METAR ESMX 211850Z 09005KT 040V140 9999 BKN013 M03/M06 Q1033=
201001211820 METAR ESMX 211820Z 09005KT 030V140 9999 BKN015 M03/M05 Q1033=
201001211750 METAR ESMX 211750Z 09005KT 050V140 9999 FEW015 BKN018 M03/M05 Q1033=
201001211720 METAR ESMX 211720Z 08006KT 360V120 9999 FEW013 BKN018 M03/M05 Q1033=
201001211650 METAR ESMX 211650Z 08005KT 030V120 9999 BKN013 BKN019 M03/M05 Q1033=
201001211620 METAR ESMX 211620Z 05004KT 010V100 9999 SCT016 BKN200 M03/M05 Q1033=
201001211520 METAR ESMX 211520Z 08005KT 020V120 9999 FEW014 BKN016 M02/M05 Q1033=
201001211450 METAR ESMX 211450Z 08005KT 040V130 9999 BKN015 M02/M05 Q1033=
201001211420 METAR ESMX 211420Z 09005KT 030V140 9999 BKN014 M02/M05 Q1033=
201001211350 METAR ESMX 211350Z 08006KT 040V140 9999 BKN014 M02/M04 Q1032=
201001211320 METAR ESMX 211320Z 09006KT 040V130 9999 BKN013 BKN019 M02/M04 Q1032=
201001211250 METAR ESMX 211250Z 09006KT 050V160 9999 BKN013 M02/M04 Q1032=
201001211220 METAR ESMX 211220Z 10005KT 040V160 9999 BKN013 BKN017 M02/M04 Q1032=
201001211150 METAR ESMX 211150Z 09005KT 060V140 9999 BKN012 M02/M04 Q1032=
201001211120 METAR ESMX 211120Z 10006KT 050V150 9999 BKN011 M02/M04 Q1032=
201001211050 METAR COR ESMX 211050Z 10005KT 040V150 9999 SCT013 M02/M04 Q1032=
201001210950 METAR ESMX 210950Z 09005KT 030V130 9999 SCT012 M03/M04 Q1032=
201001210920 METAR ESMX 210920Z 08004KT 030V120 9999 SCT015 M03/M05 Q1032=
201001210850 METAR ESMX 210850Z 07004KT 030V120 9999 FEW010 M03/M05 Q1032=
201001210820 METAR ESMX 210820Z 08004KT 040V120 CAVOK M03/M05 Q1032=
201001210750 METAR ESMX 210750Z 08004KT 020V120 CAVOK M03/M05 Q1031=
201001210720 METAR ESMX 210720Z 08004KT 040V130 9999 FEW014 M03/M05 Q1031=
201001210650 METAR ESMX 210650Z 08005KT 020V120 CAVOK M03/M04 Q1031=
201001210620 METAR ESMX 210620Z 09005KT 350V150 CAVOK M03/M04 Q1030=
201001210550 METAR ESMX 210550Z 09004KT 9999 FEW014 SCT055 M03/M04 Q1030=
201001210520 METAR ESMX 210520Z 09004KT 040V140 9999 FEW013 M03/M04 Q1030=
201001210450 METAR ESMX 210450Z 08003KT 020V140 9999 FEW018 M03/M04 Q1030=
201001210420 METAR ESMX 210420Z AUTO 09004KT 040V140 9999NDV FEW013/// M03/M04 Q1030=
201001210350 METAR ESMX 210350Z AUTO 07004KT 020V130 9999NDV FEW009/// SCT037/// BKN041/// M03/M04 Q1029=
201001210320 METAR ESMX 210320Z AUTO 09005KT 050V120 3800NDV -SN FEW008/// SCT012/// BKN014/// M03/M04 Q1029=
201001210250 METAR ESMX 210250Z AUTO 09004KT 030V140 2700NDV -SN FEW009/// M03/M04 Q1029=
201001210220 METAR ESMX 210220Z AUTO 08004KT 020V130 3300NDV -SN SCT010/// M03/M04 Q1029=
201001210150 METAR ESMX 210150Z AUTO 08004KT 040V130 3000NDV -SN FEW009/// BKN011/// M03/M04 Q1029=
201001210120 METAR ESMX 210120Z AUTO 09004KT 040V160 4700NDV -SN FEW010/// BKN012/// M03/M04 Q1029=
201001210050 METAR ESMX 210050Z AUTO 08004KT 040V150 3400NDV -SN FEW008/// SCT012/// BKN015/// M03/M04 Q1029=
201001210020 METAR ESMX 210020Z 07004KT 030V120 3000 -SN FEW008 SCT012 BKN014 M03/M04 Q1028=
201001202350 METAR ESMX 202350Z 08004KT 030V140 3000 -SN FEW006 BKN011 M03/M04 Q1028=
201001202320 METAR ESMX 202320Z 08004KT 020V120 9999 OVC008 M03/M04 Q1028=
201001202250 METAR ESMX 202250Z 08004KT 030V120 9999 OVC007 M03/M04 Q1028=
201001202220 METAR ESMX 202220Z 08003KT 010V120 9999 OVC007 M03/M04 Q1028=
201001202150 METAR ESMX 202150Z 08003KT 040V140 9999 OVC005 M03/M04 Q1028=
201001202120 METAR ESMX 202120Z 07004KT 030V120 9000 BR OVC004 M04/M05 Q1028=
201001202050 METAR ESMX 202050Z 09003KT 030V140 8000 BR OVC004 M04/M05 Q1028=
201001202020 METAR ESMX 202020Z 08004KT 020V140 9999 OVC005 M04/M05 Q1027=
201001201950 METAR ESMX 201950Z 08004KT 040V110 9999 OVC006 M04/M06 Q1027=
201001201920 METAR ESMX 201920Z 08005KT 050V110 9999 OVC008 M04/M06 Q1027=
201001201850 METAR ESMX 201850Z 08004KT 010V120 9999 OVC008 M04/M06 Q1027=
201001201820 METAR ESMX 201820Z 08005KT 030V140 9000 -SN OVC011 M04/M06 Q1027=
201001201750 METAR ESMX 201750Z 09004KT 030V160 9999 -SN FEW013 SCT017 OVC020 M04/M07 Q1027=
201001201720 METAR ESMX 201720Z 10006KT 060V170 9999 -SN FEW015 OVC023 M04/M07 Q1027=
201001201650 METAR ESMX 201650Z 11006KT 040V170 9999 FEW012 BKN014 OVC019 M04/M07 Q1026=
201001201620 METAR ESMX 201620Z 11005KT 050V160 9999 -SN FEW012 SCT016 BKN022 M04/M06 Q1026 RESG=
201001201550 METAR ESMX 201550Z 09005KT 010V140 9999 -SN SCT012 BKN020 OVC024 M04/M05 Q1026=
201001201520 METAR ESMX 201520Z 09005KT 030V140 8000 -SN BKN011 OVC016 M03/M05 Q1026 RESG=
201001201450 METAR ESMX 201450Z 09005KT 030V150 9999 OVC011 M03/M05 Q1026=
201001201420 METAR ESMX 201420Z 08006KT 030V110 9999 OVC012 M03/M05 Q1026=
201001201350 METAR ESMX 201350Z 08005KT 010V140 9000 BR OVC012 M03/M05 Q1026=
201001201320 METAR ESMX 201320Z 10007KT 040V150 9999 OVC011 M03/M05 Q1025=
201001201250 METAR ESMX 201250Z 09005KT 050V150 9999 -SN OVC012 M03/M05 Q1025=
201001201220 METAR ESMX 201220Z 08005KT 030V150 9999 FEW013 BKN016 OVC022 M03/M05 Q1025=
201001201150 METAR ESMX 201150Z 08006KT 030V110 9999 BKN013 OVC020 M03/M05 Q1026 RESG=
201001201120 METAR ESMX 201120Z 06006KT 010V120 9999 SG FEW012 BKN015 OVC019 M03/M05 Q1026=
201001201050 METAR ESMX 201050Z 06006KT 010V110 5000 -SN FEW010 BKN017 BKN021 M03/M05 Q1026=
201001201020 METAR ESMX 201020Z 06006KT 030V120 5000 -SN FEW008 SCT015 BKN020 M03/M04 Q1026=
201001200950 METAR ESMX 200950Z 04006KT 010V070 3000 -SN FEW006 BKN025 M03/M04 Q1026=
201001200920 METAR ESMX 200920Z 06005KT 020V110 5000 -SN FEW010 BKN025 M03/M04 Q1026=
201001200850 METAR ESMX 200850Z 08005KT 030V120 4000 -SN BKN008 OVC015 M03/M04 Q1026=
201001200820 METAR ESMX 200820Z 06006KT 010V120 5000 -SN FEW009 BKN014 OVC015 M03/M04 Q1026=
201001200750 METAR ESMX 200750Z 09005KT 050V130 4000 -SN FEW007 OVC010 M03/M04 Q1026=
201001200720 METAR ESMX 200720Z 06005KT 020V110 8000 -SN FEW006 OVC010 M03/M04 Q1026=
201001200650 METAR ESMX 200650Z 04005KT 350V110 5000 -SN FEW007 OVC013 M03/M04 Q1026=
201001200620 METAR ESMX 200620Z 06004KT 010V120 8000 -SN FEW007 OVC009 M03/M04 Q1026=
201001200550 METAR ESMX 200550Z 04003KT 350V100 6000 -SN BKN002 OVC006 M03/M03 Q1026 RESG=
201001200520 METAR ESMX 200520Z 04004KT 010V070 4800 -SN BKN002 OVC005 M03/M04 Q1026 REFRDZ=
201001200450 METAR ESMX 200450Z 05004KT 010V080 3400 -FZDZ FEW003 BKN005 M03/M04 Q1026=
201001200420 METAR ESMX 200420Z AUTO 05005KT 010V100 7000NDV BR FEW006/// OVC007/// M03/M04 Q1026=
201001200350 METAR ESMX 200350Z AUTO 05005KT 020V080 9999NDV FEW008/// BKN011/// OVC037/// M03/M04 Q1026=
201001200320 METAR ESMX 200320Z AUTO 05005KT 9999NDV FEW009/// SCT011/// OVC035/// M03/M04 Q1027=
201001200250 METAR ESMX 200250Z AUTO 04005KT 360V090 9999NDV FEW009/// BKN010/// OVC014/// M02/M04 Q1027=
201001200220 METAR ESMX 200220Z AUTO 07007KT 040V110 9999NDV FEW008/// BKN010/// OVC015/// M02/M04 Q1027=
201001200150 METAR ESMX 200150Z AUTO 05007KT 010V080 9999NDV FEW006/// SCT008/// BKN010/// M02/M04 Q1027=
201001200120 METAR ESMX 200120Z AUTO 08006KT 030V120 9999NDV FEW005/// SCT007/// BKN008/// M02/M03 Q1027=
201001200050 METAR ESMX 200050Z 06006KT 350V140 9000 -SN FEW006 SCT009 BKN010 M02/M03 Q1027=
201001200020 METAR ESMX 200020Z 07006KT 040V130 6000 -SN OVC006 M02/M03 Q1027=
201001192350 METAR ESMX 192350Z 07007KT 040V130 7000 -SN BKN006 OVC009 M02/M03 Q1027=
201001192320 METAR ESMX 192320Z 05006KT 350V100 9000 -SN OVC007 M02/M03 Q1027=
201001192250 METAR ESMX 192250Z 06005KT 350V100 7000 -SN OVC007 M02/M03 Q1027=
201001192150 METAR ESMX 192150Z 08006KT 030V120 9999 -SN OVC007 M01/M03 Q1027=
201001192120 METAR ESMX 192120Z 07005KT 350V100 9999 -SN BKN008 OVC011 M01/M03 Q1027=
201001192050 METAR ESMX 192050Z 08005KT 040V140 9999 -SN FEW009 SCT011 BKN014 M01/M02 Q1027=
201001192020 METAR ESMX 192020Z 07006KT 020V120 9999 -SN FEW009 BKN010 M01/M02 Q1027=
201001191950 METAR ESMX 191950Z 07005KT 360V110 9999 -SN FEW010 BKN013 OVC018 M01/M02 Q1027=
201001191920 METAR ESMX 191920Z 06005KT 020V120 8000 -SN FEW006 SCT009 BKN011 M01/M02 Q1026=
201001191850 METAR ESMX 191850Z 08005KT 030V150 8000 -SN SCT006 OVC008 M00/M01 Q1026=
201001191820 METAR ESMX 191820Z 06004KT 020V110 7000 -SN BKN006 OVC010 M00/M01 Q1026=
201001191750 METAR ESMX 191750Z 08004KT 030V110 5000 -SN OVC005 M00/M01 Q1026=
201001191720 METAR ESMX 191720Z 06004KT 020V120 7000 -SN BKN005 OVC010 M00/M01 Q1026=
201001191650 METAR ESMX 191650Z 06004KT 010V110 5000 -SN FEW006 OVC011 M00/M01 Q1026=
201001191620 METAR ESMX 191620Z 06004KT 020V100 6000 -SN FEW007 OVC010 M00/M01 Q1026=
201001191550 METAR ESMX 191550Z 06004KT 030V090 3000 -SN FEW005 SCT007 OVC009 M00/M01 Q1025=
201001191520 METAR ESMX 191520Z 05004KT 020V100 5000 -SN OVC005 M00/M01 Q1025=
201001191450 METAR ESMX 191450Z 05004KT 020V080 5000 -SN OVC006 M00/M01 Q1025=
201001191420 METAR ESMX 191420Z 06003KT 020V090 5000 -SN OVC005 M00/M01 Q1025=
201001191350 METAR ESMX 191350Z 06003KT 020V110 5000 -SN FEW003 OVC005 M00/M01 Q1025=
201001191320 METAR ESMX 191320Z 05003KT 360V080 3000 -SN FEW003 OVC005 M00/M01 Q1024=
201001191250 METAR ESMX 191250Z VRB01KT 4000 -SN BKN003 OVC005 M00/M01 Q1024=
201001191220 METAR ESMX 191220Z 17002KT 4000 -SN BKN003 OVC006 M00/M01 Q1024=
201001191150 METAR ESMX 191150Z VRB02KT 3000 SG FEW004 OVC005 M00/M01 Q1024=
201001191120 METAR ESMX 191120Z 06004KT 020V100 4000 -SN BKN003 OVC006 M00/M01 Q1024=
201001191050 METAR ESMX 191050Z 05003KT 010V080 3500 -SN BKN003 OVC005 M00/M01 Q1024=
201001191020 METAR ESMX 191020Z 04003KT 3000 -SN BKN003 OVC006 M00/M01 Q1024=
201001190950 METAR ESMX 190950Z VRB02KT 2200 SG FEW003 OVC005 M00/M01 Q1024=
201001190920 METAR ESMX 190920Z VRB02KT 2500 SG OVC002 M00/M01 Q1024=
201001190850 METAR ESMX 190850Z VRB02KT 2200 SG OVC003 M00/M01 Q1024=
201001190820 METAR ESMX 190820Z VRB02KT 3500 SG OVC003 M00/M01 Q1023=
201001190750 METAR ESMX 190750Z 07003KT 040V110 3400 BR OVC003 M00/M01 Q1023=
201001190720 METAR ESMX 190720Z 07003KT 030V140 4300 BR OVC003 M00/M01 Q1023=
201001190650 METAR ESMX 190650Z 07003KT 040V110 5000 BR OVC003 M01/M01 Q1023=
201001190620 METAR ESMX 190620Z VRB02KT 4300 BR OVC003 M01/M01 Q1022=
201001190550 METAR ESMX 190550Z VRB02KT 3800 BR OVC003 M01/M01 Q1022=
201001190520 METAR ESMX 190520Z 08003KT 020V110 4900 BR OVC003 M01/M01 Q1022=
201001190450 METAR ESMX 190450Z 07003KT 5000 BR OVC005 M01/M01 Q1022=
201001190420 METAR ESMX 190420Z AUTO 06003KT 040V100 5000NDV BR OVC005/// M01/M01 Q1022=
201001190350 METAR ESMX 190350Z AUTO 04003KT 3700NDV BR FEW004/// OVC006/// M01/M01 Q1022=
201001190320 METAR ESMX 190320Z AUTO 04003KT 020V080 2600NDV FEW002/// OVC003/// M01/M01 Q1022=
201001190250 METAR ESMX 190250Z AUTO 04003KT 1700NDV -SN OVC001/// M01/M01 Q1022=
201001190220 METAR ESMX 190220Z AUTO 04003KT 020V080 1000NDV R01/P2000N R19/P2000N FZFG OVC001/// M01/M01 Q1022=
201001190150 METAR ESMX 190150Z AUTO 05003KT 1100NDV R01/P2000N R19/P2000N BR OVC001/// M01/M01 Q1021=
201001190120 METAR ESMX 190120Z 04003KT 2200 BR OVC002 M01/M02 Q1021=
201001190050 METAR ESMX 190050Z 04004KT 4500 BR OVC003 M01/M02 Q1021=
201001190020 METAR ESMX 190020Z 04003KT 5000 BR OVC004 M01/M02 Q1021=
201001182350 METAR ESMX 182350Z 05003KT 020V080 4800 BR OVC005 M01/M02 Q1021=
201001182320 METAR ESMX 182320Z 06002KT 3600 -SN BKN002 OVC006 M01/M02 Q1021=
201001182250 METAR ESMX 182250Z 04002KT 2100 -SN OVC002 M01/M02 Q1021=
201001182220 METAR ESMX 182220Z 02003KT 3800 SG OVC003 M01/M02 Q1021=
201001182150 METAR ESMX 182150Z 02003KT 5000 BR OVC004 M01/M02 Q1021=
201001182120 METAR ESMX 182120Z 04003KT 6000 BR OVC005 M01/M02 Q1021=
201001182050 METAR ESMX 182050Z 05002KT 5000 BR OVC006 M01/M02 Q1021=
201001182020 METAR ESMX 182020Z 03002KT 7000 BR OVC007 M02/M02 Q1021=
201001181950 METAR ESMX 181950Z 04002KT 7000 BR BKN009 M02/M02 Q1021=
201001181920 METAR ESMX 181920Z 02002KT 7000 BR FEW007 BKN016 M02/M02 Q1021=
201001181850 METAR ESMX 181850Z VRB02KT 8000 BR FEW010 BKN020 M02/M02 Q1021=
201001181820 METAR ESMX 181820Z VRB02KT 8000 -SN SCT008 OVC026 M02/M02 Q1021=
201001181750 METAR ESMX 181750Z VRB02KT 8000 -SN SCT008 BKN011 OVC025 M02/M02 Q1021=
201001181720 METAR ESMX 181720Z 05002KT 7000 -SN FEW009 SCT014 BKN020 M02/M02 Q1020=
201001181650 METAR ESMX 181650Z VRB02KT 4000 -SN FEW008 SCT012 BKN015 M01/M02 Q1020=
201001181620 METAR ESMX 181620Z VRB02KT 9999 OVC007 M01/M02 Q1020=
201001181550 METAR ESMX 181550Z VRB02KT 9999 OVC007 M01/M02 Q1020=
201001181520 METAR ESMX 181520Z VRB02KT 9999 OVC008 M01/M02 Q1020=
201001181450 METAR ESMX 181450Z VRB02KT 9999 -SN OVC007 M01/M03 Q1020=
201001181420 METAR ESMX 181420Z VRB02KT 9999 OVC009 M01/M03 Q1020=
201001181350 METAR ESMX 181350Z 06003KT 020V110 9999 OVC013 M01/M03 Q1020=
201001181320 METAR ESMX 181320Z 07003KT 030V130 9999 -SN FEW007 BKN017 M01/M02 Q1020=
201001181250 METAR ESMX 181250Z 08003KT 050V160 6000 -SN FEW006 BKN020 M01/M02 Q1020 RESN=
201001181220 METAR ESMX 181220Z VRB03KT 9999 FEW010 BKN018 OVC028 M01/M03 Q1020=
201001181150 METAR ESMX 181150Z 08003KT 040V130 9999 FEW010 BKN013 OVC018 M01/M03 Q1020=
201001181120 METAR ESMX 181120Z 09003KT 040V130 9999 BKN010 OVC016 M01/M03 Q1020=
201001181050 METAR ESMX 181050Z 09003KT 060V140 9999 -SN FEW009 BKN010 OVC015 M01/M02 Q1020=
201001181020 METAR ESMX 181020Z 08003KT 040V130 9000 -SN FEW008 BKN010 OVC013 M01/M02 Q1020=
201001180950 METAR ESMX 180950Z VRB02KT 7000 -SN FEW008 OVC010 M01/M02 Q1020=
201001180920 METAR ESMX 180920Z 05003KT 330V110 9999 -SN BKN008 OVC020 M01/M02 Q1020=
201001180850 METAR ESMX 180850Z 08004KT 020V140 9999 OVC008 M01/M02 Q1020=
201001180820 METAR ESMX 180820Z 07004KT 020V120 9999 FEW008 OVC009 M02/M03 Q1020=
201001180720 METAR ESMX 180720Z 07003KT 040V100 5000 -SN FEW008 OVC009 M02/M02 Q1020=
201001180650 METAR ESMX 180650Z 07003KT 020V100 4200 -SN FEW008 SCT009 OVC011 M02/M02 Q1020=
201001180620 METAR ESMX 180620Z 07003KT 3200 SN FEW008 BKN011 OVC016 M02/M02 Q1019=
201001180550 METAR ESMX 180550Z 08004KT 040V130 3000 -SN BKN006 OVC010 M02/M03 Q1019=
201001180520 METAR ESMX 180520Z 08004KT 360V160 8000 -SN OVC005 M02/M03 Q1019=
201001180450 METAR ESMX 180450Z 09005KT 050V230 8000 -SN OVC006 M02/M02 Q1019=
201001180420 METAR ESMX 180420Z AUTO 09005KT 040V140 5000NDV SG OVC007/// M01/M02 Q1019=
201001180350 METAR ESMX 180350Z AUTO 10006KT 060V150 5000NDV SG OVC006/// M01/M02 Q1019=
201001180320 METAR ESMX 180320Z AUTO 10006KT 050V160 3900NDV -SN OVC006/// M01/M02 Q1019=
201001180250 METAR ESMX 180250Z AUTO 09006KT 040V160 4900NDV SG OVC006/// M02/M02 Q1019=
201001180220 METAR ESMX 180220Z AUTO VRB04KT 4200NDV SG BKN008/// OVC011/// M02/M03 Q1019=
201001180150 METAR ESMX 180150Z 09004KT 030V130 8000 SG FEW007 OVC009 M02/M03 Q1019=
201001180120 METAR ESMX 180120Z 09004KT 030V150 5000 SG FEW004 SCT006 OVC007 M02/M02 Q1019=
201001180050 METAR ESMX 180050Z 10005KT 050V150 2700 -SN FEW004 BKN006 M02/M02 Q1019 RESG=
201001180020 METAR ESMX 180020Z 11005KT 050V160 3700 SG OVC005 M02/M03 Q1019 RESG=
201001172320 METAR ESMX 172320Z 11007KT 070V170 5000 SG OVC006 M02/M03 Q1019=
201001172250 METAR ESMX 172250Z 11007KT 070V160 6000 BR OVC006 M02/M03 Q1019=
201001172220 METAR ESMX 172220Z 12007KT 060V190 6000 BR OVC006 M02/M03 Q1019=
201001172150 METAR ESMX 172150Z 12008G19KT 080V170 7000 BR OVC005 M02/M03 Q1019=
201001172120 METAR ESMX 172120Z 12008KT 060V170 7000 BR OVC005 M02/M03 Q1019=
201001172050 METAR ESMX 172050Z 12006KT 070V170 7000 BR OVC005 M02/M03 Q1019=
201001172020 METAR ESMX 172020Z VRB07KT 8000 BR OVC006 M02/M03 Q1019=
201001171950 METAR ESMX 171950Z 12007KT 060V180 8000 BR OVC006 M02/M03 Q1019=
201001171920 METAR ESMX 171920Z 12008G21KT 060V190 9999 BR OVC006 M02/M03 Q1019=
201001171850 METAR ESMX 171850Z 11007KT 040V170 8000 SG OVC006 M02/M03 Q1019=
201001171820 METAR COR ESMX 171820Z 11008KT 050V160 9000 SG OVC006 M02/M03 Q1019=
201001171750 METAR ESMX 171750Z 10008KT 040V160 9999 -SN OVC005 M02/M03 Q1019=
201001171720 METAR ESMX 171720Z 10008KT 050V170 8000 -SN OVC006 M02/M04 Q1019=
201001171650 METAR ESMX 171650Z 14012KT 080V170 9000 -SN OVC006 M02/M04 Q1019=
201001171550 METAR ESMX 171550Z 10008KT 040V160 8000 -SN OVC006 M03/M04 Q1019=
201001171450 METAR ESMX 171450Z 09009KT 050V140 9999 OVC007 M03/M04 Q1019=
201001171420 METAR ESMX 171420Z AUTO 09009KT 040V140 9999NDV -SN OVC008/// M03/M04 Q1019=
201001171350 METAR ESMX 171350Z AUTO 10009G20KT 040V150 8000NDV SG OVC007/// M03/M04 Q1019=
201001171320 METAR ESMX 171320Z AUTO 10008G18KT 060V180 9999NDV -SN OVC008/// M02/M04 Q1019=
201001171250 METAR ESMX 171250Z AUTO 11008KT 030V170 9999NDV OVC008/// M02/M04 Q1019=
201001171220 METAR ESMX 171220Z AUTO 10009G20KT 010V160 9999NDV FZUP OVC009/// M02/M04 Q1019=
201001171150 METAR ESMX 171150Z AUTO 10007KT 030V190 9999NDV OVC009/// M02/M05 Q1019=
201001171120 METAR ESMX 171120Z AUTO VRB09KT 9999NDV OVC010/// M02/M05 Q1020=
201001171050 METAR ESMX 171050Z AUTO 10008G18KT 040V160 9999NDV OVC011/// M02/M05 Q1020=
201001171020 METAR ESMX 171020Z AUTO 11009G20KT 030V170 9999NDV OVC012/// M02/M05 Q1020=
201001170950 METAR ESMX 170950Z AUTO 11011KT 060V160 9999NDV OVC012/// M02/M05 Q1020=
201001170920 METAR ESMX 170920Z AUTO 11011G24KT 060V210 9999NDV OVC013/// M02/M06 Q1020=
201001170850 METAR ESMX 170850Z AUTO 11011KT 060V170 9999NDV OVC013/// M02/M05 Q1020=
201001170820 METAR ESMX 170820Z AUTO 11009G19KT 060V190 9999NDV OVC014/// M02/M05 Q1020=
201001170750 METAR ESMX 170750Z AUTO 11010G21KT 040V160 9999NDV OVC017/// M02/M06 Q1020=
201001170720 METAR ESMX 170720Z AUTO 11012KT 060V170 9999NDV OVC017/// M02/M06 Q1020=
201001170650 METAR ESMX 170650Z AUTO 12010G21KT 050V200 9999NDV OVC015/// M02/M05 Q1020=
201001170620 METAR ESMX 170620Z AUTO 12007KT 050V190 9999NDV OVC014/// M02/M04 Q1020=
201001170550 METAR ESMX 170550Z AUTO 12009G19KT 060V160 9999NDV OVC014/// M01/M04 Q1020=
201001170520 METAR ESMX 170520Z AUTO 12008KT 070V240 9999NDV OVC014/// M01/M04 Q1021=
201001170450 METAR ESMX 170450Z AUTO 12009G19KT 060V170 9999NDV OVC013/// M01/M04 Q1021=
201001170420 METAR ESMX 170420Z AUTO 12009G21KT 070V170 9999NDV OVC013/// M01/M04 Q1021=
201001170350 METAR ESMX 170350Z AUTO 12010KT 060V200 9999NDV OVC012/// M01/M04 Q1021=
201001170320 METAR ESMX 170320Z AUTO 12009KT 050V170 9999NDV OVC011/// M01/M04 Q1021=
201001170250 METAR ESMX 170250Z AUTO 12009G19KT 080V160 9999NDV OVC011/// M01/M04 Q1022=
201001170220 METAR ESMX 170220Z AUTO 11008G19KT 050V200 9999NDV OVC011/// M02/M04 Q1022=
201001170150 METAR ESMX 170150Z AUTO 12008G18KT 060V170 9999NDV OVC011/// M02/M04 Q1023=
201001170120 METAR ESMX 170120Z AUTO 12008KT 060V170 9999NDV OVC010/// M02/M04 Q1023=
201001170050 METAR ESMX 170050Z AUTO 12009KT 070V180 9999NDV OVC009/// M02/M04 Q1023=
201001170020 METAR ESMX 170020Z AUTO VRB08KT 9999NDV OVC008/// M03/M04 Q1024=
201001162350 METAR ESMX 162350Z AUTO 13008KT 080V200 9999NDV OVC009/// M03/M05 Q1024=
201001162320 METAR ESMX 162320Z AUTO 12008KT 040V180 9999NDV OVC008/// M03/M05 Q1024=
201001162250 METAR ESMX 162250Z AUTO 12007KT 070V170 9999NDV OVC008/// M03/M05 Q1024=
201001162220 METAR ESMX 162220Z AUTO 11008KT 060V160 9999NDV OVC009/// M03/M05 Q1025=
201001162150 METAR ESMX 162150Z AUTO 11008KT 060V160 9999NDV OVC010/// M04/M06 Q1025=
201001162120 METAR ESMX 162120Z AUTO 11007KT 010V160 9999NDV BKN011/// M04/M06 Q1026=
201001162050 METAR ESMX 162050Z AUTO 11007KT 070V170 9999NDV OVC011/// M04/M06 Q1026=
201001162020 METAR ESMX 162020Z AUTO 11007KT 070V170 9999NDV OVC010/// M04/M06 Q1026=
201001161950 METAR ESMX 161950Z AUTO 11006KT 060V200 9999NDV OVC010/// M04/M06 Q1027=
201001161920 METAR ESMX 161920Z AUTO 12008KT 070V170 9999NDV OVC011/// M04/M06 Q1027=
201001161850 METAR ESMX 161850Z AUTO 11008KT 040V170 9999NDV OVC010/// M04/M06 Q1027=
201001161820 METAR ESMX 161820Z AUTO 12007KT 050V170 9999NDV OVC010/// M03/M06 Q1028=
201001161750 METAR ESMX 161750Z AUTO VRB08KT 9999NDV OVC010/// M03/M06 Q1028=
201001161720 METAR ESMX 161720Z AUTO 13007KT 070V170 9999NDV OVC011/// M03/M05 Q1028=
201001161650 METAR ESMX 161650Z AUTO 12007KT 070V170 9999NDV OVC012/// M03/M05 Q1028=
201001161620 METAR ESMX 161620Z AUTO 11005G15KT 060V180 9999NDV OVC011/// M03/M05 Q1029=
201001161550 METAR ESMX 161550Z AUTO 13006KT 080V170 9999NDV OVC011/// M03/M05 Q1029=
201001161520 METAR ESMX 161520Z AUTO 13008KT 060V170 9999NDV OVC011/// M02/M05 Q1029=
201001161450 METAR ESMX 161450Z AUTO 13006KT 070V170 9999NDV OVC011/// M02/M05 Q1029=
201001161420 METAR ESMX 161420Z AUTO 14006KT 070V210 9999NDV OVC013/// M02/M05 Q1030=
201001161350 METAR ESMX 161350Z AUTO 11006KT 070V170 9999NDV OVC014/// M02/M05 Q1030=
201001161320 METAR ESMX 161320Z AUTO 11007KT 040V170 9999NDV OVC014/// M02/M05 Q1030=
201001161250 METAR ESMX 161250Z AUTO 13008KT 080V170 9999NDV OVC014/// M02/M05 Q1030=
201001161220 METAR ESMX 161220Z AUTO 13005KT 080V180 9999NDV OVC014/// M02/M05 Q1031=
201001161150 METAR ESMX 161150Z AUTO 13006KT 060V190 9999NDV OVC011/// M02/M05 Q1031=
201001161120 METAR ESMX 161120Z AUTO 13007KT 080V200 9999NDV OVC011/// M02/M04 Q1031=
201001161050 METAR ESMX 161050Z AUTO 13007KT 080V210 9999NDV OVC010/// M02/M04 Q1031=
201001161020 METAR ESMX 161020Z AUTO 12007KT 060V170 9999NDV OVC010/// M02/M04 Q1032=
201001160950 METAR ESMX 160950Z AUTO 12005KT 070V190 9999NDV OVC010/// M02/M04 Q1032=
201001160920 METAR ESMX 160920Z AUTO 13007KT 070V170 9999NDV OVC011/// M02/M04 Q1032=
201001160850 METAR ESMX 160850Z AUTO 14006KT 080V190 9999NDV OVC012/// M02/M04 Q1032=
201001160820 METAR ESMX 160820Z AUTO 13006KT 080V180 9999NDV OVC011/// M02/M04 Q1032=
201001160750 METAR ESMX 160750Z AUTO VRB05KT 9999NDV OVC011/// M01/M04 Q1032=
201001160720 METAR ESMX 160720Z AUTO 12005KT 050V170 9999NDV OVC010/// M01/M04 Q1032=
201001160650 METAR ESMX 160650Z AUTO 14006KT 080V200 9999NDV OVC010/// M02/M04 Q1032=
201001160620 METAR ESMX 160620Z AUTO 14005KT 090V190 9999NDV OVC011/// M02/M04 Q1032=
201001160550 METAR ESMX 160550Z AUTO 14005KT 070V190 9999NDV OVC011/// M02/M04 Q1032=
201001160520 METAR ESMX 160520Z AUTO 14006KT 090V180 9999NDV OVC013/// M01/M04 Q1032=
201001160450 METAR ESMX 160450Z AUTO 13006KT 090V170 9999NDV OVC012/// M01/M04 Q1032=
201001160420 METAR ESMX 160420Z AUTO 13006KT 020V170 9999NDV OVC012/// M01/M04 Q1032=
201001160350 METAR ESMX 160350Z AUTO 14004KT 080V190 9999NDV OVC013/// M01/M04 Q1032=
201001160320 METAR ESMX 160320Z AUTO 13004KT 080V170 9999NDV OVC013/// M01/M04 Q1032=
201001160250 METAR ESMX 160250Z AUTO 11004KT 070V150 9999NDV OVC014/// M01/M04 Q1032=
201001160220 METAR ESMX 160220Z AUTO 13006KT 070V200 9999NDV FEW014/// OVC016/// M01/M04 Q1032=
201001160150 METAR ESMX 160150Z AUTO 12007KT 070V170 9999NDV OVC018/// M01/M04 Q1032=
201001160120 METAR ESMX 160120Z AUTO 14005KT 070V170 9999NDV OVC014/// M01/M04 Q1032=
201001160050 METAR ESMX 160050Z AUTO 14007KT 080V170 9999NDV BKN011/// OVC017/// M01/M04 Q1032=
201001160020 METAR ESMX 160020Z AUTO 14004KT 080V190 9999NDV OVC012/// M01/M04 Q1032=
201001152350 METAR ESMX 152350Z AUTO 14007KT 080V200 9999NDV OVC012/// M01/M04 Q1032=
201001152320 METAR ESMX 152320Z AUTO 14005KT 080V200 9999NDV OVC014/// M01/M04 Q1032=
201001152250 METAR ESMX 152250Z AUTO 13005KT 070V170 9999NDV BKN011/// OVC017/// M01/M03 Q1032=
201001152220 METAR ESMX 152220Z AUTO 14007KT 070V190 9999NDV OVC010/// M01/M04 Q1032=
201001152150 METAR ESMX 152150Z AUTO 12006KT 070V180 9999NDV OVC010/// M01/M03 Q1032=
201001152120 METAR ESMX 152120Z AUTO 14004KT 070V200 9999NDV OVC011/// M01/M04 Q1032=
201001152050 METAR ESMX 152050Z 13006KT 070V170 9999 OVC011 M01/M03 Q1031=
201001152020 METAR ESMX 152020Z 12004KT 060V170 9999 OVC012 M01/M03 Q1031=
201001151950 METAR ESMX 151950Z 12004KT 060V160 9999 OVC012 M01/M03 Q1031=
201001151920 METAR ESMX 151920Z 11003KT 060V160 9999 FEW011 OVC014 M01/M03 Q1031=
201001151850 METAR ESMX 151850Z 12004KT 060V170 9999 OVC012 M01/M03 Q1031=
201001151820 METAR ESMX 151820Z 13003KT 040V190 9999 OVC012 M01/M03 Q1031=
201001151720 METAR ESMX 151720Z 11003KT 050V160 9999 OVC010 M01/M03 Q1030=
201001151650 METAR ESMX 151650Z 13004KT 070V190 9999 OVC010 M01/M03 Q1030=
201001151620 METAR ESMX 151620Z 15005KT 100V180 9999 BKN010 M01/M03 Q1030=
201001151550 METAR ESMX 151550Z 13003KT 080V190 9999 OVC008 M02/M03 Q1030=
201001151520 METAR ESMX 151520Z 14004KT 080V210 9999 OVC009 M02/M03 Q1029=
201001151450 METAR ESMX 151450Z 14004KT 080V180 9999 OVC009 M02/M03 Q1029=
201001151420 METAR ESMX 151420Z 15007KT 110V200 9999 OVC009 M02/M04 Q1029=
201001151350 METAR ESMX 151350Z 14006KT 110V190 9999 OVC009 M01/M03 Q1029=
201001151320 METAR ESMX 151320Z 14005KT 090V190 9999 BKN011 M01/M03 Q1028=
201001151250 METAR ESMX 151250Z 12004KT 080V170 9999 BKN010 OVC015 M01/M03 Q1028=
201001151220 METAR ESMX 151220Z 12004KT 070V160 9999 OVC011 M01/M03 Q1028=
201001151150 METAR ESMX 151150Z 10003KT 050V150 9999 OVC014 M01/M04 Q1028=
201001151120 METAR ESMX 151120Z 08003KT 010V140 9999 OVC014 M02/M04 Q1028=
201001151050 METAR ESMX 151050Z 10003KT 040V160 9999 OVC014 M02/M04 Q1028=
201001151020 METAR ESMX 151020Z 09004KT 050V150 9999 OVC014 M02/M04 Q1028=
201001150950 METAR ESMX 150950Z 09004KT 050V140 9999 OVC014 M03/M04 Q1028=
201001150920 METAR ESMX 150920Z 10004KT 060V150 9999 OVC014 M03/M04 Q1028=
201001150850 METAR ESMX 150850Z 11003KT 050V150 9999 OVC014 M04/M05 Q1027=
201001150820 METAR ESMX 150820Z 08003KT 050V160 9999 OVC014 M05/M06 Q1027=
201001150750 METAR ESMX 150750Z VRB02KT 9999 OVC014 M05/M06 Q1027=
201001150720 METAR ESMX 150720Z 05002KT 9999 OVC014 M06/M07 Q1026=
201001150650 METAR ESMX 150650Z VRB02KT 9999 BKN013 M08/M09 Q1026=
201001150620 METAR ESMX 150620Z VRB01KT 1000 R01/P2000 R19/P2000D MIFG FEW015 M10/M11 Q1026=
201001150550 METAR ESMX 150550Z VRB01KT 8000 BR M09/M10 Q1025=
201001150520 METAR ESMX 150520Z VRB02KT 9999 FEW015 M07/M08 Q1025=
201001150450 METAR ESMX 150450Z 06003KT 030V100 9999 FEW015 M06/M07 Q1025=
201001150420 METAR ESMX 150420Z AUTO VRB02KT 9999NDV NCD M06/M07 Q1025=
201001150350 METAR ESMX 150350Z AUTO 08003KT 040V120 9999NDV FEW015/// M05/M06 Q1025=
201001150320 METAR ESMX 150320Z AUTO 07004KT 040V140 9999NDV NCD M05/M06 Q1024=
201001150250 METAR ESMX 150250Z AUTO 08003KT 050V120 9999NDV NCD M05/M06 Q1024=
201001150220 METAR ESMX 150220Z AUTO 08003KT 9999NDV NCD M04/M06 Q1024=
201001150150 METAR ESMX 150150Z AUTO 09003KT 050V140 9999NDV BKN016/// M04/M05 Q1024=
201001150120 METAR ESMX 150120Z AUTO 10003KT 040V140 9999NDV BKN017/// M03/M05 Q1024=
201001150050 METAR ESMX 150050Z VRB02KT 9999 BKN016 M03/M05 Q1024=
201001150020 METAR ESMX 150020Z VRB02KT 9999 FEW015 BKN018 M03/M05 Q1024=
201001142350 METAR ESMX 142350Z 13005KT 080V160 9999 BKN017 M02/M05 Q1024=
201001142320 METAR ESMX 142320Z VRB02KT 9999 FEW015 BKN019 M02/M04 Q1023=
201001142250 METAR ESMX 142250Z VRB02KT 9999 BKN018 M02/M04 Q1023=
201001142220 METAR ESMX 142220Z 10003KT 050V140 9999 FEW014 BKN020 M02/M04 Q1023=
201001142150 METAR ESMX 142150Z 11003KT 060V230 9999 FEW012 BKN014 OVC019 M01/M04 Q1023=
201001142120 METAR ESMX 142120Z 11005KT 060V160 9999 OVC011 M01/M04 Q1023=
201001142050 METAR ESMX 142050Z 12004KT 070V180 9999 OVC011 M01/M04 Q1023=
201001142020 METAR ESMX 142020Z 13007KT 080V170 9999 OVC011 M01/M04 Q1022=
201001141950 METAR ESMX 141950Z 12006KT 070V160 9999 BKN012 M01/M04 Q1022=
201001141920 METAR ESMX 141920Z 13005KT 070V170 9999 BKN012 M01/M04 Q1022 RESG=
201001141850 METAR ESMX 141850Z 14007KT 080V200 9999 BKN012 M01/M04 Q1022=
201001141820 METAR ESMX 141820Z 12006KT 060V190 9999 OVC013 M01/M04 Q1022=
201001141750 METAR ESMX 141750Z 12008KT 050V170 9999 OVC014 M01/M04 Q1021=
201001141720 METAR ESMX 141720Z 11005KT 040V170 9999 OVC014 M01/M04 Q1021=
201001141650 METAR ESMX 141650Z 12007KT 060V160 9999 OVC015 M01/M04 Q1021=
201001141620 METAR ESMX 141620Z 10004KT 050V160 9999 -SN FEW006 BKN016 OVC020 M01/M03 Q1021=
201001141550 METAR ESMX 141550Z 11003KT 060V170 9999 FEW015 OVC020 M01/M04 Q1021=
201001141520 METAR ESMX 141520Z 12004KT 060V170 9999 FEW015 OVC018 M01/M04 Q1021=
201001141450 METAR ESMX 141450Z 13009KT 070V190 9999 BKN016 M01/M04 Q1021=
201001141420 METAR ESMX 141420Z 11006KT 040V170 9999 BKN016 M01/M04 Q1021=
201001141350 METAR ESMX 141350Z 12006KT 070V160 9999 OVC013 M01/M03 Q1020=
201001141320 METAR ESMX 141320Z 12006KT 050V220 9999 BKN013 M01/M03 Q1020=
201001141250 METAR ESMX 141250Z 10004KT 040V160 9999 BKN015 M01/M03 Q1020=
201001141220 METAR ESMX 141220Z 11005KT 060V160 9999 BKN015 M01/M03 Q1020=
201001141150 METAR ESMX 141150Z 12005KT 080V170 9999 FEW014 BKN018 M01/M03 Q1021=
201001141120 METAR ESMX 141120Z 10004KT 050V150 9999 FEW010 BKN019 M01/M03 Q1021=
201001141050 METAR ESMX 141050Z 09004KT 050V140 9999 SCT010 M01/M03 Q1021=
201001141020 METAR ESMX 141020Z 11004KT 030V160 9999 BKN013 M02/M04 Q1021=
201001140950 METAR ESMX 140950Z 12004KT 070V190 9999 OVC010 M02/M04 Q1021=
201001140920 METAR ESMX 140920Z VRB02KT 9999 OVC011 M03/M04 Q1021=
201001140850 METAR ESMX 140850Z VRB02KT 9999 OVC012 M03/M04 Q1021=
201001140820 METAR ESMX 140820Z VRB02KT 9999 BKN012 M04/M04 Q1020=
201001140750 METAR ESMX 140750Z VRB02KT 9999 BKN013 M03/M04 Q1020=
201001140720 METAR ESMX 140720Z VRB02KT 9999 BKN014 M03/M04 Q1020=
201001140650 METAR ESMX 140650Z 07003KT 030V140 9999 OVC014 M03/M04 Q1020=
201001140620 METAR ESMX 140620Z 07004KT 040V110 9999 OVC015 M03/M04 Q1019=
201001140550 METAR ESMX 140550Z 08003KT 030V120 9999 BKN012 M02/M04 Q1019=
201001140520 METAR ESMX 140520Z 08003KT 030V110 9999 BKN012 M02/M03 Q1019=
201001140450 METAR ESMX 140450Z 09003KT 040V160 9999 BKN012 M02/M03 Q1019=
201001140420 METAR ESMX 140420Z AUTO 10004KT 060V160 9999NDV OVC011/// M02/M03 Q1019=
201001140350 METAR ESMX 140350Z AUTO 11004KT 060V170 9999NDV OVC010/// M02/M03 Q1020=
201001140320 METAR ESMX 140320Z AUTO 12004KT 070V170 9999NDV OVC011/// M02/M03 Q1020=
201001140250 METAR ESMX 140250Z AUTO 10004KT 050V160 9999NDV OVC012/// M02/M03 Q1019=
201001140220 METAR ESMX 140220Z AUTO 10004KT 040V150 9999NDV OVC011/// M02/M03 Q1019=
201001140150 METAR ESMX 140150Z AUTO 11005KT 070V150 9999NDV OVC010/// M02/M03 Q1020=
201001140120 METAR ESMX 140120Z AUTO 11005KT 070V150 9999NDV OVC010/// M02/M03 Q1020=
201001140050 METAR ESMX 140050Z 09003KT 340V140 9999 FEW007 SCT009 OVC011 M02/M03 Q1020 RESG=
201001132320 METAR ESMX 132320Z 02003KT 5000 -SN SCT006 BKN009 OVC010 M03/M03 Q1020=
201001132250 METAR ESMX 132250Z 08003KT 030V170 9999 SG FEW008 OVC011 M02/M03 Q1020=
201001132220 METAR ESMX 132220Z 08004KT 020V120 8000 SG FEW007 SCT009 OVC011 M02/M03 Q1020=
201001132150 METAR ESMX 132150Z 10003KT 010V140 9999 OVC005 M02/M03 Q1020=
201001132120 METAR ESMX 132120Z VRB02KT 9999 OVC006 M02/M03 Q1020=
201001132050 METAR ESMX 132050Z 10004KT 050V140 9999 BKN006 M02/M03 Q1020=
201001132020 METAR ESMX 132020Z 09003KT 040V160 9999 FEW003 BKN004 OVC009 M02/M02 Q1020=
201001131950 METAR ESMX 131950Z 11003KT 060V150 1700 -SN FEW004 BKN005 BKN014 M02/M02 Q1020=
201001131920 METAR ESMX 131920Z 02001KT 1800 -SN OVC004 M03/M04 Q1020=
201001131850 METAR ESMX 131850Z 04003KT 1900 -SN BKN006 OVC009 M03/M04 Q1020=
201001131820 METAR ESMX 131820Z 02004KT 3000 -SN BKN005 OVC008 M03/M03 Q1020=
201001131750 METAR ESMX 131750Z 10003KT 050V170 2000 -SN SCT003 BKN006 OVC008 M02/M02 Q1020=
201001131720 METAR ESMX 131720Z 10005KT 040V140 2000 -SN FEW003 OVC005 M02/M02 Q1020=
201001131650 METAR ESMX 131650Z 09003KT 040V160 1600 -SN BKN005 OVC007 M02/M03 Q1020=
201001131620 METAR ESMX 131620Z 06003KT 1700 -SN BKN005 OVC010 M02/M03 Q1020=
201001131550 METAR ESMX 131550Z VRB02KT 2500 -SN SCT005 BKN008 OVC009 M02/M02 Q1020=
201001131520 METAR ESMX 131520Z 07003KT 040V110 1600 -SN SCT005 BKN007 OVC010 M02/M02 Q1020=
201001131450 METAR ESMX 131450Z 07003KT 020V110 1500 -SN SCT005 BKN007 OVC011 M02/M02 Q1020=
201001131420 METAR ESMX 131420Z 08003KT 050V120 2000 -SN BKN003 OVC007 M01/M02 Q1020=
201001131350 METAR ESMX 131350Z 09003KT 040V140 2000 -SN OVC004 M01/M02 Q1020=
201001131320 METAR ESMX 131320Z 10004KT 030V140 4000 BR OVC003 M01/M02 Q1021=
201001131250 METAR ESMX 131250Z 09004KT 040V130 8000 BR OVC003 M01/M02 Q1021=
201001131220 METAR ESMX 131220Z 08005KT 040V130 7000 BR OVC002 M02/M02 Q1021=
201001131150 METAR ESMX 131150Z 08003KT 040V120 2000 OVC004 M02/M03 Q1021=
201001131120 METAR ESMX 131120Z 08003KT 030V140 9999 OVC005 M02/M04 Q1021=
201001131050 METAR ESMX 131050Z 08004KT 030V130 9999 OVC006 M03/M04 Q1021=
201001131020 METAR ESMX 131020Z 08004KT 030V140 9999 OVC006 M03/M04 Q1022=
201001130950 METAR ESMX 130950Z 10004KT 050V140 9999 OVC006 M04/M05 Q1022=
201001130920 METAR ESMX 130920Z 09005KT 040V150 9999 OVC006 M04/M05 Q1022=
201001130850 METAR ESMX 130850Z 09003KT 050V130 9999 OVC006 M04/M05 Q1022=
201001130820 METAR ESMX 130820Z 08004KT 040V120 9999 OVC005 M04/M05 Q1021=
201001130750 METAR ESMX 130750Z 08004KT 020V150 9999 OVC005 M04/M05 Q1021=
201001130720 METAR ESMX 130720Z 09005KT 050V130 9999 BKN005 M04/M05 Q1021=
201001130650 METAR ESMX 130650Z 08004KT 030V140 9999 OVC005 M04/M05 Q1021=
201001130620 METAR ESMX 130620Z 06003KT 010V120 9999 OVC005 M04/M05 Q1021=
201001130550 METAR ESMX 130550Z 09003KT 050V150 9999 OVC005 M04/M05 Q1021=
201001130520 METAR ESMX 130520Z 08003KT 050V110 9999 OVC005 M04/M05 Q1021=
201001130450 METAR ESMX 130450Z 07003KT 010V120 9999 OVC006 M04/M05 Q1021=
201001130420 METAR ESMX 130420Z AUTO 08004KT 040V120 9999NDV OVC005/// M04/M05 Q1021=
201001130350 METAR ESMX 130350Z AUTO 07003KT 030V110 9999NDV OVC005/// M04/M05 Q1022=
201001130320 METAR ESMX 130320Z AUTO 07004KT 030V120 9999NDV OVC006/// M04/M05 Q1022=
201001130250 METAR ESMX 130250Z AUTO VRB02KT 9999NDV OVC006/// M04/M05 Q1022=
201001130220 METAR ESMX 130220Z AUTO 09003KT 020V130 9999NDV OVC006/// M04/M05 Q1022=
201001130150 METAR ESMX 130150Z AUTO 09003KT 010V160 9999NDV OVC005/// M04/M05 Q1022=
201001130120 METAR ESMX 130120Z AUTO 10004KT 060V170 9999NDV OVC005/// M05/M05 Q1022=
201001130050 METAR ESMX 130050Z AUTO 08003KT 040V120 9999NDV OVC004/// M05/M05 Q1022=
201001130020 METAR ESMX 130020Z 09003KT 050V130 9999 OVC004 M05/M06 Q1022=
201001122350 METAR ESMX 122350Z VRB02KT 9999 BKN004 M06/M06 Q1022=
201001122320 METAR ESMX 122320Z 08002KT 9999 BKN005 M07/M08 Q1022=
201001122250 METAR ESMX 122250Z 07003KT 030V110 9999 BKN005 M07/M07 Q1022=
201001122220 METAR ESMX 122220Z 06003KT 9999 SCT006 M08/M09 Q1022=
201001122150 METAR ESMX 122150Z 02002KT 9999 FEW007 M10/M11 Q1022=
201001122120 METAR ESMX 122120Z 02002KT 5000 BR FEW007 M08/M09 Q1022=
201001122050 METAR ESMX 122050Z VRB02KT 5000 BR FEW007 M08/M09 Q1023=
201001122020 METAR ESMX 122020Z 05002KT 8000 BR SCT007 M08/M09 Q1023=
201001121950 METAR ESMX 121950Z 02003KT 9999 FEW008 M08/M09 Q1023=
201001121920 METAR ESMX 121920Z 01002KT 0800 R01/0800V1300N R19/P2000N FZFG FEW008 M07/M07 Q1022=
201001121850 METAR ESMX 121850Z 06002KT 9999 BKN008 M06/M07 Q1022=
201001121820 METAR ESMX 121820Z 07003KT 020V110 9999 BKN008 M05/M05 Q1023=
201001121750 METAR ESMX 121750Z 03002KT 9999 MIFG FEW009 M06/M07 Q1023=
201001121720 METAR ESMX 121720Z 04003KT 6000 BR FEW009 SCT035 M05/M06 Q1023=
201001121650 METAR ESMX 121650Z 05003KT 020V130 9999 FEW034 M05/M06 Q1023=
201001121620 METAR ESMX 121620Z 04006KT 9999 FEW034 M04/M05 Q1023=
201001121550 METAR ESMX 121550Z 04006KT 9999 FEW034 M04/M05 Q1022=
201001121520 METAR ESMX 121520Z 05006KT 9999 FEW035 SCT049 M03/M05 Q1023=
201001121450 METAR ESMX 121450Z 05005KT 9999 SCT047 M03/M05 Q1022=
201001121420 METAR ESMX 121420Z 05006KT 020V090 9999 BKN044 M02/M04 Q1023=
201001121350 METAR ESMX 121350Z 05006KT 020V100 9999 BKN040 M02/M05 Q1023=
201001121320 METAR ESMX 121320Z 04007KT 9999 BKN039 M02/M05 Q1023=
201001121250 METAR ESMX 121250Z 04005KT 9999 SCT038 M02/M05 Q1023=
201001121220 METAR ESMX 121220Z 04005KT 9999 SCT080 M02/M04 Q1023=
201001121150 METAR ESMX 121150Z 05004KT 020V080 CAVOK M02/M04 Q1023=
201001121120 METAR ESMX 121120Z 04004KT 010V070 CAVOK M03/M04 Q1024=
201001121050 METAR ESMX 121050Z 05005KT CAVOK M03/M04 Q1024=
201001121020 METAR ESMX 121020Z 04003KT 020V080 CAVOK M04/M05 Q1024=
201001120950 METAR ESMX 120950Z 35003KT CAVOK M05/M06 Q1025=
201001120920 METAR ESMX 120920Z 01003KT CAVOK M06/M07 Q1025=
201001120850 METAR ESMX 120850Z 01004KT 9999 BCFG M07/M08 Q1024=
201001120820 METAR ESMX 120820Z 01003KT 9999 BCFG M07/M08 Q1024=
201001120750 METAR ESMX 120750Z 01003KT CAVOK M07/M08 Q1024=
201001120720 METAR ESMX 120720Z 01004KT CAVOK M06/M07 Q1024=
201001120650 METAR ESMX 120650Z 36005KT CAVOK M06/M07 Q1024=
201001120620 METAR ESMX 120620Z 36004KT CAVOK M07/M07 Q1024=
201001120550 METAR ESMX 120550Z 01004KT CAVOK M07/M08 Q1024=
201001120520 METAR ESMX 120520Z 01004KT CAVOK M05/M06 Q1024=
201001120450 METAR ESMX 120450Z 02004KT 340V050 CAVOK M05/M05 Q1024=
201001120420 METAR ESMX 120420Z 01004KT CAVOK M06/M07 Q1024=
201001120350 METAR ESMX 120350Z AUTO 01003KT 350V060 9999NDV NCD M06/M06 Q1024=
201001120320 METAR ESMX 120320Z AUTO 01003KT 330V050 9999NDV NCD M06/M07 Q1024=
201001120250 METAR ESMX 120250Z AUTO 01004KT 340V050 9999NDV NCD M06/M06 Q1024=
201001120220 METAR ESMX 120220Z AUTO 01005KT 9999NDV NCD M06/M07 Q1024=
201001120150 METAR ESMX 120150Z AUTO 01005KT 9999NDV NCD M07/M08 Q1024=
201001120120 METAR ESMX 120120Z AUTO 01004KT 340V050 9999NDV NCD M05/M06 Q1024=
201001120050 METAR ESMX 120050Z AUTO 02005KT 340V050 9999NDV NCD M05/M06 Q1024=
201001120020 METAR ESMX 120020Z 02007KT 350V050 CAVOK M05/M06 Q1024=
201001112350 METAR ESMX 112350Z 02007KT CAVOK M05/M06 Q1025=
201001112320 METAR ESMX 112320Z 02007KT 340V060 CAVOK M05/M06 Q1025=
201001112250 METAR ESMX 112250Z 02006KT 350V060 CAVOK M04/M06 Q1025=
201001112220 METAR ESMX 112220Z 02006KT 340V060 CAVOK M04/M06 Q1025=
201001112150 METAR ESMX 112150Z 02007KT 350V060 CAVOK M05/M06 Q1025=
201001112120 METAR ESMX 112120Z 02007KT 330V080 CAVOK M05/M06 Q1024=
201001112050 METAR ESMX 112050Z 02009KT 340V050 CAVOK M05/M06 Q1025=
201001112020 METAR ESMX 112020Z 02008KT CAVOK M05/M06 Q1024=
201001111950 METAR ESMX 111950Z 02007KT 350V060 CAVOK M04/M06 Q1024=
201001111920 METAR ESMX 111920Z 03008KT CAVOK M04/M06 Q1024=
201001111850 METAR ESMX 111850Z 03007KT 360V060 CAVOK M04/M06 Q1024=
201001111820 METAR ESMX 111820Z 03008KT 010V070 CAVOK M04/M06 Q1024=
201001111750 METAR ESMX 111750Z 03008KT 350V060 CAVOK M04/M06 Q1024=
201001111720 METAR ESMX 111720Z 03009KT CAVOK M04/M06 Q1024=
201001111650 METAR ESMX 111650Z 02009KT 360V060 CAVOK M04/M06 Q1024=
201001111620 METAR ESMX 111620Z 03008KT 350V070 CAVOK M04/M06 Q1024=
201001111550 METAR ESMX 111550Z 03008KT 010V070 CAVOK M03/M06 Q1025=
201001111520 METAR ESMX 111520Z 04010KT CAVOK M03/M05 Q1024=
201001111450 METAR ESMX 111450Z 03010KT 360V060 CAVOK M03/M05 Q1024=
201001111420 METAR ESMX 111420Z 03010KT CAVOK M03/M05 Q1024=
201001111350 METAR ESMX 111350Z 02011KT 350V070 CAVOK M02/M05 Q1024=
201001111320 METAR ESMX 111320Z 04011KT 350V070 CAVOK M02/M05 Q1025=
201001111250 METAR ESMX 111250Z 03010KT 350V070 CAVOK M02/M05 Q1025=
201001111220 METAR ESMX 111220Z 04011KT 9999 FEW015 M02/M05 Q1025=
201001111150 METAR ESMX 111150Z 04010KT 350V070 CAVOK M02/M05 Q1025=
201001111120 METAR ESMX 111120Z 04011KT 9999 FEW015 M02/M05 Q1025=
201001111050 METAR ESMX 111050Z 04012KT 010V080 9999 FEW015 M02/M05 Q1026=
201001111020 METAR ESMX 111020Z 03011KT 9999 SCT014 M02/M05 Q1026=
201001110950 METAR ESMX 110950Z 03011KT 360V070 9999 BKN014 M02/M05 Q1026=
201001110920 METAR ESMX 110920Z 03011G21KT 350V060 9999 SCT015 M03/M05 Q1026=
201001110850 METAR ESMX 110850Z 03009KT 9999 FEW015 M03/M05 Q1026=
201001110820 METAR ESMX 110820Z 04011KT 9999 SCT014 M03/M05 Q1026=
201001110750 METAR ESMX 110750Z 03009KT 350V070 9999 FEW014 M03/M05 Q1026=
201001110720 METAR ESMX 110720Z 04010KT 020V100 9999 FEW015 M03/M05 Q1026=
201001110650 METAR ESMX 110650Z 03010KT 340V070 9999 FEW015 M03/M05 Q1026=
201001110620 METAR ESMX 110620Z 03011KT 350V050 9999 FEW016 M03/M05 Q1026=
201001110550 METAR ESMX 110550Z 02011KT 9999 FEW016 M03/M05 Q1026=
201001110520 METAR ESMX 110520Z 04011KT 9999 FEW016 M03/M05 Q1026=
201001110450 METAR ESMX 110450Z 03011KT 9999 FEW015 M03/M05 Q1026=
201001110420 METAR ESMX 110420Z AUTO 04012KT 9999NDV FEW017/// M03/M05 Q1026=
201001110350 METAR ESMX 110350Z AUTO 04013KT 9999NDV FEW017/// M03/M05 Q1026=
201001110320 METAR ESMX 110320Z AUTO 04012KT 010V070 9999NDV NCD M02/M05 Q1026=
201001110250 METAR ESMX 110250Z AUTO 04013KT 360V070 9999NDV FEW015/// M02/M05 Q1026=
201001110220 METAR ESMX 110220Z AUTO 04013KT 360V080 9999NDV FEW016/// M02/M05 Q1026=
201001110150 METAR ESMX 110150Z AUTO 04012KT 9999NDV FEW016/// M02/M05 Q1027=
201001110120 METAR ESMX 110120Z AUTO 04010KT 9999NDV FEW016/// SCT020/// M02/M05 Q1027=
201001110050 METAR ESMX 110050Z 04011KT 9999 FEW017 M02/M05 Q1027=
201001110020 METAR ESMX 110020Z 04013KT 020V080 9999 FEW017 M02/M05 Q1027=
201001102350 METAR ESMX 102350Z 04015KT 9999 SCT016 M02/M05 Q1027=
201001102320 METAR ESMX 102320Z 04015KT 020V080 9999 FEW015 BKN018 M02/M05 Q1027=
201001102250 METAR ESMX 102250Z 03011KT 360V060 9999 BKN015 M02/M05 Q1027=
201001102220 METAR ESMX 102220Z 03013KT 9999 BKN015 M02/M05 Q1027=
201001102150 METAR ESMX 102150Z 04015G25KT 010V080 9999 BKN015 M02/M05 Q1027=
201001102120 METAR ESMX 102120Z 04015KT 9999 BKN015 BKN020 M02/M05 Q1027=
201001102050 METAR ESMX 102050Z 03012KT 360V060 9999 FEW015 BKN018 M02/M05 Q1027=
201001102020 METAR ESMX 102020Z 04015KT 9999 BKN015 M03/M05 Q1028=
201001101950 METAR ESMX 101950Z 04013KT 9999 BKN015 M03/M05 Q1028=
201001101920 METAR ESMX 101920Z 04012KT 020V080 9999 BKN014 M03/M05 Q1028=
201001101850 METAR ESMX 101850Z 04014KT 9999 FEW014 SCT017 M03/M05 Q1027=
201001101820 METAR ESMX 101820Z 04015KT 010V070 9999 FEW015 SCT017 M02/M05 Q1028=
201001101750 METAR ESMX 101750Z 04015KT 9999 BKN016 M02/M05 Q1028=
201001101720 METAR ESMX 101720Z 04015KT 9999 BKN015 M02/M05 Q1028=
201001101650 METAR ESMX 101650Z 04014KT 020V080 9999 BKN016 M02/M05 Q1028=
201001101620 METAR ESMX 101620Z 04015KT 9999 FEW015 BKN018 M02/M05 Q1028=
201001101550 METAR ESMX 101550Z 04013KT 360V060 9999 BKN015 BKN020 M02/M05 Q1028=
201001101520 METAR ESMX 101520Z 05015KT 020V100 9999 BKN016 M02/M05 Q1028=
201001101450 METAR ESMX 101450Z 04012KT 9999 BKN015 M01/M04 Q1028=
201001101420 METAR ESMX 101420Z 05013G27KT 020V080 9999 BKN015 BKN020 M01/M04 Q1028=
201001101350 METAR ESMX 101350Z 05011KT 020V100 9999 BKN014 BKN022 M01/M04 Q1028=
201001101320 METAR ESMX 101320Z 05011KT 020V110 9999 BKN014 M01/M04 Q1028=
201001101250 METAR ESMX 101250Z AUTO 04014KT 010V100 9999NDV FEW014/// OVC017/// M01/M04 Q1029=
201001101220 METAR ESMX 101220Z AUTO 05012KT 010V110 9999NDV OVC013/// M01/M04 Q1029=
201001101150 METAR ESMX 101150Z AUTO 05011KT 020V090 9999NDV OVC013/// M01/M04 Q1029=
201001101120 METAR ESMX 101120Z AUTO 05010KT 020V120 9999NDV FEW013/// BKN015/// BKN020/// M01/M04 Q1029=
201001101050 METAR ESMX 101050Z AUTO 04011G26KT 350V100 9999NDV BKN013/// BKN018/// M01/M04 Q1029=
201001101020 METAR ESMX 101020Z AUTO 05013KT 020V100 9999NDV OVC013/// M01/M04 Q1029=
201001100950 METAR ESMX 100950Z AUTO 05010KT 010V080 9999NDV BKN013/// M01/M04 Q1029=
201001100920 METAR ESMX 100920Z AUTO 05011KT 010V080 9999NDV BKN012/// BKN019/// M02/M04 Q1030=
201001100850 METAR ESMX 100850Z AUTO 05014KT 020V090 9999NDV BKN012/// OVC017/// M02/M04 Q1029=
201001100820 METAR ESMX 100820Z AUTO 05012KT 020V100 9999NDV OVC011/// M02/M04 Q1029=
201001100750 METAR ESMX 100750Z AUTO 05011KT 340V080 9999NDV BKN011/// M02/M04 Q1029=
201001100720 METAR ESMX 100720Z AUTO 05011KT 350V080 9999NDV OVC010/// M02/M04 Q1029=
201001100650 METAR ESMX 100650Z AUTO 05013KT 010V110 9999NDV OVC010/// M02/M04 Q1029=
201001100620 METAR ESMX 100620Z AUTO 05013KT 010V080 9999NDV OVC010/// M02/M04 Q1029=
201001100550 METAR ESMX 100550Z AUTO 05013G23KT 020V100 9999NDV OVC011/// M02/M04 Q1029=
201001100520 METAR ESMX 100520Z AUTO 05013KT 020V090 9999NDV OVC011/// M02/M04 Q1029=
201001100450 METAR ESMX 100450Z AUTO 04013KT 020V080 9999NDV OVC011/// M02/M04 Q1029=
201001100420 METAR ESMX 100420Z AUTO 05013G25KT 360V080 9999NDV OVC010/// M02/M04 Q1029=
201001100350 METAR ESMX 100350Z AUTO 05012KT 020V090 9999NDV FEW009/// OVC010/// M02/M03 Q1029=
201001100320 METAR ESMX 100320Z AUTO 03012G24KT 330V070 9999NDV OVC010/// M02/M03 Q1030=
201001100250 METAR ESMX 100250Z AUTO 05012KT 010V080 9999NDV OVC010/// M02/M03 Q1030=
201001100220 METAR ESMX 100220Z AUTO 05013G24KT 020V080 9999NDV OVC011/// M02/M04 Q1030=
201001100150 METAR ESMX 100150Z AUTO 05010KT 010V080 9999NDV FEW009/// BKN011/// OVC015/// M02/M03 Q1030=
201001100120 METAR ESMX 100120Z AUTO 05010KT 360V100 9999NDV BKN009/// OVC013/// M02/M03 Q1030=
201001100050 METAR ESMX 100050Z AUTO 05009KT 020V090 9999NDV SG OVC008/// M02/M03 Q1030=
201001100020 METAR ESMX 100020Z AUTO 04010KT 9999NDV SG OVC009/// M02/M04 Q1030=
201001092350 METAR ESMX 092350Z AUTO 05010KT 9999NDV SG FEW009/// OVC011/// M02/M04 Q1031=
201001092320 METAR ESMX 092320Z AUTO 04009KT 010V080 9999NDV SG SCT011/// BKN015/// OVC019/// M02/M04 Q1031=
201001092250 METAR ESMX 092250Z AUTO 04011KT 010V080 9999NDV -SN FEW010/// SCT012/// BKN015/// M02/M04 Q1031=
201001092220 METAR ESMX 092220Z AUTO 04012KT 360V070 9999NDV SG FEW008/// OVC010/// M02/M04 Q1031=
201001092150 METAR ESMX 092150Z AUTO 04011KT 9999NDV -SN OVC009/// M02/M04 Q1031=
201001092120 METAR ESMX 092120Z AUTO 04010KT 010V080 9999NDV -SN FEW008/// OVC010/// M02/M04 Q1031=
201001092050 METAR ESMX 092050Z AUTO 04012KT 9999NDV SG FEW009/// BKN011/// OVC022/// M02/M04 Q1031=
201001092020 METAR ESMX 092020Z AUTO 04011KT 8000NDV SG BKN011/// OVC017/// M03/M04 Q1031=
201001091950 METAR ESMX 091950Z AUTO 04009KT 8000NDV -SN OVC011/// M03/M04 Q1031=
201001091920 METAR ESMX 091920Z AUTO 04008KT 4800NDV -SN FEW010/// SCT012/// BKN016/// M03/M04 Q1031=
201001091850 METAR ESMX 091850Z AUTO 04009KT 010V070 9999NDV SG FEW010/// OVC018/// M03/M04 Q1031=
201001091820 METAR ESMX 091820Z AUTO 04010KT 9999NDV -SN FEW008/// BKN018/// M04/M05 Q1031=
201001091750 METAR ESMX 091750Z AUTO 04009KT 010V080 9999NDV -SN BKN007/// OVC011/// M04/M05 Q1031=
201001091720 METAR ESMX 091720Z AUTO 04010KT 9999NDV IC BKN007/// OVC014/// M05/M06 Q1031=
201001091650 METAR ESMX 091650Z AUTO 04008KT 010V070 9999NDV FEW005/// OVC006/// M05/M06 Q1031=
201001091620 METAR ESMX 091620Z AUTO 04010KT 020V080 9999NDV OVC004/// M06/M07 Q1031=
201001091550 METAR ESMX 091550Z AUTO 04009KT 9999NDV SCT005/// BKN008/// M07/M08 Q1031=
201001091520 METAR ESMX 091520Z AUTO 04008KT 010V070 9999NDV BKN007/// BKN014/// M07/M09 Q1031=
201001091450 METAR ESMX 091450Z 03009KT 9999 OVC007 M07/M09 Q1031=
201001091420 METAR ESMX 091420Z 04009KT 9999 BKN007 M08/M10 Q1031=
201001091350 METAR ESMX 091350Z 04009KT CAVOK M08/M13 Q1032=
201001091320 METAR ESMX 091320Z 03009KT CAVOK M07/M13 Q1032=
201001091250 METAR ESMX 091250Z 03009KT CAVOK M07/M13 Q1031=
201001091220 METAR ESMX 091220Z AUTO 04007KT 9999NDV NCD M07/M13 Q1032=
201001091150 METAR ESMX 091150Z AUTO 02007KT 9999NDV NCD M08/M13 Q1032=
201001091120 METAR ESMX 091120Z AUTO 02006KT 9999NDV NCD M09/M14 Q1032=
201001091050 METAR ESMX 091050Z AUTO 02006KT 9999NDV NCD M11/M14 Q1032=
201001091020 METAR ESMX 091020Z AUTO 02005KT 9999NDV NCD M12/M16 Q1032=
201001090950 METAR ESMX 090950Z AUTO 01005KT 9999NDV NCD M14/M16 Q1033=
201001090920 METAR ESMX 090920Z AUTO 02005KT 9999NDV NCD M14/M16 Q1033=
201001090850 METAR ESMX 090850Z AUTO 01005KT 9999NDV NCD M15/M17 Q1033=
201001090820 METAR ESMX 090820Z AUTO 01005KT 9999NDV NCD M15/M17 Q1032=
201001090750 METAR ESMX 090750Z AUTO 01007KT 9999NDV NCD M13/M15 Q1032=
201001090720 METAR ESMX 090720Z AUTO 01007KT 9999NDV NCD M14/M16 Q1032=
201001090650 METAR ESMX 090650Z AUTO 02007KT 9999NDV NCD M13/M15 Q1032=
201001090620 METAR ESMX 090620Z AUTO 01006KT 9999NDV NCD M15/M17 Q1032=
201001090550 METAR ESMX 090550Z AUTO 01006KT 9999NDV NCD M16/M18 Q1032=
201001090520 METAR ESMX 090520Z AUTO 02007KT 9999NDV NCD M16/M17 Q1032=
201001090450 METAR ESMX 090450Z AUTO 01004KT 9999NDV NCD M15/M17 Q1032=
201001090420 METAR ESMX 090420Z AUTO 01006KT 9999NDV NCD M15/M16 Q1032=
201001090350 METAR ESMX 090350Z AUTO 01007KT 9999NDV NCD M14/M16 Q1032=
201001090320 METAR ESMX 090320Z AUTO 36006KT 9999NDV NCD M14/M16 Q1032=
201001090250 METAR ESMX 090250Z AUTO 01006KT 9999NDV FEW027/// M13/M15 Q1032=
201001090220 METAR ESMX 090220Z AUTO 36006KT 9999NDV BKN025/// M12/M13 Q1032=
201001090150 METAR ESMX 090150Z AUTO 01005KT 9999NDV OVC024/// M10/M12 Q1032=
201001090120 METAR ESMX 090120Z AUTO 01006KT 9999NDV OVC023/// M10/M12 Q1032=
201001090050 METAR ESMX 090050Z AUTO 01007KT 9999NDV OVC022/// M10/M12 Q1031=
201001090020 METAR ESMX 090020Z AUTO 02005KT 9999NDV -SN OVC022/// M10/M12 Q1031=
201001082350 METAR ESMX 082350Z AUTO 04004KT 9999NDV OVC022/// M12/M13 Q1031=
201001082320 METAR ESMX 082320Z AUTO 02005KT 9999NDV OVC021/// M13/M14 Q1031 RESG=
201001082250 METAR ESMX 082250Z AUTO 04005KT 010V070 9999NDV OVC021/// M14/M16 Q1031=
201001082220 METAR ESMX 082220Z AUTO 02003KT 9999NDV BKN022/// M16/M18 Q1031=
201001082150 METAR ESMX 082150Z 02004KT CAVOK M17/M18 Q1031=
201001082120 METAR ESMX 082120Z 01005KT CAVOK M16/M18 Q1031=
201001082050 METAR ESMX 082050Z 02004KT CAVOK M16/M18 Q1030=
201001082020 METAR ESMX 082020Z 01004KT CAVOK M16/M17 Q1030=
201001081950 METAR ESMX 081950Z 36005KT CAVOK M16/M18 Q1030=
201001081920 METAR ESMX 081920Z 02005KT CAVOK M16/M18 Q1030=
201001081850 METAR ESMX 081850Z 02005KT CAVOK M16/M17 Q1029=
201001081820 METAR ESMX 081820Z 01006KT CAVOK M16/M17 Q1029=
201001081750 METAR ESMX 081750Z 02005KT CAVOK M15/M17 Q1029=
201001081720 METAR ESMX 081720Z 01006KT CAVOK M16/M17 Q1029=
201001081650 METAR ESMX 081650Z 02006KT CAVOK M15/M16 Q1028=
201001081620 METAR ESMX 081620Z 02006KT CAVOK M14/M16 Q1028=
201001081550 METAR ESMX 081550Z 01005KT CAVOK M15/M16 Q1028=
201001081520 METAR ESMX 081520Z 01004KT CAVOK M13/M15 Q1028=
201001081450 METAR ESMX 081450Z 01005KT CAVOK M13/M14 Q1028=
201001081420 METAR ESMX 081420Z 01005KT CAVOK M12/M15 Q1027=
201001081350 METAR ESMX 081350Z 01005KT CAVOK M12/M14 Q1027=
201001081320 METAR ESMX 081320Z 01005KT CAVOK M11/M14 Q1026=
201001081250 METAR ESMX 081250Z 36005KT CAVOK M11/M13 Q1026=
201001081220 METAR ESMX 081220Z 01006KT CAVOK M11/M13 Q1026=
201001081150 METAR ESMX 081150Z 36006KT CAVOK M11/M13 Q1026=
201001081120 METAR ESMX 081120Z 34005KT CAVOK M12/M14 Q1026=
201001081050 METAR ESMX 081050Z 35004KT 320V020 CAVOK M13/M14 Q1026=
201001081020 METAR ESMX 081020Z 01004KT CAVOK M13/M15 Q1025=
201001080950 METAR ESMX 080950Z 01005KT CAVOK M14/M16 Q1025=
201001080920 METAR ESMX 080920Z 01004KT CAVOK M15/M17 Q1025=
201001080850 METAR ESMX 080850Z 34003KT CAVOK M16/M17 Q1024=
201001080820 METAR ESMX 080820Z 35005KT CAVOK M16/M18 Q1024=
201001080750 METAR ESMX 080750Z 36005KT CAVOK M17/M18 Q1023=
201001080720 METAR ESMX 080720Z 01004KT CAVOK M16/M17 Q1023=
201001080650 METAR ESMX 080650Z 35004KT CAVOK M16/M18 Q1023=
201001080620 METAR ESMX 080620Z 35004KT CAVOK M16/M17 Q1022=
201001080550 METAR ESMX 080550Z 36005KT CAVOK M16/M17 Q1022=
201001080520 METAR ESMX 080520Z 36005KT CAVOK M16/M17 Q1021=
201001080450 METAR ESMX 080450Z 36005KT CAVOK M15/M17 Q1021=
201001080420 METAR ESMX 080420Z AUTO 01005KT 9999NDV NCD M15/M17 Q1021=
201001080350 METAR ESMX 080350Z AUTO 36006KT 9999NDV NCD M15/M17 Q1021=
201001080320 METAR ESMX 080320Z AUTO 36006KT 9999NDV NCD M15/M17 Q1020=
201001080250 METAR ESMX 080250Z AUTO 36005KT 9999NDV NCD M14/M15 Q1020=
201001080220 METAR ESMX 080220Z AUTO 36003KT 9999NDV NCD M14/M15 Q1020=
201001080150 METAR ESMX 080150Z AUTO 01005KT 9999NDV NCD M14/M15 Q1019=
201001080120 METAR ESMX 080120Z AUTO 36005KT 9999NDV NCD M14/M15 Q1019=
201001080050 METAR ESMX 080050Z 01005KT CAVOK M14/M15 Q1019=
201001080020 METAR ESMX 080020Z 35005KT CAVOK M14/M15 Q1018=
201001072350 METAR ESMX 072350Z 01005KT CAVOK M13/M15 Q1018=
201001072320 METAR ESMX 072320Z 02006KT CAVOK M13/M15 Q1018=
201001072250 METAR ESMX 072250Z 35006KT CAVOK M12/M14 Q1017=
201001072220 METAR ESMX 072220Z 01005KT CAVOK M12/M14 Q1017=
201001072150 METAR ESMX 072150Z 35008KT CAVOK M11/M13 Q1017=
201001072120 METAR ESMX 072120Z 35007KT CAVOK M11/M13 Q1016=
201001072020 METAR ESMX 072020Z 01008KT CAVOK M10/M12 Q1016=
201001071950 METAR ESMX 071950Z 02009KT CAVOK M10/M12 Q1015=
201001071920 METAR ESMX 071920Z 02010KT CAVOK M09/M11 Q1015=
201001071850 METAR ESMX 071850Z 01007KT CAVOK M09/M11 Q1015=
201001071820 METAR ESMX 071820Z 02007KT CAVOK M09/M11 Q1014=
201001071750 METAR ESMX 071750Z 01007KT CAVOK M09/M10 Q1014=
201001071720 METAR ESMX 071720Z 02008KT 9999 FEW052 SCT083 M09/M10 Q1014=
201001071650 METAR ESMX 071650Z 01007KT 9999 FEW010 SCT045 M08/M10 Q1013=
201001071620 METAR ESMX 071620Z 36007KT 9999 FEW010 SCT044 M08/M10 Q1013=
201001071550 METAR ESMX 071550Z 36007KT 9999 FEW009 M09/M10 Q1013=
201001071520 METAR ESMX 071520Z 01008KT 9999 OVC009 M08/M09 Q1012=
201001071450 METAR ESMX 071450Z 01008KT 9999 OVC009 M07/M09 Q1012=
201001071420 METAR ESMX 071420Z 01007KT 9999 OVC009 M07/M09 Q1011=
201001071350 METAR ESMX 071350Z 01008KT 9999 FEW010 BKN050 M07/M09 Q1011=
201001071320 METAR ESMX 071320Z 01008KT 9999 FEW010 BKN043 M07/M09 Q1011=
201001071250 METAR ESMX 071250Z 01007KT 9999 FEW010 SCT030 BKN045 M08/M09 Q1011=
201001071220 METAR ESMX 071220Z 36006KT 9999 FEW020 SCT025 BKN040 M08/M09 Q1011=
201001071150 METAR ESMX 071150Z 35006KT 9999 FEW022 SCT028 BKN032 M08/M09 Q1010=
201001071120 METAR ESMX 071120Z 36006KT 9999 IC FEW020 SCT075 M08/M09 Q1011=
201001071050 METAR ESMX 071050Z 36006KT 9999 -SN FEW006 SCT012 M08/M10 Q1010=
201001071020 METAR ESMX 071020Z 35006KT 5000 -SN FEW015 BKN035 M09/M10 Q1010=
201001070950 METAR ESMX 070950Z 35006KT 9999 FEW013 BKN035 M09/M11 Q1010=
201001070920 METAR ESMX 070920Z 36004KT 9999 FEW023 BKN050 M09/M11 Q1010=
201001070850 METAR ESMX 070850Z 33003KT 9999 FEW040 SCT049 BKN060 M11/M12 Q1009=
201001070820 METAR ESMX 070820Z 36006KT 9999 FEW044 BKN051 M11/M12 Q1009=
201001070750 METAR ESMX 070750Z 34005KT 9999 FEW025 BKN050 M11/M12 Q1009=
201001070720 METAR ESMX 070720Z 36005KT 9999 -SN BKN051 M10/M12 Q1009=
201001070650 METAR ESMX 070650Z 01006KT 9999 -SN FEW024 SCT028 OVC055 M10/M11 Q1008=
201001070620 METAR ESMX 070620Z 36004KT 9999 -SN FEW007 SCT030 OVC048 M10/M12 Q1008=
201001070550 METAR ESMX 070550Z 36004KT 9999 FEW007 SCT030 OVC046 M11/M13 Q1008=
201001070520 METAR ESMX 070520Z 36004KT 330V030 9999 FEW008 SCT025 BKN045 M12/M13 Q1008=
201001070450 METAR ESMX 070450Z 36004KT 9999 FEW007 SCT025 BKN050 M12/M13 Q1008=
201001070420 METAR ESMX 070420Z AUTO 36005KT 9999NDV FEW027/// M11/M12 Q1008=
201001070350 METAR ESMX 070350Z AUTO 36005KT 7000NDV -SN FEW020/// SCT035/// BKN049/// M10/M11 Q1008=
201001070320 METAR ESMX 070320Z AUTO 35005KT 9999NDV -SN FEW020/// SCT034/// BKN052/// M11/M13 Q1007=
201001070250 METAR ESMX 070250Z AUTO 34006KT 9999NDV FEW008/// OVC052/// M11/M12 Q1007=
201001070220 METAR ESMX 070220Z AUTO 34006KT 9999NDV -SN FEW013/// BKN054/// M11/M12 Q1007=
201001070150 METAR ESMX 070150Z AUTO 34005KT 9999NDV OVC008/// M11/M12 Q1007=
201001070120 METAR ESMX 070120Z 35005KT 9999 BKN007 M11/M12 Q1007=
201001070050 METAR ESMX 070050Z 36005KT 9999 OVC007 M10/M12 Q1007=
201001062350 METAR ESMX 062350Z 36006KT 9999 SCT007 OVC050 M10/M11 Q1007=
201001062250 METAR ESMX 062250Z 36006KT 9999 OVC006 M10/M11 Q1007=
201001062220 METAR ESMX 062220Z 36005KT 9999 OVC006 M10/M11 Q1007=
201001062150 METAR ESMX 062150Z 36008KT 9999 OVC006 M10/M11 Q1007=
201001062120 METAR ESMX 062120Z 36009KT 9999 SCT007 BKN054 M09/M11 Q1007=
201001062050 METAR ESMX 062050Z 36007KT 9999 -SN FEW010 BKN050 M09/M11 Q1007=
201001062020 METAR ESMX 062020Z 01007KT 9999 -SN FEW006 SCT025 BKN050 M09/M11 Q1007=
201001061950 METAR ESMX 061950Z 36008KT 9999 -SN FEW006 SCT020 BKN040 M09/M11 Q1007=
201001061920 METAR ESMX 061920Z 36008KT 6000 -SN SCT006 BKN035 M09/M10 Q1007=
201001061850 METAR ESMX 061850Z 35008KT 9999 FEW009 BKN030 M09/M10 Q1007=
201001061820 METAR ESMX 061820Z 01007KT 6000 -SN FEW009 BKN036 M09/M10 Q1007=
201001061750 METAR ESMX 061750Z 01006KT 7000 -SN OVC007 M09/M10 Q1007=
201001061720 METAR ESMX 061720Z 02006KT 9999 -SN OVC007 M09/M10 Q1007=
201001061650 METAR ESMX 061650Z 01007KT 9999 -SN OVC007 M08/M10 Q1007=
201001061620 METAR ESMX 061620Z 02006KT 5000 -SN FEW009 BKN039 M08/M09 Q1007=
201001061550 METAR ESMX 061550Z 03006KT 5000 -SN FEW011 SCT034 BKN041 M08/M09 Q1007=
201001061520 METAR ESMX 061520Z 03006KT 6000 -SN FEW010 BKN038 M08/M09 Q1007=
201001061420 METAR ESMX 061420Z 02007KT 5000 -SN FEW008 OVC013 M08/M09 Q1007=
201001061350 METAR ESMX 061350Z 03007KT 9999 -SN BKN013 OVC018 M08/M09 Q1007=
201001061250 METAR ESMX 061250Z 03007KT 9999 -SN BKN012 BKN035 M08/M09 Q1007=
201001061220 METAR ESMX 061220Z 02006KT 8000 -SN BKN012 M08/M09 Q1007=
201001051650 METAR ESMX 051650Z 06005KT 020V100 1600 -SN SCT006 BKN019 M09/M10 Q1007=
201001051620 METAR ESMX 051620Z 04006KT 020V080 2000 -SN SCT006 BKN018 M08/M09 Q1007=
201001051550 METAR ESMX 051550Z 07005KT 030V120 2400 -SN BKN017 M08/M09 Q1007=
201001051520 METAR ESMX 051520Z 05006KT 020V080 2500 -SN BKN017 M08/M09 Q1007=
201001051450 METAR ESMX 051450Z 06006KT 020V090 3000 -SN FEW008 BKN021 M07/M08 Q1007=
201001051420 METAR ESMX 051420Z 06005KT 010V100 2500 -SN FEW006 BKN025 M07/M08 Q1006=
201001051350 METAR ESMX 051350Z 05004KT 010V080 2400 SN SCT004 BKN010 M06/M07 Q1006=
201001051320 METAR ESMX 051320Z AUTO 06004KT 020V100 1000NDV R01/1100V1900D R19/1200VP2000D SN FEW006/// SCT008/// BKN013/// M06/M07 Q1006=
201001051250 METAR ESMX 051250Z AUTO 06005KT 020V110 1700NDV -SN FEW007/// M06/M07 Q1006=
201001051220 METAR ESMX 051220Z AUTO 09003KT 050V140 1700NDV -SN FEW007/// SCT010/// BKN012/// M06/M07 Q1006=
201001051150 METAR ESMX 051150Z AUTO 10003KT 060V150 6000NDV -SN FEW006/// OVC010/// M06/M08 Q1006=
201001051120 METAR ESMX 051120Z AUTO 09003KT 020V120 1700NDV -SN OVC006/// M07/M08 Q1006=
201001051050 METAR ESMX 051050Z AUTO 07004KT 020V140 9999NDV OVC006/// M07/M08 Q1007=
201001051020 METAR ESMX 051020Z AUTO 07004KT 010V160 9999NDV OVC005/// M07/M08 Q1007=
201001050950 METAR ESMX 050950Z AUTO 07005KT 020V130 9999NDV OVC005/// M07/M08 Q1007=
201001050920 METAR ESMX 050920Z AUTO 06004KT 020V100 9999NDV OVC005/// M07/M08 Q1007=
201001050850 METAR ESMX 050850Z AUTO 06005KT 020V090 9999NDV OVC005/// M07/M08 Q1006=
201001050820 METAR ESMX 050820Z AUTO 05004KT 020V120 9999NDV OVC005/// M07/M08 Q1006=
201001050750 METAR ESMX 050750Z AUTO VRB02KT 9999NDV OVC005/// M07/M08 Q1006=
201001050720 METAR ESMX 050720Z AUTO 08003KT 030V140 9999NDV OVC006/// M07/M08 Q1006=
201001050650 METAR ESMX 050650Z AUTO VRB02KT 9999NDV OVC006/// M06/M07 Q1006=
201001050620 METAR ESMX 050620Z VRB02KT 9999 OVC006 M06/M07 Q1006=
201001050550 METAR ESMX 050550Z AUTO VRB01KT 9999NDV OVC006/// M06/M07 Q1006=
201001050520 METAR ESMX 050520Z AUTO VRB02KT 9999NDV OVC005/// M06/M07 Q1005=
201001050450 METAR ESMX 050450Z AUTO VRB02KT 9999NDV OVC006/// M06/M07 Q1005=
201001050420 METAR ESMX 050420Z AUTO VRB01KT 9999NDV OVC006/// M06/M07 Q1005=
201001050350 METAR ESMX 050350Z AUTO VRB02KT 9999NDV OVC005/// M06/M07 Q1005=
201001050320 METAR ESMX 050320Z AUTO 31003KT 9999NDV OVC005/// M06/M07 Q1005=
201001050250 METAR ESMX 050250Z AUTO VRB01KT 9999NDV OVC005/// M06/M07 Q1005=
201001050220 METAR ESMX 050220Z AUTO VRB02KT 9999NDV OVC005/// M06/M07 Q1005=
201001050150 METAR ESMX 050150Z AUTO VRB02KT 9999NDV OVC006/// M06/M07 Q1005=
201001050120 METAR ESMX 050120Z AUTO 26003KT 230V320 9999NDV OVC007/// M06/M07 Q1005=
201001050050 METAR ESMX 050050Z 26003KT 9999 OVC007 M07/M07 Q1005=
201001050020 METAR ESMX 050020Z 27004KT 9999 OVC008 M07/M07 Q1004=
201001042350 METAR ESMX 042350Z 27003KT 9999 OVC010 M08/M09 Q1004=
201001042320 METAR ESMX 042320Z VRB01KT 9999 FEW009 BKN014 M08/M09 Q1004=
201001042250 METAR ESMX 042250Z 25002KT 9999 FEW017 M08/M09 Q1004=
201001042220 METAR ESMX 042220Z 24003KT 9999 SCT016 M06/M07 Q1004=
201001042150 METAR ESMX 042150Z 24003KT 9999 FEW015 M07/M08 Q1004=
201001042120 METAR ESMX 042120Z 28003KT 9999 BKN014 M03/M06 Q1003=
201001042050 METAR ESMX 042050Z 31003KT 280V360 9999 OVC014 M03/M06 Q1003=
201001042020 METAR ESMX 042020Z 26004KT 230V290 9999 OVC014 M03/M05 Q1003=
201001041950 METAR ESMX 041950Z 27003KT 240V300 9999 OVC016 M03/M05 Q1003=
201001041920 METAR ESMX 041920Z 26003KT 9999 OVC018 M03/M04 Q1003=
201001041850 METAR ESMX 041850Z VRB02KT 9999 OVC020 M03/M04 Q1003=
201001041820 METAR ESMX 041820Z 23003KT 9999 BKN020 M03/M04 Q1003=
201001041750 METAR ESMX 041750Z 22003KT 9999 FEW007 OVC020 M03/M04 Q1003=
201001041720 METAR ESMX 041720Z VRB02KT 9999 FEW007 OVC020 M03/M04 Q1003=
201001041650 METAR ESMX 041650Z 25003KT 220V280 9999 -SN SCT007 BKN022 M03/M04 Q1003=
201001041620 METAR COR ESMX 041620Z 23003KT 9999 -SN FEW007 BKN010 OVC024 M03/M03 Q1003=
201001041550 METAR ESMX 041550Z 22005KT 9999 SCT006 BKN020 M03/M04 Q1003=
201001041520 METAR ESMX 041520Z 21008KT 9999 FEW006 OVC020 M03/M03 Q1003=
201001041450 METAR ESMX 041450Z 20008KT 9999 SCT006 OVC019 M03/M03 Q1003=
201001041420 METAR ESMX 041420Z 19007KT 9999 SCT006 BKN009 OVC019 M03/M04 Q1003=
201001041350 METAR ESMX 041350Z 21007KT 190V250 9000 BR OVC005 M03/M04 Q1004=
201001041320 METAR ESMX 041320Z 20007KT 9999 OVC006 M03/M04 Q1004=
201001041250 METAR ESMX 041250Z 20009KT 9999 OVC006 M03/M04 Q1004=
201001041220 METAR ESMX 041220Z 21007KT 9999 -SN OVC007 M03/M04 Q1004=
201001041150 METAR ESMX 041150Z 20007KT 8000 -SN SCT006 BKN009 M04/M04 Q1005=
201001041120 METAR ESMX 041120Z 20009KT 0900 R01/0800VP2000D R19/1200 SN FEW000 SCT006 BKN011 M04/M05 Q1005=
201001041050 METAR ESMX 041050Z 19011KT 3000 -SN FEW002 SCT008 BKN010 M04/M05 Q1005=
201001041020 METAR ESMX 041020Z 20011KT 2400 -SN FEW003 BKN008 OVC010 M04/M05 Q1006=
201001040950 METAR ESMX 040950Z 19011KT 4200 SG OVC006 M04/M06 Q1006=
201001040920 METAR ESMX 040920Z 19010KT 9999 OVC006 M05/M06 Q1007=
201001040850 METAR ESMX 040850Z 19010KT 9999 SCT007 OVC009 M05/M06 Q1007=
201001040820 METAR ESMX 040820Z 19009KT 9999 FEW006 SCT008 BKN009 M05/M06 Q1007=
201001040750 METAR ESMX 040750Z 19009KT 9999 SCT005 BKN007 OVC017 M05/M06 Q1008=
201001040720 METAR ESMX 040720Z 21008KT 9999 OVC005 M05/M05 Q1008=
201001040650 METAR ESMX 040650Z 20008KT 9000 BR OVC003 M05/M05 Q1008=
201001040620 METAR ESMX 040620Z AUTO 19008KT 7000NDV BR OVC002/// M05/M05 Q1008=
201001040550 METAR ESMX 040550Z AUTO 19007KT 5000NDV BR OVC002/// M05/M05 Q1009=
201001040520 METAR ESMX 040520Z AUTO 20008KT 4800NDV BR OVC002/// M05/M05 Q1009=
201001040450 METAR ESMX 040450Z AUTO 21007KT 4100NDV BR OVC002/// M05/M06 Q1009=
201001040420 METAR ESMX 040420Z AUTO 20007KT 5000NDV BR OVC002/// M05/M06 Q1010=
201001040350 METAR ESMX 040350Z AUTO 22006KT 170V240 8000NDV BR OVC003/// M05/M06 Q1010=
201001040320 METAR ESMX 040320Z AUTO 21008KT 9999NDV OVC004/// M05/M06 Q1011=
201001040250 METAR ESMX 040250Z AUTO 22005KT 9999NDV OVC004/// M05/M06 Q1011=
201001040220 METAR ESMX 040220Z AUTO 24004KT 210V290 9999NDV OVC005/// M05/M06 Q1011=
201001040150 METAR ESMX 040150Z 23005KT 9999 OVC006 M05/M06 Q1012=
201001040120 METAR ESMX 040120Z 25005KT 210V300 9999 OVC006 M05/M06 Q1012=
201001040050 METAR ESMX 040050Z 23007KT 200V260 9999 OVC006 M06/M07 Q1012=
201001040020 METAR ESMX 040020Z 25005KT 220V290 9999 OVC007 M06/M07 Q1012 RESG=
201001032350 METAR ESMX 032350Z 24006KT 200V270 9999 OVC007 M06/M07 Q1013=
201001032320 METAR ESMX 032320Z 25006KT 220V280 9999 OVC007 M06/M07 Q1013=
201001032250 METAR ESMX 032250Z 23006KT 190V260 9999 OVC007 M06/M07 Q1013=
201001032220 METAR ESMX 032220Z 26006KT 220V290 9999 OVC006 M06/M07 Q1013=
201001032150 METAR ESMX 032150Z 26008KT 9999 OVC007 M06/M08 Q1014=
201001032120 METAR ESMX 032120Z 26008KT 230V290 9000 BKN007 M06/M08 Q1014=
201001032050 METAR ESMX 032050Z 27006KT 220V310 9999 SCT010 BKN052 M07/M08 Q1014=
201001032020 METAR ESMX 032020Z 26006KT 230V290 9999 OVC009 M07/M08 Q1014=
201001031950 METAR ESMX 031950Z 25005KT 210V290 7000 OVC010 M08/M09 Q1014=
201001031920 METAR ESMX 031920Z 24005KT 210V280 3300 FEW006 SCT008 OVC010 M08/M09 Q1014=
201001031850 METAR COR ESMX 031850Z 26005KT 230V300 9999 FEW005 BKN010 M08/M10 Q1015=
201001031820 METAR ESMX 031820Z AUTO 26005KT 9999NDV FEW002/// SCT011/// OVC014/// M08/M10 Q1015=
201001031750 METAR ESMX 031750Z AUTO 24003KT 9999NDV OVC013/// M09/M10 Q1015=
201001031720 METAR ESMX 031720Z AUTO 23003KT 200V290 9999NDV OVC013/// M09/M10 Q1015=
201001031650 METAR ESMX 031650Z 22004KT 9999 OVC014 M10/M11 Q1015=
201001031620 METAR ESMX 031620Z 25004KT 9999 OVC014 M10/M11 Q1016=
201001031550 METAR ESMX 031550Z 25004KT 9999 OVC014 M10/M12 Q1016=
201001031520 METAR ESMX 031520Z 25004KT 9999 BKN015 M11/M12 Q1016=
201001031450 METAR ESMX 031450Z 25005KT 9999 SCT016 M11/M13 Q1016=
201001031350 METAR ESMX 031350Z 26004KT CAVOK M10/M12 Q1016=
201001031320 METAR ESMX 031320Z AUTO 26003KT 9000NDV NCD M10/M12 Q1016=
201001031250 METAR ESMX 031250Z AUTO 27004KT 240V300 9999NDV NCD M09/M12 Q1016=
201001031220 METAR ESMX 031220Z AUTO 28004KT 9999NDV NCD M10/M12 Q1017=
201001031150 METAR ESMX 031150Z AUTO 28004KT 250V320 9999NDV NCD M10/M13 Q1017=
201001031120 METAR ESMX 031120Z AUTO 29003KT 260V320 9999NDV NCD M11/M13 Q1017=
201001031050 METAR ESMX 031050Z AUTO VRB02KT 9999NDV NCD M11/M13 Q1017=
201001031020 METAR ESMX 031020Z AUTO VRB01KT 9999NDV NCD M11/M12 Q1018=
201001030950 METAR ESMX 030950Z AUTO 31002KT 9999NDV NCD M13/M15 Q1018=
201001030920 METAR ESMX 030920Z AUTO VRB02KT 9999NDV NCD M13/M15 Q1018=
201001030850 METAR ESMX 030850Z AUTO VRB01KT 9999NDV NCD M15/M16 Q1018=
201001030820 METAR ESMX 030820Z AUTO 27002KT 9999NDV NCD M16/M18 Q1018=
201001030750 METAR ESMX 030750Z AUTO 30001KT 9999NDV NCD M18/M19 Q1018=
201001030720 METAR ESMX 030720Z AUTO 30001KT 9999NDV NCD M18/M19 Q1018=
201001030650 METAR ESMX 030650Z AUTO 33001KT 9999NDV NCD M17/M18 Q1018=
201001030620 METAR ESMX 030620Z AUTO VRB02KT 9999NDV NCD M16/M17 Q1018=
201001030550 METAR ESMX 030550Z AUTO 34003KT 9999NDV NCD M15/M16 Q1019=
201001030520 METAR ESMX 030520Z AUTO 35004KT 9999NDV NCD M15/M17 Q1019=
201001030450 METAR ESMX 030450Z AUTO 35003KT 9999NDV NCD M15/M16 Q1019=
201001030420 METAR ESMX 030420Z AUTO 31003KT 9999NDV NCD M15/M16 Q1019=
201001030350 METAR ESMX 030350Z AUTO 35006KT 9999NDV NCD M14/M16 Q1019=
201001030320 METAR ESMX 030320Z AUTO 35005KT 9999NDV NCD M14/M16 Q1019=
201001030250 METAR ESMX 030250Z AUTO 35005KT 9999NDV NCD M14/M15 Q1019=
201001030220 METAR ESMX 030220Z AUTO 36006KT 9999NDV NCD M13/M15 Q1019=
201001030150 METAR ESMX 030150Z AUTO 35006KT 9999NDV NCD M13/M14 Q1019=
201001030120 METAR ESMX 030120Z AUTO 35007KT 9999NDV NCD M13/M14 Q1019=
201001030050 METAR ESMX 030050Z AUTO 02005KT 9999NDV NCD M12/M14 Q1019=
201001030020 METAR ESMX 030020Z AUTO 36007KT 9999NDV BKN018/// M12/M14 Q1019=
201001022350 METAR ESMX 022350Z AUTO 36007KT 9999NDV NCD M13/M15 Q1019=
201001022320 METAR ESMX 022320Z AUTO 36006KT 9999NDV NCD M13/M15 Q1019=
201001022250 METAR ESMX 022250Z AUTO 35005KT 9999NDV NCD M13/M15 Q1019=
201001022220 METAR ESMX 022220Z AUTO 35008KT 9999NDV NCD M13/M15 Q1020=
201001022150 METAR ESMX 022150Z AUTO 36006KT 9999NDV NCD M14/M15 Q1020=
201001022120 METAR ESMX 022120Z AUTO 01005KT 9999NDV NCD M14/M15 Q1019=
201001022050 METAR ESMX 022050Z AUTO 35005KT 9999NDV NCD M14/M15 Q1019=
201001022020 METAR ESMX 022020Z AUTO 01005KT 9999NDV NCD M13/M15 Q1019=
201001021950 METAR ESMX 021950Z AUTO 01004KT 9999NDV NCD M13/M15 Q1019=
201001021920 METAR ESMX 021920Z AUTO 35005KT 9999NDV NCD M13/M15 Q1019=
201001021850 METAR ESMX 021850Z AUTO 36005KT 9999NDV NCD M13/M15 Q1019=
201001021820 METAR ESMX 021820Z AUTO 01004KT 9999NDV NCD M13/M14 Q1019=
201001021750 METAR ESMX 021750Z AUTO 35005KT 9999NDV NCD M12/M14 Q1019=
201001021720 METAR ESMX 021720Z AUTO 35006KT 9999NDV NCD M12/M14 Q1019=
201001021650 METAR ESMX 021650Z AUTO 36006KT 9999NDV NCD M12/M14 Q1019=
201001021620 METAR ESMX 021620Z AUTO 35006KT 9999NDV NCD M12/M13 Q1018=
201001021550 METAR ESMX 021550Z AUTO 36006KT 9999NDV NCD M11/M13 Q1018=
201001021520 METAR ESMX 021520Z AUTO 35007KT 9999NDV NCD M11/M13 Q1018=
201001021450 METAR ESMX 021450Z AUTO 36007KT 9999NDV NCD M10/M12 Q1017=
201001021420 METAR ESMX 021420Z AUTO 01010KT 9999NDV NCD M09/M12 Q1017=
201001021350 METAR ESMX 021350Z AUTO 02011KT 9999NDV NCD M08/M12 Q1017=
201001021320 METAR ESMX 021320Z AUTO 01010KT 9999NDV FEW036/// M08/M11 Q1017=
201001021250 METAR ESMX 021250Z AUTO 01011KT 9999NDV FEW042/// M08/M11 Q1016=
201001021220 METAR ESMX 021220Z AUTO 02009KT 9999NDV FEW026/// SCT040/// M08/M11 Q1016=
201001021150 METAR ESMX 021150Z AUTO 02010KT 9999NDV FEW028/// BKN041/// BKN059/// M08/M11 Q1016=
201001021120 METAR ESMX 021120Z AUTO 01010KT 9999NDV FEW038/// BKN047/// M07/M10 Q1016=
201001021050 METAR ESMX 021050Z AUTO 36011KT 4700NDV -SN FEW011/// SCT035/// M07/M08 Q1015=
201001021020 METAR ESMX 021020Z AUTO 02008KT 350V060 4800NDV -SN FEW009/// SCT022/// M07/M08 Q1015=
201001020950 METAR ESMX 020950Z AUTO 01008KT 1400NDV R01/P2000N R19/1100VP2000N -SN FEW005/// SCT007/// M07/M08 Q1015=
201001020920 METAR ESMX 020920Z AUTO 36009KT 4400NDV -SN FEW012/// SCT041/// M07/M09 Q1014=
201001020850 METAR ESMX 020850Z AUTO 36008KT 9999NDV -SN FEW035/// SCT052/// M07/M09 Q1014=
201001020820 METAR ESMX 020820Z AUTO 01008KT 9999NDV -SN FEW024/// SCT045/// BKN052/// M07/M09 Q1014 RESG=
201001020750 METAR ESMX 020750Z AUTO 02008KT 9999NDV SCT024/// BKN038/// BKN058/// M07/M09 Q1013=
201001020720 METAR ESMX 020720Z AUTO 01009KT 9999NDV FEW012/// M07/M09 Q1013=
201001020650 METAR ESMX 020650Z AUTO 01009KT 9999NDV FEW090/// M07/M09 Q1012=
201001020620 METAR ESMX 020620Z AUTO 03009KT 9999NDV BKN088/// M07/M09 Q1012=
201001020550 METAR ESMX 020550Z AUTO 02010KT 9999NDV IC BKN089/// M07/M09 Q1011=
201001020520 METAR ESMX 020520Z AUTO 02010KT 9999NDV -SN FEW089/// SCT100/// M07/M09 Q1011=
201001020450 METAR ESMX 020450Z AUTO 03011KT 350V050 9999NDV FEW009/// SCT011/// BKN100/// M07/M09 Q1011=
201001020420 METAR ESMX 020420Z AUTO 03010KT 9999NDV FEW061/// M07/M08 Q1010=
201001020350 METAR ESMX 020350Z AUTO 03009KT 9999NDV BKN059/// M06/M08 Q1010=
201001020320 METAR ESMX 020320Z AUTO 02008KT 9999NDV BKN058/// M06/M08 Q1009=
201001020250 METAR ESMX 020250Z AUTO 03007KT 350V060 9999NDV BKN051/// M06/M08 Q1009=
201001020220 METAR ESMX 020220Z AUTO 03008KT 360V070 9999NDV FEW080/// M06/M08 Q1009=
201001020150 METAR ESMX 020150Z AUTO 02009KT 9999NDV BKN076/// M06/M08 Q1009=
201001020120 METAR ESMX 020120Z AUTO 04007KT 9999NDV OVC076/// M06/M08 Q1008=
201001020050 METAR ESMX 020050Z AUTO 03008KT 360V070 9999NDV FEW011/// OVC076/// M06/M07 Q1008=
201001020020 METAR ESMX 020020Z AUTO 02007KT 340V050 9999NDV FEW010/// BKN065/// M06/M07 Q1008=
201001012350 METAR ESMX 012350Z AUTO 02008KT 9999NDV BKN008/// OVC067/// M06/M07 Q1008=
201001012320 METAR ESMX 012320Z AUTO 01008KT 9999NDV FEW009/// SCT011/// OVC059/// M06/M08 Q1007=
201001012250 METAR ESMX 012250Z AUTO 02008KT 9999NDV BKN055/// OVC076/// M06/M08 Q1007=
201001012220 METAR ESMX 012220Z AUTO 36010KT 9999NDV OVC057/// M07/M08 Q1007=
201001012150 METAR ESMX 012150Z AUTO 01008KT 9999NDV BKN056/// BKN074/// M07/M08 Q1007=
201001012120 METAR ESMX 012120Z AUTO 01007KT 9999NDV OVC051/// M07/M08 Q1007=
201001012050 METAR ESMX 012050Z 02006KT 9999 -SN OVC044 M07/M09 Q1006=
201001012020 METAR ESMX 012020Z 02005KT 9999 -SN OVC039 M08/M09 Q1006=
201001011950 METAR ESMX 011950Z 02004KT 9999 FEW012 BKN045 M10/M11 Q1006=
201001011920 METAR ESMX 011920Z 02005KT CAVOK M10/M11 Q1005=
201001011850 METAR ESMX 011850Z 01005KT CAVOK M11/M12 Q1005=
201001011820 METAR ESMX 011820Z 02005KT 9999 FEW008 M11/M12 Q1005=
201001011750 METAR ESMX 011750Z 01006KT 9999 FEW008 M11/M12 Q1005=
201001011720 METAR ESMX 011720Z 02006KT 9999 FEW008 M10/M12 Q1004=
201001011650 METAR ESMX 011650Z 02006KT 9999 FEW008 M10/M11 Q1004=
201001011620 METAR ESMX 011620Z 02006KT 9999 FEW008 SCT080 M10/M11 Q1004=
201001011550 METAR ESMX 011550Z 02006KT 9999 SCT007 M10/M11 Q1004=
201001011520 METAR ESMX 011520Z AUTO 02007KT 9999NDV SCT008/// BKN031/// M09/M11 Q1004=
201001011450 METAR ESMX 011450Z AUTO 02006KT 9999NDV NCD M09/M11 Q1003=
201001011420 METAR ESMX 011420Z AUTO 02006KT 9999NDV FEW010/// M09/M11 Q1003=
201001011350 METAR ESMX 011350Z AUTO 03005KT 9999NDV FEW009/// M09/M11 Q1003=
201001011320 METAR ESMX 011320Z AUTO 01006KT 9999NDV SCT009/// M08/M10 Q1003=
201001011250 METAR ESMX 011250Z AUTO 03006KT 360V060 9999NDV FEW009/// SCT011/// M08/M10 Q1003=
201001011220 METAR ESMX 011220Z AUTO 02007KT 9999NDV OVC008/// M08/M10 Q1002=
