##########################################################
# Query made at 04/19/2024 21:19:35 UTC
# Time interval: from 12/01/2010 12:00  to 12/31/2010 12:59  UTC
##########################################################

##########################################################
# ESMX, Vaxjo (Sweden)
# WMO index: 02641. WIGOS ID: 0-20000-0-02648
# Latitude 56-51N. Longitude 014-50E. Altitude 199 m.
##########################################################

201012311250 METAR ESMX 311250Z 25002KT CAVOK M06/M07 Q1012=
201012311220 METAR ESMX 311220Z 25003KT CAVOK M06/M07 Q1013=
201012311150 METAR ESMX 311150Z 26004KT CAVOK M06/M07 Q1013=
201012311120 METAR ESMX 311120Z 26004KT CAVOK M06/M07 Q1013=
201012311050 METAR ESMX 311050Z 25003KT CAVOK M07/M08 Q1013=
201012311020 METAR ESMX 311020Z AUTO VRB01KT 4600NDV BR NCD M06/M07 Q1013=
201012310950 METAR ESMX 310950Z AUTO 26004KT 6000NDV BR NCD M09/M10 Q1014=
201012310920 METAR ESMX 310920Z AUTO 19002KT 7000NDV BR NCD M08/M08 Q1013=
201012310850 METAR ESMX 310850Z AUTO VRB01KT 3400NDV BR NCD M07/M08 Q1013=
201012310820 METAR ESMX 310820Z AUTO VRB02KT 7000NDV BR NCD M09/M10 Q1013=
201012310750 METAR ESMX 310750Z AUTO 28002KT 7000NDV BR NCD M09/M10 Q1013=
201012310720 METAR ESMX 310720Z AUTO 28003KT 8000NDV BR NCD M09/M10 Q1012=
201012310650 METAR ESMX 310650Z AUTO 30003KT 8000NDV BR NCD M09/M10 Q1012=
201012310620 METAR ESMX 310620Z AUTO 31003KT 2100NDV BR NCD M08/M09 Q1012=
201012310550 METAR ESMX 310550Z AUTO 31003KT 5000NDV BR NCD M08/M09 Q1012=
201012310520 METAR ESMX 310520Z AUTO 30003KT 6000NDV BR NCD M08/M09 Q1012=
201012310450 METAR ESMX 310450Z AUTO 31002KT 0700NDV R01/P2000N R19/P2000N BR NCD M06/M07 Q1011=
201012310420 METAR ESMX 310420Z AUTO 32002KT 5000NDV BR NCD M06/M07 Q1011=
201012310350 METAR ESMX 310350Z AUTO 31003KT 7000NDV BR NCD M05/M06 Q1011=
201012310320 METAR ESMX 310320Z AUTO 31003KT 7000NDV BR NCD M05/M06 Q1011=
201012310250 METAR ESMX 310250Z AUTO 32005KT 7000NDV BR NCD M05/M05 Q1011=
201012310220 METAR ESMX 310220Z AUTO 31003KT 6000NDV BR NCD M04/M04 Q1011=
201012310150 METAR ESMX 310150Z AUTO 35003KT 7000NDV BR SCT005/// M03/M04 Q1010=
201012310120 METAR ESMX 310120Z AUTO 33004KT 7000NDV BR OVC004/// M03/M03 Q1010=
201012310050 METAR ESMX 310050Z AUTO 34005KT 300V010 8000NDV BR OVC004/// M02/M03 Q1010=
201012310020 METAR ESMX 310020Z AUTO 33006KT 8000NDV OVC004/// M02/M03 Q1010=
201012302350 METAR ESMX 302350Z AUTO 34008KT 7000NDV FEW001/// BKN002/// OVC005/// M02/M02 Q1010=
201012302320 METAR ESMX 302320Z AUTO 33005KT 0450NDV R01/1500N R19/1600N FZFG VV001 M02/M02 Q1010=
201012302250 METAR ESMX 302250Z AUTO 27005KT 240V300 0650NDV R01/P2000N R19/P2000N=
201012302220 METAR ESMX 302220Z AUTO VRB02KT 2400NDV BR OVC001/// M02/M03 Q1010=
201012302150 METAR ESMX 302150Z AUTO 30003KT 260V350 5000NDV BR OVC003/// M02/M03 Q1010=
201012302120 METAR ESMX 302120Z AUTO 23006KT 5000NDV -SN BKN006/// OVC009/// M02/M03 Q1009 RESG=
201012302050 METAR ESMX 302050Z AUTO 25004KT 4100NDV SG SCT005/// OVC009/// M03/M03 Q1010=
201012302020 METAR ESMX 302020Z AUTO 26004KT 210V280 3500NDV SG FEW004/// OVC006/// M03/M03 Q1010=
201012301950 METAR ESMX 301950Z AUTO 25003KT 220V290 2000NDV -SN OVC002/// M03/M04 Q1011=
201012301920 METAR ESMX 301920Z AUTO 24003KT 210V280 1300NDV R01/P2000N R19/P2000N -SN OVC001/// M03/M04 Q1011=
201012301850 METAR ESMX 301850Z AUTO VRB02KT 0450NDV R01/1700U R19/1400N FZFG VV001 M04/M04 Q1011=
201012301820 METAR ESMX 301820Z AUTO 24003KT 210V280 0450NDV R01/1500N R19/1600D SG VV002 M04/M05 Q1011=
201012301750 METAR ESMX 301750Z AUTO 22003KT 0400NDV R01/1300N R19/1300V1800D IC VV002 M05/M06 Q1012=
201012301720 METAR ESMX 301720Z AUTO 23003KT 200V280 0500NDV R01/1600N R19/1600N FZFG VV002 M05/M06 Q1012=
201012301650 METAR ESMX 301650Z 26004KT 0600 R01/1800U R19/1900N FZFG VV002 M05/M06 Q1012=
201012301620 METAR ESMX 301620Z 25005KT 220V280 0900 R01/P2000N R19/P2000N FZFG VV002 M06/M06 Q1012=
201012301550 METAR ESMX 301550Z 26005KT 230V290 1800 BR OVC002 M06/M07 Q1013=
201012301520 METAR ESMX 301520Z 26006KT 230V290 3500 BR OVC003 M06/M07 Q1013=
201012301450 METAR ESMX 301450Z 25005KT 5000 BR OVC004 M07/M08 Q1013=
201012301420 METAR ESMX 301420Z 26005KT 230V300 7000 BR SCT006 OVC008 M07/M08 Q1014=
201012301350 METAR ESMX 301350Z 26006KT 230V290 3000 -SN BR FEW006 SCT008 OVC011 M07/M08 Q1014=
201012301320 METAR ESMX 301320Z 25006KT 9999 OVC006 M07/M09 Q1014=
201012301250 METAR ESMX 301250Z 25007KT 5000 BR OVC004 M08/M08 Q1015=
201012301220 METAR ESMX 301220Z 24006KT 200V290 5000 BR OVC005 M08/M09 Q1015=
201012301150 METAR ESMX 301150Z 26007KT 9999 OVC005 M08/M09 Q1016=
201012301120 METAR ESMX 301120Z 25008KT 200V280 9999 OVC006 M08/M09 Q1017=
201012301050 METAR ESMX 301050Z 27008KT 9999 BKN007 OVC014 M08/M10 Q1017=
201012301020 METAR ESMX 301020Z 27007KT 9999 OVC010 M09/M10 Q1018=
201012300950 METAR ESMX 300950Z 27006KT 9999 OVC010 M09/M10 Q1018=
201012300920 METAR ESMX 300920Z 27005KT 9999 SCT007 OVC010 M09/M10 Q1018=
201012300850 METAR ESMX 300850Z 27006KT 9999 OVC008 M09/M10 Q1019=
201012300820 METAR ESMX 300820Z 28005KT 9999 BKN006 OVC010 M09/M11 Q1019=
201012300720 METAR COR ESMX 300720Z 27004KT 9999 OVC014 M09/M11 Q1019=
201012300650 METAR ESMX 300650Z AUTO 27005KT 9999NDV IC OVC015/// M09/M11 Q1020=
201012300620 METAR ESMX 300620Z AUTO 29005KT 9999NDV -SN OVC015/// M09/M11 Q1020=
201012300550 METAR ESMX 300550Z AUTO 28005KT 9999NDV OVC016/// M09/M11 Q1020=
201012300520 METAR ESMX 300520Z AUTO 28005KT 9999NDV IC OVC016/// M09/M10 Q1020=
201012300450 METAR ESMX 300450Z AUTO 27004KT 240V300 9999NDV OVC015/// M09/M10 Q1020=
201012300420 METAR ESMX 300420Z AUTO 28004KT 9999NDV -SN OVC014/// M09/M10 Q1021=
201012300350 METAR ESMX 300350Z AUTO 31004KT 290V360 9999NDV FEW007/// OVC016/// M09/M10 Q1021 RESG=
201012300320 METAR ESMX 300320Z AUTO 31005KT 9999NDV -SN OVC006/// M09/M10 Q1021=
201012300250 METAR ESMX 300250Z AUTO 32006KT 280V340 9999NDV OVC006/// M09/M10 Q1022=
201012300220 METAR ESMX 300220Z AUTO 31005KT 260V340 9999NDV OVC007/// M08/M09 Q1022=
201012300150 METAR ESMX 300150Z AUTO 30004KT 9999NDV OVC008/// M08/M09 Q1022=
201012300120 METAR ESMX 300120Z AUTO 32004KT 9999NDV OVC008/// M08/M09 Q1022=
201012300050 METAR ESMX 300050Z AUTO 32007KT 9999NDV OVC008/// M08/M09 Q1022=
201012300020 METAR ESMX 300020Z 32006KT 9999 OVC007 M08/M09 Q1022=
201012292350 METAR ESMX 292350Z 33006KT 9999 OVC007 M08/M09 Q1023=
201012292320 METAR ESMX 292320Z 34007KT 310V010 9999 OVC007 M08/M09 Q1023=
201012292250 METAR ESMX 292250Z 33008KT 9999 OVC006 M07/M09 Q1023=
201012292220 METAR ESMX 292220Z 32005KT 9999 OVC006 M07/M08 Q1023=
201012292150 METAR ESMX 292150Z 31005KT 9999 OVC006 M07/M09 Q1024=
201012292120 METAR ESMX 292120Z 31004KT 9999 OVC007 M08/M09 Q1024=
201012292050 METAR ESMX 292050Z 31004G29KT 9999 OVC008 M08/M09 Q1024=
201012292020 METAR ESMX 292020Z 31005KT 9999 OVC008 M08/M09 Q1024=
201012291950 METAR ESMX 291950Z 32003KT 290V350 9999 FEW007 OVC009 M08/M09 Q1024=
201012291920 METAR ESMX 291920Z 33004KT 9999 OVC006 M08/M09 Q1024=
201012291850 METAR ESMX 291850Z 31005KT 9999 OVC006 M08/M09 Q1025=
201012291820 METAR ESMX 291820Z 31005KT 9999 OVC006 M08/M09 Q1025=
201012291750 METAR ESMX 291750Z 30005KT 9999 OVC007 M08/M09 Q1025=
201012291720 METAR ESMX 291720Z 31004KT 9999 OVC007 M08/M09 Q1025=
201012291650 METAR ESMX 291650Z 31005KT 9999 OVC007 M08/M09 Q1025=
201012291620 METAR ESMX 291620Z 31004KT 9999 OVC008 M07/M08 Q1025=
201012291550 METAR ESMX 291550Z 29003KT 9999 OVC008 M07/M08 Q1025=
201012291520 METAR ESMX 291520Z 32002KT 9999 SCT008 BKN050 M07/M08 Q1025=
201012291450 METAR ESMX 291450Z 34003KT 9999 OVC008 M07/M08 Q1025=
201012291420 METAR ESMX 291420Z 33004KT 9999 OVC008 M07/M08 Q1025=
201012291350 METAR ESMX 291350Z 32004KT 9999 SCT009 BKN050 M07/M08 Q1025=
201012291320 METAR ESMX 291320Z 30003KT 260V330 9999 SCT009 OVC054 M07/M08 Q1025=
201012291250 METAR ESMX 291250Z 28003KT 250V320 9999 FEW010 BKN050 M07/M09 Q1025=
201012291220 METAR ESMX 291220Z 29003KT 9999 FEW016 BKN060 M08/M09 Q1026=
201012291150 METAR ESMX 291150Z AUTO 33004KT 9999NDV FEW016/// OVC020/// M09/M10 Q1026=
201012291120 METAR ESMX 291120Z AUTO 34004KT 9999NDV OVC019/// M09/M10 Q1026=
201012291050 METAR ESMX 291050Z AUTO 34003KT 9999NDV BKN019/// M09/M11 Q1026=
201012291020 METAR ESMX 291020Z AUTO 33003KT 9999NDV BKN020/// M10/M11 Q1026=
201012290950 METAR ESMX 290950Z AUTO 32002KT 9999NDV FEW022/// M10/M11 Q1027=
201012290920 METAR ESMX 290920Z AUTO 32003KT 9999NDV -SN BKN007/// M10/M11 Q1027=
201012290850 METAR ESMX 290850Z AUTO 32003KT 290V010 9999NDV -SN OVC007/// M10/M12 Q1027=
201012290820 METAR ESMX 290820Z AUTO 31002KT 9999NDV IC BKN006/// M11/M12 Q1027=
201012290750 METAR ESMX 290750Z AUTO 31004KT 9999NDV IC OVC007/// M13/M15 Q1027=
201012290720 METAR ESMX 290720Z AUTO VRB01KT 9999NDV OVC007/// M15/M16 Q1027=
201012290650 METAR ESMX 290650Z AUTO VRB01KT 7000NDV BR SCT007/// M15/M16 Q1027=
201012290620 METAR ESMX 290620Z AUTO 00000KT 9999NDV FEW007/// M13/M14 Q1027=
201012290550 METAR ESMX 290550Z AUTO 33001KT 9999NDV NCD M11/M13 Q1027=
201012290520 METAR ESMX 290520Z AUTO 31003KT 280V350 9999NDV BKN008/// M11/M12 Q1026=
201012290450 METAR ESMX 290450Z AUTO 31004KT 280V340 9999NDV FEW008/// M11/M12 Q1027=
201012290420 METAR ESMX 290420Z AUTO 30002KT 9999NDV SCT022/// M13/M15 Q1027=
201012290350 METAR ESMX 290350Z AUTO 32002KT 9999NDV NCD M13/M14 Q1027=
201012290320 METAR ESMX 290320Z AUTO 31002KT 9999NDV FEW008/// M13/M15 Q1027=
201012290250 METAR ESMX 290250Z AUTO 36002KT 9999NDV BKN008/// M11/M12 Q1027=
201012290220 METAR ESMX 290220Z AUTO VRB01KT 9999NDV NCD M10/M11 Q1027=
201012290150 METAR ESMX 290150Z AUTO 29001KT 9999NDV NCD M09/M11 Q1027=
201012290120 METAR ESMX 290120Z AUTO 28001KT 9999NDV NCD M09/M10 Q1027=
201012290050 METAR ESMX 290050Z 28001KT 9999 FEW006 M09/M10 Q1027=
201012290020 METAR ESMX 290020Z 29003KT 9999 BKN006 M09/M10 Q1027=
201012282350 METAR ESMX 282350Z 30003KT 9999 OVC006 M08/M10 Q1027=
201012282320 METAR ESMX 282320Z 29003KT 9999 OVC006 M09/M10 Q1028=
201012282250 METAR ESMX 282250Z 26002KT 9999 OVC006 M08/M10 Q1028=
201012282220 METAR ESMX 282220Z 33002KT 9999 BKN005 OVC010 M08/M09 Q1028=
201012282150 METAR ESMX 282150Z 34003KT 9999 BKN004 BKN010 M08/M09 Q1028=
201012282120 METAR ESMX 282120Z 34004KT 9999 OVC005 M08/M09 Q1028=
201012282050 METAR ESMX 282050Z 35003KT 9999 BKN005 M08/M09 Q1028=
201012282020 METAR ESMX 282020Z 34004KT 9999 OVC004 M08/M09 Q1028=
201012281950 METAR ESMX 281950Z 33002KT 9999 BKN004 M09/M10 Q1028=
201012281920 METAR ESMX 281920Z 35003KT CAVOK M09/M10 Q1028=
201012281850 METAR ESMX 281850Z 34003KT CAVOK M09/M10 Q1028=
201012281820 METAR ESMX 281820Z 35003KT CAVOK M09/M10 Q1028=
201012281750 METAR ESMX 281750Z 36004KT CAVOK M09/M10 Q1028=
201012281720 METAR ESMX 281720Z 36005KT CAVOK M09/M10 Q1027=
201012281650 METAR ESMX 281650Z 36005KT CAVOK M09/M10 Q1027=
201012281620 METAR ESMX 281620Z 01004KT CAVOK M09/M10 Q1027=
201012281550 METAR ESMX 281550Z 36003KT 9999 SCT030 M08/M09 Q1027=
201012281520 METAR ESMX 281520Z 01001KT 9999 SCT030 BKN100 M08/M09 Q1027=
201012281450 METAR ESMX 281450Z 00000KT 9999 BKN028 M08/M09 Q1027=
201012281420 METAR ESMX 281420Z 02001KT 9999 BKN027 M08/M09 Q1027=
201012281350 METAR ESMX 281350Z 35002KT 9999 OVC027 M08/M09 Q1027=
201012281320 METAR ESMX 281320Z 34002KT 9999 OVC026 M08/M09 Q1027=
201012281250 METAR ESMX 281250Z 36002KT 9999 FEW020 BKN025 M08/M09 Q1027=
201012281220 METAR ESMX 281220Z 01002KT 9999 FEW020 BKN025 M08/M09 Q1027=
201012281150 METAR ESMX 281150Z AUTO 01002KT 9999NDV OVC024/// M08/M09 Q1027=
201012281120 METAR ESMX 281120Z AUTO 01002KT 9999NDV OVC024/// M08/M09 Q1027=
201012281050 METAR ESMX 281050Z AUTO 01002KT 9999NDV OVC024/// M08/M09 Q1027=
201012281020 METAR ESMX 281020Z AUTO 01002KT 9999NDV OVC025/// M08/M09 Q1027 RESG=
201012280950 METAR ESMX 280950Z AUTO VRB01KT 9999NDV OVC024/// M08/M09 Q1027=
201012280920 METAR ESMX 280920Z AUTO 01002KT 9999NDV OVC025/// M08/M09 Q1027=
201012280850 METAR ESMX 280850Z AUTO 01001KT 9999NDV OVC025/// M08/M09 Q1027=
201012280820 METAR ESMX 280820Z AUTO 02001KT 9999NDV OVC025/// M08/M10 Q1026=
201012280750 METAR ESMX 280750Z AUTO VRB01KT 9999NDV OVC025/// M09/M10 Q1026=
201012280720 METAR ESMX 280720Z AUTO VRB01KT 9999NDV OVC025/// M09/M10 Q1026=
201012280650 METAR ESMX 280650Z AUTO 01001KT 9999NDV OVC025/// M09/M10 Q1026=
201012280620 METAR ESMX 280620Z AUTO 01001KT 9999NDV OVC025/// M09/M10 Q1025=
201012280550 METAR ESMX 280550Z AUTO VRB01KT 9999NDV OVC025/// M09/M11 Q1025=
201012280520 METAR ESMX 280520Z AUTO 36001KT 9999NDV OVC025/// M10/M11 Q1025=
201012280450 METAR ESMX 280450Z AUTO 01001KT 9999NDV OVC026/// M10/M11 Q1025=
201012280420 METAR ESMX 280420Z AUTO VRB01KT 9999NDV OVC025/// M10/M11 Q1025=
201012280350 METAR ESMX 280350Z AUTO 36002KT 9999NDV OVC026/// M11/M12 Q1025=
201012280320 METAR ESMX 280320Z AUTO 36001KT 9999NDV OVC024/// M11/M12 Q1025=
201012280250 METAR ESMX 280250Z AUTO 02001KT 9999NDV OVC025/// M11/M12 Q1024=
201012280220 METAR ESMX 280220Z AUTO 02001KT 9999NDV OVC027/// M11/M13 Q1024=
201012280150 METAR ESMX 280150Z AUTO VRB01KT 9999NDV OVC028/// M12/M13 Q1024=
201012280120 METAR ESMX 280120Z AUTO 02002KT 9999NDV OVC027/// M13/M14 Q1024=
201012280050 METAR ESMX 280050Z 02001KT 9999 OVC028 M15/M16 Q1024=
201012280020 METAR ESMX 280020Z 02001KT 9999 OVC028 M15/M17 Q1024=
201012272350 METAR ESMX 272350Z 01001KT 9999 FEW023 BKN027 M15/M17 Q1023=
201012272320 METAR ESMX 272320Z 01001KT 9999 BKN025 M17/M19 Q1023=
201012272250 METAR ESMX 272250Z 01002KT 9999 SCT025 M17/M19 Q1023=
201012272220 METAR ESMX 272220Z 01001KT 9999 FEW022 M17/M19 Q1023=
201012272150 METAR ESMX 272150Z 01002KT 9999 FEW012 SCT023 M17/M19 Q1022=
201012272120 METAR ESMX 272120Z 01001KT 9999 FEW013 M17/M19 Q1022=
201012272050 METAR ESMX 272050Z 04001KT CAVOK M17/M19 Q1022=
201012272020 METAR ESMX 272020Z 01001KT 9999 2000S BR SKC M18/M20 Q1022=
201012271950 METAR ESMX 271950Z 02001KT CAVOK M17/M19 Q1022=
201012271920 METAR ESMX 271920Z 02001KT CAVOK M17/M19 Q1021=
201012271850 METAR ESMX 271850Z 03001KT CAVOK M16/M18 Q1021=
201012271820 METAR ESMX 271820Z 01001KT CAVOK M16/M18 Q1021=
201012271750 METAR ESMX 271750Z 02001KT CAVOK M16/M17 Q1021=
201012271720 METAR ESMX 271720Z 02001KT 9999 SCT010 M15/M17 Q1021=
201012271650 METAR ESMX 271650Z 00000KT 9999 BKN008 M14/M15 Q1020=
201012271620 METAR ESMX 271620Z 02001KT 9999 OVC005 M13/M14 Q1020=
201012271550 METAR ESMX 271550Z 01001KT 9999 FEW005 BKN008 M14/M15 Q1019=
201012271520 METAR ESMX 271520Z 01001KT 9999 BKN002 M15/M17 Q1019=
201012271450 METAR ESMX 271450Z 02002KT 9999 BKN003 M14/M16 Q1019=
201012271420 METAR ESMX 271420Z 00000KT 9000 BR BKN003 M14/M15 Q1019=
201012271350 METAR ESMX 271350Z 02001KT 9999 BR BKN003 M13/M14 Q1018=
201012271320 METAR ESMX 271320Z 36001KT 9999 SCT003 M13/M15 Q1018=
201012271250 METAR ESMX 271250Z 01001KT 5000 BR BKN004 M13/M14 Q1018=
201012271220 METAR ESMX 271220Z 00000KT 2000 -SN BR BKN003 M13/M14 Q1018=
201012271150 METAR ESMX 271150Z 00000KT 1000 R01/0375V0550 R19/P2000N BCFG BKN003 M12/M13 Q1017=
201012271120 METAR ESMX 271120Z 00000KT 5000 -SN BKN003 M13/M14 Q1017=
201012271050 METAR ESMX 271050Z 00000KT 4000 -SN BR BKN002 OVC003 M13/M14 Q1017=
201012271020 METAR ESMX 271020Z VRB01KT 4000 -SN OVC002 M13/M15 Q1017=
201012270950 METAR ESMX 270950Z VRB01KT 2000 -SN BR OVC002 M13/M14 Q1017=
201012270920 METAR ESMX 270920Z VRB01KT 0900 R01/0900V1600U R19/1000VP2000N -SN=
201012270850 METAR ESMX 270850Z VRB01KT 0750 R01/P2000N R19/0900 -SN FZFG VV002 M13/M14 Q1017=
201012270820 METAR ESMX 270820Z VRB01KT 0400 R01/0900V1300N R19/0800 -SN FZFG VV002 M12/M14 Q1016=
201012270750 METAR ESMX 270750Z 00000KT 0500 R01/0800V1500 R19/1000V1600N -SN=
201012270720 METAR ESMX 270720Z 00000KT 0250 R01/0800 R19/0700 FZFG VV002 M12/M14 Q1016=
201012270650 METAR ESMX 270650Z AUTO 00000KT 0300NDV R01/1000VP2000D R19/0900V1600D FZFG VV001 M12/M13 Q1015=
201012270620 METAR ESMX 270620Z AUTO VRB01KT 1000NDV R01/P2000N R19/P2000N VV001 M12/M13 Q1015=
201012270550 METAR ESMX 270550Z AUTO 01001KT 0900NDV R01/P2000N R19/P2000N VV002 M12/M13 Q1015=
201012270520 METAR ESMX 270520Z AUTO 00000KT 0450NDV R01/P2000N R19/1500N FZFG VV000 M12/M13 Q1015=
201012270450 METAR ESMX 270450Z AUTO VRB01KT 0150NDV R01/1000 R19/0500V0900=
201012270420 METAR ESMX 270420Z AUTO 27001KT 0200NDV R01/0700 R19/0900N FZFG VV002 M12/M13 Q1015=
201012270350 METAR ESMX 270350Z AUTO 19001KT 0200NDV R01/P2000D R19/0800 FZFG VV001 M12/M13 Q1015=
201012270320 METAR ESMX 270320Z AUTO 20001KT 9999NDV BR OVC001/// M13/M14 Q1015=
201012270250 METAR ESMX 270250Z AUTO 21003KT 9999NDV IC OVC001/// M14/M16 Q1014=
201012270220 METAR ESMX 270220Z AUTO 00000KT 9999NDV FEW003/// OVC004/// M15/M17 Q1014=
201012270150 METAR ESMX 270150Z AUTO 19001KT 9999NDV FEW004/// BKN049/// M13/M15 Q1014=
201012270120 METAR ESMX 270120Z AUTO 17002KT 9999NDV OVC049/// M12/M13 Q1014=
201012270050 METAR ESMX 270050Z 21002KT CAVOK M13/M14 Q1014=
201012270020 METAR ESMX 270020Z 21002KT 9999 FEW025 M13/M14 Q1014=
201012262350 METAR ESMX 262350Z 17001KT 9999 FEW026 SCT029 BKN052 M13/M15 Q1014=
201012262320 METAR ESMX 262320Z VRB01KT 9999 FEW026 SCT033 M12/M13 Q1014=
201012262250 METAR ESMX 262250Z 26002KT 9999 FEW032 SCT044 M11/M12 Q1014=
201012262220 METAR ESMX 262220Z 24004KT 9999 FEW040 OVC046 M10/M12 Q1014=
201012262050 METAR ESMX 262050Z 23005KT 190V250 9999 -SN FEW009 OVC044 M10/M11 Q1014=
201012262020 METAR ESMX 262020Z 25005KT 220V280 4400 -SN FEW009 BKN045 M10/M11 Q1014=
201012261950 METAR ESMX 261950Z 20005KT 5000 -SN FEW005 SCT011 BKN043 M10/M11 Q1014=
201012261920 METAR ESMX 261920Z 25003KT 2700 -SN FEW006 SCT037 M11/M12 Q1014=
201012261850 METAR ESMX 261850Z 25003KT 210V280 2400 -SN SCT016 OVC023 M10/M11 Q1013=
201012261820 METAR ESMX 261820Z 26003KT 4000 -SN FEW016 OVC024 M09/M10 Q1014=
201012261750 METAR ESMX 261750Z 25004KT 9999 -SN FEW010 SCT016 BKN034 M10/M11 Q1013=
201012261720 METAR ESMX 261720Z VRB02KT 9999 -SN FEW013 SCT015 BKN022 M10/M11 Q1014=
201012261650 METAR ESMX 261650Z 27003KT 240V300 9999 -SN FEW006 SCT015 BKN029 M10/M11 Q1013=
201012261620 METAR ESMX 261620Z 27003KT 9999 -SN FEW016 SCT028 OVC034 M09/M11 Q1013=
201012261550 METAR ESMX 261550Z 27004KT 9999 -SN FEW009 SCT016 OVC031 M09/M11 Q1013=
201012261520 METAR ESMX 261520Z 28004KT 9999 -SN OVC009 M09/M11 Q1013=
201012261450 METAR ESMX 261450Z 27003KT 9999 -SN OVC008 M09/M11 Q1013=
201012261350 METAR ESMX 261350Z 27006KT 9999 BKN007 M09/M10 Q1013=
201012261320 METAR ESMX 261320Z 27009KT 9999 BKN007 M09/M10 Q1013=
201012261250 METAR ESMX 261250Z 28009KT 9999 -SN BKN007 M08/M10 Q1013=
201012261220 METAR ESMX 261220Z 28008KT 250V310 9999 OVC007 M09/M10 Q1013=
201012261150 METAR ESMX 261150Z 28009KT 9999 OVC006 M09/M10 Q1013=
201012261120 METAR ESMX 261120Z 28008KT 240V310 9999 OVC006 M09/M10 Q1013=
201012261050 METAR ESMX 261050Z 27009KT 240V300 9999 -SN BKN007 OVC009 M09/M10 Q1013=
201012261020 METAR ESMX 261020Z 28008KT 9999 -SN BKN007 BKN010 M08/M10 Q1013=
201012260950 METAR ESMX 260950Z 29009KT 260V330 9999 OVC006 M08/M10 Q1013=
201012260920 METAR ESMX 260920Z AUTO 28008KT 250V320 9999NDV -SN OVC006/// M08/M10 Q1013=
201012260850 METAR ESMX 260850Z AUTO 28009KT 9999NDV SG OVC006/// M09/M10 Q1013=
201012260820 METAR ESMX 260820Z AUTO 28008KT 240V300 9999NDV -SN BKN007/// OVC009/// M09/M10 Q1013=
201012260750 METAR ESMX 260750Z AUTO 27008KT 9999NDV SG BKN008/// M09/M10 Q1013=
201012260720 METAR ESMX 260720Z AUTO 29008KT 250V320 9999NDV SG OVC008/// M09/M10 Q1013=
201012260650 METAR ESMX 260650Z AUTO 29008KT 260V320 9999NDV OVC008/// M09/M10 Q1013=
201012260620 METAR ESMX 260620Z AUTO 30008KT 270V330 9999NDV OVC007/// M09/M10 Q1013=
201012260550 METAR ESMX 260550Z AUTO 30009KT 270V340 9999NDV OVC007/// M09/M10 Q1013 RESG=
201012260520 METAR ESMX 260520Z AUTO 30009KT 270V330 9999NDV -SN OVC008/// M09/M10 Q1013=
201012260450 METAR ESMX 260450Z AUTO 29009KT 9999NDV -SN OVC008/// M08/M10 Q1013=
201012260420 METAR ESMX 260420Z AUTO 30009KT 270V340 9999NDV FEW009/// OVC011/// M08/M10 Q1013=
201012260350 METAR ESMX 260350Z AUTO 30009KT 9999NDV -SN OVC011/// M08/M10 Q1013=
201012260320 METAR ESMX 260320Z AUTO 31011KT 270V350 9999NDV IC OVC012/// M08/M10 Q1013=
201012260250 METAR ESMX 260250Z AUTO 31009KT 9999NDV -SN OVC013/// M08/M10 Q1013=
201012260220 METAR ESMX 260220Z AUTO 31010KT 9999NDV -SN OVC013/// M08/M10 Q1014=
201012260150 METAR ESMX 260150Z AUTO 31010KT 9999NDV -SN OVC013/// M08/M10 Q1014=
201012260120 METAR ESMX 260120Z AUTO 32010KT 290V350 9999NDV -SN OVC013/// M08/M10 Q1014=
201012260050 METAR ESMX 260050Z AUTO 31010KT 9999NDV -SN OVC012/// M08/M10 Q1014=
201012260020 METAR ESMX 260020Z AUTO 31010KT 9999NDV -SN OVC012/// M08/M10 Q1013=
201012252350 METAR ESMX 252350Z AUTO 31010KT 9999NDV -SN OVC015/// M08/M10 Q1014=
201012252320 METAR ESMX 252320Z AUTO 31009KT 9999NDV -SN OVC016/// M08/M10 Q1014=
201012252250 METAR ESMX 252250Z AUTO 31009KT 270V340 9999NDV -SN OVC015/// M08/M10 Q1014=
201012252220 METAR ESMX 252220Z AUTO 32008KT 9999NDV -SN BKN015/// M09/M11 Q1014=
201012252150 METAR ESMX 252150Z AUTO 32008KT 9999NDV -SN SCT015/// M09/M11 Q1014=
201012252120 METAR ESMX 252120Z AUTO 32008KT 9999NDV NCD M09/M11 Q1014=
201012252050 METAR ESMX 252050Z AUTO 32008KT 9999NDV NCD M09/M11 Q1014=
201012252020 METAR ESMX 252020Z AUTO 32008KT 9999NDV BKN086/// M09/M11 Q1014=
201012251950 METAR ESMX 251950Z AUTO 33009KT 320V020 9999NDV OVC085/// M08/M10 Q1013=
201012251920 METAR ESMX 251920Z AUTO 34010KT 9999NDV OVC083/// M08/M11 Q1013=
201012251850 METAR ESMX 251850Z AUTO 34009KT 290V360 9999NDV BKN082/// M08/M10 Q1013=
201012251820 METAR ESMX 251820Z AUTO 32009KT 9999NDV BKN081/// M08/M10 Q1014=
201012251750 METAR ESMX 251750Z AUTO 33008KT 9999NDV FEW015/// BKN082/// M08/M11 Q1013=
201012251720 METAR ESMX 251720Z AUTO 33009KT 9999NDV FEW014/// OVC082/// M08/M11 Q1013=
201012251650 METAR ESMX 251650Z AUTO 33011KT 9999NDV FEW014/// OVC081/// M08/M11 Q1013=
201012251620 METAR ESMX 251620Z AUTO 33009KT 9999NDV SCT014/// OVC081/// M08/M11 Q1013=
201012251550 METAR ESMX 251550Z AUTO 34011KT 9999NDV FEW015/// OVC079/// M08/M11 Q1013=
201012251520 METAR ESMX 251520Z AUTO 34010KT 9999NDV OVC077/// M08/M11 Q1013=
201012251450 METAR ESMX 251450Z AUTO 33011KT 9999NDV FEW015/// OVC077/// M09/M11 Q1013=
201012251420 METAR ESMX 251420Z AUTO 34009KT 9999NDV OVC076/// M09/M11 Q1013=
201012251350 METAR ESMX 251350Z AUTO 34010KT 9999NDV FEW030/// OVC078/// M09/M11 Q1013=
201012251320 METAR ESMX 251320Z AUTO 34009KT 9999NDV FEW029/// BKN079/// M09/M12 Q1013=
201012251250 METAR ESMX 251250Z AUTO 34009KT 9999NDV FEW059/// BKN079/// M09/M12 Q1013=
201012251220 METAR ESMX 251220Z AUTO 34010KT 9999NDV SCT059/// M09/M12 Q1013=
201012251150 METAR ESMX 251150Z AUTO 33010KT 9999NDV FEW059/// M10/M12 Q1013=
201012251120 METAR ESMX 251120Z AUTO 34009KT 9999NDV FEW089/// M10/M12 Q1013=
201012251050 METAR ESMX 251050Z 33010KT CAVOK M10/M13 Q1014=
201012251020 METAR ESMX 251020Z 34009KT 9999 FEW022 M11/M13 Q1014=
201012250950 METAR ESMX 250950Z AUTO 34008KT 9999NDV NCD M11/M13 Q1014=
201012250920 METAR ESMX 250920Z AUTO 33008KT 9999NDV -SN FEW043/// SCT052/// M11/M14 Q1013=
201012250850 METAR ESMX 250850Z AUTO 34008KT 9999NDV -SN OVC050/// M11/M14 Q1013=
201012250820 METAR ESMX 250820Z AUTO 34009KT 9999NDV -SN FEW042/// SCT051/// M12/M14 Q1013=
201012250750 METAR ESMX 250750Z AUTO 34009KT 9999NDV -SN FEW011/// M12/M14 Q1013=
201012250720 METAR ESMX 250720Z AUTO 34008KT 9999NDV -SN NCD M12/M14 Q1013=
201012250650 METAR ESMX 250650Z AUTO 35009KT 9999NDV -SN NCD M12/M14 Q1013=
201012250620 METAR ESMX 250620Z AUTO 35009KT 2300NDV -SN NCD M12/M14 Q1013 RESG=
201012250550 METAR ESMX 250550Z AUTO 35009KT 9999NDV NCD M12/M14 Q1012=
201012250520 METAR ESMX 250520Z AUTO 35010KT 9999NDV NCD M12/M14 Q1012=
201012250450 METAR ESMX 250450Z AUTO 35009KT 9999NDV NCD M12/M14 Q1012=
201012250420 METAR ESMX 250420Z AUTO 36010KT 9999NDV NCD M12/M14 Q1012=
201012250350 METAR ESMX 250350Z AUTO 36010KT 9999NDV NCD M12/M15 Q1012=
201012250320 METAR ESMX 250320Z AUTO 36009KT 9999NDV SCT034/// M12/M15 Q1012=
201012250250 METAR ESMX 250250Z AUTO 35009KT 9999NDV BKN033/// M12/M14 Q1012=
201012250220 METAR ESMX 250220Z AUTO 36009KT 9999NDV NCD M13/M15 Q1012=
201012250150 METAR ESMX 250150Z AUTO 01010KT 9999NDV NCD M13/M15 Q1012=
201012250120 METAR ESMX 250120Z AUTO 36011KT 9999NDV NCD M12/M15 Q1012=
201012250050 METAR ESMX 250050Z AUTO 36012KT 9999NDV BKN012/// M12/M14 Q1012=
201012250020 METAR ESMX 250020Z AUTO 36014KT 9999NDV OVC011/// M12/M14 Q1012=
201012242350 METAR ESMX 242350Z AUTO 36013KT 9999NDV OVC011/// M11/M14 Q1012=
201012242320 METAR ESMX 242320Z AUTO 36014KT 9999NDV OVC012/// M11/M14 Q1012=
201012242250 METAR ESMX 242250Z AUTO 36013KT 9999NDV OVC011/// M11/M14 Q1012=
201012242220 METAR ESMX 242220Z AUTO 36013KT 9999NDV IC OVC011/// M11/M14 Q1012 RESG=
201012242150 METAR ESMX 242150Z AUTO 36013KT 9999NDV IC OVC012/// M12/M14 Q1012 RESG=
201012242120 METAR ESMX 242120Z AUTO 36012KT 9999NDV IC OVC011/// M12/M14 Q1012 RESG=
201012242050 METAR ESMX 242050Z AUTO 35013KT 9999NDV -SN OVC011/// M12/M14 Q1012=
201012242020 METAR ESMX 242020Z AUTO 36012KT 9999NDV OVC012/// M12/M14 Q1012=
201012241950 METAR ESMX 241950Z AUTO 36013KT 9999NDV OVC012/// M12/M14 Q1012=
201012241920 METAR ESMX 241920Z AUTO 35013KT 9999NDV OVC012/// M12/M14 Q1012=
201012241850 METAR ESMX 241850Z AUTO 36014KT 9999NDV OVC013/// M12/M14 Q1012 RESG=
201012241820 METAR ESMX 241820Z AUTO 36014KT 9999NDV IC OVC014/// M11/M14 Q1012=
201012241750 METAR ESMX 241750Z AUTO 36013KT 9999NDV -SN FEW008/// OVC014/// M12/M14 Q1012=
201012241720 METAR ESMX 241720Z AUTO 36013KT 8000NDV -SN FEW007/// OVC014/// M12/M14 Q1011=
201012241650 METAR ESMX 241650Z AUTO 36014KT 9999NDV -SN FEW007/// SCT010/// BKN014/// M12/M14 Q1011=
201012241620 METAR ESMX 241620Z AUTO 36013KT 9999NDV IC FEW006/// SCT010/// M12/M14 Q1011=
201012241550 METAR ESMX 241550Z AUTO 35013KT 9999NDV -SN FEW014/// M11/M13 Q1011 RESG=
201012241520 METAR ESMX 241520Z AUTO 36013KT 9999NDV IC NCD M11/M13 Q1011=
201012241450 METAR ESMX 241450Z AUTO 01014KT 9999NDV -SN FEW098/// M10/M13 Q1010=
201012241420 METAR ESMX 241420Z AUTO 36014KT 9999NDV SG FEW100/// M10/M12 Q1010=
201012241350 METAR ESMX 241350Z AUTO 02016KT 9999NDV SG FEW013/// BKN100/// M09/M12 Q1010=
201012241320 METAR ESMX 241320Z AUTO 02015KT 8000NDV -SN SCT013/// BKN100/// M09/M12 Q1011=
201012241250 METAR ESMX 241250Z AUTO 01017KT 6000NDV -SN SCT013/// BKN051/// M09/M12 Q1011=
201012241220 METAR ESMX 241220Z 36014KT 9999 BKN014 M09/M12 Q1011=
201012241150 METAR ESMX 241150Z 01014KT 9999 -SN BKN014 BKN076 M09/M11 Q1011=
201012241120 METAR ESMX 241120Z 01015KT 9999 BKN014 M09/M11 Q1011=
201012241050 METAR ESMX 241050Z 02015KT 9999 BKN013 M09/M11 Q1011=
201012241020 METAR ESMX 241020Z AUTO 01014KT 4200NDV IC OVC011/// M09/M11 Q1011=
201012240950 METAR ESMX 240950Z AUTO 01015KT 2400NDV -SN OVC011/// M09/M11 Q1011=
201012240920 METAR ESMX 240920Z AUTO 01015KT 2800NDV IC OVC009/// M09/M11 Q1011=
201012240850 METAR ESMX 240850Z AUTO 01015KT 2500NDV IC OVC008/// M09/M11 Q1011=
201012240820 METAR ESMX 240820Z AUTO 36014KT 3700NDV IC OVC008/// M09/M10 Q1011 RESG=
201012240750 METAR ESMX 240750Z AUTO 02014KT 2600NDV IC OVC008/// M09/M10 Q1011=
201012240720 METAR ESMX 240720Z AUTO 01014KT 3700NDV IC OVC008/// M09/M10 Q1011=
201012240650 METAR ESMX 240650Z AUTO 02014KT 4300NDV IC OVC008/// M09/M10 Q1011=
201012240620 METAR ESMX 240620Z AUTO 01015KT 1900NDV IC OVC008/// M09/M10 Q1011=
201012240550 METAR ESMX 240550Z AUTO 36014KT 2600NDV IC OVC008/// M09/M10 Q1011=
201012240520 METAR ESMX 240520Z AUTO 01014KT 5000NDV IC OVC008/// M08/M10 Q1011=
201012240450 METAR ESMX 240450Z AUTO 01013KT 5000NDV IC OVC009/// M08/M10 Q1011=
201012240420 METAR ESMX 240420Z AUTO 01012KT 4900NDV IC OVC010/// M08/M10 Q1011=
201012240350 METAR ESMX 240350Z AUTO 02013KT 8000NDV OVC010/// M08/M10 Q1011=
201012240320 METAR ESMX 240320Z AUTO 01013KT 9999NDV OVC011/// M07/M09 Q1011=
201012240250 METAR ESMX 240250Z AUTO 02014KT 9999NDV OVC011/// M07/M09 Q1011=
201012240220 METAR ESMX 240220Z AUTO 03014G35KT 350V060 9000NDV OVC011/// M07/M09 Q1011=
201012240150 METAR ESMX 240150Z AUTO 03016KT 350V050 9000NDV IC OVC011/// M07/M09 Q1012=
201012240120 METAR ESMX 240120Z AUTO 02015KT 9999NDV IC FEW012/// SCT080/// BKN110/// M06/M08 Q1012=
201012240050 METAR ESMX 240050Z AUTO 01015KT 9000NDV IC FEW013/// BKN081/// BKN110/// M06/M08 Q1012 RESG=
201012240020 METAR ESMX 240020Z AUTO 02015KT 9000NDV SG SCT013/// BKN017/// OVC082/// M06/M07 Q1012=
201012232350 METAR ESMX 232350Z AUTO 03014KT 7000NDV -SN FEW013/// BKN016/// OVC033/// M05/M07 Q1012=
201012232320 METAR ESMX 232320Z AUTO 02014KT 5000NDV -SN FEW014/// OVC016/// M05/M06 Q1012=
201012232250 METAR ESMX 232250Z AUTO 03012G22KT 360V060 6000NDV -SN FEW014/// BKN016/// OVC020/// M05/M06 Q1012=
201012232220 METAR ESMX 232220Z AUTO 03012KT 1600NDV -SN BKN012/// OVC019/// M05/M07 Q1013=
201012232150 METAR ESMX 232150Z AUTO 01012KT 4200NDV -SN OVC011/// M05/M07 Q1013=
201012232120 METAR ESMX 232120Z AUTO 01012KT 5000NDV -SN OVC011/// M05/M06 Q1012=
201012232050 METAR ESMX 232050Z AUTO 02012KT 7000NDV -SN OVC011/// M05/M06 Q1012=
201012232020 METAR ESMX 232020Z AUTO 01012KT 4100NDV -SN FEW011/// OVC014/// M05/M07 Q1013=
201012231950 METAR ESMX 231950Z AUTO 02012KT 360V060 3900NDV -SN OVC011/// M05/M06 Q1013=
201012231920 METAR ESMX 231920Z 01010KT 7000 -SN BKN010 M05/M06 Q1013=
201012231850 METAR ESMX 231850Z 02010KT 7000 -SN SCT011 BKN060 M05/M06 Q1013=
201012231820 METAR ESMX 231820Z 02010KT 6000 -SN SCT012 BKN020 M05/M06 Q1013=
201012231750 METAR ESMX 231750Z 02009KT 6000 -SN FEW011 BKN017 M06/M07 Q1013 RESG=
201012231720 METAR ESMX 231720Z 03010KT 8000 SG FEW012 SCT021 BKN060 M06/M07 Q1013=
201012231650 METAR ESMX 231650Z 03010KT 4400 -SN SCT008 BKN060 M05/M06 Q1013=
201012231620 METAR ESMX 231620Z 03009KT 4300 -SN SCT010 BKN060 M05/M06 Q1013=
201012231550 METAR ESMX 231550Z 02010KT 2800 -SN SCT010 M05/M06 Q1013 RESG=
201012231520 METAR ESMX 231520Z 04010KT 5000 SG SCT011 M06/M06 Q1013=
201012231450 METAR ESMX 231450Z 03010KT 6000 -SN SCT010 M06/M06 Q1013=
201012231420 METAR ESMX 231420Z 03010KT 5000 -SN FEW011 M06/M07 Q1013=
201012231350 METAR ESMX 231350Z 02009KT 5000 -SN FEW006 M06/M07 Q1013=
201012231320 METAR ESMX 231320Z 03009KT 4000 -SN FEW006 SCT040 M06/M07 Q1013=
201012231250 METAR ESMX 231250Z 02009KT 2700 -SN FEW006 SCT040 M06/M07 Q1013=
201012231220 METAR ESMX 231220Z 02008KT 3500 -SN FEW006 SCT007 M06/M07 Q1014=
201012231150 METAR ESMX 231150Z 02008KT 2500 -SN FEW005 SCT027 M06/M07 Q1014=
201012231120 METAR ESMX 231120Z 02008KT 2000 -SN BKN005 M07/M08 Q1014=
201012231020 METAR ESMX 231020Z 03008KT 3100 -SN FEW006 SCT009 M07/M08 Q1015=
201012230950 METAR ESMX 230950Z 03008KT 360V070 4000 -SN SCT007 M08/M09 Q1015=
201012230920 METAR ESMX 230920Z 04007KT 010V070 2700 -SN FEW005 BKN007 M08/M09 Q1015=
201012230850 METAR ESMX 230850Z 04007KT 4000 -SN OVC006 M08/M09 Q1015=
201012230820 METAR ESMX 230820Z 03006KT 3700 -SN OVC006 M08/M09 Q1015=
201012230750 METAR ESMX 230750Z 03006KT 5000 -SN OVC006 M08/M09 Q1015=
201012230720 METAR ESMX 230720Z 03005KT 360V060 9999 -SN BKN006 M08/M09 Q1015=
201012230650 METAR ESMX 230650Z 02004KT 9999 FEW015 M09/M10 Q1014=
201012230620 METAR ESMX 230620Z 03005KT 9999 SCT007 M09/M10 Q1015=
201012230550 METAR ESMX 230550Z 03005KT 360V060 9999 SCT006 M09/M10 Q1015=
201012230520 METAR ESMX 230520Z 03006KT 9999 OVC006 M09/M10 Q1015=
201012230450 METAR ESMX 230450Z 02005KT 9999 OVC006 M09/M10 Q1015=
201012230420 METAR ESMX 230420Z AUTO 02005KT 330V050 9999NDV OVC006/// M09/M10 Q1015=
201012230350 METAR ESMX 230350Z AUTO 03004KT 9999NDV OVC006/// M09/M10 Q1015=
201012230320 METAR ESMX 230320Z AUTO 04004KT 9999NDV OVC005/// M09/M11 Q1015=
201012230250 METAR ESMX 230250Z AUTO 04005KT 9999NDV OVC005/// M10/M11 Q1015=
201012230220 METAR ESMX 230220Z AUTO 05004KT 9999NDV OVC005/// M10/M11 Q1015=
201012230150 METAR ESMX 230150Z AUTO 05004KT 9999NDV OVC005/// M10/M11 Q1015=
201012230120 METAR ESMX 230120Z 04004KT 9999 OVC005 M10/M11 Q1015=
201012230050 METAR ESMX 230050Z 03004KT 9999 BKN004 M11/M12 Q1015=
201012230020 METAR ESMX 230020Z 04003KT 9999 BKN005 M11/M12 Q1015=
201012222350 METAR ESMX 222350Z 03003KT CAVOK M12/M13 Q1016=
201012222320 METAR ESMX 222320Z 03002KT CAVOK M12/M14 Q1016=
201012222220 METAR ESMX 222220Z 03001KT CAVOK M14/M15 Q1016=
201012222150 METAR ESMX 222150Z 05001KT CAVOK M13/M15 Q1016=
201012222120 METAR ESMX 222120Z 01001KT CAVOK M16/M17 Q1016=
201012222050 METAR ESMX 222050Z 03001KT 8000 BR NSC M16/M18 Q1016=
201012222020 METAR ESMX 222020Z 01001KT 9000 BR FEW110 M15/M17 Q1016=
201012221950 METAR ESMX 221950Z 02001KT 8000 BR SCT050 M15/M17 Q1015=
201012221920 METAR ESMX 221920Z 36003KT 0400 R19/0700N FZFG VV002 M15/M17 Q1015=
201012221850 METAR ESMX 221850Z 01002KT 0300 R19/0550N FZFG VV002 M16/M18 Q1015=
201012221750 METAR ESMX 221750Z 05001KT 1800 BR VV002 M14/M16 Q1015=
201012221720 METAR ESMX 221720Z 00000KT 9000 BR VV002 M15/M17 Q1015=
201012221650 METAR ESMX 221650Z VRB01KT 5000 BR OVC002 M15/M17 Q1015=
201012221620 METAR ESMX 221620Z 00000KT 9999 OVC002 M17/M19 Q1015=
201012221550 METAR ESMX 221550Z 00000KT 9999 3000N BR SCT002 BKN003 M19/M20 Q1015=
201012221520 METAR ESMX 221520Z 00000KT CAVOK M19/M21 Q1015=
201012221450 METAR ESMX 221450Z 00000KT CAVOK M19/M21 Q1015=
201012221420 METAR ESMX 221420Z VRB01KT CAVOK M18/M20 Q1015=
201012221350 METAR ESMX 221350Z 36003KT CAVOK M18/M20 Q1015=
201012221320 METAR ESMX 221320Z 02001KT CAVOK M17/M19 Q1015=
201012221250 METAR ESMX 221250Z 01002KT 9999 1500S BCFG NSC M16/M18 Q1015=
201012221220 METAR ESMX 221220Z 00000KT CAVOK M15/M18 Q1015=
201012221150 METAR ESMX 221150Z 00000KT 9999 FEW002 M16/M18 Q1015=
201012221120 METAR ESMX 221120Z 00000KT 9999 FEW002 M16/M18 Q1015=
201012221050 METAR ESMX 221050Z 00000KT 5000 FEW002 M18/M20 Q1015=
201012221020 METAR ESMX 221020Z 01001KT 9999 FEW002 M19/M21 Q1015=
201012220950 METAR ESMX 220950Z 00000KT 9999 BR FEW001 SCT080 M20/M22 Q1015=
201012220920 METAR ESMX 220920Z 36001KT 9000 BCFG FEW001 SCT068 M22/M24 Q1014=
201012220850 METAR ESMX 220850Z 00000KT 9000 BCFG SCT080 M22/M24 Q1014=
201012220820 METAR ESMX 220820Z 01001KT 8000 BR SCT002 M23/M26 Q1014=
201012220750 METAR ESMX 220750Z VRB01KT 6000 BR SCT002 M23/M25 Q1014=
201012220720 METAR ESMX 220720Z 36001KT 9999 VV002 M23/M26 Q1014=
201012220650 METAR ESMX 220650Z 01001KT 2800 BR BKN002 M23/M26 Q1013 RESG=
201012220620 METAR ESMX 220620Z 00000KT 2700 BR BKN002 M22/M24 Q1013=
201012220550 METAR ESMX 220550Z VRB01KT 8000 BR OVC001 M22/M24 Q1013=
201012220520 METAR ESMX 220520Z 00000KT 6000 BR BKN000 M22/M24 Q1013=
201012220450 METAR COR ESMX 220450Z 19001KT 6000 BR BKN000 M23/M25 Q1013=
201012220420 METAR ESMX 220420Z AUTO 00000KT 1000NDV R01/P2000N R19/P2000N VV000 M22/M25 Q1013=
201012220350 METAR ESMX 220350Z AUTO 00000KT 6000NDV VV001 M22/M24 Q1013=
201012220320 METAR ESMX 220320Z AUTO VRB01KT 0100NDV R01/0350V0500 R19/0800V1200 IC VV001 M21/M24 Q1012=
201012220250 METAR ESMX 220250Z AUTO 00000KT 1200NDV R01/P2000N R19/P2000N BCFG VV001 M22/M25 Q1012=
201012220220 METAR ESMX 220220Z AUTO 00000KT 9999NDV VV001 M22/M24 Q1012=
201012220150 METAR ESMX 220150Z VRB01KT 9000 BR BKN001 M22/M25 Q1012=
201012220120 METAR ESMX 220120Z VRB01KT 8000 BR SCT001 BKN021 M22/M24 Q1012=
201012220050 METAR ESMX 220050Z VRB01KT 5000 BR BKN001 OVC020 M22/M25 Q1012=
201012220020 METAR ESMX 220020Z 00000KT 9999 1500S R19/P2000N BCFG OVC000 M22/M25 Q1012=
201012212350 METAR ESMX 212350Z 00000KT 9999 0700S R19/P2000N BCFG OVC000 M23/M25 Q1012=
201012212320 METAR COR ESMX 212320Z 00000KT 9999 0800S R19/P2000 BCFG OVC000 M23/M25 Q1012=
201012212220 METAR ESMX 212220Z 16001KT 9999 SCT000 M22/M24 Q1011=
201012212150 METAR ESMX 212150Z 00000KT 9999 SCT000 M23/M25 Q1011=
201012212120 METAR ESMX 212120Z 00000KT 9999 SCT000 M22/M24 Q1011=
201012212020 METAR ESMX 212020Z 00000KT CAVOK M23/M25 Q1010=
201012211950 METAR ESMX 211950Z 00000KT CAVOK M22/M25 Q1010=
201012211920 METAR ESMX 211920Z 00000KT CAVOK M21/M23 Q1009=
201012211850 METAR ESMX 211850Z 00000KT CAVOK M21/M23 Q1009=
201012211820 METAR ESMX 211820Z 00000KT CAVOK M20/M23 Q1009=
201012211750 METAR ESMX 211750Z 00000KT CAVOK M20/M22 Q1009=
201012211720 METAR ESMX 211720Z 17002KT CAVOK M19/M22 Q1008 RESG=
201012211650 METAR ESMX 211650Z VRB01KT CAVOK M19/M21 Q1008=
201012211620 METAR ESMX 211620Z 18001KT CAVOK M19/M20 Q1008=
201012211550 METAR ESMX 211550Z 18001KT CAVOK M18/M20 Q1008=
201012211520 METAR ESMX 211520Z 17001KT CAVOK M17/M19 Q1007=
201012211450 METAR ESMX 211450Z VRB01KT CAVOK M16/M18 Q1007=
201012211420 METAR ESMX 211420Z VRB01KT CAVOK M15/M17 Q1007=
201012211350 METAR ESMX 211350Z 27001KT CAVOK M14/M15 Q1006=
201012211320 METAR ESMX 211320Z 28002KT CAVOK M13/M14 Q1006=
201012211250 METAR ESMX 211250Z 00000KT 9000 NSC M11/M13 Q1006=
201012211220 METAR ESMX 211220Z 18001KT 7000 NSC M13/M14 Q1006=
201012211150 METAR ESMX 211150Z 00000KT 6000 BR NSC M12/M14 Q1005=
201012211120 METAR ESMX 211120Z 01001KT 7000 FEW007 M13/M15 Q1005=
201012211050 METAR ESMX 211050Z 00000KT 9999 FEW007 M14/M15 Q1005=
201012211020 METAR ESMX 211020Z VRB01KT 8000 FEW007 M15/M17 Q1005=
201012210950 METAR ESMX 210950Z 00000KT 2100 BKN005 M16/M18 Q1005=
201012210920 METAR ESMX 210920Z VRB01KT 4000 -SN OVC003 M17/M19 Q1004=
201012210850 METAR ESMX 210850Z 01001KT 3000 -SN OVC002 M17/M19 Q1004=
201012210820 METAR ESMX 210820Z 35001KT 1500 -SN OVC002 M19/M21 Q1004=
201012210750 METAR ESMX 210750Z 36001KT 5000 SG OVC002 M21/M23 Q1004=
201012210720 METAR ESMX 210720Z 02001KT 9999 OVC002 M21/M23 Q1003=
201012210650 METAR ESMX 210650Z 36002KT 7000 BR BKN002 M21/M23 Q1003=
201012210620 METAR ESMX 210620Z 36002KT 5000 R01/P2000D R19/P2000N BCFG NSC M21/M23 Q1003=
201012210550 METAR ESMX 210550Z 00000KT 9999 SCT000 M20/M23 Q1002=
201012210520 METAR ESMX 210520Z VRB01KT 9999 SCT001 M20/M22 Q1003=
201012210450 METAR COR ESMX 210450Z 36001KT 9999 MIFG FEW000 M20/M22 Q1002=
201012210420 METAR ESMX 210420Z AUTO 02002KT 0150NDV R01/0450V0650 R19/0900=
201012210350 METAR ESMX 210350Z AUTO 20001KT 8000NDV VV000 M19/M21 Q1002=
201012210320 METAR ESMX 210320Z AUTO 00000KT 9999NDV VV000 M18/M20 Q1002=
201012210250 METAR ESMX 210250Z AUTO 00000KT 9999NDV VV000 M18/M20 Q1002=
201012210220 METAR ESMX 210220Z 17001KT 9999 SCT000 M17/M19 Q1002=
201012210150 METAR ESMX 210150Z 15001KT 9999 FEW000 M17/M19 Q1002=
201012210120 METAR ESMX 210120Z 00000KT CAVOK M18/M19 Q1002=
201012210050 METAR ESMX 210050Z 16001KT CAVOK M17/M18 Q1002=
201012210020 METAR ESMX 210020Z 17001KT CAVOK M16/M18 Q1002=
201012202350 METAR ESMX 202350Z 17001KT CAVOK M16/M18 Q1001=
201012202320 METAR ESMX 202320Z VRB01KT 9000 IC NSC M14/M16 Q1001=
201012202250 METAR ESMX 202250Z VRB01KT 9000 IC NSC M14/M15 Q1001=
201012202150 METAR ESMX 202150Z 27001KT 8000 -SN FEW005 SCT022 BKN033 M12/M13 Q1001=
201012202120 METAR ESMX 202120Z 33001KT 8000 -SN FEW004 SCT020 BKN035 M11/M12 Q1001=
201012202050 METAR ESMX 202050Z VRB02KT 8000 -SN FEW005 BKN027 M10/M11 Q1001=
201012202020 METAR ESMX 202020Z 32003KT 6000 -SN FEW008 BKN028 M09/M10 Q1000 RESN=
201012201950 METAR ESMX 201950Z 32003KT 4000 SN FEW006 BKN036 M09/M10 Q1000=
201012201920 METAR ESMX 201920Z 28002KT 8000 -SN FEW008 BKN030 M09/M10 Q0999=
201012201850 METAR ESMX 201850Z 30001KT 7000 -SN FEW023 BKN028 M09/M10 Q0999=
201012201820 METAR ESMX 201820Z 29002KT 2000 -SN SCT007 BKN030 M09/M10 Q0999=
201012201750 METAR ESMX 201750Z 27002KT 2700 -SN SCT007 BKN025 M09/M10 Q0998=
201012201720 METAR ESMX 201720Z 24003KT 5000 -SN FEW017 BKN024 BKN034 M09/M10 Q0998=
201012201650 METAR ESMX 201650Z 26001KT 3000 -SN SCT007 BKN025 M09/M10 Q0998=
201012201620 METAR ESMX 201620Z VRB01KT 2100 -SN SCT020 BKN031 M09/M10 Q0998=
201012201550 METAR ESMX 201550Z VRB01KT 2000 -SN SCT008 BKN020 M08/M09 Q0998=
201012201520 METAR ESMX 201520Z 26003KT 2800 -SN FEW004 BKN010 OVC016 M08/M09 Q0997=
201012201450 METAR ESMX 201450Z 24004KT 4400 -SN FEW017 OVC020 M08/M09 Q0997=
201012201420 METAR ESMX 201420Z VRB02KT 4900 -SN BKN020 M09/M10 Q0997=
201012201350 METAR ESMX 201350Z 33001KT 3300 -SN OVC017 M09/M10 Q0996=
201012201320 METAR ESMX 201320Z 36001KT 3900 -SN OVC015 M09/M10 Q0996=
201012201250 METAR ESMX 201250Z 00000KT 2100 -SN FEW007 BKN025 M09/M10 Q0996=
201012201220 METAR ESMX 201220Z 00000KT 3200 -SN FEW009 BKN030 M08/M09 Q0996=
201012201150 METAR ESMX 201150Z 01003KT 7000 -SN SCT009 BKN025 M08/M09 Q0996=
201012201120 METAR ESMX 201120Z 36003KT 3300 -SN FEW014 SCT017 BKN036 M08/M10 Q0996=
201012201050 METAR ESMX 201050Z 02003KT 6000 -SN FEW013 SCT028 BKN035 M09/M10 Q0996=
201012201020 METAR ESMX 201020Z 35002KT 9999 -SN FEW002 SCT005 BKN008 M09/M10 Q0996=
201012200950 METAR ESMX 200950Z 01003KT 9999 FEW004 BKN006 OVC008 M10/M11 Q0996=
201012200920 METAR ESMX 200920Z 36002KT 9999 -SN FEW006 SCT007 BKN009 M12/M13 Q0995=
201012200820 METAR ESMX 200820Z 35002KT 9999 -SN FEW008 SCT020 M12/M13 Q0995=
201012200750 METAR ESMX 200750Z 00000KT 6000 R01/P2000N R19/P2000 -SN FEW006 SCT014 M12/M13 Q0995=
201012200720 METAR ESMX 200720Z 36002KT 3000 -SN FEW006 M11/M13 Q0995=
201012200650 METAR ESMX 200650Z 01002KT 5000 -SN FEW005 M11/M12 Q0995=
201012200620 METAR ESMX 200620Z 01004KT 3400 -SN SCT005 BKN007 M10/M12 Q0995=
201012200550 METAR ESMX 200550Z 36003KT 3000 -SN FEW024 M11/M12 Q0995=
201012200520 METAR ESMX 200520Z 01002KT 9000 -SN FEW006 M10/M11 Q0995=
201012200450 METAR ESMX 200450Z 01002KT 9000 -SG FEW005 M10/M11 Q0995=
201012200420 METAR ESMX 200420Z AUTO 02002KT 2100NDV -SN NCD M10/M11 Q0995=
201012200350 METAR ESMX 200350Z AUTO VRB01KT 2500NDV SG NCD M10/M11 Q0995=
201012200320 METAR ESMX 200320Z AUTO 02001KT 3700NDV -SN NCD M10/M11 Q0995=
201012200250 METAR ESMX 200250Z AUTO VRB01KT 3200NDV -SN FEW006/// M10/M11 Q0995=
201012200220 METAR ESMX 200220Z AUTO 02002KT 3300NDV -SN FEW007/// M10/M11 Q0995=
201012200150 METAR ESMX 200150Z AUTO 01001KT 3700NDV -SN FEW041/// M10/M11 Q0995=
201012200120 METAR ESMX 200120Z 04001KT 5000 -SN FEW006 M10/M11 Q0995=
201012200050 METAR ESMX 200050Z 04001KT 4000 -SN FEW006 M10/M11 Q0995=
201012200020 METAR ESMX 200020Z 02002KT 2500 -SN FEW006 M09/M10 Q0995=
201012192350 METAR ESMX 192350Z 01001KT 4000 -SN FEW007 M10/M11 Q0996=
201012192320 METAR ESMX 192320Z 03001KT 3400 IC NSC M09/M10 Q0996=
201012192250 METAR ESMX 192250Z 01003KT 6000 SG NSC M09/M10 Q0996=
201012192220 METAR ESMX 192220Z 36002KT 3600 IC NSC M09/M10 Q0996 RESG=
201012192150 METAR ESMX 192150Z 01002KT 5000 -SN FEW006 M09/M10 Q0996=
201012192120 METAR ESMX 192120Z 01002KT 4000 -SN FEW005 BKN012 M09/M10 Q0996=
201012192050 METAR ESMX 192050Z 36002KT 3300 -SN FEW010 M09/M10 Q0996=
201012192020 METAR ESMX 192020Z 36001KT 3000 -SN FEW010 M09/M10 Q0996=
201012191950 METAR ESMX 191950Z 36002KT 2600 -SN FEW008 M09/M10 Q0996=
201012191920 METAR ESMX 191920Z 33002KT 2200 -SN FEW010 M09/M10 Q0996=
201012191850 METAR ESMX 191850Z 01003KT 2000 -SN FEW027 M09/M10 Q0996=
201012191820 METAR ESMX 191820Z 36004KT 4800 -SN SCT007 BKN010 M09/M10 Q0996=
201012191750 METAR ESMX 191750Z 36005KT 3100 -SN FEW006 BKN008 M09/M10 Q0996=
201012191720 METAR ESMX 191720Z 36005KT 5000 -SN SCT007 BKN015 M08/M10 Q0996=
201012191650 METAR ESMX 191650Z 34004KT 2600 -SN FEW005 SCT011 BKN015 M08/M10 Q0996=
201012191620 METAR ESMX 191620Z 33003KT 310V020 1100 R01/P2000N R19/P2000N -SN SCT005 OVC009 M08/M09 Q0996=
201012191550 METAR ESMX 191550Z 34004KT 1700 -SN OVC005 M08/M09 Q0996=
201012191520 METAR ESMX 191520Z 34005KT 3500 -SN SCT006 BKN040 M08/M09 Q0997=
201012191450 METAR ESMX 191450Z 34005KT 5000 -SN SCT007 BKN040 M08/M09 Q0997=
201012191420 METAR ESMX 191420Z 35006KT 8000 -SN SCT007 BKN040 M08/M09 Q0997=
201012191350 METAR ESMX 191350Z 36007KT 5000 -SN FEW007 BKN009 M08/M09 Q0997=
201012191320 METAR ESMX 191320Z 34006KT 6000 -SN SCT007 BKN060 M08/M09 Q0997=
201012191250 METAR ESMX 191250Z 35005KT 2600 -SN FEW005 BKN007 M08/M09 Q0997=
201012191220 METAR ESMX 191220Z 35006KT 3000 -SN FEW003 BKN008 M08/M09 Q0997=
201012191150 METAR ESMX 191150Z 35005KT 1900 -SN FEW005 BKN009 M08/M09 Q0997=
201012191120 METAR ESMX 191120Z 33005KT 3400 -SN FEW008 SCT030 BKN100 M08/M09 Q0997=
201012191050 METAR ESMX 191050Z 36006KT 9999 -SN SCT010 BKN100 M08/M09 Q0997=
201012191020 METAR ESMX 191020Z 36007KT 4000 -SN FEW008 SCT025 BKN100 M08/M10 Q0998=
201012190950 METAR ESMX 190950Z 01007KT 9999 -SN SCT008 BKN030 M08/M09 Q0998=
201012190920 METAR ESMX 190920Z AUTO 02007KT 4700NDV IC NCD M08/M09 Q0998 RESG=
201012190850 METAR ESMX 190850Z AUTO 01008KT 2100NDV SG FEW006/// M08/M09 Q0998=
201012190820 METAR ESMX 190820Z AUTO 01008KT 2600NDV -SN NCD M08/M09 Q0998=
201012190750 METAR ESMX 190750Z AUTO 01008KT 2000NDV -SN FEW006/// M08/M09 Q0998=
201012190720 METAR ESMX 190720Z AUTO 02008KT 2700NDV SG FEW005/// M08/M09 Q0998=
201012190650 METAR ESMX 190650Z AUTO 02009KT 1800NDV -SN FEW005/// M08/M09 Q0999=
201012190620 METAR ESMX 190620Z AUTO 01009KT 1700NDV -SN FEW005/// SCT007/// M07/M09 Q0999=
201012190550 METAR ESMX 190550Z AUTO 35009KT 2200NDV -SN FEW006/// SCT008/// M07/M08 Q0999=
201012190520 METAR ESMX 190520Z AUTO 36009KT 2100NDV -SN BKN005/// M07/M08 Q0999=
201012190450 METAR ESMX 190450Z AUTO 36008KT 1800NDV -SN BKN005/// M07/M08 Q0999=
201012190420 METAR ESMX 190420Z AUTO 36010KT 2000NDV -SN BKN005/// M07/M08 Q0999=
201012190350 METAR ESMX 190350Z AUTO 36009KT 1800NDV -SN BKN005/// OVC009/// M07/M08 Q1000=
201012190320 METAR ESMX 190320Z AUTO 34008KT 4100NDV -SN FEW006/// M06/M07 Q1000=
201012190250 METAR ESMX 190250Z AUTO 36009KT 1800NDV -SN OVC005/// M06/M07 Q1000=
201012190220 METAR ESMX 190220Z AUTO 01011KT 1800NDV -SN FEW006/// SCT012/// BKN021/// M06/M07 Q1001=
201012190150 METAR ESMX 190150Z AUTO 36011KT 2500NDV -SN BKN015/// M05/M07 Q1001=
201012190120 METAR ESMX 190120Z AUTO 01011KT 8000NDV -SN FEW014/// OVC017/// M05/M06 Q1001=
201012190050 METAR ESMX 190050Z AUTO 35010KT 9999NDV OVC015/// M05/M06 Q1001=
201012190020 METAR ESMX 190020Z AUTO 35009KT 8000NDV IC FEW015/// OVC018/// M05/M06 Q1002=
201012182350 METAR ESMX 182350Z AUTO 34008KT 3700NDV -SN FEW010/// M05/M06 Q1002=
201012182320 METAR ESMX 182320Z AUTO 34007KT 5000NDV -SN FEW006/// SCT015/// M05/M06 Q1002=
201012182250 METAR ESMX 182250Z AUTO 34006KT 3600NDV -SN FEW007/// M05/M05 Q1002=
201012182220 METAR ESMX 182220Z AUTO 01007KT 2400NDV -SN FEW005/// M05/M05 Q1003=
201012182150 METAR ESMX 182150Z AUTO 02006KT 3300NDV -SN FEW006/// SCT015/// M04/M05 Q1003=
201012182120 METAR ESMX 182120Z AUTO 02007KT 3000NDV -SN FEW009/// M04/M05 Q1003=
201012182050 METAR ESMX 182050Z AUTO 01007KT 2100NDV -SN NCD M04/M05 Q1004=
201012182020 METAR ESMX 182020Z AUTO 01007KT 1900NDV -SN FEW008/// M04/M05 Q1004=
201012181950 METAR ESMX 181950Z AUTO 02005KT 2500NDV -SN NCD M04/M05 Q1004=
201012181920 METAR ESMX 181920Z AUTO 02005KT 1800NDV -SN FEW006/// M04/M05 Q1004=
201012181850 METAR ESMX 181850Z AUTO 02005KT 2400NDV -SN NCD M04/M05 Q1004=
201012181820 METAR ESMX 181820Z AUTO 03004KT 2600NDV -SN FEW010/// BKN013/// M04/M06 Q1004 RESG=
201012181750 METAR ESMX 181750Z AUTO 05004KT 020V080 5000NDV SG FEW008/// SCT014/// BKN018/// M04/M06 Q1004=
201012181720 METAR ESMX 181720Z AUTO 05004KT 8000NDV -SN FEW017/// SCT020/// OVC024/// M04/M06 Q1005=
201012181650 METAR ESMX 181650Z AUTO 04006KT 8000NDV BR FEW013/// SCT017/// OVC024/// M04/M06 Q1005=
201012181620 METAR ESMX 181620Z AUTO 04007KT 6000NDV -SN FEW013/// BKN022/// OVC030/// M04/M06 Q1005=
201012181550 METAR ESMX 181550Z AUTO 04005KT 5000NDV -SN FEW017/// SCT025/// BKN041/// M04/M06 Q1005=
201012181520 METAR ESMX 181520Z AUTO 05005KT 360V090 4200NDV -SN FEW019/// BKN040/// M04/M06 Q1005=
201012181450 METAR ESMX 181450Z AUTO 04005KT 350V080 3200NDV -SN FEW038/// M04/M05 Q1005=
201012181420 METAR ESMX 181420Z AUTO 06006KT 020V080 2500NDV -SN FEW028/// SCT035/// M04/M05 Q1005=
201012181350 METAR ESMX 181350Z AUTO 06006KT 030V100 3000NDV -SN FEW013/// SCT023/// BKN027/// M04/M05 Q1005=
201012181320 METAR ESMX 181320Z AUTO 06005KT 020V100 3000NDV -SN FEW011/// BKN021/// BKN027/// M04/M05 Q1005=
201012181250 METAR ESMX 181250Z 07005KT 010V100 5000 -SN FEW009 BKN015 M04/M05 Q1005 RESN=
201012181220 METAR ESMX 181220Z 06005KT 030V110 4000 SN FEW010 BKN025 M04/M05 Q1005=
201012181150 METAR ESMX 181150Z 07005KT 030V110 5000 -SN FEW010 BKN017 M03/M05 Q1005=
201012181120 METAR ESMX 181120Z 07005KT 020V120 6000 -SN FEW009 BKN012 M03/M05 Q1005=
201012181020 METAR ESMX 181020Z 08005KT 030V140 3500 SN FEW007 BKN015 M03/M05 Q1005=
201012180920 METAR ESMX 180920Z 08007KT 030V120 4000 SN SCT009 BKN027 M03/M05 Q1004=
201012180850 METAR ESMX 180850Z 08006KT 040V200 4000 SN SCT010 BKN024 M04/M05 Q1004=
201012180820 METAR ESMX 180820Z 07006KT 010V150 5000 SN BR OVC011 M04/M05 Q1004=
201012180750 METAR ESMX 180750Z 08005KT 040V120 8000 -SN BR SCT013 BKN023 M04/M06 Q1004=
201012180720 METAR ESMX 180720Z AUTO 07005KT 020V120 9000NDV BR FEW014/// OVC025/// M04/M06 Q1004=
201012180650 METAR ESMX 180650Z AUTO 08006KT 020V160 9000NDV BR BKN014/// OVC027/// M04/M06 Q1003=
201012180620 METAR ESMX 180620Z AUTO 08006KT 030V140 8000NDV BR OVC012/// M04/M06 Q1003=
201012180550 METAR ESMX 180550Z AUTO 08005KT 010V120 9000NDV BKN012/// OVC016/// M04/M06 Q1003=
201012180520 METAR ESMX 180520Z AUTO 08006KT 050V150 9999NDV FEW016/// SCT018/// OVC021/// M04/M06 Q1003=
201012180450 METAR ESMX 180450Z AUTO 09005KT 020V140 9999NDV FEW016/// SCT018/// BKN023/// M04/M06 Q1003=
201012180420 METAR ESMX 180420Z AUTO 10006KT 060V150 9999NDV FEW019/// OVC025/// M04/M06 Q1003=
201012180350 METAR ESMX 180350Z AUTO 10006KT 060V150 9999NDV FEW016/// OVC020/// M04/M06 Q1002=
201012180320 METAR ESMX 180320Z AUTO 10006KT 050V160 9000NDV FEW017/// OVC020/// M05/M06 Q1002=
201012180250 METAR ESMX 180250Z AUTO 08005KT 030V150 9000NDV BKN023/// M05/M07 Q1002=
201012180220 METAR ESMX 180220Z AUTO 09005KT 040V180 9999NDV FEW024/// M05/M07 Q1002=
201012180150 METAR ESMX 180150Z AUTO 09007KT 030V140 9999NDV BR FEW017/// BKN019/// BKN024/// M04/M06 Q1001=
201012180120 METAR ESMX 180120Z AUTO 10007KT 020V160 9000NDV BR BKN015/// OVC020/// M04/M06 Q1001=
201012180050 METAR ESMX 180050Z AUTO 10007KT 050V170 9000NDV OVC016/// M04/M06 Q1001=
201012180020 METAR ESMX 180020Z AUTO 10007KT 060V150 9000NDV OVC016/// M04/M06 Q1001=
201012172350 METAR ESMX 172350Z AUTO 11007KT 060V160 9999NDV BKN015/// OVC020/// M04/M06 Q1001=
201012172320 METAR ESMX 172320Z AUTO 11008KT 040V170 9999NDV OVC016/// M04/M06 Q1000=
201012172250 METAR ESMX 172250Z AUTO 10005KT 050V170 9999NDV FEW018/// OVC020/// M04/M06 Q1000=
201012172220 METAR ESMX 172220Z AUTO 11007KT 070V160 9999NDV FEW014/// SCT017/// OVC020/// M04/M06 Q1000=
201012172150 METAR ESMX 172150Z AUTO 10006KT 060V160 9999NDV BR FEW015/// SCT017/// OVC020/// M04/M05 Q1000=
201012172120 METAR ESMX 172120Z AUTO 10006KT 030V150 9000NDV BR FEW015/// OVC018/// M04/M05 Q0999=
201012172050 METAR ESMX 172050Z 10006KT 050V150 9999 FEW015 BKN018 M04/M05 Q0999=
201012172020 METAR ESMX 172020Z 10005KT 060V150 9999 FEW015 OVC020 M03/M05 Q0999=
201012171950 METAR ESMX 171950Z 11005KT 050V170 9999 SCT013 BKN017 M03/M04 Q0998=
201012171920 METAR ESMX 171920Z 11007KT 070V170 9999 BR FEW012 OVC016 M03/M04 Q0998=
201012171850 METAR ESMX 171850Z 12005KT 060V170 9999 FEW012 BKN015 M03/M04 Q0998=
201012171820 METAR ESMX 171820Z 11006KT 050V170 8000 BR FEW007 BKN013 M03/M04 Q0997=
201012171750 METAR ESMX 171750Z 10005KT 020V160 6000 -SN BR OVC006 M03/M04 Q0997=
201012171720 METAR ESMX 171720Z 12006KT 070V170 7000 BR OVC006 M03/M04 Q0997=
201012171650 METAR ESMX 171650Z 11006KT 070V160 7000 BR OVC007 M03/M04 Q0996=
201012171620 METAR ESMX 171620Z 11006KT 050V160 8000 -SN FEW007 BKN008 M03/M04 Q0996=
201012171520 METAR ESMX 171520Z 10004KT 040V160 8000 -SN FEW010 SCT042 BKN100 M04/M04 Q0996=
201012171420 METAR ESMX 171420Z 11004KT 060V150 3000 -SN FEW008 M03/M04 Q0995=
201012171350 METAR ESMX 171350Z 09004KT 030V150 4000 -SN FEW008 BKN011 M03/M03 Q0995=
201012171320 METAR ESMX 171320Z 12005KT 050V160 4000 -SN FEW009 BKN011 M02/M03 Q0995=
201012171250 METAR ESMX 171250Z 11003KT 060V170 2800 -SN FEW007 BKN011 M02/M03 Q0994=
201012171220 METAR ESMX 171220Z VRB02KT 2700 -SN FEW006 BKN010 M02/M03 Q0994=
201012171150 METAR ESMX 171150Z VRB02KT 1900 -SN SCT007 BKN015 M03/M03 Q0994=
201012171120 METAR ESMX 171120Z VRB02KT 2500 -SN SCT007 BKN015 M03/M04 Q0994=
201012171050 METAR ESMX 171050Z VRB02KT 2500 -SN SCT007 BKN015 M03/M04 Q0994=
201012171020 METAR ESMX 171020Z 36002KT 1500 -SN SCT013 BKN020 M03/M04 Q0993=
201012170950 METAR ESMX 170950Z VRB01KT 2600 -SN SCT007 BKN020 M04/M04 Q0993=
201012170920 METAR ESMX 170920Z 32001KT 1800 -SN SCT007 BKN012 M04/M04 Q0993=
201012170850 METAR ESMX 170850Z 32001KT 2000 -SN FEW007 SCT012 BKN080 M04/M05 Q0993=
201012170820 METAR ESMX 170820Z 01001KT 8000 -SN SCT007 BKN030 M04/M05 Q0993=
201012170750 METAR ESMX 170750Z VRB01KT 9999 SCT007 BKN080 M04/M05 Q0992=
201012170720 METAR ESMX 170720Z 05002KT 9999 BKN007 M04/M04 Q0992=
201012170650 METAR ESMX 170650Z 02002KT 9000 FEW007 SCT061 BKN090 M04/M05 Q0992=
201012170620 METAR ESMX 170620Z 02002KT 9999 SCT004 OVC007 M03/M04 Q0991=
201012170550 METAR ESMX 170550Z 02003KT 9999 OVC004 M03/M04 Q0991=
201012170520 METAR ESMX 170520Z 02002KT 9999 OVC005 M03/M04 Q0991=
201012170450 METAR ESMX 170450Z 33002KT 9999 OVC005 M03/M04 Q0991=
201012170420 METAR ESMX 170420Z AUTO VRB01KT 9999NDV OVC005/// M03/M04 Q0991=
201012170350 METAR ESMX 170350Z AUTO VRB01KT 9999NDV OVC005/// M03/M04 Q0991=
201012170320 METAR ESMX 170320Z AUTO 00000KT 9999NDV OVC005/// M04/M04 Q0991=
201012170250 METAR ESMX 170250Z AUTO 00000KT 9999NDV OVC006/// M04/M04 Q0990=
201012170220 METAR ESMX 170220Z AUTO 00000KT 9999NDV OVC006/// M04/M04 Q0990=
201012170150 METAR ESMX 170150Z AUTO 00000KT 9999NDV -SN OVC007/// M03/M04 Q0990=
201012170120 METAR ESMX 170120Z 00000KT 9999 BKN008 M04/M04 Q0990=
201012170050 METAR ESMX 170050Z 00000KT 9999 BKN008 M04/M05 Q0990=
201012170020 METAR ESMX 170020Z 00000KT 6000 FEW009 M04/M05 Q0989=
201012162350 METAR ESMX 162350Z 00000KT 9999 SCT048 BKN061 M04/M04 Q0989=
201012162320 METAR ESMX 162320Z VRB01KT 9999 SCT046 BKN061 BKN072 M03/M04 Q0989 RESN=
201012162250 METAR ESMX 162250Z 00000KT 7000 -SN FEW010 M03/M03 Q0989=
201012162220 METAR ESMX 162220Z 22003KT 190V270 0650 R01/P2000N R19/1500VP2000D SN VV005 M02/M02 Q0989=
201012162150 METAR ESMX 162150Z 19004KT 1200 R01/P2000N R19/P2000N SN FEW014 M02/M02 Q0989=
201012162120 METAR ESMX 162120Z 16004KT 140V200 1500 SN FEW006 SCT014 M02/M02 Q0988=
201012162050 METAR ESMX 162050Z 16004KT 1800 SN BKN006 M02/M02 Q0988=
201012162020 METAR ESMX 162020Z 16004KT 2400 SN SCT005 M02/M02 Q0988=
201012161950 METAR ESMX 161950Z 17005KT 140V200 1300 R01/P2000N R19/P2000N -SN FEW007 M02/M02 Q0988=
201012161920 METAR ESMX 161920Z 17004KT 140V200 2100 SN FEW007 M02/M02 Q0988=
201012161850 METAR ESMX 161850Z 18005KT 1300 R01/P2000N R19/P2000N SN SCT006 BKN008 M02/M02 Q0988=
201012161820 METAR ESMX 161820Z 18006KT 1400 R01/P2000N R19/P2000N -SN FEW005 BKN007 M02/M02 Q0988=
201012161750 METAR ESMX 161750Z 17007KT 3400 -SN FEW006 BKN007 BKN009 M02/M03 Q0988=
201012161720 METAR ESMX 161720Z 17007KT 2900 -SN SCT006 OVC008 M02/M03 Q0988=
201012161650 METAR ESMX 161650Z 17009KT 4000 -SN SCT006 BKN008 M02/M03 Q0988=
201012161620 METAR ESMX 161620Z 17009KT 8000 SG FEW006 BKN008 OVC010 M02/M03 Q0988=
201012161550 METAR ESMX 161550Z 17010KT 3700 -SN FEW007 SCT009 BKN011 M02/M03 Q0989=
201012161520 METAR ESMX 161520Z 17011KT 150V210 3000 -SN FEW005 SCT008 BKN010 M02/M03 Q0989=
201012161450 METAR ESMX 161450Z 17011KT 1700 -SN FEW007 SCT009 BKN010 M02/M03 Q0989=
201012161420 METAR ESMX 161420Z 17012KT 140V200 3000 -SN SCT006 OVC010 M02/M03 Q0989=
201012161350 METAR ESMX 161350Z 17013KT 2800 -SN FEW008 BKN010 OVC013 M02/M03 Q0990=
201012161320 METAR ESMX 161320Z 17015KT 4000 -SN FEW006 BKN010 BKN021 M02/M03 Q0990=
201012161250 METAR ESMX 161250Z 18015KT 1200 R01/1000V1700U R19/1100V1800 -SN BKN005 OVC008 M02/M03 Q0990=
201012161220 METAR ESMX 161220Z 18015KT 0650 R01/0900VP2000D R19/0400VP2000D SN SCT005 BKN008 M02/M03 Q0990=
201012161150 METAR ESMX 161150Z 17014KT 2200 -SN SCT006 BKN010 M02/M03 Q0991=
201012161120 METAR ESMX 161120Z 17016KT 140V210 1000 R01/1100V1700D R19/0900V1500 SN SCT005 OVC007 M02/M03 Q0992=
201012161050 METAR ESMX 161050Z 17016KT 140V200 4000 -SN FEW009 OVC011 M03/M04 Q0992=
201012161020 METAR ESMX 161020Z 17016KT 2000 SN FEW006 SCT010 BKN012 M03/M04 Q0993=
201012160950 METAR ESMX 160950Z 18017KT 2000 -SN FEW005 SCT008 BKN010 M03/M04 Q0994=
201012160920 METAR ESMX 160920Z 17015KT 2000 -SN FEW006 OVC010 M04/M05 Q0995=
201012160850 METAR ESMX 160850Z 18014KT 2000 -SN FEW006 OVC010 M04/M05 Q0996=
201012160820 METAR ESMX 160820Z 17014KT 4500 -SN FEW009 BKN011 M04/M05 Q0996=
201012160750 METAR ESMX 160750Z 18015KT 4000 -SN FEW005 BKN013 BKN025 M04/M06 Q0997=
201012160720 METAR ESMX 160720Z 18014KT 2000 SN BKN005 BKN014 M05/M06 Q0998=
201012160650 METAR ESMX 160650Z 18016KT 6000 -SN SCT006 BKN026 BKN045 M05/M07 Q0999=
201012160620 METAR ESMX 160620Z 18013KT 6000 -SN FEW013 OVC018 M06/M08 Q1000=
201012160550 METAR ESMX 160550Z 19013KT 9999 FEW010 OVC019 M06/M09 Q1001=
201012160520 METAR ESMX 160520Z 19013KT 9999 OVC022 M07/M10 Q1002=
201012160450 METAR ESMX 160450Z 19012KT 9999 OVC024 M08/M11 Q1003=
201012160420 METAR ESMX 160420Z AUTO 20009KT 9999NDV FEW019/// OVC024/// M09/M11 Q1004=
201012160350 METAR ESMX 160350Z AUTO 20009KT 9999NDV OVC025/// M09/M11 Q1005=
201012160320 METAR ESMX 160320Z AUTO 19006KT 9999NDV FEW025/// SCT100/// M10/M12 Q1006=
201012160250 METAR ESMX 160250Z AUTO 21006KT 9999NDV NCD M11/M12 Q1007=
201012160220 METAR ESMX 160220Z AUTO 19008KT 9999NDV FEW002/// M11/M12 Q1007=
201012160150 METAR ESMX 160150Z AUTO 20007KT 9999NDV NCD M12/M13 Q1008=
201012160120 METAR ESMX 160120Z 20005KT CAVOK M14/M15 Q1010=
201012160050 METAR ESMX 160050Z 20005KT CAVOK M15/M16 Q1011=
201012160020 METAR ESMX 160020Z 19002KT CAVOK M18/M21 Q1011=
201012152350 METAR ESMX 152350Z VRB02KT CAVOK M18/M20 Q1012=
201012152320 METAR ESMX 152320Z 17001KT CAVOK M19/M21 Q1013=
201012152250 METAR ESMX 152250Z 17001KT CAVOK M18/M20 Q1014=
201012152220 METAR ESMX 152220Z 00000KT CAVOK M18/M20 Q1015=
201012152150 METAR ESMX 152150Z 19002KT CAVOK M17/M19 Q1015=
201012152120 METAR ESMX 152120Z VRB01KT CAVOK M18/M20 Q1016=
201012152050 METAR ESMX 152050Z 19002KT CAVOK M17/M19 Q1017=
201012152020 METAR ESMX 152020Z 20001KT CAVOK M17/M18 Q1017=
201012151950 METAR ESMX 151950Z VRB01KT CAVOK M15/M16 Q1018=
201012151920 METAR ESMX 151920Z VRB02KT CAVOK M16/M17 Q1019=
201012151850 METAR ESMX 151850Z VRB01KT 9999 SCT040 M15/M17 Q1019=
201012151820 METAR ESMX 151820Z 00000KT 9999 BKN038 M14/M15 Q1019=
201012151750 METAR ESMX 151750Z VRB01KT 9999 BKN039 M14/M15 Q1020=
201012151720 METAR ESMX 151720Z 01002KT 9999 SCT040 M13/M14 Q1020=
201012151650 METAR ESMX 151650Z 35001KT 9999 SCT041 M12/M13 Q1021=
201012151620 METAR ESMX 151620Z 34003KT 9999 BKN041 M11/M12 Q1021=
201012151550 METAR ESMX 151550Z 36003KT CAVOK M11/M12 Q1021=
201012151520 METAR ESMX 151520Z 33004KT 260V350 CAVOK M11/M12 Q1022=
201012151450 METAR ESMX 151450Z 36005KT CAVOK M10/M11 Q1022=
201012151420 METAR ESMX 151420Z 34005KT CAVOK M09/M11 Q1022=
201012151350 METAR ESMX 151350Z 35007KT CAVOK M09/M11 Q1023=
201012151320 METAR ESMX 151320Z 34005KT CAVOK M08/M10 Q1023=
201012151250 METAR ESMX 151250Z 01008KT CAVOK M08/M10 Q1023=
201012151220 METAR ESMX 151220Z 01009KT CAVOK M08/M10 Q1023=
201012151150 METAR ESMX 151150Z 36009KT CAVOK M08/M10 Q1023=
201012151120 METAR ESMX 151120Z 34008KT CAVOK M08/M10 Q1023=
201012151050 METAR ESMX 151050Z 01008KT CAVOK M07/M09 Q1024=
201012151020 METAR ESMX 151020Z 01009KT CAVOK M07/M09 Q1024=
201012150950 METAR ESMX 150950Z 01010KT CAVOK M07/M09 Q1024=
201012150920 METAR ESMX 150920Z 01009KT CAVOK M08/M10 Q1024=
201012150850 METAR ESMX 150850Z 36009KT CAVOK M08/M10 Q1024=
201012150820 METAR ESMX 150820Z 36010KT CAVOK M08/M10 Q1024=
201012150750 METAR ESMX 150750Z 01011KT CAVOK M08/M10 Q1024=
201012150720 METAR ESMX 150720Z 01010KT CAVOK M08/M10 Q1024=
201012150650 METAR ESMX 150650Z 35010KT CAVOK M08/M10 Q1024=
201012150550 METAR ESMX 150550Z 35012KT 9999 FEW012 M08/M10 Q1024=
201012150520 METAR ESMX 150520Z 35012KT 9999 FEW012 M08/M10 Q1024=
201012150450 METAR ESMX 150450Z 36012KT CAVOK M08/M10 Q1024=
201012150420 METAR ESMX 150420Z AUTO 01011KT 9999NDV NCD M08/M10 Q1024=
201012150350 METAR ESMX 150350Z AUTO 01010KT 9999NDV NCD M08/M10 Q1024=
201012150320 METAR ESMX 150320Z AUTO 01011KT 9999NDV NCD M08/M10 Q1024=
201012150250 METAR ESMX 150250Z AUTO 36010KT 9999NDV NCD M08/M10 Q1024=
201012150220 METAR ESMX 150220Z AUTO 36010KT 9999NDV NCD M07/M10 Q1024=
201012150150 METAR ESMX 150150Z AUTO 36011KT 9999NDV NCD M07/M09 Q1024=
201012150120 METAR ESMX 150120Z AUTO 36010KT 9999NDV NCD M07/M09 Q1024=
201012150050 METAR ESMX 150050Z 01011KT CAVOK M07/M09 Q1024=
201012150020 METAR ESMX 150020Z 35011KT 9999 FEW012 M08/M09 Q1024=
201012142350 METAR ESMX 142350Z 36011KT 9999 BKN011 M08/M10 Q1024=
201012142320 METAR ESMX 142320Z 36011KT 9999 BKN011 M08/M10 Q1024=
201012142250 METAR ESMX 142250Z 36012KT 9999 OVC010 M08/M10 Q1024=
201012142220 METAR ESMX 142220Z 36013KT 9999 OVC010 M08/M10 Q1024=
201012142150 METAR ESMX 142150Z 36011KT 9999 OVC010 M08/M10 Q1024=
201012142120 METAR ESMX 142120Z 36012KT 9999 OVC010 M08/M10 Q1024=
201012142050 METAR ESMX 142050Z 36013KT 9999 OVC011 M08/M10 Q1024=
201012142020 METAR ESMX 142020Z 36012KT 9999 OVC012 M08/M10 Q1024=
201012141950 METAR ESMX 141950Z 35010KT 9999 BKN011 M08/M10 Q1024=
201012141920 METAR ESMX 141920Z 34011KT 9999 FEW012 M08/M10 Q1024=
201012141850 METAR ESMX 141850Z 34011KT 9999 FEW012 M08/M10 Q1024=
201012141820 METAR ESMX 141820Z 35011KT 9999 FEW012 M08/M10 Q1024=
201012141750 METAR ESMX 141750Z 35012KT 9999 FEW012 M08/M09 Q1024=
201012141720 METAR ESMX 141720Z 35012KT 9999 FEW012 M07/M09 Q1024=
201012141650 METAR ESMX 141650Z 35011KT 9999 FEW013 M07/M09 Q1024=
201012141620 METAR ESMX 141620Z 34011KT 9999 FEW012 M07/M09 Q1024=
201012141550 METAR ESMX 141550Z 35011KT 9999 FEW013 M07/M09 Q1024=
201012141520 METAR ESMX 141520Z 35010KT CAVOK M07/M09 Q1024=
201012141450 METAR ESMX 141450Z 34010KT CAVOK M07/M09 Q1024=
201012141420 METAR ESMX 141420Z 35010KT CAVOK M07/M09 Q1024=
201012141320 METAR ESMX 141320Z 35012KT 9999 FEW015 M06/M08 Q1024=
201012141250 METAR ESMX 141250Z 34012KT 9999 FEW014 M06/M08 Q1024=
201012141220 METAR ESMX 141220Z 35012KT 9999 FEW014 M06/M08 Q1024=
201012141150 METAR ESMX 141150Z 36011KT 9999 SCT013 M06/M08 Q1024=
201012141120 METAR ESMX 141120Z 36012KT 9999 BKN013 M05/M08 Q1025=
201012141020 METAR ESMX 141020Z 01011KT 9999 BKN013 M06/M08 Q1025=
201012140950 METAR ESMX 140950Z 35013KT 9999 BKN013 M06/M08 Q1025=
201012140920 METAR ESMX 140920Z 36012KT 9999 BKN013 M06/M08 Q1025=
201012140850 METAR ESMX 140850Z 36011KT 9999 BKN014 M06/M08 Q1025=
201012140820 METAR ESMX 140820Z 36011KT 9999 FEW014 M07/M09 Q1025=
201012140750 METAR ESMX 140750Z 36011KT CAVOK M07/M08 Q1025=
201012140720 METAR ESMX 140720Z 35010KT CAVOK M07/M09 Q1024=
201012140650 METAR ESMX 140650Z 35010KT CAVOK M08/M09 Q1024=
201012140620 METAR ESMX 140620Z 35010KT CAVOK M08/M10 Q1024=
201012140550 METAR ESMX 140550Z 01010KT CAVOK M08/M10 Q1024=
201012140520 METAR ESMX 140520Z 01011KT CAVOK M08/M10 Q1024=
201012140450 METAR ESMX 140450Z 35012KT CAVOK M08/M10 Q1024=
201012140420 METAR ESMX 140420Z AUTO 35012KT 9999NDV NCD M08/M10 Q1024=
201012140350 METAR ESMX 140350Z AUTO 36012KT 9999NDV SCT110/// M08/M10 Q1024=
201012140320 METAR ESMX 140320Z AUTO 34010KT 9999NDV BKN110/// M08/M10 Q1024=
201012140250 METAR ESMX 140250Z AUTO 35010KT 9999NDV FEW009/// BKN110/// M08/M09 Q1025=
201012140220 METAR ESMX 140220Z AUTO 36011KT 9999NDV OVC007/// M07/M08 Q1024=
201012140150 METAR ESMX 140150Z AUTO 35013KT 9999NDV OVC007/// M07/M08 Q1024=
201012140120 METAR ESMX 140120Z AUTO 35013KT 9999NDV OVC007/// M06/M08 Q1024=
201012140050 METAR ESMX 140050Z 36010KT 9999 OVC008 M06/M07 Q1024=
201012140020 METAR ESMX 140020Z 35011KT 9999 OVC007 M06/M07 Q1024=
201012132350 METAR ESMX 132350Z 01011KT 9999 OVC008 M06/M07 Q1024=
201012132320 METAR ESMX 132320Z 01012KT 9999 OVC008 M05/M07 Q1024=
201012132250 METAR ESMX 132250Z 01012KT 9999 OVC009 M05/M07 Q1024=
201012132220 METAR ESMX 132220Z 01011KT 9999 OVC009 M05/M07 Q1024=
201012132150 METAR ESMX 132150Z 01011KT 9999 OVC008 M05/M06 Q1024=
201012132120 METAR ESMX 132120Z 03011KT 360V060 9999 OVC008 M05/M06 Q1024=
201012132050 METAR ESMX 132050Z 02010KT 9999 OVC009 M04/M06 Q1024=
201012132020 METAR ESMX 132020Z 01010KT 9999 OVC009 M04/M06 Q1024=
201012131950 METAR ESMX 131950Z 02011KT 5000 -SN OVC010 M05/M06 Q1023=
201012131920 METAR ESMX 131920Z 02010KT 8000 -SN OVC010 M05/M06 Q1023=
201012131850 METAR ESMX 131850Z 02010KT 9999 OVC010 M05/M06 Q1023=
201012131820 METAR ESMX 131820Z 01010KT 9999 OVC010 M04/M06 Q1022=
201012131750 METAR ESMX 131750Z 02011KT 9999 OVC010 M05/M06 Q1022=
201012131720 METAR ESMX 131720Z 02010KT 9999 OVC010 M04/M06 Q1022=
201012131650 METAR ESMX 131650Z 02011KT 350V060 9999 OVC010 M05/M06 Q1022 RESG=
201012131620 METAR ESMX 131620Z 01010KT 9999 OVC011 M05/M06 Q1022=
201012131550 METAR ESMX 131550Z 02010KT 9999 OVC012 M05/M06 Q1021=
201012131520 METAR ESMX 131520Z 01010KT 9999 OVC012 M05/M06 Q1021=
201012131450 METAR ESMX 131450Z 02011KT 9999 OVC011 M05/M07 Q1021=
201012131420 METAR ESMX 131420Z 02013KT 9999 OVC012 M05/M07 Q1020=
201012131350 METAR ESMX 131350Z 01012KT 9999 OVC013 M05/M07 Q1019=
201012131320 METAR ESMX 131320Z 02011KT 9999 BKN013 M05/M08 Q1019=
201012131250 METAR ESMX 131250Z 01012KT 7000 -SN FEW016 BKN026 BKN080 M06/M08 Q1019=
201012131220 METAR ESMX 131220Z 01014KT 1500 -SN FEW007 SCT040 M06/M08 Q1019=
201012131150 METAR ESMX 131150Z 36011KT CAVOK M06/M09 Q1019=
201012131120 METAR ESMX 131120Z 36010KT CAVOK M06/M09 Q1019=
201012131050 METAR ESMX 131050Z 36011KT CAVOK M07/M09 Q1019=
201012131020 METAR ESMX 131020Z 36009KT CAVOK M08/M09 Q1019=
201012130950 METAR ESMX 130950Z 36009KT CAVOK M08/M09 Q1019=
201012130920 METAR ESMX 130920Z 36007KT 9999 FEW008 SCT200 M08/M09 Q1019=
201012130850 METAR ESMX 130850Z 01007KT 9999 FEW008 SCT200 M09/M10 Q1019=
201012130820 METAR ESMX 130820Z 01007KT 9999 FEW008 SCT200 M10/M11 Q1019=
201012130750 METAR ESMX 130750Z 01008KT 9999 FEW008 SCT200 M10/M11 Q1019=
201012130720 METAR ESMX 130720Z 35006KT 9999 BKN008 M12/M13 Q1019=
201012130650 METAR ESMX 130650Z 36005KT CAVOK M13/M14 Q1019=
201012130620 METAR ESMX 130620Z 35005KT CAVOK M13/M14 Q1018=
201012130550 METAR ESMX 130550Z 33005KT CAVOK M12/M14 Q1018=
201012130520 METAR ESMX 130520Z 35007KT CAVOK M12/M14 Q1018=
201012130420 METAR ESMX 130420Z AUTO 36007KT 9999NDV NCD M12/M14 Q1018=
201012130350 METAR ESMX 130350Z AUTO 35007KT 9999NDV NCD M12/M13 Q1018=
201012130320 METAR ESMX 130320Z AUTO 34006KT 9999NDV NCD M12/M13 Q1018=
201012130250 METAR ESMX 130250Z AUTO 36006KT 9999NDV NCD M12/M13 Q1018=
201012130220 METAR ESMX 130220Z AUTO 34006KT 9999NDV NCD M12/M13 Q1018=
201012130150 METAR ESMX 130150Z AUTO 35007KT 9999NDV NCD M11/M12 Q1017=
201012130120 METAR ESMX 130120Z 34007KT CAVOK M12/M13 Q1017=
201012130050 METAR ESMX 130050Z 34005KT 9999 FEW008 M12/M13 Q1017=
201012122350 METAR ESMX 122350Z 33002KT 9999 OVC006 M12/M13 Q1017=
201012122320 METAR ESMX 122320Z 32003KT 290V020 9999 BKN005 M13/M14 Q1017=
201012122250 METAR ESMX 122250Z 35002KT 9999 SCT004 M14/M15 Q1018=
201012122220 METAR ESMX 122220Z 33003KT CAVOK M14/M15 Q1017=
201012122150 METAR ESMX 122150Z 34003KT 310V020 CAVOK M14/M15 Q1017=
201012122120 METAR ESMX 122120Z 32004KT CAVOK M14/M16 Q1017=
201012122050 METAR ESMX 122050Z 31004KT CAVOK M15/M16 Q1017=
201012122020 METAR ESMX 122020Z 32002KT CAVOK M14/M16 Q1017=
201012121950 METAR ESMX 121950Z 32003KT CAVOK M14/M15 Q1017=
201012121920 METAR ESMX 121920Z VRB02KT CAVOK M13/M14 Q1017=
201012121850 METAR ESMX 121850Z 32004KT CAVOK M13/M14 Q1017=
201012121820 METAR ESMX 121820Z 34005KT 320V030 CAVOK M12/M14 Q1017=
201012121750 METAR ESMX 121750Z 34007KT CAVOK M12/M14 Q1017=
201012121720 METAR ESMX 121720Z 34008KT CAVOK M11/M12 Q1017=
201012121650 METAR ESMX 121650Z 34008KT CAVOK M11/M12 Q1017=
201012121620 METAR ESMX 121620Z 34008KT CAVOK M10/M12 Q1016=
201012121550 METAR ESMX 121550Z 34008KT CAVOK M10/M12 Q1016=
201012121520 METAR ESMX 121520Z 34010KT CAVOK M09/M11 Q1016=
201012121450 METAR ESMX 121450Z 34009KT CAVOK M09/M11 Q1016=
201012121420 METAR ESMX 121420Z 34009KT CAVOK M09/M11 Q1015=
201012121350 METAR ESMX 121350Z 34010KT CAVOK M08/M11 Q1015=
201012121320 METAR ESMX 121320Z 34010KT 9999 FEW012 M08/M11 Q1014=
201012121250 METAR ESMX 121250Z 36010KT 9999 FEW013 M08/M10 Q1014=
201012121220 METAR ESMX 121220Z 35011KT 9999 SCT013 M08/M10 Q1014=
201012121150 METAR ESMX 121150Z 35012KT 9999 FEW013 SCT020 M08/M10 Q1014=
201012121120 METAR ESMX 121120Z 35011KT 9999 SCT014 M08/M10 Q1014=
201012121050 METAR ESMX 121050Z 35011KT 9999 FEW013 SCT016 BKN018 M08/M10 Q1013=
201012121020 METAR ESMX 121020Z 36015KT 9999 SCT010 M08/M10 Q1013=
201012120950 METAR ESMX 120950Z 36011KT 9999 SCT010 M07/M10 Q1013=
201012120920 METAR ESMX 120920Z AUTO 02013KT 350V060 9999NDV FEW016/// OVC019/// M07/M09 Q1012=
201012120850 METAR ESMX 120850Z AUTO 36014KT 5000NDV -SN FEW013/// BKN019/// M07/M09 Q1012=
201012120820 METAR ESMX 120820Z AUTO 01013KT 6000NDV -SN FEW016/// OVC018/// M06/M09 Q1012=
201012120750 METAR ESMX 120750Z AUTO 01014KT 9999NDV -SN FEW016/// OVC018/// M06/M09 Q1011=
201012120720 METAR ESMX 120720Z AUTO 03014KT 9999NDV -SN OVC018/// M06/M09 Q1010=
201012120650 METAR ESMX 120650Z AUTO 02014KT 9999NDV -SN FEW017/// OVC020/// M06/M09 Q1010=
201012120620 METAR ESMX 120620Z AUTO 02015G25KT 9999NDV -SN FEW018/// OVC021/// M06/M09 Q1009 RESG=
201012120550 METAR ESMX 120550Z AUTO 01018KT 9999NDV IC OVC019/// M06/M09 Q1009 RESG=
201012120520 METAR ESMX 120520Z AUTO 01013KT 9999NDV IC FEW019/// OVC021/// M06/M09 Q1008=
201012120450 METAR ESMX 120450Z AUTO 03013KT 360V060 9999NDV FEW017/// OVC020/// M05/M08 Q1007=
201012120420 METAR ESMX 120420Z AUTO 02016KT 9999NDV OVC016/// M05/M08 Q1007=
201012120350 METAR ESMX 120350Z AUTO 01015KT 9999NDV OVC014/// M04/M07 Q1006=
201012120320 METAR ESMX 120320Z AUTO 02017KT 9999NDV OVC012/// M04/M06 Q1005=
201012120250 METAR ESMX 120250Z AUTO 02017KT 9999NDV OVC011/// M04/M06 Q1005=
201012120220 METAR ESMX 120220Z AUTO 02016KT 9999NDV OVC011/// M03/M05 Q1004=
201012120150 METAR ESMX 120150Z AUTO 01016KT 9999NDV OVC011/// M03/M05 Q1004=
201012120120 METAR ESMX 120120Z AUTO 02016KT 9999NDV SCT009/// OVC011/// M02/M04 Q1003=
201012120050 METAR ESMX 120050Z AUTO 01016KT 9999NDV FEW007/// OVC009/// M02/M04 Q1002=
201012120020 METAR ESMX 120020Z AUTO 02014KT 9999NDV OVC009/// M02/M04 Q1002=
201012112350 METAR ESMX 112350Z AUTO 02013KT 340V050 9999NDV BKN008/// OVC011/// M02/M04 Q1001=
201012112320 METAR ESMX 112320Z AUTO 02013KT 9999NDV BKN008/// OVC010/// M02/M04 Q1000=
201012112250 METAR ESMX 112250Z AUTO 01013KT 9999NDV OVC010/// M02/M03 Q1000=
201012112220 METAR ESMX 112220Z AUTO 02014KT 9999NDV FEW010/// OVC013/// M02/M03 Q0999=
201012112150 METAR ESMX 112150Z AUTO 01013KT 9999NDV -SN FEW009/// OVC011/// M02/M03 Q0999=
201012112120 METAR ESMX 112120Z AUTO 36010KT 2800NDV -SN SCT007/// BKN009/// OVC011/// M02/M02 Q0998=
201012112050 METAR ESMX 112050Z AUTO 02011KT 6000NDV -SN FEW007/// OVC009/// M01/M02 Q0997=
201012112020 METAR ESMX 112020Z AUTO 36012KT 7000NDV -SN FEW009/// OVC011/// M01/M02 Q0997=
201012111950 METAR ESMX 111950Z AUTO 02010KT 9999NDV OVC011/// M01/M02 Q0997=
201012111920 METAR ESMX 111920Z AUTO 02012KT 5000NDV SG FEW010/// SCT014/// M01/M02 Q0996=
201012111850 METAR ESMX 111850Z AUTO 01014KT 0900NDV R01/P2000N R19/P2000 -SN FEW005/// SCT007/// BKN010/// M01/M02 Q0995=
201012111820 METAR ESMX 111820Z AUTO 01010KT 2000NDV -SN FEW006/// SCT007/// BKN009/// M00/M01 Q0995=
201012111750 METAR ESMX 111750Z AUTO 36011KT 6000NDV -SN FEW008/// SCT011/// BKN014/// 00/M01 Q0994=
201012111720 METAR ESMX 111720Z AUTO 36010KT 9999NDV -DZ FEW007/// BKN010/// OVC016/// 00/M01 Q0994=
201012111650 METAR ESMX 111650Z AUTO 34009KT 9999NDV -RA FEW009/// OVC012/// 01/M01 Q0994 REDZ=
201012111620 METAR ESMX 111620Z AUTO 34010KT 9999NDV DZ FEW008/// OVC013/// 01/M00 Q0993=
201012111550 METAR ESMX 111550Z AUTO 35009KT 9999NDV FEW011/// BKN013/// OVC024/// 01/00 Q0992=
201012111520 METAR ESMX 111520Z AUTO 35008KT 9999NDV FEW008/// OVC011/// 01/00 Q0992=
201012111450 METAR ESMX 111450Z AUTO 34008KT 9999NDV FEW006/// SCT009/// OVC011/// 01/00 Q0992=
201012111420 METAR ESMX 111420Z AUTO 35008KT 9999NDV BKN005/// OVC009/// 01/00 Q0991=
201012111350 METAR ESMX 111350Z AUTO 34008KT 9999NDV DZ FEW004/// BKN006/// OVC008/// 01/00 Q0991=
201012111320 METAR ESMX 111320Z AUTO 33007KT 9000NDV -DZ FEW002/// OVC003/// 01/00 Q0990=
201012111250 METAR ESMX 111250Z 31005KT 280V340 4000 -RA BR OVC002 01/00 Q0990=
201012111220 METAR ESMX 111220Z 31005KT 1800 -DZ BR OVC002 01/00 Q0990=
201012111150 METAR ESMX 111150Z 30004KT 270V330 1500 -RA BR OVC002 01/00 Q0990=
201012111120 METAR ESMX 111120Z VRB02KT 1200 R01/1300N R19/1500N -RA BR OVC002 00/00 Q0990=
201012111050 METAR ESMX 111050Z VRB02KT 0800 R01/1700N R19/0900V1300U FG VV002 00/00 Q0989=
201012111020 METAR ESMX 111020Z VRB01KT 0600 R01/0900N R19/0900N FG VV002 00/00 Q0989=
201012110950 METAR ESMX 110950Z VRB01KT 1100 R01/1400D R19/1900D BR OVC002 00/00 Q0990=
201012110920 METAR ESMX 110920Z VRB01KT 3000 BR OVC002 00/00 Q0990=
201012110850 METAR ESMX 110850Z VRB01KT 1600 -RA BR OVC002 00/00 Q0990 RESG=
201012110820 METAR ESMX 110820Z 22002KT 1600 SG BR OVC002 00/M00 Q0990=
201012110750 METAR ESMX 110750Z 19002KT 2500 -SN OVC002 00/M00 Q0990=
201012110720 METAR ESMX 110720Z VRB02KT 6000 -SN OVC002 00/M00 Q0990=
201012110650 METAR ESMX 110650Z AUTO 16003KT 3000NDV -SN BKN002/// OVC004/// 00/M00 Q0991=
201012110620 METAR ESMX 110620Z AUTO 16004KT 1500NDV -SN BKN002/// OVC005/// 00/M00 Q0991=
201012110550 METAR ESMX 110550Z AUTO 16004KT 2400NDV -SN BKN002/// OVC005/// 00/M00 Q0992=
201012110520 METAR ESMX 110520Z AUTO 16004KT 1200NDV R01/P2000N R19/P2000N -SN BKN002/// OVC005/// 00/M00 Q0993=
201012110450 METAR ESMX 110450Z AUTO 16004KT 1300NDV R01/P2000N R19/P2000N -SN OVC002/// M00/M00 Q0993=
201012110420 METAR ESMX 110420Z AUTO 17005KT 1800NDV -SN OVC002/// M00/M01 Q0994=
201012110350 METAR ESMX 110350Z AUTO 17006KT 2200NDV -SN OVC001/// M00/M01 Q0995=
201012110320 METAR ESMX 110320Z AUTO 16006KT 140V210 2900NDV -SN OVC001/// M01/M01 Q0996=
201012110250 METAR ESMX 110250Z AUTO 16006KT 130V190 1900NDV FZUP OVC001/// M01/M02 Q0997=
201012110220 METAR ESMX 110220Z AUTO 17006KT 1300NDV R01/P2000N R19/P2000N BR OVC001/// M02/M02 Q0998=
201012110150 METAR ESMX 110150Z AUTO 16006KT 120V200 1300NDV R01/P2000N R19/P2000N BR OVC001/// M02/M03 Q0999=
201012110120 METAR ESMX 110120Z AUTO 16006KT 1200NDV R01/P2000N R19/P2000N OVC001/// M03/M03 Q1000=
201012110050 METAR ESMX 110050Z AUTO 16005KT 1500NDV OVC001/// M03/M04 Q1001=
201012110020 METAR ESMX 110020Z AUTO 15006KT 110V190 0900NDV R01/P2000N R19/P2000N FZFG OVC001/// M04/M04 Q1002=
201012102350 METAR ESMX 102350Z AUTO 15005KT 110V190 1200NDV R01/P2000N R19/P2000N BR OVC001/// M04/M04 Q1003=
201012102320 METAR ESMX 102320Z AUTO 14004KT 100V170 2200NDV BR OVC001/// M04/M05 Q1004=
201012102250 METAR ESMX 102250Z AUTO 17005KT 140V200 4400NDV BR OVC001/// M03/M04 Q1005=
201012102220 METAR ESMX 102220Z AUTO 19007KT 2300NDV BR OVC002/// M04/M04 Q1006=
201012102150 METAR ESMX 102150Z AUTO 17004KT 9999NDV BR OVC003/// M05/M05 Q1007=
201012102120 METAR ESMX 102120Z AUTO 18005KT 140V210 9999NDV BR OVC002/// M04/M05 Q1008=
201012102050 METAR ESMX 102050Z 18006KT 7000 BR OVC002 M04/M05 Q1008=
201012102020 METAR ESMX 102020Z 21006KT 8000 BR OVC002 M05/M05 Q1009=
201012101950 METAR ESMX 101950Z 20006KT 8000 BR OVC002 M05/M06 Q1010=
201012101920 METAR ESMX 101920Z 21007KT 9999 FEW002 OVC004 M06/M06 Q1011=
201012101850 METAR ESMX 101850Z 21007KT 9999 FEW003 OVC005 M06/M07 Q1011=
201012101820 METAR ESMX 101820Z 23006KT 9999 OVC003 M07/M07 Q1012=
201012101750 METAR ESMX 101750Z 19004KT 9999 FEW003 SCT048 BKN056 M08/M09 Q1012=
201012101720 METAR ESMX 101720Z 17003KT 9999 FEW006 M09/M10 Q1013=
201012101650 METAR ESMX 101650Z 17003KT 8000 BR BKN003 M08/M09 Q1014=
201012101620 METAR ESMX 101620Z 16003KT 120V200 0700 R01/1800U R19/P2000N FZFG VV002 M08/M08 Q1014=
201012101550 METAR ESMX 101550Z 20003KT 170V230 9999 BKN002 OVC005 M08/M09 Q1014=
201012101520 METAR ESMX 101520Z 22003KT 9999 BKN005 M09/M10 Q1015=
201012101450 METAR ESMX 101450Z 24005KT 9999 FEW006 M09/M10 Q1015=
201012101420 METAR ESMX 101420Z 24003KT CAVOK M09/M10 Q1015=
201012101350 METAR ESMX 101350Z VRB02KT CAVOK M08/M09 Q1016=
201012101320 METAR ESMX 101320Z 25003KT CAVOK M09/M10 Q1016=
201012101250 METAR ESMX 101250Z VRB02KT CAVOK M08/M09 Q1016=
201012101220 METAR ESMX 101220Z 29004KT CAVOK M07/M09 Q1016=
201012101150 METAR ESMX 101150Z 29004KT 250V320 CAVOK M07/M09 Q1017=
201012101120 METAR ESMX 101120Z 28005KT CAVOK M07/M09 Q1017=
201012101050 METAR ESMX 101050Z 29007KT CAVOK M07/M09 Q1017=
201012101020 METAR ESMX 101020Z 29006KT 9999 CAVOK M07/M09 Q1016=
201012100950 METAR ESMX 100950Z 29005KT 9999 CAVOK M07/M09 Q1016=
201012100920 METAR ESMX 100920Z 31006KT 260V350 9999 FEW008 M07/M09 Q1016=
201012100850 METAR ESMX 100850Z 31006KT CAVOK M07/M09 Q1016=
201012100820 METAR ESMX 100820Z 31005KT 9999 FEW009 M08/M09 Q1016=
201012100750 METAR ESMX 100750Z 31007KT 9999 FEW009 M07/M08 Q1016=
201012100720 METAR ESMX 100720Z 31007KT 9999 SCT009 M07/M08 Q1016=
201012100650 METAR ESMX 100650Z 31007KT 280V340 CAVOK M07/M08 Q1016=
201012100620 METAR ESMX 100620Z 31007KT CAVOK M06/M08 Q1015=
201012100550 METAR ESMX 100550Z 31008KT 290V040 9999 SCT014 M06/M08 Q1015=
201012100520 METAR ESMX 100520Z 31008KT 9999 SCT011 M05/M07 Q1015=
201012100450 METAR ESMX 100450Z 33009KT 270V360 9999 BKN011 M05/M07 Q1015=
201012100420 METAR ESMX 100420Z AUTO 33011KT 310V010 9999NDV BKN011/// M05/M07 Q1015=
201012100350 METAR ESMX 100350Z AUTO 32009KT 290V350 9999NDV OVC009/// M05/M06 Q1014=
201012100320 METAR ESMX 100320Z AUTO 31010KT 9999NDV FEW011/// OVC014/// M05/M06 Q1014=
201012100250 METAR ESMX 100250Z AUTO 32008KT 9999NDV FEW011/// BKN014/// OVC017/// M05/M06 Q1014=
201012100220 METAR ESMX 100220Z AUTO 31008KT 9999NDV OVC013/// M05/M07 Q1013=
201012100150 METAR ESMX 100150Z AUTO 31009KT 9999NDV OVC014/// M05/M07 Q1013=
201012100120 METAR ESMX 100120Z AUTO 32007KT 9999NDV OVC012/// M05/M07 Q1012=
201012100050 METAR ESMX 100050Z AUTO 32008KT 300V010 9999NDV FEW010/// OVC013/// M05/M07 Q1012=
201012100020 METAR ESMX 100020Z 32009KT 9999 -SN OVC010 M05/M07 Q1012=
201012092320 METAR ESMX 092320Z 33009KT 9999 -SN OVC010 M05/M07 Q1012=
201012092250 METAR ESMX 092250Z 33009KT 9999 -SN OVC009 M06/M07 Q1011=
201012092220 METAR ESMX 092220Z 33010KT 290V360 9999 -SN OVC008 M06/M07 Q1011=
201012092150 METAR ESMX 092150Z 33009KT 9999 -SN OVC008 M06/M08 Q1011=
201012092120 METAR ESMX 092120Z 34009KT 9999 -SN OVC008 M07/M08 Q1010=
201012092050 METAR ESMX 092050Z 33007KT 9999 OVC008 M07/M08 Q1010=
201012092020 METAR ESMX 092020Z 33006KT 9999 OVC008 M07/M09 Q1009=
201012091950 METAR ESMX 091950Z 35011KT 9999 -SN FEW008 BKN010 M07/M09 Q1009=
201012091920 METAR ESMX 091920Z 35011KT 320V020 9999 OVC008 M07/M08 Q1008=
201012091850 METAR ESMX 091850Z 34010KT 320V020 9999 OVC009 M06/M08 Q1007=
201012091820 METAR ESMX 091820Z 32009KT 9999 -SN OVC009 M06/M07 Q1007=
201012091750 METAR ESMX 091750Z 32008KT 9999 -SN OVC009 M06/M07 Q1006=
201012091720 METAR ESMX 091720Z 31009KT 9999 -SN OVC010 M06/M07 Q1006=
201012091650 METAR ESMX 091650Z 31009KT 9999 -SN OVC010 M06/M07 Q1005=
201012091620 METAR ESMX 091620Z 31008KT 9999 -SN OVC010 M06/M07 Q1005=
201012091550 METAR ESMX 091550Z 33010KT 9999 OVC010 M05/M07 Q1004=
201012091520 METAR ESMX 091520Z 33008KT 9999 OVC011 M05/M07 Q1004=
201012091450 METAR ESMX 091450Z 32010KT 9999 FEW013 M05/M07 Q1004=
201012091420 METAR ESMX 091420Z 32008KT 9999 BKN012 M05/M05 Q1004=
201012091350 METAR ESMX 091350Z 31008KT 9999 SCT011 M04/M05 Q1003=
201012091320 METAR ESMX 091320Z 32006KT 300V010 9999 SCT009 SCT085 M04/M04 Q1003=
201012091250 METAR ESMX 091250Z 31005KT 7000 -SN FEW011 BKN030 M04/M04 Q1003=
201012091220 METAR ESMX 091220Z 32004KT 4200 -SN FEW008 BKN019 M04/M04 Q1003=
201012091150 METAR ESMX 091150Z 30003KT 5000 -SN FEW008 BKN015 M04/M05 Q1003=
201012091120 METAR ESMX 091120Z 29004KT 260V330 8000 BR FEW008 SCT030 M04/M04 Q1003=
201012091050 METAR ESMX 091050Z 27003KT 9000 BR BKN029 M04/M05 Q1002=
201012091020 METAR ESMX 091020Z 25002KT 9000 BR BKN014 M04/M05 Q1002 RESG=
201012090950 METAR ESMX 090950Z 22001KT 9999 SCT010 BKN014 OVC025 M05/M05 Q1002=
201012090920 METAR ESMX 090920Z 00000KT 9999 FEW019 SCT021 OVC026 M05/M06 Q1002=
201012090850 METAR ESMX 090850Z 20002KT 9999 FEW022 BKN027 OVC033 M05/M06 Q1002=
201012090820 METAR ESMX 090820Z 17001KT 9999 FEW005 BKN029 M05/M06 Q1002=
201012090750 METAR ESMX 090750Z 00000KT 9999 BKN003 M05/M06 Q1002=
201012090720 METAR ESMX 090720Z 00000KT 9000 BR OVC003 M05/M06 Q1002=
201012090650 METAR ESMX 090650Z 32003KT 9999 OVC003 M05/M06 Q1002=
201012090620 METAR ESMX 090620Z 34004KT 290V020 9999 OVC002 M06/M06 Q1002=
201012090550 METAR ESMX 090550Z 32004KT 300V360 9999 OVC002 M05/M06 Q1001=
201012090520 METAR ESMX 090520Z 32003KT 5000 BR SCT001 OVC002 M05/M06 Q1001=
201012090450 METAR ESMX 090450Z 31003KT 290V350 2300 BR OVC001 M05/M06 Q1001=
201012090420 METAR ESMX 090420Z AUTO 32003KT 1600NDV OVC001/// M05/M06 Q1001=
201012090350 METAR ESMX 090350Z AUTO 33005KT 1200NDV R01/P2000N R19/P2000N OVC001/// M05/M06 Q1001=
201012090320 METAR ESMX 090320Z AUTO 34004KT 0900NDV R01/P2000N R19/P2000N FZFG VV002 M05/M06 Q1001=
201012090250 METAR ESMX 090250Z AUTO 33004KT 1400NDV R01/P2000N R19/P2000N BR VV002 M05/M06 Q1001=
201012090220 METAR ESMX 090220Z AUTO VRB02KT 2500NDV BR VV002 M05/M06 Q1001=
201012090150 METAR ESMX 090150Z AUTO 30004KT 2200NDV BR OVC001/// M05/M06 Q1002=
201012090120 METAR ESMX 090120Z AUTO 32004KT 1600NDV BR OVC001/// M05/M06 Q1002=
201012090050 METAR ESMX 090050Z 33004KT 300V360 1200 R19/P2000N BR OVC001 M05/M06 Q1002=
201012082350 METAR ESMX 082350Z VRB02KT 0800 R19/P2000N FZFG VV002 M05/M06 Q1002=
201012082320 METAR ESMX 082320Z VRB01KT 3500 BR OVC001 M05/M05 Q1003=
201012082250 METAR ESMX 082250Z 02003KT 340V050 7000 BR OVC002 M04/M05 Q1003=
201012082220 METAR ESMX 082220Z 35002KT 9999 OVC003 M04/M05 Q1003=
201012082150 METAR ESMX 082150Z 01002KT 9999 OVC004 M04/M05 Q1004=
201012082050 METAR ESMX 082050Z 34001KT 9999 OVC005 M04/M05 Q1004=
201012082020 METAR ESMX 082020Z VRB01KT 9999 OVC006 M04/M05 Q1005=
201012081950 METAR ESMX 081950Z 00000KT 9999 OVC006 M05/M05 Q1005=
201012081920 METAR ESMX 081920Z VRB02KT 9999 OVC007 M04/M05 Q1005=
201012081850 METAR ESMX 081850Z VRB01KT 9999 OVC007 M04/M05 Q1005=
201012081820 METAR ESMX 081820Z VRB01KT 9999 OVC007 M04/M05 Q1006=
201012081750 METAR ESMX 081750Z 32003KT 9999 OVC007 M04/M05 Q1006=
201012081720 METAR ESMX 081720Z 00000KT 7000 BR OVC007 M04/M05 Q1006=
201012081650 METAR ESMX 081650Z 03001KT 7000 BR OVC007 M04/M04 Q1006=
201012081620 METAR ESMX 081620Z VRB01KT 7000 BR OVC008 M04/M04 Q1006=
201012081550 METAR ESMX 081550Z 00000KT 8000 BR OVC009 M04/M04 Q1007=
201012081520 METAR ESMX 081520Z 21001KT 9999 OVC010 M04/M04 Q1007=
201012081450 METAR ESMX 081450Z VRB02KT 9999 OVC010 M03/M04 Q1007=
201012081420 METAR ESMX 081420Z 19001KT 9999 OVC010 M03/M04 Q1007=
201012081350 METAR ESMX 081350Z 21001KT 9999 OVC011 M03/M04 Q1007=
201012081320 METAR ESMX 081320Z VRB01KT 9999 OVC011 M03/M04 Q1007=
201012081250 METAR ESMX 081250Z VRB02KT 9999 OVC011 M03/M04 Q1008=
201012081220 METAR ESMX 081220Z 22003KT 9999 OVC011 M03/M04 Q1008=
201012081150 METAR ESMX 081150Z 23002KT 9999 OVC011 M03/M04 Q1008=
201012081120 METAR ESMX 081120Z 21002KT 9999 OVC012 M03/M04 Q1009=
201012081050 METAR ESMX 081050Z 24002KT 8000 BR OVC014 M04/M05 Q1009=
201012081020 METAR ESMX 081020Z 22001KT 9000 OVC014 M04/M04 Q1008=
201012080950 METAR ESMX 080950Z 20002KT 9999 FEW015 M04/M05 Q1009=
201012080920 METAR ESMX 080920Z 21003KT 8000 FEW059 M05/M06 Q1009=
201012080850 METAR ESMX 080850Z 17002KT 9000 BKN015 M06/M07 Q1009=
201012080820 METAR COR ESMX 080820Z 17003KT CAVOK M05/M06 Q1009=
201012080750 METAR ESMX 080750Z 21004KT 170V240 CAVOK M06/M06 Q1009=
201012080720 METAR ESMX 080720Z 18003KT 9999 FEW016 M05/M05 Q1009=
201012080650 METAR ESMX 080650Z 18003KT 9999 FEW015 M04/M05 Q1009=
201012080620 METAR ESMX 080620Z 24002KT 9999 BKN013 M04/M05 Q1008=
201012080550 METAR ESMX 080550Z 27003KT 200V300 9999 BKN013 M03/M04 Q1008=
201012080520 METAR ESMX 080520Z 22002KT 9999 OVC013 M03/M04 Q1008=
201012080450 METAR ESMX 080450Z 25003KT 9999 OVC013 M03/M03 Q1008=
201012080420 METAR ESMX 080420Z VRB02KT 9999 OVC014 M03/M03 Q1008=
201012080350 METAR ESMX 080350Z AUTO 19005KT 9999NDV OVC015/// M03/M04 Q1008=
201012080320 METAR ESMX 080320Z AUTO 21004KT 9999NDV OVC015/// M03/M04 Q1008=
201012080250 METAR ESMX 080250Z AUTO 23004KT 9999NDV BKN017/// M03/M04 Q1008=
201012080220 METAR ESMX 080220Z AUTO 25003KT 9999NDV OVC017/// M04/M04 Q1008=
201012080150 METAR ESMX 080150Z AUTO 25003KT 9999NDV OVC018/// M03/M04 Q1008=
201012080120 METAR ESMX 080120Z AUTO VRB01KT 9999NDV OVC018/// M03/M04 Q1008=
201012080050 METAR ESMX 080050Z VRB02KT 9999 OVC017 M02/M03 Q1008=
201012080020 METAR ESMX 080020Z 24002KT 9999 OVC017 M02/M03 Q1007=
201012072350 METAR ESMX 072350Z VRB02KT 9999 OVC015 M02/M03 Q1007=
201012072320 METAR ESMX 072320Z VRB01KT 9999 OVC014 M03/M03 Q1007=
201012072250 METAR ESMX 072250Z VRB02KT 9999 FEW011 OVC013 M03/M03 Q1007=
201012072220 METAR ESMX 072220Z VRB02KT 9999 FEW007 OVC013 M03/M03 Q1007=
201012072150 METAR ESMX 072150Z 22003KT 9999 OVC013 M03/M03 Q1007=
201012072120 METAR ESMX 072120Z 26003KT 9999 OVC013 M03/M03 Q1006=
201012072050 METAR ESMX 072050Z 22005KT 9999 FEW006 OVC017 M03/M04 Q1006=
201012072020 METAR ESMX 072020Z 19003KT 9999 BKN016 M03/M04 Q1006=
201012071950 METAR ESMX 071950Z 19003KT 9999 MIFG SCT016 M05/M06 Q1006=
201012071920 METAR ESMX 071920Z 22003KT 7000 MIFG BR SCT020 M06/M06 Q1005=
201012071850 METAR ESMX 071850Z 19002KT 9999 MIFG NSC M04/M05 Q1005=
201012071820 METAR ESMX 071820Z 23003KT 9999 MIFG NSC M05/M05 Q1005=
201012071750 METAR ESMX 071750Z 19005KT 6000 BR FEW018 M03/M04 Q1005=
201012071720 METAR ESMX 071720Z 20003KT 7000 BR MIFG FEW035 M03/M04 Q1005=
201012071650 METAR ESMX 071650Z 23004KT 9999 FEW020 SCT026 BKN036 M03/M03 Q1004=
201012071620 METAR ESMX 071620Z 22005KT 8000 BR OVC034 M02/M02 Q1004=
201012071550 METAR ESMX 071550Z 21005KT 5000 BR BKN037 M03/M03 Q1004=
201012071520 METAR ESMX 071520Z 21004KT 7000 BR FEW023 OVC033 M02/M03 Q1004=
201012071450 METAR ESMX 071450Z 22003KT 200V260 8000 BR FEW012 SCT028 BKN031 M01/M02 Q1003=
201012071420 METAR ESMX 071420Z 21004KT 9999 FEW007 BKN025 M01/M02 Q1003=
201012071350 METAR ESMX 071350Z 23005KT 3300 SG FEW003 SCT006 BKN012 M00/M01 Q1003 RESHRA=
201012071320 METAR ESMX 071320Z 22004KT 1300 R01/1200VP2000D R19/P2000N -SN SCT004 BKN009 OVC012 M00/M01 Q1003 RESG=
201012071250 METAR ESMX 071250Z 22007KT 5000 -SN BKN005 OVC016 M00/M01 Q1002 RESG=
201012071220 METAR ESMX 071220Z 21006KT 9999 -SN SCT004 BKN016 OVC047 M01/M01 Q1002=
201012071150 METAR ESMX 071150Z 23006KT 6000 BR BKN005 OVC008 M00/M01 Q1002=
201012071120 METAR ESMX 071120Z 24006KT 5000 BR FEW004 BKN006 OVC007 M00/M01 Q1002=
201012071050 METAR ESMX 071050Z 23007KT 9999 OVC005 M00/M01 Q1002 RESG=
201012071020 METAR ESMX 071020Z 22008KT 5000 -SN OVC005 M00/M01 Q1002=
201012070950 METAR ESMX 070950Z 21007KT 5000 SG BKN006 BKN009 M01/M01 Q1001=
201012070850 METAR ESMX 070850Z 21007KT 4900 -FZDZ OVC006 M01/M01 Q1001=
201012070820 METAR ESMX 070820Z 21008KT 7000 BR OVC006 M01/M01 Q1001=
201012070750 METAR ESMX 070750Z 20008KT 7000 BR FEW005 BKN006 OVC010 M01/M02 Q1001 RESN=
201012070720 METAR ESMX 070720Z 21008KT 5000 -SN FEW004 BKN006 OVC009 M01/M02 Q1000=
201012070650 METAR ESMX 070650Z 21009KT 1700 -SN FEW005 SCT007 M01/M02 Q1000=
201012070620 METAR ESMX 070620Z 19010KT 0650 R01/P2000N R19/P2000 SN FEW004 SCT006 M01/M02 Q1000=
201012070550 METAR ESMX 070550Z 20010KT 1200 R01/P2000N R19/P2000 -SN FEW003 SCT006 BKN009 M01/M01 Q0999=
201012070520 METAR ESMX 070520Z 19011KT 1500 -SN FEW005 BKN006 M01/M01 Q0999=
201012070450 METAR ESMX 070450Z 19012KT 1200 R01/P2000N R19/P2000N -SN FEW004 OVC006 M01/M02 Q0999=
201012070420 METAR ESMX 070420Z AUTO 18013KT 1500NDV -SN OVC005/// M01/M02 Q0999=
201012070350 METAR ESMX 070350Z AUTO 18010KT 150V210 9999NDV OVC005/// M01/M02 Q0999=
201012070320 METAR ESMX 070320Z AUTO 17009KT 140V200 9999NDV OVC004/// M01/M02 Q0999=
201012070250 METAR ESMX 070250Z AUTO 17008KT 140V210 9999NDV BR OVC003/// M01/M02 Q0999=
201012070220 METAR ESMX 070220Z AUTO 17008KT 6000NDV -SN OVC002/// M01/M02 Q0999=
201012070150 METAR ESMX 070150Z AUTO 17007KT 5000NDV BR OVC001/// M01/M02 Q0999=
201012070120 METAR ESMX 070120Z AUTO 19009KT 3100NDV BR OVC001/// M01/M02 Q1000=
201012070050 METAR ESMX 070050Z AUTO 19008KT 3800NDV BR OVC001/// M01/M02 Q0999=
201012070020 METAR ESMX 070020Z 19008KT 6000 BR BKN003 M01/M02 Q0999=
201012062350 METAR ESMX 062350Z 21008KT 7000 BR OVC002 M01/M02 Q0999=
201012062320 METAR ESMX 062320Z 21008KT 9000 BR OVC002 M01/M02 Q0999=
201012062250 METAR ESMX 062250Z 22008KT 9999 OVC003 M01/M02 Q0999=
201012062220 METAR ESMX 062220Z 21008KT 9999 OVC003 M01/M01 Q0999=
201012062150 METAR ESMX 062150Z 20008KT 9000 BR OVC003 M01/M02 Q0999=
201012062120 METAR ESMX 062120Z 19005KT 6000 -SN OVC003 M02/M02 Q0999=
201012062050 METAR ESMX 062050Z 22004KT 6000 BR BKN002 M02/M03 Q0999=
201012062020 METAR ESMX 062020Z 21005KT 5000 BR SCT002 OVC015 M02/M03 Q0999=
201012061950 METAR ESMX 061950Z 21005KT 5000 BR SCT002 OVC016 M03/M03 Q0999=
201012061920 METAR ESMX 061920Z 22003KT 9999 FEW003 BKN005 M03/M04 Q0998=
201012061850 METAR ESMX 061850Z 20003KT 9999 BKN005 M03/M04 Q0998=
201012061820 METAR ESMX 061820Z 25003KT 220V280 9999 SCT024 M04/M05 Q0998=
201012061750 METAR ESMX 061750Z 26003KT 9999 FEW013 M04/M04 Q0997=
201012061720 METAR ESMX 061720Z 23004KT 9999 BKN015 M03/M04 Q0997=
201012061650 METAR ESMX 061650Z 25004KT 9999 SCT016 M03/M04 Q0997=
201012061620 METAR ESMX 061620Z 24004KT 9999 SCT016 M03/M04 Q0997=
201012061550 METAR ESMX 061550Z 25006KT 210V280 9999 FEW011 BKN021 M02/M03 Q0996=
201012061520 METAR ESMX 061520Z 24005KT 9999 SCT008 BKN014 BKN019 M02/M02 Q0996=
201012061450 METAR ESMX 061450Z 22004KT 9999 FEW010 SCT020 BKN025 M02/M03 Q0996=
201012061420 METAR ESMX 061420Z 22003KT 9999 FEW015 BKN025 M01/M02 Q0996 RESG=
201012061350 METAR ESMX 061350Z 24005KT 200V260 9999 FEW012 BKN024 M02/M02 Q0996=
201012061320 METAR ESMX 061320Z 24006KT 9999 FEW007 SCT008 BKN011 M02/M02 Q0995=
201012061250 METAR ESMX 061250Z 20005KT 9999 FEW005 SCT006 OVC022 M02/M02 Q0995=
201012061220 METAR ESMX 061220Z 24006KT 210V270 9999 BKN004 OVC023 M02/M02 Q0995=
201012061150 METAR ESMX 061150Z 22005KT 9000 BR OVC004 M02/M02 Q0995=
201012061120 METAR ESMX 061120Z 20004KT 7000 BR BKN005 M02/M03 Q0995=
201012061050 METAR ESMX 061050Z 23004KT 6000 BR BKN003 M03/M04 Q0995=
201012061020 METAR ESMX 061020Z 21004KT 6000 -SN BKN004 OVC007 M03/M04 Q0995=
201012060950 METAR ESMX 060950Z 20003KT 2600 -SN OVC003 M04/M04 Q0995=
201012060920 METAR ESMX 060920Z 24002KT 4800 -SN OVC003 M04/M04 Q0994=
201012060850 METAR ESMX 060850Z 21002KT 5000 -SN BKN002 OVC008 M04/M05 Q0994=
201012060820 METAR ESMX 060820Z 23003KT 5000 BR OVC002 M04/M05 Q0994=
201012060750 METAR ESMX 060750Z 26003KT 200V290 3200 BR OVC002 M04/M05 Q0994=
201012060720 METAR ESMX 060720Z 27006KT 1900 BR OVC001 M05/M05 Q0993=
201012060650 METAR ESMX 060650Z 26006KT 3100 BR OVC002 M04/M05 Q0993=
201012060620 METAR ESMX 060620Z 25006KT 2500 BR OVC002 M04/M05 Q0993=
201012060550 METAR ESMX 060550Z 25005KT 3500 BR BKN002 M04/M05 Q0992=
201012060520 METAR ESMX 060520Z 27006KT 5000 BR SCT004 BKN045 M04/M05 Q0992=
201012060450 METAR ESMX 060450Z 27006KT 5000 BR SCT005 BKN030 M04/M04 Q0992=
201012060420 METAR ESMX 060420Z AUTO 27005KT 4900NDV BR FEW033/// M04/M05 Q0992=
201012060350 METAR ESMX 060350Z AUTO 27004KT 5000NDV -SN SCT024/// BKN036/// M04/M04 Q0992=
201012060320 METAR ESMX 060320Z AUTO 28004KT 7000NDV -SN FEW007/// SCT026/// M03/M04 Q0991=
201012060250 METAR ESMX 060250Z AUTO 27005KT 4500NDV -SN NCD M03/M04 Q0991=
201012060220 METAR ESMX 060220Z AUTO 28005KT 250V310 4300NDV -SN FEW017/// SCT052/// M03/M04 Q0991=
201012060120 METAR ESMX 060120Z 27005KT 6000 -SN FEW005 BKN020 M03/M04 Q0991=
201012052350 METAR ESMX 052350Z 28004KT 3700 -SN SCT006 BKN013 M03/M04 Q0990=
201012052320 METAR ESMX 052320Z 30004KT 2200 -SN SCT006 BKN013 M03/M03 Q0990=
201012052250 METAR ESMX 052250Z 30004KT 1800 -SN FEW008 SCT014 BKN016 M03/M03 Q0989=
201012052220 METAR ESMX 052220Z 30004KT 7000 -SN OVC010 M03/M03 Q0989=
201012052150 METAR ESMX 052150Z 31004KT 3200 -SN FEW006 SCT014 M03/M03 Q0989=
201012052120 METAR ESMX 052120Z 33004KT 2400 -SN FEW005 SCT007 BKN011 M03/M03 Q0989=
201012052050 METAR ESMX 052050Z 34004KT 1600 -SN FEW004 SCT006 BKN026 M03/M03 Q0989=
201012052020 METAR ESMX 052020Z 01004KT 1500 -SN SCT005 BKN030 M03/M03 Q0989=
201012051950 METAR ESMX 051950Z 36004KT 1500 -SN SCT005 BKN030 M02/M03 Q0989=
201012051920 METAR ESMX 051920Z 01002KT 1500 -SN SCT005 BKN030 M02/M03 Q0990=
201012051850 METAR ESMX 051850Z VRB02KT 1500 -SN SCT005 BKN030 M02/M03 Q0990=
201012051820 METAR ESMX 051820Z VRB02KT 2500 -SN FEW004 SCT005 BKN032 M02/M03 Q0990=
201012051750 METAR ESMX 051750Z VRB02KT 7000 -SN SCT004 BKN008 OVC035 M02/M03 Q0990=
201012051720 METAR ESMX 051720Z VRB02KT 6000 -SN OVC006 M02/M03 Q0991=
201012051650 METAR ESMX 051650Z 10003KT 060V140 6000 -SN OVC006 M02/M03 Q0991=
201012051620 METAR ESMX 051620Z VRB02KT 6000 -SN FEW007 OVC010 M02/M03 Q0992=
201012051550 METAR ESMX 051550Z VRB02KT 4000 -SN FEW013 SCT016 M02/M02 Q0992=
201012051520 METAR ESMX 051520Z 13003KT 080V190 1000 R01/P2000N R19/P2000N -SN VV006 M02/M03 Q0993=
201012051450 METAR ESMX 051450Z 14003KT 110V170 1500 -SN FEW006 SCT010 M02/M02 Q0993=
201012051420 METAR ESMX 051420Z 15004KT 120V200 1700 -SN FEW004 SCT007 M02/M02 Q0993=
201012051350 METAR ESMX 051350Z 14003KT 080V200 0750 R01/1600U R19/1800 -SN VV007 M01/M02 Q0994=
201012051320 METAR ESMX 051320Z VRB02KT 0650 R01/1100N R19/1200N SN VV005 M01/M02 Q0994=
201012051250 METAR ESMX 051250Z VRB02KT 0500 R01/1300N R19/0450V1500D SN FEW005 SCT009 M01/M02 Q0995=
201012051220 METAR ESMX 051220Z 13003KT 080V190 1200 R01/1000V1500U R19/1200N -SN SCT005 BKN008 M01/M02 Q0996=
201012051150 METAR ESMX 051150Z 14004KT 110V190 1000 R01/1400D R19/1500D -SN SCT001 OVC002 M01/M02 Q0996=
201012051120 METAR ESMX 051120Z 16007KT 120V200 1200 R01/1600N R19/1800N BR OVC001 M01/M02 Q0997=
201012051050 METAR ESMX 051050Z 15006KT 110V170 1300 R01/1400D R19/1600N BR OVC001 M01/M02 Q0998=
201012051020 METAR ESMX 051020Z 14005KT 100V190 1100 R01/1400N R19/1600N BR OVC001 M01/M02 Q0998=
201012050950 METAR ESMX 050950Z 15006KT 1100 R01/1200N R19/1500N BR OVC001 M02/M02 Q0999=
201012050920 METAR ESMX 050920Z AUTO 16006KT 130V200 0600NDV R01/1100N R19/1200N FZFG VV002 M02/M02 Q1000=
201012050850 METAR ESMX 050850Z AUTO 17008KT 140V200 0900NDV R01/1300VP2000D R19/1900D FZFG OVC001/// M02/M02 Q1000=
201012050820 METAR ESMX 050820Z AUTO 17008KT 2500NDV BR OVC002/// M02/M03 Q1001=
201012050750 METAR ESMX 050750Z AUTO 17009KT 4000NDV BR OVC003/// M02/M03 Q1001=
201012050720 METAR ESMX 050720Z AUTO 16008KT 3300NDV BR OVC002/// M02/M03 Q1002=
201012050650 METAR ESMX 050650Z AUTO 17008KT 140V200 2200NDV BR OVC002/// M02/M03 Q1002=
201012050620 METAR ESMX 050620Z AUTO 17009KT 140V200 3800NDV BR FEW003/// OVC005/// M02/M03 Q1002=
201012050550 METAR ESMX 050550Z AUTO 18008KT 140V210 5000NDV BR OVC005/// M02/M03 Q1003=
201012050520 METAR ESMX 050520Z AUTO 18008KT 150V210 6000NDV BR OVC006/// M03/M04 Q1003=
201012050450 METAR ESMX 050450Z AUTO 17008KT 140V200 5000NDV -SN OVC006/// M03/M04 Q1003=
201012050420 METAR ESMX 050420Z AUTO 17007KT 140V200 5000NDV -SN OVC006/// M03/M04 Q1004=
201012050350 METAR ESMX 050350Z AUTO 18008KT 6000NDV BR OVC007/// M03/M04 Q1004=
201012050320 METAR ESMX 050320Z AUTO 18010KT 7000NDV BR BKN008/// OVC010/// M03/M04 Q1005=
201012050250 METAR ESMX 050250Z AUTO 17009KT 6000NDV -SN FEW007/// BKN010/// BKN015/// M03/M04 Q1005=
201012050220 METAR ESMX 050220Z AUTO 17008KT 140V200 2900NDV -SN FEW006/// SCT010/// M03/M04 Q1005=
201012050150 METAR ESMX 050150Z AUTO 16009KT 120V200 2900NDV -SN FEW008/// M03/M04 Q1006=
201012050120 METAR ESMX 050120Z AUTO 16008KT 2600NDV -SN FEW005/// SCT011/// M03/M04 Q1006=
201012050050 METAR ESMX 050050Z AUTO 16008KT 5000NDV -SN BKN012/// M03/M05 Q1006=
201012050020 METAR ESMX 050020Z AUTO 17009KT 140V200 8000NDV BR FEW010/// BKN013/// BKN017/// M03/M05 Q1007=
201012042350 METAR ESMX 042350Z AUTO 17009KT 140V200 8000NDV BR OVC010/// M03/M05 Q1007=
201012042320 METAR ESMX 042320Z AUTO 17008KT 7000NDV BR OVC011/// M03/M05 Q1008=
201012042250 METAR ESMX 042250Z AUTO 18009KT 7000NDV BR FEW011/// OVC013/// M03/M05 Q1008=
201012042220 METAR ESMX 042220Z AUTO 17010KT 6000NDV BR FEW009/// OVC011/// M03/M05 Q1008=
201012042150 METAR ESMX 042150Z AUTO 18011KT 5000NDV BR FEW007/// BKN009/// OVC011/// M03/M05 Q1009=
201012042120 METAR ESMX 042120Z AUTO 18011KT 5000NDV BR OVC006/// M03/M04 Q1009=
201012042050 METAR ESMX 042050Z AUTO 17006KT 4200NDV BR FEW009/// SCT010/// BKN013/// M04/M05 Q1009=
201012042020 METAR ESMX 042020Z AUTO 17007KT 5000NDV BR FEW011/// M04/M05 Q1009=
201012041950 METAR ESMX 041950Z AUTO 18007KT 5000NDV BR FEW009/// BKN010/// M04/M05 Q1009=
201012041920 METAR ESMX 041920Z AUTO 18009KT 5000NDV BR FEW008/// OVC009/// M03/M05 Q1009=
201012041850 METAR ESMX 041850Z AUTO 19010KT 6000NDV BR FEW009/// BKN011/// BKN086/// M03/M05 Q1009=
201012041820 METAR ESMX 041820Z AUTO 19011KT 6000NDV BR FEW009/// OVC011/// M03/M04 Q1009=
201012041750 METAR ESMX 041750Z AUTO 19012KT 6000NDV BR FEW008/// OVC010/// M02/M04 Q1009=
201012041720 METAR ESMX 041720Z AUTO 20009KT 7000NDV BR FEW007/// BKN009/// OVC011/// M03/M04 Q1009=
201012041650 METAR ESMX 041650Z AUTO 20008KT 6000NDV BR OVC005/// M03/M04 Q1009=
201012041620 METAR ESMX 041620Z AUTO 22009G21KT 180V250 6000NDV BR OVC005/// M03/M04 Q1009=
201012041550 METAR ESMX 041550Z AUTO 22009KT 9999NDV OVC008/// M03/M04 Q1009=
201012041520 METAR ESMX 041520Z AUTO 23011KT 9999NDV FEW009/// SCT012/// OVC014/// M03/M04 Q1009=
201012041450 METAR ESMX 041450Z AUTO 21012KT 9999NDV OVC010/// M03/M04 Q1009=
201012041420 METAR ESMX 041420Z AUTO 23009KT 9999NDV FEW010/// BKN012/// OVC016/// M02/M03 Q1008=
201012041350 METAR ESMX 041350Z AUTO 23009KT 210V270 9999NDV FEW009/// OVC010/// M02/M03 Q1008=
201012041320 METAR ESMX 041320Z AUTO 23007KT 9999NDV FEW008/// SCT011/// BKN019/// M02/M03 Q1008=
201012041250 METAR ESMX 041250Z 22009KT 9999 FEW007 BKN009 BKN052 M02/M03 Q1008=
201012041220 METAR ESMX 041220Z 22007KT 200V260 9999 OVC007 M02/M03 Q1007=
201012041150 METAR ESMX 041150Z 23006KT 200V260 5000 -SN BKN007 OVC010 M03/M03 Q1007=
201012041120 METAR ESMX 041120Z 23006KT 200V260 4000 -SN OVC007 M03/M04 Q1007=
201012041050 METAR ESMX 041050Z 24006KT 7000 -SN OVC009 M03/M04 Q1007=
201012041020 METAR ESMX 041020Z 23008KT 9999 OVC009 M04/M04 Q1007=
201012040950 METAR ESMX 040950Z 23007KT 9999 FEW014 SCT018 BKN023 M04/M05 Q1007=
201012040920 METAR ESMX 040920Z 22007KT 9999 FEW017 BKN024 M04/M05 Q1006=
201012040850 METAR ESMX 040850Z 21007KT 3500 -SN FEW005 SCT020 BKN040 M05/M05 Q1006=
201012040820 METAR ESMX 040820Z 21006KT 3000 -SN FEW014 SCT020 BKN028 M05/M06 Q1006=
201012040750 METAR ESMX 040750Z 19006KT 9000 FEW006 SCT007 BKN015 M05/M06 Q1006=
201012040720 METAR ESMX 040720Z 20004KT 9999 SCT006 OVC010 M05/M06 Q1006=
201012040650 METAR ESMX 040650Z AUTO 22005KT 1600NDV -SN BKN006/// M05/M06 Q1005=
201012040620 METAR ESMX 040620Z AUTO 21005KT 170V240 0650NDV R01/P2000N R19/P2000 -SN VV000 M05/M06 Q1005=
201012040550 METAR ESMX 040550Z AUTO 23005KT 0450NDV R01/1200VP2000D R19/P2000D +SN VV002 M05/M06 Q1005=
201012040520 METAR ESMX 040520Z AUTO 23004KT 0650NDV R01/P2000D R19/1400VP2000N SN VV000 M06/M07 Q1005=
201012040450 METAR ESMX 040450Z AUTO 23004KT 200V290 0450NDV R01/1100VP2000U R19/P2000N +SN SCT002/// BKN003/// OVC011/// M07/M07 Q1005=
201012040420 METAR ESMX 040420Z AUTO 22006KT 0500NDV R01/P2000D R19/P2000D SN VV001 M07/M08 Q1004=
201012040350 METAR ESMX 040350Z AUTO 22006KT 1600NDV -SN FEW000/// SCT005/// BKN015/// M08/M09 Q1004=
201012040320 METAR ESMX 040320Z AUTO 21007KT 2900NDV -SN FEW006/// SCT019/// M08/M09 Q1004=
201012040250 METAR ESMX 040250Z AUTO 22004KT 1200NDV R01/P2000N R19/P2000N -SN BKN005/// BKN020/// M09/M10 Q1004=
201012040220 METAR ESMX 040220Z AUTO 19004KT 3800NDV -SN FEW006/// SCT011/// BKN018/// M10/M11 Q1004=
201012040150 METAR ESMX 040150Z AUTO 16003KT 9999NDV BKN010/// M10/M11 Q1004=
201012040120 METAR ESMX 040120Z AUTO 20002KT 9999NDV FEW022/// M10/M11 Q1004=
201012040050 METAR ESMX 040050Z AUTO 23004KT 9999NDV FEW023/// M10/M11 Q1004=
201012040020 METAR ESMX 040020Z AUTO 22004KT 9999NDV NCD M09/M10 Q1004=
201012032350 METAR ESMX 032350Z AUTO 23005KT 9999NDV FEW075/// M10/M11 Q1004=
201012032320 METAR ESMX 032320Z AUTO 25004KT 9999NDV OVC073/// M09/M10 Q1004=
201012032250 METAR ESMX 032250Z AUTO 26005KT 9999NDV OVC070/// M08/M09 Q1004=
201012032220 METAR ESMX 032220Z AUTO 26005KT 9999NDV BKN070/// M08/M09 Q1004=
201012032150 METAR ESMX 032150Z AUTO 26004KT 220V290 9999NDV SCT073/// M09/M10 Q1004=
201012032120 METAR ESMX 032120Z AUTO 26004KT 200V310 7000NDV -SN FEW007/// M08/M10 Q1004=
201012032050 METAR ESMX 032050Z 26006KT 9999 -SN FEW007 SCT019 BKN028 M08/M09 Q1004=
201012032020 METAR ESMX 032020Z 27005KT 9999 -SN BKN013 M08/M09 Q1004=
201012031950 METAR ESMX 031950Z 26004KT 230V290 6000 -SN OVC015 M08/M09 Q1004=
201012031920 METAR ESMX 031920Z 21003KT 170V230 9999 OVC016 M08/M09 Q1003=
201012031850 METAR ESMX 031850Z 23002KT 9999 FEW005 BKN021 M09/M10 Q1003=
201012031820 METAR ESMX 031820Z 25003KT 220V290 9999 FEW007 BKN013 OVC022 M08/M09 Q1003=
201012031750 METAR ESMX 031750Z 27006KT 230V300 9999 OVC009 M07/M09 Q1003=
201012031720 METAR ESMX 031720Z 25005KT 230V290 9999 -SN OVC010 M07/M09 Q1003=
201012031650 METAR ESMX 031650Z 24005KT 9999 -SN FEW009 OVC012 M08/M09 Q1002=
201012031620 METAR ESMX 031620Z 24005KT 9999 -SN OVC011 M08/M09 Q1002=
201012031550 METAR ESMX 031550Z 25006KT 9999 -SN OVC010 M08/M09 Q1002=
201012031520 METAR ESMX 031520Z 25005KT 5000 -SN OVC010 M08/M09 Q1002=
201012031450 METAR ESMX 031450Z 27004KT 7000 -SN OVC011 M08/M09 Q1002=
201012031420 METAR ESMX 031420Z 25004KT 7000 -SN BKN010 M08/M09 Q1001=
201012031350 METAR ESMX 031350Z 24003KT 210V280 7000 -SN SCT008 BKN025 M09/M10 Q1001=
201012031320 METAR ESMX 031320Z 26004KT 9999 FEW020 SCT200 M08/M10 Q1001=
201012031250 METAR ESMX 031250Z 27004KT 9999 FEW025 M08/M09 Q1001=
201012031220 METAR ESMX 031220Z 28005KT 9999 FEW020 M08/M09 Q1001=
201012031150 METAR ESMX 031150Z VRB02KT 9000 -IC SCT018 M08/M09 Q1001=
201012031120 METAR ESMX 031120Z 30004KT 270V340 9999 -IC FEW010 SCT200 M08/M09 Q1001=
201012031050 METAR ESMX 031050Z 30004KT 9000 -IC FEW008 SCT200 M08/M09 Q1001=
201012030950 METAR ESMX 030950Z 33001KT 9999 FEW012 SCT023 M08/M09 Q1001=
201012030920 METAR ESMX 030920Z 33004KT 9999 -SN BKN020 M08/M09 Q1001=
201012030850 METAR ESMX 030850Z 35004KT 9999 -SN BKN019 M09/M10 Q1001=
201012030820 METAR ESMX 030820Z 34004KT 9999 -SN BKN020 M09/M10 Q1001=
201012030750 METAR ESMX 030750Z 34004KT 7000 -SN FEW020 SCT150 M09/M10 Q1000=
201012030650 METAR ESMX 030650Z 35005KT 5000 -SN FEW005 BKN100 M08/M09 Q1000=
201012030620 METAR ESMX 030620Z 01005KT 5000 -SN FEW006 SCT023 M08/M09 Q1000=
201012030550 METAR ESMX 030550Z 02005KT 5000 -SN FEW006 SCT020 M08/M09 Q1001=
201012030520 METAR ESMX 030520Z 01006KT 5000 -SN FEW005 SCT022 M08/M09 Q1001=
201012030450 METAR ESMX 030450Z 02005KT 8000 -SN FEW007 M08/M09 Q1001=
201012030420 METAR ESMX 030420Z AUTO 02006KT 5000NDV IC NCD M07/M08 Q1001=
201012030350 METAR ESMX 030350Z AUTO 01006KT 5000NDV -SN NCD M07/M08 Q1001=
201012030320 METAR ESMX 030320Z AUTO 36007KT 4600NDV IC NCD M07/M08 Q1002=
201012030250 METAR ESMX 030250Z 36006KT 3600 -SN SCT007 M07/M08 Q1002=
201012030220 METAR ESMX 030220Z AUTO 02006KT 2300NDV -SN FEW006/// M07/M08 Q1002=
201012030150 METAR ESMX 030150Z AUTO 02006KT 2000NDV -SN BKN006/// M07/M08 Q1003=
201012030120 METAR ESMX 030120Z AUTO 01007KT 2300NDV SG FEW006/// M07/M08 Q1003=
201012030050 METAR ESMX 030050Z 02005KT 2500 -SN FEW005 BKN006 M07/M08 Q1003=
201012030020 METAR ESMX 030020Z 02006KT 1500 -SN SCT005 BKN008 M07/M08 Q1003=
201012022320 METAR ESMX 022320Z 01007KT 1500 -SN FEW005 SCT007 M06/M07 Q1004=
201012022250 METAR ESMX 022250Z 36008KT 2500 -SN BKN005 M06/M07 Q1005=
201012022220 METAR ESMX 022220Z 36009KT 2000 -SN BKN005 M06/M07 Q1005=
201012022150 METAR ESMX 022150Z 01008KT 1500 -SN BKN005 M06/M07 Q1005=
201012022120 METAR ESMX 022120Z 36009KT 1500 -SN BKN006 M06/M08 Q1006=
201012022050 METAR ESMX 022050Z 01009KT 4500 -SN SCT012 BKN050 M06/M08 Q1006=
201012022020 METAR ESMX 022020Z 02009KT 4500 -SN FEW015 BKN050 M06/M08 Q1006=
201012021950 METAR ESMX 021950Z 02009KT 340V050 5000 -SN FEW030 BKN050 M06/M08 Q1007=
201012021920 METAR ESMX 021920Z 01008KT 9999 -SN FEW030 SCT060 M06/M09 Q1007=
201012021850 METAR ESMX 021850Z 03008KT 9999 FEW025 SCT050 M06/M08 Q1007=
201012021820 METAR ESMX 021820Z 03009KT 010V070 9999 FEW081 SCT110 M06/M08 Q1007=
201012021750 METAR ESMX 021750Z 03009KT 9999 FEW025 SCT085 M06/M08 Q1008=
201012021720 METAR ESMX 021720Z 02008KT 9999 FEW028 M06/M08 Q1008=
201012021650 METAR ESMX 021650Z 03008KT 350V060 9999 FEW028 M05/M07 Q1009=
201012021620 METAR ESMX 021620Z 02008KT 9999 FEW030 M05/M07 Q1009=
201012021550 METAR ESMX 021550Z 03008KT 9999 FEW008 SCT030 M05/M07 Q1009=
201012021520 METAR ESMX 021520Z 04009KT 360V060 9999 FEW010 SCT030 M05/M07 Q1010=
201012021450 METAR ESMX 021450Z 02008KT 9999 -SN SCT020 BKN036 M05/M07 Q1010=
201012021420 METAR ESMX 021420Z 03008KT 360V060 9999 -SN FEW010 BKN033 M05/M06 Q1010=
201012021350 METAR ESMX 021350Z 03007KT 9999 SG FEW012 SCT015 BKN017 M05/M06 Q1011=
201012021320 METAR ESMX 021320Z 04008KT 9999 -SN BKN013 BKN023 M05/M06 Q1011=
201012021250 METAR ESMX 021250Z 03010KT 9999 -SN FEW011 SCT015 BKN018 M05/M06 Q1012=
201012021150 METAR ESMX 021150Z 02013KT 350V050 8000 -SN SCT011 BKN015 BKN017 M05/M07 Q1013=
201012021120 METAR ESMX 021120Z 02012KT 350V060 9999 BKN013 BKN019 M05/M08 Q1014=
201012021050 METAR ESMX 021050Z 03014KT 010V080 9999 FEW014 SCT019 BKN021 M05/M08 Q1014=
201012021020 METAR ESMX 021020Z 03013KT 360V070 6000 -SN FEW016 BKN024 BKN035 M06/M08 Q1015=
201012020950 METAR ESMX 020950Z 03013KT 360V060 9999 -SN FEW018 SCT024 BKN030 M06/M07 Q1015=
201012020920 METAR ESMX 020920Z 03012KT 350V070 9999 SCT021 M06/M07 Q1016=
201012020850 METAR ESMX 020850Z 04010KT 9999 FEW008 BKN009 M06/M07 Q1017=
201012020750 METAR ESMX 020750Z 04010KT 020V090 9999 -SN SCT005 BKN020 M07/M08 Q1018=
201012020720 METAR ESMX 020720Z 02009KT 350V060 9999 -SN FEW015 SCT022 BKN026 M07/M08 Q1018=
201012020650 METAR ESMX 020650Z 04009KT 4900 -SN FEW005 BKN023 M07/M08 Q1018=
201012020620 METAR ESMX 020620Z 04008KT 6000 -SN FEW011 SCT027 BKN042 M07/M08 Q1019=
201012020550 METAR ESMX 020550Z 03007KT 9999 FEW004 SCT007 BKN023 M07/M08 Q1019=
201012020520 METAR ESMX 020520Z 03007KT 8000 -SN FEW008 SCT011 BKN019 M08/M09 Q1019=
201012020450 METAR ESMX 020450Z 03007KT 9999 FEW003 SCT021 OVC039 M08/M10 Q1020=
201012020420 METAR ESMX 020420Z AUTO 03007KT 9999NDV FEW012/// SCT016/// BKN027/// M08/M09 Q1020=
201012020350 METAR ESMX 020350Z AUTO 03006KT 9999NDV -SN FEW019/// SCT043/// BKN048/// M08/M09 Q1021=
201012020320 METAR ESMX 020320Z AUTO 03007KT 9999NDV -SN FEW007/// SCT023/// BKN028/// M08/M09 Q1021=
201012020250 METAR ESMX 020250Z AUTO 03008KT 9999NDV -SN FEW008/// SCT026/// BKN042/// M08/M10 Q1021=
201012020220 METAR ESMX 020220Z AUTO 03008KT 9999NDV -SN FEW013/// SCT024/// M08/M10 Q1022=
201012020150 METAR ESMX 020150Z AUTO 03006KT 9999NDV -SN FEW006/// SCT025/// BKN041/// M09/M10 Q1022=
201012020120 METAR ESMX 020120Z AUTO 03007KT 6000NDV -SN FEW010/// SCT032/// BKN038/// M09/M10 Q1022=
201012020050 METAR ESMX 020050Z 03006KT 9999 -SN FEW010 SCT019 BKN049 M09/M10 Q1023=
201012020020 METAR ESMX 020020Z 03005KT 9999 -SN FEW010 SCT024 BKN048 M09/M10 Q1023=
201012012350 METAR ESMX 012350Z 03006KT 9999 -SN FEW005 SCT020 BKN027 M09/M10 Q1023=
201012012320 METAR ESMX 012320Z 02006KT 9999 -SN FEW007 SCT022 BKN029 M09/M10 Q1023=
201012012250 METAR ESMX 012250Z 04006KT 9999 FEW005 SCT024 M09/M10 Q1023=
201012012220 METAR ESMX 012220Z 03006KT 9999 -SN FEW010 SCT021 BKN029 M10/M12 Q1023=
201012012150 METAR ESMX 012150Z 03006KT 9999 FEW007 SCT011 M10/M12 Q1023=
201012012120 METAR ESMX 012120Z 01004KT 9999 FEW007 SCT010 M11/M12 Q1024=
201012012050 METAR ESMX 012050Z 01005KT 9999 FEW011 M11/M13 Q1024=
201012012020 METAR ESMX 012020Z 02005KT 9999 FEW011 M11/M13 Q1024=
201012011950 METAR ESMX 011950Z 03005KT 9999 FEW030 M10/M12 Q1024=
201012011920 METAR ESMX 011920Z 02007KT 9999 FEW030 M10/M13 Q1024=
201012011850 METAR ESMX 011850Z 03006KT 9999 FEW030 M10/M13 Q1024=
201012011820 METAR ESMX 011820Z 03005KT 9999 FEW025 M10/M13 Q1024=
201012011750 METAR ESMX 011750Z 03005KT CAVOK M10/M13 Q1024=
201012011720 METAR ESMX 011720Z 02005KT CAVOK M10/M13 Q1024=
201012011650 METAR ESMX 011650Z 04004KT CAVOK M09/M13 Q1024=
201012011620 METAR ESMX 011620Z 03005KT CAVOK M09/M13 Q1024=
201012011550 METAR ESMX 011550Z 02005KT CAVOK M09/M12 Q1024=
201012011520 METAR ESMX 011520Z 04006KT CAVOK M08/M12 Q1024=
201012011450 METAR ESMX 011450Z 04005KT 9999 FEW012 SCT030 M08/M11 Q1024=
201012011420 METAR ESMX 011420Z 05007KT 020V080 9999 -SHSN FEW016 SCT024 M07/M11 Q1025=
201012011350 METAR ESMX 011350Z 04005KT 9999 FEW022 SCT030 M06/M12 Q1025=
201012011320 METAR ESMX 011320Z 05005KT 9999 FEW015 SCT021 M06/M12 Q1025=
201012011250 METAR ESMX 011250Z 04006KT 9999 SN FEW020 BKN028 M06/M12 Q1025=
201012011220 METAR ESMX 011220Z 03005KT 9999 FEW019 SCT026 M06/M12 Q1025=
