##########################################################
# Query made at 04/19/2024 21:15:07 UTC
# Time interval: from 03/01/2010 12:00  to 03/31/2010 12:59  UTC
##########################################################

##########################################################
# ESMX, Vaxjo (Sweden)
# WMO index: 02641. WIGOS ID: 0-20000-0-02648
# Latitude 56-51N. Longitude 014-50E. Altitude 199 m.
##########################################################

201003311250 METAR ESMX 311250Z 15006KT 090V210 9999 FEW025 13/07 Q0997=
201003311220 METAR ESMX 311220Z VRB03KT CAVOK 13/07 Q0997=
201003311150 METAR ESMX 311150Z 07006KT 030V120 CAVOK 13/07 Q0997=
201003311120 METAR ESMX 311120Z 07007KT 030V120 CAVOK 13/07 Q0997=
201003311050 METAR ESMX 311050Z 06007KT 020V110 CAVOK 12/07 Q0997=
201003311020 METAR ESMX 311020Z 06006KT 020V120 9999 FEW014 BKN020 11/07 Q0997=
201003310950 METAR ESMX 310950Z 08006KT 030V150 9999 FEW010 BKN015 10/06 Q0997=
201003310920 METAR ESMX 310920Z 05005KT 350V090 9999 FEW007 BKN010 09/06 Q0998=
201003310850 METAR ESMX 310850Z 07006KT 020V130 8000 BR OVC005 08/06 Q0998=
201003310820 METAR ESMX 310820Z 07005KT 040V130 6000 BR OVC004 07/06 Q0998=
201003310750 METAR ESMX 310750Z 06004KT 360V110 5000 BR OVC003 07/05 Q0998=
201003310720 METAR ESMX 310720Z 07004KT 020V150 5000 BR OVC003 06/05 Q0998=
201003310650 METAR ESMX 310650Z 07004KT 030V130 5000 BR OVC002 05/04 Q0998=
201003310620 METAR ESMX 310620Z 06005KT 010V120 5000 BR OVC003 05/04 Q0998=
201003310550 METAR ESMX 310550Z 06004KT 030V100 5000 BR OVC004 05/03 Q0998=
201003310520 METAR ESMX 310520Z 04003KT 360V080 5000 BR OVC003 04/03 Q0998=
201003310450 METAR ESMX 310450Z 05004KT 7000 BR OVC003 04/03 Q0998=
201003310420 METAR ESMX 310420Z 07005KT 8000 BR OVC006 04/03 Q0998=
201003310350 METAR ESMX 310350Z 06004KT 9000 BR OVC006 04/02 Q0998=
201003310320 METAR ESMX 310320Z 07005KT 040V120 9999 OVC006 04/02 Q0999=
201003310250 METAR ESMX 310250Z AUTO 09004KT 050V140 9999NDV OVC007/// 04/02 Q0999=
201003310220 METAR ESMX 310220Z AUTO 10005KT 060V140 9999NDV OVC007/// 04/02 Q0999=
201003310150 METAR ESMX 310150Z AUTO 10005KT 050V160 9999NDV OVC008/// 04/02 Q0999=
201003310120 METAR ESMX 310120Z AUTO 09005KT 050V130 9999NDV OVC008/// 04/02 Q1000=
201003310050 METAR ESMX 310050Z AUTO 10005KT 050V150 9999NDV OVC010/// 05/02 Q1000=
201003310020 METAR ESMX 310020Z AUTO 08004KT 020V120 9999NDV OVC011/// 04/02 Q1000=
201003302350 METAR ESMX 302350Z 05004KT 010V100 9999 BKN011 04/01 Q1000=
201003302320 METAR ESMX 302320Z 10004KT 050V150 9999 FEW011 SCT027 04/01 Q1000=
201003302250 METAR ESMX 302250Z 10005KT 060V160 9999 SCT025 04/01 Q1000=
201003302220 METAR ESMX 302220Z 10005KT 050V150 9999 FEW025 04/01 Q1001=
201003302150 METAR ESMX 302150Z 10006KT 050V150 9999 FEW024 03/00 Q1001=
201003302120 METAR ESMX 302120Z 09005KT 050V160 9999 SCT023 03/00 Q1001=
201003302050 METAR ESMX 302050Z 10005KT 040V140 CAVOK 03/00 Q1001=
201003302020 METAR ESMX 302020Z 10006KT 010V160 CAVOK 03/00 Q1002=
201003301950 METAR ESMX 301950Z 11006KT 060V150 CAVOK 04/00 Q1002=
201003301920 METAR ESMX 301920Z 12005KT 070V170 CAVOK 04/00 Q1002=
201003301850 METAR ESMX 301850Z 12005KT 070V170 CAVOK 05/00 Q1002=
201003301820 METAR ESMX 301820Z 11007KT 040V160 CAVOK 05/01 Q1002=
201003301750 METAR ESMX 301750Z 11006KT 060V160 CAVOK 06/01 Q1002=
201003301720 METAR ESMX 301720Z 12006KT 060V160 CAVOK 07/01 Q1002=
201003301650 METAR ESMX 301650Z 12005KT 040V170 CAVOK 08/01 Q1002=
201003301620 METAR ESMX 301620Z 13007KT 070V180 CAVOK 09/02 Q1002=
201003301550 METAR ESMX 301550Z 13007KT 080V180 9999 FEW035 10/01 Q1002=
201003301520 METAR ESMX 301520Z 14007KT 070V190 9999 FEW033 10/01 Q1002=
201003301450 METAR ESMX 301450Z 16007KT 120V200 9999 SCT034 10/01 Q1002=
201003301420 METAR ESMX 301420Z 16008KT 100V200 9999 FEW035 10/01 Q1002=
201003301350 METAR ESMX 301350Z 17008KT 140V210 9999 FEW036 10/01 Q1003=
201003301320 METAR ESMX 301320Z 16008KT 100V200 9999 FEW033 10/01 Q1003=
201003301250 METAR ESMX 301250Z 16007KT 120V200 9999 FEW030 09/01 Q1003=
201003301220 METAR ESMX 301220Z 16008KT 120V200 9999 FEW031 09/01 Q1003=
201003301150 METAR ESMX 301150Z 17008KT 140V200 9999 FEW029 08/01 Q1004=
201003301120 METAR ESMX 301120Z 18008KT 9999 FEW025 08/01 Q1004=
201003301050 METAR ESMX 301050Z 15007KT 100V210 9999 FEW025 08/01 Q1004=
201003301020 METAR ESMX 301020Z 15007KT 080V200 9999 FEW025 07/01 Q1004=
201003300950 METAR ESMX 300950Z 16006KT 100V200 9999 FEW023 07/01 Q1004=
201003300920 METAR ESMX 300920Z 16005KT 080V220 9999 FEW002 05/02 Q1004=
201003300850 METAR ESMX 300850Z VRB02KT 8000 BR FEW002 03/03 Q1005=
201003300820 METAR ESMX 300820Z VRB02KT 1600 BR VV002 01/01 Q1005=
201003300750 METAR ESMX 300750Z VRB02KT 3200 BR OVC002 01/01 Q1005=
201003300720 METAR ESMX 300720Z VRB02KT 0900 R01/1100N R19/1100VP2000U FZFG VV002 M00/M00 Q1005=
201003300650 METAR ESMX 300650Z VRB02KT 0700 R01/0900 R19/0900N FZFG VV002 M01/M01 Q1005=
201003300620 METAR ESMX 300620Z VRB02KT 0500 R01/0800V1800D R19/0700 FZFG VV002 M01/M01 Q1004=
201003300550 METAR ESMX 300550Z VRB01KT 0600 R01/0750 R19/0800V1300D BCFG VV001 M01/M02 Q1004=
201003300520 METAR ESMX 300520Z 00000KT 0900 R01/P2000N R19/0800 BCFG VV002 M02/M03 Q1004=
201003300450 METAR ESMX 300450Z 21001KT 0250 6000S R01/P2000N R19/0550V0800U BCFG VV002 M03/M03 Q1004=
201003300420 METAR ESMX 300420Z VRB01KT 0300 2500S R01/0900VP2000U R19/0450N=
201003300350 METAR ESMX 300350Z 19003KT 0400 R01/1100V1700U R19/0450N FZFG VV002 M01/M02 Q1004=
201003300320 METAR ESMX 300320Z 19002KT 0100 R01/0800 R19/0550N FZFG VV001 M01/M01 Q1004=
201003300250 METAR ESMX 300250Z AUTO 18003KT 0250NDV R01/0700 R19/P2000N FZFG VV000 M01/M01 Q1004=
201003300220 METAR ESMX 300220Z AUTO 19005KT 0350NDV R01/1900U R19/1200U FZFG VV000 M01/M01 Q1004=
201003300150 METAR ESMX 300150Z AUTO 19005KT 0250NDV R01/0900N R19/0750V1600D=
201003300120 METAR ESMX 300120Z AUTO 20004KT 1300NDV R01/P2000N R19/P2000N BR NCD M01/M01 Q1004=
201003300050 METAR ESMX 300050Z AUTO 21004KT 2200NDV BR NCD M01/M02 Q1004=
201003300020 METAR ESMX 300020Z AUTO 21004KT 3400NDV BR NCD M01/M01 Q1004=
201003292350 METAR ESMX 292350Z 20004KT 6000 BR NSC M00/M00 Q1004=
201003292320 METAR ESMX 292320Z 19004KT 8000 BR NSC M00/M01 Q1004=
201003292250 METAR ESMX 292250Z 19005KT 7000 BR NSC M00/M01 Q1004=
201003292220 METAR COR ESMX 292220Z 20005KT CAVOK 00/M00 Q1004=
201003292150 METAR ESMX 292150Z 21005KT CAVOK 01/00 Q1003=
201003292120 METAR ESMX 292120Z 20005KT CAVOK 01/00 Q1003=
201003292050 METAR ESMX 292050Z 20005KT CAVOK 02/01 Q1003=
201003292020 METAR ESMX 292020Z 21005KT 9999 FEW013 02/01 Q1003=
201003291950 METAR ESMX 291950Z 23005KT 9999 FEW013 SCT018 03/01 Q1003=
201003291920 METAR ESMX 291920Z 25007KT 210V290 9999 SCT013 BKN018 04/02 Q1002=
201003291850 METAR ESMX 291850Z 23006KT 9999 FEW013 BKN034 04/02 Q1002=
201003291820 METAR ESMX 291820Z 23006KT 190V260 9999 SCT012 OVC034 04/02 Q1002=
201003291750 METAR ESMX 291750Z 24007KT 200V290 9999 FEW012 SCT016 BKN018 05/02 Q1001=
201003291720 METAR ESMX 291720Z 25008KT 9999 FEW014 SCT016 BKN021 05/03 Q1001=
201003291650 METAR ESMX 291650Z 24009KT 9999 FEW014 SCT019 BKN027 05/03 Q1001 REDZ=
201003291620 METAR ESMX 291620Z 22009KT 190V250 9999 FEW015 SCT019 BKN023 05/03 Q1001=
201003291550 METAR ESMX 291550Z 24008KT 210V290 9999 FEW016 BKN022 BKN042 06/03 Q1000=
201003291520 METAR ESMX 291520Z 23008KT 200V260 9999 FEW015 SCT024 OVC029 06/03 Q1000=
201003291450 METAR ESMX 291450Z 24009KT 220V290 9999 FEW018 SCT025 BKN030 06/03 Q1000=
201003291420 METAR ESMX 291420Z 25010KT 210V280 9999 FEW013 SCT018 BKN020 06/04 Q0999=
201003291350 METAR ESMX 291350Z 22010KT 9999 SCT012 BKN016 OVC019 06/04 Q0999=
201003291320 METAR ESMX 291320Z 22010KT 9999 SCT011 BKN015 OVC019 06/04 Q0999=
201003291250 METAR ESMX 291250Z 25009KT 9999 SCT011 BKN017 OVC023 06/04 Q0999=
201003291220 METAR ESMX 291220Z 23010KT 190V260 9999 SCT014 BKN020 05/04 Q0999 RESHRA=
201003291150 METAR ESMX 291150Z 22011KT 180V250 9999 -RA FEW012 SCT017 BKN020 06/04 Q0998=
201003291120 METAR ESMX 291120Z 23009KT 200V270 9999 FEW010 SCT014 BKN017 05/04 Q0998=
201003291050 METAR ESMX 291050Z 22010KT 180V250 9999 SCT009 BKN015 06/04 Q0998=
201003291020 METAR ESMX 291020Z 21010KT 160V230 9999 BKN008 05/03 Q0998=
201003290950 METAR ESMX 290950Z 22009KT 9999 -RA SCT006 BKN010 04/03 Q0998=
201003290920 METAR ESMX 290920Z 19010KT 6000 -RA FEW007 BKN011 05/03 Q0998=
201003290850 METAR ESMX 290850Z 20008KT 9999 SCT008 BKN010 04/03 Q0998=
201003290820 METAR ESMX 290820Z 19010KT 5000 -RA FEW006 BKN009 04/03 Q0997=
201003290750 METAR ESMX 290750Z 19010KT 5000 BR BKN004 OVC008 04/03 Q0997=
201003290720 METAR ESMX 290720Z 19009KT 4000 BR OVC003 04/03 Q0997=
201003290650 METAR ESMX 290650Z 19010KT 3000 BR OVC003 03/03 Q0997=
201003290620 METAR ESMX 290620Z 18009KT 4000 BR OVC003 03/03 Q0997=
201003290550 METAR ESMX 290550Z 18010KT 7000 BR BKN005 03/02 Q0997=
201003290520 METAR ESMX 290520Z 18010KT 6000 -RA BKN005 03/02 Q0997=
201003290450 METAR ESMX 290450Z 18008KT 5000 -RA BKN005 03/02 Q0997=
201003290420 METAR ESMX 290420Z 18008KT 9999 -DZ BKN005 03/02 Q0997=
201003290350 METAR ESMX 290350Z 18007KT 4300 RA SCT004 BKN008 03/02 Q0997=
201003290320 METAR ESMX 290320Z AUTO 17008KT 6000NDV -RA ////// 03/02 Q0997 REDZ=
201003290250 METAR ESMX 290250Z AUTO 18008KT 8000NDV BR ////// 03/02 Q0998=
201003290220 METAR ESMX 290220Z AUTO 18007KT 7000NDV BR ////// 03/02 Q0998=
201003290150 METAR ESMX 290150Z AUTO 18008KT 6000NDV BR ////// 03/02 Q0998=
201003290120 METAR ESMX 290120Z AUTO 18007KT 6000NDV BR ////// 03/02 Q0998=
201003290050 METAR ESMX 290050Z AUTO 18007KT 6000NDV BR ////// 03/02 Q0998=
201003290020 METAR ESMX 290020Z AUTO 19006KT 6000NDV BR ////// 03/02 Q0998=
201003282350 METAR ESMX 282350Z 19007KT 8000 BR SCT002 BKN015 03/03 Q0998=
201003282320 METAR ESMX 282320Z 19007KT 8000 BR BKN005 03/03 Q0999=
201003282250 METAR ESMX 282250Z 19006KT 9000 BR BKN005 04/03 Q0999=
201003282220 METAR ESMX 282220Z 20007KT 9999 SCT005 BKN010 04/03 Q0999=
201003282150 METAR ESMX 282150Z 19006KT 9000 BKN008 04/03 Q0999=
201003282120 METAR ESMX 282120Z 20005KT 9999 FEW004 BKN010 04/03 Q0999=
201003282050 METAR ESMX 282050Z 22008KT 200V260 6000 BR FEW004 BKN010 04/03 Q0999=
201003282020 METAR ESMX 282020Z 20006KT 9999 BKN012 04/03 Q0999 REDZ=
201003281950 METAR ESMX 281950Z 19007KT 9999 BKN013 04/03 Q0999=
201003281920 METAR ESMX 281920Z 18006KT 9999 SCT010 BKN025 04/03 Q0999=
201003281850 METAR ESMX 281850Z 18005KT 9999 SCT010 BKN030 04/03 Q0999=
201003281820 METAR ESMX 281820Z 19007KT 9999 SCT010 BKN030 05/03 Q0999=
201003281750 METAR ESMX 281750Z 19004KT 9999 SCT010 BKN060 05/03 Q0998=
201003281720 METAR ESMX 281720Z 22006KT 9999 SCT012 BKN060 05/03 Q0998=
201003281650 METAR ESMX 281650Z 22005KT 9999 SCT012 BKN060 05/03 Q0998=
201003281550 METAR ESMX 281550Z 21008KT 9999 VCSH SCT010 BKN070 05/03 Q0998=
201003281520 METAR ESMX 281520Z 23007KT 9999 SCT012 BKN060 06/03 Q0998=
201003281450 METAR ESMX 281450Z 23008KT 200V260 9999 SCT013 BKN060 06/03 Q0998=
201003281420 METAR ESMX 281420Z 22010KT 190V250 9999 -SHRA SCT015 BKN060 06/03 Q0998=
201003281350 METAR ESMX 281350Z 23010KT 200V270 9999 SCT020 BKN065 07/02 Q0998=
201003281320 METAR ESMX 281320Z 25010KT 210V280 9999 FEW023 BKN065 07/02 Q0998=
201003281250 METAR COR ESMX 281250Z 25012KT 210V280 9999 SCT023 BKN065 07/02 Q0998=
201003281220 METAR ESMX 281220Z 24011KT 210V280 9999 SCT025 BKN065 07/02 Q0998=
201003281150 METAR ESMX 281150Z AUTO 25012KT 220V290 9999NDV ////// 08/02 Q0998=
201003281120 METAR ESMX 281120Z AUTO 25009KT 210V290 9999NDV ////// 07/03 Q0998=
201003281050 METAR ESMX 281050Z AUTO 24008KT 200V270 9999NDV ////// 06/04 Q0998=
201003281020 METAR ESMX 281020Z AUTO 25008KT 220V280 9999NDV ////// 05/03 Q0998=
201003280950 METAR ESMX 280950Z AUTO 24008KT 190V290 8000NDV ////// 05/03 Q0998 REDZ=
201003280920 METAR ESMX 280920Z AUTO 26007KT 220V290 9999NDV ////// 05/03 Q0998=
201003280850 METAR ESMX 280850Z AUTO 23012KT 9999NDV ////// 04/03 Q0998=
201003280820 METAR ESMX 280820Z AUTO 24008KT 210V280 9999NDV ////// 04/03 Q0997=
201003280750 METAR ESMX 280750Z AUTO 25009KT 9999NDV BR ////// 04/03 Q0997=
201003280720 METAR ESMX 280720Z AUTO 26008KT 220V290 6000NDV BR ////// 04/03 Q0997=
201003280650 METAR ESMX 280650Z AUTO 25007KT 1800NDV BR ////// 04/03 Q0997=
201003280620 METAR ESMX 280620Z AUTO 26007KT 3900NDV BR ////// 04/03 Q0997=
201003280550 METAR ESMX 280550Z AUTO 27007KT 4600NDV BR ////// 04/03 Q0996=
201003280520 METAR ESMX 280520Z AUTO 27008KT 8000NDV BR ////// 04/03 Q0996=
201003280450 METAR ESMX 280450Z AUTO 27008KT 5000NDV BR ////// 04/03 Q0996=
201003280420 METAR ESMX 280420Z AUTO 26009KT 210V300 5000NDV BR ////// 04/03 Q0996=
201003280350 METAR ESMX 280350Z AUTO 27011KT 1700NDV ////// 04/03 Q0995=
201003280320 METAR ESMX 280320Z AUTO 27009KT 240V300 1500NDV ////// 04/03 Q0995=
201003280250 METAR ESMX 280250Z AUTO 26009KT 220V290 1000NDV R01/P2000N R19/P2000N FG ////// 04/03 Q0995=
201003280220 METAR ESMX 280220Z AUTO 26009KT 1800NDV BR ////// 04/03 Q0994=
201003280150 METAR ESMX 280150Z AUTO 27011KT 3000NDV BR ////// 04/03 Q0994=
201003280120 METAR ESMX 280120Z AUTO 27010KT 7000NDV BR ////// 04/03 Q0994=
201003280050 METAR ESMX 280050Z AUTO 27009KT 9999NDV ////// 03/02 Q0994=
201003280020 METAR ESMX 280020Z AUTO 27011KT 9999NDV ////// 03/02 Q0994=
201003272350 METAR ESMX 272350Z AUTO 27009KT 240V310 9999NDV ////// 03/02 Q0994=
201003272320 METAR ESMX 272320Z AUTO 29011KT 9999NDV ////// 04/02 Q0993=
201003272250 METAR ESMX 272250Z AUTO 29011KT 260V330 9999NDV ////// 03/02 Q0993=
201003272220 METAR ESMX 272220Z AUTO 29011KT 260V320 9999NDV ////// 03/02 Q0994=
201003272150 METAR ESMX 272150Z AUTO 29011KT 260V320 9999NDV ////// 03/01 Q0993=
201003272120 METAR ESMX 272120Z AUTO 29011KT 250V320 9999NDV ////// 02/01 Q0993=
201003272050 METAR ESMX 272050Z AUTO 29013KT 250V320 9999NDV ////// 02/01 Q0993=
201003272020 METAR ESMX 272020Z AUTO 27010KT 220V300 9999NDV BR ////// 03/02 Q0993=
201003271950 METAR ESMX 271950Z AUTO 28011KT 250V310 3800NDV BR ////// 03/02 Q0993=
201003271920 METAR ESMX 271920Z AUTO 28009KT 250V320 2900NDV BR ////// 03/02 Q0993=
201003271850 METAR ESMX 271850Z AUTO 29009KT 250V320 7000NDV BR ////// 03/02 Q0993=
201003271820 METAR ESMX 271820Z AUTO 30009KT 270V330 9999NDV ////// 04/03 Q0993=
201003271750 METAR ESMX 271750Z AUTO 29008KT 260V330 9999NDV ////// 04/03 Q0993=
201003271720 METAR ESMX 271720Z AUTO 30010KT 9999NDV -RA ////// 04/03 Q0992=
201003271650 METAR ESMX 271650Z AUTO 31009KT 280V350 9999NDV -RA ////// 04/03 Q0992=
201003271620 METAR ESMX 271620Z AUTO 29011KT 5000NDV RA ////// 04/03 Q0991=
201003271550 METAR ESMX 271550Z AUTO 31011KT 280V350 9999NDV -RA ////// 05/04 Q0991=
201003271520 METAR ESMX 271520Z AUTO 31013KT 6000NDV -RA OVC005/// 05/04 Q0991 REDZ=
201003271450 METAR ESMX 271450Z AUTO 30013KT 9999NDV OVC006/// 06/04 Q0991=
201003271420 METAR ESMX 271420Z AUTO 31011KT 270V340 9000NDV BR OVC006/// 07/05 Q0991=
201003271350 METAR ESMX 271350Z 31013KT 280V340 8000 BR OVC006 07/05 Q0991=
201003271320 METAR ESMX 271320Z 28011KT 5000 BR FEW006 BKN008 08/06 Q0991=
201003271250 METAR ESMX 271250Z 29011KT 8000 BR SCT009 BKN100 09/06 Q0991=
201003271220 METAR ESMX 271220Z 29012KT 260V340 8000 BR BKN100 10/07 Q0991=
201003271150 METAR ESMX 271150Z 29011KT 270V010 CAVOK 10/07 Q0992=
201003271120 METAR ESMX 271120Z 28009KT CAVOK 13/08 Q0992=
201003271020 METAR ESMX 271020Z 01006KT 9000 BR BKN100 13/07 Q0992=
201003270950 METAR ESMX 270950Z 36004KT 320V030 CAVOK 11/07 Q0993=
201003270920 METAR ESMX 270920Z 34004KT CAVOK 11/06 Q0993=
201003270850 METAR ESMX 270850Z VRB02KT CAVOK 11/06 Q0993=
201003270820 METAR ESMX 270820Z 03006KT CAVOK 10/06 Q0993=
201003270750 METAR ESMX 270750Z 02007KT 350V060 9999 BR BKN090 11/06 Q0993=
201003270720 METAR ESMX 270720Z 03007KT 9000 BR BKN100 09/06 Q0994=
201003270650 METAR ESMX 270650Z AUTO 02006KT 6000NDV BR NCD 09/06 Q0994=
201003270620 METAR ESMX 270620Z AUTO 01003KT 5000NDV BR FEW082/// SCT095/// 08/06 Q0995=
201003270550 METAR ESMX 270550Z AUTO 34005KT 3600NDV BR FEW100/// 06/05 Q0995=
201003270520 METAR ESMX 270520Z AUTO 36003KT 330V030 2300NDV BR FEW059/// 06/05 Q0995=
201003270450 METAR ESMX 270450Z AUTO 35003KT 3800NDV BR FEW055/// SCT069/// 06/05 Q0995=
201003270420 METAR ESMX 270420Z AUTO VRB02KT 4000NDV BR BKN056/// 06/05 Q0996=
201003270350 METAR ESMX 270350Z AUTO 25007KT 3100NDV BR FEW058/// BKN099/// 05/05 Q0996=
201003270320 METAR ESMX 270320Z AUTO 01002KT 1600NDV BR SCT110/// 04/03 Q0996=
201003270250 METAR ESMX 270250Z AUTO 01003KT 2500NDV BR FEW061/// BKN098/// 04/03 Q0996=
201003270220 METAR ESMX 270220Z AUTO 31003KT 270V080 4100NDV BR BKN061/// 05/04 Q0997=
201003270150 METAR ESMX 270150Z AUTO VRB02KT 3500NDV -RA FEW076/// BKN090/// 04/03 Q0997=
201003270120 METAR ESMX 270120Z AUTO VRB02KT 4700NDV BR BKN091/// 05/04 Q0997=
201003270050 METAR ESMX 270050Z AUTO 07004KT 020V120 5000NDV BR SCT081/// 05/05 Q0998=
201003270020 METAR ESMX 270020Z AUTO 01002KT 4300NDV BR SCT079/// BKN100/// 04/03 Q0999=
201003262350 METAR ESMX 262350Z AUTO 34003KT 6000NDV BR FEW089/// SCT110/// 04/03 Q0999=
201003262320 METAR ESMX 262320Z AUTO 36002KT 6000NDV BR NCD 04/02 Q0999=
201003262250 METAR ESMX 262250Z AUTO 01001KT 4900NDV BR FEW064/// 05/03 Q1000=
201003262220 METAR ESMX 262220Z AUTO 23002KT 7000NDV BR FEW065/// SCT080/// 06/03 Q1000=
201003262150 METAR ESMX 262150Z AUTO VRB01KT 8000NDV BR BKN061/// 09/06 Q1001=
201003262120 METAR ESMX 262120Z AUTO 16003KT 110V190 8000NDV BR SCT073/// BKN098/// 09/05 Q1001=
201003262050 METAR ESMX 262050Z 16003KT 120V190 9000 BR FEW077 BKN096 08/05 Q1001=
201003262020 METAR ESMX 262020Z VRB01KT 9000 BR BKN094 07/05 Q1002=
201003261950 METAR ESMX 261950Z 16003KT 9000 BR BKN090 08/05 Q1002=
201003261920 METAR ESMX 261920Z 17004KT CAVOK 09/05 Q1002=
201003261850 METAR ESMX 261850Z 17003KT CAVOK 09/06 Q1002=
201003261820 METAR ESMX 261820Z 17003KT CAVOK 09/06 Q1002=
201003261750 METAR ESMX 261750Z 17003KT CAVOK 10/06 Q1002=
201003261720 METAR ESMX 261720Z 15004KT CAVOK 14/06 Q1002=
201003261650 METAR ESMX 261650Z 15004KT CAVOK 14/07 Q1002=
201003261620 METAR ESMX 261620Z 14003KT 110V200 CAVOK 15/07 Q1002=
201003261550 METAR ESMX 261550Z 15004KT 100V190 CAVOK 15/06 Q1003=
201003261520 METAR ESMX 261520Z 18005KT 150V220 CAVOK 16/07 Q1003=
201003261450 METAR ESMX 261450Z 17006KT CAVOK 16/06 Q1003=
201003261350 METAR ESMX 261350Z 16009KT 130V190 CAVOK 17/07 Q1003=
201003261320 METAR ESMX 261320Z 17008KT CAVOK 17/06 Q1004=
201003261250 METAR ESMX 261250Z 17011KT CAVOK 17/07 Q1004=
201003261220 METAR ESMX 261220Z 16009KT 110V200 CAVOK 17/06 Q1004=
201003261150 METAR ESMX 261150Z 15009KT 120V190 CAVOK 15/06 Q1005=
201003261120 METAR ESMX 261120Z 16009KT 110V190 CAVOK 16/06 Q1005=
201003261050 METAR ESMX 261050Z 16007KT CAVOK 16/06 Q1005=
201003261020 METAR ESMX 261020Z 17007KT 140V210 CAVOK 15/06 Q1005=
201003260950 METAR ESMX 260950Z 17005KT 120V210 CAVOK 15/06 Q1005=
201003260920 METAR ESMX 260920Z 12005KT 080V170 CAVOK 13/06 Q1005=
201003260850 METAR ESMX 260850Z 15004KT 100V210 CAVOK 11/05 Q1006=
201003260820 METAR ESMX 260820Z 14003KT 090V190 CAVOK 09/05 Q1006=
201003260750 METAR ESMX 260750Z VRB02KT 8000 BR NSC 08/04 Q1006=
201003260720 METAR ESMX 260720Z VRB01KT 8000 BR NSC 05/04 Q1006=
201003260650 METAR ESMX 260650Z 35002KT 5000 BR NSC 02/01 Q1007=
201003260620 METAR ESMX 260620Z 36002KT 5000 BR NSC 00/00 Q1007=
201003260550 METAR ESMX 260550Z VRB01KT 4000 BR NSC M01/M02 Q1007=
201003260520 METAR ESMX 260520Z 04001KT 3000 BR NSC M01/M02 Q1007=
201003260450 METAR ESMX 260450Z VRB01KT 3500 BR NSC M02/M02 Q1007=
201003260420 METAR ESMX 260420Z AUTO 34001KT 1400NDV R01/P2000N R19/P2000N BR NCD M01/M02 Q1007=
201003260350 METAR ESMX 260350Z AUTO VRB01KT 1600NDV BR NCD M01/M01 Q1007=
201003260320 METAR ESMX 260320Z AUTO 36001KT 1400NDV R01/P2000N R19/P2000N BR NCD M01/M02 Q1008=
201003260250 METAR ESMX 260250Z AUTO 01002KT 0700NDV R01/P2000N R19/P2000D BR NCD M01/M01 Q1008=
201003260220 METAR ESMX 260220Z AUTO 02001KT 0500NDV R01/P2000N R19/0800VP2000N BR NCD M01/M01 Q1008=
201003260150 METAR ESMX 260150Z AUTO 01001KT 1300NDV R01/P2000N R19/P2000N BR NCD M01/M01 Q1008=
201003260120 METAR ESMX 260120Z AUTO 34001KT 2400NDV BR NCD M00/M01 Q1009=
201003260050 METAR ESMX 260050Z AUTO 36002KT 4200NDV BR NCD 00/M00 Q1009=
201003260020 METAR ESMX 260020Z 01002KT 3900 BR FEW045 01/M00 Q1009=
201003252350 METAR ESMX 252350Z 35003KT 330V050 5000 BR FEW045 01/M01 Q1009=
201003252320 METAR ESMX 252320Z 06003KT 5000 BR FEW045 01/M00 Q1009=
201003252250 METAR ESMX 252250Z 02002KT 6000 BR FEW045 01/M00 Q1010=
201003252220 METAR ESMX 252220Z 01003KT 6000 BR FEW045 01/M00 Q1010=
201003252150 METAR ESMX 252150Z 06003KT 9000 BR FEW048 01/M00 Q1010=
201003252120 METAR ESMX 252120Z 07003KT CAVOK 03/01 Q1010=
201003252050 METAR ESMX 252050Z 08003KT 050V120 CAVOK 03/01 Q1011=
201003252020 METAR ESMX 252020Z 08004KT CAVOK 04/01 Q1011=
201003251950 METAR ESMX 251950Z 08004KT 040V130 CAVOK 04/01 Q1011=
201003251920 METAR ESMX 251920Z 09005KT 050V130 CAVOK 05/01 Q1012=
201003251850 METAR ESMX 251850Z 10005KT 060V140 CAVOK 06/01 Q1012=
201003251820 METAR ESMX 251820Z 07004KT 030V130 CAVOK 06/01 Q1012=
201003251750 METAR ESMX 251750Z 12003KT 090V170 CAVOK 08/01 Q1012=
201003251720 METAR ESMX 251720Z 09004KT 050V150 CAVOK 09/02 Q1012=
201003251650 METAR ESMX 251650Z 12005KT 070V160 CAVOK 11/02 Q1011=
201003251620 METAR ESMX 251620Z 11005KT 050V170 CAVOK 12/02 Q1012=
201003251550 METAR ESMX 251550Z 10005KT 050V160 CAVOK 12/02 Q1012=
201003251520 METAR ESMX 251520Z 12006KT 040V160 CAVOK 13/02 Q1012=
201003251450 METAR ESMX 251450Z 14006KT 100V190 CAVOK 13/02 Q1012=
201003251420 METAR ESMX 251420Z 10006KT 050V160 CAVOK 13/02 Q1012=
201003251350 METAR ESMX 251350Z 13006KT 080V170 CAVOK 12/02 Q1013=
201003251320 METAR ESMX 251320Z 13006KT 080V190 CAVOK 12/02 Q1013=
201003251250 METAR ESMX 251250Z 13007KT 080V200 CAVOK 11/03 Q1013=
201003251220 METAR ESMX 251220Z 13007KT 070V170 CAVOK 11/02 Q1014=
201003251150 METAR ESMX 251150Z 13007KT 100V160 CAVOK 11/02 Q1014=
201003251120 METAR ESMX 251120Z 12006KT 060V170 CAVOK 10/02 Q1014=
201003251050 METAR ESMX 251050Z 12006KT 070V160 CAVOK 10/02 Q1014=
201003251020 METAR ESMX 251020Z 12005KT 080V190 CAVOK 09/02 Q1015=
201003250950 METAR ESMX 250950Z 12006KT 080V180 CAVOK 08/02 Q1015=
201003250920 METAR ESMX 250920Z 12005KT 070V170 CAVOK 06/02 Q1015=
201003250850 METAR ESMX 250850Z 12006KT 070V160 CAVOK 06/02 Q1016=
201003250820 METAR ESMX 250820Z 10004KT 070V150 CAVOK 05/02 Q1016=
201003250750 METAR ESMX 250750Z 10004KT 050V150 9999 FEW006 03/01 Q1016=
201003250720 METAR ESMX 250720Z 10004KT 050V150 9999 BR BKN004 03/01 Q1016=
201003250650 METAR ESMX 250650Z VRB02KT 8000 BR OVC003 02/01 Q1016=
201003250620 METAR ESMX 250620Z 10004KT 050V160 7000 BR BKN002 OVC003 01/00 Q1016=
201003250550 METAR ESMX 250550Z 10004KT 050V160 6000 BR OVC002 01/00 Q1016=
201003250520 METAR ESMX 250520Z 09003KT 030V150 5000 BR OVC003 01/00 Q1016=
201003250450 METAR ESMX 250450Z 09004KT 050V140 5000 BR OVC002 01/00 Q1016=
201003250420 METAR ESMX 250420Z AUTO 10003KT 030V190 3300NDV BR OVC001/// 01/00 Q1016=
201003250350 METAR ESMX 250350Z AUTO 12004KT 060V170 2100NDV BR OVC001/// 01/00 Q1016=
201003250320 METAR ESMX 250320Z AUTO 12004KT 050V190 1700NDV BR OVC001/// 01/00 Q1016=
201003250250 METAR ESMX 250250Z AUTO 11004KT 070V190 2200NDV BR OVC001/// 01/00 Q1017=
201003250220 METAR ESMX 250220Z AUTO 11004KT 060V170 2300NDV BR OVC001/// 01/00 Q1017=
201003250150 METAR ESMX 250150Z AUTO 10003KT 020V150 3700NDV BR OVC001/// 01/00 Q1017=
201003250120 METAR ESMX 250120Z AUTO 12004KT 050V170 8000NDV BR OVC002/// 01/M00 Q1017=
201003250050 METAR ESMX 250050Z 12003KT 070V180 9999 OVC003 01/M00 Q1018=
201003250020 METAR ESMX 250020Z 14006KT 090V170 9999 BKN005 01/M00 Q1018=
201003242350 METAR ESMX 242350Z 13005KT 080V170 9999 FEW005 01/M01 Q1018=
201003242320 METAR ESMX 242320Z 12003KT 070V170 CAVOK 01/M00 Q1018=
201003242250 METAR ESMX 242250Z 12003KT 060V170 CAVOK 01/M00 Q1018=
201003242220 METAR ESMX 242220Z 13005KT 100V170 CAVOK 01/M00 Q1018=
201003242150 METAR ESMX 242150Z 14005KT 090V170 CAVOK 02/00 Q1018=
201003242120 METAR ESMX 242120Z 14005KT 090V170 CAVOK 02/00 Q1018=
201003242050 METAR ESMX 242050Z 14004KT 100V170 CAVOK 02/00 Q1018=
201003242020 METAR ESMX 242020Z 14003KT 080V170 CAVOK 03/01 Q1018=
201003241950 METAR ESMX 241950Z 14004KT 110V170 CAVOK 03/01 Q1018=
201003241920 METAR ESMX 241920Z 14005KT 110V170 CAVOK 04/01 Q1018=
201003241850 METAR ESMX 241850Z 15005KT CAVOK 04/01 Q1018=
201003241820 METAR ESMX 241820Z 15005KT CAVOK 04/01 Q1018=
201003241750 METAR ESMX 241750Z 15005KT CAVOK 05/01 Q1018=
201003241720 METAR ESMX 241720Z 16004KT CAVOK 06/01 Q1018=
201003241650 METAR ESMX 241650Z 15004KT 120V190 CAVOK 07/02 Q1018=
201003241620 METAR ESMX 241620Z 17004KT 140V200 CAVOK 08/02 Q1018=
201003241550 METAR ESMX 241550Z 18004KT 140V220 CAVOK 09/02 Q1018=
201003241520 METAR ESMX 241520Z 16003KT 090V220 CAVOK 09/02 Q1018=
201003241450 METAR ESMX 241450Z 16004KT 120V200 CAVOK 09/02 Q1018=
201003241420 METAR ESMX 241420Z 16005KT CAVOK 08/02 Q1018=
201003241350 METAR ESMX 241350Z 17005KT 140V200 CAVOK 08/02 Q1018=
201003241320 METAR ESMX 241320Z 18006KT CAVOK 07/02 Q1018=
201003241250 METAR ESMX 241250Z 15005KT 110V200 9999 FEW025 07/02 Q1018=
201003241220 METAR ESMX 241220Z 16005KT 110V210 9999 FEW020 07/02 Q1018=
201003241150 METAR ESMX 241150Z 14004KT 080V190 9999 FEW012 07/02 Q1019=
201003241120 METAR ESMX 241120Z 16004KT 9999 SCT011 BKN130 06/02 Q1019=
201003241050 METAR ESMX 241050Z 17004KT 120V200 9999 SCT009 BKN110 05/02 Q1018=
201003241020 METAR ESMX 241020Z 15004KT 100V210 9999 FEW007 BKN009 04/02 Q1018=
201003240950 METAR ESMX 240950Z 14003KT 070V200 9999 OVC006 04/02 Q1018=
201003240850 METAR ESMX 240850Z VRB02KT 9999 OVC005 03/02 Q1018=
201003240820 METAR ESMX 240820Z VRB02KT 9999 OVC004 03/01 Q1018=
201003240750 METAR ESMX 240750Z 27005KT 240V300 9999 OVC004 03/01 Q1018=
201003240720 METAR ESMX 240720Z 27005KT 240V320 9999 OVC003 02/01 Q1018=
201003240650 METAR ESMX 240650Z 28005KT 240V320 9999 OVC003 02/01 Q1018=
201003240620 METAR ESMX 240620Z 28005KT 230V320 9999 OVC003 02/01 Q1017=
201003240550 METAR ESMX 240550Z 31004KT 9999 OVC004 02/01 Q1017=
201003240520 METAR ESMX 240520Z 28003KT 250V320 9999 OVC005 02/01 Q1017=
201003240450 METAR ESMX 240450Z 26005KT 220V300 9999 OVC005 02/01 Q1016=
201003240420 METAR ESMX 240420Z AUTO 25005KT 210V300 9999NDV BR OVC004/// 02/01 Q1016=
201003240350 METAR ESMX 240350Z AUTO 27005KT 9000NDV BR OVC004/// 02/01 Q1016=
201003240320 METAR ESMX 240320Z AUTO 26004KT 210V300 9000NDV BR OVC003/// 02/01 Q1016=
201003240250 METAR ESMX 240250Z AUTO 27005KT 9000NDV BR OVC003/// 02/01 Q1015=
201003240220 METAR ESMX 240220Z AUTO 29003KT 230V340 8000NDV BR OVC003/// 02/01 Q1015=
201003240150 METAR ESMX 240150Z AUTO 26007KT 7000NDV BR OVC004/// 02/01 Q1015=
201003240120 METAR ESMX 240120Z AUTO 28005KT 8000NDV BR OVC005/// 02/01 Q1014=
201003240050 METAR ESMX 240050Z 27004KT 9000 BR OVC005 02/01 Q1014=
201003232350 METAR ESMX 232350Z 30005KT 260V330 9999 FEW007 BKN008 03/02 Q1013=
201003232320 METAR ESMX 232320Z 30004KT 260V330 9999 BKN007 OVC010 03/02 Q1013=
201003232220 METAR ESMX 232220Z 28008KT 240V310 9999 BKN009 04/02 Q1012=
201003232120 METAR ESMX 232120Z 28009KT 9999 BKN012 04/02 Q1012=
201003232050 METAR ESMX 232050Z 28009KT 9999 BKN012 OVC048 04/02 Q1011=
201003232020 METAR ESMX 232020Z 26008KT 230V300 9999 BKN013 OVC050 04/02 Q1011=
201003231950 METAR ESMX 231950Z 27011KT 240V300 9999 SCT013 BKN050 04/02 Q1010=
201003231850 METAR ESMX 231850Z 28012KT 9999 SCT014 BKN044 05/02 Q1010=
201003231820 METAR ESMX 231820Z 27012KT 9999 BKN014 OVC047 05/02 Q1009=
201003231750 METAR ESMX 231750Z 27012KT 9999 BKN014 05/02 Q1009=
201003231720 METAR ESMX 231720Z 27012KT 9999 FEW014 BKN017 BKN021 05/03 Q1008=
201003231650 METAR ESMX 231650Z 27013KT 240V300 9999 -RA FEW013 BKN015 OVC021 05/03 Q1007=
201003231620 METAR ESMX 231620Z 26015G26KT 9999 -RA FEW012 OVC016 05/03 Q1007=
201003231550 METAR ESMX 231550Z 26013KT 240V310 9999 -RA FEW010 OVC013 05/03 Q1007=
201003231520 METAR ESMX 231520Z 23013KT 9999 -RA SCT008 OVC015 05/03 Q1007=
201003231450 METAR ESMX 231450Z 23010KT 200V270 9999 -RA SCT007 OVC010 04/03 Q1007=
201003231420 METAR ESMX 231420Z 23011KT 160V250 9999 -RA FEW007 OVC009 04/03 Q1007=
201003231350 METAR ESMX 231350Z 23011KT 200V280 9999 -DZ FEW008 OVC010 04/03 Q1007=
201003231320 METAR ESMX 231320Z 24012KT 190V270 9999 -DZ FEW008 BKN011 OVC015 04/03 Q1007=
201003231250 METAR ESMX 231250Z 23013KT 9999 -RA FEW007 OVC009 04/03 Q1007=
201003231220 METAR ESMX 231220Z 25011KT 210V280 9999 DZ BKN006 OVC010 04/03 Q1007=
201003231150 METAR ESMX 231150Z 23014KT 7000 -RA BKN006 OVC010 04/03 Q1007=
201003231120 METAR ESMX 231120Z 23012KT 9000 -RA BR SCT005 OVC008 05/03 Q1008=
201003231050 METAR ESMX 231050Z 24010KT 210V270 5000 BR SCT004 OVC006 04/03 Q1008=
201003231020 METAR ESMX 231020Z 22011KT 190V290 4000 BR OVC005 04/03 Q1008=
201003230950 METAR ESMX 230950Z 20010KT 3000 DZ OVC005 04/03 Q1008=
201003230850 METAR ESMX 230850Z 16007KT 3000 DZ FEW005 SCT020 BKN028 03/02 Q1009=
201003230820 METAR ESMX 230820Z 18007KT 4000 -RA FEW009 SCT012 BKN019 03/02 Q1009=
201003230750 METAR ESMX 230750Z 16006KT 140V200 4000 -RA FEW015 SCT025 BKN035 03/02 Q1009=
201003230720 METAR ESMX 230720Z 16007KT 130V210 6000 DZ FEW030 BKN045 03/01 Q1010=
201003230650 METAR ESMX 230650Z 16006KT 100V180 5000 BR FEW020 BKN045 03/01 Q1010=
201003230620 METAR ESMX 230620Z 17006KT 6000 BR FEW020 BKN045 02/01 Q1011=
201003230550 METAR ESMX 230550Z 16005KT 6000 BR FEW046 OVC053 02/01 Q1011=
201003230450 METAR ESMX 230450Z 17006KT 8000 BR SCT035 SCT051 02/01 Q1012=
201003230420 METAR ESMX 230420Z AUTO 18006KT 7000NDV BR OVC031/// 02/01 Q1012=
201003230350 METAR ESMX 230350Z AUTO 17007KT 8000NDV BR OVC031/// 02/01 Q1012=
201003230320 METAR ESMX 230320Z AUTO 18006KT 7000NDV BR OVC032/// 02/01 Q1013=
201003230250 METAR ESMX 230250Z AUTO 20004KT 4900NDV BR FEW036/// OVC050/// 02/01 Q1013=
201003230220 METAR ESMX 230220Z AUTO 16004KT 4400NDV BR FEW003/// OVC049/// 02/01 Q1014=
201003230150 METAR ESMX 230150Z AUTO 17004KT 3500NDV BR FEW036/// OVC053/// 02/01 Q1014=
201003230120 METAR ESMX 230120Z AUTO 18004KT 2700NDV BR SCT003/// BKN035/// BKN057/// 02/01 Q1015=
201003230050 METAR ESMX 230050Z 17005KT 4000 BR OVC003 02/01 Q1015=
201003230020 METAR ESMX 230020Z 19005KT 5000 BR OVC004 02/01 Q1016=
201003222320 METAR ESMX 222320Z 19006KT 7000 BR SCT006 SCT055 02/01 Q1016=
201003222150 METAR ESMX 222150Z 18007KT 9999 SCT032 OVC055 03/01 Q1017=
201003222120 METAR ESMX 222120Z 18007KT 9999 FEW024 SCT030 OVC071 03/01 Q1017=
201003222050 METAR ESMX 222050Z 18005KT 9999 FEW020 BKN025 03/01 Q1017=
201003222020 METAR ESMX 222020Z 17005KT 9999 BKN019 03/01 Q1018=
201003221950 METAR ESMX 221950Z 18005KT 9999 FEW018 BKN036 03/01 Q1018=
201003221920 METAR ESMX 221920Z 18004KT 9999 BKN029 02/02 Q1018=
201003221850 METAR ESMX 221850Z 17004KT 9999 FEW004 BKN025 02/02 Q1018=
201003221820 METAR ESMX 221820Z 18005KT 5000 BR SCT015 OVC020 02/02 Q1018=
201003221750 METAR ESMX 221750Z 18005KT 5000 BR FEW009 SCT012 OVC022 03/01 Q1018=
201003221720 METAR ESMX 221720Z 19004KT 9999 BKN010 OVC025 02/01 Q1018=
201003221650 METAR ESMX 221650Z 19004KT 9999 FEW005 OVC015 02/01 Q1018=
201003221620 METAR ESMX 221620Z 21004KT 9999 OVC005 02/02 Q1018=
201003221550 METAR ESMX 221550Z 21005KT 6000 BR OVC008 02/01 Q1018=
201003221520 METAR ESMX 221520Z 21005KT 9999 BKN007 OVC010 03/01 Q1019=
201003221450 METAR ESMX 221450Z 21006KT 9999 BKN011 03/01 Q1019=
201003221420 METAR ESMX 221420Z 21007KT 9999 FEW013 BKN020 03/01 Q1019=
201003221350 METAR ESMX 221350Z 25008KT 9999 -DZ SCT016 BKN024 03/00 Q1019=
201003221320 METAR ESMX 221320Z 23006KT 180V290 9999 SCT014 BKN020 04/M00 Q1019=
201003221250 METAR ESMX 221250Z 21006KT 180V250 9999 BKN015 03/M01 Q1019=
201003221220 METAR ESMX 221220Z 22006KT 180V290 9999 BKN016 OVC022 03/M01 Q1019=
201003221150 METAR ESMX 221150Z 22007KT 9999 BKN020 03/M01 Q1019=
201003221120 METAR ESMX 221120Z 20006KT 170V250 9999 BKN020 03/M02 Q1019=
201003221050 METAR ESMX 221050Z 20006KT 9999 SCT026 BKN052 02/M03 Q1019=
201003221020 METAR ESMX 221020Z 21007KT 9999 SCT027 BKN053 02/M03 Q1019=
201003220950 METAR ESMX 220950Z 18005KT 140V210 CAVOK 02/M03 Q1019=
201003220920 METAR ESMX 220920Z 21006KT 170V250 CAVOK 01/M04 Q1019=
201003220850 METAR ESMX 220850Z 20005KT CAVOK 00/M04 Q1019=
201003220820 METAR ESMX 220820Z VRB02KT CAVOK 00/M05 Q1019=
201003220750 METAR ESMX 220750Z VRB01KT CAVOK M00/M05 Q1018=
201003220720 METAR ESMX 220720Z 20002KT CAVOK M02/M04 Q1018=
201003220650 METAR ESMX 220650Z 17001KT CAVOK M02/M04 Q1018=
201003220620 METAR ESMX 220620Z VRB01KT CAVOK M03/M04 Q1018=
201003220550 METAR ESMX 220550Z 00000KT CAVOK M04/M05 Q1018=
201003220520 METAR ESMX 220520Z 17001KT CAVOK M05/M05 Q1017=
201003220450 METAR ESMX 220450Z 26002KT CAVOK M05/M06 Q1017=
201003220420 METAR ESMX 220420Z AUTO 17001KT 9999NDV NCD M05/M05 Q1017=
201003220350 METAR ESMX 220350Z AUTO 29001KT 9999NDV NCD M05/M05 Q1016=
201003220320 METAR ESMX 220320Z AUTO 25002KT 9999NDV NCD M04/M05 Q1016=
201003220250 METAR ESMX 220250Z AUTO 34003KT 9999NDV NCD M03/M05 Q1016=
201003220220 METAR ESMX 220220Z AUTO 30003KT 9999NDV NCD M04/M05 Q1016=
201003220150 METAR ESMX 220150Z AUTO 33002KT 9999NDV NCD M03/M05 Q1015=
201003220120 METAR ESMX 220120Z AUTO VRB02KT 9999NDV NCD M03/M04 Q1015=
201003220050 METAR ESMX 220050Z 32003KT CAVOK M03/M05 Q1014=
201003220020 METAR ESMX 220020Z 34007KT 9999 FEW017 M02/M04 Q1014=
201003212350 METAR ESMX 212350Z 32007KT 9999 SCT018 M01/M04 Q1013=
201003212320 METAR ESMX 212320Z 34009KT 9999 OVC018 M01/M04 Q1013=
201003212250 METAR ESMX 212250Z 33009KT 9999 OVC018 M00/M04 Q1012=
201003212220 METAR ESMX 212220Z 33009KT 9999 OVC018 00/M03 Q1012=
201003212150 METAR ESMX 212150Z 33009KT 300V010 9999 OVC017 00/M03 Q1011=
201003212050 METAR ESMX 212050Z 32009KT 9999 -RA FEW016 BKN020 01/M02 Q1010=
201003212020 METAR ESMX 212020Z 33011KT 290V360 9999 FEW018 BKN023 01/M03 Q1009=
201003211950 METAR ESMX 211950Z 33013KT 9999 OVC022 02/M02 Q1008=
201003211920 METAR ESMX 211920Z 33014KT 300V360 9999 BKN021 02/M02 Q1007=
201003211850 METAR ESMX 211850Z 33016KT 9999 FEW017 BKN023 03/M01 Q1007=
201003211820 METAR ESMX 211820Z 29010KT 9999 FEW016 SCT018 OVC021 04/01 Q1005=
201003211750 METAR ESMX 211750Z 28012KT 9999 FEW015 OVC024 04/01 Q1004=
201003211720 METAR ESMX 211720Z 28012KT 9999 FEW015 SCT018 OVC027 04/02 Q1004=
201003211650 METAR ESMX 211650Z 27014KT 9999 BKN014 OVC021 05/02 Q1003=
201003211620 METAR ESMX 211620Z 26013KT 230V290 9999 BKN017 OVC024 05/02 Q1002=
201003211550 METAR ESMX 211550Z 27013KT 9999 SCT017 OVC022 05/01 Q1002=
201003211520 METAR ESMX 211520Z 27012KT 230V300 9999 BKN016 OVC020 05/02 Q1002=
201003211450 METAR ESMX 211450Z 27012KT 240V300 9999 OVC015 05/01 Q1001=
201003211420 METAR ESMX 211420Z 26013KT 220V290 9999 OVC014 05/02 Q1001=
201003211350 METAR ESMX 211350Z 26011G21KT 220V290 9999 FEW012 OVC014 04/02 Q1001=
201003211320 METAR ESMX 211320Z 26010KT 220V280 9999 FEW007 SCT010 OVC013 04/02 Q1001=
201003211250 METAR ESMX 211250Z AUTO 26012KT 230V290 9000NDV BKN007/// OVC010/// 04/02 Q1001=
201003211220 METAR ESMX 211220Z AUTO 27012KT 240V320 9999NDV BKN007/// OVC010/// 04/02 Q1000=
201003211150 METAR ESMX 211150Z AUTO 25010KT 210V280 9999NDV OVC009/// 04/02 Q1000=
201003211120 METAR ESMX 211120Z AUTO 27011KT 9999NDV OVC010/// 05/03 Q1000=
201003211050 METAR ESMX 211050Z AUTO 26010KT 230V290 9999NDV BKN011/// OVC017/// 05/03 Q1000=
201003211020 METAR ESMX 211020Z AUTO 26011KT 230V290 9999NDV FEW013/// SCT015/// BKN019/// 05/03 Q0999=
201003210950 METAR ESMX 210950Z AUTO 26009KT 210V300 9999NDV FEW011/// SCT017/// BKN020/// 05/03 Q0999=
201003210920 METAR ESMX 210920Z AUTO 27010KT 240V320 9999NDV FEW007/// SCT009/// BKN011/// 04/04 Q0999=
201003210850 METAR ESMX 210850Z AUTO 28006KT 240V310 9999NDV FEW005/// SCT007/// BKN009/// 04/04 Q0999=
201003210820 METAR ESMX 210820Z AUTO 29007KT 9999NDV OVC005/// 04/03 Q0998=
201003210750 METAR ESMX 210750Z AUTO 29007KT 9999NDV -DZ FEW003/// OVC005/// 03/03 Q0998=
201003210720 METAR ESMX 210720Z AUTO 26004KT 230V290 8000NDV -DZ OVC001/// 03/03 Q0998=
201003210650 METAR ESMX 210650Z AUTO 25004KT 3500NDV DZ OVC001/// 03/03 Q0998=
201003210620 METAR ESMX 210620Z AUTO 25004KT 2400NDV DZ VV001 03/03 Q0997=
201003210550 METAR ESMX 210550Z AUTO 22003KT 0700NDV R01/1800N R19/1200V1700U DZ VV002 03/02 Q0997 REDZ=
201003210520 METAR ESMX 210520Z AUTO VRB01KT 0700NDV R01/P2000D R19/1500N DZ VV001 03/02 Q0997=
201003210450 METAR ESMX 210450Z AUTO 18001KT 0750NDV R01/P2000N R19/P2000N -RA BKN001/// OVC003/// 03/02 Q0998=
201003210420 METAR ESMX 210420Z AUTO 17002KT 0750NDV R01/P2000N R19/P2000D -RA OVC001/// 03/03 Q0998=
201003210350 METAR ESMX 210350Z AUTO 18004KT 0550NDV R01/P2000N R19/1700N -RA VV001 03/03 Q0998 REDZ=
201003210320 METAR ESMX 210320Z AUTO 19005KT 0900NDV R01/P2000N R19/P2000N VV002 03/03 Q0998=
201003210250 METAR ESMX 210250Z AUTO 20006KT 0800NDV R01/P2000N R19/P2000N VV002 03/03 Q0998=
201003210220 METAR ESMX 210220Z AUTO 22006KT 0400NDV R01/1300U R19/1800U FG VV001 03/02 Q0999=
201003210150 METAR ESMX 210150Z AUTO 22006KT 0350NDV R01/1200D R19/1500D FG VV001 03/03 Q0999=
201003210120 METAR ESMX 210120Z AUTO 21006KT 0350NDV R01/1200D R19/1900D FG VV002 03/03 Q0999=
201003210050 METAR ESMX 210050Z AUTO 20006KT 0750NDV R01/P2000D R19/P2000N FG OVC001/// 04/03 Q0999=
201003210020 METAR ESMX 210020Z AUTO 22006KT 1600NDV BR OVC001/// 03/03 Q1000=
201003202350 METAR ESMX 202350Z AUTO 22006KT 1900NDV BR BKN001/// OVC007/// 03/03 Q1000=
201003202320 METAR ESMX 202320Z AUTO 20005KT 2500NDV BR FEW002/// BKN006/// OVC009/// 03/03 Q1000=
201003202250 METAR ESMX 202250Z AUTO 23005KT 9000NDV BR OVC010/// 04/03 Q1000=
201003202220 METAR ESMX 202220Z AUTO 22005KT 9000NDV BR OVC011/// 04/03 Q1000=
201003202150 METAR ESMX 202150Z AUTO 23006KT 8000NDV BR OVC013/// 04/03 Q1000=
201003202120 METAR ESMX 202120Z AUTO 24004KT 8000NDV BR OVC014/// 04/03 Q1000=
201003202050 METAR ESMX 202050Z AUTO 22003KT 8000NDV BR BKN015/// OVC027/// 04/03 Q1000=
201003202020 METAR ESMX 202020Z AUTO 23003KT 5000NDV BR OVC026/// 04/03 Q0999=
201003201950 METAR ESMX 201950Z AUTO VRB01KT 6000NDV BR FEW031/// SCT110/// 04/03 Q0999=
201003201920 METAR ESMX 201920Z AUTO 27002KT 7000NDV BR FEW007/// BKN110/// 04/03 Q0999=
201003201850 METAR ESMX 201850Z AUTO 26003KT 9000NDV OVC007/// 05/04 Q0999=
201003201820 METAR ESMX 201820Z VRB02KT 9999 SCT008 BKN012 OVC046 05/03 Q0999=
201003201750 METAR ESMX 201750Z VRB02KT 9999 FEW010 SCT028 BKN100 05/03 Q0999=
201003201720 METAR ESMX 201720Z 25004KT 230V300 9999 FEW029 SCT100 05/03 Q0999=
201003201650 METAR ESMX 201650Z 22005KT CAVOK 06/03 Q0999=
201003201550 METAR ESMX 201550Z 24005KT CAVOK 06/03 Q0999=
201003201520 METAR ESMX 201520Z 23007KT CAVOK 06/03 Q0999=
201003201450 METAR ESMX 201450Z 22006KT 9999 FEW046 06/03 Q0999=
201003201420 METAR ESMX 201420Z 23007KT 9999 -RA NSC 06/03 Q1000=
201003201350 METAR ESMX 201350Z 22008KT 190V250 9999 -RA FEW040 BKN100 06/03 Q1000=
201003201320 METAR ESMX 201320Z 22007KT 190V260 9999 -RA FEW051 BKN100 06/02 Q1000=
201003201250 METAR ESMX 201250Z 24007KT CAVOK 07/02 Q1000=
201003201220 METAR ESMX 201220Z 24008KT CAVOK 06/02 Q1000=
201003201150 METAR ESMX 201150Z 24008KT 210V270 CAVOK 06/02 Q1001=
201003201120 METAR ESMX 201120Z 23008KT 200V260 CAVOK 06/02 Q1001=
201003201050 METAR ESMX 201050Z 22009KT CAVOK 06/02 Q1001=
201003201020 METAR ESMX 201020Z 24009KT 210V270 CAVOK 06/02 Q1001=
201003200920 METAR ESMX 200920Z 22008KT 190V260 CAVOK 05/02 Q1002=
201003200850 METAR ESMX 200850Z 23007KT 200V260 7000 BR SCT008 04/02 Q1002=
201003200820 METAR ESMX 200820Z 23007KT 210V280 6000 BR BKN007 BKN011 03/02 Q1002=
201003200750 METAR ESMX 200750Z 23006KT 210V280 6000 BR BKN006 BKN009 03/02 Q1002=
201003200720 METAR ESMX 200720Z 22006KT 190V260 6000 BR BKN008 03/02 Q1002=
201003200650 METAR ESMX 200650Z AUTO 22008KT 190V250 6000NDV BR OVC006/// 03/02 Q1002=
201003200620 METAR ESMX 200620Z AUTO 24008KT 200V260 6000NDV BR BKN006/// 03/02 Q1002=
201003200550 METAR ESMX 200550Z AUTO 23009KT 7000NDV BR BKN006/// 03/01 Q1002=
201003200520 METAR ESMX 200520Z AUTO 23009KT 200V260 7000NDV BR BKN006/// 03/01 Q1003=
201003200450 METAR ESMX 200450Z AUTO 24008KT 7000NDV BR BKN007/// 03/01 Q1003=
201003200420 METAR ESMX 200420Z AUTO 22009KT 190V260 7000NDV BR OVC007/// 03/01 Q1003=
201003200350 METAR ESMX 200350Z AUTO 24008KT 210V270 8000NDV BR BKN007/// OVC009/// 03/01 Q1003=
201003200320 METAR ESMX 200320Z AUTO 23009KT 8000NDV BR OVC007/// 03/02 Q1003=
201003200250 METAR ESMX 200250Z AUTO 24010KT 8000NDV BR OVC006/// 03/02 Q1004=
201003200220 METAR ESMX 200220Z AUTO 22010KT 8000NDV BR BKN006/// 03/02 Q1004=
201003200150 METAR ESMX 200150Z AUTO 23011KT 8000NDV BR SCT006/// BKN008/// 03/02 Q1004=
201003200120 METAR ESMX 200120Z AUTO 22009KT 8000NDV BR SCT007/// 03/02 Q1004=
201003200050 METAR ESMX 200050Z AUTO 22009KT 200V260 8000NDV NCD 03/02 Q1004=
201003200020 METAR ESMX 200020Z AUTO 24009KT 200V270 9000NDV NCD 03/02 Q1004=
201003192350 METAR ESMX 192350Z AUTO 23009KT 9999NDV NCD 03/02 Q1005=
201003192320 METAR ESMX 192320Z AUTO 22007KT 9999NDV NCD 04/02 Q1005=
201003192250 METAR ESMX 192250Z AUTO 24008KT 9999NDV NCD 04/02 Q1005=
201003192220 METAR ESMX 192220Z AUTO 24008KT 9999NDV NCD 04/01 Q1005=
201003192150 METAR ESMX 192150Z AUTO 24010KT 9999NDV NCD 04/02 Q1005=
201003192120 METAR ESMX 192120Z 23009KT 200V280 9999 NSC 04/02 Q1005=
201003192050 METAR ESMX 192050Z 24011KT 9999 BR SCT010 05/03 Q1005=
201003192020 METAR ESMX 192020Z 24012KT 200V270 8000 BR FEW009 SCT012 BKN040 05/04 Q1005=
201003191950 METAR ESMX 191950Z 24010KT 5000 BR BKN007 OVC011 05/05 Q1005=
201003191850 METAR ESMX 191850Z 23011KT 3000 BR BKN005 05/04 Q1005=
201003191820 METAR ESMX 191820Z 21009KT 2100 BKN002 OVC004 05/04 Q1006=
201003191750 METAR ESMX 191750Z 23010KT 1200 R01/P2000N R19/P2000N OVC002 05/04 Q1005=
201003191720 METAR ESMX 191720Z 23010KT 0800 R01/1800U R19/1900U FG OVC001 05/04 Q1005=
201003191650 METAR ESMX 191650Z 22011KT 0500 R01/1000 R19/1100N FG VV002 04/04 Q1005=
201003191620 METAR ESMX 191620Z 22011KT 0600 R01/0900N R19/1100N FG VV002 05/04 Q1005=
201003191550 METAR ESMX 191550Z 22010KT 0600 R01/1000D R19/1200N FG VV002 04/04 Q1005=
201003191520 METAR ESMX 191520Z 22009KT 0800 R19/1200N FG OVC001 05/04 Q1005=
201003191450 METAR ESMX 191450Z 24009KT 210V290 0900 R19/1200N FG OVC001 05/04 Q1005=
201003191420 METAR ESMX 191420Z 24011KT 210V280 0900 R01/1200U R19/1300U FG OVC001 05/05 Q1005=
201003191350 METAR ESMX 191350Z 24010KT 210V270 0700 R01/1100N R19/1200N FG OVC001 05/05 Q1005=
201003191320 METAR ESMX 191320Z 22011KT 0700 R01/1000N R19/1200D FG OVC001 05/04 Q1005=
201003191250 METAR ESMX 191250Z 23011KT 2300 BR OVC003 05/04 Q1005=
201003191220 METAR ESMX 191220Z 23012KT 200V260 4500 BR OVC005 06/05 Q1005=
201003191150 METAR ESMX 191150Z 21009KT 5000 BR SCT005 BKN008 05/04 Q1006=
201003191120 METAR ESMX 191120Z 19010KT 6000 -RA BKN012 BKN033 06/03 Q1006=
201003191050 METAR ESMX 191050Z 17006KT 6000 -RA BR FEW015 BKN044 BKN054 07/03 Q1006=
201003191020 METAR ESMX 191020Z 17008KT 7000 BR FEW037 BKN048 BKN064 07/02 Q1006=
201003190950 METAR ESMX 190950Z 18009KT 7000 BR FEW076 06/02 Q1006=
201003190920 METAR ESMX 190920Z 18008KT 6000 BR FEW055 06/03 Q1007=
201003190850 METAR ESMX 190850Z 19009KT 6000 BR NSC 05/02 Q1007=
201003190820 METAR ESMX 190820Z 18007KT 5000 BR NSC 06/03 Q1007=
201003190750 METAR ESMX 190750Z 17006KT 140V200 3500 BR NSC 05/03 Q1007=
201003190720 METAR ESMX 190720Z 16006KT 3800 BR NSC 05/03 Q1007=
201003190650 METAR ESMX 190650Z 17005KT 3400 BR NSC 04/03 Q1008=
201003190620 METAR ESMX 190620Z 17005KT 140V200 2800 BR NSC 04/03 Q1008=
201003190550 METAR ESMX 190550Z 18005KT 2500 BR NSC 04/03 Q1008=
201003190520 METAR ESMX 190520Z 16004KT 3000 BR NSC 04/02 Q1008=
201003190450 METAR ESMX 190450Z 20005KT 2500 BR NSC 03/02 Q1009=
201003190420 METAR ESMX 190420Z AUTO 20006KT 2000NDV BR NCD 03/02 Q1009=
201003190350 METAR ESMX 190350Z AUTO 21006KT 1900NDV BR NCD 04/03 Q1009=
201003190320 METAR ESMX 190320Z AUTO 22008KT 2200NDV BR NCD 04/03 Q1010=
201003190250 METAR ESMX 190250Z AUTO 22008KT 2100NDV BR FEW094/// SCT110/// 04/03 Q1010=
201003190220 METAR ESMX 190220Z AUTO 21007KT 2400NDV BR BKN086/// 04/03 Q1010=
201003190150 METAR ESMX 190150Z AUTO 22007KT 2200NDV BR FEW005/// SCT007/// BKN082/// 04/03 Q1011=
201003190120 METAR ESMX 190120Z AUTO 23007KT 2600NDV BR FEW006/// SCT086/// 05/03 Q1011=
201003190050 METAR ESMX 190050Z AUTO 23008KT 2400NDV BR BKN005/// 04/03 Q1011=
201003190020 METAR ESMX 190020Z 23008KT 2500 BR OVC005 05/04 Q1011=
201003182320 METAR ESMX 182320Z 24009KT 2500 BR OVC005 05/04 Q1011=
201003182250 METAR ESMX 182250Z 23009KT 200V270 2800 BR OVC006 05/04 Q1011=
201003182220 METAR ESMX 182220Z 22009KT 3700 BR BKN008 05/04 Q1012=
201003182150 METAR ESMX 182150Z 22010KT 4000 BR FEW009 BKN011 06/04 Q1012=
201003182120 METAR ESMX 182120Z 23009KT 3900 BR BKN010 06/04 Q1012=
201003182050 METAR ESMX 182050Z 22009KT 4100 BR OVC010 06/04 Q1012=
201003182020 METAR ESMX 182020Z 23009KT 4100 BR SCT010 OVC025 06/04 Q1012=
201003181950 METAR ESMX 181950Z 22008KT 4800 BR BKN010 OVC029 06/05 Q1012=
201003181920 METAR ESMX 181920Z 24010KT 5000 BR FEW012 OVC035 06/05 Q1012=
201003181850 METAR ESMX 181850Z 23010KT 5000 BR OVC031 06/04 Q1012=
201003181820 METAR ESMX 181820Z 22010KT 5000 BR OVC030 06/04 Q1012=
201003181750 METAR ESMX 181750Z 23010KT 5000 BR BKN027 06/04 Q1012=
201003181720 METAR ESMX 181720Z 23010KT 5000 BR FEW012 BKN027 06/04 Q1012=
201003181650 METAR ESMX 181650Z 24010KT 6000 BR BKN010 06/04 Q1012=
201003181620 METAR ESMX 181620Z 21008KT 5000 BR OVC010 06/04 Q1012=
201003181550 METAR ESMX 181550Z 22007KT 4000 BR SCT006 OVC009 05/03 Q1012=
201003181520 METAR ESMX 181520Z 21008KT 2700 BR OVC004 04/03 Q1012=
201003181420 METAR ESMX 181420Z 22008KT 200V260 2400 BR OVC003 04/04 Q1014=
201003181350 METAR ESMX 181350Z 23008KT 1800 BR OVC002 04/03 Q1014=
201003181320 METAR ESMX 181320Z 23010KT 2000 BR OVC003 03/03 Q1014=
201003181250 METAR ESMX 181250Z 21008KT 170V240 2400 BR OVC003 03/03 Q1014=
201003181220 METAR ESMX 181220Z 21008KT 7000 BR OVC004 04/03 Q1015=
201003181150 METAR ESMX 181150Z 21008KT 180V240 8000 BR OVC004 04/03 Q1015=
201003181120 METAR ESMX 181120Z 22008KT 6000 BR OVC004 03/03 Q1015=
201003181050 METAR ESMX 181050Z 20007KT 5000 BR OVC003 03/02 Q1015=
201003181020 METAR ESMX 181020Z 22007KT 3200 BR OVC003 03/02 Q1015=
201003180950 METAR ESMX 180950Z 23009KT 1500 BR OVC002 03/02 Q1015=
201003180920 METAR ESMX 180920Z 23007KT 1700 OVC002 02/02 Q1015=
201003180850 METAR ESMX 180850Z 22007KT 2100 OVC002 02/02 Q1015=
201003180820 METAR ESMX 180820Z 23007KT 0600 R01/0800U R19/0800 FG VV002 02/02 Q1015=
201003180750 METAR ESMX 180750Z 23007KT 0350 R01/0600N R19/0600N FG VV002 02/01 Q1015=
201003180720 METAR ESMX 180720Z 22006KT 0400 R01/0700 R19/0800N FG VV002 02/01 Q1015=
201003180650 METAR ESMX 180650Z 23006KT 0400 R01/0750N R19/0800N FG VV002 02/01 Q1014=
201003180620 METAR ESMX 180620Z 22006KT 0650 R01/1100D R19/1200N FG VV002 02/01 Q1014=
201003180550 METAR ESMX 180550Z 23006KT 0750 R01/1300V1700D R19/1500N FG VV002 01/01 Q1014=
201003180520 METAR ESMX 180520Z 22006KT 0750 R01/1600N R19/1800N FG VV002 01/01 Q1014=
201003180450 METAR ESMX 180450Z 21006KT 0450 R01/1500N R19/1700N FG VV002 01/01 Q1014=
201003180420 METAR ESMX 180420Z AUTO 22005KT 0600NDV R01/1800D R19/P2000N FG VV002 01/01 Q1014=
201003180350 METAR ESMX 180350Z AUTO 22004KT 0900NDV R01/P2000N R19/P2000N FG OVC001/// 01/01 Q1014=
201003180320 METAR ESMX 180320Z AUTO 22004KT 1300NDV R01/P2000N R19/P2000N -DZ OVC002/// 01/01 Q1014=
201003180250 METAR ESMX 180250Z AUTO 23005KT 1300NDV R01/P2000N R19/P2000N BR OVC001/// 01/01 Q1014=
201003180220 METAR ESMX 180220Z AUTO 23005KT 1200NDV R01/P2000N R19/P2000N BR OVC001/// 01/01 Q1014=
201003180150 METAR ESMX 180150Z AUTO 23006KT 1300NDV R01/P2000N R19/P2000N BR OVC001/// 01/01 Q1014=
201003180120 METAR ESMX 180120Z AUTO 23005KT 1600NDV BR OVC002/// 01/01 Q1014=
201003180050 METAR ESMX 180050Z AUTO 22005KT 1700NDV BR OVC001/// 02/01 Q1014=
201003180020 METAR ESMX 180020Z 21005KT 1500 BR OVC002 01/01 Q1014=
201003172350 METAR ESMX 172350Z 19005KT 1400 R01/P2000N R19/P2000N BR OVC002 01/01 Q1014=
201003172320 METAR ESMX 172320Z 19004KT 0400 R01/1300VP2000U R19/1300D FG VV002 01/01 Q1014=
201003172250 METAR ESMX 172250Z 18004KT 0550 R01/1700D R19/P2000D FG VV002 01/01 Q1015=
201003172220 METAR ESMX 172220Z 18004KT 1000 R01/P2000N R19/P2000N BR VV002 01/01 Q1015=
201003172150 METAR ESMX 172150Z 17005KT 2700 BR OVC002 01/01 Q1015=
201003172120 METAR ESMX 172120Z 16003KT 140V200 5000 BR OVC003 01/00 Q1015=
201003172050 METAR ESMX 172050Z 17002KT 6000 BR OVC003 01/00 Q1015=
201003172020 METAR ESMX 172020Z 21004KT 8000 BR OVC004 01/00 Q1015=
201003171950 METAR ESMX 171950Z VRB02KT 9999 OVC006 01/M00 Q1015=
201003171920 METAR ESMX 171920Z 25003G15KT 150V320 9999 OVC006 01/00 Q1015=
201003171850 METAR ESMX 171850Z 25006KT 220V280 9999 OVC006 01/M00 Q1015=
201003171820 METAR ESMX 171820Z 26006KT 9999 OVC007 01/00 Q1015=
201003171750 METAR ESMX 171750Z 24004KT 200V280 9999 OVC007 01/00 Q1015=
201003171720 METAR ESMX 171720Z 25004KT 9999 OVC005 02/00 Q1015=
201003171650 METAR ESMX 171650Z 23005KT 200V290 9000 BR OVC005 01/00 Q1015=
201003171550 METAR ESMX 171550Z 27006KT 250V320 9999 OVC006 02/M00 Q1014=
201003171520 METAR ESMX 171520Z 27008KT 9999 BKN007 OVC011 02/M00 Q1014=
201003171450 METAR ESMX 171450Z 27008KT 9999 OVC007 02/00 Q1014=
201003171350 METAR ESMX 171350Z 26009KT 230V290 9999 SCT008 OVC010 02/00 Q1014=
201003171320 METAR ESMX 171320Z 26010KT 230V290 9999 OVC012 03/00 Q1014=
201003171250 METAR ESMX 171250Z 27008KT 250V320 9999 OVC013 03/00 Q1014=
201003171220 METAR ESMX 171220Z 27008KT 9999 OVC013 03/00 Q1014=
201003171150 METAR ESMX 171150Z 27008KT 230V340 9999 OVC012 03/00 Q1014=
201003171120 METAR ESMX 171120Z 28008KT 9999 OVC010 03/01 Q1014=
201003171020 METAR ESMX 171020Z 27007KT 250V310 9999 SCT008 BKN011 03/01 Q1014=
201003170950 METAR ESMX 170950Z 29009KT 260V320 9999 OVC011 03/01 Q1013=
201003170920 METAR ESMX 170920Z 26007KT 220V290 9999 FEW008 BKN010 OVC017 03/01 Q1013=
201003170850 METAR ESMX 170850Z 28007KT 250V310 9999 FEW006 BKN008 02/01 Q1013=
201003170820 METAR ESMX 170820Z 27009KT 7000 BR BKN004 OVC006 02/01 Q1013=
201003170750 METAR ESMX 170750Z 28008KT 5000 BR BKN004 OVC007 02/01 Q1013=
201003170720 METAR ESMX 170720Z 28010KT 4500 BR OVC003 02/01 Q1013=
201003170650 METAR ESMX 170650Z 29009KT 4500 BR OVC003 02/01 Q1012=
201003170620 METAR ESMX 170620Z 28009KT 240V300 4400 BR OVC003 01/01 Q1012=
201003170550 METAR ESMX 170550Z 27010KT 4500 BR OVC003 01/01 Q1012=
201003170520 METAR ESMX 170520Z 26010KT 240V300 3000 BR OVC002 01/00 Q1012 RESG=
201003170450 METAR ESMX 170450Z 26010KT 3000 -RA OVC003 01/00 Q1012=
201003170420 METAR ESMX 170420Z 23008KT 200V280 5000 -SN BKN002 OVC004 00/M00 Q1012=
201003170350 METAR ESMX 170350Z AUTO 25010KT 4900NDV -SN OVC002/// M00/M01 Q1012=
201003170320 METAR ESMX 170320Z AUTO 25008KT 210V280 9999NDV OVC003/// M00/M01 Q1013=
201003170250 METAR ESMX 170250Z AUTO 24007KT 9000NDV OVC003/// M01/M02 Q1013=
201003170220 METAR ESMX 170220Z AUTO 21007KT 8000NDV BR OVC004/// M01/M02 Q1014=
201003170150 METAR ESMX 170150Z AUTO 22007KT 9999NDV SCT003/// BKN005/// OVC010/// M02/M03 Q1014=
201003170120 METAR ESMX 170120Z AUTO 21006KT 7000NDV BR OVC002/// M03/M04 Q1015=
201003170050 METAR ESMX 170050Z AUTO 24007KT 5000NDV BR BKN002/// OVC004/// M04/M04 Q1015=
201003170020 METAR ESMX 170020Z 23007KT 9999 BKN004 M04/M05 Q1016=
201003162350 METAR ESMX 162350Z 22006KT 9999 FEW006 M05/M07 Q1016=
201003162320 METAR ESMX 162320Z 22005KT CAVOK M05/M07 Q1016=
201003162250 METAR ESMX 162250Z 24004KT CAVOK M05/M07 Q1016=
201003162220 METAR ESMX 162220Z 23004KT CAVOK M04/M08 Q1017=
201003162150 METAR ESMX 162150Z 25004KT 190V280 CAVOK M04/M08 Q1017=
201003162120 METAR ESMX 162120Z 25005KT CAVOK M04/M08 Q1017=
201003162050 METAR ESMX 162050Z 24004KT CAVOK M04/M08 Q1017=
201003162020 METAR ESMX 162020Z 25005KT CAVOK M03/M09 Q1017=
201003161950 METAR ESMX 161950Z 27005KT CAVOK M02/M08 Q1017=
201003161920 METAR ESMX 161920Z 27006KT CAVOK M02/M08 Q1017=
201003161850 METAR ESMX 161850Z 26005KT CAVOK M01/M09 Q1016=
201003161820 METAR ESMX 161820Z 27006KT CAVOK M01/M09 Q1016=
201003161750 METAR ESMX 161750Z 26005KT CAVOK M00/M11 Q1016=
201003161720 METAR ESMX 161720Z 28005KT CAVOK 00/M11 Q1016=
201003161650 METAR ESMX 161650Z 28004KT CAVOK 01/M12 Q1016=
201003161620 METAR ESMX 161620Z 30006KT CAVOK 02/M12 Q1015=
201003161550 METAR ESMX 161550Z 31011KT 260V330 CAVOK 02/M12 Q1015=
201003161520 METAR ESMX 161520Z 30009KT 260V330 CAVOK 03/M11 Q1015=
201003161420 METAR ESMX 161420Z 30010G30KT 260V340 CAVOK 03/M12 Q1014=
201003161350 METAR ESMX 161350Z 30009KT 260V010 CAVOK 03/M11 Q1014=
201003161250 METAR ESMX 161250Z 28009KT 250V320 CAVOK 03/M11 Q1014=
201003161220 METAR ESMX 161220Z 31013KT 260V350 CAVOK 02/M10 Q1014=
201003161150 METAR ESMX 161150Z 32011KT CAVOK 02/M10 Q1014=
201003161120 METAR ESMX 161120Z 31009KT 270V340 CAVOK 02/M10 Q1013=
201003161050 METAR ESMX 161050Z 31008KT CAVOK 01/M09 Q1013=
201003161020 METAR ESMX 161020Z 31010KT CAVOK 01/M09 Q1013=
201003160950 METAR ESMX 160950Z 29008KT 250V330 CAVOK 01/M09 Q1013=
201003160920 METAR ESMX 160920Z 29008KT 260V330 CAVOK M01/M09 Q1013=
201003160850 METAR ESMX 160850Z 31008KT 280V340 CAVOK M02/M09 Q1012=
201003160820 METAR ESMX 160820Z 30008KT CAVOK M03/M08 Q1012=
201003160750 METAR ESMX 160750Z 30007KT 270V340 CAVOK M04/M08 Q1012=
201003160720 METAR ESMX 160720Z 29006KT CAVOK M05/M08 Q1012=
201003160650 METAR ESMX 160650Z 29004KT 250V340 CAVOK M06/M08 Q1011=
201003160620 METAR ESMX 160620Z 26003KT 230V290 CAVOK M08/M09 Q1011=
201003160550 METAR ESMX 160550Z 25002KT CAVOK M09/M10 Q1011=
201003160520 METAR ESMX 160520Z 26002KT CAVOK M08/M10 Q1011=
201003160450 METAR ESMX 160450Z 27003KT CAVOK M07/M10 Q1011=
201003160420 METAR ESMX 160420Z 27005KT CAVOK M07/M10 Q1011=
201003160350 METAR ESMX 160350Z AUTO 24003KT 200V290 9999NDV NCD M07/M10 Q1011=
201003160320 METAR ESMX 160320Z AUTO 24003KT 200V270 9999NDV NCD M07/M11 Q1011=
201003160250 METAR ESMX 160250Z AUTO 26003KT 9999NDV NCD M07/M11 Q1010=
201003160220 METAR ESMX 160220Z AUTO 27004KT 9999NDV FEW070/// M07/M12 Q1010=
201003160150 METAR ESMX 160150Z AUTO 26004KT 9999NDV NCD M07/M12 Q1010=
201003160120 METAR ESMX 160120Z AUTO 27002KT 9999NDV NCD M07/M12 Q1010=
201003160050 METAR ESMX 160050Z AUTO 26003KT 9999NDV NCD M06/M12 Q1010=
201003160020 METAR ESMX 160020Z 28004KT CAVOK M06/M12 Q1010=
201003152350 METAR ESMX 152350Z 28004KT CAVOK M05/M12 Q1010=
201003152320 METAR ESMX 152320Z 27003KT CAVOK M05/M12 Q1010=
201003152250 METAR ESMX 152250Z 29005KT CAVOK M06/M13 Q1010=
201003152220 METAR ESMX 152220Z 29005KT CAVOK M08/M12 Q1010=
201003152150 METAR ESMX 152150Z 29003KT CAVOK M07/M11 Q1009=
201003152120 METAR ESMX 152120Z VRB04KT CAVOK M06/M12 Q1009=
201003152050 METAR ESMX 152050Z 29004KT CAVOK M05/M12 Q1009=
201003152020 METAR ESMX 152020Z 30003KT 280V340 CAVOK M06/M12 Q1009=
201003151950 METAR ESMX 151950Z 32003KT CAVOK M04/M12 Q1009=
201003151920 METAR ESMX 151920Z 31004KT CAVOK M03/M12 Q1009=
201003151850 METAR ESMX 151850Z 33005KT CAVOK M04/M12 Q1009=
201003151820 METAR ESMX 151820Z 34008KT CAVOK M03/M12 Q1008=
201003151750 METAR ESMX 151750Z 32005KT CAVOK M01/M12 Q1008=
201003151720 METAR ESMX 151720Z 33006KT CAVOK M01/M12 Q1008=
201003151650 METAR ESMX 151650Z 33006KT CAVOK 00/M12 Q1007=
201003151620 METAR ESMX 151620Z 32005KT CAVOK 00/M10 Q1007=
201003151550 METAR ESMX 151550Z 32013KT 290V010 9999 FEW046 01/M09 Q1007=
201003151520 METAR ESMX 151520Z 32009KT 9999 FEW045 01/M11 Q1007=
201003151450 METAR ESMX 151450Z 32009KT 9999 SCT045 02/M10 Q1007=
201003151420 METAR ESMX 151420Z 34008KT 300V020 9999 SCT045 01/M09 Q1007=
201003151350 METAR ESMX 151350Z 34009KT 9999 SCT045 01/M10 Q1007=
201003151320 METAR ESMX 151320Z 36011KT 9999 SCT045 02/M09 Q1007=
201003151250 METAR ESMX 151250Z 34008KT 9999 SCT045 02/M09 Q1007=
201003151220 METAR ESMX 151220Z 31009KT 280V350 9999 SCT047 02/M09 Q1007=
201003151150 METAR ESMX 151150Z 29009KT 250V330 9999 FEW040 02/M08 Q1007=
201003151120 METAR ESMX 151120Z 29008KT CAVOK 01/M08 Q1007=
201003151050 METAR ESMX 151050Z 29008KT CAVOK 01/M08 Q1007=
201003151020 METAR ESMX 151020Z 29007KT 260V330 CAVOK 00/M07 Q1007=
201003150950 METAR ESMX 150950Z 30006KT 230V340 CAVOK M00/M07 Q1007=
201003150920 METAR ESMX 150920Z 28007KT CAVOK M01/M07 Q1007=
201003150850 METAR ESMX 150850Z 28006KT CAVOK M02/M06 Q1007=
201003150820 METAR ESMX 150820Z 28006KT CAVOK M03/M06 Q1007=
201003150750 METAR ESMX 150750Z 28005KT 240V310 CAVOK M04/M06 Q1007=
201003150720 METAR ESMX 150720Z 26006KT CAVOK M05/M06 Q1007=
201003150650 METAR ESMX 150650Z 25004KT CAVOK M06/M07 Q1007=
201003150620 METAR ESMX 150620Z VRB02KT CAVOK M07/M08 Q1007=
201003150550 METAR ESMX 150550Z 25005KT CAVOK M07/M08 Q1007=
201003150520 METAR ESMX 150520Z 26005KT CAVOK M06/M08 Q1007=
201003150450 METAR ESMX 150450Z 26006KT CAVOK M06/M08 Q1007=
201003150420 METAR ESMX 150420Z AUTO 26006KT 9999NDV NCD M06/M08 Q1007=
201003150350 METAR ESMX 150350Z AUTO 25006KT 9999NDV NCD M07/M09 Q1007=
201003150320 METAR ESMX 150320Z AUTO 26006KT 9999NDV NCD M06/M08 Q1007=
201003150250 METAR ESMX 150250Z AUTO 25006KT 9999NDV NCD M07/M09 Q1007=
201003150220 METAR ESMX 150220Z AUTO 25005KT 9999NDV NCD M08/M11 Q1007=
201003150150 METAR ESMX 150150Z AUTO 24005KT 9999NDV NCD M08/M11 Q1008=
201003150120 METAR ESMX 150120Z 25005KT CAVOK M07/M11 Q1008=
201003150050 METAR ESMX 150050Z 24005KT CAVOK M07/M11 Q1008=
201003150020 METAR ESMX 150020Z 25005KT CAVOK M07/M11 Q1008=
201003142350 METAR ESMX 142350Z 26005KT CAVOK M06/M11 Q1008=
201003142320 METAR ESMX 142320Z 26005KT CAVOK M07/M11 Q1008=
201003142250 METAR ESMX 142250Z 25005KT CAVOK M07/M11 Q1008=
201003142220 METAR ESMX 142220Z 28004KT CAVOK M06/M11 Q1008=
201003142150 METAR ESMX 142150Z 28003KT CAVOK M06/M10 Q1007=
201003142120 METAR ESMX 142120Z 29004KT CAVOK M05/M11 Q1007=
201003142050 METAR ESMX 142050Z 29004KT CAVOK M04/M10 Q1007=
201003142020 METAR ESMX 142020Z 29004KT 250V320 CAVOK M04/M11 Q1007=
201003141950 METAR ESMX 141950Z 32004KT CAVOK M05/M11 Q1007=
201003141920 METAR ESMX 141920Z 33003KT CAVOK M04/M11 Q1006=
201003141850 METAR ESMX 141850Z 32003KT CAVOK M04/M11 Q1006=
201003141820 METAR ESMX 141820Z 34005KT CAVOK M04/M11 Q1006=
201003141750 METAR ESMX 141750Z 33004KT CAVOK M03/M10 Q1005=
201003141720 METAR ESMX 141720Z 33004KT CAVOK M02/M10 Q1005=
201003141650 METAR ESMX 141650Z 34004KT CAVOK M01/M09 Q1004=
201003141620 METAR ESMX 141620Z 01006KT CAVOK M01/M10 Q1004=
201003141550 METAR ESMX 141550Z 35008KT CAVOK M00/M10 Q1004=
201003141520 METAR ESMX 141520Z 36008KT CAVOK 01/M09 Q1004=
201003141450 METAR ESMX 141450Z 35008KT CAVOK 01/M09 Q1004=
201003141420 METAR ESMX 141420Z 01009KT CAVOK 02/M09 Q1004=
201003141350 METAR ESMX 141350Z 34007KT 310V010 CAVOK 02/M10 Q1003=
201003141320 METAR ESMX 141320Z 35009KT 320V020 CAVOK 02/M09 Q1003=
201003141250 METAR ESMX 141250Z AUTO 35008KT 310V020 9999NDV NCD 02/M09 Q1003=
201003141220 METAR ESMX 141220Z AUTO 35011KT 9999NDV NCD 02/M10 Q1004=
201003141150 METAR ESMX 141150Z AUTO 29009KT 260V330 9999NDV NCD 01/M09 Q1004=
201003141120 METAR ESMX 141120Z AUTO 30009KT 260V340 9999NDV NCD 02/M10 Q1004=
201003141050 METAR ESMX 141050Z AUTO 36008KT 9999NDV NCD 01/M08 Q1004=
201003141020 METAR ESMX 141020Z AUTO 36008KT 9999NDV NCD 01/M08 Q1004=
201003140950 METAR ESMX 140950Z AUTO 35008KT 9999NDV NCD 00/M09 Q1004=
201003140920 METAR ESMX 140920Z AUTO 31007KT 9999NDV NCD M00/M08 Q1004=
201003140850 METAR ESMX 140850Z AUTO 34004KT 300V030 9999NDV NCD M01/M08 Q1004=
201003140820 METAR ESMX 140820Z AUTO 31007KT 280V340 9999NDV NCD M02/M07 Q1004=
201003140750 METAR ESMX 140750Z AUTO 27004KT 9999NDV NCD M02/M07 Q1004=
201003140720 METAR ESMX 140720Z AUTO 30003KT 260V340 9999NDV NCD M03/M07 Q1004=
201003140650 METAR ESMX 140650Z AUTO 28005KT 9999NDV NCD M03/M07 Q1004=
201003140620 METAR ESMX 140620Z AUTO 29003KT 9999NDV NCD M05/M08 Q1004=
201003140550 METAR ESMX 140550Z AUTO 28003KT 9999NDV NCD M05/M08 Q1004=
201003140520 METAR ESMX 140520Z AUTO 28004KT 9999NDV NCD M04/M07 Q1004=
201003140450 METAR ESMX 140450Z AUTO 28006KT 9999NDV NCD M04/M07 Q1004=
201003140420 METAR ESMX 140420Z AUTO 29006KT 9999NDV FEW099/// M04/M07 Q1004=
201003140350 METAR ESMX 140350Z AUTO 30005KT 9999NDV BKN100/// M04/M08 Q1004=
201003140320 METAR ESMX 140320Z AUTO 29004KT 9999NDV FEW100/// M05/M08 Q1004=
201003140250 METAR ESMX 140250Z AUTO 29005KT 9999NDV FEW100/// M05/M08 Q1004=
201003140220 METAR ESMX 140220Z AUTO 30004KT 9999NDV NCD M05/M08 Q1004=
201003140150 METAR ESMX 140150Z AUTO 28003KT 9999NDV FEW100/// M05/M08 Q1004=
201003140120 METAR ESMX 140120Z AUTO 30002KT 9999NDV NCD M04/M07 Q1004=
201003140050 METAR ESMX 140050Z AUTO 29003KT 9999NDV SCT100/// M04/M07 Q1004=
201003140020 METAR ESMX 140020Z AUTO 29005KT 9999NDV BKN099/// M04/M07 Q1004=
201003132350 METAR ESMX 132350Z AUTO 31004KT 9999NDV FEW085/// M03/M07 Q1004=
201003132320 METAR ESMX 132320Z AUTO 28003KT 9999NDV SCT091/// BKN110/// M03/M06 Q1004=
201003132250 METAR ESMX 132250Z AUTO VRB02KT 9999NDV BKN091/// M02/M05 Q1004=
201003132220 METAR ESMX 132220Z AUTO 29003KT 9999NDV FEW100/// M02/M05 Q1004=
201003132150 METAR ESMX 132150Z AUTO 28003KT 9999NDV FEW091/// M02/M04 Q1004=
201003132120 METAR ESMX 132120Z AUTO 28003KT 9999NDV FEW100/// M02/M04 Q1004=
201003132050 METAR ESMX 132050Z AUTO 18002KT 9999NDV SCT093/// BKN110/// M02/M04 Q1004=
201003132020 METAR ESMX 132020Z AUTO 00000KT 9999NDV FEW081/// M02/M04 Q1004=
201003131950 METAR ESMX 131950Z AUTO VRB01KT 9999NDV FEW090/// SCT110/// M02/M05 Q1004=
201003131920 METAR ESMX 131920Z AUTO 27003KT 9999NDV FEW076/// SCT110/// M01/M05 Q1004=
201003131850 METAR ESMX 131850Z AUTO 26005KT 9999NDV FEW090/// SCT110/// M01/M05 Q1004=
201003131820 METAR ESMX 131820Z AUTO 26004KT 9999NDV NCD M02/M06 Q1004=
201003131750 METAR ESMX 131750Z AUTO 25003KT 9999NDV FEW100/// M01/M06 Q1004=
201003131720 METAR ESMX 131720Z AUTO 32002KT 9999NDV NCD 02/M07 Q1004=
201003131650 METAR ESMX 131650Z AUTO 29004KT 9999NDV NCD 03/M07 Q1004=
201003131620 METAR ESMX 131620Z AUTO 31006KT 9999NDV NCD 04/M07 Q1004=
201003131550 METAR ESMX 131550Z AUTO 31006KT 9999NDV FEW100/// 04/M07 Q1004=
201003131520 METAR ESMX 131520Z AUTO 31008KT 290V350 9999NDV FEW056/// 05/M07 Q1004=
201003131450 METAR ESMX 131450Z AUTO 29008KT 250V320 9999NDV FEW049/// SCT066/// BKN098/// 05/M07 Q1004=
201003131420 METAR ESMX 131420Z AUTO 27009KT 240V310 9999NDV SCT052/// 05/M06 Q1004=
201003131350 METAR ESMX 131350Z 28008KT 250V320 9999 FEW046 SCT079 04/M05 Q1005=
201003131320 METAR ESMX 131320Z 29009KT 260V320 CAVOK 04/M05 Q1005=
201003131250 METAR ESMX 131250Z 29008KT 260V350 CAVOK 04/M05 Q1005=
201003131220 METAR ESMX 131220Z 28009KT CAVOK 03/M05 Q1005=
201003131150 METAR ESMX 131150Z 29010KT CAVOK 03/M05 Q1005=
201003131120 METAR ESMX 131120Z 29009KT 260V320 CAVOK 03/M04 Q1005=
201003131020 METAR ESMX 131020Z 26008KT 210V290 CAVOK 01/M04 Q1006=
201003130950 METAR ESMX 130950Z 25008KT CAVOK 01/M04 Q1006=
201003130920 METAR ESMX 130920Z 27009KT CAVOK M01/M04 Q1006=
201003130850 METAR ESMX 130850Z 28010KT 9999 FEW015 M01/M04 Q1006=
201003130820 METAR ESMX 130820Z 28008KT 9999 FEW027 SCT096 M01/M05 Q1007=
201003130750 METAR ESMX 130750Z 26007KT 9999 FEW046 M03/M06 Q1007=
201003130720 METAR ESMX 130720Z 25005KT CAVOK M04/M07 Q1007=
201003130650 METAR ESMX 130650Z AUTO 25004KT 9999NDV NCD M06/M08 Q1007=
201003130620 METAR ESMX 130620Z AUTO 26005KT 9999NDV NCD M06/M09 Q1007=
201003130550 METAR ESMX 130550Z AUTO 24005KT 9999NDV SCT085/// M07/M10 Q1007=
201003130520 METAR ESMX 130520Z AUTO 25004KT 9999NDV BKN087/// M07/M10 Q1007=
201003130450 METAR ESMX 130450Z AUTO 24003KT 9999NDV BKN088/// M08/M10 Q1007=
201003130420 METAR ESMX 130420Z AUTO 19003KT 9999NDV BKN089/// M07/M10 Q1007=
201003130350 METAR ESMX 130350Z AUTO 25003KT 220V290 9999NDV FEW088/// M08/M10 Q1007=
201003130320 METAR ESMX 130320Z AUTO 19003KT 9999NDV NCD M08/M10 Q1008=
201003130250 METAR ESMX 130250Z AUTO 26003KT 9999NDV NCD M08/M11 Q1008=
201003130220 METAR ESMX 130220Z AUTO 24002KT 9999NDV NCD M08/M11 Q1008=
201003130150 METAR ESMX 130150Z AUTO 18002KT 9999NDV NCD M07/M09 Q1008=
201003130120 METAR ESMX 130120Z AUTO 27002KT 9999NDV NCD M08/M10 Q1008=
201003130050 METAR ESMX 130050Z AUTO 28002KT 9999NDV NCD M07/M09 Q1008=
201003130020 METAR ESMX 130020Z AUTO 29003KT 9999NDV NCD M06/M09 Q1008=
201003122350 METAR ESMX 122350Z AUTO 29004KT 9999NDV NCD M05/M09 Q1008=
201003122320 METAR ESMX 122320Z AUTO 28002KT 9999NDV NCD M05/M08 Q1008=
201003122250 METAR ESMX 122250Z AUTO 27002KT 9999NDV NCD M04/M08 Q1009=
201003122220 METAR ESMX 122220Z AUTO VRB01KT 9999NDV NCD M05/M08 Q1009=
201003122150 METAR ESMX 122150Z AUTO 32002KT 9999NDV NCD M05/M07 Q1009=
201003122120 METAR ESMX 122120Z 32002KT CAVOK M03/M07 Q1009=
201003122050 METAR ESMX 122050Z 34002KT CAVOK M03/M08 Q1008=
201003122020 METAR ESMX 122020Z 34003KT CAVOK M02/M07 Q1008=
201003121950 METAR ESMX 121950Z 35004KT 9999 SCT045 M01/M06 Q1008=
201003121850 METAR ESMX 121850Z 01006KT 9999 BKN043 01/M05 Q1008=
201003121820 METAR ESMX 121820Z 01007KT 9999 FEW034 BKN041 01/M04 Q1008=
201003121750 METAR ESMX 121750Z 01004KT 9999 BKN035 01/M02 Q1008=
201003121720 METAR ESMX 121720Z VRB01KT 9999 BKN035 01/M02 Q1008=
201003121650 METAR ESMX 121650Z VRB01KT 9999 BKN033 02/M02 Q1007=
201003121620 METAR ESMX 121620Z VRB02KT 9999 FEW030 BKN038 02/M01 Q1007=
201003121550 METAR ESMX 121550Z 36003KT 9999 FEW019 SCT022 BKN030 02/M01 Q1007=
201003121520 METAR ESMX 121520Z 34003KT 300V010 9999 BKN020 02/M01 Q1007=
201003121450 METAR ESMX 121450Z 03005KT 360V060 9999 FEW015 SCT019 OVC021 02/M01 Q1007=
201003121420 METAR ESMX 121420Z 03004KT 350V100 9999 FEW015 OVC018 02/M01 Q1007=
201003121350 METAR ESMX 121350Z 02005KT 9999 OVC013 02/M01 Q1007=
201003121320 METAR ESMX 121320Z 03004KT 350V090 9999 FEW008 BKN015 OVC033 02/M01 Q1007=
201003121250 METAR ESMX 121250Z 04005KT 350V070 9999 BR SCT006 OVC008 01/M00 Q1007=
201003121220 METAR ESMX 121220Z 02006KT 350V060 9000 -RA FEW007 OVC010 01/M00 Q1007=
201003121150 METAR ESMX 121150Z 02007KT 350V060 9999 OVC005 01/M00 Q1007=
201003121120 METAR ESMX 121120Z 02007KT 5000 BR OVC004 01/M00 Q1007=
201003121050 METAR ESMX 121050Z 02007KT 7000 BR OVC005 00/M00 Q1007=
201003121020 METAR ESMX 121020Z 04007KT 010V070 9999 OVC006 01/M01 Q1007=
201003120950 METAR ESMX 120950Z 01009KT 9999 -SN OVC006 00/M01 Q1007=
201003120920 METAR ESMX 120920Z 01009KT 9999 OVC006 00/M00 Q1007=
201003120850 METAR ESMX 120850Z 36006KT 9999 SCT003 OVC006 00/M00 Q1006=
201003120820 METAR ESMX 120820Z 33005KT 6000 BR OVC003 00/M00 Q1006=
201003120750 METAR ESMX 120750Z 33006KT 300V010 5000 BR OVC003 00/M00 Q1006=
201003120720 METAR ESMX 120720Z 32006KT 2000 BR OVC003 00/M00 Q1006=
201003120650 METAR ESMX 120650Z 30005KT 280V340 0750 R01/1100N R19/1400N FG VV003 00/M00 Q1006=
201003120620 METAR ESMX 120620Z 30004KT 0900 R01/1400N R19/1600N FZFG OVC002 M00/M00 Q1005=
201003120550 METAR ESMX 120550Z 27003KT 240V300 0700 R01/1400N R19/1600N FZFG VV002 M00/M00 Q1005=
201003120520 METAR ESMX 120520Z 28005KT 230V330 0900 R01/P2000N R19/P2000N VV002 M00/M00 Q1005=
201003120450 METAR ESMX 120450Z 24005KT 0900 R01/P2000N R19/P2000N FZFG VV002 M00/M01 Q1005=
201003120420 METAR ESMX 120420Z AUTO 26006KT 0900NDV R01/P2000N R19/P2000N FZFG VV002 M00/M01 Q1005=
201003120350 METAR ESMX 120350Z AUTO 25005KT 1100NDV R01/P2000N R19/P2000N BR VV002 M00/M01 Q1006=
201003120320 METAR ESMX 120320Z AUTO 25005KT 1300NDV R01/P2000N R19/P2000N BR VV002 M00/M01 Q1006=
201003120250 METAR ESMX 120250Z AUTO 24005KT 1700NDV BR OVC001/// M01/M01 Q1006=
201003120220 METAR ESMX 120220Z AUTO 25006KT 1400NDV R01/P2000N R19/P2000N BR OVC001/// M01/M01 Q1006=
201003120150 METAR ESMX 120150Z AUTO 26005KT 220V290 1200NDV R01/P2000N R19/P2000N BR OVC001/// M01/M01 Q1007=
201003120120 METAR ESMX 120120Z AUTO 26006KT 210V280 1400NDV R01/P2000N R19/P2000N BR OVC001/// M01/M02 Q1007=
201003120050 METAR ESMX 120050Z 26005KT 220V290 2000 BR OVC002 M01/M02 Q1007=
201003120020 METAR ESMX 120020Z 25006KT 210V290 4500 BR OVC002 M01/M02 Q1008=
201003112350 METAR ESMX 112350Z 24005KT 170V270 3800 BR OVC002 M01/M02 Q1008=
201003112320 METAR ESMX 112320Z 25008KT 5000 BR OVC002 M01/M02 Q1008=
201003112250 METAR ESMX 112250Z 23006KT 200V280 5000 BR OVC002 M01/M02 Q1008=
201003112220 METAR ESMX 112220Z 24007KT 4900 BR OVC002 M01/M02 Q1009=
201003112150 METAR ESMX 112150Z 23006KT 190V260 7000 BR OVC003 M01/M02 Q1009=
201003112120 METAR ESMX 112120Z 23007KT 6000 BR OVC003 M01/M02 Q1009=
201003112050 METAR ESMX 112050Z 23005KT 190V260 9999 OVC004 M01/M02 Q1009=
201003112020 METAR ESMX 112020Z 23006KT 9999 OVC004 M01/M02 Q1009=
201003111950 METAR ESMX 111950Z 24007KT 210V280 9999 OVC005 M01/M02 Q1009=
201003111920 METAR ESMX 111920Z 26006KT 220V290 9999 OVC005 M01/M02 Q1010=
201003111850 METAR ESMX 111850Z 26006KT 9999 OVC005 M01/M02 Q1010=
201003111820 METAR ESMX 111820Z 24006KT 210V280 9999 OVC006 M00/M02 Q1010=
201003111750 METAR ESMX 111750Z 27006KT 240V300 9999 OVC006 M00/M02 Q1010=
201003111720 METAR ESMX 111720Z 27006KT 240V300 9999 OVC007 M00/M02 Q1010=
201003111650 METAR ESMX 111650Z 23006KT 9999 OVC007 00/M02 Q1011=
201003111620 METAR ESMX 111620Z 24007KT 9999 OVC009 00/M02 Q1011=
201003111550 METAR ESMX 111550Z 27006KT 9999 OVC009 01/M02 Q1011=
201003111520 METAR ESMX 111520Z 22008KT 9999 OVC009 01/M02 Q1011=
201003111450 METAR ESMX 111450Z 25006KT 210V290 9999 OVC009 01/M02 Q1012=
201003111420 METAR ESMX 111420Z 26007KT 9999 OVC008 01/M02 Q1012=
201003111350 METAR ESMX 111350Z 27007KT 9999 OVC008 00/M02 Q1013=
201003111320 METAR ESMX 111320Z 23006KT 200V270 9999 OVC008 00/M02 Q1013=
201003111250 METAR ESMX 111250Z 25007KT 220V280 9999 OVC007 00/M02 Q1013=
201003111220 METAR ESMX 111220Z 24006KT 200V290 9999 OVC007 M00/M02 Q1014=
201003111150 METAR ESMX 111150Z 25007KT 210V280 9999 OVC007 M00/M02 Q1014=
201003111120 METAR ESMX 111120Z 24007G21KT 210V290 9999 OVC008 M00/M02 Q1015=
201003111050 METAR ESMX 111050Z 25007KT 230V290 9000 BR OVC007 M01/M02 Q1015=
201003111020 METAR ESMX 111020Z 23006KT 8000 BR SCT007 OVC009 M01/M02 Q1015=
201003110950 METAR ESMX 110950Z 22007KT 6000 BR BKN005 OVC009 M01/M02 Q1016=
201003110920 METAR ESMX 110920Z 22006KT 4000 BR OVC005 M02/M02 Q1016=
201003110850 METAR ESMX 110850Z 20006KT 4000 BR BKN004 OVC010 M02/M02 Q1016=
201003110820 METAR ESMX 110820Z 19005KT 3000 BR SCT003 OVC010 M02/M03 Q1016=
201003110750 METAR ESMX 110750Z 19005KT 2900 BR BKN002 OVC008 M02/M03 Q1016=
201003110720 METAR ESMX 110720Z 20006KT 3000 BR OVC002 M03/M03 Q1017=
201003110650 METAR ESMX 110650Z 19006KT 2300 BR OVC002 M03/M03 Q1017=
201003110620 METAR ESMX 110620Z 20005KT 2500 BR OVC002 M03/M03 Q1017=
201003110550 METAR ESMX 110550Z 20004KT 3000 BR OVC002 M03/M04 Q1017=
201003110520 METAR ESMX 110520Z 19004KT 2500 BR OVC002 M03/M04 Q1018=
201003110450 METAR ESMX 110450Z 20003KT 3300 BR OVC002 M03/M04 Q1018=
201003110420 METAR ESMX 110420Z AUTO 19004KT 3400NDV OVC001/// M03/M04 Q1018=
201003110350 METAR ESMX 110350Z AUTO 18004KT 2100NDV OVC001/// M03/M04 Q1019=
201003110320 METAR ESMX 110320Z AUTO 20004KT 1000NDV R01/P2000N R19/P2000N BR OVC001/// M03/M04 Q1019=
201003110250 METAR ESMX 110250Z AUTO 18003KT 140V210 1800NDV BR OVC001/// M03/M04 Q1020=
201003110220 METAR ESMX 110220Z AUTO 18002KT 1900NDV OVC001/// M03/M04 Q1020=
201003110150 METAR ESMX 110150Z AUTO VRB02KT 2300NDV OVC001/// M04/M04 Q1021=
201003110120 METAR ESMX 110120Z AUTO 26006KT 0600NDV R01/1900N R19/P2000N FZFG OVC001/// M04/M04 Q1021=
201003110050 METAR ESMX 110050Z AUTO 28007KT 250V310 0600NDV R01/1400VP2000D R19/P2000N FZFG VV002 M04/M04 Q1021=
201003110020 METAR ESMX 110020Z 25005KT 220V280 1000 R01/1100VP2000U R19/P2000N=
201003102350 METAR ESMX 102350Z 23007KT 1100 R01/P2000N R19/P2000N BR OVC002 M03/M04 Q1022=
201003102320 METAR ESMX 102320Z 25005KT 200V290 1500 BR OVC002 M03/M04 Q1022=
201003102250 METAR ESMX 102250Z 24007KT 210V280 2200 BR OVC001 M03/M04 Q1022=
201003102220 METAR ESMX 102220Z 27006KT 3400 BR OVC003 M03/M04 Q1023=
201003102150 METAR ESMX 102150Z 25005KT 210V290 4400 BR OVC003 M03/M04 Q1023=
201003102120 METAR ESMX 102120Z 24007KT 200V270 5000 BR OVC004 M03/M04 Q1023=
201003102050 METAR ESMX 102050Z 27007KT 5000 BR OVC005 M03/M04 Q1023=
201003102020 METAR ESMX 102020Z 25005KT 210V290 6000 BR OVC005 M03/M04 Q1023=
201003101950 METAR ESMX 101950Z 27007KT 230V290 7000 BR OVC005 M03/M04 Q1024=
201003101920 METAR ESMX 101920Z 25007KT 210V280 7000 BR OVC005 M02/M04 Q1024=
201003101850 METAR ESMX 101850Z 25007KT 230V290 8000 BR OVC006 M02/M04 Q1024=
201003101820 METAR ESMX 101820Z 27006KT 230V310 9000 OVC007 M02/M04 Q1024=
201003101750 METAR ESMX 101750Z 25006KT 220V280 9999 OVC008 M02/M04 Q1024=
201003101720 METAR ESMX 101720Z 25007KT 9999 BKN010 M02/M04 Q1024=
201003101650 METAR ESMX 101650Z 25005KT 9999 SCT010 M02/M04 Q1024=
201003101620 METAR ESMX 101620Z 25006KT CAVOK M01/M04 Q1024=
201003101550 METAR ESMX 101550Z 24007KT CAVOK M00/M04 Q1025=
201003101520 METAR ESMX 101520Z 26007KT 230V290 CAVOK 00/M04 Q1025=
201003101450 METAR ESMX 101450Z 23006KT 200V260 CAVOK 01/M04 Q1025=
201003101420 METAR ESMX 101420Z 23007KT 210V270 CAVOK 01/M04 Q1025=
201003101350 METAR ESMX 101350Z 22007KT CAVOK 00/M04 Q1026=
201003101320 METAR ESMX 101320Z 21007KT CAVOK M00/M04 Q1026=
201003101250 METAR ESMX 101250Z 22007KT 200V260 9999 FEW012 M00/M04 Q1026=
201003101220 METAR ESMX 101220Z 22007KT 190V260 9999 FEW012 M01/M04 Q1026=
201003101150 METAR ESMX 101150Z 24007KT 210V280 9999 SCT010 M02/M04 Q1027=
201003101120 METAR ESMX 101120Z 23008KT 210V270 9999 BKN009 M02/M04 Q1027=
201003101050 METAR ESMX 101050Z 22008KT 180V250 9999 BKN008 M02/M04 Q1027=
201003101020 METAR ESMX 101020Z 24007KT 9999 BKN007 M03/M04 Q1027=
201003100950 METAR ESMX 100950Z 27006KT 9999 OVC005 M04/M05 Q1027=
201003100920 METAR ESMX 100920Z 23006KT 9999 FEW004 OVC005 M04/M05 Q1027=
201003100850 METAR ESMX 100850Z 22007KT 190V250 9999 OVC004 M04/M05 Q1027=
201003100820 METAR ESMX 100820Z 23005KT 210V280 9999 OVC004 M04/M05 Q1027=
201003100750 METAR ESMX 100750Z 25006KT 9000 BR OVC003 M04/M05 Q1027=
201003100720 METAR ESMX 100720Z 24006KT 210V270 8000 BR OVC003 M04/M05 Q1027=
201003100650 METAR ESMX 100650Z 24005KT 210V280 5000 BR OVC001 M05/M05 Q1027=
201003100620 METAR ESMX 100620Z 25004KT 210V280 2300 BR OVC001 M05/M06 Q1027=
201003100550 METAR ESMX 100550Z 24004KT 190V280 2500 BR OVC002 M05/M06 Q1027=
201003100520 METAR ESMX 100520Z 27005KT 210V300 1500 BR OVC002 M05/M06 Q1027=
201003100450 METAR ESMX 100450Z 26004KT 0900 R01/P2000N R19/P2000N FZFG OVC002 M06/M07 Q1027=
201003100420 METAR ESMX 100420Z AUTO 26003KT 200V290 0750NDV R01/P2000N R19/P2000N FZFG VV002 M06/M07 Q1027=
201003100350 METAR ESMX 100350Z AUTO 23004KT 210V280 0900NDV R01/P2000N R19/P2000N FZFG OVC001/// M07/M07 Q1027=
201003100320 METAR ESMX 100320Z AUTO 25004KT 210V280 1500NDV OVC002/// M07/M08 Q1027=
201003100250 METAR ESMX 100250Z AUTO 26005KT 2800NDV OVC001/// M07/M07 Q1027=
201003100220 METAR ESMX 100220Z AUTO 27005KT 0450NDV R01/1200V1900U R19/P2000N=
201003100150 METAR ESMX 100150Z AUTO 25005KT 6000NDV BR NCD M07/M07 Q1027=
201003100120 METAR ESMX 100120Z AUTO 25004KT 9999NDV NCD M07/M08 Q1027=
201003100050 METAR ESMX 100050Z AUTO 25004KT 9999NDV NCD M07/M09 Q1027=
201003100020 METAR ESMX 100020Z 24005KT CAVOK M08/M10 Q1027=
201003092350 METAR ESMX 092350Z 18002KT CAVOK M08/M10 Q1027=
201003092320 METAR ESMX 092320Z 25002KT CAVOK M09/M11 Q1028=
201003092250 METAR ESMX 092250Z 18002KT CAVOK M08/M11 Q1028=
201003092220 METAR ESMX 092220Z 16001KT CAVOK M08/M10 Q1028=
201003092150 METAR ESMX 092150Z 18001KT CAVOK M07/M10 Q1028=
201003092120 METAR ESMX 092120Z 17001KT CAVOK M06/M10 Q1028=
201003092050 METAR ESMX 092050Z 18002KT CAVOK M06/M11 Q1028=
201003092020 METAR ESMX 092020Z 17002KT CAVOK M05/M09 Q1028=
201003091950 METAR ESMX 091950Z 27001KT CAVOK M05/M08 Q1027=
201003091920 METAR ESMX 091920Z 00000KT CAVOK M05/M08 Q1027=
201003091850 METAR ESMX 091850Z 00000KT CAVOK M04/M08 Q1027=
201003091820 METAR ESMX 091820Z 17001KT CAVOK M04/M08 Q1027=
201003091750 METAR ESMX 091750Z 19002KT CAVOK M03/M08 Q1027=
201003091720 METAR ESMX 091720Z 00000KT CAVOK M01/M08 Q1027=
201003091650 METAR ESMX 091650Z 02003KT 350V060 CAVOK 01/M09 Q1026=
201003091620 METAR ESMX 091620Z 31003KT CAVOK 03/M09 Q1026=
201003091550 METAR ESMX 091550Z 35004KT CAVOK 03/M09 Q1026=
201003091450 METAR ESMX 091450Z 35006KT CAVOK 03/M06 Q1026=
201003091420 METAR ESMX 091420Z 34007KT CAVOK 04/M06 Q1026=
201003091350 METAR ESMX 091350Z 34007KT CAVOK 04/M06 Q1026=
201003091320 METAR ESMX 091320Z 36008KT CAVOK 04/M06 Q1026=
201003091250 METAR ESMX 091250Z 35006KT CAVOK 04/M05 Q1026=
201003091220 METAR ESMX 091220Z 31004KT 250V020 CAVOK 03/M06 Q1027=
201003091150 METAR ESMX 091150Z VRB02KT CAVOK 05/M05 Q1027=
201003091120 METAR ESMX 091120Z VRB02KT CAVOK 04/M06 Q1027=
201003091050 METAR ESMX 091050Z 35003KT CAVOK 02/M05 Q1027=
201003091020 METAR ESMX 091020Z 34004KT CAVOK 01/M05 Q1027=
201003090950 METAR ESMX 090950Z 35004KT CAVOK 01/M05 Q1027=
201003090920 METAR ESMX 090920Z 36004KT 330V030 CAVOK 01/M05 Q1026=
201003090850 METAR ESMX 090850Z 36006KT CAVOK M02/M05 Q1026=
201003090820 METAR ESMX 090820Z 36004KT CAVOK M03/M05 Q1026=
201003090750 METAR ESMX 090750Z 36005KT CAVOK M03/M05 Q1026=
201003090720 METAR ESMX 090720Z 02004KT CAVOK M04/M06 Q1025=
201003090650 METAR ESMX 090650Z 35002KT CAVOK M04/M06 Q1025=
201003090620 METAR ESMX 090620Z 34002KT CAVOK M04/M06 Q1025=
201003090550 METAR ESMX 090550Z 34004KT CAVOK M05/M06 Q1025=
201003090520 METAR ESMX 090520Z 35005KT CAVOK M05/M06 Q1025=
201003090450 METAR ESMX 090450Z 34004KT CAVOK M05/M06 Q1024=
201003090420 METAR ESMX 090420Z AUTO 33005KT 9999NDV BKN074/// OVC089/// M05/M06 Q1024=
201003090350 METAR ESMX 090350Z AUTO 31005KT 290V350 9999NDV BKN068/// M05/M06 Q1024=
201003090320 METAR ESMX 090320Z AUTO 30004KT 260V330 9999NDV FEW068/// BKN086/// M05/M06 Q1024=
201003090250 METAR ESMX 090250Z AUTO 29005KT 9999NDV FEW006/// BKN080/// M05/M06 Q1024=
201003090220 METAR ESMX 090220Z AUTO 31005KT 280V340 9999NDV BKN075/// M05/M06 Q1024=
201003090150 METAR ESMX 090150Z AUTO 29006KT 9999NDV BKN084/// M05/M06 Q1024=
201003090120 METAR ESMX 090120Z AUTO 30005KT 9999NDV BKN083/// M05/M06 Q1024=
201003090050 METAR ESMX 090050Z AUTO 30004KT 250V340 9999NDV BKN082/// M05/M07 Q1024=
201003090020 METAR ESMX 090020Z 29007KT 280V340 CAVOK M05/M07 Q1024=
201003082350 METAR ESMX 082350Z 27005KT CAVOK M04/M07 Q1024=
201003082320 METAR ESMX 082320Z 26006KT CAVOK M04/M07 Q1024=
201003082250 METAR ESMX 082250Z 26006KT CAVOK M04/M07 Q1024=
201003082220 METAR ESMX 082220Z 26005KT 220V280 CAVOK M04/M07 Q1024=
201003082150 METAR ESMX 082150Z 27005KT CAVOK M03/M07 Q1024=
201003082120 METAR ESMX 082120Z 28005KT CAVOK M03/M07 Q1025=
201003082050 METAR ESMX 082050Z 26007KT CAVOK M03/M07 Q1024=
201003082020 METAR ESMX 082020Z 25007KT CAVOK M02/M07 Q1024=
201003081950 METAR ESMX 081950Z 26006KT CAVOK M02/M07 Q1024=
201003081920 METAR ESMX 081920Z 25006KT CAVOK M01/M07 Q1024=
201003081850 METAR ESMX 081850Z 25006KT CAVOK M01/M06 Q1025=
201003081820 METAR ESMX 081820Z 25005KT CAVOK M01/M06 Q1024=
201003081750 METAR ESMX 081750Z 22004KT 150V250 CAVOK M01/M07 Q1024=
201003081720 METAR ESMX 081720Z 25005KT CAVOK 01/M07 Q1024=
201003081650 METAR ESMX 081650Z 25005KT CAVOK 02/M06 Q1024=
201003081620 METAR ESMX 081620Z 25005KT CAVOK 03/M06 Q1024=
201003081550 METAR ESMX 081550Z 26006KT 220V280 CAVOK 03/M07 Q1024=
201003081520 METAR ESMX 081520Z 26007KT 230V290 CAVOK 04/M07 Q1025=
201003081450 METAR ESMX 081450Z 26007KT 230V310 CAVOK 04/M07 Q1025=
201003081420 METAR ESMX 081420Z 26006KT 220V290 CAVOK 04/M06 Q1025=
201003081350 METAR ESMX 081350Z 24006KT 210V280 CAVOK 04/M07 Q1025=
201003081320 METAR ESMX 081320Z 26006KT CAVOK 03/M07 Q1025=
201003081250 METAR ESMX 081250Z 25006KT 200V280 CAVOK 03/M06 Q1026=
201003081220 METAR ESMX 081220Z 25005KT 200V290 CAVOK 02/M06 Q1026=
201003081150 METAR ESMX 081150Z 24006KT 210V290 CAVOK 01/M06 Q1026=
201003081120 METAR ESMX 081120Z 24005KT 190V290 CAVOK 01/M06 Q1027=
201003081050 METAR ESMX 081050Z 26007KT 220V290 CAVOK 00/M06 Q1027=
201003081020 METAR ESMX 081020Z 24007KT 200V280 CAVOK M00/M06 Q1027=
201003080950 METAR ESMX 080950Z 22006KT CAVOK M01/M06 Q1027=
201003080920 METAR ESMX 080920Z 23005KT CAVOK M02/M05 Q1027=
201003080850 METAR ESMX 080850Z 22004KT 9999 FEW043 BKN092 M03/M06 Q1027=
201003080820 METAR ESMX 080820Z 22004KT 9999 FEW043 BKN092 M04/M06 Q1027=
201003080750 METAR ESMX 080750Z 18003KT 9999 FEW030 BKN090 M04/M06 Q1027=
201003080720 METAR ESMX 080720Z 17003KT 9999 FEW032 SCT065 BKN091 M05/M06 Q1027=
201003080650 METAR ESMX 080650Z VRB02KT 9999 FEW033 BKN090 M05/M06 Q1027=
201003080620 METAR ESMX 080620Z 24004KT CAVOK M06/M07 Q1027=
201003080550 METAR ESMX 080550Z VRB02KT 9999 FEW035 BKN064 BKN097 M06/M08 Q1027=
201003080520 METAR ESMX 080520Z 18002KT 9999 FEW040 BKN070 M06/M07 Q1027=
201003080450 METAR ESMX 080450Z VRB01KT CAVOK M06/M08 Q1027=
201003080420 METAR ESMX 080420Z 20003KT CAVOK M06/M08 Q1028=
201003080350 METAR ESMX 080350Z AUTO 18001KT 9999NDV BKN089/// M06/M08 Q1028=
201003080320 METAR ESMX 080320Z AUTO 18002KT 9999NDV BKN089/// M06/M08 Q1028=
201003080250 METAR ESMX 080250Z AUTO 16003KT 120V200 9999NDV BKN091/// M06/M08 Q1028=
201003080220 METAR ESMX 080220Z AUTO VRB01KT 9999NDV BKN092/// M06/M08 Q1028=
201003080150 METAR ESMX 080150Z AUTO 19002KT 9999NDV BKN086/// M06/M08 Q1028=
201003080120 METAR ESMX 080120Z 18002KT 9999 FEW041 BKN089 M06/M08 Q1028=
201003080050 METAR ESMX 080050Z VRB01KT CAVOK M07/M09 Q1028=
201003080020 METAR ESMX 080020Z 01002KT CAVOK M07/M09 Q1029=
201003072350 METAR ESMX 072350Z VRB02KT CAVOK M07/M09 Q1029=
201003072320 METAR ESMX 072320Z VRB02KT CAVOK M06/M08 Q1028=
201003072250 METAR ESMX 072250Z 19004KT CAVOK M06/M08 Q1028=
201003072220 METAR ESMX 072220Z 18003KT CAVOK M08/M09 Q1028=
201003072150 METAR ESMX 072150Z 16003KT CAVOK M08/M09 Q1028=
201003072120 METAR ESMX 072120Z VRB01KT CAVOK M09/M10 Q1028=
201003072050 METAR ESMX 072050Z VRB01KT CAVOK M09/M10 Q1028=
201003072020 METAR ESMX 072020Z 15001KT CAVOK M08/M10 Q1028=
201003071950 METAR ESMX 071950Z 00000KT CAVOK M08/M10 Q1028=
201003071920 METAR ESMX 071920Z 18001KT CAVOK M07/M09 Q1028=
201003071850 METAR ESMX 071850Z 18001KT CAVOK M06/M08 Q1028=
201003071820 METAR ESMX 071820Z 18001KT CAVOK M06/M08 Q1028=
201003071750 METAR ESMX 071750Z 28001KT CAVOK M06/M08 Q1028=
201003071720 METAR ESMX 071720Z 23001KT CAVOK M04/M08 Q1028=
201003071650 METAR ESMX 071650Z 18002KT CAVOK M03/M07 Q1028=
201003071620 METAR ESMX 071620Z 18001KT CAVOK M01/M07 Q1028=
201003071550 METAR ESMX 071550Z 00000KT CAVOK 00/M08 Q1028=
201003071520 METAR ESMX 071520Z 00000KT CAVOK 01/M08 Q1028=
201003071450 METAR ESMX 071450Z 01002KT CAVOK 01/M08 Q1028=
201003071420 METAR ESMX 071420Z 02003KT CAVOK 01/M07 Q1028=
201003071350 METAR ESMX 071350Z 36003KT CAVOK 00/M07 Q1028=
201003071320 METAR ESMX 071320Z 02003KT CAVOK 01/M07 Q1028=
201003071250 METAR ESMX 071250Z AUTO 02002KT 9999NDV NCD 00/M07 Q1028=
201003071220 METAR ESMX 071220Z AUTO 03003KT 9999NDV NCD M00/M06 Q1028=
201003071150 METAR ESMX 071150Z AUTO 36003KT 320V030 9999NDV FEW083/// M02/M06 Q1028=
201003071120 METAR ESMX 071120Z AUTO 02003KT 9999NDV NCD M02/M06 Q1028=
201003071050 METAR ESMX 071050Z AUTO 00000KT 9999NDV NCD M01/M04 Q1029=
201003071020 METAR ESMX 071020Z AUTO 03001KT 9999NDV NCD M02/M03 Q1029=
201003070950 METAR ESMX 070950Z AUTO VRB01KT 9999NDV NCD M03/M05 Q1029=
201003070920 METAR ESMX 070920Z AUTO 00000KT 9999NDV FEW081/// M05/M06 Q1029=
201003070850 METAR ESMX 070850Z AUTO 00000KT 9999NDV SCT002/// M05/M06 Q1029=
201003070820 METAR ESMX 070820Z AUTO VRB01KT 9999NDV OVC001/// M06/M07 Q1029=
201003070750 METAR ESMX 070750Z AUTO VRB02KT 9000NDV OVC001/// M08/M09 Q1028=
201003070720 METAR ESMX 070720Z AUTO VRB02KT 2600NDV OVC001/// M08/M09 Q1028=
201003070650 METAR ESMX 070650Z AUTO 29002KT 1100NDV R01/P2000D R19/P2000D OVC001/// M08/M09 Q1028=
201003070620 METAR ESMX 070620Z AUTO 30003KT 1000NDV R01/1000VP2000D R19/P2000N OVC001/// M08/M09 Q1028=
201003070550 METAR ESMX 070550Z AUTO 30003KT 270V340 1100NDV R01/P2000N R19/P2000N OVC001/// M08/M09 Q1028=
201003070520 METAR ESMX 070520Z AUTO 28004KT 0800NDV R01/P2000N R19/P2000D OVC001/// M08/M09 Q1028=
201003070450 METAR ESMX 070450Z AUTO 31003KT 0800NDV R01/P2000N R19/P2000N BCFG VV002 M08/M09 Q1028=
201003070420 METAR ESMX 070420Z AUTO 30004KT 0600NDV R01/P2000D R19/1900N FZFG VV001 M08/M09 Q1028=
201003070350 METAR ESMX 070350Z AUTO 29005KT 0600NDV R01/1900D R19/P2000N FZFG VV001 M08/M09 Q1028=
201003070320 METAR ESMX 070320Z AUTO 25004KT 220V300 0750NDV R01/P2000N R19/P2000N FZFG VV002 M08/M09 Q1028=
201003070250 METAR ESMX 070250Z AUTO 29004KT 0600NDV R01/1900N R19/P2000N FZFG VV002 M07/M08 Q1028=
201003070220 METAR ESMX 070220Z AUTO 30005KT 2700NDV BR OVC001/// M07/M08 Q1028=
201003070150 METAR ESMX 070150Z AUTO 31006KT 9999NDV OVC002/// M07/M08 Q1028=
201003070120 METAR ESMX 070120Z AUTO 32004KT 9999NDV FEW003/// SCT005/// OVC007/// M10/M13 Q1028=
201003070050 METAR ESMX 070050Z AUTO 32002KT 9999NDV BKN006/// M10/M12 Q1028=
201003070020 METAR ESMX 070020Z AUTO VRB01KT 9999NDV BKN007/// M10/M11 Q1028=
201003062350 METAR ESMX 062350Z AUTO VRB02KT 9999NDV NCD M09/M13 Q1028=
201003062320 METAR ESMX 062320Z AUTO 29005KT 9999NDV NCD M08/M12 Q1028=
201003062250 METAR ESMX 062250Z AUTO 29006KT 9999NDV NCD M07/M12 Q1027=
201003062220 METAR ESMX 062220Z AUTO 29003KT 9999NDV NCD M06/M12 Q1027=
201003062150 METAR ESMX 062150Z AUTO 30007KT 9999NDV NCD M05/M12 Q1027=
201003062120 METAR ESMX 062120Z AUTO 29008KT 9999NDV NCD M05/M13 Q1027=
201003062050 METAR ESMX 062050Z AUTO 29007KT 9999NDV NCD M05/M14 Q1027=
201003062020 METAR ESMX 062020Z AUTO 30005KT 9999NDV NCD M05/M15 Q1027=
201003061950 METAR ESMX 061950Z AUTO 31004KT 9999NDV NCD M04/M15 Q1027=
201003061920 METAR ESMX 061920Z AUTO 30005KT 9999NDV NCD M04/M15 Q1027=
201003061850 METAR ESMX 061850Z AUTO 30004KT 9999NDV NCD M04/M15 Q1027=
201003061820 METAR ESMX 061820Z AUTO 30004KT 9999NDV NCD M04/M15 Q1027=
201003061750 METAR ESMX 061750Z AUTO 31003KT 9999NDV NCD M02/M16 Q1027=
201003061720 METAR ESMX 061720Z AUTO 31005KT 9999NDV NCD M02/M15 Q1027=
201003061650 METAR ESMX 061650Z AUTO 32005KT 9999NDV NCD M02/M15 Q1027=
201003061620 METAR ESMX 061620Z AUTO 31005KT 9999NDV NCD M01/M15 Q1026=
201003061550 METAR ESMX 061550Z AUTO 34007KT 9999NDV NCD M01/M15 Q1026=
201003061520 METAR ESMX 061520Z AUTO 34008KT 9999NDV NCD M00/M15 Q1026=
201003061450 METAR ESMX 061450Z AUTO 33009KT 300V360 9999NDV NCD 00/M15 Q1026=
201003061420 METAR ESMX 061420Z 32009KT 290V360 CAVOK 00/M15 Q1026=
201003061350 METAR ESMX 061350Z 35010KT CAVOK M00/M14 Q1026=
201003061320 METAR ESMX 061320Z 34008KT 290V020 CAVOK M00/M14 Q1026=
201003061250 METAR ESMX 061250Z 36009KT CAVOK M00/M14 Q1026=
201003061220 METAR ESMX 061220Z 35009KT CAVOK M00/M14 Q1026=
201003061150 METAR ESMX 061150Z AUTO 02006KT 9999NDV NCD M00/M15 Q1026=
201003061120 METAR ESMX 061120Z 36008KT CAVOK M01/M14 Q1026=
201003061050 METAR ESMX 061050Z 01011KT CAVOK M02/M14 Q1026=
201003061020 METAR ESMX 061020Z 36006KT CAVOK M02/M14 Q1026=
201003060950 METAR ESMX 060950Z 01007KT CAVOK M03/M14 Q1026=
201003060920 METAR ESMX 060920Z 01007KT CAVOK M04/M14 Q1025=
201003060850 METAR ESMX 060850Z 01006KT CAVOK M06/M14 Q1025=
201003060820 METAR ESMX 060820Z 01007KT CAVOK M07/M14 Q1025=
201003060750 METAR ESMX 060750Z 01006KT CAVOK M09/M15 Q1025=
201003060720 METAR ESMX 060720Z 01004KT CAVOK M10/M15 Q1024=
201003060650 METAR ESMX 060650Z AUTO 36003KT 9999NDV NCD M12/M16 Q1024=
201003060620 METAR ESMX 060620Z AUTO 36002KT 9999NDV NCD M14/M17 Q1024=
201003060550 METAR ESMX 060550Z AUTO 01003KT 9999NDV NCD M14/M17 Q1023=
201003060520 METAR ESMX 060520Z AUTO 01004KT 9999NDV NCD M13/M16 Q1023=
201003060450 METAR ESMX 060450Z AUTO 01004KT 9999NDV NCD M13/M16 Q1023=
201003060420 METAR ESMX 060420Z AUTO 36005KT 9999NDV NCD M13/M16 Q1022=
201003060350 METAR ESMX 060350Z AUTO 01005KT 9999NDV NCD M12/M16 Q1022=
201003060320 METAR ESMX 060320Z AUTO 36005KT 9999NDV NCD M13/M16 Q1022=
201003060250 METAR ESMX 060250Z AUTO 36004KT 9999NDV NCD M13/M16 Q1022=
201003060220 METAR ESMX 060220Z AUTO 35004KT 9999NDV NCD M12/M16 Q1022=
201003060150 METAR ESMX 060150Z AUTO 35004KT 9999NDV NCD M12/M16 Q1022=
201003060120 METAR ESMX 060120Z AUTO 01004KT 9999NDV NCD M11/M15 Q1021=
201003060050 METAR ESMX 060050Z AUTO 36005KT 9999NDV SCT069/// M10/M15 Q1021=
201003060020 METAR ESMX 060020Z AUTO 36005KT 9999NDV OVC067/// M10/M14 Q1021=
201003052350 METAR ESMX 052350Z AUTO 36003KT 9999NDV OVC070/// M11/M15 Q1021=
201003052320 METAR ESMX 052320Z AUTO 36003KT 9999NDV OVC072/// M12/M16 Q1021=
201003052250 METAR ESMX 052250Z AUTO 36003KT 9999NDV BKN073/// M12/M16 Q1020=
201003052220 METAR ESMX 052220Z AUTO 36003KT 9999NDV OVC074/// M12/M16 Q1020=
201003052150 METAR ESMX 052150Z AUTO 35002KT 9999NDV BKN075/// M13/M16 Q1020=
201003052120 METAR ESMX 052120Z VRB01KT CAVOK M13/M16 Q1019=
201003052050 METAR ESMX 052050Z 36002KT CAVOK M13/M16 Q1019=
201003052020 METAR ESMX 052020Z 36002KT CAVOK M13/M15 Q1019=
201003051950 METAR ESMX 051950Z 01001KT CAVOK M12/M15 Q1019=
201003051920 METAR ESMX 051920Z 01001KT CAVOK M11/M14 Q1019=
201003051850 METAR ESMX 051850Z 03002KT CAVOK M10/M14 Q1018=
201003051820 METAR ESMX 051820Z 01001KT CAVOK M09/M13 Q1018=
201003051750 METAR ESMX 051750Z 05003KT CAVOK M06/M13 Q1018=
201003051720 METAR ESMX 051720Z 05003KT 020V080 CAVOK M05/M13 Q1018=
201003051650 METAR ESMX 051650Z 06003KT CAVOK M04/M13 Q1017=
201003051620 METAR ESMX 051620Z 06005KT 010V100 CAVOK M02/M14 Q1017=
201003051550 METAR ESMX 051550Z 05005KT 010V100 CAVOK M02/M13 Q1017=
201003051520 METAR ESMX 051520Z 05005KT 020V090 CAVOK M01/M12 Q1017=
201003051450 METAR ESMX 051450Z 36004KT 340V040 CAVOK M02/M11 Q1017=
201003051420 METAR ESMX 051420Z 01006KT 340V050 CAVOK M02/M10 Q1017=
201003051350 METAR ESMX 051350Z 02006KT 340V060 9999 FEW020 M02/M10 Q1017=
201003051320 METAR ESMX 051320Z 02007KT 9999 FEW025 M03/M10 Q1017=
201003051250 METAR ESMX 051250Z 01007KT 340V050 9999 FEW023 M04/M10 Q1017=
201003051220 METAR ESMX 051220Z 01007KT 9999 FEW023 M04/M10 Q1017=
201003051150 METAR ESMX 051150Z 36008KT 9999 FEW022 M04/M10 Q1017=
201003051120 METAR ESMX 051120Z 36007KT 9999 FEW022 M04/M11 Q1017=
201003051050 METAR ESMX 051050Z 34006KT 320V030 9999 SCT022 M05/M11 Q1017=
201003051020 METAR ESMX 051020Z 34007KT 300V360 9999 FEW024 M05/M11 Q1017=
201003050950 METAR ESMX 050950Z 32008KT 9999 FEW025 M06/M12 Q1017=
201003050920 METAR ESMX 050920Z 33007KT 290V010 9999 FEW030 M07/M13 Q1017=
201003050850 METAR ESMX 050850Z 36007KT 9999 FEW030 M07/M13 Q1017=
201003050820 METAR ESMX 050820Z 35009KT 9999 FEW030 M08/M14 Q1017=
201003050750 METAR ESMX 050750Z 34007KT 9999 FEW030 M10/M14 Q1017=
201003050720 METAR ESMX 050720Z 34007KT 9999 FEW025 M11/M15 Q1017=
201003050650 METAR ESMX 050650Z 32005KT CAVOK M12/M15 Q1017=
201003050620 METAR ESMX 050620Z 31005KT CAVOK M12/M15 Q1017=
201003050550 METAR ESMX 050550Z 32005KT 290V350 CAVOK M13/M15 Q1017=
201003050520 METAR ESMX 050520Z 32003KT 280V340 CAVOK M12/M14 Q1017=
201003050450 METAR ESMX 050450Z 33003KT 300V360 CAVOK M12/M14 Q1017=
201003050420 METAR ESMX 050420Z AUTO 32005KT 9999NDV NCD M13/M14 Q1017=
201003050350 METAR ESMX 050350Z AUTO 34003KT 9999NDV NCD M12/M14 Q1017=
201003050320 METAR ESMX 050320Z AUTO 33005KT 9999NDV NCD M12/M14 Q1017=
201003050250 METAR ESMX 050250Z AUTO 33004KT 9999NDV NCD M11/M13 Q1018=
201003050220 METAR ESMX 050220Z AUTO 33005KT 290V360 9999NDV NCD M11/M13 Q1018=
201003050150 METAR ESMX 050150Z AUTO 33005KT 9999NDV NCD M11/M14 Q1018=
201003050120 METAR ESMX 050120Z 33006KT CAVOK M11/M14 Q1018=
201003050050 METAR ESMX 050050Z 33005KT CAVOK M11/M13 Q1018=
201003050020 METAR ESMX 050020Z 33005KT CAVOK M10/M13 Q1017=
201003042350 METAR ESMX 042350Z 33005KT CAVOK M10/M13 Q1017=
201003042220 METAR ESMX 042220Z 32004KT CAVOK M10/M13 Q1017=
201003042120 METAR ESMX 042120Z 32004KT 9999 FEW035 M09/M13 Q1017=
201003042050 METAR ESMX 042050Z 30005KT 9999 SCT032 M09/M12 Q1017=
201003042020 METAR ESMX 042020Z 33005KT 9999 FEW034 M07/M12 Q1017=
201003041950 METAR ESMX 041950Z 34007KT 9999 SCT035 M07/M12 Q1017=
201003041920 METAR ESMX 041920Z 32005KT 9999 SCT037 M08/M12 Q1016=
201003041850 METAR ESMX 041850Z 33004KT 9999 FEW028 BKN033 M07/M12 Q1016=
201003041820 METAR ESMX 041820Z 34005KT 9999 SCT025 BKN030 M07/M12 Q1016=
201003041750 METAR ESMX 041750Z 34007KT 9999 SCT038 M07/M12 Q1016=
201003041720 METAR ESMX 041720Z 34008KT CAVOK M06/M11 Q1016=
201003041650 METAR ESMX 041650Z 34011KT 9999 FEW020 BKN026 M06/M11 Q1016=
201003041620 METAR ESMX 041620Z 34010KT 9999 BKN023 M06/M10 Q1015=
201003041550 METAR ESMX 041550Z 34012KT 9999 FEW017 OVC024 M05/M10 Q1015=
201003041520 METAR ESMX 041520Z 33010KT 9999 SCT021 BKN027 M05/M09 Q1015=
201003041450 METAR ESMX 041450Z 34009KT 9999 BKN020 BKN028 M05/M09 Q1014=
201003041420 METAR ESMX 041420Z 33009KT 9999 BKN022 M05/M09 Q1014=
201003041350 METAR ESMX 041350Z 34010KT 9999 BKN023 M05/M09 Q1014=
201003041250 METAR ESMX 041250Z 35008KT 320V020 9999 FEW021 BKN026 M05/M09 Q1014=
201003041220 METAR ESMX 041220Z 34008KT 300V010 9999 FEW021 BKN025 M05/M10 Q1014=
201003041150 METAR ESMX 041150Z 35008KT 320V020 9999 FEW025 M05/M11 Q1014=
201003041120 METAR ESMX 041120Z 34009KT 310V020 9999 FEW025 M06/M12 Q1014=
201003041050 METAR ESMX 041050Z 34007KT 300V010 CAVOK M06/M12 Q1014=
201003041020 METAR ESMX 041020Z 34007KT CAVOK M06/M12 Q1014=
201003040950 METAR ESMX 040950Z 34008KT CAVOK M07/M13 Q1013=
201003040920 METAR ESMX 040920Z 33008KT CAVOK M07/M13 Q1013=
201003040850 METAR ESMX 040850Z 32008KT 300V360 CAVOK M08/M13 Q1013=
201003040820 METAR ESMX 040820Z 33007KT CAVOK M08/M13 Q1013=
201003040750 METAR ESMX 040750Z 33007KT CAVOK M09/M13 Q1013=
201003040720 METAR ESMX 040720Z 32006KT CAVOK M10/M13 Q1013=
201003040650 METAR ESMX 040650Z 31005KT CAVOK M11/M14 Q1013=
201003040620 METAR ESMX 040620Z 32005KT CAVOK M11/M13 Q1013=
201003040550 METAR ESMX 040550Z 33005KT CAVOK M11/M13 Q1013=
201003040520 METAR ESMX 040520Z 33004KT CAVOK M12/M14 Q1013=
201003040450 METAR ESMX 040450Z 32006KT CAVOK M11/M13 Q1013=
201003040420 METAR ESMX 040420Z AUTO VRB02KT 9999NDV NCD M11/M13 Q1013=
201003040350 METAR ESMX 040350Z AUTO 28005KT 9999NDV NCD M11/M13 Q1013=
201003040320 METAR ESMX 040320Z AUTO 29005KT 9999NDV FEW110/// M11/M13 Q1012=
201003040250 METAR ESMX 040250Z AUTO 27002KT 9999NDV NCD M12/M13 Q1012=
201003040220 METAR ESMX 040220Z AUTO VRB02KT 9999NDV NCD M10/M12 Q1013=
201003040150 METAR ESMX 040150Z AUTO 29004KT 9999NDV NCD M10/M12 Q1013=
201003040120 METAR ESMX 040120Z AUTO 29005KT 9999NDV NCD M10/M12 Q1013=
201003040050 METAR ESMX 040050Z 30006KT CAVOK M07/M11 Q1013=
201003040020 METAR ESMX 040020Z 29006KT CAVOK M07/M11 Q1013=
201003032350 METAR ESMX 032350Z 29006KT CAVOK M07/M11 Q1013=
201003032320 METAR ESMX 032320Z 29006KT CAVOK M06/M11 Q1013=
201003032220 METAR ESMX 032220Z 29007KT CAVOK M05/M11 Q1012=
201003032150 METAR ESMX 032150Z 28007KT CAVOK M05/M11 Q1012=
201003032120 METAR ESMX 032120Z 28006KT CAVOK M05/M11 Q1012=
201003032050 METAR ESMX 032050Z 30006KT 280V350 CAVOK M04/M11 Q1012=
201003032020 METAR ESMX 032020Z 28008KT CAVOK M04/M11 Q1012=
201003031950 METAR ESMX 031950Z 27007KT 240V300 CAVOK M03/M12 Q1012=
201003031920 METAR ESMX 031920Z 28008KT CAVOK M03/M12 Q1012=
201003031850 METAR ESMX 031850Z 28006KT CAVOK M03/M12 Q1012=
201003031820 METAR ESMX 031820Z 27005KT CAVOK M03/M11 Q1012=
201003031750 METAR ESMX 031750Z 27005KT CAVOK M03/M11 Q1012=
201003031720 METAR ESMX 031720Z 28005KT CAVOK M03/M11 Q1012=
201003031650 METAR ESMX 031650Z 29007KT CAVOK M02/M12 Q1012=
201003031620 METAR ESMX 031620Z 29008KT CAVOK M01/M12 Q1012=
201003031550 METAR ESMX 031550Z 29011KT 250V320 CAVOK M01/M12 Q1012=
201003031520 METAR ESMX 031520Z 30012KT CAVOK M01/M12 Q1012=
201003031450 METAR ESMX 031450Z 30010KT 260V330 CAVOK M01/M12 Q1012=
201003031420 METAR ESMX 031420Z 29011KT CAVOK M00/M12 Q1012=
201003031350 METAR ESMX 031350Z 28010KT 240V340 CAVOK M00/M13 Q1012=
201003031320 METAR ESMX 031320Z 31011KT 280V350 CAVOK M00/M15 Q1012=
201003031250 METAR ESMX 031250Z 31010KT 270V340 CAVOK M00/M13 Q1012=
201003031220 METAR ESMX 031220Z 32009KT CAVOK M01/M12 Q1012=
201003031150 METAR ESMX 031150Z 32012KT CAVOK M01/M12 Q1012=
201003031120 METAR ESMX 031120Z 31010KT 270V350 CAVOK M01/M13 Q1011=
201003031050 METAR ESMX 031050Z 31009KT 280V340 CAVOK M01/M12 Q1011=
201003031020 METAR ESMX 031020Z 31009KT CAVOK M02/M11 Q1011=
201003030950 METAR ESMX 030950Z 33009KT 300V010 CAVOK M02/M11 Q1011=
201003030920 METAR ESMX 030920Z 31010KT CAVOK M02/M10 Q1011=
201003030850 METAR ESMX 030850Z 32008KT 290V350 CAVOK M03/M07 Q1010=
201003030820 METAR ESMX 030820Z 30006KT 270V330 CAVOK M04/M07 Q1010=
201003030750 METAR ESMX 030750Z 31004KT 280V350 CAVOK M04/M06 Q1010=
201003030720 METAR ESMX 030720Z 32003KT 9999 SCT005 M05/M06 Q1010=
201003030650 METAR ESMX 030650Z 28003KT 9999 BKN005 M05/M06 Q1009=
201003030620 METAR ESMX 030620Z 27003KT 9999 SCT007 M05/M06 Q1009=
201003030550 METAR ESMX 030550Z 29004KT 9999 BKN007 M05/M06 Q1009=
201003030520 METAR ESMX 030520Z 31004KT 9999 BKN008 M04/M06 Q1009=
201003030450 METAR ESMX 030450Z 29008KT 9999 OVC008 M04/M06 Q1008=
201003030420 METAR ESMX 030420Z AUTO 31007KT 260V340 9999NDV OVC009/// M03/M05 Q1008=
201003030350 METAR ESMX 030350Z AUTO 28006KT 250V330 9999NDV OVC009/// M03/M05 Q1008=
201003030320 METAR ESMX 030320Z AUTO 29006KT 250V340 9999NDV OVC009/// M03/M05 Q1008=
201003030250 METAR ESMX 030250Z AUTO 29006KT 250V320 9999NDV BKN008/// OVC011/// M03/M05 Q1008=
201003030220 METAR ESMX 030220Z AUTO 28007KT 250V320 9999NDV OVC008/// M03/M05 Q1008=
201003030150 METAR ESMX 030150Z AUTO 27008KT 240V300 9999NDV OVC009/// M03/M05 Q1008=
201003030120 METAR ESMX 030120Z AUTO 27008KT 240V300 9999NDV BKN010/// M03/M05 Q1008=
201003030050 METAR ESMX 030050Z AUTO 25008KT 9999NDV SCT012/// M04/M06 Q1008=
201003030020 METAR ESMX 030020Z 25009KT 9999 BKN013 M04/M06 Q1009=
201003022350 METAR ESMX 022350Z 25009KT 9999 SCT013 M04/M06 Q1009=
201003022220 METAR ESMX 022220Z 24008KT 210V280 CAVOK M05/M08 Q1009=
201003022150 METAR ESMX 022150Z 27010KT CAVOK M04/M09 Q1009=
201003022120 METAR ESMX 022120Z 27009KT CAVOK M04/M09 Q1009=
201003022050 METAR ESMX 022050Z 27008KT CAVOK M04/M09 Q1009=
201003022020 METAR ESMX 022020Z 27008KT CAVOK M04/M09 Q1009=
201003021950 METAR ESMX 021950Z 27008KT CAVOK M04/M09 Q1008=
201003021920 METAR ESMX 021920Z 27010KT CAVOK M04/M09 Q1008=
201003021850 METAR ESMX 021850Z 27009KT CAVOK M04/M08 Q1008=
201003021820 METAR ESMX 021820Z 27008KT CAVOK M04/M08 Q1008=
201003021750 METAR ESMX 021750Z 27007KT CAVOK M04/M08 Q1008=
201003021720 METAR ESMX 021720Z 27008KT CAVOK M03/M08 Q1008=
201003021650 METAR ESMX 021650Z 28008KT CAVOK M03/M08 Q1008=
201003021620 METAR ESMX 021620Z 28007KT CAVOK M03/M08 Q1007=
201003021550 METAR ESMX 021550Z 29011KT CAVOK M02/M08 Q1007=
201003021520 METAR ESMX 021520Z 30013KT 9999 FEW029 M02/M08 Q1007=
201003021450 METAR ESMX 021450Z 29011KT 260V330 9999 FEW030 M02/M08 Q1006=
201003021420 METAR ESMX 021420Z 29011KT 9999 FEW028 SCT034 M02/M08 Q1006=
201003021350 METAR ESMX 021350Z 30015KT 280V340 9999 SCT025 M02/M08 Q1006=
201003021320 METAR ESMX 021320Z 29014KT 260V320 9999 SCT026 M02/M08 Q1006=
201003021250 METAR ESMX 021250Z 28013KT 9999 FEW026 M02/M08 Q1005=
201003021220 METAR ESMX 021220Z 30013KT 260V330 9999 FEW028 M02/M08 Q1005=
201003021150 METAR ESMX 021150Z 28012KT 250V320 CAVOK M02/M08 Q1005=
201003021120 METAR ESMX 021120Z 28013KT CAVOK M02/M08 Q1005=
201003021050 METAR ESMX 021050Z 28011KT CAVOK M03/M07 Q1005=
201003020920 METAR ESMX 020920Z 29009KT CAVOK M03/M08 Q1005=
201003020850 METAR ESMX 020850Z 28007KT CAVOK M04/M08 Q1004=
201003020820 METAR ESMX 020820Z 28007KT 250V310 CAVOK M04/M08 Q1004=
201003020750 METAR ESMX 020750Z 28007KT CAVOK M05/M08 Q1004=
201003020720 METAR ESMX 020720Z 28007KT CAVOK M06/M08 Q1004=
201003020650 METAR ESMX 020650Z 27008KT CAVOK M06/M08 Q1003=
201003020620 METAR ESMX 020620Z 28007KT CAVOK M06/M08 Q1003=
201003020550 METAR ESMX 020550Z 26007KT CAVOK M06/M07 Q1003=
201003020520 METAR ESMX 020520Z 27009KT 9999 FEW015 M06/M07 Q1002=
201003020450 METAR ESMX 020450Z 27009KT 9999 FEW015 M05/M07 Q1002=
201003020420 METAR ESMX 020420Z AUTO 28006KT 9999NDV NCD M05/M06 Q1001=
201003020350 METAR ESMX 020350Z AUTO 28007KT 9999NDV NCD M05/M06 Q1001=
201003020320 METAR ESMX 020320Z AUTO 29009KT 9999NDV FEW018/// M04/M06 Q1001=
201003020250 METAR ESMX 020250Z AUTO 30010KT 260V330 9999NDV SCT014/// BKN018/// BKN100/// M03/M06 Q1000=
201003020220 METAR ESMX 020220Z AUTO 30010KT 270V340 9999NDV OVC013/// M03/M05 Q1000=
201003020150 METAR ESMX 020150Z AUTO 30011KT 9999NDV OVC013/// M03/M05 Q0999=
201003020120 METAR ESMX 020120Z AUTO 30010KT 270V330 9999NDV OVC012/// M03/M04 Q0999=
201003020050 METAR ESMX 020050Z 30011KT 9999 FEW011 OVC013 M03/M04 Q0999=
201003020020 METAR ESMX 020020Z 29011KT 9999 -SN BKN010 OVC017 M03/M04 Q0998=
201003012350 METAR ESMX 012350Z 29009KT 9999 -SN FEW011 SCT015 OVC021 M03/M04 Q0998=
201003012320 METAR ESMX 012320Z 28008KT 250V310 9999 SG FEW011 OVC015 M03/M04 Q0997=
201003012250 METAR ESMX 012250Z 29009KT 9999 -SN SCT010 BKN018 M03/M04 Q0997=
201003012220 METAR ESMX 012220Z 30011KT 9999 -SN SCT010 BKN030 M03/M04 Q0996=
201003012150 METAR ESMX 012150Z 29009KT 4100 -SN FEW010 SCT013 BKN015 M03/M04 Q0996 RESG=
201003012120 METAR ESMX 012120Z 29010KT 9999 SG OVC010 M03/M04 Q0996=
201003012050 METAR ESMX 012050Z 30010KT 270V350 9999 SG OVC011 M03/M04 Q0995=
201003012020 METAR ESMX 012020Z 30012KT 250V340 9999 -SN FEW009 OVC011 M03/M04 Q0995=
201003011950 METAR ESMX 011950Z 29010KT 9999 -SN SCT008 BKN010 M03/M04 Q0994=
201003011920 METAR ESMX 011920Z 30010KT 9999 FEW010 OVC012 M03/M04 Q0993 RESG=
201003011850 METAR ESMX 011850Z 30011KT 260V320 9999 SG OVC011 M03/M04 Q0993=
201003011820 METAR ESMX 011820Z 30011KT 9000 -SN FEW009 BKN013 M02/M04 Q0993 RESN=
201003011750 METAR ESMX 011750Z 29012KT 4500 SN FEW009 BKN014 M02/M03 Q0992=
201003011720 METAR ESMX 011720Z 29011KT 3000 SN FEW008 BKN012 M02/M03 Q0991=
201003011650 METAR ESMX 011650Z 29010KT 260V330 2200 SN FEW006 BKN015 M02/M03 Q0991=
201003011620 METAR ESMX 011620Z 30010KT 270V330 0800 R19/0550VP2000 +SN FEW005 BKN013 M02/M02 Q0990=
201003011550 METAR ESMX 011550Z 31012KT 0800 R19/0750V1900D +SN VV005 M02/M02 Q0989=
201003011450 METAR ESMX 011450Z 32014G25KT 2500 SN FEW008 BKN015 M02/M03 Q0988=
201003011420 METAR ESMX 011420Z 30012KT 270V330 2500 SN FEW007 SCT011 BKN016 M01/M02 Q0987=
201003011350 METAR ESMX 011350Z 31012KT 3000 SN FEW005 BKN009 M01/M02 Q0986=
201003011320 METAR ESMX 011320Z 31011KT 270V340 1000 R01/1000V1400N R19/1000V1500D SN FEW005 SCT007 BKN010 M01/M02 Q0986=
201003011250 METAR ESMX 011250Z 31014KT 1500 R01/P2000D R19/1000V1800D SN FEW006 SCT008 BKN012 M01/M01 Q0985=
201003011220 METAR ESMX 011220Z 31012KT 280V340 1500 R01/1400VP2000D R19/1300VP2000U SN FEW006 SCT008 BKN010 M00/M01 Q0984=
