##########################################################
# Query made at 04/19/2024 21:16:02 UTC
# Time interval: from 05/01/2010 12:00  to 05/31/2010 12:59  UTC
##########################################################

##########################################################
# ESMX, Vaxjo (Sweden)
# WMO index: 02641. WIGOS ID: 0-20000-0-02648
# Latitude 56-51N. Longitude 014-50E. Altitude 199 m.
##########################################################

201005311250 METAR ESMX 311250Z 04015KT 010V080 9999 SCT046 16/05 Q1012=
201005311220 METAR ESMX 311220Z 04016KT 9999 FEW046 17/04 Q1012=
201005311150 METAR ESMX 311150Z 05015G25KT 010V080 9999 FEW047 16/04 Q1012=
201005311120 METAR ESMX 311120Z 06014KT 010V110 9999 FEW044 16/05 Q1012=
201005311050 METAR ESMX 311050Z 05011KT 020V100 9999 FEW045 16/05 Q1011=
201005311020 METAR ESMX 311020Z 03013KT 340V080 9999 FEW043 16/05 Q1011=
201005310950 METAR ESMX 310950Z 04014KT 020V080 9999 FEW035 15/05 Q1011=
201005310920 METAR ESMX 310920Z 04014KT 350V070 CAVOK 15/05 Q1011=
201005310850 METAR ESMX 310850Z 04013KT CAVOK 14/05 Q1011=
201005310820 METAR ESMX 310820Z 04014KT 010V080 CAVOK 14/05 Q1011=
201005310750 METAR ESMX 310750Z 04012KT 010V080 CAVOK 13/06 Q1011=
201005310720 METAR ESMX 310720Z 04010KT 350V070 CAVOK 12/06 Q1011=
201005310650 METAR ESMX 310650Z 04012KT CAVOK 12/06 Q1011=
201005310620 METAR ESMX 310620Z 03010KT 360V070 CAVOK 11/05 Q1010=
201005310550 METAR ESMX 310550Z 04012KT 360V070 CAVOK 10/05 Q1010=
201005310520 METAR ESMX 310520Z 04012KT 010V070 CAVOK 10/05 Q1010=
201005310450 METAR ESMX 310450Z 04010KT 010V070 9999 FEW045 BKN063 10/04 Q1009=
201005310420 METAR ESMX 310420Z 04010KT 9999 FEW045 10/04 Q1009=
201005310350 METAR ESMX 310350Z 04010KT 010V080 CAVOK 09/03 Q1009=
201005310320 METAR ESMX 310320Z AUTO 04010KT 340V080 9999NDV SCT052/// 09/03 Q1009=
201005310250 METAR ESMX 310250Z AUTO 04009KT 360V080 9999NDV FEW051/// 09/03 Q1009=
201005310220 METAR ESMX 310220Z AUTO 04011KT 9999NDV NCD 09/02 Q1009=
201005310150 METAR ESMX 310150Z AUTO 04009KT 360V080 9999NDV NCD 09/02 Q1009=
201005310120 METAR ESMX 310120Z AUTO 04009KT 9999NDV FEW041/// 09/02 Q1009=
201005310050 METAR ESMX 310050Z AUTO 04008KT 010V080 9999NDV FEW041/// 09/03 Q1009=
201005310020 METAR ESMX 310020Z AUTO 04008KT 010V070 9999NDV FEW040/// 09/03 Q1009=
201005302350 METAR ESMX 302350Z 05008KT 020V080 CAVOK 09/03 Q1009=
201005302320 METAR ESMX 302320Z 04009KT 360V080 CAVOK 09/03 Q1009=
201005302250 METAR ESMX 302250Z 04007KT CAVOK 09/02 Q1009=
201005302220 METAR ESMX 302220Z 05008KT 010V110 9999 NSC 09/03 Q1009=
201005302150 METAR ESMX 302150Z 05006KT 020V090 CAVOK 09/04 Q1010=
201005302120 METAR ESMX 302120Z 05006KT 360V110 CAVOK 10/04 Q1010=
201005302050 METAR ESMX 302050Z 05007KT 010V080 CAVOK 10/04 Q1010=
201005302020 METAR ESMX 302020Z 05007KT 010V100 CAVOK 11/04 Q1010=
201005301850 METAR ESMX 301850Z 06006KT 360V110 CAVOK 12/04 Q1009=
201005301820 METAR ESMX 301820Z 08006KT 020V130 CAVOK 13/04 Q1009=
201005301750 METAR ESMX 301750Z 08006KT 030V130 CAVOK 13/04 Q1009=
201005301720 METAR ESMX 301720Z 10006KT 050V150 CAVOK 14/04 Q1009=
201005301650 METAR ESMX 301650Z 10006KT 050V150 CAVOK 14/04 Q1009=
201005301620 METAR ESMX 301620Z 08006KT 030V140 CAVOK 14/05 Q1009=
201005301550 METAR ESMX 301550Z 10006KT 040V140 CAVOK 15/05 Q1010=
201005301520 METAR ESMX 301520Z 11007KT 070V160 CAVOK 15/04 Q1010=
201005301450 METAR COR ESMX 301450Z 11007KT 060V170 CAVOK 15/04 Q1010=
201005301420 METAR ESMX 301420Z 10006KT 050V150 CAVOK 15/04 Q1010=
201005301350 METAR ESMX 301350Z 13007KT 070V200 9999 FEW040 OVC060 14/03 Q1011=
201005301320 METAR ESMX 301320Z 13006KT 060V170 9999 FEW038 BKN057 15/03 Q1011=
201005301250 METAR ESMX 301250Z 12008KT 080V170 9999 FEW035 BKN066 16/03 Q1011=
201005301220 METAR ESMX 301220Z 14008KT 100V200 CAVOK 15/04 Q1012=
201005301150 METAR ESMX 301150Z 13008KT 020V190 CAVOK 16/04 Q1012=
201005301120 METAR ESMX 301120Z 15007KT 080V200 CAVOK 16/03 Q1012=
201005301050 METAR ESMX 301050Z 15007KT 110V190 CAVOK 15/03 Q1012=
201005301020 METAR ESMX 301020Z 11007KT 060V140 CAVOK 15/03 Q1012=
201005300950 METAR ESMX 300950Z VRB08KT CAVOK 15/03 Q1013=
201005300920 METAR ESMX 300920Z 12006KT 070V190 CAVOK 15/03 Q1013=
201005300850 METAR ESMX 300850Z 15007KT 070V210 CAVOK 15/03 Q1013=
201005300820 METAR ESMX 300820Z AUTO 15007KT 100V170 9999NDV NCD 14/03 Q1013=
201005300750 METAR ESMX 300750Z AUTO 14008KT 080V190 9999NDV NCD 14/05 Q1014=
201005300720 METAR ESMX 300720Z AUTO 15005KT 090V190 9999NDV NCD 13/05 Q1014=
201005300650 METAR ESMX 300650Z AUTO 14005KT 080V190 9999NDV NCD 12/05 Q1014=
201005300620 METAR ESMX 300620Z AUTO 13004KT 080V180 9999NDV NCD 11/06 Q1014=
201005300550 METAR ESMX 300550Z AUTO 12003KT 080V160 9999NDV NCD 09/06 Q1014=
201005300520 METAR ESMX 300520Z AUTO 12003KT 060V160 9999NDV FEW086/// 09/06 Q1014=
201005300450 METAR ESMX 300450Z AUTO 14004KT 110V170 9999NDV NCD 08/06 Q1014=
201005300420 METAR ESMX 300420Z AUTO VRB01KT 9999NDV NCD 08/06 Q1014=
201005300350 METAR ESMX 300350Z AUTO 15003KT 100V180 9999NDV NCD 05/05 Q1014=
201005300320 METAR ESMX 300320Z AUTO 16003KT 9999NDV NCD 03/02 Q1014=
201005300250 METAR ESMX 300250Z AUTO 17002KT 9999NDV NCD 03/02 Q1014=
201005300220 METAR ESMX 300220Z AUTO 17002KT 9999NDV NCD 03/02 Q1014=
201005300150 METAR ESMX 300150Z AUTO 19003KT 9999NDV NCD 04/03 Q1015=
201005300120 METAR ESMX 300120Z AUTO 17004KT 9999NDV NCD 04/03 Q1015=
201005300050 METAR ESMX 300050Z AUTO 18003KT 9999NDV NCD 05/03 Q1015=
201005300020 METAR ESMX 300020Z AUTO 19004KT 9999NDV NCD 04/03 Q1015=
201005292350 METAR ESMX 292350Z AUTO 18003KT 9999NDV NCD 04/03 Q1015=
201005292320 METAR ESMX 292320Z AUTO 18002KT 9999NDV NCD 05/04 Q1015=
201005292250 METAR ESMX 292250Z AUTO 21003KT 9999NDV NCD 07/04 Q1015=
201005292220 METAR ESMX 292220Z AUTO 21004KT 9999NDV NCD 06/04 Q1016=
201005292150 METAR ESMX 292150Z AUTO 18005KT 9999NDV NCD 07/04 Q1016=
201005292120 METAR ESMX 292120Z AUTO 22004KT 9999NDV NCD 07/04 Q1016=
201005292050 METAR ESMX 292050Z AUTO 22005KT 9999NDV NCD 07/04 Q1016=
201005292020 METAR ESMX 292020Z AUTO 22005KT 9999NDV NCD 07/03 Q1016=
201005291950 METAR ESMX 291950Z AUTO 21004KT 9999NDV NCD 09/04 Q1015=
201005291920 METAR ESMX 291920Z AUTO 24005KT 9999NDV NCD 10/04 Q1015=
201005291850 METAR ESMX 291850Z AUTO 25006KT 220V290 9999NDV NCD 11/04 Q1015=
201005291820 METAR ESMX 291820Z 25008KT 210V290 9999 FEW040 12/04 Q1015=
201005291750 METAR ESMX 291750Z 25008KT 210V290 9999 FEW040 12/04 Q1015=
201005291720 METAR ESMX 291720Z 25009KT 200V280 9999 FEW039 12/05 Q1015=
201005291650 METAR ESMX 291650Z 24010KT 210V300 9999 FEW041 13/04 Q1015=
201005291620 METAR ESMX 291620Z 25011KT 230V290 9999 FEW036 BKN055 13/05 Q1015=
201005291550 METAR ESMX 291550Z 26008KT 230V300 9999 FEW034 SCT048 13/05 Q1015=
201005291520 METAR COR ESMX 291520Z 27012KT 220V290 9999 FEW033 13/05 Q1015=
201005291450 METAR ESMX 291450Z AUTO 26011KT 220V290 9999NDV FEW035/// SCT044/// BKN061/// 13/05 Q1015=
201005291420 METAR ESMX 291420Z AUTO 25013KT 200V280 9999NDV FEW031/// SCT046/// BKN055/// 13/05 Q1014=
201005291350 METAR ESMX 291350Z AUTO 24014KT 200V290 9999NDV FEW033/// SCT040/// BKN053/// 13/06 Q1014=
201005291320 METAR ESMX 291320Z AUTO 26011KT 9999NDV FEW026/// SCT039/// BKN073/// 12/05 Q1014=
201005291250 METAR ESMX 291250Z AUTO 25011KT 200V280 9999NDV FEW027/// SCT034/// BKN055/// 12/06 Q1014=
201005291220 METAR ESMX 291220Z AUTO 24012KT 170V280 9999NDV FEW035/// SCT054/// BKN070/// 13/06 Q1014=
201005291150 METAR ESMX 291150Z AUTO 24011KT 210V280 9999NDV FEW024/// SCT031/// BKN050/// 12/06 Q1014=
201005291120 METAR ESMX 291120Z AUTO 24013KT 9999NDV FEW020/// SCT053/// 11/08 Q1014 RERA RESHRA=
201005291050 METAR ESMX 291050Z AUTO 22015KT 190V280 9999NDV SCT026/// BKN035/// BKN061/// 12/06 Q1014=
201005291020 METAR ESMX 291020Z 25011G21KT 210V300 9999 FEW024 SCT031 BKN049 12/06 Q1013=
201005290950 METAR ESMX 290950Z 25013KT 220V290 9999 FEW022 SCT023 12/06 Q1013=
201005290920 METAR ESMX 290920Z 25010KT 200V290 9999 FEW018 SCT042 BKN051 11/05 Q1013=
201005290850 METAR ESMX 290850Z 22008KT 190V260 9999 FEW027 SCT046 10/07 Q1013=
201005290820 METAR ESMX 290820Z 24009KT 180V290 9999 -SHRA FEW017 SCT021 10/05 Q1013=
201005290750 METAR ESMX 290750Z 25009KT 210V280 9999 SCT017 BKN021 10/05 Q1013=
201005290720 METAR ESMX 290720Z 23009KT 200V260 9999 FEW011 SCT030 BKN038 09/06 Q1013=
201005290650 METAR ESMX 290650Z 23008KT 190V270 9999 FEW010 SCT040 09/04 Q1012=
201005290620 METAR ESMX 290620Z 25008KT 210V290 9999 FEW009 SCT047 09/06 Q1012=
201005290550 METAR ESMX 290550Z AUTO 23008KT 9999NDV FEW008/// BKN010/// BKN014/// 08/06 Q1012=
201005290520 METAR ESMX 290520Z AUTO 24007KT 210V270 9999NDV FEW008/// SCT010/// BKN020/// 08/06 Q1012=
201005290450 METAR ESMX 290450Z AUTO 24008KT 9999NDV SCT006/// BKN046/// 08/06 Q1011=
201005290420 METAR ESMX 290420Z AUTO 21008KT 9999NDV FEW011/// BKN044/// 07/06 Q1011=
201005290350 METAR ESMX 290350Z AUTO 21006KT 9999NDV FEW015/// SCT024/// BKN037/// 06/05 Q1011=
201005290320 METAR ESMX 290320Z AUTO 20005KT 9999NDV FEW008/// 05/04 Q1011=
201005290250 METAR ESMX 290250Z AUTO 23006KT 9999NDV FEW006/// SCT008/// BKN017/// 06/05 Q1011=
201005290220 METAR ESMX 290220Z AUTO 22009KT 9999NDV BKN006/// OVC011/// 06/05 Q1010=
201005290150 METAR ESMX 290150Z AUTO 21007KT 9999NDV FEW005/// BKN007/// OVC009/// 06/05 Q1010=
201005290120 METAR ESMX 290120Z AUTO 21008KT 9999NDV FEW006/// BKN007/// OVC010/// 06/05 Q1010=
201005290050 METAR ESMX 290050Z AUTO 21007KT 9999NDV FEW008/// SCT017/// BKN019/// 06/05 Q1010=
201005290020 METAR ESMX 290020Z AUTO 22003KT 190V270 9999NDV FEW011/// SCT021/// BKN061/// 06/05 Q1010=
201005282350 METAR ESMX 282350Z AUTO 28005KT 250V320 9999NDV FEW021/// SCT027/// BKN050/// 06/05 Q1010=
201005282320 METAR ESMX 282320Z AUTO 27008KT 9999NDV -DZ FEW009/// SCT020/// BKN024/// 07/05 Q1010=
201005282250 METAR ESMX 282250Z AUTO 20008KT 9999NDV FEW014/// BKN032/// BKN039/// 07/06 Q1010=
201005282220 METAR ESMX 282220Z AUTO 19008KT 9999NDV FEW009/// SCT038/// BKN043/// 08/06 Q1010=
201005282150 METAR ESMX 282150Z AUTO 19006KT 9999NDV -DZ FEW021/// SCT041/// 07/06 Q1010=
201005282120 METAR ESMX 282120Z AUTO 17006KT 140V200 9999NDV -RA SCT007/// BKN049/// 08/07 Q1009 REDZ=
201005282050 METAR ESMX 282050Z AUTO 18006KT 9999NDV FEW014/// 08/07 Q1010=
201005282020 METAR ESMX 282020Z AUTO 19005KT 6000NDV BR FEW079/// 08/06 Q1009=
201005281950 METAR ESMX 281950Z AUTO 18005KT 7000NDV BR FEW040/// SCT098/// BKN110/// 09/08 Q1009=
201005281920 METAR ESMX 281920Z AUTO 18007KT 9999NDV BR SCT051/// BKN085/// 09/08 Q1009=
201005281850 METAR ESMX 281850Z AUTO 18005KT 9000NDV -RA NCD 09/08 Q1009=
201005281820 METAR ESMX 281820Z 16004KT 9999 FEW010 09/07 Q1009=
201005281750 METAR ESMX 281750Z 17004KT 130V200 9999 FEW013 BKN041 09/07 Q1009=
201005281720 METAR ESMX 281720Z 18006KT 140V210 9999 FEW010 BKN012 09/06 Q1009=
201005281650 METAR ESMX 281650Z 16005KT 9999 BKN015 09/06 Q1009=
201005281550 METAR ESMX 281550Z 16003KT 120V190 9999 FEW026 OVC030 09/06 Q1009=
201005281520 METAR ESMX 281520Z 15003KT 110V190 9999 -RA FEW028 OVC034 09/07 Q1010=
201005281450 METAR ESMX 281450Z 17007KT 140V200 9999 -RA FEW028 SCT034 09/06 Q1010 REDZ=
201005281420 METAR ESMX 281420Z 19006KT 150V210 9999 -RA FEW023 BKN038 10/06 Q1010=
201005281350 METAR ESMX 281350Z 22006KT 9999 -RA FEW023 BKN045 10/05 Q1010=
201005281320 METAR ESMX 281320Z 22009KT 180V250 9999 -RA FEW022 SCT047 11/05 Q1010=
201005281150 METAR ESMX 281150Z 22008KT 9999 FEW048 14/02 Q1009=
201005281120 METAR ESMX 281120Z VRB05KT 9999 FEW041 15/03 Q1009=
201005281050 METAR ESMX 281050Z 22005KT 190V260 9999 FEW045 14/00 Q1009=
201005281020 METAR ESMX 281020Z 21007KT 180V240 9999 FEW045 14/03 Q1009=
201005280950 METAR ESMX 280950Z 17007KT 110V250 9999 FEW042 15/03 Q1010=
201005280920 METAR COR ESMX 280920Z 14006KT 080V180 9999 FEW036 14/M00 Q1009=
201005280850 METAR ESMX 280850Z 04004KT 350V100 9999 FEW030 14/04 Q1010=
201005280820 METAR ESMX 280820Z 02003KT 310V070 9999 FEW025 13/06 Q1010=
201005280750 METAR ESMX 280750Z VRB01KT 9999 FEW020 11/05 Q1010=
201005280720 METAR ESMX 280720Z VRB03KT 9999 FEW015 11/06 Q1010=
201005280650 METAR ESMX 280650Z VRB02KT 9999 FEW012 11/07 Q1010=
201005280620 METAR ESMX 280620Z VRB01KT 9999 FEW005 11/08 Q1010=
201005280550 METAR ESMX 280550Z VRB01KT 9999 SCT001 09/08 Q1010=
201005280450 METAR ESMX 280450Z 00000KT 9999 BCFG NSC 07/06 Q1009=
201005280420 METAR ESMX 280420Z 00000KT 0900 R01/P2000N R19/P2000 BCFG VV003 04/04 Q1009=
201005280350 METAR ESMX 280350Z 00000KT 0350 R01/P2000D R19/0500 BCFG NSC 02/01 Q1010=
201005280320 METAR ESMX 280320Z AUTO 18002KT 0900NDV R01/1000VP2000D R19/0800V1200 SCT000/// 02/01 Q1009=
201005280250 METAR ESMX 280250Z AUTO 00000KT 0350NDV R01/0650 R19/0800V1800 FG VV000 01/01 Q1009=
201005280220 METAR ESMX 280220Z AUTO VRB01KT 0550NDV R01/P2000N R19/P2000N NCD 02/01 Q1009=
201005280150 METAR ESMX 280150Z AUTO 17002KT 0300NDV R01/P2000N R19/0800VP2000 BCFG NCD 02/01 Q1009=
201005280120 METAR ESMX 280120Z AUTO 19002KT 0150NDV R01/0800VP2000D R19/0550 FG NCD 02/02 Q1009=
201005280050 METAR ESMX 280050Z AUTO 00000KT 0100NDV R01/0300V0900D R19/0500N FG NCD 03/02 Q1009=
201005280020 METAR ESMX 280020Z AUTO 00000KT 0250NDV R01/0550VP2000D R19/0750V1300N FG NCD 03/03 Q1009=
201005272350 METAR ESMX 272350Z 00000KT 0150 R01/0600 R19/0750 BCFG NSC 04/03 Q1009=
201005272320 METAR ESMX 272320Z VRB01KT 9999 BCFG FEW081 05/04 Q1009=
201005272250 METAR ESMX 272250Z VRB02KT CAVOK 06/05 Q1009=
201005272220 METAR ESMX 272220Z VRB01KT 6000 BR FEW082 06/06 Q1009=
201005272150 METAR ESMX 272150Z 20002KT CAVOK 07/06 Q1009=
201005272120 METAR ESMX 272120Z 13002KT CAVOK 08/07 Q1009=
201005272050 METAR ESMX 272050Z 11002KT 9999 FEW046 SCT061 BKN078 08/07 Q1009=
201005272020 METAR ESMX 272020Z VRB01KT 9999 SCT045 BKN051 08/07 Q1009=
201005271950 METAR ESMX 271950Z VRB02KT 9999 SCT047 BKN059 09/07 Q1009=
201005271920 METAR ESMX 271920Z 08003KT 030V120 9999 -DZ FEW024 BKN059 09/07 Q1009=
201005271850 METAR ESMX 271850Z VRB02KT 9999 -RA FEW024 BKN045 10/06 Q1009=
201005271820 METAR ESMX 271820Z 08003KT 020V140 9999 FEW025 BKN060 11/06 Q1008=
201005271750 METAR ESMX 271750Z 05004KT CAVOK 11/06 Q1008=
201005271720 METAR ESMX 271720Z VRB02KT 9999 FEW040CB BKN059 12/05 Q1008=
201005271650 METAR ESMX 271650Z 27003KT 9999 -SHRA FEW040CB BKN050 11/06 Q1008=
201005271620 METAR ESMX 271620Z 32005KT 9999 -SHRA FEW040 BKN050 12/06 Q1008=
201005271550 METAR ESMX 271550Z 33005KT 290V020 9999 FEW040CB BKN050 12/05 Q1007=
201005271520 METAR ESMX 271520Z 22005KT 170V250 9999 -SHRA FEW040CB BKN050 13/03 Q1007=
201005271450 METAR ESMX 271450Z 19006KT 9999 FEW040CB BKN070 13/05 Q1007=
201005271420 METAR ESMX 271420Z 17008KT 140V200 9999 FEW040CB BKN060 13/03 Q1007=
201005271350 METAR ESMX 271350Z 18009KT 9999 FEW040CB BKN055 14/03 Q1007=
201005271320 METAR ESMX 271320Z 18009KT 9999 SCT05TCU BKN089 14/03 Q1007=
201005271250 METAR ESMX 271250Z 23005KT 200V280 9999 FEW050CB BKN074 14/01 Q1007=
201005271220 METAR ESMX 271220Z VRB03KT 9999 FEW050TCU BKN080 15/01 Q1007=
201005271150 METAR ESMX 271150Z 25003KT 170V300 9999 SCT050TCU BKN085 15/01 Q1007=
201005271120 METAR ESMX 271120Z VRB03KT CAVOK 15/02 Q1007=
201005271050 METAR ESMX 271050Z 32004KT 270V020 CAVOK 15/03 Q1007=
201005271020 METAR ESMX 271020Z VRB02KT CAVOK 15/02 Q1007=
201005270920 METAR ESMX 270920Z VRB04KT 9999 FEW042 14/03 Q1007=
201005270850 METAR ESMX 270850Z 30004KT 260V330 9999 FEW041 SCT063 13/04 Q1007=
201005270820 METAR ESMX 270820Z 28003KT 250V320 9999 FEW040 SCT064 13/02 Q1007=
201005270750 METAR ESMX 270750Z 36003KT 320V040 9999 FEW030 SCT200 13/05 Q1007=
201005270720 METAR COR ESMX 270720Z VRB01KT 9999 FEW045 SCT200 13/05 Q1007=
201005270550 METAR ESMX 270550Z 02003KT 340V050 9999 FEW046 SCT200 09/05 Q1007=
201005270520 METAR ESMX 270520Z VRB02KT CAVOK 08/05 Q1007=
201005270420 METAR ESMX 270420Z VRB02KT CAVOK 06/04 Q1007=
201005270350 METAR ESMX 270350Z 00000KT CAVOK 03/02 Q1007=
201005270320 METAR ESMX 270320Z AUTO VRB01KT 9999NDV NCD 02/02 Q1007=
201005270250 METAR ESMX 270250Z AUTO VRB01KT 9999NDV SCT052/// 03/01 Q1007=
201005270220 METAR ESMX 270220Z AUTO 17002KT 9999NDV FEW052/// 02/01 Q1007=
201005270150 METAR ESMX 270150Z AUTO 00000KT 9999NDV BKN051/// 03/02 Q1007=
201005270120 METAR ESMX 270120Z AUTO 18002KT 9999NDV FEW052/// 03/02 Q1008=
201005270050 METAR ESMX 270050Z AUTO 25001KT 9999NDV NCD 03/02 Q1008=
201005270020 METAR ESMX 270020Z AUTO VRB01KT 9999NDV NCD 05/03 Q1008=
201005262350 METAR ESMX 262350Z AUTO 26002KT 9999NDV FEW057/// 05/03 Q1008=
201005262320 METAR ESMX 262320Z VRB02KT CAVOK 07/03 Q1008=
201005262250 METAR ESMX 262250Z 25004KT CAVOK 06/03 Q1008=
201005262220 METAR ESMX 262220Z 27003KT CAVOK 07/03 Q1008=
201005262150 METAR ESMX 262150Z 26003KT CAVOK 08/04 Q1008=
201005262120 METAR ESMX 262120Z 26003KT CAVOK 07/04 Q1008=
201005262050 METAR ESMX 262050Z 26003KT CAVOK 07/04 Q1008=
201005262020 METAR ESMX 262020Z 26003KT CAVOK 08/04 Q1008=
201005261950 METAR ESMX 261950Z 26002KT CAVOK 09/04 Q1008=
201005261920 METAR ESMX 261920Z 29004KT CAVOK 10/04 Q1008=
201005261850 METAR ESMX 261850Z 26002KT CAVOK 12/04 Q1007=
201005261820 METAR ESMX 261820Z 25003KT 210V290 CAVOK 13/03 Q1007=
201005261750 METAR ESMX 261750Z 26003KT 220V280 CAVOK 13/03 Q1007=
201005261720 METAR ESMX 261720Z 27005KT 220V310 CAVOK 13/02 Q1007=
201005261650 METAR ESMX 261650Z 24004KT 200V270 CAVOK 14/02 Q1007=
201005261550 METAR ESMX 261550Z 27008KT CAVOK 13/02 Q1007=
201005261520 METAR ESMX 261520Z 27009KT CAVOK 13/04 Q1007=
201005261450 METAR ESMX 261450Z VRB02KT CAVOK 14/03 Q1007=
201005261420 METAR ESMX 261420Z 02003KT 330V060 CAVOK 14/03 Q1007=
201005261350 METAR ESMX 261350Z 02005KT 330V080 9999 FEW048 BKN090 14/02 Q1007=
201005261320 METAR ESMX 261320Z 25003KT 170V310 9999 SCT047 BKN061 14/01 Q1007=
201005261250 METAR ESMX 261250Z 34004KT 260V020 9999 SCT045 BKN070 14/01 Q1007=
201005261220 METAR ESMX 261220Z 32005KT 240V020 9999 FEW045 BKN085 14/02 Q1007=
201005261150 METAR ESMX 261150Z VRB02KT 9999 FEW040 14/03 Q1007=
201005261120 METAR ESMX 261120Z 24004KT 200V290 9999 FEW040 12/03 Q1007=
201005261050 METAR ESMX 261050Z 29007KT 260V330 9999 FEW042 BKN063 12/03 Q1007=
201005261020 METAR ESMX 261020Z 04007KT 010V080 9999 FEW036 SCT065 13/04 Q1006=
201005260950 METAR ESMX 260950Z 34007KT 310V020 9999 FEW036 SCT050 12/03 Q1006=
201005260920 METAR ESMX 260920Z 35007KT 9999 FEW040 BKN051 11/04 Q1006=
201005260850 METAR ESMX 260850Z 36009KT 9999 SCT038 12/03 Q1006=
201005260820 METAR ESMX 260820Z 36009KT 320V060 9999 FEW038 12/03 Q1006=
201005260750 METAR ESMX 260750Z 36008KT 9999 FEW032 SCT038 11/03 Q1006=
201005260720 METAR ESMX 260720Z 34009KT 310V010 9999 SCT027 11/04 Q1006=
201005260650 METAR ESMX 260650Z 32009G30KT 300V360 9999 SCT026 10/03 Q1005=
201005260620 METAR ESMX 260620Z 01009KT 330V030 9999 SCT023 09/04 Q1005=
201005260520 METAR ESMX 260520Z 31004KT 260V360 CAVOK 08/04 Q1004=
201005260450 METAR ESMX 260450Z 28004KT 250V320 CAVOK 07/04 Q1004=
201005260420 METAR ESMX 260420Z 29004KT 250V330 CAVOK 06/04 Q1004=
201005260350 METAR ESMX 260350Z 28003KT 9999 SCT021 04/03 Q1004=
201005260320 METAR ESMX 260320Z AUTO 27002KT 9999NDV NCD 03/02 Q1004=
201005260250 METAR ESMX 260250Z AUTO 26004KT 9999NDV NCD 04/02 Q1003=
201005260220 METAR ESMX 260220Z AUTO 26004KT 9999NDV NCD 05/03 Q1003=
201005260150 METAR ESMX 260150Z AUTO 27004KT 9999NDV NCD 06/03 Q1003=
201005260120 METAR ESMX 260120Z AUTO 27006KT 9999NDV SCT081/// 07/03 Q1003=
201005260050 METAR ESMX 260050Z AUTO 27007KT 9999NDV BKN072/// 07/03 Q1003=
201005260020 METAR ESMX 260020Z AUTO 28007KT 9999NDV SCT060/// BKN081/// 07/03 Q1003=
201005252350 METAR ESMX 252350Z AUTO 27007KT 9999NDV SCT059/// OVC088/// 07/03 Q1003=
201005252320 METAR ESMX 252320Z 26007KT 230V290 CAVOK 07/04 Q1002=
201005252250 METAR ESMX 252250Z 27007KT CAVOK 07/04 Q1002=
201005252220 METAR ESMX 252220Z 27008KT CAVOK 07/03 Q1002=
201005252150 METAR ESMX 252150Z 27008KT CAVOK 07/03 Q1002=
201005252120 METAR ESMX 252120Z 27007KT CAVOK 07/03 Q1002=
201005252050 METAR ESMX 252050Z 27007KT CAVOK 07/03 Q1002=
201005252020 METAR ESMX 252020Z 27008KT 250V310 CAVOK 07/03 Q1002=
201005251950 METAR ESMX 251950Z 28007KT 240V310 9999 SCT040 07/03 Q1002=
201005251920 METAR ESMX 251920Z 26008KT 220V290 9999 FEW040 07/04 Q1002=
201005251850 METAR ESMX 251850Z 28008KT 9999 SCT055 BKN080 08/03 Q1002=
201005251820 METAR ESMX 251820Z 30008KT 260V330 9999 FEW030 SCT055 09/03 Q1002=
201005251750 METAR ESMX 251750Z 31010KT 280V340 9999 FEW025CB SCT035 09/04 Q1002=
201005251720 METAR ESMX 251720Z 33012KT 290V010 9999 FEW025CB SCT037 09/04 Q1001=
201005251650 METAR ESMX 251650Z 32012KT 290V020 9999 FEW020CB BKN030 09/04 Q1001=
201005251620 METAR ESMX 251620Z 31012G23KT 270V340 9999 SCT020CB OVC025 09/04 Q1001=
201005251550 METAR ESMX 251550Z 30015KT 260V330 9999 FEW017 SCT020CB BKN035 08/04 Q1000=
201005251520 METAR ESMX 251520Z 30013KT 270V330 9999 SCT020CB BKN030 08/05 Q1000=
201005251450 METAR ESMX 251450Z 29013KT 250V320 9999 FEW017 SCT020CB BKN026 08/05 Q0999=
201005251420 METAR ESMX 251420Z 30016KT 260V330 9999 FEW018 SCT020CB BKN027 09/05 Q0999=
201005251350 METAR ESMX 251350Z 31016KT 280V340 9999 SCT015CB BKN025 09/05 Q0999=
201005251320 METAR ESMX 251320Z 32016KT 280V350 9999 FEW016 SCT020CB BKN030 08/04 Q0998=
201005251250 METAR ESMX 251250Z 31014KT 9999 FEW014 SCT018CB BKN024 08/05 Q0997=
201005251220 METAR ESMX 251220Z 29013G24KT 250V320 9999 FEW014 SCT018CB 09/06 Q0997=
201005251150 METAR ESMX 251150Z 30015G26KT 260V330 9999 -SHRA FEW012 SCT024 09/06 Q0997=
201005251120 METAR ESMX 251120Z 30017G28KT 260V350 5000 -SHRA FEW012 BKN015 07/04 Q0996=
201005251020 METAR ESMX 251020Z 29012KT 260V320 9999 FEW013 SCT020CB BKN024 07/05 Q0996=
201005250950 METAR ESMX 250950Z 26011KT 140V320 9999 -SHRA FEW013 SCT020CB BKN080 08/05 Q0995=
201005250920 METAR ESMX 250920Z 27008KT 230V310 9999 FEW010 SCT020CB 07/04 Q0995=
201005250850 METAR ESMX 250850Z 25011KT 210V290 9999 -SHRA FEW014 SCT023CB BKN034 08/04 Q0995=
201005250820 METAR ESMX 250820Z 22011KT 190V280 9999 -SHRA FEW016CB SCT027 09/06 Q0995=
201005250750 METAR ESMX 250750Z 24010KT 210V300 9999 -RA FEW020 SCT030 BKN035 08/05 Q0995=
201005250720 METAR ESMX 250720Z 26010KT 230V300 7000 -RA FEW021 BKN025 BKN042 08/05 Q0995 REDZ=
201005250650 METAR ESMX 250650Z 24009KT 200V270 9999 FEW020 BKN023 BKN040 08/04 Q0995=
201005250620 METAR ESMX 250620Z 23011KT 200V290 9999 -SHRA FEW020 BKN023 09/04 Q0995=
201005250550 METAR ESMX 250550Z 25010KT 220V290 9999 BKN021 BKN040 08/04 Q0995=
201005250520 METAR ESMX 250520Z 26011KT 230V290 9999 FEW018 BKN022 08/03 Q0996=
201005250420 METAR ESMX 250420Z 24008KT 210V280 9999 SCT015 08/04 Q0996=
201005250350 METAR ESMX 250350Z 25007KT 210V290 9999 SCT015 07/04 Q0996=
201005250320 METAR ESMX 250320Z AUTO 25009KT 220V280 9999NDV FEW015/// BKN017/// BKN053/// 07/04 Q0996=
201005250250 METAR ESMX 250250Z AUTO 26008KT 220V290 9999NDV BKN015/// BKN041/// 07/04 Q0996=
201005250220 METAR ESMX 250220Z AUTO 24009KT 200V280 9999NDV FEW016/// SCT019/// BKN032/// 07/04 Q0996=
201005250150 METAR ESMX 250150Z AUTO 26010KT 220V290 9999NDV SCT015/// OVC020/// 08/05 Q0997=
201005250120 METAR ESMX 250120Z AUTO 23008KT 9999NDV FEW016/// OVC019/// 08/05 Q0997=
201005250050 METAR ESMX 250050Z AUTO 24008KT 200V270 9999NDV OVC016/// 08/05 Q0997=
201005250020 METAR ESMX 250020Z AUTO 25008KT 220V290 9999NDV BKN018/// 07/05 Q0997=
201005242350 METAR ESMX 242350Z 25007KT 9999 SCT019 07/05 Q0998=
201005242320 METAR ESMX 242320Z 26007KT 9999 SCT017 07/05 Q0998=
201005242250 METAR ESMX 242250Z 26009KT 9999 FEW015 SCT018 08/05 Q0998=
201005242150 METAR ESMX 242150Z 26010KT 9999 BKN016 08/05 Q0998=
201005242120 METAR ESMX 242120Z 25010KT 210V290 9999 FEW011 BKN080 10/07 Q0998=
201005242050 METAR ESMX 242050Z 26008KT 230V300 9999 FEW012 BKN080 10/08 Q0998=
201005242020 METAR ESMX 242020Z 26008KT 210V290 9999 FEW012 SCT014 BKN060 10/08 Q0998=
201005241950 METAR ESMX 241950Z 25008KT 220V280 9999 FEW015 BKN055 11/08 Q0998=
201005241920 METAR ESMX 241920Z 26008KT 230V290 9999 FEW030 BKN050 11/08 Q0998=
201005241850 METAR ESMX 241850Z 26007KT 230V290 9999 FEW045 BKN058 12/08 Q0998=
201005241820 METAR ESMX 241820Z 27009KT 9999 FEW045 BKN068 12/08 Q0998=
201005241750 METAR ESMX 241750Z 26010KT 200V290 9999 FEW035 BKN080 13/07 Q0998=
201005241720 METAR ESMX 241720Z 25011KT 9999 FEW035 BKN080 14/07 Q0998=
201005241650 METAR ESMX 241650Z 26014KT 9999 SCT035 BKN073 14/07 Q0999=
201005241620 METAR ESMX 241620Z 26010KT CAVOK 15/07 Q0999=
201005241550 METAR ESMX 241550Z 26011KT 210V290 9999 FEW046 SCT061 BKN074 16/06 Q0999=
201005241520 METAR ESMX 241520Z 27010KT 9999 FEW045 SCT072 17/06 Q0999=
201005241450 METAR ESMX 241450Z 26012KT 220V290 9999 FEW048 SCT073 16/05 Q0999=
201005241420 METAR ESMX 241420Z 27014KT 240V310 9999 FEW045 BKN055 17/06 Q0999=
201005241350 METAR ESMX 241350Z 27009KT 230V300 9999 SCT049 BKN068 15/05 Q1000=
201005241320 METAR ESMX 241320Z 26010KT 210V300 9999 FEW026 SCT047 BKN064 17/05 Q1000=
201005241250 METAR ESMX 241250Z 25010KT 230V290 9999 BKN049 16/06 Q1000=
201005241220 METAR ESMX 241220Z 24011KT 9999 VCSH FEW055CB SCT060 17/08 Q1000=
201005241150 METAR ESMX 241150Z 24005KT 210V270 9999 FEW028 SCT037 BKN058 13/08 Q1001 RERA=
201005241120 METAR ESMX 241120Z 26007KT 230V300 9999 FEW024 SCT033 15/09 Q1001=
201005241050 METAR ESMX 241050Z VRB03KT 9999 FEW018 SCT025 BKN029 15/09 Q1002=
201005241020 METAR ESMX 241020Z 28003KT 190V340 9999 FEW013 SCT018 BKN027 13/09 Q1002=
201005240950 METAR ESMX 240950Z 25004KT 210V290 9999 BKN011 OVC017 12/09 Q1002=
201005240920 METAR ESMX 240920Z 27003KT 210V320 9999 OVC011 11/09 Q1003=
201005240850 METAR ESMX 240850Z VRB04KT 9999 OVC010 11/08 Q1003=
201005240820 METAR ESMX 240820Z 22005KT 9999 OVC010 11/08 Q1003=
201005240750 METAR ESMX 240750Z 22005KT 200V270 9999 OVC009 11/08 Q1003=
201005240720 METAR ESMX 240720Z 26004KT 220V320 9999 OVC009 11/08 Q1003=
201005240650 METAR ESMX 240650Z 26006KT 220V300 9999 BKN007 OVC009 10/08 Q1004=
201005240620 METAR ESMX 240620Z 22005KT 190V250 9999 OVC006 10/09 Q1004=
201005240550 METAR ESMX 240550Z 22004KT 190V270 9999 OVC005 10/08 Q1004=
201005240520 METAR ESMX 240520Z 27004KT 240V320 9999 OVC004 10/08 Q1004=
201005240450 METAR ESMX 240450Z 24003KT 170V280 9000 BR OVC003 09/09 Q1005=
201005240350 METAR ESMX 240350Z 22003KT 180V250 1500N BR SCT002 BKN004 08/08 Q1005=
201005240320 METAR ESMX 240320Z AUTO VRB02KT 7000NDV BR FEW004/// SCT070/// BKN086/// 08/07 Q1005=
201005240250 METAR ESMX 240250Z AUTO 19002KT 9999NDV FEW006/// SCT072/// BKN085/// 08/07 Q1006=
201005240220 METAR ESMX 240220Z AUTO VRB02KT 9999NDV FEW072/// SCT090/// 07/07 Q1006=
201005240150 METAR ESMX 240150Z AUTO 27003KT 9999NDV NCD 08/07 Q1006=
201005240120 METAR ESMX 240120Z AUTO 25004KT 9999NDV NCD 07/06 Q1006=
201005240050 METAR ESMX 240050Z AUTO 23005KT 9999NDV FEW070/// 07/06 Q1007=
201005240020 METAR ESMX 240020Z AUTO 25003KT 9999NDV NCD 08/07 Q1007=
201005232350 METAR ESMX 232350Z 24004KT CAVOK 08/06 Q1007=
201005232250 METAR ESMX 232250Z VRB02KT CAVOK 09/07 Q1008=
201005232150 METAR ESMX 232150Z 25004KT CAVOK 08/07 Q1008=
201005232120 METAR ESMX 232120Z 18002KT CAVOK 08/06 Q1008=
201005232050 METAR ESMX 232050Z 23003KT CAVOK 08/06 Q1009=
201005232020 METAR ESMX 232020Z 17003KT CAVOK 09/06 Q1009=
201005231920 METAR ESMX 231920Z 32004KT CAVOK 12/06 Q1009=
201005231820 METAR ESMX 231820Z 34006KT CAVOK 15/06 Q1009=
201005231750 METAR ESMX 231750Z 35010KT 320V020 CAVOK 16/06 Q1009=
201005231720 METAR ESMX 231720Z 34009KT 9999 FEW045 16/07 Q1009=
201005231650 METAR ESMX 231650Z 35013KT 9999 FEW044 16/08 Q1009=
201005231620 METAR ESMX 231620Z 33014KT 9999 FEW042 SCT054 17/08 Q1009=
201005231550 METAR ESMX 231550Z 34009KT 9999 FEW038 SCT052 17/10 Q1009=
201005231520 METAR ESMX 231520Z 32006KT 9999 FEW023 SCT041 16/12 Q1009=
201005231450 METAR ESMX 231450Z 29004KT 250V330 9999 FEW013 SCT029 BKN065 16/13 Q1008=
201005231420 METAR ESMX 231420Z 25004KT 9999 FEW036 SCT052 BKN071 15/13 Q1008 RERA=
201005231350 METAR ESMX 231350Z 33009KT 290V360 9999 -RA FEW007 SCT025 BKN070 14/11 Q1009=
201005231320 METAR ESMX 231320Z 25011KT 200V300 9999 VCSH FEW025 SCT028CB BKN051 18/11 Q1008=
201005231250 METAR ESMX 231250Z 26014KT 230V300 9999 FEW026 SCT033 18/12 Q1009=
201005231220 METAR ESMX 231220Z 25013KT 210V280 9999 FEW024 SCT029 18/11 Q1009=
201005231150 METAR ESMX 231150Z 25015KT 210V280 9999 FEW026 SCT030 18/11 Q1009=
201005231120 METAR ESMX 231120Z 26011KT 220V290 9999 FEW027 BKN041 18/12 Q1010=
201005231050 METAR ESMX 231050Z 26012KT 230V290 9999 FEW026 SCT031 BKN039 18/12 Q1010=
201005231020 METAR ESMX 231020Z 26011KT 230V310 9999 FEW024 SCT028 BKN042 18/11 Q1010=
201005230950 METAR ESMX 230950Z 27012KT 230V310 9999 FEW022 SCT026 BKN030 18/12 Q1011=
201005230920 METAR ESMX 230920Z 28013KT 9999 FEW022 SCT028 BKN088 19/12 Q1011=
201005230850 METAR ESMX 230850Z 25010KT 200V280 9999 FEW024 SCT054 BKN068 18/12 Q1011=
201005230820 METAR ESMX 230820Z 23009KT 200V280 CAVOK 18/12 Q1012=
201005230750 METAR ESMX 230750Z AUTO 25009KT 210V280 9999NDV BKN092/// 16/11 Q1012=
201005230720 METAR ESMX 230720Z AUTO 26011KT 220V290 9999NDV BKN095/// 17/11 Q1013=
201005230650 METAR ESMX 230650Z AUTO 23011KT 200V270 9999NDV FEW095/// 15/11 Q1013=
201005230620 METAR ESMX 230620Z AUTO 24011KT 9999NDV FEW010/// 14/11 Q1013=
201005230550 METAR ESMX 230550Z AUTO 23009KT 200V270 9999NDV NCD 15/12 Q1013=
201005230520 METAR ESMX 230520Z AUTO 23007KT 9999NDV NCD 15/12 Q1014=
201005230450 METAR ESMX 230450Z AUTO 22007KT 9999NDV NCD 14/11 Q1014=
201005230420 METAR ESMX 230420Z AUTO 24005KT 9999NDV FEW096/// 13/11 Q1015=
201005230350 METAR ESMX 230350Z AUTO 23005KT 9999NDV FEW083/// BKN097/// 13/11 Q1015=
201005230320 METAR ESMX 230320Z AUTO 23005KT 9999NDV BKN088/// 12/11 Q1016=
201005230250 METAR ESMX 230250Z AUTO 23005KT 9999NDV SCT087/// BKN110/// 13/11 Q1016=
201005230220 METAR ESMX 230220Z AUTO 22006KT 9999NDV BKN100/// 13/12 Q1016=
201005230150 METAR ESMX 230150Z AUTO 25003KT 9999NDV NCD 13/12 Q1017=
201005230120 METAR ESMX 230120Z AUTO 23004KT 9999NDV NCD 14/12 Q1017=
201005230050 METAR ESMX 230050Z AUTO 25004KT 9999NDV NCD 14/12 Q1018=
201005230020 METAR ESMX 230020Z AUTO 25005KT 9999NDV NCD 15/12 Q1018=
201005222350 METAR ESMX 222350Z AUTO 25004KT 9999NDV NCD 15/12 Q1018=
201005222320 METAR ESMX 222320Z AUTO 24005KT 9999NDV NCD 15/12 Q1018=
201005222250 METAR ESMX 222250Z AUTO 25003KT 230V290 9999NDV NCD 15/12 Q1019=
201005222220 METAR ESMX 222220Z AUTO 25004KT 9999NDV SCT077/// 15/12 Q1019=
201005222150 METAR ESMX 222150Z AUTO 25005KT 9999NDV BKN065/// 16/12 Q1019=
201005222120 METAR ESMX 222120Z AUTO 24006KT 9999NDV SCT066/// 15/12 Q1019=
201005222050 METAR ESMX 222050Z AUTO 23005KT 9999NDV FEW080/// 15/12 Q1020=
201005222020 METAR ESMX 222020Z AUTO 22006KT 9999NDV NCD 16/12 Q1020=
201005221950 METAR ESMX 221950Z AUTO 22007KT 9999NDV NCD 17/12 Q1020=
201005221920 METAR ESMX 221920Z AUTO 24003KT 9999NDV BKN100/// 18/11 Q1020=
201005221850 METAR ESMX 221850Z 24003KT CAVOK 19/11 Q1020=
201005221820 METAR ESMX 221820Z 25003KT 200V290 CAVOK 19/11 Q1020=
201005221750 METAR ESMX 221750Z 21004KT CAVOK 20/10 Q1020=
201005221720 METAR ESMX 221720Z 22006KT CAVOK 22/10 Q1020=
201005221650 METAR ESMX 221650Z 22006KT 190V250 CAVOK 22/10 Q1020=
201005221620 METAR ESMX 221620Z 21005KT 150V260 CAVOK 22/10 Q1021=
201005221550 METAR ESMX 221550Z 17002KT CAVOK 21/06 Q1021=
201005221520 METAR ESMX 221520Z 01003KT CAVOK 22/06 Q1021=
201005221450 METAR ESMX 221450Z AUTO 03004KT 340V070 9999NDV NCD 23/07 Q1021=
201005221420 METAR ESMX 221420Z AUTO 07004KT 020V130 9999NDV NCD 23/06 Q1021=
201005221350 METAR ESMX 221350Z AUTO VRB01KT 9999NDV NCD 23/06 Q1022=
201005221320 METAR ESMX 221320Z AUTO VRB04KT 9999NDV NCD 22/07 Q1022=
201005221250 METAR ESMX 221250Z AUTO 05005KT 010V120 9999NDV NCD 22/08 Q1022=
201005221220 METAR ESMX 221220Z AUTO 34003KT 270V070 9999NDV NCD 22/08 Q1023=
201005221150 METAR ESMX 221150Z AUTO 35004KT 290V040 9999NDV NCD 21/09 Q1023=
201005221120 METAR ESMX 221120Z AUTO 01004KT 300V060 9999NDV FEW079/// 21/11 Q1023=
201005221050 METAR ESMX 221050Z AUTO 01005KT 330V070 9999NDV FEW067/// 21/13 Q1023=
201005221020 METAR ESMX 221020Z AUTO 05005KT 340V120 9999NDV NCD 20/14 Q1023=
201005220850 METAR COR ESMX 220850Z 36004KT 310V060 9999 FEW015 SCT200 17/14 Q1024=
201005220820 METAR ESMX 220820Z 01005KT 9999 FEW016 SCT200 17/14 Q1024=
201005220750 METAR ESMX 220750Z 36004KT CAVOK 16/13 Q1024=
201005220720 METAR ESMX 220720Z 36004KT 330V040 CAVOK 14/12 Q1024=
201005220650 METAR ESMX 220650Z 35003KT 310V020 CAVOK 14/12 Q1024=
201005220620 METAR ESMX 220620Z AUTO 35004KT 9999NDV NCD 13/12 Q1024=
201005220550 METAR ESMX 220550Z AUTO 01004KT 9999NDV NCD 12/11 Q1023=
201005220520 METAR ESMX 220520Z AUTO 01003KT 9999NDV NCD 11/11 Q1023=
201005220450 METAR ESMX 220450Z AUTO 01004KT 9999NDV NCD 11/10 Q1023=
201005220420 METAR ESMX 220420Z AUTO 02004KT 9000NDV NCD 11/11 Q1023=
201005220350 METAR ESMX 220350Z AUTO 02003KT 5000NDV NCD 12/11 Q1023=
201005220320 METAR ESMX 220320Z AUTO VRB02KT 0300NDV R01/0550 R19/P2000N FG FEW002/// SCT003/// 12/11 Q1023=
201005220250 METAR ESMX 220250Z AUTO 02002KT 0750NDV R01/P2000N R19/P2000N BCFG BKN001/// 12/11 Q1023=
201005220220 METAR ESMX 220220Z AUTO 03003KT 350V060 0200NDV R01/0800 R19/0900 FG VV001 13/12 Q1023=
201005220150 METAR ESMX 220150Z AUTO 03003KT 010V070 0200NDV R01/0650 R19/0800V1300U FG VV001 13/12 Q1023=
201005220120 METAR ESMX 220120Z AUTO 04003KT 350V060 0200NDV R01/0700N R19/0750N FG VV000 13/12 Q1023=
201005220050 METAR ESMX 220050Z AUTO VRB02KT 0100NDV R01/0450N R19/0500N FG VV000 13/12 Q1023=
201005220020 METAR ESMX 220020Z AUTO 03004KT 0100NDV R01/0275V0450U R19/0550 FG VV000 14/13 Q1023=
201005212350 METAR ESMX 212350Z AUTO VRB02KT 0050NDV R01/0275N R19/0300V0450N FG VV000 14/13 Q1023=
201005212320 METAR ESMX 212320Z AUTO VRB01KT 0050NDV R01/0275N R19/0550 FG VV000 14/13 Q1023=
201005212250 METAR ESMX 212250Z AUTO 12002KT 0100NDV R01/0600N R19/0325 FG VV000 14/13 Q1023=
201005212220 METAR ESMX 212220Z AUTO 06002KT 0150NDV R01/0400V0550 R19/0500 FG FEW000/// 13/12 Q1023=
201005212150 METAR ESMX 212150Z AUTO VRB01KT 0100NDV R01/0275V0650N R19/0500V1700D FG SCT009/// BKN013/// 14/13 Q1023=
201005212120 METAR ESMX 212120Z AUTO 00000KT 0200NDV R01/0800 R19/P2000N FG FEW002/// SCT006/// OVC008/// 15/14 Q1023=
201005212050 METAR ESMX 212050Z AUTO 00000KT 3600NDV BR SCT003/// BKN005/// BKN007/// 15/14 Q1023=
201005212020 METAR ESMX 212020Z AUTO VRB02KT 8000NDV BR FEW004/// OVC006/// 15/15 Q1023=
201005211950 METAR ESMX 211950Z AUTO 15003KT 5000NDV BR FEW002/// SCT003/// BKN005/// 16/15 Q1023=
201005211920 METAR ESMX 211920Z AUTO VRB02KT 7000NDV BR FEW001/// 16/15 Q1023=
201005211850 METAR ESMX 211850Z 13002KT 9999 -SHRA FEW030 BKN100 16/15 Q1023=
201005211820 METAR ESMX 211820Z VRB01KT 9999 -SHRA FEW030CB BKN100 16/15 Q1023=
201005211720 METAR ESMX 211720Z VRB01KT 9999 TSRA SCT025CB SCT051 BKN080 17/15 Q1023=
201005211650 METAR ESMX 211650Z 18006KT 9999 TS VCSH FEW027CB SCT035 BKN057 18/15 Q1023=
201005211620 METAR ESMX 211620Z 20007KT 9999 VCSH FEW026CB BKN090 19/15 Q1023=
201005211550 METAR ESMX 211550Z 21008KT 180V250 9999 VCSH FEW023CB SCT066 BKN091 19/14 Q1023=
201005211520 METAR ESMX 211520Z 24008KT 9999 FEW023 BKN082 20/15 Q1023=
201005211450 METAR ESMX 211450Z 24007KT 9999 FEW022 SCT045 20/15 Q1023=
201005211420 METAR ESMX 211420Z 22005KT 150V260 9999 SCT035 BKN080 20/14 Q1023=
201005211350 METAR ESMX 211350Z 18004KT 120V210 9999 SCT025 BKN074 21/15 Q1023=
201005211320 METAR ESMX 211320Z 16003KT 120V200 9999 FEW040 SCT075 19/13 Q1023=
201005211250 METAR ESMX 211250Z 16004KT 120V200 9999 FEW026 SCT067 20/14 Q1023=
201005211220 METAR ESMX 211220Z 16003KT 100V230 9999 SCT025 BKN063 19/14 Q1024=
201005211150 METAR ESMX 211150Z 12003KT 060V190 9999 FEW015 SCT027 BKN061 19/15 Q1024=
201005211120 METAR ESMX 211120Z 12003KT 060V170 9999 FEW014 SCT019 BKN040 18/14 Q1024=
201005211050 METAR ESMX 211050Z 22003KT 140V260 9999 FEW011 BKN017 BKN054 18/15 Q1024=
201005211020 METAR ESMX 211020Z 19003KT 140V240 9999 FEW007 SCT010 BKN056 17/15 Q1024=
201005210950 METAR ESMX 210950Z VRB02KT 8000 FEW007 SCT011 BKN016 17/15 Q1024 REDZ=
201005210920 METAR ESMX 210920Z 20003KT 9999 SCT007 BKN010 16/14 Q1024=
201005210850 METAR ESMX 210850Z 23003KT 9999 FEW006 SCT008 BKN057 16/15 Q1024=
201005210820 METAR ESMX 210820Z VRB02KT 9999 FEW004 SCT005 BKN007 16/14 Q1024=
201005210750 METAR ESMX 210750Z VRB02KT 9999 -DZ SCT006 BKN049 16/15 Q1024=
201005210720 METAR ESMX 210720Z VRB02KT 9000 -RA FEW039 SCT047 BKN150 15/15 Q1024 REDZ=
201005210650 METAR ESMX 210650Z VRB02KT 9999 -DZ FEW008 BKN037 15/14 Q1025 RERA=
201005210620 METAR ESMX 210620Z 03003KT 7000 RA FEW007 BKN037 15/14 Q1024=
201005210550 METAR ESMX 210550Z 11001KT 9999 FEW030 BKN040 BKN081 15/14 Q1024=
201005210520 METAR ESMX 210520Z 00000KT 9999 FEW029 SCT035 BKN083 14/14 Q1024=
201005210450 METAR ESMX 210450Z 29003KT 9999 SCT040 BKN100 14/14 Q1024 RERA=
201005210420 METAR ESMX 210420Z VRB02KT 9999 SCT040 BKN080 14/13 Q1024=
201005210350 METAR ESMX 210350Z 13002KT 5000 -RA SCT037 13/13 Q1024=
201005210320 METAR ESMX 210320Z AUTO 00000KT 0900NDV R01/1300VP2000D R19/P2000N RA NCD 13/13 Q1024=
201005210250 METAR ESMX 210250Z AUTO 00000KT 4600NDV FEW061/// BKN072/// 13/13 Q1024=
201005210220 METAR ESMX 210220Z AUTO VRB01KT 0400NDV R01/0900VP2000U R19/1100VP2000N -DZ BKN074/// BKN094/// 13/12 Q1024=
201005210150 METAR ESMX 210150Z AUTO 01002KT 0350NDV R01/0900V1600D R19/1400N FG BKN075/// 13/12 Q1024=
201005210120 METAR ESMX 210120Z AUTO 34001KT 0500NDV R01/1300VP2000U R19/P2000N FG BKN074/// 13/12 Q1024=
201005210050 METAR ESMX 210050Z AUTO 00000KT 0400NDV R01/P2000N R19/1000V1800U SCT076/// BKN110/// 13/12 Q1024=
201005210020 METAR ESMX 210020Z AUTO 00000KT 0800NDV R01/P2000N R19/P2000N FG SCT076/// BKN110/// 13/13 Q1024=
201005202350 METAR ESMX 202350Z AUTO 02002KT 0550NDV R01/1100VP2000D R19/P2000N FG BKN075/// BKN100/// 13/13 Q1024=
201005202320 METAR ESMX 202320Z VRB01KT 3000 FG BKN075 13/12 Q1024=
201005202250 METAR ESMX 202250Z 00000KT 0750 R01/P2000N R19/P2000D BR BKN075 13/13 Q1024=
201005202220 METAR ESMX 202220Z VRB01KT 8000 BR NSC 13/13 Q1024=
201005202150 METAR ESMX 202150Z VRB01KT CAVOK 14/13 Q1024=
201005202120 METAR ESMX 202120Z VRB02KT 9999 NSC 14/13 Q1024=
201005202050 METAR ESMX 202050Z 20005KT CAVOK 14/13 Q1024=
201005202020 METAR ESMX 202020Z VRB02KT CAVOK 14/13 Q1023=
201005201950 METAR ESMX 201950Z 18006KT 9999 DZ BKN045 15/13 Q1023=
201005201920 METAR ESMX 201920Z 02009KT 9999 -RA BKN030CB 15/13 Q1023=
201005201850 METAR ESMX 201850Z 36007KT 9999 -RA BKN030CB 15/14 Q1024=
201005201820 METAR ESMX 201820Z 33004KT 300V010 9999 -RA BKN013CB 15/14 Q1024=
201005201750 METAR ESMX 201750Z 31008KT 280V340 5000 RA BKN015CB 15/14 Q1025=
201005201720 METAR ESMX 201720Z 32004KT 290V350 8000 -SHRA BKN040CB 17/15 Q1024=
201005201650 METAR ESMX 201650Z 31003KT 260V350 9999 -SHRA BKN040CB 17/15 Q1024=
201005201620 METAR ESMX 201620Z 02003KT 350V080 9999 TS BKN040CB 18/14 Q1024=
201005201550 METAR ESMX 201550Z VRB02KT 9999 TS BKN040CB 18/14 Q1024=
201005201520 METAR ESMX 201520Z 36004KT 9999 TS BKN040CB 18/14 Q1023=
201005201450 METAR ESMX 201450Z 33010KT 310V010 9999 TS BKN040CB 19/13 Q1023=
201005201420 METAR ESMX 201420Z 15003KT 120V210 9999 TS BKN035CB 23/13 Q1022=
201005201350 METAR ESMX 201350Z 13004KT 030V170 9999 TS SCT030CB SCT040TCU 24/13 Q1023=
201005201320 METAR ESMX 201320Z VRB02KT 9999 TS SCT030CB SCT040TCU 23/14 Q1023=
201005201250 METAR ESMX 201250Z 07003KT 010V120 9999 TS SCT030CB SCT040TCU 23/14 Q1023=
201005201220 METAR ESMX 201220Z 35004KT 300V040 9999 FEW030CB SCT040TCU 24/14 Q1023=
201005201150 METAR ESMX 201150Z 35004KT 300V030 9999 SCT040TCU 25/14 Q1023=
201005201050 METAR ESMX 201050Z 34004KT 280V060 9999 FEW030TCU 23/14 Q1024=
201005201020 METAR ESMX 201020Z 34006KT 290V010 9999 FEW030 23/15 Q1024=
201005200950 METAR ESMX 200950Z 35004KT 270V030 9999 FEW030 22/15 Q1024=
201005200920 METAR ESMX 200920Z 35004KT 280V030 9999 FEW025 22/15 Q1024=
201005200820 METAR ESMX 200820Z 02004KT 320V060 9999 FEW010 19/15 Q1024=
201005200720 METAR ESMX 200720Z 35005KT 9999 BR BKN004 OVC007 16/14 Q1024=
201005200650 METAR ESMX 200650Z 02005KT 350V050 9000 BR OVC005 16/14 Q1024=
201005200620 METAR ESMX 200620Z 02004KT 340V070 5000 BR OVC003 15/14 Q1024=
201005200550 METAR ESMX 200550Z 01003KT 340V050 4200 BR OVC003 15/14 Q1024=
201005200520 METAR ESMX 200520Z 36004KT 4900 BR OVC004 15/14 Q1024=
201005200450 METAR ESMX 200450Z 36002KT 4700 BR OVC005 14/14 Q1024=
201005200420 METAR ESMX 200420Z VRB02KT 4000 BR OVC005 14/14 Q1024=
201005200350 METAR ESMX 200350Z VRB01KT 3500 BR OVC006 14/13 Q1024=
201005200320 METAR ESMX 200320Z AUTO 00000KT 2000NDV OVC006/// 13/13 Q1023=
201005200250 METAR ESMX 200250Z AUTO VRB01KT 0250NDV R01/0800V1900 R19/0800VP2000N FG OVC007/// 11/11 Q1023=
201005200220 METAR ESMX 200220Z AUTO VRB01KT 0150NDV R01/0500 R19/0500V0800 BCFG FEW069/// 11/10 Q1023=
201005200150 METAR ESMX 200150Z AUTO VRB01KT 0300NDV R01/P2000D R19/0450V0700 FG FEW069/// 12/12 Q1023=
201005200120 METAR ESMX 200120Z AUTO 17002KT 0100NDV R01/0750V1200D R19/0500 FG FEW089/// 13/13 Q1023=
201005200050 METAR ESMX 200050Z AUTO 00000KT 0250NDV R01/P2000N R19/0600VP2000 FG BKN082/// 13/12 Q1023=
201005200020 METAR ESMX 200020Z AUTO 33002KT 1100NDV R01/P2000N R19/P2000N BKN076/// 12/11 Q1023=
201005192350 METAR ESMX 192350Z 35001KT 0600 R01/P2000N R19/P2000N FEW039 SCT091 12/12 Q1023 REDZ=
201005192320 METAR ESMX 192320Z 00000KT 0500 R01/P2000N R19/0800VP2000 BCFG NSC 12/12 Q1023=
201005192250 METAR ESMX 192250Z 00000KT 0250 R01/0900D R19/P2000D FG NSC 12/11 Q1023=
201005192220 METAR ESMX 192220Z 36001KT 0350 R01/0400V0650U R19/P0900 BCFG NSC 12/11 Q1023=
201005192150 METAR ESMX 192150Z 36002KT 0250 R01/0650 R19/P0500D BCFG NSC 12/11 Q1023=
201005192120 METAR ESMX 192120Z 00000KT 0250 R01/0750VP2000D R19/0900 FG NSC 12/12 Q1023=
201005192050 METAR ESMX 192050Z 00000KT 9999 MIFG FEW063 14/13 Q1023=
201005192020 METAR ESMX 192020Z 33002KT 9999 MIFG FEW031 15/14 Q1023=
201005191950 METAR ESMX 191950Z VRB01KT 9999 FEW030 16/14 Q1023=
201005191920 METAR ESMX 191920Z 36002KT CAVOK 16/14 Q1022=
201005191850 METAR ESMX 191850Z 01003KT CAVOK 17/14 Q1022=
201005191820 METAR ESMX 191820Z 02004KT 9999 FEW035 18/15 Q1022=
201005191750 METAR ESMX 191750Z 01004KT 350V060 9999 FEW025 BKN035 19/15 Q1022=
201005191720 METAR ESMX 191720Z 02004KT 9999 SCT020 BKN031 BKN035 19/15 Q1021=
201005191650 METAR ESMX 191650Z 03003KT 010V070 9999 FEW021 SCT025 BKN028 19/15 Q1021=
201005191620 METAR ESMX 191620Z 03005KT 350V060 9999 FEW022 OVC027 19/15 Q1021=
201005191550 METAR ESMX 191550Z 03005KT 9999 OVC026 19/15 Q1021=
201005191520 METAR ESMX 191520Z 04006KT 340V070 9999 OVC027 20/15 Q1021=
201005191450 METAR ESMX 191450Z 05005KT 020V100 9999 OVC023 20/15 Q1021=
201005191350 METAR ESMX 191350Z 03006KT 340V060 9999 BKN017 OVC024 19/15 Q1020=
201005191250 METAR ESMX 191250Z 03007KT 9999 OVC016 19/15 Q1020=
201005191220 METAR ESMX 191220Z 03008KT 360V060 9999 OVC017 19/15 Q1020=
201005191120 METAR ESMX 191120Z 01007KT 9999 OVC013 18/15 Q1020=
201005191050 METAR ESMX 191050Z 02009KT 9999 OVC013 18/15 Q1020=
201005191020 METAR ESMX 191020Z 01010KT 9999 OVC012 18/15 Q1019=
201005190950 METAR ESMX 190950Z 01008KT 9999 OVC011 17/15 Q1019=
201005190920 METAR ESMX 190920Z 01008KT 9999 OVC009 17/15 Q1019=
201005190850 METAR ESMX 190850Z 01008KT 9999 OVC008 17/14 Q1019=
201005190820 METAR ESMX 190820Z 01008KT 9999 OVC009 16/14 Q1019=
201005190720 METAR ESMX 190720Z 01008KT 9999 OVC008 16/14 Q1019=
201005190650 METAR ESMX 190650Z 01007KT 9999 OVC007 15/14 Q1019=
201005190550 METAR ESMX 190550Z 36007KT 9000 BR OVC008 15/13 Q1018=
201005190520 METAR ESMX 190520Z 01005KT 8000 BR OVC008 14/13 Q1018=
201005190450 METAR ESMX 190450Z 35008KT 9000 BR FEW008 OVC009 14/14 Q1018=
201005190420 METAR ESMX 190420Z 36006KT 9000 BR OVC007 14/13 Q1018=
201005190350 METAR ESMX 190350Z 36007KT 7000 BR FEW006 BKN008 13/13 Q1018=
201005190320 METAR ESMX 190320Z AUTO 36005KT 6000NDV BR OVC007/// 13/12 Q1018=
201005190250 METAR ESMX 190250Z AUTO 01005KT 6000NDV BR FEW008/// BKN009/// 12/12 Q1018=
201005190220 METAR ESMX 190220Z AUTO 36005KT 4700NDV BR SCT003/// 12/12 Q1018=
201005190150 METAR ESMX 190150Z AUTO 36007KT 6000NDV OVC002/// 13/12 Q1018=
201005190120 METAR ESMX 190120Z AUTO 02004KT 2600NDV SCT003/// OVC006/// 12/12 Q1018=
201005190050 METAR ESMX 190050Z AUTO 01002KT 2400NDV FEW008/// 12/11 Q1018=
201005190020 METAR ESMX 190020Z AUTO 34005KT 8000NDV FEW015/// SCT030/// 11/11 Q1018=
201005182350 METAR ESMX 182350Z AUTO 34005KT 3900NDV BCFG FEW021/// SCT033/// 12/11 Q1018=
201005182320 METAR ESMX 182320Z VRB02KT 0900 R01/P2000N R19/P2000D MIFG SCT022 BKN029 BKN034 11/11 Q1018=
201005182250 METAR ESMX 182250Z 00000KT 5000 R01/0800V1500 R19/0800V1700 MIFG FEW024 SCT039 12/11 Q1018=
201005182220 METAR ESMX 182220Z 33004KT 3700 BCFG FEW100 12/11 Q1018=
201005182120 METAR ESMX 182120Z 36004KT 5000 R01/0650V0900 R19/P2000N BCFG NSC 12/12 Q1018=
201005182050 METAR ESMX 182050Z 35002KT 6000 BR FEW018 SCT100 12/12 Q1018=
201005182020 METAR ESMX 182020Z 36004KT CAVOK 13/12 Q1018=
201005181950 METAR ESMX 181950Z 34006KT 9999 BR FEW018 SCT080 13/12 Q1018=
201005181920 METAR ESMX 181920Z 01005KT CAVOK 14/12 Q1018=
201005181850 METAR ESMX 181850Z 35004KT 9999 FEW015 SCT090 15/13 Q1017=
201005181820 METAR ESMX 181820Z 34005KT 9999 FEW015 BKN100 15/14 Q1017=
201005181750 METAR ESMX 181750Z 34005KT 300V010 9999 FEW020 BKN080 16/14 Q1017=
201005181720 METAR ESMX 181720Z 33004KT 9999 FEW035 15/13 Q1017=
201005181650 METAR ESMX 181650Z 32005KT 9999 FEW021 BKN088 15/13 Q1017=
201005181620 METAR ESMX 181620Z 33005KT 9999 OVC013 14/13 Q1017=
201005181550 METAR ESMX 181550Z 33006KT 9999 OVC013 14/13 Q1017 RESHRA=
201005181520 METAR ESMX 181520Z 34006KT 9999 FEW007 OVC014 14/13 Q1017=
201005181450 METAR ESMX 181450Z 36008KT 9999 -RA OVC013 14/13 Q1017=
201005181420 METAR ESMX 181420Z 35008KT 9999 -RA FEW009 BKN017 15/13 Q1017=
201005181350 METAR ESMX 181350Z 35009KT 3000 RA FEW006 BKN018 15/12 Q1017=
201005181320 METAR ESMX 181320Z 36009KT 9999 OVC018 16/12 Q1016=
201005181250 METAR ESMX 181250Z 35012KT 9999 FEW020 SCT024 BKN029 18/12 Q1016=
201005181220 METAR ESMX 181220Z 35008KT 9999 SCT022 BKN028 17/12 Q1016=
201005181150 METAR ESMX 181150Z 01010KT 9999 OVC025 17/11 Q1016=
201005181120 METAR ESMX 181120Z 36009KT 330V030 9999 BKN031 BKN059 19/11 Q1015=
201005181050 METAR ESMX 181050Z 36010KT 9999 FEW033 20/11 Q1015=
201005181020 METAR ESMX 181020Z 34008KT 300V010 9999 FEW035 19/10 Q1015=
201005180950 METAR ESMX 180950Z 34009KT 300V010 CAVOK 18/10 Q1015=
201005180920 METAR ESMX 180920Z 34009KT CAVOK 17/10 Q1015=
201005180850 METAR ESMX 180850Z 32008KT 290V010 CAVOK 16/10 Q1015=
201005180820 METAR ESMX 180820Z 32008KT CAVOK 14/09 Q1016=
201005180750 METAR ESMX 180750Z 32008KT 9999 BKN047 12/09 Q1016=
201005180720 METAR ESMX 180720Z 31008KT 280V340 9999 FEW039 BKN049 12/09 Q1016=
201005180650 METAR ESMX 180650Z 33008KT 290V010 9999 BKN009 BKN042 11/09 Q1016=
201005180620 METAR ESMX 180620Z 31009KT 280V340 9999 OVC007 11/08 Q1016=
201005180550 METAR ESMX 180550Z 31006KT 9999 OVC006 10/08 Q1016=
201005180520 METAR ESMX 180520Z 31006KT 290V350 9999 OVC006 10/08 Q1016=
201005180450 METAR ESMX 180450Z 31006KT 9999 OVC005 09/08 Q1016=
201005180420 METAR ESMX 180420Z 31006KT 9999 OVC005 09/08 Q1016=
201005180350 METAR ESMX 180350Z 31006KT 280V340 9999 OVC006 08/07 Q1016=
201005180320 METAR ESMX 180320Z 32007KT 290V350 9999NDV OVC005/// 08/07 Q1016=
201005180250 METAR ESMX 180250Z AUTO 30005KT 9999NDV OVC007/// 07/07 Q1015=
201005180220 METAR ESMX 180220Z AUTO 31004KT 9999NDV FEW008/// BKN010/// 07/06 Q1015=
201005180150 METAR ESMX 180150Z AUTO 30005KT 9999NDV FEW037/// 07/06 Q1015=
201005180120 METAR ESMX 180120Z AUTO 30005KT 9999NDV NCD 08/06 Q1015=
201005180050 METAR ESMX 180050Z AUTO 30006KT 9999NDV NCD 08/06 Q1015=
201005180020 METAR ESMX 180020Z AUTO 30006KT 9999NDV BKN032/// 09/07 Q1015=
201005172350 METAR ESMX 172350Z 29007KT 9999 OVC031 09/07 Q1015=
201005172320 METAR ESMX 172320Z 29007KT 9999 OVC032 09/07 Q1015=
201005172250 METAR ESMX 172250Z 29007KT 9999 OVC029 09/07 Q1015=
201005172220 METAR ESMX 172220Z 28007KT 9999 OVC030 09/06 Q1015=
201005172150 METAR ESMX 172150Z 29007KT 260V320 9999 OVC031 09/06 Q1015=
201005172120 METAR ESMX 172120Z 29007KT 9999 OVC032 09/06 Q1015=
201005172050 METAR ESMX 172050Z 28004KT 250V320 9999 OVC033 09/06 Q1015=
201005172020 METAR ESMX 172020Z 28005KT 9999 OVC033 09/06 Q1015=
201005171950 METAR ESMX 171950Z 27004KT 9999 OVC033 09/07 Q1015=
201005171920 METAR ESMX 171920Z 27005KT 9999 BKN034 09/07 Q1015=
201005171850 METAR ESMX 171850Z 27004KT CAVOK 09/07 Q1015=
201005171820 METAR ESMX 171820Z 30005KT 9999 FEW011 OVC020 10/08 Q1015=
201005171750 METAR ESMX 171750Z 28007KT 9999 FEW009 OVC020 10/08 Q1014=
201005171720 METAR ESMX 171720Z 28008KT 9999 FEW009 OVC020 10/08 Q1014=
201005171650 METAR ESMX 171650Z 28009KT 9999 SCT010 OVC018 10/08 Q1014=
201005171620 METAR ESMX 171620Z 28008KT 250V320 9999 FEW010 OVC020 11/08 Q1014=
201005171550 METAR ESMX 171550Z 28008KT 250V310 9999 FEW012 OVC020 11/08 Q1014=
201005171520 METAR ESMX 171520Z 27006KT 240V300 9999 FEW015 OVC021 11/07 Q1014=
201005171450 METAR ESMX 171450Z 28007KT 9999 FEW018 OVC021 11/07 Q1014=
201005171420 METAR ESMX 171420Z 31006KT 260V340 9999 OVC021 12/07 Q1014=
201005171350 METAR ESMX 171350Z 30005KT 260V330 9999 OVC022 12/07 Q1014=
201005171320 METAR ESMX 171320Z 35004KT 320V030 9999 SCT021 OVC026 12/07 Q1014=
201005171250 METAR ESMX 171250Z 28005KT 240V300 9999 OVC021 12/06 Q1014=
201005171220 METAR ESMX 171220Z 33005KT 290V350 9999 OVC021 11/06 Q1014=
201005171150 METAR ESMX 171150Z 31004KT 290V360 9999 OVC019 11/07 Q1013=
201005171120 METAR ESMX 171120Z 28005KT 230V320 9999 FEW018 OVC020 11/07 Q1013=
201005171050 METAR ESMX 171050Z 28007KT 9999 BKN019 OVC024 11/07 Q1013=
201005171020 METAR ESMX 171020Z 26007KT 230V290 9999 SCT018 BKN022 11/07 Q1013=
201005170950 METAR ESMX 170950Z 29005KT 250V320 9999 BKN019 11/07 Q1013=
201005170920 METAR ESMX 170920Z 29005KT 9999 FEW013 SCT015 BKN018 11/07 Q1013=
201005170850 METAR ESMX 170850Z 30004KT 9999 FEW011 SCT013 BKN016 10/07 Q1013=
201005170820 METAR ESMX 170820Z 27004KT 240V310 9999 OVC014 10/07 Q1012=
201005170750 METAR ESMX 170750Z 31004KT 270V340 9999 FEW012 OVC015 10/08 Q1012=
201005170720 METAR ESMX 170720Z 27004KT 230V300 9999 FEW008 BKN013 OVC017 09/08 Q1012=
201005170650 METAR ESMX 170650Z 34005KT 9999 SCT007 OVC010 09/08 Q1011=
201005170620 METAR ESMX 170620Z 27004KT 9999 SCT005 OVC008 09/08 Q1011=
201005170550 METAR ESMX 170550Z 29004KT 9999 FEW003 SCT004 BKN006 08/08 Q1011=
201005170520 METAR ESMX 170520Z 29003KT 5000 BR BKN002 OVC004 08/08 Q1011=
201005170450 METAR ESMX 170450Z 30003KT 0900 R01/2000 R19/2000 FG VV002 08/07 Q1011=
201005170420 METAR ESMX 170420Z 27002KT 0400 R01/0750 R19/0900 FG VV002 08/07 Q1011=
201005170350 METAR ESMX 170350Z 22001KT 0350 R01/0750 R19/1000 FG VV002 08/07 Q1010=
201005162220 METAR ESMX 162220Z VRB01KT 4500 BR OVC003 08/07 Q1009=
201005162150 METAR ESMX 162150Z VRB01KT 4000 BR FEW003 BKN005 08/07 Q1009=
201005162120 METAR ESMX 162120Z VRB02KT 5000 BR FEW006 OVC007 08/06 Q1009=
201005162050 METAR ESMX 162050Z VRB02KT 9999 OVC009 08/06 Q1008=
201005162020 METAR ESMX 162020Z 14003KT 100V170 9999 OVC010 09/06 Q1008=
201005161950 METAR ESMX 161950Z 14003KT 080V180 9999 OVC012 09/06 Q1008=
201005161920 METAR ESMX 161920Z 14004KT 080V180 9999 OVC013 09/06 Q1008=
201005161850 METAR ESMX 161850Z 14005KT 100V180 9999 FEW013 BKN015 09/06 Q1007=
201005161820 METAR ESMX 161820Z 14004KT 100V170 9999 OVC013 09/06 Q1007=
201005161750 METAR ESMX 161750Z 14004KT 080V170 9999 OVC015 09/06 Q1007=
201005161720 METAR ESMX 161720Z 13004KT 080V190 9999 OVC015 09/06 Q1007=
201005161650 METAR ESMX 161650Z VRB05KT 9999 OVC015 09/06 Q1006=
201005161620 METAR ESMX 161620Z 14004KT 080V190 9999 OVC015 09/06 Q1006=
201005161550 METAR ESMX 161550Z 13006KT 040V180 9999 OVC015 09/06 Q1006=
201005161520 METAR ESMX 161520Z 12005KT 050V180 9999 OVC016 09/05 Q1006=
201005161450 METAR ESMX 161450Z 12005KT 070V170 9999 SCT013 BKN017 OVC020 09/05 Q1006=
201005161420 METAR ESMX 161420Z 13005KT 070V170 9999 OVC013 09/05 Q1006=
201005161350 METAR ESMX 161350Z 15007KT 080V200 9999 OVC014 09/05 Q1006=
201005161320 METAR ESMX 161320Z 15006KT 100V180 9999 OVC012 09/05 Q1006=
201005161250 METAR ESMX 161250Z 14007KT 100V190 9999 OVC011 09/06 Q1005=
201005161220 METAR ESMX 161220Z 13007KT 060V190 9999 OVC011 09/06 Q1005=
201005161150 METAR ESMX 161150Z 14007KT 080V190 9999 BKN009 OVC014 09/06 Q1005=
201005161120 METAR ESMX 161120Z 14008KT 060V190 9999 BKN010 OVC016 08/06 Q1005=
201005161050 METAR ESMX 161050Z 16007KT 100V190 8000 BR FEW008 OVC010 08/06 Q1005=
201005161020 METAR ESMX 161020Z 14007KT 110V180 7000 FEW007 OVC011 TOB016 08/06 Q1005=
201005160950 METAR ESMX 160950Z 14007KT 090V190 6000 BR OVC007 08/06 Q1004=
201005160920 METAR ESMX 160920Z 13007KT 080V200 9000 BR OVC007 08/07 Q1004=
201005160850 METAR ESMX 160850Z 12007KT 070V190 9999 BKN008 OVC010 08/06 Q1004=
201005160820 METAR ESMX 160820Z AUTO 14007KT 080V190 9999NDV OVC009/// 08/06 Q1003=
201005160750 METAR ESMX 160750Z AUTO 14007KT 080V190 9999NDV FEW009/// BKN010/// OVC014/// 08/06 Q1003=
201005160720 METAR ESMX 160720Z AUTO 12008KT 070V160 9999NDV FEW005/// SCT006/// BKN008/// 09/06 Q1003=
201005160650 METAR ESMX 160650Z AUTO 13006KT 070V190 9999NDV OVC004/// 08/06 Q1003=
201005160620 METAR ESMX 160620Z AUTO 13005KT 080V200 7000NDV BR OVC004/// 08/06 Q1003=
201005160550 METAR ESMX 160550Z AUTO 13006KT 080V160 7000NDV BR OVC005/// 08/06 Q1002=
201005160520 METAR ESMX 160520Z AUTO 12006KT 060V160 9999NDV BR OVC005/// 08/06 Q1002=
201005160450 METAR ESMX 160450Z AUTO 13007KT 070V180 9999NDV OVC006/// 08/06 Q1002=
201005160420 METAR ESMX 160420Z AUTO 13005KT 070V190 9999NDV BKN006/// OVC008/// 08/06 Q1002=
201005160350 METAR ESMX 160350Z AUTO 12004KT 070V160 9999NDV BR OVC005/// 08/06 Q1002=
201005160320 METAR ESMX 160320Z AUTO 12004KT 050V160 9999NDV OVC005/// 08/06 Q1002=
201005160250 METAR ESMX 160250Z AUTO 10004KT 050V150 9999NDV OVC005/// 08/06 Q1002=
201005160220 METAR ESMX 160220Z AUTO 11004KT 070V170 7000NDV BR OVC005/// 08/06 Q1002=
201005160150 METAR ESMX 160150Z AUTO 10004KT 050V140 9999NDV OVC005/// 08/06 Q1002=
201005160120 METAR ESMX 160120Z AUTO 12004KT 070V170 9999NDV OVC006/// 08/06 Q1002=
201005160050 METAR ESMX 160050Z AUTO 11004KT 040V180 9999NDV OVC006/// 08/06 Q1002=
201005160020 METAR ESMX 160020Z AUTO 11004KT 060V170 9999NDV BKN005/// OVC009/// 08/06 Q1002=
201005152350 METAR ESMX 152350Z AUTO 12005KT 060V170 9999NDV OVC005/// 08/07 Q1002=
201005152320 METAR ESMX 152320Z AUTO 11005KT 030V150 9999NDV OVC005/// 09/07 Q1002=
201005152250 METAR ESMX 152250Z AUTO 11005KT 060V170 9999NDV OVC005/// 09/08 Q1002=
201005152220 METAR ESMX 152220Z AUTO 09004KT 030V160 9999NDV OVC005/// 09/08 Q1002=
201005152150 METAR ESMX 152150Z AUTO 10004KT 060V160 7000NDV BR OVC005/// 09/08 Q1002=
201005152120 METAR ESMX 152120Z AUTO 08005KT 010V150 9999NDV OVC005/// 10/08 Q1002=
201005152050 METAR ESMX 152050Z AUTO 08006KT 040V110 9999NDV OVC005/// 10/08 Q1002=
201005152020 METAR ESMX 152020Z AUTO 07006KT 030V140 9999NDV OVC004/// 09/08 Q1002=
201005151950 METAR ESMX 151950Z AUTO 08005KT 030V150 9000NDV BR OVC004/// 10/08 Q1002=
201005151920 METAR ESMX 151920Z AUTO 08006KT 040V130 9999NDV OVC005/// 10/08 Q1002=
201005151850 METAR ESMX 151850Z AUTO 06006KT 020V110 9999NDV OVC005/// 10/08 Q1002=
201005151820 METAR ESMX 151820Z 09006KT 020V140 7000 BR OVC006 10/08 Q1002=
201005151750 METAR ESMX 151750Z 08007KT 050V140 9999 OVC007 10/08 Q1002=
201005151720 METAR ESMX 151720Z 08006KT 030V140 9999 OVC007 11/08 Q1001=
201005151650 METAR ESMX 151650Z 08007KT 020V120 9999 OVC008 11/08 Q1001=
201005151620 METAR ESMX 151620Z 10006KT 040V170 9999 OVC009 11/08 Q1001=
201005151550 METAR ESMX 151550Z 08009KT 040V130 9999 OVC014 12/09 Q1001=
201005151520 METAR ESMX 151520Z 10010G21KT 020V150 9999 FEW019 SCT022 BKN027 15/10 Q1001=
201005151450 METAR ESMX 151450Z AUTO 05010KT 360V100 9999NDV FEW022/// SCT026/// 17/11 Q1000=
201005151420 METAR ESMX 151420Z AUTO 07010KT 020V120 9999NDV SCT020/// BKN032/// 17/11 Q1000=
201005151320 METAR ESMX 151320Z AUTO 06011KT 020V100 9999NDV SCT014/// BKN019/// BKN026/// 17/13 Q1000=
201005151250 METAR ESMX 151250Z AUTO 06009KT 020V120 9999NDV BKN012/// OVC019/// 16/12 Q1001=
201005151220 METAR ESMX 151220Z AUTO 05013KT 020V080 9999NDV OVC013/// 16/13 Q1001=
201005151150 METAR ESMX 151150Z AUTO 07009KT 020V100 9999NDV FEW014/// BKN016/// BKN022/// 17/13 Q1001=
201005151120 METAR ESMX 151120Z AUTO 05009KT 360V080 9999NDV BKN013/// BKN020/// 17/13 Q1001=
201005151050 METAR ESMX 151050Z AUTO 05008KT 020V100 9999NDV BKN015/// 17/13 Q1001=
201005151020 METAR ESMX 151020Z AUTO 06007KT 020V110 9999NDV BKN016/// BKN027/// 17/13 Q1001=
201005150950 METAR ESMX 150950Z 05007KT 020V100 9999 SCT014 BKN018 16/13 Q1001=
201005150920 METAR ESMX 150920Z 04008KT 010V070 9999 BKN015 16/13 Q1001=
201005150850 METAR ESMX 150850Z 04008KT 010V080 9999 FEW009 SCT011 BKN015 15/13 Q1001=
201005150820 METAR ESMX 150820Z 04009KT 020V080 9999 FEW008 OVC010 14/13 Q1001=
201005150750 METAR ESMX 150750Z 04009KT 9999 BKN007 OVC010 13/12 Q1002=
201005150720 METAR ESMX 150720Z 03008KT 350V060 9999 FEW005 OVC007 13/12 Q1002=
201005150650 METAR ESMX 150650Z 03008KT 8000 -RA OVC003 12/12 Q1002=
201005150620 METAR ESMX 150620Z 02008KT 9999 RA OVC003 12/12 Q1002=
201005150550 METAR ESMX 150550Z AUTO 03007KT 010V070 6000NDV -RA OVC003/// 12/11 Q1003=
201005150520 METAR ESMX 150520Z AUTO 03008KT 9999NDV -RA FEW003/// OVC004/// 12/11 Q1003 RESHRA=
201005150450 METAR ESMX 150450Z AUTO 02008KT 6000NDV RA OVC002/// 12/11 Q1003=
201005150420 METAR ESMX 150420Z AUTO 01008KT 9999NDV BR OVC003/// 12/11 Q1003 RERA=
201005150350 METAR ESMX 150350Z AUTO 36006KT 5000NDV -RA OVC001/// 11/11 Q1004 RESHRA=
201005150320 METAR ESMX 150320Z AUTO 01006KT 7000NDV BR OVC002/// 11/11 Q1004=
201005150250 METAR ESMX 150250Z AUTO 36004KT 6000NDV BR OVC002/// 11/11 Q1004 REDZ=
201005150220 METAR ESMX 150220Z AUTO 35004KT 6000NDV -RA OVC003/// 11/11 Q1004=
201005150150 METAR ESMX 150150Z AUTO 34005KT 6000NDV -DZ OVC002/// 11/11 Q1005 REDZ=
201005150120 METAR ESMX 150120Z AUTO 02005KT 7000NDV BR OVC002/// 11/10 Q1005=
201005150050 METAR ESMX 150050Z AUTO 02005KT 6000NDV BR OVC002/// 11/10 Q1005=
201005150020 METAR ESMX 150020Z AUTO 01006KT 7000NDV BR OVC002/// 11/10 Q1006=
201005142350 METAR ESMX 142350Z AUTO 02006KT 6000NDV BR OVC002/// 11/10 Q1006=
201005142320 METAR ESMX 142320Z AUTO 36005KT 6000NDV BR OVC002/// 11/10 Q1006=
201005142250 METAR ESMX 142250Z AUTO 01005KT 5000NDV BR OVC002/// 11/10 Q1006=
201005142220 METAR ESMX 142220Z AUTO 36006KT 5000NDV BR OVC003/// 11/10 Q1006=
201005142150 METAR ESMX 142150Z AUTO 02006KT 9999NDV OVC004/// 11/10 Q1007=
201005142120 METAR ESMX 142120Z AUTO 35007KT 9999NDV OVC005/// 11/10 Q1007=
201005142050 METAR ESMX 142050Z AUTO 36006KT 9999NDV OVC006/// 11/10 Q1007=
201005142020 METAR ESMX 142020Z AUTO 36006KT 9999NDV OVC007/// 11/10 Q1007=
201005141950 METAR ESMX 141950Z AUTO 35005KT 9999NDV OVC007/// 11/10 Q1007=
201005141920 METAR ESMX 141920Z AUTO 01007KT 9999NDV OVC007/// 11/10 Q1007=
201005141850 METAR ESMX 141850Z AUTO 01007KT 9999NDV OVC007/// 11/10 Q1007 REDZ=
201005141820 METAR ESMX 141820Z 02007KT 9999 OVC007 12/10 Q1007=
201005141750 METAR ESMX 141750Z 36008KT 9999 SCT008 BKN010 OVC018 12/10 Q1007=
201005141720 METAR ESMX 141720Z 01007KT 9999 FEW010 BKN017 12/10 Q1007=
201005141650 METAR ESMX 141650Z 02008KT 9999 -RA FEW009 OVC018 13/11 Q1007=
201005141620 METAR ESMX 141620Z 01004KT 9999 SCT017 OVC020 13/11 Q1007=
201005141550 METAR ESMX 141550Z 03007KT 9999 -DZ FEW015 OVC018 13/11 Q1007=
201005141520 METAR ESMX 141520Z 02007KT 9999 OVC016 13/10 Q1007=
201005141450 METAR ESMX 141450Z 02006KT 9999 OVC016 14/10 Q1007=
201005141420 METAR ESMX 141420Z 01006KT 9999 OVC019 14/10 Q1007=
201005141350 METAR ESMX 141350Z 02007KT 9999 OVC020 14/10 Q1007=
201005141320 METAR ESMX 141320Z 03006KT 360V070 9999 SCT018 OVC022 14/10 Q1007=
201005141250 METAR ESMX 141250Z 02007KT 9999 FEW017 OVC020 14/10 Q1007=
201005141220 METAR ESMX 141220Z 01006KT 9999 OVC019 14/10 Q1007=
201005141150 METAR ESMX 141150Z AUTO 03007KT 9999NDV -RA OVC018/// 13/11 Q1007=
201005141120 METAR ESMX 141120Z AUTO 02006KT 350V070 9999NDV -RA OVC017/// 14/10 Q1007=
201005141050 METAR ESMX 141050Z AUTO 02006KT 9999NDV OVC018/// 14/09 Q1007=
201005141020 METAR ESMX 141020Z AUTO 02006KT 9999NDV OVC017/// 14/09 Q1006=
201005140950 METAR ESMX 140950Z AUTO 03005KT 350V070 9999NDV OVC016/// 14/09 Q1006=
201005140920 METAR ESMX 140920Z AUTO 01007KT 330V040 9999NDV OVC014/// 14/09 Q1006=
201005140850 METAR ESMX 140850Z AUTO 02008KT 340V050 9999NDV FEW013/// OVC020/// 13/09 Q1006=
201005140820 METAR ESMX 140820Z AUTO 36007KT 300V050 9999NDV OVC011/// 12/09 Q1007=
201005140750 METAR ESMX 140750Z AUTO 35006KT 320V020 9999NDV OVC010/// 12/09 Q1007=
201005140720 METAR ESMX 140720Z AUTO 01007KT 9999NDV OVC009/// 11/09 Q1007=
201005140650 METAR ESMX 140650Z AUTO 01006KT 9999NDV OVC008/// 11/09 Q1007=
201005140620 METAR ESMX 140620Z AUTO 01006KT 9999NDV OVC008/// 11/09 Q1007=
201005140550 METAR ESMX 140550Z AUTO 36006KT 320V020 9999NDV OVC008/// 11/09 Q1007=
201005140520 METAR ESMX 140520Z AUTO 01007KT 9999NDV OVC007/// 11/09 Q1007=
201005140450 METAR ESMX 140450Z AUTO 35006KT 9999NDV OVC006/// 10/09 Q1006=
201005140420 METAR ESMX 140420Z AUTO 34007KT 9999NDV OVC007/// 10/09 Q1006=
201005140350 METAR ESMX 140350Z AUTO 34006KT 9999NDV OVC006/// 10/09 Q1006=
201005140320 METAR ESMX 140320Z AUTO 34004KT 9000NDV BR OVC006/// 10/09 Q1006=
201005140250 METAR ESMX 140250Z AUTO 35004KT 7000NDV BR OVC005/// 09/09 Q1007=
201005140220 METAR ESMX 140220Z AUTO 32004KT 280V350 6000NDV BR OVC003/// 09/08 Q1007=
201005140150 METAR ESMX 140150Z AUTO 30004KT 4000NDV BR OVC002/// 09/08 Q1007=
201005140120 METAR ESMX 140120Z AUTO 29004KT 3400NDV BR OVC002/// 09/08 Q1007=
201005140050 METAR ESMX 140050Z 29003KT 6000 BR FEW002 OVC003 09/08 Q1007=
201005140020 METAR ESMX 140020Z 28005KT 250V310 8000 BR OVC004 09/08 Q1007=
201005132350 METAR ESMX 132350Z 26004KT 9999 OVC004 09/08 Q1007=
201005132320 METAR ESMX 132320Z 27004KT 9999 OVC005 09/08 Q1007=
201005132220 METAR ESMX 132220Z 29004KT 9999 BKN012 OVC038 09/08 Q1008=
201005132150 METAR ESMX 132150Z VRB02KT 8000 -RA OVC013 09/08 Q1008=
201005132120 METAR ESMX 132120Z 29004KT 8000 -RA OVC016 09/08 Q1008=
201005132050 METAR ESMX 132050Z 29004KT 8000 -RA OVC017 09/07 Q1008=
201005132020 METAR ESMX 132020Z 30005KT 9999 BKN019 OVC034 09/07 Q1008=
201005131950 METAR ESMX 131950Z 30005KT 270V330 9999 FEW024 OVC034 09/07 Q1008=
201005131920 METAR ESMX 131920Z 29004KT 260V320 9999 OVC034 09/07 Q1008=
201005131850 METAR ESMX 131850Z 28005KT 9999 BKN036 10/07 Q1008=
201005131820 METAR ESMX 131820Z 27005KT 220V290 9999 FEW015 SCT038 10/07 Q1008=
201005131750 METAR ESMX 131750Z 29005KT 9999 FEW015 SCT038 10/07 Q1008=
201005131720 METAR ESMX 131720Z 29006KT 230V320 9999 FEW016 BKN200 11/08 Q1008=
201005131650 METAR ESMX 131650Z 27008KT 9999 FEW015 BKN200 12/08 Q1007=
201005131620 METAR ESMX 131620Z 27007KT 230V300 9999 FEW013 BKN200 12/08 Q1007=
201005131550 METAR ESMX 131550Z 28008KT 9999 FEW015 BKN200 12/08 Q1007=
201005131520 METAR ESMX 131520Z 27007KT 240V310 9999 FEW015 BKN018 12/08 Q1007=
201005131450 METAR ESMX 131450Z 26006KT 230V300 9999 BKN017 13/09 Q1007=
201005131420 METAR ESMX 131420Z 25007KT 9999 BKN017 13/09 Q1007=
201005131350 METAR ESMX 131350Z 27004KT 230V320 9999 OVC015 13/09 Q1008=
201005131320 METAR ESMX 131320Z 27004KT 230V320 9999 OVC015 13/09 Q1008=
201005131250 METAR ESMX 131250Z 25004KT 160V300 9999 BKN013 13/09 Q1007=
201005131220 METAR ESMX 131220Z VRB02KT 9999 OVC011 13/09 Q1007=
201005131150 METAR ESMX 131150Z VRB02KT 9999 OVC010 12/09 Q1008=
201005131120 METAR COR ESMX 131120Z VRB02KT 9999 OVC010 11/09 Q1008=
201005131050 METAR ESMX 131050Z AUTO VRB02KT 9999NDV OVC009/// 11/08 Q1007=
201005131020 METAR ESMX 131020Z AUTO 36003KT 9999NDV BKN008/// OVC010/// 11/08 Q1007=
201005130950 METAR ESMX 130950Z AUTO VRB02KT 9999NDV SCT006/// OVC008/// 10/08 Q1007=
201005130920 METAR ESMX 130920Z AUTO VRB01KT 9999NDV OVC006/// 10/08 Q1007=
201005130850 METAR ESMX 130850Z AUTO 03004KT 7000NDV OVC002/// 09/08 Q1007=
201005130820 METAR ESMX 130820Z AUTO 35004KT 320V020 8000NDV FEW001/// SCT003/// OVC004/// 09/08 Q1007=
201005130750 METAR ESMX 130750Z AUTO 36003KT 7000NDV OVC002/// 09/08 Q1007=
201005130720 METAR ESMX 130720Z AUTO VRB01KT 7000NDV FEW001/// OVC005/// 09/08 Q1007=
201005130650 METAR ESMX 130650Z AUTO VRB02KT 3500NDV BR OVC001/// 09/08 Q1007=
201005130620 METAR ESMX 130620Z AUTO VRB01KT 5000NDV BR OVC001/// 08/08 Q1007=
201005130550 METAR ESMX 130550Z AUTO VRB01KT 2000NDV VV002 08/08 Q1007=
201005130520 METAR ESMX 130520Z AUTO VRB01KT 0650NDV R01/P2000N R19/0800V1300U VV001 08/08 Q1007=
201005130450 METAR ESMX 130450Z AUTO VRB01KT 0400NDV R01/P2000N R19/0900 VV001 08/08 Q1007=
201005130420 METAR ESMX 130420Z AUTO 00000KT 0350NDV R01/1600N R19/0800 FG VV000 08/08 Q1007=
201005130350 METAR ESMX 130350Z AUTO VRB01KT 0350NDV R01/1200N R19/0800 FG VV001 08/08 Q1007=
201005130320 METAR ESMX 130320Z AUTO 00000KT 0300NDV R01/0900N R19/0800N FG VV001 08/08 Q1007=
201005130250 METAR ESMX 130250Z AUTO 00000KT 0350NDV R01/1100D R19/1000N FG VV001 08/07 Q1007=
201005130220 METAR ESMX 130220Z AUTO VRB02KT 0300NDV R01/1100N R19/1000D FG VV001 08/07 Q1007=
201005130150 METAR ESMX 130150Z AUTO VRB02KT 0350NDV R01/1200N R19/1200N FG VV001 08/08 Q1007=
201005130120 METAR ESMX 130120Z AUTO VRB02KT 0350NDV R01/1400N R19/1200N FG VV001 08/08 Q1007=
201005130050 METAR ESMX 130050Z AUTO VRB01KT 0450NDV R01/1600D R19/1500D FG VV001 08/08 Q1007=
201005130020 METAR ESMX 130020Z AUTO VRB02KT 0700NDV R01/P2000D R19/P2000N FG VV001 08/08 Q1007=
201005122350 METAR ESMX 122350Z AUTO VRB02KT 1500NDV BR OVC001/// 08/08 Q1007=
201005122320 METAR ESMX 122320Z AUTO VRB02KT 2800NDV BR OVC002/// 09/08 Q1007=
201005122250 METAR ESMX 122250Z AUTO 12003KT 060V160 3700NDV BR OVC002/// 09/08 Q1007=
201005122220 METAR ESMX 122220Z AUTO 11004KT 050V150 4200NDV BR OVC003/// 09/08 Q1007=
201005122150 METAR ESMX 122150Z AUTO 09004KT 050V130 5000NDV BR OVC005/// 09/08 Q1007=
201005122120 METAR ESMX 122120Z AUTO 09004KT 040V120 9999NDV OVC006/// 09/08 Q1007=
201005122050 METAR ESMX 122050Z AUTO 08003KT 050V120 9999NDV OVC006/// 09/07 Q1007=
201005122020 METAR ESMX 122020Z AUTO 08003KT 050V140 9999NDV OVC007/// 09/07 Q1007=
201005121950 METAR ESMX 121950Z AUTO 09004KT 050V150 9999NDV OVC008/// 09/07 Q1007=
201005121920 METAR ESMX 121920Z 09006KT 030V120 9999 SCT011 OVC015 09/07 Q1007=
201005121850 METAR ESMX 121850Z 07007KT 040V100 9999 OVC016 10/07 Q1007=
201005121820 METAR ESMX 121820Z 10004KT 050V140 9999 OVC018 10/06 Q1007=
201005121750 METAR ESMX 121750Z 08004KT 050V120 9999 OVC019 10/06 Q1007=
201005121720 METAR ESMX 121720Z 07005KT 020V120 9999 OVC020 09/05 Q1007 RESHRA=
201005121650 METAR ESMX 121650Z VRB03KT 9999 -RA OVC020 09/05 Q1007=
201005121620 METAR ESMX 121620Z 06007KT 010V130 9999 OVC021 09/05 Q1007=
201005121550 METAR ESMX 121550Z 07009KT 030V110 9000 -RA BKN021 09/06 Q1007=
201005121520 METAR ESMX 121520Z 08009KT 030V120 9999 -RA OVC023 11/04 Q1008=
201005121450 METAR ESMX 121450Z 07009G21KT 030V130 9999 FEW025 BKN030 11/03 Q1008=
201005121420 METAR ESMX 121420Z 06010G20KT 010V110 9999 OVC030 11/03 Q1008=
201005121350 METAR ESMX 121350Z 06010KT 020V120 9999 OVC030 11/02 Q1008=
201005121320 METAR ESMX 121320Z 05011G23KT 010V110 9999 BKN033 11/01 Q1008=
201005121250 METAR ESMX 121250Z 07009KT 030V150 9999 FEW024 SCT037 BKN041 10/01 Q1009=
201005121220 METAR ESMX 121220Z 06010KT 020V100 9999 -RA FEW020 BKN030 10/02 Q1009=
201005121150 METAR ESMX 121150Z 04006KT 010V100 9999 -RA FEW030 BKN056 08/05 Q1010=
201005121120 METAR ESMX 121120Z 02010KT CAVOK 07/04 Q1010=
201005121050 METAR ESMX 121050Z 02010KT 9999 BKN045 07/04 Q1011=
201005121020 METAR ESMX 121020Z 03009KT 9999 BKN044 06/04 Q1012=
201005120950 METAR ESMX 120950Z 03010KT 9999 DZ BKN044 06/04 Q1012=
201005120920 METAR ESMX 120920Z 03008KT 360V070 9999 -RA BKN045 06/04 Q1013=
201005120850 METAR ESMX 120850Z 05004KT 020V080 8000 -RA OVC044 06/04 Q1014=
201005120820 METAR ESMX 120820Z 05005KT 010V100 9000 -RA OVC047 07/03 Q1014=
201005120750 METAR ESMX 120750Z 05006KT 020V080 9999 OVC048 08/00 Q1013=
201005120720 METAR ESMX 120720Z 07006KT 030V130 9999 OVC048 09/M00 Q1014=
201005120650 METAR ESMX 120650Z 05006KT 010V070 9999 BKN048 OVC065 08/M00 Q1014=
201005120620 METAR ESMX 120620Z 04007KT 020V080 9999 SCT048 07/M00 Q1013=
201005120550 METAR ESMX 120550Z 04007KT CAVOK 07/M00 Q1014=
201005120520 METAR ESMX 120520Z 03006KT CAVOK 05/00 Q1014=
201005120450 METAR ESMX 120450Z 04004KT 010V070 CAVOK 04/01 Q1014=
201005120420 METAR ESMX 120420Z 03005KT CAVOK 03/01 Q1014=
201005120350 METAR ESMX 120350Z 04005KT CAVOK 01/01 Q1014=
201005120320 METAR ESMX 120320Z AUTO 03005KT 2900NDV NCD 01/01 Q1014=
201005120250 METAR ESMX 120250Z AUTO 02003KT 9999NDV NCD 00/M00 Q1014=
201005120220 METAR ESMX 120220Z AUTO 02004KT 6000NDV BCFG NCD M01/M01 Q1014=
201005120150 METAR ESMX 120150Z AUTO 01002KT 0300NDV R01/0800V1800U R19/P2000N=
201005120120 METAR ESMX 120120Z AUTO 02001KT 9999NDV NCD M01/M02 Q1015=
201005120050 METAR ESMX 120050Z AUTO 02001KT 9999NDV NCD M01/M02 Q1014=
201005120020 METAR ESMX 120020Z AUTO 02002KT 9999NDV NCD M01/M02 Q1014=
201005112350 METAR ESMX 112350Z AUTO 00000KT 9999NDV NCD M01/M02 Q1014=
201005112320 METAR ESMX 112320Z 00000KT CAVOK M01/M02 Q1015=
201005112250 METAR ESMX 112250Z 02001KT CAVOK M00/M01 Q1015=
201005112220 METAR ESMX 112220Z VRB01KT CAVOK 01/M01 Q1015=
201005112150 METAR ESMX 112150Z 16001KT CAVOK 01/M01 Q1015=
201005112120 METAR ESMX 112120Z 00000KT CAVOK 02/00 Q1014=
201005112050 METAR ESMX 112050Z 00000KT CAVOK 02/M00 Q1014=
201005112020 METAR ESMX 112020Z 17002KT CAVOK 04/00 Q1014=
201005111950 METAR ESMX 111950Z 17002KT CAVOK 04/00 Q1014=
201005111920 METAR ESMX 111920Z VRB01KT CAVOK 05/00 Q1014=
201005111850 METAR ESMX 111850Z 34001KT CAVOK 06/01 Q1014=
201005111820 METAR ESMX 111820Z VRB01KT CAVOK 07/00 Q1014=
201005111750 METAR ESMX 111750Z 30003KT CAVOK 09/M01 Q1013=
201005111720 METAR ESMX 111720Z 27003KT CAVOK 09/M02 Q1013=
201005111650 METAR ESMX 111650Z 25004KT CAVOK 10/M01 Q1013=
201005111620 METAR ESMX 111620Z 27004KT 240V310 CAVOK 10/M02 Q1013=
201005111550 METAR ESMX 111550Z 25005KT 200V280 CAVOK 10/M02 Q1013=
201005111520 METAR ESMX 111520Z 31003KT 250V010 CAVOK 10/M03 Q1013=
201005111420 METAR ESMX 111420Z 27005KT 240V300 9999 FEW040 BKN070 10/M03 Q1013=
201005111350 METAR ESMX 111350Z 23004KT 170V270 9999 FEW035 BKN070 10/M03 Q1012=
201005111320 METAR ESMX 111320Z 30003KT 210V020 9999 FEW035 BKN072 10/M03 Q1012=
201005111250 METAR ESMX 111250Z 23005KT 160V320 CAVOK 12/M02 Q1012=
201005111220 METAR ESMX 111220Z 25007KT 230V290 CAVOK 11/M03 Q1012=
201005111150 METAR ESMX 111150Z VRB03KT CAVOK 10/M02 Q1012=
201005111120 METAR ESMX 111120Z 28005KT 210V340 9999 SCT046 BKN063 09/M02 Q1012=
201005111050 METAR ESMX 111050Z 28005KT 240V330 9999 FEW049 BKN066 10/M01 Q1012=
201005111020 METAR ESMX 111020Z 27006KT 210V300 CAVOK 09/M02 Q1012=
201005110920 METAR ESMX 110920Z 25008KT 200V280 9999 BKN047 09/M04 Q1012=
201005110850 METAR ESMX 110850Z 25010KT 9999 BKN041 BKN062 10/M03 Q1012=
201005110820 METAR ESMX 110820Z 26005KT 210V320 9999 SCT039 BKN055 09/M01 Q1012=
201005110750 METAR ESMX 110750Z 23007KT 180V260 9999 SCT034 08/M02 Q1012=
201005110720 METAR ESMX 110720Z 26004KT 200V320 CAVOK 08/M01 Q1012=
201005110650 METAR ESMX 110650Z VRB01KT CAVOK 07/00 Q1012=
201005110620 METAR ESMX 110620Z VRB01KT CAVOK 06/00 Q1011=
201005110550 METAR ESMX 110550Z VRB01KT CAVOK 06/01 Q1011=
201005110520 METAR ESMX 110520Z VRB01KT CAVOK 05/00 Q1011=
201005110450 METAR ESMX 110450Z VRB01KT CAVOK 02/00 Q1011=
201005110420 METAR ESMX 110420Z 00000KT CAVOK M02/M02 Q1011=
201005110350 METAR ESMX 110350Z 00000KT CAVOK M03/M04 Q1011=
201005110320 METAR ESMX 110320Z AUTO 18001KT 9999NDV NCD M03/M04 Q1011=
201005110250 METAR ESMX 110250Z AUTO 16002KT 9999NDV NCD M03/M03 Q1010=
201005110220 METAR ESMX 110220Z AUTO 20002KT 9999NDV NCD M02/M03 Q1010=
201005110150 METAR ESMX 110150Z AUTO 20003KT 9999NDV NCD M02/M03 Q1010=
201005110120 METAR ESMX 110120Z AUTO 21002KT 9999NDV NCD M01/M03 Q1010=
201005110050 METAR ESMX 110050Z AUTO 23002KT 9999NDV NCD M01/M03 Q1010=
201005110020 METAR ESMX 110020Z AUTO 21003KT 9999NDV NCD 01/M03 Q1010=
201005102350 METAR ESMX 102350Z AUTO 22004KT 9999NDV NCD 01/M03 Q1010=
201005102320 METAR ESMX 102320Z 22004KT CAVOK 00/M03 Q1009=
201005102250 METAR ESMX 102250Z 22004KT CAVOK 01/M03 Q1009=
201005102220 METAR ESMX 102220Z 22004KT CAVOK 01/M03 Q1009=
201005102150 METAR ESMX 102150Z 22005KT CAVOK 01/M03 Q1009=
201005102120 METAR ESMX 102120Z 23004KT CAVOK 02/M03 Q1008=
201005102050 METAR ESMX 102050Z 25004KT CAVOK 03/M04 Q1008=
201005102020 METAR ESMX 102020Z 25004KT CAVOK 04/M03 Q1008=
201005101950 METAR ESMX 101950Z 25005KT CAVOK 04/M03 Q1008=
201005101920 METAR ESMX 101920Z 25004KT CAVOK 05/M03 Q1008=
201005101850 METAR ESMX 101850Z 26005KT 230V300 CAVOK 06/M03 Q1007=
201005101820 METAR ESMX 101820Z 26006KT 240V300 CAVOK 07/M03 Q1007=
201005101750 METAR ESMX 101750Z 28007KT 250V320 CAVOK 08/M03 Q1007=
201005101720 METAR ESMX 101720Z 27009KT 240V300 CAVOK 09/M03 Q1007=
201005101650 METAR ESMX 101650Z 28008KT 240V310 CAVOK 10/M03 Q1006=
201005101620 METAR ESMX 101620Z 24012KT 200V260 CAVOK 10/M03 Q1006=
201005101550 METAR ESMX 101550Z 26008KT 200V290 9999 SCT049 10/M02 Q1006=
201005101520 METAR ESMX 101520Z 27009KT 220V300 9999 SCT048 10/M01 Q1006=
201005101450 METAR ESMX 101450Z 26009KT 220V290 9999 BKN047 10/M00 Q1006=
201005101420 METAR ESMX 101420Z 22013KT 9999 BKN046 10/M01 Q1005=
201005101350 METAR ESMX 101350Z 24012KT 9999 BKN046 11/M00 Q1005=
201005101320 METAR ESMX 101320Z 22012KT 200V260 9999 BKN045 10/00 Q1005=
201005101250 METAR ESMX 101250Z 23011KT 200V280 9999 BKN043 11/01 Q1005=
201005101220 METAR ESMX 101220Z 23007KT 190V260 9999 BKN036 09/02 Q1005=
201005101150 METAR ESMX 101150Z 20009KT 170V230 9999 BKN030 09/02 Q1005=
201005101020 METAR ESMX 101020Z 23008KT 190V270 9999 FEW012 BKN027 08/05 Q1005=
201005100950 METAR ESMX 100950Z 22008KT 9999 FEW014 OVC030 08/05 Q1005=
201005100920 METAR ESMX 100920Z 21006KT 190V250 9999 FEW010 BKN022 07/05 Q1005=
201005100850 METAR ESMX 100850Z 19008KT 7000 BR FEW010 BKN025 07/05 Q1005=
201005100820 METAR ESMX 100820Z 22007KT 7000 BR FEW009 OVC010 07/05 Q1005=
201005100750 METAR ESMX 100750Z 19006KT 160V230 8000 BR FEW008 BKN010 07/05 Q1005=
201005100650 METAR ESMX 100650Z 21006KT 6000 BR SCT007 BKN010 07/05 Q1004=
201005100620 METAR ESMX 100620Z 20005KT 7000 BR FEW006 BKN009 06/05 Q1005=
201005100550 METAR ESMX 100550Z 19006KT 5000 BR FEW008 OVC010 06/05 Q1005=
201005100520 METAR ESMX 100520Z 19007KT 5000 BR FEW003 BKN006 06/05 Q1005=
201005100450 METAR ESMX 100450Z 17005KT 130V200 5000 BR SCT004 BKN006 OVC008 06/05 Q1005=
201005100420 METAR ESMX 100420Z 16004KT 130V200 5000 BR FEW003 BKN007 OVC010 05/05 Q1005=
201005100350 METAR ESMX 100350Z 17004KT 4000 BR FEW010 SCT030 OVC040 05/05 Q1005=
201005100320 METAR ESMX 100320Z AUTO 19004KT 4700NDV BR FEW007/// BKN063/// 05/05 Q1005=
201005100250 METAR ESMX 100250Z AUTO 19003KT 3000NDV BR OVC086/// 05/04 Q1005=
201005100220 METAR ESMX 100220Z AUTO 23004KT 190V260 6000NDV BR FEW007/// BKN043/// OVC086/// 05/04 Q1005=
201005100150 METAR ESMX 100150Z AUTO 22005KT 5000NDV BR FEW005/// SCT022/// OVC039/// 05/05 Q1005=
201005100120 METAR ESMX 100120Z AUTO 23004KT 180V260 4300NDV BR FEW005/// SCT008/// BKN016/// 06/05 Q1005=
201005100050 METAR ESMX 100050Z AUTO 21006KT 3600NDV BR OVC004/// 06/05 Q1005=
201005100020 METAR ESMX 100020Z AUTO 18006KT 5000NDV BR BKN005/// OVC008/// 06/05 Q1005=
201005092350 METAR ESMX 092350Z 18006KT 140V200 6000 BR FEW004 BKN006 OVC008 06/05 Q1005=
201005092320 METAR ESMX 092320Z 17004KT 5000 BR FEW003 SCT006 BKN010 06/05 Q1006=
201005092250 METAR ESMX 092250Z 17004KT 5000 BR FEW007 BKN010 OVC013 06/05 Q1006=
201005092220 METAR ESMX 092220Z 17003KT 6000 -DZ FEW009 SCT025 BKN030 06/05 Q1005=
201005092150 METAR ESMX 092150Z 17005KT 140V200 6000 -RA FEW004 BKN022 BKN028 06/05 Q1006=
201005092120 METAR ESMX 092120Z 18004KT 5000 BR FEW004 SCT005 BKN012 06/05 Q1006=
201005092050 METAR ESMX 092050Z 17005KT 140V200 5000 BR FEW003 SCT006 OVC010 06/05 Q1006=
201005092020 METAR ESMX 092020Z 18004KT 5000 DZ FEW004 SCT013 BKN017 06/05 Q1006=
201005091950 METAR ESMX 091950Z 18005KT 5000 DZ FEW004 SCT008 BKN011 06/05 Q1006=
201005091920 METAR ESMX 091920Z 17004KT 4000 BR FEW005 SCT028 BKN032 06/05 Q1006=
201005091850 METAR ESMX 091850Z 17003KT 6000 BR FEW004 SCT013 BKN016 06/05 Q1006=
201005091820 METAR ESMX 091820Z 18004KT 8000 BR FEW004 SCT006 OVC012 06/05 Q1006=
201005091750 METAR ESMX 091750Z 17005KT 9000 -RA FEW004 BKN005 OVC011 06/05 Q1006=
201005091720 METAR ESMX 091720Z 15004KT 7000 -RA FEW004 BKN006 OVC010 06/05 Q1006=
201005091650 METAR ESMX 091650Z 15003KT 5000 -RA FEW006 BKN008 OVC011 06/05 Q1006=
201005091620 METAR ESMX 091620Z VRB02KT 7000 -RA FEW004 SCT008 BKN012 06/05 Q1007=
201005091550 METAR ESMX 091550Z VRB02KT 9000 -RA FEW008 SCT012 OVC015 06/05 Q1007=
201005091520 METAR ESMX 091520Z 17003KT 130V190 8000 DZ FEW007 BKN010 OVC018 07/05 Q1007=
201005091450 METAR ESMX 091450Z 15003KT 120V200 9999 -RA SCT007 BKN011 BKN021 07/05 Q1007=
201005091420 METAR ESMX 091420Z 16004KT 120V200 9999 -RA FEW009 BKN012 OVC019 07/04 Q1007=
201005091350 METAR ESMX 091350Z VRB02KT 9999 -DZ FEW011 BKN015 OVC019 07/05 Q1007=
201005091320 METAR ESMX 091320Z 07003KT 020V120 9999 SCT008 BKN016 07/04 Q1008=
201005091250 METAR ESMX 091250Z VRB02KT 9999 -DZ FEW011 OVC018 07/04 Q1008=
201005091220 METAR ESMX 091220Z 06003KT 020V120 7000 DZ BKN010 OVC015 06/04 Q1008=
201005091120 METAR ESMX 091120Z 05003KT 010V110 9999 BKN010 OVC013 06/04 Q1008=
201005091050 METAR ESMX 091050Z 05003KT 350V110 9999 -DZ FEW009 BKN011 OVC018 07/04 Q1008=
201005091020 METAR ESMX 091020Z 04003KT 360V080 9999 -DZ OVC010 06/03 Q1008=
201005090950 METAR ESMX 090950Z 03004KT 9999 -DZ FEW009 SCT014 OVC017 06/03 Q1008=
201005090920 METAR ESMX 090920Z 03003KT 350V100 9999 SCT010 OVC016 06/04 Q1008=
201005090850 METAR ESMX 090850Z 05004KT 010V080 9999 -RA SCT007 OVC010 05/03 Q1008=
201005090820 METAR ESMX 090820Z AUTO 01005KT 340V050 9999NDV -DZ SCT006/// BKN009/// OVC010/// 05/03 Q1008=
201005090750 METAR ESMX 090750Z AUTO 04005KT 9999NDV -RA FEW006/// SCT007/// BKN010/// 05/03 Q1008 REDZ=
201005090720 METAR ESMX 090720Z AUTO 02004KT 8000NDV -DZ FEW005/// SCT007/// OVC011/// 04/03 Q1008=
201005090650 METAR ESMX 090650Z AUTO 03003KT 360V060 8000NDV DZ SCT005/// BKN008/// OVC011/// 04/03 Q1008=
201005090620 METAR ESMX 090620Z AUTO 36004KT 7000NDV BR FEW006/// BKN007/// OVC014/// 04/03 Q1008=
201005090550 METAR ESMX 090550Z AUTO 36004KT 9999NDV OVC014/// 04/03 Q1008=
201005090520 METAR ESMX 090520Z AUTO 34004KT 9999NDV FEW006/// OVC010/// 04/03 Q1008=
201005090450 METAR ESMX 090450Z AUTO 36003KT 9999NDV FEW006/// SCT010/// BKN014/// 04/03 Q1008=
201005090420 METAR ESMX 090420Z AUTO 02002KT 9999NDV SCT004/// BKN009/// OVC015/// 04/03 Q1008=
201005090350 METAR ESMX 090350Z AUTO 32003KT 9999NDV FEW004/// SCT005/// BKN007/// 04/03 Q1008=
201005090320 METAR ESMX 090320Z AUTO VRB02KT 9999NDV FEW004/// SCT005/// BKN008/// 04/03 Q1008=
201005090250 METAR ESMX 090250Z AUTO 33002KT 9999NDV FEW005/// BKN012/// OVC026/// 04/03 Q1008=
201005090220 METAR ESMX 090220Z AUTO 36004KT 9999NDV FEW010/// BKN027/// OVC048/// 04/03 Q1008=
201005090150 METAR ESMX 090150Z AUTO 34004G34KT 9999NDV FEW013/// BKN018/// OVC029/// 04/03 Q1008=
201005090120 METAR ESMX 090120Z AUTO 35004KT 9999NDV FEW016/// OVC019/// 04/03 Q1009=
201005090050 METAR ESMX 090050Z AUTO 35004KT 9999NDV FEW006/// OVC012/// 04/03 Q1009=
201005090020 METAR ESMX 090020Z AUTO 33005G33KT 9999NDV FEW006/// BKN007/// OVC010/// 04/03 Q1009=
201005082350 METAR ESMX 082350Z AUTO 34004KT 9999NDV SCT005/// BKN007/// OVC012/// 04/03 Q1009=
201005082320 METAR ESMX 082320Z AUTO 33003KT 9999NDV BKN005/// OVC011/// 04/03 Q1009=
201005082250 METAR ESMX 082250Z AUTO 34004KT 9999NDV SCT005/// BKN007/// OVC013/// 04/03 Q1009=
201005082220 METAR ESMX 082220Z AUTO 34005KT 9999NDV BKN005/// OVC012/// 05/04 Q1009=
201005082150 METAR ESMX 082150Z AUTO 35005KT 9999NDV FEW004/// SCT008/// OVC010/// 05/04 Q1009=
201005082120 METAR ESMX 082120Z AUTO 32004KT 300V360 2300NDV -DZ FEW003/// SCT005/// BKN007/// 05/04 Q1009=
201005082050 METAR ESMX 082050Z AUTO 31004KT 260V350 2200NDV DZ FEW002/// SCT004/// BKN006/// 05/04 Q1009=
201005082020 METAR ESMX 082020Z AUTO 30003KT 2300NDV -RA FEW008/// OVC011/// 05/04 Q1009=
201005081950 METAR ESMX 081950Z AUTO 30003KT 7000NDV FEW004/// BKN010/// OVC014/// 05/04 Q1009=
201005081920 METAR ESMX 081920Z AUTO 27002KT 9999NDV FEW012/// SCT016/// OVC020/// 05/04 Q1009=
201005081850 METAR ESMX 081850Z AUTO 26002KT 9999NDV FEW009/// SCT012/// BKN017/// 05/04 Q1009=
201005081820 METAR ESMX 081820Z 29002KT 9999 FEW010 BKN014 OVC018 05/04 Q1009=
201005081750 METAR ESMX 081750Z 30001KT 9999 FEW014 BKN017 OVC021 05/04 Q1009=
201005081720 METAR ESMX 081720Z VRB02KT 9999 FEW020 OVC023 05/04 Q1009=
201005081650 METAR ESMX 081650Z 36003KT 330V030 9999 DZ FEW007 SCT010 OVC020 05/04 Q1009=
201005081620 METAR ESMX 081620Z 36004KT 330V030 9999 FEW008 BKN013 06/04 Q1009=
201005081550 METAR ESMX 081550Z 34005KT 9999 FEW009 SCT016 OVC020 05/04 Q1010=
201005081520 METAR ESMX 081520Z 36005KT 9000 BR FEW006 SCT009 BKN015 05/04 Q1010=
201005081450 METAR ESMX 081450Z AUTO 02005KT 340V050 9000NDV BR FEW007/// SCT009/// BKN020/// 05/04 Q1010=
201005081420 METAR ESMX 081420Z AUTO 36005KT 320V030 9000NDV BR FEW006/// SCT010/// BKN012/// 05/04 Q1010 REDZ=
201005081350 METAR ESMX 081350Z AUTO 34006KT 310V010 5000NDV -DZ FEW007/// SCT012/// BKN016/// 05/04 Q1010=
201005081320 METAR ESMX 081320Z AUTO 01006KT 340V040 8000NDV DZ FEW009/// SCT016/// BKN018/// 05/03 Q1010=
201005081250 METAR ESMX 081250Z AUTO 36007KT 330V040 9999NDV FEW008/// BKN012/// OVC016/// 05/03 Q1010=
201005081220 METAR ESMX 081220Z AUTO 01008KT 9999NDV FEW007/// SCT010/// BKN015/// 05/03 Q1010=
201005081150 METAR ESMX 081150Z AUTO 02008KT 9999NDV -DZ FEW006/// SCT010/// BKN015/// 05/03 Q1010=
201005081120 METAR ESMX 081120Z AUTO 36009KT 5000NDV -DZ FEW006/// BKN011/// OVC016/// 04/03 Q1010=
201005081050 METAR ESMX 081050Z AUTO 35008KT 330V030 9999NDV DZ FEW007/// OVC011/// 04/03 Q1009=
201005081020 METAR ESMX 081020Z AUTO 36008KT 9999NDV -DZ FEW007/// OVC009/// 04/03 Q1009=
201005080950 METAR ESMX 080950Z 01008KT 9999 -DZ FEW006 SCT008 OVC010 04/03 Q1009 RERA=
201005080920 METAR ESMX 080920Z 01009KT 6000 -RA FEW006 SCT009 OVC010 04/03 Q1009 REDZ=
201005080850 METAR ESMX 080850Z 01010KT 6000 DZ FEW007 BKN010 OVC013 04/03 Q1009=
201005080820 METAR ESMX 080820Z 36010KT 6000 -RA FEW007 BKN010 OVC014 04/03 Q1009 REDZ=
201005080750 METAR ESMX 080750Z 36008KT 6000 DZ FEW006 OVC008 04/03 Q1009=
201005080720 METAR ESMX 080720Z 34008KT 9999 DZ FEW006 BKN008 OVC012 04/03 Q1009=
201005080650 METAR ESMX 080650Z 36009KT 9999 -RA BKN007 OVC012 04/03 Q1009=
201005080620 METAR ESMX 080620Z 01009KT 9999 -RA OVC007 04/03 Q1009=
201005080550 METAR ESMX 080550Z 36010KT 9999 RA OVC005 04/03 Q1009=
201005080520 METAR ESMX 080520Z AUTO 36008KT 9000NDV -RA ////// 04/03 Q1009=
201005080450 METAR ESMX 080450Z AUTO 01009KT 9999NDV RA ////// 04/03 Q1009=
201005080420 METAR ESMX 080420Z AUTO 02007KT 350V050 9999NDV -RA ////// 04/03 Q1009=
201005080350 METAR ESMX 080350Z AUTO 02009KT 350V050 9999NDV -RA FEW008/// OVC010/// 04/03 Q1010=
201005072350 METAR ESMX 072350Z AUTO 03012KT 350V060 9999NDV OVC009/// 04/02 Q1011=
201005072320 METAR ESMX 072320Z AUTO 03013KT 360V070 9999NDV OVC009/// 04/02 Q1012=
201005072250 METAR ESMX 072250Z AUTO 03012KT 010V070 9999NDV FEW009/// OVC010/// 04/02 Q1012=
201005072220 METAR ESMX 072220Z AUTO 04014KT 010V070 9999NDV OVC010/// 04/02 Q1012=
201005072150 METAR ESMX 072150Z AUTO 04014KT 010V070 9999NDV OVC009/// 04/02 Q1012=
201005072120 METAR ESMX 072120Z AUTO 04012KT 350V070 9999NDV OVC010/// 04/02 Q1012=
201005072050 METAR ESMX 072050Z AUTO 04014KT 360V070 9999NDV OVC011/// 04/02 Q1012=
201005072020 METAR ESMX 072020Z AUTO 04014G24KT 010V080 9999NDV OVC010/// 04/02 Q1013=
201005071950 METAR ESMX 071950Z AUTO 04014KT 010V080 9999NDV OVC011/// 04/02 Q1013=
201005071920 METAR ESMX 071920Z AUTO 04013G23KT 010V070 9999NDV OVC010/// 04/02 Q1013=
201005071850 METAR ESMX 071850Z 04016KT 010V080 9999 OVC010 04/02 Q1013=
201005071820 METAR ESMX 071820Z 04021KT 9999 OVC011 05/02 Q1013=
201005071750 METAR ESMX 071750Z 04015G25KT 010V080 9999 OVC010 05/02 Q1013=
201005071720 METAR ESMX 071720Z 04016G29KT 350V080 9999 OVC010 05/02 Q1013=
201005071650 METAR ESMX 071650Z 04015G25KT 360V080 9999 BKN010 OVC014 05/02 Q1013=
201005071620 METAR ESMX 071620Z 04015G25KT 010V070 9999 BKN009 OVC014 05/03 Q1013=
201005071550 METAR ESMX 071550Z 04015KT 360V070 9999 BKN009 OVC013 05/03 Q1013=
201005071520 METAR ESMX 071520Z 03015KT 360V070 9999 -DZ FEW009 OVC010 05/03 Q1013=
201005071450 METAR ESMX 071450Z 04016KT 010V080 9999 OVC009 05/03 Q1013=
201005071420 METAR ESMX 071420Z 05015KT 020V080 9999 OVC009 05/03 Q1013=
201005071350 METAR ESMX 071350Z 04014KT 9999 BKN010 OVC015 05/03 Q1013=
201005071320 METAR ESMX 071320Z 05017KT 020V080 9999 FEW010 OVC012 06/03 Q1013=
201005071250 METAR ESMX 071250Z 04015KT 9999 VCSH OVC012 06/03 Q1013=
201005071220 METAR ESMX 071220Z 04015G26KT 360V070 9999 OVC012 06/03 Q1013=
201005071150 METAR ESMX 071150Z 04017G28KT 350V080 9999 OVC013 06/03 Q1013=
201005071120 METAR ESMX 071120Z 05014KT 020V080 9999 BKN012 OVC015 06/03 Q1013=
201005071050 METAR ESMX 071050Z 04014KT 360V080 9999 OVC012 06/03 Q1013=
201005071020 METAR ESMX 071020Z 04014KT 020V110 9999 OVC015 06/02 Q1013=
201005070950 METAR ESMX 070950Z 04021G35KT 9999 OVC014 06/02 Q1013=
201005070920 METAR ESMX 070920Z 04017G28KT 010V090 9999 OVC014 06/02 Q1013=
201005070850 METAR ESMX 070850Z 04017G27KT 020V080 9999 OVC014 06/02 Q1013=
201005070820 METAR ESMX 070820Z 04017G28KT 010V090 9999 OVC015 06/02 Q1013=
201005070750 METAR ESMX 070750Z 04021KT 9999 OVC015 06/02 Q1013=
201005070720 METAR ESMX 070720Z 05016G27KT 020V080 9999 OVC016 05/02 Q1013=
201005070650 METAR ESMX 070650Z 05016G31KT 9999 BKN016 05/01 Q1013=
201005070620 METAR ESMX 070620Z 05014KT 9999 BKN017 05/01 Q1013=
201005070550 METAR ESMX 070550Z 05014G26KT 010V100 9999 OVC016 05/01 Q1013=
201005070520 METAR ESMX 070520Z 05013KT 020V100 9999 OVC016 05/01 Q1013=
201005070450 METAR ESMX 070450Z 05012G22KT 020V080 9999 OVC015 05/01 Q1013=
201005070420 METAR ESMX 070420Z 04011G22KT 360V070 9999 -DZ BKN017 04/01 Q1013=
201005070350 METAR ESMX 070350Z 05014G24KT 020V120 9999 -DZ BKN020 04/01 Q1013=
201005070320 METAR ESMX 070320Z AUTO 05013KT 010V100 9999NDV NCD 05/M00 Q1013=
201005070250 METAR ESMX 070250Z AUTO 05011KT 020V080 9999NDV FEW039/// SCT045/// 05/M01 Q1013=
201005070220 METAR ESMX 070220Z AUTO 05011KT 010V090 9999NDV NCD 05/M01 Q1013=
201005070150 METAR ESMX 070150Z AUTO 04012KT 010V080 9999NDV NCD 05/M01 Q1013=
201005070120 METAR ESMX 070120Z AUTO 04013KT 010V080 9999NDV NCD 05/M01 Q1013=
201005070050 METAR ESMX 070050Z AUTO 05013KT 9999NDV NCD 05/M01 Q1013=
201005070020 METAR ESMX 070020Z AUTO 03011KT 350V060 9999NDV FEW110/// 05/M01 Q1013=
201005062350 METAR ESMX 062350Z AUTO 04013G23KT 010V070 9999NDV NCD 05/M01 Q1014=
201005062320 METAR ESMX 062320Z 03014G25KT 360V060 CAVOK 05/M01 Q1014=
201005062250 METAR ESMX 062250Z 03013KT 350V070 9999 NSC 05/M01 Q1014=
201005062220 METAR ESMX 062220Z 05012KT CAVOK 05/M01 Q1015=
201005062150 METAR ESMX 062150Z 04012KT 020V100 CAVOK 05/M01 Q1015=
201005062120 METAR ESMX 062120Z 04012KT CAVOK 05/M01 Q1015=
201005062050 METAR ESMX 062050Z 04013G23KT 010V080 9999 FEW025 BKN080 05/M00 Q1015=
201005062020 METAR ESMX 062020Z 04014KT 9999 FEW025 BKN080 05/M00 Q1016=
201005061950 METAR ESMX 061950Z 05014KT 020V080 9999 FEW025 BKN080 05/M00 Q1016=
201005061920 METAR ESMX 061920Z 05014G24KT 020V080 9999 FEW026 BKN080 05/00 Q1016=
201005061850 METAR ESMX 061850Z 04012KT 010V080 9999 SCT025 BKN080 06/01 Q1016=
201005061820 METAR ESMX 061820Z 05011KT 020V100 9999 SCT027 BKN080 06/01 Q1016=
201005061750 METAR ESMX 061750Z 05013KT 020V080 9999 FEW027 SCT030 06/01 Q1016=
201005061720 METAR ESMX 061720Z 06011KT 020V120 9999 FEW028 BKN032 07/00 Q1016=
201005061650 METAR ESMX 061650Z 04010KT 350V070 9999 FEW029 BKN032 07/00 Q1016=
201005061620 METAR ESMX 061620Z 05010KT 350V110 9999 SCT030 07/00 Q1016=
201005061550 METAR ESMX 061550Z 07011KT 020V120 9999 SCT030 08/M00 Q1016=
201005061520 METAR ESMX 061520Z 06012KT 010V090 9999 SCT030 08/M00 Q1016=
201005061450 METAR ESMX 061450Z 07010KT 020V120 9999 SCT031 08/M01 Q1016=
201005061420 METAR ESMX 061420Z 05012KT 020V080 9999 FEW031 08/M00 Q1016=
201005061350 METAR ESMX 061350Z 06010KT 020V120 9999 FEW029 08/M00 Q1016=
201005061320 METAR ESMX 061320Z 05010KT 010V100 9999 SCT027 07/00 Q1017=
201005061250 METAR ESMX 061250Z 05011KT 030V090 9999 BKN023 07/00 Q1017=
201005061220 METAR ESMX 061220Z 06010KT 360V110 9999 BKN021 07/00 Q1018=
201005061150 METAR ESMX 061150Z 07009KT 030V120 9999 FEW018 BKN020 BKN027 06/M00 Q1018=
201005061120 METAR ESMX 061120Z 07009KT 030V130 9999 FEW017 OVC019 05/M00 Q1018=
201005061050 METAR ESMX 061050Z 08007KT 030V130 9999 BKN016 05/M00 Q1018=
201005061020 METAR ESMX 061020Z 08008KT 030V140 9999 OVC016 05/00 Q1019=
201005060950 METAR ESMX 060950Z 09007KT 030V150 9999 BKN015 05/00 Q1019=
201005060920 METAR ESMX 060920Z 09006KT 050V140 9999 BKN013 04/00 Q1019=
201005060850 METAR ESMX 060850Z 09006KT 050V160 9999 OVC012 04/M00 Q1019=
201005060820 METAR ESMX 060820Z 08007KT 030V150 9999 BKN010 03/M00 Q1019=
201005060750 METAR ESMX 060750Z 08008KT 040V160 9999 BKN010 03/M00 Q1019=
201005060720 METAR ESMX 060720Z 09006KT 030V140 9999 OVC009 02/00 Q1019=
201005060650 METAR ESMX 060650Z 09008KT 030V140 9999 OVC008 02/00 Q1019=
201005060620 METAR ESMX 060620Z 08006KT 020V130 9999 OVC007 02/M00 Q1019=
201005060550 METAR ESMX 060550Z 08006KT 020V140 9999 OVC007 01/M00 Q1019=
201005060520 METAR ESMX 060520Z 07005KT 010V120 9999 OVC006 01/00 Q1019=
201005060450 METAR ESMX 060450Z 10005KT 020V160 9999 OVC006 01/00 Q1019=
201005060420 METAR ESMX 060420Z 11005KT 080V170 9999 FEW004 OVC005 01/00 Q1019=
201005060350 METAR ESMX 060350Z 10006KT 060V150 9999 SCT002 OVC004 00/M00 Q1019=
201005060320 METAR ESMX 060320Z 11005KT 080V150 1500 BR OVC002 M00/M01 Q1019=
201005060250 METAR ESMX 060250Z AUTO 12005KT 080V170 0750NDV R01/P2000D R19/P2000N FZFG VV001 M01/M01 Q1020=
201005060220 METAR ESMX 060220Z AUTO 11005KT 070V150 1300NDV R01/P2000N R19/P2000N BR FEW001/// SCT002/// BKN004/// M00/M01 Q1020=
201005060150 METAR ESMX 060150Z AUTO 09003KT 9999NDV NCD M00/M01 Q1020=
201005060120 METAR ESMX 060120Z AUTO 10002KT 6000NDV NCD M02/M02 Q1020=
201005060050 METAR ESMX 060050Z AUTO VRB01KT 9000NDV NCD M02/M02 Q1019=
201005060020 METAR ESMX 060020Z AUTO VRB01KT 4100NDV BR NCD M01/M02 Q1020=
201005052350 METAR ESMX 052350Z AUTO 00000KT 9999NDV NCD M01/M02 Q1020=
201005052320 METAR ESMX 052320Z 12002KT CAVOK M01/M02 Q1020=
201005052250 METAR ESMX 052250Z 13003KT CAVOK M01/M02 Q1020=
201005052220 METAR ESMX 052220Z 13003KT CAVOK 01/M00 Q1020=
201005052150 METAR ESMX 052150Z 10002KT CAVOK 01/M00 Q1020=
201005052120 METAR ESMX 052120Z VRB02KT CAVOK 01/M01 Q1020=
201005052050 METAR ESMX 052050Z VRB02KT CAVOK 02/00 Q1020=
201005052020 METAR ESMX 052020Z 14002KT CAVOK 03/00 Q1020=
201005051950 METAR ESMX 051950Z 13002KT CAVOK 03/01 Q1020=
201005051920 METAR ESMX 051920Z 13002KT CAVOK 05/00 Q1020=
201005051850 METAR ESMX 051850Z 11003KT 070V140 CAVOK 06/00 Q1020=
201005051820 METAR ESMX 051820Z 12003KT CAVOK 08/00 Q1020=
201005051750 METAR ESMX 051750Z 09003KT 020V160 CAVOK 08/00 Q1019=
201005051720 METAR ESMX 051720Z 05005KT 010V090 CAVOK 09/00 Q1019=
201005051650 METAR ESMX 051650Z 06004KT 350V110 CAVOK 09/M00 Q1019=
201005051620 METAR ESMX 051620Z 07005KT 010V120 CAVOK 10/01 Q1019=
201005051550 METAR ESMX 051550Z 06004KT 360V160 CAVOK 09/M01 Q1019=
201005051520 METAR ESMX 051520Z VRB01KT 9999 FEW040 BKN057 10/M00 Q1019=
201005051450 METAR ESMX 051450Z 11004KT 050V160 9999 FEW040 OVC050 08/M00 Q1020=
201005051420 METAR ESMX 051420Z 04005KT 340V110 9999 FEW040 SCT056 10/M01 Q1020=
201005051350 METAR ESMX 051350Z 06005KT 330V130 9999 FEW045 09/M01 Q1020=
201005051320 METAR ESMX 051320Z 01006KT 340V050 9999 FEW042 09/01 Q1019=
201005051250 METAR ESMX 051250Z 04008KT 360V080 9999 FEW032 08/00 Q1019=
201005051220 METAR ESMX 051220Z 02006KT 330V080 9999 FEW020 SCT043 08/02 Q1020=
201005051150 METAR ESMX 051150Z 08007KT 050V120 9999 FEW017 BKN046 07/02 Q1020=
201005051120 METAR ESMX 051120Z 02013KT 9999 FEW015 BKN020 07/01 Q1019=
201005051050 METAR ESMX 051050Z 04011KT 010V070 9999 FEW017 BKN025 06/02 Q1019=
201005051020 METAR ESMX 051020Z 03011KT 350V060 9999 FEW018 SCT021 OVC025 06/02 Q1019=
201005050950 METAR ESMX 050950Z 02009KT 9999 FEW015 BKN020 05/01 Q1019=
201005050920 METAR ESMX 050920Z 02009KT 350V050 9999 BKN011 OVC015 05/02 Q1019=
201005050850 METAR ESMX 050850Z 02008KT 340V050 9999 BKN008 OVC012 04/02 Q1018=
201005050820 METAR ESMX 050820Z 01010KT 9999 OVC006 03/02 Q1018=
201005050750 METAR ESMX 050750Z 02011KT 9999 OVC007 03/02 Q1017=
201005050720 METAR ESMX 050720Z 02009KT 9999 OVC006 03/02 Q1017=
201005050650 METAR ESMX 050650Z 36009KT 9999 BKN007 OVC011 03/01 Q1016=
201005050620 METAR ESMX 050620Z 35010KT 330V030 9999 SCT008 OVC012 03/01 Q1016=
201005050550 METAR ESMX 050550Z 35009KT 9999 SCT004 BKN007 03/02 Q1016=
201005050520 METAR ESMX 050520Z 34007KT 9999 FEW003 OVC005 03/02 Q1015=
201005050450 METAR ESMX 050450Z 34006KT 7000 BR OVC003 03/02 Q1015=
201005050420 METAR ESMX 050420Z 34007KT 9999 BKN005 OVC008 02/01 Q1015=
201005050350 METAR ESMX 050350Z 32004KT 290V010 9999 FEW005 SCT006 BKN008 02/01 Q1014=
201005050320 METAR ESMX 050320Z AUTO 32004KT 9999NDV FEW005/// BKN006/// OVC009/// 02/01 Q1014=
201005050250 METAR ESMX 050250Z AUTO 31004KT 9999NDV -RA FEW005/// SCT007/// BKN010/// 02/01 Q1014=
201005050220 METAR ESMX 050220Z AUTO 32003KT 8000NDV DZ SCT004/// OVC007/// 02/01 Q1014=
201005050150 METAR ESMX 050150Z AUTO 32002KT 9000NDV OVC004/// 02/01 Q1014=
201005050120 METAR ESMX 050120Z AUTO 33002KT 9999NDV -DZ SCT003/// BKN006/// OVC009/// 02/01 Q1014=
201005050050 METAR ESMX 050050Z AUTO 25002KT 8000NDV -RA BKN006/// OVC013/// 02/01 Q1014 REDZ=
201005050020 METAR ESMX 050020Z AUTO 26002KT 9999NDV DZ OVC010/// 02/01 Q1014=
201005042350 METAR ESMX 042350Z AUTO 30004KT 9999NDV -RA FEW008/// BKN010/// OVC014/// 02/01 Q1014 REDZ=
201005042320 METAR ESMX 042320Z 32003KT 6000 RA FEW007 SCT009 OVC010 02/02 Q1014=
201005042250 METAR ESMX 042250Z 30002KT 6000 DZ FEW011 OVC015 02/02 Q1014=
201005042220 METAR ESMX 042220Z 00000KT 9999 SCT015 BKN046 02/02 Q1013 RERA=
201005042150 METAR ESMX 042150Z VRB02KT 9999 -DZ FEW023 BKN055 02/02 Q1013=
201005042120 METAR ESMX 042120Z 07003KT 030V120 9000 -DZ FEW005 SCT016 BKN032 03/02 Q1013=
201005042050 METAR ESMX 042050Z VRB02KT 4000 -RA FEW003 BKN006 02/01 Q1013=
201005042020 METAR COR ESMX 042020Z VRB01KT 9999 RA SCT006 OVC026 03/02 Q1013=
201005041950 METAR ESMX 041950Z 21003KT 9999 FEW009 SCT024 BKN061 03/02 Q1013=
201005041920 METAR ESMX 041920Z 08003KT 040V120 9999 FEW010 SCT035 BKN082 03/02 Q1013=
201005041850 METAR ESMX 041850Z VRB02KT 9999 FEW0013 SCT042 03/02 Q1013=
201005041820 METAR ESMX 041820Z 04004KT 9999 FEW013 SCT024 04/02 Q1012=
201005041750 METAR ESMX 041750Z VRB02KT 7000 SHRA FEW016 SCT023CB BKN038 04/02 Q1013=
201005041720 METAR ESMX 041720Z 33007KT 7000 -SHRA FEW011 SCT020CB BKN030 03/02 Q1013=
201005041650 METAR ESMX 041650Z 30013KT 9999 -SHRA SCT015CB SCT023 04/01 Q1013=
201005041620 METAR ESMX 041620Z 11004KT 060V150 9999 VCSH FEW040CB SCT045 06/02 Q1012=
201005041550 METAR ESMX 041550Z 12004KT 070V160 9999 FEW019 SCT040CB 07/03 Q1012=
201005041520 METAR ESMX 041520Z 01004KT 330V080 9999 FEW035CB BKN043 06/03 Q1012=
201005041450 METAR ESMX 041450Z VRB05KT 9999 FEW030CB SCT070 05/03 Q1012 RERA=
201005041420 METAR ESMX 041420Z 09006KT 050V150 9999 VCSH FEW015CB SCT062 05/03 Q1012=
201005041350 METAR ESMX 041350Z 10005KT 060V140 9999 FEW013CB SCT060 04/02 Q1013=
201005041320 METAR ESMX 041320Z 14006KT 100V160 9999 -SHRA FEW010 FEW014CB BKN020 03/02 Q1014=
201005041250 METAR ESMX 041250Z 20013KT 9999 -SHRA BKN011 SCT015CB 04/01 Q1014=
201005041220 METAR ESMX 041220Z 25009KT 210V280 9999 -SHRA FEW015 SCT022CB BKN035 04/01 Q1014=
201005041150 METAR ESMX 041150Z 18007KT 140V210 9999 VCSH FEW015 FEW025CB BKN066 08/03 Q1013=
201005041120 METAR ESMX 041120Z 18004KT 9999 FEW010 FEW025CB BKN060 07/04 Q1013=
201005041050 METAR ESMX 041050Z 21005KT 150V250 9999 FEW009 FEW025CB BKN100 06/03 Q1013=
201005041020 METAR ESMX 041020Z 24012KT 9999 -SHRA FEW025CB SCT030 BKN040 06/02 Q1013=
201005040950 METAR ESMX 040950Z 19009KT 9999 -SHRA FEW020CB SCT040 BKN051 07/03 Q1013=
201005040920 METAR ESMX 040920Z 27005KT 240V300 9999 FEW020 SCT030 BKN070 07/02 Q1013=
201005040850 METAR ESMX 040850Z 24006KT 9999 VCSH FEW015 SCT027CB BKN070 09/03 Q1013=
201005040820 METAR ESMX 040820Z 20011KT 9999 SCT021 BKN031 08/03 Q1013=
201005040720 METAR ESMX 040720Z 18007KT 140V220 9999 FEW035 SCT070 BKN150 08/01 Q1013=
201005040650 METAR ESMX 040650Z 17006KT 120V210 9999 FEW035 BKN150 07/01 Q1013=
201005040620 METAR ESMX 040620Z 19006KT 9999 FEW035 BKN150 07/01 Q1013=
201005040450 METAR ESMX 040450Z 18006KT CAVOK 05/M02 Q1013=
201005040350 METAR ESMX 040350Z 15005KT CAVOK 05/M03 Q1013=
201005040320 METAR ESMX 040320Z AUTO 15004KT 9999NDV FEW063/// SCT110/// 03/M02 Q1013=
201005040250 METAR ESMX 040250Z AUTO 20003KT 9999NDV OVC062/// 03/M01 Q1013=
201005040220 METAR ESMX 040220Z AUTO 21003KT 9999NDV FEW062/// BKN099/// 03/M01 Q1013=
201005040150 METAR ESMX 040150Z AUTO 20003KT 9999NDV SCT062/// BKN099/// 03/M02 Q1013=
201005040120 METAR ESMX 040120Z AUTO 24003KT 9999NDV FEW061/// 03/M03 Q1014=
201005040050 METAR ESMX 040050Z AUTO 25003KT 9999NDV NCD 03/M02 Q1014=
201005040020 METAR ESMX 040020Z AUTO 18002KT 9999NDV FEW073/// 02/M01 Q1013=
201005032350 METAR ESMX 032350Z AUTO VRB01KT 9999NDV NCD 03/M02 Q1013=
201005032320 METAR ESMX 032320Z 18001KT CAVOK 03/M02 Q1014=
201005032250 METAR ESMX 032250Z 27001KT CAVOK 03/M02 Q1014=
201005032220 METAR ESMX 032220Z VRB01KT CAVOK 04/M03 Q1014=
201005032150 METAR ESMX 032150Z 25001KT CAVOK 03/M02 Q1014=
201005032120 METAR ESMX 032120Z VRB01KT CAVOK 03/M02 Q1014=
201005032050 METAR ESMX 032050Z VRB01KT CAVOK 04/M03 Q1014=
201005032020 METAR ESMX 032020Z 00000KT CAVOK 04/M03 Q1014=
201005031950 METAR ESMX 031950Z VRB02KT CAVOK 06/M05 Q1014=
201005031850 METAR ESMX 031850Z VRB02KT CAVOK 07/M06 Q1014=
201005031820 METAR ESMX 031820Z 04004KT 350V080 CAVOK 07/M06 Q1014=
201005031750 METAR ESMX 031750Z 05004KT 020V080 CAVOK 07/M07 Q1014=
201005031720 METAR ESMX 031720Z 06006KT 020V090 CAVOK 08/M08 Q1014=
201005031650 METAR ESMX 031650Z 06006KT 010V110 CAVOK 08/M09 Q1014=
201005031620 METAR ESMX 031620Z 06007KT 350V110 CAVOK 09/M09 Q1014=
201005031550 METAR ESMX 031550Z 05008KT 020V100 CAVOK 09/M09 Q1014=
201005031520 METAR ESMX 031520Z 04009KT 010V100 CAVOK 10/M10 Q1014=
201005031450 METAR ESMX 031450Z 03011KT CAVOK 10/M09 Q1014=
201005031420 METAR ESMX 031420Z 05008KT 020V100 CAVOK 10/M08 Q1014=
201005031350 METAR ESMX 031350Z 05009KT 360V100 CAVOK 10/M07 Q1014=
201005031320 METAR ESMX 031320Z 04009KT 010V130 CAVOK 10/M06 Q1015=
201005031250 METAR ESMX 031250Z 06008KT 010V110 9999 FEW047 BKN150 11/M05 Q1015=
201005031220 METAR ESMX 031220Z 06007KT 020V130 9999 FEW038 11/M05 Q1015=
201005031150 METAR ESMX 031150Z 05009KT 020V090 9999 FEW041 11/M04 Q1015=
201005031120 METAR ESMX 031120Z 05008KT 010V080 9999 FEW040 11/M03 Q1015=
201005031050 METAR ESMX 031050Z 08007KT 020V150 9999 FEW033 11/M04 Q1015=
201005031020 METAR ESMX 031020Z 10007KT 040V150 9999 FEW045 11/M04 Q1015=
201005030950 METAR ESMX 030950Z 07007KT 020V150 9999 FEW046 11/M05 Q1015=
201005030920 METAR ESMX 030920Z 09007KT 030V140 CAVOK 11/M05 Q1016=
201005030850 METAR ESMX 030850Z 11007KT 030V170 CAVOK 10/M05 Q1016=
201005030820 METAR ESMX 030820Z 11007KT 070V150 CAVOK 10/M05 Q1016=
201005030750 METAR ESMX 030750Z 06005KT 340V120 CAVOK 10/M03 Q1016=
201005030720 METAR ESMX 030720Z 05004KT CAVOK 08/M02 Q1016=
201005030650 METAR ESMX 030650Z VRB03KT CAVOK 07/M01 Q1016=
201005030620 METAR ESMX 030620Z 06003KT CAVOK 06/00 Q1016=
201005030550 METAR ESMX 030550Z 05003KT CAVOK 05/01 Q1016=
201005030520 METAR ESMX 030520Z VRB02KT CAVOK 03/02 Q1016=
201005030450 METAR ESMX 030450Z VRB01KT CAVOK 00/M01 Q1016=
201005030420 METAR ESMX 030420Z 06002KT CAVOK M01/M02 Q1016=
201005030350 METAR ESMX 030350Z VRB01KT CAVOK M02/M02 Q1015=
201005030320 METAR ESMX 030320Z AUTO 07001KT 9999NDV NCD M02/M03 Q1015=
201005030250 METAR ESMX 030250Z AUTO 11003KT 9999NDV NCD 01/M00 Q1015=
201005030220 METAR ESMX 030220Z AUTO 11002KT 9999NDV NCD 01/M00 Q1015=
201005030150 METAR ESMX 030150Z AUTO 11004KT 9999NDV NCD 01/00 Q1015=
201005030120 METAR ESMX 030120Z AUTO 11003KT 9999NDV NCD M00/M01 Q1015=
201005030050 METAR ESMX 030050Z AUTO 11003KT 9999NDV FEW070/// 02/01 Q1015=
201005030020 METAR ESMX 030020Z AUTO VRB01KT 9999NDV FEW070/// 01/M01 Q1015=
201005022350 METAR ESMX 022350Z VRB02KT CAVOK 01/M00 Q1015=
201005022320 METAR ESMX 022320Z 10002KT CAVOK 01/M00 Q1015=
201005022220 METAR ESMX 022220Z 06002KT CAVOK 02/00 Q1015=
201005022150 METAR ESMX 022150Z 09002KT CAVOK 03/01 Q1014=
201005022120 METAR ESMX 022120Z VRB02KT CAVOK 03/01 Q1014=
201005022050 METAR ESMX 022050Z 11003KT CAVOK 05/01 Q1014=
201005022020 METAR ESMX 022020Z 17003KT CAVOK 07/00 Q1014=
201005021950 METAR ESMX 021950Z 16005KT 120V200 CAVOK 08/01 Q1013=
201005021920 METAR ESMX 021920Z 14005KT 100V190 CAVOK 08/01 Q1013=
201005021850 METAR ESMX 021850Z 36004KT 320V050 CAVOK 07/M01 Q1012=
201005021820 METAR ESMX 021820Z VRB02KT CAVOK 08/00 Q1012=
201005021750 METAR ESMX 021750Z 34002KT CAVOK 10/M04 Q1012=
201005021720 METAR ESMX 021720Z 36004KT CAVOK 12/M07 Q1012=
201005021650 METAR ESMX 021650Z 36003KT CAVOK 12/M07 Q1012=
201005021620 METAR ESMX 021620Z 02004KT CAVOK 12/M07 Q1012=
201005021550 METAR ESMX 021550Z 36003KT CAVOK 12/M07 Q1012=
201005021520 METAR ESMX 021520Z VRB03KT CAVOK 12/M07 Q1012=
201005021450 METAR ESMX 021450Z 34005KT CAVOK 12/M06 Q1011=
201005021420 METAR ESMX 021420Z 35004KT CAVOK 12/M07 Q1011=
201005021350 METAR ESMX 021350Z 35004KT 300V060 CAVOK 12/M06 Q1012=
201005021320 METAR ESMX 021320Z VRB04KT CAVOK 12/M06 Q1012=
201005021250 METAR ESMX 021250Z 32004KT 230V030 CAVOK 12/M05 Q1012=
201005021220 METAR ESMX 021220Z 35005KT 280V060 CAVOK 12/M04 Q1012=
201005021150 METAR ESMX 021150Z 35004KT 230V040 9999 FEW045 11/M04 Q1012=
201005021120 METAR ESMX 021120Z AUTO 05004KT 010V110 9999NDV NCD 11/M03 Q1012=
201005021050 METAR ESMX 021050Z AUTO 02007KT 340V050 9999NDV NCD 10/M04 Q1011=
201005021020 METAR ESMX 021020Z AUTO 34005KT 280V030 9999NDV NCD 10/M05 Q1011=
201005020950 METAR ESMX 020950Z AUTO 01006KT 330V070 9999NDV NCD 10/M03 Q1011=
201005020920 METAR ESMX 020920Z AUTO 02006KT 9999NDV NCD 09/M03 Q1011=
201005020850 METAR ESMX 020850Z AUTO 36006KT 340V040 9999NDV NCD 09/M02 Q1011=
201005020820 METAR ESMX 020820Z AUTO 33006KT 290V010 9999NDV NCD 08/00 Q1011=
201005020750 METAR ESMX 020750Z AUTO 01005KT 340V060 9999NDV NCD 08/01 Q1010=
201005020720 METAR ESMX 020720Z AUTO 02005KT 9999NDV NCD 07/01 Q1010=
201005020650 METAR ESMX 020650Z AUTO 35004KT 310V020 9999NDV NCD 06/01 Q1010=
201005020620 METAR ESMX 020620Z AUTO 36005KT 330V030 9999NDV NCD 05/02 Q1010=
201005020550 METAR ESMX 020550Z AUTO 34006KT 310V020 9999NDV NCD 05/02 Q1009=
201005020520 METAR ESMX 020520Z AUTO 33005KT 300V360 9999NDV NCD 04/03 Q1009=
201005020450 METAR ESMX 020450Z AUTO 31003KT 270V360 9999NDV NCD 02/02 Q1008=
201005020420 METAR ESMX 020420Z AUTO 33001KT 1600NDV NCD 01/00 Q1008=
201005020350 METAR ESMX 020350Z AUTO VRB01KT 0400NDV R01/0800 R19/0900 FG NCD 00/M00 Q1007=
201005020320 METAR ESMX 020320Z AUTO 31003KT 2100NDV BR NCD 01/00 Q1007=
201005020250 METAR ESMX 020250Z AUTO 27003KT 7000NDV BR NCD 02/01 Q1007=
201005020220 METAR ESMX 020220Z AUTO 26004KT 8000NDV BR NCD 03/02 Q1007=
201005020150 METAR ESMX 020150Z AUTO 25005KT 9999NDV FEW021/// 03/02 Q1006=
201005020120 METAR ESMX 020120Z AUTO 25004KT 9999NDV FEW017/// BKN019/// 03/02 Q1006=
201005020050 METAR ESMX 020050Z AUTO 24004KT 9999NDV OVC012/// 03/02 Q1006=
201005020020 METAR ESMX 020020Z AUTO 24006KT 9999NDV SCT013/// 03/02 Q1005=
201005012350 METAR ESMX 012350Z AUTO 23005KT 9999NDV NCD 02/01 Q1005=
201005012320 METAR ESMX 012320Z AUTO 24005KT 9999NDV NCD 03/01 Q1005=
201005012250 METAR ESMX 012250Z AUTO 25006G23KT 9999NDV NCD 03/02 Q1005=
201005012220 METAR ESMX 012220Z AUTO 22005KT 9999NDV NCD 04/02 Q1004=
201005012150 METAR ESMX 012150Z AUTO 24005KT 9999NDV NCD 04/02 Q1004=
201005012120 METAR ESMX 012120Z AUTO 26006KT 230V290 9999NDV NCD 05/03 Q1004=
201005012050 METAR ESMX 012050Z AUTO 25006KT 230V290 9999NDV FEW018/// 05/04 Q1004=
201005012020 METAR ESMX 012020Z AUTO 26006KT 9999NDV NCD 06/05 Q1004=
201005011950 METAR ESMX 011950Z AUTO 24006KT 210V280 9999NDV BKN029/// 07/05 Q1003=
201005011920 METAR ESMX 011920Z AUTO 23007KT 200V270 9999NDV BKN025/// OVC042/// 07/06 Q1003 REDZ=
201005011850 METAR ESMX 011850Z AUTO 26011KT 230V290 6000NDV DZ FEW008/// SCT014/// BKN017/// 08/06 Q1003=
201005011820 METAR ESMX 011820Z AUTO 24006KT 210V280 9999NDV FEW011/// SCT018/// OVC025/// 09/07 Q1002=
201005011750 METAR ESMX 011750Z AUTO 21007KT 170V250 9999NDV FEW010/// BKN013/// OVC021/// 09/08 Q1002=
201005011720 METAR ESMX 011720Z AUTO 21006KT 170V240 9999NDV FEW008/// SCT010/// BKN013/// 09/08 Q1002=
201005011650 METAR ESMX 011650Z AUTO 20008KT 5000NDV -RA FEW006/// SCT012/// BKN015/// 09/08 Q1002=
201005011620 METAR ESMX 011620Z AUTO 22007KT 200V280 9000NDV BR FEW011/// SCT019/// BKN033/// 10/08 Q1002=
201005011550 METAR ESMX 011550Z AUTO 27009KT 2700NDV -RA FEW006/// SCT015/// BKN022/// 09/08 Q1002=
201005011520 METAR ESMX 011520Z AUTO 23011KT 180V260 5000NDV -RA FEW013/// SCT018/// BKN028/// 11/07 Q1002=
201005011450 METAR ESMX 011450Z AUTO 21011KT 180V250 9999NDV FEW017/// SCT045/// OVC061/// 11/07 Q1002=
201005011420 METAR ESMX 011420Z AUTO 21011KT 9999NDV FEW013/// SCT037/// BKN045/// 10/08 Q1002=
201005011350 METAR ESMX 011350Z AUTO 20010KT 9999NDV FEW008/// SCT012/// BKN015/// 09/08 Q1003=
201005011320 METAR ESMX 011320Z AUTO 20008KT 9999NDV BR FEW009/// SCT014/// BKN017/// 09/08 Q1003 REDZ=
201005011250 METAR ESMX 011250Z AUTO 21011KT 170V240 9999NDV -DZ FEW015/// SCT028/// BKN039/// 09/07 Q1003=
201005011220 METAR ESMX 011220Z AUTO 21012KT 170V240 9999NDV -RA FEW019/// SCT023/// BKN027/// 10/07 Q1003=
