##########################################################
# Query made at 04/19/2024 21:21:44 UTC
# Time interval: from 04/01/2011 12:00  to 04/30/2011 12:59  UTC
##########################################################

##########################################################
# ESMX, Vaxjo (Sweden)
# WMO index: 02641. WIGOS ID: 0-20000-0-02648
# Latitude 56-51N. Longitude 014-50E. Altitude 199 m.
##########################################################

201104301250 METAR ESMX 301250Z AUTO 01009KT 330V050 9999NDV NCD 15/M04 Q1020=
201104301220 METAR ESMX 301220Z AUTO 04008KT 330V080 9999NDV NCD 15/M03 Q1020=
201104301150 METAR ESMX 301150Z 02009KT 350V080 CAVOK 15/M04 Q1020=
201104301120 METAR ESMX 301120Z 01009KT 320V050 CAVOK 15/M03 Q1020=
201104301050 METAR ESMX 301050Z 03011KT 350V070 CAVOK 14/M03 Q1021=
201104301020 METAR ESMX 301020Z 03010KT 360V080 CAVOK 14/M02 Q1021=
201104300950 METAR ESMX 300950Z 02011KT 340V050 CAVOK 14/M02 Q1022=
201104300920 METAR ESMX 300920Z 03010KT 350V060 CAVOK 14/M02 Q1022=
201104300850 METAR ESMX 300850Z 03011KT 340V060 CAVOK 13/M01 Q1022=
201104300820 METAR ESMX 300820Z 03012KT 350V060 CAVOK 12/M01 Q1022=
201104300750 METAR ESMX 300750Z 03012G22KT 350V070 CAVOK 12/M01 Q1022=
201104300720 METAR ESMX 300720Z 02010KT 340V050 CAVOK 11/M01 Q1022=
201104300650 METAR ESMX 300650Z 01011KT 340V040 CAVOK 10/M01 Q1023=
201104300620 METAR ESMX 300620Z AUTO 02011KT 340V050 9999NDV NCD 09/M01 Q1023=
201104300550 METAR ESMX 300550Z AUTO 01010KT 9999NDV NCD 08/M01 Q1023=
201104300520 METAR ESMX 300520Z AUTO 01008KT 9999NDV NCD 06/M00 Q1023=
201104300450 METAR ESMX 300450Z AUTO 35005KT 9999NDV NCD 04/M00 Q1023=
201104300420 METAR ESMX 300420Z AUTO 34003KT 320V030 9999NDV NCD 01/M02 Q1023=
201104300350 METAR ESMX 300350Z AUTO 31002KT 9999NDV NCD M00/M03 Q1023=
201104300320 METAR ESMX 300320Z AUTO 35003KT 9999NDV NCD 00/M02 Q1023=
201104300250 METAR ESMX 300250Z AUTO 33003KT 300V360 9999NDV NCD M01/M03 Q1024=
201104300220 METAR ESMX 300220Z AUTO 31002KT 9999NDV NCD 00/M03 Q1024=
201104300150 METAR ESMX 300150Z AUTO 33003KT 9999NDV NCD 01/M02 Q1024=
201104300120 METAR ESMX 300120Z AUTO 35001KT 9999NDV NCD 00/M03 Q1024=
201104300050 METAR ESMX 300050Z AUTO 02002KT 9999NDV NCD 02/M02 Q1024=
201104300020 METAR ESMX 300020Z AUTO VRB02KT 9999NDV NCD 03/M02 Q1024=
201104292350 METAR ESMX 292350Z AUTO 01003KT 9999NDV NCD 05/M02 Q1025=
201104292320 METAR ESMX 292320Z AUTO 02003KT 9999NDV NCD 06/M02 Q1025=
201104292250 METAR ESMX 292250Z AUTO 07003KT 020V100 9999NDV NCD 07/M02 Q1025=
201104292220 METAR ESMX 292220Z AUTO 05003KT 340V100 9999NDV NCD 07/M02 Q1025=
201104292150 METAR ESMX 292150Z AUTO 07004KT 030V110 9999NDV NCD 07/M02 Q1025=
201104292120 METAR ESMX 292120Z AUTO 07005KT 030V140 9999NDV NCD 08/M02 Q1025=
201104292050 METAR ESMX 292050Z AUTO 07005KT 030V110 9999NDV NCD 09/M01 Q1025=
201104292020 METAR ESMX 292020Z AUTO 06006KT 350V140 9999NDV NCD 10/M01 Q1024=
201104291950 METAR ESMX 291950Z AUTO 06006KT 010V120 9999NDV NCD 11/M01 Q1024=
201104291920 METAR ESMX 291920Z AUTO 06003KT 350V120 9999NDV NCD 12/00 Q1024=
201104291850 METAR ESMX 291850Z 07004KT 030V130 CAVOK 13/M01 Q1023=
201104291820 METAR ESMX 291820Z 08006KT 050V130 CAVOK 14/M01 Q1023=
201104291750 METAR ESMX 291750Z 04004KT 020V080 CAVOK 15/M01 Q1023=
201104291720 METAR ESMX 291720Z 05005KT 020V100 CAVOK 15/M02 Q1023=
201104291650 METAR ESMX 291650Z 05009KT 020V100 CAVOK 16/M02 Q1023=
201104291620 METAR ESMX 291620Z 07007KT 020V130 CAVOK 17/M02 Q1023=
201104291550 METAR ESMX 291550Z 04008KT 010V080 CAVOK 17/M03 Q1023=
201104291520 METAR ESMX 291520Z 06007KT 020V110 CAVOK 17/M04 Q1023=
201104291450 METAR ESMX 291450Z 04011KT 010V090 CAVOK 18/M03 Q1023=
201104291420 METAR ESMX 291420Z 05008KT 020V090 CAVOK 18/M03 Q1023=
201104291350 METAR ESMX 291350Z 05011KT CAVOK 18/M02 Q1024=
201104291320 METAR ESMX 291320Z 03008KT 320V080 9999 FEW037 BKN079 18/M01 Q1024=
201104291250 METAR ESMX 291250Z 04008KT 020V090 CAVOK 16/M01 Q1024=
201104291220 METAR ESMX 291220Z 04009KT 010V070 9999 FEW044 BKN074 16/M02 Q1024=
201104291150 METAR ESMX 291150Z 04009KT 350V080 CAVOK 17/M02 Q1024=
201104291120 METAR ESMX 291120Z 05011KT 020V110 CAVOK 17/M02 Q1024=
201104291050 METAR ESMX 291050Z 02010KT 340V070 CAVOK 17/M02 Q1024=
201104291020 METAR ESMX 291020Z 03011KT 350V130 CAVOK 17/M01 Q1025=
201104290950 METAR ESMX 290950Z 03012KT 350V060 9999 NSC 17/M01 Q1025=
201104290920 METAR ESMX 290920Z 03012KT CAVOK 16/M01 Q1025=
201104290850 METAR ESMX 290850Z 04011KT 020V100 CAVOK 15/M01 Q1025=
201104290820 METAR ESMX 290820Z 03009KT 330V060 CAVOK 14/M01 Q1025=
201104290750 METAR ESMX 290750Z 02008KT CAVOK 12/M02 Q1025=
201104290720 METAR ESMX 290720Z 04008KT 360V080 CAVOK 12/M02 Q1026=
201104290650 METAR ESMX 290650Z 05007KT 020V080 CAVOK 11/M02 Q1026=
201104290620 METAR ESMX 290620Z 04006KT 360V070 CAVOK 10/M02 Q1026=
201104290550 METAR ESMX 290550Z 04007KT 010V070 CAVOK 08/M02 Q1026=
201104290520 METAR ESMX 290520Z 03006KT 010V070 CAVOK 07/M02 Q1026=
201104290450 METAR ESMX 290450Z 03004KT 340V070 CAVOK 05/M02 Q1025=
201104290420 METAR ESMX 290420Z 03004KT CAVOK 04/M02 Q1025=
201104290350 METAR ESMX 290350Z 04005KT CAVOK 04/M02 Q1025=
201104290320 METAR ESMX 290320Z AUTO 03005KT 9999NDV NCD 04/M02 Q1025=
201104290250 METAR ESMX 290250Z AUTO 04004KT 9999NDV NCD 04/M02 Q1025=
201104290220 METAR ESMX 290220Z AUTO 03004KT 9999NDV NCD 04/M02 Q1025=
201104290150 METAR ESMX 290150Z AUTO 03005KT 9999NDV NCD 04/M02 Q1025=
201104290120 METAR ESMX 290120Z AUTO 03006KT 9999NDV NCD 04/M02 Q1025=
201104290050 METAR ESMX 290050Z AUTO 03005KT 9999NDV NCD 04/M02 Q1025=
201104290020 METAR ESMX 290020Z AUTO 03005KT 9999NDV NCD 05/M02 Q1025=
201104282350 METAR ESMX 282350Z AUTO 03004KT 360V060 9999NDV NCD 05/M02 Q1025=
201104282320 METAR ESMX 282320Z 03005KT CAVOK 05/M03 Q1025=
201104282250 METAR ESMX 282250Z 03004KT CAVOK 05/M03 Q1025=
201104282220 METAR ESMX 282220Z 04006KT CAVOK 06/M03 Q1026=
201104282150 METAR ESMX 282150Z 03004KT CAVOK 06/M03 Q1026=
201104282120 METAR ESMX 282120Z 04005KT CAVOK 07/M04 Q1025=
201104282050 METAR ESMX 282050Z 04004KT CAVOK 07/M04 Q1025=
201104282020 METAR ESMX 282020Z 04005KT CAVOK 08/M04 Q1025=
201104281950 METAR ESMX 281950Z 04007KT CAVOK 09/M04 Q1025=
201104281920 METAR ESMX 281920Z 04006KT 020V080 CAVOK 09/M04 Q1025=
201104281850 METAR ESMX 281850Z 04007KT 010V070 CAVOK 10/M04 Q1025=
201104281820 METAR ESMX 281820Z 05006KT 010V120 CAVOK 11/M02 Q1025=
201104281750 METAR ESMX 281750Z 05007KT 010V090 CAVOK 12/M03 Q1025=
201104281720 METAR ESMX 281720Z 03007KT 350V080 CAVOK 13/M03 Q1025=
201104281650 METAR ESMX 281650Z 06009KT 020V100 CAVOK 14/M02 Q1024=
201104281620 METAR ESMX 281620Z 05009KT 030V090 CAVOK 14/M03 Q1024=
201104281550 METAR ESMX 281550Z 07007KT 030V130 CAVOK 15/M03 Q1024=
201104281520 METAR ESMX 281520Z 04008KT 010V100 CAVOK 15/M02 Q1024=
201104281450 METAR ESMX 281450Z 05009KT 010V100 CAVOK 16/M03 Q1024=
201104281420 METAR ESMX 281420Z 05009KT 020V080 CAVOK 16/M04 Q1025=
201104281350 METAR ESMX 281350Z 03009KT 350V090 CAVOK 16/M03 Q1025=
201104281320 METAR ESMX 281320Z 05010KT 020V100 CAVOK 16/M03 Q1025=
201104281250 METAR ESMX 281250Z 04011KT CAVOK 16/M04 Q1025=
201104281220 METAR ESMX 281220Z 04010KT 010V100 CAVOK 16/M05 Q1025=
201104281150 METAR ESMX 281150Z 05011KT 020V090 CAVOK 16/M04 Q1025=
201104281120 METAR ESMX 281120Z 05010KT 360V080 CAVOK 16/M03 Q1025=
201104281050 METAR ESMX 281050Z 04010KT CAVOK 16/M03 Q1025=
201104281020 METAR ESMX 281020Z 05010KT 010V110 CAVOK 16/M04 Q1025=
201104280950 METAR ESMX 280950Z 05009KT 010V100 CAVOK 15/M04 Q1025=
201104280920 METAR ESMX 280920Z 04011KT 020V080 CAVOK 14/M05 Q1026=
201104280850 METAR ESMX 280850Z 05010KT 020V100 CAVOK 14/M06 Q1026=
201104280820 METAR ESMX 280820Z 05009KT 020V080 CAVOK 13/M05 Q1026=
201104280750 METAR ESMX 280750Z 05010KT 010V080 CAVOK 12/M04 Q1026=
201104280720 METAR ESMX 280720Z 04008KT 360V080 CAVOK 11/M03 Q1026=
201104280650 METAR ESMX 280650Z 05010KT 020V080 CAVOK 10/M03 Q1026=
201104280620 METAR ESMX 280620Z 05008KT 020V090 CAVOK 09/M02 Q1026=
201104280550 METAR ESMX 280550Z 05007KT 010V080 CAVOK 08/M02 Q1026=
201104280520 METAR ESMX 280520Z 06007KT 020V100 CAVOK 07/M02 Q1026=
201104280450 METAR ESMX 280450Z 04007KT 020V080 CAVOK 06/M02 Q1026=
201104280420 METAR ESMX 280420Z 04006KT CAVOK 05/M02 Q1025=
201104280350 METAR ESMX 280350Z 04006KT CAVOK 05/M02 Q1025=
201104280320 METAR ESMX 280320Z AUTO 04007KT 9999NDV NCD 05/M01 Q1025=
201104280250 METAR ESMX 280250Z AUTO 04007KT 9999NDV FEW100/// 05/M01 Q1025=
201104280220 METAR ESMX 280220Z AUTO 05006KT 020V080 9999NDV NCD 05/M01 Q1026=
201104280150 METAR ESMX 280150Z AUTO 04007KT 9999NDV NCD 05/M01 Q1026=
201104280120 METAR ESMX 280120Z AUTO 04006KT 010V080 9999NDV NCD 05/M01 Q1026=
201104280050 METAR ESMX 280050Z AUTO 04007KT 9999NDV SCT110/// 06/M01 Q1026=
201104280020 METAR ESMX 280020Z 05006KT 020V090 CAVOK 06/M01 Q1026=
201104272350 METAR ESMX 272350Z 06006KT 020V100 CAVOK 06/M01 Q1026=
201104272320 METAR ESMX 272320Z 07006KT 030V100 CAVOK 07/M01 Q1026=
201104272250 METAR ESMX 272250Z 06006KT 020V130 CAVOK 07/M01 Q1026=
201104272220 METAR ESMX 272220Z 06007KT 020V100 CAVOK 07/M01 Q1026=
201104272150 METAR ESMX 272150Z 05007KT CAVOK 07/M01 Q1026=
201104272120 METAR ESMX 272120Z 05008KT 020V100 CAVOK 08/M01 Q1026=
201104272050 METAR ESMX 272050Z 06007KT 020V110 CAVOK 08/M01 Q1026=
201104272020 METAR ESMX 272020Z 05008KT 020V110 CAVOK 08/M01 Q1026=
201104271850 METAR ESMX 271850Z 05009KT 020V080 CAVOK 10/M01 Q1025=
201104271820 METAR ESMX 271820Z 05008KT 020V080 CAVOK 11/01 Q1025=
201104271750 METAR ESMX 271750Z 04007KT 350V080 CAVOK 12/03 Q1024=
201104271720 METAR ESMX 271720Z 06007KT 020V100 CAVOK 13/04 Q1024=
201104271650 METAR ESMX 271650Z 05009KT CAVOK 15/05 Q1024=
201104271620 METAR ESMX 271620Z 05010KT 020V100 CAVOK 16/05 Q1024=
201104271550 METAR ESMX 271550Z 07008KT 030V120 CAVOK 17/06 Q1023=
201104271520 METAR ESMX 271520Z 05011KT 020V100 CAVOK 17/06 Q1023=
201104271450 METAR ESMX 271450Z 04009KT 010V090 CAVOK 18/05 Q1023=
201104271420 METAR ESMX 271420Z 06009KT 020V110 CAVOK 18/05 Q1023=
201104271350 METAR ESMX 271350Z 05010KT 020V100 CAVOK 18/05 Q1023=
201104271320 METAR ESMX 271320Z 05008KT 010V080 CAVOK 18/05 Q1023=
201104271250 METAR ESMX 271250Z 05007KT 020V080 CAVOK 17/05 Q1023=
201104271220 METAR ESMX 271220Z 08007KT 040V110 CAVOK 17/04 Q1023=
201104271150 METAR ESMX 271150Z 05006KT 350V100 CAVOK 19/04 Q1023=
201104271120 METAR ESMX 271120Z 05009KT 020V110 CAVOK 18/05 Q1023=
201104271050 METAR ESMX 271050Z 05007KT 020V120 CAVOK 18/05 Q1023=
201104271020 METAR ESMX 271020Z 04007KT 020V080 CAVOK 17/05 Q1023=
201104270950 METAR ESMX 270950Z 05006KT CAVOK 16/05 Q1024=
201104270920 METAR ESMX 270920Z 05007KT 020V100 CAVOK 15/04 Q1024=
201104270850 METAR ESMX 270850Z 04007KT 020V090 CAVOK 14/05 Q1024=
201104270820 METAR ESMX 270820Z 05007KT 010V080 CAVOK 13/05 Q1024=
201104270750 METAR ESMX 270750Z 01006KT 340V040 CAVOK 12/05 Q1024=
201104270720 METAR ESMX 270720Z 05005KT 020V080 CAVOK 11/05 Q1024=
201104270650 METAR ESMX 270650Z 05006KT 020V090 CAVOK 09/05 Q1023=
201104270620 METAR ESMX 270620Z 05006KT 010V090 CAVOK 09/05 Q1023=
201104270550 METAR ESMX 270550Z 04005KT 360V110 CAVOK 08/04 Q1023=
201104270520 METAR ESMX 270520Z 06004KT 010V110 CAVOK 08/04 Q1023=
201104270420 METAR ESMX 270420Z 05005KT 360V110 CAVOK 07/04 Q1022=
201104270350 METAR ESMX 270350Z 08004KT 030V140 CAVOK 07/04 Q1022=
201104270320 METAR ESMX 270320Z AUTO 06006KT 020V110 9999NDV NCD 07/04 Q1022=
201104270250 METAR ESMX 270250Z AUTO 06005KT 010V110 9999NDV NCD 07/04 Q1022=
201104270220 METAR ESMX 270220Z AUTO 07005KT 030V110 9999NDV NCD 08/04 Q1022=
201104270150 METAR ESMX 270150Z AUTO 03005KT 360V070 9999NDV NCD 08/04 Q1022=
201104270120 METAR ESMX 270120Z AUTO 03006KT 9999NDV NCD 09/05 Q1022=
201104270050 METAR ESMX 270050Z AUTO 04005KT 9999NDV FEW110/// 09/05 Q1022=
201104270020 METAR ESMX 270020Z AUTO 03006KT 010V070 9999NDV BKN110/// 11/05 Q1022=
201104262350 METAR ESMX 262350Z 08004KT 050V110 CAVOK 12/06 Q1021=
201104262320 METAR ESMX 262320Z 05003KT 010V080 CAVOK 11/06 Q1021=
201104262250 METAR ESMX 262250Z 17003KT CAVOK 13/05 Q1021=
201104262220 METAR ESMX 262220Z 17004KT CAVOK 14/06 Q1021=
201104262150 METAR ESMX 262150Z 16005KT CAVOK 15/06 Q1021=
201104262120 METAR ESMX 262120Z 18005KT 9999 -DZ SCT090 15/07 Q1021=
201104262050 METAR ESMX 262050Z 20004KT CAVOK 15/07 Q1021=
201104262020 METAR ESMX 262020Z 21006KT CAVOK 14/07 Q1021=
201104261950 METAR ESMX 261950Z 20005KT CAVOK 15/07 Q1020=
201104261920 METAR ESMX 261920Z 18006KT CAVOK 16/07 Q1021=
201104261850 METAR ESMX 261850Z 17005KT CAVOK 17/06 Q1020=
201104261820 METAR ESMX 261820Z 22003KT CAVOK 16/06 Q1020=
201104261750 METAR ESMX 261750Z 22003KT CAVOK 17/06 Q1020=
201104261720 METAR ESMX 261720Z 23005KT CAVOK 18/05 Q1020=
201104261650 METAR ESMX 261650Z 19007KT CAVOK 19/06 Q1020=
201104261620 METAR ESMX 261620Z 18007KT CAVOK 20/05 Q1020=
201104261550 METAR ESMX 261550Z VRB01KT CAVOK 21/02 Q1020=
201104261520 METAR ESMX 261520Z 03004KT 350V060 CAVOK 21/02 Q1020=
201104261450 METAR ESMX 261450Z 09004KT 020V130 CAVOK 21/03 Q1020=
201104261420 METAR ESMX 261420Z 04004KT 360V080 CAVOK 21/03 Q1020=
201104261350 METAR ESMX 261350Z 01005KT 330V060 CAVOK 21/03 Q1021=
201104261320 METAR ESMX 261320Z 01005KT 330V040 CAVOK 21/03 Q1021=
201104261250 METAR ESMX 261250Z 02006KT 340V050 CAVOK 21/02 Q1021=
201104261220 METAR ESMX 261220Z VRB02KT CAVOK 22/01 Q1021=
201104261150 METAR ESMX 261150Z VRB02KT CAVOK 21/03 Q1022=
201104261120 METAR ESMX 261120Z 36004KT 310V050 CAVOK 20/03 Q1022=
201104261050 METAR ESMX 261050Z 36003KT 320V020 CAVOK 19/04 Q1022=
201104261020 METAR ESMX 261020Z 35003KT 290V060 CAVOK 20/04 Q1022=
201104260950 METAR ESMX 260950Z 34004KT 270V030 CAVOK 20/05 Q1022=
201104260920 METAR ESMX 260920Z 06004KT 030V100 CAVOK 18/04 Q1022=
201104260850 METAR ESMX 260850Z 03004KT 360V070 CAVOK 19/03 Q1022=
201104260750 METAR ESMX 260750Z VRB02KT CAVOK 16/07 Q1023=
201104260720 METAR ESMX 260720Z VRB01KT CAVOK 13/07 Q1023=
201104260650 METAR ESMX 260650Z VRB01KT CAVOK 12/07 Q1023=
201104260620 METAR ESMX 260620Z 00000KT CAVOK 10/07 Q1023=
201104260550 METAR ESMX 260550Z 34001KT CAVOK 09/07 Q1023=
201104260520 METAR ESMX 260520Z 00000KT CAVOK 09/07 Q1023=
201104260450 METAR ESMX 260450Z 00000KT CAVOK 05/04 Q1023=
201104260420 METAR ESMX 260420Z 34001KT CAVOK 03/01 Q1023=
201104260350 METAR ESMX 260350Z 20001KT CAVOK 03/01 Q1022=
201104260320 METAR ESMX 260320Z AUTO VRB01KT 9999NDV NCD 03/02 Q1022=
201104260250 METAR ESMX 260250Z AUTO 00000KT 9999NDV NCD 03/01 Q1023=
201104260220 METAR ESMX 260220Z AUTO 17001KT 9999NDV NCD 03/02 Q1023=
201104260150 METAR ESMX 260150Z AUTO 17001KT 9999NDV NCD 04/02 Q1023=
201104260120 METAR ESMX 260120Z AUTO 17001KT 9999NDV NCD 04/02 Q1023=
201104260050 METAR ESMX 260050Z AUTO 14001KT 9999NDV NCD 06/03 Q1023=
201104260020 METAR ESMX 260020Z AUTO 02001KT 9999NDV NCD 06/03 Q1023=
201104252350 METAR ESMX 252350Z AUTO 00000KT 9999NDV NCD 07/03 Q1023=
201104252320 METAR ESMX 252320Z 18003KT CAVOK 08/04 Q1023=
201104252250 METAR ESMX 252250Z 18002KT CAVOK 09/03 Q1023=
201104252220 METAR ESMX 252220Z 17005KT 140V200 CAVOK 11/04 Q1023=
201104252150 METAR ESMX 252150Z 17006KT CAVOK 12/05 Q1023=
201104252120 METAR ESMX 252120Z 17006KT CAVOK 12/05 Q1023=
201104252050 METAR ESMX 252050Z 16006KT CAVOK 14/05 Q1023=
201104252020 METAR ESMX 252020Z 16006KT CAVOK 14/04 Q1023=
201104251950 METAR ESMX 251950Z 18006KT CAVOK 15/05 Q1023=
201104251920 METAR ESMX 251920Z 15008KT 120V180 CAVOK 16/05 Q1022=
201104251850 METAR ESMX 251850Z VRB01KT CAVOK 14/05 Q1022=
201104251820 METAR ESMX 251820Z 22001KT CAVOK 16/06 Q1022=
201104251750 METAR ESMX 251750Z 00000KT CAVOK 19/04 Q1022=
201104251720 METAR ESMX 251720Z 01002KT CAVOK 21/02 Q1022=
201104251650 METAR ESMX 251650Z 36003KT 330V030 CAVOK 21/01 Q1022=
201104251620 METAR ESMX 251620Z 34003KT 290V010 CAVOK 21/02 Q1022=
201104251550 METAR ESMX 251550Z VRB02KT CAVOK 22/02 Q1022=
201104251520 METAR ESMX 251520Z 01005KT 320V060 CAVOK 21/02 Q1022=
201104251450 METAR ESMX 251450Z 04005KT 320V080 CAVOK 22/02 Q1022=
201104251420 METAR ESMX 251420Z 04006KT 010V080 CAVOK 21/02 Q1023=
201104251350 METAR ESMX 251350Z 02005KT 320V070 CAVOK 22/02 Q1023=
201104251320 METAR ESMX 251320Z 05005KT 360V110 CAVOK 22/02 Q1023=
201104251250 METAR ESMX 251250Z 01005KT 330V060 CAVOK 22/02 Q1024=
201104251220 METAR ESMX 251220Z 36004KT 290V100 CAVOK 21/02 Q1024=
201104251150 METAR ESMX 251150Z 36004KT 260V060 CAVOK 20/02 Q1024=
201104251120 METAR ESMX 251120Z 36005KT 280V050 CAVOK 20/02 Q1024=
201104251050 METAR ESMX 251050Z VRB02KT CAVOK 20/01 Q1024=
201104251020 METAR ESMX 251020Z 04004KT 010V110 CAVOK 20/03 Q1025=
201104250950 METAR ESMX 250950Z VRB02KT CAVOK 20/01 Q1025=
201104250920 METAR ESMX 250920Z VRB02KT CAVOK 18/05 Q1025=
201104250850 METAR ESMX 250850Z 35003KT 290V060 CAVOK 16/06 Q1025=
201104250820 METAR ESMX 250820Z 02005KT CAVOK 15/06 Q1025=
201104250750 METAR ESMX 250750Z 02003KT 300V070 CAVOK 14/05 Q1025=
201104250720 METAR ESMX 250720Z 03003KT 340V070 CAVOK 13/06 Q1025=
201104250650 METAR ESMX 250650Z AUTO VRB01KT 9999NDV NCD 12/05 Q1025=
201104250620 METAR ESMX 250620Z AUTO VRB01KT 9999NDV NCD 11/06 Q1025=
201104250550 METAR ESMX 250550Z AUTO 00000KT 9999NDV NCD 09/06 Q1025=
201104250520 METAR ESMX 250520Z AUTO 00000KT 9999NDV NCD 06/05 Q1025=
201104250450 METAR ESMX 250450Z AUTO VRB02KT 9999NDV NCD 03/02 Q1025=
201104250420 METAR ESMX 250420Z AUTO 00000KT 9999NDV NCD 01/00 Q1025=
201104250350 METAR ESMX 250350Z AUTO 18002KT 9999NDV NCD 01/00 Q1025=
201104250320 METAR ESMX 250320Z AUTO 15001KT 9999NDV NCD 02/01 Q1025=
201104250250 METAR ESMX 250250Z AUTO 00000KT 9999NDV NCD 01/00 Q1025=
201104250220 METAR ESMX 250220Z AUTO 18002KT 9999NDV NCD 02/01 Q1025=
201104250150 METAR ESMX 250150Z AUTO 16001KT 9999NDV NCD 03/02 Q1025=
201104250120 METAR ESMX 250120Z AUTO 00000KT 9999NDV NCD 03/02 Q1025=
201104250050 METAR ESMX 250050Z AUTO 12001KT 9999NDV NCD 03/02 Q1025=
201104250020 METAR ESMX 250020Z AUTO 12001KT 9999NDV NCD 04/03 Q1025=
201104242350 METAR ESMX 242350Z AUTO 21001KT 9999NDV NCD 04/02 Q1025=
201104242320 METAR ESMX 242320Z AUTO 15001KT 9999NDV NCD 05/03 Q1025=
201104242250 METAR ESMX 242250Z AUTO VRB01KT 9999NDV NCD 06/02 Q1025=
201104242220 METAR ESMX 242220Z AUTO 22003KT 9999NDV NCD 08/04 Q1025=
201104242150 METAR ESMX 242150Z AUTO 23002KT 9999NDV NCD 09/04 Q1025=
201104242120 METAR ESMX 242120Z AUTO 19004KT 9999NDV NCD 09/04 Q1025=
201104242050 METAR ESMX 242050Z AUTO 21004KT 9999NDV NCD 10/05 Q1025=
201104242020 METAR ESMX 242020Z AUTO 19006KT 9999NDV NCD 10/05 Q1024=
201104241950 METAR ESMX 241950Z AUTO 17005KT 9999NDV NCD 13/05 Q1024=
201104241920 METAR ESMX 241920Z AUTO 18007KT 9999NDV NCD 13/06 Q1024=
201104241850 METAR ESMX 241850Z AUTO 18007KT 9999NDV NCD 15/06 Q1024=
201104241820 METAR ESMX 241820Z 00000KT CAVOK 15/03 Q1023=
201104241750 METAR ESMX 241750Z VRB01KT CAVOK 18/01 Q1023=
201104241720 METAR ESMX 241720Z VRB02KT CAVOK 20/M00 Q1023=
201104241650 METAR ESMX 241650Z 01003KT 330V070 CAVOK 20/M01 Q1023=
201104241620 METAR ESMX 241620Z 17004KT 130V220 CAVOK 20/M01 Q1023=
201104241550 METAR ESMX 241550Z 23006KT 200V260 CAVOK 21/M01 Q1023=
201104241520 METAR ESMX 241520Z 32003KT 250V010 CAVOK 20/M02 Q1023=
201104241450 METAR ESMX 241450Z 20003KT 110V280 CAVOK 20/M01 Q1023=
201104241420 METAR ESMX 241420Z 16005KT 100V200 CAVOK 20/M01 Q1023=
201104241350 METAR ESMX 241350Z 01003KT 290V070 CAVOK 21/00 Q1023=
201104241320 METAR ESMX 241320Z 25004KT 180V310 CAVOK 20/01 Q1023=
201104241250 METAR ESMX 241250Z 13006KT 070V200 CAVOK 20/00 Q1024=
201104241220 METAR ESMX 241220Z AUTO VRB04KT 9999NDV NCD 20/M00 Q1024=
201104241150 METAR ESMX 241150Z AUTO VRB03KT 9999NDV NCD 19/M00 Q1024=
201104241120 METAR ESMX 241120Z AUTO VRB04KT 9999NDV NCD 19/M01 Q1024=
201104241050 METAR ESMX 241050Z AUTO 02005KT 330V070 9999NDV NCD 19/M01 Q1024=
201104241020 METAR ESMX 241020Z AUTO 05004KT 340V120 9999NDV NCD 18/M01 Q1024=
201104240950 METAR ESMX 240950Z AUTO 35005KT 300V030 9999NDV NCD 18/02 Q1024=
201104240920 METAR ESMX 240920Z AUTO 35004KT 290V020 9999NDV NCD 17/01 Q1024=
201104240850 METAR ESMX 240850Z AUTO 01004KT 330V060 9999NDV NCD 16/02 Q1024=
201104240820 METAR ESMX 240820Z AUTO 02003KT 340V080 9999NDV NCD 15/04 Q1025=
201104240750 METAR ESMX 240750Z AUTO 06003KT 020V090 9999NDV NCD 14/04 Q1025=
201104240720 METAR ESMX 240720Z AUTO 02003KT 310V060 9999NDV NCD 12/05 Q1025=
201104240650 METAR ESMX 240650Z AUTO 05003KT 360V130 9999NDV NCD 10/05 Q1025=
201104240620 METAR ESMX 240620Z AUTO 04003KT 020V080 9999NDV NCD 09/06 Q1024=
201104240550 METAR ESMX 240550Z AUTO 04003KT 350V070 9999NDV NCD 07/05 Q1024=
201104240520 METAR ESMX 240520Z AUTO VRB02KT 9999NDV NCD 06/05 Q1024=
201104240450 METAR ESMX 240450Z AUTO 02002KT 6000NDV NCD 03/03 Q1024=
201104240420 METAR ESMX 240420Z AUTO 04002KT 2300NDV BCFG NCD 01/01 Q1024=
201104240350 METAR ESMX 240350Z AUTO 05001KT 3300NDV BCFG NCD 01/00 Q1024=
201104240320 METAR ESMX 240320Z AUTO 04002KT 1000NDV R01/P2000N R19/P2000N BCFG NCD 01/01 Q1024=
201104240250 METAR ESMX 240250Z AUTO 01002KT 0800NDV R01/P2000N R19/P2000N NCD 01/01 Q1024=
201104240220 METAR ESMX 240220Z AUTO 06001KT 1100NDV R01/P2000N R19/P2000N BR NCD 02/01 Q1024=
201104240150 METAR ESMX 240150Z AUTO 06001KT 7000NDV BR NCD 02/01 Q1024=
201104240120 METAR ESMX 240120Z AUTO 03001KT 9999NDV BR NCD 02/01 Q1024=
201104240050 METAR ESMX 240050Z AUTO 04002KT 5000NDV BR NCD 02/01 Q1024=
201104240020 METAR ESMX 240020Z AUTO 03001KT 9999NDV NCD 03/02 Q1024=
201104232350 METAR ESMX 232350Z AUTO 00000KT 9999NDV NCD 03/02 Q1024=
201104232320 METAR ESMX 232320Z AUTO 02001KT 9999NDV NCD 04/03 Q1024=
201104232250 METAR ESMX 232250Z AUTO 34001KT 9999NDV NCD 04/02 Q1024=
201104232220 METAR ESMX 232220Z AUTO 08001KT 9999NDV NCD 06/03 Q1024=
201104232150 METAR ESMX 232150Z AUTO VRB02KT 9999NDV NCD 08/04 Q1024=
201104232120 METAR ESMX 232120Z AUTO 11003KT 060V160 9999NDV NCD 09/04 Q1024=
201104232050 METAR ESMX 232050Z AUTO 11004KT 060V170 9999NDV NCD 09/04 Q1024=
201104232020 METAR ESMX 232020Z AUTO 12004KT 060V160 9999NDV NCD 10/04 Q1024=
201104231950 METAR ESMX 231950Z AUTO VRB02KT 9999NDV NCD 11/04 Q1023=
201104231920 METAR ESMX 231920Z AUTO 10003KT 050V160 9999NDV NCD 12/04 Q1023=
201104231850 METAR ESMX 231850Z AUTO 10004KT 050V160 9999NDV NCD 13/04 Q1023=
201104231820 METAR ESMX 231820Z AUTO 11004KT 060V160 9999NDV NCD 14/04 Q1023=
201104231750 METAR ESMX 231750Z AUTO 11005KT 070V160 9999NDV NCD 15/03 Q1022=
201104231720 METAR ESMX 231720Z AUTO 09006KT 050V140 9999NDV NCD 16/03 Q1022=
201104231650 METAR ESMX 231650Z AUTO 08005KT 040V140 9999NDV NCD 17/03 Q1022=
201104231620 METAR ESMX 231620Z AUTO 08007KT 040V130 9999NDV NCD 18/02 Q1022=
201104231550 METAR ESMX 231550Z AUTO 07005KT 030V140 9999NDV NCD 18/01 Q1022=
201104231520 METAR ESMX 231520Z AUTO 06007KT 020V100 9999NDV NCD 19/01 Q1022=
201104231450 METAR ESMX 231450Z AUTO 06006KT 020V120 9999NDV NCD 18/01 Q1022=
201104231420 METAR ESMX 231420Z AUTO 07006KT 020V140 9999NDV NCD 19/01 Q1022=
201104231350 METAR ESMX 231350Z AUTO 09006KT 020V160 9999NDV NCD 19/01 Q1022=
201104231320 METAR ESMX 231320Z AUTO 07007KT 020V120 9999NDV NCD 19/02 Q1022=
201104231250 METAR ESMX 231250Z AUTO 09006KT 050V160 9999NDV NCD 19/02 Q1022=
201104231220 METAR ESMX 231220Z AUTO 06008KT 020V110 9999NDV NCD 18/02 Q1022=
201104231150 METAR ESMX 231150Z AUTO VRB07KT 9999NDV NCD 18/02 Q1023=
201104231120 METAR ESMX 231120Z AUTO 04009KT 360V080 9999NDV NCD 17/03 Q1023=
201104231050 METAR ESMX 231050Z AUTO 04010KT 360V070 9999NDV NCD 17/03 Q1023=
201104231020 METAR ESMX 231020Z AUTO 06007KT 020V080 9999NDV NCD 17/03 Q1023=
201104230950 METAR ESMX 230950Z AUTO 04007KT 010V100 9999NDV NCD 17/04 Q1023=
201104230920 METAR ESMX 230920Z AUTO 04008KT 360V080 9999NDV NCD 16/04 Q1023=
201104230850 METAR ESMX 230850Z AUTO 04008KT 9999NDV NCD 15/04 Q1023=
201104230820 METAR ESMX 230820Z AUTO 04008KT 010V070 9999NDV NCD 14/04 Q1023=
201104230750 METAR ESMX 230750Z AUTO 05007KT 020V110 9999NDV NCD 13/05 Q1023=
201104230720 METAR ESMX 230720Z AUTO 05007KT 020V080 9999NDV NCD 11/05 Q1023=
201104230650 METAR ESMX 230650Z AUTO 06007KT 030V090 9999NDV NCD 10/05 Q1023=
201104230620 METAR ESMX 230620Z AUTO 02006KT 9999NDV NCD 09/05 Q1023=
201104230550 METAR ESMX 230550Z AUTO 03007KT 360V060 9999NDV NCD 08/04 Q1023=
201104230520 METAR ESMX 230520Z AUTO 03008KT 9999NDV NCD 07/04 Q1023=
201104230450 METAR ESMX 230450Z AUTO 04008KT 9999NDV NCD 06/03 Q1023=
201104230420 METAR ESMX 230420Z AUTO 03007KT 350V060 9999NDV NCD 06/03 Q1023=
201104230350 METAR ESMX 230350Z AUTO 03006KT 9999NDV NCD 06/03 Q1023=
201104230320 METAR ESMX 230320Z AUTO 03005KT 9999NDV NCD 06/04 Q1023=
201104230250 METAR ESMX 230250Z AUTO 04004KT 9999NDV NCD 06/04 Q1023=
201104230220 METAR ESMX 230220Z AUTO 03005KT 9999NDV NCD 06/04 Q1023=
201104230150 METAR ESMX 230150Z AUTO 03004KT 9999NDV NCD 07/04 Q1023=
201104230120 METAR ESMX 230120Z AUTO 02004KT 9999NDV NCD 07/04 Q1023=
201104230050 METAR ESMX 230050Z AUTO 05004KT 020V090 9999NDV NCD 08/04 Q1023=
201104230020 METAR ESMX 230020Z AUTO 05005KT 020V090 9999NDV FEW072/// 09/04 Q1023=
201104222350 METAR ESMX 222350Z AUTO 07005KT 020V110 9999NDV NCD 09/05 Q1023=
201104222320 METAR ESMX 222320Z AUTO 07006KT 030V110 9999NDV NCD 09/05 Q1023=
201104222250 METAR ESMX 222250Z AUTO 07004KT 030V120 9999NDV FEW079/// 10/04 Q1023=
201104222220 METAR ESMX 222220Z AUTO 07004KT 030V120 9999NDV FEW073/// 10/05 Q1023=
201104222150 METAR ESMX 222150Z AUTO 07004KT 010V110 9999NDV NCD 10/05 Q1022=
201104222120 METAR ESMX 222120Z AUTO 08005KT 050V110 9999NDV NCD 11/05 Q1022=
201104222050 METAR ESMX 222050Z AUTO 07004KT 030V100 9999NDV NCD 11/04 Q1022=
201104222020 METAR ESMX 222020Z AUTO 08003KT 9999NDV NCD 12/04 Q1022=
201104221950 METAR ESMX 221950Z AUTO 16004KT 9999NDV NCD 13/03 Q1021=
201104221920 METAR ESMX 221920Z AUTO 17004KT 9999NDV FEW075/// 15/03 Q1021=
201104221850 METAR ESMX 221850Z AUTO 16004KT 9999NDV BKN070/// 16/03 Q1021=
201104221820 METAR ESMX 221820Z AUTO 15005KT 120V190 9999NDV OVC071/// 17/03 Q1020=
201104221750 METAR ESMX 221750Z AUTO 16006KT 120V190 9999NDV BKN071/// 17/02 Q1020=
201104221720 METAR ESMX 221720Z AUTO 17008KT 9999NDV BKN072/// 18/02 Q1019=
201104221650 METAR ESMX 221650Z AUTO 18009KT 9999NDV BKN073/// 19/02 Q1019=
201104221620 METAR ESMX 221620Z AUTO 16007KT 090V200 9999NDV BKN072/// BKN086/// 20/02 Q1019=
201104221550 METAR ESMX 221550Z AUTO 10003KT 020V150 9999NDV FEW077/// SCT100/// 21/02 Q1019=
201104221520 METAR ESMX 221520Z AUTO VRB04KT 9999NDV NCD 21/02 Q1019=
201104221450 METAR ESMX 221450Z AUTO VRB02KT 9999NDV NCD 20/02 Q1019=
201104221420 METAR ESMX 221420Z AUTO 02004KT 330V070 9999NDV NCD 21/02 Q1019=
201104221350 METAR ESMX 221350Z AUTO VRB02G12KT 9999NDV NCD 21/02 Q1019=
201104221320 METAR ESMX 221320Z AUTO 20004KT 160V330 9999NDV NCD 22/03 Q1019=
201104221250 METAR ESMX 221250Z AUTO 05005KT 340V100 9999NDV NCD 21/03 Q1019=
201104221220 METAR ESMX 221220Z AUTO 36005KT 320V070 9999NDV NCD 21/03 Q1020=
201104221150 METAR ESMX 221150Z 11004G14KT 050V180 CAVOK 21/03 Q1020=
201104221120 METAR ESMX 221120Z VRB03KT CAVOK 20/04 Q1020=
201104221050 METAR ESMX 221050Z VRB03KT CAVOK 21/04 Q1020=
201104221020 METAR ESMX 221020Z VRB02KT CAVOK 20/04 Q1020=
201104220950 METAR ESMX 220950Z 15003KT 100V230 CAVOK 19/04 Q1020=
201104220920 METAR ESMX 220920Z VRB03KT CAVOK 18/04 Q1020=
201104220850 METAR ESMX 220850Z 15003KT CAVOK 17/04 Q1020=
201104220820 METAR ESMX 220820Z 01003KT CAVOK 16/06 Q1020=
201104220750 METAR ESMX 220750Z VRB02KT CAVOK 15/05 Q1020=
201104220720 METAR ESMX 220720Z VRB01KT CAVOK 13/05 Q1020=
201104220650 METAR ESMX 220650Z VRB01KT CAVOK 11/05 Q1020=
201104220620 METAR ESMX 220620Z VRB01KT CAVOK 10/04 Q1020=
201104220550 METAR ESMX 220550Z VRB01KT CAVOK 07/05 Q1020=
201104220520 METAR ESMX 220520Z VRB01KT CAVOK 04/03 Q1020=
201104220450 METAR ESMX 220450Z 00000KT CAVOK 02/01 Q1019=
201104220420 METAR ESMX 220420Z 19001KT CAVOK 02/01 Q1019=
201104220350 METAR ESMX 220350Z 00000KT CAVOK 02/01 Q1019=
201104220320 METAR ESMX 220320Z AUTO VRB01KT 9999NDV NCD 02/01 Q1019=
201104220250 METAR ESMX 220250Z AUTO VRB01KT 9999NDV NCD 02/01 Q1019=
201104220220 METAR ESMX 220220Z AUTO 17001KT 9999NDV NCD 03/01 Q1019=
201104220150 METAR ESMX 220150Z AUTO 17001KT 9999NDV NCD 03/01 Q1019=
201104220120 METAR ESMX 220120Z AUTO 18001KT 9999NDV NCD 03/02 Q1019=
201104220050 METAR ESMX 220050Z AUTO 16002KT 9999NDV NCD 04/02 Q1019=
201104220020 METAR ESMX 220020Z AUTO 15002KT 9999NDV NCD 05/03 Q1019=
201104212350 METAR ESMX 212350Z AUTO 17002KT 9999NDV NCD 04/03 Q1019=
201104212320 METAR ESMX 212320Z AUTO 17001KT 9999NDV NCD 05/03 Q1019=
201104212250 METAR ESMX 212250Z AUTO 16001KT 9999NDV NCD 05/03 Q1019=
201104212220 METAR ESMX 212220Z AUTO 00000KT 9999NDV NCD 06/03 Q1019=
201104212150 METAR ESMX 212150Z AUTO 15002KT 9999NDV NCD 07/03 Q1019=
201104212120 METAR ESMX 212120Z AUTO 17003KT 9999NDV NCD 08/03 Q1019=
201104212050 METAR ESMX 212050Z AUTO 18004KT 9999NDV NCD 09/03 Q1019=
201104212020 METAR ESMX 212020Z AUTO 18005KT 9999NDV NCD 10/03 Q1019=
201104211950 METAR ESMX 211950Z AUTO 18004KT 9999NDV NCD 12/03 Q1019=
201104211920 METAR ESMX 211920Z AUTO 18005KT 9999NDV NCD 14/03 Q1019=
201104211850 METAR ESMX 211850Z AUTO 17005KT 9999NDV FEW082/// SCT097/// 14/03 Q1019=
201104211820 METAR ESMX 211820Z AUTO 17005KT 9999NDV BKN099/// 15/04 Q1018=
201104211750 METAR ESMX 211750Z 00000KT CAVOK 15/06 Q1018=
201104211720 METAR ESMX 211720Z VRB01KT CAVOK 16/04 Q1018=
201104211650 METAR ESMX 211650Z 36001KT CAVOK 19/03 Q1018=
201104211620 METAR ESMX 211620Z VRB02KT CAVOK 19/03 Q1018=
201104211550 METAR ESMX 211550Z 00000KT CAVOK 18/05 Q1018=
201104211520 METAR ESMX 211520Z 33001KT CAVOK 18/02 Q1018=
201104211450 METAR ESMX 211450Z VRB02G31KT CAVOK 18/02 Q1018=
201104211420 METAR ESMX 211420Z 01003KT CAVOK 19/00 Q1018=
201104211350 METAR ESMX 211350Z 35004KT CAVOK 19/01 Q1019=
201104211320 METAR ESMX 211320Z 36005KT 310V020 CAVOK 19/03 Q1019=
201104211250 METAR ESMX 211250Z 01005KT 330V070 CAVOK 20/03 Q1019=
201104211220 METAR ESMX 211220Z 01004KT 280V050 CAVOK 20/03 Q1019=
201104211150 METAR COR ESMX 211150Z 01004KT 330V050 CAVOK 19/03 Q1019=
201104211120 METAR ESMX 211120Z VRB02KT CAVOK 19/04 Q1019=
201104211050 METAR ESMX 211050Z 08003KT 010V170 CAVOK 19/06 Q1019=
201104211020 METAR ESMX 211020Z VRB02KT CAVOK 18/06 Q1019=
201104210950 METAR ESMX 210950Z 06003KT 020V120 CAVOK 17/06 Q1020=
201104210920 METAR ESMX 210920Z VRB03KT CAVOK 17/06 Q1020=
201104210850 METAR ESMX 210850Z VRB02KT CAVOK 16/07 Q1020=
201104210820 METAR ESMX 210820Z VRB02KT CAVOK 15/07 Q1020=
201104210750 METAR ESMX 210750Z VRB02KT CAVOK 13/06 Q1020=
201104210720 METAR ESMX 210720Z VRB01KT CAVOK 11/05 Q1020=
201104210650 METAR ESMX 210650Z 00000KT CAVOK 10/05 Q1020=
201104210620 METAR ESMX 210620Z VRB01KT CAVOK 08/05 Q1020=
201104210550 METAR ESMX 210550Z 00000KT CAVOK 06/04 Q1020=
201104210520 METAR ESMX 210520Z 00000KT CAVOK 03/02 Q1019=
201104210450 METAR ESMX 210450Z VRB01KT CAVOK 02/01 Q1019=
201104210420 METAR ESMX 210420Z 00000KT CAVOK 01/00 Q1019=
201104210350 METAR ESMX 210350Z VRB01KT CAVOK 01/00 Q1019=
201104210320 METAR ESMX 210320Z 20001KT CAVOK 01/00 Q1019=
201104210250 METAR ESMX 210250Z AUTO 00000KT 9999NDV NCD 02/01 Q1019=
201104210220 METAR ESMX 210220Z AUTO 17001KT 9999NDV NCD 02/01 Q1019=
201104210150 METAR ESMX 210150Z AUTO 00000KT 9999NDV NCD 02/00 Q1019=
201104210120 METAR ESMX 210120Z AUTO 18001KT 9999NDV NCD 02/01 Q1019=
201104210050 METAR ESMX 210050Z AUTO 17001KT 9999NDV NCD 03/02 Q1019=
201104210020 METAR ESMX 210020Z AUTO 16001KT 9999NDV NCD 03/02 Q1019=
201104202350 METAR ESMX 202350Z 00000KT CAVOK 04/02 Q1019=
201104202320 METAR ESMX 202320Z 18001KT CAVOK 05/02 Q1019=
201104202250 METAR ESMX 202250Z 19002KT CAVOK 06/03 Q1019=
201104202220 METAR ESMX 202220Z 16002KT CAVOK 07/03 Q1019=
201104202150 METAR ESMX 202150Z 17003KT CAVOK 07/03 Q1019=
201104202120 METAR ESMX 202120Z 18003KT CAVOK 08/03 Q1019=
201104202050 METAR ESMX 202050Z 18004KT CAVOK 09/04 Q1019=
201104202020 METAR ESMX 202020Z 18006KT CAVOK 10/04 Q1018=
201104201950 METAR ESMX 201950Z 17005KT CAVOK 12/04 Q1018=
201104201920 METAR ESMX 201920Z 17005KT CAVOK 13/04 Q1018=
201104201850 METAR ESMX 201850Z 17003KT CAVOK 13/04 Q1018=
201104201820 METAR ESMX 201820Z 15006KT CAVOK 14/03 Q1018=
201104201750 METAR ESMX 201750Z 16005KT CAVOK 14/03 Q1018=
201104201720 METAR ESMX 201720Z 16006KT CAVOK 15/03 Q1018=
201104201650 METAR ESMX 201650Z 15005KT CAVOK 15/03 Q1018=
201104201620 METAR ESMX 201620Z 18006KT CAVOK 16/03 Q1018=
201104201550 METAR ESMX 201550Z 18007KT 140V220 CAVOK 17/03 Q1018=
201104201520 METAR ESMX 201520Z 17008KT 120V210 CAVOK 17/02 Q1018=
201104201450 METAR ESMX 201450Z 17006KT 110V220 CAVOK 17/02 Q1018=
201104201420 METAR ESMX 201420Z 16007KT 110V190 CAVOK 17/02 Q1018=
201104201350 METAR ESMX 201350Z 15006KT 120V200 CAVOK 17/01 Q1019=
201104201320 METAR ESMX 201320Z 15007KT 110V180 CAVOK 16/01 Q1019=
201104201250 METAR ESMX 201250Z 17006KT 130V210 CAVOK 16/01 Q1019=
201104201220 METAR ESMX 201220Z 16005KT 120V200 CAVOK 16/01 Q1019=
201104201150 METAR ESMX 201150Z 18008KT 120V210 CAVOK 16/01 Q1019=
201104201120 METAR ESMX 201120Z 17005KT 110V220 CAVOK 16/M00 Q1019=
201104201050 METAR ESMX 201050Z 15005KT 100V200 CAVOK 15/M01 Q1019=
201104201020 METAR ESMX 201020Z 14005KT 100V190 CAVOK 13/M01 Q1020=
201104200950 METAR ESMX 200950Z 14005KT 050V170 CAVOK 13/M02 Q1020=
201104200920 METAR ESMX 200920Z 14004KT 080V200 CAVOK 12/M03 Q1020=
201104200850 METAR ESMX 200850Z 15006KT 090V210 CAVOK 11/M03 Q1020=
201104200820 METAR ESMX 200820Z 14005KT 080V190 CAVOK 10/M03 Q1020=
201104200750 METAR ESMX 200750Z 16007KT 110V210 CAVOK 08/M03 Q1020=
201104200720 METAR ESMX 200720Z 16007KT 130V200 CAVOK 08/M03 Q1020=
201104200650 METAR ESMX 200650Z 17007KT 140V210 CAVOK 06/M03 Q1020=
201104200620 METAR ESMX 200620Z 16006KT 130V190 CAVOK 06/M03 Q1021=
201104200550 METAR ESMX 200550Z 16005KT 110V220 CAVOK 06/M04 Q1021=
201104200520 METAR ESMX 200520Z 15006KT 110V190 CAVOK 05/M04 Q1020=
201104200450 METAR ESMX 200450Z 14005KT 090V190 CAVOK 05/M04 Q1020=
201104200420 METAR ESMX 200420Z 14004KT 110V200 CAVOK 05/M04 Q1021=
201104200350 METAR ESMX 200350Z 15005KT 100V190 CAVOK 05/M04 Q1021=
201104200320 METAR ESMX 200320Z AUTO 14004KT 110V190 9999NDV OVC050/// 05/M04 Q1021=
201104200250 METAR ESMX 200250Z AUTO 15004KT 9999NDV OVC049/// 04/M03 Q1021=
201104200220 METAR ESMX 200220Z AUTO 14003KT 100V170 9999NDV BKN052/// 04/M03 Q1021=
201104200150 METAR ESMX 200150Z AUTO 15003KT 110V180 9999NDV FEW041/// BKN051/// 03/M03 Q1021=
201104200120 METAR ESMX 200120Z AUTO 15003KT 9999NDV NCD 03/M03 Q1021=
201104200050 METAR ESMX 200050Z AUTO VRB02KT 9999NDV NCD 03/M03 Q1022=
201104200020 METAR ESMX 200020Z AUTO 15003KT 110V170 9999NDV FEW110/// 04/M03 Q1022=
201104192350 METAR ESMX 192350Z 16003KT CAVOK 05/M04 Q1022=
201104192320 METAR ESMX 192320Z 19004KT CAVOK 04/M04 Q1022=
201104192250 METAR ESMX 192250Z 17005KT 130V200 CAVOK 06/M04 Q1022=
201104192220 METAR ESMX 192220Z 17006KT 130V200 CAVOK 06/M04 Q1022=
201104192150 METAR ESMX 192150Z 16006KT CAVOK 07/M04 Q1022=
201104192120 METAR ESMX 192120Z 18006KT 140V200 CAVOK 07/M03 Q1022=
201104192050 METAR ESMX 192050Z 16006KT 140V200 CAVOK 08/M03 Q1021=
201104192020 METAR ESMX 192020Z 16005KT 120V190 CAVOK 08/M01 Q1022=
201104191950 METAR ESMX 191950Z 17005KT CAVOK 09/M00 Q1022=
201104191850 METAR ESMX 191850Z 17006KT 140V200 CAVOK 11/00 Q1022=
201104191820 METAR ESMX 191820Z 15006KT CAVOK 12/01 Q1021=
201104191750 METAR ESMX 191750Z 16006KT 120V190 CAVOK 13/01 Q1021=
201104191720 METAR ESMX 191720Z 17008KT 140V200 CAVOK 14/01 Q1021=
201104191650 METAR ESMX 191650Z 18009KT 140V200 CAVOK 14/M00 Q1022=
201104191620 METAR ESMX 191620Z 17008KT 130V200 CAVOK 15/00 Q1022=
201104191550 METAR ESMX 191550Z 17008KT 150V220 CAVOK 16/M00 Q1022=
201104191520 METAR ESMX 191520Z 18009KT 140V210 CAVOK 16/00 Q1022=
201104191450 METAR ESMX 191450Z 19010KT 120V200 CAVOK 16/00 Q1022=
201104191420 METAR ESMX 191420Z 18009KT 140V220 CAVOK 16/00 Q1022=
201104191350 METAR ESMX 191350Z 18008KT 100V250 CAVOK 16/M00 Q1022=
201104191320 METAR ESMX 191320Z 16007KT 120V210 CAVOK 16/00 Q1023=
201104191250 METAR ESMX 191250Z 19010KT 150V220 CAVOK 16/02 Q1023=
201104191220 METAR ESMX 191220Z 17010KT 130V210 CAVOK 16/00 Q1023=
201104191150 METAR ESMX 191150Z 15008KT 110V220 CAVOK 16/00 Q1023=
201104191120 METAR ESMX 191120Z 18009KT 150V250 CAVOK 16/01 Q1023=
201104191050 METAR ESMX 191050Z 16009KT 100V200 CAVOK 15/00 Q1024=
201104191020 METAR ESMX 191020Z 18009KT 140V210 CAVOK 15/01 Q1024=
201104190950 METAR ESMX 190950Z 15008KT 120V200 CAVOK 15/01 Q1024=
201104190920 METAR ESMX 190920Z 16008KT 110V210 CAVOK 13/01 Q1024=
201104190850 METAR ESMX 190850Z 17007KT 120V230 CAVOK 13/01 Q1024=
201104190820 METAR ESMX 190820Z 15006KT 090V210 CAVOK 12/01 Q1024=
201104190750 METAR ESMX 190750Z 16005KT 100V210 CAVOK 11/01 Q1024=
201104190720 METAR ESMX 190720Z 16006KT 130V190 CAVOK 10/00 Q1024=
201104190650 METAR ESMX 190650Z 16007KT 120V200 CAVOK 08/M00 Q1024=
201104190620 METAR ESMX 190620Z 16006KT 120V210 CAVOK 08/M00 Q1024=
201104190550 METAR ESMX 190550Z 16006KT 100V200 CAVOK 07/M00 Q1024=
201104190520 METAR ESMX 190520Z 15006KT 100V200 CAVOK 06/01 Q1024=
201104190450 METAR ESMX 190450Z 15005KT 120V180 CAVOK 05/03 Q1024=
201104190420 METAR ESMX 190420Z 15004KT 100V200 CAVOK 04/03 Q1023=
201104190350 METAR ESMX 190350Z VRB02KT CAVOK 02/01 Q1023=
201104190320 METAR ESMX 190320Z AUTO VRB02KT 9999NDV NCD 03/03 Q1023=
201104190250 METAR ESMX 190250Z AUTO VRB02KT 9999NDV NCD 03/02 Q1023=
201104190220 METAR ESMX 190220Z AUTO 11002KT 9999NDV NCD 03/03 Q1023=
201104190150 METAR ESMX 190150Z AUTO 00000KT 2300NDV NCD 03/02 Q1023=
201104190120 METAR ESMX 190120Z AUTO 00000KT 9999NDV NCD 03/02 Q1023=
201104190050 METAR ESMX 190050Z AUTO VRB01KT 9999NDV NCD 04/03 Q1023=
201104190020 METAR ESMX 190020Z AUTO 12002KT 9999NDV NCD 04/04 Q1023=
201104182350 METAR ESMX 182350Z AUTO 12002KT 9999NDV NCD 05/04 Q1023=
201104182320 METAR ESMX 182320Z 16001KT CAVOK 04/03 Q1023=
201104182250 METAR ESMX 182250Z 17002KT CAVOK 05/04 Q1023=
201104182220 METAR ESMX 182220Z 15002KT CAVOK 06/04 Q1022=
201104182150 METAR ESMX 182150Z 00000KT CAVOK 07/05 Q1022=
201104182120 METAR ESMX 182120Z 18003KT CAVOK 09/05 Q1022=
201104182050 METAR ESMX 182050Z 19004KT CAVOK 09/05 Q1022=
201104182020 METAR ESMX 182020Z 19005KT CAVOK 10/06 Q1022=
201104181950 METAR ESMX 181950Z 19005KT CAVOK 10/06 Q1021=
201104181920 METAR ESMX 181920Z 18005KT CAVOK 13/06 Q1021=
201104181850 METAR ESMX 181850Z 16007KT 120V200 CAVOK 14/06 Q1021=
201104181820 METAR ESMX 181820Z 16007KT 130V190 CAVOK 16/06 Q1021=
201104181750 METAR ESMX 181750Z 14005KT 090V190 CAVOK 17/06 Q1020=
201104181720 METAR ESMX 181720Z 19004KT CAVOK 18/06 Q1020=
201104181650 METAR ESMX 181650Z 20005KT 150V240 CAVOK 18/06 Q1020=
201104181620 METAR ESMX 181620Z 21006KT 170V240 CAVOK 19/07 Q1020=
201104181550 METAR ESMX 181550Z 20006KT 170V240 CAVOK 20/07 Q1020=
201104181520 METAR ESMX 181520Z VRB03KT CAVOK 20/06 Q1020=
201104181450 METAR ESMX 181450Z 18003KT 120V240 CAVOK 19/06 Q1020=
201104181420 METAR ESMX 181420Z VRB02KT CAVOK 19/06 Q1020=
201104181350 METAR ESMX 181350Z 11003KT 060V180 CAVOK 19/05 Q1021=
201104181320 METAR ESMX 181320Z 13004KT 060V200 CAVOK 20/06 Q1021=
201104181250 METAR ESMX 181250Z VRB03KT CAVOK 19/05 Q1021=
201104181220 METAR ESMX 181220Z VRB02KT CAVOK 18/05 Q1021=
201104181150 METAR ESMX 181150Z 35004KT 290V070 CAVOK 18/05 Q1021=
201104181050 METAR ESMX 181050Z 28003KT 210V350 CAVOK 16/06 Q1021=
201104181020 METAR ESMX 181020Z VRB02KT CAVOK 15/06 Q1021=
201104180950 METAR ESMX 180950Z 25004KT 200V330 CAVOK 14/06 Q1021=
201104180920 METAR ESMX 180920Z VRB02KT CAVOK 13/05 Q1021=
201104180750 METAR ESMX 180750Z 28003KT 230V340 CAVOK 09/05 Q1021=
201104180720 METAR ESMX 180720Z 27005KT 210V300 9999 FEW006 07/05 Q1021=
201104180650 METAR ESMX 180650Z 30004KT 9999 BKN006 06/05 Q1021=
201104180620 METAR ESMX 180620Z 30004KT 9000 BR OVC004 06/05 Q1021=
201104180550 METAR ESMX 180550Z 29004KT 260V330 5000 BR OVC002 05/04 Q1021=
201104180520 METAR ESMX 180520Z 28006KT 250V320 2700 BR SCT001 OVC002 05/04 Q1021=
201104180450 METAR ESMX 180450Z 28005KT 250V310 4000 BR OVC002 05/04 Q1020=
201104180420 METAR ESMX 180420Z 27006KT 230V300 6000 BR OVC003 05/04 Q1020=
201104180350 METAR ESMX 180350Z 27008KT 8000 BR OVC003 05/04 Q1020=
201104180320 METAR ESMX 180320Z AUTO 28006KT 9999NDV SCT005/// 04/03 Q1020=
201104180250 METAR ESMX 180250Z AUTO 27006KT 230V310 9999NDV FEW004/// 05/03 Q1020=
201104180220 METAR ESMX 180220Z AUTO 26006KT 9999NDV NCD 05/04 Q1020=
201104180150 METAR ESMX 180150Z AUTO 27006KT 9999NDV NCD 05/04 Q1020=
201104180120 METAR ESMX 180120Z AUTO 27007KT 240V300 9999NDV NCD 05/04 Q1020=
201104180050 METAR ESMX 180050Z AUTO 27008KT 9999NDV NCD 05/04 Q1020=
201104180020 METAR ESMX 180020Z AUTO 26007KT 9999NDV NCD 06/04 Q1020=
201104172350 METAR ESMX 172350Z AUTO 26007KT 9999NDV NCD 06/04 Q1020=
201104172320 METAR ESMX 172320Z 27008KT CAVOK 06/04 Q1020=
201104172250 METAR ESMX 172250Z 26006KT 9999 NSC 06/04 Q1020=
201104172220 METAR ESMX 172220Z 26006KT CAVOK 06/04 Q1020=
201104172150 METAR ESMX 172150Z 26005KT CAVOK 06/04 Q1020=
201104172120 METAR ESMX 172120Z 27004KT CAVOK 07/04 Q1020=
201104172050 METAR ESMX 172050Z 26006KT CAVOK 08/04 Q1020=
201104172020 METAR ESMX 172020Z 27005KT CAVOK 08/04 Q1020=
201104171950 METAR ESMX 171950Z 26005KT CAVOK 08/04 Q1020=
201104171920 METAR ESMX 171920Z 25005KT 210V280 CAVOK 08/04 Q1020=
201104171850 METAR ESMX 171850Z 24005KT CAVOK 09/04 Q1020=
201104171820 METAR ESMX 171820Z 25005KT CAVOK 10/04 Q1019=
201104171750 METAR ESMX 171750Z 26006KT 220V290 CAVOK 11/04 Q1019=
201104171720 METAR ESMX 171720Z 26008KT 230V300 CAVOK 12/04 Q1019=
201104171650 METAR ESMX 171650Z 28010KT 250V320 CAVOK 12/04 Q1019=
201104171620 METAR ESMX 171620Z 27010KT 240V300 CAVOK 13/04 Q1019=
201104171550 METAR ESMX 171550Z 27010KT CAVOK 13/04 Q1019=
201104171520 METAR ESMX 171520Z 29010KT CAVOK 13/04 Q1019=
201104171450 METAR ESMX 171450Z 27010KT 230V300 CAVOK 13/04 Q1019=
201104171420 METAR ESMX 171420Z AUTO 26010KT 220V290 9999NDV NCD 13/04 Q1019=
201104171350 METAR ESMX 171350Z 26010KT 230V300 CAVOK 13/05 Q1019=
201104171320 METAR ESMX 171320Z 28011KT 250V320 CAVOK 13/04 Q1019=
201104171250 METAR ESMX 171250Z 25010KT 230V290 CAVOK 14/05 Q1019=
201104171220 METAR ESMX 171220Z 27011KT 240V310 CAVOK 13/05 Q1019=
201104171150 METAR ESMX 171150Z 25010KT 210V280 9999 FEW035 13/05 Q1019=
201104171120 METAR ESMX 171120Z 25010KT 220V280 9999 FEW030 13/05 Q1019=
201104171050 METAR ESMX 171050Z 22011KT 200V280 9999 FEW025 11/05 Q1019=
201104171020 METAR ESMX 171020Z 25009KT 9999 SCT022 11/05 Q1020=
201104170950 METAR ESMX 170950Z 27009KT 210V300 9999 BKN016 10/05 Q1020=
201104170920 METAR ESMX 170920Z 25009KT 9999 BKN012 09/05 Q1020=
201104170850 METAR ESMX 170850Z 26008KT 230V290 9999 OVC010 08/05 Q1020=
201104170820 METAR ESMX 170820Z AUTO 26008KT 210V290 9000NDV BR OVC010/// 08/05 Q1019=
201104170750 METAR ESMX 170750Z AUTO 27009KT 250V320 8000NDV BR OVC009/// 08/05 Q1019=
201104170720 METAR ESMX 170720Z AUTO 26009KT 7000NDV BR OVC008/// 08/05 Q1019=
201104170650 METAR ESMX 170650Z AUTO 25008KT 210V280 7000NDV BR OVC008/// 07/05 Q1019=
201104170620 METAR ESMX 170620Z AUTO 27009KT 240V300 6000NDV BR OVC008/// 07/05 Q1019=
201104170550 METAR ESMX 170550Z AUTO 28009KT 250V320 6000NDV BR OVC007/// 07/05 Q1018=
201104170520 METAR ESMX 170520Z AUTO 26008KT 220V290 6000NDV BR BKN008/// BKN011/// 07/05 Q1018=
201104170450 METAR ESMX 170450Z AUTO 26008KT 220V290 6000NDV BR OVC008/// 07/05 Q1018=
201104170420 METAR ESMX 170420Z AUTO 26006KT 6000NDV BR OVC009/// 07/05 Q1017=
201104170350 METAR ESMX 170350Z AUTO 27007KT 240V300 6000NDV BR OVC010/// 07/05 Q1017=
201104170320 METAR ESMX 170320Z AUTO 26007KT 230V300 6000NDV BR OVC009/// 07/05 Q1017=
201104170250 METAR ESMX 170250Z AUTO 27010KT 230V290 6000NDV BR OVC010/// 07/05 Q1017=
201104170220 METAR ESMX 170220Z AUTO 25007KT 230V290 5000NDV BR OVC011/// 08/06 Q1017=
201104170150 METAR ESMX 170150Z AUTO 27009KT 230V300 6000NDV BR BKN011/// 08/05 Q1017=
201104170120 METAR ESMX 170120Z AUTO 27009KT 240V320 6000NDV BR OVC012/// 08/05 Q1017=
201104170050 METAR ESMX 170050Z AUTO 26005KT 230V290 6000NDV BR OVC013/// 08/06 Q1017=
201104170020 METAR ESMX 170020Z AUTO 27008KT 240V300 6000NDV BR BKN012/// 08/06 Q1017=
201104162350 METAR ESMX 162350Z AUTO 26006KT 230V300 4900NDV BR FEW011/// SCT014/// OVC016/// 09/06 Q1017=
201104162320 METAR ESMX 162320Z AUTO 26006KT 220V290 4800NDV BR FEW010/// OVC018/// 09/07 Q1017=
201104162250 METAR ESMX 162250Z AUTO 26006KT 4800NDV BR OVC021/// 09/06 Q1017=
201104162220 METAR ESMX 162220Z AUTO 26007KT 230V300 4400NDV BR FEW009/// BKN025/// 08/07 Q1017=
201104162150 METAR ESMX 162150Z AUTO 26007KT 230V300 4200NDV BR BKN009/// 09/07 Q1017=
201104162120 METAR ESMX 162120Z AUTO 25007KT 220V290 4500NDV BR OVC009/// 09/07 Q1017=
201104162050 METAR ESMX 162050Z AUTO 24006KT 200V290 4600NDV BR OVC009/// 09/07 Q1017=
201104162020 METAR ESMX 162020Z AUTO 24006KT 200V260 4200NDV BR FEW008/// BKN010/// 09/07 Q1017=
201104161950 METAR ESMX 161950Z AUTO 25007KT 210V280 4400NDV BR FEW009/// BKN011/// OVC016/// 09/07 Q1017=
201104161920 METAR ESMX 161920Z AUTO 26008KT 4100NDV BR BKN008/// OVC013/// 09/07 Q1017=
201104161850 METAR ESMX 161850Z AUTO 26008KT 4200NDV BR OVC008/// 08/07 Q1017=
201104161820 METAR ESMX 161820Z AUTO 26007KT 4400NDV BR OVC008/// 08/06 Q1017=
201104161750 METAR ESMX 161750Z AUTO 25006KT 220V290 4500NDV BR BKN007/// OVC010/// 08/06 Q1017=
201104161720 METAR ESMX 161720Z AUTO 25008KT 220V280 4400NDV BR OVC005/// 08/06 Q1017=
201104161650 METAR ESMX 161650Z AUTO 26009KT 4700NDV BR OVC005/// 08/06 Q1017=
201104161620 METAR ESMX 161620Z AUTO 26010KT 230V290 9000NDV FEW007/// OVC009/// 08/06 Q1017=
201104161550 METAR ESMX 161550Z AUTO 26012KT 230V300 9999NDV OVC012/// 09/06 Q1017=
201104161520 METAR ESMX 161520Z AUTO 25011KT 210V280 9999NDV OVC017/// 10/06 Q1017=
201104161450 METAR ESMX 161450Z AUTO 26012KT 9999NDV OVC020/// 10/06 Q1017=
201104161420 METAR ESMX 161420Z AUTO 26011KT 220V290 9999NDV BKN022/// OVC052/// 11/06 Q1017=
201104161350 METAR ESMX 161350Z AUTO 27011KT 230V300 9999NDV SCT024/// BKN050/// 11/05 Q1017=
201104161320 METAR ESMX 161320Z AUTO 26011KT 210V300 9999NDV SCT024/// BKN059/// 12/05 Q1017=
201104161250 METAR ESMX 161250Z AUTO 26011KT 9999NDV BKN026/// 12/05 Q1017=
201104161220 METAR ESMX 161220Z AUTO 24010KT 200V280 9999NDV SCT025/// BKN060/// 12/05 Q1017=
201104161150 METAR ESMX 161150Z 28009KT 9999 SCT025 BKN053 11/05 Q1017=
201104161120 METAR COR ESMX 161120Z 26009KT 220V300 9999 -RA FEW025 BKN053 11/05 Q1017=
201104161020 METAR ESMX 161020Z 25010KT 220V290 9999 SCT024 BKN070 12/05 Q1017=
201104160950 METAR ESMX 160950Z 26012KT 220V290 9999 FEW024 SCT073 11/05 Q1017=
201104160920 METAR ESMX 160920Z 25011KT 220V290 9999 FEW023 BKN100 11/05 Q1017=
201104160850 METAR ESMX 160850Z 23009KT 9999 FEW020 BKN100 10/05 Q1017=
201104160820 METAR ESMX 160820Z 24009KT 200V280 9999 FEW020 BKN100 09/05 Q1017=
201104160750 METAR ESMX 160750Z 24009KT 210V270 CAVOK 09/04 Q1017=
201104160650 METAR ESMX 160650Z 24008KT 210V280 CAVOK 08/04 Q1017=
201104160620 METAR ESMX 160620Z AUTO 24008KT 9999NDV SCT096/// 08/04 Q1017=
201104160550 METAR ESMX 160550Z AUTO 25006KT 210V290 9999NDV FEW097/// 07/04 Q1017=
201104160520 METAR ESMX 160520Z AUTO 23006KT 190V260 9999NDV FEW098/// 07/04 Q1017=
201104160450 METAR ESMX 160450Z AUTO 24005KT 210V290 9999NDV FEW090/// SCT100/// 07/04 Q1017=
201104160420 METAR ESMX 160420Z AUTO 23005KT 9999NDV FEW089/// SCT100/// 07/04 Q1017=
201104160350 METAR ESMX 160350Z AUTO 25006KT 230V290 9999NDV SCT088/// BKN099/// 07/04 Q1017=
201104160320 METAR ESMX 160320Z AUTO 25006KT 9999NDV BKN086/// 07/04 Q1017=
201104160250 METAR ESMX 160250Z AUTO 23007KT 200V260 9999NDV BKN076/// 07/04 Q1017=
201104160220 METAR ESMX 160220Z AUTO 25007KT 9999NDV OVC070/// 07/04 Q1017=
201104160150 METAR ESMX 160150Z AUTO 25007KT 220V280 9999NDV OVC049/// 07/03 Q1017=
201104160120 METAR ESMX 160120Z AUTO 25007KT 9999NDV OVC055/// 07/03 Q1017=
201104160050 METAR ESMX 160050Z AUTO 24006KT 9999NDV OVC058/// 07/03 Q1017=
201104160020 METAR ESMX 160020Z AUTO 22006KT 9999NDV OVC065/// 07/03 Q1018=
201104152350 METAR ESMX 152350Z AUTO 23006G20KT 9999NDV OVC061/// 07/03 Q1018=
201104152320 METAR ESMX 152320Z AUTO 23005KT 9999NDV FEW035/// SCT044/// BKN049/// 07/02 Q1018 REDZ=
201104152250 METAR ESMX 152250Z AUTO 24005KT 9999NDV OVC037/// 07/02 Q1018=
201104152220 METAR ESMX 152220Z AUTO 24005KT 9999NDV FEW037/// OVC046/// 07/02 Q1018=
201104152150 METAR ESMX 152150Z AUTO 24005KT 210V270 9999NDV FEW039/// OVC044/// 08/02 Q1018=
201104152120 METAR ESMX 152120Z AUTO 24006KT 210V280 9999NDV OVC040/// 08/02 Q1018=
201104152050 METAR ESMX 152050Z AUTO 25007KT 9999NDV FEW039/// OVC047/// 08/02 Q1018=
201104152020 METAR ESMX 152020Z AUTO 23005KT 9999NDV FEW032/// SCT043/// OVC050/// 08/02 Q1019=
201104151950 METAR ESMX 151950Z AUTO 24004KT 9999NDV OVC050/// 08/03 Q1019=
201104151920 METAR ESMX 151920Z AUTO 23005KT 9999NDV OVC050/// 08/02 Q1019=
201104151850 METAR ESMX 151850Z AUTO 24005KT 9999NDV FEW042/// OVC056/// 08/03 Q1019=
201104151820 METAR ESMX 151820Z 26006KT 9999 SCT045 BKN060 09/03 Q1019=
201104151750 METAR ESMX 151750Z 26008KT CAVOK 09/03 Q1018=
201104151720 METAR ESMX 151720Z 26009KT CAVOK 10/03 Q1018=
201104151650 METAR ESMX 151650Z 27010KT CAVOK 10/03 Q1018=
201104151620 METAR ESMX 151620Z 26008KT 230V290 CAVOK 11/03 Q1018=
201104151550 METAR ESMX 151550Z 28007KT 250V330 CAVOK 11/02 Q1018=
201104151520 METAR ESMX 151520Z 29008KT 250V320 CAVOK 11/02 Q1018=
201104151450 METAR ESMX 151450Z 28011KT 250V320 9999 FEW046 BKN052 12/01 Q1018=
201104151420 METAR ESMX 151420Z 27011KT 9999 SCT045 14/01 Q1018=
201104151350 METAR ESMX 151350Z 26008KT 210V300 9999 SCT045 14/01 Q1018=
201104151320 METAR ESMX 151320Z 29009KT 260V340 9999 SCT046 13/01 Q1018=
201104151250 METAR ESMX 151250Z 26011KT 220V290 9999 SCT045 13/01 Q1019=
201104151220 METAR ESMX 151220Z 28010G25KT 9999 SCT043 13/01 Q1019=
201104151150 METAR ESMX 151150Z 28009KT 250V340 9999 SCT044 12/01 Q1019=
201104151120 METAR ESMX 151120Z 26011KT 210V300 9999 FEW042 SCT050 12/01 Q1019=
201104151050 METAR ESMX 151050Z 24007KT 9999 FEW040 12/01 Q1019=
201104151020 METAR ESMX 151020Z 29009KT 250V320 9999 FEW039 12/00 Q1020=
201104150950 METAR ESMX 150950Z 26006KT 210V300 9999 FEW035 SCT046 10/02 Q1020=
201104150920 METAR ESMX 150920Z 28007KT 240V320 9999 FEW031 SCT048 10/02 Q1020=
201104150850 METAR ESMX 150850Z 28006KT 250V310 9999 BKN049 10/01 Q1020=
201104150820 METAR ESMX 150820Z 30006KT 9999 BKN049 09/02 Q1020=
201104150750 METAR ESMX 150750Z 28007KT 250V330 CAVOK 08/01 Q1020=
201104150720 METAR ESMX 150720Z 28005KT CAVOK 08/02 Q1020=
201104150650 METAR ESMX 150650Z VRB02KT CAVOK 06/02 Q1020=
201104150620 METAR ESMX 150620Z 28002KT CAVOK 04/02 Q1020=
201104150550 METAR ESMX 150550Z 27001KT CAVOK 02/02 Q1020=
201104150520 METAR ESMX 150520Z 28002KT CAVOK M01/M01 Q1019=
201104150450 METAR ESMX 150450Z 16001KT CAVOK M02/M02 Q1019=
201104150420 METAR ESMX 150420Z 25001KT 9999 BCFG NSC M02/M02 Q1019=
201104150350 METAR ESMX 150350Z 27001KT 9999 BCFG NSC M03/M03 Q1019=
201104150320 METAR ESMX 150320Z AUTO VRB01KT 0400NDV R01/0900VP2000D R19/P2000N=
201104150250 METAR ESMX 150250Z AUTO 26001KT 7000NDV BR NCD M02/M02 Q1019=
201104150220 METAR ESMX 150220Z AUTO 18001KT 9999NDV NCD M02/M02 Q1018=
201104150150 METAR ESMX 150150Z AUTO 18002KT 9999NDV NCD M02/M02 Q1018=
201104150120 METAR ESMX 150120Z AUTO 19003KT 9999NDV NCD M01/M01 Q1019=
201104150050 METAR ESMX 150050Z AUTO 12001KT 9999NDV BR NCD 00/M00 Q1018=
201104150020 METAR ESMX 150020Z AUTO 25001KT 9999NDV NCD M01/M01 Q1018=
201104142350 METAR ESMX 142350Z 25002KT CAVOK 00/M01 Q1018=
201104142320 METAR ESMX 142320Z 19003KT CAVOK 00/M00 Q1018=
201104142250 METAR ESMX 142250Z 17001KT CAVOK 01/00 Q1018=
201104142220 METAR ESMX 142220Z 28002KT CAVOK 02/01 Q1018=
201104142150 METAR ESMX 142150Z 26002KT CAVOK 02/00 Q1018=
201104142120 METAR ESMX 142120Z 26002KT CAVOK 03/01 Q1018=
201104142050 METAR ESMX 142050Z 28003KT CAVOK 04/02 Q1018=
201104142020 METAR ESMX 142020Z 27002KT CAVOK 04/02 Q1018=
201104141950 METAR ESMX 141950Z VRB01KT CAVOK 04/02 Q1017=
201104141920 METAR ESMX 141920Z 27003KT CAVOK 05/02 Q1017=
201104141850 METAR ESMX 141850Z 00000KT CAVOK 06/03 Q1017=
201104141820 METAR ESMX 141820Z 23001KT CAVOK 07/03 Q1017=
201104141750 METAR ESMX 141750Z 27003KT 9999 FEW018 BKN066 08/03 Q1017=
201104141720 METAR ESMX 141720Z 31006KT 280V340 9999 -DZ FEW044 BKN067 08/02 Q1017=
201104141650 METAR ESMX 141650Z VRB01KT 9999 FEW045 BKN069 BKN091 10/01 Q1016=
201104141620 METAR ESMX 141620Z VRB02KT 9999 FEW046 BKN072 10/01 Q1016=
201104141550 METAR ESMX 141550Z VRB01KT CAVOK 11/00 Q1016=
201104141520 METAR ESMX 141520Z VRB01KT 9999 FEW035 BKN066 11/M00 Q1016=
201104141450 METAR ESMX 141450Z 02003KT 330V080 CAVOK 11/M00 Q1016=
201104141420 METAR ESMX 141420Z 02004KT CAVOK 11/M00 Q1016=
201104141350 METAR ESMX 141350Z 01005KT CAVOK 11/M00 Q1016=
201104141320 METAR ESMX 141320Z 36006KT 9999 FEW047 BKN053 11/00 Q1016=
201104141250 METAR ESMX 141250Z 35006KT 310V020 9999 FEW047 BKN052 11/00 Q1016=
201104141220 METAR ESMX 141220Z 35006KT 310V020 9999 BKN048 11/M00 Q1016=
201104141150 METAR ESMX 141150Z 35004KT 9999 BKN041 10/M00 Q1016=
201104141120 METAR ESMX 141120Z 34003KT 9999 FEW047 BKN053 11/M00 Q1016=
201104141050 METAR ESMX 141050Z 34005KT 310V030 9999 FEW041 BKN046 10/M00 Q1016=
201104141020 METAR ESMX 141020Z 36007KT 9999 FEW041 SCT046 11/00 Q1016=
201104140950 METAR ESMX 140950Z 01009KT 9999 FEW041 10/M00 Q1016=
201104140920 METAR ESMX 140920Z 01007KT 340V060 9999 FEW035 10/M01 Q1016=
201104140850 METAR ESMX 140850Z 35007KT 300V040 9999 FEW029 09/01 Q1015=
201104140820 METAR ESMX 140820Z 35007KT 9999 FEW020 08/03 Q1015=
201104140750 METAR ESMX 140750Z 34004KT 310V010 CAVOK 07/03 Q1015=
201104140720 METAR ESMX 140720Z 34006KT 310V020 CAVOK 07/03 Q1015=
201104140650 METAR ESMX 140650Z 33003KT 290V020 CAVOK 06/04 Q1015=
201104140620 METAR ESMX 140620Z 33004KT 300V360 CAVOK 05/03 Q1015=
201104140550 METAR ESMX 140550Z 33003KT CAVOK 05/03 Q1015=
201104140520 METAR ESMX 140520Z 30004KT CAVOK 04/03 Q1014=
201104140450 METAR ESMX 140450Z 30004KT CAVOK 04/03 Q1014=
201104140420 METAR ESMX 140420Z 30002KT 9999 FEW045 BKN086 04/03 Q1014=
201104140350 METAR ESMX 140350Z 36001KT 9999 SCT041 BKN083 04/03 Q1014=
201104140320 METAR ESMX 140320Z AUTO 33003KT 9999NDV -DZ FEW034/// OVC039/// 04/03 Q1014=
201104140250 METAR ESMX 140250Z AUTO 32003KT 9999NDV -DZ FEW023/// OVC032/// 04/03 Q1014=
201104140220 METAR ESMX 140220Z AUTO 31004KT 9999NDV FEW026/// OVC030/// 04/03 Q1014=
201104140150 METAR ESMX 140150Z AUTO VRB02KT 9999NDV -DZ FEW015/// SCT019/// OVC023/// 04/03 Q1014=
201104140120 METAR ESMX 140120Z AUTO 01002KT 9999NDV -DZ FEW009/// BKN016/// OVC026/// 05/03 Q1014=
201104140050 METAR ESMX 140050Z AUTO 33003KT 9999NDV OVC011/// 05/03 Q1014=
201104140020 METAR ESMX 140020Z AUTO 33003KT 9999NDV FEW012/// SCT025/// OVC029/// 04/03 Q1014=
201104132350 METAR ESMX 132350Z AUTO 34004KT 9999NDV FEW008/// BKN010/// OVC014/// 05/03 Q1014=
201104132320 METAR ESMX 132320Z 33004KT 9999 BKN010 OVC015 04/03 Q1014=
201104132250 METAR ESMX 132250Z 01004KT 9999 BKN014 OVC041 04/03 Q1014=
201104132220 METAR ESMX 132220Z 36005KT 9999 -DZ FEW010 BKN016 05/03 Q1014=
201104132150 METAR ESMX 132150Z 34005KT 9999 FEW013 SCT019 OVC023 05/03 Q1013=
201104132120 METAR ESMX 132120Z 35005KT 9999 OVC013 05/03 Q1013=
201104132050 METAR ESMX 132050Z 35005KT 9999 OVC010 05/03 Q1013=
201104132020 METAR ESMX 132020Z 36005KT 6000 -DZ FEW006 SCT009 OVC011 05/03 Q1013=
201104131950 METAR ESMX 131950Z 35003KT 9999 -DZ SCT010 OVC015 05/03 Q1013=
201104131920 METAR ESMX 131920Z 02003KT 9999 -DZ SCT013 BKN019 05/03 Q1013=
201104131850 METAR ESMX 131850Z 34004KT 9999 SCT025 OVC037 05/03 Q1012=
201104131820 METAR ESMX 131820Z 33003KT 9999 FEW027 OVC037 05/03 Q1012=
201104131750 METAR ESMX 131750Z 35006KT 9999 FEW022 OVC028 06/03 Q1012=
201104131720 METAR ESMX 131720Z 33005KT 9999 FEW015 BKN028 06/03 Q1012=
201104131650 METAR ESMX 131650Z 32004KT 9999 FEW012 BKN027 06/03 Q1012=
201104131620 METAR ESMX 131620Z 36006KT 320V030 9999 FEW012 BKN025 06/03 Q1012=
201104131550 METAR ESMX 131550Z 34006KT 300V020 9999 FEW012 BKN015 06/03 Q1012=
201104131520 METAR ESMX 131520Z 36006KT 320V030 9999 SCT013 BKN022 06/03 Q1011=
201104131450 METAR ESMX 131450Z 34008KT 9999 BKN015 06/03 Q1011=
201104131420 METAR ESMX 131420Z 34007KT 9999 FEW018 BKN020 07/02 Q1011=
201104131350 METAR ESMX 131350Z 36006KT 9999 SCT020 BKN022 07/02 Q1011=
201104131320 METAR ESMX 131320Z 02007KT 9999 SCT022 BKN025 07/02 Q1011=
201104131250 METAR ESMX 131250Z 01006KT 330V040 9999 BKN020 07/02 Q1011=
201104131220 METAR ESMX 131220Z 02007KT 340V050 9999 FEW020 BKN025 07/02 Q1010=
201104131150 METAR ESMX 131150Z 04007KT 360V070 9999 BKN022 06/02 Q1010=
201104131120 METAR ESMX 131120Z 01008KT 9999 SCT018 BKN025 06/02 Q1010=
201104131050 METAR ESMX 131050Z 01008KT 9999 SCT012 BKN025 06/02 Q1010=
201104131020 METAR ESMX 131020Z 01009KT 9999 SCT017 OVC021 06/02 Q1010=
201104130950 METAR ESMX 130950Z 01009KT 9999 BKN017 05/02 Q1010=
201104130920 METAR ESMX 130920Z 01008KT 340V060 9999 FEW015 BKN018 06/02 Q1010=
201104130850 METAR ESMX 130850Z 01008KT 9999 SCT010 BKN015 05/02 Q1009=
201104130820 METAR ESMX 130820Z 02010KT 9999 OVC013 05/02 Q1009=
201104130750 METAR ESMX 130750Z 02007KT 350V060 9999 SCT010 BKN015 04/02 Q1009=
201104130720 METAR ESMX 130720Z 04008KT 9999 FEW009 OVC012 04/02 Q1009=
201104130650 METAR ESMX 130650Z 01008KT 350V050 9999 OVC010 04/02 Q1008=
201104130620 METAR ESMX 130620Z 01006KT 9999 FEW012 OVC015 04/02 Q1008=
201104130550 METAR ESMX 130550Z 03006KT 360V060 9999 FEW010 BKN015 04/01 Q1008=
201104130520 METAR ESMX 130520Z 02008KT 9999 FEW010 BKN020 03/02 Q1007=
201104130450 METAR ESMX 130450Z 04008KT 9999 FEW008 BKN012 03/02 Q1007=
201104130350 METAR ESMX 130350Z 04008KT 9999 SCT006 BKN012 04/02 Q1007=
201104130320 METAR ESMX 130320Z AUTO 05008KT 020V090 9999NDV FEW004/// OVC005/// 04/03 Q1006=
201104130250 METAR ESMX 130250Z AUTO 04008KT 010V080 9999NDV OVC005/// 05/04 Q1006 RERA=
201104130220 METAR ESMX 130220Z AUTO 04006KT 5000NDV RA FEW004/// SCT006/// BKN007/// 05/04 Q1005=
201104130150 METAR ESMX 130150Z AUTO 04007KT 010V070 8000NDV FEW005/// BKN008/// OVC011/// 05/04 Q1005=
201104130120 METAR ESMX 130120Z AUTO 05005KT 360V100 9000NDV FEW006/// BKN008/// OVC012/// 05/04 Q1005=
201104130050 METAR ESMX 130050Z AUTO 06006KT 020V100 9999NDV BKN005/// OVC009/// 05/04 Q1005=
201104130020 METAR ESMX 130020Z AUTO 06005KT 020V100 8000NDV OVC005/// 05/04 Q1005=
201104122350 METAR ESMX 122350Z AUTO 08006KT 040V140 9999NDV OVC005/// 06/04 Q1004=
201104122320 METAR ESMX 122320Z 07004KT 020V100 9999 BKN005 OVC008 06/05 Q1004=
201104122250 METAR ESMX 122250Z 08003KT 020V110 9999 SCT007 OVC018 06/05 Q1004=
201104122220 METAR ESMX 122220Z 07002KT 7000 -RA SCT005 BKN015 06/05 Q1004=
201104122150 METAR ESMX 122150Z 08003KT 040V110 7000 -RA SCT006 BKN009 06/05 Q1003=
201104122120 METAR ESMX 122120Z 07004KT 030V130 9999 -RA SCT008 BKN013 06/05 Q1003=
201104122050 METAR ESMX 122050Z 11003KT 060V160 9999 -RA FEW010 OVC012 07/05 Q1003=
201104122020 METAR ESMX 122020Z VRB01KT 8000 BR FEW008 OVC011 07/06 Q1003=
201104121920 METAR ESMX 121920Z 25002KT 8000 BR OVC008 07/06 Q1002=
201104121850 METAR ESMX 121850Z VRB02KT 8000 BR BKN007 OVC015 07/06 Q1002=
201104121820 METAR ESMX 121820Z VRB02KT 9000 BR FEW006 BKN014 07/06 Q1002=
201104121750 METAR ESMX 121750Z 23003KT 170V280 8000 BR SCT006 BKN012 08/07 Q1002=
201104121650 METAR ESMX 121650Z VRB02KT 9999 -DZ FEW010 BKN045 08/07 Q1001=
201104121620 METAR ESMX 121620Z 25003KT 220V280 9999 -DZ FEW010 BKN045 08/07 Q1001=
201104121550 METAR ESMX 121550Z 24004KT 210V280 9999 -DZ FEW020 BKN045 08/07 Q1001=
201104121520 METAR ESMX 121520Z 26007KT 9000 -DZ FEW025 BKN045 08/07 Q1001=
201104121450 METAR ESMX 121450Z 24007KT 9999 -RA FEW030 BKN060 08/07 Q1001=
201104121420 METAR ESMX 121420Z 25005KT 9999 -RA FEW030 BKN060 09/06 Q1001 REDZ=
201104121350 METAR ESMX 121350Z 23007KT 9999 FEW030 BKN080 11/04 Q1000=
201104121320 METAR ESMX 121320Z 25007KT 9999 FEW030 BKN080 11/02 Q1000=
201104121250 METAR ESMX 121250Z 22008KT 170V250 CAVOK 12/02 Q1000=
201104121220 METAR ESMX 121220Z 18006KT 120V240 CAVOK 13/01 Q1000=
201104121150 METAR ESMX 121150Z 18004KT 110V220 CAVOK 14/M00 Q1001=
201104121120 METAR ESMX 121120Z 18005KT 140V230 CAVOK 13/00 Q1001=
201104121050 METAR ESMX 121050Z 17005KT 140V210 CAVOK 13/M01 Q1001=
201104121020 METAR ESMX 121020Z 15004KT 100V170 CAVOK 12/M00 Q1001=
201104120950 METAR ESMX 120950Z 14004KT 100V220 CAVOK 13/M01 Q1001=
201104120920 METAR ESMX 120920Z 14004KT 080V190 CAVOK 12/M01 Q1001=
201104120850 METAR ESMX 120850Z 17004KT 110V240 CAVOK 12/M02 Q1002=
201104120820 METAR ESMX 120820Z 14004KT 080V230 CAVOK 12/M03 Q1002=
201104120750 METAR ESMX 120750Z 18003KT 140V220 CAVOK 11/M03 Q1002=
201104120720 METAR ESMX 120720Z 14003KT 090V200 CAVOK 10/M00 Q1002=
201104120650 METAR ESMX 120650Z VRB02KT CAVOK 09/01 Q1002=
201104120620 METAR ESMX 120620Z VRB01KT CAVOK 06/01 Q1003=
201104120550 METAR ESMX 120550Z 00000KT CAVOK 03/01 Q1003=
201104120520 METAR ESMX 120520Z 18001KT CAVOK M00/M01 Q1003=
201104120450 METAR ESMX 120450Z 16001KT CAVOK M01/M02 Q1003=
201104120420 METAR ESMX 120420Z 21001KT CAVOK M02/M03 Q1003=
201104120350 METAR ESMX 120350Z 22001KT CAVOK M01/M02 Q1004=
201104120320 METAR ESMX 120320Z AUTO 00000KT 9999NDV NCD M00/M01 Q1004=
201104120250 METAR ESMX 120250Z AUTO 18001KT 9999NDV NCD M00/M01 Q1004=
201104120220 METAR ESMX 120220Z AUTO 17001KT 9999NDV NCD M00/M02 Q1004=
201104120150 METAR ESMX 120150Z AUTO 18002KT 9999NDV NCD 01/M01 Q1005=
201104120120 METAR ESMX 120120Z AUTO 17002KT 9999NDV NCD 01/M01 Q1005=
201104120050 METAR ESMX 120050Z AUTO 17002KT 9999NDV NCD 01/M01 Q1006=
201104120020 METAR ESMX 120020Z AUTO 17003KT 9999NDV NCD 01/M01 Q1006=
201104112350 METAR ESMX 112350Z AUTO 25002KT 9999NDV NCD 03/00 Q1007=
201104112320 METAR ESMX 112320Z 23002KT CAVOK 03/00 Q1007=
201104112250 METAR ESMX 112250Z 26001KT CAVOK 05/00 Q1007=
201104112220 METAR ESMX 112220Z 28002KT CAVOK 05/00 Q1007=
201104112150 METAR ESMX 112150Z 28002KT CAVOK 06/00 Q1008=
201104112120 METAR ESMX 112120Z 27004KT CAVOK 07/01 Q1008=
201104112050 METAR ESMX 112050Z 28003KT 260V340 CAVOK 08/01 Q1008=
201104112020 METAR ESMX 112020Z 28005KT CAVOK 09/01 Q1008=
201104111950 METAR ESMX 111950Z 28005KT 250V320 CAVOK 10/01 Q1008=
201104111920 METAR ESMX 111920Z 28005KT CAVOK 10/01 Q1009=
201104111850 METAR ESMX 111850Z 28005KT CAVOK 11/01 Q1009=
201104111820 METAR ESMX 111820Z 27006KT CAVOK 12/02 Q1009=
201104111750 METAR ESMX 111750Z 27007KT 230V290 CAVOK 13/02 Q1009=
201104111720 METAR ESMX 111720Z 28008KT CAVOK 14/02 Q1009=
201104111650 METAR ESMX 111650Z 29011KT CAVOK 15/02 Q1009=
201104111620 METAR ESMX 111620Z 28010KT CAVOK 16/03 Q1009=
201104111550 METAR ESMX 111550Z 28011KT CAVOK 17/03 Q1009=
201104111520 METAR ESMX 111520Z 28010KT CAVOK 17/04 Q1010=
201104111450 METAR ESMX 111450Z 28011KT 240V320 CAVOK 17/04 Q1010=
201104111420 METAR ESMX 111420Z 28011KT 240V320 CAVOK 18/05 Q1010=
201104111350 METAR ESMX 111350Z 28011KT 250V320 CAVOK 18/05 Q1010=
201104111320 METAR ESMX 111320Z 30013KT 260V330 CAVOK 18/05 Q1011=
201104111250 METAR ESMX 111250Z 28011KT 240V310 CAVOK 18/05 Q1011=
201104111220 METAR ESMX 111220Z 28011KT 230V310 CAVOK 18/05 Q1012=
201104111150 METAR ESMX 111150Z 27011KT 240V320 CAVOK 17/05 Q1012=
201104111120 METAR ESMX 111120Z 27011KT 240V320 CAVOK 17/04 Q1013=
201104111050 METAR ESMX 111050Z 28011KT CAVOK 16/04 Q1013=
201104111020 METAR ESMX 111020Z 27009KT 240V300 CAVOK 16/05 Q1014=
201104110950 METAR ESMX 110950Z 27013KT 240V310 CAVOK 15/05 Q1014=
201104110920 METAR ESMX 110920Z 27009KT 240V300 CAVOK 15/05 Q1014=
201104110850 METAR ESMX 110850Z 26007KT 220V300 CAVOK 14/05 Q1015=
201104110820 METAR ESMX 110820Z 24005KT 200V290 CAVOK 13/05 Q1015=
201104110750 METAR ESMX 110750Z 25005KT CAVOK 12/05 Q1015=
201104110720 METAR ESMX 110720Z 25005KT CAVOK 11/05 Q1016=
201104110650 METAR ESMX 110650Z 27006KT CAVOK 10/05 Q1016=
201104110620 METAR ESMX 110620Z 26006KT CAVOK 10/05 Q1017=
201104110550 METAR ESMX 110550Z 26006KT CAVOK 10/05 Q1017=
201104110520 METAR ESMX 110520Z 26005KT 230V290 CAVOK 09/04 Q1017=
201104110450 METAR ESMX 110450Z 26006KT CAVOK 09/04 Q1017=
201104110420 METAR ESMX 110420Z 26004KT 220V290 CAVOK 08/04 Q1017=
201104110350 METAR ESMX 110350Z 22003KT 190V260 CAVOK 08/05 Q1018=
201104110320 METAR ESMX 110320Z AUTO 19004KT 160V230 9999NDV NCD 08/05 Q1018=
201104110250 METAR ESMX 110250Z AUTO 19005KT 9999NDV NCD 07/05 Q1018=
201104110220 METAR ESMX 110220Z AUTO 20004KT 9999NDV NCD 07/05 Q1018=
201104110150 METAR ESMX 110150Z AUTO 22005KT 9999NDV NCD 07/05 Q1019=
201104110120 METAR ESMX 110120Z AUTO VRB02KT 9999NDV FEW071/// 07/06 Q1019=
201104110050 METAR ESMX 110050Z AUTO 26004KT 9999NDV -RA SCT079/// 06/05 Q1019=
201104110020 METAR ESMX 110020Z AUTO 26002KT 9999NDV NCD 07/05 Q1020=
201104102350 METAR ESMX 102350Z 26002KT CAVOK 07/05 Q1020=
201104102320 METAR ESMX 102320Z 25003KT CAVOK 06/05 Q1020=
201104102220 METAR ESMX 102220Z 26001KT CAVOK 07/04 Q1020=
201104102150 METAR ESMX 102150Z VRB02KT CAVOK 07/05 Q1020=
201104102120 METAR ESMX 102120Z VRB01KT CAVOK 07/05 Q1020=
201104102050 METAR ESMX 102050Z 27001KT 9999 NSC 07/05 Q1021=
201104102020 METAR ESMX 102020Z VRB02KT CAVOK 08/05 Q1021=
201104101950 METAR ESMX 101950Z 31001KT CAVOK 09/05 Q1021=
201104101920 METAR ESMX 101920Z 33002KT CAVOK 09/05 Q1021=
201104101850 METAR ESMX 101850Z 33004KT CAVOK 11/05 Q1021=
201104101820 METAR ESMX 101820Z 01002KT CAVOK 12/06 Q1021=
201104101750 METAR ESMX 101750Z 34005KT CAVOK 12/06 Q1020=
201104101720 METAR ESMX 101720Z 34007KT 9999 FEW047 14/05 Q1020=
201104101650 METAR ESMX 101650Z 35005KT 320V020 9999 FEW048 14/05 Q1020=
201104101620 METAR ESMX 101620Z 01005KT 9999 FEW047 15/05 Q1020=
201104101550 METAR ESMX 101550Z 36007KT 9999 FEW047 15/05 Q1020=
201104101520 METAR ESMX 101520Z 36008KT 9999 BKN045 16/05 Q1020=
201104101450 METAR ESMX 101450Z 01009KT 9999 BKN046 16/05 Q1020=
201104101420 METAR ESMX 101420Z 36008KT 320V040 9999 FEW048 BKN083 16/05 Q1020=
201104101350 METAR ESMX 101350Z 36011KT 300V020 9999 FEW045 16/04 Q1021=
201104101320 METAR ESMX 101320Z 35013KT 320V020 CAVOK 16/05 Q1021=
201104101250 METAR ESMX 101250Z 35013KT 320V030 CAVOK 16/04 Q1021=
201104101220 METAR ESMX 101220Z 35009KT 320V020 CAVOK 15/04 Q1021=
201104101150 METAR ESMX 101150Z 35009KT 320V020 CAVOK 16/04 Q1021=
201104101120 METAR ESMX 101120Z 34010KT 290V020 CAVOK 15/03 Q1021=
201104101050 METAR ESMX 101050Z 34012KT 300V010 CAVOK 15/03 Q1021=
201104101020 METAR ESMX 101020Z AUTO 32012KT 290V360 9999NDV NCD 14/03 Q1021=
201104100950 METAR ESMX 100950Z AUTO 35011KT 9999NDV NCD 13/03 Q1021=
201104100920 METAR ESMX 100920Z AUTO 34014KT 310V020 9999NDV NCD 13/03 Q1021=
201104100850 METAR ESMX 100850Z AUTO 34010KT 300V020 9999NDV NCD 12/03 Q1021=
201104100820 METAR ESMX 100820Z AUTO 35010KT 320V030 9999NDV NCD 11/02 Q1021=
201104100750 METAR ESMX 100750Z AUTO 34008KT 300V010 9999NDV NCD 10/02 Q1021=
201104100720 METAR ESMX 100720Z AUTO 35010KT 320V020 9999NDV NCD 09/01 Q1021=
201104100650 METAR ESMX 100650Z AUTO 35010KT 320V020 9999NDV NCD 08/00 Q1020=
201104100620 METAR ESMX 100620Z AUTO 34008KT 9999NDV NCD 06/M01 Q1020=
201104100550 METAR ESMX 100550Z AUTO 33009KT 310V010 9999NDV NCD 05/M02 Q1020=
201104100520 METAR ESMX 100520Z AUTO 32008KT 9999NDV NCD 04/M02 Q1020=
201104100450 METAR ESMX 100450Z AUTO 32007KT 290V350 9999NDV NCD 03/M03 Q1020=
201104100420 METAR ESMX 100420Z AUTO 32006KT 280V350 9999NDV FEW099/// 03/M03 Q1020=
201104100350 METAR ESMX 100350Z AUTO 30006KT 270V330 9999NDV FEW100/// 03/M03 Q1019=
201104100320 METAR ESMX 100320Z AUTO 29007KT 9999NDV NCD 03/M03 Q1019=
201104100250 METAR ESMX 100250Z AUTO 29008KT 9999NDV NCD 03/M03 Q1019=
201104100220 METAR ESMX 100220Z AUTO 30007KT 9999NDV NCD 03/M03 Q1019=
201104100150 METAR ESMX 100150Z AUTO 31005KT 9999NDV NCD 03/M03 Q1019=
201104100120 METAR ESMX 100120Z AUTO 29007KT 9999NDV NCD 03/M03 Q1019=
201104100050 METAR ESMX 100050Z AUTO 29006KT 9999NDV NCD 02/M03 Q1019=
201104100020 METAR ESMX 100020Z AUTO 28004KT 250V320 9999NDV NCD 02/M03 Q1019=
201104092350 METAR ESMX 092350Z AUTO 28006KT 9999NDV NCD 03/M03 Q1019=
201104092320 METAR ESMX 092320Z AUTO 29006KT 250V320 9999NDV NCD 03/M04 Q1019=
201104092250 METAR ESMX 092250Z AUTO 31006KT 9999NDV NCD 04/M03 Q1019=
201104092220 METAR ESMX 092220Z AUTO 32006KT 9999NDV NCD 03/M04 Q1019=
201104092150 METAR ESMX 092150Z AUTO 31006KT 9999NDV NCD 04/M04 Q1019=
201104092120 METAR ESMX 092120Z AUTO 30006KT 9999NDV NCD 05/M04 Q1019=
201104092050 METAR ESMX 092050Z AUTO 29006KT 9999NDV NCD 05/M04 Q1019=
201104092020 METAR ESMX 092020Z AUTO 29005KT 9999NDV NCD 03/M04 Q1018=
201104091950 METAR ESMX 091950Z AUTO 29005KT 9999NDV NCD 03/M03 Q1019=
201104091920 METAR ESMX 091920Z AUTO 31005KT 9999NDV NCD 04/M04 Q1018=
201104091850 METAR ESMX 091850Z AUTO 32005KT 290V350 9999NDV NCD 06/M04 Q1018=
201104091820 METAR ESMX 091820Z AUTO 33006KT 9999NDV NCD 07/M04 Q1018=
201104091750 METAR ESMX 091750Z AUTO 34007KT 9999NDV NCD 08/M04 Q1017=
201104091720 METAR ESMX 091720Z AUTO 34010KT 290V360 9999NDV NCD 09/M05 Q1017=
201104091650 METAR ESMX 091650Z AUTO 33012KT 300V010 9999NDV NCD 10/M06 Q1017=
201104091620 METAR ESMX 091620Z AUTO 34013KT 300V010 9999NDV NCD 11/M06 Q1017=
201104091550 METAR ESMX 091550Z AUTO 35014KT 9999NDV NCD 11/M06 Q1017=
201104091520 METAR ESMX 091520Z AUTO 34014KT 290V020 9999NDV NCD 11/M06 Q1017=
201104091450 METAR ESMX 091450Z AUTO 32013KT 290V360 9999NDV NCD 11/M05 Q1017=
201104091420 METAR ESMX 091420Z AUTO 33013KT 290V010 9999NDV NCD 11/M05 Q1017=
201104091350 METAR ESMX 091350Z AUTO 31016G26KT 270V340 9999NDV NCD 11/M05 Q1017=
201104091320 METAR ESMX 091320Z AUTO 32015KT 290V350 9999NDV NCD 11/M05 Q1016=
201104091250 METAR ESMX 091250Z AUTO 33014KT 290V010 9999NDV NCD 11/M04 Q1016=
201104091220 METAR ESMX 091220Z AUTO 33015KT 290V350 9999NDV FEW057/// 11/M05 Q1016=
201104091150 METAR ESMX 091150Z 34012KT 300V020 CAVOK 11/M04 Q1016=
201104091120 METAR ESMX 091120Z 34013KT 300V020 CAVOK 11/M03 Q1016=
201104091050 METAR ESMX 091050Z 33014KT CAVOK 10/M04 Q1016=
201104091020 METAR ESMX 091020Z 34012KT 300V020 CAVOK 10/M04 Q1016=
201104090950 METAR ESMX 090950Z 31014KT CAVOK 10/M03 Q1016=
201104090920 METAR ESMX 090920Z 34014KT 310V010 CAVOK 09/M03 Q1016=
201104090850 METAR ESMX 090850Z 35013KT 320V020 CAVOK 09/M03 Q1015=
201104090820 METAR ESMX 090820Z 35014KT 310V020 CAVOK 08/M03 Q1015=
201104090750 METAR ESMX 090750Z 35014KT 310V020 CAVOK 08/M03 Q1015=
201104090720 METAR ESMX 090720Z 34015KT 300V020 CAVOK 07/M03 Q1015=
201104090650 METAR ESMX 090650Z 35014KT CAVOK 06/M03 Q1014=
201104090620 METAR ESMX 090620Z 33015G25KT 310V010 CAVOK 06/M03 Q1014=
201104090550 METAR ESMX 090550Z 33014KT 290V010 CAVOK 05/M04 Q1014=
201104090520 METAR ESMX 090520Z AUTO 33011KT 300V010 9999NDV NCD 05/M04 Q1013=
201104090450 METAR ESMX 090450Z AUTO 33011KT 9999NDV NCD 04/M04 Q1012=
201104090420 METAR ESMX 090420Z AUTO 33011KT 300V010 9999NDV NCD 04/M04 Q1012=
201104090350 METAR ESMX 090350Z AUTO 31011KT 9999NDV NCD 04/M04 Q1011=
201104090320 METAR ESMX 090320Z AUTO 32011KT 280V360 9999NDV NCD 04/M04 Q1011=
201104090250 METAR ESMX 090250Z AUTO 32013KT 290V350 9999NDV NCD 05/M03 Q1010=
201104090220 METAR ESMX 090220Z AUTO 33015KT 9999NDV NCD 05/M03 Q1010=
201104090150 METAR ESMX 090150Z AUTO 32009KT 290V350 9999NDV NCD 05/M03 Q1010=
201104090120 METAR ESMX 090120Z AUTO 33014G24KT 9999NDV NCD 06/M04 Q1009=
201104090050 METAR ESMX 090050Z AUTO 32014KT 270V010 9999NDV NCD 06/M03 Q1008=
201104090020 METAR ESMX 090020Z AUTO 31013KT 9999NDV NCD 07/M02 Q1008=
201104082350 METAR ESMX 082350Z AUTO 31013KT 9999NDV NCD 07/M02 Q1007=
201104082320 METAR ESMX 082320Z AUTO 31012KT 9999NDV NCD 07/M02 Q1007=
201104082250 METAR ESMX 082250Z AUTO 31012KT 9999NDV NCD 07/M02 Q1006=
201104082220 METAR ESMX 082220Z AUTO 30010KT 9999NDV NCD 07/M02 Q1005=
201104082150 METAR ESMX 082150Z AUTO 30009KT 9999NDV NCD 08/M02 Q1005=
201104082120 METAR ESMX 082120Z AUTO 31012KT 260V340 9999NDV NCD 09/M02 Q1004=
201104082050 METAR ESMX 082050Z AUTO 30011KT 260V330 9999NDV NCD 09/M02 Q1004=
201104082020 METAR ESMX 082020Z AUTO 31015KT 9999NDV BKN080/// 10/M03 Q1003=
201104081950 METAR ESMX 081950Z AUTO 30014G24KT 9999NDV BKN081/// 11/M03 Q1002=
201104081920 METAR ESMX 081920Z AUTO 30014G25KT 270V330 9999NDV BKN082/// 11/M03 Q1001=
201104081850 METAR ESMX 081850Z 30014G24KT 270V340 CAVOK 12/M03 Q1000=
201104081820 METAR ESMX 081820Z 31011KT 280V340 CAVOK 12/M04 Q1000=
201104081750 METAR ESMX 081750Z 33015KT CAVOK 12/M05 Q0999=
201104081720 METAR ESMX 081720Z 32009KT CAVOK 13/M04 Q0998=
201104081650 METAR ESMX 081650Z 32017KT 300V360 CAVOK 13/M04 Q0997=
201104081620 METAR ESMX 081620Z 30020KT CAVOK 13/M00 Q0997=
201104081550 METAR ESMX 081550Z 30018G32KT 270V340 CAVOK 13/01 Q0996=
201104081520 METAR ESMX 081520Z 29018G28KT 270V330 CAVOK 14/02 Q0996=
201104081450 METAR ESMX 081450Z 29020G33KT 250V320 9999 FEW049 SCT064 13/02 Q0995=
201104081420 METAR ESMX 081420Z 28017G27KT 250V320 9999 FEW040CB 13/03 Q0995=
201104081350 METAR ESMX 081350Z 28020KT 250V320 9999 SCT040 13/04 Q0995=
201104081320 METAR ESMX 081320Z 29017G27KT 9999 SCT030 12/05 Q0996=
201104081250 METAR ESMX 081250Z 29018KT 9999 SCT024 11/06 Q0996=
201104081220 METAR ESMX 081220Z 28016KT 250V310 9999 FEW013 SCT017 BKN019 09/06 Q0996=
201104081150 METAR ESMX 081150Z 28015KT 250V320 9999 BKN010 OVC017 08/05 Q0997=
201104081120 METAR ESMX 081120Z 28016KT 250V310 9999 BKN008 OVC011 07/05 Q0997=
201104081050 METAR ESMX 081050Z 28020G32KT 6000 -DZ OVC006 07/06 Q0997=
201104080950 METAR ESMX 080950Z 28013KT 2500 -DZ FEW005 BKN007 OVC010 06/05 Q0998=
201104080920 METAR ESMX 080920Z 27019KT 3800 -DZ OVC006 06/05 Q0999=
201104080850 METAR ESMX 080850Z 26012KT 230V290 3900 -DZ OVC005 06/05 Q1000=
201104080820 METAR ESMX 080820Z 25009KT 210V290 3000 -DZ SCT006 OVC008 06/04 Q1001=
201104080750 METAR ESMX 080750Z 26011KT 210V290 9999 OVC010 06/03 Q1002=
201104080720 METAR ESMX 080720Z 26010KT 210V290 9999 OVC010 06/03 Q1003=
201104080650 METAR ESMX 080650Z 26012KT 9999 OVC011 05/03 Q1003=
201104080620 METAR ESMX 080620Z 27011KT 240V300 9999 OVC010 05/02 Q1004=
201104080550 METAR ESMX 080550Z 27009KT 240V300 9999 OVC009 04/02 Q1005=
201104080520 METAR ESMX 080520Z 25006KT 210V280 9999 BKN011 04/02 Q1006=
201104080450 METAR ESMX 080450Z 27007KT CAVOK 03/01 Q1006=
201104080420 METAR ESMX 080420Z 26007KT CAVOK 02/01 Q1006=
201104080350 METAR ESMX 080350Z 26007KT CAVOK 02/00 Q1007=
201104080320 METAR ESMX 080320Z AUTO 27008KT 9999NDV NCD 03/00 Q1007=
201104080250 METAR ESMX 080250Z AUTO 26006KT 9999NDV NCD 03/00 Q1007=
201104080220 METAR ESMX 080220Z AUTO 27008KT 9999NDV NCD 04/00 Q1007=
201104080150 METAR ESMX 080150Z AUTO 29009KT 9999NDV NCD 05/M00 Q1007=
201104080120 METAR ESMX 080120Z AUTO 30010KT 260V340 9999NDV NCD 05/M00 Q1007=
201104080050 METAR ESMX 080050Z AUTO 29012KT 9999NDV NCD 05/00 Q1007=
201104080020 METAR ESMX 080020Z AUTO 30012KT 260V330 9999NDV NCD 05/00 Q1007=
201104072350 METAR ESMX 072350Z AUTO 30014G24KT 260V330 9999NDV NCD 05/00 Q1007=
201104072320 METAR ESMX 072320Z 30015KT CAVOK 05/00 Q1007=
201104072250 METAR ESMX 072250Z 29014KT CAVOK 05/00 Q1007=
201104072220 METAR ESMX 072220Z 29012KT 250V330 CAVOK 05/00 Q1006=
201104072150 METAR ESMX 072150Z 29013KT 250V330 CAVOK 05/00 Q1006=
201104072120 METAR ESMX 072120Z 29014G26KT CAVOK 06/00 Q1006=
201104072050 METAR ESMX 072050Z 27015KT CAVOK 06/M00 Q1005=
201104072020 METAR ESMX 072020Z 29014G25KT CAVOK 06/M00 Q1005=
201104071950 METAR ESMX 071950Z 29017KT 250V320 CAVOK 06/M00 Q1005=
201104071920 METAR ESMX 071920Z 29016G26KT CAVOK 07/M01 Q1005=
201104071850 METAR ESMX 071850Z 27015G28KT CAVOK 07/M01 Q1005=
201104071820 METAR ESMX 071820Z 29017KT CAVOK 07/M01 Q1005=
201104071750 METAR ESMX 071750Z 28014KT 250V320 CAVOK 08/M01 Q1004=
201104071720 METAR ESMX 071720Z 29014G26KT 240V320 CAVOK 08/M01 Q1004=
201104071650 METAR ESMX 071650Z 28019G29KT CAVOK 09/M02 Q1004=
201104071620 METAR ESMX 071620Z 29015G26KT 260V320 CAVOK 09/M02 Q1004=
201104071550 METAR ESMX 071550Z 29017KT CAVOK 10/M01 Q1004=
201104071520 METAR ESMX 071520Z 29018KT 260V320 CAVOK 10/M01 Q1003=
201104071450 METAR ESMX 071450Z 29016G26KT 260V330 CAVOK 10/M01 Q1003=
201104071420 METAR ESMX 071420Z 28018G29KT 230V320 CAVOK 11/M01 Q1002=
201104071350 METAR ESMX 071350Z 29018G31KT 9999 FEW045 11/M01 Q1002=
201104071320 METAR ESMX 071320Z 28018G31KT 240V300 9999 FEW046 11/M00 Q1002=
201104071250 METAR ESMX 071250Z 29020KT 250V320 9999 FEW045 11/00 Q1002=
201104071236 METAR ESMX 071236Z 29020G32KT 240V320 9999 FEW045 11/01 Q1002=
201104071150 METAR ESMX 071150Z 29020G30KT 9999 SCT039 11/02 Q1002=
201104071120 METAR ESMX 071120Z 28022KT 9999 FEW032 10/02 Q1001=
201104071050 METAR ESMX 071050Z 29023KT 9999 FEW027 10/03 Q1002=
201104071020 METAR ESMX 071020Z 30022G32KT 9999 FEW029 SCT150 09/03 Q1002=
201104070950 METAR ESMX 070950Z 29020G34KT 9999 SCT028 BKN150 09/03 Q1002=
201104070920 METAR ESMX 070920Z 28018G29KT 250V320 9999 FEW020 BKN024 09/03 Q1001=
201104070850 METAR ESMX 070850Z 27020KT 9999 BKN020 09/04 Q1002=
201104070820 METAR ESMX 070820Z 28019G31KT 240V320 9999 FEW019 SCT022 BKN025 09/03 Q1002=
201104070750 METAR ESMX 070750Z 27018G28KT 250V310 9999 SCT016 BKN021 09/04 Q1002=
201104070720 METAR ESMX 070720Z 27015KT 210V300 9999 BKN015 09/05 Q1002=
201104070650 METAR ESMX 070650Z 27019KT 9999 OVC014 09/06 Q1002=
201104070620 METAR ESMX 070620Z 26016KT 230V300 9999 BKN011 BKN016 09/06 Q1002=
201104070550 METAR ESMX 070550Z 26014KT 9999 BKN010 09/07 Q1002=
201104070520 METAR ESMX 070520Z 24013G23KT 200V280 9999 OVC010 09/07 Q1002=
201104070450 METAR ESMX 070450Z 26014KT 9999 OVC010 09/07 Q1003=
201104070420 METAR ESMX 070420Z 26018KT 220V290 9999 BR OVC010 09/07 Q1003=
201104070350 METAR ESMX 070350Z 24013KT 210V280 8000 BR OVC010 09/07 Q1003=
201104070320 METAR ESMX 070320Z AUTO 23015KT 9000NDV BR SCT017/// OVC023/// 09/06 Q1003=
201104070250 METAR ESMX 070250Z AUTO 25011KT 210V270 9000NDV BR BKN016/// 09/06 Q1005=
201104070220 METAR ESMX 070220Z AUTO 24012KT 210V290 9000NDV BR BKN012/// 09/06 Q1005=
201104070150 METAR ESMX 070150Z AUTO 24014KT 8000NDV BR FEW005/// BKN008/// OVC012/// 09/07 Q1006=
201104070120 METAR ESMX 070120Z AUTO 24013KT 5000NDV BR SCT001/// BKN004/// OVC005/// 09/09 Q1007=
201104070050 METAR ESMX 070050Z AUTO 24013KT 2000NDV BR OVC001/// 09/09 Q1007=
201104070020 METAR ESMX 070020Z AUTO 22012KT 180V240 3000NDV BR OVC002/// 10/09 Q1008=
201104062350 METAR ESMX 062350Z AUTO 23010KT 200V270 2000NDV BR OVC002/// 10/09 Q1009=
201104062320 METAR ESMX 062320Z 22010KT 190V250 3000 BR OVC003 10/09 Q1009=
201104062250 METAR ESMX 062250Z 22009KT 180V260 8000 BR OVC003 10/09 Q1010=
201104062220 METAR ESMX 062220Z 24011KT 220V280 8000 BR OVC003 10/09 Q1010=
201104062150 METAR ESMX 062150Z 24011KT 210V270 7000 BR OVC002 10/09 Q1011=
201104062120 METAR ESMX 062120Z 25011KT 210V280 6000 BR OVC002 09/09 Q1011=
201104062050 METAR ESMX 062050Z 25010KT 4300 BR OVC002 09/09 Q1011=
201104062020 METAR ESMX 062020Z 24010KT 210V270 5000 BR OVC003 10/09 Q1011=
201104061950 METAR ESMX 061950Z 26011KT 9999 OVC004 10/08 Q1011=
201104061920 METAR ESMX 061920Z 26011KT 9999 OVC004 10/08 Q1012=
201104061850 METAR ESMX 061850Z 26010KT 220V290 9999 OVC006 10/08 Q1012=
201104061820 METAR ESMX 061820Z 26013KT 210V290 9999 OVC006 10/08 Q1012=
201104061750 METAR ESMX 061750Z 25010KT 210V290 9999 OVC006 10/08 Q1012=
201104061720 METAR ESMX 061720Z 26013KT 9999 OVC008 10/08 Q1012=
201104061650 METAR ESMX 061650Z 26012KT 220V310 9999 BKN008 OVC011 10/08 Q1012=
201104061620 METAR ESMX 061620Z 27012KT 230V300 9999 FEW009 OVC011 10/08 Q1012=
201104061550 METAR ESMX 061550Z 26014KT 9999 OVC011 11/08 Q1012=
201104061520 METAR ESMX 061520Z 27014G24KT 240V300 9999 BKN010 BKN015 10/08 Q1012=
201104061450 METAR ESMX 061450Z 28014KT 9999 OVC010 10/08 Q1012=
201104061420 METAR ESMX 061420Z 27016KT 230V300 9999 BKN010 OVC013 11/08 Q1011=
201104061350 METAR ESMX 061350Z 26014KT 240V300 9999 OVC010 11/08 Q1011=
201104061320 METAR ESMX 061320Z 26011KT 9999 SCT008 OVC010 10/08 Q1012=
201104061250 METAR ESMX 061250Z 26014KT 230V290 9999 BKN008 OVC011 10/08 Q1011=
201104061220 METAR ESMX 061220Z 27016KT 9999 OVC007 10/08 Q1011=
201104061150 METAR ESMX 061150Z 26016G26KT 230V300 9999 OVC007 10/09 Q1011=
201104061120 METAR ESMX 061120Z 25014G26KT 210V280 9999 OVC007 10/09 Q1010=
201104061050 METAR ESMX 061050Z 26014KT 230V300 9999 OVC007 10/09 Q1010=
201104061020 METAR ESMX 061020Z 25012G22KT 220V290 9000 BR OVC005 10/09 Q1010=
201104060950 METAR ESMX 060950Z 26013KT 230V290 9000 BR OVC005 10/09 Q1010=
201104060920 METAR ESMX 060920Z 25012KT 230V290 7000 BR OVC005 10/09 Q1010=
201104060850 METAR ESMX 060850Z 25011KT 5000 BR BKN003 09/08 Q1010=
201104060820 METAR ESMX 060820Z 22009KT 6000 BKN003 09/08 Q1010=
201104060750 METAR ESMX 060750Z 23010KT 4400 BR OVC003 09/08 Q1010 REDZ=
201104060720 METAR ESMX 060720Z 22010KT 190V250 3100 DZ OVC003 08/08 Q1010=
201104060650 METAR ESMX 060650Z 23010KT 8000 BR OVC004 08/07 Q1010=
201104060620 METAR ESMX 060620Z 21012KT 5000 BR OVC004 08/07 Q1010=
201104060550 METAR ESMX 060550Z 21011KT 6000 BR OVC004 08/07 Q1010=
201104060520 METAR ESMX 060520Z 21012KT 2700 DZ OVC003 07/07 Q1011=
201104060450 METAR ESMX 060450Z 20012KT 2200 DZ OVC003 07/07 Q1011=
201104060420 METAR ESMX 060420Z 21009KT 2300 DZ OVC004 07/07 Q1011=
201104060350 METAR ESMX 060350Z 21010KT 180V240 2500 BR FEW001 OVC003 07/06 Q1011=
201104060320 METAR ESMX 060320Z 22011KT 2500 BR OVC002 07/06 Q1011=
201104060250 METAR ESMX 060250Z AUTO 22009KT 0550NDV R01/1700N R19/P2000N FG VV002 07/06 Q1011=
201104060220 METAR ESMX 060220Z AUTO 22009KT 0800NDV R01/P2000N R19/P2000N FG VV001 07/06 Q1012=
201104060150 METAR ESMX 060150Z AUTO 22009KT 190V250 1100NDV R01/P2000N R19/P2000N VV002 07/06 Q1012=
201104060120 METAR ESMX 060120Z AUTO 24011KT 0800NDV R01/P2000N R19/P2000N FG VV002 07/06 Q1012=
201104060050 METAR ESMX 060050Z AUTO 24010KT 200V270 1100NDV R01/P2000N R19/P2000N OVC001/// 07/06 Q1012=
201104060020 METAR ESMX 060020Z AUTO 23010KT 0900NDV R01/P2000N R19/P2000N FG VV002 07/06 Q1012=
201104052350 METAR ESMX 052350Z AUTO 24010KT 210V270 1000NDV R01/P2000N R19/P2000N BR OVC001/// 07/06 Q1013=
201104052320 METAR ESMX 052320Z 25010KT 190V280 1200 R01/P2000N R19/P2000N BR OVC002 07/06 Q1013=
201104052250 METAR ESMX 052250Z 24012KT 210V280 1100 R01/P2000N R19/P2000N BR OVC002 07/06 Q1013=
201104052220 METAR ESMX 052220Z 24011KT 210V270 4000 BR OVC002 07/06 Q1012=
201104052150 METAR ESMX 052150Z 22010KT 4500 BR BKN004 OVC007 07/06 Q1012=
201104052120 METAR ESMX 052120Z 23010KT 5000 BR OVC005 07/06 Q1012=
201104052050 METAR ESMX 052050Z 24011KT 9999 OVC005 07/06 Q1012=
201104052020 METAR ESMX 052020Z 24011KT 9999 OVC006 07/06 Q1013=
201104051950 METAR ESMX 051950Z 22011KT 9999 OVC005 07/06 Q1013 REDZ=
201104051920 METAR ESMX 051920Z 23010KT 2500 -DZ BKN005 OVC008 07/06 Q1013=
201104051850 METAR ESMX 051850Z 23008KT 200V260 3800 BR OVC005 07/06 Q1013=
201104051820 METAR ESMX 051820Z 21011KT 6000 BR OVC005 07/06 Q1012=
201104051750 METAR ESMX 051750Z 22011KT 4500 BR FEW004 SCT006 BKN008 07/06 Q1012 REDZ=
201104051720 METAR ESMX 051720Z 20011KT 3200 BR FEW006 BKN008 OVC010 07/06 Q1012=
201104051650 METAR ESMX 051650Z 21012KT 170V240 5000 RA FEW008 SCT014 BKN018 07/06 Q1013=
201104051620 METAR ESMX 051620Z 21011KT 8000 -RA SCT015 BKN025 08/06 Q1013 RERA=
201104051550 METAR ESMX 051550Z 21013KT 160V230 7000 RA FEW007 BKN012 OVC020 08/06 Q1013=
201104051520 METAR ESMX 051520Z 20012KT 5000 RA SCT006 BKN011 08/07 Q1013=
201104051450 METAR ESMX 051450Z 19012KT 6000 -RA BKN011 OVC016 09/07 Q1013=
201104051420 METAR ESMX 051420Z 18010KT 8000 -RA BKN014 OVC018 09/07 Q1013=
201104051350 METAR ESMX 051350Z 19008KT 9999 OVC015 09/06 Q1013=
201104051320 METAR ESMX 051320Z 18010KT 140V200 9000 BR FEW010 SCT015 BKN018 09/06 Q1014=
201104051250 METAR ESMX 051250Z 21012KT 8000 BR BKN009 08/06 Q1014=
201104051220 METAR ESMX 051220Z 20010KT 8000 BR OVC006 08/06 Q1014=
201104051150 METAR ESMX 051150Z 19010KT 6000 BR OVC005 07/06 Q1015=
201104051120 METAR ESMX 051120Z 21009KT 5000 BR OVC005 07/06 Q1015=
201104051050 METAR ESMX 051050Z 21010KT 3600 BR OVC005 07/05 Q1015=
201104051020 METAR ESMX 051020Z 21012KT 170V240 6000 BR OVC005 06/05 Q1015=
201104050920 METAR ESMX 050920Z 22011KT 200V260 9999 BKN008 06/04 Q1015=
201104050820 METAR ESMX 050820Z 22011KT 9999 OVC009 06/04 Q1015=
201104050750 METAR ESMX 050750Z 21008KT 9999 OVC010 06/03 Q1015=
201104050720 METAR ESMX 050720Z 20009KT 9999 OVC010 05/02 Q1015=
201104050650 METAR ESMX 050650Z 21009KT 9999 FEW015 BKN022 04/01 Q1015=
201104050620 METAR ESMX 050620Z 21009KT 9999 SCT025 BKN039 04/01 Q1015=
201104050550 METAR ESMX 050550Z 20009KT CAVOK 03/01 Q1015=
201104050520 METAR ESMX 050520Z 21008KT CAVOK 03/01 Q1015=
201104050450 METAR ESMX 050450Z 21009KT CAVOK 03/00 Q1015=
201104050420 METAR ESMX 050420Z 19007KT CAVOK 02/00 Q1015=
201104050350 METAR ESMX 050350Z 20007KT CAVOK 02/00 Q1015=
201104050320 METAR ESMX 050320Z 19007KT CAVOK 02/M00 Q1015=
201104050250 METAR ESMX 050250Z AUTO 21007KT 9999NDV NCD 02/M00 Q1015=
201104050220 METAR ESMX 050220Z AUTO 21006KT 9999NDV NCD 02/M00 Q1015=
201104050150 METAR ESMX 050150Z AUTO 21005KT 9999NDV NCD 02/M00 Q1015=
201104050120 METAR ESMX 050120Z AUTO 21006KT 9999NDV NCD 02/M00 Q1015=
201104050050 METAR ESMX 050050Z AUTO 20005KT 9999NDV NCD 02/M00 Q1015=
201104050020 METAR ESMX 050020Z AUTO 21005KT 9999NDV NCD 02/M00 Q1015=
201104042350 METAR ESMX 042350Z 22007KT CAVOK 02/00 Q1015=
201104042320 METAR ESMX 042320Z 22007KT CAVOK 02/00 Q1015=
201104042250 METAR ESMX 042250Z 22006KT CAVOK 02/M00 Q1015=
201104042220 METAR ESMX 042220Z 21006KT CAVOK 02/M00 Q1015=
201104042150 METAR ESMX 042150Z 20005KT CAVOK 02/M01 Q1015=
201104042120 METAR ESMX 042120Z 23004KT CAVOK 03/M00 Q1015=
201104042050 METAR ESMX 042050Z 23004KT CAVOK 03/M00 Q1015=
201104042020 METAR ESMX 042020Z 23005KT CAVOK 03/M00 Q1015=
201104041950 METAR ESMX 041950Z 23004KT CAVOK 04/00 Q1015=
201104041920 METAR ESMX 041920Z 24004KT CAVOK 05/00 Q1015=
201104041850 METAR ESMX 041850Z 23005KT 190V250 CAVOK 06/00 Q1014=
201104041820 METAR ESMX 041820Z 25005KT CAVOK 06/00 Q1014=
201104041750 METAR ESMX 041750Z 27006KT 240V300 CAVOK 08/00 Q1014=
201104041720 METAR ESMX 041720Z 27009KT CAVOK 09/00 Q1013=
201104041650 METAR ESMX 041650Z 27010KT 240V300 CAVOK 10/M00 Q1013=
201104041620 METAR ESMX 041620Z 27011KT 240V310 CAVOK 10/M01 Q1012=
201104041550 METAR ESMX 041550Z 26012KT 220V290 CAVOK 11/M03 Q1012=
201104041520 METAR ESMX 041520Z 26012KT 230V300 9999 FEW046 12/M01 Q1012=
201104041450 METAR ESMX 041450Z 28015KT 250V320 9999 FEW047 12/M00 Q1011=
201104041420 METAR ESMX 041420Z 27012KT 240V300 9999 FEW040 12/02 Q1011=
201104041350 METAR ESMX 041350Z 26010KT 220V290 9999 FEW039 SCT049 11/03 Q1011=
201104041320 METAR ESMX 041320Z 26012KT 230V300 9999 SCT035 13/04 Q1011=
201104041250 METAR ESMX 041250Z 27011KT 230V310 9999 FEW029 SCT033 11/04 Q1011=
201104041220 METAR ESMX 041220Z 26012KT 9999 FEW030 SCT035 11/04 Q1011=
201104041150 METAR ESMX 041150Z 27012KT 9999 SCT030 11/04 Q1011=
201104041120 METAR ESMX 041120Z 26012KT 230V300 9999 SCT025 12/04 Q1010=
201104041050 METAR ESMX 041050Z 26012G22KT 210V320 9999 SCT025 11/05 Q1010=
201104041020 METAR ESMX 041020Z 26011KT 230V290 9999 FEW021 10/05 Q1010=
201104040950 METAR ESMX 040950Z 24009KT 200V280 9999 FEW018 09/06 Q1010=
201104040920 METAR ESMX 040920Z 26008KT 210V300 9999 FEW012 BKN015 08/05 Q1010=
201104040850 METAR ESMX 040850Z 26006KT 9999 FEW006 BKN010 07/04 Q1010=
201104040820 METAR ESMX 040820Z 24006KT 9999 BKN005 06/05 Q1010=
201104040750 METAR ESMX 040750Z 26004KT 210V310 7000 BR BKN002 BKN005 05/04 Q1010=
201104040720 METAR ESMX 040720Z 28005KT 240V320 4000 BR OVC002 04/04 Q1010=
201104040650 METAR ESMX 040650Z 28005KT 3600 BR OVC002 04/04 Q1010=
201104040620 METAR ESMX 040620Z 27004KT 210V290 2200 BR VV002 04/03 Q1010=
201104040550 METAR ESMX 040550Z 27005KT 1500 BR OVC002 04/03 Q1010=
201104040520 METAR ESMX 040520Z 28005KT 1400 BR OVC001 04/03 Q1009=
201104040450 METAR ESMX 040450Z 27005KT 1800 BR OVC001 04/03 Q1009=
201104040420 METAR ESMX 040420Z 26004KT 2100 BR OVC000 04/03 Q1009=
201104040350 METAR ESMX 040350Z 27004KT 230V300 4000 BR OVC001 04/03 Q1009=
201104040320 METAR ESMX 040320Z AUTO 27004KT 240V310 3500NDV BR OVC001/// 04/03 Q1009=
201104040250 METAR ESMX 040250Z AUTO 27003KT 230V300 4300NDV BR OVC002/// 04/03 Q1009=
201104040220 METAR ESMX 040220Z AUTO 27004KT 240V300 4600NDV BR OVC002/// 04/03 Q1009=
201104040150 METAR ESMX 040150Z AUTO 27003KT 4100NDV BR OVC003/// 04/04 Q1009=
201104040120 METAR ESMX 040120Z AUTO 27003KT 240V320 4100NDV BR OVC003/// 05/04 Q1009=
201104040050 METAR ESMX 040050Z AUTO 25002KT 4900NDV BR OVC005/// 05/04 Q1010=
201104040020 METAR ESMX 040020Z AUTO VRB02KT 5000NDV BR BKN005/// 05/04 Q1010=
201104032350 METAR ESMX 032350Z 27004KT 230V300 8000 BR OVC006 05/04 Q1010=
201104032320 METAR ESMX 032320Z 27004KT 230V300 8000 BR OVC007 05/04 Q1010=
201104032250 METAR ESMX 032250Z 28002KT 6000 BR OVC007 06/04 Q1010=
201104032220 METAR ESMX 032220Z 27002KT 7000 BR BKN009 06/05 Q1010=
201104032150 METAR ESMX 032150Z 29004KT 6000 BR BKN010 06/05 Q1010=
201104032120 METAR ESMX 032120Z 24004KT 6000 BR FEW007 OVC009 07/05 Q1010=
201104032050 METAR ESMX 032050Z 26004KT 6000 BR BKN009 07/06 Q1010=
201104032020 METAR ESMX 032020Z 26004KT 220V290 5000 BR BKN015 07/06 Q1010=
201104031950 METAR ESMX 031950Z 24004KT 210V270 6000 BR BKN016 08/07 Q1010=
201104031920 METAR ESMX 031920Z 26005KT 5000 BR BKN015 08/08 Q1010=
201104031850 METAR ESMX 031850Z 27006KT 3000 BR FEW000 SCT010 BKN019 09/08 Q1010=
201104031750 METAR ESMX 031750Z 16003KT 0350 R01/0650N R19/0750 FG VV002 08/08 Q1010=
201104031720 METAR ESMX 031720Z 15004KT 0250 R01/0800N R19/0750N FG VV002 08/08 Q1010=
201104031650 METAR ESMX 031650Z 16003KT 130V190 0550 R01/1100D R19/1500N FG VV002 09/08 Q1009=
201104031620 METAR ESMX 031620Z 19004KT 0900 R01/1400N R19/1700N FG VV002 09/09 Q1009=
201104031550 METAR ESMX 031550Z 19005KT 1300 R01/1800N R19/P2000N BR VV002 09/08 Q1009=
201104031520 METAR ESMX 031520Z 20006KT 1700 BR OVC002 09/08 Q1009=
201104031450 METAR ESMX 031450Z 17004KT 150V210 2000 BR OVC002 09/08 Q1009 REDZ=
201104031420 METAR ESMX 031420Z 17005KT 140V200 1600 -RA BKN002 08/08 Q1009 RESHRA=
201104031350 METAR ESMX 031350Z 16006KT 1000 R01/1400N R19/1400N -RA VV002 08/08 Q1009=
201104031320 METAR ESMX 031320Z 17005KT 140V210 0750 R01/1200N R19/1200N FG VV002 08/08 Q1009 REDZ=
201104031250 METAR ESMX 031250Z 16005KT 140V200 0900 R01/1400N R19/1500N -RA BKN002 08/08 Q1010=
201104031220 METAR ESMX 031220Z 15005KT 100V190 1300 R01/1800N R19/P2000D BR OVC002 08/08 Q1010=
201104031150 METAR ESMX 031150Z 14004KT 2000 BR BKN002 09/08 Q1010=
201104031120 METAR ESMX 031120Z 17005KT 140V200 2500 BR BKN002 09/08 Q1010=
201104031050 METAR ESMX 031050Z 18009KT 140V200 2300 BR BKN002 OVC004 09/08 Q1010=
201104031020 METAR ESMX 031020Z 18009KT 150V210 3700 BR SCT002 OVC004 09/08 Q1009=
201104030950 METAR COR ESMX 030950Z 16011KT 120V200 4000 BR SCT003 BKN004 09/09 Q1009=
201104030920 METAR ESMX 030920Z AUTO 17011KT 140V200 3300NDV BR OVC003/// 09/08 Q1009=
201104030850 METAR ESMX 030850Z AUTO 16010KT 140V200 2600NDV BR OVC002/// 09/08 Q1010=
201104030820 METAR ESMX 030820Z AUTO 16010KT 140V200 2000NDV OVC001/// 08/08 Q1010=
201104030750 METAR ESMX 030750Z AUTO 17010KT 120V200 1400NDV R01/1600N R19/1800N OVC001/// 08/08 Q1010=
201104030720 METAR ESMX 030720Z AUTO 16010KT 120V190 0800NDV R01/1100N R19/1200N FG VV002 08/08 Q1010=
201104030650 METAR ESMX 030650Z AUTO 16009KT 0450NDV R01/0800 R19/0800N FG VV001 08/08 Q1011=
201104030620 METAR ESMX 030620Z AUTO 16009KT 130V200 0450NDV R01/0800 R19/0800N FG VV001 08/07 Q1011=
201104030550 METAR ESMX 030550Z AUTO 17009KT 120V200 0450NDV R01/0900N R19/0900N FG VV001 08/08 Q1011=
201104030520 METAR ESMX 030520Z AUTO 17008KT 130V200 0400NDV R01/0900N R19/0900N FG VV001 08/08 Q1011=
201104030450 METAR ESMX 030450Z AUTO 17009KT 130V200 0400NDV R01/1000N R19/1000N FG VV001 08/08 Q1011=
201104030420 METAR ESMX 030420Z AUTO 17009KT 140V210 0400NDV R01/1200D R19/1400D FG VV001 08/08 Q1011=
201104030350 METAR ESMX 030350Z AUTO 17010KT 0400NDV R01/1300N R19/1500N FG VV001 08/08 Q1011=
201104030320 METAR ESMX 030320Z 17010KT 0450 R01/1400N R19/1600N FG VV002 08/08 Q1012=
201104030250 METAR ESMX 030250Z 17011KT 150V210 0800 R01/P2000D R19/P2000N FG VV002 09/08 Q1012=
201104030220 METAR ESMX 030220Z 18010KT 140V200 0800 R01/P2000N R19/P2000N FG VV002 09/08 Q1012=
201104030150 METAR ESMX 030150Z 16009KT 120V190 0500 R01/1600N R19/1600U FG VV002 08/08 Q1012=
201104030120 METAR ESMX 030120Z AUTO 16007KT 130V220 0250NDV R01/0800V1200U R19/1000U FG VV001 08/08 Q1013=
201104030050 METAR ESMX 030050Z AUTO 16007KT 120V200 0250NDV R01/0900N R19/0900N FG VV001 08/08 Q1013=
201104030020 METAR ESMX 030020Z AUTO 16006KT 130V200 0250NDV R01/0800N R19/0900N FG VV000 08/08 Q1014=
201104022350 METAR ESMX 022350Z AUTO 17009KT 0350NDV R01/1200U R19/1200N FG VV001 08/08 Q1014=
201104022320 METAR ESMX 022320Z AUTO 17010KT 140V220 0400NDV R01/1200V1700D R19/1800D FG VV001 08/08 Q1014=
201104022250 METAR ESMX 022250Z AUTO 16008KT 120V200 0750NDV R01/P2000N R19/P2000N FG VV002 09/08 Q1015=
201104022220 METAR ESMX 022220Z AUTO 17006KT 140V200 1100NDV R01/P2000N R19/P2000N OVC001/// 09/08 Q1015=
201104022150 METAR ESMX 022150Z AUTO 15008KT 1100NDV R01/P2000N R19/P2000N OVC001/// 08/08 Q1015=
201104022120 METAR ESMX 022120Z AUTO 16007KT 120V190 0900NDV R01/P2000N R19/P2000N FG OVC001/// 08/08 Q1015=
201104022050 METAR ESMX 022050Z AUTO 16006KT 110V200 1600NDV BR OVC001/// 09/08 Q1015=
201104022020 METAR ESMX 022020Z AUTO 17007KT 1700NDV BR OVC001/// 09/08 Q1015=
201104021950 METAR ESMX 021950Z AUTO 16007KT 120V200 2000NDV BR OVC001/// 09/08 Q1016=
201104021920 METAR ESMX 021920Z AUTO 16008KT 130V190 3000NDV BR OVC003/// 09/08 Q1016=
201104021850 METAR ESMX 021850Z AUTO 17005KT 4200NDV BR BKN003/// OVC009/// 10/09 Q1016=
201104021820 METAR ESMX 021820Z AUTO 17006KT 130V200 4400NDV BR FEW004/// SCT005/// OVC007/// 10/09 Q1016=
201104021750 METAR ESMX 021750Z AUTO 16005KT 120V190 8000NDV BR FEW009/// OVC010/// 10/09 Q1016=
201104021720 METAR ESMX 021720Z AUTO 15006KT 8000NDV BR FEW009/// OVC010/// 10/09 Q1015=
201104021650 METAR ESMX 021650Z AUTO 14006KT 110V170 8000NDV BR SCT007/// OVC010/// 10/09 Q1015=
201104021620 METAR ESMX 021620Z AUTO 17005KT 9999NDV FEW006/// SCT008/// OVC010/// 11/09 Q1016=
201104021550 METAR ESMX 021550Z AUTO 18005KT 150V220 9000NDV SCT006/// OVC010/// 11/09 Q1016=
201104021520 METAR ESMX 021520Z AUTO 20005KT 9999NDV OVC007/// 11/09 Q1016=
201104021450 METAR ESMX 021450Z AUTO 21006KT 9999NDV OVC008/// 11/09 Q1016=
201104021420 METAR ESMX 021420Z AUTO 21007KT 9999NDV OVC006/// 11/10 Q1016=
201104021350 METAR ESMX 021350Z AUTO 20006KT 9999NDV BR OVC006/// 11/10 Q1016=
201104021320 METAR ESMX 021320Z AUTO 19005KT 150V230 8000NDV BR OVC005/// 11/10 Q1017=
201104021250 METAR ESMX 021250Z AUTO 19005KT 150V230 6000NDV BR SCT002/// BKN004/// OVC006/// 10/10 Q1017=
201104021220 METAR ESMX 021220Z AUTO 18006KT 3600NDV BR OVC001/// 10/09 Q1017=
201104021150 METAR ESMX 021150Z AUTO 18006KT 2900NDV BR OVC000/// 10/09 Q1017=
201104021120 METAR ESMX 021120Z AUTO 19005KT 160V220 1700NDV BR VV002 09/09 Q1017=
201104021050 METAR ESMX 021050Z AUTO 16005KT 130V190 1400NDV R01/1600N R19/1500N BR VV001 08/08 Q1017=
201104021020 METAR ESMX 021020Z AUTO 15005KT 1500NDV BR OVC001/// 08/08 Q1018=
201104020950 METAR ESMX 020950Z AUTO 17004KT 120V210 1700NDV BR OVC001/// 08/08 Q1018=
201104020920 METAR ESMX 020920Z AUTO 19006KT 1300NDV R01/1500N R19/1700N OVC001/// 08/08 Q1017=
201104020850 METAR ESMX 020850Z 19006KT 1200 R19/1500U BR OVC001 08/07 Q1017=
201104020820 METAR ESMX 020820Z 19006KT 0800 R01/1200N R19/1400N FG VV002 07/07 Q1017=
201104020750 METAR ESMX 020750Z 19005KT 0500 R01/0800U R19/0900N FG VV002 06/06 Q1017=
201104020720 METAR ESMX 020720Z AUTO 18004KT 0350NDV R01/0650N R19/0650N FG VV001 06/05 Q1017=
201104020650 METAR ESMX 020650Z AUTO 17005KT 140V200 0350NDV R01/0700N R19/0700N FG VV001 05/05 Q1017=
201104020620 METAR ESMX 020620Z AUTO 17004KT 120V200 0300NDV R01/0650N R19/0700N FG VV001 05/04 Q1017=
201104020550 METAR ESMX 020550Z AUTO 16003KT 0250NDV R01/0600N R19/0600N FG VV000 04/04 Q1017=
201104020520 METAR ESMX 020520Z AUTO 18004KT 0400NDV R01/0900D R19/0900D FG VV001 04/04 Q1017=
201104020450 METAR ESMX 020450Z AUTO 16003KT 1300NDV R01/P2000N R19/P2000N OVC001/// 04/03 Q1017=
201104020420 METAR ESMX 020420Z AUTO 17004KT 120V220 1200NDV R01/P2000N R19/P2000N VV002 04/03 Q1016 REDZ=
201104020350 METAR ESMX 020350Z AUTO 15005KT 0500NDV R01/1600U R19/P2000N FG VV001 04/03 Q1016=
201104020320 METAR ESMX 020320Z AUTO 16003KT 0400NDV R01/1300U R19/1300V1800U FG VV001 04/03 Q1016=
201104020250 METAR ESMX 020250Z AUTO 17003KT 140V200 0250NDV R01/0900N R19/0900N FG VV001 04/03 Q1016=
201104020220 METAR ESMX 020220Z AUTO 16003KT 110V200 0400NDV R01/1400D R19/1200VP2000D FG VV001 04/03 Q1016=
201104020150 METAR ESMX 020150Z AUTO 17003KT 4200NDV OVC002/// 04/03 Q1016=
201104020120 METAR ESMX 020120Z AUTO 14004KT 110V170 3500NDV SCT000/// OVC004/// 04/03 Q1016=
201104020050 METAR ESMX 020050Z AUTO VRB02KT 0650NDV R01/1900N R19/P2000N FG VV001 04/03 Q1016=
201104020020 METAR ESMX 020020Z AUTO VRB02KT 0450NDV R01/1400N R19/1900U FG VV000 03/03 Q1017=
201104012350 METAR ESMX 012350Z AUTO 18001KT 0300NDV R01/1100N R19/1100N FG VV001 03/03 Q1016=
201104012320 METAR ESMX 012320Z AUTO 25003KT 0350NDV R01/1200D R19/1900N FG VV001 03/03 Q1016=
201104012250 METAR ESMX 012250Z AUTO 25004KT 0500NDV R01/1100VP2000D R19/P2000N FG OVC001/// 03/03 Q1016=
201104012220 METAR ESMX 012220Z AUTO 22003KT 2200NDV BR OVC001/// 04/03 Q1016=
201104012150 METAR ESMX 012150Z AUTO 23004KT 4300NDV BR OVC003/// 04/03 Q1016=
201104012120 METAR ESMX 012120Z AUTO 26003KT 220V290 5000NDV BR OVC003/// 04/03 Q1016=
201104012050 METAR ESMX 012050Z AUTO 23005KT 190V270 8000NDV BR OVC003/// 05/03 Q1016=
201104012020 METAR ESMX 012020Z AUTO 26005KT 220V280 9999NDV BKN005/// OVC008/// 05/04 Q1016=
201104011950 METAR ESMX 011950Z AUTO 23004KT 9999NDV OVC009/// 05/04 Q1016=
201104011920 METAR ESMX 011920Z AUTO 24003KT 210V280 9999NDV OVC010/// 06/04 Q1016=
201104011850 METAR ESMX 011850Z 24004KT 200V270 9999 OVC012 06/04 Q1016=
201104011820 METAR ESMX 011820Z 26005KT 230V290 9999 FEW010 OVC013 06/05 Q1015=
201104011750 METAR ESMX 011750Z 28006KT 250V310 9999 OVC013 06/04 Q1015=
201104011720 METAR ESMX 011720Z 28005KT 250V310 9999 BKN016 07/05 Q1014=
201104011650 METAR ESMX 011650Z 27007KT 9999 FEW011 OVC016 07/05 Q1014=
201104011620 METAR ESMX 011620Z 29008KT 9999 SCT010 BKN020 07/05 Q1013=
201104011550 METAR ESMX 011550Z 28008KT 9999 SCT010 BKN035 07/06 Q1013=
201104011520 METAR ESMX 011520Z 29007KT 260V330 9999 SCT008 BKN014 07/06 Q1013=
201104011450 METAR ESMX 011450Z 28008KT 250V320 9999 FEW009 SCT012 OVC015 07/06 Q1012=
201104011420 METAR ESMX 011420Z 29008KT 260V330 9999 FEW008 BKN010 OVC014 07/06 Q1012=
201104011350 METAR ESMX 011350Z 29007KT 9999 FEW006 SCT008 BKN010 07/06 Q1011=
201104011320 METAR ESMX 011320Z 29007KT 260V320 4600 BR FEW001 SCT003 BKN006 07/06 Q1011 REDZ=
201104011250 METAR ESMX 011250Z 28007KT 2200 -RA BKN002 OVC004 07/06 Q1010=
201104011220 METAR ESMX 011220Z 29008KT 2300 BR BKN002 OVC005 07/06 Q1010=
