##########################################################
# Query made at 04/19/2024 21:21:17 UTC
# Time interval: from 03/01/2011 12:00  to 03/31/2011 12:59  UTC
##########################################################

##########################################################
# ESMX, Vaxjo (Sweden)
# WMO index: 02641. WIGOS ID: 0-20000-0-02648
# Latitude 56-51N. Longitude 014-50E. Altitude 199 m.
##########################################################

201103311250 METAR ESMX 311250Z 11006KT 060V160 6000 -RA FEW009 BKN011 04/02 Q1013=
201103311220 METAR ESMX 311220Z 13005KT 050V190 6000 -RA SCT010 BKN023 04/02 Q1014=
201103311150 METAR ESMX 311150Z 11005KT 060V200 7000 -RA FEW019 BKN045 03/02 Q1014=
201103311120 METAR ESMX 311120Z 12005KT 080V230 8000 DZ FEW015 SCT022 04/02 Q1015=
201103311050 METAR ESMX 311050Z 14007KT 090V200 9000 DZ SCT016 BKN025 04/01 Q1015=
201103311020 METAR ESMX 311020Z 13008KT 070V170 9999 OVC016 04/M00 Q1015=
201103310950 METAR ESMX 310950Z 14007KT 110V190 9999 OVC014 04/M00 Q1016=
201103310920 METAR ESMX 310920Z 11006KT 050V170 9999 OVC014 03/M01 Q1016=
201103310850 METAR ESMX 310850Z 12007KT 070V200 9999 BKN013 03/M01 Q1016=
201103310820 METAR ESMX 310820Z 13007KT 080V200 9999 BKN012 02/M02 Q1016=
201103310750 METAR ESMX 310750Z 12006KT 060V190 9999 FEW012 BKN015 02/M03 Q1016=
201103310720 METAR ESMX 310720Z 12005KT 070V220 9999 FEW013 OVC017 01/M03 Q1017=
201103310650 METAR ESMX 310650Z 13005KT 080V170 9999 BKN016 01/M04 Q1017=
201103310620 METAR ESMX 310620Z 12006KT 060V160 9999 BKN016 BKN040 01/M04 Q1017=
201103310550 METAR ESMX 310550Z 13005KT 090V170 9999 SCT015 BKN040 00/M04 Q1017=
201103310520 METAR ESMX 310520Z 12004KT 050V200 9999 -SN SCT008 BKN015 00/M03 Q1017=
201103310450 METAR ESMX 310450Z VRB04KT 9999 -SN OVC010 00/M02 Q1017=
201103310420 METAR ESMX 310420Z 11005KT 050V150 9999 -SN BKN011 M00/M02 Q1017=
201103310350 METAR ESMX 310350Z 11005KT 040V210 8000 -SN BKN010 00/M02 Q1017=
201103310320 METAR ESMX 310320Z AUTO 11004KT 030V160 7000NDV -RA OVC008/// 00/M01 Q1017 REDZ=
201103310250 METAR ESMX 310250Z AUTO 13004KT 070V180 9999NDV DZ BKN008/// BKN053/// 00/M02 Q1017=
201103310220 METAR ESMX 310220Z AUTO 13004KT 070V180 9999NDV BKN008/// BKN062/// 00/M02 Q1017=
201103310150 METAR ESMX 310150Z AUTO 13003KT 090V160 9999NDV BKN063/// 00/M03 Q1017=
201103310120 METAR ESMX 310120Z AUTO 13003KT 090V170 9999NDV BKN070/// 00/M02 Q1017=
201103310050 METAR ESMX 310050Z AUTO VRB01KT 9999NDV BKN073/// M00/M02 Q1017=
201103310020 METAR ESMX 310020Z AUTO VRB01KT 9999NDV FEW080/// M01/M03 Q1018=
201103302350 METAR ESMX 302350Z AUTO VRB02KT 9999NDV FEW089/// M01/M03 Q1018=
201103302320 METAR ESMX 302320Z VRB02KT CAVOK M00/M03 Q1018=
201103302250 METAR ESMX 302250Z VRB02KT CAVOK M00/M03 Q1018=
201103302220 METAR ESMX 302220Z VRB02KT CAVOK M01/M04 Q1018=
201103302150 METAR ESMX 302150Z VRB02KT CAVOK M00/M04 Q1017=
201103302120 METAR ESMX 302120Z 13003KT 060V170 CAVOK M00/M04 Q1017=
201103302050 METAR ESMX 302050Z 14003KT 090V180 CAVOK 00/M04 Q1017=
201103302020 METAR ESMX 302020Z 14004KT 100V170 CAVOK 01/M05 Q1017=
201103301950 METAR ESMX 301950Z 13004KT 080V170 CAVOK 01/M05 Q1017=
201103301920 METAR ESMX 301920Z 13004KT 080V160 CAVOK 01/M04 Q1017=
201103301850 METAR ESMX 301850Z 14003KT 110V170 CAVOK 02/M03 Q1017=
201103301750 METAR ESMX 301750Z 15004KT CAVOK 03/M02 Q1016=
201103301720 METAR ESMX 301720Z 16004KT 130V200 CAVOK 04/M02 Q1016=
201103301650 METAR ESMX 301650Z 16005KT 120V200 CAVOK 04/M02 Q1016=
201103301620 METAR ESMX 301620Z 16006KT CAVOK 05/M02 Q1016=
201103301550 METAR ESMX 301550Z 15005KT 100V190 CAVOK 05/M02 Q1015=
201103301520 METAR ESMX 301520Z 15006KT 110V210 CAVOK 05/M02 Q1015=
201103301450 METAR ESMX 301450Z 18006KT 160V220 CAVOK 05/M01 Q1015=
201103301420 METAR ESMX 301420Z 18008KT 9999 BKN045 05/M00 Q1015=
201103301350 METAR ESMX 301350Z 18006KT 140V210 9999 BKN040 06/00 Q1015=
201103301320 METAR ESMX 301320Z 18008KT 9999 BKN040 05/M00 Q1015=
201103301250 METAR ESMX 301250Z 19009KT 150V230 9999 FEW040 SCT050 07/M01 Q1015=
201103301220 METAR ESMX 301220Z 16004KT 080V230 9999 FEW045 BKN050 07/M03 Q1015=
201103301150 METAR ESMX 301150Z VRB05KT 9999 FEW045 SCT070 07/M04 Q1015=
201103301120 METAR ESMX 301120Z 17007KT 140V200 9999 FEW043 SCT068 07/M04 Q1015=
201103301050 METAR ESMX 301050Z 17007KT 080V200 9999 SCT030 06/M03 Q1015=
201103301020 METAR ESMX 301020Z 17006KT 100V230 9999 FEW040 06/M04 Q1014=
201103300950 METAR ESMX 300950Z 06005KT 360V100 CAVOK 06/M06 Q1014=
201103300920 METAR ESMX 300920Z 09004KT 020V170 CAVOK 07/M04 Q1014=
201103300850 METAR ESMX 300850Z VRB03KT CAVOK 05/M02 Q1014=
201103300820 METAR ESMX 300820Z 03003KT 010V070 CAVOK 04/01 Q1014=
201103300750 METAR ESMX 300750Z VRB01KT CAVOK 02/01 Q1014=
201103300720 METAR ESMX 300720Z VRB02KT 9999 VCFG NSC 01/00 Q1013=
201103300650 METAR ESMX 300650Z 02002KT 9999 VCFG NSC M01/M01 Q1013=
201103300620 METAR ESMX 300620Z 00000KT 9999 R19/0900V1500U BCFG FEW150 M02/M02 Q1013=
201103300550 METAR ESMX 300550Z 35001KT 0500 R01/0900U R19/0750D FZFG VV002 M03/M03 Q1012=
201103300520 METAR ESMX 300520Z 08001KT 0500 R01/0750U R19/1000U FZFG VV002 M03/M03 Q1012=
201103300450 METAR ESMX 300450Z 00000KT 0300 R01/0700 R19/0900N FZFG VV001 M03/M03 Q1012=
201103300420 METAR ESMX 300420Z 00000KT 0500 R01/1000VP2000U R19/1000VP2000D=
201103300350 METAR ESMX 300350Z 18002KT 0300 R01/P2000D R19/0800V1500U FZFG VV001 M02/M03 Q1011=
201103300320 METAR ESMX 300320Z AUTO 00000KT 0250NDV R01/0900V1400D R19/0800=
201103300250 METAR ESMX 300250Z AUTO 00000KT 0650NDV R01/P2000D R19/P2000D FZFG SCT065/// M02/M03 Q1011=
201103300220 METAR ESMX 300220Z AUTO 19001G20KT 5000NDV BR BKN065/// M01/M02 Q1010=
201103300150 METAR ESMX 300150Z AUTO 00000KT 7000NDV BR FEW024/// OVC065/// M01/M01 Q1010=
201103300120 METAR ESMX 300120Z AUTO 20001KT 9999NDV OVC063/// M00/M01 Q1010=
201103300050 METAR ESMX 300050Z AUTO 20001KT 9999NDV OVC061/// 00/M00 Q1010=
201103300020 METAR ESMX 300020Z AUTO VRB01KT 9999NDV FEW048/// OVC063/// 00/M01 Q1010=
201103292350 METAR ESMX 292350Z AUTO 35001KT 9999NDV OVC045/// 01/00 Q1009=
201103292320 METAR ESMX 292320Z VRB01KT 9999 OVC045 02/00 Q1009=
201103292250 METAR ESMX 292250Z VRB01KT 9999 OVC038 02/00 Q1009=
201103292220 METAR ESMX 292220Z 20002KT 9999 SCT018 OVC027 02/00 Q1008=
201103292150 METAR ESMX 292150Z 01003KT 9999 SCT011 OVC016 02/00 Q1008=
201103292120 METAR ESMX 292120Z 31004KT 8000 DZ FEW008 SCT010 OVC013 03/01 Q1008=
201103292050 METAR ESMX 292050Z 27006KT 9999 FEW008 SCT019 BKN039 03/01 Q1008=
201103292020 METAR ESMX 292020Z 26006KT 9999 BKN043 BKN059 03/01 Q1007=
201103291950 METAR ESMX 291950Z 25007KT 9999 FEW040 03/01 Q1006=
201103291920 METAR ESMX 291920Z 21010KT 9999 FEW026 SCT037 04/02 Q1006=
201103291850 METAR ESMX 291850Z 23007KT 9999 FEW026 SCT034 BKN038 04/02 Q1006=
201103291820 METAR ESMX 291820Z 25008KT 220V280 9999 FEW034 BKN040 04/02 Q1006=
201103291750 METAR ESMX 291750Z 25008KT 210V280 9999 FEW029 BKN041 04/02 Q1006=
201103291720 METAR ESMX 291720Z 23010KT 200V260 9999 FEW024 BKN042 04/02 Q1005=
201103291650 METAR ESMX 291650Z 24009KT 9999 FEW014 BKN039 04/02 Q1005=
201103291620 METAR ESMX 291620Z 23009KT 9000 -RA SCT013 BKN028 04/03 Q1005=
201103291550 METAR ESMX 291550Z 24011KT 190V260 8000 -DZRA FEW012 BKN017 04/03 Q1005=
201103291520 METAR ESMX 291520Z 23011KT 200V270 9999 BR FEW011 SCT013 BKN016 04/02 Q1005=
201103291450 METAR ESMX 291450Z 23011KT 190V250 8000 -DZRA BKN011 OVC016 04/02 Q1005=
201103291350 METAR ESMX 291350Z 25010KT 200V270 8000 -DZRA OVC011 04/02 Q1005=
201103291320 METAR ESMX 291320Z 25010KT 9999 BKN012 OVC016 05/02 Q1005=
201103291250 METAR ESMX 291250Z 23011KT 190V260 9999 OVC012 04/02 Q1005=
201103291220 METAR ESMX 291220Z 25011KT 9999 BKN010 04/02 Q1005=
201103291150 METAR ESMX 291150Z 24010G20KT 200V260 9999 BKN007 OVC009 04/02 Q1005=
201103291050 METAR ESMX 291050Z 24012KT 7000 BR OVC006 03/02 Q1005=
201103291020 METAR ESMX 291020Z 24012KT 210V280 8000 BR OVC006 03/01 Q1005=
201103290950 METAR ESMX 290950Z 23012KT 190V260 9999 FEW008 OVC010 03/01 Q1005=
201103290920 METAR ESMX 290920Z 22011KT 9999 BKN012 03/01 Q1005 REDZ=
201103290850 METAR ESMX 290850Z 24010KT 9999 BKN012 03/01 Q1005=
201103290820 METAR ESMX 290820Z 24011KT 210V290 9999 BKN011 03/00 Q1005=
201103290750 METAR ESMX 290750Z 25011KT 210V300 9999 OVC010 02/00 Q1006=
201103290720 METAR ESMX 290720Z 24009KT 9999 OVC009 02/00 Q1006=
201103290650 METAR ESMX 290650Z 22009KT 200V270 9999 BKN008 02/00 Q1006=
201103290620 METAR ESMX 290620Z 21009KT 9999 SCT008 BKN010 01/00 Q1006=
201103290550 METAR ESMX 290550Z 23008KT 7000 BR FEW005 SCT006 OVC008 01/00 Q1006 RESN=
201103290520 METAR ESMX 290520Z 23007KT 2600 -SN BKN007 BKN010 01/M00 Q1006=
201103290450 METAR ESMX 290450Z 21005KT 190V250 4000 -SN FEW005 BKN008 00/M01 Q1006=
201103290420 METAR ESMX 290420Z 24006KT 5000 -SN BKN007 BKN011 00/M01 Q1007=
201103290350 METAR ESMX 290350Z 24006KT 8000 -SN OVC007 00/M01 Q1007=
201103290320 METAR ESMX 290320Z AUTO 23006KT 9999NDV OVC007/// 00/M01 Q1007=
201103290250 METAR ESMX 290250Z AUTO 24006KT 9999NDV OVC007/// M00/M02 Q1007=
201103290220 METAR ESMX 290220Z AUTO 22005KT 9999NDV SCT007/// M01/M02 Q1007=
201103290150 METAR ESMX 290150Z AUTO 21006KT 9999NDV NCD M01/M03 Q1008=
201103290120 METAR ESMX 290120Z AUTO 21005KT 9999NDV NCD M01/M03 Q1008=
201103290050 METAR ESMX 290050Z AUTO 23005KT 9999NDV NCD M01/M04 Q1008=
201103290020 METAR ESMX 290020Z AUTO 23005KT 9999NDV NCD M01/M05 Q1008=
201103282350 METAR ESMX 282350Z AUTO 22005KT 9999NDV FEW044/// SCT050/// M01/M06 Q1009=
201103282320 METAR ESMX 282320Z 23005KT 9999 SCT046 M01/M06 Q1009=
201103282250 METAR ESMX 282250Z 23005KT CAVOK M01/M06 Q1009=
201103282220 METAR ESMX 282220Z 24005KT CAVOK M01/M06 Q1009=
201103282150 METAR ESMX 282150Z 22004KT CAVOK M01/M06 Q1009=
201103282120 METAR ESMX 282120Z 24004KT CAVOK M01/M07 Q1009=
201103282050 METAR ESMX 282050Z 25003KT CAVOK M01/M07 Q1009=
201103282020 METAR ESMX 282020Z 24004KT CAVOK M01/M08 Q1009=
201103281950 METAR ESMX 281950Z 21002KT CAVOK M01/M09 Q1009=
201103281920 METAR ESMX 281920Z 23008KT CAVOK M03/M07 Q1009=
201103281850 METAR ESMX 281850Z 18003KT CAVOK M01/M07 Q1009=
201103281820 METAR ESMX 281820Z 18001KT CAVOK M01/M07 Q1009=
201103281750 METAR ESMX 281750Z VRB01KT CAVOK 01/M09 Q1009=
201103281720 METAR ESMX 281720Z 32003KT CAVOK 04/M10 Q1009=
201103281650 METAR ESMX 281650Z 31006KT 270V330 CAVOK 05/M11 Q1008=
201103281620 METAR ESMX 281620Z 29007KT 240V330 CAVOK 06/M11 Q1008=
201103281550 METAR ESMX 281550Z 30007KT 260V350 CAVOK 06/M11 Q1008=
201103281520 METAR ESMX 281520Z 34007KT 300V030 CAVOK 07/M09 Q1008=
201103281450 METAR ESMX 281450Z 34008KT 310V020 CAVOK 07/M09 Q1008=
201103281420 METAR ESMX 281420Z 29007KT CAVOK 07/M09 Q1008=
201103281350 METAR ESMX 281350Z 34009KT 300V010 CAVOK 07/M10 Q1007=
201103281320 METAR ESMX 281320Z 35007KT 300V040 CAVOK 07/M07 Q1007=
201103281250 METAR ESMX 281250Z 35005KT 290V030 9999 FEW040 06/M07 Q1007=
201103281220 METAR ESMX 281220Z 36006KT 330V030 9999 FEW025 06/M06 Q1007=
201103281150 METAR ESMX 281150Z 01005KT 320V070 9999 FEW025 05/M06 Q1007=
201103281120 METAR ESMX 281120Z 02007KT 340V050 9999 FEW025 05/M03 Q1007=
201103281050 METAR ESMX 281050Z 02007KT 330V050 9999 SCT020 05/M03 Q1006=
201103281020 METAR ESMX 281020Z 34009KT 9999 SCT020 04/M01 Q1006=
201103280950 METAR ESMX 280950Z 02008KT 9999 FEW018 SCT023 BKN026 04/M01 Q1006=
201103280920 METAR ESMX 280920Z 34009KT 9999 FEW016 SCT020 BKN025 02/M00 Q1005=
201103280850 METAR ESMX 280850Z 01008KT 340V040 9999 SCT012 BKN020 02/00 Q1005=
201103280820 METAR ESMX 280820Z 02011KT 9999 -RASN FEW011 SCT015 OVC020 02/M00 Q1004=
201103280750 METAR ESMX 280750Z 35007KT 320V020 9999 SCT009 BKN015 02/01 Q1004=
201103280720 METAR ESMX 280720Z 34007KT 9999 SCT007 BKN015 02/01 Q1003=
201103280650 METAR ESMX 280650Z 32006KT 9999 FEW006 BKN012 02/01 Q1003=
201103280620 METAR ESMX 280620Z 30004KT 9999 SCT005 BKN009 01/01 Q1002 RERA=
201103280550 METAR ESMX 280550Z 29003KT 5000 -RA OVC002 01/00 Q1002=
201103280520 METAR ESMX 280520Z 28003KT 4700 -RA OVC002 01/00 Q1001=
201103280450 METAR ESMX 280450Z 27005KT 5000 -RA OVC002 01/00 Q1001 REDZ=
201103280420 METAR ESMX 280420Z 25005KT 210V280 3700 -DZ FEW003 OVC005 01/00 Q1001=
201103280350 METAR ESMX 280350Z 26005KT 230V300 3100 -RA OVC004 01/00 Q1001=
201103280320 METAR ESMX 280320Z 23007KT 8000 -RA OVC004 01/00 Q1001=
201103280250 METAR ESMX 280250Z AUTO 25008KT 220V280 9999NDV -RA SCT005/// BKN007/// OVC009/// 01/00 Q1001=
201103280220 METAR ESMX 280220Z AUTO 23009KT 200V260 9999NDV -RA BKN005/// OVC010/// 01/00 Q1000=
201103280150 METAR ESMX 280150Z AUTO 22009KT 6000NDV -RA SCT005/// BKN007/// OVC009/// 01/00 Q1001=
201103280120 METAR ESMX 280120Z AUTO 22010KT 3900NDV -RA OVC005/// 01/M00 Q1001=
201103280050 METAR ESMX 280050Z AUTO 22011KT 9000NDV -RA OVC006/// 01/M00 Q1001=
201103280020 METAR ESMX 280020Z AUTO 23012KT 9000NDV -RA OVC006/// 01/M00 Q1001=
201103272350 METAR ESMX 272350Z 24010KT 7000 -SNRA OVC007 01/M01 Q1002=
201103272320 METAR ESMX 272320Z 24011KT 9999 -RASN BKN008 OVC011 01/M01 Q1002=
201103272250 METAR ESMX 272250Z 23011KT 5000 -RA BKN010 OVC015 01/M01 Q1003 RESHRA=
201103272220 METAR ESMX 272220Z 24010KT 210V290 6000 -SN FEW012 BKN014 BKN019 01/M01 Q1003=
201103272150 METAR ESMX 272150Z 24012KT 8000 -RASN FEW010 SCT021 BKN027 01/M02 Q1003=
201103272120 METAR ESMX 272120Z 22009KT 9999 FEW021 BKN031 01/M04 Q1004=
201103272050 METAR ESMX 272050Z 23010KT 9999 -RA FEW100 01/M04 Q1004=
201103272020 METAR ESMX 272020Z 23013KT 200V270 9999 SHSN FEW028 01/M05 Q1004=
201103271950 METAR ESMX 271950Z 21012KT 9999 FEW035 01/M05 Q1005=
201103271920 METAR ESMX 271920Z 21009KT CAVOK 01/M05 Q1005=
201103271850 METAR ESMX 271850Z 22009KT 9999 FEW045 01/M06 Q1006=
201103271820 METAR ESMX 271820Z 22008G20KT CAVOK 01/M06 Q1006=
201103271750 METAR ESMX 271750Z 22009KT 190V250 CAVOK 01/M07 Q1007=
201103271720 METAR ESMX 271720Z 22010KT 190V250 CAVOK 02/M08 Q1007=
201103271650 METAR ESMX 271650Z 25009KT CAVOK 02/M08 Q1007=
201103271620 METAR ESMX 271620Z 25011KT 210V290 9999 FEW044 02/M08 Q1007=
201103271550 METAR ESMX 271550Z 25013KT 9999 FEW044 03/M08 Q1008=
201103271520 METAR ESMX 271520Z 24013G23KT 210V280 9999 SCT044 03/M08 Q1008=
201103271450 METAR ESMX 271450Z 26012KT 9999 SCT045 03/M08 Q1008=
201103271350 METAR ESMX 271350Z 25012KT 9999 BKN045 03/M07 Q1010=
201103271320 METAR ESMX 271320Z 26014KT 210V290 9999 BKN049 03/M07 Q1010=
201103271250 METAR ESMX 271250Z 26014KT 220V290 9999 FEW047 BKN053 03/M08 Q1010=
201103271220 METAR ESMX 271220Z 24014KT 200V290 9999 BKN048 03/M08 Q1011=
201103271150 METAR ESMX 271150Z 24013KT 9999 BKN048 03/M08 Q1011=
201103271120 METAR ESMX 271120Z 26015KT 9999 BKN047 03/M09 Q1011=
201103271050 METAR ESMX 271050Z 22017KT 190V260 9999 BKN046 02/M08 Q1012=
201103271020 METAR ESMX 271020Z 22017KT 9999 BKN041 BKN059 03/M07 Q1012=
201103270950 METAR ESMX 270950Z 24015KT 210V280 9999 BKN041 03/M07 Q1013=
201103270920 METAR ESMX 270920Z 23012KT 200V260 9999 FEW045 02/M07 Q1013=
201103270850 METAR ESMX 270850Z 23011KT 200V260 9999 FEW044 SCT050 01/M06 Q1013=
201103270820 METAR ESMX 270820Z AUTO 23011KT 170V250 9999NDV FEW043/// BKN052/// 00/M06 Q1014=
201103270750 METAR ESMX 270750Z AUTO 22010KT 9999NDV FEW038/// BKN061/// M01/M06 Q1014=
201103270720 METAR ESMX 270720Z AUTO 21007KT 9999NDV FEW048/// SCT060/// M02/M07 Q1014=
201103270650 METAR ESMX 270650Z AUTO 20007KT 9999NDV FEW045/// BKN060/// M03/M07 Q1015=
201103270620 METAR ESMX 270620Z AUTO 20007KT 9999NDV FEW046/// BKN055/// M04/M07 Q1015=
201103270550 METAR ESMX 270550Z AUTO 22007KT 9999NDV FEW052/// M05/M07 Q1015=
201103270520 METAR ESMX 270520Z AUTO 22006KT 9999NDV NCD M06/M08 Q1015=
201103270450 METAR ESMX 270450Z AUTO 22006KT 9999NDV NCD M07/M09 Q1015=
201103270420 METAR ESMX 270420Z AUTO 22006KT 9999NDV NCD M07/M09 Q1016=
201103270350 METAR ESMX 270350Z AUTO 22004KT 9999NDV NCD M07/M10 Q1016=
201103270320 METAR ESMX 270320Z AUTO 22004KT 9999NDV NCD M07/M10 Q1016=
201103270250 METAR ESMX 270250Z AUTO 23003KT 9999NDV NCD M08/M10 Q1016=
201103270220 METAR ESMX 270220Z AUTO 24005KT 9999NDV NCD M07/M11 Q1017=
201103270150 METAR ESMX 270150Z AUTO 23005KT 9999NDV NCD M07/M10 Q1017=
201103270120 METAR ESMX 270120Z AUTO 25005KT 9999NDV NCD M07/M11 Q1017=
201103270050 METAR ESMX 270050Z AUTO 23005KT 9999NDV NCD M07/M11 Q1016=
201103270020 METAR ESMX 270020Z AUTO 24004KT 9999NDV NCD M06/M11 Q1016=
201103262350 METAR ESMX 262350Z AUTO 23005KT 9999NDV NCD M06/M11 Q1017=
201103262320 METAR ESMX 262320Z AUTO 24003KT 9999NDV NCD M05/M11 Q1016=
201103262250 METAR ESMX 262250Z AUTO 28002KT 9999NDV NCD M05/M12 Q1017=
201103262220 METAR ESMX 262220Z AUTO 28003KT 9999NDV NCD M04/M12 Q1017=
201103262150 METAR ESMX 262150Z AUTO 27004KT 9999NDV NCD M04/M12 Q1017=
201103262120 METAR ESMX 262120Z AUTO 27003KT 9999NDV NCD M03/M13 Q1017=
201103262050 METAR ESMX 262050Z AUTO 27003KT 9999NDV NCD M03/M14 Q1017=
201103262020 METAR ESMX 262020Z AUTO 27004KT 9999NDV NCD M03/M15 Q1017=
201103261950 METAR ESMX 261950Z AUTO 28006KT 9999NDV NCD M02/M16 Q1017=
201103261920 METAR ESMX 261920Z AUTO 25005KT 9999NDV NCD M04/M15 Q1016=
201103261850 METAR ESMX 261850Z AUTO 24004KT 9999NDV NCD M04/M12 Q1016=
201103261820 METAR ESMX 261820Z AUTO 26002KT 9999NDV NCD M03/M16 Q1016=
201103261750 METAR ESMX 261750Z AUTO 26003KT 9999NDV NCD M00/M18 Q1016=
201103261720 METAR ESMX 261720Z AUTO 26004KT 9999NDV NCD 01/M19 Q1016=
201103261650 METAR ESMX 261650Z AUTO 28006KT 250V320 9999NDV NCD 02/M19 Q1015=
201103261620 METAR ESMX 261620Z AUTO 28006KT 240V320 9999NDV NCD 03/M19 Q1016=
201103261550 METAR ESMX 261550Z AUTO 33004KT 260V020 9999NDV NCD 03/M20 Q1016=
201103261520 METAR ESMX 261520Z AUTO 24006KT 200V290 9999NDV NCD 03/M19 Q1015=
201103261450 METAR ESMX 261450Z AUTO 28007KT 240V320 9999NDV NCD 04/M19 Q1015=
201103261420 METAR ESMX 261420Z AUTO 28005KT 240V310 9999NDV BKN088/// 02/M20 Q1015=
201103261350 METAR ESMX 261350Z AUTO 32004KT 240V020 9999NDV FEW089/// 04/M19 Q1015=
201103261320 METAR ESMX 261320Z AUTO 34004KT 260V030 9999NDV NCD 04/M21 Q1015=
201103261250 METAR ESMX 261250Z 32003KT 230V050 CAVOK 03/M21 Q1016=
201103261220 METAR ESMX 261220Z 02007KT 330V050 CAVOK 03/M17 Q1016=
201103261150 METAR ESMX 261150Z 36009KT 310V020 CAVOK 03/M18 Q1016=
201103261120 METAR ESMX 261120Z 01005KT 350V060 CAVOK 03/M17 Q1016=
201103261050 METAR ESMX 261050Z 32006KT 280V010 CAVOK 02/M16 Q1016=
201103261020 METAR ESMX 261020Z 01006KT 330V060 CAVOK 02/M15 Q1016=
201103260950 METAR ESMX 260950Z 01007KT CAVOK 01/M14 Q1016=
201103260920 METAR ESMX 260920Z 35005KT 290V040 CAVOK 01/M13 Q1015=
201103260850 METAR ESMX 260850Z 32008KT 280V350 CAVOK 00/M11 Q1015=
201103260820 METAR ESMX 260820Z 36006KT CAVOK M01/M10 Q1015=
201103260750 METAR ESMX 260750Z 35006KT 320V020 CAVOK M02/M10 Q1015=
201103260720 METAR ESMX 260720Z AUTO 36006KT 320V030 9999NDV NCD M02/M08 Q1014=
201103260650 METAR ESMX 260650Z AUTO 35006KT 9999NDV NCD M03/M08 Q1014=
201103260620 METAR ESMX 260620Z AUTO 36004KT 9999NDV NCD M05/M09 Q1014=
201103260550 METAR ESMX 260550Z AUTO 35004KT 9999NDV NCD M07/M09 Q1014=
201103260520 METAR ESMX 260520Z AUTO 33002KT 9999NDV NCD M08/M10 Q1013=
201103260450 METAR ESMX 260450Z AUTO 33003KT 9999NDV NCD M09/M10 Q1013=
201103260420 METAR ESMX 260420Z AUTO 34003KT 9999NDV NCD M08/M09 Q1013=
201103260350 METAR ESMX 260350Z AUTO 33002KT 9999NDV NCD M08/M09 Q1013=
201103260320 METAR ESMX 260320Z AUTO 34002KT 9999NDV NCD M08/M09 Q1012=
201103260250 METAR ESMX 260250Z AUTO 31002KT 9999NDV NCD M08/M09 Q1012=
201103260220 METAR ESMX 260220Z AUTO 29001KT 9999NDV NCD M07/M09 Q1012=
201103260150 METAR ESMX 260150Z AUTO 29002KT 9999NDV NCD M06/M08 Q1012=
201103260120 METAR ESMX 260120Z AUTO 34001KT 9999NDV NCD M06/M09 Q1012=
201103260050 METAR ESMX 260050Z AUTO VRB01KT 9999NDV FEW100/// M06/M09 Q1012=
201103260020 METAR ESMX 260020Z AUTO 29002KT 9999NDV SCT100/// M06/M09 Q1011=
201103252350 METAR ESMX 252350Z AUTO 31001KT 9999NDV SCT097/// M06/M09 Q1011=
201103252320 METAR ESMX 252320Z AUTO 32001KT 9999NDV FEW094/// M05/M09 Q1011=
201103252250 METAR ESMX 252250Z AUTO 36002KT 9999NDV NCD M05/M09 Q1011=
201103252220 METAR ESMX 252220Z AUTO 36002KT 9999NDV NCD M04/M08 Q1010=
201103252150 METAR ESMX 252150Z AUTO 36003KT 9999NDV NCD M04/M09 Q1010=
201103252120 METAR ESMX 252120Z AUTO 34002KT 9999NDV NCD M04/M08 Q1010=
201103252050 METAR ESMX 252050Z 35002KT CAVOK M03/M08 Q1010=
201103252020 METAR ESMX 252020Z 36003KT CAVOK M03/M08 Q1010=
201103251950 METAR ESMX 251950Z 34003KT CAVOK M02/M08 Q1010=
201103251920 METAR ESMX 251920Z 01004KT CAVOK M02/M08 Q1010=
201103251850 METAR ESMX 251850Z 36003KT CAVOK M01/M10 Q1009=
201103251820 METAR ESMX 251820Z 01003KT CAVOK M00/M10 Q1009=
201103251750 METAR ESMX 251750Z 35005KT CAVOK 00/M09 Q1009=
201103251720 METAR ESMX 251720Z 01008KT CAVOK 01/M12 Q1009=
201103251650 METAR ESMX 251650Z 02010KT CAVOK 02/M12 Q1009=
201103251620 METAR ESMX 251620Z 02011KT CAVOK 03/M13 Q1009=
201103251550 METAR ESMX 251550Z 36010KT 320V020 CAVOK 03/M12 Q1008=
201103251520 METAR ESMX 251520Z 36010KT CAVOK 04/M11 Q1008=
201103251450 METAR ESMX 251450Z 35011KT CAVOK 04/M10 Q1008=
201103251420 METAR ESMX 251420Z 01007KT CAVOK 05/M09 Q1008=
201103251350 METAR ESMX 251350Z 34008KT CAVOK 05/M08 Q1008=
201103251320 METAR ESMX 251320Z 36009KT 320V040 CAVOK 05/M08 Q1008=
201103251250 METAR ESMX 251250Z 36007KT 320V030 CAVOK 05/M08 Q1009=
201103251220 METAR ESMX 251220Z 31008KT 280V340 CAVOK 05/M08 Q1009=
201103251150 METAR ESMX 251150Z AUTO 31008KT 260V330 9999NDV FEW049/// 04/M07 Q1009=
201103251120 METAR ESMX 251120Z AUTO 01006KT 9999NDV NCD 04/M06 Q1009=
201103251020 METAR ESMX 251020Z 02005KT 340V070 9999 FEW025 04/M05 Q1010=
201103250950 METAR ESMX 250950Z 04005KT 9999 FEW023 BKN055 03/M04 Q1010=
201103250920 METAR ESMX 250920Z 01004KT 320V030 9999 FEW020 BKN055 03/M03 Q1010=
201103250850 METAR ESMX 250850Z 36004KT 340V050 9999 FEW022 OVC054 03/M02 Q1010=
201103250820 METAR ESMX 250820Z 36005KT 9999 SCT016 BKN021 OVC050 02/M01 Q1011=
201103250750 METAR ESMX 250750Z 33005KT 9999 FEW011 SCT013 BKN017 02/M00 Q1011=
201103250720 METAR ESMX 250720Z 34006KT 9999 BKN010 BKN046 02/00 Q1011=
201103250650 METAR ESMX 250650Z 31005KT 9999 FEW009 BKN010 OVC046 02/00 Q1011=
201103250620 METAR ESMX 250620Z 30004KT 260V340 9999 FEW009 OVC044 02/00 Q1011=
201103250520 METAR ESMX 250520Z 30004KT 9999 SCT011 BKN100 02/00 Q1011=
201103250450 METAR ESMX 250450Z 30005KT 260V330 9999 FEW008 BKN012 02/01 Q1011=
201103250420 METAR ESMX 250420Z AUTO 29004KT 9999NDV BKN008/// BKN011/// 02/01 Q1012=
201103250350 METAR ESMX 250350Z AUTO 28005KT 9999NDV FEW008/// SCT011/// 02/01 Q1012=
201103250320 METAR ESMX 250320Z AUTO 27005KT 9999NDV NCD 02/00 Q1012=
201103250250 METAR ESMX 250250Z AUTO 27004KT 9999NDV NCD 02/01 Q1013=
201103250220 METAR ESMX 250220Z AUTO 28005KT 9999NDV FEW044/// 02/01 Q1013=
201103250150 METAR ESMX 250150Z AUTO 28007KT 260V340 9999NDV FEW011/// 02/01 Q1013=
201103250120 METAR ESMX 250120Z AUTO 28007KT 9999NDV FEW012/// 03/01 Q1014=
201103250050 METAR ESMX 250050Z 28007KT 9999 FEW010 03/01 Q1014=
201103250020 METAR ESMX 250020Z 28008KT 250V320 9999 FEW010 03/01 Q1014=
201103242350 METAR ESMX 242350Z 28010KT 9999 FEW010 03/01 Q1014=
201103242320 METAR ESMX 242320Z 28010KT 9999 FEW010 04/02 Q1015=
201103242250 METAR COR ESMX 242250Z 27008KT 9999 SCT010 04/02 Q1015=
201103242220 METAR ESMX 242220Z 27007KT 9999 FEW012 04/02 Q1016=
201103242150 METAR ESMX 242150Z 27008KT CAVOK 05/02 Q1016=
201103242120 METAR ESMX 242120Z 28007KT CAVOK 06/02 Q1016=
201103242050 METAR ESMX 242050Z 28010KT CAVOK 06/02 Q1016=
201103242020 METAR ESMX 242020Z 29011KT CAVOK 06/02 Q1017=
201103241950 METAR ESMX 241950Z 29010KT CAVOK 07/01 Q1017=
201103241920 METAR ESMX 241920Z 29011KT 250V320 CAVOK 07/01 Q1017=
201103241850 METAR ESMX 241850Z 28011KT CAVOK 07/01 Q1017=
201103241820 METAR ESMX 241820Z 28010KT 250V320 CAVOK 07/01 Q1017=
201103241750 METAR ESMX 241750Z 28009KT CAVOK 08/02 Q1017=
201103241720 METAR ESMX 241720Z 29012KT 250V320 CAVOK 09/02 Q1017=
201103241650 METAR ESMX 241650Z 28014G24KT CAVOK 09/02 Q1017=
201103241620 METAR ESMX 241620Z 29014KT CAVOK 10/02 Q1017=
201103241550 METAR ESMX 241550Z 29016KT 260V330 CAVOK 10/02 Q1018=
201103241520 METAR ESMX 241520Z 27019G29KT 240V300 CAVOK 11/02 Q1018=
201103241450 METAR ESMX 241450Z 29020KT 250V330 9999 FEW045 12/01 Q1018=
201103241420 METAR ESMX 241420Z 29016G27KT 250V320 9999 FEW045 12/01 Q1018=
201103241350 METAR ESMX 241350Z 28019KT 9999 FEW045 12/02 Q1018=
201103241320 METAR ESMX 241320Z 29019KT 250V320 9999 FEW046 SCT056 12/02 Q1018=
201103241250 METAR ESMX 241250Z 28018G28KT 9999 FEW044 SCT049 13/02 Q1018=
201103241220 METAR ESMX 241220Z 29023KT 9999 FEW041 SCT055 12/02 Q1019=
201103241150 METAR ESMX 241150Z 28014G24KT 240V320 9999 SCT045 12/02 Q1019=
201103241120 METAR ESMX 241120Z 29017KT 240V330 9999 FEW042 12/03 Q1019=
201103241050 METAR ESMX 241050Z 30017G27KT 270V330 9999 FEW030 12/03 Q1019=
201103241020 METAR ESMX 241020Z 29016KT 260V330 9999 FEW025 11/03 Q1019=
201103240950 METAR ESMX 240950Z 28018KT 9999 FEW020 11/04 Q1019=
201103240920 METAR ESMX 240920Z 29015G28KT 260V350 9999 FEW018 10/04 Q1019=
201103240850 METAR ESMX 240850Z 28014KT CAVOK 09/04 Q1019=
201103240820 METAR ESMX 240820Z 28014KT 250V310 CAVOK 09/04 Q1019=
201103240750 METAR ESMX 240750Z 28015KT 9999 FEW019 08/03 Q1019=
201103240720 METAR ESMX 240720Z 28013G23KT 250V320 9999 FEW013 07/04 Q1019=
201103240650 METAR ESMX 240650Z 29013KT 9999 BKN011 06/03 Q1020=
201103240620 METAR ESMX 240620Z 28014G25KT 9999 BKN011 06/03 Q1020=
201103240550 METAR ESMX 240550Z 29013KT 9999 BKN011 06/03 Q1020=
201103240520 METAR ESMX 240520Z 28014KT 9999 BKN011 06/03 Q1019=
201103240450 METAR ESMX 240450Z 28014KT 9999 BKN011 06/03 Q1019=
201103240420 METAR ESMX 240420Z AUTO 28015KT 9999NDV BKN011/// BKN015/// 05/03 Q1019=
201103240350 METAR ESMX 240350Z AUTO 28013G23KT 9999NDV OVC010/// 05/03 Q1019=
201103240320 METAR ESMX 240320Z AUTO 28014KT 9999NDV OVC010/// 05/03 Q1019=
201103240250 METAR ESMX 240250Z AUTO 28014KT 240V310 9999NDV BKN010/// 05/03 Q1019=
201103240220 METAR ESMX 240220Z AUTO 28013KT 250V320 9999NDV OVC011/// 05/03 Q1019=
201103240150 METAR ESMX 240150Z AUTO 27012KT 9999NDV BKN012/// BKN016/// 05/02 Q1020=
201103240120 METAR ESMX 240120Z AUTO 27013KT 9999NDV SCT012/// 05/02 Q1020=
201103240050 METAR ESMX 240050Z 27013KT 9999 SCT015 05/02 Q1020=
201103240020 METAR ESMX 240020Z 27014KT CAVOK 05/02 Q1020=
201103232350 METAR ESMX 232350Z 27015G26KT CAVOK 05/02 Q1020=
201103232320 METAR ESMX 232320Z 27014KT CAVOK 05/02 Q1020=
201103232250 METAR ESMX 232250Z 27013KT CAVOK 05/02 Q1020=
201103232220 METAR ESMX 232220Z 27014KT CAVOK 05/02 Q1021=
201103232150 METAR ESMX 232150Z 27016KT CAVOK 06/02 Q1021=
201103232120 METAR ESMX 232120Z 28016KT CAVOK 06/02 Q1021=
201103232020 METAR ESMX 232020Z 28019KT 9999 FEW020 06/02 Q1021=
201103231950 METAR ESMX 231950Z 27019KT 230V300 9999 SCT018 06/03 Q1021=
201103231850 METAR ESMX 231850Z 27015KT 250V320 9999 BKN017 06/03 Q1022=
201103231820 METAR ESMX 231820Z 26013KT 240V300 9999 OVC018 06/03 Q1022=
201103231750 METAR ESMX 231750Z 26014G24KT 9999 BKN018 06/02 Q1023=
201103231720 METAR ESMX 231720Z 27015KT 9999 OVC020 06/02 Q1023=
201103231650 METAR ESMX 231650Z 26012G22KT 230V320 9999 BKN021 06/02 Q1023=
201103231620 METAR ESMX 231620Z 27013G28KT 230V290 9999 OVC021 06/02 Q1024=
201103231550 METAR ESMX 231550Z 26014G26KT 220V290 9999 OVC022 06/01 Q1024=
201103231520 METAR ESMX 231520Z 26014G26KT 230V300 9999 OVC023 06/01 Q1025=
201103231450 METAR ESMX 231450Z 26014KT 9999 BKN025 07/01 Q1026=
201103231420 METAR ESMX 231420Z 26014KT 230V290 9999 BKN025 07/01 Q1027=
201103231350 METAR ESMX 231350Z 25014KT 210V280 9999 BKN028 07/00 Q1027=
201103231320 METAR ESMX 231320Z 24013G23KT 210V280 9999 FEW032 07/00 Q1027=
201103231250 METAR ESMX 231250Z 26017G28KT CAVOK 07/M00 Q1028=
201103231220 METAR ESMX 231220Z 27015G25KT 230V310 CAVOK 07/00 Q1029=
201103231150 METAR ESMX 231150Z 24015KT CAVOK 07/M00 Q1029=
201103231050 METAR ESMX 231050Z 23011KT 200V280 CAVOK 07/M00 Q1030=
201103231020 METAR ESMX 231020Z 25012KT CAVOK 07/00 Q1031=
201103230950 METAR ESMX 230950Z 25008KT 230V290 CAVOK 08/M01 Q1031=
201103230920 METAR ESMX 230920Z 23006KT CAVOK 06/M01 Q1032=
201103230850 METAR ESMX 230850Z 24006KT CAVOK 06/M01 Q1032=
201103230820 METAR ESMX 230820Z 25007KT CAVOK 05/M01 Q1032=
201103230750 METAR ESMX 230750Z 26005KT CAVOK 04/M01 Q1032=
201103230720 METAR ESMX 230720Z 27005KT CAVOK 03/M02 Q1032=
201103230650 METAR ESMX 230650Z 25004KT CAVOK 02/M02 Q1032=
201103230620 METAR ESMX 230620Z 25003KT 200V290 CAVOK 01/M02 Q1032=
201103230550 METAR ESMX 230550Z VRB02KT CAVOK 00/M03 Q1032=
201103230520 METAR ESMX 230520Z 27003KT 230V330 CAVOK 01/M02 Q1031=
201103230450 METAR ESMX 230450Z 28005KT CAVOK 01/M02 Q1031=
201103230420 METAR ESMX 230420Z 29005KT CAVOK 01/M02 Q1031=
201103230350 METAR ESMX 230350Z AUTO 28005KT 9999NDV NCD 02/M03 Q1031=
201103230320 METAR ESMX 230320Z AUTO 28007KT 9999NDV NCD 02/M03 Q1030=
201103230250 METAR ESMX 230250Z AUTO 27007KT 9999NDV NCD 02/M03 Q1030=
201103230220 METAR ESMX 230220Z AUTO 28007KT 9999NDV NCD 03/M03 Q1030=
201103230150 METAR ESMX 230150Z AUTO 30006KT 9999NDV NCD 03/M03 Q1030=
201103230120 METAR ESMX 230120Z AUTO 30006KT 9999NDV NCD 03/M03 Q1029=
201103230050 METAR ESMX 230050Z AUTO 31006KT 9999NDV NCD 03/M03 Q1029=
201103230020 METAR ESMX 230020Z 30006KT CAVOK 03/M02 Q1029=
201103222350 METAR ESMX 222350Z 31007KT CAVOK 03/M02 Q1028=
201103222320 METAR ESMX 222320Z 31007KT 280V340 CAVOK 03/M01 Q1028=
201103222250 METAR ESMX 222250Z 29006KT CAVOK 03/M01 Q1027=
201103222220 METAR ESMX 222220Z 30003KT 250V340 CAVOK 03/M01 Q1027=
201103222150 METAR ESMX 222150Z 29004KT CAVOK 03/00 Q1027=
201103222120 METAR ESMX 222120Z 32003KT 280V360 CAVOK 04/00 Q1027=
201103222050 METAR ESMX 222050Z 28008KT 250V310 CAVOK 05/01 Q1026=
201103222020 METAR ESMX 222020Z 27008KT 230V320 CAVOK 05/01 Q1026=
201103221950 METAR ESMX 221950Z 26009KT 230V290 CAVOK 05/01 Q1026=
201103221920 METAR ESMX 221920Z 26008KT 220V300 CAVOK 06/02 Q1025=
201103221850 METAR ESMX 221850Z 27009KT 240V300 CAVOK 06/02 Q1025=
201103221820 METAR ESMX 221820Z 27010KT 240V310 CAVOK 06/03 Q1024=
201103221750 METAR ESMX 221750Z 27011KT 230V300 CAVOK 07/03 Q1024=
201103221720 METAR ESMX 221720Z 27013KT 9999 FEW020 07/04 Q1023=
201103221650 METAR ESMX 221650Z 26013G23KT 9999 FEW019 08/04 Q1023=
201103221620 METAR ESMX 221620Z 26015KT 230V290 9999 BKN018 08/05 Q1023=
201103221550 METAR ESMX 221550Z 27015G25KT 240V310 9999 SCT017 BKN022 09/05 Q1023=
201103221520 METAR ESMX 221520Z 26020KT 9999 FEW018 SCT020 BKN024 10/06 Q1023=
201103221450 METAR ESMX 221450Z 26016KT 9999 FEW019 BKN024 10/06 Q1023=
201103221420 METAR ESMX 221420Z 26018KT 230V300 9999 SCT024 11/06 Q1023=
201103221350 METAR ESMX 221350Z 26015G25KT 220V290 9999 SCT018 10/06 Q1023=
201103221320 METAR ESMX 221320Z 26014KT 230V290 9999 BKN019 11/06 Q1024=
201103221250 METAR ESMX 221250Z 27017G28KT 240V300 9999 BKN021 11/06 Q1023=
201103221220 METAR ESMX 221220Z 27016KT 250V310 9999 FEW022 12/06 Q1023=
201103221150 METAR ESMX 221150Z 27016KT 9999 FEW022 11/06 Q1023=
201103221120 METAR ESMX 221120Z 27018G28KT 9999 FEW020 11/05 Q1023=
201103221050 METAR ESMX 221050Z 25013G23KT 9999 FEW020 10/05 Q1024=
201103220950 METAR ESMX 220950Z 24015KT 9999 FEW010 09/05 Q1024=
201103220920 METAR ESMX 220920Z 24010KT 200V280 9999 FEW008 SCT012 07/04 Q1024=
201103220850 METAR ESMX 220850Z 26013KT 9999 BKN007 BKN014 06/04 Q1024=
201103220820 METAR ESMX 220820Z 27010KT 210V290 9000 BR OVC005 06/04 Q1024=
201103220750 METAR ESMX 220750Z 25010KT 220V280 8000 BR BKN004 OVC007 05/04 Q1024=
201103220720 METAR ESMX 220720Z 25009KT 200V270 6000 BR OVC002 05/04 Q1024=
201103220650 METAR ESMX 220650Z 25009KT 220V280 4500 BR OVC002 04/04 Q1024=
201103220620 METAR ESMX 220620Z 26009KT 3000 BR OVC002 04/03 Q1024=
201103220550 METAR ESMX 220550Z 25009KT 220V280 3000 BR BKN002 04/03 Q1024=
201103220520 METAR ESMX 220520Z 24009KT 200V260 2400 BR OVC002 04/03 Q1024=
201103220450 METAR ESMX 220450Z 25009KT 210V280 2000 BR OVC002 04/03 Q1024=
201103220420 METAR ESMX 220420Z 25010KT 1200 R01/P2000N R19/P2000N BR OVC002 04/03 Q1023=
201103220350 METAR ESMX 220350Z AUTO 25010KT 220V280 1700NDV BR OVC001/// 04/03 Q1024=
201103220320 METAR ESMX 220320Z AUTO 26009KT 230V290 3000NDV BR OVC002/// 04/03 Q1023=
201103220250 METAR ESMX 220250Z AUTO 26010KT 3600NDV BR OVC002/// 04/04 Q1023=
201103220220 METAR ESMX 220220Z AUTO 24008KT 210V270 4800NDV BR OVC002/// 05/04 Q1023=
201103220150 METAR ESMX 220150Z AUTO 24008KT 210V280 3600NDV BR OVC002/// 05/04 Q1024=
201103220120 METAR ESMX 220120Z AUTO 24011KT 210V270 3900NDV BR OVC002/// 05/04 Q1024=
201103220050 METAR ESMX 220050Z 25010KT 220V290 5000 BR OVC003 05/04 Q1024=
201103220020 METAR ESMX 220020Z 25011KT 220V290 5000 BR OVC003 05/04 Q1024=
201103212350 METAR ESMX 212350Z 26011KT 5000 BR OVC004 05/04 Q1024=
201103212320 METAR ESMX 212320Z 26014KT 6000 BR OVC005 05/04 Q1024=
201103212250 METAR ESMX 212250Z 26013G24KT 230V310 9000 BR OVC006 06/04 Q1024=
201103212220 METAR ESMX 212220Z 26011KT 9999 OVC008 06/04 Q1024=
201103212150 METAR ESMX 212150Z 25009KT 220V290 9999 BR BKN010 OVC015 06/04 Q1024=
201103212120 METAR ESMX 212120Z 25010KT 200V290 9999 BKN015 06/04 Q1024=
201103212050 METAR ESMX 212050Z 25010KT 220V290 9000 BR BKN016 06/04 Q1024=
201103212020 METAR ESMX 212020Z 24009KT 7000 BR NSC 06/04 Q1025=
201103211950 METAR ESMX 211950Z 24009KT 210V270 7000 BR FEW012 05/04 Q1024=
201103211920 METAR ESMX 211920Z 24008KT 220V290 6000 BR NSC 05/03 Q1024=
201103211850 METAR ESMX 211850Z 24007KT 210V280 5000 BR SCT012 05/03 Q1024=
201103211820 METAR ESMX 211820Z 22006KT 4600 BR FEW010 SCT014 05/03 Q1025=
201103211750 METAR ESMX 211750Z 24008KT 5000 BR SCT012 05/03 Q1024=
201103211720 METAR ESMX 211720Z 25009KT 6000 BR SCT011 06/03 Q1024=
201103211650 METAR ESMX 211650Z 25012KT 220V280 7000 BR SCT012 06/04 Q1024=
201103211550 METAR ESMX 211550Z 26013KT 230V300 7000 BR OVC012 07/04 Q1024=
201103211520 METAR ESMX 211520Z 25011KT 8000 BR OVC012 07/04 Q1024=
201103211450 METAR ESMX 211450Z 25014KT 200V300 8000 BR BKN013 07/04 Q1024=
201103211420 METAR ESMX 211420Z 26012KT 9000 BR BKN013 08/04 Q1024=
201103211350 METAR ESMX 211350Z 26014KT 230V290 9999 BR SCT014 08/04 Q1024=
201103211320 METAR ESMX 211320Z 26013KT 230V300 9000 BR SCT010 07/04 Q1024=
201103211250 METAR ESMX 211250Z 26012KT 220V290 8000 BR OVC009 07/04 Q1024=
201103211220 METAR ESMX 211220Z 25010KT 220V280 7000 BR BKN010 BKN028 06/04 Q1025=
201103211150 METAR ESMX 211150Z 24010KT 200V270 6000 BR OVC008 06/03 Q1025=
201103211120 METAR ESMX 211120Z 24008KT 200V270 5000 BR BKN007 OVC009 05/03 Q1025=
201103211050 METAR ESMX 211050Z 25010KT 5000 BR OVC006 04/03 Q1025=
201103211020 METAR ESMX 211020Z 24008KT 4400 BR OVC006 04/02 Q1025=
201103210950 METAR ESMX 210950Z 23007KT 200V260 3500 BR OVC006 03/02 Q1025=
201103210920 METAR ESMX 210920Z 24008KT 210V280 4500 BR OVC007 03/01 Q1025=
201103210850 METAR ESMX 210850Z 22009KT 190V260 4500 BR OVC007 03/01 Q1025=
201103210820 METAR ESMX 210820Z 23010KT 190V250 4300 BR OVC006 02/01 Q1025=
201103210750 METAR ESMX 210750Z 24008KT 5000 BR BKN008 02/00 Q1025=
201103210720 METAR ESMX 210720Z 23007KT 190V260 7000 BR BKN008 OVC018 01/M00 Q1025=
201103210650 METAR ESMX 210650Z 23010KT 200V260 9000 FEW011 OVC021 01/M01 Q1025=
201103210620 METAR ESMX 210620Z 24007KT 9999 FEW024 OVC034 01/M01 Q1025=
201103210550 METAR ESMX 210550Z 23010KT 9999 BKN031 01/M02 Q1025=
201103210520 METAR ESMX 210520Z 22010KT 9999 FEW036 01/M02 Q1025=
201103210450 METAR ESMX 210450Z 20009KT 9000 BR NSC M00/M02 Q1025=
201103210420 METAR ESMX 210420Z AUTO 22007KT 9000NDV BR NCD 00/M02 Q1026=
201103210350 METAR ESMX 210350Z AUTO 22008KT 8000NDV BR NCD 00/M02 Q1026=
201103210320 METAR ESMX 210320Z AUTO 23008KT 7000NDV BR NCD 00/M01 Q1026=
201103210250 METAR ESMX 210250Z AUTO 22008KT 5000NDV BR NCD 01/M01 Q1026=
201103210220 METAR ESMX 210220Z AUTO 23008KT 4700NDV BR NCD 01/M00 Q1026=
201103210150 METAR ESMX 210150Z AUTO 22008KT 3500NDV BR FEW005/// SCT006/// 01/00 Q1026=
201103210120 METAR ESMX 210120Z AUTO 21007KT 3300NDV BR BKN004/// BKN007/// 01/01 Q1026=
201103210050 METAR ESMX 210050Z 22009KT 190V250 3000 BR OVC003 01/01 Q1027=
201103210020 METAR ESMX 210020Z 23007KT 3000 BR OVC002 01/00 Q1027=
201103202350 METAR ESMX 202350Z 22008KT 1000 R01/P2000N R19/P2000N FG VV002 00/M00 Q1027=
201103202320 METAR ESMX 202320Z 22007KT 0650 R01/P1700D R19/P2000N FZFG VV002 M00/M01 Q1027=
201103202250 METAR ESMX 202250Z 22007KT 200V020 2000 BR OVC002 M00/M01 Q1027=
201103202220 METAR ESMX 202220Z 22006KT 9999 OVC003 M00/M01 Q1028=
201103202150 METAR ESMX 202150Z 23006KT 200V260 9999 OVC004 M01/M01 Q1028=
201103202120 METAR ESMX 202120Z 24006KT 210V280 9999 OVC005 M01/M02 Q1028=
201103202050 METAR ESMX 202050Z 25005KT 9999 OVC005 M00/M02 Q1028=
201103202020 METAR ESMX 202020Z 23006KT 200V280 9999 OVC006 M00/M02 Q1028=
201103201950 METAR ESMX 201950Z 25007KT 220V290 9999 OVC005 M00/M01 Q1028=
201103201920 METAR ESMX 201920Z 24006KT 9999 BKN006 M00/M01 Q1028=
201103201850 METAR ESMX 201850Z 23005KT 210V270 9999 BKN007 M00/M02 Q1029=
201103201820 METAR ESMX 201820Z 25005KT 200V290 9999 FEW009 M00/M02 Q1029=
201103201750 METAR ESMX 201750Z 24004KT 9999 SCT010 00/M02 Q1029=
201103201720 METAR ESMX 201720Z 25005KT 210V280 9999 FEW012 01/M01 Q1028=
201103201650 METAR ESMX 201650Z 26006KT 230V290 9999 FEW015 02/M01 Q1028=
201103201620 METAR ESMX 201620Z 26007KT 230V290 9999 FEW015 03/M01 Q1028=
201103201550 METAR ESMX 201550Z 25008KT CAVOK 03/M01 Q1028=
201103201520 METAR ESMX 201520Z 26009KT 230V290 CAVOK 04/M01 Q1028=
201103201450 METAR ESMX 201450Z 25008KT 210V290 CAVOK 05/M01 Q1028=
201103201420 METAR ESMX 201420Z 24008KT 200V290 9999 FEW025 05/M01 Q1028=
201103201350 METAR ESMX 201350Z 26008KT 240V300 CAVOK 05/M01 Q1029=
201103201320 METAR ESMX 201320Z 26007KT 220V290 CAVOK 04/M02 Q1029=
201103201250 METAR ESMX 201250Z 26006KT 210V290 CAVOK 03/M01 Q1029=
201103201220 METAR ESMX 201220Z 25008KT 220V290 CAVOK 02/M01 Q1029=
201103201150 METAR ESMX 201150Z 24008KT CAVOK 03/M02 Q1029=
201103201120 METAR ESMX 201120Z 24007KT 220V310 CAVOK 03/M02 Q1029=
201103201050 METAR ESMX 201050Z 24006KT 220V280 CAVOK 03/M02 Q1029=
201103201020 METAR ESMX 201020Z 23005KT 190V260 CAVOK 02/M02 Q1029=
201103200950 METAR ESMX 200950Z 23005KT CAVOK 02/M02 Q1028=
201103200920 METAR ESMX 200920Z AUTO 22004KT 190V270 9999NDV NCD 01/M01 Q1029=
201103200850 METAR ESMX 200850Z AUTO 19004KT 9999NDV NCD M01/M01 Q1029=
201103200820 METAR ESMX 200820Z AUTO 22004KT 4900NDV BR NCD M01/M02 Q1029=
201103200750 METAR ESMX 200750Z AUTO VRB01KT 9999NDV NCD M02/M03 Q1028=
201103200720 METAR ESMX 200720Z AUTO 21002KT 9999NDV SCT001/// M03/M04 Q1028=
201103200650 METAR ESMX 200650Z AUTO 00000KT 1000NDV R01/0800VP2000U R19/P2000N=
201103200620 METAR ESMX 200620Z AUTO 36001KT 0500NDV R01/0800 R19/P2000 FZFG VV001 M05/M06 Q1028=
201103200550 METAR ESMX 200550Z AUTO 00000KT 0250NDV R01/0650 R19/0800VP2000=
201103200520 METAR ESMX 200520Z AUTO 00000KT 0150NDV R01/0225V0550 R19/0750V1400D FZFG VV001 M06/M07 Q1028=
201103200450 METAR ESMX 200450Z AUTO 00000KT 0250NDV R01/0900V1500D R19/0800=
201103200420 METAR ESMX 200420Z AUTO VRB01KT 0300NDV R01/0800VP2000U R19/1000V1800N FZFG VV000 M06/M07 Q1027=
201103200350 METAR ESMX 200350Z AUTO 35001KT 0150NDV R01/0700 R19/0900V1400D=
201103200320 METAR ESMX 200320Z AUTO 00000KT 0200NDV R01/0900 R19/0750 FZFG VV000 M05/M05 Q1028=
201103200250 METAR ESMX 200250Z AUTO 00000KT 0150NDV R01/0700 R19/0700N FZFG VV000 M05/M05 Q1028=
201103200220 METAR ESMX 200220Z AUTO 00000KT 0100NDV R01/0500 R19/0450V0700N=
201103200150 METAR ESMX 200150Z AUTO 00000KT 0450NDV R01/1000VP2000D R19/P2000N BCFG FEW000/// M03/M03 Q1027=
201103200120 METAR ESMX 200120Z AUTO 27001KT 1100NDV R01/P2000N R19/P2000N NCD M03/M04 Q1027=
201103200050 METAR ESMX 200050Z AUTO 24002KT 9999NDV BCFG NCD M04/M04 Q1027=
201103200020 METAR ESMX 200020Z AUTO 00000KT 0250NDV R01/P2000N R19/0800V1200=
201103192350 METAR ESMX 192350Z AUTO 27002KT 4400NDV NCD M03/M04 Q1027=
201103192320 METAR ESMX 192320Z AUTO 26001KT 9000NDV NCD M03/M04 Q1027=
201103192250 METAR ESMX 192250Z AUTO 25001KT 9999NDV NCD M01/M02 Q1027=
201103192220 METAR ESMX 192220Z AUTO 26004KT 9999NDV NCD M01/M02 Q1027=
201103192150 METAR ESMX 192150Z AUTO 26005KT 9999NDV NCD M00/M01 Q1027=
201103192120 METAR ESMX 192120Z AUTO 26005KT 9999NDV FEW030/// 00/M01 Q1027=
201103192050 METAR ESMX 192050Z AUTO 26005KT 9999NDV BKN029/// 01/M01 Q1027=
201103192020 METAR ESMX 192020Z AUTO 25004KT 9999NDV FEW032/// SCT037/// 00/M01 Q1027=
201103191950 METAR ESMX 191950Z AUTO 23005KT 9999NDV BKN030/// 01/M00 Q1027=
201103191920 METAR ESMX 191920Z AUTO 23004KT 9999NDV BKN032/// M00/M01 Q1027=
201103191850 METAR ESMX 191850Z AUTO 23004KT 9999NDV BKN032/// M00/M01 Q1027=
201103191820 METAR ESMX 191820Z AUTO 23003KT 9999NDV FEW035/// 00/M01 Q1026=
201103191750 METAR ESMX 191750Z AUTO 22004KT 9999NDV NCD 00/M01 Q1026=
201103191720 METAR ESMX 191720Z AUTO 22004KT 9999NDV NCD 02/00 Q1026=
201103191650 METAR ESMX 191650Z AUTO 20004KT 9999NDV FEW028/// 02/00 Q1026=
201103191620 METAR ESMX 191620Z AUTO 26002KT 9999NDV BKN030/// 03/00 Q1026=
201103191550 METAR ESMX 191550Z AUTO 26004KT 230V290 9999NDV FEW023/// BKN028/// 04/00 Q1025=
201103191520 METAR ESMX 191520Z AUTO 28005KT 9999NDV OVC026/// 04/00 Q1025=
201103191450 METAR ESMX 191450Z AUTO 29005KT 250V330 9999NDV OVC025/// 03/00 Q1025=
201103191420 METAR ESMX 191420Z AUTO 28006KT 9999NDV FEW014/// SCT018/// BKN021/// 03/M00 Q1025=
201103191350 METAR ESMX 191350Z AUTO 28007KT 250V320 9999NDV FEW013/// SCT019/// OVC023/// 04/00 Q1025=
201103191320 METAR ESMX 191320Z AUTO 26008KT 220V290 9999NDV FEW014/// BKN019/// 03/M00 Q1025=
201103191250 METAR ESMX 191250Z AUTO 28009KT 9999NDV FEW012/// BKN014/// OVC019/// 03/M00 Q1025=
201103191220 METAR ESMX 191220Z 28008KT 250V310 9999 SCT011 BKN014 03/M00 Q1025=
201103191150 METAR ESMX 191150Z 28009KT 9999 FEW010 OVC013 03/M00 Q1025=
201103191120 METAR ESMX 191120Z 29008KT 260V340 9999 BKN010 02/M00 Q1025=
201103191020 METAR ESMX 191020Z 29007KT 9999 OVC010 02/M00 Q1024=
201103190950 METAR ESMX 190950Z 29008KT 9999 OVC010 02/M01 Q1024=
201103190920 METAR ESMX 190920Z 29011KT 250V320 9999 FEW013 SCT015 02/M01 Q1024=
201103190850 METAR ESMX 190850Z 29010KT 9999 FEW018 02/M02 Q1023=
201103190820 METAR ESMX 190820Z 28007KT 240V320 9999 FEW010 01/M02 Q1023=
201103190750 METAR ESMX 190750Z 26005KT 230V300 9999 FEW010 01/M02 Q1023=
201103190720 METAR ESMX 190720Z AUTO 28004KT 240V330 9999NDV NCD M00/M02 Q1022=
201103190650 METAR ESMX 190650Z AUTO 27003KT 230V030 9999NDV BKN006/// M01/M02 Q1022=
201103190620 METAR ESMX 190620Z AUTO 26003KT 200V300 9999NDV BKN007/// M01/M02 Q1022=
201103190550 METAR ESMX 190550Z AUTO 27005KT 230V320 9999NDV BKN008/// M01/M02 Q1022=
201103190520 METAR ESMX 190520Z AUTO 29005KT 240V320 9999NDV FEW008/// BKN010/// M00/M02 Q1021=
201103190450 METAR ESMX 190450Z AUTO 29008KT 9999NDV SCT008/// BKN011/// M00/M02 Q1021=
201103190420 METAR ESMX 190420Z AUTO 28008KT 9999NDV BKN008/// 00/M02 Q1021=
201103190350 METAR ESMX 190350Z AUTO 29007KT 9999NDV BKN008/// M00/M02 Q1020=
201103190320 METAR ESMX 190320Z AUTO 29008KT 9999NDV BKN008/// 00/M02 Q1020=
201103190250 METAR ESMX 190250Z AUTO 29008KT 9999NDV OVC008/// 00/M01 Q1019=
201103190220 METAR ESMX 190220Z AUTO 27008KT 240V320 9999NDV OVC007/// M00/M01 Q1019=
201103190150 METAR ESMX 190150Z AUTO 29006KT 260V330 9999NDV FEW008/// OVC009/// M00/M02 Q1019=
201103190120 METAR ESMX 190120Z AUTO 28007KT 9999NDV BR FEW008/// BKN011/// M00/M02 Q1019=
201103190050 METAR ESMX 190050Z AUTO 27007KT 8000NDV BR FEW008/// M01/M02 Q1019=
201103190020 METAR ESMX 190020Z AUTO 27005KT 9000NDV BR NCD M00/M01 Q1018=
201103182350 METAR ESMX 182350Z AUTO 27006KT 240V300 9000NDV BR FEW009/// BKN026/// 00/M01 Q1018=
201103182320 METAR ESMX 182320Z AUTO 29007KT 9000NDV BR FEW008/// OVC010/// 00/M01 Q1018=
201103182250 METAR ESMX 182250Z AUTO 29008KT 250V320 6000NDV BR BKN004/// OVC008/// 00/M00 Q1017=
201103182220 METAR ESMX 182220Z AUTO 28007KT 3500NDV BR OVC003/// 00/M00 Q1017=
201103182150 METAR ESMX 182150Z AUTO 28006KT 3000NDV BR OVC004/// 00/M00 Q1017=
201103182120 METAR ESMX 182120Z AUTO 28007KT 3200NDV BR OVC004/// 00/M00 Q1016=
201103182050 METAR ESMX 182050Z 29006KT 260V330 4000 BR BKN002 OVC005 00/M00 Q1016=
201103182020 METAR ESMX 182020Z 28005KT 2300 BR OVC002 00/M00 Q1016=
201103181950 METAR ESMX 181950Z 26005KT 210V320 3100 BR FEW003 OVC004 00/M00 Q1016=
201103181920 METAR ESMX 181920Z 26005KT 5000 BR OVC005 00/M00 Q1016=
201103181850 METAR ESMX 181850Z 26005KT 4200 BR OVC004 00/M00 Q1015=
201103181820 METAR ESMX 181820Z 26005KT 5000 BR OVC005 01/M00 Q1015=
201103181750 METAR ESMX 181750Z 26004KT 210V290 6000 BR BKN004 OVC007 01/M00 Q1014=
201103181720 METAR ESMX 181720Z 26004KT 6000 BR OVC005 01/M00 Q1014=
201103181650 METAR ESMX 181650Z 27005KT 240V310 8000 BR OVC006 01/M00 Q1014=
201103181620 METAR ESMX 181620Z 28005KT 7000 BR OVC006 01/M00 Q1013=
201103181550 METAR ESMX 181550Z 27004KT 240V300 7000 BR FEW005 OVC009 01/M00 Q1013=
201103181520 METAR ESMX 181520Z 27006KT 240V310 6000 BR SCT003 OVC007 01/M00 Q1013=
201103181450 METAR ESMX 181450Z 27006KT 5000 BR OVC003 01/M00 Q1013=
201103181420 METAR ESMX 181420Z 26005KT 5000 BR OVC003 01/00 Q1013=
201103181350 METAR ESMX 181350Z 24004KT 210V280 8000 BR OVC004 01/M00 Q1012=
201103181320 METAR ESMX 181320Z 23005KT 190V250 7000 BR OVC004 01/M00 Q1012=
201103181250 METAR ESMX 181250Z 23005KT 7000 BR FEW003 OVC005 01/M00 Q1012=
201103181220 METAR ESMX 181220Z 23303KT 9000 BR OVC006 01/00 Q1012=
201103181150 METAR ESMX 181150Z 22004KT 9000 BR OVC005 01/M00 Q1012=
201103181120 METAR ESMX 181120Z AUTO 19004KT 150V210 9000NDV BR OVC006/// 01/M00 Q1012=
201103181050 METAR ESMX 181050Z 20004KT 9000 BR OVC006 01/M01 Q1011=
201103181020 METAR ESMX 181020Z 18004KT 120V210 9000 BR OVC005 01/M01 Q1012=
201103180950 METAR ESMX 180950Z VRB02KT 7000 BR BKN005 OVC008 01/M01 Q1012=
201103180920 METAR ESMX 180920Z VRB02KT 5000 -SN BKN005 OVC007 00/M01 Q1012=
201103180850 METAR ESMX 180850Z 12003KT 080V170 2700 -SN FEW005 OVC006 00/M00 Q1012=
201103180820 METAR ESMX 180820Z VRB02KT 2500 -SN FEW004 BKN005 00/M01 Q1012=
201103180750 METAR ESMX 180750Z 16002KT 3000 -SN BKN005 M00/M01 Q1012=
201103180720 METAR ESMX 180720Z VRB02KT 2500 -SN OVC005 M00/M01 Q1012=
201103180650 METAR ESMX 180650Z 13003KT 070V190 2500 -SN FEW004 OVC005 M00/M01 Q1012=
201103180620 METAR ESMX 180620Z 11003KT 080V170 2800 -SN FEW003 BKN006 BKN008 M00/M01 Q1011=
201103180550 METAR ESMX 180550Z 11003KT 070V150 1600 -SN FEW002 SCT005 BKN007 M00/M01 Q1011=
201103180520 METAR ESMX 180520Z 09003KT 060V160 1300 R01/P2000N R19/P2000N -SN FEW002 SCT007 M00/M01 Q1011=
201103180450 METAR ESMX 180450Z 08003KT 050V110 1300 R01/P2000N R19/P2000N -SN FEW003 OVC006 M00/M01 Q1011=
201103180420 METAR ESMX 180420Z VRB02KT 2000 -SN FEW004 BKN006 BKN008 M00/M01 Q1012=
201103180350 METAR ESMX 180350Z 07003KT 040V110 1500 -SN VV007 M00/M01 Q1012=
201103180320 METAR ESMX 180320Z AUTO 07003KT 030V100 2100NDV -SN FEW008/// SCT012/// M00/M01 Q1012=
201103180250 METAR ESMX 180250Z AUTO 07003KT 020V110 2300NDV -SN FEW004/// SCT008/// M00/M01 Q1012=
201103180220 METAR ESMX 180220Z AUTO 06003KT 1700NDV -SN FEW005/// SCT010/// BKN013/// M00/M01 Q1012=
201103180150 METAR ESMX 180150Z AUTO VRB02KT 3100NDV -SN FEW010/// BKN013/// M00/M01 Q1012=
201103180120 METAR ESMX 180120Z AUTO 07004KT 030V110 3900NDV -SN FEW010/// BKN013/// BKN019/// M00/M01 Q1012=
201103180050 METAR ESMX 180050Z 07004KT 030V120 4600 -SN FEW009 SCT011 OVC014 M00/M01 Q1012=
201103180020 METAR ESMX 180020Z 06004KT 020V110 8000 -SN FEW008 BKN010 OVC015 M00/M01 Q1013=
201103172350 METAR ESMX 172350Z 06004KT 030V100 8000 -SN FEW008 SCT016 BKN021 M00/M01 Q1013=
201103172320 METAR ESMX 172320Z 04005KT 360V090 9000 -SN FEW014 OVC021 M00/M01 Q1013=
201103172250 METAR ESMX 172250Z 06005KT 020V110 3200 -SN FEW022 SCT035 M00/M01 Q1013=
201103172220 METAR ESMX 172220Z 06006KT 020V100 9999 -SN FEW013 OVC033 M00/M01 Q1014=
201103172150 METAR ESMX 172150Z 06006KT 030V100 9999 -SN OVC034 M00/M01 Q1014=
201103172120 METAR ESMX 172120Z 06006KT 020V140 9999 OVC036 M01/M01 Q1014=
201103172050 METAR ESMX 172050Z 06006KT 030V120 9999 -SN BKN036 M01/M01 Q1015=
201103172020 METAR ESMX 172020Z 07006KT 020V100 9999 OVC037 M01/M02 Q1015=
201103171950 METAR ESMX 171950Z 07006KT 020V120 9999 FEW013 OVC037 M01/M02 Q1015=
201103171920 METAR ESMX 171920Z 04006KT 010V080 9000 -SN FEW005 SCT012 BKN035 M01/M02 Q1016=
201103171850 METAR ESMX 171850Z 05007KT 020V080 0900 R01/P2000N R19/P2000 SN SCT006 M01/M02 Q1016=
201103171820 METAR ESMX 171820Z 06007KT 0900 R01/P2000N R19/P2000N SN FEW005 M01/M02 Q1016=
201103171750 METAR ESMX 171750Z 07005KT 030V110 0700 R19/P2000N SN FEW006 SCT010 M01/M02 Q1016=
201103171720 METAR ESMX 171720Z 06005KT 010V090 0800 R19/1600U SN VV003 M01/M02 Q1017=
201103171650 METAR ESMX 171650Z 08005KT 020V120 1200 R19/1800 SN FEW005 BKN007 M01/M02 Q1017=
201103171620 METAR ESMX 171620Z 09006KT 030V160 2000 -SN FEW015 BKN018 M01/M03 Q1017=
201103171550 METAR ESMX 171550Z 09007KT 030V140 9999 -SN FEW016 BKN020 00/M04 Q1017=
201103171520 METAR ESMX 171520Z 09009KT 040V130 9999 -SN SCT020 BKN100 01/M04 Q1017=
201103171450 METAR ESMX 171450Z 06008KT 010V120 9999 FEW020 BKN100 01/M04 Q1017=
201103171420 METAR ESMX 171420Z 07009KT 040V140 9999 FEW022 BKN080 02/M04 Q1017=
201103171350 METAR ESMX 171350Z 09009KT 030V140 9999 FEW023 SCT080 02/M04 Q1017=
201103171320 METAR ESMX 171320Z 08009KT 040V120 CAVOK 02/M04 Q1017=
201103171250 METAR ESMX 171250Z 07009KT 020V140 CAVOK 03/M04 Q1017=
201103171220 METAR ESMX 171220Z 08009KT 040V120 CAVOK 04/M04 Q1017=
201103171150 METAR ESMX 171150Z 10009KT 050V160 CAVOK 04/M04 Q1018=
201103171120 METAR ESMX 171120Z VRB08KT CAVOK 04/M04 Q1018=
201103171050 METAR ESMX 171050Z 08009KT 030V140 CAVOK 03/M04 Q1018=
201103171020 METAR ESMX 171020Z 09008KT 040V140 CAVOK 03/M04 Q1019=
201103170920 METAR ESMX 170920Z 07008KT 9999 FEW015 01/M0 Q1019=
201103170850 METAR ESMX 170850Z 09009KT 050V130 9999 FEW017 01/M04 Q1019=
201103170820 METAR ESMX 170820Z VRB07KT 9999 SCT015 M00/M04 Q1020=
201103170750 METAR ESMX 170750Z 08008KT 050V150 9999 FEW016 M01/M04 Q1020=
201103170720 METAR ESMX 170720Z 09007KT 030V190 9999 FEW015 M01/M04 Q1021=
201103170650 METAR ESMX 170650Z 09006KT 040V140 9999 FEW015 M02/M04 Q1021=
201103170620 METAR ESMX 170620Z 09006KT 050V140 9999 FEW014 M02/M04 Q1021=
201103170550 METAR ESMX 170550Z 09006KT 050V140 9999 FEW014 M02/M04 Q1021=
201103170520 METAR ESMX 170520Z 08006KT 040V120 CAVOK M02/M05 Q1021=
201103170450 METAR ESMX 170450Z 08006KT 030V140 CAVOK M02/M05 Q1021=
201103170420 METAR ESMX 170420Z 07005KT 360V120 CAVOK M02/M05 Q1021=
201103170350 METAR ESMX 170350Z AUTO 09006KT 040V120 9999NDV NCD M02/M05 Q1022=
201103170320 METAR ESMX 170320Z AUTO 09006KT 020V150 9999NDV NCD M02/M05 Q1022=
201103170250 METAR ESMX 170250Z AUTO 09006KT 030V140 9999NDV NCD M02/M05 Q1022=
201103170220 METAR ESMX 170220Z AUTO 08005KT 350V130 9999NDV NCD M02/M05 Q1023=
201103170150 METAR ESMX 170150Z AUTO 07006KT 010V150 9999NDV NCD M02/M05 Q1023=
201103170120 METAR ESMX 170120Z AUTO 08006KT 030V130 9999NDV NCD M02/M05 Q1023=
201103170050 METAR ESMX 170050Z AUTO 09006KT 030V120 9999NDV NCD M02/M05 Q1024=
201103170020 METAR ESMX 170020Z 09006KT 040V140 CAVOK M02/M05 Q1024=
201103162350 METAR ESMX 162350Z 09006KT 030V150 CAVOK M02/M05 Q1024=
201103162320 METAR ESMX 162320Z 08006KT 040V150 CAVOK M02/M05 Q1025=
201103162250 METAR ESMX 162250Z 09005KT 050V140 CAVOK M02/M05 Q1025=
201103162220 METAR ESMX 162220Z 08008KT 050V130 CAVOK M02/M05 Q1025=
201103162150 METAR ESMX 162150Z 08007KT 040V140 CAVOK M02/M06 Q1026=
201103162120 METAR ESMX 162120Z 08005KT 030V130 CAVOK M02/M06 Q1026=
201103162050 METAR ESMX 162050Z 08006KT 030V120 CAVOK M02/M06 Q1026=
201103162020 METAR ESMX 162020Z 08006KT 030V130 CAVOK M02/M06 Q1027=
201103161950 METAR ESMX 161950Z 08008KT 030V120 CAVOK M02/M05 Q1027=
201103161920 METAR ESMX 161920Z 08008KT 050V120 CAVOK M02/M05 Q1027=
201103161850 METAR ESMX 161850Z 08007KT 050V140 CAVOK M02/M06 Q1027=
201103161820 METAR ESMX 161820Z 08008KT 040V130 CAVOK M01/M06 Q1028=
201103161750 METAR ESMX 161750Z 08006KT 030V120 9999 FEW020 SCT080 M01/M06 Q1028=
201103161720 METAR ESMX 161720Z 08007KT 010V150 9999 SCT020 M01/M06 Q1028=
201103161650 METAR ESMX 161650Z 07007KT 360V150 9999 SCT022 M01/M06 Q1028=
201103161620 METAR ESMX 161620Z 09009KT 030V140 9999 FEW020 M00/M06 Q1028=
201103161550 METAR ESMX 161550Z 08009KT 020V140 9999 FEW025 M00/M06 Q1028=
201103161520 METAR ESMX 161520Z 08010G22KT 040V140 9999 FEW024 00/M06 Q1029=
201103161450 METAR ESMX 161450Z 09010KT 040V160 9999 FEW025 01/M06 Q1029=
201103161420 METAR ESMX 161420Z 07010KT 020V120 9999 FEW024 01/M06 Q1029=
201103161350 METAR ESMX 161350Z VRB10KT 9999 FEW025 01/M06 Q1029=
201103161320 METAR COR ESMX 161320Z 06008KT 010V100 9999 FEW028 02/M06 Q1029=
201103161220 METAR ESMX 161220Z 07010KT 020V110 9999 FEW025 03/M05 Q1030=
201103161150 METAR COR ESMX 161150Z 09009KT 030V160 9999 FEW025 03/M06 Q1030=
201103161120 METAR ESMX 161120Z 07009G19KT 020V130 9999 FEW025 03/M05 Q1030=
201103160950 METAR ESMX 160950Z 07009KT 030V120 9999 SCT020 01/M05 Q1031=
201103160920 METAR ESMX 160920Z 07007KT 010V120 9999 FEW020 SCT024 01/M05 Q1031=
201103160850 METAR ESMX 160850Z 07007KT 350V150 9999 BKN018 01/M05 Q1031=
201103160820 METAR ESMX 160820Z 09009KT 030V140 9999 BKN018 M01/M05 Q1032=
201103160750 METAR ESMX 160750Z 08008KT 020V120 9999 BKN017 M01/M06 Q1032=
201103160720 METAR ESMX 160720Z 08006KT 030V140 9999 BKN016 M02/M06 Q1031=
201103160650 METAR ESMX 160650Z 08007KT 030V120 9999 BKN015 M02/M06 Q1031=
201103160620 METAR ESMX 160620Z 08006KT 040V120 9999 BKN015 M02/M06 Q1031=
201103160550 METAR ESMX 160550Z 07007KT 010V120 9999 BKN015 M03/M06 Q1031=
201103160520 METAR ESMX 160520Z 08007KT 030V120 9999 BKN015 M03/M06 Q1031=
201103160450 METAR ESMX 160450Z 07006KT 030V110 9999 OVC015 M03/M06 Q1031=
201103160420 METAR ESMX 160420Z AUTO 07007KT 020V160 9999NDV OVC015/// M03/M06 Q1031=
201103160350 METAR ESMX 160350Z AUTO 08006KT 030V120 9999NDV OVC014/// M03/M06 Q1031=
201103160320 METAR ESMX 160320Z AUTO 08005KT 040V170 9999NDV BKN014/// M03/M06 Q1031=
201103160250 METAR ESMX 160250Z AUTO 08007KT 030V120 9999NDV OVC013/// M03/M06 Q1031=
201103160220 METAR ESMX 160220Z AUTO 10007KT 060V140 9999NDV OVC013/// M03/M06 Q1031=
201103160150 METAR ESMX 160150Z AUTO 09006KT 050V120 9999NDV BKN012/// M03/M06 Q1031=
201103160120 METAR ESMX 160120Z AUTO 09005KT 050V150 9999NDV BKN012/// M03/M05 Q1031=
201103160050 METAR ESMX 160050Z AUTO 08006KT 050V110 9999NDV OVC011/// M03/M05 Q1032=
201103160020 METAR ESMX 160020Z 08005KT 030V130 9999 BKN011 M03/M06 Q1032=
201103152350 METAR ESMX 152350Z 06005KT 010V120 9999 FEW012 M04/M06 Q1032=
201103152320 METAR ESMX 152320Z 07006KT 030V110 CAVOK M03/M06 Q1031=
201103152250 METAR ESMX 152250Z 06005KT 030V100 CAVOK M03/M07 Q1032=
201103152220 METAR ESMX 152220Z 07006KT 030V110 CAVOK M03/M08 Q1032=
201103152150 METAR ESMX 152150Z 05004KT 010V100 CAVOK M03/M09 Q1032=
201103152120 METAR ESMX 152120Z 07005KT 030V110 CAVOK M03/M09 Q1032=
201103152050 METAR ESMX 152050Z 05006KT 030V100 CAVOK M03/M10 Q1032=
201103152020 METAR ESMX 152020Z 05008KT 020V080 CAVOK M02/M10 Q1032=
201103151950 METAR ESMX 151950Z 06007KT 020V090 CAVOK M02/M10 Q1032=
201103151920 METAR ESMX 151920Z 06008KT 020V080 CAVOK M02/M11 Q1032=
201103151850 METAR ESMX 151850Z 05009KT 020V080 CAVOK M02/M11 Q1032=
201103151820 METAR ESMX 151820Z 06009KT 020V100 CAVOK M01/M12 Q1032=
201103151750 METAR ESMX 151750Z 05007KT CAVOK M01/M12 Q1031=
201103151720 METAR ESMX 151720Z 05006KT 020V080 CAVOK M00/M12 Q1031=
201103151650 METAR ESMX 151650Z 06008KT 030V100 CAVOK 00/M12 Q1031=
201103151620 METAR ESMX 151620Z 05005KT CAVOK 01/M11 Q1031=
201103151550 METAR ESMX 151550Z 06007KT 030V100 CAVOK 01/M11 Q1031=
201103151520 METAR ESMX 151520Z 05007KT 020V090 CAVOK 02/M10 Q1031=
201103151450 METAR ESMX 151450Z 05009KT 020V080 CAVOK 02/M11 Q1031=
201103151420 METAR ESMX 151420Z 04008KT 350V080 CAVOK 03/M11 Q1031=
201103151350 METAR ESMX 151350Z 04008KT 350V080 CAVOK 03/M11 Q1031=
201103151320 METAR ESMX 151320Z 04009KT 360V080 CAVOK 03/M11 Q1031=
201103151220 METAR ESMX 151220Z 08009KT 030V190 CAVOK 04/M11 Q1031=
201103151150 METAR ESMX 151150Z 07009KT 020V110 CAVOK 04/M11 Q1031=
201103151120 METAR ESMX 151120Z 07009KT 030V110 CAVOK 03/M10 Q1031=
201103151050 METAR ESMX 151050Z 06009KT 030V110 CAVOK 03/M09 Q1031=
201103151020 METAR ESMX 151020Z 07008KT 030V150 CAVOK 03/M09 Q1031=
201103150950 METAR ESMX 150950Z 07009KT 030V150 CAVOK 02/M08 Q1031=
201103150920 METAR ESMX 150920Z 05009KT 020V080 CAVOK 01/M07 Q1031=
201103150850 METAR ESMX 150850Z 05009KT 020V080 CAVOK 01/M07 Q1031=
201103150820 METAR ESMX 150820Z 05008KT 020V090 CAVOK 00/M07 Q1031=
201103150750 METAR ESMX 150750Z 05009KT 020V100 CAVOK M00/M06 Q1031=
201103150720 METAR ESMX 150720Z 05008KT 010V090 CAVOK M01/M07 Q1030=
201103150650 METAR ESMX 150650Z 05008KT 020V090 CAVOK M02/M07 Q1030=
201103150620 METAR ESMX 150620Z 05006KT 020V110 CAVOK M02/M07 Q1030=
201103150550 METAR ESMX 150550Z 05008KT 020V080 CAVOK M02/M07 Q1030=
201103150520 METAR ESMX 150520Z 06007KT 020V090 CAVOK M02/M08 Q1029=
201103150450 METAR ESMX 150450Z 06007KT 020V120 CAVOK M02/M09 Q1029=
201103150420 METAR ESMX 150420Z AUTO 05007KT 020V110 9999NDV NCD M01/M09 Q1029=
201103150350 METAR ESMX 150350Z AUTO 05008KT 020V080 9999NDV NCD M01/M09 Q1029=
201103150320 METAR ESMX 150320Z AUTO 05008KT 010V080 9999NDV NCD M01/M08 Q1029=
201103150250 METAR ESMX 150250Z AUTO 05008KT 020V110 9999NDV NCD M01/M08 Q1028=
201103150220 METAR ESMX 150220Z AUTO 04008KT 9999NDV NCD M01/M07 Q1028=
201103150150 METAR ESMX 150150Z AUTO 05007KT 010V080 9999NDV NCD M01/M06 Q1028=
201103150120 METAR ESMX 150120Z AUTO 04007KT 020V080 9999NDV NCD M01/M06 Q1027=
201103150050 METAR ESMX 150050Z AUTO 05007KT 020V080 9999NDV NCD M01/M05 Q1027=
201103150020 METAR ESMX 150020Z 05006KT CAVOK M00/M04 Q1027=
201103142350 METAR ESMX 142350Z 06006KT 020V120 CAVOK 00/M04 Q1026=
201103142320 METAR ESMX 142320Z 07007KT 030V110 CAVOK 00/M04 Q1026=
201103142220 METAR ESMX 142220Z 07008KT 010V100 CAVOK 02/M02 Q1025=
201103142150 METAR ESMX 142150Z 06008KT 020V110 9999 FEW016 SCT018 OVC088 02/M01 Q1025=
201103142120 METAR ESMX 142120Z 05007KT 020V100 9999 OVC088 02/M01 Q1025=
201103142050 METAR ESMX 142050Z 05007KT 020V080 9999 SCT031 OVC089 02/M01 Q1024=
201103142020 METAR ESMX 142020Z 05006KT 010V070 9999 OVC027 02/M01 Q1024=
201103141950 METAR ESMX 141950Z 05006KT 010V090 9999 OVC026 02/M01 Q1024=
201103141920 METAR ESMX 141920Z 05006KT 020V100 9999 BR FEW015 BKN025 02/M00 Q1024=
201103141850 METAR ESMX 141850Z 06006KT 030V110 5000 BR SCT005 BKN008 OVC025 02/01 Q1023=
201103141820 METAR ESMX 141820Z 04009KT 360V080 4000 BR OVC006 03/01 Q1023=
201103141750 METAR ESMX 141750Z 05010KT 010V100 3200 BR SCT006 BKN009 04/02 Q1022=
201103141720 METAR ESMX 141720Z 04009KT 010V080 4000 BR OVC007 04/02 Q1021=
201103141650 METAR ESMX 141650Z 04008KT 6000 BR OVC009 05/03 Q1020=
201103141620 METAR ESMX 141620Z 04008KT 7000 BR OVC011 05/03 Q1020=
201103141550 METAR ESMX 141550Z 03008KT 7000 BR OVC011 05/03 Q1019=
201103141520 METAR ESMX 141520Z 03008KT 6000 BR OVC011 06/03 Q1019=
201103141450 METAR ESMX 141450Z 02006KT 4500 BR OVC011 06/04 Q1018=
201103141420 METAR ESMX 141420Z 02007KT 3700 BR BKN010 OVC014 06/04 Q1018=
201103141350 METAR ESMX 141350Z 02007KT 2800 BR SCT008 OVC009 06/04 Q1017=
201103141320 METAR ESMX 141320Z 02007KT 3000 BR OVC008 05/04 Q1017=
201103141250 METAR ESMX 141250Z 01006KT 2600 BR FEW006 OVC007 05/04 Q1017=
201103141220 METAR ESMX 141220Z 01007KT 3000 BR FEW005 OVC006 05/04 Q1016=
201103141150 METAR ESMX 141150Z 01005KT 3100 -DZ FEW009 BKN033 05/04 Q1016=
201103141120 METAR ESMX 141120Z 02006KT 3600 -DZ OVC031 05/03 Q1016=
201103141050 METAR ESMX 141050Z 02006KT 3500 BR BKN023 OVC027 04/03 Q1015=
201103140950 METAR ESMX 140950Z 36005KT 4400 BR BKN023 04/02 Q1015=
201103140850 METAR ESMX 140850Z 35004KT 4500 BR FEW010 SCT038 BKN044 04/02 Q1014=
201103140820 METAR ESMX 140820Z VRB01KT 5000 BR SCT045 BKN065 03/02 Q1014=
201103140750 METAR ESMX 140750Z VRB01KT 4000 BR NSC 03/02 Q1013=
201103140720 METAR ESMX 140720Z 35002KT 2400 BR NSC 02/01 Q1013=
201103140650 METAR ESMX 140650Z VRB01KT 2500 BR NSC 01/01 Q1013=
201103140620 METAR ESMX 140620Z 17001KT 2500 BR NSC 01/00 Q1012=
201103140550 METAR ESMX 140550Z VRB01KT 1700 BR BKN100 01/00 Q1012=
201103140520 METAR ESMX 140520Z VRB01KT 1500 R01/P2000N R19/P2000N BR BKN070 01/00 Q1012=
201103140450 METAR ESMX 140450Z VRB01KT 1500 R01/P2000N R19/P2000N BR BKN060 01/00 Q1011=
201103140420 METAR ESMX 140420Z AUTO VRB01KT 1500NDV BR OVC058/// 01/00 Q1011=
201103140350 METAR ESMX 140350Z AUTO VRB01KT 1600NDV BR OVC057/// 01/00 Q1011=
201103140320 METAR ESMX 140320Z AUTO VRB01KT 1800NDV BR OVC059/// 00/M00 Q1011=
201103140250 METAR ESMX 140250Z AUTO 00000KT 1500NDV BR OVC065/// 00/M00 Q1011=
201103140220 METAR ESMX 140220Z AUTO 02002KT 1200NDV R01/P2000N R19/P2000N BR BKN066/// 00/M00 Q1010=
201103140150 METAR ESMX 140150Z AUTO 36002KT 0900NDV R01/P2000N R19/P2000N BR FEW067/// BKN110/// M00/M01 Q1010=
201103140120 METAR ESMX 140120Z AUTO VRB01KT 0650NDV R01/P2000N R19/P2000N BR BKN110/// 00/M00 Q1010=
201103140050 METAR ESMX 140050Z AUTO 00000KT 0900NDV R01/P2000N R19/P2000N FEW084/// BKN110/// 01/M00 Q1010=
201103140020 METAR ESMX 140020Z VRB01KT 1500 BR BKN080 01/00 Q1010=
201103132350 METAR ESMX 132350Z 11002KT 1500 R01/P2000N R19/P2000N BR FEW089 BKN110 01/00 Q1010=
201103132320 METAR ESMX 132320Z 00000KT 2000 R01/P2000N R19/P2000N BR BKN086 02/01 Q1010=
201103132250 METAR ESMX 132250Z 00000KT 3000 BR BKN086 02/01 Q1010=
201103132220 METAR ESMX 132220Z 16002KT 4000 BR OVC090 02/01 Q1010=
201103132150 METAR ESMX 132150Z 00000KT 2300 BR BKN090 02/01 Q1010=
201103132120 METAR ESMX 132120Z VRB02KT 3200 BR BKN090 02/01 Q1010=
201103132050 METAR ESMX 132050Z 15003KT 5000 BR SCT090 04/02 Q1009=
201103132020 METAR ESMX 132020Z 14004KT 5000 BR NSC 04/02 Q1009=
201103131950 METAR ESMX 131950Z 14003KT 5000 BR NSC 03/02 Q1009=
201103131920 METAR COR ESMX 131920Z 14003KT 110V170 5000 R01/P2000N R19/P2000N BR NSC 03/02 Q1009=
201103131850 METAR ESMX 131850Z VRB02KT 1300 R01/P2000N R19/P2000N BR NSC 02/01 Q1009=
201103131820 METAR ESMX 131820Z 14003KT 4000 BR NSC 02/01 Q1009=
201103131750 METAR ESMX 131750Z 15003KT 4000 MIFG BR NSC 03/02 Q1008=
201103131720 METAR ESMX 131720Z 14002KT 6000 MIFG BR SCT044 03/02 Q1008=
201103131650 METAR ESMX 131650Z 13003KT 090V160 5000 BR SCT044 04/03 Q1008=
201103131620 METAR ESMX 131620Z 12003KT 080V160 5000 BR BKN043 05/03 Q1008=
201103131550 METAR ESMX 131550Z 09003KT 030V140 6000 BR BKN044 05/03 Q1007=
201103131520 METAR ESMX 131520Z 09003KT 050V120 5000 BR FEW027 BKN043 05/03 Q1007=
201103131450 METAR ESMX 131450Z 11003KT 070V160 5000 -RA BR FEW018 BKN035 05/03 Q1007=
201103131420 METAR ESMX 131420Z 11003KT 4900 -RA BR FEW015 BKN032 05/03 Q1007=
201103131350 METAR ESMX 131350Z VRB02KT 6000 -RA BR BKN028 06/02 Q1007=
201103131320 METAR ESMX 131320Z 17003KT 120V210 6000 -RA BR FEW033 BKN046 06/02 Q1007=
201103131250 METAR ESMX 131250Z 13003KT 100V170 6000 BR NSC 06/02 Q1007=
201103131220 METAR ESMX 131220Z 13004KT 080V170 6000 BR NSC 06/02 Q1007=
201103131150 METAR ESMX 131150Z 13004KT 080V190 6000 BR NSC 06/02 Q1007=
201103131120 METAR ESMX 131120Z 12004KT 070V180 6000 BR FEW049 SCT150 06/02 Q1007=
201103131050 METAR ESMX 131050Z VRB02KT 5000 BR FEW048 BKN150 05/02 Q1007=
201103131020 METAR ESMX 131020Z 14003KT 100V190 5000 BR FEW048 BKN150 05/02 Q1007=
201103130950 METAR ESMX 130950Z 13003KT 080V190 5000 BR SCT046 BKN150 05/02 Q1007=
201103130920 METAR ESMX 130920Z AUTO 12003KT 070V160 4700NDV BR BKN044/// 04/02 Q1007=
201103130850 METAR ESMX 130850Z AUTO 11003KT 070V190 4600NDV BR OVC043/// 04/02 Q1007=
201103130820 METAR ESMX 130820Z AUTO 12003KT 070V160 4400NDV BR OVC042/// 03/01 Q1007=
201103130750 METAR ESMX 130750Z AUTO 12003KT 070V170 4100NDV BR OVC041/// 03/01 Q1007=
201103130720 METAR ESMX 130720Z AUTO 12004KT 080V160 3800NDV BR FEW040/// 02/01 Q1006=
201103130650 METAR ESMX 130650Z AUTO 13004KT 080V160 3500NDV BR FEW040/// 02/01 Q1006=
201103130620 METAR ESMX 130620Z AUTO 14004KT 090V180 2500NDV OVC039/// 01/00 Q1006=
201103130550 METAR ESMX 130550Z AUTO VRB02KT 1400NDV R01/P2000N R19/P2000D FEW039/// M00/M01 Q1006=
201103130520 METAR ESMX 130520Z AUTO VRB02KT 0800NDV R01/P2000D R19/P2000N FZFG NCD M00/M01 Q1006=
201103130450 METAR ESMX 130450Z AUTO 08003KT 050V110 1600NDV NCD 00/M00 Q1006=
201103130420 METAR ESMX 130420Z AUTO 09003KT 060V130 1300NDV R01/P2000N R19/P2000N FEW039/// 01/00 Q1006=
201103130350 METAR ESMX 130350Z AUTO VRB02KT 1600NDV BR BKN038/// 01/00 Q1006=
201103130320 METAR ESMX 130320Z AUTO 12004KT 1800NDV BR OVC037/// 01/00 Q1006=
201103130250 METAR ESMX 130250Z AUTO 13005KT 1600NDV OVC037/// 01/00 Q1006=
201103130220 METAR ESMX 130220Z AUTO VRB02KT 1600NDV OVC039/// 01/00 Q1007=
201103130150 METAR ESMX 130150Z AUTO VRB01KT 1100NDV R01/P2000N R19/P2000N FG OVC040/// 01/00 Q1007=
201103130120 METAR ESMX 130120Z AUTO VRB01KT 0650NDV R01/1900N R19/P2000N FG FEW031/// BKN039/// 01/M00 Q1007=
201103130050 METAR ESMX 130050Z AUTO 00000KT 2000NDV BR OVC030/// 01/00 Q1007=
201103130020 METAR ESMX 130020Z AUTO 14003KT 110V170 2700NDV BR OVC030/// 01/00 Q1007=
201103122350 METAR ESMX 122350Z AUTO 15003KT 110V190 2400NDV BR OVC028/// 01/00 Q1008=
201103122320 METAR ESMX 122320Z AUTO 16004KT 120V200 2700NDV BR OVC028/// 01/01 Q1008=
201103122250 METAR ESMX 122250Z AUTO 15005KT 120V180 2900NDV BR SCT031/// 01/00 Q1008=
201103122220 METAR ESMX 122220Z AUTO 13005KT 2900NDV BR SCT026/// 01/00 Q1008=
201103122150 METAR ESMX 122150Z AUTO 15004KT 110V170 4100NDV BR SCT023/// BKN028/// 02/01 Q1008=
201103122120 METAR ESMX 122120Z AUTO 16004KT 120V190 3200NDV BR NCD 02/01 Q1008=
201103122050 METAR ESMX 122050Z AUTO 15003KT 3900NDV BR BKN021/// 02/01 Q1008=
201103122020 METAR ESMX 122020Z AUTO 16004KT 5000NDV BR OVC022/// 03/02 Q1008=
201103121950 METAR ESMX 121950Z AUTO 16003KT 4900NDV BR OVC022/// 03/02 Q1008=
201103121920 METAR ESMX 121920Z AUTO 18005KT 5000NDV BR OVC022/// 04/03 Q1008=
201103121850 METAR ESMX 121850Z AUTO VRB01KT 2000NDV BR OVC022/// 03/02 Q1008=
201103121820 METAR ESMX 121820Z AUTO 17003KT 2800NDV BR FEW019/// OVC021/// 04/02 Q1008=
201103121750 METAR ESMX 121750Z AUTO 18004KT 3000NDV BR BKN018/// OVC021/// 04/03 Q1008=
201103121720 METAR ESMX 121720Z AUTO 18002KT 2600NDV BR OVC018/// 03/02 Q1008=
201103121650 METAR ESMX 121650Z AUTO 18002KT 4000NDV BR OVC017/// 04/03 Q1008=
201103121620 METAR ESMX 121620Z AUTO 21002KT 4200NDV BR OVC018/// 04/03 Q1008=
201103121550 METAR ESMX 121550Z AUTO 21004KT 5000NDV BR OVC014/// 04/02 Q1008=
201103121520 METAR ESMX 121520Z AUTO 23006KT 6000NDV BR FEW005/// BKN008/// OVC011/// 04/03 Q1008 REDZ=
201103121450 METAR ESMX 121450Z AUTO 22008KT 4400NDV -DZ FEW007/// OVC009/// 03/02 Q1008=
201103121420 METAR ESMX 121420Z AUTO 22006KT 200V260 6000NDV DZ FEW008/// OVC009/// 03/02 Q1008=
201103121350 METAR ESMX 121350Z AUTO 22006KT 6000NDV -DZ FEW005/// OVC008/// 03/02 Q1008=
201103121320 METAR ESMX 121320Z AUTO 20008KT 170V240 6000NDV BR FEW005/// BKN006/// OVC009/// 03/02 Q1008=
201103121250 METAR ESMX 121250Z 20007KT 4600 BR BKN004 OVC008 02/02 Q1008 REDZ=
201103121220 METAR ESMX 121220Z 20009KT 3500 -RA SCT004 OVC007 02/01 Q1008=
201103121150 METAR ESMX 121150Z 19008KT 4300 -RA FEW004 BKN005 OVC007 02/01 Q1008=
201103121120 METAR ESMX 121120Z 18006KT 110V210 3300 -RA FEW002 SCT004 BKN005 02/01 Q1008=
201103121050 METAR ESMX 121050Z 15006KT 100V180 2300 SN FEW002 SCT004 BKN005 01/01 Q1008=
201103121020 METAR ESMX 121020Z 15005KT 2200 RASN FEW002 SCT005 BKN008 01/00 Q1008=
201103120950 METAR ESMX 120950Z 15004KT 110V200 1800 -RA BKN004 01/00 Q1008=
201103120920 METAR ESMX 120920Z 15005KT 110V190 4700 -RA OVC005 02/01 Q1008 REDZ=
201103120850 METAR ESMX 120850Z 19007KT 6000 -RA SCT006 BKN009 02/01 Q1009=
201103120820 METAR ESMX 120820Z 19007KT 160V220 5000 -RA BKN005 BKN008 02/01 Q1009 REDZ=
201103120750 METAR ESMX 120750Z 21007KT 5000 DZ BKN006 02/01 Q1009=
201103120720 METAR ESMX 120720Z AUTO 23009KT 7000NDV BR BKN007/// 02/01 Q1009=
201103120650 METAR ESMX 120650Z AUTO 23006KT 190V260 8000NDV BR BKN007/// BKN012/// 02/00 Q1008=
201103120620 METAR ESMX 120620Z AUTO 24007KT 210V270 8000NDV BR BKN008/// OVC011/// 02/00 Q1008=
201103120550 METAR ESMX 120550Z AUTO 24007KT 8000NDV BR OVC008/// 02/00 Q1008=
201103120520 METAR ESMX 120520Z AUTO 24006KT 210V280 8000NDV BR FEW007/// BKN009/// OVC011/// 02/00 Q1008=
201103120450 METAR ESMX 120450Z AUTO 24005KT 200V270 6000NDV BR FEW007/// OVC009/// 01/00 Q1008=
201103120420 METAR ESMX 120420Z AUTO 24008KT 8000NDV BR FEW007/// OVC009/// 01/00 Q1007=
201103120350 METAR ESMX 120350Z AUTO 23006KT 190V260 8000NDV BR OVC010/// 01/00 Q1007=
201103120320 METAR ESMX 120320Z AUTO 23008KT 190V250 9000NDV BR FEW006/// SCT011/// BKN014/// 01/00 Q1007=
201103120250 METAR ESMX 120250Z AUTO 24007KT 3700NDV DZ FEW006/// SCT009/// BKN013/// 01/00 Q1007=
201103120220 METAR ESMX 120220Z AUTO 23010KT 5000NDV BR FEW010/// BKN014/// BKN023/// 01/00 Q1007 REDZ=
201103120150 METAR ESMX 120150Z AUTO 22010KT 160V250 9000NDV BR FEW012/// BKN015/// OVC021/// 01/00 Q1006=
201103120120 METAR ESMX 120120Z AUTO 22009KT 190V250 9000NDV BR FEW012/// BKN015/// OVC045/// 01/00 Q1006=
201103120050 METAR ESMX 120050Z AUTO 23009KT 9999NDV BR FEW009/// BKN013/// OVC048/// 01/00 Q1006=
201103120020 METAR ESMX 120020Z AUTO 22009KT 180V250 9999NDV BR FEW010/// SCT016/// BKN054/// 00/M00 Q1006=
201103112350 METAR ESMX 112350Z AUTO 22009KT 4600NDV -SN FEW006/// SCT011/// BKN016/// 00/M00 Q1006 REUP=
201103112320 METAR ESMX 112320Z AUTO 23008KT 9999NDV FEW011/// SCT024/// BKN032/// 00/M01 Q1006=
201103112250 METAR ESMX 112250Z AUTO 24008KT 210V280 9999NDV FEW013/// 00/M00 Q1006=
201103112220 METAR ESMX 112220Z AUTO 23010KT 200V260 3800NDV FEW001/// SCT007/// 00/M00 Q1006 RESN=
201103112150 METAR ESMX 112150Z AUTO 24010KT 0450NDV R01/P2000N R19/P2000D -SN FEW005/// SCT012/// BKN015/// 00/M01 Q1006 REUP=
201103112120 METAR ESMX 112120Z AUTO 23009KT 9999NDV FEW014/// 00/M01 Q1005=
201103112050 METAR ESMX 112050Z AUTO 22010KT 190V260 9999NDV NCD 00/M01 Q1005=
201103112020 METAR ESMX 112020Z 22010KT 9999 FEW012 01/M01 Q1005=
201103111950 METAR ESMX 111950Z 23011KT 9999 SCT012 01/M01 Q1004 REUP=
201103111920 METAR ESMX 111920Z 23010KT 210V280 9999 SCT012 01/M01 Q1004=
201103111850 METAR ESMX 111850Z 24009KT 200V260 9999 FEW007CB BKN012 00/M01 Q1004=
201103111820 METAR ESMX 111820Z 22009KT 190V260 9999 FEW007CB BKN015 00/M00 Q1004=
201103111750 METAR ESMX 111750Z 23009KT 7000 -SN FEW006 SCT011 BKN013 01/M00 Q1004 RERA=
201103111720 METAR ESMX 111720Z 24009KT 200V270 9999 -SHRASN FEW010CB BKN020 01/M01 Q1004=
201103111650 METAR ESMX 111650Z 25011KT 8000 -RASN FEW012 SCT018 BKN026 01/M01 Q1003=
201103111620 METAR ESMX 111620Z 24011KT 200V280 9999 FEW015 BKN025 02/M01 Q1003=
201103111550 METAR ESMX 111550Z 25010KT 210V290 9999 FEW020 SCT025 BKN034 02/M01 Q1003=
201103111520 METAR ESMX 111520Z 25010KT 9999 FEW006 SCT015 BKN030 02/M01 Q1003=
201103111450 METAR ESMX 111450Z 24010KT 210V280 9000 FEW006 SCT015 BKN022 02/00 Q1002=
201103111420 METAR ESMX 111420Z 23012KT 200V280 9999 SCT015 BKN019 OVC027 02/M01 Q1002=
201103111350 METAR ESMX 111350Z 23009KT 200V270 9999 FEW016 BKN020 BKN024 02/M01 Q1002=
201103111320 METAR ESMX 111320Z 22013KT 190V250 9999 FEW021 SCT027 BKN036 02/M01 Q1002=
201103111250 METAR ESMX 111250Z 23011KT 200V270 9999 FEW028 BKN031 BKN045 03/M03 Q1001=
201103111220 METAR ESMX 111220Z 25012KT 230V290 9999 FEW029 SCT033 03/M03 Q1001=
201103111150 METAR ESMX 111150Z 25012KT 9999 FEW035 03/M03 Q1001=
201103111120 METAR ESMX 111120Z 24010G20KT 210V280 9999 FEW025 02/M03 Q1001=
201103111050 METAR ESMX 111050Z 24011KT 200V290 9999 FEW025 02/M04 Q1001=
201103111020 METAR ESMX 111020Z 26013KT 210V290 9999 FEW020 02/M04 Q1000=
201103110950 METAR ESMX 110950Z 25009KT 210V300 9999 FEW020 02/M03 Q1000=
201103110920 METAR ESMX 110920Z 26010KT 230V300 9999 FEW015 01/M03 Q1000=
201103110850 METAR ESMX 110850Z 28011KT 230V310 9999 FEW019 01/M03 Q0999=
201103110820 METAR ESMX 110820Z 28011KT 240V340 9999 FEW015 00/M03 Q0999=
201103110750 METAR ESMX 110750Z 27013KT 9999 FEW015 M00/M03 Q0998=
201103110720 METAR ESMX 110720Z 27014KT 9999 FEW015 SCT019 M00/M03 Q0997=
201103110650 METAR ESMX 110650Z 28014KT 240V300 9999 FEW017 SCT022 BKN028 M00/M03 Q0996=
201103110620 METAR ESMX 110620Z 27015KT 240V300 9999 FEW005 SCT011 BKN014 M00/M02 Q0995=
201103110550 METAR ESMX 110550Z 27016KT 5000 BR FEW006 BKN010 OVC019 00/M01 Q0994=
201103110520 METAR ESMX 110520Z 28016KT 5000 -SN FEW005 SCT011 BKN017 00/M01 Q0993=
201103110450 METAR ESMX 110450Z 29015G26KT 250V320 8000 -RASN FEW005 BKN010 01/M00 Q0991=
201103110420 METAR ESMX 110420Z AUTO 26010KT 230V290 0500NDV R01/P2000N R19/P2000D -SN FEW003/// OVC005/// 01/00 Q0990=
201103110350 METAR ESMX 110350Z AUTO 25010KT 2600NDV +RA BKN004/// OVC007/// 01/00 Q0989=
201103110320 METAR ESMX 110320Z AUTO 24010KT 2200NDV -SN FEW004/// SCT005/// OVC007/// 01/00 Q0988=
201103110250 METAR ESMX 110250Z AUTO 23010KT 2100NDV -RA FEW005/// SCT006/// OVC008/// 01/M00 Q0987=
201103110220 METAR ESMX 110220Z AUTO 23013KT 4100NDV -RA SCT006/// OVC007/// 01/00 Q0987=
201103110150 METAR ESMX 110150Z AUTO 21014KT 3300NDV RA FEW005/// SCT006/// BKN008/// 01/00 Q0986=
201103110120 METAR ESMX 110120Z AUTO 21012KT 4400NDV -RA FEW006/// SCT011/// BKN018/// 02/00 Q0987=
201103110050 METAR ESMX 110050Z 21013KT 6000 -DZ FEW010 SCT014 BKN018 02/01 Q0987=
201103110020 METAR ESMX 110020Z 20012KT 9000 BR FEW010 SCT015 BKN019 02/01 Q0988=
201103102350 METAR ESMX 102350Z 20014KT 9999 FEW013 SCT019 BKN031 03/01 Q0988=
201103102320 METAR ESMX 102320Z 21013KT 180V240 9000 -DZ FEW010 BKN014 OVC020 03/01 Q0989=
201103102250 METAR ESMX 102250Z 20013KT 7000 -RA FEW008 SCT014 BKN020 03/01 Q0989=
201103102220 METAR ESMX 102220Z 20014KT 9000 BR FEW010 SCT016 03/01 Q0989=
201103102150 METAR ESMX 102150Z 21015KT 9999 FEW010 SCT015 BKN020 03/01 Q0990=
201103102120 METAR ESMX 102120Z 20013KT 6000 -RA FEW012 SCT016 BKN019 03/02 Q0990=
201103102050 METAR ESMX 102050Z 21013KT 9999 FEW012 SCT016 BKN057 03/01 Q0990=
201103102020 METAR ESMX 102020Z 22013KT 9000 -RA FEW010 SCT015 BKN017 03/02 Q0991 RESHRA=
201103101950 METAR ESMX 101950Z 22013KT 9999 FEW008 SCT012 BKN015 03/02 Q0991=
201103101920 METAR ESMX 101920Z 22011KT 9999 -DZ FEW009 SCT018 BKN024 03/01 Q0991=
201103101850 METAR ESMX 101850Z 22015G25KT 5000 -RA FEW005 SCT007 OVC009 02/01 Q0992=
201103101820 METAR ESMX 101820Z 20014KT 8000 -RA BKN006 OVC009 03/02 Q0992=
201103101750 METAR ESMX 101750Z 21013KT 8000 -RA FEW005 OVC006 03/02 Q0992=
201103101720 METAR ESMX 101720Z 20014KT 6000 -RA SCT006 BKN008 02/01 Q0992 RERA=
201103101650 METAR ESMX 101650Z 20013KT 5000 RA OVC006 02/01 Q0993=
201103101620 METAR ESMX 101620Z 19016KT 6000 -RA FEW006 BKN007 03/02 Q0993=
201103101520 METAR ESMX 101520Z 19015KT 5000 -RA BKN005 OVC009 02/01 Q0994=
201103101450 METAR ESMX 101450Z 19017KT 4000 RA OVC003 02/02 Q0994=
201103101420 METAR ESMX 101420Z 18014KT 4000 -RA BKN003 OVC005 02/01 Q0995=
201103101350 METAR ESMX 101350Z 18015KT 5000 -RASN OVC003 02/01 Q0995=
201103101320 METAR ESMX 101320Z 18015KT 7000 -RASN OVC004 01/00 Q0996=
201103101250 METAR ESMX 101250Z 18014KT 140V210 8000 -RA OVC005 01/00 Q0996=
201103101220 METAR ESMX 101220Z 19016KT 6000 -RA BKN006 OVC010 01/00 Q0997=
201103101150 METAR ESMX 101150Z 18014KT 8000 -RA OVC006 02/00 Q0997=
201103101120 METAR ESMX 101120Z 18014KT 3200 -RA FEW005 BKN006 OVC009 01/00 Q0998=
201103101050 METAR ESMX 101050Z 17014KT 3600 RASN FEW005 BKN007 01/00 Q0998=
201103101020 METAR ESMX 101020Z 17015KT 5000 -DZ OVC005 02/01 Q0999=
201103100950 METAR ESMX 100950Z 17012KT 1800 -RA FEW005 OVC006 01/00 Q0999=
201103100920 METAR ESMX 100920Z 17012KT 5000 -RA FEW006 OVC008 02/00 Q1000=
201103100850 METAR ESMX 100850Z 17014KT 8000 BR OVC007 02/00 Q1000=
201103100820 METAR ESMX 100820Z 18013KT 8000 BR OVC007 02/00 Q1001=
201103100750 METAR ESMX 100750Z 18013KT 8000 -DZ SCT006 BKN009 01/M00 Q1001=
201103100720 METAR ESMX 100720Z 18013KT 8000 BR OVC005 01/M00 Q1002=
201103100650 METAR ESMX 100650Z 20013KT 160V220 9999 BR OVC005 01/M00 Q1002 REDZ=
201103100620 METAR ESMX 100620Z 19012KT 6000 DZ OVC005 01/M00 Q1002=
201103100550 METAR ESMX 100550Z 20012KT 8000 BR OVC006 01/M01 Q1002=
201103100520 METAR ESMX 100520Z 20013KT 9000 BR BKN005 OVC008 00/M01 Q1002=
201103100450 METAR ESMX 100450Z 20012KT 9000 BR OVC006 00/M01 Q1003=
201103100420 METAR ESMX 100420Z AUTO 20012KT 9000NDV BKN006/// OVC009/// 00/M01 Q1003=
201103100350 METAR ESMX 100350Z AUTO 20011KT 9999NDV OVC009/// 00/M01 Q1003=
201103100320 METAR ESMX 100320Z AUTO 20012KT 9999NDV OVC009/// 00/M01 Q1003=
201103100250 METAR ESMX 100250Z AUTO 21011KT 9999NDV FEW009/// OVC011/// 00/M01 Q1003=
201103100220 METAR ESMX 100220Z AUTO 21010KT 9999NDV BKN010/// OVC018/// 00/M01 Q1003=
201103100150 METAR ESMX 100150Z AUTO 21010KT 9999NDV BKN012/// OVC016/// 00/M02 Q1003=
201103100120 METAR ESMX 100120Z AUTO 23009KT 9999NDV BKN012/// OVC018/// 00/M02 Q1003=
201103100050 METAR ESMX 100050Z 22011KT 9999 BKN011 OVC017 00/M01 Q1003=
201103100020 METAR ESMX 100020Z 24009KT 9999 BKN012 OVC018 01/M02 Q1003=
201103092350 METAR ESMX 092350Z 22009KT 9999 SCT012 OVC019 01/M01 Q1003=
201103092320 METAR ESMX 092320Z 24009KT 9999 FEW012 OVC015 01/M01 Q1003=
201103092250 METAR ESMX 092250Z 22011KT 9999 FEW014 BKN016 OVC025 01/M01 Q1003=
201103092220 METAR ESMX 092220Z 23010KT 9999 FEW012 SCT015 BKN018 01/M01 Q1003=
201103092150 METAR ESMX 092150Z 24011G21KT 9999 FEW012 BKN016 BKN023 01/M01 Q1002=
201103092120 METAR ESMX 092120Z 24010KT 200V270 9999 FEW014 BKN018 01/M01 Q1002=
201103092050 METAR ESMX 092050Z 25011KT 9999 FEW011 SCT015 BKN019 01/M01 Q1002=
201103092020 METAR ESMX 092020Z 24011KT 200V280 9999 BKN010 OVC016 01/M01 Q1001=
201103091950 METAR ESMX 091950Z 23011KT 9999 FEW011 BKN014 OVC019 01/M01 Q1001=
201103091920 METAR ESMX 091920Z 23011KT 9999 SCT012 OVC017 01/M01 Q1001=
201103091850 METAR ESMX 091850Z 24010KT 9999 FEW008 BKN012 OVC018 01/M00 Q1000=
201103091820 METAR ESMX 091820Z 23011KT 9999 FEW008 BKN010 OVC014 01/M00 Q1000=
201103091750 METAR ESMX 091750Z 23013KT 9999 FEW005 SCT008 BKN010 01/00 Q1000=
201103091720 METAR ESMX 091720Z 22013KT 4800 -RASN BKN005 OVC008 01/00 Q0999=
201103091650 METAR ESMX 091650Z 22013KT 4000 -RA FEW005 OVC006 01/00 Q0999=
201103091620 METAR ESMX 091620Z 20015KT 2800 RASN OVC004 01/00 Q0999=
201103091550 METAR ESMX 091550Z 19013KT 2900 -RASN FEW004 BKN005 OVC007 01/01 Q0999=
201103091520 METAR ESMX 091520Z 19012KT 2500 -RASN FEW004 OVC005 01/00 Q0999=
201103091450 METAR ESMX 091450Z 19013KT 1700 RASN FEW005 SCT006 BKN008 01/00 Q0999=
201103091420 METAR ESMX 091420Z 21014KT 3000 -RA FEW008 SCT011 BKN016 02/01 Q0999 REDZ=
201103091350 METAR ESMX 091350Z 23015G25KT 4700 DZ FEW009 BKN025 03/00 Q1000=
201103091320 METAR ESMX 091320Z 20014KT 6000 BR BKN027 OVC033 05/M01 Q1000=
201103091250 METAR ESMX 091250Z 21015KT 7000 BR FEW031 SCT037 05/M01 Q1000=
201103091220 METAR COR ESMX 091220Z 19017KT 8000 BR SCT030 BKN040 05/M01 Q1000=
201103091150 METAR ESMX 091150Z 18015KT 8000 SCT030 BKN040 05/M02 Q1001=
201103091120 METAR ESMX 091120Z 18015KT 8000 BKN034 BKN045 05/M02 Q1001=
201103091050 METAR ESMX 091050Z 18015KT 8000 BKN034 05/M03 Q1001=
201103090950 METAR ESMX 090950Z 19015KT CAVOK 04/M03 Q1003=
201103090850 METAR ESMX 090850Z 19011KT CAVOK 01/M05 Q1004=
201103090750 METAR ESMX 090750Z 18012KT CAVOK 01/M05 Q1005=
201103090720 METAR ESMX 090720Z 16008KT CAVOK M00/M06 Q1005=
201103090650 METAR COR ESMX 090650Z 17008KT CAVOK M02/M06 Q1006=
201103090620 METAR ESMX 090620Z 18007KT CAVOK M02/M07 Q1006=
201103090450 METAR ESMX 090450Z 17009KT CAVOK M02/M07 Q1007=
201103090050 METAR ESMX 090050Z 18006KT CAVOK M02/M08 Q1011=
201103090020 METAR ESMX 090020Z 18006KT CAVOK M02/M08 Q1011=
201103082350 METAR ESMX 082350Z 18006KT CAVOK M02/M08 Q1012=
201103082320 METAR ESMX 082320Z 17006KT CAVOK M02/M08 Q1013=
201103082250 METAR ESMX 082250Z 17007KT CAVOK M01/M08 Q1013=
201103082220 METAR ESMX 082220Z 17008KT CAVOK M01/M08 Q1014=
201103082150 METAR ESMX 082150Z 17007KT CAVOK M01/M08 Q1014=
201103082120 METAR ESMX 082120Z 17008KT CAVOK M01/M08 Q1015=
201103082050 METAR ESMX 082050Z 18008KT CAVOK M01/M08 Q1015=
201103082020 METAR ESMX 082020Z 17008KT CAVOK M01/M08 Q1016=
201103081950 METAR ESMX 081950Z 18008KT CAVOK M01/M07 Q1016=
201103081920 METAR ESMX 081920Z 10809KT CAVOK M01/M07 Q1017=
201103081850 METAR ESMX 081850Z 17010KT CAVOK M00/M07 Q1017=
201103081820 METAR ESMX 081820Z 17011KT CAVOK 00/M07 Q1017=
201103081750 METAR ESMX 081750Z 17009KT CAVOK 02/M07 Q1017=
201103081720 METAR ESMX 081720Z 18008KT CAVOK 03/M09 Q1017=
201103081650 METAR ESMX 081650Z 18010KT CAVOK 04/M10 Q1017=
201103081620 METAR COR ESMX 081620Z 18009KT CAVOK 05/M1 Q1017=
201103081520 METAR COR ESMX 081520Z 20011KT CAVOK 06/M10 Q1019=
201103081450 METAR COR ESMX 081450Z 20013KT CAVOK 06/M10 Q1019=
201103081420 METAR ESMX 081420Z 20013KT CAVOK 06/M10 Q1020=
201103081350 METAR ESMX 081350Z 20013KT CAVOK 06/M10 Q1020=
201103081320 METAR ESMX 081320Z 19014KT CAVOK 06/M10 Q1021=
201103081250 METAR ESMX 081250Z 21013KT CAVOK 06/M10 Q1021=
201103081220 METAR ESMX 081220Z 21012KT CAVOK 06/M10 Q1022=
201103081150 METAR ESMX 081150Z 21013KT CAVOK 05/M10 Q1022=
201103081120 METAR ESMX 081120Z 20015KT CAVOK 05/M10 Q1023=
201103081050 METAR ESMX 081050Z 19013KT CAVOK 04/M10 Q1023=
201103081020 METAR ESMX 081020Z 20012KT CAVOK 03/M10 Q1024=
201103080950 METAR ESMX 080950Z 20011KT CAVOK 03/M09 Q1024=
201103080920 METAR ESMX 080920Z 20011KT CAVOK 02/M08 Q1024=
201103080850 METAR ESMX 080850Z 21010KT CAVOK 01/M08 Q1025=
201103080820 METAR ESMX 080820Z 22008KT CAVOK M00/M08 Q1025=
201103080750 METAR ESMX 080750Z 22008KT CAVOK M02/M08 Q1025=
201103080650 METAR ESMX 080650Z 20008KT CAVOK M03/M08 Q1026=
201103080620 METAR ESMX 080620Z 19007KT CAVOK M05/M08 Q1026=
201103080550 METAR ESMX 080550Z 17005KT CAVOK M04/M08 Q1026=
201103080520 METAR ESMX 080520Z 18006KT CAVOK M04/M08 Q1027=
201103080450 METAR ESMX 080450Z 19006KT CAVOK M04/M08 Q1027=
201103080420 METAR ESMX 080420Z AUTO 19007KT 9999NDV NCD M05/M08 Q1027=
201103080350 METAR ESMX 080350Z AUTO 20005KT 9999NDV NCD M04/M08 Q1027=
201103080320 METAR ESMX 080320Z AUTO 20006KT 9999NDV NCD M03/M08 Q1027=
201103080250 METAR ESMX 080250Z AUTO 22007KT 9999NDV NCD M03/M08 Q1028=
201103080220 METAR ESMX 080220Z AUTO 23008KT 9999NDV NCD M03/M08 Q1028=
201103080150 METAR ESMX 080150Z AUTO 22007KT 9999NDV NCD M03/M08 Q1028=
201103080120 METAR ESMX 080120Z AUTO 22006KT 9999NDV NCD M03/M08 Q1028=
201103080050 METAR ESMX 080050Z 21005KT CAVOK M02/M07 Q1029=
201103080020 METAR ESMX 080020Z 21006KT CAVOK M02/M07 Q1029=
201103072350 METAR ESMX 072350Z 22005KT CAVOK M02/M07 Q1029=
201103072250 METAR ESMX 072250Z 24007KT 200V270 CAVOK M01/M08 Q1029=
201103072220 METAR ESMX 072220Z 24007KT CAVOK M01/M08 Q1029=
201103072150 METAR ESMX 072150Z 24007KT CAVOK M01/M08 Q1029=
201103072120 METAR ESMX 072120Z 24007KT CAVOK M00/M08 Q1029=
201103072050 METAR ESMX 072050Z 24006KT CAVOK M00/M09 Q1030=
201103072020 METAR ESMX 072020Z 24006KT 200V270 CAVOK M00/M09 Q1030=
201103071950 METAR ESMX 071950Z 23007KT 200V260 CAVOK M00/M09 Q1030=
201103071920 METAR ESMX 071920Z 25008KT 230V290 CAVOK M00/M09 Q1030=
201103071850 METAR ESMX 071850Z 24009KT 210V270 CAVOK 00/M09 Q1030=
201103071820 METAR ESMX 071820Z 25009KT 200V290 CAVOK 01/M09 Q1030=
201103071750 METAR ESMX 071750Z 25009KT 220V290 CAVOK 01/M08 Q1030=
201103071720 METAR ESMX 071720Z 23008KT 200V260 CAVOK 01/M08 Q1030=
201103071650 METAR ESMX 071650Z 25009KT 210V290 CAVOK 01/M08 Q1030=
201103071620 METAR ESMX 071620Z 25011KT 220V290 CAVOK 02/M08 Q1030=
201103071550 METAR ESMX 071550Z 25011KT CAVOK 02/M09 Q1031=
201103071520 METAR ESMX 071520Z 25015KT CAVOK 02/M10 Q1031=
201103071450 METAR ESMX 071450Z 24012KT 210V290 CAVOK 02/M09 Q1031=
201103071420 METAR ESMX 071420Z 25010KT 210V280 CAVOK 02/M08 Q1031=
201103071350 METAR COR ESMX 071350Z 25013KT 220V290 CAVOK 03/M09 Q1032=
201103071320 METAR ESMX 071320Z 23017KT CAVOK 03/M09 Q1032=
201103071250 METAR ESMX 071250Z 25013KT 210V290 CAVOK 03/M08 Q1032=
201103071220 METAR ESMX 071220Z 24013KT 210V280 CAVOK 03/M07 Q1032=
201103071150 METAR ESMX 071150Z 24011KT 190V280 CAVOK 03/M07 Q1032=
201103071120 METAR ESMX 071120Z 25012KT 200V290 CAVOK 03/M06 Q1032=
201103071050 METAR ESMX 071050Z 24013KT 210V270 CAVOK 02/M07 Q1032=
201103071020 METAR ESMX 071020Z 25010KT 200V300 CAVOK 02/M06 Q1032=
201103070950 METAR ESMX 070950Z 25011KT 210V290 CAVOK 01/M06 Q1032=
201103070920 METAR ESMX 070920Z 24011KT CAVOK 00/M07 Q1032=
201103070850 METAR ESMX 070850Z 24009KT 200V280 CAVOK M01/M07 Q1033=
201103070820 METAR ESMX 070820Z 24008KT 200V280 CAVOK M01/M07 Q1033=
201103070750 METAR ESMX 070750Z 23007KT 210V280 CAVOK M02/M07 Q1033=
201103070720 METAR ESMX 070720Z 23006KT CAVOK M03/M07 Q1033=
201103070650 METAR ESMX 070650Z 23005KT CAVOK M04/M08 Q1033=
201103070620 METAR ESMX 070620Z 23006KT CAVOK M05/M08 Q1033=
201103070550 METAR ESMX 070550Z 22005KT CAVOK M05/M09 Q1033=
201103070520 METAR ESMX 070520Z 22006KT CAVOK M06/M09 Q1033=
201103070450 METAR ESMX 070450Z 21006KT CAVOK M07/M10 Q1033=
201103070420 METAR ESMX 070420Z AUTO 21006KT 9999NDV NCD M07/M10 Q1033=
201103070350 METAR ESMX 070350Z AUTO 21005KT 9999NDV NCD M07/M10 Q1033=
201103070320 METAR ESMX 070320Z AUTO 23005KT 9999NDV NCD M07/M10 Q1033=
201103070250 METAR ESMX 070250Z AUTO 22005KT 9999NDV NCD M08/M10 Q1033=
201103070220 METAR ESMX 070220Z AUTO 20002KT 9999NDV NCD M09/M10 Q1033=
201103070150 METAR ESMX 070150Z AUTO 20003KT 9999NDV NCD M09/M10 Q1033=
201103070120 METAR ESMX 070120Z AUTO VRB02KT 9999NDV NCD M09/M10 Q1033=
201103070050 METAR ESMX 070050Z 18003KT CAVOK M08/M10 Q1033=
201103070020 METAR ESMX 070020Z 20003KT CAVOK M09/M10 Q1033=
201103062350 METAR ESMX 062350Z 21002KT CAVOK M09/M10 Q1033=
201103062320 METAR ESMX 062320Z 18003KT CAVOK M09/M11 Q1033=
201103062250 METAR ESMX 062250Z 17002KT CAVOK M09/M11 Q1033=
201103062220 METAR ESMX 062220Z 21002KT CAVOK M09/M11 Q1033=
201103062150 METAR ESMX 062150Z 15001KT CAVOK M07/M10 Q1032=
201103062120 METAR ESMX 062120Z VRB02KT CAVOK M08/M10 Q1032=
201103062050 METAR ESMX 062050Z 15001KT CAVOK M06/M09 Q1032=
201103062020 METAR ESMX 062020Z 17001KT CAVOK M06/M09 Q1032=
201103061950 METAR ESMX 061950Z VRB01KT CAVOK M05/M08 Q1032=
201103061920 METAR ESMX 061920Z VRB01KT CAVOK M06/M09 Q1031=
201103061850 METAR ESMX 061850Z 00000KT CAVOK M05/M09 Q1031=
201103061820 METAR ESMX 061820Z 28001KT CAVOK M04/M08 Q1031=
201103061750 METAR ESMX 061750Z 03002KT CAVOK M02/M09 Q1031=
201103061720 METAR ESMX 061720Z 34004KT CAVOK M02/M09 Q1030=
201103061650 METAR ESMX 061650Z 32004KT CAVOK M00/M09 Q1030=
201103061620 METAR ESMX 061620Z 33007KT CAVOK 01/M09 Q1029=
201103061550 METAR ESMX 061550Z 33007KT CAVOK 02/M09 Q1029=
201103061520 METAR ESMX 061520Z 32008KT 290V350 CAVOK 02/M09 Q1029=
201103061450 METAR ESMX 061450Z 34008KT CAVOK 02/M10 Q1029=
201103061420 METAR ESMX 061420Z 35008KT 320V020 CAVOK 02/M10 Q1028=
201103061350 METAR ESMX 061350Z 34009KT 9999 FEW046 03/M09 Q1028=
201103061320 METAR ESMX 061320Z 35011KT CAVOK 03/M09 Q1028=
201103061250 METAR ESMX 061250Z 34011KT CAVOK 02/M09 Q1028=
201103061220 METAR ESMX 061220Z 36010KT CAVOK 02/M09 Q1027=
201103061150 METAR ESMX 061150Z 35010KT 320V020 CAVOK 02/M08 Q1027=
201103061120 METAR ESMX 061120Z 34012KT 300V010 CAVOK 01/M09 Q1027=
201103061050 METAR ESMX 061050Z 33010KT CAVOK 01/M09 Q1026=
201103061020 METAR ESMX 061020Z 34010KT CAVOK 01/M09 Q1026=
201103060950 METAR ESMX 060950Z 35008KT 310V020 CAVOK 00/M09 Q1026=
201103060920 METAR ESMX 060920Z AUTO 34008KT 9999NDV NCD M01/M10 Q1025=
201103060850 METAR ESMX 060850Z AUTO 35011KT 310V020 9999NDV NCD M01/M10 Q1025=
201103060820 METAR ESMX 060820Z AUTO 34009KT 300V010 9999NDV NCD M02/M10 Q1025=
201103060750 METAR ESMX 060750Z AUTO 34009KT 300V010 9999NDV NCD M03/M10 Q1024=
201103060720 METAR ESMX 060720Z AUTO 32008KT 9999NDV NCD M03/M10 Q1024=
201103060650 METAR ESMX 060650Z AUTO 33008KT 280V010 9999NDV NCD M04/M10 Q1024=
201103060620 METAR ESMX 060620Z AUTO 32009KT 9999NDV NCD M04/M11 Q1023=
201103060550 METAR ESMX 060550Z AUTO 32009KT 9999NDV NCD M04/M11 Q1023=
201103060520 METAR ESMX 060520Z AUTO 33007KT 9999NDV NCD M05/M11 Q1023=
201103060450 METAR ESMX 060450Z AUTO 33006KT 300V360 9999NDV NCD M04/M11 Q1022=
201103060420 METAR ESMX 060420Z AUTO 31008KT 9999NDV NCD M04/M11 Q1022=
201103060350 METAR ESMX 060350Z AUTO 32008KT 9999NDV NCD M03/M11 Q1022=
201103060320 METAR ESMX 060320Z AUTO 33009KT 9999NDV NCD M03/M11 Q1021=
201103060250 METAR ESMX 060250Z AUTO 33009KT 9999NDV NCD M03/M11 Q1021=
201103060220 METAR ESMX 060220Z AUTO 33010KT 9999NDV NCD M03/M11 Q1020=
201103060150 METAR ESMX 060150Z AUTO 33010KT 300V010 9999NDV NCD M02/M10 Q1020=
201103060120 METAR ESMX 060120Z AUTO 32010KT 9999NDV NCD M02/M10 Q1020=
201103060050 METAR ESMX 060050Z AUTO 32006KT 9999NDV NCD M02/M10 Q1020=
201103060020 METAR ESMX 060020Z AUTO 34009KT 310V020 9999NDV NCD M02/M10 Q1019=
201103052350 METAR ESMX 052350Z AUTO 33009KT 290V350 9999NDV NCD M01/M10 Q1019=
201103052320 METAR ESMX 052320Z AUTO 31009KT 9999NDV NCD M01/M10 Q1019=
201103052250 METAR ESMX 052250Z AUTO 32010KT 9999NDV NCD M01/M10 Q1019=
201103052220 METAR ESMX 052220Z AUTO 32010KT 9999NDV NCD M01/M10 Q1018=
201103052150 METAR ESMX 052150Z AUTO 32011KT 9999NDV NCD M01/M10 Q1018=
201103052120 METAR ESMX 052120Z AUTO 33009KT 9999NDV NCD M00/M10 Q1018=
201103052050 METAR ESMX 052050Z AUTO 32012KT 9999NDV NCD 00/M10 Q1018=
201103052020 METAR ESMX 052020Z AUTO 32009KT 290V010 9999NDV NCD M00/M09 Q1017=
201103051950 METAR ESMX 051950Z AUTO 31009KT 9999NDV NCD M00/M09 Q1017=
201103051920 METAR ESMX 051920Z AUTO 31009KT 290V350 9999NDV NCD 00/M09 Q1017=
201103051850 METAR ESMX 051850Z AUTO 30007KT 260V330 9999NDV NCD 00/M09 Q1017=
201103051820 METAR ESMX 051820Z AUTO 31009KT 9999NDV NCD 01/M09 Q1017=
201103051750 METAR ESMX 051750Z AUTO 30007KT 260V330 9999NDV NCD 01/M09 Q1017=
201103051720 METAR ESMX 051720Z AUTO 33009KT 300V020 9999NDV NCD 02/M10 Q1016=
201103051650 METAR ESMX 051650Z AUTO 32013KT 9999NDV NCD 02/M10 Q1016=
201103051620 METAR ESMX 051620Z AUTO 32011KT 9999NDV FEW061/// 03/M10 Q1015=
201103051550 METAR ESMX 051550Z AUTO 32015KT 9999NDV NCD 03/M10 Q1015=
201103051520 METAR ESMX 051520Z AUTO 33015KT 290V010 9999NDV NCD 04/M11 Q1015=
201103051450 METAR ESMX 051450Z AUTO 33014KT 290V010 9999NDV FEW070/// 04/M10 Q1014=
201103051420 METAR ESMX 051420Z AUTO 33019KT 300V360 9999NDV FEW070/// 05/M11 Q1014=
201103051350 METAR ESMX 051350Z AUTO 32016KT 9999NDV NCD 04/M11 Q1014=
201103051320 METAR ESMX 051320Z AUTO 33015KT 290V020 9999NDV NCD 05/M11 Q1014=
201103051250 METAR ESMX 051250Z 33016G26KT 290V360 CAVOK 05/M09 Q1014=
201103051220 METAR ESMX 051220Z 31015KT 280V340 9999 FEW035 05/M08 Q1014=
201103051150 METAR COR ESMX 051150Z 33013KT 9999 FEW035 05/M07 Q1014=
201103051120 METAR ESMX 051120Z 34014KT 300V010 9999 FEW035 05/M07 Q1014=
201103051050 METAR ESMX 051050Z 33015KT CAVOK 05/M07 Q1014=
201103051020 METAR ESMX 051020Z 34011KT 300V020 9999 SCT035 04/M05 Q1014=
201103050950 METAR ESMX 050950Z 33012KT 300V010 9999 FEW035 04/M03 Q1014=
201103050920 METAR ESMX 050920Z 31009KT 280V340 CAVOK 03/M02 Q1013=
201103050850 METAR ESMX 050850Z 30009KT CAVOK 03/M01 Q1013=
201103050820 METAR ESMX 050820Z 28007KT 250V320 9999 FEW010 03/M00 Q1013=
201103050750 METAR ESMX 050750Z 29009KT 250V320 9999 FEW010 02/M00 Q1013=
201103050720 METAR ESMX 050720Z AUTO 29009KT 9999NDV BKN073/// 02/M00 Q1013=
201103050650 METAR ESMX 050650Z AUTO 28007KT 9999NDV FEW008/// 01/M00 Q1013=
201103050620 METAR ESMX 050620Z AUTO 29006KT 9999NDV BKN007/// 01/M00 Q1013=
201103050550 METAR ESMX 050550Z AUTO 29006KT 250V320 9999NDV BKN008/// 01/M00 Q1013=
201103050520 METAR ESMX 050520Z AUTO 30006KT 260V340 9999NDV SCT009/// BKN011/// 01/M00 Q1013=
201103050450 METAR ESMX 050450Z AUTO 29007KT 250V320 9999NDV OVC009/// 02/M00 Q1013=
201103050420 METAR ESMX 050420Z AUTO 29008KT 9999NDV BKN009/// BKN016/// 02/M00 Q1013=
201103050350 METAR ESMX 050350Z AUTO 28011KT 250V320 9999NDV BKN009/// 02/M00 Q1013=
201103050320 METAR ESMX 050320Z AUTO 27012KT 9999NDV FEW008/// SCT009/// BKN011/// 02/00 Q1013=
201103050250 METAR ESMX 050250Z AUTO 27011KT 250V310 9999NDV BKN008/// 02/00 Q1013=
201103050220 METAR ESMX 050220Z AUTO 27012KT 230V290 9999NDV BKN008/// BKN011/// 02/00 Q1014=
201103050150 METAR ESMX 050150Z AUTO 27011KT 9999NDV FEW008/// BKN009/// BKN011/// 02/00 Q1014=
201103050120 METAR ESMX 050120Z AUTO 27013KT 9999NDV FEW008/// BKN010/// 02/M00 Q1014=
201103050050 METAR ESMX 050050Z AUTO 26009KT 230V290 9999NDV SCT009/// BKN014/// 01/M00 Q1014=
201103050020 METAR ESMX 050020Z AUTO 26011KT 230V300 9999NDV NCD 01/M00 Q1014=
201103042350 METAR ESMX 042350Z AUTO 27011KT 9999NDV NCD 02/M00 Q1015=
201103042320 METAR ESMX 042320Z AUTO 27009KT 240V300 9999NDV NCD 02/M00 Q1015=
201103042250 METAR ESMX 042250Z AUTO 26010KT 230V300 9999NDV FEW011/// 02/M00 Q1015=
201103042220 METAR ESMX 042220Z AUTO 28011KT 250V310 9999NDV BKN011/// 02/M00 Q1015=
201103042150 METAR ESMX 042150Z AUTO 27012KT 9999NDV BKN011/// 02/00 Q1016=
201103042120 METAR ESMX 042120Z AUTO 28011KT 250V320 9999NDV BKN011/// 02/00 Q1016=
201103042050 METAR ESMX 042050Z AUTO 27012KT 240V300 9999NDV OVC011/// 02/00 Q1016=
201103042020 METAR ESMX 042020Z 27011KT 250V320 9999 BKN011 02/M00 Q1016=
201103041950 METAR ESMX 041950Z 27011KT 250V310 9999 BKN013 02/M00 Q1016=
201103041920 METAR ESMX 041920Z 27011KT 9999 SCT014 02/M01 Q1016=
201103041850 METAR ESMX 041850Z 26010KT 9999 SCT014 02/M00 Q1017=
201103041820 METAR ESMX 041820Z 26010KT 220V290 9999 BKN011 BKN018 02/M00 Q1017=
201103041750 METAR ESMX 041750Z 24010KT 200V260 9999 BKN010 BKN015 02/M00 Q1018=
201103041720 METAR ESMX 041720Z 26009KT 210V290 9999 FEW008 OVC010 02/M00 Q1018=
201103041650 METAR ESMX 041650Z 26010KT 9999 BKN008 01/M00 Q1018=
201103041620 METAR ESMX 041620Z 26009KT 230V300 9999 OVC007 01/M00 Q1019=
201103041550 METAR ESMX 041550Z 26011KT 230V290 9999 OVC007 01/M01 Q1019=
201103041520 METAR ESMX 041520Z 25009KT 9999 BKN006 OVC009 01/M01 Q1020=
201103041450 METAR ESMX 041450Z 24010KT 200V270 9999 OVC005 00/M01 Q1020=
201103041420 METAR ESMX 041420Z 25009KT 9999 OVC004 00/M01 Q1021=
201103041350 METAR ESMX 041350Z 24013KT 9999 OVC004 M00/M01 Q1022=
201103041320 METAR ESMX 041320Z 25008KT 210V290 9000 BR OVC004 M00/M01 Q1022=
201103041250 METAR ESMX 041250Z 24009KT 200V280 8000 BR OVC004 M01/M01 Q1023=
201103041220 METAR ESMX 041220Z 25012KT 8000 BR BKN005 OVC007 M01/M01 Q1023=
201103041150 METAR ESMX 041150Z 24010KT 9000 BR OVC005 M00/M01 Q1024=
201103041120 METAR ESMX 041120Z AUTO 25010KT 220V280 9999NDV BR OVC003/// M00/M01 Q1024=
201103041050 METAR ESMX 041050Z 24009KT 210V290 7000 BR OVC004 M00/M01 Q1025=
201103041020 METAR ESMX 041020Z 25009KT 6000 BR OVC003 M00/M01 Q1025=
201103040950 METAR ESMX 040950Z 26008KT 210V280 2600 BR OVC002 M01/M01 Q1026=
201103040920 METAR ESMX 040920Z 25006KT 210V290 3000 BR OVC002 M01/M02 Q1027=
201103040850 METAR ESMX 040850Z 25006KT 200V280 3000 BR OVC003 M02/M02 Q1027=
201103040820 METAR ESMX 040820Z 23007KT 3000 SG BKN001 OVC005 M02/M02 Q1027=
201103040750 METAR ESMX 040750Z 25006KT 220V290 2000 BR OVC001 M02/M03 Q1028=
201103040720 METAR ESMX 040720Z 26005KT 220V290 2000 BR OVC001 M03/M03 Q1028=
201103040650 METAR ESMX 040650Z 26006KT 210V290 1000 R01/1600U R19/1900U FZFG VV002 M03/M03 Q1028=
201103040620 METAR ESMX 040620Z 26004KT 210V290 1700 BR OVC001 M03/M04 Q1029=
201103040550 METAR ESMX 040550Z 26004KT 210V290 1000 R01/P2000N R19/P2000N FZFG VV002 M03/M04 Q1029=
201103040520 METAR ESMX 040520Z 25006KT 210V290 0900 R01/P2000N R19/P2000N FZFG VV002 M03/M04 Q1029=
201103040450 METAR ESMX 040450Z 26005KT 0700 R01/P2000N R19/P2000N FZFG VV002 M03/M04 Q1029=
201103040420 METAR ESMX 040420Z AUTO 25004KT 220V310 0800NDV R01/P2000N R19/P2000N FZFG VV002 M03/M04 Q1029=
201103040350 METAR ESMX 040350Z AUTO 30004KT 0550NDV R01/1300VP2000D R19/1800U=
201103040320 METAR ESMX 040320Z AUTO 29004KT 0800NDV R01/P2000N R19/P2000N FZFG VV002 M03/M04 Q1030=
201103040250 METAR ESMX 040250Z AUTO 24004KT 200V280 0700NDV R01/P2000D R19/P2000N FZFG VV002 M03/M03 Q1030=
201103040220 METAR ESMX 040220Z AUTO 26006KT 230V290 0500NDV R01/1200VP2000D R19/P2000N FZFG VV001 M03/M03 Q1030=
201103040150 METAR ESMX 040150Z AUTO 29004KT 0500NDV R01/1600N R19/P2000N FZFG VV002 M03/M03 Q1031=
201103040120 METAR ESMX 040120Z AUTO 26003KT 230V290 0650NDV R01/1500VP2000U R19/P2000N FZFG VV002 M03/M03 Q1031=
201103040050 METAR ESMX 040050Z AUTO 30004KT 260V340 0800NDV R01/P2000N R19/P2000N FZFG VV002 M03/M03 Q1031=
201103040020 METAR ESMX 040020Z 28004KT 250V320 0800 R01/P2000N R19/P2000N FZFG VV002 M02/M03 Q1031=
201103032350 METAR ESMX 032350Z 31004KT 0900 R01/P2000N R19/P2000N FZFG VV002 M02/M03 Q1032=
201103032320 METAR ESMX 032320Z 29005KT 260V330 2500 BR OVC002 M02/M03 Q1032=
201103032250 METAR ESMX 032250Z 32006KT 250V350 4700 BR OVC002 M02/M03 Q1032=
201103032220 METAR ESMX 032220Z 33005KT 5000 BR OVC002 M02/M03 Q1032=
201103032150 METAR ESMX 032150Z 29004KT 260V330 6000 BR OVC002 M02/M03 Q1032=
201103032120 METAR ESMX 032120Z 31005KT 270V340 7000 BR OVC002 M02/M03 Q1032=
201103032050 METAR ESMX 032050Z 30006KT 8000 BR OVC003 M02/M03 Q1032=
201103032020 METAR ESMX 032020Z 34006KT 300V360 8000 BR OVC004 M02/M03 Q1032=
201103031950 METAR ESMX 031950Z 32004KT 250V360 8000 BR OVC004 M02/M03 Q1032=
201103031920 METAR ESMX 031920Z 29006KT 260V320 8000 BR OVC004 M02/M03 Q1032=
201103031850 METAR COR ESMX 031850Z 30006KT 260V330 9000 BR OVC005 M02/M03 Q1032=
201103031820 METAR ESMX 031820Z 33007KT 290V020 9999 OVC005 M01/M03 Q1032=
201103031750 METAR ESMX 031750Z 31007KT 9999 OVC006 M01/M03 Q1032=
201103031720 METAR ESMX 031720Z 30007KT 9999 OVC007 M01/M03 Q1032=
201103031650 METAR ESMX 031650Z 30006KT 270V330 9999 OVC008 M01/M03 Q1032=
201103031620 METAR ESMX 031620Z 32006KT 290V350 9999 OVC009 M01/M03 Q1032=
201103031550 METAR ESMX 031550Z 32006KT 280V350 9999 OVC009 M01/M03 Q1032=
201103031520 METAR ESMX 031520Z 31006KT 280V340 9999 OVC010 M01/M03 Q1033=
201103031450 METAR ESMX 031450Z 28007KT 250V320 9999 OVC010 M01/M03 Q1032=
201103031420 METAR ESMX 031420Z 30007KT 270V340 9000 BR OVC010 M01/M03 Q1032=
201103031350 METAR ESMX 031350Z 31007KT 250V340 9000 BR OVC009 M01/M03 Q1033=
201103031320 METAR ESMX 031320Z 30007KT 250V320 9000 BR OVC009 M01/M04 Q1033=
201103031250 METAR ESMX 031250Z 32007KT 280V350 9999 OVC008 M01/M04 Q1033=
201103031220 METAR ESMX 031220Z 31009KT 8000 BR OVC007 M02/M04 Q1033=
201103031150 METAR ESMX 031150Z 28007KT 6000 BR OVC006 M02/M04 Q1033=
201103031120 METAR ESMX 031120Z 31007KT 280V340 6000 BR OVC006 M02/M04 Q1034=
201103031050 METAR ESMX 031050Z 29007KT 240V320 5000 BR OVC005 M03/M04 Q1034=
201103031020 METAR ESMX 031020Z 28006KT 250V320 5000 BR OVC004 M03/M04 Q1034=
201103030920 METAR ESMX 030920Z 29008KT 250V320 4700 BR OVC003 M03/M04 Q1035=
201103030850 METAR ESMX 030850Z 28007KT 3900 BR OVC003 M03/M04 Q1035=
201103030820 METAR ESMX 030820Z 27006KT 240V300 4000 BR OVC002 M04/M04 Q1035=
201103030750 METAR ESMX 030750Z 29007KT 260V330 4000 BR OVC002 M04/M05 Q1035=
201103030720 METAR ESMX 030720Z 27007KT 4000 BR OVC002 M04/M04 Q1035=
201103030650 METAR ESMX 030650Z 26006KT 220V290 4000 BR OVC002 M04/M05 Q1035=
201103030620 METAR ESMX 030620Z 22006KT 200V260 4000 BR OVC002 M04/M05 Q1034=
201103030550 METAR ESMX 030550Z 24006KT 200V280 3000 BR OVC002 M04/M05 Q1034=
201103030520 METAR ESMX 030520Z 27006KT 240V300 3000 BR OVC002 M04/M05 Q1035=
201103030450 METAR ESMX 030450Z 27006KT 230V300 2500 BR OVC002 M04/M05 Q1035=
201103030420 METAR ESMX 030420Z AUTO 26008KT 240V300 2300NDV BR OVC001/// M04/M05 Q1035=
201103030350 METAR ESMX 030350Z AUTO 25008KT 1900NDV BR OVC001/// M04/M05 Q1035=
201103030320 METAR ESMX 030320Z AUTO 26007KT 240V320 2100NDV BR OVC001/// M04/M05 Q1035=
201103030250 METAR ESMX 030250Z AUTO 24007KT 200V270 1100NDV R01/P2000N R19/P2000N BR OVC001/// M04/M05 Q1035=
201103030220 METAR ESMX 030220Z AUTO 23008KT 1900NDV BR OVC001/// M04/M05 Q1035=
201103030150 METAR ESMX 030150Z AUTO 25006KT 200V290 2000NDV BR OVC001/// M04/M05 Q1036=
201103030120 METAR ESMX 030120Z AUTO 24006KT 2100NDV BR OVC001/// M04/M05 Q1037=
201103030050 METAR ESMX 030050Z AUTO 23005KT 200V290 1800NDV BR OVC001/// M04/M04 Q1037=
201103030020 METAR ESMX 030020Z AUTO 23007KT 200V260 2500NDV BR OVC001/// M04/M04 Q1037=
201103022350 METAR COR ESMX 022350Z 22006KT 190V260 3500 BR OVC002 M04/M04 Q1037=
201103022320 METAR ESMX 022320Z 23007KT 200V260 4000 BR OVC002 M04/M04 Q1038=
201103022250 METAR ESMX 022250Z 24007KT 5000 BR OVC003 M04/M04 Q1038=
201103022220 METAR ESMX 022220Z 23007KT 210V280 6000 BR SCT004 OVC005 M03/M04 Q1038=
201103022150 METAR ESMX 022150Z 24007KT 7000 BR OVC005 M03/M05 Q1038=
201103022120 METAR ESMX 022120Z 21007KT 9000 OVC006 M03/M05 Q1038=
201103022050 METAR ESMX 022050Z 23006KT 9999 OVC007 M03/M05 Q1039=
201103022020 METAR ESMX 022020Z 23007KT 9999 OVC008 M03/M05 Q1039=
201103021950 METAR ESMX 021950Z 21006KT 9999 OVC009 M03/M05 Q1039=
201103021920 METAR ESMX 021920Z 23006KT 9999 OVC009 M03/M05 Q1039=
201103021850 METAR ESMX 021850Z 18005KT 9999 OVC009 M02/M05 Q1039=
201103021820 METAR ESMX 021820Z 18005KT 150V230 9999 OVC009 M02/M05 Q1039=
201103021750 METAR ESMX 021750Z 19004KT 9999 OVC009 M02/M05 Q1039=
201103021720 METAR ESMX 021720Z 17003KT 130V200 9999 OVC009 M02/M04 Q1040=
201103021620 METAR ESMX 021620Z 21003KT 160V270 9999 OVC010 M02/M05 Q1040=
201103021550 METAR ESMX 021550Z 16004KT 9999 OVC011 M02/M05 Q1040=
201103021520 METAR ESMX 021520Z 19005KT 150V240 9999 OVC011 M02/M05 Q1040=
201103021450 METAR ESMX 021450Z 20003KT 160V250 9999 OVC011 M02/M05 Q1040=
201103021350 METAR ESMX 021350Z VRB03KT 9999 OVC011 M02/M05 Q1041=
201103021320 METAR ESMX 021320Z 21004KT 170V250 9999 OVC011 M02/M05 Q1041=
201103021250 METAR ESMX 021250Z 18003KT 150V220 9999 OVC010 M02/M05 Q1041=
201103021220 METAR ESMX 021220Z VRB02KT 9999 OVC010 M02/M05 Q1041=
201103021150 METAR ESMX 021150Z 18003KT 140V240 9999 OVC010 M02/M05 Q1041=
201103021120 METAR ESMX 021120Z VRB02KT 9999 OVC009 M02/M05 Q1041=
201103021050 METAR ESMX 021050Z VRB02KT 9999 OVC008 M02/M05 Q1042=
201103021020 METAR ESMX 021020Z 18004KT 150V250 9999 OVC008 M03/M05 Q1042=
201103020950 METAR ESMX 020950Z VRB02KT 9999 OVC008 M03/M05 Q1042=
201103020920 METAR ESMX 020920Z 11003KT 070V170 9999 OVC007 M03/M05 Q1041=
201103020850 METAR ESMX 020850Z 11003KT 020V170 9999 OVC007 M03/M05 Q1041=
201103020820 METAR ESMX 020820Z VRB02KT 9999 OVC007 M03/M05 Q1042=
201103020750 METAR ESMX 020750Z 14004KT 100V190 9999 OVC007 M03/M05 Q1041=
201103020720 METAR ESMX 020720Z VRB02KT 9999 OVC007 M03/M05 Q1042=
201103020650 METAR ESMX 020650Z 03003KT 330V110 9999 OVC008 M03/M05 Q1042=
201103020620 METAR ESMX 020620Z 04003KT 350V080 9999 OVC008 M03/M05 Q1042=
201103020550 METAR ESMX 020550Z VRB02KT 9999 OVC008 M03/M05 Q1041=
201103020520 METAR ESMX 020520Z 02005KT 340V050 9999 OVC008 M03/M05 Q1041=
201103020450 METAR ESMX 020450Z 01003KT 330V050 9999 OVC008 M03/M05 Q1041=
201103020420 METAR ESMX 020420Z 35005KT 9999 OVC008 M03/M05 Q1041=
201103020350 METAR ESMX 020350Z AUTO 02004KT 350V060 9999NDV OVC009/// M03/M05 Q1041=
201103020320 METAR ESMX 020320Z AUTO 36004KT 310V030 9999NDV OVC009/// M03/M05 Q1041=
201103020250 METAR ESMX 020250Z AUTO 36004KT 320V050 9999NDV OVC009/// M03/M05 Q1041=
201103020220 METAR ESMX 020220Z AUTO 34004KT 9999NDV OVC009/// M03/M05 Q1041=
201103020150 METAR ESMX 020150Z AUTO 35004KT 9999NDV OVC009/// M03/M05 Q1040=
201103020120 METAR ESMX 020120Z AUTO 03005KT 9999NDV OVC009/// M03/M05 Q1041=
201103020050 METAR ESMX 020050Z AUTO 35005KT 9999NDV OVC010/// M02/M05 Q1041=
201103020020 METAR ESMX 020020Z 33005KT 9999 OVC010 M02/M04 Q1040=
201103012350 METAR ESMX 012350Z 34006KT 9999 OVC010 M02/M04 Q1040=
201103012320 METAR ESMX 012320Z 35005KT 320V020 9999 OVC011 M02/M04 Q1040=
201103012250 METAR ESMX 012250Z 33007KT 9999 OVC010 M02/M04 Q1040=
201103012220 METAR ESMX 012220Z 32007KT 9999 OVC010 M02/M04 Q1040=
201103012150 METAR ESMX 012150Z 34006KT 300V010 9999 OVC010 M02/M04 Q1040=
201103012120 METAR ESMX 012120Z 33004KT 300V360 9999 OVC011 M01/M04 Q1040=
201103012050 METAR ESMX 012050Z 32005KT 290V350 9999 BR OVC011 M01/M04 Q1040=
201103012020 METAR ESMX 012020Z 32006KT 290V350 8000 BR OVC010 M02/M04 Q1040=
201103011950 METAR ESMX 011950Z 32006KT 7000 BR OVC010 M01/M04 Q1039=
201103011920 METAR ESMX 011920Z 31005KT 280V350 7000 BR OVC010 M01/M04 Q1040=
201103011850 METAR ESMX 011850Z 31006KT 7000 BR OVC009 M01/M03 Q1039=
201103011820 METAR ESMX 011820Z 32006KT 290V360 7000 BR OVC009 M01/M03 Q1039=
201103011750 METAR ESMX 011750Z 31006KT 6000 BR OVC010 M01/M03 Q1039=
201103011720 METAR ESMX 011720Z 31005KT 5000 BR OVC009 M01/M03 Q1039=
201103011650 METAR ESMX 011650Z 30004KT 5000 BR OVC008 M01/M03 Q1039=
201103011620 METAR ESMX 011620Z 27003KT 5000 BR OVC007 M01/M03 Q1039=
201103011550 METAR ESMX 011550Z VRB02KT 5000 BR OVC007 M01/M03 Q1038=
201103011520 METAR ESMX 011520Z 29003KT 240V340 5000 BR OVC007 M01/M03 Q1038=
201103011450 METAR ESMX 011450Z 30004KT 270V340 5000 BR OVC007 M01/M03 Q1038=
201103011420 METAR ESMX 011420Z 28005KT 5000 BR OVC007 M01/M03 Q1038=
201103011350 METAR ESMX 011350Z 29004KT 260V330 5000 BR OVC007 M01/M03 Q1038=
201103011320 METAR ESMX 011320Z 28004KT 5000 BR OVC007 M01/M03 Q1038=
201103011250 METAR ESMX 011250Z 25004KT 220V280 5000 BR OVC006 M02/M03 Q1038=
201103011220 METAR ESMX 011220Z 26003KT 200V300 5000 BR OVC005 M02/M04 Q1038=
