##########################################################
# Query made at 04/19/2024 21:22:43 UTC
# Time interval: from 06/01/2011 12:00  to 06/30/2011 12:59  UTC
##########################################################

##########################################################
# ESMX, Vaxjo (Sweden)
# WMO index: 02641. WIGOS ID: 0-20000-0-02648
# Latitude 56-51N. Longitude 014-50E. Altitude 199 m.
##########################################################

201106301250 METAR ESMX 301250Z 18007KT 140V200 CAVOK 27/12 Q1011=
201106301220 METAR ESMX 301220Z 17006KT 130V220 CAVOK 27/12 Q1011=
201106301150 METAR ESMX 301150Z 18005KT 120V240 CAVOK 26/12 Q1011=
201106301120 METAR ESMX 301120Z 17006KT 120V210 CAVOK 25/11 Q1011=
201106301050 METAR ESMX 301050Z VRB04KT CAVOK 26/12 Q1011=
201106301020 METAR ESMX 301020Z 04004KT 340V120 CAVOK 24/12 Q1012=
201106300950 METAR ESMX 300950Z VRB03KT CAVOK 24/11 Q1012=
201106300920 METAR ESMX 300920Z VRB05KT CAVOK 24/12 Q1012=
201106300850 METAR ESMX 300850Z 05004KT 350V110 CAVOK 23/12 Q1013=
201106300820 METAR ESMX 300820Z 04005KT 350V080 CAVOK 23/12 Q1013=
201106300750 METAR ESMX 300750Z 02004KT 310V080 CAVOK 22/13 Q1013=
201106300720 METAR ESMX 300720Z 05004KT 330V120 CAVOK 21/12 Q1013=
201106300650 METAR ESMX 300650Z 04004KT 340V080 CAVOK 20/12 Q1013=
201106300620 METAR ESMX 300620Z 04004KT 010V070 CAVOK 20/12 Q1013=
201106300550 METAR ESMX 300550Z 05004KT 020V110 CAVOK 19/13 Q1013=
201106300520 METAR ESMX 300520Z VRB02KT CAVOK 18/14 Q1014=
201106300450 METAR ESMX 300450Z VRB02KT CAVOK 17/14 Q1014=
201106300420 METAR ESMX 300420Z VRB01KT CAVOK 14/13 Q1014=
201106300350 METAR ESMX 300350Z 00000KT CAVOK 12/11 Q1014=
201106300320 METAR ESMX 300320Z AUTO 00000KT 9999NDV NCD 10/09 Q1014=
201106300250 METAR ESMX 300250Z AUTO 01001KT 6000NDV BR NCD 10/09 Q1014=
201106300220 METAR ESMX 300220Z AUTO 04002KT 9999NDV NCD 10/09 Q1014=
201106300150 METAR ESMX 300150Z AUTO VRB01KT 9999NDV NCD 09/08 Q1014=
201106300120 METAR ESMX 300120Z AUTO 00000KT 9999NDV NCD 10/09 Q1015=
201106300050 METAR ESMX 300050Z AUTO 00000KT 9999NDV NCD 10/09 Q1015=
201106300020 METAR ESMX 300020Z AUTO 00000KT 9999NDV NCD 11/09 Q1015=
201106292350 METAR ESMX 292350Z 18001KT CAVOK 12/10 Q1015=
201106292320 METAR ESMX 292320Z 00000KT CAVOK 12/10 Q1015=
201106292250 METAR ESMX 292250Z 00000KT CAVOK 13/10 Q1016=
201106292220 METAR ESMX 292220Z 00000KT CAVOK 14/11 Q1016=
201106292150 METAR ESMX 292150Z 22001KT CAVOK 15/11 Q1016=
201106292120 METAR ESMX 292120Z 17003KT 150V210 CAVOK 16/11 Q1016=
201106292050 METAR ESMX 292050Z 16003KT CAVOK 18/11 Q1016=
201106292020 METAR ESMX 292020Z VRB02KT CAVOK 20/11 Q1016=
201106291950 METAR ESMX 291950Z 12003KT 070V190 CAVOK 21/11 Q1016=
201106291920 METAR ESMX 291920Z 15005KT 110V180 CAVOK 22/11 Q1016=
201106291850 METAR ESMX 291850Z 16003KT 120V200 CAVOK 24/11 Q1015=
201106291820 METAR ESMX 291820Z 14004KT 100V180 CAVOK 25/10 Q1015=
201106291750 METAR ESMX 291750Z 15004KT 110V190 CAVOK 25/09 Q1015=
201106291720 METAR ESMX 291720Z 14006KT 100V200 CAVOK 26/09 Q1015=
201106291650 METAR ESMX 291650Z 18006KT 150V210 CAVOK 26/09 Q1016=
201106291620 METAR ESMX 291620Z 15005KT 110V200 CAVOK 26/10 Q1016=
201106291550 METAR ESMX 291550Z 17007KT 140V210 CAVOK 26/10 Q1016=
201106291520 METAR ESMX 291520Z 16007KT 120V200 CAVOK 27/11 Q1016=
201106291450 METAR ESMX 291450Z 16005KT 110V210 CAVOK 27/10 Q1016=
201106291420 METAR ESMX 291420Z 17007KT 110V210 CAVOK 27/10 Q1016=
201106291350 METAR ESMX 291350Z 15007KT 060V190 CAVOK 26/10 Q1017=
201106291320 METAR ESMX 291320Z 17007KT 110V220 CAVOK 27/11 Q1017=
201106291250 METAR ESMX 291250Z 17008KT 120V200 CAVOK 27/10 Q1017=
201106291220 METAR ESMX 291220Z 15008KT 110V200 CAVOK 26/11 Q1017=
201106291150 METAR ESMX 291150Z 17007KT 130V200 CAVOK 26/11 Q1018=
201106291120 METAR ESMX 291120Z 16007KT 120V210 CAVOK 25/11 Q1018=
201106291050 METAR ESMX 291050Z 15006KT 070V190 CAVOK 25/11 Q1018=
201106291020 METAR ESMX 291020Z 13005KT 040V200 CAVOK 25/11 Q1018=
201106290950 METAR ESMX 290950Z 15007KT 100V210 CAVOK 25/11 Q1019=
201106290920 METAR ESMX 290920Z 15008KT 120V180 CAVOK 24/11 Q1019=
201106290850 METAR ESMX 290850Z 14004KT CAVOK 24/11 Q1019=
201106290820 METAR ESMX 290820Z VRB04KT CAVOK 23/10 Q1019=
201106290750 METAR ESMX 290750Z 10004KT 040V210 CAVOK 23/11 Q1019=
201106290720 METAR ESMX 290720Z 07004KT 010V170 CAVOK 22/11 Q1019=
201106290650 METAR ESMX 290650Z 09004KT 030V210 CAVOK 21/10 Q1020=
201106290620 METAR ESMX 290620Z 10005KT 060V140 CAVOK 20/10 Q1020=
201106290550 METAR ESMX 290550Z 08004KT 040V120 CAVOK 20/10 Q1020=
201106290520 METAR ESMX 290520Z VRB02KT CAVOK 18/10 Q1020=
201106290450 METAR ESMX 290450Z 09004KT 050V140 CAVOK 17/11 Q1020=
201106290420 METAR ESMX 290420Z VRB02KT CAVOK 14/11 Q1020=
201106290350 METAR ESMX 290350Z VRB02KT CAVOK 12/11 Q1021=
201106290320 METAR ESMX 290320Z AUTO 00000KT 9999NDV NCD 10/09 Q1021=
201106290250 METAR ESMX 290250Z AUTO 00000KT 9999NDV NCD 09/08 Q1021=
201106290220 METAR ESMX 290220Z AUTO 00000KT 9999NDV NCD 09/08 Q1021=
201106290150 METAR ESMX 290150Z AUTO 00000KT 9999NDV NCD 09/08 Q1022=
201106290120 METAR ESMX 290120Z AUTO 00000KT 9999NDV NCD 10/08 Q1022=
201106290050 METAR ESMX 290050Z AUTO 00000KT 9999NDV NCD 11/09 Q1022=
201106290020 METAR ESMX 290020Z AUTO 00000KT 9999NDV NCD 11/09 Q1021=
201106282350 METAR ESMX 282350Z 00000KT CAVOK 11/09 Q1021=
201106282320 METAR ESMX 282320Z 00000KT CAVOK 11/09 Q1021=
201106282250 METAR ESMX 282250Z 00000KT CAVOK 12/09 Q1021=
201106282220 METAR ESMX 282220Z 00000KT CAVOK 13/09 Q1021=
201106282150 METAR ESMX 282150Z 00000KT CAVOK 13/09 Q1021=
201106282120 METAR ESMX 282120Z VRB01KT CAVOK 14/10 Q1021=
201106282050 METAR ESMX 282050Z 20002KT CAVOK 16/09 Q1022=
201106282020 METAR ESMX 282020Z 18002KT CAVOK 17/10 Q1022=
201106281950 METAR ESMX 281950Z 18003KT CAVOK 19/09 Q1022=
201106281920 METAR ESMX 281920Z 18004KT CAVOK 21/08 Q1021=
201106281850 METAR ESMX 281850Z 16007KT 130V210 CAVOK 22/08 Q1021=
201106281820 METAR ESMX 281820Z 16009KT 120V200 CAVOK 23/09 Q1021=
201106281750 METAR ESMX 281750Z 15008KT 120V190 CAVOK 23/09 Q1021=
201106281720 METAR ESMX 281720Z 17009KT CAVOK 24/11 Q1021=
201106281650 METAR ESMX 281650Z VRB02KT CAVOK 26/14 Q1021=
201106281620 METAR ESMX 281620Z 32003KT 230V050 CAVOK 27/13 Q1021=
201106281550 METAR ESMX 281550Z VRB02KT CAVOK 26/13 Q1021=
201106281520 METAR ESMX 281520Z 19004KT 120V240 CAVOK 27/13 Q1022=
201106281450 METAR ESMX 281450Z VRB02KT CAVOK 26/13 Q1022=
201106281420 METAR ESMX 281420Z VRB03KT CAVOK 27/13 Q1022=
201106281350 METAR ESMX 281350Z 17004KT 140V220 CAVOK 26/13 Q1022=
201106281320 METAR ESMX 281320Z 10003KT 060V190 CAVOK 26/13 Q1023=
201106281250 METAR ESMX 281250Z 07003KT 010V160 9999 FEW047 27/13 Q1023=
201106281220 METAR ESMX 281220Z 05003KT 340V090 CAVOK 25/13 Q1023=
201106281150 METAR ESMX 281150Z VRB04KT 9999 FEW045 26/14 Q1023=
201106281120 METAR ESMX 281120Z 22003KT 160V290 9999 FEW043 25/13 Q1023=
201106281050 METAR ESMX 281050Z VRB04KT 9999 FEW044 25/13 Q1024=
201106281020 METAR ESMX 281020Z VRB01KT 9999 FEW042 25/12 Q1024=
201106280950 METAR ESMX 280950Z 19004KT 120V250 9999 FEW042 25/12 Q1024=
201106280920 METAR ESMX 280920Z 14005KT 080V190 9999 FEW038 24/13 Q1024=
201106280850 METAR ESMX 280850Z 14004KT 070V200 9999 FEW031 23/12 Q1024=
201106280820 METAR ESMX 280820Z VRB03KT 9999 FEW025 23/15 Q1024=
201106280750 METAR ESMX 280750Z VRB02KT CAVOK 23/16 Q1024=
201106280720 METAR ESMX 280720Z 17003KT 090V240 CAVOK 21/16 Q1024=
201106280650 METAR ESMX 280650Z VRB02KT CAVOK 20/16 Q1024=
201106280620 METAR ESMX 280620Z VRB02KT CAVOK 19/15 Q1024=
201106280550 METAR ESMX 280550Z VRB02KT CAVOK 18/15 Q1024=
201106280520 METAR ESMX 280520Z 15003KT 110V190 CAVOK 17/15 Q1024=
201106280450 METAR ESMX 280450Z 15002KT CAVOK 16/15 Q1024=
201106280420 METAR ESMX 280420Z 16003KT 140V200 CAVOK 15/14 Q1024=
201106280350 METAR ESMX 280350Z 17002KT CAVOK 13/12 Q1024=
201106280320 METAR ESMX 280320Z AUTO VRB01KT 2500NDV NCD 12/11 Q1024=
201106280250 METAR ESMX 280250Z AUTO 13003KT 090V160 1000NDV R01/P2000 R19/P2000N FG NCD 12/11 Q1024=
201106280220 METAR ESMX 280220Z AUTO 17001KT 0800NDV R01/P2000N R19/P2000N BCFG NCD 12/11 Q1023=
201106280150 METAR ESMX 280150Z AUTO 00000KT 9999NDV NCD 12/11 Q1024=
201106280120 METAR ESMX 280120Z AUTO 16002KT 9999NDV NCD 13/12 Q1024=
201106280050 METAR ESMX 280050Z AUTO VRB02KT 9999NDV NCD 13/12 Q1024=
201106280020 METAR ESMX 280020Z AUTO 14002KT 9999NDV NCD 13/12 Q1024=
201106272350 METAR ESMX 272350Z AUTO 17003KT 9999NDV NCD 14/13 Q1024=
201106272320 METAR ESMX 272320Z VRB02KT CAVOK 14/13 Q1024=
201106272250 METAR ESMX 272250Z 18004KT CAVOK 15/13 Q1023=
201106272220 METAR ESMX 272220Z 16005KT CAVOK 17/13 Q1023=
201106272150 METAR ESMX 272150Z 16005KT CAVOK 17/13 Q1023=
201106272120 METAR ESMX 272120Z 19003KT CAVOK 16/12 Q1023=
201106272050 METAR ESMX 272050Z 21002KT CAVOK 16/12 Q1023=
201106272020 METAR ESMX 272020Z 20003KT CAVOK 16/12 Q1023=
201106271950 METAR ESMX 271950Z 20002KT CAVOK 18/13 Q1023=
201106271920 METAR ESMX 271920Z 18002KT CAVOK 20/13 Q1023=
201106271850 METAR ESMX 271850Z 15002KT CAVOK 22/12 Q1022=
201106271820 METAR ESMX 271820Z VRB02KT CAVOK 23/11 Q1022=
201106271750 METAR ESMX 271750Z VRB01KT CAVOK 23/10 Q1022=
201106271720 METAR ESMX 271720Z VRB01KT CAVOK 24/10 Q1022=
201106271650 METAR ESMX 271650Z VRB02KT CAVOK 24/09 Q1022=
201106271620 METAR ESMX 271620Z VRB03KT CAVOK 24/10 Q1023=
201106271550 METAR ESMX 271550Z VRB02KT CAVOK 24/10 Q1023=
201106271520 METAR ESMX 271520Z 36003KT 270V050 CAVOK 23/09 Q1023=
201106271450 METAR ESMX 271450Z 03003KT 310V110 CAVOK 23/10 Q1023=
201106271420 METAR ESMX 271420Z 36004KT 320V060 CAVOK 23/11 Q1023=
201106271350 METAR ESMX 271350Z 08004KT 360V150 9999 FEW045 23/10 Q1023=
201106271320 METAR ESMX 271320Z 02003KT 330V130 9999 FEW044 22/10 Q1023=
201106271250 METAR ESMX 271250Z 26004KT 200V320 9999 SCT043 22/10 Q1023=
201106271220 METAR ESMX 271220Z 31005KT 260V020 9999 SCT042 21/11 Q1023=
201106271150 METAR ESMX 271150Z VRB03KT 9999 SCT040 21/11 Q1023=
201106271120 METAR ESMX 271120Z VRB02KT 9999 SCT041 20/10 Q1023=
201106271050 METAR ESMX 271050Z 30005KT 260V340 9999 SCT039 21/11 Q1023=
201106271020 METAR ESMX 271020Z VRB03KT 9999 SCT037 21/10 Q1023=
201106270950 METAR ESMX 270950Z 29008KT 9999 FEW035 20/11 Q1023=
201106270920 METAR ESMX 270920Z 31005KT 9999 FEW033 18/10 Q1023=
201106270850 METAR ESMX 270850Z 32004KT 240V020 9999 SCT031 19/10 Q1024=
201106270820 METAR ESMX 270820Z 31004KT 9999 SCT029 18/10 Q1024=
201106270750 METAR ESMX 270750Z 02004KT 9999 FEW028 18/10 Q1023=
201106270720 METAR ESMX 270720Z 03004KT 9999 FEW028 17/10 Q1023=
201106270650 METAR ESMX 270650Z 03003KT CAVOK 17/11 Q1024=
201106270620 METAR ESMX 270620Z 02004KT CAVOK 16/11 Q1023=
201106270550 METAR ESMX 270550Z 36003KT CAVOK 15/11 Q1023=
201106270520 METAR ESMX 270520Z 36003KT CAVOK 14/11 Q1023=
201106270450 METAR ESMX 270450Z VRB01KT CAVOK 13/10 Q1023=
201106270420 METAR ESMX 270420Z VRB02KT CAVOK 12/11 Q1023=
201106270350 METAR ESMX 270350Z 00000KT CAVOK 09/09 Q1023=
201106270320 METAR ESMX 270320Z AUTO 00000KT 9999NDV BR NCD 08/07 Q1023=
201106270250 METAR ESMX 270250Z AUTO 32001KT 9999NDV NCD 07/07 Q1023=
201106270220 METAR ESMX 270220Z AUTO VRB01KT 9999NDV NCD 08/07 Q1022=
201106270150 METAR ESMX 270150Z AUTO VRB01KT 9999NDV NCD 08/07 Q1022=
201106270120 METAR ESMX 270120Z AUTO 27004KT 9999NDV NCD 08/07 Q1022=
201106270050 METAR ESMX 270050Z AUTO 28003KT 9999NDV NCD 08/07 Q1022=
201106270020 METAR ESMX 270020Z AUTO 29003KT 9999NDV NCD 09/07 Q1022=
201106262350 METAR ESMX 262350Z AUTO 28003KT 9999NDV NCD 09/07 Q1022=
201106262320 METAR ESMX 262320Z 28002KT CAVOK 10/08 Q1022=
201106262250 METAR ESMX 262250Z VRB02KT CAVOK 11/08 Q1022=
201106262220 METAR ESMX 262220Z 27003KT CAVOK 12/08 Q1022=
201106262150 METAR ESMX 262150Z 26004KT CAVOK 12/08 Q1022=
201106262120 METAR ESMX 262120Z 26004KT CAVOK 13/08 Q1021=
201106262050 METAR ESMX 262050Z 26004KT CAVOK 13/08 Q1021=
201106262020 METAR ESMX 262020Z 26005KT CAVOK 14/08 Q1021=
201106261950 METAR ESMX 261950Z 26004KT CAVOK 15/07 Q1021=
201106261920 METAR ESMX 261920Z 27006KT CAVOK 16/07 Q1021=
201106261850 METAR ESMX 261850Z 26006KT CAVOK 17/07 Q1021=
201106261820 METAR ESMX 261820Z 26008KT CAVOK 18/06 Q1020=
201106261750 METAR ESMX 261750Z 28009KT 250V310 9999 NSC 18/06 Q1020=
201106261720 METAR ESMX 261720Z 29008KT 260V330 CAVOK 19/06 Q1020=
201106261650 METAR ESMX 261650Z 28007KT 250V320 CAVOK 19/05 Q1020=
201106261620 METAR ESMX 261620Z 28008KT 240V300 CAVOK 19/05 Q1020=
201106261550 METAR ESMX 261550Z 27009KT CAVOK 20/04 Q1020=
201106261520 METAR ESMX 261520Z 27007KT 240V320 CAVOK 20/04 Q1020=
201106261450 METAR ESMX 261450Z 30009KT 280V340 CAVOK 20/04 Q1020=
201106261420 METAR ESMX 261420Z 32007KT 280V020 CAVOK 20/04 Q1020=
201106261350 METAR ESMX 261350Z 29008KT 240V320 CAVOK 20/03 Q1020=
201106261320 METAR ESMX 261320Z 26008KT 230V300 CAVOK 20/03 Q1020=
201106261250 METAR ESMX 261250Z 29009KT 250V320 CAVOK 20/04 Q1020=
201106261220 METAR ESMX 261220Z 30008KT 260V340 CAVOK 19/04 Q1019=
201106261150 METAR ESMX 261150Z AUTO 29008KT 250V330 9999NDV NCD 19/04 Q1019=
201106261120 METAR ESMX 261120Z AUTO 30006KT 260V340 9999NDV NCD 18/06 Q1019=
201106261050 METAR ESMX 261050Z AUTO 26007KT 200V290 9999NDV NCD 18/05 Q1019=
201106261020 METAR ESMX 261020Z AUTO 25007KT 220V290 9999NDV NCD 17/05 Q1019=
201106260950 METAR ESMX 260950Z AUTO 23007KT 200V260 9999NDV NCD 17/07 Q1019=
201106260920 METAR ESMX 260920Z AUTO 32007KT 210V350 9999NDV NCD 16/07 Q1019=
201106260850 METAR ESMX 260850Z AUTO 30005KT 220V350 9999NDV NCD 16/08 Q1019=
201106260820 METAR ESMX 260820Z AUTO 29006KT 230V330 9999NDV NCD 15/07 Q1019=
201106260750 METAR ESMX 260750Z AUTO 31006KT 280V010 9999NDV NCD 14/07 Q1019=
201106260720 METAR ESMX 260720Z AUTO 28007KT 250V320 9999NDV NCD 14/07 Q1019=
201106260650 METAR ESMX 260650Z AUTO 32007KT 9999NDV NCD 13/07 Q1019=
201106260620 METAR ESMX 260620Z AUTO 30008KT 240V330 9999NDV NCD 12/07 Q1019=
201106260550 METAR ESMX 260550Z AUTO 32005KT 290V360 9999NDV NCD 12/07 Q1018=
201106260520 METAR ESMX 260520Z AUTO 30004KT 260V330 9999NDV FEW047/// 11/07 Q1018=
201106260450 METAR ESMX 260450Z AUTO VRB02KT 9999NDV NCD 09/08 Q1018=
201106260420 METAR ESMX 260420Z AUTO 23001KT 9999NDV NCD 07/07 Q1018=
201106260350 METAR ESMX 260350Z AUTO 26003KT 9999NDV FEW041/// 06/05 Q1018=
201106260320 METAR ESMX 260320Z AUTO 24001KT 9999NDV NCD 06/05 Q1018=
201106260250 METAR ESMX 260250Z AUTO 00000KT 9999NDV BKN044/// 07/06 Q1018=
201106260220 METAR ESMX 260220Z AUTO VRB01KT 9999NDV BKN041/// 08/06 Q1018=
201106260150 METAR ESMX 260150Z AUTO 27002KT 9999NDV OVC046/// 08/06 Q1017=
201106260120 METAR ESMX 260120Z AUTO 27004KT 9999NDV OVC046/// 08/06 Q1017=
201106260050 METAR ESMX 260050Z AUTO 27004KT 9999NDV NCD 08/06 Q1017=
201106260020 METAR ESMX 260020Z AUTO 28004KT 9999NDV NCD 09/06 Q1017=
201106252350 METAR ESMX 252350Z AUTO 28004KT 9999NDV NCD 09/06 Q1017=
201106252320 METAR ESMX 252320Z AUTO 28004KT 9999NDV NCD 09/07 Q1017=
201106252250 METAR ESMX 252250Z AUTO 27006KT 9999NDV NCD 10/07 Q1017=
201106252220 METAR ESMX 252220Z AUTO 27006KT 9999NDV FEW063/// 10/07 Q1017=
201106252150 METAR ESMX 252150Z AUTO 26006KT 220V300 9999NDV FEW062/// 10/07 Q1016=
201106252120 METAR ESMX 252120Z AUTO 26007KT 9999NDV NCD 11/07 Q1016=
201106252050 METAR ESMX 252050Z AUTO 26007KT 9999NDV NCD 12/08 Q1016=
201106252020 METAR ESMX 252020Z AUTO 27007KT 9999NDV BKN077/// 13/08 Q1016=
201106251950 METAR ESMX 251950Z AUTO 27006KT 9999NDV FEW052/// BKN071/// 13/08 Q1016=
201106251920 METAR ESMX 251920Z AUTO 26007KT 230V290 9999NDV OVC056/// 14/09 Q1016=
201106251850 METAR ESMX 251850Z AUTO 26009KT 220V290 9999NDV FEW057/// OVC069/// 14/09 Q1016=
201106251820 METAR ESMX 251820Z AUTO 26007KT 9999NDV FEW045/// OVC060/// 14/09 Q1015=
201106251750 METAR ESMX 251750Z AUTO 27008KT 9999NDV SCT043/// OVC057/// 14/10 Q1015=
201106251720 METAR ESMX 251720Z AUTO 26007KT 9999NDV BKN066/// 15/11 Q1015=
201106251650 METAR ESMX 251650Z AUTO 25006KT 200V280 9999NDV BKN059/// BKN078/// 15/12 Q1015=
201106251620 METAR ESMX 251620Z AUTO 28006KT 8000NDV BR FEW031/// BKN059/// 14/11 Q1015=
201106251550 METAR ESMX 251550Z AUTO 26006KT 230V290 9999NDV SCT032/// BKN040/// BKN054/// 14/11 Q1015=
201106251520 METAR ESMX 251520Z AUTO 26008KT 230V290 8000NDV -DZ FEW014/// SCT043/// 14/12 Q1014=
201106251450 METAR ESMX 251450Z AUTO 25006KT 220V280 9000NDV RA FEW039/// BKN052/// 14/11 Q1014=
201106251350 METAR ESMX 251350Z AUTO 27009KT 9999NDV FEW026/// SCT029/// BKN040/// 15/11 Q1014=
201106251320 METAR ESMX 251320Z AUTO 24006KT 9999NDV FEW036/// SCT044/// BKN055/// 13/11 Q1014=
201106251250 METAR ESMX 251250Z AUTO 26012KT 9000NDV +RA SCT025/// BKN042/// 15/11 Q1014=
201106251220 METAR ESMX 251220Z AUTO 25012KT 220V280 9999NDV FEW025/// SCT029/// BKN038/// 17/10 Q1013=
201106251150 METAR ESMX 251150Z AUTO 25009KT 210V280 9999NDV FEW019/// SCT023/// BKN036/// 15/10 Q1013=
201106251120 METAR ESMX 251120Z AUTO 25012KT 220V290 9999NDV SCT015/// BKN020/// BKN038/// 15/11 Q1013=
201106251050 METAR ESMX 251050Z AUTO 25010KT 210V290 9999NDV FEW009/// BKN012/// OVC018/// 14/11 Q1013=
201106251020 METAR ESMX 251020Z AUTO 25008KT 210V280 9999NDV OVC008/// 13/10 Q1013=
201106250950 METAR ESMX 250950Z AUTO 25008KT 210V280 9999NDV OVC007/// 12/10 Q1013=
201106250920 METAR ESMX 250920Z AUTO 25009KT 210V280 9999NDV OVC009/// 12/09 Q1013=
201106250850 METAR ESMX 250850Z AUTO 25009KT 220V280 9999NDV OVC009/// 12/09 Q1013=
201106250820 METAR ESMX 250820Z AUTO 26008KT 220V290 9999NDV OVC008/// 11/09 Q1013=
201106250750 METAR ESMX 250750Z AUTO 25010KT 210V280 9999NDV BKN011/// OVC016/// 11/09 Q1012=
201106250720 METAR ESMX 250720Z AUTO 26007KT 220V290 9999NDV FEW013/// BKN016/// 11/08 Q1012=
201106250650 METAR ESMX 250650Z AUTO 26011KT 220V280 9999NDV FEW018/// OVC021/// 12/08 Q1012=
201106250620 METAR ESMX 250620Z AUTO 26009KT 210V290 9999NDV FEW020/// BKN023/// OVC061/// 12/08 Q1012=
201106250550 METAR ESMX 250550Z AUTO 26009KT 220V290 9999NDV FEW018/// BKN020/// OVC056/// 11/07 Q1012=
201106250520 METAR ESMX 250520Z AUTO 24008KT 200V280 9999NDV FEW016/// BKN020/// BKN059/// 11/07 Q1012=
201106250450 METAR ESMX 250450Z AUTO 24007KT 9999NDV FEW018/// 11/08 Q1012=
201106250420 METAR ESMX 250420Z AUTO 23007KT 9999NDV NCD 10/08 Q1012=
201106250350 METAR ESMX 250350Z AUTO 20006KT 9999NDV SCT045/// 09/08 Q1012=
201106250320 METAR ESMX 250320Z AUTO 20006KT 9999NDV NCD 09/07 Q1012=
201106250250 METAR ESMX 250250Z AUTO 20006KT 9999NDV FEW045/// 09/07 Q1012=
201106250220 METAR ESMX 250220Z AUTO 20006KT 9999NDV FEW021/// 08/07 Q1012=
201106250150 METAR ESMX 250150Z AUTO 22005KT 9999NDV FEW024/// SCT054/// 08/06 Q1012=
201106250120 METAR ESMX 250120Z AUTO 20006KT 9999NDV NCD 08/06 Q1012=
201106250050 METAR ESMX 250050Z AUTO 22006KT 9999NDV NCD 08/06 Q1012=
201106250020 METAR ESMX 250020Z AUTO 23006KT 9999NDV NCD 08/07 Q1012=
201106242350 METAR ESMX 242350Z AUTO 22005KT 9999NDV NCD 08/06 Q1012=
201106242320 METAR ESMX 242320Z AUTO 22006KT 9999NDV NCD 09/07 Q1012=
201106242250 METAR ESMX 242250Z AUTO 20005KT 9999NDV NCD 09/07 Q1012=
201106242220 METAR ESMX 242220Z AUTO 24006KT 9999NDV NCD 10/07 Q1012=
201106242150 METAR ESMX 242150Z AUTO 25006KT 210V290 9999NDV BKN054/// 11/07 Q1012=
201106242120 METAR ESMX 242120Z AUTO 25008KT 9999NDV SCT061/// 11/07 Q1012=
201106242050 METAR ESMX 242050Z AUTO 24005KT 9999NDV NCD 10/07 Q1012=
201106242020 METAR ESMX 242020Z AUTO 23007KT 200V260 9999NDV BKN066/// 11/07 Q1011=
201106241950 METAR ESMX 241950Z AUTO 26008KT 230V290 9999NDV FEW063/// 11/07 Q1011=
201106241920 METAR ESMX 241920Z AUTO 23008KT 200V270 9999NDV FEW058/// SCT068/// 12/08 Q1011=
201106241850 METAR ESMX 241850Z AUTO 25009KT 220V280 9999NDV FEW033/// SCT040/// BKN056/// 12/08 Q1011=
201106241820 METAR ESMX 241820Z AUTO 24008KT 220V280 9999NDV NCD 13/07 Q1011=
201106241750 METAR ESMX 241750Z AUTO 25010KT 210V280 9999NDV FEW035/// 13/08 Q1011=
201106241720 METAR ESMX 241720Z AUTO 24010KT 200V270 9999NDV FEW040/// SCT077/// 14/07 Q1011=
201106241650 METAR ESMX 241650Z AUTO 22010KT 190V260 9999NDV FEW056/// BKN066/// 13/07 Q1011=
201106241620 METAR ESMX 241620Z AUTO 26016G26KT 230V310 9999NDV FEW034/// SCT038/// BKN045/// 14/06 Q1011=
201106241550 METAR ESMX 241550Z 27014KT 9999 SCT033 BKN041 BKN063 15/06 Q1010=
201106241520 METAR ESMX 241520Z 26011KT 220V310 9999 SCT032 BKN040 BKN056 15/07 Q1010=
201106241450 METAR ESMX 241450Z 23012KT 200V270 9999 FEW026 SCT079 15/08 Q1010=
201106241420 METAR ESMX 241420Z 25011KT 220V290 9999 FEW026 SCT057 14/09 Q1010=
201106241350 METAR ESMX 241350Z 26009KT 220V290 9999 -RA FEW035 SCT050 13/08 Q1010 REDZ=
201106241320 METAR ESMX 241320Z 26013KT 230V290 9999 FEW041 BKN049 BKN074 15/06 Q1010=
201106241250 METAR ESMX 241250Z 23012KT 200V260 9999 FEW042 SCT069 15/05 Q1010=
201106241220 METAR ESMX 241220Z 23012KT 9999 FEW039 SCT063 15/07 Q1010=
201106241150 METAR ESMX 241150Z 25014KT 210V290 9999 FEW020 SCT045 16/07 Q1010=
201106241120 METAR ESMX 241120Z 26010KT 210V290 9999 FEW014 SCT053 BKN063 14/07 Q1010=
201106241050 METAR ESMX 241050Z 25011KT 220V290 9999 FEW035 BKN060 15/05 Q1010=
201106241020 METAR ESMX 241020Z AUTO 25011KT 230V290 9999NDV BKN051/// 14/06 Q1010=
201106240950 METAR ESMX 240950Z AUTO 24012KT 200V270 9999NDV FEW040/// BKN051/// 14/06 Q1010=
201106240920 METAR ESMX 240920Z AUTO 26011KT 220V290 9999NDV FEW037/// SCT052/// 14/06 Q1010=
201106240850 METAR ESMX 240850Z AUTO 25010KT 220V290 9999NDV FEW052/// 15/07 Q1010=
201106240820 METAR ESMX 240820Z AUTO 24008KT 170V280 9999NDV FEW030/// BKN046/// 14/07 Q1010=
201106240750 METAR ESMX 240750Z AUTO 25010KT 200V290 9999NDV FEW030/// 14/07 Q1010=
201106240720 METAR ESMX 240720Z AUTO 24008KT 210V290 9999NDV FEW028/// SCT039/// 13/08 Q1010=
201106240650 METAR ESMX 240650Z AUTO 25009KT 210V280 9999NDV FEW012/// SCT025/// 13/09 Q1010=
201106240620 METAR ESMX 240620Z AUTO 25007KT 210V280 9999NDV FEW010/// SCT015/// BKN022/// 12/10 Q1010=
201106240550 METAR ESMX 240550Z AUTO 24005KT 200V270 9999NDV FEW008/// BKN061/// BKN110/// 12/10 Q1009=
201106240520 METAR ESMX 240520Z AUTO 24004KT 210V290 9999NDV FEW029/// BKN059/// BKN110/// 12/10 Q1009=
201106240450 METAR ESMX 240450Z AUTO 25004KT 210V280 9999NDV FEW005/// BKN050/// 11/10 Q1009=
201106240420 METAR ESMX 240420Z AUTO 23006KT 9999NDV -RA FEW005/// SCT047/// 11/10 Q1009=
201106240350 METAR ESMX 240350Z AUTO 23006KT 6000NDV RA FEW005/// SCT008/// BKN018/// 11/10 Q1009=
201106240320 METAR ESMX 240320Z AUTO 20006KT 9999NDV NCD 11/10 Q1009=
201106240250 METAR ESMX 240250Z AUTO 19005KT 9999NDV FEW082/// 10/09 Q1009=
201106240220 METAR ESMX 240220Z AUTO 20005KT 9999NDV NCD 10/09 Q1008=
201106240150 METAR ESMX 240150Z AUTO 18006KT 9999NDV FEW067/// SCT082/// 11/10 Q1009=
201106240120 METAR ESMX 240120Z AUTO 19006KT 9999NDV FEW017/// BKN040/// BKN050/// 12/10 Q1009=
201106240050 METAR ESMX 240050Z AUTO 21006KT 9999NDV FEW040/// BKN046/// 12/10 Q1009 REDZ=
201106240020 METAR ESMX 240020Z AUTO 18006KT 9999NDV FEW020/// SCT032/// 11/10 Q1009=
201106232350 METAR ESMX 232350Z AUTO 19007KT 9999NDV NCD 11/10 Q1009=
201106232320 METAR ESMX 232320Z AUTO 18006KT 9999NDV NCD 11/09 Q1008=
201106232250 METAR ESMX 232250Z AUTO 18005KT 9999NDV FEW016/// 12/10 Q1008=
201106232220 METAR ESMX 232220Z AUTO 20006KT 9999NDV FEW066/// 12/10 Q1008=
201106232150 METAR ESMX 232150Z AUTO 22006KT 9999NDV BKN067/// 12/10 Q1009=
201106232120 METAR ESMX 232120Z AUTO 21004KT 9999NDV NCD 12/10 Q1009=
201106232050 METAR ESMX 232050Z AUTO 20006KT 9999NDV NCD 13/10 Q1009=
201106232020 METAR ESMX 232020Z AUTO 20005KT 9999NDV NCD 13/10 Q1009=
201106231950 METAR ESMX 231950Z AUTO 22006KT 200V260 9999NDV NCD 14/10 Q1009=
201106231920 METAR ESMX 231920Z AUTO 23010KT 9999NDV FEW029/// SCT070/// 15/10 Q1008=
201106231850 METAR ESMX 231850Z 21009KT 9999 FEW035 16/10 Q1008=
201106231820 METAR ESMX 231820Z 24010KT 200V270 9999 FEW035 16/09 Q1008=
201106231750 METAR ESMX 231750Z 24009KT 190V270 9999 FEW034 17/10 Q1008=
201106231720 METAR ESMX 231720Z 25011KT 210V280 9999 FEW036 BKN059 16/09 Q1008=
201106231650 METAR ESMX 231650Z 25011KT 210V270 9999 SCT045 17/09 Q1007=
201106231620 METAR ESMX 231620Z 24012KT 200V290 9999 SCT045 18/10 Q1007=
201106231550 METAR ESMX 231550Z 25012KT 220V290 9999 SCT040 18/09 Q1007=
201106231520 METAR ESMX 231520Z 23012KT 200V260 9999 FEW035 SCT050 19/10 Q1007=
201106231450 METAR ESMX 231450Z 22013KT 190V250 9999 FEW030 SCT050 18/09 Q1007=
201106231420 METAR ESMX 231420Z 23012KT 9999 FEW030 SCT040 18/09 Q1007=
201106231350 METAR ESMX 231350Z 23011KT 200V280 9999 FEW035 SCT060 18/11 Q1007=
201106231320 METAR ESMX 231320Z 23012KT 200V270 9999 FEW035 SCT040 18/10 Q1007=
201106231250 METAR ESMX 231250Z 23013KT 9999 FEW029 SCT037 18/11 Q1006=
201106231220 METAR ESMX 231220Z 21011KT 170V240 9999 FEW023 SCT027 BKN032 17/12 Q1006=
201106231150 METAR ESMX 231150Z 25008KT 9999 FEW029 BKN065 16/10 Q1006=
201106231120 METAR ESMX 231120Z 24009KT 200V280 9999 FEW035 BKN060 16/10 Q1006=
201106231050 METAR ESMX 231050Z 24010KT 210V280 9999 FEW034 SCT060 17/11 Q1006=
201106231020 METAR ESMX 231020Z 25010KT 220V290 9999 FEW018 SCT034 17/11 Q1006=
201106230950 METAR ESMX 230950Z 26010KT 200V290 9999 FEW016 SCT020 BKN035 16/11 Q1006=
201106230920 METAR ESMX 230920Z 26011KT 210V290 9999 FEW017 SCT020 BKN032 15/11 Q1005=
201106230850 METAR ESMX 230850Z 26009KT 9999 FEW019 BKN023 BKN030 14/11 Q1005=
201106230820 METAR ESMX 230820Z 25011KT 210V280 9999 FEW014 SCT020 15/11 Q1005=
201106230750 METAR ESMX 230750Z 26011KT 230V300 9999 FEW011 SCT015 14/11 Q1004=
201106230720 METAR ESMX 230720Z 26010KT 230V300 9999 FEW008 BKN011 BKN053 13/12 Q1003=
201106230650 METAR ESMX 230650Z 26009KT 9999 FEW007 SCT009 BKN011 12/11 Q1003=
201106230620 METAR ESMX 230620Z 27011KT 9999 SCT007 BKN010 12/11 Q1003=
201106230550 METAR ESMX 230550Z 26010KT 9999 -RA FEW006 SCT008 BKN010 12/11 Q1003=
201106230520 METAR ESMX 230520Z 26009KT 220V280 9999 -RA FEW006 SCT008 BKN009 11/10 Q1002=
201106230450 METAR ESMX 230450Z 26008KT 230V300 8000 -RA FEW004 SCT009 BKN018 11/11 Q1002=
201106230420 METAR ESMX 230420Z 26007KT 4500 RA SCT006 BKN015 12/11 Q1002=
201106230350 METAR ESMX 230350Z 26006KT 230V300 6000 -RA SCT005 BKN033 12/11 Q1001=
201106230320 METAR ESMX 230320Z AUTO 30006KT 260V330 7000NDV RA FEW035/// SCT054/// 12/11 Q1000=
201106230250 METAR ESMX 230250Z AUTO 32011KT 290V360 9999NDV RA FEW005/// SCT037/// 12/11 Q0999=
201106230220 METAR ESMX 230220Z AUTO 29007KT 250V330 0450NDV R01/P2000N R19/P2000 +RA FEW002/// OVC004/// 13/12 Q1000=
201106230150 METAR ESMX 230150Z AUTO 29005KT 250V320 0900NDV R01/P2000N R19/P2000N +RA FEW006/// SCT009/// BKN012/// 13/12 Q1000=
201106230120 METAR ESMX 230120Z AUTO VRB02KT 0200NDV R01/P2000N R19/0300VP2000D +RA FEW007/// BKN029/// 13/12 Q1001=
201106230050 METAR ESMX 230050Z AUTO VRB02KT 1000NDV R01/P2000N R19/P2000N +RA FEW002/// SCT006/// BKN009/// 13/13 Q1001=
201106230020 METAR ESMX 230020Z AUTO VRB02KT 0500NDV R01/P2000N R19/P2000D +RA SCT001/// BKN005/// OVC007/// 13/13 Q1002=
201106222350 METAR ESMX 222350Z 05002KT 2400 RA BKN006 BKN020 14/13 Q1002=
201106222320 METAR ESMX 222320Z 03001KT 3000 RA BKN023 14/13 Q1003=
201106222250 METAR ESMX 222250Z 00000KT 4000 RA BKN024 14/13 Q1004=
201106222220 METAR ESMX 222220Z 22002KT 5000 RA BKN030 14/12 Q1005=
201106222150 METAR ESMX 222150Z VRB01KT 9999 -RA SCT046 BKN070 14/12 Q1004=
201106222120 METAR ESMX 222120Z 12003KT 080V150 9999 -RA SCT035 BKN077 16/12 Q1004=
201106222050 METAR COR ESMX 222050Z 15004KT 9999 -RA SCT036 16/11 Q1005=
201106222020 METAR ESMX 222020Z 16004KT CAVOK 17/10 Q1005=
201106221950 METAR ESMX 221950Z 17002KT CAVOK 16/10 Q1006=
201106221920 METAR ESMX 221920Z 19002KT CAVOK 16/11 Q1006=
201106221850 METAR ESMX 221850Z VRB01KT CAVOK 17/13 Q1007=
201106221820 METAR ESMX 221820Z VRB01KT 9999 FEW047 18/13 Q1007=
201106221750 METAR ESMX 221750Z 21005KT 9999 FEW049 19/11 Q1007=
201106221720 METAR ESMX 221720Z 21005KT 190V250 9999 FEW046 SCT053 20/11 Q1007=
201106221650 METAR ESMX 221650Z 23006KT 180V290 9999 FEW047 SCT071 BKN088 20/11 Q1007=
201106221620 METAR ESMX 221620Z 24004KT 210V270 9999 FEW041 SCT081 20/11 Q1007=
201106221550 METAR ESMX 221550Z 19004KT 150V230 9999 FEW039 20/11 Q1007=
201106221520 METAR ESMX 221520Z 26005KT 9999 FEW040 20/11 Q1008=
201106221450 METAR ESMX 221450Z 23005KT 200V260 9999 FEW039 BKN052 20/11 Q1008=
201106221420 METAR ESMX 221420Z 20009KT 9999 FEW035 19/11 Q1008=
201106221350 METAR ESMX 221350Z 20010KT 9999 FEW036 SCT084 20/11 Q1008=
201106221320 METAR ESMX 221320Z 20012KT 9999 FEW041 21/12 Q1008=
201106221250 METAR ESMX 221250Z 21011KT 180V250 9999 FEW041 20/12 Q1008=
201106221220 METAR ESMX 221220Z 20010KT 160V230 9999 SCT031 19/12 Q1008=
201106221150 METAR ESMX 221150Z 23012KT 9999 SCT020TCU BKN080 20/13 Q1008=
201106221120 METAR ESMX 221120Z 22009KT 180V240 9999 SCT020TCU BKN080 18/14 Q1008=
201106221050 METAR ESMX 221050Z 21007KT 170V250 9999 FEW015TCU SCT025 BKN070 19/15 Q1008=
201106221020 METAR ESMX 221020Z 21006KT 160V240 9999 FEW014 SCT063 16/14 Q1009 RERA=
201106220950 METAR ESMX 220950Z 21008KT 9999 -SHRA FEW017 FEW022CB 16/13 Q1009=
201106220920 METAR ESMX 220920Z 22007KT 180V260 9999 -RA FEW015 SCT030 BKN070 17/13 Q1009=
201106220850 METAR ESMX 220850Z 21006KT 170V240 9999 SCT018 BKN068 16/13 Q1009=
201106220820 METAR ESMX 220820Z 21007KT 9999 -RA SCT015 BKN040 16/13 Q1009=
201106220750 METAR ESMX 220750Z 22010KT 9999 FEW014 SCT018 BKN023 16/12 Q1009=
201106220720 METAR ESMX 220720Z 21007KT 170V240 9999 FEW013 SCT017 BKN025 16/13 Q1009=
201106220650 METAR ESMX 220650Z 20008KT 9999 FEW009 BKN012 15/13 Q1008=
201106220620 METAR ESMX 220620Z 21005KT 170V230 9999 FEW008 BKN012 15/13 Q1008=
201106220550 METAR ESMX 220550Z 21008KT 190V250 9999 FEW007 OVC008 14/12 Q1008=
201106220520 METAR ESMX 220520Z 20008KT 9999 FEW008 SCT009 BKN040 13/12 Q1008=
201106220450 METAR ESMX 220450Z 20008KT 9999 FEW011 BKN040 13/11 Q1008=
201106220350 METAR ESMX 220350Z 21006KT 9999 SCT028 BKN085 12/11 Q1008=
201106220320 METAR ESMX 220320Z AUTO 19005KT 9999NDV OVC030/// 11/10 Q1008=
201106220250 METAR ESMX 220250Z AUTO 21006KT 9999NDV OVC030/// 11/10 Q1008=
201106220220 METAR ESMX 220220Z AUTO 21006KT 9999NDV SCT049/// BKN067/// OVC088/// 11/09 Q1008=
201106220150 METAR ESMX 220150Z AUTO 19006KT 9999NDV BKN084/// 10/09 Q1008=
201106220120 METAR ESMX 220120Z AUTO 20007KT 9999NDV BKN083/// 09/08 Q1008=
201106220050 METAR ESMX 220050Z AUTO 18006KT 9999NDV NCD 09/08 Q1008=
201106220020 METAR ESMX 220020Z AUTO 19005KT 9999NDV NCD 09/07 Q1008=
201106212350 METAR ESMX 212350Z 20006KT CAVOK 09/08 Q1008=
201106212320 METAR ESMX 212320Z 20005KT CAVOK 09/08 Q1008=
201106212250 METAR ESMX 212250Z 21006KT CAVOK 09/08 Q1009=
201106212220 METAR ESMX 212220Z 21005KT CAVOK 09/08 Q1009=
201106212150 METAR ESMX 212150Z 18005KT CAVOK 10/09 Q1009=
201106212120 METAR ESMX 212120Z 21004KT CAVOK 10/08 Q1008=
201106212050 METAR ESMX 212050Z 20005KT 9999 FEW031 11/09 Q1009=
201106212020 METAR ESMX 212020Z 22004KT 9999 FEW045 11/09 Q1008=
201106211950 METAR ESMX 211950Z 23005KT 9999 SCT046 12/09 Q1008=
201106211920 METAR ESMX 211920Z 23006KT 9999 BKN046 13/09 Q1008=
201106211850 METAR ESMX 211850Z 22008KT 170V250 9999 SCT045 13/08 Q1008=
201106211820 METAR ESMX 211820Z 23008KT 9999 FEW028 BKN045 14/09 Q1008=
201106211750 METAR ESMX 211750Z 24007KT 210V280 9999 FEW028 BKN049 14/08 Q1008=
201106211720 METAR ESMX 211720Z 25010KT 210V290 9999 FEW028 BKN050 14/09 Q1008=
201106211650 METAR ESMX 211650Z 25009KT 210V280 9999 FEW030 BKN049 15/08 Q1008=
201106211620 METAR ESMX 211620Z 25010KT 210V290 9999 FEW034 BKN045 15/09 Q1008=
201106211550 METAR ESMX 211550Z 24009KT 200V270 9999 FEW027 SCT041 OVC047 15/09 Q1008=
201106211520 METAR ESMX 211520Z 23010KT 190V260 9999 FEW028 SCT036 BKN042 14/08 Q1008=
201106211450 METAR ESMX 211450Z 24011KT 200V280 9999 FEW034 OVC038 15/08 Q1008=
201106211420 METAR ESMX 211420Z 25011KT 210V300 9999 OVC036 16/08 Q1008=
201106211350 METAR ESMX 211350Z 26011KT 220V280 9999 FEW031 OVC037 16/08 Q1007=
201106211320 METAR ESMX 211320Z 26010KT 220V290 9999 FEW029 OVC037 15/08 Q1007=
201106211250 METAR ESMX 211250Z 24011KT 200V280 9999 OVC032 15/08 Q1007=
201106211220 METAR ESMX 211220Z 26011KT 230V300 9999 BKN030 15/07 Q1007=
201106211150 METAR ESMX 211150Z 25010KT 220V290 9999 FEW027 OVC035 15/09 Q1007=
201106211120 METAR ESMX 211120Z 24012KT 210V270 9999 OVC025 14/08 Q1007=
201106211050 METAR ESMX 211050Z 26010KT 230V290 9999 FEW024 OVC029 14/08 Q1007=
201106211020 METAR ESMX 211020Z 26011KT 220V290 9999 FEW025 OVC031 14/08 Q1007=
201106210950 METAR ESMX 210950Z 23012KT 190V250 9999 SCT022 BKN027 OVC036 13/09 Q1006=
201106210920 METAR ESMX 210920Z 25011KT 210V290 9999 BKN023 BKN033 14/08 Q1006=
201106210850 METAR ESMX 210850Z 25008KT 190V300 9999 FEW021 OVC025 14/08 Q1006=
201106210820 METAR ESMX 210820Z 24011KT 210V270 9999 FEW020 BKN023 OVC030 13/09 Q1006=
201106210750 METAR ESMX 210750Z 23010KT 180V270 9999 FEW019 SCT021 OVC030 13/09 Q1006=
201106210720 METAR ESMX 210720Z 25009KT 210V300 9999 FEW016 SCT021 OVC030 13/09 Q1005=
201106210650 METAR ESMX 210650Z 25008KT 200V290 9999 FEW015 OVC026 13/09 Q1005=
201106210620 METAR ESMX 210620Z 25008KT 220V280 9999 FEW012 OVC025 12/09 Q1005=
201106210550 METAR ESMX 210550Z 26008KT 220V290 9999 FEW014 OVC026 12/09 Q1005=
201106210520 METAR ESMX 210520Z 23007KT 200V270 9999 OVC028 11/09 Q1005=
201106210450 METAR ESMX 210450Z 22007KT 9999 OVC026 11/09 Q1005=
201106210420 METAR ESMX 210420Z 22006KT 9999 OVC028 11/09 Q1005=
201106210350 METAR ESMX 210350Z 23006KT 9999 BKN027 11/09 Q1005=
201106210320 METAR ESMX 210320Z AUTO 22006KT 190V250 9999NDV OVC028/// 10/09 Q1005=
201106210250 METAR ESMX 210250Z AUTO 23006KT 9999NDV OVC034/// 10/09 Q1005=
201106210220 METAR ESMX 210220Z AUTO 23005KT 9999NDV SCT025/// OVC033/// 10/09 Q1005=
201106210150 METAR ESMX 210150Z AUTO 20005KT 9999NDV OVC033/// 10/09 Q1005=
201106210120 METAR ESMX 210120Z AUTO 23005KT 190V280 9999NDV BKN035/// OVC073/// 10/09 Q1005=
201106210050 METAR ESMX 210050Z AUTO 23005KT 9999NDV FEW073/// 09/08 Q1005=
201106210020 METAR ESMX 210020Z AUTO 22005KT 9999NDV NCD 09/08 Q1005=
201106202350 METAR ESMX 202350Z 22005KT 9999 FEW029 SCT039 10/09 Q1005=
201106202320 METAR ESMX 202320Z 23005KT 9999 FEW041 10/09 Q1005=
201106202250 METAR ESMX 202250Z 21005KT CAVOK 09/08 Q1005=
201106202220 METAR ESMX 202220Z 22006KT CAVOK 09/08 Q1005=
201106202150 METAR ESMX 202150Z 21005KT CAVOK 10/08 Q1005=
201106202120 METAR ESMX 202120Z 22005KT CAVOK 10/09 Q1005=
201106202050 METAR ESMX 202050Z 21003KT 170V250 9999 FEW040 11/09 Q1005=
201106202020 METAR ESMX 202020Z 25005KT 9999 FEW037 11/09 Q1005=
201106201950 METAR ESMX 201950Z 25005KT 230V290 9999 SCT037 12/09 Q1004=
201106201850 METAR ESMX 201850Z 27008KT 230V300 9999 BKN040 13/10 Q1004=
201106201820 METAR ESMX 201820Z 29010KT 9999 FEW017 SCT038 OVC043 13/10 Q1004=
201106201750 METAR ESMX 201750Z 26008KT 230V300 9999 FEW017 BKN037 14/11 Q1004=
201106201720 METAR ESMX 201720Z 27006KT 250V310 9999 -RA FEW015 SCT040 13/11 Q1004=
201106201650 METAR ESMX 201650Z 26008KT 210V300 9999 -DZ FEW012 BKN015 BKN021 13/11 Q1004=
201106201620 METAR ESMX 201620Z 26008KT 210V290 9999 FEW010 BKN014 BKN058 13/12 Q1004=
201106201550 METAR ESMX 201550Z 28008KT 230V320 9999 -RA SCT010 BKN019 14/11 Q1004=
201106201520 METAR ESMX 201520Z 27007KT 9999 -RA SCT010 OVC060 14/12 Q1004=
201106201450 METAR ESMX 201450Z 29007KT 250V330 9999 FEW008 SCT038 OVC046 13/11 Q1003=
201106201420 METAR ESMX 201420Z 28005KT 220V320 9999 -RA FEW008 SCT013CB BKN017 14/12 Q1003=
201106201350 METAR ESMX 201350Z 31007KT 290V350 9999 -RA SCT011 FEW018CB BKN020 13/12 Q1003=
201106201320 METAR ESMX 201320Z 29016KT 7000 TSRA FEW015 SCT020CB BKN035 14/11 Q1003=
201106201250 METAR ESMX 201250Z 23011KT 200V290 9999 FEW019CB SCT045 BKN080 18/12 Q1002=
201106200950 METAR ESMX 200950Z 26006KT 9999 FEW027 SCT030 18/10 Q1002=
201106200920 METAR ESMX 200920Z 26005KT 190V330 9999 FEW023 SCT029 17/10 Q1002=
201106200850 METAR ESMX 200850Z 27006KT 240V320 9999 SCT020 16/10 Q1002=
201106200820 METAR ESMX 200820Z 28006KT 230V310 9999 FEW017 SCT021 15/10 Q1002=
201106200750 METAR ESMX 200750Z 28004KT 240V330 9999 FEW015 SCT019 15/11 Q1002=
201106200720 METAR ESMX 200720Z 28005KT 230V350 9999 FEW011 SCT014 14/11 Q1002=
201106200650 METAR ESMX 200650Z 27003KT 9999 BKN010 BKN095 14/11 Q1002=
201106200620 METAR ESMX 200620Z 29004KT 9999 FEW007 SCT009 BKN012 13/11 Q1002=
201106200550 METAR ESMX 200550Z 28004KT 9999 FEW006 BKN010 12/11 Q1002=
201106200520 METAR ESMX 200520Z 28003KT 9999 FEW005 SCT007 BKN009 12/11 Q1002=
201106200450 METAR ESMX 200450Z 28004KT 9999 FEW004 OVC008 12/11 Q1002=
201106200420 METAR ESMX 200420Z 26003KT 240V300 9999 SCT003 OVC006 11/11 Q1001=
201106200350 METAR ESMX 200350Z 25003KT 9999 FEW003 BKN005 11/11 Q1001=
201106200320 METAR ESMX 200320Z AUTO 27004KT 230V300 9999NDV OVC002/// 11/10 Q1001=
201106200250 METAR ESMX 200250Z AUTO 31003KT 290V010 9999NDV OVC003/// 11/10 Q1001=
201106200220 METAR ESMX 200220Z AUTO 27004KT 9999NDV OVC004/// 10/10 Q1001=
201106200150 METAR ESMX 200150Z AUTO 29003KT 250V320 9999NDV BR BKN004/// 10/10 Q1001=
201106200120 METAR ESMX 200120Z AUTO 27004KT 7000NDV BKN057/// 10/09 Q1001=
201106200050 METAR ESMX 200050Z AUTO 27003KT 5000NDV BKN059/// 10/09 Q1001=
201106200020 METAR ESMX 200020Z AUTO 25003KT 0900NDV R01/P2000N R19/P2000N BR FEW007/// SCT009/// BKN096/// 09/08 Q1001=
201106192350 METAR ESMX 192350Z AUTO 25002KT 4300NDV BR SCT009/// 10/09 Q1001=
201106192320 METAR ESMX 192320Z VRB02KT CAVOK 11/10 Q1001=
201106192220 METAR ESMX 192220Z 27002KT 9999 SCT029 BKN048 OVC065 11/10 Q1001=
201106192150 METAR ESMX 192150Z VRB02KT 9999 FEW042 OVC052 11/10 Q1001=
201106192120 METAR ESMX 192120Z VRB01KT 9999 FEW043 OVC051 11/10 Q1001=
201106192050 METAR ESMX 192050Z VRB01KT 9999 FEW011 SCT041 OVC056 11/10 Q1001=
201106192020 METAR ESMX 192020Z VRB01KT 9999 FEW035 SCT047 11/10 Q1001=
201106191950 METAR ESMX 191950Z VRB02KT 9999 SCT031 BKN038 BKN050 12/10 Q1000=
201106191920 METAR ESMX 191920Z 29003KT 9999 FEW012 SCT050 12/10 Q1000=
201106191850 METAR ESMX 191850Z VRB02KT 9999 FEW028CB 12/11 Q1000 RERA=
201106191820 METAR ESMX 191820Z 36003KT 9999 VCSH FEW019 FEW028CB BKN070 12/11 Q1000=
201106191750 METAR ESMX 191750Z 35006KT 9999 FEW014 SCT026CB BKN030 13/11 Q1000=
201106191720 METAR ESMX 191720Z 22003KT 9999 VCSH FEW025CB BKN070 13/11 Q1000=
201106191650 METAR ESMX 191650Z 18004KT 150V220 9999 VCSH FEW025CB BKN070 13/11 Q1000=
201106191620 METAR ESMX 191620Z 21006KT 180V240 9999 VCSH FEW0025CB SCT045 BKN071 14/10 Q1000=
201106191550 METAR ESMX 191550Z 25004KT 9999 VCSH FEW022CB SCT045 BKN080 14/11 Q1000=
201106191520 METAR ESMX 191520Z VRB02KT 9999 VCSH FEW023CB BKN078 14/11 Q0999=
201106191450 METAR ESMX 191450Z VRB02KT 9999 FEW020CB SCT040 BKN075 13/11 Q1000=
201106191420 METAR ESMX 191420Z 27003KT 200V350 9999 -SHRA FEW020CB SCT042 BKN080 13/11 Q1000 RERA=
201106191350 METAR ESMX 191350Z 29006KT 230V320 8000 SHRA FEW023CB SCT045 BKN072 15/10 Q0999=
201106191320 METAR ESMX 191320Z 28008KT 240V320 9999 VCSH FEW020CB BKN080 16/09 Q0999=
201106191250 METAR ESMX 191250Z 27009KT 220V300 9999 FEW020 SCT045 BKN080 16/10 Q0999=
201106191220 METAR ESMX 191220Z AUTO 26007KT 230V300 9999NDV SCT050/// BKN068/// 14/10 Q0999=
201106191150 METAR ESMX 191150Z AUTO 29006KT 250V340 9999NDV FEW022/// SCT067/// 14/11 Q0999 RERA=
201106191120 METAR ESMX 191120Z AUTO 23005KT 190V280 5000NDV -RA FEW024/// SCT056/// 13/10 Q0999=
201106191050 METAR ESMX 191050Z AUTO 26008KT 230V300 9999NDV FEW018/// 15/11 Q0999=
201106191020 METAR ESMX 191020Z AUTO 25004KT 200V320 9999NDV FEW057/// SCT074/// 14/11 Q0999 RESHRA=
201106190950 METAR ESMX 190950Z AUTO 23008KT 8000NDV -RA BKN051/// 12/10 Q0999=
201106190920 METAR ESMX 190920Z AUTO 27007KT 230V300 9999NDV FEW016/// SCT022/// BKN042/// 13/11 Q0999=
201106190850 METAR ESMX 190850Z AUTO 24011KT 200V300 9999NDV FEW013/// SCT016/// BKN020/// 15/11 Q0999=
201106190820 METAR ESMX 190820Z AUTO 23009KT 190V270 9999NDV FEW016/// SCT020/// BKN026/// 15/12 Q0999=
201106190750 METAR ESMX 190750Z AUTO 22009KT 190V250 9999NDV FEW009/// SCT012/// BKN016/// 14/12 Q0999=
201106190720 METAR ESMX 190720Z AUTO 23009KT 9999NDV FEW006/// SCT010/// BKN014/// 13/11 Q0998=
201106190650 METAR ESMX 190650Z AUTO 24007KT 9999NDV FEW006/// SCT009/// BKN012/// 13/11 Q0998=
201106190620 METAR ESMX 190620Z AUTO 24006KT 200V270 9999NDV FEW005/// SCT060/// 13/11 Q0998=
201106190550 METAR ESMX 190550Z AUTO 23006KT 210V280 9999NDV FEW005/// SCT006/// BKN008/// 12/11 Q0998=
201106190520 METAR ESMX 190520Z AUTO 21005KT 9999NDV -DZ FEW005/// SCT007/// BKN008/// 12/11 Q0998=
201106190450 METAR ESMX 190450Z AUTO 25005KT 210V290 9999NDV RA FEW060/// 11/10 Q0998=
201106190420 METAR ESMX 190420Z AUTO 25006KT 220V280 9999NDV -RA FEW008/// 12/10 Q0998=
201106190350 METAR ESMX 190350Z AUTO 25006KT 210V290 9999NDV -RA FEW007/// SCT012/// BKN059/// 12/11 Q0998=
201106190320 METAR ESMX 190320Z AUTO 24007KT 9999NDV -RA FEW004/// SCT010/// BKN038/// 12/11 Q0998=
201106190250 METAR ESMX 190250Z AUTO 24006KT 9999NDV -RA FEW003/// BKN005/// BKN007/// 12/12 Q0998=
201106190220 METAR ESMX 190220Z AUTO 19006KT 160V220 5000NDV RA FEW002/// BKN003/// BKN008/// 12/12 Q0998=
201106190150 METAR ESMX 190150Z AUTO 18005KT 5000NDV +RA FEW001/// SCT004/// BKN005/// 12/12 Q0998=
201106190120 METAR ESMX 190120Z AUTO 15003KT 110V180 5000NDV +RA OVC002/// 12/12 Q0998 REDZ=
201106190050 METAR ESMX 190050Z AUTO 12003KT 080V170 9999NDV OVC003/// 12/12 Q0998=
201106190020 METAR ESMX 190020Z AUTO VRB02KT 9999NDV SCT004/// OVC006/// 12/11 Q0998=
201106182350 METAR ESMX 182350Z AUTO 10003KT 070V140 9999NDV FEW004/// OVC006/// 12/11 Q0999=
201106182320 METAR ESMX 182320Z AUTO 13003KT 070V200 9999NDV FEW005/// OVC007/// 12/11 Q0999=
201106182250 METAR ESMX 182250Z AUTO 12003KT 060V170 9999NDV BKN005/// OVC008/// 12/11 Q0999=
201106182220 METAR ESMX 182220Z AUTO VRB02KT 9999NDV BKN004/// OVC007/// 12/11 Q1000=
201106182150 METAR ESMX 182150Z AUTO VRB02KT 3400NDV DZ SCT004/// BKN006/// OVC008/// 12/11 Q1000=
201106182120 METAR ESMX 182120Z AUTO 12004KT 070V200 5000NDV -DZ SCT005/// BKN008/// OVC009/// 12/11 Q1000=
201106182050 METAR ESMX 182050Z AUTO VRB02KT 6000NDV BR FEW005/// SCT007/// BKN008/// 13/12 Q1000 REDZ=
201106182020 METAR ESMX 182020Z AUTO VRB03KT 4600NDV DZ FEW006/// SCT009/// BKN010/// 13/11 Q1000=
201106181950 METAR ESMX 181950Z AUTO 11004KT 070V200 6000NDV DZ FEW008/// OVC010/// 13/11 Q1000=
201106181920 METAR ESMX 181920Z AUTO 09003KT 050V180 9000NDV BR OVC009/// 13/11 Q1000=
201106181850 METAR ESMX 181850Z AUTO 08004KT 030V130 9999NDV OVC011/// 13/11 Q1001=
201106181820 METAR ESMX 181820Z AUTO 08004KT 040V110 9999NDV BKN012/// OVC031/// 13/11 Q1001=
201106181750 METAR ESMX 181750Z AUTO 09005KT 030V130 9999NDV -RA FEW014/// SCT035/// 13/10 Q1001=
201106181720 METAR ESMX 181720Z AUTO 11004KT 030V200 9999NDV DZ BKN039/// 13/10 Q1001=
201106181650 METAR ESMX 181650Z AUTO 12004KT 060V200 9999NDV -DZ FEW038/// SCT042/// OVC053/// 14/10 Q1001=
201106181620 METAR ESMX 181620Z AUTO 13008KT 100V200 9999NDV -DZ BKN059/// 15/09 Q1001=
201106181550 METAR ESMX 181550Z AUTO 14006KT 110V170 9999NDV FEW029/// SCT037/// BKN072/// 16/09 Q1001=
201106181520 METAR ESMX 181520Z AUTO 14007KT 080V190 9999NDV FEW029/// SCT035/// 17/09 Q1001=
201106181450 METAR ESMX 181450Z AUTO 16008KT 120V200 9999NDV FEW029/// SCT035/// BKN052/// 17/09 Q1002=
201106181420 METAR ESMX 181420Z AUTO 14006KT 080V200 9999NDV BKN056/// 17/10 Q1002=
201106181350 METAR ESMX 181350Z AUTO 14006KT 100V170 9999NDV FEW033/// BKN053/// 16/09 Q1002=
201106181320 METAR ESMX 181320Z AUTO 14007KT 060V200 9999NDV SCT034/// BKN054/// OVC068/// 17/09 Q1002=
201106181250 METAR ESMX 181250Z AUTO VRB02KT 9999NDV FEW035/// SCT051/// BKN061/// 17/10 Q1002=
201106181220 METAR ESMX 181220Z AUTO 11005KT 070V160 9999NDV FEW040/// OVC061/// 17/09 Q1003=
201106181150 METAR ESMX 181150Z 10004KT 050V200 9999 FEW036 SCT053 BKN064 17/09 Q1003=
201106181120 METAR ESMX 181120Z 05003KT 010V100 9999 SCT035 BKN067 18/08 Q1003=
201106181050 METAR ESMX 181050Z VRB04KT 9999 FEW039 SCT052 BKN071 17/09 Q1004=
201106181020 METAR ESMX 181020Z 09004KT 030V150 9999 SCT030 BKN078 18/08 Q1004=
201106180950 METAR ESMX 180950Z 16003KT 090V200 9999 SCT024 BKN077 17/09 Q1004=
201106180920 METAR ESMX 180920Z 16005KT 9999 FEW024 SCT028 BKN061 16/10 Q1004=
201106180850 METAR ESMX 180850Z 17008KT 130V210 9999 FEW023 SCT027 BKN074 16/09 Q1005=
201106180820 METAR ESMX 180820Z 20010KT 9999 FEW017 SCT028 16/09 Q1005=
201106180750 METAR ESMX 180750Z 19006KT 9999 SCT020 15/11 Q1005=
201106180720 METAR ESMX 180720Z 18006KT 9999 FEW025 14/10 Q1006=
201106180650 METAR ESMX 180650Z 17005KT 9999 FEW020 13/10 Q1006=
201106180620 METAR ESMX 180620Z 18005KT CAVOK 13/10 Q1006=
201106180550 METAR ESMX 180550Z AUTO 19006KT 9999NDV NCD 12/10 Q1006=
201106180520 METAR ESMX 180520Z AUTO 19005KT 9999NDV FEW067/// 12/10 Q1006=
201106180450 METAR ESMX 180450Z AUTO 18004KT 9999NDV NCD 11/10 Q1006=
201106180420 METAR ESMX 180420Z AUTO 17003KT 9999NDV NCD 11/09 Q1006=
201106180350 METAR ESMX 180350Z AUTO 16003KT 9999NDV NCD 10/08 Q1006=
201106180320 METAR ESMX 180320Z AUTO 19004KT 9999NDV NCD 10/08 Q1006=
201106180250 METAR ESMX 180250Z AUTO 19004KT 9999NDV NCD 09/08 Q1006=
201106180220 METAR ESMX 180220Z AUTO 18004KT 9999NDV NCD 09/08 Q1007=
201106180150 METAR ESMX 180150Z AUTO 18006KT 9999NDV NCD 09/07 Q1007=
201106180120 METAR ESMX 180120Z AUTO 18005KT 9999NDV NCD 10/08 Q1007=
201106180050 METAR ESMX 180050Z AUTO 18005KT 9999NDV NCD 09/08 Q1007=
201106180020 METAR ESMX 180020Z AUTO 19005KT 9999NDV NCD 09/08 Q1007=
201106172350 METAR ESMX 172350Z AUTO 21004KT 9999NDV NCD 09/08 Q1007=
201106172320 METAR ESMX 172320Z AUTO 20004KT 9999NDV FEW035/// 08/07 Q1007=
201106172250 METAR ESMX 172250Z AUTO 22005KT 9999NDV NCD 09/07 Q1007=
201106172220 METAR ESMX 172220Z AUTO 21005KT 9999NDV NCD 10/08 Q1007=
201106172150 METAR ESMX 172150Z AUTO 21005KT 9999NDV NCD 10/08 Q1007=
201106172120 METAR ESMX 172120Z AUTO 22005KT 9999NDV NCD 10/08 Q1007=
201106172050 METAR ESMX 172050Z AUTO 22005KT 9999NDV NCD 11/07 Q1007=
201106172020 METAR ESMX 172020Z AUTO 22007KT 9999NDV SCT059/// BKN100/// 12/08 Q1007=
201106171950 METAR ESMX 171950Z AUTO 23007KT 200V260 9999NDV SCT083/// 13/08 Q1007=
201106171920 METAR ESMX 171920Z AUTO 23006KT 200V270 9999NDV NCD 13/07 Q1007=
201106171850 METAR ESMX 171850Z 26008KT 9999 FEW045 14/07 Q1007=
201106171820 METAR ESMX 171820Z 24009KT 200V270 9999 FEW043 15/07 Q1007=
201106171750 METAR ESMX 171750Z 26011KT 230V300 9999 FEW035 15/07 Q1007=
201106171720 METAR ESMX 171720Z 26011KT 230V300 9999 FEW032 15/08 Q1007=
201106171650 METAR ESMX 171650Z 26010KT 230V290 9999 FEW030 16/08 Q1007=
201106171620 METAR ESMX 171620Z 26012KT 220V300 9999 FEW024 SCT031 16/10 Q1006=
201106171550 METAR ESMX 171550Z 26012KT 220V300 9999 FEW024 SCT037 16/11 Q1006=
201106171520 METAR ESMX 171520Z 26011KT 230V290 9999 FEW019 SCT029 16/11 Q1006=
201106171450 METAR ESMX 171450Z 25009KT 9999 FEW020 SCT040 15/12 Q1006=
201106171420 METAR ESMX 171420Z 25009KT 9999 VCSH FEW028CB SCT040 14/11 Q1006=
201106171350 METAR ESMX 171350Z 27018KT 9999 SHRA FEW023CB SCT041 15/10 Q1006 RERA=
201106171320 METAR ESMX 171320Z 26011KT 230V290 9999 FEW036 SCT042 BKN066 16/09 Q1006=
201106171250 METAR ESMX 171250Z 24015KT 9999 SCT037 17/08 Q1006=
201106171220 METAR ESMX 171220Z 23011KT 200V270 9999 FEW039 SCT050 17/09 Q1005=
201106171150 METAR ESMX 171150Z 23010KT 200V260 9999 SCT046 17/10 Q1005=
201106171120 METAR ESMX 171120Z 24012KT 190V270 9999 FEW026 SCT045 17/11 Q1005=
201106171050 METAR ESMX 171050Z 24010KT 210V280 9999 FEW021 SCT054 16/12 Q1005=
201106171020 METAR ESMX 171020Z 22010KT 9999 FEW011 SCT022 17/12 Q1005=
201106170950 METAR ESMX 170950Z 22007KT 190V260 9999 FEW008 SCT083 15/13 Q1005=
201106170920 METAR ESMX 170920Z 20006KT 9999 VCSH FEW010 SCT017 13/12 Q1005=
201106170850 METAR ESMX 170850Z 25009KT 200V280 5000 RA FEW005 SCT015CB BKN028 14/12 Q1005=
201106170820 METAR ESMX 170820Z 24009KT 210V280 9999 FEW012 SCT015 BKN021 16/12 Q1005=
201106170750 METAR ESMX 170750Z 24009KT 210V270 9999 FEW009 SCT012 BKN023 17/14 Q1005=
201106170720 METAR ESMX 170720Z 23007KT 9999 FEW005 BKN009 BKN041 15/13 Q1005=
201106170650 METAR ESMX 170650Z 19006KT 160V220 9000 BR FEW002 SCT004 OVC006 14/13 Q1004=
201106170620 METAR ESMX 170620Z 17006KT 140V210 4000 RA OVC002 13/13 Q1004=
201106170550 METAR ESMX 170550Z 17006KT 110V220 4500 BR OVC002 13/12 Q1004=
201106170520 METAR ESMX 170520Z 14006KT 110V180 5000 -DZ OVC003 12/12 Q1005=
201106170450 METAR ESMX 170450Z 13006KT 070V170 9999 OVC003 12/11 Q1005=
201106170420 METAR ESMX 170420Z 13006KT 080V180 9999 -RA OVC003 12/11 Q1005=
201106170350 METAR COR ESMX 170350Z 14006KT 100V190 9999 -RA OVC004 12/11 Q1005=
201106170320 METAR ESMX 170320Z AUTO 14007KT 080V180 9999NDV -RA BKN005/// OVC007/// 11/10 Q1005=
201106170250 METAR ESMX 170250Z AUTO 13008G18KT 070V230 9999NDV -RA FEW005/// BKN006/// OVC008/// 11/10 Q1006=
201106170220 METAR ESMX 170220Z AUTO 13006KT 060V180 2300NDV RA FEW006/// SCT010/// OVC020/// 11/10 Q1006=
201106170150 METAR ESMX 170150Z AUTO 11007KT 070V170 9999NDV -RA OVC022/// 11/09 Q1006 REDZ=
201106170120 METAR ESMX 170120Z AUTO 11006KT 050V180 9999NDV -RA OVC026/// 11/09 Q1007=
201106170050 METAR ESMX 170050Z AUTO 11006KT 060V170 9999NDV -RA FEW037/// OVC072/// 11/09 Q1008=
201106170020 METAR ESMX 170020Z AUTO 11005KT 070V190 9999NDV FEW037/// 12/10 Q1009=
201106162350 METAR ESMX 162350Z 11006KT 060V180 9999 -RA SCT043 BKN080 12/09 Q1009=
201106162320 METAR ESMX 162320Z VRB04KT 9999 -RA FEW030 BKN045 13/09 Q1010=
201106162250 METAR ESMX 162250Z 12005KT 080V190 9999 -RA OVC044 13/08 Q1010=
201106162220 METAR ESMX 162220Z 13005KT 080V170 9999 SCT048 OVC085 14/07 Q1010=
201106162150 METAR ESMX 162150Z 12005KT 050V190 CAVOK 14/07 Q1010=
201106162120 METAR ESMX 162120Z 13005KT 070V190 CAVOK 14/07 Q1011=
201106162050 METAR ESMX 162050Z 14005KT 080V180 CAVOK 15/07 Q1011=
201106162020 METAR ESMX 162020Z 14005KT 060V170 CAVOK 15/07 Q1011=
201106161950 METAR ESMX 161950Z 15007KT 090V190 CAVOK 16/06 Q1011=
201106161920 METAR ESMX 161920Z 14006KT 110V200 CAVOK 16/07 Q1011=
201106161850 METAR ESMX 161850Z 15007KT 110V190 CAVOK 17/08 Q1011=
201106161820 METAR ESMX 161820Z 16009KT 140V200 CAVOK 17/09 Q1011=
201106161750 METAR ESMX 161750Z 16008KT 110V190 CAVOK 18/09 Q1011=
201106161720 METAR ESMX 161720Z 18009KT CAVOK 19/09 Q1011=
201106161650 METAR ESMX 161650Z 18005KT 110V240 CAVOK 20/06 Q1011=
201106161620 METAR ESMX 161620Z 15004KT 100V200 CAVOK 21/04 Q1011=
201106161550 METAR ESMX 161550Z 16004KT CAVOK 21/04 Q1012=
201106161520 METAR ESMX 161520Z 20005KT 140V250 CAVOK 21/05 Q1012=
201106161450 METAR ESMX 161450Z 19006KT 140V220 CAVOK 21/03 Q1012=
201106161420 METAR ESMX 161420Z 16005KT 110V230 CAVOK 21/02 Q1012=
201106161350 METAR ESMX 161350Z 18005KT 120V220 CAVOK 22/04 Q1013=
201106161320 METAR ESMX 161320Z 18005KT 110V240 CAVOK 21/06 Q1013=
201106161250 METAR ESMX 161250Z 17006KT 090V220 CAVOK 21/05 Q1013=
201106161220 METAR ESMX 161220Z 16006KT 110V210 CAVOK 20/05 Q1013=
201106161150 METAR ESMX 161150Z 07004KT 350V150 9999 FEW027 21/05 Q1013=
201106161120 METAR ESMX 161120Z VRB05KT CAVOK 20/03 Q1013=
201106161050 METAR ESMX 161050Z VRB02KT 9999 FEW043 20/05 Q1014=
201106161020 METAR ESMX 161020Z 02005KT 330V090 9999 FEW043 20/06 Q1014=
201106160950 METAR ESMX 160950Z 08004KT 030V150 CAVOK 18/06 Q1014=
201106160920 METAR ESMX 160920Z 08004KT 020V140 CAVOK 18/07 Q1014=
201106160850 METAR ESMX 160850Z VRB03KT CAVOK 18/07 Q1014=
201106160820 METAR ESMX 160820Z VRB03KT CAVOK 17/06 Q1014=
201106160750 METAR ESMX 160750Z 15003KT 080V200 CAVOK 16/06 Q1014=
201106160720 METAR ESMX 160720Z VRB02KT 9999 FEW030 16/07 Q1014=
201106160650 METAR ESMX 160650Z 28003KT 220V330 9999 FEW025 16/08 Q1014=
201106160620 METAR ESMX 160620Z VRB02KT CAVOK 15/07 Q1014=
201106160550 METAR ESMX 160550Z 36004KT 320V040 CAVOK 14/08 Q1014=
201106160520 METAR ESMX 160520Z VRB02KT CAVOK 14/08 Q1014=
201106160450 METAR ESMX 160450Z 25003KT CAVOK 12/09 Q1014=
201106160420 METAR ESMX 160420Z 26003KT 230V300 CAVOK 11/09 Q1014=
201106160350 METAR ESMX 160350Z 20002KT CAVOK 09/08 Q1014=
201106160320 METAR ESMX 160320Z AUTO 24002KT 9999NDV NCD 09/08 Q1014=
201106160250 METAR ESMX 160250Z AUTO 24002KT 9999NDV NCD 08/07 Q1014=
201106160220 METAR ESMX 160220Z AUTO 22002KT 9999NDV NCD 09/08 Q1013=
201106160150 METAR ESMX 160150Z AUTO 22003KT 9999NDV NCD 09/07 Q1013=
201106160120 METAR ESMX 160120Z AUTO 23002KT 9999NDV NCD 10/08 Q1013=
201106160050 METAR ESMX 160050Z AUTO 23002KT 9999NDV NCD 10/08 Q1013=
201106160020 METAR ESMX 160020Z AUTO 20003KT 9999NDV NCD 10/08 Q1013=
201106152350 METAR ESMX 152350Z 22003KT CAVOK 10/08 Q1013=
201106152320 METAR ESMX 152320Z 23002KT CAVOK 10/07 Q1014=
201106152250 METAR ESMX 152250Z 22003KT CAVOK 11/07 Q1014=
201106152220 METAR ESMX 152220Z 24003KT CAVOK 11/07 Q1014=
201106152150 METAR ESMX 152150Z 21002KT CAVOK 11/07 Q1014=
201106152120 METAR ESMX 152120Z 24004KT CAVOK 11/06 Q1014=
201106152050 METAR ESMX 152050Z 19003KT CAVOK 11/06 Q1014=
201106152020 METAR ESMX 152020Z 25003KT CAVOK 11/06 Q1014=
201106151950 METAR ESMX 151950Z 27003KT CAVOK 12/05 Q1014=
201106151920 METAR ESMX 151920Z 27005KT CAVOK 13/05 Q1013=
201106151850 METAR ESMX 151850Z 27009KT CAVOK 14/05 Q1013=
201106151820 METAR ESMX 151820Z 26008KT 220V290 CAVOK 15/06 Q1013=
201106151750 METAR ESMX 151750Z 27007KT 9999 FEW039 16/06 Q1013=
201106151720 METAR ESMX 151720Z 26008KT 210V300 9999 SCT040 16/06 Q1013=
201106151650 METAR ESMX 151650Z 27008KT 200V320 9999 SCT039 16/06 Q1013=
201106151620 METAR ESMX 151620Z 26009KT 230V300 9999 SCT040 16/06 Q1013=
201106151550 METAR ESMX 151550Z 27010KT 220V310 9999 FEW041 16/06 Q1013=
201106151520 METAR ESMX 151520Z 27013KT 9999 SCT039 17/06 Q1013=
201106151450 METAR ESMX 151450Z 26014KT 230V300 9999 FEW039 17/06 Q1013=
201106151420 METAR ESMX 151420Z 27012KT 240V310 9999 SCT037 17/07 Q1013=
201106151350 METAR ESMX 151350Z 28012KT 250V320 9999 SCT039 17/06 Q1013=
201106151320 METAR ESMX 151320Z 28013KT 250V320 9999 SCT039 16/06 Q1013=
201106151250 METAR ESMX 151250Z 27015KT 220V300 9999 FEW038 SCT042 17/06 Q1013=
201106151220 METAR ESMX 151220Z 27012KT 240V300 9999 FEW035 SCT042 17/07 Q1013=
201106151150 METAR ESMX 151150Z 26013KT 220V290 9999 BKN034 16/06 Q1013=
201106151120 METAR ESMX 151120Z 25012KT 220V280 9999 BKN033 16/07 Q1013=
201106151050 METAR ESMX 151050Z 27013KT 240V320 9999 FEW030 SCT037 BKN042 16/07 Q1013=
201106151020 METAR ESMX 151020Z 26012KT 220V320 9999 FEW030 SCT034 OVC040 15/07 Q1013=
201106150950 METAR ESMX 150950Z 26012G25KT 9999 FEW029 BKN042 15/07 Q1013=
201106150920 METAR ESMX 150920Z 25011KT 220V290 9999 FEW028 BKN037 14/07 Q1013=
201106150850 METAR ESMX 150850Z 24011KT 190V280 9999 FEW027 SCT031 BKN035 14/08 Q1013=
201106150820 METAR ESMX 150820Z 24010KT 200V280 9999 FEW026 BKN039 14/08 Q1013=
201106150750 METAR ESMX 150750Z 24011KT 9999 OVC038 13/08 Q1013=
201106150720 METAR ESMX 150720Z 22009KT 190V260 9999 BKN038 12/08 Q1013=
201106150650 METAR ESMX 150650Z 21009KT 180V240 9999 FEW020 BKN040 11/08 Q1013=
201106150620 METAR ESMX 150620Z 23010KT 9999 BKN037 11/08 Q1013=
201106150550 METAR ESMX 150550Z 23008KT 200V280 9999 BKN037 11/08 Q1013=
201106150520 METAR ESMX 150520Z 23008KT 9999 FEW038 11/08 Q1013=
201106150450 METAR ESMX 150450Z 22008KT CAVOK 10/07 Q1013=
201106150420 METAR ESMX 150420Z 22007KT CAVOK 10/07 Q1013=
201106150350 METAR ESMX 150350Z 23005KT CAVOK 09/07 Q1013=
201106150320 METAR ESMX 150320Z AUTO 21005KT 170V240 9999NDV NCD 09/07 Q1013=
201106150250 METAR ESMX 150250Z AUTO 22006KT 9999NDV NCD 09/06 Q1013=
201106150220 METAR ESMX 150220Z AUTO 23006KT 9999NDV NCD 09/06 Q1013=
201106150150 METAR ESMX 150150Z AUTO 24006KT 9999NDV NCD 09/06 Q1013=
201106150120 METAR ESMX 150120Z AUTO 24005KT 210V280 9999NDV NCD 09/06 Q1013=
201106150050 METAR ESMX 150050Z AUTO 25004KT 220V280 9999NDV NCD 09/06 Q1013=
201106150020 METAR ESMX 150020Z AUTO 25006KT 9999NDV NCD 09/06 Q1013=
201106142350 METAR ESMX 142350Z 23006KT 190V260 CAVOK 09/06 Q1013=
201106142250 METAR ESMX 142250Z 26006KT 220V290 CAVOK 10/06 Q1013=
201106142220 METAR ESMX 142220Z 27008KT CAVOK 10/06 Q1013=
201106142150 METAR ESMX 142150Z 25007KT CAVOK 11/06 Q1013=
201106142120 METAR ESMX 142120Z 27009KT CAVOK 11/06 Q1013=
201106142050 METAR ESMX 142050Z 27009KT 250V310 CAVOK 11/06 Q1013=
201106142020 METAR ESMX 142020Z 26007KT CAVOK 12/06 Q1013=
201106141950 METAR ESMX 141950Z 26006KT CAVOK 12/06 Q1013=
201106141920 METAR ESMX 141920Z 26007KT 190V290 CAVOK 13/07 Q1013=
201106141850 METAR ESMX 141850Z 27010KT 230V290 9999 FEW035 14/07 Q1013=
201106141820 METAR ESMX 141820Z 26011KT 9999 FEW037 15/06 Q1012=
201106141750 METAR ESMX 141750Z 28010KT 230V310 9999 FEW035 15/06 Q1012=
201106141720 METAR ESMX 141720Z 27012KT 240V300 9999 SCT043 16/07 Q1012=
201106141650 METAR ESMX 141650Z 27010KT 230V310 9999 SCT043 17/08 Q1012=
201106141620 METAR ESMX 141620Z 24012KT 9999 SCT040 17/08 Q1012=
201106141550 METAR ESMX 141550Z 27012KT 230V300 9999 BKN041 16/08 Q1012=
201106141520 METAR ESMX 141520Z 27013KT 9999 BKN041 17/07 Q1012=
201106141450 METAR ESMX 141450Z 29011KT 240V320 9999 BKN042 17/07 Q1012=
201106141350 METAR ESMX 141350Z 27013KT 9999 SCT041 BKN200 18/08 Q1012=
201106141320 METAR ESMX 141320Z 26011KT 230V290 9999 FEW045 18/07 Q1012=
201106141250 METAR ESMX 141250Z 27012KT 230V320 9999 SCT042 19/08 Q1011=
201106141220 METAR ESMX 141220Z 27011KT 230V310 9999 SCT044 18/08 Q1011=
201106141150 METAR ESMX 141150Z 28012G23KT 240V320 9999 SCT042 BKN100 19/07 Q1011=
201106141120 METAR ESMX 141120Z 26013KT 220V300 9999 FEW042 19/07 Q1011=
201106141050 METAR ESMX 141050Z 26012KT 210V290 9999 FEW031 18/09 Q1011=
201106141020 METAR ESMX 141020Z 25012KT 210V280 9999 SCT023 19/11 Q1011=
201106140950 METAR ESMX 140950Z 27011KT 230V320 9999 FEW022 BKN030 17/11 Q1011=
201106140920 METAR ESMX 140920Z 24009KT 200V280 9999 BKN026 18/12 Q1011=
201106140850 METAR ESMX 140850Z 26008KT 200V300 9999 BKN025 18/12 Q1010=
201106140650 METAR ESMX 140650Z 26007KT 220V290 9999 SCT007 OVC010 15/14 Q1010=
201106140620 METAR ESMX 140620Z 24005KT 210V290 9999 SCT005 BKN007 15/14 Q1010=
201106140550 METAR ESMX 140550Z 23006KT 7000 BR BKN003 OVC007 14/13 Q1010=
201106140450 METAR ESMX 140450Z 18006KT 3100 -RA OVC005 13/12 Q1010=
201106140420 METAR ESMX 140420Z 17005KT 4000 DZ SCT009 OVC014 13/12 Q1010=
201106140350 METAR ESMX 140350Z 18005KT 5000 BR SCT008 BKN013 13/11 Q1010=
201106140320 METAR ESMX 140320Z AUTO 17005KT 140V210 3000NDV DZ FEW008/// BKN013/// BKN018/// 13/11 Q1011=
201106140250 METAR ESMX 140250Z AUTO 17004KT 9999NDV OVC017/// 13/11 Q1011=
201106140220 METAR ESMX 140220Z AUTO 17004KT 9999NDV FEW016/// SCT021/// BKN026/// 13/11 Q1011 REDZ=
201106140150 METAR ESMX 140150Z AUTO 17005KT 9999NDV OVC028/// 13/10 Q1011=
201106140120 METAR ESMX 140120Z AUTO 17004KT 9999NDV OVC032/// 13/10 Q1011=
201106140050 METAR ESMX 140050Z AUTO 18003KT 9999NDV OVC034/// 13/10 Q1011=
201106140020 METAR ESMX 140020Z AUTO 17003KT 9999NDV FEW026/// SCT044/// 13/10 Q1011=
201106132350 METAR ESMX 132350Z 17004KT 140V200 9999 FEW034 BKN042 14/10 Q1012=
201106132320 METAR ESMX 132320Z 15004KT 9999 OVC046 13/11 Q1012 REDZ=
201106132250 METAR ESMX 132250Z 15003KT 9999 DZ BKN045 13/11 Q1012=
201106132220 METAR ESMX 132220Z 17002KT 9999 -RA FEW040 BKN070 14/10 Q1012=
201106132150 METAR ESMX 132150Z 19004KT 9999 RA BKN050 14/10 Q1012=
201106132120 METAR ESMX 132120Z 19005KT 9999 -DZ BKN060 15/09 Q1012=
201106132050 METAR ESMX 132050Z 18005KT CAVOK 16/09 Q1013=
201106132020 METAR ESMX 132020Z 17006KT 9999 FEW056 BKN066 16/09 Q1013=
201106131950 METAR ESMX 131950Z 17004KT 9999 BKN072 BKN095 17/08 Q1013=
201106131920 METAR ESMX 131920Z 18005KT CAVOK 16/08 Q1013=
201106131850 METAR ESMX 131850Z 21003KT CAVOK 17/07 Q1013=
201106131820 METAR ESMX 131820Z 25003KT 220V280 CAVOK 18/05 Q1013=
201106131750 METAR ESMX 131750Z 23004KT 200V300 CAVOK 18/05 Q1013=
201106131720 METAR ESMX 131720Z 24004KT 200V260 CAVOK 19/06 Q1013=
201106131650 METAR ESMX 131650Z 26004KT 200V310 CAVOK 19/04 Q1013=
201106131620 METAR ESMX 131620Z 26004KT 220V290 CAVOK 19/04 Q1013=
201106131550 METAR ESMX 131550Z 32005KT 260V360 CAVOK 19/04 Q1013=
201106131520 METAR ESMX 131520Z 30005KT 250V340 CAVOK 20/04 Q1013=
201106131450 METAR ESMX 131450Z 28006KT 250V320 CAVOK 19/04 Q1014=
201106131420 METAR ESMX 131420Z 25004KT CAVOK 18/05 Q1014=
201106131350 METAR ESMX 131350Z 22004KT 150V290 CAVOK 19/04 Q1014=
201106131320 METAR ESMX 131320Z 25005KT 210V280 CAVOK 18/04 Q1014=
201106131250 METAR ESMX 131250Z 25006KT 210V290 CAVOK 19/03 Q1014=
201106131220 METAR ESMX 131220Z 23008KT 190V250 CAVOK 19/03 Q1014=
201106131150 METAR ESMX 131150Z 24007KT 190V300 CAVOK 19/04 Q1015=
201106131050 METAR ESMX 131050Z 26007KT 210V300 CAVOK 18/04 Q1015=
201106131020 METAR ESMX 131020Z 23007KT 180V270 CAVOK 19/03 Q1015=
201106130950 METAR ESMX 130950Z 25008KT 220V290 CAVOK 18/05 Q1015=
201106130920 METAR ESMX 130920Z 26010KT 9999 FEW045 18/04 Q1016=
201106130850 METAR ESMX 130850Z 27010KT 230V300 9999 FEW042 17/04 Q1016=
201106130820 METAR ESMX 130820Z 23008KT 200V280 9999 FEW040 17/05 Q1016=
201106130750 METAR ESMX 130750Z 23008KT 190V270 9999 FEW038 16/07 Q1016=
201106130720 METAR ESMX 130720Z 23009KT 190V280 9999 FEW032 16/07 Q1016=
201106130650 METAR ESMX 130650Z 26006KT 210V300 CAVOK 15/08 Q1016=
201106130550 METAR ESMX 130550Z 25005KT 210V280 CAVOK 14/08 Q1016=
201106130520 METAR ESMX 130520Z 23005KT 200V290 CAVOK 13/08 Q1016=
201106130450 METAR ESMX 130450Z 23005KT 170V250 CAVOK 11/08 Q1016=
201106130420 METAR ESMX 130420Z 23004KT CAVOK 10/08 Q1016=
201106130350 METAR ESMX 130350Z 22004KT CAVOK 09/08 Q1016=
201106130320 METAR ESMX 130320Z AUTO 22004KT 9999NDV NCD 07/06 Q1016=
201106130250 METAR ESMX 130250Z AUTO 23004KT 9999NDV NCD 06/05 Q1016=
201106130220 METAR ESMX 130220Z AUTO 22005KT 9999NDV NCD 06/05 Q1016=
201106130150 METAR ESMX 130150Z AUTO 23003KT 9999NDV NCD 07/06 Q1016=
201106130120 METAR ESMX 130120Z AUTO 25003KT 9999NDV NCD 07/05 Q1017=
201106130050 METAR ESMX 130050Z AUTO 25004KT 9999NDV NCD 07/06 Q1017=
201106130020 METAR ESMX 130020Z AUTO 25004KT 9999NDV NCD 07/05 Q1016=
201106122350 METAR ESMX 122350Z AUTO 25004KT 9999NDV NCD 08/06 Q1017=
201106122320 METAR ESMX 122320Z 27004KT CAVOK 09/06 Q1016=
201106122250 METAR ESMX 122250Z 26005KT CAVOK 10/06 Q1017=
201106122220 METAR ESMX 122220Z 26005KT CAVOK 10/06 Q1017=
201106122150 METAR ESMX 122150Z 26004KT CAVOK 09/05 Q1016=
201106122120 METAR ESMX 122120Z 26004KT CAVOK 09/05 Q1017=
201106122050 METAR ESMX 122050Z 25004KT CAVOK 10/05 Q1017=
201106122020 METAR ESMX 122020Z 26003KT CAVOK 12/05 Q1016=
201106121950 METAR ESMX 121950Z 26003KT CAVOK 13/05 Q1016=
201106121920 METAR ESMX 121920Z 27004KT CAVOK 14/04 Q1016=
201106121850 METAR ESMX 121850Z 26006KT CAVOK 15/04 Q1016=
201106121820 METAR ESMX 121820Z 27006KT CAVOK 16/04 Q1016=
201106121750 METAR ESMX 121750Z 24008KT 200V280 CAVOK 16/04 Q1016=
201106121720 METAR ESMX 121720Z 26009KT 200V290 CAVOK 17/04 Q1016=
201106121650 METAR ESMX 121650Z 26010KT CAVOK 17/04 Q1016=
201106121620 METAR ESMX 121620Z 26010KT 210V290 CAVOK 17/03 Q1016=
201106121550 METAR ESMX 121550Z 27011KT 210V290 CAVOK 18/05 Q1016=
201106121520 METAR ESMX 121520Z 28010KT 250V320 CAVOK 18/05 Q1016=
201106121450 METAR ESMX 121450Z 26011KT 230V290 CAVOK 19/05 Q1016=
201106121420 METAR ESMX 121420Z 27010KT 240V300 CAVOK 18/04 Q1016=
201106121350 METAR ESMX 121350Z 27010KT 230V300 CAVOK 19/05 Q1016=
201106121320 METAR ESMX 121320Z 28010KT 240V330 CAVOK 18/06 Q1016=
201106121250 METAR ESMX 121250Z 25010KT 220V290 CAVOK 19/06 Q1016=
201106121220 METAR ESMX 121220Z 31008KT 250V360 9999 SCT048 18/06 Q1016=
201106121150 METAR ESMX 121150Z 24008KT 220V290 9999 SCT045 19/06 Q1016=
201106121120 METAR ESMX 121120Z 30009KT 260V330 9999 SCT045 18/07 Q1017=
201106121050 METAR ESMX 121050Z 27010KT 220V320 9999 SCT043 18/07 Q1017=
201106121020 METAR ESMX 121020Z 27010KT 9999 FEW040 SCT046 17/07 Q1017=
201106120950 METAR ESMX 120950Z 25011KT 9999 SCT036 17/07 Q1017=
201106120920 METAR ESMX 120920Z 26009KT 9999 SCT035 17/08 Q1017=
201106120850 METAR ESMX 120850Z 26008KT 230V330 9999 FEW030 16/08 Q1017=
201106120820 METAR ESMX 120820Z AUTO 28008KT 240V330 9999NDV FEW029/// 16/08 Q1017=
201106120750 METAR ESMX 120750Z AUTO 27010KT 230V310 9999NDV FEW027/// 16/08 Q1017=
201106120720 METAR ESMX 120720Z AUTO 29011KT 250V320 9999NDV NCD 15/08 Q1017=
201106120650 METAR ESMX 120650Z AUTO 30009KT 270V330 9999NDV FEW015/// 14/08 Q1017=
201106120620 METAR ESMX 120620Z AUTO 29008KT 250V330 9999NDV FEW013/// SCT016/// 14/10 Q1017=
201106120550 METAR ESMX 120550Z AUTO 29009KT 250V320 9999NDV FEW012/// SCT016/// 13/10 Q1017=
201106120520 METAR ESMX 120520Z AUTO 29005KT 250V320 9999NDV NCD 12/10 Q1016=
201106120450 METAR ESMX 120450Z AUTO 28005KT 9999NDV FEW006/// SCT008/// 11/10 Q1016=
201106120420 METAR ESMX 120420Z AUTO 29007KT 250V320 9999NDV SCT006/// 11/09 Q1016=
201106120350 METAR ESMX 120350Z AUTO 28003KT 9999NDV NCD 09/07 Q1016=
201106120320 METAR ESMX 120320Z AUTO VRB01KT 9999NDV NCD 08/06 Q1016=
201106120250 METAR ESMX 120250Z AUTO 25004KT 9999NDV NCD 07/06 Q1015=
201106120220 METAR ESMX 120220Z AUTO 26003KT 9999NDV NCD 07/05 Q1015=
201106120150 METAR ESMX 120150Z AUTO 26004KT 9999NDV NCD 08/05 Q1015=
201106120120 METAR ESMX 120120Z AUTO 26003KT 9999NDV NCD 08/06 Q1015=
201106120050 METAR ESMX 120050Z AUTO 26003KT 9999NDV NCD 09/06 Q1015=
201106120020 METAR ESMX 120020Z AUTO 26004KT 9999NDV NCD 09/07 Q1015=
201106112350 METAR ESMX 112350Z AUTO 26005KT 9999NDV NCD 08/07 Q1015=
201106112320 METAR ESMX 112320Z AUTO 26003KT 9999NDV NCD 09/08 Q1015=
201106112250 METAR ESMX 112250Z AUTO 21002KT 9999NDV NCD 08/07 Q1015=
201106112220 METAR ESMX 112220Z AUTO 25002KT 8000NDV NCD 10/09 Q1015=
201106112150 METAR ESMX 112150Z AUTO 26003KT 9999NDV NCD 10/09 Q1015=
201106112120 METAR ESMX 112120Z AUTO 27003KT 9999NDV NCD 11/09 Q1014=
201106112050 METAR ESMX 112050Z AUTO 00000KT 9999NDV FEW110/// 12/10 Q1015=
201106112020 METAR ESMX 112020Z AUTO 28001KT 9999NDV FEW074/// SCT100/// 13/11 Q1015=
201106111950 METAR ESMX 111950Z AUTO 32002KT 9999NDV FEW072/// BKN100/// 13/11 Q1014=
201106111920 METAR ESMX 111920Z AUTO 00000KT 9999NDV BKN090/// 14/11 Q1014=
201106111850 METAR ESMX 111850Z AUTO 30002KT 9999NDV BKN088/// BKN100/// 14/10 Q1014=
201106111820 METAR ESMX 111820Z AUTO 32002KT 9999NDV BKN086/// 15/10 Q1014=
201106111750 METAR ESMX 111750Z AUTO 33004KT 9999NDV FEW060/// BKN084/// 15/10 Q1014=
201106111720 METAR ESMX 111720Z AUTO 33005KT 300V360 9999NDV FEW061/// BKN100/// 16/09 Q1014=
201106111650 METAR ESMX 111650Z AUTO 33007KT 300V010 9999NDV BKN056/// BKN110/// 16/09 Q1014=
201106111620 METAR ESMX 111620Z AUTO 31006KT 270V350 9999NDV BKN056/// 17/09 Q1013=
201106111550 METAR ESMX 111550Z AUTO 33007KT 290V020 9999NDV BKN057/// 17/08 Q1013=
201106111520 METAR ESMX 111520Z AUTO 33006KT 280V360 9999NDV OVC053/// 17/08 Q1013=
201106111450 METAR ESMX 111450Z AUTO 33006KT 270V010 9999NDV SCT051/// BKN097/// 16/07 Q1013=
201106111420 METAR ESMX 111420Z AUTO 33007KT 290V360 9999NDV BKN047/// BKN061/// 16/07 Q1013=
201106111350 METAR ESMX 111350Z AUTO 32010KT 290V010 9999NDV OVC043/// 16/07 Q1013=
201106111320 METAR ESMX 111320Z AUTO 30009KT 9999NDV OVC042/// 15/08 Q1014=
201106111250 METAR ESMX 111250Z AUTO 31009KT 270V350 9999NDV OVC043/// 14/08 Q1014=
201106111220 METAR ESMX 111220Z AUTO 28010KT 9999NDV OVC041/// 14/09 Q1014=
201106111150 METAR ESMX 111150Z 29009KT 9999 FEW018 BKN040 15/09 Q1014=
201106111120 METAR ESMX 111120Z 29008KT 250V340 9999 FEW017 OVC038 14/09 Q1013=
201106111050 METAR ESMX 111050Z 29008KT 250V340 9999 FEW017 OVC039 14/09 Q1013=
201106111020 METAR ESMX 111020Z 29008KT 9999 FEW017 BKN038 13/09 Q1013=
201106110950 METAR ESMX 110950Z 30007KT 260V330 9999 FEW015 OVC038 13/10 Q1013=
201106110920 METAR ESMX 110920Z 29007KT 240V330 9999 FEW016 OVC037 13/10 Q1013=
201106110850 METAR ESMX 110850Z 30008KT 9999 FEW016 OVC037 13/09 Q1013=
201106110820 METAR ESMX 110820Z 29008KT 9999 FEW012 OVC036 12/10 Q1013=
201106110750 METAR ESMX 110750Z 29008KT 260V320 9999 FEW010 OVC036 12/09 Q1013=
201106110720 METAR ESMX 110720Z 30006KT 260V340 9999 FEW010 OVC036 12/09 Q1013=
201106110650 METAR ESMX 110650Z 30006KT 9999 BKN023 OVC036 11/09 Q1012=
201106110620 METAR ESMX 110620Z AUTO 30007KT 280V340 9999NDV OVC022/// 10/08 Q1012=
201106110550 METAR ESMX 110550Z AUTO 29006KT 250V330 9999NDV OVC021/// 10/08 Q1012=
201106110520 METAR ESMX 110520Z AUTO 29005KT 260V320 9999NDV OVC020/// 10/08 Q1012=
201106110450 METAR ESMX 110450Z AUTO 33005KT 280V020 9999NDV OVC020/// 10/08 Q1012=
201106110420 METAR ESMX 110420Z AUTO 30004KT 260V330 9999NDV OVC020/// 09/08 Q1012=
201106110350 METAR ESMX 110350Z AUTO 31006KT 9999NDV OVC020/// 09/08 Q1012=
201106110320 METAR ESMX 110320Z AUTO 31006KT 280V340 9999NDV OVC017/// 09/08 Q1012=
201106110250 METAR ESMX 110250Z AUTO 31006KT 280V340 9999NDV OVC016/// 09/08 Q1013=
201106110220 METAR ESMX 110220Z AUTO 31008KT 9999NDV OVC017/// 10/08 Q1013=
201106110150 METAR ESMX 110150Z AUTO 34007KT 9999NDV FEW007/// OVC019/// 10/09 Q1013=
201106110120 METAR ESMX 110120Z AUTO 32006KT 270V340 9000NDV FEW007/// BKN019/// 10/09 Q1013=
201106110050 METAR ESMX 110050Z AUTO 32006KT 270V340 9999NDV OVC020/// 10/09 Q1013 REDZ=
201106110020 METAR ESMX 110020Z AUTO 32006KT 280V350 9999NDV OVC019/// 10/09 Q1013=
201106102350 METAR ESMX 102350Z AUTO 31006KT 280V340 8000NDV DZ FEW005/// BKN021/// 11/10 Q1013=
201106102320 METAR ESMX 102320Z AUTO 31007KT 6000NDV -RA FEW007/// BKN018/// BKN025/// 11/10 Q1013=
201106102250 METAR ESMX 102250Z AUTO 31004KT 270V340 2900NDV RA FEW007/// SCT014/// BKN018/// 11/10 Q1013=
201106102220 METAR ESMX 102220Z AUTO 32006KT 6000NDV RA OVC022/// 11/10 Q1013=
201106102150 METAR ESMX 102150Z AUTO 32005KT 9999NDV RA OVC022/// 11/10 Q1013 REDZ=
201106102120 METAR ESMX 102120Z AUTO 30004KT 260V340 9999NDV -RA OVC024/// 11/10 Q1013=
201106102050 METAR ESMX 102050Z AUTO 31005KT 280V340 5000NDV RA BKN027/// 11/10 Q1013=
201106102020 METAR ESMX 102020Z AUTO 33006KT 7000NDV RA BKN029/// 12/11 Q1013=
201106101950 METAR ESMX 101950Z AUTO 34006KT 300V020 6000NDV RA FEW029/// SCT038/// 11/11 Q1013=
201106101920 METAR ESMX 101920Z AUTO VRB02KT 2600NDV +RA FEW004/// SCT026/// BKN030/// 12/11 Q1012=
201106101850 METAR ESMX 101850Z 33004KT 9999 -RA SCT003 BKN025 11/11 Q1012=
201106101820 METAR ESMX 101820Z 01004KT 340V060 8000 -RA FEW004 OVC031 12/11 Q1012 RERA=
201106101750 METAR ESMX 101750Z 35005KT 330V060 6000 -RA FEW005 BKN037 12/11 Q1012=
201106101720 METAR ESMX 101720Z 35005KT 8000 -RA FEW008 BKN038 12/11 Q1012=
201106101650 METAR ESMX 101650Z 34008KT 8000 FEW020 BKN037 13/11 Q1012=
201106101620 METAR ESMX 101620Z 33006KT 9999 FEW026 OVC038 13/11 Q1012=
201106101550 METAR ESMX 101550Z 33005KT 9999 DZ FEW025 OVC038 13/12 Q1012=
201106101520 METAR ESMX 101520Z 34005KT 9999 -RA FEW005 BKN038 13/12 Q1012 RERA=
201106101420 METAR ESMX 101420Z 31004KT 290V350 8000 -RA FEW012 BKN035 13/12 Q1012=
201106101350 METAR ESMX 101350Z 32005KT 300V360 9999 -RA SCT012 BKN040 13/11 Q1012=
201106101320 METAR ESMX 101320Z 30005KT 270V340 9999 -DZ FEW014 SCT034 BKN040 13/11 Q1012 RESHRA=
201106101250 METAR ESMX 101250Z 32007KT 7000 RA FEW013 BKN034 13/11 Q1012=
201106101220 METAR ESMX 101220Z 31007KT 280V340 9999 -RA FEW012 SCT026 OVC035 13/11 Q1012=
201106101150 METAR ESMX 101150Z 30005KT 270V340 9999 SCT018 OVC030 13/11 Q1012=
201106101120 METAR ESMX 101120Z 31006KT 280V350 7000 DZ FEW007 SCT014 BKN023 12/11 Q1012=
201106101050 METAR ESMX 101050Z 29008KT 260V330 6000 RA FEW006 SCT008 BKN010 12/11 Q1012=
201106101020 METAR ESMX 101020Z 28008KT 240V310 8000 -RA SCT013 BKN023 12/11 Q1011=
201106100920 METAR ESMX 100920Z 29007KT 9999 -RA SCT006 BKN012 12/11 Q1012=
201106100850 METAR ESMX 100850Z 29007KT 9000 -RA FEW006 SCT009 BKN013 12/11 Q1011=
201106100820 METAR ESMX 100820Z 29006KT 240V320 9000 -RA FEW006 SCT011 BKN026 12/11 Q1011=
201106100750 METAR ESMX 100750Z 28006KT 240V320 8000 -RA FEW008 BKN024 12/10 Q1011=
201106100720 METAR ESMX 100720Z 30007KT 260V340 9999 -RA FEW017 OVC025 11/10 Q1011=
201106100650 METAR ESMX 100650Z 29006KT 6000 RA SCT008 BKN025 11/10 Q1011=
201106100620 METAR ESMX 100620Z 30006KT 9999 -RA SCT008 OVC026 11/10 Q1011=
201106100550 METAR ESMX 100550Z 30006KT 9999 -RA SCT006 OVC026 11/10 Q1010 REDZ=
201106100520 METAR ESMX 100520Z 30005KT 260V330 9999 DZ SCT007 OVC026 11/10 Q1010=
201106100450 METAR ESMX 100450Z 30006KT 8000 RA BKN007 BKN028 11/10 Q1010=
201106100420 METAR ESMX 100420Z 30005KT 270V340 9999 -RA BKN006 OVC025 10/09 Q1010=
201106100350 METAR ESMX 100350Z 30007KT 260V350 9999 FEW007 OVC025 10/09 Q1010 REDZ=
201106100320 METAR ESMX 100320Z AUTO 31008KT 280V350 9999NDV -DZ OVC025/// 10/09 Q1010=
201106100250 METAR ESMX 100250Z AUTO 31006KT 260V340 9999NDV -RA FEW011/// OVC026/// 10/09 Q1010 REDZ=
201106100220 METAR ESMX 100220Z AUTO 31008KT 280V360 9999NDV FEW019/// OVC022/// 11/09 Q1010=
201106100150 METAR ESMX 100150Z AUTO 30008KT 9999NDV FEW015/// OVC018/// 11/09 Q1010=
201106100120 METAR ESMX 100120Z AUTO 30006KT 260V330 9999NDV -DZ FEW010/// OVC014/// 11/09 Q1010=
201106100050 METAR ESMX 100050Z AUTO 30008KT 260V340 9000NDV -DZ FEW009/// BKN011/// OVC027/// 11/09 Q1010=
201106100020 METAR ESMX 100020Z AUTO 30008KT 270V340 9999NDV FEW011/// SCT014/// BKN018/// 11/09 Q1010 REDZ=
201106092350 METAR ESMX 092350Z AUTO 29004KT 240V350 6000NDV -DZ FEW009/// OVC019/// 11/09 Q1010=
201106092320 METAR ESMX 092320Z 25005KT 210V300 9999 -RA FEW015 BKN023 11/09 Q1011=
201106092250 METAR ESMX 092250Z 31008KT 270V350 9000 RA FEW015 BKN026 11/09 Q1010=
201106092220 METAR ESMX 092220Z 31010KT 9999 OVC022 11/09 Q1010=
201106092150 METAR ESMX 092150Z 31012KT 280V350 9999 -RA SCT012 BKN023 11/09 Q1010=
201106092120 METAR ESMX 092120Z 30010KT 260V330 9999 -RA FEW006 SCT007 BKN009 11/10 Q1009=
201106092050 METAR ESMX 092050Z 30008KT 9999 -RA FEW007 BKN008 OVC011 11/10 Q1009=
201106092020 METAR ESMX 092020Z 30008KT 270V350 9999 -RA FEW008 BKN011 OVC020 12/10 Q1009 REDZ=
201106091950 METAR ESMX 091950Z 30008KT 280V340 9999 DZ OVC019 11/10 Q1009=
201106091920 METAR ESMX 091920Z 30007KT 250V340 9999 -DZ FEW016 OVC018 11/10 Q1009=
201106091850 METAR ESMX 091850Z 30010KT 260V330 9000 -RA BKN017 12/10 Q1009=
201106091820 METAR ESMX 091820Z 29014KT 9000 RA OVC006 12/10 Q1008=
201106091750 METAR ESMX 091750Z 27010KT 230V300 9999 BKN007 14/12 Q1008=
201106091720 METAR ESMX 091720Z 29011KT 240V320 9999 OVC005 14/12 Q1008=
201106091650 METAR ESMX 091650Z 27011KT 9999 FEW007 OVC008 16/14 Q1008=
201106091620 METAR ESMX 091620Z 28011KT 250V310 9999 FEW007 OVC008 17/14 Q1007=
201106091550 METAR ESMX 091550Z 26010KT 230V290 9999 OVC007 17/15 Q1007=
201106091520 METAR ESMX 091520Z 27011KT 9999 BKN008 18/16 Q1006=
201106091450 METAR ESMX 091450Z 25011KT 200V280 9999 FEW007 SCT009 BKN013 19/16 Q1006=
201106091420 METAR ESMX 091420Z 26009KT 230V290 9999 FEW016 BKN023 20/17 Q1005=
201106091350 METAR ESMX 091350Z 22005KT 180V290 9999 FEW020 SCT035 22/17 Q1005=
201106091320 METAR ESMX 091320Z 22008KT 9999 SCT023 BKN045 23/16 Q1005=
201106091250 METAR ESMX 091250Z 22005KT 170V270 9999 SCT020 BKN070 23/16 Q1005=
201106091150 METAR ESMX 091150Z 21007KT 9999 FEW016 BKN022 22/16 Q1005=
201106091120 METAR ESMX 091120Z 18006KT 130V230 9999 SCT012 BKN018 22/17 Q1005=
201106091050 METAR ESMX 091050Z 15005KT 110V180 9999 SCT011 BKN015 20/17 Q1004=
201106091020 METAR ESMX 091020Z 15005KT 080V210 9999 FEW009 SCT011 OVC014 20/17 Q1004=
201106090950 METAR ESMX 090950Z 16004KT 110V200 8000 BR OVC009 19/17 Q1004=
201106090920 METAR ESMX 090920Z 16005KT 120V200 9000 BR OVC009 19/17 Q1004=
201106090850 METAR ESMX 090850Z 16006KT 140V200 9999 BKN007 OVC010 20/17 Q1004=
201106090820 METAR ESMX 090820Z 15004KT 080V200 9000 BR BKN007 19/17 Q1004=
201106090750 METAR ESMX 090750Z 14003KT 080V180 8000 BR OVC006 19/16 Q1003=
201106090720 METAR ESMX 090720Z 12003KT 080V160 7000 BR OVC005 18/16 Q1003=
201106090620 METAR ESMX 090620Z VRB02KT 7000 BR BKN006 18/16 Q1003 REDZ=
201106090550 METAR ESMX 090550Z 13003KT 070V180 7000 BR BKN005 17/15 Q1003=
201106090520 METAR ESMX 090520Z 11003KT 050V140 7000 BR BKN005 17/15 Q1003=
201106090450 METAR ESMX 090450Z VRB02KT 8000 BR BKN005 16/15 Q1003=
201106090350 METAR ESMX 090350Z 09004KT 040V140 9999 BR FEW020 SCT050 16/15 Q1003=
201106090320 METAR ESMX 090320Z AUTO 09003KT 050V120 9999NDV ////// 16/15 Q1002=
201106090250 METAR ESMX 090250Z AUTO 04004KT 010V100 9999NDV ////// 16/15 Q1002=
201106090220 METAR ESMX 090220Z AUTO 05007KT 020V080 9999NDV ////// 17/15 Q1002=
201106090150 METAR ESMX 090150Z AUTO 05007KT 020V080 9000NDV ////// 17/16 Q1002=
201106090120 METAR ESMX 090120Z AUTO 02008KT 7000NDV -RA ////// 16/16 Q1002=
201106090050 METAR ESMX 090050Z AUTO 09004KT 040V120 8000NDV +RA ////// 17/16 Q1004=
201106090020 METAR ESMX 090020Z AUTO 08003KT 050V120 9999NDV RA NCD 17/15 Q1004=
201106082350 METAR ESMX 082350Z AUTO 11003KT 070V160 9999NDV -RA FEW022/// SCT030/// BKN100/// 19/14 Q1004=
201106082320 METAR ESMX 082320Z 14005KT 090V210 9999 FEW025 SCT032 19/14 Q1005=
201106082250 METAR ESMX 082250Z 10003KT 030V190 CAVOK 19/14 Q1004=
201106082220 METAR ESMX 082220Z 09006KT 050V170 CAVOK 19/14 Q1004=
201106082150 METAR ESMX 082150Z 08005KT 040V130 CAVOK 19/14 Q1004=
201106082120 METAR ESMX 082120Z 08005KT 020V140 CAVOK 19/14 Q1004=
201106082050 METAR ESMX 082050Z 07005KT 040V120 CAVOK 20/13 Q1004=
201106082020 METAR ESMX 082020Z 09004KT 040V140 CAVOK 20/13 Q1004=
201106081950 METAR ESMX 081950Z 08004KT 050V140 CAVOK 21/13 Q1004=
201106081920 METAR ESMX 081920Z 11005KT 070V160 CAVOK 22/13 Q1004=
201106081850 METAR ESMX 081850Z 11006KT 060V170 CAVOK 23/13 Q1004=
201106081750 METAR ESMX 081750Z 12006KT 060V170 CAVOK 24/13 Q1004=
201106081720 METAR ESMX 081720Z 12005KT 080V170 CAVOK 24/13 Q1004=
201106081650 METAR ESMX 081650Z 13005KT 070V170 CAVOK 25/13 Q1004=
201106081620 METAR ESMX 081620Z 13004KT 070V190 9999 FEW050 SCT200 25/12 Q1004=
201106081550 METAR ESMX 081550Z 07005KT 010V140 9999 FEW050 SCT200 26/12 Q1004=
201106081520 METAR ESMX 081520Z 17006KT 130V210 9999 FEW045 SCT200 26/13 Q1004=
201106081450 METAR ESMX 081450Z 15005KT 090V200 9999 FEW040 SCT200 25/13 Q1005=
201106081420 METAR ESMX 081420Z 16006KT 080V200 9999 FEW040TCU SCT200 26/14 Q1005=
201106081350 METAR ESMX 081350Z 15003KT 080V210 9999 FEW035 SCT060 24/14 Q1005=
201106081320 METAR ESMX 081320Z 19005KT 140V220 9999 SCT035 24/15 Q1006=
201106081250 METAR ESMX 081250Z 20005KT 150V280 9999 FEW035 SCT200 24/14 Q1006=
201106081220 METAR ESMX 081220Z 18003KT 120V270 CAVOK 23/14 Q1006=
201106081150 METAR ESMX 081150Z 19006KT 160V230 9999 SCT028 SCT200 23/15 Q1006=
201106081120 METAR ESMX 081120Z 17005KT 100V270 9999 SCT030 23/14 Q1006=
201106081050 METAR ESMX 081050Z 17005KT 130V230 9999 SCT025 22/15 Q1006=
201106081020 METAR ESMX 081020Z 17006KT 120V210 9999 BKN021 21/15 Q1007=
201106080950 METAR ESMX 080950Z VRB03KT 9999 BKN018 22/15 Q1006=
201106080920 METAR ESMX 080920Z 05004KT 350V090 9999 BKN018 20/14 Q1006=
201106080820 METAR ESMX 080820Z 09004KT 030V150 9999 FEW012 BKN017 19/15 Q1006=
201106080750 METAR ESMX 080750Z 10005KT 030V140 9999 BKN013 19/15 Q1006=
201106080720 METAR ESMX 080720Z VRB02KT 9999 FEW007 BKN017 19/15 Q1006=
201106080650 METAR ESMX 080650Z VRB02KT 8000 BR FEW005 BKN013 17/15 Q1007=
201106080550 METAR ESMX 080550Z VRB02KT 3000 BR FEW002 OVC003 16/15 Q1007=
201106080520 METAR ESMX 080520Z 15004KT 120V200 2300 BR OVC001 16/15 Q1007=
201106080450 METAR ESMX 080450Z 15004KT 110V190 1400 R01/1900D R19/P2000N BR OVC001 15/15 Q1007=
201106080420 METAR ESMX 080420Z 15003KT 060V190 0800 R01/1500N R19/1000V1400D FG VV002 15/15 Q1006=
201106080350 METAR ESMX 080350Z 18003KT 140V200 1300 BR VV002 16/15 Q1006=
201106080320 METAR ESMX 080320Z AUTO VRB02KT 1400NDV R01/P2000N R19/P2000N OVC001/// 16/15 Q1006=
201106080250 METAR ESMX 080250Z AUTO VRB02KT 1700NDV OVC001/// 15/15 Q1006=
201106080220 METAR ESMX 080220Z AUTO VRB02KT 1900NDV BR OVC001/// 15/14 Q1006=
201106080150 METAR ESMX 080150Z AUTO 18007KT 140V210 4100NDV BR BKN002/// OVC005/// 16/15 Q1006=
201106080120 METAR ESMX 080120Z AUTO 18005KT 8000NDV BR SCT020/// 16/15 Q1006=
201106080050 METAR ESMX 080050Z AUTO 13003KT 100V170 8000NDV BR FEW020/// 15/14 Q1006=
201106080020 METAR ESMX 080020Z AUTO 13003KT 100V170 9000NDV BR NCD 16/14 Q1006=
201106072350 METAR ESMX 072350Z 18005KT CAVOK 17/15 Q1006=
201106072320 METAR ESMX 072320Z 14004KT 100V170 CAVOK 17/15 Q1006=
201106072250 METAR ESMX 072250Z 15004KT 120V200 CAVOK 17/15 Q1006=
201106072220 METAR ESMX 072220Z 16004KT 120V190 CAVOK 18/15 Q1006=
201106072150 METAR ESMX 072150Z 15005KT 110V190 CAVOK 18/15 Q1006=
201106072120 METAR ESMX 072120Z 15006KT 120V190 CAVOK 19/15 Q1006=
201106072050 METAR ESMX 072050Z 16006KT 9999 FEW025 19/15 Q1006=
201106072020 METAR ESMX 072020Z 18005KT 9999 FEW024 19/15 Q1005=
201106071950 METAR ESMX 071950Z 17005KT CAVOK 20/15 Q1005=
201106071920 METAR ESMX 071920Z 15005KT 120V190 CAVOK 21/15 Q1005=
201106071850 METAR ESMX 071850Z 16005KT CAVOK 22/14 Q1005=
201106071820 METAR ESMX 071820Z 17006KT 140V200 9999 FEW045CB 22/14 Q1005=
201106071750 METAR ESMX 071750Z 18008KT 140V210 9999 FEW045CB 23/14 Q1005=
201106071720 METAR ESMX 071720Z 19009KT 150V210 9999 FEW045TCU 24/13 Q1004=
201106071650 METAR ESMX 071650Z 18008KT 140V210 CAVOK 25/13 Q1004=
201106071620 METAR ESMX 071620Z 18009KT 150V220 CAVOK 25/14 Q1004=
201106071550 METAR ESMX 071550Z 18013KT 9999 FEW045TCU 26/14 Q1004=
201106071520 METAR ESMX 071520Z 18010KT 140V210 9999 FEW045TCU 26/14 Q1004=
201106071450 METAR ESMX 071450Z 17012KT 140V210 9999 FEW045CB 26/14 Q1004=
201106071350 METAR ESMX 071350Z 17013KT 120V200 9999 FEW045TCU 27/12 Q1003=
201106071320 METAR ESMX 071320Z 15009KT 100V200 9999 FEW045 27/14 Q1003=
201106071250 METAR ESMX 071250Z 16009KT 120V200 9999 FEW043 27/13 Q1003=
201106071150 METAR ESMX 071150Z 16006KT 080V210 9999 FEW097 27/14 Q1003=
201106071120 METAR ESMX 071120Z 19007KT 140V230 9999 FEW044 27/15 Q1004=
201106071050 METAR ESMX 071050Z 16006KT 120V220 9999 FEW035 SCT090 26/15 Q1004=
201106071020 METAR ESMX 071020Z VRB05KT 9999 FEW035 SCT100 25/15 Q1004=
201106070950 METAR ESMX 070950Z 16005KT 110V210 CAVOK 25/14 Q1004=
201106070920 METAR ESMX 070920Z 21008KT CAVOK 25/15 Q1004=
201106070850 METAR ESMX 070850Z 16006KT 110V200 CAVOK 24/15 Q1004=
201106070820 METAR ESMX 070820Z 16006KT 110V210 CAVOK 24/15 Q1004=
201106070750 METAR ESMX 070750Z 17006KT 080V210 CAVOK 24/15 Q1004=
201106070720 METAR ESMX 070720Z 17008KT 130V210 CAVOK 23/15 Q1004=
201106070650 METAR ESMX 070650Z 18006KT 130V210 CAVOK 22/15 Q1004=
201106070620 METAR ESMX 070620Z 17005KT 110V200 CAVOK 21/15 Q1004=
201106070550 METAR ESMX 070550Z 17006KT 140V210 CAVOK 20/14 Q1004=
201106070520 METAR ESMX 070520Z 13005KT 080V160 CAVOK 19/14 Q1003=
201106070450 METAR ESMX 070450Z 12004KT 060V170 CAVOK 18/14 Q1003=
201106070420 METAR ESMX 070420Z 13004KT 080V170 CAVOK 17/14 Q1003=
201106070350 METAR ESMX 070350Z 12003KT 070V160 CAVOK 17/14 Q1003=
201106070320 METAR ESMX 070320Z AUTO 08003KT 030V140 9999NDV FEW098/// SCT100/// 16/14 Q1003=
201106070250 METAR ESMX 070250Z AUTO 08003KT 050V120 9999NDV NCD 16/14 Q1003=
201106070220 METAR ESMX 070220Z AUTO 08003KT 040V120 9999NDV NCD 16/14 Q1003=
201106070150 METAR ESMX 070150Z AUTO 08004KT 050V110 9999NDV NCD 15/14 Q1003=
201106070120 METAR ESMX 070120Z AUTO 11003KT 6000NDV BR NCD 16/14 Q1003=
201106070050 METAR ESMX 070050Z AUTO VRB01KT 9999NDV NCD 17/14 Q1004=
201106070020 METAR ESMX 070020Z AUTO 17005KT 130V200 9999NDV NCD 18/15 Q1004=
201106062350 METAR ESMX 062350Z 19003KT 150V240 CAVOK 18/15 Q1004 RESHRA=
201106062320 METAR ESMX 062320Z 15005KT 110V170 7000 TSRA FEW007 SCT071 19/14 Q1004=
201106062250 METAR COR ESMX 062250Z 13004KT 070V200 9999 VCTS NSC 20/15 Q1004=
201106062220 METAR ESMX 062220Z 15006KT 110V200 9999 VCTS NSC 21/14 Q1004 RERA=
201106062150 METAR ESMX 062150Z 12004KT 050V170 CAVOK 21/13 Q1004=
201106062120 METAR ESMX 062120Z 12003KT 080V170 CAVOK 21/13 Q1004=
201106062050 METAR ESMX 062050Z 11003KT 040V160 CAVOK 21/14 Q1004=
201106062020 METAR ESMX 062020Z 12003KT 070V160 CAVOK 22/14 Q1004=
201106061950 METAR ESMX 061950Z 12003KT 080V150 CAVOK 23/14 Q1004=
201106061920 METAR ESMX 061920Z 13003KT 080V170 CAVOK 24/14 Q1004=
201106061850 METAR ESMX 061850Z 11004KT 030V160 CAVOK 25/14 Q1004=
201106061820 METAR ESMX 061820Z 14006KT 080V170 CAVOK 25/13 Q1005=
201106061750 METAR ESMX 061750Z 13006KT 070V180 CAVOK 26/13 Q1005=
201106061720 METAR ESMX 061720Z 14009KT 090V190 CAVOK 27/12 Q1005=
201106061650 METAR ESMX 061650Z 16008KT 100V210 CAVOK 27/12 Q1005=
201106061620 METAR ESMX 061620Z 16010KT 110V200 CAVOK 27/11 Q1005=
201106061550 METAR ESMX 061550Z 17010KT 120V210 CAVOK 28/11 Q1005=
201106061520 METAR ESMX 061520Z 17012KT 140V220 CAVOK 28/11 Q1005=
201106061450 METAR ESMX 061450Z 16011KT 100V200 CAVOK 28/12 Q1005=
201106061420 METAR ESMX 061420Z 15010KT 110V210 CAVOK 28/13 Q1006=
201106061350 METAR ESMX 061350Z 16013KT 100V210 CAVOK 28/12 Q1006=
201106061320 METAR ESMX 061320Z 16011KT 110V210 CAVOK 27/13 Q1006=
201106061250 METAR ESMX 061250Z 16010KT 110V190 CAVOK 28/12 Q1006=
201106061220 METAR ESMX 061220Z 15014KT 110V170 CAVOK 28/12 Q1006=
201106061120 METAR ESMX 061120Z 15010KT 100V190 CAVOK 28/13 Q1007=
201106061050 METAR ESMX 061050Z 13010KT 080V160 CAVOK 27/14 Q1007=
201106061020 METAR ESMX 061020Z 15010KT 100V200 CAVOK 27/14 Q1007=
201106060950 METAR ESMX 060950Z 13008KT 070V210 CAVOK 26/14 Q1007=
201106060920 METAR ESMX 060920Z 15008KT 090V200 CAVOK 26/14 Q1008=
201106060850 METAR ESMX 060850Z 13008KT 060V190 CAVOK 26/14 Q1008=
201106060820 METAR ESMX 060820Z 13006KT 070V200 CAVOK 25/13 Q1008=
201106060750 METAR ESMX 060750Z 09006KT 050V150 CAVOK 24/13 Q1008=
201106060720 METAR COR ESMX 060720Z 09005KT 050V140 CAVOK 22/13 Q1008=
201106060650 METAR ESMX 060650Z AUTO 09006KT 040V160 9999NDV NCD 21/13 Q1008=
201106060620 METAR ESMX 060620Z AUTO 06005KT 010V110 9999NDV NCD 19/12 Q1009=
201106060550 METAR ESMX 060550Z AUTO 07006KT 030V120 9999NDV NCD 18/12 Q1009=
201106060520 METAR ESMX 060520Z AUTO 07006KT 040V140 9999NDV FEW110/// 17/12 Q1009=
201106060450 METAR ESMX 060450Z AUTO 06005KT 020V100 9999NDV FEW100/// 16/11 Q1010=
201106060420 METAR ESMX 060420Z AUTO 05004KT 020V110 9999NDV NCD 15/11 Q1010=
201106060350 METAR ESMX 060350Z AUTO 04003KT 360V070 9999NDV NCD 14/11 Q1010=
201106060320 METAR ESMX 060320Z AUTO 04003KT 9999NDV FEW063/// 14/10 Q1010=
201106060250 METAR ESMX 060250Z AUTO 07004KT 030V100 9999NDV BKN074/// 14/10 Q1011=
201106060220 METAR ESMX 060220Z AUTO 04005KT 010V080 9999NDV NCD 14/10 Q1011=
201106060150 METAR ESMX 060150Z AUTO 06005KT 020V090 9999NDV FEW082/// 13/10 Q1011=
201106060120 METAR ESMX 060120Z AUTO 08005KT 040V120 9999NDV FEW067/// SCT081/// 14/10 Q1011=
201106060050 METAR ESMX 060050Z AUTO 07005KT 360V110 9999NDV FEW066/// 14/10 Q1012=
201106060020 METAR ESMX 060020Z AUTO 03005KT 9999NDV FEW077/// 13/10 Q1012=
201106052350 METAR ESMX 052350Z AUTO 05005KT 9999NDV FEW070/// 13/10 Q1013=
201106052320 METAR ESMX 052320Z AUTO 06006KT 030V100 9999NDV NCD 14/10 Q1013=
201106052250 METAR ESMX 052250Z AUTO 07005KT 030V120 9999NDV NCD 14/10 Q1013=
201106052220 METAR ESMX 052220Z AUTO 08005KT 030V110 9999NDV NCD 14/10 Q1014=
201106052150 METAR ESMX 052150Z AUTO 05004KT 010V100 9999NDV NCD 15/09 Q1014=
201106052120 METAR ESMX 052120Z AUTO 08005KT 030V120 9999NDV NCD 15/09 Q1014=
201106052050 METAR ESMX 052050Z AUTO 07004KT 030V120 9999NDV NCD 16/09 Q1014=
201106052020 METAR ESMX 052020Z AUTO 08006KT 020V140 9999NDV NCD 17/10 Q1014=
201106051950 METAR ESMX 051950Z AUTO 07005KT 030V120 9999NDV NCD 18/10 Q1014=
201106051920 METAR ESMX 051920Z AUTO 09006KT 030V150 9999NDV NCD 19/10 Q1014=
201106051850 METAR ESMX 051850Z 10005KT 050V160 CAVOK 21/11 Q1014=
201106051820 METAR ESMX 051820Z 10007KT 050V160 CAVOK 22/10 Q1014=
201106051750 METAR ESMX 051750Z 11006KT 050V170 CAVOK 22/11 Q1014=
201106051720 METAR ESMX 051720Z 13006KT 070V170 CAVOK 23/11 Q1014=
201106051650 METAR ESMX 051650Z 11006KT 050V170 CAVOK 23/10 Q1014=
201106051620 METAR ESMX 051620Z 15006KT 100V200 CAVOK 24/10 Q1014=
201106051550 METAR ESMX 051550Z 13007KT 070V180 CAVOK 24/10 Q1014=
201106051520 METAR ESMX 051520Z 11006KT 050V160 CAVOK 25/10 Q1014=
201106051450 METAR ESMX 051450Z 13006KT 070V170 CAVOK 24/10 Q1015=
201106051420 METAR ESMX 051420Z VRB05KT CAVOK 25/10 Q1015=
201106051350 METAR ESMX 051350Z 15006KT 070V240 CAVOK 25/10 Q1015=
201106051320 METAR ESMX 051320Z 16006KT 120V280 CAVOK 25/10 Q1015=
201106051250 METAR ESMX 051250Z 15005KT 060V210 CAVOK 25/09 Q1015=
201106051220 METAR COR ESMX 051220Z 15006KT 110V200 CAVOK 25/09 Q1016=
201106051150 METAR ESMX 051150Z AUTO 15007KT 110V260 9999NDV FEW054/// 24/10 Q1016=
201106051120 METAR ESMX 051120Z AUTO 18009KT 9999NDV NCD 24/09 Q1016=
201106051050 METAR ESMX 051050Z AUTO 15007KT 100V190 9999NDV NCD 24/08 Q1016=
201106051020 METAR ESMX 051020Z AUTO VRB05KT 9999NDV NCD 24/07 Q1016=
201106050950 METAR ESMX 050950Z AUTO 11007KT 070V160 9999NDV NCD 23/08 Q1016=
201106050920 METAR ESMX 050920Z AUTO 12005KT 070V190 9999NDV NCD 23/09 Q1016=
201106050850 METAR ESMX 050850Z AUTO 10005KT 020V170 9999NDV NCD 22/09 Q1017=
201106050820 METAR ESMX 050820Z AUTO 13005KT 080V190 9999NDV NCD 22/09 Q1017=
201106050750 METAR ESMX 050750Z AUTO 16004KT 080V200 9999NDV NCD 21/09 Q1017=
201106050720 METAR ESMX 050720Z AUTO VRB03KT 9999NDV NCD 20/10 Q1017=
201106050650 METAR ESMX 050650Z AUTO 04004KT 340V080 9999NDV NCD 18/10 Q1017=
201106050620 METAR ESMX 050620Z AUTO 04003KT 360V110 9999NDV NCD 17/11 Q1017=
201106050550 METAR ESMX 050550Z AUTO 08003KT 020V150 9999NDV NCD 17/10 Q1017=
201106050520 METAR ESMX 050520Z AUTO 12003KT 080V160 9999NDV NCD 15/10 Q1017=
201106050450 METAR ESMX 050450Z AUTO 14003KT 090V200 9999NDV NCD 15/10 Q1017=
201106050420 METAR ESMX 050420Z AUTO VRB02KT 9999NDV NCD 14/10 Q1017=
201106050350 METAR ESMX 050350Z AUTO VRB01KT 9999NDV NCD 11/09 Q1017=
201106050320 METAR ESMX 050320Z AUTO 00000KT 9999NDV NCD 10/08 Q1017=
201106050250 METAR ESMX 050250Z AUTO 00000KT 9999NDV NCD 09/07 Q1017=
201106050220 METAR ESMX 050220Z AUTO 17001KT 9999NDV NCD 11/08 Q1017=
201106050150 METAR ESMX 050150Z AUTO 00000KT 9999NDV NCD 11/08 Q1017=
201106050120 METAR ESMX 050120Z AUTO 18003KT 9999NDV NCD 12/08 Q1018=
201106050050 METAR ESMX 050050Z AUTO 21004KT 9999NDV NCD 12/08 Q1018=
201106050020 METAR ESMX 050020Z AUTO 17005KT 9999NDV NCD 13/08 Q1018=
201106042350 METAR ESMX 042350Z AUTO 18004KT 9999NDV NCD 13/08 Q1018=
201106042320 METAR ESMX 042320Z AUTO 18004KT 9999NDV NCD 14/08 Q1018=
201106042250 METAR ESMX 042250Z AUTO 19004KT 9999NDV NCD 14/08 Q1018=
201106042220 METAR ESMX 042220Z AUTO 17003KT 9999NDV NCD 15/08 Q1018=
201106042150 METAR ESMX 042150Z AUTO 17004KT 9999NDV NCD 16/08 Q1018=
201106042120 METAR ESMX 042120Z AUTO 18004KT 9999NDV NCD 17/09 Q1018=
201106042050 METAR ESMX 042050Z AUTO 18006KT 9999NDV NCD 17/10 Q1019=
201106042020 METAR ESMX 042020Z AUTO 18006KT 9999NDV NCD 18/10 Q1019=
201106041950 METAR ESMX 041950Z AUTO 18006KT 9999NDV NCD 19/10 Q1019=
201106041920 METAR ESMX 041920Z AUTO 18008KT 9999NDV SCT061/// 20/10 Q1018=
201106041850 METAR ESMX 041850Z AUTO 18008KT 9999NDV FEW060/// 22/10 Q1018=
201106041820 METAR ESMX 041820Z AUTO 19008KT 9999NDV NCD 22/10 Q1018=
201106041750 METAR ESMX 041750Z AUTO 19010KT 9999NDV NCD 23/10 Q1018=
201106041720 METAR ESMX 041720Z AUTO 21009KT 9999NDV NCD 24/10 Q1019=
201106041650 METAR ESMX 041650Z AUTO 19006KT 150V230 9999NDV NCD 25/10 Q1019=
201106041620 METAR ESMX 041620Z AUTO 22006KT 200V260 9999NDV NCD 26/10 Q1019=
201106041550 METAR ESMX 041550Z AUTO 23005KT 170V280 9999NDV NCD 26/09 Q1019=
201106041520 METAR ESMX 041520Z AUTO 24005KT 190V290 9999NDV FEW061/// 26/10 Q1020=
201106041450 METAR ESMX 041450Z AUTO 28007KT 9999NDV FEW061/// 27/10 Q1020=
201106041420 METAR ESMX 041420Z AUTO 23006KT 9999NDV FEW061/// 26/09 Q1020=
201106041350 METAR ESMX 041350Z AUTO 22005KT 170V280 9999NDV NCD 26/09 Q1021=
201106041320 METAR ESMX 041320Z AUTO 23006KT 200V270 9999NDV FEW057/// 26/09 Q1021=
201106041250 METAR ESMX 041250Z AUTO 21006KT 9999NDV FEW057/// 25/09 Q1021=
201106041220 METAR ESMX 041220Z AUTO 18004KT 130V220 9999NDV FEW055/// 26/10 Q1022=
201106041150 METAR ESMX 041150Z AUTO 25004KT 190V310 9999NDV NCD 24/10 Q1022=
201106041120 METAR ESMX 041120Z AUTO 27004KT 220V320 9999NDV NCD 24/10 Q1023=
201106041050 METAR ESMX 041050Z 28005KT 220V350 CAVOK 25/10 Q1023=
201106041020 METAR ESMX 041020Z VRB04KT CAVOK 24/10 Q1024=
201106040950 METAR ESMX 040950Z 18006KT 090V210 CAVOK 23/11 Q1024=
201106040920 METAR ESMX 040920Z 21004KT 140V290 CAVOK 22/10 Q1024=
201106040850 METAR ESMX 040850Z 21005KT 140V280 CAVOK 22/09 Q1025=
201106040820 METAR ESMX 040820Z VRB04KT CAVOK 22/09 Q1025=
201106040750 METAR ESMX 040750Z 17006KT 120V210 CAVOK 21/09 Q1025=
201106040720 METAR ESMX 040720Z AUTO 18005KT 140V220 9999NDV NCD 20/09 Q1026=
201106040650 METAR ESMX 040650Z AUTO 18006KT 140V220 9999NDV NCD 19/09 Q1026=
201106040620 METAR ESMX 040620Z AUTO 17007KT 9999NDV NCD 19/09 Q1026=
201106040550 METAR ESMX 040550Z AUTO 16005KT 130V210 9999NDV NCD 18/09 Q1026=
201106040520 METAR ESMX 040520Z AUTO 15004KT 110V200 9999NDV NCD 16/10 Q1026=
201106040450 METAR ESMX 040450Z AUTO 15004KT 110V180 9999NDV NCD 15/10 Q1027=
201106040420 METAR ESMX 040420Z AUTO 16004KT 9999NDV NCD 13/10 Q1027=
201106040350 METAR ESMX 040350Z AUTO VRB02KT 9999NDV NCD 10/09 Q1027=
201106040320 METAR ESMX 040320Z AUTO 00000KT 9999NDV NCD 09/08 Q1027=
201106040250 METAR ESMX 040250Z AUTO 00000KT 9999NDV NCD 08/07 Q1027=
201106040220 METAR ESMX 040220Z AUTO 00000KT 9999NDV NCD 08/07 Q1027=
201106040150 METAR ESMX 040150Z AUTO 17001KT 9999NDV NCD 09/08 Q1027=
201106040120 METAR ESMX 040120Z AUTO 00000KT 9999NDV NCD 09/08 Q1028=
201106040050 METAR ESMX 040050Z AUTO 00000KT 9999NDV NCD 09/08 Q1028=
201106040020 METAR ESMX 040020Z AUTO 00000KT 9999NDV NCD 10/08 Q1028=
201106032350 METAR ESMX 032350Z AUTO 15003KT 9999NDV NCD 11/09 Q1028=
201106032320 METAR ESMX 032320Z AUTO 15003KT 9999NDV NCD 12/09 Q1028=
201106032250 METAR ESMX 032250Z AUTO 12003KT 9999NDV NCD 14/09 Q1029=
201106032220 METAR ESMX 032220Z AUTO 13003KT 100V160 9999NDV NCD 15/09 Q1029=
201106032150 METAR ESMX 032150Z AUTO 13003KT 100V160 9999NDV NCD 16/09 Q1029=
201106032120 METAR ESMX 032120Z AUTO 16004KT 9999NDV NCD 18/09 Q1029=
201106032050 METAR ESMX 032050Z AUTO 16005KT 9999NDV NCD 18/09 Q1029=
201106032020 METAR ESMX 032020Z AUTO 16006KT 130V200 9999NDV NCD 19/09 Q1028=
201106031950 METAR ESMX 031950Z AUTO 16007KT 110V190 9999NDV NCD 20/09 Q1028=
201106031920 METAR ESMX 031920Z AUTO 15006KT 100V190 9999NDV NCD 21/10 Q1028=
201106031850 METAR ESMX 031850Z AUTO 10004KT 020V170 9999NDV NCD 23/10 Q1028=
201106031820 METAR ESMX 031820Z AUTO 36005KT 9999NDV NCD 24/10 Q1028=
201106031750 METAR ESMX 031750Z AUTO 01005KT 340V040 9999NDV NCD 25/08 Q1028=
201106031720 METAR ESMX 031720Z AUTO 01005KT 9999NDV NCD 25/07 Q1028=
201106031650 METAR ESMX 031650Z AUTO 35004KT 310V020 9999NDV NCD 26/07 Q1028=
201106031620 METAR ESMX 031620Z 33003KT 230V030 CAVOK 26/07 Q1029=
201106031550 METAR ESMX 031550Z 31003KT 250V360 CAVOK 26/07 Q1029=
201106031520 METAR ESMX 031520Z VRB02KT CAVOK 26/06 Q1029=
201106031450 METAR ESMX 031450Z VRB04KT CAVOK 26/07 Q1029=
201106031420 METAR ESMX 031420Z VRB04KT CAVOK 26/06 Q1029=
201106031350 METAR ESMX 031350Z 34005KT 290V050 CAVOK 26/07 Q1030=
201106031320 METAR ESMX 031320Z 04005KT 350V100 CAVOK 26/06 Q1030=
201106031250 METAR ESMX 031250Z 35005KT CAVOK 25/07 Q1030=
201106031220 METAR ESMX 031220Z 36004KT CAVOK 25/07 Q1030=
201106031150 METAR ESMX 031150Z 03005KT 360V080 CAVOK 24/07 Q1030=
201106031120 METAR ESMX 031120Z 02007KT CAVOK 24/08 Q1031=
201106031050 METAR ESMX 031050Z VRB05KT CAVOK 23/09 Q1031=
201106031020 METAR ESMX 031020Z 01005KT CAVOK 22/08 Q1031=
201106030950 METAR ESMX 030950Z 01006KT 300V050 CAVOK 22/09 Q1031=
201106030920 METAR ESMX 030920Z VRB05KT CAVOK 21/09 Q1031=
201106030850 METAR ESMX 030850Z AUTO 34007KT 280V020 9999NDV NCD 21/08 Q1031=
201106030820 METAR ESMX 030820Z AUTO 34006KT 260V030 9999NDV NCD 20/09 Q1031=
201106030750 METAR ESMX 030750Z AUTO 32004KT 260V360 9999NDV NCD 18/09 Q1031=
201106030720 METAR ESMX 030720Z AUTO 30004KT 240V340 9999NDV NCD 18/10 Q1031=
201106030650 METAR ESMX 030650Z AUTO 35004KT 320V030 9999NDV NCD 17/10 Q1031=
201106030620 METAR ESMX 030620Z AUTO 30004KT 270V340 9999NDV NCD 16/11 Q1031=
201106030550 METAR ESMX 030550Z AUTO 31004KT 280V350 9999NDV NCD 15/10 Q1031=
201106030520 METAR ESMX 030520Z AUTO 29004KT 9999NDV NCD 14/10 Q1031=
201106030450 METAR ESMX 030450Z AUTO 28004KT 9999NDV NCD 12/10 Q1031=
201106030420 METAR ESMX 030420Z AUTO 27003KT 9999NDV NCD 11/10 Q1031=
201106030350 METAR ESMX 030350Z AUTO 25003KT 9999NDV NCD 10/09 Q1031=
201106030320 METAR ESMX 030320Z AUTO VRB02KT 9999NDV NCD 09/08 Q1031=
201106030250 METAR ESMX 030250Z AUTO 27002KT 9999NDV NCD 09/08 Q1030=
201106030220 METAR ESMX 030220Z AUTO VRB01KT 9000NDV NCD 09/08 Q1030=
201106030150 METAR ESMX 030150Z AUTO VRB01KT 9999NDV NCD 10/09 Q1030=
201106030120 METAR ESMX 030120Z AUTO 28003KT 230V310 9999NDV NCD 10/09 Q1030=
201106030050 METAR ESMX 030050Z AUTO VRB02KT 9999NDV NCD 11/09 Q1030=
201106030020 METAR ESMX 030020Z AUTO 26004KT 9999NDV NCD 09/08 Q1030=
201106022350 METAR ESMX 022350Z AUTO 26003KT 9999NDV NCD 11/09 Q1030=
201106022320 METAR ESMX 022320Z 22002KT CAVOK 11/09 Q1030=
201106022250 METAR ESMX 022250Z 33003KT 260V010 CAVOK 11/09 Q1030=
201106022220 METAR ESMX 022220Z 28004KT CAVOK 12/09 Q1030=
201106022150 METAR ESMX 022150Z 29003KT CAVOK 12/09 Q1030=
201106022120 METAR ESMX 022120Z 28005KT CAVOK 12/10 Q1030=
201106022050 METAR ESMX 022050Z 26004KT CAVOK 13/10 Q1030=
201106022020 METAR ESMX 022020Z 27004KT CAVOK 13/10 Q1029=
201106021950 METAR ESMX 021950Z 26004KT CAVOK 14/11 Q1029=
201106021920 METAR ESMX 021920Z 26005KT CAVOK 15/11 Q1029=
201106021850 METAR ESMX 021850Z 26006KT 230V290 9999 FEW027 SCT200 16/11 Q1029=
201106021820 METAR ESMX 021820Z 27006KT 9999 BKN024 16/11 Q1029=
201106021750 METAR ESMX 021750Z 27006KT 240V300 9999 BKN025 16/11 Q1029=
201106021720 METAR ESMX 021720Z 27009KT 230V320 9999 FEW024 BKN028 17/11 Q1029=
201106021650 METAR ESMX 021650Z 27010KT 230V300 9999 FEW022 BKN025 16/11 Q1029=
201106021620 METAR ESMX 021620Z 27008KT 200V310 9999 BKN022 17/11 Q1029=
201106021550 METAR ESMX 021550Z 28009KT 250V320 9999 OVC021 16/11 Q1029=
201106021520 METAR ESMX 021520Z 28009KT 230V310 9999 OVC021 16/11 Q1029=
201106021450 METAR ESMX 021450Z 26012KT 230V300 9999 BKN023 BKN029 17/11 Q1029=
201106021420 METAR ESMX 021420Z 26013KT 240V310 9999 BKN025 18/11 Q1029=
201106021350 METAR ESMX 021350Z 26010KT 230V290 9999 FEW025 BKN029 17/10 Q1029=
201106021320 METAR ESMX 021320Z 27011KT 230V290 9999 BKN026 18/11 Q1029=
201106021250 METAR ESMX 021250Z 27011KT 9999 BKN026 17/10 Q1029=
201106021220 METAR ESMX 021220Z 26009KT 230V290 9999 BKN028 17/10 Q1029=
201106021150 METAR ESMX 021150Z 25010KT 210V290 9999 BKN028 18/10 Q1029=
201106021120 METAR ESMX 021120Z 25010KT 200V300 9999 BKN029 17/10 Q1029=
201106021050 METAR ESMX 021050Z 28011KT 9999 BKN030 19/10 Q1029=
201106021020 METAR ESMX 021020Z 27010KT 230V310 9999 BKN030 19/10 Q1029=
201106020950 METAR ESMX 020950Z 26010KT 210V290 9999 FEW027 SCT033 19/10 Q1029=
201106020920 METAR ESMX 020920Z 27010KT 220V310 9999 SCT027 18/10 Q1029=
201106020850 METAR ESMX 020850Z 24009KT 210V270 9999 FEW027 17/10 Q1029=
201106020820 METAR ESMX 020820Z 26007KT CAVOK 16/09 Q1029=
201106020750 METAR ESMX 020750Z 26006KT 220V290 CAVOK 15/09 Q1029=
201106020720 METAR ESMX 020720Z 26007KT 210V300 CAVOK 15/08 Q1029=
201106020650 METAR ESMX 020650Z AUTO 26006KT 230V310 9999NDV NCD 14/08 Q1029=
201106020620 METAR ESMX 020620Z AUTO 27007KT 230V300 9999NDV NCD 13/07 Q1029=
201106020550 METAR ESMX 020550Z AUTO 27007KT 240V300 9999NDV NCD 13/07 Q1029=
201106020520 METAR ESMX 020520Z AUTO 27006KT 240V300 9999NDV NCD 12/06 Q1029=
201106020450 METAR ESMX 020450Z AUTO 26004KT 220V290 9999NDV NCD 11/06 Q1029=
201106020420 METAR ESMX 020420Z AUTO 18003KT 150V210 9999NDV NCD 09/06 Q1028=
201106020350 METAR ESMX 020350Z AUTO 17003KT 9999NDV NCD 08/05 Q1028=
201106020320 METAR ESMX 020320Z AUTO 23002KT 9999NDV NCD 07/04 Q1028=
201106020250 METAR ESMX 020250Z AUTO VRB02KT 9999NDV NCD 05/03 Q1028=
201106020220 METAR ESMX 020220Z AUTO 25002KT 9999NDV NCD 05/03 Q1028=
201106020150 METAR ESMX 020150Z AUTO 23003KT 9999NDV NCD 06/03 Q1028=
201106020120 METAR ESMX 020120Z AUTO 26003KT 9999NDV NCD 06/03 Q1028=
201106020050 METAR ESMX 020050Z AUTO 25002KT 9999NDV NCD 07/03 Q1028=
201106020020 METAR ESMX 020020Z AUTO 27003KT 9999NDV NCD 08/03 Q1028=
201106012350 METAR ESMX 012350Z AUTO VRB02KT 9999NDV NCD 08/03 Q1028=
201106012320 METAR ESMX 012320Z AUTO 29005KT 9999NDV NCD 09/03 Q1028=
201106012250 METAR ESMX 012250Z AUTO 29004KT 250V320 9999NDV NCD 09/02 Q1028=
201106012220 METAR ESMX 012220Z AUTO 30004KT 260V340 9999NDV NCD 09/02 Q1028=
201106012150 METAR ESMX 012150Z AUTO 28007KT 9999NDV NCD 10/02 Q1028=
201106012120 METAR ESMX 012120Z AUTO 27005KT 9999NDV NCD 10/02 Q1027=
201106012050 METAR ESMX 012050Z AUTO 28007KT 9999NDV NCD 11/01 Q1027=
201106012020 METAR ESMX 012020Z AUTO 27006KT 9999NDV NCD 12/01 Q1027=
201106011950 METAR ESMX 011950Z AUTO 27006KT 9999NDV NCD 13/00 Q1027=
201106011920 METAR ESMX 011920Z AUTO 28006KT 9999NDV NCD 14/M01 Q1026=
201106011850 METAR ESMX 011850Z AUTO 28008KT 250V310 9999NDV NCD 15/M01 Q1026=
201106011820 METAR ESMX 011820Z 27009KT CAVOK 16/M01 Q1025=
201106011750 METAR ESMX 011750Z 28010KT CAVOK 17/M00 Q1025=
201106011720 METAR ESMX 011720Z 28009KT 240V320 CAVOK 18/M00 Q1024=
201106011650 METAR ESMX 011650Z 28010KT 250V320 CAVOK 19/M01 Q1024=
201106011620 METAR ESMX 011620Z 29010KT 250V320 CAVOK 19/M00 Q1023=
201106011550 METAR ESMX 011550Z 31010KT 250V340 CAVOK 20/00 Q1023=
201106011520 METAR ESMX 011520Z 30008KT 260V350 CAVOK 20/02 Q1023=
201106011450 METAR ESMX 011450Z 28011KT 240V340 CAVOK 20/02 Q1023=
201106011420 METAR ESMX 011420Z 28010KT 240V320 CAVOK 20/02 Q1023=
201106011350 METAR ESMX 011350Z 30009KT 260V340 CAVOK 20/03 Q1023=
201106011320 METAR ESMX 011320Z 27008KT 240V310 CAVOK 19/04 Q1023=
201106011250 METAR ESMX 011250Z 27011KT 240V300 CAVOK 20/04 Q1022=
201106011220 METAR ESMX 011220Z 29009KT 250V330 CAVOK 19/03 Q1022=
