##########################################################
# Query made at 04/19/2024 21:20:08 UTC
# Time interval: from 01/01/2011 12:00  to 01/31/2011 12:59  UTC
##########################################################

##########################################################
# ESMX, Vaxjo (Sweden)
# WMO index: 02641. WIGOS ID: 0-20000-0-02648
# Latitude 56-51N. Longitude 014-50E. Altitude 199 m.
##########################################################

201101311250 METAR ESMX 311250Z 24008KT 210V280 4500 BR OVC003 M03/M04 Q1018=
201101311220 METAR ESMX 311220Z 23010KT 4500 BR OVC003 M04/M04 Q1018=
201101311150 METAR ESMX 311150Z 23009KT 4000 BR OVC003 M04/M04 Q1018=
201101311120 METAR ESMX 311120Z 23009KT 4000 BR OVC003 M04/M04 Q1018=
201101311050 METAR ESMX 311050Z 22009KT 190V260 5000 BR OVC003 M04/M04 Q1018=
201101311020 METAR ESMX 311020Z 25008KT 6000 BR OVC004 M04/M05 Q1018=
201101310950 METAR ESMX 310950Z 22009KT 8000 BR OVC003 M04/M05 Q1018=
201101310920 METAR ESMX 310920Z 25008KT 200V280 8000 BR OVC003 M04/M05 Q1019=
201101310850 METAR ESMX 310850Z 24007KT 5000 BR OVC002 M04/M05 Q1019=
201101310820 METAR ESMX 310820Z 24007KT 210V270 2500 BR OVC002 M05/M05 Q1019=
201101310750 METAR ESMX 310750Z 24005KT 200V280 0900 R01/1100V1800N R19/P2000D=
201101310720 METAR ESMX 310720Z 22005KT 190V250 0600 R01/1200N R19/1700N FZFG VV002 M06/M06 Q1019=
201101310650 METAR ESMX 310650Z 26005KT 0450 R01/1300N R19/1200VP2000N FZFG VV002 M06/M07 Q1019=
201101310620 METAR ESMX 310620Z 24007KT 210V280 0550 R01/P1500D R19/1800D FZFG VV002 M07/M07 Q1019=
201101310550 METAR ESMX 310550Z 23007KT 200V260 9999 FEW002 BKN004 M07/M08 Q1018=
201101310520 METAR ESMX 310520Z 23005KT CAVOK M07/M08 Q1019=
201101310450 METAR ESMX 310450Z 23006KT CAVOK M07/M08 Q1019=
201101310420 METAR ESMX 310420Z AUTO 23007KT 9999NDV NCD M06/M08 Q1019=
201101310350 METAR ESMX 310350Z AUTO 23006KT 9999NDV NCD M06/M08 Q1019=
201101310320 METAR ESMX 310320Z AUTO 22006KT 9999NDV NCD M06/M08 Q1019=
201101310250 METAR ESMX 310250Z AUTO 19006KT 9999NDV NCD M07/M09 Q1020=
201101310220 METAR ESMX 310220Z AUTO 22004KT 9999NDV NCD M07/M09 Q1020=
201101310150 METAR ESMX 310150Z AUTO 22006KT 9999NDV NCD M06/M09 Q1020=
201101310120 METAR ESMX 310120Z AUTO 22006KT 9999NDV NCD M06/M09 Q1020=
201101310050 METAR ESMX 310050Z AUTO 22006KT 9999NDV NCD M07/M09 Q1020=
201101310020 METAR ESMX 310020Z 21006KT CAVOK M07/M08 Q1020=
201101302350 METAR ESMX 302350Z 22006KT CAVOK M07/M08 Q1020=
201101302320 METAR ESMX 302320Z 22005KT CAVOK M07/M08 Q1021=
201101302250 METAR ESMX 302250Z 22005KT CAVOK M07/M08 Q1020=
201101302220 METAR ESMX 302220Z 22004KT CAVOK M06/M08 Q1021=
201101302150 METAR ESMX 302150Z 20003KT CAVOK M05/M07 Q1021=
201101302120 METAR ESMX 302120Z 22004KT CAVOK M04/M07 Q1021=
201101302050 METAR ESMX 302050Z 22005KT CAVOK M05/M07 Q1021=
201101302020 METAR ESMX 302020Z 19004KT CAVOK M05/M07 Q1021=
201101301950 METAR ESMX 301950Z 21003KT CAVOK M05/M07 Q1021=
201101301920 METAR ESMX 301920Z 23002KT CAVOK M04/M07 Q1021=
201101301850 METAR ESMX 301850Z 21003KT CAVOK M05/M08 Q1021=
201101301820 METAR ESMX 301820Z 22003KT CAVOK M03/M07 Q1021=
201101301750 METAR ESMX 301750Z 20002KT CAVOK M03/M08 Q1021=
201101301720 METAR ESMX 301720Z 24003KT CAVOK M03/M07 Q1021=
201101301650 METAR ESMX 301650Z 28004KT CAVOK M02/M07 Q1021=
201101301620 METAR ESMX 301620Z VRB02KT CAVOK M02/M08 Q1021=
201101301550 METAR ESMX 301550Z 24003KT CAVOK M02/M08 Q1021=
201101301520 METAR ESMX 301520Z 27003KT CAVOK 01/M08 Q1021=
201101301450 METAR ESMX 301450Z 27003KT CAVOK 02/M08 Q1020=
201101301420 METAR ESMX 301420Z 28004KT CAVOK 02/M08 Q1020=
201101301350 METAR ESMX 301350Z 28004KT CAVOK 02/M08 Q1020=
201101301320 METAR ESMX 301320Z 29003KT 260V350 CAVOK 02/M08 Q1020=
201101301250 METAR ESMX 301250Z AUTO 32004KT 9999NDV NCD 02/M08 Q1020=
201101301220 METAR ESMX 301220Z AUTO 30003KT 9999NDV NCD 01/M08 Q1020=
201101301150 METAR ESMX 301150Z AUTO 32004KT 9999NDV NCD 01/M08 Q1020=
201101301120 METAR ESMX 301120Z AUTO 32004KT 9999NDV NCD 00/M08 Q1020=
201101301050 METAR ESMX 301050Z AUTO 32005KT 9999NDV NCD M00/M08 Q1020=
201101301020 METAR ESMX 301020Z AUTO 32003KT 9999NDV NCD M01/M08 Q1020=
201101300950 METAR ESMX 300950Z AUTO 31004KT 9999NDV NCD M02/M08 Q1020=
201101300920 METAR ESMX 300920Z AUTO VRB02KT 9999NDV NCD M03/M09 Q1020=
201101300850 METAR ESMX 300850Z AUTO 28004KT 9999NDV NCD M05/M08 Q1020=
201101300820 METAR ESMX 300820Z AUTO 29003KT 9999NDV NCD M06/M09 Q1020=
201101300750 METAR ESMX 300750Z AUTO 29003KT 9999NDV NCD M07/M10 Q1020=
201101300720 METAR ESMX 300720Z AUTO 30003KT 9999NDV NCD M06/M08 Q1019=
201101300650 METAR ESMX 300650Z AUTO VRB01KT 9999NDV NCD M06/M08 Q1019=
201101300620 METAR ESMX 300620Z AUTO 30004KT 280V340 9999NDV NCD M05/M09 Q1019=
201101300550 METAR ESMX 300550Z AUTO 29003KT 270V340 9999NDV NCD M05/M09 Q1018=
201101300520 METAR ESMX 300520Z AUTO 30004KT 9999NDV NCD M04/M08 Q1018=
201101300450 METAR ESMX 300450Z AUTO 31005KT 9999NDV NCD M04/M08 Q1018=
201101300420 METAR ESMX 300420Z AUTO 32005KT 9999NDV NCD M03/M08 Q1018=
201101300350 METAR ESMX 300350Z AUTO 32005KT 280V350 9999NDV NCD M03/M08 Q1018=
201101300320 METAR ESMX 300320Z AUTO 32005KT 9999NDV NCD M03/M08 Q1017=
201101300250 METAR ESMX 300250Z AUTO 31005KT 280V340 9999NDV NCD M03/M08 Q1017=
201101300220 METAR ESMX 300220Z AUTO 32005KT 290V360 9999NDV NCD M03/M07 Q1017=
201101300150 METAR ESMX 300150Z AUTO 32005KT 270V350 9999NDV NCD M03/M07 Q1017=
201101300120 METAR ESMX 300120Z AUTO 31006KT 9999NDV NCD M02/M07 Q1017=
201101300050 METAR ESMX 300050Z AUTO 31006KT 290V350 9999NDV NCD M02/M07 Q1016=
201101300020 METAR ESMX 300020Z AUTO 32007KT 9999NDV NCD M02/M07 Q1016=
201101292350 METAR ESMX 292350Z AUTO 31007KT 9999NDV NCD M02/M06 Q1016=
201101292320 METAR ESMX 292320Z AUTO 31006KT 9999NDV NCD M02/M06 Q1015=
201101292250 METAR ESMX 292250Z AUTO 30006KT 9999NDV NCD M02/M04 Q1015=
201101292220 METAR ESMX 292220Z AUTO 30007KT 260V330 9999NDV NCD M01/M03 Q1014=
201101292150 METAR ESMX 292150Z AUTO 29006KT 9999NDV NCD M01/M03 Q1014=
201101292120 METAR ESMX 292120Z AUTO 29007KT 9999NDV NCD M00/M02 Q1014=
201101292050 METAR ESMX 292050Z AUTO 28007KT 9999NDV NCD 00/M01 Q1014=
201101292020 METAR ESMX 292020Z AUTO 28008KT 9999NDV NCD 00/M01 Q1013=
201101291950 METAR ESMX 291950Z AUTO 28008KT 9999NDV FEW014/// 01/M01 Q1013=
201101291920 METAR ESMX 291920Z AUTO 28008KT 250V310 9999NDV FEW009/// SCT012/// BKN015/// 01/M00 Q1013=
201101291850 METAR ESMX 291850Z AUTO 27009KT 240V300 9999NDV BKN010/// BKN017/// 02/M00 Q1013=
201101291820 METAR ESMX 291820Z AUTO 28009KT 9999NDV FEW008/// BKN010/// OVC014/// 02/M00 Q1013=
201101291750 METAR ESMX 291750Z AUTO 28009KT 250V320 9999NDV FEW006/// SCT007/// BKN009/// 01/00 Q1012=
201101291720 METAR ESMX 291720Z AUTO 28010KT 250V310 8000NDV BR OVC005/// 01/00 Q1012=
201101291650 METAR ESMX 291650Z AUTO 28014KT 6000NDV BR OVC004/// 01/00 Q1012=
201101291620 METAR ESMX 291620Z AUTO 27013KT 230V300 6000NDV BR OVC004/// 01/00 Q1012=
201101291550 METAR ESMX 291550Z AUTO 27014KT 5000NDV BR OVC004/// 01/00 Q1011=
201101291520 METAR ESMX 291520Z AUTO 28011G22KT 240V300 9000NDV OVC005/// 01/M00 Q1012=
201101291450 METAR ESMX 291450Z AUTO 26015KT 230V290 9999NDV OVC005/// 01/M00 Q1011=
201101291420 METAR ESMX 291420Z AUTO 28017KT 9999NDV OVC006/// 01/M01 Q1012=
201101291350 METAR ESMX 291350Z AUTO 27014KT 230V300 9999NDV OVC007/// 01/M01 Q1012=
201101291320 METAR ESMX 291320Z AUTO 27014KT 230V300 9999NDV OVC007/// 01/M01 Q1012=
201101291250 METAR ESMX 291250Z AUTO 27014KT 240V300 9999NDV OVC007/// 01/M01 Q1012=
201101291220 METAR ESMX 291220Z 27016KT 9999 OVC006 01/M01 Q1012=
201101291150 METAR ESMX 291150Z 26015KT 240V300 9999 OVC005 01/M01 Q1013=
201101291120 METAR ESMX 291120Z 26013G23KT 210V300 9999 OVC005 00/M01 Q1013=
201101291050 METAR ESMX 291050Z 25013KT 9999 OVC005 00/M01 Q1013=
201101291020 METAR ESMX 291020Z 26011G21KT 210V280 3000 -SN OVC006 M00/M01 Q1014 REFZRA=
201101290950 METAR ESMX 290950Z 25011KT 3300 -SN FEW006 BKN007 OVC009 M00/M01 Q1014=
201101290920 METAR ESMX 290920Z 25011KT 210V300 2600 FZRA FEW007 OVC008 M00/M01 Q1014=
201101290850 METAR ESMX 290850Z 24011KT 170V270 5000 -SN BKN006 OVC011 M00/M01 Q1015=
201101290820 METAR ESMX 290820Z 23010KT 190V260 2900 -SN FEW005 SCT007 BKN008 M00/M01 Q1015=
201101290750 METAR ESMX 290750Z 23011KT 200V260 7000 SG FEW006 BKN007 OVC010 M00/M01 Q1015=
201101290720 METAR ESMX 290720Z 25010KT 220V280 3100 -SN FEW006 SCT008 BKN010 M01/M01 Q1015=
201101290650 METAR ESMX 290650Z AUTO 24010KT 210V290 2700NDV -SN OVC006/// M01/M02 Q1015=
201101290620 METAR ESMX 290620Z AUTO 23011KT 200V280 8000NDV -SN OVC006/// M01/M02 Q1016=
201101290550 METAR ESMX 290550Z AUTO 25011KT 2200NDV -SN FEW006/// SCT009/// BKN011/// M01/M02 Q1016=
201101290520 METAR ESMX 290520Z AUTO 24011KT 3700NDV -SN FEW006/// BKN008/// OVC010/// M01/M02 Q1016=
201101290450 METAR ESMX 290450Z AUTO 25011KT 220V280 2900NDV -SN FEW007/// OVC008/// M01/M02 Q1016=
201101290420 METAR ESMX 290420Z AUTO 25012KT 8000NDV SG OVC008/// M01/M02 Q1017=
201101290350 METAR ESMX 290350Z AUTO 25012KT 220V280 9999NDV -SN FEW006/// BKN008/// OVC010/// M01/M02 Q1017=
201101290320 METAR ESMX 290320Z AUTO 24011KT 200V270 9999NDV OVC006/// M01/M02 Q1017=
201101290250 METAR ESMX 290250Z AUTO 23010KT 9999NDV OVC005/// M01/M02 Q1018=
201101290220 METAR ESMX 290220Z AUTO 23010KT 200V260 9999NDV -SN OVC006/// M01/M02 Q1018=
201101290150 METAR ESMX 290150Z AUTO 25010KT 9999NDV OVC006/// M01/M02 Q1018=
201101290120 METAR ESMX 290120Z AUTO 22010KT 2300NDV -SN OVC006/// M01/M02 Q1019=
201101290050 METAR ESMX 290050Z AUTO 24010KT 8000NDV SG OVC006/// M01/M02 Q1019=
201101290020 METAR ESMX 290020Z AUTO 24009KT 5000NDV -SN OVC006/// M01/M02 Q1019=
201101282350 METAR ESMX 282350Z AUTO 24009KT 3300NDV -SN OVC006/// M01/M02 Q1020=
201101282320 METAR ESMX 282320Z AUTO 24009KT 6000NDV -SN OVC006/// M01/M02 Q1020=
201101282250 METAR ESMX 282250Z AUTO 23009KT 210V270 9999NDV SG OVC006/// M01/M02 Q1020=
201101282220 METAR ESMX 282220Z AUTO 23009KT 200V260 5000NDV SG OVC006/// M01/M02 Q1020=
201101282150 METAR ESMX 282150Z AUTO 24009KT 9999NDV OVC006/// M01/M03 Q1021=
201101282120 METAR ESMX 282120Z AUTO 22009KT 170V250 9999NDV -SN OVC007/// M01/M03 Q1021=
201101282050 METAR ESMX 282050Z AUTO 22010KT 190V250 4400NDV -SN OVC008/// M01/M03 Q1021=
201101282020 METAR ESMX 282020Z 22009KT 9999 SG OVC008 M01/M03 Q1021=
201101281950 METAR ESMX 281950Z 23009KT 200V260 9999 SG OVC007 M01/M03 Q1021=
201101281920 METAR ESMX 281920Z 22008KT 9999 SG OVC008 M01/M03 Q1022=
201101281850 METAR ESMX 281850Z 22007KT 9999 SG OVC008 M01/M03 Q1022=
201101281820 METAR ESMX 281820Z 23009KT 200V260 9999 -SN OVC009 M01/M03 Q1022=
201101281750 METAR ESMX 281750Z 23009KT 9999 SCT012 OVC022 M01/M03 Q1022=
201101281720 METAR ESMX 281720Z 23008KT 9999 OVC020 M01/M03 Q1023=
201101281650 METAR ESMX 281650Z 21008KT 9999 SCT015 BKN025 M01/M03 Q1023=
201101281620 METAR ESMX 281620Z 23007KT 190V270 9999 OVC012 M01/M03 Q1023=
201101281550 METAR ESMX 281550Z 24007KT 9999 OVC011 M01/M03 Q1023=
201101281520 METAR ESMX 281520Z 23007KT 200V260 9999 FEW009 OVC010 M01/M03 Q1023=
201101281450 METAR ESMX 281450Z 26008KT 9999 FEW006 BKN007 M02/M03 Q1023=
201101281420 METAR ESMX 281420Z 26009KT 9000 SG OVC006 M02/M03 Q1024=
201101281350 METAR ESMX 281350Z 20006KT 5000 -SG FEW007 OVC009 M02/M03 Q1024=
201101281320 METAR ESMX 281320Z 20005KT 8000 SG OVC009 M02/M03 Q1024=
201101281250 METAR ESMX 281250Z 20005KT 8000 BR OVC010 M03/M04 Q1024=
201101281220 METAR ESMX 281220Z 20005KT 9000 BR FEW006 OVC009 M03/M04 Q1024 RESG=
201101281150 METAR ESMX 281150Z 23004KT 9999 OVC006 M04/M04 Q1025=
201101281120 METAR ESMX 281120Z 25006KT 9999 OVC006 M04/M04 Q1025=
201101281050 METAR ESMX 281050Z 23006KT 9000 OVC004 M04/M04 Q1025=
201101281020 METAR ESMX 281020Z 23005KT 190V260 9000 BR OVC004 M04/M04 Q1025=
201101280950 METAR ESMX 280950Z 24005KT 210V280 9000 BR OVC004 M04/M04 Q1025=
201101280920 METAR ESMX 280920Z 23005KT 8000 BR OVC003 M04/M05 Q1025=
201101280850 METAR ESMX 280850Z 24005KT 200V270 8000 BR OVC003 M04/M05 Q1025=
201101280820 METAR ESMX 280820Z 25004KT 210V290 9000 BR OVC003 M04/M05 Q1025=
201101280750 METAR ESMX 280750Z 24004KT 200V280 8000 BR OVC002 M05/M05 Q1025=
201101280720 METAR ESMX 280720Z 23003KT 6000 BR OVC002 M05/M06 Q1024=
201101280650 METAR ESMX 280650Z 23003KT 6000 BR OVC002 M05/M06 Q1024=
201101280620 METAR ESMX 280620Z 24004KT 210V280 7000 BR OVC002 M05/M06 Q1024=
201101280550 METAR ESMX 280550Z 24003KT 210V270 5000 BR OVC001 M06/M06 Q1024=
201101280520 METAR ESMX 280520Z 27004KT 240V300 5000 BR OVC002 M06/M06 Q1025=
201101280450 METAR ESMX 280450Z 26003KT 230V290 6000 BR OVC002 M06/M06 Q1025=
201101280420 METAR ESMX 280420Z AUTO 26003KT 220V290 7000NDV BR OVC001/// M06/M06 Q1025=
201101280350 METAR ESMX 280350Z AUTO 24004KT 210V280 6000NDV OVC002/// M06/M06 Q1025=
201101280320 METAR ESMX 280320Z AUTO 26004KT 8000NDV BR OVC002/// M06/M06 Q1025=
201101280250 METAR ESMX 280250Z AUTO 26005KT 220V290 7000NDV BR OVC002/// M06/M07 Q1025=
201101280220 METAR ESMX 280220Z AUTO 28006KT 250V310 9000NDV BR OVC001/// M06/M06 Q1025=
201101280150 METAR ESMX 280150Z AUTO 27005KT 230V300 6000NDV BR OVC001/// M06/M06 Q1025=
201101280120 METAR ESMX 280120Z AUTO 24005KT 200V280 3600NDV BR OVC001/// M06/M06 Q1025=
201101280050 METAR ESMX 280050Z AUTO 27005KT 1900NDV BR OVC001/// M06/M06 Q1025=
201101280020 METAR ESMX 280020Z 27004KT 4600 BR OVC002 M05/M06 Q1025=
201101272350 METAR ESMX 272350Z 26003KT 230V290 2900 BR OVC002 M05/M06 Q1025=
201101272320 METAR ESMX 272320Z 25003KT 210V290 4600 BR OVC002 M05/M06 Q1025=
201101272250 METAR ESMX 272250Z 25003KT 210V280 3800 BR OVC002 M06/M06 Q1025=
201101272220 METAR ESMX 272220Z VRB02KT 4000 BR OVC001 M06/M06 Q1025=
201101272150 METAR ESMX 272150Z 28003KT 250V320 3100 BR OVC001 M06/M07 Q1025=
201101272120 METAR ESMX 272120Z 28002KT 2600 BR OVC002 M06/M07 Q1025=
201101272050 METAR ESMX 272050Z 29004KT 260V330 2300 BR OVC001 M06/M07 Q1024=
201101272020 METAR ESMX 272020Z 27003KT 240V300 2600 BR OVC001 M06/M07 Q1024=
201101271950 METAR ESMX 271950Z 29004KT 250V320 2400 BR OVC002 M07/M07 Q1024=
201101271920 METAR ESMX 271920Z 26003KT 240V300 3700 BR OVC002 M07/M07 Q1024=
201101271850 METAR ESMX 271850Z 28003KT 250V310 2000 FZFG OVC002 M07/M08 Q1024=
201101271820 METAR ESMX 271820Z 26004KT 240V320 0600 R01/P2000N R19/1500VP2000D=
201101271750 METAR ESMX 271750Z 29003KT 240V320 0550 R01/1700D R19/P1700D FZFG VV002 M08/M08 Q1024=
201101271720 METAR ESMX 271720Z 29005KT 260V330 2100 BR BKN002 OVC008 M08/M09 Q1023=
201101271650 METAR ESMX 271650Z 27004KT 230V300 9999 BKN008 M09/M10 Q1023=
201101271620 METAR ESMX 271620Z 26004KT CAVOK M08/M10 Q1023=
201101271550 METAR ESMX 271550Z 26003KT CAVOK M08/M10 Q1023=
201101271520 METAR ESMX 271520Z 29003KT CAVOK M07/M10 Q1023=
201101271450 METAR ESMX 271450Z 28003KT CAVOK M06/M09 Q1022=
201101271420 METAR ESMX 271420Z 29005KT CAVOK M06/M09 Q1022=
201101271350 METAR ESMX 271350Z 29005KT 250V330 CAVOK M06/M09 Q1022=
201101271320 METAR ESMX 271320Z 29004KT CAVOK M06/M09 Q1022=
201101271250 METAR ESMX 271250Z 29005KT CAVOK M06/M09 Q1022=
201101271220 METAR ESMX 271220Z 28006KT CAVOK M06/M10 Q1022=
201101271150 METAR ESMX 271150Z 28004KT CAVOK M06/M10 Q1022=
201101271120 METAR ESMX 271120Z 28004KT CAVOK M07/M10 Q1022=
201101271050 METAR ESMX 271050Z 29004KT CAVOK M08/M11 Q1022=
201101271020 METAR ESMX 271020Z 31003KT CAVOK M08/M11 Q1022=
201101270950 METAR ESMX 270950Z 00000KT CAVOK M09/M11 Q1022=
201101270920 METAR ESMX 270920Z 00000KT CAVOK M13/M15 Q1022=
201101270850 METAR ESMX 270850Z 00000KT CAVOK M13/M14 Q1021=
201101270820 METAR ESMX 270820Z 20001KT 9999 1500N IC NSC M17/M19 Q1021=
201101270750 METAR ESMX 270750Z VRB01KT 9999 2000S IC NSC M19/M21 Q1021=
201101270720 METAR ESMX 270720Z 26002KT CAVOK M19/M21 Q1021=
201101270650 METAR ESMX 270650Z VRB01KT CAVOK M19/M21 Q1021=
201101270620 METAR ESMX 270620Z 00000KT CAVOK M19/M21 Q1020=
201101270550 METAR ESMX 270550Z 00000KT CAVOK M18/M20 Q1020=
201101270520 METAR ESMX 270520Z 00000KT CAVOK M18/M20 Q1020=
201101270450 METAR ESMX 270450Z 00000KT CAVOK M18/M20 Q1020=
201101270420 METAR ESMX 270420Z AUTO 21001KT 9999NDV NCD M18/M19 Q1020=
201101270350 METAR ESMX 270350Z AUTO 00000KT 9999NDV NCD M17/M18 Q1020=
201101270320 METAR ESMX 270320Z AUTO 35001KT 9999NDV NCD M16/M18 Q1019=
201101270250 METAR ESMX 270250Z AUTO 02002KT 9999NDV NCD M16/M17 Q1019=
201101270220 METAR ESMX 270220Z AUTO 01003KT 9999NDV NCD M15/M17 Q1019=
201101270150 METAR ESMX 270150Z AUTO 36003KT 9999NDV NCD M15/M17 Q1019=
201101270120 METAR ESMX 270120Z AUTO 36003KT 9999NDV NCD M14/M16 Q1019=
201101270050 METAR ESMX 270050Z AUTO 36004KT 9999NDV NCD M14/M16 Q1019=
201101270020 METAR ESMX 270020Z 36004KT CAVOK M14/M15 Q1018=
201101262350 METAR ESMX 262350Z 35004KT CAVOK M14/M15 Q1019=
201101262320 METAR ESMX 262320Z 35004KT CAVOK M13/M14 Q1018=
201101262250 METAR ESMX 262250Z 35002KT CAVOK M13/M14 Q1018=
201101262220 METAR ESMX 262220Z 35005KT CAVOK M13/M14 Q1019=
201101262150 METAR ESMX 262150Z 35004KT CAVOK M12/M13 Q1018=
201101262120 METAR ESMX 262120Z 36004KT CAVOK M12/M13 Q1018=
201101262050 METAR ESMX 262050Z 36005KT CAVOK M11/M12 Q1018=
201101262020 METAR ESMX 262020Z 34008KT CAVOK M10/M12 Q1017=
201101261950 METAR ESMX 261950Z 34008KT CAVOK M10/M12 Q1017=
201101261920 METAR ESMX 261920Z 01006KT CAVOK M10/M11 Q1017=
201101261850 METAR ESMX 261850Z 36005KT CAVOK M10/M12 Q1016=
201101261820 METAR ESMX 261820Z 36007KT CAVOK M10/M12 Q1016=
201101261750 METAR ESMX 261750Z 35005KT CAVOK M10/M12 Q1016=
201101261720 METAR ESMX 261720Z 01004KT CAVOK M10/M11 Q1016=
201101261650 METAR ESMX 261650Z 02005KT CAVOK M08/M10 Q1015=
201101261620 METAR ESMX 261620Z 01006KT CAVOK M09/M11 Q1015=
201101261550 METAR ESMX 261550Z 01008KT CAVOK M08/M10 Q1015=
201101261520 METAR ESMX 261520Z 01009KT CAVOK M07/M10 Q1015=
201101261450 METAR ESMX 261450Z 02008KT 330V070 CAVOK M06/M09 Q1014=
201101261420 METAR ESMX 261420Z 01007KT CAVOK M06/M09 Q1014=
201101261350 METAR ESMX 261350Z 01008KT 9999 FEW032 M05/M09 Q1013=
201101261320 METAR ESMX 261320Z 01009KT 9999 FEW031 M05/M09 Q1013=
201101261250 METAR ESMX 261250Z 35009KT 9999 NSC M05/M09 Q1013=
201101261220 METAR ESMX 261220Z 36010KT CAVOK M05/M09 Q1013=
201101261150 METAR ESMX 261150Z 01009KT 9999 FEW031 M06/M09 Q1013=
201101261120 METAR ESMX 261120Z 36008KT CAVOK M06/M09 Q1012=
201101261050 METAR ESMX 261050Z 36009KT CAVOK M06/M09 Q1012=
201101261020 METAR ESMX 261020Z 01011KT CAVOK M06/M09 Q1012=
201101260950 METAR ESMX 260950Z 02011KT 9999 FEW030 M06/M09 Q1012=
201101260917 METAR ESMX 260917Z 02011KT 9999 NSC M06/M09 Q1012=
201101260820 METAR ESMX 260820Z 01010KT 9999 OVC026 M06/M09 Q1011=
201101260750 METAR ESMX 260750Z 01010KT 9999 BKN030 M06/M09 Q1010=
201101260720 METAR ESMX 260720Z 01009KT 9999 BKN030 M07/M09 Q1010=
201101260650 METAR ESMX 260650Z 02010KT 9999 -SN OVC027 M06/M09 Q1009=
201101260620 METAR ESMX 260620Z 02009KT 9999 -SN OVC026 M06/M09 Q1009=
201101260550 METAR ESMX 260550Z 36008KT 9999 -SN FEW015 BKN028 M07/M09 Q1009=
201101260520 METAR ESMX 260520Z 02006KT 9999 -SN FEW025 BKN030 M08/M10 Q1008=
201101260450 METAR COR ESMX 260450Z 01006KT 9999 SCT025 M08/M10 Q1008=
201101260420 METAR ESMX 260420Z AUTO 01006KT 9999NDV SCT025/// M07/M09 Q1008=
201101260350 METAR ESMX 260350Z AUTO 02008KT 9999NDV OVC023/// M06/M09 Q1008=
201101260320 METAR ESMX 260320Z AUTO 02008KT 9999NDV OVC021/// M06/M09 Q1007=
201101260250 METAR ESMX 260250Z AUTO 03009KT 9999NDV OVC018/// M06/M09 Q1007=
201101260220 METAR ESMX 260220Z AUTO 02009KT 9999NDV OVC018/// M06/M09 Q1007=
201101260150 METAR ESMX 260150Z AUTO 02008KT 9999NDV OVC016/// M06/M08 Q1007=
201101260120 METAR ESMX 260120Z AUTO 02009KT 9999NDV -SN OVC014/// M05/M08 Q1007=
201101260050 METAR ESMX 260050Z AUTO 03008KT 6000NDV -SN BKN017/// M05/M08 Q1006=
201101260020 METAR ESMX 260020Z 04008KT 010V070 9999 OVC015 M05/M08 Q1006=
201101252350 METAR ESMX 252350Z 02008KT 9999 OVC015 M05/M07 Q1006=
201101252320 METAR ESMX 252320Z 02009KT 9999 OVC015 M04/M07 Q1005=
201101252250 METAR ESMX 252250Z 02007KT 9999 OVC015 M04/M07 Q1005=
201101252220 METAR ESMX 252220Z 04007KT 360V070 9999 OVC016 M04/M07 Q1005=
201101252150 METAR ESMX 252150Z 04007KT 360V070 9999 OVC014 M04/M07 Q1004=
201101252120 METAR ESMX 252120Z 03008KT 9999 OVC011 M04/M06 Q1004=
201101252050 METAR ESMX 252050Z 04008KT 010V080 9999 OVC011 M04/M06 Q1004=
201101252020 METAR ESMX 252020Z 02009KT 9999 FEW009 OVC011 M04/M05 Q1004=
201101251950 METAR ESMX 251950Z 04008KT 9999 OVC007 M03/M05 Q1003=
201101251920 METAR ESMX 251920Z 04010KT 010V070 9999 SCT010 BKN015 M03/M05 Q1003=
201101251850 METAR ESMX 251850Z 04012KT 010V070 9999 FEW010 BKN013 OVC019 M03/M05 Q1003=
201101251820 METAR ESMX 251820Z 02010KT 9999 OVC009 M02/M04 Q1003=
201101251750 METAR ESMX 251750Z 02011KT 9999 -SN FEW009 BKN012 OVC020 M02/M04 Q1002=
201101251720 METAR ESMX 251720Z 03009KT 9999 FEW012 OVC016 M02/M03 Q1002 RESG=
201101251650 METAR ESMX 251650Z 03009KT 350V060 9999 -SN SCT009 BKN011 M02/M02 Q1002=
201101251620 METAR ESMX 251620Z 02009KT 2500 -SN FEW005 SCT007 BKN009 M01/M02 Q1001=
201101251550 METAR ESMX 251550Z 03006KT 4900 -SN FEW007 SCT010 BKN018 M01/M02 Q1001=
201101251520 METAR ESMX 251520Z 04006KT 9999 -SN FEW009 SCT023 OVC032 M01/M02 Q1001=
201101251450 METAR ESMX 251450Z 03008KT 8000 -SN FEW010 BKN014 OVC021 M01/M02 Q1000=
201101251420 METAR ESMX 251420Z 02008KT 9999 FEW010 OVC013 M00/M02 Q1000=
201101251350 METAR ESMX 251350Z 02007KT 9999 BKN012 M00/M02 Q0999=
201101251320 METAR ESMX 251320Z 01006KT 9999 FEW010 OVC012 M00/M02 Q0999=
201101251250 METAR ESMX 251250Z 02008KT 9999 FEW009 SCT013 OVC025 M00/M02 Q0999=
201101251220 METAR ESMX 251220Z 01010KT 9999 BKN006 OVC009 M00/M01 Q0999=
201101251150 METAR ESMX 251150Z 36010KT 9999 OVC005 M00/M01 Q0999=
201101251120 METAR ESMX 251120Z 01006KT 9999 BKN003 OVC006 M00/M00 Q0999=
201101251050 METAR ESMX 251050Z 34006KT 9999 OVC003 00/M00 Q0999=
201101251020 METAR ESMX 251020Z 36007KT 5000 OVC003 00/M00 Q0999=
201101250950 METAR ESMX 250950Z 34005KT 2000 R01/1600U R19/P2000N OVC002 01/00 Q0998=
201101250920 METAR ESMX 250920Z VRB01KT 0600 R01/0800N R19/0900D FG VV002 01/00 Q0998=
201101250850 METAR ESMX 250850Z VRB01KT 0700 R01/0900N R19/1100N FG VV002 01/00 Q0998=
201101250820 METAR ESMX 250820Z VRB01KT 0600 R01/0900N R19/1000N FG VV003 01/00 Q0998=
201101250750 METAR ESMX 250750Z 24002KT 0700 R01/1200N R19/1200D FG VV002 00/00 Q0998=
201101250720 METAR ESMX 250720Z 23001KT 0900 R01/1900D R19/1900N FG VV003 00/00 Q0998=
201101250650 METAR ESMX 250650Z 25001KT 0900 R01/P2000N R19/1900D FG VV002 00/00 Q0998=
201101250620 METAR ESMX 250620Z 23003KT 210V270 1300 R01/P2000N R19/P2000N BR OVC002 00/00 Q0998=
201101250550 METAR ESMX 250550Z 24003KT 190V280 1200 R01/P2000N R19/P2000N BR OVC002 00/00 Q0998=
201101250520 METAR ESMX 250520Z 24004KT 1100 R01/P2000N R19/P2000N BR OVC002 00/00 Q0998=
201101250450 METAR ESMX 250450Z 24005KT 210V280 1500 BR OVC002 00/M00 Q0998 RESG=
201101250420 METAR ESMX 250420Z AUTO 24004KT 3000NDV -SN OVC001/// 00/M00 Q0998 REUP RESG=
201101250350 METAR ESMX 250350Z AUTO 25005KT 1000NDV R01/P2000N R19/P2000N FG VV002 00/M00 Q0999=
201101250320 METAR ESMX 250320Z AUTO 25005KT 220V280 2600NDV BR OVC001/// 00/M00 Q0999=
201101250250 METAR ESMX 250250Z AUTO 24006KT 210V300 1900NDV BR OVC001/// M00/M00 Q0999=
201101250220 METAR ESMX 250220Z AUTO 27007KT 1400NDV R01/P2000N R19/P2000N BR OVC001/// M00/M01 Q1000=
201101250150 METAR ESMX 250150Z AUTO 26009KT 1700NDV BR OVC001/// M00/M01 Q1000=
201101250120 METAR ESMX 250120Z AUTO 26008KT 220V290 4400NDV BR FEW002/// SCT004/// OVC005/// M00/M01 Q1000=
201101250050 METAR ESMX 250050Z 25006KT 210V290 8000 BR BKN002 OVC005 M00/M01 Q1000=
201101250020 METAR ESMX 250020Z 26006KT 200V290 4000 BR FEW002 BKN003 OVC005 00/M00 Q1001=
201101242350 METAR ESMX 242350Z 25007KT 3000 BR OVC002 00/M00 Q1001 RESG=
201101242320 METAR ESMX 242320Z 22006KT 190V260 2000 -SN BR OVC002 00/M00 Q1002=
201101242250 METAR ESMX 242250Z 20005KT 2000 -SN BR OVC002 00/M00 Q1002=
201101242220 METAR ESMX 242220Z 16004KT 2500 -SN BR OVC003 M00/M01 Q1002=
201101242150 METAR ESMX 242150Z 18005KT 6000 -SN BR OVC003 M00/M01 Q1003=
201101242120 METAR ESMX 242120Z 17005KT 140V200 5000 -SN BR OVC003 M00/M01 Q1003 RESG=
201101242050 METAR ESMX 242050Z 18006KT 5000 BR SCT003 OVC005 M00/M01 Q1004=
201101242020 METAR ESMX 242020Z 20008KT 3000 BR BKN002 OVC006 M00/M01 Q1005=
201101241950 METAR ESMX 241950Z 20006KT 3500 BR BKN002 OVC005 M01/M01 Q1006=
201101241920 METAR ESMX 241920Z 17005KT 140V200 4500 BR BKN002 OVC003 M01/M01 Q1006=
201101241850 METAR ESMX 241850Z 18004KT 3000 BR OVC002 M01/M02 Q1007=
201101241820 METAR ESMX 241820Z 20005KT 2500 BR OVC003 M01/M02 Q1007=
201101241750 METAR ESMX 241750Z 23008KT 2900 BR OVC002 M01/M02 Q1008=
201101241720 METAR ESMX 241720Z 21006KT 2100 BR OVC002 M01/M01 Q1008=
201101241650 METAR ESMX 241650Z 21007KT 5000 BR OVC001 M01/M01 Q1009=
201101241620 METAR ESMX 241620Z 21005KT 2300 BR OVC002 M01/M01 Q1009=
201101241550 METAR ESMX 241550Z 21006KT 4500 BR OVC002 M01/M01 Q1010=
201101241520 METAR ESMX 241520Z 21005KT 6000 BR OVC002 M01/M01 Q1010=
201101241450 METAR ESMX 241450Z 21007KT 8000 BR OVC002 M01/M01 Q1011=
201101241420 METAR ESMX 241420Z 21006KT 8000 BR OVC003 M00/M01 Q1011=
201101241350 METAR ESMX 241350Z 23007KT 7000 BR OVC004 M00/M01 Q1011=
201101241320 METAR ESMX 241320Z 23006KT 200V270 6000 BR OVC003 M00/M01 Q1012=
201101241250 METAR ESMX 241250Z 23007KT 7000 BR OVC003 M00/M01 Q1012=
201101241220 METAR ESMX 241220Z 23007KT 9000 BR OVC004 M00/M01 Q1013=
201101241150 METAR ESMX 241150Z 23007KT 8000 BR OVC003 M00/M01 Q1013=
201101241120 METAR ESMX 241120Z 22006KT 190V250 6000 BR OVC002 M00/M01 Q1014=
201101241050 METAR ESMX 241050Z 21006KT 6000 BR OVC002 M00/M01 Q1014=
201101241020 METAR ESMX 241020Z 23006KT 190V250 5000 BR OVC002 M00/M01 Q1014=
201101240950 METAR ESMX 240950Z 23005KT 5000 BR OVC002 M01/M01 Q1015=
201101240920 METAR ESMX 240920Z 23005KT 200V260 5000 BR OVC002 M01/M01 Q1015=
201101240850 METAR ESMX 240850Z 22005KT 4000 BR OVC002 M01/M02 Q1016=
201101240820 METAR ESMX 240820Z 18004KT 5000 BR OVC002 M01/M02 Q1016=
201101240750 METAR ESMX 240750Z 21003KT 6000 BR OVC002 M01/M02 Q1016=
201101240720 METAR ESMX 240720Z 21005KT 7000 BR OVC002 M02/M02 Q1016=
201101240650 METAR ESMX 240650Z 21004KT 9999 -SN OVC002 M02/M02 Q1017=
201101240620 METAR ESMX 240620Z 19004KT 7000 -SN OVC003 M02/M02 Q1017=
201101240550 METAR ESMX 240550Z 20003KT 4500 -SN BR OVC003 M02/M02 Q1017=
201101240520 METAR ESMX 240520Z 22003KT 7000 -SN BR BKN002 OVC005 M02/M02 Q1017=
201101240450 METAR ESMX 240450Z 21004KT 5000 -SN BR FEW004 OVC006 M02/M02 Q1018=
201101240420 METAR ESMX 240420Z AUTO 19005KT 1200NDV R01/P2000N R19/P2000N -SN BKN006/// OVC010/// M02/M02 Q1018=
201101240350 METAR ESMX 240350Z AUTO 20004KT 2100NDV -SN FEW005/// SCT009/// BKN027/// M02/M02 Q1018=
201101240320 METAR ESMX 240320Z AUTO 18005KT 2400NDV -SN FEW008/// SCT023/// M02/M02 Q1019=
201101240250 METAR ESMX 240250Z AUTO 17003KT 1200NDV R01/P2000N R19/P2000N -SN FEW006/// SCT010/// BKN024/// M02/M02 Q1019=
201101240220 METAR ESMX 240220Z AUTO 23003KT 200V260 2500NDV -SN FEW006/// SCT011/// M02/M02 Q1019=
201101240150 METAR ESMX 240150Z AUTO 22003KT 1500NDV -SN FEW005/// SCT014/// BKN028/// M02/M03 Q1019=
201101240120 METAR ESMX 240120Z AUTO 22003KT 0900NDV R01/P2000N R19/P2000N -SN FEW005/// SCT010/// M02/M02 Q1020=
201101240050 METAR ESMX 240050Z 21003KT 3000 -SN BR FEW013 SCT027 M02/M02 Q1020=
201101240020 METAR ESMX 240020Z 17004KT 3500 -SN BR FEW024 BKN028 M02/M02 Q1020=
201101232350 METAR ESMX 232350Z VRB02KT 4000 -SN BR SCT001 BKN028 M02/M03 Q1020 RESG=
201101232320 METAR ESMX 232320Z 17003KT 2500 SG BR BKN008 M02/M03 Q1020=
201101232250 METAR ESMX 232250Z 19002KT 3000 BR OVC009 M02/M03 Q1020=
201101232220 METAR ESMX 232220Z 22001KT 9000 BR OVC009 M03/M04 Q1021=
201101232150 METAR ESMX 232150Z 19001KT 9000 BR FEW009 SCT025 BKN028 M03/M04 Q1021=
201101232120 METAR ESMX 232120Z VRB01KT 8000 BR FEW008 OVC028 M03/M04 Q1021=
201101232050 METAR ESMX 232050Z VRB01KT 8000 BR FEW008 OVC020 M03/M04 Q1021=
201101232020 METAR ESMX 232020Z VRB01KT 9999 OVC021 M03/M03 Q1021=
201101231950 METAR ESMX 231950Z 27001KT 9999 OVC022 M03/M03 Q1021=
201101231920 METAR ESMX 231920Z VRB01KT 9999 OVC022 M02/M03 Q1021=
201101231850 METAR ESMX 231850Z VRB01KT 9999 SCT014 BKN018 OVC027 M02/M03 Q1021=
201101231820 METAR ESMX 231820Z 11001KT 9999 OVC015 M02/M03 Q1021=
201101231750 METAR ESMX 231750Z VRB01KT 9999 FEW019 OVC021 M02/M03 Q1021=
201101231720 METAR ESMX 231720Z 00000KT 9999 SCT022 OVC030 M02/M03 Q1021=
201101231650 METAR ESMX 231650Z 27001KT 9999 SCT021 BKN025 BKN046 M02/M03 Q1021=
201101231620 METAR ESMX 231620Z 00000KT 7000 -SN FEW017 BKN046 M02/M03 Q1021=
201101231550 METAR ESMX 231550Z 00000KT 9000 -SN FEW020 SCT044 M01/M03 Q1021=
201101231520 METAR ESMX 231520Z 27002KT 5000 -SN SCT022 BKN029 M01/M03 Q1021=
201101231450 METAR ESMX 231450Z 20002KT 9999 FEW024 BKN030 M01/M03 Q1021=
201101231420 METAR ESMX 231420Z 20002KT 9999 BKN028 M01/M03 Q1021=
201101231350 METAR ESMX 231350Z 26002KT 9999 BKN030 M01/M03 Q1021=
201101231320 METAR ESMX 231320Z VRB01KT 9999 BKN030 M01/M03 Q1021=
201101231250 METAR ESMX 231250Z AUTO 28001KT 9999NDV SCT029/// BKN037/// M01/M03 Q1021=
201101231220 METAR ESMX 231220Z AUTO VRB01KT 9999NDV SCT041/// BKN051/// M01/M03 Q1021=
201101231150 METAR ESMX 231150Z AUTO 27001KT 9999NDV FEW053/// SCT100/// M02/M03 Q1021=
201101231120 METAR ESMX 231120Z AUTO 00000KT 9999NDV FEW100/// M02/M03 Q1021=
201101231050 METAR ESMX 231050Z AUTO 32001KT 9999NDV FEW031/// M03/M04 Q1021=
201101231020 METAR ESMX 231020Z AUTO 36001KT 9999NDV FEW031/// M03/M04 Q1022=
201101230950 METAR ESMX 230950Z AUTO 00000KT 9999NDV FEW110/// M03/M04 Q1021=
201101230920 METAR ESMX 230920Z AUTO 32001KT 9999NDV FEW110/// M04/M05 Q1021=
201101230850 METAR ESMX 230850Z AUTO 31001KT 9999NDV FEW098/// M04/M05 Q1021=
201101230820 METAR ESMX 230820Z AUTO VRB01KT 9999NDV BKN100/// M05/M06 Q1022=
201101230750 METAR ESMX 230750Z AUTO 30001KT 9999NDV SCT100/// M06/M07 Q1021=
201101230720 METAR ESMX 230720Z AUTO 00000KT 9999NDV FEW100/// M06/M07 Q1021=
201101230650 METAR ESMX 230650Z AUTO 00000KT 9999NDV SCT100/// M06/M07 Q1021=
201101230620 METAR ESMX 230620Z AUTO 30002KT 9999NDV FEW040/// BKN110/// M07/M07 Q1021=
201101230550 METAR ESMX 230550Z AUTO 00000KT 9999NDV NCD M07/M07 Q1021=
201101230520 METAR ESMX 230520Z AUTO 33001KT 0500NDV R01/1100VP2000D R19/P2000N=
201101230450 METAR ESMX 230450Z AUTO 36001KT 5000NDV BR NCD M06/M06 Q1021=
201101230420 METAR ESMX 230420Z AUTO VRB02KT 9999NDV NCD M05/M05 Q1021=
201101230350 METAR ESMX 230350Z AUTO 31003KT 9999NDV NCD M05/M06 Q1021=
201101230320 METAR ESMX 230320Z AUTO 31002KT 9999NDV NCD M05/M05 Q1021=
201101230250 METAR ESMX 230250Z AUTO 29003KT 9999NDV NCD M05/M06 Q1021=
201101230220 METAR ESMX 230220Z AUTO 33004KT 9999NDV NCD M04/M05 Q1021=
201101230150 METAR ESMX 230150Z AUTO 31006KT 9999NDV NCD M04/M04 Q1021=
201101230120 METAR ESMX 230120Z AUTO 32005KT 9999NDV NCD M03/M04 Q1021=
201101230050 METAR ESMX 230050Z AUTO 33005KT 9999NDV BKN100/// M03/M04 Q1021=
201101230020 METAR ESMX 230020Z AUTO 35005KT 9999NDV FEW100/// M03/M04 Q1021=
201101222350 METAR ESMX 222350Z AUTO 32005KT 9999NDV FEW100/// M02/M04 Q1021=
201101222320 METAR ESMX 222320Z AUTO 33004KT 9999NDV BKN100/// M03/M04 Q1021=
201101222250 METAR ESMX 222250Z AUTO 33004KT 9999NDV FEW100/// M03/M04 Q1021=
201101222220 METAR ESMX 222220Z AUTO 31004KT 9999NDV FEW096/// M03/M04 Q1021=
201101222150 METAR ESMX 222150Z AUTO 30005KT 9999NDV FEW110/// M02/M04 Q1021=
201101222120 METAR ESMX 222120Z AUTO 31006KT 9999NDV SCT110/// M02/M04 Q1021=
201101222050 METAR ESMX 222050Z AUTO 32006KT 9999NDV SCT110/// M01/M04 Q1021=
201101222020 METAR ESMX 222020Z AUTO 30006KT 280V340 9999NDV SCT110/// M01/M04 Q1021=
201101221950 METAR ESMX 221950Z AUTO 29008KT 9999NDV NCD M01/M04 Q1021=
201101221920 METAR ESMX 221920Z AUTO 29010KT 9999NDV NCD M01/M04 Q1022=
201101221850 METAR ESMX 221850Z AUTO 29009KT 9999NDV NCD M01/M04 Q1022=
201101221820 METAR ESMX 221820Z AUTO 29010KT 9999NDV NCD M01/M05 Q1022=
201101221750 METAR ESMX 221750Z AUTO 27008KT 9999NDV NCD M01/M05 Q1022=
201101221720 METAR ESMX 221720Z AUTO 27008G25KT 230V300 9999NDV NCD M01/M05 Q1022=
201101221650 METAR ESMX 221650Z AUTO 27008KT 9999NDV FEW070/// M02/M05 Q1023=
201101221620 METAR ESMX 221620Z AUTO 27008KT 9999NDV NCD M02/M04 Q1023=
201101221550 METAR ESMX 221550Z AUTO 27006KT 9999NDV SCT068/// BKN096/// M02/M04 Q1024=
201101221520 METAR ESMX 221520Z AUTO 26003KT 9999NDV SCT067/// BKN079/// M02/M04 Q1024=
201101221450 METAR ESMX 221450Z AUTO 27004KT 9999NDV NCD M01/M04 Q1024=
201101221420 METAR ESMX 221420Z AUTO 26004KT 230V290 9999NDV NCD M01/M04 Q1025=
201101221350 METAR ESMX 221350Z AUTO 28004KT 9999NDV FEW082/// M01/M04 Q1025=
201101221320 METAR ESMX 221320Z AUTO 28005KT 9999NDV SCT074/// M01/M04 Q1025=
201101221250 METAR ESMX 221250Z AUTO 28005KT 9999NDV NCD M01/M04 Q1026=
201101221220 METAR ESMX 221220Z AUTO 29003KT 9999NDV NCD M01/M04 Q1026=
201101221150 METAR ESMX 221150Z AUTO 28003KT 9999NDV NCD M02/M04 Q1026=
201101221120 METAR ESMX 221120Z AUTO 27003KT 9999NDV NCD M02/M04 Q1026=
201101221050 METAR ESMX 221050Z AUTO 29003KT 9999NDV NCD M02/M04 Q1026=
201101221020 METAR ESMX 221020Z AUTO 30004KT 9999NDV NCD M02/M04 Q1027=
201101220950 METAR ESMX 220950Z AUTO 30004KT 9999NDV NCD M02/M04 Q1027=
201101220920 METAR ESMX 220920Z AUTO 30003KT 9999NDV NCD M03/M04 Q1027=
201101220850 METAR ESMX 220850Z AUTO 29003KT 9999NDV NCD M03/M04 Q1027=
201101220820 METAR ESMX 220820Z AUTO 29004KT 9999NDV NCD M03/M04 Q1027=
201101220750 METAR ESMX 220750Z AUTO 29004KT 9999NDV NCD M03/M04 Q1026=
201101220720 METAR ESMX 220720Z AUTO 30003KT 9999NDV NCD M04/M04 Q1026=
201101220650 METAR ESMX 220650Z AUTO 31004KT 9999NDV FEW053/// M03/M04 Q1026=
201101220620 METAR ESMX 220620Z AUTO 30004KT 9999NDV BKN048/// OVC066/// M02/M03 Q1026=
201101220550 METAR ESMX 220550Z AUTO 28004KT 9999NDV OVC042/// M02/M03 Q1025=
201101220520 METAR ESMX 220520Z AUTO 30002KT 9999NDV FEW039/// BKN043/// BKN076/// M02/M03 Q1026=
201101220450 METAR ESMX 220450Z AUTO 30003KT 9999NDV FEW008/// SCT036/// BKN043/// M02/M03 Q1026=
201101220420 METAR ESMX 220420Z AUTO 31005KT 9999NDV BKN005/// OVC009/// M02/M03 Q1026=
201101220350 METAR ESMX 220350Z AUTO 32006KT 9999NDV OVC005/// M02/M03 Q1026=
201101220320 METAR ESMX 220320Z AUTO 33006KT 290V350 9999NDV OVC004/// M02/M03 Q1026=
201101220250 METAR ESMX 220250Z AUTO 28004KT 9999NDV OVC004/// M03/M03 Q1026=
201101220220 METAR ESMX 220220Z AUTO 28005KT 250V310 9999NDV BKN005/// OVC007/// M03/M04 Q1026=
201101220150 METAR ESMX 220150Z AUTO 27004KT 9999NDV FEW014/// OVC058/// M03/M04 Q1026=
201101220120 METAR ESMX 220120Z AUTO 26004KT 9999NDV FEW015/// BKN058/// M03/M04 Q1026=
201101220050 METAR ESMX 220050Z AUTO 25002KT 9000NDV BR OVC012/// M03/M04 Q1026=
201101220020 METAR ESMX 220020Z AUTO VRB02KT 9999NDV FEW017/// OVC020/// M03/M04 Q1026=
201101212350 METAR ESMX 212350Z AUTO VRB02KT 9999NDV -SN BKN010/// OVC024/// M03/M04 Q1026=
201101212320 METAR ESMX 212320Z AUTO 22002KT 9000NDV -SN FEW009/// SCT027/// OVC032/// M04/M04 Q1026=
201101212250 METAR ESMX 212250Z AUTO 21003KT 2500NDV -SN FEW014/// SCT033/// M03/M04 Q1026=
201101212220 METAR ESMX 212220Z AUTO 22003KT 9999NDV -SN FEW019/// SCT041/// M03/M05 Q1027=
201101212150 METAR ESMX 212150Z AUTO 23003KT 9999NDV FEW035/// M04/M05 Q1027=
201101212120 METAR ESMX 212120Z AUTO 20003KT 9999NDV NCD M04/M05 Q1027=
201101212050 METAR ESMX 212050Z 22003KT CAVOK M04/M05 Q1027=
201101212020 METAR ESMX 212020Z 22002KT CAVOK M04/M05 Q1027=
201101211950 METAR ESMX 211950Z 22003KT CAVOK M03/M05 Q1027=
201101211920 METAR ESMX 211920Z 21002KT CAVOK M03/M05 Q1027=
201101211850 METAR ESMX 211850Z 23004KT CAVOK M04/M05 Q1027=
201101211820 METAR ESMX 211820Z 18004KT CAVOK M04/M05 Q1027=
201101211750 METAR ESMX 211750Z 23003KT CAVOK M05/M06 Q1027=
201101211720 METAR ESMX 211720Z 23002KT CAVOK M06/M07 Q1027=
201101211650 METAR ESMX 211650Z 22003KT CAVOK M06/M07 Q1027=
201101211620 METAR ESMX 211620Z 21004G17KT 8000 BR NSC M05/M06 Q1027=
201101211550 METAR ESMX 211550Z 20004KT 8000 BR NSC M05/M06 Q1028=
201101211520 METAR ESMX 211520Z 22002KT CAVOK M05/M06 Q1028=
201101211450 METAR ESMX 211450Z 23002KT CAVOK M03/M05 Q1028=
201101211420 METAR ESMX 211420Z 18002KT CAVOK M03/M05 Q1028=
201101211350 METAR ESMX 211350Z VRB02KT 9999 FEW004 M03/M04 Q1028=
201101211320 METAR ESMX 211320Z 26003KT 9999 BKN004 M03/M04 Q1029=
201101211250 METAR ESMX 211250Z VRB02KT 9999 OVC003 M03/M04 Q1028=
201101211220 METAR ESMX 211220Z VRB01KT 9999 BCFG OVC002 M02/M04 Q1029=
201101211150 METAR ESMX 211150Z VRB01KT 9999 BCFG BKN004 M03/M04 Q1029=
201101211120 METAR ESMX 211120Z 00000KT 5000 BR BKN002 M03/M04 Q1029=
201101211050 METAR ESMX 211050Z VRB01KT 8000 BR OVC002 M03/M04 Q1029=
201101211020 METAR ESMX 211020Z 04003KT 7000 BR OVC001 M04/M04 Q1029=
201101210950 METAR ESMX 210950Z 31004KT 3000 BCFG VV002 M04/M04 Q1029=
201101210920 METAR ESMX 210920Z 33003KT 270V020 3000 BR OVC001 M04/M04 Q1029=
201101210850 METAR ESMX 210850Z 33003KT 290V350 6000 BR OVC002 M03/M04 Q1029=
201101210820 METAR ESMX 210820Z 36003KT 330V040 7000 OVC002 M03/M04 Q1029=
201101210750 METAR ESMX 210750Z 34004KT 9999 OVC003 M03/M04 Q1029=
201101210720 METAR ESMX 210720Z 01004KT 9999 OVC003 M03/M04 Q1029=
201101210650 METAR ESMX 210650Z 02005KT 9999 OVC004 M03/M04 Q1028=
201101210620 METAR ESMX 210620Z 36005KT 9999 SCT005 BKN007 OVC037 M03/M04 Q1028=
201101210550 METAR ESMX 210550Z 01004KT 9999 OVC037 M03/M04 Q1028=
201101210520 METAR ESMX 210520Z 33004KT 9999 OVC035 M03/M04 Q1028=
201101210450 METAR ESMX 210450Z 35003KT 9999 OVC034 M02/M04 Q1028=
201101210420 METAR ESMX 210420Z AUTO 32004KT 9999NDV OVC034/// M02/M04 Q1028=
201101210350 METAR ESMX 210350Z AUTO 31005KT 9999NDV OVC035/// M02/M04 Q1028=
201101210320 METAR ESMX 210320Z AUTO 30003KT 9999NDV OVC036/// M02/M04 Q1028=
201101210250 METAR ESMX 210250Z AUTO 31005KT 9999NDV OVC035/// M02/M03 Q1028=
201101210220 METAR ESMX 210220Z AUTO 30004KT 270V340 9999NDV OVC031/// M02/M03 Q1028=
201101210150 METAR ESMX 210150Z AUTO 30004KT 270V340 9999NDV OVC030/// M02/M03 Q1028=
201101210120 METAR ESMX 210120Z AUTO 31005KT 270V330 9999NDV OVC028/// M02/M03 Q1028=
201101210050 METAR ESMX 210050Z AUTO 31005KT 270V340 9999NDV OVC027/// M02/M03 Q1028=
201101210020 METAR ESMX 210020Z 30006KT 9999 OVC029 M02/M03 Q1028=
201101202350 METAR ESMX 202350Z 28005KT 9999 OVC025 M02/M03 Q1028=
201101202320 METAR ESMX 202320Z 26002KT 9999 OVC025 M02/M03 Q1028=
201101202250 METAR ESMX 202250Z 26002KT 9999 FEW020 OVC026 M02/M03 Q1028=
201101202220 METAR ESMX 202220Z 28003KT 9999 OVC024 M02/M03 Q1028 RESG=
201101202150 METAR ESMX 202150Z 31003KT 9999 SG SCT009 OVC024 M02/M03 Q1028=
201101202120 METAR ESMX 202120Z 35004KT 9999 OVC008 M02/M03 Q1028=
201101202050 METAR ESMX 202050Z 34006KT 9999 OVC008 M02/M03 Q1028 RESG=
201101202020 METAR ESMX 202020Z 34008KT 9999 OVC007 M02/M03 Q1028=
201101201950 METAR ESMX 201950Z 34010KT 9999 OVC007 M02/M03 Q1028=
201101201920 METAR ESMX 201920Z 34008KT 9999 OVC008 M02/M03 Q1028=
201101201850 METAR ESMX 201850Z 34010KT 9999 OVC007 M02/M03 Q1028=
201101201820 METAR ESMX 201820Z 33004KT 300V010 9999 OVC008 M02/M04 Q1028=
201101201750 METAR ESMX 201750Z 33008KT 9999 BKN008 M02/M04 Q1028=
201101201720 METAR ESMX 201720Z 31004KT 9999 SCT010 M03/M05 Q1027=
201101201650 METAR ESMX 201650Z 32004KT 9999 SCT012 M02/M04 Q1027=
201101201620 METAR ESMX 201620Z 33005KT 9999 BKN012 M02/M04 Q1027=
201101201550 METAR ESMX 201550Z 32006KT 9999 BKN013 M02/M04 Q1027=
201101201520 METAR ESMX 201520Z 34006KT 9999 BKN014 M02/M05 Q1027=
201101201450 METAR ESMX 201450Z 34006KT 9999 BKN014 M02/M04 Q1027=
201101201420 METAR ESMX 201420Z 34009KT 9999 BKN014 M01/M04 Q1027=
201101201350 METAR ESMX 201350Z 35008KT 9999 BKN015 M01/M03 Q1027=
201101201320 METAR ESMX 201320Z 36011KT 9999 OVC016 M00/M04 Q1027=
201101201250 METAR ESMX 201250Z 34006KT 9999 BKN016 M00/M04 Q1027=
201101201220 METAR ESMX 201220Z 33006KT CAVOK M01/M04 Q1027=
201101201150 METAR ESMX 201150Z 33005KT 310V010 CAVOK M01/M04 Q1027=
201101201120 METAR ESMX 201120Z 31005KT CAVOK M02/M04 Q1026=
201101201050 METAR ESMX 201050Z 31004KT CAVOK M02/M05 Q1027=
201101201020 METAR ESMX 201020Z 33005KT CAVOK M03/M05 Q1027=
201101200950 METAR ESMX 200950Z 33004KT CAVOK M03/M05 Q1027=
201101200920 METAR ESMX 200920Z 31005KT CAVOK M04/M05 Q1026=
201101200850 METAR ESMX 200850Z 31004KT 9999 FEW008 M04/M05 Q1026=
201101200820 METAR ESMX 200820Z 30003KT 9999 FEW007 M04/M05 Q1026=
201101200750 METAR ESMX 200750Z 31003KT 9999 FEW006 M04/M05 Q1026=
201101200720 METAR ESMX 200720Z 33005KT 9999 BKN006 M04/M05 Q1026=
201101200650 METAR ESMX 200650Z 33007KT 9999 BKN006 M04/M05 Q1025=
201101200620 METAR ESMX 200620Z 35007KT 9999 OVC005 M03/M05 Q1025=
201101200550 METAR ESMX 200550Z 34007KT 9999 OVC005 M03/M05 Q1025=
201101200520 METAR ESMX 200520Z 34008KT 9999 OVC005 M03/M05 Q1025=
201101200450 METAR ESMX 200450Z 33007KT 9999 OVC005 M03/M04 Q1025=
201101200420 METAR ESMX 200420Z AUTO 35007KT 320V020 9999NDV OVC005/// M03/M04 Q1025=
201101200350 METAR ESMX 200350Z AUTO 35007KT 9999NDV OVC005/// M03/M04 Q1025=
201101200320 METAR ESMX 200320Z AUTO 36008KT 9999NDV OVC005/// M03/M04 Q1025=
201101200250 METAR ESMX 200250Z AUTO 35007KT 9999NDV OVC005/// M03/M04 Q1025=
201101200220 METAR ESMX 200220Z AUTO 35008KT 9999NDV OVC005/// M03/M04 Q1025=
201101200150 METAR ESMX 200150Z AUTO 35009KT 9999NDV OVC005/// M03/M04 Q1025=
201101200120 METAR ESMX 200120Z AUTO 34007KT 9999NDV OVC005/// M03/M04 Q1024=
201101200050 METAR ESMX 200050Z AUTO 34008KT 9999NDV OVC004/// M03/M04 Q1024=
201101200020 METAR ESMX 200020Z 34007KT 9999 OVC004 M03/M04 Q1024=
201101192350 METAR ESMX 192350Z 33006KT 9999 OVC004 M03/M04 Q1024=
201101192320 METAR ESMX 192320Z 33007KT 9999 OVC004 M03/M04 Q1024=
201101192250 METAR ESMX 192250Z 32006KT 9999 BKN004 M03/M04 Q1024=
201101192220 METAR ESMX 192220Z 32006KT 9999 OVC004 M03/M04 Q1024=
201101192150 METAR ESMX 192150Z 34006KT 9999 BKN005 M03/M04 Q1024=
201101192120 METAR ESMX 192120Z 34007KT 9999 BKN005 M02/M03 Q1023=
201101192050 METAR ESMX 192050Z 33005KT 9999 OVC005 M02/M03 Q1023=
201101192020 METAR ESMX 192020Z 34006KT 9999 BKN005 M02/M03 Q1023=
201101191950 METAR ESMX 191950Z 35006KT 310V010 9999 BKN006 M02/M03 Q1023=
201101191920 METAR ESMX 191920Z 35007KT 9999 BKN006 M02/M03 Q1023=
201101191850 METAR ESMX 191850Z 02007KT 9999 BKN006 M02/M03 Q1022=
201101191820 METAR ESMX 191820Z 02008KT 9999 BKN007 BKN010 M01/M03 Q1022=
201101191720 METAR ESMX 191720Z 01006KT 350V060 9999 OVC007 M01/M03 Q1022=
201101191650 METAR ESMX 191650Z 02008KT 340V050 9999 OVC007 M01/M03 Q1022=
201101191620 METAR ESMX 191620Z 36008KT 9999 OVC007 M01/M02 Q1021=
201101191550 METAR ESMX 191550Z 34007KT 320V020 9999 OVC006 M01/M02 Q1021=
201101191520 METAR ESMX 191520Z 36008KT 9999 OVC007 M01/M02 Q1021=
201101191450 METAR ESMX 191450Z 35005KT 320V030 9999 OVC007 M01/M02 Q1021=
201101191350 METAR ESMX 191350Z 36005KT 9999 OVC008 M00/M02 Q1020=
201101191320 METAR ESMX 191320Z 34006KT 310V020 9999 OVC009 M00/M02 Q1020=
201101191250 METAR ESMX 191250Z 32006KT 290V350 9999 OVC009 00/M02 Q1020=
201101191220 METAR ESMX 191220Z 31004KT 290V010 9999 OVC010 00/M02 Q1020=
201101191150 METAR ESMX 191150Z 29004KT 9999 OVC010 00/M02 Q1020=
201101191120 METAR ESMX 191120Z 28006KT 240V300 9999 OVC010 00/M02 Q1019=
201101191050 METAR ESMX 191050Z 29006KT 9999 OVC010 00/M02 Q1019=
201101191020 METAR ESMX 191020Z 28006KT 9999 BKN010 00/M02 Q1019=
201101190950 METAR ESMX 190950Z 30005KT 9999 BKN009 00/M02 Q1019=
201101190920 METAR ESMX 190920Z 28006KT 250V320 9999 BKN009 00/M02 Q1019=
201101190850 METAR ESMX 190850Z 29006KT 250V320 9999 OVC009 00/M02 Q1019=
201101190820 METAR ESMX 190820Z 30006KT 9999 OVC009 00/M02 Q1019=
201101190750 METAR ESMX 190750Z 27005KT 9999 OVC011 00/M01 Q1019=
201101190720 METAR ESMX 190720Z 28005KT 240V300 9999 OVC010 00/M01 Q1019=
201101190650 METAR ESMX 190650Z 29005KT 9999 OVC009 01/M01 Q1018=
201101190620 METAR ESMX 190620Z 28006KT 9999 OVC008 01/M01 Q1018=
201101190550 METAR ESMX 190550Z 27005KT 250V310 9999 OVC009 01/M01 Q1018=
201101190520 METAR ESMX 190520Z 26005KT 9999 OVC007 01/M01 Q1018=
201101190450 METAR ESMX 190450Z 26006KT 9999 OVC007 01/M01 Q1018=
201101190420 METAR ESMX 190420Z AUTO 28005KT 250V330 9999NDV OVC007/// 01/M01 Q1018=
201101190350 METAR ESMX 190350Z AUTO 28005KT 230V300 9999NDV OVC008/// 01/M01 Q1018=
201101190320 METAR ESMX 190320Z AUTO 27006KT 240V330 9999NDV OVC007/// 01/M01 Q1018=
201101190250 METAR ESMX 190250Z AUTO 27006KT 220V300 9999NDV OVC007/// 01/M01 Q1018=
201101190220 METAR ESMX 190220Z AUTO 28006KT 250V340 9999NDV BKN007/// OVC010/// 01/M00 Q1018=
201101190150 METAR ESMX 190150Z AUTO 28006KT 240V300 9999NDV OVC008/// 01/M00 Q1018=
201101190120 METAR ESMX 190120Z AUTO 28005KT 250V320 9999NDV FEW008/// OVC010/// 01/M00 Q1018=
201101190050 METAR ESMX 190050Z AUTO 27005KT 230V310 9999NDV OVC008/// 01/M00 Q1018=
201101190020 METAR ESMX 190020Z 28005KT 9999 OVC009 01/M00 Q1017=
201101182350 METAR ESMX 182350Z 26005KT 230V300 9999 SCT008 OVC010 01/M00 Q1018=
201101182320 METAR ESMX 182320Z 29006KT 9999 OVC008 01/M00 Q1017=
201101182250 METAR ESMX 182250Z 29008KT 270V330 9999 FEW007 OVC008 01/M00 Q1017=
201101182220 METAR ESMX 182220Z 29006KT 250V320 9999 OVC007 01/M00 Q1017=
201101182150 METAR ESMX 182150Z 28007KT 9999 OVC007 01/M00 Q1017=
201101182120 METAR ESMX 182120Z 28009KT 9999 OVC007 01/M00 Q1017=
201101182050 METAR ESMX 182050Z 27008KT 230V300 9999 OVC008 01/M00 Q1017=
201101182020 METAR ESMX 182020Z 28010KT 9999 FEW009 OVC011 01/M00 Q1017=
201101181950 METAR ESMX 181950Z 27006KT 9999 FEW008 OVC010 01/M00 Q1017=
201101181920 METAR ESMX 181920Z 27005KT 250V310 9999 FEW009 OVC011 01/M00 Q1017=
201101181850 METAR ESMX 181850Z 27007KT 240V310 9999 FEW009 OVC011 01/M00 Q1017=
201101181820 METAR ESMX 181820Z 27009KT 240V300 9999 FEW009 OVC010 01/M00 Q1017=
201101181750 METAR ESMX 181750Z 27008KT 9999 FEW008 OVC010 01/M01 Q1016=
201101181720 METAR ESMX 181720Z 27007KT 9999 FEW008 OVC009 01/M00 Q1016=
201101181650 METAR ESMX 181650Z 27009KT 230V290 9999 SCT007 BKN009 01/M00 Q1016=
201101181620 METAR ESMX 181620Z 27008KT 9999 SCT005 BKN008 01/M00 Q1016=
201101181550 METAR ESMX 181550Z 27009KT 230V290 9999 FEW005 OVC008 01/M00 Q1016=
201101181520 METAR ESMX 181520Z 27008KT 230V300 9999 FEW005 SCT007 BKN008 01/M00 Q1016=
201101181450 METAR ESMX 181450Z 26007KT 230V310 9999 FEW005 SCT006 BKN008 01/00 Q1015=
201101181420 METAR ESMX 181420Z 27008KT 9999 OVC005 01/00 Q1015=
201101181350 METAR ESMX 181350Z 27008KT 230V300 9999 BKN004 OVC007 01/01 Q1015=
201101181320 METAR ESMX 181320Z 27007KT 220V310 9999 SCT004 OVC007 01/01 Q1015=
201101181250 METAR ESMX 181250Z 27007KT 240V300 9999 FEW003 OVC004 01/01 Q1014=
201101181220 METAR ESMX 181220Z 27007KT 240V300 9999 OVC003 01/01 Q1014=
201101181150 METAR ESMX 181150Z 27008KT 9999 BKN002 OVC005 01/01 Q1015=
201101181120 METAR ESMX 181120Z 27010KT 7000 BR FEW002 OVC004 01/01 Q1014=
201101181050 METAR ESMX 181050Z 28009KT 3700 BR OVC002 01/01 Q1014=
201101181020 METAR ESMX 181020Z 28009KT 9000 OVC003 01/01 Q1014=
201101180950 METAR ESMX 180950Z 28009KT 4400 OVC002 01/01 Q1014=
201101180920 METAR ESMX 180920Z 26007KT 220V290 1100 R01/1100VP2000U R19/1200V1900U FG VV002 01/01 Q1014=
201101180850 METAR ESMX 180850Z 27006KT 0700 R01/1100N R19/1300N FG VV001 01/01 Q1014=
201101180820 METAR ESMX 180820Z 24004KT 210V280 3300 BR OVC002 01/01 Q1013=
201101180750 METAR ESMX 180750Z 22004KT 7000 BR FEW001 SCT003 BKN005 01/01 Q1013=
201101180720 METAR ESMX 180720Z 24003KT 4500 BR OVC002 01/00 Q1013=
201101180650 METAR ESMX 180650Z 25003KT 220V340 4300 BR OVC002 01/00 Q1013=
201101180620 METAR ESMX 180620Z 29003KT 7000 BR OVC002 01/00 Q1013=
201101180550 METAR ESMX 180550Z 27003KT 7000 -DZ OVC002 01/01 Q1013=
201101180520 METAR ESMX 180520Z 26003KT 5000 -DZ SCT002 OVC005 01/01 Q1013=
201101180450 METAR ESMX 180450Z VRB02KT 5000 -RA OVC002 01/00 Q1013=
201101180420 METAR ESMX 180420Z AUTO 25001KT 4500NDV -DZ OVC001/// 00/00 Q1013=
201101180350 METAR ESMX 180350Z AUTO 20002KT 3800NDV DZ BKN001/// OVC016/// 01/00 Q1013=
201101180320 METAR ESMX 180320Z AUTO 21003KT 1600NDV DZ SCT001/// BKN019/// 00/00 Q1013=
201101180250 METAR ESMX 180250Z AUTO 17001KT 0600NDV R01/P2000N R19/1800U -RA VV001 01/00 Q1014=
201101180220 METAR ESMX 180220Z AUTO 00000KT 0300NDV R01/1800D R19/1100N DZ VV001 01/00 Q1014=
201101180150 METAR ESMX 180150Z AUTO 19004KT 0350NDV R01/1300U R19/1100N FG VV001 01/00 Q1014=
201101180120 METAR ESMX 180120Z AUTO 18002KT 0250NDV R01/1000N R19/0900N FG VV001 01/00 Q1014=
201101180050 METAR ESMX 180050Z AUTO 15002KT 0400NDV R01/1300N R19/1400N FG VV001 01/01 Q1014=
201101180020 METAR ESMX 180020Z 18004KT 0300 R01/1100N R19/1100N FG VV001 01/01 Q1015=
201101172350 METAR ESMX 172350Z 18004KT 0250 R01/0900N R19/0900N FG VV001 01/01 Q1015=
201101172320 METAR ESMX 172320Z 17004KT 0250 R01/0900N R19/0900N FG VV001 01/01 Q1015=
201101172250 METAR ESMX 172250Z 18003KT 0200 R01/0900N R19/0750N FG VV001 01/01 Q1015=
201101172220 METAR ESMX 172220Z 18003KT 0300 R01/0750N R19/0900N FG VV001 01/01 Q1015=
201101172150 METAR ESMX 172150Z 19003KT 0300 R01/0900N R19/0900N FG VV001 01/01 Q1016=
201101172120 METAR ESMX 172120Z 21005KT 0350 R01/1100N R19/1100V1500D FG VV001 01/01 Q1016=
201101172050 METAR ESMX 172050Z 21006KT 180V250 0550 R01/1700N R19/1800N FG VV001 01/01 Q1016=
201101172020 METAR ESMX 172020Z 22005KT 0450 R01/1400D R19/1600N FG VV001 02/01 Q1016=
201101171950 METAR ESMX 171950Z 22004KT 0400 R01/1300D R19/1400VP2000D FG VV001 01/01 Q1016=
201101171920 METAR ESMX 171920Z 21004KT 170V250 0650 R01/1900N R19/P2000N FG VV002 01/01 Q1016=
201101171850 METAR ESMX 171850Z 24005KT 0750 R01/P2000N R19/P2000N FG VV002 02/01 Q1017=
201101171820 METAR ESMX 171820Z 23004KT 200V260 0700 R01/P2000D R19/P2000N FG VV002 02/01 Q1017=
201101171750 METAR ESMX 171750Z 23007KT 200V260 1700 BR VV002 02/01 Q1017=
201101171720 METAR ESMX 171720Z 24007KT 1200 R01/P2000N R19/P2000N BR OVC002 02/01 Q1017=
201101171650 METAR ESMX 171650Z 24006KT 2300 BR OVC002 02/01 Q1017=
201101171620 METAR ESMX 171620Z 24007KT 4700 BR FEW003 OVC004 02/01 Q1017=
201101171550 METAR ESMX 171550Z 25008KT 220V290 9999 BKN005 BKN008 02/01 Q1017=
201101171520 METAR ESMX 171520Z 24006KT 8000 BR BKN005 OVC009 02/01 Q1017=
201101171450 METAR ESMX 171450Z 24007KT 210V280 9999 FEW006 BKN008 OVC011 03/01 Q1017=
201101171420 METAR ESMX 171420Z 25008KT 230V290 9999 FEW007 BKN008 BKN011 03/02 Q1017=
201101171350 METAR ESMX 171350Z 25008KT 210V300 9999 FEW006 OVC010 03/02 Q1016=
201101171320 METAR ESMX 171320Z 26009KT 230V290 9999 OVC005 03/02 Q1016=
201101171250 METAR ESMX 171250Z 25009KT 9999 BKN004 OVC008 03/02 Q1016=
201101171220 METAR ESMX 171220Z 26009KT 240V300 9999 OVC004 03/02 Q1016=
201101171150 METAR ESMX 171150Z 25009KT 9999 OVC005 03/02 Q1016=
201101171120 METAR ESMX 171120Z 26011KT 170V290 9999 SCT005 BKN007 OVC009 03/02 Q1016=
201101171050 METAR ESMX 171050Z 26011KT 230V290 9999 FEW003 BKN005 03/02 Q1016=
201101171020 METAR ESMX 171020Z 25009KT 5000 BR OVC002 03/03 Q1015=
201101170950 METAR ESMX 170950Z 24010KT 200V280 2600 BR OVC002 03/03 Q1015=
201101170920 METAR ESMX 170920Z 25010KT 200V320 1700 BR OVC002 03/03 Q1014=
201101170850 METAR ESMX 170850Z 25010KT 210V280 1500 BR OVC002 04/03 Q1014=
201101170820 METAR ESMX 170820Z 25010KT 4000 -DZ BR OVC002 04/03 Q1014=
201101170750 METAR ESMX 170750Z 24009KT 8000 BR OVC003 04/03 Q1013=
201101170720 METAR ESMX 170720Z 23009KT 7000 DZ BKN002 OVC004 04/04 Q1014=
201101170650 METAR ESMX 170650Z 24009KT 5000 BR FEW002 OVC004 04/04 Q1013=
201101170620 METAR ESMX 170620Z 24009KT 1700 DZ BKN003 04/04 Q1013=
201101170550 METAR ESMX 170550Z 23010KT 4000 -RA BR OVC003 04/04 Q1013=
201101170520 METAR ESMX 170520Z 23010KT 3500 -RA BR OVC002 04/04 Q1013=
201101170450 METAR ESMX 170450Z 24011KT 4000 BR OVC002 04/04 Q1013=
201101170420 METAR ESMX 170420Z AUTO 24012KT 2700NDV BR OVC002/// 05/04 Q1012=
201101170350 METAR ESMX 170350Z AUTO 22011KT 3600NDV BR OVC002/// 05/04 Q1012=
201101170320 METAR ESMX 170320Z AUTO 22010KT 200V260 4100NDV BR OVC002/// 05/04 Q1012=
201101170250 METAR ESMX 170250Z AUTO 24011KT 210V280 2800NDV BR OVC002/// 05/04 Q1012=
201101170220 METAR ESMX 170220Z AUTO 24010KT 210V280 3400NDV BR OVC001/// 05/04 Q1013=
201101170150 METAR ESMX 170150Z AUTO 23010G20KT 2300NDV OVC001/// 05/04 Q1013=
201101170120 METAR ESMX 170120Z 21009KT 1800 BR OVC001 05/04 Q1013=
201101170050 METAR ESMX 170050Z 22010KT 0800 R19/P2000N FG VV002 04/04 Q1012=
201101170020 METAR ESMX 170020Z 23010KT 0600 R19/1800N FG VV002 04/04 Q1013=
201101162350 METAR ESMX 162350Z 23010KT 0700 R19/1900N FG VV002 04/04 Q1013=
201101162320 METAR ESMX 162320Z 23010KT 0600 R19/1600N FG VV002 04/04 Q1013=
201101162250 METAR ESMX 162250Z 23010KT 0600 R19/1500N FG VV002 04/04 Q1013=
201101162220 METAR ESMX 162220Z 21009KT 0700 R19/1700N FG VV002 04/04 Q1013=
201101162150 METAR ESMX 162150Z 20009KT 1000 R19/P2000N BR OVC001 04/03 Q1013=
201101162120 METAR ESMX 162120Z 21008KT 2600 BR OVC001 04/04 Q1013=
201101162050 METAR ESMX 162050Z 22008KT 2200 BR OVC001 04/04 Q1013=
201101162020 METAR ESMX 162020Z 21007KT 1600 BR OVC001 04/03 Q1013=
201101161950 METAR ESMX 161950Z 22008KT 1400 BR OVC001 04/03 Q1013=
201101161850 METAR ESMX 161850Z 23009KT 1500 DZ BR OVC001 04/03 Q1013=
201101161820 METAR ESMX 161820Z 23009KT 0900 R01/P2000N R19/P2000N FG VV002 04/03 Q1013=
201101161750 METAR ESMX 161750Z 22009KT 1200 R01/1700D R19/P2000N BR OVC002 04/03 Q1013=
201101161720 METAR ESMX 161720Z 22011KT 0800 R01/P2000N R19/P2000N FG VV002 04/03 Q1013=
201101161650 METAR ESMX 161650Z 23011KT 1500 BR OVC002 04/03 Q1013=
201101161620 METAR ESMX 161620Z 23011KT 2000 BR OVC002 04/04 Q1013=
201101161550 METAR ESMX 161550Z 23010KT 3400 BR OVC002 04/03 Q1013=
201101161520 METAR ESMX 161520Z 23011KT 5000 BR OVC003 04/04 Q1013=
201101161450 METAR ESMX 161450Z 22010KT 4000 BR OVC003 04/04 Q1013=
201101161420 METAR ESMX 161420Z 21010KT 4000 BR OVC002 04/04 Q1013=
201101161350 METAR ESMX 161350Z 21011KT 4000 BR OVC002 04/03 Q1013=
201101161320 METAR COR ESMX 161320Z 22008KT 4000 BR OVC002 04/03 Q1012=
201101161250 METAR ESMX 161250Z AUTO 22008KT 1900NDV BR OVC001/// 04/03 Q1012=
201101161220 METAR ESMX 161220Z AUTO 20009KT 3500NDV BR OVC002/// 04/03 Q1012=
201101161150 METAR ESMX 161150Z AUTO 22010KT 2900NDV BR OVC002/// 04/03 Q1012=
201101161120 METAR ESMX 161120Z AUTO 23009KT 3400NDV BR OVC001/// 04/03 Q1012=
201101161050 METAR ESMX 161050Z AUTO 22010KT 200V260 4000NDV BR OVC001/// 04/03 Q1012=
201101161020 METAR ESMX 161020Z AUTO 22010KT 3100NDV BR OVC001/// 03/03 Q1012=
201101160950 METAR ESMX 160950Z AUTO 21010KT 3800NDV BR OVC001/// 03/03 Q1012=
201101160920 METAR ESMX 160920Z AUTO 21009KT 2100NDV BR OVC002/// 03/03 Q1012=
201101160850 METAR ESMX 160850Z AUTO 20008KT 6000NDV BR OVC002/// 03/03 Q1012=
201101160820 METAR ESMX 160820Z AUTO 21008KT 8000NDV BR OVC002/// 03/03 Q1012=
201101160750 METAR ESMX 160750Z AUTO 21009KT 3000NDV BR OVC001/// 03/03 Q1012=
201101160720 METAR ESMX 160720Z AUTO 20010KT 9999NDV BR OVC001/// 03/03 Q1012=
201101160650 METAR ESMX 160650Z AUTO 20010KT 5000NDV BR BKN001/// OVC003/// 03/03 Q1011=
201101160620 METAR ESMX 160620Z AUTO 20010KT 3500NDV BR OVC001/// 03/02 Q1011=
201101160550 METAR ESMX 160550Z AUTO 21010KT 8000NDV BR OVC001/// 03/02 Q1011=
201101160520 METAR ESMX 160520Z AUTO 20009KT 4800NDV BR OVC001/// 02/02 Q1011=
201101160450 METAR ESMX 160450Z AUTO 19009KT 3700NDV BR OVC001/// 02/02 Q1011=
201101160420 METAR ESMX 160420Z AUTO 18008KT 2800NDV BR OVC001/// 02/02 Q1011=
201101160350 METAR ESMX 160350Z AUTO 18008KT 6000NDV BR OVC001/// 02/02 Q1011=
201101160320 METAR ESMX 160320Z AUTO 17010KT 2400NDV BR OVC001/// 02/02 Q1011=
201101160250 METAR ESMX 160250Z AUTO 17009KT 2000NDV BR OVC001/// 02/02 Q1012=
201101160220 METAR ESMX 160220Z AUTO 17008KT 4400NDV BR OVC001/// 02/01 Q1012=
201101160150 METAR ESMX 160150Z AUTO 17009KT 140V200 9999NDV BR OVC002/// 02/01 Q1012=
201101160120 METAR ESMX 160120Z AUTO 16010KT 120V190 7000NDV -DZ OVC002/// 01/01 Q1012=
201101160050 METAR ESMX 160050Z AUTO 16011KT 120V190 8000NDV -RA OVC002/// 01/01 Q1012=
201101160020 METAR ESMX 160020Z AUTO 16010KT 130V200 5000NDV -RA OVC002/// 01/01 Q1013=
201101152350 METAR ESMX 152350Z AUTO 15010KT 110V180 4000NDV -RA OVC002/// 01/00 Q1013=
201101152320 METAR ESMX 152320Z AUTO 15009KT 120V180 5000NDV -RA BKN002/// OVC004/// 01/00 Q1013=
201101152250 METAR ESMX 152250Z AUTO 14009KT 110V190 4200NDV -RA OVC002/// 01/00 Q1014=
201101152220 METAR ESMX 152220Z AUTO 14009KT 100V170 5000NDV -RA OVC002/// 00/00 Q1014=
201101152150 METAR ESMX 152150Z AUTO 15008KT 100V170 2200NDV -SN OVC001/// 00/00 Q1015 REUP=
201101152120 METAR ESMX 152120Z AUTO 17010KT 0550NDV R01/1700D R19/P2000N FG VV002 00/M00 Q1015=
201101152050 METAR ESMX 152050Z AUTO 16009KT 120V180 0650NDV R01/P2000N R19/P2000N FG VV001 00/M00 Q1015=
201101152020 METAR ESMX 152020Z AUTO 16009KT 120V210 0600NDV R01/1800N R19/P2000N FZFG VV001 00/M00 Q1016=
201101151950 METAR ESMX 151950Z AUTO 16006KT 110V200 0500NDV R01/1500N R19/1800U FZFG VV001 M00/M00 Q1016=
201101151920 METAR ESMX 151920Z AUTO 14008KT 100V190 0450NDV R01/1500N R19/1700U FZFG VV001 M00/M01 Q1016=
201101151850 METAR ESMX 151850Z AUTO 16007KT 110V200 0600NDV R01/1800N R19/P2000N FZFG VV001 M00/M01 Q1016=
201101151820 METAR ESMX 151820Z AUTO 16007KT 120V200 0650NDV R01/P2000N R19/P2000N FZFG VV002 M00/M01 Q1016=
201101151750 METAR ESMX 151750Z AUTO 15008KT 120V180 1100NDV R01/P2000N R19/P2000N BR OVC001/// M01/M01 Q1016=
201101151720 METAR ESMX 151720Z AUTO 16006KT 110V200 3600NDV BR OVC002/// M01/M01 Q1017=
201101151650 METAR ESMX 151650Z AUTO 16006KT 120V200 6000NDV BR OVC003/// M01/M01 Q1017=
201101151620 METAR ESMX 151620Z AUTO 15007KT 110V190 9999NDV OVC005/// M01/M01 Q1017=
201101151550 METAR ESMX 151550Z AUTO 16006KT 120V200 9999NDV OVC005/// M01/M01 Q1017 RESG=
201101151520 METAR ESMX 151520Z AUTO 15005KT 110V190 5000NDV SG BKN005/// OVC008/// M01/M01 Q1016=
201101151450 METAR ESMX 151450Z AUTO 16005KT 120V200 3400NDV SG FEW004/// BKN006/// OVC008/// M01/M01 Q1017=
201101151420 METAR ESMX 151420Z AUTO 15004KT 120V190 2800NDV -SN FEW005/// BKN007/// OVC010/// M01/M01 Q1017 RESG=
201101151350 METAR ESMX 151350Z AUTO 14005KT 080V170 3200NDV SG OVC006/// M01/M01 Q1016=
201101151320 METAR ESMX 151320Z AUTO 14006KT 060V190 3400NDV -SN OVC006/// M01/M02 Q1015=
201101151250 METAR ESMX 151250Z AUTO 14006KT 090V180 9999NDV OVC006/// M01/M02 Q1015=
201101151220 METAR ESMX 151220Z AUTO 13005KT 070V170 9999NDV OVC007/// M01/M01 Q1014 RESG=
201101151150 METAR ESMX 151150Z AUTO 13005KT 080V190 4800NDV SG FEW007/// OVC008/// M01/M01 Q1014=
201101151120 METAR ESMX 151120Z AUTO 12004KT 070V160 2900NDV -SN FEW006/// OVC008/// M01/M02 Q1014=
201101151050 METAR ESMX 151050Z AUTO 13005KT 080V170 2400NDV -SN OVC008/// M01/M02 Q1014=
201101151020 METAR ESMX 151020Z AUTO 12005KT 060V190 9999NDV SG OVC009/// M01/M02 Q1014=
201101150950 METAR ESMX 150950Z AUTO 11005KT 070V170 8000NDV SG OVC009/// M01/M02 Q1013=
201101150920 METAR ESMX 150920Z AUTO 10004KT 050V160 6000NDV -SN OVC009/// M01/M02 Q1013=
201101150850 METAR ESMX 150850Z AUTO 10005KT 040V160 4300NDV -SN FEW008/// OVC011/// M02/M02 Q1013=
201101150820 METAR ESMX 150820Z AUTO 10006KT 010V140 3900NDV -SN FEW007/// BKN010/// M02/M02 Q1012 RESG=
201101150750 METAR ESMX 150750Z AUTO 10004KT 060V150 6000NDV SG FEW006/// SCT009/// M02/M02 Q1012=
201101150720 METAR ESMX 150720Z AUTO 09005KT 050V140 1700NDV -SN FEW006/// SCT014/// M02/M02 Q1011=
201101150650 METAR ESMX 150650Z AUTO 08004KT 030V140 1000NDV R01/P2000N R19/P2000N SN FEW007/// M02/M02 Q1011=
201101150620 METAR ESMX 150620Z AUTO 08005KT 030V120 0650NDV R01/P2000N R19/P2000N SN NCD M02/M02 Q1010=
201101150550 METAR ESMX 150550Z AUTO 08004KT 030V130 0800NDV R01/P2000N R19/P2000N SN FEW006/// M02/M02 Q1010=
201101150520 METAR ESMX 150520Z AUTO 09005KT 030V140 1100NDV R01/P2000N R19/P2000N -SN FEW005/// M02/M02 Q1009=
201101150450 METAR ESMX 150450Z AUTO 09005KT 040V120 0700NDV R01/P2000D R19/P2000N SN NCD M02/M02 Q1009=
201101150420 METAR ESMX 150420Z AUTO 08005KT 040V140 0800NDV R01/P2000N R19/P2000N SN FEW006/// M02/M02 Q1008=
201101150350 METAR ESMX 150350Z AUTO 08004KT 040V120 0800NDV R01/P2000N R19/P2000N SN NCD M02/M02 Q1008=
201101150320 METAR ESMX 150320Z AUTO 08004KT 030V140 0800NDV R01/P2000N R19/P2000N SN FEW005/// M02/M02 Q1008=
201101150250 METAR ESMX 150250Z AUTO 08005KT 040V150 0800NDV R01/P2000N R19/P2000N SN FEW006/// SCT009/// M02/M02 Q1007=
201101150220 METAR ESMX 150220Z AUTO 09005KT 050V140 1100NDV R01/P2000N R19/P2000N -SN FEW006/// BKN008/// BKN010/// M02/M02 Q1007=
201101150150 METAR ESMX 150150Z AUTO 09006KT 040V140 1900NDV -SN OVC006/// M01/M02 Q1007=
201101150120 METAR ESMX 150120Z AUTO 09006KT 030V140 9999NDV OVC006/// M01/M02 Q1007=
201101150050 METAR ESMX 150050Z AUTO 09006KT 030V130 9999NDV OVC006/// M01/M02 Q1007=
201101150020 METAR ESMX 150020Z AUTO 10006KT 050V150 9999NDV OVC007/// M01/M02 Q1007=
201101142350 METAR ESMX 142350Z AUTO 10006KT 050V160 9999NDV OVC006/// M01/M02 Q1007=
201101142320 METAR ESMX 142320Z AUTO 10006KT 050V180 9999NDV OVC006/// M01/M02 Q1007=
201101142250 METAR ESMX 142250Z AUTO 10006KT 350V140 9999NDV OVC006/// M02/M03 Q1007=
201101142220 METAR ESMX 142220Z AUTO 08005KT 040V110 9999NDV OVC006/// M02/M03 Q1007=
201101142150 METAR ESMX 142150Z AUTO 08004KT 020V120 7000NDV -SN OVC006/// M02/M03 Q1008=
201101142120 METAR ESMX 142120Z AUTO 09004KT 030V140 9000NDV SG OVC007/// M02/M03 Q1008=
201101142050 METAR ESMX 142050Z 08004KT 040V110 9999 OVC007 M02/M03 Q1008=
201101142020 METAR ESMX 142020Z 09003KT 040V140 9999 OVC007 M02/M03 Q1008=
201101141950 METAR ESMX 141950Z 07003KT 010V120 9999 -SN OVC007 M02/M03 Q1008=
201101141920 METAR ESMX 141920Z 08004KT 030V130 9999 OVC007 M02/M03 Q1008=
201101141850 METAR ESMX 141850Z 09005KT 040V140 9999 OVC007 M02/M03 Q1008=
201101141820 METAR ESMX 141820Z 09005KT 030V150 9999 BKN007 BKN040 M02/M03 Q1008=
201101141750 METAR ESMX 141750Z 07005KT 040V120 9999 FEW012 OVC039 M02/M03 Q1008=
201101141720 METAR ESMX 141720Z 07004KT 020V110 9999 FEW012 OVC041 M02/M03 Q1008=
201101141650 METAR ESMX 141650Z 05003KT 010V110 9999 BKN009 BKN042 M02/M03 Q1008=
201101141620 METAR ESMX 141620Z 07003KT 020V120 9999 OVC010 M02/M03 Q1008=
201101141550 METAR ESMX 141550Z 04003KT 9999 BKN012 M02/M03 Q1008=
201101141520 METAR ESMX 141520Z 05004KT 010V080 9999 BKN007 BKN025 M02/M03 Q1008=
201101141450 METAR ESMX 141450Z 05004KT 020V100 9999 OVC006 M02/M03 Q1008=
201101141420 METAR ESMX 141420Z 07004KT 030V130 9999 OVC006 M02/M03 Q1008=
201101141350 METAR ESMX 141350Z 05005KT 010V080 9999 OVC006 M02/M03 Q1008=
201101141320 METAR ESMX 141320Z 05004KT 9999 OVC006 M02/M03 Q1008=
201101141250 METAR ESMX 141250Z 04004KT 9999 OVC006 M02/M03 Q1008=
201101141220 METAR ESMX 141220Z 04003KT 9999 BKN005 OVC026 M02/M03 Q1008=
201101141150 METAR ESMX 141150Z 05003KT 020V080 9999 BKN005 OVC024 M02/M03 Q1008=
201101141120 METAR ESMX 141120Z VRB02KT 9999 BKN025 M02/M03 Q1008=
201101141050 METAR ESMX 141050Z VRB02KT 9999 SCT005 OVC030 M03/M03 Q1008=
201101141020 METAR ESMX 141020Z 05003KT 020V080 9999 OVC005 M03/M04 Q1008=
201101140950 METAR ESMX 140950Z 05003KT 020V080 9999 OVC005 M04/M04 Q1008=
201101140920 METAR ESMX 140920Z VRB02KT 9999 OVC005 M04/M04 Q1008=
201101140850 METAR ESMX 140850Z 05003KT 9999 OVC005 M04/M04 Q1008=
201101140820 METAR ESMX 140820Z 02003KT 9999 OVC005 M04/M05 Q1007=
201101140750 METAR ESMX 140750Z VRB01KT 9999 BKN005 OVC035 M04/M05 Q1007=
201101140720 METAR ESMX 140720Z VRB02KT 9999 FEW006 OVC031 M04/M05 Q1007=
201101140650 METAR ESMX 140650Z VRB01KT 9999 -SN FEW006 SCT036 M04/M05 Q1007=
201101140620 METAR ESMX 140620Z 06003KT 9999 FEW025 BKN033 M04/M05 Q1007=
201101140550 METAR ESMX 140550Z VRB02KT 8000 -SN BKN006 M04/M05 Q1006=
201101140520 METAR ESMX 140520Z 05003KT 010V070 3600 -SN BKN006 M04/M05 Q1006=
201101140450 METAR ESMX 140450Z VRB01KT 9000 -SN FEW006 BKN045 BKN056 M04/M05 Q1006=
201101140420 METAR ESMX 140420Z AUTO VRB01KT 7000NDV -SN BKN005/// OVC040/// M04/M05 Q1006=
201101140350 METAR ESMX 140350Z AUTO VRB02KT 9999NDV FZUP OVC005/// M04/M05 Q1006=
201101140320 METAR ESMX 140320Z AUTO VRB01KT 9999NDV OVC004/// M05/M05 Q1006=
201101140250 METAR ESMX 140250Z AUTO VRB02KT 9999NDV OVC003/// M05/M05 Q1006=
201101140220 METAR ESMX 140220Z AUTO VRB02KT 9000NDV BR OVC002/// M05/M05 Q1006=
201101140150 METAR ESMX 140150Z AUTO 14003KT 100V170 5000NDV BR OVC002/// M05/M05 Q1006=
201101140120 METAR ESMX 140120Z AUTO VRB01KT 5000NDV BR OVC002/// M05/M06 Q1006=
201101140050 METAR ESMX 140050Z VRB01KT 5000 BR OVC002 M05/M06 Q1006=
201101140020 METAR ESMX 140020Z VRB01KT 6000 BR OVC002 M06/M06 Q1006=
201101132350 METAR ESMX 132350Z VRB01KT 4600 BR BKN002 M06/M07 Q1006=
201101132320 METAR ESMX 132320Z VRB01KT 5000 BR OVC002 M06/M07 Q1007=
201101132250 METAR ESMX 132250Z VRB01KT 5000 BR OVC002 M06/M07 Q1007=
201101132220 METAR ESMX 132220Z 10002KT 4400 BR OVC002 M06/M07 Q1007=
201101132150 METAR ESMX 132150Z 00000KT 6000 BR BKN003 M06/M07 Q1007=
201101132120 METAR ESMX 132120Z 23001KT 4000 BR OVC002 M06/M07 Q1008=
201101132050 METAR ESMX 132050Z 19002KT 0550 R01/P2000D R19/P2000N FZFG VV002 M06/M07 Q1007=
201101132020 METAR ESMX 132020Z 18003KT 0250 R01/0800V1500D R19/1100N FZFG VV002 M06/M07 Q1007=
201101131950 METAR ESMX 131950Z 21004KT 0400 R01/1000VP2000D R19/0650V1600U=
201101131920 METAR ESMX 131920Z 18002KT 0300 R01/0650 R19/P2000N FZFG VV002 M06/M07 Q1008=
201101131850 METAR ESMX 131850Z 00000KT 9999 OVC002 M07/M08 Q1007=
201101131820 METAR ESMX 131820Z 19001KT 9999 OVC002 M08/M09 Q1007=
201101131750 METAR ESMX 131750Z 00000KT 9999 OVC004 M09/M10 Q1007=
201101131720 METAR ESMX 131720Z 00000KT 9999 R01/P2000N R19/P2000N BCFG BKN005 M09/M10 Q1007=
201101131650 METAR ESMX 131650Z 17001KT 9999 R01/P2000N R19/P2000N BCFG FEW007 M07/M08 Q1008=
201101131620 METAR ESMX 131620Z 21002KT 9999 R01/P2000N R19/P2000N BCFG NSC M07/M08 Q1007=
201101131550 METAR ESMX 131550Z 22002KT 9999 R01/P2000N R19/P2000N BCFG NSC M08/M09 Q1007=
201101131520 METAR ESMX 131520Z 20003KT 9999 R19/2000 BCFG NSC M07/M08 Q1007=
201101131450 METAR ESMX 131450Z 20001KT 9999 R01/P2000N R19/P2000 BCFG NSC M06/M06 Q1007=
201101131420 METAR ESMX 131420Z 00000KT CAVOK M04/M05 Q1007=
201101131350 METAR ESMX 131350Z 24001KT 9999 FEW010 M02/M05 Q1007=
201101131320 METAR ESMX 131320Z 24002KT 9999 FEW010 M03/M06 Q1007=
201101131250 METAR ESMX 131250Z VRB02KT 9999 FEW010 M03/M05 Q1007=
201101131220 METAR ESMX 131220Z 29003KT 9999 FEW012 M03/M05 Q1007=
201101131150 METAR ESMX 131150Z 30005KT 9999 SCT012 M03/M05 Q1007=
201101131120 METAR ESMX 131120Z 30004KT 9999 BKN012 M03/M06 Q1007=
201101131050 METAR ESMX 131050Z 32004KT 9999 BKN014 M03/M06 Q1007=
201101131020 METAR ESMX 131020Z 32005KT 270V350 9999 BKN014 M03/M05 Q1007=
201101130950 METAR ESMX 130950Z 32006KT 9999 BKN014 M03/M05 Q1007=
201101130920 METAR ESMX 130920Z 31006KT 280V340 9999 OVC014 M03/M05 Q1007=
201101130850 METAR ESMX 130850Z 30004KT 260V340 9999 OVC013 M03/M05 Q1007=
201101130820 METAR ESMX 130820Z 27004KT 240V300 9999 OVC014 M03/M04 Q1006=
201101130750 METAR ESMX 130750Z 28005KT 9999 OVC015 M03/M05 Q1006=
201101130720 METAR ESMX 130720Z 27004KT 230V320 9999 OVC015 M03/M04 Q1006=
201101130650 METAR ESMX 130650Z 32005KT 270V360 9999 OVC014 M03/M05 Q1005=
201101130620 METAR ESMX 130620Z 31005KT 280V360 9999 OVC013 M03/M04 Q1005=
201101130550 METAR ESMX 130550Z 32006KT 9999 OVC012 M02/M04 Q1005=
201101130520 METAR ESMX 130520Z 30004KT 9999 OVC014 M02/M04 Q1005=
201101130450 METAR ESMX 130450Z 29004KT 9999 OVC017 M03/M04 Q1005=
201101130420 METAR ESMX 130420Z AUTO 31005KT 9999NDV FEW012/// SCT015/// OVC019/// M02/M04 Q1005=
201101130350 METAR ESMX 130350Z AUTO 30005KT 270V330 9999NDV SCT010/// OVC015/// M02/M04 Q1005=
201101130320 METAR ESMX 130320Z AUTO 29005KT 250V340 9999NDV OVC012/// M01/M03 Q1004=
201101130250 METAR ESMX 130250Z AUTO 30004KT 9999NDV OVC010/// M01/M03 Q1004=
201101130220 METAR ESMX 130220Z AUTO 28005KT 230V320 9999NDV OVC012/// M01/M03 Q1004=
201101130150 METAR ESMX 130150Z AUTO 27005KT 240V300 9999NDV FEW012/// OVC014/// M01/M03 Q1004=
201101130120 METAR ESMX 130120Z AUTO 28004KT 9999NDV OVC011/// M01/M03 Q1004=
201101130050 METAR ESMX 130050Z 28005KT 260V330 9999 FEW009 OVC012 M01/M03 Q1004=
201101130020 METAR ESMX 130020Z 26006KT 230V290 9999 -SN OVC010 M01/M03 Q1004=
201101122350 METAR ESMX 122350Z 25004KT 220V290 9999 FEW010 OVC013 M01/M02 Q1004=
201101122320 METAR ESMX 122320Z 27005KT 230V300 9999 FEW011 OVC015 M01/M03 Q1004=
201101122250 METAR ESMX 122250Z 26004KT 230V290 9999 SCT006 BKN017 M01/M02 Q1004=
201101122220 METAR ESMX 122220Z 25004KT 9999 FEW006 SCT008 BKN019 M01/M02 Q1004=
201101122150 METAR ESMX 122150Z 26004KT 230V290 9999 FEW006 OVC019 M01/M02 Q1004=
201101122120 METAR ESMX 122120Z 27005KT 9999 BKN006 OVC020 M01/M02 Q1004=
201101122050 METAR ESMX 122050Z 26006KT 9999 FEW006 OVC008 M01/M02 Q1003=
201101122020 METAR ESMX 122020Z 26004KT 230V290 9999 BKN006 OVC025 M01/M02 Q1003=
201101121950 METAR ESMX 121950Z 26005KT 9999 BKN006 OVC026 M01/M02 Q1003=
201101121920 METAR ESMX 121920Z 26005KT 230V290 9999 SCT006 BKN029 M01/M02 Q1003=
201101121850 METAR ESMX 121850Z 25005KT 9999 FEW006 BKN008 OVC030 M01/M02 Q1003=
201101121820 METAR ESMX 121820Z 25006KT 9999 FEW005 BKN007 M01/M02 Q1003=
201101121750 METAR ESMX 121750Z 25004KT 9000 -SN BKN005 OVC008 M01/M02 Q1003=
201101121720 METAR ESMX 121720Z 24004KT 9000 -SN BKN005 OVC008 M02/M03 Q1003=
201101121620 METAR ESMX 121620Z 24003KT 9999 FEW017 BKN026 M02/M03 Q1003=
201101121520 METAR ESMX 121520Z 30005KT 260V340 9999 FEW015 BKN020 M01/M03 Q1003=
201101121450 METAR ESMX 121450Z 28008KT 9999 SCT012 BKN015 M01/M03 Q1003=
201101121420 METAR ESMX 121420Z 28006KT 9999 SCT012 BKN018 M01/M03 Q1003=
201101121350 METAR ESMX 121350Z 28008KT 9999 BKN018 M01/M03 Q1003=
201101121320 METAR ESMX 121320Z 28006KT 9999 FEW010 BKN018 M01/M02 Q1002=
201101121250 METAR ESMX 121250Z 29007KT 260V330 9999 FEW012 BKN020 M01/M02 Q1002=
201101121220 METAR ESMX 121220Z 29008KT 260V340 9999 FEW008 BKN015 M01/M02 Q1001=
201101121150 METAR ESMX 121150Z 29007KT 260V320 9999 FEW010 BKN018 M01/M02 Q1001=
201101121120 METAR ESMX 121120Z 29009KT 9999 BKN010 M01/M02 Q1001=
201101121050 METAR ESMX 121050Z 28006KT 9999 BKN008 M00/M01 Q1000=
201101121020 METAR ESMX 121020Z 29009KT 9999 BKN007 OVC009 M01/M01 Q1000=
201101120950 METAR ESMX 120950Z 29008KT 9999 BKN007 OVC011 M00/M01 Q1000=
201101120920 METAR ESMX 120920Z 29007KT 250V320 9999 SCT008 BKN010 M00/M01 Q0999=
201101120850 METAR ESMX 120850Z 29006KT 250V320 9999 BKN006 OVC008 M00/M01 Q0999=
201101120820 METAR ESMX 120820Z 28006KT 230V300 9999 -SN FEW005 OVC008 M00/M01 Q0999=
201101120750 METAR ESMX 120750Z 28006KT 4000 -SN FEW005 OVC006 M00/M01 Q0998=
201101120720 METAR ESMX 120720Z 26005KT 2000 -SN SCT005 BKN008 M00/M00 Q0998=
201101120650 METAR ESMX 120650Z 25003KT 230V290 6000 -SN BKN005 OVC008 M00/M00 Q0998=
201101120620 METAR ESMX 120620Z 23002KT 5000 -SN BKN004 OVC007 M00/M00 Q0998=
201101120550 METAR ESMX 120550Z 21003KT 2000 -SN FEW002 OVC004 M00/M00 Q0998=
201101120520 METAR ESMX 120520Z 18003KT 1400 R01/P2000N R19/P2000N -SN FEW003 OVC005 00/M00 Q0998=
201101120450 METAR ESMX 120450Z 18003KT 1000 R01/P2000N R19/P2000N -SN BKN004 00/M00 Q0998=
201101120420 METAR ESMX 120420Z AUTO 16003KT 130V190 4800NDV -SN FEW002/// OVC004/// 00/M00 Q0998=
201101120350 METAR ESMX 120350Z AUTO 16004KT 1200NDV R01/P2000N R19/P2000N -SN FEW003/// BKN005/// BKN007/// 00/M00 Q0999=
201101120320 METAR ESMX 120320Z AUTO 17004KT 140V200 1300NDV R01/P2000N R19/P2000N -SN FEW002/// SCT004/// OVC006/// 00/M00 Q0999=
201101120250 METAR ESMX 120250Z AUTO 17004KT 1700NDV -SN FEW003/// BKN004/// BKN007/// 00/M00 Q0999=
201101120220 METAR ESMX 120220Z AUTO 17006KT 150V210 1700NDV -SN BKN002/// BKN005/// 00/M00 Q1000=
201101120150 METAR ESMX 120150Z AUTO 16005KT 130V200 0900NDV R01/P2000N R19/P2000N -SN VV003 00/M00 Q1000=
201101120120 METAR ESMX 120120Z AUTO 16005KT 130V190 1000NDV R01/P2000N R19/P2000N -SN VV002 00/M00 Q1001 REUP=
201101120050 METAR ESMX 120050Z AUTO 17006KT 0800NDV R01/P2000N R19/P2000N FG OVC001/// 00/M00 Q1001=
201101120020 METAR ESMX 120020Z 14005KT 4000 BR OVC003 00/M00 Q1001 RESG=
201101112350 METAR ESMX 112350Z 14004KT 100V180 4600 SG FEW002 OVC004 M00/M00 Q1002=
201101112320 METAR ESMX 112320Z 15004KT 110V170 2800 -SN FEW002 BKN004 OVC006 M00/M00 Q1002=
201101112250 METAR ESMX 112250Z 15005KT 120V190 2000 -SN FEW002 BKN004 OVC006 M00/M01 Q1003=
201101112220 METAR ESMX 112220Z 15005KT 090V210 1900 -SN OVC003 M00/M01 Q1004=
201101112150 METAR ESMX 112150Z 14005KT 100V180 5000 SG OVC003 M00/M01 Q1004=
201101112120 METAR ESMX 112120Z 14004KT 100V170 6000 -SN OVC003 M00/M01 Q1005 RESG=
201101112050 METAR ESMX 112050Z 13004KT 100V170 4400 SG OVC004 M01/M01 Q1005=
201101112020 METAR ESMX 112020Z 15004KT 110V200 4500 -SN OVC003 M01/M01 Q1005 RESG=
201101111950 METAR ESMX 111950Z 15005KT 110V170 3000 SG OVC003 M01/M01 Q1006=
201101111920 METAR ESMX 111920Z 16005KT 120V190 2500 -SG OVC003 M01/M01 Q1006=
201101111850 METAR ESMX 111850Z 15005KT 110V200 3000 -SG OVC003 M01/M01 Q1006=
201101111820 METAR ESMX 111820Z 15005KT 100V190 4000 BR OVC002 M01/M01 Q1007=
201101111750 METAR ESMX 111750Z 14005KT 090V180 2000 OVC002 M01/M02 Q1007=
201101111720 METAR ESMX 111720Z 16006KT 110V190 2000 BR OVC002 M01/M02 Q1007=
201101111650 METAR ESMX 111650Z 15007KT 100V200 2000 BR OVC002 M01/M02 Q1008=
201101111620 METAR ESMX 111620Z 15008KT 120V180 2000 BR OVC002 M01/M02 Q1008=
201101111550 METAR ESMX 111550Z 15007KT 100V180 2000 BR OVC002 M01/M02 Q1008=
201101111520 METAR ESMX 111520Z 15006KT 110V190 6000 BR OVC004 M01/M02 Q1009=
201101111450 METAR ESMX 111450Z 14006KT 100V200 7000 BR OVC005 M01/M02 Q1009=
201101111420 METAR ESMX 111420Z 15006KT 110V200 9000 BR OVC006 M01/M02 Q1009=
201101111350 METAR ESMX 111350Z 16008KT 120V190 9999 FEW009 OVC011 M01/M03 Q1010=
201101111320 METAR ESMX 111320Z 16006KT 130V210 9999 OVC013 M01/M03 Q1010=
201101111250 METAR ESMX 111250Z 16008KT 130V210 9999 OVC015 M00/M04 Q1010=
201101111220 METAR ESMX 111220Z 17008KT 140V200 9999 BKN015 M01/M04 Q1011=
201101111150 METAR ESMX 111150Z 17009KT 130V200 9999 BKN015 M00/M04 Q1011=
201101111120 METAR ESMX 111120Z 16010KT 110V190 9999 BKN013 M01/M04 Q1012=
201101111050 METAR ESMX 111050Z 16008KT 120V200 9999 BKN013 M01/M04 Q1012=
201101111020 METAR ESMX 111020Z 17008KT 140V200 9999 BKN014 M00/M04 Q1013=
201101110950 METAR ESMX 110950Z 17007KT 130V200 9999 BKN015 M00/M04 Q1013=
201101110920 METAR ESMX 110920Z 17009KT 9999 BKN015 M00/M04 Q1013=
201101110850 METAR ESMX 110850Z 16011KT 140V200 9999 BKN015 M00/M04 Q1013=
201101110820 METAR ESMX 110820Z 17009KT 140V200 9999 BKN015 M00/M03 Q1013=
201101110750 METAR ESMX 110750Z 18011KT 140V210 9999 BKN015 M00/M03 Q1014=
201101110720 METAR ESMX 110720Z 18011KT 9999 BKN012 BKN017 M00/M03 Q1014=
201101110650 METAR ESMX 110650Z 17010KT 9999 BKN013 M00/M03 Q1014=
201101110620 METAR ESMX 110620Z 18009KT 9999 OVC013 M00/M03 Q1014=
201101110550 METAR ESMX 110550Z 17010KT 9999 OVC013 M00/M03 Q1014=
201101110520 METAR ESMX 110520Z 18010KT 9999 OVC013 M00/M02 Q1015=
201101110450 METAR ESMX 110450Z 19012KT 9999 OVC013 M00/M02 Q1015=
201101110420 METAR ESMX 110420Z AUTO 19012KT 9999NDV OVC012/// M00/M02 Q1015=
201101110350 METAR ESMX 110350Z AUTO 19011KT 9999NDV OVC012/// M00/M02 Q1015=
201101110320 METAR ESMX 110320Z AUTO 19010KT 9999NDV OVC012/// M00/M02 Q1016=
201101110250 METAR ESMX 110250Z AUTO 19009KT 9999NDV OVC012/// M00/M02 Q1016=
201101110220 METAR ESMX 110220Z AUTO 19010KT 9999NDV OVC012/// M00/M02 Q1016=
201101110150 METAR ESMX 110150Z AUTO 20011KT 9999NDV OVC011/// M01/M03 Q1016=
201101110120 METAR ESMX 110120Z AUTO 19013KT 9999NDV OVC011/// M01/M03 Q1016=
201101110050 METAR ESMX 110050Z AUTO 21011KT 9999NDV OVC010/// M01/M03 Q1016=
201101110020 METAR ESMX 110020Z 21011KT 9999 OVC011 M01/M02 Q1017=
201101102350 METAR ESMX 102350Z 20011KT 9999 OVC011 M00/M02 Q1017=
201101102320 METAR ESMX 102320Z 19011KT 9999 OVC011 M00/M02 Q1017=
201101102250 METAR ESMX 102250Z 19010KT 9999 OVC011 M00/M02 Q1017=
201101102220 METAR ESMX 102220Z 20010KT 160V240 9999 OVC010 M01/M03 Q1017=
201101102150 METAR ESMX 102150Z 21011KT 9999 FEW009 OVC011 M01/M03 Q1017=
201101102120 METAR ESMX 102120Z 22010KT 9999 OVC011 M00/M03 Q1017=
201101102050 METAR ESMX 102050Z 21011KT 9999 OVC009 M00/M02 Q1017=
201101102020 METAR ESMX 102020Z 20013KT 9999 SCT009 BKN010 OVC011 M00/M02 Q1017=
201101101950 METAR ESMX 101950Z 21011KT 9999 SCT008 BKN011 OVC014 00/M02 Q1017=
201101101920 METAR ESMX 101920Z 21011KT 9999 FEW009 BKN011 OVC016 00/M02 Q1017=
201101101850 METAR ESMX 101850Z 21010KT 180V240 9999 OVC011 01/M02 Q1017=
201101101820 METAR ESMX 101820Z 22011KT 190V260 9999 OVC011 01/M02 Q1017=
201101101750 METAR ESMX 101750Z 22010KT 9999 BKN010 OVC015 01/M01 Q1017=
201101101720 METAR ESMX 101720Z 22010KT 9999 FEW011 BKN014 01/M01 Q1017=
201101101650 METAR ESMX 101650Z 21009KT 9999 SCT014 01/M02 Q1016=
201101101620 METAR ESMX 101620Z 22009KT 9999 FEW013 SCT017 BKN020 01/M01 Q1017=
201101101550 METAR ESMX 101550Z 22009KT 9999 FEW010 BKN015 01/M01 Q1017=
201101101520 METAR ESMX 101520Z 22008KT 190V260 9999 BKN018 01/M01 Q1016=
201101101450 METAR ESMX 101450Z 22010KT 9999 FEW014 BKN017 02/M01 Q1016=
201101101420 METAR ESMX 101420Z 24008KT 210V280 9999 FEW014 BKN017 02/M01 Q1016=
201101101350 METAR ESMX 101350Z 23010KT 200V260 9999 BKN018 02/M01 Q1015=
201101101320 METAR ESMX 101320Z 22009KT 180V250 9999 BKN015 02/M01 Q1015=
201101101250 METAR ESMX 101250Z 23011KT 200V270 9999 BKN013 02/M01 Q1015=
201101101220 METAR ESMX 101220Z 24012KT 9999 BKN012 BKN017 02/M01 Q1015=
201101101150 METAR ESMX 101150Z 22010KT 200V260 9999 BKN012 02/M01 Q1015=
201101101120 METAR ESMX 101120Z 25010KT 9999 BKN011 02/M01 Q1015=
201101101050 METAR ESMX 101050Z 24010KT 210V280 9999 BKN010 BKN017 02/M01 Q1015=
201101101020 METAR ESMX 101020Z 25009KT 220V280 9999 BKN010 02/M00 Q1014=
201101100950 METAR ESMX 100950Z 23008KT 9999 BKN012 02/M00 Q1014=
201101100920 METAR ESMX 100920Z 24011KT 9999 BKN010 02/M00 Q1014=
201101100850 METAR ESMX 100850Z 23010KT 9999 BKN010 02/M00 Q1013=
201101100820 METAR ESMX 100820Z 23011KT 9999 BKN009 01/M01 Q1013=
201101100750 METAR ESMX 100750Z 23010KT 9999 BKN009 02/M00 Q1013=
201101100720 METAR ESMX 100720Z 23011KT 9999 SCT011 BKN015 02/M00 Q1012=
201101100650 METAR ESMX 100650Z 23010KT 9999 BKN009 02/M00 Q1012=
201101100620 METAR ESMX 100620Z 24010KT 9999 BKN008 02/M00 Q1011=
201101100550 METAR ESMX 100550Z 24010KT 9999 BKN010 02/M00 Q1010=
201101100520 METAR ESMX 100520Z 24010KT 9999 BKN010 02/M00 Q1010=
201101100450 METAR ESMX 100450Z 24010KT 9999 BKN010 02/M00 Q1010=
201101100050 METAR ESMX 100050Z 24010KT 210V280 9999 BKN007 01/00 Q1007=
201101100020 METAR ESMX 100020Z 23009KT 200V270 9999 BKN005 01/00 Q1007=
201101092350 METAR ESMX 092350Z 23010KT 190V240 3000 -RASN BKN007 01/M00 Q1006=
201101092320 METAR ESMX 092320Z 22011KT 3000 -RASN BKN008 01/M00 Q1006=
201101092250 METAR ESMX 092250Z 22011KT 9000 BR BKN011 01/M00 Q1005=
201101092220 METAR ESMX 092220Z 22011KT 190V240 9999 BKN009 01/M00 Q1005 REDZ=
201101092150 METAR ESMX 092150Z 20013KT 5000 -DZ BKN006 01/M00 Q1005=
201101092120 METAR ESMX 092120Z 20010KT 180V230 5000 -DZ BKN009 01/M00 Q1005=
201101092050 METAR ESMX 092050Z 20012KT 9999 BKN012 01/M00 Q1004=
201101092020 METAR ESMX 092020Z 20010KT 9999 FEW011 BKN015 01/M00 Q1004=
201101091950 METAR ESMX 091950Z 21012KT 9000 BR FEW010 BKN013 01/M00 Q1004=
201101091920 METAR ESMX 091920Z 21013KT 9000 BR FEW010 BKN013 01/M00 Q1004=
201101091820 METAR ESMX 091820Z 22011KT 9999 FEW012 SCT015 BKN019 01/M00 Q1003=
201101091750 METAR ESMX 091750Z 21011KT 9999 FEW010 BKN013 OVC020 01/M00 Q1003=
201101091720 METAR ESMX 091720Z 21011KT 9000 FEW009 SCT016 BKN019 01/M00 Q1002=
201101091650 METAR ESMX 091650Z 19010KT 9999 FEW007 SCT009 BKN013 01/M00 Q1003=
201101091620 METAR ESMX 091620Z 19009KT 9999 FEW009 BKN012 BKN017 01/M00 Q1002=
201101091550 METAR ESMX 091550Z 19007KT 9999 FEW013 SCT017 BKN021 01/M00 Q1002=
201101091520 METAR ESMX 091520Z 19008KT 9999 FEW009 SCT018 BKN022 01/M00 Q1002=
201101091450 METAR ESMX 091450Z 21007KT 9999 FEW007 SCT012 BKN017 01/00 Q1002=
201101091420 METAR ESMX 091420Z 19007KT 9999 BR FEW005 SCT008 BKN015 01/00 Q1002=
201101091350 METAR ESMX 091350Z 19008KT 8000 BR OVC005 01/00 Q1002=
201101091320 METAR ESMX 091320Z 19007KT 8000 BR OVC005 01/00 Q1002=
201101091250 METAR ESMX 091250Z AUTO 20006KT 7000NDV BR OVC003/// 01/00 Q1001=
201101091220 METAR ESMX 091220Z AUTO 22006KT 6000NDV BR OVC002/// 01/00 Q1002=
201101091150 METAR ESMX 091150Z AUTO 20005KT 6000NDV BR OVC003/// 01/00 Q1001=
201101091120 METAR ESMX 091120Z AUTO 18006KT 150V210 6000NDV BR OVC002/// 01/00 Q1001=
201101091050 METAR ESMX 091050Z AUTO 17006KT 140V200 6000NDV BR OVC002/// 01/00 Q1001=
201101091020 METAR ESMX 091020Z AUTO 17005KT 140V210 7000NDV BR OVC004/// 01/00 Q1002=
201101090950 METAR ESMX 090950Z AUTO 19005KT 7000NDV BR OVC004/// 01/00 Q1002=
201101090920 METAR ESMX 090920Z AUTO 18006KT 7000NDV BR OVC004/// 01/00 Q1002=
201101090850 METAR ESMX 090850Z AUTO 19004KT 7000NDV BR SCT006/// BKN009/// OVC010/// 01/00 Q1002=
201101090820 METAR ESMX 090820Z AUTO 22005KT 9999NDV BKN006/// OVC010/// 01/00 Q1002=
201101090750 METAR ESMX 090750Z AUTO 22007KT 9999NDV FEW007/// BKN009/// 01/00 Q1001=
201101090720 METAR ESMX 090720Z AUTO 21008KT 170V240 9999NDV BKN010/// 01/00 Q1001=
201101090650 METAR ESMX 090650Z AUTO 21008KT 190V250 9999NDV FEW009/// OVC011/// 02/00 Q1001=
201101090620 METAR ESMX 090620Z AUTO 22008KT 9999NDV FEW009/// SCT011/// BKN013/// 02/01 Q1001=
201101090550 METAR ESMX 090550Z AUTO 23010KT 9999NDV FEW006/// SCT010/// BKN012/// 02/01 Q1000=
201101090520 METAR ESMX 090520Z AUTO 20009KT 9999NDV FEW006/// SCT008/// BKN010/// 02/01 Q1000=
201101090450 METAR ESMX 090450Z AUTO 22009KT 9999NDV FEW006/// SCT009/// BKN011/// 02/01 Q1000=
201101090420 METAR ESMX 090420Z AUTO 21010KT 9999NDV FEW006/// SCT008/// BKN010/// 02/01 Q1000=
201101090350 METAR ESMX 090350Z AUTO 21010KT 8000NDV BR FEW006/// BKN008/// OVC011/// 03/02 Q1000=
201101090320 METAR ESMX 090320Z AUTO 21011KT 9999NDV FEW005/// SCT007/// BKN008/// 03/02 Q0999=
201101090250 METAR ESMX 090250Z AUTO 20012KT 8000NDV -DZ BKN005/// OVC008/// 03/02 Q0999=
201101090220 METAR ESMX 090220Z AUTO 22012KT 4000NDV -RA OVC004/// 03/03 Q0999 REDZ=
201101090150 METAR ESMX 090150Z AUTO 21013KT 4800NDV BR OVC004/// 04/03 Q0999=
201101090120 METAR ESMX 090120Z AUTO 21013KT 7000NDV BR OVC004/// 04/03 Q0998=
201101090050 METAR ESMX 090050Z AUTO 20012KT 3200NDV BR OVC005/// 04/03 Q0998=
201101090020 METAR ESMX 090020Z AUTO 19015KT 7000NDV BR FEW005/// OVC007/// 04/03 Q0998=
201101082350 METAR ESMX 082350Z AUTO 18013KT 8000NDV BR FEW004/// SCT006/// BKN008/// 04/03 Q0997=
201101082320 METAR ESMX 082320Z AUTO 18011KT 5000NDV BR OVC002/// 04/03 Q0997=
201101082250 METAR ESMX 082250Z AUTO 17010KT 5000NDV BR OVC002/// 04/03 Q0998=
201101082220 METAR ESMX 082220Z AUTO 17010KT 5000NDV BR OVC002/// 03/03 Q0998=
201101082150 METAR ESMX 082150Z AUTO 16008KT 130V190 5000NDV BR OVC001/// 03/02 Q0998=
201101082120 METAR ESMX 082120Z AUTO 16010KT 2700NDV -RA OVC001/// 02/02 Q0998=
201101082050 METAR ESMX 082050Z AUTO 15008KT 120V190 2800NDV OVC001/// 02/02 Q0998=
201101082020 METAR ESMX 082020Z AUTO 16009KT 1900NDV -DZ OVC001/// 02/02 Q0998=
201101081950 METAR ESMX 081950Z AUTO 16008KT 130V190 0500NDV R01/1600U R19/P2000N -RA VV001 02/02 Q0998=
201101081920 METAR ESMX 081920Z AUTO 15007KT 110V190 0450NDV R01/1500N R19/1600N -DZ VV001 02/01 Q0999 REDZ=
201101081850 METAR ESMX 081850Z AUTO 16008KT 0400NDV R01/1300N R19/1500N -DZ VV001 02/01 Q0999=
201101081820 METAR ESMX 081820Z AUTO 16010KT 120V190 0250NDV R01/0900N R19/1100N DZ VV001 02/02 Q0999=
201101081750 METAR ESMX 081750Z AUTO 16009KT 110V190 0250NDV R01/1000U R19/1100N DZ VV001 02/02 Q0999=
201101081720 METAR ESMX 081720Z AUTO 16007KT 120V200 0200NDV R01/0800 R19/0800N DZ VV001 02/02 Q0999=
201101081650 METAR ESMX 081650Z AUTO 17008KT 140V200 0250NDV R01/0900N R19/1100N DZ VV001 02/02 Q0999=
201101081620 METAR ESMX 081620Z AUTO 17009KT 140V200 0400NDV R01/1300D R19/1600D FG VV001 02/01 Q1000=
201101081550 METAR ESMX 081550Z AUTO 16008KT 120V190 0800NDV R01/P2000N R19/P2000N FG VV002 02/01 Q1000=
201101081520 METAR ESMX 081520Z AUTO 16007KT 110V180 1500NDV BR OVC001/// 02/01 Q1000=
201101081450 METAR ESMX 081450Z AUTO 15005KT 090V190 4200NDV BR OVC001/// 01/01 Q1000=
201101081420 METAR ESMX 081420Z AUTO 16007KT 120V200 6000NDV -DZ OVC001/// 01/01 Q1001=
201101081350 METAR ESMX 081350Z AUTO 15007KT 110V180 6000NDV -RA OVC001/// 01/01 Q1001=
201101081320 METAR ESMX 081320Z AUTO 14006KT 100V210 2500NDV -RA OVC001/// 01/01 Q1002=
201101081250 METAR ESMX 081250Z AUTO 15006KT 110V190 1100NDV R01/1500U R19/1700U -RA VV001 01/00 Q1002 REDZ=
201101081220 METAR ESMX 081220Z AUTO 14006KT 110V180 0600NDV R01/0900U R19/1100N DZ VV001 01/00 Q1002=
201101081150 METAR ESMX 081150Z AUTO 13007KT 090V180 0800NDV R01/1100N R19/1200D FG VV001 01/00 Q1002=
201101081120 METAR ESMX 081120Z AUTO 14006KT 080V190 0900NDV R01/1200N R19/1500N FG VV002 01/00 Q1003=
201101081050 METAR ESMX 081050Z AUTO 14006KT 100V200 1300NDV R01/1500N R19/P2000D BR OVC001/// 01/00 Q1004=
201101081020 METAR ESMX 081020Z AUTO 14006KT 080V200 3700NDV BR OVC002/// 01/00 Q1004=
201101080950 METAR ESMX 080950Z AUTO 14005KT 090V190 7000NDV BR OVC001/// 00/00 Q1004=
201101080920 METAR ESMX 080920Z AUTO 14006KT 070V190 2100NDV UP OVC001/// 00/M00 Q1004=
201101080850 METAR ESMX 080850Z AUTO 14005KT 080V200 2400NDV BR OVC001/// 00/M00 Q1005=
201101080820 METAR ESMX 080820Z AUTO 13006KT 060V170 2900NDV BR OVC001/// M00/M00 Q1005=
201101080750 METAR ESMX 080750Z AUTO 13004KT 080V200 4000NDV BR OVC002/// M00/M01 Q1005=
201101080720 METAR ESMX 080720Z AUTO 13005KT 070V200 4600NDV BR OVC002/// M01/M01 Q1005=
201101080650 METAR ESMX 080650Z AUTO 13004KT 070V200 5000NDV BR OVC003/// M01/M01 Q1006=
201101080620 METAR ESMX 080620Z AUTO 13005KT 070V190 7000NDV BR OVC003/// M01/M01 Q1006=
201101080550 METAR ESMX 080550Z AUTO 11005KT 070V160 8000NDV SG OVC003/// M01/M02 Q1006=
201101080520 METAR ESMX 080520Z AUTO 11005KT 060V190 5000NDV SG OVC003/// M01/M02 Q1006=
201101080450 METAR ESMX 080450Z AUTO 11005KT 060V160 4500NDV -SN OVC004/// M02/M02 Q1007=
201101080420 METAR ESMX 080420Z AUTO 10005KT 050V150 5000NDV -SN FEW005/// BKN007/// BKN015/// M02/M02 Q1007=
201101080350 METAR ESMX 080350Z AUTO 11004KT 070V160 2500NDV -SN FEW002/// OVC005/// M02/M03 Q1007=
201101080320 METAR ESMX 080320Z AUTO 09004KT 040V130 2500NDV -SN OVC001/// M02/M03 Q1008=
201101080250 METAR ESMX 080250Z AUTO 11003KT 070V150 0900NDV R01/P2000N R19/P2000N SG VV001 M03/M03 Q1009=
201101080220 METAR ESMX 080220Z AUTO 09003KT 050V140 0650NDV R01/P2000N R19/P2000N FZFG VV002 M03/M03 Q1009=
201101080150 METAR ESMX 080150Z AUTO 12003KT 070V160 3000NDV BR OVC001/// M03/M03 Q1009=
201101080120 METAR ESMX 080120Z AUTO 12003KT 070V170 5000NDV BR OVC002/// M03/M04 Q1009=
201101080050 METAR ESMX 080050Z AUTO VRB02KT 9999NDV BR OVC001/// M03/M04 Q1010=
201101080020 METAR ESMX 080020Z AUTO VRB02KT 6000NDV OVC001/// M03/M04 Q1010=
201101072350 METAR ESMX 072350Z AUTO VRB01KT 2500NDV VV002 M03/M04 Q1010=
201101072320 METAR ESMX 072320Z AUTO VRB02KT 0700NDV R01/P2000N R19/P2000N FZFG VV002 M03/M04 Q1010=
201101072250 METAR ESMX 072250Z AUTO VRB02KT 0450NDV R01/1200V1900N R19/P2000N=
201101072220 METAR ESMX 072220Z AUTO VRB02KT 0450NDV R01/1100VP2000D R19/P2000N -SN VV001 M04/M04 Q1010=
201101072150 METAR ESMX 072150Z AUTO 16003KT 110V200 0350NDV R01/1000V1500N R19/1700U SG VV001 M03/M04 Q1011=
201101072120 METAR ESMX 072120Z AUTO VRB02KT 0400NDV R01/1100V1700D R19/1200VP2000D FZFG VV001 M03/M04 Q1011=
201101072050 METAR ESMX 072050Z VRB02KT 0250 R01/0800V1300D R19/1500U FZFG VV001 M03/M04 Q1011=
201101072020 METAR ESMX 072020Z 18003KT 0400 R01/0900VP2000U R19/1000V1600U=
201101071950 METAR ESMX 071950Z 19004KT 0700 R01/1000VP2000D R19/P2000N FZFG VV002 M03/M03 Q1011=
201101071920 METAR ESMX 071920Z 21004KT 1200 BR VV002 M03/M03 Q1010=
201101071850 METAR ESMX 071850Z 20006KT 3000 BR BKN002 OVC005 M02/M03 Q1010=
201101071820 METAR ESMX 071820Z 20004KT 9999 FEW007 BKN009 BKN011 M03/M03 Q1010=
201101071750 METAR ESMX 071750Z 20004KT 9999 BKN011 M03/M03 Q1010=
201101071720 METAR ESMX 071720Z 20004KT 9999 BKN013 M04/M05 Q1010=
201101071650 METAR ESMX 071650Z 21005KT 9999 SCT013 M04/M04 Q1009=
201101071620 METAR ESMX 071620Z 21002KT 9999 SCT013 M03/M04 Q1009=
201101071550 METAR ESMX 071550Z 25003KT 9999 SCT015 M02/M03 Q1008=
201101071520 METAR ESMX 071520Z 24005KT 200V260 9999 BKN014 M01/M03 Q1008=
201101071450 METAR ESMX 071450Z 22005KT 9999 FEW017 BKN020 M01/M02 Q1008=
201101071420 METAR ESMX 071420Z 23007KT 200V260 9999 FEW015 BKN020 M00/M02 Q1007=
201101071350 METAR ESMX 071350Z 25007KT 210V280 9999 FEW010 BKN015 M00/M02 Q1007=
201101071320 METAR ESMX 071320Z 22006KT 200V260 9999 SCT010 BKN020 00/M02 Q1006=
201101071250 METAR ESMX 071250Z 24006KT 200V280 9999 FEW013 BKN015 00/M02 Q1006=
201101071220 METAR ESMX 071220Z 23006KT 9999 FEW014 SCT018 00/M02 Q1005=
201101071150 METAR ESMX 071150Z 25008KT 200V290 9999 FEW017 SCT020 00/M02 Q1005=
201101071120 METAR ESMX 071120Z 26005KT 230V310 9999 FEW017 SCT020 00/M02 Q1004=
201101071050 METAR ESMX 071050Z 25007KT 220V290 9999 SCT010 00/M02 Q1004=
201101071020 METAR ESMX 071020Z 27006KT 240V300 9999 FEW007 SCT020 00/M01 Q1003=
201101070850 METAR ESMX 070850Z 25006KT 210V280 9999 SCT010 BKN016 00/M01 Q1001=
201101070820 METAR ESMX 070820Z 27007KT 230V290 9999 BKN010 01/M01 Q1001=
201101070750 METAR ESMX 070750Z 26007KT 9999 FEW005 BKN009 01/M00 Q1000=
201101070720 METAR ESMX 070720Z AUTO 24006KT 200V270 8000NDV BR OVC003/// 01/00 Q0999=
201101070650 METAR ESMX 070650Z AUTO 25005KT 7000NDV BR OVC002/// 00/00 Q0999=
201101070620 METAR ESMX 070620Z AUTO 26007KT 6000NDV BR OVC001/// 00/M00 Q0998=
201101070550 METAR ESMX 070550Z AUTO 25004KT 5000NDV BR OVC001/// 00/M00 Q0998=
201101070520 METAR ESMX 070520Z AUTO 21005KT 7000NDV BR OVC002/// 00/M00 Q0997=
201101070450 METAR ESMX 070450Z AUTO 20004KT 8000NDV BR OVC002/// 00/M00 Q0997=
201101070420 METAR ESMX 070420Z AUTO 18004KT 4500NDV SG OVC002/// 00/M00 Q0996=
201101070350 METAR ESMX 070350Z AUTO 18003KT 2900NDV -SN OVC002/// 00/M00 Q0996=
201101070320 METAR ESMX 070320Z AUTO 18002KT 1500NDV -SN OVC002/// 00/M00 Q0996=
201101070250 METAR ESMX 070250Z AUTO 15002KT 1400NDV R01/P2000N R19/P2000N -SN BKN002/// 00/M00 Q0996=
201101070220 METAR ESMX 070220Z AUTO 16001KT 1200NDV R01/P2000N R19/P2000N -SN VV004 00/M00 Q0996=
201101070150 METAR ESMX 070150Z AUTO 17003KT 1200NDV R01/P2000N R19/P2000N -SN OVC001/// 00/M00 Q0996=
201101070120 METAR ESMX 070120Z AUTO 16004KT 1100NDV R01/P2000N R19/P2000N -SN OVC001/// 00/M00 Q0996 REUP=
201101070050 METAR ESMX 070050Z 16005KT 120V190 0800 R01/P2000N R19/P2000N FG VV002 00/M00 Q0996=
201101070020 METAR ESMX 070020Z 16005KT 130V190 2200 BR OVC002 00/M00 Q0996=
201101062350 METAR ESMX 062350Z 16005KT 140V200 3500 BR OVC002 00/M00 Q0996=
201101062320 METAR ESMX 062320Z 17008KT 4000 BR OVC002 00/M00 Q0996=
201101062250 METAR ESMX 062250Z 16008KT 120V200 2500 BR OVC002 00/M00 Q0996=
201101062220 METAR ESMX 062220Z 17008KT 2500 BR OVC002 00/M00 Q0996=
201101062150 METAR ESMX 062150Z 16007KT 4000 BR OVC003 00/M00 Q0996=
201101062120 METAR ESMX 062120Z 18008KT 130V210 5000 BR OVC004 00/M00 Q0996=
201101062050 METAR ESMX 062050Z 18007KT 150V210 5000 -SN BR OVC004 00/M00 Q0996=
201101062020 METAR ESMX 062020Z 17008KT 150V210 5000 -SN BR OVC004 00/M00 Q0996=
201101061950 METAR ESMX 061950Z 17008KT 130V210 5000 BR OVC003 00/M00 Q0995=
201101061920 METAR ESMX 061920Z 16008KT 110V180 4500 BR OVC003 M00/M00 Q0995=
201101061850 METAR ESMX 061850Z 17008KT 140V200 4500 BR OVC003 M00/M00 Q0995=
201101061820 METAR ESMX 061820Z 17008KT 140V200 5000 BR OVC003 M00/M01 Q0995=
201101061750 METAR ESMX 061750Z 17008KT 5000 OVC003 M00/M01 Q0995=
201101061720 METAR ESMX 061720Z 18009KT 3500 OVC002 M00/M01 Q0995=
201101061650 METAR ESMX 061650Z 18010KT 0800 R01/P2000N R19/P2000N FZFG OVC002 M01/M01 Q0995=
201101061620 METAR ESMX 061620Z 18010KT 0800 R01/1500N R19/1600N FZFG VV002 M01/M01 Q0995=
201101061550 METAR ESMX 061550Z 18009KT 1000 R01/1900D R19/P2000D FZFG VV002 M01/M01 Q0994=
201101061520 METAR ESMX 061520Z 18009KT 2000 BR OVC002 M01/M01 Q0994=
201101061450 METAR ESMX 061450Z 19010KT 3000 BR OVC003 M01/M02 Q0994=
201101061420 METAR ESMX 061420Z 18009KT 4000 BR OVC003 M01/M02 Q0994=
201101061350 METAR ESMX 061350Z 18010KT 6000 BR BKN004 OVC007 M01/M02 Q0993=
201101061320 METAR ESMX 061320Z 18009KT 3000 -SN OVC006 M01/M02 Q0993=
201101061250 METAR ESMX 061250Z 18010KT 9000 BR OVC007 M02/M02 Q0993=
201101061220 METAR ESMX 061220Z AUTO 17011KT 140V200 6000NDV SG FEW006/// SCT008/// BKN010/// M02/M03 Q0993=
201101061150 METAR ESMX 061150Z AUTO 18009KT 3400NDV -SN FEW006/// SCT008/// BKN010/// M02/M03 Q0993=
201101061120 METAR ESMX 061120Z AUTO 18009KT 2100NDV -SN SCT004/// BKN007/// M02/M03 Q0993=
201101061050 METAR ESMX 061050Z AUTO 18009KT 140V200 1500NDV -SN SCT005/// BKN007/// M02/M03 Q0993=
201101061020 METAR ESMX 061020Z AUTO 16009KT 1600NDV -SN FEW003/// BKN006/// BKN011/// M03/M03 Q0993=
201101060950 METAR ESMX 060950Z AUTO 17009KT 140V200 1700NDV -SN FEW001/// SCT005/// BKN006/// M03/M03 Q0994=
201101060920 METAR ESMX 060920Z AUTO 16010KT 120V190 0800NDV R01/1400N R19/1400N SN VV003 M03/M03 Q0994=
201101060850 METAR ESMX 060850Z AUTO 16012KT 130V190 0500NDV R01/1500N R19/1300 SN VV003 M03/M04 Q0994=
201101060820 METAR ESMX 060820Z AUTO 17010KT 130V210 0800NDV R01/1900N R19/1900N -SN FEW003/// BKN005/// BKN007/// M03/M04 Q0994=
201101060750 METAR ESMX 060750Z AUTO 16009KT 120V190 0900NDV R01/1900U R19/1900D -SN VV004 M03/M04 Q0994=
201101060720 METAR ESMX 060720Z AUTO 15010KT 120V180 1300NDV R01/P2000N R19/P2000N -SN SCT005/// BKN009/// OVC010/// M03/M04 Q0995=
201101060650 METAR ESMX 060650Z AUTO 14010KT 100V170 1400NDV R01/P2000N R19/P2000N -SN SCT005/// BKN008/// BKN011/// M03/M04 Q0995=
201101060620 METAR ESMX 060620Z AUTO 14010G22KT 090V180 1100NDV R01/P2000N R19/P2000N -SN FEW005/// SCT008/// BKN010/// M04/M05 Q0995=
201101060550 METAR ESMX 060550Z AUTO 15011KT 110V190 4900NDV -SN OVC010/// M03/M05 Q0996=
201101060520 METAR ESMX 060520Z AUTO 15010KT 100V200 9000NDV OVC010/// M04/M06 Q0997=
201101060450 METAR ESMX 060450Z AUTO 15009KT 100V200 9999NDV OVC010/// M04/M06 Q0998=
201101060420 METAR ESMX 060420Z AUTO 15009KT 100V190 9999NDV OVC012/// M04/M06 Q0999=
201101060350 METAR ESMX 060350Z AUTO 14010KT 100V180 9999NDV BKN012/// OVC016/// M04/M06 Q1000=
201101060320 METAR ESMX 060320Z AUTO 16010KT 110V190 9999NDV OVC012/// M04/M06 Q1000=
201101060250 METAR ESMX 060250Z AUTO 16013KT 120V190 9999NDV BR OVC011/// M04/M06 Q1001=
201101060220 METAR ESMX 060220Z AUTO 16010G21KT 110V200 9999NDV BR OVC011/// M04/M06 Q1002=
201101060150 METAR ESMX 060150Z AUTO 16011KT 120V200 9999NDV BR OVC011/// M04/M06 Q1003=
201101060120 METAR ESMX 060120Z AUTO 16013G24KT 120V190 8000NDV BR OVC009/// M04/M06 Q1003=
201101060050 METAR ESMX 060050Z AUTO 16009KT 120V220 9000NDV OVC009/// M04/M06 Q1003=
201101060020 METAR ESMX 060020Z AUTO 16009KT 110V200 9999NDV OVC010/// M04/M06 Q1004=
201101052350 METAR ESMX 052350Z AUTO 15009KT 110V200 9999NDV OVC009/// M04/M06 Q1005=
201101052320 METAR ESMX 052320Z AUTO 17010KT 140V200 9999NDV FEW009/// OVC011/// M04/M06 Q1005=
201101052250 METAR ESMX 052250Z AUTO 16010KT 130V200 9999NDV OVC011/// M04/M06 Q1006=
201101052220 METAR ESMX 052220Z AUTO 17008KT 9999NDV BKN012/// OVC016/// M03/M06 Q1006=
201101052150 METAR ESMX 052150Z AUTO 17010KT 9999NDV OVC012/// M03/M06 Q1007=
201101052120 METAR ESMX 052120Z AUTO 18009KT 9999NDV OVC011/// M03/M05 Q1007=
201101052050 METAR ESMX 052050Z AUTO 17009KT 9999NDV OVC009/// M03/M05 Q1007=
201101052020 METAR ESMX 052020Z AUTO 18009KT 9999NDV OVC008/// M03/M05 Q1007=
201101051950 METAR ESMX 051950Z AUTO 16008KT 120V190 9000NDV BR FEW007/// SCT009/// BKN011/// M04/M05 Q1007=
201101051920 METAR ESMX 051920Z AUTO 17007KT 140V200 9000NDV BR FEW008/// M04/M05 Q1008=
201101051850 METAR ESMX 051850Z AUTO 17008KT 8000NDV BR FEW006/// M03/M05 Q1008=
201101051820 METAR ESMX 051820Z AUTO 17009KT 140V200 7000NDV BR FEW006/// SCT008/// M03/M04 Q1008=
201101051750 METAR ESMX 051750Z AUTO 17008KT 130V210 7000NDV BR NCD M03/M04 Q1008=
201101051720 METAR ESMX 051720Z AUTO 16008KT 120V190 7000NDV BR NCD M03/M04 Q1008=
201101051650 METAR ESMX 051650Z 16008KT 140V200 8000 BR NSC M02/M04 Q1008=
201101051620 METAR ESMX 051620Z 17008KT 9000 BR FEW010 M02/M04 Q1009=
201101051550 METAR ESMX 051550Z 16008KT 130V190 9999 BR BKN020 M02/M04 Q1009=
201101051520 METAR ESMX 051520Z 18007KT 9999 BR BKN013 M02/M03 Q1009=
201101051450 METAR ESMX 051450Z 17007KT 9999 BR BKN011 M02/M03 Q1009=
201101051420 METAR ESMX 051420Z 18008KT 9999 BR BKN009 M01/M03 Q1009=
201101051350 METAR ESMX 051350Z 18010KT 9000 BR FEW009 BKN011 OVC014 M01/M03 Q1009=
201101051320 METAR ESMX 051320Z 19011KT 9000 BR FEW008 BKN010 OVC032 M01/M02 Q1009=
201101051250 METAR ESMX 051250Z 19011KT 7000 BR OVC006 M01/M02 Q1009=
201101051220 METAR ESMX 051220Z 19010KT 6000 BR OVC005 M01/M02 Q1009 RESG=
201101051150 METAR ESMX 051150Z AUTO 19010KT 4300NDV SG BKN005/// OVC008/// M01/M02 Q1009=
201101051120 METAR ESMX 051120Z AUTO 18008KT 1500NDV -SN FEW005/// SCT006/// BKN008/// M01/M02 Q1009=
201101051050 METAR ESMX 051050Z AUTO 18008KT 2900NDV -SN FEW006/// BKN007/// OVC009/// M01/M02 Q1009=
201101051020 METAR ESMX 051020Z AUTO 19009KT 2300NDV -SN SCT006/// OVC009/// M01/M02 Q1009=
201101050950 METAR ESMX 050950Z AUTO 19009KT 2600NDV -SN FEW006/// BKN007/// OVC009/// M01/M02 Q1009=
201101050920 METAR ESMX 050920Z AUTO 19009KT 2900NDV -SN FEW005/// SCT007/// BKN008/// M01/M02 Q1009=
201101050850 METAR ESMX 050850Z AUTO 19009KT 1500NDV -SN FEW005/// SCT006/// OVC007/// M01/M02 Q1009=
201101050820 METAR ESMX 050820Z AUTO 19009KT 2000NDV -SN FEW005/// BKN006/// OVC008/// M01/M02 Q1009=
201101050750 METAR ESMX 050750Z AUTO 18008KT 2000NDV -SN FEW004/// BKN006/// OVC009/// M01/M02 Q1009=
201101050720 METAR ESMX 050720Z AUTO 19008KT 1700NDV -SN BKN005/// OVC008/// M01/M02 Q1009=
201101050650 METAR ESMX 050650Z AUTO 19008KT 1600NDV -SN FEW005/// OVC006/// M01/M02 Q1009=
201101050620 METAR ESMX 050620Z AUTO 19008KT 1600NDV -SN FEW006/// BKN007/// OVC010/// M01/M02 Q1008=
201101050550 METAR ESMX 050550Z AUTO 21008KT 7000NDV BR OVC006/// M01/M02 Q1008=
201101050520 METAR ESMX 050520Z AUTO 21008KT 7000NDV -SN OVC006/// M01/M02 Q1008=
201101050450 METAR ESMX 050450Z AUTO 20008KT 6000NDV SG OVC006/// M01/M02 Q1008=
201101050420 METAR ESMX 050420Z AUTO 21008KT 6000NDV SG OVC006/// M01/M02 Q1008=
201101050350 METAR ESMX 050350Z AUTO 21009KT 6000NDV -SN OVC006/// M01/M02 Q1008=
201101050320 METAR ESMX 050320Z AUTO 21009KT 5000NDV -SN FEW004/// BKN007/// M01/M02 Q1008=
201101050250 METAR ESMX 050250Z AUTO 19008KT 1000NDV R01/P2000N R19/P2000N -SN FEW005/// SCT007/// BKN008/// M01/M02 Q1009=
201101050220 METAR ESMX 050220Z AUTO 21009KT 2500NDV -SN FEW006/// SCT007/// BKN009/// M01/M02 Q1009=
201101050150 METAR ESMX 050150Z AUTO 19009KT 2600NDV -SN FEW006/// SCT007/// BKN009/// M01/M02 Q1009=
201101050120 METAR ESMX 050120Z 19010KT 2400 -SN SCT006 BKN008 OVC010 M01/M02 Q1009=
201101050050 METAR ESMX 050050Z 19010KT 3400 -SN FEW005 SCT008 BKN009 M01/M01 Q1009=
201101050020 METAR ESMX 050020Z 19010KT 2200 -SN FEW006 SCT007 BKN008 M01/M01 Q1009=
201101042350 METAR ESMX 042350Z 19011KT 2900 -SN FEW005 SCT007 BKN010 M01/M01 Q1009=
201101042320 METAR ESMX 042320Z 18009KT 1500 -SN BKN005 M01/M02 Q1009=
201101042250 METAR ESMX 042250Z 18009KT 2200 -SN FEW005 BKN006 M01/M02 Q1009=
201101042220 METAR ESMX 042220Z 18010KT 2000 -SN BKN005 OVC008 M01/M02 Q1009=
201101042150 METAR ESMX 042150Z 18009KT 2600 -SN FEW004 OVC006 M01/M02 Q1009=
201101042120 METAR ESMX 042120Z 19010KT 1900 -SN OVC004 M01/M02 Q1009=
201101042050 METAR ESMX 042050Z 19010KT 2500 -SN OVC005 M01/M02 Q1009 RESG=
201101042020 METAR ESMX 042020Z 19011KT 3500 -SN OVC005 M01/M02 Q1009=
201101041950 METAR ESMX 041950Z 19011KT 5000 BR OVC005 M01/M02 Q1009=
201101041920 METAR ESMX 041920Z 19011KT 6000 BR OVC006 M01/M02 Q1009=
201101041850 METAR ESMX 041850Z 19011KT 8000 BR OVC006 M01/M02 Q1009=
201101041820 METAR ESMX 041820Z 19010KT 9000 BR OVC006 M01/M02 Q1010=
201101041750 METAR ESMX 041750Z 19009KT 8000 -SN OVC006 M01/M02 Q1010 RESG=
201101041720 METAR ESMX 041720Z 19008KT 8000 -SN OVC006 M01/M02 Q1010=
201101041650 METAR ESMX 041650Z 19008KT 9999 -SG OVC007 M01/M02 Q1010=
201101041620 METAR ESMX 041620Z 20008KT 9999 -SG OVC009 M01/M02 Q1010=
201101041550 METAR ESMX 041550Z 21008KT 9999 FEW009 BKN014 OVC017 M01/M02 Q1010=
201101041520 METAR ESMX 041520Z 20008KT 9999 FEW010 BKN017 OVC025 M01/M02 Q1010=
201101041450 METAR ESMX 041450Z 22007KT 9999 FEW009 BKN011 OVC018 M01/M02 Q1010=
201101041420 METAR ESMX 041420Z 20006KT 9999 FEW009 BKN012 M01/M02 Q1010=
201101041350 METAR ESMX 041350Z 20006KT 9999 FEW010 BKN012 M01/M02 Q1010=
201101041320 METAR ESMX 041320Z AUTO 22006KT 190V260 9999NDV FEW009/// OVC012/// M01/M02 Q1010=
201101041250 METAR ESMX 041250Z AUTO 23006KT 9999NDV OVC009/// M01/M02 Q1010=
201101041220 METAR ESMX 041220Z AUTO 23007KT 210V270 9999NDV OVC010/// M01/M02 Q1010=
201101041150 METAR ESMX 041150Z AUTO 23008KT 9999NDV FEW008/// BKN010/// OVC014/// M01/M02 Q1010=
201101041120 METAR ESMX 041120Z AUTO 23006KT 200V270 9999NDV FEW007/// OVC009/// M01/M02 Q1010=
201101041050 METAR ESMX 041050Z AUTO 24006KT 9999NDV BKN007/// BKN010/// M01/M02 Q1010=
201101041020 METAR ESMX 041020Z AUTO 24008KT 9999NDV OVC006/// M01/M02 Q1010=
201101040950 METAR ESMX 040950Z AUTO 24007KT 9999NDV FEW006/// BKN007/// M01/M02 Q1010=
201101040920 METAR ESMX 040920Z AUTO 25008KT 9999NDV BKN007/// OVC010/// M01/M02 Q1010=
201101040850 METAR ESMX 040850Z AUTO 25007KT 210V280 9999NDV BKN005/// OVC008/// M01/M02 Q1010=
201101040820 METAR ESMX 040820Z AUTO 24007KT 210V280 9999NDV OVC005/// M01/M01 Q1010=
201101040750 METAR ESMX 040750Z AUTO 22006KT 200V260 7000NDV -SN SCT005/// BKN007/// OVC008/// M01/M02 Q1009 RESG=
201101040720 METAR ESMX 040720Z AUTO 24006KT 9999NDV -SN OVC005/// M01/M01 Q1009=
201101040650 METAR ESMX 040650Z AUTO 24006KT 210V280 8000NDV -SN OVC004/// M01/M02 Q1009=
201101040620 METAR ESMX 040620Z AUTO 24006KT 6000NDV -SN FEW004/// OVC006/// M01/M02 Q1009=
201101040550 METAR ESMX 040550Z AUTO 25006KT 5000NDV -SN SCT005/// BKN007/// OVC009/// M01/M02 Q1009=
201101040520 METAR ESMX 040520Z AUTO 25006KT 2300NDV -SN OVC005/// M02/M02 Q1009=
201101040450 METAR ESMX 040450Z AUTO 25006KT 220V290 5000NDV -SN OVC005/// M02/M03 Q1009=
201101040420 METAR ESMX 040420Z AUTO 25006KT 2800NDV -SN BKN006/// BKN009/// M03/M03 Q1009=
201101040350 METAR ESMX 040350Z AUTO 26007KT 2000NDV -SN BKN006/// BKN008/// M03/M03 Q1009=
201101040320 METAR ESMX 040320Z AUTO 24006KT 210V270 2500NDV -SN FEW006/// SCT008/// M04/M04 Q1009=
201101040250 METAR ESMX 040250Z AUTO 23007KT 1600NDV -SN NCD M04/M05 Q1009=
201101040220 METAR ESMX 040220Z AUTO 23006KT 0800NDV R01/P2000N R19/P2000N -SN NCD M04/M05 Q1009=
201101040150 METAR ESMX 040150Z AUTO 24007KT 1100NDV R01/P2000N R19/P2000N -SN NCD M04/M05 Q1010=
201101040120 METAR ESMX 040120Z AUTO 22007KT 0700NDV R01/P2000N R19/P2000 SN FEW006/// M05/M06 Q1010=
201101040050 METAR ESMX 040050Z AUTO 21007KT 0900NDV R01/P2000N R19/P2000N -SN NCD M05/M06 Q1010=
201101040020 METAR ESMX 040020Z 19007KT 0600 R01/1900D R19/P2000N SN VV005 M05/M06 Q1010=
201101032350 METAR ESMX 032350Z 20006KT 0750 R01/P2000D R19/P2000N SN SCT006 M05/M06 Q1011=
201101032320 METAR ESMX 032320Z 20005KT 0650 R01/P2000N R19/P2000N SN FEW006 M05/M06 Q1011=
201101032250 METAR ESMX 032250Z 19005KT 0650 R01/P2000N R19/P2000 SN FEW006 M06/M07 Q1011=
201101032220 METAR ESMX 032220Z 21006KT 1000 R01/P2000N R19/P2000N -SN FEW006 SCT018 M06/M07 Q1011=
201101032150 METAR ESMX 032150Z 20005KT 2900 -SN FEW008 SCT020 M07/M08 Q1012=
201101032120 METAR ESMX 032120Z 22005KT 9999 FEW040 M07/M08 Q1012=
201101032050 METAR ESMX 032050Z 22005KT CAVOK M08/M09 Q1012=
201101032020 METAR ESMX 032020Z 22004KT CAVOK M08/M09 Q1012=
201101031950 METAR ESMX 031950Z 22004KT CAVOK M09/M09 Q1012=
201101031920 METAR ESMX 031920Z 21003KT CAVOK M08/M09 Q1013=
201101031850 METAR ESMX 031850Z 22002KT CAVOK M08/M09 Q1013=
201101031820 METAR ESMX 031820Z 23003KT CAVOK M08/M09 Q1013=
201101031750 METAR ESMX 031750Z 24003KT CAVOK M08/M09 Q1013=
201101031720 METAR ESMX 031720Z 23005KT CAVOK M07/M08 Q1013=
201101031650 METAR ESMX 031650Z 25005KT CAVOK M06/M08 Q1013=
201101031620 METAR ESMX 031620Z 25006KT CAVOK M06/M08 Q1013=
201101031550 METAR ESMX 031550Z 26006KT CAVOK M07/M09 Q1013=
201101031520 METAR ESMX 031520Z 26005KT CAVOK M07/M09 Q1013=
201101031450 METAR ESMX 031450Z 26005KT CAVOK M07/M09 Q1013=
201101031420 METAR ESMX 031420Z 26007KT CAVOK M06/M09 Q1013=
201101031350 METAR ESMX 031350Z 27005KT CAVOK M07/M09 Q1013=
201101031320 METAR ESMX 031320Z 26004KT 240V300 CAVOK M07/M09 Q1013=
201101031250 METAR ESMX 031250Z 27004KT CAVOK M06/M09 Q1014=
201101031220 METAR ESMX 031220Z 26004KT 230V290 CAVOK M07/M09 Q1014=
201101031150 METAR ESMX 031150Z AUTO 27003KT 250V310 9999NDV OVC063/// M07/M09 Q1014=
201101031120 METAR ESMX 031120Z AUTO 28005KT 9999NDV OVC064/// M07/M09 Q1014=
201101031050 METAR ESMX 031050Z AUTO 28004KT 250V330 9999NDV OVC067/// M08/M09 Q1014=
201101031020 METAR ESMX 031020Z AUTO 27003KT 9999NDV BKN068/// M09/M10 Q1014=
201101030950 METAR ESMX 030950Z AUTO 30003KT 260V330 9999NDV BKN065/// M09/M11 Q1014=
201101030920 METAR ESMX 030920Z AUTO VRB02KT 9999NDV FEW067/// M11/M12 Q1014=
201101030850 METAR ESMX 030850Z AUTO 29003KT 260V320 9999NDV NCD M12/M14 Q1014=
201101030820 METAR ESMX 030820Z AUTO 30002KT 9999NDV NCD M14/M15 Q1014=
201101030750 METAR ESMX 030750Z AUTO 28003KT 9999NDV NCD M14/M15 Q1014=
201101030720 METAR ESMX 030720Z AUTO 28004KT 9999NDV NCD M14/M15 Q1014=
201101030650 METAR ESMX 030650Z AUTO 29002KT 9999NDV NCD M14/M16 Q1013=
201101030620 METAR ESMX 030620Z AUTO 28002KT 9999NDV NCD M13/M14 Q1013=
201101030550 METAR ESMX 030550Z AUTO 27002KT 9999NDV NCD M13/M15 Q1013=
201101030520 METAR ESMX 030520Z AUTO 28002KT 9999NDV NCD M13/M14 Q1013=
201101030450 METAR ESMX 030450Z AUTO 26004KT 9999NDV FEW063/// M14/M15 Q1013=
201101030420 METAR ESMX 030420Z AUTO 27002KT 9999NDV BKN059/// M12/M13 Q1013=
201101030350 METAR ESMX 030350Z AUTO 27003KT 9999NDV FEW059/// M12/M13 Q1013=
201101030320 METAR ESMX 030320Z AUTO 25002KT 9999NDV NCD M11/M12 Q1013=
201101030250 METAR ESMX 030250Z AUTO 27003KT 9999NDV NCD M12/M14 Q1013=
201101030220 METAR ESMX 030220Z AUTO 29003KT 9999NDV NCD M11/M13 Q1013=
201101030150 METAR ESMX 030150Z AUTO 28003KT 9999NDV NCD M11/M12 Q1013=
201101030120 METAR ESMX 030120Z AUTO 29005KT 9999NDV NCD M11/M11 Q1013=
201101030050 METAR ESMX 030050Z 29005KT CAVOK M12/M13 Q1013=
201101030020 METAR ESMX 030020Z VRB02KT CAVOK M12/M14 Q1013=
201101022350 METAR ESMX 022350Z VRB02KT CAVOK M10/M11 Q1012=
201101022320 METAR ESMX 022320Z 29006KT CAVOK M09/M10 Q1012=
201101022250 METAR ESMX 022250Z 29005KT CAVOK M09/M10 Q1012=
201101022220 METAR ESMX 022220Z 29005KT CAVOK M09/M10 Q1013=
201101022150 METAR ESMX 022150Z 30004KT 270V340 9999 SCT045 M09/M10 Q1012=
201101022120 METAR ESMX 022120Z 28005KT 9999 SCT040 M08/M09 Q1012=
201101022050 METAR ESMX 022050Z 28003KT 9999 FEW040 M09/M10 Q1012=
201101022020 METAR ESMX 022020Z 28003KT 9999 SCT040 M09/M10 Q1012=
201101021950 METAR ESMX 021950Z 32004KT 290V350 9999 SCT040 M08/M09 Q1012=
201101021920 METAR ESMX 021920Z 30004KT 9999 BKN040 M07/M08 Q1012=
201101021850 METAR ESMX 021850Z 31005KT 280V350 9999 SCT035 M07/M08 Q1012=
201101021820 METAR ESMX 021820Z 30007KT 9999 SCT035 M06/M08 Q1011=
201101021750 METAR ESMX 021750Z 30006KT CAVOK M07/M08 Q1011=
201101021720 METAR ESMX 021720Z 29005KT CAVOK M06/M08 Q1011=
201101021650 METAR ESMX 021650Z 29004KT CAVOK M06/M08 Q1011=
201101021620 METAR ESMX 021620Z 28004KT 9999 FEW042 SCT063 M06/M07 Q1011=
201101021550 METAR ESMX 021550Z 29005KT 9999 FEW040 M05/M07 Q1011=
201101021520 METAR ESMX 021520Z 29005KT 9999 SCT039 M05/M07 Q1011=
201101021450 METAR ESMX 021450Z 28007KT 9999 SCT039 M05/M07 Q1011=
201101021420 METAR ESMX 021420Z 29006KT 9999 SCT038 M04/M07 Q1010=
201101021320 METAR ESMX 021320Z 28005KT 9999 FEW042 M03/M06 Q1010=
201101021250 METAR ESMX 021250Z AUTO 30005KT 280V340 9999NDV BKN042/// M03/M06 Q1010=
201101021220 METAR ESMX 021220Z AUTO 29005KT 260V330 9999NDV BKN046/// M03/M06 Q1010=
201101021150 METAR ESMX 021150Z AUTO 28006KT 9999NDV NCD M04/M06 Q1010=
201101021120 METAR ESMX 021120Z AUTO 33003KT 290V010 9999NDV FEW044/// M04/M07 Q1010=
201101021050 METAR ESMX 021050Z AUTO 30006KT 9999NDV FEW051/// M05/M07 Q1009=
201101021020 METAR ESMX 021020Z AUTO 30006KT 9999NDV FEW033/// SCT042/// M05/M07 Q1009=
201101020950 METAR ESMX 020950Z AUTO 29006KT 9999NDV NCD M05/M07 Q1009=
201101020920 METAR ESMX 020920Z AUTO 29006KT 9999NDV NCD M06/M08 Q1009=
201101020850 METAR ESMX 020850Z AUTO 28004KT 9999NDV OVC043/// M06/M07 Q1009=
201101020820 METAR ESMX 020820Z AUTO 28005KT 9999NDV BKN044/// M06/M07 Q1008=
201101020750 METAR ESMX 020750Z AUTO 29005KT 9999NDV OVC037/// M05/M07 Q1008=
201101020720 METAR ESMX 020720Z AUTO 29004KT 9999NDV BKN035/// M05/M07 Q1008=
201101020650 METAR ESMX 020650Z AUTO 29007KT 9999NDV NCD M06/M07 Q1008=
201101020620 METAR ESMX 020620Z AUTO 29006KT 9999NDV NCD M06/M07 Q1007=
201101020550 METAR ESMX 020550Z AUTO 29006KT 9999NDV NCD M06/M07 Q1007=
201101020520 METAR ESMX 020520Z AUTO 29006KT 9999NDV NCD M05/M07 Q1007=
201101020450 METAR ESMX 020450Z AUTO 29007KT 9999NDV NCD M05/M07 Q1007=
201101020420 METAR ESMX 020420Z AUTO 29008KT 9999NDV NCD M05/M07 Q1006=
201101020350 METAR ESMX 020350Z AUTO 30007KT 9999NDV FEW026/// M05/M07 Q1006=
201101020320 METAR ESMX 020320Z AUTO 30006KT 9999NDV NCD M05/M07 Q1006=
201101020250 METAR ESMX 020250Z AUTO 30006KT 9999NDV NCD M05/M07 Q1006=
201101020220 METAR ESMX 020220Z AUTO 30007KT 9999NDV NCD M05/M07 Q1006=
201101020150 METAR ESMX 020150Z AUTO 29007KT 9999NDV NCD M05/M07 Q1006=
201101020120 METAR ESMX 020120Z AUTO 29008KT 9999NDV NCD M05/M07 Q1006=
201101020050 METAR ESMX 020050Z AUTO 30006KT 9999NDV NCD M05/M07 Q1006=
201101020020 METAR ESMX 020020Z AUTO 28006KT 9999NDV NCD M05/M07 Q1005=
201101012350 METAR ESMX 012350Z AUTO 27006KT 9999NDV NCD M06/M08 Q1005=
201101012320 METAR ESMX 012320Z AUTO 27004KT 240V300 9999NDV NCD M05/M08 Q1005=
201101012250 METAR ESMX 012250Z AUTO 28005KT 9999NDV BKN042/// M05/M08 Q1005=
201101012220 METAR ESMX 012220Z AUTO 29005KT 9999NDV FEW045/// M05/M08 Q1005=
201101012150 METAR ESMX 012150Z AUTO 28004KT 9999NDV NCD M05/M07 Q1005=
201101012120 METAR ESMX 012120Z AUTO 27005KT 9999NDV NCD M04/M07 Q1004=
201101012050 METAR ESMX 012050Z AUTO 29006KT 9999NDV NCD M04/M07 Q1004=
201101012020 METAR ESMX 012020Z AUTO 29006KT 9999NDV NCD M04/M07 Q1004=
201101011950 METAR ESMX 011950Z AUTO 31006KT 9999NDV NCD M04/M07 Q1004=
201101011920 METAR ESMX 011920Z AUTO 31006KT 9999NDV NCD M03/M07 Q1004=
201101011850 METAR ESMX 011850Z AUTO 33009KT 9999NDV NCD M03/M07 Q1003=
201101011820 METAR ESMX 011820Z AUTO 32009KT 9999NDV NCD M03/M07 Q1003=
201101011750 METAR ESMX 011750Z AUTO 32009KT 290V350 9999NDV NCD M03/M06 Q1003=
201101011720 METAR ESMX 011720Z AUTO 32011KT 9999NDV FEW025/// M02/M06 Q1002=
201101011650 METAR ESMX 011650Z AUTO 31013KT 9999NDV OVC025/// M02/M06 Q1002=
201101011620 METAR ESMX 011620Z AUTO 32014KT 9999NDV BKN025/// M01/M06 Q1002=
201101011550 METAR ESMX 011550Z AUTO 33013KT 290V360 9999NDV OVC025/// M01/M06 Q1001=
201101011520 METAR ESMX 011520Z AUTO 32013KT 9999NDV BKN025/// M01/M06 Q1001=
201101011450 METAR ESMX 011450Z AUTO 32013KT 280V350 9999NDV OVC026/// M01/M06 Q1000=
201101011420 METAR ESMX 011420Z AUTO 32014G24KT 9999NDV BKN027/// M01/M06 Q1000=
201101011350 METAR ESMX 011350Z AUTO 32014KT 9999NDV OVC027/// M00/M05 Q1000=
201101011320 METAR ESMX 011320Z AUTO 31020KT 9999NDV OVC028/// M00/M05 Q0999=
201101011250 METAR ESMX 011250Z AUTO 33015KT 290V360 9999NDV OVC028/// M00/M06 Q0998=
201101011220 METAR ESMX 011220Z AUTO 32017KT 9999NDV OVC026/// M00/M05 Q0998=
