##########################################################
# Query made at 04/19/2024 21:23:11 UTC
# Time interval: from 07/01/2011 12:00  to 07/31/2011 12:59  UTC
##########################################################

##########################################################
# ESMX, Vaxjo (Sweden)
# WMO index: 02641. WIGOS ID: 0-20000-0-02648
# Latitude 56-51N. Longitude 014-50E. Altitude 199 m.
##########################################################

201107311250 METAR ESMX 311250Z VRB04KT CAVOK 24/14 Q1012=
201107311220 METAR ESMX 311220Z 02005KT 340V060 CAVOK 23/15 Q1012=
201107311150 METAR ESMX 311150Z 35003KT 290V100 CAVOK 23/15 Q1012=
201107311120 METAR ESMX 311120Z 33005KT 300V020 CAVOK 22/16 Q1012=
201107311050 METAR ESMX 311050Z 02004KT 320V070 9999 FEW020 22/16 Q1012=
201107311020 METAR ESMX 311020Z AUTO 01006KT 9999NDV FEW019/// 21/16 Q1012=
201107310950 METAR ESMX 310950Z AUTO 06005KT 010V080 9999NDV FEW016/// SCT018/// 21/16 Q1012=
201107310920 METAR ESMX 310920Z AUTO 04008KT 360V080 9999NDV FEW015/// SCT020/// 20/16 Q1012=
201107310850 METAR ESMX 310850Z AUTO 36009KT 9999NDV FEW013/// SCT020/// 20/16 Q1012=
201107310820 METAR ESMX 310820Z AUTO 01008KT 330V050 9999NDV FEW013/// SCT016/// BKN019/// 20/16 Q1012=
201107310750 METAR ESMX 310750Z AUTO 03007KT 350V060 9999NDV FEW011/// BKN014/// 19/16 Q1012=
201107310720 METAR ESMX 310720Z AUTO 01006KT 340V040 9999NDV FEW010/// SCT017/// BKN019/// 19/16 Q1012=
201107310650 METAR ESMX 310650Z AUTO 04006KT 350V060 9999NDV FEW009/// BKN011/// 19/16 Q1012=
201107310620 METAR ESMX 310620Z AUTO 02005KT 350V060 9999NDV FEW007/// BKN010/// 18/16 Q1011=
201107310550 METAR ESMX 310550Z AUTO 03007KT 350V070 9999NDV BR BKN006/// 17/16 Q1011=
201107310520 METAR ESMX 310520Z AUTO 02005KT 9000NDV BR FEW007/// 17/16 Q1011=
201107310450 METAR ESMX 310450Z AUTO 36008KT 9000NDV BR FEW006/// SCT008/// 17/16 Q1011=
201107310420 METAR ESMX 310420Z AUTO 02007KT 7000NDV BR SCT008/// 17/15 Q1011=
201107310350 METAR ESMX 310350Z AUTO 04008KT 9000NDV BR OVC008/// 16/15 Q1011=
201107310320 METAR ESMX 310320Z AUTO 03007KT 8000NDV BR FEW008/// BKN009/// 16/15 Q1011=
201107310250 METAR ESMX 310250Z AUTO 02008KT 9000NDV BR FEW009/// SCT100/// 16/16 Q1011=
201107310220 METAR ESMX 310220Z AUTO 36007KT 7000NDV BR SCT100/// 17/16 Q1011=
201107310150 METAR ESMX 310150Z AUTO 35007KT 5000NDV BR FEW110/// 16/15 Q1011=
201107310120 METAR ESMX 310120Z AUTO 35006KT 6000NDV BR FEW099/// 16/15 Q1011=
201107310050 METAR ESMX 310050Z AUTO 36005KT 7000NDV BR NCD 17/16 Q1011=
201107310020 METAR ESMX 310020Z AUTO 36005KT 7000NDV BR FEW092/// 17/16 Q1011=
201107302350 METAR ESMX 302350Z AUTO 35005KT 9999NDV BKN085/// 17/16 Q1011=
201107302320 METAR ESMX 302320Z AUTO 36002KT 5000NDV BR SCT081/// BKN096/// BKN110/// 17/16 Q1011=
201107302250 METAR ESMX 302250Z AUTO 02002KT 9999NDV SCT075/// BKN087/// 17/16 Q1011=
201107302220 METAR ESMX 302220Z AUTO VRB01KT 9999NDV BKN074/// 17/16 Q1011 RESHRA=
201107302150 METAR ESMX 302150Z AUTO 04003KT 9999NDV FEW023/// 17/16 Q1011 RERA=
201107302120 METAR ESMX 302120Z AUTO 03004KT 9999NDV SCT036/// BKN055/// BKN070/// 17/16 Q1011=
201107302050 METAR ESMX 302050Z AUTO 03004KT 9999NDV SCT017/// OVC025/// 17/16 Q1011=
201107302020 METAR ESMX 302020Z AUTO 02005KT 340V050 9999NDV FEW017/// BKN026/// BKN047/// 17/16 Q1010=
201107301950 METAR ESMX 301950Z AUTO 03005KT 350V060 9999NDV BKN022/// BKN053/// 17/16 Q1010=
201107301920 METAR ESMX 301920Z AUTO 03005KT 9999NDV FEW024/// SCT042/// BKN055/// 17/16 Q1010=
201107301850 METAR ESMX 301850Z AUTO 03006KT 5000NDV FEW007/// SCT025/// BKN029/// 18/16 Q1010=
201107301820 METAR ESMX 301820Z AUTO 03006KT 350V060 9999NDV FEW015/// BKN027/// 18/17 Q1010 REDZ=
201107301750 METAR ESMX 301750Z AUTO 01006KT 9999NDV FEW012/// BKN031/// 18/17 Q1009=
201107301720 METAR ESMX 301720Z AUTO 01005KT 9999NDV FEW005/// SCT013/// OVC033/// 19/18 Q1009=
201107301650 METAR ESMX 301650Z AUTO 01005KT 7000NDV BR FEW004/// SCT006/// BKN008/// 19/18 Q1009=
201107301620 METAR ESMX 301620Z AUTO 02007KT 5000NDV -RA FEW006/// SCT008/// BKN010/// 19/18 Q1009 REDZ RERA=
201107301550 METAR ESMX 301550Z AUTO 03005KT 360V070 4700NDV +DZ FEW005/// SCT006/// BKN008/// 19/18 Q1009=
201107301520 METAR ESMX 301520Z AUTO 02003KT 350V060 3100NDV -RA FEW004/// SCT006/// BKN007/// 19/18 Q1009=
201107301450 METAR ESMX 301450Z AUTO 02008KT 4100NDV BR SCT006/// BKN008/// BKN012/// 19/18 Q1009=
201107301420 METAR ESMX 301420Z AUTO 01008KT 3700NDV BR FEW005/// BKN007/// OVC010/// 19/18 Q1009=
201107301350 METAR ESMX 301350Z AUTO 02008KT 5000NDV BR FEW006/// SCT008/// BKN009/// 19/17 Q1009=
201107301320 METAR ESMX 301320Z AUTO 02010KT 9999NDV FEW009/// OVC012/// 19/17 Q1009=
201107301250 METAR ESMX 301250Z AUTO 02009KT 350V050 9999NDV FEW008/// BKN010/// OVC014/// 19/17 Q1009=
201107301220 METAR ESMX 301220Z AUTO 01011KT 340V040 7000NDV BKN007/// OVC011/// 19/17 Q1009=
201107301150 METAR ESMX 301150Z AUTO 02011KT 340V050 9999NDV FEW008/// OVC010/// 18/16 Q1009=
201107301120 METAR ESMX 301120Z AUTO 01010KT 9999NDV FEW007/// SCT010/// BKN013/// 18/16 Q1009=
201107301050 METAR ESMX 301050Z AUTO 35010KT 8000NDV FEW007/// SCT009/// OVC010/// 17/16 Q1009=
201107301020 METAR ESMX 301020Z AUTO 36008KT 9999NDV -RA FEW007/// OVC010/// 18/16 Q1008=
201107300950 METAR ESMX 300950Z AUTO 01007KT 5000NDV -RA OVC008/// 17/16 Q1008 REDZ=
201107300920 METAR ESMX 300920Z AUTO 36008KT 330V060 9999NDV OVC008/// 17/15 Q1008=
201107300850 METAR ESMX 300850Z AUTO 36008KT 9999NDV OVC008/// 17/15 Q1008=
201107300820 METAR ESMX 300820Z AUTO 01009KT 9999NDV OVC008/// 17/15 Q1008=
201107300750 METAR ESMX 300750Z AUTO 36009KT 9999NDV OVC009/// 17/15 Q1008=
201107300720 METAR ESMX 300720Z AUTO 36010KT 9999NDV OVC008/// 17/15 Q1008=
201107300650 METAR ESMX 300650Z AUTO 01010KT 9999NDV OVC009/// 17/15 Q1008=
201107300620 METAR ESMX 300620Z AUTO 35009KT 9999NDV BKN009/// 17/14 Q1008=
201107300550 METAR ESMX 300550Z AUTO 35010KT 9999NDV OVC010/// 17/14 Q1008=
201107300520 METAR ESMX 300520Z AUTO 36009KT 320V030 9999NDV FEW012/// SCT100/// 17/14 Q1008=
201107300450 METAR ESMX 300450Z AUTO 36008KT 9999NDV FEW049/// BKN110/// 16/13 Q1008=
201107300420 METAR ESMX 300420Z AUTO 35008KT 9999NDV FEW037/// BKN043/// BKN074/// 16/13 Q1008=
201107300350 METAR ESMX 300350Z AUTO 35008KT 9999NDV FEW042/// BKN051/// BKN083/// 16/13 Q1008=
201107300320 METAR ESMX 300320Z AUTO 34008KT 9999NDV FEW042/// SCT048/// BKN060/// 16/13 Q1008=
201107300250 METAR ESMX 300250Z AUTO 35009KT 9999NDV SCT041/// BKN056/// BKN090/// 16/13 Q1008=
201107300220 METAR ESMX 300220Z AUTO 35010KT 9999NDV FEW044/// SCT060/// BKN074/// 16/13 Q1008=
201107300150 METAR ESMX 300150Z AUTO 35009KT 9999NDV SCT074/// 16/13 Q1008=
201107300120 METAR ESMX 300120Z AUTO 35010KT 9999NDV NCD 16/13 Q1008=
201107300050 METAR ESMX 300050Z AUTO 35010KT 9999NDV NCD 17/13 Q1008=
201107300020 METAR ESMX 300020Z AUTO 35009KT 9999NDV NCD 17/14 Q1008=
201107292350 METAR ESMX 292350Z AUTO 35011KT 9999NDV BKN040/// 17/14 Q1008=
201107292320 METAR ESMX 292320Z AUTO 35010KT 9999NDV OVC040/// 18/14 Q1009=
201107292250 METAR ESMX 292250Z AUTO 35010KT 9999NDV NCD 18/14 Q1009=
201107292220 METAR ESMX 292220Z AUTO 01009KT 9999NDV NCD 18/14 Q1009=
201107292150 METAR ESMX 292150Z AUTO 36010KT 9999NDV FEW079/// 18/15 Q1009=
201107292120 METAR ESMX 292120Z AUTO 36011KT 9999NDV NCD 18/15 Q1009=
201107292050 METAR ESMX 292050Z AUTO 35011KT 9999NDV SCT077/// 19/15 Q1009=
201107292020 METAR ESMX 292020Z AUTO 36009KT 9999NDV BKN068/// 19/14 Q1009=
201107291950 METAR ESMX 291950Z AUTO 35010KT 9999NDV FEW057/// 19/14 Q1009=
201107291920 METAR ESMX 291920Z AUTO 35010KT 320V020 9999NDV FEW058/// BKN075/// 19/15 Q1008=
201107291850 METAR ESMX 291850Z AUTO 35010KT 9999NDV SCT054/// BKN094/// 20/16 Q1008=
201107291820 METAR ESMX 291820Z AUTO 01010KT 9999NDV SCT054/// 20/16 Q1008=
201107291750 METAR ESMX 291750Z 36011KT 9999 FEW025 BKN064 20/17 Q1008=
201107291720 METAR ESMX 291720Z 36011KT 9999 FEW038 BKN065 20/17 Q1008=
201107291650 METAR ESMX 291650Z 36011KT 9999 FEW022 SCT042 BKN055 20/17 Q1008=
201107291620 METAR ESMX 291620Z 36011KT 9999 FEW018 BKN023 OVC037 20/17 Q1008=
201107291550 METAR ESMX 291550Z 35011KT 9999 FEW018 BKN031 20/18 Q1008=
201107291520 METAR ESMX 291520Z 35012KT 9999 SCT015 BKN023 OVC030 20/17 Q1008=
201107291450 METAR ESMX 291450Z 35011KT 320V020 9999 FEW013 BKN017 20/17 Q1008=
201107291420 METAR ESMX 291420Z 35010KT 9999 FEW014 BKN017 20/18 Q1008=
201107291350 METAR ESMX 291350Z 35011KT 320V020 9999 FEW010 SCT014 OVC016 19/18 Q1008=
201107291250 METAR ESMX 291250Z 34010KT 9999 -RA FEW010 BKN017 BKN036 20/18 Q1008=
201107291220 METAR ESMX 291220Z 34008KT 9999 -RA FEW009 SCT026 BKN053 19/18 Q1008=
201107291150 METAR ESMX 291150Z 34008KT 9999 -RA FEW009 SCT026 19/17 Q1009=
201107291120 METAR ESMX 291120Z 35010KT 9999 -RA FEW010 OVC013 19/17 Q1009=
201107291050 METAR ESMX 291050Z 36010KT 9999 -RA BKN013 19/17 Q1009=
201107290920 METAR ESMX 290920Z 33008KT 300V010 CAVOK 20/16 Q1008=
201107290850 METAR ESMX 290850Z 33008KT 290V360 9999 FEW010 BKN150 19/16 Q1009=
201107290820 METAR ESMX 290820Z 33006KT 300V010 9999 FEW014 BKN150 19/17 Q1009=
201107290720 METAR ESMX 290720Z 34007KT 300V010 9999 FEW010 BKN120 19/17 Q1009=
201107290650 METAR ESMX 290650Z 34008KT 9999 FEW010 BKN120 19/17 Q1009=
201107290620 METAR ESMX 290620Z 34007KT 310V020 9999 SCT008 SCT120 19/17 Q1009=
201107290550 METAR ESMX 290550Z 35007KT 320V020 9999 FEW010 SCT028 19/17 Q1009=
201107290520 METAR ESMX 290520Z 34005KT 300V020 9999 FEW026 SCT050 BKN110 18/17 Q1009=
201107290450 METAR ESMX 290450Z 34005KT 300V010 9999 SCT025 BKN050 18/17 Q1010=
201107290420 METAR ESMX 290420Z AUTO 33005KT 9999NDV SCT005/// BKN026/// 18/17 Q1010=
201107290350 METAR ESMX 290350Z AUTO 34004KT 9999NDV FEW006/// BKN044/// 17/16 Q1010=
201107290320 METAR ESMX 290320Z AUTO 35005KT 9999NDV SCT036/// 18/16 Q1010=
201107290250 METAR ESMX 290250Z AUTO 34007KT 9999NDV FEW005/// BKN073/// 18/17 Q1010=
201107290220 METAR ESMX 290220Z AUTO 34006KT 8000NDV BR FEW005/// SCT077/// BKN100/// 18/17 Q1011=
201107290150 METAR ESMX 290150Z AUTO 35006KT 9999NDV BKN007/// 18/17 Q1011=
201107290120 METAR ESMX 290120Z AUTO 02005KT 9999NDV BR FEW005/// OVC007/// 18/17 Q1011=
201107290050 METAR ESMX 290050Z AUTO 35007KT 9000NDV BR FEW005/// BKN006/// OVC008/// 18/17 Q1011=
201107290020 METAR ESMX 290020Z AUTO 34005KT 7000NDV BR FEW004/// BKN006/// BKN078/// 18/17 Q1011=
201107282350 METAR ESMX 282350Z 34004KT 7000 BR FEW003 18/17 Q1011=
201107282320 METAR ESMX 282320Z 36004KT 9999 BR FEW005 SCT008 BKN012 18/17 Q1011=
201107282250 METAR ESMX 282250Z 02003KT 350V050 8000 BR SCT006 BKN009 BKN013 18/17 Q1012=
201107282220 METAR ESMX 282220Z 00000KT 5000 BR BKN011 BKN015 17/16 Q1012=
201107282150 METAR ESMX 282150Z 00000KT 9000 OVC013 17/16 Q1012=
201107282120 METAR ESMX 282120Z 05003KT 9999 BKN015 18/16 Q1012=
201107282050 METAR ESMX 282050Z 03003KT CAVOK 18/16 Q1011=
201107282020 METAR ESMX 282020Z 04003KT 010V080 CAVOK 18/16 Q1011=
201107281950 METAR ESMX 281950Z 03003KT CAVOK 19/17 Q1011=
201107281920 METAR ESMX 281920Z 04004KT 360V070 9999 FEW028 19/17 Q1011=
201107281850 METAR ESMX 281850Z 03005KT 9999 FEW021 SCT050 20/17 Q1011=
201107281820 METAR ESMX 281820Z 04006KT 020V080 9999 FEW017 BKN022 OVC030 20/18 Q1011 RERA RESHRA=
201107281750 METAR ESMX 281750Z 34008KT 9999 FEW036 21/17 Q1011=
201107281720 METAR ESMX 281720Z 34010KT CAVOK 22/17 Q1011=
201107281620 METAR ESMX 281620Z 34009KT 9999 FEW017 SCT045 22/18 Q1011=
201107281550 METAR ESMX 281550Z 35009KT 320V020 9999 FEW028 SCT060 22/18 Q1011=
201107281520 METAR ESMX 281520Z 33009KT 9999 FEW027 BKN053 21/18 Q1012=
201107281450 METAR ESMX 281450Z 33008KT 9999 FEW030 BKN055 21/18 Q1012=
201107281420 METAR ESMX 281420Z 34008KT 300V020 9999 FEW030 OVC060 21/18 Q1012=
201107281350 METAR ESMX 281350Z 33008KT 9999 FEW030 SCT045 BKN060 20/18 Q1012=
201107281320 METAR ESMX 281320Z 34006KT 9999 SCT030 BKN040 20/18 Q1012=
201107281250 METAR ESMX 281250Z AUTO 34005KT 300V020 9999NDV FEW016/// SCT035/// 19/17 Q1012=
201107281220 METAR ESMX 281220Z 36007KT 6000 SHRA BKN025CB 18/17 Q1013=
201107281150 METAR ESMX 281150Z 02009KT 9999 -RA FEW020 SCT028 BKN040 19/16 Q1013=
201107281120 METAR ESMX 281120Z 35006KT 320V020 9999 -RA SCT029 BKN050 21/16 Q1013=
201107281020 METAR ESMX 281020Z 35010KT 320V040 9999 FEW040 SCT096 22/14 Q1013=
201107280950 METAR ESMX 280950Z 34009KT 320V020 9999 FEW030 SCT082 21/14 Q1013=
201107280920 METAR ESMX 280920Z 34010KT 320V020 9999 FEW038 BKN080 20/14 Q1013=
201107280850 METAR ESMX 280850Z 32009KT 9999 FEW038 BKN052 19/14 Q1013=
201107280820 METAR ESMX 280820Z 33007KT 9999 -RA NSC 18/14 Q1013=
201107280750 METAR ESMX 280750Z 31004KT 280V340 9999 -RA NSC 18/15 Q1014=
201107280720 METAR ESMX 280720Z AUTO 33006KT 310V020 9999NDV -RA FEW052/// SCT068/// 18/15 Q1014=
201107280650 METAR ESMX 280650Z AUTO 34006KT 300V360 9999NDV FEW045/// SCT064/// 18/15 Q1014=
201107280620 METAR ESMX 280620Z AUTO 32005KT 290V350 9999NDV FEW051/// 17/14 Q1014=
201107280550 METAR ESMX 280550Z AUTO 30005KT 9999NDV -DZ FEW074/// 17/14 Q1015=
201107280520 METAR ESMX 280520Z AUTO 33005KT 290V360 9999NDV -RA FEW064/// SCT083/// 17/14 Q1015=
201107280450 METAR ESMX 280450Z AUTO 34006KT 9999NDV BKN066/// 17/13 Q1015=
201107280420 METAR ESMX 280420Z AUTO 35006KT 9999NDV BKN069/// BKN090/// 17/13 Q1015=
201107280350 METAR ESMX 280350Z AUTO 34005KT 310V020 9999NDV OVC070/// 17/13 Q1015=
201107280320 METAR ESMX 280320Z AUTO 33006KT 9999NDV BKN074/// 17/13 Q1015=
201107280250 METAR ESMX 280250Z AUTO 34006KT 310V010 9999NDV OVC070/// 17/13 Q1015=
201107280220 METAR ESMX 280220Z AUTO 34006KT 9999NDV BKN078/// 17/14 Q1016=
201107280150 METAR ESMX 280150Z AUTO 35005KT 320V020 9999NDV OVC078/// 17/13 Q1016=
201107280120 METAR ESMX 280120Z AUTO 32006KT 9999NDV BKN078/// 17/14 Q1016=
201107280050 METAR ESMX 280050Z AUTO 32005KT 9999NDV OVC077/// 18/14 Q1016=
201107280020 METAR ESMX 280020Z AUTO 32004KT 9999NDV OVC077/// 18/14 Q1016=
201107272350 METAR ESMX 272350Z 34005KT CAVOK 18/14 Q1016=
201107272320 METAR ESMX 272320Z 36005KT CAVOK 19/14 Q1017=
201107272250 METAR ESMX 272250Z 35007KT 9999 FEW046 18/14 Q1017=
201107272220 METAR ESMX 272220Z 35007KT CAVOK 19/14 Q1017=
201107272150 METAR ESMX 272150Z 32007KT CAVOK 19/14 Q1017=
201107272120 METAR ESMX 272120Z 35005KT CAVOK 19/14 Q1017=
201107272050 METAR ESMX 272050Z 34006KT CAVOK 20/14 Q1017=
201107272020 METAR ESMX 272020Z 34006KT CAVOK 20/15 Q1017=
201107271950 METAR ESMX 271950Z 35005KT CAVOK 20/15 Q1017=
201107271920 METAR ESMX 271920Z 34006KT CAVOK 20/15 Q1017=
201107271850 METAR ESMX 271850Z 34006KT CAVOK 21/15 Q1017=
201107271820 METAR ESMX 271820Z 34007KT 9999 FEW045 SCT051 22/15 Q1017=
201107271750 METAR ESMX 271750Z 33007KT 9999 FEW043 22/15 Q1017=
201107271720 METAR ESMX 271720Z 33005KT 9999 FEW043 23/14 Q1017=
201107271650 METAR ESMX 271650Z 33006KT CAVOK 24/14 Q1017=
201107271620 METAR ESMX 271620Z 33006KT 300V020 CAVOK 24/14 Q1017=
201107271550 METAR ESMX 271550Z 33005KT CAVOK 25/14 Q1017=
201107271520 METAR ESMX 271520Z 33007KT CAVOK 24/14 Q1017=
201107271450 METAR ESMX 271450Z 34006KT 300V010 CAVOK 25/14 Q1017=
201107271420 METAR ESMX 271420Z 02008KT CAVOK 25/14 Q1017=
201107271320 METAR ESMX 271320Z 34004KT 290V020 CAVOK 24/13 Q1018=
201107271250 METAR ESMX 271250Z VRB05KT 9999 FEW045 24/14 Q1018=
201107271220 METAR ESMX 271220Z 33004KT 280V360 9999 FEW045 24/12 Q1018=
201107271150 METAR ESMX 271150Z 01006KT 320V050 9999 SCT045 24/13 Q1018=
201107271120 METAR ESMX 271120Z 01005KT 330V060 9999 FEW047 SCT057 23/13 Q1018=
201107271050 METAR ESMX 271050Z 36005KT 290V070 9999 FEW035 23/14 Q1018=
201107271020 METAR ESMX 271020Z 02005KT 310V060 9999 FEW030 23/14 Q1018=
201107270950 METAR ESMX 270950Z 36004KT 290V070 9999 SCT030 22/14 Q1018=
201107270920 METAR ESMX 270920Z 03006KT 9999 FEW030 21/15 Q1018=
201107270850 METAR ESMX 270850Z 33004KT 290V020 9999 FEW030 21/15 Q1018=
201107270820 METAR ESMX 270820Z AUTO 33004KT 260V030 9999NDV NCD 20/15 Q1019=
201107270750 METAR ESMX 270750Z AUTO VRB02KT 9999NDV NCD 18/15 Q1019=
201107270720 METAR ESMX 270720Z AUTO 32004KT 290V350 9999NDV NCD 17/15 Q1018=
201107270650 METAR ESMX 270650Z AUTO 30004KT 270V340 9999NDV FEW003/// BKN004/// BKN006/// 15/15 Q1018=
201107270620 METAR ESMX 270620Z AUTO 31004KT 270V340 9000NDV OVC001/// 14/14 Q1018=
201107270550 METAR ESMX 270550Z AUTO 31003KT 260V350 1200NDV R01/1000V1700N R19/P2000N FG VV002 14/13 Q1018=
201107270520 METAR ESMX 270520Z AUTO 29004KT 0300NDV R01/0600 R19/1000VP2000U FG VV001 13/13 Q1018=
201107270450 METAR ESMX 270450Z AUTO 30004KT 0250NDV R01/0500 R19/0700 FG VV001 13/13 Q1018=
201107270420 METAR ESMX 270420Z AUTO 30003KT 0200NDV R01/0450N R19/0600V0800N FG VV001 13/13 Q1018=
201107270350 METAR ESMX 270350Z AUTO 31004KT 0200NDV R01/0550N R19/0600 FG VV001 13/12 Q1018=
201107270320 METAR ESMX 270320Z AUTO VRB02KT 0450NDV R01/0800V1400 R19/P2000N FG VV001 11/10 Q1018=
201107270250 METAR ESMX 270250Z AUTO VRB02KT 0750NDV R01/P2000N R19/P2000 NCD 10/09 Q1017=
201107270220 METAR ESMX 270220Z AUTO 27002KT 5000NDV NCD 10/09 Q1017=
201107270150 METAR ESMX 270150Z AUTO 20002KT 0300NDV R01/P2000N R19/P2000 NCD 10/09 Q1017=
201107270120 METAR ESMX 270120Z AUTO VRB02KT 1100NDV R01/P2000N R19/P2000N NCD 10/10 Q1017=
201107270050 METAR ESMX 270050Z AUTO VRB01KT 0750NDV R01/P2000N R19/P2000 BR NCD 12/11 Q1017=
201107270020 METAR ESMX 270020Z AUTO 29002KT 9999NDV NCD 12/11 Q1017=
201107262350 METAR ESMX 262350Z AUTO 30002KT 9999NDV NCD 12/11 Q1017=
201107262320 METAR ESMX 262320Z VRB01KT CAVOK 13/12 Q1017=
201107262250 METAR ESMX 262250Z 29005KT CAVOK 14/12 Q1017=
201107262150 METAR ESMX 262150Z 28004KT CAVOK 14/12 Q1017=
201107262120 METAR ESMX 262120Z 26003KT CAVOK 15/12 Q1017=
201107262050 METAR ESMX 262050Z 24003KT CAVOK 15/13 Q1017=
201107262020 METAR ESMX 262020Z 26003KT 9999 FEW030 15/13 Q1016=
201107261950 METAR ESMX 261950Z 24002KT 9999 FEW030 17/14 Q1016=
201107261920 METAR ESMX 261920Z 26003KT 9999 SCT030 17/13 Q1016=
201107261850 METAR ESMX 261850Z 27003KT 9999 FEW030 18/13 Q1015=
201107261820 METAR ESMX 261820Z 26003KT CAVOK 18/14 Q1015=
201107261750 METAR ESMX 261750Z 29002KT CAVOK 19/13 Q1015=
201107261720 METAR ESMX 261720Z 26002KT CAVOK 20/13 Q1015=
201107261650 METAR ESMX 261650Z 24005KT 9999 FEW028 20/13 Q1015=
201107261620 METAR ESMX 261620Z 26006KT 210V280 9999 FEW027 21/14 Q1015=
201107261550 METAR ESMX 261550Z 29006KT 240V320 CAVOK 20/14 Q1015=
201107261520 METAR ESMX 261520Z 28005KT CAVOK 20/13 Q1015=
201107261450 METAR ESMX 261450Z 26004KT 190V350 CAVOK 21/13 Q1015=
201107261420 METAR ESMX 261420Z 26005KT 210V290 CAVOK 20/13 Q1015=
201107261350 METAR ESMX 261350Z 25005KT 9999 BKN049 20/12 Q1014=
201107261320 METAR ESMX 261320Z 24004KT 9999 SCT040 BKN050 19/13 Q1014=
201107261250 METAR ESMX 261250Z AUTO 26004KT 9999NDV FEW047/// BKN056/// 19/13 Q1014=
201107261220 METAR ESMX 261220Z AUTO VRB02KT 9999NDV FEW045/// SCT053/// 19/12 Q1014=
201107261150 METAR ESMX 261150Z AUTO 00000KT 9999NDV FEW044/// 19/12 Q1014=
201107261120 METAR ESMX 261120Z AUTO 07003KT 010V160 9999NDV NCD 20/13 Q1013=
201107261050 METAR ESMX 261050Z AUTO 07004KT 340V130 9999NDV NCD 20/13 Q1013=
201107261020 METAR ESMX 261020Z AUTO 06005KT 020V120 9999NDV FEW039/// 19/13 Q1013=
201107260950 METAR ESMX 260950Z AUTO VRB04KT 9999NDV FEW027/// SCT031/// 19/13 Q1013=
201107260920 METAR ESMX 260920Z AUTO VRB02KT 9999NDV OVC020/// 18/13 Q1013=
201107260850 METAR ESMX 260850Z AUTO VRB02KT 9999NDV FEW015/// OVC017/// 17/12 Q1013=
201107260820 METAR ESMX 260820Z AUTO 23003KT 190V290 9999NDV OVC011/// 16/12 Q1013=
201107260750 METAR ESMX 260750Z AUTO 25003KT 190V280 9999NDV OVC013/// 16/13 Q1013=
201107260720 METAR ESMX 260720Z AUTO VRB02KT 9999NDV OVC014/// 16/13 Q1012=
201107260650 METAR ESMX 260650Z AUTO VRB01KT 9999NDV FEW011/// OVC014/// 15/12 Q1012=
201107260620 METAR ESMX 260620Z AUTO 00000KT 9999NDV OVC011/// 15/12 Q1012=
201107260550 METAR ESMX 260550Z AUTO 00000KT 9999NDV FEW005/// OVC012/// 15/13 Q1012=
201107260520 METAR ESMX 260520Z AUTO VRB01KT 9999NDV FEW005/// OVC010/// 15/13 Q1012=
201107260450 METAR ESMX 260450Z AUTO 00000KT 9999NDV BKN005/// OVC016/// 14/13 Q1011=
201107260420 METAR ESMX 260420Z AUTO 00000KT 9999NDV OVC006/// 14/12 Q1011=
201107260350 METAR ESMX 260350Z AUTO 00000KT 9999NDV BKN006/// OVC012/// 14/12 Q1011=
201107260320 METAR ESMX 260320Z AUTO 00000KT 9999NDV FEW006/// SCT010/// OVC012/// 13/12 Q1011=
201107260250 METAR ESMX 260250Z AUTO 10002KT 9999NDV FEW007/// OVC010/// 13/12 Q1011=
201107260220 METAR ESMX 260220Z AUTO 11001KT 9999NDV FEW008/// SCT010/// OVC012/// 13/12 Q1011=
201107260150 METAR ESMX 260150Z AUTO 20001KT 9999NDV OVC011/// 13/12 Q1011=
201107260120 METAR ESMX 260120Z AUTO 00000KT 9999NDV OVC011/// 12/11 Q1011=
201107260050 METAR ESMX 260050Z AUTO VRB01KT 9999NDV OVC010/// 12/11 Q1011=
201107260020 METAR ESMX 260020Z AUTO 00000KT 9999NDV BKN010/// OVC019/// 11/10 Q1011=
201107252320 METAR ESMX 252320Z 00000KT 9999 FEW019 10/09 Q1011=
201107252250 METAR ESMX 252250Z 00000KT CAVOK 10/09 Q1011=
201107252150 METAR ESMX 252150Z 17003KT CAVOK 11/10 Q1011=
201107252120 METAR ESMX 252120Z 16003KT CAVOK 11/10 Q1010=
201107252050 METAR ESMX 252050Z 17003KT CAVOK 12/11 Q1010=
201107252020 METAR ESMX 252020Z 17002KT CAVOK 12/10 Q1010=
201107251950 METAR ESMX 251950Z 18003KT CAVOK 14/11 Q1010=
201107251920 METAR ESMX 251920Z 18004KT CAVOK 15/11 Q1010=
201107251850 METAR ESMX 251850Z AUTO 17004KT 9999NDV NCD 16/11 Q1009=
201107251820 METAR ESMX 251820Z AUTO 19007KT 9999NDV NCD 17/11 Q1009=
201107251750 METAR ESMX 251750Z AUTO 18008KT 9999NDV NCD 18/11 Q1009=
201107251720 METAR ESMX 251720Z AUTO 17006KT 110V220 9999NDV NCD 19/10 Q1009=
201107251650 METAR ESMX 251650Z AUTO 15007KT 110V190 9999NDV NCD 19/11 Q1008=
201107251620 METAR ESMX 251620Z AUTO 16006KT 100V210 9999NDV FEW033/// 20/10 Q1008=
201107251550 METAR ESMX 251550Z AUTO 18009KT 150V210 9999NDV NCD 19/11 Q1008=
201107251520 METAR ESMX 251520Z AUTO 19010KT 150V230 9999NDV FEW037/// 20/11 Q1008=
201107251450 METAR ESMX 251450Z AUTO 18010KT 150V210 9999NDV FEW038/// 20/11 Q1008=
201107251420 METAR ESMX 251420Z AUTO 16007KT 120V200 9999NDV NCD 19/10 Q1008=
201107251350 METAR ESMX 251350Z AUTO 18008KT 9999NDV FEW042/// 20/10 Q1008=
201107251320 METAR ESMX 251320Z AUTO 18010KT 9999NDV NCD 21/11 Q1008=
201107251250 METAR ESMX 251250Z AUTO 17009KT 120V210 9999NDV FEW042/// 20/10 Q1008=
201107251220 METAR ESMX 251220Z 16008KT 120V200 9999 FEW040 20/10 Q1008=
201107251150 METAR ESMX 251150Z 18010KT 140V210 9999 FEW039 20/10 Q1008=
201107251120 METAR ESMX 251120Z 17008KT 120V230 9999 FEW038 19/10 Q1008=
201107251050 METAR ESMX 251050Z 16008KT 130V200 9999 FEW033 19/11 Q1008=
201107251020 METAR ESMX 251020Z 17009KT 120V200 CAVOK 19/11 Q1008=
201107250950 METAR ESMX 250950Z 16007KT 110V220 9999 FEW035 18/10 Q1008=
201107250920 METAR ESMX 250920Z 17008KT 120V200 9999 FEW033 18/11 Q1008=
201107250850 METAR ESMX 250850Z 17012KT 9999 FEW027 SCT033 18/10 Q1008=
201107250820 METAR ESMX 250820Z 15007KT 110V200 9999 SCT030 17/11 Q1008=
201107250750 METAR ESMX 250750Z 17009KT 140V210 9999 SCT021 17/10 Q1007=
201107250720 METAR ESMX 250720Z 17007KT 140V200 9999 SCT020 BKN027 16/11 Q1007=
201107250650 METAR ESMX 250650Z 17009KT 120V210 9999 FEW018 SCT024 BKN096 15/11 Q1007=
201107250620 METAR ESMX 250620Z 16006KT 120V200 CAVOK 15/11 Q1007=
201107250550 METAR ESMX 250550Z 15007KT 110V190 CAVOK 14/11 Q1007=
201107250520 METAR ESMX 250520Z 15006KT 090V200 CAVOK 14/11 Q1007=
201107250450 METAR ESMX 250450Z 15006KT 110V200 CAVOK 14/11 Q1007=
201107250420 METAR ESMX 250420Z AUTO 14006KT 080V190 9999NDV FEW018/// BKN094/// OVC100/// 14/11 Q1006=
201107250350 METAR ESMX 250350Z AUTO 15006KT 090V190 9999NDV SCT100/// 13/10 Q1006=
201107250320 METAR ESMX 250320Z AUTO 15006KT 110V170 9999NDV SCT098/// BKN110/// 13/10 Q1006=
201107250250 METAR ESMX 250250Z AUTO 15005KT 100V220 9999NDV FEW029/// SCT090/// BKN100/// 14/10 Q1006=
201107250220 METAR ESMX 250220Z AUTO 15006KT 080V190 9999NDV SCT022/// BKN081/// 14/10 Q1006=
201107250150 METAR ESMX 250150Z AUTO 13005KT 080V180 9999NDV FEW025/// BKN079/// BKN110/// 13/10 Q1006=
201107250120 METAR ESMX 250120Z AUTO 15006KT 100V190 9999NDV BKN077/// OVC110/// 14/10 Q1006=
201107250050 METAR ESMX 250050Z AUTO 14007KT 090V170 9999NDV BKN077/// OVC100/// 14/10 Q1006=
201107250020 METAR ESMX 250020Z AUTO 15005KT 110V190 9999NDV SCT085/// BKN100/// 13/10 Q1006=
201107242350 METAR ESMX 242350Z AUTO 15004KT 110V190 9999NDV BKN080/// BKN100/// 13/10 Q1006=
201107242320 METAR ESMX 242320Z 14004KT 080V190 CAVOK 13/10 Q1006=
201107242250 METAR ESMX 242250Z 16006KT 110V200 CAVOK 13/10 Q1006=
201107242220 METAR ESMX 242220Z 14006KT 100V190 9999 FEW023 SCT073 13/10 Q1006=
201107242150 METAR ESMX 242150Z 14005KT 110V180 9999 FEW023 SCT070 13/10 Q1006=
201107242120 METAR ESMX 242120Z 14006KT 080V170 CAVOK 13/10 Q1006=
201107242050 METAR ESMX 242050Z 16006KT 130V210 CAVOK 14/10 Q1006=
201107242020 METAR ESMX 242020Z 15007KT 120V210 CAVOK 14/10 Q1006=
201107241920 METAR ESMX 241920Z 15006KT 110V190 9999 SCT028 BKN090 14/10 Q1006=
201107241850 METAR ESMX 241850Z 16007KT 120V200 9999 FEW025 BKN110 15/10 Q1005=
201107241820 METAR ESMX 241820Z 17008KT 140V200 9999 FEW033 BKN120 15/10 Q1005=
201107241750 METAR ESMX 241750Z 17009KT 130V200 9999 FEW038 15/10 Q1005=
201107241720 METAR ESMX 241720Z 17006KT 140V200 CAVOK 14/11 Q1005=
201107241650 METAR ESMX 241650Z 17007KT 140V200 9999 FEW026 SCT045 BKN055 14/11 Q1005=
201107241620 METAR ESMX 241620Z 17008KT 140V200 9999 -DZ FEW012 SCT035 BKN043 13/11 Q1005 REDZ=
201107241550 METAR ESMX 241550Z 18011KT 140V200 9999 -RA SCT028 BKN051 14/09 Q1005=
201107241520 METAR ESMX 241520Z 17012KT 140V210 9999 FEW030 OVC048 15/09 Q1005=
201107241450 METAR ESMX 241450Z 17011KT 120V210 9999 FEW030 OVC044 15/09 Q1005=
201107241420 METAR ESMX 241420Z 16012KT 120V190 9999 FEW039 OVC043 15/09 Q1004=
201107241350 METAR ESMX 241350Z AUTO 17010KT 110V210 9999NDV FEW032/// OVC046/// 15/09 Q1004=
201107241320 METAR ESMX 241320Z 17014KT 9999 FEW030 BKN049 15/08 Q1004=
201107241250 METAR ESMX 241250Z 17009KT 120V200 9999 FEW031 SCT039 BKN054 15/09 Q1004=
201107241220 METAR ESMX 241220Z 17011KT 140V200 9999 FEW033 BKN040 OVC055 15/09 Q1004=
201107241150 METAR ESMX 241150Z 17014KT 9999 FEW032 SCT040 BKN046 15/08 Q1004=
201107241120 METAR ESMX 241120Z 17009KT 130V200 9999 FEW026 SCT041 BKN049 15/09 Q1003=
201107241050 METAR ESMX 241050Z 16010KT 110V200 9999 FEW022 SCT031 BKN047 15/09 Q1003=
201107241020 METAR ESMX 241020Z AUTO 17011KT 130V200 9999NDV FEW021/// SCT025/// BKN031/// 15/10 Q1003=
201107240950 METAR ESMX 240950Z AUTO 15010G21KT 080V210 9999NDV FEW022/// SCT035/// BKN040/// 15/09 Q1003=
201107240920 METAR ESMX 240920Z AUTO 18011KT 150V210 9999NDV FEW022/// SCT027/// BKN038/// 15/09 Q1003=
201107240850 METAR ESMX 240850Z AUTO 17012KT 140V200 9999NDV FEW022/// SCT025/// BKN033/// 15/10 Q1003=
201107240820 METAR ESMX 240820Z AUTO 17012KT 120V210 9999NDV SCT020/// BKN029/// BKN037/// 15/10 Q1002=
201107240750 METAR ESMX 240750Z AUTO 17010KT 140V210 9999NDV FEW017/// SCT030/// BKN034/// 14/10 Q1002=
201107240720 METAR ESMX 240720Z AUTO 19007KT 9999NDV FEW016/// SCT019/// BKN022/// 13/11 Q1002=
201107240650 METAR ESMX 240650Z AUTO 17010KT 140V200 9999NDV FEW014/// BKN026/// 13/10 Q1002=
201107240620 METAR ESMX 240620Z AUTO 18009KT 9999NDV FEW014/// SCT017/// BKN020/// 13/11 Q1001=
201107240550 METAR ESMX 240550Z AUTO 16007KT 140V200 9999NDV BKN026/// 13/11 Q1001=
201107240520 METAR ESMX 240520Z AUTO 17008KT 140V210 9999NDV BKN023/// 13/11 Q1001=
201107240450 METAR ESMX 240450Z AUTO 19008KT 9999NDV FEW005/// SCT008/// BKN011/// 12/11 Q1001 REDZ=
201107240420 METAR ESMX 240420Z AUTO 18008KT 150V210 6000NDV DZ FEW006/// BKN010/// OVC015/// 12/11 Q1000=
201107240350 METAR ESMX 240350Z AUTO 17009KT 140V200 9999NDV FEW007/// BKN010/// OVC014/// 12/11 Q1000=
201107240320 METAR ESMX 240320Z AUTO 17009KT 9999NDV -RA FEW007/// BKN010/// OVC014/// 12/11 Q1000=
201107240250 METAR ESMX 240250Z AUTO 19009KT 160V220 9999NDV -RA FEW007/// OVC010/// 13/11 Q1000 REDZ=
201107240220 METAR ESMX 240220Z AUTO 18011KT 150V210 9999NDV -DZ FEW006/// SCT008/// BKN010/// 13/11 Q0999=
201107240150 METAR ESMX 240150Z AUTO 19012KT 9999NDV FEW007/// OVC009/// 13/12 Q0999=
201107240120 METAR ESMX 240120Z AUTO 20014KT 4000NDV BR FEW005/// SCT006/// BKN008/// 13/12 Q0999=
201107240050 METAR ESMX 240050Z AUTO 20011KT 3900NDV DZ FEW005/// SCT006/// BKN008/// 13/12 Q0998=
201107240020 METAR ESMX 240020Z AUTO 19011KT 3600NDV DZ FEW005/// SCT007/// BKN009/// 13/12 Q0998 REDZ=
201107232350 METAR ESMX 232350Z AUTO 20013KT 3700NDV DZ FEW005/// SCT006/// BKN008/// 13/12 Q0998=
201107232320 METAR ESMX 232320Z AUTO 20010KT 5000NDV DZ FEW004/// BKN007/// OVC010/// 14/13 Q0997 REDZ=
201107232250 METAR ESMX 232250Z AUTO 19010KT 160V220 4800NDV DZ FEW005/// BKN006/// OVC009/// 14/13 Q0997 RERA=
201107232220 METAR ESMX 232220Z AUTO 18008KT 130V210 2200NDV DZ FEW005/// SCT010/// BKN020/// 15/14 Q0997 REDZ=
201107232150 METAR ESMX 232150Z AUTO 11004KT 060V150 9999NDV FEW008/// BKN010/// OVC038/// 16/14 Q0997=
201107232120 METAR ESMX 232120Z AUTO VRB02KT 9999NDV FEW011/// BKN021/// OVC027/// 16/14 Q0997=
201107232050 METAR ESMX 232050Z AUTO VRB02KT 9999NDV BKN017/// OVC027/// 16/14 Q0997=
201107232020 METAR ESMX 232020Z AUTO VRB02KT 9999NDV BKN020/// OVC036/// 16/14 Q0997=
201107231950 METAR ESMX 231950Z AUTO VRB02KT 9999NDV FEW034/// OVC046/// 16/14 Q0997=
201107231920 METAR ESMX 231920Z AUTO VRB02KT 9999NDV FEW023/// BKN041/// BKN050/// 16/14 Q0997=
201107231850 METAR ESMX 231850Z AUTO 14003KT 100V190 9999NDV BKN033/// BKN043/// 16/14 Q0997=
201107231820 METAR ESMX 231820Z AUTO VRB03KT 9999NDV FEW012/// OVC030/// 16/14 Q0997=
201107231750 METAR ESMX 231750Z AUTO VRB02KT 9999NDV FEW016/// SCT024/// BKN028/// 16/14 Q0997=
201107231720 METAR ESMX 231720Z AUTO 12007KT 080V160 9999NDV FEW010/// BKN049/// BKN064/// 17/14 Q0997=
201107231650 METAR ESMX 231650Z AUTO 07005KT 020V120 9999NDV FEW023/// BKN059/// 19/15 Q0996=
201107231620 METAR ESMX 231620Z AUTO 07004KT 030V150 9999NDV BKN049/// 19/15 Q0996=
201107231550 METAR ESMX 231550Z AUTO 11004KT 040V170 9999NDV FEW018/// BKN048/// 18/15 Q0997=
201107231520 METAR ESMX 231520Z AUTO 12005KT 080V200 9999NDV FEW051/// BKN064/// 18/15 Q0997=
201107231450 METAR ESMX 231450Z AUTO 14005KT 080V200 9999NDV -DZ FEW023/// SCT035/// BKN051/// 18/15 Q0996 RERA=
201107231420 METAR ESMX 231420Z AUTO 12005KT 080V200 9999NDV -RA FEW006/// SCT031/// BKN038/// 20/15 Q0996=
201107231350 METAR ESMX 231350Z AUTO 12006KT 070V170 9999NDV FEW027/// SCT062/// 22/14 Q0996=
201107231320 METAR ESMX 231320Z AUTO 11005KT 040V160 9999NDV FEW052/// BKN062/// 20/15 Q0996=
201107231250 METAR ESMX 231250Z AUTO 11005KT 050V160 9999NDV FEW033/// BKN069/// 21/14 Q0996=
201107231220 METAR ESMX 231220Z AUTO 12007KT 080V170 9999NDV FEW030/// SCT041/// BKN081/// 22/14 Q0996=
201107231150 METAR ESMX 231150Z AUTO 12007KT 070V170 9999NDV FEW028/// SCT033/// BKN073/// 22/13 Q0996=
201107231120 METAR ESMX 231120Z AUTO 12007KT 050V170 9999NDV FEW026/// SCT053/// 21/15 Q0996=
201107231050 METAR ESMX 231050Z AUTO 12011KT 080V160 9999NDV FEW021/// BKN051/// 20/15 Q0996=
201107231020 METAR ESMX 231020Z AUTO 14006KT 080V190 9999NDV FEW019/// SCT028/// BKN056/// 22/16 Q0996=
201107230950 METAR ESMX 230950Z AUTO 13006KT 050V190 9999NDV FEW015/// SCT021/// 21/15 Q0996=
201107230920 METAR ESMX 230920Z AUTO 11005KT 030V170 9999NDV FEW011/// OVC016/// 20/16 Q0996=
201107230850 METAR ESMX 230850Z AUTO 13005KT 070V190 9999NDV FEW009/// OVC013/// 18/16 Q0996=
201107230820 METAR ESMX 230820Z AUTO 12004KT 070V170 9999NDV FEW009/// BKN010/// OVC015/// 18/16 Q0996=
201107230750 METAR ESMX 230750Z AUTO 12005KT 050V170 9999NDV FEW010/// SCT017/// BKN022/// 18/16 Q0996=
201107230720 METAR ESMX 230720Z AUTO 13004KT 050V200 9999NDV FEW009/// SCT012/// BKN031/// 19/15 Q0995=
201107230650 METAR ESMX 230650Z AUTO 13004KT 070V170 9999NDV FEW008/// SCT011/// 18/15 Q0995=
201107230620 METAR ESMX 230620Z AUTO 14005KT 100V180 9999NDV FEW007/// SCT010/// 17/15 Q0995=
201107230550 METAR ESMX 230550Z AUTO 14004KT 070V190 9999NDV FEW004/// SCT022/// BKN027/// 17/16 Q0995=
201107230520 METAR ESMX 230520Z AUTO 16004KT 120V190 9999NDV FEW010/// BKN014/// OVC019/// 16/15 Q0995=
201107230450 METAR ESMX 230450Z AUTO 16004KT 110V200 6000NDV BR FEW003/// SCT008/// OVC010/// 16/15 Q0995=
201107230420 METAR ESMX 230420Z AUTO 16004KT 120V190 9999NDV FEW002/// BKN004/// OVC007/// 16/15 Q0995=
201107230350 METAR ESMX 230350Z AUTO 15003KT 120V190 9999NDV BR OVC002/// 16/15 Q0994 REDZ=
201107230320 METAR ESMX 230320Z AUTO 17004KT 6000NDV -DZ FEW002/// SCT004/// BKN019/// 16/15 Q0994 RERA=
201107230250 METAR ESMX 230250Z AUTO 20004KT 140V230 7000NDV RA FEW003/// BKN012/// OVC015/// 16/15 Q0994=
201107230220 METAR ESMX 230220Z AUTO 19009KT 4700NDV RA FEW002/// SCT004/// BKN005/// 17/16 Q0994=
201107230150 METAR ESMX 230150Z AUTO 06004KT 020V110 4400NDV -RA FEW004/// BKN005/// OVC008/// 18/17 Q0994=
201107230120 METAR ESMX 230120Z AUTO VRB02KT 3400NDV RA FEW004/// BKN005/// OVC009/// 18/17 Q0994=
201107230050 METAR ESMX 230050Z AUTO 02003KT 350V060 2100NDV RA OVC006/// 18/17 Q0995=
201107230020 METAR ESMX 230020Z AUTO VRB02KT 6000NDV BR FEW008/// OVC009/// 18/17 Q0995 REDZ=
201107222350 METAR ESMX 222350Z AUTO 00000KT 5000NDV -DZ FEW007/// OVC009/// 18/17 Q0995 RESHRA=
201107222320 METAR ESMX 222320Z AUTO VRB01KT 5000NDV -RA BKN007/// OVC011/// 18/17 Q0996=
201107222250 METAR ESMX 222250Z AUTO VRB02KT 5000NDV -RA OVC008/// 18/17 Q0996=
201107222220 METAR ESMX 222220Z AUTO 16002KT 4400NDV BR OVC010/// 18/17 Q0996=
201107222150 METAR ESMX 222150Z AUTO VRB02KT 7000NDV -DZ FEW013/// SCT015/// OVC021/// 18/17 Q0997=
201107222120 METAR ESMX 222120Z AUTO VRB02KT 9999NDV FEW027/// SCT069/// BKN090/// 18/16 Q0997=
201107222050 METAR ESMX 222050Z AUTO 04005KT 010V070 9999NDV DZ FEW058/// SCT077/// 18/16 Q0997=
201107222020 METAR ESMX 222020Z AUTO 05004KT 020V090 9999NDV BKN095/// 19/16 Q0998=
201107221950 METAR ESMX 221950Z AUTO 05004KT 360V100 9999NDV FEW015/// BKN110/// 19/16 Q0998=
201107221920 METAR ESMX 221920Z AUTO 06004KT 030V100 9999NDV FEW082/// SCT110/// 20/16 Q0998=
201107221850 METAR ESMX 221850Z AUTO 04004KT 010V080 9999NDV NCD 20/16 Q0998=
201107221820 METAR ESMX 221820Z AUTO 06004KT 020V110 9999NDV FEW021/// SCT031/// 21/16 Q0998=
201107221750 METAR ESMX 221750Z 08004KT 020V140 9999 FEW023 21/16 Q0998=
201107221720 METAR ESMX 221720Z 10003KT 030V200 9999 FEW024 21/16 Q0998=
201107221650 METAR ESMX 221650Z 08005KT 050V120 9999 FEW023 22/17 Q0998=
201107221620 METAR ESMX 221620Z 08004KT 030V130 9999 FEW022 21/17 Q0998=
201107221550 METAR ESMX 221550Z 09005KT 050V140 9999 FEW016 SCT031 22/17 Q0998=
201107221520 METAR ESMX 221520Z 06005KT 350V110 9999 FEW015 BKN034 21/17 Q0998=
201107221450 METAR ESMX 221450Z 07005KT 340V140 9999 SCT013 BKN033 21/17 Q0998=
201107221420 METAR ESMX 221420Z 06005KT 010V110 9999 FEW016 BKN020 20/17 Q0998=
201107221350 METAR ESMX 221350Z 08006KT 030V120 9999 FEW015 BKN025 21/17 Q0998=
201107221320 METAR ESMX 221320Z 08007KT 050V120 9999 FEW018 BKN023 21/17 Q0998=
201107221250 METAR ESMX 221250Z 09006KT 050V130 9999 FEW020 BKN025 OVC031 21/17 Q0998=
201107221220 METAR ESMX 221220Z 08007KT 020V140 9999 FEW020 BKN030 22/17 Q0998=
201107221150 METAR ESMX 221150Z 07007KT 030V110 9999 SCT023 BKN033 22/17 Q0998=
201107221120 METAR ESMX 221120Z 05006G16KT 010V120 9999 SCT020 BKN027 22/17 Q0998=
201107221050 METAR ESMX 221050Z 07007KT 020V110 9999 FEW016 SCT020 BKN024 22/18 Q0998=
201107221020 METAR ESMX 221020Z 05007KT 010V090 9999 FEW013 SCT017 BKN025 22/18 Q0998=
201107220950 METAR ESMX 220950Z 06005KT 020V090 9999 FEW013 SCT017 OVC020 20/18 Q0998=
201107220920 METAR ESMX 220920Z 08004KT 020V140 9999 SCT011 BKN016 OVC020 20/18 Q0998=
201107220850 METAR ESMX 220850Z 04005KT 360V100 9999 FEW010 SCT013 BKN015 20/18 Q0998=
201107220820 METAR ESMX 220820Z 04006KT 010V080 9999 FEW009 BKN010 OVC014 20/18 Q0998=
201107220750 METAR ESMX 220750Z 04006KT 360V070 9999 FEW007 BKN008 OVC010 20/18 Q0998=
201107220720 METAR ESMX 220720Z 04006KT 010V080 9999 BR FEW006 BKN007 OVC011 20/18 Q0998=
201107220650 METAR ESMX 220650Z 05005KT 020V100 9000 -DZ FEW006 BKN008 OVC012 19/18 Q0998=
201107220620 METAR ESMX 220620Z 03003KT 350V070 9000 BR BKN006 OVC009 18/17 Q0998=
201107220550 METAR ESMX 220550Z 05004KT 010V090 9999 -DZ OVC006 18/17 Q0998=
201107220520 METAR ESMX 220520Z 04005KT 350V080 8000 BR SCT004 OVC007 18/17 Q0998=
201107220450 METAR ESMX 220450Z 04006KT 020V080 9000 BR SCT004 OVC005 18/17 Q0998 REDZ=
201107220420 METAR ESMX 220420Z AUTO 04007KT 4900NDV -DZ ////// 18/17 Q0998=
201107220350 METAR ESMX 220350Z AUTO 04005KT 010V070 3400NDV BR ////// 18/17 Q0998=
201107220320 METAR ESMX 220320Z AUTO 06004KT 010V110 3000NDV BR ////// 18/17 Q0998=
201107220250 METAR ESMX 220250Z AUTO 07005KT 020V110 6000NDV BR ////// 18/17 Q0999=
201107220220 METAR ESMX 220220Z AUTO 05005KT 360V110 9999NDV -RA ////// 18/17 Q0999=
201107220150 METAR ESMX 220150Z AUTO 04007KT 360V090 9999NDV -RA ////// 17/16 Q0999=
201107220120 METAR ESMX 220120Z AUTO 04010KT 9999NDV ////// 17/16 Q0999=
201107220050 METAR ESMX 220050Z AUTO 03010KT 9999NDV -RA ////// 17/16 Q0999=
201107220020 METAR ESMX 220020Z 03009KT 9999 -RA SCT004 BKN006 17/16 Q0999=
201107212350 METAR ESMX 212350Z 35008KT 9999 -RA SCT004 BKN008 17/16 Q0999=
201107212320 METAR ESMX 212320Z 02008KT 9999 SCT004 BKN010 17/16 Q1000=
201107212250 METAR ESMX 212250Z 04008KT 6000 TSRA OVC005 17/16 Q1001=
201107212220 METAR ESMX 212220Z 05007KT 010V080 4300 TSRA OVC005 18/16 Q1001=
201107212150 METAR ESMX 212150Z 02009KT 9999 OVC006 18/16 Q1001=
201107212120 METAR ESMX 212120Z 03008KT 350V060 9999 OVC007 18/16 Q1001=
201107212050 METAR ESMX 212050Z 02010KT 9999 OVC009 18/16 Q1001=
201107212020 METAR ESMX 212020Z 02009KT 9999 OVC012 18/16 Q1001=
201107211950 METAR ESMX 211950Z 02010KT 9999 OVC013 18/16 Q1001=
201107211920 METAR ESMX 211920Z 35007KT 9999 OVC014 17/16 Q1002=
201107211850 METAR ESMX 211850Z 02006KT 9999 OVC015 17/16 Q1002=
201107211820 METAR ESMX 211820Z 02005KT 9999 OVC013 17/15 Q1002 RERA=
201107211750 METAR ESMX 211750Z 02008KT 9999 OVC013 18/15 Q1002=
201107211720 METAR ESMX 211720Z 02008KT 9999 OVC014 18/15 Q1002=
201107211650 METAR ESMX 211650Z 36010KT 9999 OVC015 18/15 Q1002=
201107211620 METAR ESMX 211620Z 02010KT 9999 OVC017 18/15 Q1002=
201107211550 METAR ESMX 211550Z 02008KT 330V040 9999 OVC017 17/16 Q1002=
201107211450 METAR ESMX 211450Z 03009KT 350V070 9999 OVC020 19/15 Q1003=
201107211420 METAR ESMX 211420Z 01010KT 330V030 9999 OVC020 19/15 Q1003=
201107211320 METAR ESMX 211320Z 36013KT 9999 OVC020 19/14 Q1003=
201107211250 METAR ESMX 211250Z 36012KT 9999 OVC020 19/14 Q1003=
201107211220 METAR ESMX 211220Z AUTO 36013KT 9999NDV OVC020/// 18/14 Q1003=
201107211150 METAR ESMX 211150Z 01012KT 9999 OVC019 18/14 Q1004=
201107211120 METAR ESMX 211120Z 35012KT 9999 SCT020 OVC030 18/14 Q1004=
201107211050 METAR ESMX 211050Z 35013KT 9999 OVC031 18/13 Q1004=
201107211020 METAR ESMX 211020Z 01012KT 330V030 9999 OVC037 17/13 Q1004=
201107210950 METAR ESMX 210950Z 34013KT 9999 OVC040 18/13 Q1004=
201107210920 METAR ESMX 210920Z 34009KT 9999 OVC044 17/13 Q1004=
201107210850 METAR ESMX 210850Z 01011KT 340V040 9999 OVC046 17/13 Q1004=
201107210820 METAR ESMX 210820Z 35010KT CAVOK 17/13 Q1005=
201107210750 METAR ESMX 210750Z 01009KT CAVOK 16/13 Q1005=
201107210720 METAR ESMX 210720Z AUTO 36008KT 9999NDV OVC060/// 16/13 Q1005=
201107210650 METAR ESMX 210650Z AUTO 35008KT 9999NDV FEW019/// SCT066/// BKN100/// 16/13 Q1005=
201107210620 METAR ESMX 210620Z AUTO 36008KT 9999NDV BKN067/// BKN081/// 16/12 Q1005=
201107210550 METAR ESMX 210550Z AUTO 01009KT 9999NDV OVC067/// 15/12 Q1005=
201107210520 METAR ESMX 210520Z AUTO 02008KT 9999NDV OVC066/// 15/12 Q1005=
201107210450 METAR ESMX 210450Z AUTO 36010KT 9999NDV -RA OVC069/// 16/12 Q1005=
201107210420 METAR ESMX 210420Z AUTO 02010KT 9999NDV FEW048/// BKN069/// 16/12 Q1005=
201107210350 METAR ESMX 210350Z AUTO 02007KT 9999NDV -DZ FEW060/// BKN072/// 16/13 Q1005=
201107210320 METAR ESMX 210320Z AUTO 02007KT 9999NDV -RA BKN075/// 16/14 Q1005=
201107210250 METAR ESMX 210250Z AUTO 36007KT 330V030 9999NDV -DZ BKN081/// 16/14 Q1005=
201107210220 METAR ESMX 210220Z AUTO 34008KT 9999NDV -RA BKN080/// 16/14 Q1005=
201107210150 METAR ESMX 210150Z AUTO 35007KT 9999NDV -RA OVC079/// 16/15 Q1005=
201107210120 METAR ESMX 210120Z AUTO 34008KT 9999NDV -DZ OVC077/// 16/15 Q1005=
201107210050 METAR ESMX 210050Z AUTO 34007KT 9999NDV -DZ SCT078/// BKN093/// 16/15 Q1005=
201107210020 METAR ESMX 210020Z AUTO 35006KT 9999NDV -RA FEW075/// BKN094/// 17/15 Q1006=
201107202350 METAR ESMX 202350Z AUTO 35005KT 9999NDV BKN099/// 17/15 Q1006=
201107202320 METAR ESMX 202320Z 01006KT CAVOK 17/15 Q1006=
201107202250 METAR ESMX 202250Z 02006KT CAVOK 17/15 Q1006=
201107202220 METAR ESMX 202220Z 01005KT CAVOK 17/15 Q1006=
201107202150 METAR ESMX 202150Z 01004KT CAVOK 17/15 Q1007=
201107202120 METAR ESMX 202120Z 35004KT 310V020 CAVOK 17/15 Q1007=
201107202050 METAR ESMX 202050Z 35004KT CAVOK 17/16 Q1007=
201107202020 METAR ESMX 202020Z 35005KT CAVOK 17/16 Q1007=
201107201950 METAR ESMX 201950Z 35005KT 9999 FEW020 BKN100 17/15 Q1007=
201107201920 METAR ESMX 201920Z 32004KT 9999 FEW020 BKN100 17/16 Q1007=
201107201850 METAR ESMX 201850Z 32004KT 9999 FEW020 BKN100 17/16 Q1007=
201107201820 METAR ESMX 201820Z 35002KT 9999 FEW020 BKN100 18/16 Q1007=
201107201750 METAR ESMX 201750Z 33004KT 9999 FEW020 BKN100 18/16 Q1007=
201107201720 METAR ESMX 201720Z 32004KT 9999 FEW020 SCT030 BKN100 18/16 Q1007=
201107201650 METAR ESMX 201650Z 31004KT 9999 FEW025 BKN096 18/17 Q1007=
201107201620 METAR ESMX 201620Z 33004KT 9999 -SHRA FEW020 SCT030CB BKN100 18/16 Q1007=
201107201550 METAR ESMX 201550Z 35005KT 310V020 9999 FEW017 SCT060 BKN100 19/15 Q1007=
201107201520 METAR ESMX 201520Z 35006KT 320V020 9999 FEW013 SCT030 BKN080 19/16 Q1007=
201107201450 METAR ESMX 201450Z 01006KT 340V040 9999 FEW032 BKN060 19/16 Q1007=
201107201420 METAR ESMX 201420Z 02005KT 350V050 9999 FEW035 BKN057 19/16 Q1007=
201107201350 METAR ESMX 201350Z 36005KT 9999 SCT033 BKN043 18/15 Q1007=
201107201320 METAR ESMX 201320Z 36005KT 330V030 9999 FEW007 BKN035 BKN093 17/15 Q1007=
201107201250 METAR ESMX 201250Z 36004KT 330V030 9999 FEW008 SCT040 BKN072 17/16 Q1008=
201107201150 METAR ESMX 201150Z 36007KT 320V040 5000 SHRA SCT023CB BKN080 16/14 Q1007=
201107201120 METAR ESMX 201120Z AUTO 05006KT 9999NDV -RA FEW022/// SCT043/// BKN049/// 18/14 Q1008=
201107201050 METAR ESMX 201050Z 03006KT 350V060 9999 BKN027 19/13 Q1008=
201107201020 METAR ESMX 201020Z 05006KT 020V090 9999 SCT028 BKN038 19/13 Q1008=
201107200950 METAR ESMX 200950Z 04007KT 020V080 9999 SCT038 BKN090 20/13 Q1008=
201107200920 METAR ESMX 200920Z 03005KT 350V060 9999 SCT038 BKN082 20/14 Q1008=
201107200850 METAR ESMX 200850Z 04005KT 9999 SCT037 BKN080 19/14 Q1008=
201107200820 METAR ESMX 200820Z AUTO 35005KT 9999NDV FEW038/// SCT046/// 18/14 Q1008=
201107200750 METAR ESMX 200750Z AUTO 01005KT 9999NDV FEW037/// SCT043/// BKN074/// 17/14 Q1008=
201107200720 METAR ESMX 200720Z AUTO 02004KT 9999NDV SCT039/// 16/15 Q1008=
201107200650 METAR ESMX 200650Z AUTO 01004KT 330V030 9999NDV SCT001/// 15/14 Q1008=
201107200620 METAR ESMX 200620Z AUTO 36004KT 320V020 9000NDV BKN001/// 14/14 Q1008=
201107200550 METAR ESMX 200550Z AUTO 04003KT 010V080 2900NDV OVC001/// 14/14 Q1008=
201107200520 METAR ESMX 200520Z AUTO VRB02KT 0400NDV R01/0800V1300 R19/0900V1600 FG OVC000/// 14/13 Q1008=
201107200450 METAR ESMX 200450Z AUTO 05003KT 020V080 0200NDV R01/0350V0550 R19/0450N FG VV001 13/13 Q1008=
201107200420 METAR ESMX 200420Z AUTO 31002KT 0100NDV R01/0175V0300N R19/0300 FG BKN000/// 12/11 Q1008=
201107200350 METAR ESMX 200350Z AUTO VRB01KT 0150NDV R01/0300 R19/0400 FG VV001 12/11 Q1008=
201107200320 METAR ESMX 200320Z AUTO 30001KT 0100NDV R01/0350V0600 R19/0150V0250N FG VV000 12/11 Q1008=
201107200250 METAR ESMX 200250Z AUTO 00000KT 0100NDV R01/0225V0325N R19/0275N FG VV000 13/12 Q1008=
201107200220 METAR ESMX 200220Z AUTO 00000KT 0100NDV R01/0400N R19/0350N FG VV000 13/12 Q1008=
201107200150 METAR ESMX 200150Z AUTO VRB01KT 0100NDV R01/0400V0550N R19/0350N FG VV000 13/13 Q1008=
201107200120 METAR ESMX 200120Z AUTO VRB01KT 0150NDV R01/0500V1000D R19/0550 FG VV001 13/12 Q1008=
201107200050 METAR ESMX 200050Z AUTO 00000KT 0350NDV R01/P2000N R19/0600VP2000D FG FEW002/// 12/12 Q1008=
201107200020 METAR ESMX 200020Z AUTO VRB02KT 0250NDV R01/P2000N R19/0800V1300 BR FEW003/// 13/12 Q1008=
201107192350 METAR ESMX 192350Z AUTO 19003KT 6000NDV BR BKN039/// 13/12 Q1008=
201107192320 METAR ESMX 192320Z 18004KT 9999 FEW040 15/13 Q1008=
201107192250 METAR ESMX 192250Z 16005KT 9999 FEW045 15/13 Q1008=
201107192220 METAR ESMX 192220Z 15005KT 120V180 9999 FEW044 15/13 Q1008=
201107192150 METAR ESMX 192150Z 16005KT CAVOK 16/13 Q1008=
201107192120 METAR ESMX 192120Z 14004KT CAVOK 16/12 Q1008=
201107192050 METAR ESMX 192050Z 17003KT 140V200 CAVOK 17/12 Q1008=
201107192020 METAR ESMX 192020Z 17004KT CAVOK 17/12 Q1008=
201107191950 METAR ESMX 191950Z 15004KT CAVOK 17/12 Q1008=
201107191920 METAR ESMX 191920Z 16005KT 110V200 CAVOK 19/11 Q1008=
201107191850 METAR ESMX 191850Z 18005KT CAVOK 19/11 Q1007=
201107191820 METAR ESMX 191820Z 18005KT 140V210 CAVOK 20/11 Q1007=
201107191750 METAR ESMX 191750Z 16005KT 120V190 CAVOK 21/11 Q1007=
201107191720 METAR ESMX 191720Z 16007KT 120V200 CAVOK 21/10 Q1007=
201107191650 METAR ESMX 191650Z 17010KT 140V210 9999 FEW047 21/11 Q1007=
201107191620 METAR ESMX 191620Z 16009KT 130V190 CAVOK 22/10 Q1007=
201107191550 METAR ESMX 191550Z 16010KT 110V210 CAVOK 22/09 Q1007=
201107191520 METAR ESMX 191520Z 18009KT 110V240 CAVOK 23/10 Q1006=
201107191450 METAR ESMX 191450Z 19011KT 140V210 CAVOK 23/10 Q1006=
201107191420 METAR ESMX 191420Z 17010KT 130V220 CAVOK 23/10 Q1006=
201107191350 METAR ESMX 191350Z 17010KT 140V210 CAVOK 23/10 Q1006=
201107191320 METAR ESMX 191320Z 17008KT 120V200 9999 SCT049 22/10 Q1007=
201107191250 METAR ESMX 191250Z 16009KT 130V200 9999 SCT048 23/10 Q1007=
201107191220 METAR ESMX 191220Z AUTO 20007KT 9999NDV FEW075/// SCT085/// BKN100/// 23/12 Q1007=
201107191150 METAR ESMX 191150Z AUTO 18009KT 140V210 9999NDV FEW042/// SCT065/// 21/12 Q1007=
201107191120 METAR ESMX 191120Z AUTO 18011KT 9999NDV FEW053/// SCT100/// 22/11 Q1007=
201107191050 METAR ESMX 191050Z AUTO 17007KT 9999NDV FEW030/// SCT100/// 21/11 Q1007=
201107191020 METAR ESMX 191020Z AUTO 18009KT 150V220 9999NDV FEW093/// 23/12 Q1007=
201107190950 METAR ESMX 190950Z AUTO 15007KT 090V190 9999NDV FEW042/// 22/11 Q1007=
201107190920 METAR ESMX 190920Z AUTO 14006KT 070V200 9999NDV FEW034/// 21/12 Q1007=
201107190850 METAR ESMX 190850Z AUTO 15006KT 090V190 9999NDV FEW110/// 21/12 Q1007=
201107190820 METAR ESMX 190820Z AUTO 11004KT 050V140 9999NDV FEW027/// 20/13 Q1007=
201107190750 METAR ESMX 190750Z AUTO 14004KT 080V190 9999NDV NCD 19/13 Q1007=
201107190720 METAR ESMX 190720Z AUTO 16003KT 080V220 9999NDV NCD 19/13 Q1007=
201107190650 METAR ESMX 190650Z AUTO 15003KT 110V200 9999NDV NCD 18/13 Q1006=
201107190620 METAR ESMX 190620Z AUTO 15004KT 120V200 9999NDV NCD 17/13 Q1006=
201107190550 METAR ESMX 190550Z AUTO 16003KT 110V190 9999NDV NCD 17/14 Q1006=
201107190520 METAR ESMX 190520Z AUTO 14003KT 110V190 9999NDV FEW003/// 15/14 Q1006=
201107190450 METAR ESMX 190450Z AUTO 14004KT 100V180 6000NDV BR BKN001/// 14/14 Q1006=
201107190420 METAR ESMX 190420Z AUTO 15003KT 100V170 3300NDV BR VV002 14/13 Q1006=
201107190350 METAR ESMX 190350Z AUTO VRB02KT 2500NDV BR BKN001/// 14/13 Q1005=
201107190320 METAR ESMX 190320Z AUTO 15003KT 1900NDV FEW001/// BKN002/// 13/13 Q1005=
201107190250 METAR ESMX 190250Z AUTO 16003KT 2200NDV SCT001/// BKN003/// 13/13 Q1005=
201107190220 METAR ESMX 190220Z AUTO 16006KT 0700NDV R01/1800U R19/P2000N FG BKN001/// 14/13 Q1005=
201107190150 METAR ESMX 190150Z AUTO 15005KT 110V190 2500NDV VV002 14/13 Q1005=
201107190120 METAR ESMX 190120Z AUTO 15005KT 110V190 0400NDV R01/1400N R19/P2000N FG OVC001/// 14/14 Q1005=
201107190050 METAR ESMX 190050Z AUTO 16006KT 120V190 0450NDV R01/1200VP2000D R19/P2000D FG VV001 14/13 Q1004=
201107190020 METAR ESMX 190020Z AUTO 15004KT 100V170 1700NDV BR FEW002/// 14/13 Q1004=
201107182350 METAR ESMX 182350Z AUTO 17004KT 140V200 8000NDV BR NCD 14/13 Q1004=
201107182320 METAR COR ESMX 182320Z 17004KT 9999 FEW008 15/13 Q1004=
201107182250 METAR ESMX 182250Z 14006KT 110V190 CAVOK 15/13 Q1005=
201107182220 METAR ESMX 182220Z 15005KT 120V190 CAVOK 15/13 Q1004=
201107182150 METAR ESMX 182150Z 15005KT CAVOK 15/13 Q1004=
201107182120 METAR ESMX 182120Z 15005KT CAVOK 15/13 Q1004=
201107182050 METAR ESMX 182050Z 14004KT CAVOK 15/13 Q1004=
201107182020 METAR ESMX 182020Z 16005KT CAVOK 16/13 Q1004=
201107181950 METAR ESMX 181950Z 17006KT CAVOK 16/13 Q1003=
201107181920 METAR ESMX 181920Z 17005KT CAVOK 17/12 Q1003=
201107181850 METAR ESMX 181850Z AUTO 17006KT 140V210 9999NDV NCD 17/12 Q1003=
201107181820 METAR ESMX 181820Z AUTO 17009KT 130V240 9999NDV NCD 18/11 Q1003=
201107181750 METAR ESMX 181750Z AUTO 18010KT 140V200 9999NDV FEW032/// SCT079/// 19/12 Q1002=
201107181720 METAR ESMX 181720Z AUTO 17010KT 140V210 9999NDV FEW034/// SCT067/// 19/12 Q1002=
201107181650 METAR ESMX 181650Z AUTO 18008KT 9999NDV FEW031/// SCT044/// BKN073/// 19/12 Q1002=
201107181620 METAR ESMX 181620Z AUTO 17010KT 120V200 9999NDV NCD 19/12 Q1001=
201107181550 METAR ESMX 181550Z AUTO 17011KT 130V210 9999NDV FEW029/// BKN069/// 20/12 Q1001=
201107181520 METAR ESMX 181520Z AUTO 16008KT 110V190 9999NDV FEW031/// SCT045/// BKN063/// 19/13 Q1001=
201107181450 METAR ESMX 181450Z AUTO 18010KT 120V210 9999NDV FEW032/// 20/13 Q1001=
201107181420 METAR ESMX 181420Z AUTO 18007KT 130V230 9999NDV FEW030/// SCT075/// 20/13 Q1001=
201107181350 METAR ESMX 181350Z AUTO 18009KT 140V240 9999NDV FEW032/// SCT074/// 20/13 Q1001=
201107181320 METAR ESMX 181320Z AUTO 18008KT 9999NDV FEW027/// SCT047/// 19/12 Q1001=
201107181250 METAR ESMX 181250Z AUTO 19010KT 150V210 9999NDV FEW024/// SCT089/// 19/13 Q1001=
201107181220 METAR ESMX 181220Z 19009KT 9999 SCT022 BKN120 19/13 Q1001=
201107181150 METAR ESMX 181150Z 20008KT 9999 SCT015 BKN080 19/13 Q1001=
201107181120 METAR ESMX 181120Z 16007KT 130V200 9999 SCT015 BKN080 18/14 Q1000=
201107181050 METAR ESMX 181050Z 18006KT 140V220 9999 FEW017 BKN042 BKN064 18/14 Q1000=
201107181020 METAR ESMX 181020Z 19007KT 160V230 9999 FEW013 SCT021 BKN059 17/14 Q1000=
201107180950 METAR ESMX 180950Z 20008KT 9999 FEW012 SCT015 BKN021 17/14 Q1000=
201107180920 METAR ESMX 180920Z 20007KT 160V230 9999 FEW007 SCT039 BKN055 17/13 Q1000=
201107180850 METAR ESMX 180850Z 19007KT 9999 FEW005 SCT009 BKN027 16/15 Q1000 REDZ=
201107180820 METAR ESMX 180820Z 19006KT 9999 FEW008 SCT012 OVC023 15/14 Q1000=
201107180750 METAR ESMX 180750Z 17006KT 150V210 9999 DZ FEW005 OVC009 15/14 Q0999=
201107180720 METAR ESMX 180720Z 18005KT 150V220 9999 -DZ FEW004 BKN005 OVC007 15/14 Q0999=
201107180650 METAR ESMX 180650Z 16004KT 110V200 9999 -RA FEW004 BKN005 BKN009 15/14 Q1000=
201107180620 METAR ESMX 180620Z 18004KT 130V210 9999 DZ FEW002 SCT004 BKN009 15/14 Q0999=
201107180550 METAR ESMX 180550Z 18004KT CAVOK 14/13 Q1000=
201107180520 METAR ESMX 180520Z 15003KT 120V180 9999 DZ NSC 14/13 Q0999=
201107180450 METAR ESMX 180450Z 17003KT 130V200 9999 -RA FEW020 SCT032 BKN045 14/13 Q1000=
201107180420 METAR ESMX 180420Z AUTO 21005KT 9999NDV -RA FEW003/// OVC017/// 14/13 Q1000=
201107180350 METAR ESMX 180350Z AUTO 20005KT 9000NDV -RA FEW002/// BKN004/// OVC008/// 15/14 Q0999=
201107180320 METAR ESMX 180320Z AUTO 18004KT 150V210 7000NDV -RA FEW002/// SCT005/// BKN008/// 15/14 Q0999=
201107180250 METAR ESMX 180250Z AUTO VRB02KT 3000NDV RA FEW002/// SCT004/// BKN006/// 16/15 Q1000=
201107180220 METAR ESMX 180220Z AUTO 19003KT 3700NDV DZ FEW005/// SCT011/// BKN017/// 16/15 Q1000=
201107180150 METAR ESMX 180150Z AUTO 20002KT 4800NDV DZ BKN007/// BKN011/// 16/15 Q1000=
201107180120 METAR ESMX 180120Z AUTO 14002KT 5000NDV -RA FEW087/// 16/15 Q1000=
201107180050 METAR ESMX 180050Z AUTO VRB02KT 4600NDV -RA FEW009/// 16/15 Q1000=
201107180020 METAR ESMX 180020Z AUTO 18004KT 6000NDV -RA FEW067/// 16/15 Q1000=
201107172350 METAR ESMX 172350Z 15005KT 120V190 9000 DZ FEW078 16/15 Q1001=
201107172320 METAR ESMX 172320Z 17003KT 140V210 9000 -RA NSC 16/15 Q1001=
201107172250 METAR ESMX 172250Z 16003KT 9000 -RA BKN085 17/15 Q1001 REDZ=
201107172220 METAR ESMX 172220Z 15004KT 110V170 9999 FEW085 SCT100 17/15 Q1000=
201107172150 METAR ESMX 172150Z VRB02KT CAVOK 17/15 Q1000=
201107172120 METAR ESMX 172120Z 15003KT 110V170 CAVOK 17/15 Q1000=
201107172050 METAR ESMX 172050Z 13004KT 080V170 CAVOK 17/15 Q1000=
201107172020 METAR ESMX 172020Z 14003KT CAVOK 17/14 Q1001=
201107171950 METAR ESMX 171950Z 15005KT 110V190 CAVOK 18/14 Q1001=
201107171920 METAR ESMX 171920Z 15004KT 110V180 CAVOK 18/14 Q1001=
201107171850 METAR ESMX 171850Z 16005KT 110V190 CAVOK 18/14 Q1000=
201107171820 METAR ESMX 171820Z 16006KT 120V200 CAVOK 19/14 Q1000=
201107171750 METAR ESMX 171750Z 15006KT 100V200 CAVOK 19/14 Q1000=
201107171720 METAR ESMX 171720Z 14006KT 090V170 CAVOK 19/14 Q1000=
201107171650 METAR ESMX 171650Z 16006KT 120V200 9999 -RA BKN053 19/14 Q1000=
201107171620 METAR ESMX 171620Z 16007KT 120V200 9999 FEW049 BKN072 20/13 Q1000=
201107171550 METAR ESMX 171550Z 15008KT 110V200 CAVOK 20/13 Q1000=
201107171520 METAR ESMX 171520Z 17011KT 140V200 9999 FEW043 SCT055 BKN067 20/12 Q1001=
201107171450 METAR ESMX 171450Z 14009KT 100V190 CAVOK 20/13 Q1001=
201107171420 METAR ESMX 171420Z 14011KT 100V200 CAVOK 20/13 Q1001=
201107171350 METAR ESMX 171350Z 15008KT 110V190 9999 FEW045 BKN064 21/12 Q1001=
201107171320 METAR ESMX 171320Z 16011KT 110V200 CAVOK 21/12 Q1001=
201107171250 METAR ESMX 171250Z 16010KT 130V200 CAVOK 21/12 Q1001=
201107171220 METAR ESMX 171220Z 14009KT 100V180 CAVOK 21/12 Q1001=
201107171150 METAR ESMX 171150Z 14010KT 090V180 CAVOK 21/12 Q1001=
201107171120 METAR ESMX 171120Z 13009G20KT 050V190 CAVOK 21/13 Q1001=
201107171050 METAR ESMX 171050Z 12005KT 080V190 CAVOK 20/13 Q1001=
201107171020 METAR ESMX 171020Z AUTO 12007KT 080V190 9999NDV NCD 20/13 Q1002=
201107170950 METAR ESMX 170950Z AUTO 12006KT 060V190 9999NDV FEW055/// 20/12 Q1002=
201107170920 METAR ESMX 170920Z AUTO 13008KT 080V170 9999NDV NCD 20/12 Q1002=
201107170850 METAR ESMX 170850Z AUTO 12007G17KT 050V160 9999NDV FEW041/// 20/11 Q1003=
201107170820 METAR ESMX 170820Z AUTO 13007KT 050V200 9999NDV NCD 20/11 Q1003=
201107170750 METAR ESMX 170750Z AUTO 12008KT 040V170 9999NDV FEW059/// 19/10 Q1003=
201107170720 METAR ESMX 170720Z AUTO 12006KT 060V180 9999NDV FEW082/// 18/10 Q1003=
201107170650 METAR ESMX 170650Z AUTO 13006KT 060V160 9999NDV NCD 17/09 Q1004=
201107170620 METAR ESMX 170620Z AUTO 12004KT 060V180 9999NDV FEW065/// 17/09 Q1004=
201107170550 METAR ESMX 170550Z AUTO 13004KT 070V190 9999NDV NCD 16/09 Q1004=
201107170520 METAR ESMX 170520Z AUTO 13004KT 080V190 9999NDV NCD 14/09 Q1005=
201107170450 METAR ESMX 170450Z AUTO 15005KT 090V190 9999NDV NCD 14/10 Q1005=
201107170420 METAR ESMX 170420Z AUTO 15003KT 100V180 9999NDV NCD 13/10 Q1005=
201107170350 METAR ESMX 170350Z AUTO 12004KT 070V160 9999NDV NCD 13/10 Q1005=
201107170320 METAR ESMX 170320Z AUTO 14004KT 100V170 9999NDV NCD 12/10 Q1005=
201107170250 METAR ESMX 170250Z AUTO 13004KT 100V170 9999NDV NCD 11/10 Q1005=
201107170220 METAR ESMX 170220Z AUTO 13004KT 100V160 9999NDV NCD 12/11 Q1006=
201107170150 METAR ESMX 170150Z AUTO 13004KT 100V170 9999NDV NCD 11/11 Q1006=
201107170120 METAR ESMX 170120Z AUTO 15003KT 110V170 1100NDV R01/P2000N R19/P2000N FG NCD 09/08 Q1006=
201107170050 METAR ESMX 170050Z AUTO 00000KT 4000NDV BR NCD 09/08 Q1006=
201107170020 METAR ESMX 170020Z AUTO 00000KT 9999NDV NCD 10/09 Q1006=
201107162350 METAR ESMX 162350Z AUTO VRB02KT 9999NDV NCD 10/09 Q1007=
201107162320 METAR ESMX 162320Z AUTO 16003KT 9999NDV NCD 10/09 Q1007=
201107162250 METAR ESMX 162250Z AUTO 16002KT 9999NDV NCD 11/10 Q1007=
201107162220 METAR ESMX 162220Z AUTO 17001KT 9999NDV NCD 11/09 Q1007=
201107162150 METAR ESMX 162150Z AUTO 16003KT 110V190 9999NDV NCD 11/10 Q1007=
201107162120 METAR ESMX 162120Z AUTO 16002KT 9999NDV NCD 12/10 Q1007=
201107162050 METAR ESMX 162050Z AUTO 20003KT 9999NDV NCD 12/10 Q1007=
201107162020 METAR ESMX 162020Z AUTO 21002KT 9999NDV NCD 12/10 Q1007=
201107161950 METAR ESMX 161950Z AUTO 20003KT 9999NDV NCD 15/11 Q1007=
201107161920 METAR ESMX 161920Z AUTO 21003KT 9999NDV NCD 17/11 Q1007=
201107161850 METAR ESMX 161850Z AUTO 23003KT 200V270 9999NDV NCD 18/10 Q1007=
201107161820 METAR ESMX 161820Z AUTO 23004KT 9999NDV NCD 19/10 Q1007=
201107161750 METAR ESMX 161750Z AUTO 26004KT 9999NDV NCD 19/09 Q1007=
201107161720 METAR ESMX 161720Z AUTO 25005KT 220V280 9999NDV NCD 20/09 Q1007=
201107161650 METAR ESMX 161650Z AUTO 23006KT 9999NDV NCD 20/08 Q1007=
201107161620 METAR ESMX 161620Z AUTO 24008KT 200V280 9999NDV NCD 20/09 Q1007=
201107161550 METAR ESMX 161550Z AUTO 25009KT 210V290 9999NDV FEW044/// 21/09 Q1007=
201107161520 METAR ESMX 161520Z AUTO 26008KT 9999NDV FEW039/// 21/09 Q1007=
201107161450 METAR ESMX 161450Z AUTO 24006KT 200V320 9999NDV FEW039/// 20/10 Q1007=
201107161420 METAR ESMX 161420Z AUTO 24010KT 9999NDV FEW040/// 21/11 Q1008=
201107161350 METAR ESMX 161350Z AUTO 26009KT 200V290 9999NDV FEW037/// SCT046/// 20/11 Q1008=
201107161320 METAR ESMX 161320Z AUTO 26008KT 230V290 9999NDV FEW037/// SCT066/// 20/10 Q1008=
201107161250 METAR ESMX 161250Z AUTO 23014KT 200V260 9999NDV FEW034/// SCT056/// 21/11 Q1008=
201107161220 METAR ESMX 161220Z AUTO 22013KT 9999NDV FEW039/// SCT065/// 20/11 Q1008=
201107161150 METAR ESMX 161150Z AUTO 27011KT 220V290 9999NDV FEW036/// SCT046/// BKN059/// 21/10 Q1008=
201107161120 METAR ESMX 161120Z AUTO 25010KT 220V300 9999NDV FEW038/// SCT055/// 20/09 Q1008=
201107161050 METAR ESMX 161050Z AUTO 26010KT 220V290 9999NDV FEW031/// SCT040/// BKN046/// 19/10 Q1008=
201107161020 METAR ESMX 161020Z AUTO 23009KT 9999NDV FEW034/// SCT051/// 19/11 Q1008=
201107160950 METAR ESMX 160950Z AUTO 27009KT 230V310 9999NDV FEW028/// SCT037/// 18/11 Q1008=
201107160920 METAR ESMX 160920Z AUTO 26010KT 210V290 9999NDV FEW027/// SCT032/// BKN049/// 17/11 Q1008=
201107160850 METAR ESMX 160850Z AUTO 27009KT 9999NDV FEW024/// BKN039/// 17/10 Q1008=
201107160820 METAR ESMX 160820Z AUTO 26007KT 230V310 9999NDV FEW021/// BKN041/// 17/11 Q1008=
201107160750 METAR ESMX 160750Z AUTO 25008KT 210V290 9999NDV FEW017/// SCT035/// BKN040/// 16/11 Q1008=
201107160720 METAR ESMX 160720Z AUTO 27009KT 240V300 9999NDV SCT015/// BKN020/// 16/11 Q1008=
201107160650 METAR ESMX 160650Z AUTO 28008KT 240V310 9999NDV FEW011/// SCT014/// BKN020/// 15/11 Q1008=
201107160620 METAR ESMX 160620Z AUTO 26006KT 220V320 9999NDV FEW008/// SCT010/// BKN013/// 14/12 Q1008=
201107160550 METAR ESMX 160550Z AUTO 26008KT 230V290 9999NDV FEW008/// SCT010/// BKN013/// 14/12 Q1008=
201107160520 METAR ESMX 160520Z AUTO 26007KT 220V290 9999NDV FEW008/// BKN034/// BKN055/// 14/12 Q1007=
201107160450 METAR ESMX 160450Z AUTO 27007KT 230V310 9999NDV FEW005/// SCT008/// BKN011/// 14/12 Q1007=
201107160420 METAR ESMX 160420Z AUTO 26006KT 230V290 9999NDV FEW008/// BKN010/// 14/12 Q1007=
201107160350 METAR ESMX 160350Z AUTO 23005KT 9999NDV FEW006/// SCT009/// BKN015/// 14/13 Q1007=
201107160320 METAR ESMX 160320Z AUTO 22005KT 9999NDV BR FEW004/// SCT006/// BKN011/// 14/13 Q1007=
201107160250 METAR ESMX 160250Z AUTO 21005KT 9999NDV FEW003/// SCT005/// BKN015/// 14/13 Q1007=
201107160220 METAR ESMX 160220Z AUTO 22005KT 9000NDV BKN004/// OVC008/// 13/13 Q1007=
201107160150 METAR ESMX 160150Z AUTO 21005KT 9000NDV BKN003/// OVC006/// 13/13 Q1007=
201107160120 METAR ESMX 160120Z AUTO 20004KT 9000NDV BR FEW004/// SCT005/// BKN013/// 13/13 Q1007=
201107160050 METAR ESMX 160050Z AUTO 21004KT 9000NDV BR FEW009/// OVC025/// 13/12 Q1007 REDZ=
201107160020 METAR ESMX 160020Z AUTO 22003KT 6000NDV BR FEW026/// SCT039/// BKN045/// 12/12 Q1007=
201107152350 METAR ESMX 152350Z AUTO 20003KT 6000NDV BR SCT001/// BKN011/// OVC052/// 12/12 Q1007=
201107152320 METAR ESMX 152320Z AUTO 19005KT 6000NDV BR SCT001/// BKN090/// 13/12 Q1008=
201107152250 METAR ESMX 152250Z AUTO 20005KT 9000NDV SCT029/// 12/11 Q1008=
201107152220 METAR ESMX 152220Z AUTO 21003KT 7000NDV FEW006/// SCT031/// 12/11 Q1008=
201107152150 METAR ESMX 152150Z AUTO 20005KT 9999NDV NCD 12/11 Q1008=
201107152120 METAR ESMX 152120Z AUTO 22005KT 9999NDV FEW029/// SCT032/// 13/11 Q1008=
201107152050 METAR ESMX 152050Z AUTO 20006KT 9999NDV SCT027/// BKN045/// OVC065/// 13/12 Q1007=
201107152020 METAR ESMX 152020Z AUTO 22003KT 9999NDV FEW048/// OVC059/// 13/12 Q1007=
201107151950 METAR ESMX 151950Z AUTO 23003KT 200V260 9999NDV OVC053/// 14/12 Q1007=
201107151920 METAR ESMX 151920Z AUTO 23003KT 9999NDV OVC054/// 14/12 Q1007=
201107151850 METAR ESMX 151850Z AUTO 23005KT 200V260 9999NDV FEW022/// OVC052/// 14/12 Q1007=
201107151820 METAR ESMX 151820Z AUTO 21006KT 9999NDV FEW014/// SCT029/// BKN056/// 14/12 Q1007=
201107151750 METAR ESMX 151750Z 22006KT 190V250 9999 FEW012 SCT036 OVC047 15/11 Q1007=
201107151720 METAR ESMX 151720Z 23005KT 190V280 9999 FEW018 SCT027 OVC043 15/12 Q1007=
201107151650 METAR ESMX 151650Z 22005KT 8000 BR FEW015 SCT020 BKN025 15/12 Q1007=
201107151620 METAR ESMX 151620Z 20007KT 9999 FEW013 SCT016 BKN020 15/12 Q1007=
201107151550 METAR ESMX 151550Z 18007KT 150V210 9999 FEW014 SCT018 BKN025 15/11 Q1007=
201107151520 METAR ESMX 151520Z 17008KT 130V200 9999 FEW018 SCT026 OVC030 15/11 Q1007=
201107151450 METAR ESMX 151450Z 18009KT 140V200 9999 FEW015 SCT031 BKN038 15/11 Q1007=
201107151420 METAR ESMX 151420Z 18009KT 140V220 9999 FEW017 BKN042 15/11 Q1007=
201107151350 METAR ESMX 151350Z 18012KT 9999 FEW014 SCT018 BKN046 15/11 Q1008=
201107151320 METAR ESMX 151320Z 18008KT 140V210 9999 FEW015 SCT018 BKN036 15/11 Q1008=
201107151250 METAR ESMX 151250Z 19010KT 140V220 9999 FEW016 SCT018 BKN043 15/11 Q1008=
201107151220 METAR ESMX 151220Z 19009KT 150V210 9999 FEW018 SCT023 BKN031 15/11 Q1008=
201107151150 METAR ESMX 151150Z 18012KT 150V210 9999 FEW035 OVC039 15/10 Q1008=
201107151120 METAR ESMX 151120Z 18010KT 130V220 9999 FEW028 SCT041 BKN058 16/10 Q1008=
201107151050 METAR ESMX 151050Z 17009KT 140V200 9999 FEW025 SCT048 BKN054 16/10 Q1008=
201107151020 METAR ESMX 151020Z 16009KT 120V200 9999 FEW033 BKN052 17/10 Q1008=
201107150950 METAR ESMX 150950Z 17008KT 140V210 9999 FEW031 BKN044 18/11 Q1008=
201107150920 METAR ESMX 150920Z 17010KT 130V200 9999 FEW030 BKN047 17/10 Q1008=
201107150850 METAR ESMX 150850Z 17006KT 150V210 9999 FEW027 BKN043 17/12 Q1008=
201107150820 METAR ESMX 150820Z 16007KT 120V190 9999 BKN043 17/10 Q1008=
201107150750 METAR ESMX 150750Z 15008KT 110V170 9999 SCT024 BKN045 18/11 Q1008=
201107150720 METAR ESMX 150720Z 17006KT 120V210 9999 FEW013 BKN022 17/12 Q1008=
201107150650 METAR ESMX 150650Z 16005KT 110V200 9999 FEW010 17/13 Q1008=
201107150620 METAR ESMX 150620Z 15005KT 110V180 9999 FEW007 16/14 Q1009=
201107150550 METAR ESMX 150550Z 16005KT 110V180 9999 SCT005 15/13 Q1009=
201107150520 METAR ESMX 150520Z 15005KT 100V170 9999 FEW045 15/13 Q1009=
201107150450 METAR ESMX 150450Z 15004KT 100V190 9999 FEW045 14/13 Q1009=
201107150420 METAR ESMX 150420Z 16005KT 9999 SCT037 BKN052 13/12 Q1009=
201107150350 METAR ESMX 150350Z 17005KT 8000 BR FEW038 OVC056 13/12 Q1009=
201107150320 METAR ESMX 150320Z 18005KT 150V210 8000 BR BKN054 13/12 Q1009=
201107150250 METAR ESMX 150250Z AUTO 17004KT 5000NDV BR BKN052/// 13/12 Q1009=
201107150220 METAR ESMX 150220Z AUTO 18005KT 4200NDV BR BKN053/// 13/12 Q1009=
201107150150 METAR ESMX 150150Z AUTO 18004KT 3600NDV BR FEW006/// BKN050/// 13/12 Q1009=
201107150120 METAR ESMX 150120Z AUTO 18008KT 6000NDV BR FEW004/// OVC046/// 14/13 Q1010=
201107150050 METAR ESMX 150050Z AUTO 19007KT 6000NDV BR FEW004/// SCT006/// BKN007/// 14/13 Q1009=
201107150020 METAR ESMX 150020Z AUTO 18006KT 5000NDV BR FEW004/// SCT008/// BKN010/// 14/13 Q1009=
201107142350 METAR ESMX 142350Z AUTO 19005KT 5000NDV BR FEW007/// SCT009/// BKN012/// 14/13 Q1009=
201107142320 METAR ESMX 142320Z 20006KT 6000 BR FEW004 SCT007 BKN010 14/13 Q1009 REDZ=
201107142250 METAR ESMX 142250Z 22005KT 180V240 3000 -DZ FEW003 SCT006 BKN007 14/13 Q1010=
201107142220 METAR ESMX 142220Z 21009KT 170V240 2200 DZ FEW006 SCT008 BKN010 14/13 Q1010=
201107142150 METAR ESMX 142150Z 21008KT 9000 FEW008 BKN011 OVC021 14/13 Q1010=
201107142120 METAR ESMX 142120Z 20009KT 9999 FEW004 SCT010 BKN014 14/13 Q1009=
201107142050 METAR ESMX 142050Z 20012KT 7000 DZ OVC005 15/14 Q1009=
201107142020 METAR ESMX 142020Z 20013KT 3500 RA FEW003 BKN004 OVC007 16/15 Q1009=
201107141950 METAR ESMX 141950Z 10004KT 040V160 3500 DZ FEW003 SCT005 BKN007 16/15 Q1009=
201107141920 METAR ESMX 141920Z 08005KT 020V120 2900 DZ FEW005 BKN007 OVC010 16/15 Q1009=
201107141850 METAR ESMX 141850Z 07006KT 010V170 7000 +DZ FEW006 OVC008 16/15 Q1009=
201107141820 METAR ESMX 141820Z 07007G17KT 020V110 9999 FEW006 BKN007 BKN010 16/15 Q1008=
201107141750 METAR ESMX 141750Z 06008KT 020V100 8000 BR FEW005 OVC007 16/15 Q1008=
201107141720 METAR ESMX 141720Z 05009KT 010V090 9000 -DZ FEW005 SCT006 OVC008 16/15 Q1009=
201107141650 METAR ESMX 141650Z 05007KT 010V080 9000 +DZ FEW005 BKN007 OVC010 15/14 Q1009=
201107141620 METAR ESMX 141620Z 05009KT 010V100 7000 -RA FEW005 BKN007 OVC009 15/14 Q1009=
201107141550 METAR ESMX 141550Z 04011KT 360V080 7000 -RA FEW005 OVC009 15/14 Q1009=
201107141520 METAR ESMX 141520Z 05010KT 010V100 6000 -RA FEW005 BKN008 OVC011 15/14 Q1010=
201107141450 METAR ESMX 141450Z 04012KT 010V070 7000 -RA FEW005 BKN007 OVC011 14/13 Q1010=
201107141420 METAR ESMX 141420Z 05010KT 4000 RA FEW007 OVC011 14/13 Q1010=
201107141350 METAR ESMX 141350Z 05012KT 010V110 7000 -RA BKN008 OVC010 15/13 Q1011=
201107141320 METAR ESMX 141320Z 06011KT 020V100 9000 -RA BKN010 OVC015 15/13 Q1011=
201107141250 METAR ESMX 141250Z 05012KT 010V100 9999 BKN010 OVC014 15/13 Q1011=
201107141220 METAR ESMX 141220Z 05013KT 9999 FEW007 BKN009 OVC014 14/13 Q1011=
201107141150 METAR ESMX 141150Z 05016KT 9999 -RA FEW008 BKN011 BKN016 14/13 Q1011=
201107141120 METAR ESMX 141120Z 04013KT 010V090 9000 -RA FEW008 SCT010 BKN013 14/12 Q1012=
201107141050 METAR ESMX 141050Z 04013G24KT 360V080 9000 -RA FEW012 13/12 Q1012=
201107141020 METAR ESMX 141020Z 04013KT 010V070 9999 RA FEW070 13/12 Q1012=
201107140950 METAR ESMX 140950Z 04012KT 9999 -RA NSC 13/12 Q1013=
201107140920 METAR ESMX 140920Z 04012KT 8000 RA FEW038 13/12 Q1013=
201107140850 METAR ESMX 140850Z 06008KT 020V100 8000 RA FEW052 14/12 Q1014=
201107140820 METAR ESMX 140820Z 07007KT 030V120 9000 RA SCT051 14/11 Q1014 REDZ=
201107140750 METAR COR ESMX 140750Z 07009G22KT 030V120 9999 -RA SCT053 BKN100 16/10 Q1013=
201107140720 METAR ESMX 140720Z 05010KT 350V110 CAVOK 16/11 Q1013=
201107140650 METAR ESMX 140650Z 06009KT 010V110 9999 FEW018 SCT100 16/11 Q1013=
201107140620 METAR ESMX 140620Z 06009G20KT 010V120 9999 FEW018 BKN095 16/12 Q1013=
201107140550 METAR ESMX 140550Z 05010KT 010V080 9999 BKN015 BKN094 15/12 Q1014=
201107140520 METAR ESMX 140520Z 05010KT 360V100 9999 BKN014 BKN019 15/12 Q1014=
201107140450 METAR ESMX 140450Z 07009G19KT 020V100 9999 OVC012 15/12 Q1014=
201107140420 METAR ESMX 140420Z 07010KT 020V120 9999 OVC011 15/12 Q1014=
201107140350 METAR ESMX 140350Z 05008KT 350V100 9999 BKN012 14/12 Q1015=
201107140320 METAR ESMX 140320Z AUTO 04007KT 360V070 9999NDV SCT013/// OVC018/// 14/11 Q1015=
201107140250 METAR ESMX 140250Z AUTO 05007KT 360V100 9999NDV FEW013/// SCT018/// 14/11 Q1015=
201107140220 METAR ESMX 140220Z AUTO 06007KT 010V110 9999NDV NCD 13/11 Q1015=
201107140150 METAR ESMX 140150Z AUTO 04005KT 010V090 9999NDV NCD 13/10 Q1015=
201107140120 METAR ESMX 140120Z AUTO 06007KT 020V100 9999NDV NCD 13/09 Q1016=
201107140050 METAR ESMX 140050Z AUTO 05007KT 360V100 9999NDV SCT065/// 14/09 Q1016=
201107140020 METAR ESMX 140020Z AUTO 06006KT 010V100 9999NDV NCD 14/09 Q1016=
201107132350 METAR ESMX 132350Z AUTO 07006KT 010V110 9999NDV NCD 14/09 Q1017=
201107132320 METAR ESMX 132320Z 06007KT 020V100 CAVOK 14/10 Q1017=
201107132250 METAR ESMX 132250Z 06006KT 030V100 CAVOK 14/10 Q1017=
201107132220 METAR ESMX 132220Z 07005KT 030V110 CAVOK 14/10 Q1017=
201107132150 METAR ESMX 132150Z 06006KT 020V130 CAVOK 15/11 Q1017=
201107132120 METAR ESMX 132120Z 07007KT 020V110 CAVOK 15/11 Q1016=
201107132050 METAR ESMX 132050Z 06006KT 030V100 CAVOK 15/11 Q1016=
201107132020 METAR ESMX 132020Z 05006KT 350V120 CAVOK 16/12 Q1017=
201107131950 METAR ESMX 131950Z 07006KT 020V110 CAVOK 16/12 Q1017=
201107131920 METAR ESMX 131920Z 07006KT 030V120 CAVOK 16/11 Q1017=
201107131850 METAR ESMX 131850Z 08005KT 360V140 9999 FEW034 BKN100 17/11 Q1016=
201107131820 METAR ESMX 131820Z 10006KT 050V140 9999 FEW028 SCT032 BKN036 17/10 Q1016=
201107131750 METAR ESMX 131750Z 04007KT 9999 FEW035 BKN094 18/11 Q1016=
201107131720 METAR ESMX 131720Z 03004KT CAVOK 18/10 Q1016=
201107131650 METAR ESMX 131650Z 06006KT 020V110 CAVOK 18/10 Q1016=
201107131620 METAR ESMX 131620Z 06006KT 020V120 CAVOK 19/10 Q1016=
201107131550 METAR ESMX 131550Z 07004KT 020V140 CAVOK 18/10 Q1016=
201107131520 METAR ESMX 131520Z 05004KT 010V080 CAVOK 18/10 Q1016=
201107131450 METAR ESMX 131450Z 09003KT 060V120 CAVOK 17/10 Q1016=
201107131420 METAR ESMX 131420Z 10003KT 050V130 CAVOK 17/10 Q1017=
201107131350 METAR ESMX 131350Z 05003KT 010V110 CAVOK 17/10 Q1017=
201107131320 METAR ESMX 131320Z 03004KT 330V080 CAVOK 17/09 Q1017=
201107131250 METAR ESMX 131250Z 03004KT 350V060 CAVOK 17/09 Q1017=
201107131220 METAR ESMX 131220Z 04004KT 330V090 CAVOK 17/09 Q1017=
201107131150 METAR ESMX 131150Z 03003KT 350V070 CAVOK 16/09 Q1017=
201107131120 METAR ESMX 131120Z 02004KT 340V060 CAVOK 17/09 Q1017=
201107131050 METAR ESMX 131050Z VRB04KT CAVOK 17/09 Q1017=
201107131020 METAR ESMX 131020Z VRB05KT 9999 FEW030 BKN080 17/08 Q1017=
201107130950 METAR ESMX 130950Z 36005KT 320V050 9999 FEW035 BKN080 16/09 Q1017=
201107130920 METAR ESMX 130920Z 01004KT 250V060 9999 FEW040 BKN080 16/08 Q1017=
201107130850 METAR ESMX 130850Z 02004KT 340V070 9999 FEW026 BKN080 17/09 Q1017=
201107130820 METAR ESMX 130820Z 35003KT 290V050 9999 FEW048 BKN080 16/08 Q1017=
201107130750 METAR ESMX 130750Z VRB02KT 9999 FEW025 BKN080 16/09 Q1017=
201107130720 METAR ESMX 130720Z 03003KT 360V080 9999 FEW025 BKN080 16/10 Q1017=
201107130650 METAR ESMX 130650Z 03003KT 010V070 9999 FEW025 BKN080 15/09 Q1016=
201107130620 METAR ESMX 130620Z VRB02KT 9999 FEW025 BKN080 15/10 Q1017=
201107130550 METAR ESMX 130550Z VRB02KT CAVOK 14/11 Q1016=
201107130520 METAR ESMX 130520Z VRB01KT 9999 FEW045 13/11 Q1016=
201107130450 METAR ESMX 130450Z VRB01KT 9999 FEW045 12/10 Q1016=
201107130420 METAR ESMX 130420Z 00000KT 9999 BKN044 11/10 Q1016=
201107130350 METAR ESMX 130350Z 19002KT 9999 BKN040 09/09 Q1017=
201107130320 METAR ESMX 130320Z AUTO 00000KT 9999NDV FEW041/// 08/07 Q1016=
201107130250 METAR ESMX 130250Z AUTO 17002KT 9999NDV BKN042/// 09/08 Q1016=
201107130220 METAR ESMX 130220Z AUTO 17002KT 9999NDV BKN042/// 07/06 Q1016=
201107130150 METAR ESMX 130150Z AUTO 16002KT 9999NDV NCD 08/06 Q1016=
201107130120 METAR ESMX 130120Z AUTO 17002KT 9999NDV NCD 08/07 Q1016=
201107130050 METAR ESMX 130050Z AUTO VRB01KT 9999NDV NCD 08/06 Q1016=
201107130020 METAR ESMX 130020Z AUTO 23003KT 9999NDV NCD 09/07 Q1016=
201107122350 METAR ESMX 122350Z AUTO 23002KT 9999NDV FEW043/// 08/07 Q1016=
201107122320 METAR ESMX 122320Z 24003KT CAVOK 08/06 Q1016=
201107122250 METAR ESMX 122250Z 24004KT CAVOK 09/07 Q1016=
201107122220 METAR ESMX 122220Z 25003KT CAVOK 09/07 Q1016=
201107122150 METAR ESMX 122150Z 26002KT CAVOK 09/07 Q1016=
201107122120 METAR ESMX 122120Z 23004KT CAVOK 11/08 Q1016=
201107122050 METAR ESMX 122050Z 23002KT 9999 FEW045 12/09 Q1016=
201107122020 METAR ESMX 122020Z 24003KT 9999 FEW044 12/09 Q1016=
201107121950 METAR ESMX 121950Z 23003KT CAVOK 13/09 Q1015=
201107121920 METAR ESMX 121920Z 23003KT 200V260 9999 FEW046 14/09 Q1016=
201107121850 METAR ESMX 121850Z 26004KT 9999 FEW048 15/09 Q1016=
201107121820 METAR ESMX 121820Z 25006KT 210V290 9999 FEW048 16/09 Q1015=
201107121750 METAR ESMX 121750Z 26008KT 230V290 9999 SCT047 17/08 Q1016=
201107121720 METAR ESMX 121720Z 27008KT 240V310 9999 BKN047 16/09 Q1015=
201107121650 METAR ESMX 121650Z 25007KT 210V290 9999 BKN045 17/09 Q1015=
201107121620 METAR ESMX 121620Z 28008KT 9999 OVC044 17/10 Q1016=
201107121550 METAR ESMX 121550Z 25008KT 210V280 9999 FEW045 OVC050 17/09 Q1016=
201107121520 METAR ESMX 121520Z 27009KT 9999 OVC045 17/09 Q1016=
201107121450 METAR ESMX 121450Z 24009KT 210V280 9999 BKN040 17/10 Q1016=
201107121420 METAR ESMX 121420Z 22012KT 9999 FEW034 BKN050 18/09 Q1016=
201107121350 METAR ESMX 121350Z 24011KT 200V270 9999 FEW035 BKN045 18/10 Q1016=
201107121320 METAR ESMX 121320Z 24010KT 200V280 9999 BKN040 18/09 Q1016=
201107121250 METAR ESMX 121250Z 26012KT 220V290 9999 BKN040 19/09 Q1016=
201107121220 METAR ESMX 121220Z 26012KT 210V290 9999 BKN040 19/09 Q1016=
201107121150 METAR ESMX 121150Z 25011KT 210V290 9999 FEW040 SCT047 19/09 Q1016=
201107121120 METAR ESMX 121120Z 24011KT 210V280 9999 BKN040 18/09 Q1016=
201107121050 METAR ESMX 121050Z 25011KT 200V290 9999 SCT034 BKN048 18/08 Q1016=
201107121020 METAR ESMX 121020Z 24012KT 9999 FEW041 BKN048 18/10 Q1016=
201107120950 METAR ESMX 120950Z 26011KT 210V290 9999 SCT032 BKN043 18/09 Q1016=
201107120920 METAR ESMX 120920Z 24010KT 200V290 9999 FEW032 BKN042 17/09 Q1016=
201107120850 METAR ESMX 120850Z 24009KT 190V280 9999 FEW040 BKN045 17/10 Q1016=
201107120820 METAR ESMX 120820Z 25009KT 220V290 9999 FEW033 BKN041 16/10 Q1016=
201107120750 METAR ESMX 120750Z 26010KT 210V290 9999 SCT025 BKN037 17/10 Q1016=
201107120720 METAR ESMX 120720Z 24008KT 190V290 9999 FEW020 SCT026 BKN080 16/11 Q1016=
201107120650 METAR ESMX 120650Z 24008KT 210V290 9999 FEW018 SCT035 15/11 Q1016=
201107120620 METAR ESMX 120620Z 25008KT 210V290 9999 FEW018 BKN035 15/11 Q1016=
201107120550 METAR ESMX 120550Z 26009KT 230V290 9999 FEW012 SCT034 15/12 Q1016=
201107120520 METAR ESMX 120520Z 25006KT 200V280 9999 FEW011 14/12 Q1016=
201107120450 METAR ESMX 120450Z 26006KT CAVOK 14/12 Q1016=
201107120420 METAR ESMX 120420Z 24005KT 200V280 9999 FEW026 13/11 Q1016=
201107120350 METAR ESMX 120350Z 25005KT 220V280 9999 BKN025 12/11 Q1016=
201107120320 METAR ESMX 120320Z AUTO 26004KT 9999NDV FEW028/// 11/10 Q1016=
201107120250 METAR ESMX 120250Z AUTO 27004KT 9999NDV NCD 12/10 Q1016=
201107120220 METAR ESMX 120220Z AUTO 26004KT 9999NDV NCD 12/10 Q1016=
201107120150 METAR ESMX 120150Z AUTO 26004G19KT 9999NDV NCD 12/10 Q1016=
201107120120 METAR ESMX 120120Z AUTO 26005KT 9999NDV NCD 12/10 Q1016=
201107120050 METAR ESMX 120050Z AUTO 25004KT 9999NDV NCD 11/09 Q1016=
201107120020 METAR ESMX 120020Z AUTO 18002KT 9999NDV FEW079/// 12/10 Q1016=
201107112350 METAR ESMX 112350Z AUTO 24003KT 9999NDV BKN077/// 12/10 Q1017=
201107112320 METAR ESMX 112320Z 24004KT CAVOK 12/09 Q1017=
201107112250 METAR ESMX 112250Z 25004KT CAVOK 11/09 Q1017=
201107112220 METAR ESMX 112220Z 26004KT CAVOK 12/08 Q1017=
201107112150 METAR ESMX 112150Z 25005KT CAVOK 12/08 Q1017=
201107112120 METAR ESMX 112120Z 26004KT CAVOK 13/08 Q1017=
201107112050 METAR ESMX 112050Z 25005KT 230V290 CAVOK 14/08 Q1016=
201107112020 METAR ESMX 112020Z 25004KT CAVOK 14/10 Q1016=
201107111950 METAR ESMX 111950Z 25004KT CAVOK 14/11 Q1016=
201107111920 METAR ESMX 111920Z 26005KT CAVOK 17/12 Q1016=
201107111850 METAR ESMX 111850Z 26003KT 210V280 CAVOK 18/14 Q1016=
201107111820 METAR ESMX 111820Z 25003KT 210V290 CAVOK 18/14 Q1016=
201107111750 METAR ESMX 111750Z 26006KT 230V290 9999 -RA FEW040CB SCT070 17/14 Q1016=
201107111720 METAR ESMX 111720Z 23005KT CAVOK 19/12 Q1016=
201107111650 METAR ESMX 111650Z 22005KT 190V250 CAVOK 20/11 Q1016=
201107111620 METAR ESMX 111620Z VRB02KT CAVOK 20/11 Q1016=
201107111550 METAR ESMX 111550Z 29006KT CAVOK 19/11 Q1016=
201107111520 METAR ESMX 111520Z 23004KT 200V260 CAVOK 20/11 Q1017=
201107111450 METAR ESMX 111450Z 25004KT 9999 FEW042 SCT082 BKN098 20/11 Q1017=
201107111420 METAR ESMX 111420Z 20005KT 160V220 9999 FEW040 BKN098 20/11 Q1017=
201107111350 METAR ESMX 111350Z 23003KT 200V270 CAVOK 20/10 Q1017=
201107111320 METAR ESMX 111320Z 24003KT 200V280 CAVOK 20/11 Q1017=
201107111250 METAR ESMX 111250Z VRB02KT CAVOK 20/10 Q1017=
201107111220 METAR ESMX 111220Z 06004KT 350V140 CAVOK 21/10 Q1017=
201107111150 METAR ESMX 111150Z 20003KT 140V260 CAVOK 21/09 Q1017=
201107111120 METAR ESMX 111120Z VRB02KT CAVOK 20/10 Q1017=
201107111050 METAR ESMX 111050Z VRB02KT 9999 FEW037 21/12 Q1017=
201107111020 METAR ESMX 111020Z 35003KT 290V050 CAVOK 20/12 Q1017=
201107110950 METAR ESMX 110950Z 27003KT 210V300 CAVOK 19/12 Q1017=
201107110920 METAR ESMX 110920Z VRB02KT CAVOK 19/11 Q1017=
201107110850 METAR ESMX 110850Z VRB01KT CAVOK 19/12 Q1017=
201107110820 METAR ESMX 110820Z VRB01KT CAVOK 18/12 Q1017=
201107110750 METAR COR ESMX 110750Z VRB02KT CAVOK 17/12 Q1017=
201107110720 METAR ESMX 110720Z 35003KT 300V020 CAVOK 17/13 Q1017=
201107110650 METAR ESMX 110650Z 34004KT 310V040 CAVOK 16/13 Q1017=
201107110620 METAR ESMX 110620Z 34003KT 320V020 CAVOK 16/13 Q1017=
201107110550 METAR ESMX 110550Z VRB02KT CAVOK 16/14 Q1017=
201107110520 METAR ESMX 110520Z 00000KT CAVOK 15/13 Q1017=
201107110450 METAR ESMX 110450Z 00000KT CAVOK 13/12 Q1017=
201107110420 METAR ESMX 110420Z 00000KT CAVOK 12/10 Q1017=
201107110350 METAR ESMX 110350Z VRB01KT CAVOK 11/09 Q1018=
201107110320 METAR ESMX 110320Z 18002KT CAVOK 11/09 Q1018=
201107110250 METAR ESMX 110250Z AUTO 00000KT 9999NDV NCD 10/09 Q1018=
201107110220 METAR ESMX 110220Z AUTO 20001KT 9999NDV NCD 09/08 Q1018=
201107110150 METAR ESMX 110150Z AUTO 00000KT 9999NDV NCD 10/08 Q1018=
201107110120 METAR ESMX 110120Z AUTO 17001KT 9999NDV NCD 10/08 Q1018=
201107110050 METAR ESMX 110050Z AUTO 12001KT 9999NDV NCD 10/08 Q1018=
201107110020 METAR ESMX 110020Z AUTO VRB01KT 9999NDV NCD 10/08 Q1018=
201107102350 METAR ESMX 102350Z VRB01KT CAVOK 12/09 Q1018=
201107102320 METAR ESMX 102320Z VRB01KT CAVOK 11/08 Q1018=
201107102250 METAR ESMX 102250Z 26003KT CAVOK 12/09 Q1018=
201107102220 METAR ESMX 102220Z 25004KT CAVOK 11/08 Q1018=
201107102150 METAR ESMX 102150Z 24003KT CAVOK 12/09 Q1018=
201107102120 METAR ESMX 102120Z 23003KT CAVOK 13/09 Q1018=
201107102050 METAR ESMX 102050Z 22004KT CAVOK 13/09 Q1018=
201107102020 METAR ESMX 102020Z 00000KT CAVOK 15/10 Q1017=
201107101950 METAR ESMX 101950Z 24002KT CAVOK 17/10 Q1017=
201107101920 METAR ESMX 101920Z VRB02KT CAVOK 19/09 Q1017=
201107101850 METAR ESMX 101850Z 26006KT CAVOK 19/09 Q1017=
201107101820 METAR ESMX 101820Z 25006KT 210V290 CAVOK 20/09 Q1017=
201107101750 METAR ESMX 101750Z 26006KT 210V290 CAVOK 21/10 Q1017=
201107101720 METAR ESMX 101720Z 28008KT 240V300 CAVOK 21/09 Q1017=
201107101650 METAR ESMX 101650Z 27007KT 250V320 CAVOK 22/09 Q1017=
201107101620 METAR ESMX 101620Z 27008KT 240V300 CAVOK 22/08 Q1017=
201107101550 METAR ESMX 101550Z 26009KT 230V290 CAVOK 22/08 Q1017=
201107101520 METAR ESMX 101520Z 25009KT 210V290 CAVOK 23/09 Q1017=
201107101450 METAR ESMX 101450Z 24009KT 200V290 CAVOK 23/09 Q1017=
201107101420 METAR ESMX 101420Z 25008KT 190V300 CAVOK 23/09 Q1017=
201107101350 METAR ESMX 101350Z 26008KT 200V310 CAVOK 23/08 Q1017=
201107101320 METAR ESMX 101320Z 26008KT CAVOK 23/09 Q1017=
201107101250 METAR ESMX 101250Z 26007KT 220V310 CAVOK 23/09 Q1017=
201107101220 METAR ESMX 101220Z 28009KT 250V330 9999 FEW049 23/10 Q1017=
201107101150 METAR ESMX 101150Z 27008KT 230V300 9999 FEW048 23/10 Q1016=
201107101120 METAR ESMX 101120Z 29009KT 9999 FEW043 22/10 Q1016=
201107101050 METAR ESMX 101050Z 26010KT 210V290 9999 FEW040 22/11 Q1016=
201107101020 METAR ESMX 101020Z AUTO 26009KT 220V310 9999NDV FEW059/// 22/11 Q1016=
201107100950 METAR ESMX 100950Z AUTO 26007KT 230V290 9999NDV FEW031/// 22/12 Q1016=
201107100920 METAR ESMX 100920Z AUTO 27010KT 230V290 9999NDV FEW028/// SCT037/// 20/13 Q1016=
201107100850 METAR ESMX 100850Z AUTO 26005KT 210V320 9999NDV FEW028/// SCT041/// BKN055/// 20/14 Q1016=
201107100820 METAR ESMX 100820Z AUTO 24007KT 9999NDV FEW022/// SCT031/// BKN050/// 20/14 Q1016=
201107100750 METAR ESMX 100750Z AUTO 24006KT 200V300 9999NDV FEW022/// SCT027/// BKN032/// 20/14 Q1016=
201107100720 METAR ESMX 100720Z AUTO 24006KT 200V290 9999NDV SCT020/// 20/14 Q1016=
201107100650 METAR ESMX 100650Z AUTO 29006KT 210V320 9999NDV FEW019/// 19/14 Q1016=
201107100620 METAR ESMX 100620Z AUTO 25006KT 9999NDV NCD 19/14 Q1015=
201107100550 METAR ESMX 100550Z AUTO 23005KT 170V260 9999NDV NCD 18/13 Q1015=
201107100520 METAR ESMX 100520Z AUTO 22003KT 150V260 9999NDV NCD 18/13 Q1015=
201107100450 METAR ESMX 100450Z AUTO VRB01G20KT 9999NDV NCD 16/13 Q1015=
201107100420 METAR ESMX 100420Z AUTO VRB01KT 9999NDV FEW047/// 14/12 Q1015=
201107100350 METAR ESMX 100350Z AUTO VRB01KT 9999NDV SCT046/// BKN088/// 14/13 Q1015=
201107100320 METAR ESMX 100320Z AUTO 00000KT 9999NDV SCT045/// BKN063/// OVC090/// 14/12 Q1015=
201107100250 METAR ESMX 100250Z AUTO 00000KT 9999NDV SCT055/// BKN090/// 14/12 Q1015=
201107100220 METAR ESMX 100220Z AUTO 00000KT 9999NDV SCT051/// 14/12 Q1015=
201107100150 METAR ESMX 100150Z AUTO 00000KT 9999NDV FEW110/// 15/13 Q1015=
201107100120 METAR ESMX 100120Z AUTO VRB02KT 9999NDV FEW049/// 16/13 Q1015=
201107100050 METAR ESMX 100050Z AUTO 17003KT 130V220 9999NDV BKN054/// 17/13 Q1015=
201107100020 METAR ESMX 100020Z AUTO 15005KT 110V190 9999NDV FEW057/// 17/13 Q1016=
201107092350 METAR ESMX 092350Z AUTO 14004KT 090V190 9999NDV FEW078/// 17/13 Q1016=
201107092320 METAR ESMX 092320Z AUTO 15005KT 110V190 9999NDV BKN060/// OVC075/// 18/13 Q1016=
201107092250 METAR ESMX 092250Z AUTO 16005KT 9999NDV FEW064/// BKN085/// 18/12 Q1016=
201107092220 METAR ESMX 092220Z AUTO 15007KT 090V190 9999NDV BKN084/// 18/12 Q1016=
201107092150 METAR ESMX 092150Z AUTO 15006KT 110V180 9999NDV FEW095/// SCT100/// 18/12 Q1016=
201107092120 METAR ESMX 092120Z AUTO 15007KT 120V210 9999NDV FEW077/// BKN100/// 19/12 Q1016=
201107092050 METAR ESMX 092050Z AUTO 16006KT 120V190 9999NDV FEW100/// BKN110/// 19/11 Q1016=
201107092020 METAR ESMX 092020Z AUTO 17006KT 130V200 9999NDV BKN100/// 20/12 Q1016=
201107091950 METAR ESMX 091950Z AUTO 16007KT 140V200 9999NDV BKN100/// 20/12 Q1016=
201107091920 METAR ESMX 091920Z AUTO 17005KT 140V210 9999NDV FEW110/// 20/12 Q1016=
201107091850 METAR ESMX 091850Z AUTO 17007KT 140V200 9999NDV NCD 21/11 Q1016=
201107091820 METAR ESMX 091820Z AUTO 17007KT 130V210 9999NDV NCD 22/11 Q1015=
201107091750 METAR ESMX 091750Z AUTO 16007KT 110V200 9999NDV NCD 22/11 Q1016=
201107091720 METAR ESMX 091720Z AUTO 18009KT 140V210 9999NDV NCD 23/11 Q1016=
201107091650 METAR ESMX 091650Z AUTO 17011KT 140V200 9999NDV NCD 23/10 Q1016=
201107091620 METAR ESMX 091620Z AUTO 17009KT 140V220 9999NDV FEW069/// 24/10 Q1016=
201107091550 METAR ESMX 091550Z AUTO 18010KT 150V210 9999NDV FEW058/// 24/08 Q1016=
201107091520 METAR ESMX 091520Z AUTO 15007KT 110V200 9999NDV NCD 24/10 Q1016=
201107091450 METAR ESMX 091450Z AUTO 17007KT 120V210 9999NDV FEW090/// 23/10 Q1016=
201107091420 METAR ESMX 091420Z AUTO 18008KT 140V220 9999NDV BKN086/// 24/08 Q1016=
201107091350 METAR ESMX 091350Z AUTO 16006KT 9999NDV FEW060/// BKN082/// 23/08 Q1016=
201107091320 METAR ESMX 091320Z AUTO 21003KT 140V280 9999NDV FEW060/// BKN073/// 23/08 Q1016=
201107091250 METAR ESMX 091250Z AUTO 16003KT 110V220 9999NDV FEW046/// SCT062/// 23/09 Q1016=
201107091220 METAR ESMX 091220Z AUTO 21005KT 150V230 9999NDV NCD 24/07 Q1016=
201107091150 METAR ESMX 091150Z AUTO 24007KT 9999NDV SCT058/// 23/07 Q1016=
201107091120 METAR ESMX 091120Z AUTO 19008KT 150V220 9999NDV BKN054/// 23/08 Q1016=
201107091050 METAR ESMX 091050Z AUTO 21006KT 160V240 9999NDV SCT055/// 23/09 Q1017=
201107091020 METAR ESMX 091020Z AUTO 17006KT 120V200 9999NDV FEW050/// 22/09 Q1017=
201107090950 METAR ESMX 090950Z AUTO VRB04KT 9999NDV NCD 22/09 Q1017=
201107090920 METAR ESMX 090920Z AUTO 25005KT 200V320 9999NDV NCD 21/09 Q1017=
201107090850 METAR ESMX 090850Z AUTO 21005KT 150V270 9999NDV FEW037/// 21/09 Q1017=
201107090820 METAR ESMX 090820Z AUTO 23005KT 150V280 9999NDV NCD 20/11 Q1017=
201107090750 METAR ESMX 090750Z AUTO 26003KT 180V330 9999NDV NCD 19/11 Q1016=
201107090720 METAR ESMX 090720Z AUTO 27004KT 200V350 9999NDV NCD 19/12 Q1016=
201107090650 METAR ESMX 090650Z AUTO VRB03KT 9999NDV FEW018/// 18/13 Q1016=
201107090620 METAR ESMX 090620Z AUTO 24003KT 180V310 9999NDV NCD 17/13 Q1016=
201107090550 METAR ESMX 090550Z AUTO 25005KT 210V290 9999NDV FEW010/// SCT014/// 16/13 Q1016=
201107090520 METAR ESMX 090520Z AUTO 24004KT 9999NDV BKN007/// 15/13 Q1016=
201107090450 METAR ESMX 090450Z AUTO 23005KT 200V260 9999NDV FEW006/// SCT008/// 15/13 Q1016=
201107090420 METAR ESMX 090420Z AUTO 23003KT 190V260 9999NDV SCT005/// 15/14 Q1015=
201107090350 METAR ESMX 090350Z AUTO 22004KT 9000NDV BKN004/// BKN006/// 15/13 Q1015=
201107090320 METAR ESMX 090320Z AUTO 25005KT 8000NDV OVC003/// 15/14 Q1015=
201107090250 METAR ESMX 090250Z AUTO 23004KT 8000NDV BKN003/// 15/14 Q1015=
201107090220 METAR ESMX 090220Z AUTO 23004KT 190V260 8000NDV OVC004/// 15/14 Q1014=
201107090150 METAR ESMX 090150Z AUTO 21004KT 7000NDV BR BKN005/// BKN008/// 15/14 Q1014=
201107090120 METAR ESMX 090120Z AUTO 21004KT 8000NDV BR FEW006/// BKN007/// BKN009/// 15/14 Q1014=
201107090050 METAR ESMX 090050Z AUTO 20005KT 8000NDV BR FEW006/// OVC009/// 15/14 Q1014=
201107090020 METAR ESMX 090020Z AUTO 19003KT 160V240 4500NDV BR FEW007/// BKN012/// 15/14 Q1014=
201107082350 METAR ESMX 082350Z AUTO 19004KT 3000NDV BR FEW016/// BKN024/// 15/14 Q1013=
201107082320 METAR ESMX 082320Z AUTO 20003KT 3900NDV BR FEW009/// SCT013/// 15/14 Q1013=
201107082250 METAR ESMX 082250Z AUTO 21004KT 3100NDV BR FEW012/// 14/13 Q1013=
201107082220 METAR ESMX 082220Z AUTO 21004KT 7000NDV BR FEW010/// 15/13 Q1013=
201107082150 METAR ESMX 082150Z AUTO 19004KT 9999NDV FEW009/// SCT014/// BKN019/// 16/14 Q1012=
201107082120 METAR ESMX 082120Z AUTO 18005KT 9999NDV FEW011/// BKN039/// OVC049/// 16/14 Q1012=
201107082050 METAR ESMX 082050Z AUTO 18005KT 140V200 9999NDV FEW043/// OVC071/// 16/14 Q1012=
201107082020 METAR ESMX 082020Z AUTO 20005KT 9999NDV BKN073/// 16/14 Q1012=
201107081950 METAR ESMX 081950Z AUTO 20005KT 9999NDV FEW049/// OVC078/// 17/14 Q1012=
201107081920 METAR ESMX 081920Z AUTO 19006KT 9999NDV SCT065/// BKN080/// 17/15 Q1011=
201107081850 METAR ESMX 081850Z AUTO 19005KT 160V220 9999NDV BKN053/// 17/14 Q1011=
201107081820 METAR ESMX 081820Z AUTO 18005KT 9999NDV OVC058/// 17/14 Q1011=
201107081750 METAR ESMX 081750Z 14004KT 120V180 9999 -RA BKN069 18/14 Q1011 REDZ=
201107081720 METAR ESMX 081720Z 25003KT 9999 -DZ SCT084 BKN200 18/14 Q1011=
201107081650 METAR ESMX 081650Z 20007KT 9999 -RA FEW089 SCT100 18/13 Q1011=
201107081620 METAR COR ESMX 081620Z 20008KT CAVOK 19/12 Q1011=
201107081550 METAR ESMX 081550Z 19009KT CAVOK 20/13 Q1010=
201107081520 METAR ESMX 081520Z 17005KT CAVOK 20/13 Q1010=
201107081450 METAR ESMX 081450Z 19008KT 9999 -RA FEW040 SCT080 BKN150 21/14 Q1010=
201107081420 METAR ESMX 081420Z 20008KT 9999 FEW040 SCT089 BKN200 22/13 Q1010=
201107081350 METAR ESMX 081350Z 19011KT 9999 FEW037 SCT080 BKN200 23/10 Q1010=
201107081320 METAR ESMX 081320Z 19009KT 150V210 9999 FEW037 BKN200 23/14 Q1010=
201107081250 METAR ESMX 081250Z 18010KT 100V210 9999 FEW045 BKN200 24/11 Q1010=
201107081220 METAR ESMX 081220Z 17008KT 140V210 9999 FEW047 24/11 Q1010=
201107081150 METAR ESMX 081150Z 19010KT 150V220 9999 FEW045 24/11 Q1010=
201107081120 METAR ESMX 081120Z 15007KT 100V190 9999 FEW045 24/11 Q1010=
201107081050 METAR ESMX 081050Z 17007KT 120V210 9999 FEW041 24/10 Q1010=
201107081020 METAR ESMX 081020Z 18007KT 130V200 9999 FEW037 24/13 Q1010=
201107080950 METAR ESMX 080950Z 15006KT 100V200 9999 FEW037 23/12 Q1010=
201107080920 METAR ESMX 080920Z 16005KT 110V200 9999 FEW030 23/14 Q1010=
201107080850 METAR ESMX 080850Z 17005KT 110V210 9999 FEW025 SCT029 22/14 Q1010=
201107080820 METAR ESMX 080820Z 18004KT 140V230 9999 FEW023 22/14 Q1010=
201107080750 METAR ESMX 080750Z 19003KT 120V230 9999 FEW029 21/15 Q1010=
201107080720 METAR ESMX 080720Z VRB02KT 9999 FEW015 21/15 Q1010=
201107080650 METAR ESMX 080650Z VRB01KT 9999 FEW015 20/16 Q1010=
201107080620 METAR ESMX 080620Z 00000KT CAVOK 20/16 Q1010=
201107080550 METAR ESMX 080550Z VRB01KT CAVOK 19/16 Q1010=
201107080520 METAR ESMX 080520Z 00000KT CAVOK 18/16 Q1010=
201107080450 METAR ESMX 080450Z VRB01KT CAVOK 17/16 Q1010=
201107080420 METAR ESMX 080420Z 00000KT CAVOK 16/16 Q1010=
201107080350 METAR ESMX 080350Z 19003KT 8000 BR NSC 14/13 Q1010=
201107080320 METAR ESMX 080320Z AUTO 16001KT 2900NDV BR NCD 13/12 Q1010=
201107080250 METAR ESMX 080250Z AUTO VRB01KT 0350NDV R01/P2000N R19/P2000 BR NCD 13/12 Q1010=
201107080220 METAR ESMX 080220Z AUTO VRB01KT 9000NDV BR FEW053/// 13/12 Q1010=
201107080150 METAR ESMX 080150Z AUTO 18002KT 7000NDV BR SCT042/// 13/12 Q1010=
201107080120 METAR ESMX 080120Z AUTO 00000KT 1100NDV R01/P2000N R19/P2000N BR NCD 13/12 Q1010=
201107080050 METAR ESMX 080050Z AUTO 23004KT 7000NDV BR FEW066/// 12/12 Q1010=
201107080020 METAR ESMX 080020Z AUTO 00000KT 6000NDV BR FEW048/// 13/13 Q1010=
201107072350 METAR ESMX 072350Z 25003KT 230V300 CAVOK 13/12 Q1010=
201107072320 METAR ESMX 072320Z 03001KT 9999 FEW040 SCT079 14/13 Q1010=
201107072250 METAR ESMX 072250Z 21001KT 9999 FEW045 14/13 Q1011=
201107072220 METAR ESMX 072220Z 26003KT CAVOK 14/13 Q1010=
201107072150 METAR ESMX 072150Z 24002KT CAVOK 15/13 Q1010=
201107072120 METAR ESMX 072120Z VRB02KT CAVOK 16/14 Q1010=
201107072050 METAR ESMX 072050Z 30003KT CAVOK 16/14 Q1010=
201107072020 METAR ESMX 072020Z 30004KT CAVOK 17/14 Q1010=
201107071950 METAR ESMX 071950Z 27005KT CAVOK 18/15 Q1010=
201107071920 METAR ESMX 071920Z 24006KT CAVOK 19/15 Q1010=
201107071850 METAR ESMX 071850Z 20004KT CAVOK 20/15 Q1010=
201107071820 METAR ESMX 071820Z 20002KT CAVOK 22/13 Q1010=
201107071750 METAR ESMX 071750Z 00000KT CAVOK 23/13 Q1010=
201107071720 METAR ESMX 071720Z VRB01KT CAVOK 23/14 Q1010=
201107071650 METAR ESMX 071650Z VRB02KT CAVOK 23/13 Q1010=
201107071620 METAR ESMX 071620Z VRB02KT 9999 FEW030 23/14 Q1010=
201107071550 METAR ESMX 071550Z 33004KT 280V020 9999 FEW025 23/13 Q1010=
201107071520 METAR ESMX 071520Z 02005KT 9999 FEW025 23/14 Q1010=
201107071450 METAR ESMX 071450Z 02005KT 330V060 9999 FEW025 23/14 Q1010=
201107071420 METAR ESMX 071420Z VRB03KT 9999 FEW025 23/14 Q1010=
201107071350 METAR ESMX 071350Z VRB04KT 9999 FEW025 23/14 Q1010=
201107071320 METAR ESMX 071320Z VRB02KT 9999 FEW025 22/14 Q1011=
201107071250 METAR ESMX 071250Z VRB01KT 9999 FEW025 SCT030 22/14 Q1011=
201107071220 METAR ESMX 071220Z VRB02KT 9999 BKN024 21/14 Q1011=
201107071150 METAR ESMX 071150Z VRB02KT 9999 FEW020 SCT025 BKN080 20/13 Q1011=
201107071120 METAR ESMX 071120Z VRB02KT 9999 FEW020 SCT025 20/14 Q1011=
201107071050 METAR ESMX 071050Z 02003KT 320V080 9999 BKN020 20/14 Q1011=
201107071020 METAR ESMX 071020Z 05004KT 330V110 9999 BKN015 BKN021 19/14 Q1011=
201107070950 METAR ESMX 070950Z 07004KT 010V150 9999 OVC014 19/14 Q1011=
201107070920 METAR ESMX 070920Z 06004KT 020V100 9999 FEW014 OVC016 18/14 Q1011=
201107070850 METAR COR ESMX 070850Z VRB02KT 9999 OVC015 18/14 Q1011=
201107070820 METAR ESMX 070820Z VRB02KT 9999 BKN012 18/14 Q1011=
201107070750 METAR ESMX 070750Z VRB01KT 9999 OVC008 17/14 Q1011=
201107070720 METAR ESMX 070720Z 06004KT 010V090 9999 OVC006 17/14 Q1011=
201107070650 METAR ESMX 070650Z 04003KT 360V100 9999 OVC006 16/14 Q1011=
201107070620 METAR ESMX 070620Z 04003KT 360V080 9999 OVC005 16/14 Q1011=
201107070550 METAR ESMX 070550Z 07003KT 020V150 9999 OVC006 16/14 Q1011=
201107070520 METAR ESMX 070520Z VRB01KT 9000 BR OVC005 16/14 Q1010=
201107070450 METAR ESMX 070450Z 09003KT 040V140 6000 BR OVC003 15/14 Q1010=
201107070420 METAR ESMX 070420Z VRB02KT 6000 BR OVC002 15/14 Q1010=
201107070350 METAR ESMX 070350Z VRB02KT 8000 OVC004 14/13 Q1010=
201107070320 METAR ESMX 070320Z AUTO 18001KT 8000NDV FEW004/// 14/13 Q1010=
201107070250 METAR ESMX 070250Z AUTO 00000KT 9999NDV FEW100/// 14/12 Q1010=
201107070220 METAR ESMX 070220Z AUTO 07002KT 9999NDV FEW100/// 14/13 Q1010=
201107070150 METAR ESMX 070150Z AUTO VRB01KT 9999NDV FEW067/// BKN100/// 15/13 Q1010=
201107070120 METAR ESMX 070120Z AUTO 27002KT 9999NDV BKN068/// 16/13 Q1010=
201107070050 METAR ESMX 070050Z AUTO 25003KT 9999NDV BKN069/// 16/14 Q1010=
201107070020 METAR ESMX 070020Z AUTO 25005KT 9999NDV OVC066/// 16/14 Q1010=
201107062350 METAR ESMX 062350Z 24003KT CAVOK 16/14 Q1010=
201107062320 METAR ESMX 062320Z 22003KT CAVOK 16/14 Q1011=
201107062250 METAR ESMX 062250Z VRB02KT CAVOK 17/14 Q1011=
201107062220 METAR ESMX 062220Z 16003KT CAVOK 17/14 Q1011=
201107062150 METAR ESMX 062150Z 17003KT 140V210 CAVOK 18/14 Q1011=
201107062120 METAR ESMX 062120Z 13002KT CAVOK 17/14 Q1011=
201107062050 METAR ESMX 062050Z 13003KT CAVOK 17/14 Q1011=
201107062020 METAR ESMX 062020Z 10003KT 070V140 CAVOK 19/14 Q1011=
201107061950 METAR ESMX 061950Z 09003KT 040V130 CAVOK 19/13 Q1010=
201107061920 METAR ESMX 061920Z 08003KT 040V120 CAVOK 20/13 Q1010=
201107061850 METAR ESMX 061850Z 08004KT 040V120 CAVOK 21/13 Q1010=
201107061820 METAR ESMX 061820Z 05004KT 010V080 CAVOK 22/13 Q1010=
201107061750 METAR ESMX 061750Z 05005KT 360V090 CAVOK 22/12 Q1010=
201107061720 METAR ESMX 061720Z 05006KT 020V080 CAVOK 23/12 Q1009=
201107061650 METAR ESMX 061650Z 05005KT 010V120 CAVOK 23/12 Q1010=
201107061620 METAR ESMX 061620Z 01006KT 320V060 CAVOK 23/13 Q1010=
201107061550 METAR ESMX 061550Z 01004KT 320V060 9999 FEW036 23/12 Q1010=
201107061520 METAR ESMX 061520Z 35006KT 320V030 9999 FEW036 23/12 Q1010=
201107061450 METAR ESMX 061450Z 05005KT 360V140 9999 FEW034 23/13 Q1010=
201107061420 METAR ESMX 061420Z 04006KT 350V080 9999 FEW039 23/13 Q1011=
201107061350 METAR ESMX 061350Z 05005KT 340V100 9999 FEW035 23/13 Q1011=
201107061320 METAR ESMX 061320Z 35005KT 320V030 9999 FEW032 23/14 Q1011=
201107061250 METAR ESMX 061250Z 03006KT 330V110 9999 FEW032 22/13 Q1011=
201107061220 METAR ESMX 061220Z 36006KT 320V030 9999 FEW031 21/13 Q1011=
201107061150 METAR ESMX 061150Z 02007KT 340V060 9999 FEW027 21/13 Q1011=
201107061120 METAR ESMX 061120Z 04008KT 350V100 9999 FEW027 21/13 Q1011=
201107061050 METAR ESMX 061050Z 05008KT 020V100 9999 SCT027 21/13 Q1012=
201107061020 METAR ESMX 061020Z 07007KT 030V110 9999 FEW027 21/13 Q1012=
201107060950 METAR ESMX 060950Z 05007KT 360V100 9999 FEW027 20/13 Q1012=
201107060920 METAR ESMX 060920Z 05005KT 350V110 9999 FEW025 20/13 Q1012=
201107060850 METAR ESMX 060850Z 05005KT 360V110 9999 FEW025 19/13 Q1012=
201107060820 METAR ESMX 060820Z 02007KT 340V050 9999 FEW025 18/13 Q1012=
201107060750 METAR ESMX 060750Z 04006KT 360V070 9999 FEW025 18/13 Q1012=
201107060720 METAR ESMX 060720Z 04006KT 360V080 9999 SCT011 16/12 Q1013=
201107060650 METAR ESMX 060650Z 06006KT 030V100 9999 BKN010 15/12 Q1013=
201107060620 METAR ESMX 060620Z 07005KT 030V110 9999 BKN008 14/12 Q1013=
201107060550 METAR ESMX 060550Z 05004KT 010V100 9999 OVC007 14/11 Q1013=
201107060520 METAR ESMX 060520Z 04005KT 350V120 9999 FEW004 OVC006 13/11 Q1013=
201107060450 METAR ESMX 060450Z 04005KT 010V110 9999 BKN003 OVC005 13/12 Q1013=
201107060420 METAR ESMX 060420Z 06006KT 020V110 9999 OVC004 13/12 Q1014=
201107060350 METAR ESMX 060350Z 08004KT 020V120 9999 OVC004 13/12 Q1014=
201107060320 METAR ESMX 060320Z AUTO 05005KT 010V110 9999NDV NCD 13/12 Q1014=
201107060250 METAR ESMX 060250Z AUTO 04004KT 9999NDV NCD 13/12 Q1014=
201107060220 METAR ESMX 060220Z AUTO 03003KT 9999NDV NCD 14/12 Q1014=
201107060150 METAR ESMX 060150Z AUTO 02003KT 350V070 9999NDV NCD 14/12 Q1014=
201107060120 METAR ESMX 060120Z AUTO 06003KT 9999NDV NCD 12/11 Q1014=
201107060050 METAR ESMX 060050Z AUTO 07002KT 9999NDV NCD 12/11 Q1014=
201107060020 METAR ESMX 060020Z AUTO 09002KT 9999NDV NCD 13/11 Q1014=
201107052350 METAR ESMX 052350Z AUTO 11004KT 9999NDV NCD 14/11 Q1014=
201107052320 METAR ESMX 052320Z 12003KT 080V150 CAVOK 15/11 Q1014=
201107052250 METAR ESMX 052250Z VRB02KT CAVOK 16/12 Q1014=
201107052220 METAR ESMX 052220Z 10003KT 060V160 CAVOK 17/12 Q1015=
201107052150 METAR ESMX 052150Z 12003KT 050V160 CAVOK 17/12 Q1015=
201107052120 METAR ESMX 052120Z 11003KT 070V160 CAVOK 18/11 Q1015=
201107052050 METAR ESMX 052050Z 08003KT 020V130 CAVOK 18/12 Q1015=
201107052020 METAR ESMX 052020Z 08005KT 040V130 CAVOK 18/12 Q1015=
201107051950 METAR ESMX 051950Z 06004KT 010V100 CAVOK 19/13 Q1015=
201107051920 METAR ESMX 051920Z VRB01KT CAVOK 19/15 Q1014=
201107051850 METAR ESMX 051850Z VRB01KT CAVOK 20/15 Q1014=
201107051820 METAR ESMX 051820Z 11002KT CAVOK 21/15 Q1014=
201107051750 METAR ESMX 051750Z 10002KT CAVOK 21/14 Q1014=
201107051720 METAR ESMX 051720Z VRB01KT CAVOK 22/14 Q1014=
201107051650 METAR ESMX 051650Z VRB01KT CAVOK 23/12 Q1015=
201107051620 METAR ESMX 051620Z VRB02KT 9999 FEW048 BKN079 23/12 Q1015=
201107051550 METAR ESMX 051550Z 01003KT 320V060 9999 FEW042 BKN080 23/12 Q1015=
201107051520 METAR ESMX 051520Z 35003KT 300V020 9999 FEW045 SCT080 23/12 Q1015=
201107051450 METAR ESMX 051450Z VRB03KT 9999 FEW044 23/12 Q1015=
201107051420 METAR ESMX 051420Z 30003KT 230V340 9999 FEW046 23/12 Q1015=
201107051350 METAR ESMX 051350Z VRB03KT 9999 FEW040 23/13 Q1015=
201107051320 METAR ESMX 051320Z 35003KT 240V050 9999 FEW037 22/12 Q1016=
201107051250 METAR ESMX 051250Z 05003KT 340V150 9999 FEW036 22/13 Q1016=
201107051220 METAR ESMX 051220Z VRB03KT 9999 FEW035 22/13 Q1016=
201107051150 METAR ESMX 051150Z 01004KT 320V060 CAVOK 21/13 Q1016=
201107051120 METAR ESMX 051120Z 35004KT 330V030 9999 FEW033 BKN089 21/13 Q1016=
201107051050 METAR ESMX 051050Z 35003KT 300V030 9999 FEW026 BKN077 20/12 Q1017=
201107051020 METAR ESMX 051020Z 36004KT 300V070 9999 FEW028 BKN078 20/12 Q1017=
201107050950 METAR ESMX 050950Z 36005KT 310V040 9999 FEW025 SCT085 20/13 Q1017=
201107050920 METAR ESMX 050920Z 36004KT 300V060 9999 FEW023 19/12 Q1017=
201107050850 METAR ESMX 050850Z 02004KT 320V070 9999 FEW020 19/13 Q1017=
201107050820 METAR ESMX 050820Z VRB02KT 9999 FEW020 18/12 Q1017=
201107050750 METAR ESMX 050750Z 36003KT 9999 SCT015 17/13 Q1017=
201107050720 METAR ESMX 050720Z VRB02KT 9999 BKN012 16/13 Q1017=
201107050650 METAR ESMX 050650Z 03004KT 9999 SCT008 BKN011 16/13 Q1017=
201107050620 METAR ESMX 050620Z VRB02KT 9999 BKN007 OVC010 15/13 Q1017=
201107050550 METAR ESMX 050550Z VRB02KT 9999 BKN007 OVC009 15/13 Q1017=
201107050520 METAR ESMX 050520Z 07004KT 9999 OVC006 15/13 Q1017=
201107050450 METAR ESMX 050450Z 11004KT 9999 OVC005 15/14 Q1016=
201107050420 METAR ESMX 050420Z VRB02KT 9999 OVC005 15/13 Q1016=
201107050350 METAR COR ESMX 050350Z VRB02KT 9999 OVC005 15/14 Q1016=
201107050320 METAR ESMX 050320Z AUTO VRB01KT 9999NDV OVC005/// 15/13 Q1016=
201107050250 METAR ESMX 050250Z AUTO VRB02KT 9999NDV OVC005/// 15/14 Q1016=
201107050220 METAR ESMX 050220Z AUTO VRB02KT 9999NDV FEW004/// OVC006/// 15/14 Q1016=
201107050150 METAR ESMX 050150Z AUTO VRB02KT 9999NDV FEW005/// OVC007/// 15/14 Q1016=
201107050120 METAR ESMX 050120Z AUTO 11003KT 080V160 9999NDV FEW005/// SCT008/// OVC010/// 15/14 Q1016=
201107050050 METAR ESMX 050050Z AUTO VRB02KT 9999NDV OVC010/// 15/15 Q1016=
201107050020 METAR ESMX 050020Z AUTO VRB02KT 9000NDV FEW006/// BKN012/// 16/15 Q1016=
201107042350 METAR ESMX 042350Z 14003KT 110V180 9999 FEW004 SCT008 BKN011 16/15 Q1016=
201107042320 METAR ESMX 042320Z VRB02KT 9999 FEW006 OVC026 16/15 Q1016=
201107042250 METAR ESMX 042250Z 11001KT 5000 BR FEW004 SCT019 BKN021 16/15 Q1016=
201107042220 METAR ESMX 042220Z VRB01KT 9999 FEW005 SCT011 OVC013 17/15 Q1016=
201107042150 METAR ESMX 042150Z 10003KT 070V160 9999 FEW004 SCT008 BKN010 17/16 Q1016=
201107042120 METAR ESMX 042120Z 03004KT 6000 -RA FEW010 SCT015 BKN019 17/16 Q1016=
201107042050 METAR ESMX 042050Z 05004KT 020V100 9999 -RA FEW005 SCT008 BKN010 17/16 Q1015 RERA=
201107042020 METAR ESMX 042020Z 06004KT 010V100 3200 RA FEW007 SCT010 BKN015 17/16 Q1015=
201107041950 METAR ESMX 041950Z 03004KT 360V060 9999 -SHRA FEW009 SCT015 OVC020 18/16 Q1015=
201107041920 METAR ESMX 041920Z 04005KT 350V070 9999 FEW011 SCT015 BKN026 18/15 Q1015=
201107041850 METAR ESMX 041850Z 04006KT 010V080 9999 FEW022 BKN033 18/15 Q1015=
201107041820 METAR ESMX 041820Z 05007KT 020V080 9999 FEW015 BKN025 19/15 Q1014=
201107041750 METAR ESMX 041750Z 06006KT 360V100 9999 FEW015 BKN025 19/16 Q1014=
201107041720 METAR ESMX 041720Z 05006KT 020V110 9999 FEW020 SCT026 BKN030 19/15 Q1014=
201107041650 METAR ESMX 041650Z 04006KT 010V080 9999 FEW017 SCT023 BKN046 20/16 Q1014=
201107041620 METAR ESMX 041620Z 04006KT 9999 BKN020 BKN028 19/15 Q1014=
201107041550 METAR ESMX 041550Z 02007KT 360V070 9999 FEW026 BKN032 BKN042 21/16 Q1014=
201107041520 METAR ESMX 041520Z 02007KT 9999 FEW027 BKN031 20/15 Q1013=
201107041450 METAR ESMX 041450Z 02005KT 360V060 9999 FEW022 SCT028 BKN031 20/16 Q1013=
201107041420 METAR ESMX 041420Z 35007KT 330V030 9999 FEW023 BKN027 20/16 Q1013=
201107041350 METAR ESMX 041350Z 34008KT 9999 FEW017 BKN032 21/16 Q1013=
201107041320 METAR ESMX 041320Z 36006KT 310V040 9999 FEW021 SCT025 BKN031 20/16 Q1013=
201107041250 METAR ESMX 041250Z 35007KT 9999 FEW015 OVC028 20/16 Q1013=
201107041220 METAR ESMX 041220Z 35007KT 320V020 9999 FEW014 SCT018 BKN022 19/15 Q1013=
201107041150 METAR ESMX 041150Z 34007KT 9999 FEW016 BKN021 OVC026 19/15 Q1013=
201107041120 METAR ESMX 041120Z 35006KT 310V020 9999 OVC013 19/15 Q1013=
201107041050 METAR ESMX 041050Z 36006KT 320V030 9999 OVC010 18/15 Q1012=
201107041020 METAR ESMX 041020Z 02006KT 330V050 9999 SCT010 OVC013 18/15 Q1012=
201107040950 METAR ESMX 040950Z 02006KT 350V050 9999 OVC009 18/15 Q1012=
201107040920 METAR ESMX 040920Z 04007KT 350V070 9999 OVC008 17/15 Q1012=
201107040850 METAR ESMX 040850Z 01006KT 340V040 9999 OVC006 17/15 Q1012=
201107040820 METAR ESMX 040820Z 01007KT 9999 OVC006 16/15 Q1012=
201107040750 METAR ESMX 040750Z 03006KT 9999 OVC006 17/15 Q1011=
201107040720 METAR ESMX 040720Z 04007KT 9999 OVC007 16/14 Q1011=
201107040650 METAR ESMX 040650Z 02006KT 350V060 9999 OVC006 16/14 Q1011=
201107040620 METAR ESMX 040620Z 36007KT 9999 OVC006 16/14 Q1011=
201107040550 METAR ESMX 040550Z 02007KT 350V070 9999 OVC006 16/14 Q1011=
201107040520 METAR ESMX 040520Z 02008KT 9999 FEW006 OVC007 16/14 Q1010=
201107040450 METAR ESMX 040450Z 35009KT 9999 OVC005 16/14 Q1010=
201107040420 METAR ESMX 040420Z 02008KT 9999 OVC005 16/15 Q1010=
201107040350 METAR ESMX 040350Z 02008KT 340V050 9999 OVC005 16/15 Q1010=
201107040320 METAR ESMX 040320Z AUTO 02009KT 9999NDV OVC005/// 16/15 Q1010=
201107040250 METAR ESMX 040250Z AUTO 02007KT 340V060 9999NDV OVC006/// 16/15 Q1009=
201107040220 METAR ESMX 040220Z AUTO 02008KT 9999NDV OVC006/// 16/15 Q1010=
201107040150 METAR ESMX 040150Z AUTO 36009KT 9999NDV -RA OVC005/// 16/15 Q1009=
201107040120 METAR ESMX 040120Z AUTO 36008KT 9999NDV FEW006/// BKN008/// OVC011/// 16/15 Q1009=
201107040050 METAR ESMX 040050Z AUTO 35009KT 9999NDV FEW006/// BKN009/// OVC011/// 17/15 Q1009=
201107040020 METAR ESMX 040020Z AUTO 35007KT 9999NDV BKN008/// BKN014/// 17/16 Q1009=
201107032350 METAR ESMX 032350Z 35006KT 9999 -DZ FEW008 OVC010 17/16 Q1009=
201107032320 METAR ESMX 032320Z 36007KT 9999 -RA OVC012 18/16 Q1009=
201107032250 METAR ESMX 032250Z 36007KT 9999 OVC010 18/16 Q1009=
201107032220 METAR ESMX 032220Z 36009KT 9999 DZ BKN010 OVC015 18/16 Q1009=
201107032150 METAR ESMX 032150Z 35008KT 9999 BKN024 BKN110 19/16 Q1009=
201107032120 METAR ESMX 032120Z 35006KT CAVOK 18/16 Q1009=
201107032050 METAR ESMX 032050Z 35005KT 320V020 CAVOK 19/16 Q1009=
201107032020 METAR ESMX 032020Z 35005KT 9999 FEW025 SCT100 19/16 Q1009=
201107031950 METAR ESMX 031950Z 36007KT 9999 SCT017 BKN100 20/16 Q1009=
201107031920 METAR ESMX 031920Z 02008KT 9999 FEW025 SCT038 20/16 Q1009=
201107031850 METAR ESMX 031850Z 01006KT 9999 FEW019 BKN035 21/17 Q1009=
201107031820 METAR ESMX 031820Z 33002KT 9999 SCT020 BKN031 21/18 Q1008=
201107031750 METAR ESMX 031750Z 01002KT 9999 BKN022 BKN042 21/17 Q1008=
201107031720 METAR ESMX 031720Z 02003KT 9999 FEW025 SCT028 BKN033 21/17 Q1008=
201107031650 METAR ESMX 031650Z VRB02KT 9999 FEW025 OVC036 21/17 Q1008=
201107031620 METAR ESMX 031620Z 33003KT 300V360 9999 BKN024 OVC033 21/17 Q1008=
201107031550 METAR ESMX 031550Z 35003KT 320V030 9999 OVC020 21/17 Q1008=
201107031520 METAR ESMX 031520Z 34004KT 9999 OVC019 21/17 Q1008=
201107031450 METAR ESMX 031450Z 03004KT 360V060 9999 OVC018 21/17 Q1008=
201107031420 METAR ESMX 031420Z 03005KT 350V060 9999 BKN018 OVC031 21/17 Q1008=
201107031350 METAR ESMX 031350Z 03007KT 350V060 9999 BKN018 OVC025 21/16 Q1008=
201107031320 METAR ESMX 031320Z 03006KT 350V070 9999 OVC018 21/17 Q1007=
201107031250 METAR ESMX 031250Z 04008KT 360V060 9999 OVC020 21/16 Q1007=
201107031220 METAR ESMX 031220Z 04007KT 360V080 9999 OVC019 21/16 Q1007=
201107031150 METAR ESMX 031150Z AUTO 03009KT 350V060 9999NDV OVC021/// 21/16 Q1007=
201107031120 METAR ESMX 031120Z AUTO 03009KT 340V070 9999NDV OVC020/// 22/16 Q1006=
201107031050 METAR ESMX 031050Z AUTO 01010KT 9999NDV OVC020/// 21/16 Q1006=
201107031020 METAR ESMX 031020Z AUTO 01010KT 9999NDV OVC019/// 21/16 Q1006=
201107030950 METAR ESMX 030950Z AUTO 01012KT 350V050 9999NDV FEW017/// BKN020/// 21/17 Q1006=
201107030920 METAR ESMX 030920Z AUTO 02009KT 350V070 9999NDV SCT016/// BKN021/// BKN025/// 21/17 Q1006=
201107030850 METAR ESMX 030850Z AUTO 03009KT 350V080 9999NDV OVC016/// 20/17 Q1006=
201107030820 METAR ESMX 030820Z AUTO 01011KT 350V050 9999NDV OVC014/// 20/16 Q1006=
201107030750 METAR ESMX 030750Z AUTO 01012KT 9999NDV BKN013/// 20/16 Q1005=
201107030720 METAR ESMX 030720Z AUTO 02009KT 9999NDV OVC013/// 20/16 Q1005=
201107030650 METAR ESMX 030650Z AUTO 36010KT 9999NDV FEW013/// BKN015/// 20/16 Q1005=
201107030620 METAR ESMX 030620Z AUTO 01011KT 9999NDV FEW011/// SCT013/// OVC016/// 19/16 Q1005=
201107030550 METAR ESMX 030550Z AUTO 02010KT 9999NDV OVC010/// 19/16 Q1005=
201107030520 METAR ESMX 030520Z AUTO 01010KT 9999NDV OVC010/// 19/16 Q1005=
201107030450 METAR ESMX 030450Z AUTO 01012KT 330V040 9999NDV BKN010/// 19/16 Q1004=
201107030420 METAR ESMX 030420Z AUTO 01011KT 9999NDV BKN011/// 18/16 Q1004=
201107030350 METAR ESMX 030350Z AUTO 36009KT 9999NDV BKN011/// 18/16 Q1004=
201107030320 METAR ESMX 030320Z AUTO 35011KT 9999NDV BKN011/// 18/16 Q1004=
201107030250 METAR ESMX 030250Z AUTO 01011KT 330V030 9999NDV SCT011/// 18/16 Q1004=
201107030220 METAR ESMX 030220Z AUTO 36010KT 9999NDV NCD 18/16 Q1004=
201107030150 METAR ESMX 030150Z AUTO 02012KT 9999NDV NCD 19/16 Q1004=
201107030120 METAR ESMX 030120Z AUTO 02012KT 9999NDV NCD 19/17 Q1004=
201107030050 METAR ESMX 030050Z AUTO 36009KT 9999NDV NCD 19/17 Q1004=
201107030020 METAR ESMX 030020Z AUTO 35010KT 330V030 9999NDV NCD 20/18 Q1004=
201107022350 METAR ESMX 022350Z AUTO 36009KT 9999NDV NCD 20/18 Q1004=
201107022320 METAR ESMX 022320Z AUTO 01008KT 9999NDV FEW018/// SCT029/// 20/18 Q1004=
201107022250 METAR ESMX 022250Z AUTO 01008KT 9999NDV FEW017/// OVC020/// 21/18 Q1005=
201107022220 METAR ESMX 022220Z AUTO 36008KT 9999NDV FEW021/// 20/18 Q1005=
201107022150 METAR ESMX 022150Z AUTO 01009KT 9999NDV NCD 20/18 Q1005=
201107022120 METAR ESMX 022120Z AUTO 35008KT 9999NDV SCT027/// BKN033/// 20/17 Q1005=
201107022050 METAR ESMX 022050Z AUTO 03009KT 350V050 9999NDV FEW024/// 21/17 Q1005=
201107022020 METAR ESMX 022020Z AUTO 03008KT 350V060 9999NDV NCD 21/16 Q1005=
201107021950 METAR ESMX 021950Z AUTO 04010KT 9999NDV NCD 22/16 Q1005=
201107021920 METAR ESMX 021920Z AUTO 04010KT 9999NDV NCD 22/16 Q1004=
201107021850 METAR ESMX 021850Z AUTO 04010KT 010V070 9999NDV NCD 23/16 Q1004=
201107021820 METAR ESMX 021820Z AUTO 02009KT 340V060 9999NDV NCD 24/17 Q1004=
201107021750 METAR ESMX 021750Z AUTO 04010KT 9999NDV NCD 25/18 Q1004=
201107021720 METAR ESMX 021720Z AUTO 02011KT 350V050 9999NDV NCD 25/19 Q1004=
201107021650 METAR ESMX 021650Z AUTO 04010KT 340V070 9999NDV FEW035/// 25/18 Q1004=
201107021620 METAR ESMX 021620Z AUTO 03010KT 350V070 9999NDV FEW030/// 26/19 Q1004=
201107021550 METAR ESMX 021550Z AUTO 02010KT 330V060 9999NDV FEW026/// 26/19 Q1004=
201107021520 METAR ESMX 021520Z AUTO 03010KT 360V060 9999NDV FEW027/// 26/20 Q1004=
201107021450 METAR ESMX 021450Z AUTO 04011KT 010V070 9999NDV FEW018/// SCT025/// 25/19 Q1005=
201107021420 METAR ESMX 021420Z AUTO 03011KT 350V070 9999NDV FEW017/// SCT021/// 25/20 Q1004=
201107021350 METAR ESMX 021350Z AUTO 02010KT 350V060 9999NDV FEW016/// SCT018/// 24/19 Q1005=
201107021320 METAR ESMX 021320Z AUTO 03011KT 350V060 9999NDV FEW015/// 24/19 Q1005=
201107021250 METAR ESMX 021250Z AUTO 03010KT 340V070 9999NDV FEW017/// BKN069/// 24/19 Q1005=
201107021220 METAR ESMX 021220Z AUTO 04010KT 340V080 9999NDV FEW023/// 24/19 Q1005=
201107021150 METAR ESMX 021150Z AUTO 05009KT 9999NDV FEW013/// SCT016/// BKN055/// 23/19 Q1005=
201107021120 METAR ESMX 021120Z AUTO 03010KT 360V060 9999NDV BKN011/// 22/19 Q1005=
201107021050 METAR ESMX 021050Z AUTO 03010KT 350V060 9999NDV OVC010/// 21/19 Q1005=
201107021020 METAR ESMX 021020Z AUTO 03009KT 350V060 9999NDV OVC009/// 21/19 Q1005=
201107020950 METAR ESMX 020950Z AUTO 03009KT 360V070 9999NDV OVC009/// 21/18 Q1005=
201107020920 METAR ESMX 020920Z AUTO 04009KT 360V070 9999NDV OVC010/// 20/18 Q1005=
201107020850 METAR ESMX 020850Z AUTO 04009KT 360V080 9999NDV OVC010/// 20/18 Q1005=
201107020820 METAR ESMX 020820Z AUTO 03008KT 340V070 9999NDV OVC009/// 20/18 Q1005=
201107020750 METAR ESMX 020750Z AUTO 03008KT 9999NDV OVC009/// 19/17 Q1005=
201107020720 METAR ESMX 020720Z AUTO 03009KT 350V070 9999NDV OVC010/// 19/17 Q1005=
201107020650 METAR ESMX 020650Z AUTO 04009KT 9999NDV FEW010/// BKN013/// OVC016/// 19/17 Q1005=
201107020620 METAR ESMX 020620Z AUTO 04008KT 020V080 9999NDV BKN008/// OVC011/// 18/17 Q1005=
201107020550 METAR ESMX 020550Z AUTO 04009KT 9999NDV FEW008/// OVC010/// 18/17 Q1005=
201107020520 METAR ESMX 020520Z AUTO 03008KT 360V070 9999NDV BR FEW004/// SCT006/// BKN009/// 18/17 Q1005=
201107020450 METAR ESMX 020450Z AUTO 02008KT 330V060 6000NDV BR OVC003/// 17/16 Q1005 REDZ=
201107020420 METAR ESMX 020420Z AUTO 02010KT 4500NDV DZ OVC004/// 17/16 Q1005=
201107020350 METAR ESMX 020350Z AUTO 01010KT 7000NDV BR OVC005/// 17/16 Q1005=
201107020320 METAR ESMX 020320Z AUTO 01008KT 9999NDV OVC006/// 17/15 Q1005=
201107020250 METAR ESMX 020250Z AUTO 35008KT 320V020 9999NDV -DZ FEW007/// SCT008/// OVC010/// 16/15 Q1005=
201107020220 METAR ESMX 020220Z AUTO 35009KT 8000NDV -RA FEW006/// SCT009/// BKN011/// 16/15 Q1006=
201107020150 METAR ESMX 020150Z AUTO 35008KT 9000NDV -RA FEW009/// SCT016/// BKN023/// 16/15 Q1006=
201107020120 METAR ESMX 020120Z AUTO 34009KT 300V020 9999NDV FEW026/// BKN030/// OVC045/// 16/15 Q1006=
201107020050 METAR ESMX 020050Z AUTO 34008KT 320V020 9999NDV FEW008/// SCT017/// BKN021/// 16/15 Q1007=
201107020020 METAR ESMX 020020Z AUTO 33008KT 300V360 9999NDV FEW011/// OVC018/// 16/14 Q1007=
201107012350 METAR ESMX 012350Z AUTO 31007KT 280V340 9999NDV OVC020/// 15/14 Q1007=
201107012320 METAR ESMX 012320Z AUTO 31008KT 280V340 9999NDV -DZ SCT021/// BKN032/// OVC037/// 15/14 Q1008=
201107012250 METAR ESMX 012250Z AUTO 31007KT 9999NDV FEW044/// BKN068/// 15/14 Q1009=
201107012220 METAR ESMX 012220Z AUTO 30007KT 7000NDV DZ SCT024/// BKN066/// 15/14 Q1009 RESHRA=
201107012150 METAR ESMX 012150Z AUTO 29005KT 9999NDV -DZ BKN034/// 15/14 Q1009=
201107012120 METAR ESMX 012120Z AUTO 28006KT 9999NDV -DZ BKN035/// OVC085/// 16/14 Q1010=
201107012050 METAR ESMX 012050Z AUTO 27005KT 9999NDV OVC036/// 16/14 Q1010=
201107012020 METAR ESMX 012020Z AUTO 30005KT 9999NDV OVC036/// 16/14 Q1010=
201107011950 METAR ESMX 011950Z AUTO 29005KT 9999NDV BKN036/// 16/14 Q1010=
201107011920 METAR ESMX 011920Z AUTO 29005KT 9999NDV -DZ SCT032/// BKN041/// 17/14 Q1010 REDZ=
201107011850 METAR ESMX 011850Z AUTO 29004KT 9999NDV -DZ OVC034/// 17/13 Q1010 REUP=
201107011820 METAR ESMX 011820Z AUTO 30004KT 9999NDV SCT031/// OVC039/// 17/13 Q1010=
201107011750 METAR ESMX 011750Z 30005KT 9999 OVC032 18/13 Q1010=
201107011720 METAR ESMX 011720Z 29005KT 9999 OVC032 18/13 Q1011=
201107011650 METAR ESMX 011650Z 30006KT 270V340 9999 BKN032 18/13 Q1011=
201107011620 METAR ESMX 011620Z 29006KT 260V330 9999 OVC029 18/13 Q1011=
201107011550 METAR ESMX 011550Z 31004KT 270V340 9999 OVC030 18/13 Q1011=
201107011520 METAR ESMX 011520Z 30004KT 9999 OVC026 18/13 Q1011=
201107011450 METAR ESMX 011450Z 29004KT 260V330 9999 OVC027 18/13 Q1011=
201107011420 METAR ESMX 011420Z 29005KT 9999 OVC024 18/13 Q1011=
201107011350 METAR ESMX 011350Z 30006KT 9999 OVC024 18/13 Q1011=
201107011320 METAR ESMX 011320Z 29005KT 250V340 9999 OVC023 19/12 Q1012=
201107011250 METAR ESMX 011250Z 28006KT 260V030 9999 OVC022 18/13 Q1012=
201107011220 METAR ESMX 011220Z 26006KT 230V290 9999 OVC020 18/13 Q1011=
