##########################################################
# Query made at 04/19/2024 21:24:08 UTC
# Time interval: from 09/01/2011 12:00  to 09/30/2011 12:59  UTC
##########################################################

##########################################################
# ESMX, Vaxjo (Sweden)
# WMO index: 02641. WIGOS ID: 0-20000-0-02648
# Latitude 56-51N. Longitude 014-50E. Altitude 199 m.
##########################################################

201109301250 METAR ESMX 301250Z 26008KT 220V330 CAVOK 20/13 Q1026=
201109301220 METAR ESMX 301220Z 26011KT 250V310 CAVOK 20/14 Q1026=
201109301150 METAR ESMX 301150Z 28008KT 250V330 CAVOK 19/14 Q1026=
201109301120 METAR ESMX 301120Z 31008KT 260V340 9000 BR FEW014 18/14 Q1026=
201109301050 METAR ESMX 301050Z 27009KT 240V320 8000 BR FEW012 17/13 Q1026=
201109301020 METAR ESMX 301020Z 29008KT 260V320 9000 BR FEW013 17/13 Q1026=
201109300950 METAR ESMX 300950Z 28009KT 240V300 9999 FEW009 17/14 Q1026=
201109300920 METAR ESMX 300920Z 25006KT 230V290 7000 BR SCT008 BKN010 16/13 Q1026=
201109300850 METAR ESMX 300850Z 26007KT 230V320 6000 BR FEW005 BKN007 15/13 Q1026=
201109300820 METAR ESMX 300820Z 27007KT 240V320 4700 BR OVC005 14/13 Q1026=
201109300750 METAR ESMX 300750Z 28007KT 4400 BR FEW003 OVC005 13/13 Q1026=
201109300720 METAR ESMX 300720Z 27006KT 230V300 3400 BR OVC003 13/13 Q1026=
201109300650 METAR ESMX 300650Z 28005KT 240V320 2300 BR OVC003 13/13 Q1026=
201109300620 METAR ESMX 300620Z 26006KT 210V290 1700 BR OVC002 13/13 Q1025=
201109300550 METAR ESMX 300550Z 28004KT 220V320 1600 BR OVC002 13/12 Q1025=
201109300520 METAR ESMX 300520Z 28004KT 250V320 0750NDV R01/1600D R19/P2000N FG VV002 13/12 Q1026=
201109300450 METAR ESMX 300450Z 27004KT 230V320 0500NDV R01/1500N R19/P2000N FG VV002 13/12 Q1026=
201109300420 METAR ESMX 300420Z 28005KT 250V320 0600 R01/1500U R19/P2000N FG VV002 13/12 Q1026=
201109300350 METAR ESMX 300350Z 27004KT 0250 R01/0900N R19/1400D FG VV002 13/12 Q1026=
201109300320 METAR ESMX 300320Z AUTO 27004KT 240V300 0300NDV R01/1000N R19/1500N FG VV001 13/12 Q1026=
201109300250 METAR ESMX 300250Z AUTO 27004KT 240V320 0300NDV R01/1100N R19/1800U FG VV001 13/12 Q1026=
201109300220 METAR ESMX 300220Z AUTO 27004KT 230V300 0200NDV R01/0800D R19/1100U FG VV001 13/13 Q1026=
201109300150 METAR ESMX 300150Z AUTO 28003KT 0300NDV R01/1000N R19/1700N FG VV001 13/12 Q1026=
201109300120 METAR ESMX 300120Z AUTO 27003KT 230V310 0300NDV R01/1100D R19/1800N FG VV001 13/12 Q1027=
201109300050 METAR ESMX 300050Z AUTO 27004KT 0350NDV R01/1200N R19/1900U FG VV001 13/12 Q1027=
201109300020 METAR ESMX 300020Z AUTO 26004KT 230V300 0450NDV R01/1500D R19/P2000N FG VV002 13/12 Q1027=
201109292350 METAR ESMX 292350Z AUTO 28004KT 0800NDV R01/P2000N R19/P2000N FG VV002 13/12 Q1027=
201109292320 METAR ESMX 292320Z 28004KT 240V320 0800 R01/P2000N R19/P2000N FG VV002 12/12 Q1027=
201109292250 METAR COR ESMX 292250Z 30005KT 260V320 1200 R01/P2000N R19/P2000N BR OVC002 12/11 Q1027=
201109292220 METAR ESMX 292220Z 25005KT 230V290 5000 BR NSC 12/10 Q1027=
201109292150 METAR ESMX 292150Z 26004KT 220V300 CAVOK 12/11 Q1027=
201109292120 METAR ESMX 292120Z 27005KT CAVOK 12/11 Q1027=
201109292050 METAR ESMX 292050Z 26005KT 230V290 CAVOK 13/11 Q1027=
201109292020 METAR ESMX 292020Z 25005KT 220V290 CAVOK 13/11 Q1027=
201109291950 METAR ESMX 291950Z 26005KT CAVOK 13/10 Q1027=
201109291920 METAR ESMX 291920Z 26004KT 230V290 CAVOK 14/10 Q1027=
201109291850 METAR ESMX 291850Z 26005KT CAVOK 14/11 Q1026=
201109291820 METAR ESMX 291820Z 25005KT CAVOK 15/11 Q1026=
201109291750 METAR ESMX 291750Z 24005KT CAVOK 15/11 Q1026=
201109291720 METAR ESMX 291720Z 24004KT CAVOK 15/10 Q1026=
201109291650 METAR ESMX 291650Z 25003KT 220V290 CAVOK 17/10 Q1026=
201109291620 METAR ESMX 291620Z 25005KT CAVOK 19/10 Q1026=
201109291550 METAR ESMX 291550Z 27006KT CAVOK 20/10 Q1026=
201109291520 METAR ESMX 291520Z 27008KT 230V300 CAVOK 21/10 Q1026=
201109291450 METAR ESMX 291450Z 28009KT CAVOK 21/10 Q1026=
201109291420 METAR ESMX 291420Z 28009KT 250V320 CAVOK 21/11 Q1026=
201109291350 METAR ESMX 291350Z 28010KT CAVOK 21/12 Q1026=
201109291320 METAR ESMX 291320Z 29011KT CAVOK 21/11 Q1026=
201109291250 METAR ESMX 291250Z 29010KT CAVOK 20/12 Q1026=
201109291220 METAR ESMX 291220Z 28011KT 240V320 CAVOK 20/12 Q1026=
201109291150 METAR ESMX 291150Z 29011KT 250V320 CAVOK 20/12 Q1026=
201109291120 METAR ESMX 291120Z 28009KT 240V310 CAVOK 19/13 Q1026=
201109291050 METAR ESMX 291050Z 28012KT CAVOK 17/12 Q1027=
201109291020 METAR ESMX 291020Z 29009KT 250V340 CAVOK 19/13 Q1026=
201109290950 METAR ESMX 290950Z 27010KT 240V330 CAVOK 17/13 Q1026=
201109290920 METAR ESMX 290920Z 27010KT 9999 FEW015 16/12 Q1026=
201109290850 METAR ESMX 290850Z 29012KT 9999 FEW012 16/13 Q1026=
201109290820 METAR ESMX 290820Z 28014KT 260V320 9999 FEW010 16/13 Q1026=
201109290750 METAR ESMX 290750Z 28012KT 240V320 9999 SCT010 15/12 Q1026=
201109290720 METAR ESMX 290720Z 26010KT 9999 BKN009 15/12 Q1026=
201109290650 METAR ESMX 290650Z 27011KT 250V320 9999 BKN008 14/12 Q1026=
201109290620 METAR ESMX 290620Z 27010KT 240V300 9999 BKN008 14/12 Q1025=
201109290550 METAR ESMX 290550Z 27010KT 9999 BR BKN008 14/12 Q1025=
201109290520 METAR ESMX 290520Z 27009KT 9000 BR BKN008 BKN011 14/12 Q1025=
201109290450 METAR ESMX 290450Z 27009KT 240V300 9000 BR OVC007 14/12 Q1025=
201109290420 METAR ESMX 290420Z 26007KT 220V290 9000 BR OVC007 14/12 Q1025=
201109290350 METAR ESMX 290350Z 27008KT 230V320 9000 BR BKN007 14/12 Q1025=
201109290320 METAR ESMX 290320Z AUTO 28009KT 250V310 9000NDV BR BKN007/// 14/12 Q1025=
201109290250 METAR ESMX 290250Z AUTO 27011KT 220V290 9000NDV BR BKN007/// 14/12 Q1025=
201109290220 METAR ESMX 290220Z AUTO 26008KT 9000NDV BR BKN007/// 14/12 Q1025=
201109290150 METAR ESMX 290150Z AUTO 26007KT 220V290 9999NDV BR OVC008/// 14/12 Q1025=
201109290120 METAR ESMX 290120Z AUTO 26006KT 230V310 9000NDV BR OVC008/// 14/12 Q1026=
201109290050 METAR ESMX 290050Z AUTO 26007KT 230V320 9000NDV BR OVC008/// 14/12 Q1025=
201109290020 METAR ESMX 290020Z AUTO 26007KT 230V290 8000NDV BR BKN009/// 13/12 Q1025=
201109282350 METAR ESMX 282350Z 27006KT 230V300 9000 BR BKN009 13/12 Q1025=
201109282320 METAR ESMX 282320Z 27006KT 240V300 9000 BR FEW010 13/12 Q1025=
201109282250 METAR ESMX 282250Z 27008KT 230V310 9000 BR SCT010 14/12 Q1025=
201109282220 METAR ESMX 282220Z 28009KT 240V320 8000 BR FEW009 BKN010 14/12 Q1025=
201109282150 METAR ESMX 282150Z 28010KT 250V320 8000 BR BKN009 14/12 Q1025=
201109282120 METAR ESMX 282120Z 28010KT 250V320 8000 BR FEW008 BKN009 14/12 Q1025=
201109282050 METAR ESMX 282050Z 29009KT 250V310 8000 BR BKN007 OVC010 14/12 Q1026=
201109282020 METAR ESMX 282020Z 27011KT 240V300 8000 BR OVC008 14/12 Q1026=
201109281950 METAR ESMX 281950Z 26008KT 8000 BR FEW009 BKN011 14/12 Q1026=
201109281920 METAR ESMX 281920Z 27009KT 230V290 8000 BR FEW009 BKN012 14/12 Q1026=
201109281850 METAR ESMX 281850Z 27008KT 9000 BR FEW008 BKN010 14/12 Q1026=
201109281820 METAR ESMX 281820Z 27007KT 240V300 9000 BR BKN010 14/12 Q1026=
201109281750 METAR ESMX 281750Z 27008KT 230V290 9999 BKN010 14/12 Q1026=
201109281720 METAR ESMX 281720Z 27008KT 240V310 9999 BKN010 14/12 Q1026=
201109281650 METAR ESMX 281650Z 26007KT 9999 BKN011 14/12 Q1026=
201109281620 METAR ESMX 281620Z 27010KT 9999 BKN012 14/12 Q1026=
201109281550 METAR ESMX 281550Z 27009KT 240V300 9999 BKN008 OVC011 14/12 Q1026=
201109281520 METAR ESMX 281520Z 27010KT 9999 OVC008 14/12 Q1027=
201109281450 METAR ESMX 281450Z 25010KT 210V300 9999 OVC008 14/12 Q1026=
201109281420 METAR ESMX 281420Z 26010KT 220V290 9999 OVC007 14/12 Q1026=
201109281350 METAR ESMX 281350Z 27011KT 9999 OVC007 14/12 Q1027=
201109281320 METAR ESMX 281320Z 25009KT 210V280 9999 OVC008 14/12 Q1027=
201109281250 METAR ESMX 281250Z 26009KT 230V300 9999 OVC008 14/12 Q1027=
201109281220 METAR ESMX 281220Z 26012KT 230V290 9999 OVC009 14/12 Q1027=
201109281150 METAR ESMX 281150Z 26012KT 210V290 9999 OVC009 14/12 Q1027=
201109281120 METAR ESMX 281120Z 26012KT 9999 OVC010 14/12 Q1027=
201109281050 METAR ESMX 281050Z 26010KT 230V300 9999 OVC010 14/11 Q1027=
201109281020 METAR ESMX 281020Z 26010KT 230V290 9999 BKN011 14/11 Q1027=
201109280950 METAR ESMX 280950Z 26012KT 230V290 9999 OVC008 14/11 Q1027=
201109280920 METAR ESMX 280920Z 25010KT 200V290 9999 OVC008 13/11 Q1027=
201109280850 METAR ESMX 280850Z 26009KT 210V290 9999 BKN008 OVC010 13/11 Q1027=
201109280820 METAR ESMX 280820Z 26008KT 220V290 9999 OVC008 12/11 Q1027=
201109280750 METAR ESMX 280750Z 23010KT 210V270 9999 OVC007 12/10 Q1027=
201109280720 METAR ESMX 280720Z 23007KT 200V330 9999 SCT010 SCT105 11/10 Q1027=
201109280650 METAR ESMX 280650Z 24008KT CAVOK 11/10 Q1027=
201109280620 METAR ESMX 280620Z 23008KT 9999 FEW045 BKN100 11/10 Q1027=
201109280550 METAR ESMX 280550Z 23007KT 9999 FEW039 BKN044 10/09 Q1027=
201109280520 METAR ESMX 280520Z 22006KT 9999 FEW046 BKN066 09/09 Q1027=
201109280450 METAR ESMX 280450Z 20004KT 9000 FEW004 SCT046 OVC074 09/08 Q1027=
201109280420 METAR ESMX 280420Z 15002G15KT 9999 FEW005 BKN061 09/08 Q1028=
201109280350 METAR ESMX 280350Z 18004KT 9000 FEW002 SCT004 BKN050 08/08 Q1028=
201109280320 METAR ESMX 280320Z AUTO VRB02KT 9999NDV FEW004/// BKN093/// 08/07 Q1028=
201109280250 METAR ESMX 280250Z AUTO 23005KT 9999NDV FEW086/// 08/08 Q1028=
201109280220 METAR ESMX 280220Z AUTO 25006KT 9999NDV BKN085/// 08/08 Q1028=
201109280150 METAR ESMX 280150Z AUTO 19003KT 9999NDV BKN088/// 07/07 Q1028=
201109280120 METAR ESMX 280120Z AUTO 23004KT 9999NDV FEW003/// SCT097/// 07/07 Q1028=
201109280050 METAR ESMX 280050Z AUTO 24004KT 9999NDV NCD 07/06 Q1028=
201109280020 METAR ESMX 280020Z AUTO 17003KT 5000NDV NCD 07/06 Q1028=
201109272350 METAR ESMX 272350Z 22003KT 180V250 6000 FEW004 06/05 Q1028=
201109272320 METAR ESMX 272320Z 23003KT 200V270 5000 BR NSC 08/07 Q1028=
201109272250 METAR ESMX 272250Z 21004KT CAVOK 07/06 Q1028=
201109272220 METAR ESMX 272220Z 17003KT 6000 BR NSC 08/07 Q1029=
201109272150 METAR ESMX 272150Z 19003KT CAVOK 07/06 Q1028=
201109272120 METAR ESMX 272120Z VRB02KT CAVOK 07/06 Q1028=
201109272050 METAR ESMX 272050Z 19003KT CAVOK 08/07 Q1028=
201109272020 METAR ESMX 272020Z 25004KT CAVOK 08/06 Q1028=
201109271950 METAR ESMX 271950Z 25004KT CAVOK 08/06 Q1028=
201109271920 METAR ESMX 271920Z 26003KT CAVOK 08/06 Q1028=
201109271850 METAR ESMX 271850Z 26004KT CAVOK 10/06 Q1028=
201109271820 METAR ESMX 271820Z 27004KT CAVOK 10/06 Q1028=
201109271750 METAR ESMX 271750Z 27004KT 230V310 CAVOK 11/06 Q1028=
201109271720 METAR ESMX 271720Z 26005KT CAVOK 11/06 Q1027=
201109271650 METAR ESMX 271650Z 27007KT CAVOK 13/06 Q1027=
201109271620 METAR ESMX 271620Z 27007KT CAVOK 13/07 Q1027=
201109271550 METAR ESMX 271550Z 27008KT 240V300 9999 FEW030 BKN200 14/07 Q1026=
201109271520 METAR ESMX 271520Z 27007KT 240V310 9999 FEW030 BKN200 15/07 Q1026=
201109271450 METAR ESMX 271450Z 26009KT 230V300 9999 FEW025 15/08 Q1026=
201109271420 METAR ESMX 271420Z 30008KT 9999 FEW025 15/08 Q1026=
201109271350 METAR ESMX 271350Z 27007KT 230V300 9999 FEW030 16/08 Q1026=
201109271320 METAR ESMX 271320Z 27009KT 240V300 9999 FEW025 16/08 Q1026=
201109271250 METAR ESMX 271250Z 29009KT 260V320 9999 FEW025 16/08 Q1026=
201109271220 METAR ESMX 271220Z 29009KT 250V320 9999 FEW030 16/09 Q1026=
201109271150 METAR ESMX 271150Z 30007KT 270V330 9999 BKN025 14/08 Q1026=
201109271120 METAR ESMX 271120Z 32007KT 9999 BKN024 14/08 Q1026=
201109271050 METAR ESMX 271050Z 29008KT 9999 FEW020 SCT025 14/08 Q1026=
201109271020 METAR ESMX 271020Z 29007KT 270V330 9999 SCT020 BKN050 14/09 Q1026=
201109270950 METAR ESMX 270950Z 30009KT 9999 SCT018 BKN060 14/09 Q1025=
201109270920 METAR ESMX 270920Z 28009KT 250V310 9999 BKN017 13/09 Q1026=
201109270850 METAR ESMX 270850Z 29010KT 9999 FEW014 SCT017 12/09 Q1025=
201109270820 METAR ESMX 270820Z 29008KT 240V340 9999 FEW013 SCT016 13/09 Q1025=
201109270750 METAR ESMX 270750Z 29007KT 9999 BKN015 12/09 Q1025=
201109270650 METAR ESMX 270650Z 28005KT 250V320 9999 SCT017 11/09 Q1024=
201109270620 METAR ESMX 270620Z 27006KT 230V350 9999 BKN014 11/09 Q1024=
201109270550 METAR ESMX 270550Z 29006KT 250V320 9999 FEW015 OVC018 11/09 Q1024=
201109270520 METAR ESMX 270520Z 30007KT 280V340 9999 BKN015 11/09 Q1023=
201109270450 METAR ESMX 270450Z 29005KT 250V320 9999 FEW014 OVC017 11/09 Q1023=
201109270420 METAR ESMX 270420Z 29007KT 240V330 9999 FEW012 OVC015 10/09 Q1023=
201109270350 METAR ESMX 270350Z 29006KT 260V320 9999 FEW012 OVC014 10/09 Q1023=
201109270320 METAR ESMX 270320Z AUTO 28006KT 9999NDV OVC013/// 10/09 Q1023=
201109270250 METAR ESMX 270250Z AUTO 26005KT 9999NDV FEW015/// 09/08 Q1022=
201109270220 METAR ESMX 270220Z AUTO 27005KT 9999NDV FEW008/// SCT009/// 10/09 Q1022=
201109270150 METAR ESMX 270150Z AUTO 27004KT 230V290 9999NDV BKN008/// 10/09 Q1022=
201109270120 METAR ESMX 270120Z AUTO 28004KT 9999NDV FEW007/// SCT011/// 11/09 Q1022=
201109270050 METAR ESMX 270050Z AUTO 27006KT 240V320 9999NDV FEW008/// SCT009/// 11/10 Q1022=
201109270020 METAR ESMX 270020Z AUTO 27006KT 250V310 9999NDV FEW009/// SCT011/// 12/10 Q1021=
201109262350 METAR ESMX 262350Z 29008KT 9999 FEW010 13/11 Q1021=
201109262320 METAR ESMX 262320Z 27007KT 240V310 9999 FEW009 SCT019 BKN021 13/12 Q1021=
201109262250 METAR ESMX 262250Z 28006KT 250V320 9999 BKN021 BKN071 14/12 Q1020=
201109262220 METAR ESMX 262220Z 26006KT 220V310 9999 FEW005 SCT008 BKN013 14/13 Q1020=
201109262150 METAR ESMX 262150Z 28006KT 240V300 9000 FEW006 SCT008 BKN028 15/13 Q1020 REDZ=
201109262120 METAR ESMX 262120Z 26006KT 6000 DZ FEW008 BKN010 OVC015 15/14 Q1020=
201109262050 METAR ESMX 262050Z 24007KT 210V280 9999 FEW011 SCT014 BKN017 16/13 Q1020=
201109262020 METAR ESMX 262020Z 23004KT 9999 FEW018 SCT033 BKN040 15/13 Q1019=
201109261950 METAR ESMX 261950Z 23005KT 200V260 9999 FEW034 BKN052 BKN083 16/13 Q1019=
201109261920 METAR ESMX 261920Z 21006KT 9999 FEW035 SCT047 BKN056 15/13 Q1019=
201109261850 METAR ESMX 261850Z 18007KT CAVOK 16/13 Q1019=
201109261820 METAR ESMX 261820Z 17007KT 140V210 CAVOK 16/13 Q1019=
201109261750 METAR ESMX 261750Z 18007KT CAVOK 16/13 Q1019=
201109261720 METAR ESMX 261720Z 18006KT CAVOK 16/13 Q1019=
201109261650 METAR ESMX 261650Z 18006KT 9999 SCT030 BKN200 16/13 Q1019=
201109261620 METAR ESMX 261620Z 19008KT 9999 SCT030 17/13 Q1019=
201109261550 METAR ESMX 261550Z 20007KT 9999 SCT030 BKN200 18/13 Q1019=
201109261520 METAR ESMX 261520Z 20010KT 9999 SCT030 BKN050 18/13 Q1019=
201109261450 METAR ESMX 261450Z 21010KT 170V240 9999 SCT030 BKN045 18/12 Q1019=
201109261420 METAR ESMX 261420Z 20013KT 9999 SCT040 BKN065 19/12 Q1019=
201109261350 METAR ESMX 261350Z 21009KT 9999 FEW039 SCT045 BKN066 19/12 Q1019=
201109261320 METAR ESMX 261320Z 20008KT 9999 SCT040 BKN066 18/12 Q1020=
201109261250 METAR ESMX 261250Z 19010KT 9999 FEW043 BKN067 18/12 Q1020=
201109261220 METAR ESMX 261220Z 19010KT 9999 FEW040 BKN062 18/12 Q1020=
201109261150 METAR ESMX 261150Z 20013KT CAVOK 18/12 Q1020=
201109261120 METAR ESMX 261120Z 21010KT 180V240 CAVOK 18/11 Q1020=
201109261050 METAR ESMX 261050Z 21009KT CAVOK 18/11 Q1020=
201109261020 METAR ESMX 261020Z 21011KT CAVOK 17/11 Q1020=
201109260950 METAR ESMX 260950Z 21009KT 170V230 CAVOK 17/11 Q1020=
201109260920 METAR ESMX 260920Z 21008KT 180V240 CAVOK 16/11 Q1020=
201109260850 METAR ESMX 260850Z 21006KT 170V240 9999 FEW033 BKN054 16/11 Q1021=
201109260820 METAR ESMX 260820Z 20005KT 170V240 CAVOK 14/11 Q1020=
201109260750 METAR ESMX 260750Z 19004KT 9000 BR FEW033 13/11 Q1020=
201109260720 METAR ESMX 260720Z 19004KT 7000 BR FEW032 BKN038 12/11 Q1020=
201109260650 METAR ESMX 260650Z 18002KT 6000 BR NSC 11/10 Q1020=
201109260620 METAR ESMX 260620Z 20004KT 5000 BR NSC 10/09 Q1020=
201109260550 METAR ESMX 260550Z 20003KT 7000 BR NSC 09/08 Q1020=
201109260520 METAR ESMX 260520Z 16005KT 140V210 7000 BR NSC 10/09 Q1020=
201109260450 METAR ESMX 260450Z 16005KT 120V190 6000 BR FEW024 10/09 Q1020=
201109260420 METAR ESMX 260420Z 16004KT 130V190 7000 BR SCT023 BKN030 10/09 Q1020=
201109260350 METAR ESMX 260350Z 17004KT 120V200 6000 BR BKN030 10/09 Q1019=
201109260320 METAR ESMX 260320Z AUTO 17003KT 120V210 4400NDV BR BKN033/// 10/09 Q1019=
201109260250 METAR ESMX 260250Z AUTO 17004KT 140V200 3200NDV BR FEW038/// 09/09 Q1020=
201109260220 METAR ESMX 260220Z AUTO 16003KT 120V210 4400NDV BR FEW033/// SCT041/// 09/08 Q1020=
201109260150 METAR ESMX 260150Z AUTO VRB02KT 4700NDV BR FEW041/// 08/07 Q1020=
201109260120 METAR ESMX 260120Z AUTO VRB02KT 0750NDV R01/P2000N R19/P2000N BR NCD 08/07 Q1020=
201109260050 METAR ESMX 260050Z AUTO VRB02KT 0550NDV R01/P2000N R19/P2000N BR NCD 08/07 Q1020=
201109260020 METAR ESMX 260020Z AUTO 16002KT 0400NDV R01/P2000N R19/1000VP2000D NCD 07/07 Q1020=
201109252350 METAR ESMX 252350Z 16003KT 7000 MIFG BR NSC 07/07 Q1020=
201109252320 METAR ESMX 252320Z VRB02KT 8000 MIFG BR NSC 07/06 Q1021=
201109252250 METAR ESMX 252250Z VRB02KT 8000 MIFG BR NSC 08/07 Q1020=
201109252220 METAR ESMX 252220Z VRB02KT 8000 MIFG BR NSC 08/07 Q1021=
201109252150 METAR ESMX 252150Z 18003KT 8000 MIFG BR NSC 09/08 Q1021=
201109252120 METAR ESMX 252120Z 17002KT 8000 BR NSC 09/08 Q1021=
201109252050 METAR ESMX 252050Z 19003KT 9000 BR NSC 11/09 Q1021=
201109252020 METAR ESMX 252020Z 16004KT 120V190 9000 BR NSC 11/10 Q1020=
201109251950 METAR ESMX 251950Z 16005KT 9000 BR NSC 12/10 Q1020=
201109251920 METAR ESMX 251920Z 17005KT 9000 BR NSC 12/11 Q1020=
201109251850 METAR ESMX 251850Z 16005KT CAVOK 12/11 Q1020=
201109251820 METAR ESMX 251820Z 17004KT CAVOK 13/11 Q1020=
201109251750 METAR ESMX 251750Z 16004KT CAVOK 13/12 Q1020=
201109251720 METAR ESMX 251720Z 16004KT CAVOK 12/11 Q1020=
201109251650 METAR ESMX 251650Z 16003KT CAVOK 13/11 Q1020=
201109251620 METAR ESMX 251620Z 17003KT CAVOK 15/11 Q1020=
201109251550 METAR ESMX 251550Z 18003KT CAVOK 16/10 Q1020=
201109251520 METAR ESMX 251520Z 20005KT CAVOK 16/10 Q1020=
201109251450 METAR ESMX 251450Z 21007KT 180V240 9999 FEW030 17/10 Q1020=
201109251420 METAR ESMX 251420Z 19005KT 140V220 9999 FEW029 17/10 Q1020=
201109251320 METAR ESMX 251320Z 22007KT 170V270 9999 SCT031 17/11 Q1020=
201109251250 METAR ESMX 251250Z 22004KT 150V270 9999 FEW024 BKN032 16/11 Q1020=
201109251220 METAR ESMX 251220Z 21004KT 9999 BKN029 17/11 Q1020=
201109251150 METAR ESMX 251150Z 22006KT 9999 FEW022 BKN027 16/11 Q1020=
201109251120 METAR ESMX 251120Z 18007KT 150V210 9999 SCT022 16/11 Q1020=
201109251050 METAR ESMX 251050Z 20006KT 9999 FEW019 16/11 Q1020=
201109251020 METAR ESMX 251020Z 20007KT 9999 FEW015 SCT031 15/11 Q1020=
201109250950 METAR ESMX 250950Z 20006KT 9999 FEW005 SCT031 14/12 Q1020=
201109250920 METAR ESMX 250920Z 22005KT 9999 FEW003 SCT005 BKN031 13/12 Q1020=
201109250850 METAR ESMX 250850Z 21004KT 160V240 8000 BR BKN002 OVC004 12/12 Q1020=
201109250820 METAR ESMX 250820Z AUTO 19005KT 150V220 4800NDV BR OVC001/// 11/10 Q1020=
201109250750 METAR ESMX 250750Z AUTO 18003KT 160V230 7000NDV BR OVC001/// 10/10 Q1020=
201109250720 METAR ESMX 250720Z AUTO VRB01KT 9999NDV BKN001/// OVC029/// 09/09 Q1020=
201109250650 METAR ESMX 250650Z AUTO VRB01KT 5000NDV OVC001/// 09/09 Q1020=
201109250620 METAR ESMX 250620Z AUTO VRB02KT 0650NDV R01/P2000N R19/0800V1400U VV001 09/08 Q1020=
201109250550 METAR ESMX 250550Z AUTO VRB01KT 0350NDV R01/0800V1200 R19/0750N FG VV001 08/08 Q1020=
201109250520 METAR ESMX 250520Z AUTO 14001KT 0150NDV R01/0500 R19/0450N FG VV001 08/08 Q1020=
201109250450 METAR ESMX 250450Z AUTO 00000KT 0150NDV R01/0500 R19/0500N FG VV001 08/08 Q1020=
201109250420 METAR ESMX 250420Z AUTO 00000KT 0100NDV R01/0375 R19/0600 FG VV001 08/08 Q1019=
201109250350 METAR ESMX 250350Z AUTO 00000KT 0100NDV R01/0400N R19/0500N FG VV000 08/08 Q1019=
201109250320 METAR ESMX 250320Z AUTO 00000KT 0150NDV R01/0650N R19/0550N FG VV000 08/08 Q1019=
201109250250 METAR ESMX 250250Z AUTO 00000KT 0150NDV R01/0550 R19/0600N FG VV001 08/08 Q1019=
201109250220 METAR ESMX 250220Z AUTO 00000KT 0150NDV R01/0650N R19/0700N FG VV001 08/08 Q1019=
201109250150 METAR ESMX 250150Z AUTO 27003KT 0200NDV R01/0700 R19/0900N FG VV001 08/08 Q1019=
201109250120 METAR ESMX 250120Z AUTO VRB02KT 0150NDV R01/0600N R19/0800V1300 FG VV001 08/08 Q1019=
201109250050 METAR ESMX 250050Z AUTO 25002KT 0100NDV R01/0600N R19/0450N FG VV000 08/07 Q1019=
201109250020 METAR ESMX 250020Z AUTO 23003KT 0100NDV R01/0900 R19/0350 FG VV001 08/07 Q1019=
201109242350 METAR ESMX 242350Z AUTO 20002KT 0100NDV R01/0650V1200D R19/0350V0550D FG VV000 08/08 Q1019=
201109242320 METAR ESMX 242320Z AUTO 21004KT 0650NDV R01/P2000N R19/P2000N VV001 08/07 Q1018=
201109242250 METAR ESMX 242250Z AUTO 22003KT 0250NDV R01/P2000D R19/0800VP2000 FG NCD 07/07 Q1018=
201109242220 METAR ESMX 242220Z AUTO 22004KT 8000NDV NCD 07/07 Q1018=
201109242150 METAR ESMX 242150Z AUTO 22004KT 7000NDV BR NCD 07/07 Q1018=
201109242120 METAR ESMX 242120Z AUTO 21004KT 4500NDV BR NCD 08/07 Q1018=
201109242050 METAR ESMX 242050Z 23003KT 9999 MIFG NSC 08/08 Q1018=
201109242020 METAR ESMX 242020Z 25002KT CAVOK 08/07 Q1018=
201109241950 METAR ESMX 241950Z 23002KT CAVOK 09/08 Q1018=
201109241920 METAR ESMX 241920Z 23004KT CAVOK 09/08 Q1017=
201109241850 METAR ESMX 241850Z 24003KT CAVOK 10/08 Q1017=
201109241820 METAR ESMX 241820Z 24004KT CAVOK 10/09 Q1017=
201109241750 METAR ESMX 241750Z 24003KT CAVOK 10/08 Q1017=
201109241720 METAR ESMX 241720Z AUTO 23003KT 9999NDV NCD 11/09 Q1017=
201109241650 METAR ESMX 241650Z AUTO 22004KT 9999NDV FEW039/// 12/09 Q1016=
201109241620 METAR ESMX 241620Z AUTO 23004KT 9999NDV SCT040/// 14/10 Q1016=
201109241550 METAR ESMX 241550Z AUTO 25005KT 210V280 9999NDV FEW035/// BKN041/// 15/10 Q1016=
201109241520 METAR ESMX 241520Z AUTO 25006KT 220V290 9999NDV OVC040/// 15/09 Q1016=
201109241450 METAR ESMX 241450Z AUTO 26007KT 220V290 9999NDV BKN042/// 15/10 Q1016=
201109241420 METAR ESMX 241420Z AUTO 26004KT 230V300 9999NDV FEW045/// 16/09 Q1016=
201109241350 METAR ESMX 241350Z AUTO 30005KT 9999NDV BKN043/// 15/09 Q1016=
201109241320 METAR ESMX 241320Z AUTO 31005KT 290V360 9999NDV FEW038/// BKN042/// 15/09 Q1016=
201109241250 METAR ESMX 241250Z AUTO 28007KT 230V330 9999NDV FEW028/// SCT036/// BKN041/// 15/09 Q1016=
201109241220 METAR ESMX 241220Z AUTO 28006KT 9999NDV FEW025/// SCT035/// BKN039/// 15/09 Q1015=
201109241150 METAR ESMX 241150Z 29005KT 250V320 9999 FEW027 BKN038 15/10 Q1015=
201109241120 METAR ESMX 241120Z 29006KT 230V320 9999 FEW025 SCT030 BKN041 14/10 Q1015=
201109241050 METAR ESMX 241050Z 28007KT 9999 FEW023 SCT028 BKN033 14/09 Q1015=
201109241020 METAR ESMX 241020Z 28007KT 250V310 9999 FEW018 SCT023 BKN032 14/09 Q1015=
201109240950 METAR ESMX 240950Z 28007KT 250V340 9999 FEW020 BKN030 14/10 Q1015=
201109240920 METAR ESMX 240920Z 27007KT 230V300 9999 FEW015 SCT025 OVC034 14/10 Q1015=
201109240850 METAR ESMX 240850Z 27005KT 240V320 9999 FEW014 BKN034 13/10 Q1015=
201109240820 METAR ESMX 240820Z 28005KT 240V320 9999 FEW009 SCT033 12/10 Q1015=
201109240750 METAR ESMX 240750Z 27008KT 240V310 9999 SCT008 SCT030 12/10 Q1014=
201109240720 METAR ESMX 240720Z 27005KT 240V300 9999 FEW009 SCT032 11/10 Q1014=
201109240650 METAR ESMX 240650Z 27004KT 240V300 9999 SCT034 10/09 Q1014=
201109240620 METAR ESMX 240620Z AUTO 25004KT 220V300 9000NDV BR FEW004/// SCT026/// OVC034/// 10/09 Q1014=
201109240550 METAR ESMX 240550Z AUTO 25004KT 210V280 8000NDV BR FEW004/// SCT005/// BKN010/// 09/09 Q1013=
201109240520 METAR ESMX 240520Z AUTO 26004KT 210V290 7000NDV BR FEW003/// SCT006/// BKN024/// 10/09 Q1013=
201109240450 METAR ESMX 240450Z AUTO 26006KT 8000NDV BR FEW004/// SCT005/// BKN007/// 09/09 Q1013=
201109240420 METAR ESMX 240420Z AUTO 26005KT 220V280 6000NDV BR FEW002/// SCT004/// BKN005/// 09/09 Q1013=
201109240350 METAR ESMX 240350Z AUTO 23005KT 210V270 6000NDV BR FEW005/// SCT008/// BKN012/// 08/08 Q1013=
201109240320 METAR ESMX 240320Z AUTO 21005KT 2300NDV BR FEW007/// 06/06 Q1013=
201109240250 METAR ESMX 240250Z AUTO 20003KT 1200NDV R01/P2000N R19/P2000N BR FEW002/// SCT009/// 07/06 Q1013=
201109240220 METAR ESMX 240220Z AUTO 18003KT 1000NDV R01/P2000N R19/P2000N SCT003/// BKN043/// 08/07 Q1013=
201109240150 METAR ESMX 240150Z AUTO 23003KT 4400NDV FEW003/// OVC009/// 07/07 Q1013=
201109240120 METAR ESMX 240120Z AUTO 19002KT 1000NDV R01/P2000N R19/P2000N FG BKN010/// 07/07 Q1012=
201109240050 METAR ESMX 240050Z AUTO 24003KT 0800NDV R01/P2000N R19/P2000N BR FEW011/// 06/06 Q1013=
201109240020 METAR ESMX 240020Z AUTO 23004KT 1200NDV R01/P2000N R19/P2000N BR NCD 05/05 Q1012=
201109232350 METAR ESMX 232350Z AUTO 23002KT 3800NDV BR NCD 05/05 Q1012=
201109232320 METAR ESMX 232320Z AUTO VRB02KT 2000NDV BR NCD 07/06 Q1012=
201109232250 METAR ESMX 232250Z AUTO 23004KT 8000NDV BR NCD 06/05 Q1012=
201109232220 METAR ESMX 232220Z AUTO 24005KT 9999NDV NCD 07/06 Q1012=
201109232150 METAR ESMX 232150Z AUTO 25005KT 9999NDV NCD 08/07 Q1012=
201109232120 METAR ESMX 232120Z AUTO 25005KT 9999NDV NCD 08/07 Q1012=
201109232050 METAR ESMX 232050Z AUTO 24005KT 9999NDV NCD 08/07 Q1011=
201109232020 METAR ESMX 232020Z AUTO 23005KT 9999NDV NCD 08/07 Q1011=
201109231950 METAR ESMX 231950Z AUTO 22005KT 9999NDV NCD 08/07 Q1011=
201109231820 METAR ESMX 231820Z 25007KT 9999 SCT030 10/08 Q1011=
201109231750 METAR ESMX 231750Z 26006KT 9999 FEW030 10/08 Q1011=
201109231720 METAR ESMX 231720Z 27004KT 9999 FEW030 SCT100 10/08 Q1011=
201109231650 METAR ESMX 231650Z 25006KT 9999 FEW020 SCT034 11/09 Q1010=
201109231620 METAR ESMX 231620Z 25005KT 9999 SCT035 11/09 Q1010=
201109231550 METAR ESMX 231550Z 26005KT 240V300 9999 FEW023 11/08 Q1010=
201109231520 METAR ESMX 231520Z 25007KT 9999 FEW023 SCT083 10/08 Q1010 RESHRA=
201109231450 METAR ESMX 231450Z 28012KT 250V320 9999 SHRA FEW025CB SCT048 11/08 Q1010=
201109231420 METAR ESMX 231420Z 29005KT 230V330 9999 FEW022 SCT033 12/09 Q1009 RESHRA=
201109231350 METAR ESMX 231350Z 25010KT 9999 -SHRA FEW025CB SCT060 13/09 Q1009=
201109231320 METAR ESMX 231320Z 25006KT 210V290 9999 FEW020CB SCT040 11/09 Q1009 RESHRA=
201109231250 METAR ESMX 231250Z 30009KT 250V330 9999 FEW020CB SCT040 10/08 Q1010 RERA=
201109231220 METAR ESMX 231220Z 30008KT 270V340 9999 -SHRA SCT020CB BKN035 12/09 Q1009=
201109231150 METAR ESMX 231150Z 30008KT 270V330 9999 FEW023 SCT053 11/09 Q1009=
201109231120 METAR ESMX 231120Z 26011KT 220V290 9999 FEW020CB BKN023 13/09 Q1009=
201109231050 METAR ESMX 231050Z 24009KT 210V280 9999 -SHRA FEW020CB SCT038 12/09 Q1009=
201109231020 METAR ESMX 231020Z 25009KT 220V280 9999 VCSH FEW022CB SCT035 12/09 Q1009=
201109230950 METAR ESMX 230950Z 26012KT 220V290 9999 SCT022 14/09 Q1009=
201109230920 METAR ESMX 230920Z 27009KT 210V310 9999 BKN020TCU 13/09 Q1009=
201109230850 METAR ESMX 230850Z 25011KT 200V270 9999 FEW017TCU SCT097 13/09 Q1009=
201109230820 METAR ESMX 230820Z 26012KT 9999 FEW020TCU SCT090 11/08 Q1009=
201109230750 METAR ESMX 230750Z 26015KT 9999 -SHRA FEW016TCU SCT025 12/09 Q1009=
201109230720 METAR ESMX 230720Z 26010KT 210V290 9999 FEW015 SCT060 11/08 Q1009=
201109230650 METAR ESMX 230650Z 23011KT 190V260 9999 FEW013 11/08 Q1008=
201109230620 METAR ESMX 230620Z 25009KT 9999 FEW014 SCT040 10/08 Q1008=
201109230550 METAR ESMX 230550Z 25007KT 220V280 9999 FEW010 SCT020 09/08 Q1008=
201109230520 METAR ESMX 230520Z 25008KT 210V280 9999 FEW012 SCT024 09/08 Q1008=
201109230450 METAR ESMX 230450Z 22009KT 9999 FEW013 SCT098 09/08 Q1008=
201109230420 METAR ESMX 230420Z 23009KT 9999 FEW021 SCT040 09/07 Q1008=
201109230350 METAR ESMX 230350Z 24008KT 9999 FEW034 SCT057 09/07 Q1008=
201109230320 METAR ESMX 230320Z AUTO 24007KT 9999NDV FEW049/// 08/07 Q1008=
201109230250 METAR ESMX 230250Z AUTO 23009KT 200V260 9999NDV FEW023/// 09/07 Q1008=
201109230220 METAR ESMX 230220Z AUTO 25009KT 220V280 9999NDV FEW024/// 09/07 Q1008=
201109230150 METAR ESMX 230150Z AUTO 24009KT 9999NDV FEW020/// 09/07 Q1008=
201109230120 METAR ESMX 230120Z AUTO 25008KT 9999NDV FEW021/// 09/07 Q1008=
201109230050 METAR ESMX 230050Z AUTO 25009KT 9999NDV FEW020/// SCT055/// 09/07 Q1008=
201109230020 METAR ESMX 230020Z AUTO 24008KT 9999NDV FEW019/// BKN022/// 09/08 Q1008=
201109222350 METAR ESMX 222350Z AUTO 24008KT 9999NDV FEW017/// SCT023/// BKN048/// 09/08 Q1008=
201109222320 METAR ESMX 222320Z 23007KT 9999 FEW016 SCT019 BKN022 08/07 Q1008=
201109222250 METAR ESMX 222250Z 23006KT 9999 FEW017 BKN021 08/07 Q1008=
201109222220 METAR ESMX 222220Z 22008KT 9999 FEW018 SCT020 08/07 Q1008=
201109222150 METAR ESMX 222150Z 23007KT 9999 FEW018 SCT023 08/07 Q1008=
201109222120 METAR ESMX 222120Z 23008KT 190V250 CAVOK 08/07 Q1008=
201109222050 METAR ESMX 222050Z 23008KT 200V260 9999 FEW010 08/07 Q1008=
201109222020 METAR ESMX 222020Z 23008KT 9999 FEW024 09/07 Q1008=
201109221950 METAR ESMX 221950Z 23008KT 9999 FEW012 09/07 Q1008=
201109221920 METAR ESMX 221920Z 22007KT 9999 FEW025 09/07 Q1008=
201109221850 METAR ESMX 221850Z 23008KT 9999 FEW033 09/07 Q1008=
201109221820 METAR ESMX 221820Z 21009KT 9999 FEW025 09/07 Q1008=
201109221750 METAR ESMX 221750Z 22007KT 9999 FEW025 09/07 Q1007=
201109221650 METAR ESMX 221650Z 25010KT 220V280 9999 FEW035CB SCT050 11/06 Q1007=
201109221620 METAR ESMX 221620Z 24010KT 9999 FEW035CB SCT040 12/07 Q1007=
201109221550 METAR ESMX 221550Z 25014KT 9999 FEW037 BKN060 13/06 Q1007=
201109221520 METAR ESMX 221520Z 25012KT 200V290 9999 FEW035TCU SCT040 13/07 Q1007=
201109221450 METAR ESMX 221450Z 25012KT 210V290 9999 FEW035TCU 13/07 Q1006=
201109221420 METAR ESMX 221420Z 24014KT 200V280 9999 FEW035TCU 14/06 Q1006=
201109221350 METAR ESMX 221350Z 26015KT 230V290 9999 FEW035TCU 14/06 Q1006=
201109221320 METAR ESMX 221320Z 23014G27KT 190V260 9999 FEW032 SCT043 15/06 Q1006=
201109221250 METAR ESMX 221250Z 24015KT 200V280 9999 FEW034 SCT066 15/07 Q1006=
201109221220 METAR ESMX 221220Z 24015KT 210V290 9999 FEW032 SCT041 15/07 Q1006=
201109221150 METAR ESMX 221150Z 25012KT 200V290 9999 SCT032 15/08 Q1006=
201109221120 METAR ESMX 221120Z 24012KT 200V280 9999 SCT031 14/08 Q1006=
201109221050 METAR ESMX 221050Z 26010KT 220V290 9999 FEW025TCU SCT045 13/08 Q1006=
201109221020 METAR ESMX 221020Z 25012KT 220V290 9999 FEW014TCU SCT057 14/09 Q1006=
201109220950 METAR ESMX 220950Z 23008KT 200V260 9999 FEW016TCU SCT020 12/10 Q1006=
201109220920 METAR ESMX 220920Z 22007KT 9999 SCT015 BKN085 11/10 Q1006=
201109220850 METAR ESMX 220850Z 23007KT 9999 FEW012 BKN048 11/10 Q1006 RERA=
201109220820 METAR ESMX 220820Z 23012KT 200V260 5000 RA FEW007 SCT014 BKN024 12/10 Q1006=
201109220750 METAR ESMX 220750Z 21008KT 9999 FEW006 SCT014 BKN029 12/11 Q1006=
201109220720 METAR ESMX 220720Z 21010KT 180V240 5000 -DZ FEW006 SCT009 BKN013 12/11 Q1006=
201109220650 METAR ESMX 220650Z 22009KT 9999 -RA FEW005 BKN009 OVC012 12/11 Q1006 REDZ=
201109220620 METAR ESMX 220620Z 20009KT 6000 -RA SCT006 BKN009 OVC011 12/10 Q1006=
201109220550 METAR ESMX 220550Z 20009KT 9999 FEW006 SCT007 BKN009 11/11 Q1006=
201109220520 METAR ESMX 220520Z 19007KT 9999 SCT005 11/10 Q1006=
201109220450 METAR ESMX 220450Z 22006KT 9999 FEW007 SCT086 11/10 Q1006=
201109220420 METAR ESMX 220420Z 23006KT 9999 -RA FEW011 SCT069 12/11 Q1007 RERA=
201109220350 METAR ESMX 220350Z 22009KT 9000 RA FEW008 SCT011 BKN054 12/11 Q1007=
201109220320 METAR ESMX 220320Z AUTO 22010KT 7000NDV -RA FEW010/// SCT018/// BKN050/// 13/11 Q1007=
201109220250 METAR ESMX 220250Z AUTO 23008KT 9999NDV FEW007/// SCT011/// BKN020/// 13/12 Q1007=
201109220220 METAR ESMX 220220Z AUTO 22010KT 5000NDV BR FEW004/// SCT006/// BKN009/// 13/12 Q1007 RERA=
201109220150 METAR ESMX 220150Z AUTO 19010KT 2600NDV RA OVC004/// 13/12 Q1007=
201109220120 METAR ESMX 220120Z AUTO 18009KT 3600NDV -RA FEW004/// SCT006/// BKN008/// 13/12 Q1007=
201109220050 METAR ESMX 220050Z AUTO 18009KT 5000NDV DZ FEW006/// SCT009/// BKN011/// 13/12 Q1008=
201109220020 METAR ESMX 220020Z AUTO 19009KT 5000NDV -DZ SCT005/// BKN007/// OVC009/// 13/12 Q1008=
201109212350 METAR ESMX 212350Z AUTO 19009KT 160V220 5000NDV BR BKN004/// OVC007/// 13/12 Q1009 REDZ=
201109212320 METAR ESMX 212320Z 19008KT 3800 -DZ SCT005 BKN007 13/12 Q1009=
201109212250 METAR ESMX 212250Z 19008KT 8000 BR SCT004 BKN007 OVC009 13/12 Q1010=
201109212220 METAR ESMX 212220Z 21009KT 5000 BR FEW003 BKN005 OVC008 13/12 Q1010=
201109212120 METAR ESMX 212120Z 19009KT 2000 BR FEW003 OVC005 13/12 Q1011=
201109212050 METAR ESMX 212050Z 20010KT 4100 BR BKN004 OVC007 13/12 Q1011=
201109212020 METAR ESMX 212020Z 19010KT 2700 DZ FEW003 BKN005 OVC008 13/12 Q1011 REDZ=
201109211950 METAR ESMX 211950Z 19009KT 3600 DZ OVC004 13/12 Q1012=
201109211920 METAR ESMX 211920Z 19009KT 3200 DZ FEW003 BKN005 OVC007 13/12 Q1012=
201109211850 METAR ESMX 211850Z 19009KT 3200 -RA OVC004 13/12 Q1012=
201109211820 METAR ESMX 211820Z 19008KT 6000 BR BKN005 OVC008 13/13 Q1012=
201109211750 METAR ESMX 211750Z 20007KT 160V220 7000 BR SCT005 BKN007 13/13 Q1012=
201109211720 METAR ESMX 211720Z 21006KT 3200 BR BKN003 OVC005 13/13 Q1013=
201109211650 METAR ESMX 211650Z 19006KT 3000 BR FEW003 OVC005 13/13 Q1013=
201109211620 METAR ESMX 211620Z 21007KT 170V240 5000 -DZ OVC006 13/12 Q1013=
201109211550 METAR ESMX 211550Z 21010KT 170V240 5000 -DZ FEW005 SCT006 BKN009 14/12 Q1013=
201109211520 METAR ESMX 211520Z 22009KT 9000 BR FEW005 BKN007 OVC010 14/13 Q1013=
201109211450 METAR ESMX 211450Z 21009KT 150V230 6000 BR BKN005 OVC008 14/13 Q1013=
201109211420 METAR ESMX 211420Z 23009KT 6000 BR FEW006 BKN008 OVC010 14/13 Q1013=
201109211350 METAR ESMX 211350Z 21009KT 180V250 9999 FEW006 OVC009 14/13 Q1013=
201109211320 METAR ESMX 211320Z 20009KT 9999 FEW005 BKN007 OVC010 14/13 Q1013=
201109211250 METAR ESMX 211250Z 20010KT 9000 BR FEW005 BKN006 14/13 Q1013=
201109211220 METAR ESMX 211220Z 21010KT 170V240 5000 -DZ FEW005 OVC006 14/13 Q1014 REDZ=
201109211150 METAR ESMX 211150Z 21010KT 5000 -DZ FEW004 BKN005 OVC008 14/13 Q1014 REDZ=
201109211120 METAR ESMX 211120Z 20010KT 2400 DZ FEW004 SCT005 BKN007 14/13 Q1014=
201109211050 METAR ESMX 211050Z 21010KT 4000 -DZ FEW003 SCT005 BKN007 14/13 Q1014=
201109211020 METAR ESMX 211020Z 20011KT 3000 DZ FEW004 OVC005 14/13 Q1014=
201109210950 METAR ESMX 210950Z 21011KT 5000 -DZ FEW004 OVC006 14/14 Q1014=
201109210920 METAR ESMX 210920Z 21013KT 4200 BR FEW004 BKN006 BKN008 14/13 Q1014=
201109210850 METAR ESMX 210850Z 21011KT 3200 -DZ FEW004 SCT005 BKN007 14/13 Q1014 REDZ=
201109210820 METAR ESMX 210820Z 20012KT 2000 DZ BKN005 OVC009 14/13 Q1015=
201109210750 METAR ESMX 210750Z 20012KT 4800 BR SCT004 OVC006 14/13 Q1015=
201109210720 METAR ESMX 210720Z 19013KT 3700 BR SCT003 OVC005 14/13 Q1015=
201109210650 METAR ESMX 210650Z 19013KT 3900 BR SCT002 OVC004 14/13 Q1015=
201109210620 METAR ESMX 210620Z 18010KT 7000 BR SCT003 OVC005 14/13 Q1015 REDZ=
201109210550 METAR ESMX 210550Z 18009KT 4900 -DZ FEW003 BKN005 OVC008 14/13 Q1015=
201109210520 METAR ESMX 210520Z 19010KT 3800 DZ FEW003 BKN005 OVC008 14/13 Q1015=
201109210450 METAR ESMX 210450Z 19010KT 3500 -RA FEW003 SCT004 BKN005 14/13 Q1015 REDZ=
201109210420 METAR ESMX 210420Z 19010KT 3000 DZ FEW004 BKN005 OVC007 14/13 Q1015=
201109210350 METAR ESMX 210350Z 19009KT 3000 DZ OVC004 14/13 Q1015=
201109210320 METAR ESMX 210320Z AUTO 20009KT 4300NDV BR OVC003/// 14/13 Q1015=
201109210250 METAR ESMX 210250Z AUTO 19010KT 2700NDV BR OVC002/// 14/13 Q1016=
201109210220 METAR ESMX 210220Z AUTO 19009KT 3000NDV BR OVC002/// 14/13 Q1016 REDZ=
201109210150 METAR ESMX 210150Z AUTO 19009KT 160V230 2000NDV BR OVC003/// 14/13 Q1016=
201109210120 METAR ESMX 210120Z AUTO 21009KT 6000NDV BR OVC004/// 14/13 Q1016=
201109210050 METAR ESMX 210050Z AUTO 19009KT 6000NDV BR OVC003/// 14/13 Q1016=
201109210020 METAR ESMX 210020Z AUTO 20009KT 5000NDV BR OVC003/// 14/13 Q1017=
201109202350 METAR ESMX 202350Z AUTO 21008KT 6000NDV BR OVC003/// 14/13 Q1017=
201109202320 METAR ESMX 202320Z 21007KT 5000 BR OVC003 14/13 Q1017=
201109202250 METAR ESMX 202250Z 20008KT 3500 BR OVC003 14/13 Q1017=
201109202220 METAR ESMX 202220Z 20007KT 5000 BR OVC003 14/13 Q1017=
201109202150 METAR ESMX 202150Z 20008KT 6000 BR FEW003 OVC005 14/13 Q1017 REDZ=
201109202120 METAR ESMX 202120Z 20008KT 3400 BR OVC003 13/13 Q1017=
201109202050 METAR ESMX 202050Z 20009KT 4200 BR OVC003 13/13 Q1017=
201109202020 METAR ESMX 202020Z 21010KT 170V240 4200 BR OVC003 13/13 Q1017=
201109201950 METAR ESMX 201950Z 19010KT 2900 BR OVC003 13/13 Q1017=
201109201920 METAR ESMX 201920Z 21008KT 2500 BR FEW003 OVC004 13/12 Q1017=
201109201850 METAR ESMX 201850Z 20009KT 3500 DZ FEW006 OVC007 14/12 Q1017=
201109201820 METAR ESMX 201820Z 20010KT 9999 BKN007 14/12 Q1017=
201109201750 METAR ESMX 201750Z 21010KT 9999 BKN008 14/12 Q1017=
201109201720 METAR ESMX 201720Z 21008KT 9999 -RA FEW009 BKN011 14/12 Q1017=
201109201650 METAR ESMX 201650Z 20009KT 8000 -RA OVC013 14/12 Q1017=
201109201620 METAR ESMX 201620Z 21009KT 9999 BKN014 OVC019 15/12 Q1016=
201109201550 METAR ESMX 201550Z 21009KT 9999 SCT016 BKN020 15/12 Q1016=
201109201520 METAR ESMX 201520Z 20008KT 160V230 9999 OVC025 15/11 Q1016=
201109201450 METAR ESMX 201450Z 21007KT 9999 BKN025 15/11 Q1016=
201109201420 METAR ESMX 201420Z 20010KT 9999 OVC025 15/11 Q1016=
201109201350 METAR ESMX 201350Z 20010KT 9999 OVC030 16/11 Q1016=
201109201320 METAR ESMX 201320Z 19009KT 9999 FEW020 OVC030 15/11 Q1016=
201109201250 METAR ESMX 201250Z 19011KT 9999 FEW020 OVC030 15/11 Q1017=
201109201220 METAR ESMX 201220Z 21011KT 9999 FEW021 SCT024 BKN028 15/10 Q1017=
201109201150 METAR ESMX 201150Z 20013KT 9999 BKN035 15/10 Q1017=
201109201120 METAR ESMX 201120Z 20014KT 9999 FEW021 BKN040 16/11 Q1017=
201109201050 METAR ESMX 201050Z 20010KT 9999 FEW018 BKN040 15/11 Q1017=
201109201020 METAR ESMX 201020Z 20012KT 9999 SCT017 BKN030 14/10 Q1017=
201109200950 METAR ESMX 200950Z 20012KT 9999 SCT015 BKN023 14/10 Q1017=
201109200920 METAR ESMX 200920Z 20014KT 9999 FEW014 SCT018 BKN064 14/10 Q1017=
201109200850 METAR ESMX 200850Z 20013KT 9999 FEW013 SCT019 BKN025 14/11 Q1017=
201109200820 METAR ESMX 200820Z 20010KT 170V240 9999 BKN011 OVC018 13/10 Q1017=
201109200750 METAR ESMX 200750Z 21009KT 9999 FEW009 BKN011 BKN017 13/10 Q1016=
201109200720 METAR ESMX 200720Z 20010KT 170V240 9999 SCT009 OVC012 12/10 Q1016=
201109200650 METAR ESMX 200650Z 20011KT 9999 FEW008 SCT010 BKN013 12/10 Q1016=
201109200620 METAR ESMX 200620Z 22009KT 9999 FEW006 SCT007 BKN009 11/10 Q1016=
201109200550 METAR ESMX 200550Z 21008KT 9999 OVC005 11/10 Q1015=
201109200520 METAR ESMX 200520Z 22008KT 9999 BKN005 OVC008 11/10 Q1015=
201109200420 METAR ESMX 200420Z 22006KT 9999 BKN011 11/09 Q1014=
201109200350 METAR ESMX 200350Z 23006KT 9999 BKN015 11/09 Q1014=
201109200320 METAR ESMX 200320Z AUTO 22005KT 9999NDV FEW017/// 11/09 Q1014=
201109200250 METAR ESMX 200250Z AUTO 25007KT 220V290 9999NDV FEW011/// SCT013/// BKN019/// 12/10 Q1014=
201109200220 METAR ESMX 200220Z AUTO 23009KT 190V260 9999NDV FEW012/// SCT015/// BKN018/// 12/10 Q1013=
201109200150 METAR ESMX 200150Z AUTO 24007KT 210V280 9999NDV FEW012/// SCT017/// BKN020/// 12/10 Q1013=
201109200120 METAR ESMX 200120Z AUTO 23007KT 190V260 9999NDV FEW013/// SCT015/// BKN020/// 12/10 Q1013=
201109200050 METAR ESMX 200050Z AUTO 23008KT 200V270 9999NDV FEW014/// SCT017/// BKN039/// 12/10 Q1013=
201109200020 METAR ESMX 200020Z AUTO 23009KT 200V260 9999NDV FEW014/// SCT018/// BKN020/// 12/10 Q1013=
201109192350 METAR ESMX 192350Z 22009KT 9999 FEW012 BKN017 OVC021 12/10 Q1012=
201109192320 METAR ESMX 192320Z 21010KT 9999 FEW012 SCT015 BKN020 12/10 Q1012=
201109192250 METAR ESMX 192250Z 19010KT 9999 FEW011 BKN020 12/10 Q1012=
201109192220 METAR ESMX 192220Z 20010KT 9999 FEW011 SCT016 BKN031 12/10 Q1012=
201109192150 METAR ESMX 192150Z 20010KT 9999 FEW010 SCT012 BKN015 12/10 Q1011=
201109192120 METAR ESMX 192120Z 18011KT 9999 FEW012 SCT015 BKN017 12/10 Q1011 REDZ=
201109192050 METAR ESMX 192050Z 17010KT 9999 FEW020 BKN054 12/09 Q1011=
201109192020 METAR ESMX 192020Z 17010KT 140V200 CAVOK 12/09 Q1011=
201109191950 METAR ESMX 191950Z 17008KT 140V200 CAVOK 11/09 Q1011=
201109191920 METAR ESMX 191920Z 16007KT 120V200 CAVOK 11/09 Q1011=
201109191850 METAR ESMX 191850Z 17007KT 140V200 CAVOK 11/09 Q1011=
201109191820 METAR ESMX 191820Z 17007KT 140V220 CAVOK 12/09 Q1011=
201109191750 METAR ESMX 191750Z 18008KT CAVOK 12/09 Q1011=
201109191720 METAR ESMX 191720Z 18006KT CAVOK 12/09 Q1011=
201109191650 METAR ESMX 191650Z 17006KT 9999 FEW030 BKN100 14/09 Q1010=
201109191620 METAR ESMX 191620Z 19007KT 9999 FEW030 BKN100 14/09 Q1010=
201109191550 METAR ESMX 191550Z 19009KT 9999 FEW025 BKN100 14/09 Q1010=
201109191520 METAR ESMX 191520Z 19009KT 140V210 9999 FEW025 BKN100 15/09 Q1010=
201109191450 METAR ESMX 191450Z 20010KT 9999 FEW025 BKN100 15/09 Q1010=
201109191420 METAR ESMX 191420Z 21009KT 9999 FEW025 BKN100 15/09 Q1010=
201109191350 METAR ESMX 191350Z 20008KT 9999 FEW029 15/09 Q1010=
201109191320 METAR ESMX 191320Z 19012KT 9999 FEW029 SCT039 15/09 Q1010=
201109191250 METAR ESMX 191250Z 21009KT 170V240 9999 BKN027 15/08 Q1009=
201109191220 METAR ESMX 191220Z 20009KT 160V230 9999 FEW028 SCT033 16/09 Q1009=
201109191150 METAR ESMX 191150Z 20009KT 160V240 9999 FEW020 BKN030 14/09 Q1009=
201109191120 METAR ESMX 191120Z 21009KT 170V260 9999 FEW025 SCT030 15/09 Q1009=
201109191050 METAR ESMX 191050Z 21009KT 9999 FEW020 SCT024 14/10 Q1009=
201109191020 METAR ESMX 191020Z 20010KT 9999 FEW019 BKN022 14/09 Q1008=
201109190950 METAR ESMX 190950Z 20009KT 9999 BKN017 13/09 Q1008=
201109190920 METAR ESMX 190920Z 22008KT 190V250 9999 SCT014 13/10 Q1008=
201109190850 METAR ESMX 190850Z 21009KT 9999 FEW009 SCT015 BKN022 13/10 Q1008=
201109190820 METAR ESMX 190820Z 22008KT 190V260 9999 FEW009 SCT013 BKN018 13/10 Q1007=
201109190750 METAR ESMX 190750Z 21008KT 9999 FEW008 SCT012 BKN020 12/10 Q1007=
201109190720 METAR ESMX 190720Z 23007KT 7000 BR FEW005 SCT008 BKN012 12/11 Q1007=
201109190650 METAR ESMX 190650Z 22006KT 6000 BR FEW005 SCT007 BKN009 12/11 Q1007=
201109190620 METAR ESMX 190620Z 21004KT 180V240 6000 BR FEW006 BKN007 OVC009 12/11 Q1006=
201109190550 METAR ESMX 190550Z 22007KT 8000 BR FEW005 BKN006 OVC010 12/11 Q1006=
201109190520 METAR ESMX 190520Z 21005KT 7000 BR FEW004 SCT007 BKN091 11/11 Q1005=
201109190450 METAR ESMX 190450Z 22006KT 9000 FEW004 SCT043 OVC071 12/11 Q1005=
201109190420 METAR ESMX 190420Z 22006KT 9999 SCT005 BKN040 12/11 Q1004=
201109190350 METAR ESMX 190350Z 22004KT 9999 FEW004 SCT019 BKN045 12/11 Q1004=
201109190320 METAR ESMX 190320Z AUTO 24006KT 9999NDV BR FEW004/// SCT006/// BKN024/// 12/11 Q1004=
201109190250 METAR ESMX 190250Z AUTO 23007KT 9000NDV BR FEW003/// SCT005/// BKN009/// 12/11 Q1004 REDZ=
201109190220 METAR ESMX 190220Z AUTO 23004KT 8000NDV DZ FEW005/// SCT012/// OVC015/// 13/12 Q1003=
201109190150 METAR ESMX 190150Z AUTO 23004KT 8000NDV DZ FEW004/// SCT005/// BKN006/// 13/12 Q1003=
201109190120 METAR ESMX 190120Z AUTO 23006KT 9000NDV DZ FEW003/// BKN005/// OVC008/// 13/12 Q1003=
201109190050 METAR ESMX 190050Z AUTO 22005KT 5000NDV DZ SCT002/// OVC005/// 13/12 Q1003=
201109190020 METAR ESMX 190020Z AUTO 19004KT 5000NDV DZ BKN001/// OVC004/// 13/12 Q1003=
201109182350 METAR ESMX 182350Z 18003KT 5000 DZ OVC003 13/12 Q1003=
201109182320 METAR ESMX 182320Z 19002KT 4100 DZ FEW003 OVC005 13/12 Q1002=
201109182250 METAR ESMX 182250Z 15001KT 2100 RA FEW002 OVC004 13/12 Q1002=
201109182220 METAR ESMX 182220Z VRB02KT 8000 -RA FEW004 OVC005 13/12 Q1002=
201109182150 METAR ESMX 182150Z VRB02KT 4700 RA FEW002 OVC005 13/12 Q1002=
201109182120 METAR ESMX 182120Z 04003KT 3800 RA FEW002 SCT005 OVC008 13/12 Q1003=
201109182050 METAR ESMX 182050Z VRB01KT 2500 RA FEW003 OVC005 13/12 Q1003=
201109182020 METAR ESMX 182020Z VRB02KT 3200 RA FEW003 OVC005 13/12 Q1003=
201109181950 METAR ESMX 181950Z 08004KT 040V120 8000 -RA OVC005 13/12 Q1003=
201109181920 METAR ESMX 181920Z 10004KT 050V180 4800 RA OVC004 13/12 Q1004=
201109181850 METAR ESMX 181850Z 08004KT 010V150 9000 -RA OVC004 13/12 Q1004=
201109181820 METAR ESMX 181820Z 09004KT 040V150 8000 -RA OVC004 13/12 Q1004=
201109181750 METAR ESMX 181750Z 09003KT 040V140 7000 -RA BKN005 OVC007 13/12 Q1004=
201109181720 METAR ESMX 181720Z 10004KT 050V160 5000 -RA OVC005 14/13 Q1004=
201109181650 METAR ESMX 181650Z VRB04KT 5000 DZ FEW002 SCT004 OVC005 14/13 Q1004=
201109181620 METAR ESMX 181620Z 10005KT 060V170 3000 DZ OVC002 14/13 Q1005=
201109181550 METAR ESMX 181550Z 10005KT 050V160 2300 -RA OVC002 14/13 Q1005=
201109181520 METAR ESMX 181520Z 11005KT 060V150 3300 BR OVC002 14/13 Q1005=
201109181450 METAR ESMX 181450Z 09006KT 350V140 3900 BR OVC002 14/13 Q1005=
201109181420 METAR ESMX 181420Z 10006KT 050V190 6000 BR FEW004 OVC005 14/13 Q1005=
201109181350 METAR ESMX 181350Z AUTO 09006KT 050V150 9999NDV OVC008/// 14/12 Q1005=
201109181320 METAR ESMX 181320Z 09006KT 040V140 9999 OVC009 14/12 Q1005=
201109181250 METAR ESMX 181250Z 09005KT 050V170 9999 OVC010 14/12 Q1006=
201109181220 METAR ESMX 181220Z 10008KT 040V160 9999 OVC012 14/12 Q1006=
201109181150 METAR ESMX 181150Z 10007KT 050V160 9999 OVC013 14/12 Q1006=
201109181120 METAR ESMX 181120Z 08005KT 020V140 9999 BKN013 OVC043 14/12 Q1006=
201109181050 METAR ESMX 181050Z 08006KT 040V120 9999 BKN012 OVC046 14/12 Q1006=
201109181020 METAR ESMX 181020Z 07007KT 020V120 9999 OVC012 15/12 Q1006=
201109180950 METAR ESMX 180950Z 09005KT 030V140 9999 OVC011 14/11 Q1007=
201109180920 METAR ESMX 180920Z 10004KT 050V180 9999 OVC011 13/11 Q1007=
201109180850 METAR ESMX 180850Z 09007KT 030V150 9999 OVC010 13/12 Q1007=
201109180820 METAR ESMX 180820Z AUTO 09005KT 040V140 9999NDV FEW008/// OVC009/// 13/11 Q1007=
201109180750 METAR ESMX 180750Z AUTO 08005KT 030V140 9999NDV OVC008/// 13/11 Q1007=
201109180720 METAR ESMX 180720Z AUTO 07004KT 010V130 9999NDV FEW008/// BKN009/// BKN047/// 12/11 Q1007 RESHRA=
201109180650 METAR ESMX 180650Z AUTO 07006KT 030V110 6000NDV RA BKN008/// BKN010/// 12/11 Q1007=
201109180620 METAR ESMX 180620Z AUTO 09004KT 040V140 9000NDV -RA OVC008/// 12/11 Q1008 REDZ=
201109180550 METAR ESMX 180550Z AUTO 06004KT 010V100 9999NDV OVC008/// 12/10 Q1008=
201109180520 METAR ESMX 180520Z AUTO 08004KT 020V150 9999NDV OVC008/// 12/10 Q1008=
201109180450 METAR ESMX 180450Z AUTO VRB03KT 9999NDV OVC007/// 12/10 Q1008=
201109180420 METAR ESMX 180420Z AUTO 09005KT 060V120 9999NDV OVC008/// 12/10 Q1008=
201109180350 METAR ESMX 180350Z AUTO 09004KT 040V130 9999NDV OVC008/// 12/10 Q1008=
201109180320 METAR ESMX 180320Z AUTO 09004KT 040V120 9999NDV OVC009/// 12/10 Q1009=
201109180250 METAR ESMX 180250Z AUTO 09003KT 010V160 9999NDV FEW009/// SCT011/// BKN030/// 12/10 Q1009=
201109180220 METAR ESMX 180220Z AUTO 10005KT 050V150 9999NDV BKN030/// OVC037/// 12/10 Q1009=
201109180150 METAR ESMX 180150Z AUTO 10006KT 040V160 9999NDV FEW010/// OVC031/// 12/10 Q1009=
201109180120 METAR ESMX 180120Z AUTO VRB05KT 9999NDV SCT011/// OVC033/// 12/10 Q1009=
201109180050 METAR ESMX 180050Z AUTO 11004KT 040V170 9999NDV SCT012/// BKN015/// OVC034/// 12/09 Q1010=
201109180020 METAR ESMX 180020Z AUTO 11005KT 060V160 9999NDV FEW013/// OVC034/// 11/09 Q1010=
201109172350 METAR ESMX 172350Z AUTO 10005KT 050V160 9999NDV -RA FEW012/// BKN034/// OVC042/// 11/09 Q1010=
201109172320 METAR ESMX 172320Z AUTO 09005KT 030V150 9999NDV FEW011/// OVC032/// 11/09 Q1011=
201109172250 METAR ESMX 172250Z AUTO 10006KT 050V150 9999NDV SCT012/// BKN033/// OVC043/// 11/09 Q1011=
201109172220 METAR ESMX 172220Z AUTO 11004KT 030V190 9999NDV FEW013/// BKN033/// OVC045/// 11/09 Q1011=
201109172150 METAR ESMX 172150Z AUTO 11005KT 070V160 9999NDV OVC032/// 11/09 Q1011=
201109172120 METAR ESMX 172120Z AUTO 10005KT 070V140 9999NDV OVC033/// 11/08 Q1011=
201109172050 METAR ESMX 172050Z AUTO VRB05KT 9999NDV OVC035/// 11/08 Q1011=
201109172020 METAR ESMX 172020Z AUTO 11004KT 080V150 9999NDV BKN037/// BKN044/// 11/08 Q1012=
201109171950 METAR ESMX 171950Z AUTO 11004KT 050V220 9999NDV FEW037/// SCT045/// OVC053/// 11/08 Q1012=
201109171920 METAR ESMX 171920Z AUTO 11004KT 060V190 9999NDV -RA FEW039/// BKN052/// 11/07 Q1012 REDZ=
201109171850 METAR ESMX 171850Z AUTO VRB05KT 9999NDV OVC056/// 11/07 Q1012=
201109171820 METAR ESMX 171820Z AUTO 11005KT 050V170 9999NDV OVC060/// 12/06 Q1012=
201109171750 METAR ESMX 171750Z AUTO 13005KT 070V230 9999NDV OVC061/// 12/05 Q1012=
201109171720 METAR ESMX 171720Z AUTO 12004KT 080V170 9999NDV BKN063/// 12/06 Q1012=
201109171650 METAR ESMX 171650Z AUTO 11004KT 070V200 9999NDV DZ BKN073/// 12/06 Q1012=
201109171620 METAR ESMX 171620Z AUTO 12004KT 070V160 9999NDV OVC080/// 13/05 Q1013=
201109171550 METAR ESMX 171550Z AUTO 13005KT 080V170 9999NDV OVC082/// 13/05 Q1013=
201109171520 METAR ESMX 171520Z AUTO 14005KT 100V180 9999NDV BKN083/// 14/04 Q1013=
201109171450 METAR ESMX 171450Z AUTO 15005KT 110V190 9999NDV BKN087/// 14/05 Q1013=
201109171420 METAR ESMX 171420Z AUTO 14005KT 100V180 9999NDV FEW094/// SCT100/// 14/05 Q1013=
201109171350 METAR ESMX 171350Z AUTO 17008KT 9999NDV FEW043/// 15/05 Q1013=
201109171320 METAR ESMX 171320Z AUTO 14005KT 090V180 9999NDV BKN042/// 15/06 Q1013=
201109171250 METAR ESMX 171250Z AUTO 16007KT 100V200 9999NDV SCT040/// 16/05 Q1014=
201109171220 METAR ESMX 171220Z AUTO 16006KT 110V230 9999NDV FEW040/// 16/06 Q1014=
201109171150 METAR ESMX 171150Z 16007KT 110V220 CAVOK 16/05 Q1014=
201109171120 METAR ESMX 171120Z 15006KT 100V170 CAVOK 16/06 Q1014=
201109171050 METAR ESMX 171050Z 14004KT 080V170 CAVOK 15/06 Q1015=
201109171020 METAR ESMX 171020Z 17006KT 120V200 CAVOK 14/05 Q1015=
201109170950 METAR ESMX 170950Z 17003KT 100V210 CAVOK 14/06 Q1015=
201109170920 METAR ESMX 170920Z 14004KT 060V190 CAVOK 14/06 Q1015=
201109170850 METAR ESMX 170850Z 15004KT 080V210 CAVOK 14/07 Q1015=
201109170820 METAR ESMX 170820Z 14003KT 080V170 CAVOK 13/08 Q1015=
201109170750 METAR ESMX 170750Z VRB01KT CAVOK 10/09 Q1016=
201109170720 METAR ESMX 170720Z VRB02KT CAVOK 09/08 Q1016=
201109170650 METAR ESMX 170650Z 00000KT 0200 R01/0450N R19/0800V1400U FG NSC 06/06 Q1016=
201109170620 METAR ESMX 170620Z 00000KT 0100 R01/0150N R19/0275N FG VV000 05/04 Q1016=
201109170550 METAR ESMX 170550Z AUTO 00000KT 0100NDV R01/0175N R19/0150N FG VV000 03/03 Q1016=
201109170520 METAR ESMX 170520Z AUTO 00000KT 0050NDV R01/M0150N R19/M0150N FG VV000 02/02 Q1016=
201109170450 METAR ESMX 170450Z AUTO 20001KT 0050NDV R01/M0150N R19/0150N +DZ VV000 02/02 Q1016=
201109170420 METAR ESMX 170420Z AUTO 19001KT 0050NDV R01/0175N R19/0175N FG VV000 02/02 Q1016=
201109170350 METAR ESMX 170350Z AUTO 20002KT 0100NDV R01/0300V0550 R19/0325V0450N FG VV000 02/02 Q1016 REDZ=
201109170320 METAR ESMX 170320Z AUTO VRB01KT 0050NDV R01/0175V0325N R19/0450N DZ VV000 02/01 Q1016=
201109170250 METAR ESMX 170250Z AUTO 00000KT 0100NDV R01/0800VP2000 R19/0375V0500N FG VV000 02/01 Q1016=
201109170220 METAR ESMX 170220Z AUTO 20002KT 0100NDV R01/0800V1300 R19/0450N BCFG VV000 01/01 Q1016=
201109170150 METAR ESMX 170150Z AUTO 00000KT 0150NDV R01/P2000N R19/0500 BR VV000 01/00 Q1016=
201109170120 METAR ESMX 170120Z AUTO 18001KT 9999NDV VV000 02/01 Q1017=
201109170050 METAR ESMX 170050Z AUTO 18001KT 9999NDV NCD 01/01 Q1017=
201109170020 METAR ESMX 170020Z AUTO 17002KT 9999NDV NCD 02/01 Q1017=
201109162350 METAR ESMX 162350Z AUTO 17002KT 9999NDV NCD 02/01 Q1017=
201109162320 METAR ESMX 162320Z AUTO 16001KT 9999NDV NCD 02/02 Q1017=
201109162250 METAR ESMX 162250Z AUTO 18002KT 9999NDV NCD 02/02 Q1017=
201109162220 METAR ESMX 162220Z AUTO 17001KT 9999NDV NCD 03/02 Q1017=
201109162150 METAR ESMX 162150Z AUTO 17001KT 9999NDV NCD 04/03 Q1017=
201109162120 METAR ESMX 162120Z AUTO 16001KT 9999NDV NCD 04/03 Q1017=
201109162050 METAR ESMX 162050Z AUTO 00000KT 9999NDV NCD 04/03 Q1017=
201109162020 METAR ESMX 162020Z AUTO 19003KT 9999NDV NCD 04/02 Q1017=
201109161950 METAR ESMX 161950Z AUTO 17002KT 9999NDV NCD 05/03 Q1017=
201109161920 METAR ESMX 161920Z AUTO 18002KT 9999NDV NCD 06/04 Q1017=
201109161850 METAR ESMX 161850Z 18002KT CAVOK 06/04 Q1017=
201109161820 METAR ESMX 161820Z 17001KT CAVOK 07/05 Q1016=
201109161750 METAR ESMX 161750Z 26003KT CAVOK 09/05 Q1016=
201109161720 METAR ESMX 161720Z 27002KT CAVOK 11/05 Q1016=
201109161650 METAR ESMX 161650Z VRB02KT CAVOK 13/04 Q1016=
201109161620 METAR ESMX 161620Z 30005KT CAVOK 14/04 Q1016=
201109161550 METAR ESMX 161550Z 31006KT 280V340 CAVOK 15/03 Q1016=
201109161520 METAR ESMX 161520Z 31007KT 280V360 CAVOK 15/03 Q1016=
201109161450 METAR ESMX 161450Z 31007KT 280V350 CAVOK 15/02 Q1016=
201109161420 METAR ESMX 161420Z 32009KT 290V010 CAVOK 16/04 Q1016=
201109161350 METAR ESMX 161350Z 30009KT 260V330 CAVOK 16/04 Q1016=
201109161320 METAR ESMX 161320Z 31010KT 290V010 CAVOK 16/04 Q1016=
201109161250 METAR ESMX 161250Z 31011KT 280V350 CAVOK 16/05 Q1016=
201109161220 METAR ESMX 161220Z 30011KT 270V350 9999 FEW044 15/04 Q1016=
201109161150 METAR ESMX 161150Z 30010KT 270V010 CAVOK 15/05 Q1016=
201109161120 METAR ESMX 161120Z 31012KT 280V340 CAVOK 14/05 Q1016=
201109161050 METAR ESMX 161050Z 29010KT 250V020 CAVOK 14/05 Q1016=
201109161020 METAR ESMX 161020Z 29008KT 250V330 CAVOK 14/06 Q1016=
201109160950 METAR ESMX 160950Z 29008KT 250V320 CAVOK 13/06 Q1016=
201109160920 METAR ESMX 160920Z 29006KT 230V330 CAVOK 12/07 Q1016=
201109160850 METAR ESMX 160850Z 31006KT 270V020 CAVOK 12/07 Q1016=
201109160820 METAR ESMX 160820Z 29006KT 250V340 CAVOK 11/07 Q1016=
201109160750 METAR ESMX 160750Z 30005KT 260V340 CAVOK 10/07 Q1015=
201109160720 METAR ESMX 160720Z 31005KT 280V360 CAVOK 09/07 Q1015=
201109160650 METAR ESMX 160650Z 32004KT 280V350 CAVOK 08/07 Q1015=
201109160620 METAR ESMX 160620Z 30005KT CAVOK 08/07 Q1015=
201109160550 METAR ESMX 160550Z 29005KT CAVOK 07/06 Q1014=
201109160520 METAR ESMX 160520Z 32003KT 290V020 CAVOK 06/05 Q1014=
201109160450 METAR ESMX 160450Z 27003KT CAVOK 06/06 Q1014=
201109160420 METAR ESMX 160420Z 29005KT CAVOK 07/06 Q1014=
201109160350 METAR ESMX 160350Z 29004KT CAVOK 07/06 Q1013=
201109160320 METAR ESMX 160320Z AUTO 28004KT 250V310 9999NDV FEW001/// 07/06 Q1013=
201109160250 METAR ESMX 160250Z AUTO 26003KT 5000NDV SCT000/// 07/06 Q1013=
201109160220 METAR ESMX 160220Z AUTO 30005KT 9999NDV SCT064/// 07/07 Q1013=
201109160150 METAR ESMX 160150Z AUTO 26005KT 9999NDV OVC046/// 08/07 Q1013=
201109160120 METAR ESMX 160120Z AUTO 29004KT 260V330 9999NDV OVC046/// 08/07 Q1013=
201109160050 METAR ESMX 160050Z AUTO 25004KT 9999NDV BKN061/// 07/07 Q1012=
201109160020 METAR ESMX 160020Z AUTO 25003KT 210V280 9999NDV FEW060/// 07/06 Q1012=
201109152350 METAR ESMX 152350Z 25003KT CAVOK 07/06 Q1012=
201109152320 METAR ESMX 152320Z 24004KT 9999 FEW045 07/06 Q1012=
201109152250 METAR ESMX 152250Z 24004KT 9999 FEW031 SCT060 07/06 Q1012=
201109152220 METAR ESMX 152220Z VRB02KT 9999 FEW029 SCT043 BKN058 08/07 Q1011=
201109152150 METAR ESMX 152150Z 26004KT 9999 FEW033 SCT048 BKN060 08/07 Q1011=
201109152120 METAR ESMX 152120Z VRB02KT 9999 SCT035 BKN050 09/07 Q1011=
201109152020 METAR ESMX 152020Z 31009KT 9999 SHRA FEW023CB SCT040 BKN051 10/08 Q1011=
201109151950 METAR ESMX 151950Z 28004KT 260V320 9999 FEW014 BKN028 11/10 Q1011=
201109151920 METAR ESMX 151920Z 32004KT 240V360 9999 FEW010 SCT024 BKN076 10/09 Q1010=
201109151850 METAR ESMX 151850Z 24003KT 8000 FEW020 SCT035 BKN085 11/09 Q1010=
201109151820 METAR ESMX 151820Z 24004KT 200V290 9999 -SHRA FEW022CB SCT044 BKN056 10/09 Q1010=
201109151750 METAR ESMX 151750Z 24004KT 9999 FEW025CB BKN057 10/09 Q1009=
201109151720 METAR ESMX 151720Z 22003KT 9999 -SHRA FEW020CB SCT035 10/09 Q1009=
201109151650 METAR ESMX 151650Z 28004KT 240V320 9999 FEW020CB SCT035 11/08 Q1009 RESHRA=
201109151620 METAR ESMX 151620Z 27004KT 240V320 9999 SHRA FEW015CB SCT035 11/08 Q1009=
201109151550 METAR ESMX 151550Z 26007KT 240V300 9999 -SHRA FEW025CB SCT035 11/09 Q1008=
201109151520 METAR ESMX 151520Z 27008KT 240V330 9999 -SHRA FEW020CB SCT035 13/10 Q1008=
201109151420 METAR ESMX 151420Z 25008KT 200V290 9999 FEW020CB SCT025 14/10 Q1007=
201109151350 METAR ESMX 151350Z 25007KT 9999 FEW020CB SCT025 14/11 Q1007=
201109151320 METAR ESMX 151320Z 27010KT 240V300 9999 -SHRA FEW020CB SCT025 14/10 Q1007=
201109151250 METAR COR ESMX 151250Z 28010KT 240V350 9999 FEW015CB SCT020 15/10 Q1006=
201109151220 METAR ESMX 151220Z 28008KT 9999 FEW024 BKN054 13/10 Q1006=
201109151150 METAR ESMX 151150Z 29010KT 260V330 9999 FEW020 BKN045 13/09 Q1006=
201109151120 METAR ESMX 151120Z 28010KT 240V310 9999 FEW011 SCT014 BKN049 14/11 Q1005=
201109151050 METAR ESMX 151050Z 28010KT 9999 VCSH FEW015 BKN020 12/10 Q1005=
201109151020 METAR ESMX 151020Z 27007KT 230V310 9999 -RA FEW016 SCT026 12/10 Q1005=
201109150950 METAR ESMX 150950Z 26010KT 210V290 9999 SHRA FEW015 SCT024 12/10 Q1004=
201109150920 METAR ESMX 150920Z 26008KT 9999 -RA BKN020 12/09 Q1004=
201109150850 METAR COR ESMX 150850Z 25009KT 9999 -RA FEW013 BKN025 11/09 Q1004=
201109150820 METAR ESMX 150820Z 23010KT 190V260 9999 BKN015 BKN025 11/09 Q1004=
201109150750 METAR ESMX 150750Z 22008KT 170V260 9999 FEW020 10/08 Q1004=
201109150720 METAR ESMX 150720Z 24009KT 200V270 9999 -RA SCT011 BKN030 10/08 Q1003=
201109150650 METAR ESMX 150650Z 24009KT 200V270 9999 FEW025 SCT050 10/07 Q1003=
201109150620 METAR ESMX 150620Z 21009KT 9999 FEW019 09/08 Q1003=
201109150550 METAR ESMX 150550Z 22007KT 190V250 9999 FEW015 08/07 Q1003=
201109150520 METAR ESMX 150520Z 20006KT 9999 FEW019 08/07 Q1003=
201109150450 METAR ESMX 150450Z 22006KT 9999 FEW010 SCT024 08/06 Q1003=
201109150420 METAR ESMX 150420Z 22006KT 9999 FEW020 SCT031 08/07 Q1003=
201109150350 METAR ESMX 150350Z 20006KT 9999 FEW020 07/06 Q1003=
201109150320 METAR ESMX 150320Z AUTO 20008KT 9999NDV FEW042/// 07/06 Q1004=
201109150250 METAR ESMX 150250Z AUTO 20006KT 9999NDV FEW039/// 07/06 Q1004=
201109150220 METAR ESMX 150220Z AUTO 20006KT 9999NDV FEW039/// 08/06 Q1004=
201109150150 METAR ESMX 150150Z AUTO 21006KT 9999NDV FEW021/// 08/06 Q1004=
201109150120 METAR ESMX 150120Z AUTO 21008KT 9999NDV NCD 08/06 Q1004=
201109150050 METAR ESMX 150050Z AUTO 22009KT 9999NDV FEW035/// 08/06 Q1004=
201109150020 METAR ESMX 150020Z AUTO 23009KT 9999NDV NCD 08/06 Q1004=
201109142350 METAR ESMX 142350Z 23007KT CAVOK 08/06 Q1004=
201109142320 METAR ESMX 142320Z 22007KT CAVOK 09/06 Q1004=
201109142250 METAR ESMX 142250Z 24008KT 210V280 CAVOK 10/06 Q1005=
201109142220 METAR ESMX 142220Z 25008KT 230V290 9999 FEW040 10/06 Q1005=
201109142050 METAR ESMX 142050Z 25008KT 210V280 9999 FEW024 SCT048 12/08 Q1004=
201109142020 METAR ESMX 142020Z 26012KT 230V290 9999 FEW021 BKN028 12/08 Q1004=
201109141950 METAR ESMX 141950Z 26013G24KT 230V290 9999 FEW025 BKN034 13/08 Q1004=
201109141920 METAR ESMX 141920Z 24013KT 200V280 9999 BKN021 BKN037 13/09 Q1003=
201109141850 METAR ESMX 141850Z 25011KT 9999 FEW021 BKN035 13/09 Q1003=
201109141820 METAR ESMX 141820Z 24012KT 9999 SCT038 13/10 Q1002=
201109141750 METAR ESMX 141750Z 25013KT 230V290 9999 FEW022 BKN042 14/10 Q1002=
201109141720 METAR ESMX 141720Z 25012KT 220V290 9999 FEW021 SCT028 BKN039 14/10 Q1002=
201109141650 METAR ESMX 141650Z 24014G24KT 9999 SCT022 BKN037 14/10 Q1001=
201109141620 METAR ESMX 141620Z 26020KT 9999 FEW023 SCT028 BKN044 15/10 Q1001=
201109141550 METAR ESMX 141550Z 24014KT 210V270 9999 FEW020 SCT024 BKN027 15/10 Q1001=
201109141520 METAR ESMX 141520Z 24013KT 9999 -RASH FEW019 BKN023 15/11 Q1001=
201109141450 METAR ESMX 141450Z 25015G26KT 220V280 9999 FEW022 SCT026 BKN031 15/11 Q1000=
201109141420 METAR ESMX 141420Z 26015KT 230V300 9999 BKN025 16/11 Q1000=
201109141350 METAR ESMX 141350Z 26013G23KT 9999 BKN022 15/11 Q1000=
201109141320 METAR ESMX 141320Z 26012KT 220V310 9999 BKN019 15/11 Q1000=
201109141250 METAR ESMX 141250Z 25011KT 200V290 9999 FEW012 BKN022 14/11 Q0999 REDZ=
201109141220 METAR ESMX 141220Z 25012KT 210V280 3700 RA BKN015 14/11 Q0999=
201109141150 METAR ESMX 141150Z 23013KT 9999 SCT015 BKN020 15/11 Q0999=
201109141120 METAR ESMX 141120Z 23014KT 200V260 9999 BKN010 15/11 Q0999=
201109141050 METAR ESMX 141050Z 22012KT 190V250 9999 SCT015 14/11 Q0998=
201109141020 METAR ESMX 141020Z 22011KT 9999 VCSH SCT010 BKN015 13/11 Q0998=
201109140950 METAR ESMX 140950Z 22011KT 9999 FEW009 SCT010 12/11 Q0998=
201109140920 METAR ESMX 140920Z 22010KT 200V260 9999 -DZ FEW008 BKN011 12/10 Q0998=
201109140850 METAR ESMX 140850Z 23012KT 200V260 9999 -DZ FEW007 BKN010 11/10 Q0998=
201109140820 METAR ESMX 140820Z 23012KT 9999 SCT008 OVC011 11/10 Q0997=
201109140750 METAR ESMX 140750Z 22013KT 180V240 9999 OVC009 11/09 Q0997=
201109140720 METAR ESMX 140720Z 23014KT 9999 BKN010 OVC016 11/09 Q0997=
201109140650 METAR ESMX 140650Z 21015KT 7000 DZ FEW011 BKN014 11/09 Q0997=
201109140620 METAR ESMX 140620Z 23016KT 9999 SCT014 BKN030 11/09 Q0997=
201109140550 METAR ESMX 140550Z 23013KT 9999 FEW015 BKN037 11/09 Q0997=
201109140520 METAR ESMX 140520Z 21013KT 9999 SCT031 11/09 Q0997=
201109140450 METAR ESMX 140450Z 21012KT 9999 FEW015 SCT030 BKN034 10/09 Q0997 REDZ=
201109140420 METAR ESMX 140420Z 22014G24KT 9999 -DZ FEW029 SCT062 11/08 Q0997=
201109140350 METAR COR ESMX 140350Z 21012KT 9999 FEW030 10/08 Q0997=
201109140320 METAR ESMX 140320Z AUTO 22012KT 9999NDV FEW027/// 10/08 Q0997=
201109140250 METAR ESMX 140250Z AUTO 21012KT 170V240 9999NDV FEW027/// BKN031/// 11/08 Q0997=
201109140220 METAR ESMX 140220Z AUTO 22012KT 9999NDV FEW026/// BKN030/// BKN058/// 11/08 Q0997=
201109140150 METAR ESMX 140150Z AUTO 21013KT 9999NDV FEW025/// SCT030/// BKN035/// 11/08 Q0997=
201109140120 METAR ESMX 140120Z AUTO 22012KT 9999NDV FEW027/// SCT035/// BKN058/// 11/08 Q0997=
201109140050 METAR ESMX 140050Z AUTO 23013KT 9999NDV NCD 11/08 Q0997=
201109140020 METAR ESMX 140020Z AUTO 22013KT 190V250 9999NDV FEW027/// SCT035/// 11/08 Q0997=
201109132350 METAR ESMX 132350Z 23011KT 9999 SCT025 BKN032 11/08 Q0997=
201109132320 METAR ESMX 132320Z 23013KT 200V260 9999 FEW029 SCT034 11/07 Q0998=
201109132250 METAR ESMX 132250Z 23013KT 200V260 CAVOK 11/07 Q0998=
201109132220 METAR ESMX 132220Z 23012KT CAVOK 11/08 Q0998=
201109132150 METAR ESMX 132150Z 23012KT 9999 FEW030 11/08 Q0998=
201109132120 METAR ESMX 132120Z 23015KT 9999 FEW017 SCT060 11/09 Q0997 REDZ=
201109132050 METAR ESMX 132050Z 22015KT 190V260 6000 DZ FEW023 SCT043 BKN055 12/09 Q0998=
201109132020 METAR ESMX 132020Z 24015G26KT 200V290 9999 FEW026 SCT037 BKN052 12/08 Q0998=
201109131950 METAR ESMX 131950Z 23015KT 9999 FEW023 12/09 Q0998=
201109131920 METAR COR ESMX 131920Z 22013KT 190V250 9999 FEW023 12/09 Q0998=
201109131850 METAR ESMX 131850Z 23018KT 200V260 9999 FEW028 SCT031 BKN039 13/08 Q0998 REDZ=
201109131820 METAR ESMX 131820Z 23018G28KT 9999 -RA FEW031 SCT038 14/09 Q0998=
201109131750 METAR ESMX 131750Z 24015KT 210V280 9999 -SHRA FEW011 BKN032 BKN069 14/09 Q0997=
201109131720 METAR ESMX 131720Z 23015KT 9999 FEW033 SCT069 14/09 Q0997=
201109131650 METAR ESMX 131650Z 22017KT 170V240 9999 FEW035 SCT040 14/08 Q0997=
201109131620 METAR ESMX 131620Z 23016G27KT 9999 FEW022 BKN031 14/08 Q0997=
201109131550 METAR COR ESMX 131550Z 24015G25KT 9999 -DZ SCT035 BKN054 15/08 Q0997=
201109131520 METAR ESMX 131520Z 22014G24KT 190V260 9999 SCT035 BKN060 15/08 Q0997=
201109131450 METAR ESMX 131450Z 22020G30KT 190V250 9999 BKN040 16/08 Q0997=
201109131420 METAR ESMX 131420Z 24020KT 9999 FEW036 SCT045 BKN053 16/08 Q0997=
201109131350 METAR ESMX 131350Z 22019G31KT 190V260 9999 SCT036 BKN040 16/08 Q0997=
201109131320 METAR ESMX 131320Z 23016G28KT 9999 BKN030 16/08 Q0997=
201109131250 METAR ESMX 131250Z 22019G31KT 9999 SCT030 16/09 Q0997=
201109131220 METAR ESMX 131220Z 23016KT 9999 BKN028 15/09 Q0997=
201109131150 METAR ESMX 131150Z 24019G31KT 200V280 9999 FEW020 BKN050 15/09 Q0997=
201109131120 METAR ESMX 131120Z 23017G28KT 9999 FEW020 BKN050 15/10 Q0997=
201109131050 METAR ESMX 131050Z 23016G26KT 9999 FEW028 BKN045 15/10 Q0997=
201109131020 METAR ESMX 131020Z 22013KT 190V270 9999 FEW019 BKN045 13/11 Q0997=
201109130950 METAR ESMX 130950Z 24013G23KT 210V280 8000 -RA SCT015 BKN020 14/11 Q0997=
201109130920 METAR ESMX 130920Z 24013KT 200V260 8000 -RA FEW015 BKN080 13/11 Q0997=
201109130820 METAR ESMX 130820Z 23012KT 200V260 9999 -RA SCT020 BKN060 14/11 Q0997=
201109130750 METAR ESMX 130750Z 21015KT 9999 SCT020 BKN050 13/11 Q0996=
201109130720 METAR ESMX 130720Z 24013KT 200V270 9000 -RA FEW015 BKN020 13/12 Q0996=
201109130650 METAR ESMX 130650Z 21015KT 8000 RA FEW012 BKN020 13/11 Q0996=
201109130620 METAR ESMX 130620Z 22014G25KT 180V260 9999 FEW012 BKN021 14/11 Q0996=
201109130550 METAR ESMX 130550Z 22016KT 190V250 9999 FEW018 BKN025 14/11 Q0996=
201109130520 METAR ESMX 130520Z 23014KT 190V260 8000 -RA FEW017 BKN025 14/11 Q0995=
201109130450 METAR ESMX 130450Z 21014KT 170V240 9999 FEW021 BKN055 14/11 Q0995=
201109130420 METAR ESMX 130420Z 22014KT 8000 BR FEW016 SCT028 BKN043 14/11 Q0995=
201109130350 METAR ESMX 130350Z 23014KT 9999 FEW021 SCT040 BKN050 14/11 Q0995=
201109130320 METAR ESMX 130320Z AUTO 23014G24KT 9999NDV FEW018/// SCT029/// BKN049/// 14/12 Q0995=
201109130250 METAR ESMX 130250Z AUTO 21013KT 9999NDV BR FEW019/// SCT027/// BKN043/// 14/12 Q0995=
201109130220 METAR ESMX 130220Z AUTO 20013KT 9999NDV BR FEW016/// SCT022/// BKN043/// 14/12 Q0995=
201109130150 METAR ESMX 130150Z AUTO 20013KT 170V240 9999NDV BR FEW018/// SCT030/// BKN055/// 14/12 Q0995 REDZ=
201109130120 METAR ESMX 130120Z AUTO 20013KT 9999NDV FEW020/// BKN054/// 14/12 Q0996=
201109130050 METAR ESMX 130050Z AUTO 22011KT 9999NDV BKN054/// 14/12 Q0996=
201109130020 METAR ESMX 130020Z AUTO 20013KT 9999NDV FEW013/// SCT062/// 14/13 Q0996=
201109122350 METAR ESMX 122350Z 20011KT CAVOK 14/13 Q0996=
201109122320 METAR ESMX 122320Z 22011KT 9999 FEW011 14/13 Q0996=
201109122250 METAR ESMX 122250Z 22007KT 190V270 9999 SCT049 14/12 Q0996=
201109122220 METAR ESMX 122220Z 25013G24KT 210V290 9999 FEW017 SCT052 14/12 Q0996=
201109122150 METAR ESMX 122150Z 21014KT 7000 RA FEW006 SCT010 BKN013 15/14 Q0995=
201109122120 METAR ESMX 122120Z 19014KT 160V230 4500 +DZ FEW005 SCT008 BKN009 15/14 Q0995=
201109122050 METAR ESMX 122050Z 18013KT 150V210 7000 -RA FEW005 BKN007 OVC010 15/14 Q0996=
201109122020 METAR ESMX 122020Z 18013KT 140V200 7000 -DZ FEW006 BKN007 OVC010 15/13 Q0996=
201109121950 METAR ESMX 121950Z 17014KT 140V210 6000 -DZ BKN005 OVC009 14/13 Q0997 RESHRA RERA=
201109121920 METAR ESMX 121920Z 17011KT 140V210 5000 RA OVC006 14/13 Q0998=
201109121850 METAR ESMX 121850Z 17011KT 140V200 6000 DZ BKN007 OVC010 14/13 Q0998=
201109121820 METAR ESMX 121820Z 17011KT 130V200 5000 BR FEW006 SCT009 BKN011 14/13 Q0999=
201109121750 METAR ESMX 121750Z 18012KT 130V200 9999 FEW014 SCT017 BKN024 14/12 Q1000=
201109121720 METAR ESMX 121720Z 19013KT 140V220 9999 FEW021 SCT029 BKN042 16/11 Q1000=
201109121650 METAR ESMX 121650Z 17011KT 140V210 9999 FEW026 SCT048 BKN070 16/12 Q1001=
201109121620 METAR ESMX 121620Z 18011KT 140V210 9999 FEW030 BKN085 16/11 Q1001=
201109121550 METAR ESMX 121550Z 19010KT 9999 FEW030 SCT091 17/11 Q1001=
201109121520 METAR ESMX 121520Z 19012KT 9999 FEW027 SCT080 17/12 Q1002=
201109121450 METAR ESMX 121450Z 20011KT 9999 FEW025 SCT055 18/12 Q1002=
201109121420 METAR ESMX 121420Z 18012KT 9999 FEW028 BKN150 18/12 Q1002=
201109121350 METAR ESMX 121350Z 20010KT 170V230 9999 FEW028 BKN150 17/12 Q1003=
201109121250 METAR ESMX 121250Z 20012KT 160V220 9999 FEW024 BKN150 17/12 Q1003=
201109121220 METAR ESMX 121220Z 21011KT 190V250 9999 FEW025 18/12 Q1004=
201109121150 METAR ESMX 121150Z 20013KT 9999 SCT025 18/12 Q1004=
201109121120 METAR ESMX 121120Z 22011KT 170V250 9999 SCT023 17/12 Q1004=
201109121050 METAR ESMX 121050Z 23009KT 200V260 9999 SCT023 17/12 Q1004=
201109120950 METAR ESMX 120950Z 22009KT 9999 SCT020 17/13 Q1004=
201109120920 METAR ESMX 120920Z 24008KT 200V280 9999 SCT015 17/13 Q1004=
201109120850 METAR ESMX 120850Z 23008KT 210V270 9999 FEW015 SCT025 16/13 Q1004=
201109120820 METAR ESMX 120820Z 22007KT 170V260 9999 SCT011 SCT020 15/12 Q1004=
201109120750 METAR ESMX 120750Z 27008KT 230V310 9999 FEW009 BKN015 BKN020 15/13 Q1004=
201109120720 METAR ESMX 120720Z 23006KT 200V260 9999 FEW006 BKN013 14/13 Q1004=
201109120650 METAR ESMX 120650Z 24006KT 200V270 9999 FEW008 BKN012 14/13 Q1004=
201109120620 METAR ESMX 120620Z 23005KT 190V250 9999 FEW004 SCT020 BKN085 14/13 Q1004=
201109120550 METAR ESMX 120550Z 23005KT 9999 BKN005 14/13 Q1004=
201109120520 METAR ESMX 120520Z 26003KT 9999 FEW004 OVC006 14/13 Q1004=
201109120450 METAR ESMX 120450Z 26003KT 9999 -RA FEW004 BKN006 14/13 Q1003=
201109120420 METAR ESMX 120420Z 22003KT 9999 DZ FEW002 SCT015 BKN100 13/13 Q1003=
201109120350 METAR ESMX 120350Z 23002KT 9999 -DZ SCT016 BKN085 13/13 Q1004=
201109120320 METAR ESMX 120320Z 26003KT 9999 -RA SCT016 BKN056 14/13 Q1004=
201109120250 METAR ESMX 120250Z AUTO 26004KT 230V300 5000NDV RA ////// 14/13 Q1004=
201109120220 METAR ESMX 120220Z AUTO 21003KT 170V250 5000NDV -RA ////// 14/13 Q1004=
201109120150 METAR ESMX 120150Z AUTO 19005KT 150V220 8000NDV RA ////// 14/13 Q1004=
201109120120 METAR ESMX 120120Z AUTO 20008KT 6000NDV RA ////// 15/14 Q1005=
201109120050 METAR ESMX 120050Z AUTO 17006KT 4000NDV -RA ////// 15/15 Q1005 REDZ=
201109120020 METAR ESMX 120020Z AUTO 16004KT 0350NDV R01/1200N R19/P2000D FG ////// 15/15 Q1005=
201109112350 METAR ESMX 112350Z 14004KT 100V170 3000 BR BKN013 15/15 Q1005=
201109112320 METAR ESMX 112320Z 15003KT 8000 BR SCT012 BKN070 15/14 Q1005=
201109112250 METAR ESMX 112250Z VRB02KT 8000 BR SCT015 BKN070 15/14 Q1006=
201109112220 METAR ESMX 112220Z 15003KT 8000 BR FEW016 SCT080 14/13 Q1006=
201109112150 METAR ESMX 112150Z 15003KT 9000 BR SCT085 14/13 Q1006=
201109112120 METAR ESMX 112120Z 17002KT 8000 BR SCT080 14/13 Q1006=
201109112050 METAR ESMX 112050Z 14002KT 9000 BR NSC 14/13 Q1006=
201109112020 METAR ESMX 112020Z 19003KT 7000 BR NSC 14/13 Q1007=
201109111950 METAR ESMX 111950Z 15002KT 5000 BR NSC 15/14 Q1007=
201109111920 METAR ESMX 111920Z 16003KT CAVOK 15/14 Q1007=
201109111850 METAR ESMX 111850Z 22004KT CAVOK 16/15 Q1007=
201109111820 METAR ESMX 111820Z 24005KT 9999 FEW014 16/15 Q1007=
201109111750 METAR ESMX 111750Z 20005KT 9999 FEW014 17/16 Q1007=
201109111720 METAR ESMX 111720Z 22007KT 9000 BR FEW012 SCT025 18/17 Q1007=
201109111650 METAR ESMX 111650Z 20004KT 8000 BR FEW010 SCT030 18/17 Q1007=
201109111620 METAR ESMX 111620Z 17005KT 7000 BR SCT010 19/17 Q1006=
201109111550 METAR ESMX 111550Z 18007KT 9000 BR BKN020 19/17 Q1007=
201109111520 METAR ESMX 111520Z 18005KT 140V200 8000 BR FEW010 BKN047 19/17 Q1007=
201109111450 METAR ESMX 111450Z 18006KT 9000 BR BKN010 19/17 Q1007=
201109111420 METAR ESMX 111420Z 19006KT 160V220 9999 VCSH SCT011 BKN020 19/17 Q1007=
201109111350 METAR ESMX 111350Z 17008KT 130V200 9999 VCSH SCT009 20/17 Q1007=
201109111320 METAR ESMX 111320Z 15005KT 100V190 9000 TS VCSH FEW030CB 19/18 Q1007=
201109111250 METAR ESMX 111250Z 17006KT 140V210 9000 TSRA FEW011 BKN031CB 19/17 Q1007=
201109111220 METAR ESMX 111220Z 16007KT 120V200 9999 FEW015 SCT035 20/17 Q1007=
201109111150 METAR ESMX 111150Z 16010KT 120V210 9999 FEW014 SCT036 21/17 Q1007=
201109111120 METAR ESMX 111120Z 17009KT 130V200 9999 FEW013 SCT035 20/17 Q1007=
201109111050 METAR ESMX 111050Z 16010KT 120V210 9999 SCT013 20/17 Q1007=
201109111020 METAR ESMX 111020Z 17010KT 140V200 9999 SCT013 20/17 Q1008=
201109110950 METAR ESMX 110950Z 15007KT 100V190 9999 FEW031 19/16 Q1008=
201109110920 METAR ESMX 110920Z 16006KT 130V210 9999 FEW030 SCT043 BKN105 18/16 Q1008=
201109110850 METAR ESMX 110850Z 14005KT 090V190 9000 BR FEW010 18/16 Q1008=
201109110820 METAR ESMX 110820Z AUTO 14005KT 080V180 7000NDV BR FEW006/// SCT024/// 17/16 Q1008=
201109110750 METAR ESMX 110750Z AUTO 15007KT 080V170 5000NDV BR OVC003/// 17/16 Q1008=
201109110720 METAR ESMX 110720Z AUTO 15006KT 110V190 3600NDV BR OVC002/// 16/15 Q1008=
201109110650 METAR ESMX 110650Z AUTO 15006KT 110V200 2600NDV BR OVC001/// 16/15 Q1009=
201109110620 METAR ESMX 110620Z AUTO 15006KT 110V190 1900NDV BR OVC001/// 15/15 Q1009=
201109110550 METAR ESMX 110550Z AUTO 15005KT 120V200 1500NDV BR OVC001/// 15/15 Q1009=
201109110520 METAR ESMX 110520Z AUTO 16006KT 120V190 1500NDV BR OVC001/// 15/14 Q1009=
201109110450 METAR ESMX 110450Z AUTO 16007KT 110V220 2200NDV OVC001/// 15/14 Q1009=
201109110420 METAR ESMX 110420Z AUTO 16005KT 120V200 2600NDV OVC001/// 15/14 Q1010=
201109110350 METAR ESMX 110350Z AUTO 15005KT 110V200 1200NDV R01/P2000N R19/P2000N FG OVC001/// 14/14 Q1010=
201109110320 METAR ESMX 110320Z AUTO 14005KT 100V170 0650NDV R01/1900N R19/P2000N FG VV002 14/14 Q1010=
201109110250 METAR ESMX 110250Z AUTO 13004KT 070V170 0750NDV R01/P2000N R19/P2000N FG VV001 14/14 Q1010=
201109110220 METAR ESMX 110220Z AUTO 13003KT 080V200 0250NDV R01/0900N R19/1200N FG VV001 14/13 Q1010=
201109110150 METAR ESMX 110150Z AUTO 16003KT 110V200 0400NDV R01/1400N R19/P2000N FG VV001 14/13 Q1011=
201109110120 METAR ESMX 110120Z AUTO 15004KT 110V190 0300NDV R01/1000N R19/1400D FG VV001 13/13 Q1011=
201109110050 METAR ESMX 110050Z AUTO 17005KT 130V200 0550NDV R01/1700D R19/P2000N FG VV002 13/13 Q1011=
201109110020 METAR ESMX 110020Z AUTO 15004KT 110V170 0350NDV R01/1100U R19/1300VP2000U FG VV001 13/13 Q1011=
201109102350 METAR ESMX 102350Z AUTO 16004KT 100V190 0200NDV R01/0750 R19/1100N FG VV001 13/13 Q1011=
201109102320 METAR ESMX 102320Z AUTO 15004KT 110V180 2900NDV BR SCT002/// BKN099/// 13/13 Q1012=
201109102250 METAR ESMX 102250Z AUTO 15003KT 110V190 1100NDV R01/P2000N R19/P2000N BR NCD 13/12 Q1011=
201109102220 METAR ESMX 102220Z AUTO 18003KT 5000NDV BR NCD 13/13 Q1011=
201109102150 METAR ESMX 102150Z AUTO 15004KT 7000NDV BR FEW110/// 14/13 Q1012=
201109102120 METAR ESMX 102120Z AUTO 15003KT 9000NDV FEW110/// 14/13 Q1011=
201109102050 METAR ESMX 102050Z AUTO 15003KT 9000NDV NCD 14/13 Q1012=
201109102020 METAR ESMX 102020Z AUTO 16003KT 8000NDV NCD 13/12 Q1012=
201109101950 METAR ESMX 101950Z AUTO 15003KT 9999NDV FEW100/// 13/12 Q1011=
201109101920 METAR ESMX 101920Z AUTO 16003KT 9999NDV SCT100/// 14/12 Q1011=
201109101850 METAR ESMX 101850Z AUTO 17003KT 9999NDV BKN100/// 14/13 Q1012=
201109101820 METAR ESMX 101820Z AUTO 19002KT 9999NDV NCD 14/12 Q1011=
201109101750 METAR ESMX 101750Z AUTO 19002KT 9999NDV FEW048/// 14/12 Q1011=
201109101720 METAR ESMX 101720Z AUTO 21002KT 9999NDV BKN022/// BKN046/// 16/13 Q1011=
201109101650 METAR ESMX 101650Z AUTO 21002KT 9999NDV FEW023/// SCT029/// 16/13 Q1011=
201109101620 METAR ESMX 101620Z AUTO 22003KT 180V250 9999NDV FEW028/// SCT037/// BKN042/// 17/13 Q1011=
201109101550 METAR ESMX 101550Z AUTO 25003KT 9999NDV FEW020/// SCT024/// BKN031/// 17/13 Q1011=
201109101520 METAR ESMX 101520Z AUTO 23004KT 190V260 9999NDV BKN021/// OVC035/// 17/13 Q1011=
201109101450 METAR ESMX 101450Z AUTO 23005KT 200V270 9999NDV FEW022/// SCT026/// BKN031/// 17/12 Q1011=
201109101420 METAR ESMX 101420Z AUTO 22006KT 190V250 9999NDV FEW024/// BKN031/// OVC037/// 17/12 Q1011=
201109101350 METAR ESMX 101350Z AUTO 23006KT 9999NDV FEW027/// BKN033/// BKN061/// 17/12 Q1011=
201109101320 METAR ESMX 101320Z AUTO 23006KT 9999NDV FEW024/// OVC036/// 17/12 Q1011=
201109101250 METAR ESMX 101250Z AUTO 23006KT 200V280 9999NDV SCT023/// OVC034/// 17/11 Q1010=
201109101220 METAR ESMX 101220Z AUTO 24005KT 200V300 9999NDV FEW022/// BKN043/// OVC063/// 17/11 Q1010=
201109101150 METAR ESMX 101150Z 27007KT 9999 BKN021 BKN044 16/11 Q1010=
201109101120 METAR ESMX 101120Z 22007KT 180V260 9999 BKN022 16/11 Q1010=
201109101050 METAR ESMX 101050Z 25007KT 9999 SCT022 BKN027 16/11 Q1011=
201109101020 METAR ESMX 101020Z 25007KT 160V280 9999 FEW021 BKN029 16/10 Q1010=
201109100950 METAR ESMX 100950Z 23006KT 200V280 9999 FEW018 SCT025 BKN035 15/10 Q1011=
201109100920 METAR ESMX 100920Z 24006KT 9999 SCT015 BKN036 14/11 Q1011=
201109100850 METAR ESMX 100850Z 23006KT 200V290 9999 SCT014 BKN020 14/11 Q1011=
201109100820 METAR ESMX 100820Z 24007KT 200V280 9999 SCT013 BKN066 14/11 Q1010=
201109100750 METAR ESMX 100750Z 23006KT 190V260 CAVOK 14/11 Q1010=
201109100720 METAR ESMX 100720Z 23006KT CAVOK 13/10 Q1010=
201109100650 METAR ESMX 100650Z 21004KT 190V250 CAVOK 12/10 Q1010=
201109100620 METAR ESMX 100620Z 24003KT CAVOK 11/10 Q1010=
201109100550 METAR ESMX 100550Z AUTO 22003KT 9999NDV OVC073/// 10/09 Q1010=
201109100520 METAR ESMX 100520Z AUTO 20004KT 9999NDV OVC076/// 10/09 Q1009=
201109100450 METAR ESMX 100450Z AUTO 20004KT 9999NDV FEW070/// OVC081/// 10/09 Q1009=
201109100420 METAR ESMX 100420Z AUTO 21004KT 9999NDV BKN070/// 10/09 Q1009=
201109100350 METAR ESMX 100350Z AUTO 22005KT 9999NDV BKN074/// BKN095/// 09/08 Q1009=
201109100320 METAR ESMX 100320Z AUTO 20004KT 9999NDV OVC079/// 09/09 Q1009=
201109100250 METAR ESMX 100250Z AUTO 22004KT 9999NDV BKN080/// 09/08 Q1009=
201109100220 METAR ESMX 100220Z AUTO 22005KT 9999NDV SCT085/// 08/08 Q1009=
201109100150 METAR ESMX 100150Z AUTO 22006KT 9999NDV FEW095/// SCT110/// 09/08 Q1009=
201109100120 METAR ESMX 100120Z AUTO 22005KT 9999NDV BKN099/// 09/08 Q1009=
201109100050 METAR ESMX 100050Z AUTO 23004KT 9999NDV FEW100/// 09/08 Q1009=
201109100020 METAR ESMX 100020Z AUTO 19004KT 9999NDV NCD 09/08 Q1009=
201109092350 METAR ESMX 092350Z AUTO 23003KT 9999NDV NCD 09/08 Q1009=
201109092320 METAR ESMX 092320Z AUTO 22005KT 9999NDV NCD 09/08 Q1009=
201109092250 METAR ESMX 092250Z AUTO 23005KT 9999NDV NCD 09/08 Q1009=
201109092220 METAR ESMX 092220Z AUTO 22005KT 9999NDV NCD 09/08 Q1009=
201109092150 METAR ESMX 092150Z AUTO 23004KT 9999NDV NCD 09/08 Q1009=
201109092120 METAR ESMX 092120Z AUTO 23005G20KT 9999NDV NCD 10/08 Q1008=
201109092050 METAR ESMX 092050Z AUTO 23005KT 9999NDV FEW032/// 10/08 Q1008=
201109092020 METAR ESMX 092020Z AUTO 23005KT 9999NDV FEW027/// 10/08 Q1008=
201109091950 METAR ESMX 091950Z AUTO 24005KT 9999NDV FEW038/// 10/08 Q1008=
201109091920 METAR ESMX 091920Z AUTO 25005KT 9999NDV BKN053/// 11/08 Q1008=
201109091850 METAR ESMX 091850Z 26004KT 220V290 CAVOK 11/08 Q1008=
201109091820 METAR ESMX 091820Z 26005KT CAVOK 12/08 Q1007=
201109091750 METAR ESMX 091750Z 25004KT 210V280 CAVOK 12/08 Q1007=
201109091720 METAR ESMX 091720Z 27007KT 230V290 CAVOK 13/07 Q1007=
201109091650 METAR ESMX 091650Z 26008KT 230V290 CAVOK 14/07 Q1007=
201109091620 METAR ESMX 091620Z 26007KT 230V290 CAVOK 15/08 Q1006=
201109091550 METAR ESMX 091550Z 27008KT CAVOK 14/08 Q1006=
201109091520 METAR ESMX 091520Z 27011KT 240V320 9999 FEW040 15/08 Q1006=
201109091450 METAR ESMX 091450Z 27011KT 250V320 9999 FEW041 16/07 Q1006=
201109091420 METAR ESMX 091420Z 26010KT 200V300 9999 FEW040 17/08 Q1006=
201109091350 METAR ESMX 091350Z 30011KT 260V340 9999 FEW041 17/08 Q1006=
201109091320 METAR ESMX 091320Z 26011KT 230V310 9999 FEW040 17/08 Q1005=
201109091250 METAR ESMX 091250Z 27011KT 240V310 9999 FEW036 17/08 Q1005=
201109091220 METAR ESMX 091220Z 28010KT 240V320 9999 SCT035 16/09 Q1005=
201109091150 METAR ESMX 091150Z 26011KT 220V290 9999 SCT033 17/09 Q1005=
201109091120 METAR ESMX 091120Z 27009KT 240V310 9999 SCT030 16/09 Q1005=
201109091050 METAR ESMX 091050Z 25010KT 210V280 9999 FEW027 17/10 Q1005=
201109091020 METAR ESMX 091020Z 28010KT 9999 FEW027 SCT041 15/09 Q1005=
201109090950 METAR ESMX 090950Z 28010KT 240V330 9999 FEW021 SCT040 15/09 Q1005=
201109090920 METAR ESMX 090920Z 28010KT 9999 SCT023 14/09 Q1004=
201109090850 METAR ESMX 090850Z 27010KT 230V310 9999 BKN018 14/10 Q1004=
201109090820 METAR ESMX 090820Z 29010KT 260V330 9999 BKN015 14/10 Q1004=
201109090750 METAR ESMX 090750Z 27008KT 9999 FEW008 SCT014 13/10 Q1004=
201109090720 METAR ESMX 090720Z 27007KT 9999 SCT006 BKN015 12/11 Q1003=
201109090650 METAR ESMX 090650Z 25007KT 210V290 9999 SCT006 BKN016 11/10 Q1003=
201109090620 METAR ESMX 090620Z 26008KT 230V290 9999 SCT005 BKN011 11/10 Q1003=
201109090550 METAR ESMX 090550Z 26008KT 230V290 9999 OVC003 10/10 Q1002=
201109090520 METAR ESMX 090520Z 26007KT 9000 BR OVC003 10/09 Q1002=
201109090450 METAR ESMX 090450Z 26006KT 220V280 6000 BR BKN002 OVC004 10/09 Q1002=
201109090420 METAR ESMX 090420Z 26006KT 230V290 4200 BR BKN002 OVC003 10/09 Q1002=
201109090350 METAR ESMX 090350Z 24005KT 2400 BR OVC002 10/09 Q1001=
201109090320 METAR ESMX 090320Z AUTO 26006KT 230V290 4600NDV BR OVC001/// 09/09 Q1001=
201109090250 METAR ESMX 090250Z AUTO 25006KT 9999NDV BKN002/// OVC004/// 09/08 Q1001=
201109090220 METAR ESMX 090220Z AUTO 26005KT 9999NDV FEW004/// SCT005/// BKN006/// 08/08 Q1001=
201109090150 METAR ESMX 090150Z AUTO 24004KT 200V270 9999NDV FEW005/// 08/08 Q1000=
201109090120 METAR ESMX 090120Z AUTO 25005KT 220V290 9999NDV NCD 08/07 Q1000=
201109090050 METAR ESMX 090050Z AUTO 26005KT 9999NDV NCD 08/07 Q1000=
201109090020 METAR ESMX 090020Z AUTO 24003KT 180V270 9999NDV NCD 09/08 Q1000=
201109082350 METAR ESMX 082350Z AUTO 26006KT 9999NDV NCD 09/08 Q1000=
201109082320 METAR ESMX 082320Z 25003KT CAVOK 08/07 Q1000=
201109082250 METAR ESMX 082250Z 26004KT CAVOK 08/08 Q1000=
201109082220 METAR ESMX 082220Z 26006KT CAVOK 08/08 Q0999=
201109082150 METAR ESMX 082150Z 26004KT CAVOK 08/08 Q0999=
201109082120 METAR ESMX 082120Z 25005KT CAVOK 08/07 Q0999=
201109082050 METAR ESMX 082050Z 25004KT CAVOK 08/07 Q0998=
201109082020 METAR ESMX 082020Z 27003KT CAVOK 08/07 Q0998=
201109081950 METAR ESMX 081950Z 25004KT CAVOK 08/07 Q0998=
201109081920 METAR ESMX 081920Z 26004KT CAVOK 09/08 Q0998=
201109081850 METAR ESMX 081850Z 25004KT 220V290 CAVOK 10/08 Q0998=
201109081820 METAR ESMX 081820Z 25004KT CAVOK 09/08 Q0997=
201109081750 METAR ESMX 081750Z VRB02KT CAVOK 10/08 Q0997=
201109081720 METAR ESMX 081720Z 31003KT 9999 FEW025 SCT065 11/08 Q0997=
201109081650 METAR ESMX 081650Z 28004KT 9999 FEW015 SCT054 12/09 Q0996=
201109081620 METAR ESMX 081620Z 28006KT 250V320 9999 FEW020 SCT070 12/09 Q0996=
201109081550 METAR ESMX 081550Z 27005KT 240V300 9999 FEW020 SCT070 13/09 Q0996=
201109081520 METAR ESMX 081520Z 26006KT 230V300 9999 VCSH FEW020CB SCT070 13/09 Q0996=
201109081450 METAR ESMX 081450Z 28005KT 240V300 9999 VCSH FEW020CB SCT058 13/09 Q0996=
201109081420 METAR ESMX 081420Z VRB02KT 9999 VCSH FEW020CB SCT070 12/09 Q0996=
201109081350 METAR ESMX 081350Z 32005KT 290V010 9999 VCSH FEW023CB SCT042 BKN060 12/09 Q0996=
201109081320 METAR ESMX 081320Z 23009KT 200V270 9999 VCSH SCT023CB BKN040 16/10 Q0995=
201109081250 METAR ESMX 081250Z 31004KT 260V340 9999 VCSH FEW023CB SCT047 BKN063 14/08 Q0996=
201109081220 METAR ESMX 081220Z 23009KT 190V280 9999 VCSH FEW018 SCT025CB BKN070 14/11 Q0996=
201109081150 METAR ESMX 081150Z 22007KT 9999 FEW024 BKN069 14/09 Q0996=
201109081120 METAR ESMX 081120Z 20004KT 160V260 9999 SCT020 15/10 Q0996=
201109081050 METAR ESMX 081050Z 19004KT 9999 SCT020 12/10 Q0996=
201109080950 METAR ESMX 080950Z 22004KT 190V260 9999 -SHRA FEW022 SCT062 12/10 Q0996=
201109080920 METAR ESMX 080920Z 25005KT 180V280 9999 FEW016 SCT041 BKN059 13/09 Q0996=
201109080850 METAR ESMX 080850Z 24007KT 200V280 9999 FEW010 SCT013 BKN021 13/10 Q0996=
201109080820 METAR ESMX 080820Z 23008KT 9999 FEW010 SCT013 OVC050 12/10 Q0997=
201109080750 METAR ESMX 080750Z 22007KT 180V250 9999 FEW011 SCT035 BKN039 12/10 Q0996=
201109080720 METAR ESMX 080720Z 22008KT 200V270 9999 FEW009 SCT012 BKN027 11/10 Q0996=
201109080650 METAR ESMX 080650Z 21006KT 9999 FEW008 OVC010 11/09 Q0996=
201109080620 METAR ESMX 080620Z 20007KT 9999 FEW008 OVC010 11/10 Q0996=
201109080550 METAR ESMX 080550Z 21008KT 9999 FEW007 BKN008 OVC010 11/09 Q0997 REDZ=
201109080520 METAR ESMX 080520Z 21007KT 170V250 9999 FEW005 SCT008 BKN010 11/09 Q0997=
201109080450 METAR ESMX 080450Z 20007KT 9999 FEW005 SCT006 BKN008 10/09 Q0997 REDZ=
201109080420 METAR ESMX 080420Z 18007KT 9999 -RA FEW004 SCT005 BKN007 10/10 Q0997=
201109080350 METAR ESMX 080350Z 20006KT 9999 FEW004 BKN006 OVC008 10/09 Q0997=
201109080320 METAR ESMX 080320Z 20006KT 9999 FEW004 BKN006 OVC009 10/09 Q0997=
201109080250 METAR ESMX 080250Z AUTO 19005KT 9999NDV FEW004/// SCT034/// 09/08 Q0997=
201109080220 METAR ESMX 080220Z AUTO 18006KT 9999NDV FEW015/// SCT022/// BKN039/// 09/08 Q0997=
201109080150 METAR ESMX 080150Z AUTO 18006KT 9999NDV FEW055/// 08/08 Q0997=
201109080120 METAR ESMX 080120Z AUTO 18006KT 9999NDV FEW055/// 09/08 Q0998=
201109080050 METAR ESMX 080050Z AUTO 20006KT 9999NDV FEW024/// SCT027/// 09/08 Q0998=
201109080020 METAR ESMX 080020Z AUTO 20007KT 9999NDV FEW021/// BKN059/// 10/08 Q0998=
201109072350 METAR ESMX 072350Z AUTO 22007KT 200V260 9999NDV FEW017/// SCT026/// OVC057/// 10/09 Q0998=
201109072320 METAR ESMX 072320Z 20006KT 9999 FEW022 BKN047 10/09 Q0998=
201109072250 METAR ESMX 072250Z 23007KT 9999 FEW011 SCT025 BKN049 10/08 Q0998 REDZ=
201109072220 METAR ESMX 072220Z 23006KT CAVOK 10/08 Q0998=
201109072150 METAR ESMX 072150Z 23006KT CAVOK 10/08 Q0998=
201109072120 METAR ESMX 072120Z 22007KT 9999 FEW025 10/08 Q0998=
201109072050 METAR ESMX 072050Z 22008KT 9999 FEW027 SCT048 11/08 Q0998=
201109072020 METAR ESMX 072020Z 23008KT 9999 FEW025 SCT040 BKN048 11/08 Q0998=
201109071950 METAR ESMX 071950Z 23010KT 180V250 9999 BKN049 11/08 Q0997=
201109071920 METAR ESMX 071920Z 24009KT 210V280 9999 FEW028 BKN044 12/08 Q0997=
201109071850 METAR ESMX 071850Z 23010KT 170V260 9999 FEW023 SCT027 BKN031 12/09 Q0997=
201109071820 METAR ESMX 071820Z 23010KT 200V270 9999 FEW027 BKN056 12/10 Q0997=
201109071750 METAR ESMX 071750Z 24012KT 200V280 9999 FEW018 SCT025 BKN049 12/10 Q0996=
201109071720 METAR ESMX 071720Z 23013KT 190V280 9999 SHRA SCT015 BKN020 OVC024 13/10 Q0996=
201109071650 METAR ESMX 071650Z 23013KT 190V260 9999 FEW013 SCT018 BKN021 13/11 Q0995=
201109071620 METAR ESMX 071620Z 24013KT 200V280 6000 DZ FEW010 SCT015 BKN017 13/11 Q0994 RERA=
201109071550 METAR ESMX 071550Z 23013KT 200V260 9999 -RA FEW015 SCT020 BKN024 14/11 Q0994=
201109071520 METAR ESMX 071520Z 22012KT 200V260 9999 FEW014 SCT019 BKN023 14/11 Q0993=
201109071450 METAR ESMX 071450Z 22012KT 9999 FEW016 BKN022 14/12 Q0993=
201109071420 METAR ESMX 071420Z 20017KT 9999 FEW015 SCT036 15/12 Q0993 RESHRA=
201109071350 METAR ESMX 071350Z 21015KT 6000 -RA FEW013 SCT024 BKN030 14/12 Q0993=
201109071320 METAR ESMX 071320Z 22013KT 9999 FEW018 SCT027 BKN041 15/11 Q0993=
201109071250 METAR ESMX 071250Z 20013KT 9000 -RA FEW020 SCT024 BKN037 14/12 Q0993 RERA=
201109071220 METAR ESMX 071220Z 19012KT 9999 -SHRA FEW020 SCT030 BKN061 15/11 Q0993=
201109071150 METAR ESMX 071150Z 20014KT 160V230 9999 FEW015 BKN050 15/11 Q0993=
201109071120 METAR ESMX 071120Z 21012KT 170V240 9999 FEW015 BKN025 14/11 Q0994=
201109071050 METAR ESMX 071050Z 20016KT 9999 FEW021 SCT031 BKN050 15/10 Q0994=
201109071020 METAR ESMX 071020Z 21012KT 170V240 9999 FEW019 SCT023 BKN028 14/10 Q0994=
201109070950 METAR ESMX 070950Z 20013KT 170V240 9999 FEW015 BKN020 14/11 Q0994=
201109070920 METAR ESMX 070920Z 21013KT 9999 SCT012 BKN020 13/10 Q0994=
201109070850 METAR ESMX 070850Z 20011KT 170V240 9999 SCT010 BKN020 13/11 Q0994=
201109070820 METAR ESMX 070820Z 21010KT 9999 FEW009 SCT012 BKN015 12/10 Q0994=
201109070750 METAR ESMX 070750Z 20011KT 9999 FEW007 SCT011 BKN014 12/10 Q0994=
201109070720 METAR ESMX 070720Z 21010KT 9999 FEW007 SCT010 BKN013 11/10 Q0994=
201109070650 METAR ESMX 070650Z 21011KT 190V250 9999 -DZ FEW009 SCT015 BKN054 11/10 Q0994=
201109070620 METAR ESMX 070620Z 20010KT 9999 DZ FEW009 BKN047 12/11 Q0994 RERA=
201109070550 METAR ESMX 070550Z 20014KT 9000 -RA FEW007 SCT010 BKN013 13/12 Q0994=
201109070520 METAR ESMX 070520Z 18012KT 140V210 9000 RA FEW007 SCT009 BKN011 13/12 Q0994=
201109070450 METAR ESMX 070450Z 17011KT 140V200 9999 -RA FEW007 SCT009 OVC011 13/12 Q0994=
201109070420 METAR ESMX 070420Z 18013KT 140V210 8000 RA FEW007 SCT009 BKN011 13/12 Q0995=
201109070350 METAR ESMX 070350Z 18011KT 6000 -RA FEW008 BKN010 13/12 Q0995=
201109070320 METAR ESMX 070320Z AUTO 17011KT 100V200 9999NDV -DZ FEW007/// SCT010/// OVC012/// 13/12 Q0996=
201109070250 METAR ESMX 070250Z AUTO 18011KT 140V210 9999NDV RA FEW006/// BKN007/// OVC011/// 13/12 Q0997=
201109070220 METAR ESMX 070220Z AUTO 18012KT 140V210 9999NDV -DZ BKN006/// OVC009/// 13/12 Q0997=
201109070150 METAR ESMX 070150Z AUTO 16011KT 140V200 9999NDV FEW006/// BKN008/// OVC011/// 13/12 Q0998 REDZ=
201109070120 METAR ESMX 070120Z AUTO 17011KT 140V200 7000NDV -RA FEW007/// SCT008/// OVC010/// 13/12 Q0999=
201109070050 METAR ESMX 070050Z AUTO 16010KT 120V220 9999NDV -RA OVC008/// 13/12 Q1000 REDZ=
201109070020 METAR ESMX 070020Z AUTO 17012KT 120V200 9999NDV DZ FEW008/// OVC010/// 13/12 Q1000=
201109062350 METAR ESMX 062350Z AUTO 18011KT 140V230 9999NDV DZ FEW009/// OVC011/// 13/12 Q1001=
201109062320 METAR ESMX 062320Z 17011KT 120V200 9999 -RA FEW011 SCT015 BKN017 13/12 Q1002=
201109062250 METAR ESMX 062250Z 17011KT 130V220 9999 -RA FEW012 SCT015 BKN018 13/11 Q1003=
201109062220 METAR ESMX 062220Z 17011KT 150V210 9999 FEW015 SCT018 BKN024 14/11 Q1003=
201109062150 METAR ESMX 062150Z 18013KT 9999 FEW016 SCT019 BKN022 14/11 Q1004=
201109062120 METAR ESMX 062120Z 19012KT 9999 FEW015 SCT017 BKN021 14/11 Q1004=
201109062050 METAR ESMX 062050Z 18013KT 150V210 9999 -DZ FEW024 SCT027 BKN055 15/11 Q1005=
201109062020 METAR ESMX 062020Z 18012KT 140V200 9999 FEW033 BKN074 BKN099 15/11 Q1005=
201109061950 METAR ESMX 061950Z 18013KT 140V210 9999 FEW035 BKN049 BKN079 15/11 Q1006=
201109061920 METAR ESMX 061920Z 18011KT 140V220 CAVOK 15/11 Q1007=
201109061850 METAR ESMX 061850Z 17010KT 140V200 9999 FEW018 SCT035 14/11 Q1007=
201109061820 METAR ESMX 061820Z 16009KT 130V200 CAVOK 15/11 Q1007=
201109061750 METAR ESMX 061750Z 15008KT 110V190 9999 FEW036 SCT069 15/11 Q1008=
201109061720 METAR ESMX 061720Z 17010KT 150V220 9999 FEW025 BKN060 15/11 Q1008=
201109061650 METAR ESMX 061650Z 16009KT 120V200 9999 FEW025 SCT036 BKN049 15/11 Q1009=
201109061620 METAR ESMX 061620Z 17010KT 140V210 9999 FEW022 SCT031 BKN045 15/11 Q1009=
201109061550 METAR ESMX 061550Z 16011KT 130V220 9999 FEW022 SCT027 BKN034 16/11 Q1009=
201109061520 METAR ESMX 061520Z 19010KT 160V220 9999 FEW030 BKN050 16/10 Q1010=
201109061450 METAR ESMX 061450Z 17009KT 140V200 9999 FEW029 OVC048 16/11 Q1010=
201109061420 METAR ESMX 061420Z 17010KT 9999 FEW028 SCT034 BKN046 16/11 Q1010=
201109061350 METAR ESMX 061350Z 17011KT 150V210 9999 BKN031 BKN048 17/10 Q1010=
201109061320 METAR ESMX 061320Z 18012KT 9999 FEW032 BKN059 17/09 Q1010=
201109061250 METAR ESMX 061250Z 19012KT 160V220 9999 SCT030 BKN056 17/10 Q1011=
201109061220 METAR ESMX 061220Z 18013KT 140V210 9999 SCT030 SCT050 17/10 Q1011=
201109061150 METAR ESMX 061150Z 19014KT 150V210 9999 FEW031 SCT041 BKN054 17/10 Q1011=
201109061120 METAR ESMX 061120Z 19011KT 160V220 9999 FEW031 BKN042 16/10 Q1011=
201109061050 METAR ESMX 061050Z 20013KT 140V230 9999 FEW025 SCT038 BKN048 17/10 Q1012=
201109061020 METAR ESMX 061020Z 20013KT 160V230 9999 FEW020TCU SCT050 16/10 Q1012=
201109060950 METAR ESMX 060950Z 20012KT 9999 FEW020TCU SCT035 16/11 Q1012=
201109060920 METAR ESMX 060920Z 21008KT 170V230 9999 FEW021 SCT025 BKN032 15/11 Q1012=
201109060850 METAR ESMX 060850Z 22010KT 170V250 9999 FEW016 SCT019 BKN021 14/11 Q1011=
201109060820 METAR ESMX 060820Z 20010KT 9999 FEW015 BKN019 OVC025 14/11 Q1011=
201109060750 METAR ESMX 060750Z 22012KT 200V260 9999 FEW013 SCT015 BKN018 13/11 Q1011=
201109060720 METAR ESMX 060720Z 21011KT 9999 FEW011 BKN014 13/11 Q1011=
201109060650 METAR ESMX 060650Z 20010KT 9999 FEW012 BKN016 13/11 Q1011=
201109060620 METAR ESMX 060620Z 21010KT 9999 SCT015 12/11 Q1011=
201109060550 METAR ESMX 060550Z 20011KT 9999 FEW008 SCT015 BKN025 12/11 Q1011=
201109060520 METAR ESMX 060520Z 21010KT 9999 FEW008 BKN012 12/11 Q1011=
201109060450 METAR ESMX 060450Z 19009KT 150V210 9999 FEW007 SCT013 12/11 Q1010=
201109060420 METAR ESMX 060420Z 20009KT 9999 FEW006 SCT007 BKN008 12/11 Q1011=
201109060350 METAR COR ESMX 060350Z 19009KT 9999 FEW006 BKN008 11/11 Q1010=
201109060320 METAR ESMX 060320Z AUTO 19008KT 9999NDV FEW009/// 11/10 Q1010=
201109060250 METAR ESMX 060250Z AUTO 20008KT 9999NDV FEW010/// 12/11 Q1010=
201109060220 METAR ESMX 060220Z AUTO 20007KT 9999NDV FEW024/// 12/11 Q1010=
201109060150 METAR ESMX 060150Z AUTO 21007KT 9999NDV NCD 13/11 Q1010=
201109060120 METAR ESMX 060120Z AUTO 23005KT 9999NDV NCD 13/11 Q1010=
201109060050 METAR ESMX 060050Z AUTO 23007KT 210V270 9999NDV NCD 13/12 Q1010=
201109060020 METAR ESMX 060020Z AUTO 23008KT 200V260 9999NDV FEW029/// 13/12 Q1010=
201109052350 METAR ESMX 052350Z 21006KT 9999 FEW006 SCT013 13/13 Q1010=
201109052320 METAR ESMX 052320Z 22006KT 9999 FEW009 SCT011 BKN014 13/12 Q1010=
201109052250 METAR ESMX 052250Z 22004KT 9999 FEW011 SCT013 BKN017 13/12 Q1010=
201109052220 METAR ESMX 052220Z 23005KT 200V270 9999 FEW012 BKN058 13/13 Q1009=
201109052120 METAR ESMX 052120Z 26007KT 9999 FEW007 BKN041 BKN061 14/12 Q1009=
201109052050 METAR ESMX 052050Z 27011KT 3500 -RA FEW002 SCT009 BKN015 14/13 Q1009 REDZ=
201109052020 METAR ESMX 052020Z 23005KT 2600 DZ FEW003 SCT006 BKN011 15/15 Q1008=
201109051950 METAR ESMX 051950Z 20004KT 6000 BR FEW020 15/14 Q1008=
201109051920 METAR ESMX 051920Z 23004KT 6000 BR FEW004 SCT018 15/14 Q1008=
201109051850 METAR ESMX 051850Z 22004KT 200V270 7000 -DZ FEW003 SCT007 15/15 Q1008=
201109051820 METAR ESMX 051820Z 23005KT 6000 -RA SCT001 BKN004 OVC006 15/15 Q1008=
201109051750 METAR ESMX 051750Z 20005KT 2700 -RA OVC002 15/15 Q1008=
201109051720 METAR ESMX 051720Z 19005KT 2200 -RA OVC002 15/15 Q1008=
201109051650 METAR ESMX 051650Z 19005KT 3900 -DZ BR OVC004 15/15 Q1008=
201109051620 METAR ESMX 051620Z 16004KT 120V200 5000 -DZ OVC004 15/15 Q1008=
201109051550 METAR ESMX 051550Z 17005KT 140V200 6000 -DZ OVC004 15/14 Q1008=
201109051520 METAR ESMX 051520Z 17005KT 6000 -RA FEW005 OVC007 16/14 Q1008=
201109051450 METAR ESMX 051450Z 15003KT 110V200 8000 -DZ FEW007 BKN008 OVC010 16/14 Q1008=
201109051420 METAR ESMX 051420Z 16004KT 110V200 7000 -DZ FEW007 OVC012 16/15 Q1008=
201109051350 METAR ESMX 051350Z 15004KT 110V200 7000 -RA SCT006 OVC015 16/15 Q1008=
201109051320 METAR ESMX 051320Z 15004KT 100V210 4500 RA FEW005 BKN009 16/15 Q1008=
201109051250 METAR ESMX 051250Z 16004KT 110V200 5000 DZ FEW004 BKN006 16/15 Q1008=
201109051220 METAR ESMX 051220Z 14003KT 090V190 8000 -RA FEW006 SCT017 BKN031 16/14 Q1008=
201109051150 METAR ESMX 051150Z 16005KT 120V210 9000 -RA SCT012 BKN032 16/14 Q1008=
201109051050 METAR ESMX 051050Z 16007KT 110V200 9000 -RA FEW011 SCT014 BKN017 17/14 Q1008=
201109051020 METAR ESMX 051020Z 13006KT 070V170 9999 -DZ FEW014 BKN070 17/14 Q1008=
201109050950 METAR ESMX 050950Z 14006KT 110V180 9999 -DZ FEW019 18/14 Q1008=
201109050920 METAR ESMX 050920Z 15007KT 090V190 CAVOK 18/13 Q1008=
201109050850 METAR ESMX 050850Z VRB06KT CAVOK 18/13 Q1009=
201109050820 METAR ESMX 050820Z 13006KT 070V170 CAVOK 18/13 Q1009=
201109050750 METAR ESMX 050750Z 14007KT 070V190 CAVOK 18/12 Q1009=
201109050720 METAR ESMX 050720Z 14006KT 090V210 CAVOK 18/13 Q1009=
201109050650 METAR ESMX 050650Z 13005KT 070V190 CAVOK 17/12 Q1009=
201109050620 METAR ESMX 050620Z 14005KT 080V190 CAVOK 16/12 Q1010=
201109050550 METAR ESMX 050550Z 13005KT 080V190 CAVOK 16/12 Q1010=
201109050520 METAR ESMX 050520Z 13005KT 070V200 CAVOK 16/12 Q1010=
201109050450 METAR ESMX 050450Z 12004KT 060V160 CAVOK 16/12 Q1010=
201109050420 METAR ESMX 050420Z 12005KT 070V160 CAVOK 16/12 Q1010=
201109050350 METAR ESMX 050350Z 13006KT 080V170 CAVOK 16/12 Q1010=
201109050320 METAR ESMX 050320Z AUTO 13006KT 100V180 9999NDV NCD 16/12 Q1010=
201109050250 METAR ESMX 050250Z AUTO 13006KT 060V170 9999NDV NCD 17/12 Q1010=
201109050220 METAR ESMX 050220Z AUTO 14006KT 100V190 9999NDV NCD 17/12 Q1011=
201109050150 METAR ESMX 050150Z AUTO 13006KT 090V170 9999NDV NCD 17/12 Q1011=
201109050120 METAR ESMX 050120Z AUTO 14006KT 100V190 9999NDV NCD 17/12 Q1011=
201109050050 METAR ESMX 050050Z AUTO 13005KT 080V160 9999NDV NCD 17/12 Q1012=
201109050020 METAR ESMX 050020Z AUTO 14005KT 080V170 9999NDV NCD 17/12 Q1012=
201109042350 METAR ESMX 042350Z AUTO 14006KT 090V200 9999NDV FEW110/// 18/12 Q1012=
201109042320 METAR ESMX 042320Z AUTO 14006KT 080V170 9999NDV NCD 17/12 Q1012=
201109042250 METAR ESMX 042250Z AUTO 14005KT 080V170 9999NDV NCD 17/13 Q1012=
201109042220 METAR ESMX 042220Z 14006KT 090V180 CAVOK 17/12 Q1012=
201109042150 METAR ESMX 042150Z 14005KT 080V170 CAVOK 17/12 Q1013=
201109042120 METAR ESMX 042120Z 14005KT 100V210 CAVOK 17/12 Q1013=
201109042050 METAR COR ESMX 042050Z 13005KT 040V200 CAVOK 17/12 Q1013=
201109042020 METAR ESMX 042020Z 15005KT 060V190 CAVOK 17/12 Q1013=
201109041950 METAR ESMX 041950Z 15005KT 110V210 CAVOK 17/13 Q1013 REDZ=
201109041920 METAR ESMX 041920Z 15007KT 110V190 CAVOK 18/12 Q1013=
201109041850 METAR ESMX 041850Z 14007KT 100V210 CAVOK 18/12 Q1013=
201109041820 METAR ESMX 041820Z 15006KT 080V200 CAVOK 19/13 Q1013=
201109041750 METAR ESMX 041750Z 14006KT 090V170 CAVOK 20/13 Q1013=
201109041720 METAR ESMX 041720Z 15006KT 110V190 CAVOK 20/12 Q1013=
201109041650 METAR ESMX 041650Z 15007KT 110V190 CAVOK 21/12 Q1013=
201109041620 METAR ESMX 041620Z 16007KT 130V200 CAVOK 22/12 Q1013=
201109041550 METAR ESMX 041550Z 16008KT 110V200 CAVOK 22/12 Q1013=
201109041520 METAR ESMX 041520Z 14007KT 070V190 CAVOK 23/12 Q1013=
201109041450 METAR ESMX 041450Z 16008KT 120V200 CAVOK 23/12 Q1013=
201109041420 METAR ESMX 041420Z 17008KT 120V230 CAVOK 23/13 Q1014=
201109041350 METAR ESMX 041350Z AUTO 15009KT 110V200 9999NDV NCD 24/13 Q1014=
201109041250 METAR ESMX 041250Z 15009KT 110V210 CAVOK 24/13 Q1014=
201109041220 METAR ESMX 041220Z 15010KT 100V190 9999 FEW043 24/13 Q1014=
201109041150 METAR ESMX 041150Z 16010KT CAVOK 24/14 Q1015=
201109041120 METAR ESMX 041120Z 17009KT 120V200 CAVOK 23/14 Q1015=
201109041050 METAR ESMX 041050Z 16009KT 120V210 CAVOK 23/14 Q1015=
201109041020 METAR ESMX 041020Z 14009KT 090V180 CAVOK 23/14 Q1015=
201109040950 METAR ESMX 040950Z 16007KT 080V200 CAVOK 22/14 Q1015=
201109040920 METAR ESMX 040920Z 16006KT 120V210 CAVOK 21/14 Q1015=
201109040850 METAR ESMX 040850Z 14005KT 100V190 CAVOK 20/14 Q1015=
201109040820 METAR ESMX 040820Z AUTO 14006KT 070V170 9999NDV NCD 19/13 Q1015=
201109040750 METAR ESMX 040750Z AUTO 12005KT 070V170 9999NDV NCD 18/13 Q1015=
201109040720 METAR ESMX 040720Z AUTO 15005KT 100V190 9999NDV FEW037/// 17/13 Q1015=
201109040650 METAR ESMX 040650Z AUTO 15005KT 090V200 9999NDV NCD 16/13 Q1015=
201109040620 METAR ESMX 040620Z AUTO 15005KT 090V190 9999NDV NCD 15/12 Q1015=
201109040550 METAR ESMX 040550Z AUTO 15005KT 100V190 9999NDV NCD 14/12 Q1015=
201109040520 METAR ESMX 040520Z AUTO 14004KT 100V170 9999NDV NCD 13/12 Q1015=
201109040450 METAR ESMX 040450Z AUTO 14005KT 100V180 9999NDV NCD 13/12 Q1015=
201109040420 METAR ESMX 040420Z AUTO 15004KT 090V190 9999NDV NCD 13/11 Q1015=
201109040350 METAR ESMX 040350Z AUTO 14004KT 090V180 9999NDV NCD 13/11 Q1015=
201109040320 METAR ESMX 040320Z AUTO 14005KT 110V190 9999NDV NCD 13/11 Q1015=
201109040250 METAR ESMX 040250Z AUTO 14005KT 110V170 9999NDV NCD 13/11 Q1015=
201109040220 METAR ESMX 040220Z AUTO 15004KT 110V190 9999NDV NCD 13/11 Q1016=
201109040150 METAR ESMX 040150Z AUTO 14004KT 110V180 9999NDV NCD 13/11 Q1016=
201109040120 METAR ESMX 040120Z AUTO VRB02KT 9999NDV FEW034/// 13/11 Q1016=
201109040050 METAR ESMX 040050Z AUTO 13004KT 080V200 9999NDV FEW041/// 13/11 Q1016=
201109040020 METAR ESMX 040020Z AUTO 14003KT 100V190 9999NDV FEW034/// 13/11 Q1016=
201109032350 METAR ESMX 032350Z AUTO 14004KT 110V170 9999NDV BKN032/// 14/12 Q1016=
201109032320 METAR ESMX 032320Z AUTO 14004KT 110V190 9999NDV BKN033/// BKN051/// 14/11 Q1016=
201109032250 METAR ESMX 032250Z AUTO 16004KT 110V190 9999NDV BKN036/// BKN047/// 14/11 Q1016=
201109032220 METAR ESMX 032220Z AUTO 15004KT 090V190 9999NDV BKN041/// 14/11 Q1016=
201109032150 METAR ESMX 032150Z AUTO 15003KT 110V200 9999NDV SCT043/// BKN071/// 13/11 Q1016=
201109032120 METAR ESMX 032120Z AUTO 14005KT 100V170 9999NDV SCT042/// BKN071/// 13/11 Q1016=
201109032050 METAR ESMX 032050Z AUTO 14004KT 110V200 9999NDV SCT042/// BKN072/// 14/11 Q1016=
201109032020 METAR ESMX 032020Z AUTO 15004KT 110V190 9999NDV NCD 14/11 Q1016=
201109031950 METAR ESMX 031950Z AUTO 15004KT 9999NDV NCD 14/11 Q1016=
201109031920 METAR ESMX 031920Z AUTO 16004KT 9999NDV NCD 14/11 Q1016=
201109031850 METAR ESMX 031850Z AUTO 14003KT 9999NDV NCD 13/11 Q1016=
201109031820 METAR ESMX 031820Z AUTO VRB02KT 9999NDV NCD 13/11 Q1016=
201109031750 METAR ESMX 031750Z AUTO VRB02KT 9999NDV NCD 14/11 Q1015=
201109031720 METAR ESMX 031720Z AUTO 16003KT 9999NDV NCD 15/11 Q1015=
201109031650 METAR ESMX 031650Z AUTO 17004KT 140V200 9999NDV SCT073/// 16/10 Q1015=
201109031620 METAR ESMX 031620Z AUTO 15005KT 120V200 9999NDV OVC070/// 16/10 Q1015=
201109031550 METAR ESMX 031550Z AUTO 18006KT 9999NDV SCT057/// 16/10 Q1015=
201109031520 METAR ESMX 031520Z AUTO 17006KT 140V200 9999NDV BKN059/// 17/10 Q1016=
201109031450 METAR ESMX 031450Z AUTO 15006KT 100V200 9999NDV FEW100/// 18/10 Q1016=
201109031420 METAR ESMX 031420Z AUTO 17006KT 110V200 9999NDV BKN099/// 17/10 Q1016=
201109031350 METAR ESMX 031350Z AUTO 20007KT 160V230 9999NDV BKN100/// 18/10 Q1016=
201109031320 METAR ESMX 031320Z AUTO 17007KT 130V210 9999NDV FEW100/// BKN110/// 18/10 Q1016=
201109031250 METAR ESMX 031250Z AUTO 12004KT 080V170 9999NDV FEW032/// 17/09 Q1016=
201109031220 METAR ESMX 031220Z AUTO 17005KT 110V250 9999NDV SCT071/// 17/09 Q1016=
201109031150 METAR ESMX 031150Z 16005KT 110V230 9999 FEW025 SCT100 16/09 Q1016=
201109031120 METAR ESMX 031120Z VRB03KT 9999 FEW022 SCT110 17/10 Q1016=
201109031050 METAR ESMX 031050Z 14004KT 090V250 9999 FEW024 SCT110 16/08 Q1016=
201109031020 METAR ESMX 031020Z VRB03KT 9999 FEW021 SCT110 16/09 Q1016=
201109030950 METAR ESMX 030950Z 16003KT 110V220 9999 FEW018 SCT110 15/09 Q1016=
201109030920 METAR ESMX 030920Z 10003KT 040V190 9999 FEW016 BKN110 15/10 Q1016=
201109030850 METAR COR ESMX 030850Z VRB02KT 9999 FEW015 BKN110 14/10 Q1016=
201109030820 METAR ESMX 030820Z VRB01KT CAVOK 14/10 Q1016=
201109030750 METAR ESMX 030750Z VRB01KT CAVOK 13/10 Q1016=
201109030720 METAR ESMX 030720Z VRB02KT CAVOK 11/10 Q1016=
201109030650 METAR ESMX 030650Z 23003KT CAVOK 10/09 Q1016=
201109030620 METAR ESMX 030620Z AUTO VRB02KT 9999NDV FEW070/// BKN100/// 10/09 Q1016=
201109030550 METAR ESMX 030550Z AUTO 21002KT 9999NDV BKN069/// 08/07 Q1016=
201109030520 METAR ESMX 030520Z AUTO 14002KT 9999NDV SCT081/// 07/07 Q1015=
201109030450 METAR ESMX 030450Z AUTO 19001KT 9999NDV SCT081/// BKN110/// 07/07 Q1015=
201109030420 METAR ESMX 030420Z AUTO 19001KT 9999NDV BKN081/// 07/07 Q1015=
201109030350 METAR ESMX 030350Z AUTO 18002KT 9999NDV FEW082/// BKN094/// 06/06 Q1015=
201109030320 METAR ESMX 030320Z AUTO VRB01KT 9999NDV FEW100/// 06/05 Q1015=
201109030250 METAR ESMX 030250Z AUTO 17001KT 9999NDV FEW100/// 05/05 Q1015=
201109030220 METAR ESMX 030220Z AUTO 00000KT 9999NDV NCD 06/05 Q1015=
201109030150 METAR ESMX 030150Z AUTO VRB01KT 9999NDV NCD 06/05 Q1015=
201109030120 METAR ESMX 030120Z AUTO 00000KT 4100NDV BR NCD 05/04 Q1015=
201109030050 METAR ESMX 030050Z AUTO 17002KT 6000NDV BR NCD 06/06 Q1015=
201109030020 METAR ESMX 030020Z AUTO 18001KT 9999NDV NCD 06/05 Q1015=
201109022350 METAR ESMX 022350Z AUTO 26001KT 9999NDV NCD 07/06 Q1015=
201109022320 METAR ESMX 022320Z AUTO 25003KT 9999NDV NCD 07/06 Q1015=
201109022250 METAR ESMX 022250Z AUTO 23002KT 9999NDV NCD 08/07 Q1015=
201109022220 METAR ESMX 022220Z AUTO 26001KT 9999NDV NCD 08/07 Q1015=
201109022150 METAR ESMX 022150Z AUTO 25001KT 9999NDV NCD 09/08 Q1015=
201109022120 METAR ESMX 022120Z AUTO 25003KT 9999NDV NCD 09/08 Q1014=
201109022050 METAR ESMX 022050Z AUTO 25002KT 9999NDV NCD 09/08 Q1015=
201109022020 METAR ESMX 022020Z AUTO 25003KT 9999NDV NCD 11/08 Q1014=
201109021950 METAR ESMX 021950Z AUTO 25004KT 9999NDV NCD 11/08 Q1014=
201109021920 METAR ESMX 021920Z AUTO 27003KT 9999NDV SCT052/// 12/09 Q1014=
201109021850 METAR ESMX 021850Z 27004KT 9999 FEW025 SCT060 13/09 Q1014=
201109021820 METAR ESMX 021820Z 26005KT 230V290 9999 FEW025 SCT060 13/10 Q1014=
201109021750 METAR ESMX 021750Z 25003KT 210V280 9999 NSC 14/10 Q1013=
201109021720 METAR ESMX 021720Z 27004KT 9999 FEW025TCU SCT060 15/11 Q1013=
201109021650 METAR ESMX 021650Z 28004KT 9999 FEW030CB SCT100 15/11 Q1013=
201109021620 METAR ESMX 021620Z 28005KT 250V310 9999 FEW030TCU SCT100 17/11 Q1013=
201109021550 METAR ESMX 021550Z 30006KT 270V340 9999 FEW087 17/11 Q1013=
201109021520 METAR ESMX 021520Z 25007KT 200V290 9999 SCT030TCU 17/11 Q1013=
201109021450 METAR ESMX 021450Z 24005KT 9999 FEW030CB SCT040 BKN060 17/10 Q1013=
201109021420 METAR ESMX 021420Z 24005KT 190V270 9999 SCT030 BKN037 OVC076 19/11 Q1013=
201109021350 METAR ESMX 021350Z VRB01KT 9999 FEW025CB SCT030 17/11 Q1013=
201109021320 METAR ESMX 021320Z VRB02KT 9999 SCT030TCU 17/10 Q1013=
201109021250 METAR ESMX 021250Z 28004KT 9999 SCT030TCU 17/11 Q1013=
201109021220 METAR ESMX 021220Z 28004KT 240V320 9999 SCT025TCU SCT080 17/10 Q1013=
201109021150 METAR ESMX 021150Z 29005KT 250V350 9999 FEW024 SCT043 BKN073 18/12 Q1013=
201109021120 METAR ESMX 021120Z 32004KT 280V020 9999 FEW033 SCT045 18/11 Q1013=
201109021050 METAR ESMX 021050Z 34006KT 310V030 9999 FEW019 SCT031 BKN042 16/11 Q1013=
201109021020 METAR ESMX 021020Z VRB01KT 9999 SCT025 FEW030TCU 17/10 Q1013=
201109020950 METAR ESMX 020950Z 32004KT 260V030 9999 SCT020 16/11 Q1013=
201109020920 METAR ESMX 020920Z 27004KT 210V300 9999 SCT020 16/12 Q1013=
201109020850 METAR ESMX 020850Z 27003KT 220V330 9999 FEW015 16/12 Q1013=
201109020820 METAR ESMX 020820Z VRB02KT 9999 FEW005 15/13 Q1013=
201109020750 METAR ESMX 020750Z VRB02KT 9999 SCT002 13/13 Q1013=
201109020720 METAR ESMX 020720Z VRB01KT 9999 BKN002 12/11 Q1013=
201109020650 METAR ESMX 020650Z 31002KT 9999 SCT002 BKN003 11/11 Q1013=
201109020620 METAR ESMX 020620Z 27003KT 3500 BR BKN002 11/10 Q1013=
201109020550 METAR ESMX 020550Z 25002KT 2200 BR OVC002 10/10 Q1013=
201109020520 METAR ESMX 020520Z VRB01KT 0600 R01/0800 R19/0800V1200U FG VV002 10/09 Q1013=
201109020450 METAR ESMX 020450Z VRB01KT 0300 ///// R19/0700N VV001 09/09 Q1013=
201109020420 METAR ESMX 020420Z 22001KT 0150 R01/0450N R19/0500N FG VV001 09/09 Q1013=
201109020350 METAR ESMX 020350Z 00000KT 0200 R01/0600 R19/0800 FG VV001 09/09 Q1013=
201109020320 METAR ESMX 020320Z AUTO 21002KT 0150NDV ///// R19/0650N VV001 09/09 Q1013=
201109020250 METAR ESMX 020250Z AUTO VRB01KT 0250NDV ///// R19/1000N VV001 09/09 Q1013=
201109020220 METAR ESMX 020220Z AUTO VRB02KT 0150NDV ///// R19/0600 VV001 10/09 Q1013=
201109020150 METAR ESMX 020150Z AUTO 26003KT 0250NDV ///// R19/0900D VV001 10/09 Q1013=
201109020120 METAR ESMX 020120Z AUTO 21002KT 1100NDV ///// R19/P2000N BKN001/// 10/09 Q1012=
201109020050 METAR ESMX 020050Z AUTO 24002KT 0700NDV ///// R19/P2000N NCD 09/09 Q1012=
201109020020 METAR ESMX 020020Z AUTO 26002KT 9999NDV NCD 09/09 Q1012=
201109012350 METAR ESMX 012350Z 24002KT CAVOK 10/09 Q1012=
201109012320 METAR ESMX 012320Z 21003KT CAVOK 10/09 Q1012=
201109012250 METAR ESMX 012250Z 21003KT CAVOK 10/09 Q1012=
201109012220 METAR ESMX 012220Z 25004KT CAVOK 09/08 Q1012=
201109012150 METAR ESMX 012150Z 18002KT CAVOK 09/08 Q1012=
201109012120 METAR ESMX 012120Z 17002KT CAVOK 11/10 Q1012=
201109012050 METAR ESMX 012050Z VRB01KT CAVOK 11/10 Q1012=
201109012020 METAR ESMX 012020Z VRB02KT CAVOK 11/10 Q1012=
201109011950 METAR ESMX 011950Z VRB02KT CAVOK 12/10 Q1012=
201109011920 METAR ESMX 011920Z 30005KT CAVOK 13/10 Q1012=
201109011850 METAR ESMX 011850Z 25005KT 9999 FEW030CB SCT069 14/11 Q1012=
201109011820 METAR ESMX 011820Z 25004KT 9999 FEW029CB SCT035 14/11 Q1012=
201109011750 METAR ESMX 011750Z 27004KT 9999 FEW030CB SCT095 15/11 Q1012=
201109011720 METAR ESMX 011720Z 26006KT 9999 FEW030CB 16/10 Q1011=
201109011650 METAR ESMX 011650Z 25006KT 190V290 9999 FEW030 BKN100 17/10 Q1011=
201109011620 METAR ESMX 011620Z 26008KT 230V300 9999 SCT031 BKN100 17/10 Q1011=
201109011550 METAR ESMX 011550Z 24008KT 9999 FEW033 SCT048 BKN060 18/11 Q1011=
201109011520 METAR ESMX 011520Z 25008KT 220V280 9999 FEW036 SCT041 19/10 Q1011=
201109011450 METAR ESMX 011450Z 26005KT 230V290 9999 FEW035 SCT060 19/09 Q1011=
201109011420 METAR ESMX 011420Z 27004KT 240V330 9999 SCT040 19/09 Q1011=
201109011350 METAR ESMX 011350Z 23005KT 180V300 9999 SCT040 19/09 Q1011=
201109011320 METAR ESMX 011320Z 25004KT 210V290 9999 SCT035 18/10 Q1011=
201109011220 METAR ESMX 011220Z 29007KT 250V330 9999 FEW031 SCT035 BKN071 17/09 Q1011=
