##########################################################
# Query made at 04/19/2024 21:25:01 UTC
# Time interval: from 11/01/2011 12:00  to 11/30/2011 12:59  UTC
##########################################################

##########################################################
# ESMX, Vaxjo (Sweden)
# WMO index: 02641. WIGOS ID: 0-20000-0-02648
# Latitude 56-51N. Longitude 014-50E. Altitude 199 m.
##########################################################

201111301250 METAR ESMX 301250Z 25010KT 200V290 9999 FEW014 SCT027 BKN034 07/03 Q1013 REDZ=
201111301220 METAR ESMX 301220Z 24010KT 210V290 9999 DZ FEW014 SCT030 BKN037 07/03 Q1012=
201111301150 METAR ESMX 301150Z 24013KT 9999 FEW028 BKN034 07/02 Q1012=
201111301120 METAR ESMX 301120Z 24011G21KT 210V270 9999 SCT025 07/02 Q1012=
201111301050 METAR ESMX 301050Z 25011KT 210V280 9999 SCT025 07/03 Q1012=
201111301020 METAR ESMX 301020Z 24012KT 170V260 9999 FEW021 SCT026 07/03 Q1011=
201111300950 METAR ESMX 300950Z 25011KT 210V270 9999 FEW021 SCT024 07/03 Q1011=
201111300920 METAR ESMX 300920Z 23010KT 190V270 9999 FEW022 SCT026 07/03 Q1010=
201111300850 METAR ESMX 300850Z 25011KT 220V280 9999 FEW023 SCT026 07/03 Q1009=
201111300820 METAR ESMX 300820Z 26014G25KT 230V290 9999 FEW022 BKN026 07/03 Q1009=
201111300750 METAR ESMX 300750Z 25011KT 210V300 9999 FEW021 SCT027 07/03 Q1008=
201111300720 METAR ESMX 300720Z 26014G24KT 220V290 9999 FEW022 SCT028 07/03 Q1008=
201111300650 METAR ESMX 300650Z 25013G23KT 210V270 9999 FEW016 SCT024 07/04 Q1007=
201111300620 METAR ESMX 300620Z 25012G23KT 9999 FEW008 SCT013 BKN018 07/05 Q1007=
201111300550 METAR ESMX 300550Z 22013KT 6000 BR SCT004 BKN006 OVC011 06/05 Q1006=
201111300520 METAR ESMX 300520Z 22012KT 190V260 6000 DZ OVC005 06/05 Q1005=
201111300450 METAR ESMX 300450Z 21011KT 7000 -DZ FEW005 OVC007 05/05 Q1005=
201111300420 METAR ESMX 300420Z AUTO 21012KT 3500NDV BR OVC004/// 05/04 Q1005=
201111300350 METAR ESMX 300350Z AUTO 20013KT 160V230 2400NDV BR OVC005/// 05/04 Q1005 REDZ=
201111300320 METAR ESMX 300320Z AUTO 20016KT 2500NDV DZ OVC005/// 05/04 Q1004=
201111300250 METAR ESMX 300250Z AUTO 19015KT 8000NDV BR OVC006/// 05/04 Q1004=
201111300220 METAR ESMX 300220Z AUTO 19014KT 7000NDV BR OVC005/// 05/04 Q1004=
201111300150 METAR ESMX 300150Z AUTO 19013KT 6000NDV BR FEW003/// OVC005/// 05/04 Q1005=
201111300120 METAR ESMX 300120Z AUTO 18012KT 150V210 5000NDV BR OVC003/// 05/04 Q1005=
201111300050 METAR ESMX 300050Z 18013KT 4100 -DZ OVC003 05/04 Q1005=
201111300020 METAR ESMX 300020Z 18012KT 2400 DZ OVC002 04/04 Q1006=
201111292350 METAR ESMX 292350Z 18010KT 150V210 2100 DZ OVC002 04/04 Q1006=
201111292320 METAR ESMX 292320Z 19011KT 150V210 2300 DZ OVC002 04/04 Q1006=
201111292250 METAR ESMX 292250Z 19012KT 2800 DZ OVC002 05/04 Q1007=
201111292220 METAR ESMX 292220Z 18012KT 4900 BR OVC002 05/04 Q1007=
201111292150 METAR ESMX 292150Z 18009KT 2600 DZ OVC002 05/04 Q1007=
201111292120 METAR ESMX 292120Z 17009KT 2300 DZ OVC002 05/04 Q1008=
201111292050 METAR ESMX 292050Z 17009KT 140V210 1800 DZ OVC002 05/04 Q1008=
201111292020 METAR ESMX 292020Z 17008KT 140V200 2000 DZ OVC001 05/04 Q1009=
201111291950 METAR ESMX 291950Z 18009KT 140V210 1600 DZ OVC001 05/04 Q1009=
201111291920 METAR ESMX 291920Z 17009KT 140V200 2000 DZ OVC002 05/04 Q1009=
201111291850 METAR ESMX 291850Z 17009KT 140V220 1700 DZ OVC002 05/04 Q1009=
201111291820 METAR ESMX 291820Z 18008KT 140V210 3000 BR OVC003 05/04 Q1010=
201111291750 METAR ESMX 291750Z 18008KT 150V210 8000 BR OVC004 05/04 Q1010=
201111291720 METAR ESMX 291720Z 18008KT 140V210 8000 BR OVC006 05/04 Q1010=
201111291650 METAR ESMX 291650Z 18007KT 150V210 9999 OVC006 05/04 Q1010=
201111291620 METAR ESMX 291620Z 17008KT 9999 OVC006 05/04 Q1011=
201111291550 METAR ESMX 291550Z 17008KT 150V210 9999 OVC008 05/04 Q1011=
201111291520 METAR ESMX 291520Z 18008KT 140V200 9999 OVC009 05/03 Q1011=
201111291450 METAR ESMX 291450Z 18008KT 9999 OVC010 05/03 Q1012=
201111291420 METAR ESMX 291420Z 18009KT 9999 OVC010 05/03 Q1012=
201111291350 METAR ESMX 291350Z 19009KT 150V210 9999 OVC009 05/03 Q1012=
201111291320 METAR ESMX 291320Z 19009KT 9999 OVC009 05/03 Q1012=
201111291250 METAR ESMX 291250Z 21010KT 9999 OVC009 05/03 Q1013=
201111291220 METAR ESMX 291220Z 21009KT 9999 OVC010 05/03 Q1013=
201111291150 METAR ESMX 291150Z 20010KT 9999 BKN010 OVC018 05/03 Q1013=
201111291120 METAR ESMX 291120Z 18010KT 9999 BKN008 OVC023 05/03 Q1013=
201111291050 METAR ESMX 291050Z 19011KT 9999 OVC009 04/02 Q1014=
201111291020 METAR ESMX 291020Z 20011KT 9999 BKN008 04/02 Q1014=
201111290950 METAR ESMX 290950Z 19012KT 9999 SCT008 04/02 Q1014=
201111290920 METAR ESMX 290920Z 19012KT 9999 FEW008 BKN010 OVC024 04/02 Q1014=
201111290850 METAR ESMX 290850Z 19008KT 160V230 9999 OVC009 04/02 Q1014=
201111290820 METAR ESMX 290820Z 21008KT 9999 BKN011 OVC018 04/02 Q1014=
201111290750 METAR ESMX 290750Z 21011KT 9999 BKN010 BKN017 04/02 Q1014=
201111290720 METAR ESMX 290720Z 20010KT 9999 OVC010 04/02 Q1015=
201111290650 METAR ESMX 290650Z 20010KT 9999 OVC010 04/02 Q1015=
201111290620 METAR ESMX 290620Z 23006KT 190V260 9999 BKN011 04/02 Q1015=
201111290550 METAR ESMX 290550Z 21008KT 170V240 9999 BKN011 04/02 Q1014=
201111290520 METAR ESMX 290520Z 21011KT 170V260 9999 OVC011 05/03 Q1014=
201111290450 METAR ESMX 290450Z 21012KT 9999 OVC012 05/03 Q1015=
201111290420 METAR ESMX 290420Z AUTO 22010KT 9999NDV BKN012/// BKN038/// 05/03 Q1015=
201111290350 METAR ESMX 290350Z AUTO 21009KT 9999NDV BKN011/// BKN039/// 05/03 Q1015=
201111290320 METAR ESMX 290320Z AUTO 22010KT 9999NDV FEW012/// SCT015/// BKN039/// 06/04 Q1015=
201111290250 METAR ESMX 290250Z AUTO 20010KT 9999NDV OVC037/// 06/04 Q1016=
201111290220 METAR ESMX 290220Z AUTO 21009KT 9999NDV FEW014/// SCT021/// OVC037/// 06/04 Q1016=
201111290150 METAR ESMX 290150Z AUTO 23009KT 9999NDV FEW013/// SCT017/// BKN020/// 06/04 Q1016=
201111290120 METAR ESMX 290120Z AUTO 21009KT 9999NDV FEW013/// SCT017/// BKN019/// 06/04 Q1016=
201111290050 METAR ESMX 290050Z AUTO 22010KT 9999NDV FEW014/// SCT022/// OVC043/// 06/04 Q1016=
201111290020 METAR ESMX 290020Z 22009KT 9999 SCT012 BKN018 OVC047 06/04 Q1016=
201111282350 METAR ESMX 282350Z 21010KT 9999 FEW011 BKN016 06/05 Q1017=
201111282320 METAR ESMX 282320Z 21008KT 180V240 9000 DZ FEW010 BKN012 06/04 Q1017=
201111282250 METAR ESMX 282250Z 20007KT 9999 -DZ OVC010 06/04 Q1017=
201111282220 METAR ESMX 282220Z 20008KT 9999 BKN012 OVC019 06/04 Q1017=
201111282150 METAR ESMX 282150Z 20009KT 9999 FEW009 SCT012 BKN028 06/05 Q1017=
201111282120 METAR ESMX 282120Z 21008KT 9999 BKN008 OVC010 06/05 Q1017=
201111282050 METAR ESMX 282050Z 19009KT 9999 FEW008 BKN009 OVC014 06/05 Q1017=
201111282020 METAR ESMX 282020Z 20008KT 9999 FEW010 BKN013 OVC017 06/05 Q1017=
201111281950 METAR ESMX 281950Z 19007KT 8000 -DZ FEW012 BKN015 OVC020 06/04 Q1017=
201111281920 METAR ESMX 281920Z 19007KT 9999 -DZ SCT012 BKN035 06/04 Q1017=
201111281850 METAR ESMX 281850Z 21008KT 9999 -DZ FEW020 BKN035 06/04 Q1017=
201111281820 METAR ESMX 281820Z 22008KT 9999 FEW016 BKN036 05/04 Q1017=
201111281750 METAR ESMX 281750Z 21006KT 9999 FEW015 SCT035 05/03 Q1017=
201111281720 METAR ESMX 281720Z 24008KT 200V260 9999 FEW013 BKN027 06/03 Q1017=
201111281650 METAR ESMX 281650Z 25008KT 9999 SCT017 BKN027 06/03 Q1017=
201111281620 METAR ESMX 281620Z 25006KT 200V290 9999 BKN018 06/03 Q1017=
201111281550 METAR ESMX 281550Z 25008KT 200V290 9999 SCT021 BKN036 06/03 Q1017=
201111281520 METAR ESMX 281520Z 25008KT 220V290 9999 FEW021 BKN035 07/03 Q1017=
201111281450 METAR ESMX 281450Z 26008KT 240V300 9999 SCT022 BKN033 07/03 Q1017=
201111281420 METAR ESMX 281420Z 26012KT 9999 SCT025 07/03 Q1016=
201111281350 METAR ESMX 281350Z 26013KT 9999 FEW020 07/02 Q1016=
201111281320 METAR ESMX 281320Z 27014KT 9999 SCT020 07/03 Q1016=
201111281250 METAR ESMX 281250Z 27012KT 230V290 9999 SCT020 07/03 Q1016=
201111281220 METAR COR ESMX 281220Z 27013KT 9999 SCT020 07/03 Q1016=
201111281150 METAR ESMX 281150Z 28015KT 240V310 9999 SCT020 07/03 Q1015=
201111281120 METAR ESMX 281120Z 28015G25KT 9999 SCT023 07/03 Q1015=
201111281050 METAR ESMX 281050Z 28014KT CAVOK 07/02 Q1015=
201111281020 METAR ESMX 281020Z 28013G26KT 240V320 CAVOK 06/02 Q1015=
201111280950 METAR ESMX 280950Z 26014KT 210V280 CAVOK 05/01 Q1015=
201111280920 METAR ESMX 280920Z 25009KT 210V280 CAVOK 05/01 Q1014=
201111280850 METAR ESMX 280850Z 27011KT 240V300 CAVOK 04/01 Q1014=
201111280820 METAR ESMX 280820Z 26007KT CAVOK 03/00 Q1014=
201111280750 METAR ESMX 280750Z 26007KT CAVOK 03/M00 Q1013=
201111280720 METAR ESMX 280720Z 26006KT 210V290 CAVOK 03/M00 Q1013=
201111280650 METAR ESMX 280650Z 26008KT CAVOK 03/M01 Q1012=
201111280620 METAR ESMX 280620Z 27008KT CAVOK 03/M01 Q1012=
201111280550 METAR ESMX 280550Z 27007KT CAVOK 02/M02 Q1011=
201111280520 METAR ESMX 280520Z 26006KT CAVOK 02/M03 Q1011=
201111280450 METAR ESMX 280450Z 26007KT 230V290 CAVOK 02/M03 Q1010=
201111280420 METAR ESMX 280420Z 27009G30KT CAVOK 03/M03 Q1010=
201111280350 METAR ESMX 280350Z AUTO 28010KT 250V320 9999NDV NCD 03/M03 Q1009=
201111280320 METAR ESMX 280320Z AUTO 28009KT 250V310 9999NDV NCD 02/M02 Q1008=
201111280250 METAR ESMX 280250Z AUTO 29009KT 9999NDV NCD 02/M03 Q1008=
201111280220 METAR ESMX 280220Z AUTO 29013KT 9999NDV NCD 02/M03 Q1007=
201111280150 METAR ESMX 280150Z AUTO 30012KT 9999NDV NCD 02/M03 Q1006=
201111280120 METAR ESMX 280120Z AUTO 30013G24KT 260V340 9999NDV NCD 02/M02 Q1005=
201111280050 METAR ESMX 280050Z AUTO 29014KT 250V320 9999NDV NCD 02/M01 Q1004=
201111280020 METAR ESMX 280020Z AUTO 30014KT 270V340 9999NDV NCD 02/M00 Q1002 REDZ=
201111272350 METAR ESMX 272350Z AUTO 31017G27KT 280V340 9999NDV FEW013/// SCT021/// BKN029/// 03/00 Q1001=
201111272320 METAR ESMX 272320Z AUTO 30019G31KT 270V330 9999NDV -DZ FEW016/// SCT020/// BKN024/// 03/01 Q0999=
201111272250 METAR ESMX 272250Z 30019G31KT 270V340 9999 DZ FEW012 SCT015 BKN021 03/01 Q0996=
201111272220 METAR ESMX 272220Z 30024G35KT 9999 DZ FEW011 BKN014 BKN021 03/01 Q0994=
201111272150 METAR ESMX 272150Z 29022G36KT 9999 DZ BKN013 04/02 Q0990=
201111272120 METAR ESMX 272120Z 28023G33KT 230V330 6000 -RA FEW015 BKN023 05/02 Q0988 REDZ=
201111272050 METAR ESMX 272050Z 27023G33KT 230V290 9999 -DZ BKN024 BKN036 06/02 Q0986 REDZ=
201111272020 METAR ESMX 272020Z 25023G39KT 200V280 8000 BR FEW026 BKN032 BKN041 07/02 Q0986=
201111271950 METAR ESMX 271950Z 26022G34KT 230V290 8000 BR FEW016 SCT030 BKN035 07/02 Q0985=
201111271920 METAR ESMX 271920Z 26020G42KT 240V300 6000 BR FEW014 SCT031 BKN037 07/03 Q0984=
201111271850 METAR ESMX 271850Z 26022G36KT 220V290 9000 BR FEW017 SCT028 BKN038 07/03 Q0983 REDZ=
201111271820 METAR ESMX 271820Z 26023G34KT 3300 -DZ FEW009 SCT011 BKN014 07/05 Q0982=
201111271750 METAR ESMX 271750Z 24022G34KT 5000 -RA SCT013 BKN020 06/04 Q0982 REDZ=
201111271720 METAR ESMX 271720Z 24025G37KT 6000 -DZ FEW016 BKN025 BKN034 07/03 Q0982=
201111271650 METAR ESMX 271650Z 23019G31KT 190V260 9999 FEW015 BKN030 OVC037 07/03 Q0983 REDZ=
201111271620 METAR ESMX 271620Z 23019G32KT 190V260 9999 DZ FEW014 SCT040 BKN045 07/03 Q0984=
201111271550 METAR ESMX 271550Z 25022G39KT 9999 SCT018 BKN035 08/03 Q0984=
201111271520 METAR ESMX 271520Z 24018G31KT 190V280 9999 FEW022 SCT034 BKN041 08/04 Q0985=
201111271450 METAR ESMX 271450Z 25014G24KT 210V290 9999 FEW026 SCT047 08/05 Q0985=
201111271420 METAR ESMX 271420Z 24017G29KT 210V290 7000 -RA FEW023 BKN030 BKN079 08/06 Q0985=
201111271350 METAR ESMX 271350Z 25018G31KT 210V280 9999 FEW019 SCT025 BKN034 09/06 Q0986=
201111271320 METAR ESMX 271320Z 24017G33KT 200V280 8000 -RA FEW009 SCT020 BKN027 09/07 Q0985=
201111271250 METAR ESMX 271250Z 24017G28KT 210V280 7000 -RA FEW011 SCT014 BKN017 10/08 Q0986=
201111271220 METAR ESMX 271220Z 22015G25KT 9000 DZ FEW008 BKN010 BKN017 10/08 Q0986=
201111271150 METAR ESMX 271150Z 22017KT 190V250 5000 -RA SCT010 BKN016 10/08 Q0987=
201111271120 METAR ESMX 271120Z 22021G33KT 6000 -RA FEW010 BKN012 OVC016 10/08 Q0987=
201111271050 METAR ESMX 271050Z 23020KT 200V270 5000 -RA FEW010 OVC012 10/08 Q0988=
201111271020 METAR ESMX 271020Z 22019G30KT 9999 BR SCT008 BKN014 10/08 Q0989 REDZ=
201111270950 METAR ESMX 270950Z 22018G28KT 190V250 3300 -DZ FEW008 OVC010 10/08 Q0990=
201111270920 METAR ESMX 270920Z AUTO 22022KT 200V260 4100NDV BR OVC010/// 10/08 Q0990=
201111270850 METAR ESMX 270850Z AUTO 24022G33KT 7000NDV BR BKN014/// OVC019/// 10/08 Q0991=
201111270820 METAR ESMX 270820Z AUTO 23016KT 210V280 9999NDV FEW011/// BKN013/// OVC017/// 11/08 Q0991=
201111270750 METAR ESMX 270750Z AUTO 22018KT 7000NDV BR FEW010/// OVC013/// 10/08 Q0992=
201111270720 METAR ESMX 270720Z AUTO 22014KT 190V250 7000NDV BR BKN011/// OVC018/// 10/08 Q0993=
201111270650 METAR ESMX 270650Z AUTO 24016G30KT 200V290 8000NDV BR BKN013/// OVC020/// 10/08 Q0993=
201111270620 METAR ESMX 270620Z AUTO 25017G28KT 210V280 6000NDV -DZ FEW006/// BKN008/// OVC014/// 10/09 Q0994=
201111270550 METAR ESMX 270550Z AUTO 22018KT 190V260 7000NDV BR OVC006/// 10/09 Q0994 REDZ=
201111270520 METAR ESMX 270520Z AUTO 22015G27KT 180V250 9999NDV BR FEW007/// OVC008/// 10/09 Q0994=
201111270450 METAR ESMX 270450Z AUTO 22017KT 9999NDV FEW007/// OVC008/// 11/09 Q0995=
201111270420 METAR ESMX 270420Z AUTO 25014KT 210V290 4600NDV BR FEW007/// BKN008/// OVC010/// 10/09 Q0995=
201111270350 METAR ESMX 270350Z AUTO 24014G24KT 210V280 9999NDV OVC008/// 10/09 Q0996=
201111270320 METAR ESMX 270320Z AUTO 23015G25KT 200V260 9999NDV BR BKN008/// OVC011/// 10/09 Q0996=
201111270250 METAR ESMX 270250Z AUTO 24014KT 210V290 7000NDV BR SCT007/// OVC009/// 10/09 Q0996=
201111270220 METAR ESMX 270220Z AUTO 24012KT 210V280 8000NDV BR SCT007/// OVC009/// 10/09 Q0997=
201111270150 METAR ESMX 270150Z AUTO 23014G25KT 200V260 6000NDV BR FEW007/// OVC008/// 10/09 Q0997=
201111270120 METAR ESMX 270120Z AUTO 25015KT 4300NDV BR SCT006/// OVC009/// 10/08 Q0997=
201111270050 METAR ESMX 270050Z AUTO 23014G24KT 180V280 5000NDV BR FEW006/// BKN007/// OVC010/// 09/08 Q0997=
201111270020 METAR ESMX 270020Z AUTO 24013G23KT 210V270 4500NDV BR FEW005/// SCT007/// BKN008/// 09/08 Q0997=
201111262350 METAR ESMX 262350Z AUTO 24015KT 3400NDV BR FEW006/// SCT007/// BKN009/// 09/08 Q0998=
201111262320 METAR ESMX 262320Z AUTO 22014KT 190V250 4300NDV -DZ FEW006/// BKN008/// OVC010/// 09/08 Q0998=
201111262250 METAR ESMX 262250Z AUTO 23013KT 200V270 3200NDV DZ FEW006/// OVC007/// 08/07 Q0999=
201111262220 METAR ESMX 262220Z AUTO 21013KT 170V280 3100NDV DZ BKN006/// OVC010/// 08/07 Q0999=
201111262150 METAR ESMX 262150Z AUTO 21013KT 170V250 2200NDV DZ BKN005/// OVC009/// 08/07 Q1000=
201111262120 METAR ESMX 262120Z AUTO 21012KT 8000NDV BR FEW006/// BKN008/// OVC010/// 08/06 Q1000=
201111262050 METAR ESMX 262050Z AUTO 21013KT 170V230 5000NDV DZ OVC007/// 07/06 Q1001=
201111262020 METAR ESMX 262020Z AUTO 20014KT 160V230 9999NDV -DZ FEW007/// BKN008/// OVC011/// 07/06 Q1001=
201111261950 METAR ESMX 261950Z AUTO 20013KT 9999NDV DZ FEW006/// BKN008/// BKN012/// 07/06 Q1002=
201111261920 METAR ESMX 261920Z AUTO 20015KT 9999NDV -RA FEW006/// SCT008/// BKN010/// 06/05 Q1003=
201111261850 METAR ESMX 261850Z AUTO 20014KT 9999NDV -RA FEW007/// SCT008/// OVC010/// 06/05 Q1004 REDZ=
201111261820 METAR ESMX 261820Z AUTO 20013KT 9000NDV DZ FEW007/// OVC009/// 06/05 Q1005=
201111261750 METAR ESMX 261750Z AUTO 21013KT 9999NDV DZ BKN010/// OVC015/// 06/05 Q1005=
201111261720 METAR ESMX 261720Z AUTO 23012KT 9999NDV FEW012/// BKN015/// OVC019/// 06/04 Q1006=
201111261650 METAR ESMX 261650Z AUTO 22012KT 9999NDV FEW012/// BKN015/// OVC020/// 06/04 Q1006=
201111261620 METAR ESMX 261620Z AUTO 24011KT 9999NDV FEW011/// BKN014/// OVC017/// 06/04 Q1007=
201111261550 METAR ESMX 261550Z AUTO 22010KT 9999NDV FEW014/// SCT016/// BKN019/// 06/04 Q1007=
201111261520 METAR ESMX 261520Z AUTO 22011G21KT 190V260 9999NDV FEW018/// SCT021/// BKN035/// 06/04 Q1008=
201111261450 METAR ESMX 261450Z AUTO 24009KT 9999NDV FEW020/// SCT030/// 05/03 Q1008=
201111261420 METAR ESMX 261420Z 24010KT 9999 FEW017 BKN033 05/03 Q1009=
201111261350 METAR ESMX 261350Z 22009KT 9999 FEW015 SCT024 BKN035 05/03 Q1009=
201111261320 METAR ESMX 261320Z 22008KT 190V260 9999 FEW010 05/04 Q1009=
201111261250 METAR ESMX 261250Z 25013KT 9999 -RA FEW014 SCT017 BKN023 05/03 Q1009=
201111261220 METAR ESMX 261220Z 23011KT 190V270 9999 -RA SCT010 BKN022 06/03 Q1010=
201111261150 METAR ESMX 261150Z 24009KT 200V290 9999 SCT015 BKN022 06/03 Q1010 REDZ=
201111261120 METAR ESMX 261120Z 26010KT 210V290 9999 BKN020 BKN030 06/03 Q1010=
201111261050 METAR ESMX 261050Z 25011KT 200V290 9999 SCT020 BKN030 06/02 Q1010=
201111261020 METAR ESMX 261020Z 25010KT 220V290 9999 SCT020 BKN035 06/02 Q1010=
201111260950 METAR ESMX 260950Z 26013G23KT 9999 FEW020 BKN035 06/02 Q1010=
201111260920 METAR ESMX 260920Z 24013KT 210V280 9999 FEW020 BKN040 05/02 Q1010=
201111260850 METAR ESMX 260850Z 25011KT 220V280 9999 FEW022 SCT049 05/02 Q1010=
201111260820 METAR ESMX 260820Z 25013KT 9999 FEW020 SCT024 BKN029 05/02 Q1009=
201111260750 METAR ESMX 260750Z 26011KT 9999 BKN020 OVC028 05/02 Q1009=
201111260720 METAR ESMX 260720Z AUTO 26013KT 9999NDV FEW022/// BKN026/// OVC034/// 05/02 Q1009=
201111260650 METAR ESMX 260650Z AUTO 26010KT 230V290 9999NDV FEW019/// SCT022/// BKN042/// 04/02 Q1009=
201111260620 METAR ESMX 260620Z AUTO 26010KT 230V290 9999NDV BKN020/// BKN029/// 05/02 Q1008=
201111260550 METAR ESMX 260550Z AUTO 25010KT 220V290 9999NDV FEW019/// BKN021/// 04/02 Q1008=
201111260520 METAR ESMX 260520Z AUTO 27013KT 9999NDV FEW017/// BKN021/// 04/02 Q1008=
201111260450 METAR ESMX 260450Z AUTO 26011KT 230V290 9999NDV FEW020/// SCT023/// 04/02 Q1007=
201111260420 METAR ESMX 260420Z AUTO 26010KT 230V290 9999NDV FEW021/// SCT025/// BKN030/// 04/02 Q1007=
201111260350 METAR ESMX 260350Z AUTO 25012KT 9999NDV FEW017/// BKN021/// 04/02 Q1007=
201111260320 METAR ESMX 260320Z AUTO 26012KT 9999NDV FEW015/// SCT020/// BKN025/// 04/02 Q1006=
201111260250 METAR ESMX 260250Z AUTO 26011KT 9999NDV FEW012/// BKN016/// 04/03 Q1006=
201111260220 METAR ESMX 260220Z AUTO 27010KT 230V290 9999NDV FEW012/// BKN018/// BKN032/// 04/03 Q1005=
201111260150 METAR ESMX 260150Z AUTO 26013KT 230V290 9999NDV DZ FEW009/// SCT015/// BKN017/// 04/03 Q1005=
201111260120 METAR ESMX 260120Z AUTO 23009KT 8000NDV RA FEW007/// SCT010/// BKN013/// 04/03 Q1005=
201111260050 METAR ESMX 260050Z AUTO 22011KT 9999NDV -RA FEW008/// OVC010/// 04/03 Q1005=
201111260020 METAR ESMX 260020Z AUTO 23012KT 200V260 9999NDV -DZ FEW010/// BKN012/// BKN026/// 04/02 Q1005=
201111252350 METAR ESMX 252350Z AUTO 21013KT 9999NDV FEW013/// SCT020/// 04/02 Q1005=
201111252320 METAR ESMX 252320Z AUTO 21016G28KT 170V260 7000NDV -RA FEW008/// BKN013/// OVC018/// 05/03 Q1005=
201111252250 METAR ESMX 252250Z AUTO 20011KT 9999NDV FEW007/// SCT025/// 04/03 Q1006=
201111252220 METAR ESMX 252220Z AUTO 20012KT 9999NDV FEW007/// BKN008/// 05/03 Q1006=
201111252150 METAR ESMX 252150Z AUTO 20009KT 9999NDV FEW009/// SCT012/// 04/03 Q1007=
201111252120 METAR ESMX 252120Z AUTO 21008KT 9999NDV FEW016/// 03/03 Q1007=
201111252050 METAR ESMX 252050Z AUTO 19007KT 9999NDV NCD 03/02 Q1007=
201111252020 METAR ESMX 252020Z AUTO 22007KT 9999NDV FEW012/// 04/03 Q1008=
201111251950 METAR ESMX 251950Z 20005KT 9999 SCT018 04/03 Q1008=
201111251920 METAR COR ESMX 251920Z 24007KT 9999 SCT019 05/03 Q1008=
201111251850 METAR ESMX 251850Z 23011KT 190V260 9999 FEW016 06/03 Q1008=
201111251820 METAR ESMX 251820Z 25009KT 220V290 9999 FEW013 SCT016 BKN019 07/05 Q1008=
201111251750 METAR ESMX 251750Z 24012KT 210V290 9999 FEW010 SCT015 BKN018 07/05 Q1008=
201111251720 METAR ESMX 251720Z 23008KT 190V260 9999 FEW010 SCT014 BKN023 07/06 Q1008=
201111251650 METAR ESMX 251650Z 23008KT 210V270 9999 FEW009 SCT013 BKN016 07/06 Q1008=
201111251620 METAR ESMX 251620Z 23007KT 9999 SCT012 07/05 Q1008=
201111251550 METAR ESMX 251550Z 24008KT 200V260 9999 FEW006 SCT007 BKN076 07/06 Q1008=
201111251520 METAR ESMX 251520Z 21009KT 170V240 9999 SCT005 BKN008 OVC010 07/06 Q1008=
201111251450 METAR ESMX 251450Z 23011KT 5000 -RA FEW006 BKN007 OVC010 07/06 Q1008=
201111251420 METAR ESMX 251420Z 21013KT 170V240 5000 -RA SCT005 OVC007 07/06 Q1008 REDZ=
201111251350 METAR ESMX 251350Z 21014KT 2600 DZ BKN004 OVC008 07/06 Q1008=
201111251320 METAR ESMX 251320Z 20013KT 180V240 2000 DZ OVC005 07/06 Q1008=
201111251250 METAR ESMX 251250Z 21014KT 180V250 2200 BR OVC005 07/06 Q1008=
201111251220 METAR ESMX 251220Z 20013KT 3200 BR OVC005 07/05 Q1009 REDZ=
201111251150 METAR ESMX 251150Z 20015KT 5000 BR OVC007 06/05 Q1009=
201111251120 METAR ESMX 251120Z 20016KT 5000 BR OVC007 07/05 Q1010=
201111251050 METAR ESMX 251050Z 21015KT 5000 BR OVC008 06/04 Q1010=
201111251020 METAR ESMX 251020Z 21014KT 180V250 6000 BR OVC010 06/04 Q1011=
201111250950 METAR ESMX 250950Z 20013KT 8000 BR BKN011 06/04 Q1012=
201111250920 METAR ESMX 250920Z 21011KT 170V240 9999 BKN013 06/04 Q1012=
201111250850 METAR ESMX 250850Z 23013KT 8000 BR BKN010 06/04 Q1013=
201111250820 METAR ESMX 250820Z 20014KT 160V230 9000 BR BKN010 06/04 Q1013=
201111250750 METAR ESMX 250750Z 20014KT 9000 BR BKN010 07/05 Q1013=
201111250720 METAR ESMX 250720Z 20013KT 9999 BR BKN011 07/05 Q1013=
201111250650 METAR ESMX 250650Z 19013KT 9000 BR BKN012 07/05 Q1014=
201111250620 METAR ESMX 250620Z 20011KT 170V240 9000 BR FEW010 SCT014 07/06 Q1014=
201111250550 METAR ESMX 250550Z 20012KT 9000 BR FEW010 SCT013 OVC017 08/06 Q1015=
201111250520 METAR ESMX 250520Z 20011KT 8000 BR FEW009 BKN012 OVC016 08/06 Q1015=
201111250450 METAR ESMX 250450Z 21011KT 7000 BR FEW009 BKN011 OVC014 08/06 Q1016=
201111250420 METAR ESMX 250420Z AUTO 21011KT 5000NDV BR FEW009/// BKN011/// OVC016/// 08/07 Q1016=
201111250350 METAR ESMX 250350Z AUTO 21013KT 4500NDV BR BKN007/// OVC010/// 08/07 Q1016=
201111250320 METAR ESMX 250320Z AUTO 22011KT 4600NDV BR FEW005/// BKN007/// OVC011/// 08/07 Q1017=
201111250250 METAR ESMX 250250Z AUTO 20011KT 4200NDV BR FEW005/// SCT006/// BKN007/// 08/07 Q1017=
201111250220 METAR ESMX 250220Z AUTO 20010KT 170V240 4700NDV BR FEW003/// BKN005/// OVC007/// 08/07 Q1018=
201111250150 METAR ESMX 250150Z AUTO 21009KT 170V240 3200NDV BR OVC002/// 08/08 Q1018=
201111250120 METAR ESMX 250120Z AUTO 22011KT 3000NDV BR OVC002/// 08/07 Q1018 REDZ=
201111250050 METAR ESMX 250050Z AUTO 21011KT 2100NDV -DZ OVC002/// 08/07 Q1019=
201111250020 METAR ESMX 250020Z 20012KT 2100 -DZ OVC003 08/08 Q1019=
201111242350 METAR ESMX 242350Z 20011KT 1900 BR OVC003 08/08 Q1019=
201111242320 METAR ESMX 242320Z 19012KT 2200 BR OVC003 08/08 Q1019=
201111242250 METAR ESMX 242250Z 21012KT 1700 BR OVC003 08/08 Q1020=
201111242220 METAR ESMX 242220Z 21009KT 2000 BR OVC003 09/08 Q1020=
201111242150 METAR ESMX 242150Z 21009KT 2300 BR OVC003 09/08 Q1020=
201111242120 METAR ESMX 242120Z 21009KT 1600 BR OVC003 09/08 Q1020=
201111242050 METAR ESMX 242050Z 22009KT 2100 BR OVC003 09/08 Q1021=
201111242020 METAR ESMX 242020Z 20008KT 1700 BR OVC003 09/08 Q1021=
201111241950 METAR ESMX 241950Z 22009KT 2300 BR FEW002 OVC003 09/08 Q1021=
201111241920 METAR ESMX 241920Z 23009KT 4200 BR OVC004 09/08 Q1021=
201111241850 METAR ESMX 241850Z 21009KT 170V240 4300 BR OVC005 09/08 Q1022=
201111241820 METAR ESMX 241820Z 23008KT 9000 BR OVC005 09/08 Q1022=
201111241750 METAR ESMX 241750Z 21009KT 190V260 4100 BR FEW003 BKN006 09/08 Q1022 REDZ=
201111241720 METAR ESMX 241720Z 23008KT 2400 DZ BKN003 OVC007 09/08 Q1022=
201111241650 METAR ESMX 241650Z 23008KT 6000 BR OVC004 09/08 Q1022=
201111241620 METAR ESMX 241620Z 23008KT 200V260 9999 OVC005 09/08 Q1022=
201111241550 METAR ESMX 241550Z 22008KT 180V260 9999 OVC005 09/08 Q1022=
201111241520 METAR ESMX 241520Z 23008KT 200V260 9999 OVC004 09/08 Q1022=
201111241450 METAR ESMX 241450Z 23008KT 200V260 6000 BR OVC004 09/08 Q1021=
201111241420 METAR ESMX 241420Z 23008KT 200V260 9000 BR OVC003 09/08 Q1022=
201111241350 METAR ESMX 241350Z 22007KT 6000 BR OVC003 09/08 Q1021=
201111241320 METAR ESMX 241320Z 21007KT 6000 BR OVC002 08/08 Q1021=
201111241250 METAR ESMX 241250Z 21008KT 5000 BR OVC002 08/08 Q1022=
201111241220 METAR ESMX 241220Z 21009KT 2200 BR OVC002 08/08 Q1022=
201111241150 METAR ESMX 241150Z 22009KT 3000 BR OVC002 08/08 Q1022=
201111241120 METAR ESMX 241120Z 22009KT 3900 BR OVC002 08/08 Q1022=
201111241050 METAR ESMX 241050Z 22011KT 2600 BR OVC002 08/07 Q1022=
201111241020 METAR ESMX 241020Z 21008KT 1700 BR OVC002 07/07 Q1022=
201111240950 METAR ESMX 240950Z 22009KT 1500 BR OVC002 07/06 Q1022=
201111240920 METAR ESMX 240920Z 22009KT 190V250 1800 BR OVC002 07/06 Q1022=
201111240850 METAR ESMX 240850Z 21009KT 2300 BR OVC002 07/06 Q1022=
201111240820 METAR ESMX 240820Z 21010KT 1700 BR OVC002 06/06 Q1022=
201111240750 METAR ESMX 240750Z 20010KT 1500 BR OVC002 06/05 Q1022=
201111240720 METAR ESMX 240720Z 22009KT 1800 BR OVC002 06/05 Q1022=
201111240650 METAR ESMX 240650Z 20011KT 3100 BR OVC003 06/05 Q1022=
201111240620 METAR ESMX 240620Z 20012KT 3900 BR OVC003 06/05 Q1022=
201111240550 METAR ESMX 240550Z 22011KT 4700 BR OVC004 06/05 Q1022=
201111240520 METAR ESMX 240520Z 21012KT 5000 BR SCT003 OVC005 06/05 Q1022=
201111240450 METAR ESMX 240450Z 22009KT 190V260 3100 BR OVC003 06/05 Q1022=
201111240420 METAR ESMX 240420Z AUTO 20010KT 2400NDV BR OVC001/// 05/05 Q1021=
201111240350 METAR ESMX 240350Z AUTO 20011KT 2000NDV BR OVC001/// 05/05 Q1022=
201111240320 METAR ESMX 240320Z AUTO 21011KT 1200NDV R01/P2000N R19/P2000N BR OVC001/// 05/05 Q1022=
201111240250 METAR ESMX 240250Z AUTO 20011KT 1300NDV R01/P2000N R19/P2000N OVC001/// 05/05 Q1022=
201111240220 METAR ESMX 240220Z AUTO 20011KT 1000NDV R01/P2000N R19/P2000N OVC001/// 05/05 Q1022=
201111240150 METAR ESMX 240150Z AUTO 21012KT 0800NDV R01/P2000N R19/P2000N FG VV002 05/05 Q1022=
201111240120 METAR ESMX 240120Z AUTO 20010KT 0500NDV R01/1500N R19/1600N FG VV001 05/04 Q1023=
201111240050 METAR ESMX 240050Z AUTO 20010KT 0400NDV R01/1300N R19/1400N FG VV001 05/04 Q1023=
201111240020 METAR ESMX 240020Z 19011KT 0500 R01/1600D R19/1800D FG VV002 05/04 Q1023=
201111232350 METAR ESMX 232350Z 20009KT 0800 R01/P2000N R19/P2000N FG VV002 04/04 Q1023=
201111232320 METAR ESMX 232320Z 19011KT 1000 R01/P2000N R19/P2000N FG OVC002 04/04 Q1023=
201111232250 METAR ESMX 232250Z 19010KT 0800 R01/P2000N R19/P2000N FG VV002 04/03 Q1023=
201111232220 METAR ESMX 232220Z 18008KT 150V220 1000 R01/P2000N R19/P2000N BR OVC002 04/03 Q1023=
201111232150 METAR ESMX 232150Z 18008KT 1300 R01/P2000N R19/P2000N BR OVC002 04/03 Q1024=
201111232120 METAR ESMX 232120Z 19009KT 1700 BR OVC002 04/03 Q1024=
201111232050 METAR ESMX 232050Z 19008KT 1900 BR OVC003 04/03 Q1024=
201111232020 METAR ESMX 232020Z 19008KT 2000 BR OVC003 04/03 Q1024=
201111231950 METAR ESMX 231950Z 18008KT 140V210 1900 BR OVC004 04/03 Q1024=
201111231920 METAR ESMX 231920Z 19009KT 2000 BR OVC004 04/03 Q1024=
201111231850 METAR ESMX 231850Z 17008KT 2100 BR OVC004 04/03 Q1024=
201111231820 METAR ESMX 231820Z 18007KT 1700 BR OVC002 04/03 Q1024=
201111231750 METAR ESMX 231750Z 18008KT 1900 BR OVC003 03/03 Q1024=
201111231720 METAR ESMX 231720Z 18007KT 1700 BR OVC002 03/03 Q1024=
201111231650 METAR ESMX 231650Z 17006KT 1400 R01/P2000N R19/P2000N BR OVC002 03/03 Q1024=
201111231620 METAR ESMX 231620Z 19008KT 1300 R01/P2000N R19/P2000N BR OVC002 03/03 Q1024=
201111231550 METAR ESMX 231550Z 19007KT 1400 R01/P2000N R19/P2000N BR OVC001 03/03 Q1024=
201111231520 METAR ESMX 231520Z 19008KT 1800 BR OVC002 03/03 Q1024=
201111231450 METAR ESMX 231450Z 18007KT 1900 BR OVC003 03/03 Q1024=
201111231420 METAR ESMX 231420Z 20007KT 170V240 2300 BR OVC004 04/03 Q1024=
201111231350 METAR ESMX 231350Z 19007KT 2700 BR OVC005 04/02 Q1024=
201111231320 METAR ESMX 231320Z 18008KT 2600 BR OVC003 04/03 Q1024=
201111231250 METAR ESMX 231250Z 18010KT 2200 BR OVC004 04/02 Q1024=
201111231220 METAR ESMX 231220Z 18009KT 150V210 2700 BR OVC005 04/02 Q1024=
201111231150 METAR ESMX 231150Z 20008KT 3200 BR OVC005 04/02 Q1024=
201111231120 METAR ESMX 231120Z 19010KT 3500 BR SCT001 OVC006 04/02 Q1025=
201111231050 METAR ESMX 231050Z 19008KT 4000 BR OVC007 04/02 Q1024=
201111231020 METAR ESMX 231020Z 17008KT 140V200 4300 BR OVC008 04/02 Q1024=
201111230950 METAR ESMX 230950Z 17008KT 140V200 4500 BR OVC009 04/02 Q1024=
201111230920 METAR ESMX 230920Z 17007KT 4800 BR OVC010 04/02 Q1024=
201111230850 METAR ESMX 230850Z 17009KT 5000 BR OVC011 04/02 Q1024=
201111230820 METAR ESMX 230820Z 17006KT 130V200 5000 BR OVC011 04/02 Q1025=
201111230750 METAR ESMX 230750Z 17008KT 5000 BR OVC013 05/02 Q1024=
201111230720 METAR ESMX 230720Z 19009KT 140V210 6000 BR BKN013 OVC020 05/02 Q1024=
201111230650 METAR ESMX 230650Z 16007KT 130V200 7000 BR FEW014 OVC018 05/03 Q1024=
201111230620 METAR ESMX 230620Z 16008KT 120V200 8000 BR FEW014 OVC016 05/03 Q1024=
201111230550 METAR ESMX 230550Z 16007KT 120V200 8000 BR FEW014 SCT017 OVC048 05/03 Q1024=
201111230520 METAR ESMX 230520Z 16007KT 120V190 8000 BR FEW017 BKN022 OVC048 06/03 Q1024=
201111230450 METAR ESMX 230450Z 16008KT 120V200 9000 BR FEW014 BKN022 OVC057 06/03 Q1024=
201111230420 METAR ESMX 230420Z AUTO 16007KT 140V200 9000NDV BR SCT014/// BKN019/// OVC022/// 06/03 Q1024=
201111230350 METAR ESMX 230350Z AUTO 17008KT 130V200 9000NDV BR FEW010/// SCT016/// BKN022/// 06/04 Q1024=
201111230320 METAR ESMX 230320Z AUTO 16006KT 120V190 7000NDV BR FEW006/// SCT008/// BKN011/// 06/05 Q1024=
201111230250 METAR ESMX 230250Z AUTO 15006KT 090V170 7000NDV BR SCT006/// BKN009/// OVC011/// 06/05 Q1024=
201111230220 METAR ESMX 230220Z AUTO 15005KT 120V210 7000NDV BR BKN006/// OVC011/// 06/05 Q1024=
201111230150 METAR ESMX 230150Z AUTO 16004KT 120V210 7000NDV BR BKN007/// OVC014/// 06/05 Q1024=
201111230120 METAR ESMX 230120Z AUTO 15005KT 100V190 7000NDV BR BKN008/// OVC011/// 06/05 Q1025=
201111230050 METAR ESMX 230050Z AUTO 15005KT 100V180 7000NDV BR FEW007/// BKN008/// OVC011/// 06/05 Q1025=
201111230020 METAR ESMX 230020Z 15006KT 110V180 6000 BR OVC005 06/05 Q1025=
201111222350 METAR ESMX 222350Z 15004KT 110V190 6000 BR OVC004 06/05 Q1025=
201111222320 METAR ESMX 222320Z 14005KT 080V200 5000 BR FEW002 OVC004 06/05 Q1025=
201111222250 METAR ESMX 222250Z 14004KT 090V190 5000 BR OVC003 05/05 Q1025=
201111222220 METAR ESMX 222220Z 14005KT 100V190 4300 BR OVC002 05/05 Q1025=
201111222150 METAR ESMX 222150Z 13004KT 090V170 5000 BR OVC003 05/04 Q1026=
201111222120 METAR ESMX 222120Z 15005KT 100V200 5000 BR OVC003 05/04 Q1026=
201111222050 METAR ESMX 222050Z 15004KT 100V190 7000 BR OVC004 05/04 Q1026=
201111222020 METAR ESMX 222020Z 14004KT 080V210 7000 -RA OVC004 05/04 Q1026=
201111221950 METAR ESMX 221950Z 15006KT 110V180 7000 BR OVC004 05/04 Q1026=
201111221920 METAR ESMX 221920Z 14005KT 100V170 8000 BR OVC004 05/04 Q1025=
201111221850 METAR ESMX 221850Z 14004KT 080V190 9000 DZ OVC004 05/04 Q1025=
201111221820 METAR ESMX 221820Z 10003KT 030V140 9999 BR OVC004 05/04 Q1025=
201111221750 METAR ESMX 221750Z 10004KT 060V140 8000 BR OVC004 05/04 Q1025=
201111221720 METAR ESMX 221720Z 10003KT 050V150 7000 BR OVC004 05/04 Q1025=
201111221650 METAR ESMX 221650Z VRB02KT 8000 BR OVC004 05/04 Q1025=
201111221620 METAR ESMX 221620Z VRB02KT 9999 BKN004 OVC065 05/04 Q1025=
201111221550 METAR ESMX 221550Z 12003KT 070V170 9999 FEW005 OVC064 05/04 Q1025=
201111221520 METAR ESMX 221520Z 10003KT 060V140 9999 BKN005 OVC065 05/04 Q1025=
201111221450 METAR ESMX 221450Z 13003KT 070V170 9000 BKN009 OVC063 06/05 Q1025=
201111221420 METAR ESMX 221420Z 14003KT 9000 BKN006 06/05 Q1025=
201111221350 METAR ESMX 221350Z VRB01KT 8000 BR OVC004 06/05 Q1025=
201111221320 METAR ESMX 221320Z VRB01KT 8000 BR SCT002 BKN065 06/05 Q1024=
201111221250 METAR ESMX 221250Z VRB02KT 9000 BR BKN061 06/05 Q1024=
201111221220 METAR ESMX 221220Z 05003KT 020V080 9000 BR FEW003 BKN063 06/05 Q1025=
201111221150 METAR ESMX 221150Z VRB02KT 8000 BR OVC065 06/05 Q1025=
201111221120 METAR ESMX 221120Z VRB01KT 8000 BR FEW037 SCT046 BKN061 06/06 Q1025=
201111221050 METAR ESMX 221050Z VRB01KT 7000 BR FEW004 BKN050 05/05 Q1025=
201111221020 METAR ESMX 221020Z VRB02KT 7000 BR OVC049 05/04 Q1025=
201111220950 METAR ESMX 220950Z VRB01KT 6000 BR BKN052 05/04 Q1025=
201111220920 METAR ESMX 220920Z VRB01KT 7000 BR OVC059 05/04 Q1025=
201111220850 METAR ESMX 220850Z VRB02KT 7000 BR OVC054 04/03 Q1024=
201111220820 METAR ESMX 220820Z 17003KT 150V210 5000 BR SCT001 OVC057 04/03 Q1024=
201111220750 METAR ESMX 220750Z VRB02KT 0900 R01/1000VP2000D R19/0900VP2000N FG VV002 03/03 Q1024=
201111220720 METAR ESMX 220720Z 01001KT 0300 R01/0900 R19/0900N FG VV002 02/02 Q1024=
201111220650 METAR ESMX 220650Z 01001KT 0100 R01/0325V0550 R19/0250 FG VV002 02/02 Q1023=
201111220620 METAR ESMX 220620Z 00000KT 0100 R01/0350V0550N R19/0800VP2000D FG BKN001 03/03 Q1023=
201111220550 METAR ESMX 220550Z VRB01KT 0650 R01/P2000D R19/P2000N FG OVC001 04/03 Q1023=
201111220520 METAR ESMX 220520Z 03003KT 360V070 1500 BR OVC001 04/03 Q1023=
201111220450 METAR ESMX 220450Z 04003KT 010V080 0550 R01/1700D R19/P2000N FG OVC001 04/03 Q1023=
201111220420 METAR ESMX 220420Z AUTO VRB01KT 0350NDV R01/1200N R19/1700D FG OVC001/// 04/03 Q1023=
201111220350 METAR ESMX 220350Z AUTO VRB01KT 1100NDV R01/P2000N R19/P2000N VV001 03/03 Q1022=
201111220320 METAR ESMX 220320Z AUTO 00000KT 1000NDV R01/P2000N R19/P2000N BKN001/// OVC066/// 03/02 Q1022=
201111220250 METAR ESMX 220250Z AUTO VRB01KT 0900NDV R01/P2000N R19/P2000N FG OVC065/// 03/02 Q1022=
201111220220 METAR ESMX 220220Z AUTO 00000KT 2300NDV OVC066/// 03/02 Q1022=
201111220150 METAR ESMX 220150Z AUTO VRB01KT 1400NDV R01/P2000N R19/P2000N OVC066/// 02/02 Q1022=
201111220120 METAR ESMX 220120Z AUTO 00000KT 0900NDV R01/P2000N R19/P2000N BR OVC064/// 03/02 Q1022=
201111220050 METAR ESMX 220050Z 10001KT 1800 BR NSC 03/03 Q1022=
201111220020 METAR ESMX 220020Z 08001KT 2200 BR FEW002 BKN063 03/03 Q1022=
201111212350 METAR ESMX 212350Z VRB01KT 2700 BR NSC 03/03 Q1022=
201111212320 METAR ESMX 212320Z VRB01KT 2500 BR NSC 03/03 Q1022=
201111212250 METAR ESMX 212250Z VRB01KT 2100 BR FEW007 OVC055 03/03 Q1022=
201111212220 METAR ESMX 212220Z 24001KT 2800 BR FEW006 OVC056 03/03 Q1022=
201111212150 METAR ESMX 212150Z 19001KT 1900 FG FEW006 OVC055 03/03 Q1022=
201111212120 METAR ESMX 212120Z 22002KT 0900 R01/P2000N R19/P2000N FG SCT001 OVC006 04/03 Q1022=
201111212050 METAR ESMX 212050Z 17003KT 2400 BR OVC006 04/03 Q1022=
201111212020 METAR ESMX 212020Z VRB01KT 2200 BR OVC007 04/03 Q1022=
201111211950 METAR ESMX 211950Z 00000KT 2300 BR FEW002 OVC007 03/03 Q1022=
201111211920 METAR ESMX 211920Z 20002KT 1800 BR OVC001 03/03 Q1022=
201111211850 METAR ESMX 211850Z 21004KT 0450 R01/1200VP2000D R19/P2000N FG VV002 03/03 Q1022=
201111211820 METAR ESMX 211820Z 20004KT 1500 FEW001 SCT003 OVC058 03/02 Q1021=
201111211750 METAR ESMX 211750Z 34004KT 0650 R01/P2000N R19/P2000N BCFG SCT057 03/03 Q1021=
201111211720 METAR ESMX 211720Z 36002KT 1300 R01/P2000N R19/P2000N BCFG OVC056 02/02 Q1021=
201111211650 METAR ESMX 211650Z 28001KT 0350 R01/1200N R19/P2000N BCFG OVC055 02/01 Q1021=
201111211620 METAR ESMX 211620Z 00000KT 0250 R01/0800V1500U R19/0800V1400N BCFG SCT053 02/02 Q1021=
201111211550 METAR ESMX 211550Z 00000KT 0250 R01/0750V1200N R19/1000VP2000D BCFG BKN052 03/02 Q1021=
201111211520 METAR ESMX 211520Z 00000KT 0400 R01/1100V1600U R19/P2000N BCFG BKN053 03/03 Q1021=
201111211450 METAR ESMX 211450Z VRB01KT 2000 BR BKN052 03/03 Q1021=
201111211420 METAR COR ESMX 211420Z 00000KT 6000 BR BKN049 04/04 Q1021=
201111211350 METAR ESMX 211350Z 00000KT CAVOK 04/04 Q1021=
201111211320 METAR ESMX 211320Z 35001KT 9999 FEW005 04/04 Q1021=
201111211250 METAR ESMX 211250Z VRB02KT 9999 SCT003 04/04 Q1021=
201111211220 METAR ESMX 211220Z 28004KT 250V330 9999 BKN003 04/04 Q1021=
201111211150 METAR ESMX 211150Z 32005KT 290V350 9999 OVC002 04/04 Q1021=
201111211120 METAR ESMX 211120Z 28005KT 250V320 3000 OVC002 04/03 Q1021=
201111211050 METAR ESMX 211050Z 28005KT 0800 R01/0900V1700U R19/0800VP2000N FG VV002 03/03 Q1021=
201111211020 METAR ESMX 211020Z 22004KT 190V250 0300 R01/0800V1100 R19/0700 FG VV002 03/03 Q1021=
201111210950 METAR ESMX 210950Z 24005KT 0250 R01/0550 R19/0700V1100 FG VV002 03/03 Q1021=
201111210920 METAR ESMX 210920Z 25004KT 0250 R01/0450 R19/0650 FG VV002 03/03 Q1021=
201111210850 METAR ESMX 210850Z 22003KT 170V260 0200 R01/0500 R19/0650 FG VV002 03/03 Q1021=
201111210820 METAR ESMX 210820Z 22004KT 0200 R01/0350V0600U R19/0550N FG VV002 03/03 Q1021=
201111210750 METAR ESMX 210750Z VRB01KT 0100 R01/0225N R19/0150V0300N FG VV002 04/03 Q1021=
201111210720 METAR ESMX 210720Z VRB01KT 0100 R01/0175V0350N R19/0350V0550 FG VV002 04/03 Q1021=
201111210650 METAR ESMX 210650Z VRB01KT 0100 R01/0400N R19/0375V0550N FG VV002 04/04 Q1021=
201111210620 METAR ESMX 210620Z VRB01KT 0200 R01/0700 R19/0900N FG VV002 04/04 Q1021=
201111210550 METAR ESMX 210550Z VRB01KT 0500 R01/1100VP2000D R19/P2000D FG VV003 04/04 Q1021=
201111210520 METAR ESMX 210520Z 24004KT 220V280 0600 R01/1800N R19/P2000N FG VV002 05/04 Q1021=
201111210450 METAR ESMX 210450Z 26003KT 0550 R01/1300V1900U R19/P1900D FG VV002 05/04 Q1021=
201111210420 METAR ESMX 210420Z AUTO VRB02KT 0500NDV R01/1200VP2000D R19/1900D FG VV001 05/04 Q1021=
201111210350 METAR ESMX 210350Z AUTO 24003KT 200V260 0500NDV R01/1900N R19/1600D FG VV001 05/04 Q1021=
201111210320 METAR ESMX 210320Z AUTO VRB02KT 0300NDV R01/0800V1700D R19/P2000N FG VV001 05/04 Q1021=
201111210250 METAR ESMX 210250Z AUTO VRB01KT 0600NDV R01/1500VP2000D R19/P2000N FG OVC001/// 05/04 Q1021=
201111210220 METAR ESMX 210220Z AUTO 22003KT 190V250 1000NDV R01/P2000N R19/P2000N BR OVC001/// 05/04 Q1021=
201111210150 METAR ESMX 210150Z AUTO 00000KT 2400NDV BR OVC001/// 05/04 Q1021=
201111210120 METAR ESMX 210120Z AUTO VRB01KT 3200NDV BR OVC001/// 05/04 Q1021=
201111210050 METAR ESMX 210050Z AUTO VRB01KT 3700NDV BR OVC001/// 05/04 Q1021=
201111210020 METAR ESMX 210020Z VRB01KT 4000 BR OVC002 05/04 Q1021=
201111202350 METAR ESMX 202350Z 35002KT 5000 BR OVC002 05/04 Q1021=
201111202320 METAR ESMX 202320Z 30002KT 5000 BR OVC003 05/04 Q1022=
201111202250 METAR ESMX 202250Z 29004KT 5000 BR OVC003 05/05 Q1022=
201111202220 METAR ESMX 202220Z 27004KT 6000 BR OVC003 05/05 Q1022=
201111202150 METAR ESMX 202150Z 27005KT 7000 BR OVC003 06/05 Q1022=
201111202120 METAR ESMX 202120Z AUTO 26004KT 6000NDV BR OVC003/// 06/05 Q1022=
201111202050 METAR ESMX 202050Z 25004KT 230V300 7000 BR OVC003 06/05 Q1022=
201111202020 METAR ESMX 202020Z 27004KT 230V310 7000 BR OVC004 06/05 Q1021=
201111201950 METAR ESMX 201950Z 29004KT 7000 BR OVC003 06/05 Q1021=
201111201920 METAR ESMX 201920Z 27006KT 7000 BR OVC003 06/06 Q1021=
201111201850 METAR ESMX 201850Z 29004KT 6000 BR OVC004 07/06 Q1021=
201111201820 METAR ESMX 201820Z 26005KT 240V300 5000 BR OVC003 07/06 Q1021=
201111201750 METAR ESMX 201750Z 28006KT 250V320 5000 BR OVC004 08/07 Q1021=
201111201720 METAR ESMX 201720Z 28005KT 250V310 4400 BR OVC004 08/07 Q1021=
201111201650 METAR ESMX 201650Z 24005KT 210V280 5000 BR OVC005 08/07 Q1021=
201111201550 METAR ESMX 201550Z 24004KT 200V260 6000 BR FEW005 OVC074 08/07 Q1021=
201111201520 METAR ESMX 201520Z 25004KT 6000 BR FEW008 SCT080 08/07 Q1020=
201111201450 METAR ESMX 201450Z 25004KT 7000 BR SCT065 OVC080 08/08 Q1020=
201111201420 METAR ESMX 201420Z 24004KT 8000 BR SCT008 BKN073 09/08 Q1020=
201111201350 METAR ESMX 201350Z 25004KT 230V290 9000 BR SCT005 BKN008 BKN010 09/08 Q1020=
201111201320 METAR ESMX 201320Z 25003KT 220V290 8000 BR FEW005 BKN007 OVC061 10/08 Q1020=
201111201250 METAR ESMX 201250Z 26004KT 230V300 9000 BR FEW006 SCT007 BKN010 10/08 Q1020=
201111201220 METAR ESMX 201220Z 27005KT 230V300 9999 SCT007 BKN009 10/08 Q1020=
201111201120 METAR ESMX 201120Z 27004KT 220V300 9000 BR FEW005 BKN006 10/09 Q1020=
201111201050 METAR ESMX 201050Z 27004KT 220V310 9000 BR OVC005 10/09 Q1020=
201111201020 METAR ESMX 201020Z 27004KT 240V320 8000 BR BKN003 OVC006 09/09 Q1020=
201111200950 METAR ESMX 200950Z 27003KT 240V350 7000 BR FEW003 OVC004 09/09 Q1020=
201111200920 METAR ESMX 200920Z AUTO 28004KT 240V310 6000NDV BR OVC002/// 09/08 Q1020=
201111200850 METAR ESMX 200850Z AUTO 28005KT 240V330 5000NDV BR OVC002/// 09/08 Q1020=
201111200820 METAR ESMX 200820Z AUTO 26005KT 220V300 4500NDV BR OVC001/// 09/08 Q1020=
201111200750 METAR ESMX 200750Z AUTO 27005KT 230V290 4500NDV BR OVC001/// 09/08 Q1020=
201111200720 METAR ESMX 200720Z AUTO 27004KT 240V300 1900NDV BR OVC001/// 09/08 Q1019=
201111200650 METAR ESMX 200650Z AUTO 26005KT 2000NDV BR OVC001/// 09/08 Q1019 RESHRA=
201111200620 METAR ESMX 200620Z AUTO 26005KT 220V290 3100NDV -RA OVC001/// 09/08 Q1019=
201111200550 METAR ESMX 200550Z AUTO 25004KT 1600NDV DZ OVC001/// 09/08 Q1019=
201111200520 METAR ESMX 200520Z AUTO 27004KT 220V300 0800NDV R01/P2000N R19/P2000N -RA VV002 09/08 Q1019=
201111200450 METAR ESMX 200450Z AUTO 26004KT 220V290 0550NDV R01/1700N R19/P2000N FG VV002 09/08 Q1019=
201111200420 METAR ESMX 200420Z AUTO 26005KT 220V280 0650NDV R01/1900D R19/P2000N FG VV002 09/08 Q1019=
201111200350 METAR ESMX 200350Z AUTO 25006KT 230V290 0900NDV R01/P2000N R19/P2000N FG VV002 09/08 Q1019=
201111200320 METAR ESMX 200320Z AUTO 26006KT 1400NDV R01/P2000N R19/P2000N VV002 09/08 Q1019=
201111200250 METAR ESMX 200250Z AUTO 25005KT 0800NDV R01/P2000N R19/P2000N FG VV001 09/08 Q1019=
201111200220 METAR ESMX 200220Z AUTO 25005KT 0700NDV R01/P2000D R19/P2000N FG VV002 09/08 Q1019=
201111200150 METAR ESMX 200150Z AUTO 23005KT 190V260 0750NDV R01/P2000N R19/P2000N FG VV001 09/08 Q1019=
201111200120 METAR ESMX 200120Z AUTO 25005KT 0650NDV R01/P2000D R19/P2000N FG VV001 09/08 Q1019=
201111200050 METAR ESMX 200050Z AUTO 24006KT 2200NDV OVC001/// 09/08 Q1019=
201111200020 METAR ESMX 200020Z AUTO 25006KT 0900NDV R01/P2000N R19/P2000N FG VV001 09/08 Q1019=
201111192350 METAR ESMX 192350Z AUTO 24005KT 210V280 0450NDV R01/1500N R19/1900U FG VV001 09/08 Q1019=
201111192320 METAR ESMX 192320Z AUTO 23005KT 0600NDV R01/1800N R19/P2000N -RA VV001 09/08 Q1019=
201111192250 METAR ESMX 192250Z AUTO 25005KT 0900NDV R01/P2000N R19/P2000N DZ VV002 09/08 Q1019=
201111192220 METAR ESMX 192220Z AUTO 24004KT 3100NDV -RA OVC001/// 09/08 Q1019=
201111192150 METAR ESMX 192150Z AUTO 24005KT 1300NDV R01/P2000N R19/P2000N -RA OVC001/// 09/08 Q1019 REDZ=
201111192120 METAR ESMX 192120Z AUTO 23005KT 200V270 0900NDV R01/P2000N R19/P2000N DZ VV002 09/08 Q1018=
201111192050 METAR ESMX 192050Z AUTO 23006KT 1200NDV R01/P2000N R19/P2000N DZ OVC001/// 09/08 Q1018=
201111192020 METAR ESMX 192020Z AUTO 25005KT 1600NDV -RA VV002 09/08 Q1018=
201111191950 METAR ESMX 191950Z AUTO 25005KT 210V280 1500NDV DZ VV002 09/08 Q1018=
201111191920 METAR ESMX 191920Z AUTO 25005KT 0600NDV R01/1900U R19/P2000N -RA VV001 09/08 Q1018=
201111191850 METAR ESMX 191850Z AUTO 26006KT 220V290 0550NDV R01/1700N R19/P2000N FG VV001 09/08 Q1018=
201111191820 METAR ESMX 191820Z AUTO 26005KT 230V300 0700NDV R01/P2000N R19/P2000N FG VV002 09/08 Q1017=
201111191750 METAR ESMX 191750Z AUTO 26006KT 0800NDV R01/P2000N R19/P2000N FG VV002 09/08 Q1017=
201111191720 METAR ESMX 191720Z AUTO 25005KT 210V290 0900NDV R01/P2000N R19/P2000N FG VV002 09/08 Q1017=
201111191650 METAR ESMX 191650Z AUTO 25005KT 210V290 0900NDV R01/P2000N R19/P2000N FG OVC001/// 09/08 Q1017=
201111191620 METAR ESMX 191620Z 23005KT 210V290 0900 R01/P2000N R19/P2000N FG VV002 09/08 Q1017=
201111191550 METAR ESMX 191550Z 26005KT 230V290 1300 R01/P2000N R19/P2000N BR OVC002 09/08 Q1017=
201111191520 METAR ESMX 191520Z 26005KT 1800 BR OVC002 09/08 Q1017=
201111191450 METAR ESMX 191450Z 26007KT 220V290 1600 BR OVC002 09/08 Q1017=
201111191420 METAR ESMX 191420Z 27006KT 230V300 2400 BR OVC002 09/08 Q1017=
201111191350 METAR ESMX 191350Z 26007KT 210V290 3600 BR OVC002 09/08 Q1017=
201111191320 METAR ESMX 191320Z 26007KT 230V290 4700 BR OVC002 09/08 Q1016=
201111191250 METAR ESMX 191250Z 26007KT 220V280 4000 BR OVC002 09/08 Q1016=
201111191220 METAR ESMX 191220Z 26007KT 2300 BR OVC002 09/08 Q1016=
201111191150 METAR ESMX 191150Z 26007KT 230V290 2200 BR OVC002 08/08 Q1016=
201111191120 METAR ESMX 191120Z 26009KT 1400 R01/P2000N R19/P2000N BR OVC002 08/08 Q1016=
201111191050 METAR ESMX 191050Z 24008KT 210V290 1100 R01/1900N R19/P2000N BR OVC002 08/08 Q1016=
201111191020 METAR ESMX 191020Z 26008KT 230V290 1000 R01/1700N R19/P2000U BR OVC002 08/08 Q1016=
201111190950 METAR ESMX 190950Z 26008KT 230V300 1200 R01/P2000N R19/P2000N BR OVC002 08/07 Q1016=
201111190920 METAR ESMX 190920Z 25009KT 210V280 1400 R01/P2000N R19/P2000N BR OVC002 08/07 Q1016=
201111190850 METAR ESMX 190850Z 26008G20KT 2500 BR OVC002 08/07 Q1016=
201111190820 METAR ESMX 190820Z 26009KT 230V290 7000 BR OVC003 08/07 Q1016=
201111190750 METAR ESMX 190750Z 26008KT 210V290 9999 OVC004 08/07 Q1016=
201111190720 METAR ESMX 190720Z AUTO 25009KT 220V280 9999NDV OVC004/// 08/07 Q1015=
201111190650 METAR ESMX 190650Z AUTO 25009KT 220V290 9999NDV OVC005/// 08/07 Q1015=
201111190620 METAR ESMX 190620Z AUTO 25010KT 9999NDV OVC005/// 07/06 Q1015=
201111190550 METAR ESMX 190550Z AUTO 25011KT 210V280 9999NDV OVC004/// 07/06 Q1015=
201111190520 METAR ESMX 190520Z AUTO 25012KT 9999NDV BR OVC004/// 07/06 Q1014=
201111190450 METAR ESMX 190450Z AUTO 25009KT 220V290 4700NDV BR OVC004/// 07/06 Q1015=
201111190420 METAR ESMX 190420Z AUTO 24009KT 210V280 5000NDV BR OVC004/// 07/06 Q1015=
201111190350 METAR ESMX 190350Z AUTO 24010KT 3600NDV BR BKN005/// OVC008/// 07/06 Q1015 REDZ=
201111190320 METAR ESMX 190320Z AUTO 25011KT 210V270 2500NDV -DZ FEW004/// OVC005/// 07/06 Q1015=
201111190250 METAR ESMX 190250Z AUTO 25010KT 2300NDV -DZ OVC003/// 07/06 Q1015=
201111190220 METAR ESMX 190220Z AUTO 25010KT 2800NDV BR OVC003/// 07/06 Q1015=
201111190150 METAR ESMX 190150Z AUTO 25010KT 2600NDV BR BKN003/// OVC005/// 07/06 Q1015=
201111190120 METAR ESMX 190120Z AUTO 24010KT 210V270 2800NDV BR OVC002/// 06/06 Q1015=
201111190050 METAR ESMX 190050Z AUTO 23009KT 190V260 2800NDV BR OVC002/// 06/06 Q1015=
201111190020 METAR ESMX 190020Z AUTO 24010KT 210V270 2100NDV BR OVC002/// 06/06 Q1016=
201111182350 METAR ESMX 182350Z AUTO 23010KT 190V260 2300NDV BR OVC002/// 06/06 Q1016=
201111182320 METAR ESMX 182320Z AUTO 22011G21KT 200V280 2000NDV BR OVC001/// 06/06 Q1016=
201111182250 METAR ESMX 182250Z AUTO 22010KT 2200NDV BR OVC001/// 06/06 Q1016=
201111182220 METAR ESMX 182220Z AUTO 24009KT 2400NDV BR OVC002/// 06/06 Q1016=
201111182150 METAR ESMX 182150Z AUTO 23011KT 190V260 2700NDV BR OVC002/// 06/06 Q1016=
201111182120 METAR ESMX 182120Z AUTO 23009KT 200V260 2700NDV BR OVC002/// 06/06 Q1016=
201111182050 METAR ESMX 182050Z AUTO 24009KT 200V260 2600NDV BR OVC002/// 06/06 Q1017=
201111182020 METAR ESMX 182020Z AUTO 22007KT 190V260 2600NDV BR FEW004/// OVC005/// 06/06 Q1017=
201111181950 METAR ESMX 181950Z 25008KT 4600 BR FEW003 OVC005 06/05 Q1017=
201111181920 METAR ESMX 181920Z 25009KT 210V290 3000 BR OVC003 06/05 Q1017=
201111181850 METAR ESMX 181850Z 24008KT 200V270 1000 R01/2000N R19/2000N FG OVC002 06/05 Q1017=
201111181820 METAR ESMX 181820Z 23007KT 200V270 0400 R01/1300N R19/1400N FG VV002 05/05 Q1017=
201111181750 METAR ESMX 181750Z 23006KT 0300 R01/1100N R19/1200D FG VV002 05/05 Q1017=
201111181720 METAR ESMX 181720Z 23007KT 170V250 0400 R01/1300N R19/1500N FG VV002 05/05 Q1017=
201111181650 METAR ESMX 181650Z 20007KT 0400 R01/1300N R19/1600N FG VV002 05/04 Q1017=
201111181620 METAR ESMX 181620Z 21006KT 0900 R01/1900D R19/P2000N FG VV002 05/04 Q1018=
201111181550 METAR ESMX 181550Z 21007KT 0800 R01/P2000N R19/P2000N FG OVC001 04/04 Q1018=
201111181520 METAR ESMX 181520Z 19006KT 1200 BR OVC001 04/04 Q1018=
201111181450 METAR ESMX 181450Z 21005KT 1500 BR OVC002 04/04 Q1018=
201111181420 METAR ESMX 181420Z 20006KT 1700 BR OVC002 04/03 Q1018=
201111181350 METAR ESMX 181350Z 23006KT 1900 BR OVC002 04/03 Q1019=
201111181320 METAR ESMX 181320Z 21007KT 180V250 2300 BR OVC003 04/03 Q1019=
201111181250 METAR ESMX 181250Z 23006KT 2400 BR OVC003 04/03 Q1019=
201111181220 METAR ESMX 181220Z 22006KT 190V250 2400 BR OVC002 04/03 Q1019=
201111181150 METAR ESMX 181150Z 21008KT 190V250 2800 BR OVC002 04/03 Q1019=
201111181120 METAR ESMX 181120Z 23007KT 2900 BR OVC003 04/03 Q1019=
201111181050 METAR ESMX 181050Z 21007KT 5000 BR OVC005 04/02 Q1019=
201111181020 METAR ESMX 181020Z 23005KT 8000 BR OVC012 03/02 Q1019=
201111180950 METAR ESMX 180950Z 23004KT 8000 BR OVC014 03/02 Q1019=
201111180920 METAR ESMX 180920Z 22004KT 6000 BR FEW012 OVC017 03/01 Q1020=
201111180850 METAR ESMX 180850Z 22004KT 190V250 8000 BR OVC009 03/01 Q1019=
201111180820 METAR ESMX 180820Z 22004KT 8000 BR OVC007 03/01 Q1019=
201111180750 METAR ESMX 180750Z 23005KT 8000 BR OVC013 03/01 Q1019=
201111180720 METAR ESMX 180720Z 24004KT 8000 BR OVC013 02/01 Q1019=
201111180650 METAR ESMX 180650Z 23003KT 210V270 6000 BR OVC014 02/00 Q1019=
201111180620 METAR ESMX 180620Z 24004KT 7000 BR OVC015 02/00 Q1019=
201111180550 METAR ESMX 180550Z VRB02KT 8000 BR SCT015 OVC017 02/00 Q1019=
201111180520 METAR ESMX 180520Z 27004KT 7000 BR OVC011 03/00 Q1019=
201111180450 METAR ESMX 180450Z 27005KT 7000 BR OVC011 02/00 Q1019=
201111180420 METAR ESMX 180420Z 26007KT 230V290 7000 BR OVC011 03/00 Q1019=
201111180350 METAR ESMX 180350Z AUTO 27006KT 240V300 7000NDV BR OVC012/// 02/00 Q1019=
201111180320 METAR ESMX 180320Z AUTO 24004KT 200V260 5000NDV BR OVC013/// 02/01 Q1019=
201111180250 METAR ESMX 180250Z AUTO 23004KT 5000NDV BR OVC015/// 02/01 Q1019=
201111180220 METAR ESMX 180220Z AUTO 23003KT 5000NDV BR OVC015/// 02/00 Q1019=
201111180150 METAR ESMX 180150Z AUTO 22003KT 180V250 6000NDV BR OVC012/// 02/00 Q1019=
201111180120 METAR ESMX 180120Z AUTO 23003KT 200V260 6000NDV BR OVC011/// 02/00 Q1019=
201111180050 METAR ESMX 180050Z 21004KT 6000 BR OVC011 02/00 Q1019=
201111180020 METAR ESMX 180020Z VRB02KT 8000 BR OVC014 02/M00 Q1019=
201111172350 METAR ESMX 172350Z VRB02KT 8000 BR OVC013 02/M00 Q1019=
201111172320 METAR ESMX 172320Z 25003KT 210V280 8000 BR OVC013 02/M00 Q1019=
201111172250 METAR COR ESMX 172250Z 25003KT 8000 BR OVC013 02/M00 Q1019=
201111172220 METAR ESMX 172220Z 28003KT 250V020 7000 BR OVC012 02/M00 Q1019=
201111172150 METAR ESMX 172150Z 29006KT 7000 BR OVC009 02/M00 Q1019=
201111172120 METAR ESMX 172120Z 27005KT 240V310 6000 BR OVC010 02/01 Q1019=
201111172050 METAR ESMX 172050Z 27005KT 240V300 7000 BR OVC012 03/00 Q1019=
201111172020 METAR ESMX 172020Z 26003KT 7000 BR OVC012 02/01 Q1019=
201111171950 METAR ESMX 171950Z 26002KT 7000 BR OVC013 02/01 Q1019=
201111171920 METAR ESMX 171920Z 27002KT 7000 BR OVC013 03/01 Q1019=
201111171850 METAR ESMX 171850Z 28003KT 7000 BR OVC014 03/01 Q1019=
201111171820 METAR ESMX 171820Z VRB02KT 7000 BR OVC014 02/01 Q1019=
201111171750 METAR ESMX 171750Z VRB01KT 5000 BR OVC014 02/01 Q1019=
201111171720 METAR ESMX 171720Z VRB01KT 6000 BR OVC014 02/01 Q1019=
201111171650 METAR ESMX 171650Z VRB02KT 6000 BR OVC014 02/01 Q1019=
201111171620 METAR ESMX 171620Z 21002KT 6000 BR OVC015 02/01 Q1019=
201111171550 METAR ESMX 171550Z VRB02KT 6000 BR OVC015 02/01 Q1019=
201111171520 METAR ESMX 171520Z 22003KT 6000 BR OVC015 02/01 Q1019=
201111171450 METAR ESMX 171450Z 19004KT 7000 BR OVC017 02/01 Q1019=
201111171420 METAR ESMX 171420Z 19004KT 7000 BR OVC016 02/01 Q1019=
201111171350 METAR ESMX 171350Z 20004KT 7000 BR OVC017 03/01 Q1019=
201111171320 METAR ESMX 171320Z 19004KT 7000 BR OVC016 03/01 Q1020=
201111171250 METAR ESMX 171250Z 21004KT 6000 BR OVC014 03/01 Q1020=
201111171220 METAR ESMX 171220Z 22004KT 7000 BR OVC013 03/01 Q1020=
201111171150 METAR ESMX 171150Z 23004KT 200V260 9999 OVC009 03/01 Q1020=
201111171120 METAR ESMX 171120Z 26005KT 240V300 8000 BR OVC007 03/01 Q1020=
201111171050 METAR ESMX 171050Z 25003KT 220V280 9999 OVC010 03/01 Q1020=
201111171020 METAR ESMX 171020Z 22003KT 9999 OVC013 03/01 Q1020=
201111170950 METAR ESMX 170950Z 21003KT 9999 BKN014 03/01 Q1020=
201111170920 METAR ESMX 170920Z 21002KT 9999 OVC016 03/01 Q1020=
201111170850 METAR ESMX 170850Z VRB02KT 9999 BKN016 02/01 Q1020=
201111170820 METAR ESMX 170820Z 21003KT 9999 BKN018 02/01 Q1021=
201111170750 METAR ESMX 170750Z 22003KT 9999 BKN018 02/01 Q1021=
201111170720 METAR ESMX 170720Z VRB03G22KT 9999 OVC018 02/01 Q1021=
201111170650 METAR ESMX 170650Z 20002KT 9999 OVC020 02/01 Q1021=
201111170620 METAR ESMX 170620Z 19002KT 9999 OVC021 02/01 Q1021=
201111170550 METAR ESMX 170550Z 18003KT 9999 OVC022 02/01 Q1021=
201111170520 METAR ESMX 170520Z 19003KT 9999 OVC022 01/00 Q1021=
201111170450 METAR ESMX 170450Z 19003KT 9999 OVC022 01/00 Q1021=
201111170420 METAR ESMX 170420Z 20003KT 9999 OVC022 02/01 Q1021=
201111170350 METAR ESMX 170350Z AUTO 21003KT 6000NDV OVC023/// 01/01 Q1022=
201111170320 METAR ESMX 170320Z AUTO 22002KT 8000NDV OVC024/// 01/01 Q1022=
201111170250 METAR ESMX 170250Z AUTO 22004KT 9000NDV OVC023/// 01/00 Q1022=
201111170220 METAR ESMX 170220Z AUTO 22004KT 9999NDV OVC023/// 01/00 Q1022=
201111170150 METAR ESMX 170150Z AUTO 22003KT 9999NDV OVC024/// 01/00 Q1023=
201111170120 METAR ESMX 170120Z AUTO 22003KT 9999NDV OVC024/// 01/00 Q1023=
201111170050 METAR ESMX 170050Z 22003KT 9999 FEW007 OVC025 01/00 Q1023=
201111170020 METAR ESMX 170020Z 23003KT 9999 OVC026 00/M00 Q1023=
201111162350 METAR ESMX 162350Z 23002KT 9999 FEW009 OVC026 M00/M01 Q1024=
201111162320 METAR ESMX 162320Z 23002KT 9999 OVC025 M00/M01 Q1024=
201111162250 METAR ESMX 162250Z 23001KT 9999 OVC026 M00/M01 Q1024=
201111162220 METAR ESMX 162220Z 22002KT 9999 BKN026 M01/M01 Q1024=
201111162150 METAR ESMX 162150Z 22002KT 9999 BKN026 M01/M01 Q1024=
201111162120 METAR ESMX 162120Z 23003KT 9999 FEW022 BKN025 M02/M02 Q1025=
201111162050 METAR ESMX 162050Z 21002KT 9999 BCFG FEW019 M03/M03 Q1025=
201111162020 METAR ESMX 162020Z 23002KT CAVOK M02/M02 Q1025=
201111161950 METAR ESMX 161950Z 20003KT 9999 BCFG NSC M03/M03 Q1025=
201111161920 METAR ESMX 161920Z 19002KT 7000 BR BCFG NSC M02/M03 Q1025=
201111161850 METAR ESMX 161850Z 19003KT CAVOK M02/M03 Q1025=
201111161820 METAR ESMX 161820Z 19003KT CAVOK M02/M02 Q1025=
201111161750 METAR ESMX 161750Z 20004KT CAVOK M02/M03 Q1026=
201111161720 METAR ESMX 161720Z 19003KT CAVOK M02/M03 Q1026=
201111161650 METAR COR ESMX 161650Z 19003KT CAVOK M02/M02 Q1026=
201111161620 METAR ESMX 161620Z 19002KT CAVOK M01/M01 Q1026=
201111161550 METAR ESMX 161550Z 22003KT CAVOK M01/M01 Q1026=
201111161520 METAR ESMX 161520Z 18002KT CAVOK M00/M01 Q1026=
201111161450 METAR ESMX 161450Z 18002KT CAVOK 01/00 Q1026=
201111161420 METAR ESMX 161420Z 18002KT CAVOK 02/01 Q1027=
201111161350 METAR ESMX 161350Z 17002KT CAVOK 04/01 Q1027=
201111161320 METAR ESMX 161320Z 16002KT CAVOK 05/01 Q1027=
201111161250 METAR ESMX 161250Z 18001KT CAVOK 06/02 Q1027=
201111161220 METAR ESMX 161220Z VRB02KT CAVOK 05/02 Q1027=
201111161150 METAR ESMX 161150Z VRB01KT CAVOK 06/02 Q1028=
201111161120 METAR ESMX 161120Z 00000KT 9999 FEW001 05/03 Q1028=
201111161050 METAR ESMX 161050Z 00000KT 9999 FEW001 04/04 Q1028=
201111161020 METAR ESMX 161020Z 00000KT 9999 3000N BR SKC 02/02 Q1028=
201111160950 METAR ESMX 160950Z 00000KT 9999 3000N BR SKC 02/02 Q1028=
201111160920 METAR ESMX 160920Z 00000KT 9999 1000N R19/1000V1700U BCFG SKC 01/00 Q1028=
201111160850 METAR ESMX 160850Z 00000KT 9999 0500N R19/0700 BCFG SKC M02/M02 Q1028=
201111160820 METAR ESMX 160820Z 00000KT 9999 0200N R01/P2000N R19/0400N BCFG SKC M02/M03 Q1028=
201111160750 METAR ESMX 160750Z 00000KT 0100 R01/P2000N R19/0150V0225N FZFG VV002 M04/M05 Q1028=
201111160720 METAR ESMX 160720Z 00000KT 0150 R01/0800V1300N R19/0400N FZFG VV002 M05/M06 Q1028=
201111160650 METAR ESMX 160650Z 00000KT 0200 R01/P2000D R19/0550 FZFG VV002 M05/M05 Q1028=
201111160620 METAR ESMX 160620Z 00000KT 0450 R01/P2000N R19/0900V1300 FZFG VV002 M05/M06 Q1028=
201111160550 METAR ESMX 160550Z 00000KT 0250 R01/1100VP2000N R19/0900N FZFG VV002 M05/M05 Q1028=
201111160520 METAR ESMX 160520Z 00000KT 0100 R01/0350N R19/1700U FZFG VV002 M05/M05 Q1028=
201111160450 METAR ESMX 160450Z 00000KT 0100 R01/0800V1900U R19/0250V0375N FZFG VV002 M05/M05 Q1028=
201111160420 METAR ESMX 160420Z AUTO 00000KT 0100NDV R01/0400N R19/0600N FZFG VV000 M04/M05 Q1028=
201111160350 METAR ESMX 160350Z AUTO 11001KT 0550NDV R01/P2000D R19/P2000N FZFG VV001 M04/M04 Q1028=
201111160320 METAR ESMX 160320Z AUTO 00000KT 0700NDV R01/P2000N R19/P2000N FZFG NCD M04/M05 Q1028=
201111160250 METAR ESMX 160250Z AUTO 00000KT 0300NDV R01/P2000 R19/P2000N FZFG NCD M05/M05 Q1028=
201111160220 METAR ESMX 160220Z AUTO 00000KT 0700NDV R01/P2000N R19/P2000N FZFG NCD M04/M05 Q1028=
201111160150 METAR ESMX 160150Z AUTO 15001KT 3300NDV NCD M03/M04 Q1029=
201111160120 METAR ESMX 160120Z AUTO VRB01KT 1100NDV R01/P2000N R19/P2000N BCFG NCD M03/M04 Q1029=
201111160050 METAR ESMX 160050Z 29001KT 0650 R01/P2000N R19/P2000N NSC M04/M04 Q1029=
201111160020 METAR ESMX 160020Z 27001KT 2400 BR NSC M04/M04 Q1029=
201111152350 METAR ESMX 152350Z 30001KT 0400 R01/1000V1400D R19/P2000N FZFG NSC M03/M04 Q1029=
201111152320 METAR ESMX 152320Z 00000KT 0450 R01/0900VP2000D R19/P2000N FZFG NSC M03/M04 Q1028=
201111152250 METAR ESMX 152250Z 00000KT 0700 R01/P2000D R19/P2000N FZFG NSC M03/M04 Q1028=
201111152220 METAR ESMX 152220Z 07003KT CAVOK M02/M02 Q1028=
201111152150 METAR ESMX 152150Z 00000KT 0500 R01/P2000 R19/P2000N FZFG NSC M02/M03 Q1028=
201111152120 METAR ESMX 152120Z VRB01KT CAVOK M03/M03 Q1029=
201111152050 METAR ESMX 152050Z VRB01KT CAVOK M01/M02 Q1029=
201111152020 METAR ESMX 152020Z 01003KT CAVOK 00/M01 Q1028=
201111151950 METAR ESMX 151950Z 36002KT CAVOK 01/M00 Q1028=
201111151920 METAR ESMX 151920Z 03003KT CAVOK 01/M00 Q1028=
201111151850 METAR ESMX 151850Z 02004KT CAVOK 01/00 Q1028=
201111151820 METAR ESMX 151820Z 02004KT CAVOK 02/00 Q1028=
201111151750 METAR COR ESMX 151750Z 01006KT CAVOK 02/01 Q1028=
201111151720 METAR ESMX 151720Z 02006KT CAVOK 02/00 Q1028=
201111151650 METAR ESMX 151650Z 02006KT CAVOK 03/01 Q1028=
201111151620 METAR ESMX 151620Z 02005KT CAVOK 03/01 Q1028=
201111151550 METAR ESMX 151550Z 02005KT CAVOK 03/00 Q1028=
201111151520 METAR ESMX 151520Z 02005KT CAVOK 03/00 Q1027=
201111151450 METAR ESMX 151450Z 01005KT CAVOK 04/01 Q1027=
201111151420 METAR ESMX 151420Z 36006KT CAVOK 05/01 Q1027=
201111151350 METAR ESMX 151350Z 01006KT CAVOK 06/01 Q1027=
201111151320 METAR ESMX 151320Z 01007KT CAVOK 07/01 Q1027=
201111151250 METAR ESMX 151250Z 01008KT 330V030 CAVOK 07/01 Q1027=
201111151220 METAR ESMX 151220Z 36006KT CAVOK 07/01 Q1027=
201111151150 METAR ESMX 151150Z 01007KT CAVOK 07/02 Q1027=
201111151120 METAR ESMX 151120Z 01006KT 340V040 CAVOK 06/02 Q1027=
201111151050 METAR ESMX 151050Z 01007KT CAVOK 06/02 Q1027=
201111151020 METAR ESMX 151020Z 01006KT 330V030 CAVOK 06/02 Q1027=
201111150950 METAR ESMX 150950Z 01006KT CAVOK 05/02 Q1027=
201111150920 METAR ESMX 150920Z 01004KT CAVOK 04/02 Q1027=
201111150850 METAR ESMX 150850Z 01005KT CAVOK 03/01 Q1027=
201111150820 METAR ESMX 150820Z 36006KT CAVOK 02/01 Q1027=
201111150750 METAR ESMX 150750Z 35004KT CAVOK 01/00 Q1027=
201111150720 METAR ESMX 150720Z 35005KT CAVOK 01/00 Q1027=
201111150650 METAR ESMX 150650Z 35005KT CAVOK M00/M01 Q1026=
201111150620 METAR ESMX 150620Z 36003KT CAVOK M00/M01 Q1026=
201111150550 METAR ESMX 150550Z 00000KT CAVOK M02/M02 Q1026=
201111150520 METAR ESMX 150520Z VRB01KT CAVOK M01/M02 Q1026=
201111150450 METAR ESMX 150450Z 32004KT CAVOK M01/M02 Q1026=
201111150420 METAR ESMX 150420Z AUTO 31005KT 9999NDV NCD M01/M02 Q1026=
201111150350 METAR ESMX 150350Z AUTO 33005KT 300V360 9999NDV NCD M02/M02 Q1026=
201111150320 METAR ESMX 150320Z AUTO VRB02KT 9999NDV NCD M01/M02 Q1026=
201111150250 METAR ESMX 150250Z AUTO 28003KT 250V320 9999NDV NCD M01/M02 Q1026=
201111150220 METAR ESMX 150220Z AUTO 33002KT 9999NDV NCD M01/M02 Q1025=
201111150150 METAR ESMX 150150Z AUTO 36002KT 9999NDV NCD M00/M01 Q1026=
201111150120 METAR ESMX 150120Z AUTO VRB02KT 9999NDV NCD M00/M01 Q1026=
201111150050 METAR ESMX 150050Z AUTO 33005KT 9999NDV NCD M00/M01 Q1026=
201111150020 METAR ESMX 150020Z 33007KT CAVOK 01/M01 Q1026=
201111142350 METAR ESMX 142350Z 30007KT CAVOK 01/M01 Q1026=
201111142320 METAR ESMX 142320Z 28005KT CAVOK M01/M02 Q1026=
201111142250 METAR ESMX 142250Z 28004KT CAVOK 01/M00 Q1026=
201111142220 METAR ESMX 142220Z 25003KT CAVOK M00/M01 Q1026=
201111142150 METAR ESMX 142150Z 34005KT 9000 BR NSC M00/M01 Q1026=
201111142120 METAR ESMX 142120Z VRB02KT CAVOK 00/M00 Q1026=
201111142050 METAR ESMX 142050Z 29003KT 8000 BR NSC 01/M00 Q1026=
201111142020 METAR ESMX 142020Z VRB02KT CAVOK 01/00 Q1026=
201111141950 METAR ESMX 141950Z VRB02KT CAVOK 02/01 Q1026=
201111141920 METAR ESMX 141920Z 28005KT CAVOK 02/01 Q1026=
201111141850 METAR ESMX 141850Z 30006KT CAVOK 02/01 Q1026=
201111141820 METAR ESMX 141820Z 30006KT CAVOK 02/01 Q1027=
201111141750 METAR ESMX 141750Z 29005KT CAVOK 03/02 Q1027=
201111141720 METAR ESMX 141720Z 27004KT CAVOK 03/02 Q1027=
201111141650 METAR ESMX 141650Z 28004KT CAVOK 03/02 Q1027=
201111141620 METAR ESMX 141620Z 27004KT CAVOK 03/02 Q1027=
201111141550 METAR ESMX 141550Z 26004KT CAVOK 03/01 Q1027=
201111141520 METAR ESMX 141520Z 26003KT CAVOK 04/02 Q1027=
201111141450 METAR ESMX 141450Z 29004KT CAVOK 05/02 Q1027=
201111141420 METAR ESMX 141420Z 30003KT 270V340 CAVOK 06/02 Q1027=
201111141350 METAR ESMX 141350Z 30005KT CAVOK 06/03 Q1027=
201111141320 METAR ESMX 141320Z 31004KT 270V330 CAVOK 06/03 Q1027=
201111141250 METAR ESMX 141250Z 28005KT 240V320 CAVOK 06/03 Q1027=
201111141220 METAR ESMX 141220Z 28005KT 250V320 CAVOK 06/03 Q1028=
201111141150 METAR ESMX 141150Z 28006KT CAVOK 06/03 Q1028=
201111141120 METAR ESMX 141120Z 28007KT 240V300 9999 FEW006 05/03 Q1028=
201111141050 METAR ESMX 141050Z 31006KT 260V350 9999 BKN006 05/03 Q1028=
201111141020 METAR ESMX 141020Z 29003KT 250V330 9999 BKN006 05/03 Q1028=
201111140950 METAR ESMX 140950Z 29004KT 9999 OVC006 04/03 Q1029=
201111140920 METAR ESMX 140920Z 30004KT 260V350 9999 BR BKN005 04/03 Q1029=
201111140850 METAR ESMX 140850Z 32005KT 300V360 8000 BR BKN004 04/03 Q1029=
201111140820 METAR ESMX 140820Z 33006KT 300V010 7000 BR OVC004 04/03 Q1029=
201111140750 METAR ESMX 140750Z 33005KT 300V010 7000 BR OVC004 04/03 Q1029=
201111140720 METAR ESMX 140720Z 34005KT 7000 BR BKN005 04/03 Q1029=
201111140650 METAR ESMX 140650Z 31004KT 280V350 7000 BR OVC005 04/03 Q1029=
201111140620 METAR ESMX 140620Z 34004KT 300V010 7000 BR BKN005 04/03 Q1029=
201111140550 METAR ESMX 140550Z 31006KT 280V350 7000 BR BKN005 04/03 Q1029=
201111140520 METAR ESMX 140520Z 32006KT 280V350 7000 BR OVC005 04/03 Q1029=
201111140450 METAR ESMX 140450Z 31005KT 6000 BR OVC005 04/03 Q1028=
201111140420 METAR ESMX 140420Z AUTO 31005KT 280V350 7000NDV BR OVC005/// 04/03 Q1029=
201111140350 METAR ESMX 140350Z AUTO 30003KT 260V350 7000NDV BR OVC006/// 04/03 Q1029=
201111140320 METAR ESMX 140320Z AUTO 31004KT 7000NDV BR OVC006/// 04/03 Q1029=
201111140250 METAR ESMX 140250Z AUTO 30005KT 8000NDV BR OVC006/// 04/03 Q1029=
201111140220 METAR ESMX 140220Z AUTO 30004KT 8000NDV BR OVC006/// 04/03 Q1030=
201111140150 METAR ESMX 140150Z AUTO 31004KT 250V350 8000NDV BR OVC006/// 04/03 Q1030=
201111140120 METAR ESMX 140120Z AUTO 31004KT 270V360 8000NDV BR OVC006/// 04/03 Q1030=
201111140050 METAR ESMX 140050Z AUTO 31005KT 280V350 7000NDV BR OVC006/// 04/03 Q1031=
201111140020 METAR ESMX 140020Z AUTO 32004KT 290V010 8000NDV BR OVC006/// 04/03 Q1030=
201111132350 METAR ESMX 132350Z 31006KT 7000 BR OVC006 04/03 Q1031=
201111132320 METAR ESMX 132320Z 30004KT 7000 BR OVC006 04/03 Q1031=
201111132250 METAR ESMX 132250Z 32005KT 7000 BR OVC006 04/03 Q1031=
201111132220 METAR ESMX 132220Z VRB02KT 7000 BR OVC007 04/03 Q1031=
201111132150 METAR ESMX 132150Z 33003KT 290V010 7000 BR OVC007 04/03 Q1031=
201111132120 METAR ESMX 132120Z 32004KT 7000 BR OVC007 04/03 Q1032=
201111132050 METAR ESMX 132050Z 31003KT 290V350 7000 BR OVC007 04/03 Q1032=
201111132020 METAR ESMX 132020Z 32003KT 280V340 7000 BR OVC008 04/03 Q1032=
201111131950 METAR ESMX 131950Z 30004KT 6000 BR OVC008 04/03 Q1033=
201111131920 METAR ESMX 131920Z 31005KT 290V350 6000 BR OVC008 04/03 Q1033=
201111131850 METAR ESMX 131850Z 29004KT 6000 BR OVC008 04/02 Q1033=
201111131820 METAR ESMX 131820Z 30004KT 6000 BR OVC009 04/02 Q1033=
201111131750 METAR ESMX 131750Z 27003KT 4900 BR OVC010 03/02 Q1033=
201111131720 METAR ESMX 131720Z 26003KT 4900 BR OVC011 03/02 Q1033=
201111131650 METAR ESMX 131650Z 28003KT 4500 BR OVC011 03/02 Q1033=
201111131620 METAR ESMX 131620Z 29004KT 5000 BR OVC008 03/02 Q1033=
201111131550 METAR ESMX 131550Z 28002KT 5000 BR OVC008 03/02 Q1034=
201111131520 METAR ESMX 131520Z 29003KT 260V330 5000 BR OVC008 03/02 Q1034=
201111131450 METAR ESMX 131450Z 31004KT 5000 BR OVC009 03/02 Q1034=
201111131420 METAR ESMX 131420Z 30005KT 280V340 5000 BR OVC010 03/02 Q1034=
201111131350 METAR ESMX 131350Z 32006KT 290V350 6000 BR OVC010 03/03 Q1034=
201111131320 METAR ESMX 131320Z 29005KT 250V320 5000 BR OVC012 03/03 Q1034=
201111131250 METAR ESMX 131250Z AUTO 28004KT 250V320 5000NDV BR OVC014/// 03/02 Q1034=
201111131220 METAR ESMX 131220Z AUTO 29003KT 250V330 4900NDV BR OVC011/// 03/02 Q1035=
201111131150 METAR ESMX 131150Z AUTO 27003KT 220V290 4600NDV BR OVC011/// 02/02 Q1035=
201111131120 METAR ESMX 131120Z AUTO 27003KT 240V300 4500NDV BR OVC012/// 02/02 Q1035=
201111131050 METAR ESMX 131050Z AUTO 30003KT 270V340 3700NDV BR FEW009/// OVC012/// 02/02 Q1035=
201111131020 METAR ESMX 131020Z AUTO VRB02KT 3100NDV BR OVC010/// 02/01 Q1035=
201111130950 METAR ESMX 130950Z AUTO 25003KT 3500NDV BR OVC012/// 02/01 Q1036=
201111130920 METAR ESMX 130920Z AUTO 26003KT 3700NDV BR OVC012/// 01/01 Q1035=
201111130850 METAR ESMX 130850Z AUTO 23002KT 3900NDV OVC013/// 01/01 Q1035=
201111130820 METAR ESMX 130820Z AUTO 19003KT 2900NDV OVC012/// 01/00 Q1036=
201111130750 METAR ESMX 130750Z AUTO 00000KT 0900NDV R01/1200VP2000U R19/P2000N FG FEW001/// OVC012/// 01/00 Q1036=
201111130720 METAR ESMX 130720Z AUTO 11002KT 0700NDV R01/1400N R19/1700U FG BKN001/// OVC011/// 00/M00 Q1036=
201111130650 METAR ESMX 130650Z AUTO 11001KT 0350NDV R01/1000N R19/1000V1400N FG VV001 00/M00 Q1036=
201111130620 METAR ESMX 130620Z AUTO 11003KT 0150NDV R01/0650N R19/0700N FZFG VV001 00/M00 Q1036=
201111130550 METAR ESMX 130550Z AUTO 11003KT 0300NDV R01/P2000N R19/1100N FG VV001 00/M00 Q1035=
201111130520 METAR ESMX 130520Z AUTO 11001KT 0200NDV R01/0800 R19/0750 FG BKN001/// OVC002/// 00/M00 Q1036=
201111130450 METAR ESMX 130450Z AUTO 00000KT 0100NDV R01/0450N R19/0600N FG VV001 00/M00 Q1036=
201111130420 METAR ESMX 130420Z AUTO VRB02KT 0100NDV R01/0450N R19/0600 FG VV000 00/M00 Q1036=
201111130350 METAR ESMX 130350Z AUTO VRB02KT 0150NDV R01/0550N R19/0650N FG VV000 00/00 Q1036=
201111130320 METAR ESMX 130320Z AUTO 22003KT 0150NDV R01/0600 R19/0650 FG VV000 01/00 Q1036=
201111130250 METAR ESMX 130250Z AUTO 14003KT 100V170 0150NDV R01/0650N R19/0750 -DZ VV000 01/00 Q1036=
201111130220 METAR ESMX 130220Z AUTO VRB02KT 0150NDV R01/0650N R19/0600V0900U FG VV000 01/00 Q1036 RESG=
201111130150 METAR ESMX 130150Z AUTO VRB02KT 0100NDV R01/0400N R19/0550 SG VV000 00/M00 Q1036=
201111130120 METAR ESMX 130120Z AUTO VRB01KT 0050NDV R01/0250N R19/0300N UP VV000 00/M00 Q1037=
201111130050 METAR ESMX 130050Z AUTO VRB01KT 0100NDV R01/0700 R19/0325 FG VV000 00/M00 Q1037=
201111130020 METAR ESMX 130020Z AUTO 29003KT 0200NDV R01/0800V1900U R19/0800V1600 FZFG VV000 M00/M01 Q1038=
201111122350 METAR ESMX 122350Z AUTO VRB02KT 0300NDV R01/0800V1900D R19/P2000D=
201111122320 METAR ESMX 122320Z AUTO VRB02KT 0400NDV R01/P2000N R19/0900VP2000D=
201111122250 METAR ESMX 122250Z AUTO VRB02KT 2700NDV FEW002/// M01/M01 Q1037=
201111122220 METAR ESMX 122220Z AUTO VRB01KT 0500NDV R01/P2000N R19/1200VP2000U FEW000/// SCT004/// M02/M02 Q1037=
201111122150 METAR ESMX 122150Z AUTO VRB01KT 0200NDV R01/0750 R19/0600VP2000U BCFG NCD M01/M01 Q1038=
201111122120 METAR ESMX 122120Z AUTO 16002KT 2500NDV SCT001/// 00/M00 Q1038=
201111122050 METAR ESMX 122050Z AUTO VRB02KT 2600NDV OVC001/// 01/01 Q1037=
201111122020 METAR ESMX 122020Z AUTO 14003KT 090V170 0600NDV R01/1800N R19/P2000N FG VV001 01/01 Q1037=
201111121950 METAR ESMX 121950Z AUTO 13003KT 090V190 1200NDV R01/P2000N R19/P2000N VV001 01/01 Q1037=
201111121920 METAR ESMX 121920Z AUTO 11003KT 070V160 0500NDV R01/0900VP2000N R19/1500N FG VV001 01/01 Q1037 REUP RESG=
201111121850 METAR ESMX 121850Z AUTO VRB02KT 0350NDV R01/0700 R19/1500N FG VV001 01/01 Q1038=
201111121820 METAR ESMX 121820Z AUTO VRB02KT 0600NDV R01/0800VP2000 R19/P2000N FG NCD 00/M00 Q1038=
201111121750 METAR ESMX 121750Z AUTO 00000KT 0600NDV R01/P2000D R19/P2000N FZFG NCD M00/M00 Q1038=
201111121720 METAR ESMX 121720Z AUTO VRB02KT 3100NDV BR NCD 01/01 Q1038=
201111121650 METAR ESMX 121650Z AUTO VRB01KT 1400NDV R01/P2000N R19/P2000N BR NCD 00/M00 Q1038=
201111121620 METAR ESMX 121620Z AUTO 11003KT 4700NDV BR NCD 01/00 Q1038=
201111121550 METAR ESMX 121550Z AUTO VRB02KT 5000NDV BR NCD 02/01 Q1038=
201111121520 METAR ESMX 121520Z AUTO VRB01KT 9999NDV NCD 04/02 Q1037=
201111121450 METAR ESMX 121450Z AUTO VRB02KT 9999NDV NCD 05/02 Q1037=
201111121420 METAR ESMX 121420Z AUTO 14003KT 110V180 9999NDV NCD 06/03 Q1037=
201111121350 METAR ESMX 121350Z AUTO 15005KT 110V190 9999NDV NCD 07/03 Q1037=
201111121320 METAR ESMX 121320Z AUTO 14004KT 080V220 9999NDV NCD 07/03 Q1037=
201111121250 METAR ESMX 121250Z AUTO 15004KT 080V200 9999NDV NCD 07/03 Q1037=
201111121220 METAR ESMX 121220Z AUTO 16006KT 130V210 9999NDV NCD 07/03 Q1038=
201111121150 METAR ESMX 121150Z AUTO 14007KT 110V190 9999NDV NCD 06/03 Q1037=
201111121120 METAR ESMX 121120Z AUTO 15006KT 100V190 9999NDV NCD 06/03 Q1038=
201111121050 METAR ESMX 121050Z AUTO 14005KT 070V180 9999NDV NCD 05/03 Q1038=
201111121020 METAR ESMX 121020Z AUTO 13005KT 080V160 9999NDV NCD 05/02 Q1038=
201111120950 METAR ESMX 120950Z AUTO 15004KT 100V190 9000NDV NCD 04/03 Q1038=
201111120920 METAR ESMX 120920Z AUTO VRB02KT 6000NDV NCD 03/02 Q1038=
201111120850 METAR ESMX 120850Z AUTO 14001KT 1400NDV R01/1100VP2000U R19/P2000N SCT000/// 01/01 Q1038=
201111120820 METAR ESMX 120820Z AUTO VRB02KT 0350NDV R01/0700N R19/0650N FG VV001 00/M00 Q1038=
201111120750 METAR ESMX 120750Z AUTO 00000KT 0350NDV R01/0700N R19/0900 FZFG VV001 M01/M01 Q1038=
201111120720 METAR ESMX 120720Z AUTO 00000KT 0100NDV R01/0275N R19/0400V0650N=
201111120650 METAR ESMX 120650Z AUTO 00000KT 0100NDV R01/0200V0300N R19/0300=
201111120620 METAR ESMX 120620Z AUTO VRB01KT 0100NDV R01/0400N R19/0500 FZFG VV000 M00/M01 Q1037=
201111120550 METAR ESMX 120550Z AUTO VRB01KT 0100NDV R01/0500N R19/1000VP2000D BCFG SCT001/// 00/M00 Q1037=
201111120520 METAR ESMX 120520Z AUTO 12002KT 0750NDV R01/P2000N R19/P2000N BCFG NCD M01/M01 Q1037=
201111120450 METAR ESMX 120450Z AUTO VRB02KT 0800NDV R01/P2000N R19/P2000N FZFG NCD M00/M01 Q1037=
201111120420 METAR ESMX 120420Z AUTO VRB02KT 1300NDV R01/P2000N R19/P2000N BR FEW002/// 01/00 Q1037=
201111120350 METAR ESMX 120350Z AUTO 08003KT 1400NDV R01/P2000N R19/P2000N BR NCD 00/M00 Q1037=
201111120320 METAR ESMX 120320Z AUTO 09003KT 1400NDV R01/P2000N R19/P2000N BR FEW002/// 01/00 Q1037=
201111120250 METAR ESMX 120250Z AUTO VRB02KT 2700NDV BR FEW003/// 02/01 Q1037=
201111120220 METAR ESMX 120220Z AUTO 09003KT 4300NDV BR NCD 01/01 Q1037=
201111120150 METAR ESMX 120150Z AUTO 09003KT 4200NDV BR BKN011/// 02/01 Q1037=
201111120120 METAR ESMX 120120Z AUTO 08002KT 7000NDV BR OVC010/// 03/02 Q1037=
201111120050 METAR ESMX 120050Z AUTO 07002KT 8000NDV BR OVC009/// 03/02 Q1037=
201111120020 METAR ESMX 120020Z AUTO 07002KT 8000NDV BR OVC008/// 03/02 Q1037=
201111112350 METAR ESMX 112350Z AUTO VRB01KT 7000NDV BR OVC008/// 03/02 Q1037=
201111112320 METAR ESMX 112320Z AUTO VRB02KT 5000NDV BR FEW004/// SCT005/// BKN007/// 03/02 Q1037=
201111112250 METAR ESMX 112250Z AUTO VRB02KT 5000NDV BR OVC003/// 02/01 Q1037=
201111112220 METAR ESMX 112220Z AUTO 13003KT 030V170 5000NDV BR OVC003/// 02/01 Q1037=
201111112150 METAR ESMX 112150Z AUTO 14005KT 100V170 7000NDV BR OVC005/// 02/01 Q1037=
201111112120 METAR ESMX 112120Z AUTO 17005KT 140V200 8000NDV BR OVC005/// 02/01 Q1037=
201111112050 METAR ESMX 112050Z AUTO 14005KT 100V200 9000NDV BR OVC005/// 02/01 Q1037=
201111112020 METAR ESMX 112020Z 15005KT 120V220 9000 BR OVC005 02/01 Q1037=
201111111950 METAR ESMX 111950Z 15005KT 090V190 8000 BR OVC004 02/01 Q1037=
201111111920 METAR ESMX 111920Z 13004KT 070V170 9000 BR OVC005 03/02 Q1037=
201111111850 METAR ESMX 111850Z 14007KT 100V170 9000 BKN004 03/02 Q1036=
201111111820 METAR ESMX 111820Z 13004KT 090V170 CAVOK 03/02 Q1037=
201111111750 METAR ESMX 111750Z 13005KT 080V190 CAVOK 03/02 Q1036=
201111111720 METAR ESMX 111720Z 11003KT 070V160 CAVOK 03/02 Q1036=
201111111650 METAR ESMX 111650Z 11003KT 050V150 CAVOK 03/01 Q1036=
201111111620 METAR ESMX 111620Z 11003KT 070V160 CAVOK 03/01 Q1036=
201111111550 METAR ESMX 111550Z 12003KT CAVOK 02/01 Q1036=
201111111520 METAR ESMX 111520Z VRB02KT CAVOK 04/01 Q1036=
201111111450 METAR ESMX 111450Z VRB02KT CAVOK 06/02 Q1036=
201111111420 METAR ESMX 111420Z 09003KT CAVOK 07/02 Q1036=
201111111350 METAR ESMX 111350Z VRB02KT CAVOK 08/02 Q1036=
201111111320 METAR ESMX 111320Z VRB02KT CAVOK 08/02 Q1036=
201111111250 METAR ESMX 111250Z 14003KT 100V190 CAVOK 08/02 Q1037=
201111111220 METAR ESMX 111220Z 16004KT 110V210 CAVOK 08/03 Q1037=
201111111150 METAR ESMX 111150Z 14004KT 100V210 CAVOK 07/02 Q1037=
201111111120 METAR ESMX 111120Z 15004KT 100V190 CAVOK 07/02 Q1037=
201111111050 METAR ESMX 111050Z 12004KT 010V170 CAVOK 07/02 Q1037=
201111111020 METAR ESMX 111020Z 16004KT 120V200 CAVOK 07/02 Q1037=
201111110950 METAR ESMX 110950Z 14004KT 070V190 9999 FEW013 06/02 Q1037=
201111110920 METAR ESMX 110920Z 12004KT 060V180 9999 SCT012 05/02 Q1038=
201111110850 METAR ESMX 110850Z 14004KT 070V190 9999 BKN012 05/02 Q1038=
201111110820 METAR ESMX 110820Z 14004KT 080V170 9999 BKN013 05/02 Q1038=
201111110750 METAR ESMX 110750Z 12003KT 050V170 9999 BKN014 05/02 Q1037=
201111110720 METAR ESMX 110720Z 11003KT 070V190 9999 BKN014 04/02 Q1037=
201111110650 METAR ESMX 110650Z 11003KT 030V170 9999 BKN012 04/02 Q1037=
201111110620 METAR ESMX 110620Z 14004KT 090V170 9999 OVC012 04/02 Q1037=
201111110550 METAR ESMX 110550Z 12003KT 060V190 9999 OVC010 04/02 Q1036=
201111110520 METAR ESMX 110520Z 13005KT 080V170 9999 OVC010 04/02 Q1036=
201111110450 METAR ESMX 110450Z 13003KT 030V190 9999 OVC010 04/02 Q1036=
201111110420 METAR ESMX 110420Z AUTO 14005KT 080V200 9999NDV OVC010/// 04/02 Q1036=
201111110350 METAR ESMX 110350Z AUTO 15004KT 100V190 9999NDV OVC010/// 04/02 Q1036=
201111110320 METAR ESMX 110320Z AUTO 12004KT 050V160 9999NDV OVC010/// 04/02 Q1036=
201111110250 METAR ESMX 110250Z AUTO 11004KT 070V160 9999NDV OVC010/// 04/02 Q1036=
201111110220 METAR ESMX 110220Z AUTO 12003KT 040V190 9999NDV OVC010/// 04/02 Q1036=
201111110150 METAR ESMX 110150Z AUTO 12003KT 080V160 9999NDV OVC009/// 04/02 Q1036=
201111110120 METAR ESMX 110120Z AUTO 11003KT 020V160 9999NDV OVC009/// 04/02 Q1036=
201111110050 METAR ESMX 110050Z AUTO 12004KT 070V170 9999NDV OVC009/// 04/02 Q1036=
201111110020 METAR ESMX 110020Z 14005KT 080V170 9999 BKN009 03/01 Q1036=
201111102350 METAR ESMX 102350Z 12004KT 060V160 9999 OVC009 04/01 Q1036=
201111102320 METAR ESMX 102320Z 12003KT 050V170 9999 BKN009 04/01 Q1036=
201111102250 METAR ESMX 102250Z 12003KT 060V170 9999 OVC009 03/01 Q1035=
201111102220 METAR ESMX 102220Z 11003KT 040V170 9999 OVC009 03/01 Q1035=
201111102150 METAR ESMX 102150Z VRB05KT 9999 OVC009 04/01 Q1035=
201111102120 METAR ESMX 102120Z 11003KT 060V160 9999 OVC009 04/02 Q1035=
201111102050 METAR ESMX 102050Z 12003KT 060V160 9999 BKN008 04/02 Q1035=
201111102020 METAR ESMX 102020Z 10004KT 050V170 9999 BKN009 04/02 Q1035=
201111101950 METAR ESMX 101950Z 10005KT 050V150 9999 BKN009 04/02 Q1035=
201111101920 METAR ESMX 101920Z 10004KT 060V160 9999 BKN010 04/02 Q1034=
201111101850 METAR ESMX 101850Z 10004KT 060V150 9999 OVC011 05/02 Q1034=
201111101820 METAR ESMX 101820Z 11004KT 040V160 9999 BKN012 05/03 Q1034=
201111101750 METAR ESMX 101750Z 11003KT 030V160 9999 BKN013 05/03 Q1034=
201111101720 METAR ESMX 101720Z 09004KT 050V140 9999 BKN013 05/03 Q1034=
201111101650 METAR ESMX 101650Z 09003KT 050V120 9999 BKN015 05/03 Q1033=
201111101620 METAR ESMX 101620Z 09003KT 060V130 9999 SCT016 05/03 Q1033=
201111101550 METAR ESMX 101550Z 10004KT 050V160 9999 BKN013 06/03 Q1033=
201111101520 METAR ESMX 101520Z 11003KT 060V190 9999 BKN014 06/03 Q1033=
201111101450 METAR ESMX 101450Z 11005KT 050V170 9999 BKN014 06/04 Q1033=
201111101420 METAR ESMX 101420Z 11005KT 060V160 9999 SCT015 07/04 Q1033=
201111101350 METAR ESMX 101350Z 11003KT 060V170 9999 FEW013 07/04 Q1033=
201111101320 METAR ESMX 101320Z 12003KT 050V180 9999 FEW011 08/04 Q1033=
201111101250 METAR ESMX 101250Z 12004KT 060V170 9999 FEW010 08/04 Q1033=
201111101220 METAR ESMX 101220Z VRB02KT 9999 FEW007 07/04 Q1033=
201111101150 METAR ESMX 101150Z 13003KT 080V170 9999 SCT007 SCT009 06/04 Q1033=
201111101120 METAR ESMX 101120Z 13005KT 050V180 9999 SCT007 06/04 Q1033=
201111101050 METAR ESMX 101050Z 11004KT 030V160 9999 BKN005 06/05 Q1033=
201111101020 METAR ESMX 101020Z 13004KT 080V190 8000 BR BKN004 OVC006 06/05 Q1033=
201111100950 METAR ESMX 100950Z 13004KT 080V180 7000 BR FEW001 BKN004 OVC007 06/05 Q1033=
201111100920 METAR ESMX 100920Z 14004KT 100V170 9999 BKN003 BKN005 05/05 Q1033=
201111100850 METAR ESMX 100850Z 15004KT 120V220 7000 BR FEW002 BKN003 05/05 Q1032=
201111100820 METAR ESMX 100820Z 14003KT 090V170 1900 BR VV002 05/05 Q1032=
201111100750 METAR ESMX 100750Z 15003KT 110V210 1400 R01/P2000N R19/P2000D BR VV002 05/04 Q1032=
201111100720 METAR ESMX 100720Z 12003KT 070V150 1500 BR VV002 05/04 Q1032=
201111100650 METAR ESMX 100650Z VRB02KT 3000 BR OVC002 05/04 Q1032=
201111100620 METAR ESMX 100620Z VRB02KT 3200 BR OVC002 05/04 Q1031=
201111100550 METAR ESMX 100550Z VRB02KT 5000 BR BKN001 OVC003 05/04 Q1031=
201111100520 METAR ESMX 100520Z 10003KT 050V160 5000 BR OVC002 05/05 Q1031=
201111100450 METAR ESMX 100450Z VRB02KT 6000 BR OVC002 05/05 Q1031=
201111100420 METAR ESMX 100420Z AUTO 12003KT 070V170 9999NDV FEW004/// BKN005/// 05/05 Q1031=
201111100350 METAR ESMX 100350Z AUTO VRB01KT 9999NDV OVC018/// 06/05 Q1031=
201111100320 METAR ESMX 100320Z AUTO VRB01KT 9999NDV OVC016/// 06/06 Q1030=
201111100250 METAR ESMX 100250Z AUTO VRB01KT 9999NDV OVC014/// 06/06 Q1030=
201111100220 METAR ESMX 100220Z AUTO VRB01KT 9999NDV FEW004/// OVC012/// 06/06 Q1030=
201111100150 METAR ESMX 100150Z AUTO VRB02KT 9999NDV FEW002/// SCT004/// BKN005/// 06/06 Q1030=
201111100120 METAR ESMX 100120Z AUTO VRB02KT 5000NDV BR BKN001/// OVC005/// 06/05 Q1030=
201111100050 METAR ESMX 100050Z AUTO VRB01KT 4800NDV BR OVC001/// 06/05 Q1030=
201111100020 METAR ESMX 100020Z VRB01KT 5000 BR OVC002 05/05 Q1030=
201111092350 METAR ESMX 092350Z VRB01KT 3600 BR OVC002 05/05 Q1030=
201111092320 METAR ESMX 092320Z VRB01KT 3000 BR FEW001 OVC003 05/04 Q1030=
201111092250 METAR ESMX 092250Z VRB02KT 4500 BR FEW002 SCT003 BKN006 05/04 Q1030=
201111092220 METAR ESMX 092220Z VRB02KT 5000 FEW001 SCT002 BKN004 04/04 Q1030=
201111092150 METAR ESMX 092150Z VRB02KT 2000 OVC002 04/04 Q1030=
201111092120 METAR ESMX 092120Z VRB02KT 0650 R01/P2000N R19/P2000N FG VV002 04/04 Q1030=
201111092050 METAR ESMX 092050Z VRB03KT 1600 OVC002 04/04 Q1030=
201111092020 METAR ESMX 092020Z 12004KT 030V160 1500 R01/P2000N R19/P2000N VV002 04/04 Q1030=
201111091950 METAR ESMX 091950Z 12004KT 080V170 0800 R01/P2000N R19/P2000N FG VV002 04/04 Q1030=
201111091920 METAR ESMX 091920Z 14005KT 100V230 0900 R01/P2000N R19/P2000N VV002 04/04 Q1029=
201111091850 METAR ESMX 091850Z 09003KT 050V140 0750 R01/P2000N R19/P2000N FG VV002 04/04 Q1029=
201111091820 METAR ESMX 091820Z VRB01KT 2200 BR VV002 05/04 Q1029=
201111091750 METAR ESMX 091750Z 09003KT 030V130 2000 BR VV002 05/04 Q1029=
201111091720 METAR ESMX 091720Z VRB02KT 8000 BR OVC002 05/04 Q1029=
201111091650 METAR ESMX 091650Z 13003KT 070V190 8000 BR OVC002 05/04 Q1028=
201111091620 METAR ESMX 091620Z 11003KT 050V160 9000 BR OVC002 05/04 Q1028=
201111091550 METAR ESMX 091550Z 13003KT 070V170 9999 SCT002 BKN003 05/04 Q1028=
201111091520 METAR ESMX 091520Z 12003KT 070V160 9999 BKN002 OVC003 05/04 Q1028=
201111091450 METAR ESMX 091450Z 14003KT 090V170 9999 SCT003 OVC004 05/04 Q1028=
201111091420 METAR ESMX 091420Z 13003KT 080V170 9999 BKN004 06/04 Q1028=
201111091350 METAR ESMX 091350Z VRB02KT 9999 BKN004 06/04 Q1028=
201111091320 METAR ESMX 091320Z 11003KT 030V170 9999 BKN004 06/04 Q1028=
201111091250 METAR ESMX 091250Z 12003KT 070V190 9999 BKN004 06/04 Q1028=
201111091220 METAR ESMX 091220Z 16003KT 100V210 9999 SCT006 06/04 Q1028=
201111091150 METAR ESMX 091150Z 15003KT 060V200 9999 SCT005 06/04 Q1028=
201111091120 METAR ESMX 091120Z 11004KT 060V200 9999 BKN003 06/05 Q1027=
201111091050 METAR ESMX 091050Z 10003KT 030V160 9000 BR BKN003 OVC004 04/04 Q1028=
201111091020 METAR ESMX 091020Z VRB02KT 7000 OVC003 04/03 Q1028=
201111090950 METAR ESMX 090950Z VRB01KT 5000 VV002 03/03 Q1027=
201111090920 METAR COR ESMX 090920Z 06005KT 020V120 1100 R01/0900VP2000U R19/1200VP2000D FG VV002 03/03 Q1027=
201111090850 METAR ESMX 090850Z 08003KT 040V120 0300 R01/0800 R19/0900N FG VV002 04/03 Q1027=
201111090820 METAR ESMX 090820Z VRB02KT 0350 R01/0750V1400D R19/0600 FG VV002 03/03 Q1027=
201111090750 METAR ESMX 090750Z 04003KT 350V060 0350 R01/0750 R19/0800N FG VV002 03/03 Q1027=
201111090720 METAR ESMX 090720Z 04002KT 0250 R01/0600 R19/0800V1500D FG VV002 03/03 Q1027=
201111090650 METAR ESMX 090650Z 00000KT 0300 R01/0800 R19/0800 FG VV002 03/03 Q1027=
201111090620 METAR ESMX 090620Z VRB01KT 0400 R01/1300V1800N R19/0900V1500U FG VV002 03/03 Q1027=
201111090550 METAR ESMX 090550Z VRB02KT 0350 R01/1000V1500U R19/1300N FG VV002 03/03 Q1027=
201111090520 METAR ESMX 090520Z VRB02KT 0550 R01/1200VP2000D R19/P2000N FG VV002 03/03 Q1027=
201111090450 METAR ESMX 090450Z VRB02KT 0500 R01/1600N R19/1800D FG VV002 04/03 Q1027=
201111090420 METAR ESMX 090420Z AUTO 08003KT 050V120 0450NDV R01/1500D R19/P2000N FG VV001 04/03 Q1027=
201111090350 METAR ESMX 090350Z AUTO VRB02KT 0400NDV R01/1300U R19/1600U FG VV001 04/04 Q1027=
201111090320 METAR ESMX 090320Z AUTO 00000KT 0400NDV R01/1300D R19/0900VP2000U FG VV001 04/03 Q1026=
201111090250 METAR ESMX 090250Z AUTO VRB02KT 0450NDV R01/1000VP2000U R19/1500D FG VV001 04/03 Q1026=
201111090220 METAR ESMX 090220Z AUTO VRB01KT 0250NDV R01/0900V1200N R19/1100V1700N FG VV001 04/04 Q1026=
201111090150 METAR ESMX 090150Z AUTO VRB01KT 0300NDV R01/1000N R19/1200U FG VV001 04/04 Q1026=
201111090120 METAR ESMX 090120Z AUTO VRB01KT 0300NDV R01/0900V1300U R19/1200D FG VV001 04/04 Q1026=
201111090050 METAR ESMX 090050Z VRB01KT 0300 R01/0900V1400N R19/1100V1700N FG VV002 04/04 Q1026=
201111090020 METAR ESMX 090020Z VRB02KT 0400 R01/1000VP2000D R19/1700U FG VV002 04/04 Q1026=
201111082350 METAR ESMX 082350Z VRB02KT 0350 R01/1000V1500N R19/1900D FG VV002 04/04 Q1027=
201111082320 METAR ESMX 082320Z VRB01KT 0550 R01/1800N R19/P2000N FG VV002 05/04 Q1026=
201111082250 METAR ESMX 082250Z VRB02KT 0750 R01/P2000D R19/P2000N FG VV002 05/04 Q1026=
201111082220 METAR ESMX 082220Z 08003KT 030V130 1000 R01/P2000N R19/P2000N FG VV002 05/04 Q1026=
201111082150 METAR ESMX 082150Z VRB02KT 1300 R01/P2000N R19/P2000N BR OVC002 05/04 Q1026=
201111082120 METAR ESMX 082120Z VRB02KT 0600 R01/1800N R19/P2000N FG OVC002 05/04 Q1027=
201111082050 METAR ESMX 082050Z VRB02KT 1000 R01/P2000N R19/P2000N OVC002 05/04 Q1027=
201111082020 METAR ESMX 082020Z VRB02KT 1400 R01/P2000N R19/P2000N BR OVC002 05/04 Q1027=
201111081950 METAR ESMX 081950Z VRB02KT 1100 R01/P2000N R19/P2000N BR OVC002 05/05 Q1027=
201111081920 METAR ESMX 081920Z VRB01KT 1000 R01/P2000N R19/P2000N BR OVC002 05/05 Q1027=
201111081850 METAR ESMX 081850Z VRB02KT 1200 R01/P2000N R19/P2000N BR VV002 05/05 Q1026=
201111081820 METAR ESMX 081820Z 07003KT 020V120 1600 BR OVC002 05/05 Q1027=
201111081750 METAR ESMX 081750Z VRB02KT 1700 BR VV002 05/05 Q1027=
201111081720 METAR ESMX 081720Z VRB02KT 1800 BR OVC002 05/05 Q1027=
201111081650 METAR ESMX 081650Z 12003KT 070V160 2500 BR OVC002 05/05 Q1026=
201111081620 METAR ESMX 081620Z 14003KT 100V180 2700 BR OVC002 06/05 Q1026=
201111081550 METAR ESMX 081550Z VRB02KT 4300 BR OVC003 06/05 Q1026=
201111081520 METAR ESMX 081520Z 08003KT 020V120 6000 BR BKN003 OVC005 06/05 Q1026=
201111081450 METAR ESMX 081450Z VRB02KT 7000 BR OVC003 06/05 Q1026=
201111081420 METAR ESMX 081420Z VRB02KT 9000 BR OVC004 06/05 Q1026=
201111081350 METAR ESMX 081350Z VRB02KT 8000 BR SCT003 OVC004 06/05 Q1026=
201111081320 METAR ESMX 081320Z VRB02KT 5000 BR SCT002 OVC003 06/05 Q1026=
201111081250 METAR ESMX 081250Z VRB02KT 5000 BR BKN002 OVC030 06/05 Q1027=
201111081220 METAR ESMX 081220Z 14003KT 080V190 8000 BR OVC004 06/05 Q1027=
201111081150 METAR ESMX 081150Z VRB02KT 5000 BR OVC004 06/05 Q1027=
201111081120 METAR ESMX 081120Z 14003KT 080V170 4300 BR SCT001 OVC002 06/05 Q1027=
201111081050 METAR ESMX 081050Z 09004KT 030V150 3100 BR OVC002 05/05 Q1027=
201111081020 METAR ESMX 081020Z 06003KT 360V100 2100 OVC002 05/05 Q1027=
201111080950 METAR ESMX 080950Z VRB02KT 1300 R01/1400VP2000U R19/P2000D OVC002 05/05 Q1027=
201111080920 METAR ESMX 080920Z 10003KT 030V180 1200 R01/1300VP2000D R19/1400VP2000U VV002 05/04 Q1027=
201111080850 METAR ESMX 080850Z 12003KT 070V160 0900 R01/1300V1800D R19/P2000N FG OVC002 05/04 Q1027=
201111080820 METAR ESMX 080820Z VRB02KT 0800 R01/1400N R19/1800N FG VV002 04/04 Q1027=
201111080750 METAR ESMX 080750Z 14003KT 080V190 1000 R01/1600N R19/1900N FG VV002 04/04 Q1027=
201111080720 METAR ESMX 080720Z 10003KT 050V150 1100 R01/1900N R19/P2000N OVC002 04/04 Q1026=
201111080650 METAR ESMX 080650Z VRB02KT 1000 R01/P2000D R19/P2000N VV002 04/04 Q1027=
201111080620 METAR ESMX 080620Z VRB02KT 0700 R01/1900N R19/P2000N FG VV002 04/04 Q1027=
201111080550 METAR ESMX 080550Z VRB02KT 0450 R01/1000VP2000D R19/P2000N FG VV002 04/04 Q1026=
201111080520 METAR ESMX 080520Z 04004KT 0900 R01/P2000N R19/P2000N FG VV002 04/04 Q1026=
201111080450 METAR ESMX 080450Z 03003KT 1400 R01/P2000N R19/P2000N BR OVC002 04/04 Q1026=
201111080420 METAR ESMX 080420Z AUTO 07003KT 020V110 1400NDV R01/P2000N R19/P2000N BR OVC001/// 04/04 Q1026=
201111080350 METAR ESMX 080350Z AUTO VRB02KT 1200NDV R01/P2000N R19/P2000N BR OVC001/// 04/04 Q1027=
201111080320 METAR ESMX 080320Z AUTO VRB02KT 1500NDV BR VV001 04/04 Q1026=
201111080250 METAR ESMX 080250Z AUTO VRB02KT 1500NDV BR OVC001/// 05/04 Q1027=
201111080220 METAR ESMX 080220Z AUTO 01001KT 1400NDV R01/P2000N R19/P2000N OVC001/// 05/04 Q1027=
201111080150 METAR ESMX 080150Z AUTO VRB02KT 1000NDV R01/P2000N R19/P2000N OVC001/// 05/04 Q1027=
201111080120 METAR ESMX 080120Z AUTO VRB02KT 1000NDV R01/P2000N R19/P2000N BR OVC001/// 05/04 Q1027=
201111080050 METAR ESMX 080050Z VRB01KT 1700 BR OVC002 05/04 Q1026=
201111080020 METAR ESMX 080020Z VRB02KT 2300 BR OVC002 05/04 Q1027=
201111072350 METAR ESMX 072350Z 10003KT 050V150 2600 BR OVC002 05/04 Q1027=
201111072320 METAR ESMX 072320Z 05005KT 3200 BR OVC002 05/04 Q1027=
201111072250 METAR ESMX 072250Z 01005KT 2700 BR OVC002 05/05 Q1027=
201111072220 METAR ESMX 072220Z 01004KT 2200 BR OVC002 05/05 Q1027=
201111072150 METAR ESMX 072150Z VRB02KT 2200 BR OVC002 05/05 Q1027=
201111072120 METAR ESMX 072120Z VRB02KT 2300 BR OVC002 05/05 Q1027=
201111072050 METAR ESMX 072050Z 07003KT 040V120 2500 BR OVC002 05/05 Q1027=
201111072020 METAR ESMX 072020Z 09003KT 030V140 2400 BR OVC002 05/05 Q1027=
201111071950 METAR ESMX 071950Z VRB02KT 1800 BR OVC002 05/05 Q1027=
201111071920 METAR ESMX 071920Z 04003KT 350V090 1900 R01/P2000N R19/P2000N BR OVC002 06/05 Q1027=
201111071850 METAR ESMX 071850Z 03006KT 010V080 2200 BR OVC002 06/05 Q1027=
201111071820 METAR ESMX 071820Z 02005KT 1700 R01/P2000N R19/P2000N BR OVC002 06/05 Q1027=
201111071750 METAR ESMX 071750Z 01005KT 2000 BR OVC002 06/05 Q1027=
201111071720 METAR ESMX 071720Z 06004KT 020V100 3000 BR OVC002 06/05 Q1027=
201111071650 METAR ESMX 071650Z 06004KT 020V100 3700 BR OVC002 06/05 Q1027=
201111071620 METAR ESMX 071620Z 07004KT 020V110 3900 BR OVC003 06/05 Q1027=
201111071550 METAR ESMX 071550Z 05004KT 020V110 3700 BR OVC002 06/05 Q1027=
201111071520 METAR ESMX 071520Z 06004KT 030V100 4000 BR OVC002 06/05 Q1026=
201111071450 METAR ESMX 071450Z 01005KT 5000 BR OVC003 06/06 Q1026=
201111071420 METAR ESMX 071420Z 02005KT 5000 BR OVC003 06/06 Q1026=
201111071350 METAR ESMX 071350Z 02006KT 5000 BR OVC003 06/06 Q1026=
201111071320 METAR ESMX 071320Z 02006KT 5000 BR OVC002 07/06 Q1026=
201111071250 METAR ESMX 071250Z 01006KT 320V030 3400 BR OVC002 07/06 Q1026=
201111071220 METAR ESMX 071220Z 36006KT 5000 BR OVC002 07/06 Q1026=
201111071150 METAR ESMX 071150Z 03005KT 350V050 3600 BR OVC002 07/06 Q1026=
201111071120 METAR ESMX 071120Z 02006KT 3800 BR OVC002 07/06 Q1026=
201111071050 METAR ESMX 071050Z 03004KT 350V070 3000 BR OVC002 07/06 Q1026=
201111071020 METAR ESMX 071020Z 36007KT 2900 BR OVC002 07/06 Q1026=
201111070950 METAR ESMX 070950Z 35007KT 2900 BR OVC002 07/06 Q1026=
201111070920 METAR ESMX 070920Z 36007KT 2300 BR OVC002 07/06 Q1026=
201111070850 METAR ESMX 070850Z 03007KT 350V060 4600 BR OVC002 07/06 Q1026=
201111070820 METAR ESMX 070820Z 03007KT 2800 BR OVC002 07/06 Q1026=
201111070750 METAR ESMX 070750Z 01007KT 2300 BR OVC002 07/06 Q1025=
201111070720 METAR ESMX 070720Z 02006KT 2400 BR OVC002 07/06 Q1025=
201111070650 METAR ESMX 070650Z 03008KT 360V060 3100 BR OVC003 07/06 Q1025=
201111070620 METAR ESMX 070620Z 01008KT 2900 BR OVC004 07/06 Q1025=
201111070550 METAR ESMX 070550Z 01007KT 2800 BR OVC004 07/06 Q1024=
201111070520 METAR ESMX 070520Z 02006KT 350V060 2900 BR OVC004 07/06 Q1024=
201111070450 METAR ESMX 070450Z 01008KT 2500 BR OVC004 07/07 Q1024=
201111070420 METAR ESMX 070420Z AUTO 01007KT 340V040 2300NDV BR OVC003/// 07/07 Q1024=
201111070350 METAR ESMX 070350Z AUTO 03006KT 350V070 2900NDV BR OVC003/// 07/06 Q1024=
201111070320 METAR ESMX 070320Z AUTO 01007KT 3100NDV BR OVC003/// 07/06 Q1023=
201111070250 METAR ESMX 070250Z AUTO 02006KT 350V060 3800NDV BR OVC004/// 07/06 Q1024=
201111070220 METAR ESMX 070220Z AUTO 01007KT 4400NDV BR OVC005/// 07/06 Q1023=
201111070150 METAR ESMX 070150Z AUTO 03006KT 4600NDV BR OVC005/// 08/06 Q1023=
201111070120 METAR ESMX 070120Z AUTO 36007KT 4300NDV BR OVC004/// 08/06 Q1023=
201111070050 METAR ESMX 070050Z AUTO 02005KT 350V060 3200NDV BR OVC003/// 08/07 Q1023=
201111070020 METAR ESMX 070020Z AUTO 36005KT 2900NDV BR OVC003/// 08/07 Q1023=
201111062350 METAR ESMX 062350Z 03006KT 3300 BR OVC004 08/06 Q1022=
201111062320 METAR ESMX 062320Z 36005KT 330V030 3100 BR OVC004 08/07 Q1023=
201111062250 METAR ESMX 062250Z 01006KT 340V040 2900 BR OVC003 08/07 Q1022=
201111062220 METAR ESMX 062220Z 01005KT 2100 BR OVC002 08/07 Q1022=
201111062150 METAR ESMX 062150Z 02006KT 1400 R01/P2000N R19/P2000N BR OVC002 08/07 Q1022=
201111062120 METAR ESMX 062120Z 01005KT 1600 BR OVC002 08/07 Q1022=
201111062050 METAR ESMX 062050Z 36003KT 330V040 2600 BR OVC004 08/07 Q1022=
201111062020 METAR ESMX 062020Z VRB02KT 2900 BR OVC004 08/07 Q1022=
201111061950 METAR ESMX 061950Z 05003KT 2900 BR OVC005 08/07 Q1022=
201111061920 METAR ESMX 061920Z VRB02KT 3000 BR OVC005 08/07 Q1021=
201111061850 METAR ESMX 061850Z VRB02KT 2900 BR OVC005 08/07 Q1021=
201111061820 METAR ESMX 061820Z VRB02KT 2900 BR OVC005 08/07 Q1021=
201111061750 METAR ESMX 061750Z 08003KT 030V120 2900 BR OVC005 08/07 Q1021=
201111061720 METAR ESMX 061720Z 08003KT 020V130 2900 BR OVC005 08/07 Q1021=
201111061650 METAR ESMX 061650Z 07003KT 030V120 2900 BR OVC005 09/07 Q1021=
201111061620 METAR ESMX 061620Z 07003KT 030V100 2800 BR OVC005 09/07 Q1021=
201111061550 METAR ESMX 061550Z 05003KT 3100 BR OVC005 09/07 Q1020=
201111061520 METAR ESMX 061520Z VRB02KT 3200 BR OVC005 09/07 Q1020=
201111061450 METAR ESMX 061450Z AUTO 08003KT 040V130 3200NDV BR OVC005/// 09/07 Q1020=
201111061420 METAR ESMX 061420Z 10003KT 030V150 3600 BR OVC006 09/07 Q1020=
201111061350 METAR ESMX 061350Z 10004KT 050V160 3800 BR OVC007 09/07 Q1020=
201111061320 METAR ESMX 061320Z 09003KT 030V140 3900 BR OVC007 09/07 Q1020=
201111061250 METAR ESMX 061250Z 10004KT 040V140 4300 BR OVC008 09/07 Q1020=
201111061220 METAR ESMX 061220Z 09004KT 040V160 4500 BR OVC008 09/07 Q1020=
201111061150 METAR ESMX 061150Z 09005KT 030V140 4600 BR OVC009 09/07 Q1020=
201111061120 METAR ESMX 061120Z 09003KT 030V130 4900 BR OVC009 09/07 Q1020=
201111061050 METAR ESMX 061050Z 08004KT 040V140 5000 BR OVC008 09/07 Q1020=
201111061020 METAR ESMX 061020Z 08003KT 020V120 5000 BR OVC008 09/07 Q1020=
201111060950 METAR ESMX 060950Z 08005KT 050V120 4800 BR OVC007 09/07 Q1020=
201111060920 METAR ESMX 060920Z AUTO 08004KT 020V120 4400NDV BR OVC007/// 08/06 Q1020=
201111060850 METAR ESMX 060850Z AUTO 09004KT 050V150 4300NDV BR OVC006/// 08/06 Q1020=
201111060820 METAR ESMX 060820Z AUTO 10004KT 020V150 4300NDV BR OVC006/// 08/06 Q1020=
201111060750 METAR ESMX 060750Z AUTO 09004KT 040V160 4400NDV BR OVC007/// 08/06 Q1019=
201111060720 METAR ESMX 060720Z AUTO 09004KT 020V150 4400NDV BR OVC006/// 08/06 Q1020=
201111060650 METAR ESMX 060650Z AUTO 09004KT 040V150 4300NDV BR OVC006/// 08/06 Q1019=
201111060620 METAR ESMX 060620Z AUTO 09004KT 020V140 4300NDV BR OVC006/// 08/06 Q1019=
201111060550 METAR ESMX 060550Z AUTO 09004KT 010V140 4200NDV BR OVC007/// 08/06 Q1019=
201111060520 METAR ESMX 060520Z AUTO 10004KT 050V160 4300NDV BR OVC007/// 08/06 Q1019=
201111060450 METAR ESMX 060450Z AUTO 11004KT 050V160 4400NDV BR OVC007/// 08/06 Q1019=
201111060420 METAR ESMX 060420Z AUTO 09006KT 050V150 4500NDV BR OVC007/// 08/06 Q1019=
201111060350 METAR ESMX 060350Z AUTO 09005KT 040V150 4700NDV BR OVC007/// 08/06 Q1019=
201111060320 METAR ESMX 060320Z AUTO 09004KT 050V130 4800NDV BR OVC007/// 08/06 Q1019=
201111060250 METAR ESMX 060250Z AUTO 09005KT 050V140 5000NDV BR OVC007/// 08/06 Q1019=
201111060220 METAR ESMX 060220Z AUTO 09005KT 040V130 5000NDV BR BKN007/// OVC010/// 08/06 Q1019=
201111060150 METAR ESMX 060150Z AUTO 10005KT 030V140 5000NDV BR OVC008/// 08/06 Q1020=
201111060120 METAR ESMX 060120Z AUTO 11004KT 050V170 5000NDV BR OVC007/// 08/06 Q1020=
201111060050 METAR ESMX 060050Z AUTO 10004KT 060V160 5000NDV BR OVC007/// 08/06 Q1020=
201111060020 METAR ESMX 060020Z AUTO 10004KT 060V170 5000NDV BR OVC007/// 08/06 Q1019=
201111052350 METAR ESMX 052350Z AUTO 10004KT 040V150 5000NDV BR OVC008/// 08/06 Q1019=
201111052320 METAR ESMX 052320Z AUTO 10004KT 060V160 5000NDV BR OVC008/// 08/06 Q1019=
201111052250 METAR ESMX 052250Z AUTO 09005KT 040V150 5000NDV BR OVC008/// 07/06 Q1020=
201111052220 METAR ESMX 052220Z AUTO 09004KT 060V140 5000NDV BR OVC007/// 07/06 Q1020=
201111052150 METAR ESMX 052150Z AUTO 08004KT 020V140 5000NDV BR OVC006/// 07/06 Q1020=
201111052120 METAR ESMX 052120Z AUTO 08004KT 020V140 5000NDV BR OVC006/// 07/05 Q1020=
201111052050 METAR ESMX 052050Z 09005KT 040V140 5000 BR OVC007 06/05 Q1020=
201111052020 METAR ESMX 052020Z 08004KT 040V120 5000 BR FEW008 06/04 Q1020=
201111051950 METAR ESMX 051950Z 05004KT 350V130 6000 BR NSC 06/04 Q1020=
201111051920 METAR ESMX 051920Z AUTO 08005KT 030V110 7000NDV BR NCD 06/04 Q1020=
201111051850 METAR ESMX 051850Z AUTO 08004KT 030V140 7000NDV BR NCD 07/04 Q1019=
201111051820 METAR ESMX 051820Z AUTO 07004KT 020V130 8000NDV BR NCD 07/04 Q1019=
201111051750 METAR ESMX 051750Z AUTO 07004KT 030V110 7000NDV BR NCD 07/04 Q1019=
201111051720 METAR ESMX 051720Z AUTO 07003KT 030V120 7000NDV BR NCD 07/05 Q1019=
201111051650 METAR ESMX 051650Z AUTO 09004KT 050V130 7000NDV BR NCD 08/05 Q1019=
201111051620 METAR ESMX 051620Z AUTO 09004KT 050V140 7000NDV BR NCD 08/05 Q1019=
201111051550 METAR ESMX 051550Z AUTO 08004KT 030V130 7000NDV BR NCD 08/05 Q1019=
201111051520 METAR ESMX 051520Z AUTO 08004KT 050V110 7000NDV BR NCD 09/06 Q1019=
201111051450 METAR ESMX 051450Z AUTO 08004KT 020V120 8000NDV HZ NCD 10/06 Q1019=
201111051420 METAR ESMX 051420Z AUTO 07004KT 040V110 8000NDV HZ NCD 11/06 Q1019=
201111051350 METAR ESMX 051350Z AUTO 07004KT 020V110 8000NDV HZ NCD 11/06 Q1019=
201111051320 METAR ESMX 051320Z 08004KT 030V120 9000 HZ NSC 11/07 Q1018=
201111051250 METAR ESMX 051250Z 07004KT 030V140 8000 BR NSC 11/07 Q1018=
201111051220 METAR ESMX 051220Z 06003KT 020V110 8000 BR NSC 11/07 Q1018=
201111051150 METAR ESMX 051150Z 07003KT 020V090 7000 BR NSC 10/07 Q1018=
201111051120 METAR ESMX 051120Z 09003KT 040V140 7000 BR NSC 10/07 Q1018=
201111051050 METAR ESMX 051050Z 06003KT 010V110 5000 BR NSC 09/07 Q1018=
201111051020 METAR ESMX 051020Z 09005KT 030V120 3800 BR FEW004 09/07 Q1019=
201111050950 METAR ESMX 050950Z 07004KT 030V120 2500 BR BKN004 08/07 Q1019=
201111050920 METAR ESMX 050920Z 08003KT 030V120 1400 R01/P2000N R19/1700N OVC002 08/07 Q1018=
201111050850 METAR ESMX 050850Z 07003KT 030V110 1100 R01/1500N R19/1500N VV002 07/07 Q1018=
201111050820 METAR ESMX 050820Z 09003KT 020V160 0800 R01/1300U R19/1700N FG VV002 07/07 Q1018=
201111050750 METAR ESMX 050750Z 10003KT 050V190 0800 R01/1000V1700D R19/1100V1500U FG VV002 07/07 Q1018=
201111050720 METAR ESMX 050720Z 10003KT 050V150 1100 R01/1800N R19/P2000N BR OVC002 07/07 Q1018=
201111050650 METAR ESMX 050650Z AUTO 12003KT 080V150 1200NDV R01/P2000N R19/P2000N BR OVC001/// 08/07 Q1017=
201111050620 METAR ESMX 050620Z AUTO 15003KT 110V190 1400NDV R01/P2000N R19/P2000N BR OVC001/// 08/07 Q1017=
201111050550 METAR ESMX 050550Z AUTO 14003KT 100V190 1500NDV BR OVC002/// 08/07 Q1017=
201111050520 METAR ESMX 050520Z AUTO 14003KT 070V190 1800NDV BR OVC002/// 08/07 Q1016=
201111050450 METAR ESMX 050450Z AUTO 14004KT 080V210 1800NDV BR OVC003/// 08/07 Q1016=
201111050420 METAR ESMX 050420Z AUTO 15004KT 110V220 2000NDV BR OVC004/// 08/07 Q1016=
201111050350 METAR ESMX 050350Z AUTO 13003KT 080V170 2100NDV BR OVC004/// 08/07 Q1016=
201111050320 METAR ESMX 050320Z AUTO 15003KT 110V190 2200NDV BR OVC004/// 08/07 Q1016=
201111050250 METAR ESMX 050250Z AUTO 15004KT 120V200 2200NDV BR OVC004/// 08/07 Q1015=
201111050220 METAR ESMX 050220Z AUTO 15004KT 2500NDV BR OVC005/// 08/07 Q1015=
201111050150 METAR ESMX 050150Z AUTO 14005KT 100V170 2900NDV BR OVC005/// 08/07 Q1015=
201111050120 METAR ESMX 050120Z AUTO 15004KT 110V170 3000NDV BR OVC005/// 08/07 Q1015=
201111050050 METAR ESMX 050050Z AUTO 16003KT 140V200 3000NDV BR OVC005/// 08/07 Q1015=
201111050020 METAR ESMX 050020Z AUTO 16004KT 120V190 3000NDV BR OVC005/// 08/07 Q1015=
201111042350 METAR ESMX 042350Z AUTO 16004KT 100V200 3200NDV BR OVC005/// 08/07 Q1015=
201111042320 METAR ESMX 042320Z AUTO 15004KT 100V190 3300NDV BR OVC005/// 08/07 Q1015=
201111042250 METAR ESMX 042250Z AUTO 15005KT 100V180 3400NDV BR OVC006/// 08/07 Q1014=
201111042220 METAR ESMX 042220Z AUTO 13005KT 070V170 3600NDV BR OVC006/// 08/07 Q1014=
201111042150 METAR ESMX 042150Z AUTO 15005KT 120V200 3700NDV BR OVC006/// 08/07 Q1014=
201111042120 METAR ESMX 042120Z AUTO 16003KT 120V200 3900NDV BR OVC006/// 08/07 Q1014=
201111042050 METAR ESMX 042050Z AUTO 15005KT 100V170 4000NDV BR OVC006/// 08/07 Q1014=
201111042020 METAR ESMX 042020Z AUTO 15005KT 110V190 3700NDV BR OVC006/// 08/06 Q1014=
201111041950 METAR ESMX 041950Z 15006KT 110V200 3700 BR OVC006 08/07 Q1013=
201111041920 METAR ESMX 041920Z 14005KT 090V190 3700 BR OVC005 08/06 Q1013=
201111041850 METAR ESMX 041850Z 14006KT 080V170 3700 BR OVC005 08/06 Q1013=
201111041820 METAR ESMX 041820Z 14006KT 080V180 4300 BR OVC006 08/06 Q1013=
201111041750 METAR ESMX 041750Z 12006KT 080V170 5000 BR BKN007 07/06 Q1012=
201111041720 METAR ESMX 041720Z 12006KT 060V180 5000 BR FEW008 07/06 Q1011=
201111041650 METAR ESMX 041650Z 11007KT 070V160 4500 BR BKN007 08/06 Q1011=
201111041620 METAR ESMX 041620Z 12007KT 070V170 3500 BR BKN006 08/06 Q1011=
201111041550 METAR ESMX 041550Z 10005KT 050V160 3900 BR NSC 08/06 Q1011=
201111041520 METAR ESMX 041520Z 12005KT 060V170 5000 BR NSC 09/06 Q1011=
201111041450 METAR ESMX 041450Z 11005KT 050V150 7000 BR NSC 09/06 Q1011=
201111041420 METAR ESMX 041420Z 12005KT 070V180 8000 HZ NSC 10/06 Q1011=
201111041350 METAR ESMX 041350Z 13006KT 080V180 CAVOK 11/06 Q1011=
201111041320 METAR ESMX 041320Z 11005KT 050V180 CAVOK 12/06 Q1011=
201111041250 METAR ESMX 041250Z 12005KT 050V170 9999 NSC 12/06 Q1011=
201111041220 METAR ESMX 041220Z 13005KT 060V160 9999 NSC 12/06 Q1012=
201111041150 METAR ESMX 041150Z 13005KT 070V170 9000 BR NSC 11/06 Q1012=
201111041120 METAR ESMX 041120Z 13004KT 070V170 7000 BR NSC 11/06 Q1012=
201111041050 METAR ESMX 041050Z VRB04KT 5000 BR NSC 12/07 Q1012=
201111041020 METAR ESMX 041020Z 10004KT 050V150 4500 BR NSC 10/07 Q1012=
201111040950 METAR ESMX 040950Z 10003KT 060V140 3400 BR FEW006 09/06 Q1013=
201111040920 METAR ESMX 040920Z 10005KT 050V140 3000 BR SCT007 09/06 Q1012=
201111040850 METAR ESMX 040850Z 11003KT 060V160 2600 BR BKN007 08/06 Q1012=
201111040820 METAR ESMX 040820Z 11004KT 030V160 2700 BR BKN006 07/06 Q1013=
201111040750 METAR ESMX 040750Z 11005KT 060V160 2700 BR OVC007 07/05 Q1013=
201111040720 METAR ESMX 040720Z 11005KT 050V190 2700 BR OVC007 07/05 Q1013=
201111040650 METAR ESMX 040650Z 12004KT 070V170 2700 BR OVC007 07/05 Q1013=
201111040620 METAR ESMX 040620Z 12004KT 060V170 2700 BR OVC007 07/05 Q1013=
201111040550 METAR ESMX 040550Z 12004KT 050V170 2700 BR OVC006 07/05 Q1012=
201111040520 METAR ESMX 040520Z 12004KT 030V190 3000 BR OVC006 07/05 Q1012=
201111040450 METAR ESMX 040450Z 12004KT 060V160 3000 BR OVC006 07/05 Q1012=
201111040420 METAR ESMX 040420Z AUTO 12004KT 050V160 2900NDV BR OVC006/// 07/05 Q1012=
201111040350 METAR ESMX 040350Z AUTO 12003KT 050V170 2900NDV BR OVC006/// 07/05 Q1012=
201111040320 METAR ESMX 040320Z AUTO 13005KT 080V170 3000NDV BR OVC006/// 07/05 Q1012=
201111040250 METAR ESMX 040250Z AUTO 12005KT 070V170 3100NDV BR OVC006/// 07/05 Q1012=
201111040220 METAR ESMX 040220Z AUTO 12004KT 080V190 3000NDV BR OVC006/// 07/05 Q1012=
201111040150 METAR ESMX 040150Z AUTO 12005KT 060V180 3000NDV BR OVC006/// 07/05 Q1012=
201111040120 METAR ESMX 040120Z AUTO 11005KT 030V170 3000NDV BR OVC006/// 07/05 Q1012=
201111040050 METAR ESMX 040050Z AUTO VRB04KT 2900NDV BR OVC006/// 07/05 Q1012=
201111040020 METAR COR ESMX 040020Z 14005KT 090V190 3000 BR OVC007 07/05 Q1012=
201111032350 METAR ESMX 032350Z 14006KT 080V180 3100 BR OVC007 07/05 Q1013=
201111032320 METAR ESMX 032320Z 15005KT 110V230 3200 BR OVC007 07/05 Q1013=
201111032250 METAR COR ESMX 032250Z 13005KT 060V200 3000 BR OVC008 07/05 Q1012=
201111032220 METAR ESMX 032220Z 14004KT 080V190 3100 BR OVC008 07/05 Q1012=
201111032150 METAR ESMX 032150Z 12003KT 080V190 3000 BR OVC008 07/05 Q1013=
201111032120 METAR ESMX 032120Z 13005KT 090V170 2900 BR OVC007 07/05 Q1013=
201111032050 METAR ESMX 032050Z 15005KT 090V190 3000 BR OVC007 07/05 Q1013=
201111032020 METAR ESMX 032020Z 14005KT 090V190 3000 BR OVC007 07/05 Q1013=
201111031950 METAR ESMX 031950Z 13005KT 060V170 3000 BR OVC007 07/05 Q1013=
201111031920 METAR ESMX 031920Z 13005KT 070V170 3500 BR OVC007 07/05 Q1013=
201111031850 METAR ESMX 031850Z VRB05KT 3300 BR OVC007 07/05 Q1013=
201111031820 METAR ESMX 031820Z 13005KT 050V200 3800 BR OVC007 07/05 Q1013=
201111031750 METAR ESMX 031750Z 13005KT 080V170 4000 BR BKN006 OVC009 07/06 Q1012=
201111031720 METAR ESMX 031720Z 12004KT 040V170 3100 BR FEW006 OVC008 07/06 Q1012=
201111031650 METAR ESMX 031650Z 11005KT 070V160 2900 BR OVC007 07/06 Q1012=
201111031620 METAR ESMX 031620Z 11003KT 030V180 2900 BR FEW007 OVC011 07/06 Q1012=
201111031550 METAR ESMX 031550Z 12004KT 070V170 2600 BR OVC005 07/06 Q1012=
201111031520 METAR ESMX 031520Z 13004KT 060V170 3000 BR OVC005 08/06 Q1012=
201111031450 METAR ESMX 031450Z 12003KT 060V170 3300 BR OVC006 08/06 Q1012=
201111031420 METAR ESMX 031420Z 13005KT 090V180 3300 BR SCT007 OVC009 08/06 Q1012=
201111031350 METAR ESMX 031350Z 15006KT 110V200 3000 BR OVC007 08/06 Q1013=
201111031320 METAR ESMX 031320Z 15006KT 110V190 3400 BR FEW009 OVC011 08/06 Q1013=
201111031250 METAR ESMX 031250Z 13006KT 070V170 4000 BR FEW006 OVC011 08/06 Q1013=
201111031220 METAR ESMX 031220Z 14005KT 080V200 3200 BR OVC007 08/06 Q1013=
201111031150 METAR ESMX 031150Z 11006KT 070V170 4800 BR FEW005 OVC008 08/07 Q1013=
201111031120 METAR ESMX 031120Z 14007KT 090V190 7000 BR SCT006 BKN008 OVC010 08/07 Q1013=
201111031050 METAR ESMX 031050Z 11004KT 050V190 6000 BR FEW005 OVC009 08/07 Q1013=
201111031020 METAR ESMX 031020Z 12004KT 060V170 4700 BR SCT003 OVC005 08/07 Q1014=
201111030950 METAR ESMX 030950Z 11003KT 060V170 3500 BR BKN003 OVC005 07/07 Q1014=
201111030920 METAR ESMX 030920Z 09003KT 050V140 3700 BR FEW002 SCT003 OVC005 07/07 Q1014=
201111030850 METAR ESMX 030850Z 07004KT 040V120 3200 BR FEW001 SCT003 BKN005 07/06 Q1014=
201111030820 METAR ESMX 030820Z 08003KT 040V110 3300 BR FEW004 SCT007 OVC008 07/06 Q1014=
201111030750 METAR ESMX 030750Z 13004KT 070V190 3000 BR BKN002 OVC005 07/06 Q1015=
201111030720 METAR ESMX 030720Z 13004KT 080V170 3200 BR OVC003 06/06 Q1015=
201111030650 METAR ESMX 030650Z 12003KT 070V170 3400 BR OVC003 06/06 Q1015=
201111030620 METAR ESMX 030620Z 10004KT 040V140 2400 BR SCT002 OVC003 06/06 Q1014=
201111030550 METAR ESMX 030550Z 13005KT 080V180 3500 BR SCT002 OVC003 07/06 Q1015=
201111030520 METAR ESMX 030520Z 13004KT 070V170 2900 BR OVC002 07/06 Q1014=
201111030450 METAR ESMX 030450Z 10004KT 050V160 2500 BR OVC002 07/06 Q1014=
201111030420 METAR ESMX 030420Z AUTO 14004KT 070V200 2700NDV BR OVC001/// 07/06 Q1014=
201111030350 METAR ESMX 030350Z AUTO 12004KT 060V170 1800NDV BR OVC001/// 07/06 Q1014=
201111030320 METAR ESMX 030320Z AUTO 10003KT 020V150 1200NDV R01/P2000N R19/P2000N BR OVC001/// 07/06 Q1014=
201111030250 METAR ESMX 030250Z AUTO 10003KT 030V200 1300NDV R01/P2000N R19/P2000N BR OVC001/// 07/06 Q1014=
201111030220 METAR ESMX 030220Z AUTO 12003KT 060V170 1600NDV BR OVC001/// 07/06 Q1015=
201111030150 METAR ESMX 030150Z AUTO VRB02KT 1200NDV R01/P2000N R19/P2000N BR OVC001/// 07/07 Q1015=
201111030120 METAR ESMX 030120Z AUTO 14004KT 110V220 1300NDV R01/P2000N R19/P2000N BR OVC001/// 07/07 Q1015=
201111030050 METAR ESMX 030050Z AUTO 14005KT 110V170 1400NDV R01/P2000N R19/P2000N BR OVC001/// 07/07 Q1015=
201111030020 METAR ESMX 030020Z 14004KT 110V180 1800 BR OVC002 08/07 Q1015=
201111022350 METAR ESMX 022350Z 16003KT 120V200 2200 BR OVC002 08/07 Q1015=
201111022320 METAR ESMX 022320Z 15004KT 100V180 1900 BR OVC002 08/07 Q1015=
201111022250 METAR ESMX 022250Z VRB02KT 2100 BR OVC003 08/07 Q1016=
201111022220 METAR ESMX 022220Z 17004KT 120V230 3000 BR OVC004 08/07 Q1016=
201111022150 METAR ESMX 022150Z 15004KT 100V210 3300 BR OVC005 08/07 Q1016=
201111022120 METAR ESMX 022120Z VRB02KT 3600 BR OVC004 09/07 Q1016=
201111022050 METAR ESMX 022050Z 14004KT 100V190 3800 BR OVC005 09/07 Q1016=
201111022020 METAR ESMX 022020Z VRB02KT 3700 BR OVC005 09/07 Q1016=
201111021950 METAR ESMX 021950Z 14003KT 080V180 4200 BR OVC005 08/07 Q1016=
201111021920 METAR ESMX 021920Z VRB02KT 4300 BR OVC005 08/07 Q1016=
201111021850 METAR ESMX 021850Z VRB02KT 3800 BR OVC005 09/07 Q1016=
201111021820 METAR ESMX 021820Z 11003KT 060V160 3000 BR OVC005 09/08 Q1016=
201111021750 METAR ESMX 021750Z VRB02KT 3000 BR OVC005 09/08 Q1016=
201111021720 METAR ESMX 021720Z VRB02KT 3000 BR OVC005 09/08 Q1016=
201111021650 METAR ESMX 021650Z VRB01KT 3200 BR OVC005 09/08 Q1016=
201111021620 METAR ESMX 021620Z VRB02KT 3600 BR OVC005 09/08 Q1016=
201111021550 METAR ESMX 021550Z VRB02KT 3500 BR OVC006 09/08 Q1016=
201111021520 METAR ESMX 021520Z 08002KT 3700 BR OVC006 09/08 Q1016=
201111021450 METAR ESMX 021450Z 36002KT 3600 BR OVC006 09/08 Q1016=
201111021420 METAR ESMX 021420Z VRB01KT 4000 BR OVC006 09/08 Q1016=
201111021350 METAR ESMX 021350Z 00000KT 3700 BR OVC006 09/08 Q1016=
201111021320 METAR ESMX 021320Z VRB01KT 3800 BR OVC005 09/08 Q1016=
201111021250 METAR ESMX 021250Z VRB01KT 3300 BR OVC004 09/08 Q1016=
201111021220 METAR ESMX 021220Z 22003KT 2800 BR OVC006 09/08 Q1016=
201111021150 METAR ESMX 021150Z 22003KT 2400 BR OVC003 09/08 Q1016=
201111021120 METAR ESMX 021120Z VRB02KT 2000 BR OVC003 09/08 Q1017=
201111021050 METAR ESMX 021050Z 24003KT 190V300 1800 BR OVC004 09/08 Q1017=
201111021020 METAR ESMX 021020Z 21004KT 2000 BR OVC005 09/08 Q1017=
201111020950 METAR ESMX 020950Z 20005KT 2000 BR OVC002 09/08 Q1017=
201111020920 METAR ESMX 020920Z 20004KT 170V230 2000 BR OVC003 09/08 Q1017=
201111020850 METAR ESMX 020850Z 21006KT 2400 BR OVC003 09/08 Q1017=
201111020820 METAR ESMX 020820Z 20005KT 2600 BR OVC004 09/08 Q1017=
201111020750 METAR ESMX 020750Z 18004KT 2800 BR OVC004 09/08 Q1016=
201111020720 METAR ESMX 020720Z 19005KT 160V230 2900 BR OVC005 09/08 Q1016=
201111020650 METAR ESMX 020650Z 19005KT 150V210 3300 BR OVC005 09/08 Q1016=
201111020620 METAR ESMX 020620Z 18006KT 3100 BR OVC006 09/08 Q1016=
201111020550 METAR ESMX 020550Z 18004KT 140V210 3300 BR OVC006 10/08 Q1016=
201111020520 METAR ESMX 020520Z 17005KT 130V190 3400 BR OVC007 10/08 Q1015=
201111020450 METAR ESMX 020450Z 17004KT 140V200 3300 BR OVC006 10/08 Q1016=
201111020420 METAR ESMX 020420Z 19006KT 3300 BR BKN005 OVC008 10/08 Q1016=
201111020350 METAR ESMX 020350Z AUTO 20007KT 3300NDV BR OVC005/// 10/08 Q1016=
201111020320 METAR ESMX 020320Z AUTO 19008KT 3400NDV BR BKN006/// OVC008/// 10/08 Q1016=
201111020250 METAR ESMX 020250Z AUTO 20007KT 3700NDV BR OVC006/// 10/08 Q1016=
201111020220 METAR ESMX 020220Z AUTO 19008KT 3500NDV BR OVC005/// 10/09 Q1016=
201111020150 METAR ESMX 020150Z AUTO 19006KT 3900NDV BR OVC006/// 10/09 Q1016=
201111020120 METAR ESMX 020120Z AUTO 19006KT 4500NDV BR BKN006/// OVC008/// 10/09 Q1016=
201111020050 METAR ESMX 020050Z 19006KT 140V220 4500 BR OVC005 10/09 Q1016=
201111020020 METAR ESMX 020020Z 17007KT 4600 BR OVC006 10/09 Q1016=
201111012350 METAR ESMX 012350Z 18007KT 5000 BR OVC006 11/09 Q1016=
201111012320 METAR ESMX 012320Z 17008KT 130V210 6000 BR OVC006 11/09 Q1016=
201111012250 METAR ESMX 012250Z 16008KT 120V200 6000 BR OVC007 11/09 Q1016=
201111012220 METAR ESMX 012220Z 17007KT 130V200 7000 BR OVC007 11/09 Q1016=
201111012150 METAR ESMX 012150Z 16007KT 140V200 7000 BR OVC007 11/09 Q1016=
201111012120 METAR ESMX 012120Z 17008KT 140V200 6000 BR BKN004 OVC007 11/10 Q1016=
201111012050 METAR ESMX 012050Z 16008KT 110V190 4300 BR SCT003 OVC005 11/10 Q1017=
201111012020 METAR ESMX 012020Z 17006KT 140V200 3700 BR OVC003 10/09 Q1017=
201111011950 METAR ESMX 011950Z 17008KT 120V210 4400 BR OVC004 10/09 Q1017=
201111011920 METAR ESMX 011920Z 17007KT 120V210 6000 BR OVC005 10/09 Q1017=
201111011850 METAR ESMX 011850Z 17007KT 130V200 6000 BR OVC005 10/09 Q1017=
201111011820 METAR ESMX 011820Z 15006KT 110V200 7000 BR OVC007 10/09 Q1017=
201111011750 METAR ESMX 011750Z 16004KT 110V200 5000 BR FEW006 BKN008 OVC010 10/09 Q1017=
201111011720 METAR ESMX 011720Z 15003KT 100V190 4200 BR OVC004 10/09 Q1017=
201111011650 METAR ESMX 011650Z 17006KT 140V200 3900 BR OVC006 10/09 Q1017=
201111011620 METAR ESMX 011620Z 17007KT 120V210 7000 BR OVC007 10/08 Q1017=
201111011550 METAR ESMX 011550Z 16007KT 120V190 9000 OVC008 10/08 Q1017=
201111011520 METAR ESMX 011520Z 18007KT 9999 OVC010 11/08 Q1017=
201111011450 METAR ESMX 011450Z 18009KT 9999 BKN012 11/09 Q1017=
201111011420 METAR ESMX 011420Z 17007KT 140V200 9999 OVC015 12/09 Q1017=
201111011350 METAR ESMX 011350Z 18007KT 150V210 9999 BKN015 12/09 Q1018=
201111011320 METAR ESMX 011320Z 18008KT 140V210 9999 SCT008 BKN017 12/09 Q1018=
201111011250 METAR ESMX 011250Z 17010KT 130V200 9999 BKN017 12/09 Q1018=
