##########################################################
# Query made at 04/19/2024 21:24:34 UTC
# Time interval: from 10/01/2011 12:00  to 10/31/2011 12:59  UTC
##########################################################

##########################################################
# ESMX, Vaxjo (Sweden)
# WMO index: 02641. WIGOS ID: 0-20000-0-02648
# Latitude 56-51N. Longitude 014-50E. Altitude 199 m.
##########################################################

201110311250 METAR ESMX 311250Z 26005KT 220V290 9999 FEW012 SCT018 OVC020 11/08 Q1018=
201110311220 METAR ESMX 311220Z 27004KT 230V300 9999 FEW013 SCT016 OVC021 11/08 Q1018=
201110311150 METAR ESMX 311150Z 25005KT 230V290 9999 FEW014 OVC020 11/08 Q1018=
201110311120 METAR ESMX 311120Z 28004KT 250V320 9999 FEW015 OVC018 11/08 Q1018=
201110311050 METAR ESMX 311050Z 28005KT 9999 FEW011 SCT015 OVC018 11/08 Q1018=
201110311020 METAR ESMX 311020Z 23005KT 9999 FEW012 OVC017 11/09 Q1018=
201110310950 METAR ESMX 310950Z 24006KT 190V270 9999 FEW010 OVC018 11/09 Q1018=
201110310920 METAR ESMX 310920Z 23003KT 190V280 9999 FEW008 OVC019 11/09 Q1017=
201110310850 METAR ESMX 310850Z 26005KT 240V300 9999 FEW006 SCT008 BKN009 10/09 Q1017=
201110310820 METAR ESMX 310820Z 26005KT 210V290 9999 OVC018 10/09 Q1017=
201110310750 METAR ESMX 310750Z 27004KT 230V310 9999 FEW007 OVC021 10/08 Q1017=
201110310720 METAR ESMX 310720Z 25004KT 200V280 9999 FEW007 OVC022 10/08 Q1017=
201110310650 METAR ESMX 310650Z 26005KT 9999 OVC021 10/08 Q1016=
201110310620 METAR ESMX 310620Z 25004KT 220V280 9999 OVC020 10/08 Q1016=
201110310550 METAR ESMX 310550Z 26004KT 220V280 9999 OVC021 10/08 Q1016=
201110310520 METAR ESMX 310520Z 25004KT 9999 OVC021 10/08 Q1016=
201110310450 METAR ESMX 310450Z 27005KT 240V300 9999 OVC020 10/08 Q1016=
201110310420 METAR ESMX 310420Z 27007KT 240V300 9999 FEW009 SCT014 OVC021 10/08 Q1015=
201110310350 METAR ESMX 310350Z AUTO 26005KT 210V290 9999NDV FEW007/// SCT010/// BKN015/// 10/09 Q1015=
201110310320 METAR ESMX 310320Z AUTO 25004KT 200V290 9999NDV BKN010/// OVC029/// 10/09 Q1015=
201110310250 METAR ESMX 310250Z AUTO 25005KT 220V290 9000NDV FEW010/// SCT013/// BKN015/// 10/09 Q1015=
201110310220 METAR ESMX 310220Z AUTO 26007KT 9999NDV FEW013/// SCT016/// BKN026/// 10/09 Q1015=
201110310150 METAR ESMX 310150Z AUTO 25006KT 230V290 9999NDV FEW012/// OVC025/// 10/09 Q1015=
201110310120 METAR ESMX 310120Z AUTO 25005KT 230V290 9999NDV FEW014/// OVC027/// 10/09 Q1015=
201110310050 METAR ESMX 310050Z AUTO 25005KT 220V290 9999NDV FEW009/// BKN011/// OVC019/// 10/09 Q1015=
201110310020 METAR ESMX 310020Z 23007KT 200V260 9999 SCT012 OVC033 10/09 Q1015=
201110302350 METAR ESMX 302350Z 24005KT 210V280 9999 BKN023 OVC033 10/09 Q1015=
201110302320 METAR ESMX 302320Z 25007KT 220V290 9999 BR FEW008 SCT016 OVC026 10/09 Q1015=
201110302250 METAR ESMX 302250Z 25007KT 210V290 9999 BR FEW007 SCT010 BKN012 11/09 Q1015=
201110302220 METAR ESMX 302220Z 25007KT 8000 BR FEW007 SCT010 BKN014 11/09 Q1015 REDZ=
201110302150 METAR ESMX 302150Z 24008KT 8000 BR FEW006 SCT007 BKN009 11/10 Q1015=
201110302120 METAR ESMX 302120Z 24007KT 8000 BR FEW006 BKN008 OVC011 11/10 Q1015=
201110302050 METAR ESMX 302050Z 24006KT 8000 BR FEW007 SCT015 BKN020 11/10 Q1015=
201110302020 METAR ESMX 302020Z 24006KT 210V270 9000 BR FEW008 BKN010 BKN033 11/10 Q1015=
201110301950 METAR ESMX 301950Z 25006KT 9000 BR FEW007 SCT011 BKN015 11/10 Q1015=
201110301920 METAR ESMX 301920Z 24008KT 200V280 9000 BR FEW007 SCT009 BKN011 11/10 Q1015=
201110301850 METAR ESMX 301850Z 25006KT 210V280 7000 BR FEW006 SCT008 BKN010 11/10 Q1015=
201110301820 METAR ESMX 301820Z 24007KT 6000 BR FEW008 SCT011 BKN013 11/10 Q1014=
201110301750 METAR ESMX 301750Z 25007KT 210V280 8000 BR FEW007 SCT011 BKN014 11/10 Q1014=
201110301720 METAR ESMX 301720Z 24006KT 210V280 4600 -RA FEW007 SCT011 BKN014 11/10 Q1014=
201110301650 METAR ESMX 301650Z 23008KT 200V290 4100 DZ FEW004 BKN005 OVC008 11/10 Q1014=
201110301620 METAR ESMX 301620Z 23008KT 4500 -RA OVC004 11/10 Q1014=
201110301550 METAR ESMX 301550Z 23007KT 4500 BR OVC003 11/10 Q1014=
201110301520 METAR ESMX 301520Z 23009KT 4000 BR BKN004 OVC007 11/10 Q1014 REDZ=
201110301450 METAR ESMX 301450Z 22008KT 2200 -DZ FEW005 SCT006 BKN008 11/10 Q1014=
201110301420 METAR ESMX 301420Z 23009KT 4700 BR FEW007 OVC009 12/10 Q1014=
201110301350 METAR ESMX 301350Z 22008KT 7000 BR BKN010 OVC016 12/10 Q1014=
201110301320 METAR ESMX 301320Z 22008KT 6000 BR FEW010 BKN014 OVC017 12/10 Q1014=
201110301250 METAR ESMX 301250Z AUTO 22008KT 190V250 5000NDV BR FEW013/// SCT017/// BKN021/// 12/10 Q1014=
201110301220 METAR ESMX 301220Z AUTO 22008KT 4200NDV BR FEW008/// SCT013/// BKN017/// 12/10 Q1014=
201110301150 METAR ESMX 301150Z AUTO 23010KT 3400NDV BR SCT004/// BKN006/// OVC010/// 12/11 Q1015=
201110301120 METAR ESMX 301120Z AUTO 22010KT 2000NDV BR FEW002/// OVC005/// 11/11 Q1015=
201110301050 METAR ESMX 301050Z AUTO 21008KT 1600NDV OVC001/// 11/11 Q1015 REDZ=
201110301020 METAR ESMX 301020Z AUTO 19008KT 1200NDV R01/1600N R19/1700N OVC001/// 11/10 Q1015=
201110300950 METAR ESMX 300950Z AUTO 19008KT 1000NDV R01/1500D R19/1700D BR OVC001/// 10/10 Q1015=
201110300920 METAR ESMX 300920Z AUTO 18007KT 1400NDV R01/1700N R19/1800N BR OVC001/// 10/10 Q1016=
201110300850 METAR ESMX 300850Z AUTO 18007KT 1400NDV R01/1800N R19/1900N BR OVC001/// 10/09 Q1016=
201110300820 METAR ESMX 300820Z AUTO 18007KT 1400NDV R01/1800N R19/1900N OVC001/// 10/09 Q1016=
201110300750 METAR ESMX 300750Z AUTO 18009KT 1200NDV R01/1800N R19/P2000N OVC001/// 10/09 Q1016=
201110300720 METAR ESMX 300720Z AUTO 18007KT 150V210 1000NDV R01/1600N R19/1900N FG OVC001/// 09/09 Q1016 REDZ=
201110300650 METAR ESMX 300650Z AUTO 17006KT 140V200 0900NDV R01/1700D R19/P2000N FG VV002 09/09 Q1016=
201110300620 METAR ESMX 300620Z AUTO 18007KT 0900NDV R01/P2000N R19/P2000N FG VV002 09/09 Q1016 REDZ=
201110300550 METAR ESMX 300550Z AUTO 17006KT 140V200 0800NDV R01/P2000N R19/P2000N DZ VV001 09/09 Q1016=
201110300520 METAR ESMX 300520Z AUTO 18006KT 150V210 0800NDV R01/P2000N R19/P2000N FG VV001 09/08 Q1016=
201110300450 METAR ESMX 300450Z AUTO 18006KT 1300NDV R01/P2000N R19/P2000N VV002 09/08 Q1017=
201110300420 METAR ESMX 300420Z AUTO 18007KT 0450NDV R01/1500N R19/1700N FG VV001 09/08 Q1017=
201110300350 METAR ESMX 300350Z AUTO 18006KT 0550NDV R01/1700D R19/1900D FG VV001 08/08 Q1017=
201110300320 METAR ESMX 300320Z AUTO 18006KT 0700NDV R01/P2000N R19/P2000N FG VV001 08/08 Q1017=
201110300250 METAR ESMX 300250Z AUTO 17006KT 0900NDV R01/P2000N R19/P2000N FG VV001 08/07 Q1018=
201110300220 METAR ESMX 300220Z AUTO 18007KT 0900NDV R01/P2000N R19/P2000N FG VV001 08/07 Q1018=
201110300150 METAR ESMX 300150Z AUTO 19006KT 1000NDV R01/P2000N R19/P2000N FG VV001 07/07 Q1018=
201110300120 METAR ESMX 300120Z AUTO 17006KT 150V210 0800NDV R01/P2000N R19/P2000N FG VV001 07/07 Q1019 REUP REDZ=
201110300050 METAR ESMX 300050Z AUTO 17005KT 150V220 0450NDV R01/1500N R19/1600D FG VV001 06/06 Q1019=
201110300020 METAR ESMX 300020Z AUTO 17005KT 130V200 0350NDV R01/1200N R19/1300N FG VV001 06/06 Q1020=
201110292350 METAR ESMX 292350Z AUTO 17005KT 0550NDV R01/1700D R19/P2000D FG VV001 06/05 Q1020=
201110292320 METAR ESMX 292320Z AUTO 17005KT 140V200 0450NDV R01/1400D R19/1700N FG VV001 06/05 Q1020=
201110292250 METAR ESMX 292250Z AUTO 17004KT 140V200 0550NDV R01/1700N R19/1700U FG VV001 05/05 Q1021=
201110292220 METAR ESMX 292220Z AUTO 17004KT 130V200 0250NDV R01/0800V1200U R19/0900N -RA VV001 05/04 Q1021=
201110292150 METAR ESMX 292150Z AUTO 18005KT 140V200 0200NDV R01/0800N R19/0800N FG VV001 05/04 Q1022=
201110292120 METAR ESMX 292120Z AUTO 19006KT 150V220 0250NDV R01/0900N R19/1000N FG VV001 04/04 Q1022=
201110292050 METAR ESMX 292050Z AUTO 19007KT 150V220 0300NDV R01/0900V1800D R19/1100VP2000D FG VV001 04/03 Q1022=
201110292020 METAR ESMX 292020Z AUTO 17003KT 2500NDV BR FEW081/// 04/03 Q1022=
201110291950 METAR ESMX 291950Z AUTO 17004KT 1400NDV R01/P2000N R19/P2000N BR NCD 04/03 Q1022=
201110291920 METAR ESMX 291920Z AUTO 19004KT 1000NDV R01/P2000N R19/P2000N BR NCD 03/03 Q1022=
201110291850 METAR ESMX 291850Z AUTO 18003KT 3500NDV BR NCD 03/02 Q1022=
201110291820 METAR ESMX 291820Z AUTO 20004KT 9999NDV NCD 02/01 Q1023=
201110291750 METAR ESMX 291750Z AUTO 19003KT 1200NDV R01/P2000N R19/P2000N BR NCD 02/01 Q1023=
201110291720 METAR ESMX 291720Z AUTO 19002KT 0750NDV R01/P2000N R19/P2000N BR NCD 03/02 Q1023=
201110291650 METAR ESMX 291650Z AUTO 20002KT 1800NDV NCD 04/03 Q1023=
201110291620 METAR ESMX 291620Z AUTO 20003KT 1900NDV NCD 04/03 Q1023=
201110291550 METAR ESMX 291550Z AUTO 20002KT 9999NDV NCD 05/04 Q1024=
201110291520 METAR ESMX 291520Z AUTO 21001KT 9999NDV NCD 07/05 Q1024=
201110291450 METAR ESMX 291450Z AUTO 26001KT 9999NDV NCD 09/05 Q1024=
201110291420 METAR ESMX 291420Z AUTO 27002KT 9999NDV NCD 09/05 Q1024=
201110291350 METAR ESMX 291350Z AUTO 26004KT 230V290 9999NDV NCD 09/05 Q1024=
201110291320 METAR ESMX 291320Z AUTO 22004KT 190V250 9999NDV NCD 10/05 Q1025=
201110291250 METAR ESMX 291250Z AUTO 24004KT 210V280 9999NDV NCD 09/05 Q1025=
201110291220 METAR ESMX 291220Z AUTO VRB02KT 9999NDV NCD 09/05 Q1025=
201110291150 METAR ESMX 291150Z 31003KT CAVOK 09/05 Q1025=
201110291120 METAR ESMX 291120Z 24005KT 210V290 9999 SCT012 09/05 Q1025=
201110291050 METAR ESMX 291050Z 23006KT 190V260 9999 SCT011 09/06 Q1026=
201110291020 METAR ESMX 291020Z 24007KT 210V280 9999 FEW010 08/05 Q1026=
201110290950 METAR ESMX 290950Z 20006KT 160V230 9999 FEW010 07/06 Q1026=
201110290920 METAR ESMX 290920Z 23004KT 170V260 9999 BKN010 07/06 Q1026=
201110290850 METAR ESMX 290850Z 24003KT 210V280 9999 OVC008 06/05 Q1026=
201110290820 METAR ESMX 290820Z 22004KT 9999 FEW001 OVC008 05/05 Q1026=
201110290750 METAR ESMX 290750Z 25004KT 9000 OVC007 04/04 Q1026=
201110290720 METAR ESMX 290720Z 22003KT 0650 R01/1000V1600U R19/0900V1400U FG VV002 03/03 Q1026=
201110290650 METAR ESMX 290650Z 22004KT 0600 R01/0900V1400D R19/1000U FG VV002 03/02 Q1026=
201110290620 METAR ESMX 290620Z AUTO 21005KT 0250NDV R01/0700 R19/0650N FG VV000 03/02 Q1026=
201110290550 METAR ESMX 290550Z AUTO 22006KT 0200NDV R01/1200D R19/0700N FG FEW000/// 03/02 Q1025=
201110290520 METAR ESMX 290520Z AUTO 23007KT 0700NDV R01/P2000N R19/P2000N FG NCD 01/01 Q1025=
201110290450 METAR ESMX 290450Z AUTO 21004KT 0250NDV R01/0800V1600U R19/0750 FG NCD 01/01 Q1025=
201110290420 METAR ESMX 290420Z AUTO VRB02KT 0250NDV R01/0800V1800U R19/0800V1400 FG NCD 03/02 Q1025=
201110290350 METAR ESMX 290350Z AUTO 24003KT 0500NDV R01/P2000D R19/1000VP2000U FG NCD 01/01 Q1025=
201110290320 METAR ESMX 290320Z AUTO 26003KT 0550NDV R01/P2000N R19/P2000D NCD 02/02 Q1025=
201110290250 METAR ESMX 290250Z AUTO 26003KT 0400NDV R01/0900VP2000D R19/P2000N FG NCD 02/02 Q1025=
201110290220 METAR ESMX 290220Z AUTO 22002KT 0350NDV R01/P2000N R19/0800V1600 NCD 05/04 Q1025=
201110290150 METAR ESMX 290150Z AUTO 25003KT 2200NDV BR FEW016/// 04/03 Q1025=
201110290120 METAR ESMX 290120Z AUTO 27002KT 2800NDV BR FEW013/// BKN016/// 06/05 Q1025=
201110290050 METAR ESMX 290050Z AUTO 26004G23KT 1100NDV R01/P2000N R19/P2000N BR FEW012/// SCT015/// 05/04 Q1025=
201110290020 METAR ESMX 290020Z AUTO 26003KT 1000NDV R01/P2000N R19/P2000N BR FEW019/// 05/04 Q1024=
201110282350 METAR ESMX 282350Z AUTO 27004KT 9999NDV FEW012/// 07/06 Q1024=
201110282320 METAR ESMX 282320Z AUTO 28003KT 9999NDV FEW014/// 08/06 Q1024=
201110282250 METAR ESMX 282250Z AUTO 28005KT 240V310 7000NDV BR FEW016/// BKN018/// 09/07 Q1024=
201110282220 METAR ESMX 282220Z AUTO 25004KT 210V280 5000NDV BR FEW017/// BKN020/// 09/07 Q1024=
201110282150 METAR ESMX 282150Z AUTO 26004KT 3800NDV BR FEW007/// SCT012/// BKN017/// 09/08 Q1023=
201110282120 METAR ESMX 282120Z AUTO 26004KT 3100NDV BR FEW006/// SCT008/// BKN022/// 09/08 Q1023=
201110282050 METAR ESMX 282050Z AUTO 25005KT 210V280 3400NDV BR FEW006/// SCT008/// BKN022/// 09/08 Q1023=
201110282020 METAR ESMX 282020Z AUTO 24004KT 210V280 3000NDV BR FEW004/// SCT006/// BKN008/// 09/08 Q1022=
201110281950 METAR ESMX 281950Z AUTO 25006KT 2400NDV BR BKN003/// OVC007/// 09/09 Q1022 REDZ=
201110281920 METAR ESMX 281920Z AUTO 25005KT 210V290 2600NDV BR OVC003/// 09/09 Q1022=
201110281850 METAR ESMX 281850Z 24005KT 200V270 2200 BR OVC003 09/08 Q1022=
201110281820 METAR ESMX 281820Z 24005KT 210V280 2000 BR OVC004 09/08 Q1022=
201110281750 METAR ESMX 281750Z 23006KT 3500 BR OVC006 09/08 Q1021=
201110281720 METAR ESMX 281720Z 23006KT 4200 BR OVC007 09/08 Q1021=
201110281650 METAR ESMX 281650Z 22007KT 4500 BR BKN008 OVC011 09/08 Q1021=
201110281620 METAR ESMX 281620Z 20006KT 4600 BR OVC010 09/08 Q1021=
201110281550 METAR ESMX 281550Z 20006KT 4400 BR OVC010 09/08 Q1020=
201110281520 METAR ESMX 281520Z 21006KT 4800 BR FEW010 OVC013 10/08 Q1020=
201110281450 METAR ESMX 281450Z 20006KT 5000 BR BKN010 OVC016 10/08 Q1020=
201110281420 METAR ESMX 281420Z 22006KT 4300 BR FEW007 OVC010 10/08 Q1020=
201110281350 METAR ESMX 281350Z 21008KT 4300 BR FEW007 BKN009 OVC012 10/08 Q1020=
201110281320 METAR ESMX 281320Z 20008KT 3700 BR FEW007 SCT010 OVC014 10/08 Q1020=
201110281250 METAR ESMX 281250Z 19007KT 3500 BR FEW006 SCT008 BKN011 10/08 Q1020=
201110281220 METAR ESMX 281220Z 17006KT 150V210 3100 BR BKN005 OVC007 10/08 Q1020=
201110281150 METAR ESMX 281150Z 17006KT 130V190 3000 BR OVC005 09/08 Q1020=
201110281120 METAR ESMX 281120Z 18006KT 120V210 3400 BR OVC005 09/08 Q1020=
201110281050 METAR ESMX 281050Z 16006KT 130V200 3500 BR OVC006 09/08 Q1020=
201110281020 METAR ESMX 281020Z 16006KT 130V200 4000 BR OVC006 09/07 Q1020=
201110280950 METAR ESMX 280950Z 16005KT 130V190 4000 BR SCT006 BKN008 OVC010 09/07 Q1020=
201110280920 METAR ESMX 280920Z 17006KT 140V200 4200 BR BKN005 09/07 Q1020=
201110280850 METAR ESMX 280850Z 16005KT 130V200 3800 BR OVC060 09/07 Q1020=
201110280820 METAR ESMX 280820Z 17005KT 140V210 3300 BR OVC004 09/08 Q1021=
201110280750 METAR ESMX 280750Z 18005KT 150V210 3000 BR OVC004 09/08 Q1021=
201110280720 METAR ESMX 280720Z 15004KT 100V190 2700 BR OVC003 09/08 Q1021=
201110280650 METAR ESMX 280650Z 16005KT 120V200 2400 BR OVC002 08/08 Q1021=
201110280620 METAR ESMX 280620Z 15005KT 090V190 2200 BR OVC002 09/08 Q1021=
201110280550 METAR ESMX 280550Z 15005KT 100V210 2300 BR OVC002 09/08 Q1021=
201110280520 METAR ESMX 280520Z 13004KT 090V170 2100 BR OVC002 09/08 Q1021=
201110280450 METAR ESMX 280450Z 14005KT 080V170 1900 BR OVC002 09/08 Q1021=
201110280420 METAR ESMX 280420Z 14005KT 060V190 1600 BR OVC002 09/08 Q1021=
201110280350 METAR ESMX 280350Z 15005KT 110V180 2000 BR OVC002 09/08 Q1021=
201110280320 METAR ESMX 280320Z AUTO 14003KT 090V190 1900NDV BR OVC002/// 09/08 Q1021=
201110280250 METAR ESMX 280250Z AUTO 13004KT 090V180 1900NDV BR BKN002/// OVC004/// 09/08 Q1022=
201110280220 METAR ESMX 280220Z AUTO 13004KT 060V190 1900NDV BR OVC003/// 09/08 Q1022=
201110280150 METAR ESMX 280150Z AUTO 12004KT 090V160 2200NDV BR OVC003/// 09/09 Q1022=
201110280120 METAR ESMX 280120Z AUTO 14004KT 080V190 2100NDV OVC002/// 09/09 Q1022=
201110280050 METAR ESMX 280050Z AUTO 13004KT 080V180 2000NDV OVC001/// 09/09 Q1022=
201110280020 METAR ESMX 280020Z AUTO 13005KT 080V200 1000NDV R01/P2000N R19/P2000N FG OVC001/// 09/09 Q1022=
201110272350 METAR ESMX 272350Z AUTO 14005KT 100V190 0650NDV R01/1900N R19/P2000N FG VV002 09/08 Q1023=
201110272320 METAR ESMX 272320Z 12004KT 060V170 0900 R01/P2000N R19/P2000N FG VV002 09/08 Q1023=
201110272250 METAR ESMX 272250Z 10003KT 060V150 0900 R01/P2000N R19/P2000N FG VV002 09/08 Q1023=
201110272220 METAR ESMX 272220Z 09004KT 050V120 0750 R01/P2000N R19/P2000N FG VV002 08/08 Q1023=
201110272150 METAR ESMX 272150Z 10003KT 050V160 0350 R01/1200N R19/1400N FG VV002 08/08 Q1023=
201110272120 METAR ESMX 272120Z 09003KT 040V140 0450 R01/1500D R19/1900D FG VV002 08/07 Q1024=
201110272020 METAR ESMX 272020Z 09003KT 010V150 1300 R01/P2000N R19/P2000N BR OVC002 08/07 Q1024=
201110271950 METAR ESMX 271950Z 11004KT 030V170 2700 BR OVC003 08/07 Q1024=
201110271920 METAR ESMX 271920Z 11005KT 050V160 4100 BR FEW004 OVC006 08/07 Q1024=
201110271850 METAR ESMX 271850Z 11004KT 050V180 5000 BR FEW007 SCT008 OVC010 08/07 Q1024=
201110271820 METAR ESMX 271820Z 11003KT 050V160 7000 BR OVC010 08/07 Q1024=
201110271750 METAR ESMX 271750Z 07004KT 040V100 8000 BR OVC013 08/07 Q1024=
201110271720 METAR ESMX 271720Z VRB02KT 6000 BR OVC014 08/07 Q1024=
201110271650 METAR ESMX 271650Z VRB02KT 8000 BR OVC014 08/07 Q1024=
201110271620 METAR ESMX 271620Z 08003KT 040V120 7000 BR OVC013 08/07 Q1024=
201110271550 METAR ESMX 271550Z 06002KT 9999 BKN014 08/07 Q1024=
201110271520 METAR ESMX 271520Z 06002KT 9999 BKN013 08/07 Q1024=
201110271450 METAR ESMX 271450Z VRB02KT 9999 BKN013 08/07 Q1024=
201110271420 METAR ESMX 271420Z VRB02KT 9999 OVC010 08/07 Q1025=
201110271350 METAR ESMX 271350Z 11003KT 070V160 9999 OVC007 09/07 Q1024=
201110271320 METAR ESMX 271320Z VRB01KT 9999 OVC007 09/07 Q1024=
201110271250 METAR ESMX 271250Z VRB01KT 9000 BR FEW005 OVC007 09/07 Q1025=
201110271220 METAR ESMX 271220Z VRB02KT 9000 BR OVC006 08/07 Q1024=
201110271150 METAR ESMX 271150Z 18003KT SCT005 OVC007 08/07 Q1024=
201110271120 METAR ESMX 271120Z VRB02KT 9000 BR FEW006 OVC007 09/07 Q1024=
201110271050 METAR ESMX 271050Z VRB02KT 8000 BR OVC007 08/08 Q1024=
201110271020 METAR ESMX 271020Z VRB02KT 6000 BR FEW005 OVC007 08/08 Q1024=
201110270950 METAR ESMX 270950Z VRB02KT 5000 BR OVC004 08/08 Q1024=
201110270920 METAR ESMX 270920Z 17003KT 120V190 5000 BR OVC005 08/08 Q1023=
201110270850 METAR ESMX 270850Z 18002KT 5000 BR OVC005 08/08 Q1023=
201110270820 METAR ESMX 270820Z 11002KT 3800 BR FEW004 OVC005 08/08 Q1023=
201110270750 METAR ESMX 270750Z VRB01KT 3500 BR FEW003 OVC004 08/08 Q1023=
201110270720 METAR ESMX 270720Z 12001KT 3000 BR SCT004 OVC005 08/07 Q1023=
201110270650 METAR ESMX 270650Z VRB01KT 3000 BR SCT004 OVC006 08/07 Q1023=
201110270620 METAR ESMX 270620Z VRB01KT 3500 BR FEW004 OVC006 08/07 Q1022=
201110270550 METAR ESMX 270550Z VRB02KT 3500 BR OVC003 08/07 Q1022=
201110270520 METAR ESMX 270520Z 22003KT 190V250 2700 BR FEW001 OVC003 08/07 Q1022=
201110270450 METAR ESMX 270450Z 23003KT 190V260 1800 BR OVC003 08/08 Q1021=
201110270420 METAR ESMX 270420Z 22003KT 2200 BKN003 OVC005 08/08 Q1021=
201110270350 METAR ESMX 270350Z 20005KT 1100 R01/P2000N R19/P2000N OVC001 08/08 Q1021=
201110270320 METAR ESMX 270320Z AUTO VRB02KT 0250NDV R01/0800V1700 R19/1000N FG VV001 08/08 Q1020=
201110270250 METAR ESMX 270250Z AUTO 15003KT 120V190 0200NDV R01/0750N R19/0900N FG VV001 08/08 Q1020=
201110270220 METAR ESMX 270220Z AUTO 15003KT 130V190 0150NDV R01/0650N R19/0800 FG VV000 08/08 Q1020=
201110270150 METAR ESMX 270150Z AUTO 16003KT 120V190 0150NDV R01/0650N R19/0700N FG VV000 08/08 Q1020=
201110270120 METAR ESMX 270120Z AUTO 16003KT 120V190 0200NDV R01/0700N R19/0800N FG VV001 08/08 Q1020=
201110270050 METAR ESMX 270050Z AUTO 17004KT 0250NDV R01/0900N R19/1000D FG VV001 08/08 Q1020=
201110270020 METAR ESMX 270020Z AUTO 15004KT 120V180 0450NDV R01/1400D R19/1800D FG VV001 08/07 Q1019=
201110262350 METAR ESMX 262350Z AUTO 16004KT 130V190 2100NDV BR OVC001/// 08/07 Q1019=
201110262320 METAR ESMX 262320Z 14003KT 070V190 5000 BR OVC002 08/07 Q1019=
201110262250 METAR ESMX 262250Z 12003KT 080V160 5000 -RA OVC003 08/07 Q1018 REDZ=
201110262220 METAR ESMX 262220Z 14003KT 090V170 4900 -RA SCT003 BKN005 08/07 Q1018=
201110262150 METAR ESMX 262150Z 14003KT 110V170 5000 -RA FEW002 OVC004 08/07 Q1018=
201110262120 METAR ESMX 262120Z 13003KT 080V170 4500 -RA FEW002 OVC004 08/07 Q1018=
201110262020 METAR ESMX 262020Z 14003KT 100V180 5000 DZ FEW003 OVC005 08/07 Q1018=
201110261950 METAR ESMX 261950Z 14004KT 090V200 5000 -RA OVC004 08/07 Q1018=
201110261920 METAR ESMX 261920Z 15004KT 100V200 5000 -RA SCT004 BKN006 08/07 Q1018=
201110261850 METAR ESMX 261850Z 13004KT 050V170 6000 -RA BKN005 OVC007 08/07 Q1018=
201110261820 METAR ESMX 261820Z 12003KT 060V180 4900 -RA BKN005 OVC007 08/07 Q1018=
201110261750 METAR ESMX 261750Z 12004KT 060V180 4000 -RA OVC005 08/07 Q1018=
201110261720 METAR ESMX 261720Z 14005KT 100V190 3600 RA OVC004 08/07 Q1018=
201110261650 METAR ESMX 261650Z 13006KT 080V190 3500 RA OVC005 08/07 Q1018 REDZ=
201110261620 METAR ESMX 261620Z 12005KT 060V180 5000 DZ OVC005 08/07 Q1018=
201110261550 METAR ESMX 261550Z 12005KT 070V170 6000 -DZ OVC005 08/07 Q1017=
201110261520 METAR ESMX 261520Z 12005KT 070V170 6000 -DZ OVC006 08/07 Q1017=
201110261450 METAR ESMX 261450Z 11006KT 010V170 6000 -RA BKN006 OVC009 08/07 Q1017=
201110261420 METAR ESMX 261420Z 12006KT 080V170 6000 DZ OVC007 08/07 Q1018=
201110261350 METAR ESMX 261350Z 11006KT 060V160 6000 BR OVC007 08/07 Q1017=
201110261320 METAR ESMX 261320Z 11006KT 060V150 5000 -RA OVC007 08/07 Q1018=
201110261250 METAR ESMX 261250Z 12009KT 040V160 7000 -RA OVC007 08/06 Q1018=
201110261220 METAR ESMX 261220Z 12005KT 030V190 7000 -DZ OVC006 08/06 Q1018=
201110261150 METAR ESMX 261150Z 11008KT 050V190 8000 BR OVC006 08/06 Q1018=
201110261120 METAR ESMX 261120Z 11007KT 050V160 9999 OVC006 08/06 Q1018=
201110261050 METAR ESMX 261050Z 12008KT 080V190 9999 OVC007 08/06 Q1018=
201110261020 METAR ESMX 261020Z 12009KT 080V170 9999 OVC007 08/06 Q1018=
201110260950 METAR ESMX 260950Z 12008KT 060V170 9000 OVC008 08/06 Q1018=
201110260920 METAR ESMX 260920Z 11013KT 050V160 9999 OVC009 08/06 Q1018=
201110260850 METAR ESMX 260850Z 12008KT 050V160 9999 OVC010 08/06 Q1018=
201110260820 METAR ESMX 260820Z 11007KT 060V170 9999 BKN011 08/05 Q1018=
201110260750 METAR ESMX 260750Z 11008G18KT 050V190 9999 BKN011 08/05 Q1018=
201110260720 METAR ESMX 260720Z 10010KT 070V140 9999 BKN011 08/05 Q1018=
201110260650 METAR ESMX 260650Z VRB07KT 9999 BKN010 07/05 Q1018=
201110260620 METAR ESMX 260620Z 09009KT 050V140 9999 SCT010 BKN013 07/05 Q1018=
201110260550 METAR ESMX 260550Z 09008KT 030V140 9999 SCT010 BKN014 07/05 Q1018=
201110260520 METAR ESMX 260520Z 09008KT 030V170 9999 OVC010 07/05 Q1018=
201110260450 METAR ESMX 260450Z 09009G19KT 360V140 9999 OVC009 07/04 Q1018=
201110260420 METAR ESMX 260420Z 09008KT 030V150 9999 OVC009 07/04 Q1019=
201110260350 METAR ESMX 260350Z 09009KT 050V150 9999 OVC009 07/04 Q1019=
201110260320 METAR ESMX 260320Z AUTO 08008G20KT 030V140 9999NDV OVC009/// 07/04 Q1019=
201110260250 METAR ESMX 260250Z AUTO 10008KT 050V160 9999NDV OVC010/// 07/04 Q1020=
201110260220 METAR ESMX 260220Z AUTO 08008KT 010V130 9999NDV OVC010/// 07/04 Q1020=
201110260150 METAR ESMX 260150Z AUTO 09008KT 340V140 9999NDV OVC011/// 07/04 Q1020=
201110260120 METAR ESMX 260120Z AUTO 09007KT 030V140 9999NDV OVC012/// 07/04 Q1021=
201110260050 METAR ESMX 260050Z AUTO 09008KT 040V150 9999NDV OVC013/// 07/04 Q1021=
201110260020 METAR ESMX 260020Z AUTO 09008KT 030V150 9999NDV OVC013/// 07/04 Q1021=
201110252350 METAR ESMX 252350Z AUTO 09006KT 350V150 9999NDV OVC014/// 07/04 Q1021=
201110252320 METAR ESMX 252320Z 10007KT 030V150 9999 FEW014 OVC017 07/04 Q1022=
201110252250 METAR ESMX 252250Z 10006KT 020V140 9999 FEW015 OVC020 07/04 Q1022=
201110252220 METAR ESMX 252220Z 10007KT 040V170 9999 FEW016 OVC020 07/04 Q1022=
201110252150 METAR ESMX 252150Z 10007KT 050V170 9999 FEW015 BKN018 BKN021 07/04 Q1022=
201110252120 METAR ESMX 252120Z 10007KT 060V150 9999 FEW013 SCT020 06/04 Q1022=
201110252050 METAR ESMX 252050Z 10007KT 050V150 9999 SCT020 07/04 Q1023=
201110252020 METAR ESMX 252020Z 10006KT 050V160 9999 FEW014 SCT022 07/04 Q1023=
201110251950 METAR ESMX 251950Z 11008KT 070V160 9999 FEW013 SCT016 07/04 Q1023=
201110251920 METAR ESMX 251920Z 11008KT 040V150 9999 BKN013 07/04 Q1023=
201110251850 METAR ESMX 251850Z 11008KT 060V190 9999 OVC013 07/04 Q1023=
201110251820 METAR ESMX 251820Z 11009KT 070V160 9999 BKN013 BKN017 07/05 Q1023=
201110251750 METAR ESMX 251750Z 11009KT 070V190 9999 BKN013 07/04 Q1023=
201110251720 METAR ESMX 251720Z 10008KT 010V140 9999 BKN013 07/04 Q1023=
201110251650 METAR ESMX 251650Z 11007KT 030V160 9999 FEW013 07/04 Q1023=
201110251620 METAR ESMX 251620Z 10008KT 050V160 9999 FEW020 07/04 Q1023=
201110251550 METAR ESMX 251550Z 09007KT 040V140 CAVOK 08/04 Q1023=
201110251520 METAR ESMX 251520Z 09006KT 020V150 CAVOK 08/04 Q1023=
201110251450 METAR ESMX 251450Z 10008KT 040V160 CAVOK 09/04 Q1023=
201110251420 METAR ESMX 251420Z 10006KT 050V160 9999 FEW020 09/04 Q1023=
201110251350 METAR ESMX 251350Z 10006KT 030V170 9999 BKN017 08/04 Q1023=
201110251320 METAR ESMX 251320Z 11006KT 050V170 9999 BKN017 09/05 Q1024=
201110251250 METAR ESMX 251250Z 11008KT 050V150 9999 BKN020 09/05 Q1024=
201110251220 METAR ESMX 251220Z 12008KT 070V170 9999 FEW018 BKN021 09/05 Q1024=
201110251150 METAR ESMX 251150Z 12010KT 030V170 9999 FEW018 BKN021 09/05 Q1024=
201110251120 METAR ESMX 251120Z 11006KT 050V160 9999 SCT017 BKN022 09/05 Q1024=
201110251050 METAR ESMX 251050Z 12007KT 060V170 9999 SCT017 BKN021 09/05 Q1024=
201110251020 METAR ESMX 251020Z 12008KT 060V170 9999 SCT014 BKN018 09/05 Q1025=
201110250950 METAR ESMX 250950Z 11008KT 070V170 9999 SCT010 OVC015 08/05 Q1025=
201110250920 METAR ESMX 250920Z 12008KT 040V170 9999 OVC012 08/05 Q1025=
201110250850 METAR ESMX 250850Z 12007KT 070V170 9999 BR BKN010 08/05 Q1025=
201110250820 METAR ESMX 250820Z 11006KT 070V170 9999 BR BKN009 07/05 Q1025=
201110250750 METAR ESMX 250750Z 11005KT 060V170 9000 BR BKN009 07/05 Q1024=
201110250720 METAR ESMX 250720Z 11006KT 050V160 8000 BR SCT007 BKN009 07/05 Q1024=
201110250650 METAR ESMX 250650Z 11006KT 070V160 9999 SCT006 BKN009 06/05 Q1024=
201110250620 METAR ESMX 250620Z 11006KT 050V170 7000 BR FEW006 BKN008 06/05 Q1024=
201110250550 METAR ESMX 250550Z 09004KT 020V140 7000 BR BKN008 05/04 Q1024=
201110250520 METAR ESMX 250520Z 10004KT 050V170 8000 BR FEW015 05/04 Q1024=
201110250450 METAR ESMX 250450Z 10004KT 060V150 9000 BR NSC 05/04 Q1024=
201110250420 METAR ESMX 250420Z 11005KT 060V160 8000 BR NSC 05/04 Q1024=
201110250350 METAR ESMX 250350Z 10005KT 050V160 8000 BR NSC 05/04 Q1024=
201110250320 METAR ESMX 250320Z AUTO 10004KT 050V150 7000NDV BR NCD 05/04 Q1025=
201110250250 METAR ESMX 250250Z AUTO 10004KT 040V140 8000NDV BR NCD 05/04 Q1025=
201110250220 METAR ESMX 250220Z AUTO 10003KT 060V150 9000NDV BR NCD 05/04 Q1025=
201110250150 METAR ESMX 250150Z AUTO 10003KT 030V170 8000NDV BR NCD 05/04 Q1025=
201110250120 METAR ESMX 250120Z AUTO 10003KT 050V180 8000NDV BR NCD 05/04 Q1025=
201110250050 METAR ESMX 250050Z AUTO 10004KT 050V170 8000NDV BR NCD 05/04 Q1025=
201110250020 METAR ESMX 250020Z AUTO 09004KT 040V150 8000NDV BR FEW010/// 06/05 Q1025=
201110242350 METAR ESMX 242350Z AUTO 11004KT 060V170 9000NDV BR FEW009/// 06/05 Q1026=
201110242320 METAR ESMX 242320Z 12004KT 070V170 9000 BR BKN010 07/05 Q1026=
201110242250 METAR ESMX 242250Z 13005KT 060V180 9000 BR OVC011 08/05 Q1026=
201110242220 METAR ESMX 242220Z 13006KT 030V180 9000 BR OVC012 08/05 Q1026=
201110242150 METAR ESMX 242150Z 13006KT 080V170 9000 BR OVC012 08/05 Q1026=
201110242120 METAR ESMX 242120Z 13005KT 060V190 9000 BR OVC013 08/05 Q1026=
201110242050 METAR ESMX 242050Z 11005KT 050V170 9999 BR OVC014 08/05 Q1026=
201110242020 METAR ESMX 242020Z 12006KT 070V180 9999 BR OVC013 07/05 Q1026=
201110241950 METAR ESMX 241950Z 12005KT 080V190 9999 BR OVC013 07/05 Q1026=
201110241920 METAR ESMX 241920Z 12006KT 050V170 9999 BR OVC013 07/04 Q1026=
201110241850 METAR ESMX 241850Z 11004KT 060V160 9000 BR OVC013 07/04 Q1026=
201110241820 METAR ESMX 241820Z 11006KT 050V180 8000 BR OVC011 07/04 Q1026=
201110241750 METAR ESMX 241750Z 11006KT 030V160 8000 BR OVC010 06/04 Q1026=
201110241720 METAR ESMX 241720Z 11005KT 050V160 7000 BR FEW009 OVC011 07/05 Q1026=
201110241650 METAR ESMX 241650Z 11006KT 060V160 6000 BR SCT006 BKN008 07/05 Q1026=
201110241620 METAR ESMX 241620Z 10005KT 040V150 5000 BR OVC005 07/05 Q1026=
201110241550 METAR ESMX 241550Z 11005KT 050V210 6000 BR OVC006 07/05 Q1026=
201110241520 METAR ESMX 241520Z 11006KT 050V160 8000 BR OVC008 07/05 Q1026=
201110241450 METAR ESMX 241450Z 12005KT 060V170 9000 BR OVC009 07/05 Q1026=
201110241420 METAR ESMX 241420Z 11005KT 030V160 8000 BR FEW007 OVC009 07/04 Q1026=
201110241350 METAR ESMX 241350Z 11004KT 070V160 7000 BR BKN006 OVC009 06/04 Q1026=
201110241320 METAR ESMX 241320Z 11005KT 070V160 7000 BR SCT004 OVC007 06/04 Q1026=
201110241250 METAR ESMX 241250Z 11005KT 030V170 7000 BR OVC005 06/05 Q1027=
201110241220 METAR ESMX 241220Z 12007KT 050V160 6000 BR OVC006 06/05 Q1027=
201110241150 METAR ESMX 241150Z 12006KT 060V190 6000 BR OVC006 06/05 Q1027=
201110241120 METAR ESMX 241120Z 13006KT 070V180 6000 BR OVC006 06/05 Q1027=
201110241050 METAR ESMX 241050Z 13006KT 070V180 6000 BR OVC005 06/05 Q1027=
201110241020 METAR ESMX 241020Z VRB04KT 4600 BR OVC005 06/05 Q1027=
201110240950 METAR ESMX 240950Z 11005KT 070V180 6000 BR OVC005 06/05 Q1027=
201110240920 METAR ESMX 240920Z 14003KT 070V200 6000 BR OVC005 06/04 Q1027=
201110240850 METAR ESMX 240850Z 12005KT 050V210 7000 BR OVC005 06/05 Q1027=
201110240820 METAR ESMX 240820Z 13004KT 070V190 6000 BR OVC005 06/04 Q1027=
201110240750 METAR ESMX 240750Z 13003KT 080V190 6000 BR OVC005 06/04 Q1027=
201110240720 METAR ESMX 240720Z 13004KT 050V170 8000 BR OVC005 05/04 Q1027=
201110240650 METAR ESMX 240650Z 13005KT 080V170 9999 OVC006 05/04 Q1027=
201110240620 METAR ESMX 240620Z 15005KT 110V180 9999 OVC006 05/04 Q1027=
201110240550 METAR ESMX 240550Z 15005KT 100V190 9999 OVC006 05/04 Q1026=
201110240520 METAR ESMX 240520Z 13005KT 080V170 9000 BR OVC006 05/04 Q1026=
201110240450 METAR ESMX 240450Z 15005KT 110V190 9000 BR OVC007 06/04 Q1026=
201110240420 METAR ESMX 240420Z 15005KT 9999 BR OVC006 06/04 Q1026=
201110240350 METAR ESMX 240350Z 16005KT 130V200 9999 BR OVC007 06/04 Q1026=
201110240320 METAR ESMX 240320Z AUTO 16006KT 100V200 9999NDV BR OVC007/// 06/04 Q1026=
201110240250 METAR ESMX 240250Z AUTO 16006KT 110V200 9999NDV BR OVC007/// 06/04 Q1026=
201110240150 METAR ESMX 240150Z AUTO 17005KT 130V210 9000NDV BR OVC005/// 06/04 Q1026=
201110240120 METAR ESMX 240120Z AUTO 15005KT 110V210 6000NDV BR OVC004/// 05/04 Q1026=
201110240050 METAR ESMX 240050Z AUTO 16006KT 100V200 5000NDV BR OVC004/// 05/04 Q1026=
201110240020 METAR ESMX 240020Z AUTO 16006KT 5000NDV BR OVC005/// 05/04 Q1026=
201110232350 METAR ESMX 232350Z AUTO 16005KT 110V190 5000NDV BR BKN008/// OVC011/// 05/04 Q1026=
201110232320 METAR ESMX 232320Z 14003KT 080V170 4000 BR BKN011 04/03 Q1026=
201110232250 METAR ESMX 232250Z 15003KT 100V190 3700 BR FEW012 04/03 Q1026=
201110232220 METAR ESMX 232220Z 15003KT 110V180 3700 BR NSC 04/03 Q1026=
201110232150 METAR ESMX 232150Z 14003KT 100V170 3900 BR NSC 04/03 Q1026=
201110232120 METAR ESMX 232120Z 15003KT 120V180 4000 BR NSC 04/03 Q1026=
201110232050 METAR ESMX 232050Z 15003KT 100V190 4300 BR NSC 04/03 Q1026=
201110232020 METAR ESMX 232020Z 14003KT 110V170 4500 BR NSC 04/03 Q1026=
201110231950 METAR ESMX 231950Z 15004KT 110V200 5000 BR NSC 04/03 Q1025=
201110231920 METAR ESMX 231920Z 14005KT 110V180 6000 BR NSC 04/03 Q1025=
201110231850 METAR ESMX 231850Z 15005KT 120V180 8000 BR NSC 05/03 Q1025=
201110231820 METAR ESMX 231820Z 15006KT 080V180 CAVOK 05/03 Q1025=
201110231750 METAR ESMX 231750Z 15006KT 100V200 CAVOK 05/03 Q1025=
201110231720 METAR ESMX 231720Z 14005KT 110V170 CAVOK 06/03 Q1025=
201110231650 METAR ESMX 231650Z 15004KT 110V190 CAVOK 06/03 Q1025=
201110231620 METAR ESMX 231620Z 15004KT 110V190 CAVOK 06/03 Q1025=
201110231550 METAR ESMX 231550Z 15005KT 120V190 CAVOK 07/03 Q1025=
201110231520 METAR ESMX 231520Z 16005KT 130V200 CAVOK 08/03 Q1025=
201110231450 METAR ESMX 231450Z 17007KT 140V210 CAVOK 09/03 Q1025=
201110231420 METAR ESMX 231420Z 17009KT 140V200 CAVOK 09/03 Q1025=
201110231350 METAR ESMX 231350Z 16009KT 120V200 CAVOK 10/03 Q1025=
201110231320 METAR ESMX 231320Z 16008KT 110V200 CAVOK 10/03 Q1025=
201110231250 METAR ESMX 231250Z 15008KT 100V200 9999 FEW025 10/03 Q1025=
201110231220 METAR ESMX 231220Z AUTO 17009KT 140V210 9999NDV NCD 10/03 Q1025=
201110231150 METAR ESMX 231150Z 15009KT 080V200 9999 FEW023 10/04 Q1025=
201110231120 METAR ESMX 231120Z 17009KT 130V210 9999 FEW023 09/04 Q1025=
201110231050 METAR ESMX 231050Z 16010KT 120V200 9999 FEW015 09/03 Q1025=
201110231020 METAR ESMX 231020Z 18008KT 140V200 9999 FEW010 09/04 Q1025=
201110230950 METAR ESMX 230950Z 17008KT 140V210 9999 FEW007 08/04 Q1025=
201110230920 METAR ESMX 230920Z 15008KT 120V210 CAVOK 07/04 Q1025=
201110230850 METAR ESMX 230850Z 16005KT 110V200 CAVOK 06/04 Q1025=
201110230820 METAR ESMX 230820Z AUTO 15005KT 100V180 9000NDV BR NCD 05/05 Q1025=
201110230750 METAR ESMX 230750Z AUTO 16005KT 130V190 5000NDV BR NCD 04/04 Q1025=
201110230720 METAR ESMX 230720Z AUTO 14004KT 110V170 2800NDV BR FEW002/// 03/03 Q1025=
201110230650 METAR ESMX 230650Z AUTO 14004KT 090V170 1900NDV SCT001/// 03/02 Q1025=
201110230620 METAR ESMX 230620Z AUTO 14004KT 100V170 1100NDV R01/1800D R19/P2000N FEW001/// 03/02 Q1024=
201110230550 METAR ESMX 230550Z AUTO 15004KT 0550NDV R01/1100VP2000U R19/P2000N FG BKN001/// 03/02 Q1024=
201110230520 METAR ESMX 230520Z AUTO 15004KT 0250NDV R01/0800V1200N R19/P2000N FG OVC001/// 03/02 Q1024=
201110230450 METAR ESMX 230450Z AUTO 15004KT 110V170 0250NDV R01/0750V1100N R19/1300VP2000U FG VV001 03/02 Q1024=
201110230420 METAR ESMX 230420Z AUTO 15004KT 110V170 0250NDV R01/0900N R19/P2000D FG BKN001/// 03/02 Q1024=
201110230350 METAR ESMX 230350Z AUTO 15005KT 120V180 0250NDV R01/0800V1300D R19/P2000D FG FEW001/// 03/02 Q1024=
201110230320 METAR ESMX 230320Z AUTO 15004KT 0400NDV R01/P2000N R19/P2000D BR NCD 03/02 Q1024=
201110230250 METAR ESMX 230250Z AUTO 15003KT 1600NDV BR NCD 03/03 Q1024=
201110230220 METAR ESMX 230220Z AUTO 16004KT 1800NDV BR NCD 03/02 Q1024=
201110230150 METAR ESMX 230150Z AUTO 17003KT 1500NDV BR NCD 04/03 Q1024=
201110230120 METAR ESMX 230120Z AUTO 16004KT 2000NDV BR NCD 04/03 Q1024=
201110230050 METAR ESMX 230050Z AUTO 16004KT 1800NDV BR NCD 04/03 Q1024=
201110230020 METAR ESMX 230020Z AUTO 16003KT 130V200 2500NDV BR NCD 04/03 Q1025=
201110222350 METAR ESMX 222350Z AUTO 16004KT 3800NDV BR NCD 04/03 Q1025=
201110222320 METAR ESMX 222320Z AUTO 18004KT 3600NDV BR NCD 04/02 Q1025=
201110222250 METAR ESMX 222250Z AUTO 18003KT 4100NDV BR NCD 04/03 Q1025=
201110222220 METAR ESMX 222220Z AUTO 18004KT 5000NDV BR NCD 05/03 Q1025=
201110222150 METAR ESMX 222150Z AUTO 18006KT 6000NDV BR NCD 05/03 Q1025=
201110222120 METAR ESMX 222120Z AUTO 20005KT 7000NDV FEW032/// 06/04 Q1025=
201110222050 METAR ESMX 222050Z AUTO 18006KT 9999NDV OVC031/// 07/05 Q1025=
201110222020 METAR ESMX 222020Z AUTO 20006KT 9999NDV OVC030/// 07/04 Q1025=
201110221950 METAR ESMX 221950Z AUTO 20005KT 160V230 9999NDV OVC031/// 08/04 Q1024=
201110221920 METAR ESMX 221920Z AUTO 18007KT 150V210 9999NDV OVC031/// 08/04 Q1024=
201110221850 METAR ESMX 221850Z AUTO 19006KT 160V230 9999NDV OVC031/// 08/05 Q1024=
201110221820 METAR ESMX 221820Z AUTO 18005KT 150V210 9999NDV OVC030/// 09/06 Q1024=
201110221750 METAR ESMX 221750Z AUTO 19005KT 9999NDV OVC030/// 09/06 Q1024=
201110221720 METAR ESMX 221720Z AUTO 19004KT 9999NDV OVC030/// 09/07 Q1024=
201110221650 METAR ESMX 221650Z AUTO 21004KT 9999NDV FEW017/// OVC031/// 09/07 Q1024=
201110221620 METAR ESMX 221620Z AUTO 20006KT 9999NDV BKN017/// OVC031/// 09/07 Q1024=
201110221550 METAR ESMX 221550Z AUTO 20005KT 9999NDV OVC015/// 09/07 Q1024=
201110221520 METAR ESMX 221520Z AUTO 22007KT 9999NDV OVC013/// 10/07 Q1023=
201110221450 METAR ESMX 221450Z AUTO 22005KT 9999NDV OVC012/// 10/07 Q1023=
201110221420 METAR ESMX 221420Z AUTO 20007KT 9000NDV BR OVC010/// 10/08 Q1023=
201110221350 METAR ESMX 221350Z AUTO 20006KT 8000NDV BR FEW009/// OVC010/// 10/08 Q1023=
201110221320 METAR ESMX 221320Z AUTO 20005KT 170V230 4200NDV BR FEW006/// SCT008/// BKN009/// 09/08 Q1023=
201110221250 METAR ESMX 221250Z AUTO 21005KT 2200NDV BR FEW004/// BKN005/// OVC007/// 09/08 Q1023=
201110221220 METAR ESMX 221220Z 21007KT 2200 BR FEW004 BKN005 OVC007 09/08 Q1023=
201110221150 METAR ESMX 221150Z 21007KT 2000 BR OVC004 08/08 Q1023=
201110221120 METAR ESMX 221120Z 20008KT 3000 BR OVC004 08/07 Q1023=
201110221050 METAR ESMX 221050Z 22008KT 5000 BR OVC005 08/07 Q1023=
201110221020 METAR ESMX 221020Z 22008KT 3000 BR OVC005 08/07 Q1023=
201110220950 METAR ESMX 220950Z 21009KT 3400 BR OVC005 08/07 Q1023=
201110220920 METAR ESMX 220920Z 22010KT 3500 BR OVC005 08/07 Q1023=
201110220850 METAR ESMX 220850Z 21010G24KT 4000 BR OVC006 08/07 Q1023=
201110220820 METAR ESMX 220820Z 23009KT 200V260 3400 BR OVC006 08/07 Q1023=
201110220750 METAR ESMX 220750Z 23010KT 4800 BR OVC006 08/07 Q1023=
201110220720 METAR ESMX 220720Z 21010KT 190V250 5000 BR OVC006 08/06 Q1022=
201110220650 METAR ESMX 220650Z 22010KT 190V250 5000 BR OVC006 08/06 Q1022=
201110220620 METAR ESMX 220620Z AUTO 22010KT 5000NDV BR OVC006/// 07/06 Q1022=
201110220550 METAR ESMX 220550Z AUTO 22010KT 5000NDV BR OVC006/// 07/06 Q1021=
201110220520 METAR ESMX 220520Z AUTO 21010KT 5000NDV BR OVC006/// 07/06 Q1021=
201110220450 METAR ESMX 220450Z AUTO 21010KT 6000NDV BR OVC006/// 07/06 Q1021=
201110220420 METAR ESMX 220420Z AUTO 22011KT 7000NDV BR OVC008/// 07/06 Q1021=
201110220350 METAR ESMX 220350Z AUTO 20009KT 9000NDV BR OVC009/// 07/06 Q1021=
201110220320 METAR ESMX 220320Z AUTO 20009KT 9999NDV BR OVC009/// 07/06 Q1021=
201110220250 METAR ESMX 220250Z AUTO 22010KT 180V260 6000NDV BR OVC010/// 07/06 Q1021=
201110220220 METAR ESMX 220220Z AUTO 20010KT 150V240 9999NDV OVC010/// 07/06 Q1021=
201110220150 METAR ESMX 220150Z AUTO 20011KT 9999NDV FEW009/// OVC011/// 07/06 Q1021=
201110220120 METAR ESMX 220120Z AUTO 20012KT 6000NDV BR FEW009/// BKN011/// BKN019/// 07/06 Q1021=
201110220050 METAR ESMX 220050Z AUTO 20010KT 9999NDV FEW008/// BKN012/// OVC023/// 07/06 Q1021=
201110220020 METAR ESMX 220020Z AUTO 20011KT 9000NDV BR FEW008/// OVC010/// 07/06 Q1021=
201110212350 METAR ESMX 212350Z AUTO 20011KT 9000NDV BR FEW005/// SCT007/// OVC009/// 07/06 Q1021=
201110212320 METAR ESMX 212320Z AUTO 21010KT 7000NDV BR OVC005/// 07/06 Q1021=
201110212250 METAR ESMX 212250Z AUTO 20010KT 7000NDV BR OVC004/// 07/06 Q1021=
201110212220 METAR ESMX 212220Z AUTO 20009KT 7000NDV DZ OVC004/// 07/06 Q1021=
201110212150 METAR ESMX 212150Z AUTO 20010KT 8000NDV DZ OVC004/// 07/06 Q1021=
201110212120 METAR ESMX 212120Z AUTO 22010KT 7000NDV DZ OVC005/// 07/06 Q1022=
201110212050 METAR ESMX 212050Z AUTO 20009KT 9999NDV -RA FEW007/// SCT009/// BKN020/// 07/05 Q1022 REDZ=
201110212020 METAR ESMX 212020Z AUTO 19008KT 9999NDV DZ FEW011/// SCT026/// BKN029/// 06/05 Q1022=
201110211950 METAR ESMX 211950Z AUTO 19008KT 9999NDV -DZ FEW024/// SCT034/// BKN048/// 06/04 Q1022=
201110211920 METAR ESMX 211920Z AUTO 19008KT 9999NDV FEW019/// BKN048/// 06/04 Q1022=
201110211850 METAR ESMX 211850Z 19008KT 9999 FEW034 BKN050 06/04 Q1022=
201110211820 METAR ESMX 211820Z 20006KT 9999 FEW033 SCT050 06/04 Q1022=
201110211750 METAR ESMX 211750Z 18006KT 9999 SCT040 05/03 Q1022=
201110211720 METAR ESMX 211720Z 18006KT 9999 BKN037 05/03 Q1022=
201110211650 METAR ESMX 211650Z 19006KT 9999 BKN040 06/03 Q1022=
201110211620 METAR ESMX 211620Z 21005KT 9999 FEW041 05/02 Q1022=
201110211550 METAR ESMX 211550Z 20004KT 9999 FEW042 05/03 Q1022=
201110211520 METAR ESMX 211520Z 23005KT 180V250 9999 FEW019 SCT042 07/03 Q1021=
201110211450 METAR ESMX 211450Z 24007KT 9999 FEW025 BKN032 BKN039 07/03 Q1021=
201110211420 METAR ESMX 211420Z 23005KT 200V260 9999 FEW032 BKN038 08/04 Q1021=
201110211350 METAR ESMX 211350Z 22007KT 190V250 9999 BKN037 08/03 Q1021=
201110211320 METAR ESMX 211320Z 24007KT 210V280 9999 BKN030 OVC040 08/03 Q1021=
201110211250 METAR ESMX 211250Z 25007KT 9999 FEW032 OVC039 08/02 Q1021=
201110211220 METAR ESMX 211220Z 27006KT 230V300 9999 BKN030 08/02 Q1021=
201110211150 METAR ESMX 211150Z 27007KT 9999 FEW028 BKN043 08/02 Q1021=
201110211120 METAR ESMX 211120Z 26006KT 220V300 9999 FEW027 BKN038 08/02 Q1021=
201110211050 METAR ESMX 211050Z 28009KT 9999 BKN035 07/02 Q1021=
201110211020 METAR ESMX 211020Z 26007KT 220V300 CAVOK 08/02 Q1021=
201110210950 METAR ESMX 210950Z 23005KT 200V280 CAVOK 07/02 Q1021=
201110210920 METAR ESMX 210920Z 22006KT 200V260 CAVOK 06/03 Q1020=
201110210850 METAR ESMX 210850Z 23005KT 200V260 CAVOK 05/03 Q1020=
201110210820 METAR ESMX 210820Z 21006KT CAVOK 04/02 Q1020=
201110210750 METAR ESMX 210750Z 22005KT CAVOK 03/02 Q1020=
201110210720 METAR ESMX 210720Z 21004KT 9999 FEW044 01/01 Q1020=
201110210650 METAR ESMX 210650Z 22005KT 9999 SCT033 01/00 Q1020=
201110210620 METAR ESMX 210620Z 22004KT 9999 FEW032 M01/M01 Q1019=
201110210550 METAR ESMX 210550Z 20003KT CAVOK M01/M01 Q1019=
201110210520 METAR ESMX 210520Z 19003KT CAVOK M01/M01 Q1019=
201110210450 METAR ESMX 210450Z 23003KT CAVOK M01/M01 Q1018=
201110210420 METAR ESMX 210420Z 23004KT CAVOK M01/M01 Q1018=
201110210350 METAR ESMX 210350Z 25003KT CAVOK M01/M01 Q1018=
201110210320 METAR ESMX 210320Z AUTO 25003KT 9999NDV NCD M01/M01 Q1018=
201110210250 METAR ESMX 210250Z AUTO 24005KT 9999NDV NCD M00/M01 Q1017=
201110210220 METAR ESMX 210220Z AUTO 25003KT 9999NDV NCD M00/M01 Q1017=
201110210150 METAR ESMX 210150Z AUTO 23004KT 9999NDV NCD M00/M01 Q1017=
201110210120 METAR ESMX 210120Z AUTO 24005KT 9999NDV NCD M00/M01 Q1017=
201110210050 METAR ESMX 210050Z AUTO 23004KT 9999NDV NCD 00/M00 Q1017=
201110210020 METAR ESMX 210020Z AUTO 24004KT 9999NDV NCD 00/M00 Q1016=
201110202350 METAR ESMX 202350Z 25004KT CAVOK 00/M00 Q1016=
201110202320 METAR ESMX 202320Z 25004KT CAVOK 01/M00 Q1016=
201110202250 METAR ESMX 202250Z 25004KT 220V290 CAVOK 02/01 Q1015=
201110202220 METAR ESMX 202220Z 26005KT CAVOK 02/01 Q1015=
201110202150 METAR ESMX 202150Z 26005KT CAVOK 02/01 Q1015=
201110202050 METAR ESMX 202050Z 27004KT 9999 FEW040 03/02 Q1014=
201110202020 METAR ESMX 202020Z 26006KT 9999 FEW015 SCT076 03/02 Q1013=
201110201920 METAR ESMX 201920Z 27008KT 9999 FEW014 SCT027 BKN080 04/02 Q1012 RERA=
201110201850 METAR ESMX 201850Z 27006KT 9999 -RA FEW010 SCT035 BKN045 05/02 Q1012=
201110201820 METAR ESMX 201820Z 27009KT 240V300 9999 FEW011 SCT028 BKN052 05/02 Q1012=
201110201750 METAR ESMX 201750Z 26010KT 9999 FEW010 SCT030 BKN080 05/02 Q1011=
201110201720 METAR ESMX 201720Z 26010KT 9999 FEW009 SCT030 05/02 Q1011 RESHRA=
201110201620 METAR ESMX 201620Z 26011KT 9999 SCT030CB BKN045 06/03 Q1010=
201110201550 METAR ESMX 201550Z 23010KT 200V260 9999 FEW028CB SCT035 07/03 Q1010=
201110201520 METAR ESMX 201520Z 26009KT 9999 FEW028CB 07/03 Q1010=
201110201450 METAR ESMX 201450Z 24008KT 210V290 9999 FEW020CB 08/04 Q1009=
201110201420 METAR ESMX 201420Z 24007KT 210V290 9999 FEW020CB 08/04 Q1009=
201110201350 METAR ESMX 201350Z 23008KT 9999 SCT020 08/05 Q1009=
201110201320 METAR ESMX 201320Z 23010KT 200V270 9999 FEW015 SCT040 08/04 Q1009=
201110201250 METAR ESMX 201250Z 24010KT 9999 FEW015 BKN035 07/04 Q1009=
201110201220 METAR ESMX 201220Z 23009KT 190V260 9999 FEW016 BKN041 07/04 Q1009=
201110201150 METAR ESMX 201150Z 23012KT 200V270 9999 -SHRA FEW016 SCT019CB BKN024 07/04 Q1009=
201110201120 METAR ESMX 201120Z 23012KT 9999 FEW021 SCT027 07/04 Q1009=
201110201050 METAR ESMX 201050Z 23011KT 190V260 9999 FEW022 BKN041 08/03 Q1009 RERA=
201110201020 METAR ESMX 201020Z 24009KT 200V270 9999 -RA FEW020 SCT045 07/04 Q1009=
201110200950 METAR ESMX 200950Z 24010KT 190V270 9999 FEW017 BKN019 08/04 Q1009=
201110200920 METAR ESMX 200920Z 24010KT 9999 FEW017 SCT023 07/04 Q1009=
201110200850 METAR ESMX 200850Z 23009KT 9999 FEW030 06/04 Q1009=
201110200820 METAR ESMX 200820Z 22009KT 9999 FEW028 05/03 Q1009=
201110200750 METAR ESMX 200750Z 23008KT CAVOK 05/03 Q1008=
201110200720 METAR ESMX 200720Z 21008KT CAVOK 04/02 Q1008=
201110200650 METAR ESMX 200650Z 22008KT CAVOK 04/02 Q1008=
201110200620 METAR ESMX 200620Z 21008KT 9999 FEW025 03/02 Q1007=
201110200550 METAR ESMX 200550Z 23006KT 9999 FEW029 03/02 Q1007=
201110200520 METAR ESMX 200520Z 20007KT 9999 FEW024 03/01 Q1007=
201110200450 METAR ESMX 200450Z 20006KT 9999 FEW024 03/02 Q1007=
201110200420 METAR ESMX 200420Z 22007KT 9999 FEW025 03/02 Q1006=
201110200350 METAR ESMX 200350Z 21006KT 9999 FEW025 03/02 Q1006=
201110200320 METAR ESMX 200320Z AUTO 23006KT 9999NDV FEW026/// 04/02 Q1006=
201110200250 METAR ESMX 200250Z AUTO 23006KT 210V280 9999NDV NCD 04/02 Q1006=
201110200220 METAR ESMX 200220Z AUTO 23006KT 9999NDV NCD 04/03 Q1005=
201110200150 METAR ESMX 200150Z AUTO 24007KT 9999NDV NCD 05/03 Q1005=
201110200120 METAR ESMX 200120Z AUTO 24007KT 9999NDV NCD 05/03 Q1005=
201110200050 METAR ESMX 200050Z AUTO 22006KT 190V250 9999NDV FEW042/// 05/04 Q1005=
201110200020 METAR ESMX 200020Z AUTO 23008KT 200V260 9999NDV FEW043/// 06/04 Q1004=
201110192350 METAR ESMX 192350Z AUTO 23008KT 9999NDV SCT042/// 06/04 Q1004=
201110192320 METAR ESMX 192320Z 24008KT 210V280 9999 BKN018 BKN025 06/05 Q1004=
201110192250 METAR ESMX 192250Z 24008KT 200V270 9999 FEW016 OVC019 07/05 Q1003=
201110192220 METAR ESMX 192220Z 23008KT 200V260 9999 FEW011 SCT022 BKN031 07/06 Q1003=
201110192150 METAR ESMX 192150Z 24008KT 200V280 9999 FEW008 BKN023 07/05 Q1003=
201110192120 METAR ESMX 192120Z 27004KT 190V320 9999 FEW009 BKN019 06/05 Q1002=
201110192050 METAR ESMX 192050Z 26007KT 9999 -RA FEW016 SCT021 BKN035 06/05 Q1002 RERA=
201110192020 METAR ESMX 192020Z 26010KT 230V290 6000 RA FEW007 SCT012 BKN019 07/05 Q1002=
201110191950 METAR ESMX 191950Z 23009KT 200V260 9999 FEW007 BKN011 07/06 Q1001=
201110191920 METAR ESMX 191920Z 22008KT 9999 FEW013 BKN026 07/06 Q1001=
201110191820 METAR ESMX 191820Z 23007KT 9999 -RA FEW008 SCT019 BKN038 07/06 Q1000=
201110191750 METAR ESMX 191750Z 23009KT 9999 -RA FEW012 SCT020 BKN052 06/05 Q0999=
201110191720 METAR ESMX 191720Z 22011KT 190V250 9999 -RA FEW009 BKN016 07/05 Q0999=
201110191650 METAR ESMX 191650Z 20016KT 170V240 9999 FEW011 BKN016 06/05 Q0998=
201110191620 METAR ESMX 191620Z 22016KT 6000 -RA FEW015 SCT022 BKN026 07/05 Q0998=
201110191550 METAR ESMX 191550Z 20014KT 6000 RA FEW017 SCT029 BKN035 07/05 Q0998=
201110191520 METAR ESMX 191520Z 21014G24KT 9999 -RA SCT027 BKN044 08/05 Q0998=
201110191450 METAR ESMX 191450Z 21016KT 9999 FEW026 SCT030 BKN058 09/05 Q0998=
201110191350 METAR ESMX 191350Z 21012KT 140V200 9999 SCT020 BKN024 09/05 Q0998=
201110191320 METAR ESMX 191320Z 23013KT 170V250 9999 FEW018 SCT022 09/05 Q0998=
201110191250 METAR ESMX 191250Z 22012G24KT 190V250 9999 FEW021 SCT028 09/05 Q0998=
201110191220 METAR ESMX 191220Z 24013KT 200V260 9999 FEW018 SCT031 09/06 Q0998=
201110191150 METAR ESMX 191150Z 23014G24KT 200V270 9999 FEW012 SCT015 BKN018 09/06 Q0997=
201110191120 METAR ESMX 191120Z 21015G25KT 170V240 9999 FEW012 SCT017 BKN021 08/07 Q0997=
201110191050 METAR ESMX 191050Z 23016KT 200V270 9999 -SHRA FEW013 SCT017CB BKN019 08/06 Q0997=
201110191020 METAR ESMX 191020Z 21018KT 9999 FEW011 SCT016 BKN020 09/06 Q0996=
201110190950 METAR ESMX 190950Z 20013G23KT 9999 -SHRA FEW010 SCT018 BKN024 08/06 Q0996=
201110190920 METAR ESMX 190920Z 21014KT 9999 -SHRA FEW008 SCT020CB BKN030 07/06 Q0996=
201110190850 METAR ESMX 190850Z 20013KT 170V240 9999 FEW010 SCT020CB BKN032 07/05 Q0996 RESHRA=
201110190820 METAR ESMX 190820Z 23012KT 200V270 9999 -SHRA FEW009 SCT016CB BKN019 07/05 Q0996=
201110190750 METAR ESMX 190750Z 21020KT 6000 SHRA FEW014 SCT017CB BKN020 07/05 Q0995=
201110190720 METAR ESMX 190720Z 19017KT 170V240 9999 FEW015 BKN019 BKN026 08/05 Q0995=
201110190650 METAR ESMX 190650Z 19016KT 160V240 9999 -SHRA SCT015 BKN017 07/05 Q0995=
201110190620 METAR ESMX 190620Z 19015KT 9999 BKN015 OVC022 07/05 Q0995=
201110190550 METAR ESMX 190550Z 19016KT 9999 FEW013 SCT015 BKN018 07/05 Q0995=
201110190520 METAR ESMX 190520Z 19015KT 9999 BKN012 OVC018 07/05 Q0995=
201110190450 METAR ESMX 190450Z 19014KT 9999 OVC011 07/05 Q0995=
201110190420 METAR ESMX 190420Z 19013KT 150V210 9999 FEW010 OVC012 06/04 Q0996=
201110190350 METAR ESMX 190350Z 18014KT 9999 BKN010 06/04 Q0996=
201110190320 METAR ESMX 190320Z AUTO 18013KT 150V210 9999NDV OVC010/// 06/04 Q0996=
201110190250 METAR ESMX 190250Z AUTO 19012KT 9999NDV SCT011/// 06/04 Q0996=
201110190220 METAR ESMX 190220Z AUTO 20014KT 170V230 9999NDV FEW010/// SCT013/// BKN016/// 06/04 Q0996=
201110190150 METAR ESMX 190150Z AUTO 20013KT 9999NDV FEW009/// OVC011/// 06/04 Q0997=
201110190120 METAR ESMX 190120Z AUTO 19013KT 9999NDV FEW007/// SCT009/// OVC011/// 05/04 Q0997=
201110190050 METAR ESMX 190050Z AUTO 19013KT 9999NDV FEW009/// BKN011/// BKN016/// 05/04 Q0997=
201110190020 METAR ESMX 190020Z AUTO 19013KT 9999NDV FEW014/// 05/03 Q0997=
201110182350 METAR ESMX 182350Z 19011KT 9999 SCT007 SCT050 05/03 Q0997=
201110182320 METAR ESMX 182320Z 18010KT 9999 SCT009 04/03 Q0997=
201110182250 METAR ESMX 182250Z 19009KT 9999 SCT020 04/03 Q0997=
201110182220 METAR ESMX 182220Z 22010KT 9999 SCT020 SCT050 05/03 Q0997=
201110182150 METAR ESMX 182150Z 20010KT 9999 SCT020 05/03 Q0997=
201110182120 METAR ESMX 182120Z 19011KT 9999 FEW028 05/04 Q0997=
201110182050 METAR ESMX 182050Z 21009KT 9999 FEW020 04/04 Q0997=
201110182020 METAR ESMX 182020Z 19008KT 9999 FEW020 04/03 Q0997=
201110181950 METAR ESMX 181950Z 20009KT 9999 FEW020 04/04 Q0997=
201110181920 METAR ESMX 181920Z 21007KT 9999 FEW020 04/03 Q0997=
201110181850 METAR ESMX 181850Z 20008KT 9999 FEW020 05/03 Q0996=
201110181820 METAR ESMX 181820Z 21007KT 9999 FEW020 05/03 Q0996=
201110181750 METAR ESMX 181750Z 21009KT 9999 FEW015 06/04 Q0996=
201110181720 METAR ESMX 181720Z 23009KT 9999 -RA FEW015 SCT040 07/05 Q0996=
201110181650 METAR ESMX 181650Z 25010KT 9999 -RA FEW014 SCT019 BKN041 07/05 Q0996=
201110181620 METAR ESMX 181620Z 22008KT 9999 -RA FEW007 SCT014 BKN041 07/06 Q0995=
201110181550 METAR ESMX 181550Z 22010KT 190V250 9999 SCT012 BKN023 08/06 Q0995=
201110181520 METAR ESMX 181520Z 22015G25KT 7000 -RA FEW008 BKN012 08/07 Q0995=
201110181450 METAR ESMX 181450Z 20013KT 7000 -RA SCT006 BKN014 09/07 Q0994=
201110181420 METAR ESMX 181420Z 20012KT 9999 SCT006 BKN035 09/07 Q0994=
201110181320 METAR ESMX 181320Z 18013KT 7000 -RA FEW006 OVC011 09/08 Q0995=
201110181250 METAR ESMX 181250Z 17013KT 140V200 7000 RA BKN006 OVC009 09/07 Q0995=
201110181150 METAR ESMX 181150Z 17014KT 140V210 4500 -RA BKN005 OVC009 09/08 Q0996=
201110181120 METAR ESMX 181120Z 17014KT 3500 -RA BKN005 OVC007 09/08 Q0996=
201110181050 METAR ESMX 181050Z 17012KT 130V200 4900 -RA FEW005 OVC007 09/08 Q0997=
201110181020 METAR ESMX 181020Z 16013KT 120V200 5000 -RA FEW005 OVC006 09/08 Q0997=
201110180950 METAR ESMX 180950Z 16012KT 120V200 5000 -RA OVC005 09/08 Q0998=
201110180920 METAR ESMX 180920Z 17011KT 120V210 3400 -RA OVC004 09/08 Q0999=
201110180850 METAR ESMX 180850Z 16012KT 140V200 3300 DZ OVC005 08/07 Q1000=
201110180650 METAR ESMX 180650Z 16012KT 120V200 5000 BR FEW011 SCT032 BKN041 08/06 Q1002=
201110180620 METAR ESMX 180620Z 16012G22KT 120V200 4700 BR FEW007 SCT011 BKN031 08/06 Q1002=
201110180550 METAR ESMX 180550Z 17012G22KT 140V210 3600 BR FEW006 SCT008 BKN009 08/06 Q1003=
201110180520 METAR ESMX 180520Z 16011KT 130V210 2500 BR BKN004 OVC007 08/07 Q1004=
201110180450 METAR ESMX 180450Z 16009KT 140V200 2100 BR OVC004 08/07 Q1004=
201110180420 METAR ESMX 180420Z 17011KT 140V200 2200 BR OVC005 08/06 Q1005=
201110180350 METAR ESMX 180350Z 17011KT 140V210 2000 BR OVC005 08/06 Q1005=
201110180320 METAR ESMX 180320Z AUTO 18011KT 140V200 2500NDV BR OVC005/// 08/06 Q1006=
201110180250 METAR ESMX 180250Z AUTO 17011KT 140V210 3000NDV BR OVC006/// 08/06 Q1007=
201110180220 METAR ESMX 180220Z AUTO 17009KT 140V200 2600NDV BR BKN005/// OVC008/// 08/06 Q1007=
201110180150 METAR ESMX 180150Z AUTO 16008KT 120V200 2300NDV BR OVC004/// 07/06 Q1008=
201110180120 METAR ESMX 180120Z AUTO 17010KT 150V220 2100NDV BR OVC004/// 07/06 Q1008=
201110180050 METAR ESMX 180050Z AUTO 16008KT 120V200 2100NDV BR OVC004/// 07/06 Q1009=
201110180020 METAR ESMX 180020Z AUTO 17008KT 120V200 2400NDV BR OVC005/// 07/06 Q1010=
201110172350 METAR ESMX 172350Z 17008KT 150V210 2300 BR OVC005 07/06 Q1010=
201110172320 METAR ESMX 172320Z 18008KT 2200 BR OVC004 07/05 Q1010=
201110172250 METAR ESMX 172250Z 18009KT 1800 BR OVC003 06/05 Q1011=
201110172220 METAR ESMX 172220Z 19008KT 1800 BR FEW003 OVC005 06/05 Q1012=
201110172150 METAR ESMX 172150Z 20010KT 160V230 1500 BR OVC003 06/05 Q1012=
201110172120 METAR ESMX 172120Z 18008KT 1800 BR OVC003 06/05 Q1013=
201110172050 METAR ESMX 172050Z 19008KT 160V230 2200 BR FEW004 SCT006 BKN007 06/05 Q1013=
201110172020 METAR ESMX 172020Z 18006KT 2800 BR FEW009 06/05 Q1013=
201110171950 METAR ESMX 171950Z 19007KT 2500 BR SCT005 05/04 Q1014=
201110171920 METAR ESMX 171920Z 18006KT 3500 BR FEW005 06/05 Q1014=
201110171850 METAR ESMX 171850Z 17006KT 5000 BR NSC 06/05 Q1014=
201110171820 METAR ESMX 171820Z 17005KT 5000 BR NSC 06/05 Q1014=
201110171750 METAR COR ESMX 171750Z 17005KT 9000 BR NSC 07/05 Q1014=
201110171720 METAR ESMX 171720Z 18005KT CAVOK 08/05 Q1015=
201110171650 METAR ESMX 171650Z 18004KT CAVOK 06/04 Q1015=
201110171620 METAR ESMX 171620Z 18003KT CAVOK 07/04 Q1015=
201110171550 METAR ESMX 171550Z 22003KT CAVOK 08/04 Q1016=
201110171520 METAR ESMX 171520Z 19007KT CAVOK 10/05 Q1016=
201110171450 METAR ESMX 171450Z 19007KT CAVOK 11/05 Q1016=
201110171420 METAR ESMX 171420Z 21008KT CAVOK 11/05 Q1016=
201110171350 METAR ESMX 171350Z 20008KT CAVOK 12/05 Q1016=
201110171320 METAR ESMX 171320Z 19009KT CAVOK 12/05 Q1017=
201110171250 METAR ESMX 171250Z 22008KT 170V250 CAVOK 12/05 Q1017=
201110171220 METAR ESMX 171220Z 20008KT 170V230 CAVOK 12/05 Q1017=
201110171150 METAR ESMX 171150Z 20010KT CAVOK 11/05 Q1017=
201110171120 METAR ESMX 171120Z 19010KT 9999 FEW015 11/06 Q1018=
201110171050 METAR ESMX 171050Z 19008KT 150V220 9999 FEW015 10/06 Q1018=
201110171020 METAR ESMX 171020Z 19008KT 150V210 CAVOK 10/05 Q1018=
201110170950 METAR ESMX 170950Z 17009KT 140V200 CAVOK 09/05 Q1019=
201110170920 METAR ESMX 170920Z 18006KT 9999 FEW008 09/05 Q1019=
201110170850 METAR ESMX 170850Z 19006KT 9999 FEW008 08/05 Q1019=
201110170820 METAR ESMX 170820Z 18006KT 9999 FEW007 07/05 Q1019=
201110170750 METAR ESMX 170750Z 17004KT 140V200 9999 FEW007 06/05 Q1019=
201110170720 METAR ESMX 170720Z 17003KT 140V200 7000 BR NSC 04/04 Q1020=
201110170650 METAR ESMX 170650Z 16004KT 0350 R01/0350V0650U R19/1000 FG VV002 03/03 Q1020=
201110170620 METAR ESMX 170620Z 15003KT 130V190 0200 R01/0500N R19/0400 FG VV002 03/03 Q1020=
201110170550 METAR ESMX 170550Z 15004KT 0150 R01/0900 R19/0400V0900U FG VV002 03/03 Q1020=
201110170520 METAR ESMX 170520Z 15004KT 0200 R01/0650D R19/0550 FG VV002 03/03 Q1020=
201110170450 METAR ESMX 170450Z 16004KT 120V190 2000 MIFG BR NSC 03/02 Q1020=
201110170420 METAR ESMX 170420Z 17004KT 5000 MIFG BR NSC 03/03 Q1021=
201110170350 METAR ESMX 170350Z 17003KT 4000 BR NSC 04/03 Q1021=
201110170320 METAR ESMX 170320Z AUTO 17004KT 1700NDV BR NCD 04/03 Q1021=
201110170250 METAR ESMX 170250Z AUTO 17005KT 3800NDV NCD 04/03 Q1021=
201110170220 METAR ESMX 170220Z AUTO 17005KT 150V210 4800NDV NCD 04/03 Q1021=
201110170150 METAR ESMX 170150Z AUTO 18004KT 6000NDV NCD 04/03 Q1022=
201110170120 METAR ESMX 170120Z AUTO 17005KT 7000NDV BR NCD 04/03 Q1022=
201110170050 METAR ESMX 170050Z AUTO 16005KT 7000NDV BR NCD 04/03 Q1022=
201110170020 METAR ESMX 170020Z AUTO 17005KT 6000NDV BR NCD 04/03 Q1023=
201110162350 METAR ESMX 162350Z 17005KT 4500 BR NSC 04/03 Q1023=
201110162320 METAR ESMX 162320Z 17004KT 5000 BR NSC 04/03 Q1023=
201110162250 METAR ESMX 162250Z 18004KT 4800 BR NSC 03/02 Q1023=
201110162220 METAR ESMX 162220Z 18005KT 5000 BR NSC 04/03 Q1024=
201110162150 METAR ESMX 162150Z 18004KT 7000 BR NSC 03/02 Q1024=
201110162120 METAR ESMX 162120Z 20004KT CAVOK 03/02 Q1024=
201110162050 METAR ESMX 162050Z AUTO 19005KT 9999NDV NCD 04/03 Q1024=
201110162020 METAR ESMX 162020Z 18006KT CAVOK 05/03 Q1024=
201110161950 METAR ESMX 161950Z 19007KT CAVOK 04/03 Q1024=
201110161920 METAR ESMX 161920Z 18006KT CAVOK 05/03 Q1024=
201110161850 METAR ESMX 161850Z 17005KT 140V200 CAVOK 05/03 Q1025=
201110161820 METAR ESMX 161820Z 17006KT CAVOK 06/03 Q1025=
201110161750 METAR ESMX 161750Z 16006KT 120V190 CAVOK 06/03 Q1025=
201110161720 METAR ESMX 161720Z 17006KT CAVOK 07/03 Q1025=
201110161650 METAR ESMX 161650Z 17005KT CAVOK 07/03 Q1025=
201110161620 METAR ESMX 161620Z 16006KT CAVOK 08/03 Q1026=
201110161550 METAR ESMX 161550Z 16005KT CAVOK 09/03 Q1026=
201110161520 METAR ESMX 161520Z 18006KT CAVOK 10/03 Q1026=
201110161450 METAR ESMX 161450Z 19008KT CAVOK 11/03 Q1026=
201110161420 METAR ESMX 161420Z 18009KT 140V200 CAVOK 11/02 Q1026=
201110161350 METAR ESMX 161350Z 19009KT CAVOK 11/02 Q1027=
201110161320 METAR ESMX 161320Z 18009KT 140V210 CAVOK 11/01 Q1027=
201110161250 METAR ESMX 161250Z 19010KT CAVOK 11/02 Q1027=
201110161220 METAR ESMX 161220Z 18010KT CAVOK 11/02 Q1028=
201110161150 METAR ESMX 161150Z 20008KT 160V230 CAVOK 11/04 Q1028=
201110161120 METAR ESMX 161120Z 21010KT 170V240 9999 FEW012 10/04 Q1028=
201110161050 METAR ESMX 161050Z 15003KT 100V190 9999 FEW012 08/07 Q1029=
201110161020 METAR ESMX 161020Z 14003KT 090V170 9999 FEW004 SCT010 07/07 Q1029=
201110160950 METAR ESMX 160950Z 19003KT 150V250 6000 BKN002 05/04 Q1029=
201110160920 METAR ESMX 160920Z 19004KT 4100 BKN002 04/03 Q1030=
201110160850 METAR ESMX 160850Z 17004KT 120V200 1500 R01/0900V1600U R19/1000VP2000U FG VV002 03/02 Q1030=
201110160820 METAR ESMX 160820Z AUTO 18004KT 150V210 0300NDV R01/0550 R19/0650N FG VV001 02/02 Q1030=
201110160750 METAR ESMX 160750Z AUTO 17003KT 140V210 0250NDV R01/0650 R19/0500U FG VV000 02/01 Q1030=
201110160720 METAR ESMX 160720Z AUTO 18003KT 150V220 0100NDV R01/0200V0375N R19/0300 FG VV000 01/01 Q1030=
201110160650 METAR ESMX 160650Z AUTO 19002KT 0100NDV R01/0225V0325N R19/0275N FG VV000 01/00 Q1030=
201110160620 METAR ESMX 160620Z AUTO 19002KT 0100NDV R01/0450N R19/0250V0400N=
201110160550 METAR ESMX 160550Z AUTO VRB02KT 0150NDV R01/0600 R19/0450N FZFG VV000 M01/M01 Q1030=
201110160520 METAR ESMX 160520Z AUTO 17002KT 0100NDV R01/0800 R19/0450U FZFG VV000 00/M00 Q1030 REDZ=
201110160450 METAR ESMX 160450Z AUTO 17003KT 140V200 0050NDV R01/0325N R19/0500N FG VV000 01/01 Q1030=
201110160420 METAR ESMX 160420Z AUTO 18002KT 0150NDV R01/0550N R19/0600N FG VV001 01/01 Q1030=
201110160350 METAR ESMX 160350Z AUTO 17002KT 0100NDV R01/0500N R19/0550N FG VV000 02/02 Q1030=
201110160320 METAR ESMX 160320Z AUTO VRB02KT 0150NDV R01/0650N R19/0600N FG VV000 02/02 Q1030=
201110160250 METAR ESMX 160250Z AUTO 23003KT 0150NDV R01/0600N R19/0550 FG VV000 02/02 Q1030=
201110160220 METAR ESMX 160220Z AUTO 22004KT 190V260 0100NDV R01/0600N R19/0500N FG VV000 02/01 Q1030=
201110160150 METAR ESMX 160150Z AUTO 24003KT 0100NDV R01/0400V0550N R19/0400V0550N FG VV000 01/01 Q1031=
201110160120 METAR ESMX 160120Z AUTO 24003KT 1500NDV BR BKN001/// M00/M01 Q1031=
201110160050 METAR ESMX 160050Z AUTO 22004KT 7000NDV NCD 00/M00 Q1031=
201110160020 METAR ESMX 160020Z AUTO 21005KT 9999NDV NCD 00/M00 Q1031=
201110152350 METAR ESMX 152350Z AUTO 21004KT 0200NDV R01/P2000N R19/0900 NCD M00/M01 Q1031=
201110152320 METAR ESMX 152320Z AUTO 21004KT 0700NDV R01/P2000N R19/P2000N BR NCD 01/00 Q1031=
201110152250 METAR ESMX 152250Z AUTO 22004KT 5000NDV NCD 01/00 Q1031=
201110152220 METAR ESMX 152220Z AUTO 21005KT 9999NDV NCD 01/00 Q1031=
201110152150 METAR ESMX 152150Z AUTO 22005KT 9999NDV NCD 02/01 Q1031=
201110152120 METAR ESMX 152120Z AUTO 20004KT 9999NDV NCD 01/01 Q1032=
201110152050 METAR ESMX 152050Z AUTO 21004KT 9999NDV NCD 00/M00 Q1031=
201110152020 METAR ESMX 152020Z AUTO 16002KT 9999NDV NCD 00/M01 Q1031=
201110151950 METAR ESMX 151950Z 22003KT CAVOK 01/00 Q1031=
201110151920 METAR ESMX 151920Z 22004KT CAVOK 01/M00 Q1031=
201110151850 METAR ESMX 151850Z 21003KT CAVOK 01/M00 Q1031=
201110151820 METAR ESMX 151820Z 22003KT CAVOK 01/00 Q1031=
201110151750 METAR ESMX 151750Z 17002KT CAVOK 02/01 Q1031=
201110151720 METAR ESMX 151720Z 20003KT CAVOK 02/00 Q1031=
201110151650 METAR ESMX 151650Z 21003KT CAVOK 03/02 Q1031=
201110151620 METAR ESMX 151620Z AUTO 21003KT 9999NDV NCD 06/03 Q1031=
201110151550 METAR ESMX 151550Z AUTO 25002KT 9999NDV NCD 08/03 Q1031=
201110151520 METAR ESMX 151520Z AUTO 24004KT 9999NDV NCD 09/03 Q1032=
201110151450 METAR ESMX 151450Z AUTO 26003KT 220V300 9999NDV NCD 10/03 Q1032=
201110151420 METAR ESMX 151420Z AUTO 25004KT 210V290 9999NDV NCD 10/03 Q1032=
201110151350 METAR ESMX 151350Z AUTO 24005KT 200V280 9999NDV NCD 11/04 Q1032=
201110151320 METAR ESMX 151320Z AUTO 24005KT 9999NDV BKN027/// 10/04 Q1032=
201110151250 METAR ESMX 151250Z AUTO 24007KT 210V280 9999NDV FEW027/// 10/04 Q1032=
201110151220 METAR ESMX 151220Z AUTO 27008KT 9999NDV SCT025/// 10/04 Q1033=
201110151150 METAR ESMX 151150Z AUTO 25007KT 210V280 9999NDV FEW023/// 10/04 Q1033=
201110151120 METAR ESMX 151120Z 26006KT 210V290 9999 FEW022 10/04 Q1033=
201110151050 METAR ESMX 151050Z 29006KT 240V330 9999 FEW020 10/05 Q1033=
201110151020 METAR ESMX 151020Z 28005KT 240V310 9999 FEW020 09/05 Q1033=
201110150950 METAR ESMX 150950Z 25003KT 190V300 9999 FEW020 08/05 Q1034=
201110150920 METAR ESMX 150920Z VRB02KT 9999 FEW020 07/04 Q1034=
201110150850 METAR ESMX 150850Z VRB01KT 9999 FEW020 05/04 Q1034=
201110150820 METAR ESMX 150820Z VRB02KT 9999 FEW002 SCT022 05/04 Q1034=
201110150750 METAR ESMX 150750Z 00000KT 9999 BKN001 03/03 Q1034=
201110150720 METAR ESMX 150720Z 00000KT 0400 R01/P2000N R19/0550V0900U FG BKN001 BKN003 01/01 Q1034=
201110150650 METAR ESMX 150650Z 16001KT 0250 R01/0400V0600U R19/0375N FZFG VV001 M00/M01 Q1033=
201110150620 METAR ESMX 150620Z AUTO 10001KT 0150NDV R01/0375V0550N R19/0550=
201110150550 METAR ESMX 150550Z AUTO 22001KT 9999NDV FEW003/// M03/M04 Q1033=
201110150520 METAR ESMX 150520Z AUTO 27002KT 9999NDV FEW005/// M04/M05 Q1033=
201110150450 METAR ESMX 150450Z AUTO 19002KT 9999NDV NCD M04/M04 Q1033=
201110150420 METAR ESMX 150420Z AUTO 18002KT 9999NDV NCD M04/M04 Q1033=
201110150350 METAR ESMX 150350Z AUTO 18001KT 9999NDV NCD M03/M04 Q1034=
201110150320 METAR ESMX 150320Z AUTO 14001KT 9999NDV NCD M04/M04 Q1034=
201110150250 METAR ESMX 150250Z AUTO 17001KT 9999NDV FEW021/// M03/M04 Q1034=
201110150220 METAR ESMX 150220Z AUTO VRB02KT 9999NDV NCD M03/M04 Q1034=
201110150150 METAR ESMX 150150Z AUTO 17001KT 9999NDV NCD M03/M04 Q1034=
201110150120 METAR ESMX 150120Z AUTO 18001KT 9999NDV NCD M04/M04 Q1034=
201110150050 METAR ESMX 150050Z AUTO VRB01KT 9999NDV NCD M03/M03 Q1034=
201110150020 METAR ESMX 150020Z AUTO 21002KT 9999NDV NCD M02/M03 Q1034=
201110142350 METAR ESMX 142350Z AUTO 23002KT 9999NDV NCD M02/M03 Q1034=
201110142320 METAR ESMX 142320Z AUTO 26002KT 9999NDV NCD M02/M02 Q1034=
201110142250 METAR ESMX 142250Z AUTO 27002KT 9999NDV NCD M02/M03 Q1034=
201110142220 METAR ESMX 142220Z AUTO 27002KT 9999NDV NCD M02/M03 Q1034=
201110142150 METAR ESMX 142150Z AUTO 25001KT 9999NDV NCD M02/M02 Q1034=
201110142120 METAR ESMX 142120Z AUTO 26003KT 9999NDV NCD M02/M03 Q1034=
201110142050 METAR ESMX 142050Z AUTO 17002KT 9999NDV NCD M02/M02 Q1035=
201110142020 METAR ESMX 142020Z AUTO 15001KT 9999NDV NCD M02/M03 Q1035=
201110141950 METAR ESMX 141950Z AUTO 18002KT 9999NDV NCD M02/M03 Q1035=
201110141920 METAR ESMX 141920Z AUTO 17002KT 9999NDV NCD M01/M02 Q1035=
201110141850 METAR ESMX 141850Z 18003KT CAVOK M01/M02 Q1035=
201110141820 METAR ESMX 141820Z 17001KT CAVOK M00/M02 Q1035=
201110141750 METAR ESMX 141750Z 26002KT CAVOK 00/M01 Q1035=
201110141720 METAR ESMX 141720Z 18002KT CAVOK 01/M01 Q1035=
201110141650 METAR ESMX 141650Z 24002KT CAVOK 02/M01 Q1035=
201110141620 METAR ESMX 141620Z 24001KT CAVOK 03/M01 Q1035=
201110141550 METAR ESMX 141550Z 29002KT CAVOK 05/M01 Q1035=
201110141520 METAR ESMX 141520Z 29005KT CAVOK 07/M01 Q1035=
201110141450 METAR ESMX 141450Z 28005KT CAVOK 08/00 Q1035=
201110141420 METAR ESMX 141420Z 27003KT 240V300 CAVOK 08/00 Q1035=
201110141350 METAR ESMX 141350Z 29005KT CAVOK 08/M00 Q1035=
201110141320 METAR ESMX 141320Z 30003KT 240V350 CAVOK 09/01 Q1035=
201110141250 METAR ESMX 141250Z 36003KT 330V060 CAVOK 08/M00 Q1035=
201110141220 METAR ESMX 141220Z 02003KT 320V080 CAVOK 08/M01 Q1035=
201110141150 METAR ESMX 141150Z 01003KT 330V040 CAVOK 08/M01 Q1035=
201110141120 METAR ESMX 141120Z 02005KT CAVOK 08/M00 Q1035=
201110141050 METAR ESMX 141050Z 36005KT 330V030 CAVOK 08/M00 Q1035=
201110141020 METAR ESMX 141020Z 01005KT 320V060 CAVOK 07/M00 Q1036=
201110140950 METAR ESMX 140950Z 02005KT 340V050 CAVOK 07/01 Q1035=
201110140850 METAR ESMX 140850Z 35003KT 320V050 CAVOK 06/01 Q1035=
201110140820 METAR ESMX 140820Z 30003KT 270V340 CAVOK 04/01 Q1035=
201110140750 METAR ESMX 140750Z VRB01KT CAVOK 03/01 Q1035=
201110140720 METAR ESMX 140720Z VRB01KT CAVOK 00/M00 Q1035=
201110140650 METAR ESMX 140650Z VRB01KT CAVOK M02/M03 Q1034=
201110140620 METAR ESMX 140620Z 18002KT CAVOK M03/M03 Q1034=
201110140550 METAR ESMX 140550Z VRB01KT CAVOK M02/M03 Q1034=
201110140520 METAR ESMX 140520Z 33003KT 260V030 CAVOK M02/M03 Q1034=
201110140450 METAR ESMX 140450Z 31005KT CAVOK M01/M02 Q1034=
201110140420 METAR ESMX 140420Z 33004KT CAVOK M01/M02 Q1034=
201110140350 METAR ESMX 140350Z 36003KT CAVOK M00/M01 Q1033=
201110140320 METAR ESMX 140320Z AUTO 32003KT 9999NDV NCD M01/M02 Q1033=
201110140250 METAR ESMX 140250Z AUTO 28003KT 9999NDV NCD M02/M03 Q1033=
201110140220 METAR ESMX 140220Z AUTO 29002KT 9999NDV NCD M02/M03 Q1033=
201110140150 METAR ESMX 140150Z AUTO 30003KT 9999NDV NCD M02/M03 Q1033=
201110140120 METAR ESMX 140120Z AUTO 28003KT 9999NDV NCD M02/M03 Q1033=
201110140050 METAR ESMX 140050Z AUTO 28003KT 240V300 9999NDV NCD M02/M02 Q1032=
201110140020 METAR ESMX 140020Z AUTO VRB02KT 9000NDV NCD M02/M03 Q1032=
201110132350 METAR ESMX 132350Z AUTO VRB01KT 9999NDV NCD M02/M03 Q1032=
201110132320 METAR ESMX 132320Z 27003KT CAVOK M02/M03 Q1032=
201110132250 METAR ESMX 132250Z VRB01KT CAVOK M01/M02 Q1032=
201110132220 METAR ESMX 132220Z 30002KT CAVOK M00/M01 Q1032=
201110132150 METAR ESMX 132150Z 31004KT CAVOK M01/M03 Q1031=
201110132120 METAR ESMX 132120Z 32004KT CAVOK M00/M02 Q1031=
201110132050 METAR ESMX 132050Z 31004KT 280V340 CAVOK 01/M01 Q1031=
201110132020 METAR ESMX 132020Z 33003KT CAVOK 01/M01 Q1031=
201110131950 METAR ESMX 131950Z 30004KT CAVOK 01/M01 Q1030=
201110131920 METAR ESMX 131920Z 30005KT CAVOK 02/M01 Q1030=
201110131850 METAR ESMX 131850Z 32006KT CAVOK 03/M01 Q1030=
201110131820 METAR ESMX 131820Z 32006KT CAVOK 03/M01 Q1030=
201110131750 METAR ESMX 131750Z 34006KT CAVOK 03/M01 Q1029=
201110131720 METAR ESMX 131720Z 32005KT 290V350 CAVOK 05/M01 Q1029=
201110131650 METAR ESMX 131650Z 32008KT CAVOK 06/M01 Q1028=
201110131620 METAR ESMX 131620Z 32009KT CAVOK 06/M02 Q1028=
201110131550 METAR ESMX 131550Z 33010KT CAVOK 07/M02 Q1028=
201110131520 METAR ESMX 131520Z 33011KT CAVOK 08/M02 Q1027=
201110131450 METAR ESMX 131450Z 32010KT CAVOK 08/M02 Q1027=
201110131420 METAR ESMX 131420Z 33010KT 290V350 CAVOK 08/M02 Q1027=
201110131350 METAR ESMX 131350Z 33012KT CAVOK 08/M02 Q1026=
201110131320 METAR ESMX 131320Z 33011KT 290V020 CAVOK 09/M02 Q1026=
201110131250 METAR ESMX 131250Z 34014G31KT CAVOK 09/M02 Q1026=
201110131220 METAR ESMX 131220Z 32014KT CAVOK 09/M02 Q1026=
201110131150 METAR ESMX 131150Z 34012KT CAVOK 08/M01 Q1026=
201110131120 METAR ESMX 131120Z 34013KT 310V020 CAVOK 08/M01 Q1025=
201110131050 METAR ESMX 131050Z 35012KT CAVOK 08/M00 Q1025=
201110130950 METAR ESMX 130950Z 34012KT CAVOK 07/00 Q1025=
201110130920 METAR ESMX 130920Z 35012KT CAVOK 07/01 Q1024=
201110130850 METAR ESMX 130850Z 01013KT CAVOK 06/M00 Q1024=
201110130820 METAR ESMX 130820Z 34013KT CAVOK 06/00 Q1024=
201110130750 METAR COR ESMX 130750Z 36012KT CAVOK 05/00 Q1023=
201110130720 METAR ESMX 130720Z 34010KT CAVOK 05/01 Q1023=
201110130650 METAR ESMX 130650Z 33008KT CAVOK 04/01 Q1022=
201110130620 METAR ESMX 130620Z 34008KT CAVOK 03/00 Q1022=
201110130550 METAR ESMX 130550Z 31008KT CAVOK 03/00 Q1021=
201110130520 METAR ESMX 130520Z 32007KT CAVOK 03/00 Q1021=
201110130450 METAR ESMX 130450Z 31008KT CAVOK 03/01 Q1021=
201110130420 METAR ESMX 130420Z 32008KT CAVOK 03/01 Q1020=
201110130350 METAR ESMX 130350Z 32007KT CAVOK 03/01 Q1020=
201110130320 METAR ESMX 130320Z AUTO 31008KT 9999NDV NCD 04/01 Q1019=
201110130250 METAR ESMX 130250Z AUTO 33007KT 300V360 9999NDV NCD 03/01 Q1019=
201110130220 METAR ESMX 130220Z AUTO 32007KT 9999NDV NCD 04/01 Q1018=
201110130150 METAR ESMX 130150Z AUTO 33006KT 9999NDV NCD 04/02 Q1018=
201110130120 METAR ESMX 130120Z AUTO 31007KT 9999NDV NCD 04/01 Q1017=
201110130050 METAR ESMX 130050Z AUTO 33006KT 300V010 9999NDV NCD 04/02 Q1017=
201110130020 METAR ESMX 130020Z AUTO 32005KT 300V360 9999NDV NCD 04/02 Q1017=
201110122350 METAR ESMX 122350Z AUTO 33006KT 270V360 9999NDV NCD 04/01 Q1016=
201110122320 METAR ESMX 122320Z 30004KT CAVOK 03/01 Q1016=
201110122250 METAR ESMX 122250Z 32005KT 290V350 CAVOK 04/01 Q1015=
201110122220 METAR ESMX 122220Z 31005KT 270V340 CAVOK 04/01 Q1015=
201110122150 METAR ESMX 122150Z 29004KT CAVOK 04/01 Q1014=
201110122120 METAR ESMX 122120Z 30005KT CAVOK 05/01 Q1014=
201110122050 METAR ESMX 122050Z 29005KT CAVOK 05/01 Q1013=
201110122020 METAR ESMX 122020Z 30006KT 280V340 CAVOK 06/01 Q1013=
201110121950 METAR ESMX 121950Z 30007KT CAVOK 06/01 Q1012=
201110121920 METAR ESMX 121920Z 31006KT CAVOK 06/01 Q1012=
201110121850 METAR ESMX 121850Z 31007KT CAVOK 07/01 Q1011=
201110121820 METAR ESMX 121820Z 31006KT CAVOK 07/01 Q1011=
201110121750 METAR ESMX 121750Z 31006KT CAVOK 07/01 Q1011=
201110121720 METAR ESMX 121720Z 31006KT CAVOK 08/01 Q1010=
201110121650 METAR ESMX 121650Z 31006KT CAVOK 08/01 Q1010=
201110121620 METAR ESMX 121620Z 29007KT CAVOK 09/01 Q1009=
201110121550 METAR ESMX 121550Z 30007KT CAVOK 10/01 Q1009=
201110121520 METAR ESMX 121520Z 30007KT CAVOK 11/01 Q1008=
201110121450 METAR ESMX 121450Z 31009KT 270V340 CAVOK 12/02 Q1008=
201110121420 METAR ESMX 121420Z 31009KT CAVOK 12/01 Q1007=
201110121350 METAR ESMX 121350Z 29009KT 230V330 9999 FEW040 12/01 Q1007=
201110121320 METAR ESMX 121320Z 31012KT 270V330 9999 FEW050 12/00 Q1007=
201110121250 METAR ESMX 121250Z 30012KT 260V330 9999 FEW045 12/01 Q1007=
201110121220 METAR ESMX 121220Z 30012KT 9999 FEW043 12/01 Q1007=
201110121150 METAR ESMX 121150Z 30012KT 9999 FEW040 12/03 Q1006=
201110121120 METAR ESMX 121120Z 29010KT 260V330 9999 FEW035 11/03 Q1006=
201110121050 METAR ESMX 121050Z 31010KT 270V340 9999 FEW035 11/03 Q1006=
201110121020 METAR ESMX 121020Z 30011KT 9999 FEW031 10/03 Q1006=
201110120950 METAR ESMX 120950Z 30012KT 260V340 9999 FEW025 10/04 Q1005=
201110120920 METAR ESMX 120920Z 29010KT 250V330 CAVOK 10/04 Q1005=
201110120850 METAR ESMX 120850Z 30008KT 250V330 CAVOK 09/05 Q1004=
201110120820 METAR ESMX 120820Z 28008KT 230V310 CAVOK 08/05 Q1004=
201110120750 METAR ESMX 120750Z 26007KT 210V290 CAVOK 07/05 Q1004=
201110120720 METAR ESMX 120720Z 25005KT 210V300 CAVOK 07/04 Q1004=
201110120650 METAR ESMX 120650Z 26006KT CAVOK 06/04 Q1003=
201110120620 METAR ESMX 120620Z 27005KT 240V300 CAVOK 05/03 Q1003=
201110120550 METAR ESMX 120550Z 27005KT CAVOK 05/03 Q1003=
201110120520 METAR ESMX 120520Z 26007KT 230V290 CAVOK 05/03 Q1002=
201110120450 METAR ESMX 120450Z 26007KT CAVOK 05/03 Q1002=
201110120420 METAR ESMX 120420Z 26007KT CAVOK 05/03 Q1002=
201110120350 METAR ESMX 120350Z 27006KT CAVOK 05/03 Q1001=
201110120320 METAR ESMX 120320Z 27007KT CAVOK 05/03 Q1001=
201110120250 METAR ESMX 120250Z AUTO 27006KT 9999NDV NCD 05/03 Q1001=
201110120220 METAR ESMX 120220Z AUTO 27005KT 9999NDV NCD 05/03 Q1001=
201110120150 METAR ESMX 120150Z AUTO 28005KT 250V330 9999NDV NCD 05/04 Q1001=
201110120120 METAR ESMX 120120Z AUTO 26007KT 9999NDV NCD 05/04 Q1000=
201110120050 METAR ESMX 120050Z AUTO 27007KT 9999NDV NCD 06/04 Q1000=
201110120020 METAR ESMX 120020Z AUTO 27008G25KT 9999NDV NCD 06/04 Q1000=
201110112350 METAR ESMX 112350Z AUTO 26007KT 9999NDV NCD 06/04 Q1000=
201110112320 METAR ESMX 112320Z 26007KT 230V290 CAVOK 06/04 Q1000=
201110112250 METAR ESMX 112250Z 24006KT CAVOK 06/05 Q1000=
201110112220 METAR ESMX 112220Z 25007KT 9999 FEW030 06/05 Q0999=
201110112150 METAR ESMX 112150Z 27006KT 240V300 9999 FEW018 SCT031 07/05 Q0999=
201110112120 METAR ESMX 112120Z 31006KT 9999 -DZ FEW015 SCT025 07/06 Q0999=
201110112050 METAR ESMX 112050Z 25007KT 9999 FEW023 SCT027 BKN034 07/06 Q0999=
201110112020 METAR ESMX 112020Z 22005KT 190V250 9999 SCT021 BKN027 06/05 Q0999=
201110111950 METAR ESMX 111950Z 24006KT 9999 FEW022 SCT034 07/05 Q0999=
201110111920 METAR ESMX 111920Z 25007KT 210V280 9999 FEW025 SCT060 07/06 Q0999=
201110111850 METAR ESMX 111850Z 23007KT 200V270 9999 -RA FEW020 SCT032 07/06 Q0999 RERA=
201110111820 METAR ESMX 111820Z 26008KT 220V320 9999 +RA FEW027 BKN036 08/05 Q0999=
201110111750 METAR ESMX 111750Z 26007KT 230V300 9999 FEW032 08/05 Q0999=
201110111720 METAR ESMX 111720Z 25007KT 9999 FEW034 08/05 Q0999=
201110111650 METAR ESMX 111650Z 22007KT 200V260 9999 FEW029 08/05 Q0998=
201110111620 METAR ESMX 111620Z 25007KT 9999 FEW029 09/05 Q0998=
201110111550 METAR ESMX 111550Z 27010KT 240V300 9999 FEW032CB SCT038 09/05 Q0998 RERA=
201110111520 METAR ESMX 111520Z 26011KT 230V300 9999 VCSH FEW028CB 10/04 Q0998=
201110111450 METAR ESMX 111450Z 26013KT 230V290 9999 FEW032 10/04 Q0998=
201110111420 METAR ESMX 111420Z 26011KT 220V320 9999 SCT029 11/05 Q0998=
201110111350 METAR ESMX 111350Z 27012KT 240V300 9999 -RA FEW023CB SCT027 BKN032 11/06 Q0998=
201110111320 METAR ESMX 111320Z 26009KT 230V300 9999 -RA SCT027CB BKN047 10/06 Q0998=
201110111250 METAR ESMX 111250Z 25009KT 220V280 9999 -RA FEW026CB SCT031 BKN036 11/06 Q0998=
201110111220 METAR ESMX 111220Z 27013KT 9999 FEW030 BKN049 11/05 Q0998=
201110111150 METAR ESMX 111150Z 27011KT 210V290 9999 SCT024 BKN035 BKN042 11/06 Q0998=
201110111120 METAR ESMX 111120Z 25012KT 220V300 9999 FEW021 SCT025 BKN030 11/05 Q0998=
201110111050 METAR ESMX 111050Z 26011KT 230V290 9999 FEW019 BKN022 10/06 Q0998=
201110111020 METAR ESMX 111020Z 27012KT 230V300 9999 FEW018 BKN022 10/06 Q0998=
201110110950 METAR ESMX 110950Z 26012KT 230V290 9999 FEW013 SCT018 BKN021 10/07 Q0998=
201110110920 METAR ESMX 110920Z 25009KT 210V290 9999 FEW013 SCT017 09/06 Q0999=
201110110850 METAR ESMX 110850Z 22008KT 180V260 CAVOK 08/06 Q0999=
201110110820 METAR ESMX 110820Z 24010KT CAVOK 07/06 Q0999=
201110110750 METAR ESMX 110750Z 27016KT 9999 -RA FEW016CB SCT052 09/06 Q0999=
201110110720 METAR ESMX 110720Z 26010KT 9999 FEW014 09/07 Q0998=
201110110650 METAR ESMX 110650Z 25009KT 210V290 9999 FEW020 08/06 Q0998=
201110110620 METAR ESMX 110620Z 26009KT 9999 FEW019 SCT023 07/06 Q0998=
201110110550 METAR ESMX 110550Z 25007KT 9999 FEW021 07/05 Q0998=
201110110520 METAR ESMX 110520Z 24008KT 210V280 9999 FEW018 07/05 Q0998=
201110110450 METAR ESMX 110450Z 26009KT 9999 FEW020 07/05 Q0998=
201110110420 METAR ESMX 110420Z 26008KT 9999 SCT030 07/05 Q0998=
201110110350 METAR ESMX 110350Z 26009KT 230V290 9999 SCT029 07/05 Q0998=
201110110320 METAR ESMX 110320Z AUTO 26008KT 9999NDV FEW032/// 07/05 Q0999=
201110110250 METAR ESMX 110250Z AUTO 26009KT 220V300 9999NDV FEW030/// 07/06 Q0999=
201110110220 METAR ESMX 110220Z AUTO 26009KT 9999NDV FEW029/// 07/06 Q0999=
201110110150 METAR ESMX 110150Z AUTO 26009KT 220V290 9999NDV FEW017/// 08/06 Q0999=
201110110120 METAR ESMX 110120Z AUTO 26009KT 9999NDV FEW015/// SCT031/// 08/06 Q0999=
201110110050 METAR ESMX 110050Z AUTO 26009KT 230V290 9999NDV NCD 08/06 Q0999=
201110110020 METAR ESMX 110020Z AUTO 26009KT 230V300 9999NDV NCD 08/06 Q0998=
201110102350 METAR ESMX 102350Z AUTO 26009KT 9999NDV FEW015/// SCT023/// 08/06 Q0998=
201110102320 METAR ESMX 102320Z 28008KT 230V320 9999 FEW011 SCT017 BKN019 08/07 Q0998=
201110102250 METAR ESMX 102250Z 28010KT 9999 FEW010 SCT013 BKN017 08/07 Q0998=
201110102150 METAR ESMX 102150Z 27012KT 9999 SCT010 BKN015 08/07 Q0997=
201110102120 METAR ESMX 102120Z 26011KT 230V300 9999 FEW009 SCT013 BKN037 08/07 Q0997=
201110102050 METAR ESMX 102050Z 26011KT 9999 FEW011 SCT017 BKN020 08/07 Q0997=
201110102020 METAR ESMX 102020Z 26008KT 240V300 9999 FEW012 SCT017 BKN020 08/07 Q0997=
201110101950 METAR ESMX 101950Z 27008KT 9999 FEW010 SCT021 BKN032 08/07 Q0997=
201110101920 METAR ESMX 101920Z 27011KT 9999 FEW010 BKN013 08/07 Q0996=
201110101850 METAR ESMX 101850Z 27011KT 9999 SCT036 08/07 Q0996=
201110101820 METAR ESMX 101820Z 27006KT 9999 FEW011 SCT041 BKN048 08/07 Q0996=
201110101750 METAR ESMX 101750Z 27005KT 250V320 9999 SCT008 BKN049 BKN067 08/07 Q0996=
201110101720 METAR ESMX 101720Z 27005KT 240V300 9999 FEW008 BKN076 08/07 Q0996=
201110101650 METAR ESMX 101650Z 28005KT 240V310 CAVOK 08/07 Q0996=
201110101620 METAR ESMX 101620Z 30008KT 9999 -DZ FEW029 SCT042 BKN047 08/07 Q0995=
201110101550 METAR ESMX 101550Z 30011KT 9999 -RA FEW006 SCT011 BKN023 09/08 Q0995=
201110101520 METAR ESMX 101520Z 28006KT 250V320 7000 -RA FEW018 SCT029 BKN032 09/08 Q0995=
201110101450 METAR ESMX 101450Z 28008KT 250V310 5000 RA FEW007 SCT014 BKN026 10/09 Q0995=
201110101420 METAR ESMX 101420Z 25008KT 6000 RA FEW004 SCT007 BKN009 10/09 Q0996=
201110101350 METAR ESMX 101350Z 20009KT 8000 -RA FEW005 SCT006 BKN008 11/10 Q0996=
201110101320 METAR ESMX 101320Z 19009KT 5000 RA FEW004 BKN006 OVC010 11/10 Q0996=
201110101250 METAR ESMX 101250Z 19011KT 8000 RA FEW005 BKN007 OVC009 11/10 Q0997=
201110101220 METAR ESMX 101220Z 19007KT 150V220 8000 -RA FEW004 SCT006 BKN009 11/10 Q0997 REDZ=
201110101150 METAR ESMX 101150Z 19008KT 4700 DZ FEW006 SCT012 BKN023 11/10 Q0998=
201110101120 METAR ESMX 101120Z 19008KT 4900 -RA FEW011 SCT014 BKN017 11/09 Q0999=
201110101050 METAR ESMX 101050Z 21007KT 9999 FEW013 SCT016 BKN020 11/09 Q1000=
201110101020 METAR ESMX 101020Z 23008KT 190V250 9999 FEW013 BKN060 11/09 Q1000=
201110100950 METAR ESMX 100950Z 22008KT 190V260 9999 FEW014 BKN070 11/09 Q1001=
201110100920 METAR ESMX 100920Z 24007KT 200V260 9999 FEW010 BKN016 11/09 Q1001=
201110100850 METAR ESMX 100850Z 23009KT 200V260 9999 FEW009 SCT012 BKN017 11/09 Q1001=
201110100820 METAR ESMX 100820Z 23008KT 9999 FEW008 SCT012 10/09 Q1001=
201110100750 METAR ESMX 100750Z 22007KT 180V280 9999 FEW008 BKN016 10/09 Q1001=
201110100720 METAR ESMX 100720Z 22007KT 200V260 9999 FEW017 10/09 Q1001=
201110100650 METAR ESMX 100650Z 22006KT 9999 FEW005 SCT026 BKN044 09/09 Q1002=
201110100620 METAR ESMX 100620Z 23005KT 9999 FEW006 SCT009 BKN011 09/08 Q1002=
201110100550 METAR ESMX 100550Z 22007KT 9999 FEW005 SCT009 BKN011 09/08 Q1002=
201110100520 METAR ESMX 100520Z 21005KT 9000 BR FEW005 SCT014 BKN023 09/08 Q1002=
201110100450 METAR ESMX 100450Z 23004KT 190V260 9999 FEW005 OVC006 09/08 Q1002=
201110100420 METAR ESMX 100420Z 23006KT 9999 FEW002 BKN005 OVC007 09/08 Q1002=
201110100350 METAR ESMX 100350Z 21006KT 9999 BKN002 08/08 Q1002=
201110100320 METAR ESMX 100320Z 19007KT 9999 BKN002 08/08 Q1002=
201110100250 METAR ESMX 100250Z AUTO 20008KT 9999NDV -RA OVC003/// 08/07 Q1002 REDZ=
201110100220 METAR ESMX 100220Z AUTO 20008KT 4200NDV DZ FEW002/// OVC004/// 08/07 Q1002=
201110100150 METAR ESMX 100150Z AUTO 20010KT 2600NDV DZ OVC003/// 08/07 Q1003=
201110100120 METAR ESMX 100120Z AUTO 19012KT 4200NDV BR OVC003/// 08/07 Q1003=
201110100050 METAR ESMX 100050Z AUTO 19012KT 3300NDV BR OVC004/// 07/07 Q1003=
201110100020 METAR ESMX 100020Z AUTO 19013KT 3200NDV BR OVC004/// 07/06 Q1003=
201110092350 METAR ESMX 092350Z AUTO 19013KT 160V230 2600NDV BR FEW004/// BKN006/// OVC009/// 07/06 Q1004=
201110092320 METAR ESMX 092320Z 19014KT 4300 BR FEW006 OVC008 07/06 Q1004=
201110092250 METAR ESMX 092250Z 19014KT 9999 FEW006 SCT008 BKN010 07/06 Q1005 REDZ=
201110092220 METAR ESMX 092220Z 19013KT 8000 DZ FEW006 SCT008 BKN009 07/06 Q1005=
201110092150 METAR ESMX 092150Z 18015KT 150V220 5000 -RA FEW007 SCT009 BKN011 07/06 Q1005=
201110092120 METAR ESMX 092120Z 18015KT 150V220 3900 RA FEW010 SCT014 BKN019 07/05 Q1006=
201110092050 METAR ESMX 092050Z 19013KT 9999 -RA FEW016 SCT021 BKN026 07/05 Q1007=
201110092020 METAR ESMX 092020Z 19016KT 9999 -RA SCT021 BKN028 BKN053 07/05 Q1007=
201110091950 METAR ESMX 091950Z 18015KT 140V200 9999 DZ FEW018 SCT024 BKN058 08/05 Q1007=
201110091920 METAR ESMX 091920Z 19012KT 9999 -DZ SCT019 08/05 Q1008=
201110091850 METAR ESMX 091850Z 19012KT 9999 -RA FEW018 SCT025 08/05 Q1008 REDZ=
201110091820 METAR ESMX 091820Z 17012KT 140V200 9999 FEW018 SCT042 08/04 Q1009=
201110091750 METAR ESMX 091750Z 18010KT 150V210 CAVOK 08/04 Q1009=
201110091720 METAR ESMX 091720Z 18011KT CAVOK 08/04 Q1010=
201110091650 METAR ESMX 091650Z 18008KT CAVOK 08/04 Q1011=
201110091620 METAR ESMX 091620Z 19011KT CAVOK 09/04 Q1011=
201110091550 METAR ESMX 091550Z 19011KT CAVOK 09/04 Q1012=
201110091520 METAR ESMX 091520Z 18009KT CAVOK 09/04 Q1012=
201110091450 METAR ESMX 091450Z 19009KT CAVOK 09/03 Q1012=
201110091420 METAR ESMX 091420Z 21010KT CAVOK 10/03 Q1013=
201110091350 METAR ESMX 091350Z 21010KT 170V240 CAVOK 10/03 Q1013=
201110091320 METAR ESMX 091320Z 22011KT CAVOK 10/02 Q1014=
201110091250 METAR ESMX 091250Z 20012KT 150V230 CAVOK 11/02 Q1014=
201110091220 METAR ESMX 091220Z 21009KT CAVOK 11/03 Q1014=
201110091150 METAR ESMX 091150Z 21009KT 170V240 CAVOK 10/02 Q1015=
201110091120 METAR ESMX 091120Z 19008KT 160V240 CAVOK 10/02 Q1015=
201110091020 METAR ESMX 091020Z 21005KT 160V240 CAVOK 10/02 Q1015=
201110090950 METAR ESMX 090950Z 21004KT 170V240 CAVOK 09/03 Q1016=
201110090920 METAR ESMX 090920Z VRB02KT CAVOK 08/03 Q1016=
201110090850 METAR ESMX 090850Z VRB01KT CAVOK 08/02 Q1015=
201110090820 METAR ESMX 090820Z AUTO VRB01KT 9999NDV NCD 07/03 Q1015=
201110090750 METAR ESMX 090750Z AUTO VRB02KT 9999NDV NCD 05/03 Q1015=
201110090720 METAR ESMX 090720Z AUTO 00000KT 9999NDV NCD 04/04 Q1015=
201110090650 METAR ESMX 090650Z AUTO 28001KT 9000NDV NCD 01/01 Q1015=
201110090620 METAR ESMX 090620Z AUTO 00000KT 9999NDV BR NCD M01/M01 Q1015=
201110090550 METAR ESMX 090550Z AUTO 00000KT 6000NDV BR NCD M00/M01 Q1015=
201110090520 METAR ESMX 090520Z AUTO 30003KT 9999NDV NCD M00/M01 Q1015=
201110090450 METAR ESMX 090450Z AUTO 30003KT 9999NDV NCD 00/M00 Q1015=
201110090420 METAR ESMX 090420Z AUTO 29004KT 9999NDV NCD M00/M01 Q1014=
201110090350 METAR ESMX 090350Z AUTO 28002KT 9999NDV BR NCD 00/M00 Q1014=
201110090320 METAR ESMX 090320Z AUTO 33004KT 9999NDV NCD 00/M00 Q1014=
201110090250 METAR ESMX 090250Z AUTO VRB01KT 9999NDV NCD 02/01 Q1013=
201110090220 METAR ESMX 090220Z AUTO VRB02KT 9999NDV NCD 02/02 Q1013=
201110090150 METAR ESMX 090150Z AUTO 30006KT 9999NDV NCD 02/01 Q1013=
201110090120 METAR ESMX 090120Z AUTO 31004KT 9999NDV NCD 02/00 Q1012=
201110090050 METAR ESMX 090050Z AUTO 31004KT 280V340 9999NDV NCD 03/02 Q1012=
201110090020 METAR ESMX 090020Z AUTO 33005KT 9999NDV NCD 04/02 Q1012=
201110082350 METAR ESMX 082350Z AUTO 31005KT 290V010 9999NDV NCD 04/02 Q1011=
201110082320 METAR ESMX 082320Z AUTO 31005KT 9999NDV NCD 04/02 Q1011=
201110082250 METAR ESMX 082250Z AUTO 34006KT 9999NDV FEW037/// 05/03 Q1011=
201110082220 METAR ESMX 082220Z AUTO 35005KT 9999NDV SCT041/// 05/03 Q1011=
201110082150 METAR ESMX 082150Z AUTO 35008KT 9999NDV NCD 06/03 Q1010=
201110082120 METAR ESMX 082120Z AUTO 35009KT 9999NDV NCD 06/03 Q1010=
201110082050 METAR ESMX 082050Z AUTO 34008KT 9999NDV NCD 06/04 Q1010=
201110082020 METAR ESMX 082020Z AUTO 35007KT 9999NDV SCT044/// 07/04 Q1009=
201110081950 METAR ESMX 081950Z AUTO 35008KT 9999NDV FEW042/// 07/04 Q1008=
201110081920 METAR ESMX 081920Z AUTO 35009KT 9999NDV SCT045/// 07/04 Q1008=
201110081850 METAR ESMX 081850Z AUTO 36009KT 9999NDV FEW040/// SCT052/// 08/04 Q1007=
201110081820 METAR ESMX 081820Z 36012KT 9999 FEW037 BKN049 08/04 Q1007=
201110081750 METAR ESMX 081750Z 36010KT 9999 FEW030 BKN053 08/04 Q1006=
201110081720 METAR ESMX 081720Z 35010KT 9999 BKN047 09/04 Q1006=
201110081650 METAR ESMX 081650Z 35011KT 9999 OVC045 09/04 Q1005=
201110081620 METAR ESMX 081620Z AUTO 36010KT 9999NDV OVC044/// 09/04 Q1005=
201110081550 METAR ESMX 081550Z AUTO 35012KT 9999NDV OVC045/// 09/04 Q1004=
201110081520 METAR ESMX 081520Z AUTO 35011KT 9999NDV FEW030/// BKN042/// 10/04 Q1004=
201110081450 METAR ESMX 081450Z AUTO 35012KT 320V020 9999NDV OVC042/// 10/04 Q1003=
201110081420 METAR ESMX 081420Z AUTO 35011KT 320V020 9999NDV BKN039/// 10/04 Q1003=
201110081350 METAR ESMX 081350Z AUTO 34013KT 9999NDV FEW031/// BKN039/// 10/04 Q1002=
201110081320 METAR ESMX 081320Z AUTO 36011KT 330V030 9999NDV FEW035/// BKN040/// 11/04 Q1002=
201110081250 METAR ESMX 081250Z AUTO 35012KT 9999NDV BKN031/// BKN055/// 11/03 Q1002=
201110081220 METAR ESMX 081220Z AUTO 36011KT 330V030 9999NDV SCT028/// BKN035/// 11/05 Q1001=
201110081150 METAR ESMX 081150Z 36013KT 9999 FEW027 SCT048 11/04 Q1001=
201110081120 METAR ESMX 081120Z 01009KT 310V040 9999 FEW028 11/05 Q1000=
201110081050 METAR ESMX 081050Z 33009KT 290V030 9999 FEW024 11/06 Q1000=
201110080950 METAR ESMX 080950Z 32008KT CAVOK 10/06 Q0999=
201110080920 METAR ESMX 080920Z 01008KT 9999 FEW015 SCT060 09/05 Q0999=
201110080850 METAR ESMX 080850Z 02007KT 9999 FEW012 09/06 Q0999=
201110080820 METAR ESMX 080820Z 36007KT 320V020 9999 FEW010 07/06 Q0998=
201110080750 METAR ESMX 080750Z 36007KT 9999 SCT006 06/06 Q0998=
201110080720 METAR ESMX 080720Z 02007KT 9999 BKN003 06/05 Q0997=
201110080650 METAR ESMX 080650Z 35006KT 320V020 9999 FEW001 BKN003 06/05 Q0997=
201110080620 METAR ESMX 080620Z AUTO 33005KT 300V010 1000NDV R01/1100VP2000U R19/P2000N FG OVC001/// 05/05 Q0997=
201110080550 METAR ESMX 080550Z AUTO 35005KT 0400NDV R01/0800N R19/1300VP2000D FG VV002 05/04 Q0997=
201110080520 METAR ESMX 080520Z AUTO 01006KT 0350NDV R01/1000N R19/P2000N FG VV001 04/04 Q0996=
201110080450 METAR ESMX 080450Z AUTO 30004KT 0250NDV R01/0900U R19/1200D FG VV001 02/02 Q0996=
201110080420 METAR ESMX 080420Z AUTO VRB01KT 0150NDV R01/0550V0800U R19/0800V1400U FG VV002 02/01 Q0996=
201110080350 METAR ESMX 080350Z AUTO 00000KT 0250NDV R01/0900N R19/1000VP2000D FG VV002 02/02 Q0996=
201110080320 METAR ESMX 080320Z AUTO 00000KT 1300NDV R01/P2000N R19/P2000N OVC067/// 02/01 Q0995=
201110080250 METAR ESMX 080250Z AUTO 18002KT 0250NDV R01/0750 R19/1100U FG SCT000/// BKN069/// 02/01 Q0995=
201110080220 METAR ESMX 080220Z AUTO VRB01KT 0550NDV R01/1100VP2000N R19/P2000N FG VV000 03/02 Q0995=
201110080150 METAR ESMX 080150Z AUTO 15002KT 1500NDV BR FEW001/// 03/02 Q0996=
201110080120 METAR ESMX 080120Z AUTO 15002KT 2600NDV BR NCD 04/03 Q0995=
201110080050 METAR ESMX 080050Z AUTO 24003KT 0900NDV R01/P2000N R19/P2000N NCD 04/03 Q0995=
201110080020 METAR ESMX 080020Z AUTO 23004KT 9000NDV NCD 04/04 Q0995=
201110072350 METAR ESMX 072350Z AUTO 23006KT 9999NDV NCD 05/04 Q0995=
201110072320 METAR ESMX 072320Z AUTO 23006KT 9999NDV NCD 05/05 Q0995=
201110072250 METAR ESMX 072250Z AUTO 22006KT 9999NDV NCD 05/05 Q0995=
201110072220 METAR ESMX 072220Z AUTO 22006KT 9999NDV NCD 05/05 Q0996=
201110072150 METAR ESMX 072150Z AUTO 22006KT 9999NDV NCD 06/05 Q0996=
201110072120 METAR ESMX 072120Z AUTO 21007KT 9999NDV NCD 06/05 Q0996=
201110072050 METAR ESMX 072050Z AUTO 19006KT 9000NDV NCD 06/05 Q0996=
201110072020 METAR ESMX 072020Z AUTO 20006KT 9999NDV NCD 07/06 Q0996=
201110071950 METAR ESMX 071950Z 21006KT 9999 FEW010 07/06 Q0996=
201110071920 METAR ESMX 071920Z 22006KT 9999 FEW010 07/06 Q0996=
201110071850 METAR ESMX 071850Z 20006KT 9999 FEW008 07/06 Q0996=
201110071820 METAR ESMX 071820Z 20007KT 9999 FEW008 SCT040 08/07 Q0996=
201110071750 METAR ESMX 071750Z 19008KT 9999 FEW008 SCT025 BKN050 09/07 Q0995=
201110071720 METAR ESMX 071720Z 20009KT 9999 FEW010 BKN040 09/07 Q0995=
201110071650 METAR ESMX 071650Z 20008KT 9999 FEW019 SCT025 BKN051 09/07 Q0995=
201110071620 METAR ESMX 071620Z 20010KT 9999 FEW012CB BKN040 09/07 Q0995 RERA=
201110071550 METAR ESMX 071550Z 20010KT 9999 FEW014 SCT017 BKN048 09/07 Q0995=
201110071520 METAR ESMX 071520Z 22011KT 180V240 9999 FEW020 SCT045 10/07 Q0995=
201110071450 METAR ESMX 071450Z 22011KT 9000 -SHRA FEW015 BKN030 10/07 Q0996=
201110071420 METAR ESMX 071420Z 23012KT 190V260 9999 -SHRA FEW030CB BKN040 10/06 Q0995 REDZ=
201110071350 METAR ESMX 071350Z 24011KT 9999 FEW030 BKN040 12/04 Q0995=
201110071320 METAR ESMX 071320Z 22016KT 190V250 9999 FEW036 SCT045 BKN052 12/04 Q0995=
201110071250 METAR ESMX 071250Z 22013KT 190V260 9999 FEW042 SCT052 12/05 Q0995=
201110071220 METAR ESMX 071220Z 21016KT 9999 FEW036 12/06 Q0995=
201110071120 METAR ESMX 071120Z 24013KT 210V280 9999 FEW023 SCT037 11/06 Q0995=
201110071050 METAR ESMX 071050Z 22015KT 190V250 9999 FEW015 BKN025 12/07 Q0996=
201110071020 METAR ESMX 071020Z 21012KT 170V240 9999 FEW015 SCT018 BKN022 11/07 Q0996=
201110070950 METAR ESMX 070950Z 21011KT 170V240 9999 SCT015 BKN025 10/07 Q0996=
201110070920 METAR ESMX 070920Z 23011KT 200V260 9999 FEW013 BKN016 09/07 Q0996=
201110070850 METAR ESMX 070850Z 21011KT 9999 BKN015 09/06 Q0996=
201110070820 METAR ESMX 070820Z 22013KT 9999 SCT015 09/06 Q0996=
201110070750 METAR ESMX 070750Z 23012KT 9999 SCT013 09/06 Q0996=
201110070720 METAR ESMX 070720Z 21013KT 9999 FEW012 08/06 Q0996=
201110070650 METAR ESMX 070650Z 21011KT 9999 FEW012 08/06 Q0996=
201110070620 METAR ESMX 070620Z 22011KT 9999 FEW012 07/06 Q0996=
201110070550 METAR ESMX 070550Z 22012KT 9999 FEW011 SCT013 07/06 Q0996=
201110070520 METAR ESMX 070520Z 20012KT 9999 FEW010 SCT015 07/06 Q0996=
201110070450 METAR ESMX 070450Z 22011KT 9999 FEW036 07/05 Q0995=
201110070420 METAR ESMX 070420Z 23010KT 200V260 9999 SCT025 07/05 Q0995=
201110070350 METAR ESMX 070350Z 23011KT 9999 FEW009 07/05 Q0995=
201110070320 METAR ESMX 070320Z AUTO 20010KT 9999NDV NCD 06/05 Q0995=
201110070250 METAR ESMX 070250Z AUTO 22008KT 9999NDV NCD 06/05 Q0995=
201110070220 METAR ESMX 070220Z AUTO 20007KT 9999NDV NCD 06/05 Q0995=
201110070150 METAR ESMX 070150Z AUTO 21008KT 9999NDV NCD 06/05 Q0995=
201110070120 METAR ESMX 070120Z AUTO 21009KT 9999NDV FEW033/// 06/05 Q0995=
201110070050 METAR ESMX 070050Z AUTO 21010KT 9999NDV NCD 06/05 Q0995=
201110070020 METAR ESMX 070020Z AUTO 21010KT 9999NDV NCD 06/05 Q0995=
201110062350 METAR ESMX 062350Z 21010KT CAVOK 06/05 Q0995=
201110062320 METAR ESMX 062320Z 21010KT CAVOK 06/05 Q0995=
201110062250 METAR ESMX 062250Z 20008KT 9999 FEW025 06/05 Q0994=
201110062220 METAR ESMX 062220Z 20010KT 9999 FEW026 06/05 Q0994=
201110062150 METAR ESMX 062150Z 22011KT CAVOK 06/05 Q0994=
201110062120 METAR ESMX 062120Z 21010KT CAVOK 06/05 Q0994=
201110062050 METAR ESMX 062050Z 21010KT 9999 FEW015 07/05 Q0994=
201110062020 METAR ESMX 062020Z 21011KT 180V250 9999 FEW015 07/05 Q0993 RERA=
201110061950 METAR ESMX 061950Z 21010KT 9999 FEW030 07/05 Q0993=
201110061920 METAR ESMX 061920Z 22009KT CAVOK 07/05 Q0993=
201110061850 METAR ESMX 061850Z 22008KT 9999 FEW020 SCT040 07/05 Q0993=
201110061820 METAR ESMX 061820Z 24009KT 210V280 9999 FEW037 SCT042 08/05 Q0992=
201110061750 METAR ESMX 061750Z 25012KT 230V300 9999 FEW011 SCT017 BKN021 09/07 Q0992=
201110061720 METAR ESMX 061720Z 23007KT 200V260 9000 -DZ FEW014 SCT025 BKN030 09/08 Q0992=
201110061650 METAR ESMX 061650Z 23009KT 190V280 9999 FEW013 SCT020 BKN027 10/08 Q0992=
201110061620 METAR ESMX 061620Z 24008KT 9999 SCT012 BKN070 10/08 Q0991 RERA=
201110061550 METAR ESMX 061550Z 24013KT 200V260 9999 -RA FEW013 BKN017 11/09 Q0991=
201110061520 METAR ESMX 061520Z 24010KT 200V260 9999 BKN012 11/09 Q0991=
201110061450 METAR ESMX 061450Z 21011KT 9999 FEW019 SCT025 11/09 Q0990=
201110061420 METAR ESMX 061420Z 23010KT 9999 -RA FEW022 BKN080 11/09 Q0990=
201110061350 METAR ESMX 061350Z 24011KT 210V300 9999 -RA FEW010 SCT025 11/10 Q0991=
201110061320 METAR ESMX 061320Z 28016KT 9999 -RA FEW007 SCT008 BKN015 12/11 Q0991=
201110061250 METAR ESMX 061250Z 18014KT 4400 +RA FEW006 BKN010 14/13 Q0990=
201110061220 METAR ESMX 061220Z 18014KT 9999 RA FEW006 SCT008 BKN010 14/13 Q0990=
201110061150 METAR ESMX 061150Z 19017KT 9999 -RA FEW007 BKN010 BKN017 14/13 Q0991=
201110061120 METAR ESMX 061120Z 19015KT 9000 -RA FEW006 SCT008 OVC010 14/13 Q0991=
201110061050 METAR ESMX 061050Z 19016KT 4200 RA FEW006 SCT008 BKN010 14/13 Q0992=
201110061020 METAR ESMX 061020Z 19017KT 5000 RA FEW006 BKN007 OVC010 14/13 Q0993=
201110060950 METAR ESMX 060950Z 19017KT 160V220 3500 -RA FEW007 SCT009 BKN010 14/13 Q0993=
201110060920 METAR ESMX 060920Z 19016KT 160V230 4200 -DZ FEW007 SCT008 BKN010 14/13 Q0993=
201110060850 METAR ESMX 060850Z 19018KT 5000 -DZ FEW007 SCT008 BKN010 14/13 Q0994=
201110060820 METAR ESMX 060820Z 19017KT 3800 BR FEW007 BKN010 OVC013 14/13 Q0994 REDZ=
201110060750 METAR ESMX 060750Z 19017KT 4500 -DZ FEW007 BKN009 OVC012 14/13 Q0995=
201110060720 METAR ESMX 060720Z 21015KT 9999 FEW007 SCT009 BKN011 14/13 Q0995=
201110060650 METAR ESMX 060650Z VRB15KT 9999 -DZ FEW006 SCT008 BKN010 14/13 Q0996=
201110060620 METAR ESMX 060620Z 21015KT 170V240 5000 DZ FEW005 BKN006 OVC008 14/13 Q0996=
201110060550 METAR ESMX 060550Z 20017KT 3300 DZ FEW006 BKN007 OVC010 14/13 Q0996=
201110060520 METAR ESMX 060520Z 20020KT 5000 FEW005 BKN007 OVC010 14/13 Q0996 RERA=
201110060450 METAR ESMX 060450Z 19015KT 4200 DZ SCT005 BKN007 OVC009 14/13 Q0997=
201110060420 METAR ESMX 060420Z 19015KT 4600 DZ FEW006 OVC007 14/13 Q0998=
201110060350 METAR ESMX 060350Z 19013KT 9000 BR FEW007 SCT008 BKN010 14/13 Q0998=
201110060320 METAR ESMX 060320Z AUTO 21013KT 9999NDV SCT007/// BKN009/// OVC011/// 14/13 Q0999=
201110060250 METAR ESMX 060250Z AUTO 19014KT 8000NDV -DZ BKN006/// OVC010/// 14/13 Q0999=
201110060220 METAR ESMX 060220Z AUTO 21012KT 9999NDV FEW006/// BKN008/// OVC011/// 14/13 Q1000=
201110060150 METAR ESMX 060150Z AUTO 20012KT 9999NDV BR FEW005/// BKN008/// OVC011/// 14/13 Q1000=
201110060120 METAR ESMX 060120Z AUTO 22012KT 7000NDV DZ BKN005/// OVC010/// 14/13 Q1001=
201110060050 METAR ESMX 060050Z AUTO 21011KT 170V240 9000NDV BR FEW005/// SCT007/// BKN009/// 14/13 Q1001=
201110060020 METAR ESMX 060020Z AUTO 20011KT 3400NDV DZ SCT005/// BKN007/// OVC009/// 13/13 Q1002=
201110052350 METAR ESMX 052350Z 20012KT 3900 -DZ FEW004 SCT006 BKN007 13/13 Q1002=
201110052320 METAR ESMX 052320Z 20012KT 3100 DZ FEW004 SCT006 BKN008 13/12 Q1003=
201110052250 METAR ESMX 052250Z 20011KT 2600 DZ FEW005 OVC009 13/12 Q1003=
201110052220 METAR ESMX 052220Z 21012KT 4300 -RA FEW004 BKN007 OVC009 13/12 Q1003=
201110052150 METAR ESMX 052150Z 21010KT 3700 -DZ SCT005 OVC010 13/12 Q1004=
201110052120 METAR ESMX 052120Z 20010KT 3900 DZ FEW005 SCT007 BKN009 13/12 Q1004=
201110052050 METAR ESMX 052050Z 21010KT 7000 BR FEW005 SCT006 BKN008 13/12 Q1004=
201110052020 METAR ESMX 052020Z 20010KT 5000 BR FEW005 SCT006 BKN007 13/12 Q1005=
201110051950 METAR ESMX 051950Z 20010KT 5000 -DZ OVC005 13/12 Q1005=
201110051920 METAR ESMX 051920Z 21010KT 3500 DZ OVC003 12/11 Q1005=
201110051850 METAR ESMX 051850Z 19010KT 5000 -DZ OVC004 12/11 Q1005 REDZ=
201110051820 METAR ESMX 051820Z 19011KT 3000 DZ OVC004 11/11 Q1006=
201110051750 METAR ESMX 051750Z 18010KT 2400 DZ FEW003 OVC005 11/10 Q1006=
201110051720 METAR ESMX 051720Z 19010KT 2600 BR FEW006 SCT008 OVC010 11/10 Q1006=
201110051650 METAR ESMX 051650Z 20009KT 7000 BR FEW016 OVC019 12/10 Q1006=
201110051620 METAR ESMX 051620Z 22010KT 9999 FEW018 OVC020 13/09 Q1006=
201110051550 METAR ESMX 051550Z 22011KT 9999 OVC022 13/09 Q1006=
201110051520 METAR ESMX 051520Z 24008KT 210V270 9999 BKN023 OVC045 13/09 Q1006=
201110051450 METAR ESMX 051450Z 23015KT 9999 FEW025 OVC028 13/08 Q1007=
201110051420 METAR ESMX 051420Z 23009KT 200V280 9999 FEW029 OVC032 13/08 Q1007=
201110051350 METAR ESMX 051350Z 25007KT 210V290 9999 FEW032 BKN046 13/09 Q1007=
201110051320 METAR ESMX 051320Z 27013G23KT 240V300 5000 DZ FEW015 SCT021 BKN025 12/09 Q1007=
201110051250 METAR ESMX 051250Z 26014KT 220V290 9999 FEW027 SCT043 OVC053 14/08 Q1007=
201110051220 METAR ESMX 051220Z 26013KT 9999 FEW032 OVC053 14/08 Q1007=
201110051150 METAR ESMX 051150Z 24012KT 200V280 9999 FEW027 BKN042 OVC053 14/08 Q1007=
201110051120 METAR ESMX 051120Z 26012KT 220V290 9999 SCT025 OVC045 13/08 Q1007=
201110051050 METAR ESMX 051050Z 25012G23KT 210V290 9999 FEW027 BKN049 13/08 Q1007=
201110051020 METAR ESMX 051020Z 24015KT 9999 FEW025 BKN042 13/09 Q1007=
201110050950 METAR ESMX 050950Z 25010KT 9999 FEW024 SCT028 BKN034 13/09 Q1007 RERA=
201110050920 METAR ESMX 050920Z 26012KT 230V290 9999 FEW020 SCT030 BKN040 13/08 Q1007=
201110050850 METAR ESMX 050850Z 24009KT 190V280 9999 FEW020 SCT030 BKN040 13/09 Q1007=
201110050820 METAR ESMX 050820Z 25007KT 220V290 9999 FEW021 SCT042 BKN054 12/10 Q1007=
201110050750 METAR ESMX 050750Z 25007KT 220V280 9999 FEW010 SCT020 BKN050 10/09 Q1007 RESH=
201110050720 METAR ESMX 050720Z 27017G28KT 2300 -SHRA FEW010 SCT017 BKN026 11/09 Q1007 REDZ=
201110050650 METAR ESMX 050650Z 24010KT 190V260 9999 BKN018 BKN050 11/08 Q1007=
201110050620 METAR ESMX 050620Z 24010KT 210V280 9999 SCT017 BKN050 11/08 Q1007=
201110050550 METAR ESMX 050550Z 24009KT 210V280 9999 FEW017 SCT020 BKN060 10/08 Q1007=
201110050520 METAR ESMX 050520Z 23009KT 9999 FEW020 SCT026 BKN060 11/08 Q1007=
201110050450 METAR ESMX 050450Z 25010KT 210V280 9999 FEW020 SCT030 BKN060 11/08 Q1006=
201110050420 METAR ESMX 050420Z 23010KT 200V270 9999 FEW020 SCT031 BKN052 11/08 Q1006=
201110050350 METAR ESMX 050350Z 25010KT 220V290 9999 FEW017 BKN035 11/08 Q1006=
201110050320 METAR ESMX 050320Z AUTO 25009KT 230V290 9999NDV FEW026/// BKN035/// 11/07 Q1006=
201110050250 METAR ESMX 050250Z AUTO 25009KT 210V280 9999NDV FEW022/// SCT029/// BKN055/// 11/07 Q1006=
201110050220 METAR ESMX 050220Z AUTO 25008KT 9999NDV FEW020/// SCT024/// 11/07 Q1006=
201110050150 METAR ESMX 050150Z AUTO 25009KT 200V270 9999NDV SCT022/// BKN031/// BKN055/// 11/07 Q1006=
201110050120 METAR ESMX 050120Z AUTO 23008G19KT 200V270 9999NDV FEW024/// SCT031/// 11/07 Q1006=
201110050050 METAR ESMX 050050Z AUTO 25010KT 230V300 9999NDV FEW025/// 11/07 Q1006=
201110050020 METAR ESMX 050020Z 25011KT 230V290 9999 FEW021 BKN028 11/07 Q1006=
201110042350 METAR ESMX 042350Z 24010KT 210V300 9999 FEW022 BKN027 11/07 Q1006=
201110042320 METAR ESMX 042320Z 26015KT 9999 FEW022 BKN031 11/07 Q1006=
201110042250 METAR ESMX 042250Z 25009KT 210V280 9999 FEW021 BKN032 11/07 Q1006=
201110042220 METAR ESMX 042220Z 24009KT 210V270 9999 FEW019 BKN027 11/08 Q1006=
201110042150 METAR ESMX 042150Z 24011KT 200V290 9999 SCT020 BKN030 11/07 Q1006=
201110042120 METAR ESMX 042120Z 26013KT 210V300 9999 SCT023 BKN031 12/07 Q1006=
201110042050 METAR ESMX 042050Z 26011KT 230V290 9999 SCT025 12/07 Q1006=
201110041950 METAR ESMX 041950Z 26012KT 210V290 9999 FEW025 BKN057 12/07 Q1006=
201110041920 METAR ESMX 041920Z 24012KT 200V270 9999 FEW030 BKN055 12/07 Q1006=
201110041850 METAR ESMX 041850Z 24011KT 210V280 9999 SCT030 BKN060 12/07 Q1006=
201110041820 METAR ESMX 041820Z 25012KT 220V290 9999 SCT030 BKN060 12/07 Q1006=
201110041750 METAR ESMX 041750Z 25012G23KT 9999 FEW023 BKN038 13/07 Q1006=
201110041720 METAR ESMX 041720Z 24013KT 9999 FEW020 SCT025 BKN035 13/08 Q1006=
201110041650 METAR ESMX 041650Z 23011KT 9999 SCT024 BKN030 BKN051 12/08 Q1006=
201110041620 METAR ESMX 041620Z 23011KT 9999 FEW029 BKN045 12/08 Q1006=
201110041550 METAR ESMX 041550Z 23010KT 9999 FEW030 SCT040 13/07 Q1007=
201110041520 METAR ESMX 041520Z 25011KT 210V290 9999 SCT030 13/07 Q1007=
201110041450 METAR ESMX 041450Z 25012KT 220V290 9999 BKN030 13/07 Q1007=
201110041420 METAR ESMX 041420Z 25015KT 9999 SCT033 14/06 Q1007=
201110041350 METAR ESMX 041350Z 25016KT 220V290 9999 FEW033 14/07 Q1007=
201110041320 METAR ESMX 041320Z 25013KT 210V280 9999 FEW037 15/07 Q1007=
201110041250 METAR ESMX 041250Z 25013KT 9999 FEW030 15/07 Q1007=
201110041220 METAR ESMX 041220Z 25015KT 210V270 CAVOK 15/06 Q1008=
201110041150 METAR ESMX 041150Z 26015KT CAVOK 15/06 Q1008=
201110041120 METAR ESMX 041120Z 26013KT 220V290 CAVOK 15/06 Q1008=
201110041020 METAR ESMX 041020Z 25014KT 220V280 9999 FEW030 15/07 Q1008=
201110040950 METAR ESMX 040950Z 27011KT 210V310 9999 FEW030 15/08 Q1008=
201110040850 METAR ESMX 040850Z 24013KT 210V290 9999 FEW025 15/09 Q1008=
201110040820 METAR ESMX 040820Z 26012KT 220V290 9999 FEW023 14/09 Q1008=
201110040750 METAR ESMX 040750Z 26014KT 230V300 9999 FEW020 14/08 Q1008=
201110040720 METAR ESMX 040720Z 26012KT 230V290 9999 FEW020 14/09 Q1007=
201110040650 METAR ESMX 040650Z 24012KT 210V290 9999 SCT020 15/11 Q1007=
201110040620 METAR ESMX 040620Z 25010KT 9999 SCT015 15/12 Q1006=
201110040550 METAR ESMX 040550Z 23008KT 190V260 7000 BR SCT010 BKN015 OVC022 15/13 Q1006=
201110040520 METAR ESMX 040520Z 25008KT 210V290 5000 BR BKN007 15/14 Q1006=
201110040450 METAR ESMX 040450Z 24009KT 5000 BR OVC007 15/14 Q1006=
201110040350 METAR ESMX 040350Z 23012KT 200V260 6000 BR OVC009 15/13 Q1006=
201110040320 METAR ESMX 040320Z AUTO 23010KT 5000NDV BR OVC009/// 15/13 Q1006=
201110040250 METAR ESMX 040250Z AUTO 23010KT 200V260 6000NDV BR FEW009/// OVC010/// 15/14 Q1007=
201110040220 METAR ESMX 040220Z AUTO 22009KT 5000NDV BR FEW006/// SCT008/// OVC011/// 15/14 Q1007=
201110040150 METAR ESMX 040150Z AUTO 22010KT 4700NDV BR OVC006/// 15/14 Q1007=
201110040120 METAR ESMX 040120Z AUTO 21008KT 4200NDV BR OVC006/// 15/14 Q1007=
201110040050 METAR ESMX 040050Z AUTO 20009KT 4100NDV BR OVC007/// 15/14 Q1008=
201110040020 METAR ESMX 040020Z AUTO 21008KT 4500NDV BR FEW008/// BKN010/// 15/14 Q1008=
201110032350 METAR ESMX 032350Z 20008KT 5000 BR OVC010 15/14 Q1009=
201110032320 METAR ESMX 032320Z 22007KT 6000 BR BKN011 15/14 Q1009=
201110032250 METAR ESMX 032250Z 23008KT 5000 BR FEW008 BKN011 15/14 Q1009=
201110032220 METAR ESMX 032220Z 23007KT 5000 BR FEW007 BKN011 15/14 Q1010=
201110032150 METAR ESMX 032150Z 23007KT 4800 BR SCT006 BKN009 15/14 Q1010=
201110032120 METAR ESMX 032120Z 20007KT 4500 BR BKN005 OVC008 15/14 Q1010=
201110032050 METAR ESMX 032050Z 20005KT 5000 BR BKN005 OVC008 15/14 Q1010=
201110032020 METAR ESMX 032020Z 20005KT 5000 BR BKN006 OVC008 15/14 Q1010=
201110031950 METAR ESMX 031950Z 21004KT 170V240 5000 BR BKN006 OVC009 15/14 Q1011=
201110031920 METAR ESMX 031920Z 23005KT 200V270 6000 BR FEW005 BKN007 15/14 Q1011=
201110031850 METAR ESMX 031850Z 22005KT 6000 BR SCT006 BKN033 15/14 Q1011=
201110031820 METAR ESMX 031820Z 21006KT 5000 BR FEW007 OVC032 14/13 Q1011=
201110031720 METAR ESMX 031720Z 22006KT 4200 BR FEW007 SCT011 BKN029 15/14 Q1011=
201110031650 METAR ESMX 031650Z 22005KT 4200 BR FEW007 SCT009 BKN012 15/14 Q1012 REDZ=
201110031620 METAR ESMX 031620Z 23006KT 5000 BR FEW009 BKN011 OVC016 15/13 Q1012=
201110031550 METAR ESMX 031550Z 25006KT 220V280 8000 BR FEW008 SCT011 BKN014 15/13 Q1012=
201110031520 METAR ESMX 031520Z 24007KT 200V270 8000 BR FEW008 BKN010 15/14 Q1012=
201110031450 METAR ESMX 031450Z 24006KT 210V280 9000 BR FEW007 SCT009 BKN011 15/14 Q1012=
201110031420 METAR ESMX 031420Z 24007KT 200V280 9999 BR FEW006 SCT008 BKN010 15/14 Q1012=
201110031350 METAR ESMX 031350Z 25008KT 5000 DZ FEW005 SCT007 BKN008 15/14 Q1012=
201110031320 METAR ESMX 031320Z 25006KT 210V290 4900 BR BKN006 OVC009 15/14 Q1012=
201110031250 METAR ESMX 031250Z 25009KT 230V290 5000 BR BKN006 OVC010 15/14 Q1012 REDZ=
201110031220 METAR ESMX 031220Z 25008KT 230V290 6000 BR OVC006 15/14 Q1012=
201110031150 METAR ESMX 031150Z 26008KT 230V290 5000 BR BKN006 OVC009 15/14 Q1012=
201110031120 METAR ESMX 031120Z 26007KT 210V290 5000 BR OVC006 15/14 Q1012=
201110031050 METAR ESMX 031050Z 26009KT 220V290 5000 BR OVC006 15/14 Q1012=
201110031020 METAR ESMX 031020Z 25009KT 230V290 4100 BR OVC006 15/14 Q1013=
201110030950 METAR ESMX 030950Z 25009KT 3800 BR OVC005 15/14 Q1012=
201110030920 METAR ESMX 030920Z 25010KT 220V290 5000 BR OVC006 15/14 Q1012=
201110030850 METAR ESMX 030850Z 25009KT 210V280 4500 BR OVC007 15/14 Q1013=
201110030820 METAR ESMX 030820Z 26011KT 220V280 5000 DZ OVC006 15/14 Q1013=
201110030750 METAR ESMX 030750Z 24008KT 170V280 5000 BR SCT007 OVC008 15/14 Q1013=
201110030720 METAR ESMX 030720Z 24009KT 200V300 3800 BR BKN006 OVC009 15/13 Q1012=
201110030650 METAR ESMX 030650Z 23009KT 190V260 5000 BR SCT007 BKN012 15/13 Q1013=
201110030620 METAR ESMX 030620Z 24008KT 200V280 5000 BR SCT007 BKN012 15/13 Q1012=
201110030550 METAR ESMX 030550Z 22008KT 170V260 2800 BR FEW006 SCT008 BKN009 14/13 Q1013 REDZ=
201110030520 METAR ESMX 030520Z 22007KT 2600 -DZ FEW006 SCT009 BKN013 14/13 Q1013=
201110030450 METAR ESMX 030450Z 24007KT 200V260 2600 DZ FEW010 BKN080 14/13 Q1013=
201110030420 METAR ESMX 030420Z 23007KT 2400 -RA BR FEW006 BKN100 14/13 Q1013=
201110030350 METAR ESMX 030350Z 24006KT 200V270 2500 -RA BR SCT004 BKN006 14/13 Q1013=
201110030320 METAR ESMX 030320Z AUTO 22007KT 190V280 1900NDV -RA BKN005/// 14/13 Q1013 REDZ=
201110030250 METAR ESMX 030250Z AUTO 23009KT 200V280 2200NDV -RA OVC005/// 14/13 Q1014=
201110030220 METAR ESMX 030220Z AUTO 23007KT 2500NDV BR OVC005/// 14/13 Q1014=
201110030150 METAR ESMX 030150Z AUTO 21007KT 2800NDV BR BKN006/// OVC008/// 14/13 Q1014=
201110030120 METAR ESMX 030120Z AUTO 22006KT 2800NDV BR SCT007/// BKN009/// 14/13 Q1014=
201110030050 METAR ESMX 030050Z AUTO 22006KT 2400NDV BR BKN100/// 14/13 Q1015=
201110030020 METAR ESMX 030020Z AUTO 23005KT 2200NDV BR SCT100/// 14/13 Q1015=
201110022350 METAR ESMX 022350Z 22006KT 2500 BR BKN003 14/13 Q1015=
201110022320 METAR ESMX 022320Z 20006KT 2200 BR SCT002 OVC003 14/13 Q1016=
201110022250 METAR ESMX 022250Z 19006KT 2000 BR OVC002 14/13 Q1016=
201110022220 METAR ESMX 022220Z 21007KT 2200 BR SCT001 OVC002 14/13 Q1017=
201110022150 METAR ESMX 022150Z 20007KT 1800 BR OVC001 14/13 Q1017=
201110022120 METAR ESMX 022120Z 22007KT 1500 BR OVC001 13/13 Q1017=
201110022050 METAR ESMX 022050Z 19006KT 150V220 2000 BR OVC001 14/13 Q1018=
201110022020 METAR ESMX 022020Z 18006KT 5000 BR SCT002 13/13 Q1018=
201110021950 METAR ESMX 021950Z 20006KT 7000 BR FEW003 14/13 Q1018=
201110021920 METAR ESMX 021920Z 20007KT 8000 BR NSC 14/13 Q1019=
201110021850 METAR ESMX 021850Z 21006KT CAVOK 14/13 Q1019=
201110021820 METAR ESMX 021820Z 20005KT CAVOK 14/13 Q1019=
201110021750 METAR ESMX 021750Z 18005KT CAVOK 15/13 Q1019=
201110021720 METAR ESMX 021720Z 18005KT CAVOK 15/13 Q1019=
201110021650 METAR ESMX 021650Z 19005KT CAVOK 16/13 Q1019=
201110021620 METAR ESMX 021620Z 17005G15KT CAVOK 17/14 Q1020=
201110021550 METAR ESMX 021550Z 19004KT CAVOK 17/14 Q1020=
201110021520 METAR ESMX 021520Z 21004KT CAVOK 18/14 Q1020=
201110021450 METAR ESMX 021450Z 19006KT CAVOK 19/14 Q1020=
201110021420 METAR ESMX 021420Z 21008KT CAVOK 19/14 Q1021=
201110021350 METAR ESMX 021350Z 21006KT 180V250 CAVOK 20/14 Q1021=
201110021320 METAR ESMX 021320Z 19006KT 160V240 CAVOK 19/14 Q1021=
201110021250 METAR ESMX 021250Z 20008KT CAVOK 18/14 Q1022=
201110021220 METAR ESMX 021220Z 22006KT 190V250 CAVOK 17/14 Q1022=
201110021150 METAR ESMX 021150Z 21006KT CAVOK 17/14 Q1022=
201110021120 METAR ESMX 021120Z 19006KT 8000 BR FEW005 16/15 Q1023=
201110021050 METAR ESMX 021050Z 20004KT 160V230 6000 BR FEW002 SCT005 14/14 Q1023=
201110021020 METAR ESMX 021020Z 21004KT 180V240 4200 OVC002 13/13 Q1024=
201110020920 METAR ESMX 020920Z 19004KT 0700 R01/0800V1600U R19/P2000D FG VV002 13/12 Q1024=
201110020850 METAR ESMX 020850Z 22005KT 190V260 0600 R01/0800V1300 R19/1700U FG VV002 13/12 Q1024=
201110020820 METAR ESMX 020820Z AUTO 19005KT 160V220 0250NDV R01/0500N R19/0800V1200 FG VV001 13/13 Q1024=
201110020750 METAR ESMX 020750Z AUTO 22003KT 150V260 0200NDV R01/0400N R19/0400N FG VV001 12/12 Q1025=
201110020720 METAR ESMX 020720Z AUTO 20005KT 0400NDV R01/0600 R19/0600V1600D FG VV001 12/11 Q1025=
201110020650 METAR ESMX 020650Z AUTO 23004KT 0350NDV R01/0700 R19/0750 FG VV001 12/11 Q1025=
201110020620 METAR ESMX 020620Z AUTO 19004KT 0200NDV R01/0400V0550U R19/0375V0650U FG VV001 12/12 Q1025=
201110020550 METAR ESMX 020550Z AUTO 17003KT 140V200 0100NDV R01/0225N R19/0250N FG VV000 12/11 Q1025=
201110020520 METAR ESMX 020520Z AUTO 19004KT 0100NDV R01/0350N R19/0400N FG VV000 12/11 Q1025=
201110020450 METAR ESMX 020450Z AUTO 17003KT 150V210 0300NDV R01/1000N R19/1100N FG VV001 12/12 Q1025=
201110020420 METAR ESMX 020420Z AUTO 23003KT 0150NDV R01/0800N R19/0700N FG VV001 12/12 Q1026=
201110020350 METAR ESMX 020350Z AUTO 20004KT 0150NDV R01/0750 R19/0650N FG VV000 12/12 Q1025=
201110020320 METAR ESMX 020320Z AUTO 19003KT 150V220 0100NDV R01/0400V0550 R19/0500N FG VV000 12/12 Q1025=
201110020250 METAR ESMX 020250Z AUTO 19004KT 0100NDV R01/0450N R19/0550N FG VV000 12/12 Q1026=
201110020220 METAR ESMX 020220Z AUTO 18004KT 150V220 0100NDV R01/0550V0750N R19/0500N -DZ VV000 12/12 Q1026=
201110020150 METAR ESMX 020150Z AUTO 18003KT 150V210 0100NDV R01/0500N R19/0600 -DZ VV000 12/12 Q1026=
201110020120 METAR ESMX 020120Z AUTO 18004KT 150V210 0100NDV R01/0500N R19/0500N -DZ VV000 12/12 Q1026=
201110020050 METAR ESMX 020050Z AUTO 17004KT 0100NDV R01/0500N R19/0450N -DZ VV000 12/12 Q1027=
201110020020 METAR ESMX 020020Z AUTO 19003KT 150V220 0100NDV R01/0450N R19/0450N -DZ VV000 13/12 Q1027=
201110012350 METAR ESMX 012350Z AUTO 18004KT 140V200 0100NDV R01/0350V0500N R19/0400N DZ VV000 13/12 Q1027=
201110012320 METAR ESMX 012320Z 17004KT 0150 R01/0500N R19/0450N FG VV001 13/13 Q1027=
201110012250 METAR ESMX 012250Z 16003KT 0150 R01/0450N R19/0600 FG VV001 13/13 Q1027=
201110012220 METAR ESMX 012220Z 16003KT 110V190 0150 R01/0500N R19/0600N FG VV001 13/13 Q1028=
201110012150 METAR ESMX 012150Z 16004KT 140V200 0100 R01/0500N R19/0450N FG VV001 14/13 Q1028 REDZ=
201110012120 METAR ESMX 012120Z 16003KT 110V190 0150 R01/0550 R19/0500N FG VV001 14/13 Q1028=
201110012050 METAR ESMX 012050Z 16003KT 140V210 0150 R01/0650 R19/0300 FG VV002 13/12 Q1028=
201110012020 METAR ESMX 012020Z VRB02KT 0800 R01/P2000N R19/P2000 BCFG NSC 12/11 Q1028=
201110011950 METAR ESMX 011950Z 13004KT 1300 R01/P2000N R19/P2000N BCFG NSC 13/12 Q1028=
201110011920 METAR ESMX 011920Z 18002KT 1500 R01/P2000N R19/P2000N BCFG NSC 11/10 Q1027=
201110011850 METAR ESMX 011850Z AUTO 20002KT 0350NDV R01/P2000 R19/P2000N FG NCD 12/11 Q1027=
201110011820 METAR ESMX 011820Z AUTO 19002KT 0650NDV R01/P2000N R19/P2000D FG NCD 13/13 Q1027=
201110011750 METAR ESMX 011750Z AUTO 00000KT 0600NDV R01/P2000N R19/P2000N FG NCD 14/13 Q1027=
201110011720 METAR ESMX 011720Z AUTO 21002KT 2200NDV BR NCD 15/13 Q1027=
201110011650 METAR ESMX 011650Z AUTO 16001KT 4800NDV BR NCD 16/14 Q1027=
201110011620 METAR ESMX 011620Z AUTO 15002KT 9999NDV NCD 18/15 Q1027=
201110011550 METAR ESMX 011550Z AUTO 15003KT 9999NDV NCD 20/15 Q1027=
201110011520 METAR ESMX 011520Z AUTO VRB02KT 9000NDV BR NCD 21/15 Q1027=
201110011450 METAR ESMX 011450Z AUTO 11003KT 070V140 6000NDV BR NCD 21/15 Q1027=
201110011420 METAR ESMX 011420Z AUTO 09003KT 030V120 6000NDV BR NCD 21/15 Q1027=
201110011350 METAR ESMX 011350Z AUTO VRB02KT 9999NDV NCD 21/15 Q1027=
201110011320 METAR ESMX 011320Z AUTO 13003KT 080V180 9999NDV NCD 21/14 Q1027=
201110011250 METAR ESMX 011250Z AUTO VRB02KT 8000NDV BR NCD 21/15 Q1027=
201110011220 METAR ESMX 011220Z AUTO VRB02KT 9000NDV BR NCD 20/15 Q1027=
