##########################################################
# Query made at 04/19/2024 21:22:14 UTC
# Time interval: from 05/01/2011 12:00  to 05/31/2011 12:59  UTC
##########################################################

##########################################################
# ESMX, Vaxjo (Sweden)
# WMO index: 02641. WIGOS ID: 0-20000-0-02648
# Latitude 56-51N. Longitude 014-50E. Altitude 199 m.
##########################################################

201105311250 METAR ESMX 311250Z 18012KT 130V210 CAVOK 25/12 Q1010=
201105311220 METAR ESMX 311220Z 16011KT 110V200 CAVOK 25/12 Q1010=
201105311150 METAR ESMX 311150Z 17012KT 130V200 CAVOK 25/12 Q1010=
201105311120 METAR ESMX 311120Z 16011KT 110V200 CAVOK 25/12 Q1010=
201105311050 METAR ESMX 311050Z 16011KT 110V200 CAVOK 24/12 Q1010=
201105311020 METAR ESMX 311020Z 16011KT 100V200 CAVOK 24/12 Q1010=
201105310950 METAR ESMX 310950Z 15010KT 120V190 CAVOK 24/13 Q1010=
201105310850 METAR ESMX 310850Z 17010KT 130V200 CAVOK 23/13 Q1010=
201105310820 METAR ESMX 310820Z 15009KT 110V200 CAVOK 22/13 Q1010=
201105310750 METAR ESMX 310750Z 16008KT 120V200 CAVOK 22/13 Q1010=
201105310720 METAR ESMX 310720Z 16008KT 120V200 CAVOK 21/13 Q1010=
201105310620 METAR ESMX 310620Z 15007KT 110V190 CAVOK 19/12 Q1010=
201105310550 METAR ESMX 310550Z 15008KT 120V190 CAVOK 18/12 Q1011=
201105310520 METAR ESMX 310520Z 16009KT 110V200 CAVOK 17/11 Q1011=
201105310450 METAR ESMX 310450Z 15009KT 110V190 CAVOK 17/11 Q1011=
201105310420 METAR ESMX 310420Z 14009KT 100V170 CAVOK 16/11 Q1011=
201105310350 METAR ESMX 310350Z AUTO 14008KT 100V170 9999NDV NCD 16/11 Q1011=
201105310320 METAR ESMX 310320Z AUTO 14007KT 090V170 9999NDV NCD 15/11 Q1011=
201105310250 METAR ESMX 310250Z AUTO 14007KT 100V170 9999NDV NCD 15/10 Q1012=
201105310220 METAR ESMX 310220Z AUTO 13006KT 100V170 9999NDV NCD 15/10 Q1012=
201105310150 METAR ESMX 310150Z AUTO 12005KT 070V160 9999NDV FEW082/// 15/10 Q1012=
201105310120 METAR ESMX 310120Z AUTO 11004KT 060V160 9999NDV FEW082/// 14/10 Q1013=
201105310050 METAR ESMX 310050Z AUTO 11003KT 050V150 9999NDV SCT076/// 14/10 Q1013=
201105310020 METAR ESMX 310020Z AUTO VRB02KT 9999NDV SCT076/// BKN092/// 14/10 Q1014=
201105302350 METAR ESMX 302350Z AUTO VRB03KT 9999NDV FEW077/// BKN092/// 14/10 Q1014=
201105302320 METAR ESMX 302320Z 14004KT 110V180 CAVOK 15/10 Q1014=
201105302250 METAR ESMX 302250Z 13005KT 070V170 CAVOK 15/10 Q1015=
201105302220 METAR ESMX 302220Z 14007KT 100V170 CAVOK 15/11 Q1015=
201105302150 METAR ESMX 302150Z 14005KT 110V170 CAVOK 15/11 Q1015=
201105302120 METAR ESMX 302120Z 14004KT 100V190 CAVOK 14/11 Q1015=
201105302050 METAR ESMX 302050Z 13003KT CAVOK 14/11 Q1015=
201105302020 METAR ESMX 302020Z 14004KT CAVOK 15/11 Q1015=
201105301950 METAR ESMX 301950Z 14004KT CAVOK 16/11 Q1015=
201105301920 METAR ESMX 301920Z 15005KT 110V170 CAVOK 18/11 Q1015=
201105301850 METAR ESMX 301850Z 16006KT 120V190 CAVOK 18/11 Q1015=
201105301820 METAR ESMX 301820Z 17006KT 150V210 CAVOK 19/10 Q1015=
201105301750 METAR ESMX 301750Z 19006KT CAVOK 19/09 Q1015=
201105301720 METAR ESMX 301720Z 21006KT CAVOK 20/08 Q1015=
201105301650 METAR ESMX 301650Z 18007KT 160V230 CAVOK 21/07 Q1015=
201105301620 METAR ESMX 301620Z 20009KT 170V240 CAVOK 20/06 Q1016=
201105301550 METAR ESMX 301550Z 23009KT 200V260 CAVOK 21/05 Q1016=
201105301520 METAR ESMX 301520Z 22009KT 190V250 CAVOK 20/05 Q1016=
201105301450 METAR ESMX 301450Z 17008KT 120V200 CAVOK 21/03 Q1016=
201105301420 METAR ESMX 301420Z 19010KT 160V220 CAVOK 21/03 Q1016=
201105301350 METAR ESMX 301350Z 22010KT 180V260 CAVOK 20/03 Q1016=
201105301320 METAR ESMX 301320Z 20010KT 170V230 CAVOK 20/02 Q1016=
201105301250 METAR ESMX 301250Z 23009KT 200V280 CAVOK 20/03 Q1016=
201105301150 METAR ESMX 301150Z 25011KT 210V280 CAVOK 19/03 Q1016=
201105301120 METAR ESMX 301120Z 22010KT 170V270 CAVOK 18/04 Q1016=
201105301050 METAR ESMX 301050Z 22011KT 190V250 CAVOK 18/04 Q1016=
201105301020 METAR ESMX 301020Z 22011KT 190V250 CAVOK 18/06 Q1016=
201105300950 METAR ESMX 300950Z 25010KT 210V280 CAVOK 17/06 Q1016=
201105300920 METAR ESMX 300920Z 22012KT 190V260 9999 FEW040 16/06 Q1016=
201105300850 METAR ESMX 300850Z 26011KT 9999 FEW030 16/06 Q1015=
201105300820 METAR ESMX 300820Z 23011KT 190V260 9999 FEW030 15/06 Q1015=
201105300750 METAR ESMX 300750Z 22011KT 9999 FEW030 14/06 Q1015=
201105300720 METAR ESMX 300720Z 23010KT 190V260 9999 FEW027 14/06 Q1014=
201105300650 METAR ESMX 300650Z 24012KT 210V290 9999 FEW025 14/07 Q1014=
201105300620 METAR ESMX 300620Z 24010KT 210V280 9999 FEW019 13/07 Q1014=
201105300550 METAR ESMX 300550Z 23011KT 190V260 9999 FEW017 12/07 Q1013=
201105300520 METAR ESMX 300520Z 22010KT 170V270 9999 SCT015 12/08 Q1013=
201105300450 METAR ESMX 300450Z 22010KT 9999 FEW012 SCT017 11/09 Q1012=
201105300420 METAR ESMX 300420Z 23010KT 190V260 9999 SCT017 11/09 Q1012=
201105300350 METAR ESMX 300350Z 22009KT 190V260 9999 FEW013 11/09 Q1011=
201105300320 METAR ESMX 300320Z AUTO 24010KT 210V290 9999NDV FEW014/// SCT022/// 11/09 Q1011=
201105300250 METAR ESMX 300250Z AUTO 24011KT 9999NDV FEW014/// SCT018/// BKN022/// 12/10 Q1010=
201105300220 METAR ESMX 300220Z AUTO 24010KT 9999NDV FEW011/// SCT018/// BKN025/// 12/10 Q1010=
201105300150 METAR ESMX 300150Z AUTO 22011KT 180V240 9999NDV FEW010/// SCT016/// BKN032/// 12/11 Q1009=
201105300120 METAR ESMX 300120Z AUTO 23011KT 9999NDV FEW007/// SCT012/// BKN018/// 12/11 Q1009=
201105300050 METAR ESMX 300050Z AUTO 23012KT 170V260 4600NDV DZ FEW005/// SCT008/// BKN010/// 12/11 Q1009=
201105300020 METAR ESMX 300020Z AUTO 23011KT 2500NDV DZ FEW006/// SCT008/// OVC010/// 12/11 Q1008=
201105292350 METAR ESMX 292350Z 22012KT 9999 -DZ FEW007 OVC010 12/11 Q1008=
201105292320 METAR ESMX 292320Z 20013KT 9999 -DZ SCT007 OVC010 12/11 Q1008=
201105292250 METAR ESMX 292250Z 19012KT 5000 DZ FEW004 OVC006 12/11 Q1008=
201105292220 METAR ESMX 292220Z 19012KT 4100 DZ BKN005 OVC009 11/10 Q1008=
201105292150 METAR ESMX 292150Z 18012KT 4000 DZ BKN005 OVC009 11/10 Q1008=
201105292120 METAR ESMX 292120Z 18011KT 5000 DZ BKN007 OVC010 11/10 Q1008=
201105292050 METAR ESMX 292050Z 19010KT 160V230 7000 -DZ BKN008 BKN011 11/09 Q1008=
201105292020 METAR ESMX 292020Z 18011KT 9999 BKN010 OVC016 11/09 Q1008=
201105291950 METAR ESMX 291950Z 19014KT 9999 SCT013 BKN016 OVC026 11/08 Q1008=
201105291920 METAR ESMX 291920Z 19012KT 9999 -RA FEW018 BKN025 11/09 Q1008=
201105291850 METAR ESMX 291850Z 19009KT 9999 -RA FEW030CB OVC040 11/08 Q1008=
201105291820 METAR ESMX 291820Z 18009KT 9999 VCSH FEW043CB BKN048 12/08 Q1008=
201105291750 METAR ESMX 291750Z 20010KT 9999 -RA FEW039CB BKN045 13/07 Q1008=
201105291720 METAR ESMX 291720Z 22012KT 9999 BKN039 13/06 Q1008=
201105291650 METAR ESMX 291650Z 21009KT 9999 FEW046 BKN056 BKN100 14/05 Q1008=
201105291620 METAR ESMX 291620Z 24009KT 210V270 9999 FEW047 BKN055 14/04 Q1008=
201105291550 METAR ESMX 291550Z 24012KT 210V280 9999 FEW044 BKN051 14/04 Q1008=
201105291520 METAR ESMX 291520Z 25012KT 200V280 9999 FEW042 SCT052 14/04 Q1008=
201105291450 METAR ESMX 291450Z 22012KT 9999 SCT044 14/05 Q1008=
201105291420 METAR ESMX 291420Z 22013KT 180V250 9999 FEW046 BKN053 14/05 Q1008=
201105291350 METAR ESMX 291350Z 23014KT CAVOK 15/03 Q1008=
201105291320 METAR ESMX 291320Z 24012KT 200V310 CAVOK 16/03 Q1007=
201105291250 METAR ESMX 291250Z 23014KT 9999 SCT040 16/03 Q1007=
201105291220 METAR ESMX 291220Z 24012KT 200V280 9999 SCT040 14/02 Q1008=
201105291150 METAR ESMX 291150Z 27014KT 9999 SCT040 14/01 Q1007=
201105291120 METAR ESMX 291120Z 25011G23KT 210V290 9999 SCT038 15/05 Q1007=
201105291050 METAR ESMX 291050Z 20012KT 170V250 9999 SCT038 14/08 Q1007=
201105291020 METAR ESMX 291020Z 22011KT 190V260 9999 SCT035 13/04 Q1007=
201105290950 METAR ESMX 290950Z 22011KT 180V260 9999 SCT033 13/06 Q1007=
201105290920 METAR ESMX 290920Z 23010KT 190V270 9999 SCT023 13/07 Q1007=
201105290850 METAR ESMX 290850Z 22011KT 170V260 9999 SCT022 13/08 Q1007=
201105290820 METAR ESMX 290820Z AUTO 24008KT 190V270 9999NDV FEW060/// 12/07 Q1007=
201105290750 METAR ESMX 290750Z AUTO 27009KT 220V300 9000NDV -RA FEW021/// SCT044/// BKN050/// 10/07 Q1007=
201105290720 METAR ESMX 290720Z AUTO 26009KT 230V290 9999NDV FEW015/// SCT020/// 12/07 Q1007=
201105290650 METAR ESMX 290650Z AUTO 24008KT 200V290 9999NDV FEW016/// 10/07 Q1006=
201105290620 METAR ESMX 290620Z AUTO 24009KT 200V280 9999NDV FEW013/// 10/08 Q1006=
201105290550 METAR ESMX 290550Z AUTO 26008KT 220V290 9999NDV FEW020/// SCT052/// 09/08 Q1006 RESHRA=
201105290520 METAR ESMX 290520Z AUTO 23006KT 9999NDV -RA FEW018/// BKN033/// OVC041/// 09/08 Q1006 RERA=
201105290450 METAR ESMX 290450Z AUTO 26008KT 230V300 7000NDV RA FEW015/// SCT027/// BKN033/// 09/08 Q1005 RESHRA=
201105290420 METAR ESMX 290420Z AUTO 23008KT 190V260 3700NDV -RA FEW005/// SCT009/// BKN015/// 10/09 Q1005=
201105290350 METAR ESMX 290350Z AUTO 19010KT 7000NDV -DZ FEW006/// SCT011/// BKN014/// 10/09 Q1005 REDZ=
201105290320 METAR ESMX 290320Z AUTO 18009KT 6000NDV -DZ FEW006/// SCT008/// BKN010/// 10/09 Q1005=
201105290250 METAR ESMX 290250Z AUTO 18008KT 140V200 5000NDV BR FEW006/// SCT008/// BKN009/// 10/09 Q1005=
201105290220 METAR ESMX 290220Z AUTO 18008KT 6000NDV -DZ FEW005/// SCT008/// BKN010/// 10/09 Q1005=
201105290150 METAR ESMX 290150Z AUTO 19007KT 7000NDV -DZ FEW009/// SCT018/// BKN040/// 10/09 Q1005=
201105290120 METAR ESMX 290120Z AUTO 21007KT 4600NDV DZ FEW004/// SCT006/// BKN015/// 10/09 Q1005=
201105290050 METAR ESMX 290050Z AUTO 17008KT 140V200 4300NDV RA BKN004/// OVC008/// 10/09 Q1005=
201105290020 METAR ESMX 290020Z AUTO 18010KT 5000NDV -RA FEW005/// SCT006/// BKN008/// 10/09 Q1006=
201105282350 METAR ESMX 282350Z AUTO 18011KT 5000NDV DZ FEW005/// BKN007/// OVC009/// 10/08 Q1006=
201105282320 METAR ESMX 282320Z AUTO 17011KT 130V200 5000NDV -RA FEW006/// BKN007/// OVC009/// 09/08 Q1006 REDZ=
201105282250 METAR ESMX 282250Z AUTO 17012KT 120V200 6000NDV DZ FEW007/// SCT008/// OVC010/// 09/08 Q1007=
201105282220 METAR ESMX 282220Z AUTO 17010KT 130V200 7000NDV DZ FEW007/// SCT010/// BKN013/// 09/08 Q1007=
201105282150 METAR ESMX 282150Z AUTO 17010KT 6000NDV DZ FEW006/// SCT023/// 10/08 Q1007=
201105282120 METAR ESMX 282120Z AUTO 17007KT 120V200 4300NDV DZ FEW005/// SCT009/// BKN011/// 10/09 Q1008=
201105282050 METAR ESMX 282050Z AUTO 18009KT 5000NDV DZ FEW008/// SCT030/// 10/08 Q1008=
201105282020 METAR ESMX 282020Z AUTO 17010KT 140V210 8000NDV DZ FEW012/// 10/08 Q1008=
201105281950 METAR ESMX 281950Z AUTO 17008KT 140V200 9999NDV DZ FEW031/// SCT056/// 10/08 Q1008=
201105281920 METAR ESMX 281920Z AUTO 18008KT 9999NDV DZ FEW018/// SCT027/// BKN047/// 10/08 Q1009=
201105281850 METAR ESMX 281850Z AUTO 17007KT 140V200 9999NDV SCT044/// 10/08 Q1009=
201105281820 METAR ESMX 281820Z AUTO 18008KT 9999NDV FEW030/// BKN046/// 10/07 Q1009=
201105281750 METAR ESMX 281750Z AUTO 18008KT 9999NDV FEW034/// OVC043/// 10/07 Q1009=
201105281720 METAR ESMX 281720Z AUTO 18008KT 9999NDV FEW026/// BKN044/// BKN053/// 10/07 Q1009=
201105281650 METAR ESMX 281650Z AUTO 21009KT 9999NDV DZ SCT022/// BKN028/// OVC034/// 10/07 Q1010=
201105281620 METAR ESMX 281620Z AUTO 23009KT 9999NDV FEW015/// OVC028/// 12/06 Q1009=
201105281550 METAR ESMX 281550Z AUTO 20011KT 160V230 9999NDV OVC029/// 12/05 Q1010=
201105281520 METAR ESMX 281520Z AUTO 21010KT 170V240 9999NDV OVC032/// 12/05 Q1010=
201105281450 METAR ESMX 281450Z AUTO 21010KT 170V230 9999NDV OVC034/// 12/05 Q1010=
201105281420 METAR ESMX 281420Z AUTO 22012KT 190V250 9999NDV BKN038/// BKN062/// 13/05 Q1010=
201105281350 METAR ESMX 281350Z AUTO 22010KT 190V260 9999NDV OVC038/// 13/04 Q1010=
201105281320 METAR ESMX 281320Z AUTO 23012KT 200V270 9999NDV SCT040/// BKN048/// BKN055/// 13/04 Q1010=
201105281250 METAR ESMX 281250Z AUTO 24010KT 210V280 9999NDV BKN040/// BKN055/// 13/04 Q1010=
201105281220 METAR ESMX 281220Z AUTO 25011KT 210V290 9999NDV FEW038/// SCT045/// BKN051/// 13/04 Q1010=
201105281150 METAR ESMX 281150Z 24011KT 210V280 9999 FEW039 SCT046 BKN053 13/04 Q1010=
201105281120 METAR ESMX 281120Z 27016KT 9999 FEW038 SCT043 BKN049 13/03 Q1010=
201105281050 METAR ESMX 281050Z 24013KT 210V280 9999 FEW033 SCT042 13/05 Q1010=
201105281020 METAR ESMX 281020Z 22015KT 200V260 9999 FEW032 SCT036 BKN045 12/04 Q1010=
201105280950 METAR ESMX 280950Z 25012KT 220V290 9999 FEW032 SCT043 OVC049 11/04 Q1010=
201105280920 METAR ESMX 280920Z 25012KT 220V290 9999 SCT030 OVC036 11/04 Q1010=
201105280850 METAR ESMX 280850Z 26011KT 200V280 9999 FEW030 BKN040 12/05 Q1010=
201105280820 METAR ESMX 280820Z 26012KT 210V300 9999 FEW030 BKN040 10/04 Q1010=
201105280750 METAR ESMX 280750Z 25012KT 210V300 9999 FEW020 SCT031 BKN035 10/04 Q1009=
201105280720 METAR ESMX 280720Z 24009KT 9999 FEW014 SCT020 BKN025 09/06 Q1009=
201105280650 METAR ESMX 280650Z 24008KT 190V270 9999 FEW011 SCT014 BKN022 09/06 Q1009=
201105280620 METAR ESMX 280620Z AUTO 23008KT 9999NDV OVC031/// 08/06 Q1009=
201105280550 METAR ESMX 280550Z AUTO 24008KT 9999NDV FEW011/// OVC031/// 08/06 Q1009=
201105280520 METAR ESMX 280520Z AUTO 23009KT 190V260 5000NDV BR FEW008/// BKN011/// OVC015/// 08/06 Q1008=
201105280450 METAR ESMX 280450Z AUTO 24006KT 200V280 9000NDV FEW009/// SCT013/// BKN018/// 08/06 Q1008=
201105280420 METAR ESMX 280420Z AUTO 23008KT 9999NDV FEW015/// SCT018/// BKN022/// 08/06 Q1008=
201105280350 METAR ESMX 280350Z AUTO 24007KT 200V260 9999NDV FEW015/// SCT018/// BKN021/// 08/06 Q1007=
201105280320 METAR ESMX 280320Z AUTO 23009KT 200V260 9999NDV FEW011/// SCT018/// OVC020/// 08/06 Q1007=
201105280250 METAR ESMX 280250Z AUTO 23010KT 9999NDV FEW009/// OVC012/// 08/07 Q1007=
201105280220 METAR ESMX 280220Z AUTO 23007KT 9999NDV FEW009/// SCT017/// BKN020/// 08/07 Q1007=
201105280150 METAR ESMX 280150Z AUTO 25009KT 220V280 9000NDV FEW008/// SCT011/// BKN013/// 08/07 Q1006=
201105280120 METAR ESMX 280120Z AUTO 24009KT 210V280 9999NDV FEW007/// SCT009/// OVC010/// 08/07 Q1006=
201105280050 METAR ESMX 280050Z AUTO 24009KT 5000NDV -DZ FEW007/// SCT009/// BKN011/// 09/07 Q1006=
201105280020 METAR ESMX 280020Z AUTO 23007KT 190V260 8000NDV BR FEW008/// SCT010/// BKN014/// 09/08 Q1006=
201105272350 METAR ESMX 272350Z AUTO 24008KT 210V280 9999NDV FEW011/// SCT017/// BKN032/// 09/08 Q1005=
201105272320 METAR ESMX 272320Z AUTO 23011KT 200V260 9999NDV FEW007/// SCT013/// BKN017/// 09/08 Q1005=
201105272250 METAR ESMX 272250Z AUTO 23007KT 190V260 7000NDV FEW005/// SCT007/// BKN009/// 09/08 Q1005=
201105272220 METAR ESMX 272220Z AUTO 23008KT 190V260 8000NDV RA FEW005/// SCT009/// BKN013/// 10/08 Q1004=
201105272150 METAR ESMX 272150Z AUTO 22007KT 190V250 4800NDV FEW005/// SCT008/// BKN010/// 09/08 Q1004 REDZ=
201105272120 METAR ESMX 272120Z AUTO 22008KT 7000NDV FEW005/// SCT008/// BKN009/// 09/08 Q1004=
201105272050 METAR ESMX 272050Z AUTO 22009KT 9000NDV FEW005/// SCT007/// BKN009/// 09/08 Q1003=
201105272020 METAR ESMX 272020Z AUTO 20007KT 9999NDV FEW011/// SCT015/// BKN093/// 09/08 Q1003 RERA RESHRA=
201105271950 METAR ESMX 271950Z AUTO 20008KT 9999NDV -RA FEW026/// SCT044/// BKN053/// 10/08 Q1003=
201105271920 METAR ESMX 271920Z 18007KT 9999 VCSH FEW009 SCT026CB BKN051 10/08 Q1003=
201105271850 METAR ESMX 271850Z 17005KT 9999 VCSH FEW018 SCT030CB 09/08 Q1003=
201105271820 METAR ESMX 271820Z 18005KT 9999 SCT020 BKN045 09/08 Q1003=
201105271750 METAR ESMX 271750Z 19005KT 9999 FEW021 FEW027CB BKN046 09/08 Q1003=
201105271720 METAR ESMX 271720Z 22006KT 180V250 8000 -RA FEW015 SCT029CB BKN040 09/08 Q1003=
201105271650 METAR ESMX 271650Z 25008KT 210V280 7000 -RA FEW016 SCT029CB BKN035 09/08 Q1003=
201105271620 METAR ESMX 271620Z 18003KT 120V220 3000 SHRA FEW022 BKN027CB BKN042 11/08 Q1003=
201105271550 METAR ESMX 271550Z 24004KT 190V290 9999 VCSH FEW028CB SCT035 BKN071 11/08 Q1003=
201105271520 METAR ESMX 271520Z 25004KT 190V330 9999 VCSH FEW020CB SCT040 BKN061 10/08 Q1003=
201105271450 METAR ESMX 271450Z 16009KT 120V200 5000 SHRA FEW018 BKN021CB BKN030 13/09 Q1004=
201105271420 METAR ESMX 271420Z 17010KT 130V210 9999 VCSH FEW015 SCT025CB BKN033 13/10 Q1003=
201105271350 METAR ESMX 271350Z 20011KT 9999 FEW025CB SCT045 BKN072 14/11 Q1003=
201105271320 METAR ESMX 271320Z 21010KT 170V240 9999 VCSH FEW025CB SCT046 BKN058 12/10 Q1003 RETS=
201105271250 METAR ESMX 271250Z 26005KT 230V300 9999 RA FEW019 FEW026CB BKN044 12/10 Q1004=
201105271220 METAR ESMX 271220Z 25005KT 210V280 9999 VCSH FEW027CB SCT033 BKN041 12/10 Q1003 RESHRA=
201105271150 METAR ESMX 271150Z 23008KT 200V280 9999 VCSH FEW015 FEW030CB BKN044 13/10 Q1003=
201105271120 METAR ESMX 271120Z 22006KT 190V250 9999 -SHRA FEW025CB BKN047 12/09 Q1003=
201105271050 METAR ESMX 271050Z 23008KT 190V250 9999 VCSH FEW021CB SCT042 11/09 Q1003=
201105271020 METAR ESMX 271020Z 19014KT 9999 VCSH FEW025CB SCT030 BKN078 15/09 Q1003=
201105270950 METAR ESMX 270950Z 20014KT 150V230 9999 -RA FEW024CB BKN028 BKN065 14/08 Q1003=
201105270920 METAR ESMX 270920Z 21014KT 9999 SCT025 BKN080 15/08 Q1003=
201105270850 METAR ESMX 270850Z 20014KT 9999 SCT023 BKN035 14/09 Q1003=
201105270820 METAR ESMX 270820Z 20012KT 160V230 9999 FEW022 SCT030 BKN080 15/09 Q1003=
201105270720 METAR ESMX 270720Z 19012KT 160V220 9999 FEW020 BKN073 14/10 Q1004=
201105270650 METAR ESMX 270650Z 20010KT 9999 VCSH FEW028CB SCT048 BKN065 12/09 Q1004=
201105270620 METAR COR ESMX 270620Z 20009KT 9999 VCSH FEW010 FEW030CB BKN070 12/09 Q1004=
201105270550 METAR ESMX 270550Z 21010KT 9999 FEW007 BKN065 12/09 Q1004=
201105270520 METAR ESMX 270520Z 19008KT CAVOK 11/09 Q1004=
201105270450 METAR ESMX 270450Z 20008KT 170V240 9999 SCT007 10/08 Q1004=
201105270420 METAR ESMX 270420Z 23009KT 9999 BKN006 BKN010 10/08 Q1004=
201105270350 METAR ESMX 270350Z 21007KT 9999 FEW008 BKN011 09/08 Q1004=
201105270320 METAR ESMX 270320Z AUTO 22008KT 9999NDV FEW007/// SCT008/// BKN010/// 09/08 Q1004=
201105270250 METAR ESMX 270250Z AUTO 24009KT 9000NDV FEW006/// BKN009/// 09/08 Q1004=
201105270220 METAR ESMX 270220Z AUTO 24008KT 9999NDV FEW006/// SCT014/// 09/08 Q1003=
201105270150 METAR ESMX 270150Z AUTO 22005KT 9999NDV FEW013/// SCT064/// 09/08 Q1003=
201105270120 METAR ESMX 270120Z AUTO 20009KT 9999NDV -RA FEW086/// 10/08 Q1004=
201105270050 METAR ESMX 270050Z AUTO 09004KT 040V180 9999NDV SCT078/// BKN091/// 10/08 Q1003=
201105270020 METAR ESMX 270020Z AUTO VRB01KT 9999NDV -RA FEW035/// SCT051/// 10/08 Q1003=
201105262350 METAR ESMX 262350Z AUTO VRB02KT 9999NDV DZ FEW035/// SCT039/// BKN051/// 10/08 Q1004=
201105262320 METAR ESMX 262320Z 10003KT 050V150 9999 -RA OVC060 10/08 Q1004=
201105262250 METAR ESMX 262250Z 09004KT 050V140 9999 -RA SCT067 10/07 Q1005=
201105262220 METAR ESMX 262220Z 10005KT 060V140 9999 -RA BKN060 10/07 Q1005=
201105262150 METAR ESMX 262150Z 15003KT 100V180 9999 -RA BKN070 11/07 Q1006=
201105262120 METAR ESMX 262120Z 13004KT 070V170 9999 -RA FEW020 BKN070 12/05 Q1007 REDZ=
201105262050 METAR ESMX 262050Z 12006KT 060V170 CAVOK 12/05 Q1006=
201105262020 METAR ESMX 262020Z 12007KT 070V170 CAVOK 12/04 Q1007=
201105261950 METAR ESMX 261950Z VRB06KT CAVOK 12/04 Q1008=
201105261920 METAR ESMX 261920Z 13007KT 070V170 CAVOK 13/04 Q1008=
201105261850 METAR ESMX 261850Z 12008KT 070V200 CAVOK 13/03 Q1008=
201105261820 METAR ESMX 261820Z 13007KT 070V170 CAVOK 14/04 Q1009=
201105261750 METAR ESMX 261750Z 13007KT 080V170 CAVOK 15/04 Q1009=
201105261720 METAR ESMX 261720Z 14007KT 070V190 CAVOK 16/03 Q1010=
201105261650 METAR ESMX 261650Z 16006KT 090V220 CAVOK 16/03 Q1010=
201105261620 METAR ESMX 261620Z 14008KT 080V190 CAVOK 16/04 Q1010=
201105261550 METAR ESMX 261550Z 16009KT 110V200 CAVOK 17/03 Q1011=
201105261520 METAR ESMX 261520Z 17008KT 140V210 CAVOK 17/04 Q1011=
201105261450 METAR ESMX 261450Z 15007KT 080V210 CAVOK 17/04 Q1012=
201105261420 METAR ESMX 261420Z 16007KT 120V200 CAVOK 17/04 Q1012=
201105261350 METAR ESMX 261350Z 15008KT 110V190 CAVOK 16/04 Q1013=
201105261320 METAR ESMX 261320Z 18008KT 9999 FEW025 BKN065 16/04 Q1013=
201105261250 METAR ESMX 261250Z 15006KT 100V200 9999 FEW028 BKN060 15/02 Q1014=
201105261150 METAR ESMX 261150Z 16008KT 110V200 CAVOK 15/02 Q1015=
201105261120 METAR ESMX 261120Z 17007KT 100V220 CAVOK 16/04 Q1015=
201105261050 METAR ESMX 261050Z 16008KT 110V210 CAVOK 15/03 Q1015=
201105261020 METAR ESMX 261020Z 16006KT 110V210 CAVOK 15/05 Q1016=
201105260950 METAR ESMX 260950Z 13008KT 070V190 CAVOK 14/05 Q1016=
201105260920 METAR ESMX 260920Z 13006KT 100V200 CAVOK 14/05 Q1016=
201105260850 METAR ESMX 260850Z 19004KT 150V240 CAVOK 13/04 Q1017=
201105260820 METAR ESMX 260820Z VRB05KT CAVOK 13/04 Q1017=
201105260750 METAR ESMX 260750Z VRB04KT CAVOK 12/06 Q1017=
201105260720 METAR ESMX 260720Z 24005KT 200V280 9999 FEW020 11/05 Q1018=
201105260650 METAR ESMX 260650Z 21006KT 9999 FEW020 11/05 Q1018=
201105260620 METAR ESMX 260620Z 26005KT 200V290 CAVOK 10/05 Q1018=
201105260550 METAR ESMX 260550Z 25003KT 190V300 CAVOK 09/05 Q1018=
201105260520 METAR ESMX 260520Z 21004KT CAVOK 08/05 Q1018=
201105260450 METAR ESMX 260450Z 20004KT 170V240 CAVOK 06/05 Q1018=
201105260420 METAR ESMX 260420Z 21005KT CAVOK 05/04 Q1018=
201105260350 METAR ESMX 260350Z 22006KT CAVOK 03/02 Q1018=
201105260320 METAR ESMX 260320Z 22004KT CAVOK 03/02 Q1018=
201105260250 METAR ESMX 260250Z AUTO 23002KT 9999NDV NCD 03/02 Q1018=
201105260220 METAR ESMX 260220Z AUTO 20002KT 8000NDV NCD 04/04 Q1018=
201105260150 METAR ESMX 260150Z AUTO 23005KT 9999NDV NCD 04/03 Q1019=
201105260120 METAR ESMX 260120Z AUTO 22005KT 9999NDV NCD 04/03 Q1019=
201105260050 METAR ESMX 260050Z AUTO 20005KT 9999NDV NCD 04/03 Q1019=
201105260020 METAR ESMX 260020Z AUTO 21004KT 9999NDV NCD 05/03 Q1019=
201105252350 METAR ESMX 252350Z AUTO 24004KT 210V280 9999NDV NCD 06/03 Q1019=
201105252320 METAR ESMX 252320Z 24005KT 9999 FEW027 06/03 Q1019=
201105252250 METAR ESMX 252250Z 25004KT 9999 BKN026 08/04 Q1019=
201105252220 METAR ESMX 252220Z 25007KT 200V300 9999 OVC027 09/04 Q1019=
201105252150 METAR ESMX 252150Z 27007KT 240V320 9999 BKN029 09/03 Q1019=
201105252120 METAR ESMX 252120Z 26006KT 220V290 9999 BKN030 09/03 Q1019=
201105252020 METAR ESMX 252020Z 26010KT 9999 BKN035 09/03 Q1019=
201105251950 METAR ESMX 251950Z 26008KT 230V290 9999 BKN036 10/03 Q1019=
201105251920 METAR ESMX 251920Z 25009KT 9999 BKN038 10/03 Q1019=
201105251850 METAR ESMX 251850Z 26008KT 9999 FEW036 SCT041 10/03 Q1018=
201105251820 METAR ESMX 251820Z 27011G21KT 240V300 9999 SCT037 11/03 Q1018=
201105251750 METAR ESMX 251750Z 26012KT 9999 SCT036 11/03 Q1018=
201105251720 METAR ESMX 251720Z 26014G24KT 230V300 9999 FEW035 12/03 Q1018=
201105251650 METAR ESMX 251650Z 26012KT 220V290 9999 FEW035 12/04 Q1018=
201105251620 METAR ESMX 251620Z 26013KT 230V290 CAVOK 12/04 Q1018=
201105251550 METAR ESMX 251550Z 26014KT 200V280 CAVOK 12/04 Q1018=
201105251520 METAR ESMX 251520Z 26017KT CAVOK 11/04 Q1018=
201105251450 METAR ESMX 251450Z 26016G26KT 230V300 9999 FEW033 SCT039 BKN046 12/04 Q1018=
201105251420 METAR ESMX 251420Z 26015G25KT 240V300 9999 FEW035 SCT050 12/04 Q1017=
201105251350 METAR ESMX 251350Z 26012KT 230V300 9999 FEW019 SCT058 11/06 Q1017 REDZ=
201105251320 METAR ESMX 251320Z 26015KT 9999 FEW035 SCT089 12/04 Q1017=
201105251250 METAR ESMX 251250Z 26020KT 9999 SCT038 BKN056 13/04 Q1017=
201105251220 METAR ESMX 251220Z 26017KT 230V290 9999 FEW035 SCT049 13/03 Q1017=
201105251150 METAR ESMX 251150Z 26022KT 9999 FEW025CB BKN045 13/04 Q1017=
201105251120 METAR ESMX 251120Z 25018G28KT 210V280 9999 FEW031 SCT038 12/05 Q1017=
201105251050 METAR ESMX 251050Z 25014KT 190V290 9999 BKN026 OVC036 12/06 Q1016=
201105251020 METAR ESMX 251020Z 24014G25KT 210V280 9999 FEW024 SCT029 BKN036 11/06 Q1017=
201105250950 METAR ESMX 250950Z 26012KT 230V300 9999 FEW025CB BKN035 10/06 Q1017 RERA=
201105250920 METAR ESMX 250920Z 27010KT 240V300 6000 -SHRA FEW020CB BKN035 09/06 Q1016 REDZ=
201105250850 METAR ESMX 250850Z 24013KT 190V290 9999 FEW025CB BKN050 12/04 Q1016=
201105250820 METAR ESMX 250820Z 25012G22KT 220V290 9999 FEW016CB SCT041 BKN055 11/04 Q1016=
201105250750 METAR ESMX 250750Z 25014KT 220V290 9999 FEW016CB BKN040 11/03 Q1016 RESHRA=
201105250720 METAR ESMX 250720Z 26010G20KT 220V290 8000 -SHRA FEW018CB SCT040 09/04 Q1016=
201105250650 METAR ESMX 250650Z 25011G21KT 200V300 9999 FEW030CB SCT060 11/03 Q1016=
201105250620 METAR ESMX 250620Z 25015KT 9999 FEW020 SCT038 10/04 Q1016=
201105250550 METAR ESMX 250550Z 23011KT 190V280 9999 FEW025 09/05 Q1016=
201105250520 METAR ESMX 250520Z 26013KT 220V290 9999 FEW015 09/05 Q1015=
201105250450 METAR ESMX 250450Z 25010KT 200V290 9999 FEW015 08/05 Q1015=
201105250420 METAR ESMX 250420Z 25010KT 220V280 9999 FEW015 08/05 Q1015=
201105250350 METAR ESMX 250350Z 24009KT 210V290 9999 FEW015 07/05 Q1015=
201105250320 METAR ESMX 250320Z AUTO 24008KT 9999NDV NCD 06/04 Q1015=
201105250250 METAR ESMX 250250Z AUTO 21008KT 190V250 9999NDV NCD 06/04 Q1015=
201105250220 METAR ESMX 250220Z AUTO 22009KT 180V240 9999NDV NCD 06/04 Q1015=
201105250150 METAR ESMX 250150Z AUTO 23010KT 9999NDV NCD 06/04 Q1015=
201105250120 METAR ESMX 250120Z AUTO 23009KT 9999NDV NCD 06/04 Q1015=
201105250050 METAR ESMX 250050Z AUTO 23008KT 9999NDV NCD 06/04 Q1015=
201105250020 METAR ESMX 250020Z AUTO 22009KT 9999NDV NCD 07/05 Q1015=
201105242350 METAR ESMX 242350Z AUTO 22009KT 9999NDV NCD 07/05 Q1015=
201105242320 METAR ESMX 242320Z 23009KT 200V260 9999 FEW027 07/05 Q1015=
201105242250 METAR ESMX 242250Z 22009KT 9999 FEW029 07/04 Q1014=
201105242220 METAR ESMX 242220Z 23009KT CAVOK 07/05 Q1014=
201105242150 METAR ESMX 242150Z 23010KT 9999 FEW028 08/05 Q1014=
201105242120 METAR ESMX 242120Z 21009KT 9999 FEW032 08/04 Q1014=
201105242050 METAR ESMX 242050Z 22009KT 190V250 9999 FEW036 08/04 Q1014=
201105242020 METAR ESMX 242020Z 25012KT 210V290 9999 FEW031 09/03 Q1014=
201105241950 METAR ESMX 241950Z 22009KT 9999 FEW040 09/05 Q1014=
201105241920 METAR ESMX 241920Z 24008KT 9999 FEW036 SCT043 09/04 Q1013=
201105241850 METAR ESMX 241850Z 23010KT 200V280 9999 FEW034 SCT041 10/05 Q1013=
201105241820 METAR ESMX 241820Z 22011KT 9999 FEW034 SCT044 BKN056 11/05 Q1013=
201105241750 METAR ESMX 241750Z 23011KT 190V270 9999 FEW042 12/04 Q1012=
201105241720 METAR ESMX 241720Z 24011KT 210V290 9999 FEW038 12/04 Q1013=
201105241650 METAR ESMX 241650Z 26015KT 210V300 9999 SCT040 BKN110 12/03 Q1012=
201105241620 METAR ESMX 241620Z 25015KT 210V290 9999 FEW037 SCT066 12/03 Q1012=
201105241550 METAR ESMX 241550Z 23011KT 9999 FEW035 SCT050 13/04 Q1012=
201105241520 METAR ESMX 241520Z 25013KT 9999 SCT035 13/04 Q1012=
201105241450 METAR ESMX 241450Z 26018G28KT 230V290 9999 FEW030CB SCT060 12/03 Q1012=
201105241420 METAR ESMX 241420Z 25015KT 220V300 9999 -SHRA FEW030CB SCT065 13/05 Q1012=
201105241350 METAR ESMX 241350Z 22018KT 9999 FEW030 SCT060 14/06 Q1012=
201105241320 METAR ESMX 241320Z 25014KT 210V290 9999 FEW020 SCT040 13/05 Q1012=
201105241250 METAR ESMX 241250Z 26013KT 220V290 9999 FEW025 SCT045 14/05 Q1012=
201105241220 METAR ESMX 241220Z 24020KT 9999 FEW025 SCT050 15/06 Q1012=
201105241150 METAR ESMX 241150Z 24017KT 200V260 9999 FEW025 SCT044 14/07 Q1011=
201105241120 METAR ESMX 241120Z 23016KT 9999 SCT028 13/08 Q1011 RESHRA=
201105241050 METAR ESMX 241050Z 21012KT 9999 SCT020 FEW030TCU 12/08 Q1011=
201105241020 METAR ESMX 241020Z 21011KT 9999 SCT012 BKN060 12/10 Q1011=
201105240950 METAR ESMX 240950Z 21010KT 9999 SCT012 BKN060 11/09 Q1011=
201105240920 METAR ESMX 240920Z 20009KT 9999 FEW025 SCT059 10/08 Q1011=
201105240850 METAR ESMX 240850Z 20008KT 9999 SCT024 BKN047 09/08 Q1012=
201105240820 METAR ESMX 240820Z 23006KT 9999 -DZ BKN049 09/07 Q1011=
201105240750 METAR ESMX 240750Z 26011KT 8000 -RA FEW009 SCT022 BKN035 10/08 Q1011=
201105240720 METAR ESMX 240720Z 21010KT 5000 RA FEW007 BKN010 11/10 Q1011=
201105240650 METAR ESMX 240650Z 20010KT 6000 RA FEW026 BKN034 12/10 Q1011=
201105240620 METAR ESMX 240620Z 21010KT 8000 -RA FEW026 BKN056 12/09 Q1011=
201105240550 METAR ESMX 240550Z 20013KT 8000 -RA NSC 14/07 Q1011=
201105240520 METAR ESMX 240520Z 19011KT CAVOK 14/07 Q1011=
201105240450 METAR ESMX 240450Z 19012KT CAVOK 14/08 Q1010=
201105240420 METAR ESMX 240420Z 19011KT CAVOK 13/07 Q1011=
201105240350 METAR ESMX 240350Z 18010KT CAVOK 13/07 Q1011=
201105240320 METAR ESMX 240320Z AUTO 17011KT 140V200 9999NDV NCD 13/07 Q1011=
201105240250 METAR ESMX 240250Z AUTO 17012KT 140V210 9999NDV NCD 13/07 Q1012=
201105240220 METAR ESMX 240220Z AUTO 17010KT 9999NDV NCD 13/07 Q1012=
201105240150 METAR ESMX 240150Z AUTO 17011KT 140V210 9999NDV FEW066/// 13/07 Q1013=
201105240120 METAR ESMX 240120Z AUTO 17011KT 9999NDV NCD 12/07 Q1013=
201105240050 METAR ESMX 240050Z AUTO 17010KT 140V200 9999NDV NCD 12/07 Q1014=
201105240020 METAR ESMX 240020Z AUTO 17009KT 9999NDV NCD 12/07 Q1014=
201105232350 METAR ESMX 232350Z 18010KT 150V210 CAVOK 12/06 Q1015=
201105232320 METAR ESMX 232320Z 17010KT CAVOK 12/06 Q1015=
201105232250 METAR ESMX 232250Z 18010KT 150V210 CAVOK 12/06 Q1015=
201105232220 METAR ESMX 232220Z 17009KT CAVOK 12/07 Q1016=
201105232150 METAR ESMX 232150Z 17009KT CAVOK 12/07 Q1016=
201105232120 METAR ESMX 232120Z 17008KT 120V200 CAVOK 12/07 Q1016=
201105232050 METAR ESMX 232050Z 18008KT CAVOK 13/07 Q1017=
201105232020 METAR ESMX 232020Z 18010KT CAVOK 13/07 Q1017=
201105231950 METAR ESMX 231950Z 18008KT CAVOK 13/06 Q1017=
201105231920 METAR ESMX 231920Z 20008KT CAVOK 13/07 Q1017=
201105231850 METAR ESMX 231850Z 20011KT 9999 FEW038 SCT043 BKN050 15/06 Q1017=
201105231820 METAR ESMX 231820Z 21011KT 170V250 9999 FEW041 BKN047 15/06 Q1017=
201105231750 METAR ESMX 231750Z 21011KT 170V240 9999 FEW045 15/06 Q1017=
201105231720 METAR ESMX 231720Z 22009KT 150V260 CAVOK 16/05 Q1017=
201105231650 METAR ESMX 231650Z 22011KT 170V260 CAVOK 16/04 Q1018=
201105231620 METAR ESMX 231620Z 23012KT 200V280 CAVOK 17/04 Q1018=
201105231550 METAR ESMX 231550Z 24010KT 200V290 CAVOK 17/04 Q1018=
201105231520 METAR ESMX 231520Z 25012KT 210V290 CAVOK 16/03 Q1018=
201105231450 METAR ESMX 231450Z 24013G23KT 200V290 CAVOK 17/03 Q1018=
201105231420 METAR ESMX 231420Z 24014KT CAVOK 17/03 Q1018=
201105231350 METAR ESMX 231350Z 25012KT 200V290 CAVOK 17/01 Q1019=
201105231320 METAR ESMX 231320Z 23012KT 180V280 9999 FEW028 17/02 Q1019=
201105231250 METAR ESMX 231250Z 23014KT 9999 FEW027 SCT055 16/02 Q1019=
201105231220 METAR ESMX 231220Z 24014KT 200V290 9999 FEW047 SCT053 17/01 Q1019=
201105231120 METAR ESMX 231120Z 25012G22KT 210V290 CAVOK 15/02 Q1019=
201105231050 METAR ESMX 231050Z 25013KT 200V290 CAVOK 16/04 Q1018=
201105231020 METAR ESMX 231020Z 27014KT 240V300 9999 FEW047 15/03 Q1018=
201105230950 METAR ESMX 230950Z 27014KT 230V300 9999 SCT042 15/04 Q1018=
201105230920 METAR ESMX 230920Z 26012KT 9999 SCT038 14/05 Q1018=
201105230850 METAR ESMX 230850Z 24012KT 210V290 9999 FEW034 14/05 Q1018=
201105230820 METAR ESMX 230820Z 26012KT 210V300 9999 FEW030 13/06 Q1017=
201105230750 METAR ESMX 230750Z 26012KT 220V330 9999 FEW024 SCT033 13/07 Q1017=
201105230720 METAR ESMX 230720Z 25013KT 220V300 9999 FEW020 12/08 Q1016=
201105230650 METAR ESMX 230650Z 25014KT 9999 SCT016 BKN023 BKN051 11/07 Q1016=
201105230620 METAR ESMX 230620Z 26010KT 220V290 9999 FEW015 SCT018 BKN022 11/08 Q1016=
201105230550 METAR ESMX 230550Z 24010KT 200V280 9999 FEW014 SCT019 BKN027 11/08 Q1015=
201105230520 METAR ESMX 230520Z 26010KT 210V360 9999 FEW010 SCT018 10/08 Q1015=
201105230450 METAR ESMX 230450Z 26008KT 200V290 9999 FEW008 BKN014 10/08 Q1015=
201105230420 METAR ESMX 230420Z 25008KT 9999 FEW011 BKN014 OVC019 10/08 Q1015=
201105230350 METAR ESMX 230350Z 22005KT 190V260 9999 FEW016 SCT019 BKN024 09/08 Q1014=
201105230320 METAR ESMX 230320Z AUTO 23005KT 9999NDV FEW047/// 09/07 Q1014=
201105230250 METAR ESMX 230250Z AUTO 25006KT 9999NDV FEW042/// 09/08 Q1014=
201105230220 METAR ESMX 230220Z AUTO 25006KT 9999NDV NCD 09/08 Q1014=
201105230150 METAR ESMX 230150Z AUTO 25005KT 9999NDV NCD 09/08 Q1013=
201105230120 METAR ESMX 230120Z AUTO 26007KT 9999NDV NCD 10/08 Q1013=
201105230050 METAR ESMX 230050Z AUTO 26009KT 230V300 9999NDV FEW012/// SCT042/// 11/09 Q1012=
201105230020 METAR ESMX 230020Z AUTO 25005KT 220V280 9999NDV FEW013/// SCT019/// BKN044/// 11/10 Q1012=
201105222350 METAR ESMX 222350Z AUTO 22004KT 200V260 9999NDV FEW024/// 11/10 Q1012=
201105222320 METAR ESMX 222320Z 25004KT 9999 -DZ FEW010 SCT070 12/10 Q1012=
201105222250 METAR ESMX 222250Z 26007KT 9999 -RA FEW008 SCT027 12/10 Q1013=
201105222220 METAR ESMX 222220Z 23008KT 200V270 9999 -RA FEW004 BKN006 OVC010 12/11 Q1013=
201105222150 METAR ESMX 222150Z 22009KT 170V240 5000 RA FEW003 BKN004 OVC009 12/11 Q1012=
201105222120 METAR ESMX 222120Z 20006KT 4500 RA SCT005 BKN007 OVC014 12/11 Q1012=
201105222050 METAR ESMX 222050Z 17007KT 140V200 8000 -RA FEW008 BKN017 12/11 Q1012=
201105222020 METAR ESMX 222020Z 16007KT 140V200 9000 -RA SCT020 BKN150 12/11 Q1012=
201105221950 METAR ESMX 221950Z 14006KT 100V200 9999 -RA NSC 12/11 Q1012=
201105221920 METAR ESMX 221920Z 15004KT 8000 RA NSC 12/10 Q1012=
201105221850 METAR ESMX 221850Z 16006KT 120V190 9999 RA FEW037 BKN150 13/10 Q1013=
201105221820 METAR ESMX 221820Z 19006KT 9999 -RA TS FEW020 FEW040CB OVC040 14/09 Q1013=
201105221750 METAR ESMX 221750Z 21010KT 170V230 9999 FEW046 SCT046CB 17/04 Q1013=
201105221720 METAR ESMX 221720Z 16009KT 120V190 CAVOK 17/03 Q1012=
201105221650 METAR ESMX 221650Z 15010KT 110V210 CAVOK 18/01 Q1013=
201105221620 METAR ESMX 221620Z 16009KT 110V200 CAVOK 19/01 Q1013=
201105221520 METAR ESMX 221520Z 15011KT 030V200 CAVOK 20/M01 Q1013=
201105221450 METAR ESMX 221450Z 15011G22KT 100V200 CAVOK 20/M01 Q1014=
201105221420 METAR ESMX 221420Z 16011KT 120V200 CAVOK 19/00 Q1015=
201105221350 METAR ESMX 221350Z AUTO 16010KT 120V200 9999NDV FEW089/// 20/01 Q1015=
201105221320 METAR ESMX 221320Z 16013KT 130V200 CAVOK 19/01 Q1016=
201105221250 METAR ESMX 221250Z 17012KT 120V200 CAVOK 20/01 Q1016=
201105221220 METAR COR ESMX 221220Z 16012KT 130V210 CAVOK 19/01 Q1016=
201105221150 METAR ESMX 221150Z 15012KT 110V200 CAVOK 19/02 Q1017=
201105221120 METAR ESMX 221120Z 17011KT 140V200 CAVOK 19/03 Q1017=
201105221050 METAR ESMX 221050Z 16012KT 110V200 CAVOK 19/03 Q1018=
201105221020 METAR ESMX 221020Z 16010KT 110V200 CAVOK 19/04 Q1018=
201105220950 METAR ESMX 220950Z 16010KT 110V200 CAVOK 18/05 Q1018=
201105220920 METAR ESMX 220920Z 16010KT 120V190 CAVOK 17/04 Q1019=
201105220850 METAR ESMX 220850Z 16010KT 120V190 CAVOK 17/04 Q1019=
201105220820 METAR ESMX 220820Z AUTO 17010KT 140V220 9999NDV NCD 17/04 Q1019=
201105220750 METAR ESMX 220750Z AUTO 16009KT 110V190 9999NDV NCD 16/05 Q1019=
201105220720 METAR ESMX 220720Z AUTO 13007KT 070V190 9999NDV NCD 16/05 Q1019=
201105220650 METAR ESMX 220650Z AUTO 16007KT 110V190 9999NDV NCD 15/06 Q1019=
201105220620 METAR ESMX 220620Z AUTO 14005KT 090V200 9999NDV NCD 14/06 Q1020=
201105220550 METAR ESMX 220550Z AUTO 13004KT 080V170 9999NDV NCD 13/07 Q1020=
201105220520 METAR ESMX 220520Z AUTO 13003KT 070V160 9999NDV NCD 11/08 Q1020=
201105220450 METAR ESMX 220450Z AUTO VRB02KT 9999NDV NCD 10/08 Q1021=
201105220420 METAR ESMX 220420Z AUTO 00000KT 9999NDV NCD 06/05 Q1021=
201105220350 METAR ESMX 220350Z AUTO 00000KT 9999NDV BR NCD 04/03 Q1021=
201105220320 METAR ESMX 220320Z AUTO 18002KT 9999NDV NCD 03/03 Q1021=
201105220250 METAR ESMX 220250Z AUTO 00000KT 9999NDV NCD 03/02 Q1021=
201105220220 METAR ESMX 220220Z AUTO 19001KT 9999NDV NCD 02/01 Q1021=
201105220150 METAR ESMX 220150Z AUTO VRB01KT 9999NDV NCD 03/03 Q1021=
201105220120 METAR ESMX 220120Z AUTO 00000KT 6000NDV BR NCD 04/02 Q1021=
201105220050 METAR ESMX 220050Z AUTO 00000KT 9999NDV NCD 03/02 Q1021=
201105220020 METAR ESMX 220020Z AUTO 17001KT 9999NDV NCD 04/03 Q1021=
201105212350 METAR ESMX 212350Z AUTO 00000KT 9999NDV NCD 04/03 Q1021=
201105212320 METAR ESMX 212320Z AUTO 00000KT 9999NDV NCD 05/03 Q1021=
201105212250 METAR ESMX 212250Z AUTO 15004KT 120V190 9999NDV NCD 06/04 Q1022=
201105212220 METAR ESMX 212220Z AUTO 14003KT 9999NDV NCD 05/03 Q1021=
201105212150 METAR ESMX 212150Z AUTO 17001KT 9999NDV NCD 06/04 Q1021=
201105212120 METAR ESMX 212120Z AUTO 17002KT 9999NDV NCD 07/04 Q1021=
201105212050 METAR ESMX 212050Z AUTO 18001KT 9999NDV NCD 08/04 Q1021=
201105212020 METAR ESMX 212020Z AUTO 18002KT 9999NDV NCD 09/05 Q1021=
201105211950 METAR ESMX 211950Z AUTO 23002KT 9999NDV NCD 10/05 Q1021=
201105211920 METAR ESMX 211920Z AUTO 24002KT 9999NDV NCD 13/05 Q1021=
201105211850 METAR ESMX 211850Z AUTO 25003KT 9999NDV NCD 14/04 Q1021=
201105211820 METAR ESMX 211820Z AUTO 26004KT 220V290 9999NDV NCD 16/04 Q1021=
201105211750 METAR ESMX 211750Z AUTO 28007KT 9999NDV NCD 17/03 Q1021=
201105211720 METAR ESMX 211720Z AUTO 27007KT 240V320 9999NDV NCD 17/04 Q1021=
201105211650 METAR ESMX 211650Z AUTO 29007KT 250V330 9999NDV FEW053/// 18/05 Q1021=
201105211620 METAR ESMX 211620Z AUTO 27009KT 230V300 9999NDV SCT053/// 18/04 Q1021=
201105211550 METAR ESMX 211550Z AUTO 28008KT 240V300 9999NDV FEW055/// 18/04 Q1021=
201105211520 METAR ESMX 211520Z AUTO 27009KT 230V310 9999NDV FEW058/// 18/04 Q1021=
201105211450 METAR ESMX 211450Z AUTO 26012KT 9999NDV FEW056/// 19/04 Q1021=
201105211420 METAR ESMX 211420Z AUTO 28010KT 9999NDV FEW055/// 19/04 Q1021=
201105211350 METAR ESMX 211350Z AUTO 28010KT 9999NDV FEW054/// 18/05 Q1021=
201105211320 METAR ESMX 211320Z AUTO 26009KT 200V290 9999NDV FEW053/// 19/05 Q1021=
201105211250 METAR ESMX 211250Z AUTO 24010KT 170V290 9999NDV SCT048/// 19/04 Q1021=
201105211220 METAR ESMX 211220Z AUTO 27010KT 240V320 9999NDV FEW049/// 19/05 Q1021=
201105211150 METAR ESMX 211150Z 28009KT 250V330 9999 FEW043 17/05 Q1021=
201105211120 METAR ESMX 211120Z 22009KT 9999 FEW040 18/06 Q1021=
201105211050 METAR ESMX 211050Z 25009KT 220V280 9999 SCT042 16/05 Q1021=
201105211020 METAR ESMX 211020Z 24008KT 220V280 9999 SCT040 17/06 Q1021=
201105210920 METAR ESMX 210920Z 24009KT 9999 SCT040 16/05 Q1021=
201105210850 METAR ESMX 210850Z 27008KT 200V320 9999 FEW038 17/05 Q1021=
201105210820 METAR ESMX 210820Z 27009KT 220V320 CAVOK 16/05 Q1021=
201105210750 METAR ESMX 210750Z 27008KT 240V300 CAVOK 14/06 Q1021=
201105210720 METAR ESMX 210720Z 25008KT 220V290 CAVOK 14/06 Q1020=
201105210650 METAR ESMX 210650Z 25007KT 210V280 CAVOK 13/05 Q1020=
201105210620 METAR ESMX 210620Z AUTO 27008KT 240V300 9999NDV NCD 12/06 Q1020=
201105210550 METAR ESMX 210550Z AUTO 27007KT 9999NDV NCD 12/06 Q1020=
201105210520 METAR ESMX 210520Z AUTO 24005KT 200V280 9999NDV NCD 11/07 Q1019=
201105210450 METAR ESMX 210450Z AUTO 27005KT 230V290 9999NDV NCD 09/07 Q1019=
201105210420 METAR ESMX 210420Z AUTO 25004KT 220V290 9999NDV NCD 08/06 Q1019=
201105210350 METAR ESMX 210350Z AUTO 23005KT 9999NDV NCD 06/05 Q1018=
201105210320 METAR ESMX 210320Z AUTO 22005KT 9999NDV NCD 06/04 Q1018=
201105210250 METAR ESMX 210250Z AUTO 23005KT 9999NDV NCD 05/04 Q1018=
201105210220 METAR ESMX 210220Z AUTO 22004KT 9999NDV NCD 05/03 Q1018=
201105210150 METAR ESMX 210150Z AUTO 21004KT 9999NDV NCD 07/04 Q1018=
201105210120 METAR ESMX 210120Z AUTO 23002KT 9999NDV NCD 07/04 Q1017=
201105210050 METAR ESMX 210050Z AUTO VRB02KT 9999NDV NCD 07/04 Q1017=
201105210020 METAR ESMX 210020Z AUTO 24002KT 9999NDV NCD 07/05 Q1017=
201105202350 METAR ESMX 202350Z AUTO 23002KT 9999NDV NCD 07/04 Q1017=
201105202320 METAR ESMX 202320Z AUTO 23003KT 9999NDV NCD 08/05 Q1017=
201105202250 METAR ESMX 202250Z AUTO 23003KT 9999NDV SCT030/// 10/06 Q1017=
201105202220 METAR ESMX 202220Z AUTO 20002KT 9999NDV FEW034/// SCT041/// BKN053/// 11/06 Q1017=
201105202150 METAR ESMX 202150Z AUTO 24003KT 9999NDV SCT039/// BKN051/// 12/06 Q1017=
201105202120 METAR ESMX 202120Z AUTO 26005KT 9999NDV FEW037/// BKN057/// 12/06 Q1017=
201105202050 METAR ESMX 202050Z AUTO 21004G21KT 9999NDV FEW048/// BKN060/// 11/07 Q1017=
201105202020 METAR ESMX 202020Z AUTO 20006KT 9999NDV FEW039/// SCT045/// BKN060/// 12/07 Q1017=
201105201950 METAR ESMX 201950Z AUTO 20005KT 9999NDV SCT037/// BKN058/// 13/07 Q1017=
201105201920 METAR ESMX 201920Z AUTO 18007KT 9999NDV FEW055/// 13/07 Q1016=
201105201850 METAR ESMX 201850Z 18008KT 9999 FEW045 14/07 Q1016=
201105201820 METAR ESMX 201820Z 19009KT 9999 FEW045 SCT065 15/07 Q1016=
201105201750 METAR ESMX 201750Z 19010KT CAVOK 16/07 Q1016=
201105201720 METAR ESMX 201720Z 20008KT CAVOK 17/07 Q1016=
201105201650 METAR ESMX 201650Z 21009KT 9999 FEW052 SCT067 17/07 Q1016=
201105201620 METAR ESMX 201620Z 23009KT CAVOK 17/06 Q1016=
201105201550 METAR ESMX 201550Z 20010KT CAVOK 17/05 Q1016=
201105201520 METAR ESMX 201520Z 18008KT 150V210 CAVOK 18/05 Q1016=
201105201450 METAR ESMX 201450Z 21010KT 170V240 CAVOK 18/04 Q1017=
201105201420 METAR ESMX 201420Z 19011KT 140V210 CAVOK 19/04 Q1017=
201105201350 METAR ESMX 201350Z 22009KT 170V260 CAVOK 18/04 Q1017=
201105201320 METAR ESMX 201320Z 19010KT 160V230 CAVOK 18/03 Q1017=
201105201250 METAR ESMX 201250Z 22010KT CAVOK 17/03 Q1018=
201105201220 METAR ESMX 201220Z 20009KT 160V230 CAVOK 17/02 Q1018=
201105201150 METAR ESMX 201150Z 19010KT 150V210 CAVOK 17/03 Q1018=
201105201120 METAR ESMX 201120Z 27007KT CAVOK 17/03 Q1018=
201105201050 METAR ESMX 201050Z 21009KT CAVOK 17/03 Q1018=
201105201020 METAR ESMX 201020Z 20013KT 9999 NSC 16/02 Q1019=
201105200950 METAR ESMX 200950Z 24008KT 210V280 CAVOK 15/02 Q1019=
201105200920 METAR ESMX 200920Z 19005KT 120V230 CAVOK 15/02 Q1019=
201105200850 METAR ESMX 200850Z 27006KT 210V320 CAVOK 14/02 Q1019=
201105200820 METAR ESMX 200820Z 27005KT 210V320 CAVOK 13/03 Q1019=
201105200750 METAR ESMX 200750Z 24005KT 200V290 CAVOK 13/02 Q1019=
201105200720 METAR ESMX 200720Z 23004KT 190V320 CAVOK 12/02 Q1019=
201105200650 METAR ESMX 200650Z 26003KT CAVOK 11/04 Q1019=
201105200620 METAR ESMX 200620Z 29004KT CAVOK 10/05 Q1019=
201105200550 METAR ESMX 200550Z 25003KT CAVOK 09/06 Q1019=
201105200520 METAR ESMX 200520Z 26003KT CAVOK 08/06 Q1019=
201105200450 METAR ESMX 200450Z VRB02KT CAVOK 07/06 Q1019=
201105200420 METAR ESMX 200420Z 20002KT 9000 BR NSC 04/03 Q1018=
201105200350 METAR ESMX 200350Z VRB01KT 9999 BCFG NSC 03/03 Q1018=
201105200320 METAR ESMX 200320Z AUTO 16001KT 2300NDV BR NCD 03/02 Q1018=
201105200250 METAR ESMX 200250Z AUTO 27001KT 2400NDV NCD 03/02 Q1018=
201105200220 METAR ESMX 200220Z AUTO 26003KT 9999NDV NCD 04/03 Q1018=
201105200150 METAR ESMX 200150Z AUTO 29003KT 8000NDV BR NCD 03/02 Q1018=
201105200120 METAR ESMX 200120Z AUTO 27003KT 9999NDV NCD 04/03 Q1018=
201105200050 METAR ESMX 200050Z AUTO 23003KT 9999NDV NCD 05/04 Q1018=
201105200020 METAR ESMX 200020Z AUTO 21004KT 9999NDV NCD 05/04 Q1018=
201105192350 METAR ESMX 192350Z AUTO 21003KT 9999NDV NCD 06/04 Q1018=
201105192320 METAR ESMX 192320Z 24002KT CAVOK 06/05 Q1018=
201105192250 METAR ESMX 192250Z 23003KT CAVOK 07/05 Q1017=
201105192220 METAR ESMX 192220Z 24005KT CAVOK 07/05 Q1017=
201105192150 METAR ESMX 192150Z 25004KT CAVOK 08/05 Q1017=
201105192120 METAR ESMX 192120Z 24005KT CAVOK 08/05 Q1017=
201105192050 METAR ESMX 192050Z 24004KT CAVOK 09/05 Q1017=
201105192020 METAR ESMX 192020Z 25004KT CAVOK 09/04 Q1016=
201105191950 METAR ESMX 191950Z 24004KT CAVOK 10/04 Q1016=
201105191920 METAR ESMX 191920Z 26005KT CAVOK 11/04 Q1016=
201105191850 METAR ESMX 191850Z 27006KT 9999 FEW041 13/04 Q1015=
201105191820 METAR ESMX 191820Z 27008KT 240V300 9999 FEW042 13/04 Q1015=
201105191750 METAR ESMX 191750Z 27008KT 9999 FEW045 14/04 Q1015=
201105191720 METAR ESMX 191720Z 29007KT 260V330 CAVOK 14/04 Q1015=
201105191650 METAR ESMX 191650Z 28010KT 240V320 CAVOK 15/04 Q1015=
201105191620 METAR ESMX 191620Z 27011KT 240V310 CAVOK 15/04 Q1015=
201105191550 METAR ESMX 191550Z 28012KT 240V320 CAVOK 16/04 Q1014=
201105191520 METAR ESMX 191520Z 25012KT 210V290 CAVOK 17/02 Q1014=
201105191450 METAR ESMX 191450Z 27013KT CAVOK 17/03 Q1014=
201105191420 METAR ESMX 191420Z 28011KT 230V350 CAVOK 17/04 Q1014=
201105191350 METAR ESMX 191350Z 27010G21KT 220V320 9999 FEW045 17/03 Q1014=
201105191320 METAR ESMX 191320Z 27012KT 9999 SCT040 18/05 Q1014=
201105191250 METAR ESMX 191250Z 27011KT 220V320 9999 SCT040 17/05 Q1013=
201105191220 METAR ESMX 191220Z 26010KT 200V320 9999 FEW038 17/05 Q1013=
201105191150 METAR ESMX 191150Z 23010KT 170V290 9999 FEW032 SCT042 17/06 Q1013=
201105191120 METAR ESMX 191120Z 22012KT 190V250 9999 FEW025 SCT029 BKN041 17/08 Q1013=
201105191050 METAR ESMX 191050Z 27011KT 230V290 9999 SCT025TCU SCT040 16/10 Q1013=
201105191020 METAR ESMX 191020Z 25011KT 9999 FEW014 SCT017 BKN023 15/11 Q1013=
201105190950 METAR ESMX 190950Z 26011KT 9999 FEW010 SCT015 BKN020 13/11 Q1013=
201105190920 METAR ESMX 190920Z 24008KT 210V280 4100 FEW010 SCT015 BKN018 13/11 Q1012 REDZ=
201105190850 METAR ESMX 190850Z 23009KT 9000 OVC014 14/11 Q1012=
201105190820 METAR ESMX 190820Z 21008KT 190V250 9999 OVC016 14/10 Q1012=
201105190750 METAR ESMX 190750Z 22009KT 200V260 9999 FEW017 OVC020 15/10 Q1012=
201105190720 METAR ESMX 190720Z 21009KT 170V240 9999 OVC018 15/10 Q1011=
201105190650 METAR ESMX 190650Z 22008KT 170V260 9999 FEW016 SCT019 BKN049 15/10 Q1011=
201105190620 METAR ESMX 190620Z 21009KT 9999 BKN015 OVC020 14/10 Q1011=
201105190550 METAR ESMX 190550Z 22008KT 180V240 9999 FEW015 SCT017 BKN020 13/10 Q1011=
201105190520 METAR ESMX 190520Z 19008KT 9999 FEW013 SCT019 BKN043 14/10 Q1011=
201105190450 METAR ESMX 190450Z 20007KT 9999 FEW013 BKN051 13/10 Q1011=
201105190420 METAR ESMX 190420Z 19007KT 140V210 9000 BR NSC 13/10 Q1011=
201105190350 METAR ESMX 190350Z 17006KT 9999 FEW030 OVC056 13/10 Q1011=
201105190320 METAR ESMX 190320Z AUTO 18006KT 9999NDV FEW044/// BKN049/// 12/10 Q1011=
201105190250 METAR ESMX 190250Z AUTO 18007KT 9999NDV FEW026/// BKN034/// 12/10 Q1011=
201105190220 METAR ESMX 190220Z AUTO 19008KT 9999NDV SCT017/// BKN023/// BKN035/// 13/10 Q1011=
201105190150 METAR ESMX 190150Z AUTO 18007KT 9999NDV FEW029/// SCT033/// BKN038/// 13/09 Q1011=
201105190120 METAR ESMX 190120Z AUTO 18006KT 150V210 9999NDV FEW033/// SCT045/// BKN062/// 13/10 Q1011=
201105190050 METAR ESMX 190050Z AUTO 17006KT 140V210 9999NDV FEW025/// BKN056/// 13/10 Q1012 REDZ=
201105190020 METAR ESMX 190020Z AUTO 18008KT 9999NDV FEW024/// SCT045/// 13/10 Q1012=
201105182350 METAR ESMX 182350Z AUTO 18009KT 9999NDV FEW042/// BKN053/// 13/10 Q1012=
201105182320 METAR ESMX 182320Z 18009KT CAVOK 13/10 Q1012=
201105182250 METAR ESMX 182250Z 19008KT 9999 FEW033 OVC051 13/10 Q1012=
201105182220 METAR ESMX 182220Z 18010KT 9999 OVC049 13/10 Q1013=
201105182150 METAR ESMX 182150Z 18009KT CAVOK 14/10 Q1013=
201105182120 METAR ESMX 182120Z 18008KT 130V210 9999 FEW045 BKN060 14/10 Q1013=
201105182050 METAR ESMX 182050Z 20009KT 9999 FEW020 BKN062 14/10 Q1013=
201105182020 METAR ESMX 182020Z 18009KT 9999 FEW018 OVC059 14/10 Q1013=
201105181950 METAR ESMX 181950Z 18010KT 9999 SCT022 OVC065 14/10 Q1013=
201105181920 METAR ESMX 181920Z 18010KT 9999 BKN020 OVC063 14/10 Q1013=
201105181850 METAR ESMX 181850Z 19008KT 160V220 9999 SCT020 BKN029 BKN065 14/10 Q1013=
201105181820 METAR ESMX 181820Z 18010KT 140V200 9999 FEW022 SCT035 BKN043 14/10 Q1013=
201105181750 METAR ESMX 181750Z 18008KT 9999 FEW024 BKN045 OVC052 15/10 Q1013=
201105181720 METAR ESMX 181720Z 18009KT 9999 FEW026 SCT029 BKN034 15/10 Q1013=
201105181650 METAR ESMX 181650Z 18009KT 140V210 9999 FEW035 BKN046 BKN066 15/09 Q1013=
201105181620 METAR ESMX 181620Z 19009KT 160V220 9999 OVC032 16/08 Q1013=
201105181550 METAR ESMX 181550Z 20008KT 9999 OVC039 15/07 Q1013=
201105181520 METAR ESMX 181520Z 21009KT 170V240 9999 BKN042 OVC062 16/07 Q1013=
201105181450 METAR ESMX 181450Z 20011KT 160V230 9999 BKN042 17/06 Q1014=
201105181420 METAR ESMX 181420Z 22009KT 9999 FEW043 SCT049 17/06 Q1014=
201105181350 METAR ESMX 181350Z 21010KT 170V230 9999 FEW028 BKN072 16/06 Q1014=
201105181320 METAR ESMX 181320Z 20010KT 170V240 CAVOK 17/05 Q1014=
201105181250 METAR ESMX 181250Z 23009KT 190V280 9999 BKN041 OVC066 15/05 Q1014=
201105181220 METAR ESMX 181220Z 22009KT 180V250 9999 SCT045 BKN056 BKN079 15/04 Q1014=
201105181150 METAR ESMX 181150Z 24009KT 200V290 9999 FEW046 BKN080 16/03 Q1014=
201105181120 METAR ESMX 181120Z 23009KT 180V280 9999 BKN043 BKN110 14/03 Q1014=
201105181050 METAR ESMX 181050Z 23012KT 9999 BKN042 15/03 Q1014=
201105181020 METAR ESMX 181020Z 23012KT 200V280 9999 BKN040 14/03 Q1014=
201105180950 METAR ESMX 180950Z 24012KT 9999 BKN038 14/03 Q1014=
201105180920 METAR ESMX 180920Z 27012G22KT 9999 BKN040 13/03 Q1014=
201105180850 METAR ESMX 180850Z 23014KT 200V290 9999 SCT035 13/03 Q1014=
201105180820 METAR ESMX 180820Z 25008KT 210V290 9999 SCT035 12/03 Q1014=
201105180750 METAR ESMX 180750Z 25012KT 210V280 9999 SCT030 12/03 Q1013=
201105180720 METAR ESMX 180720Z 26011KT 220V300 9999 SCT025 12/05 Q1013=
201105180650 METAR ESMX 180650Z 28013KT 250V320 9999 SCT022 11/05 Q1013=
201105180620 METAR ESMX 180620Z 26012KT 230V300 9999 SCT020 10/04 Q1013=
201105180550 METAR ESMX 180550Z 26011KT 220V290 9999 SCT020 09/05 Q1012=
201105180520 METAR ESMX 180520Z 27010KT 230V310 9999 FEW017 09/04 Q1012=
201105180450 METAR ESMX 180450Z 25009KT 220V290 CAVOK 08/04 Q1012=
201105180420 METAR ESMX 180420Z 25012KT CAVOK 08/04 Q1012=
201105180350 METAR ESMX 180350Z 25009KT 230V300 9999 SCT021 07/04 Q1011=
201105180320 METAR ESMX 180320Z AUTO 25007KT 9999NDV SCT019/// BKN024/// 07/04 Q1011=
201105180250 METAR ESMX 180250Z AUTO 25006KT 220V280 9999NDV BKN019/// 07/04 Q1011=
201105180220 METAR ESMX 180220Z AUTO 25008KT 220V290 9999NDV FEW023/// 07/03 Q1011=
201105180150 METAR ESMX 180150Z AUTO 25007KT 9999NDV NCD 07/03 Q1010=
201105180120 METAR ESMX 180120Z AUTO 26009KT 220V300 9999NDV NCD 08/03 Q1010=
201105180050 METAR ESMX 180050Z AUTO 25009KT 220V290 9999NDV FEW023/// 08/03 Q1010=
201105180020 METAR ESMX 180020Z 24010KT 210V280 9999 FEW025 08/03 Q1010=
201105172350 METAR ESMX 172350Z 26010KT 220V290 9999 FEW026 08/03 Q1010=
201105172320 METAR ESMX 172320Z 26010KT 230V300 9999 SCT028 08/03 Q1009=
201105172250 METAR ESMX 172250Z 26011KT 220V300 9999 FEW033 08/03 Q1009=
201105172220 METAR ESMX 172220Z 26011KT 230V300 9999 SCT029 09/04 Q1009=
201105172150 METAR ESMX 172150Z 26012KT 220V290 9999 FEW025 BKN040 09/04 Q1009=
201105172120 METAR ESMX 172120Z 25014KT 9999 FEW028 SCT041 09/04 Q1008=
201105172050 METAR ESMX 172050Z 26013KT 220V290 9999 FEW031 SCT038 09/04 Q1008=
201105172020 METAR ESMX 172020Z 25017G27KT 200V290 9999 SCT026 10/04 Q1008=
201105171950 METAR ESMX 171950Z 23011G21KT 200V270 9999 FEW027 SCT035 10/05 Q1008=
201105171920 METAR ESMX 171920Z 24012KT 9999 SCT031 10/05 Q1007=
201105171850 METAR ESMX 171850Z 25012KT 210V290 9999 SCT030 11/05 Q1008=
201105171820 METAR ESMX 171820Z 25011KT 210V290 9999 FEW025 SCT043 11/05 Q1007=
201105171750 METAR ESMX 171750Z 27017KT 9999 FEW026 BKN042 12/05 Q1007=
201105171720 METAR ESMX 171720Z 26012KT 9999 FEW028 BKN039 12/06 Q1007=
201105171650 METAR ESMX 171650Z 26014KT 230V290 9999 FEW027 OVC035 12/06 Q1007=
201105171620 METAR ESMX 171620Z 26012KT 220V290 9999 FEW027 SCT032 BKN037 13/06 Q1007=
201105171550 METAR ESMX 171550Z 26014KT 200V300 9999 FEW033 OVC042 13/07 Q1007=
201105171520 METAR ESMX 171520Z 24014KT 9999 FEW028 OVC040 14/07 Q1007=
201105171450 METAR ESMX 171450Z 26011KT 230V290 9999 SCT025 BKN036 BKN045 14/07 Q1007=
201105171420 METAR ESMX 171420Z 24010KT 210V280 9999 FEW023 SCT035 BKN041 14/08 Q1007 REDZ=
201105171350 METAR ESMX 171350Z 25011KT 9999 FEW015 SCT027 BKN033 13/10 Q1007=
201105171320 METAR ESMX 171320Z 23012KT 200V270 9999 FEW015 SCT022 BKN032 13/10 Q1007=
201105171250 METAR ESMX 171250Z 24012KT 9999 FEW020CB SCT025 BKN030 14/09 Q1006=
201105171220 METAR ESMX 171220Z 23011KT 200V260 9999 FEW017 SCT020 BKN028 14/09 Q1006=
201105171150 METAR ESMX 171150Z 23013KT 9999 FEW016 BKN021 BKN040 13/10 Q1006=
201105171120 METAR ESMX 171120Z 21013KT 9999 FEW011 SCT016 BKN024 13/10 Q1006=
201105171050 METAR ESMX 171050Z 21009KT 9999 -DZ SCT011 BKN015 BKN024 13/11 Q1007=
201105171020 METAR ESMX 171020Z 22010KT 190V250 9999 FEW010 SCT016 BKN020 13/10 Q1007=
201105170950 METAR ESMX 170950Z 20009KT 160V230 9999 FEW010 SCT014 BKN017 12/10 Q1007=
201105170920 METAR ESMX 170920Z 20009KT 180V250 9999 FEW009 SCT014 BKN017 12/10 Q1007=
201105170850 METAR ESMX 170850Z 19010KT 9999 SCT008 BKN012 12/10 Q1007=
201105170820 METAR ESMX 170820Z 20007KT 9999 FEW009 BKN013 11/10 Q1007=
201105170750 METAR ESMX 170750Z 20008KT 9999 -DZ SCT006 OVC010 11/10 Q1007=
201105170720 METAR ESMX 170720Z 19008KT 6000 -DZ BR FEW003 OVC006 11/10 Q1007=
201105170650 METAR ESMX 170650Z 19007KT 3500 -DZ FEW004 OVC006 11/10 Q1007=
201105170620 METAR ESMX 170620Z 19007KT 8000 BR OVC007 10/09 Q1007=
201105170550 METAR ESMX 170550Z 21005KT 6000 BR FEW004 BKN007 10/09 Q1008=
201105170520 METAR ESMX 170520Z 22006KT 9000 -DZ BKN006 BKN031 10/09 Q1008=
201105170450 METAR ESMX 170450Z 20006KT 160V230 9999 BKN005 BKN033 10/09 Q1008=
201105170420 METAR COR ESMX 170420Z 22004KT 9999 FEW004 SCT006 OVC033 09/09 Q1008=
201105170350 METAR ESMX 170350Z 20006KT 9999 BR BKN004 09/08 Q1008=
201105170320 METAR ESMX 170320Z AUTO 18005KT 5000NDV +DZ OVC004/// 09/08 Q1008=
201105170250 METAR ESMX 170250Z AUTO 18006KT 9999NDV BR SCT005/// OVC007/// 09/08 Q1008=
201105170220 METAR ESMX 170220Z AUTO 18005KT 3800NDV BR FEW004/// BKN006/// OVC023/// 09/08 Q1008=
201105170150 METAR ESMX 170150Z AUTO 19004KT 8000NDV BR BKN024/// 09/08 Q1008=
201105170120 METAR ESMX 170120Z AUTO 18004KT 4200NDV DZ FEW007/// SCT023/// BKN036/// 09/08 Q1008=
201105170050 METAR ESMX 170050Z AUTO 22004KT 9999NDV FEW007/// OVC022/// 09/07 Q1008=
201105170020 METAR ESMX 170020Z AUTO 23004KT 9999NDV FEW007/// SCT013/// BKN020/// 09/08 Q1008=
201105162350 METAR ESMX 162350Z AUTO 19004KT 9999NDV FEW007/// SCT017/// OVC020/// 09/07 Q1008=
201105162320 METAR ESMX 162320Z 21004KT 9999 FEW025 BKN053 08/07 Q1008=
201105162250 METAR ESMX 162250Z 19002KT 9999 FEW030 BKN050 09/07 Q1008=
201105162220 METAR ESMX 162220Z 22003KT 9999 FEW034 BKN054 08/06 Q1009=
201105162150 METAR ESMX 162150Z 20004KT 9999 BKN032 OVC049 09/07 Q1009=
201105162120 METAR ESMX 162120Z 20004KT 9999 SCT033 BKN040 09/07 Q1008=
201105162050 METAR ESMX 162050Z 19005KT 9999 SCT041 BKN065 09/06 Q1009=
201105162020 METAR ESMX 162020Z 20004KT CAVOK 09/06 Q1009=
201105161950 METAR ESMX 161950Z 20003KT CAVOK 09/05 Q1009=
201105161920 METAR ESMX 161920Z 23003KT CAVOK 09/05 Q1008=
201105161850 METAR ESMX 161850Z 25003KT CAVOK 10/05 Q1008=
201105161820 METAR ESMX 161820Z 25007KT CAVOK 11/05 Q1009=
201105161750 METAR ESMX 161750Z 24004KT 200V280 CAVOK 11/05 Q1009=
201105161720 METAR ESMX 161720Z 22004KT 180V260 9999 FEW030 SCT055 11/04 Q1009=
201105161650 METAR ESMX 161650Z 29009KT 260V320 9999 VCSH FEW030CB BKN050 11/04 Q1009=
201105161620 METAR ESMX 161620Z 26009KT 220V300 9999 FEW030CB SCT065 13/04 Q1009=
201105161550 METAR ESMX 161550Z 23010KT 190V280 9999 VCSH FEW030CB BKN060 12/04 Q1009=
201105161520 METAR ESMX 161520Z 25014KT 210V280 9999 FEW030CB BKN065 13/04 Q1009=
201105161450 METAR ESMX 161450Z 22012KT 9999 FEW035 BKN062 13/05 Q1009=
201105161420 METAR ESMX 161420Z 24014KT 210V280 9999 FEW035 SCT040 13/04 Q1009=
201105161350 METAR ESMX 161350Z 26010KT 210V300 9999 FEW037 BKN058 14/05 Q1009=
201105161320 METAR ESMX 161320Z 26011KT 210V310 9999 FEW025CB SCT037 BKN063 13/03 Q1009=
201105161250 METAR ESMX 161250Z 26014KT 9999 FEW025CB SCT035 BKN055 13/04 Q1009=
201105161220 METAR ESMX 161220Z 27011KT 230V300 9999 FEW025CB BKN041 12/03 Q1009=
201105161150 METAR ESMX 161150Z 26010KT 9999 FEW025CB SCT060 11/06 Q1009 RERA=
201105161120 METAR ESMX 161120Z 30011KT 9999 FEW014CB SCT033 BKN045 11/06 Q1009=
201105161050 METAR COR ESMX 161050Z 26011KT 230V300 9999 FEW025CB SCT030 BKN045 12/06 Q1009=
201105161020 METAR ESMX 161020Z 24012G22KT 200V280 9999 FEW027 BKN049 12/04 Q1009=
201105160950 METAR ESMX 160950Z 26012G22KT 210V280 9999 FEW024 BKN045 11/05 Q1009=
201105160920 METAR ESMX 160920Z 25014KT 220V300 9999 SCT025 BKN040 11/05 Q1010=
201105160850 METAR ESMX 160850Z 26011KT 220V290 9999 SCT020 BKN040 11/06 Q1009=
201105160820 METAR ESMX 160820Z 26014KT 230V290 9999 FEW010 SCT BKN044 10/06 Q1009=
201105160750 METAR ESMX 160750Z 26009KT 210V300 9999 FEW013 SCT021 BKN032 10/06 Q1009=
201105160720 METAR ESMX 160720Z 25009KT 210V300 9999 -RA FEW014 SCT018 BKN028 09/06 Q1009=
201105160650 METAR ESMX 160650Z 24013KT 9999 SCT015 BKN025 09/06 Q1009=
201105160620 METAR ESMX 160620Z 24009KT 210V270 9999 -RA FEW012 SCT017 BKN020 09/06 Q1009=
201105160550 METAR ESMX 160550Z 23009KT 9999 FEW010 BKN017 08/06 Q1009=
201105160520 METAR ESMX 160520Z 21008KT 9999 -RA FEW009 SCT035 BKN048 08/06 Q1009=
201105160450 METAR ESMX 160450Z 21008KT 180V240 9999 FEW012 SCT040 BKN049 08/06 Q1009=
201105160420 METAR ESMX 160420Z 21007KT 9999 FEW013 SCT024 08/06 Q1009=
201105160350 METAR ESMX 160350Z 23008KT 200V260 9999 FEW009 SCT021 07/06 Q1009=
201105160320 METAR ESMX 160320Z AUTO 21008KT 9999NDV FEW014/// BKN029/// 07/06 Q1009=
201105160250 METAR ESMX 160250Z AUTO 23009KT 9999NDV FEW041/// SCT048/// BKN063/// 07/06 Q1009=
201105160220 METAR ESMX 160220Z AUTO 23009KT 9999NDV FEW011/// OVC061/// 07/06 Q1009=
201105160150 METAR ESMX 160150Z AUTO 21010KT 9999NDV FEW012/// SCT065/// 07/05 Q1009=
201105160120 METAR ESMX 160120Z AUTO 23009KT 9999NDV FEW014/// 07/05 Q1009=
201105160050 METAR ESMX 160050Z AUTO 21009KT 9999NDV FEW015/// SCT018/// BKN021/// 08/06 Q1009=
201105160020 METAR ESMX 160020Z AUTO 22009KT 9999NDV FEW037/// BKN049/// 08/05 Q1010=
201105152350 METAR ESMX 152350Z AUTO 23008KT 9999NDV FEW013/// SCT017/// BKN045/// 08/06 Q1010=
201105152320 METAR ESMX 152320Z 21007KT 9999 FEW014 SCT017 BKN022 08/06 Q1010=
201105152250 METAR ESMX 152250Z 22008KT 9999 FEW017 07/05 Q1010=
201105152220 METAR ESMX 152220Z 20007KT 9999 FEW018 07/05 Q1010=
201105152150 METAR ESMX 152150Z 20006KT 9999 FEW019 SCT063 07/05 Q1010=
201105152120 METAR ESMX 152120Z 20007KT 9999 SCT025 BKN098 07/04 Q1010=
201105152050 METAR ESMX 152050Z 20008KT 9999 FEW030 BKN074 08/04 Q1010=
201105152020 METAR ESMX 152020Z 20005KT 9999 -SHRA FEW027 SCT035 08/05 Q1011=
201105151950 METAR ESMX 151950Z 20004KT 9999 FEW025CB SCT038 BKN049 08/05 Q1011=
201105151920 METAR ESMX 151920Z 20004KT 9999 FEW030 08/05 Q1011=
201105151850 METAR ESMX 151850Z 20003KT 9999 FEW030 08/04 Q1010=
201105151820 METAR ESMX 151820Z 24003KT 210V280 9999 FEW024CB BKN053 09/05 Q1011 RERA=
201105151750 METAR ESMX 151750Z 24009KT 200V290 9999 -SHRA FEW032CB SCT073 10/04 Q1011=
201105151720 METAR ESMX 151720Z 23010KT 9999 FEW025 SCT035 10/05 Q1010=
201105151650 METAR ESMX 151650Z 19009KT 150V230 9999 FEW025 SCT035 11/06 Q1010=
201105151620 METAR ESMX 151620Z 20008KT 9999 FEW027 SCT045 11/06 Q1010=
201105151550 METAR ESMX 151550Z 19009KT 9999 -SHRA FEW024 SCT029 11/05 Q1010=
201105151520 METAR ESMX 151520Z 20008KT CAVOK 13/05 Q1010=
201105151450 METAR ESMX 151450Z 22011KT 9999 SCT039 BKN062 11/06 Q1011=
201105151420 METAR ESMX 151420Z 20010KT CAVOK 11/04 Q1010=
201105151350 METAR ESMX 151350Z 19010KT CAVOK 12/05 Q1010=
201105151320 METAR ESMX 151320Z 19009KT 9999 FEW030 SCT110 12/08 Q1011=
201105151250 METAR ESMX 151250Z 17005KT 9999 FEW021 SCT074 11/06 Q1011=
201105151220 METAR ESMX 151220Z 19004KT 9999 FEW020 BKN053 BKN076 11/06 Q1011=
201105151150 METAR ESMX 151150Z 22004KT 9999 FEW026 SCT042 BKN047 10/07 Q1011 RESHRA=
201105151120 METAR ESMX 151120Z 22007KT 8000 RA FEW022 BKN029 BKN040 08/06 Q1011 REDZ=
201105151050 METAR ESMX 151050Z 28004KT 230V340 9999 -SHRA FEW023 BKN032 11/04 Q1011=
201105151020 METAR ESMX 151020Z 29009KT 9999 FEW035 BKN046 10/05 Q1011=
201105150950 METAR ESMX 150950Z 20008KT 9999 BKN028 BKN062 12/04 Q1011=
201105150920 METAR ESMX 150920Z 19006KT 160V230 9999 FEW025 BKN062 12/05 Q1011=
201105150850 METAR ESMX 150850Z 17007KT 9999 FEW029 SCT058 11/06 Q1011=
201105150820 METAR ESMX 150820Z 24004KT 210V290 9999 SCT021 BKN056 11/05 Q1011=
201105150750 METAR ESMX 150750Z AUTO 21005KT 160V260 9999NDV FEW014/// SCT019/// BKN100/// 10/06 Q1011=
201105150720 METAR ESMX 150720Z AUTO 24005KT 9999NDV FEW011/// SCT017/// BKN048/// 09/06 Q1011=
201105150650 METAR ESMX 150650Z AUTO 22006KT 170V250 9999NDV BKN012/// BKN021/// 09/07 Q1011=
201105150620 METAR ESMX 150620Z AUTO 24004KT 200V300 9999NDV FEW008/// SCT054/// 09/06 Q1011=
201105150550 METAR ESMX 150550Z AUTO 22004KT 170V260 9999NDV FEW006/// SCT010/// 08/07 Q1011=
201105150520 METAR ESMX 150520Z AUTO 24005KT 9999NDV FEW005/// BKN054/// 08/07 Q1011=
201105150450 METAR ESMX 150450Z AUTO 23004KT 9999NDV FEW005/// OVC053/// 08/07 Q1011=
201105150420 METAR ESMX 150420Z AUTO 24005KT 9999NDV FEW026/// BKN053/// 08/07 Q1010=
201105150350 METAR ESMX 150350Z AUTO 23003KT 9999NDV FEW007/// BKN026/// BKN055/// 07/06 Q1010=
201105150320 METAR ESMX 150320Z AUTO 24004KT 200V270 9999NDV BKN004/// BKN009/// 07/06 Q1010=
201105150250 METAR ESMX 150250Z AUTO 23004KT 9000NDV FEW005/// SCT007/// 07/06 Q1010=
201105150220 METAR ESMX 150220Z AUTO 22006KT 9999NDV FEW006/// BKN007/// 07/06 Q1010=
201105150150 METAR ESMX 150150Z AUTO 21006KT 9999NDV FEW004/// BKN006/// BKN050/// 07/07 Q1010=
201105150120 METAR ESMX 150120Z AUTO 19005KT 9999NDV FEW004/// OVC006/// 07/07 Q1009=
201105150050 METAR ESMX 150050Z AUTO 18006KT 9999NDV FEW007/// OVC008/// 08/06 Q1009=
201105150020 METAR ESMX 150020Z AUTO 18005KT 9999NDV OVC010/// 08/06 Q1009=
201105142350 METAR ESMX 142350Z AUTO 20004KT 9999NDV BKN015/// OVC021/// 07/06 Q1009=
201105142320 METAR ESMX 142320Z AUTO 18004KT 9999NDV FEW018/// SCT024/// BKN033/// 07/06 Q1009=
201105142250 METAR ESMX 142250Z AUTO 17003KT 9999NDV BKN025/// 08/07 Q1010=
201105142220 METAR ESMX 142220Z AUTO 14004KT 110V170 9999NDV BKN035/// 08/07 Q1009=
201105142150 METAR ESMX 142150Z AUTO 11004KT 080V160 9999NDV DZ FEW027/// SCT041/// 08/07 Q1010=
201105142120 METAR ESMX 142120Z AUTO 15004KT 100V180 6000NDV RA FEW026/// 08/07 Q1010=
201105142050 METAR ESMX 142050Z AUTO 17003KT 130V200 7000NDV RA FEW035/// 08/07 Q1010=
201105142020 METAR ESMX 142020Z AUTO 22005KT 9000NDV RA FEW008/// BKN041/// 08/07 Q1011 RESHRA=
201105141950 METAR ESMX 141950Z AUTO 23008KT 7000NDV -RA FEW009/// SCT014/// BKN031/// 08/07 Q1011=
201105141920 METAR ESMX 141920Z AUTO 25011KT 210V290 9999NDV RA FEW016/// BKN033/// BKN062/// 09/07 Q1010 REDZ=
201105141850 METAR ESMX 141850Z AUTO 15008KT 110V190 9999NDV FEW062/// BKN092/// 13/05 Q1009=
201105141820 METAR ESMX 141820Z AUTO 15008KT 110V190 9999NDV BKN095/// 13/05 Q1009=
201105141750 METAR ESMX 141750Z AUTO 16007KT 110V200 9999NDV FEW096/// SCT100/// 14/05 Q1009=
201105141720 METAR ESMX 141720Z AUTO 17008KT 9999NDV NCD 14/05 Q1009=
201105141650 METAR ESMX 141650Z AUTO 16009KT 9999NDV FEW093/// 15/06 Q1009=
201105141620 METAR ESMX 141620Z AUTO 18008KT 140V210 9999NDV SCT052/// BKN071/// 15/06 Q1010=
201105141550 METAR ESMX 141550Z AUTO 17009KT 130V200 9999NDV FEW046/// SCT065/// 16/05 Q1010=
201105141520 METAR ESMX 141520Z AUTO 15007KT 110V210 9999NDV SCT052/// BKN079/// 16/04 Q1010=
201105141450 METAR ESMX 141450Z AUTO 20008KT 170V230 9999NDV BKN055/// BKN071/// 16/03 Q1010=
201105141420 METAR ESMX 141420Z AUTO 19007KT 150V230 9999NDV BKN058/// 16/02 Q1011=
201105141350 METAR ESMX 141350Z AUTO 19006KT 150V250 9999NDV SCT057/// 16/01 Q1011=
201105141320 METAR ESMX 141320Z AUTO 20005KT 140V220 9999NDV NCD 17/02 Q1011=
201105141250 METAR ESMX 141250Z AUTO 20008KT 160V240 9999NDV FEW052/// 16/02 Q1012=
201105141220 METAR ESMX 141220Z AUTO 20008KT 170V240 9999NDV SCT051/// 16/02 Q1012=
201105141150 METAR ESMX 141150Z 21011KT 9999 FEW047 15/02 Q1012=
201105141120 METAR ESMX 141120Z 20008KT 160V250 9999 SCT047 16/02 Q1012=
201105141050 METAR ESMX 141050Z 22005KT 180V260 9999 SCT045 15/04 Q1013=
201105141020 METAR ESMX 141020Z 21007KT 170V280 9999 SCT038 14/03 Q1013=
201105140950 METAR ESMX 140950Z 23008KT 200V280 9999 SCT034 13/03 Q1013=
201105140920 METAR ESMX 140920Z 23007KT 190V260 9999 FEW033 SCT039 13/03 Q1013=
201105140850 METAR ESMX 140850Z 24007KT 190V290 9999 FEW032 SCT038 12/03 Q1014=
201105140820 METAR ESMX 140820Z 27007KT 210V320 9999 FEW026 BKN031 11/04 Q1014=
201105140750 METAR ESMX 140750Z 22008KT 190V250 9999 SCT023 BKN030 11/04 Q1014=
201105140720 METAR ESMX 140720Z 26008KT 210V290 9999 FEW022 SCT025 BKN029 10/05 Q1014=
201105140650 METAR ESMX 140650Z 26008KT 210V290 9999 FEW018 BKN024 10/05 Q1014=
201105140620 METAR ESMX 140620Z 25006KT 9999 FEW012 SCT016 10/06 Q1014=
201105140550 METAR ESMX 140550Z 27006KT 230V300 9999 FEW009 09/06 Q1014=
201105140520 METAR ESMX 140520Z AUTO 24005KT 210V280 9999NDV NCD 08/07 Q1014=
201105140450 METAR ESMX 140450Z AUTO 24004KT 200V280 9000NDV BR NCD 08/07 Q1014=
201105140420 METAR ESMX 140420Z AUTO 21003KT 180V240 4400NDV BR SCT002/// BKN005/// 06/06 Q1014=
201105140350 METAR ESMX 140350Z AUTO VRB02KT 3900NDV BR FEW005/// SCT014/// 06/05 Q1014=
201105140320 METAR ESMX 140320Z AUTO VRB02KT 1400NDV R01/P2000N R19/P2000N FEW008/// SCT010/// BKN016/// 05/05 Q1014=
201105140250 METAR ESMX 140250Z AUTO 25001KT 0800NDV R01/P2000N R19/P2000N BKN008/// 04/03 Q1014=
201105140220 METAR ESMX 140220Z AUTO 24002KT 0300NDV R01/P2000N R19/0500V0800 BR NCD 05/05 Q1014=
201105140150 METAR ESMX 140150Z AUTO 23003KT 0700NDV R01/P2000N R19/P2000N BR SCT003/// 06/05 Q1014=
201105140120 METAR ESMX 140120Z AUTO 25003KT 1100NDV R01/P2000N R19/P2000N NCD 05/05 Q1014=
201105140050 METAR ESMX 140050Z AUTO 23003KT 0900NDV R01/P2000N R19/P2000N NCD 05/04 Q1014=
201105140020 METAR ESMX 140020Z AUTO 24003KT 9999NDV NCD 06/05 Q1014=
201105132350 METAR ESMX 132350Z AUTO 23005KT 9999NDV NCD 06/05 Q1014=
201105132320 METAR ESMX 132320Z AUTO 23005KT 9999NDV FEW017/// 06/05 Q1014=
201105132250 METAR ESMX 132250Z AUTO 20005KT 9999NDV FEW016/// 06/05 Q1014=
201105132220 METAR ESMX 132220Z AUTO 23004KT 9999NDV NCD 06/05 Q1014=
201105132150 METAR ESMX 132150Z AUTO 23003KT 9999NDV NCD 07/05 Q1014=
201105132120 METAR ESMX 132120Z AUTO 24003KT 4200NDV NCD 06/05 Q1014=
201105132050 METAR ESMX 132050Z AUTO VRB02KT 9999NDV NCD 07/05 Q1014=
201105132020 METAR ESMX 132020Z AUTO 25004KT 9999NDV NCD 08/06 Q1015=
201105131950 METAR ESMX 131950Z AUTO 23003KT 200V260 9999NDV NCD 08/06 Q1015=
201105131920 METAR ESMX 131920Z AUTO 25003KT 9999NDV FEW071/// 09/05 Q1014=
201105131850 METAR ESMX 131850Z AUTO 27005KT 9999NDV FEW087/// 10/06 Q1014=
201105131820 METAR ESMX 131820Z 28007KT 240V310 9999 FEW045 11/07 Q1014=
201105131750 METAR ESMX 131750Z 30006KT 260V330 9999 FEW035CB 11/07 Q1014=
201105131720 METAR ESMX 131720Z 27005KT 9999 FEW044 12/07 Q1014=
201105131650 METAR ESMX 131650Z 29006KT 260V340 9999 FEW046 12/07 Q1014=
201105131620 METAR ESMX 131620Z 30007KT 270V340 9999 FEW023 11/09 Q1014=
201105131550 METAR ESMX 131550Z 30010KT 260V340 9999 -SHRA FEW017 SCT030CB 12/08 Q1014=
201105131520 METAR ESMX 131520Z 30008KT 250V350 9999 VCSH FEW035CB SCT045 14/06 Q1014=
201105131450 METAR ESMX 131450Z 29007KT 250V320 9999 FEW035CB 12/08 Q1014=
201105131420 METAR ESMX 131420Z 31009KT 9999 FEW020 FEW035CB 11/08 Q1014 RERA=
201105131350 METAR ESMX 131350Z 31014KT 9999 FEW0035CB 13/06 Q1014=
201105131320 METAR ESMX 131320Z 30014KT 9999 VCSH FEW036CB SCT047 13/06 Q1014=
201105131250 METAR ESMX 131250Z 25012KT 220V300 9999 VCSH FEW035CB SCT048 BKN076 15/04 Q1013=
201105131220 METAR ESMX 131220Z 25010KT 210V290 9999 FEW048CB SCT075 17/03 Q1013=
201105131150 METAR ESMX 131150Z 27012KT 230V310 9999 FEW040CB SCT070 17/04 Q1013=
201105131120 METAR ESMX 131120Z 25010KT 230V290 9999 -RA FEW030CB SCT047 13/04 Q1013=
201105131050 METAR ESMX 131050Z 27011KT 230V300 9999 VCSH FEW030CB SCT050 BKN072 14/03 Q1013=
201105131020 METAR ESMX 131020Z 26010KT 9999 SCT040 15/05 Q1013=
201105130950 METAR ESMX 130950Z 29012KT 9999 FEW025CB SCT030 14/05 Q1013=
201105130920 METAR ESMX 130920Z 27008KT 240V320 9999 FEW022CB SCT025 14/06 Q1013=
201105130850 METAR ESMX 130850Z 30010KT 9999 SCT021 SCT093 14/07 Q1013=
201105130820 METAR ESMX 130820Z 27009KT 9999 FEW015 BKN066 13/07 Q1013=
201105130750 METAR ESMX 130750Z 27008KT 240V310 9999 FEW016 SCT068 BKN091 12/08 Q1013=
201105130720 METAR ESMX 130720Z 30006KT 250V350 9999 FEW016 SCT045 BKN067 13/08 Q1013=
201105130650 METAR ESMX 130650Z 28006KT 250V320 9999 BKN040 BKN069 11/07 Q1013=
201105130620 METAR ESMX 130620Z 28005KT 240V320 CAVOK 11/07 Q1012=
201105130550 METAR ESMX 130550Z 29004KT 260V330 CAVOK 10/08 Q1012=
201105130520 METAR ESMX 130520Z 28004KT CAVOK 08/07 Q1012=
201105130450 METAR ESMX 130450Z 27004KT CAVOK 05/04 Q1012=
201105130420 METAR COR ESMX 130420Z 29004KT 9999 VCFG NSC 05/05 Q1012=
201105130350 METAR ESMX 130350Z VRB01KT 0450 R01/P2000 R19/0400VP2000D BCFG FEW100 05/05 Q1011=
201105130320 METAR ESMX 130320Z AUTO VRB01KT 2100NDV BR NCD 06/05 Q1011=
201105130250 METAR ESMX 130250Z AUTO 28003KT 4400NDV BR NCD 06/06 Q1011=
201105130220 METAR ESMX 130220Z AUTO 31003KT 8000NDV BR NCD 07/06 Q1011=
201105130150 METAR ESMX 130150Z AUTO 30004KT 8000NDV BR NCD 07/06 Q1011=
201105130120 METAR ESMX 130120Z AUTO 29005KT 9999NDV NCD 08/07 Q1011=
201105130050 METAR ESMX 130050Z AUTO 29004KT 9999NDV NCD 08/07 Q1011=
201105130020 METAR ESMX 130020Z AUTO 28004KT 9999NDV NCD 07/06 Q1011=
201105122350 METAR ESMX 122350Z 29004KT CAVOK 07/06 Q1011=
201105122320 METAR ESMX 122320Z 28004KT CAVOK 07/06 Q1011=
201105122250 METAR ESMX 122250Z 30001KT CAVOK 06/05 Q1011=
201105122220 METAR ESMX 122220Z VRB01KT CAVOK 06/05 Q1011=
201105122150 METAR ESMX 122150Z 00000KT 9999 SCT045 07/06 Q1011=
201105122120 METAR ESMX 122120Z 17001KT 9999 FEW035 BKN091 08/07 Q1011=
201105122050 METAR ESMX 122050Z 17003KT 9999 FEW040 SCT081 09/07 Q1011=
201105122020 METAR ESMX 122020Z VRB02KT 9999 FEW035 SCT090 10/07 Q1011=
201105121950 METAR ESMX 121950Z 30003KT 270V340 9999 FEW035 SCT050 BKN076 09/07 Q1011=
201105121920 METAR ESMX 121920Z 30002KT 9999 FEW030CB SCT200 09/07 Q1011=
201105121850 METAR ESMX 121850Z VRB02KT 9999 FEW025CB SCT100 11/08 Q1011=
201105121820 METAR ESMX 121820Z 22003KT 9999 FEW020CB SCT030 BKN090 12/09 Q1011=
201105121750 METAR ESMX 121750Z 20009KT 9999 -SHRA FEW020 BKN070 13/09 Q1011=
201105121720 METAR ESMX 121720Z 22004KT 9999 VCSH FEW037CB SCT060 BKN093 16/06 Q1011=
201105121650 METAR ESMX 121650Z 24005KT 9999 VCSH FEW045CB SCT095 16/05 Q1011=
201105121620 METAR ESMX 121620Z 24005KT 200V280 9999 VCSH FEW045CB SCT078 17/05 Q1011=
201105121550 METAR ESMX 121550Z 27006KT 240V300 9999 FEW047CB BKN082 16/05 Q1011=
201105121520 METAR ESMX 121520Z 27010KT 9999 VCSH FEW047CB BKN049 17/05 Q1012=
201105121450 METAR ESMX 121450Z 28005KT 9999 VCSH FEW047CB SCT049 BKN082 18/06 Q1012=
201105121420 METAR ESMX 121420Z 23005KT 190V290 9999 FEW048 SCT068 BKN089 18/06 Q1012=
201105121350 METAR ESMX 121350Z 22006KT 150V260 9999 FEW048 SCT078 BKN089 18/06 Q1012=
201105121320 METAR ESMX 121320Z 26005KT 170V290 9999 SCT048 SCT085 18/06 Q1012=
201105121250 METAR ESMX 121250Z 24006KT 200V280 9999 SCT047 BKN085 18/06 Q1013=
201105121220 METAR ESMX 121220Z 23006KT 200V260 9999 SCT049 18/05 Q1013=
201105121150 METAR ESMX 121150Z 23004KT 180V290 9999 SCT047 18/05 Q1013=
201105121120 METAR ESMX 121120Z 32006KT 260V030 9999 SCT047 18/06 Q1013=
201105121020 METAR ESMX 121020Z 30009KT 240V320 9999 FEW048 18/05 Q1013=
201105120950 METAR ESMX 120950Z 32006KT 270V010 9999 FEW045 18/06 Q1013=
201105120920 METAR ESMX 120920Z 30005KT 250V020 CAVOK 16/05 Q1014=
201105120850 METAR ESMX 120850Z 28006KT CAVOK 16/06 Q1014=
201105120820 METAR ESMX 120820Z 31006KT 250V340 CAVOK 15/06 Q1014=
201105120750 METAR ESMX 120750Z VRB03KT CAVOK 14/07 Q1014=
201105120720 METAR ESMX 120720Z 31004KT 260V360 9999 FEW017 14/08 Q1014=
201105120650 METAR ESMX 120650Z 30004KT 260V340 9999 FEW014 12/09 Q1014=
201105120620 METAR ESMX 120620Z 27005KT 9999 SCT010 12/09 Q1014=
201105120550 METAR ESMX 120550Z 30005KT 260V350 8000 BR BKN006 11/09 Q1014=
201105120520 METAR ESMX 120520Z 28006KT 250V350 7000 BR BKN006 10/09 Q1015=
201105120450 METAR ESMX 120450Z 27005KT 3000 BR BKN004 10/09 Q1015=
201105120420 METAR ESMX 120420Z 27006KT 2500 BR BKN004 10/09 Q1015=
201105120350 METAR ESMX 120350Z 27005KT 3000 BR BKN005 10/09 Q1015=
201105120320 METAR ESMX 120320Z AUTO 27003KT 2900NDV BR FEW006/// BKN008/// 10/09 Q1015=
201105120250 METAR ESMX 120250Z AUTO 26004KT 3800NDV BR FEW007/// OVC009/// 10/09 Q1015=
201105120220 METAR ESMX 120220Z AUTO 25003KT 200V290 3400NDV BR FEW004/// BKN007/// OVC009/// 11/10 Q1015=
201105120150 METAR ESMX 120150Z AUTO 27005KT 250V310 2800NDV BR BKN002/// OVC006/// 11/10 Q1015=
201105120120 METAR ESMX 120120Z AUTO 27007KT 240V300 1900NDV BR OVC001/// 11/10 Q1015=
201105120050 METAR ESMX 120050Z AUTO 23003KT 0150NDV R01/P2000N R19/0450V1300 FEW004/// 09/08 Q1015=
201105120020 METAR ESMX 120020Z AUTO 22003KT 0150NDV R01/P2000N R19/0800 NCD 09/08 Q1015=
201105112350 METAR ESMX 112350Z AUTO 20002KT 0100NDV R01/0600VP2000D R19/0400 FG NCD 08/07 Q1015=
201105112320 METAR ESMX 112320Z VRB01KT 0250 BCFG NSC 09/09 Q1016=
201105112250 METAR ESMX 112250Z VRB01KT 5000 BR TS FEW030 SCT070 11/10 Q1016=
201105112220 METAR ESMX 112220Z 22005KT 200V260 9999 FEW030 SCT070 12/10 Q1016 RERA=
201105112150 METAR ESMX 112150Z 19009KT 7000 -SHRA FEW030 BKN070 13/10 Q1017=
201105112120 METAR ESMX 112120Z 16004KT CAVOK 15/08 Q1017=
201105112050 METAR ESMX 112050Z 18005KT CAVOK 15/08 Q1017=
201105112020 METAR ESMX 112020Z 18008KT CAVOK 16/08 Q1017=
201105111950 METAR ESMX 111950Z 18007KT CAVOK 16/09 Q1017=
201105111920 METAR ESMX 111920Z 15005KT CAVOK 18/09 Q1016=
201105111850 METAR ESMX 111850Z 15005KT CAVOK 18/08 Q1016=
201105111820 METAR ESMX 111820Z 18005KT 140V200 CAVOK 19/08 Q1016=
201105111750 METAR ESMX 111750Z 15005KT CAVOK 20/07 Q1016=
201105111720 METAR ESMX 111720Z 18007KT 140V200 CAVOK 20/07 Q1017=
201105111650 METAR ESMX 111650Z 17008KT 140V200 CAVOK 21/07 Q1017=
201105111620 METAR ESMX 111620Z 17010KT CAVOK 22/06 Q1017=
201105111550 METAR ESMX 111550Z 17010KT 140V210 CAVOK 23/05 Q1017=
201105111520 METAR ESMX 111520Z 17010KT 130V200 CAVOK 24/06 Q1018=
201105111450 METAR ESMX 111450Z 20012KT CAVOK 24/06 Q1018=
201105111420 METAR ESMX 111420Z 18009KT 140V210 CAVOK 24/05 Q1018=
201105111350 METAR ESMX 111350Z 19007KT 140V240 CAVOK 24/04 Q1018=
201105111320 METAR ESMX 111320Z 13007KT 050V160 CAVOK 24/05 Q1019=
201105111250 METAR ESMX 111250Z 18010KT CAVOK 25/04 Q1019=
201105111220 METAR ESMX 111220Z 14007KT 110V190 CAVOK 24/05 Q1020=
201105111150 METAR ESMX 111150Z 15006KT 090V200 CAVOK 24/05 Q1020=
201105111120 METAR ESMX 111120Z 15007KT 120V190 CAVOK 23/06 Q1021=
201105111050 METAR ESMX 111050Z 15006KT 080V200 CAVOK 23/06 Q1021=
201105111020 METAR ESMX 111020Z 18007KT CAVOK 22/08 Q1021=
201105110950 METAR ESMX 110950Z 14007KT 100V160 CAVOK 22/08 Q1022=
201105110920 METAR ESMX 110920Z 16005KT 070V250 CAVOK 21/08 Q1022=
201105110850 METAR ESMX 110850Z 16005KT 110V210 CAVOK 20/08 Q1022=
201105110820 METAR ESMX 110820Z 14005KT 100V220 CAVOK 19/08 Q1023=
201105110750 METAR ESMX 110750Z 14005KT 080V170 CAVOK 18/08 Q1023=
201105110720 METAR ESMX 110720Z 15005KT 090V200 CAVOK 17/08 Q1023=
201105110650 METAR ESMX 110650Z 13004KT 070V180 CAVOK 16/08 Q1023=
201105110620 METAR ESMX 110620Z 15003KT 110V190 CAVOK 14/09 Q1023=
201105110550 METAR ESMX 110550Z VRB01KT CAVOK 14/10 Q1024=
201105110520 METAR ESMX 110520Z VRB01KT CAVOK 13/10 Q1024=
201105110450 METAR ESMX 110450Z 09002KT CAVOK 12/09 Q1024=
201105110420 METAR ESMX 110420Z 04001KT CAVOK 09/08 Q1024=
201105110350 METAR ESMX 110350Z 00000KT CAVOK 06/05 Q1024=
201105110320 METAR ESMX 110320Z 14001KT 0900 R01/P2000 R19/P2000N BCFG NSC 06/05 Q1024=
201105110250 METAR ESMX 110250Z AUTO 00000KT 2000NDV NCD 05/04 Q1025=
201105110220 METAR ESMX 110220Z AUTO 13001KT 6000NDV NCD 06/05 Q1025=
201105110150 METAR ESMX 110150Z AUTO 00000KT 8000NDV BR NCD 06/05 Q1025=
201105110120 METAR ESMX 110120Z AUTO 00000KT 8000NDV BR NCD 06/05 Q1025=
201105110050 METAR ESMX 110050Z AUTO 34001KT 9999NDV NCD 06/05 Q1025=
201105110020 METAR ESMX 110020Z AUTO 19001KT 9999NDV NCD 07/06 Q1025=
201105102350 METAR ESMX 102350Z AUTO 14002KT 9999NDV NCD 08/06 Q1026=
201105102320 METAR ESMX 102320Z 17001KT CAVOK 07/05 Q1026=
201105102250 METAR ESMX 102250Z 17001KT CAVOK 08/06 Q1026=
201105102220 METAR ESMX 102220Z VRB01KT CAVOK 08/05 Q1026=
201105102150 METAR ESMX 102150Z 18002KT CAVOK 10/06 Q1026=
201105102120 METAR ESMX 102120Z 18003KT CAVOK 12/06 Q1026=
201105102050 METAR ESMX 102050Z 18004KT CAVOK 12/05 Q1026=
201105102020 METAR ESMX 102020Z 16005KT CAVOK 15/06 Q1026=
201105101950 METAR ESMX 101950Z 17004KT CAVOK 16/06 Q1026=
201105101920 METAR ESMX 101920Z 17005KT CAVOK 17/05 Q1026=
201105101850 METAR ESMX 101850Z 16005KT CAVOK 18/05 Q1026=
201105101820 METAR ESMX 101820Z 18005KT CAVOK 19/04 Q1026=
201105101750 METAR ESMX 101750Z 17007KT CAVOK 20/04 Q1026=
201105101720 METAR ESMX 101720Z 17007KT CAVOK 21/03 Q1026=
201105101650 METAR ESMX 101650Z 17007KT 140V200 CAVOK 22/03 Q1026=
201105101620 METAR ESMX 101620Z 17008KT 140V200 CAVOK 22/03 Q1026=
201105101550 METAR ESMX 101550Z 16007KT 140V210 CAVOK 22/04 Q1026=
201105101520 METAR ESMX 101520Z 18007KT 140V210 CAVOK 23/04 Q1027=
201105101450 METAR ESMX 101450Z 20007KT 150V240 CAVOK 24/04 Q1027=
201105101420 METAR ESMX 101420Z 18008KT 140V220 CAVOK 24/04 Q1027=
201105101350 METAR ESMX 101350Z 21009KT CAVOK 24/04 Q1027=
201105101320 METAR ESMX 101320Z 17007KT CAVOK 24/05 Q1028=
201105101250 METAR ESMX 101250Z 13007KT 100V190 CAVOK 24/05 Q1028=
201105101220 METAR ESMX 101220Z 17007KT 110V230 CAVOK 24/05 Q1028=
201105101150 METAR ESMX 101150Z 18007KT 130V250 CAVOK 23/06 Q1028=
201105101120 METAR ESMX 101120Z VRB05KT CAVOK 23/04 Q1028=
201105101050 METAR ESMX 101050Z 17007KT 150V210 CAVOK 23/06 Q1029=
201105101020 METAR ESMX 101020Z 16005KT 090V230 CAVOK 22/07 Q1029=
201105100950 METAR ESMX 100950Z 11005KT 040V170 CAVOK 21/10 Q1029=
201105100920 METAR ESMX 100920Z 14005KT 070V190 CAVOK 21/10 Q1029=
201105100850 METAR ESMX 100850Z 16005KT 060V230 CAVOK 19/10 Q1029=
201105100820 METAR ESMX 100820Z 15005KT 070V200 CAVOK 19/10 Q1029=
201105100750 METAR ESMX 100750Z 16005KT 110V200 CAVOK 18/09 Q1029=
201105100720 METAR ESMX 100720Z 16005KT 110V200 CAVOK 17/08 Q1030=
201105100650 METAR ESMX 100650Z 14004KT 080V170 CAVOK 16/07 Q1030=
201105100620 METAR ESMX 100620Z 10003KT 060V150 CAVOK 14/08 Q1030=
201105100550 METAR ESMX 100550Z VRB02KT CAVOK 13/08 Q1030=
201105100520 METAR ESMX 100520Z VRB02KT CAVOK 11/10 Q1030=
201105100450 METAR ESMX 100450Z VRB02KT CAVOK 08/08 Q1030=
201105100420 METAR ESMX 100420Z 00000KT 8000 BCFG NSC 05/04 Q1030=
201105100350 METAR ESMX 100350Z 03001KT 2000 R01/P2000 R19/P2000 BCFG NSC 04/03 Q1030=
201105100320 METAR ESMX 100320Z VRB01KT 0150 R01/P2000D R19/0150V0225 FG NSC 03/03 Q1030=
201105100250 METAR ESMX 100250Z AUTO 00000KT 9999NDV NCD 04/03 Q1030=
201105100220 METAR ESMX 100220Z AUTO 03002KT 0900NDV R01/P2000 R19/P2000N FG NCD 03/03 Q1031=
201105100150 METAR ESMX 100150Z AUTO 02001KT 0300NDV R01/P2000N R19/P2000 FG NCD 04/03 Q1031=
201105100120 METAR ESMX 100120Z AUTO 00000KT 9999NDV NCD 03/03 Q1031=
201105100050 METAR ESMX 100050Z AUTO 10001KT 3900NDV NCD 04/04 Q1031=
201105100020 METAR ESMX 100020Z AUTO VRB01KT 9999NDV NCD 05/04 Q1031=
201105092350 METAR ESMX 092350Z 00000KT 4700 BR NSC 05/04 Q1031=
201105092320 METAR ESMX 092320Z 00000KT CAVOK 06/04 Q1031=
201105092250 METAR ESMX 092250Z 14002KT CAVOK 06/05 Q1031=
201105092220 METAR ESMX 092220Z 15003KT CAVOK 07/05 Q1031=
201105092150 METAR ESMX 092150Z 14003KT CAVOK 07/05 Q1031=
201105092120 METAR ESMX 092120Z 14003KT CAVOK 08/05 Q1031=
201105092050 METAR ESMX 092050Z 15002KT CAVOK 09/06 Q1031=
201105092020 METAR ESMX 092020Z 17003KT CAVOK 10/06 Q1030=
201105091950 METAR ESMX 091950Z 18003KT CAVOK 12/06 Q1031=
201105091920 METAR ESMX 091920Z 18003KT CAVOK 14/06 Q1030=
201105091850 METAR ESMX 091850Z 17004KT CAVOK 15/06 Q1031=
201105091820 METAR ESMX 091820Z 18005KT CAVOK 18/05 Q1031=
201105091750 METAR ESMX 091750Z 17007KT CAVOK 18/05 Q1031=
201105091720 METAR ESMX 091720Z 18008KT 150V210 CAVOK 19/05 Q1031=
201105091650 METAR ESMX 091650Z 17008KT 120V200 CAVOK 20/06 Q1030=
201105091620 METAR ESMX 091620Z 18008KT 140V220 CAVOK 20/07 Q1031=
201105091550 METAR ESMX 091550Z 17008KT 120V200 CAVOK 21/07 Q1031=
201105091520 METAR ESMX 091520Z 17008KT 140V200 CAVOK 21/07 Q1031=
201105091450 METAR ESMX 091450Z 18007KT 150V230 CAVOK 22/06 Q1031=
201105091420 METAR ESMX 091420Z 18005KT 110V210 CAVOK 21/06 Q1031=
201105091350 METAR ESMX 091350Z 17007KT 110V210 CAVOK 22/07 Q1031=
201105091320 METAR ESMX 091320Z 15007KT 120V190 CAVOK 22/06 Q1031=
201105091250 METAR ESMX 091250Z 17008KT 140V250 CAVOK 22/06 Q1032=
201105091220 METAR ESMX 091220Z 14006KT 090V200 CAVOK 21/06 Q1032=
201105091150 METAR ESMX 091150Z 18007KT 140V230 9999 FEW049 21/07 Q1032=
201105091120 METAR ESMX 091120Z 16007KT 130V230 9999 FEW045 21/07 Q1032=
201105091050 METAR ESMX 091050Z 17010KT 9999 FEW040 20/07 Q1032=
201105091020 METAR ESMX 091020Z 16007KT 110V220 9999 FEW038 20/07 Q1033=
201105090950 METAR ESMX 090950Z 14004KT 070V210 CAVOK 19/08 Q1033=
201105090920 METAR ESMX 090920Z 15006KT 100V190 9999 FEW025 18/09 Q1033=
201105090850 METAR ESMX 090850Z 14006KT 070V200 9999 FEW025 18/09 Q1033=
201105090820 METAR ESMX 090820Z 15006KT 100V220 9999 FEW025 17/09 Q1033=
201105090750 METAR ESMX 090750Z 14004KT 070V220 9999 FEW025 17/10 Q1033=
201105090720 METAR ESMX 090720Z 10004KT 030V170 CAVOK 15/09 Q1033=
201105090650 METAR ESMX 090650Z 05003KT 010V110 CAVOK 15/09 Q1033=
201105090620 METAR ESMX 090620Z 10003KT 060V140 CAVOK 13/08 Q1033=
201105090550 METAR ESMX 090550Z 10003KT 010V170 9999 FEW025 12/07 Q1033=
201105090520 METAR ESMX 090520Z VRB02KT CAVOK 11/06 Q1033=
201105090450 METAR ESMX 090450Z VRB02KT CAVOK 09/04 Q1033=
201105090420 METAR ESMX 090420Z VRB01KT CAVOK 06/03 Q1033=
201105090350 METAR ESMX 090350Z 04002KT 9999 FEW023 05/02 Q1033=
201105090320 METAR ESMX 090320Z AUTO 36002KT 9999NDV FEW023/// 05/01 Q1033=
201105090250 METAR ESMX 090250Z AUTO VRB02KT 9999NDV NCD 06/02 Q1033=
201105090220 METAR ESMX 090220Z AUTO 09002KT 9999NDV NCD 05/01 Q1033=
201105090150 METAR ESMX 090150Z AUTO 10003KT 9999NDV NCD 06/01 Q1033=
201105090120 METAR ESMX 090120Z AUTO VRB02KT 9999NDV NCD 07/01 Q1033=
201105090050 METAR ESMX 090050Z AUTO 08003KT 050V110 9999NDV NCD 08/01 Q1033=
201105090020 METAR ESMX 090020Z AUTO 07003KT 020V110 9999NDV NCD 08/01 Q1033=
201105082350 METAR ESMX 082350Z AUTO 07003KT 040V110 9999NDV NCD 09/01 Q1033=
201105082320 METAR ESMX 082320Z 07004KT 040V110 CAVOK 09/01 Q1033=
201105082250 METAR ESMX 082250Z 03004KT 360V060 CAVOK 09/01 Q1033=
201105082220 METAR ESMX 082220Z 07003KT 020V110 CAVOK 09/01 Q1033=
201105082150 METAR ESMX 082150Z 07003KT 020V110 CAVOK 10/01 Q1033=
201105082120 METAR ESMX 082120Z 07004KT 020V110 CAVOK 11/02 Q1033=
201105082050 METAR ESMX 082050Z 07004KT 020V120 CAVOK 11/01 Q1033=
201105082020 METAR ESMX 082020Z 07003KT 040V120 CAVOK 11/01 Q1033=
201105081950 METAR ESMX 081950Z 08003KT 050V110 CAVOK 12/01 Q1033=
201105081920 METAR ESMX 081920Z 08005KT 020V120 CAVOK 13/M00 Q1033=
201105081850 METAR ESMX 081850Z 08007KT 030V140 CAVOK 14/M02 Q1033=
201105081820 METAR ESMX 081820Z 09007KT 050V150 CAVOK 15/M01 Q1033=
201105081750 METAR ESMX 081750Z 06006KT 010V130 CAVOK 16/M01 Q1032=
201105081720 METAR ESMX 081720Z 09007KT 030V150 CAVOK 17/M01 Q1032=
201105081650 METAR ESMX 081650Z 09008KT 050V140 CAVOK 18/M02 Q1032=
201105081620 METAR ESMX 081620Z 08009KT 030V130 CAVOK 19/M03 Q1032=
201105081550 METAR ESMX 081550Z 08007KT 020V130 CAVOK 19/M03 Q1032=
201105081520 METAR ESMX 081520Z 06007KT 010V130 CAVOK 20/M04 Q1032=
201105081450 METAR ESMX 081450Z 08009KT 030V150 CAVOK 20/M04 Q1032=
201105081420 METAR ESMX 081420Z 07009KT 030V130 CAVOK 20/M03 Q1032=
201105081350 METAR ESMX 081350Z 06010KT 010V100 CAVOK 21/M03 Q1032=
201105081320 METAR ESMX 081320Z 07008KT 040V130 CAVOK 20/M02 Q1033=
201105081250 METAR ESMX 081250Z 10007KT 050V160 CAVOK 21/M02 Q1033=
201105081220 METAR ESMX 081220Z 07009KT 020V110 CAVOK 20/M02 Q1033=
201105081150 METAR ESMX 081150Z 07007KT 350V160 CAVOK 20/M03 Q1033=
201105081120 METAR ESMX 081120Z 07010KT 030V150 CAVOK 19/M03 Q1033=
201105081050 METAR ESMX 081050Z 07009KT 020V140 CAVOK 19/M03 Q1033=
201105081020 METAR ESMX 081020Z 08009KT 020V140 CAVOK 19/M03 Q1033=
201105080950 METAR ESMX 080950Z 09009KT 030V150 CAVOK 19/M02 Q1033=
201105080920 METAR ESMX 080920Z 11007KT 060V170 CAVOK 17/M02 Q1033=
201105080850 METAR ESMX 080850Z 08010KT 040V150 CAVOK 18/M02 Q1033=
201105080820 METAR ESMX 080820Z AUTO 06007KT 020V110 9999NDV NCD 16/M03 Q1033=
201105080750 METAR ESMX 080750Z AUTO 06007KT 360V110 9999NDV NCD 15/M04 Q1033=
201105080720 METAR ESMX 080720Z AUTO 05006KT 020V090 9999NDV NCD 14/M02 Q1033=
201105080650 METAR ESMX 080650Z AUTO 07006KT 020V110 9999NDV NCD 12/M01 Q1033=
201105080620 METAR ESMX 080620Z AUTO 04007KT 360V080 9999NDV NCD 11/00 Q1033=
201105080550 METAR ESMX 080550Z AUTO 07005KT 020V130 9999NDV NCD 10/01 Q1033=
201105080520 METAR ESMX 080520Z AUTO 06006KT 010V110 9999NDV NCD 08/00 Q1033=
201105080450 METAR ESMX 080450Z AUTO 07005KT 030V110 9999NDV NCD 07/M00 Q1033=
201105080420 METAR ESMX 080420Z AUTO 07005KT 020V110 9999NDV NCD 06/M01 Q1033=
201105080350 METAR ESMX 080350Z AUTO 07005KT 030V110 9999NDV NCD 05/M01 Q1033=
201105080320 METAR ESMX 080320Z AUTO 07005KT 020V110 9999NDV NCD 05/M01 Q1033=
201105080250 METAR ESMX 080250Z AUTO 06003KT 360V130 9999NDV NCD 04/M01 Q1033=
201105080220 METAR ESMX 080220Z AUTO 04005KT 9999NDV NCD 05/M02 Q1033=
201105080150 METAR ESMX 080150Z AUTO 04004KT 350V070 9999NDV NCD 05/M01 Q1032=
201105080120 METAR ESMX 080120Z AUTO 03003KT 9999NDV NCD 05/M01 Q1032=
201105080050 METAR ESMX 080050Z AUTO 04003KT 9999NDV NCD 05/M00 Q1032=
201105080020 METAR ESMX 080020Z AUTO 05003KT 9999NDV NCD 05/00 Q1032=
201105072350 METAR ESMX 072350Z AUTO 06003KT 010V090 9999NDV NCD 06/00 Q1032=
201105072320 METAR ESMX 072320Z AUTO 07003KT 9999NDV NCD 06/01 Q1032=
201105072250 METAR ESMX 072250Z AUTO 09002KT 9999NDV NCD 06/01 Q1032=
201105072220 METAR ESMX 072220Z AUTO VRB02KT 9999NDV NCD 07/01 Q1032=
201105072150 METAR ESMX 072150Z AUTO 10003KT 9999NDV NCD 09/01 Q1032=
201105072120 METAR ESMX 072120Z AUTO VRB02KT 9999NDV NCD 10/01 Q1032=
201105072050 METAR ESMX 072050Z AUTO 10003KT 070V140 9999NDV NCD 10/00 Q1032=
201105072020 METAR ESMX 072020Z AUTO 11003KT 070V160 9999NDV NCD 11/00 Q1031=
201105071950 METAR ESMX 071950Z AUTO 11003KT 080V150 9999NDV NCD 12/M00 Q1031=
201105071920 METAR ESMX 071920Z AUTO 12004KT 080V160 9999NDV NCD 13/M01 Q1031=
201105071850 METAR ESMX 071850Z AUTO 12003KT 090V190 9999NDV NCD 15/00 Q1030=
201105071820 METAR ESMX 071820Z AUTO 17005KT 120V210 9999NDV NCD 16/03 Q1030=
201105071750 METAR ESMX 071750Z AUTO 17006KT 140V200 9999NDV NCD 16/02 Q1030=
201105071720 METAR ESMX 071720Z AUTO 16008KT 120V190 9999NDV NCD 17/02 Q1030=
201105071650 METAR ESMX 071650Z AUTO 16007KT 120V200 9999NDV NCD 18/02 Q1029=
201105071620 METAR ESMX 071620Z AUTO 15006KT 120V190 9999NDV NCD 19/02 Q1029=
201105071550 METAR ESMX 071550Z AUTO 20007KT 9999NDV NCD 20/02 Q1029=
201105071520 METAR ESMX 071520Z AUTO 15006KT 110V200 9999NDV NCD 20/01 Q1029=
201105071450 METAR ESMX 071450Z AUTO 16005KT 090V220 9999NDV NCD 20/02 Q1029=
201105071420 METAR ESMX 071420Z AUTO VRB03KT 9999NDV NCD 21/01 Q1029=
201105071350 METAR ESMX 071350Z AUTO 34003KT 210V030 9999NDV NCD 19/02 Q1030=
201105071320 METAR ESMX 071320Z AUTO VRB04KT 9999NDV NCD 20/01 Q1030=
201105071250 METAR ESMX 071250Z AUTO VRB05KT 9999NDV NCD 20/01 Q1030=
201105071220 METAR ESMX 071220Z AUTO VRB04KT 9999NDV NCD 19/01 Q1030=
201105071150 METAR ESMX 071150Z 15005KT 080V220 CAVOK 19/01 Q1030=
201105071120 METAR ESMX 071120Z 16004KT 110V240 CAVOK 18/00 Q1030=
201105071050 METAR ESMX 071050Z 12004KT 030V190 CAVOK 18/01 Q1030=
201105071020 METAR ESMX 071020Z 13005KT 090V180 CAVOK 18/01 Q1030=
201105070950 METAR ESMX 070950Z VRB05KT CAVOK 17/01 Q1030=
201105070920 METAR ESMX 070920Z 17005KT 100V210 CAVOK 17/01 Q1030=
201105070850 METAR ESMX 070850Z 18004KT 110V240 CAVOK 16/01 Q1029=
201105070820 METAR ESMX 070820Z 15005KT CAVOK 15/02 Q1029=
201105070750 METAR ESMX 070750Z 14004KT 110V180 CAVOK 14/03 Q1029=
201105070720 METAR ESMX 070720Z VRB02KT CAVOK 12/03 Q1029=
201105070650 METAR ESMX 070650Z VRB02KT CAVOK 10/04 Q1029=
201105070620 METAR ESMX 070620Z AUTO 16001KT 9999NDV BR NCD 09/03 Q1029=
201105070550 METAR ESMX 070550Z AUTO VRB01KT 7000NDV NCD 08/04 Q1029=
201105070520 METAR ESMX 070520Z AUTO 00000KT 9000NDV NCD 05/04 Q1029=
201105070450 METAR ESMX 070450Z AUTO VRB01KT 9999NDV NCD 04/02 Q1028=
201105070420 METAR ESMX 070420Z AUTO 00000KT 9999NDV NCD 01/00 Q1028=
201105070350 METAR ESMX 070350Z AUTO 00000KT 8000NDV BR NCD 01/00 Q1028=
201105070320 METAR ESMX 070320Z AUTO VRB01KT 9999NDV NCD M00/M02 Q1028=
201105070250 METAR ESMX 070250Z AUTO 17002KT 8000NDV BR NCD 01/00 Q1027=
201105070220 METAR ESMX 070220Z AUTO VRB01KT 9999NDV NCD 01/M01 Q1027=
201105070150 METAR ESMX 070150Z AUTO 11001KT 9999NDV NCD 02/M00 Q1027=
201105070120 METAR ESMX 070120Z AUTO 00000KT 9999NDV NCD 01/M01 Q1027=
201105070050 METAR ESMX 070050Z AUTO VRB02KT 9999NDV SCT071/// 03/M01 Q1027=
201105070020 METAR ESMX 070020Z AUTO 00000KT 9999NDV BKN070/// 02/M01 Q1027=
201105062350 METAR ESMX 062350Z AUTO 19002KT 9999NDV NCD 02/M01 Q1026=
201105062320 METAR ESMX 062320Z AUTO 17002KT 9999NDV NCD 03/M01 Q1026=
201105062250 METAR ESMX 062250Z AUTO VRB01KT 9999NDV NCD 03/M00 Q1026=
201105062220 METAR ESMX 062220Z AUTO VRB01KT 9999NDV NCD 04/00 Q1026=
201105062150 METAR ESMX 062150Z AUTO 19002KT 9999NDV NCD 05/M01 Q1026=
201105062120 METAR ESMX 062120Z AUTO 13001KT 9999NDV NCD 04/M01 Q1025=
201105062050 METAR ESMX 062050Z AUTO 15002KT 9999NDV NCD 05/M01 Q1025=
201105062020 METAR ESMX 062020Z AUTO 17001KT 9999NDV NCD 05/M01 Q1025=
201105061950 METAR ESMX 061950Z AUTO VRB02KT 9999NDV NCD 06/M01 Q1025=
201105061920 METAR ESMX 061920Z AUTO 26003KT 9999NDV NCD 08/M01 Q1024=
201105061850 METAR ESMX 061850Z VRB02KT CAVOK 12/M03 Q1024=
201105061820 METAR ESMX 061820Z 27004KT CAVOK 13/M03 Q1024=
201105061750 METAR ESMX 061750Z 25005KT CAVOK 15/M04 Q1024=
201105061720 METAR ESMX 061720Z 26006KT CAVOK 15/M04 Q1023=
201105061650 METAR ESMX 061650Z 28007KT 250V320 CAVOK 16/M04 Q1023=
201105061620 METAR ESMX 061620Z 25007KT 220V300 CAVOK 16/M04 Q1023=
201105061550 METAR ESMX 061550Z 26009KT 230V310 CAVOK 17/M04 Q1023=
201105061520 METAR ESMX 061520Z 26010KT 230V290 CAVOK 17/M04 Q1023=
201105061450 METAR ESMX 061450Z 27010KT 230V300 CAVOK 17/M02 Q1022=
201105061420 METAR ESMX 061420Z 18007KT 150V220 CAVOK 18/M01 Q1022=
201105061350 METAR ESMX 061350Z 22009KT 190V250 CAVOK 17/M01 Q1022=
201105061320 METAR ESMX 061320Z 20010KT 160V230 CAVOK 16/M01 Q1022=
201105061250 METAR ESMX 061250Z 21012KT CAVOK 16/M01 Q1022=
201105061220 METAR ESMX 061220Z 21006KT 170V340 CAVOK 16/M01 Q1022=
201105061150 METAR ESMX 061150Z 19006KT 110V250 CAVOK 15/M00 Q1023=
201105061120 METAR ESMX 061120Z 18006KT CAVOK 15/01 Q1023=
201105061050 METAR ESMX 061050Z 20007KT 150V270 9999 NSC 14/00 Q1023=
201105061020 METAR ESMX 061020Z 22005G15KT 140V290 CAVOK 14/01 Q1023=
201105060950 METAR ESMX 060950Z 22006KT 100V270 9999 FEW025 13/01 Q1023=
201105060920 METAR ESMX 060920Z 21008KT 160V250 9999 FEW025 12/02 Q1023=
201105060850 METAR ESMX 060850Z 23007KT 200V290 9999 FEW026 11/01 Q1023=
201105060820 METAR ESMX 060820Z 23007KT 200V260 CAVOK 10/03 Q1023=
201105060750 METAR ESMX 060750Z 18006KT 9999 SCT020 08/03 Q1023=
201105060720 METAR ESMX 060720Z 22007KT 190V280 9999 FEW016 SCT020 08/04 Q1023=
201105060650 METAR ESMX 060650Z 23004KT 190V270 9999 FEW005 SCT024 07/06 Q1023=
201105060620 METAR ESMX 060620Z VRB02KT 3800 FEW001 BKN020 05/05 Q1023=
201105060550 METAR ESMX 060550Z 21003KT 0350 R01/0800V1300 R19/0650 FG VV002 04/04 Q1023=
201105060520 METAR ESMX 060520Z VRB02KT 0050 R01/M0150V0225N R19/M0150N FG VV001 04/03 Q1022=
201105060450 METAR ESMX 060450Z 20001KT 0100 R01/0175V0325N R19/0400 FG VV000 02/01 Q1022=
201105060420 METAR ESMX 060420Z 00000KT 0100 R01/0225V0325 R19/0200N FZFG VV000 M00/M00 Q1022=
201105060350 METAR ESMX 060350Z 19001KT 0100 R01/0150V0300 R19/0175V0325N FZFG VV000 M01/M01 Q1022=
201105060320 METAR ESMX 060320Z AUTO 19002KT 0300NDV R01/0800VP2000 R19/P2000=
201105060250 METAR ESMX 060250Z AUTO 20004KT 0100NDV R01/0225 R19/0300V0500 FG NCD 00/M00 Q1022=
201105060220 METAR ESMX 060220Z AUTO 22004KT 0050NDV R01/0800VP2000 R19/0200V0325 FG NCD 00/M00 Q1022=
201105060150 METAR ESMX 060150Z AUTO 22004KT 0250NDV R01/P2000N R19/0350V0550 BCFG NCD 01/00 Q1022=
201105060120 METAR ESMX 060120Z AUTO 21003KT 0350NDV R01/0800VP2000 R19/P2000 FG NCD 03/02 Q1022=
201105060050 METAR ESMX 060050Z AUTO 20003KT 0300NDV R01/P2000N R19/0750VP2000U BR NCD 02/01 Q1022=
201105060020 METAR ESMX 060020Z AUTO 21005KT 1400NDV R01/P2000N R19/P2000N BR NCD 03/02 Q1022=
201105052350 METAR ESMX 052350Z AUTO 21003KT 2100NDV BR NCD 04/03 Q1021=
201105052320 METAR ESMX 052320Z 23003KT 7000 BR NSC 04/03 Q1021=
201105052250 METAR ESMX 052250Z 23004KT CAVOK 03/02 Q1021=
201105052220 METAR ESMX 052220Z 23005KT CAVOK 03/02 Q1021=
201105052150 METAR ESMX 052150Z 23004KT CAVOK 04/03 Q1021=
201105052120 METAR ESMX 052120Z 22004KT CAVOK 04/03 Q1021=
201105052050 METAR ESMX 052050Z 23005KT CAVOK 05/03 Q1021=
201105052020 METAR ESMX 052020Z 23005KT 9999 FEW026 05/03 Q1021=
201105051920 METAR ESMX 051920Z 22004KT CAVOK 07/03 Q1021=
201105051850 METAR ESMX 051850Z 23004KT CAVOK 08/03 Q1020=
201105051820 METAR ESMX 051820Z 25005KT CAVOK 09/03 Q1020=
201105051750 METAR ESMX 051750Z 24005KT 200V270 9999 FEW028 10/03 Q1020=
201105051720 METAR ESMX 051720Z 26006KT 220V290 9999 SCT030 09/03 Q1020=
201105051650 METAR ESMX 051650Z 26008KT 230V290 9999 FEW020 SCT030 10/03 Q1020=
201105051620 METAR ESMX 051620Z 26006KT 220V300 9999 FEW020 SCT040 10/03 Q1020=
201105051550 METAR ESMX 051550Z 23005KT 200V260 9999 FEW030 BKN054 10/04 Q1020=
201105051520 METAR ESMX 051520Z 21005KT 9999 SCT020 BKN035 09/04 Q1020 REDZ=
201105051450 METAR ESMX 051450Z 19007KT 9999 SCT030 BKN040 10/02 Q1020=
201105051420 METAR ESMX 051420Z 18006KT 140V220 9999 FEW015 BKN050 10/02 Q1020=
201105051350 METAR ESMX 051350Z 22005KT 170V250 9999 -SHRA FEW027 BKN038 BKN045 09/03 Q1020 REDZ=
201105051320 METAR ESMX 051320Z 26007KT 240V300 9999 -SHRA FEW015 BKN040 09/01 Q1021=
201105051250 METAR ESMX 051250Z 28008KT 9999 FEW013 SCT045 BKN069 10/M01 Q1020=
201105051220 METAR ESMX 051220Z 25007KT 220V300 9999 -SHRA FEW015 BKN040 10/00 Q1020=
201105051150 METAR ESMX 051150Z 32009KT 290V350 9999 FEW030 BKN045 09/00 Q1020=
201105051120 METAR ESMX 051120Z 27008KT 230V320 9999 FEW030 BKN060 11/M02 Q1020=
201105051050 METAR ESMX 051050Z 28006KT 240V330 9999 SCT030 BKN050 11/M04 Q1020=
201105051020 METAR ESMX 051020Z 30007KT 280V340 9999 FEW030 BKN060 11/M04 Q1020=
201105050950 METAR ESMX 050950Z 32006KT 280V030 9999 FEW030 BKN060 11/M04 Q1020=
201105050920 METAR ESMX 050920Z 29007KT 260V340 9999 FEW050 11/M03 Q1020=
201105050850 METAR ESMX 050850Z 27007KT 250V320 9999 FEW038 10/M01 Q1020=
201105050820 METAR ESMX 050820Z 28006KT 230V330 9999 FEW025 09/00 Q1020=
201105050750 METAR ESMX 050750Z 31005KT 250V340 9999 FEW020 09/01 Q1020=
201105050720 METAR ESMX 050720Z 29005KT 250V330 9999 FEW020 08/01 Q1020=
201105050650 METAR ESMX 050650Z 29005KT CAVOK 07/02 Q1020=
201105050620 METAR ESMX 050620Z 29005KT 250V310 CAVOK 06/01 Q1020=
201105050550 METAR ESMX 050550Z 25004KT CAVOK 04/01 Q1020=
201105050520 METAR ESMX 050520Z 26002KT CAVOK 03/01 Q1020=
201105050450 METAR ESMX 050450Z 26004KT CAVOK 01/00 Q1019=
201105050420 METAR ESMX 050420Z 25002KT CAVOK M01/M02 Q1019=
201105050350 METAR ESMX 050350Z 17002KT CAVOK M01/M02 Q1019=
201105050320 METAR ESMX 050320Z AUTO 25002KT 9999NDV NCD M03/M04 Q1019=
201105050250 METAR ESMX 050250Z AUTO 25002KT 9999NDV NCD M03/M04 Q1019=
201105050220 METAR ESMX 050220Z AUTO 24001KT 9999NDV NCD M03/M04 Q1019=
201105050150 METAR ESMX 050150Z AUTO 18003KT 9999NDV NCD M03/M04 Q1019=
201105050120 METAR ESMX 050120Z AUTO 00000KT 9999NDV NCD M02/M03 Q1019=
201105050050 METAR ESMX 050050Z AUTO VRB01KT 9999NDV FEW065/// M01/M02 Q1019=
201105050020 METAR ESMX 050020Z AUTO 30003KT 250V020 9999NDV BKN063/// 01/M02 Q1019=
201105042350 METAR ESMX 042350Z AUTO 00000KT 9999NDV BKN068/// 01/M02 Q1019=
201105042320 METAR ESMX 042320Z VRB01KT CAVOK 01/M02 Q1019=
201105042250 METAR ESMX 042250Z 27004KT CAVOK 02/M03 Q1019=
201105042220 METAR ESMX 042220Z 27003KT 240V300 CAVOK 03/M02 Q1019=
201105042150 METAR ESMX 042150Z 31004KT 270V360 CAVOK 03/M03 Q1018=
201105042120 METAR ESMX 042120Z 30005KT CAVOK 03/M04 Q1018=
201105042050 METAR ESMX 042050Z 28005KT CAVOK 00/M04 Q1018=
201105042020 METAR ESMX 042020Z VRB01KT CAVOK 01/M04 Q1018=
201105041950 METAR ESMX 041950Z 27003KT 240V310 CAVOK 01/M04 Q1018=
201105041920 METAR ESMX 041920Z 31004KT CAVOK 04/M05 Q1018=
201105041850 METAR ESMX 041850Z 31005KT CAVOK 05/M06 Q1018=
201105041820 METAR ESMX 041820Z 33006KT CAVOK 06/M06 Q1017=
201105041750 METAR ESMX 041750Z 33009KT 300V360 CAVOK 07/M06 Q1017=
201105041720 METAR ESMX 041720Z 01009KT 330V030 CAVOK 08/M07 Q1017=
201105041650 METAR ESMX 041650Z 33008KT 300V010 CAVOK 07/M07 Q1017=
201105041620 METAR ESMX 041620Z 35011KT 310V020 CAVOK 07/M06 Q1017=
201105041550 METAR ESMX 041550Z 34010KT 320V020 CAVOK 08/M07 Q1017=
201105041520 METAR ESMX 041520Z 01010KT 330V050 CAVOK 09/M06 Q1017=
201105041450 METAR ESMX 041450Z 33006KT 270V010 9999 FEW045 SCT075 08/M07 Q1017=
201105041420 METAR ESMX 041420Z 02010KT 350V060 9999 FEW040 BKN090 07/M04 Q1017=
201105041350 METAR ESMX 041350Z 02006KT 320V070 9999 FEW040 BKN100 07/M03 Q1017=
201105041320 METAR ESMX 041320Z 34007KT 9999 FEW035 SCT056 07/M03 Q1017=
201105041250 METAR ESMX 041250Z 03007KT 330V070 9999 FEW023 BKN055 08/M04 Q1017=
201105041220 METAR ESMX 041220Z 34009KT 300V050 9999 FEW020 BKN055 06/M04 Q1017=
201105041150 METAR ESMX 041150Z 34011KT 9999 SCT030 BKN055 06/M04 Q1017=
201105041120 METAR ESMX 041120Z 35010KT 320V020 9999 FEW038 SCT045 OVC054 06/M04 Q1017=
201105041050 METAR ESMX 041050Z 36011KT 320V020 9999 FEW040 BKN056 07/M04 Q1016=
201105040950 METAR ESMX 040950Z 35012KT 320V050 9999 BKN043 06/M05 Q1016=
201105040920 METAR ESMX 040920Z 34011KT 9999 SCT040 BKN080 06/M05 Q1016=
201105040850 METAR ESMX 040850Z 33012KT 9999 FEW030 SCT080 06/M05 Q1016=
201105040820 METAR ESMX 040820Z 34010KT 300V020 9999 FEW030 SCT080 06/M05 Q1016=
201105040750 METAR ESMX 040750Z 35011KT 9999 FEW030 SCT080 05/M04 Q1016=
201105040720 METAR ESMX 040720Z 34012KT 290V010 9999 FEW025 SCT080 04/M03 Q1016=
201105040650 METAR ESMX 040650Z 33011KT 300V360 9999 FEW015 SCT100 03/M03 Q1016=
201105040620 METAR ESMX 040620Z 33010KT 300V010 9999 FEW015 SCT018 03/M02 Q1016=
201105040550 METAR ESMX 040550Z 33009KT 9999 SCT012 SCT200 03/M01 Q1016=
201105040520 METAR ESMX 040520Z 31006KT 280V340 9999 BKN009 01/M01 Q1016=
201105040450 METAR ESMX 040450Z 31007KT 280V340 9999 FEW010 01/M01 Q1016=
201105040420 METAR ESMX 040420Z 30006KT 9999 FEW020 00/M01 Q1016=
201105040350 METAR ESMX 040350Z 31006KT 280V340 9999 FEW010 SCT019 00/M01 Q1016=
201105040320 METAR ESMX 040320Z AUTO 33006KT 290V360 9999NDV FEW006/// SCT010/// OVC013/// 01/M01 Q1016=
201105040250 METAR ESMX 040250Z AUTO 31006KT 9999NDV FEW007/// SCT008/// OVC010/// 01/M01 Q1015=
201105040220 METAR ESMX 040220Z AUTO 32003KT 290V360 9999NDV SCT009/// BKN024/// 01/M01 Q1015=
201105040150 METAR ESMX 040150Z AUTO 35006KT 310V020 9999NDV FEW009/// BKN012/// 01/M01 Q1015=
201105040120 METAR ESMX 040120Z AUTO 33006KT 300V010 9999NDV FEW010/// BKN012/// 01/M01 Q1015=
201105040050 METAR ESMX 040050Z AUTO 35006KT 9999NDV BKN011/// 01/M01 Q1015=
201105040020 METAR ESMX 040020Z AUTO 02008KT 9999NDV OVC011/// 02/M01 Q1016=
201105032350 METAR ESMX 032350Z AUTO 02007KT 9999NDV OVC012/// 02/M01 Q1016=
201105032320 METAR ESMX 032320Z 36008KT 9999 OVC013 02/M01 Q1016=
201105032250 METAR ESMX 032250Z 35007KT 9999 FEW012 SCT017 01/M01 Q1015=
201105032220 METAR ESMX 032220Z 02006KT 350V050 9999 BKN012 02/M01 Q1015=
201105032150 METAR ESMX 032150Z 03006KT 9999 OVC010 02/M01 Q1015=
201105032120 METAR ESMX 032120Z 02009KT 9999 BKN010 02/M01 Q1015=
201105032050 METAR ESMX 032050Z 36009KT 9999 FEW013 SCT037 02/M00 Q1015=
201105032020 METAR ESMX 032020Z 03006KT 9999 FEW014 SCT026 02/M01 Q1015=
201105031950 METAR ESMX 031950Z 02007KT CAVOK 02/M01 Q1015=
201105031920 METAR ESMX 031920Z 03005KT CAVOK 03/M02 Q1015=
201105031850 METAR ESMX 031850Z 02007KT 9999 FEW048 SCT061 04/M01 Q1015=
201105031820 METAR ESMX 031820Z 36008KT 9999 FEW048 SCT055 04/M02 Q1014=
201105031750 METAR ESMX 031750Z 36012KT 9999 VCSH FEW030CB BKN059 05/M03 Q1014=
201105031720 METAR ESMX 031720Z 03009KT 9999 FEW040 05/M03 Q1014=
201105031650 METAR ESMX 031650Z 32004KT 270V360 9999 FEW040 06/M06 Q1014=
201105031620 METAR ESMX 031620Z VRB01KT 9999 VCSH FEW035CB SCT080 05/M03 Q1014=
201105031550 METAR ESMX 031550Z 36009KT 290V040 9999 VCSH FEW035CB SCT080 07/M04 Q1014=
201105031520 METAR ESMX 031520Z 04006KT 010V080 9999 VCSH FEW035CB SCT080 06/M05 Q1014=
201105031450 METAR ESMX 031450Z 35004KT 250V030 9999 VCSH FEW035CB SCT059 07/M04 Q1014=
201105031420 METAR ESMX 031420Z 04005KT 340V110 9999 VCSH FEW035CB SCT064 06/M03 Q1014=
201105031350 METAR ESMX 031350Z 35006KT 320V020 9999 VCSH FEW032CB BKN049 05/M02 Q1014 RESHSN=
201105031320 METAR ESMX 031320Z 35004KT 9999 VCSH FEW025 SCT033CB 05/M01 Q1014 RESHGS=
201105031250 METAR ESMX 031250Z 33006KT 290V360 9999 SHGS FEW006 SCT035CB BKN045 04/M00 Q1014=
201105031220 METAR ESMX 031220Z 01006KT 9999 FEW020 SCT030CB 06/M02 Q1014=
201105031150 METAR ESMX 031150Z 34004KT 290V030 9999 FEW012 SCT030CB 04/M01 Q1015=
201105031120 METAR ESMX 031120Z 01013KT 9999 -SHRASN FEW017 SCT035CB 05/M01 Q1015=
201105031050 METAR ESMX 031050Z 03012KT 9999 -SHRA SCT009 BKN020CB 02/M00 Q1015=
201105031020 METAR ESMX 031020Z 02009KT 330V070 9999 -SHRASN FEW009 SCT036CB BKN050 05/M04 Q1015=
201105030950 METAR ESMX 030950Z 01011KT 340V050 9999 -SHSN FEW030CB SCT055 04/M03 Q1015=
201105030920 METAR ESMX 030920Z 36007KT 300V030 9999 FEW030CB BKN040 04/M04 Q1015=
201105030850 METAR ESMX 030850Z 36008KT 310V020 9999 FEW020 SCT030CB 04/M03 Q1015=
201105030820 METAR ESMX 030820Z 34009KT 9999 FEW030CB BKN035 04/M04 Q1015=
201105030750 METAR ESMX 030750Z 03010KT 340V050 9999 SCT030 05/M04 Q1015=
201105030720 METAR ESMX 030720Z 35009KT 320V020 9999 FEW027 04/M04 Q1016=
201105030650 METAR ESMX 030650Z 04009KT 010V080 9999 FEW030 04/M04 Q1016=
201105030620 METAR ESMX 030620Z 01010KT 330V040 CAVOK 03/M04 Q1016=
201105030550 METAR ESMX 030550Z 36007KT 330V030 CAVOK 03/M02 Q1016=
201105030520 METAR ESMX 030520Z 03007KT 350V060 CAVOK 01/M03 Q1016=
201105030450 METAR ESMX 030450Z 03008KT 350V050 9999 FEW015 SCT092 01/M03 Q1016=
201105030420 METAR ESMX 030420Z 02008KT 9999 FEW012 SCT060 BKN095 01/M02 Q1016=
201105030350 METAR ESMX 030350Z 01006KT 9999 FEW013 BKN089 01/M01 Q1016=
201105030320 METAR ESMX 030320Z AUTO 03005KT 9999NDV OVC087/// 01/M01 Q1016=
201105030250 METAR ESMX 030250Z AUTO 02006KT 9999NDV FEW074/// BKN091/// 01/M01 Q1016=
201105030220 METAR ESMX 030220Z AUTO 36005KT 9999NDV FEW006/// BKN091/// 01/M00 Q1016=
201105030150 METAR ESMX 030150Z AUTO 36005KT 9999NDV FEW005/// BKN091/// 01/M00 Q1016=
201105030120 METAR ESMX 030120Z AUTO 36006KT 9999NDV FEW006/// OVC089/// 02/00 Q1016=
201105030050 METAR ESMX 030050Z AUTO 02004KT 9999NDV SCT005/// BKN007/// OVC090/// 02/01 Q1017=
201105030020 METAR ESMX 030020Z AUTO 02004KT 9999NDV SCT005/// BKN009/// BKN011/// 01/00 Q1017=
201105022350 METAR ESMX 022350Z AUTO VRB01KT 9999NDV FEW036/// SCT042/// OVC091/// 02/00 Q1017=
201105022320 METAR ESMX 022320Z 02003KT 350V050 9999 FEW007 BKN030 BKN092 02/01 Q1017=
201105022250 METAR ESMX 022250Z 02005KT 9999 SCT006 BKN029 BKN093 02/00 Q1017=
201105022220 METAR ESMX 022220Z 02006KT 9999 FEW045 SCT073 02/01 Q1018=
201105022150 METAR ESMX 022150Z 01006KT 9999 FEW036 BKN056 02/00 Q1018=
201105022120 METAR ESMX 022120Z 03004KT 9999 FEW037 SCT046 BKN100 01/00 Q1018=
201105022050 METAR ESMX 022050Z 02003KT 9999 FEW021 SCT098 00/M01 Q1018=
201105022020 METAR ESMX 022020Z VRB01KT 9999 FEW035 SCT065 01/M00 Q1018=
201105021950 METAR ESMX 021950Z 33002KT 9999 FEW032CB SCT042 02/00 Q1018=
201105021920 METAR ESMX 021920Z 32005KT 290V360 9999 VCSH FEW015 SCT035CB BKN055 03/01 Q1019 RERA=
201105021850 METAR ESMX 021850Z 04004KT 9999 VCSH FEW022 SCT034CB BKN075 03/00 Q1019=
201105021820 METAR ESMX 021820Z 05002KT 9999 VCSH FEW040CB SCT075 04/M00 Q1018=
201105021750 METAR ESMX 021750Z 03004KT 360V080 9999 VCSH SCT030CB BKN060 04/00 Q1018=
201105021720 METAR ESMX 021720Z 04011KT 9999 VCSH SCT032CB BKN044 05/M00 Q1018=
201105021650 METAR ESMX 021650Z 02004KT 9999 VCSH FEW035CB SCT090 06/M02 Q1018=
201105021620 METAR ESMX 021620Z 05006KT 010V100 9999 VCSH FEW035CB SCT092 08/M03 Q1018=
201105021550 METAR ESMX 021550Z 02005KT 340V060 9999 FEW035 SCT090 07/M04 Q1018=
201105021520 METAR ESMX 021520Z 07006KT 030V120 9999 FEW035 SCT095 07/M03 Q1018=
201105021450 METAR ESMX 021450Z 06005KT 020V110 9999 FEW035 BKN090 07/M02 Q1019=
201105021420 METAR ESMX 021420Z 02010KT 9999 FEW035CB SCT040 07/M03 Q1019=
201105021350 METAR ESMX 021350Z 02014KT 340V060 9999 FEW016 SCT040CB 06/M02 Q1019=
201105021320 METAR ESMX 021320Z 06007KT 020V110 9999 SCT040CB 08/M04 Q1019=
201105021250 METAR ESMX 021250Z 36011KT 340V050 9999 -SHRA SCT040CB 07/M02 Q1019=
201105021220 METAR ESMX 021220Z 06008KT 020V100 9999 FEW020 SCT040CB 08/M04 Q1019=
201105021150 METAR ESMX 021150Z 03011KT 9999 -SHRA FEW007 SCT040CB 07/M03 Q1020=
201105021120 METAR ESMX 021120Z 04011KT 010V080 9999 SCT040CB 08/M06 Q1019=
201105021050 METAR ESMX 021050Z 01010KT 330V060 9999 SCT035CB SCT080 09/M05 Q1020=
201105021020 METAR ESMX 021020Z 07008KT 010V150 9999 SCT035CB 09/M05 Q1020=
201105020950 METAR ESMX 020950Z 05009KT 360V090 9999 SCT035CB 08/M04 Q1020=
201105020920 METAR ESMX 020920Z 02010KT 340V060 9999 FEW030CB SCT050 08/M03 Q1020=
201105020850 METAR ESMX 020850Z 02010KT 350V060 9999 FEW040 SCT080 06/M04 Q1020=
201105020820 METAR ESMX 020820Z 01010KT 340V060 9999 FEW040 07/M02 Q1020=
201105020750 METAR ESMX 020750Z 36009KT 9999 FEW035 06/M03 Q1020=
201105020720 METAR ESMX 020720Z 01010KT CAVOK 05/M04 Q1020=
201105020650 METAR ESMX 020650Z 03009KT 340V060 CAVOK 05/M04 Q1021=
201105020620 METAR ESMX 020620Z 01009KT CAVOK 04/M03 Q1021=
201105020550 METAR ESMX 020550Z 36009KT CAVOK 03/M02 Q1021=
201105020520 METAR ESMX 020520Z 01009KT CAVOK 02/M03 Q1020=
201105020450 METAR ESMX 020450Z 02008KT 360V070 CAVOK 01/M03 Q1021=
201105020420 METAR ESMX 020420Z 01008KT CAVOK 01/M02 Q1021=
201105020350 METAR ESMX 020350Z 01009KT CAVOK 01/M03 Q1021=
201105020320 METAR ESMX 020320Z 36008KT CAVOK 00/M03 Q1021=
201105020250 METAR ESMX 020250Z AUTO 36008KT 9999NDV NCD 00/M03 Q1021=
201105020220 METAR ESMX 020220Z AUTO 02007KT 9999NDV NCD 01/M03 Q1021=
201105020150 METAR ESMX 020150Z AUTO 02006KT 9999NDV NCD 00/M03 Q1021=
201105020120 METAR ESMX 020120Z AUTO 02007KT 9999NDV NCD 01/M04 Q1021=
201105020050 METAR ESMX 020050Z AUTO 02008KT 9999NDV NCD 01/M04 Q1021=
201105020020 METAR ESMX 020020Z AUTO 01007KT 9999NDV NCD 01/M04 Q1021=
201105012350 METAR ESMX 012350Z AUTO 01007KT 9999NDV NCD 01/M04 Q1021=
201105012320 METAR ESMX 012320Z 02006KT CAVOK 01/M04 Q1021=
201105012250 METAR ESMX 012250Z 03007KT 010V080 CAVOK 01/M04 Q1021=
201105012220 METAR ESMX 012220Z 03006KT 360V060 CAVOK 02/M05 Q1021=
201105012150 METAR ESMX 012150Z 03007KT CAVOK 02/M05 Q1021=
201105012120 METAR ESMX 012120Z 04007KT 360V080 CAVOK 03/M06 Q1021=
201105012050 METAR ESMX 012050Z 04009KT 010V080 CAVOK 03/M06 Q1021=
201105012020 METAR ESMX 012020Z 03008KT 350V070 CAVOK 03/M05 Q1021=
201105011950 METAR ESMX 011950Z 05007KT 020V090 CAVOK 04/M05 Q1021=
201105011920 METAR ESMX 011920Z 05007KT 020V110 CAVOK 04/M05 Q1021=
201105011850 METAR ESMX 011850Z 06008KT 030V100 CAVOK 05/M05 Q1020=
201105011820 METAR ESMX 011820Z 07008KT 040V100 CAVOK 06/M04 Q1020=
201105011750 METAR ESMX 011750Z 07011KT 010V120 9999 FEW020 06/M05 Q1020=
201105011720 METAR ESMX 011720Z 06007KT 020V110 9999 FEW020 06/M03 Q1020=
201105011650 METAR ESMX 011650Z 06007KT 020V110 9999 FEW020 06/01 Q1019=
201105011620 METAR ESMX 011620Z 09005KT 020V140 9999 FEW016CB SCT020 06/02 Q1019=
201105011550 METAR ESMX 011550Z 08007KT 030V140 9999 FEW015 SCT025CB BKN040 06/03 Q1020 RERA=
201105011520 METAR ESMX 011520Z 04010KT 350V060 9999 FEW040CB BKN050 07/02 Q1019=
201105011450 METAR ESMX 011450Z 04010KT 020V080 9999 FEW020 FEW040CB SCT060 06/02 Q1019=
201105011420 METAR ESMX 011420Z 04014KT 020V080 9999 FEW010 SCT040CB BKN050 06/03 Q1019=
201105011350 METAR ESMX 011350Z 05006KT 010V090 9999 -SHRA FEW017 BKN035CB 06/03 Q1019=
201105011320 METAR ESMX 011320Z 03013KT 9000 -SHRA FEW017 BKN030CB 06/02 Q1019=
201105011250 METAR ESMX 011250Z 12008KT 080V170 9999 FEW030 SCT050CB 09/00 Q1019=
201105011220 METAR ESMX 011220Z 05010KT 020V110 9999 FEW025 SCT050CB 10/M02 Q1018=
