##########################################################
# Query made at 04/19/2024 21:29:45 UTC
# Time interval: from 09/01/2012 12:00  to 09/30/2012 12:59  UTC
##########################################################

##########################################################
# ESMX, Vaxjo (Sweden)
# WMO index: 02641. WIGOS ID: 0-20000-0-02648
# Latitude 56-51N. Longitude 014-50E. Altitude 199 m.
##########################################################

201209301250 METAR ESMX 301250Z 24011KT 200V290 9999 SCT028 BKN049 14/08 Q1012=
201209301220 METAR ESMX 301220Z 26014KT 220V290 9999 SCT025 BKN045 13/07 Q1012=
201209301150 METAR ESMX 301150Z 25012KT 210V290 9999 FEW025 SCT028 BKN049 13/07 Q1012=
201209301120 METAR ESMX 301120Z 27013G23KT 230V300 9999 FEW024 SCT034 BKN045 13/07 Q1011=
201209301050 METAR ESMX 301050Z 27014KT 240V300 9999 FEW025 BKN049 13/08 Q1010=
201209301020 METAR ESMX 301020Z 27011G21KT 250V320 9999 FEW022 SCT033 BKN040 12/08 Q1010=
201209300950 METAR ESMX 300950Z 27015KT 9999 SCT020 BKN027 BKN034 12/08 Q1010=
201209300920 METAR ESMX 300920Z 27011KT 220V300 9999 FEW018 SCT021 BKN025 11/08 Q1009=
201209300850 METAR ESMX 300850Z 27015KT 240V300 9999 FEW015 SCT018 BKN020 11/08 Q1009=
201209300820 METAR ESMX 300820Z 26013KT 230V290 9999 FEW014 BKN016 BKN024 11/08 Q1009=
201209300750 METAR ESMX 300750Z 25014KT 220V280 9999 FEW013 SCT017 BKN020 10/08 Q1008=
201209300720 METAR ESMX 300720Z 25012G22KT 220V290 9999 FEW011 BKN014 OVC018 10/08 Q1007=
201209300650 METAR ESMX 300650Z 25010KT 210V290 9999 OVC011 10/08 Q1007=
201209300620 METAR ESMX 300620Z AUTO 24011KT 210V280 9000NDV FEW011/// BKN013/// BKN017/// 09/08 Q1006=
201209300550 METAR ESMX 300550Z AUTO 24012KT 210V280 9999NDV FEW012/// BKN015/// OVC020/// 09/07 Q1006=
201209300520 METAR ESMX 300520Z AUTO 24010KT 9999NDV FEW012/// BKN014/// OVC020/// 09/08 Q1006=
201209300450 METAR ESMX 300450Z AUTO 22011KT 9999NDV FEW011/// OVC014/// 09/08 Q1005=
201209300420 METAR ESMX 300420Z AUTO 23010KT 200V260 9999NDV FEW012/// SCT016/// BKN021/// 09/08 Q1005 REDZ=
201209300350 METAR ESMX 300350Z AUTO 23010KT 200V270 9999NDV FEW010/// SCT014/// BKN016/// 09/07 Q1005=
201209300320 METAR ESMX 300320Z AUTO 22009KT 9999NDV FEW009/// BKN012/// OVC018/// 09/08 Q1005=
201209300250 METAR ESMX 300250Z AUTO 21011KT 180V240 9999NDV FEW006/// SCT009/// BKN012/// 09/08 Q1005 REDZ=
201209300220 METAR ESMX 300220Z AUTO 22009KT 9999NDV FEW008/// SCT010/// BKN013/// 09/08 Q1005=
201209300150 METAR ESMX 300150Z AUTO 21010KT 9999NDV FEW008/// SCT011/// BKN017/// 09/08 Q1005=
201209300120 METAR ESMX 300120Z AUTO 22009KT 9999NDV FEW007/// SCT008/// BKN010/// 08/07 Q1005=
201209300050 METAR ESMX 300050Z AUTO 22009KT 9999NDV FEW006/// SCT007/// BKN009/// 08/07 Q1005=
201209300020 METAR ESMX 300020Z AUTO 22009KT 9999NDV FEW006/// SCT008/// BKN010/// 08/07 Q1006=
201209292350 METAR ESMX 292350Z AUTO 22009KT 9999NDV FEW005/// SCT008/// BKN010/// 08/07 Q1006=
201209292320 METAR ESMX 292320Z AUTO 22008KT 190V260 9999NDV FEW006/// SCT008/// BKN010/// 08/07 Q1006=
201209292250 METAR ESMX 292250Z AUTO 21008KT 9999NDV FEW005/// SCT007/// BKN008/// 08/07 Q1006=
201209292220 METAR ESMX 292220Z AUTO 21007KT 9999NDV FEW005/// SCT015/// 07/07 Q1006=
201209292150 METAR ESMX 292150Z AUTO 20006KT 9999NDV FEW020/// 07/06 Q1006=
201209292120 METAR ESMX 292120Z AUTO 19008KT 9999NDV FEW054/// 07/06 Q1006=
201209292050 METAR ESMX 292050Z AUTO 20007KT 9999NDV FEW055/// 08/07 Q1006=
201209292020 METAR ESMX 292020Z AUTO 20008KT 9999NDV FEW012/// SCT055/// 08/07 Q1006=
201209291950 METAR ESMX 291950Z AUTO 19007KT 9999NDV NCD 08/07 Q1006=
201209291920 METAR ESMX 291920Z AUTO 20007KT 9999NDV FEW016/// 08/07 Q1006=
201209291850 METAR ESMX 291850Z 20008KT CAVOK 08/07 Q1006=
201209291820 METAR ESMX 291820Z 20007KT 9999 FEW006 SCT015 BKN110 09/08 Q1006=
201209291750 METAR ESMX 291750Z 22007KT 9999 -RA FEW005 SCT007 BKN009 09/08 Q1006=
201209291720 METAR ESMX 291720Z 20005KT 9999 FEW006 SCT010 BKN013 09/08 Q1006=
201209291650 METAR ESMX 291650Z 21006KT 170V230 9999 FEW005 SCT008 BKN009 09/08 Q1006=
201209291620 METAR ESMX 291620Z 21006KT 9999 FEW007 BKN008 BKN084 09/08 Q1006=
201209291550 METAR ESMX 291550Z 22005KT 9999 FEW004 SCT008 BKN088 09/08 Q1006 REDZ=
201209291520 METAR ESMX 291520Z 20006KT 9999 -DZ FEW005 BKN008 10/09 Q1006=
201209291450 METAR ESMX 291450Z AUTO 21003KT 170V240 9999NDV -RA SCT051/// 09/08 Q1006=
201209291420 METAR ESMX 291420Z AUTO 23007KT 9999NDV RA FEW018/// SCT041/// 09/08 Q1006=
201209291350 METAR ESMX 291350Z AUTO 24006KT 5000NDV -RA FEW012/// SCT029/// BKN038/// 10/08 Q1006=
201209291320 METAR ESMX 291320Z AUTO 19011KT 9999NDV FEW012/// SCT046/// BKN076/// 13/10 Q1006=
201209291250 METAR ESMX 291250Z AUTO 20011KT 160V230 9999NDV FEW015/// BKN070/// 13/10 Q1006=
201209291220 METAR ESMX 291220Z AUTO 20009KT 9999NDV FEW009/// SCT013/// BKN019/// 12/10 Q1006=
201209291150 METAR ESMX 291150Z 19010KT 9999 FEW008 BKN012 12/10 Q1007=
201209291120 METAR ESMX 291120Z 19010KT 150V210 8000 -RA FEW006 SCT010 BKN013 12/11 Q1007=
201209291050 METAR ESMX 291050Z 17008KT 120V200 9999 SCT008 BKN012 12/10 Q1007 RERA RESHRA=
201209291020 METAR ESMX 291020Z 19011KT 5000 RA SCT011 BKN017 BKN041 12/10 Q1007=
201209290950 METAR ESMX 290950Z 19012KT 9999 OVC011 12/10 Q1007=
201209290920 METAR ESMX 290920Z 20012KT 9999 BKN011 OVC016 12/10 Q1008=
201209290850 METAR ESMX 290850Z 19012KT 9999 OVC010 12/10 Q1008=
201209290820 METAR ESMX 290820Z 19013KT 9999 FEW008 OVC009 12/10 Q1008=
201209290750 METAR ESMX 290750Z 18011KT 140V210 9999 OVC008 11/09 Q1008=
201209290720 METAR ESMX 290720Z 19011KT 9999 OVC007 11/09 Q1008=
201209290650 METAR ESMX 290650Z AUTO 17011KT 130V200 9999NDV BR OVC008/// 11/09 Q1008=
201209290620 METAR ESMX 290620Z AUTO 18010KT 150V210 8000NDV BR BKN006/// BKN009/// 10/09 Q1008=
201209290550 METAR ESMX 290550Z AUTO 17009KT 6000NDV BR FEW005/// SCT006/// BKN008/// 10/09 Q1008=
201209290520 METAR ESMX 290520Z AUTO 16007KT 120V200 5000NDV BR FEW007/// SCT051/// BKN110/// 10/09 Q1009=
201209290450 METAR ESMX 290450Z AUTO 17007KT 6000NDV BR OVC006/// 10/09 Q1009=
201209290420 METAR ESMX 290420Z AUTO 17007KT 6000NDV BR FEW006/// OVC008/// 10/09 Q1009=
201209290350 METAR ESMX 290350Z AUTO 19008KT 6000NDV BR BKN005/// OVC009/// 10/09 Q1009=
201209290320 METAR ESMX 290320Z AUTO 18010KT 140V220 6000NDV BR FEW005/// SCT007/// OVC008/// 10/09 Q1009=
201209290250 METAR ESMX 290250Z AUTO 18005KT 5000NDV BR SCT009/// 09/08 Q1010=
201209290220 METAR ESMX 290220Z AUTO 18006KT 4600NDV BR SCT006/// BKN008/// 10/08 Q1010=
201209290150 METAR ESMX 290150Z AUTO 21008KT 6000NDV BR BKN006/// OVC008/// 10/09 Q1010=
201209290120 METAR ESMX 290120Z AUTO 20009KT 6000NDV BR BKN006/// OVC009/// 10/09 Q1010=
201209290050 METAR ESMX 290050Z AUTO 19009KT 6000NDV BR OVC005/// 10/09 Q1010=
201209290020 METAR ESMX 290020Z AUTO 19008KT 6000NDV BR OVC004/// 10/09 Q1011=
201209282350 METAR ESMX 282350Z AUTO 19007KT 6000NDV BR OVC004/// 10/09 Q1011=
201209282320 METAR ESMX 282320Z AUTO 18005KT 8000NDV BR FEW007/// SCT009/// BKN011/// 10/09 Q1011=
201209282250 METAR ESMX 282250Z AUTO 19006KT 9999NDV FEW010/// BKN012/// OVC016/// 10/09 Q1011=
201209282220 METAR ESMX 282220Z AUTO 19007KT 9999NDV FEW006/// SCT008/// BKN011/// 10/09 Q1011=
201209282150 METAR ESMX 282150Z AUTO 19007KT 9999NDV FEW007/// SCT009/// BKN011/// 10/09 Q1011=
201209282120 METAR ESMX 282120Z AUTO 19008KT 9999NDV FEW008/// SCT010/// BKN012/// 10/09 Q1011=
201209282050 METAR ESMX 282050Z AUTO 19008KT 9999NDV FEW006/// SCT007/// 10/09 Q1011=
201209282020 METAR ESMX 282020Z AUTO 20007KT 9999NDV FEW030/// 09/08 Q1011=
201209281950 METAR ESMX 281950Z AUTO 20006KT 9999NDV FEW023/// 08/07 Q1011=
201209281920 METAR ESMX 281920Z AUTO 18004KT 9999NDV FEW025/// SCT036/// 08/06 Q1011=
201209281850 METAR ESMX 281850Z 16003KT 9999 FEW030 07/05 Q1011=
201209281820 METAR ESMX 281820Z 15004KT CAVOK 07/05 Q1011=
201209281750 METAR ESMX 281750Z 17003KT CAVOK 09/06 Q1011=
201209281720 METAR ESMX 281720Z 22005KT CAVOK 08/06 Q1011=
201209281650 METAR ESMX 281650Z 23004KT CAVOK 09/06 Q1011=
201209281620 METAR ESMX 281620Z 22006KT 9999 FEW047 11/06 Q1010=
201209281550 METAR ESMX 281550Z 23007KT 200V260 9999 FEW042 SCT048 12/06 Q1010=
201209281520 METAR ESMX 281520Z 24008KT 210V280 9999 FEW030 SCT049 12/06 Q1010=
201209281450 METAR ESMX 281450Z 24010KT 9999 SCT030 BKN049 12/07 Q1010=
201209281420 METAR ESMX 281420Z 24009KT 210V280 9999 SCT030 BKN049 12/06 Q1010=
201209281350 METAR ESMX 281350Z 24009KT 210V280 9999 SCT030 BKN047 12/06 Q1009=
201209281320 METAR ESMX 281320Z 24011KT 210V280 9999 FEW029 BKN049 12/06 Q1009=
201209281250 METAR ESMX 281250Z 25010KT 230V290 9999 SCT030 BKN048 12/06 Q1009=
201209281220 METAR ESMX 281220Z 26011G21KT 210V290 9999 FEW030 BKN052 12/06 Q1008=
201209281150 METAR ESMX 281150Z 26010KT 230V300 9999 FEW015 SCT030 BKN048 11/06 Q1008=
201209281120 METAR ESMX 281120Z 24008KT 200V270 9999 FEW020CB BKN050 11/07 Q1008=
201209281050 METAR ESMX 281050Z 26009KT 210V290 9999 FEW016CB BKN035 11/07 Q1007=
201209281020 METAR ESMX 281020Z 27011G21KT 240V300 9999 -SHRA FEW018CB BKN037 10/06 Q1007=
201209280950 METAR COR ESMX 280950Z 25012KT 210V290 9999 -SHRA SCT020CB SCT045 11/07 Q1007=
201209280920 METAR ESMX 280920Z 25008KT 220V290 9999 FEW016TCU SCT050 10/08 Q1006=
201209280850 METAR ESMX 280850Z 27009KT 230V300 9999 -SHRA FEW015CB BKN025 09/06 Q1006=
201209280820 METAR ESMX 280820Z 24011KT 210V280 9999 FEW010 SCT016 BKN025 11/08 Q1006=
201209280750 METAR ESMX 280750Z 23008KT 200V270 9999 FEW013 SCT018 BKN022 10/07 Q1005=
201209280720 METAR ESMX 280720Z 23009KT 200V260 9999 FEW014 SCT044 BKN049 10/08 Q1005=
201209280650 METAR ESMX 280650Z 25008KT 9999 FEW016 SCT028 BKN051 10/08 Q1005=
201209280620 METAR ESMX 280620Z 26008KT 230V290 8000 FEW009 SCT016 BKN040 09/08 Q1004 REDZ=
201209280550 METAR ESMX 280550Z 24008KT 9999 FEW012 SCT017 BKN020 10/08 Q1004=
201209280520 METAR ESMX 280520Z 25008KT 210V270 9999 SCT012 BKN045 10/08 Q1003=
201209280450 METAR ESMX 280450Z 23007KT 9999 FEW011 SCT034 10/08 Q1003=
201209280420 METAR ESMX 280420Z 24008KT 210V280 9999 FEW009 SCT013 BKN017 10/08 Q1003=
201209280350 METAR ESMX 280350Z 25007KT 200V280 9999 FEW010 BKN014 10/09 Q1002=
201209280320 METAR ESMX 280320Z AUTO 24006KT 210V290 9999NDV FEW007/// SCT009/// BKN010/// 10/09 Q1002=
201209280250 METAR ESMX 280250Z AUTO 25006KT 210V280 9999NDV FEW007/// SCT009/// BKN011/// 10/09 Q1001=
201209280220 METAR ESMX 280220Z AUTO 25007KT 210V290 9999NDV FEW007/// BKN009/// OVC014/// 10/09 Q1001=
201209280150 METAR ESMX 280150Z AUTO 23006KT 9999NDV FEW005/// SCT009/// BKN010/// 10/10 Q1001=
201209280120 METAR ESMX 280120Z AUTO 23006KT 200V260 9999NDV FEW006/// SCT012/// BKN015/// 11/10 Q1001=
201209280050 METAR ESMX 280050Z AUTO 23007KT 190V260 9000NDV -DZ FEW004/// SCT007/// BKN014/// 11/10 Q1000 REDZ=
201209280020 METAR ESMX 280020Z 19009KT 4900 DZ BKN005 11/10 Q1000=
201209272350 METAR ESMX 272350Z 18007KT 9999 FEW006 BKN008 11/10 Q1000=
201209272320 METAR ESMX 272320Z 18009KT 9999 FEW009 BKN013 11/10 Q1000=
201209272250 METAR ESMX 272250Z 19008KT 9999 BR FEW005 SCT007 BKN009 11/10 Q1000=
201209272220 METAR ESMX 272220Z 18008KT 9000 BR FEW005 BKN006 11/10 Q1000 RERA=
201209272150 METAR ESMX 272150Z 18009KT 5000 RA SCT005 BKN008 11/10 Q1000=
201209272120 METAR ESMX 272120Z 17007KT 9999 -DZ FEW006 SCT008 BKN009 11/10 Q1000=
201209272050 METAR ESMX 272050Z 18008KT 9999 SCT006 BKN008 11/10 Q1000=
201209272020 METAR ESMX 272020Z 17008KT 140V200 9999 SCT005 BKN007 11/10 Q1001=
201209271950 METAR ESMX 271950Z 18006KT 140V210 9999 -DZ FEW006 BKN007 11/10 Q1001=
201209271920 METAR ESMX 271920Z 18006KT 140V200 9999 FEW007 SCT059 11/10 Q1001 REDZ=
201209271850 METAR ESMX 271850Z 17005KT CAVOK 11/10 Q1001=
201209271820 METAR ESMX 271820Z 17005KT CAVOK 11/09 Q1001=
201209271750 METAR ESMX 271750Z 18005KT CAVOK 11/10 Q1001=
201209271720 METAR ESMX 271720Z 19003KT CAVOK 11/09 Q1001=
201209271650 METAR ESMX 271650Z 20005KT 9999 FEW020 BKN040 11/09 Q1001=
201209271620 METAR ESMX 271620Z 19006KT 9999 FEW020 BKN040 13/10 Q1001=
201209271550 METAR ESMX 271550Z 19006KT 9999 FEW020 BKN050 14/10 Q1001=
201209271520 METAR ESMX 271520Z 20007KT 9999 FEW020 BKN055 13/10 Q1001=
201209271450 METAR ESMX 271450Z 19008KT 9999 FEW020 SCT040 14/09 Q1001=
201209271420 METAR ESMX 271420Z 20009KT 9999 FEW015 SCT040TCU 15/10 Q1001=
201209271350 METAR ESMX 271350Z 19009KT 9999 FEW016 BKN030 14/10 Q1001=
201209271320 METAR ESMX 271320Z 21009KT 9999 FEW014 SCT020 BKN060 14/10 Q1001=
201209271250 METAR ESMX 271250Z 21008KT 190V250 9999 FEW010 SCT014 BKN017 13/10 Q1001=
201209271220 METAR ESMX 271220Z 21007KT 190V250 9999 FEW009 SCT012 BKN022 13/11 Q1001=
201209271150 METAR ESMX 271150Z 19008KT 150V210 8000 BR FEW007 SCT010 BKN013 12/11 Q1002=
201209271120 METAR ESMX 271120Z 19007KT 8000 BR FEW007 SCT010 BKN013 12/11 Q1002=
201209271050 METAR ESMX 271050Z 20006KT 160V240 7000 BR FEW005 SCT006 BKN008 12/10 Q1002=
201209271020 METAR ESMX 271020Z 17004KT 140V200 8000 BR FEW005 SCT010 BKN020 11/10 Q1002=
201209270950 METAR ESMX 270950Z 19006KT 6000 BR FEW005 OVC016 11/10 Q1002=
201209270920 METAR ESMX 270920Z 19007KT 5000 BR FEW004 SCT007 OVC018 11/10 Q1002=
201209270850 METAR ESMX 270850Z 21006KT 5000 BR FEW003 SCT006 BKN007 11/10 Q1002=
201209270820 METAR ESMX 270820Z 19005KT 150V230 4300 BR FEW003 BKN004 11/10 Q1002=
201209270750 METAR ESMX 270750Z 17004KT 140V210 4000 BR BKN005 BKN014 11/10 Q1002=
201209270720 METAR ESMX 270720Z 18004KT 4400 BR FEW005 OVC015 11/10 Q1001=
201209270650 METAR ESMX 270650Z 24003KT 200V280 4800 BR FEW005 OVC007 11/10 Q1001=
201209270620 METAR ESMX 270620Z VRB02KT 4400 BR FEW003 OVC005 11/10 Q1001=
201209270550 METAR ESMX 270550Z VRB02KT 2600 BR OVC004 10/09 Q1001=
201209270520 METAR ESMX 270520Z 19004KT 3400 BR BKN005 10/09 Q1001=
201209270450 METAR ESMX 270450Z 23004KT 200V260 5000 BR BKN005 10/09 Q1000=
201209270420 METAR ESMX 270420Z 22006KT 5000 BR FEW006 SCT008 10/10 Q1000=
201209270350 METAR ESMX 270350Z 22006KT 6000 BR FEW005 SCT020 11/10 Q1000=
201209270320 METAR ESMX 270320Z AUTO 21005KT 9999NDV FEW015/// SCT017/// BKN020/// 11/10 Q1001=
201209270250 METAR ESMX 270250Z AUTO 21005KT 9999NDV BKN011/// 11/10 Q1001=
201209270220 METAR ESMX 270220Z AUTO 22005KT 9999NDV FEW009/// 11/10 Q1000=
201209270150 METAR ESMX 270150Z AUTO 19005KT 9999NDV FEW009/// 10/10 Q1000=
201209270120 METAR ESMX 270120Z AUTO 22004KT 9999NDV FEW008/// SCT017/// 11/10 Q1000=
201209270050 METAR ESMX 270050Z AUTO 24006KT 200V270 9999NDV -RA FEW006/// BKN010/// BKN022/// 12/11 Q1001 REDZ=
201209270020 METAR ESMX 270020Z AUTO 23007KT 9999NDV DZ FEW006/// SCT010/// BKN100/// 12/11 Q1001=
201209262350 METAR ESMX 262350Z 25005KT 9999 FEW008 SCT011 BKN013 12/11 Q1000=
201209262320 METAR ESMX 262320Z 23004KT 9999 -RA FEW004 SCT007 BKN010 13/12 Q1000=
201209262250 METAR ESMX 262250Z 20005KT 9999 DZ SCT006 BKN007 13/12 Q1000=
201209262220 METAR ESMX 262220Z 22006KT 190V250 9999 -RA FEW005 SCT009 BKN038 13/12 Q1000=
201209262150 METAR ESMX 262150Z 22007KT 7000 -RA SCT005 BKN007 13/13 Q1000=
201209262120 METAR ESMX 262120Z 20010KT 6000 DZ FEW004 BKN006 14/13 Q1000=
201209262050 METAR ESMX 262050Z 18009KT 140V210 8000 -RA FEW005 SCT010 BKN020 14/13 Q1000 REDZ=
201209262020 METAR ESMX 262020Z 16007KT 120V180 6000 -RA FEW022 14/13 Q1000=
201209261950 METAR ESMX 261950Z 14006KT 100V170 6000 -RA FEW005 13/12 Q1000=
201209261920 METAR ESMX 261920Z 14006KT 100V190 8000 DZ SCT050 13/12 Q1000=
201209261850 METAR ESMX 261850Z 14005KT 090V180 8000 -RA SCT006 13/12 Q1000=
201209261820 METAR ESMX 261820Z 14005KT 090V180 8000 DZ FEW005 SCT009 13/12 Q1001=
201209261750 METAR ESMX 261750Z 13005KT 090V180 9999 -RA FEW005 BKN006 13/12 Q1001=
201209261720 METAR ESMX 261720Z 11004KT 070V150 9999 DZ BKN006 13/12 Q1001=
201209261650 METAR ESMX 261650Z 11004KT 050V170 9999 BKN005 13/12 Q1001=
201209261620 METAR ESMX 261620Z 11004KT 060V150 9999 BKN004 13/12 Q1001=
201209261550 METAR ESMX 261550Z 12004KT 080V170 9999 FEW005 13/12 Q1002=
201209261520 METAR ESMX 261520Z 15004KT 100V180 9999 FEW007 SCT010 BKN015 13/12 Q1002=
201209261450 METAR ESMX 261450Z 14004KT 080V190 9999 SCT006 BKN009 OVC012 13/12 Q1002=
201209261420 METAR ESMX 261420Z 10003KT 020V160 9999 FEW006 BKN008 OVC010 13/12 Q1002=
201209261350 METAR ESMX 261350Z VRB02KT 9999 BKN009 13/12 Q1003=
201209261320 METAR ESMX 261320Z 05003KT 9999 SCT015 BKN054 12/11 Q1003=
201209261250 METAR ESMX 261250Z VRB02KT 7000 -RA FEW019 BKN038 12/11 Q1004=
201209261220 METAR ESMX 261220Z 07003KT 9999 -RA BKN046 12/11 Q1004=
201209261150 METAR ESMX 261150Z VRB02KT 9999 -RA FEW037 BKN057 12/11 Q1004=
201209261120 METAR ESMX 261120Z VRB02KT 9999 -RA BKN058 12/11 Q1005=
201209261050 METAR ESMX 261050Z 13003KT 070V160 9999 -RA SCT005 BKN080 12/11 Q1005=
201209261020 METAR ESMX 261020Z VRB01KT 9000 -RA SCT007 12/10 Q1005=
201209260950 METAR ESMX 260950Z VRB01KT 9999 -DZ FEW005 BKN008 12/10 Q1005=
201209260920 METAR ESMX 260920Z 13003KT 100V170 9999 BKN005 11/10 Q1005=
201209260850 METAR ESMX 260850Z VRB02KT 9999 FEW004 BKN006 11/10 Q1005=
201209260820 METAR ESMX 260820Z VRB02KT 9999 FEW004 BKN005 11/10 Q1004=
201209260750 METAR ESMX 260750Z VRB02KT 9000 FEW002 BKN004 11/10 Q1004=
201209260720 METAR ESMX 260720Z VRB02KT 9999 SCT002 BKN005 10/10 Q1004=
201209260650 METAR ESMX 260650Z VRB02KT 8000 FEW003 BKN005 10/09 Q1003=
201209260620 METAR ESMX 260620Z VRB01KT 9999 FEW001 BKN004 10/09 Q1004=
201209260550 METAR ESMX 260550Z 16002KT 5000 R01/P2000N R19/P2000 BCFG FEW002 BKN005 09/08 Q1004=
201209260520 METAR ESMX 260520Z VRB02KT 0300 R01/P2000D R19/0900 FG NSC 08/08 Q1003=
201209260450 METAR ESMX 260450Z 19002KT 9999 R01/P2000N R19/P2000N MIFG FEW005 09/09 Q1003=
201209260420 METAR ESMX 260420Z 20003KT 9999 R01/P2000N R19/P2000N MIFG FEW005 09/09 Q1003=
201209260350 METAR ESMX 260350Z 23004KT 9999 FEW004 SCT006 10/09 Q1003=
201209260320 METAR ESMX 260320Z AUTO 22004KT 9999NDV FEW005/// SCT007/// 11/10 Q1003=
201209260250 METAR ESMX 260250Z AUTO 21006KT 9999NDV SCT005/// BKN007/// BKN009/// 12/11 Q1002=
201209260220 METAR ESMX 260220Z AUTO 21005KT 9999NDV FEW006/// SCT013/// BKN023/// 12/11 Q1003=
201209260150 METAR ESMX 260150Z AUTO 18006KT 150V220 9999NDV FEW004/// SCT022/// BKN025/// 13/12 Q1003=
201209260120 METAR ESMX 260120Z AUTO 16006KT 120V200 8000NDV BR FEW002/// SCT004/// BKN013/// 13/12 Q1002=
201209260050 METAR ESMX 260050Z AUTO 15005KT 080V190 8000NDV BR OVC003/// 13/12 Q1002=
201209260020 METAR ESMX 260020Z AUTO 14006KT 110V200 9000NDV BKN004/// OVC008/// 12/11 Q1002=
201209252350 METAR ESMX 252350Z 14006KT 100V170 9999 OVC004 12/11 Q1002 RERA=
201209252320 METAR ESMX 252320Z 19008KT 8000 -RA BKN006 OVC009 12/11 Q1002=
201209252250 METAR ESMX 252250Z 12007KT 070V200 7000 -RA OVC005 12/11 Q1002=
201209252220 METAR ESMX 252220Z 12006KT 060V170 4800 RA OVC005 12/11 Q1002=
201209252150 METAR ESMX 252150Z 11007KT 060V170 7000 BR OVC005 11/11 Q1002=
201209252120 METAR ESMX 252120Z 11006KT 030V160 8000 BR OVC005 11/10 Q1003=
201209252050 METAR ESMX 252050Z 11005KT 060V170 8000 BR OVC006 11/10 Q1003=
201209252020 METAR ESMX 252020Z 11005KT 040V160 7000 -RA OVC006 11/10 Q1003 REDZ=
201209251950 METAR ESMX 251950Z 11005KT 050V170 7000 DZ OVC006 11/10 Q1003=
201209251850 METAR ESMX 251850Z 11005KT 050V170 9999 BKN008 11/10 Q1004=
201209251820 METAR ESMX 251820Z 12005KT 030V160 9999 OVC006 11/10 Q1004=
201209251750 METAR ESMX 251750Z 11005KT 060V160 9999 BKN006 OVC010 11/10 Q1004=
201209251720 METAR ESMX 251720Z 12004KT 050V160 9999 BKN006 OVC009 11/10 Q1004=
201209251650 METAR ESMX 251650Z 10006KT 060V160 9999 BKN005 OVC007 11/10 Q1004=
201209251620 METAR ESMX 251620Z 09005KT 050V160 9999 OVC004 11/10 Q1004=
201209251550 METAR ESMX 251550Z 10004KT 040V160 9999 OVC004 11/10 Q1004=
201209251520 METAR ESMX 251520Z 11005KT 050V160 9999 SCT002 OVC004 11/10 Q1004=
201209251450 METAR ESMX 251450Z 10005KT 030V160 9999 OVC005 11/10 Q1004=
201209251420 METAR ESMX 251420Z 11005KT 050V150 9999 BKN005 OVC008 11/10 Q1004=
201209251350 METAR ESMX 251350Z 09006KT 050V130 9999 BKN006 OVC008 11/10 Q1004=
201209251320 METAR ESMX 251320Z 10005KT 050V170 9999 BKN006 OVC009 11/10 Q1004=
201209251250 METAR ESMX 251250Z 09005KT 030V130 9999 FEW004 BKN006 OVC009 11/10 Q1004=
201209251220 METAR ESMX 251220Z 08005KT 040V120 3300 BR FEW003 BKN005 BKN008 11/10 Q1004=
201209251150 METAR ESMX 251150Z 07004KT 020V110 2400 BR FEW004 BKN005 OVC007 10/09 Q1004=
201209251120 METAR ESMX 251120Z 08005KT 360V140 3600 BR FEW005 OVC006 10/09 Q1004=
201209251050 METAR ESMX 251050Z 09006KT 020V120 9999 FEW005 OVC008 10/09 Q1004=
201209251020 METAR ESMX 251020Z 08005KT 020V130 5000 BR OVC005 10/09 Q1004=
201209250950 METAR ESMX 250950Z 08006KT 030V120 5000 BR SCT005 OVC007 10/09 Q1004=
201209250920 METAR ESMX 250920Z 07007KT 040V120 3500 BR BKN005 09/09 Q1004=
201209250850 METAR ESMX 250850Z 08005KT 030V150 4900 BR FEW005 BKN008 09/08 Q1004=
201209250820 METAR ESMX 250820Z 08006KT 360V140 3800 BR FEW005 SCT006 BKN007 09/08 Q1004=
201209250750 METAR ESMX 250750Z 08006KT 040V120 3000 BR SCT005 BKN007 09/08 Q1003=
201209250720 METAR ESMX 250720Z 08005KT 020V140 3200 -DZ SCT005 BKN008 09/08 Q1003=
201209250650 METAR ESMX 250650Z 08005KT 010V140 3400 -DZ FEW005 BKN006 08/08 Q1004=
201209250620 METAR ESMX 250620Z 07005KT 040V120 2500 DZ BKN006 OVC009 08/08 Q1003=
201209250550 METAR ESMX 250550Z 08006KT 050V130 9999 OVC008 08/07 Q1003=
201209250520 METAR ESMX 250520Z 08005KT 030V120 9999 FEW008 BKN010 08/07 Q1003=
201209250450 METAR ESMX 250450Z 05006KT 360V100 9999 -RA FEW006 SCT008 BKN009 08/07 Q1003=
201209250420 METAR ESMX 250420Z 07007KT 020V110 6000 -RA FEW005 SCT007 BKN008 08/07 Q1003=
201209250350 METAR ESMX 250350Z 08005KT 020V130 5000 RA FEW006 BKN007 OVC010 08/07 Q1003=
201209250320 METAR ESMX 250320Z AUTO 08007KT 050V140 8000NDV -RA FEW007/// SCT009/// BKN010/// 08/07 Q1003=
201209250250 METAR ESMX 250250Z AUTO 08007KT 030V160 9999NDV DZ FEW008/// SCT010/// BKN012/// 08/07 Q1003=
201209250220 METAR ESMX 250220Z AUTO 08007KT 030V110 9999NDV -DZ FEW007/// SCT010/// BKN022/// 08/07 Q1003=
201209250150 METAR ESMX 250150Z AUTO 07007KT 040V120 9999NDV -RA FEW009/// BKN033/// BKN041/// 08/07 Q1003=
201209250120 METAR ESMX 250120Z AUTO 08007KT 030V120 9999NDV -RA FEW008/// SCT013/// BKN032/// 08/07 Q1004=
201209250050 METAR ESMX 250050Z AUTO 09005KT 040V140 9000NDV RA FEW007/// BKN010/// BKN048/// 08/07 Q1004=
201209250020 METAR ESMX 250020Z AUTO 07008KT 360V110 9000NDV -RA FEW009/// SCT051/// 08/07 Q1003=
201209242350 METAR ESMX 242350Z 08008KT 360V110 9999 -RA FEW010 SCT025 08/06 Q1004=
201209242320 METAR ESMX 242320Z 08009KT 030V110 9999 -RA FEW026 07/06 Q1004=
201209242250 METAR ESMX 242250Z 08006KT 020V120 9000 -RA FEW030 08/06 Q1005=
201209242220 METAR ESMX 242220Z 09007KT 010V120 9999 -RA FEW023 08/06 Q1005=
201209242150 METAR ESMX 242150Z 09006KT 030V160 9999 -RA FEW025 08/06 Q1005=
201209242120 METAR ESMX 242120Z 09005KT 010V140 9999 DZ FEW026 SCT030 08/05 Q1006=
201209242050 METAR ESMX 242050Z 09006KT 030V140 9999 FEW022 08/05 Q1006=
201209242020 METAR ESMX 242020Z 08005KT 020V140 9999 FEW017 08/05 Q1006=
201209241950 METAR ESMX 241950Z 08006KT 030V120 9999 FEW018 08/05 Q1006=
201209241920 METAR ESMX 241920Z 07007KT 030V120 9999 FEW016 08/05 Q1006=
201209241850 METAR ESMX 241850Z 08008KT 020V120 9999 FEW019 08/04 Q1006=
201209241820 METAR ESMX 241820Z 08007KT 020V120 9999 SCT017 08/04 Q1007=
201209241750 METAR ESMX 241750Z 09007KT 360V150 9999 SCT018 08/04 Q1007=
201209241720 METAR ESMX 241720Z 09007KT 040V140 9999 FEW022 08/04 Q1008=
201209241650 METAR ESMX 241650Z 08007KT 050V140 9999 FEW023 09/04 Q1007=
201209241620 METAR ESMX 241620Z 08006KT 040V140 9999 FEW033 10/05 Q1007=
201209241550 METAR ESMX 241550Z 08006KT 030V130 9999 FEW032 10/05 Q1007=
201209241520 METAR ESMX 241520Z 08005KT 030V120 9999 FEW032 11/04 Q1008=
201209241450 METAR ESMX 241450Z 08006KT 030V140 CAVOK 11/05 Q1008=
201209241420 METAR ESMX 241420Z 08005KT 020V130 CAVOK 12/04 Q1008=
201209241350 METAR ESMX 241350Z 06006KT 020V120 9999 FEW048 12/04 Q1008=
201209241320 METAR ESMX 241320Z 06007KT 020V110 CAVOK 12/04 Q1008=
201209241250 METAR ESMX 241250Z 08005KT 020V140 CAVOK 12/02 Q1008=
201209241220 METAR ESMX 241220Z 09006KT 030V140 CAVOK 13/02 Q1009=
201209241150 METAR ESMX 241150Z 05006KT 020V110 CAVOK 13/03 Q1009=
201209241120 METAR ESMX 241120Z 06006KT 350V110 9999 FEW020 13/04 Q1009=
201209241050 METAR ESMX 241050Z 08007KT 020V120 9999 FEW020 12/04 Q1010=
201209241020 METAR ESMX 241020Z 03009KT 360V060 9999 FEW023 11/04 Q1010=
201209240950 METAR ESMX 240950Z 04008KT 340V070 9999 FEW020 11/04 Q1010=
201209240920 METAR ESMX 240920Z 04007KT 010V090 9999 FEW020 11/05 Q1011=
201209240850 METAR ESMX 240850Z 06008KT 020V100 9999 FEW020 11/05 Q1011=
201209240820 METAR ESMX 240820Z 06007KT 020V100 9999 FEW010 10/05 Q1011=
201209240750 METAR ESMX 240750Z 04008KT 9999 FEW010 09/06 Q1011=
201209240720 METAR ESMX 240720Z 03007KT 350V070 9999 FEW010 08/06 Q1011=
201209240650 METAR ESMX 240650Z 03005KT 350V070 9999 FEW010 08/06 Q1012=
201209240620 METAR ESMX 240620Z 02005KT 9999 FEW015 06/06 Q1012=
201209240550 METAR ESMX 240550Z 02002KT 9999 FEW010 05/05 Q1012=
201209240520 METAR ESMX 240520Z VRB01KT 9999 FEW008 06/05 Q1012=
201209240450 METAR ESMX 240450Z 02006KT 9999 BKN007 07/06 Q1012=
201209240420 METAR ESMX 240420Z 02006KT 350V050 9999 OVC007 07/06 Q1012=
201209240350 METAR ESMX 240350Z 03005KT 010V070 9999 OVC005 07/06 Q1012=
201209240320 METAR ESMX 240320Z AUTO 02007KT 9999NDV BKN005/// OVC009/// 07/06 Q1012=
201209240250 METAR ESMX 240250Z AUTO 02005KT 9999NDV FEW005/// BKN052/// 07/06 Q1012=
201209240220 METAR ESMX 240220Z AUTO 02005KT 9999NDV BKN006/// OVC009/// 08/07 Q1012=
201209240150 METAR ESMX 240150Z AUTO 02006KT 9999NDV FEW006/// SCT009/// OVC053/// 07/07 Q1012=
201209240120 METAR ESMX 240120Z AUTO 01003KT 9999NDV OVC052/// 06/06 Q1012=
201209240050 METAR ESMX 240050Z AUTO 01003KT 9999NDV FEW006/// OVC053/// 06/05 Q1013=
201209240020 METAR ESMX 240020Z AUTO 00000KT 6000NDV BR FEW004/// OVC053/// 05/05 Q1013=
201209232350 METAR ESMX 232350Z AUTO 00000KT 7000NDV BR BKN004/// OVC053/// 06/05 Q1013=
201209232320 METAR ESMX 232320Z 30001KT 9999 FEW005 OVC052 05/04 Q1013=
201209232250 METAR ESMX 232250Z 30001KT 9999 FEW006 OVC052 05/04 Q1013=
201209232220 METAR ESMX 232220Z 30001KT 9999 FEW007 BKN050 04/03 Q1013=
201209232150 METAR ESMX 232150Z 30001KT 9999 BKN049 03/03 Q1013=
201209232120 METAR ESMX 232120Z 00000KT 7000 BR BKN051 03/03 Q1013=
201209232050 METAR ESMX 232050Z VRB01KT 4600 BR NSC 04/03 Q1013=
201209232020 METAR ESMX 232020Z 18001KT 0750 R01/P2000N R19/P2000N FG NSC 04/04 Q1013=
201209231950 METAR ESMX 231950Z 31001KT 0750 R01/P2000 R19/P2000N FG NSC 04/04 Q1013=
201209231920 METAR ESMX 231920Z 01001KT 5000 BCFG NSC 04/03 Q1013=
201209231850 METAR ESMX 231850Z 33001KT 5000 BCFG FEW056 05/04 Q1013=
201209231820 METAR ESMX 231820Z 27002KT 5000 BCFG FEW057 06/05 Q1013=
201209231750 METAR ESMX 231750Z VRB01KT 9000 MIFG BKN057 07/06 Q1013=
201209231720 METAR ESMX 231720Z 29002KT 9999 MIFG SCT055 08/07 Q1013=
201209231650 METAR ESMX 231650Z 33003KT 9999 FEW020 SCT050 10/07 Q1013=
201209231620 METAR ESMX 231620Z 33003KT 280V360 9999 FEW020 BKN045 10/07 Q1013=
201209231550 METAR ESMX 231550Z 35006KT 9999 FEW015 BKN045 11/07 Q1013=
201209231520 METAR ESMX 231520Z 35005KT 9999 FEW015 BKN040 11/07 Q1013=
201209231450 METAR ESMX 231450Z 33004KT 290V360 9999 FEW017 BKN039 BKN054 11/08 Q1013=
201209231420 METAR ESMX 231420Z 33004KT 300V010 9999 FEW017 BKN046 11/08 Q1013=
201209231350 METAR ESMX 231350Z 33006KT 9999 FEW043 SCT048 BKN055 12/08 Q1013=
201209231320 METAR ESMX 231320Z 35006KT 310V010 9999 -RA FEW020TCU SCT047 11/07 Q1012=
201209231250 METAR ESMX 231250Z 34006KT 9999 FEW015TCU BKN040 12/08 Q1012=
201209231220 METAR ESMX 231220Z 02006KT 320V060 9999 FEW015TCU BKN040 11/08 Q1012=
201209231150 METAR ESMX 231150Z 36006KT 320V030 9999 FEW030 BKN042 OVC057 11/08 Q1012=
201209231120 METAR ESMX 231120Z 03010KT 9999 DZ SCT015 BKN035 11/07 Q1012=
201209231050 METAR ESMX 231050Z 33007KT 290V360 9999 FEW012 SCT036 BKN043 11/08 Q1012=
201209231020 METAR ESMX 231020Z 01006KT 330V060 9999 FEW020 SCT053 BKN066 11/08 Q1012=
201209230950 METAR ESMX 230950Z 35006KT 320V020 9999 FEW009 SCT013 BKN016 10/08 Q1011=
201209230920 METAR ESMX 230920Z 36006KT 330V050 9999 SCT009 BKN017 10/08 Q1011=
201209230850 METAR ESMX 230850Z 33006KT 300V010 9999 SCT010 BKN030 10/08 Q1011=
201209230820 METAR ESMX 230820Z 36006KT 310V030 9999 FEW012 SCT033 OVC047 09/08 Q1011=
201209230750 METAR ESMX 230750Z 02007KT 9999 -DZ FEW006 SCT009 BKN020 09/08 Q1010 REDZ=
201209230720 METAR ESMX 230720Z 36008KT 9999 -RA FEW006 SCT010 BKN014 09/08 Q1010=
201209230650 METAR ESMX 230650Z AUTO 35008KT 9999NDV -RA FEW006/// SCT011/// BKN014/// 09/08 Q1009=
201209230620 METAR ESMX 230620Z AUTO 33006KT 9999NDV -RA FEW005/// BKN012/// BKN016/// 09/08 Q1009=
201209230550 METAR ESMX 230550Z AUTO 33007KT 9999NDV -RA FEW004/// BKN006/// OVC008/// 08/08 Q1009 REDZ=
201209230520 METAR ESMX 230520Z AUTO 30007KT 270V330 9999NDV -DZ SCT006/// OVC009/// 08/07 Q1008=
201209230450 METAR ESMX 230450Z AUTO 29007KT 9999NDV -DZ FEW006/// SCT008/// OVC009/// 08/07 Q1008 RERA=
201209230420 METAR ESMX 230420Z AUTO 29007KT 3400NDV -RA FEW005/// BKN007/// OVC010/// 08/07 Q1008=
201209230350 METAR ESMX 230350Z AUTO 28006KT 6000NDV RA FEW005/// BKN007/// OVC010/// 08/07 Q1007=
201209230320 METAR ESMX 230320Z AUTO 29006KT 9999NDV -RA FEW006/// BKN008/// OVC036/// 08/07 Q1007=
201209230250 METAR ESMX 230250Z AUTO 29006KT 9999NDV -RA FEW005/// SCT007/// OVC009/// 08/07 Q1007 REDZ=
201209230220 METAR ESMX 230220Z AUTO 29006KT 260V320 9999NDV -DZ FEW006/// OVC007/// 08/07 Q1007=
201209230150 METAR ESMX 230150Z AUTO 29005KT 9999NDV -RA FEW003/// SCT008/// BKN011/// 08/07 Q1007=
201209230120 METAR ESMX 230120Z AUTO 29005KT 5000NDV -RA FEW003/// BKN005/// OVC008/// 07/07 Q1007 REDZ=
201209230050 METAR ESMX 230050Z AUTO 28004KT 250V310 9000NDV FEW003/// SCT011/// OVC014/// 07/07 Q1007=
201209230020 METAR ESMX 230020Z AUTO 28004KT 9999NDV OVC013/// 07/06 Q1007=
201209222350 METAR ESMX 222350Z AUTO 29004KT 9999NDV FEW006/// SCT014/// OVC016/// 07/06 Q1007=
201209222320 METAR ESMX 222320Z AUTO 30005KT 270V330 9999NDV FEW006/// SCT007/// BKN016/// 07/06 Q1006=
201209222250 METAR ESMX 222250Z AUTO 30005KT 9999NDV -DZ FEW008/// BKN011/// BKN015/// 07/06 Q1006=
201209222220 METAR ESMX 222220Z AUTO 30003KT 9999NDV DZ FEW008/// BKN043/// BKN053/// 07/06 Q1006=
201209222150 METAR ESMX 222150Z AUTO 30004KT 9999NDV -DZ SCT010/// BKN015/// OVC034/// 07/06 Q1006=
201209222120 METAR ESMX 222120Z 31004KT 5000 -DZ FEW004 SCT008 BKN023 07/07 Q1006=
201209222050 METAR ESMX 222050Z VRB02KT 4900 DZ SCT004 BKN008 08/07 Q1006=
201209222020 METAR ESMX 222020Z 02002KT 9999 RA BKN011 OVC015 08/07 Q1005=
201209221950 METAR ESMX 221950Z 02002KT 9999 RA BKN007 OVC015 08/07 Q1005=
201209221920 METAR ESMX 221920Z VRB02KT 9999 DZ BKN011 OVC015 08/07 Q1005=
201209221850 METAR ESMX 221850Z 02002KT 4400 RA OVC014 08/07 Q1005=
201209221820 METAR ESMX 221820Z 04003KT 010V090 9999 -RA OVC014 08/07 Q1005=
201209221750 METAR ESMX 221750Z 06003KT 020V100 9999 -RA OVC011 08/07 Q1005 REDZ=
201209221720 METAR ESMX 221720Z AUTO 06004KT 020V110 9000NDV DZ SCT007/// OVC010/// 08/07 Q1005=
201209221650 METAR ESMX 221650Z AUTO 08003KT 050V130 6000NDV DZ FEW003/// BKN005/// OVC007/// 09/08 Q1005=
201209221620 METAR ESMX 221620Z AUTO VRB01KT 9000NDV DZ FEW004/// SCT008/// BKN011/// 09/08 Q1005=
201209221550 METAR ESMX 221550Z AUTO 11004KT 050V160 9000NDV -RA FEW006/// SCT015/// BKN019/// 09/08 Q1004=
201209221520 METAR ESMX 221520Z AUTO 12003KT 070V170 8000NDV -RA FEW005/// SCT017/// BKN020/// 09/08 Q1004=
201209221450 METAR ESMX 221450Z AUTO VRB02KT 8000NDV DZ FEW006/// SCT009/// BKN011/// 10/08 Q1004=
201209221420 METAR ESMX 221420Z AUTO 10003KT 070V150 9999NDV -RA FEW008/// SCT011/// BKN015/// 10/09 Q1004=
201209221350 METAR ESMX 221350Z AUTO VRB02KT 9999NDV DZ FEW007/// SCT049/// 10/09 Q1004=
201209221320 METAR ESMX 221320Z AUTO 14003KT 090V170 9999NDV -DZ FEW009/// SCT046/// 10/09 Q1004=
201209221250 METAR ESMX 221250Z AUTO 16004KT 110V190 9999NDV -DZ FEW009/// OVC035/// 10/09 Q1004=
201209221220 METAR ESMX 221220Z AUTO 16004KT 120V190 9000NDV DZ FEW008/// SCT016/// BKN029/// 10/09 Q1004=
201209221150 METAR ESMX 221150Z AUTO 17006KT 140V210 9999NDV DZ FEW007/// SCT009/// BKN014/// 10/09 Q1004=
201209221120 METAR ESMX 221120Z AUTO 17004KT 120V210 9999NDV -RA FEW005/// SCT008/// BKN009/// 10/09 Q1005 REDZ=
201209221050 METAR ESMX 221050Z AUTO 17005KT 140V200 9999NDV DZ FEW006/// SCT009/// BKN011/// 10/09 Q1005=
201209221020 METAR ESMX 221020Z AUTO 16005KT 130V200 9999NDV DZ FEW006/// SCT009/// 10/09 Q1005=
201209220950 METAR COR ESMX 220950Z 15006KT 100V200 9999 DZ FEW005 BKN008 10/09 Q1005=
201209220920 METAR ESMX 220920Z AUTO 16007KT 120V230 9999NDV DZ FEW006/// SCT008/// BKN009/// 10/09 Q1005=
201209220850 METAR ESMX 220850Z 16005KT 120V200 9999 DZ FEW006 SCT008 BKN011 10/09 Q1005=
201209220820 METAR ESMX 220820Z 16007KT 120V190 9999 -RA FEW005 SCT007 BKN008 10/09 Q1005=
201209220750 METAR ESMX 220750Z 16006KT 110V200 6000 -RA FEW003 BKN005 OVC009 10/09 Q1005 REDZ=
201209220720 METAR ESMX 220720Z 14004KT 090V200 4200 -RA SCT002 BKN005 10/10 Q1005=
201209220650 METAR ESMX 220650Z AUTO VRB02KT 2500NDV DZ BKN001/// BKN005/// 10/09 Q1006=
201209220620 METAR ESMX 220620Z AUTO VRB02KT 2700NDV -DZ FEW002/// SCT031/// 10/09 Q1006=
201209220550 METAR ESMX 220550Z AUTO 12002KT 2800NDV -DZ FEW046/// 09/09 Q1006=
201209220520 METAR ESMX 220520Z AUTO VRB02KT 4000NDV DZ FEW053/// 09/09 Q1006=
201209220450 METAR ESMX 220450Z AUTO 16003KT 4600NDV -DZ FEW005/// SCT010/// BKN056/// 09/09 Q1006 REDZ=
201209220420 METAR ESMX 220420Z AUTO 17004KT 140V200 5000NDV DZ FEW007/// BKN008/// 09/09 Q1007=
201209220350 METAR ESMX 220350Z AUTO 16004KT 140V200 6000NDV DZ FEW007/// SCT047/// 09/08 Q1007=
201209220320 METAR ESMX 220320Z AUTO 16005KT 120V200 7000NDV -RA FEW011/// 09/09 Q1007 REDZ=
201209220250 METAR ESMX 220250Z AUTO 17006KT 140V200 7000NDV DZ FEW007/// SCT011/// BKN045/// 09/08 Q1007=
201209220220 METAR ESMX 220220Z AUTO 18006KT 9000NDV DZ FEW041/// SCT048/// 09/08 Q1007=
201209220150 METAR ESMX 220150Z AUTO 18008KT 8000NDV -RA FEW023/// SCT036/// BKN044/// 09/08 Q1008=
201209220120 METAR ESMX 220120Z AUTO 18009KT 150V220 9000NDV -RA FEW028/// SCT047/// 10/08 Q1008=
201209220050 METAR ESMX 220050Z AUTO 18009KT 140V200 8000NDV -RA FEW019/// SCT028/// BKN031/// 10/08 Q1008=
201209220020 METAR ESMX 220020Z AUTO 17009KT 8000NDV -RA BKN037/// 10/08 Q1008 REDZ=
201209212350 METAR ESMX 212350Z AUTO 16007KT 120V190 8000NDV DZ FEW036/// SCT047/// 09/08 Q1009=
201209212320 METAR ESMX 212320Z AUTO 16006KT 110V200 9000NDV -RA FEW035/// BKN043/// 09/08 Q1009 REDZ=
201209212250 METAR ESMX 212250Z AUTO 16006KT 140V200 9000NDV -RA FEW032/// BKN045/// 09/08 Q1009=
201209212220 METAR ESMX 212220Z AUTO 15007KT 100V190 9999NDV DZ FEW035/// BKN044/// 09/08 Q1009=
201209212150 METAR ESMX 212150Z AUTO 16008KT 130V200 9999NDV -RA BKN045/// 09/08 Q1010=
201209212120 METAR ESMX 212120Z AUTO 16008KT 120V200 9999NDV -RA FEW032/// SCT042/// BKN047/// 10/08 Q1010=
201209212050 METAR ESMX 212050Z AUTO 16009KT 110V200 9999NDV -RA BKN040/// 10/08 Q1010 REDZ=
201209212020 METAR ESMX 212020Z AUTO 18010KT 140V220 9999NDV DZ SCT046/// 10/08 Q1010=
201209211950 METAR ESMX 211950Z AUTO 19011KT 160V230 9999NDV DZ FEW038/// BKN047/// 10/08 Q1011=
201209211920 METAR ESMX 211920Z AUTO 17011KT 130V210 9999NDV DZ BKN048/// 10/08 Q1011=
201209211850 METAR ESMX 211850Z 17009KT 130V200 9999 -RA BKN043 10/08 Q1011=
201209211820 METAR ESMX 211820Z 17009KT 130V200 9999 DZ OVC046 11/08 Q1011=
201209211750 METAR ESMX 211750Z 16009KT 120V190 9999 -DZ OVC048 11/08 Q1011=
201209211720 METAR ESMX 211720Z 16009KT 110V200 9999 -DZ OVC051 11/08 Q1011=
201209211650 METAR ESMX 211650Z 16008KT 120V190 CAVOK 11/08 Q1011=
201209211620 METAR ESMX 211620Z 17008KT 130V210 9999 FEW030 BKN056 11/09 Q1011=
201209211550 METAR ESMX 211550Z 17009KT 140V200 9999 SCT030 BKN058 11/09 Q1012=
201209211520 METAR ESMX 211520Z 17008KT 140V210 9999 FEW013 SCT031 11/10 Q1012=
201209211450 METAR ESMX 211450Z 16009KT 110V200 9999 -DZ FEW007 SCT012 BKN015 12/10 Q1012=
201209211420 METAR ESMX 211420Z 17008KT 140V200 9999 FEW009 BKN015 BKN019 12/11 Q1012=
201209211350 METAR ESMX 211350Z 16010KT 130V200 9999 DZ FEW010 BKN014 BKN019 12/10 Q1012=
201209211320 METAR ESMX 211320Z 17011KT 120V210 9999 -DZ FEW011 SCT014 BKN017 12/10 Q1013=
201209211250 METAR ESMX 211250Z 17010KT 130V200 9999 -DZ FEW008 BKN012 OVC017 11/10 Q1013=
201209211220 METAR ESMX 211220Z 19009KT 160V220 9999 -RA FEW007 SCT010 BKN013 11/10 Q1013=
201209211150 METAR ESMX 211150Z 17009KT 120V200 9999 -RA SCT006 BKN009 OVC011 11/10 Q1013=
201209211120 METAR ESMX 211120Z 18008KT 140V220 5000 -RA FEW004 SCT006 BKN008 11/10 Q1013=
201209211050 METAR ESMX 211050Z 17007KT 120V190 4000 RA FEW003 SCT006 BKN008 10/10 Q1014=
201209211020 METAR ESMX 211020Z 16003KT 110V210 3400 RA FEW002 SCT003 BKN004 10/09 Q1014=
201209210950 METAR ESMX 210950Z 13004KT 100V170 4200 RA FEW003 SCT005 BKN007 10/09 Q1014=
201209210920 METAR ESMX 210920Z 15004KT 110V180 6000 RA SCT002 BKN005 OVC007 09/09 Q1015=
201209210850 METAR ESMX 210850Z 12004KT 070V170 8000 -RA OVC003 09/08 Q1015=
201209210820 METAR ESMX 210820Z 11003KT 050V150 9999 -RA SCT002 BKN004 OVC007 09/08 Q1015=
201209210750 METAR ESMX 210750Z 13003KT 070V170 7000 RA FEW002 OVC003 09/08 Q1015=
201209210720 METAR ESMX 210720Z VRB02KT 6000 RA BKN002 OVC005 08/08 Q1015=
201209210650 METAR ESMX 210650Z 12003KT 100V170 5000 RA BKN002 08/08 Q1016=
201209210620 METAR ESMX 210620Z 15003KT 100V190 6000 -RA SCT002 BKN005 OVC008 08/08 Q1016=
201209210550 METAR ESMX 210550Z 14003KT 110V190 9999 OVC002 08/07 Q1016=
201209210520 METAR ESMX 210520Z 15003KT 120V190 9000 BKN002 OVC046 08/07 Q1016=
201209210450 METAR ESMX 210450Z 17003KT 9999 BKN002 OVC048 07/07 Q1016=
201209210420 METAR ESMX 210420Z 16004KT 130V190 9999 SCT003 BKN041 BKN074 07/07 Q1016=
201209210350 METAR ESMX 210350Z 17005KT 130V190 9999 BKN038 07/07 Q1016=
201209210320 METAR ESMX 210320Z AUTO 19003KT 9999NDV BKN046/// 07/06 Q1016=
201209210250 METAR ESMX 210250Z AUTO 20004KT 9999NDV SCT040/// BKN100/// 07/06 Q1016=
201209210220 METAR ESMX 210220Z AUTO 20004KT 9999NDV BKN038/// OVC050/// 07/07 Q1016=
201209210150 METAR ESMX 210150Z AUTO 19004KT 9999NDV FEW036/// BKN040/// BKN057/// 07/06 Q1016=
201209210120 METAR ESMX 210120Z AUTO 20003KT 9999NDV FEW047/// BKN058/// BKN076/// 07/06 Q1016=
201209210050 METAR ESMX 210050Z AUTO 19006KT 9999NDV BKN038/// 08/07 Q1016=
201209210020 METAR ESMX 210020Z 21005KT 9999 -DZ FEW020CB SCT040 08/07 Q1016=
201209202350 METAR ESMX 202350Z 19005KT 9999 -RA FEW006 SCT020CB BKN025 08/07 Q1016=
201209202320 METAR ESMX 202320Z 20004KT 9999 -DZ FEW028CB BKN041 08/07 Q1016=
201209202250 METAR ESMX 202250Z 21006KT 9999 -RA FEW025CB SCT040 08/07 Q1016=
201209202220 METAR ESMX 202220Z 20005KT CAVOK 07/06 Q1016=
201209202150 METAR ESMX 202150Z 19005KT CAVOK 07/06 Q1016=
201209202120 METAR ESMX 202120Z 18006KT CAVOK 07/06 Q1016=
201209202050 METAR ESMX 202050Z 18006G16KT 9999 FEW027 SCT072 07/07 Q1016=
201209202020 METAR ESMX 202020Z 21004KT 9999 FEW010 BKN056 07/07 Q1016=
201209201950 METAR ESMX 201950Z 20005KT 9999 FEW034 SCT055 08/07 Q1016=
201209201920 METAR ESMX 201920Z 19005KT 9999 SCT029 08/07 Q1016=
201209201850 METAR ESMX 201850Z 19005KT 9999 FEW020 SCT038 BKN043 08/07 Q1016=
201209201820 METAR ESMX 201820Z 21006KT 9999 FEW031 SCT070 08/07 Q1015=
201209201750 METAR ESMX 201750Z 18006KT 9999 VCSH FEW015CB BKN024 09/07 Q1015=
201209201720 METAR ESMX 201720Z 25005KT 9999 SHRA FEW015CB BKN046 09/07 Q1015=
201209201650 METAR ESMX 201650Z 24005KT 9999 FEW048 SCT059 BKN076 09/06 Q1015=
201209201620 METAR ESMX 201620Z 21007KT 180V240 9999 SCT043 BKN053 10/06 Q1015=
201209201550 METAR ESMX 201550Z 21009KT 9999 VCSH FEW030 SCT045 10/05 Q1015=
201209201520 METAR ESMX 201520Z 22012KT 180V250 9999 FEW026 SCT033 11/06 Q1014=
201209201450 METAR ESMX 201450Z 23011KT 200V270 9999 SCT030 12/06 Q1014=
201209201420 METAR ESMX 201420Z 24009KT 200V270 9999 FEW023 SCT033 BKN040 11/06 Q1014=
201209201350 METAR ESMX 201350Z 21015KT 170V240 9999 FEW029 SCT043 12/06 Q1014=
201209201320 METAR ESMX 201320Z 22013KT 9999 FEW019 SCT038 12/06 Q1014=
201209201250 METAR ESMX 201250Z 22013KT 180V260 9999 FEW024 SCT030 12/06 Q1014=
201209201220 METAR ESMX 201220Z 21016KT 160V230 9999 SCT040 13/07 Q1014=
201209201150 METAR ESMX 201150Z 20013KT 9999 FEW016 SCT041 11/07 Q1014=
201209201120 METAR ESMX 201120Z 22014KT 190V250 9999 FEW024 SCT040 12/07 Q1014=
201209201050 METAR ESMX 201050Z 22013KT 9999 FEW023 SCT047 11/07 Q1014=
201209201020 METAR ESMX 201020Z 22016KT 200V260 9999 -RA FEW012 SCT023 BKN035 11/07 Q1014=
201209200950 METAR ESMX 200950Z 21015KT 170V240 9999 FEW020 SCT026 BKN044 11/06 Q1014=
201209200920 METAR ESMX 200920Z 22016KT 9999 FEW020 SCT024 BKN044 11/06 Q1014=
201209200850 METAR ESMX 200850Z 23010KT 200V270 9999 FEW016 SCT020 BKN025 10/06 Q1014=
201209200820 METAR ESMX 200820Z 21009KT 190V250 9999 FEW013 SCT018 BKN020 10/07 Q1014=
201209200750 METAR ESMX 200750Z 21008KT 9999 FEW015 SCT041 09/06 Q1013=
201209200720 METAR ESMX 200720Z 21008KT 170V240 9999 FEW015 08/06 Q1013=
201209200650 METAR ESMX 200650Z 20009KT 9999 FEW015 07/06 Q1013=
201209200620 METAR ESMX 200620Z 21008KT CAVOK 07/05 Q1013=
201209200550 METAR ESMX 200550Z 21008KT 9999 FEW010 05/05 Q1013=
201209200520 METAR ESMX 200520Z 18007KT CAVOK 05/04 Q1012=
201209200450 METAR ESMX 200450Z 21007KT CAVOK 05/04 Q1012=
201209200420 METAR ESMX 200420Z 20007KT CAVOK 05/04 Q1012=
201209200350 METAR ESMX 200350Z 19007KT 9999 FEW036 06/05 Q1012=
201209200320 METAR ESMX 200320Z AUTO 24006KT 200V270 9000NDV -RA FEW026/// 06/05 Q1012=
201209200250 METAR ESMX 200250Z AUTO 21006KT 9999NDV FEW026/// 06/05 Q1012=
201209200220 METAR ESMX 200220Z AUTO 22007KT 9999NDV FEW023/// SCT034/// 06/05 Q1012=
201209200150 METAR ESMX 200150Z AUTO 22007KT 9999NDV NCD 05/04 Q1011=
201209200120 METAR ESMX 200120Z AUTO 21006KT 9999NDV FEW029/// 06/04 Q1011=
201209200050 METAR ESMX 200050Z AUTO 22007KT 9999NDV NCD 06/05 Q1011=
201209200020 METAR ESMX 200020Z AUTO 21007KT 9999NDV NCD 05/04 Q1011=
201209192350 METAR ESMX 192350Z 20007KT CAVOK 06/05 Q1011=
201209192320 METAR ESMX 192320Z 21007KT CAVOK 06/05 Q1011=
201209192250 METAR ESMX 192250Z 22007KT CAVOK 06/05 Q1011=
201209192220 METAR ESMX 192220Z 23006KT CAVOK 06/05 Q1011=
201209192150 METAR ESMX 192150Z 22007KT CAVOK 07/05 Q1010=
201209192120 METAR ESMX 192120Z 21008KT 170V240 CAVOK 07/06 Q1010=
201209192050 METAR ESMX 192050Z 21008KT 9999 FEW028 07/05 Q1010=
201209192020 METAR ESMX 192020Z 22008KT CAVOK 07/05 Q1009=
201209191950 METAR ESMX 191950Z 22008KT 9999 FEW034 07/06 Q1009=
201209191920 METAR ESMX 191920Z 20008KT 9999 FEW032 07/05 Q1009=
201209191850 METAR ESMX 191850Z 22006KT 9999 FEW031 07/05 Q1009=
201209191820 METAR ESMX 191820Z 20009KT 9999 -RA FEW021CB 08/06 Q1009=
201209191750 METAR ESMX 191750Z 23008KT 9999 VCSH FEW040CB 08/06 Q1008=
201209191720 METAR ESMX 191720Z 22009KT 9999 VCSH FEW030CB 09/06 Q1008=
201209191650 METAR ESMX 191650Z 22011KT 9999 FEW035 10/05 Q1008=
201209191620 METAR ESMX 191620Z 22010KT 190V250 9999 FEW040 10/06 Q1007=
201209191550 METAR ESMX 191550Z 24007KT 9999 FEW045 11/06 Q1007=
201209191520 METAR ESMX 191520Z 24009KT 200V280 9999 FEW042 11/05 Q1007=
201209191450 METAR ESMX 191450Z 25012KT 220V280 9999 FEW036 SCT042 13/06 Q1006=
201209191420 METAR ESMX 191420Z 25012G22KT 210V290 9999 FEW025 SCT044 12/07 Q1006=
201209191350 METAR ESMX 191350Z 26012KT 230V320 9999 SCT018 12/07 Q1006=
201209191320 METAR ESMX 191320Z 23013KT 200V260 9999 RA FEW017 SCT022 BKN035 11/08 Q1005=
201209191250 METAR ESMX 191250Z 23011KT 200V280 9999 FEW012 SCT017 BKN020 11/08 Q1005=
201209191220 METAR ESMX 191220Z 22010KT 190V250 9999 FEW020 10/08 Q1005=
201209191150 METAR ESMX 191150Z 22010KT 9999 -RA FEW019 SCT034 10/08 Q1005=
201209191120 METAR ESMX 191120Z 23009KT 190V260 9999 FEW020CB BKN035 12/08 Q1004=
201209191050 METAR ESMX 191050Z 24012KT 6000 -SHRA FEW020CB SCT033 09/06 Q1004=
201209191020 METAR ESMX 191020Z 20014KT 170V240 9999 FEW022 SCT040 12/07 Q1004=
201209190950 METAR ESMX 190950Z 21017KT 9999 FEW020 SCT026 BKN030 12/07 Q1004=
201209190920 METAR ESMX 190920Z 22012KT 9999 BKN020 BKN031 11/07 Q1004=
201209190850 METAR ESMX 190850Z 20013KT 170V240 9999 FEW015 BKN020 11/07 Q1004=
201209190820 METAR ESMX 190820Z 21014KT 190V250 9999 FEW015 BKN020 10/07 Q1004=
201209190750 METAR ESMX 190750Z 21012KT 9999 FEW009 SCT013 BKN016 10/07 Q1004=
201209190720 METAR ESMX 190720Z 20012KT 160V230 9999 FEW007 BKN009 09/07 Q1004=
201209190650 METAR ESMX 190650Z 19011KT 9999 FEW006 SCT008 BKN009 08/07 Q1004=
201209190620 METAR ESMX 190620Z 20009KT 9999 FEW006 BKN012 07/06 Q1004=
201209190550 METAR ESMX 190550Z 19008KT 9999 FEW006 BKN010 07/06 Q1004=
201209190520 METAR ESMX 190520Z 20008KT 9999 BKN005 BKN010 07/06 Q1004=
201209190450 METAR ESMX 190450Z 19007KT 9999 FEW006 BKN008 08/07 Q1004=
201209190420 METAR ESMX 190420Z 20007KT 9999 FEW004 BKN005 08/07 Q1004=
201209190350 METAR ESMX 190350Z 19008KT 9999 OVC005 08/08 Q1004=
201209190320 METAR ESMX 190320Z AUTO 19007KT 9999NDV OVC005/// 08/07 Q1004=
201209190250 METAR ESMX 190250Z AUTO 20006KT 9999NDV FEW005/// SCT007/// 08/07 Q1004=
201209190220 METAR ESMX 190220Z AUTO 21006KT 9999NDV FEW007/// SCT010/// 08/07 Q1004=
201209190150 METAR ESMX 190150Z AUTO 21006KT 9999NDV FEW008/// SCT011/// 09/07 Q1004=
201209190120 METAR ESMX 190120Z AUTO 23007KT 9999NDV FEW009/// SCT012/// BKN014/// 10/08 Q1004=
201209190050 METAR ESMX 190050Z 21008KT 9999 FEW008 SCT011 BKN014 10/08 Q1004=
201209190020 METAR ESMX 190020Z 20007KT 170V250 9999 FEW007 SCT009 BKN010 10/09 Q1004=
201209182350 METAR ESMX 182350Z 19006KT 9999 FEW008 BKN009 OVC013 10/09 Q1004=
201209182320 METAR ESMX 182320Z 20007KT 170V230 9999 FEW008 OVC010 10/09 Q1004=
201209182250 METAR ESMX 182250Z 19007KT 9999 FEW008 BKN010 10/09 Q1004=
201209182220 METAR ESMX 182220Z 20008G22KT 150V230 9999 FEW007 SCT009 OVC011 10/09 Q1004=
201209182150 METAR ESMX 182150Z 20008KT 9999 FEW007 BKN009 10/09 Q1004=
201209182120 METAR ESMX 182120Z 19007KT 9999 SCT008 09/08 Q1004=
201209182050 METAR ESMX 182050Z 18008KT 9999 FEW006 SCT008 BKN011 10/09 Q1004=
201209182020 METAR ESMX 182020Z 20008KT 9999 FEW005 SCT009 BKN011 10/09 Q1004=
201209181950 METAR ESMX 181950Z 19007KT 9999 SCT008 10/09 Q1004=
201209181920 METAR ESMX 181920Z 19007KT 9999 FEW005 SCT055 11/10 Q1004=
201209181850 METAR ESMX 181850Z 19007KT 9999 FEW009 BKN044 11/10 Q1004=
201209181820 METAR ESMX 181820Z 19008KT 160V220 9999 -RA FEW026 BKN043 12/10 Q1004=
201209181750 METAR ESMX 181750Z 19008KT 9999 SCT046 BKN050 12/09 Q1004=
201209181720 METAR ESMX 181720Z 19008KT 9999 FEW049 BKN054 BKN071 13/09 Q1004=
201209181650 METAR ESMX 181650Z 20009KT 9999 OVC045 13/09 Q1004=
201209181620 METAR ESMX 181620Z 20009KT 9999 BKN046 14/09 Q1004=
201209181550 METAR ESMX 181550Z 18008KT 9999 VCSH FEW025CB BKN054 14/10 Q1004=
201209181520 METAR ESMX 181520Z 19008KT 9999 VCSH FEW025CB 14/10 Q1004=
201209181450 METAR ESMX 181450Z 20007KT CAVOK 14/10 Q1004=
201209181420 METAR ESMX 181420Z 20008KT 9999 FEW036 BKN065 14/10 Q1004=
201209181350 METAR ESMX 181350Z 20008KT 9999 BKN049 14/10 Q1004=
201209181320 METAR ESMX 181320Z 20006KT 9999 BKN044 13/09 Q1004=
201209181250 METAR ESMX 181250Z 25008KT 210V290 9999 FEW040 BKN045 13/08 Q1004=
201209181220 METAR ESMX 181220Z 27011KT 230V300 9999 VCSH FEW021CB SCT027 BKN035 14/09 Q1005 RERA=
201209181150 METAR ESMX 181150Z 24009KT 9999 SCT015TCU BKN080 15/11 Q1004=
201209181120 METAR ESMX 181120Z 23011KT 190V260 9999 FEW017 SCT024TCU BKN100 15/11 Q1004=
201209181050 METAR ESMX 181050Z 21013KT 190V250 9999 FEW016 SCT021 BKN036 16/12 Q1004=
201209181020 METAR ESMX 181020Z 20014KT 9999 FEW013 SCT016 BKN019 15/13 Q1004=
201209180950 METAR ESMX 180950Z 18012KT 8000 BR FEW010 SCT013 BKN015 15/13 Q1004=
201209180920 METAR ESMX 180920Z 18011KT 8000 BR FEW009 SCT012 BKN015 14/13 Q1005=
201209180850 METAR ESMX 180850Z 18011KT 140V200 6000 -RA SCT008 OVC010 14/13 Q1005=
201209180820 METAR ESMX 180820Z 18010KT 120V210 9999 SCT008 BKN013 14/12 Q1005=
201209180750 METAR ESMX 180750Z 17010KT 140V200 9999 BKN008 BKN012 14/12 Q1006=
201209180720 METAR ESMX 180720Z 18010KT 150V210 9999 BKN007 BKN010 14/12 Q1006=
201209180650 METAR ESMX 180650Z 17009KT 140V210 9999 BKN006 13/12 Q1006=
201209180620 METAR ESMX 180620Z 16008KT 120V190 9999 FEW008 BKN010 OVC016 13/11 Q1006=
201209180550 METAR ESMX 180550Z 18008KT 140V210 9999 FEW018 SCT036 OVC072 12/10 Q1007=
201209180520 METAR ESMX 180520Z 17010KT 130V200 9999 SCT030 BKN080 11/09 Q1007=
201209180450 METAR ESMX 180450Z 15005KT 110V170 9999 FEW030 SCT070 10/08 Q1007=
201209180420 METAR ESMX 180420Z 17005KT 9999 FEW034 SCT072 BKN090 10/08 Q1008=
201209180350 METAR ESMX 180350Z 16005KT 9999 FEW036 SCT070 10/08 Q1008=
201209180320 METAR ESMX 180320Z AUTO 17006KT 9999NDV SCT067/// 10/08 Q1009=
201209180250 METAR ESMX 180250Z AUTO 16006KT 130V200 9999NDV NCD 10/08 Q1009=
201209180220 METAR ESMX 180220Z AUTO 18006KT 9999NDV FEW059/// 09/08 Q1009=
201209180150 METAR ESMX 180150Z AUTO 16006KT 140V200 9999NDV NCD 09/08 Q1009=
201209180120 METAR ESMX 180120Z AUTO 16005KT 9999NDV NCD 09/07 Q1009=
201209180050 METAR ESMX 180050Z AUTO 15005KT 120V180 9999NDV NCD 09/07 Q1010=
201209180020 METAR ESMX 180020Z 16004KT 110V190 9999 FEW037 09/07 Q1010=
201209172350 METAR ESMX 172350Z 17005KT 9999 FEW033 09/07 Q1010=
201209172320 METAR ESMX 172320Z 17004KT CAVOK 09/07 Q1010=
201209172250 METAR ESMX 172250Z 18004KT CAVOK 10/07 Q1011=
201209172220 METAR ESMX 172220Z 18005KT CAVOK 09/07 Q1011=
201209172150 METAR ESMX 172150Z 18005KT CAVOK 10/07 Q1011=
201209172120 METAR ESMX 172120Z 19005KT CAVOK 09/07 Q1011=
201209172050 METAR ESMX 172050Z 20006KT CAVOK 09/07 Q1011=
201209172020 METAR ESMX 172020Z 21005KT CAVOK 08/07 Q1011=
201209171950 METAR ESMX 171950Z 19005KT CAVOK 09/06 Q1011=
201209171920 METAR ESMX 171920Z 20004KT CAVOK 10/07 Q1011=
201209171850 METAR ESMX 171850Z 20005KT CAVOK 10/07 Q1011=
201209171820 METAR ESMX 171820Z 18005KT CAVOK 11/08 Q1011=
201209171750 METAR ESMX 171750Z 20003KT 9999 FEW037 11/07 Q1010=
201209171720 METAR ESMX 171720Z 21005KT 9999 FEW039 12/07 Q1010=
201209171650 METAR ESMX 171650Z 23004KT CAVOK 13/07 Q1010=
201209171620 METAR ESMX 171620Z 26008KT 220V290 CAVOK 15/06 Q1009=
201209171550 METAR ESMX 171550Z 27009KT 9999 FEW045 15/06 Q1009=
201209171520 METAR ESMX 171520Z 26010KT 230V310 9999 FEW045 16/06 Q1009=
201209171450 METAR ESMX 171450Z 25012KT 220V280 9999 FEW045 16/06 Q1008=
201209171420 METAR ESMX 171420Z 26011KT 230V300 9999 FEW045 16/07 Q1008=
201209171350 METAR ESMX 171350Z 27011KT 230V300 9999 FEW041 15/07 Q1008=
201209171320 METAR ESMX 171320Z 25013KT 230V320 9999 FEW041 17/07 Q1007=
201209171250 METAR ESMX 171250Z 26012KT 230V290 9999 FEW045 16/07 Q1007=
201209171220 METAR ESMX 171220Z 27012KT 9999 FEW036 16/07 Q1007=
201209171150 METAR ESMX 171150Z 23020KT 9999 FEW020 SCT035 17/09 Q1006=
201209171120 METAR ESMX 171120Z 24015KT 9999 FEW025TCU SCT070 17/10 Q1006=
201209171050 METAR ESMX 171050Z 23013KT 9999 SCT018 BKN030 17/11 Q1006=
201209171020 METAR ESMX 171020Z 22014KT 190V260 9999 FEW019 SCT023 BKN032 16/12 Q1005=
201209170950 METAR ESMX 170950Z 23013KT 200V260 9999 SCT018 BKN025 16/12 Q1005=
201209170920 METAR ESMX 170920Z 21015KT 190V250 9999 FEW016 SCT019 BKN022 16/12 Q1005=
201209170850 METAR ESMX 170850Z 21018KT 9999 BKN014 OVC018 15/12 Q1005=
201209170820 METAR ESMX 170820Z 21014KT 170V230 9999 OVC015 15/11 Q1004=
201209170750 METAR ESMX 170750Z 19015KT 9999 OVC016 14/11 Q1004=
201209170720 METAR ESMX 170720Z 18014KT 9999 SCT017 BKN020 14/11 Q1004=
201209170650 METAR ESMX 170650Z 19015KT 9999 DZ SCT017 BKN030 14/11 Q1004=
201209170620 METAR ESMX 170620Z 19015KT 150V210 9999 FEW019 SCT023 BKN032 15/11 Q1004=
201209170550 METAR ESMX 170550Z 19014KT 9999 FEW025 BKN042 14/11 Q1004=
201209170520 METAR ESMX 170520Z 18012KT 9999 SCT030 BKN040 14/11 Q1004=
201209170450 METAR ESMX 170450Z 17010KT 9999 SCT025 BKN040 14/10 Q1004=
201209170420 METAR ESMX 170420Z 17008KT 9999 FEW032 BKN041 14/10 Q1005=
201209170350 METAR ESMX 170350Z 17009KT 120V200 9999 BKN029 13/10 Q1005=
201209170320 METAR ESMX 170320Z AUTO 18008KT 140V200 9999NDV FEW031/// SCT036/// OVC047/// 13/11 Q1005=
201209170250 METAR ESMX 170250Z AUTO 17007KT 140V200 9999NDV FEW033/// OVC042/// 13/11 Q1006=
201209170220 METAR ESMX 170220Z AUTO 17008KT 150V210 9999NDV OVC040/// 13/11 Q1006=
201209170150 METAR ESMX 170150Z AUTO 17007KT 140V210 9999NDV OVC040/// 13/11 Q1007=
201209170120 METAR ESMX 170120Z AUTO 18007KT 150V210 9999NDV OVC035/// 13/10 Q1007=
201209170050 METAR ESMX 170050Z AUTO 18007KT 9999NDV OVC037/// 13/10 Q1007=
201209170020 METAR ESMX 170020Z AUTO 18007KT 9999NDV OVC040/// 13/10 Q1007=
201209162350 METAR ESMX 162350Z AUTO 17006KT 140V200 9999NDV OVC041/// 13/10 Q1008=
201209162320 METAR ESMX 162320Z 18007KT 9999 BKN046 12/10 Q1008=
201209162250 METAR ESMX 162250Z 18008KT 9999 OVC049 12/10 Q1008=
201209162220 METAR ESMX 162220Z 18008KT 9999 BKN049 12/10 Q1009=
201209162150 METAR ESMX 162150Z 19009KT CAVOK 12/10 Q1009=
201209162120 METAR ESMX 162120Z 19009KT CAVOK 12/10 Q1009=
201209162050 METAR ESMX 162050Z 20008KT CAVOK 11/10 Q1009=
201209162020 METAR ESMX 162020Z 18008KT CAVOK 12/10 Q1009=
201209161950 METAR ESMX 161950Z 19008KT CAVOK 12/10 Q1009=
201209161920 METAR ESMX 161920Z 19007KT CAVOK 12/10 Q1009=
201209161850 METAR ESMX 161850Z 19007KT CAVOK 12/10 Q1010=
201209161820 METAR ESMX 161820Z 19006KT CAVOK 11/09 Q1010=
201209161750 METAR ESMX 161750Z 18005KT CAVOK 12/09 Q1010=
201209161720 METAR ESMX 161720Z 18005KT CAVOK 13/09 Q1010=
201209161650 METAR ESMX 161650Z 19007KT 9999 FEW031 13/09 Q1010=
201209161620 METAR ESMX 161620Z 19010KT 9999 FEW025 SCT031 14/10 Q1010=
201209161550 METAR ESMX 161550Z 21010KT 9999 FEW021 SCT027 BKN031 15/10 Q1010=
201209161520 METAR ESMX 161520Z 20010KT 9999 FEW021 BKN027 15/11 Q1010=
201209161450 METAR ESMX 161450Z 20008KT 9999 FEW024 SCT029 15/10 Q1010=
201209161420 METAR ESMX 161420Z 20011KT 9999 FEW023 BKN026 15/10 Q1010=
201209161350 METAR ESMX 161350Z AUTO 22010KT 9999NDV FEW024/// BKN027/// 16/10 Q1011=
201209161320 METAR ESMX 161320Z 22009KT 9999 OVC023 15/10 Q1011=
201209161250 METAR ESMX 161250Z 22010KT 180V250 9999 FEW019 OVC022 14/10 Q1011=
201209161220 METAR ESMX 161220Z 21009KT 170V250 9999 OVC019 14/10 Q1011=
201209161150 METAR ESMX 161150Z 20009KT 9999 FEW019 OVC022 14/10 Q1011=
201209161120 METAR ESMX 161120Z 23011KT 170V260 9999 SCT015 OVC019 13/10 Q1012=
201209161050 METAR ESMX 161050Z 23010KT 200V260 9999 OVC016 13/10 Q1012=
201209161020 METAR ESMX 161020Z 23011KT 190V250 9999 OVC017 13/10 Q1012=
201209160950 METAR ESMX 160950Z 23010KT 9999 OVC015 13/10 Q1012=
201209160920 METAR ESMX 160920Z 21011KT 9999 FEW016 OVC018 13/10 Q1012=
201209160850 METAR ESMX 160850Z 23011KT 200V260 9999 FEW018 OVC021 13/10 Q1012=
201209160820 METAR ESMX 160820Z 22011KT 190V280 9999 FEW015 BKN020 13/10 Q1012=
201209160750 METAR ESMX 160750Z 21009KT 9999 FEW011 SCT015 BKN024 13/10 Q1012=
201209160720 METAR ESMX 160720Z 23008KT 9999 FEW009 BKN010 13/11 Q1012=
201209160650 METAR ESMX 160650Z AUTO 20007KT 9999NDV FEW009/// SCT015/// OVC029/// 13/11 Q1012=
201209160620 METAR ESMX 160620Z AUTO 22007KT 9999NDV FEW009/// BKN029/// 13/11 Q1011=
201209160550 METAR ESMX 160550Z AUTO 23007KT 200V260 9999NDV OVC028/// 12/10 Q1011=
201209160520 METAR ESMX 160520Z AUTO 23007KT 9999NDV FEW017/// OVC026/// 12/10 Q1011=
201209160450 METAR ESMX 160450Z AUTO 23006KT 9999NDV BKN027/// 11/10 Q1011=
201209160420 METAR ESMX 160420Z AUTO 23005KT 9999NDV SCT031/// 10/09 Q1011=
201209160350 METAR ESMX 160350Z AUTO 24006KT 9999NDV FEW028/// 11/09 Q1011=
201209160320 METAR ESMX 160320Z AUTO 25007KT 210V280 9999NDV OVC026/// 12/09 Q1011=
201209160250 METAR ESMX 160250Z AUTO 24006KT 9999NDV OVC020/// 12/10 Q1011=
201209160220 METAR ESMX 160220Z AUTO 21005KT 9999NDV FEW018/// OVC021/// 12/10 Q1011=
201209160150 METAR ESMX 160150Z AUTO 24006KT 190V280 9999NDV OVC020/// 13/09 Q1011=
201209160120 METAR ESMX 160120Z AUTO 23006KT 200V260 9999NDV OVC021/// 13/10 Q1010=
201209160050 METAR ESMX 160050Z AUTO 22007KT 190V250 9999NDV OVC024/// 12/10 Q1010=
201209160020 METAR ESMX 160020Z AUTO 23006KT 200V270 9999NDV OVC024/// 13/10 Q1010=
201209152350 METAR ESMX 152350Z AUTO 25008KT 9999NDV OVC022/// 13/10 Q1010=
201209152320 METAR ESMX 152320Z AUTO 25008KT 9999NDV FEW015/// OVC022/// 13/10 Q1010=
201209152250 METAR ESMX 152250Z AUTO 23007KT 9999NDV FEW015/// SCT019/// BKN023/// 13/10 Q1010=
201209152220 METAR ESMX 152220Z AUTO 25007KT 230V290 9999NDV FEW015/// OVC026/// 13/10 Q1009=
201209152150 METAR ESMX 152150Z AUTO 25007KT 210V290 9999NDV FEW015/// OVC030/// 13/10 Q1009=
201209152120 METAR ESMX 152120Z AUTO 25007KT 230V290 9999NDV FEW017/// OVC029/// 13/10 Q1009=
201209152050 METAR ESMX 152050Z AUTO 26009KT 9999NDV FEW015/// BKN028/// 12/10 Q1009=
201209152020 METAR ESMX 152020Z AUTO 24007KT 210V280 9999NDV BKN027/// 12/10 Q1008=
201209151950 METAR ESMX 151950Z AUTO 25009KT 210V280 9999NDV BKN025/// 13/10 Q1008=
201209151920 METAR ESMX 151920Z AUTO 26009KT 9999NDV FEW037/// 12/10 Q1008=
201209151850 METAR ESMX 151850Z AUTO 26008KT 9999NDV FEW038/// 12/10 Q1008=
201209151820 METAR ESMX 151820Z AUTO 25008KT 220V290 9999NDV FEW031/// 12/10 Q1007=
201209151750 METAR ESMX 151750Z AUTO 26009KT 210V280 9999NDV FEW039/// BKN044/// 13/09 Q1007=
201209151720 METAR ESMX 151720Z AUTO 26006KT 230V330 9999NDV OVC040/// 13/09 Q1007=
201209151650 METAR ESMX 151650Z AUTO 26008KT 9999NDV OVC040/// 13/09 Q1006=
201209151620 METAR ESMX 151620Z AUTO 25007KT 210V290 9999NDV BKN043/// 13/10 Q1006=
201209151550 METAR ESMX 151550Z AUTO 26007KT 9999NDV OVC044/// 14/09 Q1005=
201209151520 METAR ESMX 151520Z AUTO 26008KT 9999NDV SCT049/// 14/09 Q1005=
201209151450 METAR ESMX 151450Z AUTO 27011KT 220V290 9999NDV SCT048/// 14/09 Q1005=
201209151420 METAR ESMX 151420Z AUTO 29014G24KT 250V320 9999NDV FEW035/// 15/08 Q1005=
201209151350 METAR ESMX 151350Z AUTO 29015KT 260V320 9999NDV FEW029/// 15/08 Q1004=
201209151320 METAR ESMX 151320Z AUTO 27014G24KT 230V320 9999NDV FEW032/// SCT057/// 15/08 Q1004=
201209151250 METAR ESMX 151250Z AUTO 26017G28KT 230V300 9999NDV SCT032/// BKN040/// 17/08 Q1003=
201209151220 METAR ESMX 151220Z AUTO 26013KT 230V310 9999NDV FEW031/// BKN041/// 16/08 Q1003=
201209151150 METAR ESMX 151150Z AUTO 27008KT 220V320 9999NDV FEW027/// SCT032/// BKN042/// 14/09 Q1003=
201209151120 METAR ESMX 151120Z AUTO 26010KT 240V320 9999NDV FEW027/// OVC040/// 14/09 Q1003=
201209151050 METAR ESMX 151050Z AUTO 28012KT 250V320 9999NDV FEW025/// BKN040/// 14/08 Q1003=
201209151020 METAR ESMX 151020Z AUTO 26010KT 220V300 9999NDV FEW020/// SCT024/// BKN028/// 14/09 Q1002=
201209150950 METAR ESMX 150950Z 26010KT 220V310 9999 FEW020 SCT024 BKN029 13/09 Q1002=
201209150920 METAR ESMX 150920Z 26011KT 9999 FEW017 SCT022 BKN026 14/10 Q1002=
201209150850 METAR ESMX 150850Z 27008KT 240V310 9999 FEW017 SCT022 BKN037 13/10 Q1002=
201209150820 METAR ESMX 150820Z 26010KT 230V290 9999 FEW015 SCT020 BKN031 12/09 Q1001=
201209150750 METAR ESMX 150750Z 27009KT 240V300 9999 FEW012 SCT014 BKN017 12/10 Q1001=
201209150720 METAR ESMX 150720Z 26008KT 230V290 9999 FEW009 SCT012 BKN014 12/10 Q1001=
201209150650 METAR ESMX 150650Z AUTO 26007KT 230V290 9999NDV FEW009/// SCT012/// BKN016/// 12/10 Q1000=
201209150620 METAR ESMX 150620Z AUTO 23005KT 190V260 9999NDV FEW006/// SCT007/// BKN009/// 11/10 Q1000=
201209150550 METAR ESMX 150550Z AUTO 23007KT 190V270 9999NDV FEW004/// BKN006/// OVC008/// 11/10 Q1000=
201209150520 METAR ESMX 150520Z AUTO 21006KT 9999NDV FEW005/// SCT011/// BKN020/// 10/10 Q1000=
201209150450 METAR ESMX 150450Z AUTO 21007KT 9999NDV FEW005/// SCT009/// BKN017/// 10/09 Q1000=
201209150420 METAR ESMX 150420Z AUTO 23006KT 9999NDV FEW005/// SCT007/// BKN010/// 10/09 Q0999=
201209150350 METAR ESMX 150350Z AUTO 24006KT 9999NDV SCT004/// BKN006/// OVC008/// 10/09 Q0999=
201209150320 METAR ESMX 150320Z AUTO 25007KT 200V280 9999NDV OVC004/// 10/09 Q0999=
201209150250 METAR ESMX 150250Z AUTO 22005KT 170V260 9999NDV BKN004/// OVC007/// 10/09 Q0999=
201209150220 METAR ESMX 150220Z AUTO 23007KT 9999NDV OVC003/// 10/09 Q0999=
201209150150 METAR ESMX 150150Z AUTO 23006KT 9999NDV FEW003/// BKN005/// BKN010/// 09/09 Q0999=
201209150120 METAR ESMX 150120Z AUTO 22006KT 9999NDV FEW005/// 09/08 Q0999=
201209150050 METAR ESMX 150050Z AUTO 23005KT 9999NDV SCT040/// 09/08 Q0999=
201209150020 METAR ESMX 150020Z AUTO 23006KT 9999NDV FEW005/// SCT033/// 09/08 Q0999=
201209142350 METAR ESMX 142350Z AUTO 23007KT 9999NDV NCD 09/08 Q0999=
201209142320 METAR ESMX 142320Z AUTO 22006KT 9999NDV FEW005/// 09/08 Q0998=
201209142250 METAR ESMX 142250Z AUTO 23006KT 9999NDV FEW003/// SCT005/// 09/09 Q0998=
201209142220 METAR ESMX 142220Z AUTO 21006KT 9999NDV FEW004/// SCT007/// BKN041/// 10/09 Q0998=
201209142150 METAR ESMX 142150Z AUTO 22007KT 9999NDV BKN042/// 10/09 Q0998=
201209142120 METAR ESMX 142120Z AUTO 21007KT 9999NDV FEW042/// 10/09 Q0998=
201209142050 METAR ESMX 142050Z AUTO 21006KT 9999NDV NCD 10/09 Q0998=
201209142020 METAR ESMX 142020Z AUTO 22007KT 9999NDV FEW044/// 11/10 Q0998=
201209141950 METAR ESMX 141950Z AUTO 21006KT 9999NDV -DZ FEW048/// OVC060/// 11/09 Q0997=
201209141920 METAR ESMX 141920Z AUTO 22007KT 9999NDV -RA FEW035/// SCT048/// BKN055/// 11/11 Q0997=
201209141850 METAR ESMX 141850Z 23006KT 9999 FEW007 SCT017 BKN029 12/11 Q0997=
201209141820 METAR ESMX 141820Z 20007KT 9999 DZ FEW020 SCT040 BKN055 12/11 Q0997=
201209141750 METAR ESMX 141750Z 21005KT 9999 FEW042 11/10 Q0997=
201209141720 METAR ESMX 141720Z 22006KT 180V240 9999 FEW020 11/10 Q0997=
201209141650 METAR ESMX 141650Z 23009KT 200V260 9999 FEW007 SCT045 12/10 Q0996 RERA=
201209141620 METAR ESMX 141620Z 20011KT 9999 FEW007 SCT008 BKN010 13/11 Q0996=
201209141550 METAR ESMX 141550Z 20011KT 160V230 9999 FEW007 BKN009 13/11 Q0996=
201209141520 METAR ESMX 141520Z 20012KT 9999 FEW007 BKN008 12/11 Q0996=
201209141450 METAR ESMX 141450Z 20013KT 9999 BKN006 12/11 Q0997=
201209141420 METAR ESMX 141420Z 20013KT 9999 FEW006 OVC007 12/11 Q0997=
201209141350 METAR ESMX 141350Z 21014G24KT 8000 -RA BKN006 12/11 Q0997 REDZ=
201209141320 METAR ESMX 141320Z 20014KT 160V220 9000 BR FEW005 BKN007 OVC010 12/11 Q0997=
201209141250 METAR ESMX 141250Z 19013KT 3900 DZ FEW004 SCT006 BKN007 12/11 Q0997=
201209141220 METAR ESMX 141220Z 19014KT 3300 DZ FEW005 SCT006 BKN008 12/11 Q0998=
201209141150 METAR ESMX 141150Z 19016KT 150V210 2600 DZ FEW005 BKN007 OVC009 11/10 Q0998=
201209141120 METAR ESMX 141120Z 19017KT 150V220 4600 -DZ OVC007 11/10 Q0998=
201209141050 METAR ESMX 141050Z 19017KT 6000 BR SCT007 OVC010 11/10 Q0998=
201209141020 METAR ESMX 141020Z 19017KT 9999 BKN008 11/09 Q0999=
201209140950 METAR ESMX 140950Z 19017KT 9999 -DZ FEW008 BKN010 11/09 Q0999=
201209140920 METAR ESMX 140920Z 19015KT 150V220 9999 FEW009 SCT011 BKN013 11/09 Q0999=
201209140850 METAR ESMX 140850Z 18016KT 140V200 9999 -RA FEW010 SCT013 BKN016 11/09 Q1000 REDZ=
201209140820 METAR ESMX 140820Z 17014KT 9999 -RA FEW012 SCT016 BKN031 10/09 Q1001=
201209140750 METAR ESMX 140750Z 18015KT 9999 -RA FEW014 SCT032 BKN037 10/09 Q1001=
201209140720 METAR ESMX 140720Z 18015KT 9999 -RA FEW018 SCT034 BKN050 11/08 Q1002=
201209140650 METAR ESMX 140650Z 18016KT 9999 -RA FEW017 BKN046 BKN069 11/08 Q1002=
201209140620 METAR ESMX 140620Z 20016G26KT 160V230 9999 FEW040 BKN061 11/08 Q1003=
201209140550 METAR ESMX 140550Z 19015KT 9999 SCT031 BKN068 11/08 Q1003=
201209140520 METAR ESMX 140520Z 20014KT 160V240 9999 FEW032 SCT036 BKN044 11/08 Q1004=
201209140450 METAR ESMX 140450Z 19013KT 9999 SCT039 BKN048 OVC076 10/08 Q1004 REDZ=
201209140420 METAR ESMX 140420Z 19011KT CAVOK 10/08 Q1005=
201209140350 METAR ESMX 140350Z 19011KT CAVOK 10/08 Q1005=
201209140320 METAR ESMX 140320Z AUTO 19010KT 9999NDV SCT070/// 09/08 Q1006=
201209140250 METAR ESMX 140250Z AUTO 19009KT 9999NDV FEW066/// 09/07 Q1007=
201209140220 METAR ESMX 140220Z AUTO 19011KT 9999NDV NCD 09/07 Q1007=
201209140150 METAR ESMX 140150Z AUTO 20010KT 9999NDV NCD 08/07 Q1008=
201209140120 METAR ESMX 140120Z AUTO 20009KT 9999NDV NCD 08/06 Q1008=
201209140050 METAR ESMX 140050Z AUTO 19010KT 9999NDV NCD 08/06 Q1009=
201209140020 METAR ESMX 140020Z 19008KT 9999 FEW029 08/06 Q1009=
201209132350 METAR ESMX 132350Z 19007KT 9999 FEW025 08/06 Q1009=
201209132320 METAR ESMX 132320Z 20007KT 9999 FEW027 BKN033 08/06 Q1010=
201209132250 METAR ESMX 132250Z 19006KT 9999 FEW030 BKN040 09/07 Q1010=
201209132220 METAR ESMX 132220Z 19008KT 9999 FEW034 SCT042 BKN059 09/07 Q1010=
201209132150 METAR ESMX 132150Z 20004KT 9999 -DZ SCT025 BKN032 OVC042 09/07 Q1011 REDZ=
201209132120 METAR ESMX 132120Z 18005KT 9999 FEW036 OVC042 09/07 Q1011=
201209132050 METAR ESMX 132050Z 19006KT 9999 FEW035 BKN045 09/07 Q1011=
201209132020 METAR ESMX 132020Z 18005KT 9999 FEW034 08/06 Q1011=
201209131950 METAR ESMX 131950Z 18005KT 9999 FEW035 08/06 Q1011=
201209131920 METAR ESMX 131920Z 20005KT 9999 FEW035 08/05 Q1012=
201209131850 METAR ESMX 131850Z 20005KT CAVOK 08/05 Q1011=
201209131820 METAR ESMX 131820Z 22005KT CAVOK 09/06 Q1011=
201209131750 METAR ESMX 131750Z 22005KT 9999 FEW034 10/06 Q1011=
201209131720 METAR ESMX 131720Z 21003KT 9999 FEW038 10/06 Q1011=
201209131650 METAR ESMX 131650Z 23005KT 9999 FEW041 12/06 Q1011=
201209131620 METAR ESMX 131620Z 26007KT 220V280 9999 FEW044 14/05 Q1011=
201209131550 METAR ESMX 131550Z 26008KT 230V290 9999 FEW044 14/04 Q1011=
201209131520 METAR ESMX 131520Z 25009KT 200V280 9999 FEW040 14/04 Q1011=
201209131450 METAR ESMX 131450Z 26011KT 230V300 9999 SCT044 15/05 Q1011=
201209131420 METAR ESMX 131420Z 27010KT 9999 SCT035 15/05 Q1010=
201209131350 METAR ESMX 131350Z 26010KT 230V300 9999 SCT035 14/07 Q1011=
201209131320 METAR ESMX 131320Z 25012KT 210V280 9999 SCT034 15/07 Q1011=
201209131250 METAR ESMX 131250Z 24010KT 180V320 9999 SCT040 15/06 Q1010=
201209131220 METAR ESMX 131220Z 27011KT 240V300 9999 SCT035 15/06 Q1011=
201209131150 METAR ESMX 131150Z 26007KT 220V290 9999 SCT040 15/06 Q1011=
201209131120 METAR ESMX 131120Z 27008KT 230V300 9999 SCT037 15/04 Q1011=
201209131050 METAR ESMX 131050Z 29008KT 9999 SCT035 13/06 Q1011=
201209131020 METAR ESMX 131020Z 26010KT 200V290 9999 SCT032 BKN044 14/06 Q1011=
201209130950 METAR ESMX 130950Z 24010KT 200V270 9999 FEW029 SCT032 14/07 Q1010=
201209130920 METAR ESMX 130920Z 26008KT 210V300 9999 FEW025 SCT033 13/06 Q1010=
201209130850 METAR ESMX 130850Z 28007KT 240V320 9999 FEW025 13/07 Q1010=
201209130820 METAR ESMX 130820Z 25008KT 210V280 9999 FEW020 12/08 Q1010=
201209130750 METAR ESMX 130750Z 26006KT 220V290 CAVOK 11/08 Q1010=
201209130720 METAR ESMX 130720Z 25004KT 210V290 CAVOK 10/08 Q1010=
201209130650 METAR ESMX 130650Z 22004KT 190V250 CAVOK 09/08 Q1009=
201209130620 METAR ESMX 130620Z 23006KT CAVOK 08/08 Q1009=
201209130550 METAR ESMX 130550Z 23005KT CAVOK 07/07 Q1009=
201209130520 METAR ESMX 130520Z 22005KT CAVOK 06/06 Q1009=
201209130450 METAR ESMX 130450Z 23005KT 7000 FEW001 06/05 Q1009=
201209130420 METAR ESMX 130420Z 22005KT 9999 FEW001 06/05 Q1008=
201209130350 METAR ESMX 130350Z 23005KT 9999 FEW008 SCT050 06/06 Q1008=
201209130320 METAR ESMX 130320Z AUTO 20004KT 0800NDV R01/P2000N R19/P2000N BR FEW062/// 06/05 Q1008=
201209130250 METAR ESMX 130250Z AUTO 17005KT 9999NDV FEW023/// 07/06 Q1008=
201209130220 METAR ESMX 130220Z AUTO 20005KT 9999NDV FEW025/// SCT073/// 07/06 Q1008=
201209130150 METAR ESMX 130150Z AUTO 20005KT 9999NDV FEW045/// BKN063/// 07/06 Q1008=
201209130120 METAR ESMX 130120Z AUTO 20006KT 9999NDV -RA BKN048/// BKN064/// 08/07 Q1008 REDZ=
201209130050 METAR ESMX 130050Z AUTO 21005KT 9999NDV BKN056/// 08/07 Q1008=
201209130020 METAR ESMX 130020Z AUTO 22005KT 9999NDV BKN050/// 07/06 Q1008=
201209122350 METAR ESMX 122350Z 21004KT 9999 FEW039 BKN048 07/06 Q1007=
201209122320 METAR ESMX 122320Z 20006KT 9999 FEW039 06/05 Q1008=
201209122250 METAR ESMX 122250Z 19007KT CAVOK 06/05 Q1008=
201209122220 METAR ESMX 122220Z 20005KT 9999 FEW025 05/04 Q1007=
201209122150 METAR ESMX 122150Z 21005KT 9999 FEW025 06/05 Q1007=
201209122120 METAR ESMX 122120Z 20005KT 9999 FEW025 06/05 Q1007=
201209122050 METAR ESMX 122050Z 18005KT 9999 FEW025 07/06 Q1007=
201209122020 METAR ESMX 122020Z 19004KT 9999 FEW025 07/06 Q1007=
201209121950 METAR ESMX 121950Z 18005KT 9999 FEW025 08/07 Q1007=
201209121920 METAR ESMX 121920Z 20004KT 9999 FEW030 07/06 Q1007=
201209121850 METAR ESMX 121850Z 21003KT 9999 FEW035 09/07 Q1007=
201209121820 METAR ESMX 121820Z 23004KT 9999 FEW030 09/06 Q1006=
201209121750 METAR ESMX 121750Z 23004KT 9999 FEW030 09/07 Q1006=
201209121720 METAR ESMX 121720Z 22004KT 9999 FEW025 10/08 Q1006=
201209121650 METAR ESMX 121650Z 20004KT 9999 FEW037 12/09 Q1006=
201209121620 METAR ESMX 121620Z 22006KT 9999 FEW030 12/09 Q1006=
201209121550 METAR ESMX 121550Z 20003KT 9999 FEW030 12/09 Q1006=
201209121520 METAR ESMX 121520Z 19005KT 140V220 9999 VCSH FEW025CB 12/10 Q1006 RERA=
201209121450 METAR ESMX 121450Z 22009KT 9999 VCSH FEW020CB 13/07 Q1005=
201209121420 METAR ESMX 121420Z 20009KT 9999 FEW025 13/08 Q1005 RESHRA=
201209121350 METAR ESMX 121350Z 21010KT 9999 -RA FEW028CB SCT035 12/09 Q1006=
201209121320 METAR ESMX 121320Z 20013KT 9999 FEW030CB SCT038 13/09 Q1006=
201209121250 METAR ESMX 121250Z 20009KT 9999 FEW030CB SCT038 11/09 Q1006 RESHRA=
201209121220 METAR ESMX 121220Z 21010KT 170V240 9999 -RA FEW029CB SCT029 BKN051 10/08 Q1006 RERA=
201209121150 METAR ESMX 121150Z 24009KT 9999 FEW032 SCT038 15/06 Q1005=
201209121120 METAR ESMX 121120Z 21009KT 170V230 9999 SCT037 15/05 Q1005=
201209121050 METAR ESMX 121050Z 20010KT 9999 FEW027 14/08 Q1005=
201209121020 METAR ESMX 121020Z 22009KT 190V270 9999 FEW021 SCT028 14/07 Q1005=
201209120950 METAR ESMX 120950Z 22010KT 180V250 9999 FEW021 BKN056 13/09 Q1006=
201209120920 METAR ESMX 120920Z 26009KT 230V300 9999 FEW025 13/08 Q1006=
201209120850 METAR ESMX 120850Z 24009KT 210V290 9999 FEW023 14/08 Q1006=
201209120820 METAR ESMX 120820Z 26007KT 210V300 CAVOK 13/09 Q1006=
201209120750 METAR ESMX 120750Z 24004KT 190V260 CAVOK 11/09 Q1006=
201209120720 METAR ESMX 120720Z 23004KT 9999 FEW024 11/09 Q1006=
201209120650 METAR ESMX 120650Z 24006KT 200V260 CAVOK 10/09 Q1006=
201209120620 METAR ESMX 120620Z 21006KT CAVOK 09/09 Q1006=
201209120550 METAR ESMX 120550Z 22005KT CAVOK 09/08 Q1006=
201209120520 METAR ESMX 120520Z 22005KT CAVOK 08/07 Q1006=
201209120450 METAR ESMX 120450Z 22004KT 5000 BCFG NSC 07/07 Q1005=
201209120420 METAR ESMX 120420Z 21004KT 5000 BCFG NSC 08/07 Q1005=
201209120350 METAR ESMX 120350Z 18003KT CAVOK 08/07 Q1005=
201209120320 METAR ESMX 120320Z AUTO 25004KT 9999NDV NCD 08/07 Q1005=
201209120250 METAR ESMX 120250Z AUTO 23004KT 1100NDV R01/P2000N R19/P2000D NCD 08/07 Q1005=
201209120220 METAR ESMX 120220Z AUTO 22004KT 9999NDV NCD 09/08 Q1005=
201209120150 METAR ESMX 120150Z AUTO 26004KT 9999NDV NCD 09/08 Q1005=
201209120120 METAR ESMX 120120Z AUTO 27004KT 250V310 9999NDV NCD 10/09 Q1005=
201209120050 METAR ESMX 120050Z AUTO 27005KT 9999NDV NCD 10/09 Q1005=
201209120020 METAR ESMX 120020Z 27005KT 240V300 CAVOK 11/09 Q1005=
201209112350 METAR ESMX 112350Z 30008KT 9999 FEW010 11/09 Q1005=
201209112320 METAR ESMX 112320Z 27004KT 230V300 9999 FEW010 SCT025 12/11 Q1004=
201209112250 METAR ESMX 112250Z 26005KT 220V290 9999 FEW008 SCT010 BKN016 13/11 Q1004 RERA=
201209112220 METAR ESMX 112220Z 24007KT 210V280 9999 -RA FEW010 SCT013 BKN046 13/12 Q1005=
201209112150 METAR ESMX 112150Z 24007KT 9999 -RA BKN012 13/12 Q1004=
201209112120 METAR ESMX 112120Z 25006KT 9999 BKN057 13/12 Q1004=
201209112050 METAR ESMX 112050Z 24006KT 210V280 9999 FEW041 BKN052 14/12 Q1004=
201209112020 METAR ESMX 112020Z 23007KT 9999 FEW010 BKN026 15/13 Q1004=
201209111950 METAR ESMX 111950Z 21007KT 9999 FEW007 SCT010 BKN028 15/14 Q1004 REUP=
201209111920 METAR ESMX 111920Z 19008KT 7000 BR FEW010 SCT014 BKN017 15/14 Q1003=
201209111850 METAR ESMX 111850Z 19007KT 4900 BR FEW014 SCT020 BKN034 15/14 Q1004=
201209111820 METAR ESMX 111820Z 20008KT 9999 FEW015 SCT100 15/14 Q1004=
201209111750 METAR ESMX 111750Z 18006KT 9999 FEW045 15/14 Q1004=
201209111720 METAR ESMX 111720Z 19005KT 9999 FEW030 15/14 Q1004=
201209111650 METAR ESMX 111650Z 20009KT 9999 FEW008 SCT030 BKN050 16/14 Q1004 RERA=
201209111620 METAR ESMX 111620Z 21008KT 170V250 6000 -RA FEW006 SCT010 BKN014 17/15 Q1004=
201209111550 METAR ESMX 111550Z 17007KT 140V210 8000 BR FEW013 SCT018 BKN020 17/15 Q1004=
201209111520 METAR ESMX 111520Z 17007KT 8000 -DZ FEW015 SCT025 BKN080 17/15 Q1005=
201209111450 METAR ESMX 111450Z 17006KT 8000 BR FEW017 SCT045 BKN080 17/15 Q1005=
201209111420 METAR ESMX 111420Z 16006KT 120V190 7000 -RA FEW014 SCT055 17/15 Q1005 RESHRA=
201209111350 METAR ESMX 111350Z 17008KT 140V200 9999 DZ FEW025 SCT052 BKN080 17/15 Q1005=
201209111320 METAR ESMX 111320Z 16009KT 100V200 9999 -SHRA FEW030 SCT050 BKN100 18/14 Q1006=
201209111250 METAR ESMX 111250Z 17010KT 150V240 9999 FEW035 SCT070 BKN100 18/14 Q1006=
201209111220 METAR ESMX 111220Z 15007KT 100V200 9999 -SHRA FEW030 SCT067 BKN095 19/15 Q1006=
201209111150 METAR ESMX 111150Z 17008KT 130V200 9999 SCT030 BKN093 19/14 Q1007=
201209111120 METAR ESMX 111120Z 17009KT 140V210 9999 FEW030 BKN070 19/14 Q1007=
201209111050 METAR COR ESMX 111050Z 17010KT 140V200 9999 -RA FEW028 SCT055 19/14 Q1007=
201209110950 METAR ESMX 110950Z 18012KT 140V210 9999 FEW040 BKN080 21/14 Q1007=
201209110920 METAR ESMX 110920Z 17010KT 140V200 CAVOK 20/14 Q1008=
201209110850 METAR ESMX 110850Z 17009KT 140V210 CAVOK 21/14 Q1008=
201209110820 METAR ESMX 110820Z 18010KT CAVOK 20/14 Q1008=
201209110750 METAR ESMX 110750Z 18009KT 150V210 CAVOK 19/14 Q1009=
201209110720 METAR ESMX 110720Z 19010KT 160V220 CAVOK 18/14 Q1009=
201209110650 METAR ESMX 110650Z 18009KT CAVOK 17/14 Q1009=
201209110620 METAR ESMX 110620Z 18008KT CAVOK 16/14 Q1009=
201209110550 METAR ESMX 110550Z 18007KT CAVOK 15/13 Q1009=
201209110520 METAR ESMX 110520Z 19007KT 150V220 9999 FEW027 14/13 Q1010=
201209110450 METAR ESMX 110450Z 19007KT 9000 FEW025 14/13 Q1010=
201209110420 METAR ESMX 110420Z 19007KT 9999 FEW034 14/12 Q1010=
201209110350 METAR ESMX 110350Z 20007KT 9999 FEW034 14/12 Q1010=
201209110320 METAR ESMX 110320Z AUTO 18006KT 9999NDV NCD 15/13 Q1010=
201209110250 METAR ESMX 110250Z AUTO 18006KT 9999NDV NCD 15/13 Q1010=
201209110220 METAR ESMX 110220Z AUTO 19006KT 9999NDV SCT036/// 15/13 Q1010=
201209110150 METAR ESMX 110150Z AUTO 18005KT 8000NDV BR NCD 15/13 Q1010=
201209110120 METAR ESMX 110120Z AUTO 18005KT 8000NDV BR NCD 15/13 Q1010=
201209110050 METAR ESMX 110050Z AUTO 18006KT 6000NDV BR NCD 15/13 Q1011=
201209110020 METAR ESMX 110020Z AUTO 20007KT 8000NDV BR NCD 15/13 Q1011=
201209102350 METAR ESMX 102350Z 21006KT 5000 BR NSC 14/13 Q1011=
201209102320 METAR ESMX 102320Z 18005KT 7000 BR NSC 15/13 Q1011=
201209102250 METAR ESMX 102250Z 18006KT CAVOK 15/14 Q1011=
201209102220 METAR ESMX 102220Z 19004KT CAVOK 15/13 Q1011=
201209102150 METAR ESMX 102150Z 17004KT CAVOK 16/14 Q1011=
201209102120 METAR ESMX 102120Z 17004KT CAVOK 17/15 Q1011=
201209102050 METAR ESMX 102050Z VRB02KT CAVOK 17/15 Q1011=
201209102020 METAR ESMX 102020Z 22004KT CAVOK 17/15 Q1011=
201209101950 METAR ESMX 101950Z 22005KT CAVOK 17/15 Q1011=
201209101920 METAR ESMX 101920Z 17005KT CAVOK 18/15 Q1011=
201209101850 METAR ESMX 101850Z 16005KT CAVOK 18/16 Q1011=
201209101820 METAR ESMX 101820Z 16004KT CAVOK 18/16 Q1011=
201209101750 METAR ESMX 101750Z 17005KT CAVOK 19/16 Q1011=
201209101720 METAR ESMX 101720Z 17005KT CAVOK 20/16 Q1011=
201209101650 METAR ESMX 101650Z 17006KT 140V200 CAVOK 20/16 Q1010=
201209101620 METAR ESMX 101620Z 18008KT 140V210 CAVOK 21/16 Q1011=
201209101550 METAR ESMX 101550Z 17006KT 120V200 CAVOK 22/16 Q1010=
201209101520 METAR ESMX 101520Z 16006KT 130V200 CAVOK 22/16 Q1010=
201209101450 METAR ESMX 101450Z 17008KT 120V210 CAVOK 22/16 Q1011=
201209101420 METAR ESMX 101420Z 15007KT 110V190 CAVOK 23/16 Q1010=
201209101350 METAR ESMX 101350Z 14007KT 080V180 CAVOK 23/16 Q1010=
201209101320 METAR ESMX 101320Z 17009KT 140V210 CAVOK 23/16 Q1011=
201209101250 METAR ESMX 101250Z 17009KT 120V200 CAVOK 23/15 Q1011=
201209101220 METAR ESMX 101220Z 18011KT 140V210 CAVOK 23/15 Q1011=
201209101150 METAR ESMX 101150Z 18011KT 150V220 CAVOK 23/15 Q1011=
201209101120 METAR ESMX 101120Z 16009KT 120V200 CAVOK 22/16 Q1011=
201209101050 METAR ESMX 101050Z 16006KT 100V190 CAVOK 21/15 Q1011=
201209101020 METAR ESMX 101020Z 18007KT 130V230 9999 FEW035 BKN082 21/15 Q1012=
201209100950 METAR ESMX 100950Z 17009KT 140V210 CAVOK 20/15 Q1012=
201209100920 METAR ESMX 100920Z 16007KT 100V210 CAVOK 19/15 Q1012=
201209100850 METAR ESMX 100850Z 15006KT 120V200 9999 FEW014 18/15 Q1012=
201209100820 METAR ESMX 100820Z 15006KT 110V210 9999 SCT010 17/14 Q1012=
201209100750 METAR ESMX 100750Z 15006KT 090V190 9999 FEW005 BKN007 16/14 Q1012=
201209100720 METAR ESMX 100720Z 15006KT 110V190 9999 BR OVC005 15/14 Q1012=
201209100650 METAR ESMX 100650Z 15005KT 120V190 7000 BR OVC002 15/14 Q1012=
201209100620 METAR ESMX 100620Z 15006KT 110V200 3300 BR OVC002 14/14 Q1013=
201209100550 METAR ESMX 100550Z 15006KT 110V190 2500 BR OVC002 14/13 Q1013=
201209100520 METAR ESMX 100520Z 16006KT 120V200 2600 BR OVC002 14/13 Q1013=
201209100450 METAR ESMX 100450Z 14006KT 090V190 2000 BR BKN002 14/13 Q1013=
201209100420 METAR ESMX 100420Z 15006KT 080V190 1600 BR OVC002 14/13 Q1013=
201209100350 METAR ESMX 100350Z 16006KT 140V200 1800 BR OVC002 13/13 Q1013=
201209100320 METAR ESMX 100320Z AUTO 17007KT 130V210 2700NDV BR OVC001/// 13/13 Q1014=
201209100250 METAR ESMX 100250Z AUTO 16007KT 120V200 2900NDV BR OVC001/// 13/12 Q1014=
201209100220 METAR ESMX 100220Z AUTO 15006KT 110V190 9999NDV OVC003/// 13/12 Q1014=
201209100150 METAR ESMX 100150Z AUTO 14005KT 100V180 9999NDV FEW006/// BKN034/// 13/12 Q1014=
201209100120 METAR ESMX 100120Z AUTO 16005KT 120V190 9999NDV BKN035/// 13/12 Q1015=
201209100050 METAR ESMX 100050Z AUTO 16005KT 110V180 9999NDV OVC034/// 13/12 Q1015=
201209100020 METAR ESMX 100020Z AUTO 16005KT 120V190 9999NDV FEW006/// OVC035/// 13/12 Q1015=
201209092350 METAR ESMX 092350Z AUTO 15005KT 110V210 9999NDV BKN004/// OVC034/// 13/12 Q1015=
201209092250 METAR ESMX 092250Z 14005KT 100V170 9999 OVC005 13/12 Q1016=
201209092220 METAR ESMX 092220Z 17005KT 140V200 9999 BKN006 OVC024 13/11 Q1016=
201209092150 METAR ESMX 092150Z 17005KT 140V200 9999 FEW006 BKN025 13/11 Q1017=
201209092120 METAR ESMX 092120Z 16005KT 120V190 9999 SCT032 13/11 Q1017=
201209092050 METAR ESMX 092050Z 16004KT 9999 FEW027 13/11 Q1017=
201209092020 METAR ESMX 092020Z 16006KT 140V200 9999 OVC029 14/12 Q1017=
201209091950 METAR ESMX 091950Z 17006KT 9999 OVC032 14/12 Q1017=
201209091920 METAR ESMX 091920Z 16005KT 100V190 9999 OVC032 14/12 Q1017=
201209091850 METAR ESMX 091850Z 16005KT 120V200 9999 OVC033 15/12 Q1017=
201209091820 METAR ESMX 091820Z 16005KT 120V200 9999 OVC034 15/12 Q1017=
201209091750 METAR ESMX 091750Z 17004KT 9999 OVC034 14/13 Q1017=
201209091720 METAR ESMX 091720Z 17004KT 140V210 9999 FEW026 OVC034 15/13 Q1017=
201209091650 METAR ESMX 091650Z 18003KT 140V210 9999 FEW011 SCT015 OVC020 15/13 Q1017=
201209091620 METAR ESMX 091620Z 19004KT 9000 -DZ OVC010 15/13 Q1017=
201209091550 METAR ESMX 091550Z 16003KT 120V190 9999 DZ SCT017 OVC029 15/13 Q1017=
201209091520 METAR ESMX 091520Z 19004KT 130V210 9999 FEW017 OVC030 15/13 Q1018=
201209091450 METAR ESMX 091450Z 23005KT 200V260 5000 -DZ FEW010 OVC018 15/13 Q1018=
201209091420 METAR ESMX 091420Z 21007KT 9999 FEW017 BKN020 16/12 Q1018=
201209091350 METAR ESMX 091350Z 20006KT 170V230 9999 SCT018 OVC021 16/12 Q1018=
201209091320 METAR ESMX 091320Z 19007KT 150V220 9999 FEW019 OVC034 16/12 Q1018=
201209091250 METAR ESMX 091250Z 20006KT 170V230 9999 FEW020 OVC030 16/12 Q1018=
201209091220 METAR ESMX 091220Z 21006KT 9999 FEW024 OVC030 16/11 Q1019=
201209091150 METAR ESMX 091150Z 22006KT 9999 FEW025 OVC033 16/10 Q1019=
201209091120 METAR ESMX 091120Z 21007KT 160V250 9999 BKN035 17/10 Q1019=
201209091050 METAR ESMX 091050Z 22006KT 190V250 9999 SCT025 16/10 Q1019=
201209091020 METAR ESMX 091020Z 21009KT 180V240 9999 FEW022 17/11 Q1019=
201209090950 METAR ESMX 090950Z 20009KT 9999 SCT019 16/10 Q1019=
201209090920 METAR ESMX 090920Z 21008KT 170V240 CAVOK 16/10 Q1019=
201209090850 METAR ESMX 090850Z 21006KT 170V240 CAVOK 15/10 Q1019=
201209090820 METAR ESMX 090820Z 18005KT 150V230 CAVOK 14/09 Q1019=
201209090750 METAR ESMX 090750Z 16003KT 120V210 CAVOK 13/08 Q1019=
201209090720 METAR ESMX 090720Z 17003KT 120V210 CAVOK 12/08 Q1019=
201209090650 METAR ESMX 090650Z AUTO VRB02KT 9999NDV FEW100/// 10/09 Q1018=
201209090620 METAR ESMX 090620Z AUTO VRB01KT 9999NDV FEW001/// BKN100/// 09/09 Q1018=
201209090550 METAR ESMX 090550Z AUTO 20001KT 9999NDV FEW082/// BKN100/// 07/07 Q1018=
201209090520 METAR ESMX 090520Z AUTO 20001KT 9999NDV SCT001/// BKN003/// OVC087/// 06/06 Q1018=
201209090450 METAR ESMX 090450Z AUTO 18002KT 9999NDV OVC001/// 05/04 Q1018=
201209090420 METAR ESMX 090420Z AUTO 18002KT 9999NDV FEW089/// BKN100/// 04/03 Q1018=
201209090350 METAR ESMX 090350Z AUTO 15001KT 3300NDV FG BKN090/// 04/03 Q1017=
201209090320 METAR ESMX 090320Z AUTO 17002KT 1000NDV R01/P2000N R19/P2000N FG NCD 03/03 Q1017=
201209090250 METAR ESMX 090250Z AUTO 17002KT 0450NDV R01/P2000N R19/1000VP2000D FEW100/// 03/03 Q1017=
201209090220 METAR ESMX 090220Z AUTO 18002KT 0800NDV R01/P2000N R19/P2000N FEW100/// 04/03 Q1017=
201209090150 METAR ESMX 090150Z AUTO 00000KT 1000NDV R01/P2000D R19/P2000N BR NCD 04/04 Q1017=
201209090120 METAR ESMX 090120Z AUTO 18001KT 0750NDV R01/P2000N R19/P2000N NCD 05/05 Q1017=
201209090050 METAR ESMX 090050Z AUTO VRB01KT 1500NDV NCD 06/05 Q1016=
201209090020 METAR ESMX 090020Z AUTO VRB01KT 2500NDV NCD 07/06 Q1016=
201209082350 METAR ESMX 082350Z AUTO 26002KT 9999NDV NCD 08/07 Q1015=
201209082320 METAR ESMX 082320Z AUTO 25005KT 9999NDV NCD 07/06 Q1015=
201209082250 METAR ESMX 082250Z AUTO 26003KT 9999NDV FEW060/// 09/07 Q1015=
201209082220 METAR ESMX 082220Z AUTO 29004KT 260V330 9999NDV FEW017/// SCT021/// BKN056/// 11/09 Q1015=
201209082150 METAR ESMX 082150Z AUTO 27004KT 9999NDV FEW021/// SCT029/// BKN035/// 11/09 Q1014=
201209082120 METAR ESMX 082120Z AUTO 27003KT 250V320 9999NDV FEW032/// 10/08 Q1014=
201209082050 METAR ESMX 082050Z AUTO 27005KT 9999NDV NCD 10/08 Q1013=
201209082020 METAR ESMX 082020Z AUTO 27005KT 9999NDV NCD 10/08 Q1013=
201209081950 METAR ESMX 081950Z AUTO 26005KT 9999NDV NCD 10/08 Q1013=
201209081920 METAR ESMX 081920Z AUTO 25004KT 9999NDV NCD 10/07 Q1012=
201209081850 METAR ESMX 081850Z AUTO 29005KT 250V320 9999NDV NCD 12/07 Q1012=
201209081820 METAR ESMX 081820Z AUTO 28007KT 9999NDV NCD 12/07 Q1011=
201209081750 METAR ESMX 081750Z AUTO 28010KT 250V310 9999NDV NCD 13/07 Q1011=
201209081720 METAR ESMX 081720Z AUTO 29012G23KT 250V320 9999NDV NCD 13/07 Q1011=
201209081650 METAR ESMX 081650Z AUTO 29012KT 250V320 9999NDV NCD 14/07 Q1010=
201209081620 METAR ESMX 081620Z AUTO 30018G28KT 9999NDV FEW038/// SCT045/// 15/06 Q1010=
201209081550 METAR ESMX 081550Z AUTO 29018KT 250V320 9999NDV FEW039/// 15/07 Q1010=
201209081520 METAR ESMX 081520Z AUTO 27017G28KT 9999NDV FEW047/// 16/07 Q1010=
201209081450 METAR ESMX 081450Z AUTO 28016KT 9999NDV FEW048/// 15/07 Q1010=
201209081420 METAR ESMX 081420Z AUTO 26020KT 9999NDV FEW041/// 16/07 Q1009=
201209081350 METAR ESMX 081350Z AUTO 28016KT 9999NDV BKN039/// 16/07 Q1010=
201209081320 METAR ESMX 081320Z AUTO 27018G32KT 9999NDV FEW033/// SCT040/// BKN047/// 15/06 Q1010=
201209081250 METAR ESMX 081250Z AUTO 28015KT 9999NDV SCT035/// BKN044/// 15/07 Q1010=
201209081220 METAR ESMX 081220Z AUTO 27015G27KT 230V320 9999NDV FEW035/// SCT041/// BKN051/// 15/07 Q1010=
201209081150 METAR ESMX 081150Z AUTO 27015G25KT 9999NDV BKN038/// 15/07 Q1010=
201209081120 METAR ESMX 081120Z AUTO 28016KT 250V320 9999NDV FEW038/// BKN043/// 15/07 Q1010=
201209081050 METAR ESMX 081050Z AUTO 28014KT 250V310 9999NDV FEW035/// SCT042/// 15/07 Q1010=
201209081020 METAR ESMX 081020Z AUTO 27018KT 250V310 9999NDV FEW033/// BKN039/// 16/08 Q1010=
201209080950 METAR ESMX 080950Z 25013KT 220V320 9999 BKN031 16/08 Q1010=
201209080920 METAR ESMX 080920Z 27015G25KT 230V300 9999 BKN033 15/07 Q1010=
201209080850 METAR ESMX 080850Z 27011G21KT 240V310 9999 FEW027 BKN035 14/08 Q1011=
201209080820 METAR ESMX 080820Z 28013KT 240V320 9999 FEW025 OVC029 14/08 Q1011=
201209080750 METAR ESMX 080750Z 28014KT 9999 SCT024 OVC029 13/08 Q1011=
201209080720 METAR ESMX 080720Z 26013KT 230V300 9999 FEW020 OVC025 13/09 Q1011=
201209080650 METAR ESMX 080650Z AUTO 27010KT 230V300 9999NDV FEW023/// OVC029/// 12/08 Q1011=
201209080620 METAR ESMX 080620Z AUTO 27008KT 230V300 9999NDV BKN027/// 12/08 Q1011=
201209080550 METAR ESMX 080550Z AUTO 26009KT 9999NDV OVC026/// 12/08 Q1011=
201209080520 METAR ESMX 080520Z AUTO 26008KT 240V300 9999NDV OVC028/// 11/08 Q1011=
201209080450 METAR ESMX 080450Z AUTO 27009KT 9999NDV OVC030/// 11/08 Q1011=
201209080420 METAR ESMX 080420Z AUTO 27009KT 9999NDV BKN031/// 11/08 Q1011=
201209080350 METAR ESMX 080350Z AUTO 26009KT 230V300 9999NDV BKN029/// 10/08 Q1011=
201209080320 METAR ESMX 080320Z AUTO 26007KT 230V290 9999NDV BKN032/// 10/08 Q1011=
201209080250 METAR ESMX 080250Z AUTO 24006KT 190V260 9999NDV BKN030/// 10/08 Q1011=
201209080220 METAR ESMX 080220Z AUTO 25006KT 9999NDV SCT033/// 09/08 Q1011=
201209080150 METAR ESMX 080150Z AUTO 25007KT 9999NDV NCD 09/08 Q1012=
201209080120 METAR ESMX 080120Z AUTO 25006KT 9999NDV FEW032/// 09/08 Q1012=
201209080050 METAR ESMX 080050Z AUTO 24006KT 200V260 9999NDV NCD 09/08 Q1012=
201209080020 METAR ESMX 080020Z AUTO 24005KT 200V280 9999NDV FEW027/// 10/08 Q1012=
201209072350 METAR ESMX 072350Z AUTO 24006KT 200V310 9999NDV FEW022/// SCT027/// 09/08 Q1012=
201209072320 METAR ESMX 072320Z AUTO 22007KT 9999NDV FEW024/// 10/08 Q1012=
201209072250 METAR ESMX 072250Z AUTO 24006KT 9999NDV NCD 09/08 Q1012=
201209072220 METAR ESMX 072220Z AUTO 23006KT 190V260 9999NDV FEW020/// 09/08 Q1012=
201209072150 METAR ESMX 072150Z AUTO 25006KT 9999NDV FEW021/// 10/08 Q1012=
201209072120 METAR ESMX 072120Z AUTO 25006KT 9999NDV FEW025/// 10/07 Q1012=
201209072050 METAR ESMX 072050Z AUTO 23006KT 190V270 9999NDV NCD 10/08 Q1012=
201209072020 METAR ESMX 072020Z AUTO 26007KT 9999NDV NCD 10/07 Q1012=
201209071950 METAR ESMX 071950Z AUTO 24006KT 210V280 9999NDV NCD 10/07 Q1012=
201209071920 METAR ESMX 071920Z AUTO 25006KT 9999NDV NCD 10/07 Q1012=
201209071850 METAR ESMX 071850Z 26006KT CAVOK 11/07 Q1012=
201209071820 METAR ESMX 071820Z 26005KT 9999 FEW041 11/07 Q1012=
201209071750 METAR ESMX 071750Z 27006KT 9999 FEW034 SCT042 12/07 Q1011=
201209071720 METAR ESMX 071720Z 26008KT 9999 SCT035 13/07 Q1011=
201209071650 METAR ESMX 071650Z 28011KT 230V310 9999 BKN035 13/06 Q1011=
201209071620 METAR ESMX 071620Z 28012KT 250V320 9999 BKN035 13/06 Q1011=
201209071550 METAR ESMX 071550Z 27015KT 9999 SCT035 14/06 Q1011=
201209071520 METAR ESMX 071520Z 27014KT 230V300 9999 SCT036 14/07 Q1010=
201209071450 METAR ESMX 071450Z 27013KT 240V300 9999 FEW036 16/07 Q1010=
201209071420 METAR ESMX 071420Z 26012KT 230V290 9999 SCT035 15/08 Q1010=
201209071350 METAR ESMX 071350Z 25012KT 220V290 9999 SCT037 16/08 Q1010=
201209071320 METAR ESMX 071320Z 25010KT 210V280 9999 SCT036 16/09 Q1009=
201209071250 METAR ESMX 071250Z 26013KT 230V300 9999 SCT035 17/07 Q1009=
201209071220 METAR ESMX 071220Z 25012KT 210V290 9999 SCT035 17/09 Q1009=
201209071150 METAR ESMX 071150Z 27013G23KT 230V310 9999 FEW027 SCT037 16/09 Q1009=
201209071120 METAR ESMX 071120Z 28012KT 250V320 9999 FEW031 SCT040 16/09 Q1009=
201209071050 METAR ESMX 071050Z 26012KT 210V290 9999 FEW025 SCT036 BKN048 17/11 Q1009=
201209071020 METAR ESMX 071020Z 27011KT 230V290 9999 FEW023 BKN030 16/11 Q1009=
201209070950 METAR ESMX 070950Z 28012KT 240V320 9999 FEW015 SCT020 16/12 Q1009=
201209070920 METAR ESMX 070920Z 27009KT 230V340 9999 FEW012 SCT016 BKN042 15/12 Q1009=
201209070850 METAR ESMX 070850Z 27009KT 240V300 9999 FEW012 SCT014 BKN017 15/13 Q1009=
201209070820 METAR ESMX 070820Z 27007KT 230V290 9999 FEW012 SCT023 BKN043 15/13 Q1009 RERA=
201209070750 METAR ESMX 070750Z 27008KT 240V300 9999 -RA FEW008 SCT012 BKN014 14/13 Q1008=
201209070720 METAR ESMX 070720Z 26007KT 230V300 9999 FEW007 BKN010 14/13 Q1008=
201209070650 METAR ESMX 070650Z 25006KT 230V290 9999 FEW006 SCT008 BKN012 13/12 Q1008 RERA=
201209070620 METAR ESMX 070620Z 25007KT 220V290 3000 -RA FEW006 BKN008 OVC010 13/12 Q1008=
201209070550 METAR ESMX 070550Z 25006KT 210V290 9999 FEW007 SCT008 BKN010 13/12 Q1008=
201209070520 METAR ESMX 070520Z 23006KT 9000 FEW006 SCT009 BKN012 13/12 Q1008=
201209070450 METAR ESMX 070450Z 24006KT 220V280 9999 FEW006 OVC009 13/12 Q1008=
201209070420 METAR ESMX 070420Z 23007KT 200V260 9999 FEW006 BKN009 12/12 Q1008=
201209070350 METAR ESMX 070350Z 23006KT 9999 SCT008 BKN012 12/11 Q1008=
201209070320 METAR ESMX 070320Z AUTO 23006KT 9999NDV FEW006/// SCT010/// BKN013/// 12/11 Q1008=
201209070250 METAR ESMX 070250Z AUTO 23005KT 200V270 9999NDV FEW006/// BKN009/// OVC013/// 12/11 Q1008=
201209070220 METAR ESMX 070220Z AUTO 21006KT 9999NDV FEW004/// SCT008/// BKN009/// 12/11 Q1008=
201209070150 METAR ESMX 070150Z AUTO 22006KT 9999NDV -RA FEW004/// SCT006/// BKN008/// 11/11 Q1009=
201209070120 METAR ESMX 070120Z AUTO 23009KT 200V280 9999NDV FEW003/// BKN005/// OVC007/// 11/10 Q1009=
201209070050 METAR ESMX 070050Z AUTO 20009KT 9999NDV UP BKN004/// OVC007/// 11/10 Q1009 REDZ=
201209070020 METAR ESMX 070020Z AUTO 19010KT 9999NDV -DZ FEW004/// BKN005/// OVC008/// 11/10 Q1010=
201209062350 METAR ESMX 062350Z 20009KT 9999 -DZ FEW004 SCT005 BKN007 10/10 Q1010=
201209062320 METAR ESMX 062320Z 21010KT 9999 DZ SCT004 BKN012 10/09 Q1011=
201209062250 METAR ESMX 062250Z 19009KT 7000 -RA FEW004 BKN005 OVC008 10/09 Q1012=
201209062220 METAR ESMX 062220Z 18008KT 7000 DZ SCT005 BKN008 BKN026 10/09 Q1012=
201209062150 METAR ESMX 062150Z 20008KT 8000 DZ FEW006 09/09 Q1013=
201209062120 METAR ESMX 062120Z 20008KT 8000 DZ FEW018 SCT025 BKN030 09/08 Q1013=
201209062050 METAR ESMX 062050Z 22006KT 9999 DZ FEW020 SCT041 BKN047 10/08 Q1014=
201209062020 METAR ESMX 062020Z 25008KT 230V290 9000 DZ SCT025 BKN050 10/08 Q1014=
201209061950 METAR ESMX 061950Z 25009KT 9999 -SHRA FEW032 BKN050 11/07 Q1015=
201209061920 METAR ESMX 061920Z 21007KT 9999 FEW032 BKN050 11/08 Q1015=
201209061850 METAR ESMX 061850Z 21005KT 9999 FEW040 BKN050 11/08 Q1015 REDZ=
201209061820 METAR ESMX 061820Z 22005KT 9999 -DZ FEW030 BKN050 11/07 Q1015=
201209061750 METAR ESMX 061750Z 25006KT 9999 FEW030 BKN050 12/06 Q1016=
201209061720 METAR ESMX 061720Z 26007KT 220V290 9999 FEW030 BKN050 12/06 Q1016=
201209061650 METAR ESMX 061650Z 25007KT 230V290 9999 FEW044 12/06 Q1016=
201209061620 METAR ESMX 061620Z 26010KT 230V290 9999 SCT040 13/06 Q1016=
201209061550 METAR ESMX 061550Z 24012KT 200V280 9999 SCT030 13/06 Q1017=
201209061520 METAR ESMX 061520Z 26013KT 230V290 9999 FEW030 SCT035 14/07 Q1017=
201209061450 METAR ESMX 061450Z 26010KT 9999 FEW029 SCT042 15/06 Q1017=
201209061420 METAR ESMX 061420Z 26009KT 230V300 9999 SCT045 15/05 Q1017=
201209061350 METAR ESMX 061350Z 26008KT 230V290 9999 SCT045 16/05 Q1017=
201209061320 METAR ESMX 061320Z 22010KT 9999 FEW047 16/03 Q1018=
201209061250 METAR ESMX 061250Z 26009KT 230V300 CAVOK 16/04 Q1018=
201209061220 METAR ESMX 061220Z 29007KT 240V310 9999 FEW045 16/03 Q1018=
201209061150 METAR ESMX 061150Z 26010KT CAVOK 16/04 Q1018=
201209061120 METAR ESMX 061120Z 29007KT 230V320 9999 FEW040 15/03 Q1018=
201209061050 METAR ESMX 061050Z 28008KT 250V320 CAVOK 15/03 Q1018=
201209061020 METAR ESMX 061020Z 29008KT 250V340 CAVOK 15/04 Q1018=
201209060950 METAR ESMX 060950Z 33005KT 270V010 CAVOK 14/05 Q1018=
201209060920 METAR ESMX 060920Z 30007KT 260V340 CAVOK 14/04 Q1018=
201209060850 METAR ESMX 060850Z 31006KT 270V350 CAVOK 14/05 Q1018=
201209060820 METAR ESMX 060820Z 36005KT 320V030 CAVOK 13/05 Q1018=
201209060750 METAR ESMX 060750Z 01008KT CAVOK 12/05 Q1018=
201209060720 METAR ESMX 060720Z 34008KT CAVOK 12/06 Q1017=
201209060650 METAR ESMX 060650Z 32006KT 290V350 CAVOK 11/07 Q1017=
201209060620 METAR ESMX 060620Z 32005KT CAVOK 09/07 Q1017=
201209060550 METAR ESMX 060550Z 32005KT CAVOK 08/06 Q1017=
201209060520 METAR ESMX 060520Z 33004KT 290V360 CAVOK 07/06 Q1016=
201209060450 METAR ESMX 060450Z 31003KT CAVOK 06/05 Q1016=
201209060420 METAR ESMX 060420Z 29003KT CAVOK 05/04 Q1016=
201209060350 METAR ESMX 060350Z 30002KT CAVOK 06/05 Q1015=
201209060320 METAR ESMX 060320Z AUTO 30004KT 280V340 9999NDV NCD 06/05 Q1015=
201209060250 METAR ESMX 060250Z AUTO 29005KT 9999NDV SCT066/// 07/06 Q1015=
201209060220 METAR ESMX 060220Z AUTO 28003KT 9999NDV NCD 08/06 Q1014=
201209060150 METAR ESMX 060150Z AUTO 27004KT 230V290 9999NDV NCD 08/07 Q1014=
201209060120 METAR ESMX 060120Z AUTO 27005KT 9999NDV NCD 08/07 Q1014=
201209060050 METAR ESMX 060050Z AUTO 26006KT 9999NDV NCD 08/07 Q1014=
201209060020 METAR ESMX 060020Z AUTO 26005KT 9999NDV NCD 08/07 Q1014=
201209052350 METAR ESMX 052350Z 26005KT CAVOK 09/07 Q1014=
201209052320 METAR ESMX 052320Z 26005KT CAVOK 09/07 Q1014=
201209052250 METAR ESMX 052250Z 25005KT 210V290 CAVOK 09/07 Q1014=
201209052220 METAR ESMX 052220Z 24004KT CAVOK 09/07 Q1014=
201209052150 METAR ESMX 052150Z 24006KT CAVOK 09/07 Q1014=
201209052120 METAR ESMX 052120Z 25005KT CAVOK 10/07 Q1013=
201209052050 METAR ESMX 052050Z 25005KT CAVOK 10/08 Q1013=
201209052020 METAR ESMX 052020Z 26004KT CAVOK 11/07 Q1013=
201209051950 METAR ESMX 051950Z 26005KT CAVOK 12/08 Q1013=
201209051920 METAR ESMX 051920Z 27005KT 9999 FEW030 BKN050 12/08 Q1013=
201209051850 METAR ESMX 051850Z 26005KT 230V290 9999 FEW030 BKN050 13/08 Q1013=
201209051820 METAR ESMX 051820Z 24005KT 210V280 9999 FEW030 OVC049 13/08 Q1013=
201209051750 METAR ESMX 051750Z 25004KT 230V290 9999 FEW030 BKN045 13/08 Q1012=
201209051720 METAR ESMX 051720Z 27005KT 230V300 9999 FEW030 BKN045 13/08 Q1012=
201209051650 METAR ESMX 051650Z 26008KT 9999 BKN046 14/08 Q1012=
201209051620 METAR ESMX 051620Z 27008KT 230V290 9999 BKN042 14/08 Q1012=
201209051550 METAR ESMX 051550Z 28011KT 240V310 9999 BKN042 14/07 Q1012=
201209051520 METAR ESMX 051520Z 28013KT 250V310 9999 FEW038 BKN043 15/07 Q1012=
201209051450 METAR ESMX 051450Z 28012KT 250V320 9999 BKN037 15/08 Q1012=
201209051420 METAR ESMX 051420Z 27014KT 230V300 9999 BKN039 16/07 Q1012=
201209051350 METAR ESMX 051350Z 27016KT 240V330 9999 SCT037 17/08 Q1012=
201209051320 METAR ESMX 051320Z 26014G24KT 9999 BKN038 17/08 Q1011=
201209051250 METAR ESMX 051250Z 28015G26KT 240V310 9999 SCT041 16/08 Q1012=
201209051220 METAR ESMX 051220Z 28013G25KT 240V300 9999 FEW037 16/08 Q1011=
201209051150 METAR ESMX 051150Z 28016G27KT 240V320 9999 FEW037 SCT042 16/08 Q1011=
201209051120 METAR ESMX 051120Z 27016G27KT 240V300 9999 FEW033 BKN039 17/08 Q1011=
201209051050 METAR ESMX 051050Z 27015KT 230V310 9999 FEW030 BKN041 16/09 Q1011=
201209051020 METAR ESMX 051020Z 26015G25KT 230V310 9999 BKN030 16/10 Q1011=
201209050950 METAR ESMX 050950Z 27018KT 240V300 9999 FEW024 BKN027 16/09 Q1011=
201209050920 METAR ESMX 050920Z 26013G23KT 210V290 9999 BKN026 16/10 Q1012=
201209050850 METAR ESMX 050850Z 25014KT 200V280 9999 FEW027 SCT037 15/10 Q1012=
201209050820 METAR ESMX 050820Z 26012KT 9999 SCT026 BKN034 BKN041 15/09 Q1012=
201209050750 METAR ESMX 050750Z 24013G24KT 9999 FEW030 OVC038 15/09 Q1012=
201209050720 METAR ESMX 050720Z 26011KT 220V290 9999 FEW031 OVC036 14/09 Q1012=
201209050650 METAR ESMX 050650Z 24009KT 210V300 9999 OVC034 13/09 Q1012=
201209050620 METAR ESMX 050620Z 25008KT 220V300 9999 FEW027 OVC038 12/10 Q1012=
201209050550 METAR ESMX 050550Z 23007KT 200V260 9999 FEW026 SCT032 12/09 Q1012=
201209050520 METAR ESMX 050520Z 23007KT 9999 FEW027 11/09 Q1012=
201209050450 METAR ESMX 050450Z 23008KT 9999 SCT036 11/09 Q1012=
201209050420 METAR ESMX 050420Z 22008KT 9999 FEW025 SCT036 11/09 Q1012=
201209050350 METAR ESMX 050350Z 23007KT 9999 BKN036 11/09 Q1012=
201209050320 METAR ESMX 050320Z 23006KT CAVOK 10/09 Q1012=
201209050250 METAR ESMX 050250Z AUTO 25007KT 9999NDV NCD 11/09 Q1012=
201209050220 METAR ESMX 050220Z AUTO 26006KT 9999NDV NCD 11/09 Q1012=
201209050150 METAR ESMX 050150Z AUTO 26008KT 230V290 9999NDV NCD 11/09 Q1012=
201209050120 METAR ESMX 050120Z AUTO 26008KT 9999NDV NCD 11/09 Q1013=
201209050050 METAR ESMX 050050Z 26009KT 230V290 CAVOK 11/09 Q1013=
201209050020 METAR ESMX 050020Z 26008KT 230V290 CAVOK 11/09 Q1013=
201209042350 METAR ESMX 042350Z 26010KT 220V290 CAVOK 12/09 Q1013=
201209042320 METAR ESMX 042320Z 26009KT CAVOK 12/09 Q1013=
201209042250 METAR ESMX 042250Z 26010KT 230V290 9999 FEW023 12/09 Q1013=
201209042220 METAR ESMX 042220Z 26010KT 220V290 9999 SCT020 13/09 Q1013=
201209042150 METAR ESMX 042150Z 26012KT 230V290 9999 FEW017 SCT022 14/11 Q1013=
201209042120 METAR ESMX 042120Z 26010KT 230V290 9999 FEW022 14/11 Q1013=
201209042050 METAR ESMX 042050Z 26008KT 240V300 9999 FEW015 15/12 Q1012=
201209042020 METAR ESMX 042020Z 26009KT 210V300 9999 SCT015 15/13 Q1012=
201209041950 METAR ESMX 041950Z 25009KT 220V290 9999 FEW015 SCT020 BKN023 15/14 Q1013=
201209041920 METAR ESMX 041920Z 24007KT 200V270 9999 BKN016 15/14 Q1013=
201209041850 METAR ESMX 041850Z 24007KT 210V280 9999 FEW007 SCT014 BKN031 16/14 Q1013=
201209041820 METAR ESMX 041820Z 23008KT 200V260 9999 FEW005 SCT006 BKN008 16/15 Q1013 REDZ=
201209041750 METAR ESMX 041750Z 23009KT 3500 DZ FEW004 BKN006 OVC010 16/15 Q1012=
201209041720 METAR ESMX 041720Z 23010KT 200V260 4000 DZ OVC010 16/14 Q1012=
201209041650 METAR ESMX 041650Z 23010KT 200V260 9999 OVC012 16/14 Q1013=
201209041620 METAR ESMX 041620Z 22008KT 200V260 9999 FEW013 BKN015 16/14 Q1013=
201209041550 METAR ESMX 041550Z 24011KT 200V260 9999 FEW018 OVC021 17/13 Q1014=
201209041520 METAR ESMX 041520Z 23010KT 200V270 9999 SCT022 BKN033 18/13 Q1014=
201209041450 METAR ESMX 041450Z 23009KT 200V290 9999 FEW022 BKN034 18/13 Q1014=
201209041420 METAR ESMX 041420Z 22010KT 170V250 9999 FEW018 BKN022 17/13 Q1015=
201209041350 METAR ESMX 041350Z 21012KT 170V240 9999 FEW015 BKN019 18/14 Q1015=
201209041320 METAR ESMX 041320Z 22010KT 190V260 9999 FEW013 BKN015 17/14 Q1015=
201209041250 METAR ESMX 041250Z 22011KT 9999 BKN011 16/14 Q1016=
201209041220 METAR ESMX 041220Z 23011KT 9999 BKN012 16/14 Q1016=
201209041150 METAR ESMX 041150Z 22012KT 190V250 9999 OVC011 16/14 Q1016=
201209041120 METAR ESMX 041120Z 23011KT 9999 FEW011 OVC013 16/13 Q1016=
201209041050 METAR ESMX 041050Z 23010KT 200V260 9999 BKN008 16/14 Q1016=
201209041020 METAR ESMX 041020Z 22009KT 190V250 9999 BKN006 15/14 Q1017=
201209040950 METAR ESMX 040950Z 22009KT 9999 FEW007 SCT009 OVC010 16/14 Q1017=
201209040920 METAR ESMX 040920Z 24009KT 200V290 9999 SCT006 BKN012 16/13 Q1017=
201209040850 METAR ESMX 040850Z 23010KT 180V260 9999 FEW006 SCT007 BKN010 16/13 Q1017=
201209040820 METAR ESMX 040820Z 24009KT 9000 BKN005 OVC008 15/13 Q1017=
201209040750 METAR ESMX 040750Z 23007KT 9999 BKN005 OVC008 14/13 Q1017=
201209040720 METAR ESMX 040720Z 22007KT 9999 SCT005 BKN007 OVC021 14/13 Q1018=
201209040650 METAR ESMX 040650Z 21008KT 9999 BR FEW003 SCT004 BKN005 14/13 Q1018=
201209040620 METAR ESMX 040620Z 19005KT 5000 BR FEW003 SCT004 BKN014 13/12 Q1018=
201209040550 METAR ESMX 040550Z 20005KT 7000 BR SCT002 BKN005 13/12 Q1018=
201209040520 METAR ESMX 040520Z 22006KT 8000 BR FEW002 SCT003 BKN018 13/12 Q1018=
201209040450 METAR ESMX 040450Z 19006KT 8000 BR SCT002 OVC021 13/12 Q1018=
201209040420 METAR ESMX 040420Z 21006KT 9999 SCT002 BKN011 OVC025 12/12 Q1018=
201209040350 METAR COR ESMX 040350Z 21005KT 9999 SCT002 BKN025 12/12 Q1019=
201209040320 METAR ESMX 040320Z AUTO 18004KT 3400NDV OVC001/// 12/11 Q1019=
201209040250 METAR ESMX 040250Z AUTO 20005KT 0300NDV R01/0800V1300N R19/1500D FG VV001 12/11 Q1019=
201209040220 METAR ESMX 040220Z AUTO 19006KT 0450NDV R01/1200V1900U R19/1500U FG VV001 12/11 Q1019=
201209040150 METAR ESMX 040150Z AUTO 19005KT 0550NDV R01/1400VP2000D R19/P2000N FG BKN002/// 12/11 Q1019=
201209040120 METAR ESMX 040120Z AUTO 21005KT 9000NDV BR FEW003/// SCT015/// 12/12 Q1019=
201209040050 METAR ESMX 040050Z AUTO 19005KT 7000NDV BR FEW002/// 12/11 Q1019=
201209040020 METAR ESMX 040020Z AUTO 18005KT 9000NDV SCT002/// 12/11 Q1019=
201209032350 METAR ESMX 032350Z 19006KT CAVOK 12/11 Q1019=
201209032320 METAR ESMX 032320Z 23005KT CAVOK 12/11 Q1019=
201209032250 METAR ESMX 032250Z 23006KT CAVOK 12/11 Q1019=
201209032220 METAR ESMX 032220Z 23006KT CAVOK 12/11 Q1019=
201209032150 METAR ESMX 032150Z 23005KT CAVOK 12/11 Q1020=
201209032120 METAR ESMX 032120Z 23005KT CAVOK 13/11 Q1020=
201209032050 METAR ESMX 032050Z 24006KT CAVOK 13/11 Q1020=
201209032020 METAR ESMX 032020Z 22004KT CAVOK 13/11 Q1020=
201209031950 METAR ESMX 031950Z 20004KT 9999 FEW030 13/11 Q1020=
201209031920 METAR ESMX 031920Z 23004KT CAVOK 14/11 Q1020=
201209031850 METAR ESMX 031850Z 25005KT CAVOK 14/11 Q1020=
201209031820 METAR ESMX 031820Z 25005KT 230V290 CAVOK 14/11 Q1020=
201209031750 METAR ESMX 031750Z 25005KT 210V290 CAVOK 15/11 Q1019=
201209031720 METAR ESMX 031720Z 26005KT 230V290 9999 FEW041 16/11 Q1019=
201209031650 METAR ESMX 031650Z 27008KT 9999 FEW035 17/11 Q1019=
201209031620 METAR ESMX 031620Z 27010KT 230V300 9999 FEW030 18/11 Q1019=
201209031550 METAR ESMX 031550Z 27011KT 9999 FEW030 18/11 Q1019=
201209031520 METAR ESMX 031520Z 27010KT 240V300 9999 FEW035 19/12 Q1019=
201209031450 METAR ESMX 031450Z 28010KT 240V300 9999 FEW039 18/11 Q1019=
201209031420 METAR ESMX 031420Z 28012KT 240V310 9999 SCT033 19/11 Q1019=
201209031350 METAR ESMX 031350Z 28011KT 240V320 9999 FEW033 SCT048 19/11 Q1019=
201209031320 METAR ESMX 031320Z 28011KT 250V330 9999 FEW033 SCT041 18/11 Q1019=
201209031250 METAR ESMX 031250Z 28010KT 250V320 9999 FEW031 SCT043 BKN051 19/11 Q1019=
201209031220 METAR ESMX 031220Z 28009KT 250V320 9999 FEW033 BKN048 18/11 Q1019=
201209031150 METAR ESMX 031150Z 25013KT 210V320 9999 SCT030 BKN045 18/11 Q1019=
201209031120 METAR ESMX 031120Z 25011KT 210V280 9999 FEW028 SCT050 17/12 Q1019=
201209031050 METAR ESMX 031050Z 27010KT 240V300 9999 FEW030 SCT045 17/12 Q1019=
201209031020 METAR ESMX 031020Z 26012KT 9999 FEW025 BKN045 17/11 Q1019=
201209030950 METAR ESMX 030950Z 27011KT 220V300 9999 FEW024 BKN039 17/12 Q1019=
201209030920 METAR ESMX 030920Z 27010KT 9999 SCT020 BKN030 16/11 Q1019=
201209030850 METAR ESMX 030850Z 27009KT 210V320 9999 FEW014 BKN032 16/11 Q1019=
201209030820 METAR ESMX 030820Z 27007KT 240V310 9999 FEW013 SCT017 BKN021 15/12 Q1019=
201209030750 METAR ESMX 030750Z 26008KT 220V300 9999 BKN010 OVC017 14/12 Q1019=
201209030720 METAR ESMX 030720Z 26008KT 220V290 9999 FEW009 SCT010 OVC013 14/12 Q1019=
201209030650 METAR ESMX 030650Z 25008KT 9999 SCT008 BKN010 BKN014 13/12 Q1019=
201209030620 METAR ESMX 030620Z 25008KT 210V280 9999 FEW008 BKN009 13/12 Q1019=
201209030550 METAR ESMX 030550Z 24006KT 9999 FEW009 BKN012 BKN020 13/11 Q1019=
201209030520 METAR ESMX 030520Z 22005KT 9999 BKN020 13/11 Q1019=
201209030450 METAR ESMX 030450Z 22006KT 190V250 9999 FEW015 BKN020 13/11 Q1019=
201209030420 METAR ESMX 030420Z 23005KT 9999 FEW011 OVC021 13/11 Q1019=
201209030350 METAR ESMX 030350Z 24005KT 9999 SCT009 BKN018 13/11 Q1019=
201209030320 METAR ESMX 030320Z AUTO 23005KT 9999NDV FEW017/// OVC022/// 13/11 Q1019=
201209030250 METAR ESMX 030250Z AUTO 25004KT 9999NDV FEW012/// SCT016/// BKN024/// 13/11 Q1019=
201209030220 METAR ESMX 030220Z AUTO 27005KT 240V320 9999NDV FEW012/// SCT016/// BKN021/// 13/11 Q1019=
201209030150 METAR ESMX 030150Z AUTO 27007KT 240V300 9999NDV FEW017/// SCT021/// BKN026/// 14/11 Q1019=
201209030120 METAR ESMX 030120Z AUTO 27012KT 240V310 9999NDV FEW009/// BKN027/// 15/12 Q1019=
201209030050 METAR ESMX 030050Z AUTO 23005KT 200V270 9999NDV FEW009/// SCT017/// BKN024/// 15/14 Q1018=
201209030020 METAR ESMX 030020Z AUTO 21006KT 9999NDV FEW007/// SCT011/// BKN014/// 15/14 Q1018=
201209022350 METAR ESMX 022350Z 21007KT 9999 FEW005 SCT007 BKN009 15/14 Q1018=
201209022320 METAR ESMX 022320Z 23006KT 8000 BR FEW006 BKN007 OVC011 15/14 Q1018=
201209022250 METAR ESMX 022250Z 22007KT 9999 SCT005 BKN007 OVC009 15/14 Q1018=
201209022220 METAR ESMX 022220Z 21007KT 7000 BR FEW004 OVC006 15/14 Q1019 REDZ=
201209022150 METAR ESMX 022150Z 22008KT 6000 BR BKN005 OVC012 15/14 Q1019=
201209022120 METAR ESMX 022120Z 21007KT 180V240 9999 OVC005 15/14 Q1019=
201209022050 METAR ESMX 022050Z 23008KT 190V270 9999 BKN006 OVC009 15/14 Q1019=
201209022020 METAR ESMX 022020Z 22007KT 9999 SCT007 BKN009 OVC010 15/14 Q1019=
201209021950 METAR ESMX 021950Z 23007KT 9999 FEW008 BKN009 15/14 Q1019=
201209021920 METAR ESMX 021920Z 21008KT 180V240 9999 FEW009 SCT011 BKN014 15/13 Q1019=
201209021850 METAR ESMX 021850Z 24008KT 200V260 9999 FEW007 BKN017 16/13 Q1019=
201209021820 METAR ESMX 021820Z 20005KT 9999 FEW025 SCT032 BKN037 16/13 Q1019=
201209021750 METAR ESMX 021750Z 22006KT 9999 FEW025 SCT029 BKN035 16/13 Q1019=
201209021720 METAR ESMX 021720Z 20005KT 9999 SCT028 BKN035 OVC053 17/13 Q1019=
201209021650 METAR ESMX 021650Z 21007KT 9999 FEW030 SCT044 BKN053 17/12 Q1019=
201209021620 METAR ESMX 021620Z 21007KT 9999 FEW036 SCT046 BKN059 17/12 Q1019=
201209021550 METAR ESMX 021550Z 23008KT 200V260 9999 FEW033 OVC039 17/12 Q1019=
201209021520 METAR ESMX 021520Z 23009KT 9999 SCT030 18/12 Q1019=
201209021450 METAR ESMX 021450Z 23008KT 180V260 9999 FEW027 SCT042 18/12 Q1019=
201209021420 METAR ESMX 021420Z 22009KT 9999 FEW027 SCT033 18/13 Q1019=
201209021350 METAR ESMX 021350Z 22009KT 190V250 9999 FEW027 SCT036 18/12 Q1019=
201209021320 METAR ESMX 021320Z 22010KT 190V250 9999 FEW023 SCT027 BKN031 17/13 Q1019=
201209021250 METAR ESMX 021250Z 20012KT 9999 FEW017 SCT030 BKN035 17/13 Q1020=
201209021220 METAR ESMX 021220Z 22010KT 180V240 9999 FEW021 SCT025 BKN028 16/13 Q1020=
201209021150 METAR ESMX 021150Z 22008KT 200V260 9999 FEW010 SCT020 BKN028 15/13 Q1020 RERA=
201209021120 METAR ESMX 021120Z 20010KT 5000 -RA FEW009 BKN014 OVC020 15/12 Q1020=
201209021050 METAR ESMX 021050Z 22011KT 9999 OVC014 15/12 Q1020=
201209021020 METAR ESMX 021020Z 19012KT 160V220 9999 BKN012 OVC017 15/12 Q1020=
201209020950 METAR ESMX 020950Z 20012KT 9999 OVC012 15/12 Q1020=
201209020920 METAR ESMX 020920Z 21010KT 9999 BKN014 15/12 Q1020=
201209020850 METAR ESMX 020850Z 21009KT 180V250 9999 BKN013 15/12 Q1020=
201209020820 METAR ESMX 020820Z 20011KT 9999 OVC011 14/12 Q1020=
201209020750 METAR ESMX 020750Z 21011KT 9999 OVC010 13/11 Q1020=
201209020720 METAR ESMX 020720Z 19011KT 9999 FEW009 OVC011 13/11 Q1020=
201209020650 METAR ESMX 020650Z AUTO 20011KT 9999NDV FEW010/// BKN014/// BKN029/// 12/10 Q1020=
201209020620 METAR ESMX 020620Z AUTO 20011KT 9999NDV FEW011/// SCT022/// BKN028/// 12/10 Q1020=
201209020550 METAR ESMX 020550Z AUTO 20010KT 9999NDV BKN013/// BKN025/// 11/09 Q1020=
201209020520 METAR ESMX 020520Z AUTO 21009KT 9999NDV -DZ BKN014/// BKN018/// 11/09 Q1020=
201209020450 METAR ESMX 020450Z AUTO 19009KT 9999NDV FEW017/// SCT021/// BKN027/// 11/09 Q1020=
201209020420 METAR ESMX 020420Z AUTO 19008KT 9999NDV FEW018/// BKN022/// OVC026/// 10/09 Q1020=
201209020350 METAR ESMX 020350Z AUTO 20008KT 9999NDV BKN020/// OVC031/// 10/09 Q1020=
201209020320 METAR ESMX 020320Z AUTO 21007KT 9999NDV FEW025/// OVC031/// 10/08 Q1020=
201209020250 METAR ESMX 020250Z AUTO 21007KT 9999NDV FEW035/// 08/08 Q1021=
201209020220 METAR ESMX 020220Z AUTO 19006KT 9999NDV NCD 08/07 Q1021=
201209020150 METAR ESMX 020150Z AUTO 20005KT 9999NDV NCD 08/07 Q1021=
201209020120 METAR ESMX 020120Z AUTO 19006KT 9999NDV NCD 08/07 Q1021=
201209020050 METAR ESMX 020050Z AUTO 21006KT 9999NDV NCD 09/07 Q1021=
201209020020 METAR ESMX 020020Z AUTO 19005KT 9999NDV NCD 08/07 Q1021=
201209012350 METAR ESMX 012350Z AUTO 20005KT 9999NDV NCD 08/07 Q1021=
201209012320 METAR ESMX 012320Z AUTO 19005KT 9999NDV NCD 08/07 Q1021=
201209012250 METAR ESMX 012250Z AUTO 22005KT 9999NDV FEW037/// 09/07 Q1021=
201209012220 METAR ESMX 012220Z AUTO 22005KT 9999NDV NCD 09/07 Q1021=
201209012150 METAR ESMX 012150Z AUTO 22005KT 9999NDV SCT035/// 10/07 Q1021=
201209012120 METAR ESMX 012120Z AUTO 23005KT 9999NDV SCT036/// 10/08 Q1021=
201209012050 METAR ESMX 012050Z AUTO 21005KT 9999NDV FEW034/// 10/08 Q1021=
201209012020 METAR ESMX 012020Z AUTO 21004KT 9999NDV NCD 10/08 Q1021=
201209011950 METAR ESMX 011950Z AUTO 24004KT 9999NDV NCD 11/09 Q1021=
201209011920 METAR ESMX 011920Z AUTO 22004KT 9999NDV NCD 12/09 Q1021=
201209011850 METAR ESMX 011850Z AUTO 25006KT 210V280 9999NDV NCD 13/09 Q1021=
201209011820 METAR ESMX 011820Z AUTO 23005KT 200V260 9999NDV NCD 13/09 Q1020=
201209011750 METAR ESMX 011750Z AUTO 26007KT 210V290 9999NDV NCD 15/09 Q1020=
201209011720 METAR ESMX 011720Z AUTO 26009KT 220V290 9999NDV NCD 16/10 Q1020=
201209011650 METAR ESMX 011650Z AUTO 26008KT 230V290 9999NDV NCD 17/10 Q1020=
201209011620 METAR ESMX 011620Z AUTO 27008KT 230V300 9999NDV FEW037/// 18/10 Q1020=
201209011550 METAR ESMX 011550Z AUTO 26010KT 9999NDV FEW033/// 18/10 Q1019=
201209011520 METAR ESMX 011520Z AUTO 26011KT 9999NDV FEW042/// BKN072/// 19/11 Q1019=
201209011450 METAR ESMX 011450Z AUTO 27009KT 240V300 9999NDV FEW033/// SCT040/// BKN050/// 20/11 Q1019=
201209011420 METAR ESMX 011420Z AUTO 28005KT 240V310 9999NDV FEW058/// 18/11 Q1019=
201209011350 METAR ESMX 011350Z AUTO 27007KT 220V300 9999NDV FEW037/// 19/11 Q1019=
201209011320 METAR ESMX 011320Z AUTO 29007KT 260V330 9999NDV FEW034/// SCT042/// 19/11 Q1019=
201209011250 METAR ESMX 011250Z AUTO 27007KT 230V300 9999NDV FEW032/// 19/11 Q1019=
201209011220 METAR ESMX 011220Z AUTO 32009KT 9999NDV FEW032/// 18/11 Q1019=
