##########################################################
# Query made at 04/19/2024 21:30:15 UTC
# Time interval: from 10/01/2012 12:00  to 10/31/2012 12:59  UTC
##########################################################

##########################################################
# ESMX, Vaxjo (Sweden)
# WMO index: 02641. WIGOS ID: 0-20000-0-02648
# Latitude 56-51N. Longitude 014-50E. Altitude 199 m.
##########################################################

201210311250 METAR ESMX 311250Z 19013KT 9999 BKN020 BKN028 07/03 Q1001=
201210311220 METAR ESMX 311220Z 18011KT 140V210 9999 FEW020 07/03 Q1001=
201210311150 METAR ESMX 311150Z 18012KT 150V210 9999 FEW020 07/03 Q1001=
201210311120 METAR ESMX 311120Z 19011KT 9999 FEW021 07/03 Q1001=
201210311050 METAR ESMX 311050Z 17010KT 140V210 9999 FEW014 07/03 Q1000=
201210311020 METAR ESMX 311020Z 17008KT 150V210 9999 FEW012 06/03 Q1001=
201210310950 METAR ESMX 310950Z 19010KT 9999 BKN009 05/04 Q1001=
201210310920 METAR ESMX 310920Z 18009KT 9999 SCT007 05/03 Q1000=
201210310850 METAR ESMX 310850Z 17009KT 140V200 9000 BR SCT006 04/03 Q1000=
201210310820 METAR ESMX 310820Z 18007KT 6000 BR OVC003 03/03 Q1000=
201210310750 METAR ESMX 310750Z 17008KT 140V200 4700 BR OVC002 03/02 Q1000=
201210310720 METAR ESMX 310720Z 18007KT 1800 BR VV002 02/02 Q1000=
201210310650 METAR ESMX 310650Z 18007KT 0800 R01/1400N R19/1700D FG VV002 02/01 Q1000=
201210310620 METAR ESMX 310620Z 16006KT 120V200 4100 BR OVC002 01/00 Q1000=
201210310550 METAR ESMX 310550Z 17005KT 7000 BR FEW007 01/00 Q1000=
201210310520 METAR ESMX 310520Z 17005KT 140V200 5000 BR FEW005 01/M00 Q0999=
201210310450 METAR ESMX 310450Z 17004KT 4700 BR NSC M01/M02 Q0999=
201210310420 METAR ESMX 310420Z 18004KT 6000 BR NSC 00/M00 Q0999=
201210310350 METAR ESMX 310350Z 19005KT 9000 BR NSC 01/00 Q0999=
201210310320 METAR ESMX 310320Z AUTO 19004KT 9999NDV NCD 01/M00 Q0999=
201210310250 METAR ESMX 310250Z AUTO 19004KT 9999NDV NCD 00/M00 Q0999=
201210310220 METAR ESMX 310220Z AUTO 19005KT 9999NDV NCD M00/M01 Q0999=
201210310150 METAR ESMX 310150Z AUTO 19005KT 9999NDV NCD M01/M01 Q0999=
201210310120 METAR ESMX 310120Z AUTO 18005KT 9999NDV NCD M01/M02 Q0999=
201210310050 METAR ESMX 310050Z 21005KT CAVOK M01/M02 Q0999=
201210310020 METAR ESMX 310020Z 21006KT CAVOK M01/M02 Q0999=
201210302350 METAR ESMX 302350Z 22005KT 9999 FEW030 M01/M02 Q0999=
201210302320 METAR ESMX 302320Z 22005KT 9999 FEW028 SCT032 M01/M01 Q0999=
201210302250 METAR ESMX 302250Z 21005KT CAVOK M01/M02 Q0999=
201210302220 METAR ESMX 302220Z 21005KT CAVOK M02/M03 Q0999=
201210302150 METAR ESMX 302150Z 21005KT CAVOK M01/M02 Q0998=
201210302120 METAR ESMX 302120Z 22006KT CAVOK M02/M03 Q0998=
201210302050 METAR ESMX 302050Z 21005KT CAVOK M01/M03 Q0998=
201210302020 METAR ESMX 302020Z 22005KT CAVOK M02/M03 Q0998=
201210301950 METAR ESMX 301950Z 22005KT CAVOK M02/M03 Q0998=
201210301920 METAR ESMX 301920Z 22003KT CAVOK M01/M02 Q0998=
201210301850 METAR ESMX 301850Z 23004KT CAVOK M01/M02 Q0998=
201210301820 METAR ESMX 301820Z 23004KT CAVOK M00/M02 Q0998=
201210301750 METAR ESMX 301750Z 23005KT CAVOK M00/M02 Q0998=
201210301720 METAR ESMX 301720Z 21004KT CAVOK M00/M01 Q0998=
201210301650 METAR ESMX 301650Z 22004KT CAVOK M01/M02 Q0997=
201210301620 METAR ESMX 301620Z 21004KT CAVOK 01/M01 Q0997=
201210301550 METAR ESMX 301550Z 23003KT 9999 FEW030 01/M01 Q0997=
201210301520 METAR ESMX 301520Z 20003KT 9999 FEW028 03/00 Q0997=
201210301450 METAR ESMX 301450Z 23003KT 9999 FEW026 05/00 Q0997=
201210301420 METAR ESMX 301420Z 23004KT 190V270 9999 FEW027 05/00 Q0997=
201210301350 METAR ESMX 301350Z 27004KT 9999 FEW030 06/00 Q0997=
201210301320 METAR ESMX 301320Z 26007KT 9999 SCT030 06/00 Q0996=
201210301250 METAR ESMX 301250Z 27006KT 9999 FEW025 SCT029 05/01 Q0996=
201210301220 METAR ESMX 301220Z 28006KT 240V320 9999 SCT023 05/01 Q0996=
201210301150 METAR ESMX 301150Z 25008KT 210V290 9999 FEW029 06/01 Q0996=
201210301120 METAR ESMX 301120Z 26007KT 230V290 9999 FEW018 SCT028 05/01 Q0996=
201210301050 METAR ESMX 301050Z 22007KT 9999 FEW023 06/03 Q0996=
201210301020 METAR ESMX 301020Z 20007KT 9999 FEW006 05/04 Q0996=
201210300950 METAR ESMX 300950Z 19006KT 160V220 9999 SCT005 BKN032 05/03 Q0997=
201210300920 METAR ESMX 300920Z 21006KT 170V240 9999 FEW004 SCT006 BKN034 04/03 Q0997=
201210300850 METAR ESMX 300850Z 20006KT 9999 FEW003 BKN006 04/03 Q0997=
201210300820 METAR ESMX 300820Z 19007KT 9999 BKN003 04/03 Q0997=
201210300750 METAR ESMX 300750Z 19006KT 9999 FEW004 BKN005 04/03 Q0997=
201210300720 METAR ESMX 300720Z 17004KT 140V200 9999 FEW004 SCT005 BKN023 04/03 Q0997 REDZ=
201210300650 METAR ESMX 300650Z 19006KT 160V230 7000 -DZ BKN004 04/03 Q0997=
201210300620 METAR ESMX 300620Z 18006KT 9000 -DZ FEW003 BKN005 04/03 Q0997=
201210300520 METAR ESMX 300520Z 17007KT 140V200 5000 -RA FEW004 BKN005 OVC007 04/03 Q0996=
201210300450 METAR ESMX 300450Z 17007KT 140V200 8000 -RA FEW005 SCT007 BKN008 03/02 Q0996=
201210300420 METAR ESMX 300420Z AUTO 17010KT 140V210 6000NDV RA FEW005/// BKN006/// OVC009/// 03/02 Q0997=
201210300350 METAR ESMX 300350Z AUTO 17008KT 140V210 5000NDV RA OVC004/// 03/02 Q0997=
201210300320 METAR ESMX 300320Z AUTO 16009KT 120V190 9999NDV -DZ SCT005/// BKN007/// OVC009/// 03/02 Q0997=
201210300250 METAR ESMX 300250Z AUTO 17011KT 9999NDV -DZ FEW005/// OVC007/// 03/02 Q0997=
201210300220 METAR ESMX 300220Z AUTO 18010KT 9999NDV -DZ OVC005/// 03/02 Q0998 RESHRA=
201210300150 METAR ESMX 300150Z AUTO 17010KT 120V200 3500NDV -RA OVC005/// 03/02 Q0998=
201210300120 METAR ESMX 300120Z 17010KT 130V200 9000 BR OVC005 03/02 Q0998=
201210300050 METAR ESMX 300050Z 17010KT 130V190 5000 -RA FEW004 OVC006 03/02 Q0999=
201210300020 METAR ESMX 300020Z 18010KT 140V210 7000 -RA OVC005 03/02 Q0999=
201210292350 METAR ESMX 292350Z 18011KT 140V200 8000 -DZ OVC005 03/02 Q0999=
201210292320 METAR ESMX 292320Z 17011KT 140V200 9999 OVC006 03/02 Q1000=
201210292250 METAR ESMX 292250Z 17010KT 120V200 9999 OVC006 03/02 Q1000=
201210292220 METAR ESMX 292220Z 18011KT 9999 OVC006 03/02 Q1000 REDZ=
201210292150 METAR ESMX 292150Z 17012KT 090V200 9999 DZ FEW006 BKN008 OVC011 03/01 Q1001=
201210292120 METAR ESMX 292120Z 17012KT 140V200 9999 -RA FEW006 BKN008 OVC010 03/01 Q1001 REDZ=
201210292050 METAR ESMX 292050Z 17012KT 120V200 9000 -RA FEW007 BKN008 OVC010 02/01 Q1001=
201210292020 METAR ESMX 292020Z 17012KT 140V200 9000 -RA FEW007 BKN008 OVC011 02/01 Q1001 REDZ=
201210291950 METAR ESMX 291950Z 17013KT 140V200 9000 -RA FEW007 SCT008 OVC010 03/01 Q1002=
201210291920 METAR ESMX 291920Z 17013KT 8000 -RA FEW007 OVC009 02/01 Q1002 REDZ=
201210291850 METAR ESMX 291850Z 17015KT 140V210 9999 -RA FEW008 OVC009 02/01 Q1002=
201210291820 METAR ESMX 291820Z 18014KT 150V210 8000 -RA FEW009 OVC011 02/01 Q1002=
201210291750 METAR ESMX 291750Z 18014KT 9000 -RA OVC009 02/01 Q1002=
201210291720 METAR ESMX 291720Z 17013KT 130V200 9000 -DZ OVC009 02/01 Q1002=
201210291650 METAR ESMX 291650Z 17014KT 9999 -RA FEW007 OVC009 02/01 Q1003=
201210291620 METAR ESMX 291620Z 17012KT 120V210 8000 -RA BKN007 OVC010 02/01 Q1003=
201210291550 METAR ESMX 291550Z 17013KT 140V200 8000 -RA FEW009 OVC012 02/01 Q1003=
201210291520 METAR ESMX 291520Z 17014KT 8000 -RA FEW010 BKN025 02/01 Q1003=
201210291450 METAR ESMX 291450Z 17013KT 140V210 9000 -DZ SCT012 OVC015 02/01 Q1004=
201210291420 METAR ESMX 291420Z 19013KT 160V230 9999 -DZ SCT015 OVC024 03/00 Q1004=
201210291350 METAR ESMX 291350Z 18016KT 9999 FEW024 SCT033 04/M01 Q1004=
201210291320 METAR ESMX 291320Z 18018KT 150V210 9999 FEW012 BKN030 04/M02 Q1004=
201210291250 METAR ESMX 291250Z 17015KT 140V200 9999 BKN039 05/M02 Q1005=
201210291220 METAR ESMX 291220Z 18015KT 150V210 9999 SCT045 05/M02 Q1005=
201210291150 METAR ESMX 291150Z 17013KT 130V200 9999 FEW048 05/M02 Q1005=
201210291120 METAR ESMX 291120Z 17014KT 120V210 CAVOK 05/M01 Q1006=
201210291050 METAR ESMX 291050Z 18012KT 140V210 CAVOK 05/M01 Q1006=
201210291020 METAR ESMX 291020Z 17013KT 140V210 9999 FEW025 05/M01 Q1007=
201210290950 METAR ESMX 290950Z 17014KT 110V210 9999 FEW015 04/M00 Q1007=
201210290920 METAR ESMX 290920Z 18014KT 9999 FEW016 04/00 Q1008=
201210290850 METAR ESMX 290850Z 17013KT 130V220 9999 FEW016 04/01 Q1008=
201210290820 METAR ESMX 290820Z 17012KT 140V200 CAVOK 03/00 Q1009=
201210290750 METAR ESMX 290750Z 18011KT 130V220 9999 FEW040 03/00 Q1009=
201210290720 METAR ESMX 290720Z 17010KT 140V210 9999 FEW040 03/00 Q1009=
201210290650 METAR ESMX 290650Z 18010KT 150V210 9999 SCT038 02/00 Q1010=
201210290620 METAR ESMX 290620Z 18009KT 140V210 9999 BKN039 02/M00 Q1010=
201210290550 METAR ESMX 290550Z 18008KT 140V210 9999 FEW020 SCT024 OVC040 02/M00 Q1010=
201210290520 METAR ESMX 290520Z 16007KT 120V190 9999 SCT017 BKN022 OVC036 01/M01 Q1010=
201210290450 METAR ESMX 290450Z 16006KT 9999 FEW018 BKN020 OVC041 00/M01 Q1011=
201210290420 METAR ESMX 290420Z AUTO 16006KT 9999NDV BKN040/// 00/M01 Q1011=
201210290350 METAR ESMX 290350Z AUTO 16006KT 9999NDV NCD M00/M02 Q1011=
201210290320 METAR ESMX 290320Z AUTO 16005KT 9999NDV NCD M01/M02 Q1012=
201210290250 METAR ESMX 290250Z AUTO 16006KT 9999NDV FEW023/// M00/M02 Q1012=
201210290220 METAR ESMX 290220Z AUTO 17006KT 120V200 9999NDV BKN039/// M00/M02 Q1012=
201210290150 METAR ESMX 290150Z AUTO 16006KT 9999NDV BKN034/// M01/M02 Q1013=
201210290120 METAR ESMX 290120Z AUTO 16005KT 9999NDV FEW033/// M01/M03 Q1013=
201210290050 METAR ESMX 290050Z 16006KT CAVOK M02/M03 Q1013=
201210290020 METAR ESMX 290020Z 15004KT 120V180 9999 FEW027 M02/M03 Q1013=
201210282350 METAR ESMX 282350Z 16004KT 9999 FEW028 M02/M03 Q1014=
201210282320 METAR ESMX 282320Z 17003KT CAVOK M03/M04 Q1014=
201210282250 METAR ESMX 282250Z 17003KT CAVOK M04/M05 Q1014=
201210282220 METAR ESMX 282220Z 16003KT CAVOK M04/M05 Q1014=
201210282150 METAR ESMX 282150Z 16003KT CAVOK M03/M04 Q1014=
201210282120 METAR ESMX 282120Z 16003KT CAVOK M05/M06 Q1014=
201210282050 METAR ESMX 282050Z 19003KT CAVOK M04/M05 Q1014=
201210282020 METAR ESMX 282020Z 16002KT CAVOK M05/M06 Q1014=
201210281950 METAR ESMX 281950Z 15003KT CAVOK M05/M06 Q1014=
201210281920 METAR ESMX 281920Z 17001KT CAVOK M05/M07 Q1014=
201210281850 METAR ESMX 281850Z 18002KT CAVOK M04/M06 Q1013=
201210281820 METAR ESMX 281820Z 18002KT CAVOK M04/M06 Q1013=
201210281750 METAR ESMX 281750Z 17001KT CAVOK M04/M06 Q1013=
201210281720 METAR ESMX 281720Z 17001KT CAVOK M04/M06 Q1013=
201210281650 METAR ESMX 281650Z 16002KT CAVOK M03/M06 Q1013=
201210281620 METAR ESMX 281620Z 17002KT CAVOK M02/M05 Q1012=
201210281550 METAR ESMX 281550Z VRB01KT CAVOK M01/M05 Q1012=
201210281520 METAR ESMX 281520Z 26002KT CAVOK 02/M06 Q1012=
201210281450 METAR ESMX 281450Z 28003KT CAVOK 04/M06 Q1012=
201210281420 METAR ESMX 281420Z 27003KT 230V300 CAVOK 04/M05 Q1012=
201210281350 METAR ESMX 281350Z 27005KT CAVOK 04/M05 Q1012=
201210281320 METAR ESMX 281320Z 30004KT 260V340 CAVOK 05/M05 Q1012=
201210281250 METAR ESMX 281250Z 29004KT 230V350 CAVOK 05/M05 Q1012=
201210281220 METAR ESMX 281220Z 30005KT 260V330 CAVOK 05/M04 Q1011=
201210281150 METAR ESMX 281150Z 30005KT 250V330 CAVOK 05/M05 Q1011=
201210281120 METAR ESMX 281120Z 28005KT 250V310 CAVOK 04/M04 Q1011=
201210281050 METAR ESMX 281050Z 32004KT 250V350 CAVOK 04/M03 Q1011=
201210281020 METAR ESMX 281020Z 32004KT 280V350 CAVOK 03/M03 Q1011=
201210280950 METAR ESMX 280950Z 33005KT 300V020 CAVOK 02/M02 Q1011=
201210280920 METAR ESMX 280920Z AUTO 27004KT 9999NDV NCD 01/M02 Q1011=
201210280850 METAR ESMX 280850Z AUTO 29003KT 9999NDV NCD M00/M02 Q1011=
201210280820 METAR ESMX 280820Z AUTO VRB01KT 9999NDV NCD M01/M03 Q1011=
201210280750 METAR ESMX 280750Z AUTO VRB01KT 9999NDV NCD M03/M04 Q1011=
201210280720 METAR ESMX 280720Z AUTO 17001KT 9999NDV NCD M06/M07 Q1010=
201210280650 METAR ESMX 280650Z AUTO 17002KT 9999NDV NCD M06/M07 Q1010=
201210280620 METAR ESMX 280620Z AUTO 27002KT 9999NDV NCD M07/M08 Q1010=
201210280550 METAR ESMX 280550Z AUTO 28003KT 9999NDV NCD M07/M08 Q1010=
201210280520 METAR ESMX 280520Z AUTO 28003KT 9999NDV NCD M07/M08 Q1010=
201210280450 METAR ESMX 280450Z AUTO 28002KT 9999NDV NCD M07/M08 Q1009=
201210280420 METAR ESMX 280420Z AUTO VRB01KT 9999NDV NCD M06/M07 Q1009=
201210280350 METAR ESMX 280350Z AUTO VRB01KT 9999NDV NCD M06/M07 Q1009=
201210280320 METAR ESMX 280320Z AUTO 31002KT 9999NDV NCD M05/M05 Q1009=
201210280250 METAR ESMX 280250Z AUTO 32002KT 9999NDV NCD M05/M06 Q1009=
201210280220 METAR ESMX 280220Z AUTO 31002KT 9999NDV NCD M05/M05 Q1009=
201210280150 METAR ESMX 280150Z AUTO VRB02KT 9999NDV NCD M04/M05 Q1009=
201210280120 METAR ESMX 280120Z AUTO 30003KT 9999NDV NCD M04/M04 Q1009=
201210280050 METAR ESMX 280050Z AUTO 31004KT 9999NDV NCD M04/M05 Q1009=
201210280020 METAR ESMX 280020Z AUTO 29003KT 9999NDV NCD M04/M05 Q1009=
201210272350 METAR ESMX 272350Z AUTO 29002KT 9999NDV NCD M04/M05 Q1009=
201210272320 METAR ESMX 272320Z AUTO 31003KT 9999NDV NCD M03/M04 Q1009=
201210272250 METAR ESMX 272250Z AUTO 29002KT 9999NDV NCD M04/M05 Q1009=
201210272220 METAR ESMX 272220Z AUTO 00000KT 9999NDV NCD M03/M04 Q1009=
201210272150 METAR ESMX 272150Z AUTO VRB02KT 9999NDV NCD M02/M03 Q1009=
201210272120 METAR ESMX 272120Z AUTO 34003KT 9999NDV NCD M01/M03 Q1008=
201210272050 METAR ESMX 272050Z AUTO 35002KT 9999NDV FEW028/// M01/M02 Q1008=
201210272020 METAR ESMX 272020Z AUTO 33005KT 290V010 9999NDV FEW037/// M00/M02 Q1008=
201210271950 METAR ESMX 271950Z AUTO 34007KT 9999NDV OVC035/// 02/M01 Q1008=
201210271920 METAR ESMX 271920Z AUTO 34006KT 9999NDV BKN035/// 02/M01 Q1008=
201210271850 METAR ESMX 271850Z AUTO 35007KT 9999NDV OVC037/// 02/M01 Q1007=
201210271820 METAR ESMX 271820Z AUTO 35007KT 9999NDV BKN037/// 02/M01 Q1007=
201210271750 METAR ESMX 271750Z AUTO 35008KT 9999NDV OVC039/// 02/M01 Q1007=
201210271720 METAR ESMX 271720Z AUTO 34009KT 9999NDV FEW037/// BKN041/// 02/M01 Q1007=
201210271650 METAR ESMX 271650Z AUTO 35008KT 9999NDV OVC039/// 03/M02 Q1007=
201210271620 METAR ESMX 271620Z AUTO 36007KT 9999NDV OVC039/// 03/M02 Q1006=
201210271550 METAR ESMX 271550Z AUTO 35008KT 9999NDV OVC039/// 03/M02 Q1006=
201210271520 METAR ESMX 271520Z AUTO 35007KT 9999NDV OVC043/// 03/M02 Q1006=
201210271450 METAR ESMX 271450Z AUTO 02006KT 350V050 9999NDV FEW033/// SCT038/// OVC044/// 04/M03 Q1006=
201210271420 METAR ESMX 271420Z AUTO 36004KT 9999NDV FEW034/// OVC044/// 04/M02 Q1005=
201210271350 METAR ESMX 271350Z AUTO 01007KT 9999NDV FEW036/// BKN041/// BKN049/// 04/M02 Q1005=
201210271320 METAR ESMX 271320Z AUTO 01006KT 9999NDV FEW032/// BKN040/// 05/M02 Q1005=
201210271250 METAR ESMX 271250Z AUTO 36006KT 330V030 9999NDV SCT041/// 05/M02 Q1005=
201210271220 METAR ESMX 271220Z AUTO 35005KT 290V020 9999NDV FEW029/// 05/M02 Q1005=
201210271150 METAR ESMX 271150Z AUTO 36006KT 310V030 9999NDV FEW036/// 04/M03 Q1005=
201210271120 METAR ESMX 271120Z AUTO 35006KT 300V020 9999NDV FEW046/// 04/M03 Q1005=
201210271050 METAR ESMX 271050Z AUTO 32005KT 9999NDV BKN044/// 03/M02 Q1005=
201210271020 METAR ESMX 271020Z AUTO 30004KT 9999NDV BKN046/// 02/M02 Q1005=
201210270950 METAR ESMX 270950Z 36004KT 300V030 9999 FEW046 02/M03 Q1005=
201210270920 METAR ESMX 270920Z 31005KT 9999 FEW045 01/M03 Q1005=
201210270850 METAR ESMX 270850Z 31004KT 9999 FEW044 00/M03 Q1005=
201210270820 METAR ESMX 270820Z VRB01KT CAVOK M00/M01 Q1005=
201210270750 METAR ESMX 270750Z 17001KT CAVOK M02/M03 Q1004=
201210270720 METAR ESMX 270720Z 14001KT CAVOK M05/M05 Q1004=
201210270650 METAR ESMX 270650Z AUTO 22001KT 9999NDV NCD M06/M07 Q1004=
201210270620 METAR ESMX 270620Z AUTO 25001KT 9999NDV NCD M06/M06 Q1003=
201210270550 METAR ESMX 270550Z AUTO 24002KT 9999NDV NCD M06/M06 Q1003=
201210270520 METAR ESMX 270520Z AUTO 26002KT 9999NDV NCD M05/M05 Q1003=
201210270450 METAR ESMX 270450Z AUTO 25002KT 9999NDV NCD M04/M05 Q1003=
201210270420 METAR ESMX 270420Z AUTO 24002KT 9999NDV NCD M05/M06 Q1003=
201210270350 METAR ESMX 270350Z AUTO 00000KT 9999NDV NCD M04/M05 Q1003=
201210270320 METAR ESMX 270320Z AUTO 34004KT 270V010 9999NDV FEW000/// M04/M04 Q1003=
201210270250 METAR ESMX 270250Z AUTO 27003KT 9999NDV NCD M03/M04 Q1003=
201210270220 METAR ESMX 270220Z AUTO 24004KT 9999NDV NCD M03/M04 Q1003=
201210270150 METAR ESMX 270150Z AUTO 22006KT 9999NDV NCD M03/M04 Q1003=
201210270120 METAR ESMX 270120Z AUTO 22006KT 9999NDV NCD M03/M04 Q1003=
201210270050 METAR ESMX 270050Z AUTO 22006KT 9999NDV NCD M04/M04 Q1003=
201210270020 METAR ESMX 270020Z AUTO 22006KT 9999NDV NCD M04/M04 Q1003=
201210262350 METAR ESMX 262350Z AUTO 25004KT 9999NDV NCD M03/M04 Q1003=
201210262320 METAR ESMX 262320Z AUTO 23005KT 9999NDV NCD M04/M05 Q1003=
201210262250 METAR ESMX 262250Z AUTO 23003KT 9999NDV NCD M03/M04 Q1003=
201210262220 METAR ESMX 262220Z AUTO 21005KT 9999NDV NCD M03/M04 Q1003=
201210262150 METAR ESMX 262150Z AUTO 23005KT 9999NDV NCD M03/M04 Q1003=
201210262120 METAR ESMX 262120Z AUTO 22005KT 9999NDV NCD M02/M04 Q1003=
201210262050 METAR ESMX 262050Z AUTO 23004KT 9999NDV NCD M02/M03 Q1003=
201210262020 METAR ESMX 262020Z AUTO 27003KT 9999NDV NCD M02/M03 Q1003=
201210261950 METAR ESMX 261950Z AUTO 23004KT 9999NDV NCD M02/M03 Q1003=
201210261920 METAR ESMX 261920Z AUTO 23005KT 9999NDV NCD M01/M03 Q1003=
201210261850 METAR ESMX 261850Z 25004KT CAVOK M01/M02 Q1003=
201210261820 METAR ESMX 261820Z 23005KT CAVOK M01/M03 Q1002=
201210261750 METAR ESMX 261750Z 24006KT CAVOK M00/M02 Q1002=
201210261720 METAR ESMX 261720Z 23007KT CAVOK 00/M02 Q1002=
201210261650 METAR ESMX 261650Z 23007KT CAVOK 01/M02 Q1002=
201210261620 METAR ESMX 261620Z 22006KT CAVOK 01/M02 Q1002=
201210261550 METAR ESMX 261550Z 23005KT 9999 FEW030 01/M03 Q1002=
201210261520 METAR ESMX 261520Z 27005KT 9999 FEW015 03/M03 Q1002=
201210261450 METAR ESMX 261450Z 26005KT 230V290 9999 FEW020 03/M02 Q1002=
201210261420 METAR ESMX 261420Z 25007KT 9999 FEW020 04/M02 Q1002=
201210261350 METAR ESMX 261350Z 24007KT 200V270 9999 FEW020 04/M02 Q1002=
201210261320 METAR ESMX 261320Z 27010KT 240V300 9999 FEW015 SCT045 04/M02 Q1002=
201210261250 METAR ESMX 261250Z 25010KT 9999 FEW015 FEW030CB 04/M02 Q1002=
201210261220 METAR ESMX 261220Z 24009KT 210V280 9999 FEW020 SCT080 03/M02 Q1003=
201210261150 METAR ESMX 261150Z 26011KT 230V290 9999 FEW030 04/M01 Q1003=
201210261120 METAR ESMX 261120Z 27011KT 230V300 9999 FEW030 04/M01 Q1003=
201210261050 METAR ESMX 261050Z 27013KT 230V290 9999 FEW027 05/M01 Q1003=
201210261020 METAR ESMX 261020Z 26016KT 9999 FEW027 04/M01 Q1003=
201210260950 METAR ESMX 260950Z 26010KT 230V300 9999 FEW027 SCT047 04/M01 Q1004=
201210260920 METAR ESMX 260920Z 26008KT 220V280 9999 FEW027 03/M01 Q1004=
201210260850 METAR ESMX 260850Z 26009KT 230V290 9999 FEW015 02/M02 Q1004=
201210260820 METAR ESMX 260820Z 24007KT 200V280 CAVOK 01/M03 Q1004=
201210260750 METAR ESMX 260750Z 24007KT 170V280 CAVOK 00/M04 Q1004=
201210260720 METAR ESMX 260720Z 26007KT CAVOK M01/M05 Q1004=
201210260650 METAR ESMX 260650Z 25006KT CAVOK M02/M06 Q1004=
201210260620 METAR ESMX 260620Z 24007KT 210V270 CAVOK M03/M07 Q1004=
201210260550 METAR ESMX 260550Z 23005KT 200V260 CAVOK M03/M07 Q1005=
201210260520 METAR ESMX 260520Z 26007KT 230V290 CAVOK M03/M08 Q1005=
201210260450 METAR ESMX 260450Z 25007KT 210V280 CAVOK M04/M08 Q1005=
201210260420 METAR ESMX 260420Z 23005KT 200V270 CAVOK M04/M08 Q1005=
201210260350 METAR ESMX 260350Z 26006KT CAVOK M04/M08 Q1006=
201210260320 METAR ESMX 260320Z AUTO 26007KT 9999NDV NCD M04/M08 Q1005=
201210260250 METAR ESMX 260250Z AUTO 28008KT 9999NDV NCD M03/M08 Q1006=
201210260220 METAR ESMX 260220Z AUTO 29007KT 250V320 9999NDV NCD M03/M08 Q1005=
201210260150 METAR ESMX 260150Z AUTO 29011KT 9999NDV NCD M03/M07 Q1005=
201210260120 METAR ESMX 260120Z AUTO 30009KT 260V330 9999NDV NCD M02/M07 Q1005=
201210260050 METAR ESMX 260050Z AUTO 31011KT 9999NDV NCD M02/M07 Q1005=
201210260020 METAR ESMX 260020Z 31012KT CAVOK M02/M06 Q1005=
201210252350 METAR ESMX 252350Z 30012KT 260V330 CAVOK M02/M06 Q1004=
201210252320 METAR ESMX 252320Z 31014KT CAVOK M01/M06 Q1004=
201210252250 METAR ESMX 252250Z 32013KT 290V350 CAVOK M01/M05 Q1003=
201210252220 METAR ESMX 252220Z 31013KT CAVOK M01/M04 Q1002=
201210252150 METAR ESMX 252150Z 32009KT CAVOK M01/M03 Q1002=
201210252120 METAR ESMX 252120Z 33011KT 9999 FEW025 M00/M03 Q1001=
201210252050 METAR ESMX 252050Z 34015KT 310V020 9999 SCT015 SCT036 00/M02 Q1001=
201210252020 METAR ESMX 252020Z 33017KT 9999 -SNRA FEW012 BKN020 01/M01 Q1000=
201210251950 METAR ESMX 251950Z 32008KT 9999 SCT025 01/M01 Q0999=
201210251920 METAR ESMX 251920Z 32008KT 9999 -RASN FEW032 SCT065 01/M00 Q0999=
201210251850 METAR ESMX 251850Z 30008KT 260V320 9999 FEW010 01/M00 Q0999=
201210251820 METAR ESMX 251820Z 29008KT 9999 FEW005 SCT010 01/00 Q0998=
201210251750 METAR ESMX 251750Z 29005KT 5000 -SNRA FEW010 BKN041 01/00 Q0998=
201210251720 METAR ESMX 251720Z 27005KT 9999 FEW008 SCT090 01/M00 Q0998=
201210251650 METAR ESMX 251650Z 27005KT 9999 SCT008 01/M00 Q0998 RESHRA=
201210251620 METAR ESMX 251620Z 30003KT 9999 -SN FEW003 BKN005 01/M00 Q0998=
201210251550 METAR ESMX 251550Z 27012KT 3000 RASN BKN006 02/00 Q0998=
201210251520 METAR ESMX 251520Z 26005KT 9999 FEW020 BKN030 02/00 Q0998=
201210251450 METAR ESMX 251450Z 28007KT 9999 FEW016 04/01 Q0998=
201210251420 METAR ESMX 251420Z 28010KT 250V320 9999 FEW012 SCT020 BKN032 04/01 Q0999=
201210251350 METAR ESMX 251350Z 27007KT 240V300 9999 -RA FEW014 SCT027 BKN044 04/01 Q0999=
201210251320 METAR ESMX 251320Z 29007KT 9999 FEW015 SCT024 BKN038 04/02 Q1000=
201210251250 METAR ESMX 251250Z 27006KT 9999 FEW010 SCT040 04/01 Q1000=
201210251220 METAR ESMX 251220Z 30005KT 9999 FEW012 SCT040 04/02 Q1000=
201210251150 METAR ESMX 251150Z 30007KT 260V330 9999 SCT014 BKN044 04/02 Q1001=
201210251120 METAR ESMX 251120Z 30006KT 260V340 9999 SCT010 BKN055 04/02 Q1001=
201210251050 METAR ESMX 251050Z 30005KT 260V330 9999 FEW008 SCT045 04/02 Q1001=
201210251020 METAR ESMX 251020Z 32005KT 9999 FEW008 BKN031 03/02 Q1002=
201210250950 METAR ESMX 250950Z 31006KT 9999 FEW006 SCT012 BKN031 03/02 Q1002=
201210250920 METAR ESMX 250920Z 33007KT 9999 FEW008 SCT011 BKN013 03/02 Q1002=
201210250850 METAR ESMX 250850Z 32005KT 290V350 9999 -RA SCT004 OVC008 03/02 Q1003=
201210250820 METAR ESMX 250820Z 32005KT 9999 OVC004 03/02 Q1003=
201210250750 METAR ESMX 250750Z 35007KT 9999 FEW004 BKN006 OVC009 03/02 Q1003=
201210250720 METAR ESMX 250720Z 34008KT 9999 SCT003 OVC005 03/03 Q1003=
201210250650 METAR ESMX 250650Z 35009KT 9999 FEW003 OVC004 04/03 Q1003=
201210250620 METAR ESMX 250620Z 34008KT 9999 BKN003 OVC007 04/04 Q1003=
201210250550 METAR ESMX 250550Z 35010KT 9999 FEW003 OVC005 05/04 Q1003=
201210250520 METAR ESMX 250520Z 29005KT 260V330 7000 BR FEW006 SCT009 BKN012 07/06 Q1003 REDZ=
201210250450 METAR ESMX 250450Z 27007KT 7000 DZ FEW005 BKN008 07/06 Q1004=
201210250420 METAR ESMX 250420Z 26006KT 230V300 9999 FEW005 SCT007 BKN009 07/07 Q1004=
201210250350 METAR ESMX 250350Z 23005KT 9999 FEW006 BKN009 07/06 Q1005=
201210250320 METAR ESMX 250320Z 22005KT 9999 BR BKN001 OVC006 07/06 Q1005 REDZ=
201210250250 METAR ESMX 250250Z 22005KT 4000 DZ OVC002 07/06 Q1006=
201210250220 METAR ESMX 250220Z 21004KT 3600 DZ OVC002 06/06 Q1006=
201210250150 METAR ESMX 250150Z 21004KT 5000 BR OVC002 06/06 Q1007=
201210250120 METAR ESMX 250120Z 23004KT 5000 BR BKN002 BKN045 06/05 Q1008=
201210250050 METAR ESMX 250050Z 22005KT 190V250 3200 BR OVC002 06/06 Q1009=
201210250020 METAR ESMX 250020Z 25004KT 1500 BR VV002 06/05 Q1009=
201210242350 METAR ESMX 242350Z 24005KT 1200 R01/P2000N R19/P2000N BR OVC002 06/05 Q1009=
201210242320 METAR ESMX 242320Z 23004KT 5000 BR SCT004 04/04 Q1010=
201210242250 METAR ESMX 242250Z 26003KT 9999 FEW009 05/04 Q1011=
201210242220 METAR ESMX 242220Z 24004KT 9999 FEW010 05/04 Q1011=
201210242150 METAR ESMX 242150Z 23004KT 9999 FEW018 06/05 Q1011 REDZ=
201210242120 METAR ESMX 242120Z 22005KT 9999 -DZ SCT017 06/05 Q1012=
201210242050 METAR ESMX 242050Z 22005KT 9999 -DZ BKN019 06/05 Q1012=
201210242020 METAR ESMX 242020Z 21004KT 9999 OVC018 06/05 Q1013=
201210241950 METAR ESMX 241950Z 22004KT 9999 OVC019 07/05 Q1013=
201210241920 METAR ESMX 241920Z 20004KT 9999 OVC020 07/05 Q1013=
201210241850 METAR ESMX 241850Z 21003KT 9999 FEW017 OVC020 07/04 Q1014=
201210241820 METAR ESMX 241820Z 22003KT 9999 FEW018 OVC021 07/04 Q1014=
201210241750 METAR ESMX 241750Z 22003KT 9999 FEW015 OVC022 07/04 Q1014=
201210241720 METAR ESMX 241720Z 21003KT 9999 OVC021 07/04 Q1014=
201210241650 METAR ESMX 241650Z 23003KT 9999 OVC020 07/04 Q1015=
201210241620 METAR ESMX 241620Z 23004KT 9999 OVC020 07/04 Q1015=
201210241550 METAR ESMX 241550Z 25004KT 9999 OVC019 07/04 Q1015=
201210241520 METAR ESMX 241520Z 26004KT 230V290 9999 BKN020 07/04 Q1015=
201210241450 METAR ESMX 241450Z 26005KT 9999 OVC020 08/04 Q1016=
201210241420 METAR ESMX 241420Z 25006KT 9999 FEW019 OVC022 08/04 Q1016=
201210241350 METAR ESMX 241350Z 27007KT 9999 OVC020 08/04 Q1016=
201210241320 METAR ESMX 241320Z 29008KT 9999 FEW016 SCT018 OVC021 08/03 Q1017=
201210241250 METAR ESMX 241250Z 28007KT 9999 OVC015 08/04 Q1017=
201210241220 METAR ESMX 241220Z 28008KT 240V300 9999 OVC015 08/04 Q1017=
201210241150 METAR ESMX 241150Z 27007KT 240V300 9999 OVC013 07/04 Q1018=
201210241120 METAR ESMX 241120Z 26006KT 230V300 9999 OVC012 07/04 Q1018=
201210241050 METAR ESMX 241050Z 28007KT 9999 OVC012 07/04 Q1019=
201210241020 METAR ESMX 241020Z 29007KT 250V320 9999 OVC009 06/04 Q1019=
201210240950 METAR ESMX 240950Z 28008KT 220V330 9999 OVC009 06/04 Q1019=
201210240920 METAR ESMX 240920Z 29008KT 240V350 9999 OVC009 06/04 Q1019=
201210240850 METAR ESMX 240850Z 27006KT 9999 OVC009 06/04 Q1020=
201210240820 METAR ESMX 240820Z 24005KT 9999 OVC010 05/03 Q1020=
201210240750 METAR ESMX 240750Z 24004KT 9999 OVC010 05/03 Q1020=
201210240720 METAR ESMX 240720Z 26004KT 9999 OVC010 04/03 Q1020=
201210240650 METAR ESMX 240650Z 23004KT 190V270 9999 FEW007 OVC009 04/03 Q1021=
201210240620 METAR ESMX 240620Z 27005KT 240V310 9999 OVC005 04/02 Q1021=
201210240550 METAR ESMX 240550Z 29006KT 250V320 9999 FEW003 OVC005 03/02 Q1021=
201210240520 METAR ESMX 240520Z 26007KT 220V300 9999 SCT003 OVC004 03/02 Q1021=
201210240450 METAR ESMX 240450Z 27007KT 9999 OVC004 03/02 Q1021=
201210240420 METAR ESMX 240420Z 27006KT 9999 OVC005 04/02 Q1022=
201210240350 METAR ESMX 240350Z 25006KT 210V300 9999 OVC005 04/02 Q1022=
201210240320 METAR ESMX 240320Z 26006KT 200V290 9999 OVC005 04/02 Q1023=
201210240250 METAR ESMX 240250Z 28007KT 250V320 9999 OVC005 04/02 Q1023=
201210240220 METAR ESMX 240220Z 26006KT 240V300 9999 OVC006 04/03 Q1024=
201210240150 METAR ESMX 240150Z 24005KT 180V270 9999 OVC006 04/02 Q1024=
201210240120 METAR ESMX 240120Z 26005KT 9999 OVC006 04/02 Q1024=
201210240050 METAR ESMX 240050Z 22005KT 9999 OVC007 04/02 Q1024=
201210240020 METAR ESMX 240020Z 24006KT 9999 OVC006 04/02 Q1025=
201210232350 METAR ESMX 232350Z 25004KT 210V270 9999 OVC007 04/02 Q1025=
201210232320 METAR ESMX 232320Z 24004KT 200V270 9999 OVC007 04/02 Q1026=
201210232250 METAR ESMX 232250Z 26003KT 9999 OVC008 04/02 Q1026=
201210232220 METAR ESMX 232220Z 24004KT 9999 OVC008 04/02 Q1026=
201210232150 METAR ESMX 232150Z 23003KT 9999 OVC009 04/03 Q1027=
201210232020 METAR ESMX 232020Z 21003KT 180V250 9999 OVC010 05/02 Q1028=
201210231950 METAR ESMX 231950Z 22003KT 9999 OVC010 05/03 Q1028=
201210231920 METAR ESMX 231920Z VRB01KT 9999 OVC011 05/02 Q1028=
201210231850 METAR ESMX 231850Z 23003KT 9999 OVC011 05/03 Q1028=
201210231820 METAR ESMX 231820Z 22004KT 9999 OVC012 05/03 Q1028=
201210231750 METAR ESMX 231750Z 21003KT 9999 OVC012 05/03 Q1028=
201210231720 METAR ESMX 231720Z 18003KT 9999 OVC013 05/03 Q1028=
201210231650 METAR ESMX 231650Z 17002KT 9999 OVC012 05/03 Q1028=
201210231620 METAR ESMX 231620Z 24002KT 9999 OVC012 05/03 Q1029=
201210231550 METAR ESMX 231550Z 21002KT 9999 OVC013 05/03 Q1029=
201210231520 METAR ESMX 231520Z 26002KT 9999 OVC012 06/03 Q1029=
201210231450 METAR ESMX 231450Z 06001KT 9999 OVC012 06/03 Q1029=
201210231350 METAR ESMX 231350Z 36003KT 9999 OVC010 06/03 Q1030=
201210231320 METAR ESMX 231320Z 06002KT 9999 OVC010 06/03 Q1030=
201210231250 METAR ESMX 231250Z VRB02KT 9999 OVC010 06/03 Q1030=
201210231220 METAR ESMX 231220Z VRB02KT 9999 OVC010 06/03 Q1030=
201210231150 METAR ESMX 231150Z 36004KT 320V040 9999 OVC010 06/03 Q1030=
201210231120 METAR ESMX 231120Z 35003KT 290V020 9999 OVC010 06/04 Q1030=
201210231050 METAR ESMX 231050Z 07003KT 010V160 9999 OVC010 06/03 Q1030=
201210231020 METAR ESMX 231020Z VRB02KT 9999 OVC010 06/03 Q1030=
201210230950 METAR ESMX 230950Z 04003KT 350V090 9999 OVC010 06/03 Q1030=
201210230920 METAR ESMX 230920Z 36003KT 320V030 9999 OVC010 06/04 Q1030=
201210230850 METAR ESMX 230850Z 01003KT 320V050 9999 OVC010 06/03 Q1030=
201210230820 METAR ESMX 230820Z 36004KT 320V020 9999 OVC011 06/03 Q1030=
201210230750 METAR ESMX 230750Z 36006KT 330V030 9999 OVC011 06/03 Q1030=
201210230720 METAR ESMX 230720Z 01004KT 9999 OVC012 06/03 Q1030=
201210230650 METAR ESMX 230650Z 03004KT 9999 OVC013 06/03 Q1030=
201210230620 METAR ESMX 230620Z 03004KT 9999 OVC013 06/03 Q1030=
201210230550 METAR ESMX 230550Z 02005KT 9999 OVC014 06/03 Q1030=
201210230520 METAR ESMX 230520Z 02004KT 340V050 9999 OVC013 06/04 Q1030=
201210230450 METAR ESMX 230450Z 35005KT 330V030 9999 OVC014 07/04 Q1029=
201210230420 METAR ESMX 230420Z 36005KT 320V050 9999 OVC014 07/04 Q1029=
201210230350 METAR ESMX 230350Z 34004KT 300V010 9999 OVC015 06/03 Q1029=
201210230320 METAR ESMX 230320Z 36005KT 9999 OVC015 07/03 Q1030=
201210230250 METAR ESMX 230250Z 34006KT 9999 OVC016 07/04 Q1030=
201210230220 METAR ESMX 230220Z 33005KT 300V360 9999 OVC017 07/05 Q1030=
201210230150 METAR ESMX 230150Z 34003KT 310V010 9999 OVC018 07/05 Q1030=
201210230120 METAR ESMX 230120Z 36004KT 9999 OVC019 07/05 Q1030=
201210230050 METAR ESMX 230050Z 33002KT 9999 OVC019 07/05 Q1030=
201210230020 METAR ESMX 230020Z VRB01KT 9999 OVC019 07/05 Q1030=
201210222350 METAR ESMX 222350Z 00000KT 9999 OVC018 07/05 Q1030=
201210222320 METAR ESMX 222320Z 30001KT 9999 OVC019 07/05 Q1030=
201210222250 METAR ESMX 222250Z 30001KT 9999 OVC018 07/05 Q1030=
201210222220 METAR ESMX 222220Z VRB01KT 9999 OVC017 07/05 Q1030=
201210222150 METAR ESMX 222150Z 03002KT 9999 OVC015 07/05 Q1030=
201210222120 METAR ESMX 222120Z 04001KT 9999 OVC016 07/06 Q1030=
201210222050 METAR ESMX 222050Z 00000KT 9999 OVC016 07/05 Q1030=
201210222020 METAR ESMX 222020Z 09002KT 9999 OVC016 07/05 Q1030=
201210221950 METAR ESMX 221950Z VRB01KT 9999 OVC016 07/05 Q1030=
201210221920 METAR ESMX 221920Z 10001KT 9999 OVC015 08/05 Q1030=
201210221850 METAR ESMX 221850Z 08001KT 9999 OVC015 08/05 Q1029=
201210221820 METAR ESMX 221820Z VRB02KT 9999 OVC015 08/05 Q1029=
201210221750 METAR ESMX 221750Z VRB02KT 9999 OVC015 08/05 Q1029=
201210221720 METAR ESMX 221720Z 08002KT 9999 OVC016 08/06 Q1029=
201210221650 METAR ESMX 221650Z VRB02KT 9999 OVC016 08/06 Q1029=
201210221620 METAR ESMX 221620Z VRB02KT 9999 OVC017 08/06 Q1029=
201210221550 METAR ESMX 221550Z 07003KT 050V110 9999 OVC017 08/05 Q1029=
201210221520 METAR ESMX 221520Z VRB02KT 9999 OVC017 08/05 Q1029=
201210221450 METAR ESMX 221450Z VRB02KT 9999 OVC017 08/05 Q1029=
201210221420 METAR ESMX 221420Z 04003KT 9999 OVC016 09/05 Q1029=
201210221350 METAR ESMX 221350Z 04003KT 9999 OVC016 09/06 Q1029=
201210221320 METAR ESMX 221320Z 05003KT 010V100 9999 OVC014 09/05 Q1029=
201210221250 METAR ESMX 221250Z 06003KT 030V100 9999 OVC013 09/05 Q1029=
201210221220 METAR ESMX 221220Z 08003KT 030V110 6000 OVC013 09/05 Q1029=
201210221150 METAR ESMX 221150Z VRB02KT 9999 OVC014 09/05 Q1029=
201210221120 METAR ESMX 221120Z VRB02KT 9999 OVC015 09/05 Q1029=
201210221050 METAR ESMX 221050Z 05004KT 020V110 9999 OVC012 08/05 Q1029=
201210221020 METAR ESMX 221020Z 05005KT 9999 OVC014 08/05 Q1029=
201210220950 METAR ESMX 220950Z 13004KT 060V170 9999 OVC012 08/05 Q1029=
201210220920 METAR ESMX 220920Z 12004KT 070V210 9999 OVC012 08/05 Q1029=
201210220850 METAR ESMX 220850Z 10004KT 040V160 9999 OVC012 07/05 Q1029=
201210220820 METAR ESMX 220820Z 06004KT 350V140 9999 OVC013 08/05 Q1029=
201210220750 METAR ESMX 220750Z VRB02KT 9999 OVC014 07/05 Q1029=
201210220720 METAR ESMX 220720Z 04003KT 360V090 9999 OVC013 07/05 Q1029=
201210220650 METAR ESMX 220650Z VRB02KT 9999 OVC013 07/05 Q1029=
201210220620 METAR ESMX 220620Z 02002KT 9999 OVC014 07/05 Q1029=
201210220550 METAR ESMX 220550Z VRB02KT 9999 OVC015 06/05 Q1028=
201210220520 METAR ESMX 220520Z 05004KT 350V100 9999 OVC008 06/05 Q1028=
201210220450 METAR ESMX 220450Z 07005KT 040V120 9999 OVC008 06/05 Q1028=
201210220420 METAR ESMX 220420Z 05007KT 010V080 9999 OVC008 06/04 Q1028=
201210220350 METAR ESMX 220350Z 04007KT 020V080 9999 OVC007 06/05 Q1028=
201210220320 METAR ESMX 220320Z 04005KT 360V090 9999 OVC007 07/05 Q1027=
201210220250 METAR ESMX 220250Z AUTO 06006KT 020V110 9999NDV OVC007/// 07/05 Q1027=
201210220220 METAR ESMX 220220Z AUTO 06004KT 020V110 9999NDV OVC007/// 07/05 Q1027=
201210220150 METAR ESMX 220150Z AUTO 04007KT 010V110 9999NDV OVC007/// 07/05 Q1027=
201210220120 METAR ESMX 220120Z AUTO 04006KT 9999NDV OVC007/// 07/05 Q1027=
201210220050 METAR ESMX 220050Z AUTO 03006KT 010V070 9999NDV OVC007/// 07/05 Q1027=
201210220020 METAR ESMX 220020Z AUTO 05004KT 030V110 9999NDV OVC007/// 07/06 Q1026=
201210212350 METAR ESMX 212350Z 02006KT 9999 OVC007 07/06 Q1026=
201210212320 METAR ESMX 212320Z 03006KT 9999 OVC007 07/06 Q1026=
201210212250 METAR ESMX 212250Z 02008KT 9999 BKN007 07/06 Q1026=
201210212220 METAR ESMX 212220Z 03007KT 9999 OVC006 07/06 Q1025=
201210212150 METAR ESMX 212150Z 03008KT 9000 BR SCT007 07/06 Q1025=
201210212120 METAR ESMX 212120Z 36003KT 9000 BR BCFG NSC 06/05 Q1025=
201210212050 METAR ESMX 212050Z 34002KT 4000 BR NSC 07/06 Q1025=
201210212020 METAR ESMX 212020Z 35006KT 9999 FEW012 BKN016 07/07 Q1025=
201210211950 METAR ESMX 211950Z 36002KT 2000 BR BCFG SCT012 06/06 Q1025=
201210211920 METAR ESMX 211920Z VRB01KT 4000 BCFG FEW011 07/06 Q1024=
201210211850 METAR ESMX 211850Z 34002KT 8000 BR BCFG NSC 07/06 Q1024=
201210211820 METAR ESMX 211820Z 35003KT 9999 SCT017 08/07 Q1023=
201210211750 METAR ESMX 211750Z 33003KT 290V350 9999 FEW012 BKN015 09/08 Q1023=
201210211720 METAR ESMX 211720Z VRB01KT 6000 BR BKN012 08/07 Q1023=
201210211650 METAR ESMX 211650Z 30002KT CAVOK 09/07 Q1022=
201210211620 METAR ESMX 211620Z 00000KT CAVOK 09/08 Q1022=
201210211550 METAR ESMX 211550Z 31003KT CAVOK 10/08 Q1022=
201210211520 METAR ESMX 211520Z 32004KT 9999 FEW020 BKN058 10/08 Q1022=
201210211450 METAR ESMX 211450Z 34004KT 9999 FEW020 BKN059 11/08 Q1022=
201210211420 METAR ESMX 211420Z 35006KT 320V020 9999 -DZ FEW017 BKN020 OVC067 11/08 Q1021=
201210211350 METAR ESMX 211350Z 34006KT 9999 FEW019 OVC065 11/08 Q1021=
201210211320 METAR ESMX 211320Z 33006KT 300V360 9999 SCT019 OVC068 11/07 Q1021=
201210211250 METAR ESMX 211250Z 30007KT 270V330 9999 FEW019 SCT024 BKN073 11/07 Q1021=
201210211220 METAR ESMX 211220Z 29008KT 9999 FEW020 SCT024 12/07 Q1021=
201210211150 METAR ESMX 211150Z 29008KT 250V320 9999 SCT019 OVC075 12/08 Q1021=
201210211120 METAR ESMX 211120Z 29006KT 9999 FEW021 OVC076 12/08 Q1021=
201210211050 METAR COR ESMX 211050Z 27005KT 230V300 9999 FEW022 12/08 Q1020=
201210211020 METAR ESMX 211020Z 29003KT 240V320 CAVOK 12/07 Q1020=
201210210950 METAR ESMX 210950Z VRB02KT CAVOK 12/07 Q1020=
201210210920 METAR ESMX 210920Z 03003KT 350V060 CAVOK 12/07 Q1020=
201210210850 METAR ESMX 210850Z 01004KT 320V050 CAVOK 11/08 Q1020=
201210210820 METAR ESMX 210820Z AUTO 33005KT 280V010 9999NDV NCD 10/08 Q1020=
201210210750 METAR ESMX 210750Z AUTO 28004KT 9999NDV SCT016/// 09/08 Q1020=
201210210720 METAR ESMX 210720Z AUTO 25003KT 9999NDV NCD 09/08 Q1020=
201210210650 METAR ESMX 210650Z AUTO 29002KT 9999NDV NCD 08/07 Q1019=
201210210620 METAR ESMX 210620Z AUTO 34003KT 310V020 9999NDV OVC012/// 08/07 Q1019=
201210210550 METAR ESMX 210550Z AUTO 30003KT 5000NDV BR BKN012/// 07/06 Q1019=
201210210520 METAR ESMX 210520Z AUTO 26002KT 9999NDV NCD 07/06 Q1018=
201210210450 METAR ESMX 210450Z AUTO VRB01KT 9999NDV NCD 08/07 Q1018=
201210210420 METAR ESMX 210420Z AUTO 33004KT 9999NDV FEW008/// SCT012/// 10/08 Q1018=
201210210350 METAR ESMX 210350Z AUTO 31008KT 9999NDV FEW009/// OVC011/// 11/09 Q1018=
201210210320 METAR ESMX 210320Z AUTO 28004KT 9999NDV OVC010/// 12/10 Q1018=
201210210250 METAR ESMX 210250Z AUTO 29005KT 250V320 9999NDV OVC011/// 12/10 Q1018=
201210210220 METAR ESMX 210220Z AUTO 29005KT 8000NDV BR FEW012/// 12/11 Q1018=
201210210150 METAR ESMX 210150Z AUTO 28005KT 250V320 6000NDV BR FEW006/// SCT014/// BKN016/// 13/11 Q1017=
201210210120 METAR ESMX 210120Z AUTO 26004KT 230V300 5000NDV BR OVC006/// 13/12 Q1017=
201210210050 METAR ESMX 210050Z AUTO 26004KT 4400NDV BR FEW006/// BKN020/// BKN110/// 12/11 Q1017=
201210210020 METAR ESMX 210020Z AUTO 25003KT 220V290 5000NDV BR OVC014/// 13/12 Q1017=
201210202350 METAR ESMX 202350Z AUTO 25003KT 220V290 3800NDV BR OVC017/// 13/12 Q1017=
201210202320 METAR ESMX 202320Z AUTO 23004KT 200V260 4000NDV BR SCT005/// BKN007/// OVC017/// 12/11 Q1017=
201210202250 METAR ESMX 202250Z AUTO 23004KT 3800NDV BR BKN005/// OVC017/// 12/11 Q1017=
201210202220 METAR ESMX 202220Z AUTO 21004KT 4100NDV BR SCT012/// OVC016/// 12/11 Q1017=
201210202150 METAR ESMX 202150Z AUTO 21004KT 3700NDV BR OVC009/// 12/11 Q1017=
201210202120 METAR ESMX 202120Z AUTO 22005KT 2800NDV BR OVC009/// 11/10 Q1017=
201210202050 METAR ESMX 202050Z AUTO 21004KT 1800NDV BR SCT010/// 11/10 Q1017=
201210202020 METAR ESMX 202020Z AUTO 20005KT 2400NDV BR SCT071/// 11/10 Q1017=
201210201950 METAR ESMX 201950Z AUTO 21004KT 3100NDV BR BKN053/// 11/10 Q1017=
201210201920 METAR ESMX 201920Z AUTO 20004KT 2400NDV BR FEW056/// SCT100/// 11/10 Q1017=
201210201850 METAR ESMX 201850Z AUTO VRB02KT 1800NDV BR BKN001/// BKN110/// 11/10 Q1016=
201210201820 METAR ESMX 201820Z AUTO 18003KT 1000NDV R01/P2000N R19/P2000N BR FEW052/// 11/10 Q1017=
201210201750 METAR ESMX 201750Z AUTO 18003KT 2600NDV BR FEW110/// 11/10 Q1016=
201210201720 METAR ESMX 201720Z AUTO 17005KT 4200NDV BR FEW100/// 12/11 Q1016=
201210201650 METAR ESMX 201650Z AUTO 16005KT 5000NDV BR FEW100/// 12/11 Q1016=
201210201620 METAR ESMX 201620Z AUTO 16005KT 7000NDV BR NCD 13/11 Q1016=
201210201550 METAR ESMX 201550Z AUTO 15004KT 120V190 9999NDV NCD 13/11 Q1016=
201210201520 METAR ESMX 201520Z AUTO 16003KT 130V190 9999NDV NCD 14/11 Q1016=
201210201450 METAR ESMX 201450Z AUTO 16005KT 120V190 9999NDV NCD 14/11 Q1016=
201210201420 METAR ESMX 201420Z AUTO 16004KT 110V200 9999NDV NCD 14/12 Q1016=
201210201350 METAR ESMX 201350Z AUTO 15003KT 100V190 9999NDV NCD 15/12 Q1016=
201210201320 METAR ESMX 201320Z AUTO 16003KT 120V190 9999NDV NCD 15/12 Q1016=
201210201250 METAR ESMX 201250Z AUTO 16004KT 100V200 9999NDV NCD 15/12 Q1016=
201210201220 METAR ESMX 201220Z AUTO 16005KT 120V200 9999NDV NCD 15/12 Q1016=
201210201150 METAR ESMX 201150Z AUTO 15004KT 110V190 9999NDV NCD 15/11 Q1016=
201210201120 METAR ESMX 201120Z AUTO VRB03KT 9999NDV NCD 14/11 Q1016=
201210201050 METAR ESMX 201050Z AUTO 10003KT 050V150 9999NDV NCD 13/11 Q1016=
201210201020 METAR ESMX 201020Z AUTO 11003KT 070V160 9999NDV FEW005/// 13/11 Q1017=
201210200950 METAR ESMX 200950Z VRB02KT 9999 BKN004 12/11 Q1017=
201210200920 METAR ESMX 200920Z VRB02KT 9999 OVC004 11/10 Q1017=
201210200850 METAR ESMX 200850Z 12003KT 080V210 9999 OVC003 11/10 Q1017=
201210200820 METAR ESMX 200820Z VRB02KT 8000 BR OVC002 11/10 Q1017=
201210200750 METAR ESMX 200750Z 10002KT 7000 BR OVC002 10/10 Q1016=
201210200720 METAR ESMX 200720Z 11003KT 050V170 6000 BR OVC002 10/09 Q1016=
201210200650 METAR ESMX 200650Z AUTO 10003KT 050V150 5000NDV BR OVC001/// 10/09 Q1016=
201210200620 METAR ESMX 200620Z AUTO VRB02KT 6000NDV BR OVC002/// 10/09 Q1016=
201210200550 METAR ESMX 200550Z AUTO VRB02KT 8000NDV BR OVC002/// 10/09 Q1016=
201210200520 METAR ESMX 200520Z AUTO 09003KT 050V140 7000NDV BR OVC001/// 10/09 Q1015=
201210200450 METAR ESMX 200450Z AUTO 09004KT 050V140 8000NDV BR OVC002/// 10/09 Q1015=
201210200420 METAR ESMX 200420Z AUTO 08003KT 030V120 6000NDV BR OVC001/// 10/09 Q1016=
201210200350 METAR ESMX 200350Z AUTO 06003KT 030V100 6000NDV BR OVC001/// 10/09 Q1015=
201210200320 METAR ESMX 200320Z AUTO 08003KT 030V110 7000NDV BR OVC001/// 10/09 Q1015=
201210200250 METAR ESMX 200250Z AUTO 07003KT 010V110 5000NDV BR OVC001/// 10/09 Q1015=
201210200220 METAR ESMX 200220Z AUTO VRB02KT 4800NDV BR OVC002/// 10/09 Q1015=
201210200150 METAR ESMX 200150Z AUTO 07004KT 030V110 4700NDV BR OVC001/// 10/09 Q1015=
201210200120 METAR ESMX 200120Z AUTO 09003KT 040V140 2600NDV BR OVC001/// 10/09 Q1015=
201210200050 METAR ESMX 200050Z AUTO 07004KT 030V110 2600NDV OVC001/// 10/09 Q1015=
201210200020 METAR ESMX 200020Z AUTO 05004KT 010V080 2000NDV OVC001/// 10/09 Q1015=
201210192350 METAR ESMX 192350Z AUTO VRB02KT 0300NDV R01/0900V1300N R19/P2000N FG OVC001/// 10/09 Q1016=
201210192320 METAR ESMX 192320Z AUTO VRB02KT 0250NDV R01/0900N R19/1500N FG VV001 09/09 Q1015=
201210192250 METAR ESMX 192250Z AUTO VRB02KT 0300NDV R01/1100N R19/1600D FG VV001 09/09 Q1015=
201210192220 METAR ESMX 192220Z AUTO 06003KT 030V110 1500NDV FG VV001 08/08 Q1015=
201210192150 METAR ESMX 192150Z AUTO 07003KT 040V100 0900NDV R01/P2000N R19/P2000N NCD 09/08 Q1015=
201210192120 METAR ESMX 192120Z AUTO 03002KT 0900NDV R01/P2000N R19/P2000N BR NCD 09/08 Q1015=
201210192050 METAR ESMX 192050Z AUTO 12003KT 080V160 3700NDV NCD 09/09 Q1015=
201210192020 METAR ESMX 192020Z AUTO 12003KT 080V160 2500NDV FEW072/// 09/08 Q1015=
201210191950 METAR ESMX 191950Z AUTO 09003KT 0650NDV R01/P2000N R19/P2000N FG NCD 09/09 Q1015=
201210191920 METAR ESMX 191920Z 34001KT 0150 R01/0800 R19/0500V0750 FG NSC 08/07 Q1015=
201210191850 METAR ESMX 191850Z 00000KT 0250 R01/0750V1200 R19/0800V1900 FG NSC 09/08 Q1015=
201210191820 METAR ESMX 191820Z 01001KT 1100 R01/P2000N R19/P2000D BR NSC 09/09 Q1014=
201210191750 METAR ESMX 191750Z VRB01KT 1500 R01/P2000N R19/P2000N BR NSC 09/09 Q1014=
201210191720 METAR ESMX 191720Z VRB01KT 2200 BR NSC 09/09 Q1014=
201210191650 METAR ESMX 191650Z VRB01KT 2000 BR NSC 10/09 Q1014=
201210191620 METAR ESMX 191620Z VRB01KT 5000 BR NSC 10/09 Q1014=
201210191550 METAR ESMX 191550Z VRB02KT CAVOK 11/10 Q1013=
201210191520 METAR ESMX 191520Z 03002KT CAVOK 12/10 Q1014=
201210191450 METAR ESMX 191450Z 02003KT CAVOK 12/11 Q1013=
201210191420 METAR ESMX 191420Z 01004KT CAVOK 12/11 Q1013=
201210191350 METAR ESMX 191350Z 36003KT CAVOK 13/10 Q1013=
201210191320 METAR ESMX 191320Z VRB01KT 9999 FEW008 13/11 Q1014=
201210191250 METAR ESMX 191250Z VRB01KT 9999 FEW007 BKN008 13/11 Q1013=
201210191220 METAR ESMX 191220Z VRB02KT 9999 BKN006 13/11 Q1013=
201210191150 METAR ESMX 191150Z VRB01KT 9000 BR BKN005 12/10 Q1013=
201210191120 METAR ESMX 191120Z VRB01KT 7000 BR BKN004 12/10 Q1013=
201210191050 METAR ESMX 191050Z VRB02KT 6000 BR BKN004 11/10 Q1013=
201210191020 METAR ESMX 191020Z 15004KT 110V170 5000 BR FEW005 SCT091 11/10 Q1013=
201210190950 METAR ESMX 190950Z 15003KT 110V190 8000 BR SCT005 SCT091 11/10 Q1013=
201210190920 METAR ESMX 190920Z 15003KT 7000 BR SCT005 BKN098 11/10 Q1013=
201210190850 METAR ESMX 190850Z 17003KT 140V200 6000 BR SCT004 BKN080 11/09 Q1013=
201210190820 METAR ESMX 190820Z VRB02KT 6000 BR SCT003 BKN080 10/09 Q1013=
201210190750 METAR ESMX 190750Z VRB02KT 5000 BR FEW004 BKN089 10/09 Q1013=
201210190720 METAR ESMX 190720Z 17002KT 5000 BR NSC 10/09 Q1013=
201210190650 METAR ESMX 190650Z VRB02KT 5000 -RA NSC 09/09 Q1013=
201210190620 METAR ESMX 190620Z 18002KT 5000 -RA FEW004 SCT081 09/09 Q1012=
201210190550 METAR ESMX 190550Z 17004KT 100V210 5000 BR FEW003 BKN081 09/09 Q1012=
201210190520 METAR ESMX 190520Z 15005KT 120V190 5000 BR NSC 09/09 Q1012=
201210190450 METAR ESMX 190450Z 15005KT 5000 BR SCT030 09/09 Q1012=
201210190420 METAR ESMX 190420Z 15004KT 110V190 4000 BR BKN030 10/09 Q1012=
201210190350 METAR ESMX 190350Z 15004KT 120V180 6000 BR BKN030 10/09 Q1012=
201210190320 METAR ESMX 190320Z 16003KT 120V190 7000 BR SCT030 BKN035 10/09 Q1012=
201210190250 METAR ESMX 190250Z AUTO 15005KT 110V170 8000NDV BR SCT029/// BKN093/// 10/09 Q1012=
201210190220 METAR ESMX 190220Z AUTO 17003KT 9999NDV FEW025/// SCT029/// BKN058/// 11/10 Q1012=
201210190150 METAR ESMX 190150Z AUTO 19005KT 9999NDV BR SCT028/// OVC057/// 11/10 Q1012=
201210190120 METAR ESMX 190120Z 20004KT 9000 BR FEW016 OVC057 11/10 Q1012=
201210190050 METAR ESMX 190050Z 19004KT 8000 BR FEW016 BKN060 10/09 Q1012=
201210190020 METAR ESMX 190020Z 21005KT 9000 BR FEW016 BKN060 10/09 Q1012=
201210182350 METAR ESMX 182350Z 21006KT 9999 SCT016 BKN080 10/09 Q1012=
201210182320 METAR ESMX 182320Z 20006KT 9999 SCT016 BKN080 11/09 Q1012=
201210182250 METAR ESMX 182250Z 19008KT 9999 BKN016 11/09 Q1012=
201210182220 METAR ESMX 182220Z 19007KT 9999 BKN016 11/09 Q1012=
201210182150 METAR ESMX 182150Z 20008KT 9999 FEW020 BKN100 11/09 Q1011=
201210182120 METAR ESMX 182120Z 19007KT CAVOK 10/09 Q1011=
201210182050 METAR ESMX 182050Z 18007KT CAVOK 11/09 Q1011=
201210182020 METAR ESMX 182020Z 17006KT CAVOK 11/09 Q1011=
201210181950 METAR ESMX 181950Z 17005KT CAVOK 12/09 Q1011=
201210181920 METAR ESMX 181920Z 18007KT CAVOK 12/09 Q1011=
201210181850 METAR ESMX 181850Z 17007KT 140V200 CAVOK 12/09 Q1011=
201210181820 METAR ESMX 181820Z 18009KT CAVOK 12/09 Q1011=
201210181750 METAR ESMX 181750Z 17008KT 140V210 CAVOK 12/09 Q1010=
201210181720 METAR ESMX 181720Z 17008KT 140V200 CAVOK 12/10 Q1010=
201210181650 METAR ESMX 181650Z 14008KT 100V180 CAVOK 12/10 Q1010=
201210181620 METAR ESMX 181620Z 17007KT 140V200 9999 -RA NSC 12/10 Q1011=
201210181550 METAR ESMX 181550Z 16007KT 130V200 CAVOK 13/10 Q1010=
201210181520 METAR ESMX 181520Z 17007KT 140V200 CAVOK 13/10 Q1010=
201210181450 METAR ESMX 181450Z 17008KT 140V200 CAVOK 13/10 Q1010=
201210181420 METAR ESMX 181420Z 17008KT CAVOK 14/10 Q1010=
201210181350 METAR ESMX 181350Z 17008KT 140V220 CAVOK 14/10 Q1010=
201210181320 METAR ESMX 181320Z 17008KT 140V210 CAVOK 15/10 Q1010=
201210181250 METAR ESMX 181250Z 15008KT 120V190 CAVOK 15/10 Q1010=
201210181220 METAR ESMX 181220Z 17010KT 140V220 CAVOK 16/10 Q1011=
201210181150 METAR ESMX 181150Z 16006KT 130V190 CAVOK 15/10 Q1010=
201210181120 METAR ESMX 181120Z 16005KT 110V190 CAVOK 14/10 Q1011=
201210181050 METAR ESMX 181050Z 16007KT 120V190 CAVOK 14/10 Q1011=
201210181020 METAR ESMX 181020Z 17007KT 140V220 CAVOK 13/10 Q1011=
201210180950 METAR ESMX 180950Z 17006KT 140V210 CAVOK 13/10 Q1011=
201210180920 METAR ESMX 180920Z 16006KT 110V200 9999 FEW005 BKN058 12/10 Q1011=
201210180850 METAR ESMX 180850Z 16005KT 120V190 9999 BR FEW004 SCT073 11/10 Q1011=
201210180820 METAR ESMX 180820Z 16004KT 110V200 7000 BR FEW003 SCT006 10/09 Q1011=
201210180750 METAR ESMX 180750Z 16004KT 120V190 6000 BR FEW003 SCT004 BKN025 10/09 Q1011=
201210180720 METAR ESMX 180720Z 16004KT 5000 BR FEW003 BKN020 10/09 Q1011=
201210180650 METAR ESMX 180650Z 15004KT 100V180 5000 BR SCT003 BKN006 OVC021 09/09 Q1011=
201210180620 METAR ESMX 180620Z 17005KT 140V200 5000 BR BKN003 OVC025 09/08 Q1011=
201210180550 METAR ESMX 180550Z 17006KT 5000 BR FEW003 OVC047 09/08 Q1011=
201210180520 METAR ESMX 180520Z 16003KT 5000 -RA FEW023 BKN046 09/08 Q1010=
201210180450 METAR ESMX 180450Z 17005KT 6000 -RA FEW005 SCT015 09/08 Q1011=
201210180420 METAR ESMX 180420Z 17006KT 7000 BR FEW005 BKN015 09/08 Q1010=
201210180350 METAR ESMX 180350Z 16004KT 140V200 7000 -DZ BKN015 09/08 Q1010=
201210180320 METAR ESMX 180320Z AUTO 16003KT 110V200 7000NDV -DZ OVC010/// 09/08 Q1010=
201210180250 METAR ESMX 180250Z AUTO 16005KT 8000NDV -RA OVC009/// 09/08 Q1010=
201210180220 METAR ESMX 180220Z AUTO 16004KT 120V190 9999NDV OVC010/// 09/08 Q1010=
201210180150 METAR ESMX 180150Z AUTO 17005KT 9999NDV -DZ OVC014/// 09/08 Q1010=
201210180120 METAR ESMX 180120Z AUTO 18006KT 9999NDV BKN018/// OVC022/// 09/08 Q1010=
201210180050 METAR ESMX 180050Z AUTO 17006KT 150V210 9999NDV SCT018/// OVC023/// 09/08 Q1010=
201210180020 METAR ESMX 180020Z AUTO 17006KT 140V200 9999NDV SCT019/// OVC041/// 09/08 Q1010=
201210172350 METAR ESMX 172350Z 16006KT 110V200 9999 SCT020 BKN035 09/08 Q1010=
201210172320 METAR ESMX 172320Z 17006KT 110V200 9999 SCT020 OVC034 09/08 Q1010=
201210172250 METAR ESMX 172250Z 17006KT 120V200 9999 FEW010 OVC023 09/08 Q1010=
201210172220 METAR ESMX 172220Z 17006KT 120V190 9999 FEW010 BKN022 09/07 Q1010 REDZ=
201210172150 METAR ESMX 172150Z 18006KT 140V200 9999 FEW018 SCT027 BKN032 09/07 Q1010=
201210172120 METAR ESMX 172120Z 16007KT 140V200 9999 FEW019 OVC028 09/07 Q1009=
201210172050 METAR ESMX 172050Z 16006KT 130V190 9999 FEW029 SCT037 BKN042 09/07 Q1010=
201210172020 METAR ESMX 172020Z 16005KT 120V200 9999 FEW012 BKN042 09/07 Q1010=
201210171950 METAR ESMX 171950Z 17005KT 140V200 CAVOK 09/07 Q1010=
201210171920 METAR ESMX 171920Z 16006KT 130V200 CAVOK 09/07 Q1010=
201210171850 METAR ESMX 171850Z 17007KT 140V210 CAVOK 09/07 Q1010=
201210171820 METAR ESMX 171820Z 18008KT CAVOK 09/07 Q1010=
201210171750 METAR ESMX 171750Z 18007KT 140V200 CAVOK 09/07 Q1010=
201210171720 METAR ESMX 171720Z 17006KT CAVOK 09/06 Q1010=
201210171650 METAR ESMX 171650Z 17005KT CAVOK 09/05 Q1009=
201210171620 METAR ESMX 171620Z 18003KT CAVOK 07/05 Q1009=
201210171550 METAR ESMX 171550Z 18004KT CAVOK 09/05 Q1009=
201210171520 METAR ESMX 171520Z 20006KT 9999 FEW033 10/05 Q1009=
201210171450 METAR ESMX 171450Z 19006KT 9999 FEW031 11/06 Q1009=
201210171420 METAR ESMX 171420Z 21010KT 9999 FEW032 SCT038 11/05 Q1009=
201210171350 METAR ESMX 171350Z 21011KT 190V260 9999 FEW029 SCT033 11/05 Q1009=
201210171320 METAR ESMX 171320Z 22012KT 190V250 9999 SCT032 11/05 Q1009=
201210171250 METAR ESMX 171250Z 22012KT 170V250 9999 SCT032 11/05 Q1009=
201210171220 METAR ESMX 171220Z 21018KT 190V250 9999 SCT026 BKN032 11/05 Q1009=
201210171150 METAR ESMX 171150Z 22016KT 9999 SCT023 BKN029 11/05 Q1009=
201210171120 METAR ESMX 171120Z 22014KT 180V250 9999 BKN021 BKN032 11/06 Q1008=
201210171050 METAR ESMX 171050Z 21012KT 170V250 9999 SCT027 BKN040 10/06 Q1008=
201210171020 METAR ESMX 171020Z 21015KT 9999 FEW022 SCT030 BKN037 10/06 Q1008=
201210170950 METAR ESMX 170950Z 22011KT 9999 FEW023 BKN030 10/07 Q1008=
201210170920 METAR ESMX 170920Z 20014KT 9999 FEW020 BKN026 09/06 Q1008=
201210170850 METAR ESMX 170850Z 23013KT 190V250 9999 FEW018 BKN022 09/06 Q1007=
201210170820 METAR ESMX 170820Z 21014KT 180V240 9999 FEW016 BKN021 09/06 Q1007=
201210170750 METAR ESMX 170750Z 20015KT 170V230 9999 FEW014 BKN017 09/06 Q1006=
201210170720 METAR ESMX 170720Z 22012KT 190V250 9999 FEW015 BKN019 08/06 Q1006=
201210170650 METAR ESMX 170650Z 21011KT 9999 SCT015 BKN020 08/06 Q1006=
201210170620 METAR ESMX 170620Z 20010KT 9999 FEW015 BKN020 08/06 Q1005=
201210170550 METAR ESMX 170550Z 20010KT 9999 FEW010 BKN015 08/06 Q1005=
201210170520 METAR ESMX 170520Z 19010KT 9999 FEW009 BKN020 08/06 Q1005=
201210170450 METAR ESMX 170450Z 19009KT 9999 FEW010 BKN013 08/06 Q1005=
201210170350 METAR COR ESMX 170350Z 18009KT 9999 FEW009 BKN012 08/07 Q1005=
201210170320 METAR ESMX 170320Z AUTO 17008KT 140V200 9999NDV SCT010/// BKN015/// OVC022/// 08/07 Q1005=
201210170250 METAR ESMX 170250Z AUTO 17008KT 140V200 9999NDV FEW007/// SCT011/// BKN018/// 08/07 Q1005=
201210170220 METAR ESMX 170220Z AUTO 17008KT 130V210 9999NDV FEW007/// BKN010/// OVC019/// 08/07 Q1005=
201210170150 METAR ESMX 170150Z AUTO 16007KT 9999NDV FEW007/// SCT014/// BKN024/// 08/07 Q1005=
201210170120 METAR ESMX 170120Z AUTO 19006KT 140V210 9999NDV FEW008/// OVC020/// 08/07 Q1005 REDZ=
201210170050 METAR ESMX 170050Z AUTO 19007KT 9999NDV FEW006/// SCT008/// BKN020/// 08/07 Q1005=
201210170020 METAR ESMX 170020Z AUTO 16008KT 130V200 9000NDV BR FEW006/// SCT008/// BKN009/// 08/07 Q1005 REDZ=
201210162350 METAR ESMX 162350Z 15007KT 110V190 5000 RA FEW005 OVC010 08/07 Q1005=
201210162320 METAR ESMX 162320Z 16006KT 120V180 6000 -RA FEW006 BKN043 08/07 Q1005=
201210162250 METAR ESMX 162250Z 16007KT 130V200 9000 FEW007 BKN009 08/07 Q1005=
201210162220 METAR ESMX 162220Z 16007KT 120V200 9999 FEW007 BKN016 08/07 Q1005=
201210162150 METAR ESMX 162150Z 17008KT 130V200 9999 FEW008 BKN013 08/07 Q1005=
201210162120 METAR ESMX 162120Z 17008KT 110V200 9999 FEW008 BKN010 08/06 Q1005=
201210162050 METAR ESMX 162050Z 16008KT 120V200 9999 SCT007 BKN011 08/06 Q1006=
201210162020 METAR ESMX 162020Z 16006KT 120V190 9999 SCT008 BKN012 08/06 Q1006=
201210161950 METAR ESMX 161950Z 14006KT 110V190 8000 BR FEW006 07/06 Q1006=
201210161920 METAR ESMX 161920Z 16006KT 110V190 8000 BR FEW007 07/06 Q1006=
201210161850 METAR ESMX 161850Z 14006KT 9999 FEW004 07/06 Q1006=
201210161820 METAR ESMX 161820Z 16006KT 9999 FEW011 07/06 Q1006=
201210161750 METAR ESMX 161750Z 17007KT 140V200 9999 BKN007 08/06 Q1006=
201210161720 METAR ESMX 161720Z 15007KT 110V180 9999 OVC007 08/06 Q1006=
201210161650 METAR ESMX 161650Z 15006KT 110V190 9999 FEW008 OVC009 08/07 Q1006=
201210161620 METAR ESMX 161620Z 17006KT 120V200 9999 FEW009 BKN010 OVC014 09/07 Q1006=
201210161550 METAR ESMX 161550Z 17007KT 140V200 9999 FEW010 BKN013 09/07 Q1006=
201210161520 METAR ESMX 161520Z 15007KT 120V180 9999 SCT010 BKN016 BKN019 09/07 Q1006=
201210161450 METAR ESMX 161450Z 17008KT 120V200 9999 OVC010 09/07 Q1007=
201210161420 METAR ESMX 161420Z 17008KT 120V210 9999 OVC011 09/07 Q1007=
201210161350 METAR ESMX 161350Z 16006KT 120V200 9999 OVC010 09/07 Q1007=
201210161320 METAR ESMX 161320Z 16007KT 120V200 9999 FEW010 OVC013 09/07 Q1007=
201210161250 METAR ESMX 161250Z 15007KT 110V200 9999 FEW009 OVC011 09/07 Q1007=
201210161220 METAR ESMX 161220Z 17007KT 140V200 9999 OVC012 09/07 Q1007=
201210161150 METAR ESMX 161150Z 18010KT 9999 OVC012 09/07 Q1007=
201210161120 METAR ESMX 161120Z 18009KT 9999 SCT010 BKN018 09/07 Q1007=
201210161050 METAR ESMX 161050Z 19008KT 150V220 9999 FEW010 BKN012 OVC016 09/07 Q1007=
201210161020 METAR ESMX 161020Z 18009KT 9999 FEW009 SCT011 OVC014 08/07 Q1007=
201210160920 METAR ESMX 160920Z 19009KT 9000 BR FEW007 OVC009 08/06 Q1006=
201210160850 METAR ESMX 160850Z 19009KT 7000 BR BKN006 OVC009 08/06 Q1006=
201210160820 METAR ESMX 160820Z 19009KT 9000 OVC006 07/06 Q1006=
201210160750 METAR ESMX 160750Z 18010KT 9999 OVC005 07/06 Q1006=
201210160720 METAR ESMX 160720Z 17008KT 120V210 9999 OVC005 07/06 Q1005=
201210160650 METAR ESMX 160650Z 17008KT 9999 OVC006 06/05 Q1005=
201210160620 METAR ESMX 160620Z 18008KT 140V210 9999 FEW004 BKN006 OVC009 06/05 Q1005=
201210160550 METAR ESMX 160550Z 16007KT 9000 BR BKN002 OVC005 06/05 Q1005=
201210160520 METAR ESMX 160520Z 17006KT 140V210 7000 BR OVC002 05/05 Q1005=
201210160450 METAR ESMX 160450Z 18006KT 140V210 8000 BR OVC003 05/04 Q1005=
201210160420 METAR ESMX 160420Z 19007KT 9999 BKN005 05/04 Q1005=
201210160350 METAR ESMX 160350Z 21008KT 9999 OVC005 06/05 Q1005=
201210160320 METAR ESMX 160320Z AUTO 21012KT 9999NDV BKN004/// OVC007/// 06/05 Q1005=
201210160250 METAR ESMX 160250Z AUTO 19006KT 150V210 9999NDV FEW006/// SCT010/// BKN038/// 06/05 Q1004=
201210160220 METAR ESMX 160220Z AUTO 22011KT 9999NDV FEW006/// SCT009/// BKN011/// 06/05 Q1004=
201210160150 METAR ESMX 160150Z AUTO 23008KT 9999NDV FEW011/// BKN014/// BKN023/// 06/05 Q1003=
201210160120 METAR ESMX 160120Z AUTO 23011KT 190V250 9999NDV FEW010/// BKN013/// OVC017/// 07/05 Q1003=
201210160050 METAR ESMX 160050Z AUTO 21009KT 9999NDV FEW006/// SCT008/// BKN009/// 07/06 Q1003=
201210160020 METAR ESMX 160020Z AUTO 22006KT 9999NDV BKN003/// OVC006/// 07/06 Q1003=
201210152350 METAR ESMX 152350Z 21006KT 190V250 9999 OVC003 06/05 Q1003=
201210152220 METAR ESMX 152220Z 22007KT 9999 BKN004 OVC007 06/05 Q1002=
201210152150 METAR ESMX 152150Z 23009KT 9999 OVC003 06/05 Q1002=
201210152120 METAR ESMX 152120Z 22008KT 200V260 9999 FEW003 BKN004 06/05 Q1001=
201210152050 METAR ESMX 152050Z 23008KT 9999 FEW003 OVC004 06/05 Q1001=
201210152020 METAR ESMX 152020Z 24007KT 220V280 9999 OVC002 06/05 Q1001=
201210151950 METAR ESMX 151950Z 23006KT 6000 BR OVC001 06/05 Q1000=
201210151920 METAR ESMX 151920Z 25006KT 3200 BR OVC001 06/05 Q1000=
201210151850 METAR ESMX 151850Z 25004KT 5000 BR BKN001 OVC005 06/06 Q0999=
201210151820 METAR ESMX 151820Z 25003KT 4500 -RA BR SCT002 OVC005 06/06 Q0999=
201210151750 METAR ESMX 151750Z 00000KT 9999 -RA OVC003 06/06 Q0999=
201210151720 METAR ESMX 151720Z 01002KT 9999 -RA FEW002 OVC004 06/06 Q0998=
201210151650 METAR ESMX 151650Z 03003KT 9999 -RA BKN003 OVC005 06/06 Q0998=
201210151620 METAR ESMX 151620Z 02003KT 9999 -RA BKN004 OVC007 06/06 Q0998=
201210151550 METAR ESMX 151550Z VRB02KT 3700 RA BKN003 OVC006 06/06 Q0998=
201210151520 METAR ESMX 151520Z 07003KT 020V110 4900 RA FEW004 BKN006 OVC010 06/06 Q0998=
201210151450 METAR ESMX 151450Z 06004KT 360V120 9999 RA SCT006 BKN007 06/05 Q0998=
201210151420 METAR ESMX 151420Z 05006KT 9999 -RA FEW006 SCT007 OVC009 06/05 Q0998=
201210151350 METAR ESMX 151350Z 04007KT 9999 -RA FEW007 SCT009 OVC011 06/05 Q0999=
201210151320 METAR ESMX 151320Z 05006KT 020V110 9999 -RA FEW006 BKN008 OVC010 06/05 Q0999=
201210151250 METAR ESMX 151250Z 04007KT 350V080 9999 -RA FEW006 OVC008 06/05 Q0999=
201210151220 METAR ESMX 151220Z 04007KT 010V070 9999 -RA FEW007 OVC009 06/05 Q0999=
201210151150 METAR ESMX 151150Z 04008KT 350V100 8000 RA FEW008 BKN010 OVC027 06/05 Q1000=
201210151120 METAR ESMX 151120Z 04007KT 360V070 9999 DZ SCT008 BKN027 06/05 Q1000=
201210151050 METAR ESMX 151050Z 06007KT 020V110 9999 -RA FEW008 SCT012 BKN017 06/05 Q1001=
201210151020 METAR ESMX 151020Z 07005KT 040V140 9999 -RA FEW007 SCT010 BKN013 06/06 Q1001=
201210150950 METAR ESMX 150950Z 07005KT 030V120 9000 RA SCT008 BKN030 07/06 Q1001=
201210150920 METAR ESMX 150920Z 08004KT 020V130 9999 -RA SCT007 BKN035 07/06 Q1002 REDZ=
201210150850 METAR ESMX 150850Z VRB06KT 9999 -RA SCT006 BKN025 07/06 Q1002=
201210150820 METAR ESMX 150820Z 08005KT 030V120 9999 DZ FEW006 SCT025 BKN056 06/06 Q1002=
201210150750 METAR ESMX 150750Z 10003KT 050V150 9999 -RA FEW006 BKN023 06/05 Q1002=
201210150720 METAR ESMX 150720Z 09003KT 020V170 9999 FEW008 BKN025 06/05 Q1002 REDZ=
201210150650 METAR ESMX 150650Z 08003KT 050V130 9999 -RA FEW007 BKN023 06/05 Q1002=
201210150620 METAR ESMX 150620Z 08003KT 030V130 9999 FEW005 BKN023 06/05 Q1002=
201210150550 METAR ESMX 150550Z 08002KT 9999 FEW005 SCT025 BKN080 05/05 Q1002=
201210150520 METAR ESMX 150520Z VRB02KT 9999 BCFG FEW005 BKN080 05/04 Q1002=
201210150450 METAR ESMX 150450Z VRB02KT CAVOK 05/04 Q1002=
201210150420 METAR ESMX 150420Z VRB02KT CAVOK 05/04 Q1002=
201210150350 METAR ESMX 150350Z VRB02KT CAVOK 05/04 Q1002=
201210150320 METAR ESMX 150320Z AUTO 11003KT 070V140 8000NDV BR FEW052/// 05/04 Q1003=
201210150250 METAR ESMX 150250Z AUTO VRB02KT 6000NDV BR FEW002/// BKN049/// 05/04 Q1002=
201210150220 METAR ESMX 150220Z AUTO VRB02KT 8000NDV BR SCT003/// BKN032/// OVC041/// 06/05 Q1002=
201210150150 METAR ESMX 150150Z AUTO 14003KT 080V190 8000NDV BR FEW002/// SCT003/// BKN019/// 06/05 Q1002=
201210150120 METAR ESMX 150120Z AUTO 14003KT 080V180 7000NDV HZ OVC002/// 06/05 Q1002=
201210150050 METAR ESMX 150050Z AUTO 16005KT 130V190 6000NDV HZ OVC002/// 06/05 Q1003=
201210150020 METAR ESMX 150020Z AUTO 17006KT 6000NDV BR OVC002/// 06/05 Q1003=
201210142350 METAR ESMX 142350Z AUTO 16006KT 110V200 9999NDV OVC003/// 06/05 Q1002=
201210142320 METAR ESMX 142320Z 15004KT 110V180 9999 SCT005 BKN010 06/05 Q1002=
201210142250 METAR ESMX 142250Z 15005KT 110V180 9999 BKN004 OVC029 06/05 Q1002=
201210142220 METAR ESMX 142220Z 14004KT 110V190 8000 -DZ BKN004 BKN028 06/05 Q1002=
201210142150 METAR ESMX 142150Z 15005KT 110V190 9000 -RA BKN005 BKN019 06/05 Q1002=
201210142120 METAR COR ESMX 142120Z 15003KT 100V180 9999 -RA SCT005 BKN008 06/05 Q1002=
201210142050 METAR ESMX 142050Z 14004KT 110V190 9999 SCT004 BKN038 06/05 Q1002=
201210142020 METAR ESMX 142020Z 15005KT 120V180 9999 BKN005 BKN020 06/05 Q1001=
201210141950 METAR ESMX 141950Z 15004KT 120V190 9999 BKN005 BKN040 06/05 Q1001=
201210141920 METAR ESMX 141920Z 14003KT 100V200 9999 FEW008 SCT015 BKN030 06/05 Q1001 RERA=
201210141850 METAR ESMX 141850Z 13003KT 100V180 9999 FEW004 SCT034 BKN044 06/05 Q1001=
201210141820 METAR ESMX 141820Z 13003KT 070V170 9999 SCT008 BKN015 06/05 Q1001=
201210141750 METAR ESMX 141750Z 12003KT 080V190 9999 FEW005 BKN015 06/05 Q1000=
201210141720 METAR ESMX 141720Z 10003KT 040V150 9999 BKN017 OVC023 06/05 Q1000=
201210141650 METAR ESMX 141650Z 12003KT 070V160 9999 SCT020 BKN025 06/05 Q1000=
201210141620 METAR ESMX 141620Z 11004KT 070V160 9999 FEW011 BKN029 06/05 Q1000=
201210141550 METAR ESMX 141550Z 10003KT 060V160 9999 FEW009 SCT029 BKN033 07/06 Q1000=
201210141520 METAR ESMX 141520Z 12003KT 030V170 9999 FEW009 SCT016 BKN050 07/06 Q1000 RERA=
201210141450 METAR ESMX 141450Z 12005KT 060V210 9999 -RA FEW010 SCT028 BKN033 07/06 Q1000=
201210141420 METAR ESMX 141420Z 12004KT 040V160 8000 RA BKN030 07/06 Q1000=
201210141350 METAR ESMX 141350Z 12005KT 050V160 9999 -RA FEW031 BKN036 07/06 Q1000=
201210141320 METAR ESMX 141320Z VRB05KT 8000 -RA FEW031 07/06 Q1000=
201210141250 METAR ESMX 141250Z 11008KT 070V190 8000 -RA FEW008 BKN012 08/06 Q1000=
201210141220 METAR ESMX 141220Z 08006KT 020V120 9999 DZ FEW010 SCT013 BKN016 09/07 Q1000=
201210141150 METAR ESMX 141150Z 08006KT 040V150 9999 FEW014 09/07 Q1001=
201210141120 METAR ESMX 141120Z 08005KT 040V140 9999 FEW010 09/07 Q1001=
201210141050 METAR ESMX 141050Z 09004KT 050V130 9999 SCT011 08/07 Q1002=
201210141020 METAR ESMX 141020Z 12006KT 060V190 9999 -RA FEW009 SCT012 BKN032 08/07 Q1002 REDZ=
201210140950 METAR ESMX 140950Z 13005KT 060V180 9999 -DZ FEW006 SCT008 BKN010 08/07 Q1002=
201210140920 METAR ESMX 140920Z 13007KT 050V200 7000 -RA FEW006 SCT008 BKN009 08/07 Q1003 REDZ=
201210140850 METAR ESMX 140850Z 12005KT 040V170 9000 -RA FEW006 SCT008 BKN010 08/07 Q1003=
201210140820 METAR ESMX 140820Z AUTO 10005KT 020V150 9999NDV DZ FEW005/// SCT006/// OVC007/// 07/07 Q1003=
201210140750 METAR ESMX 140750Z AUTO 10006KT 060V140 5000NDV -RA FEW004/// SCT006/// BKN008/// 07/07 Q1003=
201210140720 METAR ESMX 140720Z AUTO 08005KT 020V130 5000NDV RA BKN005/// OVC008/// 07/06 Q1004=
201210140650 METAR ESMX 140650Z AUTO 09003KT 030V140 7000NDV -RA SCT004/// BKN006/// BKN022/// 07/06 Q1004=
201210140620 METAR ESMX 140620Z AUTO 10004KT 050V150 9999NDV DZ OVC003/// 07/06 Q1004=
201210140550 METAR ESMX 140550Z AUTO 10004KT 060V150 8000NDV DZ OVC002/// 06/06 Q1004=
201210140520 METAR ESMX 140520Z AUTO 09003KT 040V130 5000NDV OVC001/// 06/06 Q1004 REDZ=
201210140450 METAR ESMX 140450Z AUTO 10004KT 040V160 1400NDV R01/P2000N R19/P2000N DZ OVC001/// 06/06 Q1005=
201210140420 METAR ESMX 140420Z AUTO 11004KT 070V160 1000NDV R01/P2000N R19/P2000N -DZ VV002 06/05 Q1005=
201210140350 METAR ESMX 140350Z AUTO VRB04KT 1300NDV R01/P2000N R19/P2000N BR OVC001/// 06/05 Q1005=
201210140320 METAR ESMX 140320Z AUTO 11004KT 060V170 1900NDV BR OVC001/// 06/05 Q1005=
201210140250 METAR ESMX 140250Z AUTO 11003KT 070V160 2600NDV OVC001/// 06/05 Q1005=
201210140220 METAR ESMX 140220Z AUTO 11003KT 050V150 1100NDV R01/P2000N R19/P2000N VV002 06/05 Q1006=
201210140150 METAR ESMX 140150Z AUTO 12004KT 050V190 0900NDV R01/P2000N R19/P2000N FG VV002 06/05 Q1006=
201210140120 METAR ESMX 140120Z AUTO 12005KT 080V160 1100NDV R01/P2000N R19/P2000N BR VV002 06/05 Q1006=
201210140050 METAR ESMX 140050Z AUTO 12003KT 070V160 3800NDV BR OVC001/// 06/05 Q1006=
201210140020 METAR ESMX 140020Z AUTO 14004KT 080V170 5000NDV BR BKN001/// OVC019/// 06/05 Q1006=
201210132350 METAR ESMX 132350Z AUTO 14004KT 100V170 6000NDV BR OVC001/// 06/05 Q1007=
201210132320 METAR ESMX 132320Z AUTO 15004KT 6000NDV BR OVC001/// 06/05 Q1007=
201210132250 METAR ESMX 132250Z AUTO 15005KT 110V200 5000NDV BR OVC001/// 06/05 Q1007=
201210132220 METAR ESMX 132220Z AUTO 14004KT 100V200 9999NDV OVC002/// 06/05 Q1007 REDZ=
201210132150 METAR ESMX 132150Z AUTO 12004KT 060V160 9999NDV OVC003/// 06/05 Q1007=
201210132120 METAR ESMX 132120Z AUTO 13004KT 090V180 9999NDV OVC003/// 06/05 Q1007=
201210132050 METAR ESMX 132050Z AUTO 12003KT 070V170 9999NDV OVC004/// 06/05 Q1007=
201210132020 METAR ESMX 132020Z AUTO 11003KT 070V160 9999NDV -DZ BKN004/// OVC007/// 06/05 Q1007=
201210131950 METAR ESMX 131950Z AUTO 11004KT 070V150 9999NDV OVC006/// 06/05 Q1007 RERA=
201210131920 METAR ESMX 131920Z AUTO VRB02KT 7000NDV -RA FEW005/// OVC006/// 05/05 Q1007 REDZ=
201210131850 METAR ESMX 131850Z AUTO VRB02KT 9000NDV DZ FEW005/// BKN006/// OVC008/// 05/05 Q1008=
201210131820 METAR ESMX 131820Z 10004KT 050V160 9999 FEW006 BKN008 OVC022 06/05 Q1007=
201210131750 METAR ESMX 131750Z 09003KT 030V160 9999 -RA FEW006 SCT008 BKN024 05/04 Q1007=
201210131720 METAR ESMX 131720Z 09003KT 030V150 9999 -RA FEW008 BKN020 06/05 Q1008=
201210131650 METAR ESMX 131650Z 09004KT 050V140 8000 -RA FEW006 SCT011 BKN025 06/05 Q1007=
201210131620 METAR ESMX 131620Z 09005KT 050V120 9999 -RA SCT006 BKN020 06/05 Q1007=
201210131550 METAR ESMX 131550Z AUTO 09003KT 050V140 9999NDV -RA FEW007/// BKN020/// BKN025/// 06/05 Q1007=
201210131520 METAR ESMX 131520Z AUTO 09004KT 050V140 9999NDV -RA FEW009/// BKN025/// 06/05 Q1007=
201210131450 METAR ESMX 131450Z AUTO 08004KT 050V140 9999NDV -RA FEW010/// OVC028/// 06/05 Q1007 REDZ=
201210131420 METAR ESMX 131420Z AUTO 09004KT 040V120 9999NDV -DZ FEW008/// SCT022/// BKN028/// 06/05 Q1007=
201210131350 METAR ESMX 131350Z AUTO 08004KT 030V110 9999NDV DZ FEW006/// SCT008/// BKN013/// 06/05 Q1007=
201210131320 METAR ESMX 131320Z 08005KT 020V160 9999 -RA FEW009 SCT014 OVC024 06/05 Q1007=
201210131250 METAR ESMX 131250Z 08004KT 040V120 9999 -RA SCT010 OVC020 06/05 Q1008=
201210131220 METAR ESMX 131220Z AUTO 07005KT 020V110 9999NDV -RA FEW015/// BKN020/// 06/04 Q1008=
201210131150 METAR ESMX 131150Z AUTO 07006KT 020V110 9999NDV -RA FEW014/// SCT017/// BKN020/// 06/04 Q1008=
201210131120 METAR ESMX 131120Z AUTO 05006KT 350V100 9999NDV -RA FEW010/// SCT017/// BKN027/// 06/04 Q1008 REDZ=
201210131050 METAR ESMX 131050Z AUTO 06008KT 020V110 9999NDV DZ FEW013/// SCT033/// BKN041/// 05/04 Q1008=
201210131020 METAR ESMX 131020Z AUTO 05008KT 350V140 9999NDV -RA FEW031/// 05/04 Q1008=
201210130950 METAR ESMX 130950Z 04007KT 350V100 9999 -RA SCT022 05/04 Q1008=
201210130920 METAR ESMX 130920Z 06006KT 020V100 9999 -RA SCT024 05/04 Q1008=
201210130850 METAR ESMX 130850Z 08006KT 030V120 9999 -RA FEW015 SCT025 05/03 Q1008=
201210130820 METAR ESMX 130820Z 07007KT 020V120 9999 -RA FEW035 05/03 Q1008=
201210130750 METAR ESMX 130750Z 06008KT 010V110 9999 FEW035 05/03 Q1009=
201210130720 METAR ESMX 130720Z 04007KT 350V110 9999 FEW033 05/02 Q1009=
201210130650 METAR ESMX 130650Z AUTO 07008KT 030V110 9999NDV FEW029/// BKN032/// 05/02 Q1009=
201210130620 METAR ESMX 130620Z AUTO 06007KT 020V110 9999NDV FEW028/// SCT035/// 04/02 Q1009=
201210130550 METAR ESMX 130550Z AUTO 06007KT 020V110 9999NDV FEW029/// SCT033/// 04/02 Q1009=
201210130520 METAR ESMX 130520Z AUTO 06008KT 020V100 9999NDV OVC027/// 04/02 Q1009=
201210130450 METAR ESMX 130450Z AUTO 06007KT 020V110 9999NDV OVC026/// 04/02 Q1009=
201210130420 METAR ESMX 130420Z AUTO 07007KT 010V110 9999NDV OVC025/// 04/02 Q1009=
201210130350 METAR ESMX 130350Z AUTO 07007KT 030V120 9999NDV BKN027/// 04/02 Q1010=
201210130320 METAR ESMX 130320Z AUTO 07006KT 020V110 9999NDV FEW027/// 03/02 Q1010=
201210130250 METAR ESMX 130250Z AUTO 06006KT 020V110 9999NDV NCD 03/02 Q1010=
201210130220 METAR ESMX 130220Z AUTO 07006KT 020V120 9999NDV NCD 03/02 Q1011=
201210130150 METAR ESMX 130150Z AUTO 07005KT 360V160 9999NDV NCD 03/01 Q1011=
201210130120 METAR ESMX 130120Z AUTO 07004KT 020V120 9999NDV NCD 03/01 Q1012=
201210130050 METAR ESMX 130050Z AUTO 07004KT 350V120 9999NDV NCD 03/01 Q1012=
201210130020 METAR ESMX 130020Z AUTO 09005KT 030V140 9999NDV NCD 03/01 Q1012=
201210122350 METAR ESMX 122350Z AUTO 09003KT 020V130 9999NDV NCD 03/01 Q1012=
201210122320 METAR ESMX 122320Z AUTO 08003KT 040V140 9999NDV NCD 03/01 Q1012=
201210122250 METAR ESMX 122250Z AUTO 08005KT 020V120 9999NDV NCD 03/01 Q1013=
201210122220 METAR ESMX 122220Z AUTO 07004KT 020V110 9999NDV NCD 03/01 Q1013=
201210122150 METAR ESMX 122150Z AUTO 08003KT 040V120 9999NDV NCD 02/00 Q1013=
201210122120 METAR ESMX 122120Z AUTO 10003KT 050V150 9999NDV NCD 03/00 Q1014=
201210122050 METAR ESMX 122050Z AUTO 09004KT 060V140 9999NDV BKN031/// 03/00 Q1014=
201210122020 METAR ESMX 122020Z AUTO 10003KT 040V140 9999NDV FEW034/// 03/00 Q1014=
201210121950 METAR ESMX 121950Z AUTO 08003KT 050V120 9999NDV NCD 02/M00 Q1014=
201210121920 METAR ESMX 121920Z AUTO 07004KT 050V110 9999NDV NCD 02/00 Q1014=
201210121850 METAR ESMX 121850Z 08003KT CAVOK 02/M00 Q1014=
201210121820 METAR ESMX 121820Z 09003KT 050V120 CAVOK 02/M00 Q1014=
201210121750 METAR ESMX 121750Z 10003KT CAVOK 03/M00 Q1014=
201210121720 METAR ESMX 121720Z 09003KT 030V130 CAVOK 04/M01 Q1014=
201210121650 METAR ESMX 121650Z 09004KT 040V120 CAVOK 05/M01 Q1014=
201210121620 METAR ESMX 121620Z 05005KT 010V100 9999 FEW030 05/M00 Q1014=
201210121550 METAR ESMX 121550Z 05005KT 020V090 9999 FEW033 06/M00 Q1014=
201210121520 METAR ESMX 121520Z 06005KT 020V100 9999 BKN034 07/00 Q1014=
201210121450 METAR ESMX 121450Z 07004KT 040V120 9999 BKN035 07/00 Q1014=
201210121420 METAR ESMX 121420Z 08005KT 030V120 9999 BKN034 07/00 Q1014=
201210121350 METAR ESMX 121350Z 05006KT 020V110 9999 BKN031 07/00 Q1014=
201210121320 METAR ESMX 121320Z 10005KT 060V130 9999 SCT034 08/00 Q1014=
201210121250 METAR ESMX 121250Z 06005KT 030V100 9999 BKN035 08/00 Q1014=
201210121220 METAR ESMX 121220Z 05006KT 020V100 9999 SCT031 09/00 Q1015=
201210121150 METAR ESMX 121150Z VRB03KT 9999 SCT030 08/00 Q1015=
201210121120 METAR ESMX 121120Z VRB04KT 9999 BKN030 07/00 Q1015=
201210121050 METAR COR ESMX 121050Z 11003KT 070V140 9999 BKN030 08/01 Q1015=
201210121020 METAR ESMX 121020Z 08005KT 030V130 9999 SCT030 07/00 Q1015=
201210120950 METAR ESMX 120950Z 06004KT 360V110 9999 FEW029 08/01 Q1015=
201210120920 METAR COR ESMX 120920Z 08004KT 040V150 9999 FEW028 07/02 Q1015=
201210120850 METAR ESMX 120850Z VRB02KT CAVOK 05/04 Q1015=
201210120820 METAR ESMX 120820Z 07003KT 030V100 CAVOK 04/03 Q1015=
201210120750 METAR ESMX 120750Z VRB02KT CAVOK 03/02 Q1015=
201210120720 METAR ESMX 120720Z 02002KT 9999 R19/P2000N BCFG FEW001 01/00 Q1015=
201210120620 METAR ESMX 120620Z 36001KT 0250 R19/0550 FZFG VV002 M02/M02 Q1015=
201210120550 METAR ESMX 120550Z 19001KT 0150 R19/0225N FZFG VV001 M02/M02 Q1015=
201210120520 METAR ESMX 120520Z 00000KT 0150 R19/0350 FZFG VV001 M02/M02 Q1015=
201210120450 METAR ESMX 120450Z 00000KT 0050 R01/0300N R19/0300N FZFG VV001 M02/M03 Q1014=
201210120420 METAR ESMX 120420Z 00000KT 0100 R01/1500VP2000D R19/0350 FZFG VV001 M03/M04 Q1015=
201210120350 METAR ESMX 120350Z AUTO 00000KT 0150NDV R01/0650V0900 R19/0800=
201210120320 METAR ESMX 120320Z AUTO 00000KT 0050NDV R01/0200N R19/0400V0550N=
201210120250 METAR ESMX 120250Z AUTO 18001KT 0050NDV R01/0225N R19/0800V1800U=
201210120220 METAR ESMX 120220Z AUTO 02001KT 0150NDV R01/0350V1700D R19/0650V0800 BCFG VV000 M02/M03 Q1015=
201210120150 METAR ESMX 120150Z AUTO 00000KT 1300NDV R01/P2000N R19/P2000N BCFG NCD M03/M04 Q1015=
201210120120 METAR ESMX 120120Z AUTO 18002KT 1700NDV NCD M03/M03 Q1015=
201210120050 METAR ESMX 120050Z AUTO 00000KT 0250NDV R01/0800V1200 R19/P2000N=
201210120020 METAR ESMX 120020Z 04002KT 9999 BCFG NSC M02/M03 Q1015=
201210112350 METAR ESMX 112350Z 05002KT CAVOK M02/M02 Q1015=
201210112320 METAR ESMX 112320Z 00000KT 9999 BCFG FEW028 M02/M02 Q1015=
201210112250 METAR ESMX 112250Z 00000KT 9999 BKN029 M01/M01 Q1015=
201210112220 METAR ESMX 112220Z 00000KT 0200 R01/0900 R19/P2000N FZFG BKN029 M02/M02 Q1015=
201210112150 METAR ESMX 112150Z 00000KT 0100 R01/0500 R19/0400V0700N FZFG NSC M02/M03 Q1015=
201210112120 METAR ESMX 112120Z 00000KT CAVOK M02/M03 Q1015=
201210112050 METAR ESMX 112050Z 00000KT CAVOK M02/M03 Q1015=
201210112020 METAR ESMX 112020Z 00000KT CAVOK M01/M02 Q1015=
201210111950 METAR ESMX 111950Z 17001KT CAVOK M01/M02 Q1014=
201210111920 METAR ESMX 111920Z 00000KT CAVOK M00/M01 Q1014=
201210111850 METAR ESMX 111850Z 18001KT CAVOK M00/M01 Q1014=
201210111820 METAR ESMX 111820Z 19001KT CAVOK 00/M01 Q1014=
201210111750 METAR ESMX 111750Z 11001KT CAVOK 01/M00 Q1014=
201210111720 METAR ESMX 111720Z 13002KT CAVOK 01/00 Q1014=
201210111650 METAR ESMX 111650Z 00000KT CAVOK 03/01 Q1014=
201210111620 METAR ESMX 111620Z 00000KT CAVOK 05/01 Q1014=
201210111550 METAR ESMX 111550Z 03003KT 9999 FEW040 07/02 Q1013=
201210111520 METAR ESMX 111520Z 03004KT 9999 FEW035 09/02 Q1013=
201210111450 METAR ESMX 111450Z 01006KT 340V050 9999 FEW035 10/02 Q1013=
201210111420 METAR ESMX 111420Z 36004KT 320V040 9999 SCT030 10/01 Q1013=
201210111350 METAR ESMX 111350Z 01006KT 9999 SCT036 08/01 Q1013=
201210111320 METAR ESMX 111320Z 01004KT 9999 SCT034 08/02 Q1013=
201210111250 METAR ESMX 111250Z 36006KT 330V030 9999 SCT033 10/02 Q1013=
201210111220 METAR ESMX 111220Z 36006KT 320V020 9999 SCT032 09/02 Q1013=
201210111150 METAR ESMX 111150Z 03006KT 350V060 9999 SCT030 09/01 Q1013=
201210111120 METAR ESMX 111120Z 03005KT 010V070 9999 FEW020 10/02 Q1013=
201210111050 METAR ESMX 111050Z 02004KT 320V060 9999 FEW020 09/02 Q1013=
201210111020 METAR ESMX 111020Z 02004KT 280V070 9999 FEW020 08/01 Q1013=
201210110950 METAR ESMX 110950Z 36004KT 320V040 CAVOK 08/01 Q1013=
201210110920 METAR ESMX 110920Z 02004KT CAVOK 07/02 Q1013=
201210110850 METAR ESMX 110850Z VRB01KT CAVOK 07/03 Q1013=
201210110820 METAR ESMX 110820Z VRB02KT CAVOK 05/02 Q1013=
201210110750 METAR ESMX 110750Z VRB02KT CAVOK 03/02 Q1012=
201210110720 METAR ESMX 110720Z 28002KT CAVOK 02/02 Q1012=
201210110650 METAR ESMX 110650Z 27002KT CAVOK M00/M01 Q1012=
201210110620 METAR ESMX 110620Z 27002KT CAVOK M01/M02 Q1012=
201210110550 METAR ESMX 110550Z 17001KT CAVOK M02/M03 Q1012=
201210110520 METAR ESMX 110520Z 31002KT CAVOK M03/M04 Q1011=
201210110450 METAR ESMX 110450Z 00000KT CAVOK M02/M03 Q1011=
201210110420 METAR ESMX 110420Z VRB02KT CAVOK M01/M02 Q1011=
201210110350 METAR ESMX 110350Z VRB01KT CAVOK M01/M02 Q1011=
201210110320 METAR ESMX 110320Z AUTO VRB02KT 9999NDV FEW049/// M02/M03 Q1011=
201210110250 METAR ESMX 110250Z AUTO 17002KT 9999NDV BKN050/// M02/M02 Q1010=
201210110220 METAR ESMX 110220Z AUTO 24001KT 9999NDV NCD M02/M03 Q1010=
201210110150 METAR ESMX 110150Z AUTO 20002KT 9999NDV NCD M03/M04 Q1010=
201210110120 METAR ESMX 110120Z AUTO 27002KT 9999NDV NCD M03/M04 Q1010=
201210110050 METAR ESMX 110050Z AUTO 27002KT 9999NDV NCD M03/M04 Q1010=
201210110020 METAR ESMX 110020Z AUTO 30001KT 9999NDV NCD M02/M03 Q1010=
201210102350 METAR ESMX 102350Z VRB01KT CAVOK 00/M01 Q1010=
201210102320 METAR ESMX 102320Z 29001KT CAVOK 00/M01 Q1010=
201210102250 METAR ESMX 102250Z VRB02KT CAVOK M00/M01 Q1009=
201210102220 METAR ESMX 102220Z 03002KT CAVOK 00/M00 Q1009=
201210102150 METAR ESMX 102150Z 30003KT CAVOK M00/M01 Q1009=
201210102120 METAR ESMX 102120Z 29003KT CAVOK M01/M02 Q1009=
201210102050 METAR ESMX 102050Z 28002KT CAVOK 00/M01 Q1009=
201210102020 METAR ESMX 102020Z 31003KT CAVOK 00/M01 Q1009=
201210101950 METAR ESMX 101950Z 31004KT 270V350 CAVOK 01/M01 Q1008=
201210101920 METAR ESMX 101920Z 33001KT CAVOK 00/M01 Q1008=
201210101850 METAR ESMX 101850Z 31004KT CAVOK 01/M01 Q1008=
201210101820 METAR ESMX 101820Z 30002KT CAVOK 01/M01 Q1008=
201210101750 METAR ESMX 101750Z 30003KT CAVOK 03/M00 Q1008=
201210101720 METAR ESMX 101720Z 31004KT CAVOK 02/M00 Q1007=
201210101650 METAR ESMX 101650Z 31004KT CAVOK 04/M00 Q1007=
201210101620 METAR ESMX 101620Z 31004KT CAVOK 06/M00 Q1007=
201210101550 METAR ESMX 101550Z 31005KT 270V330 CAVOK 08/M00 Q1007=
201210101520 METAR ESMX 101520Z 33005KT 300V360 CAVOK 09/M01 Q1007=
201210101450 METAR ESMX 101450Z 32008KT CAVOK 10/M02 Q1007=
201210101420 METAR ESMX 101420Z 32009KT CAVOK 10/M00 Q1006=
201210101350 METAR ESMX 101350Z 32008KT 280V350 CAVOK 10/00 Q1006=
201210101320 METAR ESMX 101320Z 33008KT 300V010 CAVOK 10/00 Q1006=
201210101250 METAR ESMX 101250Z 31008KT 270V330 CAVOK 10/M00 Q1006=
201210101220 METAR ESMX 101220Z 33009KT 300V010 CAVOK 10/M02 Q1006=
201210101150 METAR ESMX 101150Z 32009KT CAVOK 10/M02 Q1006=
201210101120 METAR ESMX 101120Z 31007KT 260V340 CAVOK 10/00 Q1006=
201210101050 METAR ESMX 101050Z 27005KT 230V310 CAVOK 10/03 Q1006=
201210101020 METAR ESMX 101020Z 30005KT CAVOK 08/03 Q1006=
201210100950 METAR ESMX 100950Z 30006KT 260V330 CAVOK 08/03 Q1006=
201210100920 METAR ESMX 100920Z 34003KT 290V020 CAVOK 07/03 Q1006=
201210100850 METAR ESMX 100850Z 32004KT 280V350 CAVOK 07/03 Q1006=
201210100820 METAR ESMX 100820Z 31003KT 270V340 CAVOK 06/03 Q1006=
201210100750 METAR ESMX 100750Z VRB02KT CAVOK 05/04 Q1006=
201210100720 METAR ESMX 100720Z 16001KT CAVOK 03/02 Q1006=
201210100620 METAR ESMX 100620Z 27002KT CAVOK 00/M00 Q1006=
201210100550 METAR ESMX 100550Z 25003KT CAVOK M00/M01 Q1006=
201210100520 METAR ESMX 100520Z 25004KT CAVOK M01/M01 Q1006=
201210100450 METAR ESMX 100450Z VRB02KT CAVOK M01/M01 Q1005=
201210100420 METAR ESMX 100420Z 00000KT CAVOK M00/M01 Q1006=
201210100350 METAR ESMX 100350Z 27002KT CAVOK M00/M01 Q1006=
201210100320 METAR ESMX 100320Z AUTO 26004KT 9999NDV NCD 00/M01 Q1006=
201210100250 METAR ESMX 100250Z AUTO 26004KT 9999NDV NCD 00/M00 Q1006=
201210100220 METAR ESMX 100220Z AUTO 30004KT 9999NDV NCD 02/01 Q1006=
201210100150 METAR ESMX 100150Z AUTO 28004KT 9999NDV NCD 02/01 Q1006=
201210100120 METAR ESMX 100120Z AUTO 27005KT 9999NDV NCD 02/01 Q1006=
201210100050 METAR ESMX 100050Z AUTO 27005KT 9999NDV NCD 03/02 Q1006=
201210100020 METAR ESMX 100020Z AUTO 25003KT 9999NDV NCD 02/01 Q1006=
201210092350 METAR ESMX 092350Z 27003KT 250V330 9999 FEW040 03/02 Q1005=
201210092320 METAR ESMX 092320Z 27004KT 9999 BKN038 03/02 Q1005=
201210092250 METAR ESMX 092250Z 27004KT 9999 SCT041 03/02 Q1005=
201210092220 METAR ESMX 092220Z 29006KT 260V320 9999 BKN037 04/03 Q1005=
201210092150 METAR ESMX 092150Z 29005KT 9999 FEW016 03/02 Q1005=
201210092120 METAR ESMX 092120Z 29006KT 9999 FEW027 03/02 Q1005=
201210092050 METAR ESMX 092050Z 30006KT 9999 FEW026 04/02 Q1005=
201210092020 METAR ESMX 092020Z 29006KT 9999 FEW026 BKN030 04/03 Q1005=
201210091950 METAR ESMX 091950Z 29006KT 9999 BKN025 05/03 Q1005=
201210091920 METAR ESMX 091920Z 29007KT 250V330 9999 FEW030 04/02 Q1004=
201210091850 METAR ESMX 091850Z 31007KT 270V340 9999 SCT034 05/03 Q1004=
201210091820 METAR ESMX 091820Z 29007KT 250V320 9999 BKN025 05/03 Q1004=
201210091750 METAR ESMX 091750Z 31006KT 280V340 9999 FEW023 05/03 Q1003=
201210091720 METAR ESMX 091720Z 31007KT 280V340 9999 FEW019 05/02 Q1003=
201210091650 METAR ESMX 091650Z 31009KT 280V350 9999 FEW023 06/03 Q1003=
201210091620 METAR ESMX 091620Z 31009KT 9999 FEW024 06/02 Q1002=
201210091550 METAR ESMX 091550Z 32011KT 9999 SCT025 07/03 Q1002=
201210091520 METAR ESMX 091520Z 32012KT 280V350 9999 FEW013 SCT020 OVC035 08/03 Q1001=
201210091450 METAR ESMX 091450Z 33010KT 290V360 9999 -RASH FEW010 SCT016 BKN019 07/05 Q1001=
201210091420 METAR ESMX 091420Z 32011KT 9999 -RASH FEW017 SCT025 BKN032 08/04 Q1000=
201210091350 METAR ESMX 091350Z 33014KT 9999 FEW016 SCT022 BKN030 08/04 Q0999=
201210091320 METAR ESMX 091320Z 33013KT 9999 FEW019 SCT025 BKN045 08/04 Q0998=
201210091250 METAR ESMX 091250Z 34011KT 310V020 9999 FEW011 SCT018 BKN025 07/05 Q0998=
201210091220 METAR ESMX 091220Z 31011KT 270V330 8000 -RASH FEW011 SCT014 BKN016 07/05 Q0997=
201210091150 METAR ESMX 091150Z 31010KT 280V350 9999 FEW014 OVC017 07/04 Q0996=
201210091120 METAR ESMX 091120Z 33010KT 290V360 9999 FEW022 SCT026 OVC030 07/03 Q0996=
201210091050 METAR ESMX 091050Z 33009KT 9999 FEW015 SCT018 BKN020 06/04 Q0995=
201210091020 METAR ESMX 091020Z 32008KT 280V340 9999 FEW015 SCT020 OVC023 06/03 Q0995=
201210090950 METAR ESMX 090950Z 33009KT 9999 FEW013 BKN019 06/04 Q0994=
201210090920 METAR ESMX 090920Z 30007KT 9999 FEW009 BKN011 06/04 Q0994=
201210090850 METAR ESMX 090850Z 27007KT 250V310 9999 FEW009 SCT011 BKN014 06/04 Q0993 REDZ=
201210090820 METAR ESMX 090820Z 23006KT 8000 -DZ FEW011 SCT015 BKN018 06/04 Q0993=
201210090750 METAR ESMX 090750Z 24006KT 210V270 9999 FEW015 05/04 Q0993=
201210090720 METAR ESMX 090720Z 21006KT 9999 FEW033 05/03 Q0993=
201210090650 METAR ESMX 090650Z 23006KT 9999 FEW040 04/03 Q0993=
201210090620 METAR ESMX 090620Z 23007KT 9999 FEW040 03/02 Q0993=
201210090550 METAR ESMX 090550Z 22007KT 9999 FEW040 04/03 Q0993=
201210090520 METAR ESMX 090520Z 22007KT 9999 FEW028 SCT038 04/03 Q0993=
201210090450 METAR ESMX 090450Z 25011G21KT 230V290 9999 FEW021 BKN034 04/02 Q0993=
201210090420 METAR ESMX 090420Z 24007KT 210V280 9000 -RA FEW010 BKN020 04/03 Q0994=
201210090350 METAR ESMX 090350Z 21006KT 180V240 9000 -RA SCT010 BKN025 04/03 Q0994=
201210090320 METAR ESMX 090320Z AUTO 23007KT 9999NDV FEW021/// SCT026/// 04/03 Q0994=
201210090250 METAR ESMX 090250Z AUTO 21007KT 9999NDV FEW048/// 04/02 Q0995=
201210090220 METAR ESMX 090220Z AUTO 22008KT 9999NDV FEW019/// BKN081/// 04/03 Q0995=
201210090150 METAR ESMX 090150Z AUTO 22008KT 9999NDV FEW018/// 04/03 Q0996=
201210090120 METAR ESMX 090120Z AUTO 25012KT 230V290 9999NDV -RA FEW016/// SCT025/// 05/04 Q0997=
201210090050 METAR ESMX 090050Z AUTO 22006KT 180V250 9999NDV FEW008/// BKN066/// 06/05 Q0997 RESHRA=
201210090020 METAR ESMX 090020Z AUTO 24007KT 200V280 7000NDV RA FEW010/// SCT020/// BKN027/// 06/05 Q0997=
201210082350 METAR ESMX 082350Z 21008KT 8000 -RA BKN009 BKN021 07/06 Q0998=
201210082320 METAR ESMX 082320Z 21011KT 170V230 9999 -RA SCT010 BKN015 07/06 Q0998=
201210082250 METAR ESMX 082250Z 19012KT 150V210 9999 SCT013 BKN035 07/05 Q0999=
201210082220 METAR ESMX 082220Z 19010KT 9999 FEW015 SCT020 BKN031 08/05 Q1000=
201210082150 METAR ESMX 082150Z 19009KT 9999 FEW030 BKN040 07/05 Q1001=
201210082120 METAR ESMX 082120Z 21009KT 9999 FEW026 BKN044 08/05 Q1002=
201210082050 METAR ESMX 082050Z 19008KT 9999 FEW026 SCT039 BKN054 08/05 Q1002=
201210082020 METAR ESMX 082020Z 20007KT 9999 FEW045 BKN056 08/05 Q1003=
201210081950 METAR ESMX 081950Z 23009KT 9999 FEW027 BKN063 08/05 Q1003=
201210081920 METAR ESMX 081920Z 22009KT 9999 FEW045 SCT052 08/05 Q1004=
201210081850 METAR ESMX 081850Z 24007KT 210V270 9999 FEW026 08/05 Q1004=
201210081820 METAR ESMX 081820Z 23007KT 9999 FEW021 SCT040 09/06 Q1005=
201210081750 METAR ESMX 081750Z 26009KT 210V290 9999 SCT024 09/05 Q1005=
201210081720 METAR ESMX 081720Z 27009KT 9999 SCT024 BKN114 09/05 Q1005=
201210081650 METAR ESMX 081650Z 26007KT 230V290 9999 FEW018 SCT025 BKN029 09/07 Q1006 RERA=
201210081620 METAR ESMX 081620Z 26008KT 230V300 9999 -RA FEW022 BKN036 10/06 Q1006=
201210081550 METAR ESMX 081550Z 27009KT 240V310 9999 FEW024 10/06 Q1006=
201210081520 METAR ESMX 081520Z 27008KT 230V310 9999 FEW040 10/05 Q1006=
201210081450 METAR ESMX 081450Z 25008KT 200V300 9999 FEW037 SCT055 11/04 Q1006=
201210081420 METAR ESMX 081420Z 27012KT 230V320 9999 FEW038 12/04 Q1006=
201210081350 METAR ESMX 081350Z 28011KT 240V320 9999 FEW048 12/04 Q1007=
201210081320 METAR ESMX 081320Z 27011KT 230V300 9999 FEW039 12/04 Q1007=
201210081250 METAR ESMX 081250Z 27016KT 9999 FEW040 12/03 Q1007=
201210081220 METAR ESMX 081220Z 27010KT 240V320 9999 FEW037 BKN042 11/04 Q1008=
201210081150 METAR ESMX 081150Z 27010KT 250V310 9999 SCT036 11/04 Q1008=
201210081120 METAR ESMX 081120Z 27011KT 230V300 9999 SCT032 12/04 Q1008=
201210081050 METAR ESMX 081050Z 28010KT 250V320 9999 SCT032 12/04 Q1008=
201210081020 METAR ESMX 081020Z 26009KT 230V310 9999 FEW033 12/04 Q1008=
201210080950 METAR ESMX 080950Z 29011KT 250V320 CAVOK 12/04 Q1008=
201210080920 METAR ESMX 080920Z 29010KT 260V320 CAVOK 11/05 Q1008=
201210080850 METAR ESMX 080850Z 28010KT 250V320 CAVOK 11/05 Q1008=
201210080820 METAR ESMX 080820Z 27008KT 220V310 CAVOK 10/05 Q1008=
201210080750 METAR ESMX 080750Z 28007KT 240V310 CAVOK 09/05 Q1008=
201210080720 METAR ESMX 080720Z 27007KT CAVOK 08/05 Q1008=
201210080650 METAR ESMX 080650Z 26007KT CAVOK 07/05 Q1007=
201210080620 METAR ESMX 080620Z 25007KT CAVOK 07/05 Q1007=
201210080550 METAR ESMX 080550Z 26006KT CAVOK 07/05 Q1007=
201210080520 METAR ESMX 080520Z 27006KT CAVOK 07/05 Q1007=
201210080450 METAR ESMX 080450Z 26005KT CAVOK 06/04 Q1006=
201210080420 METAR ESMX 080420Z 27004KT CAVOK 07/05 Q1006=
201210080350 METAR ESMX 080350Z 27006KT CAVOK 07/05 Q1006=
201210080320 METAR ESMX 080320Z AUTO 26006KT 9999NDV NCD 07/05 Q1006=
201210080250 METAR ESMX 080250Z AUTO 27008KT 240V300 9999NDV NCD 07/05 Q1006=
201210080220 METAR ESMX 080220Z AUTO 27008KT 240V300 9999NDV NCD 08/06 Q1006=
201210080150 METAR ESMX 080150Z AUTO 28007KT 9999NDV SCT078/// 08/06 Q1006=
201210080120 METAR ESMX 080120Z AUTO 27009KT 9999NDV BKN078/// 08/06 Q1005=
201210080050 METAR ESMX 080050Z AUTO 27008KT 230V290 9999NDV BKN092/// 08/06 Q1005=
201210080020 METAR ESMX 080020Z AUTO 27009KT 9999NDV BKN094/// 08/06 Q1005=
201210072350 METAR ESMX 072350Z AUTO 26008KT 9999NDV FEW090/// BKN100/// 08/06 Q1005=
201210072320 METAR ESMX 072320Z AUTO 27008KT 230V290 9999NDV BKN100/// 08/06 Q1005=
201210072250 METAR ESMX 072250Z 27008KT CAVOK 07/06 Q1005=
201210072220 METAR ESMX 072220Z 27008KT CAVOK 07/06 Q1004=
201210072150 METAR ESMX 072150Z 26007KT CAVOK 07/06 Q1004=
201210072120 METAR ESMX 072120Z 26007KT CAVOK 07/06 Q1004=
201210072050 METAR ESMX 072050Z 25007KT CAVOK 07/06 Q1004=
201210072020 METAR ESMX 072020Z 25007KT CAVOK 07/06 Q1004=
201210071950 METAR ESMX 071950Z 24006KT CAVOK 07/05 Q1004=
201210071920 METAR ESMX 071920Z 23006KT 9999 FEW015 07/05 Q1004=
201210071850 METAR ESMX 071850Z 23007KT 9999 FEW015 07/06 Q1004=
201210071820 METAR ESMX 071820Z 25007KT 220V280 9999 SCT015 08/06 Q1004=
201210071750 METAR ESMX 071750Z 25007KT 230V290 9999 SCT015 08/06 Q1004=
201210071720 METAR ESMX 071720Z 25007KT 210V280 9999 FEW015 08/06 Q1003=
201210071650 METAR ESMX 071650Z 25007KT 9999 FEW018 08/06 Q1003=
201210071620 METAR ESMX 071620Z 25008KT 220V300 9999 SCT018 09/06 Q1003=
201210071550 METAR ESMX 071550Z 24009KT 190V270 9999 FEW040 10/06 Q1002=
201210071520 METAR ESMX 071520Z 25009KT 210V290 9999 FEW019 10/07 Q1002=
201210071450 METAR ESMX 071450Z 24009KT 210V270 9999 FEW015 10/07 Q1002=
201210071420 METAR ESMX 071420Z 24009KT 210V270 9999 SCT018 10/07 Q1002=
201210071350 METAR ESMX 071350Z 24010KT 200V280 9999 SCT025 10/07 Q1002=
201210071320 METAR ESMX 071320Z 26010KT 9999 FEW018 SCT030 11/07 Q1002=
201210071250 METAR ESMX 071250Z 24012KT 170V290 9999 -RASH FEW019 SCT039 BKN054 10/07 Q1002=
201210071220 METAR ESMX 071220Z 23011KT 200V270 9999 VCSH FEW024 SCT043 11/07 Q1002=
201210071150 METAR ESMX 071150Z 25012G22KT 220V280 9999 -RASH FEW020 SCT026 BKN048 10/06 Q1002=
201210071120 METAR ESMX 071120Z 26011KT 220V290 9999 -RASH FEW017 SCT028 BKN043 11/08 Q1002=
201210071050 METAR ESMX 071050Z 25008KT 210V290 9999 FEW018 BKN044 10/07 Q1002=
201210071020 METAR ESMX 071020Z 26008KT 230V300 9999 FEW017 SCT027 BKN046 10/07 Q1002 RERA=
201210070950 METAR ESMX 070950Z 26011KT 9999 FEW016 SCT025 BKN039 11/07 Q1002=
201210070920 METAR ESMX 070920Z 26010KT 9999 FEW012 SCT017 BKN020 10/07 Q1002=
201210070850 METAR ESMX 070850Z 25008KT 150V290 9999 FEW011 SCT016 BKN019 09/07 Q1002=
201210070820 METAR ESMX 070820Z 25008KT 220V290 9000 -RA FEW008 SCT012 BKN017 09/07 Q1002=
201210070750 METAR ESMX 070750Z 22008KT 190V250 9999 FEW008 SCT010 BKN013 08/07 Q1002=
201210070720 METAR ESMX 070720Z 23009KT 200V260 9999 FEW009 BKN013 BKN019 08/06 Q1002=
201210070650 METAR ESMX 070650Z AUTO 21008KT 9999NDV FEW014/// BKN016/// 07/06 Q1002=
201210070620 METAR ESMX 070620Z AUTO 23009KT 9999NDV FEW019/// 06/05 Q1002=
201210070550 METAR ESMX 070550Z AUTO 23007KT 9999NDV FEW021/// 06/05 Q1002=
201210070520 METAR ESMX 070520Z AUTO 22007KT 9999NDV FEW028/// 06/05 Q1002=
201210070450 METAR ESMX 070450Z AUTO 22008KT 9999NDV FEW024/// 06/05 Q1002=
201210070420 METAR ESMX 070420Z AUTO 23010KT 200V260 9999NDV FEW016/// SCT040/// 06/06 Q1002 REDZ=
201210070350 METAR ESMX 070350Z AUTO 21007KT 9999NDV NCD 06/05 Q1002=
201210070320 METAR ESMX 070320Z AUTO 23006KT 9999NDV FEW021/// 06/05 Q1002=
201210070250 METAR ESMX 070250Z AUTO 24008KT 9999NDV FEW039/// BKN045/// 07/06 Q1002=
201210070220 METAR ESMX 070220Z AUTO 21008KT 9999NDV FEW005/// SCT038/// BKN047/// 07/06 Q1003 REDZ=
201210070150 METAR ESMX 070150Z AUTO 21006KT 9999NDV FEW015/// SCT023/// BKN028/// 07/06 Q1003=
201210070120 METAR ESMX 070120Z AUTO 20006KT 9999NDV FEW006/// SCT044/// 06/05 Q1003=
201210070050 METAR ESMX 070050Z AUTO 21006KT 9999NDV NCD 06/05 Q1003=
201210070020 METAR ESMX 070020Z AUTO 21007KT 9999NDV NCD 06/05 Q1003=
201210062350 METAR ESMX 062350Z AUTO 23006KT 9999NDV NCD 06/05 Q1003=
201210062320 METAR ESMX 062320Z AUTO 23008KT 9999NDV NCD 06/05 Q1003=
201210062250 METAR ESMX 062250Z AUTO 23007KT 9999NDV NCD 06/05 Q1003=
201210062220 METAR ESMX 062220Z AUTO 22007KT 9999NDV NCD 06/05 Q1003=
201210062150 METAR ESMX 062150Z AUTO 23006KT 9999NDV NCD 06/05 Q1003=
201210062120 METAR ESMX 062120Z AUTO 23006KT 9999NDV NCD 06/05 Q1003=
201210062050 METAR ESMX 062050Z AUTO 25007KT 9999NDV NCD 07/06 Q1003=
201210062020 METAR ESMX 062020Z AUTO 24006KT 9999NDV NCD 07/06 Q1003=
201210061950 METAR ESMX 061950Z AUTO 24006KT 9999NDV FEW022/// 07/06 Q1003=
201210061920 METAR ESMX 061920Z AUTO 23006KT 200V270 9999NDV NCD 07/06 Q1003=
201210061850 METAR ESMX 061850Z 26005KT 230V290 9999 FEW015 07/05 Q1002=
201210061820 METAR ESMX 061820Z 26005KT 9999 FEW015 07/06 Q1002=
201210061750 METAR ESMX 061750Z 25007KT 9999 FEW015 07/06 Q1002=
201210061720 METAR ESMX 061720Z 26007KT 9999 FEW015 08/06 Q1002=
201210061650 METAR ESMX 061650Z 25006KT 9999 FEW015 08/06 Q1002=
201210061620 METAR ESMX 061620Z 25006KT 210V280 9999 FEW015CB SCT030 08/07 Q1001=
201210061550 METAR ESMX 061550Z AUTO 26006KT 220V290 9999NDV -RA FEW029/// SCT045/// 09/06 Q1001=
201210061520 METAR ESMX 061520Z AUTO 25007KT 220V280 9999NDV FEW050/// 10/06 Q1001=
201210061450 METAR ESMX 061450Z AUTO 25006KT 9999NDV NCD 10/06 Q1001=
201210061420 METAR ESMX 061420Z AUTO 26006KT 230V300 9999NDV NCD 10/06 Q1001=
201210061350 METAR ESMX 061350Z AUTO 26005KT 230V290 9999NDV NCD 10/05 Q1001=
201210061320 METAR ESMX 061320Z AUTO 27005KT 230V310 9999NDV NCD 10/06 Q1001=
201210061250 METAR ESMX 061250Z AUTO 29007KT 250V330 9999NDV FEW018/// SCT026/// 10/06 Q1001=
201210061220 METAR ESMX 061220Z AUTO 28006G41KT 240V310 9999NDV FEW025/// 10/05 Q1001=
201210061150 METAR ESMX 061150Z AUTO 24004KT 210V270 9999NDV FEW068/// 10/06 Q1001=
201210061120 METAR ESMX 061120Z AUTO 27004KT 240V300 9999NDV NCD 09/06 Q1002=
201210061050 METAR ESMX 061050Z AUTO 29003KT 9999NDV FEW012/// 09/06 Q1002=
201210061020 METAR ESMX 061020Z AUTO 26004KT 9999NDV FEW009/// 09/06 Q1002=
201210060950 METAR ESMX 060950Z 23003KT 9999 SCT006 BKN030 08/06 Q1002=
201210060920 METAR ESMX 060920Z 26004KT 9999 FEW004 SCT006 BKN030 07/07 Q1002=
201210060850 METAR ESMX 060850Z 24004KT 9999 FEW004 SCT006 BKN030 08/07 Q1002=
201210060820 METAR ESMX 060820Z 27003KT 230V300 9999 BCFG SCT002 BKN003 07/06 Q1002=
201210060750 METAR ESMX 060750Z 27003KT 5000 BCFG BKN002 07/06 Q1002=
201210060720 METAR ESMX 060720Z 26002KT 9999 BKN003 06/06 Q1002=
201210060650 METAR ESMX 060650Z AUTO 24001KT 9000NDV FEW001/// BKN025/// 06/05 Q1002=
201210060620 METAR ESMX 060620Z AUTO 21003KT 0750NDV R01/0900V1600U R19/0900VP2000U FG SCT000/// OVC026/// 06/05 Q1002=
201210060550 METAR ESMX 060550Z AUTO 23005KT 0200NDV R01/0500 R19/0500N FG VV000 06/05 Q1002=
201210060520 METAR ESMX 060520Z AUTO 24002KT 0100NDV R01/0275 R19/0275V0400N FG VV000 05/04 Q1001=
201210060450 METAR ESMX 060450Z AUTO 00000KT 0250NDV R01/0800N R19/1200D FG VV001 05/05 Q1001=
201210060420 METAR ESMX 060420Z AUTO 25001KT 0350NDV R01/1400N R19/1100N FG VV001 05/05 Q1002=
201210060350 METAR ESMX 060350Z AUTO 27002KT 0400NDV R01/1200V1800D R19/1000V1700D FG VV001 05/05 Q1001=
201210060320 METAR ESMX 060320Z AUTO 25003KT 1900NDV BR VV001 05/04 Q1001=
201210060250 METAR ESMX 060250Z AUTO 26003KT 4100NDV BR OVC001/// 06/05 Q1001=
201210060220 METAR ESMX 060220Z AUTO 28004KT 240V320 2800NDV BR VV002 06/06 Q1001=
201210060150 METAR ESMX 060150Z AUTO 23004KT 7000NDV BR OVC001/// 06/05 Q1000=
201210060120 METAR ESMX 060120Z AUTO 00000KT 9999NDV BKN002/// OVC004/// 06/05 Q1000=
201210060050 METAR ESMX 060050Z AUTO 22003KT 9999NDV SCT004/// BKN028/// 06/05 Q1000 REDZ=
201210060020 METAR ESMX 060020Z AUTO 25002KT 9999NDV -DZ FEW004/// OVC027/// 06/05 Q1000=
201210052350 METAR ESMX 052350Z AUTO 26002G23KT 9999NDV -RA FEW004/// BKN028/// 06/06 Q0999=
201210052320 METAR ESMX 052320Z AUTO 26002KT 9999NDV -RA SCT029/// 06/06 Q0999 REDZ=
201210052250 METAR ESMX 052250Z AUTO 25005KT 9999NDV DZ SCT031/// 06/06 Q0999=
201210052220 METAR ESMX 052220Z AUTO 26006KT 9999NDV DZ FEW032/// BKN037/// 07/06 Q0998=
201210052150 METAR ESMX 052150Z AUTO 28004KT 240V300 9999NDV DZ FEW010/// SCT019/// BKN021/// 07/06 Q0998=
201210052120 METAR ESMX 052120Z AUTO 32004KT 300V020 9999NDV -RA SCT005/// BKN009/// OVC013/// 07/06 Q0998 REDZ=
201210052050 METAR ESMX 052050Z AUTO 27005KT 9999NDV -RA FEW003/// SCT006/// BKN008/// 07/06 Q0997=
201210052020 METAR ESMX 052020Z AUTO 29003KT 250V320 7000NDV -RA FEW010/// SCT014/// OVC017/// 07/06 Q0997 REDZ=
201210051950 METAR ESMX 051950Z AUTO 30005KT 8000NDV DZ FEW003/// SCT005/// BKN008/// 07/06 Q0997=
201210051920 METAR ESMX 051920Z AUTO 27005KT 9999NDV -RA FEW007/// SCT014/// BKN022/// 07/06 Q0996=
201210051850 METAR ESMX 051850Z 25002KT 8000 -RA FEW003 SCT005 BKN009 07/07 Q0996=
201210051820 METAR ESMX 051820Z 25002KT 9000 -RA SCT005 BKN008 07/07 Q0996=
201210051750 METAR ESMX 051750Z 15004KT 9000 -RA SCT007 BKN012 08/07 Q0997=
201210051720 METAR ESMX 051720Z 05003KT 8000 -RA SCT004 BKN020 08/07 Q0997=
201210051650 METAR ESMX 051650Z 07001KT 6000 RA BKN004 BKN020 08/07 Q0997=
201210051620 METAR ESMX 051620Z 12002KT 9000 -RA SCT005 BKN020 08/07 Q0998=
201210051550 METAR ESMX 051550Z VRB02KT 9000 -RA FEW005 SCT015 BKN025 08/07 Q0998=
201210051520 METAR ESMX 051520Z 15003KT 100V170 9999 DZ SCT015 BKN035 08/07 Q0998=
201210051450 METAR ESMX 051450Z 17005KT 130V200 9999 -RA FEW017 SCT028 BKN034 08/06 Q0999 REDZ=
201210051420 METAR ESMX 051420Z 17006KT 140V200 9999 DZ SCT022 BKN047 10/06 Q1000=
201210051350 METAR ESMX 051350Z 17005KT 140V200 9999 SCT020 BKN050 11/06 Q1000=
201210051320 METAR ESMX 051320Z 18006KT 9999 SCT025 BKN050 11/06 Q1001=
201210051250 METAR ESMX 051250Z 19006KT 150V210 9999 SCT020 BKN050 11/06 Q1001=
201210051220 METAR ESMX 051220Z 20008KT 150V220 9999 SCT020 BKN045 11/06 Q1002=
201210051150 METAR ESMX 051150Z 19005KT 140V240 9999 FEW022 SCT047 11/07 Q1002=
201210051120 METAR ESMX 051120Z 20008KT 9999 SCT020 11/06 Q1003=
201210051050 METAR ESMX 051050Z 21009KT 170V240 9999 FEW015 SCT025 BKN040 10/07 Q1003=
201210051020 METAR ESMX 051020Z 20010KT 170V230 9999 FEW015 SCT027 BKN051 10/07 Q1004=
201210050950 METAR ESMX 050950Z 22012KT 190V250 9999 SCT018 10/07 Q1004=
201210050920 METAR ESMX 050920Z 22010KT 180V250 9999 SCT017 10/07 Q1004=
201210050850 METAR ESMX 050850Z 24009KT 9999 SCT013 10/07 Q1004=
201210050820 METAR ESMX 050820Z 24007KT 200V280 9999 SCT010 09/07 Q1005=
201210050750 METAR ESMX 050750Z 22006KT 190V260 9999 SCT008 08/07 Q1005=
201210050720 METAR ESMX 050720Z 23006KT 9999 SCT006 08/07 Q1005=
201210050650 METAR ESMX 050650Z 21006KT 9999 FEW007 07/06 Q1004=
201210050620 METAR ESMX 050620Z 21006KT 9999 FEW020 06/05 Q1004=
201210050550 METAR ESMX 050550Z 22006KT 9999 FEW018 05/05 Q1004=
201210050520 METAR ESMX 050520Z 23006KT 9999 FEW006 05/04 Q1004=
201210050450 METAR ESMX 050450Z 23006KT 9999 FEW005 05/04 Q1004=
201210050420 METAR ESMX 050420Z 23005KT CAVOK 05/04 Q1004=
201210050350 METAR ESMX 050350Z 23005KT 9999 SCT016 05/05 Q1004=
201210050320 METAR ESMX 050320Z AUTO 23005KT 9999NDV FEW003/// 05/04 Q1004=
201210050250 METAR ESMX 050250Z AUTO 23005KT 9999NDV NCD 05/04 Q1004=
201210050220 METAR ESMX 050220Z AUTO 24004KT 210V270 9999NDV NCD 06/05 Q1004=
201210050150 METAR ESMX 050150Z AUTO 25005KT 9999NDV NCD 06/05 Q1003=
201210050120 METAR ESMX 050120Z AUTO 26007KT 220V290 9999NDV NCD 06/06 Q1003=
201210050050 METAR ESMX 050050Z AUTO 26007KT 9999NDV NCD 06/05 Q1003=
201210050020 METAR ESMX 050020Z 26007KT 9999 BKN004 06/06 Q1003=
201210042350 METAR ESMX 042350Z 27005KT 9999 OVC002 07/06 Q1003=
201210042320 METAR ESMX 042320Z 28006KT 9999 BKN003 07/06 Q1002=
201210042250 METAR ESMX 042250Z 26004KT 9999 SCT003 06/06 Q1002=
201210042220 METAR ESMX 042220Z 26004KT CAVOK 07/06 Q1002=
201210042150 METAR ESMX 042150Z 26004KT CAVOK 07/06 Q1002=
201210042120 METAR ESMX 042120Z 26005KT 9999 FEW008 07/06 Q1002=
201210042050 METAR ESMX 042050Z 28004KT 9999 FEW033 08/07 Q1001=
201210042020 METAR ESMX 042020Z 28004KT 250V310 9999 FEW031 SCT047 08/07 Q1001=
201210041950 METAR ESMX 041950Z 28003KT CAVOK 08/07 Q1001=
201210041920 METAR ESMX 041920Z 29003KT CAVOK 08/07 Q1001=
201210041850 METAR ESMX 041850Z 28003KT CAVOK 08/07 Q1001=
201210041820 METAR ESMX 041820Z 27003KT CAVOK 08/08 Q1001=
201210041750 METAR ESMX 041750Z 26002KT CAVOK 08/07 Q1001=
201210041720 METAR ESMX 041720Z 24001KT 9999 FEW015 BKN100 09/08 Q1000=
201210041650 METAR ESMX 041650Z 23002KT 9999 FEW015 BKN100 09/08 Q1000=
201210041620 METAR ESMX 041620Z 20002KT CAVOK 09/08 Q1000=
201210041550 METAR ESMX 041550Z 19001KT CAVOK 10/08 Q1000=
201210041520 METAR ESMX 041520Z 20001KT CAVOK 10/09 Q1000=
201210041450 METAR ESMX 041450Z 21002KT 9999 FEW010 BKN100 10/09 Q1001=
201210041420 METAR ESMX 041420Z 20003KT 9999 FEW010 BKN100 11/09 Q1001=
201210041350 METAR ESMX 041350Z VRB03KT 9999 FEW011 BKN050 11/09 Q1001=
201210041320 METAR ESMX 041320Z 20006KT 9999 FEW010 BKN028 11/08 Q1001=
201210041250 METAR ESMX 041250Z 17003KT 130V220 9999 FEW009 BKN052 11/09 Q1001=
201210041220 METAR ESMX 041220Z 19004KT 9999 FEW010 BKN055 11/09 Q1001=
201210041150 METAR ESMX 041150Z 21005KT 170V240 9999 FEW009 SCT020 BKN027 11/09 Q1002=
201210041120 METAR ESMX 041120Z 20007KT 9999 FEW008 SCT012 BKN019 11/09 Q1002=
201210041050 METAR ESMX 041050Z 19006KT 9999 FEW010 SCT018 BKN025 11/09 Q1002=
201210041020 METAR ESMX 041020Z 20007KT 160V230 9999 FEW007 OVC010 10/09 Q1002=
201210040950 METAR ESMX 040950Z 20006KT 9999 FEW006 BKN010 10/09 Q1002=
201210040920 METAR ESMX 040920Z 20007KT 9999 FEW006 BKN007 10/09 Q1002=
201210040850 METAR ESMX 040850Z 19005KT 150V210 9999 FEW005 BKN009 10/09 Q1003=
201210040820 METAR ESMX 040820Z 18004KT 140V200 9999 FEW005 BKN034 09/08 Q1002=
201210040750 METAR ESMX 040750Z 16003KT 110V200 9999 FEW006 BKN048 09/08 Q1002=
201210040720 METAR ESMX 040720Z 17003KT 9999 FEW028 SCT035 BKN048 09/08 Q1002=
201210040650 METAR ESMX 040650Z 17003KT 140V210 9999 FEW014 SCT026 BKN034 09/08 Q1002=
201210040620 METAR ESMX 040620Z 17003KT 140V200 9999 -DZ FEW024 BKN035 09/08 Q1003=
201210040550 METAR ESMX 040550Z 21003KT 9999 -RA BKN035 09/08 Q1002=
201210040520 METAR ESMX 040520Z VRB02KT 9999 BKN040 09/08 Q1003 RERA=
201210040450 METAR ESMX 040450Z 20004KT 9999 -RA FEW008 BKN044 09/08 Q1003=
201210040420 METAR ESMX 040420Z 22003KT 9000 -RA FEW004 BKN029 10/09 Q1003=
201210040350 METAR ESMX 040350Z 21006KT 9999 -RA FEW006 SCT011 BKN041 10/09 Q1004 RESHRA=
201210040320 METAR ESMX 040320Z 21006KT 4700 RA FEW003 SCT028 BKN033 10/09 Q1004=
201210040250 METAR ESMX 040250Z AUTO 19005KT 7000NDV DZ BKN005/// OVC008/// 10/09 Q1004=
201210040220 METAR ESMX 040220Z AUTO 20006KT 9999NDV BKN006/// OVC010/// 10/09 Q1004 REDZ=
201210040150 METAR ESMX 040150Z AUTO 18005KT 150V210 9999NDV DZ FEW005/// SCT008/// BKN010/// 10/09 Q1004=
201210040120 METAR ESMX 040120Z AUTO 17005KT 140V200 9999NDV FEW006/// SCT008/// BKN009/// 10/09 Q1004=
201210040050 METAR ESMX 040050Z AUTO 18005KT 9999NDV FEW008/// 10/09 Q1005=
201210040020 METAR ESMX 040020Z AUTO 18006KT 9999NDV NCD 10/09 Q1005=
201210032350 METAR ESMX 032350Z 19006KT 9999 SCT010 10/09 Q1005=
201210032320 METAR ESMX 032320Z 18005KT 9999 SCT009 10/09 Q1005=
201210032250 METAR ESMX 032250Z 19005KT 9999 FEW100 09/08 Q1005=
201210032220 METAR ESMX 032220Z 17005KT CAVOK 11/09 Q1005=
201210032150 METAR ESMX 032150Z 18005KT 140V210 9999 SCT041 BKN089 11/10 Q1005=
201210032120 METAR ESMX 032120Z 21006KT 190V250 9999 -RA FEW029 SCT033 BKN038 11/10 Q1005 RERA=
201210032050 METAR ESMX 032050Z 21008KT 9999 DZ SCT030 BKN064 11/10 Q1005=
201210032020 METAR ESMX 032020Z 20014KT 4200 RA FEW005 SCT012 BKN017 12/10 Q1005 REDZ=
201210031950 METAR ESMX 031950Z 17008KT 130V200 9999 FEW018 SCT032 BKN050 12/11 Q1005=
201210031920 METAR ESMX 031920Z 16009KT 120V210 9999 FEW009 SCT013 BKN017 12/11 Q1005=
201210031850 METAR ESMX 031850Z 16008KT 120V190 9999 FEW008 SCT010 BKN020 12/11 Q1005=
201210031820 METAR ESMX 031820Z 17009KT 140V210 9000 FEW008 BKN010 OVC015 12/11 Q1006=
201210031750 METAR ESMX 031750Z 16008KT 110V200 9999 FEW011 SCT017 OVC020 13/11 Q1006=
201210031720 METAR ESMX 031720Z 17008KT 9000 BR FEW012 SCT017 BKN019 13/11 Q1006=
201210031650 METAR ESMX 031650Z 18008KT 9999 -DZ FEW009 SCT013 BKN019 13/11 Q1006=
201210031620 METAR ESMX 031620Z 17009KT 9999 FEW018 BKN023 OVC067 13/11 Q1006=
201210031550 METAR ESMX 031550Z 17008KT 140V200 9999 FEW017 SCT048 BKN057 14/11 Q1006=
201210031520 METAR ESMX 031520Z 17007KT 140V200 9999 FEW015 BKN059 14/11 Q1006=
201210031450 METAR ESMX 031450Z 17009KT 150V210 9999 FEW014 14/11 Q1007=
201210031420 METAR ESMX 031420Z 17007KT 140V220 9999 FEW018 14/11 Q1007=
201210031350 METAR ESMX 031350Z 18009KT 140V230 9999 FEW014 SCT030 14/11 Q1007=
201210031320 METAR ESMX 031320Z 17009KT 120V210 9999 FEW012 BKN017 14/12 Q1008=
201210031250 METAR ESMX 031250Z 18008KT 150V220 9999 FEW011 SCT013 BKN018 14/12 Q1008=
201210031220 METAR ESMX 031220Z 16009KT 130V230 9999 FEW008 BKN010 OVC015 14/12 Q1008=
201210031150 METAR ESMX 031150Z 16007KT 120V200 9000 BR FEW007 BKN009 OVC013 13/12 Q1008=
201210031120 METAR ESMX 031120Z 16008KT 110V210 8000 BR FEW007 OVC010 13/12 Q1008=
201210031050 METAR ESMX 031050Z 17008KT 140V200 7000 BR BKN006 OVC011 13/12 Q1009=
201210031020 METAR ESMX 031020Z 17008KT 140V200 7000 BR FEW005 BKN007 13/12 Q1009=
201210030950 METAR ESMX 030950Z 17007KT 140V200 5000 BR SCT005 BKN008 13/12 Q1009=
201210030920 METAR ESMX 030920Z 17008KT 120V200 7000 BR OVC005 13/11 Q1010=
201210030850 METAR ESMX 030850Z 16008KT 100V200 7000 BR OVC005 13/11 Q1010=
201210030820 METAR ESMX 030820Z 17007KT 120V200 6000 BR FEW005 OVC007 12/12 Q1010=
201210030750 METAR ESMX 030750Z 16008KT 130V200 5000 BR SCT002 BKN004 12/12 Q1010=
201210030720 METAR ESMX 030720Z 16006KT 130V200 5000 BR OVC002 12/11 Q1010=
201210030650 METAR ESMX 030650Z 15005G15KT 110V200 3000 BR OVC002 11/11 Q1010=
201210030620 METAR ESMX 030620Z 13005KT 080V170 2200 BR OVC002 11/10 Q1010=
201210030550 METAR ESMX 030550Z 14004KT 110V170 3300 BR OVC002 11/10 Q1011=
201210030520 METAR ESMX 030520Z 15004KT 100V180 0550 R01/1100V1800U R19/1800U -RA FG VV002 10/10 Q1011=
201210030450 METAR ESMX 030450Z 14005KT 100V180 0400 R01/1300N R19/1800N FG VV002 10/09 Q1011=
201210030420 METAR ESMX 030420Z 15005KT 110V190 0600 R01/1800N R19/P2000N FG VV002 10/09 Q1012=
201210030350 METAR ESMX 030350Z 15004KT 110V190 0500 R01/1600N R19/P2000N FG VV002 10/09 Q1012=
201210030320 METAR ESMX 030320Z AUTO 16004KT 110V200 1700NDV BR BKN002/// OVC004/// 10/10 Q1012=
201210030250 METAR ESMX 030250Z AUTO 17006KT 110V200 3000NDV BR BKN002/// OVC004/// 10/10 Q1012=
201210030220 METAR ESMX 030220Z AUTO VRB02KT 2000NDV BR FEW002/// OVC003/// 10/10 Q1013=
201210030150 METAR ESMX 030150Z AUTO 18003KT 140V210 3500NDV BR OVC003/// 10/09 Q1013=
201210030120 METAR ESMX 030120Z AUTO 19005KT 3800NDV BR BKN003/// OVC006/// 10/09 Q1013=
201210030050 METAR ESMX 030050Z 17005KT 140V210 4500 BR SCT004 BKN006 OVC008 10/09 Q1013=
201210030020 METAR ESMX 030020Z 18005KT 150V220 3700 BR OVC004 11/10 Q1013=
201210022350 METAR ESMX 022350Z 21006KT 4000 BR BKN005 11/10 Q1013=
201210022320 METAR ESMX 022320Z 20006KT 4700 BR OVC005 11/10 Q1013=
201210022250 METAR ESMX 022250Z 21006KT 5000 BR OVC005 11/10 Q1013=
201210022220 METAR ESMX 022220Z 20007KT 4000 BR OVC004 11/10 Q1013=
201210022150 METAR ESMX 022150Z 21007KT 3600 BR OVC004 11/10 Q1013=
201210022120 METAR ESMX 022120Z 20005KT 170V240 4800 BR BKN005 BKN007 11/10 Q1013=
201210022050 METAR ESMX 022050Z 20008KT 170V230 5000 BR OVC005 11/10 Q1013=
201210022020 METAR ESMX 022020Z 19007KT 6000 BR OVC006 12/11 Q1013=
201210021950 METAR ESMX 021950Z 20007KT 6000 BR BKN006 OVC009 12/11 Q1013=
201210021920 METAR ESMX 021920Z 22007KT 7000 BR FEW007 OVC009 12/11 Q1013=
201210021850 METAR ESMX 021850Z 19008KT 7000 BR FEW006 SCT008 BKN014 12/11 Q1013=
201210021820 METAR ESMX 021820Z 19007KT 7000 BR SCT012 BKN040 12/11 Q1013=
201210021750 METAR ESMX 021750Z 18006KT 8000 BR SCT012 BKN050 12/11 Q1012=
201210021720 METAR ESMX 021720Z 17006KT 140V200 8000 BR FEW015 BKN060 12/11 Q1012=
201210021650 METAR ESMX 021650Z 17005KT 150V210 5000 BR SCT011 12/11 Q1012=
201210021620 METAR ESMX 021620Z 17004KT 9999 FEW011 12/11 Q1012=
201210021550 METAR ESMX 021550Z 18006KT 9999 FEW013 SCT051 12/11 Q1012=
201210021520 METAR ESMX 021520Z 19007KT 9999 FEW008 SCT057 13/11 Q1012=
201210021450 METAR ESMX 021450Z 19008KT 9999 SCT007 BKN048 13/12 Q1012=
201210021420 METAR ESMX 021420Z 20008KT 9999 SCT006 BKN030 13/12 Q1011=
201210021350 METAR ESMX 021350Z 20007KT 170V230 9000 BR FEW005 BKN011 13/12 Q1011=
201210021320 METAR ESMX 021320Z 22006KT 7000 4000S BR FEW003 OVC008 13/12 Q1011=
201210021250 METAR ESMX 021250Z 21006KT 180V240 2200 DZ OVC004 13/12 Q1011=
201210021220 METAR ESMX 021220Z 21007KT 180V240 3000 BR FEW003 OVC004 13/12 Q1011=
201210021150 METAR ESMX 021150Z 21008KT 9000 BR BKN004 OVC006 13/12 Q1011=
201210021120 METAR ESMX 021120Z 22007KT 190V250 9000 BR OVC006 13/12 Q1011=
201210021050 METAR ESMX 021050Z 20008KT 8000 BR OVC005 13/12 Q1011=
201210021020 METAR ESMX 021020Z 19009KT 6000 -DZ FEW005 BKN006 OVC009 13/12 Q1011=
201210020950 METAR ESMX 020950Z 19008KT 4500 -RA FEW007 SCT009 BKN010 13/11 Q1011=
201210020920 METAR ESMX 020920Z 19008KT 6000 DZ OVC009 13/11 Q1011=
201210020850 METAR ESMX 020850Z 18008KT 140V200 9999 BR OVC010 13/11 Q1011=
201210020820 METAR ESMX 020820Z 18008KT 9999 BR SCT012 BKN025 13/10 Q1011=
201210020750 METAR ESMX 020750Z 19008KT 150V210 9000 BR BKN012 OVC018 12/10 Q1011=
201210020720 METAR ESMX 020720Z 18008KT 9000 BR OVC018 12/10 Q1011=
201210020650 METAR ESMX 020650Z 17007KT 140V220 9000 BR FEW017 OVC020 12/10 Q1011=
201210020620 METAR ESMX 020620Z 17006KT 9000 BR BKN024 11/10 Q1010=
201210020550 METAR ESMX 020550Z 16007KT 130V200 9999 BR FEW011 BKN027 11/10 Q1010=
201210020520 METAR ESMX 020520Z 16005KT 120V190 8000 BR OVC011 11/09 Q1010=
201210020420 METAR ESMX 020420Z 17006KT 8000 -RA FEW011 BKN058 BKN089 11/09 Q1010=
201210020350 METAR ESMX 020350Z 17005KT 8000 BR FEW012 BKN022 BKN035 11/10 Q1011=
201210020320 METAR ESMX 020320Z AUTO 16006KT 110V190 8000NDV BR FEW012/// BKN018/// OVC020/// 11/10 Q1011=
201210020250 METAR ESMX 020250Z AUTO 16006KT 140V200 8000NDV BR FEW005/// BKN013/// OVC017/// 11/10 Q1011=
201210020220 METAR ESMX 020220Z AUTO 17005KT 8000NDV BR FEW005/// SCT009/// BKN020/// 11/10 Q1011=
201210020150 METAR ESMX 020150Z AUTO 17006KT 8000NDV BR BKN005/// OVC007/// 11/10 Q1011=
201210020120 METAR ESMX 020120Z AUTO 16006KT 7000NDV BR FEW004/// SCT007/// BKN009/// 11/10 Q1011=
201210020050 METAR ESMX 020050Z AUTO 17005KT 140V200 7000NDV BR FEW006/// SCT007/// BKN009/// 11/10 Q1012=
201210020020 METAR ESMX 020020Z AUTO 17005KT 150V210 5000NDV BR SCT006/// OVC009/// 11/10 Q1012=
201210012350 METAR ESMX 012350Z 16005KT 6000 BR FEW008 SCT010 BKN013 11/10 Q1012=
201210012320 METAR ESMX 012320Z 17004KT 9000 BR BKN010 OVC020 11/09 Q1012=
201210012250 METAR ESMX 012250Z 17005KT 140V200 6000 BR FEW007 SCT018 BKN020 11/09 Q1012 REDZ=
201210012220 METAR ESMX 012220Z 18006KT 9999 BKN010 OVC018 11/09 Q1012=
201210012150 METAR ESMX 012150Z 18007KT 9000 FEW009 BKN011 BKN020 11/09 Q1012=
201210012120 METAR ESMX 012120Z 19006KT 9999 OVC010 11/09 Q1012=
201210012050 METAR ESMX 012050Z 18006KT 9999 OVC011 11/09 Q1013=
201210012020 METAR ESMX 012020Z 17006KT 9999 OVC013 11/09 Q1013=
201210011950 METAR ESMX 011950Z 17006KT 9999 BKN014 OVC023 11/09 Q1012=
201210011920 METAR ESMX 011920Z 16005KT 120V190 9999 OVC017 12/09 Q1013=
201210011850 METAR ESMX 011850Z 17006KT 140V200 9999 OVC018 12/09 Q1013=
201210011820 METAR ESMX 011820Z 17005KT 9999 OVC020 12/09 Q1012=
201210011750 METAR ESMX 011750Z 17006KT 9999 BKN025 12/09 Q1012=
201210011720 METAR ESMX 011720Z 17006KT 140V200 9999 SCT026 BKN043 12/09 Q1012=
201210011650 METAR ESMX 011650Z 16007KT 120V190 9999 OVC030 13/09 Q1012=
201210011620 METAR ESMX 011620Z 17007KT 140V200 9999 SCT038 13/09 Q1012=
201210011550 METAR ESMX 011550Z 17005KT CAVOK 14/08 Q1012=
201210011520 METAR ESMX 011520Z 17006KT 130V190 CAVOK 14/08 Q1012=
201210011450 METAR ESMX 011450Z 20009KT CAVOK 14/09 Q1013=
201210011420 METAR ESMX 011420Z 17004KT 140V200 CAVOK 15/11 Q1013=
201210011350 METAR ESMX 011350Z 19007KT 9999 FEW035 SCT075 14/11 Q1013=
201210011320 METAR ESMX 011320Z 18006KT 120V210 9999 BKN035 14/11 Q1013=
201210011250 METAR ESMX 011250Z 19008KT 160V220 9999 SCT026 OVC035 14/11 Q1013=
201210011220 METAR ESMX 011220Z 19008KT 150V230 9999 SCT019 OVC024 13/11 Q1013=
