##########################################################
# Query made at 04/19/2024 21:29:18 UTC
# Time interval: from 08/01/2012 12:00  to 08/31/2012 12:59  UTC
##########################################################

##########################################################
# ESMX, Vaxjo (Sweden)
# WMO index: 02641. WIGOS ID: 0-20000-0-02648
# Latitude 56-51N. Longitude 014-50E. Altitude 199 m.
##########################################################

201208311250 METAR ESMX 311250Z 34009KT 9999 SCT012 OVC050 15/12 Q1015=
201208311220 METAR ESMX 311220Z 34008KT 9999 FEW012 BKN015 BKN056 15/12 Q1015=
201208311150 METAR ESMX 311150Z 34008KT 9999 SCT010 BKN050 15/13 Q1015=
201208311120 METAR ESMX 311120Z 34008KT 9999 SCT009 OVC050 14/13 Q1015=
201208311050 METAR ESMX 311050Z 35008KT 9999 SCT009 OVC050 14/12 Q1015=
201208311020 METAR COR ESMX 311020Z 32008KT 9999 FEW010 SCT013 OVC049 14/13 Q1015=
201208310950 METAR ESMX 310950Z 33007KT 300V360 9999 FEW010 SCT014 OVC050 14/13 Q1015=
201208310920 METAR ESMX 310920Z 30006KT 260V330 9999 SCT010 OVC049 14/12 Q1014=
201208310850 METAR ESMX 310850Z 30005KT 9999 SCT007 OVC051 14/12 Q1014=
201208310820 METAR ESMX 310820Z 01005KT 9999 SCT008 BKN052 14/13 Q1014=
201208310750 METAR ESMX 310750Z 04007KT 9999 FEW006 SCT055 BKN070 14/12 Q1014=
201208310720 METAR ESMX 310720Z 01007KT 9999 FEW043 SCT065 BKN079 14/13 Q1014=
201208310650 METAR ESMX 310650Z 03006KT 9999 FEW007 SCT060 BKN080 13/12 Q1014=
201208310620 METAR ESMX 310620Z 04007KT 9999 FEW007 BKN070 13/12 Q1014=
201208310550 METAR ESMX 310550Z 03005KT 9999 -DZ FEW007 BKN065 14/13 Q1014=
201208310520 METAR ESMX 310520Z 36006KT 9999 -RA FEW006 BKN065 14/13 Q1014=
201208310450 METAR ESMX 310450Z 36007KT 9999 DZ FEW006 SCT065 BKN079 14/13 Q1014=
201208310420 METAR ESMX 310420Z 34007KT 9999 -RA BKN069 14/13 Q1014=
201208310350 METAR ESMX 310350Z 32006KT 9999 -RA FEW006 BKN070 14/13 Q1015 REDZ=
201208310320 METAR ESMX 310320Z AUTO 34007KT 9000NDV DZ FEW005/// BKN074/// 15/14 Q1015=
201208310250 METAR ESMX 310250Z AUTO 34005KT 9999NDV -RA FEW005/// SCT083/// 15/14 Q1015=
201208310220 METAR ESMX 310220Z AUTO 36004KT 330V030 9000NDV -RA FEW038/// SCT080/// 15/14 Q1015=
201208310150 METAR ESMX 310150Z AUTO 34003KT 320V020 7000NDV -RA FEW081/// 15/14 Q1015=
201208310120 METAR ESMX 310120Z AUTO 34005KT 310V010 6000NDV -RA FEW070/// 15/14 Q1015=
201208310050 METAR ESMX 310050Z AUTO 29002KT 2000NDV -RA FEW046/// 15/14 Q1015 REDZ=
201208310020 METAR ESMX 310020Z 31002KT 1800 DZ FEW002 SCT008 BKN086 15/14 Q1015 RERA=
201208302350 METAR ESMX 302350Z 28002KT 1300 R01/P2000N R19/P2000N -RA FEW002 BKN004 15/14 Q1015=
201208302320 METAR ESMX 302320Z 00000KT 1500 R01/P2000N R19/P2000N -RA FEW020 SCT025 15/14 Q1015 REDZ=
201208302250 METAR ESMX 302250Z VRB01KT 2300 DZ FEW002 SCT024 BKN034 15/15 Q1015=
201208302220 METAR ESMX 302220Z 19003KT 3300 BR FEW015 SCT018 BKN022 16/15 Q1015=
201208302150 METAR ESMX 302150Z 20002KT 5000 BR SCT003 BKN005 OVC024 16/15 Q1015=
201208302120 METAR ESMX 302120Z 15003KT 5000 BR OVC003 16/15 Q1016=
201208302050 METAR ESMX 302050Z 15004KT 8000 BR SCT004 BKN017 OVC020 16/15 Q1016=
201208302020 METAR ESMX 302020Z 16003KT 120V190 9000 BR SCT004 BKN023 OVC038 16/15 Q1016=
201208301950 METAR ESMX 301950Z 16003KT 130V190 9000 BKN005 OVC019 16/15 Q1016=
201208301920 METAR ESMX 301920Z 15003KT 120V190 9999 BKN005 OVC037 16/15 Q1016=
201208301850 METAR ESMX 301850Z 14004KT 090V200 9999 SCT005 BKN007 16/15 Q1016=
201208301820 METAR ESMX 301820Z 14004KT 9999 BKN006 OVC008 16/15 Q1016=
201208301750 METAR ESMX 301750Z 15003KT 110V190 9999 OVC006 16/15 Q1015=
201208301720 METAR ESMX 301720Z 16005KT 130V210 9999 BKN008 17/15 Q1015=
201208301650 METAR ESMX 301650Z 15006KT 110V190 9999 FEW009 SCT012 BKN039 17/15 Q1015=
201208301620 METAR ESMX 301620Z 17006KT 120V200 9999 FEW009 SCT011 BKN014 17/15 Q1015=
201208301550 METAR ESMX 301550Z 17004KT 120V200 9999 BKN010 OVC015 17/15 Q1015=
201208301520 METAR ESMX 301520Z 16006KT 130V190 9999 FEW014 SCT017 BKN023 17/14 Q1015=
201208301450 METAR ESMX 301450Z 16006KT 120V210 9999 SCT040 BKN051 18/14 Q1015=
201208301420 METAR ESMX 301420Z 16006KT 120V190 9999 FEW010 BKN041 BKN059 18/14 Q1015=
201208301350 METAR ESMX 301350Z 15007KT 050V200 9999 SCT045 BKN080 19/15 Q1015=
201208301320 METAR ESMX 301320Z 15006KT 110V210 9999 FEW025 BKN150 18/15 Q1015=
201208301250 METAR ESMX 301250Z 17007KT 100V220 9999 FEW025 BKN150 18/14 Q1015=
201208301220 METAR ESMX 301220Z 16007KT 120V200 9999 FEW025 BKN150 18/14 Q1015=
201208301150 METAR ESMX 301150Z 16007KT 100V210 9999 FEW004 SCT045 BKN130 18/15 Q1015=
201208301120 METAR ESMX 301120Z 14005KT 080V190 9999 SCT040 BKN094 17/15 Q1015=
201208301050 METAR ESMX 301050Z 13005KT 080V170 9999 FEW008 SCT045 BKN086 17/15 Q1015=
201208301020 METAR ESMX 301020Z 13003KT 050V190 9000 -DZ SCT086 17/15 Q1015 RERA=
201208300950 METAR ESMX 300950Z 15006KT 110V180 5000 -RA FEW025 16/15 Q1016=
201208300920 METAR ESMX 300920Z 19007KT 150V230 6000 -RA FEW009 SCT015 16/15 Q1016=
201208300850 METAR ESMX 300850Z 19009KT 9999 -RA FEW026 SCT077 17/15 Q1017=
201208300820 METAR ESMX 300820Z 17006KT 9999 FEW047 SCT064 BKN082 18/15 Q1016=
201208300750 METAR ESMX 300750Z 22009KT 9999 FEW018 SCT054 18/15 Q1016=
201208300720 METAR ESMX 300720Z 15007KT 100V190 9999 FEW059 BKN110 17/14 Q1016=
201208300650 METAR ESMX 300650Z 13005KT 080V170 9999 FEW005 SCT094 BKN110 16/14 Q1016=
201208300620 METAR ESMX 300620Z 14005KT 100V190 8000 BR FEW003 15/14 Q1016=
201208300550 METAR ESMX 300550Z 12004KT 080V170 5000 BR BKN002 14/14 Q1016=
201208300520 METAR ESMX 300520Z 13005KT 080V170 4000 BR OVC002 14/14 Q1016=
201208300450 METAR ESMX 300450Z 13005KT 090V180 3600 BR OVC002 14/13 Q1016=
201208300420 METAR ESMX 300420Z 13005KT 080V180 3000 BR OVC002 14/13 Q1016=
201208300350 METAR ESMX 300350Z 14004KT 100V170 1900 BR OVC002 14/13 Q1016=
201208300320 METAR ESMX 300320Z AUTO 15005KT 070V190 2100NDV BR OVC002/// 13/13 Q1017=
201208300250 METAR ESMX 300250Z AUTO 14005KT 090V190 1800NDV OVC002/// 13/13 Q1017=
201208300220 METAR ESMX 300220Z AUTO 14004KT 100V180 1800NDV OVC001/// 14/13 Q1017=
201208300150 METAR ESMX 300150Z AUTO 14004KT 100V190 0550NDV R01/1700D R19/P2000N FG VV001 14/13 Q1017=
201208300120 METAR ESMX 300120Z AUTO 14004KT 070V180 0900NDV R01/P2000N R19/P2000N VV002 14/13 Q1017=
201208300050 METAR ESMX 300050Z AUTO 14004KT 100V180 0650NDV R01/1900U R19/P2000N FG VV001 14/13 Q1017=
201208300020 METAR ESMX 300020Z AUTO 14004KT 090V190 0250NDV R01/0900N R19/0900V1300U FG VV001 14/13 Q1017=
201208292350 METAR ESMX 292350Z 15005KT 110V190 0200 R01/0750 R19/1000V1700D FG VV001 13/13 Q1018=
201208292320 METAR ESMX 292320Z 14006KT 110V170 0800 R01/1200VP2000D R19/P2000N FG VV002 14/13 Q1018=
201208292250 METAR ESMX 292250Z 14005KT 4000 BR NSC 14/13 Q1018=
201208292220 METAR ESMX 292220Z 14004KT CAVOK 14/13 Q1018=
201208292150 METAR ESMX 292150Z 15004KT CAVOK 15/13 Q1018=
201208292120 METAR ESMX 292120Z 15005KT CAVOK 14/13 Q1018=
201208292050 METAR ESMX 292050Z 14004KT CAVOK 12/11 Q1018=
201208292020 METAR ESMX 292020Z 15004KT CAVOK 12/11 Q1018=
201208291950 METAR ESMX 291950Z 13003KT CAVOK 12/11 Q1018=
201208291920 METAR ESMX 291920Z 12001KT CAVOK 11/10 Q1018=
201208291850 METAR ESMX 291850Z 00000KT CAVOK 12/10 Q1018=
201208291820 METAR ESMX 291820Z 00000KT CAVOK 14/12 Q1018=
201208291750 METAR ESMX 291750Z 10001KT CAVOK 16/13 Q1018=
201208291720 METAR ESMX 291720Z 15001KT CAVOK 18/13 Q1018=
201208291650 METAR ESMX 291650Z 17001KT CAVOK 20/12 Q1018=
201208291620 METAR ESMX 291620Z 21004KT 170V230 CAVOK 21/09 Q1018=
201208291550 METAR ESMX 291550Z 22006KT 190V250 CAVOK 21/09 Q1018=
201208291520 METAR ESMX 291520Z 23005KT 190V270 9999 FEW030 21/10 Q1018=
201208291450 METAR ESMX 291450Z VRB04KT 9999 FEW040 21/11 Q1018=
201208291420 METAR ESMX 291420Z 20003KT 110V280 9999 SCT029 21/12 Q1018=
201208291350 METAR ESMX 291350Z 08004KT 050V120 9999 SCT033 20/14 Q1018=
201208291320 METAR ESMX 291320Z 04003KT 320V100 9999 FEW027 SCT033 19/13 Q1018=
201208291250 METAR ESMX 291250Z 03004KT 360V070 9999 SCT018 20/13 Q1018=
201208291220 METAR ESMX 291220Z 26003KT 230V320 9999 FEW014 SCT020 BKN034 18/14 Q1019=
201208291150 METAR ESMX 291150Z 30005KT 260V340 9999 SCT014 BKN019 BKN024 18/14 Q1019=
201208291120 METAR ESMX 291120Z 31003KT 280V010 9999 SCT013 BKN016 OVC019 18/14 Q1019=
201208291050 METAR ESMX 291050Z 03003KT 330V070 9999 FEW015 BKN025 BKN032 18/14 Q1018=
201208291020 METAR ESMX 291020Z VRB02KT 9999 FEW012 SCT015 BKN017 18/14 Q1018=
201208290950 METAR ESMX 290950Z VRB02KT 9000 BR FEW015 SCT018 BKN021 17/14 Q1018=
201208290920 METAR ESMX 290920Z VRB02KT 9000 BR SCT008 BKN016 16/14 Q1018=
201208290850 METAR ESMX 290850Z VRB02KT 6000 BR FEW008 BKN020 16/16 Q1018=
201208290820 METAR ESMX 290820Z VRB01KT 5000 BR BKN002 OVC009 15/14 Q1019=
201208290750 METAR ESMX 290750Z 30003KT 4300 BR BKN002 OVC003 14/14 Q1018=
201208290720 METAR ESMX 290720Z VRB02KT 2100 BR OVC002 14/13 Q1018=
201208290650 METAR ESMX 290650Z 31001KT 0700 R01/0800V1500 R19/1000V1400N FG VV002 14/13 Q1018=
201208290620 METAR ESMX 290620Z VRB02KT 0400 R01/0650V1200 R19/0650 FG VV002 14/13 Q1018=
201208290550 METAR ESMX 290550Z 18001KT 0200 R01/0700 R19/0450N FG VV002 13/13 Q1018=
201208290520 METAR ESMX 290520Z VRB01KT 0150 R01/0450N R19/0350N FG VV002 14/13 Q1017=
201208290450 METAR ESMX 290450Z VRB02KT 0100 R01/0275N R19/0325N FG VV000 13/13 Q1017=
201208290420 METAR ESMX 290420Z 15004KT 110V190 0150 R01/0400N R19/0450N FG VV000 13/12 Q1017=
201208290350 METAR ESMX 290350Z VRB02KT 0100 R01/0450N R19/0350V0550N FG VV000 11/10 Q1017=
201208290320 METAR ESMX 290320Z AUTO 12002KT 0200NDV R01/0800V1300U R19/0800V1300N FG BKN001/// 09/09 Q1017=
201208290250 METAR ESMX 290250Z AUTO 00000KT 0100NDV R01/0350V0550U R19/0450U FG SCT001/// 11/10 Q1017=
201208290220 METAR ESMX 290220Z AUTO 15002KT 0150NDV R01/0800V1200U R19/0600 FG NCD 10/09 Q1017=
201208290150 METAR ESMX 290150Z AUTO 15002KT 0100NDV R01/0800V1900N R19/0350V0800 FG NCD 11/10 Q1017=
201208290120 METAR ESMX 290120Z 16003KT 5000 R01/0900V1500 R19/0700 BCFG NSC 11/10 Q1017=
201208290050 METAR ESMX 290050Z 16002KT 3000 R01/P2000N R19/0400V1500D BCFG NSC 12/11 Q1017=
201208290020 METAR ESMX 290020Z 16004KT CAVOK 14/12 Q1016=
201208282350 METAR ESMX 282350Z 17004KT 140V200 CAVOK 14/13 Q1017=
201208282320 METAR ESMX 282320Z 16005KT CAVOK 14/13 Q1017=
201208282250 METAR ESMX 282250Z 17005KT 9999 FEW020 SCT057 BKN085 14/13 Q1016=
201208282220 METAR ESMX 282220Z 17005KT 9999 FEW020 OVC055 14/13 Q1017=
201208282150 METAR ESMX 282150Z 17005KT 140V200 9999 DZ FEW020 BKN067 14/13 Q1016=
201208282120 METAR ESMX 282120Z 17005KT 9999 FEW040 BKN075 14/12 Q1016=
201208282050 METAR ESMX 282050Z 17004KT 140V210 9999 FEW045 BKN075 14/12 Q1016=
201208282020 METAR ESMX 282020Z 17005KT 140V200 9999 -RA FEW066 BKN081 14/12 Q1017=
201208281950 METAR ESMX 281950Z 16005KT 9999 FEW046 BKN069 14/12 Q1017=
201208281920 METAR ESMX 281920Z 16005KT 110V200 9999 -RA FEW040 BKN055 15/12 Q1017=
201208281850 METAR ESMX 281850Z 17005KT 9999 -DZ FEW020 BKN055 15/12 Q1017=
201208281820 METAR ESMX 281820Z 17005KT 140V210 9999 FEW020 BKN054 15/12 Q1017=
201208281750 METAR ESMX 281750Z 16005KT 120V210 9999 FEW020 BKN055 15/12 Q1016=
201208281720 METAR ESMX 281720Z 16006KT 130V200 9999 FEV020 BKN050 15/12 Q1017=
201208281650 METAR ESMX 281650Z 16006KT 120V190 CAVOK 15/12 Q1016=
201208281620 METAR ESMX 281620Z 16006KT 120V190 CAVOK 16/12 Q1017=
201208281550 METAR ESMX 281550Z 18007KT 120V210 CAVOK 16/12 Q1017=
201208281520 METAR ESMX 281520Z 17007KT 130V200 CAVOK 16/11 Q1017=
201208281450 METAR ESMX 281450Z 16005KT 130V200 9999 FEW025 BKN084 16/11 Q1017=
201208281420 METAR ESMX 281420Z 15003KT 9999 FEW042 16/12 Q1017=
201208281350 METAR ESMX 281350Z 17004KT 9999 -RA FEW022 16/11 Q1017=
201208281320 METAR ESMX 281320Z 17005KT 130V200 9999 -RA FEW040 16/10 Q1017=
201208281250 METAR ESMX 281250Z 17006KT 140V210 9999 FEW040 BKN100 17/10 Q1017=
201208281220 METAR ESMX 281220Z 15005KT 110V200 9999 FEW040 BKN093 16/10 Q1017=
201208281150 METAR ESMX 281150Z 18007KT 140V210 9999 FEW029 BKN084 16/10 Q1018=
201208281120 METAR ESMX 281120Z 17007KT 120V190 9999 FEW026 SCT030 BKN075 16/10 Q1018=
201208281050 METAR ESMX 281050Z 17009KT 140V200 9999 SCT025 BKN085 17/10 Q1018=
201208281020 METAR ESMX 281020Z 18008KT 140V200 9999 FEW026 SCT031 BKN096 17/10 Q1018=
201208280950 METAR ESMX 280950Z 17010KT 130V210 9999 FEW038 BKN100 17/10 Q1018=
201208280920 METAR ESMX 280920Z 17007KT 120V230 9999 FEW039 SCT100 15/07 Q1018=
201208280850 METAR ESMX 280850Z 16006KT 110V200 9999 FEW035 BKN100 14/06 Q1018=
201208280820 METAR ESMX 280820Z 16006KT 130V200 CAVOK 13/05 Q1019=
201208280720 METAR ESMX 280720Z 15004KT 110V190 CAVOK 12/04 Q1019=
201208280650 METAR ESMX 280650Z 15005KT 110V170 CAVOK 11/05 Q1019=
201208280620 METAR ESMX 280620Z 14003KT 100V200 CAVOK 10/05 Q1019=
201208280550 METAR ESMX 280550Z 14003KT 110V170 CAVOK 09/06 Q1019=
201208280520 METAR ESMX 280520Z VRB02KT CAVOK 07/06 Q1018=
201208280450 METAR ESMX 280450Z VRB01KT CAVOK 06/05 Q1018=
201208280420 METAR ESMX 280420Z 12001KT CAVOK 06/05 Q1018=
201208280350 METAR ESMX 280350Z 00000KT CAVOK 05/04 Q1018=
201208280320 METAR ESMX 280320Z AUTO 00000KT 9999NDV NCD 04/03 Q1019=
201208280250 METAR ESMX 280250Z AUTO 18001KT 9999NDV NCD 04/03 Q1019=
201208280220 METAR ESMX 280220Z AUTO 18001KT 9999NDV NCD 03/02 Q1019=
201208280150 METAR ESMX 280150Z AUTO 00000KT 9999NDV NCD 02/02 Q1019=
201208280120 METAR ESMX 280120Z AUTO 14001KT 1300NDV R01/P2000N R19/P2000N BR NCD 02/02 Q1019=
201208280050 METAR ESMX 280050Z AUTO 16002KT 9999NDV NCD 03/02 Q1019=
201208280020 METAR ESMX 280020Z AUTO 19001G17KT 9999NDV NCD 03/02 Q1019=
201208272350 METAR ESMX 272350Z 19001KT CAVOK 03/02 Q1019=
201208272320 METAR ESMX 272320Z 18002KT CAVOK 03/02 Q1019=
201208272250 METAR ESMX 272250Z 19002KT CAVOK 03/01 Q1019=
201208272220 METAR ESMX 272220Z 17002KT CAVOK 03/02 Q1019=
201208272150 METAR ESMX 272150Z 17001KT CAVOK 04/03 Q1019=
201208272120 METAR ESMX 272120Z 17001KT CAVOK 04/03 Q1019=
201208272050 METAR ESMX 272050Z 18003KT CAVOK 05/03 Q1019=
201208272020 METAR ESMX 272020Z 18002KT CAVOK 06/03 Q1019=
201208271950 METAR ESMX 271950Z 18001KT CAVOK 06/04 Q1018=
201208271920 METAR ESMX 271920Z 00000KT CAVOK 07/04 Q1018=
201208271850 METAR ESMX 271850Z 30001KT CAVOK 09/05 Q1018=
201208271820 METAR ESMX 271820Z 31003KT CAVOK 10/05 Q1018=
201208271750 METAR ESMX 271750Z 32005KT CAVOK 13/05 Q1018=
201208271720 METAR ESMX 271720Z 32005KT CAVOK 16/04 Q1017=
201208271650 METAR ESMX 271650Z 30007KT CAVOK 16/03 Q1017=
201208271620 METAR ESMX 271620Z 31008KT CAVOK 17/04 Q1017=
201208271550 METAR ESMX 271550Z 32010KT 300V360 CAVOK 17/03 Q1017=
201208271520 METAR ESMX 271520Z 30011KT 270V330 CAVOK 18/03 Q1017=
201208271450 METAR ESMX 271450Z 30010KT 270V330 CAVOK 18/04 Q1017=
201208271420 METAR ESMX 271420Z 31009KT 270V340 CAVOK 18/05 Q1016=
201208271350 METAR ESMX 271350Z 30010KT 250V340 CAVOK 18/05 Q1016=
201208271320 METAR ESMX 271320Z 32011KT 270V360 CAVOK 18/03 Q1016=
201208271250 METAR ESMX 271250Z 31012KT 270V340 CAVOK 18/05 Q1015=
201208271220 METAR ESMX 271220Z 28013KT 260V320 CAVOK 17/06 Q1015=
201208271150 METAR ESMX 271150Z 32013G23KT 290V350 CAVOK 17/04 Q1015=
201208271120 METAR ESMX 271120Z 31013KT 260V350 CAVOK 17/05 Q1015=
201208271050 METAR ESMX 271050Z 32011KT 290V350 CAVOK 17/05 Q1014=
201208271020 METAR ESMX 271020Z 30013KT 270V350 CAVOK 16/06 Q1014=
201208270950 METAR ESMX 270950Z 33011KT 300V020 CAVOK 16/06 Q1013=
201208270920 METAR ESMX 270920Z 30013KT CAVOK 15/07 Q1013=
201208270820 METAR ESMX 270820Z 32009KT 270V010 CAVOK 14/08 Q1013=
201208270750 METAR ESMX 270750Z 31008KT 280V340 CAVOK 13/09 Q1012=
201208270720 METAR ESMX 270720Z 32008KT 270V010 9999 FEW012 12/09 Q1012=
201208270650 METAR ESMX 270650Z 30007KT 270V360 9999 SCT010 11/09 Q1012=
201208270620 METAR ESMX 270620Z 31006KT 280V340 9999 FEW007 SCT010 10/09 Q1011=
201208270550 METAR ESMX 270550Z 30006KT 9999 SCT008 BKN012 11/09 Q1011=
201208270520 METAR ESMX 270520Z 30006KT 260V340 9999 FEW009 BKN011 11/10 Q1010=
201208270450 METAR ESMX 270450Z 29003KT 240V330 9999 FEW010 10/09 Q1010=
201208270420 METAR ESMX 270420Z 29005KT 9999 FEW008 11/10 Q1009=
201208270350 METAR ESMX 270350Z 29004KT 260V320 9999 BKN009 11/10 Q1009=
201208270320 METAR ESMX 270320Z AUTO 29003KT 250V330 9000NDV BR FEW007/// BKN008/// BKN010/// 11/10 Q1008=
201208270250 METAR ESMX 270250Z AUTO 27003KT 4600NDV BR FEW009/// 10/10 Q1008=
201208270220 METAR ESMX 270220Z AUTO 26004KT 6000NDV BR NCD 10/10 Q1008=
201208270150 METAR ESMX 270150Z AUTO 25004KT 8000NDV BR NCD 10/10 Q1008=
201208270120 METAR ESMX 270120Z AUTO 26005KT 9999NDV BR NCD 11/10 Q1007=
201208270050 METAR ESMX 270050Z AUTO 25004KT 9000NDV NCD 10/10 Q1007=
201208270020 METAR ESMX 270020Z AUTO 26004KT 9999NDV NCD 11/10 Q1007=
201208262350 METAR ESMX 262350Z AUTO 25004KT 9999NDV NCD 11/11 Q1007=
201208262320 METAR ESMX 262320Z 27005KT CAVOK 12/11 Q1006=
201208262250 METAR ESMX 262250Z 26005KT CAVOK 12/11 Q1006=
201208262220 METAR ESMX 262220Z 26006KT CAVOK 12/11 Q1006=
201208262150 METAR ESMX 262150Z 26005KT CAVOK 12/12 Q1005=
201208262120 METAR ESMX 262120Z 26005KT 9999 FEW020 13/12 Q1005=
201208262050 METAR ESMX 262050Z 25004KT 220V290 9999 FEW012 13/12 Q1005=
201208262020 METAR ESMX 262020Z 23004KT 1600 R01/P2000N R19/P2000N BR FEW010 13/12 Q1005=
201208261950 METAR ESMX 261950Z 21003KT 2100 FEW012 13/12 Q1005=
201208261920 METAR ESMX 261920Z 20003KT 9999 FEW015 14/13 Q1004=
201208261850 METAR ESMX 261850Z 21003KT 200V280 9999 FEW015 BKN070CB 15/13 Q1004=
201208261820 METAR ESMX 261820Z 26004KT 210V320 9999 FEW013 SCT020 BKN069 15/14 Q1004=
201208261750 METAR ESMX 261750Z 21005KT 9999 SCT050CB 15/13 Q1003=
201208261720 METAR ESMX 261720Z 20006KT 9999 SCT050CB BKN097 15/13 Q1003=
201208261650 METAR ESMX 261650Z 20006KT 9999 FEW030 SCT050 15/13 Q1003=
201208261620 METAR ESMX 261620Z 19007KT 9999 FEW030 SCT089 15/14 Q1003 RESH=
201208261550 METAR ESMX 261550Z 20006KT 9999 FEW030 SCT050 15/14 Q1003 RESH=
201208261520 METAR ESMX 261520Z 22006KT 9999 SHRA SCT025CB BKN050 16/14 Q1003=
201208261450 METAR ESMX 261450Z 23005KT 200V260 9999 TSRA SCT025CB 16/14 Q1002=
201208261420 METAR ESMX 261420Z 26003KT 210V310 9999 TSRA SCT020CB 16/13 Q1002=
201208261350 METAR ESMX 261350Z 26012KT 9999 TSRA BKN020CB 18/13 Q1002=
201208261320 METAR ESMX 261320Z 21008KT 9999 SCT030CB 19/13 Q1002=
201208261250 METAR ESMX 261250Z 21009KT 9999 SCT030TCU 20/15 Q1002=
201208261220 METAR ESMX 261220Z 20007KT 9999 SCT030 19/15 Q1002 RESH=
201208261150 METAR ESMX 261150Z 22010KT 180V250 9999 SCT030 20/13 Q1002=
201208261120 METAR ESMX 261120Z 21013KT 170V250 9999 SCT030 20/13 Q1002=
201208261050 METAR ESMX 261050Z 21012KT 160V240 9999 SCT023 20/13 Q1002=
201208261020 METAR ESMX 261020Z 20013KT 160V240 9999 SCT020 19/14 Q1003=
201208260950 METAR ESMX 260950Z 21011KT 170V240 9999 FEW015 BKN019 18/14 Q1003=
201208260920 METAR ESMX 260920Z 19010KT 160V240 9999 FEW012 SCT020 BKN024 18/14 Q1003=
201208260850 METAR ESMX 260850Z 19009KT 150V210 9999 FEW011 SCT017 BKN019 17/14 Q1003=
201208260820 METAR ESMX 260820Z 19009KT 9999 FEW010 SCT018 BKN021 16/14 Q1003=
201208260750 METAR ESMX 260750Z 18008KT 9000 BR SCT010 BKN015 16/14 Q1003=
201208260720 METAR ESMX 260720Z 18008KT 8000 BR BKN007 16/14 Q1003=
201208260650 METAR ESMX 260650Z AUTO 18006KT 150V210 6000NDV BR OVC005/// 16/14 Q1003=
201208260620 METAR ESMX 260620Z AUTO 16007KT 140V210 4700NDV BR BKN005/// 16/14 Q1003=
201208260550 METAR ESMX 260550Z AUTO 16004KT 120V180 5000NDV BR FEW007/// SCT012/// BKN017/// 15/14 Q1003=
201208260520 METAR ESMX 260520Z AUTO 15005KT 120V190 5000NDV BR FEW003/// OVC012/// 15/14 Q1003=
201208260450 METAR ESMX 260450Z AUTO 17003KT 120V200 4800NDV BR FEW004/// SCT006/// BKN012/// 15/14 Q1003=
201208260420 METAR ESMX 260420Z AUTO 15003KT 110V170 4500NDV BR FEW005/// OVC017/// 15/14 Q1003=
201208260350 METAR ESMX 260350Z AUTO 16003KT 110V200 4800NDV BR BKN004/// OVC009/// 15/14 Q1003=
201208260320 METAR ESMX 260320Z AUTO 14003KT 090V200 4400NDV BR BKN004/// OVC008/// 15/14 Q1004=
201208260250 METAR ESMX 260250Z AUTO 15005KT 110V190 4900NDV BR BKN004/// OVC011/// 15/14 Q1004=
201208260220 METAR ESMX 260220Z AUTO 15003KT 110V180 4300NDV BR SCT005/// BKN008/// OVC011/// 15/14 Q1004=
201208260150 METAR ESMX 260150Z AUTO 17003KT 4200NDV BR BKN004/// BKN013/// 15/14 Q1004=
201208260120 METAR ESMX 260120Z AUTO 17005KT 130V200 4100NDV BR OVC003/// 15/14 Q1004=
201208260050 METAR ESMX 260050Z AUTO 15006KT 110V200 4100NDV BR SCT004/// BKN010/// OVC022/// 15/14 Q1004=
201208260020 METAR ESMX 260020Z AUTO 16006KT 130V200 4700NDV BR FEW004/// SCT007/// BKN045/// 15/14 Q1004=
201208252350 METAR ESMX 252350Z AUTO 17005KT 130V200 4900NDV -RA BKN004/// OVC008/// 15/14 Q1004=
201208252320 METAR ESMX 252320Z AUTO 16006KT 120V190 7000NDV BR FEW005/// SCT007/// BKN027/// 14/13 Q1005=
201208252250 METAR ESMX 252250Z AUTO 14007KT 080V180 7000NDV BR BKN005/// 15/13 Q1005=
201208252220 METAR ESMX 252220Z AUTO 16005KT 120V200 8000NDV BR BKN005/// BKN009/// 14/13 Q1005=
201208252150 METAR ESMX 252150Z AUTO 15006KT 110V190 9000NDV FEW006/// SCT008/// OVC070/// 14/13 Q1005=
201208252120 METAR ESMX 252120Z AUTO 15006KT 110V190 9999NDV FEW017/// SCT043/// BKN049/// 14/13 Q1005=
201208252050 METAR ESMX 252050Z AUTO 16005KT 130V190 9999NDV BKN036/// BKN044/// 14/13 Q1005=
201208252020 METAR ESMX 252020Z AUTO 14003KT 100V180 9999NDV -RA SCT042/// OVC051/// 14/13 Q1005=
201208251950 METAR ESMX 251950Z AUTO VRB02KT 9999NDV BKN049/// BKN065/// 14/13 Q1006 RESHRA=
201208251920 METAR ESMX 251920Z AUTO 14003KT 070V190 6000NDV -RA BKN050/// 14/13 Q1006=
201208251850 METAR ESMX 251850Z AUTO 14003KT 100V160 9999NDV BKN053/// 14/13 Q1006=
201208251820 METAR ESMX 251820Z AUTO VRB02KT 9999NDV FEW042/// SCT060/// BKN071/// 14/13 Q1006=
201208251750 METAR ESMX 251750Z AUTO VRB02KT 9999NDV -RA FEW068/// 14/12 Q1006 REDZ=
201208251720 METAR ESMX 251720Z AUTO 17004KT 9999NDV DZ SCT068/// 15/12 Q1006=
201208251650 METAR ESMX 251650Z AUTO 18006KT 9999NDV -RA BKN062/// 15/12 Q1006 REDZ=
201208251620 METAR ESMX 251620Z AUTO 20005KT 9999NDV BKN067/// 16/12 Q1006=
201208251550 METAR ESMX 251550Z AUTO 20006KT 9999NDV OVC074/// 16/12 Q1006=
201208251520 METAR ESMX 251520Z AUTO 21008KT 9999NDV FEW031/// SCT072/// BKN089/// 17/11 Q1006=
201208251450 METAR ESMX 251450Z AUTO 21008KT 9999NDV FEW066/// SCT084/// BKN100/// 18/12 Q1006=
201208251420 METAR ESMX 251420Z AUTO 22003KT 180V260 9999NDV BKN054/// BKN082/// 18/12 Q1006=
201208251350 METAR ESMX 251350Z AUTO 17003KT 9999NDV FEW046/// BKN058/// BKN076/// 17/12 Q1006=
201208251320 METAR ESMX 251320Z AUTO 17006KT 140V200 9999NDV FEW039/// BKN080/// 17/11 Q1006=
201208251250 METAR ESMX 251250Z AUTO 17007KT 130V200 9999NDV FEW033/// SCT053/// BKN094/// 18/11 Q1006=
201208251220 METAR ESMX 251220Z AUTO VRB01KT 9999NDV FEW071/// SCT100/// 18/11 Q1006=
201208251150 METAR ESMX 251150Z AUTO 28004KT 240V310 9999NDV OVC072/// 18/12 Q1006=
201208251120 METAR ESMX 251120Z AUTO VRB01KT 9999NDV FEW032/// BKN078/// 18/12 Q1006=
201208251050 METAR ESMX 251050Z AUTO 03003KT 360V060 9999NDV FEW037/// SCT083/// 17/12 Q1006=
201208251020 METAR ESMX 251020Z AUTO 35004KT 320V020 9999NDV FEW028/// SCT054/// BKN074/// 17/12 Q1006=
201208250950 METAR ESMX 250950Z AUTO VRB05KT 9999NDV SCT023/// BKN030/// OVC036/// 18/11 Q1006=
201208250920 METAR ESMX 250920Z AUTO 24007KT 9999NDV FEW022/// SCT032/// BKN038/// 17/11 Q1006=
201208250850 METAR ESMX 250850Z AUTO 22005KT 9999NDV FEW016/// 17/12 Q1006=
201208250820 METAR ESMX 250820Z AUTO 18004KT 120V240 9999NDV FEW012/// BKN014/// BKN026/// 17/13 Q1006=
201208250750 METAR ESMX 250750Z AUTO 20004KT 170V240 9999NDV FEW005/// SCT008/// BKN010/// 16/13 Q1006=
201208250720 METAR ESMX 250720Z AUTO 21004KT 170V240 9999NDV FEW004/// SCT033/// BKN052/// 14/13 Q1006=
201208250650 METAR ESMX 250650Z AUTO 21004KT 9999NDV FEW002/// SCT018/// BKN022/// 14/13 Q1006=
201208250620 METAR ESMX 250620Z AUTO 20002KT 9999NDV SCT001/// BKN066/// 14/13 Q1006=
201208250550 METAR ESMX 250550Z AUTO 22002KT 3800NDV VV001 13/12 Q1006=
201208250520 METAR ESMX 250520Z AUTO 21002KT 1300NDV R01/P2000D R19/P2000D FEW057/// SCT067/// 12/12 Q1006=
201208250450 METAR ESMX 250450Z AUTO 17003KT 0250NDV R01/0800VP2000 R19/0550V0750N FG VV000 12/12 Q1006=
201208250420 METAR ESMX 250420Z AUTO 14003KT 0500NDV R01/0700V1600D R19/P2000N FG BKN087/// 12/11 Q1006=
201208250350 METAR ESMX 250350Z AUTO 15001KT 0750NDV R01/P2000N R19/P2000N FG FEW069/// BKN083/// 11/10 Q1006=
201208250320 METAR ESMX 250320Z AUTO 18001KT 3600NDV BR BKN063/// 12/11 Q1006=
201208250250 METAR ESMX 250250Z AUTO 00000KT 2200NDV BR BKN064/// 12/11 Q1007=
201208250220 METAR ESMX 250220Z AUTO 00000KT 6000NDV BR BKN076/// 12/12 Q1007=
201208250150 METAR ESMX 250150Z AUTO 18002KT 8000NDV BR FEW078/// SCT091/// BKN100/// 12/12 Q1007=
201208250120 METAR ESMX 250120Z AUTO 17002KT 7000NDV FEW065/// SCT100/// 12/11 Q1007=
201208250050 METAR ESMX 250050Z AUTO 18002KT 9999NDV SCT100/// 11/11 Q1007=
201208250020 METAR ESMX 250020Z AUTO 17002KT 9999NDV BR BKN100/// 12/11 Q1007=
201208242350 METAR ESMX 242350Z AUTO 25001KT 9999NDV SCT110/// 12/11 Q1007=
201208242320 METAR ESMX 242320Z AUTO 24002KT 9999NDV SCT100/// 12/11 Q1007=
201208242250 METAR ESMX 242250Z AUTO 23002KT 9999NDV FEW100/// 12/11 Q1007=
201208242220 METAR ESMX 242220Z AUTO 23004KT 9999NDV NCD 12/11 Q1007=
201208242150 METAR ESMX 242150Z AUTO 23004KT 9999NDV NCD 12/11 Q1007=
201208242120 METAR ESMX 242120Z AUTO 23003KT 9999NDV NCD 12/11 Q1007=
201208242050 METAR ESMX 242050Z AUTO 21002KT 9999NDV NCD 12/11 Q1007=
201208242020 METAR ESMX 242020Z AUTO 19002KT 9999NDV FEW060/// 12/11 Q1007=
201208241950 METAR ESMX 241950Z AUTO 19003KT 9999NDV BKN057/// 13/12 Q1007=
201208241920 METAR ESMX 241920Z 20004KT 9999 FEW025CB 13/12 Q1007 RESH=
201208241850 METAR ESMX 241850Z 19006KT 9999 FEW030CB 14/12 Q1007=
201208241820 METAR ESMX 241820Z 17004KT 9999 FEW030CB 14/12 Q1007=
201208241750 METAR ESMX 241750Z 19003KT CAVOK 14/12 Q1007=
201208241650 METAR ESMX 241650Z VRB02KT CAVOK 15/12 Q1007=
201208241620 METAR ESMX 241620Z VRB01KT 9999 FEW048 BKN058 15/11 Q1007=
201208241550 METAR ESMX 241550Z 32006KT 290V350 9999 FEW020 SCT050 15/11 Q1007=
201208241520 METAR ESMX 241520Z 34004KT 9999 FEW019 SCT030TCU BKN061 16/13 Q1007=
201208241450 METAR ESMX 241450Z 27003KT 230V320 9999 VCSH FEW025CB SCT035 17/12 Q1007=
201208241420 METAR ESMX 241420Z 26004KT 210V320 9999 SCT035 17/13 Q1007=
201208241350 METAR ESMX 241350Z VRB02KT 9999 FEW030CB SCT035 16/13 Q1008 RESHRA=
201208241320 METAR ESMX 241320Z VRB02KT 9999 -SHRA FEW025CB SCT050 14/11 Q1008=
201208241250 METAR ESMX 241250Z 32004KT 290V360 9999 VCSH SCT024CB BKN043 15/10 Q1008=
201208241220 METAR ESMX 241220Z 20010KT 9999 VCSH FEW025CB SCT090 18/12 Q1008=
201208241150 METAR ESMX 241150Z 19011KT 9999 FEW020CB SCT056 17/12 Q1007=
201208241120 METAR ESMX 241120Z 22009KT 9999 SCT030 18/11 Q1008=
201208241050 METAR ESMX 241050Z 21007KT 190V250 9999 SCT026 BKN038 17/11 Q1008=
201208241020 METAR ESMX 241020Z 24006KT 9999 FEW024 SCT039 17/11 Q1008=
201208240950 METAR ESMX 240950Z 26007KT 220V290 9999 FEW023 BKN030 17/11 Q1008=
201208240920 METAR ESMX 240920Z 26006KT 190V290 9999 FEW018 BKN035 16/11 Q1008=
201208240850 METAR ESMX 240850Z 28007KT 230V300 9999 FEW015 SCT029 16/12 Q1008=
201208240820 METAR ESMX 240820Z 25006KT 210V280 9999 FEW010 BKN015 16/13 Q1008=
201208240750 METAR ESMX 240750Z 26007KT 220V290 9999 BKN009 15/12 Q1008=
201208240720 METAR ESMX 240720Z 25007KT 220V290 9999 BKN008 14/13 Q1008=
201208240650 METAR ESMX 240650Z 23006KT 9999 BKN007 14/13 Q1008=
201208240620 METAR ESMX 240620Z 22006KT 9999 -DZ SCT004 BKN020 13/12 Q1008=
201208240550 METAR COR ESMX 240550Z 21008KT 9999 BKN003 12/12 Q1008=
201208240520 METAR ESMX 240520Z 20006KT 9999 SCT002 12/11 Q1008=
201208240450 METAR ESMX 240450Z 19004KT CAVOK 11/10 Q1008=
201208240420 METAR ESMX 240420Z 21005KT CAVOK 11/10 Q1008=
201208240350 METAR ESMX 240350Z 21006KT CAVOK 11/10 Q1008=
201208240320 METAR ESMX 240320Z AUTO 22005KT 9999NDV NCD 11/10 Q1007=
201208240250 METAR ESMX 240250Z AUTO 20005KT 9999NDV FEW016/// 11/10 Q1008=
201208240220 METAR ESMX 240220Z AUTO 20006KT 9999NDV NCD 11/10 Q1008=
201208240150 METAR ESMX 240150Z AUTO 20005KT 9999NDV NCD 11/10 Q1008=
201208240120 METAR ESMX 240120Z AUTO 22005KT 9999NDV NCD 11/10 Q1008=
201208240050 METAR ESMX 240050Z 20005KT CAVOK 11/10 Q1008=
201208240020 METAR ESMX 240020Z 23006KT CAVOK 11/10 Q1008=
201208232350 METAR ESMX 232350Z 22006KT 9999 FEW020 11/10 Q1008=
201208232320 METAR ESMX 232320Z 22005KT 9999 FEW022 11/10 Q1008=
201208232250 METAR ESMX 232250Z 25005KT 9999 FEW025 12/11 Q1008=
201208232220 METAR ESMX 232220Z 23005KT 9999 FEW022 12/11 Q1008=
201208232150 METAR ESMX 232150Z 23005KT 200V270 9999 FEW027 13/11 Q1008=
201208232120 METAR ESMX 232120Z 20006KT 9999 FEW027 13/11 Q1008=
201208232050 METAR ESMX 232050Z 23006KT 9999 FEW024 13/11 Q1008=
201208232020 METAR ESMX 232020Z 23006KT 9999 FEW030 13/11 Q1007=
201208231950 METAR COR ESMX 231950Z 23007KT 9999NDV FEW030 14/12 Q1007=
201208231920 METAR ESMX 231920Z 22007KT 190V260 9999 FEW027CB 14/12 Q1007=
201208231850 METAR ESMX 231850Z 23008KT 9999 FEW027CB 14/11 Q1007=
201208231820 METAR ESMX 231820Z 23007KT 200V260 9999 FEW030CB 15/11 Q1007=
201208231750 METAR ESMX 231750Z 23008KT 200V260 9999 FEW033CB SCT044 BKN069 16/11 Q1007=
201208231720 METAR ESMX 231720Z 23009KT 9999 FEW035CB SCT072 16/11 Q1007=
201208231650 METAR ESMX 231650Z 23011KT 190V260 9999 FEW030CB 17/11 Q1007=
201208231620 METAR ESMX 231620Z 25012KT 220V280 9999 FEW030CB SCT035 18/11 Q1007=
201208231550 METAR ESMX 231550Z 22013KT 9999 FEW025CB SCT030 18/11 Q1007=
201208231520 METAR ESMX 231520Z 24012KT 9999 FEW025CB SCT030 18/13 Q1007=
201208231450 METAR ESMX 231450Z 24013KT 9999 FEW020CB SCT030 17/14 Q1007=
201208231420 METAR ESMX 231420Z 23014KT 200V290 3500 -SHRA FEW020CB SCT045 16/13 Q1007=
201208231350 METAR ESMX 231350Z 23017KT 200V260 9999 FEW030CB SCT035 BKN066 18/12 Q1006=
201208231320 METAR ESMX 231320Z 22013KT 200V260 9999 FEW025CB SCT035 18/13 Q1006=
201208231250 METAR ESMX 231250Z 22015G25KT 200V260 9999 FEW025CB SCT035 19/13 Q1007=
201208231220 METAR ESMX 231220Z 23013KT 170V290 9999 FEW025CB SCT040 18/11 Q1006=
201208231150 METAR ESMX 231150Z 25012KT 200V280 9999 FEW025CB SCT045 18/12 Q1006=
201208231120 METAR ESMX 231120Z 24010KT 200V280 9999 VCSH FEW025CB 17/13 Q1007=
201208231050 METAR ESMX 231050Z 24009KT 210V270 9999 VCSH FEW025CB 16/13 Q1006=
201208231020 METAR ESMX 231020Z 24006KT 180V280 9999 FEW020CB SCT030 15/13 Q1006 RESHRA=
201208230950 METAR ESMX 230950Z 24007KT 210V270 9999 VCSH FEW020CB 15/13 Q1006=
201208230920 METAR ESMX 230920Z 25008KT 200V310 9999 -SHRA SCT020CB 14/12 Q1006=
201208230850 METAR ESMX 230850Z 26008KT 220V290 9999 SHRA BKN022CB 15/13 Q1006=
201208230820 METAR ESMX 230820Z 23011KT 200V270 9999 -RA FEW019CB SCT042 BKN074 16/12 Q1006=
201208230750 METAR ESMX 230750Z 24012KT 9999 FEW017 BKN019 16/12 Q1006=
201208230720 METAR ESMX 230720Z 25011KT 220V290 9999 FEW013 BKN016 15/12 Q1006=
201208230650 METAR ESMX 230650Z 24011KT 210V280 9999 FEW009 BKN012 15/13 Q1006=
201208230620 METAR ESMX 230620Z 23010KT 9999 FEW008 BKN011 14/13 Q1006=
201208230550 METAR ESMX 230550Z 23010KT 200V260 9999 BKN009 14/12 Q1006=
201208230520 METAR COR ESMX 230520Z 23008KT 9999 -RA FEW010 BKN014 14/12 Q1006=
201208230450 METAR ESMX 230450Z 20008G19KT 9999 FEW007 SCT014 BKN023 13/12 Q1006=
201208230420 METAR ESMX 230420Z 21008KT 170V240 9999 FEW006 SCT009 BKN011 13/12 Q1006=
201208230350 METAR ESMX 230350Z 19007KT 150V220 9999 FEW008 SCT016 BKN054 13/12 Q1006 RESHRA=
201208230320 METAR ESMX 230320Z 22008KT 9999 FEW007 SCT018 BKN059 13/12 Q1006=
201208230250 METAR ESMX 230250Z AUTO 21007KT 9999NDV FEW008/// SCT023/// BKN077/// 13/12 Q1006=
201208230220 METAR ESMX 230220Z AUTO 22008KT 9999NDV FEW017/// SCT022/// BKN073/// 13/12 Q1006=
201208230150 METAR ESMX 230150Z AUTO 23007KT 9999NDV FEW014/// SCT019/// BKN070/// 13/12 Q1006=
201208230120 METAR ESMX 230120Z AUTO 23007KT 9999NDV -RA FEW014/// 13/12 Q1006=
201208230050 METAR ESMX 230050Z AUTO 24008KT 9999NDV FEW065/// 13/12 Q1006=
201208230020 METAR ESMX 230020Z AUTO 22008KT 190V250 9999NDV FEW062/// SCT074/// 13/12 Q1006=
201208222350 METAR ESMX 222350Z 23007KT 9999 FEW029 SCT075 13/12 Q1006=
201208222320 METAR ESMX 222320Z 23006KT 9999 FEW019 SCT024 13/12 Q1007=
201208222250 METAR ESMX 222250Z 24006KT 210V280 9999 FEW013 SCT033 13/12 Q1007=
201208222220 METAR ESMX 222220Z 23007KT 200V270 9999 FEW011 SCT016 BKN020 14/12 Q1007=
201208222150 METAR ESMX 222150Z 22006KT 9999 FEW016 SCT022 BKN026 14/13 Q1007=
201208222120 METAR ESMX 222120Z 26008KT 230V300 9999 FEW011 SCT066 14/12 Q1006=
201208222050 METAR ESMX 222050Z 23007KT 9999 FEW012 14/13 Q1006=
201208222020 METAR ESMX 222020Z 24009KT 9999 FEW015 14/12 Q1006=
201208221950 METAR ESMX 221950Z 22007KT 9999 FEW015 14/12 Q1006=
201208221920 METAR ESMX 221920Z 23007KT 9999 FEW015 14/12 Q1006=
201208221850 METAR ESMX 221850Z 22006KT 9999 FEW019 14/12 Q1006=
201208221820 METAR ESMX 221820Z 25008KT 9999 FEW019 SCT081 15/12 Q1006=
201208221750 METAR ESMX 221750Z 25008KT 210V280 9999 FEW023 SCT027 15/12 Q1005=
201208221720 METAR ESMX 221720Z 26010KT 230V300 9999 SCT021 16/12 Q1005=
201208221650 METAR ESMX 221650Z 24011KT 210V290 9999 FEW020 16/12 Q1005=
201208221620 METAR ESMX 221620Z 27013KT 230V320 9999 FEW020 SCT024 BKN055 16/12 Q1005=
201208221550 METAR ESMX 221550Z 26011KT 210V300 9999 VCSH FEW022 FEW033CB BKN075 16/12 Q1005=
201208221520 METAR ESMX 221520Z 26012KT 220V290 9999 FEW019 SCT049 16/13 Q1005=
201208221450 METAR ESMX 221450Z 27012KT 230V300 9999 FEW015 SCT045 16/13 Q1005=
201208221420 METAR ESMX 221420Z 27010KT 230V300 9999 VCSH FEW022CB SCT035 BKN047 15/13 Q1005=
201208221350 METAR ESMX 221350Z 26009KT 230V320 9999 SHRA FEW019 SCT028CB BKN045 16/13 Q1004=
201208221320 METAR ESMX 221320Z 25012KT 200V290 9999 FEW022 SCT061 17/12 Q1004=
201208221250 METAR ESMX 221250Z 25013KT 200V290 9999 FEW015 SCT020 BKN078 18/14 Q1004=
201208221220 METAR ESMX 221220Z 23011KT 9999 FEW012 SCT017 BKN020 17/14 Q1004=
201208221150 METAR ESMX 221150Z 22011KT 180V260 3900 -SHRA FEW006 SCT027CB BKN062 15/14 Q1004=
201208221120 METAR ESMX 221120Z 16006KT 120V200 5000 -SHRA FEW005 SCT023CB BKN041 16/14 Q1004=
201208221050 METAR ESMX 221050Z 18007KT 140V210 9999 SCT008 BKN019 16/14 Q1004=
201208221020 METAR ESMX 221020Z 18007KT 9999 FEW007 BKN020 17/15 Q1005=
201208220950 METAR ESMX 220950Z 17005KT 130V200 9999 FEW007 SCT034 BKN039 15/14 Q1005=
201208220920 METAR ESMX 220920Z 21004KT 9999 FEW012 SCT045 15/14 Q1005 RERA=
201208220850 METAR ESMX 220850Z 13004KT 080V170 9000 RA FEW010 SCT050 15/14 Q1005=
201208220820 METAR ESMX 220820Z 17005KT 9000 RA BKN011 15/14 Q1007=
201208220750 METAR ESMX 220750Z 20006KT 9999 BKN012 16/13 Q1006=
201208220720 METAR ESMX 220720Z 17005KT 120V200 9999 BKN011 16/13 Q1007=
201208220650 METAR ESMX 220650Z 18003KT 140V200 9999 FEW020 16/14 Q1007=
201208220620 METAR ESMX 220620Z 00000KT 9999 FEW017 15/13 Q1007=
201208220550 METAR ESMX 220550Z 17003KT 120V200 9999 FEW014 SCT026 14/13 Q1008=
201208220520 METAR ESMX 220520Z 13003KT 9999 FEW017 SCT035 14/13 Q1008=
201208220450 METAR ESMX 220450Z 19004KT 9000 FEW025 SCT035 BKN050 14/13 Q1009=
201208220420 METAR ESMX 220420Z 20003KT 9999 FEW025 SCT034 BKN044 14/13 Q1009=
201208220350 METAR ESMX 220350Z 17003KT 9999 FEW028 BKN040 14/13 Q1009=
201208220320 METAR ESMX 220320Z AUTO 18003KT 9999NDV OVC034/// 14/13 Q1010=
201208220250 METAR ESMX 220250Z AUTO 19002KT 9999NDV OVC032/// 14/13 Q1010=
201208220220 METAR ESMX 220220Z AUTO 17003KT 9999NDV BR OVC034/// 14/13 Q1011=
201208220150 METAR ESMX 220150Z AUTO 18003KT 8000NDV BR BKN034/// 13/12 Q1011=
201208220120 METAR ESMX 220120Z 15002KT 5000 BR NSC 13/12 Q1011=
201208220050 METAR ESMX 220050Z 16002KT 6000 NSC 13/12 Q1011=
201208220020 METAR ESMX 220020Z 21003KT CAVOK 13/12 Q1011=
201208212350 METAR ESMX 212350Z VRB02KT CAVOK 13/12 Q1012=
201208212320 METAR ESMX 212320Z 24002KT CAVOK 13/12 Q1012=
201208212250 METAR ESMX 212250Z 24003KT CAVOK 13/12 Q1012=
201208212220 METAR ESMX 212220Z VRB02KT CAVOK 14/13 Q1013=
201208212150 METAR ESMX 212150Z 25003KT CAVOK 15/13 Q1013=
201208212120 METAR ESMX 212120Z VRB02KT CAVOK 15/13 Q1013=
201208212050 METAR ESMX 212050Z 23004KT CAVOK 15/13 Q1014=
201208212020 METAR ESMX 212020Z 24005KT 210V280 CAVOK 16/13 Q1014=
201208211950 METAR ESMX 211950Z 26004KT CAVOK 15/13 Q1014=
201208211920 METAR ESMX 211920Z 27003KT 250V310 CAVOK 16/12 Q1014=
201208211850 METAR ESMX 211850Z 26004KT 210V290 CAVOK 17/12 Q1014=
201208211820 METAR ESMX 211820Z 26004KT CAVOK 17/13 Q1014=
201208211750 METAR ESMX 211750Z 26004KT 230V300 CAVOK 18/13 Q1014=
201208211720 METAR ESMX 211720Z 26005KT 210V280 CAVOK 19/12 Q1014=
201208211650 METAR ESMX 211650Z 26007KT 230V310 CAVOK 20/13 Q1014=
201208211620 METAR ESMX 211620Z 28007KT 9999 FEW035 20/12 Q1014=
201208211550 METAR ESMX 211550Z 27008KT 9999 FEW036 21/13 Q1014=
201208211520 METAR ESMX 211520Z 30008KT 260V320 9999 FEW036 21/13 Q1015=
201208211450 METAR ESMX 211450Z 27007KT 230V290 9999 FEW036 22/12 Q1015=
201208211420 METAR ESMX 211420Z 26008KT 220V280 9999 FEW037 22/13 Q1015=
201208211350 METAR ESMX 211350Z 27008KT 230V320 9999 FEW037 22/13 Q1015=
201208211320 METAR ESMX 211320Z 30008KT 270V340 9999 FEW036 22/13 Q1015=
201208211250 METAR ESMX 211250Z 26008KT 210V300 9999 FEW035 22/13 Q1015=
201208211220 METAR ESMX 211220Z 26009KT 230V300 9999 FEW034 22/13 Q1015=
201208211150 METAR ESMX 211150Z 23007KT 170V280 9999 FEW031 22/13 Q1015=
201208211120 METAR ESMX 211120Z 26007KT 230V300 9999 FEW029 SCT033 20/12 Q1016=
201208211050 METAR ESMX 211050Z 28009KT 250V320 9999 SCT028 21/14 Q1016=
201208211020 METAR ESMX 211020Z 30007KT 280V010 9999 SCT029 20/13 Q1016=
201208210950 METAR ESMX 210950Z 25007KT 210V290 9999 SCT024 20/14 Q1016=
201208210920 METAR ESMX 210920Z 28008KT 9999 BKN023 18/13 Q1016=
201208210850 METAR ESMX 210850Z 29006KT 250V330 9999 FEW015 SCT019 18/13 Q1016=
201208210820 METAR ESMX 210820Z 29006KT 250V320 9999 FEW010 BKN018 17/15 Q1016=
201208210750 METAR ESMX 210750Z 28006KT 240V320 9999 FEW011 BKN015 17/15 Q1016=
201208210720 METAR ESMX 210720Z 28005KT 230V310 9999 SCT005 BKN010 17/16 Q1016=
201208210650 METAR ESMX 210650Z 26004KT 230V290 8000 BR OVC004 17/16 Q1016=
201208210620 METAR ESMX 210620Z 24003KT 7000 BR FEW001 SCT003 BKN004 16/16 Q1016=
201208210550 METAR ESMX 210550Z VRB02KT 4000 BR OVC002 16/15 Q1016=
201208210520 METAR ESMX 210520Z VRB02KT 1900 BR OVC002 16/15 Q1016=
201208210450 METAR ESMX 210450Z VRB02KT 2000 BR OVC002 16/15 Q1016=
201208210420 METAR ESMX 210420Z VRB02KT 4400 BR OVC002 16/15 Q1016=
201208210350 METAR ESMX 210350Z 16004KT 120V190 5000 BR OVC003 16/15 Q1015=
201208210320 METAR ESMX 210320Z AUTO 17004KT 3500NDV BR OVC006/// 16/15 Q1016=
201208210250 METAR ESMX 210250Z AUTO 15004KT 120V190 9999NDV FEW006/// SCT008/// OVC009/// 16/14 Q1016 REDZ=
201208210220 METAR ESMX 210220Z AUTO 15004KT 100V180 5000NDV -RA FEW006/// BKN007/// OVC010/// 16/15 Q1016=
201208210150 METAR ESMX 210150Z AUTO 16003KT 110V200 6000NDV BR FEW007/// BKN009/// OVC010/// 16/15 Q1016=
201208210120 METAR ESMX 210120Z AUTO 14004KT 110V170 9999NDV FEW010/// SCT016/// BKN019/// 16/14 Q1016=
201208210050 METAR ESMX 210050Z AUTO 14003KT 080V180 9999NDV OVC024/// 16/14 Q1016=
201208210020 METAR ESMX 210020Z AUTO 13003KT 080V160 9999NDV BKN010/// OVC015/// 17/14 Q1016=
201208202350 METAR ESMX 202350Z 13003KT 080V190 9999 OVC012 17/14 Q1016=
201208202320 METAR ESMX 202320Z 14003KT 080V190 9999 BKN011 OVC016 17/14 Q1016=
201208202250 METAR ESMX 202250Z 13003KT 070V170 9999 OVC010 17/14 Q1016=
201208202220 METAR ESMX 202220Z 09003KT 020V160 9999 BKN012 17/14 Q1016=
201208202150 METAR ESMX 202150Z 12004KT 070V160 9999 BKN011 OVC039 17/14 Q1016=
201208202120 METAR ESMX 202120Z 12004KT 070V170 9999 FEW013 BKN038 17/14 Q1016=
201208202050 METAR ESMX 202050Z 12004KT 070V160 9999 FEW012 SCT015 BKN038 17/14 Q1016=
201208202020 METAR ESMX 202020Z 12004KT 030V200 9999 BKN013 17/14 Q1016=
201208201950 METAR ESMX 201950Z VRB03KT 9999 BKN012 BKN040 17/15 Q1016=
201208201920 METAR ESMX 201920Z 11004KT 060V160 9999 FEW012 SCT016 BKN019 17/14 Q1016=
201208201850 METAR ESMX 201850Z 12006KT 080V190 9999 FEW015 SCT044 BKN075 18/14 Q1016=
201208201820 METAR ESMX 201820Z 12007KT 070V170 9999 FEW016 BKN019 BKN070 18/15 Q1016=
201208201750 METAR ESMX 201750Z 10005KT 060V140 9999 FEW018 SCT020 BKN023 19/15 Q1016=
201208201720 METAR ESMX 201720Z 11004KT 020V170 9999 SCT018 BKN045 19/15 Q1016=
201208201650 METAR ESMX 201650Z 13005KT 070V190 9999 FEW025 OVC051 20/14 Q1015=
201208201620 METAR ESMX 201620Z 13006KT 080V170 9999 FEW027 OVC051 20/14 Q1015=
201208201550 METAR ESMX 201550Z 12007KT 060V200 9999 FEW027 OVC047 20/14 Q1015=
201208201520 METAR ESMX 201520Z 13007KT 080V200 9999 FEW024 SCT033 OVC048 21/15 Q1016=
201208201450 METAR ESMX 201450Z 12008KT 070V170 9999 FEW024 BKN033 21/15 Q1015=
201208201420 METAR ESMX 201420Z 12007KT 070V170 9999 SCT034 OVC047 21/15 Q1015=
201208201350 METAR ESMX 201350Z 10008KT 050V150 9999 FEW020 BKN035 21/15 Q1015=
201208201320 METAR ESMX 201320Z 11007KT 050V170 9999 FEW020 BKN033 20/15 Q1015=
201208201250 METAR ESMX 201250Z 09007KT 040V140 9999 FEW020 SCT037 BKN053 21/16 Q1015=
201208201220 METAR ESMX 201220Z 08008KT 020V140 9999 FEW022 SCT055 21/16 Q1015=
201208201150 METAR ESMX 201150Z 07006KT 030V110 9999 FEW018 BKN026 21/16 Q1016=
201208201120 METAR ESMX 201120Z 11005KT 050V160 9999 FEW025 SCT029 BKN079 22/16 Q1016=
201208201050 METAR ESMX 201050Z 11007KT 050V170 9999 BKN048 22/16 Q1015=
201208201020 METAR ESMX 201020Z 13007KT 080V180 9999 FEW025 SCT054 BKN068 22/16 Q1016=
201208200950 METAR ESMX 200950Z 11007KT 060V160 9999 BKN050 22/15 Q1016=
201208200920 METAR ESMX 200920Z 12006KT 050V180 9999 FEW019 BKN054 21/16 Q1016=
201208200850 METAR ESMX 200850Z 12007KT 060V160 9999 FEW013 SCT017 21/16 Q1016=
201208200820 METAR ESMX 200820Z 11005KT 060V190 9999 FEW011 SCT076 21/17 Q1016=
201208200750 METAR ESMX 200750Z 09005KT 020V140 9999 FEW010 SCT059 20/16 Q1016=
201208200720 METAR ESMX 200720Z 08005KT 350V140 9999 SCT010 19/16 Q1016=
201208200650 METAR ESMX 200650Z 08005KT 010V140 9999 FEW009 SCT068 18/15 Q1016=
201208200620 METAR ESMX 200620Z 09004KT 050V170 CAVOK 17/15 Q1016=
201208200550 METAR ESMX 200550Z 08004KT 040V130 CAVOK 17/15 Q1016=
201208200520 METAR ESMX 200520Z VRB02KT CAVOK 16/15 Q1017=
201208200450 METAR ESMX 200450Z VRB02KT CAVOK 16/15 Q1016=
201208200420 METAR ESMX 200420Z 04003KT 020V080 CAVOK 15/14 Q1016=
201208200350 METAR ESMX 200350Z 04004KT 020V080 CAVOK 15/14 Q1015=
201208200320 METAR ESMX 200320Z AUTO 06001KT 9999NDV NCD 13/12 Q1015=
201208200250 METAR ESMX 200250Z AUTO 19001KT 9999NDV NCD 13/12 Q1016=
201208200220 METAR ESMX 200220Z AUTO 18001KT 9999NDV NCD 13/12 Q1016=
201208200150 METAR ESMX 200150Z AUTO 03001KT 9999NDV NCD 12/11 Q1016=
201208200120 METAR ESMX 200120Z AUTO 18001KT 9999NDV NCD 11/11 Q1016=
201208200050 METAR ESMX 200050Z AUTO 18001KT 9999NDV NCD 12/11 Q1016=
201208200020 METAR ESMX 200020Z AUTO 30001KT 9999NDV NCD 13/12 Q1016=
201208192350 METAR ESMX 192350Z AUTO 18001KT 9999NDV NCD 13/12 Q1016=
201208192320 METAR ESMX 192320Z 00000KT CAVOK 12/11 Q1016=
201208192250 METAR ESMX 192250Z 00000KT CAVOK 13/12 Q1016=
201208192220 METAR ESMX 192220Z 26003KT CAVOK 13/12 Q1016=
201208192150 METAR ESMX 192150Z 26002KT CAVOK 14/12 Q1016=
201208192120 METAR ESMX 192120Z VRB02KT CAVOK 15/12 Q1016=
201208192050 METAR ESMX 192050Z VRB02KT CAVOK 16/13 Q1016=
201208192020 METAR ESMX 192020Z 27003KT CAVOK 16/13 Q1016=
201208191950 METAR ESMX 191950Z VRB02KT CAVOK 18/14 Q1016=
201208191920 METAR ESMX 191920Z 26003KT CAVOK 18/13 Q1016=
201208191850 METAR ESMX 191850Z VRB02KT CAVOK 19/14 Q1016=
201208191820 METAR ESMX 191820Z 28003KT 250V320 CAVOK 21/14 Q1015=
201208191750 METAR ESMX 191750Z 27006KT 230V300 CAVOK 22/13 Q1015=
201208191720 METAR ESMX 191720Z 28006KT 230V320 CAVOK 24/13 Q1015=
201208191650 METAR ESMX 191650Z 25008KT 210V290 CAVOK 24/13 Q1015=
201208191620 METAR ESMX 191620Z 28009KT CAVOK 25/12 Q1015=
201208191550 METAR ESMX 191550Z 26009KT 210V290 CAVOK 25/13 Q1015=
201208191520 METAR ESMX 191520Z 23010KT 200V260 CAVOK 24/12 Q1015=
201208191450 METAR ESMX 191450Z 27010KT 240V300 CAVOK 25/12 Q1015=
201208191420 METAR ESMX 191420Z 28011KT 240V320 CAVOK 25/11 Q1015=
201208191350 METAR ESMX 191350Z 27012KT 250V310 CAVOK 27/13 Q1015=
201208191320 METAR ESMX 191320Z 26011KT 200V290 CAVOK 27/15 Q1015=
201208191250 METAR ESMX 191250Z 27011KT 230V300 CAVOK 26/14 Q1015=
201208191220 METAR ESMX 191220Z 25011KT 210V280 CAVOK 26/15 Q1015=
201208191150 METAR ESMX 191150Z AUTO 26011KT 230V290 9999NDV NCD 27/16 Q1015=
201208191120 METAR ESMX 191120Z AUTO 25011KT 220V280 9999NDV NCD 26/16 Q1015=
201208191050 METAR ESMX 191050Z AUTO 24010KT 210V280 9999NDV NCD 26/17 Q1015=
201208191020 METAR ESMX 191020Z AUTO 27010KT 9999NDV FEW068/// 25/17 Q1015=
201208190950 METAR ESMX 190950Z AUTO 24010KT 9999NDV FEW099/// 24/17 Q1015=
201208190920 METAR ESMX 190920Z AUTO 25009KT 210V280 9999NDV FEW100/// 23/16 Q1015=
201208190850 METAR ESMX 190850Z AUTO 25009KT 210V280 9999NDV NCD 23/16 Q1015=
201208190820 METAR ESMX 190820Z AUTO 24009KT 9999NDV NCD 23/16 Q1015=
201208190750 METAR ESMX 190750Z AUTO 23010KT 9999NDV NCD 22/15 Q1015=
201208190720 METAR ESMX 190720Z AUTO 23009KT 190V250 9999NDV NCD 22/15 Q1015=
201208190650 METAR ESMX 190650Z AUTO 21008KT 9999NDV NCD 21/15 Q1016=
201208190620 METAR ESMX 190620Z AUTO 21008KT 9999NDV FEW100/// 20/14 Q1016=
201208190550 METAR ESMX 190550Z AUTO 20009KT 9999NDV NCD 19/14 Q1016=
201208190520 METAR ESMX 190520Z AUTO 20009KT 9999NDV NCD 19/14 Q1016=
201208190450 METAR ESMX 190450Z AUTO 20009KT 9999NDV FEW100/// 18/14 Q1016=
201208190420 METAR ESMX 190420Z AUTO 19007KT 9999NDV FEW097/// 18/14 Q1016=
201208190350 METAR ESMX 190350Z AUTO 20007KT 9999NDV NCD 17/14 Q1017=
201208190320 METAR ESMX 190320Z AUTO 20007KT 9999NDV NCD 18/14 Q1017=
201208190250 METAR ESMX 190250Z AUTO 19007KT 9999NDV NCD 18/14 Q1017=
201208190220 METAR ESMX 190220Z AUTO 20005KT 9999NDV NCD 17/14 Q1018=
201208190150 METAR ESMX 190150Z AUTO 20006KT 9999NDV FEW100/// 17/14 Q1018=
201208190120 METAR ESMX 190120Z AUTO 20007KT 9999NDV NCD 18/15 Q1018=
201208190050 METAR ESMX 190050Z AUTO 20006KT 9999NDV NCD 17/15 Q1018=
201208190020 METAR ESMX 190020Z AUTO 19005KT 9999NDV NCD 18/15 Q1018=
201208182350 METAR ESMX 182350Z AUTO 19005KT 9999NDV FEW100/// 18/15 Q1018=
201208182320 METAR ESMX 182320Z AUTO 17003KT 9999NDV FEW110/// 18/16 Q1019=
201208182250 METAR ESMX 182250Z AUTO 16004KT 120V190 9999NDV BKN110/// 17/16 Q1019=
201208182220 METAR ESMX 182220Z AUTO 17003KT 9999NDV NCD 16/15 Q1019=
201208182150 METAR ESMX 182150Z AUTO VRB02KT 9999NDV FEW100/// 16/15 Q1019=
201208182120 METAR ESMX 182120Z AUTO 17002KT 9999NDV SCT100/// 16/15 Q1019=
201208182050 METAR ESMX 182050Z AUTO 17001KT 9999NDV BKN100/// 16/15 Q1019=
201208182020 METAR ESMX 182020Z AUTO 18003KT 9999NDV NCD 17/15 Q1019=
201208181950 METAR ESMX 181950Z AUTO 20001KT 9999NDV FEW100/// 18/16 Q1019=
201208181920 METAR ESMX 181920Z AUTO 20002KT 9999NDV FEW100/// 18/16 Q1020=
201208181850 METAR ESMX 181850Z AUTO 17002KT 9999NDV FEW100/// 19/16 Q1019=
201208181820 METAR ESMX 181820Z AUTO 20002KT 9999NDV NCD 20/16 Q1019=
201208181750 METAR ESMX 181750Z AUTO 23004KT 9999NDV FEW100/// 21/15 Q1019=
201208181720 METAR ESMX 181720Z AUTO 25005KT 9999NDV BKN054/// 23/15 Q1019=
201208181650 METAR ESMX 181650Z AUTO 25005KT 200V280 9999NDV OVC055/// 23/16 Q1019=
201208181620 METAR ESMX 181620Z AUTO 25005KT 200V290 9999NDV OVC061/// 23/16 Q1019=
201208181550 METAR ESMX 181550Z AUTO 25007KT 200V290 9999NDV SCT056/// 23/16 Q1019=
201208181520 METAR ESMX 181520Z AUTO 24008KT 190V280 9999NDV BKN052/// 23/16 Q1019=
201208181450 METAR ESMX 181450Z AUTO 22007KT 9999NDV OVC052/// 23/16 Q1019=
201208181420 METAR ESMX 181420Z AUTO 24007KT 210V270 9999NDV BKN053/// 22/16 Q1019=
201208181350 METAR ESMX 181350Z AUTO 22008KT 200V260 9999NDV OVC046/// 23/16 Q1019=
201208181320 METAR ESMX 181320Z AUTO 21009KT 160V240 9999NDV BKN043/// BKN060/// 22/16 Q1019=
201208181250 METAR ESMX 181250Z AUTO 19008KT 140V210 9999NDV BKN044/// 21/16 Q1019=
201208181220 METAR ESMX 181220Z AUTO 22010KT 9999NDV FEW038/// BKN046/// 21/16 Q1020=
201208181150 METAR ESMX 181150Z AUTO 15006KT 110V180 9999NDV BKN048/// 19/15 Q1020=
201208181120 METAR ESMX 181120Z AUTO 17007KT 140V200 9999NDV OVC044/// 18/15 Q1020=
201208181050 METAR ESMX 181050Z AUTO 15005KT 120V190 9999NDV BKN043/// 17/15 Q1020=
201208181020 METAR ESMX 181020Z AUTO 15004KT 110V200 9999NDV FEW036/// SCT049/// 17/15 Q1020=
201208180950 METAR ESMX 180950Z AUTO 17005KT 120V200 9999NDV FEW035/// BKN044/// 17/14 Q1021=
201208180920 METAR ESMX 180920Z AUTO 16004KT 9999NDV FEW022/// SCT043/// BKN050/// 17/14 Q1021=
201208180850 METAR ESMX 180850Z AUTO 20004KT 9999NDV -DZ FEW043/// SCT066/// 16/14 Q1021=
201208180820 METAR ESMX 180820Z AUTO 17003KT 130V200 9999NDV -RA FEW078/// 16/14 Q1021 RESHRA REDZ=
201208180750 METAR ESMX 180750Z VRB02KT 9999 -RA FEW030 BKN070 15/14 Q1021=
201208180720 METAR ESMX 180720Z AUTO VRB02KT 9999NDV -RA FEW083/// 15/13 Q1021=
201208180650 METAR ESMX 180650Z AUTO VRB01KT 9999NDV SCT084/// BKN100/// 15/12 Q1021=
201208180620 METAR ESMX 180620Z AUTO 17002KT 9999NDV FEW092/// 15/12 Q1021=
201208180550 METAR ESMX 180550Z AUTO 17003KT 9999NDV FEW088/// 14/12 Q1021=
201208180520 METAR ESMX 180520Z AUTO 16002KT 9999NDV FEW097/// 14/12 Q1021=
201208180450 METAR ESMX 180450Z AUTO 19001KT 9999NDV FEW095/// 12/11 Q1021=
201208180420 METAR ESMX 180420Z AUTO 17001KT 9999NDV FEW097/// SCT110/// 12/11 Q1021=
201208180350 METAR ESMX 180350Z AUTO 20003KT 9999NDV FEW110/// 11/11 Q1021=
201208180320 METAR ESMX 180320Z AUTO 19002KT 9999NDV NCD 11/10 Q1021=
201208180250 METAR ESMX 180250Z AUTO 19003KT 9999NDV NCD 11/10 Q1021=
201208180220 METAR ESMX 180220Z AUTO 17002KT 9999NDV NCD 11/10 Q1021=
201208180150 METAR ESMX 180150Z AUTO 18002KT 9999NDV NCD 11/10 Q1021=
201208180120 METAR ESMX 180120Z AUTO 18003KT 9999NDV NCD 10/09 Q1021=
201208180050 METAR ESMX 180050Z AUTO 25002KT 9999NDV NCD 10/09 Q1021=
201208180020 METAR ESMX 180020Z AUTO 00000KT 9999NDV NCD 10/09 Q1021=
201208172350 METAR ESMX 172350Z AUTO 26002KT 9999NDV NCD 10/09 Q1021=
201208172320 METAR ESMX 172320Z AUTO 17003KT 9999NDV NCD 10/09 Q1021=
201208172250 METAR ESMX 172250Z AUTO 20002KT 9999NDV NCD 10/09 Q1021=
201208172220 METAR ESMX 172220Z AUTO 17002KT 9999NDV NCD 11/10 Q1021=
201208172150 METAR ESMX 172150Z AUTO 22001KT 9999NDV NCD 11/10 Q1021=
201208172120 METAR ESMX 172120Z AUTO 24001KT 9999NDV NCD 13/11 Q1021=
201208172050 METAR ESMX 172050Z AUTO 25002KT 9999NDV NCD 13/11 Q1021=
201208172020 METAR ESMX 172020Z AUTO 25003KT 9999NDV NCD 13/10 Q1021=
201208171950 METAR ESMX 171950Z AUTO 25003KT 9999NDV NCD 14/10 Q1021=
201208171920 METAR ESMX 171920Z AUTO 25003KT 9999NDV NCD 15/11 Q1021=
201208171850 METAR ESMX 171850Z 26003KT CAVOK 17/11 Q1020=
201208171820 METAR ESMX 171820Z 27005KT CAVOK 18/12 Q1020=
201208171750 METAR ESMX 171750Z 26006KT 240V310 CAVOK 20/12 Q1020=
201208171720 METAR ESMX 171720Z 28006KT CAVOK 21/12 Q1020=
201208171650 METAR ESMX 171650Z 28008KT 250V330 CAVOK 22/11 Q1020=
201208171620 METAR ESMX 171620Z 27009KT CAVOK 22/11 Q1020=
201208171550 METAR ESMX 171550Z 28008KT 230V300 CAVOK 23/10 Q1020=
201208171520 METAR ESMX 171520Z 30007KT CAVOK 22/10 Q1019=
201208171450 METAR ESMX 171450Z 24006KT 200V290 9999 FEW048 23/12 Q1020=
201208171420 METAR ESMX 171420Z 23007KT 200V260 9999 FEW049 23/12 Q1020=
201208171350 METAR ESMX 171350Z 24005KT 210V280 9999 SCT046 23/11 Q1020=
201208171320 METAR ESMX 171320Z 23006KT 190V270 9999 FEW045 23/12 Q1019=
201208171250 METAR ESMX 171250Z 26005KT 200V290 9999 FEW041 22/11 Q1020=
201208171220 METAR ESMX 171220Z 26006KT 200V290 9999 SCT035 22/12 Q1020=
201208171150 METAR ESMX 171150Z 27005KT 220V320 9999 FEW035 SCT040 22/12 Q1020=
201208171120 METAR ESMX 171120Z 28007KT 210V300 9999 SCT035 22/12 Q1020=
201208171050 METAR ESMX 171050Z VRB05KT 9999 FEW033 22/13 Q1020=
201208171020 METAR ESMX 171020Z 27004KT 210V320 9999 FEW031 21/13 Q1020=
201208170950 METAR ESMX 170950Z 24006KT 210V280 CAVOK 20/13 Q1020=
201208170920 METAR ESMX 170920Z 29005KT 260V330 CAVOK 21/13 Q1020=
201208170850 METAR ESMX 170850Z 31006KT 260V340 CAVOK 20/13 Q1020=
201208170820 METAR ESMX 170820Z 25005KT 210V280 CAVOK 20/13 Q1020=
201208170750 METAR ESMX 170750Z 32006KT 290V350 CAVOK 19/13 Q1020=
201208170720 METAR ESMX 170720Z 32006KT 280V360 CAVOK 19/12 Q1019=
201208170650 METAR ESMX 170650Z 29005KT 260V320 CAVOK 18/12 Q1019=
201208170620 METAR ESMX 170620Z 27003KT CAVOK 16/12 Q1019=
201208170550 METAR ESMX 170550Z VRB02KT CAVOK 15/12 Q1019=
201208170520 METAR ESMX 170520Z 18001KT CAVOK 12/11 Q1019=
201208170450 METAR ESMX 170450Z VRB01KT CAVOK 11/10 Q1019=
201208170420 METAR ESMX 170420Z 27003KT 9999 BCFG NSC 11/10 Q1019=
201208170350 METAR ESMX 170350Z VRB01KT CAVOK 12/10 Q1019=
201208170320 METAR ESMX 170320Z AUTO 25003KT 9999NDV NCD 12/10 Q1019=
201208170250 METAR ESMX 170250Z AUTO 26003KT 9999NDV NCD 13/11 Q1019=
201208170220 METAR ESMX 170220Z AUTO 27003KT 9999NDV NCD 14/11 Q1019=
201208170150 METAR ESMX 170150Z AUTO 25002KT 9999NDV SCT089/// 14/12 Q1019=
201208170120 METAR ESMX 170120Z AUTO 25003KT 9999NDV BKN077/// 15/12 Q1019=
201208170050 METAR ESMX 170050Z AUTO 25003KT 210V280 9999NDV FEW067/// OVC085/// 15/13 Q1019=
201208170020 METAR ESMX 170020Z 22004KT CAVOK 15/13 Q1019=
201208162350 METAR ESMX 162350Z 22004KT CAVOK 15/13 Q1019=
201208162320 METAR ESMX 162320Z 21005KT CAVOK 16/14 Q1019=
201208162250 METAR ESMX 162250Z 19004KT CAVOK 16/14 Q1019=
201208162220 METAR ESMX 162220Z 20003KT CAVOK 17/14 Q1019=
201208162150 METAR ESMX 162150Z 18005KT CAVOK 17/14 Q1019=
201208162120 METAR ESMX 162120Z 21004KT 180V240 CAVOK 17/14 Q1018=
201208162050 METAR ESMX 162050Z 16006KT CAVOK 17/15 Q1018=
201208162020 METAR ESMX 162020Z 18006KT CAVOK 18/15 Q1018=
201208161950 METAR ESMX 161950Z 16005KT 9999 FEW042 SCT060 BKN097 18/15 Q1018=
201208161920 METAR ESMX 161920Z 16004KT 9999 SCT038 BKN047 18/15 Q1018=
201208161850 METAR ESMX 161850Z 16005KT 9999 FEW038 BKN096 19/15 Q1018=
201208161820 METAR ESMX 161820Z 14004KT 110V170 9999 FEW047 SCT060 BKN097 19/15 Q1018=
201208161750 METAR ESMX 161750Z 16005KT 120V190 9999 SCT044 20/14 Q1018=
201208161720 METAR ESMX 161720Z VRB02KT 9999 FEW041 20/14 Q1017=
201208161650 METAR ESMX 161650Z 12003KT 070V160 9999 FEW035 21/14 Q1018=
201208161620 METAR ESMX 161620Z 13003KT 090V170 9999 FEW035 21/14 Q1018=
201208161550 METAR ESMX 161550Z 12003KT 080V190 9999 FEW035 22/13 Q1018=
201208161520 METAR ESMX 161520Z VRB03KT 9999 FEW035 23/15 Q1018=
201208161450 METAR ESMX 161450Z 04004KT 010V070 9999 FEW035 21/14 Q1017=
201208161420 METAR ESMX 161420Z 06006KT 030V120 9999 FEW030 22/14 Q1017=
201208161350 METAR ESMX 161350Z 08003KT 030V110 9999 FEW030 21/14 Q1017=
201208161320 METAR ESMX 161320Z 07006KT 030V110 9999 SCT030 21/14 Q1017=
201208161250 METAR ESMX 161250Z 06005KT 020V100 9999 SCT030 22/14 Q1018=
201208161220 METAR ESMX 161220Z 10004KT 050V140 9999 SCT030 22/14 Q1018=
201208161150 METAR ESMX 161150Z 06005KT 020V110 9999 SCT028 22/14 Q1018=
201208161120 METAR ESMX 161120Z 10005KT 030V160 9999 SCT025 BKN030 22/14 Q1018=
201208161050 METAR ESMX 161050Z 10007KT 050V150 9999 BKN030 21/13 Q1018=
201208161020 METAR ESMX 161020Z 11007KT 050V160 9999 BKN030 22/14 Q1018=
201208160950 METAR ESMX 160950Z 03005KT 360V060 9999 SCT030 SCT060 20/13 Q1018=
201208160920 METAR ESMX 160920Z 07004KT 010V140 9999 SCT030 BKN045 20/13 Q1018=
201208160850 METAR ESMX 160850Z 05007KT 010V090 9999 SCT030 20/13 Q1018=
201208160820 METAR ESMX 160820Z 06005KT 020V090 CAVOK 20/13 Q1018=
201208160750 METAR ESMX 160750Z 04005KT 360V070 CAVOK 18/13 Q1018=
201208160720 METAR ESMX 160720Z 02005KT 350V070 CAVOK 17/13 Q1018=
201208160650 METAR ESMX 160650Z 02005KT 350V050 CAVOK 16/12 Q1018=
201208160620 METAR ESMX 160620Z 05005KT 020V090 CAVOK 16/13 Q1018=
201208160550 METAR ESMX 160550Z 03004KT 350V060 CAVOK 13/12 Q1018=
201208160520 METAR ESMX 160520Z 02005KT CAVOK 12/11 Q1018=
201208160450 METAR ESMX 160450Z 35003KT CAVOK 07/07 Q1018=
201208160420 METAR ESMX 160420Z 36002KT 9999 BCFG NSC 06/05 Q1018=
201208160350 METAR ESMX 160350Z 36001KT 1000 R01/P2000N R19/P2000N MIFG NSC 06/06 Q1018=
201208160320 METAR ESMX 160320Z AUTO 02001KT 5000NDV NCD 06/05 Q1018=
201208160250 METAR ESMX 160250Z AUTO 31001KT 2300NDV NCD 07/06 Q1018=
201208160220 METAR ESMX 160220Z AUTO 36001KT 0200NDV R01/0500V1200 R19/P2000N FG NCD 07/06 Q1018=
201208160150 METAR ESMX 160150Z AUTO 00000KT 3600NDV NCD 06/06 Q1018=
201208160120 METAR ESMX 160120Z AUTO 04002KT 0650NDV R01/P2000N R19/P2000 BCFG NCD 07/07 Q1018=
201208160050 METAR ESMX 160050Z AUTO VRB01KT 1500NDV BR NCD 07/07 Q1018=
201208160020 METAR ESMX 160020Z AUTO 00000KT 9999NDV NCD 07/07 Q1018=
201208152350 METAR ESMX 152350Z 00000KT CAVOK 08/07 Q1018=
201208152320 METAR ESMX 152320Z 00000KT CAVOK 08/07 Q1018=
201208152250 METAR ESMX 152250Z 00000KT CAVOK 08/08 Q1018=
201208152220 METAR ESMX 152220Z 00000KT CAVOK 09/08 Q1018=
201208152150 METAR ESMX 152150Z 00000KT CAVOK 09/08 Q1018=
201208152120 METAR ESMX 152120Z 00000KT CAVOK 10/09 Q1018=
201208152050 METAR ESMX 152050Z VRB01KT CAVOK 11/09 Q1018=
201208152020 METAR ESMX 152020Z 08002KT CAVOK 12/10 Q1018=
201208151950 METAR ESMX 151950Z VRB02KT CAVOK 14/10 Q1018=
201208151920 METAR ESMX 151920Z 08002KT CAVOK 15/11 Q1018=
201208151850 METAR ESMX 151850Z 07002KT CAVOK 17/10 Q1018=
201208151820 METAR ESMX 151820Z 07003KT 030V100 CAVOK 19/10 Q1018=
201208151750 METAR ESMX 151750Z 05004KT 010V090 CAVOK 20/10 Q1017=
201208151720 METAR ESMX 151720Z 04004KT 010V080 CAVOK 21/09 Q1018=
201208151650 METAR ESMX 151650Z 03006KT 350V080 CAVOK 22/09 Q1017=
201208151620 METAR ESMX 151620Z 05008KT 020V080 CAVOK 22/09 Q1018=
201208151550 METAR ESMX 151550Z 05006KT 010V080 CAVOK 23/09 Q1018=
201208151520 METAR ESMX 151520Z 05006KT 010V080 CAVOK 23/10 Q1018=
201208151450 METAR ESMX 151450Z 04008KT 010V090 CAVOK 23/10 Q1018=
201208151420 METAR ESMX 151420Z 04007KT 010V080 CAVOK 23/09 Q1018=
201208151350 METAR ESMX 151350Z 04007KT 340V080 CAVOK 23/10 Q1018=
201208151320 METAR ESMX 151320Z 01008KT 330V060 CAVOK 23/10 Q1018=
201208151250 METAR ESMX 151250Z 01007KT 320V040 CAVOK 23/10 Q1018=
201208151220 METAR ESMX 151220Z 02009KT 340V060 CAVOK 23/11 Q1018=
201208151150 METAR ESMX 151150Z 05007KT 010V100 9999 FEW044 SCT050 22/10 Q1018=
201208151120 METAR ESMX 151120Z 03008KT 340V060 9999 FEW040 20/11 Q1019=
201208151050 METAR ESMX 151050Z 02008KT 340V070 9999 FEW040 21/11 Q1019=
201208151020 METAR ESMX 151020Z 05008KT 360V090 CAVOK 21/11 Q1019=
201208150950 METAR ESMX 150950Z 04012KT CAVOK 20/11 Q1019=
201208150920 METAR ESMX 150920Z 05008KT 360V100 CAVOK 20/12 Q1019=
201208150850 METAR ESMX 150850Z 01007KT 330V040 CAVOK 19/12 Q1019=
201208150820 METAR ESMX 150820Z 02007KT 350V070 CAVOK 18/12 Q1019=
201208150750 METAR ESMX 150750Z 03007KT CAVOK 17/12 Q1019=
201208150720 METAR ESMX 150720Z 03007KT 350V060 CAVOK 16/12 Q1019=
201208150650 METAR ESMX 150650Z 01007KT CAVOK 15/11 Q1019=
201208150620 METAR ESMX 150620Z 01006KT CAVOK 14/10 Q1019=
201208150550 METAR ESMX 150550Z 36007KT CAVOK 13/10 Q1019=
201208150520 METAR ESMX 150520Z 02008KT CAVOK 13/10 Q1019=
201208150450 METAR ESMX 150450Z 02007KT CAVOK 13/10 Q1019=
201208150420 METAR ESMX 150420Z 02007KT CAVOK 12/09 Q1019=
201208150350 METAR ESMX 150350Z 36007KT CAVOK 11/09 Q1019=
201208150320 METAR ESMX 150320Z AUTO 35007KT 9999NDV NCD 11/09 Q1019=
201208150250 METAR ESMX 150250Z AUTO 36006KT 9999NDV NCD 11/09 Q1019=
201208150220 METAR ESMX 150220Z AUTO 35006KT 9999NDV NCD 10/09 Q1019=
201208150150 METAR ESMX 150150Z AUTO 35005KT 330V030 9999NDV NCD 09/08 Q1019=
201208150120 METAR ESMX 150120Z AUTO 34002KT 9999NDV NCD 11/09 Q1019=
201208150050 METAR ESMX 150050Z AUTO 35005KT 9999NDV NCD 11/09 Q1019=
201208150020 METAR ESMX 150020Z AUTO 35003KT 9999NDV NCD 11/09 Q1020=
201208142350 METAR ESMX 142350Z 35004KT CAVOK 11/09 Q1020=
201208142320 METAR ESMX 142320Z 02004KT CAVOK 12/10 Q1020=
201208142250 METAR ESMX 142250Z 34004KT CAVOK 12/09 Q1020=
201208142220 METAR ESMX 142220Z 35004KT CAVOK 12/09 Q1020=
201208142150 METAR ESMX 142150Z 03004KT 360V060 CAVOK 14/10 Q1020=
201208142120 METAR ESMX 142120Z 03005KT CAVOK 14/10 Q1020=
201208142050 METAR ESMX 142050Z 04005KT CAVOK 14/10 Q1020=
201208142020 METAR ESMX 142020Z 03005KT CAVOK 15/10 Q1020=
201208141950 METAR ESMX 141950Z 04006KT 010V070 CAVOK 15/10 Q1020=
201208141920 METAR ESMX 141920Z 03005KT CAVOK 16/11 Q1020=
201208141850 METAR ESMX 141850Z 03005KT CAVOK 16/11 Q1020=
201208141820 METAR ESMX 141820Z 03006KT 010V070 9999 FEW040 17/11 Q1020=
201208141750 METAR ESMX 141750Z 03006KT 350V060 9999 FEW038 17/11 Q1019=
201208141720 METAR ESMX 141720Z 04007KT 9999 FEW040 18/10 Q1020=
201208141650 METAR ESMX 141650Z 05006KT 010V100 9999 FEW040 19/10 Q1020=
201208141620 METAR ESMX 141620Z 05007KT 020V120 9999 FEW040 20/11 Q1019=
201208141550 METAR ESMX 141550Z 05006KT 010V080 CAVOK 19/10 Q1019=
201208141520 METAR ESMX 141520Z 04007KT 010V080 CAVOK 19/09 Q1019=
201208141450 METAR ESMX 141450Z 03008KT 350V080 9999 FEW041 20/10 Q1019=
201208141420 METAR ESMX 141420Z 05006KT 020V090 9999 FEW041 21/10 Q1019=
201208141350 METAR ESMX 141350Z 05007KT 010V080 9999 FEW041 20/10 Q1020=
201208141320 METAR ESMX 141320Z 04008KT 010V070 9999 FEW042 20/10 Q1020=
201208141250 METAR ESMX 141250Z 05006KT 320V080 9999 FEW040 20/10 Q1020=
201208141220 METAR ESMX 141220Z 02010KT 9999 SCT036 20/11 Q1020=
201208141150 METAR ESMX 141150Z 05006KT 020V110 9999 SCT038 19/10 Q1020=
201208141120 METAR ESMX 141120Z 05008KT 010V080 9999 SCT039 19/10 Q1020=
201208141050 METAR ESMX 141050Z 03008KT 360V060 9999 SCT038 18/10 Q1021=
201208141020 METAR ESMX 141020Z 03009KT 340V060 9999 SCT039 18/10 Q1021=
201208140950 METAR ESMX 140950Z 03006KT 340V100 9999 FEW027 SCT038 18/10 Q1021=
201208140920 METAR ESMX 140920Z 05006KT 360V080 9999 FEW021 BKN023 16/11 Q1021=
201208140850 METAR ESMX 140850Z 04008KT 010V080 9999 FEW017 BKN020 17/12 Q1021=
201208140820 METAR ESMX 140820Z 05008KT 020V090 9999 BKN015 16/12 Q1021=
201208140750 METAR ESMX 140750Z 05007KT 020V090 9999 BKN014 16/12 Q1021=
201208140720 METAR ESMX 140720Z 04007KT 360V080 9999 FEW015 BKN026 15/12 Q1021=
201208140650 METAR ESMX 140650Z 03007KT 360V060 9999 FEW016 BKN024 14/11 Q1021=
201208140620 METAR ESMX 140620Z 01006KT 340V040 9999 FEW016 13/11 Q1021=
201208140550 METAR ESMX 140550Z 02005KT CAVOK 12/10 Q1021=
201208140520 METAR ESMX 140520Z 01006KT CAVOK 11/10 Q1021=
201208140450 METAR ESMX 140450Z 01005KT CAVOK 11/10 Q1021=
201208140420 METAR ESMX 140420Z 36005KT CAVOK 10/09 Q1021=
201208140350 METAR ESMX 140350Z 02005KT 9999 FEW024 11/09 Q1021=
201208140320 METAR ESMX 140320Z AUTO 01006KT 9999NDV FEW027/// BKN030/// 11/09 Q1022=
201208140250 METAR ESMX 140250Z AUTO 02004KT 9999NDV BKN033/// 11/09 Q1022=
201208140220 METAR ESMX 140220Z AUTO 01003KT 9999NDV OVC033/// 11/09 Q1022=
201208140150 METAR ESMX 140150Z AUTO 02004KT 9999NDV BKN034/// 11/09 Q1022=
201208140120 METAR ESMX 140120Z AUTO 02005KT 9999NDV BKN034/// 11/09 Q1022=
201208140050 METAR ESMX 140050Z AUTO 02004KT 9999NDV SCT033/// 10/09 Q1022=
201208140020 METAR ESMX 140020Z AUTO 02005KT 9999NDV SCT034/// 11/09 Q1022=
201208132350 METAR ESMX 132350Z 02004KT CAVOK 10/08 Q1022=
201208132320 METAR ESMX 132320Z 03004KT CAVOK 11/09 Q1022=
201208132250 METAR ESMX 132250Z 03005KT CAVOK 11/09 Q1023=
201208132220 METAR ESMX 132220Z 03004KT CAVOK 12/09 Q1023=
201208132150 METAR ESMX 132150Z 04004KT 010V070 CAVOK 12/09 Q1023=
201208132120 METAR ESMX 132120Z 04005KT 350V080 CAVOK 12/09 Q1023=
201208132050 METAR ESMX 132050Z 04004KT 360V080 CAVOK 13/09 Q1023=
201208132020 METAR ESMX 132020Z 04004KT 360V090 CAVOK 13/09 Q1023=
201208131950 METAR ESMX 131950Z 04004KT 360V080 CAVOK 14/09 Q1023=
201208131920 METAR ESMX 131920Z 07004KT 030V110 CAVOK 14/08 Q1022=
201208131850 METAR ESMX 131850Z 08003KT 030V140 CAVOK 15/08 Q1022=
201208131820 METAR ESMX 131820Z 09004KT 030V140 CAVOK 16/08 Q1022=
201208131750 METAR ESMX 131750Z 08005KT 030V140 CAVOK 17/08 Q1022=
201208131720 METAR ESMX 131720Z 06005KT 010V130 CAVOK 18/08 Q1022=
201208131650 METAR ESMX 131650Z 05006KT 020V100 9999 FEW044 19/09 Q1022=
201208131620 METAR ESMX 131620Z 08005KT 020V120 9999 FEW044 18/09 Q1022=
201208131550 METAR ESMX 131550Z VRB06KT 9999 FEW043 19/09 Q1022=
201208131520 METAR ESMX 131520Z 06007KT 020V110 9999 FEW044 19/09 Q1022=
201208131450 METAR ESMX 131450Z 07005KT 010V110 9999 FEW040 20/10 Q1022=
201208131420 METAR ESMX 131420Z 07007KT 030V120 9999 FEW041 20/09 Q1022=
201208131350 METAR ESMX 131350Z 09007KT 050V130 9999 FEW037 19/10 Q1022=
201208131320 METAR ESMX 131320Z 09007KT 030V120 9999 FEW037 20/10 Q1022=
201208131250 METAR ESMX 131250Z 07006KT 020V170 9999 FEW032 SCT038 20/11 Q1023=
201208131220 METAR ESMX 131220Z 06006KT 010V120 9999 FEW032 BKN058 19/11 Q1023=
201208131150 METAR ESMX 131150Z 06008KT 020V100 9999 SCT033 18/11 Q1023=
201208131120 METAR ESMX 131120Z 05005KT 020V120 9999 FEW040 SCT059 19/11 Q1023=
201208131050 METAR ESMX 131050Z 05006KT 350V110 9999 FEW030 BKN060 18/11 Q1023=
201208131020 METAR ESMX 131020Z 06006KT 010V130 9999 FEW034 BKN055 18/11 Q1023=
201208130950 METAR ESMX 130950Z 07005KT 010V130 9999 BKN031 18/11 Q1023=
201208130920 METAR ESMX 130920Z 02004KT 310V060 CAVOK 18/10 Q1023=
201208130850 METAR ESMX 130850Z 36004KT 300V040 CAVOK 18/10 Q1023=
201208130820 METAR ESMX 130820Z 04003KT 330V140 CAVOK 18/10 Q1023=
201208130750 METAR ESMX 130750Z 05004KT 300V070 CAVOK 17/10 Q1023=
201208130720 METAR ESMX 130720Z 08003KT 030V140 CAVOK 17/10 Q1023=
201208130650 METAR ESMX 130650Z VRB02KT CAVOK 16/10 Q1023=
201208130620 METAR ESMX 130620Z VRB02KT CAVOK 16/12 Q1023=
201208130550 METAR ESMX 130550Z 00000KT CAVOK 14/13 Q1023=
201208130450 METAR ESMX 130450Z 19001KT 9999 R19/2000 BCFG FEW200 08/08 Q1023=
201208130420 METAR ESMX 130420Z 00000KT 0250 R01/P2000N R19/0500 BCFG FEW200 07/06 Q1023=
201208130350 METAR ESMX 130350Z 00000KT 0750 R01/P2000 R19/P2000N BCFG SCT200 07/06 Q1023=
201208130320 METAR ESMX 130320Z AUTO 00000KT 0300NDV R01/0500 R19/P2000N FG NCD 07/07 Q1023=
201208130250 METAR ESMX 130250Z AUTO 17002KT 0750NDV R01/P2000D R19/P2000N FG NCD 07/07 Q1023=
201208130220 METAR ESMX 130220Z AUTO 18001KT 0300NDV R01/0800VP2000 R19/P2000N FG NCD 08/07 Q1023=
201208130150 METAR ESMX 130150Z AUTO 17002KT 0750NDV R01/P2000N R19/P2000 FG NCD 08/08 Q1023=
201208130120 METAR ESMX 130120Z AUTO 17002KT 9999NDV NCD 09/08 Q1023=
201208130050 METAR ESMX 130050Z AUTO 20001KT 3000NDV BR NCD 09/08 Q1023=
201208130020 METAR ESMX 130020Z AUTO 00000KT 2000NDV BR NCD 10/10 Q1023=
201208122350 METAR ESMX 122350Z AUTO 00000KT 5000NDV NCD 11/10 Q1023=
201208122320 METAR ESMX 122320Z AUTO 16003KT 9999NDV FEW087/// 12/11 Q1023=
201208122250 METAR ESMX 122250Z 17002KT CAVOK 13/11 Q1023=
201208122220 METAR ESMX 122220Z 17002KT CAVOK 14/12 Q1023=
201208122150 METAR ESMX 122150Z VRB01KT CAVOK 14/12 Q1023=
201208122120 METAR ESMX 122120Z 16003KT CAVOK 15/13 Q1022=
201208122050 METAR ESMX 122050Z 17003KT CAVOK 15/13 Q1022=
201208122020 METAR ESMX 122020Z VRB02KT CAVOK 16/12 Q1022=
201208121950 METAR ESMX 121950Z VRB02KT CAVOK 16/12 Q1022=
201208121920 METAR ESMX 121920Z 11002KT CAVOK 16/12 Q1022=
201208121850 METAR ESMX 121850Z 10003KT 060V140 CAVOK 17/12 Q1022=
201208121820 METAR ESMX 121820Z VRB02KT CAVOK 17/13 Q1022=
201208121750 METAR ESMX 121750Z 09004KT 060V120 9999 BKN045 17/12 Q1022 RERA=
201208121720 METAR ESMX 121720Z 04005KT 010V080 CAVOK 18/12 Q1022=
201208121650 METAR ESMX 121650Z 04006KT CAVOK 18/13 Q1022=
201208121620 METAR ESMX 121620Z 04009KT 010V070 9999 SHRA FEW045CB BKN082 18/12 Q1022=
201208121550 METAR ESMX 121550Z 04006KT 010V070 9999 FEW045 SCT097 20/11 Q1022=
201208121520 METAR ESMX 121520Z 01007KT CAVOK 21/10 Q1022=
201208121450 METAR ESMX 121450Z 34007KT 320V020 CAVOK 21/10 Q1022=
201208121420 METAR ESMX 121420Z 04003KT 340V100 CAVOK 22/09 Q1022=
201208121350 METAR ESMX 121350Z 02003KT 350V080 CAVOK 20/09 Q1022=
201208121320 METAR ESMX 121320Z 03003KT 350V080 CAVOK 20/10 Q1022=
201208121250 METAR ESMX 121250Z VRB04KT 9999 SCT043 20/10 Q1022=
201208121220 METAR ESMX 121220Z 36003KT 300V080 9999 SCT045 20/09 Q1022=
201208121150 METAR ESMX 121150Z 36003KT 250V070 9999 FEW040 20/09 Q1023=
201208121120 METAR ESMX 121120Z VRB02KT 9999 SCT043 21/08 Q1023=
201208121050 METAR ESMX 121050Z 33003KT 280V010 9999 FEW042 20/10 Q1023=
201208121020 METAR ESMX 121020Z 07003KT 340V120 CAVOK 20/09 Q1023=
201208120950 METAR ESMX 120950Z AUTO 06003KT 360V110 9999NDV SCT064/// 20/08 Q1023=
201208120920 METAR ESMX 120920Z AUTO 32003KT 280V020 9999NDV SCT066/// 19/08 Q1023=
201208120850 METAR ESMX 120850Z AUTO 27003KT 200V340 9999NDV BKN067/// 19/08 Q1023=
201208120820 METAR ESMX 120820Z AUTO 26003KT 210V320 9999NDV SCT066/// 18/09 Q1023=
201208120750 METAR ESMX 120750Z AUTO VRB01KT 9999NDV NCD 18/10 Q1023=
201208120720 METAR ESMX 120720Z AUTO VRB02KT 9999NDV FEW060/// 17/11 Q1023=
201208120650 METAR ESMX 120650Z AUTO 34003KT 9999NDV SCT055/// 16/12 Q1023=
201208120620 METAR ESMX 120620Z AUTO VRB02KT 9999NDV NCD 15/12 Q1023=
201208120550 METAR ESMX 120550Z AUTO 07001KT 9999NDV NCD 14/12 Q1023=
201208120520 METAR ESMX 120520Z AUTO VRB01KT 9999NDV NCD 13/12 Q1023=
201208120450 METAR ESMX 120450Z AUTO 17001KT 9999NDV NCD 10/09 Q1023=
201208120420 METAR ESMX 120420Z AUTO 19001KT 9999NDV BKN066/// 10/09 Q1023=
201208120350 METAR ESMX 120350Z AUTO 21001KT 9999NDV OVC066/// 10/09 Q1023=
201208120320 METAR ESMX 120320Z AUTO 18001KT 9999NDV OVC065/// 10/09 Q1023=
201208120250 METAR ESMX 120250Z AUTO 00000KT 9999NDV BKN066/// 10/09 Q1023=
201208120220 METAR ESMX 120220Z AUTO 17001KT 9999NDV OVC074/// 10/09 Q1023=
201208120150 METAR ESMX 120150Z AUTO 19001KT 9999NDV BKN056/// 09/08 Q1023=
201208120120 METAR ESMX 120120Z AUTO 00000KT 9999NDV BKN050/// OVC081/// 09/08 Q1023=
201208120050 METAR ESMX 120050Z AUTO 17001KT 9999NDV FEW055/// OVC081/// 08/07 Q1023=
201208120020 METAR ESMX 120020Z AUTO 18001KT 9999NDV SCT085/// 08/07 Q1023=
201208112350 METAR ESMX 112350Z AUTO 00000KT 9999NDV NCD 08/07 Q1023=
201208112320 METAR ESMX 112320Z AUTO 17001KT 9999NDV NCD 08/07 Q1023=
201208112250 METAR ESMX 112250Z AUTO 00000KT 9999NDV NCD 09/08 Q1023=
201208112220 METAR ESMX 112220Z AUTO VRB01KT 9999NDV NCD 09/08 Q1023=
201208112150 METAR ESMX 112150Z AUTO 19001KT 9999NDV NCD 10/08 Q1023=
201208112120 METAR ESMX 112120Z AUTO 17003KT 9999NDV NCD 12/10 Q1023=
201208112050 METAR ESMX 112050Z AUTO 18003KT 130V220 9999NDV NCD 14/09 Q1023=
201208112020 METAR ESMX 112020Z AUTO 16004KT 9999NDV FEW055/// 16/10 Q1023=
201208111950 METAR ESMX 111950Z AUTO 14005KT 110V170 9999NDV FEW056/// 16/11 Q1023=
201208111920 METAR ESMX 111920Z AUTO 15004KT 100V170 9999NDV BKN051/// 16/11 Q1023=
201208111850 METAR ESMX 111850Z AUTO 00000KT 9999NDV HZ BKN052/// 15/12 Q1023=
201208111820 METAR ESMX 111820Z AUTO 08002KT 9999NDV FEW054/// BKN082/// 16/11 Q1023=
201208111750 METAR ESMX 111750Z AUTO 09001KT 9999NDV FEW088/// 18/11 Q1023=
201208111720 METAR ESMX 111720Z AUTO 00000KT 9999NDV FEW082/// 19/11 Q1023=
201208111650 METAR ESMX 111650Z AUTO VRB01KT 9999NDV BKN077/// 18/12 Q1022=
201208111620 METAR ESMX 111620Z AUTO 07003KT 030V090 9999NDV FEW055/// BKN078/// 19/11 Q1023=
201208111550 METAR ESMX 111550Z AUTO 08003KT 020V120 9999NDV OVC058/// 19/10 Q1023=
201208111520 METAR ESMX 111520Z AUTO 34004KT 290V020 9999NDV BKN069/// 20/08 Q1023=
201208111450 METAR ESMX 111450Z AUTO 09004KT 040V120 9999NDV NCD 20/09 Q1023=
201208111420 METAR ESMX 111420Z AUTO 04004KT 350V080 9999NDV FEW049/// BKN078/// 20/09 Q1023=
201208111350 METAR ESMX 111350Z AUTO 01005KT 330V050 9999NDV FEW084/// 21/09 Q1023=
201208111320 METAR ESMX 111320Z AUTO 01003KT 330V070 9999NDV FEW076/// 20/09 Q1024=
201208111250 METAR ESMX 111250Z AUTO 35005KT 320V030 9999NDV FEW043/// BKN063/// 19/10 Q1024=
201208111220 METAR ESMX 111220Z AUTO 30003KT 220V020 9999NDV FEW049/// 20/09 Q1024=
201208111150 METAR ESMX 111150Z AUTO 03004KT 340V080 9999NDV NCD 20/10 Q1024=
201208111120 METAR ESMX 111120Z AUTO 30003KT 250V040 9999NDV FEW067/// 20/09 Q1024=
201208111050 METAR ESMX 111050Z AUTO 27003KT 220V020 9999NDV SCT064/// 19/10 Q1024=
201208111020 METAR ESMX 111020Z AUTO 01004KT 340V050 9999NDV NCD 18/10 Q1024=
201208110950 METAR ESMX 110950Z AUTO 01005KT 310V060 9999NDV NCD 18/11 Q1024=
201208110920 METAR ESMX 110920Z AUTO 01005KT 340V070 9999NDV NCD 18/11 Q1025=
201208110850 METAR ESMX 110850Z AUTO 01003KT 300V060 9999NDV NCD 17/10 Q1025=
201208110820 METAR ESMX 110820Z AUTO VRB02KT 9999NDV NCD 16/10 Q1025=
201208110750 METAR ESMX 110750Z AUTO 29003KT 250V320 9999NDV NCD 15/11 Q1025=
201208110720 METAR ESMX 110720Z AUTO VRB02KT 9999NDV NCD 16/11 Q1025=
201208110650 METAR ESMX 110650Z AUTO VRB02KT 9999NDV NCD 14/13 Q1025=
201208110620 METAR ESMX 110620Z AUTO VRB01KT 9999NDV NCD 13/12 Q1025=
201208110550 METAR ESMX 110550Z AUTO 00000KT 9999NDV BR NCD 11/11 Q1025=
201208110520 METAR ESMX 110520Z AUTO 00000KT 3100NDV BR NCD 10/09 Q1025=
201208110450 METAR ESMX 110450Z AUTO 17002KT 1100NDV R01/1700N R19/0800VP2000N FEW002/// 07/07 Q1025=
201208110420 METAR ESMX 110420Z AUTO 18002KT 0550NDV R01/P2000D R19/P2000 NCD 05/05 Q1025=
201208110350 METAR ESMX 110350Z AUTO 00000KT 0250NDV R01/0550 R19/0350V0600 FG FEW002/// 04/04 Q1024=
201208110320 METAR ESMX 110320Z AUTO 29002KT 0350NDV R01/0750 R19/0800VP2000 FG NCD 04/04 Q1024=
201208110250 METAR ESMX 110250Z AUTO 30001KT 0200NDV R01/0800V1500 R19/0700 FG NCD 05/05 Q1024=
201208110220 METAR ESMX 110220Z AUTO VRB01KT 0400NDV R01/P2000N R19/P2000N FG NCD 05/04 Q1024=
201208110150 METAR ESMX 110150Z AUTO VRB01KT 0350NDV R01/0800VP2000D R19/P2000N BCFG NCD 05/05 Q1024=
201208110120 METAR ESMX 110120Z AUTO 32001KT 0600NDV R01/P2000N R19/P2000N FG NCD 05/05 Q1024=
201208110050 METAR ESMX 110050Z AUTO 05001KT 0500NDV R01/1200VP2000D R19/1000VP2000D BCFG NCD 06/05 Q1024=
201208110020 METAR ESMX 110020Z AUTO 00000KT 0900NDV R01/P2000N R19/P2000N BCFG NCD 06/06 Q1024=
201208102350 METAR ESMX 102350Z AUTO 04001KT 0350NDV R01/P2000N R19/P2000 FG NCD 06/06 Q1024=
201208102320 METAR ESMX 102320Z AUTO VRB01KT 0650NDV R01/P2000N R19/P2000N FG NCD 07/07 Q1024=
201208102250 METAR ESMX 102250Z AUTO VRB01KT 0400NDV R01/0750VP2000D R19/P2000N BCFG NCD 06/05 Q1024=
201208102220 METAR ESMX 102220Z AUTO 32001KT 0650NDV R01/P2000D R19/P2000N FG NCD 07/06 Q1024=
201208102150 METAR ESMX 102150Z AUTO 26001KT 9999NDV NCD 07/07 Q1024=
201208102120 METAR ESMX 102120Z AUTO 33001KT 5000NDV NCD 07/07 Q1024=
201208102050 METAR ESMX 102050Z AUTO 00000KT 1100NDV R01/P2000N R19/P2000N NCD 09/08 Q1023=
201208102020 METAR ESMX 102020Z AUTO 00000KT 0800NDV R01/P2000N R19/P2000N FG NCD 09/08 Q1023=
201208101950 METAR ESMX 101950Z AUTO 00000KT 3500NDV NCD 10/09 Q1023=
201208101920 METAR ESMX 101920Z AUTO 35002KT 9999NDV NCD 12/10 Q1023=
201208101850 METAR ESMX 101850Z AUTO 01004KT 9999NDV NCD 13/11 Q1023=
201208101820 METAR ESMX 101820Z AUTO 02003KT 9999NDV NCD 15/11 Q1022=
201208101750 METAR ESMX 101750Z 05003KT 010V100 9999 FEW025 16/11 Q1022=
201208101720 METAR ESMX 101720Z 03005KT 360V060 9999 FEW045 16/11 Q1022=
201208101650 METAR ESMX 101650Z 04005KT 360V100 9999 FEW024 16/12 Q1022=
201208101620 METAR ESMX 101620Z 05004KT 9999 FEW035 14/11 Q1022=
201208101550 METAR ESMX 101550Z 33005KT 9999 FEW035CB 15/12 Q1022 RESH=
201208101520 METAR ESMX 101520Z 33005KT 9999 FEW025 FEW035CB 14/11 Q1022 RESH=
201208101450 METAR ESMX 101450Z VRB02KT 9999 -SHRA FEW025 SCT035CB 14/10 Q1022=
201208101420 METAR ESMX 101420Z VRB02KT 9999 FEW035CB 14/10 Q1022 RESH=
201208101350 METAR ESMX 101350Z 04009KT 360V060 9999 -SHRA FEW025 SCT035CB 16/08 Q1022=
201208101320 METAR ESMX 101320Z 36004KT 310V050 9999 FEW025 SCT050 17/09 Q1021=
201208101250 METAR ESMX 101250Z 34004KT 300V020 9999 FEW025 BKN050 17/10 Q1021=
201208101220 METAR ESMX 101220Z 33004KT 290V030 9999 FEW025 BKN050 16/10 Q1021=
201208101150 METAR ESMX 101150Z 30003KT 250V340 9999 FEW025 BKN050 16/10 Q1022=
201208101120 METAR ESMX 101120Z 28004KT 9999 FEW035 BKN050 15/11 Q1021=
201208101050 METAR ESMX 101050Z 29003KT 260V320 9999 FEW025 BKN050 14/11 Q1022=
201208101020 METAR ESMX 101020Z 09002KT 9999 -RA FEW035 BKN055 14/11 Q1022=
201208100950 METAR ESMX 100950Z VRB02KT 9999 -RA FEW035 BKN050 14/11 Q1021 REDZ=
201208100920 METAR ESMX 100920Z VRB02KT 9999 DZ FEW030 BKN050 14/11 Q1022=
201208100850 METAR ESMX 100850Z VRB02KT 9999 -RA SCT035 BKN070 13/11 Q1022=
201208100820 METAR ESMX 100820Z VRB01KT 9999 -RA FEW042 BKN056 14/11 Q1021=
201208100750 METAR ESMX 100750Z VRB01KT 9999 -RA SCT035 BKN070 14/11 Q1021=
201208100720 METAR ESMX 100720Z VRB01KT 9999 -RA FEW045 BKN070 13/11 Q1021=
201208100650 METAR ESMX 100650Z 00000KT 9999 FEW040 BKN070 12/10 Q1021=
201208100620 METAR ESMX 100620Z 00000KT 9999 FEW045 BKN070 12/10 Q1021=
201208100550 METAR ESMX 100550Z 28002KT CAVOK 11/10 Q1021=
201208100520 METAR ESMX 100520Z VRB01KT CAVOK 10/09 Q1021=
201208100450 METAR ESMX 100450Z 20002KT CAVOK 09/08 Q1021=
201208100420 METAR ESMX 100420Z AUTO 16001KT 9999NDV NCD 09/08 Q1021=
201208100350 METAR ESMX 100350Z AUTO 18002KT 9999NDV FEW110/// 08/07 Q1021=
201208100320 METAR ESMX 100320Z AUTO VRB01KT 9999NDV FEW061/// 07/07 Q1021=
201208100250 METAR ESMX 100250Z AUTO 19001KT 9999NDV NCD 07/06 Q1021=
201208100220 METAR ESMX 100220Z AUTO 19001KT 9999NDV FEW066/// 06/05 Q1021=
201208100150 METAR ESMX 100150Z AUTO VRB01KT 9999NDV FEW066/// 07/06 Q1021=
201208100120 METAR ESMX 100120Z AUTO 17002KT 9999NDV NCD 07/06 Q1021=
201208100050 METAR ESMX 100050Z 26001KT CAVOK 07/07 Q1021=
201208100020 METAR ESMX 100020Z 16001KT CAVOK 08/07 Q1021=
201208092350 METAR ESMX 092350Z 26002KT CAVOK 08/07 Q1021=
201208092320 METAR ESMX 092320Z 00000KT CAVOK 09/07 Q1021=
201208092250 METAR ESMX 092250Z 26002KT CAVOK 08/07 Q1021=
201208092220 METAR ESMX 092220Z 19002KT CAVOK 08/06 Q1021=
201208092150 METAR ESMX 092150Z 00000KT CAVOK 08/07 Q1021=
201208092120 METAR ESMX 092120Z VRB01KT CAVOK 08/07 Q1021=
201208092050 METAR ESMX 092050Z 17001KT CAVOK 09/07 Q1021=
201208092020 METAR ESMX 092020Z VRB01KT CAVOK 10/08 Q1021=
201208091950 METAR ESMX 091950Z 31004KT CAVOK 11/09 Q1020=
201208091920 METAR ESMX 091920Z 33005KT CAVOK 12/09 Q1020=
201208091850 METAR ESMX 091850Z 34006KT CAVOK 14/09 Q1020=
201208091820 METAR ESMX 091820Z 34006KT CAVOK 16/10 Q1020=
201208091750 METAR ESMX 091750Z 33006KT CAVOK 17/09 Q1019=
201208091720 METAR ESMX 091720Z 32005KT 290V350 CAVOK 18/09 Q1019=
201208091650 METAR ESMX 091650Z 34007KT 9999 FEW040 17/08 Q1019=
201208091620 METAR ESMX 091620Z 35007KT 9999 FEW040 17/09 Q1019=
201208091550 METAR ESMX 091550Z 35008KT 9999 FEW040 18/08 Q1019=
201208091520 METAR ESMX 091520Z 33009KT 290V360 9999 FEW040 19/08 Q1019=
201208091450 METAR ESMX 091450Z 34007KT 280V020 9999 FEW030CB SCT080 19/09 Q1019=
201208091420 METAR ESMX 091420Z 36005KT 320V030 9999 FEW025CB SCT087 17/10 Q1019=
201208091350 METAR ESMX 091350Z VRB02KT 9999 FEW030CB SCT070 16/10 Q1019 RESHRA=
201208091320 METAR ESMX 091320Z 01007KT 340V050 9999 -SHRA FEW030CB BKN081 17/10 Q1019=
201208091250 METAR ESMX 091250Z 36010KT 320V030 9999 FEW030CB SCT080 17/10 Q1019=
201208091220 METAR ESMX 091220Z 01011KT 9999 -SHRA FEW025CB SCT055 16/11 Q1019=
201208091150 METAR ESMX 091150Z 34008KT 9999 FEW030CB SCT068 17/10 Q1019 RERA=
201208091120 METAR ESMX 091120Z 34012KT 9999 -SHRA FEW030CB SCT040 BKN050 16/10 Q1019=
201208091050 METAR ESMX 091050Z 35009KT 320V050 9999 FEW025 SCT068 17/10 Q1018=
201208091020 METAR ESMX 091020Z 32009KT 290V360 9999 SCT024 17/10 Q1018=
201208090950 METAR ESMX 090950Z 31008KT 280V340 9999 FEW023 16/11 Q1018=
201208090920 METAR ESMX 090920Z 34009KT 290V010 9999 SCT022 17/11 Q1018=
201208090850 METAR ESMX 090850Z 34008KT 310V020 9999 FEW023 16/11 Q1018=
201208090820 METAR ESMX 090820Z 34009KT 310V020 9999 FEW018 15/11 Q1018=
201208090750 METAR ESMX 090750Z 34007KT 300V010 9999 SCT018 15/11 Q1018=
201208090720 METAR ESMX 090720Z 31007KT 270V350 9999 BKN010 14/12 Q1017=
201208090650 METAR ESMX 090650Z 29006KT 250V330 9999 FEW007 SCT010 13/11 Q1017=
201208090620 METAR ESMX 090620Z 31004KT 280V360 9999 BKN006 12/11 Q1017=
201208090550 METAR ESMX 090550Z 30004KT 260V340 9999 BKN004 11/11 Q1017=
201208090520 METAR ESMX 090520Z 29006KT 250V310 9999 BKN005 11/10 Q1017=
201208090450 METAR ESMX 090450Z 29005KT 9999 FEW003 SCT050 11/10 Q1016=
201208090420 METAR ESMX 090420Z AUTO 31004KT 280V340 9999NDV FEW003/// OVC048/// 11/10 Q1016=
201208090350 METAR ESMX 090350Z AUTO 29004KT 260V330 9999NDV BKN002/// BKN046/// 11/10 Q1016=
201208090320 METAR ESMX 090320Z AUTO 26006KT 230V290 7000NDV BR OVC001/// 11/10 Q1016=
201208090250 METAR ESMX 090250Z AUTO 26007KT 1300NDV R01/P2000N R19/P2000N BR BKN001/// 11/10 Q1016=
201208090220 METAR ESMX 090220Z AUTO 28005KT 9999NDV NCD 10/10 Q1016=
201208090150 METAR ESMX 090150Z AUTO 27003KT 9999NDV NCD 10/09 Q1016=
201208090120 METAR ESMX 090120Z AUTO 25004KT 9999NDV NCD 10/10 Q1016=
201208090050 METAR ESMX 090050Z AUTO 27003KT 250V310 9999NDV FEW008/// 11/10 Q1016=
201208090020 METAR ESMX 090020Z AUTO 29004KT 9999NDV FEW006/// 11/11 Q1016=
201208082350 METAR ESMX 082350Z 26003KT 230V290 9999 SCT007 12/11 Q1015=
201208082320 METAR ESMX 082320Z 29004KT 260V320 9999 SCT006 12/11 Q1015=
201208082250 METAR ESMX 082250Z 29005KT 9999 SCT008 11/11 Q1015=
201208082220 METAR ESMX 082220Z 26005KT 9999 SCT005 11/11 Q1015=
201208082150 METAR ESMX 082150Z 27005KT 9999 FEW006 BKN045 12/11 Q1015=
201208082120 METAR ESMX 082120Z 28005KT 9999 SCT007 BKN049 12/11 Q1015=
201208082050 METAR ESMX 082050Z 27006KT 230V300 CAVOK 12/11 Q1015=
201208082020 METAR ESMX 082020Z 26006KT 9999 FEW005 BKN060 12/11 Q1014=
201208081950 METAR ESMX 081950Z 26006KT 9999 FEW007 12/11 Q1014=
201208081920 METAR ESMX 081920Z 26005KT 230V290 9999 FEW009 SCT061 12/11 Q1014=
201208081850 METAR ESMX 081850Z 26006KT CAVOK 12/11 Q1014=
201208081820 METAR ESMX 081820Z 25008KT 220V280 CAVOK 13/11 Q1014=
201208081750 METAR ESMX 081750Z 26005KT 9999 VCSH FEW030CB 14/12 Q1014=
201208081720 METAR ESMX 081720Z 28005KT 240V320 9999 VCSH FEW025CB 14/12 Q1014=
201208081650 METAR ESMX 081650Z 24004KT 210V270 9999 SHRA FEW020 SCT025CB 13/11 Q1014 RETS=
201208081620 METAR ESMX 081620Z 28005KT 250V320 9999 SHRA FEW020 SCT025CB 12/11 Q1013 RETS=
201208081550 METAR ESMX 081550Z 33010KT 280V350 9999 TSRA FEW018 BKN025CB 16/11 Q1013=
201208081520 METAR ESMX 081520Z 26013KT 220V290 9999 FEW024 SCT031CB 18/12 Q1013=
201208081450 METAR ESMX 081450Z 24016KT 9999 SCT025 18/12 Q1012=
201208081420 METAR ESMX 081420Z 26012KT 220V290 9999 FEW023 SCT027 BKN084 17/11 Q1012=
201208081350 METAR ESMX 081350Z 26012KT 240V300 9999 FEW022 SCT026 17/12 Q1012=
201208081320 METAR ESMX 081320Z 26011KT 220V290 9999 FEW026 SCT034 BKN081 17/11 Q1012=
201208081250 METAR ESMX 081250Z 24012KT 210V290 9999 FEW027 BKN065 18/11 Q1012=
201208081220 METAR ESMX 081220Z 25013KT 9999 FEW025 SCT029 OVC040 17/11 Q1012=
201208081150 METAR ESMX 081150Z 22011KT 190V250 9999 FEW026 SCT041 BKN046 17/11 Q1012=
201208081120 METAR ESMX 081120Z 24009KT 200V280 9999 FEW033 OVC039 16/11 Q1012=
201208081050 METAR ESMX 081050Z 22007KT 180V250 9999 FEW022 BKN026 OVC043 16/11 Q1012=
201208081020 METAR ESMX 081020Z 23010KT 9999 SCT025 BKN035 BKN043 16/11 Q1012=
201208080950 METAR ESMX 080950Z 24011KT 200V280 9999 SCT025 BKN035 16/10 Q1012=
201208080920 METAR ESMX 080920Z 22011KT 190V250 9999 FEW020 SCT027 BKN035 16/11 Q1012=
201208080850 METAR ESMX 080850Z 25008KT 230V290 9999 FEW022 SCT035 BKN041 15/11 Q1012=
201208080820 METAR ESMX 080820Z 25010KT 220V290 9999 FEW015 SCT022 BKN036 15/11 Q1011=
201208080750 METAR ESMX 080750Z 25009KT 210V300 9999 FEW016 SCT022 BKN026 14/11 Q1011=
201208080720 METAR ESMX 080720Z 25009KT 220V290 9999 FEW018 BKN020 OVC028 14/11 Q1011=
201208080650 METAR ESMX 080650Z 26010G20KT 230V310 9999 SCT018 BKN025 15/11 Q1011=
201208080620 METAR ESMX 080620Z 26011KT 230V300 9999 FEW015 BKN020 14/11 Q1010=
201208080550 METAR ESMX 080550Z 26009KT 220V290 9999 SCT013 BKN027 14/11 Q1010=
201208080520 METAR ESMX 080520Z 26008KT 230V290 9999 FEW012 SCT016 BKN027 14/11 Q1010=
201208080450 METAR ESMX 080450Z 25010KT 210V280 9999 FEW015 BKN025 13/11 Q1009=
201208080420 METAR ESMX 080420Z AUTO 23010KT 190V260 9999NDV OVC023/// 13/11 Q1009=
201208080350 METAR ESMX 080350Z AUTO 25009KT 220V280 9999NDV FEW013/// OVC023/// 13/11 Q1009=
201208080320 METAR ESMX 080320Z AUTO 25010KT 210V290 9999NDV FEW012/// OVC023/// 13/11 Q1009=
201208080250 METAR ESMX 080250Z AUTO 25010KT 220V310 9999NDV FEW013/// OVC022/// 13/11 Q1009=
201208080220 METAR ESMX 080220Z AUTO 25010KT 210V280 9999NDV OVC022/// 13/11 Q1009=
201208080150 METAR ESMX 080150Z AUTO 23009KT 210V280 9999NDV FEW015/// SCT019/// OVC021/// 13/11 Q1009=
201208080120 METAR ESMX 080120Z AUTO 24008KT 190V290 9999NDV OVC016/// 14/11 Q1009=
201208080050 METAR ESMX 080050Z AUTO 26010KT 9999NDV OVC016/// 14/11 Q1009=
201208080020 METAR ESMX 080020Z AUTO 23008KT 200V270 9999NDV OVC017/// 14/11 Q1009=
201208072350 METAR ESMX 072350Z 24008KT 210V290 9999 OVC018 14/10 Q1009=
201208072320 METAR ESMX 072320Z 23007KT 190V260 9999 BKN019 OVC031 14/10 Q1009=
201208072250 METAR ESMX 072250Z 24009KT 210V290 9999 FEW021 OVC028 14/10 Q1009=
201208072220 METAR ESMX 072220Z 23010KT 200V260 9999 FEW023 OVC028 14/10 Q1008=
201208072150 METAR ESMX 072150Z 24010KT 190V290 9999 OVC028 14/10 Q1008=
201208072120 METAR ESMX 072120Z 24009G19KT 210V270 9999 OVC027 14/10 Q1008=
201208072050 METAR ESMX 072050Z 25010KT 210V280 9999 OVC021 14/10 Q1008=
201208072020 METAR ESMX 072020Z 25012KT 210V270 9999 OVC021 14/11 Q1008=
201208071950 METAR ESMX 071950Z 23012KT 200V270 9999 OVC020 14/11 Q1008=
201208071920 METAR ESMX 071920Z 25014KT 220V290 9999 BKN021 OVC030 15/11 Q1007=
201208071850 METAR ESMX 071850Z 26011KT 9999 OVC022 15/11 Q1007=
201208071820 METAR ESMX 071820Z 25014G24KT 220V290 9999 FEW020 BKN025 OVC032 15/11 Q1007=
201208071750 METAR ESMX 071750Z 23012KT 9999 VCSH FEW021CB OVC036 15/12 Q1007=
201208071720 METAR ESMX 071720Z 24010KT 200V280 9999 VCSH FEW026CB OVC040 15/12 Q1007=
201208071650 METAR COR ESMX 071650Z 23010KT 200V260 9999 -SHRA FEW015 SCT025CB BKN040 15/12 Q1006=
201208071620 METAR ESMX 071620Z 24012KT 210V270 9999 FEW020 SCT030CB BKN047 16/12 Q1006=
201208071550 METAR ESMX 071550Z 24010KT 210V270 9999 FEW015 SCT025CB BKN045 16/13 Q1006=
201208071520 METAR ESMX 071520Z 24011KT 9999 FEW018 SCT20CB BKN069 16/13 Q1006 RESHRA=
201208071450 METAR ESMX 071450Z 24013KT 9999 -SHRA FEW017 SCT037 BKN046 16/13 Q1006=
201208071420 METAR ESMX 071420Z 24014G24KT 210V280 9999 -SHRA FEW015 SCT025CB BKN030 16/13 Q1006=
201208071350 METAR ESMX 071350Z 23009KT 9999 -SHRA SCT020CB BKN070 17/14 Q1006 RERA RESHRA=
201208071320 METAR ESMX 071320Z 23012KT 200V270 9999 +SHRA FEW020 SCT023CB BKN054 17/13 Q1006=
201208071250 METAR ESMX 071250Z 23014KT 180V260 9999 FEW018CB SCT023 BKN054 17/14 Q1006=
201208071220 METAR ESMX 071220Z 23012KT 200V260 9999 FEW018CB SCT023 BKN077 17/14 Q1006=
201208071150 METAR ESMX 071150Z 23012KT 180V250 9999 FEW010CB SCT020 17/14 Q1006 RESHRA=
201208071120 METAR ESMX 071120Z 24010KT 200V260 7000 -RA FEW009 SCT021 16/13 Q1006=
201208071050 METAR ESMX 071050Z 21010KT 9999 -SHRA FEW015 SCT025CB BKN070 17/14 Q1006 RESHRA=
201208071020 METAR ESMX 071020Z 22011KT 4100 +SHRA FEW020 SCT035CB BKN075 15/13 Q1006=
201208070950 METAR ESMX 070950Z 24010KT 200V270 9999 FEW018 SCT022 BKN061 16/13 Q1006=
201208070920 METAR ESMX 070920Z 23013KT 9999 FEW016 SCT025 16/13 Q1006=
201208070850 METAR ESMX 070850Z 23008KT 190V260 3500 SHRA FEW006 SCT020CB 15/13 Q1006=
201208070820 METAR ESMX 070820Z 21009KT 160V230 9999 FEW012 SCT020 BKN064 16/14 Q1006=
201208070750 METAR ESMX 070750Z 20009KT 8000 FEW009 SCT013 BKN018 15/13 Q1006=
201208070720 METAR ESMX 070720Z 21009KT 9999 -SHRA FEW009 SCT012 BKN014 15/13 Q1006=
201208070650 METAR ESMX 070650Z 21008KT 9999 FEW007 BKN011 15/14 Q1006=
201208070620 METAR ESMX 070620Z 20008KT 9999 FEW006 BKN009 15/13 Q1007=
201208070550 METAR ESMX 070550Z 19008KT 9999 FEW005 SCT007 BKN008 14/13 Q1007=
201208070520 METAR ESMX 070520Z 20007KT 9999 FEW007 SCT011 BKN081 14/13 Q1007=
201208070450 METAR ESMX 070450Z 20008KT 9999 FEW006 SCT027 BKN080 14/13 Q1007=
201208070420 METAR ESMX 070420Z AUTO 20008KT 9999NDV SCT005/// BKN008/// OVC026/// 14/13 Q1007=
201208070350 METAR ESMX 070350Z AUTO 22006KT 9999NDV OVC004/// 13/13 Q1006=
201208070320 METAR ESMX 070320Z AUTO 22006KT 9999NDV FEW004/// 13/12 Q1006=
201208070250 METAR ESMX 070250Z AUTO 19005KT 8000NDV FEW051/// 13/12 Q1006=
201208070220 METAR ESMX 070220Z AUTO 21005KT 7000NDV BR FEW005/// SCT073/// 13/12 Q1006=
201208070150 METAR ESMX 070150Z AUTO 22005KT 9000NDV NCD 13/12 Q1006=
201208070120 METAR ESMX 070120Z AUTO 22006KT 9999NDV FEW006/// 13/13 Q1006=
201208070050 METAR ESMX 070050Z AUTO 21006KT 9999NDV NCD 13/13 Q1006=
201208070020 METAR ESMX 070020Z 22007KT 9999 FEW006 14/13 Q1006=
201208062350 METAR ESMX 062350Z 21006KT 9999 FEW004 14/13 Q1006=
201208062320 METAR ESMX 062320Z 24004KT 9999 SCT004 14/13 Q1006=
201208062250 METAR ESMX 062250Z 22005KT 9999 BKN004 15/14 Q1006=
201208062220 METAR ESMX 062220Z 20006KT 9999 BKN005 15/14 Q1006=
201208062150 METAR ESMX 062150Z 22004KT 9999 FEW008 14/14 Q1006=
201208062120 METAR ESMX 062120Z 22005KT CAVOK 15/14 Q1006=
201208062050 METAR ESMX 062050Z 20005KT CAVOK 15/14 Q1006=
201208062020 METAR ESMX 062020Z 22005KT CAVOK 15/14 Q1006=
201208061950 METAR ESMX 061950Z 22006KT CAVOK 15/14 Q1005=
201208061920 METAR ESMX 061920Z 22007KT CAVOK 15/14 Q1005=
201208061850 METAR ESMX 061850Z 23008KT CAVOK 16/14 Q1005=
201208061820 METAR ESMX 061820Z 24011KT 200V270 9999 FEW017 17/14 Q1005=
201208061750 METAR ESMX 061750Z 24010KT 9999 FEW010 SCT014 BKN019 17/16 Q1005=
201208061720 METAR ESMX 061720Z 25005KT 9999 FEW011 SCT016 BKN020 17/16 Q1004=
201208061650 METAR ESMX 061650Z 22007KT 8000 RA FEW011 SCT037 BKN065 18/16 Q1004=
201208061620 METAR ESMX 061620Z 25007KT 200V280 9999 FEW010 SCT018 BKN027 18/16 Q1004=
201208061550 METAR ESMX 061550Z 20010KT 9999 FEW007 SCT011 BKN015 18/17 Q1004=
201208061520 METAR ESMX 061520Z 19008KT 9999 -RA FEW004 SCT007 BKN010 19/17 Q1004=
201208061450 METAR ESMX 061450Z 17006KT 120V200 9999 FEW004 SCT006 BKN008 18/17 Q1004 RERA=
201208061420 METAR ESMX 061420Z 17006KT 130V210 5000 -RA BKN003 OVC005 17/16 Q1004=
201208061350 METAR ESMX 061350Z 13004KT 040V200 3100 -RA FEW003 OVC004 17/16 Q1005 REDZ=
201208061320 METAR ESMX 061320Z 14004KT 070V170 6000 DZ BKN004 OVC007 17/16 Q1005=
201208061250 METAR ESMX 061250Z 12004KT 070V240 7000 DZ SCT005 BKN007 17/16 Q1005=
201208061220 METAR ESMX 061220Z VRB03KT 4900 -RA FEW006 BKN008 OVC010 17/16 Q1006=
201208061150 METAR ESMX 061150Z 10003KT 050V200 7000 SHRA FEW007 BKN008 OVC011 17/16 Q1006=
201208061120 METAR ESMX 061120Z 10004KT 030V180 7000 -SHRA FEW008 SCT009 BKN012 17/15 Q1006=
201208061050 METAR ESMX 061050Z 10005KT 050V160 9999 FEW012 BKN015 18/15 Q1007=
201208061020 METAR ESMX 061020Z 10005KT 040V140 9999 BKN017 OVC024 18/15 Q1007=
201208060950 METAR ESMX 060950Z 09003KT 030V140 9999 SCT020 BKN030 18/15 Q1007=
201208060920 METAR ESMX 060920Z 08005KT 040V120 9999 FEW018 SCT020 BKN030 18/14 Q1007=
201208060850 METAR ESMX 060850Z 09006KT 040V140 9999 FEW016 SCT020 BKN080 18/14 Q1008=
201208060820 METAR ESMX 060820Z 09005KT 050V130 9999 FEW015 SCT020 BKN080 18/15 Q1007=
201208060750 METAR ESMX 060750Z 10003KT 060V160 9999 SCT025 BKN070 18/15 Q1008=
201208060720 METAR ESMX 060720Z 10004KT 050V150 9999 FEW045 OVC070 18/15 Q1008=
201208060650 METAR ESMX 060650Z VRB02KT 9999 FEW045 BKN070 17/15 Q1009=
201208060620 METAR ESMX 060620Z 08003KT 020V140 CAVOK 17/15 Q1009=
201208060550 METAR ESMX 060550Z VRB02KT 9999 FEW045 BKN080 16/15 Q1009=
201208060520 METAR ESMX 060520Z VRB02KT CAVOK 15/14 Q1009=
201208060450 METAR ESMX 060450Z 00000KT CAVOK 14/13 Q1009=
201208060420 METAR ESMX 060420Z AUTO VRB01KT 9999NDV BKN071/// 13/13 Q1010=
201208060350 METAR ESMX 060350Z AUTO VRB02KT 8000NDV SCT068/// 12/11 Q1010=
201208060320 METAR ESMX 060320Z AUTO VRB01KT 9999NDV OVC067/// 11/10 Q1010=
201208060250 METAR ESMX 060250Z AUTO 00000KT 8000NDV FEW050/// SCT069/// 11/10 Q1011=
201208060220 METAR ESMX 060220Z AUTO 00000KT 2400NDV NCD 11/10 Q1011=
201208060150 METAR ESMX 060150Z AUTO VRB01KT 0400NDV R01/P2000D R19/P2000N BCFG FEW073/// 11/11 Q1011=
201208060120 METAR ESMX 060120Z AUTO 03001KT 0300NDV R01/0500VP2000D R19/P2000 FG NCD 12/11 Q1011=
201208060050 METAR ESMX 060050Z AUTO 10002KT 3100NDV BR NCD 13/12 Q1011=
201208060020 METAR ESMX 060020Z AUTO 00000KT 1400NDV R01/P2000N R19/P2000N NCD 14/13 Q1011=
201208052350 METAR ESMX 052350Z 18001KT CAVOK 15/13 Q1011=
201208052320 METAR ESMX 052320Z 17003KT CAVOK 16/13 Q1011=
201208052250 METAR ESMX 052250Z 16004KT 120V190 CAVOK 17/14 Q1011=
201208052220 METAR ESMX 052220Z 15004KT CAVOK 17/14 Q1011=
201208052150 METAR ESMX 052150Z 15004KT CAVOK 18/13 Q1012=
201208052120 METAR ESMX 052120Z 15005KT 120V190 CAVOK 18/13 Q1012=
201208052050 METAR ESMX 052050Z 16005KT 140V200 CAVOK 18/14 Q1012=
201208052020 METAR ESMX 052020Z 16003KT CAVOK 18/13 Q1012=
201208051950 METAR ESMX 051950Z 16004KT CAVOK 19/14 Q1012=
201208051920 METAR ESMX 051920Z 14004KT CAVOK 19/14 Q1012=
201208051850 METAR ESMX 051850Z 15005KT CAVOK 19/14 Q1011=
201208051820 METAR ESMX 051820Z 17003KT CAVOK 19/13 Q1011=
201208051750 METAR ESMX 051750Z 16004KT CAVOK 20/13 Q1012=
201208051720 METAR ESMX 051720Z 17004KT 140V200 CAVOK 20/13 Q1012=
201208051650 METAR ESMX 051650Z 18003KT 140V200 9999 FEW056CB BKN056 20/13 Q1012=
201208051620 METAR ESMX 051620Z 18005KT 9999 FEW059CB BKN059 21/13 Q1012=
201208051550 METAR ESMX 051550Z 16005KT 120V200 CAVOK 21/12 Q1012=
201208051520 METAR ESMX 051520Z 18004KT 140V210 9999 FEW048 BKN084 20/13 Q1012=
201208051450 METAR ESMX 051450Z 17006KT 130V200 9999 SCT035 BKN100 21/12 Q1012=
201208051420 METAR ESMX 051420Z 18007KT 140V200 9999 SCT038 23/12 Q1012=
201208051350 METAR ESMX 051350Z 16005KT 110V200 9999 FEW038 SCT090 21/12 Q1012=
201208051320 METAR ESMX 051320Z 18005KT 140V230 9999 FEW032 BKN094 21/13 Q1013=
201208051250 METAR ESMX 051250Z 17004KT 070V210 9999 FEW023 BKN084 21/12 Q1013=
201208051220 METAR ESMX 051220Z 16006KT 110V210 9999 FEW043 SCT058 21/12 Q1013=
201208051150 METAR ESMX 051150Z 19008KT 9999 FEW024 SCT088 20/13 Q1013=
201208051120 METAR ESMX 051120Z 20005KT 150V240 9999 FEW032 BKN150 21/12 Q1013=
201208051050 METAR ESMX 051050Z 20005KT 150V230 9999 FEW026 SCT110 20/12 Q1013=
201208051020 METAR ESMX 051020Z 18007KT 140V210 9999 FEW029 SCT056 20/13 Q1013=
201208050950 METAR ESMX 050950Z AUTO 18007KT 140V210 9999NDV FEW039/// 20/12 Q1013=
201208050920 METAR ESMX 050920Z AUTO 21006KT 170V240 9999NDV FEW100/// 19/12 Q1013=
201208050850 METAR ESMX 050850Z AUTO 21006KT 170V260 9999NDV NCD 19/12 Q1013=
201208050820 METAR ESMX 050820Z AUTO 23006KT 9999NDV NCD 19/13 Q1013=
201208050750 METAR ESMX 050750Z AUTO 23007KT 9999NDV FEW020/// 19/13 Q1013=
201208050720 METAR ESMX 050720Z AUTO 18005KT 130V220 9999NDV NCD 18/13 Q1013=
201208050650 METAR ESMX 050650Z AUTO 20005KT 170V230 9999NDV NCD 17/13 Q1013=
201208050620 METAR ESMX 050620Z AUTO 21005KT 9999NDV NCD 16/13 Q1013=
201208050550 METAR ESMX 050550Z AUTO 19006KT 9999NDV NCD 15/12 Q1013=
201208050520 METAR ESMX 050520Z AUTO 21004KT 9999NDV NCD 13/12 Q1013=
201208050450 METAR ESMX 050450Z AUTO 20004KT 9999NDV NCD 13/11 Q1013=
201208050420 METAR ESMX 050420Z AUTO 20005KT 9999NDV NCD 12/11 Q1013=
201208050350 METAR ESMX 050350Z AUTO 21005KT 9999NDV NCD 10/10 Q1013=
201208050320 METAR ESMX 050320Z AUTO 22004KT 9999NDV NCD 10/09 Q1013=
201208050250 METAR ESMX 050250Z AUTO 20004KT 9999NDV NCD 10/09 Q1013=
201208050220 METAR ESMX 050220Z AUTO 18003KT 9999NDV NCD 10/09 Q1012=
201208050150 METAR ESMX 050150Z AUTO 21002KT 9999NDV NCD 11/10 Q1012=
201208050120 METAR ESMX 050120Z AUTO 19002KT 9999NDV NCD 11/09 Q1012=
201208050050 METAR ESMX 050050Z AUTO 14002KT 9999NDV FEW038/// SCT088/// 11/10 Q1013=
201208050020 METAR ESMX 050020Z AUTO 17001KT 9999NDV SCT037/// BKN050/// BKN089/// 12/10 Q1013=
201208042350 METAR ESMX 042350Z AUTO 00000KT 9999NDV SCT037/// 12/09 Q1013=
201208042320 METAR ESMX 042320Z AUTO 17002KT 9999NDV FEW039/// SCT050/// 12/10 Q1013=
201208042250 METAR ESMX 042250Z AUTO 18001KT 9999NDV FEW041/// BKN058/// BKN077/// 13/10 Q1013=
201208042220 METAR ESMX 042220Z AUTO 17001KT 9999NDV SCT042/// BKN061/// 13/10 Q1013=
201208042150 METAR ESMX 042150Z AUTO 23002KT 9999NDV SCT045/// BKN068/// OVC083/// 14/10 Q1012=
201208042120 METAR ESMX 042120Z AUTO 25002KT 9999NDV FEW052/// BKN080/// 14/10 Q1012=
201208042050 METAR ESMX 042050Z AUTO 00000KT 9999NDV SCT066/// OVC082/// 14/10 Q1012=
201208042020 METAR ESMX 042020Z AUTO 25001KT 9999NDV BKN065/// BKN090/// 14/10 Q1012=
201208041950 METAR ESMX 041950Z AUTO 23003KT 9999NDV SCT086/// 14/09 Q1012=
201208041920 METAR ESMX 041920Z AUTO 21003KT 9999NDV FEW091/// 16/09 Q1012=
201208041850 METAR ESMX 041850Z AUTO 26002KT 9999NDV SCT095/// 17/08 Q1012=
201208041820 METAR ESMX 041820Z AUTO 25005KT 230V290 9999NDV NCD 18/08 Q1012=
201208041750 METAR ESMX 041750Z AUTO 24006KT 9999NDV FEW092/// SCT100/// 19/08 Q1012=
201208041720 METAR ESMX 041720Z AUTO 23006KT 200V280 9999NDV BKN098/// 19/09 Q1012=
201208041650 METAR ESMX 041650Z AUTO 26008KT 230V290 9999NDV NCD 19/08 Q1012=
201208041620 METAR ESMX 041620Z AUTO 24008KT 210V280 9999NDV NCD 20/09 Q1012=
201208041550 METAR ESMX 041550Z AUTO 24010KT 210V280 9999NDV NCD 20/09 Q1012=
201208041520 METAR ESMX 041520Z AUTO 25009KT 200V280 9999NDV NCD 20/08 Q1012=
201208041450 METAR ESMX 041450Z AUTO 26009KT 220V290 9999NDV NCD 20/09 Q1012=
201208041420 METAR ESMX 041420Z AUTO 22011KT 9999NDV FEW053/// 21/08 Q1012=
201208041350 METAR ESMX 041350Z AUTO 23009KT 190V260 9999NDV NCD 21/08 Q1012=
201208041320 METAR ESMX 041320Z AUTO 23009KT 200V260 9999NDV FEW052/// 21/08 Q1012=
201208041250 METAR ESMX 041250Z AUTO 23010KT 190V270 9999NDV FEW047/// 20/08 Q1012=
201208041220 METAR ESMX 041220Z AUTO 23008KT 170V260 9999NDV FEW045/// SCT058/// 21/09 Q1012=
201208041150 METAR ESMX 041150Z AUTO 22013KT 190V250 9999NDV FEW038/// 21/10 Q1013=
201208041120 METAR ESMX 041120Z AUTO 22011KT 170V250 9999NDV FEW037/// SCT070/// 21/11 Q1013=
201208041050 METAR ESMX 041050Z AUTO 20014KT 9999NDV FEW043/// SCT067/// 20/12 Q1013=
201208041020 METAR ESMX 041020Z AUTO 20011KT 170V230 9999NDV FEW030/// 21/10 Q1012=
201208040950 METAR ESMX 040950Z AUTO 20013KT 9999NDV FEW028/// SCT032/// BKN056/// 21/12 Q1013=
201208040920 METAR ESMX 040920Z AUTO 20008KT 160V240 9999NDV FEW024/// SCT030/// 20/13 Q1013=
201208040850 METAR ESMX 040850Z AUTO 23007KT 190V260 9999NDV SCT019/// BKN031/// 20/14 Q1013=
201208040820 METAR ESMX 040820Z AUTO 21005KT 170V250 9999NDV FEW008/// SCT018/// BKN023/// 18/14 Q1013=
201208040750 METAR ESMX 040750Z AUTO 20003KT 110V250 9999NDV SCT006/// BKN008/// BKN013/// 16/14 Q1013=
201208040720 METAR ESMX 040720Z AUTO 22005KT 190V250 9999NDV SCT001/// BKN003/// OVC005/// 16/14 Q1013=
201208040650 METAR ESMX 040650Z AUTO 22004KT 180V260 3200NDV OVC001/// 15/14 Q1013=
201208040620 METAR ESMX 040620Z AUTO 21004KT 170V250 1400NDV R01/P2000N R19/1200VP2000U OVC001/// 14/14 Q1013=
201208040550 METAR ESMX 040550Z AUTO 19004KT 0900NDV R01/1000V1500N R19/1000VP2000U FG VV001 14/13 Q1013=
201208040520 METAR ESMX 040520Z AUTO 22004KT 180V240 0650NDV R01/0800V1500 R19/0900VP2000D FG VV002 14/13 Q1013=
201208040450 METAR ESMX 040450Z AUTO 23004KT 9999NDV OVC001/// 13/12 Q1013=
201208040420 METAR ESMX 040420Z AUTO 22005KT 9999NDV FEW004/// SCT039/// BKN059/// 13/11 Q1013=
201208040350 METAR ESMX 040350Z AUTO 21005KT 9999NDV NCD 11/10 Q1013=
201208040320 METAR ESMX 040320Z AUTO 19004KT 9999NDV FEW043/// 11/09 Q1013=
201208040250 METAR ESMX 040250Z AUTO 19005KT 9999NDV FEW074/// 10/09 Q1013=
201208040220 METAR ESMX 040220Z AUTO 17002KT 9999NDV FEW091/// 10/09 Q1013=
201208040150 METAR ESMX 040150Z AUTO 17001KT 9999NDV NCD 09/08 Q1013=
201208040120 METAR ESMX 040120Z AUTO 15002KT 9999NDV NCD 10/09 Q1013=
201208040050 METAR ESMX 040050Z AUTO 18001KT 9999NDV NCD 09/08 Q1013=
201208040020 METAR ESMX 040020Z AUTO 21003KT 9999NDV NCD 11/09 Q1013=
201208032350 METAR ESMX 032350Z AUTO 21004KT 9999NDV NCD 12/10 Q1014=
201208032320 METAR ESMX 032320Z AUTO 23004KT 9999NDV NCD 11/09 Q1014=
201208032250 METAR ESMX 032250Z AUTO 23003KT 9999NDV NCD 12/10 Q1014=
201208032220 METAR ESMX 032220Z AUTO 24003KT 9999NDV NCD 13/10 Q1014=
201208032150 METAR ESMX 032150Z AUTO 24004KT 9999NDV NCD 13/11 Q1013=
201208032120 METAR ESMX 032120Z AUTO 23005KT 9999NDV NCD 13/10 Q1013=
201208032050 METAR ESMX 032050Z AUTO 23004KT 9999NDV NCD 14/11 Q1013=
201208032020 METAR ESMX 032020Z AUTO 23004KT 9999NDV NCD 14/10 Q1013=
201208031950 METAR ESMX 031950Z AUTO 25004KT 9999NDV NCD 15/10 Q1013=
201208031920 METAR ESMX 031920Z AUTO 24004KT 9999NDV NCD 16/11 Q1013=
201208031850 METAR ESMX 031850Z AUTO 26004KT 9999NDV NCD 18/11 Q1013=
201208031820 METAR ESMX 031820Z 26004KT 230V300 CAVOK 19/11 Q1013=
201208031750 METAR ESMX 031750Z 26007KT 230V300 CAVOK 20/11 Q1012=
201208031720 METAR ESMX 031720Z 25008KT 210V290 CAVOK 20/11 Q1012=
201208031650 METAR ESMX 031650Z 28009KT 240V320 CAVOK 21/12 Q1012=
201208031620 METAR ESMX 031620Z 27011KT 9999 FEW044 21/12 Q1012=
201208031550 METAR ESMX 031550Z 27009KT 230V330 9999 FEW043 22/12 Q1013=
201208031520 METAR ESMX 031520Z 25009KT 210V290 CAVOK 21/11 Q1013=
201208031450 METAR ESMX 031450Z 26010KT 230V300 9999 FEW041 SCT068 22/12 Q1013=
201208031420 METAR ESMX 031420Z 27007KT 230V300 9999 FEW048 SCT071 22/12 Q1013=
201208031350 METAR ESMX 031350Z 23008KT 190V250 9999 FEW043 SCT061 22/11 Q1013=
201208031320 METAR ESMX 031320Z 23007KT 180V260 9999 SCT043 22/11 Q1013=
201208031250 METAR ESMX 031250Z 26007KT 170V300 9999 FEW043 SCT070 22/11 Q1013=
201208031220 METAR ESMX 031220Z 24009KT 200V270 9999 FEW043 SCT067 22/12 Q1013=
201208031150 METAR ESMX 031150Z 22009KT 190V250 9999 FEW045 SCT072 22/11 Q1013=
201208031120 METAR ESMX 031120Z 26006KT 200V010 9999 FEW030 SCT045 22/12 Q1013=
201208031050 METAR ESMX 031050Z 28005KT 210V340 9999 FEW031 SCT045 21/12 Q1013=
201208031020 METAR ESMX 031020Z 22006KT 200V270 9999 SCT032 BKN052 20/12 Q1013=
201208030950 METAR ESMX 030950Z 26008KT 230V300 9999 FEW031 SCT042 BKN053 20/13 Q1013=
201208030920 METAR ESMX 030920Z 22007KT 180V250 9999 FEW026 BKN030 20/13 Q1013=
201208030850 METAR ESMX 030850Z 26007KT 230V310 9999 FEW025 SCT029 19/13 Q1013=
201208030820 METAR ESMX 030820Z 28009KT 240V310 9999 FEW020 SCT026 19/12 Q1013=
201208030750 METAR ESMX 030750Z 28010KT 9999 FEW019 SCT034 19/15 Q1013=
201208030720 METAR ESMX 030720Z 26010KT 210V300 9999 FEW011 SCT016 BKN026 19/15 Q1013=
201208030650 METAR ESMX 030650Z AUTO 26007KT 230V300 9999NDV FEW008/// SCT011/// 19/16 Q1012=
201208030620 METAR ESMX 030620Z AUTO 25005KT 220V290 9999NDV FEW006/// SCT007/// BKN008/// 17/16 Q1013=
201208030550 METAR ESMX 030550Z AUTO 27005KT 240V320 9000NDV BR BKN002/// OVC006/// 17/16 Q1012=
201208030520 METAR ESMX 030520Z AUTO 27005KT 5000NDV BR OVC001/// 16/16 Q1012=
201208030450 METAR ESMX 030450Z AUTO 26008KT 230V300 1900NDV BR OVC001/// 16/15 Q1012=
201208030420 METAR ESMX 030420Z AUTO 25006KT 6000NDV BR FEW003/// 16/15 Q1012=
201208030350 METAR ESMX 030350Z AUTO 27005KT 7000NDV BR NCD 16/15 Q1012=
201208030320 METAR ESMX 030320Z AUTO 25005KT 7000NDV BR FEW006/// 17/16 Q1012=
201208030250 METAR ESMX 030250Z AUTO 24004KT 8000NDV BR FEW016/// SCT019/// BKN021/// 17/16 Q1012=
201208030220 METAR ESMX 030220Z AUTO 24006KT 8000NDV BR FEW011/// BKN017/// 17/16 Q1012=
201208030150 METAR ESMX 030150Z AUTO 22005KT 8000NDV BR BKN034/// 17/16 Q1011=
201208030120 METAR ESMX 030120Z AUTO 19004KT 7000NDV BR FEW037/// BKN084/// 17/16 Q1011=
201208030050 METAR ESMX 030050Z AUTO 18005KT 7000NDV BR FEW086/// 18/16 Q1012=
201208030020 METAR ESMX 030020Z 15003KT CAVOK 17/16 Q1012=
201208022350 METAR ESMX 022350Z 00000KT CAVOK 17/16 Q1011=
201208022320 METAR ESMX 022320Z 15001KT CAVOK 18/16 Q1012=
201208022250 METAR ESMX 022250Z 25003KT 230V290 CAVOK 18/16 Q1012=
201208022220 METAR ESMX 022220Z AUTO 15003KT 110V190 9999NDV SCT082/// BKN100/// 19/16 Q1011=
201208022150 METAR ESMX 022150Z 15003KT 110V190 CAVOK 19/16 Q1012=
201208022120 METAR ESMX 022120Z VRB02KT CAVOK 19/16 Q1012=
201208022050 METAR ESMX 022050Z 14004KT 110V170 CAVOK 19/16 Q1012=
201208022020 METAR ESMX 022020Z 12005KT 080V170 CAVOK 19/16 Q1012=
201208021950 METAR ESMX 021950Z 11005KT 060V160 CAVOK 20/16 Q1012=
201208021920 METAR ESMX 021920Z 14005KT 110V190 CAVOK 20/16 Q1012 RERA=
201208021850 METAR ESMX 021850Z 13004KT 100V180 9999 -RA FEW008 SCT099 BKN110 21/16 Q1012=
201208021820 METAR ESMX 021820Z 15005KT 100V190 CAVOK 22/15 Q1012=
201208021750 METAR ESMX 021750Z 16005KT 120V190 CAVOK 23/15 Q1012=
201208021720 METAR ESMX 021720Z 14006KT 100V190 CAVOK 23/14 Q1012=
201208021650 METAR ESMX 021650Z 15007KT 100V190 CAVOK 23/14 Q1012=
201208021620 METAR ESMX 021620Z 15009KT 100V190 CAVOK 25/14 Q1012=
201208021550 METAR ESMX 021550Z 14008KT 100V170 9999 FEW041 24/14 Q1013=
201208021520 METAR ESMX 021520Z 14012KT CAVOK 25/13 Q1013=
201208021450 METAR ESMX 021450Z 15010KT 120V210 CAVOK 25/13 Q1013=
201208021420 METAR ESMX 021420Z 17009KT 120V200 CAVOK 26/13 Q1013=
201208021350 METAR ESMX 021350Z 15010KT 110V210 CAVOK 26/13 Q1013=
201208021320 METAR ESMX 021320Z 16011KT 120V190 CAVOK 26/13 Q1013=
201208021250 METAR ESMX 021250Z 17011KT 120V210 CAVOK 26/12 Q1014=
201208021220 METAR ESMX 021220Z 18014KT CAVOK 26/12 Q1014=
201208021150 METAR ESMX 021150Z 15010KT 060V200 CAVOK 25/12 Q1014=
201208021120 METAR ESMX 021120Z 16010KT 090V210 CAVOK 25/12 Q1014=
201208021050 METAR ESMX 021050Z 15009KT 080V190 CAVOK 23/12 Q1015=
201208021020 METAR ESMX 021020Z 15008KT 110V190 CAVOK 23/12 Q1015=
201208020950 METAR ESMX 020950Z 14008KT 070V190 CAVOK 23/13 Q1015=
201208020920 METAR ESMX 020920Z 16009KT 110V200 CAVOK 23/12 Q1015=
201208020850 METAR ESMX 020850Z 15007KT 100V200 CAVOK 22/13 Q1015=
201208020820 METAR ESMX 020820Z 16007KT 110V200 CAVOK 21/13 Q1016=
201208020750 METAR ESMX 020750Z 15006KT 110V190 CAVOK 20/13 Q1016=
201208020720 METAR ESMX 020720Z 15005KT 110V190 CAVOK 19/14 Q1016=
201208020650 METAR ESMX 020650Z 14004KT 060V170 CAVOK 17/13 Q1016=
201208020620 METAR ESMX 020620Z 14005KT 080V190 CAVOK 16/12 Q1016=
201208020550 METAR ESMX 020550Z 14004KT 110V190 CAVOK 16/12 Q1017=
201208020520 METAR ESMX 020520Z AUTO 13004KT 080V190 9999NDV NCD 15/12 Q1017=
201208020450 METAR ESMX 020450Z AUTO 13004KT 090V190 9999NDV NCD 14/12 Q1017=
201208020420 METAR ESMX 020420Z AUTO 14004KT 100V170 9999NDV NCD 14/12 Q1017=
201208020350 METAR ESMX 020350Z AUTO 14004KT 110V180 9999NDV BR SCT040/// 13/12 Q1017=
201208020320 METAR ESMX 020320Z AUTO 14003KT 090V170 7000NDV BR NCD 13/12 Q1017=
201208020250 METAR ESMX 020250Z AUTO 13003KT 090V160 7000NDV BR NCD 13/12 Q1017=
201208020220 METAR ESMX 020220Z AUTO 15003KT 110V190 4100NDV BR FEW002/// 13/12 Q1017=
201208020150 METAR ESMX 020150Z AUTO 15005KT 110V200 2000NDV BR FEW002/// 13/12 Q1017=
201208020120 METAR ESMX 020120Z AUTO 15005KT 110V190 2500NDV BR SCT001/// BKN003/// 13/12 Q1017=
201208020050 METAR ESMX 020050Z AUTO 16005KT 120V190 4600NDV BR FEW002/// 13/12 Q1017=
201208020020 METAR ESMX 020020Z AUTO 15005KT 110V190 7000NDV BR NCD 13/12 Q1018=
201208012350 METAR ESMX 012350Z 14004KT 100V170 8000 BR NSC 13/12 Q1018=
201208012320 METAR ESMX 012320Z 14004KT 100V160 CAVOK 13/11 Q1018=
201208012250 METAR ESMX 012250Z 14004KT 110V190 CAVOK 13/11 Q1018=
201208012220 METAR ESMX 012220Z 15004KT CAVOK 14/12 Q1018=
201208012150 METAR ESMX 012150Z 15005KT CAVOK 14/12 Q1018=
201208012120 METAR ESMX 012120Z 15004KT CAVOK 14/11 Q1018=
201208012050 METAR ESMX 012050Z 16004KT CAVOK 15/11 Q1018=
201208012020 METAR ESMX 012020Z 16004KT CAVOK 15/12 Q1018=
201208011950 METAR ESMX 011950Z 16005KT CAVOK 15/11 Q1018=
201208011920 METAR ESMX 011920Z 16005KT CAVOK 16/12 Q1017=
201208011850 METAR ESMX 011850Z 17005KT CAVOK 17/12 Q1017=
201208011820 METAR COR ESMX 011820Z 18005KT CAVOK 17/12 Q1017=
201208011750 METAR ESMX 011750Z 19005KT 9999 FEW039 SCT075 17/12 Q1017=
201208011720 METAR ESMX 011720Z 17006KT 140V200 9999 FEW040 SCT054 18/11 Q1017=
201208011650 METAR ESMX 011650Z 19007KT 9999 FEW041 BKN075 18/10 Q1017=
201208011620 METAR ESMX 011620Z 18008KT 140V200 9999 FEW041 BKN052 19/10 Q1017=
201208011550 METAR ESMX 011550Z 20009KT 9999 SCT039 BKN080 19/10 Q1017=
201208011520 METAR ESMX 011520Z 19007KT 140V220 9999 FEW037 SCT045 BKN079 20/11 Q1017=
201208011450 METAR ESMX 011450Z 19007KT 150V230 9999 SCT038 BKN054 19/10 Q1017=
201208011420 METAR ESMX 011420Z 22008KT 190V250 9999 SCT039 BKN053 19/10 Q1018=
201208011350 METAR ESMX 011350Z 21009KT 9999 FEW042 BKN067 19/09 Q1018=
201208011320 METAR ESMX 011320Z 22009KT 180V250 9999 FEW044 BKN062 19/10 Q1018=
201208011250 METAR ESMX 011250Z 21008KT 9999 FEW043 BKN058 19/09 Q1018=
201208011220 METAR ESMX 011220Z 21010KT 180V240 9999 SCT043 19/08 Q1018=
