##########################################################
# Query made at 04/19/2024 21:31:15 UTC
# Time interval: from 12/01/2012 12:00  to 12/31/2012 12:59  UTC
##########################################################

##########################################################
# ESMX, Vaxjo (Sweden)
# WMO index: 02641. WIGOS ID: 0-20000-0-02648
# Latitude 56-51N. Longitude 014-50E. Altitude 199 m.
##########################################################

201212311250 METAR ESMX 311250Z AUTO 21012KT 9999NDV -RA OVC004/// 06/05 Q0997 REDZ=
201212311220 METAR ESMX 311220Z AUTO 19011KT 8000NDV DZ OVC004/// 06/05 Q0997=
201212311150 METAR ESMX 311150Z AUTO 20010KT 9999NDV DZ OVC002/// 05/05 Q0997=
201212311120 METAR ESMX 311120Z AUTO 18010KT 7000NDV DZ OVC003/// 05/04 Q0997=
201212311050 METAR ESMX 311050Z AUTO 18009KT 9999NDV DZ OVC003/// 05/04 Q0998=
201212311020 METAR ESMX 311020Z AUTO 17009KT 9999NDV -RA OVC004/// 04/03 Q0998 REDZ=
201212310950 METAR ESMX 310950Z AUTO 17009KT 9000NDV DZ OVC004/// 04/03 Q0998=
201212310920 METAR ESMX 310920Z AUTO 18008KT 9999NDV -RA FEW005/// BKN006/// BKN024/// 04/03 Q0999 REDZ=
201212310850 METAR ESMX 310850Z AUTO 19011KT 8000NDV DZ FEW005/// BKN007/// OVC010/// 04/03 Q0999=
201212310820 METAR ESMX 310820Z AUTO 19011KT 9000NDV DZ OVC004/// 04/03 Q0999=
201212310750 METAR ESMX 310750Z AUTO 18011KT 9000NDV DZ OVC003/// 03/03 Q0999=
201212310720 METAR ESMX 310720Z AUTO 19011KT 4300NDV -DZ FEW004/// BKN005/// OVC008/// 03/02 Q0999=
201212310650 METAR ESMX 310650Z 18009KT 9999 FEW004 OVC006 03/02 Q1000=
201212310620 METAR ESMX 310620Z 19010KT 9000 -RA FEW006 SCT009 BKN010 03/02 Q1000 RERA=
201212310550 METAR ESMX 310550Z 21012KT 9999 BKN007 OVC011 03/02 Q1000=
201212310520 METAR ESMX 310520Z 20012KT 9999 FEW007 BKN009 OVC011 03/02 Q1000=
201212310450 METAR ESMX 310450Z AUTO 21012KT 9999NDV FEW007/// SCT008/// BKN010/// 03/02 Q1001=
201212310420 METAR ESMX 310420Z AUTO 20011KT 9999NDV FEW006/// SCT008/// BKN009/// 03/02 Q1001=
201212310350 METAR ESMX 310350Z AUTO 20011KT 9999NDV FEW006/// OVC007/// 03/02 Q1001=
201212310320 METAR ESMX 310320Z AUTO 21012KT 9999NDV OVC006/// 03/01 Q1001=
201212310250 METAR ESMX 310250Z AUTO 20012KT 9999NDV BKN006/// OVC009/// 02/01 Q1001=
201212310220 METAR ESMX 310220Z AUTO 21013KT 9000NDV DZ OVC006/// 02/01 Q1001=
201212310150 METAR ESMX 310150Z AUTO 20012KT 9999NDV OVC007/// 02/01 Q1001=
201212310120 METAR ESMX 310120Z AUTO 21011KT 9999NDV FEW006/// OVC008/// 02/01 Q1001=
201212310050 METAR ESMX 310050Z AUTO 21011KT 9999NDV BKN007/// OVC011/// 02/01 Q1001 REDZ=
201212310020 METAR ESMX 310020Z AUTO 22011KT 9999NDV FEW008/// BKN011/// BKN017/// 02/01 Q1001=
201212302350 METAR ESMX 302350Z AUTO 21014KT 9999NDV FEW007/// BKN010/// OVC015/// 02/01 Q1001=
201212302320 METAR ESMX 302320Z AUTO 21013KT 9999NDV FEW007/// SCT009/// BKN011/// 02/01 Q1001=
201212302250 METAR ESMX 302250Z AUTO 21012KT 9000NDV BR FEW006/// BKN008/// OVC010/// 02/01 Q1001=
201212302220 METAR ESMX 302220Z AUTO 22012KT 9999NDV -DZ FEW007/// BKN008/// OVC012/// 02/01 Q1001=
201212302150 METAR ESMX 302150Z AUTO 22012KT 9999NDV FEW006/// SCT009/// BKN011/// 02/01 Q1001=
201212302120 METAR ESMX 302120Z AUTO 22012KT 9999NDV FEW006/// SCT008/// BKN010/// 02/01 Q1001=
201212302050 METAR ESMX 302050Z AUTO 21011KT 9000NDV BR FEW005/// BKN007/// OVC009/// 02/01 Q1001=
201212302020 METAR ESMX 302020Z 20011KT 5000 -RA FEW005 SCT008 BKN009 02/01 Q1000 REDZ=
201212301950 METAR ESMX 301950Z 20012KT 9000 -DZ FEW007 SCT008 BKN010 02/01 Q1000=
201212301920 METAR ESMX 301920Z 20012KT 9999 DZ FEW010 BKN014 BKN018 02/01 Q1000=
201212301850 METAR ESMX 301850Z 19011KT 9999 FEW009 SCT012 BKN015 02/01 Q1000=
201212301820 METAR ESMX 301820Z 19013KT 9999 FEW009 SCT013 BKN016 02/01 Q1000=
201212301750 METAR ESMX 301750Z 20013KT 9999 FEW013 OVC015 03/01 Q1000=
201212301650 METAR ESMX 301650Z 19011KT 9999 FEW019 BKN030 03/01 Q1001=
201212301620 METAR ESMX 301620Z 22010KT 9999 FEW021 SCT031 BKN045 03/01 Q1001=
201212301550 METAR ESMX 301550Z 23016KT 9999 -RA FEW007 SCT011 BKN017 04/02 Q1001=
201212301520 METAR ESMX 301520Z 20012KT 9999 FEW012 SCT016 BKN019 04/03 Q1000=
201212301450 METAR ESMX 301450Z 20009KT 9999 FEW005 BKN034 BKN046 04/03 Q1000 RESHRA=
201212301420 METAR ESMX 301420Z 24014KT 4000 SHRA FEW005 SCT009 BKN013 04/03 Q1000=
201212301350 METAR ESMX 301350Z 18011KT 3500 RA FEW006 SCT009 BKN016 05/04 Q1000=
201212301320 METAR ESMX 301320Z 19010KT 9999 FEW007 BKN011 05/04 Q1001=
201212301250 METAR ESMX 301250Z AUTO 19010KT 9999NDV FEW006/// SCT008/// BKN012/// 05/04 Q1001 RERA=
201212301220 METAR ESMX 301220Z AUTO 19010KT 9999NDV FEW005/// SCT008/// BKN010/// 05/04 Q1001=
201212301150 METAR ESMX 301150Z AUTO 19012KT 9999NDV FEW002/// SCT004/// BKN005/// 05/04 Q1001=
201212301120 METAR ESMX 301120Z AUTO 19010KT 9999NDV OVC003/// 05/04 Q1001=
201212301050 METAR ESMX 301050Z AUTO 19010KT 9000NDV BR OVC002/// 05/04 Q1002 REDZ=
201212301020 METAR ESMX 301020Z AUTO 18009KT 6000NDV -DZ OVC002/// 05/04 Q1002=
201212300950 METAR ESMX 300950Z AUTO 18009KT 6000NDV -DZ OVC002/// 05/04 Q1002=
201212300920 METAR ESMX 300920Z AUTO 18010KT 6000NDV -DZ OVC002/// 05/04 Q1002=
201212300850 METAR ESMX 300850Z AUTO 18010KT 6000NDV -RA OVC002/// 05/04 Q1002=
201212300820 METAR ESMX 300820Z AUTO 19010KT 6000NDV -DZ OVC002/// 05/04 Q1002=
201212300750 METAR ESMX 300750Z AUTO 19011KT 4100NDV BR OVC002/// 05/04 Q1002=
201212300720 METAR ESMX 300720Z AUTO 18010KT 5000NDV BR OVC002/// 04/04 Q1002=
201212300650 METAR ESMX 300650Z AUTO 17008KT 4000NDV BR OVC002/// 04/04 Q1002=
201212300620 METAR ESMX 300620Z AUTO 18008KT 4700NDV BR OVC002/// 04/03 Q1002=
201212300550 METAR ESMX 300550Z AUTO 18008KT 3800NDV BR OVC001/// 04/03 Q1002=
201212300520 METAR ESMX 300520Z AUTO 17008KT 2200NDV DZ OVC001/// 04/03 Q1002=
201212300450 METAR ESMX 300450Z AUTO 17009KT 2100NDV BR OVC001/// 04/03 Q1002=
201212300420 METAR ESMX 300420Z AUTO 17009KT 2300NDV BR OVC001/// 04/03 Q1002=
201212300350 METAR ESMX 300350Z AUTO 17008KT 2300NDV BR OVC001/// 04/03 Q1003=
201212300320 METAR ESMX 300320Z AUTO 17009KT 2800NDV BR OVC001/// 04/03 Q1003=
201212300250 METAR ESMX 300250Z AUTO 17008KT 3200NDV BR OVC001/// 04/03 Q1003=
201212300220 METAR ESMX 300220Z AUTO 17010KT 5000NDV BR OVC001/// 04/03 Q1004=
201212300150 METAR ESMX 300150Z AUTO 17010KT 4300NDV BR OVC001/// 04/03 Q1004=
201212300120 METAR ESMX 300120Z AUTO 17010KT 2300NDV OVC001/// 04/03 Q1004=
201212300050 METAR ESMX 300050Z AUTO 17010KT 2800NDV OVC001/// 04/03 Q1004=
201212300020 METAR ESMX 300020Z AUTO 16010KT 0900NDV R01/P2000N R19/P2000N FG VV002 03/03 Q1005=
201212292350 METAR ESMX 292350Z AUTO 15009KT 0550NDV R01/1800N R19/1400VP2000U FG VV001 03/03 Q1005=
201212292320 METAR ESMX 292320Z AUTO 17009KT 2300NDV OVC001/// 04/03 Q1006=
201212292250 METAR ESMX 292250Z AUTO 17009KT 2400NDV OVC001/// 04/04 Q1006=
201212292220 METAR ESMX 292220Z AUTO 16009KT 0750NDV R01/P2000N R19/P2000N FG VV001 04/04 Q1006=
201212292150 METAR ESMX 292150Z AUTO 17008KT 1100NDV R01/P2000N R19/P2000N VV002 04/04 Q1006=
201212292120 METAR ESMX 292120Z AUTO 17008KT 0500NDV R01/1600U R19/1700N FG VV001 04/04 Q1007=
201212292050 METAR ESMX 292050Z AUTO 16009KT 0650NDV R01/1900N R19/P2000N FG VV001 04/04 Q1007=
201212292020 METAR ESMX 292020Z AUTO 17009KT 0500NDV R01/1500N R19/1700U FG VV001 04/04 Q1007=
201212291950 METAR ESMX 291950Z AUTO 18009KT 0450NDV R01/1500N R19/1700N FG VV001 04/04 Q1007=
201212291920 METAR ESMX 291920Z AUTO 18009KT 0350NDV R01/1200N R19/1400N FG VV001 04/04 Q1007=
201212291850 METAR ESMX 291850Z AUTO 18010KT 0350NDV R01/1200N R19/1300N FG VV001 04/04 Q1008=
201212291820 METAR ESMX 291820Z AUTO 16008KT 0300NDV R01/1000N R19/1300N FG VV001 04/04 Q1008=
201212291750 METAR ESMX 291750Z AUTO 16007KT 0300NDV R01/1000N R19/1200N FG VV001 04/04 Q1008=
201212291720 METAR ESMX 291720Z AUTO 18007KT 0300NDV R01/1000N R19/1300N FG VV001 05/04 Q1008=
201212291650 METAR ESMX 291650Z AUTO 17006KT 0250NDV R01/0800N R19/1100N FG VV001 04/04 Q1009=
201212291620 METAR ESMX 291620Z AUTO 17007KT 0250NDV R01/0800N R19/1000N FG VV001 04/04 Q1009=
201212291550 METAR ESMX 291550Z AUTO 18009KT 0250NDV R01/0900N R19/0900N FG VV001 04/04 Q1009=
201212291520 METAR ESMX 291520Z AUTO 18009KT 0400NDV R01/1300D R19/1500D FG VV001 04/04 Q1009=
201212291450 METAR ESMX 291450Z AUTO 18009KT 0600NDV R01/1600N R19/1800U FG VV001 04/03 Q1009=
201212291420 METAR ESMX 291420Z AUTO 19010KT 0750NDV R01/1600N R19/1900U FG VV002 04/03 Q1009=
201212291350 METAR ESMX 291350Z AUTO 19010KT 0750NDV R01/1500U R19/1700N FG VV001 04/03 Q1009=
201212291320 METAR ESMX 291320Z AUTO 18011KT 1500NDV BR OVC001/// 03/03 Q1010 REDZ=
201212291250 METAR ESMX 291250Z AUTO 18011KT 1800NDV OVC001/// 03/03 Q1010=
201212291220 METAR ESMX 291220Z AUTO 18010KT 1800NDV VV002 03/03 Q1010=
201212291150 METAR ESMX 291150Z AUTO 17008KT 0500NDV R01/0900U R19/1000N FG VV001 03/02 Q1010=
201212291120 METAR ESMX 291120Z AUTO 17007KT 0500NDV R01/1000U R19/1000N FG VV001 02/02 Q1010=
201212291050 METAR ESMX 291050Z AUTO 17008KT 0650NDV R01/1200D R19/1500D FG VV001 02/02 Q1011 REDZ=
201212291020 METAR ESMX 291020Z AUTO 17008KT 0600NDV R01/1200N R19/1300N -RA VV001 02/01 Q1011=
201212290950 METAR ESMX 290950Z AUTO 16008KT 0900NDV R01/1600D R19/1700D FG VV002 02/01 Q1011=
201212290920 METAR ESMX 290920Z AUTO 17009KT 2200NDV BR OVC001/// 01/01 Q1011=
201212290850 METAR ESMX 290850Z AUTO 17011KT 9999NDV OVC002/// 01/01 Q1011=
201212290820 METAR ESMX 290820Z AUTO 17010KT 9999NDV OVC002/// 01/01 Q1011=
201212290750 METAR ESMX 290750Z AUTO 17009KT 5000NDV -DZ FEW003/// OVC004/// 01/01 Q1012=
201212290720 METAR ESMX 290720Z AUTO 17010KT 7000NDV DZ OVC003/// 01/00 Q1012=
201212290650 METAR ESMX 290650Z AUTO 17009KT 8000NDV -RA FEW003/// OVC005/// 01/00 Q1012=
201212290620 METAR ESMX 290620Z AUTO 17011KT 7000NDV -RA OVC002/// 01/00 Q1012 REDZ=
201212290550 METAR ESMX 290550Z AUTO 17011KT 4700NDV DZ OVC002/// 01/00 Q1012 RESG=
201212290520 METAR ESMX 290520Z AUTO 17011KT 4700NDV DZ OVC003/// 01/00 Q1013 REUP=
201212290450 METAR ESMX 290450Z AUTO 16012KT 5000NDV BR OVC003/// 00/M00 Q1013=
201212290420 METAR ESMX 290420Z AUTO 16010KT 9999NDV OVC003/// 00/M00 Q1013=
201212290350 METAR ESMX 290350Z AUTO 16009KT 5000NDV -SN FEW004/// OVC005/// M00/M01 Q1014=
201212290320 METAR ESMX 290320Z AUTO 16010KT 3600NDV -SN SCT004/// BKN007/// OVC008/// M01/M01 Q1014=
201212290250 METAR ESMX 290250Z AUTO 14010KT 2900NDV -SN BKN005/// BKN009/// M01/M01 Q1015=
201212290220 METAR ESMX 290220Z AUTO 15009KT 3100NDV -SN FEW005/// SCT010/// M01/M02 Q1015=
201212290150 METAR ESMX 290150Z AUTO 16010KT 3600NDV -SN FEW007/// M01/M02 Q1016=
201212290120 METAR ESMX 290120Z AUTO 15009KT 6000NDV -SN FEW006/// M01/M02 Q1017=
201212290050 METAR ESMX 290050Z AUTO 16009KT 9999NDV FEW096/// M01/M03 Q1017=
201212290020 METAR ESMX 290020Z AUTO 15007KT 9999NDV FEW059/// SCT100/// M02/M03 Q1017=
201212282350 METAR ESMX 282350Z AUTO 15009KT 120V190 9999NDV NCD M02/M03 Q1018=
201212282320 METAR ESMX 282320Z AUTO 15009KT 9999NDV NCD M02/M04 Q1018=
201212282250 METAR ESMX 282250Z AUTO 15008KT 9999NDV NCD M02/M04 Q1019=
201212282220 METAR ESMX 282220Z AUTO 15007KT 9999NDV NCD M03/M04 Q1020=
201212282150 METAR ESMX 282150Z AUTO 12005KT 9999NDV NCD M03/M04 Q1020=
201212282120 METAR ESMX 282120Z AUTO 14004KT 100V170 9999NDV NCD M03/M04 Q1021=
201212282050 METAR ESMX 282050Z AUTO 16004KT 9999NDV NCD M03/M04 Q1021=
201212282020 METAR ESMX 282020Z AUTO 18006KT 9999NDV FEW003/// SCT004/// M03/M03 Q1022=
201212281950 METAR ESMX 281950Z AUTO 18006KT 9999NDV OVC001/// M03/M03 Q1021=
201212281920 METAR ESMX 281920Z AUTO 19008KT 8000NDV BR SCT002/// OVC004/// M03/M03 Q1022=
201212281850 METAR ESMX 281850Z AUTO 18006KT 9999NDV SCT003/// M03/M03 Q1022=
201212281820 METAR ESMX 281820Z AUTO 17006KT 9999NDV NCD M03/M04 Q1022=
201212281750 METAR ESMX 281750Z 18004KT CAVOK M03/M04 Q1021=
201212281720 METAR ESMX 281720Z 16005KT CAVOK M03/M04 Q1022=
201212281650 METAR ESMX 281650Z 18003KT CAVOK M03/M04 Q1022=
201212281620 METAR ESMX 281620Z 23004KT CAVOK M03/M04 Q1021=
201212281550 METAR ESMX 281550Z 19004KT CAVOK M03/M04 Q1021=
201212281520 METAR ESMX 281520Z 23003KT 180V260 CAVOK M03/M04 Q1021=
201212281450 METAR ESMX 281450Z 24005KT CAVOK M02/M04 Q1021=
201212281420 METAR ESMX 281420Z 25007KT CAVOK M02/M04 Q1020=
201212281350 METAR ESMX 281350Z 24006KT 200V260 CAVOK M01/M04 Q1021=
201212281320 METAR ESMX 281320Z 25008KT CAVOK M01/M04 Q1020=
201212281250 METAR ESMX 281250Z 25007KT CAVOK 00/M05 Q1020=
201212281220 METAR ESMX 281220Z 26008KT CAVOK M00/M05 Q1019=
201212281150 METAR ESMX 281150Z 26008KT CAVOK M00/M05 Q1019=
201212281120 METAR ESMX 281120Z 27008KT CAVOK M00/M05 Q1019=
201212281050 METAR ESMX 281050Z 28008KT CAVOK M01/M05 Q1019=
201212281020 METAR ESMX 281020Z 29006KT CAVOK M01/M05 Q1018=
201212280950 METAR ESMX 280950Z 28007KT CAVOK M02/M05 Q1018=
201212280920 METAR ESMX 280920Z 28006KT CAVOK M02/M06 Q1017=
201212280850 METAR ESMX 280850Z 29008KT CAVOK M03/M06 Q1017=
201212280820 METAR ESMX 280820Z 27006KT CAVOK M04/M07 Q1017=
201212280750 METAR ESMX 280750Z 26005KT CAVOK M04/M07 Q1016=
201212280720 METAR ESMX 280720Z 24005KT 210V280 CAVOK M04/M07 Q1015=
201212280650 METAR ESMX 280650Z AUTO 28006KT 240V320 9999NDV NCD M04/M07 Q1015=
201212280620 METAR ESMX 280620Z AUTO 28006KT 9999NDV NCD M05/M08 Q1014=
201212280550 METAR ESMX 280550Z AUTO 26006KT 9999NDV NCD M05/M08 Q1014=
201212280520 METAR ESMX 280520Z AUTO 26007KT 9999NDV NCD M06/M08 Q1013=
201212280450 METAR ESMX 280450Z AUTO 26007KT 9999NDV NCD M06/M08 Q1013=
201212280420 METAR ESMX 280420Z AUTO 27009KT 9999NDV NCD M06/M08 Q1012=
201212280350 METAR ESMX 280350Z AUTO 27010KT 9999NDV NCD M06/M08 Q1011=
201212280320 METAR ESMX 280320Z AUTO 27008KT 9999NDV NCD M06/M09 Q1011=
201212280250 METAR ESMX 280250Z AUTO 27007KT 9999NDV NCD M07/M09 Q1010=
201212280220 METAR ESMX 280220Z AUTO 26007KT 9999NDV NCD M07/M09 Q1010=
201212280150 METAR ESMX 280150Z 27008KT CAVOK M06/M09 Q1009=
201212280120 METAR ESMX 280120Z 27007KT CAVOK M06/M09 Q1009=
201212280050 METAR ESMX 280050Z 29007KT 260V330 9999 NSC M06/M09 Q1007=
201212280020 METAR ESMX 280020Z 29008KT CAVOK M06/M09 Q1007=
201212272350 METAR ESMX 272350Z 30009KT CAVOK M06/M09 Q1006=
201212272320 METAR ESMX 272320Z 30009KT CAVOK M05/M09 Q1005=
201212272250 METAR ESMX 272250Z 30011KT CAVOK M05/M08 Q1005=
201212272220 METAR ESMX 272220Z 30010KT CAVOK M05/M08 Q1004=
201212272150 METAR ESMX 272150Z 30010KT CAVOK M05/M07 Q1003=
201212272120 METAR ESMX 272120Z 30009KT CAVOK M04/M07 Q1002=
201212272050 METAR ESMX 272050Z 30011KT 9999 FEW015 M04/M06 Q1001=
201212271950 METAR ESMX 271950Z 29011KT 9999 FEW015 M03/M06 Q0999=
201212271920 METAR ESMX 271920Z 30011KT 9999 FEW015 M03/M05 Q0998=
201212271850 METAR ESMX 271850Z 30010KT 9999 FEW015 M03/M05 Q0997=
201212271820 METAR ESMX 271820Z 31010KT 9999 SCT016 M02/M04 Q0997=
201212271750 METAR ESMX 271750Z 31012KT 9999 SCT013 M01/M03 Q0996=
201212271720 METAR ESMX 271720Z 29010KT 9999 OVC014 M01/M03 Q0995=
201212271650 METAR ESMX 271650Z 29009KT 9999 FEW006 BKN014 M00/M02 Q0994=
201212271620 METAR ESMX 271620Z 29005KT 9999 SCT012 M01/M02 Q0993=
201212271550 METAR ESMX 271550Z 30007KT 270V330 9999 FEW007 BKN010 M00/M02 Q0993=
201212271520 METAR ESMX 271520Z 30006KT 9999 BKN010 00/M01 Q0992=
201212271450 METAR ESMX 271450Z 33008KT 9999 BKN009 01/M01 Q0992=
201212271420 METAR ESMX 271420Z 31007KT 9999 BKN010 01/00 Q0991=
201212271350 METAR ESMX 271350Z 30004KT 9999 BKN007 02/01 Q0990=
201212271320 METAR ESMX 271320Z 28004KT 9999 FEW009 BKN040 02/01 Q0990=
201212271250 METAR ESMX 271250Z 31003KT 280V350 9999 -DZ FEW007 BKN025 02/01 Q0990=
201212271220 METAR ESMX 271220Z 32005KT 9999 DZ FEW010 BKN020 02/01 Q0990=
201212271150 METAR ESMX 271150Z 34004KT 9999 -DZ FEW006 SCT011 BKN014 02/01 Q0990=
201212271120 METAR ESMX 271120Z 30005KT 6000 -RA FEW002 SCT006 OVC008 02/02 Q0990 REDZ=
201212271050 METAR ESMX 271050Z 28003KT 9999 DZ FEW006 OVC008 03/02 Q0990=
201212271020 METAR ESMX 271020Z 24003KT 8000 DZ OVC008 03/02 Q0990=
201212270950 METAR ESMX 270950Z 20003KT 5000 DZ FEW003 SCT005 BKN007 02/02 Q0990=
201212270920 METAR ESMX 270920Z 18004KT 7000 DZ FEW004 SCT006 BKN008 02/02 Q0990=
201212270850 METAR ESMX 270850Z 19006KT 8000 DZ FEW004 BKN005 OVC007 02/02 Q0990=
201212270820 METAR ESMX 270820Z 19007KT 5000 DZ FEW001 BKN003 OVC006 03/02 Q0991=
201212270750 METAR ESMX 270750Z 18007KT 4600 -DZ OVC002 03/02 Q0991=
201212270720 METAR ESMX 270720Z 19005KT 1900 -DZ OVC002 02/02 Q0991=
201212270650 METAR ESMX 270650Z AUTO 18003KT 2000NDV DZ FEW001/// BKN004/// OVC006/// 02/02 Q0991=
201212270620 METAR ESMX 270620Z AUTO 18003KT 3000NDV DZ OVC001/// 02/02 Q0991=
201212270550 METAR ESMX 270550Z AUTO 19003KT 3900NDV BR FEW003/// SCT005/// BKN007/// 02/01 Q0992=
201212270520 METAR ESMX 270520Z AUTO 20005KT 7000NDV FEW006/// BKN009/// OVC017/// 02/02 Q0992=
201212270450 METAR ESMX 270450Z AUTO 20008KT 8000NDV -RA BKN005/// OVC012/// 02/01 Q0992=
201212270420 METAR ESMX 270420Z AUTO 19008KT 9999NDV FEW006/// SCT009/// OVC010/// 02/01 Q0993=
201212270350 METAR ESMX 270350Z AUTO 22008KT 9999NDV FEW007/// BKN008/// OVC012/// 03/02 Q0993=
201212270320 METAR ESMX 270320Z AUTO 22008KT 9999NDV FEW009/// BKN011/// OVC018/// 03/02 Q0993=
201212270250 METAR ESMX 270250Z AUTO 22010KT 9999NDV SCT012/// BKN017/// OVC023/// 03/01 Q0993=
201212270220 METAR ESMX 270220Z AUTO 22011KT 190V250 9999NDV FEW009/// SCT015/// BKN021/// 03/01 Q0993=
201212270150 METAR ESMX 270150Z AUTO 23010KT 9999NDV FEW010/// SCT013/// BKN017/// 03/02 Q0993=
201212270120 METAR ESMX 270120Z 23011KT 9999 FEW008 SCT013 BKN016 03/02 Q0993=
201212270050 METAR ESMX 270050Z 22011KT 9999 FEW006 SCT009 BKN011 03/02 Q0993=
201212270020 METAR ESMX 270020Z 23010KT 9999 FEW009 BKN011 OVC015 03/02 Q0994=
201212262350 METAR ESMX 262350Z 22011KT 9999 FEW008 BKN011 03/02 Q0994=
201212262320 METAR ESMX 262320Z 23009KT 9999 FEW007 SCT009 BKN010 03/02 Q0994=
201212262250 METAR ESMX 262250Z 24010KT 9999 FEW008 OVC010 03/02 Q0994=
201212262220 METAR ESMX 262220Z 23012KT 9999 FEW009 OVC010 03/02 Q0994=
201212262150 METAR ESMX 262150Z 23012KT 9999 SCT009 BKN015 03/02 Q0994=
201212262120 METAR ESMX 262120Z 22011KT 9999 FEW011 SCT014 BKN017 03/02 Q0994=
201212262050 METAR ESMX 262050Z 23012KT 200V260 4000 -RA FEW007 SCT009 BKN011 03/02 Q0994=
201212262020 METAR ESMX 262020Z 22010KT 5000 DZ FEW008 SCT011 BKN013 03/02 Q0994=
201212261950 METAR ESMX 261950Z 21012KT 9999 FEW008 BKN010 OVC014 03/02 Q0994=
201212261920 METAR ESMX 261920Z 22011KT 190V250 3300 -DZ FEW004 BKN006 OVC009 03/02 Q0994=
201212261850 METAR ESMX 261850Z 21012KT 7000 BR FEW005 BKN007 OVC010 03/02 Q0993=
201212261820 METAR ESMX 261820Z 20013KT 5000 -RA FEW006 SCT008 BKN009 03/02 Q0993=
201212261750 METAR ESMX 261750Z 21012KT 5000 -RA FEW006 SCT008 BKN009 03/02 Q0993=
201212261720 METAR ESMX 261720Z 20012KT 9999 -RA FEW007 SCT009 BKN011 03/02 Q0993=
201212261650 METAR ESMX 261650Z 22012KT 9000 -RA FEW006 OVC009 03/02 Q0993=
201212261620 METAR ESMX 261620Z 20009KT 6000 -RA FEW008 OVC010 03/02 Q0994=
201212261550 METAR ESMX 261550Z 22010KT 9999 SCT009 BKN012 03/02 Q0994=
201212261520 METAR ESMX 261520Z 22011KT 9999 FEW008 BKN010 OVC015 03/02 Q0994=
201212261450 METAR ESMX 261450Z 23012KT 9999 FEW009 BKN010 OVC016 03/02 Q0994=
201212261420 METAR ESMX 261420Z 24011G21KT 9999 FEW006 SCT009 OVC011 04/02 Q0994=
201212261350 METAR ESMX 261350Z 24010KT 9999 SCT005 BKN008 OVC010 04/03 Q0993=
201212261320 METAR ESMX 261320Z 23009KT 9999 FEW006 BKN007 OVC009 03/03 Q0993=
201212261250 METAR ESMX 261250Z 24010KT 9999 FEW006 SCT007 BKN009 03/03 Q0993 RERA=
201212261220 METAR ESMX 261220Z 25010KT 220V280 6000 -RA FEW006 BKN007 OVC009 03/02 Q0993=
201212261150 METAR ESMX 261150Z 24010KT 9999 -RA BKN006 03/03 Q0993=
201212261120 METAR ESMX 261120Z 22010KT 190V260 9999 -RA BKN007 03/03 Q0992=
201212261050 METAR ESMX 261050Z 23011KT 9999 -RA FEW002 BKN004 03/03 Q0992=
201212261020 METAR ESMX 261020Z 19008KT 4300 DZ OVC002 03/03 Q0991=
201212260950 METAR ESMX 260950Z 17006KT 5000 BR OVC002 03/03 Q0992=
201212260920 METAR ESMX 260920Z 17007KT 6000 BR OVC002 03/02 Q0991=
201212260850 METAR ESMX 260850Z 16006KT 1100 R01/1300VP2000U R19/P2000N BR OVC002 03/02 Q0991=
201212260820 METAR ESMX 260820Z 15005KT 0500 R01/1100N R19/1400N FG VV002 02/02 Q0991=
201212260750 METAR ESMX 260750Z 13004KT 0300 R01/0800N R19/1100N FG VV002 02/02 Q0991=
201212260720 METAR ESMX 260720Z 13005KT 100V160 0250 R01/0900D R19/1000D FG VV002 02/02 Q0991=
201212260650 METAR ESMX 260650Z 14005KT 110V170 0450 R01/1400D R19/P2000N FG VV002 02/01 Q0992=
201212260620 METAR ESMX 260620Z 14006KT 1100 R01/P2000N R19/P2000N BR VV002 02/02 Q0992=
201212260550 METAR ESMX 260550Z 14006KT 100V170 0800 R01/P2000N R19/P2000N FG VV002 02/01 Q0992=
201212260520 METAR ESMX 260520Z 13006KT 100V160 1700 R01/P2000N R19/P2000N -DZ OVC002 02/01 Q0992=
201212260450 METAR ESMX 260450Z AUTO 14006KT 0450NDV R01/1500N R19/P2000N FG VV001 02/01 Q0993=
201212260420 METAR ESMX 260420Z AUTO 13006KT 100V160 0450NDV R01/1500N R19/P2000N FG VV001 02/01 Q0993 REDZ=
201212260350 METAR ESMX 260350Z AUTO 14007KT 0550NDV R01/1700N R19/P2000N FG VV001 01/01 Q0993=
201212260320 METAR ESMX 260320Z AUTO 15007KT 1200NDV R01/P2000N R19/P2000N BR VV002 01/01 Q0994 REDZ=
201212260250 METAR ESMX 260250Z AUTO 15007KT 2100NDV DZ OVC001/// 01/01 Q0994=
201212260220 METAR ESMX 260220Z AUTO 14006KT 1400NDV R01/P2000N R19/P2000N -RA VV002 01/01 Q0994=
201212260150 METAR ESMX 260150Z AUTO 14007KT 100V170 2000NDV DZ OVC001/// 01/00 Q0994=
201212260120 METAR ESMX 260120Z AUTO 15005KT 1900NDV DZ OVC001/// 01/00 Q0995=
201212260050 METAR ESMX 260050Z AUTO 15005KT 110V190 1200NDV R01/P2000N R19/P2000N OVC001/// 01/00 Q0995=
201212260020 METAR ESMX 260020Z AUTO 15005KT 2100NDV DZ OVC001/// 00/00 Q0995=
201212252350 METAR ESMX 252350Z AUTO 15005KT 0700NDV R01/P2000N R19/P2000N -DZ VV002 00/M00 Q0996=
201212252320 METAR ESMX 252320Z AUTO 16004KT 0350NDV R01/1200D R19/1300VP2000D FG VV001 00/M00 Q0996=
201212252250 METAR ESMX 252250Z AUTO 16005KT 0500NDV R01/1500N R19/1900D FG VV001 00/M00 Q0996=
201212252220 METAR ESMX 252220Z AUTO 16005KT 0600NDV R01/1800N R19/P2000N FG VV002 00/M00 Q0996=
201212252150 METAR ESMX 252150Z AUTO 18005KT 0650NDV R01/P2000D R19/P2000N FG VV002 00/M00 Q0996=
201212252120 METAR ESMX 252120Z AUTO 21005KT 160V240 2000NDV BR OVC001/// 00/M01 Q0996=
201212252050 METAR ESMX 252050Z AUTO 21004KT 9999NDV OVC003/// 00/M01 Q0995=
201212252020 METAR ESMX 252020Z AUTO 21004KT 9999NDV OVC003/// 00/M01 Q0995=
201212251950 METAR ESMX 251950Z AUTO 21005KT 9999NDV OVC004/// 00/M01 Q0995=
201212251920 METAR ESMX 251920Z 23005KT 190V250 9999 OVC004 00/M01 Q0995=
201212251850 METAR ESMX 251850Z 25005KT 9999 OVC005 00/M01 Q0995=
201212251820 METAR ESMX 251820Z 24006KT 9999 OVC005 00/M01 Q0995=
201212251750 METAR ESMX 251750Z 26006KT 9999 OVC005 00/M01 Q0994=
201212251720 METAR ESMX 251720Z 27007KT 9999 OVC005 00/M01 Q0994=
201212251650 METAR ESMX 251650Z AUTO 28007KT 9999NDV OVC006/// 00/M01 Q0994=
201212251620 METAR ESMX 251620Z AUTO 28008KT 9999NDV OVC006/// 00/M01 Q0993=
201212251550 METAR ESMX 251550Z AUTO 29008KT 260V330 9999NDV OVC007/// 01/M01 Q0993=
201212251520 METAR ESMX 251520Z AUTO 27008KT 9999NDV OVC008/// 01/M01 Q0992=
201212251450 METAR ESMX 251450Z AUTO 28008KT 9999NDV OVC007/// 01/M01 Q0991=
201212251420 METAR ESMX 251420Z AUTO 29009KT 9999NDV OVC006/// 01/M01 Q0991=
201212251350 METAR ESMX 251350Z AUTO 28011KT 250V310 9999NDV OVC007/// 01/M01 Q0990=
201212251320 METAR ESMX 251320Z AUTO 28012KT 7000NDV FEW006/// SCT008/// BKN009/// 01/M01 Q0990 REDZ=
201212251250 METAR ESMX 251250Z AUTO 26013KT 230V290 9999NDV -DZ FEW006/// SCT010/// BKN014/// 01/M00 Q0989=
201212251220 METAR ESMX 251220Z AUTO 27014KT 3900NDV -RA FEW005/// SCT007/// BKN008/// 01/M00 Q0989=
201212251150 METAR ESMX 251150Z AUTO 26016KT 220V290 9999NDV -RA BKN007/// OVC009/// 01/M00 Q0988=
201212251120 METAR ESMX 251120Z AUTO 25016G28KT 9999NDV OVC007/// 02/M00 Q0988=
201212251050 METAR ESMX 251050Z AUTO 25016G27KT 9999NDV OVC006/// 02/00 Q0987=
201212251020 METAR ESMX 251020Z AUTO 23015G27KT 9999NDV OVC006/// 02/00 Q0986=
201212250950 METAR ESMX 250950Z AUTO 24017G27KT 9999NDV OVC006/// 02/00 Q0986=
201212250920 METAR ESMX 250920Z AUTO 22019G29KT 9999NDV OVC007/// 02/00 Q0986=
201212250850 METAR ESMX 250850Z AUTO 21019KT 9999NDV OVC005/// 02/01 Q0985=
201212250820 METAR ESMX 250820Z AUTO 22018G31KT 7000NDV BR FEW006/// OVC007/// 02/01 Q0985=
201212250750 METAR ESMX 250750Z AUTO 21016G28KT 8000NDV BR OVC009/// 03/01 Q0984=
201212250720 METAR ESMX 250720Z AUTO 21020G33KT 9999NDV OVC010/// 03/01 Q0984=
201212250650 METAR ESMX 250650Z 21018G32KT 9999 OVC011 04/01 Q0984=
201212250620 METAR ESMX 250620Z 21016G26KT 9999 FEW011 OVC014 04/02 Q0984=
201212250550 METAR ESMX 250550Z 20016KT 9999 FEW010 BKN017 04/02 Q0984=
201212250520 METAR ESMX 250520Z AUTO 19014KT 9999NDV FEW009/// SCT013/// BKN017/// 04/03 Q0984=
201212250450 METAR ESMX 250450Z AUTO 18016KT 9999NDV FEW002/// SCT007/// BKN016/// 04/04 Q0984=
201212250420 METAR ESMX 250420Z AUTO 16012KT 3200NDV OVC001/// 04/03 Q0985=
201212250350 METAR ESMX 250350Z AUTO 14010KT 1100NDV R01/P2000N R19/P2000N BR VV002 03/03 Q0985=
201212250320 METAR ESMX 250320Z AUTO 14008KT 5000NDV BR OVC001/// 03/02 Q0986=
201212250250 METAR ESMX 250250Z AUTO 14010KT 8000NDV BR OVC002/// 02/02 Q0987 REDZ=
201212250220 METAR ESMX 250220Z AUTO 14011KT 100V170 4000NDV -DZ OVC003/// 02/02 Q0988=
201212250150 METAR ESMX 250150Z AUTO 14009KT 100V190 3800NDV DZ OVC004/// 02/02 Q0989=
201212250120 METAR ESMX 250120Z AUTO 13008KT 090V170 8000NDV -RA OVC004/// 02/01 Q0990=
201212250050 METAR ESMX 250050Z AUTO 12006KT 040V150 7000NDV -RA OVC004/// 02/01 Q0991=
201212250020 METAR ESMX 250020Z AUTO VRB06KT 9999NDV -RA SCT003/// BKN005/// 01/01 Q0992=
201212242350 METAR ESMX 242350Z AUTO 13006KT 090V180 5000NDV RA OVC002/// 02/01 Q0994=
201212242320 METAR ESMX 242320Z AUTO 13006KT 090V150 5000NDV RA OVC001/// 02/01 Q0995=
201212242250 METAR ESMX 242250Z AUTO 14006KT 3700NDV -RA OVC001/// 02/01 Q0996=
201212242220 METAR ESMX 242220Z AUTO 16006KT 120V190 0800NDV R01/P2000N R19/P2000N -RA VV001 02/01 Q0996 REDZ=
201212242150 METAR ESMX 242150Z AUTO 16006KT 0500NDV R01/1300VP2000U R19/1700N FG VV001 02/01 Q0997=
201212242120 METAR ESMX 242120Z AUTO 16005KT 0350NDV R01/0900V1400U R19/1400U FG VV001 02/02 Q0997=
201212242050 METAR ESMX 242050Z AUTO 16005KT 0300NDV R01/1000N R19/1100N FG VV001 02/02 Q0998=
201212242020 METAR ESMX 242020Z AUTO 15005KT 0300NDV R01/1100N R19/1300N FG VV001 02/02 Q0998=
201212241950 METAR ESMX 241950Z AUTO 17006KT 0300NDV R01/1000N R19/1100N FG VV001 02/01 Q0999=
201212241920 METAR ESMX 241920Z AUTO 18006KT 0200NDV R01/0800 R19/0800 FG VV001 02/01 Q0999=
201212241850 METAR ESMX 241850Z AUTO 18004KT 0150NDV R01/0700N R19/0700N FG VV001 02/01 Q0999=
201212241820 METAR ESMX 241820Z AUTO 18007KT 0200NDV R01/0700 R19/0750V1100D FG VV001 01/01 Q1000=
201212241750 METAR ESMX 241750Z 19007KT 1200 R19/P2000N BR OVC001 02/01 Q1000=
201212241720 METAR ESMX 241720Z 20005KT 9999 SCT004 BKN023 02/01 Q1000=
201212241650 METAR ESMX 241650Z 18002KT 9999 SCT007 BKN021 01/00 Q1000=
201212241620 METAR ESMX 241620Z AUTO 28002KT 9999NDV FEW007/// OVC022/// 01/00 Q1000=
201212241550 METAR ESMX 241550Z AUTO 26004KT 240V300 9999NDV SCT008/// OVC024/// 01/00 Q1000=
201212241520 METAR ESMX 241520Z AUTO 25005KT 9999NDV FEW024/// 01/M00 Q1000=
201212241450 METAR ESMX 241450Z AUTO 26007KT 210V280 9999NDV FEW009/// BKN011/// 02/M00 Q1000=
201212241420 METAR ESMX 241420Z AUTO 25008KT 9999NDV FEW009/// SCT012/// BKN015/// 02/00 Q1000=
201212241350 METAR ESMX 241350Z AUTO 26006KT 9999NDV FEW015/// SCT018/// 02/00 Q0999=
201212241320 METAR ESMX 241320Z AUTO 27007KT 9999NDV NCD 02/00 Q0999=
201212241250 METAR ESMX 241250Z AUTO 27008KT 9999NDV FEW019/// 02/00 Q0998=
201212241220 METAR ESMX 241220Z AUTO 26008KT 9999NDV FEW056/// 03/01 Q0998=
201212241150 METAR ESMX 241150Z AUTO 25010KT 9999NDV FEW016/// 03/01 Q0998=
201212241120 METAR ESMX 241120Z AUTO 26013KT 9999NDV FEW015/// 03/01 Q0997=
201212241050 METAR ESMX 241050Z AUTO 26011KT 9999NDV FEW012/// SCT069/// 04/02 Q0997=
201212241020 METAR ESMX 241020Z AUTO 25012KT 230V290 9999NDV FEW010/// SCT014/// BKN017/// 04/02 Q0997=
201212240950 METAR ESMX 240950Z AUTO 25013G23KT 9999NDV FEW007/// SCT009/// BKN011/// 03/03 Q0997=
201212240920 METAR ESMX 240920Z AUTO 24011G23KT 9999NDV FEW004/// SCT006/// BKN008/// 03/03 Q0996=
201212240850 METAR ESMX 240850Z AUTO 22010KT 5000NDV BR BKN002/// OVC005/// 02/02 Q0996=
201212240820 METAR ESMX 240820Z AUTO 20008KT 2800NDV -DZ OVC001/// 02/01 Q0996 RESG=
201212240750 METAR ESMX 240750Z AUTO 19006KT 1600NDV SG OVC001/// 00/M00 Q0996=
201212240720 METAR ESMX 240720Z AUTO 17004KT 2500NDV BR OVC001/// M01/M01 Q0996 RESG=
201212240650 METAR ESMX 240650Z 15004KT 3300 -SG OVC002 M01/M02 Q0996=
201212240620 METAR ESMX 240620Z 15004KT 110V170 3000 -SG OVC002 M02/M02 Q0996=
201212240550 METAR ESMX 240550Z 16004KT 100V210 3800 -SN OVC004 M02/M02 Q0996=
201212240520 METAR ESMX 240520Z 14004KT 080V170 3000 -SN OVC006 M02/M03 Q0996=
201212240450 METAR ESMX 240450Z AUTO 14004KT 100V200 1800NDV -SN FEW002/// BKN009/// M02/M03 Q0996=
201212240420 METAR ESMX 240420Z AUTO 13004KT 090V170 1100NDV R01/P2000N R19/P2000N -SN FEW003/// SCT005/// BKN007/// M03/M03 Q0996=
201212240350 METAR ESMX 240350Z AUTO 13005KT 080V190 1700NDV -SN FEW005/// BKN007/// OVC015/// M03/M03 Q0997=
201212240320 METAR ESMX 240320Z AUTO 12005KT 080V190 1700NDV -SN FEW005/// BKN006/// BKN018/// M03/M03 Q0997=
201212240250 METAR ESMX 240250Z AUTO 12005KT 080V160 1000NDV R01/P2000N R19/P2000N -SN FEW002/// SCT003/// BKN005/// M03/M04 Q0997=
201212240220 METAR ESMX 240220Z AUTO 11006KT 050V160 2500NDV -SN FEW006/// BKN008/// BKN011/// M03/M04 Q0998=
201212240150 METAR ESMX 240150Z AUTO 11005KT 080V160 1100NDV R01/P2000N R19/P2000N -SN BKN007/// OVC010/// M03/M04 Q0998=
201212240120 METAR ESMX 240120Z AUTO 11005KT 050V160 2900NDV -SN FEW005/// OVC008/// M03/M03 Q0999=
201212240050 METAR ESMX 240050Z AUTO 13006KT 090V170 2300NDV -SN SCT007/// BKN010/// BKN015/// M03/M03 Q0999=
201212240020 METAR ESMX 240020Z AUTO 12006KT 080V160 9999NDV -SN BKN007/// OVC019/// M03/M03 Q0999=
201212232350 METAR ESMX 232350Z AUTO 12005KT 070V160 4600NDV -SN FEW005/// SCT007/// BKN009/// M03/M03 Q1000=
201212232320 METAR ESMX 232320Z AUTO 10005KT 060V140 0900NDV R01/P2000N R19/P2000N -SN FEW002/// SCT005/// BKN008/// M03/M03 Q1001=
201212232250 METAR ESMX 232250Z AUTO 11005KT 070V150 3300NDV SG FEW005/// OVC010/// M02/M03 Q1002=
201212232220 METAR ESMX 232220Z AUTO 11007KT 070V150 4200NDV SG OVC009/// M03/M03 Q1001=
201212232150 METAR ESMX 232150Z AUTO 11008KT 070V150 9999NDV -SN OVC009/// M03/M04 Q1002 RESG=
201212232120 METAR ESMX 232120Z 12009KT 080V150 6000 -SN FEW008 OVC010 M03/M04 Q1002=
201212232050 METAR ESMX 232050Z 12008KT 050V160 5000 -SN OVC009 M03/M04 Q1003=
201212232020 METAR ESMX 232020Z 11009G22KT 060V150 7000 -SN OVC010 M03/M04 Q1003=
201212231950 METAR ESMX 231950Z 10008KT 060V160 6000 -SN FEW010 BKN014 M03/M04 Q1004=
201212231920 METAR ESMX 231920Z 10009KT 040V130 8000 -SN SCT010 BKN045 M04/M05 Q1005=
201212231850 METAR ESMX 231850Z 09010KT 050V130 0800 R01/P2000N R19/P2000N SN FEW002 OVC005 M04/M05 Q1005=
201212231820 METAR ESMX 231820Z 09009KT 010V130 0300 R01/P2000N R19/0350VP2000D SN FEW003 OVC005 M04/M05 Q1006=
201212231750 METAR ESMX 231750Z 10009KT 050V140 0700 R01/P2000N R19/P2000N SN VV003 M04/M05 Q1007=
201212231720 METAR ESMX 231720Z 10008KT 060V140 1000 R01/P2000N R19/P2000N SN OVC005 M04/M05 Q1008=
201212231650 METAR ESMX 231650Z 10009KT 040V140 1000 R01/P2000N R19/P2000N SN FEW002 OVC005 M04/M05 Q1008=
201212231620 METAR ESMX 231620Z 10010G22KT 050V150 1200 R01/P2000N R19/P2000N SN OVC005 M04/M05 Q1009=
201212231550 METAR ESMX 231550Z 11011KT 070V150 4000 SN OVC008 M04/M06 Q1010=
201212231520 METAR ESMX 231520Z 11009G19KT 070V160 9999 -SN OVC010 M04/M06 Q1010=
201212231450 METAR ESMX 231450Z 11009KT 070V200 8000 -SN OVC012 M04/M06 Q1011=
201212231420 METAR ESMX 231420Z 10010KT 050V130 6000 BR BKN013 OVC018 M04/M06 Q1011=
201212231350 METAR ESMX 231350Z 10008G18KT 060V150 9000 BR OVC014 M04/M06 Q1012=
201212231320 METAR ESMX 231320Z 11010KT 070V150 9000 -SN BKN014 OVC021 M03/M06 Q1013=
201212231250 METAR ESMX 231250Z 11010G25KT 060V160 9000 -SN OVC014 M03/M06 Q1014=
201212231220 METAR ESMX 231220Z 11008G18KT 050V170 9999 OVC013 M03/M06 Q1014=
201212231150 METAR ESMX 231150Z 11009G20KT 060V160 9999 OVC013 M03/M06 Q1015=
201212231120 METAR ESMX 231120Z 11009G21KT 040V150 9999 OVC012 M03/M06 Q1015=
201212231050 METAR ESMX 231050Z 10010KT 050V160 9999 -SG OVC014 M03/M06 Q1016=
201212231020 METAR ESMX 231020Z 10008KT 060V160 9999 -SN OVC012 M03/M06 Q1016=
201212230950 METAR ESMX 230950Z 12010KT 070V150 9999 OVC013 M03/M06 Q1018=
201212230920 METAR ESMX 230920Z AUTO 11009G20KT 060V160 9999NDV OVC013/// M03/M06 Q1018=
201212230850 METAR ESMX 230850Z AUTO 11009KT 070V160 9999NDV OVC014/// M03/M06 Q1018=
201212230820 METAR ESMX 230820Z AUTO 10010G21KT 050V150 9999NDV OVC016/// M03/M06 Q1019=
201212230750 METAR ESMX 230750Z AUTO 12007G18KT 070V170 9999NDV OVC014/// M03/M06 Q1018=
201212230720 METAR ESMX 230720Z AUTO 11009G22KT 060V170 9999NDV OVC013/// M03/M06 Q1018=
201212230650 METAR ESMX 230650Z AUTO 12010KT 070V160 9999NDV OVC014/// M03/M06 Q1019=
201212230620 METAR ESMX 230620Z AUTO 11009KT 080V150 9999NDV OVC010/// M03/M05 Q1019=
201212230550 METAR ESMX 230550Z AUTO 11008KT 070V170 9999NDV OVC009/// M03/M05 Q1019=
201212230520 METAR ESMX 230520Z AUTO 11008KT 070V160 9999NDV OVC009/// M03/M05 Q1019=
201212230450 METAR ESMX 230450Z AUTO 11010KT 070V160 9999NDV OVC010/// M03/M05 Q1019=
201212230420 METAR ESMX 230420Z AUTO 11009G20KT 060V170 9999NDV OVC010/// M03/M05 Q1020=
201212230350 METAR ESMX 230350Z AUTO 11007KT 050V150 9999NDV OVC010/// M03/M05 Q1020=
201212230320 METAR ESMX 230320Z AUTO 09008KT 040V150 9999NDV OVC010/// M03/M05 Q1020=
201212230250 METAR ESMX 230250Z AUTO 11007G18KT 060V170 9999NDV OVC011/// M03/M05 Q1021=
201212230220 METAR ESMX 230220Z AUTO 10008KT 070V160 9999NDV OVC012/// M03/M06 Q1021=
201212230150 METAR ESMX 230150Z AUTO 10006KT 050V140 9999NDV FEW012/// OVC015/// M03/M05 Q1021=
201212230120 METAR ESMX 230120Z AUTO 09006KT 040V140 9999NDV OVC011/// M03/M05 Q1021=
201212230050 METAR ESMX 230050Z AUTO 11007KT 060V170 9999NDV BKN012/// OVC018/// M03/M05 Q1021=
201212230020 METAR ESMX 230020Z AUTO 10008KT 060V150 9999NDV SCT010/// BKN013/// OVC016/// M03/M05 Q1021=
201212222350 METAR ESMX 222350Z AUTO 10007KT 060V140 9999NDV FEW009/// OVC011/// M03/M05 Q1021=
201212222320 METAR ESMX 222320Z AUTO 11006KT 070V160 9999NDV BKN008/// OVC012/// M03/M05 Q1022=
201212222250 METAR ESMX 222250Z AUTO 11006KT 070V160 9999NDV OVC007/// M03/M05 Q1022=
201212222220 METAR ESMX 222220Z AUTO 10006KT 050V180 9999NDV OVC007/// M03/M05 Q1022=
201212222150 METAR ESMX 222150Z AUTO 11007KT 050V160 9999NDV OVC008/// M03/M05 Q1022=
201212222120 METAR ESMX 222120Z AUTO 11007KT 070V140 9999NDV OVC009/// M03/M05 Q1022=
201212222050 METAR ESMX 222050Z AUTO 10008KT 350V150 9999NDV OVC010/// M03/M05 Q1022=
201212222020 METAR ESMX 222020Z AUTO 11007KT 070V150 9999NDV OVC011/// M03/M06 Q1022=
201212221950 METAR ESMX 221950Z AUTO 10006KT 060V160 9999NDV OVC012/// M03/M06 Q1022=
201212221920 METAR ESMX 221920Z AUTO 09007KT 060V140 9999NDV OVC012/// M03/M06 Q1022=
201212221850 METAR ESMX 221850Z AUTO 08007G17KT 030V120 9999NDV OVC014/// M03/M06 Q1022=
201212221820 METAR ESMX 221820Z AUTO 09006KT 060V120 9999NDV OVC014/// M03/M06 Q1023=
201212221750 METAR ESMX 221750Z AUTO 08005KT 050V110 9999NDV OVC022/// M03/M06 Q1023=
201212221720 METAR ESMX 221720Z AUTO 07006KT 050V110 9999NDV OVC026/// M04/M05 Q1023=
201212221650 METAR ESMX 221650Z AUTO 07004KT 040V110 9999NDV OVC027/// M04/M06 Q1023=
201212221620 METAR ESMX 221620Z AUTO 05003KT 9999NDV OVC028/// M04/M06 Q1023=
201212221550 METAR ESMX 221550Z AUTO 05004KT 9999NDV BKN026/// M04/M06 Q1024=
201212221520 METAR ESMX 221520Z AUTO 03003KT 340V080 9999NDV OVC021/// M04/M06 Q1024=
201212221450 METAR ESMX 221450Z AUTO 04003KT 010V100 9999NDV FEW020/// M04/M06 Q1024=
201212221420 METAR ESMX 221420Z AUTO 07005KT 040V110 9999NDV FEW009/// SCT011/// BKN017/// M03/M06 Q1024=
201212221350 METAR ESMX 221350Z AUTO 07005KT 030V120 9999NDV -SN FEW009/// OVC011/// M03/M05 Q1024=
201212221320 METAR ESMX 221320Z AUTO 08004KT 010V140 9999NDV -SN BKN011/// OVC017/// M03/M04 Q1024=
201212221250 METAR ESMX 221250Z AUTO 06005KT 030V110 8000NDV -SN BKN010/// BKN035/// M03/M04 Q1024=
201212221220 METAR ESMX 221220Z AUTO 07005KT 040V100 4000NDV -SN FEW013/// SCT031/// M03/M04 Q1024=
201212221150 METAR ESMX 221150Z AUTO 05006KT 010V100 6000NDV -SN FEW012/// SCT020/// BKN024/// M02/M05 Q1025=
201212221120 METAR ESMX 221120Z AUTO 06006KT 030V130 9999NDV FZUP FEW014/// BKN055/// M02/M05 Q1025=
201212221050 METAR ESMX 221050Z 06005KT 020V080 9999 FEW010 SCT027 M02/M05 Q1025=
201212221020 METAR ESMX 221020Z 05005KT 020V110 9999 -SN BKN010 BKN021 M02/M04 Q1026=
201212220950 METAR ESMX 220950Z 05005KT 010V080 8000 -SN SCT008 SCT060 M03/M04 Q1026=
201212220920 METAR ESMX 220920Z 04005KT 020V080 5000 -SN FEW008 BKN058 M03/M04 Q1026=
201212220850 METAR ESMX 220850Z 05005KT 9999 -SN BKN008 M03/M04 Q1026=
201212220820 METAR ESMX 220820Z AUTO 06005KT 9999NDV -SN BKN007/// OVC012/// M03/M04 Q1025=
201212220750 METAR ESMX 220750Z AUTO 07004KT 010V100 9999NDV -SN FEW007/// BKN008/// OVC042/// M03/M04 Q1025=
201212220720 METAR ESMX 220720Z AUTO 04005KT 360V070 9999NDV SG FEW007/// SCT010/// BKN021/// M03/M04 Q1025=
201212220650 METAR ESMX 220650Z AUTO 06006KT 8000NDV -SN FEW002/// BKN033/// OVC042/// M03/M04 Q1025=
201212220620 METAR ESMX 220620Z AUTO 03006KT 3900NDV -SN FEW005/// SCT019/// BKN052/// M03/M04 Q1025=
201212220550 METAR ESMX 220550Z AUTO 04005KT 020V080 6000NDV -SN FEW007/// SCT009/// BKN018/// M03/M04 Q1025=
201212220520 METAR ESMX 220520Z AUTO 04006KT 020V080 8000NDV -SN FEW008/// SCT009/// BKN021/// M03/M04 Q1025=
201212220450 METAR ESMX 220450Z AUTO 03006KT 6000NDV -SN FEW012/// BKN019/// BKN052/// M03/M04 Q1025=
201212220420 METAR ESMX 220420Z AUTO 03006KT 6000NDV -SN FEW012/// BKN052/// M03/M05 Q1025=
201212220350 METAR ESMX 220350Z AUTO 03005KT 6000NDV -SN FEW011/// OVC049/// M03/M05 Q1025=
201212220320 METAR ESMX 220320Z AUTO 03006KT 9999NDV -SN FEW024/// OVC046/// M03/M05 Q1025=
201212220250 METAR ESMX 220250Z AUTO 03004KT 350V070 9999NDV FEW024/// OVC044/// M04/M05 Q1025=
201212220220 METAR ESMX 220220Z 02007KT 9999 OVC044 M04/M05 Q1025=
201212220150 METAR ESMX 220150Z 03005KT 9999 FEW012 SCT015 BKN045 M04/M05 Q1025=
201212220120 METAR ESMX 220120Z 03005KT 9999 FEW011 SCT014 BKN030 M04/M05 Q1026=
201212220050 METAR ESMX 220050Z 03005KT 9999 SCT011 BKN015 M03/M05 Q1026=
201212220020 METAR ESMX 220020Z 02006KT 9999 FEW012 SCT020 BKN024 M03/M05 Q1025=
201212212350 METAR ESMX 212350Z 01008KT 9999 -SN BKN024 M04/M05 Q1025=
201212212320 METAR ESMX 212320Z 01006KT 9999 SG BKN023 OVC031 M04/M05 Q1026=
201212212250 METAR ESMX 212250Z 01006KT 9999 FEW027 BKN031 OVC041 M04/M05 Q1026=
201212212220 METAR ESMX 212220Z 01004KT 9999 -SN FEW035 OVC042 M05/M06 Q1026 RESG=
201212212150 METAR ESMX 212150Z 02004KT 9000 BR BKN046 M05/M06 Q1026=
201212212120 METAR ESMX 212120Z 02003KT 9999 BKN047 M05/M06 Q1025=
201212212050 METAR ESMX 212050Z 01004KT 9999 BKN044 M05/M06 Q1025=
201212212020 METAR ESMX 212020Z 04004KT 9999 SCT050 M05/M06 Q1025=
201212211950 METAR ESMX 211950Z 04005KT 020V080 9999 SCT021 BKN047 M04/M05 Q1025=
201212211920 METAR ESMX 211920Z 04006KT 9999 BKN011 OVC048 M03/M05 Q1025=
201212211850 METAR ESMX 211850Z 04007KT 9999 FEW010 SCT013 OVC041 M03/M05 Q1025=
201212211820 METAR ESMX 211820Z 04007KT 9999 SCT009 BKN015 OVC022 M03/M04 Q1025=
201212211750 METAR ESMX 211750Z 04007KT 9999 BKN010 OVC015 M03/M05 Q1024=
201212211720 METAR ESMX 211720Z 04007KT 9999 -SN BKN010 OVC014 M03/M05 Q1024=
201212211650 METAR ESMX 211650Z 04008KT 9999 OVC011 M02/M05 Q1024=
201212211620 METAR ESMX 211620Z 04007KT 9999 OVC011 M02/M04 Q1024=
201212211550 METAR ESMX 211550Z 04006KT 9999 BKN012 OVC020 M02/M05 Q1024=
201212211520 METAR ESMX 211520Z 04007KT 9999 FEW014 OVC018 M02/M04 Q1024=
201212211450 METAR ESMX 211450Z 04008KT 9999 FEW013 BKN023 M02/M04 Q1024=
201212211350 METAR ESMX 211350Z 04006KT 5000 -SN FEW018 BKN031 M02/M04 Q1024=
201212211320 METAR ESMX 211320Z 06006KT 030V100 6000 -SN FEW016 BKN032 M02/M04 Q1023=
201212211250 METAR ESMX 211250Z 05007KT 010V080 6000 -SN FEW013 BKN017 M02/M04 Q1023=
201212211220 METAR ESMX 211220Z 06007KT 030V100 9999 -SN FEW013 BKN015 M02/M04 Q1023=
201212211150 METAR ESMX 211150Z 04006KT 010V080 9999 BKN013 M01/M04 Q1023=
201212211050 METAR ESMX 211050Z 06006KT 030V100 9999 OVC011 M02/M04 Q1023=
201212211020 METAR ESMX 211020Z 06005KT 020V110 9999 OVC011 M02/M04 Q1023=
201212210950 METAR ESMX 210950Z 07007KT 040V110 9999 BKN011 OVC015 M02/M04 Q1023=
201212210920 METAR ESMX 210920Z 05006KT 360V090 9999 OVC010 M02/M04 Q1023=
201212210850 METAR ESMX 210850Z 04007KT 010V070 9999 -SN OVC010 M02/M04 Q1023=
201212210820 METAR ESMX 210820Z 05007KT 020V080 9999 OVC010 M02/M04 Q1023=
201212210750 METAR ESMX 210750Z 07006KT 030V100 9999 -SN OVC010 M02/M03 Q1023=
201212210720 METAR ESMX 210720Z 04005KT 010V080 7000 -SN OVC009 M02/M03 Q1022=
201212210650 METAR ESMX 210650Z 06006KT 030V100 7000 -SN FEW006 OVC010 M02/M03 Q1022=
201212210620 METAR ESMX 210620Z 06007KT 030V090 6000 -SN OVC009 M02/M03 Q1023=
201212210550 METAR ESMX 210550Z 06006KT 020V100 7000 -SN OVC008 M02/M03 Q1023=
201212210520 METAR ESMX 210520Z AUTO 06006KT 030V090 9999NDV -SN OVC008/// M02/M04 Q1023=
201212210450 METAR ESMX 210450Z AUTO 06007KT 9999NDV -SN FEW008/// OVC010/// M02/M04 Q1023=
201212210420 METAR ESMX 210420Z AUTO 06006KT 020V100 9999NDV -SN OVC007/// M02/M03 Q1023=
201212210350 METAR ESMX 210350Z AUTO 06007KT 030V090 9999NDV OVC008/// M02/M03 Q1023=
201212210320 METAR ESMX 210320Z AUTO 05007KT 9999NDV OVC008/// M02/M04 Q1023=
201212210250 METAR ESMX 210250Z AUTO 06006KT 020V090 9999NDV OVC009/// M02/M04 Q1023=
201212210220 METAR ESMX 210220Z AUTO 03005KT 350V060 9999NDV FEW009/// BKN011/// OVC021/// M02/M04 Q1023=
201212210150 METAR ESMX 210150Z AUTO 04005KT 9999NDV FEW012/// SCT017/// BKN020/// M02/M04 Q1024=
201212210120 METAR ESMX 210120Z 06005KT 020V110 9999 FEW010 BKN020 OVC045 M02/M04 Q1024=
201212210050 METAR ESMX 210050Z 06005KT 020V100 9999 BKN010 OVC045 M02/M04 Q1024=
201212210020 METAR ESMX 210020Z 04005KT 010V100 9999 FEW010 SCT014 OVC042 M02/M04 Q1024=
201212202350 METAR ESMX 202350Z 04008KT 9999 FEW013 OVC039 M02/M04 Q1024=
201212202320 METAR ESMX 202320Z 03007KT 9999 OVC035 M02/M04 Q1024=
201212202250 METAR ESMX 202250Z 05007KT 9999 -SN FEW021 OVC036 M02/M04 Q1024=
201212202220 METAR ESMX 202220Z 05005KT 9999 -SN FEW011 OVC037 M02/M04 Q1024=
201212202120 METAR ESMX 202120Z 05005KT 020V100 9999 FEW011 OVC038 M02/M04 Q1025=
201212202050 METAR ESMX 202050Z 06005KT 020V080 9999 FEW020 BKN038 M02/M04 Q1025=
201212202020 METAR ESMX 202020Z 04005KT 010V080 9999 -SN FEW020 OVC037 M02/M03 Q1025=
201212201950 METAR ESMX 201950Z 07004KT 040V120 9999 -SN FEW009 SCT011 OVC020 M02/M03 Q1025=
201212201920 METAR ESMX 201920Z 07004KT 010V110 9999 -SN FEW007 SCT010 BKN032 M02/M03 Q1025=
201212201850 METAR ESMX 201850Z 01006KT 9999 FEW009 BKN033 M02/M03 Q1025=
201212201820 METAR ESMX 201820Z 04004KT 9999 SCT007 BKN011 OVC034 M02/M03 Q1025=
201212201720 METAR ESMX 201720Z 06003KT 030V100 9999 SG FEW008 SCT010 OVC028 M02/M03 Q1026=
201212201650 METAR ESMX 201650Z 06004KT 9999 SG OVC009 M01/M03 Q1026=
201212201620 METAR ESMX 201620Z 03004KT 9999 SCT007 OVC010 M02/M03 Q1026=
201212201550 METAR ESMX 201550Z 01003KT 9999 -SN FEW009 OVC013 M02/M03 Q1026=
201212201520 METAR ESMX 201520Z 03004KT 9000 -SN FEW008 SCT014 OVC016 M02/M03 Q1026 RESG=
201212201450 METAR ESMX 201450Z 03004KT 9999 -SN FEW007 OVC009 M01/M02 Q1026=
201212201420 METAR ESMX 201420Z 04004KT 8000 FEW009 BKN010 OVC013 M01/M02 Q1027=
201212201350 METAR ESMX 201350Z 04004KT 8000 SG OVC009 M01/M02 Q1026=
201212201320 METAR ESMX 201320Z 01003KT 9999 -SN SCT007 OVC010 M01/M02 Q1027=
201212201250 METAR ESMX 201250Z 04003KT 9999 -SN OVC008 M01/M02 Q1027=
201212201220 METAR ESMX 201220Z 05003KT 9999 -SN SCT006 OVC008 M01/M02 Q1027=
201212201150 METAR ESMX 201150Z 05003KT 9999 -SN BKN005 OVC008 M01/M02 Q1027=
201212201120 METAR ESMX 201120Z 04003KT 9999 -SN OVC005 M01/M02 Q1028=
201212201050 METAR ESMX 201050Z 04003KT 020V080 9999 -SN SCT005 BKN008 M01/M02 Q1028=
201212201020 METAR ESMX 201020Z 01003KT 9999 -SN FEW007 SCT008 BKN009 M01/M02 Q1028=
201212200950 METAR ESMX 200950Z 03004KT 9999 -SN FEW007 SCT014 BKN016 M02/M02 Q1028=
201212200920 METAR ESMX 200920Z 01004KT 9999 FEW007 BKN013 OVC022 M02/M03 Q1028=
201212200850 METAR ESMX 200850Z 35003KT 9999 -SN FEW006 OVC019 M02/M03 Q1028=
201212200820 METAR ESMX 200820Z 34003KT 9999 FEW007 SCT016 OVC018 M02/M03 Q1028=
201212200750 METAR ESMX 200750Z 35003KT 9999 FEW009 OVC022 M02/M03 Q1028=
201212200720 METAR ESMX 200720Z 32003KT 9999 FEW012 SCT016 OVC024 M02/M03 Q1028=
201212200650 METAR ESMX 200650Z 02002KT 9999 SCT015 BKN022 OVC026 M02/M03 Q1028=
201212200620 METAR ESMX 200620Z 01003KT 9999 OVC015 M02/M03 Q1028=
201212200550 METAR ESMX 200550Z 04004KT 9999 SCT005 BKN018 M02/M02 Q1028=
201212200520 METAR ESMX 200520Z 03003KT 9999 SCT018 OVC023 M02/M03 Q1028=
201212200450 METAR ESMX 200450Z 31001KT 9999 OVC023 M02/M03 Q1028=
201212200420 METAR ESMX 200420Z AUTO 00000KT 9999NDV OVC021/// M02/M03 Q1028=
201212200350 METAR ESMX 200350Z AUTO 01003KT 9999NDV OVC021/// M02/M03 Q1028=
201212200320 METAR ESMX 200320Z AUTO 01001KT 9999NDV OVC020/// M02/M03 Q1029=
201212200250 METAR ESMX 200250Z AUTO 27002KT 9999NDV OVC021/// M02/M03 Q1029=
201212200220 METAR ESMX 200220Z AUTO VRB01KT 9999NDV BKN014/// OVC021/// M02/M03 Q1029=
201212200150 METAR ESMX 200150Z AUTO VRB02KT 9999NDV OVC013/// M02/M02 Q1029=
201212200120 METAR ESMX 200120Z VRB01KT 9999 OVC014 M02/M02 Q1029=
201212200050 METAR ESMX 200050Z 35001KT 9999 OVC017 M02/M02 Q1029=
201212200020 METAR ESMX 200020Z 01003KT 9999 BKN018 M02/M02 Q1029=
201212192350 METAR ESMX 192350Z 36002KT 9999 FEW015 OVC018 M02/M02 Q1029=
201212192320 METAR ESMX 192320Z 36003KT 9999 FEW009 OVC017 M02/M02 Q1029=
201212192250 METAR ESMX 192250Z 36002KT 9999 OVC017 M02/M02 Q1029=
201212192150 METAR ESMX 192150Z 36003KT 9999 FEW012 OVC019 M01/M02 Q1029=
201212192120 METAR ESMX 192120Z 03004KT 9999 FEW008 OVC021 M01/M02 Q1028=
201212192020 METAR ESMX 192020Z 04002KT 9000 BR SCT002 BKN004 OVC024 M01/M02 Q1028=
201212191950 METAR ESMX 191950Z 02002KT 7000 BR SCT004 BKN005 M01/M02 Q1028=
201212191920 METAR ESMX 191920Z 01002KT 8000 BR SCT002 BKN005 OVC013 M01/M02 Q1028=
201212191850 METAR ESMX 191850Z VRB02KT 7000 BR BKN003 OVC005 M01/M02 Q1028=
201212191820 METAR ESMX 191820Z 05003KT 030V090 2700 -SN BR OVC002 M01/M02 Q1028=
201212191750 METAR ESMX 191750Z 05004KT 020V090 6000 -SN BR FEW002 OVC004 M01/M02 Q1028=
201212191720 METAR ESMX 191720Z 03004KT 360V070 9999 OVC003 M01/M02 Q1028=
201212191650 METAR ESMX 191650Z 04004KT 8000 -SN BR OVC003 M01/M02 Q1028=
201212191620 METAR ESMX 191620Z 04004KT 6000 -SN OVC003 M01/M02 Q1028=
201212191550 METAR ESMX 191550Z 04004KT 9999 -SN OVC003 M01/M02 Q1027=
201212191520 METAR ESMX 191520Z 04004KT 9000 -SN FEW003 OVC005 M01/M02 Q1027=
201212191450 METAR ESMX 191450Z 04004KT 9999 -SN OVC005 M01/M02 Q1027=
201212191420 METAR ESMX 191420Z 36004KT 9999 -SN OVC006 M01/M02 Q1027=
201212191350 METAR ESMX 191350Z 02004KT 9999 OVC006 M01/M02 Q1026=
201212191320 METAR ESMX 191320Z 02004KT 9999 FEW006 OVC007 M01/M02 Q1026=
201212191250 METAR ESMX 191250Z 01005KT 9999 OVC007 M01/M02 Q1026=
201212191220 METAR ESMX 191220Z 36005KT 9999 -SN BKN007 M01/M02 Q1026=
201212191150 METAR ESMX 191150Z 01006KT 9000 -SN FEW005 OVC009 M01/M02 Q1026=
201212191120 METAR ESMX 191120Z 36005KT 6000 -SN SCT005 BKN012 M01/M02 Q1026=
201212191050 METAR ESMX 191050Z 36004KT 5000 -SN FEW005 SCT008 BKN009 M01/M02 Q1026=
201212191020 METAR ESMX 191020Z 36004KT 7000 -SN FEW007 OVC009 M01/M02 Q1026=
201212190950 METAR ESMX 190950Z 35004KT 9999 -SN FEW007 SCT008 BKN022 M01/M02 Q1026=
201212190920 METAR ESMX 190920Z 35004KT 9999 -SN FEW007 SCT018 BKN020 M01/M02 Q1026=
201212190850 METAR ESMX 190850Z 36004KT 9999 -SN FEW007 BKN018 OVC023 M02/M02 Q1025=
201212190820 METAR ESMX 190820Z 01005KT 9999 -SN FEW007 BKN023 BKN055 M02/M03 Q1025=
201212190750 METAR ESMX 190750Z 01005KT 7000 -SN FEW007 BKN025 M02/M03 Q1024=
201212190720 METAR ESMX 190720Z 35004KT 7000 -SN FEW007 BKN016 M02/M03 Q1024=
201212190650 METAR ESMX 190650Z 35004KT 9999 FEW007 OVC013 M02/M03 Q1024=
201212190620 METAR ESMX 190620Z 36005KT 9999 FEW008 OVC013 M02/M03 Q1024=
201212190550 METAR ESMX 190550Z 35006KT 9999 -SN FEW009 OVC011 M02/M03 Q1024=
201212190520 METAR ESMX 190520Z 36006KT 9999 -SN FEW006 OVC008 M02/M03 Q1023=
201212190450 METAR ESMX 190450Z 35006KT 9999 -SN OVC006 M02/M03 Q1023=
201212190420 METAR ESMX 190420Z AUTO 36006KT 9999NDV OVC006/// M02/M03 Q1023=
201212190350 METAR ESMX 190350Z AUTO 34005KT 9999NDV OVC006/// M02/M03 Q1023=
201212190320 METAR ESMX 190320Z AUTO 35005KT 9999NDV BKN007/// OVC009/// M02/M03 Q1023=
201212190250 METAR ESMX 190250Z AUTO 35005KT 9999NDV OVC009/// M02/M03 Q1023=
201212190220 METAR ESMX 190220Z AUTO 36005KT 9999NDV BKN010/// OVC028/// M02/M03 Q1023=
201212190150 METAR ESMX 190150Z 36005KT 9999 -SN SCT010 BKN028 M02/M03 Q1023=
201212190120 METAR ESMX 190120Z 36006KT 9999 FEW020 OVC025 M02/M03 Q1023=
201212190050 METAR ESMX 190050Z 35005KT 9999 OVC009 M02/M02 Q1023=
201212190020 METAR ESMX 190020Z 35005KT 9999 OVC010 M02/M02 Q1022=
201212182350 METAR ESMX 182350Z 35004KT 9999 -SN BKN013 OVC027 M02/M02 Q1022=
201212182320 METAR ESMX 182320Z 35005KT 5000 -SN SCT014 OVC025 M02/M02 Q1022=
201212182250 METAR ESMX 182250Z 36005KT 4500 -SN OVC011 M02/M02 Q1022=
201212182220 METAR ESMX 182220Z 35004KT 7000 -SN FEW012 OVC015 M02/M03 Q1022=
201212182150 METAR ESMX 182150Z 02005KT 7000 -SN BKN015 M02/M03 Q1022=
201212182120 METAR ESMX 182120Z 01006KT 8000 -SN FEW017 BKN024 M02/M02 Q1021=
201212182050 METAR ESMX 182050Z 36004KT 9000 -SN FEW014 OVC018 M02/M02 Q1021 RESG=
201212182020 METAR ESMX 182020Z 36004KT 8000 -SN BKN009 BKN017 M02/M02 Q1021=
201212181950 METAR ESMX 181950Z 01004KT 9999 -SN SCT015 BKN024 M02/M03 Q1021=
201212181920 METAR ESMX 181920Z 01005KT 9999 -SN SCT019 BKN040 M02/M03 Q1020=
201212181850 METAR ESMX 181850Z 02005KT 9999 -SN OVC023 M02/M03 Q1020=
201212181820 METAR ESMX 181820Z 01005KT 7000 -SN SCT014 OVC024 M02/M03 Q1020=
201212181750 METAR ESMX 181750Z 02005KT 7000 -SN FEW014 SCT045 M02/M03 Q1020=
201212181720 METAR ESMX 181720Z 03006KT 8000 -SN SCT010 BKN048 BKN062 M01/M02 Q1020=
201212181650 METAR ESMX 181650Z 01006KT 6000 -SN FEW009 SCT012 BKN046 M01/M02 Q1019=
201212181620 METAR COR ESMX 181620Z 03006KT 9000 -SN FEW007 M01/M02 Q1019=
201212181550 METAR ESMX 181550Z 02005KT 3400 -SN FEW009 BKN011 M01/M02 Q1019=
201212181520 METAR ESMX 181520Z 04006KT 9999 -SN FEW011 SCT014 BKN019 M01/M02 Q1019=
201212181450 METAR ESMX 181450Z 04005KT 010V070 9999 -SN FEW012 BKN064 M01/M02 Q1018=
201212181420 METAR ESMX 181420Z 03006KT 5000 -SN SCT018 M01/M02 Q1018=
201212181350 METAR ESMX 181350Z 04006KT 3200 -SN FEW006 M01/M02 Q1018=
201212181320 METAR ESMX 181320Z 03007KT 5000 -SN FEW006 SCT012 M00/M02 Q1018=
201212181250 METAR ESMX 181250Z 04006KT 010V070 7000 -SN FEW010 SCT014 BKN022 M00/M02 Q1017 RESG=
201212181220 METAR ESMX 181220Z 05005KT 9999 FEW017 SCT023 BKN041 M00/M02 Q1017=
201212181150 METAR ESMX 181150Z 04006KT 9999 -SN FEW006 SCT045 M00/M02 Q1017=
201212181120 METAR ESMX 181120Z 04006KT 9000 -SN FEW010 SCT018 BKN048 00/M02 Q1017=
201212181050 METAR ESMX 181050Z 06006KT 020V100 9999 -SN FEW011 SCT014 BKN043 00/M02 Q1017=
201212181020 METAR ESMX 181020Z 04006KT 010V080 9999 -SN SCT015 00/M02 Q1017=
201212180950 METAR ESMX 180950Z 05006KT 010V090 9999 -SN FEW010 SCT014 00/M01 Q1016=
201212180920 METAR ESMX 180920Z 07006KT 040V100 9999 -SN FEW010 BKN013 M00/M02 Q1016=
201212180850 METAR ESMX 180850Z 06008KT 9999 -SN FEW010 BKN019 M00/M02 Q1016=
201212180820 METAR ESMX 180820Z 05006KT 030V090 9999 -SN FEW011 SCT021 BKN058 M00/M02 Q1016=
201212180750 METAR ESMX 180750Z 05008KT 9999 FEW011 SCT019 00/M02 Q1015=
201212180720 METAR ESMX 180720Z 06006KT 020V080 9999 -SN FEW009 OVC011 00/M01 Q1015 REUP=
201212180650 METAR ESMX 180650Z 06008KT 9999 BKN009 OVC014 00/M01 Q1015=
201212180620 METAR ESMX 180620Z 06006KT 030V120 9999 FEW008 SCT009 BKN011 00/M01 Q1014=
201212180550 METAR ESMX 180550Z 06006KT 9999 -SN FEW007 BKN010 00/M01 Q1014=
201212180520 METAR ESMX 180520Z 06007KT 9999 -SN FEW005 OVC007 00/M00 Q1014=
201212180450 METAR ESMX 180450Z 07008KT 030V100 9999 OVC005 00/M00 Q1013=
201212180420 METAR ESMX 180420Z AUTO 05006KT 8000NDV BR OVC003/// 00/M00 Q1013=
201212180350 METAR ESMX 180350Z AUTO 07006KT 030V110 7000NDV BR OVC003/// 00/00 Q1013=
201212180320 METAR ESMX 180320Z AUTO 07007KT 030V120 8000NDV BR FEW003/// OVC005/// 00/00 Q1013=
201212180250 METAR ESMX 180250Z AUTO 07006KT 030V110 9000NDV BR OVC004/// 00/00 Q1013=
201212180220 METAR ESMX 180220Z AUTO 05007KT 020V090 9999NDV OVC004/// 01/00 Q1013=
201212180150 METAR ESMX 180150Z 05006KT 010V110 7000 BR FEW002 OVC003 01/00 Q1013=
201212180120 METAR ESMX 180120Z 08006KT 030V110 4000 -SN OVC002 01/00 Q1012=
201212180050 METAR ESMX 180050Z 07006KT 030V120 5000 BR OVC003 01/00 Q1012=
201212180020 METAR ESMX 180020Z 07006KT 030V120 9000 -SN OVC003 01/00 Q1012=
201212172350 METAR ESMX 172350Z 07006KT 030V110 7000 -SN OVC003 01/00 Q1012=
201212172320 METAR ESMX 172320Z 07005KT 020V110 8000 -SN OVC003 01/00 Q1012=
201212172250 METAR ESMX 172250Z 07005KT 030V100 9999 -SN OVC004 01/00 Q1012=
201212172220 METAR ESMX 172220Z 06004KT 030V100 6000 -SN OVC005 01/00 Q1012=
201212172150 METAR ESMX 172150Z 08004KT 030V120 7000 -SN BKN003 OVC005 01/01 Q1011=
201212172120 METAR ESMX 172120Z 08006KT 040V120 9000 BR FEW003 OVC005 01/01 Q1011=
201212172050 METAR ESMX 172050Z 07005KT 040V100 4700 BR OVC003 01/01 Q1011=
201212172020 METAR ESMX 172020Z 07005KT 020V120 2000 BR OVC001 01/01 Q1011=
201212171950 METAR ESMX 171950Z 09004KT 050V130 1800 BR OVC001 02/01 Q1011=
201212171920 METAR ESMX 171920Z 09005KT 050V150 1700 BR OVC001 02/01 Q1011=
201212171850 METAR ESMX 171850Z 09006KT 050V160 1300 R01/P2000N R19/P2000N BR VV002 02/01 Q1010=
201212171820 METAR ESMX 171820Z 10005KT 050V140 1000 R01/P2000N R19/P2000N FG OVC001 02/02 Q1010=
201212171750 METAR ESMX 171750Z 09005KT 030V130 0600 R01/1800N R19/P2000N FG VV002 02/02 Q1010=
201212171720 METAR ESMX 171720Z 10005KT 060V150 2100 OVC002 02/02 Q1010=
201212171650 METAR ESMX 171650Z 10005KT 050V150 0700 R01/P2000N R19/P2000N FG VV002 02/02 Q1010=
201212171620 METAR ESMX 171620Z 08004KT 050V120 0350 R01/1100U R19/1200U FG VV002 02/02 Q1010=
201212171550 METAR ESMX 171550Z 07004KT 040V110 0250 R01/0800N R19/0900N FG VV002 02/02 Q1010=
201212171520 METAR ESMX 171520Z 07003KT 0250 R01/0900N R19/1000N FG VV002 02/02 Q1009=
201212171450 METAR ESMX 171450Z 06003KT 020V100 0450 R01/1300N R19/1300D FG VV002 02/02 Q1009=
201212171420 METAR ESMX 171420Z 07003KT 0650 R01/1400N R19/P2000N -DZ VV002 02/02 Q1009=
201212171320 METAR ESMX 171320Z 06004KT 030V090 4100 DZ OVC002 02/02 Q1009=
201212171250 METAR ESMX 171250Z 04003KT 360V070 2600 -RA OVC001 02/02 Q1009 REDZ=
201212171220 METAR ESMX 171220Z 07003KT 030V100 2800 DZ OVC001 02/02 Q1009=
201212171150 METAR ESMX 171150Z 05003KT 010V130 2000 DZ OVC002 02/02 Q1009=
201212171120 METAR ESMX 171120Z 04004KT 0800 R01/1200U R19/0900V1700U -RA VV002 02/02 Q1009=
201212171050 METAR ESMX 171050Z 03005KT 360V080 0300 R01/0600N R19/0700N FG VV002 02/02 Q1009=
201212171020 METAR ESMX 171020Z 05004KT 0900 R01/1400D R19/1300VP2000D FG VV002 02/02 Q1009=
201212170950 METAR ESMX 170950Z 05004KT 010V120 0500 R01/0800V1100 R19/1000V1500U FG VV002 02/02 Q1009=
201212170920 METAR ESMX 170920Z 03004KT 010V070 0300 R01/0650N R19/0800 FG VV002 02/02 Q1009=
201212170850 METAR ESMX 170850Z 04005KT 0300 R01/0700N R19/0800N FG VV002 02/01 Q1008=
201212170820 METAR ESMX 170820Z 06005KT 0750 R01/1500D R19/P2000D FG VV002 02/01 Q1008=
201212170750 METAR ESMX 170750Z 04005KT 0800 R01/1400N R19/P2000N FG VV002 02/01 Q1008=
201212170720 METAR ESMX 170720Z 04004KT 010V080 0500 R01/1400D R19/1800U FG VV002 02/01 Q1008=
201212170650 METAR ESMX 170650Z 06004KT 0700 R01/P2000N R19/P2000D FG VV002 02/01 Q1008=
201212170620 METAR ESMX 170620Z 06004KT 030V100 0800 R01/P2000N R19/P2000N FG VV002 02/01 Q1008 REDZ=
201212170550 METAR ESMX 170550Z 05004KT 010V080 0600 R01/1800N R19/P2000N FG VV002 02/01 Q1008=
201212170520 METAR ESMX 170520Z 04005KT 0500 R01/1500U R19/P2000N FG VV002 02/01 Q1008=
201212170450 METAR ESMX 170450Z 06004KT 030V110 0450 R01/1500D R19/P2000D FG VV002 02/01 Q1008=
201212170420 METAR ESMX 170420Z AUTO 07004KT 030V100 0600NDV R01/1800N R19/P2000N FG VV002 02/01 Q1008=
201212170350 METAR ESMX 170350Z AUTO 07005KT 0800NDV R01/P2000N R19/P2000N FG VV002 02/01 Q1008=
201212170320 METAR ESMX 170320Z AUTO 08004KT 050V110 0900NDV R01/P2000N R19/P2000N FG OVC001/// 02/01 Q1008=
201212170250 METAR ESMX 170250Z AUTO 06005KT 040V110 0800NDV R01/P2000N R19/P2000N FG OVC001/// 02/01 Q1008=
201212170220 METAR ESMX 170220Z AUTO 07005KT 030V100 1200NDV R01/P2000N R19/P2000N BR OVC001/// 02/01 Q1008=
201212170150 METAR ESMX 170150Z AUTO 07004KT 050V110 1400NDV R01/P2000N R19/P2000N OVC001/// 02/01 Q1007=
201212170120 METAR ESMX 170120Z AUTO 08003KT 1000NDV R01/P2000N R19/P2000N OVC001/// 02/01 Q1008=
201212170050 METAR ESMX 170050Z 08004KT 040V110 0550 R01/1200VP2000N R19/P2000N FG OVC002 02/01 Q1008=
201212170020 METAR ESMX 170020Z 05003KT 020V090 0300 R01/1000N R19/1600N FG VV002 02/01 Q1008=
201212162350 METAR ESMX 162350Z 08004KT 050V120 0700 R01/P2000N R19/P2000D FG VV002 02/01 Q1008=
201212162320 METAR ESMX 162320Z 10004KT 060V140 1700 BR OVC002 02/01 Q1008=
201212162250 METAR ESMX 162250Z 10004KT 060V140 2300 OVC002 02/01 Q1007=
201212162220 METAR ESMX 162220Z 09006KT 050V120 0400 R01/1700D R19/1400D FG VV002 02/01 Q1007=
201212162150 METAR ESMX 162150Z 07004KT 030V130 0450 R01/1500N R19/P2000N FG VV002 02/01 Q1007=
201212162120 METAR ESMX 162120Z 09004KT 0600 R01/1800U R19/P2000N FG VV002 02/01 Q1007=
201212162050 METAR ESMX 162050Z 09004KT 060V130 1100 R01/P2000N R19/P2000N BR VV002 02/01 Q1007=
201212162020 METAR ESMX 162020Z 10005KT 060V150 3800 BR OVC002 01/01 Q1007=
201212161950 METAR ESMX 161950Z 09004KT 050V130 3600 BR FEW001 OVC003 01/01 Q1007=
201212161920 METAR ESMX 161920Z 09004KT 2000 BR OVC002 01/01 Q1007=
201212161850 METAR ESMX 161850Z 08004KT 050V110 1100 R01/P2000N R19/P2000N OVC002 01/01 Q1007=
201212161820 METAR ESMX 161820Z 09004KT 060V120 0800 R01/P2000N R19/P2000N FG OVC002 01/01 Q1007=
201212161750 METAR ESMX 161750Z 09005KT 050V120 0400 R01/1200N R19/1500U FG VV002 02/01 Q1007=
201212161720 METAR ESMX 161720Z 10005KT 070V140 0600 R01/P2000N R19/1800D FG VV002 02/01 Q1007=
201212161650 METAR ESMX 161650Z 10005KT 060V120 1900 BR OVC002 02/01 Q1007=
201212161620 METAR ESMX 161620Z 10004KT 060V150 2500 BR OVC002 02/01 Q1007=
201212161550 METAR ESMX 161550Z 09005KT 060V120 0600 R01/1900D R19/P2000D FG VV002 02/01 Q1007=
201212161520 METAR ESMX 161520Z 09004KT 050V150 0800 R01/P2000N R19/P2000N FG OVC002 02/01 Q1007=
201212161450 METAR ESMX 161450Z 09003KT 060V130 0400 R01/1100N R19/1500U FG VV002 02/01 Q1007=
201212161420 METAR ESMX 161420Z VRB02KT 0400 R01/1000N R19/1500N FG VV002 02/02 Q1006=
201212161350 METAR ESMX 161350Z 11003KT 070V170 0300 R01/0700N R19/0800V1200U FG VV002 02/02 Q1006=
201212161320 METAR ESMX 161320Z VRB02KT 0350 R01/0700 R19/0800V1200N FG VV002 02/02 Q1006=
201212161250 METAR ESMX 161250Z 14003KT 080V180 0400 R01/0750 R19/0800 FG VV002 02/02 Q1006=
201212161220 METAR ESMX 161220Z 10003KT 050V150 0500 R01/0800D R19/P2000D FG VV002 02/02 Q1006=
201212161150 METAR ESMX 161150Z 10004KT 060V130 4200 BR OVC002 02/02 Q1006=
201212161120 METAR ESMX 161120Z 10003KT 060V140 3600 BR OVC002 02/02 Q1006=
201212161050 METAR ESMX 161050Z 10003KT 040V150 3000 BR OVC002 02/01 Q1006=
201212161020 METAR ESMX 161020Z 11003KT 050V160 2700 BR OVC002 02/01 Q1006=
201212160950 METAR ESMX 160950Z VRB02KT 0900 R01/1300U R19/P2000N FG OVC002 02/01 Q1006=
201212160920 METAR ESMX 160920Z AUTO 13003KT 090V170 0900NDV R01/1300V1900U R19/1100V1900U VV001 02/01 Q1006=
201212160850 METAR ESMX 160850Z AUTO VRB02KT 0550NDV R01/1000N R19/1200N FG VV001 01/01 Q1006=
201212160820 METAR ESMX 160820Z AUTO 09003KT 050V150 0500NDV R01/1100N R19/1000N FG VV001 01/01 Q1005=
201212160750 METAR ESMX 160750Z AUTO VRB02KT 0400NDV R01/0900N R19/1100N FG VV001 01/01 Q1005=
201212160720 METAR ESMX 160720Z AUTO 08003KT 040V110 0300NDV R01/1000N R19/1000N FG VV001 01/01 Q1005=
201212160650 METAR ESMX 160650Z AUTO 08003KT 030V140 0250NDV R01/0800N R19/1000N FG VV001 01/01 Q1005=
201212160620 METAR ESMX 160620Z AUTO 11003KT 0300NDV R01/1000N R19/1000N FG VV001 01/01 Q1005=
201212160550 METAR ESMX 160550Z AUTO VRB02KT 0200NDV R01/0800N R19/0900N FG VV001 01/01 Q1005=
201212160520 METAR ESMX 160520Z AUTO VRB02KT 0200NDV R01/0800 R19/0800N FG VV001 01/01 Q1005=
201212160450 METAR ESMX 160450Z AUTO VRB01KT 0200NDV R01/0700N R19/0900D FG VV001 01/01 Q1005=
201212160420 METAR ESMX 160420Z AUTO VRB02KT 0200NDV R01/0750 R19/1000N FG VV001 01/01 Q1005=
201212160350 METAR ESMX 160350Z AUTO 12003KT 080V170 0250NDV R01/0900N R19/1100N FG VV001 01/01 Q1004=
201212160320 METAR ESMX 160320Z AUTO 11003KT 070V150 0250NDV R01/0900N R19/1000N FG VV001 01/01 Q1004=
201212160250 METAR ESMX 160250Z AUTO 11003KT 050V140 0200NDV R01/0700N R19/0750 FG VV001 01/01 Q1004=
201212160220 METAR ESMX 160220Z AUTO 10003KT 0150NDV R01/0600N R19/0700N FG VV000 01/01 Q1004=
201212160150 METAR ESMX 160150Z AUTO VRB02KT 0150NDV R01/0550N R19/0700N FG VV000 01/01 Q1004=
201212160120 METAR ESMX 160120Z AUTO 10003KT 050V150 0150NDV R01/0700N R19/0800N FG VV001 01/01 Q1004=
201212160050 METAR ESMX 160050Z AUTO 13003KT 080V170 0200NDV R01/0700N R19/0800N FG VV001 01/01 Q1004=
201212160020 METAR ESMX 160020Z AUTO VRB02KT 0200NDV R01/0750N R19/0800 FG VV001 01/01 Q1004=
201212152350 METAR ESMX 152350Z AUTO 13003KT 090V160 0200NDV R01/0800N R19/1000N FG VV001 01/01 Q1004=
201212152320 METAR ESMX 152320Z AUTO 12003KT 080V190 0200NDV R01/0750N R19/0900N FG VV001 01/01 Q1004=
201212152250 METAR ESMX 152250Z AUTO 11003KT 070V150 0150NDV R01/0650N R19/0700N FG VV000 01/01 Q1004=
201212152220 METAR ESMX 152220Z AUTO 10003KT 060V150 0150NDV R01/0600N R19/0650N FG VV000 01/01 Q1004=
201212152150 METAR ESMX 152150Z AUTO 10003KT 060V130 0150NDV R01/0600N R19/0700N FG VV001 01/01 Q1004=
201212152120 METAR ESMX 152120Z AUTO VRB02KT 0150NDV R01/0650N R19/0700N FG VV001 01/01 Q1004=
201212152050 METAR ESMX 152050Z AUTO 14003KT 100V170 0200NDV R01/0750N R19/0900N FG VV001 01/01 Q1004=
201212152020 METAR ESMX 152020Z AUTO 14004KT 100V170 0250NDV R01/0900N R19/1100N FG VV001 01/01 Q1003=
201212151950 METAR ESMX 151950Z AUTO 15004KT 110V180 0300NDV R01/1000N R19/1300N FG VV001 01/01 Q1003=
201212151920 METAR ESMX 151920Z AUTO 14005KT 100V170 0350NDV R01/1100N R19/1500N FG VV001 01/01 Q1003=
201212151850 METAR ESMX 151850Z AUTO 13005KT 060V180 0450NDV R01/1500N R19/P2000N FG VV001 01/01 Q1003=
201212151820 METAR ESMX 151820Z AUTO 13005KT 100V170 0550NDV R01/1800N R19/P2000N FG VV002 01/01 Q1003=
201212151750 METAR ESMX 151750Z AUTO 13005KT 080V160 0600NDV R01/1800N R19/P2000N FG VV001 01/00 Q1003=
201212151720 METAR ESMX 151720Z AUTO 14005KT 100V170 0550NDV R01/1700N R19/P2000N FG VV001 01/00 Q1002=
201212151650 METAR ESMX 151650Z AUTO 13006KT 080V170 0650NDV R01/1900D R19/P2000N FG VV002 01/00 Q1002=
201212151620 METAR ESMX 151620Z AUTO 13005KT 080V160 0900NDV R01/P2000N R19/P2000N FG OVC001/// 01/00 Q1002=
201212151550 METAR ESMX 151550Z AUTO 14005KT 100V200 0900NDV R01/P2000N R19/P2000N FG OVC001/// 01/00 Q1002=
201212151520 METAR ESMX 151520Z AUTO 14005KT 080V200 1200NDV R01/P2000N R19/P2000N BR OVC001/// 01/00 Q1002=
201212151450 METAR ESMX 151450Z AUTO 14006KT 120V190 1500NDV -RA OVC001/// 01/00 Q1002=
201212151420 METAR ESMX 151420Z AUTO 14006KT 100V180 1700NDV BR OVC001/// 01/00 Q1002=
201212151350 METAR ESMX 151350Z AUTO 14008KT 100V170 1900NDV BR OVC002/// 01/00 Q1001=
201212151320 METAR ESMX 151320Z AUTO 13007KT 100V200 2900NDV BR OVC003/// 01/00 Q1001=
201212151250 METAR ESMX 151250Z AUTO 13008G18KT 100V170 2900NDV BR OVC003/// 01/00 Q1001=
201212151220 METAR ESMX 151220Z AUTO 15009KT 100V170 6000NDV BR OVC005/// 01/00 Q1001=
201212151150 METAR ESMX 151150Z AUTO 15009KT 100V180 9999NDV OVC006/// 00/M00 Q1001=
201212151120 METAR ESMX 151120Z AUTO 13009KT 100V180 9999NDV -RA OVC006/// 00/M00 Q1001=
201212151050 METAR ESMX 151050Z 14008KT 100V170 3600 -SNRA OVC006 00/M00 Q1001=
201212151020 METAR ESMX 151020Z 14009KT 090V170 8000 -SNRA FEW006 OVC008 00/M00 Q1001=
201212150950 METAR ESMX 150950Z 13009KT 100V160 9000 -SNRA FEW006 SCT007 BKN009 00/M00 Q1001=
201212150920 METAR ESMX 150920Z 13010KT 100V160 3200 -SN FEW005 OVC006 00/M00 Q1001=
201212150850 METAR ESMX 150850Z 13009KT 080V170 2000 -SN OVC009 00/M00 Q1001=
201212150820 METAR ESMX 150820Z 13008KT 100V160 3400 -SN OVC006 00/M00 Q1001=
201212150750 METAR ESMX 150750Z AUTO 12010G20KT 070V160 5000NDV -SN FEW006/// BKN008/// OVC010/// 00/M00 Q1001=
201212150720 METAR ESMX 150720Z AUTO 11009G20KT 070V170 0900NDV R01/P2000N R19/P2000 -SN FEW006/// SCT007/// BKN009/// 00/M00 Q1000=
201212150650 METAR ESMX 150650Z AUTO 11010G25KT 070V160 1400NDV R01/P2000N R19/P2000N -SN FEW005/// BKN007/// OVC012/// 00/M01 Q1000=
201212150620 METAR ESMX 150620Z AUTO 11012G22KT 070V150 0800NDV R01/P2000N R19/P2000N -SN FEW008/// OVC009/// 00/M01 Q1001=
201212150550 METAR ESMX 150550Z AUTO 11011KT 070V160 2900NDV -SN FEW008/// SCT009/// OVC010/// 00/M01 Q1001=
201212150520 METAR ESMX 150520Z AUTO 11012KT 060V150 4700NDV -SN FEW006/// OVC008/// 00/M01 Q1001=
201212150450 METAR ESMX 150450Z AUTO 11011G22KT 070V160 2900NDV -SN FEW006/// BKN007/// OVC009/// M00/M01 Q1002=
201212150420 METAR ESMX 150420Z AUTO 11011G21KT 060V160 2800NDV -SN OVC006/// M00/M01 Q1003=
201212150350 METAR ESMX 150350Z AUTO 11011G26KT 070V150 3400NDV -SN OVC006/// M00/M01 Q1004=
201212150320 METAR ESMX 150320Z AUTO 11011KT 070V160 7000NDV BR OVC006/// M00/M02 Q1004=
201212150250 METAR ESMX 150250Z AUTO 10009G21KT 050V150 9999NDV OVC008/// M00/M02 Q1004=
201212150220 METAR ESMX 150220Z AUTO 10010G20KT 060V140 9999NDV OVC009/// M01/M03 Q1005=
201212150150 METAR ESMX 150150Z AUTO 10011KT 060V150 9999NDV BKN007/// OVC009/// M01/M03 Q1006=
201212150120 METAR ESMX 150120Z AUTO 10009KT 060V150 9999NDV OVC007/// M01/M03 Q1006=
201212150050 METAR ESMX 150050Z AUTO 10009KT 060V140 9999NDV OVC008/// M01/M03 Q1006=
201212150020 METAR ESMX 150020Z AUTO 09011G22KT 060V140 9999NDV OVC009/// M01/M03 Q1007=
201212142350 METAR ESMX 142350Z AUTO 10009KT 050V160 9999NDV OVC012/// M01/M04 Q1008=
201212142320 METAR ESMX 142320Z AUTO 10009G23KT 050V140 9999NDV OVC013/// M01/M04 Q1008=
201212142250 METAR ESMX 142250Z AUTO 10008KT 060V150 9999NDV OVC013/// M02/M04 Q1009=
201212142220 METAR ESMX 142220Z AUTO 10009KT 070V150 9999NDV OVC014/// M02/M04 Q1009=
201212142150 METAR ESMX 142150Z AUTO 10010KT 060V140 9999NDV BKN014/// OVC021/// M02/M04 Q1010=
201212142120 METAR ESMX 142120Z AUTO 10009KT 060V150 9999NDV FEW015/// BKN017/// OVC022/// M02/M04 Q1010=
201212142050 METAR ESMX 142050Z AUTO 09008KT 050V150 9999NDV FEW017/// OVC023/// M02/M04 Q1010=
201212142020 METAR ESMX 142020Z 09008KT 050V140 9999 FEW019 BKN022 M02/M04 Q1011=
201212141950 METAR ESMX 141950Z 09007KT 050V130 9999 FEW017 BKN024 M02/M04 Q1011=
201212141920 METAR ESMX 141920Z 09010KT 060V120 9999 FEW015 BKN024 M02/M04 Q1012=
201212141850 METAR ESMX 141850Z 09007KT 010V130 9999 BKN023 M03/M04 Q1012=
201212141820 METAR ESMX 141820Z 09007KT 040V130 9999 BKN022 M03/M04 Q1012=
201212141750 METAR ESMX 141750Z 09008KT 050V140 9999 BKN022 M03/M04 Q1012=
201212141720 METAR ESMX 141720Z 09007KT 060V150 9999 BKN023 M03/M04 Q1012=
201212141650 METAR ESMX 141650Z 09007KT 040V120 9999 BKN024 M04/M05 Q1013=
201212141620 METAR ESMX 141620Z 08006KT 050V120 9999 BKN024 M04/M05 Q1013=
201212141550 METAR ESMX 141550Z 07005KT 9999 FEW021 BKN025 M05/M05 Q1014=
201212141520 METAR ESMX 141520Z 07005KT 030V100 9999 BKN026 M05/M06 Q1014=
201212141450 METAR ESMX 141450Z 07004KT 030V100 9999 BKN025 M05/M06 Q1014=
201212141420 METAR ESMX 141420Z 04005KT 010V070 9999 BKN025 M05/M06 Q1014=
201212141350 METAR ESMX 141350Z 05004KT 9999 FEW021 BKN026 M05/M06 Q1014=
201212141320 METAR ESMX 141320Z 06004KT 9999 BKN028 M05/M06 Q1015=
201212141220 METAR ESMX 141220Z 07004KT 6000 -SN FEW013 SCT021 BKN028 M06/M07 Q1015=
201212141150 METAR ESMX 141150Z 06004KT 020V090 9999 -SN FEW020 BKN034 M06/M07 Q1015=
201212141120 METAR ESMX 141120Z 06003KT 9999 -SN FEW011 SCT025 BKN035 M06/M07 Q1016=
201212141050 METAR ESMX 141050Z 08004KT 040V110 9999 -SN FEW016 SCT028 BKN034 M06/M07 Q1016=
201212141020 METAR ESMX 141020Z 08003KT 030V110 9999 -SN FEW020 BKN034 M07/M08 Q1016=
201212140950 METAR ESMX 140950Z 01003KT 9999 BKN030 M09/M10 Q1016=
201212140920 METAR ESMX 140920Z 01003KT 9999 SCT032 M09/M11 Q1017=
201212140850 METAR ESMX 140850Z 02003KT 9999 BKN016 M09/M10 Q1017=
201212140820 METAR ESMX 140820Z 02002KT 8000 -SN BKN015 M10/M11 Q1017=
201212140750 METAR ESMX 140750Z 02002KT 8000 -SN BKN021 M11/M12 Q1017=
201212140720 METAR ESMX 140720Z 03002KT 9999 FEW023 SCT027 OVC044 M11/M13 Q1017=
201212140650 METAR ESMX 140650Z 04003KT 010V100 9999 FEW026 OVC044 M12/M14 Q1016=
201212140620 METAR ESMX 140620Z 01001KT 9999 BKN043 M13/M14 Q1016=
201212140550 METAR ESMX 140550Z 01003KT 9999 BKN041 M13/M15 Q1016=
201212140520 METAR ESMX 140520Z 02004KT 9999 BKN038 M14/M16 Q1016=
201212140450 METAR ESMX 140450Z VRB02KT 9999 SCT039 M16/M17 Q1016=
201212140420 METAR ESMX 140420Z AUTO VRB02KT 9999NDV NCD M16/M18 Q1016=
201212140350 METAR ESMX 140350Z AUTO 02002KT 9999NDV NCD M16/M17 Q1016=
201212140320 METAR ESMX 140320Z AUTO 02003KT 9999NDV NCD M15/M17 Q1016=
201212140250 METAR ESMX 140250Z AUTO 03003KT 9999NDV NCD M15/M16 Q1017=
201212140220 METAR ESMX 140220Z 05003KT 020V080 CAVOK M14/M16 Q1016=
201212140150 METAR ESMX 140150Z 02004KT 9999 SCT001 BKN026 M13/M15 Q1016=
201212140120 METAR ESMX 140120Z VRB02KT 2000 BCFG BR BKN001 BKN025 M13/M14 Q1016=
201212140050 METAR ESMX 140050Z VRB01KT 0900 R01/P2000N R19/P2000N FZFG VV002 M12/M14 Q1016=
201212132350 METAR ESMX 132350Z VRB02KT 0400 R19/0800VP2000U FZFG VV002 M13/M14 Q1016=
201212132320 METAR ESMX 132320Z VRB01KT 0250 R19/0700 FZFG VV002 M12/M14 Q1016=
201212132250 METAR ESMX 132250Z 00000KT 0300 R19/0450V0900 BCFG VV002 M12/M14 Q1016=
201212132220 METAR ESMX 132220Z 35001KT 0300 R19/0650V0900N FZFG VV002 M13/M14 Q1016=
201212132150 METAR ESMX 132150Z VRB01KT 0300 R19/0650V1200 FZFG VV002 M13/M14 Q1016=
201212132120 METAR ESMX 132120Z 00000KT 0300 R19/0450N FZFG VV001 M12/M14 Q1016=
201212132050 METAR ESMX 132050Z 20001KT 0200 R01/0500N R19/0300 FZFG VV001 M12/M14 Q1016=
201212132020 METAR ESMX 132020Z 18001KT 0300 R01/0400N R19/0500 FZFG VV002 M12/M13 Q1015=
201212131950 METAR ESMX 131950Z VRB02KT 0500 R01/0650 R19/P2000N FZFG VV002 M13/M14 Q1015=
201212131920 METAR ESMX 131920Z 01002KT 0600 R19/P2000N FZFG VV002 M12/M13 Q1015=
201212131820 METAR ESMX 131820Z 23002KT 3000 BR OVC000 M11/M12 Q1015=
201212131750 METAR ESMX 131750Z VRB02KT 9999 BKN002 M12/M13 Q1015=
201212131720 METAR ESMX 131720Z 19002KT 9999 BKN004 M13/M14 Q1015=
201212131650 METAR ESMX 131650Z 19003KT 9999 SCT005 M12/M14 Q1015=
201212131620 METAR ESMX 131620Z 23001KT 9999 OVC004 M13/M14 Q1015=
201212131550 METAR ESMX 131550Z 25001KT 9999 SCT006 M12/M13 Q1015=
201212131520 METAR ESMX 131520Z 24002KT CAVOK M12/M13 Q1015=
201212131450 METAR ESMX 131450Z 25002KT CAVOK M11/M12 Q1015=
201212131420 METAR ESMX 131420Z 27002KT 9999 FEW006 M10/M11 Q1015=
201212131350 METAR ESMX 131350Z VRB01KT 9999 SCT007 M09/M10 Q1015=
201212131320 METAR ESMX 131320Z 36001KT 9999 OVC006 M08/M10 Q1015=
201212131250 METAR ESMX 131250Z 01004KT 9999 OVC006 M08/M10 Q1015=
201212131220 METAR ESMX 131220Z 01004KT 9999 OVC006 M08/M10 Q1015=
201212131150 METAR ESMX 131150Z 36004KT 9999 OVC006 M08/M10 Q1015=
201212131120 METAR ESMX 131120Z 01004KT 330V080 9999 OVC005 M08/M10 Q1016=
201212131050 METAR ESMX 131050Z 36006KT 9999 OVC005 M09/M10 Q1016=
201212131020 METAR ESMX 131020Z 01005KT 9999 OVC005 M09/M10 Q1016=
201212130950 METAR ESMX 130950Z 02005KT 9999 OVC005 M09/M10 Q1016=
201212130920 METAR ESMX 130920Z 34005KT 9999 OVC005 M09/M10 Q1016=
201212130850 METAR ESMX 130850Z 05005KT 9999 OVC005 M09/M10 Q1016=
201212130820 METAR ESMX 130820Z 36005KT 9999 OVC005 M09/M10 Q1016=
201212130750 METAR ESMX 130750Z 34004KT 9999 OVC005 M09/M10 Q1016=
201212130720 METAR ESMX 130720Z 36004KT 330V050 9999 OVC005 M09/M10 Q1016=
201212130650 METAR ESMX 130650Z 33003KT 9999 OVC005 M09/M10 Q1016 RESG=
201212130550 METAR ESMX 130550Z 36005KT 9999 OVC006 M08/M09 Q1016=
201212130520 METAR ESMX 130520Z 02005KT 9999 OVC007 M08/M09 Q1016=
201212130450 METAR ESMX 130450Z 33004KT 9999 OVC006 M09/M10 Q1016=
201212130420 METAR ESMX 130420Z AUTO 35004KT 9999NDV -SN OVC005/// M09/M10 Q1016=
201212130350 METAR ESMX 130350Z AUTO 34004KT 310V010 9999NDV -SN OVC004/// M09/M10 Q1017=
201212130320 METAR ESMX 130320Z AUTO 31002KT 9999NDV -SN OVC004/// M12/M13 Q1017=
201212130250 METAR ESMX 130250Z AUTO VRB02KT 9999NDV OVC004/// M13/M15 Q1017=
201212130220 METAR ESMX 130220Z AUTO VRB01KT 9999NDV OVC004/// M15/M17 Q1017=
201212130150 METAR ESMX 130150Z 22001KT 9999 OVC007 M16/M17 Q1017=
201212130120 METAR ESMX 130120Z 17001KT 9999 BKN009 M15/M17 Q1017=
201212130050 METAR ESMX 130050Z 16001KT 9999 SCT010 M15/M16 Q1017=
201212130020 METAR ESMX 130020Z 25002KT 9999 SCT010 M15/M16 Q1017=
201212122350 METAR ESMX 122350Z VRB02KT 9999 BKN010 M14/M16 Q1017=
201212122320 METAR ESMX 122320Z 17002KT 9999 BKN010 M14/M15 Q1017=
201212122220 METAR ESMX 122220Z VRB02KT 9999 SCT010 M12/M14 Q1018=
201212122150 METAR ESMX 122150Z VRB02KT 9999 BKN009 M12/M13 Q1018=
201212122120 METAR ESMX 122120Z VRB02KT 9999 BKN010 M12/M14 Q1018=
201212122020 METAR ESMX 122020Z 35001KT CAVOK M13/M15 Q1017=
201212121950 METAR ESMX 121950Z 34003KT 320V070 CAVOK M12/M14 Q1017=
201212121920 METAR ESMX 121920Z 20001KT CAVOK M11/M13 Q1017=
201212121850 METAR ESMX 121850Z 00000KT CAVOK M10/M11 Q1017=
201212121820 METAR ESMX 121820Z 33004KT 9999 SCT018 M09/M10 Q1017 RESG=
201212121750 METAR ESMX 121750Z 33004KT 9999 BKN018 M07/M09 Q1017 RESG=
201212121720 METAR ESMX 121720Z 33004KT 9999 IC OVC018 M06/M08 Q1017 RESG=
201212121650 METAR ESMX 121650Z 28005KT 9999 OVC016 M06/M08 Q1017=
201212121620 METAR ESMX 121620Z 28006KT 9999 OVC016 M06/M08 Q1017=
201212121550 METAR ESMX 121550Z 29006KT 9999 OVC014 M05/M08 Q1017=
201212121520 METAR ESMX 121520Z 32004KT 9999 OVC014 M05/M08 Q1017=
201212121450 METAR ESMX 121450Z 32004KT 9999 OVC014 M05/M08 Q1017=
201212121420 METAR ESMX 121420Z 32005KT 9999 OVC015 M05/M08 Q1017=
201212121350 METAR ESMX 121350Z 31005KT 9999 OVC015 M05/M08 Q1017=
201212121320 METAR ESMX 121320Z 33006KT 9999 OVC016 M04/M08 Q1016=
201212121250 METAR ESMX 121250Z 31005KT 9999 BKN019 M04/M08 Q1016=
201212121220 METAR ESMX 121220Z 30006KT 9999 BKN022 M05/M08 Q1016=
201212121150 METAR ESMX 121150Z 32005KT 9999 OVC022 M04/M07 Q1016=
201212121120 METAR ESMX 121120Z 31006KT 9999 OVC022 M05/M07 Q1016=
201212121050 METAR ESMX 121050Z 30007KT 9999 BKN022 M05/M07 Q1016=
201212121020 METAR ESMX 121020Z 30006KT 9999 BKN022 M05/M07 Q1016=
201212120950 METAR ESMX 120950Z 29005KT 9999 BKN021 M05/M07 Q1016=
201212120920 METAR ESMX 120920Z 28006KT 9999 OVC017 M05/M07 Q1016=
201212120850 METAR ESMX 120850Z 30006KT 9999 OVC014 M05/M07 Q1015=
201212120820 METAR ESMX 120820Z 31006KT 280V340 9999 OVC012 M05/M07 Q1015=
201212120750 METAR ESMX 120750Z 31006KT 260V350 9999 OVC011 M05/M07 Q1015=
201212120720 METAR ESMX 120720Z 33007KT 9999 OVC011 M05/M07 Q1015=
201212120650 METAR ESMX 120650Z 32008KT 280V350 9999 BKN011 M05/M07 Q1015=
201212120620 METAR ESMX 120620Z 32009KT 9999 OVC009 M05/M07 Q1014=
201212120550 METAR ESMX 120550Z 33009KT 9999 OVC010 M05/M07 Q1014=
201212120520 METAR ESMX 120520Z 30008KT 9999 OVC010 M05/M07 Q1014=
201212120450 METAR ESMX 120450Z 31008KT 9999 BKN010 M05/M07 Q1014=
201212120420 METAR ESMX 120420Z AUTO 30006KT 9999NDV BKN010/// M06/M07 Q1014=
201212120350 METAR ESMX 120350Z AUTO 30004KT 9999NDV BKN014/// M07/M08 Q1014=
201212120320 METAR ESMX 120320Z AUTO 29006KT 9999NDV BKN015/// M06/M08 Q1014=
201212120250 METAR ESMX 120250Z AUTO 29006KT 9999NDV OVC016/// M06/M08 Q1014=
201212120220 METAR ESMX 120220Z AUTO 30006KT 9999NDV OVC018/// M06/M08 Q1014=
201212120150 METAR ESMX 120150Z AUTO 29007KT 9999NDV OVC018/// M06/M08 Q1014=
201212111820 METAR ESMX 111820Z 34011KT CAVOK M05/M07 Q1014=
201212111750 METAR ESMX 111750Z 34012KT 9999 SCT019 M05/M07 Q1014=
201212111720 METAR ESMX 111720Z 34011KT 9999 BKN015 M05/M07 Q1014=
201212111650 METAR ESMX 111650Z 34012KT 9999 BKN014 M05/M07 Q1014=
201212111620 METAR ESMX 111620Z 34012KT 9999 OVC014 M04/M07 Q1015=
201212111550 METAR ESMX 111550Z 34013KT 9999 OVC013 M04/M07 Q1015=
201212111520 METAR ESMX 111520Z 35013KT 9999 OVC012 M04/M07 Q1015=
201212111450 METAR ESMX 111450Z 34012KT 9999 OVC013 M04/M07 Q1015=
201212111420 METAR ESMX 111420Z 35013KT 9999 OVC013 M04/M07 Q1015=
201212111350 METAR ESMX 111350Z 35014KT 9999 OVC013 M04/M07 Q1015=
201212111320 METAR ESMX 111320Z 35013KT 9999 OVC012 M04/M07 Q1015=
201212111250 METAR ESMX 111250Z 35015KT 9999 OVC012 M04/M06 Q1015=
201212111220 METAR ESMX 111220Z 35014KT 9999 OVC011 M04/M06 Q1015=
201212111150 METAR ESMX 111150Z 35015KT 9999 OVC011 M04/M06 Q1016=
201212111120 METAR ESMX 111120Z 34014KT 9999 OVC011 M04/M07 Q1016=
201212111050 METAR ESMX 111050Z 35015KT 9999 BKN012 M04/M07 Q1016=
201212111020 METAR ESMX 111020Z 34015KT 9999 BKN012 M04/M07 Q1016=
201212110950 METAR ESMX 110950Z 35013KT 9000 -SN BKN012 M04/M06 Q1016=
201212110920 METAR ESMX 110920Z 35013KT 9999 -SN BKN011 M05/M07 Q1017=
201212110850 METAR ESMX 110850Z 34012KT 9999 -SN FEW012 BKN025 M05/M07 Q1017 RESG=
201212110820 METAR ESMX 110820Z 34013KT 9999 -SN BKN011 M05/M07 Q1017=
201212110750 METAR ESMX 110750Z 34013KT 9999 BKN013 M05/M07 Q1017=
201212110720 METAR ESMX 110720Z 35014KT 9000 -SN SCT013 BKN030 M05/M07 Q1017=
201212110650 METAR ESMX 110650Z 35013KT 7000 -SN SCT013 BKN030 M05/M07 Q1017=
201212110620 METAR ESMX 110620Z 36013KT 9999 FEW012 BKN030 M05/M07 Q1017=
201212110550 METAR ESMX 110550Z 35013KT 9999 -SG FEW013 BKN028 M05/M07 Q1017=
201212110520 METAR ESMX 110520Z 35013KT 9999 FEW015 BKN030 M05/M07 Q1017=
201212110450 METAR COR ESMX 110450Z 35014KT 9999 FEW015 BKN030 M05/M07 Q1017=
201212110420 METAR ESMX 110420Z AUTO 35014KT 9999NDV BKN033/// M05/M07 Q1017 RESG=
201212110350 METAR ESMX 110350Z AUTO 35015KT 9999NDV -SN FEW027/// M05/M07 Q1017=
201212110320 METAR ESMX 110320Z AUTO 35015KT 9000NDV -SN FEW025/// BKN043/// BKN068/// M05/M07 Q1018=
201212110250 METAR ESMX 110250Z AUTO 35015KT 6000NDV -SN FEW014/// BKN041/// M04/M06 Q1018=
201212110220 METAR ESMX 110220Z AUTO 36014KT 9999NDV -SN FEW014/// SCT041/// BKN047/// M04/M06 Q1018=
201212110150 METAR ESMX 110150Z AUTO 35014KT 9999NDV -SN BKN012/// OVC045/// M04/M06 Q1018=
201212110120 METAR ESMX 110120Z 36013KT 9999 -SN FEW012 BKN014 OVC042 M04/M06 Q1018=
201212110050 METAR ESMX 110050Z 35014KT 7000 -SN SCT011 BKN042 M05/M06 Q1018=
201212110020 METAR ESMX 110020Z 36014KT 9999 -SN OVC011 M05/M07 Q1018=
201212102350 METAR ESMX 102350Z 36012KT 9999 -SN SCT011 OVC050 M05/M07 Q1018=
201212102320 METAR ESMX 102320Z 36013KT 9999 FEW011 BKN015 M05/M07 Q1018=
201212102250 METAR ESMX 102250Z 35013KT 9000 -SN FEW012 BKN015 M05/M07 Q1018=
201212102220 METAR ESMX 102220Z 36013KT 3100 -SN BKN010 M05/M07 Q1018=
201212102150 METAR ESMX 102150Z 36012KT 4600 -SN OVC010 M05/M07 Q1018=
201212102120 METAR ESMX 102120Z 36014KT 9999 -SN FEW013 BKN019 M05/M07 Q1018=
201212102050 METAR ESMX 102050Z 35012KT 5000 -SN FEW013 SCT019 BKN055 M05/M06 Q1018=
201212102020 METAR ESMX 102020Z 36013KT 9999 -SN BKN012 M04/M06 Q1018=
201212101950 METAR ESMX 101950Z 01014KT 9999 OVC012 M04/M06 Q1018=
201212101920 METAR ESMX 101920Z 01014KT 9999 BKN012 M04/M06 Q1018=
201212101850 METAR ESMX 101850Z 02015KT 9999 FEW011 OVC014 M03/M06 Q1017=
201212101820 METAR ESMX 101820Z 02014KT 9999 -SN OVC012 M03/M05 Q1017=
201212101750 METAR ESMX 101750Z 35012KT 9000 -SN FEW013 SCT016 BKN019 M03/M05 Q1017=
201212101720 METAR ESMX 101720Z 36011KT 9999 FEW013 SCT015 BKN019 M03/M05 Q1017=
201212101650 METAR ESMX 101650Z 01011KT 9999 -SN SCT011 BKN052 M03/M05 Q1017=
201212101620 METAR ESMX 101620Z 02010KT 9999 FEW040 M04/M06 Q1017=
201212101550 METAR ESMX 101550Z 02010KT 9999 FEW028 M04/M05 Q1016=
201212101520 METAR ESMX 101520Z 01010KT 9999 FEW024 M04/M06 Q1016=
201212101450 METAR ESMX 101450Z 02009KT 9999 FEW015 M03/M05 Q1016=
201212101420 METAR ESMX 101420Z 02010KT 9999 FEW015 M03/M05 Q1016=
201212101350 METAR ESMX 101350Z 01009KT 9999 FEW014 SCT016 M03/M05 Q1016=
201212101320 METAR ESMX 101320Z 03009KT 9999 FEW015 M03/M05 Q1015=
201212101250 METAR ESMX 101250Z 03009KT 9999 SCT013 BKN078 M03/M05 Q1015=
201212101220 METAR ESMX 101220Z 04009KT 9999 -SN FEW013 SCT015 M03/M04 Q1015=
201212101150 METAR ESMX 101150Z 03011KT 360V070 9000 SN FEW013 SCT028 M03/M04 Q1015=
201212101120 METAR ESMX 101120Z 04011KT 6000 -SN FEW013 M03/M04 Q1014=
201212101050 METAR ESMX 101050Z 04010KT 010V070 6000 SN FEW012 SCT017 BKN060 M03/M04 Q1014=
201212101020 METAR ESMX 101020Z 04011KT 9000 SN FEW013 SCT017 M03/M04 Q1014=
201212100950 METAR ESMX 100950Z 04011KT 5000 -SN FEW013 SCT018 M03/M04 Q1014=
201212100920 METAR ESMX 100920Z 04012KT 5000 -SN SCT014 M03/M04 Q1014=
201212100850 METAR ESMX 100850Z 04010KT 2900 -SN FEW011 SCT030 M03/M04 Q1013=
201212100820 METAR ESMX 100820Z 04010KT 3200 -SN FEW011 M03/M04 Q1013=
201212100750 METAR ESMX 100750Z 04010KT 020V100 6000 -SN FEW014 SCT016 BKN019 M03/M04 Q1012=
201212100720 METAR ESMX 100720Z 05010KT 020V080 9999 FEW013 SCT017 M03/M04 Q1012=
201212100650 METAR ESMX 100650Z 05008KT 020V080 9999 SCT012 BKN017 OVC019 M03/M04 Q1012=
201212100620 METAR ESMX 100620Z 06009KT 030V100 8000 SN FEW010 SCT016 BKN064 M03/M04 Q1011=
201212100550 METAR ESMX 100550Z 04010KT 4000 -SN BKN015 M03/M04 Q1010=
201212100520 METAR ESMX 100520Z 04009KT 3000 SN BKN009 BKN019 M03/M04 Q1010=
201212100450 METAR ESMX 100450Z 04009KT 4000 -SN BKN009 BKN023 M03/M04 Q1010=
201212100420 METAR ESMX 100420Z AUTO 05009KT 020V080 3300NDV -SN FEW011/// M03/M04 Q1010=
201212100350 METAR ESMX 100350Z AUTO 04009KT 2600NDV -SN FEW005/// M03/M04 Q1009=
201212100320 METAR ESMX 100320Z AUTO 05010KT 2500NDV -SN FEW005/// SCT013/// BKN018/// M03/M04 Q1009=
201212100250 METAR ESMX 100250Z AUTO 05009KT 3600NDV -SN FEW005/// SCT026/// M03/M04 Q1009=
201212100220 METAR ESMX 100220Z AUTO 06009KT 030V100 3200NDV -SN FEW008/// SCT036/// BKN041/// M03/M05 Q1009=
201212100150 METAR ESMX 100150Z 07010KT 030V100 9999 -SN FEW015 BKN039 M03/M05 Q1009=
201212100120 METAR ESMX 100120Z 07009KT 040V100 8000 -SN FEW015 BKN035 M03/M05 Q1009=
201212100050 METAR ESMX 100050Z 06011KT 030V100 2000 SN BKN010 OVC014 M03/M04 Q1008=
201212100020 METAR ESMX 100020Z 06009KT 030V120 4900 -SN FEW012 OVC016 M03/M04 Q1008=
201212092350 METAR ESMX 092350Z 07008KT 040V100 3900 -SN BKN010 OVC015 M03/M04 Q1008=
201212092320 METAR ESMX 092320Z 07009KT 040V110 4200 -SN BKN010 OVC014 M03/M04 Q1008=
201212092250 METAR ESMX 092250Z 07009KT 030V130 5000 -SN BKN010 BKN014 M03/M04 Q1007=
201212092220 METAR ESMX 092220Z 08009KT 040V120 6000 -SN BKN012 OVC015 M03/M04 Q1007=
201212092150 METAR ESMX 092150Z 08008KT 6000 -SN BKN015 M02/M04 Q1007=
201212092120 METAR ESMX 092120Z 08008KT 050V120 7000 -SN OVC012 M02/M04 Q1007=
201212092050 METAR ESMX 092050Z 08008KT 030V120 5000 -SN OVC011 M02/M04 Q1007=
201212092020 METAR ESMX 092020Z 08009KT 040V110 8000 -SN OVC010 M02/M04 Q1007=
201212091950 METAR ESMX 091950Z 08009KT 050V140 8000 -SN OVC009 M02/M04 Q1007=
201212091920 METAR ESMX 091920Z 08010KT 040V120 7000 -SN OVC010 M02/M03 Q1006=
201212091850 METAR ESMX 091850Z 08008G18KT 040V130 8000 -SN OVC010 M02/M03 Q1006=
201212091820 METAR ESMX 091820Z 08008KT 050V110 9999 -SN OVC009 M02/M04 Q1006=
201212091750 METAR ESMX 091750Z 08008KT 9999 FEW007 SCT009 OVC011 M02/M03 Q1006=
201212091720 METAR ESMX 091720Z 09008KT 060V130 9999 -SN SCT005 BKN008 M03/M04 Q1006=
201212091650 METAR ESMX 091650Z 09007KT 050V120 9999 -SN FEW006 BKN007 OVC025 M03/M04 Q1006=
201212091620 METAR ESMX 091620Z 09007KT 050V120 9999 FEW009 OVC022 M03/M04 Q1006=
201212091550 METAR ESMX 091550Z 09006KT 050V140 9999 SCT021 OVC027 M03/M04 Q1006 RESG=
201212091520 METAR ESMX 091520Z 08007KT 050V110 9999 BKN027 M03/M04 Q1006=
201212091450 METAR ESMX 091450Z 09006KT 040V120 9999 BKN027 M04/M05 Q1006=
201212091420 METAR ESMX 091420Z 09006KT 050V140 9999 SCT027 M04/M05 Q1006=
201212091350 METAR ESMX 091350Z 08007KT 050V120 9999 SCT030 M04/M05 Q1006=
201212091320 METAR ESMX 091320Z 09008KT 050V130 9999 BKN027 M04/M05 Q1007=
201212091250 METAR ESMX 091250Z 10007KT 060V130 9999 SCT021 BKN025 M05/M05 Q1007=
201212091220 METAR ESMX 091220Z 10005KT 030V170 9999 FEW007 BKN020 M05/M06 Q1008=
201212091150 METAR ESMX 091150Z 10005KT 050V150 9999 FEW005 SCT007 M06/M06 Q1008=
201212091050 METAR ESMX 091050Z 09005KT 030V130 9999 BKN002 OVC004 M07/M08 Q1009=
201212091020 METAR ESMX 091020Z 10005KT 070V140 9999 OVC003 M07/M08 Q1010=
201212090950 METAR COR ESMX 090950Z 11006KT 050V140 5000 BR BKN003 M08/M09 Q1011=
201212090920 METAR ESMX 090920Z AUTO 13007KT 090V170 5000NDV BR BKN002/// OVC004/// M09/M10 Q1011=
201212090850 METAR ESMX 090850Z AUTO 14006KT 100V170 9999NDV IC FEW005/// M09/M10 Q1012=
201212090820 METAR ESMX 090820Z AUTO 12004KT 070V160 9999NDV SCT004/// M09/M10 Q1012=
201212090750 METAR ESMX 090750Z AUTO 15005KT 9999NDV BKN004/// M08/M09 Q1012=
201212090720 METAR ESMX 090720Z AUTO 13003KT 080V170 9999NDV BKN004/// M08/M09 Q1012=
201212090650 METAR ESMX 090650Z AUTO 12003KT 060V170 9999NDV OVC002/// M08/M09 Q1013=
201212090620 METAR ESMX 090620Z AUTO 13003KT 090V170 9999NDV OVC002/// M08/M09 Q1013=
201212090550 METAR ESMX 090550Z AUTO 11004KT 080V160 9000NDV BR OVC001/// M08/M09 Q1013=
201212090520 METAR ESMX 090520Z AUTO 16003KT 120V190 9999NDV OVC001/// M08/M08 Q1014=
201212090450 METAR ESMX 090450Z AUTO 17004KT 9999NDV OVC001/// M08/M08 Q1014=
201212090420 METAR ESMX 090420Z AUTO 17004KT 140V200 9999NDV OVC001/// M08/M08 Q1014=
201212090350 METAR ESMX 090350Z AUTO 15004KT 110V200 9999NDV OVC001/// M08/M08 Q1015=
201212090320 METAR ESMX 090320Z AUTO 14005KT 100V180 9999NDV OVC002/// M07/M08 Q1015=
201212090250 METAR ESMX 090250Z AUTO 17003KT 9999NDV OVC004/// M07/M08 Q1015=
201212090220 METAR ESMX 090220Z AUTO 17002KT 9999NDV OVC005/// M07/M08 Q1016=
201212090150 METAR ESMX 090150Z AUTO VRB01KT 9999NDV OVC006/// M07/M08 Q1016=
201212090120 METAR ESMX 090120Z AUTO VRB01KT 9999NDV OVC006/// M07/M08 Q1016=
201212090050 METAR ESMX 090050Z AUTO VRB01KT 9999NDV OVC008/// M07/M08 Q1016=
201212090020 METAR ESMX 090020Z AUTO 01002KT 9999NDV OVC008/// M06/M08 Q1017=
201212082350 METAR ESMX 082350Z AUTO 03003KT 350V060 9999NDV OVC008/// M06/M07 Q1017=
201212082320 METAR ESMX 082320Z AUTO VRB02KT 9999NDV OVC008/// M06/M07 Q1017=
201212082250 METAR ESMX 082250Z AUTO 32004KT 9999NDV OVC009/// M05/M07 Q1017=
201212082220 METAR ESMX 082220Z AUTO 35004KT 320V020 9999NDV OVC010/// M05/M07 Q1017=
201212082150 METAR ESMX 082150Z AUTO 35005KT 9999NDV OVC010/// M05/M07 Q1018=
201212082120 METAR ESMX 082120Z AUTO 32005KT 9999NDV OVC011/// M05/M07 Q1018=
201212082050 METAR ESMX 082050Z AUTO 34007KT 9999NDV OVC011/// M05/M07 Q1018=
201212082020 METAR ESMX 082020Z AUTO 34006KT 300V010 9999NDV OVC011/// M05/M07 Q1018=
201212081950 METAR ESMX 081950Z AUTO 33006KT 300V010 9999NDV OVC012/// M05/M07 Q1018=
201212081920 METAR ESMX 081920Z AUTO 34005KT 9999NDV OVC011/// M05/M07 Q1018=
201212081850 METAR ESMX 081850Z AUTO 33006KT 9999NDV OVC013/// M05/M07 Q1017=
201212081820 METAR ESMX 081820Z AUTO 34006KT 9999NDV OVC014/// M05/M07 Q1017=
201212081750 METAR ESMX 081750Z AUTO 34007KT 9999NDV OVC015/// M05/M07 Q1017=
201212081720 METAR ESMX 081720Z AUTO 32006KT 9999NDV OVC017/// M05/M06 Q1017=
201212081650 METAR ESMX 081650Z AUTO 30005KT 9999NDV OVC016/// M05/M06 Q1017=
201212081620 METAR ESMX 081620Z AUTO 31004KT 9999NDV OVC015/// M05/M06 Q1017=
201212081550 METAR ESMX 081550Z AUTO 30004KT 9999NDV FEW013/// OVC016/// M05/M06 Q1017=
201212081520 METAR ESMX 081520Z AUTO 32004KT 9999NDV OVC016/// M06/M07 Q1016=
201212081450 METAR ESMX 081450Z AUTO 33004KT 9999NDV OVC017/// M06/M07 Q1016=
201212081420 METAR ESMX 081420Z AUTO 32005KT 9999NDV FEW021/// M08/M09 Q1016=
201212081350 METAR ESMX 081350Z AUTO 34005KT 9999NDV NCD M06/M08 Q1016=
201212081320 METAR ESMX 081320Z AUTO 35006KT 9999NDV FEW045/// M05/M07 Q1016=
201212081250 METAR ESMX 081250Z AUTO 34010KT 9999NDV FEW016/// OVC018/// M05/M06 Q1015=
201212081220 METAR ESMX 081220Z AUTO 35005KT 9999NDV OVC009/// M05/M05 Q1015=
201212081150 METAR ESMX 081150Z AUTO 33004KT 9000NDV -SN OVC008/// M05/M06 Q1015=
201212081120 METAR ESMX 081120Z AUTO 36006KT 9000NDV -SN BKN011/// OVC015/// M05/M06 Q1015=
201212081050 METAR ESMX 081050Z 01005KT 4000 SN BKN011 OVC015 M05/M06 Q1015=
201212081020 METAR ESMX 081020Z 36005KT 6000 -SN OVC011 M06/M07 Q1015=
201212080950 METAR ESMX 080950Z 36004KT 9000 -SN OVC010 M07/M08 Q1014=
201212080920 METAR ESMX 080920Z VRB01KT 9999 BKN010 M08/M09 Q1014=
201212080850 METAR ESMX 080850Z 31004KT 9999 SCT010 M09/M11 Q1014=
201212080820 METAR ESMX 080820Z 33005KT 9999 OVC014 M08/M10 Q1014=
201212080750 METAR ESMX 080750Z AUTO 31003KT 260V330 9999NDV IC FEW014/// OVC018/// M09/M10 Q1014=
201212080720 METAR ESMX 080720Z AUTO 30005KT 9999NDV -SN OVC017/// M08/M09 Q1013=
201212080650 METAR ESMX 080650Z AUTO 29004KT 9999NDV OVC015/// M08/M09 Q1013=
201212080620 METAR ESMX 080620Z AUTO 29004KT 260V320 9999NDV FEW013/// OVC017/// M09/M10 Q1013=
201212080550 METAR ESMX 080550Z AUTO 30002KT 9999NDV IC OVC016/// M09/M10 Q1012=
201212080520 METAR ESMX 080520Z AUTO 29003KT 6000NDV -SN BKN019/// BKN024/// M09/M10 Q1012=
201212080450 METAR ESMX 080450Z AUTO 28003KT 5000NDV -SN SCT022/// BKN027/// M09/M10 Q1012=
201212080420 METAR ESMX 080420Z AUTO 29003KT 1700NDV -SN FEW009/// SCT033/// M09/M10 Q1012=
201212080350 METAR ESMX 080350Z AUTO 29004KT 0900NDV R01/P2000N R19/P2000 -SN FEW005/// SCT007/// BKN009/// M09/M10 Q1012=
201212080320 METAR ESMX 080320Z AUTO 29004KT 2800NDV -SN FEW007/// M09/M10 Q1012=
201212080250 METAR ESMX 080250Z AUTO 26003KT 4000NDV -SN FEW030/// SCT052/// M09/M10 Q1012=
201212080220 METAR ESMX 080220Z AUTO 27004KT 3100NDV -SN FEW006/// SCT053/// M09/M10 Q1012=
201212080150 METAR ESMX 080150Z AUTO 27004KT 2200NDV -SN FEW005/// M09/M10 Q1012=
201212080120 METAR ESMX 080120Z AUTO 27003KT 1900NDV -SN FEW014/// SCT021/// M10/M11 Q1012=
201212080050 METAR ESMX 080050Z AUTO 23003KT 9999NDV -SN FEW018/// OVC021/// M10/M11 Q1012=
201212080020 METAR ESMX 080020Z AUTO 00000KT 9999NDV -SN OVC018/// M11/M12 Q1012=
201212072350 METAR ESMX 072350Z AUTO VRB01KT 9999NDV IC OVC018/// M11/M12 Q1012=
201212072320 METAR ESMX 072320Z AUTO 05001KT 9999NDV -SN OVC018/// M11/M13 Q1012=
201212072250 METAR ESMX 072250Z AUTO 00000KT 9999NDV -SN OVC019/// M12/M13 Q1011=
201212072220 METAR ESMX 072220Z AUTO 00000KT 9999NDV -SN OVC019/// M13/M14 Q1011=
201212072150 METAR ESMX 072150Z AUTO 00000KT 9999NDV -SN OVC019/// M13/M14 Q1011=
201212072120 METAR ESMX 072120Z AUTO VRB02KT 9999NDV OVC019/// M13/M15 Q1011=
201212072050 METAR ESMX 072050Z AUTO 05001KT 9999NDV OVC018/// M16/M17 Q1011=
201212072020 METAR ESMX 072020Z AUTO 00000KT 9999NDV FEW019/// M16/M18 Q1011=
201212071950 METAR ESMX 071950Z 05001KT 9999 FEW025 M16/M18 Q1011=
201212071920 METAR ESMX 071920Z 05001KT 9999 FEW028 M16/M17 Q1011=
201212071850 METAR ESMX 071850Z 05001KT CAVOK M15/M17 Q1011=
201212071820 METAR ESMX 071820Z 00000KT 9999 FEW030 M14/M15 Q1010=
201212071750 METAR ESMX 071750Z 00000KT CAVOK M13/M15 Q1010=
201212071720 METAR ESMX 071720Z 02001KT CAVOK M12/M13 Q1010=
201212071650 METAR ESMX 071650Z 02003KT CAVOK M10/M11 Q1010=
201212071620 METAR ESMX 071620Z 02004KT CAVOK M10/M11 Q1009=
201212071550 METAR ESMX 071550Z 02002KT 9999 BKN002 BKN040 M08/M09 Q1009=
201212071520 METAR ESMX 071520Z VRB02KT 9999 OVC004 M08/M09 Q1009=
201212071450 METAR ESMX 071450Z 33002KT 9999 FEW003 OVC006 M08/M09 Q1009=
201212071420 METAR ESMX 071420Z 32002KT 9999 OVC004 M08/M10 Q1009=
201212071350 METAR ESMX 071350Z 34003KT 9999 OVC005 M09/M10 Q1008=
201212071320 METAR ESMX 071320Z 36003KT 9999 FEW004 OVC009 M09/M10 Q1008=
201212071250 METAR ESMX 071250Z 01003KT 9999 OVC007 M09/M10 Q1009=
201212071220 METAR ESMX 071220Z 01003KT 9999 OVC007 M09/M10 Q1009=
201212071150 METAR ESMX 071150Z 36003KT 9999 OVC006 M09/M11 Q1009=
201212071120 METAR ESMX 071120Z VRB01KT 9999 OVC006 M10/M11 Q1008=
201212071050 METAR ESMX 071050Z 01002KT 9999 OVC007 M10/M11 Q1008=
201212071020 METAR ESMX 071020Z 01001KT 9999 SCT007 OVC010 M10/M12 Q1008=
201212070950 METAR ESMX 070950Z VRB01KT 9999 FEW002 OVC010 M12/M13 Q1009=
201212070920 METAR ESMX 070920Z VRB02KT 9999 SCT001 BKN012 M14/M15 Q1008=
201212070850 METAR ESMX 070850Z 00000KT 9999 VCFG FEW001 SCT010 M14/M16 Q1008=
201212070750 METAR ESMX 070750Z 00000KT 9999 R01/M0150V0450 R19/P2000 BCFG FEW020 M16/M18 Q1008=
201212070720 METAR ESMX 070720Z VRB01KT 0800 R19/P2000N FZFG VV002 M17/M19 Q1008=
201212070650 METAR ESMX 070650Z 00000KT 9999 FEW020 M18/M20 Q1008=
201212070620 METAR ESMX 070620Z 06002KT 9999 FEW020 M18/M20 Q1008=
201212070550 METAR ESMX 070550Z VRB01KT 9999 FEW019 M18/M19 Q1008=
201212070520 METAR ESMX 070520Z VRB01KT CAVOK M18/M20 Q1007=
201212070450 METAR ESMX 070450Z VRB01KT CAVOK M17/M18 Q1007=
201212070420 METAR ESMX 070420Z AUTO 18003KT 9999NDV NCD M17/M19 Q1007=
201212070350 METAR ESMX 070350Z AUTO 00000KT 9999NDV NCD M17/M19 Q1007=
201212070320 METAR ESMX 070320Z AUTO 18003KT 9999NDV NCD M16/M17 Q1007=
201212070250 METAR ESMX 070250Z AUTO 14001KT 9999NDV NCD M15/M17 Q1007=
201212070220 METAR ESMX 070220Z AUTO 18004KT 9999NDV NCD M13/M15 Q1007=
201212070150 METAR ESMX 070150Z 23004KT CAVOK M14/M16 Q1007=
201212070120 METAR ESMX 070120Z 22005KT CAVOK M14/M16 Q1007=
201212070050 METAR ESMX 070050Z AUTO 21003KT 9999NDV NCD M13/M15 Q1007=
201212070020 METAR ESMX 070020Z 18003KT 9999 FEW042 M13/M14 Q1007=
201212062350 METAR ESMX 062350Z 23005KT 9999 FEW041 M12/M13 Q1007=
201212062320 METAR ESMX 062320Z 21003KT 9999 FEW036 M11/M13 Q1007=
201212062250 METAR ESMX 062250Z 23004KT 9999 FEW035 BKN071 M10/M11 Q1007=
201212062220 METAR ESMX 062220Z 24004KT CAVOK M10/M11 Q1007=
201212062150 METAR ESMX 062150Z 24004KT CAVOK M10/M11 Q1006=
201212062120 METAR ESMX 062120Z 21003KT 180V240 CAVOK M10/M11 Q1006=
201212062050 METAR ESMX 062050Z 23004KT CAVOK M10/M12 Q1006 RESG=
201212062020 METAR ESMX 062020Z 15003KT 110V170 CAVOK M10/M11 Q1006=
201212061950 METAR ESMX 061950Z 25004KT 9999 FEW032 OVC074 M10/M12 Q1006=
201212061920 METAR ESMX 061920Z 25004KT 9999 -SN FEW045 OVC074 M10/M11 Q1005=
201212061850 METAR ESMX 061850Z 22005KT 9999 -SN SCT045 BKN076 M10/M11 Q1005=
201212061820 METAR ESMX 061820Z 23005KT 9999 -SN BKN047 M10/M11 Q1005=
201212061750 METAR ESMX 061750Z 24004KT 9999 -SN BKN035 M10/M11 Q1005=
201212061720 METAR ESMX 061720Z 23004KT 9999 -SN FEW036 M10/M11 Q1004=
201212061650 METAR ESMX 061650Z 25004KT 9999 -SN FEW008 M09/M10 Q1004=
201212061620 METAR ESMX 061620Z 25005KT 9999 -SN SCT031 M10/M11 Q1004=
201212061550 METAR ESMX 061550Z 23004KT 9999 -SN FEW009 SCT016 BKN049 M10/M11 Q1004=
201212061520 METAR ESMX 061520Z 23004KT 9999 -SN FEW010 SCT024 M09/M10 Q1003=
201212061450 METAR ESMX 061450Z 25003KT 8000 -SN FEW009 SCT028 M08/M10 Q1003=
201212061420 METAR ESMX 061420Z 27006KT 9999 -SN FEW011 SCT032 M07/M09 Q1003=
201212061350 METAR ESMX 061350Z 27006KT 7000 -SN FEW009 BKN012 M07/M08 Q1002=
201212061320 METAR ESMX 061320Z 23005KT 200V260 7000 -SN FEW009 BKN011 M07/M08 Q1002=
201212061250 METAR ESMX 061250Z 25007KT 3700 -SN FEW015 SCT022 M06/M08 Q1002=
201212061220 METAR ESMX 061220Z 27006KT 4800 -SN FEW008 BKN014 M06/M08 Q1001=
201212061150 METAR ESMX 061150Z 27006KT 6000 -SN FEW008 SCT014 BKN016 M06/M08 Q1001=
201212061120 METAR ESMX 061120Z 28005KT 240V300 2300 -SN FEW008 BKN020 M06/M07 Q1001=
201212061050 METAR ESMX 061050Z 28005KT 1400 -SN FEW020 BKN040 M06/M07 Q1001=
201212061020 METAR ESMX 061020Z 26005KT 5000 -SN FEW015 BKN035 M06/M08 Q1001=
201212060950 METAR ESMX 060950Z 27004KT 5000 -SN FEW020 BKN045 M07/M08 Q1000=
201212060920 METAR ESMX 060920Z 25005KT 9999 -SN SCT020 BKN045 M07/M08 Q1000=
201212060850 METAR ESMX 060850Z 25005KT 9999 -SN FEW020 BKN045 M07/M09 Q1000=
201212060820 METAR ESMX 060820Z 26005KT 9999 -SN FEW015 BKN040 M07/M09 Q1000=
201212060750 METAR ESMX 060750Z 26005KT 9999 -SN FEW010 BKN040 M08/M09 Q0999=
201212060720 METAR ESMX 060720Z 26005KT 7000 -SN FEW020 BKN045 M08/M09 Q0999=
201212060650 METAR ESMX 060650Z 25005KT 3500 -SN OVC023 M08/M09 Q0999=
201212060620 METAR ESMX 060620Z 26005KT 4700 -SN OVC020 M08/M09 Q0998=
201212060550 METAR ESMX 060550Z 25005KT 4900 -SN OVC024 M08/M10 Q0998=
201212060520 METAR ESMX 060520Z 23005KT 5000 -SN OVC020 M09/M10 Q0998=
201212060450 METAR ESMX 060450Z 22005KT 9000 -SN BKN020 M09/M10 Q0998=
201212060420 METAR ESMX 060420Z AUTO 23006KT 9999NDV -SN SCT019/// OVC022/// M10/M11 Q0997=
201212060350 METAR ESMX 060350Z AUTO 22008KT 9000NDV -SN SCT020/// OVC037/// M10/M11 Q0997=
201212060320 METAR ESMX 060320Z AUTO 22007KT 9999NDV -SN FEW018/// OVC052/// M10/M11 Q0997=
201212060250 METAR ESMX 060250Z AUTO 23006KT 6000NDV -SN SCT024/// M10/M11 Q0997=
201212060220 METAR ESMX 060220Z AUTO 24006KT 1600NDV -SN BKN025/// BKN042/// M10/M11 Q0997=
201212060150 METAR ESMX 060150Z 24005KT 9999 -SN BKN021 M10/M11 Q0997=
201212060120 METAR ESMX 060120Z 23005KT 9000 -SN BKN024 M10/M11 Q0997=
201212060050 METAR ESMX 060050Z 23005KT 9999 -SN FEW006 BKN030 M11/M12 Q0996=
201212060020 METAR ESMX 060020Z 27005KT 9999 -SN FEW006 SCT007 BKN032 M10/M11 Q0996=
201212052350 METAR ESMX 052350Z 25005KT 4500 -SN FEW009 BKN040 M09/M10 Q0996=
201212052320 METAR ESMX 052320Z 23006KT 8000 -SN SCT029 M09/M10 Q0996=
201212052250 METAR ESMX 052250Z 25006KT 3200 -SN FEW025 BKN040 M09/M10 Q0996=
201212052220 METAR ESMX 052220Z 22006KT 4300 -SN FEW021 BKN038 M08/M10 Q0996=
201212052150 METAR ESMX 052150Z 25005KT 4000 -SN FEW026 BKN038 M08/M09 Q0995=
201212052120 METAR ESMX 052120Z 25005KT 7000 -SN FEW015 SCT022 BKN036 M08/M10 Q0995=
201212052050 METAR ESMX 052050Z 25005KT 2800 -SN FEW014 BKN023 M08/M09 Q0995=
201212052020 METAR ESMX 052020Z 27005KT 9999 -SN FEW005 BKN023 M08/M09 Q0995=
201212051950 METAR ESMX 051950Z 26006KT 9000 -SN SCT023 BKN041 M08/M09 Q0995=
201212051920 METAR ESMX 051920Z 26006KT 4100 -SN FEW021 BKN038 M07/M08 Q0995=
201212051850 METAR ESMX 051850Z 27007KT 1800 -SN SCT021 BKN037 M07/M09 Q0994=
201212051820 METAR ESMX 051820Z 27006KT 9000 -SN BKN024 M07/M09 Q0994=
201212051750 METAR ESMX 051750Z 27006KT 5000 -SN FEW011 BKN035 M07/M09 Q0994=
201212051720 METAR ESMX 051720Z 27008KT 8000 -SN FEW016 BKN043 M07/M09 Q0994=
201212051650 METAR ESMX 051650Z 28007KT 8000 -SN FEW015 BKN042 M06/M08 Q0993=
201212051620 METAR ESMX 051620Z 28008KT 9999 -SN FEW015 OVC040 M06/M08 Q0993=
201212051550 METAR ESMX 051550Z 27008KT 9999 -SN FEW012 OVC040 M06/M08 Q0993=
201212051520 METAR ESMX 051520Z 29008KT 9999 -SN FEW012 OVC037 M06/M08 Q0993=
201212051450 METAR ESMX 051450Z 29008KT 9999 -SN FEW018 SCT022 OVC035 M06/M08 Q0992=
201212051420 METAR ESMX 051420Z 29009KT 9999 -SN FEW012 SCT023 OVC028 M05/M07 Q0992=
201212051350 METAR ESMX 051350Z 29009KT 9999 -SN FEW017 OVC026 M05/M07 Q0992=
201212051320 METAR ESMX 051320Z 29009KT 9999 IC FEW012 SCT016 BKN019 M05/M07 Q0992=
201212051250 METAR ESMX 051250Z 29009KT 9999 FEW011 SCT014 BKN022 M05/M07 Q0992=
201212051220 METAR ESMX 051220Z 30008KT 270V330 9999 FEW013 OVC023 M05/M07 Q0992=
201212051150 METAR ESMX 051150Z 30008KT 9999 FEW016 OVC022 M04/M06 Q0991=
201212051120 METAR ESMX 051120Z 30009KT 9999 OVC021 M04/M07 Q0991=
201212051050 METAR ESMX 051050Z 30008KT 260V330 9999 FEW019 OVC023 M05/M07 Q0991=
201212051020 METAR ESMX 051020Z 31008KT 9999 OVC018 M05/M08 Q0991=
201212050950 METAR ESMX 050950Z 30007KT 9999 FEW021 SCT029 M06/M08 Q0991=
201212050920 METAR ESMX 050920Z 30008KT 9999 FEW036 M06/M08 Q0991=
201212050850 METAR ESMX 050850Z 29008KT 9999 FEW034 M06/M08 Q0990=
201212050820 METAR ESMX 050820Z 29008KT 9999 FEW036 SCT040 M06/M08 Q0990=
201212050750 METAR ESMX 050750Z 30008KT 9999 OVC034 M06/M08 Q0990=
201212050720 METAR ESMX 050720Z 30008KT 9999 BKN036 M06/M08 Q0990=
201212050650 METAR ESMX 050650Z 30007KT 9999 FEW013 BKN030 M06/M08 Q0989=
201212050620 METAR ESMX 050620Z 30008KT 9999 FEW014 BKN017 M06/M07 Q0989=
201212050550 METAR ESMX 050550Z 31008KT 9999 FEW015 SCT017 M06/M07 Q0989=
201212050520 METAR ESMX 050520Z 31010KT 9999 FEW011 BKN014 M05/M07 Q0989=
201212050450 METAR ESMX 050450Z 31008KT 9999 BKN010 M05/M07 Q0988=
201212050420 METAR ESMX 050420Z 31008KT 9999 -SG BKN010 M05/M07 Q0988=
201212050350 METAR ESMX 050350Z AUTO 31008KT 9999NDV IC FEW011/// SCT044/// BKN060/// M05/M07 Q0988=
201212050320 METAR ESMX 050320Z AUTO 32009KT 280V350 9999NDV SG SCT010/// BKN018/// BKN044/// M05/M06 Q0988=
201212050250 METAR ESMX 050250Z AUTO 32010KT 9999NDV SG OVC010/// M05/M06 Q0988=
201212050220 METAR ESMX 050220Z AUTO 32010KT 9999NDV -SN SCT010/// BKN046/// M05/M06 Q0988=
201212050150 METAR ESMX 050150Z 33010KT 5000 -SN FEW009 SCT010 BKN038 M05/M07 Q0988=
201212050120 METAR ESMX 050120Z 33011KT 9999 -SN FEW008 BKN010 M06/M08 Q0988=
201212050050 METAR ESMX 050050Z 33012KT 9999 -SN BKN009 M07/M08 Q0988=
201212050020 METAR ESMX 050020Z 33012KT 9999 -SN SCT010 BKN014 M07/M09 Q0988=
201212042350 METAR ESMX 042350Z 33011KT 3700 -SN FEW009 BKN014 OVC018 M07/M09 Q0988=
201212042320 METAR ESMX 042320Z 32011KT 9999 -SN FEW009 OVC013 M08/M09 Q0988=
201212042250 METAR ESMX 042250Z 31011KT 7000 -SN FEW008 SCT009 BKN023 M07/M09 Q0988=
201212042220 METAR ESMX 042220Z 33011KT 1500 -SN FEW008 SCT014 BKN030 M06/M08 Q0987=
201212042150 METAR ESMX 042150Z 34012KT 2000 -SN FEW009 SCT034 M06/M07 Q0987=
201212042120 METAR ESMX 042120Z 34012KT 3300 -SN FEW011 OVC031 M05/M07 Q0987=
201212042050 METAR ESMX 042050Z 34013KT 3800 -SN FEW009 BKN035 M05/M06 Q0987=
201212042020 METAR ESMX 042020Z 34013KT 5000 -SN FEW008 SCT028 BKN031 M05/M06 Q0987=
201212041950 METAR ESMX 041950Z 34014KT 5000 -SN FEW011 OVC024 M05/M06 Q0987=
201212041920 METAR ESMX 041920Z 34014KT 9999 -SN FEW012 BKN014 OVC033 M05/M06 Q0987=
201212041850 METAR ESMX 041850Z 34013KT 5000 -SN FEW009 SCT047 BKN053 M05/M06 Q0987=
201212041820 METAR ESMX 041820Z 34012KT 2100 -SN FEW005 SCT042 M05/M06 Q0988=
201212041750 METAR ESMX 041750Z 35013KT 3400 -SN FEW008 SCT035 M06/M07 Q0988=
201212041720 METAR ESMX 041720Z 36013KT 2500 -SN FEW006 BKN043 M05/M07 Q0988=
201212041650 METAR ESMX 041650Z 36014KT 2700 -SN SCT010 M05/M06 Q0988=
201212041620 METAR ESMX 041620Z 02013KT 5000 -SN BKN008 M05/M06 Q0988=
201212041550 METAR ESMX 041550Z 02012KT 2800 SN FEW007 BKN009 M05/M06 Q0988=
201212041520 METAR ESMX 041520Z 01012KT 3500 -SN FEW007 SCT009 M05/M06 Q0988=
201212041450 METAR ESMX 041450Z 01011KT 3600 -SN FEW006 SCT009 M05/M05 Q0988=
201212041420 METAR ESMX 041420Z 01012KT 3200 -SN BKN008 M04/M05 Q0989=
201212041350 METAR ESMX 041350Z 01011KT 5000 -SN BKN009 M04/M05 Q0989=
201212041320 METAR ESMX 041320Z 03011KT 4300 -SN BKN007 M04/M05 Q0989=
201212041250 METAR ESMX 041250Z 01010KT 2800 -SN FEW006 BKN009 M03/M04 Q0989=
201212041220 METAR ESMX 041220Z 03011KT 3400 -SN SCT005 BKN008 M03/M04 Q0989=
201212041150 METAR ESMX 041150Z 03010KT 3300 -SN BKN007 M03/M04 Q0990=
201212041120 METAR ESMX 041120Z 03009KT 5000 -SN SCT005 BKN017 M03/M03 Q0990=
201212041050 METAR ESMX 041050Z 03009KT 5000 -SN SCT006 OVC012 M03/M04 Q0991=
201212041020 METAR ESMX 041020Z 03008KT 6000 -SN FEW007 OVC010 M03/M04 Q0991=
201212040950 METAR ESMX 040950Z 04008KT 3000 -SN FEW006 BKN011 M03/M04 Q0991=
201212040920 METAR ESMX 040920Z 04008KT 4300 -SN OVC006 M03/M04 Q0992=
201212040850 METAR ESMX 040850Z 04008KT 3400 -SN FEW006 OVC010 M03/M04 Q0992=
201212040820 METAR ESMX 040820Z 05007KT 1500 SN FEW004 OVC009 M03/M04 Q0992=
201212040750 METAR ESMX 040750Z 05006KT 0800 R01/P2000D R19/P2000N SN FEW005 OVC008 M04/M04 Q0992=
201212040720 METAR ESMX 040720Z 05006KT 3500 -SN OVC007 M04/M04 Q0993=
201212040650 METAR ESMX 040650Z 05004KT 7000 -SN OVC006 M04/M05 Q0993=
201212040620 METAR ESMX 040620Z 06006KT 9000 -SN OVC006 M04/M05 Q0993=
201212040550 METAR ESMX 040550Z 04005KT 9999 -SN BKN006 OVC009 M04/M05 Q0994=
201212040520 METAR ESMX 040520Z 06004KT 020V100 3900 -SN SCT004 BKN006 OVC008 M04/M05 Q0994=
201212040450 METAR ESMX 040450Z 05004KT 020V090 5000 -SN OVC003 M04/M05 Q0994=
201212040420 METAR ESMX 040420Z AUTO 04005KT 9999NDV OVC004/// M04/M05 Q0995=
201212040350 METAR ESMX 040350Z AUTO 02004KT 9999NDV SG OVC004/// M04/M05 Q0995=
201212040320 METAR ESMX 040320Z AUTO 03003KT 350V070 9999NDV -SN OVC004/// M04/M05 Q0996=
201212040250 METAR ESMX 040250Z AUTO 05004KT 9999NDV -SN OVC003/// M05/M05 Q0996=
201212040220 METAR ESMX 040220Z AUTO 05003KT 010V100 9999NDV SG OVC003/// M05/M06 Q0996=
201212040150 METAR ESMX 040150Z AUTO 02004KT 350V060 9999NDV OVC004/// M05/M06 Q0997=
201212040120 METAR ESMX 040120Z 03003KT 9999 SG OVC005 M05/M06 Q0997=
201212040050 METAR ESMX 040050Z 05003KT 010V090 4300 -SN OVC006 M05/M06 Q0998=
201212040020 METAR ESMX 040020Z 07004KT 040V100 4300 -SN BKN007 OVC009 M05/M06 Q0998=
201212032350 METAR ESMX 032350Z 06003KT 360V110 0800 R01/P2000D R19/P2000N SN VV003 M05/M06 Q0999=
201212032320 METAR ESMX 032320Z 08003KT 030V150 2800 -SN FEW004 SCT006 BKN012 M05/M06 Q0999=
201212032250 METAR ESMX 032250Z 08004KT 040V120 1200 R01/P2000N R19/P2000N SN FEW002 SCT006 BKN013 M06/M06 Q1000=
201212032220 METAR ESMX 032220Z 08004KT 030V110 0800 R01/P2000N R19/P2000N SN BKN005 M06/M07 Q1000=
201212032150 METAR ESMX 032150Z 10004KT 070V150 1400 R01/P2000N R19/P2000N SN FEW002 BKN005 BKN007 M06/M07 Q1000=
201212032120 METAR ESMX 032120Z 09004KT 050V130 0600 R01/P2000N R19/P2000 SN BKN005 OVC014 M06/M07 Q1001=
201212032050 METAR ESMX 032050Z 10004KT 050V170 1700 SN OVC014 M07/M08 Q1001=
201212032020 METAR ESMX 032020Z 09005KT 050V130 2600 SN OVC013 M07/M08 Q1002=
201212031950 METAR ESMX 031950Z 09005KT 030V120 2300 -SN FEW010 OVC012 M07/M08 Q1002=
201212031920 METAR ESMX 031920Z 09005KT 050V120 6000 -SN FEW008 OVC012 M07/M08 Q1002=
201212031850 METAR ESMX 031850Z 09006KT 060V130 1000 R01/P2000N R19/P2000N -SN FEW003 SCT007 OVC015 M07/M09 Q1003=
201212031820 METAR ESMX 031820Z 08006KT 030V110 1800 -SN FEW005 SCT006 BKN015 M07/M09 Q1003=
201212031750 METAR ESMX 031750Z 09006KT 060V140 3800 -SN SCT006 BKN016 M07/M08 Q1004=
201212031720 METAR ESMX 031720Z 09006KT 050V110 2000 -SN FEW001 SCT004 BKN006 M07/M08 Q1004 RESN=
201212031650 METAR ESMX 031650Z 07005KT 030V100 1500 SN SCT003 BKN033 M07/M08 Q1005=
201212031620 METAR ESMX 031620Z 09004KT 050V120 2500 -SN SCT006 M07/M09 Q1005=
201212031550 METAR ESMX 031550Z 08005KT 050V120 3100 -SN SCT007 M08/M09 Q1006 RESN=
201212031520 METAR ESMX 031520Z 09004KT 060V130 2200 SN FEW004 BKN006 M08/M09 Q1006=
201212031420 METAR ESMX 031420Z 09004KT 020V140 1700 -SN FEW004 BKN008 M08/M09 Q1007=
201212031350 METAR ESMX 031350Z 11003KT 070V160 2000 SN FEW002 BKN009 M07/M09 Q1008=
201212031320 METAR ESMX 031320Z 13003KT 080V170 2500 SN FEW005 BKN008 M08/M09 Q1008=
201212031250 METAR ESMX 031250Z 13003KT 080V170 2500 SN FEW005 SCT027 M08/M09 Q1008=
201212031220 METAR ESMX 031220Z 12003KT 080V170 3100 -SN FEW017 SCT022 M08/M09 Q1009=
201212031150 METAR ESMX 031150Z 12003KT 080V160 3500 -SN FEW014 SCT027 M08/M10 Q1009=
201212031120 METAR ESMX 031120Z 12004KT 100V160 4000 -SN FEW008 SCT035 M08/M10 Q1009=
201212031050 METAR ESMX 031050Z 10003KT 070V130 2700 -SN FEW009 SCT018 M08/M10 Q1010=
201212031020 METAR ESMX 031020Z 11003KT 070V140 6000 -SN FEW010 SCT026 BKN040 M08/M10 Q1010=
201212030950 METAR ESMX 030950Z 04003KT 6000 -SN FEW011 SCT020 M08/M10 Q1010=
201212030920 METAR ESMX 030920Z VRB02KT 9999 -SN FEW019 SCT023 M08/M10 Q1011=
201212030850 METAR ESMX 030850Z VRB02KT 9999 FEW036 M08/M10 Q1011=
201212030820 METAR ESMX 030820Z VRB02KT 9999 SCT032 M09/M10 Q1011=
201212030750 METAR ESMX 030750Z 03003KT 9999 SCT034 M09/M11 Q1011=
201212030720 METAR ESMX 030720Z 02003KT 9999 SCT036 M10/M11 Q1011=
201212030650 METAR ESMX 030650Z 35005KT 9999 FEW005 M10/M11 Q1011=
201212030620 METAR ESMX 030620Z 31002KT 9999 FEW005 M12/M13 Q1011=
201212030550 METAR ESMX 030550Z 00000KT 9999 FEW005 M13/M14 Q1011=
201212030520 METAR ESMX 030520Z 31003KT 9999 FEW005 M13/M14 Q1011=
201212030450 METAR ESMX 030450Z 02004KT 9999 FEW005 M10/M12 Q1011=
201212030420 METAR ESMX 030420Z AUTO 01006KT 9999NDV NCD M11/M12 Q1011=
201212030350 METAR ESMX 030350Z AUTO 03005KT 9999NDV FEW005/// M10/M12 Q1011=
201212030320 METAR ESMX 030320Z AUTO 02006KT 9999NDV NCD M10/M11 Q1011=
201212030250 METAR ESMX 030250Z AUTO 02005KT 9999NDV FEW006/// M10/M11 Q1011=
201212030220 METAR ESMX 030220Z AUTO 01006KT 9999NDV FEW005/// M10/M11 Q1011=
201212030150 METAR ESMX 030150Z AUTO 01007KT 9999NDV FEW005/// M10/M11 Q1011=
201212030120 METAR ESMX 030120Z AUTO 35007KT 9999NDV FEW005/// M10/M11 Q1011=
201212030050 METAR ESMX 030050Z AUTO 36007KT 9999NDV FEW023/// M10/M11 Q1011=
201212030020 METAR ESMX 030020Z 36008KT 9999 FEW023 BKN030 M09/M10 Q1011=
201212022350 METAR ESMX 022350Z 35008KT 9999 FEW010 BKN025 M08/M10 Q1011=
201212022320 METAR ESMX 022320Z 01007KT 9999 FEW008 BKN030 M08/M10 Q1011=
201212022250 METAR ESMX 022250Z 01006KT 9999 FEW015 BKN030 M09/M10 Q1011=
201212022220 METAR ESMX 022220Z 01007KT 9999 FEW023 SCT028 BKN034 M08/M10 Q1011 RESG=
201212022150 METAR ESMX 022150Z 01008KT 9999 IC FEW015 BKN034 M08/M10 Q1011 RESG=
201212022120 METAR ESMX 022120Z 02007KT 9999 -SN OVC016 M08/M10 Q1011=
201212022050 METAR ESMX 022050Z 02007KT 9999 -SN OVC016 M08/M10 Q1011 RESG=
201212022020 METAR ESMX 022020Z 01007KT 9999 -SN FEW015 SCT022 BKN029 M08/M10 Q1011=
201212021950 METAR ESMX 021950Z 01008KT 9999 -SN FEW015 SCT028 BKN038 M07/M09 Q1011=
201212021920 METAR ESMX 021920Z 02008KT 9999 -SN FEW016 BKN021 M07/M09 Q1011=
201212021850 METAR ESMX 021850Z 01008KT 9999 -SN FEW018 SCT028 BKN034 M07/M09 Q1011=
201212021820 METAR ESMX 021820Z 02009KT 9999 -SN FEW009 BKN028 M07/M09 Q1011=
201212021750 METAR ESMX 021750Z 02010KT 9999 FEW010 BKN026 M07/M09 Q1011=
201212021720 METAR ESMX 021720Z 02010KT 9999 FEW009 BKN025 M07/M09 Q1010=
201212021650 METAR ESMX 021650Z 01008KT 9999 FEW009 BKN026 M07/M09 Q1010=
201212021620 METAR ESMX 021620Z 36009KT 9999 FEW009 BKN024 M07/M08 Q1010=
201212021550 METAR ESMX 021550Z 35010KT 9999 FEW009 BKN010 M07/M09 Q1010=
201212021520 METAR ESMX 021520Z AUTO 36010KT 9999NDV OVC009/// M07/M09 Q1010=
201212021450 METAR ESMX 021450Z AUTO 02009KT 9999NDV BKN008/// M07/M09 Q1010=
201212021420 METAR ESMX 021420Z 02008KT 9999 -SN BKN008 M06/M08 Q1010=
201212021350 METAR ESMX 021350Z 36009KT 9999 -SN BKN009 M06/M08 Q1010=
201212021320 METAR ESMX 021320Z 02010KT 9999 -SN FEW009 SCT011 BKN044 M06/M08 Q1010=
201212021250 METAR ESMX 021250Z 36009KT 9999 -SN FEW009 SCT011 BKN037 M06/M08 Q1010=
201212021220 METAR ESMX 021220Z 36009KT 6000 -SN BKN009 M06/M08 Q1010=
201212021150 METAR ESMX 021150Z 01009KT 9000 -SN FEW009 SCT011 BKN063 M06/M08 Q1010=
201212021120 METAR ESMX 021120Z 02008KT 8000 -SN SCT010 M06/M08 Q1010=
201212021050 METAR ESMX 021050Z 01008KT 9999 -SN FEW010 SCT013 M06/M07 Q1010=
201212021020 METAR ESMX 021020Z 01008KT 6000 -SN FEW008 SCT010 M06/M07 Q1010=
201212020950 METAR ESMX 020950Z 03007KT 3800 -SN FEW005 SCT013 M06/M07 Q1010=
201212020920 METAR ESMX 020920Z AUTO 03007KT 3100NDV -SN FEW006/// SCT014/// M06/M07 Q1010=
201212020850 METAR ESMX 020850Z AUTO 04006KT 2300NDV -SN FEW005/// SCT009/// M06/M08 Q1010=
201212020820 METAR ESMX 020820Z AUTO 07006KT 030V100 3800NDV -SN FEW013/// M06/M08 Q1009=
201212020750 METAR ESMX 020750Z AUTO 06006KT 020V100 9000NDV -SN FEW022/// SCT046/// M06/M08 Q1010=
201212020720 METAR ESMX 020720Z AUTO 05008KT 9999NDV -SN OVC044/// M06/M08 Q1009=
201212020650 METAR ESMX 020650Z AUTO 04006KT 010V070 7000NDV -SN FEW013/// BKN045/// M06/M08 Q1009=
201212020620 METAR ESMX 020620Z AUTO 07007KT 040V100 6000NDV -SN FEW008/// M06/M08 Q1009 RESG=
201212020550 METAR ESMX 020550Z AUTO 07005KT 030V120 9999NDV IC FEW011/// BKN044/// M06/M08 Q1009=
201212020520 METAR ESMX 020520Z AUTO 06006KT 030V110 9999NDV IC OVC043/// M06/M09 Q1009=
201212020450 METAR ESMX 020450Z AUTO 04006KT 010V070 9999NDV OVC044/// M06/M08 Q1009=
201212020420 METAR ESMX 020420Z AUTO 06006KT 020V120 9999NDV IC FEW025/// OVC045/// M06/M08 Q1009=
201212020350 METAR ESMX 020350Z AUTO 09004KT 040V130 9999NDV -SN FEW009/// BKN011/// OVC046/// M05/M07 Q1009=
201212020320 METAR ESMX 020320Z AUTO 08004KT 9999NDV -SN FEW012/// BKN047/// M06/M07 Q1009=
201212020250 METAR ESMX 020250Z AUTO 04004KT 010V070 2200NDV -SN FEW005/// SCT008/// BKN020/// M06/M07 Q1009=
201212020220 METAR ESMX 020220Z AUTO 07005KT 030V110 9999NDV -SN FEW011/// SCT023/// BKN036/// M06/M08 Q1009=
201212020150 METAR ESMX 020150Z AUTO 05004KT 010V100 9999NDV FEW058/// SCT069/// M06/M08 Q1009=
201212020120 METAR ESMX 020120Z AUTO 04004KT 9999NDV FEW041/// BKN057/// M06/M08 Q1009=
201212020050 METAR ESMX 020050Z AUTO 03004KT 360V070 9999NDV FEW009/// BKN059/// M06/M08 Q1009=
201212020020 METAR ESMX 020020Z AUTO 04005KT 9999NDV IC SCT065/// M06/M08 Q1009=
201212012350 METAR ESMX 012350Z AUTO 04003KT 010V070 9999NDV -SN FEW007/// SCT023/// BKN076/// M06/M08 Q1009=
201212012320 METAR ESMX 012320Z AUTO 03005KT 9999NDV SCT006/// BKN068/// M06/M08 Q1009=
201212012250 METAR ESMX 012250Z AUTO 02003KT 7000NDV -SN FEW008/// SCT025/// M06/M07 Q1009=
201212012220 METAR ESMX 012220Z AUTO 35002KT 9999NDV IC BKN010/// M06/M07 Q1009=
201212012150 METAR ESMX 012150Z AUTO 00000KT 9999NDV SCT100/// M06/M07 Q1009=
201212012120 METAR ESMX 012120Z AUTO 00000KT 9999NDV FEW070/// SCT090/// BKN100/// M06/M08 Q1009=
201212012050 METAR ESMX 012050Z AUTO 00000KT 9999NDV FEW069/// M06/M08 Q1009=
201212012020 METAR ESMX 012020Z AUTO 19001KT 9999NDV SCT012/// BKN088/// M07/M08 Q1009=
201212011950 METAR ESMX 011950Z AUTO 00000KT 9999NDV BKN011/// M07/M08 Q1009=
201212011920 METAR ESMX 011920Z AUTO VRB02KT 9999NDV BKN012/// M07/M08 Q1009=
201212011850 METAR ESMX 011850Z AUTO 00000KT 9999NDV FEW014/// SCT110/// M07/M08 Q1008=
201212011820 METAR ESMX 011820Z AUTO VRB01KT 9999NDV FEW099/// M08/M09 Q1008=
201212011750 METAR ESMX 011750Z AUTO VRB02KT 9999NDV FEW110/// M07/M09 Q1008=
201212011720 METAR ESMX 011720Z AUTO 32004KT 9999NDV SCT018/// M07/M08 Q1008=
201212011650 METAR ESMX 011650Z AUTO 32003KT 9999NDV BKN017/// BKN027/// M05/M07 Q1008=
201212011620 METAR ESMX 011620Z AUTO 28003KT 9999NDV OVC018/// M05/M07 Q1008=
201212011550 METAR ESMX 011550Z AUTO 28002KT 9999NDV FEW021/// BKN028/// M05/M07 Q1008=
201212011520 METAR ESMX 011520Z AUTO 30004KT 8000NDV -SN OVC021/// M05/M07 Q1008=
201212011450 METAR ESMX 011450Z AUTO 29003KT 9999NDV -SN FEW015/// BKN020/// BKN025/// M05/M07 Q1008=
201212011420 METAR ESMX 011420Z AUTO 31004KT 9999NDV -SN FEW015/// BKN022/// M04/M07 Q1008=
201212011350 METAR ESMX 011350Z AUTO 29004KT 260V330 9999NDV -SN FEW014/// BKN024/// BKN030/// M04/M07 Q1008=
201212011320 METAR ESMX 011320Z AUTO 30005KT 5000NDV -SN FEW010/// SCT021/// BKN026/// M04/M06 Q1007=
201212011250 METAR ESMX 011250Z AUTO 31007KT 4100NDV -SN FEW006/// SCT027/// M04/M06 Q1007=
201212011220 METAR ESMX 011220Z AUTO 29006KT 8000NDV -SN FEW016/// SCT034/// M03/M06 Q1007=
