##########################################################
# Query made at 04/19/2024 21:28:22 UTC
# Time interval: from 06/01/2012 12:00  to 06/30/2012 12:59  UTC
##########################################################

##########################################################
# ESMX, Vaxjo (Sweden)
# WMO index: 02641. WIGOS ID: 0-20000-0-02648
# Latitude 56-51N. Longitude 014-50E. Altitude 199 m.
##########################################################

201206301250 METAR ESMX 301250Z AUTO 24011KT 200V270 9999NDV FEW039/// SCT068/// 22/12 Q1011=
201206301220 METAR ESMX 301220Z AUTO 24010KT 210V270 9999NDV FEW038/// SCT049/// BKN059/// 22/12 Q1012=
201206301150 METAR ESMX 301150Z AUTO 22012KT 190V250 9999NDV SCT037/// 22/13 Q1011=
201206301120 METAR ESMX 301120Z AUTO 22011KT 170V250 9999NDV FEW038/// 20/11 Q1011=
201206301050 METAR ESMX 301050Z AUTO /////KT 9999NDV FEW035/// 21/12 Q1011=
201206301020 METAR ESMX 301020Z AUTO /////KT 9999NDV ////// 19/12 Q1011=
201206300950 METAR ESMX 300950Z AUTO /////KT 9999NDV ////// 19/13 Q1011=
201206300920 METAR ESMX 300920Z AUTO /////KT 9999NDV ////// 20/13 Q1011=
201206300850 METAR ESMX 300850Z AUTO /////KT 9999NDV ////// 19/13 Q1011=
201206300820 METAR ESMX 300820Z AUTO /////KT 9999NDV ////// 19/12 Q1011=
201206300750 METAR ESMX 300750Z 21007KT 9999 FEW005 18/13 Q1010=
201206300720 METAR ESMX 300720Z 22006KT 9999 SCT004 17/14 Q1010=
201206300650 METAR ESMX 300650Z 23005KT 9999 SCT004 16/14 Q1010=
201206300620 METAR ESMX 300620Z 23004KT 9999 SCT003 16/14 Q1009=
201206300550 METAR ESMX 300550Z 23006KT 6000 BR SCT003 BKN004 15/15 Q1009=
201206300520 METAR ESMX 300520Z 21004KT 4000 BR SCT002 BKN003 15/14 Q1009=
201206300450 METAR ESMX 300450Z 19005KT 3000 BR SCT002 BKN003 15/14 Q1009=
201206300420 METAR ESMX 300420Z AUTO /////KT 4100NDV BR ////// 14/14 Q1009=
201206300350 METAR ESMX 300350Z AUTO /////KT 4100NDV BR ////// 14/14 Q1009=
201206300320 METAR ESMX 300320Z AUTO /////KT 3500NDV BR ////// 14/13 Q1008=
201206300250 METAR ESMX 300250Z AUTO /////KT 2200NDV BR ////// 14/13 Q1008=
201206300220 METAR ESMX 300220Z AUTO /////KT 5000NDV BR ////// 13/13 Q1008=
201206300150 METAR ESMX 300150Z AUTO /////KT 1700NDV BR ////// 13/13 Q1008=
201206300120 METAR ESMX 300120Z AUTO /////KT 2600NDV BR ////// 13/12 Q1008=
201206300050 METAR ESMX 300050Z AUTO /////KT 6000NDV BR ////// 14/13 Q1007=
201206300020 METAR ESMX 300020Z AUTO /////KT 6000NDV BR ////// 14/13 Q1008=
201206292350 METAR ESMX 292350Z AUTO /////KT 1400NDV R01/P2000N R19/P2000N +RA ////// 14/13 Q1008=
201206292320 METAR ESMX 292320Z AUTO /////KT 8000NDV BR ////// 14/13 Q1009 RERA=
201206292250 METAR ESMX 292250Z AUTO VRB02KT 9999NDV +RA FEW040/// BKN079/// 15/12 Q1009=
201206292220 METAR ESMX 292220Z AUTO 07003KT 9999NDV SCT039/// BKN063/// BKN079/// 15/12 Q1009=
201206292150 METAR ESMX 292150Z AUTO 08003KT 040V120 9999NDV FEW058/// BKN086/// 15/12 Q1009=
201206292120 METAR ESMX 292120Z AUTO 10003KT 060V180 9999NDV SCT087/// 15/12 Q1009=
201206292050 METAR ESMX 292050Z AUTO 12004KT 070V160 9999NDV FEW089/// 15/12 Q1010=
201206292020 METAR ESMX 292020Z AUTO 11005KT 070V150 9999NDV SCT091/// 15/12 Q1010=
201206291950 METAR ESMX 291950Z AUTO 11003KT 070V150 9999NDV NCD 15/12 Q1010=
201206291920 METAR ESMX 291920Z 11005KT 060V160 CAVOK 15/12 Q1010=
201206291850 METAR ESMX 291850Z 13005KT 080V160 9999 SCT029 16/12 Q1011=
201206291820 METAR ESMX 291820Z 14004KT 040V190 9999 BKN030 16/13 Q1011=
201206291750 METAR ESMX 291750Z 14006KT 090V210 9999 FEW020 17/12 Q1011=
201206291720 METAR ESMX 291720Z 16006KT 120V200 CAVOK 18/13 Q1011=
201206291650 METAR ESMX 291650Z 12008KT 080V170 9999 FEW027 17/12 Q1011=
201206291620 METAR ESMX 291620Z 16007KT 120V190 CAVOK 17/12 Q1011=
201206291550 METAR ESMX 291550Z 15007KT 080V210 9999 SCT022 BKN037 17/12 Q1011=
201206291520 METAR ESMX 291520Z 16008KT 130V200 9999 SCT022 BKN130 17/12 Q1012=
201206291450 METAR ESMX 291450Z 15012KT 9999 -RA FEW027 BKN150 17/12 Q1011=
201206291420 METAR ESMX 291420Z 14009G19KT 090V210 9999 FEW025 17/13 Q1011=
201206291350 METAR ESMX 291350Z 15008KT 120V190 9999 FEW030 BKN150 17/13 Q1012=
201206291320 METAR ESMX 291320Z 16008KT 110V190 9000 -RA FEW032 SCT072 BKN150 17/13 Q1013=
201206291250 METAR ESMX 291250Z 16012KT 130V200 9999 SCT031 BKN037 19/11 Q1013=
201206291220 METAR ESMX 291220Z 15009KT 120V200 9999 SCT031 OVC150 19/12 Q1013=
201206291150 METAR ESMX 291150Z 17010KT 120V200 9999 -RA SCT032 19/12 Q1012=
201206291120 METAR ESMX 291120Z 17010KT 140V220 9999 SCT033 20/11 Q1012=
201206291050 METAR ESMX 291050Z 17012KT 140V200 9999 SCT033 20/11 Q1012=
201206291020 METAR ESMX 291020Z 18011KT 140V230 9999 FEW033 20/11 Q1012=
201206290950 METAR ESMX 290950Z 17010KT 130V210 CAVOK 20/11 Q1012=
201206290920 METAR ESMX 290920Z 14009KT 070V170 CAVOK 19/10 Q1013=
201206290850 METAR ESMX 290850Z 16010KT 120V200 CAVOK 19/09 Q1013=
201206290820 METAR ESMX 290820Z 16010KT 120V200 CAVOK 18/08 Q1013=
201206290750 METAR ESMX 290750Z 15008KT 100V190 CAVOK 18/08 Q1013=
201206290720 METAR ESMX 290720Z 16009KT 110V200 CAVOK 17/08 Q1013=
201206290650 METAR ESMX 290650Z 15008KT 090V180 CAVOK 16/08 Q1013=
201206290620 METAR ESMX 290620Z 16008KT 110V200 CAVOK 15/07 Q1013=
201206290550 METAR ESMX 290550Z 14007KT 100V200 CAVOK 14/07 Q1013=
201206290520 METAR ESMX 290520Z 15006KT 100V190 CAVOK 13/08 Q1013=
201206290450 METAR ESMX 290450Z 15006KT 110V190 CAVOK 13/08 Q1013=
201206290420 METAR COR ESMX 290420Z 15005KT 100V190 CAVOK 12/09 Q1013=
201206290350 METAR ESMX 290350Z 14004KT 110V170 CAVOK 11/09 Q1013=
201206290320 METAR ESMX 290320Z AUTO 14004KT 100V170 9999NDV NCD 11/09 Q1014=
201206290250 METAR ESMX 290250Z AUTO 14004KT 100V160 9999NDV NCD 10/08 Q1014=
201206290220 METAR ESMX 290220Z AUTO 15004KT 9999NDV NCD 11/09 Q1013=
201206290150 METAR ESMX 290150Z AUTO 15005KT 9999NDV NCD 11/09 Q1013=
201206290120 METAR ESMX 290120Z AUTO 16006KT 9999NDV NCD 12/09 Q1013=
201206290050 METAR ESMX 290050Z AUTO 15005KT 9999NDV NCD 12/09 Q1013=
201206290020 METAR ESMX 290020Z AUTO 15005KT 9999NDV NCD 12/10 Q1013=
201206282350 METAR ESMX 282350Z 15004KT CAVOK 11/09 Q1013=
201206282320 METAR COR ESMX 282320Z 14003KT CAVOK 10/08 Q1013=
201206282250 METAR ESMX 282250Z 14003KT CAVOK 11/09 Q1013=
201206282220 METAR ESMX 282220Z 14003KT CAVOK 12/10 Q1013=
201206282150 METAR ESMX 282150Z 16004KT CAVOK 14/10 Q1013=
201206282120 METAR ESMX 282120Z 15005KT 110V170 CAVOK 14/10 Q1013=
201206282050 METAR ESMX 282050Z 16005KT CAVOK 15/09 Q1013=
201206282020 METAR ESMX 282020Z 15006KT 120V200 CAVOK 16/09 Q1013=
201206281950 METAR ESMX 281950Z 16006KT 9999 NSC 16/09 Q1013=
201206281920 METAR ESMX 281920Z 16006KT 120V180 CAVOK 17/10 Q1012=
201206281850 METAR ESMX 281850Z 18008KT CAVOK 18/10 Q1012=
201206281820 METAR ESMX 281820Z 18004KT 140V210 CAVOK 20/06 Q1012=
201206281750 METAR ESMX 281750Z VRB01KT CAVOK 21/05 Q1012=
201206281720 METAR ESMX 281720Z 35002KT 9999 FEW040 SCT080 19/09 Q1012=
201206281650 METAR ESMX 281650Z 30005KT 9999 FEW040 20/06 Q1012=
201206281620 METAR ESMX 281620Z 22002KT 9999 SCT040 21/05 Q1012=
201206281550 METAR ESMX 281550Z 21002KT 9999 FEW040 20/05 Q1012=
201206281520 METAR ESMX 281520Z VRB02KT 9999 SCT040 21/04 Q1012=
201206281450 METAR ESMX 281450Z 06002KT 9999 SCT040 21/05 Q1012=
201206281420 METAR ESMX 281420Z 07002KT 9999 FEW040 SCT080 20/04 Q1012=
201206281350 METAR ESMX 281350Z 01005KT 9999 FEW040 SCT077 19/07 Q1012=
201206281320 METAR ESMX 281320Z 34004KT 290V020 9999 FEW040 SCT075 21/04 Q1012=
201206281250 METAR ESMX 281250Z 27003KT 230V320 9999 FEW040 SCT080 20/05 Q1012=
201206281220 METAR ESMX 281220Z 29004KT 9999 SCT040 19/06 Q1012=
201206281150 METAR ESMX 281150Z VRB02KT 9999 SCT040 19/05 Q1012=
201206281120 METAR ESMX 281120Z 19003KT 080V240 9999 SCT040 18/07 Q1012=
201206281050 METAR ESMX 281050Z VRB02KT 9999 FEW045 18/06 Q1012=
201206281020 METAR ESMX 281020Z 36004KT 9999 SCT040 BKN075 18/07 Q1012=
201206280950 METAR ESMX 280950Z 21003KT 170V240 9999 SCT040 18/08 Q1012=
201206280920 METAR ESMX 280920Z VRB02KT 9999 FEW030 18/08 Q1012=
201206280850 METAR ESMX 280850Z VRB02KT 9999 FEW036 17/08 Q1012=
201206280820 METAR ESMX 280820Z 28003KT 9999 FEW030 17/09 Q1012=
201206280750 METAR ESMX 280750Z 06001KT 9999 FEW025 17/11 Q1011=
201206280720 METAR ESMX 280720Z 00000KT 9999 FEW020 16/12 Q1011=
201206280650 METAR ESMX 280650Z VRB01KT 9999 FEW020 16/12 Q1011=
201206280620 METAR ESMX 280620Z VRB02KT 9999 FEW010 14/12 Q1011=
201206280550 METAR ESMX 280550Z VRB01KT 9999 FEW008 13/11 Q1011=
201206280520 METAR ESMX 280520Z VRB02KT 9999 FEW006 12/11 Q1011=
201206280450 METAR ESMX 280450Z VRB01KT 9999 FEW010 12/11 Q1011=
201206280420 METAR ESMX 280420Z 25001KT 9999 FEW010 11/10 Q1010=
201206280350 METAR ESMX 280350Z 24003KT 9999 FEW005 09/09 Q1010=
201206280320 METAR ESMX 280320Z AUTO 26001KT 0350NDV R01/P2000 R19/0800 FG NCD 07/06 Q1010=
201206280250 METAR ESMX 280250Z AUTO 25001KT 0450NDV R01/0700V1000N R19/0600V1000 FG NCD 09/08 Q1010=
201206280220 METAR ESMX 280220Z AUTO VRB01KT 1400NDV R01/P2000N R19/P2000N BR FEW058/// 09/09 Q1010=
201206280150 METAR ESMX 280150Z AUTO 29003KT 9999NDV OVC057/// 10/09 Q1010=
201206280120 METAR ESMX 280120Z AUTO 26003KT 190V310 9999NDV SCT058/// 10/09 Q1010=
201206280050 METAR ESMX 280050Z AUTO 27004KT 9999NDV BKN062/// 11/10 Q1010=
201206280020 METAR ESMX 280020Z AUTO 26005KT 9999NDV BKN062/// 12/10 Q1010=
201206272350 METAR ESMX 272350Z 26006KT 9999 FEW015CB BKN065 12/10 Q1010=
201206272320 METAR ESMX 272320Z 27005KT 9999 FEW015CB BKN060 12/10 Q1010=
201206272250 METAR ESMX 272250Z 27005KT 9999 -SHRA FEW015CB SCT062 11/10 Q1010=
201206272220 METAR ESMX 272220Z 26006KT 9999 FEW020 SCT050 11/10 Q1010 REDZ=
201206272150 METAR ESMX 272150Z 27004KT 250V320 9999 FEW013 SCT068 10/09 Q1010=
201206272120 METAR ESMX 272120Z 22003KT CAVOK 10/09 Q1010=
201206272050 METAR ESMX 272050Z 20002KT 9999 FEW020 SCT090 11/10 Q1010=
201206272020 METAR ESMX 272020Z 23003KT 9999 FEW030CB BKN089 11/10 Q1010=
201206271950 METAR ESMX 271950Z 23003KT 9999 FEW015 SCT040 12/11 Q1010=
201206271920 METAR ESMX 271920Z 24003KT 9999 FEW030CB BKN082 13/11 Q1010=
201206271850 METAR ESMX 271850Z 35003KT 300V030 9999 FEW015CB SCT040 BKN070 13/11 Q1010 REDZ=
201206271820 METAR ESMX 271820Z 35007KT 330V030 9999 FEW030CB BKN050 13/11 Q1010=
201206271750 METAR ESMX 271750Z 27006KT 9999 FEW030CB BKN060 14/11 Q1010=
201206271720 METAR ESMX 271720Z 26008KT 9999 -SHRA FEW025CB BKN080 14/11 Q1010=
201206271650 METAR ESMX 271650Z 27008KT 9999 FEW025CB 15/11 Q1010=
201206271620 METAR ESMX 271620Z 28005KT 230V330 9999 FEW025CB 15/12 Q1010=
201206271550 METAR ESMX 271550Z 26006KT 230V300 9999 -SHRA FEW025CB 15/12 Q1010=
201206271520 METAR ESMX 271520Z 28007KT 250V320 9999 FEW020 FEW027CB 16/12 Q1010=
201206271450 METAR ESMX 271450Z 25004KT 210V280 9999 FEW027 16/13 Q1010=
201206271420 METAR ESMX 271420Z 28004KT 230V310 9999 -SHRA FEW026CB SCT045 13/11 Q1010=
201206271320 METAR ESMX 271320Z 27009KT 230V310 9999 FEW022 SCT037 16/11 Q1010=
201206271250 METAR ESMX 271250Z 24010KT 210V270 9999 BKN022 16/11 Q1010=
201206271220 METAR ESMX 271220Z 24008KT 200V280 9999 SCT020 BKN029 BKN034 16/11 Q1010=
201206271150 METAR ESMX 271150Z 25007KT 200V290 9999 FEW020 SCT028 BKN035 16/11 Q1010=
201206271120 METAR ESMX 271120Z 24008KT 190V320 9999 FEW016 SCT018 BKN022 16/11 Q1010=
201206271050 METAR ESMX 271050Z 26006KT 230V300 9999 SCT015 BKN019 OVC024 14/10 Q1010=
201206271020 METAR ESMX 271020Z 27007KT 230V300 9999 FEW016 SCT018 OVC022 14/10 Q1010=
201206270950 METAR ESMX 270950Z 27006KT 240V310 9999 FEW014 OVC020 14/10 Q1010=
201206270920 METAR ESMX 270920Z 27007KT 9999 FEW014 SCT017 OVC021 14/10 Q1010=
201206270850 METAR ESMX 270850Z 27006KT 240V300 9999 SCT014 OVC020 14/10 Q1010=
201206270820 METAR ESMX 270820Z 26006KT 230V300 9999 FEW012 OVC015 14/10 Q1010=
201206270750 METAR ESMX 270750Z 26007KT 230V290 9999 SCT013 BKN015 OVC019 13/10 Q1010=
201206270720 METAR ESMX 270720Z 27008KT 240V300 9999 SCT011 OVC016 13/10 Q1010=
201206270650 METAR ESMX 270650Z 26006KT 220V290 9999 FEW009 OVC014 12/10 Q1010=
201206270620 METAR ESMX 270620Z 25006KT 210V290 9999 FEW009 OVC010 12/10 Q1010=
201206270550 METAR ESMX 270550Z 27005KT 9999 FEW009 BKN010 OVC015 12/10 Q1010=
201206270520 METAR ESMX 270520Z 26004KT 9999 OVC010 11/09 Q1010=
201206270450 METAR ESMX 270450Z 27004KT 9999 OVC010 11/09 Q1010=
201206270420 METAR ESMX 270420Z 27005KT 240V300 9999 OVC010 11/09 Q1010=
201206270350 METAR ESMX 270350Z 26006KT 220V300 9999 OVC010 11/09 Q1010=
201206270320 METAR ESMX 270320Z AUTO 28004KT 9999NDV OVC011/// 11/09 Q1010=
201206270250 METAR ESMX 270250Z AUTO 27003KT 230V300 9999NDV OVC011/// 11/09 Q1010=
201206270220 METAR ESMX 270220Z AUTO 27005KT 240V300 9999NDV OVC008/// 11/09 Q1010=
201206270150 METAR ESMX 270150Z AUTO 27007KT 9999NDV OVC008/// 11/09 Q1010=
201206270120 METAR ESMX 270120Z AUTO 28006KT 250V310 9999NDV FEW006/// OVC010/// 11/09 Q1010=
201206270050 METAR ESMX 270050Z AUTO 27009KT 250V320 9999NDV OVC007/// 11/10 Q1010=
201206270020 METAR ESMX 270020Z AUTO 28007KT 9999NDV OVC007/// 12/10 Q1010=
201206262350 METAR ESMX 262350Z 27009KT 240V300 9999 OVC005 12/11 Q1010=
201206262320 METAR ESMX 262320Z 26008KT 230V290 9000 OVC007 12/11 Q1010=
201206262250 METAR ESMX 262250Z 26007KT 9999 FEW008 12/11 Q1009 RERA=
201206262220 METAR ESMX 262220Z 26007KT 9999 -RA FEW016 12/11 Q1009=
201206262150 METAR ESMX 262150Z 27004KT 9999 FEW035 12/11 Q1009=
201206262120 METAR ESMX 262120Z 24005KT CAVOK 11/10 Q1009=
201206262050 METAR ESMX 262050Z 24005KT 200V260 CAVOK 11/10 Q1009=
201206262020 METAR ESMX 262020Z 26005KT CAVOK 12/10 Q1009=
201206261950 METAR ESMX 261950Z 26004KT CAVOK 13/11 Q1009=
201206261920 METAR ESMX 261920Z VRB02KT CAVOK 14/11 Q1009=
201206261850 METAR ESMX 261850Z VRB02KT CAVOK 14/11 Q1009=
201206261820 METAR ESMX 261820Z 30007KT CAVOK 13/11 Q1009=
201206261750 METAR ESMX 261750Z 27005KT 9999 -DZ FEW043 15/12 Q1009=
201206261720 METAR ESMX 261720Z VRB02KT 9999 FEW046 BKN062 16/13 Q1008=
201206261650 METAR ESMX 261650Z 30005KT 9999 SCT039 BKN057 16/13 Q1008=
201206261620 METAR ESMX 261620Z 30005KT 250V340 9999 FEW045CB SCT051 BKN067 16/13 Q1008=
201206261550 METAR ESMX 261550Z 27005KT 230V300 9999 VCSH FEW048CB BKN069 15/13 Q1008=
201206261520 METAR ESMX 261520Z 27009KT 9999 -RA FEW028 BKN056 14/11 Q1008=
201206261450 METAR ESMX 261450Z 28011KT 250V320 9999 BKN054 BKN077 15/11 Q1007=
201206261420 METAR ESMX 261420Z 24009KT 200V280 9999 FEW035 SCT065 16/11 Q1007=
201206261350 METAR ESMX 261350Z 28008KT 230V320 9999 SCT048CB SCT050 18/11 Q1007=
201206261320 METAR ESMX 261320Z 27011KT 9999 RA TS FEW043CB SCT053 17/11 Q1007=
201206261250 METAR ESMX 261250Z 30010KT 240V340 9999 FEW040CB SCT048 21/09 Q1006=
201206261220 METAR ESMX 261220Z 30010KT 270V330 9999 FEW026 SCT066 20/09 Q1006=
201206261150 METAR ESMX 261150Z 30013KT 260V340 9999 FEW025 SCT045 BKN068 19/09 Q1006=
201206261120 METAR ESMX 261120Z 29010KT 250V330 9999 SCT045 19/09 Q1006=
201206261050 METAR ESMX 261050Z 32013KT 270V340 9999 FEW042 SCT062 19/09 Q1006=
201206261020 METAR ESMX 261020Z 32011KT 280V350 9999 FEW034 BKN058 18/10 Q1005=
201206260950 METAR ESMX 260950Z 31010KT 270V340 9999 FEW037 SCT045 BKN052 16/10 Q1005=
201206260920 METAR ESMX 260920Z 33013KT 290V020 9999 FEW038 SCT085 18/09 Q1005=
201206260850 METAR ESMX 260850Z 31012G23KT 270V350 9999 SCT031 17/10 Q1005=
201206260820 METAR ESMX 260820Z 31013KT 250V340 9999 FEW028 SCT035 16/10 Q1004=
201206260750 METAR ESMX 260750Z 30013KT 260V340 9999 SCT026 16/11 Q1004=
201206260720 METAR ESMX 260720Z 31014G24KT 280V340 9999 FEW019 SCT027 15/11 Q1004=
201206260650 METAR ESMX 260650Z 31012G22KT 270V350 9999 FEW017 SCT020 14/10 Q1004=
201206260620 METAR ESMX 260620Z 31011KT 260V340 9999 FEW016 SCT021 BKN069 13/10 Q1003=
201206260550 METAR ESMX 260550Z 30011KT 260V330 9999 FEW013 BKN053 13/10 Q1003=
201206260520 METAR ESMX 260520Z 31011KT 260V340 9999 FEW014 OVC054 12/10 Q1003=
201206260450 METAR ESMX 260450Z 31013KT 9999 SCT015 BKN050 12/09 Q1002=
201206260420 METAR ESMX 260420Z 31012KT 280V340 9999 BKN030 11/09 Q1002=
201206260350 METAR ESMX 260350Z 31011KT 280V350 9999 FEW014 BKN020 11/09 Q1002=
201206260320 METAR ESMX 260320Z AUTO 31012G22KT 290V350 9999NDV FEW011/// OVC014/// 11/09 Q1001=
201206260250 METAR ESMX 260250Z AUTO 31011KT 280V340 9999NDV OVC010/// 11/09 Q1001=
201206260220 METAR ESMX 260220Z AUTO 31010KT 270V350 9999NDV FEW008/// OVC010/// 11/09 Q1000=
201206260150 METAR ESMX 260150Z AUTO 30012KT 6000NDV BR FEW008/// SCT009/// OVC010/// 11/09 Q1000=
201206260120 METAR ESMX 260120Z AUTO 31011KT 5000NDV DZ OVC008/// 11/09 Q0999=
201206260050 METAR ESMX 260050Z AUTO 31010G21KT 270V340 9999NDV FEW007/// OVC009/// 11/09 Q0999=
201206260020 METAR ESMX 260020Z AUTO 30012KT 7000NDV -DZ FEW008/// BKN010/// OVC013/// 11/09 Q0999=
201206252350 METAR ESMX 252350Z 31012KT 270V350 5000 -DZ FEW007 OVC010 11/10 Q0998=
201206252320 METAR ESMX 252320Z 30011KT 5000 DZ FEW007 SCT010 BKN012 11/10 Q0998=
201206252250 METAR ESMX 252250Z 30011KT 4600 -DZ FEW009 BKN012 11/10 Q0997=
201206252220 METAR ESMX 252220Z 30011KT 5000 BR SCT010 BKN013 11/10 Q0997=
201206252150 METAR ESMX 252150Z 30012KT 270V330 9999 BKN010 OVC015 11/10 Q0997=
201206252120 METAR ESMX 252120Z 30010KT 9999 FEW009 OVC012 11/10 Q0997=
201206252050 METAR ESMX 252050Z 30011KT 9999 FEW008 BKN010 OVC015 11/10 Q0996=
201206252020 METAR ESMX 252020Z 30010KT 9999 FEW008 BKN012 11/10 Q0996=
201206251950 METAR ESMX 251950Z 29010KT 9999 FEW009 BKN012 11/10 Q0996=
201206251920 METAR ESMX 251920Z 30010KT 270V330 9999 FEW009 BKN011 OVC015 11/10 Q0995 REDZ=
201206251850 METAR ESMX 251850Z 29011KT 5000 -DZ FEW008 SCT011 BKN014 11/10 Q0995=
201206251820 METAR ESMX 251820Z 29011KT 9000 -DZ FEW007 SCT011 BKN014 11/10 Q0995=
201206251750 METAR ESMX 251750Z 29010KT 250V320 4600 DZ FEW006 SCT011 BKN014 11/10 Q0995 REDZ=
201206251720 METAR ESMX 251720Z 27010KT 240V300 9999 DZ FEW006 BKN011 11/10 Q0994=
201206251650 METAR ESMX 251650Z 26012KT 230V290 9000 -RA FEW006 BKN009 OVC013 11/10 Q0994=
201206251620 METAR ESMX 251620Z 26011KT 210V300 7000 RA FEW007 SCT009 BKN011 11/10 Q0994=
201206251550 METAR ESMX 251550Z 26013KT 220V290 8000 -RA FEW007 BKN010 OVC014 11/10 Q0994=
201206251520 METAR ESMX 251520Z 26013KT 230V290 9999 -RA FEW008 OVC011 11/09 Q0994=
201206251450 METAR ESMX 251450Z 26014KT 230V290 9999 -RA FEW009 OVC012 11/10 Q0994=
201206251420 METAR ESMX 251420Z 26012KT 9999 -RA FEW008 BKN012 OVC017 11/10 Q0994=
201206251350 METAR ESMX 251350Z 26012KT 240V300 9999 -RA FEW007 SCT012 BKN014 11/10 Q0994=
201206251320 METAR ESMX 251320Z 27011KT 230V320 9999 -RA FEW009 BKN013 BKN022 11/10 Q0994=
201206251250 METAR ESMX 251250Z 25012G23KT 210V290 9999 -SHRA FEW008 SCT013 BKN016CB 12/10 Q0993=
201206251220 METAR ESMX 251220Z 25011KT 210V280 9999 -SHRA FEW011 SCT016 BKN021CB 12/10 Q0993=
201206251150 METAR ESMX 251150Z 25010KT 220V290 9999 -SHRA FEW013 SCT022CB BKN045 12/10 Q0993=
201206251120 METAR ESMX 251120Z 26011KT 230V290 9999 -SHRA FEW011 SCT015CB BKN050 12/10 Q0993=
201206251050 METAR ESMX 251050Z 26010KT 220V290 9999 -SHRA FEW009 SCT012CB BKN015 12/11 Q0993=
201206251020 METAR ESMX 251020Z 25012KT 220V280 9999 -SHRA FEW009 SCT013CB BKN017 12/11 Q0993=
201206250950 METAR ESMX 250950Z 25013KT 210V300 9999 -SHRA SCT010CB BKN045 12/10 Q0993=
201206250920 METAR ESMX 250920Z 24012KT 9000 -DZ FEW012 SCT025 BKN050 11/10 Q0993=
201206250850 METAR ESMX 250850Z 26012KT 230V290 8000 -DZ FEW010 SCT012 BKN019 11/10 Q0993=
201206250820 METAR ESMX 250820Z 25013KT 230V290 9999 -DZ FEW010 BKN014 BKN023 12/10 Q0993=
201206250750 METAR ESMX 250750Z 26012KT 9999 FEW008 SCT012 BKN015 11/10 Q0993=
201206250720 METAR ESMX 250720Z 26012KT 210V280 9999 -RA FEW008 SCT011 BKN014 11/10 Q0993=
201206250650 METAR ESMX 250650Z 26010G20KT 9999 -RA FEW006 BKN010 OVC016 11/09 Q0993=
201206250620 METAR ESMX 250620Z 26011KT 230V310 9999 -RA FEW006 SCT008 OVC010 11/09 Q0993=
201206250550 METAR ESMX 250550Z 26011KT 230V290 9999 -RA FEW006 SCT008 BKN010 10/09 Q0993=
201206250520 METAR ESMX 250520Z 27011G21KT 230V320 9999 -RA FEW005 BKN006 OVC008 10/10 Q0993=
201206250450 METAR ESMX 250450Z 27009KT 230V290 9999 -RA FEW004 BKN006 OVC008 11/10 Q0993=
201206250420 METAR ESMX 250420Z 26008KT 220V290 9999 -RA SCT004 BKN005 11/10 Q0993=
201206250350 METAR ESMX 250350Z 27006KT 9999 -RA FEW006 SCT023 BKN031 11/10 Q0993=
201206250320 METAR ESMX 250320Z AUTO 30004KT 9999NDV DZ FEW001/// SCT011/// BKN022/// 11/10 Q0993=
201206250250 METAR ESMX 250250Z AUTO 29006KT 9999NDV -RA FEW002/// SCT004/// BKN017/// 11/11 Q0993=
201206250220 METAR ESMX 250220Z AUTO 30004KT 270V330 9000NDV RA FEW001/// SCT006/// BKN013/// 11/11 Q0993=
201206250150 METAR ESMX 250150Z AUTO 30005KT 5000NDV +RA FEW002/// SCT005/// BKN010/// 11/11 Q0994=
201206250120 METAR ESMX 250120Z AUTO 35004KT 6000NDV RA FEW002/// BKN004/// OVC007/// 12/11 Q0994=
201206250050 METAR ESMX 250050Z AUTO 33004KT 290V360 7000NDV RA FEW005/// OVC007/// 12/11 Q0994=
201206250020 METAR ESMX 250020Z AUTO 33003KT 8000NDV RA FEW004/// BKN006/// OVC009/// 11/11 Q0995=
201206242350 METAR ESMX 242350Z AUTO VRB02KT 3000NDV +RA FEW002/// OVC004/// 12/11 Q0996=
201206242320 METAR ESMX 242320Z 08004KT 040V120 6000 -RA FEW003 BKN005 OVC007 11/11 Q0996=
201206242250 METAR ESMX 242250Z 09003KT 050V130 9999 -RA OVC004 11/11 Q0997=
201206242220 METAR ESMX 242220Z 09005KT 050V140 9000 -RA FEW003 SCT005 OVC007 11/10 Q0998=
201206242150 METAR ESMX 242150Z 08005KT 040V130 6000 -RA FEW005 BKN009 11/10 Q0999=
201206242120 METAR ESMX 242120Z 08005KT 040V160 9999 -RA FEW005 BKN009 11/10 Q1000=
201206242050 METAR ESMX 242050Z 07005KT 020V120 9999 -RA FEW006 BKN009 11/10 Q1001=
201206242020 METAR ESMX 242020Z 10005KT 060V160 7000 -RA FEW006 BKN011 11/10 Q1001=
201206241950 METAR ESMX 241950Z 09007KT 040V140 9999 -RA FEW005 SCT011 BKN047 11/10 Q1002=
201206241920 METAR ESMX 241920Z 11006KT 050V160 9999 -RA FEW006 SCT009 BKN010 11/10 Q1003=
201206241850 METAR ESMX 241850Z 11004KT 020V170 8000 -RA FEW004 SCT006 BKN008 11/10 Q1004=
201206241820 METAR ESMX 241820Z 14005KT 090V170 8000 -RA FEW005 SCT007 BKN009 11/10 Q1005=
201206241750 METAR ESMX 241750Z 13006KT 080V190 8000 -RA FEW006 SCT007 BKN009 12/10 Q1006=
201206241720 METAR ESMX 241720Z 15007KT 080V180 9000 -RA FEW007 SCT009 BKN018 12/10 Q1007=
201206241650 METAR ESMX 241650Z 15009KT 110V190 8000 -SHRA FEW012CB SCT020 BKN050 12/10 Q1007=
201206241620 METAR ESMX 241620Z 15008KT 110V190 9999 -RA FEW016CB SCT027 BKN047 13/10 Q1008=
201206241550 METAR ESMX 241550Z 15008KT 110V190 9999 FEW017CB SCT019 BKN040 14/10 Q1008=
201206241520 METAR ESMX 241520Z 16008KT 110V200 9999 -RA FEW017CB SCT022 BKN040 14/10 Q1009=
201206241450 METAR ESMX 241450Z 17008KT 140V200 9999 FEW017CB SCT025 BKN040 14/10 Q1009=
201206241420 METAR ESMX 241420Z 17009KT 140V200 9999 FEW020 SCT025CB BKN045 14/10 Q1010=
201206241350 METAR ESMX 241350Z 17009KT 140V230 9999 FEW022CB BKN034 BKN061 14/10 Q1011=
201206241320 METAR ESMX 241320Z 18009KT 150V230 9999 FEW040 SCT045CB BKN074 14/10 Q1011=
201206241250 METAR ESMX 241250Z 20007KT 9999 FEW020 SCT035CB BKN050 14/11 Q1012=
201206241220 METAR ESMX 241220Z 20011KT 9999 -SHRA FEW022 SCT030CB BKN049 12/10 Q1012=
201206241150 METAR ESMX 241150Z 18008KT 140V240 9999 SCT022 BKN040 15/10 Q1012=
201206241120 METAR ESMX 241120Z AUTO 22010KT 160V250 9999NDV FEW026/// SCT031/// BKN065/// 15/09 Q1013=
201206241050 METAR ESMX 241050Z AUTO 18012KT 9999NDV FEW024/// SCT029/// 16/09 Q1013=
201206241020 METAR ESMX 241020Z AUTO 19012KT 160V220 9999NDV FEW024/// 16/10 Q1013=
201206240950 METAR ESMX 240950Z AUTO 20013KT 9999NDV FEW023/// SCT028/// 16/10 Q1014=
201206240920 METAR ESMX 240920Z AUTO 19014KT 9999NDV FEW019/// SCT023/// BKN027/// 15/10 Q1014=
201206240850 METAR ESMX 240850Z AUTO 20010KT 9999NDV FEW018/// SCT022/// BKN030/// 15/11 Q1015=
201206240820 METAR ESMX 240820Z AUTO 18010KT 9999NDV SCT016/// BKN027/// BKN037/// 15/11 Q1015=
201206240750 METAR ESMX 240750Z AUTO 21008KT 9999NDV FEW015/// SCT019/// BKN027/// 15/11 Q1015=
201206240720 METAR ESMX 240720Z AUTO 20011KT 9999NDV FEW011/// BKN013/// OVC052/// 14/11 Q1015=
201206240650 METAR ESMX 240650Z AUTO 20008KT 170V240 9999NDV FEW010/// SCT060/// BKN076/// 14/11 Q1015=
201206240620 METAR ESMX 240620Z AUTO 21008KT 170V240 9999NDV FEW010/// BKN075/// 13/11 Q1015=
201206240550 METAR ESMX 240550Z AUTO 20008KT 170V240 9999NDV FEW010/// SCT059/// OVC075/// 13/10 Q1016=
201206240520 METAR ESMX 240520Z AUTO 20008KT 9999NDV FEW009/// SCT055/// BKN068/// 12/10 Q1016=
201206240450 METAR ESMX 240450Z AUTO 22007KT 190V260 9999NDV SCT071/// 12/10 Q1016=
201206240420 METAR ESMX 240420Z AUTO 22005KT 9999NDV FEW045/// 11/10 Q1016=
201206240350 METAR ESMX 240350Z AUTO 22005KT 9999NDV FEW046/// BKN074/// 11/09 Q1016=
201206240320 METAR ESMX 240320Z AUTO 22005KT 9999NDV -DZ FEW047/// BKN055/// BKN081/// 11/09 Q1017=
201206240250 METAR ESMX 240250Z AUTO 20005KT 9999NDV OVC057/// 10/09 Q1017=
201206240220 METAR ESMX 240220Z AUTO 21005KT 9999NDV FEW054/// SCT067/// 10/09 Q1017=
201206240150 METAR ESMX 240150Z AUTO 19005KT 9999NDV NCD 09/08 Q1017=
201206240120 METAR ESMX 240120Z AUTO 19004KT 9999NDV NCD 09/08 Q1017=
201206240050 METAR ESMX 240050Z AUTO 21004KT 9999NDV NCD 09/08 Q1017=
201206240020 METAR ESMX 240020Z AUTO 20004KT 9999NDV NCD 09/08 Q1017=
201206232350 METAR ESMX 232350Z AUTO 21006KT 9999NDV NCD 10/08 Q1017=
201206232320 METAR ESMX 232320Z AUTO 21005KT 9999NDV FEW040/// 10/08 Q1017=
201206232250 METAR ESMX 232250Z AUTO 22006KT 9999NDV NCD 10/08 Q1017=
201206232220 METAR ESMX 232220Z AUTO 21005KT 9999NDV NCD 10/08 Q1017=
201206232150 METAR ESMX 232150Z AUTO 22005KT 9999NDV NCD 10/08 Q1017=
201206232120 METAR ESMX 232120Z AUTO 21005KT 9999NDV NCD 10/08 Q1017=
201206232050 METAR ESMX 232050Z AUTO 23004KT 9999NDV FEW033/// 11/09 Q1017=
201206232020 METAR ESMX 232020Z AUTO 24004KT 9999NDV NCD 12/09 Q1017=
201206231950 METAR ESMX 231950Z AUTO 23006KT 9999NDV NCD 13/09 Q1017=
201206231920 METAR ESMX 231920Z AUTO 22004KT 190V260 9999NDV BKN068/// 14/10 Q1017=
201206231850 METAR ESMX 231850Z AUTO 24006KT 220V290 9999NDV FEW087/// 15/09 Q1017=
201206231820 METAR ESMX 231820Z AUTO 25008KT 210V290 9999NDV BKN071/// 15/09 Q1017=
201206231750 METAR ESMX 231750Z AUTO 25009KT 220V290 9999NDV FEW029/// BKN076/// 15/09 Q1017=
201206231720 METAR ESMX 231720Z AUTO 22008KT 180V250 9999NDV FEW027/// SCT034/// BKN042/// 15/11 Q1017=
201206231650 METAR ESMX 231650Z AUTO 22008KT 9999NDV FEW069/// BKN081/// 16/12 Q1017=
201206231620 METAR ESMX 231620Z AUTO 26005KT 210V290 9999NDV BKN078/// 16/10 Q1017=
201206231550 METAR ESMX 231550Z AUTO 24010KT 210V280 9999NDV FEW028/// SCT083/// 17/10 Q1016=
201206231520 METAR ESMX 231520Z AUTO 22006KT 160V260 9999NDV FEW056/// SCT080/// 18/12 Q1016=
201206231450 METAR ESMX 231450Z AUTO 24004KT 9999NDV SCT068/// 16/12 Q1016=
201206231420 METAR ESMX 231420Z AUTO 26004KT 200V290 9999NDV FEW034/// BKN061/// 16/13 Q1016=
201206231350 METAR ESMX 231350Z AUTO 23006KT 190V260 9999NDV FEW015/// SCT087/// 16/13 Q1017=
201206231320 METAR ESMX 231320Z AUTO 22007KT 200V260 9999NDV -RA FEW028/// 15/13 Q1017=
201206231250 METAR ESMX 231250Z AUTO 23009KT 8000NDV RA FEW010/// SCT045/// 13/11 Q1017 REDZ=
201206231220 METAR ESMX 231220Z AUTO 22009KT 170V260 9999NDV FEW024/// 18/11 Q1016=
201206231150 METAR ESMX 231150Z AUTO 19009KT 160V220 9999NDV FEW031/// SCT075/// BKN090/// 18/13 Q1016=
201206231120 METAR ESMX 231120Z AUTO 22012KT 170V250 9999NDV FEW032/// BKN070/// 18/11 Q1016=
201206231050 METAR ESMX 231050Z AUTO 21011KT 9999NDV FEW030/// SCT082/// 19/10 Q1016=
201206231020 METAR ESMX 231020Z AUTO 26006KT 230V290 9999NDV FEW024/// SCT053/// BKN067/// 18/11 Q1016=
201206230950 METAR ESMX 230950Z AUTO 24011KT 9999NDV FEW032/// SCT041/// BKN050/// 18/09 Q1016=
201206230920 METAR ESMX 230920Z AUTO 25007KT 210V290 9999NDV FEW029/// 18/10 Q1016=
201206230850 METAR ESMX 230850Z AUTO 24008KT 9999NDV FEW028/// 18/10 Q1016=
201206230820 METAR ESMX 230820Z 23007KT 190V260 9999 FEW019 SCT031 17/11 Q1016=
201206230750 METAR ESMX 230750Z 22007KT 170V250 9999 FEW015 SCT019 BKN024 16/13 Q1017=
201206230720 METAR ESMX 230720Z 26003KT 210V310 9999 SCT010 15/12 Q1017=
201206230650 METAR ESMX 230650Z 26003KT 200V300 9999 SCT008 14/12 Q1017=
201206230620 METAR ESMX 230620Z VRB02KT 9999 FEW003 SCT006 13/13 Q1017=
201206230550 METAR ESMX 230550Z VRB02KT 9999 SCT002 SCT200 13/12 Q1017=
201206230520 METAR ESMX 230520Z AUTO 23003KT 5000NDV VV001 12/11 Q1016=
201206230450 METAR ESMX 230450Z AUTO VRB02KT 0500NDV R01/1300VP2000U R19/0800 VV001 10/10 Q1016=
201206230420 METAR ESMX 230420Z AUTO VRB02KT 0250NDV R01/0750 R19/0350V0550U FG VV001 10/09 Q1016=
201206230350 METAR ESMX 230350Z AUTO VRB01KT 0100NDV R01/0325 R19/0150V0375N FG VV000 10/09 Q1016=
201206230320 METAR ESMX 230320Z AUTO 00000KT 0200NDV R01/0300V0550N R19/0500N FG VV001 09/09 Q1016=
201206230250 METAR ESMX 230250Z AUTO 21001KT 0250NDV R01/0550 R19/1000V1500D FG FEW008/// SCT010/// BKN021/// 09/08 Q1016=
201206230220 METAR ESMX 230220Z AUTO 22003KT 0200NDV R01/0750V1200N R19/0450V0650 FG SCT000/// OVC010/// 08/07 Q1016=
201206230150 METAR ESMX 230150Z AUTO 20001KT 0100NDV R01/0700V1200N R19/0200V0300 FG VV002 07/07 Q1016=
201206230120 METAR ESMX 230120Z AUTO 00000KT 0150NDV R01/0650 R19/0550N FG NCD 08/07 Q1016=
201206230050 METAR ESMX 230050Z AUTO VRB02KT 0150NDV R01/0900VP2000N R19/0450V0800N FG NCD 08/08 Q1016=
201206230020 METAR ESMX 230020Z AUTO 00000KT 0100NDV R01/0325 R19/0350V0550 FG NCD 09/08 Q1016=
201206222350 METAR ESMX 222350Z AUTO VRB01KT 0100NDV R01/0400V0650 R19/0275 FG NCD 10/09 Q1016=
201206222320 METAR ESMX 222320Z AUTO 25001KT 1000NDV R01/P2000N R19/P2000N BR BKN035/// 11/10 Q1016=
201206222250 METAR ESMX 222250Z AUTO VRB02KT 9999NDV FEW007/// SCT009/// BKN019/// 12/11 Q1016=
201206222220 METAR ESMX 222220Z AUTO 26002KT 9999NDV BKN007/// OVC011/// 12/11 Q1016=
201206222150 METAR ESMX 222150Z AUTO VRB02KT 9999NDV FEW004/// SCT006/// BKN008/// 12/11 Q1016=
201206222120 METAR ESMX 222120Z AUTO 33002KT 9999NDV OVC004/// 12/11 Q1016=
201206222050 METAR ESMX 222050Z AUTO VRB02KT 7000NDV BR FEW003/// OVC005/// 12/11 Q1016 REDZ=
201206222020 METAR ESMX 222020Z AUTO 27002KT 6000NDV -DZ FEW005/// SCT007/// 12/11 Q1016=
201206221950 METAR ESMX 221950Z AUTO 34002KT 5000NDV -RA FEW015/// SCT046/// 12/11 Q1016=
201206221920 METAR ESMX 221920Z AUTO 27002KT 4600NDV RA FEW005/// 13/11 Q1016=
201206221850 METAR ESMX 221850Z AUTO 00000KT 8000NDV -RA SCT050/// 13/12 Q1016 REDZ=
201206221820 METAR ESMX 221820Z AUTO 17002KT 7000NDV -RA NCD 13/12 Q1016=
201206221750 METAR ESMX 221750Z AUTO 16003KT 120V190 5000NDV -RA NCD 14/12 Q1016=
201206221720 METAR ESMX 221720Z AUTO 18002KT 9999NDV -RA FEW056/// 14/12 Q1016=
201206221650 METAR ESMX 221650Z AUTO 18002KT 9999NDV -RA FEW055/// 14/12 Q1015=
201206221620 METAR ESMX 221620Z AUTO 20004KT 160V230 6000NDV RA BKN055/// 15/12 Q1015=
201206221550 METAR ESMX 221550Z 10005KT 050V160 9999 RA OVC056 18/07 Q1015=
201206221520 METAR ESMX 221520Z 10006KT 040V170 CAVOK 18/06 Q1015=
201206221450 METAR ESMX 221450Z 09005KT 040V150 9999 BKN059 19/06 Q1015=
201206221420 METAR ESMX 221420Z 09007KT 040V120 CAVOK 20/06 Q1015=
201206221350 METAR ESMX 221350Z 08007KT 030V140 9999 FEW030 SCT060 BKN100 20/05 Q1015=
201206221320 METAR ESMX 221320Z 09007KT 020V140 9999 FEW030 BKN100 20/07 Q1015=
201206221250 METAR ESMX 221250Z 06009KT 9999 FEW027 BKN100 21/05 Q1015=
201206221220 METAR ESMX 221220Z AUTO 12006KT 090V200 9999NDV FEW059/// 21/06 Q1015=
201206221150 METAR COR ESMX 221150Z 09008KT 030V150 9999 SCT100 21/06 Q1015=
201206221120 METAR ESMX 221120Z 09008KT 050V160 CAVOK 21/06 Q1015=
201206221050 METAR ESMX 221050Z 08008KT 040V160 CAVOK 21/07 Q1015=
201206221020 METAR ESMX 221020Z 11007KT 070V180 CAVOK 21/07 Q1015=
201206220950 METAR ESMX 220950Z 09009KT 030V140 CAVOK 20/07 Q1015=
201206220920 METAR ESMX 220920Z 09010KT 030V190 CAVOK 21/07 Q1015=
201206220850 METAR ESMX 220850Z 07010KT 040V120 CAVOK 20/08 Q1015=
201206220820 METAR ESMX 220820Z 08010KT 030V120 9999 FEW059 20/07 Q1015=
201206220750 METAR ESMX 220750Z 08009KT 030V160 CAVOK 19/07 Q1015=
201206220720 METAR ESMX 220720Z 07008KT 030V120 CAVOK 19/08 Q1015=
201206220650 METAR ESMX 220650Z AUTO 06006KT 020V110 9999NDV OVC059/// 18/08 Q1016=
201206220620 METAR ESMX 220620Z AUTO 08008KT 030V120 9999NDV BKN058/// 17/08 Q1016=
201206220550 METAR ESMX 220550Z AUTO 07007KT 030V120 9999NDV FEW059/// 16/08 Q1016=
201206220520 METAR ESMX 220520Z AUTO 06007KT 030V100 9999NDV FEW056/// 14/08 Q1016=
201206220450 METAR ESMX 220450Z AUTO 05007KT 350V080 9999NDV NCD 14/08 Q1016=
201206220420 METAR ESMX 220420Z AUTO 06007KT 020V130 9999NDV NCD 13/07 Q1016=
201206220350 METAR ESMX 220350Z AUTO 06008KT 030V100 9999NDV NCD 12/08 Q1016=
201206220320 METAR ESMX 220320Z AUTO 06007KT 020V100 9999NDV NCD 11/08 Q1016=
201206220250 METAR ESMX 220250Z AUTO 06006KT 030V110 9999NDV NCD 11/07 Q1016=
201206220220 METAR ESMX 220220Z AUTO 06007KT 020V100 9999NDV FEW053/// 11/07 Q1016=
201206220150 METAR ESMX 220150Z AUTO 06007KT 020V110 9999NDV BKN051/// 12/07 Q1017=
201206220120 METAR ESMX 220120Z AUTO 06006KT 010V100 9999NDV SCT050/// 12/07 Q1017=
201206220050 METAR ESMX 220050Z AUTO 06007KT 020V100 9999NDV NCD 12/07 Q1017=
201206220020 METAR ESMX 220020Z AUTO 06006KT 010V110 9999NDV NCD 12/06 Q1017=
201206212350 METAR ESMX 212350Z AUTO 06006KT 010V110 9999NDV NCD 12/06 Q1017=
201206212320 METAR ESMX 212320Z AUTO 06006KT 030V100 9999NDV NCD 13/06 Q1017=
201206212250 METAR ESMX 212250Z AUTO 07006KT 020V110 9999NDV NCD 13/07 Q1017=
201206212220 METAR ESMX 212220Z AUTO 06005KT 020V110 9999NDV NCD 13/07 Q1017=
201206212150 METAR ESMX 212150Z AUTO 07005KT 030V100 9999NDV NCD 14/06 Q1017=
201206212120 METAR ESMX 212120Z AUTO 07005KT 030V100 9999NDV NCD 14/06 Q1017=
201206212050 METAR ESMX 212050Z AUTO 07004KT 020V100 9999NDV NCD 14/06 Q1017=
201206212020 METAR ESMX 212020Z AUTO 08005KT 050V120 9999NDV NCD 15/07 Q1017=
201206211950 METAR ESMX 211950Z AUTO 08005KT 050V130 9999NDV NCD 16/06 Q1017=
201206211920 METAR ESMX 211920Z AUTO 08005KT 050V110 9999NDV NCD 17/06 Q1017=
201206211850 METAR ESMX 211850Z 08005KT 050V140 CAVOK 17/07 Q1017=
201206211820 METAR ESMX 211820Z 08006KT 020V150 CAVOK 18/06 Q1017=
201206211750 METAR ESMX 211750Z 07008KT 040V110 CAVOK 19/05 Q1017=
201206211720 METAR ESMX 211720Z 09006KT 040V130 CAVOK 20/04 Q1017=
201206211650 METAR ESMX 211650Z 09007KT 040V150 CAVOK 21/03 Q1016=
201206211620 METAR ESMX 211620Z 09006KT 050V170 CAVOK 21/01 Q1016=
201206211550 METAR ESMX 211550Z 04010KT 020V080 CAVOK 22/00 Q1016=
201206211520 METAR ESMX 211520Z 05008KT 020V080 CAVOK 22/02 Q1016=
201206211450 METAR ESMX 211450Z 06008KT 350V120 CAVOK 22/02 Q1017=
201206211420 METAR ESMX 211420Z 05007KT 350V120 CAVOK 22/04 Q1016=
201206211350 METAR ESMX 211350Z 07009KT 030V120 CAVOK 22/05 Q1017=
201206211320 METAR ESMX 211320Z 07009KT 030V110 CAVOK 23/05 Q1017=
201206211250 METAR ESMX 211250Z 06008KT 020V090 CAVOK 22/06 Q1017=
201206211220 METAR ESMX 211220Z 05009KT 020V100 CAVOK 21/07 Q1017=
201206211150 METAR ESMX 211150Z 04010KT 9999 FEW041 SCT064 23/06 Q1018=
201206211120 METAR ESMX 211120Z 05008KT 010V090 CAVOK 21/07 Q1018=
201206211050 METAR ESMX 211050Z 04010KT CAVOK 21/06 Q1018=
201206211020 METAR ESMX 211020Z 04009KT 360V080 CAVOK 21/05 Q1018=
201206210950 METAR ESMX 210950Z 05008KT 010V080 CAVOK 21/06 Q1018=
201206210920 METAR ESMX 210920Z 05007KT 350V100 CAVOK 21/07 Q1018=
201206210850 METAR ESMX 210850Z 05007KT 360V100 9999 FEW045 20/06 Q1018=
201206210820 METAR ESMX 210820Z 05007KT 010V090 9999 FEW030 20/06 Q1018=
201206210750 METAR ESMX 210750Z 05006KT 020V110 CAVOK 20/07 Q1018=
201206210720 METAR ESMX 210720Z 04006KT 360V080 CAVOK 19/09 Q1018=
201206210650 METAR ESMX 210650Z 04006KT 010V080 CAVOK 18/09 Q1018=
201206210620 METAR ESMX 210620Z 04006KT 360V080 CAVOK 17/09 Q1018=
201206210550 METAR ESMX 210550Z 05004KT 010V090 CAVOK 16/10 Q1018=
201206210520 METAR ESMX 210520Z 05004KT 020V080 CAVOK 15/10 Q1018=
201206210450 METAR ESMX 210450Z 04004KT CAVOK 14/10 Q1018=
201206210420 METAR ESMX 210420Z 01003KT CAVOK 12/10 Q1018=
201206210350 METAR ESMX 210350Z 02004KT CAVOK 11/10 Q1018=
201206210320 METAR ESMX 210320Z AUTO 03003KT 9999NDV NCD 08/07 Q1018=
201206210250 METAR ESMX 210250Z AUTO 05004KT 9999NDV NCD 10/09 Q1018=
201206210220 METAR ESMX 210220Z AUTO 03004KT 9999NDV NCD 09/08 Q1018=
201206210150 METAR ESMX 210150Z AUTO 04003KT 9999NDV NCD 07/06 Q1018=
201206210120 METAR ESMX 210120Z AUTO 02003KT 9999NDV NCD 07/06 Q1018=
201206210050 METAR ESMX 210050Z AUTO 02002KT 9999NDV NCD 07/06 Q1018=
201206210020 METAR ESMX 210020Z AUTO 00000KT 9999NDV NCD 06/05 Q1018=
201206202350 METAR ESMX 202350Z 00000KT CAVOK 07/05 Q1018=
201206202320 METAR ESMX 202320Z VRB02KT CAVOK 08/07 Q1017=
201206202250 METAR ESMX 202250Z VRB01KT CAVOK 08/06 Q1017=
201206202220 METAR ESMX 202220Z 19001KT CAVOK 08/06 Q1017=
201206202150 METAR ESMX 202150Z VRB01KT CAVOK 09/07 Q1018=
201206202120 METAR ESMX 202120Z 00000KT CAVOK 10/07 Q1018=
201206202050 METAR ESMX 202050Z 23001KT CAVOK 11/07 Q1018=
201206202020 METAR ESMX 202020Z VRB01KT CAVOK 13/08 Q1017=
201206201950 METAR ESMX 201950Z 25002KT CAVOK 15/08 Q1017=
201206201920 METAR ESMX 201920Z 27002KT CAVOK 17/07 Q1017=
201206201850 METAR ESMX 201850Z 33002KT CAVOK 19/07 Q1017=
201206201820 METAR ESMX 201820Z VRB01KT CAVOK 20/04 Q1017=
201206201750 METAR ESMX 201750Z VRB01KT CAVOK 20/04 Q1017=
201206201720 METAR ESMX 201720Z VRB01KT CAVOK 21/05 Q1017=
201206201650 METAR ESMX 201650Z 03003KT 340V080 CAVOK 21/04 Q1017=
201206201620 METAR ESMX 201620Z VRB03KT CAVOK 21/05 Q1017=
201206201550 METAR ESMX 201550Z 34008KT 300V360 CAVOK 21/05 Q1017=
201206201520 METAR ESMX 201520Z 35006KT 280V020 CAVOK 21/04 Q1018=
201206201450 METAR ESMX 201450Z 31006KT 260V010 CAVOK 21/04 Q1018=
201206201420 METAR ESMX 201420Z 29008KT CAVOK 20/03 Q1018=
201206201350 METAR ESMX 201350Z 31005KT CAVOK 21/05 Q1018=
201206201320 METAR ESMX 201320Z 32006KT 270V350 CAVOK 20/04 Q1018=
201206201250 METAR ESMX 201250Z 31005KT 280V350 CAVOK 20/04 Q1018=
201206201220 METAR ESMX 201220Z 33006KT 250V020 CAVOK 20/04 Q1019=
201206201150 METAR ESMX 201150Z VRB06KT CAVOK 19/05 Q1019=
201206201120 METAR ESMX 201120Z 22008KT 180V290 9999 FEW045 19/06 Q1019=
201206201050 METAR ESMX 201050Z 27005KT 220V350 9999 FEW048 19/07 Q1019=
201206201020 METAR ESMX 201020Z 23006KT 190V270 9999 FEW048 19/06 Q1019=
201206200950 METAR ESMX 200950Z 28007KT 210V320 9999 FEW040 18/05 Q1019=
201206200920 METAR ESMX 200920Z 24003KT 180V290 9999 FEW040 17/05 Q1019=
201206200850 METAR ESMX 200850Z 23009KT 9999 SCT037 17/07 Q1019=
201206200820 METAR ESMX 200820Z 21006KT 140V250 9999 SCT039 16/07 Q1020=
201206200750 METAR ESMX 200750Z VRB03KT 9999 SCT025 16/08 Q1020=
201206200720 METAR ESMX 200720Z 29004KT 250V360 9999 SCT022 15/09 Q1020=
201206200650 METAR ESMX 200650Z 27003KT 220V340 CAVOK 15/08 Q1020=
201206200620 METAR ESMX 200620Z 28004KT 220V330 CAVOK 14/07 Q1020=
201206200550 METAR ESMX 200550Z 27004KT 230V330 9999 FEW030 13/08 Q1020=
201206200520 METAR ESMX 200520Z VRB02KT CAVOK 12/08 Q1020=
201206200450 METAR ESMX 200450Z 23002KT CAVOK 10/08 Q1020=
201206200420 METAR ESMX 200420Z 18002KT 9999 FEW036 09/09 Q1020=
201206200350 METAR ESMX 200350Z 16002KT CAVOK 07/06 Q1020=
201206200320 METAR ESMX 200320Z AUTO 14002KT 7000NDV BR NCD 05/05 Q1020=
201206200250 METAR ESMX 200250Z AUTO 24002KT 9999NDV NCD 05/04 Q1020=
201206200220 METAR ESMX 200220Z AUTO 00000KT 7000NDV BR NCD 05/04 Q1020=
201206200150 METAR ESMX 200150Z AUTO 25001KT 9999NDV NCD 05/04 Q1020=
201206200120 METAR ESMX 200120Z AUTO 25001KT 9999NDV NCD 06/05 Q1020=
201206200050 METAR ESMX 200050Z AUTO 25004KT 9999NDV NCD 06/05 Q1020=
201206200020 METAR ESMX 200020Z AUTO 25004KT 9999NDV NCD 07/06 Q1020=
201206192350 METAR ESMX 192350Z 26003KT CAVOK 06/05 Q1020=
201206192320 METAR ESMX 192320Z 26003KT CAVOK 07/05 Q1020=
201206192220 METAR ESMX 192220Z 25003KT CAVOK 08/06 Q1020=
201206192120 METAR ESMX 192120Z 26004KT CAVOK 10/06 Q1019=
201206192050 METAR ESMX 192050Z 25003KT CAVOK 10/06 Q1020=
201206192020 METAR ESMX 192020Z 25004KT CAVOK 11/06 Q1019=
201206191950 METAR ESMX 191950Z 24003KT CAVOK 12/06 Q1019=
201206191920 METAR ESMX 191920Z 25004KT CAVOK 13/07 Q1019=
201206191850 METAR ESMX 191850Z 25005KT CAVOK 15/07 Q1019=
201206191820 METAR ESMX 191820Z 29006KT 250V320 CAVOK 15/06 Q1019=
201206191750 METAR ESMX 191750Z 27006KT 230V300 9999 SCT040 16/06 Q1019=
201206191720 METAR ESMX 191720Z 24009KT 210V280 9999 SCT040 16/06 Q1019=
201206191650 METAR ESMX 191650Z 28007KT 9999 FEW044 16/06 Q1019=
201206191620 METAR ESMX 191620Z 27010KT 240V300 9999 FEW045 17/06 Q1019=
201206191550 METAR ESMX 191550Z 25010KT 210V290 9999 FEW047 17/05 Q1019=
201206191520 METAR ESMX 191520Z 28008KT 9999 FEW047 18/05 Q1019=
201206191450 METAR ESMX 191450Z 26010KT 210V310 9999 SCT046 18/06 Q1019=
201206191420 METAR ESMX 191420Z 28011KT 230V330 9999 FEW044 18/07 Q1019=
201206191350 METAR ESMX 191350Z 27011KT 240V320 9999 FEW044 17/06 Q1019=
201206191320 METAR ESMX 191320Z 30013KT 9999 SCT043 17/06 Q1019=
201206191250 METAR ESMX 191250Z 27012KT 250V320 9999 SCT041 17/06 Q1019=
201206191220 METAR COR ESMX 191220Z 27013KT 250V310 9999 FEW038 SCT045 16/07 Q1019=
201206191150 METAR ESMX 191150Z 28013KT 9999 BKN041 15/06 Q1019=
201206191120 METAR ESMX 191120Z 26013KT 220V290 9999 BKN037 16/06 Q1019=
201206191050 METAR ESMX 191050Z 28012G22KT 9999 FEW036 BKN041 15/07 Q1018=
201206191020 METAR ESMX 191020Z 28011KT 230V310 9999 BKN039 15/07 Q1018=
201206190950 METAR ESMX 190950Z 25011KT 200V280 9999 FEW029 SCT034 BKN039 15/08 Q1018=
201206190920 METAR ESMX 190920Z 26012KT 9999 FEW027 BKN030 14/08 Q1017=
201206190850 METAR ESMX 190850Z 26013KT 220V300 9999 FEW027 BKN031 14/08 Q1017=
201206190820 METAR ESMX 190820Z 28013KT 230V320 9999 FEW025 SCT028 BKN032 14/07 Q1017=
201206190750 METAR ESMX 190750Z 28012KT 240V320 9999 SCT023 BKN029 14/08 Q1017=
201206190720 METAR ESMX 190720Z 28014KT 230V320 9999 FEW018 SCT024 BKN027 13/08 Q1017=
201206190650 METAR ESMX 190650Z 27011KT 230V290 9999 FEW016 SCT021 BKN026 12/09 Q1017=
201206190620 METAR ESMX 190620Z 27008KT 230V320 9999 FEW016 BKN023 12/08 Q1016=
201206190550 METAR ESMX 190550Z 27009KT 230V300 9999 FEW020 OVC023 11/08 Q1016=
201206190520 METAR ESMX 190520Z 27008KT 210V300 9999 FEW017 BKN020 11/08 Q1016=
201206190450 METAR ESMX 190450Z 27009KT 240V300 9999 BKN020 11/08 Q1016=
201206190420 METAR ESMX 190420Z 28009KT 250V320 9999 FEW014 BKN021 11/08 Q1015=
201206190350 METAR ESMX 190350Z 26006KT 220V300 9999 SCT020 10/08 Q1015=
201206190320 METAR ESMX 190320Z AUTO 28007KT 250V320 9999NDV BKN021/// 10/08 Q1015=
201206190250 METAR ESMX 190250Z AUTO 29008KT 260V320 9999NDV FEW014/// SCT016/// OVC019/// 10/08 Q1014=
201206190220 METAR ESMX 190220Z AUTO 29009KT 9999NDV FEW012/// SCT014/// BKN018/// 10/08 Q1014=
201206190150 METAR ESMX 190150Z AUTO 29009KT 260V330 9999NDV FEW007/// BKN009/// OVC018/// 11/09 Q1013=
201206190120 METAR ESMX 190120Z AUTO 30011KT 270V330 9999NDV OVC007/// 11/10 Q1013=
201206190050 METAR ESMX 190050Z AUTO 30009KT 9999NDV FEW008/// BKN010/// OVC014/// 11/10 Q1012=
201206190020 METAR ESMX 190020Z AUTO 32010KT 280V360 9999NDV FEW007/// SCT009/// BKN013/// 11/10 Q1011=
201206182350 METAR ESMX 182350Z 30012KT 7000 BR FEW006 BKN007 OVC010 12/11 Q1011=
201206182320 METAR ESMX 182320Z 31008KT 280V350 5000 BR FEW004 BKN007 13/12 Q1010 REDZ=
201206182250 METAR ESMX 182250Z 31007KT 5000 -SHRA SCT005 BKN015 13/13 Q1009=
201206182220 METAR ESMX 182220Z 32005KT 280V340 9999 OVC015 14/12 Q1009=
201206182150 METAR ESMX 182150Z 33005KT 9999 OVC015 14/12 Q1008=
201206182120 METAR ESMX 182120Z 31005KT 280V010 9999 FEW018CB SCT021 BKN032 14/13 Q1008=
201206182050 METAR ESMX 182050Z VRB02KT 9999 SCT020 BKN025 OVC041 14/13 Q1008=
201206182020 METAR ESMX 182020Z VRB01KT 9999 FEW023CB SCT027 BKN030 14/13 Q1009=
201206181950 METAR ESMX 181950Z 04004KT 010V110 9999 SCT030CB BKN088 14/13 Q1009=
201206181920 METAR ESMX 181920Z 05004KT 350V110 9999 FEW045CB SCT050 14/12 Q1009=
201206181850 METAR ESMX 181850Z 04006KT 9999 FEW045CB SCT050 15/13 Q1009=
201206181820 METAR ESMX 181820Z 02005KT 9999 SCT045 BKN065 15/13 Q1010=
201206181750 METAR ESMX 181750Z 10005KT 030V140 9999 SCT040CB BKN073 15/12 Q1010=
201206181720 METAR ESMX 181720Z 09004KT 020V140 9999 FEW040CB SCT070 15/13 Q1010 RERA=
201206181650 METAR ESMX 181650Z 06003KT 360V110 7000 -RA FEW028 15/13 Q1011=
201206181620 METAR ESMX 181620Z VRB02KT 9999 -RA FEW047 15/14 Q1013=
201206181550 METAR ESMX 181550Z 22007KT 180V260 3100 RA FEW046 OVC065 17/12 Q1014=
201206181520 METAR ESMX 181520Z 14007KT 080V200 9999 FEW045 20/09 Q1012=
201206181450 METAR ESMX 181450Z 12003KT 050V170 9999 FEW042 20/10 Q1013=
201206181420 METAR ESMX 181420Z 12006KT 050V170 9999 FEW035 20/09 Q1014=
201206181350 METAR ESMX 181350Z 16009KT 120V200 9999 FEW045 SCT084 20/09 Q1015=
201206181320 METAR ESMX 181320Z 18008KT 130V220 9999 FEW042 SCT055 20/10 Q1015=
201206181250 METAR ESMX 181250Z 17007KT 110V200 9999 SCT040 BKN055 20/09 Q1016=
201206181220 METAR ESMX 181220Z 19008KT 160V230 9999 FEW039 SCT050 20/10 Q1016=
201206181150 METAR ESMX 181150Z 14008KT 070V180 9999 FEW037 SCT043 19/09 Q1017=
201206181120 METAR ESMX 181120Z 18007KT 150V210 9999 FEW036 19/10 Q1017=
201206181050 METAR ESMX 181050Z 20009KT 9999 BKN049 18/10 Q1018=
201206181020 METAR ESMX 181020Z 19012KT 150V230 9999 FEW036 BKN053 18/09 Q1019=
201206180950 METAR ESMX 180950Z 20010KT 160V230 9999 FEW037 BKN057 18/09 Q1019=
201206180920 METAR ESMX 180920Z 19013KT 150V220 9999 FEW032 SCT040 18/09 Q1019=
201206180850 METAR ESMX 180850Z 21012KT 160V250 9999 SCT033 18/10 Q1019=
201206180820 METAR ESMX 180820Z 21010KT 160V260 9999 SCT029 17/09 Q1019=
201206180750 METAR ESMX 180750Z 22010KT 190V260 9999 FEW025 16/10 Q1019=
201206180720 METAR ESMX 180720Z 21010KT 180V240 9999 FEW023 SCT028 15/09 Q1019=
201206180650 METAR ESMX 180650Z 22011KT 9999 SCT021 15/09 Q1020=
201206180620 METAR ESMX 180620Z 21010KT 170V250 9999 FEW015 SCT020 14/09 Q1020=
201206180550 METAR ESMX 180550Z 21009KT 9999 FEW014 SCT016 13/10 Q1019=
201206180520 METAR ESMX 180520Z 21009KT 9999 FEW013 12/09 Q1019=
201206180450 METAR ESMX 180450Z 21007KT 170V230 CAVOK 12/09 Q1019=
201206180420 METAR COR ESMX 180420Z 19007KT CAVOK 11/09 Q1019=
201206180350 METAR ESMX 180350Z 19006KT CAVOK 10/09 Q1019=
201206180320 METAR ESMX 180320Z AUTO 20006KT 9999NDV NCD 10/08 Q1019=
201206180250 METAR ESMX 180250Z AUTO 20006KT 9999NDV NCD 10/08 Q1019=
201206180220 METAR ESMX 180220Z AUTO 20007KT 9999NDV FEW036/// 10/08 Q1019=
201206180150 METAR ESMX 180150Z AUTO 20008KT 9999NDV OVC034/// 11/09 Q1019=
201206180120 METAR ESMX 180120Z AUTO 21007KT 9999NDV OVC033/// 12/08 Q1019=
201206180050 METAR ESMX 180050Z AUTO 21006KT 9999NDV OVC035/// 11/08 Q1019=
201206180020 METAR ESMX 180020Z AUTO 22007KT 9999NDV BKN035/// 11/08 Q1019=
201206172350 METAR ESMX 172350Z AUTO 21008KT 170V240 9999NDV BKN033/// 12/08 Q1019=
201206172320 METAR ESMX 172320Z 22008KT 9999 SCT040 12/08 Q1019=
201206172250 METAR ESMX 172250Z 22005KT CAVOK 11/08 Q1019=
201206172220 METAR ESMX 172220Z 22006KT CAVOK 13/09 Q1019=
201206172150 METAR ESMX 172150Z 22007KT 180V250 9999 FEW044 BKN052 13/09 Q1019=
201206172120 METAR ESMX 172120Z 25010KT 200V280 9999 BKN038 13/08 Q1018=
201206172050 METAR ESMX 172050Z 22009KT 9999 BKN039 13/09 Q1019=
201206172020 METAR ESMX 172020Z 23008KT 9999 BKN043 13/09 Q1018=
201206171950 METAR ESMX 171950Z 24009KT 210V270 9999 SCT040 14/09 Q1018=
201206171920 METAR ESMX 171920Z 24010KT 190V270 9999 FEW030 14/09 Q1018=
201206171850 METAR ESMX 171850Z 23009KT 9999 FEW030 15/09 Q1017=
201206171820 METAR ESMX 171820Z 23011KT 180V260 9999 FEW030 15/09 Q1017=
201206171750 METAR ESMX 171750Z 22014KT 170V240 9999 FEW027 SCT062 16/09 Q1017=
201206171720 METAR ESMX 171720Z 22010KT 190V260 9999 FEW024 SCT040 16/11 Q1016=
201206171650 METAR ESMX 171650Z 22011KT 9999 SCT023 16/11 Q1016=
201206171620 METAR ESMX 171620Z 23012KT 9999 SCT027CB 17/11 Q1016=
201206171550 METAR ESMX 171550Z 22009KT 180V250 9999 FEW023 SCT027 17/12 Q1016=
201206171520 METAR ESMX 171520Z 21011KT 180V240 9999 FEW016 SCT022 BKN027 16/12 Q1016=
201206171450 METAR ESMX 171450Z 25012KT 210V290 9999 FEW018 SCT027CB 16/11 Q1015=
201206171420 METAR ESMX 171420Z 23011KT 190V260 9999 FEW015 SCT030CB 16/12 Q1015=
201206171350 METAR ESMX 171350Z 23007KT 170V260 9000 -SHRA FEW012 SCT030CB 14/12 Q1015=
201206171320 METAR ESMX 171320Z 22010KT 190V250 9999 SCT030CB BKN065 15/12 Q1015=
201206171250 METAR ESMX 171250Z 22013KT 9999 SCT030CB BKN065 16/10 Q1015=
201206171220 METAR ESMX 171220Z 23013KT 200V270 9999 SCT030 BKN065 17/09 Q1014=
201206171150 METAR ESMX 171150Z AUTO 23013KT 9999NDV ////// 17/10 Q1014=
201206171120 METAR ESMX 171120Z AUTO 21013KT 190V250 9999NDV ////// 16/10 Q1014=
201206171050 METAR ESMX 171050Z AUTO 22015G25KT 160V270 9999NDV ////// 17/09 Q1013=
201206171020 METAR ESMX 171020Z AUTO 23012KT 190V260 9999NDV ////// 16/10 Q1013=
201206170950 METAR ESMX 170950Z AUTO 23013KT 180V260 9999NDV ////// 16/10 Q1013=
201206170920 METAR ESMX 170920Z AUTO 22014KT 200V260 9999NDV ////// 16/11 Q1013=
201206170850 METAR ESMX 170850Z AUTO 22011G21KT 190V250 9999NDV ////// 15/10 Q1012=
201206170820 METAR ESMX 170820Z AUTO 24009KT 210V280 9999NDV ////// 16/10 Q1012=
201206170750 METAR ESMX 170750Z AUTO 24012KT 210V270 9999NDV ////// 14/10 Q1012=
201206170720 METAR ESMX 170720Z AUTO 23011KT 190V290 9999NDV ////// 14/10 Q1012=
201206170650 METAR ESMX 170650Z AUTO 25011KT 9999NDV ////// 14/11 Q1012=
201206170620 METAR ESMX 170620Z AUTO 24010KT 200V290 9999NDV ////// 13/11 Q1011=
201206170550 METAR ESMX 170550Z AUTO 25009KT 210V290 9999NDV ////// 13/10 Q1011=
201206170520 METAR ESMX 170520Z AUTO 25010KT 9999NDV ////// 12/10 Q1011=
201206170450 METAR ESMX 170450Z AUTO 24008KT 9999NDV ////// 12/11 Q1010=
201206170420 METAR ESMX 170420Z AUTO 23008KT 9999NDV ////// 12/11 Q1010=
201206170350 METAR ESMX 170350Z AUTO VRB02KT 9999NDV ////// 11/10 Q1010=
201206170320 METAR ESMX 170320Z AUTO 24003KT 9999NDV -RA ////// 12/10 Q1010=
201206170250 METAR ESMX 170250Z AUTO 26008KT 9000NDV RA ////// 12/11 Q1010=
201206170220 METAR ESMX 170220Z AUTO 22006KT 9999NDV DZ ////// 13/12 Q1010 RERA=
201206170150 METAR ESMX 170150Z AUTO 20009KT 160V230 2900NDV +RA ////// 12/11 Q1010=
201206170120 METAR ESMX 170120Z AUTO 21008KT 5000NDV RA ////// 13/12 Q1010=
201206170050 METAR ESMX 170050Z AUTO 21010KT 4600NDV RA ////// 13/12 Q1009=
201206170020 METAR ESMX 170020Z AUTO 19009KT 150V220 3800NDV RA ////// 14/13 Q1009=
201206162350 METAR ESMX 162350Z AUTO 16004KT 130V190 3800NDV BR ////// 14/13 Q1009=
201206162320 METAR ESMX 162320Z AUTO 16004KT 120V190 3500NDV BR ////// 14/13 Q1010=
201206162250 METAR ESMX 162250Z AUTO 17005KT 4600NDV BR ////// 14/13 Q1010=
201206162220 METAR ESMX 162220Z AUTO 17005KT 140V210 4800NDV BR ////// 14/13 Q1010=
201206162150 METAR ESMX 162150Z AUTO 17006KT 5000NDV BR ////// 14/13 Q1011=
201206162120 METAR ESMX 162120Z AUTO 16005KT 120V200 8000NDV BR ////// 14/13 Q1011=
201206162050 METAR ESMX 162050Z AUTO VRB02KT 9999NDV ////// 14/13 Q1010=
201206162020 METAR ESMX 162020Z AUTO VRB02KT 9999NDV ////// 14/13 Q1011=
201206161950 METAR ESMX 161950Z AUTO VRB01KT 9999NDV ////// 14/13 Q1011=
201206161920 METAR ESMX 161920Z AUTO 34003KT 290V060 2400NDV ////// 14/13 Q1011=
201206161850 METAR ESMX 161850Z AUTO 05004KT 010V110 9999NDV ////// 14/13 Q1011=
201206161820 METAR ESMX 161820Z AUTO 13003KT 080V170 9999NDV DZ ////// 14/13 Q1011=
201206161750 METAR ESMX 161750Z AUTO 08003KT 020V120 9999NDV ////// 14/13 Q1012=
201206161720 METAR ESMX 161720Z AUTO VRB01KT 9999NDV ////// 14/13 Q1012 RESHRA=
201206161650 METAR ESMX 161650Z AUTO 08003KT 050V120 9999NDV -RA ////// 14/13 Q1012=
201206161620 METAR ESMX 161620Z AUTO 06003KT 030V100 9999NDV ////// 15/13 Q1012=
201206161550 METAR ESMX 161550Z AUTO 10002KT 9999NDV ////// 14/13 Q1012 RESHRA=
201206161520 METAR ESMX 161520Z AUTO 13004KT 080V170 8000NDV -RA ////// 13/12 Q1013=
201206161450 METAR ESMX 161450Z AUTO 35007KT 8000NDV +RA FEW006/// SCT034/// BKN045/// 14/12 Q1012 RERA=
201206161420 METAR ESMX 161420Z AUTO 31010KT 280V350 9999NDV FEW028/// SCT034/// BKN038/// 15/11 Q1012=
201206161350 METAR ESMX 161350Z AUTO 15006KT 100V200 9999NDV SCT025/// BKN032/// BKN086/// 20/13 Q1012=
201206161320 METAR ESMX 161320Z 18007KT 140V220 9999 FEW028 BKN070 20/13 Q1012=
201206161250 METAR ESMX 161250Z 19008KT 150V220 9999 FEW023 SCT045 18/13 Q1012=
201206161220 METAR ESMX 161220Z 18006KT 150V220 9999 FEW022 SCT055 18/13 Q1012=
201206161150 METAR ESMX 161150Z 23007KT 9999 SCT020 17/13 Q1013=
201206161120 METAR ESMX 161120Z 20006KT 160V240 9999 SCT022 17/13 Q1013=
201206161050 METAR ESMX 161050Z 21006KT 170V250 7000 FEW013 SCT022 BKN028 16/13 Q1013=
201206161020 METAR ESMX 161020Z 20005KT 150V240 9999 FEW013 BKN016 BKN028 16/13 Q1013=
201206160950 METAR ESMX 160950Z VRB02KT 9999 FEW008 SCT011 BKN017 16/13 Q1013=
201206160920 METAR ESMX 160920Z 19004KT 9999 FEW006 SCT009 BKN043 15/13 Q1013=
201206160850 METAR ESMX 160850Z 20005KT 9999 -RA FEW007 SCT009 BKN016 15/13 Q1013=
201206160820 METAR ESMX 160820Z 17003KT 140V200 9999 FEW009 BKN018 OVC044 15/12 Q1013=
201206160750 METAR ESMX 160750Z 21003KT 160V250 9999 FEW007 SCT009 BKN016 15/13 Q1012=
201206160720 METAR ESMX 160720Z 16004KT 120V190 9999 FEW004 SCT008 BKN040 14/13 Q1013=
201206160650 METAR ESMX 160650Z 19003KT 150V240 9999 SCT005 BKN015 14/13 Q1012 REDZ=
201206160620 METAR ESMX 160620Z 19004KT 150V210 7000 -RA FEW003 SCT004 BKN010 14/13 Q1013=
201206160550 METAR ESMX 160550Z 19004KT 120V240 5000 -RA FEW003 BKN005 OVC008 13/12 Q1013=
201206151850 METAR ESMX 151850Z 17009KT 140V200 CAVOK 15/06 Q1017=
201206151820 METAR ESMX 151820Z 17010KT 130V210 CAVOK 16/06 Q1017=
201206151750 METAR ESMX 151750Z 17008KT 120V200 CAVOK 16/06 Q1017=
201206151650 METAR ESMX 151650Z 17008KT 140V210 CAVOK 17/05 Q1017=
201206151620 METAR ESMX 151620Z 16005KT 110V200 CAVOK 18/04 Q1017=
201206151550 METAR ESMX 151550Z 18005KT 130V230 CAVOK 17/04 Q1017=
201206151520 METAR ESMX 151520Z 18005KT 110V240 CAVOK 17/05 Q1017=
201206151450 METAR ESMX 151450Z 13004KT 060V220 9999 FEW047 17/04 Q1018=
201206151420 METAR ESMX 151420Z 15005KT 070V210 9999 FEW047 17/04 Q1018=
201206151350 METAR ESMX 151350Z 21006KT 150V250 9999 FEW046 17/04 Q1018=
201206151320 METAR ESMX 151320Z 19005KT 120V250 9999 FEW043 17/05 Q1018=
201206151250 METAR ESMX 151250Z 17009KT 9999 SCT041 15/04 Q1019=
201206151220 METAR ESMX 151220Z 20006KT 120V260 9999 SCT041 15/04 Q1019=
201206151150 METAR ESMX 151150Z 16007KT 140V200 9999 SCT038 16/04 Q1019=
201206151120 METAR ESMX 151120Z 20005KT 120V230 9999 SCT038 15/05 Q1019=
201206151050 METAR ESMX 151050Z 20008KT 160V230 9999 SCT037 15/05 Q1019=
201206151020 METAR ESMX 151020Z 19009KT 160V220 9999 SCT035 13/05 Q1019=
201206150950 METAR ESMX 150950Z 18007KT 140V220 9999 BKN035 13/04 Q1019=
201206150920 METAR ESMX 150920Z 20009KT 170V240 9999 BKN036 14/05 Q1019=
201206150850 METAR ESMX 150850Z 26006KT 210V280 9999 BKN033 12/04 Q1019=
201206150820 METAR ESMX 150820Z 21007KT 170V250 9999 BKN033 12/05 Q1019=
201206150750 METAR ESMX 150750Z 24006KT 190V270 9999 FEW032 BKN038 11/04 Q1019=
201206150720 METAR ESMX 150720Z 24007KT 200V280 9999 FEW031 BKN036 12/04 Q1019=
201206150650 METAR ESMX 150650Z 22006KT 180V250 9999 FEW028 BKN040 11/05 Q1019=
201206150620 METAR ESMX 150620Z 24004KT 200V270 9999 BKN039 10/04 Q1019=
201206150550 METAR ESMX 150550Z 26004KT 210V290 9999 FEW025 OVC039 10/05 Q1019=
201206150520 METAR ESMX 150520Z 26004KT 220V290 9999 OVC039 10/04 Q1019=
201206150450 METAR ESMX 150450Z 26003KT 210V300 9999 OVC039 10/06 Q1019=
201206150420 METAR ESMX 150420Z 25003KT 210V290 9999 OVC038 09/05 Q1019=
201206150350 METAR ESMX 150350Z 23003KT 9999 OVC037 09/07 Q1018=
201206150320 METAR ESMX 150320Z AUTO 21003KT 9999NDV OVC036/// 09/07 Q1018=
201206150250 METAR ESMX 150250Z AUTO 21003KT 9999NDV OVC036/// 09/06 Q1018=
201206150220 METAR ESMX 150220Z AUTO 22003KT 9999NDV OVC036/// 09/06 Q1018=
201206150150 METAR ESMX 150150Z AUTO 22003KT 9999NDV OVC037/// 09/06 Q1018=
201206150120 METAR ESMX 150120Z AUTO 21003KT 9999NDV OVC035/// 09/06 Q1018=
201206150050 METAR ESMX 150050Z AUTO 23004KT 9999NDV OVC030/// 09/06 Q1018=
201206150020 METAR ESMX 150020Z AUTO 23004KT 200V260 9999NDV OVC034/// 09/06 Q1018=
201206142350 METAR ESMX 142350Z 23004KT 9999 OVC032 09/06 Q1018=
201206142320 METAR ESMX 142320Z 23003KT 9999 OVC038 09/06 Q1017=
201206142250 METAR ESMX 142250Z 22004KT 9999 OVC039 09/06 Q1018=
201206142220 METAR ESMX 142220Z 23004KT 9999 OVC039 10/06 Q1018=
201206142150 METAR ESMX 142150Z 23003KT 9999 OVC039 10/06 Q1017=
201206142120 METAR ESMX 142120Z 25004KT 9999 OVC036 10/06 Q1017=
201206142050 METAR ESMX 142050Z 26005KT 230V290 9999 OVC033 10/06 Q1017=
201206142020 METAR ESMX 142020Z 26005KT 230V290 9999 SCT021 OVC033 11/06 Q1017=
201206141950 METAR ESMX 141950Z 25003KT 220V290 9999 FEW025 OVC035 11/06 Q1017=
201206141920 METAR ESMX 141920Z 24004KT 9999 FEW023 SCT034 OVC038 11/06 Q1017=
201206141850 METAR ESMX 141850Z 24004KT 9999 FEW024 SCT027 BKN031 12/07 Q1016=
201206141820 METAR ESMX 141820Z 25006KT 220V280 9999 FEW025 OVC044 12/06 Q1016=
201206141750 METAR ESMX 141750Z 25006KT 9999 OVC042 12/06 Q1016=
201206141720 METAR ESMX 141720Z 26008KT 230V290 9999 OVC043 12/06 Q1016=
201206141650 METAR ESMX 141650Z 26008KT 220V300 9999 FEW026 OVC045 13/07 Q1016=
201206141620 METAR ESMX 141620Z 26008KT 220V290 9999 FEW028 OVC046 13/06 Q1016=
201206141550 METAR ESMX 141550Z 26007KT 200V300 9999 SCT030 OVC043 13/06 Q1016=
201206141520 METAR ESMX 141520Z 27009KT 230V300 9999 FEW036 OVC044 13/06 Q1016=
201206141450 METAR ESMX 141450Z 26010KT 9999 FEW032 OVC046 14/06 Q1016=
201206141420 METAR ESMX 141420Z 23007KT 9999 FEW028 OVC044 14/07 Q1015=
201206141350 METAR ESMX 141350Z 22008KT 190V250 9999 FEW023 SCT027 OVC042 14/08 Q1015=
201206141320 METAR ESMX 141320Z 24009KT 210V280 9999 FEW028 SCT043 OVC051 14/07 Q1015=
201206141250 METAR ESMX 141250Z 22008KT 190V250 9999 FEW017 SCT026 BKN033 13/07 Q1015=
201206141220 METAR ESMX 141220Z 19010KT 160V230 9999 VCSH SCT022 BKN032 BKN051 13/09 Q1015=
201206141150 METAR ESMX 141150Z 22012KT 200V260 9999 SCT025 BKN044 BKN054 14/07 Q1015=
201206141120 METAR ESMX 141120Z 22010KT 190V260 9999 FEW028 BKN050 14/07 Q1015=
201206141050 METAR ESMX 141050Z 23010KT 200V260 9999 FEW032 SCT043 OVC051 14/07 Q1015=
201206141020 METAR ESMX 141020Z 23011KT 9999 FEW045 OVC051 14/07 Q1015=
201206140950 METAR ESMX 140950Z 21007KT 160V240 9999 FEW034 SCT040 OVC045 13/06 Q1015=
201206140920 METAR ESMX 140920Z 25008KT 9999 FEW021 SCT037 OVC044 12/06 Q1015=
201206140850 METAR ESMX 140850Z 25009KT 210V290 9999 FEW028 SCT035 BKN040 12/07 Q1014=
201206140820 METAR ESMX 140820Z 22009KT 190V260 9999 FEW032 SCT037 OVC049 13/05 Q1014=
201206140750 METAR ESMX 140750Z 22008KT 170V270 9999 FEW028 BKN046 14/07 Q1014=
201206140720 METAR ESMX 140720Z 23007KT 200V270 9999 FEW017 SCT029 BKN043 12/07 Q1014=
201206140650 METAR ESMX 140650Z 23006KT 200V280 9999 FEW015 BKN040 12/08 Q1013=
201206140620 METAR ESMX 140620Z 24007KT 210V270 9999 SCT015 BKN042 12/08 Q1013=
201206140550 METAR ESMX 140550Z 23005KT 200V270 9999 FEW010 SCT014 OVC043 11/09 Q1013=
201206140450 METAR ESMX 140450Z 23006KT 200V260 9999 FEW039 10/09 Q1013=
201206140420 METAR ESMX 140420Z 22006KT CAVOK 09/09 Q1013=
201206140350 METAR ESMX 140350Z AUTO 21005KT 9000NDV BR NCD 08/08 Q1013=
201206140320 METAR ESMX 140320Z AUTO 21005KT 9000NDV NCD 07/07 Q1012=
201206140250 METAR ESMX 140250Z AUTO 19005KT 9000NDV NCD 07/06 Q1012=
201206140220 METAR ESMX 140220Z AUTO 20006KT 9999NDV FEW053/// 07/06 Q1012=
201206140150 METAR ESMX 140150Z AUTO 21005KT 9999NDV BKN053/// 07/07 Q1012=
201206140120 METAR ESMX 140120Z AUTO 22005KT 9999NDV FEW056/// 07/06 Q1012=
201206140050 METAR ESMX 140050Z AUTO 22005KT 9999NDV NCD 07/06 Q1012=
201206140020 METAR ESMX 140020Z AUTO 22005KT 9999NDV NCD 06/05 Q1012=
201206132350 METAR ESMX 132350Z 22005KT CAVOK 07/05 Q1012=
201206132320 METAR ESMX 132320Z 21005KT CAVOK 07/05 Q1012=
201206132250 METAR ESMX 132250Z 21004KT CAVOK 07/06 Q1012=
201206132220 METAR ESMX 132220Z AUTO 22004KT 9999NDV NCD 07/05 Q1012=
201206132150 METAR ESMX 132150Z 21004KT CAVOK 09/06 Q1012=
201206132120 METAR ESMX 132120Z 22003KT CAVOK 08/06 Q1011=
201206132050 METAR ESMX 132050Z 24004KT CAVOK 10/06 Q1011=
201206132020 METAR ESMX 132020Z 24005KT CAVOK 12/06 Q1011=
201206131950 METAR ESMX 131950Z 25007KT CAVOK 12/06 Q1011=
201206131920 METAR ESMX 131920Z 25007KT CAVOK 14/07 Q1010=
201206131850 METAR ESMX 131850Z 24008KT 9999 FEW038 SCT046 15/08 Q1010=
201206131820 METAR ESMX 131820Z 25008KT 190V290 9999 FEW044 15/10 Q1009=
201206131750 METAR ESMX 131750Z 25011KT 220V290 9999 VCSH FEW033CB SCT066 17/10 Q1009=
201206131720 METAR ESMX 131720Z 18008KT 150V210 9999 FEW038 SCT078 18/11 Q1009=
201206131650 METAR ESMX 131650Z 17008KT 140V200 9999 FEW040 SCT080 18/11 Q1009=
201206131620 METAR ESMX 131620Z 18008KT 150V210 9999 FEW043 SCT087 17/10 Q1009=
201206131550 METAR ESMX 131550Z 19010KT 9999 FEW048 SCT063 18/10 Q1008=
201206131520 METAR ESMX 131520Z 19008KT 150V220 9999 FEW040 SCT060 BKN090 18/10 Q1008=
201206131450 METAR ESMX 131450Z 19010KT 150V220 9999 FEW045CB SCT091 18/11 Q1008=
201206131420 METAR ESMX 131420Z 22006KT 170V280 9999 FEW050CB SCT084 19/08 Q1008=
201206131350 METAR ESMX 131350Z 25008KT 220V300 9999 FEW040CB SCT100 19/08 Q1008=
201206131320 METAR ESMX 131320Z 27009KT 240V300 9999 FEW040CB BKN085 21/07 Q1008=
201206131250 METAR ESMX 131250Z 28007KT 240V330 9999 FEW040CB SCT100 19/07 Q1008=
201206131220 METAR ESMX 131220Z 30008KT 260V330 9999 FEW040CB BKN110 19/09 Q1008=
201206131150 METAR COR ESMX 131150Z 22007KT 170V250 9999 FEW046 SCT090 19/09 Q1008=
201206131120 METAR ESMX 131120Z 26007KT 200V300 9999 SCT040 SCT100 19/09 Q1008=
201206131050 METAR ESMX 131050Z 20006KT 150V230 9999 FEW036 SCT077 19/08 Q1008=
201206131020 METAR ESMX 131020Z 21005KT 150V270 9999 FEW030 BKN100 19/08 Q1008=
201206130950 METAR ESMX 130950Z 20004KT 120V250 9999 SCT032 BKN099 18/10 Q1008=
201206130920 METAR ESMX 130920Z 17005KT 110V220 9999 FEW029 BKN095 17/10 Q1008=
201206130850 METAR ESMX 130850Z 14004KT 100V190 9999 FEW026 BKN095 17/09 Q1008=
201206130820 METAR ESMX 130820Z 18003KT 060V230 9999 FEW042 SCT100 17/09 Q1007=
201206130750 METAR ESMX 130750Z VRB02KT 9999 SCT045 16/09 Q1007=
201206130720 METAR ESMX 130720Z 19003KT 140V240 9999 FEW046 15/10 Q1007=
201206130650 METAR ESMX 130650Z 18003KT 120V240 9999 FEW047 16/10 Q1007=
201206130620 METAR ESMX 130620Z VRB01KT 9999 BKN047 15/10 Q1007=
201206130550 METAR ESMX 130550Z VRB01KT 9999 BKN046 12/11 Q1007=
201206130520 METAR ESMX 130520Z VRB02KT 9999 BKN047 11/10 Q1007=
201206130450 METAR ESMX 130450Z 34003KT 9999 BKN047 11/10 Q1007=
201206130420 METAR ESMX 130420Z VRB01KT 9999 SCT047 09/08 Q1007=
201206130350 METAR ESMX 130350Z 00000KT 4200 BCFG SCT047 06/06 Q1006=
201206130320 METAR ESMX 130320Z 00000KT 0500 R01/0800VP2000D R19/0700 BCFG NSC 05/05 Q1006=
201206130250 METAR ESMX 130250Z AUTO 00000KT 0150NDV R01/0275V0375N R19/0350V0550 FG FEW001/// 06/05 Q1006=
201206130220 METAR ESMX 130220Z AUTO 00000KT 0400NDV R01/0550VP2000D R19/0550VP2000U FG FEW001/// 05/04 Q1006=
201206130150 METAR ESMX 130150Z AUTO 00000KT 0250NDV R01/P2000 R19/0500VP2000U FG NCD 05/05 Q1006=
201206130120 METAR ESMX 130120Z 00000KT 1500 R01/P2000N R19/0650VP2000 BCFG NSC 05/04 Q1006=
201206130050 METAR ESMX 130050Z 00000KT 7000 BCFG NSC 06/05 Q1006=
201206130020 METAR ESMX 130020Z 00000KT 7000 BCFG NSC 06/05 Q1006=
201206122350 METAR ESMX 122350Z 00000KT 9999 SCT035 07/06 Q1006=
201206122320 METAR ESMX 122320Z 00000KT 9999 FEW037 06/05 Q1006=
201206122250 METAR ESMX 122250Z 00000KT CAVOK 07/07 Q1006=
201206122220 METAR ESMX 122220Z 00000KT 9999 FEW041 07/06 Q1006=
201206122150 METAR ESMX 122150Z VRB01KT 9999 FEW040 08/06 Q1006=
201206122120 METAR ESMX 122120Z 20001KT 9999 FEW040 09/08 Q1006=
201206122050 METAR ESMX 122050Z VRB01KT CAVOK 10/08 Q1006=
201206122020 METAR ESMX 122020Z 00000KT CAVOK 11/09 Q1005=
201206121950 METAR ESMX 121950Z 20001KT CAVOK 12/09 Q1005=
201206121920 METAR ESMX 121920Z VRB01KT CAVOK 14/10 Q1005=
201206121850 METAR ESMX 121850Z 08001KT 9999 FEW035 14/10 Q1005=
201206121820 METAR ESMX 121820Z VRB02KT 9999 FEW035 15/09 Q1005=
201206121750 METAR ESMX 121750Z 08003KT 030V120 9999 FEW035 16/08 Q1005=
201206121720 METAR ESMX 121720Z VRB02KT 9999 FEW040 17/09 Q1005=
201206121650 METAR ESMX 121650Z 03003KT 340V080 9999 FEW039 17/08 Q1005=
201206121620 METAR ESMX 121620Z 02005KT 340V050 9999 SCT038 17/08 Q1005=
201206121550 METAR ESMX 121550Z 02005KT 290V050 9999 FEW035 17/08 Q1005=
201206121520 METAR ESMX 121520Z 36006KT 330V030 9999 SCT035 17/09 Q1005=
201206121450 METAR ESMX 121450Z 02005KT 320V060 9999 SCT042 16/08 Q1005=
201206121420 METAR ESMX 121420Z VRB04KT 9999 BKN035 17/08 Q1005=
201206121350 METAR ESMX 121350Z 34005KT 290V010 9999 BKN035 16/09 Q1005=
201206121320 METAR ESMX 121320Z 32006KT 280V010 9999 FEW027 BKN033 15/08 Q1005=
201206121250 METAR ESMX 121250Z 30004KT 250V360 9999 BKN035 15/08 Q1005=
201206121220 METAR ESMX 121220Z VRB02KT 9999 BKN029 15/09 Q1005=
201206121150 METAR ESMX 121150Z 36004KT 320V040 9999 SCT026 BKN032 14/08 Q1005=
201206121120 METAR ESMX 121120Z 36004KT 330V030 9999 OVC025 14/08 Q1005=
201206121050 METAR ESMX 121050Z 26004KT 190V310 9999 FEW024 OVC029 14/08 Q1005=
201206121020 METAR ESMX 121020Z VRB01KT 9999 OVC028 14/07 Q1005=
201206120950 METAR ESMX 120950Z 34004KT 300V050 9999 OVC025 13/08 Q1005=
201206120920 METAR ESMX 120920Z 34005KT 280V020 9999 OVC023 13/08 Q1005=
201206120850 METAR ESMX 120850Z 31005KT 270V010 9999 OVC020 13/08 Q1005=
201206120820 METAR ESMX 120820Z 33003KT 280V010 9999 OVC023 13/08 Q1004=
201206120750 METAR ESMX 120750Z 31005KT 280V350 9999 OVC022 13/08 Q1004=
201206120720 METAR ESMX 120720Z 35004KT 310V030 9999 FEW016 SCT018 OVC024 12/08 Q1004=
201206120650 METAR ESMX 120650Z 32004KT 290V360 9999 FEW014 OVC021 12/09 Q1004=
201206120620 METAR ESMX 120620Z 31003KT 260V350 9999 FEW010 OVC023 12/09 Q1004=
201206120550 METAR ESMX 120550Z 31004KT 290V360 9999 FEW004 OVC022 11/10 Q1004=
201206120520 METAR ESMX 120520Z 29003KT 250V340 9999 OVC021 11/10 Q1004=
201206120450 METAR ESMX 120450Z VRB02KT 9999 BKN022 10/09 Q1004=
201206120420 METAR ESMX 120420Z VRB01KT 9999 OVC022 10/09 Q1004=
201206120350 METAR ESMX 120350Z 00000KT 9999 BKN020 09/09 Q1004=
201206120320 METAR ESMX 120320Z AUTO 26001KT 9999NDV OVC020/// 08/08 Q1004=
201206120250 METAR ESMX 120250Z AUTO 29002KT 9000NDV OVC019/// 08/07 Q1004=
201206120220 METAR ESMX 120220Z AUTO 30002KT 9999NDV OVC017/// 07/07 Q1004=
201206120150 METAR ESMX 120150Z AUTO VRB02KT 8000NDV BR FEW015/// OVC018/// 07/06 Q1004=
201206120120 METAR ESMX 120120Z AUTO 24003KT 9999NDV BR OVC015/// 06/06 Q1004=
201206120050 METAR ESMX 120050Z AUTO 24003KT 7000NDV BR NCD 05/04 Q1004=
201206120020 METAR ESMX 120020Z AUTO 22003KT 0400NDV R01/P2000N R19/P2000D NCD 06/06 Q1004=
201206112350 METAR ESMX 112350Z 19002KT 9999 BCFG NSC 06/06 Q1004=
201206112320 METAR ESMX 112320Z 25001KT 1500 R19/2000 BCFG NSC 06/06 Q1004=
201206112250 METAR ESMX 112250Z 21001KT 0750 R01/P2000N R19/P2000 MIFG NSC 08/07 Q1004=
201206112220 METAR ESMX 112220Z 27001KT 8000 FEW015 08/07 Q1004=
201206112150 METAR ESMX 112150Z 28002KT 9999 FEW015 09/07 Q1004=
201206112120 METAR ESMX 112120Z VRB02KT 9999 FEW014 10/09 Q1004=
201206112050 METAR ESMX 112050Z 26004KT 9999 SCT013 10/09 Q1004=
201206112020 METAR ESMX 112020Z 28002KT 9999 BKN027 11/10 Q1004=
201206111950 METAR ESMX 111950Z 25003KT 9999 BKN025 12/10 Q1004=
201206111920 METAR ESMX 111920Z 28003KT 250V320 9999 BKN028 12/10 Q1004=
201206111850 METAR ESMX 111850Z 28005KT 250V310 9999 FEW016 SCT030 13/10 Q1004=
201206111820 METAR ESMX 111820Z 28005KT 250V320 9999 FEW017 BKN035 13/10 Q1004=
201206111750 METAR ESMX 111750Z 27005KT 9999 SCT018 14/10 Q1004=
201206111720 METAR ESMX 111720Z 27009KT 240V310 9999 FEW030 SCT040 15/10 Q1003=
201206111650 METAR ESMX 111650Z 29009KT 250V320 9999 FEW017 SCT058 BKN075 15/11 Q1003=
201206111620 METAR ESMX 111620Z 28006KT 250V320 9999 FEW030 SCT050 15/12 Q1003=
201206111550 METAR ESMX 111550Z VRB02KT 9999 FEW015 SCT050 15/13 Q1003=
201206111520 METAR ESMX 111520Z VRB02KT 7000 FEW030 14/12 Q1003=
201206111450 METAR ESMX 111450Z 24003KT 200V280 9999 FEW025 FEW030CB 14/11 Q1003 RESHRA=
201206111420 METAR ESMX 111420Z 27005KT 9999 -SHRA FEW015 SCT040 14/12 Q1003=
201206111350 METAR ESMX 111350Z 21005KT 190V250 9000 -SHRA FEW015 SCT040 13/11 Q1004=
201206111320 METAR ESMX 111320Z 22006KT 9999 -SHRA FEW013 SCT032CB BKN055 14/11 Q1004=
201206111250 METAR ESMX 111250Z 24008KT 9999 -SHRA FEW024 SCT032CB 14/11 Q1004=
201206111220 METAR ESMX 111220Z 25007KT 9999 -SHRA SCT015 SCT035CB 15/12 Q1004 RESHRA=
201206111150 METAR ESMX 111150Z 26005KT 220V290 9999 -SHRA FEW019 SCT032CB 13/11 Q1004=
201206111120 METAR COR ESMX 111120Z 21008KT 170V240 9999 SHRA FEW015 SCT033CB 16/12 Q1003=
201206111050 METAR ESMX 111050Z 21007KT 9999 -SHRA FEW012 SCT045CB 14/11 Q1004=
201206111020 METAR ESMX 111020Z 22006KT 190V250 9999 -SHRA FEW013 SCT040CB 14/12 Q1003=
201206110950 METAR ESMX 110950Z 22007KT 9999 SHRA FEW013 SCT058CB 13/11 Q1004=
201206110920 METAR COR ESMX 110920Z 21007KT 9999 FEW014 SCT056CB BKN071 14/12 Q1004 RESHRA=
201206110850 METAR ESMX 110850Z 21004KT 160V250 9999 SCT035 13/12 Q1004 RERA=
201206110820 METAR ESMX 110820Z 21004KT 180V240 4900 RA FEW034 BKN052 12/10 Q1004=
201206110750 METAR ESMX 110750Z 20005KT 160V250 9999 FEW015 BKN029 14/10 Q1004=
201206110720 METAR ESMX 110720Z 21007KT 9999 FEW014 SCT022 BKN025 13/10 Q1004=
201206110650 METAR ESMX 110650Z 19007KT 9999 SCT010 BKN024 13/10 Q1004=
201206110620 METAR ESMX 110620Z 21007KT 180V240 9999 BKN009 13/10 Q1004=
201206110550 METAR ESMX 110550Z 20006KT 160V230 9999 FEW008 BKN010 13/11 Q1004=
201206110520 METAR ESMX 110520Z 20007KT 160V220 9999 FEW008 BKN010 12/10 Q1004=
201206110450 METAR ESMX 110450Z 20007KT 9999 SCT006 BKN012 12/10 Q1004=
201206110420 METAR ESMX 110420Z 19007KT 9999 OVC006 11/10 Q1004=
201206110350 METAR ESMX 110350Z 19007KT 9999 SCT007 OVC010 11/10 Q1004=
201206110320 METAR ESMX 110320Z AUTO 21007KT 9999NDV FEW008/// SCT010/// BKN013/// 11/10 Q1004=
201206110250 METAR ESMX 110250Z AUTO 18006KT 9999NDV FEW008/// BKN010/// OVC033/// 11/10 Q1004=
201206110220 METAR ESMX 110220Z AUTO 19005KT 9999NDV FEW007/// OVC009/// 11/10 Q1005=
201206110150 METAR ESMX 110150Z AUTO 16004KT 9999NDV FEW017/// SCT020/// BKN024/// 11/09 Q1005=
201206110120 METAR ESMX 110120Z AUTO 18004KT 9999NDV BKN018/// BKN053/// 11/09 Q1005=
201206110050 METAR ESMX 110050Z AUTO 20005KT 9999NDV SCT019/// BKN059/// 11/09 Q1005=
201206110020 METAR ESMX 110020Z AUTO 18008KT 9999NDV FEW022/// OVC054/// 11/10 Q1005=
201206102350 METAR ESMX 102350Z AUTO 18007KT 9999NDV FEW023/// OVC047/// 12/10 Q1005=
201206102320 METAR ESMX 102320Z AUTO 19006KT 140V220 9999NDV FEW011/// OVC045/// 12/10 Q1005=
201206102250 METAR ESMX 102250Z 18005KT 140V200 9999 FEW013 SCT017 BKN035 12/10 Q1005=
201206102220 METAR ESMX 102220Z 18005KT 150V210 9999 FEW012 SCT014 BKN016 12/10 Q1005=
201206102150 METAR ESMX 102150Z 18005KT 9999 FEW015 OVC018 12/10 Q1005=
201206102120 METAR ESMX 102120Z 17005KT 130V200 9999 FEW013 BKN018 OVC022 12/10 Q1006=
201206102050 METAR ESMX 102050Z 16005KT 110V190 9999 FEW015 SCT018 BKN026 12/10 Q1006=
201206102020 METAR ESMX 102020Z 18005KT 150V210 9999 FEW018 SCT027 BKN032 12/10 Q1006=
201206101950 METAR ESMX 101950Z 18006KT 150V210 9999 FEW019 BKN042 13/10 Q1006=
201206101920 METAR ESMX 101920Z 17003KT 130V200 9999 FEW020 SCT040 BKN080 13/10 Q1006=
201206101850 METAR ESMX 101850Z 18006KT 9999 FEW042 BKN049 13/10 Q1006 RESHRA=
201206101820 METAR ESMX 101820Z 18010KT 5000 -SHRA FEW020CB BKN040 12/10 Q1006 REDZ=
201206101750 METAR ESMX 101750Z 19010KT 9999 FEW020 BKN026 14/09 Q1006=
201206101720 METAR ESMX 101720Z 19010KT 9999 FEW023 BKN052 14/09 Q1006=
201206101650 METAR ESMX 101650Z 19012KT 9999 FEW019 SCT027 BKN043 14/10 Q1006=
201206101620 METAR ESMX 101620Z 19010KT 9999 FEW026 SCT034 BKN041 15/09 Q1006=
201206101550 METAR ESMX 101550Z 18010KT 150V220 9999 FEW025 SCT031 BKN041 15/09 Q1006=
201206101520 METAR ESMX 101520Z 19010KT 9999 FEW029 BKN034 15/09 Q1006=
201206101450 METAR ESMX 101450Z 18009KT 150V220 9999 FEW031 SCT036 BKN042 15/08 Q1006=
201206101420 METAR ESMX 101420Z 18010KT 150V210 9999 FEW043 SCT049 BKN058 16/09 Q1006=
201206101350 METAR ESMX 101350Z 18010KT 150V220 9999 FEW023 BKN041 15/08 Q1007=
201206101320 METAR ESMX 101320Z 20012KT 160V240 9999 BKN037 15/09 Q1007=
201206101250 METAR ESMX 101250Z 17011KT 120V200 9999 FEW037 SCT047 BKN066 17/08 Q1007=
201206101220 METAR ESMX 101220Z 19013KT 150V210 9999 FEW041 SCT056 BKN070 17/07 Q1007=
201206101150 METAR ESMX 101150Z AUTO 20010KT 150V250 9999NDV FEW036/// SCT060/// 17/07 Q1007=
201206101120 METAR ESMX 101120Z AUTO 21011KT 9999NDV FEW037/// SCT042/// BKN065/// 17/07 Q1007=
201206101050 METAR ESMX 101050Z AUTO 18011KT 9999NDV FEW037/// SCT042/// BKN063/// 17/08 Q1007=
201206101020 METAR ESMX 101020Z AUTO 18010KT 140V220 9999NDV FEW035/// 18/07 Q1007=
201206100950 METAR ESMX 100950Z AUTO 19011KT 150V230 9999NDV FEW033/// SCT059/// BKN081/// 17/08 Q1008=
201206100920 METAR ESMX 100920Z AUTO 19011KT 140V220 9999NDV FEW030/// BKN051/// 16/08 Q1008=
201206100850 METAR ESMX 100850Z AUTO 19011KT 9999NDV FEW027/// SCT033/// BKN045/// 15/08 Q1008=
201206100820 METAR ESMX 100820Z AUTO 18012KT 9999NDV FEW028/// SCT036/// BKN095/// 15/09 Q1008=
201206100750 METAR ESMX 100750Z AUTO 20013KT 170V240 9999NDV FEW029/// SCT045/// BKN098/// 15/08 Q1008=
201206100720 METAR ESMX 100720Z AUTO 19010KT 170V230 9999NDV FEW025/// SCT030/// BKN037/// 15/08 Q1008=
201206100650 METAR ESMX 100650Z 19010KT 150V210 9999 SCT025 BKN095 14/08 Q1008=
201206100620 METAR ESMX 100620Z 20010KT 160V240 9999 SCT025 BKN092 15/08 Q1008=
201206100550 METAR ESMX 100550Z 19009KT 160V220 9999 FEW020 SCT087 14/08 Q1008=
201206100520 METAR ESMX 100520Z 18008KT 9999 FEW020 BKN080 13/08 Q1008=
201206100450 METAR ESMX 100450Z 19007KT 9999 FEW032 BKN055 11/09 Q1008 REDZ=
201206100420 METAR ESMX 100420Z AUTO 19010KT 150V210 9999NDV SCT030/// BKN041/// OVC064/// 11/08 Q1008=
201206100350 METAR ESMX 100350Z AUTO 19006KT 9999NDV FEW023/// SCT048/// BKN056/// 11/08 Q1008=
201206100320 METAR ESMX 100320Z AUTO 17006KT 9999NDV FEW022/// SCT033/// OVC039/// 11/08 Q1008=
201206100250 METAR ESMX 100250Z AUTO 19006KT 9999NDV SCT020/// BKN027/// OVC033/// 11/08 Q1008=
201206100220 METAR ESMX 100220Z AUTO 18006KT 9999NDV FEW022/// SCT025/// BKN035/// 11/08 Q1008=
201206100150 METAR ESMX 100150Z AUTO 20007KT 9999NDV SCT021/// OVC051/// 11/08 Q1008=
201206100120 METAR ESMX 100120Z AUTO 19006KT 9999NDV BKN052/// BKN100/// 11/08 Q1008=
201206100050 METAR ESMX 100050Z AUTO 19005KT 9999NDV FEW034/// OVC059/// 11/08 Q1009=
201206100020 METAR ESMX 100020Z AUTO 20005KT 9999NDV FEW033/// SCT060/// BKN100/// 10/08 Q1009=
201206092350 METAR ESMX 092350Z AUTO 20005KT 9999NDV FEW033/// OVC046/// 11/08 Q1009=
201206092320 METAR ESMX 092320Z AUTO 19005KT 9999NDV FEW033/// SCT049/// OVC090/// 11/08 Q1009=
201206092250 METAR ESMX 092250Z AUTO 18004KT 9999NDV FEW028/// OVC089/// 11/08 Q1009=
201206092220 METAR ESMX 092220Z AUTO 16004KT 9999NDV FEW029/// OVC093/// 11/08 Q1009=
201206092150 METAR ESMX 092150Z AUTO 18002KT 9999NDV OVC091/// 11/08 Q1009=
201206092120 METAR ESMX 092120Z AUTO 19003KT 9999NDV BKN089/// 11/07 Q1009=
201206092050 METAR ESMX 092050Z AUTO 19003KT 9999NDV SCT094/// 11/07 Q1009=
201206092020 METAR ESMX 092020Z AUTO 24005KT 210V300 9999NDV OVC094/// 12/07 Q1009=
201206091950 METAR ESMX 091950Z AUTO 25006KT 9999NDV SCT069/// BKN094/// 12/07 Q1009=
201206091920 METAR ESMX 091920Z AUTO 26008KT 230V310 9999NDV OVC077/// 13/06 Q1009=
201206091850 METAR ESMX 091850Z AUTO 26007KT 220V280 9999NDV BKN088/// 14/07 Q1008=
201206091820 METAR ESMX 091820Z AUTO 27010KT 9999NDV BKN084/// 15/06 Q1008=
201206091750 METAR ESMX 091750Z AUTO 25010KT 9999NDV BKN084/// 16/06 Q1008=
201206091720 METAR ESMX 091720Z AUTO 26008KT 9999NDV BKN080/// 15/06 Q1008=
201206091650 METAR ESMX 091650Z AUTO 23011KT 200V260 9999NDV FEW046/// SCT083/// 15/07 Q1007=
201206091620 METAR ESMX 091620Z AUTO 23013KT 200V260 9999NDV FEW059/// 17/05 Q1007=
201206091550 METAR ESMX 091550Z AUTO 20011KT 170V280 9999NDV FEW064/// 18/04 Q1007=
201206091520 METAR ESMX 091520Z AUTO 21012KT 9999NDV FEW050/// BKN080/// 19/05 Q1007=
201206091450 METAR ESMX 091450Z AUTO 20012KT 9999NDV FEW051/// SCT075/// 17/08 Q1007 RESHRA=
201206091420 METAR ESMX 091420Z AUTO 19006KT 160V230 9999NDV RA FEW019/// SCT059/// 16/09 Q1007=
201206091350 METAR ESMX 091350Z AUTO 22014KT 9999NDV DZ FEW041/// SCT077/// 15/09 Q1007=
201206091320 METAR ESMX 091320Z AUTO 21011KT 160V240 9999NDV FEW067/// 19/08 Q1007=
201206091250 METAR ESMX 091250Z AUTO 24009KT 210V280 9999NDV FEW030/// SCT063/// BKN097/// 16/10 Q1007=
201206091220 METAR ESMX 091220Z AUTO 22009KT 9999NDV FEW061/// 18/08 Q1007=
201206091150 METAR ESMX 091150Z AUTO 24009KT 9999NDV FEW024/// SCT075/// 18/06 Q1007=
201206091120 METAR ESMX 091120Z AUTO 21013KT 160V250 9999NDV FEW040/// SCT053/// 20/07 Q1007=
201206091050 METAR ESMX 091050Z AUTO 20013KT 9999NDV FEW036/// 20/09 Q1007=
201206091020 METAR ESMX 091020Z AUTO 22009KT 190V260 9999NDV FEW029/// SCT036/// 18/10 Q1007=
201206090950 METAR ESMX 090950Z AUTO 19009KT 150V220 9999NDV FEW027/// SCT034/// 17/11 Q1007=
201206090920 METAR ESMX 090920Z 23007KT 180V260 9999 FEW021 SCT027 17/10 Q1007=
201206090850 METAR ESMX 090850Z 21006KT 9999 SCT019 16/10 Q1007=
201206090820 METAR ESMX 090820Z 20005KT 170V230 9999 FEW009 SCT013 15/11 Q1007=
201206090750 METAR ESMX 090750Z 15004KT 100V190 9999 SCT007 BKN010 14/11 Q1008=
201206090720 METAR ESMX 090720Z VRB02KT 9999 R01/P2000N R19/P2000 FEW026 SCT044 BKN087 13/11 Q1008=
201206090650 METAR ESMX 090650Z VRB02KT 9999 FEW005 BKN038 BKN079 12/10 Q1007=
201206090620 METAR ESMX 090620Z 18003KT 140V200 9999 BKN005 BKN086 12/10 Q1007=
201206090550 METAR ESMX 090550Z 19003KT 160V220 9999 SCT004 BKN006 11/10 Q1007=
201206090520 METAR ESMX 090520Z 18003KT 9999 SCT004 BKN006 BKN081 11/10 Q1007=
201206090450 METAR ESMX 090450Z AUTO 19003KT 160V230 9999NDV SCT004/// BKN006/// BKN100/// 11/10 Q1007=
201206090420 METAR ESMX 090420Z AUTO 24005KT 200V260 9999NDV BKN004/// OVC007/// 11/10 Q1007=
201206090350 METAR ESMX 090350Z AUTO 26005KT 230V290 9999NDV OVC005/// 11/10 Q1006=
201206090320 METAR ESMX 090320Z AUTO 25005KT 210V280 9999NDV SCT005/// BKN008/// 11/10 Q1006=
201206090250 METAR ESMX 090250Z AUTO 25006KT 220V280 9999NDV FEW005/// OVC007/// 11/10 Q1006=
201206090220 METAR ESMX 090220Z AUTO 25005KT 210V280 9999NDV BKN005/// BKN009/// 11/10 Q1006=
201206090150 METAR ESMX 090150Z AUTO 24008KT 9999NDV BKN004/// OVC008/// 11/10 Q1006=
201206090120 METAR ESMX 090120Z AUTO 24006KT 190V280 9999NDV FEW004/// SCT006/// BKN007/// 11/10 Q1005=
201206090050 METAR ESMX 090050Z AUTO 23006KT 9999NDV SCT005/// BKN013/// 11/10 Q1005=
201206090020 METAR ESMX 090020Z AUTO 24007KT 200V270 9999NDV FEW006/// SCT010/// BKN012/// 12/11 Q1005=
201206082350 METAR ESMX 082350Z AUTO 25006KT 9999NDV FEW007/// SCT010/// BKN012/// 12/11 Q1005=
201206082320 METAR ESMX 082320Z AUTO 25006KT 210V280 9999NDV FEW006/// BKN010/// BKN016/// 12/11 Q1004=
201206082250 METAR ESMX 082250Z AUTO 24005KT 9999NDV FEW007/// SCT009/// BKN011/// 12/11 Q1004=
201206082220 METAR ESMX 082220Z AUTO 23006KT 9999NDV FEW008/// 12/11 Q1004=
201206082150 METAR ESMX 082150Z AUTO 22007KT 170V250 9999NDV FEW006/// SCT008/// BKN011/// 12/11 Q1004=
201206082120 METAR ESMX 082120Z AUTO 23006KT 9999NDV FEW007/// SCT008/// BKN010/// 12/11 Q1003=
201206082050 METAR ESMX 082050Z AUTO 22006KT 9999NDV FEW007/// SCT012/// BKN017/// 12/11 Q1003=
201206082020 METAR ESMX 082020Z AUTO 24006KT 210V280 9999NDV FEW005/// SCT007/// BKN011/// 12/11 Q1003=
201206081950 METAR ESMX 081950Z AUTO 19006KT 160V220 9000NDV BR FEW002/// BKN004/// BKN007/// 12/11 Q1003=
201206081920 METAR ESMX 081920Z 17005KT 140V200 5000 BR SCT002 OVC003 12/11 Q1003 REDZ=
201206081850 METAR ESMX 081850Z 18004KT 150V210 2500 DZ OVC003 12/11 Q1003 RESHRA=
201206081820 METAR ESMX 081820Z VRB02KT 3000 -RA OVC004 12/11 Q1003=
201206081750 METAR ESMX 081750Z 09003KT 020V150 9000 -DZ OVC006 12/11 Q1003=
201206081720 METAR ESMX 081720Z 07004KT 030V110 8000 -RA BKN006 12/11 Q1003=
201206081650 METAR ESMX 081650Z 07004KT 020V130 9999 FEW005 BKN007 OVC011 12/11 Q1003 RESHRA=
201206081620 METAR ESMX 081620Z 07006KT 010V140 5000 RA FEW005 SCT016 BKN028 12/11 Q1003=
201206081550 METAR ESMX 081550Z 11005KT 050V180 6000 RA SCT020 BKN027 BKN032 12/11 Q1004 REDZ=
201206081520 METAR ESMX 081520Z 07005KT 030V110 9999 -DZ FEW022 SCT026 BKN035 13/11 Q1004 RESHRA=
201206081450 METAR ESMX 081450Z 10004KT 060V150 6000 RA BKN021 13/11 Q1004=
201206081420 METAR ESMX 081420Z 11004KT 050V140 6000 -RA BKN023 13/11 Q1004=
201206081350 METAR ESMX 081350Z 13005KT 060V190 9999 FEW027 SCT034 BKN050 15/09 Q1005=
201206081320 METAR ESMX 081320Z 12006KT 030V180 9999 -DZ BKN035 16/09 Q1005=
201206081250 METAR ESMX 081250Z 11007KT 030V160 9999 BKN038 BKN067 16/08 Q1005=
201206081220 METAR ESMX 081220Z 13006KT 030V200 9999 BKN034 BKN043 16/08 Q1005=
201206081150 METAR ESMX 081150Z 13008KT 080V170 9999 BKN037 OVC068 17/08 Q1005=
201206081120 METAR ESMX 081120Z 15007KT 090V190 9999 OVC037 17/08 Q1005=
201206081050 METAR ESMX 081050Z 11007KT 060V190 9999 BKN036 17/08 Q1005=
201206081020 METAR ESMX 081020Z 13006KT 070V190 9999 BKN035 BKN060 17/08 Q1005=
201206080950 METAR ESMX 080950Z 15006KT 070V190 9999 BKN032 BKN039 17/08 Q1005=
201206080920 METAR ESMX 080920Z 12008KT 9999 BKN031 16/08 Q1005=
201206080850 METAR ESMX 080850Z 10006KT 050V190 9999 SCT030 BKN080 16/08 Q1006=
201206080820 METAR ESMX 080820Z 10006KT 050V180 9999 FEW030 BKN080 15/07 Q1006=
201206080750 METAR ESMX 080750Z 11006KT 060V170 9999 FEW030 BKN070 15/07 Q1006=
201206080720 METAR ESMX 080720Z VRB05KT 9999 FEW030 BKN080 14/07 Q1006=
201206080650 METAR ESMX 080650Z 10006KT 060V150 9999 BKN030 BKN080 14/07 Q1006=
201206080620 METAR ESMX 080620Z 07007KT 030V140 9999 SCT030 BKN100 13/07 Q1006=
201206080550 METAR ESMX 080550Z 09006KT 360V120 CAVOK 12/07 Q1006=
201206080520 METAR ESMX 080520Z 08005KT 050V160 CAVOK 11/07 Q1007=
201206080450 METAR ESMX 080450Z 05004KT 010V080 CAVOK 09/07 Q1007=
201206080420 METAR ESMX 080420Z 07004KT 030V100 9999 FEW033 08/07 Q1007=
201206080350 METAR ESMX 080350Z 06003KT 030V110 9999 SCT032 06/06 Q1007=
201206080320 METAR ESMX 080320Z AUTO VRB01KT 9999NDV NCD 03/03 Q1007=
201206080250 METAR ESMX 080250Z AUTO 04002KT 8000NDV BCFG NCD 02/02 Q1007=
201206080220 METAR ESMX 080220Z AUTO VRB01KT 0300NDV R01/0375V0650 R19/P2000N FG NCD 03/02 Q1007=
201206080150 METAR ESMX 080150Z AUTO 05002KT 1900NDV BR NCD 03/02 Q1007=
201206080120 METAR ESMX 080120Z AUTO VRB02KT 0650NDV R01/P2000N R19/P2000D NCD 03/03 Q1007=
201206080050 METAR ESMX 080050Z AUTO 07002KT 9999NDV FEW078/// 04/03 Q1008=
201206080020 METAR ESMX 080020Z AUTO 08001KT 9999NDV FEW077/// 03/03 Q1008=
201206072350 METAR ESMX 072350Z VRB01KT CAVOK 04/03 Q1008=
201206072320 METAR ESMX 072320Z 10002KT CAVOK 05/04 Q1008=
201206072250 METAR ESMX 072250Z VRB02KT CAVOK 05/04 Q1008=
201206072220 METAR ESMX 072220Z 12002KT CAVOK 06/04 Q1008=
201206072150 METAR ESMX 072150Z 11002KT CAVOK 07/05 Q1008=
201206072120 METAR ESMX 072120Z VRB02KT CAVOK 08/06 Q1008=
201206072050 METAR ESMX 072050Z VRB02KT CAVOK 09/07 Q1008=
201206072020 METAR ESMX 072020Z 10002KT CAVOK 10/07 Q1008=
201206071950 METAR ESMX 071950Z 12002KT CAVOK 11/07 Q1008=
201206071920 METAR COR ESMX 071920Z VRB01KT CAVOK 12/07 Q1008=
201206071850 METAR ESMX 071850Z VRB02KT 9999 SCT041 BKN057 12/07 Q1008=
201206071820 METAR ESMX 071820Z VRB02KT 9999 FEW039 OVC055 13/07 Q1008=
201206071750 METAR ESMX 071750Z VRB02KT 9999 FEW038 BKN054 13/07 Q1008=
201206071720 METAR ESMX 071720Z 13003KT 080V170 9999 FEW032 SCT037 BKN047 13/07 Q1008=
201206071650 METAR ESMX 071650Z VRB02KT 9999 FEW031 BKN037 13/06 Q1008=
201206071620 METAR ESMX 071620Z VRB02KT 9999 BKN030 13/06 Q1008=
201206071550 METAR ESMX 071550Z VRB02KT 9999 BKN031 13/06 Q1008=
201206071520 METAR ESMX 071520Z 10003KT 040V160 9999 FEW037 BKN053 13/06 Q1008=
201206071450 METAR ESMX 071450Z 10003KT 050V200 9999 FEW030 BKN055 14/06 Q1008=
201206071420 METAR ESMX 071420Z 12003KT 060V180 9999 FEW037 SCT043 BKN058 14/06 Q1008=
201206071350 METAR ESMX 071350Z VRB02KT 9999 BKN037 BKN046 14/06 Q1009=
201206071320 METAR ESMX 071320Z VRB02KT 9999 OVC033 13/06 Q1009=
201206071250 METAR ESMX 071250Z 17003KT 120V200 9999 FEW028 BKN034 13/06 Q1009=
201206071220 METAR ESMX 071220Z 17005KT 140V220 9999 FEW033 SCT040 BKN047 13/06 Q1009=
201206071150 METAR ESMX 071150Z VRB02KT 9999 BKN035 BKN084 13/06 Q1009=
201206071120 METAR ESMX 071120Z VRB01KT 9999 FEW027 SCT043 BKN051 13/06 Q1009=
201206071050 METAR ESMX 071050Z VRB01KT 9999 BKN036 13/06 Q1009=
201206071020 METAR ESMX 071020Z 12003KT 050V180 9999 FEW025 BKN044 12/06 Q1009=
201206070950 METAR ESMX 070950Z 14003KT 050V220 9999 FEW019 BKN045 12/06 Q1009=
201206070920 METAR ESMX 070920Z 14003KT 070V210 9999 FEW025 BKN045 12/05 Q1009=
201206070850 METAR ESMX 070850Z 14004KT 9999 SCT030 OVC060 12/05 Q1009=
201206070820 METAR ESMX 070820Z 12004KT 070V240 9999 FEW028 SCT032 BKN061 13/05 Q1009=
201206070750 METAR ESMX 070750Z VRB03KT 9999 FEW032 BKN055 12/05 Q1009=
201206070720 METAR ESMX 070720Z 17003KT 070V210 CAVOK 12/05 Q1009=
201206070650 METAR ESMX 070650Z 15003KT 070V200 CAVOK 11/06 Q1010=
201206070620 METAR ESMX 070620Z 16003KT 090V210 CAVOK 11/06 Q1010=
201206070550 METAR ESMX 070550Z VRB02KT CAVOK 10/06 Q1010=
201206070520 METAR ESMX 070520Z 19003KT CAVOK 10/06 Q1010=
201206070450 METAR ESMX 070450Z 18003KT CAVOK 09/06 Q1010=
201206070420 METAR ESMX 070420Z 19002KT 9999 FEW048 09/06 Q1009=
201206070350 METAR ESMX 070350Z 17002KT 9999 FEW048 08/06 Q1010=
201206070320 METAR ESMX 070320Z AUTO 16002KT 9999NDV NCD 07/05 Q1010=
201206070250 METAR ESMX 070250Z AUTO 17002KT 9999NDV NCD 07/04 Q1009=
201206070220 METAR ESMX 070220Z AUTO 15002KT 9999NDV NCD 06/04 Q1010=
201206070150 METAR ESMX 070150Z AUTO 17002KT 9999NDV NCD 07/04 Q1010=
201206070120 METAR ESMX 070120Z AUTO 18002KT 9999NDV NCD 07/05 Q1010=
201206070050 METAR ESMX 070050Z AUTO 19004KT 9999NDV NCD 08/04 Q1010=
201206070020 METAR ESMX 070020Z AUTO 19002KT 9999NDV NCD 06/04 Q1009=
201206062350 METAR ESMX 062350Z AUTO 16001KT 9999NDV SCT079/// 08/05 Q1010=
201206062320 METAR ESMX 062320Z 21002KT CAVOK 09/05 Q1010=
201206062250 METAR ESMX 062250Z 19002KT CAVOK 09/05 Q1010=
201206062220 METAR ESMX 062220Z 20003KT CAVOK 10/05 Q1010=
201206062150 METAR ESMX 062150Z 21003KT CAVOK 10/06 Q1010=
201206062120 METAR ESMX 062120Z 19003KT CAVOK 10/05 Q1010=
201206062050 METAR ESMX 062050Z 19003KT CAVOK 10/05 Q1010=
201206062020 METAR ESMX 062020Z 17002KT CAVOK 11/05 Q1010=
201206061950 METAR ESMX 061950Z 19003KT CAVOK 11/06 Q1009=
201206061920 METAR ESMX 061920Z 18001KT CAVOK 12/05 Q1009=
201206061850 METAR ESMX 061850Z 20003KT CAVOK 12/05 Q1009=
201206061820 METAR ESMX 061820Z 22003KT CAVOK 12/04 Q1009=
201206061750 METAR ESMX 061750Z 22003KT 180V250 CAVOK 13/04 Q1009=
201206061720 METAR ESMX 061720Z 22004KT CAVOK 13/04 Q1009=
201206061650 METAR ESMX 061650Z 22004KT 190V260 CAVOK 13/04 Q1009=
201206061620 METAR ESMX 061620Z 23005KT 210V270 CAVOK 13/04 Q1009=
201206061550 METAR ESMX 061550Z 23005KT CAVOK 13/04 Q1009=
201206061520 METAR ESMX 061520Z 27006KT CAVOK 13/05 Q1009=
201206061450 METAR ESMX 061450Z 27005KT 230V300 9999 FEW040 BKN065 14/04 Q1010=
201206061420 METAR ESMX 061420Z 23006KT 190V260 9999 SCT040 OVC065 14/05 Q1010=
201206061350 METAR ESMX 061350Z 24006KT 160V300 9999 BKN037 OVC067 14/04 Q1010=
201206061320 METAR ESMX 061320Z 24006KT 200V270 9999 SCT038 OVC065 14/04 Q1010=
201206061250 METAR ESMX 061250Z 25007KT 190V290 9999 FEW046 BKN063 14/03 Q1010=
201206061220 METAR ESMX 061220Z 29005KT 260V340 9999 FEW042 OVC052 14/04 Q1010=
201206061150 METAR ESMX 061150Z 27007KT 9999 OVC041 12/04 Q1010=
201206061120 METAR ESMX 061120Z 23007KT 180V250 9999 FEW036 BKN056 13/04 Q1010=
201206061050 METAR ESMX 061050Z 19008KT 9999 FEW027 BKN060 13/05 Q1010=
201206061020 METAR ESMX 061020Z 26006KT 210V300 9999 FEW045 OVC050 12/05 Q1010=
201206060950 METAR ESMX 060950Z 27008KT 230V310 9999 BKN040 11/04 Q1011=
201206060920 METAR ESMX 060920Z 29007KT 9999 FEW035 BKN050 12/04 Q1010=
201206060850 METAR ESMX 060850Z 22007KT 160V280 9999 FEW035 SCT050 13/04 Q1011=
201206060820 METAR ESMX 060820Z 24007KT 200V280 9999 FEW033 SCT048 12/04 Q1011=
201206060750 METAR ESMX 060750Z 27008KT 240V300 9999 FEW034 BKN040 12/04 Q1011=
201206060720 METAR ESMX 060720Z 23007KT 190V270 9999 BKN027 11/04 Q1011=
201206060650 METAR ESMX 060650Z 29009KT 250V320 9999 FEW023 SCT027 11/04 Q1011=
201206060620 METAR ESMX 060620Z 27009KT 240V330 9999 BKN020 10/05 Q1011=
201206060550 METAR ESMX 060550Z 26007KT 220V300 9999 FEW017 10/05 Q1011=
201206060520 METAR ESMX 060520Z 26006KT 220V300 CAVOK 09/05 Q1011=
201206060450 METAR ESMX 060450Z 23006KT 190V280 CAVOK 08/05 Q1011=
201206060420 METAR ESMX 060420Z 23006KT 200V260 CAVOK 07/05 Q1011=
201206060350 METAR ESMX 060350Z 23005KT CAVOK 06/04 Q1011=
201206060320 METAR ESMX 060320Z AUTO 23005KT 9999NDV NCD 05/03 Q1010=
201206060250 METAR ESMX 060250Z AUTO 20004KT 9999NDV NCD 04/03 Q1010=
201206060220 METAR ESMX 060220Z AUTO 22005KT 9999NDV NCD 03/02 Q1011=
201206060150 METAR ESMX 060150Z AUTO 24005KT 9999NDV NCD 04/03 Q1010=
201206060120 METAR ESMX 060120Z AUTO 23004KT 9999NDV FEW022/// 04/02 Q1011=
201206060050 METAR ESMX 060050Z 22004KT 9999 FEW023 04/02 Q1011=
201206060020 METAR ESMX 060020Z 22004KT 9999 FEW023 05/03 Q1011=
201206052350 METAR ESMX 052350Z 22004KT 9999 FEW024 SCT028 04/02 Q1011=
201206052320 METAR ESMX 052320Z 20003KT 9999 FEW024 SCT029 05/02 Q1011=
201206052250 METAR ESMX 052250Z 23003KT CAVOK 05/03 Q1011=
201206052220 METAR ESMX 052220Z 23004KT CAVOK 05/02 Q1011=
201206052120 METAR ESMX 052120Z 23005KT CAVOK 06/02 Q1011=
201206052050 METAR ESMX 052050Z 23005KT CAVOK 06/02 Q1011=
201206052020 METAR ESMX 052020Z 25006KT 210V280 CAVOK 08/03 Q1011=
201206051950 METAR ESMX 051950Z 26007KT 230V290 CAVOK 09/03 Q1010=
201206051920 METAR ESMX 051920Z 25006KT 210V290 9999 FEW035 09/03 Q1010=
201206051850 METAR ESMX 051850Z 26008KT 230V290 9999 FEW035 10/03 Q1010=
201206051820 METAR ESMX 051820Z 27007KT 220V300 9999 FEW032 11/04 Q1010=
201206051750 METAR ESMX 051750Z 26012KT 240V300 9999 FEW031 11/03 Q1010=
201206051720 METAR ESMX 051720Z 25010KT 210V280 9999 SCT049 11/04 Q1010=
201206051650 METAR ESMX 051650Z 25010KT 9999 SCT030 BKN050 11/05 Q1010=
201206051620 METAR ESMX 051620Z 25011KT 220V290 9999 FEW030 BKN060 11/04 Q1009=
201206051550 METAR ESMX 051550Z 23012KT 200V260 9999 FEW028CB SCT043 BKN056 11/05 Q1009=
201206051520 METAR ESMX 051520Z 25011KT 220V280 9999 SCT025CB BKN047 BKN060 12/05 Q1009=
201206051450 METAR ESMX 051450Z 24009KT 9999 FEW025CB SCT040 BKN050 11/06 Q1009=
201206051420 METAR ESMX 051420Z 24012KT 220V290 9999 SCT024 BKN038 OVC054 12/06 Q1009=
201206051350 METAR ESMX 051350Z 24013KT 200V260 9999 FEW020CB SCT027 BKN050 12/06 Q1009=
201206051320 METAR ESMX 051320Z 25008KT 200V310 9999 FEW020CB SCT023 BKN031 11/07 Q1009=
201206051250 METAR ESMX 051250Z 25010KT 200V290 9999 FEW015CB BKN040 12/07 Q1008=
201206051220 METAR ESMX 051220Z 27010KT 240V310 9000 -SHRA FEW023 SCT027 BKN043 10/07 Q1009=
201206051150 METAR ESMX 051150Z 22012KT 170V260 9999 VCSH FEW026CB SCT035 BKN048 13/07 Q1008=
201206051120 METAR ESMX 051120Z 23007KT 170V270 9999 FEW030 BKN052 13/05 Q1008=
201206051050 METAR ESMX 051050Z 25008KT 210V290 9999 FEW025 BKN050 12/05 Q1008=
201206051020 METAR ESMX 051020Z 26008KT 220V290 9999 SCT025 BKN040 11/05 Q1008=
201206050950 METAR ESMX 050950Z 23010KT 9999 FEW030 OVC043 12/05 Q1008=
201206050920 METAR ESMX 050920Z 20011KT 9999 FEW027 BKN039 OVC048 12/04 Q1008=
201206050850 METAR ESMX 050850Z 24008KT 9999 FEW026 SCT037 BKN043 12/05 Q1008=
201206050820 METAR ESMX 050820Z 21008KT 9999 FEW022 BKN028 BKN045 11/06 Q1007=
201206050750 METAR ESMX 050750Z 23008KT 200V260 9999 SCT020 OVC030 11/06 Q1007=
201206050720 METAR ESMX 050720Z 26008KT 220V290 9999 SCT017 BKN034 11/06 Q1007=
201206050650 METAR ESMX 050650Z 26007KT 9999 FEW014 OVC035 10/07 Q1007=
201206050620 METAR ESMX 050620Z 25005KT 9999 FEW010 SCT021 BKN040 10/07 Q1007=
201206050550 METAR ESMX 050550Z 25006KT 9999 FEW007 SCT010 BKN020 10/07 Q1006=
201206050520 METAR ESMX 050520Z 25005KT 190V280 9999 OVC006 10/08 Q1006=
201206050450 METAR ESMX 050450Z 23003KT 200V260 9999 OVC003 09/08 Q1006=
201206050420 METAR ESMX 050420Z VRB02KT 8000 BR OVC003 09/08 Q1006=
201206050350 METAR ESMX 050350Z 23003KT 170V250 7000 BR BKN003 08/07 Q1006=
201206050320 METAR ESMX 050320Z AUTO 16001KT 9000NDV BR FEW006/// OVC008/// 07/07 Q1006=
201206050250 METAR ESMX 050250Z AUTO VRB01KT 3300NDV BR FEW005/// SCT008/// BKN063/// 07/06 Q1006=
201206050220 METAR ESMX 050220Z AUTO 20003KT 6000NDV BR FEW011/// 07/06 Q1006=
201206050150 METAR ESMX 050150Z AUTO 22003KT 9999NDV FEW008/// OVC009/// 08/06 Q1005=
201206050120 METAR ESMX 050120Z AUTO 20003KT 9999NDV SCT007/// BKN009/// BKN011/// 07/06 Q1005=
201206050050 METAR ESMX 050050Z AUTO 22005KT 9999NDV FEW008/// 07/06 Q1005=
201206050020 METAR ESMX 050020Z AUTO 22006KT 9999NDV FEW011/// SCT018/// 08/07 Q1005=
201206042350 METAR ESMX 042350Z 23005KT 9999 SCT012 BKN017 OVC019 08/06 Q1005=
201206042320 METAR ESMX 042320Z 21004KT 9999 SCT016 BKN022 08/06 Q1005 REDZ=
201206042250 METAR ESMX 042250Z 20004KT 9000 FEW018 SCT033 BKN038 08/06 Q1005=
201206042220 METAR ESMX 042220Z 19005KT 9999 FEW025 BKN030 OVC042 09/06 Q1005=
201206042150 METAR ESMX 042150Z 18005KT 9999 FEW023 SCT027 BKN032 09/06 Q1005=
201206042120 METAR ESMX 042120Z 19005KT 9999 FEW023 OVC064 09/06 Q1005=
201206042050 METAR ESMX 042050Z 19005KT 9999 FEW028 OVC061 09/06 Q1005=
201206042020 METAR ESMX 042020Z 18004KT 9999 FEW025 SCT036 OVC062 09/06 Q1005=
201206041950 METAR ESMX 041950Z 20004KT CAVOK 09/06 Q1005=
201206041920 METAR ESMX 041920Z 20005KT CAVOK 09/06 Q1005=
201206041850 METAR ESMX 041850Z 20006KT CAVOK 09/06 Q1005=
201206041820 METAR ESMX 041820Z 21009KT 190V250 9999 FEW024 SCT031 BKN063 10/06 Q1005=
201206041750 METAR ESMX 041750Z 22004KT 9999 FEW031 BKN061 10/07 Q1004=
201206041720 METAR ESMX 041720Z 22004KT 190V250 9999 -RA FEW043 BKN060 10/07 Q1004=
201206041650 METAR ESMX 041650Z 20004KT 9999 VCSH FEW029CB BKN060 10/07 Q1004=
201206041620 METAR ESMX 041620Z 21011KT 9999 VCSH FEW027CB SCT040 BKN054 10/06 Q1004 RERA=
201206041550 METAR ESMX 041550Z 21009KT 9999 VCSH FEW027CB BKN054 12/05 Q1004=
201206041520 METAR ESMX 041520Z 23010KT 200V270 9999 FEW024 SCT030 BKN055 11/05 Q1004=
201206041450 METAR ESMX 041450Z 21010KT 9999 VCSH FEW023CB SCT027 BKN039 11/05 Q1004=
201206041420 METAR ESMX 041420Z 23008KT 200V270 9999 FEW019CB SCT031 BKN044 11/06 Q1004 RERA=
201206041350 METAR ESMX 041350Z 24010KT 200V260 9999 FEW024 BKN051 11/05 Q1004=
201206041320 METAR ESMX 041320Z 21013KT 9999 FEW026 SCT040 OVC049 11/05 Q1004=
201206041250 METAR ESMX 041250Z 23011KT 200V260 9999 FEW028 BKN054 12/05 Q1004=
201206041220 METAR ESMX 041220Z 21011KT 160V240 9999 BKN030 OVC055 12/05 Q1004=
201206041150 METAR ESMX 041150Z 20011KT 9999 FEW029 SCT046 BKN053 12/05 Q1004=
201206041120 METAR ESMX 041120Z 22011KT 9999 FEW029 SCT038 OVC052 11/04 Q1004=
201206041050 METAR ESMX 041050Z 21011KT 9999 FEW045 12/05 Q1003=
201206041020 METAR ESMX 041020Z 21011KT 170V240 9999 FEW031 BKN054 12/04 Q1003=
201206040950 METAR ESMX 040950Z 21009KT 9999 FEW029 SCT049 12/04 Q1003=
201206040920 METAR ESMX 040920Z 23008KT 200V280 9999 FEW028 BKN045 11/05 Q1003=
201206040850 METAR ESMX 040850Z 23009KT 190V250 9999 FEW031 BKN041 11/03 Q1003=
201206040820 METAR ESMX 040820Z 22009KT 190V250 9999 SCT029 BKN041 11/04 Q1003=
201206040750 METAR ESMX 040750Z 22008KT 180V250 9999 FEW027 BKN031 11/03 Q1003=
201206040720 METAR ESMX 040720Z 23007KT 190V270 9999 FEW025 BKN030 11/04 Q1003=
201206040650 METAR ESMX 040650Z 22009KT 9999 FEW020 11/05 Q1003=
201206040620 METAR ESMX 040620Z 22007KT 190V250 9999 FEW020 SCT049 10/05 Q1003=
201206040550 METAR ESMX 040550Z 22007KT 190V250 CAVOK 09/05 Q1003=
201206040520 METAR ESMX 040520Z 22005KT 190V250 CAVOK 08/05 Q1003=
201206040450 METAR ESMX 040450Z 21006KT CAVOK 07/04 Q1003=
201206040420 METAR ESMX 040420Z 19004KT 160V260 CAVOK 06/04 Q1003=
201206040350 METAR ESMX 040350Z 20004KT CAVOK 06/03 Q1003=
201206040320 METAR ESMX 040320Z AUTO 23005KT 9999NDV BKN064/// 06/03 Q1003=
201206040250 METAR ESMX 040250Z AUTO 22005KT 9999NDV OVC064/// 06/03 Q1002=
201206040220 METAR ESMX 040220Z AUTO 22005KT 9999NDV OVC064/// 05/03 Q1002=
201206040150 METAR ESMX 040150Z AUTO 20005KT 9999NDV OVC063/// 05/03 Q1002=
201206040120 METAR ESMX 040120Z AUTO 21005KT 9999NDV OVC062/// 05/02 Q1003=
201206040050 METAR ESMX 040050Z AUTO 21005KT 9999NDV OVC061/// 06/02 Q1003=
201206040020 METAR ESMX 040020Z AUTO 22005KT 9999NDV OVC062/// 06/02 Q1002=
201206032350 METAR ESMX 032350Z AUTO 22005KT 9999NDV OVC060/// 06/02 Q1003=
201206032320 METAR ESMX 032320Z 22005KT CAVOK 07/02 Q1003=
201206032250 METAR ESMX 032250Z 22005KT 9999 OVC061 07/01 Q1003=
201206032220 METAR ESMX 032220Z 23005KT CAVOK 07/01 Q1003=
201206032150 METAR ESMX 032150Z 22005KT CAVOK 07/01 Q1003=
201206032120 METAR ESMX 032120Z 23005KT CAVOK 07/00 Q1003=
201206032050 METAR ESMX 032050Z 23005KT CAVOK 06/M00 Q1002=
201206032020 METAR ESMX 032020Z 22005KT CAVOK 06/M01 Q1002=
201206031950 METAR ESMX 031950Z 23005KT CAVOK 07/M01 Q1002=
201206031920 METAR ESMX 031920Z 24005KT CAVOK 08/M02 Q1002=
201206031850 METAR ESMX 031850Z 23007KT 200V260 CAVOK 09/M02 Q1002=
201206031820 METAR ESMX 031820Z 23008KT 200V270 CAVOK 10/M02 Q1002=
201206031750 METAR ESMX 031750Z 25009KT 210V290 CAVOK 11/M03 Q1001=
201206031720 METAR ESMX 031720Z 24010KT 210V280 CAVOK 12/M03 Q1001=
201206031650 METAR ESMX 031650Z 26014KT 230V290 CAVOK 12/M02 Q1001=
201206031620 METAR ESMX 031620Z 23012KT 200V270 CAVOK 12/M02 Q1001=
201206031550 METAR ESMX 031550Z 25011KT 220V290 9999 FEW026 SCT056 12/M02 Q1001=
201206031520 METAR ESMX 031520Z 25011KT 210V290 CAVOK 12/M01 Q1001=
201206031450 METAR ESMX 031450Z 26013KT 9999 FEW048 SCT070 13/00 Q1001=
201206031420 METAR ESMX 031420Z 27013KT 230V310 9999 FEW040 SCT071 13/M02 Q1001=
201206031350 METAR ESMX 031350Z 25013KT 210V280 9999 FEW030 SCT060 13/M01 Q1001=
201206031320 METAR ESMX 031320Z 27012KT 230V300 9999 FEW041 SCT065 13/M02 Q1001=
201206031250 METAR ESMX 031250Z 27014G24KT 220V320 9999 FEW025 SCT063 13/M02 Q1000=
201206031220 METAR ESMX 031220Z 25014KT 220V280 9999 FEW032 BKN066 14/M03 Q1000=
201206031150 METAR ESMX 031150Z AUTO 24013KT 200V280 9999NDV FEW058/// 13/M03 Q1000=
201206031120 METAR ESMX 031120Z AUTO 23015KT 170V270 9999NDV FEW024/// SCT068/// 14/M03 Q1000=
201206031050 METAR ESMX 031050Z AUTO 25015G25KT 200V290 9999NDV FEW064/// 13/M03 Q1000=
201206031020 METAR ESMX 031020Z AUTO 25014KT 210V290 9999NDV FEW062/// 13/M02 Q1000=
201206030950 METAR ESMX 030950Z AUTO 25011KT 210V280 9999NDV FEW042/// SCT068/// 13/M02 Q1000=
201206030920 METAR ESMX 030920Z AUTO 26013KT 230V290 9999NDV FEW057/// 13/M00 Q1000=
201206030850 METAR ESMX 030850Z AUTO 26012KT 210V280 9999NDV FEW051/// BKN062/// 11/M00 Q1000=
201206030820 METAR ESMX 030820Z AUTO 26012G24KT 210V300 9999NDV FEW049/// SCT068/// 11/M00 Q1000=
201206030750 METAR ESMX 030750Z AUTO 25014KT 220V280 9999NDV FEW044/// BKN053/// 11/00 Q1000=
201206030720 METAR ESMX 030720Z AUTO 24014KT 200V270 9999NDV FEW040/// SCT062/// 12/01 Q1000=
201206030650 METAR ESMX 030650Z AUTO 24014KT 210V280 9999NDV FEW028/// SCT052/// 11/03 Q1000=
201206030620 METAR ESMX 030620Z AUTO 25012G23KT 190V290 9999NDV FEW021/// SCT037/// 10/05 Q1000=
201206030550 METAR ESMX 030550Z AUTO 24011KT 210V280 9999NDV FEW016/// 10/06 Q1000=
201206030520 METAR ESMX 030520Z AUTO 24010KT 210V270 9999NDV FEW011/// 09/05 Q1000=
201206030450 METAR ESMX 030450Z AUTO 23009KT 9999NDV FEW008/// BKN010/// 08/05 Q1000=
201206030420 METAR ESMX 030420Z AUTO 23007KT 200V270 9999NDV FEW008/// BKN009/// 06/05 Q1000=
201206030350 METAR ESMX 030350Z AUTO 24008KT 9999NDV FEW009/// BKN013/// 05/04 Q1000=
201206030320 METAR ESMX 030320Z AUTO 23008KT 9999NDV FEW015/// SCT018/// 05/03 Q1000=
201206030250 METAR ESMX 030250Z AUTO 23008KT 9999NDV NCD 04/03 Q1000=
201206030220 METAR ESMX 030220Z AUTO 23008KT 9999NDV NCD 04/02 Q1000=
201206030150 METAR ESMX 030150Z AUTO 23008KT 9999NDV NCD 04/01 Q1001=
201206030120 METAR ESMX 030120Z AUTO 23008KT 9999NDV NCD 04/01 Q1001=
201206030050 METAR ESMX 030050Z AUTO 23007KT 9999NDV NCD 04/01 Q1001=
201206030020 METAR ESMX 030020Z AUTO 23007KT 9999NDV NCD 04/01 Q1001=
201206022350 METAR ESMX 022350Z AUTO 23007KT 9999NDV NCD 04/01 Q1002=
201206022320 METAR ESMX 022320Z AUTO 23006KT 9999NDV NCD 05/00 Q1002=
201206022250 METAR ESMX 022250Z AUTO 23006KT 9999NDV NCD 05/00 Q1002=
201206022220 METAR ESMX 022220Z AUTO 25007KT 9999NDV NCD 06/M00 Q1002=
201206022150 METAR ESMX 022150Z AUTO 25008KT 9999NDV NCD 06/M00 Q1002=
201206022120 METAR ESMX 022120Z AUTO 26007KT 9999NDV NCD 06/M01 Q1002=
201206022050 METAR ESMX 022050Z AUTO 26009KT 220V290 9999NDV NCD 07/M01 Q1003=
201206022020 METAR ESMX 022020Z AUTO 27011G27KT 240V310 9999NDV NCD 08/M01 Q1003=
201206021950 METAR ESMX 021950Z AUTO 28011KT 240V310 9999NDV FEW051/// 09/M01 Q1003=
201206021920 METAR ESMX 021920Z AUTO 32008KT 280V350 9999NDV FEW023/// BKN056/// BKN081/// 09/00 Q1003=
201206021850 METAR ESMX 021850Z AUTO 27010KT 240V320 9999NDV BKN058/// 10/M02 Q1003=
201206021820 METAR ESMX 021820Z AUTO 28008KT 250V320 9999NDV FEW078/// 10/M02 Q1003=
201206021750 METAR ESMX 021750Z AUTO 29010KT 230V310 9999NDV SCT080/// 11/M02 Q1003=
201206021720 METAR ESMX 021720Z 29011KT 250V330 9999 SCT045 SCT110 10/M02 Q1003=
201206021650 METAR ESMX 021650Z 29012KT 260V340 9999 FEW035CB SCT086 11/M02 Q1003=
201206021620 METAR ESMX 021620Z 28012KT 240V310 9999NDV FEW030CB SCT100 11/M02 Q1003=
201206021550 METAR ESMX 021550Z 28011KT 240V320 9999 FEW0035CB SCT080 11/M03 Q1002=
201206021520 METAR ESMX 021520Z 27010KT 230V300 9999 FEW035CB SCT060 12/M04 Q1002=
201206021450 METAR ESMX 021450Z AUTO 29012KT 250V350 9999NDV FEW098/// 13/M03 Q1002=
201206021420 METAR ESMX 021420Z AUTO 31015KT 250V340 9999NDV SCT068/// BKN099/// 12/M04 Q1003=
201206021350 METAR ESMX 021350Z AUTO 30013KT 250V340 9999NDV FEW074/// SCT090/// 13/M03 Q1002=
201206021320 METAR ESMX 021320Z AUTO 29014KT 260V330 9999NDV FEW065/// BKN077/// 12/M02 Q1003=
201206021250 METAR ESMX 021250Z AUTO 29016KT 230V320 9999NDV FEW028/// SCT081/// 13/M03 Q1002=
201206021220 METAR ESMX 021220Z AUTO 28012KT 250V330 9999NDV FEW070/// 13/M02 Q1003=
201206021150 METAR ESMX 021150Z AUTO 31013KT 270V330 9999NDV FEW084/// 12/M03 Q1003=
201206021120 METAR ESMX 021120Z AUTO 32012G23KT 290V350 9999NDV FEW064/// 11/M02 Q1003=
201206021050 METAR ESMX 021050Z AUTO 30007KT 240V330 9999NDV FEW053/// 10/01 Q1003 RERA=
201206021020 METAR ESMX 021020Z AUTO 28009KT 250V320 9999NDV FEW051/// SCT073/// BKN084/// 11/00 Q1003=
201206020950 METAR ESMX 020950Z AUTO 32012KT 290V350 9999NDV FEW051/// SCT068/// BKN085/// 10/M01 Q1003=
201206020920 METAR ESMX 020920Z 29011KT 9999 FEW044 SCT083 11/M00 Q1003=
201206020850 METAR ESMX 020850Z 31011KT 260V360 9999 FEW045 SCT060 BKN083 11/01 Q1003=
201206020820 METAR ESMX 020820Z 31011KT 280V020 9999 FEW039 10/02 Q1004=
201206020750 METAR COR ESMX 020750Z 29010KT 250V330 9999 FEW039 10/01 Q1004=
201206020720 METAR ESMX 020720Z 29008KT 250V340 CAVOK 10/03 Q1004=
201206020650 METAR ESMX 020650Z 30008KT 260V330 CAVOK 09/02 Q1004=
201206020620 METAR ESMX 020620Z 28007KT 260V340 CAVOK 08/04 Q1004=
201206020550 METAR ESMX 020550Z 28007KT 230V310 CAVOK 07/04 Q1004=
201206020520 METAR ESMX 020520Z AUTO 29007KT 9999NDV NCD 06/04 Q1004=
201206020450 METAR ESMX 020450Z AUTO 29007KT 260V320 9999NDV NCD 05/03 Q1004=
201206020420 METAR ESMX 020420Z AUTO 29007KT 9999NDV NCD 05/03 Q1004=
201206020350 METAR ESMX 020350Z AUTO 29007KT 260V320 9999NDV NCD 04/03 Q1004=
201206020320 METAR ESMX 020320Z AUTO 28007KT 9999NDV NCD 04/03 Q1004=
201206020250 METAR ESMX 020250Z AUTO 27008KT 9999NDV NCD 04/02 Q1004=
201206020220 METAR ESMX 020220Z AUTO 28008KT 9999NDV NCD 04/03 Q1004=
201206020150 METAR ESMX 020150Z AUTO 28008KT 9999NDV FEW079/// 04/03 Q1004=
201206020120 METAR ESMX 020120Z AUTO 29008KT 9999NDV SCT056/// 04/03 Q1004=
201206020050 METAR ESMX 020050Z AUTO 29007KT 9999NDV FEW089/// 04/03 Q1004=
201206020020 METAR ESMX 020020Z AUTO 31007KT 280V340 9999NDV NCD 05/03 Q1004=
201206012350 METAR ESMX 012350Z AUTO 31008KT 280V340 9999NDV FEW087/// 05/03 Q1004=
201206012320 METAR ESMX 012320Z AUTO 30007KT 270V330 9999NDV FEW056/// 04/03 Q1004=
201206012250 METAR ESMX 012250Z AUTO 30007KT 270V340 9999NDV NCD 04/03 Q1004=
201206012220 METAR ESMX 012220Z AUTO 31007KT 9999NDV NCD 05/04 Q1004=
201206012150 METAR ESMX 012150Z AUTO 30007KT 9999NDV NCD 05/04 Q1004=
201206012120 METAR ESMX 012120Z AUTO 31005KT 9999NDV FEW011/// SCT021/// 05/04 Q1004=
201206012050 METAR ESMX 012050Z AUTO 34010KT 320V020 9999NDV FEW036/// 06/04 Q1004=
201206012020 METAR ESMX 012020Z AUTO 35011KT 9999NDV FEW023/// 06/04 Q1004 REDZ=
201206011950 METAR ESMX 011950Z AUTO 35012KT 330V030 9999NDV -DZ FEW009/// SCT013/// BKN017/// 06/05 Q1004=
201206011920 METAR ESMX 011920Z AUTO 35013KT 9999NDV DZ FEW010/// SCT015/// BKN018/// 06/05 Q1003=
201206011850 METAR ESMX 011850Z 35012KT 9999 -RA FEW014 SCT024 BKN031 07/05 Q1003=
201206011820 METAR ESMX 011820Z 36011KT 9999 -RA FEW008 SCT012 BKN016 07/05 Q1003 REDZ=
201206011750 METAR ESMX 011750Z 35012KT 320V020 9999 -RA FEW007 SCT011 BKN022 07/06 Q1003=
201206011720 METAR ESMX 011720Z 36013KT 9999 -RA FEW007 BKN015 07/06 Q1002=
201206011650 METAR ESMX 011650Z 02011KT 9999 -RA FEW007 SCT010 BKN014 08/06 Q1002=
201206011620 METAR ESMX 011620Z 35010KT 9999 -RA SCT006 BKN029 08/07 Q1001=
201206011550 METAR ESMX 011550Z 36010KT 9999 -RA FEW007 BKN040 08/06 Q1001=
201206011520 METAR ESMX 011520Z 34009KT 300V010 9999 FEW010 OVC032 09/06 Q1001=
201206011450 METAR ESMX 011450Z 36012KT 9999 FEW008 SCT015CB BKN027 08/06 Q1001=
201206011420 METAR ESMX 011420Z 36006KT 320V030 9999 FEW014 SCT020CB BKN040 10/07 Q1001=
201206011350 METAR ESMX 011350Z 01004KT 340V040 9999 FEW005 SCT25CB 10/07 Q1000=
201206011320 METAR ESMX 011320Z 01003KT 9999 -RA FEW026 SCT035CB 09/07 Q1000=
201206011250 METAR ESMX 011250Z VRB02KT 4700 SHRA SCT018CB BKN025 08/06 Q1001=
201206011220 METAR ESMX 011220Z VRB03KT 7000 -TSRA FEW002 SCT027CB BKN034 08/06 Q1001=
