##########################################################
# Query made at 04/19/2024 21:27:24 UTC
# Time interval: from 04/01/2012 12:00  to 04/30/2012 12:59  UTC
##########################################################

##########################################################
# ESMX, Vaxjo (Sweden)
# WMO index: 02641. WIGOS ID: 0-20000-0-02648
# Latitude 56-51N. Longitude 014-50E. Altitude 199 m.
##########################################################

201204301250 METAR ESMX 301250Z 04004KT 320V110 CAVOK 19/06 Q1019=
201204301220 METAR ESMX 301220Z 02006KT 330V060 CAVOK 19/06 Q1019=
201204301150 METAR ESMX 301150Z 05006KT 010V120 CAVOK 19/06 Q1019=
201204301120 METAR ESMX 301120Z 04006KT 350V090 CAVOK 18/06 Q1019=
201204301050 METAR ESMX 301050Z 03006KT 320V070 CAVOK 18/06 Q1019=
201204301020 METAR ESMX 301020Z 35008KT 320V020 CAVOK 16/05 Q1019=
201204300950 METAR ESMX 300950Z 03007KT 350V070 CAVOK 16/05 Q1019=
201204300920 METAR ESMX 300920Z 06005KT 010V110 CAVOK 15/05 Q1019=
201204300850 METAR ESMX 300850Z 02006KT CAVOK 15/04 Q1019=
201204300820 METAR ESMX 300820Z 04006KT CAVOK 13/04 Q1019=
201204300750 METAR ESMX 300750Z 05007KT 360V090 CAVOK 12/03 Q1019=
201204300720 METAR ESMX 300720Z 06007KT 030V110 CAVOK 11/03 Q1018=
201204300650 METAR ESMX 300650Z 06007KT 020V100 CAVOK 10/02 Q1018=
201204300620 METAR ESMX 300620Z AUTO 06006KT 020V110 9999NDV NCD 09/01 Q1018=
201204300550 METAR ESMX 300550Z AUTO 05008KT 010V080 9999NDV NCD 08/01 Q1018=
201204300520 METAR ESMX 300520Z AUTO 05008KT 020V090 9999NDV NCD 07/00 Q1018=
201204300450 METAR ESMX 300450Z AUTO 04007KT 010V070 9999NDV NCD 06/M00 Q1018=
201204300420 METAR ESMX 300420Z AUTO 05007KT 020V080 9999NDV NCD 06/M00 Q1018=
201204300350 METAR ESMX 300350Z AUTO 07007KT 030V100 9999NDV NCD 06/M00 Q1017=
201204300320 METAR ESMX 300320Z AUTO 07006KT 020V110 9999NDV NCD 06/00 Q1017=
201204300250 METAR ESMX 300250Z AUTO 07008KT 030V100 9999NDV NCD 06/M00 Q1017=
201204300220 METAR ESMX 300220Z AUTO 06008KT 030V110 9999NDV NCD 06/M00 Q1017=
201204300150 METAR ESMX 300150Z AUTO 06008KT 020V110 9999NDV NCD 06/M01 Q1017=
201204300120 METAR ESMX 300120Z AUTO 06008KT 030V100 9999NDV NCD 07/M00 Q1017=
201204300050 METAR ESMX 300050Z AUTO 05006KT 010V120 9999NDV NCD 07/M01 Q1017=
201204300020 METAR ESMX 300020Z AUTO 07006KT 010V110 9999NDV NCD 07/M01 Q1017=
201204292350 METAR ESMX 292350Z 07008KT 010V120 CAVOK 07/M01 Q1017=
201204292320 METAR ESMX 292320Z 07007KT 020V110 CAVOK 08/M02 Q1017=
201204292250 METAR ESMX 292250Z 07007KT 020V120 CAVOK 07/M02 Q1017=
201204292220 METAR ESMX 292220Z 08007KT 030V120 CAVOK 08/M02 Q1017=
201204292150 METAR ESMX 292150Z 07006KT 020V100 CAVOK 07/M02 Q1017=
201204292120 METAR ESMX 292120Z 06007KT 020V120 CAVOK 07/M01 Q1017=
201204292050 METAR ESMX 292050Z 04007KT 010V110 CAVOK 07/M01 Q1017=
201204292020 METAR ESMX 292020Z 06009KT 020V100 CAVOK 08/M01 Q1017=
201204291950 METAR ESMX 291950Z 06009KT 020V110 CAVOK 08/M00 Q1017=
201204291920 METAR ESMX 291920Z 06010KT 010V110 CAVOK 09/M00 Q1017=
201204291850 METAR ESMX 291850Z 06009KT 030V110 CAVOK 09/00 Q1017=
201204291820 METAR ESMX 291820Z 06010KT 020V100 CAVOK 10/00 Q1017=
201204291750 METAR ESMX 291750Z 06007KT 030V130 CAVOK 10/01 Q1017=
201204291720 METAR ESMX 291720Z 07007KT 010V110 CAVOK 11/01 Q1017=
201204291650 METAR ESMX 291650Z 07009KT 020V120 CAVOK 11/01 Q1017=
201204291620 METAR ESMX 291620Z 07009KT 030V110 CAVOK 11/01 Q1017=
201204291550 METAR ESMX 291550Z 06010KT 020V110 CAVOK 11/01 Q1017=
201204291520 METAR ESMX 291520Z 05010KT 360V100 CAVOK 12/01 Q1017=
201204291450 METAR ESMX 291450Z 05012KT 020V110 CAVOK 12/00 Q1017=
201204291420 METAR ESMX 291420Z 05011KT 340V100 9999 FEW028 12/00 Q1016=
201204291350 METAR ESMX 291350Z 05012KT 010V090 CAVOK 12/M01 Q1017=
201204291320 METAR ESMX 291320Z AUTO 05011KT 020V080 9999NDV NCD 12/01 Q1018=
201204291250 METAR ESMX 291250Z AUTO 04014KT 9999NDV NCD 11/02 Q1017=
201204291220 METAR ESMX 291220Z AUTO 04013KT 360V070 9999NDV NCD 11/04 Q1017=
201204291150 METAR ESMX 291150Z AUTO 04008KT 9999NDV FEW090/// 11/02 Q1018=
201204291120 METAR ESMX 291120Z AUTO 05007KT 020V100 9999NDV FEW091/// 10/01 Q1018=
201204291050 METAR ESMX 291050Z AUTO 09005KT 030V150 9999NDV -RA FEW025/// SCT087/// 10/02 Q1018=
201204291020 METAR ESMX 291020Z AUTO 06008KT 360V110 9999NDV FEW082/// 11/M01 Q1018=
201204290950 METAR ESMX 290950Z AUTO 06006KT 360V110 9999NDV FEW055/// BKN089/// 11/02 Q1019=
201204290920 METAR ESMX 290920Z AUTO 04007KT 010V070 9999NDV SCT088/// 10/02 Q1019=
201204290850 METAR ESMX 290850Z AUTO 04007KT 010V070 9999NDV -RA FEW046/// 09/01 Q1019=
201204290820 METAR ESMX 290820Z AUTO 05008KT 9999NDV -RA FEW067/// 08/02 Q1018=
201204290750 METAR ESMX 290750Z AUTO 04007KT 020V080 9999NDV SCT090/// 09/M00 Q1018=
201204290720 METAR ESMX 290720Z AUTO 05007KT 010V110 9999NDV BKN090/// 09/00 Q1018=
201204290650 METAR ESMX 290650Z AUTO 05008KT 020V090 9999NDV SCT092/// 09/01 Q1018=
201204290620 METAR ESMX 290620Z AUTO 05008KT 020V080 9999NDV FEW098/// 08/02 Q1018=
201204290550 METAR ESMX 290550Z AUTO 04007KT 010V070 9999NDV FEW100/// SCT110/// 08/02 Q1018=
201204290520 METAR ESMX 290520Z AUTO 04008KT 010V080 9999NDV FEW098/// SCT100/// 08/02 Q1019=
201204290450 METAR ESMX 290450Z AUTO 03006KT 360V060 9999NDV SCT096/// 07/02 Q1019=
201204290420 METAR ESMX 290420Z AUTO 04007KT 010V070 9999NDV SCT100/// 07/03 Q1019=
201204290350 METAR ESMX 290350Z AUTO 02007KT 9999NDV NCD 07/03 Q1019=
201204290320 METAR ESMX 290320Z AUTO 03007KT 9999NDV NCD 06/03 Q1018=
201204290250 METAR ESMX 290250Z AUTO 03006KT 9999NDV NCD 07/03 Q1019=
201204290220 METAR ESMX 290220Z AUTO 03006KT 9999NDV NCD 07/03 Q1019=
201204290150 METAR ESMX 290150Z AUTO 03006KT 9999NDV FEW039/// 07/03 Q1019=
201204290120 METAR ESMX 290120Z AUTO 01006KT 9999NDV BKN040/// 06/04 Q1019=
201204290050 METAR ESMX 290050Z AUTO 36005KT 9999NDV SCT043/// 06/04 Q1020=
201204290020 METAR ESMX 290020Z AUTO 04005KT 360V060 9999NDV FEW053/// 07/03 Q1019=
201204282350 METAR ESMX 282350Z AUTO 03006KT 9999NDV SCT052/// 07/03 Q1019=
201204282320 METAR ESMX 282320Z AUTO 03005KT 9999NDV FEW054/// 07/03 Q1020=
201204282250 METAR ESMX 282250Z AUTO 03005KT 9999NDV FEW053/// 08/03 Q1019=
201204282220 METAR ESMX 282220Z AUTO 03006KT 9999NDV SCT053/// 08/03 Q1020=
201204282150 METAR ESMX 282150Z AUTO 03007KT 350V050 9999NDV OVC054/// 08/03 Q1019=
201204282120 METAR ESMX 282120Z AUTO 35006KT 9999NDV OVC056/// 08/03 Q1020=
201204282050 METAR ESMX 282050Z AUTO 01007KT 9999NDV OVC058/// 08/03 Q1020=
201204282020 METAR ESMX 282020Z AUTO 01006KT 9999NDV BKN060/// 08/03 Q1020=
201204281950 METAR ESMX 281950Z AUTO 02008KT 9999NDV BKN063/// 08/03 Q1019=
201204281920 METAR ESMX 281920Z AUTO 35006KT 9999NDV OVC065/// 09/04 Q1020=
201204281850 METAR ESMX 281850Z AUTO 36005KT 9999NDV BKN074/// 09/04 Q1019=
201204281820 METAR ESMX 281820Z AUTO 04005KT 9999NDV BKN079/// 09/04 Q1019=
201204281750 METAR ESMX 281750Z AUTO 02006KT 9999NDV NCD 09/04 Q1019=
201204281720 METAR ESMX 281720Z AUTO 36007KT 9999NDV NCD 10/05 Q1019=
201204281650 METAR ESMX 281650Z AUTO 36006KT 9999NDV NCD 10/05 Q1019=
201204281620 METAR ESMX 281620Z AUTO 36007KT 9999NDV FEW043/// BKN057/// 11/05 Q1019=
201204281550 METAR ESMX 281550Z AUTO 36009KT 9999NDV BKN045/// BKN052/// 11/05 Q1019=
201204281520 METAR ESMX 281520Z AUTO 34007KT 9999NDV OVC044/// 11/06 Q1019=
201204281450 METAR ESMX 281450Z AUTO 34003KT 9999NDV OVC044/// 11/07 Q1019=
201204281420 METAR ESMX 281420Z AUTO 33002KT 9999NDV OVC048/// 11/08 Q1020=
201204281350 METAR ESMX 281350Z AUTO 29002KT 9999NDV OVC053/// 11/07 Q1020=
201204281320 METAR ESMX 281320Z AUTO 26002KT 9999NDV OVC056/// 11/07 Q1020=
201204281250 METAR ESMX 281250Z AUTO 30004KT 260V350 9999NDV -DZ BKN050/// 11/06 Q1020=
201204281220 METAR ESMX 281220Z AUTO 27004KT 200V300 9999NDV FEW053/// BKN064/// 11/06 Q1020=
201204281150 METAR ESMX 281150Z AUTO 24004KT 180V290 9999NDV SCT067/// 12/06 Q1020=
201204281120 METAR ESMX 281120Z AUTO 19004KT 140V240 9999NDV BKN069/// 12/07 Q1020=
201204281050 METAR ESMX 281050Z AUTO 19003KT 140V220 9999NDV OVC071/// 11/06 Q1020=
201204281020 METAR ESMX 281020Z AUTO 22004KT 170V260 9999NDV OVC076/// 11/07 Q1020=
201204280950 METAR ESMX 280950Z AUTO 20003KT 160V240 9999NDV FEW014/// BKN081/// 11/06 Q1020=
201204280920 METAR ESMX 280920Z 22004KT 190V260 9999 SCT012 10/06 Q1021=
201204280850 METAR ESMX 280850Z 24004KT 200V270 9999 BKN012 10/07 Q1021=
201204280820 METAR COR ESMX 280820Z 23004KT 190V260 9999 SCT011 10/07 Q1021=
201204280750 METAR ESMX 280750Z 23005KT 200V260 9999 SCT010 BKN100 09/07 Q1020=
201204280720 METAR ESMX 280720Z 23005KT 190V260 9999 SCT010 09/07 Q1020=
201204280650 METAR ESMX 280650Z 24005KT CAVOK 09/06 Q1020=
201204280620 METAR ESMX 280620Z 25006KT 210V280 CAVOK 08/06 Q1020=
201204280550 METAR ESMX 280550Z 24005KT 210V280 CAVOK 08/06 Q1020=
201204280520 METAR ESMX 280520Z 21005KT 7000 BR NSC 07/06 Q1019=
201204280450 METAR ESMX 280450Z 22004KT 6000 BR NSC 06/05 Q1019=
201204280420 METAR ESMX 280420Z 23003KT 6000 BR NSC 06/05 Q1019=
201204280350 METAR ESMX 280350Z 21005KT 5000 BR NSC 05/05 Q1019=
201204280320 METAR ESMX 280320Z AUTO 18006KT 3200NDV BR NCD 05/05 Q1019=
201204280250 METAR ESMX 280250Z AUTO 21006KT 3900NDV BR NCD 05/04 Q1018=
201204280220 METAR ESMX 280220Z AUTO 21006KT 8000NDV BR NCD 06/05 Q1018=
201204280150 METAR ESMX 280150Z AUTO 21006KT 7000NDV BR NCD 06/05 Q1018=
201204280120 METAR ESMX 280120Z AUTO 20007KT 9000NDV NCD 06/05 Q1018=
201204280050 METAR ESMX 280050Z AUTO 19007KT 9999NDV NCD 06/05 Q1017=
201204280020 METAR ESMX 280020Z AUTO 20006KT 9999NDV NCD 06/05 Q1017=
201204272350 METAR ESMX 272350Z AUTO 20007KT 9999NDV NCD 06/05 Q1017=
201204272320 METAR ESMX 272320Z AUTO 21006KT 9999NDV NCD 06/05 Q1017=
201204272250 METAR ESMX 272250Z AUTO 20006KT 9999NDV FEW031/// 06/05 Q1017=
201204272220 METAR ESMX 272220Z AUTO 21006KT 9999NDV FEW058/// 06/05 Q1017=
201204272150 METAR ESMX 272150Z 19006KT CAVOK 07/06 Q1017=
201204272120 METAR ESMX 272120Z 20005KT CAVOK 07/06 Q1017=
201204272050 METAR ESMX 272050Z 20005KT CAVOK 07/06 Q1017=
201204272020 METAR ESMX 272020Z 20006KT 9999 SCT030 07/06 Q1016=
201204271950 METAR ESMX 271950Z 20006KT 9999 FEW026 SCT032 08/07 Q1016=
201204271920 METAR ESMX 271920Z 21009KT 9999 -RA FEW023 SCT032 BKN052 09/07 Q1016=
201204271850 METAR ESMX 271850Z 18004KT 9999 VCSH FEW050CB SCT055 08/07 Q1016=
201204271820 METAR ESMX 271820Z 19005KT CAVOK 09/07 Q1015=
201204271750 METAR ESMX 271750Z 20008KT CAVOK 09/08 Q1015=
201204271720 METAR ESMX 271720Z 19006KT 9999 SCT045 10/08 Q1015=
201204271650 METAR ESMX 271650Z 24006KT 7000 -RA FEW007 SCT037 BKN052 09/07 Q1015=
201204271620 METAR ESMX 271620Z 22009KT 3600 RASH SCT041CB BKN080 11/08 Q1014=
201204271550 METAR ESMX 271550Z 25004KT 210V280 9999 FEW056 SCT070 13/07 Q1014=
201204271520 METAR ESMX 271520Z 22006KT 170V270 9999 FEW040 13/08 Q1014=
201204271450 METAR ESMX 271450Z 23008KT 200V260 9999 FEW037CB BKN049 12/08 Q1014 RESHRA=
201204271420 METAR ESMX 271420Z 23006KT 200V260 9999 FEW023 SCT040CB 11/08 Q1013 RESHRA=
201204271350 METAR ESMX 271350Z 22011KT 9999 SHRA SCT041CB 13/04 Q1013=
201204271320 METAR ESMX 271320Z 21012KT 170V240 9999 SHRA BKN047CB 12/05 Q1013=
201204271250 METAR ESMX 271250Z 21010KT 170V250 9999 FEW056 SCT085 15/04 Q1013=
201204271220 METAR ESMX 271220Z 20011KT 160V240 9999 FEW046 BKN062 14/05 Q1012=
201204271150 METAR ESMX 271150Z 21013KT 180V240 9999 SCT041 BKN053 14/05 Q1012=
201204271120 METAR ESMX 271120Z 21013KT 170V240 9999 SCT041 BKN053 14/06 Q1012=
201204271050 METAR ESMX 271050Z 23008KT 180V270 9999 SCT048 BKN064 14/05 Q1012=
201204271020 METAR COR ESMX 271020Z 22011KT 190V260 9999 FEW040 BKN054 13/05 Q1012=
201204270950 METAR ESMX 270950Z 21011KT 170V250 9999 BKN033 14/06 Q1012=
201204270920 METAR ESMX 270920Z 22012KT 200V260 9999 SCT030 BKN035 14/07 Q1011=
201204270850 METAR ESMX 270850Z 22011KT 170V250 9999 SCT025 13/08 Q1011=
201204270820 METAR ESMX 270820Z 21009KT 9999 FEW008 SCT058 11/08 Q1011=
201204270750 METAR ESMX 270750Z 21008KT CAVOK 10/08 Q1011=
201204270720 METAR ESMX 270720Z 22008KT CAVOK 10/07 Q1011=
201204270650 METAR ESMX 270650Z 19008KT 9999 -DZ FEW049 BKN067 08/07 Q1011=
201204270620 METAR ESMX 270620Z 18007KT CAVOK 08/06 Q1010=
201204270550 METAR ESMX 270550Z 19006KT 140V210 9999 BR BKN048 08/06 Q1010=
201204270520 METAR ESMX 270520Z 16004KT 120V190 9000 BR FEW039 SCT047 BKN064 07/06 Q1010=
201204270450 METAR ESMX 270450Z 18005KT 8000 BR SCT041 BKN050 BKN060 07/06 Q1010=
201204270420 METAR ESMX 270420Z 18004KT 9999 FEW043 SCT063 BKN089 07/06 Q1009=
201204270350 METAR ESMX 270350Z 17005KT 140V200 9999 FEW041 BKN086 07/06 Q1009=
201204270320 METAR ESMX 270320Z AUTO 17005KT 9999NDV FEW032/// BKN087/// 07/06 Q1009=
201204270250 METAR ESMX 270250Z AUTO 18005KT 9999NDV OVC033/// 08/06 Q1009=
201204270220 METAR ESMX 270220Z AUTO 17007G17KT 140V210 9999NDV FEW035/// SCT039/// BKN043/// 07/06 Q1009=
201204270150 METAR ESMX 270150Z AUTO 17007KT 9999NDV FEW037/// SCT058/// BKN087/// 07/06 Q1009=
201204270120 METAR ESMX 270120Z AUTO 18006KT 9999NDV FEW047/// BKN060/// 08/06 Q1008=
201204270050 METAR ESMX 270050Z AUTO 18006KT 9999NDV OVC049/// 08/06 Q1009=
201204270020 METAR ESMX 270020Z AUTO 18007KT 9999NDV FEW040/// BKN048/// OVC062/// 07/06 Q1009=
201204262350 METAR ESMX 262350Z 18006KT 9999 SCT044 07/06 Q1008=
201204262320 METAR ESMX 262320Z 18006KT CAVOK 07/06 Q1008=
201204262250 METAR ESMX 262250Z 17005KT CAVOK 07/06 Q1008=
201204262220 METAR ESMX 262220Z 18005KT 9999 FEW049 07/06 Q1008=
201204262150 METAR ESMX 262150Z 18005KT 140V200 9999 FEW032 08/06 Q1008=
201204262120 METAR ESMX 262120Z 17006KT 9999 FEW033 SCT075 08/07 Q1008=
201204262050 METAR ESMX 262050Z 15006KT 100V170 9999 SCT030 08/07 Q1008=
201204262020 METAR ESMX 262020Z 17004KT CAVOK 09/07 Q1007=
201204261950 METAR ESMX 261950Z 20006KT 9999 FEW015 SCT037 09/07 Q1007=
201204261920 METAR ESMX 261920Z 21010KT 9999 FEW017 SCT021 BKN040 09/08 Q1007=
201204261850 METAR ESMX 261850Z 18006KT 9999 FEW010 SCT040 09/08 Q1006=
201204261820 METAR ESMX 261820Z 17007KT 130V200 9999 FEW008 SCT010 10/08 Q1006=
201204261750 METAR ESMX 261750Z 17007KT 120V210 9999 FEW010 10/08 Q1005=
201204261720 METAR ESMX 261720Z 16008KT 140V210 9999 FEW007 10/08 Q1005=
201204261650 METAR ESMX 261650Z 17007KT 140V200 9999 FEW007 BKN130 10/09 Q1005=
201204261620 METAR ESMX 261620Z 17007KT 140V200 8000 BR FEW004 SCT006 BKN035 10/09 Q1005=
201204261550 METAR ESMX 261550Z 16008KT 9999 FEW005 SCT030 BKN045 10/08 Q1005 REDZ=
201204261520 METAR ESMX 261520Z 15006KT 9999 FEW010 SCT034 BKN048 10/09 Q1005 RERA=
201204261450 METAR ESMX 261450Z 18008KT 9999 -RA FEW009 SCT027 BKN040 10/09 Q1005=
201204261420 METAR ESMX 261420Z 17011KT 140V250 9000 RA FEW005 SCT008 BKN009 10/08 Q1005=
201204261350 METAR ESMX 261350Z 16009KT 130V190 7000 RA FEW006 SCT009 BKN010 10/09 Q1004=
201204261320 METAR ESMX 261320Z 16006KT 130V210 9000 -RA SCT008 BKN010 10/09 Q1004=
201204261250 METAR ESMX 261250Z 17008KT 140V200 9999 -RA SCT008 BKN020 10/09 Q1004=
201204261220 METAR ESMX 261220Z 18009KT 140V200 9000 -RA FEW015 BKN018 10/08 Q1004 REDZ=
201204261150 METAR ESMX 261150Z 18014KT 9999 -DZ BKN020 11/08 Q1004=
201204261120 METAR ESMX 261120Z 17012KT 120V220 9999 FEW025 BKN045 12/06 Q1003=
201204261050 METAR ESMX 261050Z 15007KT 010V180 9999 FEW030 BKN045 11/07 Q1003=
201204261020 METAR ESMX 261020Z 16007KT 120V200 9999 -SHRA FEW030 BKN045 11/07 Q1003 REDZ=
201204260950 METAR ESMX 260950Z 17009KT 140V200 CAVOK 10/06 Q1003=
201204260920 METAR ESMX 260920Z 18010KT 150V210 CAVOK 11/06 Q1003=
201204260850 METAR ESMX 260850Z 16009KT 120V190 CAVOK 11/06 Q1003=
201204260820 METAR ESMX 260820Z 16010KT 120V190 CAVOK 10/06 Q1004=
201204260750 METAR ESMX 260750Z 15008KT 110V190 CAVOK 09/05 Q1004=
201204260720 METAR ESMX 260720Z 13008KT 100V170 CAVOK 08/05 Q1004=
201204260650 METAR ESMX 260650Z 14007KT 080V170 CAVOK 07/05 Q1004=
201204260620 METAR ESMX 260620Z 13007KT 080V170 6000 BR BKN052 07/05 Q1004=
201204260550 METAR ESMX 260550Z 14006KT 070V170 6000 BR OVC053 07/05 Q1004=
201204260520 METAR ESMX 260520Z 14005KT 100V190 7000 BR BKN058 06/05 Q1004=
201204260450 METAR ESMX 260450Z 13005KT 090V170 6000 BR NSC 06/05 Q1004=
201204260420 METAR ESMX 260420Z 14004KT 080V170 3500 BR FEW002 05/05 Q1004=
201204260350 METAR ESMX 260350Z 15004KT 110V210 2000 BR SCT002 05/05 Q1004=
201204260320 METAR ESMX 260320Z AUTO 15004KT 060V200 0550NDV R01/1500N R19/P2000N FG VV001 05/05 Q1004=
201204260250 METAR ESMX 260250Z AUTO 16003KT 110V200 0400NDV R01/1300U R19/P2000N FG OVC001/// 06/05 Q1004=
201204260220 METAR ESMX 260220Z AUTO 16003KT 1100NDV R01/P2000N R19/P2000N BKN002/// 06/05 Q1004=
201204260150 METAR ESMX 260150Z AUTO 19004KT 140V210 1800NDV BKN001/// BKN004/// 06/06 Q1004=
201204260120 METAR ESMX 260120Z AUTO 20007KT 1100NDV R01/P2000N R19/P2000N OVC001/// 07/06 Q1004=
201204260050 METAR ESMX 260050Z AUTO 21007KT 0800NDV R01/P2000N R19/P2000N FG VV001 07/06 Q1004=
201204260020 METAR ESMX 260020Z AUTO 19008KT 0500NDV R01/1200VP2000D R19/P2000N FG VV001 06/06 Q1004=
201204252350 METAR ESMX 252350Z 20007KT 1900 BR SCT004 06/05 Q1004=
201204252320 METAR ESMX 252320Z 21007KT 5000 BR SCT005 06/05 Q1003=
201204252250 METAR ESMX 252250Z 21006KT 6000 BR FEW007 BKN051 07/06 Q1003=
201204252220 METAR ESMX 252220Z 22007KT 6000 BR FEW006 SCT031 OVC047 08/07 Q1003=
201204252150 METAR ESMX 252150Z 21008KT 6000 BR FEW003 OVC005 08/07 Q1003=
201204252120 METAR ESMX 252120Z 21007KT 9000 BR BKN002 OVC004 08/07 Q1002=
201204252050 METAR ESMX 252050Z 19005KT 2100 DZ OVC002 08/07 Q1002=
201204252020 METAR ESMX 252020Z 19005KT 9999 OVC003 07/07 Q1002=
201204251950 METAR ESMX 251950Z 18003KT 9999 FEW005 SCT010 BKN028 07/06 Q1001=
201204251920 METAR ESMX 251920Z 19004KT 9999 FEW005 SCT045 OVC058 08/07 Q1001=
201204251850 METAR ESMX 251850Z 19003KT 9999 SCT005 BKN025 08/07 Q1001=
201204251820 METAR ESMX 251820Z 20004KT 9000 BR FEW004 BKN007 08/07 Q1000=
201204251750 METAR ESMX 251750Z VRB02KT 8000 BR OVC005 08/07 Q1000=
201204251720 METAR ESMX 251720Z VRB01KT 5000 -DZ FEW003 OVC006 08/07 Q1000=
201204251650 METAR ESMX 251650Z VRB02KT 9999 -DZ FEW006 BKN008 08/07 Q1000=
201204251620 METAR ESMX 251620Z VRB02KT 8000 -RA FEW007 BKN008 08/07 Q0999=
201204251550 METAR ESMX 251550Z VRB02KT 7000 -RA FEW008 BKN009 08/07 Q0999=
201204251520 METAR ESMX 251520Z 09003KT 040V140 9999 -RA BKN008 08/07 Q0999=
201204251450 METAR ESMX 251450Z 05004KT 360V110 9999 BKN007 08/07 Q0999=
201204251420 METAR ESMX 251420Z 05004KT 010V080 9999 FEW006 BKN007 08/07 Q0999=
201204251350 METAR ESMX 251350Z 05004KT 020V110 9999 BKN006 08/07 Q0999=
201204251320 METAR ESMX 251320Z 07005KT 020V110 5000 -DZ OVC005 07/07 Q0999=
201204251250 METAR ESMX 251250Z 06005KT 020V110 5000 -RA OVC005 07/06 Q0999=
201204251220 METAR ESMX 251220Z 06005KT 010V130 6000 DZ SCT004 BKN008 08/07 Q0999=
201204251150 METAR ESMX 251150Z 07006KT 030V120 5000 -RA FEW005 BKN006 08/06 Q0999 REDZ=
201204251120 METAR ESMX 251120Z 07005KT 020V100 7000 BR FEW007 BKN008 OVC012 07/06 Q0999=
201204251050 METAR ESMX 251050Z 05009KT 020V080 9999 -DZ FEW006 OVC008 07/06 Q0999 REDZ=
201204251020 METAR ESMX 251020Z 07007KT 010V100 9999 DZ FEW006 BKN008 07/06 Q0999=
201204250950 METAR ESMX 250950Z 06007KT 020V120 8000 -RA SCT006 BKN009 OVC011 07/06 Q0999=
201204250920 METAR ESMX 250920Z 07008KT 360V130 9000 -RA FEW006 BKN008 OVC009 08/06 Q0999=
201204250850 METAR ESMX 250850Z 07006KT 030V120 9999 FEW007 SCT009 OVC012 08/06 Q0999 REDZ=
201204250820 METAR ESMX 250820Z 09007KT 030V120 9999 -RA BKN014 OVC018 08/05 Q0999=
201204250720 METAR ESMX 250720Z 09008KT 020V140 9999 BKN016 10/05 Q0999=
201204250650 METAR ESMX 250650Z 08008G19KT 010V140 9999 FEW015 SCT027 10/05 Q0999=
201204250620 METAR ESMX 250620Z 10008KT 040V150 CAVOK 10/05 Q0999=
201204250550 METAR ESMX 250550Z 07006KT 020V140 CAVOK 08/05 Q0999=
201204250520 METAR ESMX 250520Z 07004KT 020V140 CAVOK 07/05 Q0999=
201204250450 METAR ESMX 250450Z 08006KT 350V120 CAVOK 07/05 Q1000=
201204250420 METAR ESMX 250420Z 08005KT 030V120 CAVOK 07/05 Q1000=
201204250350 METAR ESMX 250350Z 02003KT 350V080 CAVOK 06/04 Q1000=
201204250320 METAR ESMX 250320Z 04003KT 010V090 CAVOK 06/04 Q1000=
201204250250 METAR ESMX 250250Z AUTO 05005KT 010V100 9999NDV FEW110/// 06/04 Q1000=
201204250220 METAR ESMX 250220Z AUTO 05005KT 020V080 9999NDV NCD 06/03 Q1001=
201204250150 METAR ESMX 250150Z AUTO 04005KT 350V100 9999NDV NCD 06/03 Q1001=
201204250120 METAR ESMX 250120Z AUTO 07005KT 010V110 9999NDV FEW062/// 06/04 Q1001=
201204250050 METAR ESMX 250050Z AUTO 07005KT 040V130 9999NDV FEW077/// 06/04 Q1001=
201204250020 METAR ESMX 250020Z 07005KT 020V110 CAVOK 06/04 Q1001=
201204242350 METAR ESMX 242350Z 07006KT 030V110 CAVOK 07/04 Q1002=
201204242320 METAR ESMX 242320Z 07005KT 330V120 CAVOK 07/04 Q1002=
201204242250 METAR ESMX 242250Z 07007KT 030V120 CAVOK 07/04 Q1002=
201204242220 METAR ESMX 242220Z 08006KT 030V120 CAVOK 08/04 Q1003=
201204242150 METAR ESMX 242150Z 08006KT 030V130 CAVOK 08/04 Q1003=
201204242120 METAR ESMX 242120Z 07005KT 020V140 CAVOK 08/04 Q1003=
201204242050 METAR ESMX 242050Z 07004KT 030V120 CAVOK 09/04 Q1003=
201204242020 METAR ESMX 242020Z 08005KT 020V120 CAVOK 09/03 Q1003=
201204241950 METAR ESMX 241950Z 09005KT 020V140 CAVOK 09/03 Q1003=
201204241920 METAR ESMX 241920Z 09005KT 050V130 CAVOK 10/03 Q1003=
201204241850 METAR ESMX 241850Z 09004KT 040V210 CAVOK 10/03 Q1003=
201204241820 METAR ESMX 241820Z 09005KT 050V130 CAVOK 11/02 Q1003=
201204241750 METAR ESMX 241750Z 09005KT 050V140 CAVOK 11/02 Q1003=
201204241720 METAR ESMX 241720Z 10006KT 060V140 CAVOK 12/01 Q1003=
201204241650 METAR ESMX 241650Z 12005KT 070V170 CAVOK 12/01 Q1003=
201204241620 METAR ESMX 241620Z 12007KT 070V190 CAVOK 14/01 Q1003=
201204241550 METAR ESMX 241550Z 13007KT 050V210 CAVOK 14/00 Q1003=
201204241520 METAR ESMX 241520Z VRB07KT CAVOK 14/00 Q1003=
201204241450 METAR ESMX 241450Z 14007KT 080V190 CAVOK 14/01 Q1003=
201204241420 METAR ESMX 241420Z 14008KT 080V190 CAVOK 14/01 Q1003=
201204241350 METAR ESMX 241350Z 13007KT 020V190 CAVOK 15/M00 Q1003=
201204241320 METAR ESMX 241320Z 12007KT 080V190 CAVOK 15/M01 Q1003=
201204241250 METAR ESMX 241250Z 08008KT 040V100 CAVOK 15/M00 Q1003=
201204241220 METAR ESMX 241220Z 15007KT 080V240 CAVOK 15/M01 Q1003=
201204241150 METAR ESMX 241150Z 17007KT 110V230 9999 FEW030 BKN070 14/M00 Q1004=
201204241120 METAR ESMX 241120Z 15006KT 080V210 9999 FEW030 SCT051 14/M00 Q1004=
201204241050 METAR ESMX 241050Z VRB05KT 9999 SCT049 14/02 Q1004=
201204241020 METAR ESMX 241020Z VRB05KT 9999 FEW040 13/02 Q1004=
201204240950 METAR COR ESMX 240950Z 14005KT 040V200 9999 FEW035TCU 13/02 Q1004=
201204240920 METAR ESMX 240920Z 13006KT 050V170 CAVOK 12/03 Q1004=
201204240850 METAR ESMX 240850Z 16006KT 110V210 CAVOK 12/03 Q1004=
201204240820 METAR ESMX 240820Z 09004KT 350V160 CAVOK 11/03 Q1004=
201204240750 METAR ESMX 240750Z 14005KT 080V190 9999 FEW075 10/04 Q1004=
201204240720 METAR ESMX 240720Z 14003KT 060V200 9999 SCT074 09/04 Q1004=
201204240650 METAR ESMX 240650Z 12004KT 070V170 9999 FEW073 08/04 Q1004=
201204240620 METAR ESMX 240620Z 11004KT 030V170 9999 FEW070 06/04 Q1004=
201204240550 METAR ESMX 240550Z 09003KT 050V120 7000 BR SCT066 05/04 Q1004=
201204240520 METAR ESMX 240520Z VRB01KT 5000 BR FEW053 OVC064 03/03 Q1004=
201204240450 METAR ESMX 240450Z 09002KT 7000 BR FEW004 BKN059 02/02 Q1004=
201204240420 METAR ESMX 240420Z VRB02KT 5000 BR FEW003 BKN056 01/00 Q1004=
201204240350 METAR ESMX 240350Z 09001KT 5000 BR BKN056 00/M00 Q1004=
201204240320 METAR ESMX 240320Z VRB01KT 4800 BCFG BKN060 M01/M02 Q1004=
201204240250 METAR ESMX 240250Z AUTO VRB01KT 0900NDV R01/P2000N R19/P2000D FEW063/// M02/M02 Q1004=
201204240220 METAR ESMX 240220Z AUTO VRB02KT 0150NDV R01/P2000N R19/P2000 BCFG NCD M01/M02 Q1004=
201204240150 METAR ESMX 240150Z AUTO 00000KT 0200NDV R01/P2000D R19/P2000 BCFG NCD M02/M02 Q1004=
201204240120 METAR ESMX 240120Z AUTO VRB01KT 0100NDV R01/P2000N R19/0550 NCD M01/M01 Q1004=
201204240050 METAR ESMX 240050Z AUTO 00000KT 0750NDV R01/P2000N R19/P2000N FZFG NCD M01/M01 Q1004=
201204240020 METAR ESMX 240020Z AUTO VRB01KT 0250NDV R01/0450VP2000D R19/P2000N BCFG NCD 01/00 Q1004=
201204232350 METAR ESMX 232350Z AUTO VRB02KT 0400NDV R01/P2000N R19/P2000D BR NCD 01/01 Q1004=
201204232320 METAR COR ESMX 232320Z 15003KT 5000 BR NSC 02/01 Q1004=
201204232250 METAR ESMX 232250Z 14003KT 6000 BR NSC 02/02 Q1005=
201204232220 METAR ESMX 232220Z 13003KT 6000 BR NSC 02/01 Q1005=
201204232150 METAR ESMX 232150Z VRB02KT 9999 FEW033 SCT045 03/02 Q1005=
201204232120 METAR ESMX 232120Z 13003KT 9999 SCT033 04/03 Q1005=
201204232050 METAR ESMX 232050Z 15003KT 9999 SCT042 06/03 Q1005=
201204232020 METAR ESMX 232020Z 17005KT 9999 OVC035 07/03 Q1005=
201204231950 METAR ESMX 231950Z 16004KT 9999 SCT035 06/03 Q1004=
201204231920 METAR ESMX 231920Z 18004KT 9999 FEW032 SCT150 07/03 Q1004=
201204231850 METAR ESMX 231850Z 18004KT CAVOK 05/03 Q1004=
201204231820 METAR ESMX 231820Z 17003KT CAVOK 05/03 Q1004=
201204231750 METAR ESMX 231750Z 17002KT CAVOK 07/03 Q1004=
201204231720 METAR ESMX 231720Z 18004KT CAVOK 08/03 Q1004=
201204231650 METAR ESMX 231650Z 17004KT CAVOK 08/03 Q1003=
201204231620 METAR ESMX 231620Z 18005KT 9999 FEW030CB SCT080 10/03 Q1003=
201204231550 METAR ESMX 231550Z 16006KT 9999 FEW030CB SCT080 10/02 Q1003=
201204231520 METAR ESMX 231520Z 16008KT 100V200 9999 FEW030CB SCT060 11/02 Q1003=
201204231450 METAR ESMX 231450Z 16010KT 120V190 9999 FEW025CB SCT055 10/04 Q1003=
201204231420 METAR ESMX 231420Z 17008KT 130V200 9999 -SHRA FEW020CB SCT058 10/04 Q1003=
201204231350 METAR ESMX 231350Z 17006KT 140V200 9999 FEW030CB SCT077 12/03 Q1003=
201204231320 METAR ESMX 231320Z VRB05KT 9999 FEW035CB BKN050 11/02 Q1003=
201204231250 METAR ESMX 231250Z 22009KT 170V240 9999 FEW020CB BKN040 11/02 Q1003=
201204231220 METAR ESMX 231220Z 20009KT 9999 FEW025CB BKN050 11/03 Q1004=
201204231150 METAR ESMX 231150Z 20006KT 160V230 9999 SCT020CB BKN050 10/04 Q1004=
201204231120 METAR ESMX 231120Z 22006KT 9999 SCT015CB BKN025 10/04 Q1004=
201204231050 METAR ESMX 231050Z 17005KT 110V240 9999 SCT024CB BKN028 11/04 Q1004=
201204231020 METAR ESMX 231020Z 19008KT 9999 SCT015TCU BKN025 09/05 Q1004=
201204230950 METAR ESMX 230950Z 21006KT 180V240 9999 BKN013 09/06 Q1004=
201204230920 METAR ESMX 230920Z 20006KT 160V220 9999 FEW009 BKN011 08/05 Q1004=
201204230850 METAR ESMX 230850Z 19006KT 8000 BR FEW007 BKN008 07/05 Q1004=
201204230820 METAR ESMX 230820Z 16006KT 110V190 6000 BR FEW005 BKN006 07/06 Q1004=
201204230750 METAR ESMX 230750Z 17005KT 110V200 4600 BR OVC004 06/06 Q1004=
201204230720 METAR ESMX 230720Z 14004KT 070V190 3400 BR OVC002 06/05 Q1004=
201204230650 METAR COR ESMX 230650Z 15003KT 070V190 2800 BR OVC002 05/05 Q1004=
201204230620 METAR COR ESMX 230620Z 15003KT 100V200 1900 BR OVC002 04/04 Q1004=
201204230550 METAR ESMX 230550Z VRB02KT 0400 R01/0800 R19/0900U FG VV002 04/04 Q1004=
201204230520 METAR ESMX 230520Z 15003KT 100V200 0300 R01/0650N R19/0750 FG VV200 04/03 Q1004=
201204230450 METAR ESMX 230450Z 16006KT 120V210 0250 R01/0550 R19/0800 FG VV002 03/03 Q1004=
201204230420 METAR ESMX 230420Z 15003KT 110V200 0300 R01/0700N R19/0700 FG VV002 03/03 Q1004=
201204230350 METAR ESMX 230350Z 16004KT 130V190 0300 R01/0800N R19/1000N FG VV002 03/03 Q1004=
201204230320 METAR ESMX 230320Z AUTO 16004KT 120V200 0300NDV R01/1000N R19/1400N FG ////// 03/03 Q1004=
201204230250 METAR ESMX 230250Z AUTO 15005KT 110V210 0300NDV R01/1100N R19/1500D FG ////// 03/02 Q1004=
201204230220 METAR ESMX 230220Z AUTO 16004KT 140V200 0250NDV R01/0800N R19/1000N FG ////// 03/02 Q1004=
201204230150 METAR ESMX 230150Z AUTO 17004KT 0200NDV R01/0700 R19/0800 FG ////// 02/02 Q1004=
201204230120 METAR ESMX 230120Z AUTO 17004KT 0200NDV R01/0900N R19/0800N FG ////// 02/02 Q1004=
201204230050 METAR ESMX 230050Z AUTO 18003KT 0350NDV R01/1000V1500D R19/1100V1700D FG ////// 02/02 Q1004=
201204230020 METAR ESMX 230020Z AUTO 17003KT 0250NDV R01/P2000N R19/0700 FG ////// 03/02 Q1004=
201204222350 METAR ESMX 222350Z AUTO 17003KT 0350NDV R01/P2000N R19/0750VP2000D FG ////// 02/01 Q1004=
201204222320 METAR ESMX 222320Z 17003KT 3000 BR NSC 03/02 Q1004=
201204222250 METAR ESMX 222250Z 17003KT 2500 BR FEW006 04/03 Q1004=
201204222220 METAR ESMX 222220Z 18005KT 4700 BR FEW004 04/04 Q1004=
201204222150 METAR ESMX 222150Z 20003KT 8000 BR FEW006 04/03 Q1004=
201204222120 METAR ESMX 222120Z 22005KT 9999 SCT005 SCT030 05/04 Q1004=
201204222050 METAR ESMX 222050Z 21006KT 190V250 9999 -DZ SCT005 BKN030 05/04 Q1004=
201204222020 METAR ESMX 222020Z 22007KT 9999 -DZ SCT005 BKN015 06/04 Q1003=
201204221950 METAR ESMX 221950Z 20006KT 9999 FEW005 BKN020 06/04 Q1003=
201204221920 METAR ESMX 221920Z 20007KT 9999 SCT005 BKN008 06/04 Q1003=
201204221850 METAR ESMX 221850Z 22007KT 9999 FEW005 BKN008 06/04 Q1003=
201204221820 METAR ESMX 221820Z 22007KT 9999 FEW007 BKN015 06/04 Q1002=
201204221750 METAR ESMX 221750Z 22009KT 190V260 9999 SCT006 BKN018 06/05 Q1002=
201204221720 METAR ESMX 221720Z 21011KT 9999 BKN005 07/05 Q1002=
201204221650 METAR ESMX 221650Z 19010KT 9999 FEW005 BKN030 08/06 Q1002=
201204221620 METAR ESMX 221620Z VRB01KT 9999 -RA BKN012 09/07 Q1001=
201204221550 METAR ESMX 221550Z VRB02KT 9999 FEW019 BKN028 09/07 Q1001=
201204221520 METAR ESMX 221520Z VRB02KT 9000 -RA FEW028 SCT038 09/07 Q1001=
201204221450 METAR ESMX 221450Z 20006KT 9000 -RA FEW005 BKN035 09/07 Q1002=
201204221420 METAR ESMX 221420Z VRB02KT 8000 -RA FEW013CB BKN020 09/08 Q1002=
201204221350 METAR ESMX 221350Z 32004KT 290V350 9999 TS VCSH SCT012CB BKN040 09/07 Q1001=
201204221320 METAR ESMX 221320Z 30003KT 250V340 9000 -RA FEW014CB BKN025 09/07 Q1002=
201204221250 METAR ESMX 221250Z 23006KT 200V270 9999 -RA FEW018CB BKN025 10/06 Q1002=
201204221220 METAR ESMX 221220Z 21008KT 9999 SCT018 SCT092 11/07 Q1002=
201204221150 METAR ESMX 221150Z AUTO 25009KT 9999NDV FEW018/// SCT028/// BKN079/// 11/07 Q1002=
201204221120 METAR ESMX 221120Z AUTO 23009KT 9999NDV SCT025/// BKN063/// 11/07 Q1002=
201204221050 METAR ESMX 221050Z AUTO 18005KT 120V230 9999NDV FEW026/// SCT065/// 13/06 Q1002=
201204221020 METAR ESMX 221020Z AUTO 18005KT 140V210 9999NDV FEW025/// BKN070/// 12/07 Q1002=
201204220950 METAR ESMX 220950Z AUTO 18008KT 140V210 9999NDV FEW058/// 12/06 Q1002=
201204220920 METAR ESMX 220920Z AUTO 17005KT 140V210 9999NDV NCD 12/07 Q1002=
201204220850 METAR ESMX 220850Z AUTO VRB04KT 9999NDV FEW010/// 11/06 Q1002=
201204220820 METAR ESMX 220820Z AUTO 13004KT 050V190 9999NDV FEW006/// SCT008/// BKN009/// 10/06 Q1002=
201204220750 METAR ESMX 220750Z AUTO 17004KT 120V200 9999NDV OVC005/// 08/06 Q1002=
201204220720 METAR ESMX 220720Z AUTO 14003KT 070V200 9999NDV OVC003/// 07/05 Q1002=
201204220650 METAR ESMX 220650Z AUTO 12003KT 030V190 8000NDV BR OVC001/// 07/06 Q1002=
201204220620 METAR ESMX 220620Z AUTO 07003KT 020V170 4700NDV BR OVC001/// 06/05 Q1002=
201204220550 METAR ESMX 220550Z AUTO 08005KT 030V140 2900NDV BR OVC001/// 05/04 Q1002=
201204220520 METAR ESMX 220520Z AUTO 09003KT 030V130 2800NDV BR OVC001/// 05/04 Q1002=
201204220450 METAR ESMX 220450Z AUTO 07003KT 020V120 1900NDV BR OVC001/// 05/04 Q1002=
201204220420 METAR ESMX 220420Z AUTO 07003KT 020V120 1900NDV BR OVC001/// 05/04 Q1002=
201204220350 METAR ESMX 220350Z AUTO 08003KT 020V140 1600NDV BR OVC001/// 05/04 Q1002=
201204220320 METAR ESMX 220320Z AUTO 09003KT 040V140 1100NDV R01/P2000N R19/P2000N BR OVC001/// 05/05 Q1002=
201204220250 METAR ESMX 220250Z AUTO 09004KT 040V140 1200NDV R01/P2000N R19/P2000N BR VV002 05/05 Q1002=
201204220220 METAR ESMX 220220Z AUTO 06005KT 010V110 1900NDV BR OVC001/// 05/05 Q1002=
201204220150 METAR ESMX 220150Z AUTO 11003KT 050V170 1200NDV R01/P2000N R19/P2000N BR OVC001/// 06/05 Q1002=
201204220120 METAR ESMX 220120Z AUTO 10004KT 050V140 1900NDV VV002 06/05 Q1002=
201204220050 METAR ESMX 220050Z AUTO 11004KT 020V170 1400NDV R01/P2000N R19/P2000N OVC001/// 06/05 Q1003=
201204220020 METAR ESMX 220020Z AUTO 11003KT 050V160 1000NDV R01/P2000N R19/P2000N FG OVC001/// 06/05 Q1002=
201204212350 METAR ESMX 212350Z AUTO 10004KT 050V140 0750NDV R01/P2000N R19/P2000N FG VV002 06/05 Q1002=
201204212320 METAR ESMX 212320Z AUTO 10004KT 050V160 0750NDV R01/P2000N R19/P2000N FG VV002 06/05 Q1003=
201204212250 METAR ESMX 212250Z AUTO 09003KT 040V120 1900NDV BR OVC001/// 05/04 Q1003=
201204212220 METAR ESMX 212220Z AUTO 10005KT 060V150 3700NDV BR OVC002/// 05/04 Q1003=
201204212150 METAR ESMX 212150Z AUTO 11003KT 010V170 4400NDV BR OVC003/// 05/04 Q1003=
201204212120 METAR ESMX 212120Z AUTO 10005KT 050V150 5000NDV BR FEW003/// OVC005/// 05/04 Q1003=
201204212050 METAR ESMX 212050Z AUTO 08003KT 020V160 9999NDV BKN005/// BKN064/// 06/04 Q1003=
201204212020 METAR ESMX 212020Z AUTO 12005KT 080V160 9999NDV FEW008/// BKN070/// 06/04 Q1003=
201204211950 METAR ESMX 211950Z AUTO 12004KT 040V190 9999NDV BKN055/// 07/05 Q1003=
201204211920 METAR ESMX 211920Z AUTO 11004KT 070V160 9999NDV BKN055/// 08/05 Q1003=
201204211850 METAR ESMX 211850Z AUTO 11004KT 070V160 9999NDV FEW060/// 09/05 Q1002=
201204211820 METAR ESMX 211820Z AUTO 14004KT 100V190 9999NDV NCD 10/06 Q1002=
201204211750 METAR ESMX 211750Z AUTO 14005KT 080V190 9999NDV NCD 10/06 Q1002=
201204211720 METAR ESMX 211720Z AUTO 12005KT 070V170 9999NDV NCD 11/06 Q1001=
201204211650 METAR ESMX 211650Z AUTO 14005KT 100V190 9999NDV FEW032/// 12/06 Q1001=
201204211620 METAR ESMX 211620Z AUTO 16006KT 100V200 9999NDV SCT033/// BKN074/// 13/05 Q1001=
201204211550 METAR ESMX 211550Z AUTO 15006KT 110V190 9999NDV FEW064/// 13/05 Q1001=
201204211520 METAR ESMX 211520Z AUTO 14006KT 090V170 9999NDV FEW036/// 13/05 Q1001=
201204211450 METAR ESMX 211450Z AUTO 14006KT 080V170 9999NDV FEW078/// SCT100/// 12/06 Q1001=
201204211420 METAR ESMX 211420Z AUTO 12006KT 050V160 9999NDV FEW034/// SCT084/// 14/05 Q1001=
201204211350 METAR ESMX 211350Z AUTO 13006KT 070V180 9999NDV FEW034/// BKN079/// 14/05 Q1001=
201204211320 METAR ESMX 211320Z AUTO 12004KT 070V170 9999NDV FEW036/// SCT077/// 13/05 Q1001=
201204211250 METAR ESMX 211250Z AUTO 15006KT 090V190 9999NDV FEW033/// SCT072/// BKN082/// 13/05 Q1001=
201204211220 METAR ESMX 211220Z AUTO 15006KT 110V200 9999NDV FEW036/// 13/05 Q1001=
201204211150 METAR ESMX 211150Z AUTO 11004KT 060V170 9999NDV FEW035/// SCT042/// 13/05 Q1001=
201204211120 METAR ESMX 211120Z AUTO 15005KT 100V190 9999NDV FEW024/// 13/05 Q1001=
201204211050 METAR ESMX 211050Z AUTO 16005KT 090V210 9999NDV SCT023/// BKN032/// 12/05 Q1002=
201204211020 METAR ESMX 211020Z AUTO 17004KT 100V230 9999NDV BKN019/// 11/05 Q1001=
201204210950 METAR ESMX 210950Z AUTO 17004KT 070V220 9999NDV BKN017/// 10/05 Q1001=
201204210920 METAR ESMX 210920Z 12004KT 040V200 9999 BKN016 10/04 Q1001=
201204210850 METAR ESMX 210850Z VRB04KT 9999 BKN013 09/05 Q1001=
201204210820 METAR ESMX 210820Z 16005KT 120V210 9999 BKN011 BKN023 08/04 Q1001=
201204210750 METAR ESMX 210750Z 16004KT 110V200 9999 OVC011 06/03 Q1001=
201204210720 METAR ESMX 210720Z 16005KT 120V190 9999 SCT010 BKN014 BKN029 06/03 Q1001=
201204210650 METAR ESMX 210650Z 16004KT 120V220 9999 SCT007 BKN014 06/03 Q1000=
201204210620 METAR ESMX 210620Z 15006KT 110V190 9999 FEW006 SCT015 OVC025 05/03 Q1000=
201204210550 METAR ESMX 210550Z 17004KT 130V200 9999 FEW005 SCT015 OVC025 05/03 Q1000=
201204210520 METAR ESMX 210520Z 16005KT 140V200 9999 FEW010 OVC026 05/03 Q1000=
201204210450 METAR ESMX 210450Z 17005KT 9999 FEW014 BKN019 OVC023 04/03 Q0999=
201204210420 METAR ESMX 210420Z 17004KT 140V200 9999 BKN014 OVC022 04/03 Q0999=
201204210350 METAR ESMX 210350Z 17004KT 150V210 9999 SCT008 OVC010 04/03 Q0999=
201204210320 METAR ESMX 210320Z AUTO 18005KT 7000NDV BR FEW004/// BKN006/// OVC008/// 04/03 Q0999=
201204210250 METAR ESMX 210250Z AUTO 17005KT 5000NDV BR OVC003/// 04/03 Q0999=
201204210220 METAR ESMX 210220Z AUTO 19004KT 5000NDV BR OVC005/// 04/03 Q0999=
201204210150 METAR ESMX 210150Z AUTO 17002KT 9999NDV OVC005/// 04/03 Q0999=
201204210120 METAR ESMX 210120Z AUTO VRB02KT 9999NDV OVC006/// 04/02 Q0998=
201204210050 METAR ESMX 210050Z AUTO 16004KT 9999NDV OVC008/// 04/02 Q0998=
201204210020 METAR ESMX 210020Z AUTO VRB02KT 9999NDV FEW010/// OVC012/// 03/02 Q0998=
201204202350 METAR ESMX 202350Z AUTO 17002KT 9999NDV OVC014/// 03/02 Q0998=
201204202320 METAR ESMX 202320Z AUTO 18003KT 9999NDV OVC017/// 03/02 Q0998=
201204202250 METAR ESMX 202250Z AUTO 18003KT 9999NDV OVC018/// 03/02 Q0998=
201204202220 METAR ESMX 202220Z AUTO 20003KT 9999NDV OVC019/// 03/02 Q0998=
201204202150 METAR ESMX 202150Z 22002KT 9999 OVC019 03/01 Q0998=
201204202120 METAR ESMX 202120Z 21003KT 9999 BKN020 03/02 Q0998=
201204202050 METAR ESMX 202050Z 23003KT 9999 BKN017 03/02 Q0997=
201204202020 METAR ESMX 202020Z 22003KT 9999 FEW008 BKN020 03/02 Q0997=
201204201950 METAR ESMX 201950Z 23002KT 9999 FEW006 BKN021 03/02 Q0997=
201204201920 METAR ESMX 201920Z VRB01KT 9999 FEW008 BKN021 03/02 Q0997=
201204201850 METAR ESMX 201850Z 25003KT 9999 FEW008 BKN020 03/02 Q0997=
201204201820 METAR ESMX 201820Z 25003KT 9999 FEW009 BKN020 03/02 Q0996=
201204201750 METAR ESMX 201750Z 26003KT 9999 FEW007 SCT010 BKN017 03/02 Q0996=
201204201720 METAR ESMX 201720Z 26003KT 9999 FEW008 BKN020 04/02 Q0996=
201204201650 METAR ESMX 201650Z 25003KT 220V280 9999 FEW013 SCT018 BKN023 04/02 Q0996=
201204201620 METAR ESMX 201620Z 28003KT 240V320 9999 FEW007 SCT019 BKN023 04/02 Q0996=
201204201550 METAR ESMX 201550Z 29004KT 240V360 9999 -DZ FEW007 SCT008 BKN018 04/02 Q0995=
201204201520 METAR ESMX 201520Z 30003KT 250V350 9999 -DZ FEW006 SCT009 BKN013 04/02 Q0995=
201204201450 METAR ESMX 201450Z 35002KT 9999 -RA SCT011 BKN014 BKN019 03/01 Q0995 REDZ=
201204201420 METAR ESMX 201420Z 34005KT 300V020 9999 -DZ FEW009 SCT012 BKN017 03/02 Q0995=
201204201350 METAR ESMX 201350Z 35003KT 300V050 9999 DZ FEW010 SCT017 BKN022 04/01 Q0995=
201204201320 METAR ESMX 201320Z 34005KT 300V010 9999 -RA FEW008 SCT012 BKN017 04/02 Q0995 REDZ=
201204201250 METAR ESMX 201250Z 36006KT 9999 -RA FEW008 SCT012 BKN020 03/02 Q0995=
201204201220 METAR ESMX 201220Z 01007KT 9999 -RA FEW009 SCT014 BKN016 03/02 Q0995=
201204201150 METAR ESMX 201150Z 36007KT 9999 -RA FEW009 SCT015 OVC021 03/02 Q0995=
201204201120 METAR ESMX 201120Z 36008KT 9999 -RA FEW007 SCT009 BKN013 03/02 Q0995=
201204201050 METAR ESMX 201050Z 36009KT 9999 -RA FEW007 SCT009 BKN011 03/02 Q0995=
201204201020 METAR ESMX 201020Z 01009KT 330V040 9999 -RA SCT006 BKN008 BKN013 03/01 Q0995=
201204200950 METAR ESMX 200950Z 01008KT 7000 -RA FEW006 SCT008 BKN009 02/01 Q0995=
201204200920 METAR ESMX 200920Z 01009KT 330V040 9999 -RA SCT007 BKN010 02/01 Q0995=
201204200850 METAR ESMX 200850Z 36009KT 9999 -RA FEW006 BKN008 OVC012 02/01 Q0996 REDZ=
201204200820 METAR ESMX 200820Z 36008KT 9999 -RA FEW005 SCT006 BKN007 02/02 Q0996=
201204200750 METAR ESMX 200750Z 35007KT 9000 -RA SCT003 BKN007 BKN009 02/01 Q0996=
201204200720 METAR ESMX 200720Z 34007KT 4800 RA FEW002 OVC004 01/01 Q0996=
201204200650 METAR ESMX 200650Z 34007KT 3500 RASN FEW002 BKN004 OVC006 01/00 Q0996=
201204200620 METAR ESMX 200620Z 34007KT 2200 SNRA OVC003 01/00 Q0996=
201204200550 METAR ESMX 200550Z 35008KT 4700 RASN BKN004 BKN006 01/01 Q0997=
201204200520 METAR ESMX 200520Z 02008KT 6000 -RA SCT004 BKN006 OVC009 02/01 Q0997=
201204200450 METAR ESMX 200450Z 01008KT 6000 RA FEW006 SCT007 BKN009 02/01 Q0997=
201204200420 METAR ESMX 200420Z 04011KT 360V070 9000 -RA FEW007 BKN008 BKN015 03/01 Q0997=
201204200350 METAR ESMX 200350Z 03009KT 360V080 9999 -RA FEW007 BKN009 03/02 Q0997=
201204200320 METAR ESMX 200320Z AUTO 03009KT 9999NDV -RA OVC010/// 03/02 Q0998 REDZ=
201204200250 METAR ESMX 200250Z AUTO 03009KT 9999NDV DZ BKN013/// 03/01 Q0998=
201204200220 METAR ESMX 200220Z AUTO 03008KT 9999NDV -DZ FEW019/// SCT042/// 04/01 Q0998=
201204200150 METAR ESMX 200150Z AUTO 04009KT 010V080 9999NDV FEW079/// 04/00 Q0999=
201204200120 METAR ESMX 200120Z AUTO 04009KT 010V070 9999NDV SCT034/// OVC078/// 05/00 Q0999=
201204200050 METAR ESMX 200050Z AUTO 04008KT 010V080 9999NDV BKN034/// OVC078/// 05/01 Q0999=
201204200020 METAR ESMX 200020Z AUTO 03007KT 9999NDV BKN033/// OVC071/// 05/01 Q0999=
201204192350 METAR ESMX 192350Z AUTO 05006KT 020V100 9999NDV OVC033/// 05/01 Q1000=
201204192320 METAR ESMX 192320Z 04005KT 9999 SCT030 BKN060 05/01 Q1000=
201204192250 METAR ESMX 192250Z 06004KT 360V110 CAVOK 05/01 Q1001=
201204192220 METAR ESMX 192220Z 06007KT 020V110 CAVOK 06/01 Q1001=
201204192150 METAR ESMX 192150Z 06006KT 020V100 9999 SCT041 OVC072 06/01 Q1001=
201204192120 METAR ESMX 192120Z 05005KT 020V100 9999 BKN037 OVC055 06/01 Q1001=
201204192050 METAR ESMX 192050Z 06006KT 020V120 9999 OVC038 06/01 Q1002=
201204192020 METAR ESMX 192020Z 08005KT 040V160 9999 OVC038 07/01 Q1002=
201204191950 METAR ESMX 191950Z 09007KT 030V150 9999 OVC034 07/01 Q1002=
201204191920 METAR ESMX 191920Z 09006KT 040V150 9999 OVC031 07/02 Q1002=
201204191850 METAR ESMX 191850Z 09008KT 040V140 9999 BKN020 07/02 Q1002=
201204191820 METAR ESMX 191820Z 08008KT 040V120 9999 SCT022 BKN080 07/02 Q1002=
201204191750 METAR ESMX 191750Z 09007KT 030V140 9999 FEW027 BKN067 08/03 Q1001=
201204191720 METAR ESMX 191720Z 08007KT 030V140 9999 SCT025 BKN070 08/03 Q1001=
201204191650 METAR ESMX 191650Z 09009KT 030V130 9999 FEW030 BKN066 09/03 Q1001=
201204191620 METAR ESMX 191620Z 08009KT 020V120 9999 FEW026 BKN070 10/03 Q1001=
201204191550 METAR ESMX 191550Z 09006KT 030V140 9999 FEW028 BKN062 10/04 Q1001=
201204191520 METAR ESMX 191520Z 09007KT 350V140 9999 FEW025 BKN061 10/03 Q1001=
201204191450 METAR ESMX 191450Z 08007KT 040V170 9999 FEW020 BKN058 09/04 Q1001=
201204191420 METAR ESMX 191420Z 08007KT 020V130 9999 FEW018 SCT041 BKN055 09/04 Q1001=
201204191350 METAR ESMX 191350Z 09006KT 020V140 9999 SCT017 BKN021 OVC035 08/04 Q1001=
201204191320 METAR ESMX 191320Z 09008KT 020V200 9999 BKN018 08/04 Q1001=
201204191250 METAR ESMX 191250Z 09006KT 010V160 9999 FEW017 BKN020 OVC024 08/04 Q1001=
201204191220 METAR ESMX 191220Z 10006KT 050V160 9999 BKN019 BKN028 08/04 Q1001=
201204191150 METAR ESMX 191150Z 09007KT 020V150 9999 BKN020 09/04 Q1001=
201204191120 METAR ESMX 191120Z 11008KT 020V170 9999 OVC023 09/04 Q1001=
201204191050 METAR ESMX 191050Z 12008KT 050V190 9999 BKN026 10/03 Q1001=
201204191020 METAR ESMX 191020Z 11008KT 040V160 9999 OVC029 10/03 Q1001=
201204190950 METAR ESMX 190950Z 11010KT 060V160 9999 BKN032 BKN050 11/03 Q1001=
201204190920 METAR ESMX 190920Z 10009KT 340V150 CAVOK 11/02 Q1001=
201204190850 METAR ESMX 190850Z 08009KT 040V120 CAVOK 11/01 Q1001=
201204190820 METAR ESMX 190820Z 08006KT 030V120 CAVOK 10/02 Q1001=
201204190720 METAR ESMX 190720Z 05006KT 020V080 CAVOK 07/01 Q1001=
201204190650 METAR ESMX 190650Z 06004KT 020V130 CAVOK 05/01 Q1001=
201204190620 METAR ESMX 190620Z 06004KT 020V150 CAVOK 05/00 Q1001=
201204190550 METAR ESMX 190550Z 05005KT 010V100 CAVOK 04/00 Q1001=
201204190520 METAR ESMX 190520Z 05005KT 020V090 CAVOK 04/M00 Q1001=
201204190450 METAR ESMX 190450Z 06004KT 020V100 CAVOK 03/M00 Q1001=
201204190420 METAR ESMX 190420Z 06005KT 030V090 CAVOK 03/M01 Q1001=
201204190350 METAR ESMX 190350Z 05004KT 020V080 CAVOK 03/M01 Q1001=
201204190320 METAR ESMX 190320Z AUTO 07004KT 010V110 9999NDV BKN077/// 03/M01 Q1001=
201204190250 METAR ESMX 190250Z AUTO 08003KT 030V150 9999NDV SCT058/// OVC073/// 04/M01 Q1001=
201204190220 METAR ESMX 190220Z AUTO 07003KT 020V110 9999NDV SCT055/// OVC070/// 04/M01 Q1001=
201204190150 METAR ESMX 190150Z AUTO 10004KT 050V160 9999NDV FEW061/// BKN073/// 03/M01 Q1002=
201204190120 METAR ESMX 190120Z AUTO VRB04KT 9999NDV SCT067/// 03/M02 Q1002=
201204190050 METAR ESMX 190050Z AUTO 11003KT 050V220 9999NDV NCD 03/M02 Q1002=
201204190020 METAR ESMX 190020Z AUTO 11004KT 050V160 9999NDV NCD 03/M02 Q1002=
201204182350 METAR ESMX 182350Z AUTO 12004KT 060V170 9999NDV BKN068/// 03/M03 Q1002=
201204182320 METAR ESMX 182320Z 10003KT 060V160 CAVOK 03/M03 Q1002=
201204182250 METAR ESMX 182250Z 10004KT 050V150 CAVOK 03/M03 Q1002=
201204182220 METAR ESMX 182220Z 09003KT 360V150 CAVOK 03/M03 Q1002=
201204182150 METAR ESMX 182150Z 10004KT 030V150 CAVOK 03/M03 Q1002=
201204182120 METAR ESMX 182120Z 11003KT 010V170 CAVOK 03/M03 Q1002=
201204182050 METAR ESMX 182050Z 11004KT 060V190 CAVOK 03/M03 Q1002=
201204182020 METAR ESMX 182020Z 11004KT 050V190 CAVOK 04/M04 Q1002=
201204181950 METAR ESMX 181950Z 12005KT 070V170 CAVOK 04/M04 Q1002=
201204181920 METAR ESMX 181920Z 12006KT 070V170 CAVOK 05/M04 Q1002=
201204181850 METAR ESMX 181850Z 11006KT 060V190 CAVOK 06/M03 Q1002=
201204181820 METAR ESMX 181820Z 12005KT 070V170 CAVOK 07/M04 Q1002=
201204181750 METAR ESMX 181750Z 15006KT 110V180 CAVOK 08/M05 Q1001=
201204181720 METAR ESMX 181720Z 14007KT 100V190 CAVOK 08/M05 Q1001=
201204181650 METAR ESMX 181650Z 16008KT 130V200 CAVOK 09/M05 Q1001=
201204181620 METAR ESMX 181620Z 17009KT 130V200 CAVOK 09/M04 Q1001=
201204181550 METAR ESMX 181550Z 16010KT 110V220 CAVOK 09/M05 Q1001=
201204181520 METAR ESMX 181520Z 15011KT CAVOK 09/M04 Q1001=
201204181450 METAR ESMX 181450Z 15011KT 100V190 CAVOK 09/M04 Q1001=
201204181420 METAR ESMX 181420Z 19012KT CAVOK 10/M05 Q1001=
201204181350 METAR ESMX 181350Z 17014KT 140V200 CAVOK 10/M03 Q1001=
201204181320 METAR ESMX 181320Z 15011KT 110V190 CAVOK 10/M04 Q1001=
201204181250 METAR ESMX 181250Z 16012KT 110V200 CAVOK 10/M04 Q1001=
201204181220 METAR ESMX 181220Z 15010KT 110V200 CAVOK 10/M04 Q1001=
201204181150 METAR ESMX 181150Z 16011KT 110V190 9999 FEW035 SCT055 10/M03 Q1001=
201204181120 METAR ESMX 181120Z 17012KT 140V200 CAVOK 09/M04 Q1002=
201204181050 METAR ESMX 181050Z 15011KT 110V200 CAVOK 09/M04 Q1002=
201204181020 METAR ESMX 181020Z 14010KT 100V190 CAVOK 09/M04 Q1002=
201204180950 METAR ESMX 180950Z 16009KT 110V200 9999 FEW045 08/M03 Q1002=
201204180920 METAR ESMX 180920Z 16009KT 120V190 9999 FEW035 07/M03 Q1002=
201204180850 METAR ESMX 180850Z 17010KT 120V210 9999 FEW035 08/M01 Q1002=
201204180820 METAR ESMX 180820Z 15007KT 080V220 CAVOK 07/M01 Q1002=
201204180750 METAR ESMX 180750Z 16007KT 130V200 CAVOK 06/M01 Q1002=
201204180720 METAR ESMX 180720Z 16008KT 100V190 CAVOK 05/M01 Q1002=
201204180650 METAR ESMX 180650Z 15006KT 110V200 CAVOK 04/M01 Q1002=
201204180620 METAR ESMX 180620Z 15007KT 110V180 CAVOK 03/M01 Q1002=
201204180550 METAR ESMX 180550Z 15007KT 120V190 CAVOK 02/M01 Q1003=
201204180520 METAR ESMX 180520Z 14006KT 100V180 CAVOK 01/M01 Q1003=
201204180450 METAR ESMX 180450Z 14006KT 100V170 CAVOK 01/M01 Q1003=
201204180420 METAR ESMX 180420Z 14006KT 110V170 CAVOK 01/M01 Q1002=
201204180350 METAR ESMX 180350Z 14005KT 100V170 CAVOK M00/M02 Q1003=
201204180320 METAR ESMX 180320Z AUTO 13004KT 100V160 9999NDV NCD M01/M02 Q1003=
201204180250 METAR ESMX 180250Z AUTO 13004KT 9999NDV BKN061/// M00/M02 Q1003=
201204180220 METAR ESMX 180220Z AUTO 14004KT 110V170 9999NDV SCT062/// M00/M02 Q1003=
201204180150 METAR ESMX 180150Z AUTO 13004KT 9999NDV NCD M01/M02 Q1003=
201204180120 METAR ESMX 180120Z AUTO 14004KT 9999NDV NCD M02/M03 Q1003=
201204180050 METAR ESMX 180050Z AUTO 14004KT 110V170 9999NDV NCD M03/M03 Q1004=
201204180020 METAR ESMX 180020Z AUTO VRB01KT 9999NDV NCD M03/M04 Q1004=
201204172350 METAR ESMX 172350Z VRB02KT CAVOK M02/M04 Q1004=
201204172320 METAR ESMX 172320Z 18003KT CAVOK M00/M03 Q1004=
201204172250 METAR ESMX 172250Z 19004KT 9999 FEW064 M01/M03 Q1004=
201204172220 METAR ESMX 172220Z 19005KT CAVOK M01/M03 Q1004=
201204172150 METAR ESMX 172150Z 19005KT CAVOK M01/M03 Q1004=
201204172120 METAR ESMX 172120Z 20003KT CAVOK M00/M03 Q1004=
201204172050 METAR ESMX 172050Z 21005KT CAVOK M00/M03 Q1004=
201204172020 METAR ESMX 172020Z 21005KT CAVOK M01/M03 Q1004=
201204171950 METAR ESMX 171950Z 22004KT CAVOK 00/M03 Q1004=
201204171920 METAR ESMX 171920Z 23004KT CAVOK 01/M02 Q1004=
201204171850 METAR ESMX 171850Z 23005KT 9999 FEW040 01/M02 Q1004=
201204171820 METAR ESMX 171820Z 23007KT 200V270 9999 FEW042 03/M02 Q1004=
201204171750 METAR ESMX 171750Z 22009KT 9999 FEW042 04/M02 Q1003=
201204171720 METAR ESMX 171720Z 23009KT 9999 FEW050 04/M03 Q1003=
201204171650 METAR ESMX 171650Z 24012KT CAVOK 06/M03 Q1003=
201204171620 METAR ESMX 171620Z 26014KT 220V290 CAVOK 07/M07 Q1003=
201204171550 METAR ESMX 171550Z 27009KT 240V310 9999 SCT048 06/M05 Q1003=
201204171520 METAR ESMX 171520Z 25011KT 210V290 9999 SCT048 06/M07 Q1003=
201204171450 METAR ESMX 171450Z 26011KT 220V300 9999 SCT048 07/M07 Q1003=
201204171420 METAR ESMX 171420Z 28020KT 9999 FEW047 SCT054 06/M06 Q1003=
201204171350 METAR ESMX 171350Z 27015KT 240V310 9999 SCT045 07/M07 Q1003=
201204171320 METAR ESMX 171320Z 24014KT 200V290 9999 VCSH FEW024 SCT056 07/M05 Q1003=
201204171250 METAR ESMX 171250Z 26016KT 9999 VCSH FEW040 SCT050 07/M06 Q1003=
201204171220 METAR ESMX 171220Z 27015KT 9999 VCSH FEW030CB SCT035 05/M07 Q1003=
201204171150 METAR ESMX 171150Z 22013G23KT 160V250 9999 VCSH FEW035CB SCT040 06/M02 Q1003=
201204171120 METAR ESMX 171120Z 24014KT 9999 FEW041 SCT057 04/M01 Q1004=
201204171050 METAR ESMX 171050Z 28011KT 250V320 9999 VCSH FEW028CB SCT034 BKN058 06/M02 Q1003=
201204171020 METAR ESMX 171020Z 25007KT 210V300 9999 VCSH FEW015CB SCT035 05/01 Q1004=
201204170950 METAR ESMX 170950Z 27009KT 220V320 9999 FEW017CB SCT028 BKN037 05/00 Q1004=
201204170920 METAR ESMX 170920Z 29008KT 250V330 9999 FEW004 BKN015 03/01 Q1004=
201204170850 METAR ESMX 170850Z 30006KT 280V340 9999 VCSH SCT005 SCT021CB 01/00 Q1004=
201204170820 METAR ESMX 170820Z 28017KT 1500 SHGS FEW003 BKN024CB 03/M01 Q1004=
201204170750 METAR ESMX 170750Z 26005KT 210V300 9999 FEW014 BKN016 04/01 Q1004=
201204170720 METAR ESMX 170720Z 23005KT 180V260 5000 SN SCT006 BKN014 02/00 Q1004=
201204170650 METAR ESMX 170650Z 25004KT 210V280 9999 FEW006 SCT024 01/01 Q1004=
201204170620 METAR ESMX 170620Z 22006KT 5000 -RASN SCT006 BKN025CB 01/M00 Q1005 RERA=
201204170550 METAR COR ESMX 170550Z 23005KT 9999 5000S -SN FEW003 BKN015 01/00 Q1004=
201204170520 METAR ESMX 170520Z 22003KT 180V250 9999 OVC002 M00/M01 Q1005=
201204170450 METAR ESMX 170450Z 23003KT 9999 OVC003 M01/M01 Q1005=
201204170420 METAR ESMX 170420Z 24003KT 9999 BKN002 M01/M02 Q1005=
201204170350 METAR ESMX 170350Z 25005KT 210V290 9999 BKN003 M01/M01 Q1005=
201204170320 METAR ESMX 170320Z AUTO 24003KT 9999NDV BKN004/// BKN007/// M01/M02 Q1005=
201204170250 METAR ESMX 170250Z AUTO 23004KT 200V260 9999NDV FEW005/// SCT006/// OVC052/// M01/M02 Q1005=
201204170220 METAR ESMX 170220Z AUTO 23004KT 9999NDV FEW036/// SCT046/// BKN051/// M02/M03 Q1005=
201204170150 METAR ESMX 170150Z AUTO 21002KT 9999NDV FEW053/// SCT098/// M02/M03 Q1006=
201204170120 METAR ESMX 170120Z AUTO 25002KT 9999NDV FEW053/// BKN089/// M02/M03 Q1006=
201204170050 METAR ESMX 170050Z AUTO VRB02KT 9999NDV SCT093/// M02/M03 Q1006=
201204170020 METAR ESMX 170020Z AUTO 26003KT 9999NDV NCD M01/M03 Q1007=
201204162350 METAR ESMX 162350Z 24004KT 200V260 CAVOK M01/M03 Q1007=
201204162320 METAR ESMX 162320Z 24003KT CAVOK M01/M03 Q1007=
201204162250 METAR ESMX 162250Z 23003KT CAVOK M01/M03 Q1007=
201204162220 METAR ESMX 162220Z VRB02KT CAVOK M01/M03 Q1008=
201204162150 METAR ESMX 162150Z 24004KT CAVOK M00/M03 Q1008=
201204162120 METAR ESMX 162120Z 25004KT CAVOK 00/M03 Q1008=
201204162050 METAR ESMX 162050Z 25004KT 230V290 CAVOK 01/M03 Q1008=
201204162020 METAR ESMX 162020Z 26004KT CAVOK 01/M03 Q1008=
201204161950 METAR ESMX 161950Z 26005KT CAVOK 02/M03 Q1008=
201204161920 METAR ESMX 161920Z 26005KT CAVOK 02/M03 Q1008=
201204161850 METAR ESMX 161850Z 27004KT CAVOK 03/M03 Q1008=
201204161820 METAR ESMX 161820Z 28007KT CAVOK 04/M04 Q1008=
201204161750 METAR ESMX 161750Z 28010KT CAVOK 05/M03 Q1008=
201204161720 METAR ESMX 161720Z 25010KT CAVOK 06/M05 Q1008=
201204161650 METAR ESMX 161650Z 26010KT CAVOK 07/M05 Q1008=
201204161620 METAR ESMX 161620Z 25010KT CAVOK 08/M05 Q1008=
201204161550 METAR ESMX 161550Z 28009KT 250V310 CAVOK 07/M04 Q1008=
201204161520 METAR ESMX 161520Z 24010KT 200V280 CAVOK 09/M05 Q1008=
201204161450 METAR ESMX 161450Z 26010KT CAVOK 08/M05 Q1008=
201204161420 METAR ESMX 161420Z 28008KT 250V330 CAVOK 09/M06 Q1008=
201204161350 METAR ESMX 161350Z 28009KT 250V320 CAVOK 10/M05 Q1009=
201204161320 METAR ESMX 161320Z 27007KT 220V340 CAVOK 09/M06 Q1009=
201204161250 METAR ESMX 161250Z 26010KT 210V300 CAVOK 09/M04 Q1009=
201204161220 METAR ESMX 161220Z 28007KT 220V320 9999 FEW048 09/M03 Q1009=
201204161150 METAR ESMX 161150Z 30009KT 280V340 9999 FEW046 09/M03 Q1009=
201204161120 METAR ESMX 161120Z 29006KT 250V330 9999 FEW040 09/M03 Q1010=
201204161050 METAR ESMX 161050Z 30007KT 270V350 9999 FEW030 09/M02 Q1010=
201204161020 METAR ESMX 161020Z 30007KT 240V340 9999 FEW030 08/M03 Q1010=
201204160950 METAR ESMX 160950Z 27005KT 230V330 9999 FEW030 07/M03 Q1011=
201204160920 METAR ESMX 160920Z 28006KT 250V340 9999 FEW030 06/M02 Q1011=
201204160850 METAR ESMX 160850Z 26007KT 9999 FEW030 06/M01 Q1011=
201204160820 METAR ESMX 160820Z 27005KT 210V010 9999 FEW020 06/M01 Q1011=
201204160750 METAR ESMX 160750Z 33006KT 280V020 9999 FEW020 SCT100 05/M01 Q1011=
201204160720 METAR ESMX 160720Z 29006KT 210V320 CAVOK 04/00 Q1011=
201204160650 METAR ESMX 160650Z 31005KT 280V350 CAVOK 03/00 Q1011=
201204160620 METAR ESMX 160620Z 30005KT CAVOK 02/M00 Q1011=
201204160550 METAR ESMX 160550Z 28003KT CAVOK 02/M00 Q1011=
201204160520 METAR ESMX 160520Z 30002KT CAVOK 02/M00 Q1011=
201204160450 METAR ESMX 160450Z VRB02KT CAVOK 01/M01 Q1012=
201204160420 METAR ESMX 160420Z 30003KT CAVOK 01/M00 Q1011=
201204160350 METAR ESMX 160350Z 30003KT 9999 FEW035 BKN064 02/M00 Q1012=
201204160320 METAR ESMX 160320Z 29003KT 9999 FEW044 OVC063 02/M00 Q1012=
201204160250 METAR ESMX 160250Z AUTO 30002KT 9999NDV OVC060/// 02/M00 Q1012=
201204160220 METAR ESMX 160220Z AUTO 31003KT 9999NDV FEW028/// OVC061/// 02/M00 Q1012=
201204160150 METAR ESMX 160150Z AUTO 31003KT 270V340 9999NDV BKN037/// OVC061/// 02/M00 Q1012=
201204160120 METAR ESMX 160120Z AUTO 28003KT 9999NDV FEW026/// OVC038/// 02/M00 Q1012=
201204160050 METAR ESMX 160050Z AUTO 28002KT 9999NDV FEW027/// BKN062/// BKN078/// 02/M00 Q1012=
201204160020 METAR ESMX 160020Z AUTO 28003KT 9999NDV FEW035/// BKN057/// 03/M00 Q1012=
201204152350 METAR ESMX 152350Z AUTO 31003KT 9999NDV FEW039/// SCT062/// OVC082/// 03/M00 Q1013=
201204152320 METAR ESMX 152320Z 30004KT 9999 FEW028 SCT039 BKN080 03/00 Q1013=
201204152250 METAR ESMX 152250Z 31005KT 9999 FEW049 SCT054 BKN080 03/01 Q1013=
201204152220 METAR ESMX 152220Z 29005KT 250V340 9999 SCT049 BKN077 04/01 Q1013=
201204152150 METAR ESMX 152150Z 27004KT 9999 SCT048 BKN079 04/03 Q1013=
201204152120 METAR ESMX 152120Z 26003KT 9999 BKN034 BKN085 03/03 Q1012=
201204152050 METAR ESMX 152050Z 26003KT 5000 BR SCT031 BKN035 03/03 Q1012=
201204152020 METAR ESMX 152020Z 25002KT 4000 BR BKN038 BKN051 04/04 Q1012=
201204151950 METAR ESMX 151950Z 23001KT 3400 BR SCT044 OVC058 05/04 Q1012=
201204151920 METAR ESMX 151920Z 22002KT 3000 BCFG FEW031 SCT070 BKN088 04/03 Q1012=
201204151850 METAR ESMX 151850Z 22002KT 1500 R01/P2000N R19/0800V1900D BCFG FEW041 05/04 Q1012=
201204151820 METAR ESMX 151820Z 28002KT 3000 R01/P2000D R19/P2000N BCFG FEW042 BKN066 05/04 Q1012=
201204151750 METAR ESMX 151750Z VRB01KT 9999 SCT042 BKN052 06/05 Q1012=
201204151720 METAR ESMX 151720Z VRB02KT 9999 SCT042 BKN057 07/05 Q1011=
201204151650 METAR ESMX 151650Z 34003KT 300V010 9999 FEW015 SCT025CB BKN070 07/05 Q1011=
201204151620 METAR ESMX 151620Z 27009KT 6000 SHRA FEW015 SCT028CB BKN070 06/04 Q1011=
201204151550 METAR ESMX 151550Z 27003KT 230V300 9999 FEW025CB SCT045 BKN075 10/01 Q1011=
201204151520 METAR ESMX 151520Z VRB02KT 9999 FEW045CB BKN065 10/01 Q1011=
201204151450 METAR ESMX 151450Z 28006KT 250V310 9999 SCT045CB BKN070 10/00 Q1011=
201204151420 METAR ESMX 151420Z VRB02KT 9999 SCT030CB BKN081 10/M00 Q1011=
201204151350 METAR ESMX 151350Z 24003KT 200V280 9999 SCT035CB BKN070 11/01 Q1011=
201204151320 METAR ESMX 151320Z 18005KT 9999 SCT035CB BKN078 11/00 Q1011=
201204151250 METAR ESMX 151250Z 19007KT 110V230 9999 FEW0035CB SCT040 BKN070 11/02 Q1011=
201204151220 METAR ESMX 151220Z 18007KT 9999 FEW040CB SCT045 BKN070 10/00 Q1011=
201204151150 METAR ESMX 151150Z AUTO 19008KT 150V220 9999NDV FEW038/// SCT059/// BKN074/// 10/01 Q1011=
201204151120 METAR ESMX 151120Z AUTO 17006KT 130V200 9999NDV SCT042/// BKN051/// 10/01 Q1011=
201204151050 METAR ESMX 151050Z AUTO 19005KT 150V260 9999NDV FEW043/// SCT048/// BKN061/// 11/M00 Q1011=
201204151020 METAR ESMX 151020Z AUTO 16005KT 110V210 9999NDV BKN039/// 11/00 Q1011=
201204150950 METAR ESMX 150950Z AUTO 13005KT 070V190 9999NDV SCT035/// 10/00 Q1011=
201204150920 METAR ESMX 150920Z AUTO 21006KT 180V250 9999NDV FEW034/// 10/01 Q1011=
201204150850 METAR ESMX 150850Z AUTO 19005KT 120V230 9999NDV NCD 09/01 Q1011=
201204150820 METAR ESMX 150820Z AUTO 15003KT 100V210 9999NDV NCD 09/01 Q1011=
201204150750 METAR ESMX 150750Z AUTO VRB02KT 9999NDV SCT000/// 08/03 Q1010=
201204150720 METAR ESMX 150720Z AUTO VRB02KT 9999NDV VV000 05/04 Q1010=
201204150650 METAR ESMX 150650Z AUTO VRB01KT 4000NDV VV000 04/03 Q1010=
201204150620 METAR ESMX 150620Z AUTO 00000KT 1900NDV VV000 02/01 Q1010=
201204150550 METAR ESMX 150550Z AUTO VRB01KT 0600NDV R01/0700VP2000D R19/0900N=
201204150520 METAR ESMX 150520Z AUTO 19002KT 0100NDV R01/0800V1200 R19/0275N=
201204150450 METAR ESMX 150450Z AUTO 02001KT 0050NDV R01/0175N R19/0300N FZFG VV000 M02/M02 Q1009=
201204150420 METAR ESMX 150420Z AUTO 00000KT 0100NDV R01/0200V0300 R19/0375V0550N FZFG VV000 M03/M03 Q1009=
201204150350 METAR ESMX 150350Z AUTO 00000KT 0150NDV R01/0500 R19/0375V0550N=
201204150320 METAR ESMX 150320Z AUTO VRB01KT 0100NDV R01/0600V0900 R19/0375 BCFG VV000 M04/M04 Q1009=
201204150250 METAR ESMX 150250Z AUTO 00000KT 0100NDV R01/P2000N R19/0275 BCFG VV000 M03/M04 Q1009=
201204150220 METAR ESMX 150220Z AUTO 19001KT 1500NDV VV000 M03/M04 Q1009=
201204150150 METAR ESMX 150150Z AUTO 17001KT 1700NDV BCFG NCD M03/M03 Q1009=
201204150120 METAR ESMX 150120Z AUTO 00000KT 1300NDV R01/P2000N R19/P2000N NCD M03/M03 Q1008=
201204150050 METAR ESMX 150050Z AUTO 00000KT 9999NDV NCD M02/M03 Q1008=
201204150020 METAR ESMX 150020Z AUTO 00000KT 0600NDV R01/P2000N R19/P2000N FZFG NCD M02/M03 Q1008=
201204142350 METAR ESMX 142350Z AUTO 18001KT 7000NDV BR NCD M01/M02 Q1008=
201204142320 METAR ESMX 142320Z AUTO 00000KT 9999NDV FEW037/// M01/M02 Q1008=
201204142250 METAR ESMX 142250Z AUTO 21001KT 9999NDV NCD M01/M02 Q1008=
201204142220 METAR ESMX 142220Z AUTO 21001KT 9999NDV NCD M01/M01 Q1008=
201204142150 METAR ESMX 142150Z AUTO 20002KT 9999NDV NCD M00/M01 Q1008=
201204142120 METAR ESMX 142120Z AUTO 18002KT 9999NDV FEW042/// 01/M00 Q1007=
201204142050 METAR ESMX 142050Z AUTO VRB01KT 9999NDV FEW051/// 01/00 Q1007=
201204142020 METAR ESMX 142020Z AUTO VRB02KT 9999NDV FEW040/// BKN052/// 02/01 Q1007=
201204141950 METAR ESMX 141950Z AUTO 25002KT 9999NDV FEW040/// BKN054/// 03/01 Q1007=
201204141920 METAR ESMX 141920Z AUTO 24002KT 9999NDV FEW052/// BKN071/// 03/M00 Q1007=
201204141850 METAR ESMX 141850Z AUTO 28002KT 9999NDV SCT070/// 04/00 Q1006=
201204141820 METAR ESMX 141820Z AUTO 29003KT 9999NDV SCT071/// 06/00 Q1006=
201204141750 METAR ESMX 141750Z AUTO 28003KT 9999NDV BKN064/// 08/M00 Q1006=
201204141720 METAR ESMX 141720Z AUTO VRB02KT 9999NDV FEW037/// SCT058/// BKN072/// 09/01 Q1005=
201204141650 METAR ESMX 141650Z AUTO 24001KT 9999NDV FEW038/// SCT054/// BKN072/// 08/01 Q1005=
201204141620 METAR ESMX 141620Z AUTO 35003KT 260V050 9999NDV FEW038/// SCT066/// 08/01 Q1005=
201204141550 METAR ESMX 141550Z AUTO 01004KT 330V060 9999NDV BKN069/// 09/01 Q1005=
201204141520 METAR ESMX 141520Z AUTO 29006KT 250V320 9999NDV FEW028/// BKN071/// 09/01 Q1005=
201204141450 METAR ESMX 141450Z AUTO 28005KT 220V020 9999NDV OVC057/// 10/02 Q1005=
201204141420 METAR ESMX 141420Z AUTO 25004KT 210V290 9999NDV FEW048/// BKN053/// 08/02 Q1005=
201204141350 METAR ESMX 141350Z 21005KT 9999 -SHRA FEW026CB SCT033 BKN038 07/03 Q1005=
201204141320 METAR ESMX 141320Z 28005KT 230V330 9999 FEW020CB BKN045 08/02 Q1005=
201204141250 METAR ESMX 141250Z 32006KT 270V340 9999 FEW023CB BKN040 08/01 Q1005=
201204141220 METAR ESMX 141220Z 26007KT 220V290 9999 SCT025 BKN031 OVC048 07/01 Q1005=
201204141150 METAR ESMX 141150Z 23008KT 190V270 9999 FEW025CB BKN040 08/02 Q1005=
201204141120 METAR ESMX 141120Z 22010KT 190V250 9999 SCT025TCU BKN045 08/02 Q1004=
201204141050 METAR ESMX 141050Z 23007KT 200V280 9999 SCT020TCU BKN035 08/02 Q1004=
201204141020 METAR ESMX 141020Z 23008KT 190V280 9999 FEW022 BKN030 08/02 Q1004=
201204140950 METAR ESMX 140950Z 23005KT 200V270 9999 SCT025 BKN030 08/01 Q1004=
201204140920 METAR ESMX 140920Z 21003KT 170V250 9999 SCT022 BKN035 07/M00 Q1004=
201204140850 METAR ESMX 140850Z 19006KT 150V230 9999 FEW020TCU SCT030 06/01 Q1004=
201204140820 METAR ESMX 140820Z VRB02KT 9999 SCT020 07/00 Q1004=
201204140750 METAR ESMX 140750Z 27004KT 230V320 9999 SCT018 06/01 Q1004=
201204140720 METAR ESMX 140720Z 21003KT 180V260 9999 FEW012 SCT060 05/01 Q1003=
201204140650 METAR ESMX 140650Z 22003KT 9999 FEW040 BKN060 04/01 Q1003=
201204140620 METAR ESMX 140620Z VRB02KT 9999 FEW045 BKN080 03/01 Q1003=
201204140550 METAR ESMX 140550Z VRB02KT 9999 FEW045CB SCT080 02/01 Q1003=
201204140520 METAR ESMX 140520Z 00000KT 9999 FEW45CB SCT090 02/01 Q1002=
201204140450 METAR ESMX 140450Z 21003KT CAVOK 01/00 Q1002=
201204140420 METAR ESMX 140420Z VRB01KT 9999 SCT020 BKN050 01/00 Q1002=
201204140350 METAR ESMX 140350Z 30002KT 9999 BKN048 BKN084 01/00 Q1002=
201204140320 METAR ESMX 140320Z 33003KT 9999 FEW008 BKN045 01/M00 Q1002=
201204140250 METAR ESMX 140250Z AUTO 35005KT 9999NDV FEW008/// SCT089/// 02/00 Q1002=
201204140220 METAR ESMX 140220Z AUTO 33004KT 9999NDV FEW008/// SCT017/// BKN089/// 02/01 Q1002=
201204140150 METAR ESMX 140150Z AUTO 32004KT 260V350 9999NDV BKN012/// OVC017/// 03/01 Q1002=
201204140120 METAR ESMX 140120Z AUTO 32003KT 9999NDV OVC014/// 03/02 Q1002=
201204140050 METAR ESMX 140050Z AUTO 31003KT 9999NDV OVC014/// 02/01 Q1002=
201204140020 METAR ESMX 140020Z AUTO 32003KT 9999NDV OVC015/// 02/01 Q1002=
201204132350 METAR ESMX 132350Z AUTO 31003KT 9999NDV OVC017/// 02/00 Q1002=
201204132320 METAR ESMX 132320Z AUTO 32004KT 9999NDV BKN016/// 02/01 Q1002=
201204132250 METAR ESMX 132250Z AUTO 33004KT 9999NDV OVC016/// 02/01 Q1001=
201204132220 METAR ESMX 132220Z AUTO 02003KT 340V050 9999NDV OVC013/// 02/01 Q1001=
201204132150 METAR ESMX 132150Z 31003KT 280V340 9999 OVC013 01/01 Q1001=
201204132120 METAR ESMX 132120Z VRB01KT 9999 BKN013 BKN083 01/00 Q1001=
201204132050 METAR ESMX 132050Z 00000KT CAVOK 02/01 Q1001=
201204132020 METAR ESMX 132020Z 29002KT CAVOK 02/01 Q1001=
201204131950 METAR ESMX 131950Z 34002KT CAVOK 04/02 Q1001=
201204131920 METAR ESMX 131920Z 02004KT 9999 FEW034 BKN056 05/02 Q1001=
201204131850 METAR ESMX 131850Z 01008KT 9999 SCT030 BKN065 05/02 Q1001=
201204131820 METAR ESMX 131820Z 02007KT 9999 FEW022 BKN060 06/02 Q1001=
201204131750 METAR ESMX 131750Z 03006KT 9999 FEW034 BKN043 06/02 Q1001=
201204131720 METAR ESMX 131720Z 36008KT 9999 FEW024 SCT042 BKN051 06/02 Q1000=
201204131650 METAR ESMX 131650Z 01007KT 340V050 9999 FEW019 SCT022 BKN025 07/03 Q1000=
201204131620 METAR ESMX 131620Z 01009KT 9999 FEW025 SCT032 BKN038 08/02 Q1000=
201204131550 METAR ESMX 131550Z 01008KT 9999 FEW020 SCT030 08/02 Q1000=
201204131520 METAR ESMX 131520Z 02009KT 350V050 9999 FEW020 SCT030 BKN080 08/02 Q1000=
201204131450 METAR ESMX 131450Z 01010KT 320V030 9999 SCT020 BKN050 08/02 Q1000=
201204131420 METAR ESMX 131420Z 01009KT 9999 FEW020TCU BKN030 07/03 Q1000 REDZ=
201204131350 METAR ESMX 131350Z 35008KT 9999 -SHRA SCT020 BKN030 08/02 Q1000=
201204131320 METAR ESMX 131320Z 02009KT 9999 FEW027 SCT040 BKN052 08/02 Q1000=
201204131250 METAR ESMX 131250Z 36009KT 9999 SCT025 BKN050 09/02 Q1000=
201204131220 METAR ESMX 131220Z 02008KT 350V050 9999 BKN020 BKN050 08/02 Q1000=
201204131150 METAR ESMX 131150Z 02009KT 340V070 9999 FEW026 BKN040 09/03 Q1000=
201204131120 METAR ESMX 131120Z 01009KT 9999 SCT020 BKN035 08/02 Q1000=
201204131050 METAR ESMX 131050Z 03008KT 350V070 9999 FEW020 BKN027 BKN034 08/03 Q1000=
201204131020 METAR ESMX 131020Z 01009KT 9999 FEW020 SCT030 BKN050 08/03 Q1000=
201204130950 METAR ESMX 130950Z 01008KT 9999 FEW019 SCT022 BKN027 08/04 Q1000=
201204130920 METAR ESMX 130920Z 02007KT 340V050 9999 SCT017 BKN024 07/04 Q1000=
201204130850 METAR ESMX 130850Z 01005KT 340V040 9999 SCT011 SCT075 07/05 Q1000=
201204130820 METAR ESMX 130820Z 34005KT 9999 FEW007 SCT036 07/05 Q1000=
201204130750 METAR ESMX 130750Z 30004KT 270V340 9999 FEW038 06/05 Q1000=
201204130720 METAR ESMX 130720Z 31004KT 280V350 9999 FEW035 06/05 Q1000=
201204130650 METAR ESMX 130650Z 32003KT 290V350 9999 -RA SCT026 SCT031 06/05 Q1000=
201204130620 METAR ESMX 130620Z 31003KT 280V360 9999 -RA BKN026 BKN031 06/05 Q1000=
201204130550 METAR ESMX 130550Z 30003KT 9999 -DZ FEW029 SCT056 05/05 Q1000=
201204130520 METAR ESMX 130520Z 27003KT 9999 -RA SCT030 05/04 Q1000=
201204130450 METAR ESMX 130450Z 32002KT 9999 -DZ FEW030 SCT040 05/04 Q1000 RESHRA=
201204130420 METAR ESMX 130420Z 36006KT 320V020 9999 -RA FEW008 SCT018 BKN023 05/05 Q1000=
201204130350 METAR ESMX 130350Z 32003KT 5000 -RA FEW002 BKN025 05/05 Q1000=
201204130320 METAR ESMX 130320Z AUTO 34003KT 5000NDV BR SCT002/// BKN025/// 05/04 Q1000=
201204130250 METAR ESMX 130250Z AUTO 02002KT 7000NDV -DZ FEW003/// 05/04 Q1000=
201204130220 METAR ESMX 130220Z AUTO VRB01KT 9999NDV DZ FEW029/// 05/04 Q1000=
201204130150 METAR ESMX 130150Z AUTO 25005KT 9999NDV -DZ NCD 06/05 Q1000=
201204130120 METAR ESMX 130120Z AUTO 25006KT 9999NDV -DZ NCD 06/05 Q1000 RERA=
201204130050 METAR ESMX 130050Z AUTO 17003KT 7000NDV RA FEW019/// SCT024/// BKN027/// 06/05 Q1001 REDZ=
201204130020 METAR ESMX 130020Z AUTO 10003KT 060V140 9999NDV DZ FEW028/// 06/05 Q1001=
201204122350 METAR ESMX 122350Z AUTO 23002KT 9999NDV -RA FEW020/// 06/05 Q1001=
201204122320 METAR ESMX 122320Z VRB02KT 9999 -RA FEW020 SCT030 BKN043 06/05 Q1001=
201204122250 METAR ESMX 122250Z 16005KT 110V190 9999 FEW016 SCT023 BKN036 07/05 Q1001=
201204122220 METAR ESMX 122220Z 15005KT 120V180 9999 FEW033 SCT043 07/05 Q1001=
201204122150 METAR ESMX 122150Z 14004KT 100V160 9999 SCT045 07/04 Q1001=
201204122120 METAR ESMX 122120Z 16003KT 9999 SCT045 07/04 Q1001=
201204122050 METAR ESMX 122050Z 00000KT CAVOK 07/03 Q1001=
201204122020 METAR ESMX 122020Z VRB02KT 9999 FEW051 SCT062 08/03 Q1001=
201204121950 METAR ESMX 121950Z 00000KT CAVOK 07/04 Q1001=
201204121920 METAR ESMX 121920Z 00000KT CAVOK 07/04 Q1001=
201204121850 METAR ESMX 121850Z 00000KT CAVOK 08/03 Q1001=
201204121820 METAR ESMX 121820Z VRB01KT CAVOK 08/04 Q1001=
201204121750 METAR ESMX 121750Z 03003KT CAVOK 10/02 Q1001=
201204121720 METAR ESMX 121720Z VRB02KT CAVOK 10/02 Q1001=
201204121650 METAR ESMX 121650Z VRB02KT 9999 FEW043 11/01 Q1000=
201204121620 METAR ESMX 121620Z 36004KT 320V030 9999 FEW030 11/00 Q1000=
201204121550 METAR ESMX 121550Z 01004KT 9999 FEW030 SCT100 12/01 Q1001=
201204121520 METAR ESMX 121520Z 35004KT 320V020 9999 FEW030 12/01 Q1001=
201204121450 METAR ESMX 121450Z 36004KT 320V030 9999 FEW030 BKN200 12/01 Q1001=
201204121420 METAR ESMX 121420Z 01005KT 340V040 9999 SCT030 12/02 Q1001=
201204121350 METAR ESMX 121350Z 01005KT 330V030 9999 SCT035 12/02 Q1001=
201204121320 METAR ESMX 121320Z 01005KT 340V040 9999 SCT035 12/02 Q1001=
201204121250 METAR ESMX 121250Z 02005KT 320V070 9999 SCT032 12/02 Q1001=
201204121220 METAR ESMX 121220Z 01006KT 320V060 9999 SCT032 11/02 Q1001=
201204121150 METAR ESMX 121150Z 02006KT 340V060 9999 SCT030 12/03 Q1001=
201204121120 METAR ESMX 121120Z 02006KT 340V070 9999 SCT030 11/03 Q1001=
201204121050 METAR ESMX 121050Z 04006KT 350V080 9999 SCT025 11/03 Q1001=
201204121020 METAR ESMX 121020Z 02005KT 320V070 9999 FEW025 10/04 Q1001=
201204120950 METAR ESMX 120950Z 35004KT 300V030 9999 FEW025 10/04 Q1001=
201204120920 METAR ESMX 120920Z 35004KT 320V020 9999 FEW020 09/04 Q1001=
201204120850 METAR ESMX 120850Z 35004KT 330V040 CAVOK 09/04 Q1001=
201204120820 METAR ESMX 120820Z 34003KT 280V050 9999 FEW012 08/04 Q1001=
201204120750 METAR ESMX 120750Z VRB02KT 9999 FEW012 08/05 Q1001=
201204120720 METAR ESMX 120720Z 02003KT 320V090 CAVOK 06/04 Q1001=
201204120650 METAR ESMX 120650Z 02003KT CAVOK 05/03 Q1001=
201204120620 METAR ESMX 120620Z 36004KT 9999 FEW005 05/03 Q1001=
201204120550 METAR ESMX 120550Z 02003KT 330V050 9999 FEW003 SCT057 05/04 Q1001=
201204120520 METAR ESMX 120520Z 01004KT 9999 BKN004 04/03 Q1001=
201204120450 METAR ESMX 120450Z 01004KT 9999 BKN004 04/03 Q1000=
201204120420 METAR ESMX 120420Z 33004KT 9999 OVC006 04/03 Q1000=
201204120350 METAR ESMX 120350Z 32006KT 9999 OVC007 04/03 Q1000=
201204120320 METAR ESMX 120320Z AUTO 32005KT 9999NDV OVC007/// 04/03 Q1000=
201204120250 METAR ESMX 120250Z AUTO 33006KT 9999NDV OVC007/// 04/03 Q1000=
201204120220 METAR ESMX 120220Z AUTO 34007KT 9999NDV OVC008/// 05/03 Q1000=
201204120150 METAR ESMX 120150Z AUTO 34005KT 300V010 9999NDV FEW005/// OVC009/// 05/04 Q1000=
201204120120 METAR ESMX 120120Z AUTO 33005KT 290V350 9999NDV OVC004/// 05/04 Q1000=
201204120050 METAR ESMX 120050Z AUTO 32008KT 9999NDV FEW006/// OVC007/// 05/04 Q1000=
201204120020 METAR ESMX 120020Z AUTO 33007KT 290V350 9999NDV FEW003/// SCT004/// BKN006/// 05/05 Q0999=
201204112350 METAR ESMX 112350Z 31007KT 9000 BR OVC003 06/05 Q0999=
201204112320 METAR ESMX 112320Z 30006KT 9999 OVC004 06/05 Q0999=
201204112250 METAR ESMX 112250Z 30006KT 9000 BR OVC004 06/05 Q0999=
201204112220 METAR ESMX 112220Z 31003KT 7000 BR OVC005 06/05 Q0999=
201204112150 METAR ESMX 112150Z 29003KT 7000 -RA OVC005 06/05 Q0999=
201204112120 METAR ESMX 112120Z VRB02KT 6000 -DZ BKN004 06/05 Q0999=
201204112050 METAR ESMX 112050Z VRB02KT 7000 -RA SCT006 BKN027 06/05 Q0999=
201204112020 METAR ESMX 112020Z 28003KT 240V330 7000 -RA BKN004 06/06 Q0999=
201204111950 METAR ESMX 111950Z 26006KT 6000 RA BKN003 BKN015 07/06 Q0999=
201204111920 METAR ESMX 111920Z 28006KT 240V300 5000 -RA SCT005 OVC007 07/06 Q0998=
201204111850 METAR ESMX 111850Z 26004KT 5000 DZ FEW006 OVC014 08/06 Q0998=
201204111820 METAR ESMX 111820Z 26006KT 220V280 8000 -DZ FEW005 OVC011 08/06 Q0998=
201204111750 METAR ESMX 111750Z 23006KT 7000 BR OVC005 08/07 Q0998=
201204111720 METAR ESMX 111720Z 15005KT 110V170 9000 -DZ BKN010 OVC015 10/08 Q0997=
201204111650 METAR ESMX 111650Z 14004KT 9999 SCT013 BKN018 10/08 Q0996=
201204111620 METAR ESMX 111620Z 18004KT 110V210 9999 -DZ FEW020 10/08 Q0996=
201204111550 METAR ESMX 111550Z 15004KT 110V200 9999 SCT022 BKN054 10/08 Q0996=
201204111520 METAR ESMX 111520Z 15005KT 100V190 9999 -RA BKN020 10/08 Q0996=
201204111450 METAR ESMX 111450Z 17006KT 120V200 9999 BKN018 10/07 Q0996=
201204111420 METAR ESMX 111420Z 18007KT 130V210 9999 FEW019 SCT067 11/07 Q0996=
201204111350 METAR ESMX 111350Z 16005KT 120V210 9999 FEW040 SCT092 10/07 Q0996=
201204111320 METAR ESMX 111320Z 17005KT 130V200 9999 FEW040 BKN070 10/06 Q0996=
201204111250 METAR ESMX 111250Z 15005KT 110V190 9999 FEW020 SCT078 BKN095 10/06 Q0996=
201204111220 METAR ESMX 111220Z 15006KT 100V200 9999 FEW020 BKN068 09/06 Q0996=
201204111150 METAR ESMX 111150Z 15007KT 120V190 9999 FEW022 SCT087 09/06 Q0996=
201204111120 METAR ESMX 111120Z 15008KT 110V200 9999 FEW009 SCT067 08/06 Q0996=
201204111050 METAR ESMX 111050Z 17012KT 140V210 8000 -DZ FEW007 BKN011 08/06 Q0996=
201204111020 METAR ESMX 111020Z 16006KT 130V200 8000 BR SCT055 08/06 Q0996=
201204110950 METAR ESMX 110950Z 14003KT 070V190 8000 BR FEW027 BKN054 07/06 Q0995=
201204110920 METAR ESMX 110920Z 12004KT 030V180 7000 DZ FEW018 BKN053 07/06 Q0995=
201204110850 METAR ESMX 110850Z 10005KT 060V170 7000 BR BKN054 07/06 Q0995=
201204110820 METAR ESMX 110820Z 14004KT 100V170 5000 -RA SCT037 BKN049 07/06 Q0996 REDZ=
201204110750 METAR ESMX 110750Z 15005KT 110V180 7000 DZ BKN040 BKN051 07/06 Q0995=
201204110720 METAR ESMX 110720Z 15004KT 110V190 7000 -RA SCT039 BKN048 07/05 Q0995=
201204110650 METAR ESMX 110650Z 14005KT 100V170 8000 -RA FEW051 BKN061 07/05 Q0995 REDZ=
201204110620 METAR ESMX 110620Z 14005KT 080V170 CAVOK 07/05 Q0995=
201204110550 METAR ESMX 110550Z 14004KT 100V190 9000 BR NSC 06/05 Q0995=
201204110520 METAR ESMX 110520Z 13005KT 080V170 9000 BR NSC 06/05 Q0995=
201204110450 METAR ESMX 110450Z 13005KT 100V180 9000 BR FEW070 06/05 Q0995=
201204110420 METAR ESMX 110420Z 14006KT 090V190 9000 BR FEW035 OVC069 06/05 Q0995=
201204110350 METAR ESMX 110350Z 14005KT 100V200 8000 BR FEW034 OVC069 06/05 Q0995=
201204110320 METAR ESMX 110320Z AUTO 14005KT 100V170 6000NDV BR FEW035/// OVC067/// 06/05 Q0996=
201204110250 METAR ESMX 110250Z AUTO 15005KT 110V180 6000NDV BR FEW035/// OVC066/// 07/06 Q0996=
201204110220 METAR ESMX 110220Z AUTO 14005KT 110V170 5000NDV BR SCT030/// BKN059/// 07/06 Q0996 REDZ=
201204110150 METAR ESMX 110150Z AUTO 14006KT 100V170 3200NDV DZ FEW002/// OVC028/// 07/06 Q0996=
201204110120 METAR ESMX 110120Z AUTO 14004KT 080V190 2400NDV BR BKN002/// OVC004/// 07/06 Q0996=
201204110050 METAR ESMX 110050Z AUTO 15005KT 110V190 2300NDV BR OVC002/// 07/06 Q0996=
201204110020 METAR ESMX 110020Z 16005KT 120V190 2400 BR OVC002 07/06 Q0996=
201204102350 METAR ESMX 102350Z 15006KT 110V180 1800 DZ BR OVC002 07/06 Q0996=
201204102320 METAR ESMX 102320Z 15006KT 100V190 1600 DZ BR OVC002 07/06 Q0997=
201204102250 METAR ESMX 102250Z 16006KT 120V190 1700 BR OVC002 07/06 Q0997=
201204102220 METAR ESMX 102220Z 15006KT 1900 DZ BR OVC002 07/06 Q0997=
201204102150 METAR ESMX 102150Z 15006KT 120V200 1900 DZ BR OVC002 07/06 Q0997=
201204102120 METAR ESMX 102120Z 16005KT 140V200 1800 RADZ OVC002 07/06 Q0997=
201204102050 METAR ESMX 102050Z 15007KT 110V190 1800 DZ BR OVC002 07/06 Q0997=
201204102020 METAR ESMX 102020Z 16007KT 2100 DZ OVC002 07/06 Q0997=
201204101950 METAR ESMX 101950Z 15006KT 120V190 2000 DZ OVC002 07/06 Q0997=
201204101920 METAR ESMX 101920Z 15006KT 110V180 1900 DZ OVC002 07/06 Q0997=
201204101850 METAR ESMX 101850Z 16007KT 130V190 2100 DZ OVC003 07/06 Q0997=
201204101820 METAR ESMX 101820Z 16007KT 120V190 3000 -RA OVC003 07/06 Q0997=
201204101750 METAR ESMX 101750Z 17008KT 130V210 3200 -DZ OVC003 07/06 Q0996=
201204101720 METAR ESMX 101720Z 16007KT 120V200 4000 -DZ OVC003 07/06 Q0996=
201204101650 METAR ESMX 101650Z 16007KT 110V190 3700 DZ OVC003 07/06 Q0996=
201204101620 METAR ESMX 101620Z 15008KT 120V190 3600 -RA BKN003 OVC005 06/06 Q0996=
201204101550 METAR ESMX 101550Z 16007KT 110V200 4700 -RA OVC003 06/05 Q0996=
201204101520 METAR ESMX 101520Z 16009KT 130V200 5000 -RA FEW003 OVC005 06/05 Q0996=
201204101450 METAR ESMX 101450Z 17009KT 140V200 5000 -RA FEW004 OVC005 06/05 Q0996=
201204101420 METAR ESMX 101420Z 16009KT 120V190 5000 -RA OVC004 06/05 Q0996=
201204101350 METAR ESMX 101350Z 16010KT 5000 DZ FEW004 OVC006 05/04 Q0996=
201204101320 METAR ESMX 101320Z 15009KT 110V210 5000 -RA BKN005 OVC008 05/04 Q0996=
201204101250 METAR ESMX 101250Z 16010KT 130V190 5000 -RA OVC005 05/04 Q0996=
201204101220 METAR ESMX 101220Z 15009KT 100V180 6000 -RA OVC005 05/04 Q0996=
201204101150 METAR ESMX 101150Z 15009KT 110V210 5000 -RA OVC006 05/04 Q0996=
201204101120 METAR ESMX 101120Z 15011KT 110V190 8000 -DZ OVC007 05/04 Q0996=
201204101050 METAR ESMX 101050Z 15010KT 100V180 8000 BR OVC007 05/04 Q0996=
201204101020 METAR ESMX 101020Z 16010KT 100V200 7000 -RA OVC007 05/03 Q0996 REDZ=
201204100950 METAR ESMX 100950Z 16011KT 110V190 8000 -DZ OVC007 05/03 Q0996=
201204100920 METAR ESMX 100920Z 15011KT 120V180 8000 BR OVC007 05/03 Q0996=
201204100850 METAR ESMX 100850Z 15011KT 100V190 8000 BR OVC006 04/03 Q0996=
201204100820 METAR ESMX 100820Z 16011KT 110V190 6000 BR OVC006 04/03 Q0996=
201204100750 METAR ESMX 100750Z 15011KT 110V190 5000 BR OVC005 04/03 Q0996=
201204100720 METAR ESMX 100720Z 16010KT 120V200 3100 BR OVC003 04/03 Q0996=
201204100650 METAR ESMX 100650Z 16010KT 120V190 3600 BR OVC003 04/03 Q0996 REDZ=
201204100620 METAR ESMX 100620Z 15008KT 080V190 3800 -DZ OVC003 04/03 Q0996=
201204100550 METAR ESMX 100550Z 16008KT 120V190 4000 -DZ OVC003 04/03 Q0996=
201204100520 METAR ESMX 100520Z 15009KT 110V190 4300 -RA OVC004 04/03 Q0997=
201204100450 METAR ESMX 100450Z 15009KT 100V190 4400 DZ OVC004 04/03 Q0997=
201204100420 METAR ESMX 100420Z 16009KT 110V190 4300 DZ OVC003 04/03 Q0997=
201204100350 METAR ESMX 100350Z 15009KT 110V200 4000 DZ OVC003 04/03 Q0997=
201204100320 METAR ESMX 100320Z AUTO 14008KT 110V190 3600NDV BR OVC002/// 04/03 Q0997=
201204100250 METAR ESMX 100250Z AUTO 14008KT 100V180 3100NDV BR OVC002/// 04/03 Q0997=
201204100220 METAR ESMX 100220Z AUTO 15008KT 3500NDV BR OVC003/// 04/03 Q0997=
201204100150 METAR ESMX 100150Z AUTO 15007KT 110V200 2200NDV BR OVC002/// 04/03 Q0998=
201204100120 METAR ESMX 100120Z AUTO 16007KT 110V200 2700NDV BR OVC002/// 04/03 Q0998=
201204100050 METAR ESMX 100050Z AUTO 15007KT 120V200 2500NDV BR OVC003/// 04/03 Q0998=
201204100020 METAR ESMX 100020Z 16008KT 130V200 3300 BR OVC004 04/03 Q0998=
201204092350 METAR ESMX 092350Z 16007KT 120V200 5000 BR OVC006 04/03 Q0998=
201204092320 METAR ESMX 092320Z 16007KT 120V210 6000 -DZ SCT006 OVC009 04/03 Q0998=
201204092250 METAR ESMX 092250Z 14006KT 110V170 6000 -RA FEW008 OVC019 04/03 Q0999=
201204092220 METAR ESMX 092220Z 14007KT 100V170 5000 -RA FEW010 SCT021 BKN025 04/02 Q0999=
201204092150 METAR ESMX 092150Z 16007KT 110V190 4800 RA SCT008 BKN020 04/02 Q0999=
201204092120 METAR ESMX 092120Z 17008KT 120V200 8000 -DZ FEW008 OVC022 04/02 Q0999=
201204092050 METAR ESMX 092050Z 15008KT 110V220 8000 BR FEW007 OVC027 03/02 Q0999=
201204092020 METAR ESMX 092020Z 15008KT 120V190 6000 BR FEW007 OVC027 03/02 Q0999=
201204091950 METAR ESMX 091950Z 15009KT 110V200 6000 BR FEW007 SCT010 OVC025 03/02 Q0999=
201204091920 METAR ESMX 091920Z 15009KT 6000 BR FEW006 SCT008 OVC022 03/02 Q1000=
201204091850 METAR ESMX 091850Z 16010KT 120V200 6000 -RA SCT005 OVC008 03/01 Q1000=
201204091820 METAR ESMX 091820Z 16010KT 130V200 4700 RA OVC007 02/01 Q1000=
201204091750 METAR ESMX 091750Z 16009KT 130V210 4200 -RA FEW008 OVC009 02/01 Q1000=
201204091720 METAR ESMX 091720Z 16010KT 120V190 8000 -RA FEW009 BKN012 03/01 Q1000=
201204091650 METAR ESMX 091650Z 16009KT 120V190 7000 -RA FEW008 BKN016 02/01 Q1000=
201204091620 METAR ESMX 091620Z 17011KT 130V200 8000 -RA FEW012 BKN018 03/00 Q1000=
201204091550 METAR ESMX 091550Z 16011KT 130V200 9000 -RA FEW011 BKN016 03/01 Q1000=
201204091520 METAR ESMX 091520Z 17011KT 150V220 9999 -DZ FEW011 OVC013 03/01 Q1000=
201204091450 METAR ESMX 091450Z 17011KT 9000 -RA OVC011 03/01 Q1000=
201204091420 METAR ESMX 091420Z 18012KT 140V210 9000 -DZ FEW009 BKN011 03/01 Q1000=
201204091350 METAR ESMX 091350Z 17013KT 140V200 8000 -RA FEW009 BKN010 03/01 Q1000=
201204091320 METAR ESMX 091320Z 17012KT 120V200 9999 -DZ FEW009 BKN011 03/01 Q1000=
201204091250 METAR ESMX 091250Z 17014KT 120V200 9999 -DZ FEW013 BKN020 03/01 Q1001=
201204091220 METAR ESMX 091220Z 16018KT 9999 FEW021 BKN030 04/M00 Q1001=
201204091150 METAR COR ESMX 091150Z 18016KT 9999 -RA FEW022 BKN027 05/M01 Q1001=
201204091120 METAR ESMX 091120Z 18013KT 150V210 9999 FEW023 BKN037 05/M01 Q1001=
201204091050 METAR ESMX 091050Z 17015KT 140V210 9999 FEW026 BKN033 05/M02 Q1001=
201204091020 METAR ESMX 091020Z 15013KT 120V200 9999 FEW024 BKN037 05/M03 Q1001=
201204090950 METAR ESMX 090950Z 16013KT 120V190 9999 FEW025 BKN043 05/M03 Q1001=
201204090920 METAR ESMX 090920Z 17011KT 140V210 9999 FEW028 BKN045 05/M02 Q1001=
201204090850 METAR ESMX 090850Z 16009KT 120V190 9999 FEW017 SCT050 04/M01 Q1002=
201204090820 METAR ESMX 090820Z 18010KT 140V210 9999 -RA FEW025 SCT057 03/M02 Q1002=
201204090750 METAR ESMX 090750Z 17010KT 140V210 9999 FEW064 03/M03 Q1002=
201204090720 METAR ESMX 090720Z 17007KT 140V200 9999 FEW088 03/M03 Q1002=
201204090650 METAR ESMX 090650Z AUTO 16006KT 110V190 9999NDV FEW072/// 02/M03 Q1002=
201204090620 METAR ESMX 090620Z AUTO 15006KT 110V190 9999NDV SCT048/// 01/M04 Q1002=
201204090550 METAR ESMX 090550Z AUTO 16007KT 130V190 9999NDV FEW041/// OVC046/// 00/M04 Q1003=
201204090520 METAR ESMX 090520Z AUTO 15006KT 110V190 9999NDV OVC046/// M00/M05 Q1003=
201204090450 METAR ESMX 090450Z AUTO 16005KT 9999NDV SCT046/// M01/M05 Q1003=
201204090420 METAR ESMX 090420Z AUTO 17006KT 140V200 9999NDV NCD M01/M06 Q1003=
201204090350 METAR ESMX 090350Z AUTO 16005KT 9999NDV NCD M01/M06 Q1004=
201204090320 METAR ESMX 090320Z AUTO 15003KT 110V190 9999NDV NCD M01/M06 Q1004=
201204090250 METAR ESMX 090250Z AUTO 18004KT 160V220 9999NDV NCD M01/M07 Q1004=
201204090220 METAR ESMX 090220Z AUTO 18005KT 9999NDV NCD M02/M07 Q1005=
201204090150 METAR ESMX 090150Z AUTO 19006KT 9999NDV NCD M03/M08 Q1005=
201204090120 METAR ESMX 090120Z AUTO 21006KT 9999NDV NCD M03/M08 Q1005=
201204090050 METAR ESMX 090050Z AUTO 19006KT 9999NDV SCT058/// M02/M08 Q1005=
201204090020 METAR ESMX 090020Z AUTO 19006KT 9999NDV OVC057/// M01/M08 Q1006=
201204082350 METAR ESMX 082350Z AUTO 21006KT 9999NDV BKN059/// M02/M08 Q1006=
201204082320 METAR ESMX 082320Z AUTO 20006KT 9999NDV BKN061/// M02/M08 Q1006=
201204082250 METAR ESMX 082250Z AUTO 20005KT 9999NDV OVC061/// M01/M07 Q1006=
201204082220 METAR ESMX 082220Z AUTO 20006KT 9999NDV BKN060/// M01/M07 Q1006=
201204082150 METAR ESMX 082150Z AUTO 21005KT 9999NDV SCT058/// M02/M07 Q1007=
201204082120 METAR ESMX 082120Z AUTO 21005KT 9999NDV NCD M03/M08 Q1007=
201204082050 METAR ESMX 082050Z AUTO 22005KT 9999NDV NCD M02/M08 Q1007=
201204082020 METAR ESMX 082020Z AUTO 22005KT 9999NDV NCD M01/M07 Q1007=
201204081950 METAR ESMX 081950Z AUTO 23005KT 200V270 9999NDV NCD M00/M07 Q1007=
201204081920 METAR ESMX 081920Z AUTO 24006KT 9999NDV NCD 00/M08 Q1007=
201204081850 METAR ESMX 081850Z 25005KT CAVOK 01/M10 Q1007=
201204081820 METAR ESMX 081820Z 25006KT CAVOK 01/M12 Q1007=
201204081750 METAR ESMX 081750Z 26009KT 240V300 CAVOK 03/M12 Q1007=
201204081720 METAR ESMX 081720Z 27010KT 240V300 CAVOK 04/M10 Q1007=
201204081650 METAR ESMX 081650Z 27009KT 240V300 CAVOK 05/M09 Q1007=
201204081620 METAR ESMX 081620Z 28011KT CAVOK 05/M09 Q1007=
201204081550 METAR ESMX 081550Z 26008KT 220V280 CAVOK 06/M11 Q1007=
201204081520 METAR ESMX 081520Z 30008KT 270V340 CAVOK 06/M12 Q1007=
201204081450 METAR ESMX 081450Z 29007KT 260V330 CAVOK 06/M12 Q1007=
201204081420 METAR ESMX 081420Z 33006KT CAVOK 06/M11 Q1007=
201204081350 METAR ESMX 081350Z 30007KT 280V350 CAVOK 06/M12 Q1007=
201204081320 METAR ESMX 081320Z 29009KT CAVOK 06/M11 Q1007=
201204081250 METAR ESMX 081250Z 33007KT 290V360 CAVOK 06/M10 Q1007=
201204081220 METAR ESMX 081220Z 28009KT 9999 FEW048 06/M11 Q1007=
201204081150 METAR ESMX 081150Z AUTO 32006KT 240V010 9999NDV SCT062/// 06/M11 Q1008=
201204081120 METAR ESMX 081120Z AUTO 31009KT 9999NDV FEW039/// SCT065/// 04/M11 Q1008=
201204081050 METAR ESMX 081050Z AUTO 33010KT 300V360 9999NDV NCD 04/M11 Q1008=
201204081020 METAR ESMX 081020Z AUTO 30008KT 250V330 9999NDV NCD 05/M10 Q1008=
201204080950 METAR ESMX 080950Z AUTO 32009KT 290V010 9999NDV FEW057/// 04/M11 Q1008=
201204080920 METAR ESMX 080920Z AUTO 36009KT 320V030 9999NDV NCD 04/M10 Q1008=
201204080850 METAR ESMX 080850Z AUTO 33009KT 280V010 9999NDV NCD 04/M10 Q1008=
201204080820 METAR ESMX 080820Z AUTO 32006KT 290V350 9999NDV NCD 03/M09 Q1008=
201204080750 METAR ESMX 080750Z AUTO 31004KT 260V040 9999NDV NCD 02/M08 Q1008=
201204080720 METAR ESMX 080720Z AUTO 29003KT 250V340 9999NDV NCD 01/M07 Q1008=
201204080650 METAR ESMX 080650Z AUTO VRB02KT 9999NDV NCD M01/M07 Q1007=
201204080620 METAR ESMX 080620Z AUTO VRB02KT 9999NDV NCD M02/M07 Q1007=
201204080550 METAR ESMX 080550Z AUTO 27002KT 9999NDV NCD M04/M07 Q1007=
201204080520 METAR ESMX 080520Z AUTO 26002KT 9999NDV NCD M07/M08 Q1007=
201204080450 METAR ESMX 080450Z AUTO 28002KT 9999NDV NCD M08/M10 Q1007=
201204080420 METAR ESMX 080420Z AUTO 29002KT 9999NDV NCD M09/M10 Q1006=
201204080350 METAR ESMX 080350Z AUTO 30003KT 9999NDV NCD M07/M09 Q1006=
201204080320 METAR ESMX 080320Z AUTO 31003KT 9999NDV NCD M05/M08 Q1006=
201204080250 METAR ESMX 080250Z AUTO 32004KT 9999NDV NCD M04/M08 Q1006=
201204080220 METAR ESMX 080220Z AUTO 33003KT 9999NDV NCD M05/M08 Q1006=
201204080150 METAR ESMX 080150Z AUTO VRB01KT 9999NDV NCD M05/M08 Q1006=
201204080120 METAR ESMX 080120Z AUTO 31003KT 9999NDV NCD M05/M08 Q1005=
201204080050 METAR ESMX 080050Z AUTO 32004KT 280V350 9999NDV NCD M04/M08 Q1005=
201204080020 METAR ESMX 080020Z AUTO 32005KT 270V350 9999NDV NCD M04/M07 Q1005=
201204072350 METAR ESMX 072350Z AUTO 32006KT 9999NDV NCD M03/M07 Q1005=
201204072320 METAR ESMX 072320Z AUTO 32006KT 9999NDV NCD M03/M07 Q1005=
201204072250 METAR ESMX 072250Z AUTO 33006KT 9999NDV NCD M03/M07 Q1005=
201204072220 METAR ESMX 072220Z AUTO 33006KT 300V010 9999NDV NCD M03/M07 Q1005=
201204072150 METAR ESMX 072150Z AUTO 31005KT 9999NDV NCD M03/M07 Q1004=
201204072120 METAR ESMX 072120Z AUTO 32006KT 9999NDV NCD M02/M07 Q1004=
201204072050 METAR ESMX 072050Z AUTO 33008KT 9999NDV NCD M02/M07 Q1004=
201204072020 METAR ESMX 072020Z AUTO 32007KT 9999NDV NCD M02/M07 Q1004=
201204071950 METAR ESMX 071950Z AUTO 32006KT 9999NDV NCD M02/M07 Q1004=
201204071920 METAR ESMX 071920Z AUTO 34007KT 300V010 9999NDV NCD M01/M07 Q1004=
201204071850 METAR ESMX 071850Z AUTO 34009KT 9999NDV NCD M01/M07 Q1004=
201204071820 METAR ESMX 071820Z AUTO 34008KT 9999NDV FEW073/// M01/M07 Q1003=
201204071750 METAR ESMX 071750Z AUTO 35010KT 9999NDV FEW017/// M01/M06 Q1003 REUP=
201204071720 METAR ESMX 071720Z AUTO 35011KT 9999NDV FEW036/// BKN061/// 00/M07 Q1003=
201204071650 METAR ESMX 071650Z AUTO 36012KT 9999NDV FEW019/// SCT067/// 00/M07 Q1002 RERA=
201204071620 METAR ESMX 071620Z AUTO 02014KT 9999NDV FEW050/// SCT062/// 01/M08 Q1002=
201204071550 METAR ESMX 071550Z AUTO 02013KT 9999NDV FEW048/// SCT056/// 01/M09 Q1002=
201204071520 METAR ESMX 071520Z AUTO 02013KT 340V050 9999NDV FEW046/// BKN058/// 01/M09 Q1002=
201204071450 METAR ESMX 071450Z AUTO 02013KT 9999NDV BKN047/// 01/M09 Q1002=
201204071420 METAR ESMX 071420Z 36017KT CAVOK 02/M09 Q1002=
201204071350 METAR ESMX 071350Z 01015KT 340V040 9999 SCT040 01/M09 Q1002=
201204071320 METAR ESMX 071320Z 02014KT 350V060 9999 BKN043 02/M09 Q1001=
201204071250 METAR ESMX 071250Z 02015KT 340V050 9999 FEW038 SCT043 01/M08 Q1001=
201204071220 METAR ESMX 071220Z 01018KT 9999 SCT034 00/M08 Q1001=
201204071150 METAR ESMX 071150Z 36015KT 9999 FEW035 SCT039 01/M06 Q1001=
201204071120 METAR COR ESMX 071120Z 02018KT 9999 FEW030 01/M06 Q1001=
201204071050 METAR ESMX 071050Z AUTO 02015KT 350V060 9999NDV FEW034/// 01/M05 Q1001=
201204071020 METAR ESMX 071020Z AUTO 01015KT 340V050 9999NDV FEW025/// SCT029/// BKN032/// 00/M05 Q1001=
201204070950 METAR ESMX 070950Z AUTO 02019KT 9999NDV FEW024/// BKN076/// M00/M06 Q1000=
201204070920 METAR ESMX 070920Z AUTO 01015KT 9999NDV FEW026/// SCT079/// 00/M05 Q1000=
201204070850 METAR ESMX 070850Z AUTO 02014KT 9999NDV FEW049/// BKN079/// M00/M06 Q1000=
201204070820 METAR ESMX 070820Z AUTO 02015KT 9999NDV BKN068/// M01/M07 Q1000=
201204070750 METAR ESMX 070750Z AUTO 02014KT 9999NDV BKN067/// M01/M06 Q1000=
201204070720 METAR ESMX 070720Z AUTO 03014G24KT 9999NDV FEW065/// M02/M06 Q0999=
201204070650 METAR ESMX 070650Z AUTO 02016KT 350V060 9999NDV -SN FEW018/// M03/M05 Q0999=
201204070620 METAR ESMX 070620Z AUTO 03017G28KT 6000NDV -SN FEW012/// SCT017/// BKN020/// M03/M05 Q0999=
201204070550 METAR ESMX 070550Z AUTO 02017G28KT 350V060 3300NDV -SN FEW012/// BKN015/// BKN018/// M03/M05 Q0999 RESG=
201204070520 METAR ESMX 070520Z AUTO 02016KT 8000NDV SG FEW011/// BKN014/// OVC018/// M03/M04 Q0999=
201204070450 METAR ESMX 070450Z AUTO 02014KT 360V060 6000NDV -SN OVC011/// M03/M04 Q0998=
201204070420 METAR ESMX 070420Z AUTO 02012KT 5000NDV -SN FEW010/// BKN013/// OVC017/// M02/M03 Q0998=
201204070350 METAR ESMX 070350Z AUTO 02013KT 3200NDV -SN FEW009/// SCT012/// BKN015/// M02/M03 Q0998=
201204070320 METAR ESMX 070320Z AUTO 02011KT 340V050 2700NDV -SN FEW008/// SCT010/// BKN018/// M02/M03 Q0998=
201204070250 METAR ESMX 070250Z AUTO 02012KT 9000NDV -SN FEW008/// SCT011/// BKN013/// M02/M03 Q0997=
201204070220 METAR ESMX 070220Z AUTO 03010KT 350V060 3800NDV -SN FEW007/// SCT018/// OVC020/// M01/M02 Q0997=
201204070150 METAR ESMX 070150Z AUTO 03011KT 4200NDV -SN FEW010/// BKN017/// M01/M02 Q0997 RESG=
201204070120 METAR ESMX 070120Z AUTO 03008KT 6000NDV SG FEW009/// SCT014/// BKN017/// M01/M02 Q0997=
201204070050 METAR ESMX 070050Z AUTO 02009KT 2600NDV -SN FEW006/// SCT009/// BKN013/// M01/M01 Q0997=
201204070020 METAR ESMX 070020Z AUTO 03011KT 2800NDV -SN FEW006/// SCT009/// BKN010/// M01/M01 Q0997=
201204062350 METAR ESMX 062350Z AUTO 04009KT 2500NDV -SN FEW005/// SCT007/// BKN011/// M00/M01 Q0997 RERA=
201204062320 METAR ESMX 062320Z AUTO 03007KT 1900NDV +RA FEW001/// SCT003/// BKN004/// 00/M00 Q0996=
201204062250 METAR ESMX 062250Z AUTO 25002KT 3700NDV RA FEW003/// SCT004/// OVC005/// 01/00 Q0997=
201204062220 METAR ESMX 062220Z AUTO 24003KT 5000NDV RA FEW003/// OVC005/// 01/00 Q0997=
201204062150 METAR ESMX 062150Z AUTO 23004KT 8000NDV -RA FEW004/// OVC005/// 01/00 Q0997 REDZ=
201204062120 METAR ESMX 062120Z AUTO 22005KT 9000NDV DZ FEW003/// SCT004/// BKN006/// 01/01 Q0997=
201204062050 METAR ESMX 062050Z AUTO 24005KT 9999NDV -DZ FEW004/// SCT006/// BKN007/// 02/01 Q0997=
201204062020 METAR ESMX 062020Z AUTO 21005KT 9999NDV -DZ OVC004/// 02/01 Q0997=
201204061950 METAR ESMX 061950Z AUTO 21006KT 9999NDV DZ OVC004/// 02/01 Q0997=
201204061920 METAR ESMX 061920Z AUTO 22006KT 9999NDV -RA FEW005/// OVC006/// 02/01 Q0998=
201204061850 METAR ESMX 061850Z AUTO 20006KT 9999NDV -RA SCT005/// BKN008/// 02/01 Q0998 REDZ=
201204061820 METAR ESMX 061820Z AUTO 20007KT 9999NDV DZ FEW005/// SCT007/// BKN010/// 02/02 Q0998=
201204061750 METAR ESMX 061750Z AUTO 21007KT 170V240 9999NDV DZ FEW006/// SCT009/// BKN010/// 03/02 Q0998=
201204061720 METAR ESMX 061720Z AUTO 20007KT 9999NDV DZ FEW006/// BKN008/// BKN032/// 03/02 Q0998=
201204061650 METAR ESMX 061650Z AUTO 19007KT 9999NDV -RA FEW006/// SCT008/// BKN010/// 03/02 Q0999 REDZ=
201204061620 METAR ESMX 061620Z AUTO 21007KT 9999NDV DZ FEW006/// SCT008/// BKN009/// 03/02 Q0999=
201204061550 METAR ESMX 061550Z AUTO 20009KT 9999NDV -DZ FEW006/// SCT007/// BKN009/// 03/02 Q0999=
201204061520 METAR ESMX 061520Z AUTO 21008KT 9000NDV DZ FEW006/// BKN007/// OVC010/// 03/02 Q1000=
201204061450 METAR ESMX 061450Z AUTO 22009KT 7000NDV DZ FEW006/// BKN008/// OVC011/// 03/02 Q1000=
201204061420 METAR ESMX 061420Z 22010KT 9999 -DZ FEW006 SCT008 BKN009 03/02 Q1000=
201204061350 METAR ESMX 061350Z 20010KT 8000 DZ FEW008 BKN010 03/02 Q1001=
201204061320 METAR ESMX 061320Z 20010KT 8000 DZ SCT009 BKN015 03/02 Q1001=
201204061250 METAR ESMX 061250Z 23011KT 9999 -RA OVC012 03/01 Q1002 REDZ=
201204061220 METAR ESMX 061220Z 22012KT 9999 DZ BKN014 OVC020 04/01 Q1002=
201204061150 METAR ESMX 061150Z 21012KT 170V240 9999 -DZ FEW008 BKN010 04/02 Q1002=
201204061120 METAR ESMX 061120Z 21011KT 170V230 9999 -SHRA FEW010 SCT013 BKN018 04/02 Q1003 REDZ=
201204061050 METAR ESMX 061050Z 23012KT 9000 -SHRA SCT009 BKN020 04/01 Q1003 REDZ=
201204061020 METAR ESMX 061020Z 22012KT 9999 -SHRA OVC022 04/M00 Q1003=
201204060950 METAR ESMX 060950Z 21011KT 190V250 9999 BKN025 05/M01 Q1004=
201204060920 METAR COR ESMX 060920Z 22013KT 9999 BKN025 05/M01 Q1004=
201204060850 METAR ESMX 060850Z 22012KT 190V260 9999 BKN025 05/M01 Q1005=
201204060820 METAR ESMX 060820Z 22011KT 9999 SCT020 BKN025 05/M01 Q1005=
201204060750 METAR ESMX 060750Z 23015KT 9999 SCT020 BKN030 04/M02 Q1005=
201204060720 METAR ESMX 060720Z 24012KT 200V280 9999 SCT020 SCT070 04/M02 Q1006=
201204060650 METAR ESMX 060650Z 22014KT 170V250 9999 SCT020 SCT070 04/M01 Q1006=
201204060620 METAR ESMX 060620Z AUTO 23010KT 9999NDV FEW014/// SCT024/// BKN071/// 04/M01 Q1006=
201204060550 METAR ESMX 060550Z AUTO 23009KT 210V280 9999NDV FEW013/// SCT015/// BKN018/// 03/00 Q1007=
201204060520 METAR ESMX 060520Z AUTO 25011KT 9999NDV SCT012/// BKN016/// OVC020/// 03/M00 Q1007=
201204060450 METAR ESMX 060450Z AUTO 24010KT 200V280 9999NDV OVC012/// 03/00 Q1007=
201204060420 METAR ESMX 060420Z AUTO 23011KT 200V290 9999NDV OVC011/// 03/00 Q1008=
201204060350 METAR ESMX 060350Z AUTO 24009KT 200V260 9999NDV OVC012/// 03/01 Q1008=
201204060320 METAR ESMX 060320Z AUTO 24010KT 200V260 9999NDV OVC011/// 03/01 Q1009=
201204060250 METAR ESMX 060250Z AUTO 23009KT 9999NDV OVC012/// 03/01 Q1009=
201204060220 METAR ESMX 060220Z AUTO 22008KT 9999NDV FEW017/// BKN020/// BKN064/// 03/00 Q1010=
201204060150 METAR ESMX 060150Z AUTO 24010KT 9999NDV FEW014/// SCT018/// 03/00 Q1010=
201204060120 METAR ESMX 060120Z AUTO 24008KT 210V280 9999NDV FEW015/// SCT019/// 03/00 Q1010=
201204060050 METAR ESMX 060050Z AUTO 25009KT 230V300 9999NDV BKN013/// OVC019/// 04/01 Q1011=
201204060020 METAR ESMX 060020Z AUTO 22008G18KT 9999NDV BKN014/// OVC020/// 03/01 Q1011=
201204052350 METAR ESMX 052350Z AUTO 23008KT 210V270 9999NDV FEW015/// SCT018/// OVC023/// 03/01 Q1012=
201204052320 METAR ESMX 052320Z AUTO 23008KT 200V260 9999NDV FEW014/// OVC022/// 03/01 Q1012=
201204052250 METAR ESMX 052250Z AUTO 24009KT 9999NDV FEW019/// BKN022/// 03/01 Q1012=
201204052220 METAR ESMX 052220Z AUTO 25008KT 220V290 9999NDV BKN014/// 03/00 Q1013=
201204052150 METAR ESMX 052150Z AUTO 24008KT 9999NDV BKN014/// BKN025/// 03/00 Q1013=
201204052120 METAR ESMX 052120Z AUTO 25008KT 220V290 9999NDV SCT014/// OVC023/// 03/M00 Q1013=
201204052050 METAR ESMX 052050Z AUTO 24008KT 210V270 9999NDV OVC015/// 03/M01 Q1014=
201204052020 METAR ESMX 052020Z AUTO 24008KT 9999NDV OVC017/// 04/M03 Q1014=
201204051950 METAR ESMX 051950Z AUTO 22008KT 190V260 9999NDV BKN020/// OVC028/// 04/M05 Q1014=
201204051920 METAR ESMX 051920Z AUTO 24009KT 9999NDV FEW026/// OVC038/// 04/M06 Q1014=
201204051850 METAR ESMX 051850Z AUTO 24008KT 9999NDV FEW027/// OVC039/// 04/M05 Q1014=
201204051820 METAR ESMX 051820Z 23010KT 170V290 9999 OVC028 04/M04 Q1015=
201204051750 METAR ESMX 051750Z 23011KT 9999 OVC028 04/M03 Q1015=
201204051720 METAR ESMX 051720Z 23007KT 200V270 9999 OVC030 04/M03 Q1015=
201204051650 METAR ESMX 051650Z 26010KT 210V290 9999 OVC037 05/M04 Q1015=
201204051620 METAR ESMX 051620Z 27008KT 200V310 9999 BKN040 05/M04 Q1015=
201204051550 METAR ESMX 051550Z 27012KT 9999 SCT045 06/M05 Q1015=
201204051520 METAR ESMX 051520Z 25012KT 210V290 CAVOK 07/M08 Q1015=
201204051450 METAR ESMX 051450Z 25014KT CAVOK 07/M11 Q1016=
201204051420 METAR ESMX 051420Z 27013KT 240V300 CAVOK 08/M11 Q1016=
201204051350 METAR ESMX 051350Z 24013KT CAVOK 08/M12 Q1016=
201204051320 METAR ESMX 051320Z 26014KT CAVOK 08/M12 Q1016=
201204051250 METAR ESMX 051250Z 22015KT 190V270 CAVOK 08/M14 Q1017=
201204051220 METAR ESMX 051220Z 23014G24KT 190V280 CAVOK 08/M13 Q1017=
201204051150 METAR ESMX 051150Z 25013KT 200V290 CAVOK 08/M10 Q1017=
201204051120 METAR ESMX 051120Z 27014KT CAVOK 08/M10 Q1017=
201204051050 METAR ESMX 051050Z 24014KT 170V290 CAVOK 08/M10 Q1017=
201204051020 METAR ESMX 051020Z 26014KT 220V290 CAVOK 07/M11 Q1018=
201204050950 METAR ESMX 050950Z 26013KT 200V290 CAVOK 07/M11 Q1018=
201204050920 METAR ESMX 050920Z 26012KT 230V300 CAVOK 07/M09 Q1018=
201204050850 METAR ESMX 050850Z 26013KT CAVOK 06/M11 Q1018=
201204050820 METAR ESMX 050820Z 24007KT 210V280 CAVOK 05/M09 Q1019=
201204050750 METAR ESMX 050750Z 25005KT 190V300 CAVOK 04/M09 Q1019=
201204050720 METAR ESMX 050720Z 25003KT 200V300 CAVOK 02/M07 Q1019=
201204050650 METAR ESMX 050650Z 23003KT 200V270 CAVOK 00/M07 Q1019=
201204050620 METAR ESMX 050620Z 23004KT CAVOK M02/M07 Q1019=
201204050550 METAR ESMX 050550Z 23003KT CAVOK M03/M07 Q1018=
201204050520 METAR ESMX 050520Z 23002KT CAVOK M07/M09 Q1018=
201204050450 METAR ESMX 050450Z 21002KT CAVOK M07/M09 Q1018=
201204050420 METAR ESMX 050420Z 00000KT CAVOK M07/M09 Q1018=
201204050350 METAR ESMX 050350Z 00000KT CAVOK M06/M09 Q1018=
201204050320 METAR ESMX 050320Z 24001KT CAVOK M07/M09 Q1018=
201204050250 METAR ESMX 050250Z AUTO VRB02KT 9999NDV NCD M05/M08 Q1018=
201204050220 METAR ESMX 050220Z AUTO 24004KT 9999NDV NCD M04/M08 Q1018=
201204050150 METAR ESMX 050150Z AUTO 23003KT 9999NDV NCD M04/M08 Q1018=
201204050120 METAR ESMX 050120Z AUTO 21004KT 9999NDV NCD M03/M08 Q1018=
201204050050 METAR ESMX 050050Z AUTO 18003KT 9999NDV NCD M03/M08 Q1018=
201204050020 METAR ESMX 050020Z AUTO 18003KT 9999NDV NCD M03/M08 Q1018=
201204042350 METAR ESMX 042350Z 19003KT CAVOK M04/M08 Q1018=
201204042320 METAR ESMX 042320Z 00000KT CAVOK M03/M09 Q1018=
201204042250 METAR ESMX 042250Z 22003KT CAVOK M02/M08 Q1018=
201204042220 METAR ESMX 042220Z 23004KT CAVOK M02/M09 Q1018=
201204042150 METAR ESMX 042150Z 22004KT CAVOK M02/M10 Q1018=
201204042120 METAR ESMX 042120Z 21005KT CAVOK M01/M11 Q1018=
201204042050 METAR ESMX 042050Z 20005KT CAVOK M02/M11 Q1018=
201204042020 METAR ESMX 042020Z 21005KT CAVOK M01/M13 Q1018=
201204041950 METAR ESMX 041950Z 16004KT CAVOK 01/M14 Q1017=
201204041920 METAR ESMX 041920Z 17004KT CAVOK M01/M13 Q1017=
201204041850 METAR ESMX 041850Z 17007KT CAVOK M01/M12 Q1017=
201204041820 METAR ESMX 041820Z 00000KT CAVOK 01/M13 Q1016=
201204041750 METAR ESMX 041750Z 14001KT CAVOK 02/M14 Q1016=
201204041720 METAR ESMX 041720Z VRB01KT CAVOK 06/M18 Q1016=
201204041650 METAR ESMX 041650Z 09003KT 060V140 CAVOK 07/M19 Q1016=
201204041620 METAR ESMX 041620Z 08003KT 030V150 CAVOK 07/M18 Q1015=
201204041550 METAR ESMX 041550Z 02003KT 340V100 CAVOK 07/M18 Q1015=
201204041520 METAR ESMX 041520Z VRB03KT 9999 NSC 07/M19 Q1015=
201204041450 METAR ESMX 041450Z VRB05KT CAVOK 08/M18 Q1015=
201204041420 METAR ESMX 041420Z 02003KT 300V080 CAVOK 07/M17 Q1015=
201204041350 METAR ESMX 041350Z 06004KT 360V120 CAVOK 08/M18 Q1015=
201204041320 METAR ESMX 041320Z 05007KT 010V100 CAVOK 08/M17 Q1015=
201204041250 METAR ESMX 041250Z 05008KT 010V090 CAVOK 07/M19 Q1015=
201204041220 METAR ESMX 041220Z 04007KT 340V080 CAVOK 07/M18 Q1015=
201204041150 METAR ESMX 041150Z 07006KT CAVOK 07/M17 Q1015=
201204041120 METAR ESMX 041120Z 02006KT 340V120 CAVOK 07/M15 Q1015=
201204041050 METAR ESMX 041050Z 04008KT 010V080 CAVOK 06/M13 Q1015=
201204041020 METAR ESMX 041020Z 02008KT CAVOK 06/M12 Q1015=
201204040950 METAR ESMX 040950Z 04008KT 360V080 CAVOK 05/M11 Q1015=
201204040920 METAR ESMX 040920Z 01009KT 340V050 CAVOK 04/M11 Q1015=
201204040850 METAR ESMX 040850Z 04008KT 350V080 CAVOK 04/M10 Q1015=
201204040820 METAR ESMX 040820Z 05006KT 340V110 CAVOK 03/M08 Q1015=
201204040750 METAR ESMX 040750Z 06007KT 020V110 CAVOK 02/M07 Q1015=
201204040720 METAR ESMX 040720Z 06005KT 030V110 CAVOK 01/M07 Q1015=
201204040650 METAR ESMX 040650Z 07006KT 020V110 CAVOK 00/M06 Q1014=
201204040620 METAR ESMX 040620Z 04005KT CAVOK M01/M06 Q1014=
201204040550 METAR ESMX 040550Z 02003KT 330V070 CAVOK M02/M04 Q1014=
201204040520 METAR ESMX 040520Z 03004KT CAVOK M03/M04 Q1014=
201204040450 METAR ESMX 040450Z 03003KT CAVOK M04/M05 Q1014=
201204040420 METAR ESMX 040420Z 05002KT CAVOK M04/M05 Q1014=
201204040350 METAR ESMX 040350Z 03005KT 9999 MIFG NSC M04/M05 Q1014=
201204040320 METAR ESMX 040320Z AUTO 02003KT 9999NDV NCD M04/M05 Q1013=
201204040250 METAR ESMX 040250Z AUTO 04002KT 9999NDV NCD M04/M06 Q1014=
201204040220 METAR ESMX 040220Z AUTO 03003KT 9999NDV NCD M04/M06 Q1013=
201204040150 METAR ESMX 040150Z AUTO 04003KT 9999NDV NCD M04/M07 Q1013=
201204040120 METAR ESMX 040120Z AUTO 04003KT 9999NDV NCD M05/M08 Q1013=
201204040050 METAR ESMX 040050Z AUTO 04002KT 9999NDV NCD M05/M08 Q1013=
201204040020 METAR ESMX 040020Z AUTO 03001KT 9999NDV NCD M05/M09 Q1013=
201204032350 METAR ESMX 032350Z 01001KT CAVOK M04/M09 Q1013=
201204032320 METAR ESMX 032320Z 00000KT CAVOK M04/M09 Q1013=
201204032250 METAR ESMX 032250Z 00000KT CAVOK M04/M09 Q1013=
201204032220 METAR ESMX 032220Z 00000KT CAVOK M04/M09 Q1012=
201204032150 METAR ESMX 032150Z 09001KT CAVOK M04/M10 Q1012=
201204032120 METAR ESMX 032120Z VRB01KT CAVOK M03/M10 Q1012=
201204032050 METAR ESMX 032050Z 15002KT CAVOK M02/M10 Q1012=
201204032020 METAR ESMX 032020Z 14002KT CAVOK M01/M11 Q1012=
201204031950 METAR ESMX 031950Z 14003KT 090V170 CAVOK M00/M11 Q1011=
201204031920 METAR ESMX 031920Z 15004KT 110V170 CAVOK 01/M12 Q1011=
201204031850 METAR ESMX 031850Z 15005KT 110V200 CAVOK 01/M12 Q1011=
201204031820 METAR ESMX 031820Z 16006KT 110V200 CAVOK 02/M10 Q1010=
201204031750 METAR ESMX 031750Z 15007KT 110V170 CAVOK 03/M09 Q1010=
201204031720 METAR ESMX 031720Z 08007KT 040V110 CAVOK 04/M09 Q1009=
201204031650 METAR ESMX 031650Z 07009KT 030V120 9999 FEW082 04/M08 Q1009=
201204031620 METAR ESMX 031620Z 02005KT 340V090 9999 FEW082 BKN092 06/M12 Q1008=
201204031550 METAR ESMX 031550Z VRB02KT CAVOK 06/M16 Q1008=
201204031520 METAR ESMX 031520Z VRB01KT CAVOK 06/M18 Q1008=
201204031450 METAR ESMX 031450Z 18003KT 130V230 CAVOK 06/M16 Q1008=
201204031420 METAR ESMX 031420Z VRB02KT CAVOK 07/M15 Q1008=
201204031350 METAR ESMX 031350Z VRB04KT CAVOK 06/M15 Q1008=
201204031320 METAR ESMX 031320Z 01004KT 300V080 CAVOK 06/M15 Q1008=
201204031250 METAR ESMX 031250Z VRB03KT CAVOK 06/M15 Q1008=
201204031220 METAR ESMX 031220Z VRB03KT CAVOK 06/M16 Q1008=
201204031150 METAR ESMX 031150Z 19004KT 150V230 CAVOK 06/M18 Q1008=
201204031120 METAR ESMX 031120Z VRB03KT CAVOK 05/M16 Q1008=
201204031050 METAR ESMX 031050Z VRB03KT CAVOK 05/M16 Q1008=
201204031020 METAR ESMX 031020Z 04004KT 010V110 CAVOK 05/M16 Q1007=
201204030950 METAR ESMX 030950Z 13003KT 060V220 CAVOK 05/M15 Q1007=
201204030920 METAR ESMX 030920Z VRB04KT CAVOK 05/M16 Q1007=
201204030850 METAR ESMX 030850Z 18003KT 110V240 CAVOK 03/M14 Q1007=
201204030820 METAR ESMX 030820Z VRB02KT CAVOK 03/M12 Q1007=
201204030750 METAR ESMX 030750Z 26004KT 220V320 CAVOK 02/M10 Q1007=
201204030720 METAR ESMX 030720Z 24004KT 200V280 CAVOK 01/M09 Q1006=
201204030650 METAR ESMX 030650Z 26003KT 210V290 CAVOK M01/M08 Q1006=
201204030620 METAR ESMX 030620Z VRB01KT CAVOK M03/M08 Q1006=
201204030550 METAR ESMX 030550Z 00000KT CAVOK M06/M09 Q1005=
201204030520 METAR ESMX 030520Z 00000KT CAVOK M09/M10 Q1005=
201204030450 METAR ESMX 030450Z VRB01KT CAVOK M09/M11 Q1005=
201204030420 METAR ESMX 030420Z 20002KT CAVOK M09/M11 Q1004=
201204030350 METAR ESMX 030350Z 21002KT CAVOK M08/M11 Q1004=
201204030320 METAR ESMX 030320Z AUTO VRB02KT 9999NDV NCD M08/M11 Q1004=
201204030250 METAR ESMX 030250Z AUTO VRB02KT 9999NDV NCD M08/M11 Q1004=
201204030220 METAR ESMX 030220Z AUTO 00000KT 9999NDV NCD M07/M11 Q1004=
201204030150 METAR ESMX 030150Z AUTO 24004KT 9999NDV NCD M06/M10 Q1004=
201204030120 METAR ESMX 030120Z AUTO 24004KT 9999NDV NCD M07/M11 Q1004=
201204030050 METAR ESMX 030050Z AUTO 25002KT 9999NDV NCD M07/M11 Q1003=
201204030020 METAR ESMX 030020Z 26003KT CAVOK M06/M11 Q1003=
201204022350 METAR ESMX 022350Z 26004KT CAVOK M05/M11 Q1003=
201204022320 METAR ESMX 022320Z 26004KT CAVOK M05/M11 Q1003=
201204022250 METAR ESMX 022250Z 26004KT CAVOK M04/M11 Q1003=
201204022220 METAR ESMX 022220Z 27004KT CAVOK M04/M11 Q1003=
201204022150 METAR ESMX 022150Z 27005KT CAVOK M03/M10 Q1002=
201204022120 METAR ESMX 022120Z 27005KT CAVOK M03/M10 Q1002=
201204022050 METAR ESMX 022050Z 26005KT CAVOK M03/M10 Q1002=
201204022020 METAR ESMX 022020Z 25004KT CAVOK M04/M10 Q1002=
201204021950 METAR ESMX 021950Z 26004KT CAVOK M04/M10 Q1001=
201204021920 METAR ESMX 021920Z 25004KT 9999 FEW030 M03/M10 Q1001=
201204021850 METAR ESMX 021850Z 26004KT 9999 FEW025 M02/M10 Q1001=
201204021820 METAR ESMX 021820Z 29003KT 260V330 9999 FEW040 M00/M10 Q1001=
201204021750 METAR ESMX 021750Z 29005KT 250V320 9999 FEW040TCU 00/M11 Q1001=
201204021720 METAR ESMX 021720Z 26005KT 9999 FEW025TCU 00/M09 Q1000=
201204021650 METAR ESMX 021650Z 29011G21KT 9999 FEW025 SCT090 01/M11 Q1000=
201204021620 METAR ESMX 021620Z 30008KT 270V340 9999 FEW040 02/M11 Q1000=
201204021550 METAR ESMX 021550Z 31009G19KT 9999 FEW035 SCT055 02/M12 Q1000=
201204021520 METAR ESMX 021520Z 31010KT 9999 FEW039 SCT053 02/M13 Q1000=
201204021450 METAR ESMX 021450Z 28009KT 230V320 9999 FEW034 SCT058 02/M14 Q0999=
201204021420 METAR ESMX 021420Z 32009KT 9999 FEW039 SCT080 03/M14 Q0999=
201204021350 METAR ESMX 021350Z 32010KT 290V350 CAVOK 03/M13 Q0999=
201204021320 METAR ESMX 021320Z 31009KT 270V350 CAVOK 02/M13 Q0999=
201204021250 METAR ESMX 021250Z 31011KT 250V350 CAVOK 03/M13 Q0999=
201204021220 METAR ESMX 021220Z 31011KT 260V350 9999 FEW025 SCT070 03/M14 Q0999=
201204021150 METAR ESMX 021150Z 33011KT 290V360 CAVOK 02/M12 Q0999=
201204021120 METAR ESMX 021120Z 32014KT 280V350 CAVOK 02/M13 Q0999=
201204021050 METAR ESMX 021050Z 30016KT CAVOK 02/M13 Q0999=
201204021020 METAR ESMX 021020Z 30013KT 250V340 CAVOK 02/M10 Q0999=
201204020950 METAR ESMX 020950Z 29012KT 250V320 9999 FEW035 01/M08 Q0999=
201204020920 METAR ESMX 020920Z 30011KT 260V350 9999 FEW035 01/M07 Q0999=
201204020850 METAR ESMX 020850Z 30012KT 270V330 CAVOK M00/M08 Q0998=
201204020820 METAR ESMX 020820Z 31013KT CAVOK M00/M07 Q0998=
201204020750 METAR ESMX 020750Z 30013KT CAVOK M01/M08 Q0998=
201204020720 METAR ESMX 020720Z 31013KT CAVOK M01/M08 Q0998=
201204020650 METAR ESMX 020650Z 30010KT 260V330 CAVOK M02/M08 Q0998=
201204020620 METAR ESMX 020620Z 30010KT CAVOK M02/M08 Q0998=
201204020550 METAR ESMX 020550Z 29010KT CAVOK M03/M08 Q0997=
201204020520 METAR ESMX 020520Z 30009KT 260V340 CAVOK M04/M08 Q0997=
201204020450 METAR ESMX 020450Z 30008KT 270V350 CAVOK M04/M07 Q0997=
201204020420 METAR ESMX 020420Z 32009KT CAVOK M04/M07 Q0997=
201204020350 METAR ESMX 020350Z 30010KT CAVOK M03/M07 Q0996=
201204020320 METAR ESMX 020320Z AUTO 32009KT 9999NDV NCD M03/M07 Q0996=
201204020250 METAR ESMX 020250Z AUTO 30010KT 9999NDV NCD M03/M06 Q0996=
201204020220 METAR ESMX 020220Z AUTO 32009KT 9999NDV NCD M03/M06 Q0996=
201204020150 METAR ESMX 020150Z AUTO 31009KT 270V340 9999NDV NCD M03/M05 Q0996=
201204020120 METAR ESMX 020120Z AUTO 30009KT 9999NDV NCD M02/M05 Q0995=
201204020050 METAR ESMX 020050Z AUTO 32009KT 9999NDV NCD M02/M04 Q0995=
201204020020 METAR ESMX 020020Z AUTO 32008KT 9999NDV NCD M01/M04 Q0995=
201204012350 METAR ESMX 012350Z 32009KT CAVOK M01/M03 Q0994=
201204012320 METAR ESMX 012320Z 32008KT CAVOK M01/M03 Q0994=
201204012250 METAR ESMX 012250Z 32008KT CAVOK M00/M02 Q0994=
201204012220 METAR ESMX 012220Z 33009KT CAVOK M00/M02 Q0993=
201204012150 METAR ESMX 012150Z 31007KT 280V340 CAVOK M00/M01 Q0993=
201204012120 METAR ESMX 012120Z 32010KT 9999 FEW019 SCT094 00/M01 Q0992=
201204012050 METAR ESMX 012050Z 32006KT 280V360 9999 FEW015 SCT079 00/M00 Q0992=
201204012020 METAR ESMX 012020Z 34011KT 310V010 7000 -SNRA SCT006CB BKN008 00/M00 Q0992=
201204011950 METAR ESMX 011950Z 32008KT 7000 -SNRA FEW006 SCT012CB BKN023 01/00 Q0991=
201204011920 METAR ESMX 011920Z 01011KT 5000 SNRA FEW009CB BKN020 01/00 Q0991=
201204011850 METAR ESMX 011850Z 28006KT 9999 VCSH FEW009CB SCT027 01/00 Q0991=
201204011820 METAR ESMX 011820Z 32013G32KT 280V010 9999 -SNRA FEW015CB 04/M00 Q0991=
201204011750 METAR ESMX 011750Z 27009KT 9999 VCSH FEW035CB 04/M01 Q0991=
201204011720 METAR ESMX 011720Z 27011KT 9999 FEW035 04/M02 Q0992=
201204011650 METAR ESMX 011650Z 26013KT 230V300 9999 FEW035 SCT048 05/M01 Q0992=
201204011620 METAR ESMX 011620Z 26012KT 190V290 9999 FEW036 BKN075 05/M01 Q0993=
201204011550 METAR ESMX 011550Z 26010KT 230V290 9999 FEW029 SCT035 BKN040 04/M01 Q0993=
201204011520 METAR ESMX 011520Z 25007KT 210V280 9999 FEW032 SCT040 BKN048 04/M00 Q0994=
201204011450 METAR ESMX 011450Z 21006KT 9999 FEW022 SCT044 BKN057 03/01 Q0994=
201204011420 METAR ESMX 011420Z 23006KT 200V270 9999 FEW027 BKN032 BKN043 03/01 Q0995=
201204011350 METAR ESMX 011350Z 24013KT 200V280 9999 SHRA SCT037 BKN051 04/M01 Q0996=
201204011320 METAR ESMX 011320Z 25014G24KT 9999 SCT040 BKN056 06/M03 Q0996=
201204011250 METAR ESMX 011250Z 26017KT 220V280 9999 SCT045 BKN056 06/M05 Q0997=
201204011220 METAR ESMX 011220Z 25013KT 9999 FEW046 BKN056 07/M04 Q0998=
