##########################################################
# Query made at 04/19/2024 21:30:45 UTC
# Time interval: from 11/01/2012 12:00  to 11/30/2012 12:59  UTC
##########################################################

##########################################################
# ESMX, Vaxjo (Sweden)
# WMO index: 02641. WIGOS ID: 0-20000-0-02648
# Latitude 56-51N. Longitude 014-50E. Altitude 199 m.
##########################################################

201211301250 METAR ESMX 301250Z 31007KT 9999 -SN FEW013 SCT034 OVC041 M01/M04 Q1001=
201211301220 METAR ESMX 301220Z 32009KT 9999 FEW014 SCT018 BKN026 M01/M04 Q1000=
201211301150 METAR ESMX 301150Z 31009KT 9999 -SN FEW013 BKN021 M01/M04 Q1000=
201211301120 METAR ESMX 301120Z 30009KT 9999 -SN FEW012 SCT017 BKN024 M02/M04 Q1000=
201211301050 METAR ESMX 301050Z 31009KT 9999 -SN FEW013 BKN022 M01/M04 Q1000=
201211301020 METAR ESMX 301020Z 30009KT 9999 FEW014 BKN020 M01/M04 Q1000=
201211300950 METAR ESMX 300950Z 31007KT 9999 SCT017 OVC032 M01/M05 Q1000=
201211300920 METAR ESMX 300920Z 34010KT 9999 SCT025 M02/M05 Q1000=
201211300850 METAR ESMX 300850Z 32009KT 9999 -SN FEW016 SCT023 BKN051 M01/M05 Q1000=
201211300820 METAR ESMX 300820Z 33010KT 9999 SCT013 BKN023 M01/M04 Q1000=
201211300720 METAR ESMX 300720Z 35009KT 9999 OVC012 M01/M04 Q1000=
201211300650 METAR ESMX 300650Z 34011KT 9999 OVC012 M01/M04 Q0999=
201211300620 METAR ESMX 300620Z 36010KT 9999 OVC011 M01/M04 Q0999=
201211300550 METAR ESMX 300550Z 35012KT 9999 -SN OVC011 M01/M04 Q0999=
201211300520 METAR ESMX 300520Z 33011KT 9999 -SN OVC012 M01/M04 Q0999=
201211300450 METAR ESMX 300450Z 34011KT 9999 -SN OVC012 M01/M04 Q0999=
201211300420 METAR ESMX 300420Z AUTO 35010KT 9999NDV -SN OVC011/// M01/M03 Q0999=
201211300350 METAR ESMX 300350Z AUTO 34013KT 9999NDV OVC011/// M01/M03 Q0999=
201211300320 METAR ESMX 300320Z AUTO 34012KT 9999NDV OVC012/// M01/M03 Q1000=
201211300250 METAR ESMX 300250Z AUTO 34012KT 9999NDV OVC012/// M01/M03 Q1000=
201211300220 METAR ESMX 300220Z AUTO 34010KT 9999NDV OVC012/// M01/M03 Q1000=
201211300150 METAR ESMX 300150Z 35011KT 9999 -SN OVC013 M01/M03 Q1000=
201211300120 METAR ESMX 300120Z 35013KT 9999 -SN OVC012 M01/M03 Q0999=
201211300050 METAR ESMX 300050Z 34012KT 9999 OVC013 M01/M03 Q0999=
201211300020 METAR ESMX 300020Z 36014KT 9999 -SN OVC012 M01/M03 Q0999=
201211292350 METAR ESMX 292350Z 35012KT 9999 OVC013 M01/M03 Q1000=
201211292320 METAR ESMX 292320Z 36013KT 9999 OVC013 M01/M03 Q1000=
201211292250 METAR ESMX 292250Z 35013KT 9999 BKN011 OVC047 M01/M03 Q1000=
201211292220 METAR ESMX 292220Z 36012KT 9999 OVC011 M01/M03 Q1000=
201211292150 METAR ESMX 292150Z 35013KT 9999 -SN OVC010 M01/M03 Q1000=
201211292120 METAR ESMX 292120Z 01013KT 9999 -SN OVC011 M00/M03 Q1000=
201211292050 METAR ESMX 292050Z 35014KT 9999 -SN OVC010 M01/M02 Q1000=
201211292020 METAR ESMX 292020Z 01014KT 9999 -SN OVC010 M00/M02 Q1000=
201211291950 METAR ESMX 291950Z 01015KT 9999 -SN OVC010 M00/M02 Q1000=
201211291920 METAR ESMX 291920Z 36014KT 9999 -SN OVC010 M00/M02 Q1000=
201211291850 METAR ESMX 291850Z 01014KT 9999 -SN OVC010 M00/M02 Q1000=
201211291820 METAR ESMX 291820Z 02013KT 9999 -SN OVC011 M00/M02 Q1000=
201211291750 METAR ESMX 291750Z 36014KT 9999 -SN FEW010 OVC012 M00/M02 Q1000=
201211291720 METAR ESMX 291720Z 02012KT 9999 -SN OVC010 M00/M02 Q1000=
201211291650 METAR ESMX 291650Z 01012KT 9999 -SN OVC010 00/M02 Q1000=
201211291550 METAR ESMX 291550Z 02013KT 9999 -SN OVC010 00/M02 Q1000=
201211291520 METAR ESMX 291520Z 02013KT 9999 -SN FEW010 OVC012 00/M02 Q1000=
201211291450 METAR ESMX 291450Z 02013KT 9999 -DZ FEW008 OVC011 00/M02 Q1000=
201211291420 METAR ESMX 291420Z 01014G25KT 9999 OVC010 00/M01 Q1000=
201211291350 METAR ESMX 291350Z 02015KT 9999 FEW009 BKN012 01/M01 Q1000=
201211291320 METAR ESMX 291320Z 02014KT 9999 FEW009 OVC012 01/M01 Q1000=
201211291250 METAR ESMX 291250Z 02012KT 9999 -DZ FEW009 OVC012 01/M01 Q1001=
201211291220 METAR COR ESMX 291220Z 01013KT 9999 -DZ OVC010 01/M01 Q1001=
201211291150 METAR ESMX 291150Z 01012KT 9999 OVC011 01/M01 Q1001=
201211291120 METAR ESMX 291120Z 01012KT 9999 OVC010 01/M01 Q1001=
201211291050 METAR ESMX 291050Z 01012KT 340V050 9999 OVC010 01/M01 Q1001=
201211291020 METAR ESMX 291020Z 02012KT 9999 -DZ FEW010 OVC012 01/M01 Q1001=
201211290950 METAR ESMX 290950Z 36015KT 9999 -DZ FEW011 OVC017 01/M01 Q1001=
201211290920 METAR ESMX 290920Z 01014KT 9999 -RA FEW009 BKN012 OVC019 01/M01 Q1001=
201211290850 METAR ESMX 290850Z 36011KT 9999 BKN010 OVC016 01/M01 Q1002=
201211290820 METAR ESMX 290820Z 36012KT 9999 FEW009 SCT011 BKN014 00/M01 Q1002=
201211290750 METAR ESMX 290750Z 35012KT 9999 -SG FEW006 BKN010 OVC020 00/M01 Q1002=
201211290720 METAR ESMX 290720Z 35012KT 9999 SG FEW008 SCT013 OVC016 00/M01 Q1002=
201211290650 METAR ESMX 290650Z 35011KT 8000 -DZ FEW007 BKN010 OVC016 00/M01 Q1002=
201211290620 METAR ESMX 290620Z 36010KT 9999 -DZ FEW008 OVC012 00/M01 Q1002=
201211290550 METAR ESMX 290550Z 36010KT 9999 -DZ OVC010 00/M01 Q1002=
201211290520 METAR ESMX 290520Z 02013KT 9999 -RASN OVC010 01/M01 Q1002=
201211290450 METAR ESMX 290450Z 02013KT 9999 -RA FEW009 OVC011 01/M01 Q1002=
201211290420 METAR ESMX 290420Z AUTO 36011KT 9999NDV -DZ FEW007/// BKN009/// OVC012/// 00/M01 Q1002 REDZ=
201211290350 METAR ESMX 290350Z AUTO 36011KT 9999NDV -DZ FEW009/// BKN010/// OVC014/// 01/M01 Q1002=
201211290320 METAR ESMX 290320Z AUTO 02012KT 9999NDV OVC008/// 01/M01 Q1002=
201211290250 METAR ESMX 290250Z AUTO 02011KT 9999NDV SCT009/// OVC010/// 01/M01 Q1003=
201211290220 METAR ESMX 290220Z AUTO 01012KT 8000NDV DZ FEW007/// OVC009/// 01/M01 Q1002=
201211290150 METAR ESMX 290150Z AUTO 36010KT 9999NDV FEW009/// BKN011/// OVC019/// 01/M01 Q1003=
201211290120 METAR ESMX 290120Z 01011KT 9999 BKN008 OVC017 01/M00 Q1003=
201211290050 METAR ESMX 290050Z 02011KT 9999 -DZ BKN006 OVC010 01/M00 Q1003=
201211290020 METAR ESMX 290020Z 02010KT 9999 -DZ OVC006 01/M00 Q1003=
201211282350 METAR ESMX 282350Z 01010KT 9999 -RA OVC005 01/M00 Q1003 REDZ=
201211282320 METAR ESMX 282320Z 01010KT 9999 -RASN BKN005 OVC039 01/M00 Q1003=
201211282250 METAR ESMX 282250Z 35009KT 8000 -RASN OVC005 01/M00 Q1003=
201211282220 METAR ESMX 282220Z 36010KT 7000 -RASN OVC005 01/M00 Q1003=
201211282150 METAR ESMX 282150Z 36010KT 9999 -RASN OVC006 01/M00 Q1003=
201211282120 METAR ESMX 282120Z 35010KT 9999 -SNRA OVC007 01/00 Q1003=
201211282050 METAR ESMX 282050Z 35009KT 9999 -SNRA OVC005 01/00 Q1003=
201211282020 METAR ESMX 282020Z 35009KT 9999 -RASN FEW007 OVC010 01/M00 Q1003=
201211281950 METAR ESMX 281950Z 36008KT 9999 BKN011 OVC025 01/M00 Q1003=
201211281920 METAR ESMX 281920Z 35008KT 9999 FEW006 OVC010 01/00 Q1003=
201211281850 METAR ESMX 281850Z 35008KT 9999 -SN FEW006 OVC010 01/00 Q1003=
201211281820 METAR ESMX 281820Z 34007KT 9999 FEW006 OVC010 01/00 Q1003=
201211281750 METAR ESMX 281750Z 36008KT 9999 -DZ FEW006 BKN010 01/00 Q1003=
201211281720 METAR ESMX 281720Z 36007KT 9999 -DZ OVC010 01/00 Q1003=
201211281650 METAR ESMX 281650Z 35006KT 9999 -DZ OVC010 02/00 Q1003=
201211281620 METAR ESMX 281620Z 34007KT 9999 -DZ FEW008 OVC010 02/01 Q1003=
201211281550 METAR ESMX 281550Z 36009KT 9999 FEW006 OVC009 02/01 Q1003=
201211281520 METAR ESMX 281520Z 35008KT 5000 -DZ BKN004 OVC008 02/01 Q1003=
201211281450 METAR ESMX 281450Z 01007KT 8000 BR FEW005 BKN008 02/01 Q1003=
201211281420 METAR ESMX 281420Z 32007KT 290V350 9999 FEW009 OVC012 02/01 Q1003=
201211281350 METAR ESMX 281350Z 33004KT 290V350 9999 FEW009 OVC012 02/01 Q1003=
201211281320 METAR ESMX 281320Z 32004KT 9000 FEW007 BKN008 OVC011 02/01 Q1003=
201211281250 METAR ESMX 281250Z 32006KT 9999 OVC006 02/00 Q1004=
201211281220 METAR ESMX 281220Z 29006KT 280V010 9999 OVC005 02/01 Q1004=
201211281150 METAR ESMX 281150Z 29005KT 9999 OVC005 02/01 Q1004=
201211281120 METAR ESMX 281120Z 30005KT 9999 OVC006 02/01 Q1004=
201211281050 METAR ESMX 281050Z 33005KT 300V010 9999 FEW005 OVC007 02/01 Q1004=
201211281020 METAR ESMX 281020Z 31006KT 9999 OVC004 02/01 Q1004=
201211280950 METAR ESMX 280950Z 31006KT 9999 OVC004 02/01 Q1004=
201211280920 METAR ESMX 280920Z 31005KT 9999 FEW003 SCT007 BKN009 02/02 Q1004=
201211280850 METAR ESMX 280850Z 32005KT 9999 FEW002 SCT007 BKN009 02/02 Q1004=
201211280820 METAR ESMX 280820Z 27005KT 5000 BR OVC002 03/02 Q1004=
201211280750 METAR ESMX 280750Z 25005KT 9999 BKN002 03/02 Q1004=
201211280720 METAR ESMX 280720Z 26004KT 230V290 9999 SCT004 OVC012 02/02 Q1003=
201211280650 METAR ESMX 280650Z 24003KT 210V270 9999 OVC010 02/01 Q1003=
201211280620 METAR ESMX 280620Z 24004KT 9999 BKN011 02/01 Q1003=
201211280550 METAR ESMX 280550Z 26005KT 9999 FEW004 BKN006 03/02 Q1003=
201211280520 METAR ESMX 280520Z 29004KT 260V330 9999 FEW006 OVC008 03/02 Q1003=
201211280450 METAR ESMX 280450Z 28005KT 240V310 9999 FEW007 OVC009 03/02 Q1003=
201211280420 METAR ESMX 280420Z 25003KT 9999 FEW005 BKN009 OVC011 03/02 Q1003=
201211280350 METAR ESMX 280350Z AUTO 24003KT 9999NDV FEW008/// OVC009/// 03/02 Q1003=
201211280320 METAR ESMX 280320Z AUTO 25003KT 9999NDV FEW005/// OVC009/// 03/02 Q1003=
201211280250 METAR ESMX 280250Z AUTO 26004KT 230V310 8000NDV BR SCT001/// BKN005/// OVC008/// 03/03 Q1003=
201211280220 METAR ESMX 280220Z AUTO 26004KT 8000NDV BR OVC001/// 03/03 Q1003=
201211280150 METAR ESMX 280150Z AUTO 22003KT 8000NDV BR FEW005/// OVC018/// 03/02 Q1003=
201211280120 METAR ESMX 280120Z AUTO 25003KT 9000NDV BR SCT002/// OVC017/// 03/03 Q1003=
201211280050 METAR ESMX 280050Z 26003KT 230V290 7000 BR FEW002 SCT003 BKN005 03/03 Q1003=
201211280020 METAR ESMX 280020Z VRB02KT 2500 BR FEW002 SCT003 OVC014 03/02 Q1003=
201211272350 METAR ESMX 272350Z 26002KT 4500 BR FEW002 SCT003 OVC015 03/02 Q1004=
201211272320 METAR ESMX 272320Z 23002KT 7000 BR OVC017 03/02 Q1004=
201211272250 METAR ESMX 272250Z 18003KT 7000 BKN019 OVC051 03/02 Q1004=
201211272220 METAR ESMX 272220Z 24004KT 9999 OVC019 03/02 Q1004=
201211272150 METAR ESMX 272150Z 22004KT 9999 SCT002 BKN020 03/02 Q1004=
201211272120 METAR ESMX 272120Z 25005KT 8000 BR OVC003 03/03 Q1004=
201211272050 METAR ESMX 272050Z 22003KT 190V250 8000 BR FEW003 OVC004 03/03 Q1003=
201211272020 METAR ESMX 272020Z 23003KT 8000 BR SCT002 BKN017 OVC037 04/03 Q1003=
201211271950 METAR ESMX 271950Z 27004KT 250V310 9999 BKN002 OVC003 04/03 Q1003=
201211271920 METAR ESMX 271920Z 27005KT 9000 BR SCT002 OVC004 04/04 Q1003=
201211271850 METAR ESMX 271850Z 25004KT 9000 BR BKN003 OVC004 04/04 Q1003=
201211271820 METAR ESMX 271820Z 25004KT 5000 BR BKN002 OVC003 04/04 Q1003=
201211271750 METAR ESMX 271750Z 27003KT 1800 BR OVC002 04/04 Q1003=
201211271720 METAR ESMX 271720Z 26004KT 1200 R01/P2000N R19/P2000N BR VV002 04/04 Q1003=
201211271650 METAR ESMX 271650Z 28004KT 0900 R01/1900N R19/P2000N FG VV002 04/04 Q1003=
201211271620 METAR ESMX 271620Z 25003KT 0800 R01/1900N R19/P2000N FG VV002 05/04 Q1003=
201211271550 METAR ESMX 271550Z 24001KT 0900 R01/P2000N R19/P2000N FG VV002 05/04 Q1003=
201211271520 METAR ESMX 271520Z 28001KT 1400 R01/P2000N R19/P2000N BR OVC002 05/04 Q1003=
201211271450 METAR ESMX 271450Z 36002KT 3300 BR SCT002 BKN003 05/04 Q1002=
201211271420 METAR ESMX 271420Z 34003KT 4100 BR SCT002 OVC004 05/04 Q1002=
201211271350 METAR ESMX 271350Z 34003KT 4700 BR SCT002 BKN004 05/04 Q1002=
201211271320 METAR ESMX 271320Z 35003KT 6000 BR BKN002 OVC004 05/04 Q1002=
201211271250 METAR ESMX 271250Z 35004KT 5000 BR OVC002 05/04 Q1002=
201211271220 METAR ESMX 271220Z 36003KT 3600 -DZ OVC002 04/04 Q1002=
201211271150 METAR ESMX 271150Z 36004KT 4000 DZ OVC002 04/04 Q1002=
201211271120 METAR ESMX 271120Z 36004KT 7000 -RA SCT003 BKN004 04/03 Q1002=
201211271050 METAR ESMX 271050Z 01004KT 9999 OVC004 04/03 Q1002=
201211271020 METAR ESMX 271020Z 03005KT 9999 FEW004 BKN005 04/03 Q1002=
201211270950 METAR ESMX 270950Z 03005KT 9999 FEW004 BKN006 04/03 Q1002=
201211270920 METAR ESMX 270920Z 03005KT 9999 FEW004 BKN007 03/03 Q1002=
201211270850 METAR ESMX 270850Z 04006KT 9999 FEW006 BKN012 03/02 Q1003=
201211270820 METAR ESMX 270820Z 04006KT 9999 SCT009 OVC011 03/02 Q1003=
201211270750 METAR ESMX 270750Z 07005KT 030V110 9999 OVC011 03/02 Q1003=
201211270720 METAR ESMX 270720Z 07005KT 9999 -DZ FEW007 BKN013 03/02 Q1003=
201211270650 METAR ESMX 270650Z 08005KT 030V120 9999 -RA FEW010 BKN020 03/02 Q1003=
201211270620 METAR ESMX 270620Z 10005KT 060V140 9999 -RA FEW008 OVC020 04/02 Q1003=
201211270550 METAR ESMX 270550Z 12006KT 080V160 9999 -RA SCT009 BKN016 OVC020 04/03 Q1003=
201211270520 METAR ESMX 270520Z 10005KT 060V140 9999 -RA FEW008 SCT010 BKN013 04/03 Q1003=
201211270450 METAR ESMX 270450Z 10004KT 060V160 9999 -RA SCT009 OVC014 04/03 Q1003=
201211270420 METAR ESMX 270420Z AUTO 10005KT 040V160 5000NDV -RA FEW012/// BKN015/// BKN019/// 04/03 Q1003=
201211270350 METAR ESMX 270350Z AUTO 09004KT 050V120 7000NDV -RA FEW018/// 05/03 Q1003=
201211270320 METAR ESMX 270320Z AUTO 10005KT 050V150 7000NDV -RA FEW007/// SCT013/// 05/04 Q1003=
201211270250 METAR ESMX 270250Z AUTO 10004KT 060V140 6000NDV -RA FEW009/// SCT023/// 06/05 Q1004=
201211270220 METAR ESMX 270220Z AUTO 13004KT 090V170 6000NDV -RA FEW006/// SCT007/// BKN011/// 06/05 Q1004=
201211270150 METAR ESMX 270150Z AUTO 13005KT 100V180 5000NDV -DZ FEW003/// SCT004/// OVC006/// 06/05 Q1004=
201211270120 METAR ESMX 270120Z 14006KT 110V170 4400 -DZ OVC003 06/05 Q1004=
201211270050 METAR ESMX 270050Z 14003KT 090V190 6000 BR SCT002 OVC004 06/05 Q1004=
201211270020 METAR ESMX 270020Z 14003KT 080V170 5000 BR OVC003 06/05 Q1005=
201211262350 METAR ESMX 262350Z 11004KT 080V170 5000 BR SCT003 OVC004 06/05 Q1005=
201211262320 METAR ESMX 262320Z 14005KT 3200 BR OVC002 06/05 Q1005=
201211262250 METAR ESMX 262250Z 16005KT 100V190 3000 BR OVC002 06/05 Q1005=
201211262220 METAR ESMX 262220Z 15004KT 110V180 4200 BR BKN002 OVC004 06/05 Q1005=
201211262150 METAR ESMX 262150Z 15005KT 5000 BR BKN003 OVC005 06/05 Q1005=
201211262120 METAR ESMX 262120Z 16005KT 120V190 5000 BR SCT002 OVC003 06/05 Q1005=
201211262050 METAR ESMX 262050Z 16005KT 6000 BR OVC004 06/05 Q1005=
201211262020 METAR ESMX 262020Z 17006KT 7000 BR BKN003 OVC005 06/05 Q1005=
201211261950 METAR ESMX 261950Z 17007KT 6000 BR BKN003 OVC005 06/05 Q1005=
201211261920 METAR ESMX 261920Z 15005KT 7000 BR BKN005 OVC009 06/05 Q1005=
201211261850 METAR ESMX 261850Z 16006KT 7000 BR FEW004 SCT012 BKN016 06/05 Q1005=
201211261820 METAR ESMX 261820Z 16006KT 5000 BR FEW005 SCT006 BKN008 06/05 Q1004 REDZ=
201211261750 METAR ESMX 261750Z 16006KT 120V190 7000 -RA FEW007 SCT021 BKN027 06/05 Q1005=
201211261720 METAR ESMX 261720Z 17007KT 140V210 9999 FEW005 SCT016 BKN024 06/05 Q1004=
201211261650 METAR ESMX 261650Z 15007KT 9999 DZ FEW020 SCT029 BKN032 06/05 Q1004=
201211261620 METAR ESMX 261620Z 18006KT 9999 FEW023 OVC027 06/05 Q1004=
201211261550 METAR ESMX 261550Z 18007KT 9999 OVC027 06/05 Q1004=
201211261520 METAR ESMX 261520Z 19006KT 9999 DZ FEW024 BKN031 06/05 Q1004=
201211261450 METAR ESMX 261450Z 19007KT 9999 FEW024 BKN034 06/05 Q1004=
201211261420 METAR ESMX 261420Z 18010KT 9999 FEW008 SCT013 BKN023 07/05 Q1004=
201211261350 METAR ESMX 261350Z 18008KT 150V210 9999 FEW008 SCT012 BKN028 07/06 Q1004=
201211261320 METAR ESMX 261320Z 19009KT 9000 -RA FEW007 SCT012 BKN017 07/06 Q1004=
201211261250 METAR ESMX 261250Z 17010KT 9999 FEW005 BKN012 07/06 Q1003=
201211261220 METAR ESMX 261220Z 18010KT 4100 BR FEW006 BKN009 07/06 Q1003=
201211261150 METAR ESMX 261150Z 17009KT 7000 BR FEW005 BKN009 07/06 Q1003=
201211261120 METAR ESMX 261120Z 16008KT 9000 -RA SCT006 BKN010 07/06 Q1003=
201211261050 METAR ESMX 261050Z 16009KT 9999 SCT008 BKN010 07/06 Q1003=
201211261020 METAR ESMX 261020Z 16009KT 9999 DZ SCT005 BKN008 07/06 Q1003=
201211260950 METAR ESMX 260950Z 17008KT 8000 DZ FEW006 BKN008 OVC011 07/06 Q1003=
201211260920 METAR ESMX 260920Z 16009KT 9999 -DZ FEW007 SCT008 OVC010 07/06 Q1003=
201211260850 METAR ESMX 260850Z 17009KT 9999 -RA FEW006 OVC009 07/06 Q1003=
201211260820 METAR ESMX 260820Z 15008KT 9999 FEW006 SCT009 OVC010 06/06 Q1003=
201211260750 METAR ESMX 260750Z 16007KT 9000 BR FEW007 BKN009 06/05 Q1003=
201211260720 METAR ESMX 260720Z 15006KT 9999 -DZ FEW006 OVC010 06/05 Q1003 RESHRA=
201211260650 METAR ESMX 260650Z 15006KT 9999 FEW002 OVC005 06/05 Q1003=
201211260620 METAR ESMX 260620Z 14007KT 9000 BR FEW002 BKN005 OVC007 06/05 Q1003=
201211260550 METAR ESMX 260550Z 14007KT 4800 -RA SCT003 BKN005 06/05 Q1003=
201211260520 METAR ESMX 260520Z 14006KT 2900 -RA FEW003 BKN006 06/05 Q1003=
201211260450 METAR ESMX 260450Z 13007KT 080V160 6000 -RA SCT005 BKN007 06/05 Q1003=
201211260420 METAR ESMX 260420Z AUTO 13005KT 100V160 9999NDV DZ FEW004/// BKN005/// OVC007/// 06/05 Q1003=
201211260350 METAR ESMX 260350Z AUTO 13005KT 090V160 8000NDV DZ FEW004/// BKN005/// OVC008/// 05/05 Q1003=
201211260320 METAR ESMX 260320Z AUTO 14006KT 8000NDV DZ SCT005/// BKN008/// OVC013/// 05/05 Q1003=
201211260250 METAR ESMX 260250Z AUTO 13005KT 100V160 6000NDV DZ FEW006/// SCT015/// BKN018/// 05/05 Q1003=
201211260220 METAR ESMX 260220Z AUTO 14005KT 110V170 7000NDV DZ FEW005/// SCT010/// BKN017/// 05/05 Q1004=
201211260150 METAR ESMX 260150Z AUTO 15004KT 110V190 4900NDV -RA FEW005/// SCT017/// BKN019/// 05/05 Q1004=
201211260120 METAR ESMX 260120Z AUTO 13004KT 100V160 6000NDV -RA FEW011/// SCT015/// OVC021/// 05/05 Q1004=
201211260050 METAR ESMX 260050Z AUTO 11003KT 4500NDV -RA FEW017/// OVC021/// 05/04 Q1004 REDZ=
201211260020 METAR ESMX 260020Z 15004KT 110V170 5000 DZ FEW003 SCT020 BKN025 05/05 Q1004=
201211252350 METAR ESMX 252350Z 15004KT 8000 DZ SCT002 BKN004 05/04 Q1004=
201211252320 METAR ESMX 252320Z 15003KT 110V170 8000 DZ OVC003 05/04 Q1004=
201211252250 METAR ESMX 252250Z 13004KT 100V160 9999 BKN002 OVC004 05/04 Q1004=
201211252220 METAR ESMX 252220Z VRB02KT 9999 BKN002 OVC004 05/04 Q1004=
201211252150 METAR ESMX 252150Z 14003KT 080V170 1800 -RA SCT003 BKN005 05/04 Q1004=
201211252120 METAR ESMX 252120Z 07004KT 030V110 9999 FEW002 OVC004 04/04 Q1004 REDZ=
201211252050 METAR ESMX 252050Z 11003KT 030V170 4100 DZ OVC005 04/03 Q1005=
201211252020 METAR ESMX 252020Z 06005KT 030V100 9999 -DZ FEW005 SCT006 BKN009 04/03 Q1004=
201211251950 METAR ESMX 251950Z 09005KT 050V150 7000 -RA FEW005 SCT007 BKN009 04/03 Q1005=
201211251920 METAR ESMX 251920Z 09005KT 060V140 9000 -RA OVC005 03/03 Q1005=
201211251850 METAR ESMX 251850Z 09005KT 050V140 6000 RA BKN007 03/02 Q1005=
201211251820 METAR ESMX 251820Z 10007KT 060V140 8000 RA BKN006 03/02 Q1006=
201211251750 METAR ESMX 251750Z 10009KT 060V130 8000 -RA FEW006 OVC007 02/02 Q1006=
201211251720 METAR ESMX 251720Z 11008KT 060V160 6000 -RA FEW006 BKN009 03/02 Q1006=
201211251650 METAR ESMX 251650Z 11008G19KT 040V160 5000 -RA FEW007 BKN010 03/02 Q1007=
201211251620 METAR ESMX 251620Z 11008KT 060V160 7000 RA SCT007 OVC009 03/02 Q1007=
201211251550 METAR ESMX 251550Z 10009KT 050V140 8000 RA FEW007 OVC009 03/02 Q1007=
201211251520 METAR ESMX 251520Z 11009KT 030V150 9999 -RA BKN007 OVC011 03/02 Q1008=
201211251450 METAR ESMX 251450Z 10009KT 050V150 6000 RA FEW008 OVC010 03/02 Q1009=
201211251420 METAR ESMX 251420Z 10007KT 030V140 9000 -RA OVC010 03/02 Q1009=
201211251350 METAR ESMX 251350Z 10009KT 070V150 8000 -RA FEW009 OVC012 04/02 Q1010=
201211251320 METAR ESMX 251320Z 10007KT 070V160 9999 OVC011 04/02 Q1011=
201211251250 METAR ESMX 251250Z 12008KT 070V160 9999 SCT009 BKN012 04/02 Q1011=
201211251220 METAR ESMX 251220Z 10009KT 050V150 9999 FEW009 SCT014 BKN025 04/02 Q1011=
201211251150 METAR ESMX 251150Z 10007KT 050V140 9999 FEW006 BKN011 04/02 Q1012=
201211251050 METAR ESMX 251050Z 10006KT 060V130 9999 FEW008 OVC027 04/02 Q1014=
201211251020 METAR ESMX 251020Z 11006KT 060V160 9999 OVC029 04/02 Q1015=
201211250950 METAR ESMX 250950Z 09006KT 9999 FEW004 BKN029 03/02 Q1015=
201211250920 METAR ESMX 250920Z AUTO 09005KT 020V140 9999NDV FEW003/// SCT005/// OVC028/// 03/02 Q1016=
201211250850 METAR ESMX 250850Z AUTO 11005KT 060V170 9999NDV SCT004/// OVC028/// 03/02 Q1016=
201211250820 METAR ESMX 250820Z AUTO 12004KT 070V180 9999NDV BKN027/// 03/02 Q1016=
201211250750 METAR ESMX 250750Z AUTO 11004KT 060V150 9999NDV OVC025/// 02/02 Q1016=
201211250720 METAR ESMX 250720Z AUTO 13003KT 080V170 9999NDV BKN027/// 02/02 Q1017=
201211250650 METAR ESMX 250650Z AUTO 15003KT 9000NDV FEW002/// BKN032/// 02/01 Q1017=
201211250620 METAR ESMX 250620Z AUTO 15004KT 100V180 2200NDV BR SCT001/// OVC033/// 02/01 Q1017=
201211250550 METAR ESMX 250550Z AUTO 12003KT 100V160 2400NDV BR OVC001/// 02/02 Q1017=
201211250520 METAR ESMX 250520Z AUTO 11003KT 070V150 2000NDV BKN001/// OVC032/// 02/02 Q1017=
201211250450 METAR ESMX 250450Z AUTO 10003KT 050V150 4000NDV BKN001/// OVC032/// 03/02 Q1017=
201211250420 METAR ESMX 250420Z AUTO 07004KT 1400NDV R01/P2000N R19/P2000N OVC001/// 03/02 Q1018=
201211250350 METAR ESMX 250350Z AUTO 09003KT 050V120 0750NDV R01/P2000N R19/P2000D VV001 03/02 Q1018=
201211250320 METAR ESMX 250320Z AUTO VRB01KT 0900NDV R01/P2000N R19/P2000N FG VV001 03/02 Q1019=
201211250250 METAR ESMX 250250Z AUTO VRB02KT 0550NDV R01/1800U R19/P2000D FG VV001 03/02 Q1019=
201211250220 METAR ESMX 250220Z AUTO 17003KT 0550NDV R01/1300VP2000D R19/P2000N FG OVC001/// 03/03 Q1019=
201211250150 METAR ESMX 250150Z AUTO 17002KT 1400NDV R01/P2000N R19/P2000N VV002 03/03 Q1020=
201211250120 METAR ESMX 250120Z AUTO 16003KT 140V200 1100NDV R01/P2000N R19/P2000N BR OVC001/// 03/03 Q1020=
201211250050 METAR ESMX 250050Z AUTO 19003KT 3300NDV OVC001/// 03/03 Q1019=
201211250020 METAR ESMX 250020Z AUTO VRB01KT 3700NDV OVC002/// 03/03 Q1020=
201211242350 METAR ESMX 242350Z AUTO 19002KT 0900NDV R01/P2000N R19/P2000N FG FEW001/// OVC002/// 03/02 Q1020=
201211242320 METAR ESMX 242320Z AUTO 18001KT 0750NDV R01/P2000N R19/P2000D BR OVC001/// 03/02 Q1020=
201211242250 METAR ESMX 242250Z AUTO 19003KT 4900NDV BR FEW007/// BKN009/// BKN010/// 03/03 Q1020=
201211242220 METAR ESMX 242220Z AUTO 22004KT 5000NDV BR FEW007/// OVC008/// 03/03 Q1020=
201211242150 METAR ESMX 242150Z AUTO 22004KT 2700NDV BR FEW001/// SCT008/// BKN009/// 03/03 Q1020=
201211242120 METAR ESMX 242120Z AUTO 20004KT 0750NDV R01/P2000N R19/P2000N FEW008/// SCT015/// BKN019/// 03/02 Q1020=
201211242050 METAR ESMX 242050Z AUTO 14003KT 1100NDV R01/P2000N R19/P2000N FEW011/// SCT023/// BKN027/// 03/02 Q1020=
201211242020 METAR ESMX 242020Z AUTO 08001KT 0300NDV R01/0900VP2000U R19/0900V1300U FG BKN001/// OVC017/// 02/02 Q1020=
201211241950 METAR ESMX 241950Z AUTO 25002KT 0200NDV R01/1000VP2000U R19/0800 FG VV002 01/01 Q1020=
201211241920 METAR ESMX 241920Z AUTO 00000KT 0200NDV R01/0800N R19/0800V1300U FG VV001 03/02 Q1020=
201211241850 METAR ESMX 241850Z AUTO 23003KT 0250NDV R01/P2000N R19/0800VP2000 BR VV002 01/01 Q1020=
201211241820 METAR ESMX 241820Z AUTO 22005KT 1500NDV BR FEW013/// SCT016/// 01/01 Q1019=
201211241750 METAR ESMX 241750Z AUTO 23005KT 7000NDV BR SCT015/// 01/01 Q1020=
201211241720 METAR ESMX 241720Z AUTO 24003KT 0450NDV R01/P2000N R19/1000VP2000N BR NCD 01/00 Q1019=
201211241650 METAR ESMX 241650Z AUTO 24005KT 0200NDV R01/P2000N R19/0550V1600U BR FEW018/// 02/01 Q1019=
201211241620 METAR ESMX 241620Z AUTO 22005KT 0400NDV R01/P2000N R19/1000V1800D BR NCD 02/01 Q1019=
201211241550 METAR ESMX 241550Z AUTO 23003KT 0250NDV R01/P2000N R19/0700V1500N BR NCD 02/01 Q1019=
201211241520 METAR ESMX 241520Z AUTO 24003KT 0750NDV R01/P2000N R19/P2000D FEW036/// 02/01 Q1019=
201211241450 METAR ESMX 241450Z AUTO 24003KT 9999NDV FEW013/// BKN034/// 04/03 Q1019=
201211241420 METAR ESMX 241420Z AUTO 23003KT 9999NDV BKN033/// 05/04 Q1019=
201211241350 METAR ESMX 241350Z AUTO 23003KT 9999NDV BKN031/// 05/04 Q1019=
201211241320 METAR ESMX 241320Z AUTO 24005KT 9999NDV FEW016/// OVC030/// 06/04 Q1019=
201211241250 METAR ESMX 241250Z AUTO 23004KT 190V270 9999NDV OVC024/// 06/04 Q1019=
201211241220 METAR ESMX 241220Z AUTO 22004KT 9999NDV OVC025/// 06/04 Q1018=
201211241150 METAR ESMX 241150Z AUTO 22003KT 9999NDV BKN026/// 06/04 Q1018=
201211241120 METAR ESMX 241120Z AUTO 25003KT 9999NDV OVC025/// 05/04 Q1018=
201211241050 METAR ESMX 241050Z AUTO 23004KT 9999NDV FEW007/// SCT010/// BKN016/// 05/04 Q1018=
201211240950 METAR ESMX 240950Z 25004KT 220V280 9999 FEW010 BKN014 OVC020 05/04 Q1018=
201211240920 METAR ESMX 240920Z 27005KT 9999 FEW005 BKN009 05/04 Q1018=
201211240850 METAR ESMX 240850Z 27005KT 9999 SCT006 BKN011 05/04 Q1017=
201211240820 METAR COR ESMX 240820Z 27005KT 230V300 9999 SCT007 BKN009 05/04 Q1017=
201211240750 METAR ESMX 240750Z AUTO 27006KT 9999NDV FEW002/// OVC006/// 05/04 Q1017=
201211240720 METAR ESMX 240720Z AUTO 27007KT 6000NDV BR OVC002/// 05/04 Q1017=
201211240650 METAR ESMX 240650Z AUTO 26006KT 4600NDV BR OVC001/// 05/04 Q1016=
201211240620 METAR ESMX 240620Z AUTO 23004KT 6000NDV BR OVC002/// 05/04 Q1016=
201211240550 METAR ESMX 240550Z AUTO 23005KT 5000NDV BR OVC001/// 05/04 Q1016=
201211240520 METAR ESMX 240520Z AUTO 24005KT 4200NDV DZ BKN002/// OVC005/// 05/04 Q1016=
201211240450 METAR ESMX 240450Z AUTO 23005KT 2600NDV -RA OVC003/// 05/04 Q1016 REDZ=
201211240420 METAR ESMX 240420Z AUTO 22004KT 6000NDV BR BKN005/// OVC009/// 05/04 Q1015=
201211240350 METAR ESMX 240350Z AUTO 23005KT 5000NDV BR FEW005/// BKN007/// OVC022/// 05/04 Q1015=
201211240320 METAR ESMX 240320Z AUTO 21005KT 5000NDV BR BKN003/// OVC008/// 05/04 Q1015=
201211240250 METAR ESMX 240250Z AUTO 20006KT 3900NDV BR FEW003/// BKN005/// OVC007/// 05/04 Q1015=
201211240220 METAR ESMX 240220Z AUTO 19006KT 4100NDV BR FEW004/// BKN005/// OVC011/// 05/04 Q1015=
201211240150 METAR ESMX 240150Z AUTO 19006KT 3400NDV -RA FEW004/// BKN005/// OVC009/// 05/04 Q1015 REDZ=
201211240120 METAR ESMX 240120Z AUTO 17007KT 3600NDV DZ FEW005/// SCT007/// BKN010/// 05/04 Q1015=
201211240050 METAR ESMX 240050Z AUTO 18006KT 2900NDV DZ FEW005/// SCT006/// BKN008/// 05/04 Q1015=
201211240020 METAR ESMX 240020Z AUTO 19007KT 3300NDV -RA BKN005/// OVC014/// 05/04 Q1015=
201211232350 METAR ESMX 232350Z AUTO 16008KT 3200NDV -RA OVC005/// 06/04 Q1015=
201211232320 METAR ESMX 232320Z AUTO 16007KT 4600NDV -RA OVC005/// 06/04 Q1015=
201211232250 METAR ESMX 232250Z AUTO 18009KT 5000NDV BR OVC006/// 06/04 Q1015=
201211232220 METAR ESMX 232220Z AUTO 18010KT 6000NDV BR OVC006/// 06/04 Q1015=
201211232150 METAR ESMX 232150Z AUTO 16010KT 7000NDV BR OVC006/// 06/04 Q1015=
201211232120 METAR ESMX 232120Z AUTO 17009KT 140V200 7000NDV BR OVC006/// 06/04 Q1015=
201211232050 METAR ESMX 232050Z AUTO 17008KT 130V190 9999NDV OVC008/// 06/04 Q1015=
201211232020 METAR ESMX 232020Z AUTO 16009KT 130V190 9999NDV BKN011/// OVC016/// 06/04 Q1015=
201211231950 METAR ESMX 231950Z 16008KT 120V190 9999 SCT011 BKN016 OVC019 06/04 Q1015=
201211231920 METAR ESMX 231920Z 16011KT 9999 BKN010 OVC016 06/04 Q1015=
201211231850 METAR ESMX 231850Z 17012KT 9999 BKN010 06/04 Q1015=
201211231820 METAR ESMX 231820Z 17011KT 9999 BKN010 06/04 Q1015=
201211231750 METAR ESMX 231750Z 17011KT 9999 BKN010 06/04 Q1015=
201211231720 METAR ESMX 231720Z 16012KT 9999 BKN010 06/04 Q1016=
201211231650 METAR ESMX 231650Z 17013KT 9999 BKN010 06/04 Q1016=
201211231620 METAR ESMX 231620Z 16010KT 130V190 9999 BKN010 06/04 Q1015=
201211231550 METAR ESMX 231550Z 16010KT 9999 BKN011 06/04 Q1016=
201211231450 METAR ESMX 231450Z 16010KT 9999 FEW009 SCT010 06/04 Q1017=
201211231420 METAR ESMX 231420Z 16008KT 120V190 9999 BR FEW011 06/04 Q1017=
201211231350 METAR ESMX 231350Z 17008KT 9999 FEW013 06/04 Q1017=
201211231320 METAR ESMX 231320Z 16008KT 9999 FEW015 06/04 Q1017=
201211231250 METAR ESMX 231250Z 16008KT 9999 FEW015 07/04 Q1017=
201211231220 METAR ESMX 231220Z 17010KT 9999 FEW012 07/04 Q1017=
201211231150 METAR ESMX 231150Z 17009KT 9999 FEW012 07/04 Q1018=
201211231120 METAR ESMX 231120Z 17010KT 9999 FEW012 SCT017 07/04 Q1018=
201211231050 METAR ESMX 231050Z 17009KT 9999 FEW009 07/04 Q1018=
201211231020 METAR ESMX 231020Z 17009KT 9999 BKN008 06/04 Q1018=
201211230950 METAR ESMX 230950Z 17008KT 130V190 9999 BKN007 06/04 Q1019=
201211230920 METAR ESMX 230920Z 17008KT 9999 BKN005 06/04 Q1019=
201211230850 METAR ESMX 230850Z 17008KT 140V200 9000 BR BKN004 05/04 Q1019=
201211230820 METAR ESMX 230820Z 17008KT 8000 BR BKN003 05/04 Q1019=
201211230750 METAR ESMX 230750Z 17008KT 120V190 6000 BR BKN002 OVC005 05/04 Q1019=
201211230720 METAR ESMX 230720Z 17008KT 4200 BR OVC002 05/04 Q1019=
201211230650 METAR ESMX 230650Z 17007KT 3600 BR OVC002 05/04 Q1019=
201211230620 METAR ESMX 230620Z 17007KT 3000 BR OVC002 05/04 Q1019=
201211230550 METAR ESMX 230550Z 17008KT 140V200 4000 BR OVC003 05/04 Q1018=
201211230520 METAR ESMX 230520Z 17007KT 3900 BR OVC003 05/05 Q1019=
201211230450 METAR ESMX 230450Z 17008KT 3000 BR OVC003 05/05 Q1019=
201211230420 METAR ESMX 230420Z AUTO 18008KT 4100NDV BR OVC003/// 05/05 Q1019=
201211230350 METAR ESMX 230350Z AUTO 18008KT 4200NDV BR OVC003/// 06/05 Q1019=
201211230320 METAR ESMX 230320Z AUTO 17008KT 4300NDV BR OVC004/// 06/05 Q1019=
201211230250 METAR ESMX 230250Z AUTO 17007KT 4800NDV BR BKN004/// 06/05 Q1019=
201211230220 METAR ESMX 230220Z AUTO 17007KT 5000NDV BR OVC005/// 06/05 Q1019=
201211230150 METAR ESMX 230150Z AUTO 18007KT 5000NDV BR FEW005/// BKN006/// OVC008/// 06/05 Q1019=
201211230120 METAR ESMX 230120Z 19008KT 6000 BR OVC006 06/06 Q1019=
201211230050 METAR ESMX 230050Z 20008KT 6000 BR OVC004 06/06 Q1019=
201211230020 METAR ESMX 230020Z 20008KT 4700 BR SCT002 OVC005 06/06 Q1019=
201211222350 METAR ESMX 222350Z 20007KT 3600 BR OVC002 06/06 Q1019=
201211222250 METAR ESMX 222250Z 21008KT 6000 BR OVC003 06/05 Q1019=
201211222220 METAR ESMX 222220Z 20008KT 8000 BR OVC003 06/05 Q1019=
201211222150 METAR ESMX 222150Z 19007KT 9999 BKN005 OVC007 06/05 Q1019=
201211222120 METAR ESMX 222120Z 19007KT 9999 FEW006 SCT008 BKN011 06/05 Q1019=
201211222050 METAR ESMX 222050Z 20007KT 9999 FEW007 BKN008 OVC033 06/05 Q1018=
201211222020 METAR ESMX 222020Z 20007KT 9999 OVC025 06/05 Q1018=
201211221950 METAR ESMX 221950Z 20007KT 9999 OVC025 06/05 Q1018=
201211221920 METAR ESMX 221920Z 20007KT 9999 BKN026 06/05 Q1018=
201211221850 METAR ESMX 221850Z 22007KT 9999 BKN027 06/05 Q1017=
201211221820 METAR ESMX 221820Z 20007KT 9999 BKN029 05/05 Q1017=
201211221750 METAR ESMX 221750Z 23006KT 9999 SCT031 06/04 Q1017=
201211221720 METAR ESMX 221720Z 23007KT 9999 FEW009 BKN030 07/06 Q1017=
201211221650 METAR ESMX 221650Z 23007KT 9999 FEW007 BKN016 07/06 Q1017=
201211221620 METAR ESMX 221620Z 24007KT 8000 BR FEW005 BKN009 07/06 Q1016=
201211221550 METAR ESMX 221550Z 23007KT 6000 BR BKN006 07/06 Q1016=
201211221520 METAR ESMX 221520Z 20008KT 2800 DZ FEW002 OVC004 07/06 Q1016=
201211221450 METAR ESMX 221450Z 19008KT 2500 BR OVC002 07/06 Q1015=
201211221420 METAR ESMX 221420Z 18006KT 3000 BR OVC002 07/06 Q1015=
201211221350 METAR ESMX 221350Z 18007KT 1500 BR OVC002 06/06 Q1015=
201211221320 METAR ESMX 221320Z 18008KT 2000 BR OVC002 06/06 Q1015=
201211221250 METAR ESMX 221250Z 18009KT 2500 DZ BR OVC002 06/05 Q1014=
201211221220 METAR ESMX 221220Z 18009KT 3500 DZ BKN002 OVC004 06/05 Q1014=
201211221150 METAR ESMX 221150Z 16008KT 3300 BR BKN002 OVC003 06/05 Q1014=
201211221120 METAR ESMX 221120Z 16008KT 2500 BR BKN002 OVC003 06/05 Q1015=
201211221050 METAR ESMX 221050Z 17009KT 120V200 2000 BR FEW001 OVC003 06/05 Q1015=
201211221020 METAR ESMX 221020Z 17009KT 3000 BR OVC002 06/05 Q1015=
201211220950 METAR ESMX 220950Z 17010KT 2900 BR BKN002 OVC004 06/05 Q1015=
201211220920 METAR ESMX 220920Z 16010KT 2200 BR FEW002 OVC004 06/05 Q1015=
201211220850 METAR ESMX 220850Z 18009KT 6000 BR BKN004 OVC006 06/05 Q1015=
201211220820 METAR ESMX 220820Z 17010KT 8000 BR FEW004 BKN006 OVC008 06/05 Q1015=
201211220750 METAR ESMX 220750Z 17009KT 4900 BR BKN003 OVC005 06/05 Q1015=
201211220720 METAR ESMX 220720Z 17009KT 140V200 3400 BR FEW003 OVC005 06/05 Q1015=
201211220650 METAR ESMX 220650Z 17009KT 4100 BR OVC003 06/05 Q1015=
201211220620 METAR ESMX 220620Z 15008KT 120V180 3400 -DZ OVC003 06/05 Q1015=
201211220550 METAR ESMX 220550Z 16009KT 120V190 2900 -DZ FEW001 OVC004 06/05 Q1015=
201211220520 METAR ESMX 220520Z 16008KT 120V190 2700 DZ OVC002 06/05 Q1015=
201211220450 METAR COR ESMX 220450Z 16007KT 2000 BR OVC002 06/05 Q1015=
201211220420 METAR ESMX 220420Z AUTO 15007KT 120V180 2100NDV BR OVC001/// 06/05 Q1015=
201211220350 METAR ESMX 220350Z AUTO 16006KT 2200NDV BR OVC002/// 06/05 Q1015=
201211220320 METAR ESMX 220320Z AUTO 14007KT 2600NDV BR OVC002/// 06/05 Q1015=
201211220250 METAR ESMX 220250Z AUTO 15008KT 2000NDV BR BKN002/// OVC004/// 06/05 Q1015=
201211220220 METAR ESMX 220220Z AUTO 15007KT 120V200 2000NDV BR OVC002/// 06/05 Q1016=
201211220150 METAR ESMX 220150Z AUTO 15007KT 1600NDV BR OVC001/// 06/05 Q1016=
201211220120 METAR ESMX 220120Z AUTO 16008KT 120V190 1500NDV OVC001/// 06/05 Q1016=
201211220050 METAR ESMX 220050Z 15008KT 1200 R01/P2000N R19/P2000N BR OVC002 06/05 Q1016=
201211220020 METAR ESMX 220020Z 15008KT 0600 R01/1900N R19/P2000N FG VV002 06/05 Q1016=
201211212350 METAR ESMX 212350Z 16009KT 120V200 0550 R01/1700U R19/P2000N FG VV002 06/05 Q1017=
201211212320 METAR ESMX 212320Z 16009KT 140V200 0350 R01/1100N R19/1700N FG VV002 06/05 Q1017=
201211212250 METAR ESMX 212250Z 16010KT 110V190 0700 R01/P2000D R19/P2000N FG OVC002 06/05 Q1017=
201211212220 METAR ESMX 212220Z 15008KT 120V200 0800 R01/P2000N R19/P2000N FG VV002 06/05 Q1017=
201211212150 METAR ESMX 212150Z 15009KT 110V180 1200 R01/P2000N R19/P2000N OVC002 06/05 Q1017=
201211212120 METAR ESMX 212120Z 14009KT 110V180 0900 R01/P2000N R19/P2000N FG OVC002 06/05 Q1017=
201211212050 METAR ESMX 212050Z 14009KT 110V170 0800 R01/P2000N R19/P2000N FG VV002 06/05 Q1017=
201211212020 METAR ESMX 212020Z 15008KT 090V170 0800 R01/P2000N R19/P2000N FG VV002 06/05 Q1017=
201211211950 METAR ESMX 211950Z 15007KT 110V180 1000 R01/P2000N R19/P2000N BR OVC002 05/05 Q1017=
201211211920 METAR ESMX 211920Z 14006KT 110V170 1200 R01/P2000N R19/P2000N BR OVC002 05/05 Q1018=
201211211850 METAR ESMX 211850Z 14007KT 090V180 1300 R01/P2000N R19/P2000N BR OVC002 05/05 Q1018=
201211211820 METAR ESMX 211820Z 14007KT 100V170 1400 R01/P2000N R19/P2000N BR OVC002 05/04 Q1018=
201211211750 METAR ESMX 211750Z 14007KT 100V190 1300 R01/P2000N R19/P2000N BR OVC002 05/04 Q1018=
201211211720 METAR ESMX 211720Z 13006KT 070V160 1100 R01/P2000N R19/P2000N BR OVC002 05/05 Q1018=
201211211650 METAR ESMX 211650Z 13007KT 080V160 1700 BR OVC002 05/05 Q1018=
201211211620 METAR ESMX 211620Z 14009KT 090V180 3400 BR OVC002 05/05 Q1018=
201211211550 METAR ESMX 211550Z 15006KT 110V190 2200 BR OVC002 06/05 Q1018=
201211211520 METAR ESMX 211520Z 14005KT 100V170 1600 BR OVC002 06/05 Q1018=
201211211450 METAR ESMX 211450Z 13007KT 090V170 2600 BR OVC002 06/05 Q1018=
201211211420 METAR ESMX 211420Z 14007KT 100V190 2800 BR OVC002 06/05 Q1019=
201211211350 METAR ESMX 211350Z 13007KT 090V160 1700 BR OVC002 06/06 Q1019=
201211211320 METAR ESMX 211320Z 13006KT 080V160 0650 R01/1100V1800D R19/1800U FG OVC002 06/06 Q1019=
201211211250 METAR ESMX 211250Z 14006KT 100V170 0800 R01/1100V1900U R19/1400VP2000U FG OVC002 06/06 Q1020=
201211211220 METAR ESMX 211220Z 15005KT 110V190 0400 R01/0900 R19/1200U FG VV002 06/05 Q1020=
201211211150 METAR ESMX 211150Z 15005KT 100V190 0700 R01/1200 R19/1400U FG VV002 06/05 Q1020=
201211211120 METAR ESMX 211120Z 15006KT 110V190 0350 R01/0700N R19/0900N FG VV002 06/05 Q1020=
201211211050 METAR ESMX 211050Z 16008KT 0800 R01/0900 R19/0900V1300U FG VV002 06/05 Q1020=
201211211020 METAR ESMX 211020Z 15005KT 120V180 0300 R01/0650N R19/0800N FG VV002 06/05 Q1020=
201211210950 METAR ESMX 210950Z 15006KT 100V190 0450 R01/0900D R19/1100N FG VV002 06/05 Q1021=
201211210920 METAR ESMX 210920Z 15007KT 0650 R01/1200D R19/1700U FG VV002 06/05 Q1021=
201211210850 METAR ESMX 210850Z 15005KT 110V190 0550 R01/0900V1700D R19/1200N FG VV002 05/05 Q1021=
201211210820 METAR ESMX 210820Z 15006KT 110V190 1100 R01/1900N R19/1800N VV002 05/05 Q1021=
201211210750 METAR ESMX 210750Z 15005KT 120V190 0800 R01/1400N R19/1300VP2000D FG VV002 05/05 Q1021=
201211210720 METAR ESMX 210720Z 16008KT 120V190 1400 R01/P2000D R19/P2000N BR OVC002 05/04 Q1021=
201211210650 METAR ESMX 210650Z 16008KT 3500 BR OVC004 06/05 Q1021=
201211210620 METAR ESMX 210620Z 16007KT 120V190 3500 BR OVC004 06/05 Q1021=
201211210550 METAR ESMX 210550Z 16006KT 120V180 3200 BR OVC003 06/05 Q1021=
201211210520 METAR ESMX 210520Z 16005KT 120V190 2800 BR OVC003 06/05 Q1021=
201211210450 METAR ESMX 210450Z 16006KT 130V200 2400 BR OVC002 06/05 Q1021=
201211210420 METAR ESMX 210420Z AUTO 17005KT 2400NDV BR OVC003/// 06/05 Q1021=
201211210350 METAR ESMX 210350Z AUTO 17006KT 130V190 1900NDV BR OVC002/// 06/05 Q1021=
201211210320 METAR ESMX 210320Z AUTO 17007KT 1700NDV BR OVC002/// 06/05 Q1020=
201211210250 METAR ESMX 210250Z AUTO 17007KT 1900NDV BR OVC002/// 06/05 Q1020=
201211210220 METAR ESMX 210220Z AUTO 15006KT 1800NDV OVC001/// 06/05 Q1020=
201211210150 METAR ESMX 210150Z AUTO 17007KT 1400NDV R01/P2000N R19/P2000N OVC001/// 06/05 Q1020=
201211210120 METAR ESMX 210120Z AUTO 17006KT 0650NDV R01/1900D R19/P2000N FG VV002 05/05 Q1020=
201211210050 METAR ESMX 210050Z 17006KT 130V210 0650 R01/P2000D R19/P2000N FG OVC002 05/05 Q1021=
201211210020 METAR ESMX 210020Z 17007KT 2900 BR OVC002 05/04 Q1021=
201211202350 METAR ESMX 202350Z 17007KT 3600 OVC002 05/04 Q1021=
201211202320 METAR ESMX 202320Z 17009G26KT 130V200 2700 OVC002 05/05 Q1021=
201211202250 METAR ESMX 202250Z 17008KT 140V200 0900 R01/P2000N R19/P2000N FG VV002 05/05 Q1021=
201211202220 METAR ESMX 202220Z 16007KT 0550 R01/1700N R19/P2000N FG VV002 05/05 Q1021=
201211202150 METAR ESMX 202150Z 18008KT 0650 R01/P2000N R19/P2000N FG VV002 05/05 Q1021=
201211202120 METAR ESMX 202120Z 16006KT 140V200 0550 R01/1700U R19/1900U FG VV002 06/05 Q1020=
201211202050 METAR ESMX 202050Z 17008KT 0500 R01/1500U R19/1600U FG VV002 06/05 Q1020=
201211202020 METAR ESMX 202020Z 17007KT 0500 R01/1500U R19/1800U FG VV002 06/05 Q1020=
201211201950 METAR ESMX 201950Z 17007KT 0550 R01/1800D R19/P2000N FG VV002 06/05 Q1020=
201211201920 METAR ESMX 201920Z 16006KT 140V200 0600 R01/1800N R19/P2000N FG VV002 06/05 Q1020=
201211201850 METAR ESMX 201850Z 16006KT 0700 R01/P2000D R19/P2000N FG VV002 06/05 Q1020=
201211201820 METAR ESMX 201820Z 17006KT 1200 R01/P2000N R19/P2000N OVC002 06/06 Q1020=
201211201750 METAR ESMX 201750Z 17006KT 0700 R01/1700N R19/P2000N FG VV002 06/06 Q1020=
201211201720 METAR ESMX 201720Z 16007KT 0800 R01/P2000N R19/P2000N FG VV002 06/06 Q1020=
201211201650 METAR ESMX 201650Z 16008KT 600 R01/1700U R19/P2000N FG VV002 06/06 Q1019=
201211201620 METAR ESMX 201620Z 17007KT 0600 R01/1700N R19/1900U FG VV002 06/06 Q1019=
201211201550 METAR ESMX 201550Z 18008KT 0550 R01/1700N R19/P2000D FG VV002 06/06 Q1019=
201211201520 METAR ESMX 201520Z 18008KT 0700 R01/P2000D R19/P2000N FG VV002 06/06 Q1019=
201211201450 METAR ESMX 201450Z 18007KT 0700 R01/1600N R19/P1900N FG VV002 06/05 Q1019=
201211201420 METAR ESMX 201420Z 16005KT 120V190 3100 BR OVC003 06/05 Q1019=
201211201350 METAR ESMX 201350Z 18007KT 140V200 8000 BR OVC005 06/05 Q1019=
201211201320 METAR ESMX 201320Z 19010KT 9000 BR OVC005 07/05 Q1019=
201211201250 METAR ESMX 201250Z 20009KT 9999 OVC006 07/05 Q1019=
201211201220 METAR ESMX 201220Z 18009KT 9999 OVC006 07/05 Q1019=
201211201150 METAR ESMX 201150Z 18008KT 9999 OVC006 07/05 Q1019=
201211201120 METAR ESMX 201120Z 19009KT 9999 OVC006 07/05 Q1019=
201211201050 METAR ESMX 201050Z 19009KT 9999 OVC006 07/05 Q1019=
201211201020 METAR ESMX 201020Z 18008KT 140V200 9999 OVC005 06/05 Q1019=
201211200950 METAR ESMX 200950Z 17010KT 8000 BR OVC004 06/05 Q1019=
201211200920 METAR ESMX 200920Z 17009KT 9000 BR OVC004 06/05 Q1018=
201211200850 METAR ESMX 200850Z 18011KT 9000 BR OVC004 06/05 Q1019=
201211200820 METAR ESMX 200820Z 18010KT 9999 OVC005 06/05 Q1019=
201211200750 METAR ESMX 200750Z 19010KT 9999 OVC005 06/04 Q1018=
201211200720 METAR ESMX 200720Z 19009KT 9999 OVC005 06/04 Q1018=
201211200650 METAR ESMX 200650Z 18009KT 9999 OVC006 05/04 Q1018=
201211200620 METAR ESMX 200620Z 18009KT 9999 SCT006 OVC008 05/04 Q1018=
201211200550 METAR ESMX 200550Z 20008KT 9999 SCT008 BKN027 05/04 Q1018=
201211200520 METAR COR ESMX 200520Z 18007KT 9999 BKN008 05/04 Q1017=
201211200450 METAR ESMX 200450Z 18008KT 9999 FEW010 OVC027 05/04 Q1017=
201211200420 METAR ESMX 200420Z AUTO 17007KT 9999NDV FEW008/// OVC026/// 05/04 Q1017=
201211200350 METAR ESMX 200350Z AUTO 17007KT 9999NDV FEW006/// SCT013/// BKN020/// 05/04 Q1018=
201211200320 METAR ESMX 200320Z AUTO 19008KT 9999NDV FEW006/// SCT010/// BKN016/// 05/04 Q1018=
201211200250 METAR ESMX 200250Z AUTO 19008KT 9999NDV FEW005/// BKN007/// OVC011/// 05/04 Q1018=
201211200220 METAR ESMX 200220Z AUTO 19010KT 6000NDV BR FEW003/// OVC004/// 05/04 Q1018=
201211200150 METAR ESMX 200150Z AUTO 18011KT 3600NDV BR BKN002/// OVC005/// 04/04 Q1018=
201211200120 METAR ESMX 200120Z 17009KT 3500 BR OVC002 04/03 Q1018=
201211200050 METAR ESMX 200050Z 18009KT 8000 BR OVC002 04/03 Q1018=
201211200020 METAR ESMX 200020Z 17009KT 9999 BKN004 OVC007 04/03 Q1018=
201211192350 METAR ESMX 192350Z 17010KT 9999 OVC008 04/02 Q1018=
201211192320 METAR ESMX 192320Z 17013KT 9999 OVC009 04/02 Q1018=
201211192250 METAR ESMX 192250Z 18011KT 9999 BKN010 04/02 Q1019=
201211192220 METAR ESMX 192220Z 18009KT 140V200 9999 BKN010 04/02 Q1018=
201211192150 METAR ESMX 192150Z 17012KT 9999 FEW009 BKN010 04/02 Q1018=
201211192120 METAR ESMX 192120Z 18009KT 9999 FEW006 BKN008 03/02 Q1018=
201211192050 METAR ESMX 192050Z 17008KT 9999 OVC005 03/02 Q1019=
201211192020 METAR ESMX 192020Z 18008KT 9999 OVC004 03/02 Q1019=
201211191950 METAR ESMX 191950Z 16007KT 9999 OVC003 03/02 Q1019=
201211191920 METAR ESMX 191920Z 17009KT 9999 BKN003 03/02 Q1019=
201211191850 METAR ESMX 191850Z 17007KT 8000 BR BKN003 03/02 Q1019=
201211191820 METAR ESMX 191820Z 17007KT 8000 BR OVC002 03/02 Q1019=
201211191750 METAR ESMX 191750Z 17008KT 6000 BR OVC002 03/02 Q1019=
201211191720 METAR ESMX 191720Z 16007KT 3600 BR OVC002 02/02 Q1019=
201211191650 METAR ESMX 191650Z 16007KT 4000 BR SCT002 02/02 Q1019=
201211191620 METAR ESMX 191620Z 16006KT 9999 NSC 03/02 Q1019=
201211191550 METAR ESMX 191550Z 15006KT CAVOK 03/02 Q1019=
201211191520 METAR ESMX 191520Z 17005KT CAVOK 03/02 Q1019=
201211191450 METAR ESMX 191450Z 16005KT CAVOK 04/02 Q1019=
201211191420 METAR ESMX 191420Z 16005KT CAVOK 04/02 Q1019=
201211191350 METAR ESMX 191350Z 17005KT CAVOK 05/02 Q1019=
201211191320 METAR ESMX 191320Z 19005KT 9999 FEW007 05/02 Q1019=
201211191250 METAR ESMX 191250Z 19005KT 9999 FEW007 04/02 Q1019=
201211191220 METAR ESMX 191220Z 20006KT 9999 SCT005 03/02 Q1019=
201211191150 METAR ESMX 191150Z 19006KT 9999 OVC005 03/03 Q1019=
201211191120 METAR ESMX 191120Z 21007KT 9999 OVC003 03/02 Q1019=
201211191050 METAR ESMX 191050Z 19008KT 5000 BR OVC003 03/02 Q1019=
201211191020 METAR ESMX 191020Z 22007KT 6000 BR OVC002 03/03 Q1019=
201211190950 METAR ESMX 190950Z 23006KT 4000 BR OVC002 03/02 Q1019=
201211190920 METAR ESMX 190920Z 22007KT 2400 R01/1100V1700N R19/P2000N BR OVC002 03/02 Q1019=
201211190850 METAR ESMX 190850Z 21008KT 4000 BR OVC002 03/02 Q1018=
201211190820 METAR ESMX 190820Z 23006KT 1400 R01/1100N R19/1200 OVC002 03/02 Q1018=
201211190750 METAR ESMX 190750Z 22007KT 4000 1000S BR OVC002 03/02 Q1018=
201211190720 METAR ESMX 190720Z 22007KT 6000 2000S BR OVC002 03/02 Q1018=
201211190650 METAR ESMX 190650Z 20006KT 6000 BR OVC003 03/03 Q1017=
201211190620 METAR ESMX 190620Z 22005KT 8000 BR OVC003 03/03 Q1017=
201211190550 METAR ESMX 190550Z 22005KT 9000 BR OVC001 03/02 Q1017=
201211190520 METAR ESMX 190520Z 22006KT 9999 BKN002 03/02 Q1017=
201211190450 METAR ESMX 190450Z 22005KT 170V240 9999 OVC003 02/02 Q1016=
201211190420 METAR ESMX 190420Z AUTO 22007KT 9999NDV OVC002/// 03/02 Q1016=
201211190350 METAR ESMX 190350Z AUTO 23006KT 9999NDV BKN003/// OVC005/// 03/02 Q1016=
201211190320 METAR ESMX 190320Z AUTO 26009KT 9999NDV OVC003/// 03/02 Q1016=
201211190250 METAR ESMX 190250Z AUTO 24006KT 9999NDV OVC003/// 03/03 Q1015=
201211190220 METAR ESMX 190220Z AUTO 25006KT 9999NDV OVC002/// 03/03 Q1015=
201211190150 METAR ESMX 190150Z AUTO 24009KT 9999NDV BKN002/// OVC005/// 03/03 Q1015=
201211190120 METAR ESMX 190120Z AUTO 25006KT 9999NDV BKN003/// OVC006/// 04/03 Q1015=
201211190050 METAR ESMX 190050Z 23005KT 9999 FEW003 OVC004 04/03 Q1014=
201211190020 METAR ESMX 190020Z 25005KT 200V290 9999 OVC003 04/03 Q1014=
201211182350 METAR ESMX 182350Z 23006KT 200V270 9999 BKN005 04/03 Q1014=
201211182320 METAR ESMX 182320Z 23006KT 9999 OVC005 04/03 Q1013=
201211182250 METAR ESMX 182250Z 24005KT 200V260 9999 BKN006 04/03 Q1013=
201211182220 METAR ESMX 182220Z 25005KT 9999 FEW006 BKN009 04/03 Q1013=
201211182150 METAR ESMX 182150Z 26006KT 9999 FEW007 BKN009 05/04 Q1013=
201211182120 METAR ESMX 182120Z 26007KT 230V300 9999 BKN005 OVC009 05/04 Q1012=
201211182050 METAR ESMX 182050Z 25006KT 200V280 9999 BKN005 BKN011 05/04 Q1012=
201211182020 METAR ESMX 182020Z 27007KT 9999 FEW004 BKN006 05/04 Q1012=
201211181950 METAR ESMX 181950Z 24006KT 210V270 5000 BR SCT002 BKN004 05/04 Q1011=
201211181920 METAR ESMX 181920Z 24005KT 2000 BR OVC001 04/04 Q1011=
201211181850 METAR ESMX 181850Z 24005KT 2600 BR OVC001 04/04 Q1011=
201211181820 METAR ESMX 181820Z 27005KT 4000 BR OVC002 04/04 Q1011=
201211181750 METAR ESMX 181750Z 26005KT 2500 BR OVC001 04/04 Q1010=
201211181720 METAR ESMX 181720Z 23005KT 1900 BR OVC001 04/04 Q1010=
201211181650 METAR ESMX 181650Z 23004KT 0750 R01/P2000N R19/P2000N FG VV002 04/03 Q1009=
201211181620 METAR ESMX 181620Z 24004KT 0600 R01/1800D R19/P2000N FG VV002 04/03 Q1009=
201211181550 METAR ESMX 181550Z 23003KT 190V270 0650 R01/1900N R19/P2000N FG VV002 04/03 Q1009=
201211181520 METAR ESMX 181520Z 21003KT 0450 R01/1400U R19/1700U FG VV002 03/03 Q1009=
201211181450 METAR ESMX 181450Z 21003KT 0500 R01/1300N R19/1400N FG VV002 03/03 Q1008=
201211181420 METAR ESMX 181420Z 22005KT 0700 R01/1400N R19/1800D FG VV002 03/03 Q1008=
201211181350 METAR ESMX 181350Z 22005KT 1800 BR OVC002 03/02 Q1008=
201211181320 METAR ESMX 181320Z 21005KT 2500 BR OVC002 03/02 Q1008=
201211181250 METAR ESMX 181250Z 21005KT 2400 BR OVC003 03/02 Q1008=
201211181220 METAR ESMX 181220Z 21006KT 2600 BR OVC003 03/02 Q1007=
201211181150 METAR ESMX 181150Z 19005KT 1800 BR FEW003 OVC004 03/02 Q1007=
201211181120 METAR ESMX 181120Z 21006KT 2000 BR OVC005 03/01 Q1007=
201211181050 METAR ESMX 181050Z 19007KT 4300 BR OVC007 03/01 Q1007=
201211181020 METAR ESMX 181020Z 20006KT 180V240 6000 BR OVC008 03/01 Q1007=
201211180950 METAR ESMX 180950Z 21007KT 6000 BR OVC008 03/01 Q1007=
201211180920 METAR ESMX 180920Z AUTO 20007KT 7000NDV BR OVC009/// 03/01 Q1007=
201211180850 METAR ESMX 180850Z AUTO 20009KT 7000NDV BR OVC009/// 03/01 Q1007=
201211180820 METAR ESMX 180820Z AUTO 19008KT 7000NDV BR OVC009/// 03/01 Q1007=
201211180750 METAR ESMX 180750Z AUTO 20008KT 7000NDV BR OVC010/// 03/01 Q1007=
201211180720 METAR ESMX 180720Z AUTO 20009KT 7000NDV BR OVC009/// 03/01 Q1007=
201211180650 METAR ESMX 180650Z AUTO 18009KT 7000NDV BR OVC009/// 04/01 Q1007=
201211180620 METAR ESMX 180620Z AUTO 17010KT 7000NDV BR OVC009/// 04/02 Q1007=
201211180550 METAR ESMX 180550Z AUTO 18008KT 6000NDV BR OVC009/// 04/02 Q1007=
201211180520 METAR ESMX 180520Z AUTO 18009KT 6000NDV BR OVC009/// 04/02 Q1006=
201211180450 METAR ESMX 180450Z AUTO 18009KT 6000NDV BR OVC009/// 04/02 Q1006=
201211180420 METAR ESMX 180420Z AUTO 17010KT 7000NDV BR OVC009/// 04/02 Q1006=
201211180350 METAR ESMX 180350Z AUTO 17009KT 6000NDV BR OVC009/// 04/02 Q1006=
201211180320 METAR ESMX 180320Z AUTO 17011KT 7000NDV BR OVC010/// 04/02 Q1007=
201211180250 METAR ESMX 180250Z AUTO 19010KT 7000NDV BR OVC010/// 04/02 Q1007=
201211180220 METAR ESMX 180220Z AUTO 18010KT 8000NDV BR OVC011/// 05/02 Q1007=
201211180150 METAR ESMX 180150Z AUTO 17010KT 8000NDV BR OVC011/// 05/03 Q1007=
201211180120 METAR ESMX 180120Z AUTO 17009KT 8000NDV BR OVC012/// 05/03 Q1008=
201211180050 METAR ESMX 180050Z AUTO 16009KT 8000NDV BR OVC011/// 05/03 Q1008=
201211180020 METAR ESMX 180020Z AUTO 17008KT 8000NDV BR OVC011/// 05/03 Q1008=
201211172350 METAR ESMX 172350Z AUTO 17009KT 8000NDV BR OVC012/// 05/03 Q1008=
201211172320 METAR ESMX 172320Z AUTO 17009KT 140V200 8000NDV BR OVC011/// 05/03 Q1008=
201211172250 METAR ESMX 172250Z AUTO 17009KT 140V200 8000NDV BR OVC011/// 05/02 Q1009=
201211172220 METAR ESMX 172220Z AUTO 17009KT 8000NDV BR OVC011/// 05/02 Q1009=
201211172150 METAR ESMX 172150Z AUTO 16010KT 130V190 8000NDV BR OVC010/// 04/02 Q1009=
201211172120 METAR ESMX 172120Z AUTO 17009KT 8000NDV BR OVC010/// 04/02 Q1009=
201211172050 METAR ESMX 172050Z AUTO 17010KT 140V200 8000NDV BR OVC009/// 04/02 Q1010=
201211172020 METAR ESMX 172020Z AUTO 17009KT 7000NDV BR OVC009/// 04/02 Q1010=
201211171950 METAR ESMX 171950Z AUTO 16008KT 120V190 7000NDV BR OVC009/// 04/02 Q1010=
201211171920 METAR ESMX 171920Z AUTO 17009KT 7000NDV BR OVC009/// 04/01 Q1010=
201211171850 METAR ESMX 171850Z AUTO 17009KT 7000NDV BR OVC010/// 04/01 Q1010=
201211171820 METAR ESMX 171820Z AUTO 16010KT 7000NDV BR OVC010/// 04/01 Q1010=
201211171750 METAR ESMX 171750Z AUTO 17010KT 8000NDV BR OVC010/// 04/01 Q1011=
201211171720 METAR ESMX 171720Z AUTO 16009KT 120V190 7000NDV BR OVC010/// 04/01 Q1011=
201211171650 METAR ESMX 171650Z AUTO 16010KT 130V200 7000NDV BR OVC010/// 04/01 Q1011=
201211171620 METAR ESMX 171620Z AUTO 15009KT 120V200 8000NDV BR OVC011/// 04/01 Q1011=
201211171550 METAR ESMX 171550Z AUTO 16010KT 8000NDV BR OVC011/// 04/01 Q1012=
201211171520 METAR ESMX 171520Z AUTO 16007KT 130V200 8000NDV BR OVC012/// 04/01 Q1012=
201211171450 METAR ESMX 171450Z AUTO 16009KT 8000NDV BR OVC012/// 04/01 Q1012=
201211171420 METAR ESMX 171420Z AUTO 16008KT 9000NDV BR OVC012/// 04/01 Q1012=
201211171350 METAR ESMX 171350Z AUTO 16008KT 130V190 9000NDV BR OVC013/// 04/01 Q1012=
201211171320 METAR ESMX 171320Z AUTO 16007KT 9000NDV BR OVC013/// 04/01 Q1012=
201211171250 METAR ESMX 171250Z AUTO 15010KT 120V180 9000NDV BR OVC013/// 04/01 Q1012=
201211171220 METAR ESMX 171220Z AUTO 17008KT 9000NDV BR OVC014/// 04/01 Q1013=
201211171150 METAR ESMX 171150Z AUTO 15008KT 120V180 9000NDV BR OVC013/// 04/01 Q1013=
201211171120 METAR ESMX 171120Z AUTO 17009KT 9999NDV OVC013/// 04/01 Q1013=
201211171050 METAR ESMX 171050Z 17009KT 9999 OVC013 04/00 Q1014=
201211171020 METAR ESMX 171020Z 17009KT 140V210 9999 OVC014 04/01 Q1014=
201211170950 METAR ESMX 170950Z 18006KT 9999 OVC013 04/01 Q1014=
201211170920 METAR ESMX 170920Z 17007KT 130V200 9999 OVC013 04/01 Q1014=
201211170850 METAR ESMX 170850Z AUTO 18006KT 150V210 9999NDV OVC014/// 04/01 Q1014=
201211170820 METAR ESMX 170820Z AUTO 18007KT 9999NDV OVC012/// 03/01 Q1015=
201211170750 METAR ESMX 170750Z AUTO 17007KT 9999NDV OVC012/// 03/01 Q1015=
201211170720 METAR ESMX 170720Z AUTO 16006KT 9000NDV BR OVC013/// 03/01 Q1015=
201211170650 METAR ESMX 170650Z AUTO 17006KT 150V210 9999NDV OVC012/// 04/01 Q1015=
201211170620 METAR ESMX 170620Z AUTO 18006KT 9999NDV FEW010/// OVC013/// 04/01 Q1015=
201211170550 METAR ESMX 170550Z AUTO 16006KT 130V190 8000NDV BR FEW009/// BKN011/// OVC016/// 04/02 Q1015=
201211170520 METAR ESMX 170520Z AUTO 16005KT 6000NDV BR FEW007/// SCT012/// BKN020/// 04/02 Q1015=
201211170450 METAR ESMX 170450Z AUTO 14004KT 100V170 7000NDV BR FEW013/// OVC021/// 04/02 Q1015=
201211170420 METAR ESMX 170420Z AUTO 15003KT 7000NDV BR FEW015/// OVC018/// 04/02 Q1015=
201211170350 METAR ESMX 170350Z AUTO VRB02KT 7000NDV BR FEW019/// OVC022/// 04/02 Q1016=
201211170320 METAR ESMX 170320Z AUTO 12002KT 7000NDV BR OVC021/// 04/02 Q1016=
201211170250 METAR ESMX 170250Z AUTO 15003KT 7000NDV BR OVC022/// 04/02 Q1016=
201211170220 METAR ESMX 170220Z AUTO 14003KT 7000NDV BR OVC022/// 03/02 Q1016=
201211170150 METAR ESMX 170150Z AUTO 16003KT 7000NDV BR FEW023/// OVC032/// 03/02 Q1016=
201211170120 METAR ESMX 170120Z AUTO 16002KT 7000NDV BR BKN013/// OVC033/// 04/02 Q1017=
201211170050 METAR ESMX 170050Z AUTO 17003KT 140V200 9000NDV BR FEW009/// SCT012/// OVC015/// 04/02 Q1017=
201211170020 METAR ESMX 170020Z AUTO 22008KT 9000NDV BR BKN008/// OVC012/// 04/02 Q1017=
201211162350 METAR ESMX 162350Z AUTO 20009KT 8000NDV BR FEW007/// SCT008/// BKN010/// 05/03 Q1018=
201211162320 METAR ESMX 162320Z AUTO 17006KT 6000NDV BR FEW006/// SCT008/// BKN010/// 05/04 Q1018=
201211162250 METAR ESMX 162250Z AUTO 18006KT 5000NDV BR FEW006/// SCT007/// BKN009/// 05/04 Q1018=
201211162220 METAR ESMX 162220Z AUTO 17006KT 5000NDV BR FEW007/// SCT010/// OVC042/// 06/04 Q1018=
201211162150 METAR ESMX 162150Z AUTO 16005KT 4900NDV BR OVC043/// 06/05 Q1018=
201211162120 METAR ESMX 162120Z AUTO 16006KT 4400NDV BR OVC044/// 06/05 Q1018=
201211162050 METAR ESMX 162050Z AUTO 17006KT 3500NDV BR FEW004/// SCT005/// BKN034/// 06/05 Q1018=
201211162020 METAR ESMX 162020Z AUTO 16005KT 3000NDV BR FEW003/// OVC004/// 06/06 Q1018=
201211161950 METAR ESMX 161950Z 17005KT 3300 BR OVC004 06/06 Q1018=
201211161920 METAR ESMX 161920Z 17005KT 4600 BR BKN006 OVC045 07/06 Q1018=
201211161850 METAR ESMX 161850Z 17005KT 5000 BR BKN005 BKN055 07/06 Q1018=
201211161820 METAR ESMX 161820Z 17004KT 5000 BR BKN006 BKN045 07/06 Q1018=
201211161750 METAR ESMX 161750Z 17005KT 6000 BR FEW007 BKN020 BKN045 07/06 Q1018=
201211161720 METAR ESMX 161720Z 19006KT 7000 BR SCT006 BKN009 07/06 Q1018=
201211161650 METAR ESMX 161650Z 18005KT 7000 BR OVC006 07/06 Q1018=
201211161620 METAR ESMX 161620Z 19006KT 9000 BR FEW007 OVC009 07/06 Q1018=
201211161550 METAR ESMX 161550Z 18006KT 9000 BR BKN009 07/06 Q1019=
201211161520 METAR ESMX 161520Z 19006KT 8000 BR SCT010 OVC049 07/06 Q1019=
201211161450 METAR ESMX 161450Z 16005KT 6000 BR FEW005 SCT030 OVC045 07/06 Q1018=
201211161420 METAR ESMX 161420Z 17004KT 6000 BR FEW004 BKN028 OVC040 07/06 Q1019=
201211161350 METAR ESMX 161350Z 19005KT 6000 BR FEW005 BKN021 07/07 Q1019=
201211161320 METAR ESMX 161320Z 20006KT 8000 BR FEW005 SCT008 BKN011 08/07 Q1019=
201211161250 METAR ESMX 161250Z 19007KT 6000 BR OVC006 08/07 Q1019=
201211161220 METAR ESMX 161220Z 20006KT 9999 BKN007 08/06 Q1019=
201211161150 METAR ESMX 161150Z 21007KT 9999 BKN005 BKN038 08/07 Q1019=
201211161120 METAR ESMX 161120Z 20007KT 9999 OVC005 07/07 Q1019=
201211161050 METAR ESMX 161050Z 20007KT 9999 OVC004 07/06 Q1019=
201211161020 METAR ESMX 161020Z 21005KT 9999 OVC004 07/06 Q1020=
201211160950 METAR ESMX 160950Z 21006KT 9000 BR OVC002 07/06 Q1020=
201211160920 METAR ESMX 160920Z 22006KT 2700 BR OVC002 06/06 Q1020=
201211160850 METAR ESMX 160850Z 21007KT 1400 R01/1700D R19/P2000N OVC002 06/05 Q1019=
201211160820 METAR ESMX 160820Z 20006KT 1100 R01/1500U R19/1600U BR VV003 06/05 Q1019=
201211160750 METAR ESMX 160750Z 21007KT 0750 R01/1300N R19/1300D FG VV002 05/05 Q1019=
201211160720 METAR ESMX 160720Z 19007KT 1000 R01/1900N R19/1800U BR OVC002 05/04 Q1019=
201211160650 METAR ESMX 160650Z 19007KT 0900 R01/1900N R19/P2000N FG VV002 05/04 Q1019=
201211160620 METAR ESMX 160620Z 18008KT 0750 R01/P2000N R19/P2000N FG VV002 05/04 Q1019=
201211160550 METAR COR ESMX 160550Z 18005KT 0800 R19/P2000N FG VV002 05/04 Q1019=
201211160520 METAR ESMX 160520Z 17004KT 8000 BR OVC002 05/04 Q1019=
201211160450 METAR ESMX 160450Z 17003KT 150V220 9999 OVC002 05/04 Q1019=
201211160420 METAR ESMX 160420Z AUTO 20003KT 9999NDV OVC004/// 05/04 Q1019=
201211160350 METAR ESMX 160350Z AUTO 18004KT 9999NDV OVC004/// 04/04 Q1019=
201211160320 METAR ESMX 160320Z AUTO 21004KT 9999NDV OVC003/// 04/03 Q1020=
201211160250 METAR ESMX 160250Z AUTO 23005KT 9999NDV OVC004/// 04/03 Q1020=
201211160220 METAR ESMX 160220Z AUTO 23005KT 190V260 9999NDV OVC003/// 04/03 Q1020=
201211160150 METAR ESMX 160150Z AUTO 24005KT 9999NDV OVC003/// 04/03 Q1020=
201211160120 METAR ESMX 160120Z 23005KT 200V280 9999 OVC003 04/03 Q1020=
201211160050 METAR ESMX 160050Z 24007KT 9999 OVC004 04/03 Q1020=
201211160020 METAR ESMX 160020Z 24005KT 210V270 9999 OVC006 04/03 Q1020=
201211152350 METAR ESMX 152350Z 23005KT 9999 OVC006 04/03 Q1020=
201211152320 METAR ESMX 152320Z 22003KT 9999 OVC008 04/03 Q1020=
201211152250 METAR ESMX 152250Z 23005KT 200V270 9999 BKN009 04/03 Q1020=
201211152220 METAR ESMX 152220Z 23005KT 9999 BKN009 05/03 Q1020=
201211152150 METAR ESMX 152150Z 24005KT 9999 FEW009 OVC011 05/04 Q1020=
201211152120 METAR ESMX 152120Z 24005KT 190V310 9999 OVC010 05/04 Q1020=
201211152050 METAR ESMX 152050Z 23004KT 9999 FEW009 OVC011 04/04 Q1020=
201211152020 METAR ESMX 152020Z 20003KT 9999 OVC010 04/03 Q1020=
201211151950 METAR ESMX 151950Z 22004KT 7000 BR SCT003 BKN010 03/03 Q1020=
201211151920 METAR ESMX 151920Z 25004KT 210V290 8000 BR OVC001 04/04 Q1020=
201211151850 METAR ESMX 151850Z 26007KT 5000 BR OVC001 04/04 Q1020=
201211151750 METAR ESMX 151750Z 24004KT CAVOK 04/03 Q1020=
201211151720 METAR ESMX 151720Z 23004KT CAVOK 04/03 Q1020=
201211151650 METAR ESMX 151650Z 23004KT CAVOK 04/03 Q1019=
201211151620 METAR ESMX 151620Z 21003KT CAVOK 04/03 Q1019=
201211151550 METAR ESMX 151550Z 20003KT CAVOK 05/03 Q1019=
201211151520 METAR ESMX 151520Z 26005KT CAVOK 05/03 Q1019=
201211151450 METAR ESMX 151450Z 26003KT CAVOK 07/04 Q1019=
201211151420 METAR ESMX 151420Z 25004KT CAVOK 08/04 Q1019=
201211151350 METAR ESMX 151350Z 26008KT 9999 FEW020 08/04 Q1019=
201211151250 METAR ESMX 151250Z 25007KT 200V290 9999 FEW020 09/04 Q1019=
201211151220 METAR ESMX 151220Z 27006KT 240V310 9999 FEW018 09/04 Q1019=
201211151150 METAR ESMX 151150Z 26006KT 230V310 9999 FEW019 09/04 Q1019=
201211151120 METAR ESMX 151120Z 25008KT 210V280 9999 FEW019 09/04 Q1019=
201211151050 METAR ESMX 151050Z 28006KT 9999 FEW016 09/05 Q1019=
201211151020 METAR ESMX 151020Z 25010KT 9999 FEW014 SCT020 08/05 Q1019=
201211150950 METAR ESMX 150950Z 26008KT 230V300 9999 FEW013 SCT019 09/06 Q1019=
201211150920 METAR ESMX 150920Z 27009KT 240V310 9999 FEW013 SCT016 BKN020 08/06 Q1019=
201211150850 METAR ESMX 150850Z 26007KT 230V300 9999 FEW012 BKN015 08/06 Q1020=
201211150820 METAR ESMX 150820Z 28006KT 9999 FEW010 BKN015 08/06 Q1019=
201211150750 METAR ESMX 150750Z 25007KT 210V290 9999 FEW012 SCT018 BKN021 08/07 Q1019=
201211150720 METAR ESMX 150720Z 26009KT 9999 FEW008 SCT036 BKN045 08/07 Q1019=
201211150650 METAR ESMX 150650Z 26008KT 220V290 3300 BR FEW005 BKN007 OVC010 08/07 Q1019 REDZ=
201211150620 METAR ESMX 150620Z 24008KT 200V280 7000 BR OVC008 09/07 Q1018=
201211150550 METAR ESMX 150550Z 23009KT 190V260 9999 OVC010 09/07 Q1018=
201211150520 METAR ESMX 150520Z 23010KT 9999 BKN010 08/07 Q1018=
201211150450 METAR ESMX 150450Z 24010KT 5000 BR FEW010 OVC012 08/07 Q1018=
201211150420 METAR ESMX 150420Z AUTO 22008KT 200V260 9999NDV FEW012/// SCT014/// BKN017/// 09/07 Q1019=
201211150350 METAR ESMX 150350Z AUTO 24008KT 9999NDV FEW013/// BKN039/// BKN054/// 09/07 Q1019=
201211150320 METAR ESMX 150320Z AUTO 23009KT 200V260 9999NDV SCT011/// BKN016/// 09/07 Q1019=
201211150250 METAR ESMX 150250Z AUTO 22009KT 190V270 9999NDV FEW011/// OVC013/// 09/07 Q1019=
201211150220 METAR ESMX 150220Z AUTO 22009KT 9999NDV FEW010/// BKN012/// OVC018/// 08/07 Q1020=
201211150150 METAR ESMX 150150Z AUTO 22009KT 190V250 9999NDV FEW009/// SCT011/// BKN014/// 08/07 Q1020=
201211150120 METAR ESMX 150120Z AUTO 21010KT 9000NDV BR FEW010/// SCT015/// OVC040/// 08/07 Q1020=
201211150050 METAR ESMX 150050Z 22009KT 8000 FEW009 SCT021 BKN034 08/06 Q1021=
201211150020 METAR ESMX 150020Z 21009KT 9999 SCT011 OVC031 08/06 Q1021=
201211142350 METAR ESMX 142350Z 21009KT 9000 BR SCT010 OVC032 08/06 Q1021=
201211142320 METAR ESMX 142320Z 22010KT 9000 BR FEW010 OVC031 08/06 Q1022=
201211142250 METAR ESMX 142250Z 22010KT 9999 FEW011 OVC033 08/06 Q1022=
201211142220 METAR ESMX 142220Z 22011KT 9999 BR FEW013 OVC034 08/06 Q1022=
201211142150 METAR ESMX 142150Z 20010KT 8000 BR OVC035 08/06 Q1023=
201211142050 METAR ESMX 142050Z 21009KT 5000 BR SCT008 OVC035 08/07 Q1023=
201211142020 METAR ESMX 142020Z 20009KT 5000 BR FEW006 BKN010 08/07 Q1024=
201211141950 METAR ESMX 141950Z 21009KT 5000 BR OVC006 08/07 Q1024=
201211141920 METAR ESMX 141920Z 21009KT 5000 BR BKN008 OVC032 08/07 Q1024=
201211141850 METAR ESMX 141850Z 21010KT 5000 BR FEW008 OVC031 08/07 Q1024=
201211141820 METAR ESMX 141820Z 23010KT 7000 BR FEW007 OVC033 08/07 Q1024=
201211141750 METAR ESMX 141750Z 21009KT 4800 BR FEW006 SCT008 OVC033 08/07 Q1025=
201211141720 METAR ESMX 141720Z 20010KT 4700 BR FEW006 SCT008 BKN009 08/07 Q1025=
201211141650 METAR ESMX 141650Z 22008KT 4600 BR BKN007 OVC034 08/07 Q1025=
201211141620 METAR ESMX 141620Z 23009KT 200V260 4600 BR FEW006 SCT008 BKN010 08/07 Q1025=
201211141550 METAR ESMX 141550Z 21009KT 4700 BR BKN006 OVC010 08/07 Q1025=
201211141520 METAR ESMX 141520Z 21009KT 4900 BR FEW006 SCT009 OVC010 08/07 Q1025=
201211141450 METAR ESMX 141450Z 23009KT 5000 BR FEW006 BKN008 OVC011 08/07 Q1026=
201211141420 METAR ESMX 141420Z 21009KT 5000 BR OVC006 08/07 Q1026=
201211141350 METAR ESMX 141350Z 22009KT 5000 BR FEW006 BKN008 OVC010 08/07 Q1026=
201211141320 METAR ESMX 141320Z 20010KT 6000 BR BKN006 OVC010 09/07 Q1026=
201211141250 METAR ESMX 141250Z 22010KT 6000 BR BKN006 OVC009 08/07 Q1026=
201211141220 METAR ESMX 141220Z 21009KT 6000 BR BKN005 OVC007 08/07 Q1026=
201211141150 METAR ESMX 141150Z 22009KT 5000 BR OVC005 08/07 Q1026=
201211141120 METAR ESMX 141120Z 22010KT 5000 BR OVC005 08/07 Q1026=
201211141050 METAR ESMX 141050Z 21009KT 4400 BR OVC003 08/07 Q1026=
201211141020 METAR ESMX 141020Z 22009KT 4300 BR OVC004 08/07 Q1027=
201211140950 METAR ESMX 140950Z 21008KT 170V240 4400 BR OVC004 08/07 Q1027=
201211140920 METAR ESMX 140920Z 21010KT 3800 BR OVC003 08/07 Q1027=
201211140850 METAR ESMX 140850Z 21009KT 3700 BR OVC002 07/07 Q1027=
201211140820 METAR ESMX 140820Z 22010KT 3200 BR OVC003 07/07 Q1027=
201211140750 METAR ESMX 140750Z 21009KT 180V240 4600 BR OVC003 07/06 Q1027=
201211140720 METAR ESMX 140720Z 22009KT 5000 BR OVC003 07/06 Q1027=
201211140650 METAR ESMX 140650Z 22009KT 2100 BR OVC003 07/06 Q1027=
201211140620 METAR ESMX 140620Z 22009KT 1600 BR OVC002 07/06 Q1027=
201211140550 METAR ESMX 140550Z 20008KT 2200 BR OVC002 07/06 Q1027=
201211140520 METAR ESMX 140520Z 19009KT 160V230 1500 BR OVC002 07/06 Q1027=
201211140450 METAR ESMX 140450Z 20009KT 170V230 2200 BR OVC002 07/06 Q1027=
201211140420 METAR ESMX 140420Z AUTO 19008KT 2100NDV BR OVC002/// 07/06 Q1027=
201211140350 METAR ESMX 140350Z AUTO 19009KT 1900NDV OVC001/// 06/06 Q1027=
201211140320 METAR ESMX 140320Z AUTO 18008KT 150V210 1500NDV OVC001/// 06/06 Q1027=
201211140250 METAR ESMX 140250Z AUTO 19007KT 0900NDV R01/P2000N R19/P2000N FG VV002 06/05 Q1027=
201211140220 METAR ESMX 140220Z AUTO 19007KT 0750NDV R01/P2000N R19/P2000N FG VV002 06/05 Q1028=
201211140150 METAR ESMX 140150Z AUTO 19009KT 0800NDV R01/P2000N R19/P2000N FG VV002 06/05 Q1028=
201211140120 METAR ESMX 140120Z AUTO 21008KT 0750NDV R01/P2000D R19/P2000N FG VV002 06/05 Q1028=
201211140050 METAR ESMX 140050Z 19008KT 1000 R01/P2000N R19/P2000N FG OVC001 06/05 Q1028=
201211140020 METAR ESMX 140020Z 19009KT 1000 R01/P2000N R19/P2000N FG OVC001 06/05 Q1028=
201211132350 METAR ESMX 132350Z 21008KT 0900 R01/P2000N R19/P2000N FG OVC002 06/05 Q1028=
201211132320 METAR ESMX 132320Z 19008KT 1600 BR OVC002 06/05 Q1028=
201211132250 METAR ESMX 132250Z 19008KT 1700 BR OVC002 05/05 Q1028=
201211132220 METAR ESMX 132220Z 20008KT 1300 R01/P2000N R19/P2000N BR OVC002 05/05 Q1028=
201211132150 METAR ESMX 132150Z 21009KT 1600 BR OVC002 05/05 Q1029=
201211132120 METAR ESMX 132120Z 19010KT 2100 BR OVC002 05/05 Q1029=
201211132050 METAR ESMX 132050Z 19009KT 2300 BR OVC002 05/05 Q1029=
201211132020 METAR ESMX 132020Z 18007KT 1800 BR OVC002 05/04 Q1028=
201211131950 METAR ESMX 131950Z 18007KT 2500 BR OVC003 05/04 Q1028=
201211131920 METAR ESMX 131920Z 18007KT 140V210 3400 BR OVC004 05/04 Q1028=
201211131850 METAR ESMX 131850Z 18006KT 140V200 3900 BR OVC004 05/04 Q1028=
201211131820 METAR ESMX 131820Z 19006KT 4300 BR OVC004 05/04 Q1029=
201211131750 METAR ESMX 131750Z 19006KT 4400 BR OVC004 05/04 Q1029=
201211131720 METAR ESMX 131720Z 19007KT 5000 BR OVC005 05/04 Q1029=
201211131650 METAR ESMX 131650Z 18005KT 5000 BR OVC006 05/04 Q1029=
201211131620 METAR ESMX 131620Z 19005KT 7000 BR OVC007 05/04 Q1029=
201211131550 METAR ESMX 131550Z 18004KT 7000 BR OVC009 04/03 Q1029=
201211131520 METAR ESMX 131520Z VRB02KT 7000 BR BKN009 04/04 Q1029=
201211131450 METAR ESMX 131450Z 20006KT 8000 BR OVC005 04/04 Q1029=
201211131420 METAR ESMX 131420Z 21006KT 6000 BR OVC004 04/04 Q1029=
201211131350 METAR ESMX 131350Z 20007KT 7000 BR OVC004 04/04 Q1029=
201211131320 METAR ESMX 131320Z 19006KT 160V220 3200 BR OVC002 04/04 Q1029=
201211131250 METAR ESMX 131250Z 20005KT 170V230 2800 BR BKN002 04/04 Q1029=
201211131220 METAR ESMX 131220Z 22006KT 3500 BR OVC002 04/04 Q1029=
201211131150 METAR ESMX 131150Z 22006KT 5000 BR OVC002 04/04 Q1029=
201211131120 METAR ESMX 131120Z 20006KT 9999 FEW002 OVC004 04/04 Q1029=
201211131050 METAR ESMX 131050Z 21006KT 9999 BKN004 OVC007 04/04 Q1029=
201211131020 METAR ESMX 131020Z 21006KT 180V240 9999 SCT004 BKN007 OVC008 04/04 Q1028=
201211130950 METAR ESMX 130950Z 22006KT 9999 BKN002 OVC003 04/04 Q1028=
201211130920 METAR ESMX 130920Z 23005KT 1400 R01/?2000N R19/1700N BR OVC002 04/03 Q1028=
201211130850 METAR ESMX 130850Z 24005KT 0750 R01/0800V1400U R19/1300U FG VV002 03/03 Q1028=
201211130820 METAR ESMX 130820Z 23005KT 0450 R01/0900N R19/1100N FG VV002 03/02 Q1028=
201211130750 METAR ESMX 130750Z 23006KT 0250 R01/0900 R19/0650N FG VV002 03/02 Q1028=
201211130720 METAR ESMX 130720Z 24004KT 210V280 0350 R01/0700N R19/0900N FG VV002 03/02 Q1027=
201211130650 METAR ESMX 130650Z VRB02KT 0300 R01/0750 R19/1000D FG VV002 02/02 Q1027=
201211130620 METAR ESMX 130620Z 23003KT 200V290 0500 R01/1500U R19/1300VP2000D FG VV002 02/02 Q1026=
201211130550 METAR ESMX 130550Z 21003KT 0350 R01/1200N R19/1300N FG VV002 02/01 Q1026=
201211130520 METAR ESMX 130520Z 26005KT 0350 R01/1100D R19/1300D FG VV002 02/01 Q1026=
201211130450 METAR ESMX 130450Z 24004KT 200V280 0500 R01/1400VP2000U R19/1700U FG VV002 02/01 Q1025=
201211130420 METAR ESMX 130420Z AUTO 23005KT 0450NDV R01/1500D R19/1600D FG VV001 02/02 Q1025=
201211130350 METAR ESMX 130350Z AUTO 23006KT 0550NDV R01/1700N R19/1900N FG VV002 02/01 Q1025=
201211130320 METAR ESMX 130320Z AUTO 23005KT 2500NDV BR FEW002/// SCT021/// 02/01 Q1024=
201211130250 METAR ESMX 130250Z AUTO 24006KT 9999NDV FEW019/// 02/01 Q1024=
201211130220 METAR ESMX 130220Z AUTO 24006KT 9999NDV NCD 01/01 Q1024=
201211130150 METAR ESMX 130150Z AUTO 24006KT 9999NDV FEW021/// 01/01 Q1023=
201211130120 METAR ESMX 130120Z AUTO 23005KT 9999NDV NCD 01/01 Q1023=
201211130050 METAR ESMX 130050Z 23006KT CAVOK 01/01 Q1023=
201211130020 METAR ESMX 130020Z 22005KT CAVOK 01/01 Q1022=
201211122350 METAR ESMX 122350Z 22006KT CAVOK 01/00 Q1022=
201211122320 METAR ESMX 122320Z 23006KT CAVOK 01/00 Q1022=
201211122250 METAR ESMX 122250Z AUTO 22005KT 9999NDV NCD 01/00 Q1022=
201211122220 METAR ESMX 122220Z 22006KT CAVOK 01/00 Q1021=
201211122150 METAR ESMX 122150Z 22007KT CAVOK 02/01 Q1021=
201211122120 METAR ESMX 122120Z 24006KT CAVOK 02/01 Q1021=
201211122050 METAR ESMX 122050Z 24006KT CAVOK 02/01 Q1020=
201211122020 METAR ESMX 122020Z 23007KT CAVOK 02/01 Q1020=
201211121950 METAR ESMX 121950Z 24006KT CAVOK 02/01 Q1020=
201211121920 METAR ESMX 121920Z 23005KT CAVOK 02/01 Q1020=
201211121850 METAR ESMX 121850Z 23005KT CAVOK 02/01 Q1019=
201211121820 METAR ESMX 121820Z 20004KT CAVOK 02/01 Q1019=
201211121750 METAR ESMX 121750Z 24005KT 210V270 9999 FEW035 03/01 Q1018=
201211121720 METAR ESMX 121720Z 25007KT 210V280 9999 FEW034 04/02 Q1018=
201211121650 METAR ESMX 121650Z 24007KT 9999 FEW027 04/02 Q1017=
201211121620 METAR ESMX 121620Z 23006KT 9999 FEW033 SCT039 04/02 Q1017=
201211121550 METAR ESMX 121550Z 25007KT 210V280 9999 FEW035 SCT041 04/02 Q1017=
201211121520 METAR ESMX 121520Z 25009KT 9999 FEW020 05/02 Q1016=
201211121450 METAR ESMX 121450Z 24007KT 9999 FEW026 BKN044 05/02 Q1016=
201211121420 METAR ESMX 121420Z 24008KT 9999 FEW019 05/03 Q1015=
201211121350 METAR ESMX 121350Z 24008KT 200V280 9999 FEW020 05/02 Q1015=
201211121320 METAR ESMX 121320Z 25010KT 9999 FEW017 05/02 Q1015=
201211121250 METAR ESMX 121250Z 22013KT 9999 FEW016CB 05/01 Q1014=
201211121220 METAR ESMX 121220Z 23010KT 200V260 9999 FEW016CB 06/03 Q1014=
201211121150 METAR ESMX 121150Z 23010G20KT 200V270 9999 FEW017 SCT021 07/03 Q1014=
201211121120 METAR ESMX 121120Z 25010KT 210V290 9999 SCT019 07/04 Q1014=
201211121050 METAR ESMX 121050Z 25010KT 220V290 9999 FEW015 06/04 Q1013=
201211121020 METAR ESMX 121020Z 23006KT 200V260 9999 FEW020CB 05/04 Q1013=
201211120950 METAR ESMX 120950Z 24007KT 9999 SCT023CB BKN028 05/03 Q1013 RESHRA=
201211120920 METAR ESMX 120920Z 24009KT 200V290 8000 -RA FEW012 BKN021 06/04 Q1013=
201211120850 METAR ESMX 120850Z 22008KT 200V260 9999 FEW020 05/03 Q1012=
201211120820 METAR ESMX 120820Z 24008KT 9999 FEW025 05/03 Q1012=
201211120750 METAR ESMX 120750Z 23009KT 200V260 9999 -SHRA FEW014 SCT022CB BKN034 05/04 Q1012=
201211120720 METAR ESMX 120720Z 24008KT 9999 FEW019 SCT029 05/04 Q1012=
201211120650 METAR ESMX 120650Z 21008KT 9999 FEW016 SCT028 05/03 Q1011=
201211120620 METAR ESMX 120620Z 23009KT 200V260 9999 SCT030 05/03 Q1011=
201211120550 METAR ESMX 120550Z 23010KT 9999 SCT010 05/03 Q1010=
201211120520 METAR ESMX 120520Z 23008KT 9999 FEW010 SCT018 05/03 Q1010=
201211120450 METAR ESMX 120450Z 23008KT 9999 FEW010 SCT018 05/03 Q1010=
201211120420 METAR ESMX 120420Z 22008KT 190V250 9999 SCT020 05/04 Q1010=
201211120350 METAR ESMX 120350Z 23009KT 9999 NSC 05/04 Q1009=
201211120320 METAR ESMX 120320Z AUTO 23008KT 9999NDV NCD 05/04 Q1009=
201211120250 METAR ESMX 120250Z AUTO 22008KT 200V260 9999NDV FEW011/// SCT016/// BKN031/// 05/04 Q1009=
201211120220 METAR ESMX 120220Z AUTO 23008KT 9999NDV FEW009/// SCT018/// BKN040/// 06/04 Q1009=
201211120150 METAR ESMX 120150Z AUTO 22007KT 9999NDV FEW013/// SCT017/// BKN020/// 06/04 Q1009=
201211120120 METAR ESMX 120120Z AUTO 22009KT 9999NDV FEW013/// SCT032/// 06/04 Q1008=
201211120050 METAR COR ESMX 120050Z 24009KT 9999 FEW008 BKN010 BKN020 06/05 Q1008=
201211120020 METAR ESMX 120020Z 22008KT 9999 FEW007 SCT010 BKN013 06/05 Q1008=
201211112350 METAR ESMX 112350Z 23009KT 9999 FEW006 SCT009 BKN019 06/05 Q1008=
201211112320 METAR ESMX 112320Z 22010KT 9999 FEW007 SCT010 BKN020 06/05 Q1008=
201211112250 METAR ESMX 112250Z 23010KT 200V270 9999 FEW007 SCT009 BKN015 06/05 Q1007=
201211112220 METAR ESMX 112220Z 23011KT 9000 BKN008 OVC040 06/04 Q1007=
201211112150 METAR ESMX 112150Z 21010KT 9999 FEW007 SCT010 OVC038 05/04 Q1007=
201211112120 METAR ESMX 112120Z 21010KT 9999 BKN006 05/04 Q1007=
201211112050 METAR ESMX 112050Z 22010KT 9999 FEW007 BKN009 05/04 Q1007=
201211112020 METAR ESMX 112020Z 23010KT 9999 FEW008 SCT011 05/04 Q1007=
201211111950 METAR ESMX 111950Z 23010KT 9999 SCT010 BKN040 06/04 Q1007=
201211111920 METAR ESMX 111920Z 24011KT 9999 FEW010 BKN013 OVC017 06/05 Q1006=
201211111850 METAR ESMX 111850Z 21010KT 9999 SCT012 BKN018 06/05 Q1006=
201211111820 METAR ESMX 111820Z 23010KT 9999 FEW010 SCT017 06/05 Q1006=
201211111750 METAR ESMX 111750Z 21008KT 190V250 9999 FEW010 SCT042 06/04 Q1006=
201211111720 METAR ESMX 111720Z 22008KT 9999 FEW013 SCT019 06/04 Q1006=
201211111650 METAR ESMX 111650Z 23007KT 9999 FEW018 SCT041 06/04 Q1005=
201211111620 METAR ESMX 111620Z 24008KT 210V280 9999 FEW016 SCT028 BKN033 06/04 Q1005=
201211111550 METAR ESMX 111550Z 25010KT 200V280 9999 FEW014 BKN022 07/05 Q1005=
201211111520 METAR ESMX 111520Z 24012KT 210V270 9999 FEW013 SCT017 BKN021 07/05 Q1004=
201211111450 METAR ESMX 111450Z 24012G22KT 200V280 9999 FEW014 SCT017 BKN020 08/06 Q1003=
201211111420 METAR ESMX 111420Z 22015KT 190V250 9999 FEW006 SCT009 BKN011 09/08 Q1002=
201211111350 METAR ESMX 111350Z 19010KT 5000 -RA FEW006 SCT008 BKN010 09/08 Q1002=
201211111320 METAR ESMX 111320Z 20012KT 4500 -DZ BKN004 09/08 Q1002=
201211111250 METAR ESMX 111250Z 20013KT 3800 BR OVC003 09/08 Q1002=
201211111220 METAR ESMX 111220Z 20010KT 5000 OVC003 09/08 Q1002=
201211111150 METAR ESMX 111150Z 17008KT 140V200 2300 OVC002 08/08 Q1002=
201211111120 METAR ESMX 111120Z 19010KT 0800 R01/1300N R19/1400N FG VV002 08/07 Q1002=
201211111050 METAR ESMX 111050Z 18008KT 140V210 0800 R01/1300D R19/1600D FG VV002 08/07 Q1002=
201211111020 METAR ESMX 111020Z 18007KT 140V220 1200 R01/1700N R19/1900N VV002 08/07 Q1002=
201211110950 METAR ESMX 110950Z 17006KT 130V210 1200 R01/1400VP2000D R19/P2000N BR OVC002 07/07 Q1002=
201211110920 METAR ESMX 110920Z AUTO 17007KT 140V200 1700NDV BR OVC001/// 07/07 Q1002=
201211110850 METAR ESMX 110850Z AUTO 17006KT 2500NDV BR OVC001/// 07/07 Q1002=
201211110820 METAR ESMX 110820Z AUTO 18009KT 4000NDV BR OVC002/// 07/07 Q1002=
201211110750 METAR ESMX 110750Z AUTO 19008KT 150V220 3800NDV BR OVC002/// 07/06 Q1002=
201211110720 METAR ESMX 110720Z AUTO 18007KT 4300NDV BR OVC003/// 07/06 Q1001=
201211110650 METAR ESMX 110650Z AUTO 18007KT 140V210 4600NDV BR OVC003/// 07/06 Q1001 REDZ=
201211110620 METAR ESMX 110620Z AUTO 16007KT 130V210 3500NDV DZ FEW003/// OVC004/// 07/07 Q1001 REDZ=
201211110550 METAR ESMX 110550Z AUTO 18007KT 4600NDV +DZ OVC002/// 07/07 Q1001=
201211110520 METAR ESMX 110520Z AUTO 17006KT 140V200 4700NDV -RA BKN002/// OVC005/// 07/07 Q1001 RESHRA=
201211110450 METAR ESMX 110450Z AUTO 17006KT 140V210 3100NDV DZ OVC002/// 07/06 Q1001=
201211110420 METAR ESMX 110420Z AUTO 16006KT 130V190 2700NDV BR OVC001/// 07/06 Q1001=
201211110350 METAR ESMX 110350Z AUTO 16006KT 120V200 1500NDV -RA OVC001/// 07/06 Q1001=
201211110320 METAR ESMX 110320Z AUTO 15005KT 100V190 2400NDV -RA OVC002/// 07/06 Q1001=
201211110250 METAR ESMX 110250Z AUTO 16004KT 110V220 2400NDV DZ OVC002/// 07/06 Q1001=
201211110220 METAR ESMX 110220Z AUTO 16005KT 110V200 2800NDV BR OVC002/// 07/06 Q1001 REDZ=
201211110150 METAR ESMX 110150Z AUTO 16005KT 130V200 3100NDV -DZ OVC002/// 07/06 Q1002=
201211110120 METAR ESMX 110120Z AUTO 16007KT 120V200 2900NDV BR OVC002/// 07/06 Q1002=
201211110050 METAR ESMX 110050Z AUTO 16006KT 120V210 2800NDV BR OVC003/// 07/06 Q1002=
201211110020 METAR ESMX 110020Z AUTO 15006KT 110V200 2600NDV BR OVC004/// 07/06 Q1002=
201211102350 METAR ESMX 102350Z AUTO 15006KT 4100NDV BR OVC005/// 07/06 Q1002=
201211102320 METAR ESMX 102320Z AUTO 15005KT 120V190 4600NDV BR OVC006/// 07/06 Q1002=
201211102250 METAR ESMX 102250Z AUTO 15005KT 110V200 4600NDV BR OVC005/// 07/06 Q1003=
201211102220 METAR ESMX 102220Z AUTO 16004KT 120V200 4500NDV BR BKN005/// OVC008/// 07/06 Q1003=
201211102150 METAR ESMX 102150Z AUTO 15004KT 120V200 4500NDV BR FEW006/// SCT007/// BKN009/// 07/06 Q1003=
201211102120 METAR ESMX 102120Z AUTO 14003KT 100V170 4500NDV BR FEW006/// BKN012/// OVC051/// 07/05 Q1003=
201211102050 METAR ESMX 102050Z AUTO 16004KT 120V200 5000NDV BR OVC013/// 07/05 Q1003=
201211102020 METAR ESMX 102020Z AUTO 15004KT 100V200 7000NDV BR FEW008/// OVC057/// 07/05 Q1003=
201211101950 METAR ESMX 101950Z AUTO 16004KT 120V190 7000NDV BR BKN008/// OVC016/// 07/05 Q1004=
201211101920 METAR ESMX 101920Z AUTO 15005KT 110V170 8000NDV BR FEW008/// SCT009/// BKN011/// 07/05 Q1004=
201211101850 METAR ESMX 101850Z AUTO 15005KT 110V180 8000NDV BR OVC008/// 07/05 Q1004=
201211101820 METAR ESMX 101820Z AUTO 16005KT 120V200 9000NDV OVC008/// 07/05 Q1004=
201211101750 METAR ESMX 101750Z AUTO 15006KT 110V190 9999NDV OVC009/// 07/05 Q1004=
201211101720 METAR ESMX 101720Z AUTO 15007KT 110V190 9999NDV OVC010/// 07/05 Q1004=
201211101650 METAR ESMX 101650Z AUTO 16007KT 120V200 9999NDV OVC010/// 07/05 Q1004=
201211101620 METAR ESMX 101620Z AUTO 16006KT 120V210 9999NDV OVC009/// 07/05 Q1004=
201211101550 METAR ESMX 101550Z AUTO 16006KT 120V220 9999NDV BKN010/// 07/05 Q1004=
201211101520 METAR ESMX 101520Z AUTO 15007KT 110V200 9999NDV OVC010/// 07/05 Q1004=
201211101450 METAR ESMX 101450Z AUTO 16006KT 100V200 9999NDV BKN011/// 07/05 Q1004=
201211101420 METAR ESMX 101420Z AUTO 14007KT 100V170 9999NDV OVC012/// 07/05 Q1004=
201211101350 METAR ESMX 101350Z AUTO 16007KT 120V200 9999NDV FEW013/// BKN015/// 07/05 Q1005=
201211101320 METAR ESMX 101320Z AUTO 15006KT 090V200 9999NDV BKN011/// OVC017/// 07/05 Q1005=
201211101250 METAR ESMX 101250Z AUTO 17008KT 130V210 9999NDV BKN012/// OVC017/// 07/05 Q1005=
201211101220 METAR ESMX 101220Z AUTO 16007KT 120V190 9999NDV OVC012/// 07/05 Q1005=
201211101150 METAR ESMX 101150Z AUTO 17008KT 130V200 9999NDV SCT012/// BKN017/// OVC021/// 07/05 Q1006=
201211101120 METAR ESMX 101120Z AUTO 16007KT 110V190 9999NDV SCT012/// OVC017/// 07/05 Q1006=
201211101050 METAR ESMX 101050Z 17008KT 120V200 9999 FEW013 SCT015 BKN018 07/05 Q1006=
201211101020 METAR ESMX 101020Z 16007KT 110V200 9999 FEW011 SCT015 BKN018 07/05 Q1006=
201211100950 METAR COR ESMX 100950Z 16007KT 110V210 9999 SCT011 BKN015 OVC018 07/05 Q1007=
201211100920 METAR ESMX 100920Z 16008KT 130V220 9000 BR SCT010 BKN015 07/05 Q1007=
201211100850 METAR ESMX 100850Z 16007KT 080V200 5000 BR FEW009 BKN010 OVC015 07/06 Q1007=
201211100820 METAR ESMX 100820Z 16006KT 120V200 5000 BR FEW006 SCT008 BKN010 07/06 Q1007=
201211100750 METAR ESMX 100750Z AUTO 14006KT 100V160 4100NDV BR FEW006/// BKN007/// BKN043/// 07/06 Q1007=
201211100720 METAR ESMX 100720Z AUTO 15005KT 110V180 4400NDV BR FEW005/// SCT006/// BKN008/// 07/06 Q1008=
201211100650 METAR ESMX 100650Z AUTO 16006KT 120V200 4200NDV BR FEW005/// BKN007/// OVC041/// 07/05 Q1008=
201211100620 METAR ESMX 100620Z AUTO 16006KT 120V190 4400NDV BR FEW006/// BKN007/// OVC011/// 07/05 Q1008=
201211100550 METAR ESMX 100550Z AUTO 15005KT 110V190 4300NDV BR SCT005/// BKN007/// OVC008/// 06/05 Q1008=
201211100520 METAR ESMX 100520Z AUTO 16006KT 140V200 4700NDV BR FEW005/// BKN006/// OVC008/// 06/05 Q1008=
201211100450 METAR ESMX 100450Z AUTO 16007KT 120V200 5000NDV BR OVC005/// 06/05 Q1008=
201211100420 METAR ESMX 100420Z AUTO 16007KT 140V200 6000NDV BR FEW006/// OVC043/// 06/05 Q1009=
201211100350 METAR ESMX 100350Z AUTO 15006KT 120V200 6000NDV BR OVC043/// 06/05 Q1009=
201211100320 METAR ESMX 100320Z AUTO 16006KT 130V190 5000NDV BR OVC042/// 06/05 Q1009=
201211100250 METAR ESMX 100250Z AUTO 16008KT 120V200 5000NDV BR FEW004/// SCT006/// BKN008/// 07/06 Q1009=
201211100220 METAR ESMX 100220Z AUTO 17006KT 140V200 4900NDV BR OVC004/// 07/06 Q1010=
201211100150 METAR ESMX 100150Z AUTO 17006KT 140V210 4700NDV BR FEW004/// BKN005/// OVC008/// 07/06 Q1010=
201211100120 METAR ESMX 100120Z AUTO 16006KT 110V190 5000NDV BR FEW005/// BKN006/// OVC009/// 07/06 Q1010=
201211100050 METAR ESMX 100050Z AUTO 18006KT 5000NDV BR FEW004/// OVC005/// 07/06 Q1010=
201211100020 METAR ESMX 100020Z AUTO 17005KT 7000NDV BR FEW003/// SCT006/// BKN009/// 06/06 Q1010=
201211092350 METAR ESMX 092350Z AUTO 18005KT 150V210 6000NDV -RA OVC004/// 06/06 Q1011=
201211092320 METAR ESMX 092320Z AUTO 18006KT 140V200 9000NDV FEW004/// BKN005/// OVC007/// 06/05 Q1011=
201211092250 METAR ESMX 092250Z AUTO 18007KT 140V220 9999NDV -DZ FEW003/// OVC004/// 06/06 Q1011=
201211092220 METAR ESMX 092220Z AUTO 16006KT 9999NDV BKN002/// OVC004/// 06/05 Q1011=
201211092150 METAR ESMX 092150Z AUTO 18007KT 140V210 9999NDV OVC002/// 06/05 Q1011=
201211092120 METAR ESMX 092120Z AUTO 17008KT 150V210 9999NDV -RA OVC002/// 06/05 Q1011=
201211092050 METAR ESMX 092050Z AUTO 17006KT 140V200 9999NDV FEW002/// BKN004/// OVC006/// 06/05 Q1011=
201211092020 METAR ESMX 092020Z AUTO 16006KT 9000NDV BR FEW004/// SCT006/// BKN007/// 06/05 Q1012=
201211091950 METAR ESMX 091950Z 16005KT 130V200 9999 SCT011 BKN022 OVC037 05/05 Q1012=
201211091920 METAR ESMX 091920Z 17005KT 140V200 9999 FEW013 SCT015 BKN030 05/05 Q1012=
201211091850 METAR ESMX 091850Z 18006KT 150V210 9999 SCT008 BKN040 05/05 Q1012=
201211091820 METAR ESMX 091820Z 17004KT 140V200 9999 FEW008 SCT028 BKN033 05/05 Q1012=
201211091750 METAR ESMX 091750Z 19006KT 5000 BR FEW006 SCT021 BKN026 06/05 Q1012=
201211091720 METAR ESMX 091720Z 18004KT 9999 FEW016 OVC024 06/05 Q1012=
201211091650 METAR ESMX 091650Z 19004KT 9999 FEW004 SCT008 OVC024 06/05 Q1012=
201211091620 METAR ESMX 091620Z 18004KT 9999 SCT005 BKN012 06/05 Q1012=
201211091550 METAR ESMX 091550Z 15004KT 8000 BR SCT005 BKN010 06/05 Q1011=
201211091520 METAR ESMX 091520Z 16004KT 120V200 9999 FEW002 BKN004 OVC007 05/05 Q1011=
201211091450 METAR ESMX 091450Z 15005KT 120V190 5000 -RA BKN002 OVC005 05/05 Q1011 REDZ=
201211091420 METAR ESMX 091420Z 15005KT 110V190 8000 OVC003 05/05 Q1011=
201211091350 METAR ESMX 091350Z 15005KT 110V190 8000 OVC002 05/05 Q1011=
201211091320 METAR ESMX 091320Z 15005KT 110V180 0750 R01/1100V1600U R19/1900U FG VV002 05/04 Q1011=
201211091250 METAR ESMX 091250Z 15005KT 120V200 0500 R01/0900U R19/1200V1600N FG VV002 05/04 Q1011=
201211091220 METAR COR ESMX 091220Z 15005KT 110V190 0450 R01/0900N R19/1000U FG VV002 05/04 Q1011=
201211091120 METAR ESMX 091120Z 14003KT 090V200 0400 R01/0800 R19/0900N FG VV002 05/04 Q1011=
201211091050 METAR ESMX 091050Z VRB02KT 0400 R01/0800N R19/1000N FG VV002 05/04 Q1012=
201211091020 METAR ESMX 091020Z 15004KT 100V190 0600 R19/1500N FG VV002 05/04 Q1011=
201211090950 METAR ESMX 090950Z 14004KT 100V180 0500 R19/1400D FG VV002 05/04 Q1011=
201211090920 METAR ESMX 090920Z VRB02KT 0800 R19/1900D FG BKN001 05/04 Q1011=
201211090850 METAR ESMX 090850Z 12003KT 070V160 2000 BR OVC002 05/04 Q1011=
201211090820 METAR ESMX 090820Z VRB02KT 9000 BR FEW002 BKN003 05/04 Q1010=
201211090720 METAR ESMX 090720Z 09003KT 040V130 4000 BR OVC002 05/04 Q1010=
201211090707 METAR ESMX 090707Z 08003KT 030V120 4000 BR OVC002 05/04 Q1010=
201211090620 METAR ESMX 090620Z 01004KT 9999 OVC003 05/04 Q1009=
201211090550 METAR ESMX 090550Z 36004KT 9999 BR OVC003 05/04 Q1009=
201211090520 METAR ESMX 090520Z 01004KT 7000 BR FEW003 OVC004 05/04 Q1008=
201211090450 METAR COR ESMX 090450Z 01003KT 9999 BKN002 05/04 Q1008=
201211090420 METAR ESMX 090420Z AUTO 29001KT 9999NDV HZ BKN003/// OVC007/// 05/04 Q1008=
201211090350 METAR ESMX 090350Z AUTO 29002KT 9999NDV FEW010/// SCT025/// OVC030/// 05/04 Q1008=
201211090320 METAR ESMX 090320Z AUTO 27001KT 9999NDV FEW026/// OVC030/// 05/04 Q1007=
201211090250 METAR ESMX 090250Z AUTO 27002KT 9999NDV OVC024/// 05/04 Q1007=
201211090220 METAR ESMX 090220Z AUTO 30004KT 9999NDV FEW008/// SCT009/// BKN012/// 05/04 Q1007=
201211090150 METAR ESMX 090150Z AUTO 32005KT 9999NDV FEW004/// SCT006/// BKN009/// 04/04 Q1006=
201211090120 METAR ESMX 090120Z 28002KT 9999 FEW010 SCT013 BKN028 05/04 Q1006=
201211090050 METAR ESMX 090050Z 27002KT 9999 FEW029 SCT038 05/04 Q1006=
201211090020 METAR ESMX 090020Z 28002KT 9999 BKN034 05/05 Q1005=
201211082350 METAR ESMX 082350Z 29002KT 9999 FEW015 BKN032 06/05 Q1005=
201211082320 METAR ESMX 082320Z 29002KT 9999 BKN029 07/05 Q1005=
201211082250 METAR ESMX 082250Z 26003KT 9999 FEW026 BKN029 OVC038 07/06 Q1005=
201211082220 METAR ESMX 082220Z 28005KT 240V300 9999 FEW011 OVC023 07/06 Q1004 REDZ=
201211082150 METAR ESMX 082150Z 28005KT 4200 FEW007 SCT013 BKN018 07/06 Q1004=
201211082120 METAR ESMX 082120Z 27007KT 9999 FEW005 SCT009 BKN011 07/06 Q1004=
201211082050 METAR ESMX 082050Z 26007KT 6000 BR FEW006 BKN008 OVC010 07/06 Q1004=
201211082020 METAR ESMX 082020Z 26006KT 240V300 5000 DZ FEW008 OVC011 07/06 Q1003=
201211081950 METAR ESMX 081950Z 24007KT 9999 FEW007 SCT009 BKN011 07/06 Q1003 REDZ=
201211081920 METAR ESMX 081920Z 25006KT 9999 FEW007 SCT008 BKN009 07/06 Q1003=
201211081850 METAR ESMX 081850Z 26005KT 220V290 9999 FEW006 SCT008 BKN012 07/06 Q1003=
201211081820 METAR ESMX 081820Z 25005KT 220V280 7000 BR BKN005 OVC009 07/06 Q1002=
201211081750 METAR ESMX 081750Z 23004KT 200V260 9999 FEW006 SCT008 BKN011 07/06 Q1002=
201211081720 METAR ESMX 081720Z 24006KT 200V270 9999 FEW006 SCT007 BKN010 07/06 Q1002 REDZ=
201211081650 METAR ESMX 081650Z 24006KT 7000 DZ SCT006 BKN009 07/06 Q1002=
201211081620 METAR ESMX 081620Z 24006KT 9999 FEW007 SCT010 BKN012 07/06 Q1002=
201211081550 METAR ESMX 081550Z 25005KT 9999 FEW007 SCT011 BKN015 07/06 Q1002=
201211081520 METAR ESMX 081520Z 26006KT 9999 FEW008 BKN011 07/06 Q1002=
201211081450 METAR ESMX 081450Z 25007KT 230V290 9999 FEW009 SCT012 BKN028 07/06 Q1002=
201211081420 METAR ESMX 081420Z 25006KT 210V280 9000 FEW008 SCT011 BKN013 08/06 Q1002=
201211081350 METAR ESMX 081350Z 23007KT 190V260 9999 FEW012 SCT015 BKN024 08/06 Q1001=
201211081320 METAR ESMX 081320Z 24006KT 210V280 9999 FEW007 SCT010 BKN013 08/07 Q1002=
201211081250 METAR ESMX 081250Z 23008KT 200V260 9999 FEW006 SCT008 BKN010 08/07 Q1001=
201211081220 METAR ESMX 081220Z 24008KT 6000 -DZ FEW007 BKN010 08/07 Q1002=
201211081150 METAR ESMX 081150Z 24009KT 190V280 9999 FEW008 BKN011 08/07 Q1002=
201211081120 METAR ESMX 081120Z 23009KT 200V260 9999 -RA FEW007 SCT011 BKN014 08/07 Q1002=
201211081050 METAR ESMX 081050Z 22007KT 5000 -RA FEW006 BKN017 08/08 Q1002=
201211081020 METAR ESMX 081020Z 22009KT 6000 -RA FEW006 BKN009 09/07 Q1002=
201211080950 METAR ESMX 080950Z 23008KT 5000 BR SCT005 BKN007 08/07 Q1002=
201211080920 METAR ESMX 080920Z 23007KT 9999 BKN006 OVC009 08/07 Q1002=
201211080850 METAR ESMX 080850Z 24008KT 210V270 9999 BR BKN008 08/07 Q1002=
201211080820 METAR ESMX 080820Z 22008KT 160V250 9999 FEW005 BKN008 08/07 Q1002=
201211080750 METAR ESMX 080750Z 24009KT 210V270 5000 -RA BKN005 OVC009 08/07 Q1002=
201211080720 METAR ESMX 080720Z 24008KT 6000 -RA BKN005 OVC009 08/07 Q1002=
201211080650 METAR ESMX 080650Z 24010KT 200V270 5000 BR OVC007 08/07 Q1002=
201211080620 METAR ESMX 080620Z 24010KT 9000 BR OVC006 08/07 Q1002=
201211080550 METAR ESMX 080550Z 25009KT 210V280 9999 BR FEW006 SCT008 BKN009 08/07 Q1002=
201211080520 METAR ESMX 080520Z 25010KT 220V280 9999 FEW006 OVC010 08/07 Q1002=
201211080450 METAR ESMX 080450Z 25011KT 4300 BR BKN006 OVC010 08/07 Q1002=
201211080420 METAR ESMX 080420Z AUTO 23010KT 190V290 9999NDV SCT006/// OVC010/// 08/07 Q1002=
201211080350 METAR ESMX 080350Z AUTO 23009KT 190V280 5000NDV BR FEW005/// OVC007/// 08/07 Q1003=
201211080320 METAR ESMX 080320Z AUTO 25010KT 210V290 4000NDV BR FEW006/// BKN007/// BKN010/// 08/07 Q1003=
201211080250 METAR ESMX 080250Z AUTO 25011KT 220V290 2600NDV +DZ FEW006/// SCT008/// BKN009/// 08/07 Q1003=
201211080220 METAR ESMX 080220Z AUTO 25012KT 210V280 3600NDV DZ FEW006/// SCT007/// BKN009/// 08/07 Q1003=
201211080150 METAR ESMX 080150Z AUTO 26011KT 210V290 7000NDV BR FEW006/// OVC007/// 08/07 Q1003=
201211080120 METAR ESMX 080120Z AUTO 25010KT 220V280 4300NDV BR FEW006/// BKN007/// OVC010/// 08/07 Q1003=
201211080050 METAR ESMX 080050Z 25010KT 4300 -RA FEW006 SCT008 BKN009 08/07 Q1003=
201211080020 METAR ESMX 080020Z 26011KT 8000 -RA FEW006 SCT007 BKN009 08/07 Q1003=
201211072350 METAR ESMX 072350Z 26011KT 230V290 3500 -RA FEW005 BKN007 OVC009 08/07 Q1003 REDZ=
201211072320 METAR ESMX 072320Z 25010KT 220V280 5000 -RA FEW006 SCT007 BKN009 08/06 Q1003=
201211072250 METAR ESMX 072250Z 25012KT 2800 BR FEW006 BKN007 OVC009 07/06 Q1003=
201211072220 METAR ESMX 072220Z 25010KT 210V290 5000 BR BKN006 OVC010 07/06 Q1003=
201211072150 METAR ESMX 072150Z 23012KT 200V270 4600 BR FEW006 SCT008 BKN009 07/06 Q1003=
201211072120 METAR ESMX 072120Z 25012G23KT 220V290 9999 FEW008 OVC010 07/06 Q1003=
201211072050 METAR ESMX 072050Z 26011KT 170V300 9999 BKN010 OVC015 07/06 Q1004=
201211072020 METAR ESMX 072020Z 26012KT 9999 -DZ FEW010 BKN012 OVC018 07/06 Q1004=
201211071950 METAR ESMX 071950Z 26010KT 210V280 9999 -RA FEW005 BKN010 OVC017 07/06 Q1004 REDZ=
201211071920 METAR ESMX 071920Z 24008KT 3200 BR FEW004 BKN006 OVC008 06/05 Q1004=
201211071850 METAR ESMX 071850Z 24007KT 210V290 8000 BR FEW005 BKN006 OVC009 06/05 Q1004=
201211071750 METAR ESMX 071750Z 26008KT 9999 -RA BKN005 05/04 Q1004=
201211071720 METAR ESMX 071720Z 26009KT 220V290 9999 -RA BKN012 05/04 Q1004=
201211071650 METAR ESMX 071650Z 24008KT 210V280 9999 -RA SCT014 BKN020 05/03 Q1004=
201211071620 METAR ESMX 071620Z 25007KT 210V280 9999 -RA OVC015 05/02 Q1004=
201211071550 METAR ESMX 071550Z 23007KT 190V260 9999 OVC020 05/02 Q1004=
201211071520 METAR ESMX 071520Z 26007KT 230V290 9999 BKN028 05/01 Q1004=
201211071450 METAR ESMX 071450Z 26009KT 210V290 9999 FEW018 SCT021 05/01 Q1005=
201211071420 METAR ESMX 071420Z 25009KT 210V290 9999 BKN020 05/01 Q1005=
201211071350 METAR ESMX 071350Z 24007KT 200V270 9999 BKN021 05/02 Q1005=
201211071320 METAR ESMX 071320Z 24007KT 210V280 9999 FEW023 SCT034 05/01 Q1004=
201211071250 METAR ESMX 071250Z 25007KT 9999 BKN033 05/01 Q1005=
201211071220 METAR ESMX 071220Z 25008KT 210V280 9999 SCT033 05/00 Q1005=
201211071150 METAR ESMX 071150Z 26007KT 9999 SCT032 05/M00 Q1005=
201211071120 METAR ESMX 071120Z 26007KT 200V280 CAVOK 05/M00 Q1005=
201211071050 METAR ESMX 071050Z 26007KT 230V290 CAVOK 04/00 Q1005=
201211071020 METAR ESMX 071020Z 27006KT 230V300 CAVOK 04/01 Q1005=
201211070950 METAR ESMX 070950Z 27008KT 240V310 9999 FEW008 04/01 Q1004=
201211070920 METAR ESMX 070920Z 27009KT 9999 FEW008 03/01 Q1004=
201211070850 METAR ESMX 070850Z 28007KT CAVOK 03/01 Q1003=
201211070820 METAR ESMX 070820Z 28008KT CAVOK 03/01 Q1003=
201211070750 METAR ESMX 070750Z 30005KT 280V340 CAVOK 02/01 Q1002=
201211070720 METAR ESMX 070720Z 31007KT 9999 FEW019 02/00 Q1002=
201211070650 METAR ESMX 070650Z 31008KT 9999 FEW019 02/01 Q1001=
201211070620 METAR ESMX 070620Z 30006KT 9999 SCT023 03/02 Q1001=
201211070550 METAR ESMX 070550Z 30008KT 9999 SCT025 03/02 Q1000=
201211070520 METAR ESMX 070520Z 31008KT 9999 SCT025 04/02 Q0999=
201211070450 METAR ESMX 070450Z 31008KT 9999 BKN028 04/03 Q0998=
201211070420 METAR ESMX 070420Z AUTO 31007KT 9999NDV FEW032/// 05/03 Q0998=
201211070350 METAR ESMX 070350Z AUTO 32008KT 290V350 9999NDV FEW009/// SCT021/// BKN036/// 06/05 Q0997=
201211070320 METAR ESMX 070320Z AUTO 30007KT 9999NDV FEW008/// SCT011/// BKN013/// 06/05 Q0997=
201211070250 METAR ESMX 070250Z AUTO 31007KT 260V340 4500NDV DZ FEW003/// BKN005/// OVC007/// 06/05 Q0996=
201211070220 METAR ESMX 070220Z AUTO 28006KT 8000NDV BR OVC003/// 06/05 Q0995=
201211070150 METAR ESMX 070150Z AUTO 27005KT 220V290 3900NDV BR FEW003/// OVC005/// 05/05 Q0995=
201211070120 METAR ESMX 070120Z AUTO 23005KT 190V270 2600NDV DZ FEW003/// BKN004/// OVC008/// 05/04 Q0995=
201211070050 METAR ESMX 070050Z 24006KT 4300 BR OVC003 05/04 Q0995=
201211070020 METAR ESMX 070020Z 23007KT 3100 BR OVC004 05/04 Q0995=
201211062350 METAR ESMX 062350Z 21008KT 6000 BR OVC004 05/04 Q0994=
201211062320 METAR ESMX 062320Z 21010KT 6000 BR BKN005 05/04 Q0995=
201211062250 METAR ESMX 062250Z 21010KT 170V240 7000 FEW006 OVC007 05/04 Q0995=
201211062220 METAR ESMX 062220Z 21009KT 170V260 9999 BKN007 05/03 Q0996=
201211062150 METAR ESMX 062150Z 22009KT 190V250 9999 FEW006 OVC008 05/04 Q0996=
201211062120 METAR ESMX 062120Z 22009KT 9999 SCT005 BKN007 05/04 Q0996=
201211062050 METAR ESMX 062050Z 22008KT 9999 FEW005 BKN007 OVC011 04/03 Q0997=
201211062020 METAR ESMX 062020Z 22008KT 9999 FEW005 BKN007 OVC011 04/03 Q0997=
201211061950 METAR ESMX 061950Z 21009KT 6000 BR FEW006 OVC008 04/03 Q0997 REDZ=
201211061920 METAR ESMX 061920Z 21008KT 9999 FEW009 SCT011 BKN014 05/03 Q0998=
201211061850 METAR ESMX 061850Z 21010KT 9999 FEW006 SCT012 BKN014 04/03 Q0998=
201211061820 METAR ESMX 061820Z 22010KT 9999 FEW009 SCT011 BKN014 04/03 Q0998=
201211061750 METAR ESMX 061750Z 21008KT 9999 FEW006 SCT012 BKN022 04/03 Q0999 REUP=
201211061720 METAR ESMX 061720Z 22009KT 9999 SCT008 BKN027 04/02 Q0999=
201211061650 METAR ESMX 061650Z 22008KT 9999 FEW010 BKN017 03/02 Q1000=
201211061620 METAR ESMX 061620Z 21008KT 9999 FEW016 SCT039 04/01 Q1000=
201211061550 METAR ESMX 061550Z 23007KT 9999 FEW015 SCT033 04/01 Q1000=
201211061520 METAR ESMX 061520Z 24007KT 210V270 9999 BKN029 04/01 Q1000=
201211061450 METAR ESMX 061450Z 23007KT 200V260 9999 FEW027 04/01 Q1001=
201211061420 METAR ESMX 061420Z 26008KT 220V290 9999 FEW029 04/01 Q1001=
201211061350 METAR ESMX 061350Z 25007KT 9999 FEW023 04/00 Q1001=
201211061320 METAR ESMX 061320Z 27009KT 220V300 9999 FEW019 SCT021 BKN025 04/00 Q1002=
201211061250 METAR ESMX 061250Z 26008KT 210V290 9999 FEW019 BKN022 BKN027 04/00 Q1002=
201211061220 METAR ESMX 061220Z 27008KT 230V300 9999 BKN020 04/00 Q1002=
201211061150 METAR ESMX 061150Z 27009KT 9999 BKN018 04/00 Q1002=
201211061120 METAR ESMX 061120Z 28010KT 240V300 9999 FEW020 04/00 Q1002=
201211061050 METAR ESMX 061050Z 27009KT 9999 FEW020 04/M00 Q1002=
201211061020 METAR ESMX 061020Z 29006KT 230V330 9999 FEW014 SCT017 03/00 Q1002=
201211060950 METAR COR ESMX 060950Z 26008KT 210V310 9999 FEW013 SCT016 02/00 Q1002=
201211060920 METAR ESMX 060920Z 27008KT 9999 SCT011 03/00 Q1002=
201211060850 METAR ESMX 060850Z 28006KT 240V320 9999 SCT011 03/01 Q1002=
201211060820 METAR ESMX 060820Z 27006KT 230V310 9999 SCT013 02/01 Q1002=
201211060750 METAR ESMX 060750Z 29006KT 260V320 9999 FEW007 BKN013 02/01 Q1002=
201211060720 METAR ESMX 060720Z 28005KT 9999 FEW011 BKN019 02/01 Q1001=
201211060650 METAR ESMX 060650Z 28005KT 9999 BKN035 02/01 Q1001=
201211060620 METAR ESMX 060620Z 29005KT 250V320 9999 FEW011 OVC034 02/01 Q1001=
201211060550 METAR ESMX 060550Z 30005KT 260V350 9999 SCT009 OVC035 02/01 Q1001=
201211060520 METAR ESMX 060520Z 31006KT 9999 -RA FEW007 BKN010 02/01 Q1001=
201211060450 METAR COR ESMX 060450Z 31005KT 270V340 9999 -RA SCT010 BKN025 02/01 Q1000=
201211060420 METAR ESMX 060420Z AUTO 31005KT 9999NDV OVC028/// 02/01 Q1000=
201211060350 METAR ESMX 060350Z AUTO 30005KT 260V340 9999NDV BKN026/// BKN032/// 02/01 Q1000=
201211060320 METAR ESMX 060320Z AUTO 31007KT 9999NDV FEW009/// SCT015/// BKN017/// 02/01 Q1000=
201211060250 METAR ESMX 060250Z AUTO 31008KT 9999NDV FEW008/// SCT014/// OVC016/// 02/01 Q1000=
201211060220 METAR ESMX 060220Z AUTO 31007KT 9999NDV FEW008/// SCT013/// OVC027/// 02/01 Q0999=
201211060150 METAR ESMX 060150Z AUTO 30008KT 9999NDV BKN009/// OVC013/// 03/02 Q0999=
201211060120 METAR ESMX 060120Z AUTO 31005KT 9999NDV FEW008/// SCT012/// BKN017/// 03/02 Q0999=
201211060050 METAR ESMX 060050Z 33005KT 300V360 9999 FEW007 SCT009 BKN011 03/02 Q0999=
201211060020 METAR ESMX 060020Z 33007KT 9999 OVC008 03/02 Q0999=
201211052350 METAR ESMX 052350Z 31006KT 290V350 9999 OVC010 03/02 Q0999=
201211052320 METAR ESMX 052320Z 31005KT 280V340 9999 FEW009 OVC014 03/02 Q0998=
201211052250 METAR ESMX 052250Z 33006KT 300V360 9999 FEW007 OVC012 03/02 Q0998=
201211052220 METAR ESMX 052220Z 31005KT 9999 FEW006 SCT007 OVC011 03/02 Q0998=
201211052150 METAR ESMX 052150Z 31005KT 9999 FEW006 SCT007 BKN010 03/02 Q0998=
201211052120 METAR ESMX 052120Z 32005KT 9999 DZ SCT006 BKN008 OVC014 03/02 Q0998=
201211052050 METAR ESMX 052050Z 31005KT 9999 DZ FEW005 SCT007 BKN009 03/02 Q0997=
201211052020 METAR ESMX 052020Z 34006KT 9999 -DZ FEW008 BKN010 OVC026 03/02 Q0997=
201211051950 METAR ESMX 051950Z 34007KT 9999 FEW007 SCT009 BKN012 03/02 Q0997=
201211051920 METAR ESMX 051920Z 34006KT 9999 -DZ FEW007 BKN012 OVC017 03/02 Q0997=
201211051850 METAR ESMX 051850Z 35007KT 9999 FEW009 BKN012 03/02 Q0997 REDZ=
201211051820 METAR ESMX 051820Z 35007KT 9999 -DZ FEW010 SCT013 03/02 Q0996=
201211051750 METAR ESMX 051750Z 01008KT 9999 -DZ FEW012 03/02 Q0996=
201211051720 METAR ESMX 051720Z 35009KT 9999 -DZ FEW010 SCT014 03/02 Q0996=
201211051650 METAR ESMX 051650Z 36006KT 9999 -DZ FEW017 BKN025 OVC064 03/02 Q0996=
201211051620 METAR ESMX 051620Z 35007KT 9999 -DZ FEW015 SCT018 BKN021 03/02 Q0996=
201211051550 METAR ESMX 051550Z 01010KT 9999 -DZ FEW010 SCT016 BKN033 03/02 Q0995=
201211051520 METAR ESMX 051520Z 36007KT 9999 DZ FEW008 BKN011 04/02 Q0995=
201211051450 METAR ESMX 051450Z 01006KT 9999 FEW008 SCT009 BKN012 04/02 Q0995=
201211051420 METAR ESMX 051420Z 03007KT 9999 -DZ FEW015 SCT017 BKN062 04/03 Q0995=
201211051350 METAR ESMX 051350Z 03006KT 9999 -DZ FEW010 BKN016 04/03 Q0995=
201211051320 METAR ESMX 051320Z 04008KT 9999 FEW010 BKN015 04/03 Q0995 RERA=
201211051250 METAR ESMX 051250Z 04007KT 9999 -RA FEW008 BKN010 04/03 Q0995=
201211051220 METAR ESMX 051220Z 02007KT 9999 -RA FEW006 BKN008 04/03 Q0995=
201211051150 METAR ESMX 051150Z 03008KT 360V060 9999 BKN006 03/02 Q0995=
201211051120 METAR ESMX 051120Z 03008KT 9999 FEW006 OVC008 03/02 Q0995 RERA=
201211051050 METAR ESMX 051050Z 04008KT 010V070 9999 -RA FEW006 BKN008 03/02 Q0995=
201211051020 METAR ESMX 051020Z 05008KT 020V080 9999 -RA FEW006 BKN008 03/02 Q0996=
201211050950 METAR ESMX 050950Z 04006KT 360V080 9999 -RA FEW005 BKN008 03/02 Q0996=
201211050920 METAR ESMX 050920Z 05008KT 9999 -RA BKN006 BKN012 02/02 Q0996=
201211050850 METAR ESMX 050850Z 04006KT 010V070 9999 -RA BKN005 02/02 Q0996=
201211050820 METAR ESMX 050820Z 04007KT 010V080 9999 -RA SCT006 BKN019 02/02 Q0996=
201211050750 METAR ESMX 050750Z 05006KT 9999 -RA SCT006 BKN020 02/02 Q0996=
201211050720 METAR ESMX 050720Z 04006KT 360V070 9999 -RA BKN005 BKN015 02/02 Q0996=
201211050650 METAR ESMX 050650Z 04006KT 010V070 9999 -RA FEW004 BKN017 02/02 Q0996=
201211050620 METAR ESMX 050620Z 04005KT 020V080 9999 -RA BKN016 02/02 Q0996=
201211050550 METAR ESMX 050550Z 04004KT 360V090 9999 -RA SCT015 02/02 Q0997=
201211050520 METAR ESMX 050520Z 08005KT 040V120 9999 -RA FEW006 BKN008 02/02 Q0997=
201211050450 METAR ESMX 050450Z 12003KT 080V160 9999 -RA SCT002 BKN005 03/02 Q0997=
201211050420 METAR ESMX 050420Z AUTO 14003KT 100V190 4800NDV RA BKN001/// 03/02 Q0997=
201211050350 METAR ESMX 050350Z AUTO 04003KT 010V120 4800NDV -DZ VV002 02/02 Q0997=
201211050320 METAR ESMX 050320Z AUTO 05003KT 020V080 0900NDV R01/P2000N R19/P2000N FG VV001 02/02 Q0997=
201211050250 METAR ESMX 050250Z AUTO 03003KT 010V070 0450NDV R01/1500U R19/P2000N FG VV001 02/02 Q0997=
201211050220 METAR ESMX 050220Z AUTO 05003KT 020V080 0300NDV R01/1100N R19/1400N FG VV001 02/02 Q0998=
201211050150 METAR ESMX 050150Z AUTO 05003KT 020V080 0250NDV R01/0800N R19/1100N FG VV001 02/02 Q0998=
201211050120 METAR ESMX 050120Z AUTO VRB02KT 0200NDV R01/0800 R19/0900N FG VV001 02/02 Q0999=
201211050050 METAR ESMX 050050Z VRB02KT 0250 R01/0900V1600N R19/0900D FG VV002 02/02 Q0998=
201211050020 METAR ESMX 050020Z VRB01KT 0150 R01/0650N R19/0750 FG VV002 02/02 Q0999=
201211042350 METAR ESMX 042350Z VRB02KT 0150 R01/0650N R19/0750N FG VV002 02/02 Q0999=
201211042320 METAR ESMX 042320Z 15003KT 110V170 0250 R01/0900N R19/0900N FG VV002 03/02 Q1000=
201211042250 METAR ESMX 042250Z 14004KT 100V180 2400 BR BKN002 03/02 Q1000=
201211042220 METAR ESMX 042220Z 13003KT 100V170 1400 R01/P2000N R19/P2000N BKN002 03/02 Q1000=
201211042150 METAR ESMX 042150Z 15004KT 110V180 5000 BR BKN001 03/02 Q1000=
201211042120 METAR ESMX 042120Z VRB01KT 9999 FEW002 02/02 Q1000=
201211042050 METAR ESMX 042050Z 16002KT 7000 BR FEW018 03/02 Q1000=
201211042020 METAR ESMX 042020Z 16004KT 120V180 9999 FEW019 SCT029 03/02 Q1001=
201211041950 METAR ESMX 041950Z 16005KT 130V190 9999 SCT017 03/02 Q1001=
201211041920 METAR ESMX 041920Z 15005KT 2000 BR NSC 03/02 Q1000=
201211041850 METAR ESMX 041850Z 16003KT 9999 R01/P2000N R19/P2000D MIFG NSC 02/02 Q1000=
201211041820 METAR ESMX 041820Z 16004KT CAVOK 03/03 Q1000=
201211041750 METAR ESMX 041750Z 21002KT 9999 FEW030 03/02 Q1000=
201211041720 METAR ESMX 041720Z 20006KT 160V230 9999 FEW015 BKN038 04/03 Q1001=
201211041650 METAR COR ESMX 041650Z 19005KT 9999 -RA FEW026 BKN039 05/04 Q1001=
201211041620 METAR ESMX 041620Z 20005KT 9999 FEW010 SCT025 BKN035 05/04 Q1000=
201211041550 METAR ESMX 041550Z 21006KT 9999 FEW013 BKN022 05/04 Q1000=
201211041520 METAR ESMX 041520Z 20005KT 9999 FEW009 BKN023 05/04 Q1000=
201211041450 METAR ESMX 041450Z 19005KT 9999 FEW009 OVC024 05/04 Q1000=
201211041420 METAR ESMX 041420Z 20007KT 9000 -DZ SCT005 BKN014 05/04 Q0999=
201211041350 METAR ESMX 041350Z 20007KT 9999 SCT007 BKN025 05/04 Q0999=
201211041320 METAR ESMX 041320Z 20007KT 9999 SCT006 OVC010 05/04 Q0999=
201211041250 METAR ESMX 041250Z 20008KT 9999 FEW008 BKN011 05/04 Q0999=
201211041220 METAR ESMX 041220Z 21009KT 9999 BKN008 BKN015 05/04 Q0999=
201211041150 METAR ESMX 041150Z 21005KT 180V250 9999 -DZ BKN006 BKN020 06/05 Q0999=
201211041120 METAR ESMX 041120Z 19004KT 150V210 9999 SCT004 BKN032 06/05 Q0999=
201211041050 METAR ESMX 041050Z 20006KT 9999 BKN005 05/04 Q0998=
201211041020 METAR ESMX 041020Z 17004KT 140V210 9999 OVC004 05/04 Q0998=
201211040950 METAR ESMX 040950Z 18004KT 9999 OVC004 05/04 Q0998=
201211040920 METAR ESMX 040920Z AUTO 17003KT 140V210 9999NDV FEW002/// OVC004/// 04/04 Q0998=
201211040850 METAR ESMX 040850Z AUTO 15003KT 110V180 9999NDV DZ FEW003/// SCT004/// BKN006/// 04/03 Q0998=
201211040820 METAR ESMX 040820Z AUTO VRB02KT 8000NDV -RA FEW004/// SCT006/// BKN008/// 04/03 Q0998=
201211040750 METAR ESMX 040750Z AUTO VRB02KT 9999NDV DZ FEW010/// BKN014/// BKN027/// 04/03 Q0998=
201211040720 METAR ESMX 040720Z AUTO 16004KT 110V190 7000NDV RA FEW010/// SCT013/// 04/03 Q0998 REDZ=
201211040650 METAR ESMX 040650Z AUTO 15003KT 110V200 9999NDV DZ FEW007/// OVC012/// 04/03 Q0998=
201211040620 METAR ESMX 040620Z AUTO 17005KT 9999NDV -RA FEW005/// SCT007/// BKN011/// 03/03 Q0998=
201211040550 METAR ESMX 040550Z AUTO 17004KT 110V200 6000NDV -RA SCT002/// BKN004/// OVC006/// 04/03 Q0997 REDZ=
201211040520 METAR ESMX 040520Z AUTO 13003KT 5000NDV DZ FEW002/// SCT015/// BKN021/// 04/03 Q0997=
201211040450 METAR ESMX 040450Z AUTO 13004KT 090V180 4000NDV RA OVC002/// 04/03 Q0997 REDZ=
201211040420 METAR ESMX 040420Z AUTO 14003KT 110V190 5000NDV BR OVC002/// 04/03 Q0997=
201211040350 METAR ESMX 040350Z AUTO 12003KT 090V160 4000NDV BR OVC001/// 04/03 Q0997=
201211040320 METAR ESMX 040320Z AUTO 11003KT 050V170 2500NDV BR OVC001/// 04/03 Q0997=
201211040250 METAR ESMX 040250Z AUTO 11003KT 070V190 2400NDV BR OVC001/// 04/03 Q0997=
201211040220 METAR ESMX 040220Z AUTO 12003KT 060V160 3000NDV BR OVC001/// 04/03 Q0997=
201211040150 METAR ESMX 040150Z AUTO VRB02KT 2700NDV BR OVC001/// 04/03 Q0998=
201211040120 METAR ESMX 040120Z AUTO 12003KT 050V170 3200NDV BR OVC002/// 04/03 Q0998=
201211040050 METAR ESMX 040050Z AUTO 08001KT 5000NDV BR OVC003/// 03/02 Q0998=
201211040020 METAR ESMX 040020Z AUTO 17003KT 130V200 6000NDV BR OVC004/// 03/02 Q0998=
201211032350 METAR ESMX 032350Z AUTO 17003KT 130V200 7000NDV BR FEW003/// OVC004/// 03/02 Q0998=
201211032320 METAR ESMX 032320Z AUTO 18003KT 150V210 7000NDV BR SCT002/// BKN004/// BKN006/// 03/02 Q0998=
201211032250 METAR ESMX 032250Z AUTO 20002KT 2800NDV BR BKN003/// OVC005/// 03/02 Q0998=
201211032220 METAR ESMX 032220Z AUTO 18004KT 8000NDV BR OVC003/// 03/02 Q0998=
201211032150 METAR ESMX 032150Z AUTO 20005KT 7000NDV BR FEW005/// BKN006/// BKN009/// 03/02 Q0998=
201211032120 METAR ESMX 032120Z AUTO 20005KT 9000NDV FEW008/// SCT009/// BKN010/// 03/02 Q0998=
201211032050 METAR ESMX 032050Z AUTO 20005KT 9000NDV FEW009/// BKN011/// 04/02 Q0998=
201211032020 METAR ESMX 032020Z AUTO 19006KT 9000NDV BR FEW005/// BKN007/// OVC010/// 04/03 Q0998=
201211031950 METAR ESMX 031950Z AUTO 15005KT 110V210 9000NDV BR FEW006/// OVC017/// 05/04 Q0998=
201211031920 METAR ESMX 031920Z AUTO 15004KT 9999NDV FEW005/// OVC020/// 05/04 Q0998=
201211031850 METAR ESMX 031850Z AUTO 17005KT 140V210 9999NDV FEW005/// OVC022/// 05/04 Q0998=
201211031820 METAR ESMX 031820Z AUTO 18005KT 9999NDV FEW005/// SCT006/// OVC024/// 05/04 Q0998=
201211031750 METAR ESMX 031750Z AUTO 17005KT 9999NDV FEW003/// SCT005/// BKN021/// 05/04 Q0998=
201211031720 METAR ESMX 031720Z AUTO 17004KT 140V200 9999NDV FEW004/// SCT006/// BKN008/// 04/03 Q0998=
201211031650 METAR ESMX 031650Z AUTO 15004KT 9999NDV FEW006/// SCT012/// BKN029/// 05/04 Q0997=
201211031620 METAR ESMX 031620Z AUTO 17004KT 9999NDV FEW017/// SCT021/// BKN025/// 05/04 Q0998=
201211031550 METAR ESMX 031550Z AUTO 16003G16KT 100V190 9999NDV BKN024/// BKN037/// 05/04 Q0997=
201211031520 METAR ESMX 031520Z AUTO 17003KT 9999NDV FEW015/// SCT025/// OVC030/// 05/04 Q0997=
201211031450 METAR ESMX 031450Z AUTO 14003KT 120V190 9999NDV FEW009/// SCT012/// BKN015/// 05/04 Q0997=
201211031420 METAR ESMX 031420Z AUTO VRB02KT 9999NDV FEW006/// SCT015/// BKN019/// 05/04 Q0997=
201211031350 METAR ESMX 031350Z AUTO 18004KT 9999NDV FEW007/// BKN026/// 05/04 Q0997=
201211031320 METAR ESMX 031320Z AUTO 18003KT 150V210 9999NDV -DZ FEW023/// SCT030/// 05/04 Q0997=
201211031250 METAR ESMX 031250Z AUTO VRB02KT 9999NDV -RA NCD 05/04 Q0997=
201211031220 METAR ESMX 031220Z AUTO 16004KT 110V200 9999NDV -RA FEW006/// SCT009/// BKN017/// 05/04 Q0997=
201211031150 METAR ESMX 031150Z AUTO 17004KT 130V200 9999NDV -RA FEW009/// OVC020/// 05/04 Q0998 REDZ=
201211031120 METAR ESMX 031120Z AUTO 16004KT 130V200 9999NDV DZ FEW020/// 06/04 Q0997=
201211031050 METAR ESMX 031050Z 15003KT 100V180 9999 FEW023 06/03 Q0997=
201211031020 METAR ESMX 031020Z 15003KT 110V190 9999 -DZ FEW022 SCT075 06/04 Q0997=
201211030950 METAR ESMX 030950Z 14004KT 090V190 9999 -DZ FEW015 BKN021 OVC031 05/03 Q0998=
201211030920 METAR ESMX 030920Z 15005KT 100V170 9999 FEW020 SCT030 BKN036 05/03 Q0997=
201211030850 METAR ESMX 030850Z 16004KT 120V210 9999 FEW008 SCT011 BKN067 05/04 Q0997=
201211030820 METAR ESMX 030820Z AUTO 14003KT 090V170 9000NDV BR FEW004/// SCT005/// BKN009/// 05/04 Q0997=
201211030750 METAR ESMX 030750Z AUTO 13003KT 080V160 7000NDV BR FEW005/// BKN008/// OVC017/// 05/04 Q0997=
201211030720 METAR ESMX 030720Z AUTO 14003KT 090V180 7000NDV BR FEW011/// BKN017/// 05/04 Q0997=
201211030650 METAR ESMX 030650Z AUTO 14004KT 100V180 6000NDV BR FEW004/// SCT011/// BKN070/// 05/04 Q0997=
201211030620 METAR ESMX 030620Z AUTO 13004KT 090V170 7000NDV BR SCT004/// BKN070/// 05/04 Q0997=
201211030550 METAR ESMX 030550Z AUTO 14004KT 110V170 8000NDV BR FEW004/// OVC069/// 05/04 Q0997=
201211030520 METAR ESMX 030520Z AUTO 13005KT 100V170 7000NDV BR BKN070/// 04/04 Q0997=
201211030450 METAR ESMX 030450Z AUTO 14004KT 110V180 7000NDV BR OVC068/// 04/04 Q0997=
201211030420 METAR ESMX 030420Z AUTO 13005KT 100V170 6000NDV BR FEW003/// OVC066/// 04/03 Q0997=
201211030350 METAR ESMX 030350Z AUTO 15004KT 110V180 8000NDV BR FEW006/// BKN069/// 04/03 Q0997=
201211030320 METAR ESMX 030320Z AUTO 14005KT 110V180 9000NDV BKN068/// 04/03 Q0997=
201211030250 METAR ESMX 030250Z AUTO 15005KT 9999NDV BKN063/// 04/03 Q0997=
201211030220 METAR ESMX 030220Z AUTO 14004KT 100V170 9999NDV BKN062/// 04/03 Q0998=
201211030150 METAR ESMX 030150Z AUTO 14004KT 100V190 9999NDV OVC054/// 04/03 Q0998=
201211030120 METAR ESMX 030120Z AUTO 15005KT 110V190 9999NDV BKN056/// 04/03 Q0998=
201211030050 METAR ESMX 030050Z AUTO 15004KT 110V190 9999NDV OVC056/// 04/03 Q0998=
201211030020 METAR ESMX 030020Z AUTO 14005KT 110V180 9999NDV FEW023/// OVC058/// 04/03 Q0998=
201211022350 METAR ESMX 022350Z AUTO 14005KT 100V190 9999NDV FEW023/// SCT028/// OVC062/// 04/03 Q0998=
201211022320 METAR ESMX 022320Z AUTO 16006KT 120V190 9999NDV FEW021/// BKN027/// OVC065/// 05/03 Q0998=
201211022250 METAR ESMX 022250Z AUTO 15005KT 120V180 9999NDV FEW009/// OVC028/// 05/03 Q0998=
201211022220 METAR ESMX 022220Z AUTO 16005KT 130V190 9999NDV BKN015/// OVC026/// 04/03 Q0998=
201211022150 METAR ESMX 022150Z AUTO 15005KT 110V190 9999NDV FEW016/// SCT020/// BKN027/// 04/03 Q0997=
201211022120 METAR ESMX 022120Z AUTO 16005KT 120V200 9999NDV FEW016/// SCT019/// BKN026/// 04/03 Q0997=
201211022050 METAR ESMX 022050Z AUTO 16005KT 140V200 9999NDV FEW007/// SCT019/// BKN022/// 04/03 Q0998 REDZ=
201211022020 METAR ESMX 022020Z AUTO 16005KT 140V200 9999NDV FEW009/// OVC052/// 04/03 Q0997=
201211021950 METAR ESMX 021950Z 16006KT 9999 FEW010 SCT020 BKN055 04/03 Q0997=
201211021920 METAR ESMX 021920Z 16006KT CAVOK 04/03 Q0997=
201211021850 METAR ESMX 021850Z 16005KT 130V190 CAVOK 04/03 Q0997=
201211021820 METAR ESMX 021820Z 16006KT 120V190 9999 FEW043 BKN050 05/03 Q0997=
201211021750 METAR ESMX 021750Z 17006KT 130V190 9999 FEW031 BKN047 05/03 Q0997=
201211021720 METAR ESMX 021720Z 16008KT 120V210 9999 FEW030 SCT048 05/03 Q0997=
201211021650 METAR ESMX 021650Z 16006KT 9999 SCT043 05/03 Q0996=
201211021620 METAR ESMX 021620Z 17006KT 9999 FEW024 SCT042 06/03 Q0996=
201211021550 METAR ESMX 021550Z 18007KT 9999 FEW037 SCT045 06/03 Q0996=
201211021520 METAR ESMX 021520Z 18009KT 140V200 9999 BKN040 06/03 Q0995=
201211021450 METAR ESMX 021450Z 18011KT 140V200 9999 SCT020 BKN039 07/04 Q0995=
201211021420 METAR ESMX 021420Z 19012KT 9999 FEW016 SCT022 BKN036 07/04 Q0995=
201211021350 METAR ESMX 021350Z 19009KT 9999 FEW016 SCT021 OVC034 07/05 Q0994=
201211021320 METAR ESMX 021320Z 19007KT 150V210 9999 SCT015 BKN035 07/05 Q0994=
201211021250 METAR ESMX 021250Z 19009KT 9999 FEW013 SCT017 BKN023 07/05 Q0994=
201211021220 METAR ESMX 021220Z 19010KT 160V230 9999 FEW012 SCT015 BKN018 07/05 Q0993=
201211021150 METAR ESMX 021150Z 18010KT 9999 FEW010 SCT012 BKN015 07/05 Q0993=
201211021120 METAR ESMX 021120Z 18012KT 9999 SCT010 OVC018 07/05 Q0993=
201211021050 METAR ESMX 021050Z 17011KT 140V210 9999 FEW011 SCT014 BKN017 07/05 Q0993=
201211021020 METAR ESMX 021020Z 17010KT 120V200 9999 FEW011 BKN013 OVC021 07/04 Q0992=
201211020950 METAR ESMX 020950Z 17010KT 140V200 9999 FEW012 BKN017 OVC046 07/04 Q0992=
201211020920 METAR ESMX 020920Z 17009KT 130V210 9999 FEW010 BKN040 07/05 Q0991=
201211020850 METAR ESMX 020850Z 17009KT 140V210 9999 FEW012 BKN045 06/05 Q0991=
201211020820 METAR ESMX 020820Z 18009KT 140V210 9999 SCT012 BKN020 OVC039 06/04 Q0991=
201211020750 METAR ESMX 020750Z 17009KT 140V200 9999 FEW013 SCT016 BKN040 06/05 Q0990=
201211020720 METAR ESMX 020720Z 17009KT 140V210 9999 FEW013 SCT016 BKN020 06/05 Q0990=
201211020650 METAR ESMX 020650Z 17009KT 130V200 9999 FEW010 BKN013 OVC018 07/05 Q0990=
201211020620 METAR ESMX 020620Z 18008KT 150V210 9999 FEW009 BKN013 OVC018 07/05 Q0989=
201211020550 METAR ESMX 020550Z 18008KT 9999 FEW011 SCT014 BKN020 07/05 Q0989=
201211020520 METAR ESMX 020520Z 17009KT 140V200 9999 FEW009 BKN013 07/05 Q0988=
201211020450 METAR ESMX 020450Z 17009KT 7000 BR FEW008 BKN012 07/05 Q0988=
201211020420 METAR ESMX 020420Z AUTO 18009KT 140V200 6000NDV BR FEW006/// SCT009/// BKN014/// 07/06 Q0988=
201211020350 METAR ESMX 020350Z AUTO 18010KT 150V210 4200NDV -DZ BKN003/// OVC006/// 07/06 Q0987=
201211020320 METAR ESMX 020320Z AUTO 16008KT 120V190 3800NDV BR OVC003/// 07/06 Q0987=
201211020250 METAR ESMX 020250Z AUTO 15009KT 120V190 4600NDV BR FEW004/// BKN005/// OVC007/// 07/05 Q0987=
201211020220 METAR ESMX 020220Z AUTO 16010KT 4700NDV DZ FEW003/// SCT005/// OVC006/// 07/06 Q0987=
201211020150 METAR ESMX 020150Z 15008KT 110V200 5000 BR BKN002 OVC006 06/06 Q0986=
201211020120 METAR ESMX 020120Z 16008KT 130V210 4800 BR OVC002 06/05 Q0986=
201211020050 METAR ESMX 020050Z 16008KT 120V190 5000 BR OVC003 06/05 Q0986=
201211020020 METAR ESMX 020020Z 15008KT 100V200 9999 OVC003 06/05 Q0986=
201211012350 METAR ESMX 012350Z 16007KT 110V200 9999 OVC004 06/05 Q0986=
201211012320 METAR ESMX 012320Z 15006KT 110V180 9999 DZ FEW005 BKN006 05/04 Q0987=
201211012250 METAR ESMX 012250Z 15006KT 110V190 9999 DZ BKN005 05/04 Q0987=
201211012220 METAR ESMX 012220Z 14005KT 100V170 9999 DZ FEW005 BKN007 05/04 Q0987=
201211012150 METAR ESMX 012150Z 16006KT 120V190 9999 DZ BKN006 05/04 Q0987=
201211012120 METAR ESMX 012120Z 16006KT 120V190 9000 DZ FEW006 SCT008 BKN009 05/04 Q0987=
201211012050 METAR ESMX 012050Z 17008KT 140V200 9999 DZ BKN015 05/04 Q0987=
201211012020 METAR ESMX 012020Z 16007KT 110V190 9000 -RA FEW006 BKN008 05/04 Q0987=
201211011950 METAR ESMX 011950Z 13005KT 080V180 9999 -RA FEW007 BKN008 05/04 Q0987=
201211011920 METAR ESMX 011920Z 13006KT 080V170 9999 -RA FEW007 SCT009 BKN011 05/04 Q0988=
201211011850 METAR ESMX 011850Z 14006KT 080V210 8000 -RA FEW007 SCT010 BKN014 05/04 Q0988=
201211011820 METAR ESMX 011820Z 14006KT 080V200 7000 -RA FEW007 BKN010 05/04 Q0988=
201211011750 METAR ESMX 011750Z 13007KT 070V180 9000 -RA FEW010 BKN013 OVC017 05/04 Q0989=
201211011720 METAR ESMX 011720Z 13006KT 060V200 8000 -RA BKN013 OVC019 06/04 Q0989=
201211011650 METAR ESMX 011650Z 13007KT 050V190 9999 -RA FEW010 BKN013 06/04 Q0990=
201211011620 METAR ESMX 011620Z 11007KT 050V170 8000 -RA FEW010 BKN013 06/04 Q0989 REDZ=
201211011550 METAR ESMX 011550Z 12008KT 070V170 4800 -RA BKN013 OVC020 06/04 Q0990 REUP=
201211011520 METAR ESMX 011520Z 12008KT 020V180 9999 SCT015 BKN019 OVC021 07/04 Q0990=
201211011450 METAR ESMX 011450Z 12007KT 020V170 9999 SCT017 BKN021 OVC058 07/03 Q0991=
201211011420 METAR ESMX 011420Z 13008KT 040V170 9999 FEW018 SCT021 BKN024 07/03 Q0991=
201211011350 METAR ESMX 011350Z 13007KT 060V180 9999 SCT020 BKN065 07/03 Q0992=
201211011320 METAR ESMX 011320Z VRB07KT 9999 BKN017 07/03 Q0993=
201211011250 METAR ESMX 011250Z 13009KT 060V180 9999 BKN017 07/03 Q0993=
201211011220 METAR ESMX 011220Z 13008KT 080V190 9999 BKN016 07/03 Q0994=
