##########################################################
# Query made at 04/19/2024 21:27:53 UTC
# Time interval: from 05/01/2012 12:00  to 05/31/2012 12:59  UTC
##########################################################

##########################################################
# ESMX, Vaxjo (Sweden)
# WMO index: 02641. WIGOS ID: 0-20000-0-02648
# Latitude 56-51N. Longitude 014-50E. Altitude 199 m.
##########################################################

201205311250 METAR ESMX 311250Z 24010KT 200V290 9999 FEW028 SCT035 BKN044 11/05 Q1010=
201205311150 METAR ESMX 311150Z 27009KT 9999 FEW020CB SCT030 BKN040 11/05 Q1011=
201205311120 METAR ESMX 311120Z 24009KT 9999 FEW020CB BKN025 10/05 Q1011=
201205311050 METAR ESMX 311050Z 20007KT 9999 FEW015 OVC024 10/07 Q1011=
201205311020 METAR ESMX 311020Z 21007KT 9999 SCT020CB BKN033 09/08 Q1011 RESHRA=
201205310950 METAR ESMX 310950Z 23008KT 200V260 9999 -SHRA SCT020CB BKN030 10/05 Q1011=
201205310920 METAR ESMX 310920Z 30005KT 260V330 9999 FEW024 BKN040 OVC050 11/06 Q1011=
201205310850 METAR ESMX 310850Z 28007KT 240V310 9999 -SHRA FEW025CB BKN057 12/05 Q1011=
201205310820 METAR ESMX 310820Z 25006KT 210V290 9999 FEW020 SCT025 OVC050 11/06 Q1011=
201205310750 METAR ESMX 310750Z 24005KT 200V280 9999 SCT025 BKN050 11/06 Q1011=
201205310720 METAR ESMX 310720Z 24004KT 180V300 9999 FEW030TCU BKN080 12/06 Q1011=
201205310650 METAR ESMX 310650Z 27005KT 240V300 9999 FEW040 BKN080 10/06 Q1011=
201205310620 METAR ESMX 310620Z 25004KT 220V290 9999 FEW040 BKN070 10/07 Q1012=
201205310550 METAR ESMX 310550Z VRB02KT 9999 FEW045 BKN060 09/06 Q1012=
201205310520 METAR ESMX 310520Z VRB02KT CAVOK 08/06 Q1012=
201205310450 METAR ESMX 310450Z 24003KT CAVOK 07/06 Q1012=
201205310420 METAR ESMX 310420Z 21004KT CAVOK 07/06 Q1012=
201205310350 METAR ESMX 310350Z 20003KT CAVOK 06/05 Q1012=
201205310320 METAR ESMX 310320Z AUTO 21003KT 9999NDV BKN071/// 06/05 Q1012=
201205310250 METAR ESMX 310250Z AUTO VRB02KT 9999NDV BKN063/// 04/04 Q1012=
201205310220 METAR ESMX 310220Z AUTO 25003KT 9999NDV NCD 05/04 Q1012=
201205310150 METAR ESMX 310150Z AUTO 25003KT 9999NDV NCD 05/04 Q1012=
201205310120 METAR ESMX 310120Z AUTO 26004KT 9999NDV NCD 05/04 Q1012=
201205310050 METAR ESMX 310050Z AUTO 25004KT 9999NDV NCD 05/04 Q1013=
201205310020 METAR ESMX 310020Z AUTO 23003KT 9999NDV NCD 05/04 Q1013=
201205302350 METAR ESMX 302350Z 23004KT CAVOK 04/03 Q1013=
201205302320 METAR ESMX 302320Z 25004KT CAVOK 05/04 Q1013=
201205302250 METAR ESMX 302250Z 25003KT CAVOK 06/04 Q1013=
201205302220 METAR ESMX 302220Z 22003KT CAVOK 08/05 Q1013=
201205302150 METAR ESMX 302150Z 23003KT CAVOK 08/05 Q1013=
201205302120 METAR ESMX 302120Z 23004KT CAVOK 09/05 Q1013=
201205302050 METAR ESMX 302050Z 23004KT CAVOK 08/05 Q1013=
201205302020 METAR ESMX 302020Z 20003KT 180V250 CAVOK 09/05 Q1013=
201205301950 METAR ESMX 301950Z 27003KT CAVOK 10/05 Q1013=
201205301920 METAR ESMX 301920Z 23003KT CAVOK 10/05 Q1013=
201205301850 METAR ESMX 301850Z 26004KT CAVOK 11/05 Q1013=
201205301820 METAR ESMX 301820Z 29005G26KT CAVOK 12/04 Q1013=
201205301750 METAR ESMX 301750Z 28006KT CAVOK 13/05 Q1013=
201205301720 METAR ESMX 301720Z 30007KT 270V340 CAVOK 13/06 Q1012=
201205301650 METAR ESMX 301650Z 29004KT CAVOK 14/03 Q1012=
201205301620 METAR ESMX 301620Z 30004KT 260V330 CAVOK 15/02 Q1012=
201205301550 METAR ESMX 301550Z 29003KT 250V330 CAVOK 15/01 Q1012=
201205301520 METAR ESMX 301520Z 32003KT 240V020 CAVOK 15/00 Q1012=
201205301450 METAR ESMX 301450Z 27004KT 240V320 CAVOK 15/M00 Q1012=
201205301420 METAR ESMX 301420Z 30006KT CAVOK 15/00 Q1012=
201205301350 METAR ESMX 301350Z VRB04KT CAVOK 15/M01 Q1012=
201205301320 METAR ESMX 301320Z 35004KT 320V030 CAVOK 15/M00 Q1012=
201205301250 METAR ESMX 301250Z 31004KT 280V020 CAVOK 15/M01 Q1012=
201205301220 METAR ESMX 301220Z 31004KT 210V010 CAVOK 14/M01 Q1012=
201205301150 METAR ESMX 301150Z 01004KT 300V100 CAVOK 17/M01 Q1012=
201205301120 METAR ESMX 301120Z VRB02KT CAVOK 16/00 Q1012=
201205301050 METAR ESMX 301050Z VRB03KT CAVOK 14/00 Q1012=
201205301020 METAR ESMX 301020Z VRB02KT 9999 FEW045 14/01 Q1012=
201205300950 METAR ESMX 300950Z VRB03KT 9999 FEW040TCU SCT065 13/01 Q1012=
201205300920 METAR ESMX 300920Z 27005KT 250V330 9999 SCT030TCU SCT040 14/03 Q1012=
201205300850 METAR ESMX 300850Z VRB02KT 9999 FEW030 SCT060 13/04 Q1012=
201205300820 METAR ESMX 300820Z 30005KT 210V360 9999 FEW044 13/04 Q1012=
201205300750 METAR ESMX 300750Z 25004KT 180V280 CAVOK 12/03 Q1012=
201205300720 METAR ESMX 300720Z 28004KT 210V320 CAVOK 12/02 Q1012=
201205300650 METAR ESMX 300650Z 29006KT 250V320 CAVOK 11/04 Q1012=
201205300620 METAR ESMX 300620Z 27005KT 240V300 CAVOK 11/04 Q1012=
201205300550 METAR ESMX 300550Z 29006KT 250V320 CAVOK 10/05 Q1012=
201205300520 METAR ESMX 300520Z 29005KT 250V320 CAVOK 09/04 Q1011=
201205300450 METAR ESMX 300450Z 27004KT 230V290 CAVOK 09/06 Q1011=
201205300420 METAR ESMX 300420Z 25004KT CAVOK 06/05 Q1011=
201205300350 METAR ESMX 300350Z 26004KT CAVOK 06/04 Q1011=
201205300320 METAR ESMX 300320Z AUTO VRB02KT 9999NDV BKN066/// 06/04 Q1011=
201205300250 METAR ESMX 300250Z AUTO VRB02KT 9999NDV BKN074/// 05/04 Q1011=
201205300220 METAR ESMX 300220Z AUTO 25003KT 9999NDV OVC074/// 05/04 Q1011=
201205300150 METAR ESMX 300150Z AUTO 26004KT 230V290 9999NDV BKN073/// 06/04 Q1011=
201205300120 METAR ESMX 300120Z AUTO 26004KT 9999NDV BKN074/// 06/05 Q1011=
201205300050 METAR ESMX 300050Z 27004KT CAVOK 07/05 Q1011=
201205300020 METAR ESMX 300020Z 26005KT CAVOK 06/04 Q1011=
201205292350 METAR ESMX 292350Z 27005KT CAVOK 07/04 Q1011=
201205292320 METAR ESMX 292320Z 34005KT 300V020 9999 FEW017 BKN074 07/02 Q1011=
201205292250 METAR ESMX 292250Z 29005KT CAVOK 07/05 Q1011=
201205292220 METAR ESMX 292220Z 26004KT CAVOK 06/05 Q1011=
201205292150 METAR ESMX 292150Z 26004KT CAVOK 06/05 Q1011=
201205292120 METAR ESMX 292120Z 26004KT CAVOK 07/05 Q1011=
201205292050 METAR ESMX 292050Z 27004KT CAVOK 07/05 Q1011=
201205292020 METAR ESMX 292020Z 25003KT CAVOK 08/05 Q1011=
201205291950 METAR ESMX 291950Z 26004KT 230V290 CAVOK 09/05 Q1011=
201205291920 METAR ESMX 291920Z 27004KT CAVOK 09/04 Q1011=
201205291850 METAR ESMX 291850Z 26005KT 9999 VCSH FEW048CB BKN083 10/04 Q1011=
201205291820 METAR ESMX 291820Z 28005KT 9999 VCSH FEW047CB BKN084 10/04 Q1011=
201205291750 METAR ESMX 291750Z 27006KT CAVOK 10/04 Q1011=
201205291720 METAR ESMX 291720Z 28006KT 240V300 9999 VCSH FEW040CB BKN078 11/04 Q1011=
201205291650 METAR ESMX 291650Z 28006KT CAVOK 12/03 Q1011=
201205291620 METAR ESMX 291620Z 34004KT 290V020 9999 FEW040 BKN070 11/03 Q1011=
201205291550 METAR ESMX 291550Z 34003KT 300V030 9999 FEW030 SCT060 11/03 Q1011=
201205291520 METAR ESMX 291520Z VRB03KT 9999 FEW035 BKN060 11/03 Q1011=
201205291450 METAR ESMX 291450Z VRB02KT 9999 FEW025 BKN040 11/04 Q1011=
201205291420 METAR ESMX 291420Z VRB02KT 9999 FEW030 BKN040 10/05 Q1011=
201205291350 METAR ESMX 291350Z 07007KT 030V110 9999 -SHRA SCT033 BKN042 OVC050 09/05 Q1012 REDZ=
201205291320 METAR ESMX 291320Z 03007KT 350V070 9999 FEW020 FEW035TCU BKN040 11/02 Q1011=
201205291250 METAR ESMX 291250Z 05006KT 9999 FEW030 BKN050 11/02 Q1011=
201205291220 METAR ESMX 291220Z 06004KT 330V110 9999 FEW020 BKN035 12/03 Q1011=
201205291150 METAR ESMX 291150Z 01006G34KT 340V040 9999 SCT025 11/04 Q1011=
201205291120 METAR ESMX 291120Z 01005KT 300V070 9999 FEW030 10/04 Q1011=
201205291050 METAR ESMX 291050Z 03005KT 320V090 9999 FEW024 09/03 Q1011=
201205291020 METAR ESMX 291020Z 03005KT 340V120 9999 FEW012 SCT020 BKN040 09/04 Q1011=
201205290950 METAR ESMX 290950Z 04007KT 010V070 9999 FEW016 SCT020 BKN054 08/04 Q1011=
201205290920 METAR ESMX 290920Z 06008KT 020V130 9999 -DZ FEW015 SCT020 07/04 Q1011=
201205290850 METAR ESMX 290850Z 03009KT 350V080 9999 -RA FEW012 SCT015 BKN019 07/05 Q1010=
201205290820 METAR ESMX 290820Z 06007KT 020V110 9999 -RA SCT013 BKN025 06/04 Q1010=
201205290750 METAR ESMX 290750Z 05009KT 020V080 9999 -RA FEW011 BKN017 06/04 Q1009=
201205290720 METAR ESMX 290720Z 06011KT 010V100 9999 -RA FEW014 BKN018 06/04 Q1009=
201205290650 METAR ESMX 290650Z 06008KT 030V100 9999 -DZ FEW015 BKN040 06/04 Q1008=
201205290620 METAR ESMX 290620Z 07008KT 020V110 9999 -DZ FEW020 BKN037 05/04 Q1008=
201205290550 METAR ESMX 290550Z 06009KT 020V110 9999 -RA FEW011 SCT023 BKN045 05/04 Q1008=
201205290520 METAR ESMX 290520Z 06010KT 9999 -RA FEW010 SCT013 BKN016 05/04 Q1008=
201205290450 METAR ESMX 290450Z 07011KT 020V110 9999 -RA SCT011 BKN015 OVC035 06/04 Q1008=
201205290420 METAR ESMX 290420Z 05009G20KT 350V100 9999 -RA FEW012 OVC015 06/03 Q1008=
201205290350 METAR ESMX 290350Z 05010KT 350V120 9999 BKN013 OVC020 06/03 Q1007=
201205290320 METAR ESMX 290320Z AUTO 07010KT 030V110 9999NDV FEW014/// SCT017/// BKN020/// 07/03 Q1007=
201205290250 METAR ESMX 290250Z AUTO 08009G20KT 030V120 9999NDV OVC037/// 07/03 Q1007=
201205290220 METAR ESMX 290220Z AUTO 05008KT 010V130 9999NDV OVC036/// 07/03 Q1007=
201205290150 METAR ESMX 290150Z AUTO 06008KT 010V110 9999NDV -RA FEW023/// OVC034/// 08/03 Q1007 REDZ=
201205290120 METAR ESMX 290120Z AUTO 06010KT 020V100 9999NDV OVC032/// 08/02 Q1007=
201205290050 METAR ESMX 290050Z AUTO 07006KT 030V160 9999NDV OVC029/// 08/02 Q1006=
201205290020 METAR ESMX 290020Z AUTO 08007KT 030V130 9999NDV OVC030/// 08/02 Q1006=
201205282350 METAR ESMX 282350Z 08007KT 020V130 9999 SCT034 BKN088 BKN100 08/02 Q1006=
201205282320 METAR ESMX 282320Z 08006KT 010V140 9999 FEW015 SCT035 08/03 Q1006=
201205282250 METAR ESMX 282250Z 11007KT 070V140 9999 FEW017 BKN093 BKN110 09/04 Q1007=
201205282220 METAR ESMX 282220Z 07007KT 010V150 9999 FEW020 BKN100 09/05 Q1007=
201205282150 METAR ESMX 282150Z 09008KT 040V130 CAVOK 09/04 Q1007=
201205282050 METAR ESMX 282050Z 09008KT 040V140 CAVOK 10/03 Q1007=
201205282020 METAR ESMX 282020Z 07006KT 030V140 CAVOK 11/03 Q1007=
201205281950 METAR ESMX 281950Z 09006KT 040V160 CAVOK 12/05 Q1007=
201205281920 METAR ESMX 281920Z 08008KT 040V140 CAVOK 13/05 Q1006=
201205281850 METAR ESMX 281850Z 07009KT 020V120 CAVOK 15/07 Q1006=
201205281820 METAR ESMX 281820Z 06010KT 020V110 CAVOK 16/09 Q1006=
201205281750 METAR ESMX 281750Z 34012KT 300V020 CAVOK 21/06 Q1005=
201205281720 METAR ESMX 281720Z 28010KT 210V320 CAVOK 22/06 Q1005=
201205281650 METAR ESMX 281650Z 29011KT 260V330 CAVOK 22/05 Q1005=
201205281620 METAR ESMX 281620Z 29011KT 270V330 CAVOK 22/06 Q1005=
201205281550 METAR ESMX 281550Z 29011KT CAVOK 24/06 Q1005=
201205281520 METAR ESMX 281520Z 28011KT 250V330 CAVOK 23/06 Q1005=
201205281450 METAR ESMX 281450Z 27013KT CAVOK 24/07 Q1005=
201205281420 METAR ESMX 281420Z 29011KT 260V320 9999 FEW045 23/07 Q1005=
201205281350 METAR ESMX 281350Z 28011KT 250V320 CAVOK 24/07 Q1006=
201205281320 METAR ESMX 281320Z 29011KT 250V330 CAVOK 24/08 Q1006=
201205281250 METAR ESMX 281250Z 28012KT 250V320 CAVOK 24/07 Q1006=
201205281220 METAR ESMX 281220Z 28011KT 250V310 CAVOK 24/07 Q1006=
201205281150 METAR ESMX 281150Z 28010G21KT 210V330 9999 FEW028 24/09 Q1006=
201205281120 METAR ESMX 281120Z 26010KT CAVOK 23/09 Q1006=
201205281050 METAR ESMX 281050Z 28012KT 250V320 CAVOK 23/10 Q1007=
201205281020 METAR ESMX 281020Z 26011KT 220V300 CAVOK 23/10 Q1007=
201205280950 METAR ESMX 280950Z 28009KT 240V320 CAVOK 23/10 Q1007=
201205280920 METAR ESMX 280920Z 29008KT 250V320 CAVOK 22/11 Q1007=
201205280850 METAR ESMX 280850Z 27011KT 230V290 CAVOK 22/10 Q1007=
201205280820 METAR ESMX 280820Z 25007KT 220V290 CAVOK 21/11 Q1008=
201205280750 METAR ESMX 280750Z 26008KT 200V330 CAVOK 19/11 Q1008=
201205280720 METAR ESMX 280720Z 26007KT 220V320 CAVOK 18/11 Q1009=
201205280650 METAR ESMX 280650Z 25007KT 210V320 CAVOK 17/11 Q1009=
201205280620 METAR ESMX 280620Z 24008KT 210V270 CAVOK 17/11 Q1009=
201205280550 METAR ESMX 280550Z 25008KT CAVOK 16/11 Q1010=
201205280520 METAR ESMX 280520Z 24005KT 210V280 CAVOK 15/11 Q1010=
201205280450 METAR ESMX 280450Z 22005KT CAVOK 14/11 Q1010=
201205280420 METAR ESMX 280420Z 21004KT CAVOK 12/11 Q1011=
201205280350 METAR ESMX 280350Z 22004KT CAVOK 11/10 Q1011=
201205280320 METAR ESMX 280320Z AUTO 22004KT 5000NDV BR NCD 10/10 Q1011=
201205280250 METAR ESMX 280250Z AUTO 21004KT 9999NDV NCD 10/09 Q1012=
201205280220 METAR ESMX 280220Z AUTO 25002KT 0300NDV R01/P2000N R19/0800 NCD 10/09 Q1012=
201205280150 METAR ESMX 280150Z AUTO 23003KT 1200NDV R01/P2000N R19/P2000N NCD 10/09 Q1012=
201205280120 METAR ESMX 280120Z AUTO 23002KT 0900NDV R01/P2000N R19/P2000N NCD 10/09 Q1013=
201205280050 METAR ESMX 280050Z AUTO 22004KT 9999NDV NCD 10/09 Q1013=
201205280020 METAR ESMX 280020Z AUTO 18003KT 9999NDV NCD 10/09 Q1014=
201205272350 METAR ESMX 272350Z 18004KT CAVOK 10/09 Q1014=
201205272320 METAR ESMX 272320Z 19004KT CAVOK 10/09 Q1014=
201205272250 METAR ESMX 272250Z 19004KT CAVOK 10/08 Q1014=
201205272220 METAR ESMX 272220Z 16006KT 120V200 CAVOK 13/10 Q1015=
201205272150 METAR ESMX 272150Z 16006KT 120V190 CAVOK 14/10 Q1015=
201205272120 METAR ESMX 272120Z 16005KT 130V190 CAVOK 14/10 Q1015=
201205272050 METAR ESMX 272050Z 17005KT 140V200 CAVOK 15/10 Q1016=
201205272020 METAR ESMX 272020Z 17006KT CAVOK 16/10 Q1016=
201205271950 METAR ESMX 271950Z 15005KT CAVOK 16/09 Q1016=
201205271920 METAR ESMX 271920Z 22002KT CAVOK 16/07 Q1016=
201205271850 METAR ESMX 271850Z 16001KT CAVOK 19/08 Q1016=
201205271820 METAR ESMX 271820Z VRB01KT CAVOK 21/08 Q1016=
201205271750 METAR ESMX 271750Z VRB02KT CAVOK 22/04 Q1017=
201205271720 METAR ESMX 271720Z VRB01KT CAVOK 22/05 Q1017=
201205271650 METAR ESMX 271650Z VRB02KT CAVOK 22/05 Q1018=
201205271620 METAR ESMX 271620Z VRB02KT CAVOK 22/05 Q1018=
201205271550 METAR ESMX 271550Z VRB02KT CAVOK 22/04 Q1018=
201205271520 METAR ESMX 271520Z 07003KT 010V140 CAVOK 22/04 Q1019=
201205271450 METAR ESMX 271450Z 06004KT 010V130 CAVOK 21/04 Q1019=
201205271420 METAR ESMX 271420Z VRB03KT CAVOK 22/04 Q1019=
201205271350 METAR ESMX 271350Z VRB02KT CAVOK 21/04 Q1020=
201205271320 METAR ESMX 271320Z VRB04KT CAVOK 21/04 Q1020=
201205271250 METAR ESMX 271250Z AUTO 10004KT 030V170 9999NDV NCD 21/04 Q1021=
201205271220 METAR ESMX 271220Z AUTO 04006KT 320V110 9999NDV NCD 21/04 Q1021=
201205271150 METAR ESMX 271150Z AUTO 10008KT 9999NDV NCD 21/04 Q1021=
201205271120 METAR ESMX 271120Z AUTO 04008KT 010V080 9999NDV NCD 21/04 Q1022=
201205271050 METAR ESMX 271050Z AUTO 05009KT 010V100 9999NDV NCD 20/04 Q1022=
201205271020 METAR ESMX 271020Z AUTO 05008KT 360V080 9999NDV NCD 20/05 Q1022=
201205270950 METAR ESMX 270950Z AUTO 05007KT 010V070 9999NDV FEW051/// 20/06 Q1022=
201205270920 METAR ESMX 270920Z AUTO 02010KT 9999NDV SCT046/// 19/07 Q1023=
201205270850 METAR ESMX 270850Z AUTO 31004KT 260V350 9999NDV BKN038/// 18/10 Q1023=
201205270820 METAR ESMX 270820Z AUTO 01006KT 340V050 9999NDV FEW030/// BKN036/// BKN044/// 17/09 Q1023=
201205270750 METAR ESMX 270750Z AUTO 30005KT 250V340 9999NDV FEW026/// BKN053/// 17/09 Q1023=
201205270720 METAR ESMX 270720Z AUTO 31006KT 260V010 9999NDV BKN054/// 16/11 Q1024=
201205270650 METAR ESMX 270650Z AUTO 28006KT 250V310 9999NDV SCT057/// 15/10 Q1024=
201205270620 METAR ESMX 270620Z AUTO 28006KT 9999NDV SCT062/// 14/10 Q1024=
201205270550 METAR ESMX 270550Z AUTO VRB02KT 9999NDV BKN060/// 13/10 Q1024=
201205270520 METAR ESMX 270520Z AUTO VRB02KT 9999NDV SCT019/// BKN064/// 12/11 Q1025=
201205270450 METAR ESMX 270450Z AUTO VRB01KT 9999NDV BKN017/// OVC062/// 11/10 Q1025=
201205270420 METAR ESMX 270420Z AUTO 32001KT 9999NDV OVC061/// 10/09 Q1024=
201205270350 METAR ESMX 270350Z AUTO 20001KT 9999NDV OVC061/// 09/08 Q1024=
201205270320 METAR ESMX 270320Z AUTO 19001KT 9999NDV OVC061/// 09/08 Q1025=
201205270250 METAR ESMX 270250Z AUTO 00000KT 9999NDV FEW018/// OVC061/// 08/07 Q1025=
201205270220 METAR ESMX 270220Z AUTO 00000KT 9999NDV FEW017/// BKN059/// 07/06 Q1025=
201205270150 METAR ESMX 270150Z AUTO 18001KT 9999NDV FEW060/// 06/06 Q1025=
201205270120 METAR ESMX 270120Z AUTO 00000KT 9999NDV NCD 07/06 Q1025=
201205270050 METAR ESMX 270050Z AUTO VRB01KT 9999NDV NCD 07/06 Q1025=
201205270020 METAR ESMX 270020Z AUTO 00000KT 9999NDV NCD 08/07 Q1025=
201205262350 METAR ESMX 262350Z AUTO 15003KT 9999NDV NCD 09/08 Q1025=
201205262320 METAR ESMX 262320Z AUTO 20003KT 9999NDV NCD 09/08 Q1025=
201205262250 METAR ESMX 262250Z AUTO 16003KT 9999NDV NCD 10/08 Q1025=
201205262220 METAR ESMX 262220Z AUTO 17002KT 9999NDV NCD 10/08 Q1025=
201205262150 METAR ESMX 262150Z AUTO 16004KT 9999NDV NCD 12/10 Q1025=
201205262120 METAR ESMX 262120Z AUTO 16003KT 9999NDV FEW047/// 13/11 Q1025=
201205262050 METAR ESMX 262050Z AUTO 12003KT 070V150 9999NDV FEW042/// 15/11 Q1025=
201205262020 METAR ESMX 262020Z AUTO VRB02KT 9999NDV BKN029/// 14/12 Q1025=
201205261950 METAR ESMX 261950Z AUTO VRB02KT 9999NDV BKN032/// 15/11 Q1025=
201205261920 METAR ESMX 261920Z AUTO 16004KT 9999NDV FEW031/// 16/11 Q1025=
201205261850 METAR ESMX 261850Z AUTO 17004KT 130V200 9999NDV NCD 17/11 Q1025=
201205261820 METAR ESMX 261820Z AUTO 15004KT 110V200 9999NDV NCD 18/11 Q1025=
201205261750 METAR ESMX 261750Z AUTO 13004KT 100V160 9999NDV FEW062/// 18/11 Q1025=
201205261720 METAR ESMX 261720Z AUTO 10004KT 050V150 9999NDV FEW059/// 19/11 Q1025=
201205261650 METAR ESMX 261650Z AUTO 09003KT 030V150 9999NDV FEW043/// BKN050/// 18/11 Q1025=
201205261620 METAR ESMX 261620Z AUTO 10004KT 060V170 9999NDV OVC042/// 19/11 Q1025=
201205261550 METAR ESMX 261550Z AUTO 08006KT 030V120 9999NDV BKN044/// 19/11 Q1025=
201205261520 METAR ESMX 261520Z AUTO 07005KT 350V120 9999NDV FEW049/// SCT069/// 20/11 Q1025=
201205261450 METAR ESMX 261450Z AUTO 10006KT 050V140 9999NDV FEW052/// 20/11 Q1025=
201205261420 METAR ESMX 261420Z AUTO 05006KT 020V080 9999NDV BKN051/// 20/11 Q1025=
201205261350 METAR ESMX 261350Z AUTO 05005KT 010V080 9999NDV BKN053/// 20/10 Q1025=
201205261320 METAR ESMX 261320Z AUTO 05005KT 350V120 9999NDV SCT059/// 21/09 Q1025=
201205261250 METAR ESMX 261250Z AUTO 10005KT 030V170 9999NDV BKN060/// 21/08 Q1025=
201205261220 METAR ESMX 261220Z AUTO 07006KT 020V110 9999NDV BKN063/// 20/08 Q1025=
201205261150 METAR ESMX 261150Z AUTO 10005KT 050V130 9999NDV FEW054/// SCT070/// 21/07 Q1025=
201205261120 METAR ESMX 261120Z AUTO 08005KT 020V130 9999NDV FEW054/// BKN073/// 21/07 Q1025=
201205261050 METAR ESMX 261050Z AUTO 03004KT 360V070 9999NDV FEW023/// SCT071/// 21/08 Q1025=
201205261020 METAR ESMX 261020Z AUTO VRB02KT 9999NDV FEW056/// 21/09 Q1025=
201205260950 METAR ESMX 260950Z AUTO 33004KT 9999NDV SCT066/// 21/10 Q1026=
201205260920 METAR ESMX 260920Z VRB02KT CAVOK 21/10 Q1026=
201205260850 METAR ESMX 260850Z 00000KT 9999 VCSH FEW036CB BKN065 20/11 Q1026=
201205260820 METAR ESMX 260820Z 32004KT 9999 VCSH FEW045CB BKN068 19/12 Q1026=
201205260750 METAR ESMX 260750Z 00000KT 9999 FEW045CB BKN069 20/11 Q1026=
201205260720 METAR ESMX 260720Z VRB02KT 9999 FEW045CB BKN076 19/11 Q1026 RERA=
201205260650 METAR ESMX 260650Z 09003KT 050V130 CAVOK 16/11 Q1026=
201205260620 METAR ESMX 260620Z VRB01KT 9999 VCSH FEW047CB SCT085 16/11 Q1026=
201205260550 METAR ESMX 260550Z 36003KT 9999 VCSH FEW045CB SCT080 15/11 Q1026=
201205260520 METAR ESMX 260520Z AUTO 02004KT 9999NDV BKN080/// 16/10 Q1026=
201205260450 METAR ESMX 260450Z AUTO VRB01KT 9999NDV FEW091/// 14/11 Q1026=
201205260420 METAR ESMX 260420Z AUTO 02001KT 9999NDV NCD 12/10 Q1026=
201205260350 METAR ESMX 260350Z AUTO 00000KT 9999NDV FEW110/// 10/08 Q1026=
201205260320 METAR ESMX 260320Z AUTO 00000KT 9999NDV FEW100/// 10/07 Q1026=
201205260250 METAR ESMX 260250Z AUTO VRB01KT 9999NDV NCD 08/06 Q1026=
201205260220 METAR ESMX 260220Z AUTO 00000KT 9999NDV NCD 08/06 Q1026=
201205260150 METAR ESMX 260150Z AUTO 00000KT 9999NDV NCD 08/06 Q1026=
201205260120 METAR ESMX 260120Z AUTO 00000KT 9999NDV NCD 08/06 Q1026=
201205260050 METAR ESMX 260050Z AUTO 10001KT 9999NDV NCD 09/07 Q1027=
201205260020 METAR ESMX 260020Z AUTO VRB01KT 9999NDV NCD 09/06 Q1027=
201205252350 METAR ESMX 252350Z AUTO 18001KT 9999NDV NCD 10/06 Q1027=
201205252320 METAR ESMX 252320Z AUTO 00000KT 9999NDV NCD 10/07 Q1027=
201205252250 METAR ESMX 252250Z AUTO 17001KT 9999NDV NCD 11/07 Q1027=
201205252220 METAR ESMX 252220Z AUTO VRB01KT 9999NDV NCD 11/07 Q1027=
201205252150 METAR ESMX 252150Z AUTO 17002KT 9999NDV NCD 13/07 Q1027=
201205252120 METAR ESMX 252120Z AUTO 18003KT 9999NDV NCD 15/06 Q1027=
201205252050 METAR ESMX 252050Z AUTO 17004KT 9999NDV NCD 16/06 Q1027=
201205252020 METAR ESMX 252020Z AUTO 18004KT 9999NDV NCD 15/07 Q1027=
201205251950 METAR ESMX 251950Z 17005G15KT CAVOK 17/07 Q1027=
201205251920 METAR ESMX 251920Z 17005KT CAVOK 18/07 Q1027=
201205251850 METAR ESMX 251850Z 17005KT 140V210 CAVOK 19/07 Q1027=
201205251820 METAR ESMX 251820Z 16006KT CAVOK 20/07 Q1027=
201205251750 METAR ESMX 251750Z 17007KT 140V200 CAVOK 21/07 Q1027=
201205251720 METAR ESMX 251720Z 16007KT 120V200 CAVOK 22/07 Q1027=
201205251650 METAR ESMX 251650Z 17009KT 130V200 CAVOK 23/08 Q1027=
201205251620 METAR ESMX 251620Z 15008KT 110V190 CAVOK 24/07 Q1027=
201205251550 METAR ESMX 251550Z 05006KT 020V100 CAVOK 25/07 Q1027=
201205251520 METAR ESMX 251520Z 05005KT 340V120 CAVOK 25/08 Q1028=
201205251450 METAR ESMX 251450Z 06008KT 020V080 CAVOK 26/07 Q1028=
201205251420 METAR ESMX 251420Z 01005KT 330V080 CAVOK 25/07 Q1028=
201205251350 METAR ESMX 251350Z 35004KT 290V050 CAVOK 25/07 Q1028=
201205251320 METAR ESMX 251320Z 36005KT 310V040 CAVOK 25/07 Q1029=
201205251250 METAR ESMX 251250Z 35007KT 300V010 CAVOK 24/07 Q1029=
201205251220 METAR ESMX 251220Z 31006KT 290V350 CAVOK 25/08 Q1029=
201205251150 METAR ESMX 251150Z 35003KT 280V070 CAVOK 24/07 Q1030=
201205251120 METAR ESMX 251120Z 33004KT 230V050 CAVOK 23/06 Q1030=
201205251050 METAR ESMX 251050Z 01005KT 280V060 CAVOK 23/07 Q1031=
201205251020 METAR ESMX 251020Z 34003KT 300V030 CAVOK 22/06 Q1031=
201205250950 METAR ESMX 250950Z VRB03KT CAVOK 22/06 Q1031=
201205250920 METAR ESMX 250920Z VRB02KT CAVOK 21/06 Q1031=
201205250850 METAR ESMX 250850Z VRB02KT CAVOK 21/06 Q1031=
201205250820 METAR ESMX 250820Z VRB01KT CAVOK 20/05 Q1032=
201205250750 METAR ESMX 250750Z VRB02KT CAVOK 19/05 Q1032=
201205250720 METAR ESMX 250720Z 17003KT 120V210 CAVOK 18/04 Q1032=
201205250650 METAR ESMX 250650Z 19004KT 140V260 CAVOK 17/04 Q1032=
201205250620 METAR ESMX 250620Z 18004KT 150V210 CAVOK 16/03 Q1032=
201205250550 METAR ESMX 250550Z 24004KT CAVOK 15/03 Q1032=
201205250520 METAR ESMX 250520Z VRB02KT CAVOK 14/05 Q1032=
201205250450 METAR ESMX 250450Z VRB01KT CAVOK 13/06 Q1032=
201205250420 METAR ESMX 250420Z 00000KT CAVOK 10/06 Q1032=
201205250350 METAR ESMX 250350Z 00000KT CAVOK 06/05 Q1032=
201205250320 METAR ESMX 250320Z AUTO 00000KT 9999NDV NCD 05/03 Q1032=
201205250250 METAR ESMX 250250Z AUTO 00000KT 9999NDV NCD 05/03 Q1032=
201205250220 METAR ESMX 250220Z AUTO 00000KT 9999NDV NCD 05/03 Q1032=
201205250150 METAR ESMX 250150Z AUTO 00000KT 9999NDV NCD 06/04 Q1032=
201205250120 METAR ESMX 250120Z AUTO 00000KT 9999NDV NCD 06/04 Q1032=
201205250050 METAR ESMX 250050Z AUTO VRB01KT 9999NDV NCD 06/04 Q1032=
201205250020 METAR ESMX 250020Z AUTO VRB01KT 9999NDV NCD 07/04 Q1032=
201205242350 METAR ESMX 242350Z AUTO 00000KT 9999NDV FEW067/// 08/04 Q1032=
201205242320 METAR ESMX 242320Z 00000KT CAVOK 09/05 Q1032=
201205242250 METAR ESMX 242250Z VRB02KT CAVOK 10/05 Q1032=
201205242220 METAR ESMX 242220Z VRB02KT CAVOK 12/05 Q1032=
201205242150 METAR ESMX 242150Z 16003KT 120V190 CAVOK 14/04 Q1032=
201205242120 METAR ESMX 242120Z 16004KT CAVOK 15/03 Q1032=
201205242050 METAR ESMX 242050Z 15005KT 120V200 CAVOK 15/03 Q1032=
201205242020 METAR ESMX 242020Z 15004KT 120V190 CAVOK 15/04 Q1032=
201205241950 METAR ESMX 241950Z 16005KT 130V200 CAVOK 16/04 Q1031=
201205241920 METAR ESMX 241920Z 16007KT 120V220 CAVOK 17/04 Q1031=
201205241850 METAR ESMX 241850Z 15006KT 100V190 CAVOK 17/05 Q1031=
201205241820 METAR ESMX 241820Z 16009KT 120V200 CAVOK 18/05 Q1030=
201205241750 METAR ESMX 241750Z 15009KT 110V180 CAVOK 19/06 Q1030=
201205241720 METAR ESMX 241720Z 16009KT 110V200 CAVOK 20/07 Q1030=
201205241650 METAR ESMX 241650Z 12011KT 090V150 CAVOK 23/07 Q1030=
201205241620 METAR ESMX 241620Z 25003KT 200V280 CAVOK 25/10 Q1029=
201205241550 METAR ESMX 241550Z VRB03KT CAVOK 26/08 Q1030=
201205241520 METAR ESMX 241520Z VRB02KT CAVOK 26/09 Q1030=
201205241450 METAR ESMX 241450Z VRB02KT CAVOK 25/08 Q1030=
201205241420 METAR ESMX 241420Z 06004KT 020V090 CAVOK 25/09 Q1030=
201205241350 METAR ESMX 241350Z VRB02KT CAVOK 26/09 Q1030=
201205241320 METAR ESMX 241320Z 04004KT 340V160 CAVOK 26/08 Q1031=
201205241250 METAR ESMX 241250Z VRB03KT CAVOK 26/08 Q1031=
201205241220 METAR ESMX 241220Z 04003KT 330V100 CAVOK 24/07 Q1031=
201205241150 METAR ESMX 241150Z 34004KT 280V060 CAVOK 24/08 Q1032=
201205241120 METAR ESMX 241120Z 35004KT 310V040 9999 FEW035 23/07 Q1032=
201205241050 METAR ESMX 241050Z VRB03KT 9999 FEW035 24/08 Q1032=
201205241020 METAR ESMX 241020Z VRB02KT 9999 FEW042 SCT066 22/07 Q1033=
201205240950 METAR ESMX 240950Z 32004KT 280V350 CAVOK 22/07 Q1033=
201205240920 METAR ESMX 240920Z VRB03KT CAVOK 22/06 Q1033=
201205240850 METAR ESMX 240850Z VRB04KT CAVOK 20/04 Q1033=
201205240820 METAR ESMX 240820Z VRB01KT CAVOK 19/04 Q1033=
201205240720 METAR ESMX 240720Z VRB01KT CAVOK 19/02 Q1033=
201205240650 METAR ESMX 240650Z VRB01KT CAVOK 18/02 Q1033=
201205240620 METAR ESMX 240620Z 00000KT CAVOK 17/02 Q1033=
201205240550 METAR ESMX 240550Z 04003KT 010V070 CAVOK 16/03 Q1033=
201205240520 METAR ESMX 240520Z VRB01KT CAVOK 14/08 Q1033=
201205240450 METAR ESMX 240450Z 02003KT 340V050 CAVOK 12/08 Q1033=
201205240420 METAR ESMX 240420Z VRB01KT CAVOK 10/09 Q1033=
201205240350 METAR ESMX 240350Z VRB01KT CAVOK 08/07 Q1033=
201205240320 METAR ESMX 240320Z AUTO 00000KT 9999NDV NCD 06/05 Q1033=
201205240250 METAR ESMX 240250Z AUTO 00000KT 9999NDV FEW074/// 07/05 Q1033=
201205240220 METAR ESMX 240220Z AUTO 34001KT 9999NDV SCT072/// 06/05 Q1033=
201205240150 METAR ESMX 240150Z AUTO 00000KT 9999NDV FEW072/// 07/06 Q1033=
201205240120 METAR ESMX 240120Z AUTO 00000KT 9999NDV NCD 06/04 Q1032=
201205240050 METAR ESMX 240050Z AUTO 00000KT 9999NDV NCD 07/04 Q1032=
201205240020 METAR ESMX 240020Z AUTO 00000KT 9999NDV NCD 07/05 Q1032=
201205232350 METAR ESMX 232350Z AUTO 00000KT 9999NDV NCD 07/04 Q1032=
201205232320 METAR ESMX 232320Z 00000KT 9999 FEW001 08/05 Q1032=
201205232250 METAR ESMX 232250Z 00000KT CAVOK 08/05 Q1032=
201205232220 METAR ESMX 232220Z 00000KT CAVOK 09/05 Q1032=
201205232150 METAR ESMX 232150Z 00000KT CAVOK 10/05 Q1032=
201205232120 METAR ESMX 232120Z 10001KT CAVOK 11/05 Q1031=
201205232050 METAR ESMX 232050Z 10002KT CAVOK 13/06 Q1031=
201205232020 METAR COR ESMX 232020Z 09002KT CAVOK 14/06 Q1031=
201205231950 METAR ESMX 231950Z VRB02KT CAVOK 16/05 Q1031=
201205231920 METAR ESMX 231920Z 07003KT CAVOK 18/05 Q1031=
201205231850 METAR ESMX 231850Z 08004KT 040V130 CAVOK 20/05 Q1030=
201205231820 METAR ESMX 231820Z 08004KT 050V120 CAVOK 21/04 Q1030=
201205231750 METAR ESMX 231750Z 06005KT 020V120 CAVOK 22/04 Q1030=
201205231720 METAR ESMX 231720Z 08007KT 050V120 CAVOK 22/05 Q1030=
201205231650 METAR ESMX 231650Z 06006KT 010V100 CAVOK 23/04 Q1030=
201205231620 METAR ESMX 231620Z 04008KT 010V080 CAVOK 23/03 Q1030=
201205231550 METAR ESMX 231550Z 06007KT 010V110 CAVOK 23/04 Q1029=
201205231520 METAR ESMX 231520Z 04009KT 010V090 CAVOK 24/03 Q1029=
201205231450 METAR ESMX 231450Z 05010KT 010V090 CAVOK 24/04 Q1029=
201205231420 METAR ESMX 231420Z 05009KT 020V100 CAVOK 24/06 Q1029=
201205231350 METAR ESMX 231350Z 07009KT CAVOK 24/06 Q1029=
201205231320 METAR ESMX 231320Z 04009KT 360V100 CAVOK 24/05 Q1029=
201205231250 METAR ESMX 231250Z 05009KT 020V100 CAVOK 24/06 Q1029=
201205231220 METAR ESMX 231220Z 04011KT 010V080 CAVOK 24/07 Q1029=
201205231150 METAR ESMX 231150Z 03009KT 350V090 CAVOK 24/07 Q1029=
201205231120 METAR ESMX 231120Z 02009KT CAVOK 23/07 Q1029=
201205231050 METAR ESMX 231050Z 04007KT 010V070 CAVOK 23/08 Q1028=
201205231020 METAR ESMX 231020Z 05010KT 010V110 CAVOK 23/07 Q1028=
201205230950 METAR ESMX 230950Z 04011KT 020V080 CAVOK 23/08 Q1028=
201205230920 METAR ESMX 230920Z 05011KT 010V090 CAVOK 22/08 Q1028=
201205230850 METAR ESMX 230850Z 05010KT 010V090 CAVOK 22/09 Q1028=
201205230820 METAR ESMX 230820Z 05008KT 350V100 CAVOK 21/09 Q1027=
201205230750 METAR ESMX 230750Z 05007KT 010V100 CAVOK 20/09 Q1027=
201205230720 METAR ESMX 230720Z 04008KT 010V080 CAVOK 18/09 Q1027=
201205230650 METAR ESMX 230650Z 04007KT 010V080 CAVOK 17/08 Q1027=
201205230620 METAR ESMX 230620Z 04009KT 020V080 CAVOK 16/08 Q1026=
201205230550 METAR ESMX 230550Z 04008KT CAVOK 16/08 Q1026=
201205230520 METAR ESMX 230520Z 04007KT 350V090 CAVOK 15/07 Q1026=
201205230450 METAR ESMX 230450Z 03007KT 360V060 CAVOK 14/07 Q1026=
201205230420 METAR ESMX 230420Z 03007KT CAVOK 13/07 Q1026=
201205230350 METAR ESMX 230350Z 04007KT 010V080 CAVOK 13/07 Q1025=
201205230320 METAR ESMX 230320Z 04008KT CAVOK 13/06 Q1025=
201205230250 METAR ESMX 230250Z AUTO 04007KT 010V070 9999NDV NCD 13/06 Q1025=
201205230220 METAR ESMX 230220Z AUTO 04007KT 9999NDV NCD 13/07 Q1025=
201205230150 METAR ESMX 230150Z AUTO 04008KT 360V080 9999NDV NCD 14/08 Q1024=
201205230120 METAR ESMX 230120Z AUTO 04009KT 010V080 9999NDV NCD 14/09 Q1024=
201205230050 METAR ESMX 230050Z AUTO 04010KT 020V080 9999NDV NCD 14/09 Q1024=
201205230020 METAR ESMX 230020Z AUTO 04009KT 360V070 9999NDV NCD 14/09 Q1024=
201205222350 METAR ESMX 222350Z AUTO 04010KT 010V070 9999NDV NCD 14/09 Q1023=
201205222320 METAR ESMX 222320Z 04010KT 020V080 CAVOK 14/09 Q1023=
201205222250 METAR ESMX 222250Z 04010KT 010V070 CAVOK 14/09 Q1023=
201205222220 METAR ESMX 222220Z 04010KT CAVOK 15/10 Q1023=
201205222150 METAR ESMX 222150Z 04009KT 010V080 CAVOK 15/10 Q1023=
201205222120 METAR ESMX 222120Z 03009KT 350V080 CAVOK 15/10 Q1022=
201205222050 METAR ESMX 222050Z 04009KT 010V070 CAVOK 15/11 Q1022=
201205222020 METAR ESMX 222020Z 04010KT 010V080 CAVOK 16/11 Q1022=
201205221950 METAR ESMX 221950Z 04008KT CAVOK 17/11 Q1021=
201205221920 METAR ESMX 221920Z 05008KT 020V090 CAVOK 18/11 Q1021=
201205221850 METAR ESMX 221850Z 04009KT CAVOK 19/12 Q1020=
201205221820 METAR ESMX 221820Z 04009KT 010V090 CAVOK 20/12 Q1020=
201205221750 METAR ESMX 221750Z 05009KT 020V080 CAVOK 20/12 Q1019=
201205221720 METAR ESMX 221720Z 05009KT 360V080 CAVOK 21/13 Q1019=
201205221650 METAR ESMX 221650Z 04010KT 010V070 CAVOK 21/13 Q1019=
201205221620 METAR ESMX 221620Z 02010KT 340V060 CAVOK 22/13 Q1019=
201205221550 METAR ESMX 221550Z 04012KT 020V090 CAVOK 22/14 Q1019=
201205221520 METAR ESMX 221520Z 04013KT 360V080 CAVOK 23/13 Q1018=
201205221450 METAR ESMX 221450Z 05010KT 020V080 CAVOK 23/14 Q1018=
201205221420 METAR ESMX 221420Z 05009KT 020V080 CAVOK 23/14 Q1018=
201205221350 METAR ESMX 221350Z 05009KT 360V080 CAVOK 24/14 Q1017=
201205221320 METAR ESMX 221320Z 05010KT 010V080 CAVOK 24/14 Q1017=
201205221250 METAR ESMX 221250Z 05010KT 020V080 CAVOK 24/14 Q1017=
201205221220 METAR ESMX 221220Z 04011KT 020V080 CAVOK 24/14 Q1017=
201205221150 METAR ESMX 221150Z 03010KT 350V080 CAVOK 24/14 Q1017=
201205221120 METAR ESMX 221120Z 05011KT 010V080 CAVOK 23/14 Q1017=
201205221050 METAR ESMX 221050Z 04011KT 360V070 CAVOK 23/14 Q1017=
201205221020 METAR ESMX 221020Z 04009KT 010V090 CAVOK 23/14 Q1016=
201205220950 METAR ESMX 220950Z 02010KT CAVOK 22/14 Q1016=
201205220920 METAR ESMX 220920Z 04009KT 010V080 CAVOK 22/15 Q1016=
201205220850 METAR ESMX 220850Z 04009KT 360V060 CAVOK 21/15 Q1016=
201205220820 METAR ESMX 220820Z 04007KT 010V090 CAVOK 20/14 Q1016=
201205220750 METAR ESMX 220750Z 04008KT 360V080 9999 SCT045 18/13 Q1016=
201205220720 METAR ESMX 220720Z 05008KT 9999 FEW042 18/13 Q1015=
201205220650 METAR ESMX 220650Z 04010KT 020V080 9999 FEW010 17/13 Q1015=
201205220620 METAR ESMX 220620Z 04010KT 9999 FEW007 SCT040 15/12 Q1015=
201205220550 METAR ESMX 220550Z 04010KT 010V070 9999 BKN007 14/12 Q1015=
201205220520 METAR ESMX 220520Z 04009KT 9999 BKN007 14/12 Q1015=
201205220450 METAR ESMX 220450Z 04012KT 9999 FEW008 14/11 Q1015=
201205220420 METAR ESMX 220420Z 03010KT CAVOK 13/11 Q1014=
201205220350 METAR ESMX 220350Z 03009KT CAVOK 13/11 Q1014=
201205220320 METAR ESMX 220320Z AUTO 04010KT 9999NDV NCD 13/11 Q1014=
201205220250 METAR ESMX 220250Z AUTO 04009KT 9999NDV NCD 13/11 Q1014=
201205220220 METAR ESMX 220220Z AUTO 04009KT 9999NDV NCD 13/11 Q1014=
201205220150 METAR ESMX 220150Z AUTO 04010KT 9999NDV NCD 14/11 Q1014=
201205220120 METAR ESMX 220120Z AUTO 04009KT 9999NDV NCD 14/11 Q1013=
201205220050 METAR ESMX 220050Z AUTO 03008KT 9999NDV NCD 14/11 Q1014=
201205220020 METAR ESMX 220020Z AUTO 04007KT 9999NDV NCD 14/11 Q1014=
201205212350 METAR ESMX 212350Z 04007KT CAVOK 14/12 Q1013=
201205212320 METAR ESMX 212320Z 03007KT CAVOK 15/12 Q1013=
201205212250 METAR ESMX 212250Z 04007KT 020V080 CAVOK 15/12 Q1013=
201205212220 METAR ESMX 212220Z 04007KT CAVOK 16/12 Q1013=
201205212150 METAR ESMX 212150Z 05005KT 010V080 CAVOK 16/12 Q1013=
201205212120 METAR ESMX 212120Z 04006KT 020V080 CAVOK 17/12 Q1013=
201205212050 METAR ESMX 212050Z 04006KT CAVOK 18/12 Q1013=
201205212020 METAR ESMX 212020Z 04006KT 020V080 CAVOK 18/12 Q1013=
201205211950 METAR ESMX 211950Z 06007KT 020V100 CAVOK 19/13 Q1013=
201205211920 METAR ESMX 211920Z 07004KT 030V110 CAVOK 20/14 Q1012=
201205211850 METAR ESMX 211850Z 08007KT 020V120 CAVOK 21/14 Q1012=
201205211820 METAR ESMX 211820Z 06006KT 030V100 CAVOK 22/14 Q1012=
201205211750 METAR ESMX 211750Z 05006KT 020V100 CAVOK 23/14 Q1011=
201205211720 METAR ESMX 211720Z 07007KT 020V120 CAVOK 24/13 Q1011=
201205211650 METAR ESMX 211650Z 10006KT 040V160 CAVOK 25/13 Q1011=
201205211620 METAR ESMX 211620Z 08006KT 030V140 CAVOK 25/12 Q1011=
201205211550 METAR ESMX 211550Z 10007KT 010V160 CAVOK 25/12 Q1011=
201205211520 METAR ESMX 211520Z 09007KT 050V140 CAVOK 25/12 Q1011=
201205211450 METAR ESMX 211450Z 10006KT 050V170 CAVOK 26/11 Q1011=
201205211420 METAR ESMX 211420Z 08006KT 030V120 CAVOK 24/12 Q1011=
201205211350 METAR ESMX 211350Z 06006KT 350V140 CAVOK 25/12 Q1011=
201205211320 METAR ESMX 211320Z 06006KT 020V130 CAVOK 26/12 Q1011=
201205211250 METAR ESMX 211250Z 07006KT 020V110 CAVOK 24/12 Q1011=
201205211220 METAR ESMX 211220Z 09008KT 040V160 CAVOK 25/13 Q1011=
201205211150 METAR ESMX 211150Z 09008KT 030V140 CAVOK 25/13 Q1011=
201205211120 METAR ESMX 211120Z 08009KT 020V130 9999 FEW045 25/13 Q1011=
201205211050 METAR ESMX 211050Z 08007KT 010V130 9999 SCT045 24/13 Q1011=
201205211020 METAR ESMX 211020Z 07007KT 010V140 9999 FEW045 24/13 Q1011=
201205210950 METAR ESMX 210950Z 08007KT 020V110 9999 FEW044 23/13 Q1012=
201205210920 METAR ESMX 210920Z 07007KT 020V150 CAVOK 24/14 Q1012=
201205210850 METAR ESMX 210850Z 08008KT 350V140 CAVOK 24/13 Q1012=
201205210820 METAR ESMX 210820Z 07008KT 010V140 CAVOK 23/14 Q1012=
201205210750 METAR ESMX 210750Z 05006KT 010V130 CAVOK 22/13 Q1012=
201205210720 METAR ESMX 210720Z 06004KT 360V110 CAVOK 20/13 Q1012=
201205210650 METAR ESMX 210650Z 05005KT 020V100 CAVOK 19/12 Q1012=
201205210620 METAR ESMX 210620Z 05004KT 010V100 CAVOK 18/11 Q1012=
201205210550 METAR ESMX 210550Z 05005KT 020V090 CAVOK 16/10 Q1012=
201205210520 METAR ESMX 210520Z 04005KT CAVOK 14/09 Q1012=
201205210450 METAR ESMX 210450Z 04004KT CAVOK 13/09 Q1012=
201205210420 METAR ESMX 210420Z 04005KT 010V070 CAVOK 12/09 Q1012=
201205210350 METAR ESMX 210350Z 01004KT CAVOK 11/09 Q1012=
201205210320 METAR ESMX 210320Z AUTO 01005KT 9999NDV FEW071/// 11/08 Q1013=
201205210250 METAR ESMX 210250Z AUTO 01004KT 9999NDV FEW067/// 10/08 Q1013=
201205210220 METAR ESMX 210220Z AUTO 02004KT 9999NDV FEW069/// 10/08 Q1013=
201205210150 METAR ESMX 210150Z AUTO 03004KT 9999NDV NCD 10/08 Q1013=
201205210120 METAR ESMX 210120Z AUTO 02003KT 9999NDV NCD 10/08 Q1013=
201205210050 METAR ESMX 210050Z AUTO 03003KT 9999NDV FEW065/// 11/08 Q1013=
201205210020 METAR ESMX 210020Z AUTO 07003KT 030V100 9999NDV NCD 11/09 Q1014=
201205202350 METAR ESMX 202350Z AUTO 04003KT 9999NDV NCD 10/08 Q1014=
201205202320 METAR ESMX 202320Z 03003KT CAVOK 10/08 Q1014=
201205202250 METAR ESMX 202250Z 05001KT CAVOK 10/07 Q1014=
201205202220 METAR ESMX 202220Z 04002KT CAVOK 09/07 Q1014=
201205202150 METAR ESMX 202150Z 07002KT CAVOK 12/08 Q1014=
201205202120 METAR ESMX 202120Z 05002KT CAVOK 13/08 Q1014=
201205202050 METAR ESMX 202050Z VRB02KT CAVOK 14/08 Q1014=
201205202020 METAR ESMX 202020Z VRB02KT CAVOK 15/08 Q1014=
201205201950 METAR ESMX 201950Z 13003KT 070V170 CAVOK 17/08 Q1014=
201205201920 METAR ESMX 201920Z 14005KT 090V170 CAVOK 18/09 Q1014=
201205201850 METAR ESMX 201850Z 14005KT 090V170 CAVOK 19/09 Q1014=
201205201820 METAR ESMX 201820Z 14005KT 090V180 CAVOK 20/09 Q1014=
201205201750 METAR ESMX 201750Z 15007KT 100V190 CAVOK 21/09 Q1013=
201205201720 METAR ESMX 201720Z 16006KT 130V200 CAVOK 22/06 Q1013=
201205201650 METAR ESMX 201650Z 18007KT 140V210 CAVOK 23/06 Q1013=
201205201620 METAR ESMX 201620Z 18007KT 150V210 CAVOK 23/07 Q1013=
201205201550 METAR ESMX 201550Z 20008KT CAVOK 23/06 Q1013=
201205201520 METAR ESMX 201520Z 18007KT 120V230 CAVOK 23/06 Q1013=
201205201450 METAR ESMX 201450Z 18007KT 140V230 CAVOK 23/07 Q1013=
201205201420 METAR ESMX 201420Z 13008KT 100V160 CAVOK 23/05 Q1013=
201205201350 METAR ESMX 201350Z 16007KT 130V200 CAVOK 24/05 Q1014=
201205201320 METAR ESMX 201320Z AUTO 18008KT 130V220 9999NDV FEW100/// 23/06 Q1014=
201205201250 METAR ESMX 201250Z AUTO 16007KT 120V220 9999NDV FEW074/// SCT092/// 23/06 Q1014=
201205201220 METAR ESMX 201220Z AUTO 17009KT 120V200 9999NDV FEW089/// 24/06 Q1014=
201205201150 METAR ESMX 201150Z AUTO 17008KT 120V210 9999NDV FEW090/// 23/06 Q1014=
201205201120 METAR ESMX 201120Z AUTO 16007KT 120V210 9999NDV FEW097/// 23/06 Q1014=
201205201050 METAR ESMX 201050Z 14006KT 060V210 CAVOK 23/07 Q1014=
201205201020 METAR ESMX 201020Z 13006KT 060V190 CAVOK 22/07 Q1014=
201205200950 METAR ESMX 200950Z 16006KT 100V200 CAVOK 21/06 Q1015=
201205200920 METAR ESMX 200920Z 14004KT 070V230 CAVOK 21/09 Q1015=
201205200850 METAR ESMX 200850Z 12004KT 070V160 CAVOK 20/09 Q1015=
201205200820 METAR ESMX 200820Z AUTO 12003KT 070V170 9999NDV NCD 18/10 Q1015=
201205200750 METAR ESMX 200750Z AUTO VRB02KT 9999NDV FEW091/// 16/10 Q1015=
201205200720 METAR ESMX 200720Z AUTO VRB02KT 9999NDV FEW059/// 14/09 Q1015=
201205200650 METAR ESMX 200650Z AUTO VRB02KT 9999NDV FEW057/// SCT099/// 12/08 Q1015=
201205200620 METAR ESMX 200620Z AUTO VRB01KT 9999NDV SCT099/// 12/08 Q1015=
201205200550 METAR ESMX 200550Z AUTO 07003KT 020V120 9999NDV BKN099/// 11/08 Q1015=
201205200520 METAR ESMX 200520Z AUTO VRB02KT 9999NDV FEW100/// 11/08 Q1015=
201205200450 METAR ESMX 200450Z AUTO 08004KT 030V120 9999NDV BKN097/// 10/08 Q1015=
201205200420 METAR ESMX 200420Z AUTO VRB01KT 9999NDV -RA SCT100/// 09/08 Q1015=
201205200350 METAR ESMX 200350Z AUTO VRB01KT 9999NDV BKN100/// 08/07 Q1015=
201205200320 METAR ESMX 200320Z AUTO VRB01KT 9999NDV BKN098/// 08/07 Q1014=
201205200250 METAR ESMX 200250Z AUTO 04001KT 9999NDV BKN100/// 07/06 Q1015=
201205200220 METAR ESMX 200220Z AUTO 00000KT 9999NDV BKN100/// 07/06 Q1015=
201205200150 METAR ESMX 200150Z AUTO 01001KT 9999NDV BKN100/// 07/05 Q1015=
201205200120 METAR ESMX 200120Z AUTO VRB01KT 9999NDV BKN110/// 08/06 Q1015=
201205200050 METAR ESMX 200050Z AUTO VRB01KT 9999NDV BKN110/// 09/06 Q1015=
201205200020 METAR ESMX 200020Z AUTO 14003KT 110V180 9999NDV BKN110/// 09/06 Q1015=
201205192350 METAR ESMX 192350Z AUTO VRB02KT 9999NDV BKN110/// 10/06 Q1015=
201205192320 METAR ESMX 192320Z AUTO 13003KT 100V170 9999NDV BKN110/// 10/06 Q1015=
201205192250 METAR ESMX 192250Z AUTO VRB02KT 9999NDV BKN110/// 10/06 Q1015=
201205192220 METAR ESMX 192220Z AUTO 13003KT 080V180 9999NDV OVC100/// 10/06 Q1016=
201205192150 METAR ESMX 192150Z AUTO VRB02KT 9999NDV SCT110/// 10/06 Q1016=
201205192120 METAR ESMX 192120Z AUTO 12003KT 080V160 9999NDV NCD 11/06 Q1016=
201205192050 METAR ESMX 192050Z AUTO 13003KT 070V170 9999NDV BKN091/// 12/06 Q1016=
201205192020 METAR ESMX 192020Z AUTO 11004KT 060V160 9999NDV BKN052/// BKN099/// 13/06 Q1015=
201205191950 METAR ESMX 191950Z AUTO 13004KT 070V170 9999NDV BKN051/// 13/06 Q1016=
201205191920 METAR ESMX 191920Z AUTO 13003KT 060V190 9999NDV FEW024/// OVC055/// 13/06 Q1016=
201205191850 METAR ESMX 191850Z AUTO 14003KT 080V180 9999NDV SCT056/// BKN069/// 13/06 Q1016=
201205191820 METAR ESMX 191820Z AUTO 14006KT 100V190 9999NDV BKN056/// BKN074/// 14/05 Q1015=
201205191750 METAR ESMX 191750Z AUTO 14005KT 080V190 9999NDV BKN053/// 15/05 Q1015=
201205191720 METAR ESMX 191720Z AUTO 17006KT 140V200 9999NDV OVC049/// 15/05 Q1015=
201205191650 METAR ESMX 191650Z AUTO 17006KT 110V200 9999NDV BKN057/// 15/05 Q1015=
201205191620 METAR ESMX 191620Z AUTO 16007KT 110V200 9999NDV BKN058/// 15/05 Q1015=
201205191550 METAR ESMX 191550Z AUTO 16009KT 130V190 9999NDV SCT068/// BKN085/// 16/04 Q1015=
201205191520 METAR ESMX 191520Z AUTO 15009KT 110V200 9999NDV BKN068/// 16/04 Q1016=
201205191450 METAR ESMX 191450Z AUTO 17009KT 140V210 9999NDV BKN069/// 16/04 Q1016=
201205191420 METAR ESMX 191420Z AUTO 14010KT 100V190 9999NDV BKN073/// 16/03 Q1016=
201205191350 METAR ESMX 191350Z AUTO 16010G20KT 090V200 9999NDV SCT072/// 16/03 Q1016=
201205191320 METAR ESMX 191320Z AUTO 16010KT 080V210 9999NDV BKN082/// 17/03 Q1016=
201205191250 METAR ESMX 191250Z AUTO 15009KT 110V200 9999NDV FEW059/// SCT100/// 17/02 Q1016=
201205191220 METAR ESMX 191220Z AUTO 15009G19KT 090V200 9999NDV FEW060/// 18/02 Q1016=
201205191150 METAR ESMX 191150Z AUTO 17013KT 140V200 9999NDV FEW060/// 18/02 Q1016=
201205191120 METAR ESMX 191120Z AUTO 14009KT 070V190 9999NDV FEW061/// 18/02 Q1016=
201205191050 METAR ESMX 191050Z AUTO 17012KT 130V200 9999NDV NCD 17/00 Q1017=
201205191020 METAR ESMX 191020Z AUTO 15008KT 100V190 9999NDV NCD 17/01 Q1017=
201205190950 METAR ESMX 190950Z AUTO 13008KT 080V200 9999NDV FEW054/// 17/02 Q1017=
201205190920 METAR ESMX 190920Z AUTO 13010KT 060V170 9999NDV FEW052/// 16/02 Q1017=
201205190850 METAR ESMX 190850Z AUTO 14009KT 080V200 9999NDV BKN050/// 16/03 Q1017=
201205190820 METAR ESMX 190820Z 15008KT 070V220 CAVOK 15/03 Q1017=
201205190750 METAR ESMX 190750Z 13007KT 070V180 CAVOK 15/03 Q1018=
201205190720 METAR ESMX 190720Z 12005KT 080V170 CAVOK 14/03 Q1017=
201205190650 METAR ESMX 190650Z 14006KT 080V170 CAVOK 13/04 Q1018=
201205190620 METAR ESMX 190620Z 13005KT 060V190 CAVOK 12/04 Q1018=
201205190550 METAR ESMX 190550Z 13005KT 090V170 CAVOK 11/04 Q1018=
201205190520 METAR ESMX 190520Z AUTO 14004KT 080V200 9999NDV NCD 11/03 Q1018=
201205190450 METAR ESMX 190450Z AUTO 11003KT 070V150 9999NDV NCD 10/03 Q1018=
201205190420 METAR ESMX 190420Z AUTO 13004KT 080V170 9999NDV NCD 09/03 Q1018=
201205190350 METAR ESMX 190350Z AUTO 13004KT 090V210 9999NDV NCD 08/02 Q1018=
201205190320 METAR ESMX 190320Z AUTO 12004KT 060V160 9999NDV NCD 07/02 Q1018=
201205190250 METAR ESMX 190250Z AUTO 11003KT 080V150 9999NDV NCD 06/03 Q1018=
201205190220 METAR ESMX 190220Z AUTO 13004KT 100V160 9999NDV NCD 06/03 Q1018=
201205190150 METAR ESMX 190150Z AUTO 13004KT 100V170 9999NDV FEW097/// 07/03 Q1018=
201205190120 METAR ESMX 190120Z AUTO 14003KT 100V180 9999NDV NCD 07/03 Q1018=
201205190050 METAR ESMX 190050Z AUTO 15004KT 110V170 9999NDV NCD 07/02 Q1018=
201205190020 METAR ESMX 190020Z AUTO 14004KT 120V190 9999NDV NCD 07/03 Q1018=
201205182350 METAR ESMX 182350Z AUTO 16005KT 9999NDV NCD 07/03 Q1018=
201205182320 METAR ESMX 182320Z AUTO 16006KT 9999NDV NCD 07/03 Q1018=
201205182250 METAR ESMX 182250Z AUTO VRB02KT 9999NDV NCD 05/03 Q1018=
201205182220 METAR ESMX 182220Z AUTO 14003KT 110V170 9999NDV NCD 06/03 Q1018=
201205182150 METAR ESMX 182150Z AUTO 15003KT 9999NDV NCD 07/04 Q1018=
201205182120 METAR ESMX 182120Z AUTO 16004KT 9999NDV NCD 08/04 Q1018=
201205182050 METAR ESMX 182050Z AUTO 17004KT 9999NDV NCD 10/04 Q1018=
201205182020 METAR ESMX 182020Z AUTO 18005KT 9999NDV SCT047/// 10/04 Q1018=
201205181950 METAR ESMX 181950Z AUTO 18006KT 9999NDV BKN046/// 11/04 Q1017=
201205181920 METAR ESMX 181920Z AUTO 18003KT 9999NDV FEW044/// 10/04 Q1017=
201205181850 METAR ESMX 181850Z AUTO 20003KT 9999NDV BKN042/// 11/04 Q1017=
201205181820 METAR ESMX 181820Z AUTO 20004KT 9999NDV BKN044/// 12/04 Q1017=
201205181750 METAR ESMX 181750Z AUTO 22008KT 9999NDV FEW044/// 12/03 Q1016=
201205181720 METAR ESMX 181720Z AUTO 21008KT 170V250 9999NDV SCT043/// 14/04 Q1016=
201205181650 METAR ESMX 181650Z AUTO 21008KT 170V250 9999NDV SCT043/// 14/04 Q1016=
201205181620 METAR ESMX 181620Z AUTO 21010KT 9999NDV SCT043/// 13/03 Q1016=
201205181550 METAR ESMX 181550Z 22009G19KT 160V250 9999 SCT045 13/04 Q1016=
201205181520 METAR ESMX 181520Z 22011KT 9999 BKN040 13/03 Q1016=
201205181450 METAR ESMX 181450Z 21013KT 170V270 9999 BKN045 14/03 Q1016=
201205181420 METAR ESMX 181420Z 22014KT 190V250 9999 BKN045 14/03 Q1016=
201205181350 METAR ESMX 181350Z 24011KT 200V270 CAVOK 14/02 Q1015=
201205181320 METAR ESMX 181320Z 25009KT 210V280 CAVOK 14/01 Q1015=
201205181250 METAR ESMX 181250Z 24007KT 200V310 CAVOK 14/M00 Q1015=
201205181220 METAR ESMX 181220Z 22012KT 190V260 CAVOK 14/M02 Q1015=
201205181150 METAR ESMX 181150Z 24012KT CAVOK 13/M04 Q1015=
201205181120 METAR ESMX 181120Z 21012KT 180V270 CAVOK 13/M03 Q1015=
201205181050 METAR ESMX 181050Z 23012KT 200V270 CAVOK 12/M03 Q1015=
201205181020 METAR ESMX 181020Z 25013KT 210V280 CAVOK 12/M03 Q1015=
201205180950 METAR ESMX 180950Z 26013KT 210V290 CAVOK 11/M02 Q1014=
201205180920 METAR ESMX 180920Z 22014KT 9999 FEW035 11/M00 Q1014=
201205180850 METAR ESMX 180850Z 23015KT 9999 FEW031 10/02 Q1014=
201205180820 METAR ESMX 180820Z 21013KT 9999 FEW028 SCT032 10/02 Q1014=
201205180750 METAR ESMX 180750Z 24009KT 9999 BKN024 08/03 Q1014=
201205180720 METAR ESMX 180720Z 22013KT 9999 BKN022 08/03 Q1014=
201205180650 METAR ESMX 180650Z 26009KT 210V290 9999 OVC020 07/02 Q1014=
201205180620 METAR ESMX 180620Z 24007KT 200V280 9999 OVC020 06/02 Q1013=
201205180550 METAR ESMX 180550Z 22010KT 9999 OVC020 05/02 Q1013=
201205180520 METAR ESMX 180520Z 24008KT 9999 OVC021 05/02 Q1013=
201205180450 METAR ESMX 180450Z AUTO 23010KT 9999NDV OVC022/// 05/02 Q1012=
201205180420 METAR ESMX 180420Z AUTO 23009KT 9999NDV OVC021/// 05/02 Q1012=
201205180350 METAR ESMX 180350Z AUTO 23008KT 9999NDV OVC021/// 05/02 Q1012=
201205180320 METAR ESMX 180320Z AUTO 22008KT 190V250 9999NDV OVC021/// 05/02 Q1012=
201205180250 METAR ESMX 180250Z AUTO 24008KT 210V280 9999NDV FEW020/// OVC023/// 05/02 Q1012=
201205180220 METAR ESMX 180220Z AUTO 21008KT 9999NDV OVC024/// 05/02 Q1012=
201205180150 METAR ESMX 180150Z AUTO 22007KT 9999NDV OVC025/// 05/03 Q1012=
201205180120 METAR ESMX 180120Z AUTO 22008KT 190V250 9999NDV FEW021/// BKN026/// OVC031/// 05/03 Q1012=
201205180050 METAR ESMX 180050Z AUTO 24006KT 210V270 9999NDV OVC030/// 05/03 Q1012=
201205180020 METAR ESMX 180020Z AUTO 23006KT 200V260 9999NDV FEW024/// BKN033/// 05/03 Q1012=
201205172350 METAR ESMX 172350Z AUTO 24006KT 210V280 9999NDV -DZ FEW015/// SCT025/// BKN040/// 05/03 Q1012=
201205172320 METAR ESMX 172320Z 25007KT 210V280 9999 FEW011 SCT015 BKN020 05/03 Q1012=
201205172250 METAR ESMX 172250Z 24005KT 210V280 8000 -SHRA FEW016 SCT023 BKN027 05/04 Q1011=
201205172220 METAR ESMX 172220Z 24006KT 210V270 9999 FEW020 SCT026 BKN031 05/04 Q1011=
201205172150 METAR ESMX 172150Z 23008KT 9999 FEW037 05/03 Q1011=
201205172120 METAR ESMX 172120Z 24008KT 200V260 9999 FEW013 SCT022 05/03 Q1011=
201205172020 METAR ESMX 172020Z 22008KT 170V260 9999 FEW021 SCT029 05/03 Q1011=
201205171950 METAR ESMX 171950Z 24010KT 9999 -SHRA FEW014 SCT019 BKN025 05/03 Q1011=
201205171920 METAR ESMX 171920Z 22009KT 9999 -SHRA FEW017 SCT026 BKN033 05/03 Q1011 REDZ=
201205171850 METAR ESMX 171850Z 24012KT 210V270 9999 FEW024 SCT089 05/03 Q1011=
201205171820 METAR ESMX 171820Z 23009KT 9999 FEW035 05/03 Q1011=
201205171750 METAR ESMX 171750Z 25012KT 210V280 9999 FEW013 FEW025CB 06/03 Q1011 RESHRA=
201205171720 METAR ESMX 171720Z 26010G20KT 220V280 9999 SHRA FEW015 SCT025CB 06/03 Q1011=
201205171650 METAR ESMX 171650Z 27013KT 240V300 9999 FEW025CB 07/02 Q1011=
201205171620 METAR ESMX 171620Z 26013KT 230V300 9999 FEW025CB 08/01 Q1010=
201205171550 METAR ESMX 171550Z 26013KT 9999 FEW030CB 07/02 Q1011=
201205171520 METAR ESMX 171520Z 26017G30KT 230V300 9999 FEW020 SCT030CB 08/03 Q1011=
201205171450 METAR ESMX 171450Z 26021KT 220V310 9999 FEW020 SCT030CB 09/02 Q1010=
201205171420 METAR ESMX 171420Z 26012KT 230V290 9999 FEW025CB SCT066 08/04 Q1010=
201205171350 METAR ESMX 171350Z 26012KT 220V300 9999 FEW015 SCT030CB 09/03 Q1010=
201205171320 METAR ESMX 171320Z 26014G24KT 220V290 9999 -SHRA FEW019 SCT030CB BKN073 09/04 Q1010=
201205171250 METAR ESMX 171250Z 26013KT 210V290 9999 FEW019 SCT050CB 09/05 Q1010=
201205171220 METAR ESMX 171220Z 24013KT 9999 -SHRA SCT018 BKN027 08/04 Q1010=
201205171150 METAR ESMX 171150Z 25014KT 210V280 9999 FEW017 BKN020 OVC026 08/05 Q1010=
201205171120 METAR ESMX 171120Z 25009KT 220V290 5000 FEW009 BKN017 OVC021 07/05 Q1010 REDZ=
201205171050 METAR ESMX 171050Z 23012G22KT 190V270 9999 FEW012 OVC015 08/04 Q1010=
201205171020 METAR ESMX 171020Z 21012KT 190V250 9999 FEW013 OVC019 07/05 Q1010=
201205170950 METAR ESMX 170950Z 24012G22KT 200V270 9999 -RA BKN016 OVC026 07/04 Q1010=
201205170920 METAR ESMX 170920Z 22014KT 170V260 9999 BKN015 OVC020 08/04 Q1010=
201205170850 METAR ESMX 170850Z 22012KT 9999 OVC014 08/04 Q1010=
201205170820 METAR ESMX 170820Z 21014KT 9999 BKN013 OVC021 07/04 Q1009=
201205170750 METAR ESMX 170750Z 22011KT 190V260 9999 BKN013 OVC020 07/04 Q1009=
201205170720 METAR ESMX 170720Z 22012KT 190V260 9999 SCT013 BKN018 OVC024 07/04 Q1009=
201205170650 METAR ESMX 170650Z 23011KT 200V260 9999 FEW011 SCT014 OVC019 07/04 Q1009=
201205170620 METAR ESMX 170620Z 23010KT 200V260 9999 BKN010 OVC015 06/04 Q1009=
201205170550 METAR ESMX 170550Z 21009KT 170V240 9999 OVC010 06/05 Q1009 REDZ=
201205170520 METAR ESMX 170520Z 21009KT 9999 FEW009 BKN010 OVC015 06/04 Q1009=
201205170450 METAR ESMX 170450Z 20009KT 170V240 9999 BKN009 OVC014 06/04 Q1009=
201205170420 METAR ESMX 170420Z 20009KT 9999 BKN010 OVC012 06/04 Q1009=
201205170350 METAR ESMX 170350Z AUTO 23009KT 9999NDV FEW009/// SCT015/// BKN021/// 06/04 Q1009=
201205170320 METAR ESMX 170320Z AUTO 23009KT 9999NDV -RA FEW010/// SCT015/// BKN018/// 05/04 Q1009=
201205170250 METAR ESMX 170250Z AUTO 23008KT 9999NDV FEW011/// BKN018/// BKN034/// 05/04 Q1009=
201205170220 METAR ESMX 170220Z AUTO 21008KT 9999NDV FEW013/// SCT020/// OVC026/// 06/03 Q1009=
201205170150 METAR ESMX 170150Z AUTO 22009KT 9999NDV FEW016/// BKN023/// 06/03 Q1010=
201205170120 METAR ESMX 170120Z AUTO 22008KT 9999NDV FEW014/// SCT016/// 05/03 Q1010=
201205170050 METAR ESMX 170050Z AUTO 23009KT 210V270 9999NDV FEW010/// SCT013/// BKN015/// 06/03 Q1010=
201205170020 METAR ESMX 170020Z AUTO 22006KT 190V250 9999NDV FEW012/// BKN017/// 06/04 Q1009=
201205162350 METAR ESMX 162350Z AUTO 23011KT 9999NDV FEW014/// SCT019/// BKN024/// 06/03 Q1009=
201205162320 METAR ESMX 162320Z AUTO 24009KT 200V260 9999NDV SCT011/// OVC016/// 07/04 Q1009=
201205162250 METAR ESMX 162250Z AUTO 22008KT 190V250 9999NDV BKN010/// 06/04 Q1009=
201205162220 METAR ESMX 162220Z AUTO 24008KT 9999NDV FEW010/// BKN048/// 07/05 Q1009=
201205162150 METAR ESMX 162150Z AUTO 23007KT 9999NDV SCT050/// 07/05 Q1010=
201205162120 METAR ESMX 162120Z AUTO 22007KT 9999NDV FEW053/// 08/04 Q1009=
201205162050 METAR ESMX 162050Z AUTO 22006KT 9999NDV FEW042/// BKN051/// 09/05 Q1009=
201205162020 METAR ESMX 162020Z AUTO 21003KT 9999NDV BKN038/// OVC053/// 09/06 Q1009=
201205161950 METAR ESMX 161950Z AUTO 24004KT 9999NDV BKN036/// BKN056/// 09/06 Q1009=
201205161920 METAR ESMX 161920Z AUTO 23004KT 190V260 9999NDV FEW024/// OVC033/// 10/06 Q1009=
201205161850 METAR ESMX 161850Z 22007KT 9999 SCT032 BKN040 BKN075 10/06 Q1009=
201205161820 METAR ESMX 161820Z 24005KT 200V270 9999 FEW027 SCT030 BKN040 11/07 Q1009=
201205161750 METAR ESMX 161750Z 25006KT 220V290 9999 FEW024 BKN030 BKN044 12/07 Q1009=
201205161720 METAR ESMX 161720Z 24004KT 9999 FEW029 SCT036 12/07 Q1009=
201205161650 METAR ESMX 161650Z 20006KT 9999 BKN035 12/06 Q1008=
201205161620 METAR ESMX 161620Z 17005KT 130V200 9999 SCT040 13/06 Q1008=
201205161550 METAR ESMX 161550Z 11003KT 050V160 9999 FEW042 BKN061 12/08 Q1008=
201205161520 METAR ESMX 161520Z 10004KT 060V130 9999 SCT040 BKN054 BKN071 11/08 Q1009=
201205161450 METAR ESMX 161450Z 08004KT 030V120 9999 VCSH FEW041CB SCT041 BKN077 12/09 Q1009=
201205161420 METAR ESMX 161420Z 08005KT 030V150 9999 FEW023 SCT056CB BKN073 11/08 Q1009 RERASH=
201205161350 METAR ESMX 161350Z 11003KT 050V160 9999 DZ FEW023 SCT048 BKN065 11/07 Q1009=
201205161320 METAR ESMX 161320Z 11004KT 070V190 9999 -RA FEW045 BKN060 13/06 Q1009=
201205161250 METAR ESMX 161250Z VRB01KT 9999 FEW026 SCT086 12/07 Q1009=
201205161220 METAR ESMX 161220Z 11008KT 080V160 9999 -RA FEW023 SCT046 BKN060 11/07 Q1009=
201205161150 METAR ESMX 161150Z 12006KT 070V180 9999 -RA FEW046CB SCT067 BKN082 14/04 Q1009=
201205161120 METAR ESMX 161120Z 11004KT 050V180 9999 VCSH FEW045CB SCT073 BKN084 13/04 Q1009=
201205161050 METAR ESMX 161050Z 12006G19KT 070V200 9999 VCSH FEW044CB BKN075 13/03 Q1009=
201205161020 METAR ESMX 161020Z 15008KT 100V190 9999 VCSH FEW046CB BKN086 14/03 Q1009=
201205160950 METAR ESMX 160950Z 15008KT 110V190 9999 FEW046 SCT055 BKN087 14/03 Q1008=
201205160920 METAR ESMX 160920Z 15008KT 100V210 9999 SCT048 BKN085 15/03 Q1008=
201205160850 METAR ESMX 160850Z VRB07KT 9999 BKN048 15/03 Q1008=
201205160820 METAR ESMX 160820Z 12006KT 080V190 9999 FEW045 15/03 Q1008=
201205160750 METAR ESMX 160750Z 12005KT 050V150 CAVOK 15/05 Q1008=
201205160720 METAR ESMX 160720Z 08005KT 020V150 CAVOK 13/05 Q1008=
201205160650 METAR ESMX 160650Z 04003KT 360V080 CAVOK 11/05 Q1008=
201205160620 METAR ESMX 160620Z VRB02KT CAVOK 10/04 Q1008=
201205160550 METAR ESMX 160550Z 09004KT 060V130 CAVOK 09/04 Q1008=
201205160520 METAR ESMX 160520Z 09003KT 050V120 CAVOK 08/04 Q1008=
201205160450 METAR ESMX 160450Z 09004KT CAVOK 07/04 Q1009=
201205160420 METAR ESMX 160420Z 09004KT 040V140 CAVOK 07/04 Q1009=
201205160350 METAR ESMX 160350Z 09003KT 040V110 CAVOK 07/03 Q1008=
201205160320 METAR ESMX 160320Z 08003KT CAVOK 06/03 Q1008=
201205160250 METAR ESMX 160250Z AUTO 08003KT 050V120 9999NDV BKN100/// 06/03 Q1008=
201205160220 METAR ESMX 160220Z AUTO 07003KT 050V110 9999NDV OVC100/// 06/03 Q1008=
201205160150 METAR ESMX 160150Z AUTO 07003KT 040V110 9999NDV OVC100/// 07/03 Q1008=
201205160120 METAR ESMX 160120Z AUTO 09003KT 060V140 9999NDV FEW068/// OVC100/// 08/03 Q1009=
201205160050 METAR ESMX 160050Z AUTO 10003KT 030V140 9999NDV FEW072/// BKN100/// 08/02 Q1009=
201205160020 METAR ESMX 160020Z AUTO VRB02KT 9999NDV BKN066/// 08/02 Q1009=
201205152350 METAR ESMX 152350Z AUTO 10003KT 030V160 9999NDV BKN065/// 08/02 Q1009=
201205152320 METAR ESMX 152320Z 10003KT 050V140 CAVOK 08/01 Q1009=
201205152250 METAR ESMX 152250Z 11003KT 050V160 CAVOK 08/02 Q1009=
201205152220 METAR ESMX 152220Z 12003KT 050V170 CAVOK 08/02 Q1009=
201205152150 METAR ESMX 152150Z VRB03KT CAVOK 08/02 Q1009=
201205152120 METAR ESMX 152120Z 13003KT 070V200 CAVOK 09/02 Q1009=
201205152050 METAR ESMX 152050Z 11004KT 050V170 CAVOK 09/01 Q1010=
201205152020 METAR ESMX 152020Z 10003KT 050V160 CAVOK 09/01 Q1010=
201205151950 METAR ESMX 151950Z 11003KT 050V150 CAVOK 10/01 Q1009=
201205151920 METAR ESMX 151920Z 12003KT 050V190 CAVOK 11/01 Q1009=
201205151850 METAR ESMX 151850Z 11004KT 040V180 CAVOK 11/02 Q1009=
201205151820 METAR ESMX 151820Z 12004KT 050V200 CAVOK 11/03 Q1009=
201205151750 METAR ESMX 151750Z 11006KT 050V190 CAVOK 12/03 Q1009=
201205151720 METAR ESMX 151720Z 14004KT 100V190 CAVOK 13/02 Q1009=
201205151650 METAR ESMX 151650Z 15006KT 120V190 CAVOK 13/01 Q1009=
201205151620 METAR ESMX 151620Z 15008KT 110V190 CAVOK 14/01 Q1009=
201205151550 METAR ESMX 151550Z 15012KT CAVOK 14/02 Q1009=
201205151520 METAR ESMX 151520Z 16007KT 110V210 CAVOK 14/02 Q1009=
201205151450 METAR ESMX 151450Z 16011KT 120V210 CAVOK 15/03 Q1010=
201205151420 METAR ESMX 151420Z 17012KT 120V200 9999 VCSH FEW040CB BKN065 15/02 Q1010=
201205151350 METAR ESMX 151350Z 16006KT 090V220 CAVOK 15/02 Q1010=
201205151320 METAR ESMX 151320Z 15007KT 110V190 9999 VCSH FEW020CB BKN085 13/02 Q1010 RERA=
201205151250 METAR ESMX 151250Z 16009KT 110V190 CAVOK 14/01 Q1010=
201205151220 METAR ESMX 151220Z 18012KT 150V220 9999 FEW045 BKN085 15/01 Q1010=
201205151150 METAR ESMX 151150Z 17010KT 120V200 CAVOK 15/01 Q1010=
201205151120 METAR ESMX 151120Z 15009KT 100V200 CAVOK 14/01 Q1010=
201205151050 METAR ESMX 151050Z 15008KT 070V230 CAVOK 14/02 Q1011=
201205151020 METAR ESMX 151020Z 16010KT 120V210 CAVOK 14/02 Q1011=
201205150950 METAR ESMX 150950Z 15010KT 100V190 CAVOK 15/01 Q1011=
201205150920 METAR ESMX 150920Z 18010G20KT 140V230 CAVOK 15/02 Q1011=
201205150850 METAR ESMX 150850Z 17010KT 120V220 CAVOK 14/01 Q1011=
201205150820 METAR ESMX 150820Z 15008KT 090V210 CAVOK 15/03 Q1011=
201205150750 METAR ESMX 150750Z 16008KT 110V200 CAVOK 14/05 Q1012=
201205150720 METAR ESMX 150720Z 16007KT 110V190 CAVOK 13/05 Q1012=
201205150650 METAR ESMX 150650Z 16007KT 110V220 CAVOK 12/05 Q1012=
201205150620 METAR ESMX 150620Z 15006KT 120V200 CAVOK 11/06 Q1012=
201205150550 METAR ESMX 150550Z 16006KT 110V200 CAVOK 10/05 Q1012=
201205150520 METAR ESMX 150520Z 16006KT 120V210 CAVOK 09/05 Q1012=
201205150450 METAR ESMX 150450Z 15007KT 120V190 CAVOK 09/05 Q1012=
201205150420 METAR ESMX 150420Z 15007KT 110V190 CAVOK 08/04 Q1012=
201205150350 METAR ESMX 150350Z 15006KT 110V190 CAVOK 07/04 Q1012=
201205150320 METAR ESMX 150320Z 15005KT 110V190 CAVOK 07/04 Q1012=
201205150250 METAR ESMX 150250Z AUTO 14006KT 080V170 9999NDV NCD 07/04 Q1013=
201205150220 METAR ESMX 150220Z AUTO 14004KT 100V220 9999NDV FEW063/// 07/04 Q1013=
201205150150 METAR ESMX 150150Z AUTO 13003KT 070V190 9999NDV BKN058/// 07/04 Q1013=
201205150120 METAR ESMX 150120Z AUTO 12003KT 080V160 9999NDV BKN054/// 07/04 Q1013=
201205150050 METAR ESMX 150050Z VRB01KT CAVOK 07/04 Q1014=
201205150020 METAR ESMX 150020Z 15005KT 080V200 CAVOK 07/04 Q1014=
201205142350 METAR ESMX 142350Z 15006KT 120V190 CAVOK 08/04 Q1014=
201205142320 METAR ESMX 142320Z 16006KT 120V200 CAVOK 08/04 Q1014=
201205142250 METAR ESMX 142250Z 16006KT 120V190 CAVOK 08/04 Q1014=
201205142220 METAR ESMX 142220Z 17007KT 140V200 CAVOK 08/04 Q1015=
201205142150 METAR ESMX 142150Z 17008KT 140V200 CAVOK 08/04 Q1015=
201205142120 METAR ESMX 142120Z 16008KT 130V200 CAVOK 09/03 Q1015=
201205142050 METAR ESMX 142050Z 17006KT 130V200 CAVOK 09/03 Q1015=
201205142020 METAR ESMX 142020Z 17007KT 130V200 CAVOK 09/02 Q1015=
201205141950 METAR ESMX 141950Z 16006KT 140V200 CAVOK 10/02 Q1015=
201205141920 METAR ESMX 141920Z 18007KT 140V210 CAVOK 10/02 Q1015=
201205141850 METAR ESMX 141850Z 17009KT 9999 FEW044 10/03 Q1015=
201205141820 METAR ESMX 141820Z 18010KT CAVOK 11/03 Q1015=
201205141750 METAR ESMX 141750Z 19011KT CAVOK 11/02 Q1015=
201205141720 METAR ESMX 141720Z 19014KT CAVOK 11/01 Q1015=
201205141650 METAR ESMX 141650Z 20012KT CAVOK 11/01 Q1015=
201205141620 METAR ESMX 141620Z 20015KT CAVOK 12/01 Q1015=
201205141550 METAR ESMX 141550Z 19014KT 160V220 CAVOK 12/01 Q1015=
201205141520 METAR ESMX 141520Z 21014KT 170V240 9999 FEW049 12/01 Q1015=
201205141450 METAR ESMX 141450Z 20015KT 9999 FEW047 12/02 Q1015=
201205141420 METAR ESMX 141420Z 20016KT 9999 FEW046 13/02 Q1015=
201205141350 METAR ESMX 141350Z 21014KT 9999 SCT047 13/02 Q1015=
201205141320 METAR ESMX 141320Z 20016KT 9999 BKN046 13/02 Q1015=
201205141250 METAR ESMX 141250Z 19016KT 9999 BKN047 13/02 Q1015=
201205141220 METAR ESMX 141220Z 20016KT 9999 BKN048 13/02 Q1015=
201205141150 METAR ESMX 141150Z 22016KT 9999 BKN048 13/02 Q1015=
201205141120 METAR ESMX 141120Z 20016KT 9999 SCT047 13/01 Q1015=
201205141050 METAR ESMX 141050Z 21015KT 9999 SCT042 14/02 Q1016=
201205141020 METAR ESMX 141020Z 20018KT 170V230 9999 SCT044 13/01 Q1016=
201205140950 METAR ESMX 140950Z 20015KT 170V240 9999 FEW045 13/02 Q1016=
201205140920 METAR ESMX 140920Z 19017KT 9999 FEW041 BKN047 12/02 Q1017=
201205140850 METAR ESMX 140850Z 20017KT 170V240 9999 FEW039 SCT048 12/02 Q1017=
201205140820 METAR ESMX 140820Z 19018KT 9999 BKN034 12/04 Q1017=
201205140750 METAR ESMX 140750Z 20020KT 9999 SCT035 11/03 Q1017=
201205140720 METAR ESMX 140720Z 21020KT CAVOK 11/03 Q1017=
201205140650 METAR ESMX 140650Z 21018KT 9999 FEW030 10/04 Q1018=
201205140620 METAR ESMX 140620Z 20014KT CAVOK 10/02 Q1018=
201205140550 METAR ESMX 140550Z 19013KT CAVOK 09/04 Q1018=
201205140520 METAR ESMX 140520Z 19013KT CAVOK 08/04 Q1018=
201205140450 METAR ESMX 140450Z 19011KT 9999 FEW041 07/04 Q1018=
201205140420 METAR ESMX 140420Z 19009KT CAVOK 06/04 Q1018=
201205140350 METAR ESMX 140350Z 19008KT CAVOK 05/03 Q1018=
201205140320 METAR ESMX 140320Z 19008KT CAVOK 04/03 Q1019=
201205140250 METAR ESMX 140250Z AUTO 20009KT 9999NDV NCD 04/02 Q1019=
201205140220 METAR ESMX 140220Z AUTO 20008KT 9999NDV NCD 04/02 Q1019=
201205140150 METAR ESMX 140150Z AUTO 20008KT 9999NDV NCD 04/02 Q1019=
201205140120 METAR ESMX 140120Z AUTO 19007KT 9999NDV NCD 04/02 Q1020=
201205140050 METAR ESMX 140050Z AUTO 18007KT 9999NDV NCD 04/02 Q1020=
201205140020 METAR ESMX 140020Z AUTO 18008KT 9999NDV NCD 05/02 Q1020=
201205132350 METAR ESMX 132350Z 18007KT CAVOK 05/02 Q1020=
201205132320 METAR ESMX 132320Z 20006KT CAVOK 04/02 Q1021=
201205132250 METAR ESMX 132250Z 18006KT CAVOK 05/02 Q1021=
201205132220 METAR ESMX 132220Z 17005KT CAVOK 06/03 Q1021=
201205132150 METAR ESMX 132150Z 20005KT CAVOK 05/02 Q1021=
201205132120 METAR ESMX 132120Z 22004KT CAVOK 05/02 Q1022=
201205132050 METAR ESMX 132050Z 23005KT 190V260 CAVOK 06/02 Q1022=
201205132020 METAR ESMX 132020Z 24006KT CAVOK 06/02 Q1022=
201205131950 METAR ESMX 131950Z 23005KT CAVOK 06/01 Q1022=
201205131920 METAR ESMX 131920Z 24005KT CAVOK 08/00 Q1022=
201205131850 METAR ESMX 131850Z 24005KT 210V280 CAVOK 09/M01 Q1022=
201205131820 METAR ESMX 131820Z 23005KT CAVOK 10/M02 Q1022=
201205131750 METAR ESMX 131750Z 24008KT CAVOK 11/M01 Q1022=
201205131720 METAR ESMX 131720Z 24010KT 210V280 CAVOK 12/M01 Q1022=
201205131650 METAR ESMX 131650Z 26009KT 220V280 CAVOK 12/M01 Q1022=
201205131620 METAR ESMX 131620Z 26010KT 230V290 CAVOK 13/M01 Q1022=
201205131550 METAR ESMX 131550Z 24010KT 200V280 CAVOK 14/M00 Q1022=
201205131520 METAR ESMX 131520Z 26010KT 210V300 CAVOK 14/M00 Q1022=
201205131450 METAR ESMX 131450Z 24007KT 200V280 9999 FEW036 BKN070 14/02 Q1023=
201205131420 METAR ESMX 131420Z 24008KT 210V270 CAVOK 14/03 Q1023=
201205131350 METAR ESMX 131350Z 20010KT CAVOK 12/02 Q1023=
201205131320 METAR ESMX 131320Z AUTO 21010KT 180V240 9999NDV FEW052/// OVC072/// 13/01 Q1023=
201205131250 METAR ESMX 131250Z AUTO 22010KT 180V250 9999NDV FEW059/// BKN071/// 14/02 Q1023=
201205131220 METAR ESMX 131220Z AUTO 24010KT 200V280 9999NDV FEW053/// BKN065/// 13/M01 Q1024=
201205131150 METAR ESMX 131150Z AUTO 22009KT 190V250 9999NDV BKN062/// 13/00 Q1024=
201205131120 METAR ESMX 131120Z AUTO 26008KT 9999NDV BKN062/// 14/M00 Q1024=
201205131050 METAR ESMX 131050Z AUTO 23006KT 190V260 9999NDV BKN060/// 13/M01 Q1024=
201205131020 METAR ESMX 131020Z AUTO 23007KT 200V260 9999NDV SCT061/// 14/M01 Q1024=
201205130950 METAR ESMX 130950Z AUTO 25008KT 9999NDV FEW064/// 13/M01 Q1024=
201205130920 METAR ESMX 130920Z AUTO 30007KT 270V340 9999NDV FEW058/// 12/M01 Q1024=
201205130850 METAR ESMX 130850Z AUTO VRB03KT 9999NDV NCD 12/M01 Q1025=
201205130820 METAR ESMX 130820Z AUTO VRB02KT 9999NDV NCD 12/M02 Q1025=
201205130750 METAR ESMX 130750Z AUTO 32006KT 9999NDV NCD 11/M02 Q1025=
201205130720 METAR ESMX 130720Z AUTO 03003KT 330V110 9999NDV NCD 11/M03 Q1025=
201205130650 METAR ESMX 130650Z AUTO 36003KT 310V040 9999NDV NCD 10/M02 Q1025=
201205130620 METAR ESMX 130620Z AUTO 02003KT 340V050 9999NDV NCD 09/00 Q1024=
201205130550 METAR ESMX 130550Z AUTO VRB01KT 9999NDV NCD 09/03 Q1025=
201205130520 METAR ESMX 130520Z AUTO VRB01KT 9999NDV NCD 06/05 Q1024=
201205130450 METAR ESMX 130450Z AUTO 17001KT 9999NDV NCD 03/03 Q1024=
201205130420 METAR ESMX 130420Z AUTO 18002KT 9999NDV NCD 01/01 Q1024=
201205130350 METAR ESMX 130350Z AUTO VRB01KT 9999NDV NCD M00/M01 Q1024=
201205130320 METAR ESMX 130320Z AUTO VRB01KT 1100NDV R01/P2000N R19/0800VP2000N NCD M00/M00 Q1024=
201205130250 METAR ESMX 130250Z AUTO 28002KT 1200NDV R01/P2000N R19/P2000D NCD 01/00 Q1024=
201205130220 METAR ESMX 130220Z AUTO 27002KT 0800NDV R01/P2000N R19/P2000D NCD 00/M00 Q1024=
201205130150 METAR ESMX 130150Z AUTO VRB01KT 3100NDV NCD 02/01 Q1024=
201205130120 METAR ESMX 130120Z AUTO VRB02KT 9999NDV NCD 03/02 Q1023=
201205130050 METAR ESMX 130050Z AUTO 28003KT 9999NDV NCD 03/02 Q1024=
201205130020 METAR ESMX 130020Z AUTO 29003KT 260V330 9999NDV NCD 04/03 Q1023=
201205122350 METAR ESMX 122350Z AUTO 28004KT 9999NDV NCD 05/04 Q1023=
201205122320 METAR ESMX 122320Z AUTO 28004KT 9999NDV FEW089/// 05/04 Q1023=
201205122250 METAR ESMX 122250Z AUTO 27003KT 9999NDV FEW061/// BKN090/// 06/04 Q1023=
201205122220 METAR ESMX 122220Z AUTO 27005KT 9999NDV FEW051/// BKN089/// 06/04 Q1023=
201205122150 METAR ESMX 122150Z AUTO 27004KT 9999NDV FEW054/// SCT071/// BKN083/// 06/05 Q1023=
201205122120 METAR ESMX 122120Z AUTO 26003KT 9999NDV SCT070/// BKN083/// BKN094/// 05/04 Q1022=
201205122050 METAR ESMX 122050Z AUTO 25004KT 9999NDV FEW071/// SCT086/// 05/04 Q1022=
201205122020 METAR ESMX 122020Z AUTO 26004KT 9999NDV SCT083/// 05/04 Q1022=
201205121950 METAR ESMX 121950Z AUTO 26004KT 9999NDV BKN084/// 06/04 Q1022=
201205121920 METAR ESMX 121920Z AUTO 30004KT 9999NDV FEW093/// 08/04 Q1021=
201205121850 METAR ESMX 121850Z AUTO 31004KT 9999NDV FEW095/// 08/05 Q1021=
201205121820 METAR ESMX 121820Z AUTO 33005KT 9999NDV FEW032/// SCT048/// 08/05 Q1020=
201205121750 METAR ESMX 121750Z AUTO 32004KT 280V350 9999NDV FEW022/// SCT032/// BKN046/// 09/06 Q1020 RESHRA=
201205121720 METAR ESMX 121720Z AUTO 30004KT 260V340 9999NDV SCT028/// BKN038/// 09/06 Q1020=
201205121650 METAR ESMX 121650Z AUTO 33006KT 300V360 9999NDV FEW070/// 09/05 Q1019 RERA=
201205121620 METAR ESMX 121620Z AUTO 34006KT 300V020 9999NDV FEW022/// SCT044/// 09/05 Q1019=
201205121550 METAR ESMX 121550Z AUTO 33009KT 300V010 9999NDV FEW019/// SCT039/// BKN071/// 09/05 Q1019=
201205121520 METAR ESMX 121520Z AUTO 33011KT 300V010 9999NDV FEW019/// 09/06 Q1018=
201205121450 METAR ESMX 121450Z AUTO 32012KT 290V350 9999NDV -DZ FEW016/// SCT036/// BKN048/// 09/06 Q1018=
201205121420 METAR ESMX 121420Z AUTO 32013KT 9999NDV -RA FEW015/// SCT046/// 09/06 Q1017=
201205121350 METAR ESMX 121350Z AUTO 31012KT 290V360 9999NDV -RA FEW015/// SCT023/// BKN068/// 09/06 Q1017=
201205121320 METAR ESMX 121320Z AUTO 31010KT 280V340 9999NDV -DZ FEW031/// SCT042/// 09/06 Q1016=
201205121250 METAR ESMX 121250Z AUTO 31010KT 9999NDV -RA FEW023/// SCT029/// BKN040/// 09/06 Q1016=
201205121220 METAR ESMX 121220Z AUTO 32009KT 9999NDV SCT022/// BKN056/// 09/06 Q1016=
201205121150 METAR ESMX 121150Z AUTO 33011KT 300V010 9000NDV -DZ FEW012/// SCT020/// BKN029/// 08/06 Q1015=
201205121120 METAR ESMX 121120Z AUTO 31011KT 290V360 8000NDV -RA FEW017/// SCT023/// 08/06 Q1015=
201205121050 METAR ESMX 121050Z AUTO 31011KT 280V350 9999NDV FEW015/// SCT021/// BKN029/// 09/06 Q1014 RESHRA=
201205121020 METAR ESMX 121020Z AUTO 31010KT 280V350 9999NDV RA FEW016/// SCT026/// BKN058/// 08/05 Q1013=
201205120950 METAR ESMX 120950Z AUTO 29011KT 250V340 4600NDV -RA FEW012/// SCT017/// BKN020/// 08/05 Q1013=
201205120920 METAR ESMX 120920Z 28011KT 240V300 9999 FEW012 SCT026 BKN049 08/06 Q1012=
201205120850 METAR ESMX 120850Z 26010KT 230V290 4100 -RA FEW010 SCT016 BKN023 08/06 Q1012=
201205120820 METAR ESMX 120820Z 25012KT 220V290 9999 -RA SCT012 BKN016 08/05 Q1011=
201205120750 METAR ESMX 120750Z 24010KT 210V030 9999 BKN011 OVC017 08/05 Q1011=
201205120720 METAR ESMX 120720Z 25012KT 220V290 9000 OVC012 07/05 Q1011=
201205120650 METAR ESMX 120650Z 26015KT 9999 OVC012 07/04 Q1010=
201205120620 METAR ESMX 120620Z 25012KT 9999 BKN011 07/04 Q1010=
201205120550 METAR COR ESMX 120550Z 25012KT 220V290 9999 SCT010 BKN014 06/04 Q1010=
201205120520 METAR ESMX 120520Z AUTO 25013G23KT 220V280 9999NDV BR FEW011/// BKN014/// 06/04 Q1009 REDZ=
201205120450 METAR ESMX 120450Z AUTO 25014KT 210V290 7000NDV DZ FEW011/// SCT014/// BKN017/// 06/04 Q1009=
201205120420 METAR ESMX 120420Z AUTO 24013KT 200V270 6000NDV -RA FEW013/// BKN015/// BKN023/// 06/04 Q1009=
201205120350 METAR ESMX 120350Z AUTO 25013KT 210V270 9999NDV -DZ SCT013/// BKN019/// BKN024/// 06/04 Q1009=
201205120320 METAR ESMX 120320Z AUTO 23015G25KT 200V280 8000NDV -RA FEW018/// BKN020/// BKN030/// 06/04 Q1009=
201205120250 METAR ESMX 120250Z AUTO 26017KT 230V290 9999NDV FEW019/// OVC023/// 06/03 Q1009=
201205120220 METAR ESMX 120220Z AUTO 24011KT 210V270 9999NDV -DZ SCT016/// BKN021/// OVC025/// 06/03 Q1009=
201205120150 METAR ESMX 120150Z AUTO 23012KT 200V260 9999NDV FEW017/// SCT022/// BKN028/// 06/03 Q1009=
201205120120 METAR ESMX 120120Z AUTO 23014KT 200V260 9999NDV FEW013/// SCT028/// BKN036/// 06/03 Q1009=
201205120050 METAR ESMX 120050Z AUTO 26013KT 9999NDV -DZ FEW015/// SCT023/// BKN034/// 06/04 Q1010=
201205120020 METAR ESMX 120020Z AUTO 24017G29KT 210V280 9999NDV -RA FEW014/// SCT021/// BKN029/// 07/03 Q1009 REDZ=
201205112350 METAR ESMX 112350Z AUTO 24015G28KT 200V300 9999NDV FEW028/// BKN036/// 07/02 Q1009=
201205112320 METAR ESMX 112320Z AUTO 25015G27KT 220V280 9999NDV BKN024/// OVC032/// 07/02 Q1010=
201205112250 METAR ESMX 112250Z AUTO 23012KT 200V260 9999NDV FEW019/// SCT036/// 07/03 Q1010=
201205112220 METAR ESMX 112220Z AUTO 25010KT 9999NDV FEW027/// BKN033/// BKN057/// 08/03 Q1010=
201205112150 METAR ESMX 112150Z AUTO 23013G24KT 210V270 9999NDV FEW026/// SCT051/// 08/02 Q1010=
201205112120 METAR ESMX 112120Z AUTO 26016KT 230V300 9999NDV FEW025/// OVC045/// 08/03 Q1010=
201205112050 METAR ESMX 112050Z AUTO 26013KT 220V290 9999NDV BKN043/// BKN058/// 08/04 Q1010=
201205112020 METAR ESMX 112020Z AUTO 26013KT 230V290 9999NDV FEW022/// SCT043/// 08/06 Q1010 REDZ=
201205111950 METAR ESMX 111950Z AUTO 26014KT 230V290 9999NDV FEW020/// SCT027/// BKN050/// 10/06 Q1009=
201205111920 METAR ESMX 111920Z AUTO 24023KT 9999NDV FEW031/// BKN051/// 11/06 Q1009=
201205111850 METAR ESMX 111850Z 24016G27KT 210V270 9999 FEW029 BKN052 12/06 Q1009=
201205111820 METAR ESMX 111820Z 24016KT 200V280 9999 -SHRA FEW028CB SCT038 13/07 Q1009=
201205111750 METAR ESMX 111750Z 23017G27KT 210V270 9999 FEW036 14/07 Q1009=
201205111720 METAR ESMX 111720Z 25018G29KT 210V280 9999 FEW033 SCT040 14/07 Q1009=
201205111650 METAR ESMX 111650Z 23018KT 9999 FEW034 SCT045 15/07 Q1009=
201205111620 METAR ESMX 111620Z 23015G28KT 190V260 9999 FEW038 SCT045 16/07 Q1009=
201205111550 METAR ESMX 111550Z 23021G31KT 200V280 9999 FEW041 SCT045 17/07 Q1009=
201205111520 METAR ESMX 111520Z 21016G27KT 9999 SCT045 16/08 Q1009=
201205111450 METAR ESMX 111450Z 23016G28KT 200V270 9999 SCT044 17/08 Q1009=
201205111420 METAR ESMX 111420Z 23016KT 190V260 CAVOK 17/08 Q1009=
201205111350 METAR ESMX 111350Z 24017KT 9999 FEW041 BKN045 17/08 Q1009=
201205111320 METAR ESMX 111320Z 24016KT 9999 FEW024 SCT035 17/10 Q1009=
201205111250 METAR ESMX 111250Z 26012G23KT 220V290 9999 SCT030TCU BKN045 17/10 Q1009=
201205111220 METAR ESMX 111220Z 22017G28KT 200V260 9999 SCT030TCU BKN046 19/10 Q1009=
201205111150 METAR ESMX 111150Z 23017KT 9999 FEW030TCU SCT044 17/10 Q1009=
201205111120 METAR ESMX 111120Z 24019G31KT 210V270 9999 FEW029 BKN052 18/11 Q1009=
201205111050 METAR ESMX 111050Z 23015KT 200V290 9999 SCT020TCU BKN050 18/13 Q1009=
201205111020 METAR ESMX 111020Z 23013KT 200V280 9999 -SHRA FEW020 SCT028 BKN038 16/13 Q1009=
201205110950 METAR ESMX 110950Z 23009KT 200V260 9999 SCT017 BKN040 17/14 Q1009=
201205110920 METAR ESMX 110920Z 22014KT 190V270 9999 SCT015 BKN025 17/13 Q1009=
201205110850 METAR ESMX 110850Z 22013KT 190V250 9999 SCT015 BKN020 18/14 Q1008=
201205110820 METAR ESMX 110820Z 21014KT 9999 SCT014 BKN020 16/14 Q1008=
201205110750 METAR ESMX 110750Z 22011KT 190V250 9999 SCT010 BKN015 17/14 Q1008=
201205110720 METAR ESMX 110720Z 20014G26KT 9999 FEW007 SCT012 OVC015 16/14 Q1008=
201205110650 METAR ESMX 110650Z 20011KT 5000 -DZ SCT006 BKN010 16/14 Q1008=
201205110620 METAR ESMX 110620Z 20012KT 5000 -DZ SCT006 BKN009 15/14 Q1008=
201205110550 METAR ESMX 110550Z 21012KT 9000 OVC005 15/14 Q1008=
201205110520 METAR ESMX 110520Z 19010KT 9999 SCT006 BKN008 15/14 Q1009=
201205110450 METAR ESMX 110450Z 19009KT 9999 SCT007 BKN030 15/13 Q1009=
201205110420 METAR ESMX 110420Z 19007KT 9999 SCT007 BKN060 14/13 Q1009=
201205110350 METAR ESMX 110350Z 19008KT 9999 FEW008 14/13 Q1009=
201205110320 METAR ESMX 110320Z AUTO 20009KT 9999NDV FEW010/// SCT015/// OVC018/// 15/13 Q1009=
201205110250 METAR ESMX 110250Z AUTO 21010KT 9999NDV FEW005/// SCT006/// BKN009/// 15/13 Q1010=
201205110220 METAR ESMX 110220Z AUTO 20009KT 9999NDV SCT005/// BKN007/// BKN076/// 14/13 Q1009=
201205110150 METAR ESMX 110150Z AUTO 21009KT 9999NDV FEW007/// SCT009/// BKN011/// 14/13 Q1009=
201205110120 METAR ESMX 110120Z AUTO 21008KT 9999NDV FEW006/// SCT009/// BKN010/// 15/13 Q1009 REDZ=
201205110050 METAR ESMX 110050Z AUTO 20010KT 9999NDV FEW008/// BKN011/// BKN015/// 15/13 Q1010=
201205110020 METAR ESMX 110020Z AUTO 20009KT 9999NDV FEW010/// BKN013/// BKN030/// 15/14 Q1010=
201205102350 METAR ESMX 102350Z 21009KT 9999 FEW008 SCT013 BKN020 15/14 Q1010=
201205102320 METAR ESMX 102320Z 23010KT 200V270 9999 FEW006 BKN010 15/14 Q1010=
201205102250 METAR ESMX 102250Z 20012KT 170V240 9000 BR FEW006 BKN009 15/14 Q1010=
201205102220 METAR ESMX 102220Z 19012KT 8000 BR FEW004 SCT006 BKN007 15/15 Q1010=
201205102150 METAR ESMX 102150Z 19010KT 4500 DZ FEW004 OVC006 15/14 Q1010=
201205102120 METAR ESMX 102120Z 19010KT 4600 DZ FEW005 SCT008 BKN025 15/14 Q1011=
201205102050 METAR ESMX 102050Z 19011KT 9999 FEW006 SCT011 OVC032 15/14 Q1011=
201205102020 METAR ESMX 102020Z 20010KT 9999 FEW006 SCT010 BKN037 15/14 Q1011=
201205101950 METAR ESMX 101950Z 21011KT 9999 FEW003 BKN007 15/15 Q1011=
201205101920 METAR ESMX 101920Z 20010KT 5000 -DZ BR FEW004 OVC009 16/14 Q1011=
201205101850 METAR ESMX 101850Z 21011KT 170V230 8000 -DZ FEW005 OVC007 15/14 Q1011=
201205101820 METAR ESMX 101820Z 19013KT 8000 -DZ FEW005 OVC008 15/14 Q1011=
201205101750 METAR ESMX 101750Z 19013KT 4300 DZ FEW004 OVC006 15/14 Q1011=
201205101720 METAR ESMX 101720Z 18013KT 140V200 5000 DZ SCT005 OVC008 15/14 Q1011=
201205101650 METAR ESMX 101650Z 17011KT 140V200 3700 RA FEW005 BKN006 BKN009 15/14 Q1011 REDZ=
201205101620 METAR ESMX 101620Z 17011KT 120V210 3100 -DZ FEW005 SCT007 OVC008 15/13 Q1011=
201205101550 METAR ESMX 101550Z 17012KT 140V210 5000 -RA FEW008 SCT011 BKN014 14/13 Q1011=
201205101520 METAR ESMX 101520Z 16011KT 120V200 6000 RA FEW012 SCT020 BKN028 15/13 Q1012=
201205101450 METAR ESMX 101450Z 16010KT 120V200 5000 RA FEW010 SCT056 BKN069 15/13 Q1012=
201205101420 METAR ESMX 101420Z 16009KT 110V180 7000 -RA SCT011 BKN065 15/14 Q1012=
201205101350 METAR ESMX 101350Z 17009KT 140V200 7000 -RA FEW010 SCT017 BKN130 16/14 Q1013=
201205101320 METAR ESMX 101320Z 17009KT 140V210 9999 -RA FEW020 16/14 Q1013 REDZ=
201205101250 METAR ESMX 101250Z 17011KT 100V200 9999 DZ SCT020 BKN130 17/14 Q1014=
201205101220 METAR ESMX 101220Z 17011KT 120V200 9999 -DZ FEW022 SCT027 18/14 Q1014=
201205101150 METAR ESMX 101150Z 17011KT 140V220 9999 -DZ FEW020 SCT024 18/13 Q1014=
201205101120 METAR ESMX 101120Z 16011KT 120V210 9999 FEW020 BKN025 18/13 Q1015=
201205101050 METAR ESMX 101050Z 18012KT 140V210 9999 SCT020 SCT060 18/12 Q1015=
201205101020 METAR ESMX 101020Z 17011KT 140V220 9999 BKN018 BKN050 17/12 Q1015=
201205100950 METAR ESMX 100950Z 17011KT 140V210 9999 BKN017 17/12 Q1015=
201205100920 METAR ESMX 100920Z 18010KT 140V210 9999 FEW012 BKN018 16/11 Q1016=
201205100850 METAR ESMX 100850Z 15007KT 110V190 9999 SCT012 BKN035 15/12 Q1016=
201205100820 METAR ESMX 100820Z 15005KT 110V200 8000 BR SCT008 BKN030 14/11 Q1017=
201205100750 METAR ESMX 100750Z 17008KT 140V210 8000 BR FEW007 SCT008 BKN025 13/11 Q1017=
201205100720 METAR ESMX 100720Z 17008KT 140V200 7000 BR SCT006 BKN009 13/11 Q1017=
201205100650 METAR ESMX 100650Z 17008KT 140V210 8000 BR SCT004 BKN008 13/11 Q1017=
201205100620 METAR ESMX 100620Z 17009KT 6000 BR SCT003 BKN006 12/11 Q1017=
201205100550 METAR ESMX 100550Z 18007G17KT 3300 BR SCT004 OVC008 12/11 Q1016=
201205100520 METAR ESMX 100520Z 19007KT 4100 BR FEW004 SCT005 BKN013 12/11 Q1016=
201205100450 METAR ESMX 100450Z 19006KT 160V230 3800 BR BKN003 12/11 Q1016=
201205100420 METAR ESMX 100420Z 19006KT 3500 BR FEW003 BKN029 12/11 Q1016=
201205100350 METAR ESMX 100350Z 18005KT 3500 BR FEW003 BKN030 11/10 Q1015=
201205100320 METAR ESMX 100320Z AUTO 18005KT 2700NDV BR FEW010/// BKN016/// 11/10 Q1016=
201205100250 METAR ESMX 100250Z AUTO 19003KT 3500NDV BR FEW011/// BKN014/// 11/10 Q1015=
201205100220 METAR ESMX 100220Z AUTO 22004KT 6000NDV BR FEW011/// OVC013/// 11/10 Q1015=
201205100150 METAR ESMX 100150Z AUTO 21006KT 6000NDV BR FEW007/// SCT013/// BKN017/// 11/11 Q1015=
201205100120 METAR ESMX 100120Z AUTO 21006KT 6000NDV BR FEW010/// SCT016/// OVC020/// 11/11 Q1015=
201205100050 METAR ESMX 100050Z AUTO 20006KT 7000NDV BR FEW006/// SCT011/// BKN021/// 11/11 Q1015=
201205100020 METAR ESMX 100020Z AUTO 21006KT 6000NDV BR FEW005/// SCT007/// BKN023/// 11/10 Q1015=
201205092350 METAR ESMX 092350Z 21006KT 6000 BR OVC003 11/11 Q1015=
201205092320 METAR ESMX 092320Z 21006KT 6000 BR OVC004 11/10 Q1015=
201205092250 METAR ESMX 092250Z 20004KT 1700 BR OVC004 10/10 Q1014=
201205092220 METAR ESMX 092220Z 20003KT 0300 R01/0900V1500N R19/1500VP2000D FG NSC 10/10 Q1014=
201205092150 METAR ESMX 092150Z 21004KT 0200 R01/P2000N R19/0450V0750 FG FEW035 10/09 Q1013=
201205092120 METAR ESMX 092120Z 19003KT 3800 BR FEW035 SCT067 11/10 Q1013=
201205092050 METAR ESMX 092050Z 20005KT 7000 BR BKN041 12/11 Q1013 RESHRA=
201205092020 METAR ESMX 092020Z 17007KT 9000 -RA SCT041 BKN061 12/10 Q1013=
201205091950 METAR ESMX 091950Z 17006KT 9999 -DZ FEW025 BKN065 13/10 Q1013=
201205091920 METAR ESMX 091920Z 18007KT 150V210 9999 FEW048 BKN079 13/10 Q1013=
201205091850 METAR ESMX 091850Z 17008KT 140V200 9999 FEW025 SCT030 BKN055 13/10 Q1013=
201205091820 METAR ESMX 091820Z 18009KT 140V200 9999 SCT038 BKN053 14/10 Q1012=
201205091750 METAR ESMX 091750Z 15007KT 100V200 9999 FEW037 BKN049 14/10 Q1012=
201205091720 METAR ESMX 091720Z 16009KT 120V190 9999 FEW025 BKN040 14/10 Q1012=
201205091650 METAR ESMX 091650Z 18010KT 150V210 9999 -DZ FEW011 BKN040 15/10 Q1012=
201205091620 METAR ESMX 091620Z 15007KT 9999 -DZ FEW022 BKN045 15/09 Q1012=
201205091550 METAR ESMX 091550Z 16008KT 110V190 9999 -RA FEW025 BKN050 15/09 Q1012 REDZ=
201205091520 METAR ESMX 091520Z 16008KT 120V200 9999 -RA FEW030 BKN050 15/09 Q1012=
201205091450 METAR ESMX 091450Z 17008KT 140V200 CAVOK 16/09 Q1012=
201205091420 METAR ESMX 091420Z 16008KT 130V200 9999 FEW010 BKN066 15/08 Q1012 REDZ=
201205091350 METAR ESMX 091350Z 16011KT 120V190 9999 DZ BKN067 15/08 Q1012=
201205091320 METAR ESMX 091320Z 17011KT 140V200 CAVOK 15/08 Q1012=
201205091250 METAR ESMX 091250Z 16012KT 120V200 CAVOK 15/08 Q1012=
201205091220 METAR ESMX 091220Z 17013KT CAVOK 16/07 Q1012=
201205091150 METAR ESMX 091150Z 16010KT 140V200 CAVOK 17/07 Q1011=
201205091120 METAR ESMX 091120Z 17011KT 140V200 CAVOK 17/08 Q1011=
201205091050 METAR ESMX 091050Z 17010KT 120V200 CAVOK 18/08 Q1011=
201205091020 METAR ESMX 091020Z 17010KT 140V200 CAVOK 17/08 Q1011=
201205090950 METAR ESMX 090950Z 16008KT 110V200 CAVOK 18/08 Q1011=
201205090920 METAR ESMX 090920Z 16009KT 110V190 9999 SCT074 16/08 Q1011=
201205090850 METAR ESMX 090850Z 16009KT 120V200 9999 SCT077 16/08 Q1012=
201205090820 METAR ESMX 090820Z 16009KT 110V220 9999 FEW071 16/08 Q1011=
201205090750 METAR ESMX 090750Z 14010KT 100V170 9999 FEW040 SCT075 BKN099 15/08 Q1011=
201205090720 METAR ESMX 090720Z 16009KT 110V190 9999 BKN069 13/07 Q1011=
201205090650 METAR ESMX 090650Z 14008KT 100V170 9999 BKN066 12/07 Q1011=
201205090620 METAR ESMX 090620Z 15008KT 120V190 9999 FEW050 BKN068 10/06 Q1012=
201205090550 METAR ESMX 090550Z 15008KT 090V190 9999 BKN067 10/06 Q1012=
201205090520 METAR ESMX 090520Z 15008KT 110V180 9999 FEW052 BKN074 09/06 Q1012=
201205090450 METAR ESMX 090450Z 14008KT 110V180 9999 -DZ SCT050 BKN070 09/06 Q1012=
201205090420 METAR ESMX 090420Z 14007KT 100V170 9999 -DZ FEW044 BKN130 08/06 Q1012=
201205090350 METAR COR ESMX 090350Z 16008KT 120V190 9999 -RA FEW046 BKN074 09/06 Q1013=
201205090320 METAR ESMX 090320Z 15007KT 100V190 9999 SCT046 BKN095 09/06 Q1013=
201205090250 METAR ESMX 090250Z AUTO 15007KT 110V190 9999NDV FEW044/// OVC054/// 09/05 Q1013 REDZ=
201205090220 METAR ESMX 090220Z AUTO 14008KT 100V200 9999NDV BKN050/// 09/04 Q1013=
201205090150 METAR ESMX 090150Z AUTO 14008KT 100V190 9999NDV FEW052/// SCT069/// 09/04 Q1014=
201205090120 METAR ESMX 090120Z AUTO 14008KT 100V170 9999NDV FEW085/// 09/04 Q1014=
201205090050 METAR ESMX 090050Z AUTO 14008KT 080V190 9999NDV BKN076/// 09/03 Q1014=
201205090020 METAR ESMX 090020Z AUTO 15008KT 100V200 9999NDV BKN083/// 09/03 Q1014=
201205082350 METAR ESMX 082350Z AUTO 14007KT 100V170 9999NDV FEW076/// SCT095/// 08/02 Q1015=
201205082320 METAR ESMX 082320Z 14006KT 090V210 CAVOK 08/02 Q1015=
201205082250 METAR ESMX 082250Z 15007KT 090V200 CAVOK 08/02 Q1015=
201205082220 METAR ESMX 082220Z 14006KT 070V170 9999 FEW041 SCT110 08/02 Q1015=
201205082150 METAR ESMX 082150Z 13005KT 080V190 9999 SCT042 08/01 Q1015=
201205082120 METAR ESMX 082120Z 13006KT 080V170 9999 SCT042 09/01 Q1016=
201205082050 METAR ESMX 082050Z 15007KT 080V200 9999 FEW044 BKN053 09/02 Q1016=
201205082020 METAR ESMX 082020Z 14007KT 090V180 9999 FEW045 SCT062 10/01 Q1016=
201205081950 METAR ESMX 081950Z 15007KT 100V210 9999 SCT046 BKN058 10/02 Q1016=
201205081920 METAR ESMX 081920Z 14007KT 090V170 9999 SCT045 OVC054 10/02 Q1016=
201205081850 METAR ESMX 081850Z 14006KT 110V180 9999 BKN043 11/02 Q1016=
201205081820 METAR ESMX 081820Z 16007KT 120V200 CAVOK 11/02 Q1016=
201205081750 METAR ESMX 081750Z 16007KT 120V200 CAVOK 12/02 Q1016=
201205081720 METAR ESMX 081720Z 15007KT 110V200 CAVOK 12/02 Q1016=
201205081650 METAR ESMX 081650Z 17009KT 120V200 9999 BKN068 12/02 Q1016=
201205081620 METAR ESMX 081620Z 17011KT 120V210 9999 FEW045 BKN070 13/02 Q1016=
201205081550 METAR ESMX 081550Z 17011KT 130V210 9999 BKN069 13/02 Q1017=
201205081520 METAR ESMX 081520Z 17013KT 140V210 9999 FEW045 SCT052 BKN070 13/02 Q1017=
201205081450 METAR ESMX 081450Z 18011KT 150V230 9999 SCT045 14/02 Q1017=
201205081420 METAR ESMX 081420Z 18014KT 9999 FEW047 SCT074 13/01 Q1017=
201205081350 METAR ESMX 081350Z 18012KT 150V210 9999 SCT047 14/02 Q1017=
201205081320 METAR ESMX 081320Z 16008KT 100V210 9999 FEW048 14/00 Q1018=
201205081250 METAR ESMX 081250Z 15010KT 100V200 9999 FEW056 12/M00 Q1018=
201205081220 METAR ESMX 081220Z 15008KT 110V230 9999 SCT051 12/M01 Q1018=
201205081150 METAR ESMX 081150Z 16008KT 130V200 9999 BKN047 11/M01 Q1019=
201205081120 METAR ESMX 081120Z 19008KT 160V220 9999 FEW040 BKN062 11/M02 Q1019=
201205081050 METAR ESMX 081050Z 17008KT 140V200 9999 BKN056 11/M02 Q1019=
201205081020 METAR ESMX 081020Z 17008KT 120V200 9999 BKN041 10/M03 Q1019=
201205080950 METAR ESMX 080950Z 16007KT 110V220 9999 FEW044 BKN052 OVC076 11/M02 Q1019=
201205080920 METAR ESMX 080920Z 16005KT 110V210 CAVOK 10/M03 Q1020=
201205080850 METAR ESMX 080850Z 14006KT 100V200 CAVOK 11/M03 Q1020=
201205080820 METAR ESMX 080820Z 17005KT 050V230 CAVOK 10/M03 Q1020=
201205080750 METAR ESMX 080750Z 15005KT 100V240 CAVOK 10/M03 Q1020=
201205080720 METAR ESMX 080720Z VRB04KT CAVOK 09/M02 Q1020=
201205080650 METAR ESMX 080650Z 07004KT 350V120 CAVOK 08/M00 Q1020=
201205080620 METAR ESMX 080620Z 06004KT 010V090 CAVOK 07/00 Q1020=
201205080550 METAR ESMX 080550Z 07003KT 030V110 CAVOK 06/01 Q1020=
201205080520 METAR ESMX 080520Z VRB01KT CAVOK 05/02 Q1020=
201205080450 METAR ESMX 080450Z 00000KT CAVOK 01/M00 Q1020=
201205080420 METAR ESMX 080420Z VRB01KT CAVOK M01/M02 Q1020=
201205080350 METAR ESMX 080350Z 18001KT CAVOK M03/M04 Q1020=
201205080320 METAR ESMX 080320Z 19001KT CAVOK M04/M05 Q1020=
201205080250 METAR ESMX 080250Z AUTO 17002KT 9999NDV NCD M03/M04 Q1020=
201205080220 METAR ESMX 080220Z AUTO 17002KT 9999NDV NCD M03/M04 Q1020=
201205080150 METAR ESMX 080150Z AUTO 16002KT 9999NDV NCD M03/M04 Q1020=
201205080120 METAR ESMX 080120Z VRB01KT CAVOK M02/M03 Q1020=
201205080050 METAR ESMX 080050Z VRB01KT CAVOK M02/M04 Q1020=
201205080020 METAR ESMX 080020Z VRB01KT CAVOK M01/M03 Q1020=
201205072350 METAR ESMX 072350Z 29003KT CAVOK M01/M04 Q1020=
201205072320 METAR ESMX 072320Z 27002KT CAVOK M00/M03 Q1020=
201205072250 METAR ESMX 072250Z 25003KT CAVOK M00/M04 Q1020=
201205072220 METAR ESMX 072220Z 25003KT CAVOK 00/M03 Q1019=
201205072150 METAR ESMX 072150Z 29002KT CAVOK 00/M03 Q1019=
201205072120 METAR ESMX 072120Z 26002KT CAVOK 02/M03 Q1019=
201205072050 METAR ESMX 072050Z 27003KT 240V300 CAVOK 02/M03 Q1019=
201205072020 METAR ESMX 072020Z 27003KT CAVOK 05/M03 Q1019=
201205071950 METAR ESMX 071950Z 26004KT CAVOK 05/M03 Q1018=
201205071920 METAR ESMX 071920Z 26004KT CAVOK 06/M04 Q1018=
201205071850 METAR ESMX 071850Z 27005KT CAVOK 07/M03 Q1018=
201205071820 METAR ESMX 071820Z 28006KT 240V300 CAVOK 09/M03 Q1018=
201205071750 METAR ESMX 071750Z 28008KT 250V310 CAVOK 10/M04 Q1017=
201205071720 METAR ESMX 071720Z 26008KT CAVOK 11/M04 Q1017=
201205071650 METAR ESMX 071650Z 30007KT 260V330 CAVOK 11/M05 Q1017=
201205071620 METAR ESMX 071620Z 24008KT 180V290 CAVOK 11/M04 Q1017=
201205071550 METAR ESMX 071550Z 26011KT CAVOK 12/M04 Q1017=
201205071520 METAR ESMX 071520Z 27010KT 250V310 CAVOK 11/M04 Q1017=
201205071450 METAR ESMX 071450Z 26009KT CAVOK 11/M04 Q1016=
201205071420 METAR ESMX 071420Z 24010KT CAVOK 13/M04 Q1016=
201205071350 METAR ESMX 071350Z 26009G25KT 200V300 CAVOK 12/M04 Q1016=
201205071320 METAR ESMX 071320Z 24008KT 200V300 CAVOK 12/M04 Q1016=
201205071250 METAR ESMX 071250Z 26008KT 230V310 CAVOK 12/M04 Q1016=
201205071220 METAR ESMX 071220Z 26008KT CAVOK 12/M04 Q1016=
201205071150 METAR ESMX 071150Z 28008KT 250V320 CAVOK 11/M05 Q1016=
201205071120 METAR ESMX 071120Z 31009KT 280V340 CAVOK 10/M05 Q1016=
201205071050 METAR ESMX 071050Z 31007KT 270V350 CAVOK 10/M04 Q1016=
201205071020 METAR ESMX 071020Z 30010KT 270V330 9999 FEW045 10/M03 Q1016=
201205070950 METAR ESMX 070950Z 29010KT 240V320 9999 FEW045 10/M02 Q1016=
201205070920 METAR ESMX 070920Z 29008KT 220V360 9999 FEW039 SCT045 08/M03 Q1016=
201205070850 METAR ESMX 070850Z 31005KT 270V360 9999 SCT035 08/M02 Q1016=
201205070820 METAR ESMX 070820Z 29008KT 250V320 9999 SCT035 07/M02 Q1016=
201205070750 METAR ESMX 070750Z 30008KT 9999 FEW030 06/M01 Q1016=
201205070720 METAR ESMX 070720Z 29007KT 250V330 9999 FEW025 07/M00 Q1016=
201205070650 METAR ESMX 070650Z 27005KT 230V300 CAVOK 05/M00 Q1016=
201205070550 METAR ESMX 070550Z 28003KT CAVOK 04/M01 Q1015=
201205070520 METAR ESMX 070520Z 28003KT CAVOK 03/M01 Q1015=
201205070450 METAR ESMX 070450Z 26001KT CAVOK 02/M01 Q1015=
201205070420 METAR ESMX 070420Z 26002KT CAVOK M00/M02 Q1015=
201205070350 METAR ESMX 070350Z 27003KT CAVOK M02/M04 Q1015=
201205070320 METAR ESMX 070320Z 29002KT CAVOK M01/M03 Q1014=
201205070250 METAR ESMX 070250Z AUTO 30002KT 9999NDV FEW060/// M01/M04 Q1014=
201205070220 METAR ESMX 070220Z AUTO 32003KT 9999NDV NCD 00/M03 Q1014=
201205070150 METAR ESMX 070150Z AUTO 31004KT 9999NDV NCD 00/M04 Q1014=
201205070120 METAR ESMX 070120Z AUTO 30004KT 9999NDV NCD 01/M04 Q1014=
201205070050 METAR ESMX 070050Z AUTO 30004KT 9999NDV NCD 01/M04 Q1014=
201205070020 METAR ESMX 070020Z AUTO 29004KT 9999NDV NCD 01/M05 Q1014=
201205062350 METAR ESMX 062350Z AUTO 30004KT 9999NDV NCD 01/M05 Q1013=
201205062320 METAR ESMX 062320Z 31005KT CAVOK 02/M05 Q1013=
201205062250 METAR ESMX 062250Z 31004KT CAVOK 03/M05 Q1013=
201205062220 METAR ESMX 062220Z 31005KT CAVOK 03/M05 Q1013=
201205062150 METAR ESMX 062150Z 30005KT CAVOK 04/M05 Q1013=
201205062120 METAR ESMX 062120Z 29006KT CAVOK 04/M05 Q1012=
201205062050 METAR ESMX 062050Z 29004KT CAVOK 05/M05 Q1012=
201205062020 METAR ESMX 062020Z 27007KT CAVOK 05/M04 Q1012=
201205061950 METAR ESMX 061950Z 27006KT CAVOK 06/M04 Q1011=
201205061920 METAR ESMX 061920Z 29009KT CAVOK 07/M03 Q1011=
201205061850 METAR ESMX 061850Z 26008KT 210V280 CAVOK 08/M03 Q1010=
201205061820 METAR ESMX 061820Z 26008KT CAVOK 09/M03 Q1010=
201205061750 METAR ESMX 061750Z 28007KT 250V310 CAVOK 11/M04 Q1009=
201205061720 METAR ESMX 061720Z 27007KT CAVOK 11/M05 Q1009=
201205061650 METAR ESMX 061650Z 28012KT CAVOK 12/M06 Q1009=
201205061620 METAR ESMX 061620Z 27008KT CAVOK 12/M05 Q1009=
201205061520 METAR ESMX 061520Z 30006KT 250V340 CAVOK 12/M05 Q1009=
201205061450 METAR ESMX 061450Z 25006KT 200V330 CAVOK 12/M04 Q1009=
201205061420 METAR ESMX 061420Z 26008KT 230V290 CAVOK 12/M05 Q1009=
201205061350 METAR ESMX 061350Z 32005KT 280V020 CAVOK 12/M05 Q1009=
201205061320 METAR ESMX 061320Z 27007KT 200V310 CAVOK 12/M04 Q1009=
201205061250 METAR ESMX 061250Z AUTO 27007KT 240V300 9999NDV NCD 11/M05 Q1009=
201205061220 METAR ESMX 061220Z AUTO 29005KT 240V350 9999NDV FEW059/// 12/M03 Q1009=
201205061150 METAR ESMX 061150Z AUTO VRB04KT 9999NDV NCD 11/M05 Q1009=
201205061120 METAR ESMX 061120Z AUTO 30007KT 260V330 9999NDV NCD 11/M06 Q1009=
201205061050 METAR ESMX 061050Z AUTO 30008KT 260V330 9999NDV FEW091/// 10/M05 Q1009=
201205061020 METAR ESMX 061020Z AUTO 27008KT 230V300 9999NDV NCD 10/M04 Q1009=
201205060950 METAR ESMX 060950Z AUTO 33006KT 290V030 9999NDV FEW044/// 10/M03 Q1009=
201205060920 METAR ESMX 060920Z AUTO 29005KT 220V350 9999NDV FEW080/// 09/M03 Q1009=
201205060850 METAR ESMX 060850Z AUTO 34005KT 250V060 9999NDV SCT038/// 08/M03 Q1009=
201205060820 METAR ESMX 060820Z AUTO VRB04KT 9999NDV SCT036/// 07/M02 Q1009=
201205060750 METAR ESMX 060750Z AUTO 31006KT 9999NDV FEW080/// 07/M01 Q1009=
201205060720 METAR ESMX 060720Z AUTO 30006KT 270V340 9999NDV NCD 06/00 Q1009=
201205060650 METAR ESMX 060650Z AUTO 32006KT 290V350 9999NDV NCD 05/00 Q1008=
201205060620 METAR ESMX 060620Z AUTO 29005KT 9999NDV NCD 05/01 Q1008=
201205060550 METAR ESMX 060550Z AUTO 27004KT 9999NDV NCD 03/00 Q1008=
201205060520 METAR ESMX 060520Z AUTO VRB02KT 9999NDV NCD 02/M00 Q1008=
201205060450 METAR ESMX 060450Z AUTO VRB01KT 9999NDV NCD 01/M01 Q1008=
201205060420 METAR ESMX 060420Z AUTO VRB02KT 9999NDV NCD 00/M01 Q1008=
201205060350 METAR ESMX 060350Z AUTO 24002KT 9999NDV NCD M00/M02 Q1008=
201205060320 METAR ESMX 060320Z AUTO 26003KT 230V290 9999NDV NCD M00/M02 Q1008=
201205060250 METAR ESMX 060250Z AUTO 24005KT 9999NDV NCD M01/M02 Q1008=
201205060220 METAR ESMX 060220Z AUTO 23005KT 9999NDV NCD M01/M03 Q1008=
201205060150 METAR ESMX 060150Z AUTO 21004KT 9999NDV NCD M01/M03 Q1008=
201205060120 METAR ESMX 060120Z AUTO 25005KT 9999NDV NCD M00/M02 Q1007=
201205060050 METAR ESMX 060050Z AUTO 23004KT 9999NDV NCD M00/M03 Q1007=
201205060020 METAR ESMX 060020Z AUTO 24004KT 9999NDV NCD 00/M03 Q1007=
201205052350 METAR ESMX 052350Z AUTO 22004KT 9999NDV NCD 00/M03 Q1007=
201205052320 METAR ESMX 052320Z AUTO 25004KT 9999NDV NCD 01/M03 Q1007=
201205052250 METAR ESMX 052250Z AUTO 21005KT 9999NDV NCD 01/M03 Q1007=
201205052220 METAR ESMX 052220Z AUTO 23004KT 9999NDV NCD 01/M03 Q1007=
201205052150 METAR ESMX 052150Z AUTO 24004KT 200V260 9999NDV NCD 02/M03 Q1007=
201205052120 METAR ESMX 052120Z AUTO 23004KT 9999NDV NCD 02/M03 Q1007=
201205052050 METAR ESMX 052050Z AUTO 24005KT 9999NDV NCD 03/M03 Q1006=
201205052020 METAR ESMX 052020Z AUTO 26005KT 230V290 9999NDV NCD 04/M03 Q1006=
201205051950 METAR ESMX 051950Z AUTO 23006KT 9999NDV NCD 04/M04 Q1006=
201205051920 METAR ESMX 051920Z AUTO 25006KT 220V280 9999NDV NCD 05/M03 Q1005=
201205051850 METAR ESMX 051850Z AUTO 26007KT 9999NDV NCD 06/M04 Q1005=
201205051820 METAR ESMX 051820Z AUTO 28009KT 250V320 9999NDV NCD 07/M05 Q1005=
201205051750 METAR ESMX 051750Z AUTO 26010KT 220V280 9999NDV NCD 08/M05 Q1004=
201205051720 METAR ESMX 051720Z AUTO 24011KT 210V290 9999NDV NCD 08/M05 Q1004=
201205051650 METAR ESMX 051650Z AUTO 26012KT 210V290 9999NDV NCD 09/M05 Q1004=
201205051620 METAR ESMX 051620Z 25014KT 200V290 CAVOK 09/M04 Q1003=
201205051550 METAR ESMX 051550Z 27012KT 240V300 CAVOK 10/M06 Q1003=
201205051520 METAR ESMX 051520Z 25014G25KT 210V290 CAVOK 10/M05 Q1003=
201205051450 METAR ESMX 051450Z 28017KT CAVOK 10/M03 Q1003=
201205051420 METAR ESMX 051420Z 26017KT 230V290 CAVOK 10/M04 Q1002=
201205051350 METAR ESMX 051350Z 25016KT 210V290 CAVOK 10/M04 Q1002=
201205051320 METAR ESMX 051320Z 26018KT CAVOK 10/M02 Q1001=
201205051250 METAR ESMX 051250Z 26019KT CAVOK 11/M04 Q1001=
201205051220 METAR ESMX 051220Z 25017G27KT 200V290 CAVOK 11/M03 Q1001=
201205051150 METAR ESMX 051150Z 28015KT 9999 SCT046 09/M02 Q1001=
201205051120 METAR ESMX 051120Z 24014G27KT 200V290 9999 SCT047 09/M02 Q1000=
201205051050 METAR ESMX 051050Z 25015KT 220V280 9999 FEW045 09/M02 Q1000=
201205051020 METAR ESMX 051020Z 25018G28KT 220V280 9999 FEW044 10/M03 Q1000=
201205050950 METAR ESMX 050950Z 23017KT 200V260 9999 SCT045 10/M02 Q0999=
201205050920 METAR ESMX 050920Z 23016G27KT 190V260 9999 FEW046 10/M02 Q0999=
201205050850 METAR ESMX 050850Z 25015KT 210V280 9999 FEW040 10/M03 Q0999=
201205050820 METAR ESMX 050820Z 24015KT 200V270 9999 FEW041 10/M02 Q0998=
201205050750 METAR ESMX 050750Z 22013KT 190V260 9999 FEW035 09/M01 Q0998=
201205050720 METAR ESMX 050720Z 25011KT 200V280 9999 FEW035 09/00 Q0998=
201205050650 METAR ESMX 050650Z 23012KT 9999 FEW025 08/01 Q0998=
201205050620 METAR ESMX 050620Z 24014KT 210V310 9999 FEW023 08/01 Q0998=
201205050550 METAR ESMX 050550Z 23010KT 200V280 9999 SCT020 BKN029 07/02 Q0997=
201205050520 METAR ESMX 050520Z 25007KT 210V290 9999 BKN021 06/02 Q0997=
201205050450 METAR ESMX 050450Z 24007KT 200V290 9999 OVC020 06/02 Q0997=
201205050420 METAR ESMX 050420Z AUTO 24007KT 9999NDV FEW019/// SCT022/// 06/02 Q0997=
201205050350 METAR ESMX 050350Z AUTO 23009KT 9999NDV FEW015/// 05/03 Q0997=
201205050320 METAR ESMX 050320Z AUTO 23008KT 200V260 9999NDV FEW016/// BKN110/// 06/03 Q0996=
201205050250 METAR ESMX 050250Z AUTO 23007KT 9999NDV SCT012/// BKN016/// BKN110/// 06/04 Q0996=
201205050220 METAR ESMX 050220Z AUTO 24008KT 210V010 9999NDV FEW011/// BKN014/// 06/04 Q0996=
201205050150 METAR ESMX 050150Z AUTO 23007KT 9999NDV FEW011/// BKN014/// 07/05 Q0996=
201205050120 METAR ESMX 050120Z AUTO 23005KT 9999NDV FEW009/// SCT097/// BKN110/// 07/05 Q0996=
201205050050 METAR ESMX 050050Z AUTO 22005KT 9999NDV FEW009/// SCT011/// BKN110/// 07/05 Q0996=
201205050020 METAR ESMX 050020Z AUTO 20005KT 9999NDV FEW100/// 06/05 Q0996=
201205042350 METAR ESMX 042350Z AUTO 23005KT 9999NDV FEW070/// OVC093/// 08/05 Q0996=
201205042320 METAR ESMX 042320Z AUTO 22005KT 9999NDV FEW064/// BKN095/// 08/05 Q0997=
201205042250 METAR ESMX 042250Z AUTO 21006KT 190V250 9999NDV OVC068/// 08/05 Q0997=
201205042220 METAR ESMX 042220Z AUTO 19004KT 9999NDV SCT075/// 07/05 Q0997=
201205042150 METAR ESMX 042150Z AUTO 21005KT 9999NDV FEW076/// BKN095/// 07/04 Q0997=
201205042120 METAR ESMX 042120Z AUTO 20005KT 9999NDV FEW082/// BKN095/// 08/04 Q0997=
201205042050 METAR ESMX 042050Z AUTO 21006KT 190V260 9999NDV OVC094/// 08/04 Q0997=
201205042020 METAR ESMX 042020Z 22006KT 190V250 CAVOK 09/05 Q0997=
201205041950 METAR ESMX 041950Z 22007KT 9999 BKN049 BKN090 10/05 Q0997=
201205041920 METAR ESMX 041920Z 22007KT 190V250 9999 FEW038 BKN082 10/07 Q0997=
201205041850 METAR ESMX 041850Z 22006KT 190V250 9999 FEW022 SCT037 BKN043 11/07 Q0997=
201205041820 METAR ESMX 041820Z 24006KT 210V270 9999 FEW018 SCT024 BKN035 11/08 Q0997 REDZ=
201205041750 METAR ESMX 041750Z 26008KT 220V290 9999 -RA FEW016 SCT038 OVC049 12/07 Q0997=
201205041720 METAR ESMX 041720Z 25008KT 220V280 CAVOK 13/06 Q0997=
201205041650 METAR ESMX 041650Z 24007KT 210V280 CAVOK 13/06 Q0997=
201205041620 METAR ESMX 041620Z 25008KT 9999 FEW041 SCT056 BKN066 14/05 Q0997=
201205041550 METAR ESMX 041550Z 21010KT 170V240 9999 BKN049 OVC065 14/05 Q0997=
201205041520 METAR ESMX 041520Z 23011KT 200V260 9999 BKN040 14/04 Q0997=
201205041450 METAR ESMX 041450Z 24011KT 200V270 9999 FEW030 BKN040 15/05 Q0997=
201205041420 METAR ESMX 041420Z 25008KT 230V290 9999 SCT043 BKN080 15/04 Q0998=
201205041350 METAR ESMX 041350Z 27011KT 9999 SCT030 BKN060 16/04 Q0998=
201205041320 METAR ESMX 041320Z 21007KT 170V260 9999 SCT035 BKN048 15/05 Q0998=
201205041250 METAR ESMX 041250Z 23008KT 9999 SCT030 BKN050 16/05 Q0998=
201205041220 METAR ESMX 041220Z 20008KT 170V240 9999 SCT030 BKN050 15/04 Q0998=
201205041150 METAR ESMX 041150Z 21008KT 9999 FEW029 SCT034 OVC042 14/04 Q0998=
201205041120 METAR ESMX 041120Z 21009KT 9999 FEW035 BKN043 BKN055 14/04 Q0999=
201205041050 METAR ESMX 041050Z 20008KT 160V230 9999 BKN043 BKN062 14/05 Q0999=
201205041020 METAR ESMX 041020Z 18005KT 140V210 9999 FEW030 SCT060 BKN090 13/04 Q0999=
201205040950 METAR ESMX 040950Z 20005KT 170V240 CAVOK 13/04 Q0999=
201205040920 METAR ESMX 040920Z 16005KT 120V200 CAVOK 11/02 Q1000=
201205040850 METAR ESMX 040850Z 16004KT 080V200 CAVOK 10/01 Q1000=
201205040820 METAR ESMX 040820Z 19006KT CAVOK 10/01 Q1000=
201205040750 METAR ESMX 040750Z 18005KT 150V210 CAVOK 10/02 Q1001=
201205040720 METAR ESMX 040720Z 15003KT 100V190 CAVOK 08/02 Q1001=
201205040650 METAR ESMX 040650Z 15004KT 100V190 CAVOK 08/01 Q1001=
201205040620 METAR ESMX 040620Z VRB03KT CAVOK 07/02 Q1001=
201205040550 METAR ESMX 040550Z 12003KT 040V190 CAVOK 06/02 Q1002=
201205040520 METAR ESMX 040520Z 12004KT 070V160 CAVOK 05/02 Q1002=
201205040450 METAR ESMX 040450Z 12003KT 070V150 CAVOK 04/02 Q1002=
201205040420 METAR ESMX 040420Z 12003KT 050V170 CAVOK 04/01 Q1003=
201205040350 METAR ESMX 040350Z VRB02KT CAVOK 02/01 Q1003=
201205040320 METAR ESMX 040320Z AUTO VRB02KT 9999NDV NCD 02/01 Q1003=
201205040250 METAR ESMX 040250Z AUTO VRB02KT 9999NDV NCD 03/01 Q1004=
201205040220 METAR ESMX 040220Z AUTO 12003KT 070V160 9999NDV NCD 03/01 Q1004=
201205040150 METAR ESMX 040150Z AUTO 11003KT 070V170 9999NDV NCD 03/01 Q1004=
201205040120 METAR ESMX 040120Z AUTO 12003KT 030V160 9999NDV NCD 03/01 Q1005=
201205040050 METAR ESMX 040050Z AUTO VRB04KT 9999NDV NCD 04/01 Q1005=
201205040020 METAR ESMX 040020Z AUTO 12003KT 060V170 9999NDV NCD 04/01 Q1005=
201205032350 METAR ESMX 032350Z 11005KT 050V150 CAVOK 04/01 Q1006=
201205032320 METAR ESMX 032320Z 12005KT 080V200 CAVOK 05/01 Q1006=
201205032250 METAR ESMX 032250Z 12004KT 050V160 CAVOK 05/01 Q1006=
201205032220 METAR ESMX 032220Z 10004KT 050V180 CAVOK 06/02 Q1007=
201205032150 METAR ESMX 032150Z 11005KT 060V160 CAVOK 07/03 Q1007=
201205032120 METAR ESMX 032120Z 12005KT 060V170 CAVOK 08/03 Q1007=
201205032050 METAR ESMX 032050Z VRB05KT CAVOK 09/03 Q1007=
201205032020 METAR ESMX 032020Z 10005KT 050V160 CAVOK 10/02 Q1007=
201205031950 METAR ESMX 031950Z 11005KT 050V160 CAVOK 10/01 Q1007=
201205031920 METAR ESMX 031920Z 10004KT 060V170 CAVOK 11/01 Q1007=
201205031850 METAR ESMX 031850Z 09005KT 050V130 CAVOK 11/01 Q1007=
201205031820 METAR ESMX 031820Z 09006KT 050V140 CAVOK 12/01 Q1007=
201205031750 METAR ESMX 031750Z 11008KT 030V160 CAVOK 14/02 Q1007=
201205031720 METAR ESMX 031720Z 10008KT 070V170 CAVOK 16/04 Q1007=
201205031650 METAR ESMX 031650Z 10008KT 050V150 CAVOK 18/05 Q1007=
201205031620 METAR ESMX 031620Z 10008KT 050V160 CAVOK 19/06 Q1006=
201205031550 METAR ESMX 031550Z 06005KT 020V110 CAVOK 22/02 Q1006=
201205031520 METAR ESMX 031520Z 04005KT 360V070 CAVOK 22/02 Q1007=
201205031450 METAR ESMX 031450Z VRB04KT CAVOK 22/02 Q1007=
201205031420 METAR ESMX 031420Z 07004KT 010V150 CAVOK 22/02 Q1007=
201205031350 METAR ESMX 031350Z 04005KT 350V110 CAVOK 22/02 Q1008=
201205031320 METAR ESMX 031320Z 34004KT 300V060 CAVOK 22/02 Q1008=
201205031250 METAR ESMX 031250Z 05005KT 360V080 CAVOK 21/02 Q1009=
201205031220 METAR ESMX 031220Z 02005KT 330V070 CAVOK 21/03 Q1009=
201205031150 METAR ESMX 031150Z 01005KT 330V060 CAVOK 21/04 Q1009=
201205031120 METAR ESMX 031120Z 01006KT 340V050 CAVOK 20/03 Q1009=
201205031050 METAR ESMX 031050Z 32004KT 270V360 CAVOK 20/03 Q1010=
201205031020 METAR ESMX 031020Z VRB03KT CAVOK 19/04 Q1010=
201205030950 METAR ESMX 030950Z 27005KT 220V330 CAVOK 19/04 Q1010=
201205030920 METAR ESMX 030920Z VRB04KT CAVOK 18/05 Q1010=
201205030850 METAR ESMX 030850Z 31007KT CAVOK 18/06 Q1011=
201205030820 METAR ESMX 030820Z 28005KT 230V320 CAVOK 17/06 Q1011=
201205030750 METAR ESMX 030750Z 31004KT 250V360 CAVOK 16/07 Q1011=
201205030720 METAR ESMX 030720Z 29005KT 260V330 CAVOK 15/06 Q1011=
201205030650 METAR ESMX 030650Z 28005KT CAVOK 15/07 Q1011=
201205030620 METAR ESMX 030620Z 30003KT 250V010 CAVOK 13/06 Q1012=
201205030550 METAR ESMX 030550Z 00000KT CAVOK 12/06 Q1012=
201205030520 METAR ESMX 030520Z 00000KT CAVOK 09/05 Q1012=
201205030450 METAR ESMX 030450Z 00000KT CAVOK 06/05 Q1012=
201205030420 METAR ESMX 030420Z 00000KT CAVOK 03/02 Q1012=
201205030350 METAR ESMX 030350Z VRB01KT CAVOK 02/01 Q1012=
201205030320 METAR ESMX 030320Z AUTO 17002KT 9999NDV NCD 02/01 Q1012=
201205030250 METAR ESMX 030250Z AUTO 28001KT 9999NDV NCD 02/01 Q1012=
201205030220 METAR ESMX 030220Z AUTO 00000KT 9999NDV NCD 03/02 Q1013=
201205030150 METAR ESMX 030150Z AUTO 00000KT 9999NDV NCD 03/02 Q1013=
201205030120 METAR ESMX 030120Z AUTO 17001KT 9999NDV NCD 04/03 Q1013=
201205030050 METAR ESMX 030050Z AUTO 17002KT 9999NDV NCD 05/03 Q1013=
201205030020 METAR ESMX 030020Z AUTO 19002KT 9999NDV NCD 05/03 Q1013=
201205022350 METAR ESMX 022350Z 00000KT CAVOK 06/03 Q1014=
201205022320 METAR ESMX 022320Z 17001KT CAVOK 06/03 Q1014=
201205022250 METAR ESMX 022250Z 28001KT CAVOK 08/04 Q1014=
201205022220 METAR ESMX 022220Z VRB01KT CAVOK 08/04 Q1015=
201205022150 METAR ESMX 022150Z 31003KT 270V340 CAVOK 11/04 Q1015=
201205022120 METAR COR ESMX 022120Z 29003KT CAVOK 12/04 Q1015=
201205022050 METAR ESMX 022050Z 29004KT CAVOK 13/04 Q1014=
201205022020 METAR ESMX 022020Z 27005KT CAVOK 13/04 Q1014=
201205021950 METAR ESMX 021950Z 26004KT CAVOK 13/04 Q1015=
201205021920 METAR ESMX 021920Z 27004KT CAVOK 15/04 Q1015=
201205021850 METAR ESMX 021850Z 26004KT CAVOK 16/03 Q1015=
201205021820 METAR ESMX 021820Z 25004KT CAVOK 18/03 Q1015=
201205021750 METAR ESMX 021750Z 27005KT 250V320 CAVOK 20/03 Q1015=
201205021720 METAR ESMX 021720Z 27007KT CAVOK 20/03 Q1015=
201205021650 METAR ESMX 021650Z 29007KT CAVOK 21/02 Q1015=
201205021620 METAR ESMX 021620Z 28005KT 240V320 CAVOK 21/03 Q1016=
201205021550 METAR ESMX 021550Z 28005KT 250V330 CAVOK 21/03 Q1016=
201205021520 METAR ESMX 021520Z 28006KT 250V330 CAVOK 21/02 Q1016=
201205021450 METAR ESMX 021450Z 32005KT 290V030 CAVOK 21/02 Q1017=
201205021420 METAR ESMX 021420Z 28007KT CAVOK 21/02 Q1017=
201205021350 METAR ESMX 021350Z 30007KT 260V340 CAVOK 21/02 Q1017=
201205021320 METAR ESMX 021320Z 32006KT 260V010 CAVOK 21/03 Q1018=
201205021250 METAR ESMX 021250Z 30007KT CAVOK 21/03 Q1018=
201205021220 METAR ESMX 021220Z 25005KT 190V300 CAVOK 20/02 Q1018=
201205021150 METAR ESMX 021150Z VRB03KT CAVOK 20/02 Q1018=
201205021120 METAR ESMX 021120Z VRB04KT CAVOK 19/01 Q1019=
201205021050 METAR ESMX 021050Z VRB03KT CAVOK 19/02 Q1019=
201205021020 METAR ESMX 021020Z 24003KT 160V320 CAVOK 18/01 Q1020=
201205020950 METAR ESMX 020950Z 29004KT 220V010 CAVOK 17/M01 Q1020=
201205020920 METAR ESMX 020920Z 29005KT 250V340 CAVOK 16/M01 Q1020=
201205020850 METAR ESMX 020850Z 27004KT 210V350 CAVOK 16/M01 Q1021=
201205020820 METAR ESMX 020820Z VRB02KT CAVOK 15/M03 Q1021=
201205020750 METAR ESMX 020750Z VRB02KT CAVOK 14/M02 Q1021=
201205020720 METAR ESMX 020720Z VRB02KT CAVOK 12/M02 Q1021=
201205020650 METAR ESMX 020650Z VRB01KT CAVOK 11/01 Q1022=
201205020620 METAR ESMX 020620Z VRB02KT CAVOK 09/01 Q1022=
201205020550 METAR ESMX 020550Z VRB02KT CAVOK 07/02 Q1022=
201205020520 METAR ESMX 020520Z VRB02KT CAVOK 06/02 Q1022=
201205020450 METAR ESMX 020450Z VRB01KT CAVOK 03/02 Q1022=
201205020420 METAR ESMX 020420Z 20001KT CAVOK M00/M01 Q1022=
201205020350 METAR ESMX 020350Z 00000KT CAVOK M01/M02 Q1023=
201205020320 METAR ESMX 020320Z AUTO 00000KT 9999NDV NCD M01/M02 Q1023=
201205020250 METAR ESMX 020250Z AUTO 00000KT 9999NDV NCD M01/M03 Q1023=
201205020220 METAR ESMX 020220Z AUTO 00000KT 9999NDV NCD M01/M02 Q1023=
201205020150 METAR ESMX 020150Z AUTO 18001KT 9999NDV NCD M01/M02 Q1023=
201205020120 METAR ESMX 020120Z AUTO 00000KT 9999NDV NCD 00/M01 Q1024=
201205020050 METAR ESMX 020050Z AUTO 22002KT 9999NDV NCD M00/M02 Q1024=
201205020020 METAR ESMX 020020Z AUTO VRB01KT 9999NDV NCD 01/M01 Q1024=
201205012350 METAR ESMX 012350Z 00000KT CAVOK 01/M01 Q1024=
201205012320 METAR ESMX 012320Z VRB02KT CAVOK 02/M01 Q1024=
201205012250 METAR ESMX 012250Z VRB01KT CAVOK 02/M01 Q1024=
201205012220 METAR ESMX 012220Z VRB01KT CAVOK 03/M00 Q1024=
201205012150 METAR ESMX 012150Z VRB01KT CAVOK 03/M00 Q1024=
201205012120 METAR ESMX 012120Z VRB01KT CAVOK 05/M00 Q1025=
201205012050 METAR ESMX 012050Z 08002KT CAVOK 06/M00 Q1025=
201205012020 METAR ESMX 012020Z 10003KT 060V140 CAVOK 07/M00 Q1024=
201205011950 METAR ESMX 011950Z 10003KT 050V140 CAVOK 09/M01 Q1024=
201205011920 METAR ESMX 011920Z 09003KT 040V130 CAVOK 10/M01 Q1024=
201205011850 METAR ESMX 011850Z 08004KT 030V140 CAVOK 11/M01 Q1024=
201205011750 METAR ESMX 011750Z 08005KT 030V160 CAVOK 14/M01 Q1024=
201205011720 METAR ESMX 011720Z 10005KT 050V170 CAVOK 15/M01 Q1024=
201205011650 METAR ESMX 011650Z 08005KT 010V160 CAVOK 15/M01 Q1024=
201205011620 METAR ESMX 011620Z 07007KT 030V140 CAVOK 16/M00 Q1024=
201205011550 METAR ESMX 011550Z 06009KT 030V100 CAVOK 16/M00 Q1024=
201205011520 METAR ESMX 011520Z 11006KT 030V160 CAVOK 17/M00 Q1024=
201205011450 METAR ESMX 011450Z 06008KT 030V100 CAVOK 17/00 Q1025=
201205011420 METAR ESMX 011420Z 05008KT 010V090 CAVOK 18/01 Q1025=
201205011350 METAR ESMX 011350Z 08007KT 030V120 CAVOK 18/01 Q1025=
201205011320 METAR ESMX 011320Z 06008KT 360V110 CAVOK 18/00 Q1025=
201205011250 METAR ESMX 011250Z 06008KT 030V140 CAVOK 17/01 Q1025=
201205011220 METAR ESMX 011220Z AUTO 05009KT 9999NDV NCD 17/01 Q1025=
