##########################################################
# Query made at 04/19/2024 21:26:28 UTC
# Time interval: from 02/01/2012 12:00  to 02/29/2012 12:59  UTC
##########################################################

##########################################################
# ESMX, Vaxjo (Sweden)
# WMO index: 02641. WIGOS ID: 0-20000-0-02648
# Latitude 56-51N. Longitude 014-50E. Altitude 199 m.
##########################################################

201202291250 METAR ESMX 291250Z 27007KT 9999 OVC004 07/06 Q1016=
201202291220 METAR ESMX 291220Z 28006KT 250V310 9999 OVC003 06/06 Q1016=
201202291150 METAR ESMX 291150Z 28006KT 250V320 9999 OVC003 06/06 Q1015=
201202291120 METAR ESMX 291120Z 28006KT 6000 BR OVC002 06/05 Q1015=
201202291050 METAR ESMX 291050Z 27006KT 240V300 4100 BR OVC001 05/05 Q1016=
201202291020 METAR ESMX 291020Z 27007KT 3800 BR OVC001 05/04 Q1015=
201202290950 METAR ESMX 290950Z 27005KT 240V320 2500 BR OVC001 04/04 Q1015=
201202290920 METAR ESMX 290920Z 25004KT 200V320 0700 R01/1000D R19/1300N FG VV002 04/04 Q1015=
201202290850 METAR ESMX 290850Z 23005KT 0700 R01/1000N R19/1300V1800D FG VV002 04/03 Q1015=
201202290820 METAR ESMX 290820Z 25005KT 200V290 1000 R01/1400N R19/1400VP2000N FG VV002 04/03 Q1015=
201202290750 METAR ESMX 290750Z 23007KT 0750 R01/0900V1400U R19/P2000D FG OVC001 04/04 Q1015=
201202290720 METAR ESMX 290720Z 22006KT 200V270 0600 R01/0750V1200 R19/0800V1800 FG VV002 04/04 Q1015=
201202290650 METAR ESMX 290650Z 22004KT 170V250 0250 R01/0600 R19/0650N FG VV002 04/04 Q1014=
201202290620 METAR ESMX 290620Z 21004KT 0450 R01/0900V1400D R19/1200N FG VV002 05/04 Q1014=
201202290550 METAR ESMX 290550Z 21004KT 1900 BR VV002 05/04 Q1014=
201202290520 METAR ESMX 290520Z 20005KT 3000 BR OVC002 05/04 Q1014=
201202290450 METAR ESMX 290450Z 23004KT 2800 BR OVC002 05/04 Q1014=
201202290420 METAR ESMX 290420Z AUTO 21004KT 1500NDV BR VV002 05/04 Q1014=
201202290350 METAR ESMX 290350Z AUTO 23003KT 190V270 1900NDV BR OVC001/// 05/04 Q1014=
201202290320 METAR ESMX 290320Z AUTO 22003KT 190V260 1900NDV OVC001/// 05/05 Q1014=
201202290250 METAR ESMX 290250Z AUTO 23003KT 190V260 1300NDV R01/P2000N R19/P2000N VV002 05/05 Q1014=
201202290220 METAR ESMX 290220Z AUTO 24004KT 200V280 0900NDV R01/P2000N R19/P2000N FG VV002 05/05 Q1014=
201202290150 METAR ESMX 290150Z AUTO 25004KT 220V300 0550NDV R01/P2000N R19/1700N FG VV002 05/05 Q1014=
201202290120 METAR ESMX 290120Z AUTO 25004KT 0450NDV R01/1300VP2000U R19/P2000D FG VV002 05/05 Q1013=
201202290050 METAR ESMX 290050Z AUTO 25004KT 0350NDV R01/0900V1700U R19/1100N FG VV001 05/05 Q1013=
201202290020 METAR ESMX 290020Z 24004KT 0250 R01/0900N R19/0900N FG VV002 05/05 Q1013=
201202282350 METAR ESMX 282350Z 26002KT 0200 R01/0750N R19/0800V1100N FG VV002 05/05 Q1012=
201202282320 METAR ESMX 282320Z VRB02KT 0200 R01/0800N R19/0800N FG VV002 05/05 Q1012=
201202282250 METAR ESMX 282250Z VRB01KT 0200 R01/0800N R19/0750 FG VV002 05/05 Q1012=
201202282220 METAR ESMX 282220Z 01003KT 330V040 0250 R01/0900N R19/0900D FG VV002 06/05 Q1011=
201202282150 METAR ESMX 282150Z 34003KT 0500 R01/1600D R19/1600N FG VV002 06/05 Q1011=
201202282120 METAR ESMX 282120Z 32004KT 0900 R01/P2000N R19/P2000N BR VV002 06/05 Q1011=
201202282050 METAR ESMX 282050Z 32005KT 290V360 3100 BR OVC002 06/06 Q1010=
201202282020 METAR ESMX 282020Z 32004KT 280V360 9999 OVC002 06/06 Q1010=
201202281950 METAR ESMX 281950Z 31008KT 9999 OVC002 07/06 Q1009=
201202281920 METAR ESMX 281920Z 32008KT 9999 BKN004 07/06 Q1009=
201202281850 METAR ESMX 281850Z 31008KT 9999 FEW005 07/06 Q1008=
201202281820 METAR ESMX 281820Z 30008KT 9999 FEW006 07/06 Q1008=
201202281750 METAR ESMX 281750Z 30006KT CAVOK 07/06 Q1007=
201202281720 METAR ESMX 281720Z 30006KT CAVOK 07/06 Q1007=
201202281650 METAR ESMX 281650Z 29006KT CAVOK 07/06 Q1006=
201202281620 METAR ESMX 281620Z 30006KT CAVOK 08/07 Q1006=
201202281550 METAR ESMX 281550Z 30007KT CAVOK 09/07 Q1005=
201202281520 METAR ESMX 281520Z 30008KT 260V330 CAVOK 10/07 Q1005=
201202281450 METAR ESMX 281450Z 29008KT 9999 FEW010 10/08 Q1004=
201202281420 METAR ESMX 281420Z 30009KT 9999 BKN008 09/07 Q1004=
201202281350 METAR ESMX 281350Z 29010KT 9999 BKN008 09/07 Q1004=
201202281320 METAR ESMX 281320Z 29010KT 9999 BKN007 09/07 Q1004=
201202281250 METAR ESMX 281250Z 29011KT 250V320 9999 OVC007 09/07 Q1004=
201202281220 METAR ESMX 281220Z 30011KT 9999 BKN006 OVC009 08/08 Q1004=
201202281150 METAR ESMX 281150Z 29011KT 270V330 9999 OVC006 08/07 Q1004=
201202281120 METAR ESMX 281120Z 29012KT 260V330 9999 FEW004 OVC005 07/07 Q1003=
201202281050 METAR ESMX 281050Z 29013KT 250V320 9999 BKN002 OVC005 07/06 Q1003=
201202281020 METAR ESMX 281020Z 29013KT 260V330 3000 BR OVC002 06/06 Q1003=
201202280950 METAR ESMX 280950Z 29011KT 250V320 2400 BR OVC002 06/06 Q1003=
201202280920 METAR ESMX 280920Z 29012KT 250V320 1800 BR OVC002 06/05 Q1003=
201202280850 METAR ESMX 280850Z 27010KT 240V300 1800 BR OVC002 05/05 Q1003=
201202280820 METAR ESMX 280820Z 26010KT 2300 BR OVC002 05/05 Q1003=
201202280750 METAR ESMX 280750Z 26012KT 220V320 2000 BR BKN002 05/05 Q1003=
201202280720 METAR ESMX 280720Z 25010KT 220V280 2100 BR OVC002 04/04 Q1003=
201202280650 METAR ESMX 280650Z 24009KT 200V280 1600 -DZ OVC002 04/03 Q1004 REDZ=
201202280620 METAR ESMX 280620Z 23008KT 0700 R01/1700U R19/1900U DZ VV002 03/02 Q1004=
201202280550 METAR ESMX 280550Z 23008KT 0550 R01/1600N R19/1700N -DZ VV002 03/02 Q1005=
201202280520 METAR ESMX 280520Z 21009KT 0450 R01/1500N R19/1500N -DZ VV002 02/02 Q1005=
201202280450 METAR ESMX 280450Z 21008KT 0450 R01/1400N R19/1500N -DZ VV002 02/01 Q1006=
201202280420 METAR ESMX 280420Z AUTO 20009KT 0650NDV R01/P2000D R19/P2000N -RA VV001 01/01 Q1006=
201202280350 METAR ESMX 280350Z AUTO 21008KT 3400NDV -DZ OVC001/// 01/01 Q1007=
201202280320 METAR ESMX 280320Z AUTO 20007KT 4100NDV -RA OVC001/// 01/01 Q1008=
201202280250 METAR ESMX 280250Z AUTO 20008KT 5000NDV -DZ OVC001/// 01/00 Q1008 REDZ=
201202280220 METAR ESMX 280220Z AUTO 21008KT 4200NDV DZ OVC001/// 01/00 Q1009=
201202280150 METAR ESMX 280150Z AUTO 21008KT 1500NDV -RA OVC001/// 01/00 Q1010=
201202280120 METAR ESMX 280120Z AUTO 19009KT 1800NDV DZ OVC001/// 00/00 Q1010=
201202280050 METAR ESMX 280050Z AUTO 18008KT 1000NDV R01/P2000N R19/P2000N BR VV002 00/00 Q1011=
201202280020 METAR ESMX 280020Z 19007KT 1100 R01/P2000N R19/P2000N BR VV002 00/M00 Q1011=
201202272350 METAR ESMX 272350Z 19009KT 1200 R01/P2000N R19/P2000N BR OVC002 00/M00 Q1012=
201202272320 METAR ESMX 272320Z 18010KT 130V200 1300 R01/P2000N R19/P2000N BR OVC002 00/M00 Q1011=
201202272250 METAR ESMX 272250Z 18010KT 1800 BR OVC002 00/M00 Q1012=
201202272220 METAR ESMX 272220Z 18009KT 2200 BR OVC002 00/M00 Q1012=
201202272150 METAR ESMX 272150Z 17008KT 2500 BR OVC002 00/M00 Q1013=
201202272120 METAR ESMX 272120Z 19007KT 3600 BR OVC002 00/M00 Q1013=
201202272050 METAR ESMX 272050Z 17007KT 140V200 3200 BR OVC003 00/M01 Q1014=
201202272020 METAR ESMX 272020Z 17008KT 140V210 4600 BR OVC004 00/M01 Q1014=
201202271950 METAR ESMX 271950Z 17007KT 5000 SG OVC005 M00/M01 Q1014=
201202271920 METAR ESMX 271920Z 16007KT 130V200 4900 -SN FEW005 SCT007 BKN015 M00/M01 Q1014=
201202271850 METAR ESMX 271850Z 17007KT 140V200 9000 SCT011 BKN015 BKN038 M01/M02 Q1015=
201202271820 METAR ESMX 271820Z 16006KT 130V210 6000 SG FEW006 SCT025 BKN040 M00/M02 Q1015=
201202271750 METAR ESMX 271750Z 18008KT 2900 -SN FEW008 M00/M02 Q1015=
201202271720 METAR ESMX 271720Z 17006KT 140V210 9999 -SN FEW016 SCT038 01/M04 Q1015=
201202271650 METAR ESMX 271650Z 16006KT 130V190 9999 FEW020 BKN043 01/M04 Q1015=
201202271620 METAR ESMX 271620Z 16006KT 140V200 9999 FEW021 BKN047 01/M04 Q1015=
201202271550 METAR ESMX 271550Z 16006KT 140V200 9999 BKN048 01/M03 Q1015=
201202271520 METAR ESMX 271520Z 16006KT 130V200 9999 -SN FEW022 BKN056 01/M04 Q1015=
201202271450 METAR ESMX 271450Z 15006KT 9999 SCT041 BKN150 01/M04 Q1016=
201202271420 METAR ESMX 271420Z 16006KT 120V200 9999 FEW006 SCT021 BKN120 01/M04 Q1016=
201202271350 METAR ESMX 271350Z 19009KT 9999 -SN FEW028 ?VC120 02/M05 Q1017=
201202271320 METAR ESMX 271320Z 20007KT 160V240 9999 -SN SCT027 BKN100 02/M05 Q1017=
201202271250 METAR ESMX 271250Z 20010KT 9999 -SN FEW030 BKN100 01/M05 Q1017=
201202271220 METAR ESMX 271220Z 21007KT 9999 -SN FEW040 01/M05 Q1018=
201202271150 METAR ESMX 271150Z 22006KT 190V250 CAVOK 01/M06 Q1018=
201202271120 METAR ESMX 271120Z 19006KT CAVOK 01/M05 Q1018=
201202271050 METAR ESMX 271050Z 15003KT 110V200 CAVOK 00/M05 Q1018=
201202271020 METAR ESMX 271020Z 16003KT 120V200 CAVOK M01/M05 Q1019=
201202270950 METAR ESMX 270950Z 15002KT CAVOK M01/M05 Q1019=
201202270920 METAR ESMX 270920Z VRB02KT CAVOK M02/M05 Q1019=
201202270850 METAR ESMX 270850Z 16002KT CAVOK M03/M06 Q1019=
201202270820 METAR ESMX 270820Z VRB01KT CAVOK M03/M05 Q1020=
201202270750 METAR ESMX 270750Z VRB01KT CAVOK M04/M06 Q1020=
201202270720 METAR ESMX 270720Z VRB01KT CAVOK M05/M06 Q1020=
201202270650 METAR ESMX 270650Z VRB01KT CAVOK M07/M08 Q1020=
201202270620 METAR ESMX 270620Z 18002KT CAVOK M08/M09 Q1020=
201202270550 METAR ESMX 270550Z 19002KT CAVOK M08/M09 Q1020=
201202270520 METAR ESMX 270520Z 24002KT CAVOK M08/M09 Q1020=
201202270450 METAR ESMX 270450Z VRB02KT CAVOK M08/M09 Q1020=
201202270420 METAR ESMX 270420Z AUTO VRB01KT 9999NDV NCD M07/M08 Q1021=
201202270350 METAR ESMX 270350Z AUTO 25002KT 9999NDV NCD M07/M09 Q1021=
201202270320 METAR ESMX 270320Z AUTO 17001KT 9999NDV NCD M07/M08 Q1021=
201202270250 METAR ESMX 270250Z AUTO 18002KT 9999NDV NCD M06/M08 Q1021=
201202270220 METAR ESMX 270220Z AUTO 26001KT 9999NDV NCD M06/M08 Q1021=
201202270150 METAR ESMX 270150Z AUTO VRB01KT 9999NDV NCD M06/M08 Q1021=
201202270120 METAR ESMX 270120Z AUTO 26003KT 9999NDV NCD M06/M08 Q1021=
201202270050 METAR ESMX 270050Z AUTO 26003KT 9999NDV NCD M06/M07 Q1021=
201202270020 METAR ESMX 270020Z 26002KT CAVOK M06/M07 Q1021=
201202262350 METAR ESMX 262350Z 26003KT CAVOK M06/M07 Q1021=
201202262320 METAR ESMX 262320Z 26002KT CAVOK M05/M07 Q1021=
201202262250 METAR ESMX 262250Z 27002KT CAVOK M05/M07 Q1021=
201202262220 METAR ESMX 262220Z 25002KT CAVOK M05/M07 Q1021=
201202262150 METAR ESMX 262150Z 26003KT CAVOK M05/M07 Q1021=
201202262120 METAR ESMX 262120Z 28003KT CAVOK M05/M08 Q1021=
201202262050 METAR ESMX 262050Z VRB01KT CAVOK M04/M07 Q1021=
201202262020 METAR ESMX 262020Z 31003KT CAVOK M03/M07 Q1021=
201202261950 METAR ESMX 261950Z 33003KT 300V010 CAVOK M03/M07 Q1021=
201202261920 METAR ESMX 261920Z 34005KT CAVOK M02/M07 Q1021=
201202261850 METAR ESMX 261850Z 33006KT CAVOK M01/M07 Q1021=
201202261820 METAR ESMX 261820Z 33005KT CAVOK M01/M07 Q1021=
201202261750 METAR ESMX 261750Z 32005KT CAVOK M01/M07 Q1020=
201202261720 METAR ESMX 261720Z 33004KT CAVOK M01/M08 Q1020=
201202261650 METAR ESMX 261650Z 33005KT CAVOK M00/M07 Q1020=
201202261620 METAR ESMX 261620Z 34008KT CAVOK 01/M08 Q1020=
201202261550 METAR ESMX 261550Z 34010KT 290V010 CAVOK 02/M08 Q1019=
201202261520 METAR ESMX 261520Z 33010KT 300V010 CAVOK 02/M08 Q1019=
201202261450 METAR ESMX 261450Z 34010KT 300V010 9999 FEW037 03/M08 Q1019=
201202261420 METAR ESMX 261420Z 33011KT 300V020 9999 FEW035 03/M08 Q1019=
201202261350 METAR ESMX 261350Z 33013KT 290V360 CAVOK 03/M08 Q1018=
201202261320 METAR ESMX 261320Z 34013KT 310V020 CAVOK 03/M08 Q1018=
201202261250 METAR ESMX 261250Z AUTO 33011KT 290V020 9999NDV NCD 03/M07 Q1018=
201202261220 METAR ESMX 261220Z AUTO 30011KT 9999NDV NCD 03/M07 Q1018=
201202261150 METAR ESMX 261150Z AUTO 31010KT 280V350 9999NDV NCD 03/M06 Q1018=
201202261120 METAR ESMX 261120Z AUTO 32009KT 290V350 9999NDV NCD 03/M06 Q1018=
201202261050 METAR ESMX 261050Z AUTO 33011KT 9999NDV NCD 02/M07 Q1017=
201202261020 METAR ESMX 261020Z AUTO 32010KT 9999NDV NCD 01/M07 Q1017=
201202260950 METAR ESMX 260950Z AUTO 33011KT 9999NDV NCD 01/M06 Q1017=
201202260920 METAR ESMX 260920Z AUTO 33010KT 300V010 9999NDV NCD 00/M06 Q1017=
201202260850 METAR ESMX 260850Z AUTO 33011KT 9999NDV NCD M00/M06 Q1017=
201202260820 METAR ESMX 260820Z AUTO 34009KT 9999NDV NCD M01/M06 Q1017=
201202260750 METAR ESMX 260750Z AUTO 32010KT 9999NDV NCD M02/M06 Q1016=
201202260720 METAR ESMX 260720Z AUTO 31009KT 9999NDV NCD M03/M07 Q1016=
201202260650 METAR ESMX 260650Z AUTO 33007KT 9999NDV NCD M03/M07 Q1015=
201202260620 METAR ESMX 260620Z AUTO 33008KT 290V350 9999NDV NCD M03/M07 Q1015=
201202260550 METAR ESMX 260550Z AUTO 33009KT 300V360 9999NDV NCD M03/M07 Q1014=
201202260520 METAR ESMX 260520Z AUTO 32008KT 9999NDV NCD M04/M08 Q1014=
201202260450 METAR ESMX 260450Z AUTO 32007KT 9999NDV NCD M04/M08 Q1014=
201202260420 METAR ESMX 260420Z AUTO 33008KT 9999NDV NCD M03/M09 Q1013=
201202260350 METAR ESMX 260350Z AUTO 31007KT 9999NDV NCD M03/M09 Q1013=
201202260320 METAR ESMX 260320Z AUTO 32006KT 9999NDV NCD M03/M10 Q1013=
201202260250 METAR ESMX 260250Z AUTO 32005KT 9999NDV NCD M03/M10 Q1012=
201202260220 METAR ESMX 260220Z AUTO 32005KT 9999NDV NCD M03/M10 Q1012=
201202260150 METAR ESMX 260150Z AUTO 34008KT 300V020 9999NDV NCD M02/M10 Q1012=
201202260120 METAR ESMX 260120Z AUTO 32007KT 9999NDV NCD M02/M10 Q1011=
201202260050 METAR ESMX 260050Z AUTO 34006KT 9999NDV NCD M02/M10 Q1011=
201202260020 METAR ESMX 260020Z AUTO 34010KT 9999NDV NCD M01/M10 Q1011=
201202252350 METAR ESMX 252350Z AUTO 35010KT 9999NDV NCD M01/M10 Q1010=
201202252320 METAR ESMX 252320Z AUTO 33010KT 9999NDV NCD M01/M09 Q1010=
201202252250 METAR ESMX 252250Z AUTO 34008KT 9999NDV NCD M00/M08 Q1009=
201202252220 METAR ESMX 252220Z AUTO 33009KT 300V360 9999NDV NCD 00/M07 Q1009=
201202252150 METAR ESMX 252150Z AUTO 33009KT 9999NDV NCD 01/M07 Q1008=
201202252120 METAR ESMX 252120Z 31007KT CAVOK M00/M06 Q1008=
201202252050 METAR ESMX 252050Z 30006KT CAVOK 00/M06 Q1007=
201202252020 METAR ESMX 252020Z 30006KT CAVOK 00/M06 Q1007=
201202251950 METAR ESMX 251950Z AUTO 31007KT 280V340 9999NDV FEW062/// 01/M06 Q1007=
201202251920 METAR ESMX 251920Z AUTO 30006KT 9999NDV NCD 01/M06 Q1006=
201202251850 METAR ESMX 251850Z AUTO 30007KT 9999NDV NCD 01/M07 Q1006=
201202251820 METAR ESMX 251820Z AUTO 31008KT 9999NDV NCD 02/M07 Q1006=
201202251750 METAR ESMX 251750Z AUTO 32008KT 9999NDV NCD 02/M07 Q1005=
201202251720 METAR ESMX 251720Z AUTO 31009KT 280V340 9999NDV NCD 02/M07 Q1005=
201202251650 METAR ESMX 251650Z AUTO 31010KT 9999NDV NCD 03/M07 Q1004=
201202251620 METAR ESMX 251620Z AUTO 32010KT 290V360 9999NDV NCD 03/M08 Q1004=
201202251550 METAR ESMX 251550Z AUTO 31012KT 9999NDV NCD 04/M08 Q1003=
201202251520 METAR ESMX 251520Z AUTO 33016KT 290V010 9999NDV NCD 04/M08 Q1003=
201202251450 METAR ESMX 251450Z 31014KT CAVOK 05/M07 Q1002=
201202251420 METAR ESMX 251420Z 32016KT 280V340 CAVOK 06/M05 Q1002=
201202251350 METAR ESMX 251350Z 32013KT CAVOK 07/M05 Q1001=
201202251320 METAR ESMX 251320Z 31015KT 270V340 9999 FEW040 SCT045 08/M03 Q1000=
201202251250 METAR ESMX 251250Z 31014KT 280V360 9999 SCT037 07/M02 Q1000=
201202251220 METAR ESMX 251220Z 30015KT 9999 SCT034 07/M02 Q1000=
201202251150 METAR ESMX 251150Z 30012KT 260V330 9999 BKN033 07/M00 Q1000=
201202251120 METAR ESMX 251120Z 29013KT 260V330 9999 SCT030 06/M01 Q1000=
201202251050 METAR ESMX 251050Z 29013KT 260V320 9999 SCT030 06/M01 Q1000=
201202251020 METAR ESMX 251020Z 29015KT 9999 SCT027 06/M01 Q1000=
201202250950 METAR ESMX 250950Z 28014KT 250V320 9999 SCT025 05/M01 Q1000=
201202250920 METAR ESMX 250920Z 29014G24KT 250V330 9999 FEW020 05/M01 Q1000=
201202250850 METAR ESMX 250850Z 28017KT 240V310 9999 FEW023 04/M01 Q0999=
201202250820 METAR ESMX 250820Z 28013G23KT 9999 FEW010 04/M01 Q1000=
201202250750 METAR ESMX 250750Z AUTO 27014KT 9999NDV NCD 04/M02 Q0999=
201202250720 METAR ESMX 250720Z AUTO 28013KT 9999NDV NCD 03/M02 Q0999=
201202250650 METAR ESMX 250650Z AUTO 27015G25KT 9999NDV NCD 03/M02 Q0999=
201202250620 METAR ESMX 250620Z AUTO 27015KT 9999NDV NCD 03/M01 Q0999=
201202250550 METAR ESMX 250550Z AUTO 26015KT 230V290 9999NDV NCD 03/M02 Q0999=
201202250520 METAR ESMX 250520Z AUTO 28014KT 240V300 9999NDV NCD 03/M02 Q0999=
201202250450 METAR ESMX 250450Z AUTO 27015KT 9999NDV FEW028/// 03/M01 Q0999=
201202250420 METAR ESMX 250420Z AUTO 26015KT 220V290 9999NDV NCD 03/M01 Q0999=
201202250350 METAR ESMX 250350Z AUTO 27015KT 9999NDV NCD 03/M01 Q0999=
201202250320 METAR ESMX 250320Z AUTO 27016KT 9999NDV NCD 03/M01 Q1000=
201202250250 METAR ESMX 250250Z AUTO 28018KT 210V300 9999NDV NCD 03/M01 Q0999=
201202250220 METAR ESMX 250220Z AUTO 27016G26KT 9999NDV NCD 03/M00 Q0999=
201202250150 METAR ESMX 250150Z AUTO 28015KT 240V300 9999NDV NCD 03/M00 Q1000=
201202250120 METAR ESMX 250120Z AUTO 27014KT 240V310 9999NDV NCD 03/M00 Q1000=
201202250050 METAR ESMX 250050Z AUTO 28017G27KT 9999NDV NCD 03/M00 Q1000=
201202250020 METAR ESMX 250020Z AUTO 28016KT 9999NDV SCT020/// 03/M00 Q1000=
201202242350 METAR ESMX 242350Z AUTO 28016KT 9999NDV SCT021/// 03/M00 Q1000=
201202242320 METAR ESMX 242320Z AUTO 28015G27KT 9999NDV SCT021/// 03/M01 Q1000=
201202242250 METAR ESMX 242250Z AUTO 28014G25KT 220V310 9999NDV FEW020/// SCT024/// 03/M00 Q1000=
201202242220 METAR ESMX 242220Z AUTO 26016KT 230V300 9999NDV SCT019/// 03/M00 Q0999=
201202242150 METAR ESMX 242150Z AUTO 27016KT 9999NDV BKN020/// 03/M00 Q1000=
201202242120 METAR ESMX 242120Z AUTO 28014G25KT 240V320 9999NDV BKN022/// 04/M01 Q1000=
201202242050 METAR ESMX 242050Z AUTO 27016KT 240V310 9999NDV BKN023/// 04/M00 Q1000=
201202242020 METAR ESMX 242020Z AUTO 26013G24KT 230V290 9999NDV BKN024/// 04/M00 Q1000=
201202241950 METAR ESMX 241950Z 27015G26KT 250V310 9999 BKN023 04/M00 Q0999=
201202241920 METAR ESMX 241920Z 27016G26KT 240V300 9999 BKN022 05/00 Q1000=
201202241850 METAR ESMX 241850Z 28017G30KT 9999 BKN023 05/00 Q1000=
201202241820 METAR ESMX 241820Z 29014KT 9999 BKN023 05/00 Q1000=
201202241750 METAR ESMX 241750Z 27018G32KT 9999 FEW022 BKN027 05/01 Q0999=
201202241720 METAR ESMX 241720Z 26016G27KT 9999 FEW025 05/01 Q0999=
201202241650 METAR ESMX 241650Z 27017G28KT 9999 SCT030 05/01 Q0999=
201202241620 METAR ESMX 241620Z 25016G31KT 210V300 9999 FEW022 BKN030 05/01 Q0999=
201202241550 METAR ESMX 241550Z 28014G25KT 250V320 9999 BKN022 06/01 Q1000=
201202241520 METAR ESMX 241520Z 27016G28KT 240V310 9999 BKN022 06/02 Q0999=
201202241450 METAR ESMX 241450Z 27017G29KT 9999 BKN020 06/02 Q1000=
201202241420 METAR ESMX 241420Z 27014G25KT 230V300 9999 OVC018 06/02 Q1000=
201202241350 METAR ESMX 241350Z 26017G27KT 9999 OVC018 06/02 Q1000=
201202241320 METAR ESMX 241320Z 27019KT 230V290 9999 BKN019 06/02 Q1000=
201202241250 METAR ESMX 241250Z 27018KT 9999 BKN020 06/02 Q1000=
201202241220 METAR ESMX 241220Z 26018KT 9999 BKN020 06/02 Q1000=
201202241150 METAR ESMX 241150Z 27019KT 9999 BKN017 06/02 Q1000=
201202241120 METAR ESMX 241120Z 26017G27KT 9999 BKN016 06/02 Q1000=
201202241050 METAR ESMX 241050Z 27015KT 240V300 9999 OVC016 06/02 Q1000=
201202241020 METAR ESMX 241020Z 28019KT 250V310 9999 BKN015 06/02 Q1000=
201202240950 METAR ESMX 240950Z 27015KT 240V300 9999 BKN015 06/02 Q1000=
201202240920 METAR ESMX 240920Z 27014G24KT 240V320 9999 OVC012 05/03 Q1001=
201202240850 METAR ESMX 240850Z 27015KT 230V310 9999 OVC012 05/03 Q1001=
201202240820 METAR ESMX 240820Z 27014KT 9999 OVC012 05/03 Q1001=
201202240750 METAR ESMX 240750Z 26012KT 210V280 9999 BKN012 06/03 Q1001=
201202240720 METAR ESMX 240720Z 27013KT 9999 OVC011 05/03 Q1001=
201202240650 METAR ESMX 240650Z 25011KT 210V270 9999 BKN011 BKN016 05/03 Q1001=
201202240620 METAR ESMX 240620Z 26010KT 230V290 9999 BKN011 05/03 Q1000=
201202240550 METAR ESMX 240550Z 27011KT 9999 BKN011 06/04 Q1001=
201202240520 METAR ESMX 240520Z 27014G24KT 240V320 9999 OVC010 06/04 Q1000=
201202240450 METAR ESMX 240450Z 28015G26KT 250V320 9999 OVC010 06/04 Q1000=
201202240420 METAR ESMX 240420Z AUTO 28013KT 250V320 9999NDV OVC007/// 06/04 Q1000=
201202240350 METAR ESMX 240350Z AUTO 26013G23KT 230V300 9999NDV OVC008/// 06/04 Q1000=
201202240320 METAR ESMX 240320Z AUTO 28011KT 240V300 9999NDV BKN006/// OVC010/// 06/05 Q1000=
201202240250 METAR ESMX 240250Z AUTO 27013G23KT 240V300 9999NDV FEW002/// SCT004/// OVC005/// 06/05 Q1000=
201202240220 METAR ESMX 240220Z AUTO 26014KT 230V290 5000NDV BR OVC001/// 05/05 Q1000=
201202240150 METAR ESMX 240150Z AUTO 27013KT 220V300 2900NDV BR OVC001/// 05/04 Q1000=
201202240120 METAR ESMX 240120Z AUTO 27014KT 230V300 4000NDV BR OVC003/// 05/04 Q1000=
201202240050 METAR ESMX 240050Z AUTO 26012KT 220V290 3200NDV BR OVC004/// 05/04 Q1001=
201202240020 METAR ESMX 240020Z 22011KT 5000 DZ FEW003 OVC006 04/03 Q1001=
201202232350 METAR ESMX 232350Z 23009KT 3300 DZ FEW003 BKN005 OVC007 04/03 Q1001=
201202232320 METAR ESMX 232320Z 24006KT 210V280 2100 DZ BR FEW004 OVC005 03/03 Q1002=
201202232250 METAR ESMX 232250Z 24006KT 200V260 2800 BR OVC006 04/02 Q1003=
201202232220 METAR ESMX 232220Z 25008KT 4000 BR FEW008 OVC009 04/02 Q1003=
201202232150 METAR ESMX 232150Z 27009KT 230V290 9999 OVC011 04/02 Q1003=
201202232120 METAR ESMX 232120Z 26008KT 230V290 9999 BKN012 BKN060 04/02 Q1004=
201202232050 METAR ESMX 232050Z 26007KT 220V300 9999 OVC013 04/01 Q1004=
201202232020 METAR ESMX 232020Z 27009KT 230V290 9999 OVC012 04/01 Q1004=
201202231950 METAR ESMX 231950Z 26009KT 230V290 9999 OVC013 04/01 Q1005=
201202231920 METAR ESMX 231920Z 26009KT 230V300 9999 OVC014 04/01 Q1005=
201202231850 METAR ESMX 231850Z 26008KT 230V290 9999 BKN017 04/01 Q1005=
201202231820 METAR ESMX 231820Z 27009KT 9999 SCT017 04/01 Q1005=
201202231750 METAR ESMX 231750Z 27010KT CAVOK 04/01 Q1004=
201202231720 METAR ESMX 231720Z 26007KT 220V300 CAVOK 04/01 Q1004=
201202231650 METAR ESMX 231650Z 28008KT 250V320 CAVOK 05/M00 Q1004=
201202231620 METAR ESMX 231620Z 28009KT 250V320 CAVOK 05/M00 Q1004=
201202231550 METAR ESMX 231550Z 28011G23KT CAVOK 06/M00 Q1004=
201202231520 METAR ESMX 231520Z 28014KT CAVOK 07/M00 Q1004=
201202231450 METAR ESMX 231450Z 28010KT 250V320 CAVOK 08/00 Q1003=
201202231420 METAR ESMX 231420Z 29014G25KT CAVOK 08/00 Q1003=
201202231350 METAR ESMX 231350Z 28011KT 230V320 CAVOK 08/00 Q1003=
201202231320 METAR ESMX 231320Z 28014KT CAVOK 08/00 Q1003=
201202231250 METAR ESMX 231250Z 28014KT CAVOK 08/00 Q1003=
201202231220 METAR ESMX 231220Z 28013KT 250V330 CAVOK 08/00 Q1002=
201202231150 METAR ESMX 231150Z 27014KT 230V320 CAVOK 07/00 Q1002=
201202231120 METAR ESMX 231120Z 29015KT CAVOK 07/00 Q1001=
201202231050 METAR ESMX 231050Z 29013KT CAVOK 07/M00 Q1001=
201202231020 METAR ESMX 231020Z 29014KT 250V320 CAVOK 06/00 Q1000=
201202230950 METAR ESMX 230950Z 29013KT23 260V320 CAVOK 06/M00 Q1000=
201202230920 METAR ESMX 230920Z 29014KT CAVOK 05/00 Q0999=
201202230850 METAR ESMX 230850Z 28013KT CAVOK 05/M00 Q0998=
201202230820 METAR ESMX 230820Z 28013KT 240V300 CAVOK 04/M00 Q0998=
201202230750 METAR ESMX 230750Z 27014KT 240V300 CAVOK 04/00 Q0997=
201202230720 METAR ESMX 230720Z 28017KT 250V320 CAVOK 03/M00 Q0996=
201202230650 METAR ESMX 230650Z 28015G25KT CAVOK 03/M00 Q0995=
201202230620 METAR ESMX 230620Z 29016G27KT 250V320 CAVOK 03/M00 Q0994=
201202230550 METAR ESMX 230550Z 29014KT CAVOK 03/00 Q0994=
201202230520 METAR ESMX 230520Z 28016KT 250V320 CAVOK 03/01 Q0993=
201202230450 METAR ESMX 230450Z 28015KT 230V300 9999 FEW022 04/01 Q0992=
201202230420 METAR ESMX 230420Z AUTO 27018KT 9999NDV FEW020/// 04/02 Q0992=
201202230350 METAR ESMX 230350Z AUTO 25016G27KT 230V290 9999NDV FEW013/// SCT017/// BKN019/// 05/03 Q0991=
201202230320 METAR ESMX 230320Z AUTO 26018KT 200V300 9999NDV FEW008/// SCT012/// BKN017/// 05/03 Q0991=
201202230250 METAR ESMX 230250Z AUTO 27019KT 9999NDV FEW006/// SCT007/// BKN009/// 05/03 Q0991=
201202230220 METAR ESMX 230220Z AUTO 26023KT 8000NDV BR OVC006/// 05/04 Q0991=
201202230150 METAR ESMX 230150Z AUTO 24017G27KT 9999NDV FEW005/// BKN006/// OVC008/// 04/03 Q0990=
201202230120 METAR ESMX 230120Z AUTO 22016KT 190V260 3500NDV -RA OVC006/// 04/03 Q0991 REDZ=
201202230050 METAR ESMX 230050Z 22015G26KT 170V250 7000 -RA OVC005 04/03 Q0992=
201202230020 METAR ESMX 230020Z 21015KT 170V240 3400 -RA SCT005 OVC007 03/02 Q0993=
201202222350 METAR ESMX 222350Z 22016G26KT 200V260 3100 DZ BR OVC006 03/02 Q0994=
201202222320 METAR ESMX 222320Z 21015KT 9000 -DZ FEW006 BKN008 OVC011 03/02 Q0995=
201202222250 METAR ESMX 222250Z 23015KT 200V260 9999 DZ FEW007 OVC010 03/01 Q0996=
201202222220 METAR ESMX 222220Z 21016G29KT 9999 -RA FEW007 OVC010 03/02 Q0997=
201202222150 METAR ESMX 222150Z 23015G26KT 9999 -RA FEW009 BKN011 OVC015 03/02 Q0998=
201202222120 METAR ESMX 222120Z 22018G33KT 9999 DZ FEW009 BKN011 OVC016 03/02 Q0999=
201202222050 METAR ESMX 222050Z 22017G27KT 8000 -RA FEW009 BKN010 OVC014 04/02 Q1000=
201202222020 METAR ESMX 222020Z 23018G29KT 200V260 8000 -RA FEW007 OVC009 04/03 Q1001=
201202221950 METAR ESMX 221950Z 23016G29KT 200V260 5000 DZ FEW007 OVC009 04/03 Q1002=
201202221920 METAR ESMX 221920Z 23016G26KT 6000 DZ FEW007 OVC010 04/03 Q1002=
201202221850 METAR ESMX 221850Z 22016KT 9999 -RA SCT007 OVC009 04/03 Q1003=
201202221820 METAR ESMX 221820Z 23016KT 200V260 9999 -RA FEW006 OVC008 04/03 Q1004=
201202221750 METAR ESMX 221750Z 22015KT 9000 DZ OVC006 04/03 Q1004=
201202221720 METAR ESMX 221720Z 23014KT 190V250 8000 -RA SCT007 BKN008 04/03 Q1005=
201202221650 METAR ESMX 221650Z 23015KT 200V270 8000 -RA SCT005 OVC008 04/03 Q1006=
201202221620 METAR ESMX 221620Z 22015KT 4900 -RA SCT005 BKN007 04/03 Q1006=
201202221550 METAR ESMX 221550Z 23014KT 6000 DZ SCT005 BKN007 04/03 Q1007=
201202221520 METAR ESMX 221520Z 23015KT 5000 DZ OVC005 04/03 Q1007=
201202221450 METAR ESMX 221450Z 23013KT 200V270 2200 DZ OVC004 04/04 Q1008=
201202221420 METAR ESMX 221420Z 21013G24KT 160V240 3700 BR FEW004 OVC005 04/03 Q1008=
201202221350 METAR ESMX 221350Z 22014KT 2600 -DZ OVC005 04/04 Q1009=
201202221320 METAR ESMX 221320Z 22013KT 190V250 2300 -DZ SCT002 OVC005 04/04 Q1010=
201202221250 METAR ESMX 221250Z 23014KT 5000 BR OVC003 04/03 Q1010 REDZ=
201202221220 METAR ESMX 221220Z 22014KT 3100 DZ OVC004 04/03 Q1011=
201202221150 METAR ESMX 221150Z 23013KT 2500 BR FEW004 OVC005 04/04 Q1011=
201202221120 METAR ESMX 221120Z 23013KT 2500 DZ FEW004 OVC005 04/04 Q1012=
201202221050 METAR ESMX 221050Z 23012KT 200V260 3300 BR FEW003 OVC005 04/04 Q1012 REDZ=
201202221020 METAR ESMX 221020Z 22013KT 2100 DZ OVC002 04/04 Q1012=
201202220950 METAR ESMX 220950Z 22014KT 190V260 1800 BR OVC002 04/04 Q1012=
201202220920 METAR ESMX 220920Z 23013KT 200V270 4800 BR OVC002 04/04 Q1012=
201202220850 METAR ESMX 220850Z 23012KT 210V280 3800 BR OVC002 04/04 Q1013=
201202220820 METAR ESMX 220820Z 23011KT 2800 BR OVC002 04/04 Q1013=
201202220750 METAR ESMX 220750Z 24010KT 1300 R01/1900U R19/P2000N BR VV002 04/03 Q1013=
201202220720 METAR ESMX 220720Z 22009KT 1100 R01/1800D R19/P2000D BR VV002 04/03 Q1013=
201202220650 METAR ESMX 220650Z 23009KT 4800 BR OVC002 03/03 Q1014=
201202220620 METAR ESMX 220620Z 21009KT 4600 OVC002 03/02 Q1014=
201202220550 METAR ESMX 220550Z 22008KT 3800 -DZ BR OVC002 03/02 Q1014=
201202220520 METAR ESMX 220520Z 21007KT 0900 R01/P2000N R19/P2000N FG VV002 02/02 Q1014=
201202220450 METAR ESMX 220450Z 20008KT 0800 R01/P2000N R19/P2000N FG VV002 02/02 Q1014=
201202220420 METAR ESMX 220420Z AUTO 20007KT 4700NDV OVC001/// 02/02 Q1015=
201202220350 METAR ESMX 220350Z AUTO 19007KT 1000NDV R01/P2000N R19/P2000N FG VV002 02/01 Q1015=
201202220320 METAR ESMX 220320Z AUTO 19007KT 0450NDV R01/1400U R19/1400U FG VV001 02/01 Q1016=
201202220250 METAR ESMX 220250Z AUTO 21006KT 0300NDV R01/1100N R19/1500D FG VV001 01/01 Q1016=
201202220220 METAR ESMX 220220Z AUTO 21007KT 0650NDV R01/P2000D R19/P2000N FG VV001 01/01 Q1016 REDZ=
201202220150 METAR ESMX 220150Z AUTO 19006KT 2000NDV DZ OVC001/// 01/01 Q1017=
201202220120 METAR ESMX 220120Z AUTO 19005KT 0700NDV R01/P2000N R19/P2000N DZ VV001 01/00 Q1017=
201202220050 METAR ESMX 220050Z 24006KT 200V270 0800 R01/P2000N R19/P2000N FG VV002 01/00 Q1018=
201202220020 METAR ESMX 220020Z 24006KT 220V290 0500 R01/1600N R19/1700N FG VV002 00/00 Q1018=
201202212350 METAR ESMX 212350Z 24006KT 3400 BR OVC002 01/M00 Q1018=
201202212320 METAR ESMX 212320Z 22005KT 6000 BR OVC002 01/00 Q1018=
201202212250 METAR ESMX 212250Z 23006KT 7000 BR OVC002 01/00 Q1018=
201202212220 METAR ESMX 212220Z 25005KT 8000 BR OVC003 01/01 Q1018=
201202212150 METAR ESMX 212150Z 24006KT 210V280 8000 BR OVC002 01/00 Q1018=
201202212120 METAR ESMX 212120Z 22005KT 6000 BR OVC002 01/00 Q1017=
201202212050 METAR ESMX 212050Z 24006KT 200V270 2800 BR OVC001 01/00 Q1017=
201202212020 METAR ESMX 212020Z 23007KT 3000 BR OVC002 01/00 Q1017=
201202211950 METAR ESMX 211950Z 25007KT 1500 BR VV002 01/01 Q1017=
201202211920 METAR ESMX 211920Z 24005KT 6000 BR BKN002 01/M00 Q1016=
201202211850 METAR ESMX 211850Z 25005KT 8000 BR FEW004 01/01 Q1016=
201202211820 METAR ESMX 211820Z 25005KT 9000 BR SCT004 02/01 Q1016=
201202211750 METAR ESMX 211750Z 24006KT 8000 BR FEW004 SCT009 BKN100 02/02 Q1015=
201202211720 METAR ESMX 211720Z 24005KT 9000 BR SCT005 SCT030 BKN100 02/02 Q1015=
201202211650 METAR ESMX 211650Z 25006KT 210V280 9999 FEW007 SCT030 03/02 Q1014=
201202211620 METAR ESMX 211620Z 23006KT 9999 FEW007 SCT030 BKN100 03/02 Q1013=
201202211550 METAR ESMX 211550Z 24007KT 200V260 9999 FEW006 SCT015 BKN200 03/02 Q1013=
201202211520 METAR ESMX 211520Z 25006KT 210V290 9999 FEW007 SCT015 BKN200 04/02 Q1012=
201202211450 METAR ESMX 211450Z 26006KT 240V310 9999 FEW012 SCT015 05/03 Q1012=
201202211420 METAR ESMX 211420Z 27007KT 9999 FEW012 BKN016 05/02 Q1012=
201202211350 METAR ESMX 211350Z 26007KT 230V290 9999 SCT010 BKN021 05/03 Q1011=
201202211320 METAR ESMX 211320Z 27010KT 230V290 9999 FEW008 SCT014 BKN016 04/03 Q1011=
201202211250 METAR ESMX 211250Z 26009KT 9999 FEW007 SCT011 BKN014 04/03 Q1011=
201202211220 METAR ESMX 211220Z 27009KT 9999 FEW007 BKN009 OVC014 04/03 Q1011=
201202211150 METAR ESMX 211150Z 28011KT 250V310 9999 FEW007 SCT009 BKN012 04/03 Q1010=
201202211120 METAR ESMX 211120Z 27009KT 240V300 9999 SCT005 OVC008 04/03 Q1010=
201202211050 METAR ESMX 211050Z 26009KT 3800 BR BKN005 OVC008 04/03 Q1009 REDZ=
201202211020 METAR ESMX 211020Z 27009KT 2700 -DZ FEW004 OVC006 04/03 Q1009=
201202210920 METAR ESMX 210920Z 25009KT 220V280 2700 BR FEW004 OVC006 03/02 Q1008=
201202210850 METAR ESMX 210850Z 25009KT 2800 BR FEW004 OVC006 03/02 Q1008=
201202210820 METAR ESMX 210820Z 24011KT 2600 BR FEW003 BKN004 OVC006 03/02 Q1007=
201202210750 METAR ESMX 210750Z 23011KT 2600 BR SCT003 OVC005 02/02 Q1007=
201202210720 METAR ESMX 210720Z 22011KT 200V260 4000 BR OVC003 02/02 Q1007=
201202210650 METAR ESMX 210650Z 22011KT 2300 BR OVC002 02/01 Q1007=
201202210620 METAR ESMX 210620Z 22011KT 1700 DZ OVC002 01/01 Q1007=
201202210550 METAR ESMX 210550Z 23012KT 3500 -RA OVC002 01/01 Q1007=
201202210520 METAR ESMX 210520Z 23011KT 6000 -RASN OVC002 01/00 Q1007=
201202210450 METAR ESMX 210450Z 23012KT 3700 BR OVC003 01/00 Q1008=
201202210420 METAR ESMX 210420Z 23013KT 3700 BR FEW003 OVC004 01/00 Q1008 REDZ=
201202210350 METAR ESMX 210350Z 23014KT 2300 DZ OVC003 01/00 Q1008=
201202210320 METAR ESMX 210320Z 23015KT 1900 DZ FEW004 BKN005 OVC008 00/M00 Q1008=
201202210250 METAR ESMX 210250Z 21015KT 2200 -SN SCT005 OVC008 00/M00 Q1009 RESG=
201202210220 METAR ESMX 210220Z 21015KT 2100 -SN FEW006 SCT007 BKN008 00/M00 Q1009=
201202210150 METAR ESMX 210150Z 21017KT 2300 SN FEW005 SCT007 BKN008 00/M01 Q1010=
201202210120 METAR ESMX 210120Z 20016KT 2800 SN SCT003 BKN006 M00/M01 Q1010=
201202210050 METAR ESMX 210050Z 21017KT 160V230 0600 R01/1900D R19/0500VP2000 SN VV003 M00/M01 Q1011=
201202210020 METAR ESMX 210020Z 21016KT 0700 R01/P2000D R19/0175VP2000N SN VV003 M00/M01 Q1012=
201202202350 METAR ESMX 202350Z 20016KT 0600 R01/P2000N R19/0450VP2000 SN VV005 M00/M01 Q1012=
201202202320 METAR ESMX 202320Z 20015KT 1000 R01/P2000N R19/P2000 SN FEW003 OVC006 M00/M01 Q1013=
201202202250 METAR ESMX 202250Z 20015KT 1300 R01/P2000N R19/P2000 SN FEW001 SCT003 BKN006 M00/M01 Q1014 RERA RESHRA RESHSN=
201202202220 METAR ESMX 202220Z 20016KT 170V240 1000 SN FEW005 SCT020 BKN026 00/M02 Q1014=
201202202150 METAR ESMX 202150Z 20015KT 170V230 8000 -RASN SCT021 BKN039 01/M03 Q1015=
201202202120 METAR ESMX 202120Z 20016KT 170V230 9999 SCT024 OVC035 01/M03 Q1015=
201202202050 METAR ESMX 202050Z 20015KT 9999 FEW022 OVC042 01/M02 Q1016=
201202202020 METAR ESMX 202020Z 22015KT 9999 FEW023 SCT027 OVC041 01/M03 Q1016=
201202201950 METAR ESMX 201950Z 21013KT 9999 FEW024 SCT033 BKN047 01/M02 Q1017=
201202201920 METAR ESMX 201920Z 23013G23KT 9999 FEW018 OVC046 01/M02 Q1018=
201202201850 METAR ESMX 201850Z 21013KT 9999 FEW018 BKN021 OVC028 01/M02 Q1018=
201202201820 METAR ESMX 201820Z 21012KT 9999 FEW018 OVC022 01/M02 Q1018=
201202201750 METAR ESMX 201750Z 21012KT 9999 FEW025 BKN029 01/M02 Q1019=
201202201720 METAR ESMX 201720Z 22011KT 9999 BKN016 01/M02 Q1019=
201202201650 METAR ESMX 201650Z 22011KT 9999 BKN016 01/M02 Q1019=
201202201620 METAR ESMX 201620Z 22010KT 9999 SCT016 BKN045 01/M02 Q1020=
201202201550 METAR ESMX 201550Z 21009KT 9999 SCT016 BKN045 01/M02 Q1020=
201202201520 METAR ESMX 201520Z 24009KT 210V280 9999 SCT016 BKN045 01/M02 Q1020=
201202201450 METAR ESMX 201450Z 24009KT 9999 BKN016 02/M02 Q1021=
201202201420 METAR ESMX 201420Z 22011KT 9999 SCT020 BKN040 02/M02 Q1021=
201202201350 METAR ESMX 201350Z 23009KT 9999 FEW025 BKN080 02/M03 Q1021=
201202201320 METAR ESMX 201320Z 25008KT 9999 FEW025 BKN200 02/M03 Q1021=
201202201250 METAR ESMX 201250Z 25011KT CAVOK 02/M03 Q1022=
201202201220 METAR ESMX 201220Z 25009KT 210V290 9999 FEW025 BKN200 01/M04 Q1021=
201202201150 METAR ESMX 201150Z 23010KT 200V270 CAVOK 01/M05 Q1022=
201202201120 METAR ESMX 201120Z 24011KT 200V260 CAVOK 00/M05 Q1022=
201202201050 METAR ESMX 201050Z 26012KT 210V290 CAVOK M00/M05 Q1022=
201202201020 METAR ESMX 201020Z 25009KT 210V280 CAVOK M01/M05 Q1022=
201202200950 METAR ESMX 200950Z 26007KT 220V290 CAVOK M01/M05 Q1021=
201202200920 METAR ESMX 200920Z 26006KT 220V290 CAVOK M02/M05 Q1021=
201202200850 METAR ESMX 200850Z 25005KT 220V290 CAVOK M02/M05 Q1021=
201202200820 METAR ESMX 200820Z 26005KT CAVOK M03/M05 Q1020=
201202200750 METAR ESMX 200750Z 25004KT 230V290 CAVOK M04/M05 Q1020=
201202200720 METAR ESMX 200720Z 24005KT CAVOK M05/M06 Q1020=
201202200650 METAR ESMX 200650Z 24004KT CAVOK M05/M06 Q1019=
201202200620 METAR ESMX 200620Z 26005KT CAVOK M05/M05 Q1019=
201202200550 METAR ESMX 200550Z 26005KT CAVOK M05/M06 Q1018=
201202200520 METAR ESMX 200520Z 26004KT CAVOK M04/M05 Q1018=
201202200450 METAR ESMX 200450Z 27004KT CAVOK M04/M05 Q1018=
201202200420 METAR ESMX 200420Z 28003KT CAVOK M04/M05 Q1017=
201202200350 METAR ESMX 200350Z AUTO VRB02KT 9999NDV NCD M04/M06 Q1017=
201202200320 METAR ESMX 200320Z AUTO 28002KT 9999NDV NCD M03/M05 Q1016=
201202200250 METAR ESMX 200250Z AUTO 27005KT 9999NDV FEW029/// SCT074/// M03/M05 Q1015=
201202200220 METAR ESMX 200220Z AUTO 29004KT 250V320 9999NDV FEW062/// M02/M05 Q1015=
201202200150 METAR ESMX 200150Z AUTO 27004KT 9999NDV FEW096/// M03/M05 Q1014=
201202200120 METAR ESMX 200120Z AUTO 28003KT 9999NDV NCD M03/M05 Q1014=
201202200050 METAR ESMX 200050Z AUTO 31004KT 280V340 9999NDV NCD M03/M05 Q1013=
201202200020 METAR ESMX 200020Z 31003KT 280V350 CAVOK M03/M05 Q1013=
201202192350 METAR ESMX 192350Z 30004KT CAVOK M02/M04 Q1012=
201202192320 METAR ESMX 192320Z 30004KT CAVOK M02/M04 Q1011=
201202192250 METAR ESMX 192250Z 30004KT 280V340 CAVOK M02/M03 Q1011=
201202192220 METAR ESMX 192220Z 28004KT CAVOK M01/M03 Q1010=
201202192150 METAR ESMX 192150Z 29006KT CAVOK M01/M03 Q1009=
201202192120 METAR ESMX 192120Z 29007KT 250V320 CAVOK M01/M02 Q1009=
201202192050 METAR ESMX 192050Z 28006KT CAVOK M01/M02 Q1008=
201202192020 METAR ESMX 192020Z 28006KT CAVOK M00/M01 Q1007=
201202191950 METAR ESMX 191950Z 28006KT 9999 SCT025 M00/M01 Q1006=
201202191920 METAR ESMX 191920Z 28006KT 9999 SCT025 00/M01 Q1006=
201202191850 METAR ESMX 191850Z 29008KT 9999 FEW013 BKN026 01/M01 Q1005=
201202191820 METAR ESMX 191820Z 30009KT 9999 SCT015 BKN025 01/M01 Q1004=
201202191750 METAR ESMX 191750Z 29009KT 9999 -SHRA FEW008 OVC016 00/M00 Q1003=
201202191720 METAR ESMX 191720Z 29010KT 6000 -SHRA FEW006 SCT010CB BKN017 01/M00 Q1002 RESG=
201202191650 METAR ESMX 191650Z 28010KT 9999 -DZ FEW005 SCT009 BKN013 01/00 Q1001=
201202191620 METAR ESMX 191620Z 25008KT 210V290 9999 -SHSNRA SCT005 BKN010CB 00/M00 Q1001 RERA=
201202191550 METAR ESMX 191550Z 25008KT 210V280 6000 -SHRA FEW008 SCT010CB BKN020 01/M00 Q1000=
201202191520 METAR ESMX 191520Z 25009KT 9999 FEW010CB BKN020 01/M00 Q0999 RESHRA=
201202191450 METAR ESMX 191450Z 25007KT 200V280 3300 -SHRA FEW008CB SCT010 BKN013 01/M00 Q0999=
201202191420 METAR ESMX 191420Z 25008KT 9999 FEW007 SCT010CB BKN018 01/M00 Q0998 RESN=
201202191350 METAR COR ESMX 191350Z 24007KT 210V280 9999 FEW006CB SCT010 BKN013 02/00 Q0998 RESN=
201202191320 METAR ESMX 191320Z 23008KT 9999 FEW002 BKN006 02/01 Q0998 RERA=
201202191250 METAR ESMX 191250Z AUTO 20006KT 170V240 1600NDV +RA FEW004/// SCT006/// BKN014/// 01/00 Q0997=
201202191220 METAR ESMX 191220Z AUTO 22007KT 2900NDV -RA FEW004/// SCT006/// BKN007/// 01/00 Q0997 RESHRA=
201202191150 METAR ESMX 191150Z AUTO 21009KT 4700NDV -RA FEW006/// SCT010/// BKN013/// 01/M00 Q0997=
201202191120 METAR ESMX 191120Z AUTO 21010KT 4400NDV FEW002/// SCT006/// BKN007/// 01/00 Q0997=
201202191050 METAR ESMX 191050Z AUTO 20010KT 2700NDV -RA FEW006/// SCT009/// OVC011/// 01/00 Q0997=
201202191020 METAR ESMX 191020Z AUTO 20010KT 7000NDV -RA SCT010/// BKN013/// BKN020/// 01/M00 Q0997=
201202190950 METAR ESMX 190950Z AUTO 19009KT 160V230 9999NDV FEW009/// BKN011/// OVC015/// 02/M00 Q0996=
201202190920 METAR ESMX 190920Z AUTO 20009KT 9999NDV FEW009/// OVC010/// 01/M00 Q0996=
201202190850 METAR ESMX 190850Z AUTO 21009KT 170V250 9999NDV FEW006/// SCT009/// BKN015/// 01/M00 Q0996=
201202190820 METAR ESMX 190820Z AUTO 20008KT 8000NDV FEW006/// SCT020/// BKN023/// 01/M00 Q0996=
201202190750 METAR ESMX 190750Z AUTO 22008KT 9999NDV FEW007/// SCT013/// BKN018/// 01/M00 Q0996=
201202190720 METAR ESMX 190720Z AUTO 22008KT 9000NDV FEW006/// SCT009/// OVC011/// 01/M00 Q0996=
201202190650 METAR ESMX 190650Z AUTO 23004KT 9000NDV FEW007/// BKN010/// BKN014/// 01/M00 Q0996=
201202190620 METAR ESMX 190620Z AUTO 23006KT 200V260 9999NDV FEW009/// BKN013/// BKN016/// 01/M00 Q0996=
201202190550 METAR ESMX 190550Z AUTO 23005KT 210V280 9999NDV FEW012/// SCT017/// BKN023/// 01/00 Q0996=
201202190520 METAR ESMX 190520Z AUTO 23006KT 200V260 9999NDV FEW007/// SCT019/// BKN025/// 01/01 Q0995=
201202190450 METAR ESMX 190450Z AUTO 22005KT 9999NDV FEW008/// SCT017/// BKN024/// 01/01 Q0995=
201202190420 METAR ESMX 190420Z AUTO 22005KT 200V260 9999NDV FEW007/// SCT011/// BKN015/// 02/01 Q0995=
201202190350 METAR ESMX 190350Z AUTO 23008KT 200V260 9999NDV FEW006/// SCT008/// BKN010/// 02/01 Q0995=
201202190320 METAR ESMX 190320Z AUTO 23006KT 9999NDV SCT006/// BKN008/// 02/01 Q0995=
201202190250 METAR ESMX 190250Z AUTO 23006KT 9999NDV -DZ FEW004/// BKN006/// OVC008/// 02/01 Q0995=
201202190220 METAR ESMX 190220Z AUTO 23011KT 7000NDV DZ BKN005/// OVC008/// 03/02 Q0995=
201202190150 METAR ESMX 190150Z AUTO 20010KT 5000NDV DZ FEW005/// BKN006/// OVC008/// 03/02 Q0995=
201202190120 METAR ESMX 190120Z AUTO 19010KT 6000NDV DZ OVC004/// 03/02 Q0995=
201202190050 METAR ESMX 190050Z AUTO 19012KT 8000NDV -DZ BKN005/// OVC007/// 03/02 Q0995=
201202190020 METAR ESMX 190020Z AUTO 19012KT 6000NDV DZ BKN005/// OVC009/// 03/02 Q0995=
201202182350 METAR ESMX 182350Z AUTO 19012KT 5000NDV DZ FEW004/// OVC005/// 03/02 Q0995=
201202182320 METAR ESMX 182320Z AUTO 19012KT 4800NDV DZ OVC002/// 03/02 Q0996=
201202182250 METAR ESMX 182250Z 19014KT 1900 DZ OVC002 03/02 Q0996=
201202182220 METAR ESMX 182220Z 19013KT 2300 BR BKN002 03/02 Q0996=
201202182150 METAR ESMX 182150Z 18011KT 2500 BR BKN002 03/02 Q0996=
201202182120 METAR ESMX 182120Z 19011KT 3400 BR OVC002 03/02 Q0996=
201202182050 METAR ESMX 182050Z 18010KT 6000 BR OVC002 03/02 Q0997=
201202182020 METAR ESMX 182020Z 17009KT 5000 BR BKN002 03/02 Q0997=
201202181950 METAR ESMX 181950Z 17010KT 140V200 3800 BR BKN002 03/02 Q0997 RERA=
201202181920 METAR ESMX 181920Z 18012KT 6000 -RA OVC003 03/02 Q0998=
201202181850 METAR ESMX 181850Z 18011KT 150V210 7000 -RA OVC003 03/02 Q0998=
201202181820 METAR ESMX 181820Z AUTO 17009KT 7000NDV -RA BKN003/// OVC006/// 02/02 Q0999=
201202181750 METAR ESMX 181750Z AUTO 16009KT 7000NDV -RA OVC004/// 02/02 Q0999=
201202181720 METAR ESMX 181720Z AUTO 16009KT 140V200 7000NDV -RA OVC004/// 02/01 Q0999=
201202181650 METAR ESMX 181650Z AUTO 17010KT 6000NDV -RA OVC004/// 02/01 Q1000=
201202181620 METAR ESMX 181620Z AUTO 17009KT 5000NDV RA OVC003/// 01/01 Q1000=
201202181550 METAR ESMX 181550Z AUTO 17010KT 140V210 6000NDV -RA OVC004/// 01/01 Q1001=
201202181520 METAR ESMX 181520Z AUTO 17010KT 9999NDV DZ OVC003/// 01/01 Q1001=
201202181450 METAR ESMX 181450Z 16009KT 2900 RA OVC002 01/01 Q1002 REDZ=
201202181420 METAR ESMX 181420Z 17010KT 3000 -RA BKN003 01/01 Q1002=
201202181350 METAR ESMX 181350Z 18011KT 140V200 6000 BR BKN002 01/01 Q1003=
201202181320 METAR ESMX 181320Z 18012KT 140V210 3500 DZ OVC003 01/01 Q1003=
201202181250 METAR ESMX 181250Z 17011KT 140V200 8000 BR BKN004 01/01 Q1003=
201202181220 METAR ESMX 181220Z 17011KT 140V210 6000 BR BKN004 01/01 Q1004=
201202181150 METAR ESMX 181150Z 17011KT 7000 BR BKN002 OVC003 01/00 Q1005=
201202181120 METAR ESMX 181120Z 17011KT 130V210 4500 SN BKN002 01/01 Q1005=
201202181050 METAR ESMX 181050Z 17009KT 140V200 3000 BR OVC002 01/00 Q1006=
201202181020 METAR ESMX 181020Z 18010KT 2700 BR OVC002 01/00 Q1006=
201202180950 METAR ESMX 180950Z 18009KT 130V220 0900 R01/1200N R19/1400N FG VV002 01/00 Q1006=
201202180920 METAR ESMX 180920Z 17009KT 0750 R01/1000N R19/1100N FG VV002 00/00 Q1007=
201202180850 METAR ESMX 180850Z 17008KT 0550 R01/0900N R19/1000N FG VV002 00/M00 Q1007=
201202180820 METAR ESMX 180820Z AUTO 17007KT 0700NDV R01/1100N R19/1200U FG VV002 00/M00 Q1008=
201202180750 METAR ESMX 180750Z AUTO 17007KT 0650NDV R01/1000N R19/1200N FG VV002 00/M00 Q1008=
201202180720 METAR ESMX 180720Z AUTO 17008KT 140V200 0700NDV R01/1100V1500N R19/1400N FZFG VV002 M00/M00 Q1008=
201202180650 METAR ESMX 180650Z AUTO 17006KT 140V200 0700NDV R01/1400N R19/1700D FZFG VV002 M00/M00 Q1008=
201202180620 METAR ESMX 180620Z AUTO 18008KT 1100NDV R01/P2000N R19/P2000N BR VV002 00/M00 Q1009=
201202180550 METAR ESMX 180550Z AUTO 18007KT 140V210 1200NDV R01/P2000N R19/P2000N BR OVC001/// 00/00 Q1009=
201202180520 METAR ESMX 180520Z AUTO 18005KT 3100NDV BR OVC001/// 00/M00 Q1009=
201202180450 METAR ESMX 180450Z AUTO 19005KT 2800NDV BR OVC001/// 00/M00 Q1009=
201202180420 METAR ESMX 180420Z AUTO 17002KT 1400NDV R01/P2000N R19/P2000N BR VV002 00/M00 Q1010=
201202180350 METAR ESMX 180350Z AUTO 22005KT 1900NDV BR OVC001/// M00/M01 Q1010=
201202180320 METAR ESMX 180320Z AUTO 20004KT 150V240 2300NDV BR OVC001/// M00/M01 Q1010=
201202180250 METAR ESMX 180250Z AUTO 16003KT 3700NDV BR BKN001/// OVC003/// M01/M01 Q1010=
201202180220 METAR ESMX 180220Z AUTO 16003KT 120V190 3900NDV BKN001/// OVC006/// M01/M01 Q1010=
201202180150 METAR ESMX 180150Z AUTO VRB02KT 3500NDV OVC001/// M01/M02 Q1010=
201202180120 METAR ESMX 180120Z AUTO 16003KT 120V190 0600NDV R01/P2000N R19/1400VP2000U FZFG VV002 M01/M02 Q1011=
201202180050 METAR ESMX 180050Z AUTO VRB02KT 0400NDV R01/1400N R19/1300U FZFG VV001 M02/M02 Q1011 RESG=
201202180020 METAR ESMX 180020Z AUTO 25005KT 210V280 0250NDV R01/0900U R19/0900N SG VV001 M02/M02 Q1011=
201202172350 METAR ESMX 172350Z AUTO 26006KT 0200NDV R01/0800 R19/0900N SG VV001 M02/M02 Q1011=
201202172320 METAR ESMX 172320Z AUTO 26006KT 230V290 0450NDV R01/1200V1900D R19/1100VP2000D FZFG VV001 M02/M03 Q1011=
201202172250 METAR ESMX 172250Z AUTO 26006KT 8000NDV BR FEW001/// SCT002/// M03/M03 Q1011=
201202172220 METAR ESMX 172220Z AUTO 24004KT 9999NDV BR NCD M03/M04 Q1011=
201202172150 METAR ESMX 172150Z AUTO 24004KT 0250NDV R01/P2000N R19/0800V1200D BR NCD M05/M05 Q1010=
201202172120 METAR ESMX 172120Z AUTO 18002KT 4200NDV BR FEW000/// M03/M03 Q1010=
201202172050 METAR ESMX 172050Z AUTO 25003KT 1900NDV NCD M02/M03 Q1010=
201202172020 METAR ESMX 172020Z AUTO 26005KT 9999NDV NCD M02/M02 Q1010=
201202171950 METAR ESMX 171950Z 25006KT CAVOK M01/M02 Q1010=
201202171920 METAR ESMX 171920Z 26004KT CAVOK M01/M02 Q1010=
201202171850 METAR ESMX 171850Z 26004KT CAVOK M01/M02 Q1010=
201202171820 METAR ESMX 171820Z 26005KT CAVOK 00/M02 Q1010=
201202171750 METAR ESMX 171750Z 27005KT CAVOK 00/M02 Q1009=
201202171720 METAR ESMX 171720Z 27005KT CAVOK 00/M03 Q1009=
201202171650 METAR ESMX 171650Z VRB02KT CAVOK M01/M04 Q1009=
201202171620 METAR ESMX 171620Z VRB02KT CAVOK 01/M03 Q1008=
201202171550 METAR ESMX 171550Z 28003KT 260V320 CAVOK 04/M04 Q1008=
201202171520 METAR ESMX 171520Z 30004KT CAVOK 04/M03 Q1008=
201202171450 METAR ESMX 171450Z 30006KT 280V350 CAVOK 04/M03 Q1007=
201202171420 METAR ESMX 171420Z 30006KT 260V340 CAVOK 05/M02 Q1007=
201202171350 METAR ESMX 171350Z 29007KT CAVOK 04/M02 Q1007=
201202171320 METAR ESMX 171320Z 33006KT 290V360 CAVOK 04/M02 Q1007=
201202171250 METAR ESMX 171250Z 33007KT 290V020 CAVOK 04/M02 Q1007=
201202171220 METAR ESMX 171220Z 31007KT 280V340 CAVOK 04/M01 Q1006=
201202171150 METAR ESMX 171150Z 32006KT 290V350 CAVOK 03/M01 Q1006=
201202171120 METAR ESMX 171120Z 33006KT 9999 FEW013 03/M01 Q1006=
201202171050 METAR ESMX 171050Z 31008KT 280V360 9999 SCT012 02/M01 Q1006=
201202171020 METAR ESMX 171020Z 29007KT 260V320 9999 BKN009 02/M01 Q1006=
201202170950 METAR ESMX 170950Z 27007KT 250V320 9999 BKN007 01/M01 Q1006=
201202170920 METAR ESMX 170920Z 29008KT 9999 BKN007 BKN010 01/M00 Q1006=
201202170850 METAR ESMX 170850Z 28007KT 9999 BKN005 01/M00 Q1005=
201202170820 METAR ESMX 170820Z 29008KT 9999 OVC006 01/M00 Q1005=
201202170750 METAR ESMX 170750Z 28008KT 9999 OVC006 01/M00 Q1005=
201202170720 METAR ESMX 170720Z 29006KT 260V340 9999 OVC005 01/M00 Q1005=
201202170650 METAR ESMX 170650Z 28009KT 9999 OVC005 01/00 Q1004=
201202170620 METAR ESMX 170620Z 27007KT 240V300 9999 OVC005 01/01 Q1004=
201202170550 METAR ESMX 170550Z 29008KT 240V340 9999 OVC005 01/01 Q1004=
201202170520 METAR ESMX 170520Z 29007KT 9999 OVC005 01/01 Q1003=
201202170450 METAR ESMX 170450Z 27007KT 230V300 9999 FEW003 OVC005 01/01 Q1003=
201202170420 METAR ESMX 170420Z AUTO 29005KT 250V320 9999NDV OVC002/// 02/01 Q1003=
201202170350 METAR ESMX 170350Z AUTO 27009KT 6000NDV BKN001/// OVC004/// 02/01 Q1003=
201202170320 METAR ESMX 170320Z AUTO 26008KT 240V300 2100NDV VV002 02/01 Q1003=
201202170250 METAR ESMX 170250Z AUTO 27006KT 230V290 0650NDV R01/1900D R19/P2000N FG VV001 01/01 Q1003=
201202170220 METAR ESMX 170220Z AUTO 25005KT 1200NDV R01/P2000N R19/P2000N BR VV002 01/01 Q1003=
201202170150 METAR ESMX 170150Z AUTO 24005KT 200V260 1400NDV R01/P2000N R19/P2000N OVC001/// 01/00 Q1003=
201202170120 METAR ESMX 170120Z AUTO 22005KT 1900NDV -DZ OVC001/// 01/00 Q1003 RESG=
201202170050 METAR ESMX 170050Z 22006KT 0750 R01/P2000N R19/P2000N -SN VV002 00/00 Q1004 REUP=
201202170020 METAR ESMX 170020Z 19006KT 0900 R01/P2000N R19/P2000N FG VV002 00/M00 Q1004=
201202162350 METAR ESMX 162350Z 19007KT 0800 R01/P2000N R19/P2000N FG VV002 00/M00 Q1004=
201202162320 METAR ESMX 162320Z 19008KT 1000 R01/P2000N R19/P2000N BR OVC002 M00/M01 Q1004=
201202162250 METAR ESMX 162250Z 19009KT 1300 R01/P2000N R19/P2000N BR OVC002 M00/M01 Q1005=
201202162220 METAR ESMX 162220Z 19009KT 1400 R01/P2000N R19/P2000N BR OVC002 M01/M01 Q1005=
201202162150 METAR ESMX 162150Z 18009KT 1300 R01/P2000N R19/P2000N BR OVC002 M01/M01 Q1006=
201202162120 METAR ESMX 162120Z 18008KT 1600 BR OVC002 M01/M02 Q1006=
201202162050 METAR ESMX 162050Z 18008KT 6000 BR OVC002 M02/M02 Q1006=
201202162020 METAR ESMX 162020Z 17008KT 6000 FZDZ BKN002 OVC003 M02/M02 Q1007=
201202161950 METAR ESMX 161950Z 18009KT 1800 FZRADZ BKN002 OVC003 M02/M03 Q1007=
201202161920 METAR COR ESMX 161920Z 17008KT 3000 FZRA BKN003 M02/M03 Q1007=
201202161850 METAR ESMX 161850Z 17008KT 4600 BR OVC004 M03/M03 Q1008=
201202161820 METAR ESMX 161820Z 18009KT 5000 SG OVC005 M03/M04 Q1009=
201202161750 METAR ESMX 161750Z 18010KT 4900 SG SCT007 BKN009 OVC011 M03/M04 Q1009=
201202161720 METAR ESMX 161720Z 17010KT 3400 SG FEW006 OVC010 M03/M04 Q1009=
201202161650 METAR ESMX 161650Z 17011KT 140V200 3000 SG FEW009 OVC011 M03/M04 Q1010=
201202161620 METAR ESMX 161620Z 17009KT 9999 FEW009 SCT013 BKN022 M03/M04 Q1010=
201202161550 METAR ESMX 161550Z 18009KT 7000 SG FEW010 SCT027 M02/M04 Q1010=
201202161520 METAR ESMX 161520Z 18009KT 2700 -SN FEW007 BKN028 M02/M05 Q1011=
201202161450 METAR ESMX 161450Z 18009KT 5000 -SN FEW006 BKN035 M02/M05 Q1011=
201202161420 METAR ESMX 161420Z 19009KT 5000 -SN FEW008 BKN020 M02/M06 Q1012=
201202161350 METAR ESMX 161350Z 20006KT 9999 FEW020 SCT040 M02/M08 Q1012=
201202161320 METAR ESMX 161320Z 18007KT 150V210 CAVOK M02/M08 Q1013=
201202161250 METAR ESMX 161250Z 18006KT 9999 FEW038 M02/M08 Q1013=
201202161220 METAR ESMX 161220Z 20006KT 170V230 9999 FEW046 M03/M09 Q1013=
201202161150 METAR ESMX 161150Z 21006KT 9999 FEW037 M03/M09 Q1014=
201202161120 METAR ESMX 161120Z 18005KT CAVOK M03/M09 Q1014=
201202161050 METAR ESMX 161050Z 22005KT CAVOK M04/M09 Q1014=
201202161020 METAR ESMX 161020Z 19004KT CAVOK M05/M10 Q1014=
201202160950 METAR ESMX 160950Z 18002KT CAVOK M06/M10 Q1015=
201202160920 METAR ESMX 160920Z VRB01KT CAVOK M06/M10 Q1015=
201202160850 METAR ESMX 160850Z 19002KT CAVOK M09/M11 Q1015=
201202160820 METAR ESMX 160820Z 19001KT CAVOK M11/M12 Q1015=
201202160750 METAR ESMX 160750Z 26002KT CAVOK M12/M14 Q1015=
201202160720 METAR ESMX 160720Z 28005KT CAVOK M14/M16 Q1015=
201202160650 METAR ESMX 160650Z VRB01KT CAVOK M13/M15 Q1014=
201202160620 METAR ESMX 160620Z VRB01KT CAVOK M14/M15 Q1014=
201202160550 METAR ESMX 160550Z VRB01KT CAVOK M13/M14 Q1014=
201202160520 METAR ESMX 160520Z VRB01KT CAVOK M14/M15 Q1013=
201202160450 METAR ESMX 160450Z 34002KT CAVOK M13/M15 Q1013=
201202160420 METAR ESMX 160420Z AUTO 28002KT 9999NDV NCD M13/M15 Q1013=
201202160350 METAR ESMX 160350Z AUTO 33002KT 9999NDV NCD M10/M12 Q1013=
201202160320 METAR ESMX 160320Z AUTO 35003KT 9999NDV NCD M09/M12 Q1013=
201202160250 METAR ESMX 160250Z AUTO 33003KT 9999NDV NCD M10/M12 Q1013=
201202160220 METAR ESMX 160220Z AUTO 36005KT 9999NDV NCD M09/M12 Q1012=
201202160150 METAR ESMX 160150Z AUTO 35005KT 9999NDV NCD M08/M12 Q1012=
201202160120 METAR ESMX 160120Z AUTO 33009KT 9999NDV NCD M06/M11 Q1011=
201202160050 METAR ESMX 160050Z AUTO 33008KT 9999NDV NCD M06/M11 Q1011=
201202160020 METAR ESMX 160020Z 33007KT CAVOK M06/M11 Q1011=
201202152350 METAR ESMX 152350Z 34007KT 9999 SCT040 M06/M10 Q1010=
201202152320 METAR ESMX 152320Z 33007KT 9999 SCT040 M05/M09 Q1010=
201202152250 METAR ESMX 152250Z 33008KT 9999 BKN041 M04/M09 Q1009=
201202152220 METAR ESMX 152220Z 34010KT 9999 OVC040 M03/M08 Q1009=
201202152150 METAR ESMX 152150Z 33007KT 9999 OVC038 M03/M06 Q1008=
201202152120 METAR ESMX 152120Z 33008KT 9999 OVC038 M03/M07 Q1008=
201202152050 METAR ESMX 152050Z 34010KT 9999 OVC037 M03/M07 Q1007=
201202152020 METAR ESMX 152020Z 36009KT 9999 OVC036 M03/M07 Q1007=
201202151950 METAR ESMX 151950Z 01012KT 9999 FEW025 BKN035 M03/M07 Q1006=
201202151920 METAR ESMX 151920Z 01015KT 9999 FEW025 OVC038 M03/M07 Q1006=
201202151850 METAR ESMX 151850Z 36013KT 330V030 9999 FEW023 OVC035 M02/M06 Q1005=
201202151820 METAR ESMX 151820Z 35011KT 9999 BKN022 OVC030 M02/M06 Q1004=
201202151750 METAR ESMX 151750Z 36014KT 9999 FEW025 OVC029 M02/M06 Q1003=
201202151720 METAR ESMX 151720Z 35011KT 9999 FEW027 SCT031 OVC037 M02/M06 Q1002=
201202151650 METAR ESMX 151650Z 35013KT 9999 FEW025 OVC038 M01/M06 Q1001=
201202151620 METAR ESMX 151620Z 36013KT 9999 FEW025 OVC034 M01/M06 Q1001=
201202151550 METAR ESMX 151550Z 35014KT 9999 BKN022 BKN033 M01/M05 Q1000=
201202151520 METAR ESMX 151520Z 35013KT 9999 FEW022 SCT025 OVC029 M01/M05 Q0999=
201202151450 METAR ESMX 151450Z 34016KT 9999 OVC021 M01/M05 Q0998=
201202151420 METAR ESMX 151420Z 35014KT 300V020 9999 FEW016 OVC019 M01/M04 Q0997=
201202151350 METAR ESMX 151350Z 35012KT 9999 OVC016 M00/M03 Q0996=
201202151320 METAR ESMX 151320Z 34014KT 9999 OVC015 M00/M03 Q0996=
201202151250 METAR ESMX 151250Z 35015KT 320V030 9999 FEW015 BKN018 OVC020 M00/M03 Q0995=
201202151220 METAR ESMX 151220Z 35016KT 9999 FEW015 BKN020 M00/M03 Q0995=
201202151150 METAR ESMX 151150Z 35014KT 9999 FEW015 BKN019 OVC024 M00/M03 Q0994=
201202151120 METAR ESMX 151120Z 36016KT 320V030 9999 BKN016 OVC022 M00/M03 Q0993=
201202151050 METAR ESMX 151050Z 35016KT 9999 BKN016 M00/M03 Q0993=
201202151020 METAR ESMX 151020Z 34017KT 9999 OVC014 M00/M03 Q0992=
201202150950 METAR ESMX 150950Z 34014KT 6000 BR OVC012 M01/M03 Q0992=
201202150920 METAR ESMX 150920Z 34015KT 9999 OVC013 M01/M03 Q0991=
201202150850 METAR ESMX 150850Z 34014KT 9999 OVC012 M01/M03 Q0990=
201202150820 METAR ESMX 150820Z 34015KT 310V010 9999 OVC012 M01/M04 Q0990=
201202150750 METAR ESMX 150750Z 35013KT 9999 OVC013 M02/M04 Q0989=
201202150720 METAR ESMX 150720Z 34015KT 9999 OVC012 M02/M04 Q0988=
201202150650 METAR ESMX 150650Z 34015KT 9999 OVC012 M02/M04 Q0988=
201202150620 METAR ESMX 150620Z 34016KT 9999 BKN011 OVC016 M02/M04 Q0987=
201202150550 METAR ESMX 150550Z 34015G25KT 9999 BKN012 OVC016 M02/M04 Q0987=
201202150520 METAR ESMX 150520Z 34015KT 300V020 9999 OVC013 M02/M04 Q0986=
201202150450 METAR ESMX 150450Z 34014KT 300V010 9999 OVC016 M02/M04 Q0986=
201202150420 METAR ESMX 150420Z AUTO 33013KT 6000NDV SG OVC018/// M02/M05 Q0986=
201202150350 METAR ESMX 150350Z AUTO 33015KT 9999NDV OVC017/// M02/M05 Q0985=
201202150320 METAR ESMX 150320Z AUTO 35021KT 9999NDV FZUP OVC017/// M02/M05 Q0984=
201202150250 METAR ESMX 150250Z AUTO 33014KT 9999NDV FEW018/// BKN020/// M02/M04 Q0984=
201202150220 METAR ESMX 150220Z AUTO 33015KT 9999NDV SG FEW018/// SCT021/// BKN028/// M01/M04 Q0983=
201202150150 METAR ESMX 150150Z AUTO 34018G28KT 6000NDV SG BKN015/// OVC021/// M01/M03 Q0983=
201202150120 METAR ESMX 150120Z AUTO 33014KT 9999NDV FEW018/// BKN021/// OVC028/// M01/M02 Q0983=
201202150050 METAR ESMX 150050Z 34015KT 310V020 9999 FEW014 BKN020 M00/M02 Q0983=
201202150020 METAR ESMX 150020Z 34014KT 290V360 9999 FEW011 SCT016 BKN019 M00/M01 Q0983=
201202142350 METAR ESMX 142350Z 33009KT 270V350 9999 FEW007 BKN009 M01/M01 Q0982=
201202142320 METAR ESMX 142320Z 28004KT 240V310 3300 -SN FEW004 SCT008 BKN011 M01/M01 Q0982=
201202142250 METAR ESMX 142250Z 22004KT 190V270 2300 -SN FEW002 SCT004 BKN006 M01/M02 Q0983=
201202142220 METAR ESMX 142220Z 22006KT 1200 R01/P2000N R19/P2000N SN VV004 M01/M02 Q0983=
201202142150 METAR ESMX 142150Z 21007KT 0800 R01/P2000N R19/P2000N SN VV005 M01/M02 Q0985=
201202142120 METAR ESMX 142120Z 20009KT 0600 R01/1500VP2000D R19/1900D +SN VV003 M01/M02 Q0985=
201202142050 METAR ESMX 142050Z 19010KT 0250 R01/1400VP2000N R19/0400VP2000N +SN VV003 M01/M02 Q0987=
201202142020 METAR ESMX 142020Z 19012KT 0250 R01/P2000D R19/0700VP2000 +SN VV003 M01/M02 Q0988=
201202141950 METAR ESMX 141950Z 19011KT 0550 R01/P2000N R19/P2000N SN FEW002 BKN005 BKN008 M01/M02 Q0989=
201202141920 METAR ESMX 141920Z 20011KT 4300 -SN FEW005 SCT006 BKN007 M01/M02 Q0991=
201202141850 METAR ESMX 141850Z 21010KT 1700 -SN FEW004 SCT006 BKN007 M01/M02 Q0992=
201202141820 METAR ESMX 141820Z 21010KT 2000 -SN OVC005 M01/M02 Q0993=
201202141750 METAR ESMX 141750Z 21009KT 2300 -SN BKN002 OVC004 M01/M01 Q0994=
201202141720 METAR ESMX 141720Z 23008KT 200V260 5000 BR OVC002 M01/M01 Q0996=
201202141650 METAR ESMX 141650Z 23009KT 2600 BR OVC002 M01/M02 Q0997=
201202141620 METAR ESMX 141620Z 22007KT 2400 BR VV002 M01/M02 Q0998=
201202141550 METAR ESMX 141550Z 21007KT 2100 BR VV002 M01/M02 Q0999=
201202141520 METAR ESMX 141520Z 22008KT 2500 BR OVC002 M02/M02 Q1000=
201202141450 METAR ESMX 141450Z 21009KT 4100 BR BKN002 OVC003 M02/M02 Q1000=
201202141420 METAR ESMX 141420Z 22008KT 3900 BR OVC003 M02/M02 Q1002=
201202141350 METAR ESMX 141350Z 21008KT 190V250 8000 BR OVC004 M02/M03 Q1003=
201202141320 METAR ESMX 141320Z 21008KT 9999 BR OVC005 M02/M03 Q1003=
201202141250 METAR ESMX 141250Z 21008KT 3000 -SN OVC006 M02/M03 Q1004=
201202141220 METAR ESMX 141220Z 20007KT 5000 -SN OVC005 M02/M03 Q1005 RESG=
201202141150 METAR ESMX 141150Z 21007KT 7000 -SN OVC006 M02/M03 Q1006=
201202141120 METAR ESMX 141120Z 21007KT 3500 -SN OVC006 M03/M04 Q1006=
201202141050 METAR ESMX 141050Z 22007KT 3200 -SN FEW005 BKN007 BKN010 M03/M04 Q1007=
201202141020 METAR ESMX 141020Z 21010KT 2300 -SN BKN005 BKN008 M03/M04 Q1007=
201202140950 METAR ESMX 140950Z 20008KT 1400 R01/1100VP2000D R19/1200VP2000D -SN FEW002 SCT006 BKN009 M04/M05 Q1008=
201202140920 METAR ESMX 140920Z 20005KT 1200 R01/1500U R19/1400U -SN BKN005 M04/M05 Q1008=
201202140850 METAR ESMX 140850Z 21006KT 170V240 1500 -SN OVC005 M04/M05 Q1009=
201202140820 METAR ESMX 140820Z 21007KT 2200 -SN BKN003 OVC005 M05/M05 Q1009 RESG=
201202140750 METAR ESMX 140750Z 23006KT 3800 SG OVC003 M05/M06 Q1009=
201202140720 METAR ESMX 140720Z 21006KT 3100 -SN OVC003 M06/M06 Q1009=
201202140650 METAR ESMX 140650Z 19005KT 2500 -SN OVC002 M06/M07 Q1009=
201202140620 METAR ESMX 140620Z 22004KT 180V240 2300 -SN OVC002 M06/M07 Q1010 RESG=
201202140550 METAR ESMX 140550Z 19006KT 3000 -SN OVC002 M07/M07 Q1010=
201202140520 METAR ESMX 140520Z 19006KT 5000 -SN FEW004 BKN005 BKN009 M07/M08 Q1010=
201202140450 METAR ESMX 140450Z 19007KT 3200 -SN FEW006 SCT008 M07/M08 Q1010=
201202140420 METAR ESMX 140420Z AUTO 18007KT 5000NDV SG SCT004/// BKN008/// M07/M08 Q1010=
201202140350 METAR ESMX 140350Z AUTO 19007KT 4700NDV IC OVC005/// M06/M07 Q1010 RESG=
201202140320 METAR ESMX 140320Z AUTO 19006KT 8000NDV BR OVC005/// M06/M07 Q1010=
201202140250 METAR ESMX 140250Z AUTO 18005KT 9999NDV BKN005/// OVC007/// M05/M07 Q1010=
201202140220 METAR ESMX 140220Z AUTO VRB05KT 9999NDV FEW007/// SCT043/// BKN069/// M05/M06 Q1011=
201202140150 METAR ESMX 140150Z AUTO 18005KT 9999NDV OVC042/// M05/M07 Q1011=
201202140120 METAR ESMX 140120Z AUTO 22003KT 9999NDV OVC042/// M05/M07 Q1011=
201202140050 METAR ESMX 140050Z AUTO 19005KT 9999NDV BKN041/// M05/M06 Q1011=
201202140020 METAR ESMX 140020Z 17004KT 9999 OVC043 M06/M07 Q1011=
201202132350 METAR ESMX 132350Z 18003KT 9999 SCT047 BKN100 M07/M09 Q1011=
201202132320 METAR ESMX 132320Z 18005KT CAVOK M06/M07 Q1011=
201202132250 METAR ESMX 132250Z 22005KT 9999 OVC046 M06/M07 Q1012=
201202132220 METAR ESMX 132220Z 21005KT 9999 BKN046 M05/M07 Q1012=
201202132150 METAR ESMX 132150Z 19006KT CAVOK M05/M06 Q1012=
201202132120 METAR ESMX 132120Z 19006KT CAVOK M05/M06 Q1012=
201202132050 METAR ESMX 132050Z 21007KT CAVOK M05/M06 Q1012=
201202132020 METAR ESMX 132020Z 22005KT CAVOK M05/M06 Q1012=
201202131950 METAR ESMX 131950Z 20004KT CAVOK M05/M06 Q1012=
201202131920 METAR ESMX 131920Z 22003KT CAVOK M05/M06 Q1012=
201202131850 METAR ESMX 131850Z 19003KT CAVOK M05/M06 Q1012=
201202131820 METAR ESMX 131820Z 17003KT CAVOK M05/M07 Q1012=
201202131750 METAR ESMX 131750Z 18003KT CAVOK M03/M04 Q1012=
201202131720 METAR ESMX 131720Z 17003KT CAVOK M04/M06 Q1012=
201202131650 METAR ESMX 131650Z 20003KT CAVOK M03/M05 Q1012=
201202131620 METAR ESMX 131620Z 18004KT CAVOK M02/M04 Q1012=
201202131550 METAR ESMX 131550Z 17003KT CAVOK M02/M04 Q1013=
201202131520 METAR ESMX 131520Z 20004KT CAVOK M01/M04 Q1013=
201202131450 METAR ESMX 131450Z 22005KT 190V250 CAVOK M01/M05 Q1013=
201202131420 METAR ESMX 131420Z 24005KT CAVOK M01/M05 Q1013=
201202131350 METAR ESMX 131350Z 22005KT CAVOK M01/M05 Q1013=
201202131320 METAR ESMX 131320Z 21004KT 190V250 CAVOK M00/M05 Q1014=
201202131250 METAR ESMX 131250Z 23004KT 190V260 CAVOK M01/M05 Q1014=
201202131220 METAR ESMX 131220Z 23004KT CAVOK M01/M05 Q1014=
201202131150 METAR ESMX 131150Z 24004KT 200V280 CAVOK M01/M04 Q1015=
201202131120 METAR ESMX 131120Z 25005KT CAVOK M03/M04 Q1015=
201202131050 METAR ESMX 131050Z 26005KT CAVOK M04/M05 Q1015=
201202131020 METAR ESMX 131020Z VRB01KT CAVOK M04/M05 Q1015=
201202130950 METAR ESMX 130950Z 17001KT CAVOK M08/M09 Q1016=
201202130920 METAR ESMX 130920Z 12002KT CAVOK M06/M07 Q1016=
201202130850 METAR ESMX 130850Z 00000KT CAVOK M08/M09 Q1016=
201202130820 METAR ESMX 130820Z 15001KT CAVOK M11/M12 Q1016=
201202130750 METAR ESMX 130750Z VRB01KT CAVOK M14/M16 Q1016=
201202130720 METAR ESMX 130720Z 00000KT CAVOK M15/M17 Q1017=
201202130650 METAR ESMX 130650Z 00000KT CAVOK M15/M17 Q1017=
201202130620 METAR ESMX 130620Z 00000KT CAVOK M14/M16 Q1017=
201202130550 METAR ESMX 130550Z VRB02KT CAVOK M13/M15 Q1017=
201202130520 METAR ESMX 130520Z 18002KT CAVOK M14/M16 Q1017=
201202130450 METAR ESMX 130450Z 00000KT CAVOK M14/M16 Q1018=
201202130420 METAR ESMX 130420Z 00000KT CAVOK M12/M13 Q1018=
201202130350 METAR ESMX 130350Z AUTO 27002G24KT 9999NDV NCD M12/M13 Q1018=
201202130320 METAR ESMX 130320Z AUTO VRB01KT 9999NDV NCD M11/M12 Q1018=
201202130250 METAR ESMX 130250Z AUTO VRB01KT 9999NDV NCD M11/M12 Q1018=
201202130220 METAR ESMX 130220Z AUTO 28002KT 9999NDV NCD M14/M15 Q1019=
201202130150 METAR ESMX 130150Z AUTO 18001KT 9999NDV NCD M11/M12 Q1019=
201202130120 METAR ESMX 130120Z AUTO VRB01KT 9999NDV NCD M10/M11 Q1019=
201202130050 METAR ESMX 130050Z 28002KT CAVOK M11/M12 Q1019=
201202130020 METAR ESMX 130020Z 27001KT CAVOK M11/M12 Q1020=
201202122350 METAR ESMX 122350Z 27001KT CAVOK M09/M10 Q1020=
201202122320 METAR ESMX 122320Z VRB01KT 3500 BR NSC M11/M12 Q1020=
201202122250 METAR ESMX 122250Z VRB01KT 7000 BR NSC M10/M11 Q1020=
201202122220 METAR ESMX 122220Z 31001KT 8000 BCFG NSC M10/M11 Q1020=
201202122150 METAR ESMX 122150Z 36001KT 8000 BR NSC M08/M09 Q1020=
201202122120 METAR ESMX 122120Z 33002KT 5000 BR NSC M07/M07 Q1020=
201202122050 METAR ESMX 122050Z 32004KT 5000 BR NSC M07/M08 Q1020=
201202122020 METAR ESMX 122020Z 32003KT 8000 R01/P2000N R19/0800V1200N BCFG NSC M08/M08 Q1020=
201202121950 METAR ESMX 121950Z 33002KT 0800 R01/P2000N R19/0800V1400D FZFG NSC M08/M09 Q1020=
201202121920 METAR ESMX 121920Z 32002KT 0900 R01/P2000N R19/P2000N BCFG NSC M07/M08 Q1020=
201202121850 METAR ESMX 121850Z VRB02KT 0250 R01/P2000N R19/0600V1500 BCFG NSC M07/M08 Q1020=
201202121820 METAR ESMX 121820Z 33001KT 0200 R01/0900V1800D R19/P2000N FZFG NSC M07/M08 Q1020=
201202121750 METAR ESMX 121750Z VRB01KT 9999 BCFG NSC M05/M05 Q1020=
201202121720 METAR ESMX 121720Z 29002KT CAVOK M05/M06 Q1020=
201202121650 METAR ESMX 121650Z 30004KT CAVOK M04/M05 Q1020=
201202121620 METAR ESMX 121620Z 31005KT CAVOK M03/M04 Q1020=
201202121550 METAR ESMX 121550Z 31005KT CAVOK M01/M03 Q1020=
201202121520 METAR ESMX 121520Z 31006KT CAVOK M00/M02 Q1020=
201202121450 METAR ESMX 121450Z 32007KT CAVOK M00/M02 Q1019=
201202121420 METAR ESMX 121420Z 32006KT 9999 FEW011 00/M02 Q1019=
201202121350 METAR ESMX 121350Z 32007KT 9999 BKN010 00/M02 Q1019=
201202121320 METAR ESMX 121320Z 31006KT 280V350 9999 OVC009 00/M01 Q1020=
201202121250 METAR ESMX 121250Z AUTO 33007KT 9999NDV FEW008/// OVC009/// 00/M01 Q1020=
201202121220 METAR ESMX 121220Z AUTO 34008KT 9999NDV OVC008/// M00/M02 Q1020=
201202121150 METAR ESMX 121150Z AUTO 33006KT 290V010 9999NDV FEW007/// BKN009/// M00/M01 Q1020=
201202121120 METAR ESMX 121120Z AUTO 31006KT 9999NDV -FZDZ FEW006/// SCT007/// BKN009/// M00/M01 Q1020=
201202121050 METAR ESMX 121050Z AUTO 32005KT 290V350 4000NDV SG SCT006/// BKN008/// OVC010/// M01/M01 Q1020=
201202121020 METAR ESMX 121020Z AUTO 30006KT 280V340 9999NDV OVC005/// M01/M02 Q1020=
201202120950 METAR ESMX 120950Z AUTO 28005KT 5000NDV -SN FEW008/// OVC013/// M01/M02 Q1020=
201202120920 METAR ESMX 120920Z AUTO 26003KT 230V290 2100NDV -SN OVC005/// M02/M02 Q1020=
201202120850 METAR ESMX 120850Z AUTO 23003KT 6000NDV SG OVC006/// M02/M03 Q1020=
201202120820 METAR ESMX 120820Z AUTO 24004KT 2500NDV -SN SCT007/// BKN009/// BKN011/// M03/M03 Q1020=
201202120750 METAR ESMX 120750Z AUTO 23003KT 1400NDV R01/P2000D R19/1900U -SN SCT003/// OVC005/// M03/M03 Q1020=
201202120720 METAR ESMX 120720Z AUTO 25003KT 3100NDV -SN OVC003/// M03/M04 Q1020=
201202120650 METAR ESMX 120650Z AUTO 23004KT 190V270 7000NDV SG OVC004/// M03/M04 Q1020=
201202120620 METAR ESMX 120620Z AUTO 24006KT 5000NDV -SN FEW006/// OVC007/// M03/M04 Q1021=
201202120550 METAR ESMX 120550Z AUTO 24007KT 3500NDV -SN FEW009/// OVC012/// M04/M04 Q1021=
201202120520 METAR ESMX 120520Z AUTO 23007KT 200V260 3300NDV -SN FEW014/// OVC017/// M04/M05 Q1021=
201202120450 METAR ESMX 120450Z AUTO 23008KT 6000NDV -SN BKN018/// M04/M05 Q1021=
201202120420 METAR ESMX 120420Z AUTO 23008KT 1500NDV -SN FEW002/// SCT005/// BKN007/// M04/M05 Q1022=
201202120350 METAR ESMX 120350Z AUTO 23008KT 1500NDV -SN FEW005/// SCT007/// BKN013/// M04/M05 Q1022=
201202120320 METAR ESMX 120320Z AUTO 21007KT 2000NDV -SN SCT005/// BKN013/// M04/M05 Q1023=
201202120250 METAR ESMX 120250Z AUTO 23007KT 0900NDV R01/P2000N R19/P2000N -SN SCT005/// M04/M05 Q1023=
201202120220 METAR ESMX 120220Z AUTO 23007KT 1000NDV R01/P2000N R19/P2000N -SN BKN005/// BKN009/// M05/M05 Q1024=
201202120150 METAR ESMX 120150Z AUTO 22008KT 3700NDV -SN OVC005/// M05/M06 Q1024=
201202120120 METAR ESMX 120120Z AUTO 22009KT 6000NDV IC OVC005/// M05/M06 Q1025=
201202120050 METAR ESMX 120050Z AUTO 22009KT 3900NDV IC OVC005/// M05/M06 Q1025=
201202120020 METAR ESMX 120020Z AUTO 21008KT 4100NDV IC FEW006/// SCT008/// BKN009/// M05/M06 Q1026=
201202112350 METAR ESMX 112350Z AUTO 21009KT 2200NDV -SN FEW005/// SCT008/// BKN020/// M05/M06 Q1026 RESG=
201202112320 METAR ESMX 112320Z AUTO 21009KT 1400NDV R01/P2000N R19/P2000N SG BKN005/// M05/M06 Q1027=
201202112250 METAR ESMX 112250Z AUTO 22008KT 2000NDV SG FEW005/// BKN007/// OVC010/// M05/M06 Q1027=
201202112220 METAR ESMX 112220Z AUTO 20009KT 3300NDV IC FEW007/// OVC019/// M05/M06 Q1027 RESG=
201202112150 METAR ESMX 112150Z AUTO 21008KT 3200NDV IC OVC022/// M06/M07 Q1028=
201202112120 METAR ESMX 112120Z AUTO 22007KT 4200NDV SG FEW023/// BKN027/// M06/M07 Q1028=
201202112050 METAR ESMX 112050Z AUTO 23007KT 6000NDV SG FEW020/// BKN030/// M06/M07 Q1028=
201202112020 METAR ESMX 112020Z AUTO 24007KT 9999NDV FEW017/// BKN032/// M06/M08 Q1029=
201202111950 METAR ESMX 111950Z AUTO 24006KT 8000NDV BR FEW019/// SCT021/// BKN032/// M06/M08 Q1029=
201202111920 METAR ESMX 111920Z AUTO 23006KT 9999NDV FEW019/// SCT023/// OVC031/// M06/M08 Q1029=
201202111850 METAR ESMX 111850Z AUTO 22008KT 9999NDV FEW021/// SCT029/// OVC034/// M06/M08 Q1030=
201202111820 METAR ESMX 111820Z AUTO 22007KT 9999NDV FEW010/// OVC028/// M06/M08 Q1030=
201202111750 METAR ESMX 111750Z AUTO 22006KT 9999NDV OVC011/// M06/M08 Q1031=
201202111720 METAR ESMX 111720Z AUTO 23006KT 9999NDV BKN012/// OVC030/// M06/M08 Q1031=
201202111650 METAR ESMX 111650Z AUTO 21006KT 9999NDV SCT029/// BKN037/// M06/M08 Q1031=
201202111620 METAR ESMX 111620Z AUTO 22005KT 9999NDV BKN013/// BKN041/// M06/M09 Q1032=
201202111550 METAR ESMX 111550Z AUTO 23005KT 9999NDV SCT013/// BKN094/// M06/M09 Q1032=
201202111520 METAR ESMX 111520Z AUTO 22007KT 9999NDV BKN091/// M06/M09 Q1032=
201202111450 METAR ESMX 111450Z 22007KT CAVOK M06/M09 Q1032=
201202111420 METAR ESMX 111420Z 22007KT 180V240 9999 FEW014 BKN092 M06/M09 Q1032=
201202111350 METAR ESMX 111350Z 23006KT 190V260 9999 FEW014 BKN087 BKN110 M06/M09 Q1033=
201202111320 METAR ESMX 111320Z 25007KT 220V280 9999 BKN015 M06/M09 Q1033=
201202111250 METAR ESMX 111250Z 22006KT 170V260 9999 OVC015 M06/M09 Q1034=
201202111220 METAR ESMX 111220Z 25007KT 220V290 9999 BKN015 M06/M10 Q1034=
201202111150 METAR ESMX 111150Z 23008KT 9999 SCT014 M07/M10 Q1034=
201202111120 METAR ESMX 111120Z 26006KT 220V300 9999 FEW009 BKN011 M07/M10 Q1035=
201202111050 METAR ESMX 111050Z 26007KT 230V290 9999 FEW009 BKN010 M07/M10 Q1035=
201202111020 METAR ESMX 111020Z 26006KT 230V290 9999 BKN010 M08/M10 Q1035=
201202110950 METAR ESMX 110950Z 27005KT 230V300 9999 BKN010 M09/M10 Q1036=
201202110920 METAR ESMX 110920Z 28002KT 9999 OVC010 M10/M11 Q1036=
201202110850 METAR ESMX 110850Z 28003KT 240V320 9999 OVC009 M10/M11 Q1036=
201202110820 METAR ESMX 110820Z AUTO 29003KT 9999NDV SCT009/// M11/M12 Q1036=
201202110750 METAR ESMX 110750Z AUTO 28002KT 9999NDV NCD M13/M15 Q1036=
201202110720 METAR ESMX 110720Z AUTO VRB02KT 9999NDV NCD M15/M16 Q1036=
201202110650 METAR ESMX 110650Z AUTO 22002KT 9999NDV NCD M15/M16 Q1036=
201202110620 METAR ESMX 110620Z AUTO 00000KT 9999NDV NCD M16/M17 Q1036=
201202110550 METAR ESMX 110550Z AUTO 00000KT 9999NDV NCD M15/M16 Q1037=
201202110520 METAR ESMX 110520Z AUTO VRB01KT 9999NDV NCD M14/M16 Q1037=
201202110450 METAR ESMX 110450Z AUTO 24002KT 9999NDV NCD M14/M15 Q1037=
201202110420 METAR ESMX 110420Z AUTO 23002KT 9999NDV NCD M14/M15 Q1037=
201202110350 METAR ESMX 110350Z AUTO 18002KT 9999NDV NCD M13/M15 Q1038=
201202110320 METAR ESMX 110320Z AUTO VRB01KT 9999NDV NCD M14/M15 Q1038=
201202110250 METAR ESMX 110250Z AUTO 25001KT 9999NDV NCD M13/M15 Q1038=
201202110220 METAR ESMX 110220Z AUTO 24002KT 9999NDV NCD M13/M15 Q1038=
201202110150 METAR ESMX 110150Z AUTO 16001KT 9999NDV NCD M13/M14 Q1038=
201202110120 METAR ESMX 110120Z AUTO 17001KT 9999NDV NCD M13/M14 Q1039=
201202110050 METAR ESMX 110050Z AUTO 17001KT 9999NDV NCD M12/M14 Q1039=
201202110020 METAR ESMX 110020Z AUTO 19002KT 9999NDV NCD M12/M14 Q1039=
201202102350 METAR ESMX 102350Z AUTO 17002KT 9999NDV NCD M12/M13 Q1039=
201202102320 METAR ESMX 102320Z AUTO VRB01KT 9999NDV NCD M11/M12 Q1040=
201202102250 METAR ESMX 102250Z AUTO VRB01KT 9999NDV NCD M11/M13 Q1040=
201202102220 METAR ESMX 102220Z AUTO 23002KT 9999NDV FEW021/// M10/M11 Q1040=
201202102150 METAR ESMX 102150Z AUTO 22002KT 9999NDV BKN021/// M08/M11 Q1040=
201202102120 METAR ESMX 102120Z AUTO VRB02KT 9999NDV BKN021/// M08/M11 Q1040=
201202102050 METAR ESMX 102050Z AUTO VRB01KT 9999NDV OVC021/// M07/M11 Q1040=
201202102020 METAR ESMX 102020Z AUTO 26002KT 9999NDV OVC021/// M06/M10 Q1041=
201202101950 METAR ESMX 101950Z 28002KT 9999 OVC022 M06/M10 Q1041=
201202101920 METAR ESMX 101920Z VRB02KT 9999 OVC022 M06/M10 Q1041=
201202101850 METAR ESMX 101850Z 28003KT 240V320 9999 OVC021 M06/M10 Q1041=
201202101820 METAR ESMX 101820Z VRB02KT 9999 OVC021 M06/M09 Q1041=
201202101750 METAR ESMX 101750Z VRB02KT 9999 OVC022 M05/M10 Q1041=
201202101720 METAR ESMX 101720Z VRB02KT 9999 OVC022 M05/M10 Q1041=
201202101650 METAR ESMX 101650Z 13003KT 100V160 9999 OVC022 M05/M09 Q1041=
201202101620 METAR ESMX 101620Z VRB02KT 9999 BKN022 M05/M09 Q1042=
201202101550 METAR ESMX 101550Z VRB01KT 9999 OVC022 M05/M10 Q1042=
201202101520 METAR ESMX 101520Z VRB01KT 9999 OVC022 M05/M09 Q1042=
201202101450 METAR ESMX 101450Z VRB02KT 9999 BKN022 M04/M09 Q1042=
201202101420 METAR ESMX 101420Z VRB02KT 9999 OVC022 M04/M09 Q1042=
201202101350 METAR ESMX 101350Z VRB02KT 9999 BKN022 M04/M09 Q1043=
201202101320 METAR ESMX 101320Z VRB02KT 9999 OVC023 M04/M09 Q1043=
201202101250 METAR ESMX 101250Z 34002KT 9999 FEW017 BKN026 M04/M09 Q1043=
201202101220 METAR ESMX 101220Z 36003KT 320V030 9999 FEW020 BKN025 M05/M08 Q1043=
201202101150 METAR ESMX 101150Z 35003KT 9999 FEW021 OVC027 M05/M08 Q1044=
201202101120 METAR ESMX 101120Z 34003KT 9999 -SN FEW016 OVC026 M05/M07 Q1044=
201202101050 METAR ESMX 101050Z VRB02KT 4900 -SN FEW016 BKN026 M05/M08 Q1044=
201202101020 METAR ESMX 101020Z VRB02KT 9000 -SN FEW019 OVC025 M06/M07 Q1044=
201202100950 METAR ESMX 100950Z 35002KT 9999 -SN FEW020 OVC025 M07/M08 Q1044=
201202100920 METAR ESMX 100920Z 35003KT 9999 -SN FEW014 OVC021 M07/M08 Q1044=
201202100850 METAR ESMX 100850Z VRB01KT 9999 -SN OVC022 M07/M08 Q1044=
201202100820 METAR ESMX 100820Z VRB01KT 9999 OVC022 M08/M09 Q1043=
201202100750 METAR ESMX 100750Z 00000KT 9999 OVC023 M09/M10 Q1044=
201202100720 METAR ESMX 100720Z VRB01KT 9999 OVC024 M10/M11 Q1044=
201202100650 METAR ESMX 100650Z 00000KT 9999 OVC024 M10/M11 Q1044=
201202100620 METAR ESMX 100620Z VRB01KT 9999 OVC024 M11/M12 Q1044=
201202100550 METAR ESMX 100550Z VRB01KT 9999 OVC024 M12/M13 Q1044=
201202100520 METAR ESMX 100520Z 27001KT 9999 OVC024 M12/M13 Q1043=
201202100450 METAR ESMX 100450Z 00000KT 9999 BCFG FEW021 BKN027 M12/M13 Q1044=
201202100420 METAR ESMX 100420Z AUTO 00000KT 0300NDV R01/P2000 R19/1100VP2000D=
201202100350 METAR ESMX 100350Z AUTO 34001KT 5000NDV BR FEW014/// BKN027/// M09/M10 Q1044=
201202100320 METAR ESMX 100320Z AUTO 32001KT 3800NDV -SN FEW016/// BKN024/// M09/M10 Q1044=
201202100250 METAR ESMX 100250Z AUTO VRB02KT 6000NDV -SN FEW021/// OVC026/// M08/M09 Q1044=
201202100220 METAR ESMX 100220Z AUTO 01001KT 7000NDV -SN FEW017/// BKN026/// M07/M09 Q1044=
201202100150 METAR ESMX 100150Z AUTO VRB02KT 6000NDV -SN OVC020/// M07/M08 Q1044=
201202100120 METAR ESMX 100120Z AUTO 02002KT 9000NDV -SN FEW015/// OVC022/// M06/M08 Q1044=
201202100050 METAR ESMX 100050Z AUTO 08003KT 040V120 7000NDV -SN FEW017/// SCT022/// BKN025/// M06/M08 Q1044=
201202100020 METAR ESMX 100020Z VRB02KT 9999 -SN FEW015 BKN025 M06/M08 Q1044=
201202092350 METAR ESMX 092350Z 03003KT 9999 -SN OVC020 M06/M08 Q1044=
201202092320 METAR ESMX 092320Z 05003KT 020V090 8000 -SN FEW018 BKN022 M06/M08 Q1044=
201202092250 METAR ESMX 092250Z 02004KT 340V060 7000 -SN OVC021 M06/M08 Q1044=
201202092220 METAR ESMX 092220Z 01003KT 9999 -SN FEW020 OVC024 M06/M08 Q1044=
201202092150 METAR ESMX 092150Z 03005KT 9999 -SN OVC024 M06/M08 Q1044=
201202092120 METAR ESMX 092120Z 01006KT 9999 -SN OVC024 M06/M09 Q1044=
201202092050 METAR ESMX 092050Z 03006KT 350V060 9999 -SN OVC025 M05/M09 Q1044=
201202092020 METAR ESMX 092020Z 02005KT 9999 -SN OVC024 M05/M09 Q1044=
201202091950 METAR ESMX 091950Z 04006KT 9999 -SN OVC023 M05/M09 Q1044=
201202091920 METAR ESMX 091920Z 05006KT 020V090 9999 -SN OVC023 M05/M09 Q1044=
201202091850 METAR ESMX 091850Z 05007KT 010V080 9999 -SN OVC023 M05/M10 Q1043=
201202091820 METAR ESMX 091820Z 05010KT 010V100 9999 OVC023 M05/M10 Q1043=
201202091750 METAR ESMX 091750Z 05009KT 9999 OVC020 M05/M10 Q1043=
201202091720 METAR ESMX 091720Z 03008KT 340V070 9999 FEW015 OVC025 M05/M09 Q1043=
201202091650 METAR ESMX 091650Z 05007KT 350V090 9999 FEW020 BKN025 M05/M09 Q1043=
201202091620 METAR ESMX 091620Z 04006KT 010V080 9999 SCT015 BKN025 M05/M08 Q1043=
201202091550 METAR ESMX 091550Z 05008KT 010V090 9999 SCT020 BKN032 M05/M09 Q1043=
201202091520 METAR ESMX 091520Z 04009KT 020V080 9999 -SN SCT020 BKN027 M04/M08 Q1042=
201202091450 METAR ESMX 091450Z 02006KT 350V060 9999 SG OVC019 M04/M08 Q1042=
201202091420 METAR ESMX 091420Z 06006KT 020V110 9999 FEW021 SCT024 BKN029 M03/M08 Q1042=
201202091350 METAR ESMX 091350Z 04008KT 020V100 9999 FEW019 SCT022 OVC026 M03/M08 Q1042=
201202091320 METAR ESMX 091320Z 05008KT 020V080 9999 FEW020 BKN024 BKN029 M03/M08 Q1042=
201202091250 METAR ESMX 091250Z 06013KT 9999 BKN019 OVC027 M03/M07 Q1042=
201202091220 METAR ESMX 091220Z 06008KT 010V100 9999 FEW018 OVC022 M03/M08 Q1042=
201202091150 METAR ESMX 091150Z 06007KT 010V110 9999 -SN OVC020 M04/M08 Q1042=
201202091120 METAR ESMX 091120Z 07009KT 020V140 9999 FEW020 OVC025 M03/M08 Q1042=
201202091050 METAR ESMX 091050Z 07009KT 020V130 9999 -SN FEW021 BKN025 M04/M08 Q1042=
201202091020 METAR ESMX 091020Z 07008KT 030V130 9999 -SN FEW016 BKN020 M04/M06 Q1041=
201202090950 METAR ESMX 090950Z 07007KT 030V120 9000 -SN FEW016 SCT019 BKN024 M04/M06 Q1041=
201202090920 METAR ESMX 090920Z 06007KT 020V110 9000 -SN FEW018 SCT023 BKN031 M04/M06 Q1041=
201202090850 METAR ESMX 090850Z 06008KT 020V120 9999 -SN FEW019 SCT027 BKN030 M04/M06 Q1041=
201202090820 METAR ESMX 090820Z 05007KT 020V120 9999 -SN FEW011 SCT021 BKN030 M05/M06 Q1040=
201202090750 METAR ESMX 090750Z 05007KT 340V080 9999 -SN FEW014 SCT022 BKN029 M05/M07 Q1040=
201202090720 METAR ESMX 090720Z 05008KT 020V090 9999 -SN FEW024 BKN029 M05/M07 Q1040=
201202090650 METAR ESMX 090650Z 05008KT 010V080 8000 -SN FEW017 BKN035 M05/M06 Q1039=
201202090620 METAR ESMX 090620Z 06010G20KT 010V100 9999 -SN FEW006 BKN036 M05/M06 Q1038=
201202090550 METAR ESMX 090550Z 04010KT 3900 -SN FEW007 SCT026 BKN037 M05/M06 Q1038=
201202090520 METAR ESMX 090520Z 04010KT 2900 -SN FEW006 SCT019 BKN034 M05/M07 Q1038=
201202090450 METAR ESMX 090450Z 04012KT 3900 -SN FEW008 BKN027 M06/M07 Q1037=
201202090420 METAR ESMX 090420Z AUTO 02011KT 2900NDV -SN FEW005/// SCT010/// BKN018/// M06/M08 Q1036=
201202090350 METAR ESMX 090350Z AUTO 03012KT 0450NDV R01/P2000D R19/1900 SN VV005 M07/M08 Q1036=
201202090320 METAR ESMX 090320Z AUTO 01013KT 1100NDV R01/P2000N R19/P2000N -SN SCT005/// BKN008/// BKN017/// M07/M09 Q1036=
201202090250 METAR ESMX 090250Z AUTO 01014KT 1700NDV -SN FEW005/// SCT008/// BKN028/// M08/M10 Q1035=
201202090220 METAR ESMX 090220Z AUTO 36015KT 9999NDV -SN FEW019/// SCT028/// BKN032/// M08/M11 Q1035=
201202090150 METAR ESMX 090150Z AUTO 02014G24KT 360V060 9999NDV FEW020/// SCT037/// M08/M11 Q1036=
201202090120 METAR ESMX 090120Z AUTO 01013KT 9999NDV FEW021/// SCT027/// M08/M11 Q1036=
201202090050 METAR ESMX 090050Z 02012KT 340V040 CAVOK M07/M11 Q1036=
201202090020 METAR ESMX 090020Z 02013KT 9999 FEW024 M07/M11 Q1036=
201202082350 METAR ESMX 082350Z 02012KT 350V050 9999 FEW022 M06/M10 Q1036=
201202082320 METAR ESMX 082320Z 02014KT 350V050 9999 FEW019 M06/M11 Q1035=
201202082250 METAR ESMX 082250Z 04014KT 360V070 9999 FEW022 M05/M10 Q1035=
201202082220 METAR ESMX 082220Z 04016KT 010V080 9999 FEW023 SCT027 M04/M09 Q1035=
201202082150 METAR ESMX 082150Z 01009KT 9999 -SN FEW015 SCT023 BKN027 M03/M05 Q1035=
201202082120 METAR ESMX 082120Z 35010KT 6000 -SN FEW011 SCT015 BKN017 M03/M04 Q1034=
201202082050 METAR ESMX 082050Z 33007KT 9999 -SN FEW008 BKN010 OVC016 M03/M05 Q1035 RESG=
201202082020 METAR ESMX 082020Z 34007KT 9999 OVC007 M04/M05 Q1035=
201202081950 METAR ESMX 081950Z 35009KT 9999 OVC007 M04/M05 Q1035=
201202081920 METAR ESMX 081920Z 33008KT 9999 OVC007 M04/M05 Q1035=
201202081850 METAR ESMX 081850Z 34009KT 9999 OVC007 M04/M06 Q1035=
201202081820 METAR ESMX 081820Z 34011KT 9999 OVC008 M04/M06 Q1036=
201202081750 METAR ESMX 081750Z 33011KT 290V350 9999 OVC008 M04/M06 Q1036=
201202081720 METAR ESMX 081720Z 33008KT 290V350 9999 OVC008 M04/M05 Q1036=
201202081650 METAR ESMX 081650Z 30009KT 9999 OVC008 M04/M06 Q1036=
201202081620 METAR ESMX 081620Z 31008KT 9999 OVC009 M04/M06 Q1036=
201202081550 METAR ESMX 081550Z 31008KT 9999 OVC010 M04/M06 Q1037=
201202081520 METAR ESMX 081520Z 30008KT 260V340 9999 OVC009 M04/M06 Q1037=
201202081450 METAR ESMX 081450Z 31008KT 9999 OVC008 M04/M06 Q1038=
201202081420 METAR ESMX 081420Z 31007KT 280V340 9999 OVC008 M04/M06 Q1038=
201202081350 METAR ESMX 081350Z 31007KT 290V350 9999 OVC009 M04/M06 Q1039=
201202081320 METAR ESMX 081320Z 31008KT 270V340 9999 OVC011 M04/M07 Q1039=
201202081250 METAR ESMX 081250Z 30008KT 270V340 9999 OVC014 M04/M07 Q1040=
201202081220 METAR ESMX 081220Z 34007KT 300V020 9999 OVC014 M04/M07 Q1040=
201202081150 METAR ESMX 081150Z 32007KT 290V010 9999 OVC015 M04/M07 Q1041=
201202081120 METAR ESMX 081120Z 30006KT 270V330 9999 OVC014 M04/M07 Q1041=
201202081050 METAR ESMX 081050Z 30006KT 9999 OVC014 M03/M06 Q1041=
201202081020 METAR ESMX 081020Z 33005KT 290V010 9999 OVC013 M04/M07 Q1042=
201202080950 METAR ESMX 080950Z 32006KT 9999 OVC012 M04/M06 Q1042=
201202080920 METAR ESMX 080920Z 30005KT 270V340 9999 OVC012 M04/M06 Q1042=
201202080850 METAR ESMX 080850Z 31003KT 9999 OVC013 M04/M06 Q1043=
201202080820 METAR ESMX 080820Z 31004KT 270V350 9999 OVC012 M04/M06 Q1043=
201202080750 METAR ESMX 080750Z VRB02KT 9999 OVC014 M04/M06 Q1043=
201202080720 METAR ESMX 080720Z 01004KT 320V050 9999 FEW010 OVC014 M04/M06 Q1043=
201202080650 METAR ESMX 080650Z 36008KT 330V030 9999 FEW009 OVC011 M04/M06 Q1044=
201202080620 METAR ESMX 080620Z 36006KT 9999 OVC012 M04/M05 Q1044=
201202080550 METAR ESMX 080550Z 36005KT 330V030 9999 OVC014 M04/M05 Q1044=
201202080520 METAR ESMX 080520Z 01005KT 7000 BR BKN006 OVC016 M04/M05 Q1044=
201202080450 METAR ESMX 080450Z 35005KT 7000 BR BKN005 OVC018 M04/M05 Q1044=
201202080420 METAR ESMX 080420Z AUTO 35005KT 6000NDV BR OVC005/// M04/M05 Q1045=
201202080350 METAR ESMX 080350Z AUTO 36004KT 5000NDV BR OVC005/// M04/M05 Q1045=
201202080320 METAR ESMX 080320Z AUTO 36004KT 5000NDV BR OVC004/// M04/M05 Q1045=
201202080250 METAR ESMX 080250Z AUTO 34004KT 4600NDV BR OVC003/// M04/M05 Q1045=
201202080220 METAR ESMX 080220Z AUTO 33005KT 4000NDV BR OVC003/// M04/M05 Q1045=
201202080150 METAR ESMX 080150Z AUTO 33003KT 3700NDV BR OVC003/// M04/M05 Q1045=
201202080120 METAR ESMX 080120Z AUTO 34002KT 3200NDV BR OVC002/// M04/M05 Q1046=
201202080050 METAR ESMX 080050Z AUTO 33003KT 2500NDV BR BKN002/// OVC004/// M04/M05 Q1046=
201202080020 METAR ESMX 080020Z 34003KT 3200 -SG BR OVC002 M05/M05 Q1046=
201202072350 METAR ESMX 072350Z 34004KT 3500 -SG BR FEW003 OVC005 M05/M05 Q1046=
201202072320 METAR ESMX 072320Z 33003KT 3600 -SG BR OVC004 M05/M06 Q1046=
201202072250 METAR ESMX 072250Z 34003KT 5000 -SG BR OVC006 M05/M06 Q1046=
201202072220 METAR ESMX 072220Z 35003KT 6000 BR OVC006 M05/M06 Q1046=
201202072150 METAR ESMX 072150Z 35004KT 7000 BR OVC007 M05/M06 Q1046=
201202072120 METAR ESMX 072120Z 35004KT 9000 BR OVC008 M05/M07 Q1046=
201202072050 METAR ESMX 072050Z 33004KT 9999 OVC009 M05/M07 Q1046=
201202072020 METAR ESMX 072020Z 34005KT 9999 OVC010 M05/M08 Q1046=
201202071950 METAR ESMX 071950Z 34005KT 9999 OVC011 M05/M08 Q1046=
201202071920 METAR ESMX 071920Z 35002KT 9999 OVC012 M06/M09 Q1046=
201202071850 METAR ESMX 071850Z 31001KT 9999 OVC011 M06/M09 Q1046=
201202071820 METAR ESMX 071820Z VRB01KT 9999 OVC011 M07/M10 Q1046=
201202071750 METAR ESMX 071750Z 28001KT 9999 OVC011 M07/M10 Q1046=
201202071720 METAR ESMX 071720Z VRB01KT 9999 BKN012 M08/M10 Q1046=
201202071650 METAR ESMX 071650Z 00000KT 9999 BKN015 M08/M12 Q1046=
201202071620 METAR ESMX 071620Z VRB01KT 9999 BKN020 M08/M12 Q1046=
201202071550 METAR ESMX 071550Z 33003KT CAVOK M07/M12 Q1045=
201202071520 METAR ESMX 071520Z 34004KT CAVOK M06/M12 Q1046=
201202071450 METAR ESMX 071450Z 36005KT CAVOK M05/M12 Q1046=
201202071420 METAR ESMX 071420Z 01005KT CAVOK M05/M11 Q1045=
201202071350 METAR ESMX 071350Z 35003KT CAVOK M05/M12 Q1045=
201202071320 METAR ESMX 071320Z 01004KT CAVOK M05/M12 Q1045=
201202071250 METAR ESMX 071250Z 01004KT CAVOK M05/M12 Q1045=
201202071220 METAR ESMX 071220Z 01003KT 340V040 CAVOK M05/M12 Q1045=
201202071150 METAR ESMX 071150Z 01003KT CAVOK M06/M12 Q1046=
201202071120 METAR ESMX 071120Z 36004KT CAVOK M08/M12 Q1045=
201202071050 METAR ESMX 071050Z 36003KT CAVOK M09/M13 Q1046=
201202071020 METAR ESMX 071020Z 36004KT CAVOK M11/M13 Q1045=
201202070950 METAR ESMX 070950Z 35003KT CAVOK M12/M14 Q1045=
201202070920 METAR ESMX 070920Z 36002KT CAVOK M13/M15 Q1045=
201202070850 METAR ESMX 070850Z 36001KT CAVOK M15/M17 Q1045=
201202070820 METAR ESMX 070820Z 00000KT CAVOK M17/M19 Q1044=
201202070750 METAR ESMX 070750Z 01001KT CAVOK M19/M21 Q1044=
201202070720 METAR ESMX 070720Z 01001KT CAVOK M20/M22 Q1044=
201202070650 METAR ESMX 070650Z 02001KT CAVOK M19/M21 Q1044=
201202070620 METAR ESMX 070620Z 01001KT CAVOK M19/M20 Q1044=
201202070550 METAR ESMX 070550Z 01001KT CAVOK M19/M21 Q1043=
201202070520 METAR ESMX 070520Z 00000KT CAVOK M19/M21 Q1043=
201202070450 METAR ESMX 070450Z 02001KT CAVOK M19/M21 Q1043=
201202070420 METAR ESMX 070420Z AUTO VRB01KT 9999NDV NCD M20/M22 Q1043=
201202070350 METAR ESMX 070350Z AUTO 36001KT 9999NDV NCD M19/M21 Q1043=
201202070320 METAR ESMX 070320Z AUTO 35001KT 9999NDV NCD M20/M22 Q1043=
201202070250 METAR ESMX 070250Z AUTO 35001KT 9999NDV NCD M19/M21 Q1043=
201202070220 METAR ESMX 070220Z AUTO 01001KT 9999NDV NCD M19/M21 Q1043=
201202070150 METAR ESMX 070150Z AUTO 00000KT 9999NDV NCD M19/M20 Q1043=
201202070120 METAR ESMX 070120Z AUTO 36001KT 9999NDV NCD M19/M21 Q1043=
201202070050 METAR ESMX 070050Z VRB01KT CAVOK M19/M21 Q1042=
201202070020 METAR ESMX 070020Z 02001KT CAVOK M18/M20 Q1042=
201202062350 METAR ESMX 062350Z 00000KT CAVOK M18/M20 Q1042=
201202062320 METAR ESMX 062320Z 00000KT CAVOK M18/M20 Q1042=
201202062250 METAR ESMX 062250Z 01001KT CAVOK M18/M20 Q1042=
201202062220 METAR ESMX 062220Z 35002KT CAVOK M18/M20 Q1042=
201202062150 METAR ESMX 062150Z 36001KT CAVOK M18/M20 Q1042=
201202062120 METAR ESMX 062120Z 36001KT CAVOK M18/M20 Q1042=
201202062050 METAR ESMX 062050Z 36001KT CAVOK M18/M19 Q1042=
201202062020 METAR ESMX 062020Z 01001KT CAVOK M17/M19 Q1042=
201202061950 METAR ESMX 061950Z 00000KT CAVOK M17/M19 Q1041=
201202061920 METAR ESMX 061920Z 00000KT CAVOK M16/M17 Q1041=
201202061850 METAR ESMX 061850Z 00000KT CAVOK M16/M17 Q1041=
201202061820 METAR ESMX 061820Z VRB01KT CAVOK M16/M17 Q1041=
201202061750 METAR ESMX 061750Z 00000KT CAVOK M14/M16 Q1041=
201202061720 METAR ESMX 061720Z 00000KT CAVOK M14/M15 Q1040=
201202061650 METAR ESMX 061650Z 00000KT CAVOK M13/M15 Q1040=
201202061620 METAR ESMX 061620Z 00000KT CAVOK M12/M14 Q1040=
201202061550 METAR ESMX 061550Z 00000KT 9999 FEW025 M11/M14 Q1040=
201202061520 METAR ESMX 061520Z 17002KT 9999 FEW023 M09/M13 Q1040=
201202061450 METAR ESMX 061450Z 17001KT 9999 SCT025 M08/M13 Q1040=
201202061420 METAR ESMX 061420Z 19005KT 9999 FEW026 M07/M13 Q1039=
201202061350 METAR ESMX 061350Z 21004KT 140V230 9999 FEW024 M06/M13 Q1039=
201202061320 METAR ESMX 061320Z 17005KT 110V200 9999 SCT025 M06/M13 Q1039=
201202061250 METAR ESMX 061250Z 16004KT 100V200 9999 SCT025 M06/M13 Q1039=
201202061220 METAR ESMX 061220Z 15003KT 110V200 9999 FEW020 M06/M12 Q1040=
201202061150 METAR ESMX 061150Z 18004KT 130V210 9999 FEW015 M07/M12 Q1040=
201202061120 METAR ESMX 061120Z 18003KT 140V200 9999 FEW015 M07/M12 Q1040=
201202061050 METAR ESMX 061050Z VRB02KT 9999 FEW014 SCT020 M08/M11 Q1040 RESN=
201202061020 METAR ESMX 061020Z 00000KT 9999 FEW015 BKN025 M10/M12 Q1040=
201202060950 METAR ESMX 060950Z 32001KT 9999 FEW023 BKN030 M11/M13 Q1040=
201202060920 METAR ESMX 060920Z 00000KT 9999 FEW020 OVC030 M13/M14 Q1040=
201202060850 METAR ESMX 060850Z 00000KT 9999 FEW020 BKN030 M14/M15 Q1040=
201202060820 METAR ESMX 060820Z VRB01KT 9999 FEW020 OVC030 M15/M17 Q1040=
201202060750 METAR ESMX 060750Z 00000KT 9000 FEW020 BKN030 M16/M18 Q1040=
201202060720 METAR ESMX 060720Z 00000KT 9999 BKN030 M16/M18 Q1040=
201202060650 METAR ESMX 060650Z 00000KT 9999 BKN030 M16/M18 Q1039=
201202060620 METAR ESMX 060620Z VRB01KT 9999 OVC030 M16/M18 Q1039=
201202060550 METAR ESMX 060550Z 00000KT 9999 SCT030 M17/M18 Q1039=
201202060520 METAR ESMX 060520Z 00000KT 9999 BKN030 M16/M18 Q1039=
201202060450 METAR ESMX 060450Z 00000KT 9999 FEW022 SCT030 M16/M18 Q1039=
201202060420 METAR ESMX 060420Z AUTO 00000KT 9999NDV FEW030/// M16/M18 Q1039=
201202060350 METAR ESMX 060350Z AUTO 00000KT 9999NDV SCT029/// M15/M17 Q1039=
201202060320 METAR ESMX 060320Z AUTO 00000KT 9999NDV FEW014/// BKN030/// M15/M16 Q1039=
201202060250 METAR ESMX 060250Z AUTO 00000KT 9999NDV FEW018/// OVC027/// M13/M15 Q1039=
201202060220 METAR ESMX 060220Z AUTO VRB02KT 9999NDV -SN OVC027/// M13/M15 Q1039=
201202060150 METAR ESMX 060150Z AUTO 00000KT 9999NDV OVC027/// M13/M15 Q1039=
201202060120 METAR ESMX 060120Z AUTO 14001KT 9999NDV OVC027/// M13/M14 Q1039=
201202060050 METAR ESMX 060050Z AUTO 15003KT 120V190 9999NDV OVC026/// M12/M13 Q1039=
201202060020 METAR ESMX 060020Z 15002KT 8000 -SN FEW022 BKN028 M14/M16 Q1039=
201202052350 METAR ESMX 052350Z VRB01KT 9999 FEW023 BKN029 M15/M17 Q1039=
201202052320 METAR ESMX 052320Z 15003KT 9999 -SN FEW022 BKN029 M15/M17 Q1039=
201202052250 METAR ESMX 052250Z 13002KT 9000 BR FEW020 BKN029 M16/M18 Q1039=
201202052220 METAR ESMX 052220Z VRB01KT 7000 BR FEW023 SCT030 M16/M18 Q1039=
201202052150 METAR ESMX 052150Z VRB01KT 7000 BR FEW023 SCT029 M16/M18 Q1039=
201202052120 METAR ESMX 052120Z 14002KT 7000 BR FEW021 BKN029 M15/M16 Q1039=
201202052050 METAR ESMX 052050Z VRB02KT 5000 BR FEW023 BKN030 M15/M16 Q1039=
201202052020 METAR ESMX 052020Z VRB01KT 6000 BR FEW030 M15/M16 Q1039=
201202051950 METAR ESMX 051950Z VRB02KT 6000 BR FEW030 M15/M16 Q1039=
201202051920 METAR ESMX 051920Z 15001KT 6000 BR FEW030 M14/M15 Q1039=
201202051850 METAR ESMX 051850Z 17002KT 7000 BR FEW030 M14/M15 Q1039=
201202051820 METAR ESMX 051820Z 18003KT 6000 BR NSC M13/M14 Q1039 RESHSN=
201202051750 METAR ESMX 051750Z VRB02KT 6000 -SHSN FEW012CB M12/M13 Q1039=
201202051720 METAR ESMX 051720Z 22003KT 8000 BR FEW013 SCT020 M12/M13 Q1038=
201202051650 METAR ESMX 051650Z 22004KT 8000 -SHSN FEW010CB SCT020 M11/M12 Q1038=
201202051620 METAR ESMX 051620Z 20004KT 8000 -SHSN FEW012CB SCT020 M11/M12 Q1038=
201202051550 METAR ESMX 051550Z 21004KT 6000 -SHSN FEW010CB SCT020 M10/M11 Q1038=
201202051520 METAR ESMX 051520Z 20007KT 8000 BKN018 M08/M11 Q1037 RESG=
201202051450 METAR ESMX 051450Z 17006KT 140V200 9999 FEW017 BKN022 M07/M11 Q1037=
201202051420 METAR ESMX 051420Z 20010KT 9999 SCT020 M08/M12 Q1037=
201202051350 METAR ESMX 051350Z 17009KT 140V200 9999 SCT023 M07/M12 Q1037=
201202051320 METAR ESMX 051320Z 19011KT 150V220 9999 SCT020 M07/M12 Q1037=
201202051250 METAR ESMX 051250Z AUTO 18011KT 140V210 9999NDV NCD M07/M12 Q1037=
201202051220 METAR ESMX 051220Z AUTO 18011KT 140V210 9999NDV NCD M07/M12 Q1037=
201202051150 METAR ESMX 051150Z AUTO 17010KT 120V200 9999NDV NCD M07/M12 Q1037=
201202051120 METAR ESMX 051120Z AUTO 16007KT 110V190 9999NDV NCD M07/M12 Q1037=
201202051050 METAR ESMX 051050Z AUTO 17008KT 9999NDV NCD M08/M13 Q1037=
201202051020 METAR ESMX 051020Z AUTO 16006KT 130V200 9999NDV NCD M09/M13 Q1037=
201202050950 METAR ESMX 050950Z AUTO 17005KT 9999NDV NCD M10/M13 Q1037=
201202050920 METAR ESMX 050920Z AUTO 17006KT 9999NDV NCD M11/M14 Q1037=
201202050850 METAR ESMX 050850Z AUTO 16004KT 9999NDV NCD M11/M14 Q1037=
201202050820 METAR ESMX 050820Z AUTO 14004KT 080V200 9999NDV NCD M12/M14 Q1037=
201202050750 METAR ESMX 050750Z AUTO 14004KT 110V190 9999NDV NCD M12/M14 Q1037=
201202050720 METAR ESMX 050720Z AUTO 14004KT 100V170 9999NDV NCD M13/M15 Q1037=
201202050650 METAR ESMX 050650Z AUTO 14003KT 110V190 9999NDV NCD M13/M15 Q1037=
201202050620 METAR ESMX 050620Z AUTO 13003KT 100V170 9999NDV FEW045/// M14/M16 Q1037=
201202050550 METAR ESMX 050550Z AUTO 14002G13KT 9999NDV FEW032/// SCT045/// M15/M16 Q1036=
201202050520 METAR ESMX 050520Z AUTO VRB02KT 9999NDV SCT042/// M20/M22 Q1037=
201202050450 METAR ESMX 050450Z AUTO VRB01KT 9999NDV FEW043/// M20/M22 Q1036=
201202050420 METAR ESMX 050420Z AUTO VRB01KT 9999NDV NCD M20/M22 Q1036=
201202050350 METAR ESMX 050350Z AUTO 00000KT 9999NDV NCD M20/M22 Q1036=
201202050320 METAR ESMX 050320Z AUTO VRB01KT 9999NDV NCD M20/M22 Q1036=
201202050250 METAR ESMX 050250Z AUTO 00000KT 9999NDV NCD M20/M22 Q1036=
201202050220 METAR ESMX 050220Z AUTO VRB01KT 9999NDV NCD M20/M22 Q1036=
201202050150 METAR ESMX 050150Z AUTO 00000KT 9999NDV NCD M20/M22 Q1036=
201202050120 METAR ESMX 050120Z AUTO 00000KT 9999NDV NCD M20/M22 Q1036=
201202050050 METAR ESMX 050050Z AUTO 00000KT 9999NDV NCD M19/M21 Q1037=
201202050020 METAR ESMX 050020Z AUTO 00000KT 9999NDV NCD M19/M21 Q1037=
201202042350 METAR ESMX 042350Z AUTO 00000KT 9999NDV NCD M19/M21 Q1037=
201202042320 METAR ESMX 042320Z AUTO 06001KT 9999NDV NCD M19/M21 Q1037=
201202042250 METAR ESMX 042250Z AUTO 01001KT 9999NDV NCD M18/M20 Q1037=
201202042220 METAR ESMX 042220Z AUTO VRB01KT 9999NDV NCD M18/M20 Q1037=
201202042150 METAR ESMX 042150Z AUTO VRB01KT 9999NDV NCD M17/M19 Q1037=
201202042120 METAR ESMX 042120Z AUTO VRB01KT 9999NDV NCD M17/M19 Q1037=
201202042050 METAR ESMX 042050Z AUTO 07002KT 9999NDV NCD M15/M16 Q1037=
201202042020 METAR ESMX 042020Z AUTO 06002KT 9999NDV NCD M15/M16 Q1037=
201202041950 METAR ESMX 041950Z AUTO VRB02KT 9999NDV NCD M14/M15 Q1038=
201202041920 METAR ESMX 041920Z AUTO 04003KT 9999NDV NCD M14/M15 Q1038=
201202041850 METAR ESMX 041850Z AUTO 02002KT 9999NDV FEW018/// M14/M15 Q1038=
201202041820 METAR ESMX 041820Z AUTO 04003KT 9999NDV NCD M13/M15 Q1038=
201202041750 METAR ESMX 041750Z AUTO 04003KT 9999NDV NCD M13/M14 Q1038=
201202041720 METAR ESMX 041720Z AUTO 04004KT 9999NDV NCD M13/M15 Q1038=
201202041650 METAR ESMX 041650Z 04003KT CAVOK M12/M14 Q1038=
201202041620 METAR ESMX 041620Z 03005KT CAVOK M11/M14 Q1038=
201202041550 METAR ESMX 041550Z 04005KT CAVOK M11/M14 Q1038=
201202041520 METAR ESMX 041520Z 03004KT CAVOK M10/M14 Q1038=
201202041450 METAR ESMX 041450Z 04005KT 9999 FEW015 M09/M14 Q1038=
201202041420 METAR ESMX 041420Z 04005KT 9999 FEW015 M09/M14 Q1038=
201202041350 METAR ESMX 041350Z 04006KT 9999 FEW010 M08/M14 Q1038=
201202041320 METAR ESMX 041320Z 04006KT 360V070 9999 FEW015 M08/M14 Q1038=
201202041250 METAR ESMX 041250Z 04006KT 360V070 CAVOK M09/M14 Q1038=
201202041220 METAR ESMX 041220Z 03006KT 350V060 CAVOK M09/M14 Q1039=
201202041150 METAR ESMX 041150Z 03007KT CAVOK M09/M14 Q1039=
201202041120 METAR ESMX 041120Z 36006KT CAVOK M11/M14 Q1039=
201202041050 METAR ESMX 041050Z 35007KT 9999 FEW010 M12/M15 Q1039=
201202041020 METAR ESMX 041020Z 35005KT 9999 FEW010 M13/M16 Q1039=
201202040950 METAR ESMX 040950Z 01005KT 340V040 9999 FEW010 M13/M16 Q1039=
201202040920 METAR ESMX 040920Z 36008KT 9999 FEW010 M13/M16 Q1039=
201202040850 METAR ESMX 040850Z 34006KT 9999 FEW013 SCT030 M14/M17 Q1039=
201202040820 METAR ESMX 040820Z AUTO 01005KT 9999NDV NCD M15/M17 Q1039=
201202040750 METAR ESMX 040750Z AUTO 36005KT 9999NDV NCD M16/M18 Q1039=
201202040720 METAR ESMX 040720Z AUTO 01006KT 9999NDV NCD M15/M17 Q1039=
201202040650 METAR ESMX 040650Z AUTO 33005KT 9999NDV NCD M16/M17 Q1039=
201202040620 METAR ESMX 040620Z AUTO 01004KT 9999NDV FEW020/// M16/M17 Q1038=
201202040550 METAR ESMX 040550Z AUTO 35005KT 9999NDV FEW013/// BKN043/// M15/M17 Q1038=
201202040520 METAR ESMX 040520Z AUTO 01005KT 9999NDV FEW025/// BKN046/// M14/M17 Q1038=
201202040450 METAR ESMX 040450Z AUTO 36006KT 9999NDV OVC045/// M14/M17 Q1038=
201202040420 METAR ESMX 040420Z AUTO 01005KT 320V030 9999NDV FEW022/// OVC044/// M15/M17 Q1038=
201202040350 METAR ESMX 040350Z AUTO 36007KT 9999NDV FEW035/// OVC043/// M15/M17 Q1038=
201202040320 METAR ESMX 040320Z AUTO 36006KT 2500NDV -SN FEW004/// SCT047/// M16/M18 Q1038=
201202040250 METAR ESMX 040250Z AUTO 01006KT 9999NDV NCD M16/M18 Q1038=
201202040220 METAR ESMX 040220Z AUTO 35007KT 9999NDV NCD M16/M18 Q1038=
201202040150 METAR ESMX 040150Z AUTO 35005KT 9999NDV FEW018/// M16/M18 Q1038=
201202040120 METAR ESMX 040120Z AUTO 35007KT 9999NDV FEW020/// M16/M18 Q1038=
201202040050 METAR ESMX 040050Z AUTO 35006KT 9999NDV NCD M16/M18 Q1038=
201202040020 METAR ESMX 040020Z AUTO 02006KT 9999NDV NCD M15/M17 Q1038=
201202032350 METAR ESMX 032350Z AUTO 01005KT 9999NDV NCD M16/M18 Q1038=
201202032320 METAR ESMX 032320Z AUTO 35005KT 320V020 9999NDV NCD M15/M18 Q1038=
201202032250 METAR ESMX 032250Z AUTO 34006KT 9999NDV NCD M16/M18 Q1038=
201202032220 METAR ESMX 032220Z AUTO 35008KT 9999NDV NCD M15/M17 Q1038=
201202032150 METAR ESMX 032150Z AUTO 35008KT 9999NDV NCD M15/M17 Q1038=
201202032120 METAR ESMX 032120Z AUTO 36008KT 9999NDV NCD M15/M17 Q1038=
201202032050 METAR ESMX 032050Z 36007KT CAVOK M14/M17 Q1038=
201202032020 METAR ESMX 032020Z 02007KT CAVOK M14/M16 Q1037=
201202031950 METAR ESMX 031950Z 36008KT CAVOK M14/M16 Q1037=
201202031920 METAR ESMX 031920Z 35008KT CAVOK M14/M16 Q1037=
201202031850 METAR ESMX 031850Z 35007KT CAVOK M14/M16 Q1037=
201202031820 METAR ESMX 031820Z 35007KT CAVOK M13/M16 Q1037=
201202031750 METAR ESMX 031750Z 36007KT CAVOK M13/M15 Q1037=
201202031720 METAR ESMX 031720Z 02007KT 9999 FEW010 M13/M15 Q1037=
201202031650 METAR ESMX 031650Z 36006KT 9999 FEW025 M12/M15 Q1037=
201202031620 METAR ESMX 031620Z 36007KT 9999 FEW010 M12/M15 Q1037=
201202031550 METAR ESMX 031550Z 36007KT 9999 FEW009 SCT013 M11/M15 Q1036=
201202031520 METAR ESMX 031520Z 02007KT 350V060 9999 FEW015 M11/M15 Q1036=
201202031450 METAR ESMX 031450Z 03007KT 350V070 9999 FEW016 SCT020 M10/M15 Q1036=
201202031420 METAR ESMX 031420Z 03007KT 360V070 9999 FEW012 SCT016 M10/M15 Q1036 RESN=
201202031350 METAR ESMX 031350Z 03009KT 350V060 9999 FEW012 SCT016 M10/M15 Q1036=
201202031320 METAR ESMX 031320Z 02009KT 350V060 9999 FEW013 BKN020 M10/M14 Q1035=
201202031220 METAR ESMX 031220Z 01010KT 340V050 9999 FEW013 M10/M14 Q1035=
201202031150 METAR ESMX 031150Z 02008KT 340V080 9999 FEW012 M10/M15 Q1035=
201202031120 METAR ESMX 031120Z 02008KT 350V050 9999 FEW013 M11/M15 Q1035=
201202031050 METAR ESMX 031050Z 01011KT 9999 FEW010 M11/M15 Q1035=
201202030950 METAR ESMX 030950Z 01011KT 9999 FEW013 M12/M15 Q1035=
201202030920 METAR ESMX 030920Z 35011KT CAVOK M13/M16 Q1035=
201202030850 METAR ESMX 030850Z 35011KT 9999 FEW005 M13/M16 Q1034=
201202030820 METAR ESMX 030820Z 35009KT CAVOK M14/M17 Q1034=
201202030750 METAR ESMX 030750Z 34008KT CAVOK M15/M17 Q1034=
201202030720 METAR ESMX 030720Z 34007KT CAVOK M15/M17 Q1034=
201202030650 METAR ESMX 030650Z 33008KT CAVOK M15/M17 Q1034=
201202030620 METAR ESMX 030620Z 34008KT 320V020 CAVOK M15/M17 Q1034=
201202030550 METAR ESMX 030550Z 35008KT CAVOK M15/M17 Q1035=
201202030520 METAR ESMX 030520Z 36009KT CAVOK M15/M17 Q1035=
201202030450 METAR ESMX 030450Z 36008KT CAVOK M15/M17 Q1035=
201202030420 METAR ESMX 030420Z 35008KT CAVOK M14/M17 Q1035=
201202030350 METAR ESMX 030350Z AUTO 36008KT 9999NDV NCD M14/M16 Q1035=
201202030320 METAR ESMX 030320Z AUTO 01009KT 9999NDV NCD M13/M16 Q1035=
201202030250 METAR ESMX 030250Z AUTO 36010KT 9999NDV NCD M13/M15 Q1036=
201202030220 METAR ESMX 030220Z AUTO 34007KT 9999NDV -SN FEW004/// SCT006/// BKN008/// M14/M16 Q1036=
201202030150 METAR ESMX 030150Z AUTO 34007KT 9000NDV -SN SCT005/// BKN009/// M14/M15 Q1036=
201202030120 METAR ESMX 030120Z AUTO 35006KT 9999NDV NCD M14/M15 Q1036=
201202030050 METAR ESMX 030050Z 36005KT CAVOK M13/M15 Q1036=
201202030020 METAR ESMX 030020Z 35006KT 9999 FEW005 M13/M14 Q1036=
201202022350 METAR ESMX 022350Z 02006KT CAVOK M12/M14 Q1036=
201202022320 METAR ESMX 022320Z 01005KT CAVOK M12/M14 Q1036=
201202022250 METAR ESMX 022250Z 01004KT CAVOK M12/M14 Q1035=
201202022220 METAR ESMX 022220Z 03006KT 9999 FEW022 M11/M13 Q1035=
201202022150 METAR ESMX 022150Z 04006KT 5000 -SN FEW005 SCT019 M11/M13 Q1035=
201202022120 METAR ESMX 022120Z 03006KT 350V050 2800 SN SCT005 M11/M13 Q1035=
201202022050 METAR ESMX 022050Z 03005KT 9999 IC FEW023 M11/M13 Q1035=
201202022020 METAR ESMX 022020Z 04006KT 7000 IC BKN022 M11/M13 Q1035=
201202021950 METAR ESMX 021950Z 02007KT 9999 -SN BKN021 OVC047 M11/M14 Q1035=
201202021920 METAR ESMX 021920Z 02007KT 9999 FEW013 BKN023 BKN033 M11/M14 Q1035=
201202021850 METAR ESMX 021850Z 02006KT 9999 FEW012 SCT015 BKN020 M12/M15 Q1035=
201202021820 METAR ESMX 021820Z 01007KT 9999 FEW012 SCT015 M11/M15 Q1035=
201202021750 METAR ESMX 021750Z 02008KT 9999 FEW022 M11/M15 Q1035=
201202021720 METAR ESMX 021720Z 02008KT 9999 FEW023 M11/M15 Q1035=
201202021650 METAR ESMX 021650Z 01008KT 9999 FEW022 M11/M15 Q1035=
201202021620 METAR ESMX 021620Z 36008KT 9999 SCT022 M10/M16 Q1035=
201202021550 METAR ESMX 021550Z 35008KT 9999 FEW028 M10/M15 Q1035=
201202021520 METAR ESMX 021520Z 01009KT CAVOK M10/M15 Q1035=
201202021450 METAR ESMX 021450Z 01008KT CAVOK M09/M15 Q1035=
201202021420 METAR ESMX 021420Z 01009KT CAVOK M09/M15 Q1035=
201202021350 METAR ESMX 021350Z 01008KT CAVOK M09/M14 Q1035=
201202021320 METAR ESMX 021320Z 01009KT CAVOK M09/M13 Q1036=
201202021250 METAR ESMX 021250Z 36008KT CAVOK M09/M13 Q1036=
201202021220 METAR ESMX 021220Z 36007KT CAVOK M09/M14 Q1036=
201202021150 METAR ESMX 021150Z 01008KT CAVOK M09/M14 Q1036=
201202021120 METAR ESMX 021120Z 01010KT CAVOK M09/M14 Q1036=
201202021050 METAR ESMX 021050Z 36009KT CAVOK M10/M14 Q1037=
201202021020 METAR ESMX 021020Z 01010KT CAVOK M10/M13 Q1037=
201202020950 METAR ESMX 020950Z 35009KT CAVOK M10/M13 Q1037=
201202020920 METAR ESMX 020920Z 35009KT CAVOK M11/M13 Q1038=
201202020850 METAR ESMX 020850Z 01007KT CAVOK M11/M13 Q1038=
201202020820 METAR ESMX 020820Z 01008KT 9999 FEW031 M11/M13 Q1038=
201202020750 METAR ESMX 020750Z 01007KT 9999 FEW035 BKN044 M11/M13 Q1038=
201202020720 METAR ESMX 020720Z 35007KT 9999 FEW036 BKN047 M11/M13 Q1038=
201202020650 METAR ESMX 020650Z 34005KT 9999 SCT033 BKN050 M12/M13 Q1038=
201202020620 METAR ESMX 020620Z 36005KT 9999 BKN035 OVC057 M11/M13 Q1038=
201202020550 METAR ESMX 020550Z 35006KT 9999 FEW033 SCT038 BKN047 M11/M12 Q1039=
201202020520 METAR ESMX 020520Z 36005KT 9999 FEW033 BKN037 OVC047 M11/M12 Q1039=
201202020450 METAR ESMX 020450Z 35005KT 9999 FEW028 SCT052 M11/M12 Q1039=
201202020420 METAR ESMX 020420Z AUTO 35006KT 9999NDV FEW018/// M11/M12 Q1039=
201202020350 METAR ESMX 020350Z AUTO 36005KT 9999NDV -SN FEW005/// SCT012/// BKN020/// M10/M11 Q1040=
201202020320 METAR ESMX 020320Z AUTO 33004KT 9999NDV FEW022/// BKN049/// M11/M12 Q1040=
201202020250 METAR ESMX 020250Z AUTO 32003KT 280V340 9999NDV IC FEW010/// SCT012/// BKN045/// M11/M12 Q1040=
201202020220 METAR ESMX 020220Z AUTO VRB02KT 9999NDV FEW011/// M11/M12 Q1040=
201202020150 METAR ESMX 020150Z AUTO VRB01KT 9999NDV -SN FEW009/// BKN012/// M11/M12 Q1041=
201202020120 METAR ESMX 020120Z AUTO 29001KT 2100NDV -SN FEW006/// SCT010/// BKN021/// M11/M12 Q1041=
201202020050 METAR ESMX 020050Z VRB01KT 7000 -SN FEW014 OVC026 M12/M13 Q1041=
201202020020 METAR ESMX 020020Z 35002KT 5000 -SN FEW020 BKN029 M12/M13 Q1041=
201202012350 METAR ESMX 012350Z 03001KT 4700 -SN FEW018 BKN022 OVC041 M12/M14 Q1041=
201202012320 METAR ESMX 012320Z VRB01KT 9999 FEW022 SCT032 M13/M14 Q1042=
201202012250 METAR ESMX 012250Z 35002KT 9999 FEW015 SCT039 M13/M14 Q1042=
201202012220 METAR ESMX 012220Z 00000KT 9000 BR SCT016 M12/M13 Q1042=
201202012150 METAR ESMX 012150Z 32001KT 9999 FEW005 SCT009 M11/M13 Q1042=
201202012120 METAR ESMX 012120Z 06001KT 9000 -SN FEW007 SCT013 BKN028 M10/M11 Q1042=
201202012050 METAR ESMX 012050Z VRB02KT 9999 FEW013 OVC025 M09/M10 Q1043=
201202012020 METAR ESMX 012020Z VRB02KT 9999 SG FEW017 BKN021 M08/M10 Q1043=
201202011950 METAR ESMX 011950Z 04004KT 9999 FEW008 SCT020 M08/M10 Q1043=
201202011920 METAR ESMX 011920Z 02003KT 9999 FEW015 SCT028 BKN035 M08/M10 Q1043=
201202011850 METAR ESMX 011850Z 03004KT 360V080 9999 -SN FEW023 BKN029 M07/M10 Q1043=
201202011820 METAR ESMX 011820Z 03003KT 9999 FEW034 M08/M11 Q1043=
201202011750 METAR ESMX 011750Z 04004KT 020V100 9999 FEW024 SCT032 M07/M10 Q1043=
201202011720 METAR ESMX 011720Z 04005KT 7000 -SN FEW014 SCT021 OVC029 M06/M09 Q1043=
201202011650 METAR ESMX 011650Z 05005KT 010V080 5000 -SN FEW018 SCT027 BKN030 M06/M10 Q1043=
201202011620 METAR ESMX 011620Z 06005KT 030V090 9999 -SN FEW021 OVC030 M06/M11 Q1043=
201202011550 METAR ESMX 011550Z 05008KT 020V080 9999 -SN FEW022 OVC032 M06/M11 Q1043=
201202011520 METAR ESMX 011520Z 04006KT 360V090 9999 -SN FEW021 BKN030 M06/M11 Q1043=
201202011450 METAR ESMX 011450Z 05008KT 360V100 9999 -SN FEW022 SCT027 OVC032 M05/M11 Q1043=
201202011420 METAR ESMX 011420Z 04008KT 9999 -SN FEW025 BKN031 M05/M11 Q1043=
201202011350 METAR ESMX 011350Z 05007KT 020V090 9999 -SN FEW025 BKN031 M05/M11 Q1043=
201202011320 METAR ESMX 011320Z 07007KT 020V120 9999 FEW025 BKN030 M05/M11 Q1043=
201202011250 METAR ESMX 011250Z 07006KT 030V110 9999 BKN027 M05/M11 Q1043=
201202011220 METAR ESMX 011220Z 05006KT 010V110 9999 FEW019 BKN028 M04/M11 Q1043=
