##########################################################
# Query made at 04/19/2024 21:34:37 UTC
# Time interval: from 07/01/2013 12:00  to 07/31/2013 12:59  UTC
##########################################################

##########################################################
# ESMX, Vaxjo (Sweden)
# WMO index: 02641. WIGOS ID: 0-20000-0-02648
# Latitude 56-51N. Longitude 014-50E. Altitude 199 m.
##########################################################

201307311250 METAR ESMX 311250Z AUTO 22005KT 9999NDV FEW056/// 18/13 Q1009=
201307311220 METAR ESMX 311220Z AUTO 24005KT 9999NDV FEW053/// 15/13 Q1009=
201307311150 METAR ESMX 311150Z AUTO 22009KT 190V260 3000NDV -RA FEW021/// SCT050/// 16/13 Q1009=
201307311120 METAR ESMX 311120Z AUTO 24007KT 210V280 9999NDV FEW015/// SCT024/// 19/13 Q1009=
201307311050 METAR ESMX 311050Z AUTO 22004KT 140V270 9999NDV FEW010/// 18/14 Q1009=
201307311020 METAR ESMX 311020Z AUTO VRB02KT 9999NDV FEW010/// SCT014/// BKN018/// 16/13 Q1009=
201307310950 METAR ESMX 310950Z AUTO VRB01KT 9999NDV FEW013/// SCT061/// BKN072/// 14/12 Q1009=
201307310920 METAR ESMX 310920Z AUTO VRB01KT 5000NDV -RA FEW008/// SCT033/// BKN040/// 14/12 Q1009 RESHRA=
201307310850 METAR ESMX 310850Z AUTO 25006KT 200V290 6000NDV +RA FEW005/// SCT007/// BKN010/// 14/12 Q1009=
201307310820 METAR ESMX 310820Z AUTO 20007KT 9999NDV -DZ FEW004/// SCT006/// BKN008/// 15/14 Q1009=
201307310750 METAR ESMX 310750Z AUTO 19010KT 9999NDV -DZ FEW005/// SCT006/// BKN009/// 15/14 Q1009=
201307310720 METAR ESMX 310720Z AUTO 20007KT 9999NDV -RA FEW006/// BKN008/// BKN010/// 15/14 Q1009=
201307310650 METAR ESMX 310650Z AUTO 20007KT 9999NDV -RA BKN006/// BKN009/// 15/14 Q1009=
201307310620 METAR ESMX 310620Z AUTO 19005KT 9999NDV SCT007/// BKN032/// 15/14 Q1009=
201307310550 METAR ESMX 310550Z AUTO 21005KT 9999NDV FEW019/// SCT031/// 15/14 Q1009=
201307310520 METAR ESMX 310520Z AUTO 21006KT 9999NDV FEW040/// SCT085/// 15/14 Q1009=
201307310450 METAR ESMX 310450Z AUTO 20007KT 9999NDV BKN084/// 15/13 Q1009=
201307310420 METAR ESMX 310420Z AUTO 19007KT 9999NDV OVC084/// 14/13 Q1009=
201307310350 METAR ESMX 310350Z AUTO 21006KT 9999NDV FEW087/// 13/13 Q1009=
201307310320 METAR ESMX 310320Z AUTO 20006KT 8000NDV BR NCD 13/12 Q1009=
201307310250 METAR ESMX 310250Z AUTO 20006KT 9999NDV NCD 12/11 Q1009=
201307310220 METAR ESMX 310220Z AUTO 18006KT 9999NDV NCD 13/12 Q1009=
201307310150 METAR ESMX 310150Z AUTO 18006KT 9999NDV NCD 13/12 Q1009=
201307310120 METAR ESMX 310120Z AUTO 20006KT 9999NDV NCD 12/11 Q1009=
201307310050 METAR ESMX 310050Z AUTO 19008KT 9999NDV NCD 13/12 Q1009=
201307310020 METAR ESMX 310020Z AUTO 22009KT 9999NDV NCD 14/12 Q1009=
201307302350 METAR ESMX 302350Z 22006KT 9999 SCT006 14/13 Q1009=
201307302320 METAR ESMX 302320Z 19009KT 9999 SCT006 15/14 Q1009=
201307302250 METAR ESMX 302250Z 22008KT 9999 FEW040 15/14 Q1010=
201307302220 METAR ESMX 302220Z 23007KT CAVOK 14/13 Q1010=
201307302150 METAR ESMX 302150Z 22007KT CAVOK 14/13 Q1010=
201307302120 METAR ESMX 302120Z 20007KT CAVOK 15/13 Q1010=
201307302050 METAR ESMX 302050Z 19007KT CAVOK 15/13 Q1010=
201307302020 METAR ESMX 302020Z 21006KT CAVOK 15/13 Q1010=
201307301950 METAR ESMX 301950Z 21005KT 9999 FEW020 16/14 Q1010=
201307301920 METAR ESMX 301920Z 22005KT 9999 FEW015 17/14 Q1009=
201307301850 METAR ESMX 301850Z 24004KT 9999 FEW018 18/14 Q1009=
201307301820 METAR ESMX 301820Z 24006KT 9999 FEW018 19/15 Q1009=
201307301750 METAR ESMX 301750Z 25006KT 210V270 9999 FEW017 SCT020 BKN025 19/15 Q1009=
201307301720 METAR ESMX 301720Z 22007KT 9999 FEW017 SCT027 19/16 Q1009=
201307301650 METAR ESMX 301650Z 23009KT 9999 FEW020 SCT030 19/15 Q1009=
201307301620 METAR ESMX 301620Z 20009KT 9999 FEW015 SCT035 19/15 Q1009=
201307301550 METAR ESMX 301550Z 22009KT 9999 FEW015 SCT034 19/15 Q1009=
201307301520 METAR ESMX 301520Z 22006KT 9999 FEW015 SCT052 19/16 Q1009=
201307301450 METAR ESMX 301450Z 24006KT 200V270 9999 FEW034 SCT065 20/16 Q1010=
201307301420 METAR ESMX 301420Z 22007KT 9999 FEW048 SCT070 19/16 Q1010=
201307301350 METAR ESMX 301350Z 22006KT 9999 FEW015 BKN060 18/16 Q1010 RERA=
201307301320 METAR ESMX 301320Z AUTO 23003KT 190V250 9999NDV -DZ NCD 16/14 Q1010=
201307301250 METAR ESMX 301250Z AUTO VRB02KT 9999NDV -DZ FEW058/// 16/13 Q1010=
201307301220 METAR ESMX 301220Z AUTO 25003KT 230V290 9999NDV -RA FEW017/// 16/14 Q1010=
201307301150 METAR ESMX 301150Z AUTO 26004KT 9999NDV -RA BKN019/// 16/13 Q1010=
201307301120 METAR ESMX 301120Z AUTO 30005KT 9999NDV -RA FEW024/// SCT039/// 17/13 Q1010=
201307301050 METAR ESMX 301050Z AUTO 31005KT 9999NDV -RA FEW030/// SCT036/// BKN041/// 17/14 Q1010=
201307301020 METAR ESMX 301020Z AUTO 30007KT 9999NDV -RA FEW011/// 17/14 Q1010=
201307300950 METAR ESMX 300950Z AUTO 31005KT 270V340 9999NDV -RA NCD 17/15 Q1010=
201307300920 METAR ESMX 300920Z AUTO 30003KT 260V340 9999NDV -RA FEW087/// 17/16 Q1010=
201307300850 METAR ESMX 300850Z AUTO 31004KT 9999NDV RA NCD 17/15 Q1010=
201307300820 METAR ESMX 300820Z AUTO 27004KT 9999NDV -RA NCD 18/16 Q1009=
201307300750 METAR ESMX 300750Z AUTO 33005KT 9999NDV -RA FEW088/// 18/15 Q1009=
201307300720 METAR ESMX 300720Z AUTO 31005KT 270V340 9999NDV -DZ FEW026/// 18/16 Q1009 REDZ=
201307300650 METAR ESMX 300650Z AUTO 30004KT 9999NDV DZ FEW011/// 18/17 Q1010=
201307300620 METAR ESMX 300620Z AUTO 29004KT 9000NDV -DZ FEW082/// 18/17 Q1010=
201307300550 METAR ESMX 300550Z AUTO 32004KT 280V350 9999NDV -DZ FEW044/// 18/17 Q1010=
201307300520 METAR ESMX 300520Z AUTO 28003KT 7000NDV -RA NCD 18/17 Q1010 REDZ=
201307300450 METAR ESMX 300450Z AUTO VRB02KT 9999NDV DZ FEW080/// 18/17 Q1010=
201307300420 METAR ESMX 300420Z AUTO 31003KT 9999NDV -DZ OVC081/// 18/17 Q1009=
201307300350 METAR ESMX 300350Z AUTO 31004KT 9999NDV SCT007/// OVC079/// 17/16 Q1010=
201307300320 METAR ESMX 300320Z AUTO 29003KT 9999NDV OVC074/// 17/16 Q1009=
201307300250 METAR ESMX 300250Z AUTO VRB02KT 9999NDV OVC073/// 18/17 Q1010=
201307300220 METAR ESMX 300220Z AUTO 28003KT 9999NDV FEW006/// OVC073/// 18/17 Q1010=
201307300150 METAR ESMX 300150Z AUTO 26004KT 9999NDV SCT006/// BKN072/// 18/17 Q1010=
201307300120 METAR ESMX 300120Z AUTO 24003KT 9999NDV FEW045/// SCT059/// OVC072/// 17/16 Q1010=
201307300050 METAR ESMX 300050Z AUTO 33001KT 9999NDV FEW045/// SCT071/// 18/17 Q1011=
201307300020 METAR ESMX 300020Z AUTO 00000KT 9999NDV FEW006/// BKN050/// OVC071/// 18/17 Q1011=
201307292350 METAR ESMX 292350Z AUTO 00000KT 9999NDV FEW005/// BKN066/// 18/17 Q1011=
201307292320 METAR ESMX 292320Z 09003KT 060V130 CAVOK 19/17 Q1011=
201307292250 METAR ESMX 292250Z 08002KT CAVOK 18/17 Q1011=
201307292220 METAR ESMX 292220Z VRB02KT CAVOK 19/17 Q1012 RERA=
201307292150 METAR ESMX 292150Z VRB02KT 9999 SCT025 BKN075 19/17 Q1012=
201307292120 METAR ESMX 292120Z 17003KT CAVOK 19/17 Q1012=
201307292050 METAR ESMX 292050Z 17003KT 140V200 CAVOK 19/17 Q1012=
201307292020 METAR ESMX 292020Z 16005KT CAVOK 20/17 Q1012=
201307291950 METAR ESMX 291950Z 15004KT CAVOK 20/17 Q1012=
201307291920 METAR ESMX 291920Z 16006KT 140V200 9999 FEW037 SCT042 20/17 Q1012=
201307291850 METAR ESMX 291850Z 16006KT 110V180 9999 -DZ FEW016 SCT038 BKN085 20/17 Q1012=
201307291820 METAR ESMX 291820Z 14006KT 110V190 9999 FEW016 SCT031 21/18 Q1012=
201307291750 METAR ESMX 291750Z 12004KT 080V150 9999 SCT031 22/17 Q1012=
201307291720 METAR ESMX 291720Z 09005KT 020V120 9999 FEW030 SCT098 24/16 Q1012=
201307291650 METAR ESMX 291650Z 05004KT 020V140 9999 FEW037 SCT100 25/14 Q1012=
201307291620 METAR ESMX 291620Z 03003KT 350V070 CAVOK 25/14 Q1012=
201307291550 METAR ESMX 291550Z 36003KT CAVOK 24/14 Q1013=
201307291520 METAR ESMX 291520Z 03003KT 360V080 9999 FEW040 BKN090 24/14 Q1013=
201307291450 METAR ESMX 291450Z 07003KT 360V110 9999 FEW040 SCT054 BKN100 25/14 Q1013=
201307291420 METAR ESMX 291420Z 36004KT 330V050 CAVOK 25/14 Q1013=
201307291350 METAR ESMX 291350Z 36005KT 330V040 CAVOK 25/14 Q1013=
201307291320 METAR ESMX 291320Z 35005KT 290V040 CAVOK 25/14 Q1013=
201307291250 METAR ESMX 291250Z VRB04KT CAVOK 25/14 Q1013=
201307291220 METAR ESMX 291220Z 01004KT 300V070 CAVOK 25/13 Q1013=
201307291150 METAR ESMX 291150Z 02004KT 340V070 9999 SCT040 BKN090 24/13 Q1013=
201307291120 METAR ESMX 291120Z 08004KT 030V110 9999 SCT025 BKN090 24/14 Q1013=
201307291050 METAR ESMX 291050Z VRB03KT 9999 SCT025 BKN090 23/13 Q1014=
201307291020 METAR ESMX 291020Z 01004KT 320V050 9999 SCT025 BKN090 23/13 Q1014=
201307290950 METAR ESMX 290950Z 03004KT 340V060 9999 SCT017 BKN080 23/15 Q1014=
201307290920 METAR ESMX 290920Z 31003KT 240V020 9999 FEW020TCU SCT025 BKN080 22/15 Q1014=
201307290850 METAR ESMX 290850Z VRB02KT 9999 FEW017TCU SCT020 BKN080 22/15 Q1015=
201307290820 METAR ESMX 290820Z VRB02KT 9999 FEW012CB BKN017 21/17 Q1015=
201307290750 METAR ESMX 290750Z 35005KT 9999 FEW013TCU BKN018 21/17 Q1014=
201307290720 METAR ESMX 290720Z 35005KT 290V020 9999 SCT009 BKN017 20/17 Q1014=
201307290650 METAR ESMX 290650Z AUTO 34004KT 300V010 9999NDV FEW010/// 19/17 Q1014=
201307290620 METAR ESMX 290620Z AUTO 30005KT 260V330 9999NDV FEW007/// 19/17 Q1014=
201307290550 METAR ESMX 290550Z AUTO 32003KT 290V010 9999NDV NCD 19/17 Q1014=
201307290520 METAR ESMX 290520Z AUTO VRB01KT 9999NDV NCD 18/17 Q1014=
201307290450 METAR ESMX 290450Z AUTO VRB02KT 9999NDV FEW074/// 18/17 Q1014=
201307290420 METAR ESMX 290420Z AUTO 30004KT 9999NDV OVC074/// 18/16 Q1013=
201307290350 METAR ESMX 290350Z AUTO 27004KT 9999NDV FEW079/// 17/16 Q1014=
201307290320 METAR ESMX 290320Z AUTO VRB02KT 9999NDV BKN056/// 17/16 Q1014=
201307290250 METAR ESMX 290250Z AUTO 23004KT 200V260 9999NDV SCT063/// 17/16 Q1014=
201307290220 METAR ESMX 290220Z AUTO VRB02KT 9999NDV SCT097/// BKN110/// 18/16 Q1014=
201307290150 METAR ESMX 290150Z AUTO 27003KT 9999NDV FEW097/// 18/16 Q1014=
201307290120 METAR ESMX 290120Z AUTO 27002KT 9999NDV -RA SCT082/// 18/16 Q1013=
201307290050 METAR ESMX 290050Z AUTO 31003KT 9999NDV BKN084/// 19/16 Q1013=
201307290020 METAR ESMX 290020Z AUTO 26006KT 9999NDV BKN089/// 19/16 Q1014=
201307282350 METAR ESMX 282350Z AUTO 27005KT 9999NDV BKN091/// 19/16 Q1013=
201307282320 METAR ESMX 282320Z 26004KT CAVOK 19/16 Q1013=
201307282250 METAR ESMX 282250Z 24004KT CAVOK 19/16 Q1013=
201307282220 METAR ESMX 282220Z 26003KT CAVOK 20/16 Q1013=
201307282150 METAR ESMX 282150Z 25005KT 9999 FEW041 20/15 Q1013=
201307282120 METAR ESMX 282120Z 25006KT 9999 FEW037 21/16 Q1013=
201307282050 METAR ESMX 282050Z 24005KT CAVOK 21/16 Q1013=
201307282020 METAR ESMX 282020Z 25007KT 9999 FEW033 SCT056 22/16 Q1012=
201307281950 METAR ESMX 281950Z 24007KT 9999 FEW026 BKN030 22/18 Q1012=
201307281920 METAR ESMX 281920Z 23007KT 200V260 9999 BKN028 23/18 Q1012=
201307281850 METAR ESMX 281850Z 16004KT 9999 FEW042 24/18 Q1011=
201307281820 METAR ESMX 281820Z 17006KT CAVOK 24/18 Q1011=
201307281750 METAR ESMX 281750Z 15006KT 9999 SCT042 25/17 Q1011=
201307281720 METAR ESMX 281720Z 15006KT 110V190 CAVOK 25/18 Q1011=
201307281650 METAR ESMX 281650Z AUTO 11007KT 070V150 9999NDV NCD 25/19 Q1010=
201307281620 METAR ESMX 281620Z AUTO 12006KT 070V160 9999NDV NCD 25/19 Q1010=
201307281550 METAR ESMX 281550Z AUTO 11006KT 070V150 9999NDV NCD 25/18 Q1010=
201307281520 METAR ESMX 281520Z AUTO 12007KT 070V160 9999NDV FEW021/// 25/19 Q1010=
201307281450 METAR ESMX 281450Z AUTO 12006KT 060V170 9999NDV FEW018/// 24/19 Q1010=
201307281420 METAR ESMX 281420Z AUTO 12009KT 070V170 9999NDV FEW015/// 23/19 Q1010=
201307281350 METAR ESMX 281350Z AUTO 12008KT 070V150 9999NDV FEW028/// 23/19 Q1010=
201307281320 METAR ESMX 281320Z AUTO 11005KT 050V150 9999NDV FEW098/// SCT110/// 21/18 Q1010=
201307281250 METAR ESMX 281250Z AUTO 11006KT 060V160 9999NDV FEW099/// SCT110/// 22/18 Q1010=
201307281220 METAR ESMX 281220Z AUTO 11007KT 060V140 9999NDV FEW110/// 21/18 Q1010=
201307281150 METAR ESMX 281150Z AUTO 11007KT 070V150 9999NDV FEW069/// BKN099/// 22/18 Q1010=
201307281120 METAR ESMX 281120Z AUTO 13007KT 080V160 9999NDV BKN063/// 22/19 Q1011=
201307281050 METAR ESMX 281050Z AUTO 12006KT 060V190 9999NDV BKN064/// 21/18 Q1011=
201307281020 METAR ESMX 281020Z AUTO 10006KT 060V150 9999NDV BKN064/// 21/19 Q1010=
201307280950 METAR ESMX 280950Z AUTO 10006KT 050V140 9999NDV FEW006/// SCT066/// 20/17 Q1010=
201307280920 METAR ESMX 280920Z AUTO 13004KT 070V180 9000NDV -RA FEW020/// SCT065/// 22/17 Q1011=
201307280850 METAR ESMX 280850Z AUTO 11007KT 040V150 9999NDV FEW062/// SCT091/// 25/16 Q1010=
201307280820 METAR ESMX 280820Z AUTO 11009KT 060V170 9999NDV NCD 24/16 Q1010=
201307280750 METAR ESMX 280750Z AUTO 12008KT 060V160 9999NDV NCD 23/15 Q1011=
201307280720 METAR ESMX 280720Z AUTO 12006KT 060V190 9999NDV BKN082/// 22/15 Q1011=
201307280650 METAR ESMX 280650Z AUTO 11007KT 060V150 9999NDV FEW098/// 21/16 Q1011=
201307280620 METAR ESMX 280620Z AUTO 09004KT 050V120 9999NDV NCD 20/16 Q1011=
201307280550 METAR ESMX 280550Z AUTO 12005KT 090V170 9999NDV SCT100/// 19/16 Q1011=
201307280520 METAR ESMX 280520Z AUTO 12005KT 050V160 9999NDV BKN100/// 19/15 Q1011=
201307280450 METAR ESMX 280450Z AUTO 10005KT 060V150 9999NDV SCT110/// 18/15 Q1011=
201307280420 METAR ESMX 280420Z AUTO 11003KT 060V160 9999NDV FEW086/// SCT100/// 18/14 Q1012=
201307280350 METAR ESMX 280350Z AUTO 10003KT 060V120 9999NDV SCT083/// BKN100/// 18/14 Q1012=
201307280320 METAR ESMX 280320Z AUTO 11003KT 060V170 9999NDV BKN100/// 18/13 Q1012=
201307280250 METAR ESMX 280250Z AUTO VRB02KT 9999NDV BKN100/// 18/13 Q1012=
201307280220 METAR ESMX 280220Z AUTO 12004KT 080V160 9999NDV SCT100/// 18/13 Q1012=
201307280150 METAR ESMX 280150Z AUTO 12004KT 080V160 9999NDV SCT110/// 18/13 Q1012=
201307280120 METAR ESMX 280120Z AUTO 14005KT 110V180 9999NDV FEW067/// SCT084/// 18/14 Q1012=
201307280050 METAR ESMX 280050Z AUTO 12004KT 080V150 9999NDV NCD 18/15 Q1012=
201307280020 METAR ESMX 280020Z AUTO 14003KT 100V160 9999NDV NCD 18/15 Q1012=
201307272350 METAR ESMX 272350Z AUTO 13003KT 090V160 9999NDV NCD 18/15 Q1012=
201307272320 METAR ESMX 272320Z AUTO 13004KT 9999NDV BKN079/// 19/16 Q1012=
201307272250 METAR ESMX 272250Z AUTO 14003KT 100V160 9999NDV SCT078/// BKN091/// 19/16 Q1012=
201307272220 METAR ESMX 272220Z AUTO 14003KT 9999NDV SCT077/// BKN095/// 19/16 Q1012=
201307272150 METAR ESMX 272150Z AUTO 14004KT 9999NDV BKN079/// 19/16 Q1012=
201307272120 METAR ESMX 272120Z AUTO 16003KT 9999NDV SCT082/// 17/15 Q1012=
201307272050 METAR ESMX 272050Z AUTO 13003KT 9999NDV NCD 18/16 Q1012=
201307272020 METAR ESMX 272020Z AUTO VRB02KT 9999NDV SCT087/// 18/16 Q1012=
201307271950 METAR ESMX 271950Z AUTO 13003KT 9999NDV SCT090/// 19/16 Q1012=
201307271920 METAR ESMX 271920Z AUTO 15003KT 9999NDV BKN088/// 21/16 Q1012=
201307271850 METAR ESMX 271850Z AUTO 17004KT 9999NDV BKN057/// BKN085/// 22/16 Q1012=
201307271820 METAR ESMX 271820Z AUTO 16004KT 9999NDV SCT063/// BKN079/// 22/16 Q1012=
201307271750 METAR ESMX 271750Z AUTO 17006KT 9999NDV NCD 22/16 Q1012=
201307271720 METAR ESMX 271720Z AUTO 16006KT 9999NDV NCD 23/16 Q1012=
201307271650 METAR ESMX 271650Z AUTO 19005KT 160V220 9999NDV FEW071/// 23/15 Q1012=
201307271620 METAR ESMX 271620Z AUTO 21007KT 9999NDV NCD 24/14 Q1012=
201307271550 METAR ESMX 271550Z AUTO VRB05KT 9999NDV NCD 24/14 Q1012=
201307271520 METAR ESMX 271520Z AUTO 16005KT 110V200 9999NDV FEW035/// 24/15 Q1012=
201307271450 METAR ESMX 271450Z AUTO 16006KT 140V200 9999NDV NCD 24/14 Q1012=
201307271420 METAR ESMX 271420Z AUTO 18007KT 120V210 9999NDV NCD 24/14 Q1013=
201307271350 METAR ESMX 271350Z AUTO 17007KT 080V210 9999NDV NCD 24/15 Q1013=
201307271320 METAR ESMX 271320Z AUTO 15005KT 080V220 9999NDV FEW028/// 23/15 Q1013=
201307271250 METAR ESMX 271250Z AUTO VRB02KT 9999NDV FEW048/// 23/15 Q1013=
201307271220 METAR ESMX 271220Z AUTO 23003KT 170V280 9999NDV FEW039/// 22/15 Q1013=
201307271150 METAR ESMX 271150Z AUTO VRB03KT 9999NDV FEW062/// 21/15 Q1013=
201307271120 METAR ESMX 271120Z AUTO 21003KT 170V260 9999NDV FEW075/// 20/16 Q1014=
201307271050 METAR ESMX 271050Z AUTO 25004KT 9999NDV FEW050/// 19/16 Q1014=
201307271020 METAR ESMX 271020Z AUTO 22007KT 9999NDV -RA FEW044/// 20/16 Q1014=
201307270950 METAR ESMX 270950Z AUTO 23007KT 9999NDV OVC031/// 22/15 Q1014=
201307270920 METAR ESMX 270920Z AUTO 25005KT 220V290 9999NDV SCT032/// 23/15 Q1013=
201307270850 METAR ESMX 270850Z AUTO 28004KT 250V320 9999NDV FEW055/// 23/15 Q1013=
201307270820 METAR ESMX 270820Z AUTO 27003KT 200V340 9999NDV FEW059/// 24/15 Q1013=
201307270750 METAR ESMX 270750Z AUTO 24004KT 210V280 9999NDV FEW085/// 23/15 Q1013=
201307270720 METAR ESMX 270720Z AUTO VRB02KT 9999NDV NCD 22/16 Q1013=
201307270650 METAR ESMX 270650Z AUTO VRB01KT 9999NDV NCD 20/17 Q1013=
201307270620 METAR ESMX 270620Z AUTO VRB01KT 9999NDV FEW110/// 19/17 Q1013=
201307270550 METAR ESMX 270550Z AUTO VRB01KT 9999NDV NCD 18/17 Q1013=
201307270520 METAR ESMX 270520Z AUTO VRB02KT 9999NDV FEW110/// 17/16 Q1013=
201307270450 METAR ESMX 270450Z AUTO 21002KT 9999NDV NCD 17/16 Q1013=
201307270420 METAR ESMX 270420Z AUTO 20001KT 7000NDV BR NCD 16/15 Q1013=
201307270350 METAR ESMX 270350Z AUTO 18003KT 9999NDV NCD 15/14 Q1013=
201307270320 METAR ESMX 270320Z AUTO VRB02KT 7000NDV BR NCD 14/13 Q1013=
201307270250 METAR ESMX 270250Z AUTO 15001KT 3900NDV NCD 14/13 Q1013=
201307270220 METAR ESMX 270220Z AUTO VRB02KT 0150NDV R01/P2000N R19/0500 BR NCD 14/13 Q1013=
201307270150 METAR ESMX 270150Z AUTO 15004KT 9999NDV NCD 14/13 Q1013=
201307270120 METAR ESMX 270120Z AUTO 00000KT 1500NDV BR NCD 14/13 Q1013=
201307270050 METAR ESMX 270050Z AUTO VRB01KT 9999NDV NCD 14/13 Q1013=
201307270020 METAR ESMX 270020Z AUTO 00000KT 9999NDV NCD 14/13 Q1014=
201307262350 METAR ESMX 262350Z AUTO VRB01KT 9999NDV NCD 15/14 Q1014=
201307262320 METAR ESMX 262320Z AUTO 14003KT 110V170 9999NDV NCD 15/14 Q1014=
201307262250 METAR ESMX 262250Z AUTO VRB02KT 9999NDV NCD 16/15 Q1014=
201307262220 METAR ESMX 262220Z AUTO 12004KT 9999NDV NCD 17/15 Q1014=
201307262150 METAR ESMX 262150Z AUTO 14004KT 9999NDV NCD 16/14 Q1014=
201307262120 METAR ESMX 262120Z AUTO 15004KT 9999NDV NCD 16/15 Q1014=
201307262050 METAR ESMX 262050Z AUTO 10002KT 9999NDV NCD 17/15 Q1014=
201307262020 METAR ESMX 262020Z AUTO 11002KT 9999NDV NCD 18/15 Q1014=
201307261950 METAR ESMX 261950Z AUTO 17003KT 9999NDV NCD 19/15 Q1014=
201307261920 METAR ESMX 261920Z AUTO 14003KT 9999NDV NCD 20/16 Q1014=
201307261850 METAR ESMX 261850Z AUTO 16003KT 9999NDV NCD 22/16 Q1014=
201307261820 METAR ESMX 261820Z AUTO 18004KT 9999NDV NCD 23/15 Q1014=
201307261750 METAR ESMX 261750Z AUTO 17003KT 9999NDV NCD 23/15 Q1013=
201307261720 METAR ESMX 261720Z AUTO 18005KT 9999NDV NCD 24/15 Q1013=
201307261650 METAR ESMX 261650Z AUTO 16005KT 9999NDV FEW091/// 24/15 Q1013=
201307261620 METAR ESMX 261620Z AUTO 17004KT 9999NDV SCT090/// BKN100/// 25/15 Q1014=
201307261550 METAR ESMX 261550Z AUTO 13003KT 070V160 9999NDV SCT098/// 25/14 Q1014=
201307261520 METAR ESMX 261520Z AUTO 11005KT 070V160 9999NDV SCT094/// 25/15 Q1014=
201307261450 METAR ESMX 261450Z AUTO 12006KT 070V150 9999NDV FEW077/// SCT100/// 25/15 Q1014=
201307261420 METAR ESMX 261420Z 02006KT CAVOK 25/12 Q1014=
201307261350 METAR ESMX 261350Z 36008KT CAVOK 27/13 Q1014=
201307261320 METAR ESMX 261320Z 35006KT 300V060 CAVOK 25/11 Q1014=
201307261250 METAR ESMX 261250Z 02007KT CAVOK 26/12 Q1014=
201307261220 METAR ESMX 261220Z 01008KT 9999 SCT046 25/13 Q1015=
201307261150 METAR ESMX 261150Z 03006KT 9999 FEW039 25/13 Q1014=
201307261120 METAR ESMX 261120Z 02005KT 290V080 9999 SCT039 25/14 Q1015=
201307261050 METAR ESMX 261050Z AUTO 35006KT 310V040 9999NDV NCD 23/14 Q1015=
201307261020 METAR ESMX 261020Z AUTO 33007KT 280V010 9999NDV FEW033/// 24/14 Q1015=
201307260950 METAR ESMX 260950Z 34005KT 270V030 9999 SCT034 23/14 Q1015=
201307260920 METAR ESMX 260920Z 03007KT 9999 FEW024 23/14 Q1015=
201307260850 METAR ESMX 260850Z 01006KT 9999 FEW023 22/15 Q1015=
201307260820 METAR ESMX 260820Z 01004KT 320V070 9999 FEW017 20/15 Q1015=
201307260750 METAR ESMX 260750Z 02004KT 330V080 9999 FEW019 21/15 Q1015=
201307260720 METAR ESMX 260720Z 02005KT 330V060 CAVOK 21/15 Q1015=
201307260650 METAR ESMX 260650Z AUTO 01004KT 9999NDV BKN062/// 20/15 Q1015=
201307260620 METAR ESMX 260620Z AUTO 35003KT 290V050 9999NDV BKN060/// 20/15 Q1015=
201307260550 METAR ESMX 260550Z AUTO 30003KT 260V340 9999NDV NCD 18/15 Q1015=
201307260520 METAR ESMX 260520Z AUTO 19001KT 9999NDV NCD 17/15 Q1015=
201307260450 METAR ESMX 260450Z AUTO 00000KT 9999NDV NCD 15/14 Q1015=
201307260420 METAR ESMX 260420Z AUTO VRB02KT 9999NDV NCD 13/12 Q1015=
201307260350 METAR ESMX 260350Z AUTO VRB02KT 9999NDV FEW048/// 13/12 Q1015=
201307260320 METAR ESMX 260320Z AUTO 00000KT 9999NDV SCT046/// 13/12 Q1015=
201307260250 METAR ESMX 260250Z AUTO VRB02KT 9999NDV FEW046/// SCT091/// 14/13 Q1016=
201307260220 METAR ESMX 260220Z AUTO 22002KT 9999NDV SCT052/// BKN076/// 15/13 Q1016=
201307260150 METAR ESMX 260150Z AUTO 26004KT 220V280 9999NDV BKN052/// OVC068/// 16/13 Q1016=
201307260120 METAR ESMX 260120Z AUTO 24004KT 9999NDV BKN058/// BKN086/// 15/12 Q1016=
201307260050 METAR ESMX 260050Z AUTO 23004KT 9999NDV BKN078/// 14/12 Q1016=
201307260020 METAR ESMX 260020Z 28003KT CAVOK 14/12 Q1016=
201307252350 METAR ESMX 252350Z VRB01KT CAVOK 15/12 Q1016=
201307252320 METAR ESMX 252320Z VRB02KT CAVOK 16/12 Q1016=
201307252250 METAR ESMX 252250Z 25003KT CAVOK 16/12 Q1016=
201307252220 METAR ESMX 252220Z 23003KT 200V260 CAVOK 17/12 Q1016=
201307252150 METAR ESMX 252150Z 25003KT CAVOK 17/12 Q1016=
201307252120 METAR ESMX 252120Z 25003KT 9999 BKN090 18/12 Q1016=
201307252050 METAR ESMX 252050Z 27003KT 240V300 CAVOK 18/12 Q1016=
201307252020 METAR ESMX 252020Z 27004KT CAVOK 18/12 Q1016=
201307251950 METAR ESMX 251950Z 26005KT CAVOK 18/12 Q1016=
201307251920 METAR ESMX 251920Z 27006KT CAVOK 18/12 Q1016=
201307251850 METAR ESMX 251850Z AUTO 26007KT 9999NDV SCT100/// 19/12 Q1016=
201307251820 METAR ESMX 251820Z AUTO 24007KT 9999NDV SCT100/// 19/12 Q1016=
201307251750 METAR ESMX 251750Z AUTO 24009KT 9999NDV BKN100/// 19/12 Q1016=
201307251720 METAR ESMX 251720Z AUTO 23009KT 9999NDV FEW100/// SCT110/// 20/12 Q1015=
201307251650 METAR ESMX 251650Z AUTO 26005KT 9999NDV FEW110/// 23/13 Q1015=
201307251620 METAR ESMX 251620Z AUTO 27004KT 9999NDV NCD 23/12 Q1015=
201307251550 METAR ESMX 251550Z AUTO 23005KT 9999NDV FEW100/// 23/12 Q1015=
201307251520 METAR ESMX 251520Z AUTO 23007KT 9999NDV FEW061/// 23/13 Q1015=
201307251450 METAR ESMX 251450Z AUTO 24007KT 9999NDV FEW110/// 24/13 Q1015=
201307251420 METAR ESMX 251420Z AUTO 23007KT 9999NDV NCD 24/13 Q1015=
201307251350 METAR ESMX 251350Z AUTO 23007KT 9999NDV FEW059/// 24/12 Q1016=
201307251320 METAR ESMX 251320Z AUTO 20006KT 9999NDV FEW053/// 24/11 Q1016=
201307251250 METAR ESMX 251250Z AUTO VRB02KT 9999NDV FEW049/// 24/11 Q1016=
201307251220 METAR ESMX 251220Z AUTO VRB02KT 9999NDV FEW048/// 24/12 Q1016=
201307251150 METAR ESMX 251150Z AUTO VRB05KT 9999NDV SCT041/// 24/13 Q1016=
201307251120 METAR ESMX 251120Z AUTO 22005KT 170V250 9999NDV FEW040/// 25/13 Q1016=
201307251050 METAR ESMX 251050Z AUTO 21004KT 170V280 9999NDV FEW050/// 25/14 Q1016=
201307251020 METAR ESMX 251020Z AUTO 24005KT 190V310 9999NDV SCT032/// BKN045/// 24/13 Q1016=
201307250950 METAR ESMX 250950Z AUTO VRB03KT 9999NDV FEW029/// BKN058/// 24/15 Q1016=
201307250920 METAR ESMX 250920Z AUTO VRB02KT 9999NDV FEW048/// BKN058/// 23/14 Q1016=
201307250850 METAR ESMX 250850Z AUTO 14003KT 100V190 9999NDV BKN054/// 22/15 Q1016=
201307250820 METAR ESMX 250820Z AUTO 18004KT 150V210 9999NDV SCT053/// 22/15 Q1016=
201307250750 METAR ESMX 250750Z AUTO 15004KT 110V190 9999NDV FEW053/// 21/15 Q1016=
201307250720 METAR ESMX 250720Z AUTO VRB01KT 9999NDV BKN052/// 20/15 Q1016=
201307250650 METAR ESMX 250650Z AUTO VRB03KT 9999NDV BKN050/// 20/15 Q1016=
201307250620 METAR ESMX 250620Z AUTO 22004KT 160V260 9999NDV NCD 20/15 Q1016=
201307250550 METAR ESMX 250550Z AUTO VRB01KT 9999NDV NCD 19/15 Q1016=
201307250520 METAR ESMX 250520Z AUTO VRB01KT 9999NDV NCD 18/15 Q1016=
201307250450 METAR ESMX 250450Z AUTO 12002KT 9999NDV FEW052/// 16/15 Q1016=
201307250420 METAR ESMX 250420Z AUTO 00000KT 9999NDV BKN048/// 13/13 Q1016=
201307250350 METAR ESMX 250350Z AUTO 00000KT 9999NDV FEW048/// 13/12 Q1016=
201307250320 METAR ESMX 250320Z AUTO 00000KT 9999NDV NCD 12/11 Q1016=
201307250250 METAR ESMX 250250Z AUTO 00000KT 9999NDV NCD 12/11 Q1016=
201307250220 METAR ESMX 250220Z AUTO 00000KT 0600NDV R01/P2000N R19/P2000 NCD 12/11 Q1016=
201307250150 METAR ESMX 250150Z AUTO 00000KT 9999NDV NCD 13/12 Q1016=
201307250120 METAR ESMX 250120Z AUTO VRB01G37KT 9999NDV NCD 14/12 Q1016=
201307250050 METAR ESMX 250050Z AUTO VRB01KT 9999NDV FEW049/// SCT069/// 15/13 Q1016=
201307250020 METAR ESMX 250020Z AUTO 21003KT 9999NDV BKN055/// 15/13 Q1017=
201307242350 METAR ESMX 242350Z VRB02KT 9999 SCT043 BKN057 14/12 Q1017=
201307242320 METAR ESMX 242320Z VRB02KT CAVOK 14/12 Q1017=
201307242250 METAR ESMX 242250Z 16003KT CAVOK 14/12 Q1016=
201307242220 METAR ESMX 242220Z 18004KT CAVOK 14/12 Q1016=
201307242150 METAR ESMX 242150Z 16004KT CAVOK 17/13 Q1016=
201307242120 METAR ESMX 242120Z 17004KT CAVOK 18/13 Q1016=
201307242050 METAR ESMX 242050Z 15005KT 110V170 CAVOK 19/13 Q1016=
201307242020 METAR ESMX 242020Z 15005KT CAVOK 19/13 Q1016=
201307241950 METAR ESMX 241950Z 16006KT CAVOK 20/13 Q1016=
201307241920 METAR ESMX 241920Z 12005KT 080V170 CAVOK 21/14 Q1015=
201307241850 METAR ESMX 241850Z AUTO 11005KT 080V150 9999NDV NCD 22/14 Q1015=
201307241820 METAR ESMX 241820Z AUTO 12004KT 070V170 9999NDV NCD 23/15 Q1015=
201307241750 METAR ESMX 241750Z AUTO 11006KT 070V160 9999NDV NCD 23/15 Q1015=
201307241720 METAR ESMX 241720Z AUTO 08007KT 050V140 9999NDV NCD 25/14 Q1015=
201307241650 METAR ESMX 241650Z AUTO 01005KT 330V060 9999NDV NCD 26/13 Q1015=
201307241620 METAR ESMX 241620Z AUTO 06004KT 010V100 9999NDV NCD 26/12 Q1015=
201307241550 METAR ESMX 241550Z AUTO VRB04KT 9999NDV NCD 26/12 Q1015=
201307241520 METAR ESMX 241520Z AUTO 34003KT 280V020 9999NDV NCD 26/12 Q1015=
201307241450 METAR ESMX 241450Z AUTO 03004KT 300V080 9999NDV NCD 26/12 Q1015=
201307241420 METAR ESMX 241420Z AUTO VRB03KT 9999NDV NCD 26/12 Q1015=
201307241350 METAR ESMX 241350Z AUTO VRB04KT 9999NDV NCD 25/12 Q1015=
201307241320 METAR ESMX 241320Z AUTO VRB02KT 9999NDV NCD 26/13 Q1015=
201307241250 METAR ESMX 241250Z AUTO VRB04KT 9999NDV NCD 25/13 Q1015=
201307241220 METAR ESMX 241220Z AUTO 06006KT 010V100 9999NDV NCD 25/13 Q1015=
201307241150 METAR ESMX 241150Z AUTO VRB04KT 9999NDV NCD 24/12 Q1016=
201307241120 METAR ESMX 241120Z AUTO 03006KT 350V110 9999NDV NCD 24/12 Q1016=
201307241050 METAR ESMX 241050Z AUTO 29004KT 230V340 9999NDV NCD 23/13 Q1016=
201307241020 METAR ESMX 241020Z AUTO 35005KT 300V050 9999NDV NCD 22/12 Q1016=
201307240950 METAR ESMX 240950Z AUTO 33006KT 280V010 9999NDV NCD 22/13 Q1016=
201307240920 METAR ESMX 240920Z AUTO 35005KT 320V020 9999NDV NCD 21/13 Q1016=
201307240850 METAR ESMX 240850Z AUTO 03008KT 9999NDV NCD 21/12 Q1016=
201307240820 METAR ESMX 240820Z AUTO 02006KT 280V060 9999NDV NCD 20/12 Q1016=
201307240750 METAR ESMX 240750Z AUTO 36008KT 9999NDV NCD 19/12 Q1016=
201307240720 METAR ESMX 240720Z AUTO 34009KT 9999NDV NCD 18/12 Q1016=
201307240650 METAR ESMX 240650Z AUTO 35009KT 9999NDV NCD 18/11 Q1016=
201307240620 METAR ESMX 240620Z AUTO 36008KT 9999NDV NCD 17/11 Q1016=
201307240550 METAR ESMX 240550Z AUTO 36009KT 9999NDV NCD 17/11 Q1017=
201307240520 METAR ESMX 240520Z AUTO 36006KT 9999NDV NCD 16/11 Q1017=
201307240450 METAR ESMX 240450Z AUTO 33005KT 9999NDV NCD 15/11 Q1017=
201307240420 METAR ESMX 240420Z AUTO 32005KT 9999NDV NCD 14/10 Q1017=
201307240350 METAR ESMX 240350Z AUTO 32003KT 280V350 9999NDV NCD 13/10 Q1016=
201307240320 METAR ESMX 240320Z AUTO 35002KT 9999NDV NCD 13/09 Q1016=
201307240250 METAR ESMX 240250Z AUTO 35003KT 9999NDV NCD 13/10 Q1016=
201307240220 METAR ESMX 240220Z AUTO 35003KT 9999NDV NCD 13/10 Q1017=
201307240150 METAR ESMX 240150Z AUTO 31004KT 290V350 9999NDV NCD 12/10 Q1017=
201307240120 METAR ESMX 240120Z AUTO VRB02KT 9999NDV NCD 13/09 Q1017=
201307240050 METAR ESMX 240050Z AUTO 31006KT 9999NDV NCD 13/10 Q1017=
201307240020 METAR ESMX 240020Z AUTO 31006KT 9999NDV NCD 13/09 Q1017=
201307232350 METAR ESMX 232350Z 32004KT CAVOK 14/09 Q1017=
201307232320 METAR ESMX 232320Z 30003KT CAVOK 13/09 Q1017=
201307232250 METAR ESMX 232250Z 34006KT CAVOK 15/09 Q1017=
201307232220 METAR ESMX 232220Z 36005KT CAVOK 16/08 Q1017=
201307232150 METAR ESMX 232150Z 36006KT CAVOK 16/09 Q1017=
201307232120 METAR ESMX 232120Z 36004KT CAVOK 16/09 Q1017=
201307232050 METAR ESMX 232050Z 01006KT CAVOK 18/08 Q1017=
201307232020 METAR ESMX 232020Z 01006KT CAVOK 18/09 Q1017=
201307231950 METAR ESMX 231950Z 03007KT CAVOK 19/08 Q1017=
201307231920 METAR ESMX 231920Z 02008KT CAVOK 20/09 Q1016=
201307231850 METAR ESMX 231850Z AUTO 36009KT 9999NDV NCD 21/09 Q1016=
201307231820 METAR ESMX 231820Z AUTO 35008KT 9999NDV NCD 22/09 Q1016=
201307231750 METAR ESMX 231750Z AUTO 35008KT 9999NDV NCD 22/08 Q1017=
201307231720 METAR ESMX 231720Z AUTO 36008KT 300V020 9999NDV NCD 23/08 Q1017=
201307231650 METAR ESMX 231650Z 35008KT CAVOK 23/08 Q1017=
201307231620 METAR ESMX 231620Z 34009KT 300V010 CAVOK 24/07 Q1017=
201307231550 METAR ESMX 231550Z 33009KT 290V350 CAVOK 24/07 Q1017=
201307231520 METAR ESMX 231520Z 35009KT 300V020 CAVOK 23/07 Q1017=
201307231450 METAR COR ESMX 231450Z 33009KT 9999 NSC 24/07 Q1017=
201307231420 METAR ESMX 231420Z 35009KT 290V010 CAVOK 23/07 Q1017=
201307231350 METAR ESMX 231350Z 34010KT CAVOK 23/07 Q1017=
201307231320 METAR ESMX 231320Z AUTO 02007KT 320V050 9999NDV NCD 23/07 Q1017=
201307231250 METAR ESMX 231250Z AUTO 35009KT 310V020 9999NDV NCD 23/06 Q1017=
201307231220 METAR ESMX 231220Z AUTO 35010KT 320V020 9999NDV NCD 23/06 Q1018=
201307231150 METAR ESMX 231150Z AUTO 36012KT 9999NDV NCD 22/06 Q1018=
201307231120 METAR ESMX 231120Z AUTO 34009KT 300V020 9999NDV NCD 23/06 Q1018=
201307231050 METAR ESMX 231050Z AUTO 34010KT 300V020 9999NDV NCD 22/07 Q1018=
201307231020 METAR ESMX 231020Z AUTO 34010KT 9999NDV NCD 21/06 Q1018=
201307230950 METAR ESMX 230950Z AUTO 36010KT 310V030 9999NDV NCD 21/05 Q1019=
201307230920 METAR ESMX 230920Z AUTO 36012KT 9999NDV NCD 20/05 Q1019=
201307230850 METAR ESMX 230850Z AUTO 01012KT 9999NDV NCD 20/06 Q1019=
201307230820 METAR ESMX 230820Z AUTO 36011KT 9999NDV NCD 19/05 Q1019=
201307230750 METAR ESMX 230750Z AUTO 35010KT 9999NDV NCD 19/06 Q1019=
201307230720 METAR ESMX 230720Z AUTO 35009KT 9999NDV NCD 18/07 Q1019=
201307230650 METAR ESMX 230650Z AUTO 33009KT 310V010 9999NDV NCD 17/07 Q1019=
201307230620 METAR ESMX 230620Z AUTO 34007KT 9999NDV NCD 17/07 Q1019=
201307230550 METAR ESMX 230550Z AUTO 33006KT 9999NDV NCD 15/07 Q1019=
201307230520 METAR ESMX 230520Z AUTO 31005KT 9999NDV NCD 14/08 Q1019=
201307230450 METAR ESMX 230450Z AUTO 31003KT 270V360 9999NDV NCD 11/09 Q1020=
201307230420 METAR ESMX 230420Z AUTO VRB01KT 9999NDV NCD 08/07 Q1020=
201307230350 METAR ESMX 230350Z AUTO 00000KT 9999NDV NCD 07/06 Q1020=
201307230320 METAR ESMX 230320Z AUTO VRB02KT 9999NDV NCD 07/06 Q1020=
201307230250 METAR ESMX 230250Z AUTO 00000KT 9999NDV NCD 06/05 Q1020=
201307230220 METAR ESMX 230220Z AUTO 29001KT 9999NDV NCD 07/05 Q1020=
201307230150 METAR ESMX 230150Z AUTO VRB01KT 9999NDV NCD 07/06 Q1020=
201307230120 METAR ESMX 230120Z AUTO VRB01KT 9999NDV NCD 08/07 Q1020=
201307230050 METAR ESMX 230050Z AUTO 00000KT 9999NDV NCD 09/07 Q1020=
201307230020 METAR ESMX 230020Z AUTO 00000KT 9999NDV NCD 11/09 Q1020=
201307222350 METAR ESMX 222350Z 08006KT 9999 FEW023 12/10 Q1020=
201307222320 METAR ESMX 222320Z 18002KT CAVOK 11/09 Q1020=
201307222220 METAR ESMX 222220Z 16003KT 110V190 CAVOK 13/11 Q1019=
201307222150 METAR ESMX 222150Z 16005KT CAVOK 16/11 Q1019=
201307222120 METAR ESMX 222120Z 08004KT 050V120 CAVOK 15/10 Q1019=
201307222050 METAR ESMX 222050Z 10003KT 050V140 CAVOK 16/09 Q1019=
201307222020 METAR ESMX 222020Z 09003KT 060V120 CAVOK 17/08 Q1019=
201307221950 METAR ESMX 221950Z 05004KT 020V090 CAVOK 18/06 Q1019=
201307221920 METAR ESMX 221920Z 04006KT CAVOK 20/04 Q1018=
201307221850 METAR ESMX 221850Z 03007KT CAVOK 21/03 Q1018=
201307221650 METAR ESMX 221650Z 03005KT 360V070 CAVOK 23/06 Q1018=
201307221620 METAR ESMX 221620Z 06003KT 360V100 CAVOK 24/07 Q1018=
201307221550 METAR ESMX 221550Z 05006KT 020V080 CAVOK 24/07 Q1018=
201307221520 METAR ESMX 221520Z 02006KT 350V050 CAVOK 23/07 Q1019=
201307221450 METAR COR ESMX 221450Z 02007KT 350V050 CAVOK 24/07 Q1019=
201307221420 METAR ESMX 221420Z 01009KT CAVOK 24/07 Q1019=
201307221350 METAR ESMX 221350Z VRB03KT CAVOK 23/07 Q1019=
201307221320 METAR ESMX 221320Z 33004KT 270V030 CAVOK 24/07 Q1019=
201307221250 METAR ESMX 221250Z 36006KT 330V110 CAVOK 23/08 Q1019=
201307221220 METAR ESMX 221220Z 36008KT 320V050 9999 FEW084 SCT097 23/08 Q1020=
201307221150 METAR COR ESMX 221150Z 36007KT 320V050 CAVOK 23/09 Q1020=
201307221120 METAR ESMX 221120Z 01007KT 9999 FEW040 SCT070 23/10 Q1020=
201307221050 METAR ESMX 221050Z 36007KT 330V030 CAVOK 22/11 Q1020=
201307221020 METAR ESMX 221020Z 02007KT 340V040 CAVOK 22/12 Q1020=
201307220950 METAR ESMX 220950Z 34006KT 280V030 CAVOK 22/12 Q1020=
201307220920 METAR ESMX 220920Z 35006KT 280V030 CAVOK 21/12 Q1020=
201307220850 METAR ESMX 220850Z 35006KT 310V020 CAVOK 21/12 Q1020=
201307220820 METAR ESMX 220820Z 01007KT CAVOK 21/12 Q1020=
201307220750 METAR ESMX 220750Z 36006KT CAVOK 20/13 Q1020=
201307220720 METAR COR ESMX 220720Z 02005KT CAVOK 19/13 Q1020=
201307220650 METAR ESMX 220650Z AUTO 02006KT 340V040 9999NDV BKN092/// 19/13 Q1020=
201307220620 METAR ESMX 220620Z AUTO 35004KT 9999NDV SCT093/// 19/14 Q1020=
201307220550 METAR ESMX 220550Z AUTO 01003KT 300V060 9999NDV FEW095/// 18/13 Q1020=
201307220520 METAR ESMX 220520Z AUTO 00000KT 9999NDV BKN095/// 17/14 Q1020=
201307220450 METAR ESMX 220450Z AUTO VRB01KT 9999NDV SCT089/// 15/14 Q1020=
201307220420 METAR ESMX 220420Z AUTO 19002KT 9999NDV FEW087/// SCT099/// 12/12 Q1020=
201307220350 METAR ESMX 220350Z AUTO 00000KT 9999NDV NCD 10/09 Q1020=
201307220320 METAR ESMX 220320Z AUTO 18002KT 9999NDV FEW085/// 09/08 Q1020=
201307220250 METAR ESMX 220250Z AUTO 00000KT 9999NDV NCD 09/08 Q1020=
201307220220 METAR ESMX 220220Z AUTO 00000KT 9999NDV NCD 10/08 Q1020=
201307220150 METAR ESMX 220150Z AUTO 21001KT 9999NDV NCD 10/09 Q1020=
201307220120 METAR ESMX 220120Z AUTO 17002KT 9999NDV NCD 11/09 Q1020=
201307220050 METAR ESMX 220050Z AUTO 19002KT 9999NDV NCD 11/09 Q1020=
201307220020 METAR ESMX 220020Z AUTO 00000KT 9999NDV NCD 12/10 Q1020=
201307212350 METAR ESMX 212350Z AUTO 11002KT 9999NDV NCD 14/11 Q1020=
201307212320 METAR ESMX 212320Z VRB02KT CAVOK 16/11 Q1020=
201307212250 METAR ESMX 212250Z 14004KT 110V190 CAVOK 17/12 Q1020=
201307212220 METAR ESMX 212220Z 12004KT 090V170 CAVOK 18/13 Q1020=
201307212120 METAR ESMX 212120Z 14004KT 100V170 CAVOK 19/13 Q1020=
201307212050 METAR ESMX 212050Z 16005KT CAVOK 19/13 Q1019=
201307211950 METAR ESMX 211950Z 04004KT CAVOK 21/11 Q1019=
201307211920 METAR ESMX 211920Z 04006KT CAVOK 23/10 Q1019=
201307211850 METAR ESMX 211850Z 03006KT CAVOK 24/10 Q1018=
201307211820 METAR ESMX 211820Z 02006KT CAVOK 25/10 Q1018=
201307211750 METAR ESMX 211750Z AUTO 36007KT 9999NDV NCD 26/09 Q1018=
201307211720 METAR ESMX 211720Z AUTO 01010KT 9999NDV NCD 26/08 Q1018=
201307211650 METAR ESMX 211650Z AUTO 02009KT 9999NDV NCD 27/10 Q1018=
201307211620 METAR ESMX 211620Z AUTO 35010KT 9999NDV NCD 28/10 Q1018=
201307211550 METAR ESMX 211550Z AUTO 34009KT 9999NDV NCD 28/09 Q1018=
201307211520 METAR ESMX 211520Z AUTO 32008KT 290V350 9999NDV NCD 28/09 Q1018=
201307211450 METAR ESMX 211450Z AUTO 33007KT 270V060 9999NDV NCD 28/10 Q1018=
201307211420 METAR ESMX 211420Z AUTO 35007KT 310V020 9999NDV NCD 28/10 Q1018=
201307211350 METAR ESMX 211350Z AUTO 35009KT 9999NDV NCD 28/09 Q1018=
201307211320 METAR ESMX 211320Z AUTO 35008KT 310V030 9999NDV NCD 27/10 Q1018=
201307211250 METAR ESMX 211250Z AUTO VRB05KT 9999NDV NCD 27/11 Q1018=
201307211220 METAR ESMX 211220Z AUTO 35007KT 320V040 9999NDV NCD 27/13 Q1019=
201307211150 METAR ESMX 211150Z AUTO 36008KT 320V020 9999NDV NCD 27/13 Q1019=
201307211120 METAR ESMX 211120Z AUTO 36008KT 9999NDV NCD 27/13 Q1019=
201307211050 METAR ESMX 211050Z AUTO 31009KT 280V340 9999NDV NCD 26/12 Q1019=
201307211020 METAR ESMX 211020Z AUTO 30008KT 260V350 9999NDV NCD 26/13 Q1019=
201307210950 METAR ESMX 210950Z AUTO VRB06KT 9999NDV NCD 25/12 Q1019=
201307210920 METAR ESMX 210920Z AUTO 28007KT 240V320 9999NDV NCD 24/12 Q1019=
201307210850 METAR ESMX 210850Z AUTO 33008KT 300V360 9999NDV NCD 24/13 Q1019=
201307210820 METAR ESMX 210820Z AUTO 30008KT 260V330 9999NDV NCD 23/12 Q1019=
201307210750 METAR ESMX 210750Z AUTO 29008KT 9999NDV NCD 22/13 Q1019=
201307210720 METAR ESMX 210720Z AUTO 29008KT 9999NDV NCD 21/13 Q1019=
201307210650 METAR ESMX 210650Z AUTO 29006KT 9999NDV NCD 21/14 Q1020=
201307210620 METAR ESMX 210620Z AUTO 28004KT 250V310 9999NDV NCD 19/12 Q1019=
201307210550 METAR ESMX 210550Z AUTO 29003KT 240V320 9999NDV NCD 18/12 Q1020=
201307210520 METAR ESMX 210520Z AUTO 27003KT 9999NDV NCD 17/11 Q1020=
201307210450 METAR ESMX 210450Z AUTO 26004KT 9999NDV NCD 15/11 Q1020=
201307210420 METAR ESMX 210420Z AUTO 24003KT 9999NDV NCD 14/11 Q1020=
201307210350 METAR ESMX 210350Z AUTO 26001KT 9999NDV NCD 12/10 Q1020=
201307210320 METAR ESMX 210320Z AUTO 25002KT 9999NDV NCD 12/10 Q1020=
201307210250 METAR ESMX 210250Z AUTO 25005KT 9999NDV NCD 12/10 Q1020=
201307210220 METAR ESMX 210220Z AUTO 26004KT 9999NDV NCD 12/10 Q1020=
201307210150 METAR ESMX 210150Z AUTO 26003KT 9999NDV NCD 12/10 Q1020=
201307210120 METAR ESMX 210120Z AUTO 25003KT 9999NDV NCD 13/10 Q1020=
201307210050 METAR ESMX 210050Z AUTO 25004KT 9999NDV NCD 13/10 Q1020=
201307210020 METAR ESMX 210020Z AUTO 20004KT 9999NDV NCD 13/10 Q1020=
201307202350 METAR ESMX 202350Z AUTO 25003KT 9999NDV NCD 14/10 Q1021=
201307202320 METAR ESMX 202320Z AUTO 24005KT 9999NDV NCD 14/10 Q1021=
201307202250 METAR ESMX 202250Z AUTO 24004KT 9999NDV NCD 13/10 Q1020=
201307202220 METAR ESMX 202220Z AUTO 19003KT 9999NDV NCD 13/10 Q1021=
201307202150 METAR ESMX 202150Z AUTO 20003KT 9999NDV NCD 14/11 Q1021=
201307202120 METAR ESMX 202120Z AUTO 18003KT 9999NDV NCD 14/10 Q1021=
201307202050 METAR ESMX 202050Z AUTO 00000KT 9999NDV NCD 15/11 Q1021=
201307202020 METAR ESMX 202020Z AUTO 00000KT 9999NDV NCD 16/11 Q1020=
201307201950 METAR ESMX 201950Z AUTO 06002KT 9999NDV NCD 17/11 Q1020=
201307201920 METAR ESMX 201920Z AUTO VRB01KT 9999NDV NCD 20/11 Q1020=
201307201850 METAR ESMX 201850Z AUTO 04004KT 9999NDV NCD 22/11 Q1020=
201307201820 METAR ESMX 201820Z AUTO 02006KT 9999NDV NCD 23/10 Q1020=
201307201750 METAR ESMX 201750Z AUTO 35007KT 9999NDV NCD 24/10 Q1020=
201307201720 METAR ESMX 201720Z AUTO 36008KT 9999NDV NCD 25/09 Q1020=
201307201650 METAR ESMX 201650Z AUTO 34009KT 9999NDV NCD 25/09 Q1020=
201307201620 METAR ESMX 201620Z AUTO 34009KT 9999NDV NCD 25/09 Q1020=
201307201550 METAR ESMX 201550Z AUTO 34010KT 9999NDV NCD 25/10 Q1020=
201307201520 METAR ESMX 201520Z AUTO 34010KT 9999NDV NCD 25/09 Q1020=
201307201450 METAR ESMX 201450Z AUTO 34009KT 9999NDV NCD 25/09 Q1020=
201307201420 METAR ESMX 201420Z AUTO 33013KT 9999NDV NCD 25/09 Q1020=
201307201350 METAR ESMX 201350Z AUTO 33012KT 9999NDV NCD 25/09 Q1020=
201307201320 METAR ESMX 201320Z AUTO 34013KT 9999NDV NCD 25/10 Q1020=
201307201250 METAR ESMX 201250Z AUTO 34014KT 300V010 9999NDV NCD 24/09 Q1020=
201307201220 METAR ESMX 201220Z AUTO 32011KT 290V350 9999NDV NCD 24/09 Q1020=
201307201150 METAR ESMX 201150Z AUTO 33013KT 9999NDV NCD 24/10 Q1021=
201307201120 METAR ESMX 201120Z AUTO 33013KT 300V010 9999NDV NCD 23/09 Q1021=
201307201050 METAR ESMX 201050Z AUTO 33013KT 9999NDV NCD 23/08 Q1021=
201307201020 METAR ESMX 201020Z AUTO 33014KT 290V010 9999NDV NCD 22/08 Q1021=
201307200950 METAR ESMX 200950Z AUTO 32013KT 290V350 9999NDV FEW045/// 22/08 Q1021=
201307200920 METAR ESMX 200920Z AUTO 33012KT 290V350 9999NDV FEW046/// 21/07 Q1021=
201307200850 METAR ESMX 200850Z AUTO 31012KT 280V350 9999NDV FEW046/// 20/08 Q1021=
201307200820 METAR ESMX 200820Z AUTO 31011KT 280V340 9999NDV NCD 20/07 Q1021=
201307200750 METAR ESMX 200750Z AUTO 33011KT 9999NDV NCD 19/07 Q1021=
201307200720 METAR ESMX 200720Z AUTO 30010KT 280V340 9999NDV NCD 18/07 Q1021=
201307200650 METAR ESMX 200650Z AUTO 30007KT 9999NDV NCD 17/07 Q1021=
201307200620 METAR ESMX 200620Z AUTO 32005KT 270V340 9999NDV NCD 16/09 Q1021=
201307200550 METAR ESMX 200550Z AUTO 35002KT 9999NDV NCD 15/08 Q1021=
201307200520 METAR ESMX 200520Z AUTO VRB02KT 9999NDV NCD 14/09 Q1021=
201307200450 METAR ESMX 200450Z AUTO 00000KT 9999NDV NCD 13/09 Q1021=
201307200420 METAR ESMX 200420Z AUTO 00000KT 9999NDV NCD 09/07 Q1021=
201307200350 METAR ESMX 200350Z AUTO 30003KT 9999NDV NCD 08/06 Q1021=
201307200320 METAR ESMX 200320Z AUTO 30004KT 9999NDV NCD 07/05 Q1021=
201307200250 METAR ESMX 200250Z AUTO 31003KT 9999NDV NCD 06/04 Q1021=
201307200220 METAR ESMX 200220Z AUTO VRB01KT 9999NDV NCD 08/06 Q1021=
201307200150 METAR ESMX 200150Z AUTO 26001KT 9999NDV NCD 07/05 Q1021=
201307200120 METAR ESMX 200120Z AUTO VRB01KT 9999NDV NCD 08/06 Q1020=
201307200050 METAR ESMX 200050Z AUTO 33001KT 9999NDV NCD 09/06 Q1020=
201307200020 METAR ESMX 200020Z AUTO 31003KT 9999NDV NCD 09/05 Q1020=
201307192350 METAR ESMX 192350Z AUTO 33002KT 9999NDV NCD 09/06 Q1020=
201307192320 METAR ESMX 192320Z AUTO 32002KT 9999NDV NCD 09/06 Q1020=
201307192250 METAR ESMX 192250Z AUTO 33003KT 9999NDV NCD 10/06 Q1020=
201307192220 METAR ESMX 192220Z AUTO 00000KT 9999NDV NCD 11/06 Q1020=
201307192150 METAR ESMX 192150Z AUTO 00000KT 9999NDV NCD 11/07 Q1020=
201307192120 METAR ESMX 192120Z AUTO 32005KT 9999NDV NCD 12/07 Q1020=
201307192050 METAR ESMX 192050Z AUTO 32006KT 9999NDV NCD 13/06 Q1020=
201307192020 METAR ESMX 192020Z AUTO 32006KT 9999NDV NCD 14/06 Q1019=
201307191950 METAR ESMX 191950Z AUTO 32007KT 9999NDV NCD 14/06 Q1019=
201307191920 METAR ESMX 191920Z AUTO 31006KT 9999NDV NCD 16/06 Q1019=
201307191850 METAR ESMX 191850Z AUTO 31007KT 9999NDV NCD 17/06 Q1019=
201307191820 METAR ESMX 191820Z AUTO 33009KT 9999NDV NCD 18/06 Q1018=
201307191750 METAR ESMX 191750Z AUTO 35010KT 9999NDV NCD 19/06 Q1018=
201307191720 METAR ESMX 191720Z AUTO 33010KT 9999NDV NCD 19/06 Q1018=
201307191650 METAR ESMX 191650Z AUTO 34010KT 9999NDV NCD 20/05 Q1018=
201307191620 METAR ESMX 191620Z AUTO 33012KT 9999NDV NCD 20/05 Q1018=
201307191550 METAR ESMX 191550Z AUTO 33012KT 9999NDV NCD 20/05 Q1017=
201307191520 METAR ESMX 191520Z AUTO 33011KT 9999NDV NCD 21/04 Q1017=
201307191450 METAR ESMX 191450Z AUTO 33012KT 9999NDV NCD 21/04 Q1017=
201307191420 METAR ESMX 191420Z 33011KT 290V360 CAVOK 22/05 Q1017=
201307191350 METAR ESMX 191350Z 32012KT CAVOK 22/05 Q1016=
201307191320 METAR ESMX 191320Z 34015KT CAVOK 21/04 Q1016=
201307191250 METAR ESMX 191250Z 32014KT 280V340 CAVOK 22/05 Q1016=
201307191220 METAR ESMX 191220Z 35014KT CAVOK 22/07 Q1016=
201307191150 METAR ESMX 191150Z 33013KT CAVOK 22/07 Q1015=
201307191120 METAR ESMX 191120Z 35014KT CAVOK 22/08 Q1015=
201307191050 METAR ESMX 191050Z AUTO 33013KT 290V350 9999NDV FEW091/// 22/09 Q1015=
201307191020 METAR ESMX 191020Z AUTO 35012KT 310V020 9999NDV FEW043/// 22/11 Q1015=
201307190950 METAR ESMX 190950Z 34012KT 9999 FEW035 BKN057 21/11 Q1014=
201307190920 METAR ESMX 190920Z 34014KT 9999 SCT036 22/12 Q1014=
201307190850 METAR ESMX 190850Z 34011KT 9999 FEW032 SCT038 22/13 Q1014=
201307190820 METAR ESMX 190820Z 34012KT 9999 FEW029 SCT034 21/13 Q1014=
201307190750 METAR ESMX 190750Z 33011KT 290V350 9999 SCT027 21/14 Q1014=
201307190720 METAR ESMX 190720Z 31011KT 9999 FEW027 20/13 Q1013=
201307190650 METAR ESMX 190650Z 31011KT 280V340 9999 FEW026 19/14 Q1013=
201307190620 METAR ESMX 190620Z AUTO 30011KT 9999NDV NCD 18/14 Q1013=
201307190550 METAR ESMX 190550Z AUTO 29011KT 9999NDV NCD 18/14 Q1013=
201307190520 METAR ESMX 190520Z AUTO 29010KT 9999NDV NCD 17/14 Q1013=
201307190450 METAR ESMX 190450Z AUTO 28007KT 250V310 9999NDV NCD 16/14 Q1013=
201307190420 METAR ESMX 190420Z AUTO 27007KT 9999NDV FEW013/// 16/14 Q1013=
201307190350 METAR ESMX 190350Z AUTO 26008KT 9999NDV FEW014/// 16/14 Q1013=
201307190320 METAR ESMX 190320Z AUTO 25009KT 9999NDV NCD 16/14 Q1013=
201307190250 METAR ESMX 190250Z AUTO 25007KT 9999NDV NCD 16/14 Q1013=
201307190220 METAR ESMX 190220Z AUTO 25007KT 9999NDV NCD 16/14 Q1013=
201307190150 METAR ESMX 190150Z AUTO 26006KT 230V290 9999NDV FEW011/// 16/14 Q1014=
201307190120 METAR ESMX 190120Z AUTO 26008KT 230V290 9999NDV FEW012/// 16/14 Q1014=
201307190050 METAR ESMX 190050Z AUTO 27010KT 9999NDV BKN012/// 17/14 Q1014=
201307190020 METAR ESMX 190020Z 25009KT 220V290 9999 SCT012 17/14 Q1014=
201307182350 METAR ESMX 182350Z 27007KT 9999 SCT013 17/14 Q1015=
201307182320 METAR ESMX 182320Z 26008KT CAVOK 17/14 Q1015=
201307182250 METAR ESMX 182250Z 25009KT 220V280 9999 FEW015 17/14 Q1015=
201307182220 METAR ESMX 182220Z 26009KT 9999 FEW015 18/14 Q1015=
201307182150 METAR ESMX 182150Z 27009KT CAVOK 18/14 Q1015=
201307182120 METAR ESMX 182120Z 27006KT CAVOK 18/14 Q1016=
201307182050 METAR ESMX 182050Z 28011KT 260V080 9999 FEW017 18/14 Q1016=
201307182020 METAR ESMX 182020Z 25010KT 230V300 9999 SCT020 18/14 Q1016=
201307181950 METAR ESMX 181950Z 25008KT 9999 FEW024 19/14 Q1016=
201307181920 METAR ESMX 181920Z 28008KT 250V310 CAVOK 19/14 Q1016=
201307181850 METAR ESMX 181850Z AUTO 27008KT 240V300 9999NDV NCD 20/14 Q1016=
201307181820 METAR ESMX 181820Z AUTO 28011KT 250V320 9999NDV NCD 21/13 Q1016=
201307181750 METAR ESMX 181750Z AUTO 28012G23KT 9999NDV NCD 21/13 Q1016=
201307181720 METAR ESMX 181720Z AUTO 27013KT 9999NDV NCD 21/13 Q1016=
201307181650 METAR ESMX 181650Z AUTO 28013KT 250V310 9999NDV NCD 22/12 Q1016=
201307181620 METAR ESMX 181620Z AUTO 28012KT 250V310 9999NDV FEW100/// 23/12 Q1016=
201307181550 METAR ESMX 181550Z AUTO 29014KT 9999NDV NCD 22/11 Q1016=
201307181520 METAR ESMX 181520Z AUTO 27013KT 240V310 9999NDV NCD 23/11 Q1017=
201307181450 METAR ESMX 181450Z AUTO 28012KT 240V320 9999NDV NCD 23/11 Q1017=
201307181420 METAR ESMX 181420Z AUTO 29014KT 9999NDV NCD 23/11 Q1017=
201307181350 METAR ESMX 181350Z AUTO 27013KT 230V290 9999NDV NCD 23/12 Q1017=
201307181320 METAR ESMX 181320Z AUTO 26013KT 230V300 9999NDV FEW040/// 23/12 Q1018=
201307181250 METAR ESMX 181250Z AUTO 25013KT 9999NDV FEW037/// 23/13 Q1018=
201307181220 METAR ESMX 181220Z AUTO 26013KT 230V300 9999NDV FEW036/// 23/13 Q1018=
201307181150 METAR ESMX 181150Z AUTO 26012KT 230V290 9999NDV BKN037/// 23/13 Q1018=
201307181120 METAR ESMX 181120Z AUTO 26011KT 200V290 9999NDV FEW038/// 23/12 Q1018=
201307181050 METAR ESMX 181050Z AUTO 29011KT 9999NDV FEW037/// 23/13 Q1018=
201307181020 METAR ESMX 181020Z AUTO 24010KT 9999NDV FEW096/// 23/14 Q1018=
201307180950 METAR ESMX 180950Z AUTO 25009KT 220V280 9999NDV FEW032/// 22/14 Q1018=
201307180850 METAR ESMX 180850Z AUTO 28010KT 260V340 9999NDV NCD 21/13 Q1019=
201307180820 METAR ESMX 180820Z AUTO 25010KT 9999NDV NCD 20/14 Q1019=
201307180750 METAR ESMX 180750Z AUTO 25009KT 220V290 9999NDV NCD 19/14 Q1019=
201307180720 METAR ESMX 180720Z AUTO 24008KT 190V270 9999NDV FEW012/// 18/14 Q1019=
201307180650 METAR ESMX 180650Z AUTO 26007KT 220V290 9999NDV SCT010/// 18/14 Q1019=
201307180620 METAR ESMX 180620Z AUTO 24008KT 210V280 9999NDV BKN008/// BKN011/// 16/14 Q1019=
201307180550 METAR ESMX 180550Z AUTO 24009KT 9999NDV OVC007/// 16/13 Q1019=
201307180520 METAR ESMX 180520Z AUTO 26009KT 9999NDV BKN006/// 15/13 Q1019=
201307180450 METAR ESMX 180450Z AUTO 26010KT 9999NDV OVC006/// 15/13 Q1019=
201307180420 METAR ESMX 180420Z AUTO 26007KT 9999NDV OVC006/// 15/13 Q1019=
201307180350 METAR ESMX 180350Z AUTO 26008KT 9999NDV OVC006/// 15/13 Q1019=
201307180320 METAR ESMX 180320Z AUTO 26007KT 9999NDV OVC006/// 14/13 Q1019=
201307180250 METAR ESMX 180250Z AUTO 25007KT 9999NDV OVC006/// 14/13 Q1019=
201307180220 METAR ESMX 180220Z AUTO 26007KT 9999NDV SCT005/// 14/13 Q1019=
201307180150 METAR ESMX 180150Z AUTO 26007G51KT 9999NDV NCD 14/13 Q1019=
201307180120 METAR ESMX 180120Z AUTO 26006KT 9999NDV NCD 14/13 Q1019=
201307180050 METAR ESMX 180050Z AUTO 27006KT 9999NDV NCD 15/13 Q1019=
201307180020 METAR ESMX 180020Z AUTO 27006KT 250V050 9999NDV NCD 15/12 Q1020=
201307172350 METAR ESMX 172350Z 26005KT CAVOK 15/12 Q1020=
201307172320 METAR ESMX 172320Z 26005KT CAVOK 15/12 Q1020=
201307172250 METAR ESMX 172250Z 24004KT CAVOK 15/11 Q1020=
201307172220 METAR ESMX 172220Z 25003KT CAVOK 16/12 Q1020=
201307172150 METAR ESMX 172150Z 27005KT CAVOK 17/12 Q1020=
201307172120 METAR ESMX 172120Z 24004KT 220V280 CAVOK 17/11 Q1020=
201307172050 METAR ESMX 172050Z 28004KT CAVOK 18/12 Q1020=
201307172020 METAR ESMX 172020Z 27005KT CAVOK 19/12 Q1020=
201307171950 METAR ESMX 171950Z 27007KT CAVOK 20/12 Q1020=
201307171920 METAR ESMX 171920Z 27008KT CAVOK 21/12 Q1020=
201307171850 METAR ESMX 171850Z AUTO 26010KT 230V300 9999NDV NCD 22/12 Q1019=
201307171820 METAR ESMX 171820Z AUTO 28011KT 9999NDV NCD 23/12 Q1019=
201307171750 METAR ESMX 171750Z AUTO 26009KT 220V290 9999NDV NCD 24/13 Q1019=
201307171720 METAR ESMX 171720Z AUTO 26010KT 9999NDV NCD 24/13 Q1019=
201307171650 METAR ESMX 171650Z AUTO 26010KT 9999NDV NCD 25/13 Q1019=
201307171620 METAR ESMX 171620Z AUTO 26010KT 230V290 9999NDV NCD 25/14 Q1019=
201307171550 METAR ESMX 171550Z AUTO 28009KT 250V320 9999NDV FEW053/// 25/14 Q1019=
201307171520 METAR ESMX 171520Z AUTO 28009KT 9999NDV FEW047/// SCT053/// 25/14 Q1019=
201307171450 METAR ESMX 171450Z AUTO 26009KT 230V320 9999NDV FEW046/// 25/14 Q1019=
201307171420 METAR ESMX 171420Z AUTO 28007KT 240V330 9999NDV FEW048/// SCT054/// 25/14 Q1019=
201307171350 METAR ESMX 171350Z AUTO 28007KT 250V320 9999NDV FEW049/// 24/14 Q1019=
201307171320 METAR ESMX 171320Z AUTO 30008KT 250V340 9999NDV FEW044/// 25/13 Q1019=
201307171250 METAR ESMX 171250Z AUTO 30008KT 250V330 9999NDV FEW041/// SCT048/// 25/14 Q1019=
201307171220 METAR ESMX 171220Z AUTO 28009KT 240V320 9999NDV FEW041/// 24/14 Q1019=
201307171150 METAR ESMX 171150Z AUTO 31010KT 280V340 9999NDV FEW040/// 24/13 Q1019=
201307171120 METAR ESMX 171120Z AUTO 30010KT 9999NDV FEW039/// 24/13 Q1019=
201307171050 METAR ESMX 171050Z AUTO 29008KT 250V330 9999NDV NCD 24/14 Q1019=
201307171020 METAR ESMX 171020Z AUTO 28009KT 240V320 9999NDV NCD 23/14 Q1019=
201307170950 METAR ESMX 170950Z AUTO 27009KT 230V320 9999NDV NCD 23/13 Q1019=
201307170920 METAR ESMX 170920Z AUTO 26008KT 230V290 9999NDV NCD 22/13 Q1019=
201307170850 METAR ESMX 170850Z AUTO 25008KT 200V280 9999NDV NCD 21/13 Q1019=
201307170820 METAR ESMX 170820Z AUTO 27007KT 230V300 9999NDV NCD 20/13 Q1019=
201307170750 METAR ESMX 170750Z AUTO 26006KT 220V290 9999NDV NCD 20/14 Q1019=
201307170720 METAR ESMX 170720Z AUTO 26006KT 230V300 9999NDV NCD 18/14 Q1019=
201307170650 METAR ESMX 170650Z AUTO 26006KT 230V300 9999NDV FEW010/// SCT013/// 17/14 Q1019=
201307170620 METAR ESMX 170620Z AUTO 26006KT 9999NDV BKN010/// 16/13 Q1019=
201307170550 METAR ESMX 170550Z AUTO 27007KT 9999NDV OVC009/// 16/13 Q1019=
201307170520 METAR ESMX 170520Z AUTO 28006KT 240V320 9999NDV OVC009/// 15/13 Q1019=
201307170450 METAR ESMX 170450Z AUTO 29006KT 250V330 9999NDV OVC009/// 15/12 Q1019=
201307170420 METAR ESMX 170420Z AUTO 29006KT 260V330 9999NDV OVC009/// 15/13 Q1019=
201307170350 METAR ESMX 170350Z AUTO 27006KT 250V320 9999NDV OVC008/// 14/12 Q1018=
201307170320 METAR ESMX 170320Z AUTO 28007KT 250V320 9999NDV OVC008/// 14/12 Q1018=
201307170250 METAR ESMX 170250Z AUTO 27007KT 9999NDV OVC009/// 14/13 Q1018=
201307170220 METAR ESMX 170220Z AUTO 27007KT 9999NDV OVC009/// 14/12 Q1018=
201307170150 METAR ESMX 170150Z AUTO 26005KT 9999NDV FEW011/// 13/12 Q1018=
201307170120 METAR ESMX 170120Z AUTO 23004KT 9999NDV NCD 13/12 Q1018=
201307170050 METAR ESMX 170050Z AUTO 25005KT 9999NDV NCD 14/12 Q1018=
201307170020 METAR ESMX 170020Z AUTO 25004KT 210V280 9999NDV NCD 14/12 Q1018=
201307162350 METAR ESMX 162350Z 24005KT CAVOK 14/12 Q1018=
201307162320 METAR ESMX 162320Z 24006KT CAVOK 14/12 Q1018=
201307162250 METAR ESMX 162250Z 23005KT CAVOK 14/12 Q1018=
201307162220 METAR ESMX 162220Z 22005KT 9999 FEW034 15/12 Q1018=
201307162150 METAR ESMX 162150Z 23005KT CAVOK 15/12 Q1018=
201307162120 METAR ESMX 162120Z 24005KT CAVOK 15/12 Q1018=
201307162050 METAR ESMX 162050Z 26006KT CAVOK 16/12 Q1018=
201307162020 METAR ESMX 162020Z 27006KT CAVOK 17/12 Q1018=
201307161950 METAR ESMX 161950Z 27007KT CAVOK 17/12 Q1018=
201307161920 METAR ESMX 161920Z 27008KT 250V320 CAVOK 18/12 Q1018=
201307161850 METAR ESMX 161850Z 27008KT 9999 FEW030 19/12 Q1018=
201307161820 METAR ESMX 161820Z 26011KT CAVOK 19/12 Q1018=
201307161750 METAR ESMX 161750Z AUTO 26011KT 220V290 9999NDV NCD 21/12 Q1017=
201307161720 METAR ESMX 161720Z 27010KT 230V290 CAVOK 21/12 Q1017=
201307161650 METAR ESMX 161650Z 27011KT 230V300 9999 FEW040 21/12 Q1017=
201307161620 METAR ESMX 161620Z 28011KT 240V320 9999 FEW040 22/12 Q1017=
201307161550 METAR ESMX 161550Z 27012KT 240V300 9999 FEW036 21/12 Q1017=
201307161520 METAR ESMX 161520Z 26011KT 230V300 9999 SCT035 21/12 Q1017=
201307161450 METAR ESMX 161450Z 26012KT 220V290 9999 SCT035 21/12 Q1017=
201307161420 METAR ESMX 161420Z 26011KT 230V290 9999 SCT035 21/12 Q1017=
201307161350 METAR ESMX 161350Z 27013KT 9999 BKN035 21/12 Q1017=
201307161320 METAR ESMX 161320Z AUTO 27013KT 230V310 9999NDV FEW033/// SCT037/// BKN042/// 21/12 Q1017=
201307161250 METAR ESMX 161250Z AUTO 26014KT 230V300 9999NDV FEW033/// SCT037/// 22/13 Q1017=
201307161220 METAR ESMX 161220Z AUTO 28011KT 240V320 9999NDV FEW033/// SCT041/// 22/12 Q1017=
201307161150 METAR ESMX 161150Z AUTO 27014KT 9999NDV SCT030/// BKN038/// 21/13 Q1017=
201307161120 METAR ESMX 161120Z AUTO 28014KT 250V320 9999NDV SCT029/// BKN037/// 21/12 Q1017=
201307161050 METAR ESMX 161050Z AUTO 28012KT 250V320 9999NDV FEW028/// BKN031/// 20/12 Q1017=
201307161020 METAR ESMX 161020Z AUTO 28014KT 240V320 9999NDV SCT027/// 20/12 Q1017=
201307160950 METAR ESMX 160950Z AUTO 29015KT 260V320 9999NDV FEW023/// SCT029/// BKN032/// 20/13 Q1017=
201307160920 METAR ESMX 160920Z AUTO 27012KT 240V310 9999NDV FEW023/// SCT027/// 19/13 Q1017=
201307160550 METAR ESMX 160550Z AUTO 29011KT 9999NDV FEW018/// BKN020/// 16/11 Q1016=
201307160520 METAR ESMX 160520Z AUTO 29010KT 9999NDV BKN018/// 15/11 Q1016=
201307160450 METAR ESMX 160450Z AUTO 27010KT 9999NDV FEW018/// BKN020/// 15/11 Q1016=
201307160420 METAR ESMX 160420Z AUTO 27008KT 9999NDV FEW020/// 15/11 Q1016=
201307160350 METAR ESMX 160350Z AUTO 27010KT 9999NDV BKN020/// 14/11 Q1016=
201307160320 METAR ESMX 160320Z AUTO 28009KT 9999NDV BKN019/// 14/11 Q1016=
201307160250 METAR ESMX 160250Z AUTO 27009KT 9999NDV BKN018/// 14/11 Q1015=
201307160220 METAR ESMX 160220Z AUTO 27008KT 240V300 9999NDV BKN019/// 14/11 Q1015=
201307160150 METAR ESMX 160150Z AUTO 26010KT 240V300 9999NDV BKN019/// 14/11 Q1015=
201307160120 METAR ESMX 160120Z AUTO 27010KT 9999NDV FEW018/// BKN020/// 14/11 Q1015=
201307160050 METAR ESMX 160050Z AUTO 27010KT 250V310 9999NDV BKN019/// 15/11 Q1015=
201307160020 METAR ESMX 160020Z AUTO 27010KT 9999NDV FEW017/// OVC020/// 15/11 Q1015=
201307152350 METAR ESMX 152350Z 27009KT 9999 OVC018 15/11 Q1015=
201307152320 METAR ESMX 152320Z 27010KT 230V290 9999 OVC018 15/11 Q1015=
201307152250 METAR ESMX 152250Z 27009KT 240V310 9999 FEW017 OVC020 16/11 Q1015=
201307152220 METAR ESMX 152220Z AUTO 28008KT 240V310 9999NDV OVC022/// 16/11 Q1015=
201307152150 METAR ESMX 152150Z AUTO 28012KT 250V320 9999NDV OVC023/// 16/11 Q1015=
201307152120 METAR ESMX 152120Z 27015KT 9999 OVC024 16/11 Q1015=
201307152050 METAR ESMX 152050Z 27012G24KT 9999 BKN025 16/11 Q1014=
201307152020 METAR ESMX 152020Z 28014KT 250V310 9999 BKN027 16/11 Q1014=
201307151950 METAR ESMX 151950Z 26013KT 240V300 9999 BKN031 17/11 Q1014=
201307151920 METAR ESMX 151920Z 27011KT 9999 FEW026 SCT031 BKN035 17/12 Q1014=
201307151850 METAR ESMX 151850Z 26013KT 9999 FEW024 BKN031 17/12 Q1014=
201307151820 METAR ESMX 151820Z 26012KT 9999 FEW024 OVC031 17/12 Q1014=
201307151750 METAR ESMX 151750Z 26015KT 210V280 9999 BKN023 17/12 Q1014=
201307151720 METAR ESMX 151720Z 25012KT 210V270 9999 FEW026 BKN030 17/12 Q1014=
201307151650 METAR ESMX 151650Z 27014KT 9999 FEW029 SCT033 18/11 Q1014=
201307151620 METAR ESMX 151620Z 26011KT 230V300 9999 FEW033 OVC040 18/11 Q1014=
201307151550 METAR ESMX 151550Z 27013G24KT 250V310 9999 SCT033 BKN042 18/11 Q1014=
201307151520 METAR ESMX 151520Z 26012KT 230V290 9999 SCT032 BKN039 18/11 Q1015=
201307151450 METAR ESMX 151450Z 26011KT 9999 BKN030 18/12 Q1015=
201307151420 METAR ESMX 151420Z 24011KT 210V280 9999 FEW024 BKN034 17/12 Q1015=
201307151350 METAR ESMX 151350Z 24011KT 9999 FEW017 BKN024 17/12 Q1015=
201307151322 METAR ESMX 151322Z 25010KT 9999 FEW020 BKN023 17/12 Q1015=
201307151250 METAR ESMX 151250Z 27011KT 230V290 9999 BKN021 17/11 Q1015=
201307151220 METAR ESMX 151220Z 27012KT 220V300 9999 BKN023 17/11 Q1015=
201307151150 METAR ESMX 151150Z 27011G22KT 240V300 9999 OVC027 17/10 Q1015=
201307151120 METAR ESMX 151120Z 26010KT 230V290 9999 BKN032 17/10 Q1016=
201307151050 METAR ESMX 151050Z 27013KT 230V300 9999 FEW031 SCT037 18/10 Q1015=
201307151020 METAR ESMX 151020Z AUTO 28014KT 9999NDV FEW031/// OVC037/// 18/10 Q1015=
201307150950 METAR ESMX 150950Z 30013KT 9999 BKN033 18/10 Q1015=
201307150920 METAR ESMX 150920Z 26014KT 240V300 9999 FEW028 SCT035 18/10 Q1015=
201307150820 METAR ESMX 150820Z 29012KT 9999 SCT032 18/11 Q1015=
201307150750 METAR ESMX 150750Z 27013KT CAVOK 18/09 Q1015=
201307150720 METAR ESMX 150720Z 27011KT 230V300 CAVOK 18/10 Q1015=
201307150650 METAR ESMX 150650Z AUTO 26009KT 220V290 9999NDV NCD 17/09 Q1015=
201307150620 METAR ESMX 150620Z AUTO 28007KT 9999NDV NCD 16/10 Q1015=
201307150550 METAR ESMX 150550Z AUTO 28007KT 9999NDV NCD 15/12 Q1015=
201307150520 METAR ESMX 150520Z AUTO 27007KT 9999NDV FEW003/// 14/11 Q1015=
201307150450 METAR ESMX 150450Z AUTO 26008KT 9999NDV SCT002/// 13/11 Q1015=
201307150420 METAR ESMX 150420Z AUTO 25006KT 9999NDV NCD 13/11 Q1015=
201307150350 METAR ESMX 150350Z AUTO 26005KT 9999NDV NCD 11/10 Q1015=
201307150320 METAR ESMX 150320Z AUTO 26004KT 9999NDV NCD 09/08 Q1015=
201307150250 METAR ESMX 150250Z AUTO 26004KT 9999NDV NCD 09/08 Q1015=
201307150220 METAR ESMX 150220Z AUTO 25003KT 9999NDV NCD 10/08 Q1015=
201307150150 METAR ESMX 150150Z AUTO 26004KT 9999NDV NCD 10/08 Q1015=
201307150120 METAR ESMX 150120Z AUTO 25003KT 9999NDV NCD 10/08 Q1015=
201307150050 METAR ESMX 150050Z AUTO 26003KT 9999NDV NCD 11/09 Q1015=
201307150020 METAR ESMX 150020Z AUTO 27004KT 9999NDV NCD 12/09 Q1015=
201307142350 METAR ESMX 142350Z AUTO 28004KT 9999NDV NCD 12/09 Q1015=
201307142320 METAR ESMX 142320Z 29004KT CAVOK 12/09 Q1015=
201307142250 METAR ESMX 142250Z 29004KT CAVOK 12/09 Q1015=
201307142220 METAR ESMX 142220Z 29005KT CAVOK 13/09 Q1015=
201307142150 METAR ESMX 142150Z 29006KT CAVOK 13/10 Q1015=
201307142120 METAR ESMX 142120Z 30005KT CAVOK 15/10 Q1014=
201307142050 METAR ESMX 142050Z 30007KT 9999 FEW035 16/11 Q1014=
201307142020 METAR ESMX 142020Z 29006KT 9999 FEW034 BKN039 16/11 Q1014=
201307141950 METAR ESMX 141950Z 29006KT 9999 BKN032 16/11 Q1014=
201307141920 METAR ESMX 141920Z 29007KT 9999 BKN034 17/11 Q1013=
201307141850 METAR ESMX 141850Z 27007KT 9999 SCT036 BKN051 OVC071 17/11 Q1013=
201307141820 METAR ESMX 141820Z 28008KT 9999 BKN038 17/10 Q1013=
201307141750 METAR ESMX 141750Z 26008KT 9999 FEW048 18/10 Q1013=
201307141720 METAR ESMX 141720Z 28010KT CAVOK 18/10 Q1013=
201307141650 METAR ESMX 141650Z 28010KT 230V300 9999 FEW042 BKN057 19/10 Q1012=
201307141620 METAR ESMX 141620Z 28010KT CAVOK 19/10 Q1012=
201307141550 METAR ESMX 141550Z 29010KT 9999 BKN045 19/10 Q1012=
201307141520 METAR ESMX 141520Z 29011KT 9999 BKN047 20/10 Q1012=
201307141450 METAR ESMX 141450Z 28010KT 9999 FEW046 BKN055 20/10 Q1012=
201307141420 METAR ESMX 141420Z 31011KT 280V340 9999 FEW043 BKN053 20/10 Q1012=
201307141350 METAR ESMX 141350Z 30008KT CAVOK 21/11 Q1012=
201307141320 METAR ESMX 141320Z 28009KT 230V320 9999 FEW040 21/12 Q1012=
201307141250 METAR ESMX 141250Z 27011KT 9999 SCT036 20/12 Q1012=
201307141220 METAR ESMX 141220Z 28009KT 250V320 9999 FEW034 SCT042 20/11 Q1012=
201307141150 METAR ESMX 141150Z 29010KT 260V330 9999 FEW031 SCT036 21/12 Q1012=
201307141120 METAR ESMX 141120Z AUTO 27011KT 240V330 9999NDV FEW029/// SCT082/// 20/12 Q1012=
201307141050 METAR ESMX 141050Z AUTO 27010KT 220V310 9999NDV FEW030/// 19/12 Q1013=
201307141020 METAR ESMX 141020Z AUTO 26011KT 220V280 9999NDV FEW065/// 19/11 Q1013=
201307140950 METAR ESMX 140950Z AUTO 25009KT 190V280 9999NDV FEW058/// 19/11 Q1013=
201307140920 METAR ESMX 140920Z AUTO 28010KT 250V310 9999NDV FEW055/// 18/12 Q1013=
201307140850 METAR ESMX 140850Z AUTO 26009KT 9999NDV FEW055/// 18/12 Q1012=
201307140820 METAR ESMX 140820Z AUTO 25007KT 9999NDV SCT018/// 17/12 Q1013=
201307140750 METAR ESMX 140750Z AUTO 24008KT 210V280 9999NDV BKN017/// 17/12 Q1013=
201307140720 METAR ESMX 140720Z AUTO 26009KT 9999NDV SCT015/// 16/12 Q1013=
201307140650 METAR ESMX 140650Z AUTO 28009KT 9999NDV SCT013/// 16/12 Q1013=
201307140620 METAR ESMX 140620Z AUTO 26009KT 240V300 9999NDV BKN012/// 16/12 Q1013=
201307140550 METAR ESMX 140550Z AUTO 26008KT 220V290 9999NDV BKN012/// 16/12 Q1013=
201307140520 METAR ESMX 140520Z AUTO 25009KT 220V280 9999NDV OVC011/// 16/13 Q1013=
201307140450 METAR ESMX 140450Z AUTO 26008KT 210V290 9999NDV OVC010/// 16/13 Q1013=
201307140420 METAR ESMX 140420Z AUTO 25009KT 210V280 9999NDV OVC010/// 16/13 Q1013=
201307140350 METAR ESMX 140350Z AUTO 27009KT 250V330 9999NDV OVC009/// 16/13 Q1013=
201307140320 METAR ESMX 140320Z AUTO 26007KT 9999NDV OVC010/// 16/13 Q1013=
201307140250 METAR ESMX 140250Z AUTO 27008KT 9999NDV OVC011/// 16/14 Q1013=
201307140220 METAR ESMX 140220Z AUTO 27007KT 240V300 9999NDV OVC010/// 16/14 Q1013=
201307140150 METAR ESMX 140150Z AUTO 26005KT 9999NDV OVC010/// 16/14 Q1014=
201307140120 METAR ESMX 140120Z AUTO 27004KT 240V300 9999NDV FEW008/// OVC011/// 16/14 Q1014=
201307140050 METAR ESMX 140050Z AUTO 27006KT 9999NDV OVC008/// 16/14 Q1014=
201307140020 METAR ESMX 140020Z AUTO 25005KT 220V280 9999NDV OVC009/// 16/14 Q1014=
201307132350 METAR ESMX 132350Z AUTO 26005KT 9999NDV FEW009/// BKN010/// 16/14 Q1014=
201307132320 METAR ESMX 132320Z AUTO 26004KT 9999NDV SCT007/// OVC009/// 15/14 Q1015=
201307132250 METAR ESMX 132250Z AUTO 27007KT 230V290 9999NDV BKN007/// OVC010/// 15/13 Q1015=
201307132220 METAR ESMX 132220Z AUTO 24003KT 210V280 9999NDV FEW011/// 14/12 Q1015=
201307132150 METAR ESMX 132150Z AUTO 24004KT 9999NDV NCD 14/11 Q1015=
201307132120 METAR ESMX 132120Z AUTO 25004KT 9999NDV NCD 14/11 Q1015=
201307132050 METAR ESMX 132050Z AUTO 24005KT 9999NDV NCD 15/10 Q1015=
201307132020 METAR ESMX 132020Z AUTO 25005KT 9999NDV NCD 16/10 Q1015=
201307131950 METAR ESMX 131950Z AUTO 24006KT 9999NDV NCD 17/09 Q1015=
201307131920 METAR ESMX 131920Z AUTO 25007KT 9999NDV NCD 18/10 Q1015=
201307131850 METAR ESMX 131850Z AUTO 26006KT 9999NDV NCD 20/10 Q1015=
201307131820 METAR ESMX 131820Z AUTO 26008KT 9999NDV NCD 21/11 Q1015=
201307131750 METAR ESMX 131750Z AUTO 25009KT 9999NDV NCD 22/10 Q1015=
201307131720 METAR ESMX 131720Z AUTO 26009KT 230V290 9999NDV NCD 23/10 Q1015=
201307131650 METAR ESMX 131650Z AUTO 26007KT 210V290 9999NDV NCD 24/10 Q1015=
201307131620 METAR ESMX 131620Z AUTO 25007KT 210V290 9999NDV NCD 25/10 Q1015=
201307131550 METAR ESMX 131550Z AUTO 27007KT 250V310 9999NDV NCD 25/11 Q1015=
201307131520 METAR ESMX 131520Z AUTO 24006KT 200V310 9999NDV FEW054/// 24/11 Q1016=
201307131450 METAR ESMX 131450Z AUTO 29004KT 200V360 9999NDV FEW055/// 25/12 Q1016=
201307131420 METAR ESMX 131420Z AUTO 26006KT 210V320 9999NDV SCT053/// 25/11 Q1016=
201307131350 METAR ESMX 131350Z AUTO 24007KT 210V270 9999NDV NCD 25/11 Q1016=
201307131320 METAR ESMX 131320Z AUTO 29006KT 230V340 9999NDV NCD 24/10 Q1016=
201307131250 METAR ESMX 131250Z AUTO 32007KT 260V020 9999NDV NCD 25/10 Q1016=
201307131220 METAR ESMX 131220Z AUTO 28004KT 250V320 9999NDV FEW051/// 25/11 Q1017=
201307131150 METAR ESMX 131150Z AUTO 35004KT 300V080 9999NDV NCD 23/12 Q1017=
201307131120 METAR ESMX 131120Z AUTO 02005KT 320V060 9999NDV FEW047/// 24/12 Q1017=
201307131050 METAR ESMX 131050Z AUTO 01006KT 330V030 9999NDV NCD 24/11 Q1017=
201307131020 METAR ESMX 131020Z AUTO 01004KT 320V130 9999NDV NCD 23/12 Q1017=
201307130950 METAR ESMX 130950Z AUTO 01004KT 320V070 9999NDV NCD 22/11 Q1018=
201307130920 METAR ESMX 130920Z AUTO VRB02KT 9999NDV NCD 22/12 Q1018=
201307130850 METAR ESMX 130850Z AUTO 03003KT 300V100 9999NDV NCD 21/11 Q1018=
201307130820 METAR ESMX 130820Z AUTO 03004KT 9999NDV NCD 21/11 Q1018=
201307130750 METAR ESMX 130750Z AUTO 02004KT 350V060 9999NDV NCD 21/12 Q1018=
201307130720 METAR ESMX 130720Z AUTO 28003KT 210V340 9999NDV NCD 20/11 Q1018=
201307130650 METAR ESMX 130650Z AUTO 29004KT 9999NDV NCD 19/10 Q1018=
201307130620 METAR ESMX 130620Z AUTO VRB02KT 9999NDV NCD 18/11 Q1019=
201307130550 METAR ESMX 130550Z AUTO 00000KT 9999NDV NCD 17/11 Q1019=
201307130520 METAR ESMX 130520Z AUTO VRB01KT 9999NDV NCD 16/12 Q1019=
201307130450 METAR ESMX 130450Z AUTO 00000KT 9999NDV NCD 14/11 Q1019=
201307130420 METAR ESMX 130420Z AUTO 00000KT 9999NDV NCD 10/09 Q1019=
201307130350 METAR ESMX 130350Z AUTO 00000KT 9999NDV NCD 08/08 Q1019=
201307130320 METAR ESMX 130320Z AUTO 00000KT 9999NDV NCD 08/07 Q1019=
201307130250 METAR ESMX 130250Z AUTO 00000KT 9999NDV NCD 08/07 Q1019=
201307130220 METAR ESMX 130220Z AUTO 00000KT 9999NDV NCD 07/06 Q1019=
201307130150 METAR ESMX 130150Z AUTO 00000KT 9999NDV NCD 08/06 Q1019=
201307130120 METAR ESMX 130120Z AUTO 00000KT 9999NDV NCD 08/07 Q1019=
201307130050 METAR ESMX 130050Z AUTO 00000KT 9999NDV NCD 08/07 Q1019=
201307130020 METAR ESMX 130020Z AUTO 00000KT 9999NDV NCD 08/07 Q1019=
201307122350 METAR ESMX 122350Z AUTO 00000KT 9999NDV NCD 09/07 Q1019=
201307122320 METAR ESMX 122320Z AUTO 00000KT 9999NDV NCD 10/08 Q1019=
201307122250 METAR ESMX 122250Z AUTO 00000KT 9999NDV NCD 10/08 Q1019=
201307122220 METAR ESMX 122220Z AUTO VRB01KT 9999NDV NCD 11/08 Q1019=
201307122150 METAR ESMX 122150Z AUTO VRB01KT 9999NDV NCD 13/09 Q1019=
201307122120 METAR ESMX 122120Z AUTO VRB02KT 9999NDV NCD 15/09 Q1019=
201307122050 METAR ESMX 122050Z AUTO 11004KT 050V150 9999NDV NCD 16/10 Q1019=
201307122020 METAR ESMX 122020Z AUTO 12005KT 090V150 9999NDV NCD 17/12 Q1019=
201307121950 METAR ESMX 121950Z AUTO 13005KT 070V160 9999NDV NCD 18/12 Q1019=
201307121920 METAR ESMX 121920Z AUTO 11005KT 070V140 9999NDV NCD 20/11 Q1018=
201307121850 METAR ESMX 121850Z AUTO 03004KT 9999NDV NCD 20/08 Q1018=
201307121820 METAR ESMX 121820Z AUTO 03005KT 9999NDV NCD 22/07 Q1018=
201307121750 METAR ESMX 121750Z AUTO 03006KT 9999NDV NCD 23/08 Q1018=
201307121720 METAR ESMX 121720Z AUTO 01007KT 9999NDV NCD 23/07 Q1018=
201307121650 METAR ESMX 121650Z AUTO 34006KT 320V020 9999NDV NCD 23/06 Q1018=
201307121620 METAR ESMX 121620Z AUTO 01006KT 340V060 9999NDV NCD 23/08 Q1018=
201307121550 METAR ESMX 121550Z 01008KT CAVOK 23/07 Q1018=
201307121520 METAR ESMX 121520Z 36007KT 330V030 CAVOK 24/08 Q1018=
201307121450 METAR ESMX 121450Z 02005KT 320V050 CAVOK 24/07 Q1018=
201307121420 METAR ESMX 121420Z 35006KT 320V030 CAVOK 23/07 Q1018=
201307121350 METAR ESMX 121350Z 01005KT 320V030 CAVOK 23/07 Q1018=
201307121320 METAR ESMX 121320Z 36003KT 300V100 CAVOK 23/07 Q1018=
201307121250 METAR ESMX 121250Z 02005KT 330V080 CAVOK 23/08 Q1019=
201307121220 METAR ESMX 121220Z 35005KT 280V040 CAVOK 22/07 Q1019=
201307121150 METAR ESMX 121150Z 35005KT 320V080 CAVOK 22/08 Q1019=
201307121120 METAR ESMX 121120Z VRB03KT CAVOK 22/09 Q1019=
201307121050 METAR ESMX 121050Z AUTO 02006KT 330V060 9999NDV NCD 21/08 Q1019=
201307121020 METAR ESMX 121020Z AUTO 34006KT 300V040 9999NDV NCD 21/08 Q1019=
201307120950 METAR ESMX 120950Z 35005KT 290V040 CAVOK 21/09 Q1019=
201307120920 METAR ESMX 120920Z 03005KT 360V070 CAVOK 20/09 Q1020=
201307120850 METAR ESMX 120850Z 01005KT 310V050 CAVOK 20/11 Q1020=
201307120820 METAR ESMX 120820Z 03006KT CAVOK 19/11 Q1020=
201307120750 METAR ESMX 120750Z 04005KT 010V080 CAVOK 18/12 Q1020=
201307120720 METAR ESMX 120720Z 04005KT CAVOK 18/11 Q1020=
201307120650 METAR ESMX 120650Z AUTO 01004KT 340V050 9999NDV NCD 17/11 Q1019=
201307120620 METAR ESMX 120620Z AUTO 36003KT 300V050 9999NDV NCD 16/11 Q1019=
201307120550 METAR ESMX 120550Z AUTO 02003KT 340V050 9999NDV NCD 14/12 Q1019=
201307120520 METAR ESMX 120520Z AUTO 01002KT 9999NDV NCD 13/12 Q1019=
201307120450 METAR ESMX 120450Z AUTO VRB02KT 9999NDV BKN002/// 11/11 Q1019=
201307120420 METAR ESMX 120420Z AUTO 00000KT 9999NDV FEW002/// 09/08 Q1019=
201307120350 METAR ESMX 120350Z AUTO 00000KT 5000NDV NCD 07/06 Q1019=
201307120320 METAR ESMX 120320Z AUTO 00000KT 5000NDV NCD 06/05 Q1019=
201307120250 METAR ESMX 120250Z AUTO 00000KT 9999NDV NCD 06/06 Q1019=
201307120220 METAR ESMX 120220Z AUTO 18001KT 9999NDV BKN048/// 07/06 Q1019=
201307120150 METAR ESMX 120150Z AUTO 00000KT 9999NDV NCD 07/06 Q1019=
201307120120 METAR ESMX 120120Z AUTO 00000KT 1500NDV NCD 07/06 Q1019=
201307120050 METAR ESMX 120050Z AUTO 00000KT 9999NDV NCD 07/06 Q1019=
201307120020 METAR ESMX 120020Z 00000KT CAVOK 08/07 Q1019=
201307112350 METAR ESMX 112350Z 00000KT CAVOK 08/07 Q1019=
201307112320 METAR ESMX 112320Z 18001KT CAVOK 09/08 Q1019=
201307112250 METAR ESMX 112250Z 00000KT CAVOK 09/08 Q1019=
201307112220 METAR ESMX 112220Z 00000KT CAVOK 10/09 Q1019=
201307112150 METAR ESMX 112150Z 00000KT CAVOK 11/09 Q1019=
201307112120 METAR ESMX 112120Z 12002KT CAVOK 11/10 Q1019=
201307112050 METAR ESMX 112050Z 13001KT CAVOK 11/09 Q1018=
201307112020 METAR ESMX 112020Z VRB01KT CAVOK 13/10 Q1018=
201307111950 METAR ESMX 111950Z 10003KT CAVOK 14/11 Q1018=
201307111920 METAR ESMX 111920Z 09003KT 060V130 CAVOK 15/12 Q1018=
201307111850 METAR ESMX 111850Z AUTO 14002KT 9999NDV NCD 17/11 Q1018=
201307111820 METAR ESMX 111820Z AUTO 10003KT 050V140 9999NDV NCD 18/11 Q1017=
201307111750 METAR ESMX 111750Z AUTO 10003KT 060V150 9999NDV NCD 18/11 Q1017=
201307111720 METAR ESMX 111720Z AUTO 11004KT 070V150 9999NDV NCD 19/11 Q1017=
201307111650 METAR ESMX 111650Z AUTO 09005KT 050V120 9999NDV BKN063/// 19/11 Q1017=
201307111620 METAR ESMX 111620Z AUTO 08006KT 020V130 9999NDV BKN060/// 19/11 Q1017=
201307111550 METAR ESMX 111550Z 07006KT 030V110 CAVOK 19/12 Q1017=
201307111520 METAR ESMX 111520Z 07004KT 030V110 CAVOK 18/11 Q1017=
201307111450 METAR ESMX 111450Z 06006KT 020V110 9999 BKN049 19/11 Q1017=
201307111420 METAR ESMX 111420Z 07006KT 030V110 9999 BKN045 18/11 Q1017=
201307111350 METAR ESMX 111350Z 04006KT 010V070 9999 BKN038 18/11 Q1017=
201307111320 METAR ESMX 111320Z 04006KT 360V110 9999 FEW035 BKN044 19/11 Q1017=
201307111250 METAR ESMX 111250Z 02008KT 350V070 9999 FEW040 BKN051 19/11 Q1017=
201307111220 METAR ESMX 111220Z 03008KT 350V070 9999 FEW041 BKN048 20/10 Q1017=
201307111150 METAR ESMX 111150Z 02008KT 350V070 9999 FEW039 BKN046 19/10 Q1017=
201307111120 METAR ESMX 111120Z 02010KT 9999 FEW036 BKN043 19/10 Q1017=
201307111050 METAR ESMX 111050Z 01012KT 9999 FEW034 BKN043 19/10 Q1017=
201307111020 METAR ESMX 111020Z 02012KT 9999 FEW032 BKN040 18/10 Q1017=
201307110950 METAR ESMX 110950Z 02013KT 9999 FEW031 SCT043 19/10 Q1017=
201307110920 METAR ESMX 110920Z 03011KT 360V060 9999 FEW031 18/11 Q1017=
201307110850 METAR ESMX 110850Z 03011KT 9999 FEW027 17/10 Q1017=
201307110820 METAR ESMX 110820Z 03011KT 350V060 9999 FEW025 17/10 Q1017=
201307110750 METAR ESMX 110750Z 01012KT 9999 FEW025 16/10 Q1017=
201307110720 METAR ESMX 110720Z 01013KT CAVOK 16/10 Q1016=
201307110650 METAR ESMX 110650Z 01016KT CAVOK 15/09 Q1016=
201307110620 METAR ESMX 110620Z 01015KT CAVOK 14/09 Q1016=
201307110550 METAR ESMX 110550Z AUTO 01016KT 9999NDV NCD 14/09 Q1016=
201307110520 METAR ESMX 110520Z AUTO 01015KT 9999NDV NCD 14/09 Q1016=
201307110450 METAR ESMX 110450Z AUTO 36015KT 9999NDV NCD 13/09 Q1016=
201307110420 METAR ESMX 110420Z AUTO 35013KT 9999NDV NCD 13/09 Q1016=
201307110350 METAR ESMX 110350Z AUTO 35012KT 9999NDV NCD 12/09 Q1016=
201307110320 METAR ESMX 110320Z AUTO 34011KT 9999NDV NCD 12/09 Q1016=
201307110250 METAR ESMX 110250Z AUTO 34011KT 9999NDV NCD 12/09 Q1016=
201307110220 METAR ESMX 110220Z AUTO 34010KT 9999NDV NCD 12/09 Q1016=
201307110150 METAR ESMX 110150Z AUTO 34009KT 9999NDV NCD 12/09 Q1016=
201307110120 METAR ESMX 110120Z AUTO 34011KT 9999NDV NCD 12/09 Q1016=
201307110050 METAR ESMX 110050Z AUTO 34011KT 9999NDV BKN094/// 13/10 Q1016=
201307110020 METAR ESMX 110020Z AUTO 35010KT 9999NDV SCT056/// BKN096/// 13/10 Q1016=
201307102350 METAR ESMX 102350Z 34011KT CAVOK 13/10 Q1016=
201307102320 METAR ESMX 102320Z 34010KT CAVOK 13/10 Q1015=
201307102250 METAR ESMX 102250Z 33010KT CAVOK 13/10 Q1016=
201307102220 METAR ESMX 102220Z 35011KT CAVOK 13/11 Q1016=
201307102150 METAR ESMX 102150Z 36010KT CAVOK 12/11 Q1015=
201307102120 METAR ESMX 102120Z 35011KT 9999 FEW012 SCT033 BKN075 13/11 Q1015=
201307102050 METAR ESMX 102050Z 35012KT 9999 FEW011 SCT014 BKN017 12/11 Q1015=
201307102020 METAR ESMX 102020Z 36012KT 9999 FEW011 SCT016 BKN027 12/11 Q1015=
201307101950 METAR ESMX 101950Z 36012KT 9999 FEW014 SCT017 BKN030 13/11 Q1015=
201307101920 METAR ESMX 101920Z 01016KT 9999 FEW015 SCT019 OVC028 13/10 Q1015=
201307101850 METAR ESMX 101850Z 36015G27KT 9999 OVC015 14/11 Q1015=
201307101820 METAR ESMX 101820Z 36013KT 9999 OVC016 14/10 Q1014=
201307101750 METAR ESMX 101750Z AUTO 36015KT 9999NDV OVC018/// 14/10 Q1014=
201307101720 METAR ESMX 101720Z AUTO 35015KT 9999NDV OVC018/// 14/10 Q1014=
201307101650 METAR ESMX 101650Z AUTO 36017KT 9999NDV OVC016/// 14/10 Q1014=
201307101620 METAR ESMX 101620Z AUTO 36019KT 9999NDV OVC015/// 14/10 Q1013=
201307101550 METAR ESMX 101550Z 36014KT 9999 OVC014 13/10 Q1013=
201307101520 METAR ESMX 101520Z 35016KT 9999 -SHRA OVC014CB 13/10 Q1013=
201307101450 METAR ESMX 101450Z 34016G27KT 9999 OVC013 13/10 Q1013=
201307101420 METAR ESMX 101420Z 34015KT 9999 OVC011 14/10 Q1013=
201307101350 METAR ESMX 101350Z 35017KT 9999 OVC012 13/10 Q1012=
201307101320 METAR ESMX 101320Z 35018KT 9999 OVC013 14/10 Q1012=
201307101250 METAR ESMX 101250Z 35016KT 9999 OVC015 15/11 Q1012=
201307101220 METAR ESMX 101220Z 34013KT 9999 BKN015 15/12 Q1011=
201307101150 METAR ESMX 101150Z 33014KT 9999 -SHRA BKN015CB 15/11 Q1011=
201307101120 METAR ESMX 101120Z 32015G25KT 9999 OVC011 14/11 Q1011=
201307101050 METAR ESMX 101050Z 31013KT 290V350 9999 BKN010 13/11 Q1011=
201307101020 METAR ESMX 101020Z 30011KT 9999 -SHRA BKN010CB 14/12 Q1011=
201307100950 METAR ESMX 100950Z 30014KT 260V330 9999 -SHRA FEW015CB SCT020 BKN024 15/11 Q1010=
201307100920 METAR ESMX 100920Z 30012KT 9999 FEW015CB SCT017 BKN021 15/11 Q1010=
201307100850 METAR ESMX 100850Z 30010KT 9999 SCT020 BKN026 15/10 Q1010=
201307100820 METAR ESMX 100820Z 28012KT 260V320 9999 SCT020 BKN028 15/10 Q1010=
201307100750 METAR ESMX 100750Z 29012KT 9999 FEW020CB SCT024 BKN030 14/10 Q1010 RESHRA=
201307100720 METAR ESMX 100720Z 28010KT 9999 FEW035 BKN041 16/10 Q1010=
201307100650 METAR ESMX 100650Z 28011KT 9999 FEW019 SCT023 BKN031 15/11 Q1010=
201307100620 METAR ESMX 100620Z 27009KT 9999 FEW017 SCT019 BKN021 16/11 Q1010=
201307100550 METAR ESMX 100550Z AUTO 26007KT 230V290 9999NDV OVC015/// 15/12 Q1010=
201307100520 METAR ESMX 100520Z AUTO 26009KT 9999NDV OVC015/// 15/11 Q1010=
201307100450 METAR ESMX 100450Z AUTO 26007KT 9999NDV FEW015/// BKN018/// OVC021/// 15/11 Q1010=
201307100420 METAR ESMX 100420Z AUTO 27009KT 9999NDV OVC016/// 15/11 Q1011=
201307100350 METAR ESMX 100350Z AUTO 26008KT 240V300 9999NDV FEW017/// BKN021/// 15/11 Q1011=
201307100320 METAR ESMX 100320Z AUTO 25007KT 9999NDV SCT020/// 15/12 Q1011=
201307100250 METAR ESMX 100250Z AUTO 25006KT 9999NDV FEW020/// SCT024/// 15/12 Q1012=
201307100220 METAR ESMX 100220Z AUTO 25007KT 9999NDV FEW018/// SCT025/// 15/12 Q1012=
201307100150 METAR ESMX 100150Z AUTO 25009KT 200V280 9999NDV OVC018/// 16/12 Q1012=
201307100120 METAR ESMX 100120Z AUTO 27009KT 9999NDV BKN017/// OVC022/// 16/12 Q1013=
201307100050 METAR ESMX 100050Z AUTO 24007KT 190V270 9999NDV OVC016/// 16/13 Q1013=
201307100020 METAR ESMX 100020Z AUTO 22006KT 9999NDV FEW017/// 15/13 Q1013=
201307092350 METAR ESMX 092350Z 23007KT CAVOK 15/13 Q1013=
201307092320 METAR ESMX 092320Z 21006KT CAVOK 15/12 Q1014=
201307092250 METAR ESMX 092250Z 22007KT CAVOK 15/12 Q1014=
201307092220 METAR ESMX 092220Z 22006KT CAVOK 15/11 Q1015=
201307092150 METAR ESMX 092150Z 21006KT CAVOK 16/11 Q1015=
201307092120 METAR ESMX 092120Z 22006KT CAVOK 16/11 Q1016=
201307092050 METAR ESMX 092050Z 21007KT CAVOK 16/10 Q1016=
201307092020 METAR ESMX 092020Z 22006KT CAVOK 17/10 Q1017=
201307091950 METAR ESMX 091950Z 24006KT CAVOK 17/10 Q1017=
201307091920 METAR ESMX 091920Z 25007KT CAVOK 19/10 Q1017=
201307091850 METAR ESMX 091850Z AUTO 24007KT 9999NDV NCD 20/11 Q1017=
201307091820 METAR ESMX 091820Z AUTO 26008KT 9999NDV NCD 22/11 Q1017=
201307091750 METAR ESMX 091750Z AUTO 24007KT 210V270 9999NDV FEW044/// 22/13 Q1018=
201307091720 METAR ESMX 091720Z AUTO 16008KT 9999NDV FEW040/// SCT046/// 22/16 Q1018=
201307091650 METAR ESMX 091650Z AUTO 19008KT 9999NDV FEW043/// 23/16 Q1019=
201307091620 METAR ESMX 091620Z 19009KT CAVOK 23/15 Q1019=
201307091550 METAR ESMX 091550Z 19009KT 160V230 CAVOK 23/16 Q1020=
201307091520 METAR ESMX 091520Z 19009KT 9999 FEW041 22/16 Q1020=
201307091450 METAR ESMX 091450Z 18009KT 140V200 9999 FEW022 SCT091 22/16 Q1021=
201307091420 METAR ESMX 091420Z 17008KT 140V200 9999 FEW023 21/16 Q1021=
201307091350 METAR ESMX 091350Z 18010KT 9999 FEW022 SCT033 22/15 Q1022=
201307091320 METAR ESMX 091320Z 17008KT 130V220 9999 FEW020 SCT024 BKN037 20/16 Q1022=
201307091250 METAR ESMX 091250Z 17008KT 140V210 9999 FEW022 BKN030 21/15 Q1023=
201307091220 METAR ESMX 091220Z 18008KT 9999 FEW019 SCT027 BKN031 20/15 Q1023=
201307091150 METAR ESMX 091150Z 20008KT 170V230 9999 FEW017 BKN022 OVC028 20/15 Q1024=
201307091120 METAR ESMX 091120Z 19008KT 9999 FEW014 SCT021 BKN024 20/15 Q1024=
201307091050 METAR ESMX 091050Z 19007KT 9999 SCT013 BKN019 19/15 Q1024=
201307091020 METAR ESMX 091020Z 19008KT 9999 BKN012 OVC019 18/15 Q1025=
201307090950 METAR ESMX 090950Z 17004KT 140V210 9999 BKN010 OVC017 18/15 Q1025=
201307090920 METAR ESMX 090920Z 19005KT 140V230 9999 BKN011 OVC015 17/14 Q1025=
201307090850 METAR ESMX 090850Z 18005KT 120V220 9999 OVC011 17/14 Q1025=
201307090820 METAR ESMX 090820Z 19003KT 140V230 9999 OVC011 17/14 Q1026=
201307090750 METAR ESMX 090750Z 20004KT 9999 OVC012 17/13 Q1026=
201307090720 METAR ESMX 090720Z 20004KT 9999 OVC012 17/13 Q1026=
201307090650 METAR ESMX 090650Z 16005KT 9999 OVC013 17/13 Q1027=
201307090620 METAR ESMX 090620Z 17005KT 120V210 9999 OVC013 16/13 Q1027=
201307090550 METAR ESMX 090550Z AUTO 15005KT 110V190 9999NDV BKN012/// 16/13 Q1027=
201307090520 METAR ESMX 090520Z AUTO 15005KT 120V180 9999NDV FEW011/// 16/13 Q1027=
201307090450 METAR ESMX 090450Z AUTO 16006KT 9999NDV OVC009/// 15/13 Q1027=
201307090420 METAR ESMX 090420Z AUTO 16005KT 140V200 9999NDV OVC008/// 15/13 Q1027=
201307090350 METAR ESMX 090350Z AUTO 16004KT 120V190 9999NDV OVC005/// 15/13 Q1027=
201307090320 METAR ESMX 090320Z AUTO 14003KT 080V170 9999NDV BKN005/// 13/12 Q1028=
201307090250 METAR ESMX 090250Z AUTO 11001KT 9999NDV SCT006/// 12/11 Q1028=
201307090220 METAR ESMX 090220Z AUTO VRB02KT 9999NDV NCD 12/11 Q1028=
201307090150 METAR ESMX 090150Z AUTO 16004KT 9999NDV NCD 14/11 Q1028=
201307090120 METAR ESMX 090120Z AUTO 16004KT 9999NDV FEW034/// SCT039/// 15/12 Q1028=
201307090050 METAR ESMX 090050Z AUTO 12002KT 9999NDV FEW026/// OVC033/// 14/12 Q1028=
201307090020 METAR ESMX 090020Z AUTO VRB02KT 9999NDV SCT024/// BKN032/// 15/12 Q1028=
201307082350 METAR ESMX 082350Z VRB01KT 9999 OVC030 16/12 Q1028=
201307082320 METAR ESMX 082320Z 16004KT 9999 BKN023 17/12 Q1028=
201307082250 METAR ESMX 082250Z VRB02KT 9999 OVC022 16/12 Q1028=
201307082220 METAR ESMX 082220Z 14001KT 9999 BKN021 16/12 Q1029=
201307082150 METAR ESMX 082150Z 15003KT 110V170 9999 BKN021 16/11 Q1029=
201307082120 METAR ESMX 082120Z 15003KT 9999 BKN023 17/11 Q1029=
201307082050 METAR ESMX 082050Z 12003KT 080V160 9999 SCT022 BKN047 17/12 Q1029=
201307082020 METAR ESMX 082020Z 11004KT 060V140 9999 FEW047 BKN065 18/12 Q1029=
201307081950 METAR ESMX 081950Z 11004KT 070V140 CAVOK 18/12 Q1028=
201307081920 METAR ESMX 081920Z 12005KT 070V150 9999 FEW040 SCT055 19/13 Q1028=
201307081850 METAR ESMX 081850Z 12004KT 080V160 9999 BKN041 19/13 Q1028=
201307081820 METAR ESMX 081820Z 12005KT 070V150 9999 BKN033 20/14 Q1028=
201307081750 METAR ESMX 081750Z 11004KT 050V150 9999 SCT030 BKN035 20/14 Q1028=
201307081720 METAR ESMX 081720Z 10006KT 060V140 9999 BKN029 21/15 Q1028=
201307081650 METAR ESMX 081650Z 09005KT 050V140 9999 FEW025 BKN028 21/15 Q1028=
201307081620 METAR ESMX 081620Z 02008KT 9999 SCT028 BKN035 21/15 Q1028=
201307081550 METAR ESMX 081550Z 04006KT 010V070 9999 FEW028 BKN033 23/16 Q1028=
201307081520 METAR ESMX 081520Z 13004KT 090V170 CAVOK 23/16 Q1028=
201307081450 METAR ESMX 081450Z 07006KT 030V100 CAVOK 23/16 Q1028=
201307081420 METAR ESMX 081420Z 06007KT 010V100 CAVOK 24/16 Q1028=
201307081350 METAR ESMX 081350Z VRB02KT 9999 SCT045 25/13 Q1028=
201307081320 METAR ESMX 081320Z VRB03KT CAVOK 25/14 Q1028=
201307081250 METAR ESMX 081250Z 04004KT 350V080 CAVOK 24/13 Q1028=
201307081220 METAR ESMX 081220Z VRB03KT CAVOK 24/13 Q1028=
201307081150 METAR ESMX 081150Z 01005KT 330V040 CAVOK 24/14 Q1028=
201307081120 METAR ESMX 081120Z 35007KT CAVOK 23/13 Q1028=
201307081050 METAR ESMX 081050Z 33005KT 260V070 CAVOK 23/15 Q1028=
201307081020 METAR ESMX 081020Z 29006KT 240V340 CAVOK 22/15 Q1028=
201307080950 METAR ESMX 080950Z 32005KT 280V020 9999 BKN050 22/15 Q1029=
201307080920 METAR ESMX 080920Z 31007KT 280V340 CAVOK 21/14 Q1028=
201307080850 METAR ESMX 080850Z 28006KT 260V330 CAVOK 21/14 Q1028=
201307080820 METAR ESMX 080820Z 24006KT 190V280 CAVOK 21/14 Q1028=
201307080750 METAR ESMX 080750Z 26006KT CAVOK 20/13 Q1028=
201307080720 METAR ESMX 080720Z 29006KT 270V340 CAVOK 19/14 Q1028=
201307080650 METAR ESMX 080650Z 29005KT 250V310 CAVOK 18/14 Q1028=
201307080620 METAR ESMX 080620Z 27004KT 230V300 CAVOK 17/14 Q1028=
201307080550 METAR ESMX 080550Z 27006KT 9999 SCT006 16/13 Q1028=
201307080520 METAR ESMX 080520Z AUTO 29006KT 250V330 9999NDV BKN005/// 15/13 Q1028=
201307080450 METAR ESMX 080450Z AUTO 27006KT 240V300 9999NDV OVC005/// 15/13 Q1028=
201307080420 METAR ESMX 080420Z AUTO 27005KT 240V310 9999NDV OVC005/// 14/13 Q1028=
201307080350 METAR ESMX 080350Z AUTO 26004KT 9999NDV FEW006/// 14/13 Q1028=
201307080320 METAR ESMX 080320Z AUTO 24003KT 210V280 9999NDV NCD 14/12 Q1028=
201307080250 METAR ESMX 080250Z AUTO 23005KT 9999NDV NCD 13/12 Q1028=
201307080220 METAR ESMX 080220Z AUTO 24004KT 9999NDV NCD 13/12 Q1028=
201307080150 METAR ESMX 080150Z AUTO 26003KT 9999NDV NCD 14/12 Q1028=
201307080120 METAR ESMX 080120Z AUTO 23004KT 9999NDV NCD 14/12 Q1028=
201307080050 METAR ESMX 080050Z AUTO 24005KT 9999NDV NCD 14/12 Q1028=
201307080020 METAR ESMX 080020Z AUTO 25005KT 9999NDV NCD 14/12 Q1028=
201307072350 METAR ESMX 072350Z 22004KT CAVOK 14/12 Q1028=
201307072320 METAR ESMX 072320Z 26005KT CAVOK 15/12 Q1029=
201307072250 METAR ESMX 072250Z 26005KT CAVOK 15/12 Q1029=
201307072220 METAR ESMX 072220Z 26005KT CAVOK 16/12 Q1029=
201307072150 METAR ESMX 072150Z 27005KT CAVOK 16/12 Q1029=
201307072120 METAR ESMX 072120Z 27005KT CAVOK 16/12 Q1029=
201307072050 METAR ESMX 072050Z 28006KT CAVOK 17/12 Q1029=
201307072020 METAR ESMX 072020Z 28007KT CAVOK 18/12 Q1029=
201307071950 METAR ESMX 071950Z 28008KT 250V320 CAVOK 19/11 Q1028=
201307071920 METAR ESMX 071920Z 27006KT CAVOK 20/12 Q1028=
201307071850 METAR ESMX 071850Z 28010KT CAVOK 21/12 Q1028=
201307071820 METAR ESMX 071820Z 28009KT CAVOK 22/12 Q1028=
201307071750 METAR ESMX 071750Z 28009KT CAVOK 23/12 Q1028=
201307071720 METAR ESMX 071720Z 28008KT CAVOK 24/12 Q1028=
201307071650 METAR ESMX 071650Z 28009KT CAVOK 25/12 Q1028=
201307071620 METAR ESMX 071620Z 27008KT 240V300 CAVOK 25/11 Q1028=
201307071550 METAR ESMX 071550Z 27008KT CAVOK 25/12 Q1028=
201307071520 METAR ESMX 071520Z 27008KT 240V300 CAVOK 25/12 Q1028=
201307071450 METAR ESMX 071450Z 28006KT 240V320 CAVOK 25/12 Q1029=
201307071420 METAR ESMX 071420Z 29007KT 250V330 CAVOK 25/12 Q1029=
201307071350 METAR ESMX 071350Z 25008KT 220V300 CAVOK 25/12 Q1029=
201307071320 METAR ESMX 071320Z 27006KT 230V300 CAVOK 25/12 Q1029=
201307071250 METAR ESMX 071250Z 29008KT 230V330 CAVOK 24/11 Q1029=
201307071220 METAR ESMX 071220Z 29007KT 260V320 CAVOK 24/12 Q1029=
201307071150 METAR ESMX 071150Z 29007G17KT 240V320 CAVOK 24/13 Q1030=
201307071120 METAR ESMX 071120Z 31006KT 240V020 CAVOK 23/12 Q1030=
201307071050 METAR ESMX 071050Z 28006KT 210V320 CAVOK 22/10 Q1030=
201307071020 METAR ESMX 071020Z 26008KT 220V300 CAVOK 22/10 Q1030=
201307070950 METAR ESMX 070950Z 26006KT 230V310 CAVOK 21/09 Q1030=
201307070920 METAR ESMX 070920Z 25006KT 220V310 CAVOK 21/09 Q1030=
201307070850 METAR ESMX 070850Z 24005KT 210V280 CAVOK 20/11 Q1031=
201307070820 METAR ESMX 070820Z AUTO 30006KT 280V340 9999NDV NCD 19/10 Q1030=
201307070750 METAR ESMX 070750Z AUTO 29005KT 250V320 9999NDV NCD 18/10 Q1030=
201307070720 METAR ESMX 070720Z AUTO 30007KT 9999NDV NCD 18/09 Q1030=
201307070650 METAR ESMX 070650Z AUTO 30005KT 250V330 9999NDV NCD 17/10 Q1030=
201307070620 METAR ESMX 070620Z AUTO 30005KT 260V330 9999NDV NCD 16/10 Q1030=
201307070550 METAR ESMX 070550Z AUTO 28005KT 9999NDV NCD 15/10 Q1030=
201307070520 METAR ESMX 070520Z AUTO 28004KT 9999NDV NCD 14/10 Q1030=
201307070450 METAR ESMX 070450Z AUTO 28004KT 9999NDV NCD 13/10 Q1030=
201307070420 METAR ESMX 070420Z AUTO 27003KT 9999NDV NCD 12/10 Q1030=
201307070350 METAR ESMX 070350Z AUTO 27005KT 9999NDV NCD 10/09 Q1030=
201307070320 METAR ESMX 070320Z AUTO 00000KT 9999NDV NCD 09/08 Q1030=
201307070250 METAR ESMX 070250Z AUTO 00000KT 9999NDV NCD 09/07 Q1030=
201307070220 METAR ESMX 070220Z AUTO 00000KT 9999NDV NCD 09/07 Q1030=
201307070150 METAR ESMX 070150Z AUTO 00000KT 9999NDV NCD 09/08 Q1030=
201307070120 METAR ESMX 070120Z AUTO 00000KT 9999NDV NCD 09/08 Q1030=
201307070050 METAR ESMX 070050Z AUTO 00000KT 9999NDV NCD 10/08 Q1030=
201307070020 METAR ESMX 070020Z AUTO 00000KT 9999NDV NCD 11/09 Q1030=
201307062350 METAR ESMX 062350Z AUTO VRB02KT 9999NDV NCD 11/09 Q1030=
201307062320 METAR ESMX 062320Z AUTO 00000KT 9999NDV NCD 12/09 Q1030=
201307062250 METAR ESMX 062250Z AUTO 00000KT 9999NDV NCD 14/10 Q1030=
201307062220 METAR ESMX 062220Z AUTO 36004KT 9999NDV NCD 15/10 Q1029=
201307062150 METAR ESMX 062150Z AUTO 29005KT 9999NDV NCD 16/10 Q1029=
201307062120 METAR ESMX 062120Z AUTO 27007KT 9999NDV NCD 17/10 Q1029=
201307062050 METAR ESMX 062050Z AUTO 26004KT 9999NDV NCD 17/10 Q1029=
201307062020 METAR ESMX 062020Z AUTO 24004KT 9999NDV NCD 17/10 Q1029=
201307061950 METAR ESMX 061950Z AUTO 24002KT 9999NDV NCD 18/10 Q1029=
201307061920 METAR ESMX 061920Z AUTO 26003KT 230V290 9999NDV NCD 19/10 Q1028=
201307061850 METAR ESMX 061850Z AUTO 00000KT 9999NDV NCD 21/11 Q1028=
201307061820 METAR ESMX 061820Z AUTO 00000KT 9999NDV NCD 22/12 Q1028=
201307061750 METAR ESMX 061750Z AUTO /////KT 9999NDV ////// ///// Q1028=
201307061720 METAR ESMX 061720Z AUTO 34002KT 9999NDV NCD 22/09 Q1028=
201307061650 METAR ESMX 061650Z AUTO 30003KT 250V340 9999NDV NCD 24/07 Q1028=
201307061620 METAR ESMX 061620Z AUTO 32006KT 280V010 9999NDV NCD 24/07 Q1028=
201307061550 METAR ESMX 061550Z AUTO 29004KT 210V010 9999NDV NCD 24/06 Q1028=
201307061520 METAR ESMX 061520Z AUTO VRB03KT 9999NDV NCD 23/07 Q1028=
201307061450 METAR ESMX 061450Z AUTO VRB02KT 9999NDV NCD 24/07 Q1028=
201307061420 METAR ESMX 061420Z AUTO 36003KT 290V070 9999NDV NCD 23/07 Q1029=
201307061350 METAR ESMX 061350Z AUTO 32005KT 280V030 9999NDV NCD 23/08 Q1029=
201307061320 METAR ESMX 061320Z AUTO 36006KT 9999NDV NCD 23/07 Q1029=
201307061250 METAR ESMX 061250Z AUTO 36005KT 260V050 9999NDV NCD 22/08 Q1029=
201307061220 METAR ESMX 061220Z AUTO VRB03KT 9999NDV NCD 23/09 Q1029=
201307061150 METAR ESMX 061150Z AUTO /////KT //// ////// ///// Q1029=
201307061120 METAR ESMX 061120Z AUTO 28007KT 220V320 9999NDV NCD 21/07 Q1029=
201307061050 METAR ESMX 061050Z AUTO VRB05KT 9999NDV NCD 21/09 Q1029=
201307061020 METAR ESMX 061020Z AUTO 29006KT 250V330 9999NDV NCD 20/10 Q1028=
201307060950 METAR ESMX 060950Z AUTO 28007KT 240V320 9999NDV NCD 20/09 Q1028=
201307060920 METAR ESMX 060920Z AUTO 29006KT 250V320 9999NDV FEW075/// 20/09 Q1028=
201307060850 METAR ESMX 060850Z AUTO 29008KT 250V320 9999NDV FEW091/// 19/09 Q1028=
201307060820 METAR ESMX 060820Z AUTO /////KT 9999NDV ////// ///// Q1028=
201307060750 METAR ESMX 060750Z AUTO 32005KT 290V350 9999NDV NCD 16/10 Q1028=
201307060720 METAR ESMX 060720Z AUTO 29006KT 250V320 9999NDV NCD 16/11 Q1028=
201307060650 METAR ESMX 060650Z AUTO 30006KT 9999NDV NCD 16/11 Q1028=
201307060620 METAR ESMX 060620Z AUTO 30006KT 250V320 9999NDV NCD 15/11 Q1027=
201307060550 METAR ESMX 060550Z AUTO 28005KT 240V320 9999NDV FEW008/// 14/11 Q1027=
201307060520 METAR ESMX 060520Z AUTO 29003KT 250V340 9999NDV FEW007/// 13/11 Q1027=
201307060450 METAR ESMX 060450Z AUTO 27007KT 9999NDV FEW005/// 12/11 Q1027=
201307060420 METAR ESMX 060420Z AUTO 28006KT 9999NDV FEW004/// 12/10 Q1027=
201307060350 METAR ESMX 060350Z AUTO 26005KT 9999NDV NCD 11/10 Q1027=
201307060320 METAR ESMX 060320Z AUTO 25005KT 9999NDV NCD 11/09 Q1027=
201307060250 METAR ESMX 060250Z AUTO 25006KT 9999NDV NCD 10/09 Q1027=
201307060220 METAR ESMX 060220Z AUTO 25005KT 9999NDV NCD 10/09 Q1026=
201307060150 METAR ESMX 060150Z AUTO 24005KT 9999NDV NCD 10/09 Q1026=
201307060120 METAR ESMX 060120Z AUTO 24005KT 9999NDV NCD 10/09 Q1026=
201307060050 METAR ESMX 060050Z AUTO 25006KT 9999NDV NCD 11/08 Q1026=
201307060020 METAR ESMX 060020Z AUTO 24008KT 9999NDV NCD 10/08 Q1026=
201307052350 METAR ESMX 052350Z AUTO 24007KT 9999NDV NCD 10/08 Q1026=
201307052320 METAR ESMX 052320Z AUTO 23005KT 9999NDV NCD 11/08 Q1026=
201307052250 METAR ESMX 052250Z AUTO 25005KT 9999NDV NCD 11/08 Q1026=
201307052220 METAR ESMX 052220Z AUTO 24004KT 9999NDV NCD 11/08 Q1026=
201307052150 METAR ESMX 052150Z AUTO 25004KT 9999NDV NCD 12/09 Q1026=
201307052120 METAR ESMX 052120Z AUTO 25004KT 9999NDV NCD 12/09 Q1026=
201307052050 METAR ESMX 052050Z AUTO 26004KT 9999NDV NCD 13/09 Q1025=
201307052020 METAR ESMX 052020Z AUTO 26004KT 9999NDV NCD 14/09 Q1025=
201307051950 METAR ESMX 051950Z AUTO 27005KT 9999NDV FEW042/// 15/09 Q1025=
201307051920 METAR ESMX 051920Z AUTO 26007KT 9999NDV FEW040/// 16/09 Q1024=
201307051850 METAR ESMX 051850Z AUTO 27008KT 240V300 9999NDV FEW044/// 17/09 Q1024=
201307051820 METAR ESMX 051820Z AUTO 26009KT 220V280 9999NDV FEW042/// 18/09 Q1024=
201307051750 METAR ESMX 051750Z AUTO 26008KT 9999NDV NCD 19/10 Q1024=
201307051720 METAR ESMX 051720Z AUTO 27009KT 230V300 9999NDV NCD 19/10 Q1024=
201307051650 METAR ESMX 051650Z 24009KT 210V290 9999 SCT040 18/10 Q1024=
201307051620 METAR ESMX 051620Z 25012KT 9999 SCT040 19/09 Q1023=
201307051550 METAR ESMX 051550Z 26014KT 9999 SCT035 19/10 Q1023=
201307051520 METAR ESMX 051520Z 24012KT 9999 BKN035 20/12 Q1023=
201307051450 METAR ESMX 051450Z 23010KT 190V250 9999 SCT035 20/13 Q1023=
201307051420 METAR ESMX 051420Z 26008KT 210V300 9999 FEW028 BKN053 20/13 Q1023=
201307051350 METAR ESMX 051350Z 26010KT 220V290 9999 FEW026 BKN060 20/13 Q1023=
201307051320 METAR ESMX 051320Z 27010KT 240V310 9999 FEW016 SCT030 BKN060 19/14 Q1023=
201307051250 METAR ESMX 051250Z 25007KT 210V280 9999 SCT015 BKN055 18/14 Q1023=
201307051220 METAR ESMX 051220Z 24006KT 9999 BKN020 18/14 Q1023=
201307051150 METAR ESMX 051150Z 24008KT 9999 BKN019 OVC060 19/14 Q1023=
201307051120 METAR ESMX 051120Z 22008KT 9999 FEW015 SCT025 BKN060 18/14 Q1023=
201307051050 METAR ESMX 051050Z 24008KT 9999 SCT015 OVC051 18/14 Q1023=
201307051020 METAR ESMX 051020Z 24007KT 9999 OVC015 17/13 Q1023=
201307050950 METAR ESMX 050950Z 23008KT 210V270 9999 OVC015 17/13 Q1023=
201307050920 METAR ESMX 050920Z 23008KT 190V250 9999 OVC019 17/13 Q1023=
201307050850 METAR ESMX 050850Z 25007KT 230V290 9999 BKN020 OVC026 17/13 Q1023=
201307050820 METAR ESMX 050820Z 22007KT 200V260 9999 SCT021 BKN036 18/13 Q1022=
201307050750 METAR ESMX 050750Z 22008KT 9999 BKN015 BKN055 17/13 Q1022=
201307050720 METAR ESMX 050720Z 23009KT 9999 BKN015 BKN036 17/13 Q1022=
201307050650 METAR ESMX 050650Z AUTO 24008KT 9999NDV FEW010/// SCT013/// BKN020/// 17/14 Q1022=
201307050620 METAR ESMX 050620Z AUTO 24006KT 200V280 9999NDV FEW008/// BKN010/// OVC025/// 16/14 Q1021=
201307050550 METAR ESMX 050550Z AUTO 21006KT 9999NDV FEW006/// SCT008/// BKN010/// 16/14 Q1021=
201307050520 METAR ESMX 050520Z AUTO 22006KT 180V240 9999NDV BKN004/// OVC007/// 15/14 Q1021=
201307050450 METAR ESMX 050450Z AUTO 20004KT 9999NDV OVC004/// 15/14 Q1021=
201307050420 METAR ESMX 050420Z AUTO 20004KT 9999NDV SCT006/// BKN008/// OVC028/// 14/13 Q1021=
201307050350 METAR ESMX 050350Z AUTO 21003KT 9999NDV FEW020/// OVC030/// 14/13 Q1021=
201307050320 METAR ESMX 050320Z AUTO 23003KT 9999NDV BKN028/// OVC046/// 14/13 Q1021=
201307050250 METAR ESMX 050250Z AUTO 23003KT 9999NDV SCT032/// BKN046/// 13/12 Q1021=
201307050220 METAR ESMX 050220Z AUTO 23005KT 9999NDV OVC031/// 14/13 Q1020=
201307050150 METAR ESMX 050150Z AUTO 24005KT 9999NDV BKN027/// 14/13 Q1020=
201307050120 METAR ESMX 050120Z AUTO 25006KT 220V280 9999NDV FEW009/// SCT014/// OVC026/// 14/13 Q1020=
201307050050 METAR ESMX 050050Z AUTO 25004KT 9999NDV OVC026/// 13/12 Q1020=
201307050020 METAR ESMX 050020Z AUTO 25003KT 9999NDV NCD 13/12 Q1020=
201307042350 METAR ESMX 042350Z 26004KT 9999 FEW022 13/12 Q1020=
201307042320 METAR ESMX 042320Z 22003KT 9999 BKN020 13/12 Q1020=
201307042250 METAR ESMX 042250Z 22004KT 9999 FEW020 13/12 Q1020=
201307042220 METAR ESMX 042220Z VRB02KT 9999 FEW020 14/12 Q1020=
201307042150 METAR ESMX 042150Z 25004KT 9999 FEW018 BKN055 15/12 Q1020=
201307042120 METAR ESMX 042120Z 27004KT 9999 BKN048 16/13 Q1020=
201307042050 METAR ESMX 042050Z 26006KT 9999 BKN044 17/13 Q1019=
201307042020 METAR ESMX 042020Z 26006KT 9999 BKN041 17/13 Q1019=
201307041950 METAR ESMX 041950Z 27008KT 9999 BKN037 18/13 Q1019=
201307041920 METAR ESMX 041920Z 26005KT 9999 FEW035 SCT041 BKN047 18/14 Q1018=
201307041850 METAR ESMX 041850Z 25005KT 9999 FEW041 SCT050 OVC062 18/14 Q1018=
201307041820 METAR ESMX 041820Z 25006KT 9999 FEW029 SCT047 BKN068 19/15 Q1018=
201307041750 METAR ESMX 041750Z 26005KT 9999 BKN022 20/17 Q1017=
201307041720 METAR ESMX 041720Z 25003KT 9999 FEW024 BKN061 20/18 Q1017=
201307041650 METAR ESMX 041650Z 26005KT 230V290 9999 FEW020CB BKN040 19/18 Q1017=
201307041620 METAR ESMX 041620Z 26006KT 5000 SHRA BKN025CB 18/17 Q1017=
201307041550 METAR ESMX 041550Z 22009G19KT 2000 SHRA BKN025CB 19/17 Q1017=
201307041520 METAR ESMX 041520Z VRB02KT 9999 VCSH SCT026CB BKN030 23/17 Q1017=
201307041450 METAR ESMX 041450Z 17005KT 130V210 9999 VCSH FEW028CB BKN105 23/17 Q1017=
201307041420 METAR ESMX 041420Z 16005KT 110V190 9999 VCSH FEW030CB BKN072 23/16 Q1017=
201307041350 METAR ESMX 041350Z 19005KT 120V250 9999 BKN030 24/16 Q1017=
201307041320 METAR ESMX 041320Z 23004KT 170V280 9999 BKN030 23/16 Q1017=
201307041250 METAR ESMX 041250Z 19006KT 150V240 9999 BKN026 23/16 Q1017=
201307041220 METAR ESMX 041220Z 18005KT 140V290 9999 BKN024 23/16 Q1017=
201307041150 METAR ESMX 041150Z 17005KT 070V220 9999 BKN024 22/16 Q1017=
201307041120 METAR ESMX 041120Z 14004KT 080V230 9999 FEW020 BKN034 22/15 Q1017=
201307041050 METAR ESMX 041050Z 14005KT 080V180 9999 BKN017 BKN036 21/15 Q1017=
201307041020 METAR ESMX 041020Z 15003KT 090V210 9999 FEW014 BKN036 20/15 Q1017=
201307040950 METAR ESMX 040950Z 16004KT 110V200 9999 SCT014 BKN037 19/15 Q1017=
201307040920 METAR ESMX 040920Z 16005KT 120V190 9999 FEW013 BKN015 19/15 Q1017=
201307040850 METAR ESMX 040850Z 11005KT 050V230 9999 BKN014 19/14 Q1016=
201307040820 METAR ESMX 040820Z 16006KT 110V200 9999 FEW013 BKN016 19/14 Q1016=
201307040750 METAR ESMX 040750Z 10006KT 070V150 9999 SCT018 BKN060 18/14 Q1016=
201307040720 METAR ESMX 040720Z 10004KT 040V180 9999 BKN020 17/13 Q1016=
201307040650 METAR ESMX 040650Z 11005KT 060V160 9999 BKN017 16/13 Q1016=
201307040620 METAR ESMX 040620Z 12004KT 060V190 9999 FEW018 BKN020 15/13 Q1016=
201307040550 METAR ESMX 040550Z 12005KT 080V160 9999 FEW017 BKN020 15/12 Q1016=
201307040520 METAR ESMX 040520Z 10003KT 040V160 9999 SCT017 BKN060 15/13 Q1016=
201307040450 METAR ESMX 040450Z 10003KT 060V140 9999 FEW009 BKN052 15/13 Q1016=
201307040420 METAR ESMX 040420Z VRB02KT 9999 FEW021 BKN055 14/12 Q1015=
201307040350 METAR ESMX 040350Z VRB02KT 9999 OVC008 14/12 Q1015=
201307040320 METAR ESMX 040320Z AUTO 12004KT 070V160 9999NDV OVC008/// 14/12 Q1015=
201307040250 METAR ESMX 040250Z AUTO 11004KT 030V170 9999NDV OVC010/// 14/12 Q1015=
201307040220 METAR ESMX 040220Z AUTO 12004KT 070V160 9999NDV FEW013/// OVC074/// 14/11 Q1015=
201307040150 METAR ESMX 040150Z AUTO 09003KT 030V130 9999NDV BKN062/// BKN100/// 14/11 Q1014=
201307040120 METAR ESMX 040120Z AUTO 10005KT 040V140 9999NDV BKN070/// 15/11 Q1014=
201307040050 METAR ESMX 040050Z AUTO 11006KT 050V160 9999NDV SCT099/// 15/11 Q1015=
201307040020 METAR ESMX 040020Z AUTO 10006KT 070V160 9999NDV FEW065/// BKN091/// 14/10 Q1015=
201307032350 METAR ESMX 032350Z 10005KT 050V160 9999 SCT068 BKN085 14/10 Q1015=
201307032320 METAR ESMX 032320Z 10004KT 060V140 9999 SCT047 BKN068 14/10 Q1015=
201307032250 METAR ESMX 032250Z 13003KT 090V170 9999 FEW046 BKN058 14/10 Q1016=
201307032220 METAR ESMX 032220Z 11005KT 030V150 9999 FEW014 BKN055 15/09 Q1015=
201307032150 METAR ESMX 032150Z 13005KT 090V170 9999 -RA FEW050 BKN064 15/08 Q1015=
201307032120 METAR ESMX 032120Z 11006KT 070V160 9999 -RA FEW025 BKN090 15/09 Q1015=
201307032050 METAR ESMX 032050Z 11005KT 080V150 CAVOK 15/09 Q1015=
201307032020 METAR ESMX 032020Z 11006KT 070V150 CAVOK 16/09 Q1015=
201307031950 METAR ESMX 031950Z 13006KT 080V170 CAVOK 16/09 Q1015=
201307031920 METAR ESMX 031920Z 12006KT 080V160 CAVOK 17/09 Q1015=
201307031850 METAR ESMX 031850Z 12006KT 080V160 CAVOK 17/09 Q1015=
201307031820 METAR ESMX 031820Z 12006KT 080V160 CAVOK 18/08 Q1014=
201307031750 METAR ESMX 031750Z 11006KT 050V150 CAVOK 18/09 Q1014=
201307031720 METAR ESMX 031720Z 12006KT CAVOK 18/09 Q1014=
201307031650 METAR ESMX 031650Z 13006KT 090V170 9999 FEW098 19/10 Q1014=
201307031620 METAR ESMX 031620Z 14006KT 070V180 9999 FEW040 BKN150 19/10 Q1014=
201307031550 METAR ESMX 031550Z 16007KT 9999 FEW026 BKN150 19/10 Q1015=
201307031520 METAR ESMX 031520Z 16007KT CAVOK 20/09 Q1015=
201307031450 METAR ESMX 031450Z 17007KT CAVOK 20/09 Q1014=
201307031420 METAR ESMX 031420Z 17006KT 130V200 CAVOK 20/09 Q1014=
201307031350 METAR ESMX 031350Z 16007KT 100V200 CAVOK 20/09 Q1014=
201307031320 METAR ESMX 031320Z 16007KT 120V190 9999 FEW040 SCT090 20/08 Q1014=
201307031250 METAR ESMX 031250Z 16005KT 100V190 CAVOK 20/09 Q1014=
201307031220 METAR ESMX 031220Z 17008KT 110V200 9999 FEW047 SCT110 20/09 Q1014=
201307031150 METAR ESMX 031150Z 16006KT 110V200 9999 FEW043 BKN200 19/08 Q1014=
201307031120 METAR ESMX 031120Z 14006KT 070V170 9999 FEW040 20/08 Q1014=
201307031050 METAR ESMX 031050Z 17007KT 120V200 9999 FEW042 19/08 Q1014=
201307031020 METAR ESMX 031020Z 13007KT 080V200 9999 FEW040 19/07 Q1014=
201307030950 METAR ESMX 030950Z 14007KT 070V170 9999 FEW041 18/08 Q1014=
201307030920 METAR ESMX 030920Z 14007KT 080V190 CAVOK 18/07 Q1014=
201307030850 METAR ESMX 030850Z 16006KT 100V230 CAVOK 17/06 Q1015=
201307030820 METAR ESMX 030820Z 17007KT 140V210 9999 FEW036 17/08 Q1015=
201307030750 METAR ESMX 030750Z 17006KT 100V210 9999 FEW030 17/09 Q1015=
201307030720 METAR ESMX 030720Z 15005KT 100V180 9999 FEW023 16/09 Q1014=
201307030650 METAR ESMX 030650Z 15004KT 110V200 CAVOK 15/09 Q1014=
201307030620 METAR ESMX 030620Z 16005KT 120V190 CAVOK 13/08 Q1014=
201307030550 METAR ESMX 030550Z 16005KT CAVOK 13/08 Q1014=
201307030520 METAR ESMX 030520Z 13004KT CAVOK 11/08 Q1014=
201307030450 METAR ESMX 030450Z 12003KT CAVOK 10/09 Q1014=
201307030420 METAR ESMX 030420Z 13002KT CAVOK 08/07 Q1014=
201307030350 METAR ESMX 030350Z 00000KT CAVOK 06/06 Q1014=
201307030320 METAR ESMX 030320Z AUTO 00000KT 9999NDV NCD 05/05 Q1014=
201307030250 METAR ESMX 030250Z AUTO 00000KT 9999NDV NCD 05/04 Q1014=
201307030220 METAR ESMX 030220Z AUTO 00000KT 9999NDV NCD 04/03 Q1014=
201307030150 METAR ESMX 030150Z AUTO 00000KT 9999NDV NCD 04/04 Q1014=
201307030120 METAR ESMX 030120Z AUTO 14001KT 9999NDV NCD 05/04 Q1014=
201307030050 METAR ESMX 030050Z AUTO 15003KT 9999NDV NCD 05/04 Q1014=
201307030020 METAR ESMX 030020Z AUTO 14002KT 9999NDV NCD 05/04 Q1014=
201307022350 METAR ESMX 022350Z AUTO 17003KT 9999NDV NCD 06/05 Q1014=
201307022320 METAR ESMX 022320Z 19003KT CAVOK 05/04 Q1014=
201307022250 METAR ESMX 022250Z 19004KT CAVOK 07/05 Q1014=
201307022220 METAR ESMX 022220Z 24003KT CAVOK 07/05 Q1014=
201307022150 METAR ESMX 022150Z 22004KT CAVOK 09/06 Q1014=
201307022120 METAR ESMX 022120Z 24004KT CAVOK 08/05 Q1014=
201307022050 METAR ESMX 022050Z 22005KT CAVOK 09/05 Q1014=
201307022020 METAR ESMX 022020Z 22004KT CAVOK 11/06 Q1014=
201307021950 METAR ESMX 021950Z 22003KT CAVOK 12/06 Q1013=
201307021920 METAR ESMX 021920Z 25004KT CAVOK 13/06 Q1013=
201307021820 METAR ESMX 021820Z 26006KT CAVOK 15/05 Q1013=
201307021750 METAR ESMX 021750Z 26008KT 220V280 9999 FEW046 16/04 Q1013=
201307021720 METAR ESMX 021720Z 24005KT 210V280 9999 FEW044 16/06 Q1012=
201307021650 METAR ESMX 021650Z 22007KT 9999 FEW045 SCT069 15/07 Q1012=
201307021620 METAR ESMX 021620Z 23009KT 9999 FEW044 SCT050 17/06 Q1012=
201307021550 METAR ESMX 021550Z 25009KT 9999 FEW045 16/06 Q1012=
201307021520 METAR ESMX 021520Z 25007KT 210V290 9999 FEW045 17/07 Q1012=
201307021450 METAR ESMX 021450Z 25011KT 9999 FEW045 17/07 Q1012=
201307021420 METAR ESMX 021420Z 26009KT 9999 FEW040 17/07 Q1012=
201307021350 METAR ESMX 021350Z 27008KT 9999 FEW027 15/08 Q1013=
201307021320 METAR ESMX 021320Z 26009KT 9999 -SHRA FEW024CB BKN048 13/09 Q1013=
201307021250 METAR ESMX 021250Z 25011KT 9999 FEW030 BKN046 13/08 Q1013=
201307021220 METAR ESMX 021220Z 20014KT 9999 BKN040 17/07 Q1013=
201307021150 METAR ESMX 021150Z 19013KT 160V230 9999 BKN039 16/07 Q1012=
201307021120 METAR ESMX 021120Z 19012KT 9999 FEW041 BKN051 17/07 Q1013=
201307021050 METAR ESMX 021050Z 19012KT 9999 FEW040 BKN055 15/08 Q1013=
201307021020 METAR ESMX 021020Z 21010KT 160V240 9999 FEW033 SCT042 BKN056 16/08 Q1013=
201307020950 METAR ESMX 020950Z 21010KT 170V260 9999 SCT032 BKN047 16/08 Q1013=
201307020920 METAR ESMX 020920Z 20006KT 9999 SCT033 BKN041 14/08 Q1013=
201307020850 METAR ESMX 020850Z 19008KT 9999 FEW029 SCT041 BKN048 14/09 Q1013=
201307020820 METAR ESMX 020820Z 19007KT 160V240 9999 FEW021 SCT032 BKN060 14/08 Q1013=
201307020750 METAR ESMX 020750Z 21007KT 9999 FEW019 13/09 Q1013=
201307020720 METAR ESMX 020720Z 21007KT 9999 FEW016 13/09 Q1013=
201307020650 METAR ESMX 020650Z 23005KT 200V260 CAVOK 13/09 Q1013=
201307020620 METAR ESMX 020620Z 22006KT CAVOK 12/09 Q1013=
201307020550 METAR ESMX 020550Z 21005KT CAVOK 12/09 Q1013=
201307020520 METAR ESMX 020520Z 20004KT CAVOK 12/09 Q1012=
201307020450 METAR ESMX 020450Z 23004KT CAVOK 12/09 Q1012=
201307020420 METAR ESMX 020420Z 21003KT CAVOK 11/09 Q1012=
201307020350 METAR ESMX 020350Z 20004KT CAVOK 10/09 Q1012=
201307020320 METAR ESMX 020320Z AUTO 22004KT 5000NDV NCD 09/08 Q1012=
201307020250 METAR ESMX 020250Z AUTO 22004KT 7000NDV NCD 09/08 Q1012=
201307020220 METAR ESMX 020220Z AUTO VRB04KT 6000NDV FEW003/// 09/08 Q1012=
201307020150 METAR ESMX 020150Z AUTO 22003KT 9999NDV NCD 10/08 Q1012=
201307020120 METAR ESMX 020120Z AUTO 22004KT 9999NDV FEW015/// 10/09 Q1012=
201307020050 METAR ESMX 020050Z AUTO 25005KT 9999NDV FEW013/// SCT017/// 11/09 Q1012=
201307020020 METAR ESMX 020020Z AUTO 25008KT 9999NDV FEW007/// SCT012/// BKN015/// 12/10 Q1011=
201307012350 METAR ESMX 012350Z 23010KT 9999 FEW008 BKN010 OVC015 13/11 Q1011=
201307012320 METAR ESMX 012320Z 23008KT 9999 FEW007 SCT013 BKN062 13/12 Q1011=
201307012250 METAR ESMX 012250Z 19006KT 9999 FEW021 BKN040 BKN066 14/12 Q1011=
201307012220 METAR ESMX 012220Z 21006KT 8000 FEW011 SCT032 BKN041 14/12 Q1011=
201307012150 METAR ESMX 012150Z 21006KT 9999 FEW014 SCT016 BKN020 14/11 Q1011=
201307012120 METAR ESMX 012120Z 19004KT 9999 FEW017 SCT020 13/10 Q1011=
201307012050 METAR ESMX 012050Z 21003KT 9999 FEW026 SCT088 13/10 Q1011=
201307012020 METAR ESMX 012020Z 24003KT CAVOK 14/10 Q1011=
201307011950 METAR ESMX 011950Z 22004KT CAVOK 15/10 Q1011=
201307011920 METAR ESMX 011920Z 24003KT CAVOK 15/10 Q1011=
201307011850 METAR ESMX 011850Z 24004KT CAVOK 16/10 Q1011=
201307011820 METAR ESMX 011820Z 24006KT CAVOK 16/10 Q1011=
201307011750 METAR ESMX 011750Z 24005KT CAVOK 17/10 Q1010=
201307011720 METAR ESMX 011720Z 26008KT CAVOK 16/10 Q1011=
201307011650 METAR ESMX 011650Z 25009KT 9999 FEW035 BKN061 17/10 Q1010=
201307011620 METAR ESMX 011620Z 25009KT 220V290 9999 FEW032 BKN047 18/10 Q1010=
201307011550 METAR ESMX 011550Z 24007KT 9999 FEW040 BKN054 17/10 Q1010=
201307011520 METAR ESMX 011520Z 25010KT 9999 FEW039 BKN057 18/10 Q1010=
201307011450 METAR ESMX 011450Z 24008KT 9999 FEW042 BKN056 18/09 Q1010=
201307011420 METAR ESMX 011420Z 24010KT 9999 FEW041 SCT061 18/10 Q1010=
201307011350 METAR ESMX 011350Z 23009KT 210V280 9999 FEW048 20/07 Q1010=
201307011320 METAR ESMX 011320Z 23009KT 9999 FEW049 20/08 Q1010=
201307011250 METAR ESMX 011250Z 24007KT 200V280 9999 FEW048 BKN057 19/07 Q1010=
201307011220 METAR ESMX 011220Z 29004KT 200V330 9999 SCT044 18/07 Q1010=
