##########################################################
# Query made at 04/19/2024 21:35:37 UTC
# Time interval: from 09/01/2013 12:00  to 09/30/2013 12:59  UTC
##########################################################

##########################################################
# ESMX, Vaxjo (Sweden)
# WMO index: 02641. WIGOS ID: 0-20000-0-02648
# Latitude 56-51N. Longitude 014-50E. Altitude 199 m.
##########################################################

201309301250 METAR ESMX 301250Z 01008KT CAVOK 11/04 Q1022=
201309301220 METAR ESMX 301220Z 01007KT CAVOK 11/04 Q1022=
201309301150 METAR ESMX 301150Z 01003KT 320V060 CAVOK 11/03 Q1022=
201309301120 METAR ESMX 301120Z 03003KT 340V080 CAVOK 11/04 Q1022=
201309301050 METAR ESMX 301050Z VRB02KT CAVOK 11/03 Q1022=
201309301020 METAR ESMX 301020Z VRB02KT 9999 BKN046 11/03 Q1022=
201309300950 METAR ESMX 300950Z VRB02KT 9999 BKN045 10/05 Q1022=
201309300920 METAR ESMX 300920Z VRB02KT 9999 BKN045 10/05 Q1022=
201309300850 METAR ESMX 300850Z VRB02KT 9999 OVC045 10/05 Q1022=
201309300820 METAR ESMX 300820Z VRB02KT 9999 BKN045 10/05 Q1022=
201309300750 METAR ESMX 300750Z 08003KT 040V110 9999 BKN045 09/04 Q1023=
201309300720 METAR ESMX 300720Z 06003KT 020V080 9999 BKN045 10/05 Q1022=
201309300650 METAR ESMX 300650Z VRB01KT 9999 BKN046 08/06 Q1022=
201309300620 METAR ESMX 300620Z VRB01KT 9999 OVC045 07/06 Q1022=
201309300550 METAR ESMX 300550Z VRB01KT 9999 OVC044 06/05 Q1022=
201309300520 METAR ESMX 300520Z VRB01KT 9999 OVC045 06/05 Q1022=
201309300450 METAR ESMX 300450Z 00000KT 9999 OVC045 06/05 Q1022=
201309300420 METAR ESMX 300420Z 00000KT 9999 OVC046 06/05 Q1022=
201309300350 METAR ESMX 300350Z 05003KT 9999 OVC046 06/05 Q1022=
201309300320 METAR ESMX 300320Z AUTO VRB01KT 9999NDV OVC046/// 06/05 Q1022=
201309300250 METAR ESMX 300250Z AUTO 00000KT 9999NDV OVC045/// 06/05 Q1022=
201309300220 METAR ESMX 300220Z AUTO 00000KT 9999NDV OVC045/// 06/05 Q1023=
201309300150 METAR ESMX 300150Z AUTO 08001KT 9999NDV OVC045/// 06/05 Q1023=
201309300120 METAR ESMX 300120Z AUTO 09001KT 9999NDV OVC046/// 06/05 Q1023=
201309300050 METAR ESMX 300050Z AUTO 11003KT 9999NDV OVC045/// 06/05 Q1023=
201309300020 METAR ESMX 300020Z AUTO 10002KT 9999NDV OVC045/// 07/05 Q1023=
201309292350 METAR ESMX 292350Z AUTO 10003KT 9999NDV OVC045/// 07/05 Q1023=
201309292320 METAR ESMX 292320Z VRB02KT 9999 OVC046 07/05 Q1023=
201309292250 METAR ESMX 292250Z 15003KT 110V200 9999 OVC042 07/05 Q1023=
201309292220 METAR ESMX 292220Z VRB02KT 9999 OVC043 07/05 Q1023=
201309292120 METAR ESMX 292120Z 14004KT 110V170 9999 BKN046 08/05 Q1023=
201309292050 METAR ESMX 292050Z 15004KT 9999 BKN045 07/06 Q1023=
201309292020 METAR ESMX 292020Z 12003KT 070V150 CAVOK 05/04 Q1023=
201309291950 METAR ESMX 291950Z 12003KT CAVOK 05/04 Q1023=
201309291920 METAR ESMX 291920Z 36001KT CAVOK 06/05 Q1023=
201309291850 METAR ESMX 291850Z 15002KT CAVOK 07/05 Q1023=
201309291820 METAR ESMX 291820Z 00000KT CAVOK 07/05 Q1022=
201309291750 METAR ESMX 291750Z 08002KT CAVOK 08/06 Q1022=
201309291720 METAR ESMX 291720Z 00000KT 9999 FEW040 BKN050 08/05 Q1022=
201309291650 METAR ESMX 291650Z 07001KT 9999 SCT039 BKN045 09/05 Q1022=
201309291620 METAR ESMX 291620Z VRB02KT 9999 SCT039 BKN045 11/05 Q1022=
201309291550 METAR ESMX 291550Z 06003KT 020V120 9999 BKN044 12/04 Q1022=
201309291520 METAR ESMX 291520Z 33003KT 290V010 9999 BKN044 12/04 Q1022=
201309291450 METAR ESMX 291450Z 01003KT 9999 SCT048 11/05 Q1022=
201309291420 METAR ESMX 291420Z 04004KT 9999 BKN048 12/05 Q1022=
201309291350 METAR ESMX 291350Z 04005KT 010V080 9999 BKN046 12/04 Q1023=
201309291320 METAR ESMX 291320Z 05004KT 020V100 9999 BKN044 12/04 Q1023=
201309291250 METAR ESMX 291250Z AUTO 05005KT 020V080 9999NDV OVC038/// 12/04 Q1023=
201309291220 METAR ESMX 291220Z 05004KT 010V090 9999 FEW033 BKN039 12/04 Q1023=
201309291150 METAR ESMX 291150Z 03004KT 340V060 9999 FEW032 BKN038 12/04 Q1023=
201309291120 METAR ESMX 291120Z 08003KT 020V120 9999 SCT027 BKN037 11/04 Q1023=
201309291050 METAR ESMX 291050Z 04005KT 010V090 9999 FEW025 12/04 Q1023=
201309291020 METAR ESMX 291020Z 04005KT 350V080 9999 FEW023 11/04 Q1023=
201309290950 METAR ESMX 290950Z AUTO 06005KT 010V100 9999NDV NCD 10/04 Q1023=
201309290920 METAR ESMX 290920Z AUTO 01007KT 340V050 9999NDV NCD 10/04 Q1023=
201309290850 METAR ESMX 290850Z AUTO 03007KT 9999NDV NCD 09/04 Q1024=
201309290820 METAR ESMX 290820Z AUTO 02007KT 9999NDV NCD 07/04 Q1024=
201309290750 METAR ESMX 290750Z AUTO 04007KT 9999NDV FEW025/// 06/04 Q1024=
201309290720 METAR ESMX 290720Z AUTO 03005KT 360V060 9999NDV NCD 05/04 Q1023=
201309290650 METAR ESMX 290650Z AUTO 01005KT 9999NDV NCD 04/03 Q1023=
201309290620 METAR ESMX 290620Z AUTO 36005KT 9999NDV FEW023/// 02/02 Q1023=
201309290550 METAR ESMX 290550Z AUTO 01005KT 9999NDV BCFG SCT022/// 01/01 Q1023=
201309290520 METAR ESMX 290520Z AUTO 01002KT 5000NDV NCD M02/M03 Q1023=
201309290450 METAR ESMX 290450Z AUTO 02001KT 0250NDV R01/0650 R19/P2000N BCFG NCD M02/M03 Q1023=
201309290420 METAR ESMX 290420Z AUTO 05001KT 0150NDV R01/0450V0750 R19/0800VP2000U FZFG NCD M02/M02 Q1023=
201309290350 METAR ESMX 290350Z AUTO 04002KT 0150NDV R01/0900VP2000D R19/0500V0750 FZFG NCD M01/M01 Q1023=
201309290320 METAR ESMX 290320Z AUTO 01003KT 0150NDV R01/P2000 R19/P2000N BCFG NCD M00/M01 Q1023=
201309290250 METAR ESMX 290250Z AUTO 04003KT 3500NDV NCD M02/M02 Q1023=
201309290220 METAR ESMX 290220Z AUTO 01002KT 0450NDV R01/P2000N R19/P2000N BCFG NCD M01/M02 Q1023=
201309290150 METAR ESMX 290150Z AUTO 36002KT 0450NDV R01/1000VP2000D R19/P2000N BCFG NCD M02/M03 Q1023=
201309290120 METAR ESMX 290120Z AUTO 00000KT 0650NDV R01/P2000N R19/P2000N FZFG NCD M02/M02 Q1023=
201309290050 METAR ESMX 290050Z AUTO 00000KT 0250NDV R01/0700V1100N R19/P2000N BCFG NCD M01/M02 Q1023=
201309290020 METAR ESMX 290020Z AUTO 00000KT 0200NDV R01/0700 R19/P2000N FZFG NCD M01/M01 Q1022=
201309282350 METAR ESMX 282350Z AUTO 02002KT 0450NDV R01/1200VP2000D R19/P2000N=
201309282320 METAR ESMX 282320Z AUTO 02003KT 9999NDV NCD M01/M02 Q1022=
201309282250 METAR ESMX 282250Z AUTO 02001KT 0750NDV R01/P2000N R19/P2000N FZFG NCD M01/M02 Q1022=
201309282220 METAR ESMX 282220Z AUTO 00000KT 9999NDV BCFG NCD M01/M02 Q1022=
201309282150 METAR ESMX 282150Z AUTO 00000KT 9999NDV NCD M00/M01 Q1021=
201309282120 METAR ESMX 282120Z AUTO 00000KT 9999NDV NCD 00/M01 Q1021=
201309282050 METAR ESMX 282050Z AUTO 00000KT 9999NDV NCD 01/M00 Q1021=
201309282020 METAR ESMX 282020Z AUTO 00000KT 9999NDV NCD 02/01 Q1021=
201309281950 METAR ESMX 281950Z AUTO 05002KT 9999NDV NCD 03/01 Q1021=
201309281920 METAR ESMX 281920Z AUTO 01004KT 9999NDV NCD 06/03 Q1021=
201309281850 METAR ESMX 281850Z 01004KT CAVOK 05/03 Q1020=
201309281820 METAR ESMX 281820Z 02005KT CAVOK 07/04 Q1020=
201309281750 METAR ESMX 281750Z 02006KT 9999 FEW046 08/04 Q1020=
201309281720 METAR ESMX 281720Z 02006KT 9999 BKN040 09/04 Q1019=
201309281650 METAR ESMX 281650Z 02006KT 9999 FEW030 OVC040 10/04 Q1019=
201309281620 METAR ESMX 281620Z 36008KT 9999 BKN030 OVC041 10/05 Q1019=
201309281550 METAR ESMX 281550Z AUTO 01008KT 9999NDV FEW033/// OVC042/// 10/04 Q1019=
201309281520 METAR ESMX 281520Z AUTO 36007KT 9999NDV OVC041/// 11/04 Q1018=
201309281450 METAR ESMX 281450Z AUTO 01008KT 9999NDV FEW033/// OVC041/// 11/04 Q1018=
201309281420 METAR ESMX 281420Z AUTO 03006KT 9999NDV FEW032/// OVC037/// 11/03 Q1018=
201309281350 METAR ESMX 281350Z AUTO 01007KT 9999NDV FEW035/// OVC041/// 11/04 Q1018=
201309281250 METAR ESMX 281250Z AUTO 01007KT 9999NDV FEW030/// BKN034/// 11/04 Q1017=
201309281220 METAR ESMX 281220Z AUTO 36009KT 9999NDV FEW027/// BKN032/// 12/04 Q1017=
201309281150 METAR ESMX 281150Z AUTO 03008KT 9999NDV FEW028/// BKN034/// 11/04 Q1017=
201309281120 METAR ESMX 281120Z AUTO 36009KT 9999NDV FEW028/// BKN031/// 10/04 Q1017=
201309281050 METAR ESMX 281050Z AUTO 35008KT 9999NDV FEW024/// BKN028/// OVC035/// 10/04 Q1017=
201309281020 METAR ESMX 281020Z AUTO 03006KT 350V060 9999NDV OVC025/// 09/03 Q1017=
201309280950 METAR ESMX 280950Z AUTO 02007KT 350V060 9999NDV OVC023/// 09/03 Q1017=
201309280920 METAR ESMX 280920Z AUTO 36010KT 9999NDV OVC022/// 08/03 Q1016=
201309280850 METAR ESMX 280850Z AUTO 01009KT 9999NDV BKN020/// 08/03 Q1016=
201309280820 METAR ESMX 280820Z AUTO 01012KT 9999NDV OVC017/// 07/03 Q1016=
201309280750 METAR ESMX 280750Z AUTO 01013KT 9999NDV OVC018/// 07/03 Q1016=
201309280720 METAR ESMX 280720Z AUTO 01011KT 9999NDV OVC020/// 07/03 Q1015=
201309280650 METAR ESMX 280650Z AUTO 34007KT 9999NDV OVC021/// 06/04 Q1015=
201309280620 METAR ESMX 280620Z AUTO 32005KT 9999NDV OVC023/// 05/04 Q1015=
201309280550 METAR ESMX 280550Z AUTO 33003KT 9999NDV OVC022/// 03/02 Q1015=
201309280520 METAR ESMX 280520Z AUTO 31004KT 9999NDV OVC026/// 03/02 Q1015=
201309280450 METAR ESMX 280450Z AUTO 32004KT 9999NDV OVC027/// 02/01 Q1014=
201309280420 METAR ESMX 280420Z AUTO 31006KT 9999NDV FEW028/// SCT098/// 02/01 Q1014=
201309280350 METAR ESMX 280350Z AUTO 31006KT 9999NDV NCD 02/01 Q1014=
201309280320 METAR ESMX 280320Z AUTO 32007KT 9999NDV NCD 02/01 Q1014=
201309280250 METAR ESMX 280250Z AUTO 31006KT 9999NDV BKN047/// 04/01 Q1014=
201309280220 METAR ESMX 280220Z AUTO 33003KT 290V010 9999NDV FEW041/// BKN048/// OVC063/// 04/01 Q1014=
201309280150 METAR ESMX 280150Z AUTO 29005KT 260V330 9999NDV BKN041/// OVC053/// 05/01 Q1014=
201309280120 METAR ESMX 280120Z AUTO 28004KT 9999NDV BKN048/// OVC065/// 04/01 Q1014=
201309280050 METAR ESMX 280050Z AUTO 25004KT 9999NDV FEW046/// BKN062/// 03/00 Q1014=
201309280020 METAR ESMX 280020Z AUTO 26003KT 9999NDV BKN045/// 04/01 Q1014=
201309272350 METAR ESMX 272350Z AUTO 27004KT 9999NDV BKN043/// 04/01 Q1014=
201309272320 METAR ESMX 272320Z AUTO 26004KT 9999NDV BKN043/// 04/01 Q1014=
201309272250 METAR ESMX 272250Z AUTO 29005KT 9999NDV OVC043/// 04/01 Q1014=
201309272220 METAR ESMX 272220Z AUTO 28003KT 9999NDV SCT042/// 03/00 Q1014=
201309272150 METAR ESMX 272150Z AUTO 29003KT 9999NDV NCD 03/00 Q1014=
201309272120 METAR ESMX 272120Z AUTO 29005KT 9999NDV FEW041/// 04/00 Q1014=
201309272050 METAR ESMX 272050Z AUTO 28004KT 9999NDV FEW041/// 03/M00 Q1014=
201309272020 METAR ESMX 272020Z AUTO 28003KT 9999NDV FEW048/// 04/M00 Q1014=
201309271950 METAR ESMX 271950Z AUTO 28003KT 9999NDV FEW044/// 03/00 Q1014=
201309271920 METAR ESMX 271920Z AUTO 28004KT 9999NDV BKN044/// 04/00 Q1014=
201309271850 METAR ESMX 271850Z AUTO 30004KT 9999NDV NCD 04/00 Q1014=
201309271820 METAR ESMX 271820Z AUTO 29004KT 9999NDV NCD 04/00 Q1014=
201309271750 METAR ESMX 271750Z AUTO 30006KT 9999NDV NCD 06/00 Q1013=
201309271720 METAR ESMX 271720Z 30005KT CAVOK 07/00 Q1013=
201309271650 METAR ESMX 271650Z 30006KT CAVOK 08/00 Q1013=
201309271620 METAR ESMX 271620Z 31007KT CAVOK 10/M00 Q1013=
201309271550 METAR ESMX 271550Z 30008KT CAVOK 11/M00 Q1013=
201309271520 METAR ESMX 271520Z 32009KT 270V340 CAVOK 11/M00 Q1013=
201309271450 METAR ESMX 271450Z 32009KT 290V350 CAVOK 11/00 Q1013=
201309271420 METAR ESMX 271420Z 33010KT 300V360 CAVOK 11/M01 Q1013=
201309271350 METAR ESMX 271350Z 30011KT CAVOK 11/M01 Q1013=
201309271320 METAR ESMX 271320Z 32015KT CAVOK 11/M01 Q1013=
201309271250 METAR ESMX 271250Z 30012KT 260V330 CAVOK 11/M00 Q1013=
201309271220 METAR ESMX 271220Z 33010KT 290V350 CAVOK 11/M01 Q1013=
201309271150 METAR ESMX 271150Z 29011KT CAVOK 10/M01 Q1013=
201309271120 METAR ESMX 271120Z 30012KT 260V330 CAVOK 10/M01 Q1013=
201309271050 METAR ESMX 271050Z 29010KT 260V330 CAVOK 10/M01 Q1013=
201309271020 METAR ESMX 271020Z 32010KT 290V350 CAVOK 10/M01 Q1013=
201309270950 METAR ESMX 270950Z 31012KT 280V340 CAVOK 09/M01 Q1014=
201309270920 METAR ESMX 270920Z 31008KT 280V340 CAVOK 08/M01 Q1014=
201309270850 METAR ESMX 270850Z 30010KT 280V340 CAVOK 07/01 Q1014=
201309270820 METAR ESMX 270820Z 30007KT 250V330 CAVOK 06/01 Q1014=
201309270750 METAR ESMX 270750Z 31008KT CAVOK 05/01 Q1014=
201309270720 METAR ESMX 270720Z 29005KT CAVOK 04/01 Q1014=
201309270650 METAR ESMX 270650Z 27005KT CAVOK 03/00 Q1014=
201309270620 METAR ESMX 270620Z 28004KT CAVOK 01/00 Q1015=
201309270550 METAR ESMX 270550Z 26005KT CAVOK M02/M03 Q1015=
201309270520 METAR ESMX 270520Z 26005KT CAVOK M03/M03 Q1015=
201309270450 METAR ESMX 270450Z 26003KT CAVOK M02/M03 Q1015=
201309270420 METAR ESMX 270420Z 26003KT CAVOK M02/M03 Q1015=
201309270350 METAR ESMX 270350Z 26004KT CAVOK M02/M03 Q1015=
201309270320 METAR ESMX 270320Z AUTO 27003KT 9999NDV NCD M02/M03 Q1015=
201309270250 METAR ESMX 270250Z AUTO 26003KT 9999NDV NCD M01/M02 Q1015=
201309270220 METAR ESMX 270220Z AUTO 27002KT 9999NDV NCD M02/M03 Q1015=
201309270150 METAR ESMX 270150Z AUTO 26002KT 9999NDV NCD M01/M02 Q1015=
201309270120 METAR ESMX 270120Z AUTO 26003KT 9999NDV NCD M01/M02 Q1015=
201309270050 METAR ESMX 270050Z AUTO 25002KT 9999NDV FEW041/// M01/M02 Q1015=
201309270020 METAR ESMX 270020Z AUTO 26002KT 9999NDV SCT050/// M01/M02 Q1015=
201309262350 METAR ESMX 262350Z 24003KT 190V280 9999 FEW045 M01/M02 Q1016=
201309262320 METAR ESMX 262320Z 29004KT 9999 SCT045 M01/M02 Q1016=
201309262250 METAR ESMX 262250Z 30003KT 9999 SCT045 M01/M02 Q1016=
201309262220 METAR ESMX 262220Z 29004KT 9999 SCT045 M00/M02 Q1016=
201309262150 METAR ESMX 262150Z 27003KT 9999 SCT047 M00/M02 Q1016=
201309262120 METAR ESMX 262120Z 28004KT 9999 BKN047 00/M02 Q1016=
201309262050 METAR ESMX 262050Z 29005KT CAVOK 00/M01 Q1016=
201309262020 METAR ESMX 262020Z 29005KT CAVOK 00/M02 Q1016=
201309261950 METAR ESMX 261950Z 29006KT CAVOK 02/M01 Q1016=
201309261920 METAR ESMX 261920Z 29005KT CAVOK 02/M01 Q1015=
201309261850 METAR ESMX 261850Z 29005KT CAVOK 01/M01 Q1015=
201309261820 METAR ESMX 261820Z 28004KT CAVOK 01/M01 Q1015=
201309261750 METAR ESMX 261750Z 27003KT 230V300 CAVOK 02/M01 Q1015=
201309261720 METAR ESMX 261720Z 30004KT CAVOK 04/M01 Q1015=
201309261650 METAR ESMX 261650Z 32006KT CAVOK 05/M01 Q1015=
201309261620 METAR ESMX 261620Z 32007KT CAVOK 06/M01 Q1015=
201309261550 METAR ESMX 261550Z 33007KT CAVOK 07/M01 Q1014=
201309261520 METAR ESMX 261520Z 32009KT CAVOK 08/M02 Q1014=
201309261450 METAR ESMX 261450Z 34010KT CAVOK 09/M02 Q1014=
201309261420 METAR ESMX 261420Z 31008KT 270V340 CAVOK 10/M02 Q1014=
201309261350 METAR ESMX 261350Z 33011KT 9999 SCT047 09/M02 Q1014=
201309261320 METAR ESMX 261320Z 31011KT 280V340 9999 FEW045 09/M02 Q1014=
201309261250 METAR ESMX 261250Z 33012KT 9999 SCT045 09/M02 Q1014=
201309261220 METAR ESMX 261220Z 34010KT 9999 FEW045 10/M02 Q1014=
201309261150 METAR ESMX 261150Z 32008KT 280V350 9999 SCT045 10/M02 Q1014=
201309261120 METAR ESMX 261120Z 34007KT 290V010 9999 SCT045 10/M01 Q1014=
201309261050 METAR ESMX 261050Z 35010KT 9999 FEW040 SCT060 08/M02 Q1014=
201309261020 METAR ESMX 261020Z 31009KT 9999 SCT040 09/M02 Q1014=
201309260950 METAR ESMX 260950Z 33010KT 9999 SCT040 09/M01 Q1014=
201309260920 METAR ESMX 260920Z 01008KT 330V040 9999 SCT040 08/M01 Q1014=
201309260850 METAR ESMX 260850Z 33008KT 9999 FEW043 09/M02 Q1014=
201309260820 METAR ESMX 260820Z 01008KT CAVOK 08/00 Q1014=
201309260750 METAR ESMX 260750Z 34008KT CAVOK 07/01 Q1014=
201309260720 METAR ESMX 260720Z 34005KT CAVOK 07/01 Q1014=
201309260650 METAR ESMX 260650Z 36006KT CAVOK 06/02 Q1014=
201309260620 METAR ESMX 260620Z 35006KT CAVOK 04/02 Q1013=
201309260550 METAR ESMX 260550Z 01007KT CAVOK 04/01 Q1013=
201309260520 METAR ESMX 260520Z 33006KT 9999 FEW045 BKN070 04/02 Q1013=
201309260450 METAR ESMX 260450Z 04001KT 9999 BKN043 04/01 Q1013=
201309260420 METAR ESMX 260420Z 36006KT 9999 BKN041 05/01 Q1013=
201309260350 METAR ESMX 260350Z 01005KT 9999 BKN040 05/02 Q1013=
201309260320 METAR ESMX 260320Z AUTO 02006KT 9999NDV OVC036/// 05/02 Q1013=
201309260250 METAR ESMX 260250Z AUTO 01005KT 9999NDV OVC035/// 05/02 Q1013=
201309260220 METAR ESMX 260220Z AUTO 01004KT 9999NDV OVC038/// 04/02 Q1013=
201309260150 METAR ESMX 260150Z AUTO 01006KT 9999NDV OVC044/// 04/02 Q1013=
201309260120 METAR ESMX 260120Z AUTO 35004KT 9999NDV OVC043/// 03/02 Q1013=
201309260050 METAR ESMX 260050Z AUTO 01001KT 9999NDV OVC041/// 01/00 Q1013=
201309260020 METAR ESMX 260020Z AUTO 01002KT 9999NDV OVC040/// 02/02 Q1013=
201309252350 METAR ESMX 252350Z VRB01KT 9999 FEW041 SCT049 BKN100 01/M00 Q1013=
201309252320 METAR ESMX 252320Z 00000KT CAVOK 00/M01 Q1013=
201309252250 METAR ESMX 252250Z 11001KT CAVOK 00/M01 Q1013=
201309252220 METAR ESMX 252220Z 00000KT CAVOK 01/M00 Q1013=
201309252150 METAR ESMX 252150Z 05003KT CAVOK 02/00 Q1013=
201309252120 METAR ESMX 252120Z 06004KT CAVOK 03/01 Q1013=
201309252050 METAR ESMX 252050Z 04004KT CAVOK 04/01 Q1013=
201309252020 METAR ESMX 252020Z 04003KT CAVOK 03/01 Q1013=
201309251950 METAR ESMX 251950Z 34003KT CAVOK 04/01 Q1014=
201309251920 METAR ESMX 251920Z 02003KT CAVOK 03/01 Q1013=
201309251850 METAR ESMX 251850Z VRB01KT CAVOK 02/01 Q1013=
201309251820 METAR ESMX 251820Z 00000KT CAVOK 02/01 Q1013=
201309251750 METAR ESMX 251750Z 00000KT CAVOK 03/01 Q1013=
201309251720 METAR ESMX 251720Z 00000KT CAVOK 04/02 Q1013=
201309251650 METAR ESMX 251650Z 00000KT CAVOK 06/02 Q1013=
201309251620 METAR ESMX 251620Z 36003KT CAVOK 09/03 Q1013=
201309251550 METAR ESMX 251550Z 01005KT CAVOK 10/01 Q1014=
201309251520 METAR ESMX 251520Z 33006KT CAVOK 11/00 Q1014=
201309251450 METAR ESMX 251450Z 02006KT CAVOK 11/M00 Q1014=
201309251420 METAR ESMX 251420Z 36005KT 310V030 CAVOK 12/M01 Q1014=
201309251350 METAR ESMX 251350Z 01006KT 340V040 CAVOK 12/M02 Q1014=
201309251320 METAR ESMX 251320Z 01007KT 330V050 CAVOK 12/M02 Q1014=
201309251250 METAR ESMX 251250Z 03005KT 320V100 9999 FEW040 11/M00 Q1015=
201309251220 METAR ESMX 251220Z 34004KT 300V030 9999 FEW040 11/00 Q1015=
201309251150 METAR ESMX 251150Z 01004KT 300V060 9999 FEW035 10/M00 Q1015=
201309251120 METAR ESMX 251120Z 02005KT 320V080 9999 FEW035 10/M01 Q1015=
201309251050 METAR ESMX 251050Z 01007KT 330V050 9999 FEW037 10/M01 Q1016=
201309251020 METAR ESMX 251020Z 01008KT 330V040 9999 FEW030 09/01 Q1016=
201309250950 METAR ESMX 250950Z 36007KT 330V050 9999 FEW020 09/01 Q1016=
201309250920 METAR ESMX 250920Z 35007KT 310V020 9999 FEW021 08/02 Q1016=
201309250850 METAR ESMX 250850Z 36007KT 330V030 CAVOK 08/03 Q1016=
201309250820 METAR ESMX 250820Z 36008KT CAVOK 07/03 Q1016=
201309250750 METAR ESMX 250750Z 36008KT CAVOK 06/03 Q1016=
201309250720 METAR ESMX 250720Z 35009KT CAVOK 05/03 Q1016=
201309250650 METAR ESMX 250650Z 31004KT 9999 FEW025 03/03 Q1016=
201309250620 METAR ESMX 250620Z 28003KT 9999 FEW021 02/01 Q1016=
201309250550 METAR ESMX 250550Z 31001KT 9999 FEW025 01/00 Q1016=
201309250520 METAR ESMX 250520Z 27003KT 9999 SCT024 M01/M01 Q1016=
201309250450 METAR ESMX 250450Z 31002KT 9999 FEW025 M01/M01 Q1016=
201309250420 METAR ESMX 250420Z 28003KT CAVOK M01/M02 Q1016=
201309250350 METAR ESMX 250350Z 33002KT CAVOK 01/00 Q1016=
201309250320 METAR ESMX 250320Z AUTO 31003KT 9999NDV NCD 01/00 Q1016=
201309250250 METAR ESMX 250250Z AUTO 31005KT 9999NDV NCD 01/00 Q1016=
201309250220 METAR ESMX 250220Z AUTO 31004KT 9999NDV NCD 01/00 Q1016=
201309250150 METAR ESMX 250150Z AUTO 34003KT 9999NDV NCD 01/01 Q1016=
201309250120 METAR ESMX 250120Z AUTO 30003KT 9999NDV NCD 01/00 Q1016=
201309250050 METAR ESMX 250050Z AUTO 31005KT 9999NDV NCD 00/M00 Q1016=
201309250020 METAR ESMX 250020Z AUTO 33004KT 9999NDV NCD 01/01 Q1016=
201309242350 METAR ESMX 242350Z 31004KT CAVOK 01/M00 Q1016=
201309242320 METAR ESMX 242320Z 32003KT CAVOK 02/01 Q1016=
201309242250 METAR ESMX 242250Z 32003KT CAVOK 03/02 Q1016=
201309242220 METAR ESMX 242220Z 31005KT CAVOK 02/01 Q1016=
201309242150 METAR ESMX 242150Z 34006KT CAVOK 03/02 Q1016=
201309242120 METAR ESMX 242120Z 33005KT CAVOK 04/03 Q1016=
201309242050 METAR ESMX 242050Z 32005KT CAVOK 04/03 Q1016=
201309242020 METAR ESMX 242020Z 30004KT CAVOK 04/02 Q1015=
201309241950 METAR ESMX 241950Z 32005KT 280V350 CAVOK 05/03 Q1015=
201309241920 METAR ESMX 241920Z 35006KT 9999 FEW049 06/03 Q1015=
201309241850 METAR ESMX 241850Z 33007KT 9999 FEW033 BKN055 07/04 Q1015=
201309241820 METAR ESMX 241820Z 34005KT 9999 FEW032 06/04 Q1015=
201309241750 METAR ESMX 241750Z 35008KT 9999 FEW028 07/04 Q1015=
201309241720 METAR ESMX 241720Z 34007KT 9999 FEW043 07/03 Q1015=
201309241650 METAR ESMX 241650Z 36012KT 9999 FEW045 SCT063 09/04 Q1014=
201309241620 METAR COR ESMX 241620Z 33011KT 9999 -SHRA FEW043CB 09/04 Q1014=
201309241550 METAR ESMX 241550Z 34013KT 9999 FEW033 10/04 Q1014=
201309241520 METAR ESMX 241520Z 32011KT 9999 FEW032 SCT038 11/04 Q1013=
201309241450 METAR ESMX 241450Z 34011KT 9999 FEW029 11/04 Q1013=
201309241420 METAR ESMX 241420Z 33013KT 9999 FEW029 11/04 Q1013 RESHRA=
201309241350 METAR ESMX 241350Z 33012KT 9999 -SHRA FEW028CB 11/05 Q1013=
201309241320 METAR ESMX 241320Z 34012KT 9999 FEW025 10/04 Q1013 RESHRA=
201309241250 METAR ESMX 241250Z 35012KT 9999 -SHRA FEW020CB SCT046 BKN057 12/06 Q1013=
201309241220 METAR ESMX 241220Z 35015KT 9999 -SHRA FEW023CB SCT028 BKN042 10/06 Q1013=
201309241150 METAR ESMX 241150Z 33010KT 9999 FEW026 SCT052 11/04 Q1013=
201309241120 METAR ESMX 241120Z 34010KT 9999 FEW025 BKN041 11/05 Q1012=
201309241050 METAR ESMX 241050Z 33009KT 9999 FEW025 BKN035 11/05 Q1012=
201309241020 METAR ESMX 241020Z 33009KT 9999 FEW023 SCT030 11/04 Q1012=
201309240950 METAR ESMX 240950Z 34010KT 9999 SCT023 10/05 Q1012=
201309240920 METAR ESMX 240920Z 34010KT 9999 SCT020 10/05 Q1012=
201309240850 METAR ESMX 240850Z 35010KT 9999 FEW020 10/05 Q1012=
201309240820 METAR ESMX 240820Z 35011KT CAVOK 09/05 Q1012=
201309240750 METAR ESMX 240750Z 35011KT CAVOK 09/04 Q1012=
201309240720 METAR ESMX 240720Z 34008KT CAVOK 08/04 Q1012=
201309240650 METAR ESMX 240650Z 32008KT CAVOK 07/04 Q1012=
201309240620 METAR ESMX 240620Z 29005KT CAVOK 05/03 Q1012=
201309240550 METAR ESMX 240550Z 29005KT CAVOK 03/02 Q1012=
201309240520 METAR ESMX 240520Z 30003KT 270V340 CAVOK 02/01 Q1012=
201309240450 METAR ESMX 240450Z 30004KT 260V340 CAVOK 03/02 Q1012=
201309240420 METAR ESMX 240420Z 32003KT CAVOK 03/02 Q1012=
201309240350 METAR ESMX 240350Z 29005KT CAVOK 04/02 Q1012=
201309240320 METAR ESMX 240320Z AUTO 32005KT 9999NDV NCD 04/02 Q1012=
201309240250 METAR ESMX 240250Z AUTO 30007KT 9999NDV NCD 05/02 Q1012=
201309240220 METAR ESMX 240220Z AUTO 29007KT 9999NDV NCD 05/02 Q1012=
201309240150 METAR ESMX 240150Z AUTO 29005KT 260V330 9999NDV NCD 05/02 Q1012=
201309240120 METAR ESMX 240120Z AUTO 30006KT 9999NDV NCD 06/02 Q1012=
201309240050 METAR ESMX 240050Z AUTO 30007KT 9999NDV NCD 06/02 Q1012=
201309240020 METAR ESMX 240020Z AUTO 29008KT 9999NDV NCD 06/02 Q1013=
201309232350 METAR ESMX 232350Z 29006KT CAVOK 06/02 Q1012=
201309232320 METAR ESMX 232320Z 28006KT CAVOK 06/02 Q1013=
201309232250 METAR ESMX 232250Z 29006KT CAVOK 06/02 Q1013=
201309232220 METAR ESMX 232220Z 29007KT CAVOK 07/02 Q1013=
201309232150 METAR ESMX 232150Z 29007KT CAVOK 07/02 Q1013=
201309232120 METAR ESMX 232120Z 29007KT CAVOK 07/02 Q1013=
201309232050 METAR ESMX 232050Z 29007KT CAVOK 07/02 Q1013=
201309232020 METAR ESMX 232020Z 30006KT CAVOK 07/02 Q1013=
201309231950 METAR ESMX 231950Z 30006KT CAVOK 07/02 Q1013=
201309231920 METAR ESMX 231920Z 29006KT CAVOK 07/02 Q1013=
201309231850 METAR ESMX 231850Z 29005KT CAVOK 07/02 Q1013=
201309231820 METAR ESMX 231820Z 30005KT CAVOK 08/02 Q1013=
201309231750 METAR ESMX 231750Z 30006KT CAVOK 09/02 Q1013=
201309231720 METAR ESMX 231720Z 31007KT CAVOK 11/02 Q1013=
201309231650 METAR ESMX 231650Z 31006KT CAVOK 11/02 Q1013=
201309231620 METAR ESMX 231620Z 32009KT CAVOK 13/02 Q1013=
201309231550 METAR ESMX 231550Z 33011KT CAVOK 14/02 Q1012=
201309231520 METAR ESMX 231520Z 31011KT CAVOK 14/03 Q1012=
201309231450 METAR ESMX 231450Z 32011KT 280V340 CAVOK 14/02 Q1012=
201309231420 METAR ESMX 231420Z 34012KT CAVOK 15/02 Q1012=
201309231350 METAR ESMX 231350Z 35013KT CAVOK 15/03 Q1012=
201309231320 METAR ESMX 231320Z 34011KT CAVOK 15/04 Q1012=
201309231250 METAR ESMX 231250Z 33014KT CAVOK 14/02 Q1013=
201309231150 METAR ESMX 231150Z 34012KT CAVOK 15/03 Q1013=
201309231120 METAR ESMX 231120Z 35011KT CAVOK 15/02 Q1013=
201309231050 METAR ESMX 231050Z 34012KT CAVOK 14/04 Q1013=
201309231020 METAR ESMX 231020Z 34011KT CAVOK 14/04 Q1013=
201309230950 METAR ESMX 230950Z 33010KT 300V010 CAVOK 13/03 Q1013=
201309230920 METAR ESMX 230920Z 35010KT CAVOK 13/04 Q1013=
201309230850 METAR ESMX 230850Z 31009KT 260V330 9999 FEW049 12/05 Q1013=
201309230820 METAR ESMX 230820Z 32007KT 9999 SCT044 11/06 Q1013=
201309230750 METAR ESMX 230750Z 32006KT 9999 FEW045 11/07 Q1013=
201309230720 METAR ESMX 230720Z 31004KT 270V340 CAVOK 10/07 Q1013=
201309230650 METAR COR ESMX 230650Z 32004KT CAVOK 09/07 Q1013=
201309230620 METAR ESMX 230620Z 33005KT 9999 BKN057 09/07 Q1013=
201309230550 METAR ESMX 230550Z 29003KT CAVOK 09/07 Q1013=
201309230520 METAR ESMX 230520Z 29003KT CAVOK 09/08 Q1013=
201309230450 METAR ESMX 230450Z 32003KT CAVOK 09/08 Q1013=
201309230420 METAR ESMX 230420Z 29004KT CAVOK 09/08 Q1013=
201309230350 METAR COR ESMX 230350Z 30004KT 260V330 CAVOK 09/09 Q1013=
201309230320 METAR ESMX 230320Z AUTO 28004KT 9999NDV BKN065/// 09/09 Q1013=
201309230250 METAR ESMX 230250Z AUTO 29005KT 9999NDV BKN069/// 08/08 Q1013=
201309230220 METAR ESMX 230220Z AUTO 29004KT 9999NDV BKN069/// 09/08 Q1013=
201309230150 METAR ESMX 230150Z AUTO 29003KT 9999NDV FEW070/// 09/08 Q1013=
201309230120 METAR ESMX 230120Z AUTO 28004KT 9999NDV NCD 10/09 Q1013=
201309230050 METAR ESMX 230050Z AUTO 30004KT 9999NDV NCD 09/08 Q1013=
201309230020 METAR ESMX 230020Z AUTO 32007KT 9999NDV FEW008/// 10/09 Q1013=
201309222350 METAR ESMX 222350Z AUTO 31005KT 9999NDV NCD 10/09 Q1013=
201309222320 METAR ESMX 222320Z 32006KT 9999 FEW015 10/09 Q1013=
201309222250 METAR ESMX 222250Z 31006KT 9999 SCT010 11/10 Q1012=
201309222220 METAR ESMX 222220Z 31006KT 9999 SCT010 11/10 Q1012=
201309222150 METAR ESMX 222150Z 34010KT 9999 SCT013 13/11 Q1012=
201309222120 METAR ESMX 222120Z 32009KT 9999 SCT015 13/11 Q1011=
201309222050 METAR ESMX 222050Z 32010KT 9999 FEW013 SCT020 13/12 Q1011=
201309222020 METAR ESMX 222020Z 31008KT 9999 FEW012 SCT017 BKN024 14/13 Q1010=
201309221950 METAR ESMX 221950Z 30009KT 9999 FEW010 BKN013 OVC040 14/13 Q1010=
201309221920 METAR ESMX 221920Z 30008KT 9999 FEW012 OVC036 14/13 Q1010=
201309221850 METAR ESMX 221850Z 31007KT 9999 FEW009 BKN015 14/13 Q1010 REDZ=
201309221820 METAR ESMX 221820Z 29010KT 9999 FEW007 BKN012 15/13 Q1010=
201309221750 METAR ESMX 221750Z 29009KT 9000 BR FEW006 BKN010 15/14 Q1009=
201309221720 METAR ESMX 221720Z 27009KT 6000 DZ FEW005 SCT008 BKN009 15/14 Q1009=
201309221650 METAR ESMX 221650Z 26008KT 4300 BR FEW004 SCT006 BKN008 14/13 Q1009 REDZ=
201309221620 METAR ESMX 221620Z 23007KT 5000 -DZ FEW002 BKN004 OVC006 14/13 Q1009=
201309221550 METAR ESMX 221550Z 22008KT 5000 -RA BKN002 OVC006 13/12 Q1010 REDZ=
201309221520 METAR ESMX 221520Z 20009KT 2500 DZ FEW002 BKN003 OVC006 13/12 Q1010=
201309221450 METAR ESMX 221450Z 20009KT 2700 DZ FEW003 OVC005 13/12 Q1011=
201309221420 METAR ESMX 221420Z 22008KT 2900 -RA FEW005 SCT007 BKN008 13/12 Q1011 REDZ=
201309221350 METAR ESMX 221350Z 22009KT 3000 DZ FEW009 BKN017 13/11 Q1012=
201309221320 METAR ESMX 221320Z 25012KT 8000 BR FEW019 OVC021 14/11 Q1013=
201309221250 METAR ESMX 221250Z AUTO 24010KT 9999NDV FEW020/// BKN023/// OVC036/// 15/10 Q1013=
201309221220 METAR ESMX 221220Z 23012KT 9999 FEW020 SCT024 BKN030 15/10 Q1013=
201309221150 METAR ESMX 221150Z 24013KT 9999 FEW023 SCT028 BKN063 15/10 Q1014=
201309221120 METAR ESMX 221120Z 24011G21KT 200V270 9999 SCT016 15/10 Q1014=
201309221050 METAR ESMX 221050Z 24012KT 9999 FEW013 BKN015 14/11 Q1014=
201309221020 METAR ESMX 221020Z 22010KT 9999 BKN010 OVC015 14/12 Q1015=
201309220950 METAR ESMX 220950Z 22009KT 9999 SCT010 BKN015 14/11 Q1015=
201309220920 METAR ESMX 220920Z 21009KT 170V230 9999 BKN011 13/11 Q1016=
201309220850 METAR ESMX 220850Z 24010KT 9999 BKN010 OVC017 14/11 Q1016=
201309220820 METAR ESMX 220820Z 23010KT 9999 BKN010 13/10 Q1016=
201309220750 METAR ESMX 220750Z AUTO 24009KT 9999NDV BKN010/// 13/10 Q1016=
201309220720 METAR ESMX 220720Z AUTO 22008KT 9999NDV FEW010/// SCT090/// 12/10 Q1017=
201309220650 METAR ESMX 220650Z AUTO 24008KT 9999NDV FEW029/// BKN088/// 12/10 Q1017=
201309220620 METAR ESMX 220620Z AUTO 22007KT 9999NDV SCT028/// BKN110/// 12/10 Q1017=
201309220550 METAR ESMX 220550Z AUTO 24007KT 9999NDV FEW011/// SCT026/// BKN110/// 11/10 Q1018=
201309220520 METAR ESMX 220520Z AUTO 24007KT 9999NDV FEW011/// OVC021/// 11/10 Q1018=
201309220450 METAR ESMX 220450Z AUTO 23006KT 9999NDV OVC018/// 11/10 Q1018=
201309220420 METAR ESMX 220420Z AUTO 23007KT 9999NDV OVC017/// 11/09 Q1018=
201309220350 METAR ESMX 220350Z AUTO 24007KT 9999NDV OVC018/// 11/09 Q1018=
201309220320 METAR ESMX 220320Z AUTO 24007KT 9999NDV BKN018/// 10/09 Q1019=
201309220250 METAR ESMX 220250Z AUTO 24005KT 9999NDV FEW020/// 10/09 Q1019=
201309220220 METAR ESMX 220220Z AUTO 25007KT 9999NDV NCD 11/09 Q1019=
201309220150 METAR ESMX 220150Z AUTO 23006KT 200V260 9999NDV SCT021/// 11/09 Q1019=
201309220120 METAR ESMX 220120Z AUTO 23007KT 9999NDV NCD 11/09 Q1019=
201309220050 METAR ESMX 220050Z AUTO 23007KT 9999NDV NCD 11/09 Q1019=
201309220020 METAR ESMX 220020Z AUTO 22006KT 9999NDV FEW029/// 11/09 Q1019=
201309212350 METAR ESMX 212350Z AUTO 24004KT 200V280 9999NDV SCT025/// 11/09 Q1020=
201309212320 METAR ESMX 212320Z AUTO 21005KT 9999NDV FEW013/// BKN035/// 11/09 Q1020=
201309212250 METAR ESMX 212250Z AUTO 22005KT 9999NDV FEW018/// OVC033/// 11/09 Q1020=
201309212220 METAR ESMX 212220Z AUTO 23005KT 200V260 9999NDV OVC033/// 11/09 Q1020=
201309212150 METAR ESMX 212150Z AUTO 23005KT 9999NDV BKN037/// 11/09 Q1020=
201309212120 METAR ESMX 212120Z AUTO 22006KT 9999NDV FEW029/// 10/09 Q1020=
201309212050 METAR ESMX 212050Z 22006KT 9999 SCT029 11/09 Q1020=
201309212020 METAR ESMX 212020Z 22007KT 9999 FEW032 SCT038 10/09 Q1020=
201309211950 METAR ESMX 211950Z 24007KT 9999 FEW035 10/08 Q1020=
201309211920 METAR ESMX 211920Z 25006KT CAVOK 10/08 Q1020=
201309211850 METAR ESMX 211850Z 24004KT CAVOK 10/08 Q1020=
201309211820 METAR ESMX 211820Z 24005KT 200V270 CAVOK 11/09 Q1020=
201309211750 METAR ESMX 211750Z 24005KT 210V270 9999 FEW022 11/09 Q1020=
201309211720 METAR ESMX 211720Z 25005KT 9999 FEW028 12/09 Q1020=
201309211650 METAR ESMX 211650Z 25006KT 9999 FEW025 12/09 Q1020=
201309211620 METAR ESMX 211620Z 25007KT 9999 FEW024 SCT054 13/09 Q1020=
201309211550 METAR ESMX 211550Z 25007KT 9999 FEW024 BKN055 13/09 Q1020=
201309211520 METAR ESMX 211520Z AUTO 26007KT 240V300 9999NDV BKN052/// 14/09 Q1019=
201309211350 METAR ESMX 211350Z 26010KT 240V300 9999 SCT027 BKN037 15/08 Q1019=
201309211320 METAR ESMX 211320Z 26010KT 9999 BKN059 15/09 Q1019=
201309211250 METAR ESMX 211250Z 25009KT 9999 FEW030 OVC055 14/09 Q1019=
201309211220 METAR ESMX 211220Z AUTO 26009KT 9999NDV FEW031/// SCT036/// BKN047/// 14/08 Q1019=
201309211150 METAR ESMX 211150Z AUTO 25010KT 220V290 9999NDV FEW035/// SCT053/// 15/07 Q1019=
201309211120 METAR ESMX 211120Z AUTO 28008KT 240V300 9999NDV FEW036/// SCT047/// BKN057/// 15/08 Q1019=
201309211050 METAR ESMX 211050Z AUTO 26009KT 230V300 9999NDV FEW032/// 17/09 Q1019=
201309211020 METAR ESMX 211020Z AUTO 27009KT 240V300 9999NDV FEW027/// 15/08 Q1019=
201309210950 METAR ESMX 210950Z AUTO 29008KT 9999NDV NCD 15/08 Q1019=
201309210920 METAR ESMX 210920Z AUTO 26008KT 9999NDV FEW016/// 14/09 Q1019=
201309210850 METAR ESMX 210850Z AUTO 27008KT 9999NDV NCD 13/10 Q1019=
201309210820 METAR ESMX 210820Z AUTO 26007KT 230V290 9999NDV NCD 13/10 Q1019=
201309210750 METAR ESMX 210750Z AUTO 26006KT 9999NDV NCD 12/10 Q1019=
201309210720 METAR ESMX 210720Z AUTO 25004KT 9999NDV NCD 10/09 Q1019=
201309210650 METAR ESMX 210650Z AUTO VRB02KT 9999NDV NCD 08/07 Q1018=
201309210620 METAR ESMX 210620Z AUTO 19003KT 8000NDV NCD 06/05 Q1018=
201309210550 METAR ESMX 210550Z AUTO 16001KT 0200NDV R01/P2000D R19/0700 NCD 02/02 Q1018=
201309210520 METAR ESMX 210520Z AUTO 17003KT 0550NDV R01/P2000N R19/P2000 NCD 02/01 Q1018=
201309210450 METAR ESMX 210450Z AUTO 00000KT 0350NDV R01/P2000 R19/0800V1400D FG NCD 01/01 Q1018=
201309210420 METAR ESMX 210420Z AUTO 20002KT 0200NDV R01/0450 R19/0800VP2000U BCFG NCD 02/02 Q1018=
201309210350 METAR ESMX 210350Z AUTO 00000KT 0350NDV R01/P2000D R19/0800VP2000U BCFG NCD 02/02 Q1018=
201309210320 METAR ESMX 210320Z AUTO 00000KT 0100NDV R01/0350VP2000U R19/0500 BCFG NCD 02/01 Q1018=
201309210250 METAR ESMX 210250Z AUTO 25002KT 0100NDV R01/P2000N R19/0350V0600 BR NCD 04/03 Q1017=
201309210220 METAR ESMX 210220Z AUTO 25003KT 0200NDV R01/P2000N R19/0600V1100 BR NCD 03/03 Q1017=
201309210150 METAR ESMX 210150Z AUTO 26002KT 0300NDV R01/P2000N R19/P2000 BCFG NCD 04/04 Q1017=
201309210120 METAR ESMX 210120Z AUTO 00000KT 2200NDV BCFG NCD 05/04 Q1017=
201309210050 METAR ESMX 210050Z AUTO 18003KT 1800NDV BCFG NCD 04/03 Q1017=
201309210020 METAR ESMX 210020Z AUTO 17001KT 1400NDV R01/P2000N R19/P2000N BR NCD 05/04 Q1016=
201309202350 METAR ESMX 202350Z AUTO 00000KT 9999NDV NCD 05/04 Q1016=
201309202320 METAR ESMX 202320Z AUTO 00000KT 9999NDV NCD 05/04 Q1016=
201309202250 METAR ESMX 202250Z AUTO 28001KT 9999NDV NCD 06/05 Q1016=
201309202220 METAR ESMX 202220Z AUTO 25001KT 9999NDV NCD 05/04 Q1016=
201309202150 METAR ESMX 202150Z AUTO 00000KT 8000NDV NCD 06/04 Q1016=
201309202120 METAR ESMX 202120Z AUTO 24001KT 9999NDV NCD 05/04 Q1015=
201309202050 METAR ESMX 202050Z AUTO VRB01KT 9999NDV NCD 06/05 Q1015=
201309202020 METAR ESMX 202020Z AUTO 21003KT 9999NDV NCD 08/06 Q1015=
201309201950 METAR ESMX 201950Z 28004KT 9999 FEW048 07/06 Q1015=
201309201920 METAR ESMX 201920Z 26003KT 9999 FEW048 06/05 Q1014=
201309201850 METAR ESMX 201850Z 26002KT CAVOK 07/05 Q1014=
201309201820 METAR ESMX 201820Z 26002KT CAVOK 07/06 Q1014=
201309201750 METAR ESMX 201750Z 26003KT 9999 MIFG NSC 08/06 Q1014=
201309201720 METAR ESMX 201720Z 26002KT CAVOK 09/07 Q1013=
201309201650 METAR ESMX 201650Z 27002KT CAVOK 14/08 Q1013=
201309201620 METAR ESMX 201620Z 28004KT CAVOK 15/07 Q1013=
201309201550 METAR ESMX 201550Z 29003KT 250V320 CAVOK 16/06 Q1013=
201309201520 METAR ESMX 201520Z 27004KT CAVOK 16/05 Q1012=
201309201450 METAR ESMX 201450Z 28004KT 240V310 9999 FEW040 15/06 Q1012=
201309201420 METAR ESMX 201420Z 30005KT 9999 FEW040 14/06 Q1012=
201309201350 METAR ESMX 201350Z 01005KT 9999 FEW040 17/06 Q1012=
201309201320 METAR ESMX 201320Z 01005KT 350V050 9999 FEW040 16/06 Q1012=
201309201250 METAR ESMX 201250Z VRB03KT 9999 FEW040 16/06 Q1011=
201309201220 METAR ESMX 201220Z 03004KT 350V070 9999 FEW038 16/05 Q1011=
201309201150 METAR ESMX 201150Z 03004KT 330V070 9999 FEW035 15/06 Q1011=
201309201120 METAR ESMX 201120Z 03005KT CAVOK 15/06 Q1011=
201309201050 METAR ESMX 201050Z 03005KT 360V060 CAVOK 15/07 Q1011=
201309201020 METAR ESMX 201020Z 03005KT 350V070 9999 FEW020 14/05 Q1011=
201309200950 METAR ESMX 200950Z 01004KT 9999 FEW015 13/06 Q1011=
201309200920 METAR ESMX 200920Z 03005KT CAVOK 13/07 Q1010=
201309200850 METAR ESMX 200850Z VRB02KT CAVOK 12/10 Q1010=
201309200820 METAR ESMX 200820Z VRB02KT CAVOK 10/10 Q1010=
201309200750 METAR ESMX 200750Z VRB01KT 0450 R01/0800 R19/P2000N FG VV002 09/08 Q1010=
201309200720 METAR ESMX 200720Z 36001KT 0100 R01/0175N R19/0375V0550 FG VV001 08/07 Q1010=
201309200650 METAR ESMX 200650Z VRB01KT 0050 R01/M0150N R19/M0150V0325N FG VV000 07/06 Q1010=
201309200620 METAR ESMX 200620Z 00000KT 0050 R01/M0150N R19/0150V0275N FG VV001 05/05 Q1009=
201309200550 METAR ESMX 200550Z 00000KT 0050 R01/M0150N R19/0150N FG VV000 04/04 Q1009=
201309200520 METAR ESMX 200520Z 00000KT 0050 R01/M0150N R19/M0150N FG VV001 03/02 Q1009=
201309200450 METAR ESMX 200450Z 00000KT 0050 R01/0200V0300N R19/0225N FG VV001 02/02 Q1009=
201309200420 METAR ESMX 200420Z 00000KT 0050 R01/0275V0500N R19/0200N FG VV001 02/01 Q1009=
201309200350 METAR ESMX 200350Z 00000KT 0050 R01/0150V0325N R19/0325N BCFG VV001 01/01 Q1009=
201309200320 METAR ESMX 200320Z AUTO 00000KT 0050NDV R01/1200V1900D R19/0200V0300N FG VV000 00/M00 Q1008=
201309200250 METAR ESMX 200250Z AUTO 00000KT 0150NDV R01/P2000N R19/0500 BCFG VV000 01/01 Q1008=
201309200220 METAR ESMX 200220Z AUTO 00000KT 0250NDV R01/0800VP2000 R19/0800V1100 FG VV001 02/01 Q1008=
201309200150 METAR ESMX 200150Z AUTO 00000KT 0100NDV R01/0300V0400 R19/0900VP2000U BCFG NCD 01/01 Q1008=
201309200120 METAR ESMX 200120Z AUTO 17001KT 0200NDV R01/P2000N R19/0450 BCFG NCD 03/03 Q1008=
201309200050 METAR ESMX 200050Z AUTO 00000KT 0250NDV R01/P2000N R19/0700 BCFG NCD 02/01 Q1008=
201309200020 METAR ESMX 200020Z 00000KT 9999 R19/P2000N BCFG NSC 02/01 Q1008=
201309192350 METAR ESMX 192350Z 22001KT 9999 R19/P2000N BCFG NSC 02/02 Q1008=
201309192320 METAR ESMX 192320Z 25002KT 9999 MIFG NSC 03/03 Q1008=
201309192250 METAR ESMX 192250Z 26002KT 9999 MIFG NSC 04/04 Q1007=
201309192220 METAR ESMX 192220Z 18003KT 9999 MIFG NSC 04/03 Q1008=
201309192150 METAR ESMX 192150Z 24002KT 9999 MIFG NSC 04/04 Q1008=
201309192120 METAR ESMX 192120Z VRB01KT CAVOK 04/03 Q1007=
201309192050 METAR ESMX 192050Z 17002KT CAVOK 05/04 Q1007=
201309192020 METAR ESMX 192020Z 23002KT CAVOK 05/04 Q1007=
201309191950 METAR ESMX 191950Z VRB01KT CAVOK 05/04 Q1007=
201309191920 METAR ESMX 191920Z 21003KT CAVOK 07/05 Q1007=
201309191850 METAR ESMX 191850Z 21003KT CAVOK 08/06 Q1007=
201309191820 METAR ESMX 191820Z 00000KT 9999 SCT037 09/07 Q1007=
201309191750 METAR ESMX 191750Z 34004KT 9999 FEW046 SCT093 09/07 Q1006=
201309191720 METAR ESMX 191720Z 27004KT 9999 FEW036 SCT041 10/07 Q1006=
201309191650 METAR ESMX 191650Z 23004KT 9999 FEW041 10/07 Q1006=
201309191620 METAR ESMX 191620Z 24005KT 9999 FEW030 12/07 Q1006=
201309191550 METAR ESMX 191550Z VRB01KT CAVOK 15/07 Q1005=
201309191520 METAR ESMX 191520Z 32005KT 280V350 9999 FEW039 13/07 Q1005=
201309191450 METAR ESMX 191450Z 28005KT 250V340 9999 FEW038 14/06 Q1005=
201309191420 METAR ESMX 191420Z 30005KT 9999 FEW030CB SCT110 14/08 Q1005=
201309191350 METAR ESMX 191350Z 29004KT 250V330 CAVOK 14/07 Q1005=
201309191320 METAR ESMX 191320Z 28004KT CAVOK 13/08 Q1005=
201309191250 METAR ESMX 191250Z 28006KT 250V320 9999 FEW025 SCT095 14/09 Q1004=
201309191220 METAR ESMX 191220Z 26006KT 9999 SCT022 13/08 Q1004=
201309191150 METAR ESMX 191150Z 29007KT 9999 FEW025 SCT100 13/08 Q1004=
201309191120 METAR ESMX 191120Z 28006KT 250V330 9999 FEW015 SCT090 14/09 Q1004=
201309191050 METAR ESMX 191050Z 26006KT 240V320 CAVOK 13/09 Q1004=
201309191020 METAR ESMX 191020Z 26005KT 9999 FEW028 SCT069 11/09 Q1004=
201309190950 METAR ESMX 190950Z 27004KT 9999 -DZ FEW025 SCT047 11/09 Q1004=
201309190920 METAR ESMX 190920Z 27003KT 240V300 9999 -DZ FEW025 SCT046 11/09 Q1003=
201309190850 METAR ESMX 190850Z 32003KT 9999 FEW046 SCT051 11/09 Q1003=
201309190820 METAR ESMX 190820Z 32004KT 9999 FEW045 10/09 Q1003=
201309190750 METAR ESMX 190750Z 28003KT 9999 -DZ FEW028 SCT050 09/08 Q1003=
201309190720 METAR ESMX 190720Z VRB01KT 9999 -SHRA FEW028 SCT050 08/08 Q1003=
201309190650 METAR ESMX 190650Z 28002KT 9999 -SHRA FEW028 SCT041 08/07 Q1002=
201309190620 METAR ESMX 190620Z 33002KT 9999 -SHRA FEW043 SCT054 08/07 Q1002=
201309190550 METAR ESMX 190550Z 29003KT 9999 -SHRA FEW043 BKN057 07/07 Q1002=
201309190520 METAR ESMX 190520Z 27004KT 9999 -SHRA FEW028 BKN055 07/06 Q1002=
201309190450 METAR ESMX 190450Z 28004KT 9999 -SHRA FEW035 BKN060 06/06 Q1002=
201309190420 METAR ESMX 190420Z 28003KT CAVOK 06/06 Q1001=
201309190350 METAR ESMX 190350Z 26003KT 9000 BR NSC 06/05 Q1001=
201309190320 METAR ESMX 190320Z AUTO VRB01KT 5000NDV BKN074/// 06/05 Q1001=
201309190250 METAR ESMX 190250Z AUTO 26001KT 0550NDV R01/P2000D R19/P2000N BCFG NCD 05/04 Q1001=
201309190220 METAR ESMX 190220Z AUTO 00000KT 0450NDV R01/P2000N R19/1000VP2000D BCFG NCD 06/05 Q1001=
201309190150 METAR ESMX 190150Z AUTO 00000KT 1800NDV FEW082/// 05/05 Q1001=
201309190120 METAR ESMX 190120Z AUTO 28002KT 5000NDV BR NCD 06/05 Q1001=
201309190050 METAR ESMX 190050Z AUTO 00000KT 3600NDV BR NCD 06/06 Q1001=
201309190020 METAR ESMX 190020Z AUTO 00000KT 4200NDV BR NCD 06/06 Q1001=
201309182350 METAR ESMX 182350Z 00000KT 9999 MIFG NSC 06/05 Q1000=
201309182320 METAR ESMX 182320Z 06002KT 9999 MIFG NSC 07/06 Q1000=
201309182250 METAR COR ESMX 182250Z VRB02KT 9999 MIFG NSC 07/07 Q1000=
201309182220 METAR ESMX 182220Z VRB01KT CAVOK 08/07 Q1000=
201309182150 METAR ESMX 182150Z 32001KT CAVOK 08/07 Q1000=
201309182120 METAR ESMX 182120Z VRB02KT CAVOK 08/07 Q1000=
201309182050 METAR ESMX 182050Z 35003KT 9999 VCSH FEW020 SCT080 09/08 Q1000=
201309182020 METAR ESMX 182020Z 31001KT 9999 -SHRA FEW020 SCT030CB BKN080 09/07 Q1000=
201309181950 METAR ESMX 181950Z 01002KT 9999 FEW020 BKN096 09/07 Q1000=
201309181920 METAR ESMX 181920Z 00000KT 9999 FEW020 OVC062 09/07 Q1000=
201309181850 METAR ESMX 181850Z 00000KT 9999 FEW020 BKN062 09/07 Q1000=
201309181820 METAR ESMX 181820Z 27001KT 9999 FEW025 BKN095 09/07 Q0999=
201309181750 METAR ESMX 181750Z 27004KT 9999 FEW025 SCT055 09/07 Q0999=
201309181720 METAR ESMX 181720Z 23005KT 9999 VCSH FEW023CB SCT059 10/07 Q0999=
201309181650 METAR ESMX 181650Z 20006KT 150V230 9999 VCSH SCT018CB BKN050 12/07 Q0999=
201309181620 METAR ESMX 181620Z 15006KT 9999 VCSH FEW030CB SCT042 BKN061 13/07 Q0999=
201309181550 METAR ESMX 181550Z 08005KT 020V140 9999 VCSH FEW032CB BKN055 14/07 Q0998=
201309181520 METAR ESMX 181520Z 09004KT 9999 VCSH FEW040CB SCT055 14/07 Q0998=
201309181450 METAR ESMX 181450Z 03007KT 010V070 9999 SCT040 15/06 Q0998=
201309181420 METAR ESMX 181420Z 03004KT 320V080 CAVOK 15/06 Q0998=
201309181350 METAR ESMX 181350Z VRB02KT CAVOK 16/04 Q0998=
201309181320 METAR ESMX 181320Z 13004KT 060V180 9999 FEW030 15/05 Q0998=
201309181250 METAR ESMX 181250Z 09004KT 020V150 9999 FEW030 15/05 Q0998=
201309181220 METAR ESMX 181220Z 15005KT 110V190 CAVOK 14/07 Q0998=
201309181150 METAR ESMX 181150Z 14004KT 070V200 9999 FEW045 SCT072 15/08 Q0998=
201309181120 METAR ESMX 181120Z 10005KT 050V170 9999 SCT018 13/09 Q0998=
201309181050 METAR ESMX 181050Z 12005KT 070V160 9999 FEW025 SCT036 BKN053 13/08 Q0998=
201309181020 METAR ESMX 181020Z 15005KT 080V200 9999 SCT020 SCT055 13/08 Q0998=
201309180950 METAR ESMX 180950Z 17006KT 110V210 9999 FEW016 SCT027 13/09 Q0998=
201309180920 METAR ESMX 180920Z 14004KT 100V190 9999 SCT012 12/08 Q0998=
201309180850 METAR ESMX 180850Z 12003KT 040V170 9999 FEW012 12/08 Q0998=
201309180820 METAR ESMX 180820Z 14003KT 110V170 CAVOK 11/08 Q0998=
201309180750 METAR ESMX 180750Z 12003KT 090V170 CAVOK 11/08 Q0997=
201309180720 METAR ESMX 180720Z VRB01KT CAVOK 10/09 Q0997=
201309180650 METAR ESMX 180650Z 00000KT 9999 FEW002 SCT075 09/08 Q0997=
201309180620 METAR ESMX 180620Z VRB01KT 9999 FEW002 BKN020 08/08 Q0997=
201309180550 METAR ESMX 180550Z VRB01KT 1100 R01/0800VP2000D R19/P2000N OVC017 06/06 Q0997=
201309180520 METAR ESMX 180520Z AUTO 16003KT 0900NDV R01/P2000D R19/0800V1800U SCT017/// 04/04 Q0997=
201309180450 METAR ESMX 180450Z 20003KT 0050 R01/0325V0800U R19/0175N FG VV002 04/03 Q0997=
201309180420 METAR ESMX 180420Z 18003KT 0050 R01/0275N R19/0225N FG VV002 04/03 Q0996=
201309180350 METAR ESMX 180350Z VRB01KT 0150 R01/0700 R19/0500V1500 FG VV001 05/04 Q0996=
201309180320 METAR ESMX 180320Z AUTO 15004KT 0550NDV R01/P2000N R19/P2000N NCD 04/03 Q0996=
201309180250 METAR ESMX 180250Z AUTO 16003KT 0500NDV R01/P2000N R19/P2000N NCD 05/04 Q0996=
201309180220 METAR ESMX 180220Z AUTO 19004KT 1000NDV R01/P2000N R19/P2000N NCD 06/05 Q0997=
201309180150 METAR ESMX 180150Z AUTO 18004KT 6000NDV NCD 05/04 Q0997=
201309180120 METAR ESMX 180120Z AUTO 18005KT 6000NDV NCD 06/05 Q0997=
201309180050 METAR ESMX 180050Z 18005KT 3300 R19/P2000 MIFG NSC 06/05 Q0997=
201309180020 METAR ESMX 180020Z 17004KT 4000 R01/P2000N R19/P2000N MIFG NSC 07/06 Q0997=
201309172350 METAR ESMX 172350Z 16004KT 1600 R19/1200 MIFG NSC 07/06 Q0997=
201309172320 METAR ESMX 172320Z 14004KT 8000 BR NSC 08/07 Q0997=
201309172250 METAR ESMX 172250Z 14004KT CAVOK 08/07 Q0997=
201309172220 METAR ESMX 172220Z 15005KT CAVOK 08/07 Q0997=
201309172150 METAR ESMX 172150Z 15005KT CAVOK 09/08 Q0997=
201309172120 METAR ESMX 172120Z 15005KT CAVOK 09/08 Q0997=
201309172050 METAR ESMX 172050Z 15005KT CAVOK 08/07 Q0997=
201309172020 METAR ESMX 172020Z 15005KT 9999 FEW030 BKN055 09/07 Q0997=
201309171950 METAR ESMX 171950Z 15005KT CAVOK 09/07 Q0998=
201309171920 METAR ESMX 171920Z 17005KT CAVOK 09/07 Q0998=
201309171850 METAR ESMX 171850Z 16005KT CAVOK 10/08 Q0997=
201309171820 METAR ESMX 171820Z 16004KT CAVOK 10/08 Q0998=
201309171750 METAR ESMX 171750Z 16005KT CAVOK 10/08 Q0998=
201309171720 METAR ESMX 171720Z 15005KT 9999 FEW045 10/07 Q0998=
201309171650 METAR ESMX 171650Z 16005KT 130V190 CAVOK 11/07 Q0998=
201309171620 METAR ESMX 171620Z 16005KT 120V190 CAVOK 11/07 Q0998=
201309171550 METAR ESMX 171550Z 16005KT 9999 NSC 11/07 Q0998=
201309171520 METAR ESMX 171520Z 17005KT 9999 FEW025 12/06 Q0998=
201309171450 METAR ESMX 171450Z 16006KT 9999 FEW025 12/06 Q0998=
201309171420 METAR ESMX 171420Z 17006KT 140V200 9999 FEW030 12/05 Q0998=
201309171350 METAR ESMX 171350Z 18008KT 9999 FEW028 12/05 Q0998=
201309171320 METAR ESMX 171320Z 16006KT 100V200 9999 FEW025 12/06 Q0998=
201309171250 METAR ESMX 171250Z 17006KT 120V200 9999 FEW026 SCT056 12/06 Q0998=
201309171220 METAR ESMX 171220Z 17007KT 100V210 9999 SCT023 12/06 Q0998=
201309171150 METAR ESMX 171150Z 17007KT 120V200 9999 SCT023 12/06 Q0998=
201309171120 METAR ESMX 171120Z 17006KT 120V210 9999 FEW021 BKN080 12/06 Q0998=
201309171050 METAR ESMX 171050Z 18006KT 120V210 9999 FEW020 SCT049 12/07 Q0998=
201309171020 METAR ESMX 171020Z 19007KT 9999 FEW020 11/07 Q0998=
201309170950 METAR ESMX 170950Z 20006KT 9999 FEW015 10/07 Q0998=
201309170920 METAR ESMX 170920Z 20005KT 140V220 CAVOK 10/07 Q0999=
201309170850 METAR ESMX 170850Z 19004KT CAVOK 10/08 Q0999=
201309170820 METAR ESMX 170820Z 16004KT 130V190 CAVOK 10/08 Q0998=
201309170750 METAR ESMX 170750Z 15003KT CAVOK 09/07 Q0998=
201309170720 METAR ESMX 170720Z 16003KT CAVOK 08/07 Q0998=
201309170650 METAR ESMX 170650Z 15001KT CAVOK 08/07 Q0998=
201309170620 METAR ESMX 170620Z 19003KT CAVOK 08/07 Q0998=
201309170550 METAR COR ESMX 170550Z 15003KT CAVOK 06/05 Q0998=
201309170520 METAR ESMX 170520Z 16004KT CAVOK 07/06 Q0998=
201309170450 METAR ESMX 170450Z 14004KT CAVOK 06/05 Q0998=
201309170420 METAR ESMX 170420Z 15004KT CAVOK 04/04 Q0997=
201309170350 METAR ESMX 170350Z 14003KT CAVOK 04/03 Q0998=
201309170320 METAR ESMX 170320Z AUTO 18004KT 2500NDV BKN100/// 04/03 Q0998=
201309170250 METAR ESMX 170250Z AUTO 15004KT 5000NDV BR NCD 04/03 Q0998=
201309170220 METAR ESMX 170220Z AUTO 14004KT 9999NDV NCD 04/03 Q0998=
201309170150 METAR ESMX 170150Z AUTO 15005KT 1000NDV R01/P2000N R19/P2000N NCD 05/04 Q0997=
201309170120 METAR ESMX 170120Z AUTO 15003KT 1000NDV R01/P2000N R19/P2000N NCD 04/03 Q0997=
201309170050 METAR ESMX 170050Z AUTO 17002KT 3400NDV NCD 05/04 Q0997=
201309170020 METAR ESMX 170020Z AUTO 17005KT 9999NDV NCD 07/06 Q0997=
201309162350 METAR ESMX 162350Z 18004KT CAVOK 05/04 Q0997=
201309162320 METAR ESMX 162320Z 17003KT CAVOK 07/06 Q0997=
201309162250 METAR ESMX 162250Z 17004KT CAVOK 08/06 Q0997=
201309162220 METAR ESMX 162220Z 19005KT CAVOK 06/05 Q0997=
201309162150 METAR ESMX 162150Z 19006KT CAVOK 06/05 Q0997=
201309162120 METAR ESMX 162120Z 18006KT 9999 FEW020 BKN100 06/05 Q0997=
201309162050 METAR ESMX 162050Z 18006KT 9999 SCT020 08/07 Q0997=
201309162020 METAR ESMX 162020Z 17004KT 9999 FEW020 09/07 Q0997=
201309161950 METAR ESMX 161950Z 16004KT 9999 SCT020 09/07 Q0997=
201309161920 METAR ESMX 161920Z 21005KT 9999 SCT020 08/07 Q0997=
201309161850 METAR ESMX 161850Z 20007KT 9999 FEW020 SCT045 09/07 Q0996=
201309161820 METAR ESMX 161820Z 19007KT 9999 FEW020 SCT045 10/07 Q0996=
201309161750 METAR ESMX 161750Z 18005KT 9999 FEW044 11/08 Q0996=
201309161720 METAR ESMX 161720Z 17005KT CAVOK 11/08 Q0995=
201309161650 METAR ESMX 161650Z 16004KT CAVOK 12/08 Q0995=
201309161620 METAR ESMX 161620Z 21006KT 9999 FEW021 SCT060 12/08 Q0995=
201309161550 METAR ESMX 161550Z 21011KT 9999 FEW023 BKN055 13/08 Q0995 RERA=
201309161520 METAR ESMX 161520Z 20007KT CAVOK 13/10 Q0995=
201309161450 METAR ESMX 161450Z 19006KT 9999 FEW012 SCT065 14/10 Q0994=
201309161420 METAR ESMX 161420Z 19007KT 9999 FEW011 SCT017 BKN038 13/11 Q0994=
201309161350 METAR ESMX 161350Z 16010KT 120V190 9999 FEW008 BKN018 13/11 Q0994=
201309161320 METAR ESMX 161320Z 18008KT 9999 FEW007 SCT009 BKN012 13/12 Q0994=
201309161250 METAR ESMX 161250Z 17010KT 9999 FEW007 BKN010 13/11 Q0994=
201309161220 METAR ESMX 161220Z 17010KT 9999 FEW007 SCT009 BKN010 13/11 Q0994=
201309161150 METAR ESMX 161150Z 17011KT 7000 BR FEW009 BKN013 13/11 Q0994=
201309161120 METAR ESMX 161120Z 16011KT 9999 BKN010 OVC017 13/10 Q0994=
201309161050 METAR ESMX 161050Z 17010KT 140V200 9999 FEW009 SCT012 OVC015 12/10 Q0994=
201309161020 METAR ESMX 161020Z 17010KT 7000 BR FEW010 BKN013 OVC017 12/10 Q0994=
201309160950 METAR ESMX 160950Z 16012KT 9999 FEW008 SCT010 BKN014 12/10 Q0994=
201309160920 METAR ESMX 160920Z 17011KT 8000 DZ FEW008 SCT011 BKN014 12/10 Q0994=
201309160850 METAR ESMX 160850Z 17010KT 9999 -DZ FEW010 SCT014 BKN019 12/10 Q0995=
201309160820 METAR ESMX 160820Z 16010KT 9999 -RA FEW015 SCT031 BKN037 12/09 Q0995=
201309160750 METAR ESMX 160750Z 17010KT 130V200 9999 FEW015 SCT019 OVC047 12/09 Q0995=
201309160720 METAR ESMX 160720Z 16009KT 140V200 9999 FEW013 SCT035 BKN040 12/10 Q0995=
201309160650 METAR ESMX 160650Z 17007KT 9999 FEW015 BKN048 11/10 Q0995 REDZ=
201309160620 METAR ESMX 160620Z 17007KT 9999 -DZ FEW023 SCT046 BKN066 11/10 Q0996=
201309160550 METAR ESMX 160550Z 16008KT 9999 -DZ FEW025 11/09 Q0996=
201309160520 METAR ESMX 160520Z 14006KT 9999 FEW047 SCT110 11/09 Q0996=
201309160450 METAR ESMX 160450Z 15007KT 9999 FEW030 BKN110 11/09 Q0996=
201309160420 METAR ESMX 160420Z 15006KT 9999 FEW043 BKN110 11/09 Q0997=
201309160350 METAR ESMX 160350Z 14006KT 110V190 9999 BKN043 BKN060 11/10 Q0997=
201309160320 METAR ESMX 160320Z AUTO 16005KT 9999NDV SCT051/// 11/10 Q0998=
201309160250 METAR ESMX 160250Z AUTO 16005KT 9999NDV FEW058/// SCT071/// 11/10 Q0998=
201309160220 METAR ESMX 160220Z AUTO 16005KT 9999NDV OVC057/// 11/10 Q0998=
201309160150 METAR ESMX 160150Z AUTO 15006KT 9999NDV OVC060/// 11/10 Q0999=
201309160120 METAR ESMX 160120Z AUTO 16005KT 9999NDV OVC063/// 11/10 Q0999=
201309160050 METAR ESMX 160050Z AUTO 17005KT 9999NDV OVC064/// 11/10 Q1000=
201309160020 METAR ESMX 160020Z AUTO 17005KT 9999NDV FEW018/// OVC065/// 11/10 Q1000=
201309152350 METAR ESMX 152350Z AUTO 16005KT 9999NDV OVC062/// 11/10 Q1001=
201309152320 METAR ESMX 152320Z 17004KT 9999 FEW006 OVC064 11/10 Q1001=
201309152250 METAR ESMX 152250Z 17005KT 9999 FEW004 BKN070 10/10 Q1001=
201309152220 METAR ESMX 152220Z 17006KT 9999 FEW005 BKN070 11/10 Q1001=
201309152150 METAR ESMX 152150Z 19007KT 9999 FEW005 SCT010 BKN070 11/10 Q1002=
201309152120 METAR ESMX 152120Z 19007KT 9999 BKN006 BKN077 11/10 Q1002=
201309152050 METAR ESMX 152050Z 17005KT 9999 FEW005 BKN010 BKN030 12/11 Q1002 REDZ=
201309152020 METAR ESMX 152020Z 20005KT 9999 FEW005 BKN030 OVC065 11/10 Q1002=
201309151950 METAR ESMX 151950Z 19003KT 150V210 9999 FEW038 OVC058 11/10 Q1002=
201309151920 METAR ESMX 151920Z 20003KT 9999 FEW038 OVC060 12/10 Q1002=
201309151850 METAR ESMX 151850Z 23004KT 9999 FEW020 BKN054 12/10 Q1002=
201309151820 METAR ESMX 151820Z 24005KT 200V270 9999 FEW009 BKN055 12/11 Q1002=
201309151750 METAR ESMX 151750Z 24007KT 9999 SCT007 BKN020 13/12 Q1002=
201309151720 METAR ESMX 151720Z 21007KT 6000 -DZ FEW006 SCT011 BKN026 13/12 Q1002=
201309151620 METAR ESMX 151620Z 20006KT 9999 FEW006 SCT032 BKN040 14/13 Q1002 RESHRA=
201309151550 METAR ESMX 151550Z VRB04KT 9999 -SHRA SCT010CB BKN030 15/14 Q1002=
201309151520 METAR ESMX 151520Z 19007KT 160V220 9999 FEW007 SCT020 BKN028 15/14 Q1002=
201309151450 METAR ESMX 151450Z 19009KT 9999 SCT007 BKN025 15/14 Q1003=
201309151420 METAR ESMX 151420Z 16009KT 9999 -RA FEW005 SCT007 BKN009 15/14 Q1003=
201309151320 METAR ESMX 151320Z 16009KT 9999 -RA FEW010 BKN020 15/14 Q1003=
201309151250 METAR ESMX 151250Z 16007KT 9999 -RA FEW007 SCT010 BKN019 16/14 Q1003=
201309151220 METAR ESMX 151220Z 15006KT 120V190 8000 -RA FEW008 BKN010 16/14 Q1004=
201309151150 METAR ESMX 151150Z 16006KT 120V190 9999 -RA FEW007 SCT015 16/15 Q1004=
201309151120 METAR ESMX 151120Z 14008KT 110V170 9999 -RA FEW009 BKN100 16/14 Q1004=
201309151050 METAR ESMX 151050Z 13006KT 070V160 9000 -RA FEW010 BKN080 16/14 Q1004=
201309150950 METAR ESMX 150950Z AUTO 15007KT 110V170 9999NDV -RA FEW013/// SCT016/// BKN088/// 16/14 Q1005=
201309150920 METAR ESMX 150920Z AUTO 13007KT 070V180 9999NDV FEW012/// BKN090/// 17/13 Q1006=
201309150850 METAR ESMX 150850Z AUTO 13006KT 080V170 9999NDV FEW009/// SCT012/// BKN036/// 16/14 Q1006=
201309150820 METAR ESMX 150820Z AUTO 13006KT 100V180 9999NDV FEW007/// BKN009/// OVC013/// 16/14 Q1006=
201309150750 METAR ESMX 150750Z AUTO 14005KT 090V200 9999NDV BKN006/// OVC009/// 15/13 Q1007=
201309150720 METAR ESMX 150720Z AUTO 13005KT 100V170 9999NDV OVC005/// 15/13 Q1007=
201309150650 METAR ESMX 150650Z AUTO 13004KT 080V170 9999NDV OVC005/// 15/13 Q1007=
201309150620 METAR ESMX 150620Z AUTO 11003KT 040V170 9999NDV BKN006/// OVC008/// 14/13 Q1007=
201309150550 METAR ESMX 150550Z AUTO 11003KT 070V170 9000NDV BR OVC005/// 14/13 Q1007=
201309150520 METAR ESMX 150520Z AUTO 12003KT 070V160 9000NDV BR BKN006/// OVC032/// 14/13 Q1008=
201309150450 METAR ESMX 150450Z AUTO 11003KT 070V150 9000NDV BR SCT005/// BKN007/// OVC027/// 14/13 Q1008=
201309150420 METAR ESMX 150420Z AUTO 12003KT 080V160 8000NDV BR FEW005/// SCT007/// BKN021/// 14/13 Q1008=
201309150350 METAR ESMX 150350Z AUTO 12003KT 070V170 9000NDV BR FEW006/// SCT008/// OVC021/// 14/13 Q1008=
201309150320 METAR ESMX 150320Z AUTO VRB02KT 9000NDV BR FEW006/// OVC020/// 14/13 Q1009=
201309150250 METAR ESMX 150250Z AUTO 13003KT 080V170 9000NDV BR FEW006/// SCT008/// BKN018/// 14/13 Q1009=
201309150220 METAR ESMX 150220Z AUTO 13005KT 080V160 7000NDV BR FEW004/// SCT006/// BKN008/// 14/13 Q1009=
201309150150 METAR ESMX 150150Z AUTO 13004KT 080V170 4900NDV -DZ FEW004/// OVC005/// 14/13 Q1010=
201309150120 METAR ESMX 150120Z AUTO 13004KT 070V180 9999NDV OVC006/// 14/13 Q1010=
201309150050 METAR ESMX 150050Z AUTO 12003KT 080V170 9999NDV BKN007/// OVC025/// 14/13 Q1010=
201309150020 METAR ESMX 150020Z AUTO 13003KT 080V190 9999NDV FEW010/// BKN025/// 14/13 Q1011=
201309142350 METAR ESMX 142350Z AUTO VRB02KT 9999NDV FEW010/// OVC024/// 14/13 Q1011=
201309142320 METAR ESMX 142320Z AUTO VRB01KT 9999NDV OVC022/// 14/13 Q1011=
201309142250 METAR ESMX 142250Z AUTO VRB01KT 9999NDV OVC019/// 14/13 Q1011=
201309142220 METAR ESMX 142220Z AUTO VRB02KT 9999NDV OVC020/// 14/13 Q1011=
201309142150 METAR ESMX 142150Z AUTO VRB02KT 9999NDV FEW017/// OVC020/// 14/13 Q1012=
201309142120 METAR ESMX 142120Z AUTO VRB02KT 9999NDV FEW015/// OVC021/// 14/13 Q1012=
201309142050 METAR ESMX 142050Z AUTO VRB02KT 9999NDV BKN021/// 13/12 Q1012=
201309142020 METAR ESMX 142020Z 13001KT 9999 FEW017 SCT020 13/12 Q1012=
201309141950 METAR ESMX 141950Z VRB02KT 9999 FEW016 13/12 Q1012=
201309141920 METAR ESMX 141920Z VRB02KT 9999 SCT028 15/12 Q1012=
201309141850 METAR ESMX 141850Z 14003KT 080V180 CAVOK 15/12 Q1012=
201309141820 METAR ESMX 141820Z 12004KT 070V160 9999 FEW035 SCT069 16/12 Q1012=
201309141750 METAR ESMX 141750Z 12005KT 080V160 9999 SCT035 17/12 Q1012=
201309141720 METAR ESMX 141720Z 12003KT 080V160 9999 SCT032 17/13 Q1012=
201309141650 METAR ESMX 141650Z VRB02KT 9999 SCT036 17/13 Q1012=
201309141620 METAR ESMX 141620Z VRB02KT 9999 SCT037 18/13 Q1012=
201309141550 METAR ESMX 141550Z 13004KT 100V170 CAVOK 19/12 Q1012=
201309141520 METAR ESMX 141520Z AUTO 13005KT 060V160 9999NDV FEW069/// 20/12 Q1012=
201309141450 METAR ESMX 141450Z AUTO 14005KT 100V180 9999NDV FEW041/// 21/12 Q1012=
201309141420 METAR ESMX 141420Z AUTO 17005KT 120V200 9999NDV FEW037/// 21/12 Q1012=
201309141350 METAR ESMX 141350Z 17006KT 120V220 9999 FEW034 21/12 Q1013=
201309141320 METAR ESMX 141320Z 15005KT 100V200 9999 FEW030 21/13 Q1013=
201309141250 METAR ESMX 141250Z 16006KT 9999 SCT030 20/12 Q1013=
201309141220 METAR ESMX 141220Z 13004KT 080V210 9999 SCT022 20/13 Q1013=
201309141150 METAR ESMX 141150Z 09004KT 030V140 9999 FEW027 SCT053 20/13 Q1014=
201309141120 METAR ESMX 141120Z 08005KT 050V120 9999 SCT020 BKN045 18/14 Q1014=
201309141050 METAR ESMX 141050Z VRB02KT 9999 SCT015 BKN024 18/14 Q1014=
201309141020 METAR ESMX 141020Z AUTO 12003KT 030V160 9999NDV FEW013/// OVC016/// 17/14 Q1014=
201309140950 METAR ESMX 140950Z AUTO 09004KT 040V150 9999NDV OVC011/// 17/14 Q1014=
201309140920 METAR ESMX 140920Z AUTO 11004KT 060V160 9999NDV OVC007/// 16/14 Q1014=
201309140850 METAR ESMX 140850Z AUTO 08004KT 050V120 9999NDV FEW003/// OVC007/// 15/14 Q1015=
201309140820 METAR ESMX 140820Z AUTO VRB02KT 8000NDV BR OVC002/// 14/14 Q1015=
201309140750 METAR ESMX 140750Z AUTO 05004KT 010V080 8000NDV BR OVC003/// 14/13 Q1015=
201309140720 METAR ESMX 140720Z AUTO VRB02KT 9000NDV OVC003/// 13/13 Q1015=
201309140650 METAR ESMX 140650Z AUTO VRB02KT 8000NDV OVC003/// 13/12 Q1014=
201309140620 METAR ESMX 140620Z AUTO 08004KT 050V110 2700NDV OVC001/// 12/11 Q1015=
201309140550 METAR ESMX 140550Z AUTO 07005KT 020V110 0900NDV R01/0900VP2000D R19/1100VP2000D FG VV001 12/11 Q1015=
201309140520 METAR ESMX 140520Z AUTO 07005KT 020V110 0550NDV R01/0900V1500N R19/0800V1600U FG VV001 12/11 Q1015=
201309140450 METAR ESMX 140450Z AUTO 02003KT 0100NDV R01/0375 R19/0400 FG VV000 11/11 Q1015=
201309140420 METAR ESMX 140420Z AUTO 02003KT 0050NDV R01/0200V0375D R19/0500N FG VV000 11/11 Q1015=
201309140350 METAR ESMX 140350Z AUTO 01003KT 0100NDV R01/0400N R19/0500 FG VV000 11/11 Q1015=
201309140320 METAR ESMX 140320Z AUTO 02003KT 0100NDV R01/0500N R19/0500 FG VV000 12/11 Q1015=
201309140250 METAR ESMX 140250Z AUTO VRB02KT 0150NDV R01/0750 R19/0700N FG VV000 12/11 Q1015=
201309140220 METAR ESMX 140220Z AUTO 03004KT 360V060 0150NDV R01/0650N R19/0750 FG VV000 12/11 Q1015=
201309140150 METAR ESMX 140150Z AUTO 08002KT 0250NDV R01/0700 R19/0800V1300D BCFG VV001 11/10 Q1016=
201309140120 METAR ESMX 140120Z AUTO 00000KT 0200NDV R01/P2000 R19/P2000 BCFG SCT002/// 08/07 Q1016=
201309140050 METAR ESMX 140050Z AUTO 00000KT 0100NDV R01/0450V0600N R19/0800VP2000D BCFG BKN032/// 09/09 Q1016=
201309140020 METAR ESMX 140020Z AUTO 00000KT 0150NDV R01/0500 R19/P2000N FG BKN035/// 09/08 Q1016=
201309132350 METAR ESMX 132350Z AUTO 00000KT 0150NDV R01/0650 R19/1100VP2000 FG SCT036/// 08/08 Q1016=
201309132320 METAR ESMX 132320Z AUTO 00000KT 0050NDV R01/M0150V0275N R19/0175V0325 FG NCD 09/08 Q1016=
201309132250 METAR ESMX 132250Z AUTO 00000KT 0100NDV R01/0275VP2000U R19/P2000 BCFG NCD 09/08 Q1017=
201309132220 METAR ESMX 132220Z AUTO 00000KT 0100NDV R01/0275 R19/P2000N BCFG NCD 09/08 Q1017=
201309132150 METAR ESMX 132150Z AUTO VRB01KT 1200NDV R01/P2000N R19/P2000N BCFG NCD 10/09 Q1017=
201309132120 METAR ESMX 132120Z AUTO VRB02KT 0150NDV R01/0550V1600 R19/P2000N BCFG NCD 10/10 Q1017=
201309132050 METAR ESMX 132050Z AUTO 00000KT 0200NDV R01/P2000D R19/P2000D FG NCD 11/10 Q1017=
201309132020 METAR ESMX 132020Z 00000KT 9999 MIFG NSC 11/10 Q1017=
201309131950 METAR ESMX 131950Z 00000KT 9999 MIFG FEW025 12/11 Q1017=
201309131920 METAR ESMX 131920Z 00000KT 9999 FEW030 SCT055 13/12 Q1017=
201309131850 METAR ESMX 131850Z 00000KT 9999 FEW025 SCT037 BKN054 14/12 Q1017=
201309131820 METAR ESMX 131820Z 00000KT 9999 BKN028 14/12 Q1017=
201309131750 METAR ESMX 131750Z 00000KT 9999 FEW042 14/12 Q1017=
201309131720 METAR ESMX 131720Z 36002KT CAVOK 16/13 Q1016=
201309131650 METAR ESMX 131650Z 35003KT CAVOK 18/14 Q1016=
201309131620 METAR ESMX 131620Z 34003KT CAVOK 19/13 Q1017=
201309131550 METAR ESMX 131550Z 33004KT CAVOK 19/13 Q1017=
201309131520 METAR ESMX 131520Z 34005KT CAVOK 19/13 Q1017=
201309131450 METAR ESMX 131450Z 33004KT 290V010 9999 FEW025 19/13 Q1017=
201309131420 METAR ESMX 131420Z 35005KT 9999 FEW020 19/13 Q1017=
201309131350 METAR ESMX 131350Z 34004KT 9999 FEW020 19/13 Q1017=
201309131320 METAR ESMX 131320Z 35005KT 9999 SCT015 18/13 Q1017=
201309131250 METAR ESMX 131250Z 35005KT 320V030 9999 FEW020 18/14 Q1017=
201309131220 METAR ESMX 131220Z 35005KT 320V020 9999 SCT015 18/13 Q1017=
201309131150 METAR ESMX 131150Z 36005KT 9999 SCT014 16/13 Q1017=
201309131120 METAR ESMX 131120Z 34005KT 300V020 9999 SCT013 17/13 Q1017=
201309131050 METAR ESMX 131050Z 03005KT 350V070 9999 BKN010 17/12 Q1017=
201309131020 METAR ESMX 131020Z 35005KT 320V030 9999 FEW011 16/12 Q1017=
201309130950 METAR ESMX 130950Z 05004KT 350V100 9999 FEW005 BKN007 15/11 Q1017=
201309130920 METAR ESMX 130920Z 06005KT 030V110 9999 SCT005 BKN008 14/11 Q1017=
201309130850 METAR ESMX 130850Z 01005KT 9999 FEW002 OVC004 13/12 Q1017=
201309130820 METAR ESMX 130820Z 01005KT 9999 SCT002 BKN003 13/12 Q1017=
201309130750 METAR ESMX 130750Z 01005KT 5000 BR SCT002 BKN004 13/12 Q1017=
201309130720 METAR ESMX 130720Z 34005KT 9999 SCT005 BKN008 13/12 Q1017=
201309130650 METAR ESMX 130650Z 33004KT 310V020 9999 SCT004 BKN007 13/12 Q1017=
201309130620 METAR ESMX 130620Z 36004KT 340V040 9999 FEW002 SCT004 OVC006 13/12 Q1016=
201309130550 METAR ESMX 130550Z 02004KT 1200 R01/P2000N R19/P2000N OVC002 12/12 Q1016=
201309130520 METAR ESMX 130520Z VRB02KT 0500 R01/1000N R19/P2000N FG VV002 12/12 Q1016=
201309130450 METAR ESMX 130450Z 34004KT 0200 R01/0650N R19/1300VP2000D FG VV002 12/12 Q1016=
201309130420 METAR ESMX 130420Z 32002KT 0250 R01/0800 R19/P2000N FG VV002 12/12 Q1016=
201309130350 METAR ESMX 130350Z 01002KT 0250 R01/P2000N R19/0750V1100N FG VV002 12/12 Q1016=
201309130320 METAR ESMX 130320Z AUTO VRB02KT 0450NDV R01/0800VP2000N R19/1000VP2000U FG VV001 12/12 Q1015=
201309130250 METAR ESMX 130250Z AUTO 01002KT 0150NDV R01/0700N R19/0900N FG VV001 13/12 Q1015=
201309130220 METAR ESMX 130220Z AUTO 04001KT 0200NDV R01/0800N R19/0800N FG VV001 13/12 Q1015=
201309130150 METAR ESMX 130150Z AUTO 05002KT 0200NDV R01/0800 R19/1000VP2000D FG VV001 12/12 Q1015=
201309130120 METAR ESMX 130120Z AUTO 35003KT 0150NDV R01/0650N R19/1000VP2000U FG VV001 12/12 Q1015=
201309130050 METAR ESMX 130050Z AUTO 00000KT 0150NDV R01/0700N R19/0900N FG VV001 12/12 Q1016=
201309130020 METAR ESMX 130020Z AUTO 35002KT 0150NDV R01/0700N R19/1000N FG VV001 12/12 Q1016=
201309122350 METAR ESMX 122350Z 34003KT 0150 R01/0650 R19/0750 FG VV002 12/12 Q1016=
201309122320 METAR ESMX 122320Z 36001KT 0200 R01/0750N R19/0900V1300U FG VV002 11/11 Q1016=
201309122250 METAR ESMX 122250Z 00000KT 0200 R01/0550 R19/P2000N FG VV002 11/10 Q1016=
201309122220 METAR ESMX 122220Z 00000KT 0200 R01/0750 R19/P2000N FG OVC001 10/10 Q1016=
201309122150 METAR ESMX 122150Z 00000KT 0200 R01/0600V1000U R19/P2000N FG OVC002 10/09 Q1016=
201309122120 METAR ESMX 122120Z 00000KT 0100 R01/0300 R19/0600 FG FEW003 09/08 Q1016=
201309122050 METAR ESMX 122050Z 00000KT 0100 R01/0375V0600 R19/0375V0550 FG FEW001 SCT002 10/09 Q1016=
201309122020 METAR ESMX 122020Z 00000KT 0050 R01/0225V0450N R19/0700 FG FEW001 09/08 Q1015=
201309121950 METAR ESMX 121950Z 00000KT 0100 R01/0200V0325 R19/0450N BCFG FEW003 11/10 Q1015=
201309121920 METAR ESMX 121920Z 00000KT 0100 R01/0375V0750N R19/P2000 PRFG NSC 10/09 Q1016=
201309121850 METAR ESMX 121850Z 00000KT 0200 R01/0700 R19/P2000 BCFG NSC 11/10 Q1015=
201309121820 METAR ESMX 121820Z 05001KT 0200 R01/P2000N R19/0500VP2000 MIFG NSC 13/12 Q1015=
201309121750 METAR ESMX 121750Z 04002KT 0800 R01/P2000N R19/P2000N MIFG FEW030 13/12 Q1015=
201309121720 METAR ESMX 121720Z VRB02KT 9999 FEW033 BKN059 14/13 Q1015=
201309121650 METAR ESMX 121650Z 02003KT 9999 FEW039 SCT061 15/13 Q1015=
201309121620 METAR ESMX 121620Z 36004KT 9999 FEW028 SCT042 16/13 Q1015=
201309121550 METAR ESMX 121550Z 01004KT 9999 FEW028 SCT055 16/14 Q1015=
201309121520 METAR ESMX 121520Z 35006KT 9999 FEW027 SCT040 16/14 Q1015=
201309121450 METAR ESMX 121450Z 36004KT 9999 FEW012 SCT028 17/13 Q1015=
201309121420 METAR ESMX 121420Z 03005KT 9999 FEW011 SCT047 16/13 Q1015=
201309121350 METAR ESMX 121350Z 01006KT 9999 SCT015 BKN038 16/13 Q1015=
201309121320 METAR ESMX 121320Z 35006KT 9999 FEW010 BKN049 16/14 Q1015=
201309121250 METAR ESMX 121250Z 36005KT 9999 FEW008 SCT038 BKN081 16/14 Q1015=
201309121220 METAR ESMX 121220Z 02005KT 9999 FEW008 BKN031 16/14 Q1015=
201309121150 METAR ESMX 121150Z 01004KT 9999 FEW008 BKN030 16/13 Q1015=
201309121120 METAR ESMX 121120Z 03006KT 9999 FEW007 SCT010 BKN017 16/13 Q1015=
201309121050 METAR ESMX 121050Z 04003KT 010V070 9999 FEW005 SCT008 BKN011 16/14 Q1015=
201309121020 METAR ESMX 121020Z VRB02KT 9999 FEW006 SCT012 BKN020 15/13 Q1015=
201309120950 METAR ESMX 120950Z 09003KT 030V120 9999 FEW012 OVC017 15/13 Q1015=
201309120920 METAR ESMX 120920Z 07003KT 030V110 9999 FEW008 BKN012 14/13 Q1014=
201309120850 METAR ESMX 120850Z 07003KT 040V110 9999 FEW007 OVC010 14/13 Q1014=
201309120820 METAR ESMX 120820Z 06003KT 030V110 8000 FEW004 OVC006 14/13 Q1014=
201309120750 METAR ESMX 120750Z 08005KT 030V150 6000 BR FEW006 SCT009 BKN012 14/13 Q1014 REDZ=
201309120720 METAR ESMX 120720Z 08005KT 040V120 6000 BR FEW008 SCT010 BKN013 14/13 Q1014=
201309120650 METAR ESMX 120650Z 06007KT 020V100 9999 FEW009 SCT013 BKN022 14/13 Q1014=
201309120620 METAR ESMX 120620Z 05007KT 020V080 9999 SCT009 BKN027 14/13 Q1013=
201309120550 METAR ESMX 120550Z 04007KT 9999 FEW008 BKN012 OVC036 14/13 Q1013=
201309120520 METAR ESMX 120520Z 03008KT 9999 FEW006 BKN007 OVC013 14/12 Q1013=
201309120450 METAR ESMX 120450Z 03007KT 9999 BKN007 OVC011 14/12 Q1013=
201309120420 METAR ESMX 120420Z 04008KT 9999 FEW006 BKN008 OVC010 13/12 Q1013=
201309120350 METAR ESMX 120350Z 02008KT 350V060 9999 BKN007 OVC010 13/12 Q1013=
201309120320 METAR ESMX 120320Z AUTO 04008KT 9999NDV FEW006/// BKN007/// OVC064/// 13/12 Q1013=
201309120250 METAR ESMX 120250Z AUTO 03008KT 9999NDV FEW007/// OVC060/// 13/12 Q1013=
201309120220 METAR ESMX 120220Z AUTO 01008KT 9999NDV -DZ FEW006/// BKN007/// BKN067/// 13/12 Q1013=
201309120150 METAR ESMX 120150Z AUTO 01008KT 9999NDV -DZ BKN005/// BKN009/// 13/12 Q1013=
201309120120 METAR ESMX 120120Z AUTO 01007KT 9999NDV FEW005/// SCT008/// BKN067/// 13/12 Q1013=
201309120050 METAR ESMX 120050Z AUTO 01007KT 9999NDV BKN045/// OVC066/// 12/12 Q1013=
201309120020 METAR ESMX 120020Z AUTO 01007KT 9999NDV FEW004/// SCT036/// BKN040/// 12/11 Q1014=
201309112350 METAR ESMX 112350Z AUTO 36005KT 9999NDV FEW006/// OVC028/// 12/11 Q1014 REDZ=
201309112320 METAR ESMX 112320Z 36006KT 7000 DZ FEW017 SCT025 OVC029 12/11 Q1014=
201309112250 METAR ESMX 112250Z 02004KT 9999 OVC030 12/11 Q1014=
201309112220 METAR ESMX 112220Z 01005KT 9999 FEW027 OVC031 12/11 Q1014=
201309112150 METAR ESMX 112150Z 02005KT 9999 OVC035 12/11 Q1014=
201309112120 METAR ESMX 112120Z 01003KT 9999 FEW039 BKN045 11/10 Q1014=
201309112050 METAR ESMX 112050Z VRB02KT 9999 FEW040 BKN061 12/10 Q1014=
201309112020 METAR ESMX 112020Z VRB02KT 9999 BKN034 12/11 Q1014=
201309111950 METAR ESMX 111950Z VRB02KT 9999 -DZ FEW027 OVC035 12/11 Q1015=
201309111920 METAR ESMX 111920Z 07003KT 9999 DZ OVC030 12/11 Q1015=
201309111850 METAR ESMX 111850Z 07003KT 030V100 9999 DZ FEW016 BKN026 12/11 Q1015=
201309111820 METAR ESMX 111820Z 08003KT 9999 -RA FEW010 SCT019 BKN022 12/11 Q1015=
201309111750 METAR ESMX 111750Z 08004KT 050V110 9999 -RA FEW010 BKN043 12/11 Q1015=
201309111720 METAR ESMX 111720Z 08003KT 050V110 9999 -RA FEW037 BKN041 13/11 Q1014=
201309111650 METAR ESMX 111650Z 09004KT 040V140 9999 -RA FEW008 SCT032 BKN039 13/12 Q1014=
201309111620 METAR ESMX 111620Z 07003KT 020V120 9999 -RA SCT010 BKN020 14/12 Q1014=
201309111550 METAR ESMX 111550Z 10004KT 070V130 9999 -RA FEW014 SCT022 BKN048 14/12 Q1014 REDZ=
201309111520 METAR ESMX 111520Z 10003KT 030V200 9999 -RA FEW016 SCT020 BKN050 15/12 Q1014=
201309111450 METAR ESMX 111450Z 08006KT 020V140 9999 FEW020 SCT030 BKN050 15/11 Q1014=
201309111420 METAR ESMX 111420Z 08007KT 030V130 9999 FEW022 BKN038 16/11 Q1013=
201309111350 METAR ESMX 111350Z 08006KT 040V120 9999 FEW022 SCT029 BKN039 16/11 Q1013=
201309111320 METAR ESMX 111320Z 07007KT 040V120 9999 FEW019 SCT029 BKN069 16/11 Q1013=
201309111250 METAR ESMX 111250Z 08006KT 020V120 9999 FEW018 SCT020 BKN060 16/12 Q1014=
201309111220 METAR ESMX 111220Z VRB06KT 9999 FEW015 BKN040 15/11 Q1014=
201309111150 METAR ESMX 111150Z 11006KT 050V150 9999 SCT014 BKN020 16/12 Q1013=
201309111120 METAR ESMX 111120Z 09006KT 040V120 9999 FEW015 BKN059 15/12 Q1013=
201309111050 METAR ESMX 111050Z 08005KT 010V120 9999 SCT010 BKN040 15/13 Q1013=
201309111020 METAR ESMX 111020Z 08004KT 040V130 9999 -RA FEW010 SCT020 BKN040 15/13 Q1014=
201309110950 METAR ESMX 110950Z 09005KT 040V120 9999 FEW005 BKN010 15/13 Q1014=
201309110920 METAR ESMX 110920Z 09003KT 010V140 9999 -DZ FEW004 BKN006 14/13 Q1014=
201309110850 METAR ESMX 110850Z 07003KT 020V100 8000 -RA BKN005 14/13 Q1014=
201309110820 METAR ESMX 110820Z 05003KT 010V110 9000 -RA OVC005 13/12 Q1014=
201309110750 METAR ESMX 110750Z 06004KT 020V100 9999 OVC005 13/12 Q1014=
201309110720 METAR ESMX 110720Z 03003KT 340V080 9999 -DZ OVC005 13/12 Q1013=
201309110650 METAR ESMX 110650Z 01004KT 9000 BR OVC005 12/11 Q1013=
201309110620 METAR ESMX 110620Z 01004KT 8000 BR OVC005 11/11 Q1013=
201309110550 METAR ESMX 110550Z 01005KT 9000 BR BKN006 11/10 Q1013=
201309110520 METAR ESMX 110520Z 02005KT 9999 SCT007 BKN014 11/10 Q1013=
201309110450 METAR ESMX 110450Z 02005KT 9999 SCT010 BKN110 10/10 Q1013=
201309110420 METAR ESMX 110420Z 03004KT CAVOK 10/10 Q1013=
201309110350 METAR ESMX 110350Z 02004KT CAVOK 10/09 Q1013=
201309110320 METAR ESMX 110320Z AUTO 06003KT 010V120 9999NDV NCD 10/09 Q1013=
201309110250 METAR ESMX 110250Z AUTO 07003KT 030V120 9999NDV NCD 09/09 Q1013=
201309110220 METAR ESMX 110220Z AUTO 04003KT 9999NDV NCD 08/08 Q1013=
201309110150 METAR ESMX 110150Z AUTO 04002KT 2800NDV BR NCD 07/06 Q1013=
201309110120 METAR ESMX 110120Z AUTO 05004KT 1900NDV NCD 06/06 Q1013=
201309110050 METAR ESMX 110050Z AUTO VRB01KT 9999NDV BCFG NCD 06/05 Q1014=
201309110020 METAR ESMX 110020Z AUTO 00000KT 0900NDV R01/P2000N R19/P2000N BCFG NCD 04/04 Q1014=
201309102350 METAR ESMX 102350Z 00000KT 9999 BCFG NSC 05/04 Q1014=
201309102320 METAR ESMX 102320Z 00000KT 9999 BCFG NSC 04/04 Q1014=
201309102250 METAR COR ESMX 102250Z 00000KT 9999 BCFG NSC 05/05 Q1014=
201309102220 METAR ESMX 102220Z 00000KT 9999 BCFG NSC 06/05 Q1014=
201309102150 METAR ESMX 102150Z 13001KT 9999 BCFG NSC 06/05 Q1014=
201309102120 METAR ESMX 102120Z 00000KT 9999 BCFG NSC 06/05 Q1014=
201309102050 METAR ESMX 102050Z 00000KT 9999 MIFG NSC 06/06 Q1014=
201309102020 METAR ESMX 102020Z 14003KT 9999 MIFG NSC 07/06 Q1014=
201309101950 METAR ESMX 101950Z 00000KT 9999 MIFG NSC 08/07 Q1014=
201309101920 METAR ESMX 101920Z 00000KT 9999 MIFG NSC 09/08 Q1014=
201309101850 METAR ESMX 101850Z 00000KT 9999 MIFG NSC 09/08 Q1014=
201309101820 METAR ESMX 101820Z VRB01KT 9999 MIFG NSC 09/08 Q1014=
201309101750 METAR ESMX 101750Z 10001KT CAVOK 11/10 Q1014=
201309101720 METAR ESMX 101720Z 12001KT CAVOK 14/11 Q1013=
201309101650 METAR ESMX 101650Z 00000KT CAVOK 16/11 Q1013=
201309101620 METAR ESMX 101620Z VRB01KT CAVOK 17/10 Q1014=
201309101550 METAR ESMX 101550Z VRB01KT CAVOK 16/10 Q1014=
201309101520 METAR ESMX 101520Z VRB01KT 9999 BKN045 16/09 Q1013=
201309101450 METAR ESMX 101450Z VRB02KT 9999 FEW025 BKN045 16/10 Q1013=
201309101420 METAR ESMX 101420Z VRB02KT 9999 FEW025 BKN045 16/10 Q1014=
201309101350 METAR ESMX 101350Z 21004KT 9999 SCT024 BKN042 16/09 Q1014=
201309101320 METAR ESMX 101320Z 22004KT 190V320 9999 SCT025 BKN045 16/10 Q1014=
201309101250 METAR ESMX 101250Z 20003KT 150V240 9999 FEW022 BKN041 16/10 Q1014=
201309101220 METAR ESMX 101220Z 22004KT 9999 FEW022 BKN040 16/10 Q1014=
201309101150 METAR ESMX 101150Z 21004KT 190V260 9999 FEW016 BKN040 15/10 Q1014=
201309101120 METAR ESMX 101120Z 20004KT 160V250 9999 BKN037 15/11 Q1014=
201309101050 METAR ESMX 101050Z 21004KT 180V240 9999 FEW017 SCT039 BKN043 14/11 Q1014=
201309101020 METAR ESMX 101020Z 19003KT 150V240 9999 FEW012 BKN023 15/10 Q1014=
201309100950 METAR ESMX 100950Z 20007KT 9999 FEW011 SCT016 BKN020 14/11 Q1014=
201309100920 METAR ESMX 100920Z 21006KT 9999 FEW008 SCT010 BKN014 13/11 Q1014=
201309100850 METAR ESMX 100850Z 20005KT 170V240 9999 FEW007 SCT010 BKN013 13/11 Q1013=
201309100820 METAR ESMX 100820Z 21006KT 9999 FEW005 BKN009 13/11 Q1013=
201309100750 METAR ESMX 100750Z 21004KT 9999 BKN007 12/11 Q1013=
201309100720 METAR ESMX 100720Z 21005KT 9999 FEW004 BKN007 12/11 Q1013=
201309100650 METAR ESMX 100650Z 20005KT 4200 DZ FEW004 SCT005 BKN007 12/11 Q1013=
201309100620 METAR ESMX 100620Z 21007KT 9999 FEW005 BKN006 OVC008 12/11 Q1012 REDZ=
201309100550 METAR ESMX 100550Z 21007KT 5000 -DZ FEW004 SCT006 BKN008 12/11 Q1012=
201309100520 METAR ESMX 100520Z 21007KT 3400 DZ FEW003 SCT005 BKN009 12/11 Q1012=
201309100450 METAR ESMX 100450Z 19007KT 4800 -DZ FEW005 SCT007 BKN008 12/11 Q1011=
201309100420 METAR ESMX 100420Z 19009KT 3300 -DZ FEW003 BKN004 12/11 Q1011=
201309100350 METAR ESMX 100350Z 20008KT 3700 -DZ SCT004 BKN006 12/11 Q1011=
201309100320 METAR ESMX 100320Z AUTO 21007KT 3400NDV DZ FEW004/// BKN006/// BKN013/// 13/12 Q1011=
201309100250 METAR ESMX 100250Z AUTO 17008KT 5000NDV +DZ FEW003/// BKN005/// OVC007/// 13/12 Q1011=
201309100220 METAR ESMX 100220Z AUTO 13004KT 100V180 9999NDV DZ FEW010/// OVC018/// 14/12 Q1010=
201309100150 METAR ESMX 100150Z AUTO 15006KT 110V170 8000NDV DZ FEW003/// SCT005/// BKN006/// 14/13 Q1010=
201309100120 METAR ESMX 100120Z AUTO 16005KT 110V190 4500NDV -RA BKN005/// OVC011/// 14/13 Q1010=
201309100050 METAR ESMX 100050Z AUTO 14005KT 080V170 7000NDV DZ FEW006/// OVC007/// 14/13 Q1010=
201309100020 METAR ESMX 100020Z AUTO 13006KT 080V160 5000NDV -RA FEW007/// OVC009/// 15/13 Q1010=
201309092350 METAR ESMX 092350Z 12006KT 090V200 9999 OVC010 15/13 Q1010=
201309092320 METAR ESMX 092320Z 12006KT 040V160 9999 SCT011 BKN016 OVC022 15/13 Q1010=
201309092250 METAR ESMX 092250Z 09006KT 060V140 9999 -RA OVC012 15/13 Q1010=
201309092220 METAR ESMX 092220Z 09006KT 060V120 9999 -RA FEW014 OVC045 15/13 Q1010=
201309092150 METAR ESMX 092150Z 08006KT 040V120 9999 FEW045 BKN054 15/13 Q1010=
201309092120 METAR ESMX 092120Z 08006KT 040V110 9999 FEW036 SCT044 BKN055 15/12 Q1010=
201309092050 METAR ESMX 092050Z 08006KT 050V120 9999 FEW036 SCT058 BKN100 16/12 Q1010=
201309092020 METAR ESMX 092020Z 08007KT 040V140 9999 SCT027 BKN055 16/12 Q1011=
201309091950 METAR ESMX 091950Z 09006KT 040V150 9999 FEW030 16/12 Q1011=
201309091920 METAR ESMX 091920Z 09008KT 060V140 9999 SCT031 16/12 Q1011=
201309091850 METAR ESMX 091850Z 09007KT 060V140 9999 FEW023 BKN031 16/12 Q1011=
201309091820 METAR ESMX 091820Z 11006KT 060V150 9999 SCT024 17/12 Q1011=
201309091750 METAR ESMX 091750Z 11006KT 040V160 9999 SCT024 17/12 Q1011=
201309091720 METAR ESMX 091720Z 11007KT 060V180 9999 FEW027 SCT095 17/12 Q1011=
201309091650 METAR ESMX 091650Z 11009KT 070V150 CAVOK 18/12 Q1012=
201309091620 METAR ESMX 091620Z 10008KT 050V150 CAVOK 18/11 Q1011=
201309091550 METAR ESMX 091550Z 10010KT 060V140 9999 FEW041 19/11 Q1012=
201309091520 METAR ESMX 091520Z 11006KT 080V150 9999 FEW040 19/11 Q1012=
201309091450 METAR ESMX 091450Z 10009G19KT 070V140 9999 FEW040 20/10 Q1012=
201309091420 METAR ESMX 091420Z 10009KT 050V150 9999 FEW040 20/10 Q1012=
201309091350 METAR ESMX 091350Z 10010KT 060V160 9999 FEW041 20/11 Q1012=
201309091320 METAR ESMX 091320Z 09008KT 050V140 9999 FEW041 20/10 Q1012=
201309091250 METAR ESMX 091250Z 11007G18KT 050V150 9999 FEW042 20/11 Q1013=
201309091220 METAR ESMX 091220Z 10009KT 040V150 9999 FEW044 20/11 Q1013=
201309091150 METAR ESMX 091150Z 12009KT 070V170 CAVOK 20/10 Q1014=
201309091120 METAR ESMX 091120Z 10008G18KT 050V150 CAVOK 21/10 Q1014=
201309091050 METAR ESMX 091050Z 11009G21KT 070V160 CAVOK 21/10 Q1014=
201309091020 METAR ESMX 091020Z 11009KT 060V160 CAVOK 21/09 Q1014=
201309090950 METAR ESMX 090950Z 11010KT 080V150 CAVOK 21/10 Q1015=
201309090920 METAR ESMX 090920Z 11006KT 070V160 CAVOK 20/11 Q1015=
201309090850 METAR ESMX 090850Z 11005KT 050V170 CAVOK 19/11 Q1015=
201309090820 METAR ESMX 090820Z 08006KT 030V130 CAVOK 18/11 Q1016=
201309090750 METAR ESMX 090750Z 08005KT 010V140 CAVOK 17/11 Q1016=
201309090720 METAR ESMX 090720Z 08005KT 020V110 CAVOK 16/11 Q1016=
201309090650 METAR ESMX 090650Z 07005KT 020V100 CAVOK 15/11 Q1016=
201309090620 METAR ESMX 090620Z 06004KT 350V120 CAVOK 14/12 Q1017=
201309090550 METAR ESMX 090550Z 07005KT 030V120 CAVOK 12/12 Q1017=
201309090520 METAR ESMX 090520Z 05005KT 020V080 CAVOK 12/11 Q1017=
201309090450 METAR ESMX 090450Z 07003KT 020V100 CAVOK 12/11 Q1017=
201309090420 METAR ESMX 090420Z 06003KT 020V100 CAVOK 11/11 Q1017=
201309090350 METAR ESMX 090350Z 06003KT 030V100 CAVOK 12/11 Q1017=
201309090320 METAR ESMX 090320Z AUTO 07004KT 030V140 9999NDV NCD 12/11 Q1017=
201309090250 METAR ESMX 090250Z AUTO 10004KT 070V140 9999NDV NCD 12/11 Q1018=
201309090220 METAR ESMX 090220Z AUTO 11003KT 9999NDV NCD 12/11 Q1018=
201309090150 METAR ESMX 090150Z AUTO 10003KT 9999NDV NCD 12/11 Q1019=
201309090120 METAR ESMX 090120Z AUTO 10003KT 9999NDV NCD 12/10 Q1019=
201309090050 METAR ESMX 090050Z AUTO 10003KT 9999NDV NCD 12/10 Q1019=
201309090020 METAR ESMX 090020Z AUTO 09004KT 050V140 9999NDV NCD 12/10 Q1020=
201309082350 METAR ESMX 082350Z AUTO 10003KT 9999NDV NCD 11/10 Q1020=
201309082320 METAR ESMX 082320Z 09002KT CAVOK 11/10 Q1020=
201309082250 METAR ESMX 082250Z VRB02KT CAVOK 12/10 Q1021=
201309082220 METAR ESMX 082220Z 09003KT 060V120 CAVOK 12/10 Q1021=
201309082150 METAR ESMX 082150Z 10004KT 070V130 CAVOK 13/10 Q1021=
201309082120 METAR ESMX 082120Z 09004KT 060V120 CAVOK 13/10 Q1021=
201309082050 METAR ESMX 082050Z 09004KT 030V140 CAVOK 13/09 Q1021=
201309082020 METAR ESMX 082020Z 10004KT 060V140 CAVOK 13/09 Q1022=
201309081950 METAR ESMX 081950Z 11003KT 050V160 CAVOK 14/08 Q1022=
201309081920 METAR ESMX 081920Z VRB02KT CAVOK 14/08 Q1022=
201309081850 METAR ESMX 081850Z 10004KT 040V140 CAVOK 15/07 Q1022=
201309081820 METAR ESMX 081820Z 12005KT 080V170 CAVOK 16/06 Q1022=
201309081750 METAR ESMX 081750Z 13006KT 070V170 CAVOK 17/05 Q1022=
201309081720 METAR ESMX 081720Z 12005KT 050V170 CAVOK 17/06 Q1022=
201309081650 METAR ESMX 081650Z 11005KT 070V140 CAVOK 18/06 Q1022=
201309081620 METAR ESMX 081620Z 13005KT 080V160 CAVOK 19/03 Q1022=
201309081550 METAR ESMX 081550Z 11007KT 060V170 CAVOK 20/02 Q1022=
201309081520 METAR ESMX 081520Z 12008KT 080V170 CAVOK 21/03 Q1022=
201309081450 METAR ESMX 081450Z 13008KT 080V160 CAVOK 22/02 Q1022=
201309081420 METAR ESMX 081420Z 13008KT 100V180 CAVOK 22/02 Q1023=
201309081350 METAR ESMX 081350Z 14008KT 080V170 CAVOK 23/02 Q1023=
201309081320 METAR ESMX 081320Z 12007KT 050V160 CAVOK 23/04 Q1023=
201309081250 METAR ESMX 081250Z 15008KT 110V180 CAVOK 23/04 Q1024=
201309081220 METAR ESMX 081220Z 14007KT 080V190 CAVOK 22/08 Q1024=
201309081150 METAR ESMX 081150Z 13008KT 090V190 CAVOK 22/09 Q1024=
201309081120 METAR ESMX 081120Z 13006KT 080V170 CAVOK 21/10 Q1024=
201309081050 METAR ESMX 081050Z 14008KT 080V180 CAVOK 20/10 Q1025=
201309081020 METAR ESMX 081020Z 14008KT 100V170 CAVOK 20/08 Q1025=
201309080950 METAR ESMX 080950Z AUTO 13006KT 070V160 9999NDV NCD 19/09 Q1025=
201309080920 METAR ESMX 080920Z AUTO 10006KT 050V170 9999NDV NCD 18/11 Q1025=
201309080850 METAR ESMX 080850Z AUTO 11006KT 9999NDV NCD 17/12 Q1025=
201309080820 METAR ESMX 080820Z AUTO 13005KT 070V170 9999NDV NCD 16/12 Q1026=
201309080750 METAR ESMX 080750Z AUTO 09005KT 050V150 9999NDV FEW006/// 15/12 Q1026=
201309080720 METAR ESMX 080720Z AUTO 12003KT 040V170 9999NDV BKN004/// 13/12 Q1026=
201309080650 METAR ESMX 080650Z AUTO 13004KT 080V160 9999NDV BKN004/// 12/12 Q1026=
201309080620 METAR ESMX 080620Z AUTO 12003KT 060V170 1100NDV R01/1100V1700U R19/P2000N BKN001/// OVC005/// 12/11 Q1026=
201309080550 METAR ESMX 080550Z AUTO 13005KT 080V170 0500NDV R01/0800V1200 R19/1300VP2000U FG VV001 12/11 Q1025=
201309080520 METAR ESMX 080520Z AUTO 12005KT 080V160 0350NDV R01/0600V1000D R19/0650V1000N FG VV001 12/11 Q1025=
201309080450 METAR ESMX 080450Z AUTO 10004KT 070V130 0650NDV R01/1000VP2000D R19/P2000N FG VV001 12/11 Q1025=
201309080420 METAR ESMX 080420Z AUTO 10003KT 060V140 1900NDV VV001 11/11 Q1025=
201309080350 METAR ESMX 080350Z AUTO 10004KT 040V140 0550NDV R01/1700N R19/P2000N FG VV001 11/11 Q1026=
201309080320 METAR ESMX 080320Z AUTO 11004KT 060V150 0900NDV R01/P2000N R19/P2000N BR OVC001/// 11/11 Q1026=
201309080250 METAR ESMX 080250Z AUTO 12003KT 060V160 3100NDV BR OVC002/// 11/11 Q1026=
201309080220 METAR ESMX 080220Z AUTO 11004KT 070V160 3200NDV BR OVC002/// 11/11 Q1026=
201309080150 METAR ESMX 080150Z AUTO 12004KT 080V160 9999NDV OVC002/// 12/11 Q1026=
201309080120 METAR ESMX 080120Z AUTO 11003KT 070V150 9999NDV OVC002/// 12/11 Q1026=
201309080050 METAR ESMX 080050Z AUTO VRB02KT 6000NDV BR BKN002/// 12/11 Q1026=
201309080020 METAR ESMX 080020Z AUTO 11003KT 070V150 3500NDV BKN002/// 12/11 Q1026=
201309072350 METAR ESMX 072350Z AUTO 11004KT 050V150 1400NDV R01/P2000N R19/P2000N BKN001/// BKN004/// 12/11 Q1026=
201309072320 METAR ESMX 072320Z AUTO 09004KT 050V140 0250NDV R01/1000U R19/0800V1900U BCFG VV001 12/11 Q1026=
201309072250 METAR ESMX 072250Z AUTO VRB02KT 0250NDV R01/P2000N R19/0800VP2000 BCFG FEW002/// 07/06 Q1026=
201309072220 METAR ESMX 072220Z AUTO 00000KT 0400NDV R01/0700VP2000 R19/P2000N BCFG NCD 09/08 Q1026=
201309072150 METAR ESMX 072150Z AUTO VRB01KT 2200NDV BR NCD 11/10 Q1026=
201309072120 METAR ESMX 072120Z AUTO 13003KT 100V170 9999NDV NCD 13/11 Q1026=
201309072050 METAR ESMX 072050Z AUTO 12004KT 090V160 9999NDV NCD 13/11 Q1025=
201309072020 METAR ESMX 072020Z 12003KT 080V150 CAVOK 14/11 Q1025=
201309071950 METAR ESMX 071950Z 13003KT 090V160 CAVOK 14/10 Q1025=
201309071920 METAR ESMX 071920Z 13004KT 100V160 CAVOK 15/10 Q1025=
201309071850 METAR ESMX 071850Z 13003KT CAVOK 15/10 Q1025=
201309071820 METAR ESMX 071820Z 14003KT CAVOK 15/11 Q1025=
201309071750 METAR ESMX 071750Z AUTO 13002KT 9999NDV NCD 15/11 Q1025=
201309071720 METAR ESMX 071720Z AUTO 15003KT 9999NDV NCD 18/11 Q1024=
201309071650 METAR ESMX 071650Z AUTO 15005KT 110V190 9999NDV NCD 19/10 Q1024=
201309071620 METAR ESMX 071620Z AUTO 13006KT 080V160 9999NDV NCD 21/10 Q1024=
201309071550 METAR ESMX 071550Z AUTO 14005KT 090V170 9999NDV NCD 22/10 Q1024=
201309071520 METAR ESMX 071520Z AUTO 13005KT 050V160 9999NDV NCD 22/10 Q1024=
201309071450 METAR ESMX 071450Z AUTO 14007KT 100V190 9999NDV NCD 23/10 Q1024=
201309071420 METAR ESMX 071420Z AUTO 13007KT 060V170 9999NDV NCD 23/11 Q1024=
201309071350 METAR ESMX 071350Z 12006KT 060V160 9999 FEW039 22/12 Q1024=
201309071320 METAR ESMX 071320Z 10006KT 040V180 CAVOK 22/12 Q1024=
201309071250 METAR ESMX 071250Z 16005KT 080V210 CAVOK 23/11 Q1024=
201309071220 METAR ESMX 071220Z 15006KT 060V190 CAVOK 22/10 Q1024=
201309071150 METAR ESMX 071150Z 14006KT 100V180 CAVOK 22/11 Q1024=
201309071120 METAR ESMX 071120Z 15006KT 070V190 CAVOK 21/11 Q1024=
201309071050 METAR ESMX 071050Z 15007KT 060V180 CAVOK 21/11 Q1024=
201309071020 METAR ESMX 071020Z AUTO 15006KT 100V200 9999NDV NCD 21/11 Q1024=
201309070950 METAR ESMX 070950Z AUTO 14006KT 080V170 9999NDV NCD 20/12 Q1024=
201309070920 METAR ESMX 070920Z AUTO 15006KT 090V220 9999NDV NCD 19/12 Q1024=
201309070850 METAR ESMX 070850Z AUTO 11004KT 060V180 9999NDV NCD 18/13 Q1024=
201309070820 METAR ESMX 070820Z AUTO 13004KT 070V170 9999NDV NCD 17/13 Q1024=
201309070750 METAR ESMX 070750Z AUTO 12004KT 080V160 9999NDV FEW007/// SCT010/// 16/13 Q1024=
201309070720 METAR ESMX 070720Z AUTO 13004KT 080V200 9999NDV FEW006/// BKN007/// 15/13 Q1024=
201309070650 METAR ESMX 070650Z AUTO 13005KT 9999NDV BKN005/// 14/13 Q1023=
201309070620 METAR ESMX 070620Z AUTO 14005KT 100V170 9999NDV BKN003/// 14/13 Q1023=
201309070550 METAR ESMX 070550Z AUTO 13005KT 080V160 9999NDV OVC003/// 13/13 Q1023=
201309070520 METAR ESMX 070520Z AUTO 12004KT 090V160 9000NDV BR OVC002/// 13/12 Q1023=
201309070450 METAR ESMX 070450Z AUTO 12003KT 080V150 6000NDV BR OVC002/// 13/12 Q1023=
201309070420 METAR ESMX 070420Z AUTO 12003KT 090V160 4400NDV BR OVC001/// 12/12 Q1022=
201309070350 METAR ESMX 070350Z AUTO 11004KT 8000NDV BR BKN002/// BKN004/// 12/11 Q1022=
201309070320 METAR ESMX 070320Z AUTO 11003KT 080V140 9000NDV BR FEW002/// SCT005/// 12/11 Q1022=
201309070250 METAR ESMX 070250Z AUTO 11003KT 080V150 9999NDV NCD 12/11 Q1022=
201309070220 METAR ESMX 070220Z AUTO 10004KT 9999NDV NCD 12/11 Q1022=
201309070150 METAR ESMX 070150Z AUTO 10003KT 9999NDV NCD 12/11 Q1022=
201309070120 METAR ESMX 070120Z AUTO 11004KT 080V150 9999NDV NCD 12/11 Q1022=
201309070050 METAR ESMX 070050Z AUTO 13003KT 9999NDV NCD 12/11 Q1022=
201309070020 METAR ESMX 070020Z AUTO 13004KT 090V160 9999NDV NCD 13/12 Q1021=
201309062350 METAR ESMX 062350Z AUTO 14004KT 090V170 9999NDV NCD 13/11 Q1022=
201309062320 METAR ESMX 062320Z AUTO 13004KT 090V170 9999NDV NCD 13/11 Q1021=
201309062250 METAR ESMX 062250Z AUTO 13004KT 9999NDV NCD 13/11 Q1021=
201309062220 METAR ESMX 062220Z AUTO 13005KT 100V160 9999NDV NCD 13/11 Q1021=
201309062150 METAR ESMX 062150Z AUTO 13004KT 090V160 9999NDV NCD 13/11 Q1021=
201309062120 METAR ESMX 062120Z AUTO 12003KT 080V170 9999NDV NCD 13/10 Q1021=
201309062050 METAR ESMX 062050Z AUTO 11004KT 070V160 9999NDV NCD 13/10 Q1021=
201309062020 METAR ESMX 062020Z AUTO 12004KT 080V170 9999NDV NCD 14/09 Q1021=
201309061950 METAR ESMX 061950Z AUTO 11004KT 070V150 9999NDV NCD 14/09 Q1021=
201309061920 METAR ESMX 061920Z AUTO 13005KT 080V170 9999NDV NCD 15/09 Q1020=
201309061850 METAR ESMX 061850Z AUTO 13005KT 100V180 9999NDV NCD 16/10 Q1020=
201309061820 METAR ESMX 061820Z AUTO 13005KT 100V170 9999NDV NCD 17/10 Q1020=
201309061750 METAR ESMX 061750Z AUTO 13004KT 070V160 9999NDV NCD 18/10 Q1020=
201309061720 METAR ESMX 061720Z 14004KT 110V190 CAVOK 19/09 Q1019=
201309061650 METAR ESMX 061650Z 15007KT 120V200 CAVOK 20/08 Q1019=
201309061620 METAR ESMX 061620Z 15006KT 120V200 CAVOK 21/09 Q1019=
201309061550 METAR ESMX 061550Z 14007KT 100V170 CAVOK 21/09 Q1019=
201309061520 METAR ESMX 061520Z 16008KT 120V190 CAVOK 21/08 Q1019=
201309061450 METAR ESMX 061450Z 16008KT 110V200 CAVOK 21/09 Q1019=
201309061420 METAR ESMX 061420Z 17009KT 140V200 CAVOK 22/09 Q1020=
201309061350 METAR ESMX 061350Z 17009KT 130V200 CAVOK 22/09 Q1020=
201309061320 METAR ESMX 061320Z 15009KT 110V190 CAVOK 22/09 Q1020=
201309061250 METAR ESMX 061250Z 16009KT 110V190 CAVOK 21/09 Q1020=
201309061220 METAR ESMX 061220Z 16010KT 120V190 CAVOK 21/10 Q1020=
201309061150 METAR ESMX 061150Z 16009KT 120V190 9999 FEW041 21/10 Q1020=
201309061120 METAR ESMX 061120Z 16010KT 100V190 9999 FEW038 21/10 Q1020=
201309061050 METAR ESMX 061050Z 16009KT 110V190 9999 SCT035 21/11 Q1020=
201309061020 METAR ESMX 061020Z 16010KT 9999 SCT032 20/12 Q1020=
201309060950 METAR ESMX 060950Z 16008KT 100V190 9999 FEW028 SCT034 19/12 Q1020=
201309060920 METAR ESMX 060920Z 14007KT 070V170 CAVOK 19/12 Q1020=
201309060850 METAR ESMX 060850Z 13006KT 100V170 9999 FEW016 19/12 Q1020=
201309060820 METAR ESMX 060820Z 14006KT 080V200 9999 FEW015 18/13 Q1020=
201309060750 METAR ESMX 060750Z 14006KT 080V180 9999 FEW009 SCT014 16/13 Q1020=
201309060720 METAR ESMX 060720Z 13006KT 080V170 9999 BKN008 15/13 Q1020=
201309060650 METAR ESMX 060650Z 13006KT 080V160 9999 BKN008 15/12 Q1020=
201309060620 METAR ESMX 060620Z 14006KT 110V180 9999 BKN008 15/12 Q1020=
201309060550 METAR ESMX 060550Z 12006KT 060V160 9999 FEW007 BKN009 14/13 Q1020=
201309060520 METAR ESMX 060520Z 13005KT 080V160 9999 FEW005 BKN008 14/13 Q1020=
201309060450 METAR ESMX 060450Z 14004KT 110V170 9999 SCT006 BKN009 14/13 Q1020=
201309060420 METAR ESMX 060420Z 15004KT 110V190 9999 BKN004 OVC009 14/13 Q1020=
201309060350 METAR ESMX 060350Z 15005KT 110V190 9000 BR OVC003 14/13 Q1020=
201309060320 METAR ESMX 060320Z AUTO 13006KT 100V170 1300NDV R01/P2000N R19/P2000N OVC001/// 13/13 Q1020=
201309060250 METAR ESMX 060250Z AUTO 15006KT 1300NDV R01/P2000N R19/P2000N OVC001/// 13/12 Q1020=
201309060220 METAR ESMX 060220Z AUTO 14006KT 110V170 0900NDV R01/P2000N R19/P2000N FG OVC001/// 13/12 Q1020=
201309060150 METAR ESMX 060150Z AUTO 14006KT 100V170 3200NDV BR BKN003/// 13/12 Q1020=
201309060120 METAR ESMX 060120Z AUTO 14007KT 110V190 3700NDV BR OVC001/// 13/12 Q1021=
201309060050 METAR ESMX 060050Z 14005KT 1800 BR OVC002 13/12 Q1021=
201309060020 METAR ESMX 060020Z 14006KT 9999 3000S BR OVC003 13/12 Q1021=
201309052350 METAR ESMX 052350Z 15006KT 9999 SCT004 13/12 Q1021=
201309052320 METAR ESMX 052320Z 14005KT 100V170 CAVOK 13/12 Q1021=
201309052250 METAR ESMX 052250Z 14004KT 110V170 CAVOK 13/11 Q1021=
201309052220 METAR ESMX 052220Z 14004KT 110V170 CAVOK 12/11 Q1021=
201309052150 METAR ESMX 052150Z 13005KT CAVOK 13/11 Q1021=
201309052120 METAR ESMX 052120Z 14005KT CAVOK 13/11 Q1021=
201309052050 METAR ESMX 052050Z 14004KT CAVOK 11/10 Q1021=
201309052020 METAR ESMX 052020Z 16004KT CAVOK 12/09 Q1022=
201309051950 METAR ESMX 051950Z 17004KT CAVOK 13/10 Q1021=
201309051920 METAR ESMX 051920Z 18005KT CAVOK 14/10 Q1021=
201309051850 METAR ESMX 051850Z 16004KT CAVOK 13/10 Q1021=
201309051820 METAR ESMX 051820Z 16005KT CAVOK 16/10 Q1021=
201309051750 METAR ESMX 051750Z 17004KT CAVOK 16/10 Q1021=
201309051720 METAR ESMX 051720Z 18006KT CAVOK 17/10 Q1021=
201309051650 METAR ESMX 051650Z 18006KT CAVOK 18/10 Q1021=
201309051620 METAR ESMX 051620Z 17007KT CAVOK 19/10 Q1021=
201309051550 METAR ESMX 051550Z 19008KT 150V220 CAVOK 20/10 Q1021=
201309051520 METAR ESMX 051520Z 17008KT CAVOK 20/10 Q1021=
201309051450 METAR ESMX 051450Z 18008KT 130V200 9999 FEW038 20/10 Q1022=
201309051420 METAR ESMX 051420Z 17006KT 140V200 9999 FEW039 20/10 Q1022=
201309051350 METAR ESMX 051350Z 15006KT 110V190 9999 FEW038 19/10 Q1022=
201309051320 METAR ESMX 051320Z 16006KT 120V190 9999 SCT036 19/10 Q1022=
201309051250 METAR ESMX 051250Z 17007KT 130V210 9999 SCT035 20/10 Q1023=
201309051220 METAR ESMX 051220Z 15007KT 110V190 9999 SCT037 19/11 Q1023=
201309051150 METAR ESMX 051150Z 15007KT 100V190 9999 SCT031 19/11 Q1023=
201309051120 METAR ESMX 051120Z 21006KT 9999 SCT026 BKN035 18/11 Q1023=
201309051050 METAR ESMX 051050Z 20005KT 9999 BKN024 17/12 Q1023=
201309051020 METAR ESMX 051020Z 16006KT 100V210 9999 SCT021 19/12 Q1024=
201309050950 METAR ESMX 050950Z 18004KT 110V230 9999 SCT010 18/12 Q1024=
201309050920 METAR ESMX 050920Z 18004KT 100V230 9999 FEW002 SCT012 17/12 Q1024=
201309050850 METAR ESMX 050850Z VRB02KT 9999 FEW002 SCT100 15/14 Q1024=
201309050820 METAR ESMX 050820Z VRB01KT 8000 VCFG VV002 13/13 Q1024=
201309050750 METAR COR ESMX 050750Z VRB01KT 1400 R01/0900VP2000N R19/P2000N BCFG VV002 12/12 Q1024=
201309050720 METAR ESMX 050720Z 00000KT 0500 R01/0450V0550 R19/0450 FG VV002 12/11 Q1024=
201309050650 METAR ESMX 050650Z VRB01KT 0100 R01/0175N R19/0200V0325N FG VV001 11/11 Q1024=
201309050620 METAR ESMX 050620Z VRB01KT 0100 R01/0200N R19/0175N FG VV001 10/09 Q1024=
201309050550 METAR ESMX 050550Z VRB01KT 0050 R01/M0150N R19/0150N FG VV000 10/09 Q1024=
201309050520 METAR ESMX 050520Z 00000KT 0050 R01/M0150N R19/0225N FG VV001 09/08 Q1023=
201309050450 METAR ESMX 050450Z 00000KT 0050 R01/M0150N R19/0175N FG VV000 08/07 Q1023=
201309050420 METAR ESMX 050420Z 00000KT 0050 R01/0125N R19/0150N FG VV000 08/07 Q1023=
201309050350 METAR ESMX 050350Z 24001KT 0050 R01/0150N R19/0225N VV000 07/06 Q1024=
201309050320 METAR ESMX 050320Z AUTO 00000KT 0050NDV R01/0300V0500N R19/0175N FG VV000 07/07 Q1023=
201309050250 METAR ESMX 050250Z AUTO 28001KT 0050NDV R01/0650 R19/0350V0500N FG VV000 06/05 Q1024=
201309050220 METAR ESMX 050220Z AUTO 00000KT 0150NDV R01/0400V0750 R19/0700N FG VV000 06/05 Q1024=
201309050150 METAR ESMX 050150Z AUTO 00000KT 0050NDV R01/0350V0550 R19/0800V1600 FG VV000 06/05 Q1024=
201309050120 METAR ESMX 050120Z AUTO 00000KT 0150NDV R01/0450 R19/0400V0800 BCFG VV000 07/06 Q1024=
201309050050 METAR ESMX 050050Z AUTO 00000KT 0100NDV R01/0350V0550 R19/P2000N FG NCD 06/05 Q1024=
201309050020 METAR ESMX 050020Z AUTO 00000KT 0150NDV R01/0450 R19/P2000N BCFG NCD 06/05 Q1024=
201309042350 METAR ESMX 042350Z 00000KT 0900 R01/P2000N R19/P2000N BCFG NSC 06/05 Q1024=
201309042320 METAR ESMX 042320Z 00000KT 1000 R01/0800 R19/P2000N BCFG NSC 06/05 Q1024=
201309042250 METAR ESMX 042250Z 00000KT 2000 BCFG NSC 07/06 Q1024=
201309042220 METAR ESMX 042220Z 00000KT 3100 BCFG NSC 07/07 Q1024=
201309042150 METAR ESMX 042150Z 00000KT 3000 BCFG SKC 08/07 Q1024=
201309042120 METAR ESMX 042120Z 00000KT CAVOK 08/08 Q1024=
201309042050 METAR ESMX 042050Z 00000KT CAVOK 09/09 Q1024=
201309042020 METAR ESMX 042020Z 00000KT CAVOK 09/08 Q1024=
201309041950 METAR ESMX 041950Z 00000KT CAVOK 10/09 Q1024=
201309041920 METAR ESMX 041920Z 00000KT CAVOK 10/09 Q1024=
201309041850 METAR ESMX 041850Z 00000KT CAVOK 11/10 Q1024=
201309041820 METAR ESMX 041820Z 00000KT CAVOK 12/11 Q1024=
201309041750 METAR ESMX 041750Z 00000KT CAVOK 13/11 Q1023=
201309041720 METAR ESMX 041720Z 00000KT CAVOK 16/12 Q1023=
201309041650 METAR ESMX 041650Z 22002KT CAVOK 18/11 Q1023=
201309041620 METAR ESMX 041620Z 21004KT CAVOK 19/11 Q1023=
201309041550 METAR ESMX 041550Z 21004KT CAVOK 19/11 Q1023=
201309041520 METAR ESMX 041520Z 21005KT 190V260 9999 FEW030 19/11 Q1024=
201309041450 METAR ESMX 041450Z 23006KT 9999 SCT028 18/11 Q1024=
201309041420 METAR ESMX 041420Z 22006KT 150V300 9999 BKN028 19/11 Q1024=
201309041350 METAR ESMX 041350Z 23005KT 200V280 9999 BKN025 18/11 Q1024=
201309041320 METAR ESMX 041320Z 21003KT 130V280 9999 BKN025 18/12 Q1024=
201309041250 METAR ESMX 041250Z 21006KT 160V240 9999 BKN020 18/12 Q1024=
201309041220 METAR ESMX 041220Z 18005KT 120V210 9999 BKN020 17/12 Q1024=
201309041150 METAR ESMX 041150Z 20005KT 160V240 9999 BKN020 18/11 Q1025=
201309041120 METAR ESMX 041120Z 24003KT 200V320 9999 BKN020 17/12 Q1025=
201309041050 METAR ESMX 041050Z 25003KT 200V310 9999 FEW012 BKN017 16/11 Q1025=
201309041020 METAR ESMX 041020Z 21003KT 160V250 9999 FEW010 BKN016 16/12 Q1025=
201309040950 METAR ESMX 040950Z VRB02KT 9999 FEW006 SCT008 BKN011 15/13 Q1025=
201309040920 METAR ESMX 040920Z 00000KT 9999 FEW002 SCT004 BKN005 14/13 Q1025=
201309040850 METAR ESMX 040850Z 36004KT 320V030 9999 BR OVC002 13/12 Q1025=
201309040820 METAR ESMX 040820Z VRB02KT 2500 BR VV002 13/12 Q1025=
201309040750 METAR ESMX 040750Z VRB01KT 0250 R01/0500 R19/0600 FG VV002 13/12 Q1025=
201309040720 METAR ESMX 040720Z 00000KT 0250 R01/0450V0600 R19/0450N FG VV002 12/12 Q1024=
201309040650 METAR ESMX 040650Z 00000KT 0150 R01/0225V0375N R19/0375V0550U FG VV002 12/12 Q1024=
201309040620 METAR ESMX 040620Z VRB02KT 0100 R01/0225N R19/0350 FG VV002 12/11 Q1024=
201309040550 METAR ESMX 040550Z 00000KT 0900 R01/P2000D R19/P2000D FG VV002 11/11 Q1024=
201309040520 METAR ESMX 040520Z 34002KT 0350 R01/0600V0900 R19/P2000N FG VV002 11/11 Q1024=
201309040450 METAR ESMX 040450Z VRB01KT 0200 R01/0175N R19/0650 FG VV002 11/10 Q1024=
201309040420 METAR ESMX 040420Z 00000KT 0200 R01/0400N R19/0550 FG VV002 10/10 Q1024=
201309040350 METAR ESMX 040350Z VRB01KT 0200 R01/0550N R19/0650N FG VV001 10/09 Q1024=
201309040320 METAR ESMX 040320Z AUTO 00000KT 0150NDV R01/0650N R19/1000D FG VV001 10/09 Q1024=
201309040250 METAR ESMX 040250Z AUTO 00000KT 0150NDV R01/0550 R19/0650 FG VV000 10/09 Q1023=
201309040220 METAR ESMX 040220Z AUTO 00000KT 0100NDV R01/0325V0550N R19/0350V0550 FG VV001 10/10 Q1023=
201309040150 METAR ESMX 040150Z AUTO 26001KT 0050NDV R01/0275 R19/0375V0550 FG VV000 09/08 Q1023=
201309040120 METAR ESMX 040120Z AUTO 24001KT 0150NDV R01/0800VP2000 R19/P2000 BCFG NCD 09/08 Q1024=
201309040050 METAR ESMX 040050Z 24003KT 1200 R01/P2000N R19/0450V1500 BCFG NSC 09/08 Q1024=
201309040020 METAR ESMX 040020Z 23001KT 9999 MIFG NSC 08/07 Q1023=
201309032350 METAR ESMX 032350Z 21002KT CAVOK 09/08 Q1023=
201309032320 METAR ESMX 032320Z 24002KT 8000 BR NSC 09/08 Q1024=
201309032250 METAR ESMX 032250Z 00000KT 9000 NSC 09/08 Q1023=
201309032220 METAR ESMX 032220Z 23002KT CAVOK 11/10 Q1023=
201309032150 METAR ESMX 032150Z 25003KT CAVOK 11/10 Q1023=
201309032120 METAR ESMX 032120Z 00000KT CAVOK 11/09 Q1023=
201309032050 METAR ESMX 032050Z 26003KT CAVOK 12/10 Q1023=
201309032020 METAR ESMX 032020Z 25004KT CAVOK 12/10 Q1023=
201309031950 METAR ESMX 031950Z 25004KT CAVOK 12/10 Q1023=
201309031920 METAR ESMX 031920Z 25005KT CAVOK 11/09 Q1023=
201309031850 METAR ESMX 031850Z 23003KT CAVOK 11/08 Q1022=
201309031820 METAR ESMX 031820Z 19002KT CAVOK 12/10 Q1022=
201309031750 METAR ESMX 031750Z 23003KT CAVOK 13/10 Q1022=
201309031720 METAR ESMX 031720Z 22002KT CAVOK 16/11 Q1022=
201309031650 METAR ESMX 031650Z 27003KT CAVOK 18/08 Q1022=
201309031620 METAR ESMX 031620Z 29004KT CAVOK 19/08 Q1022=
201309031550 METAR ESMX 031550Z 28006KT CAVOK 19/08 Q1022=
201309031520 METAR ESMX 031520Z 27006KT 240V300 CAVOK 19/08 Q1022=
201309031450 METAR ESMX 031450Z 27006KT 240V320 CAVOK 19/08 Q1022=
201309031420 METAR ESMX 031420Z 28006KT 250V310 CAVOK 19/07 Q1021=
201309031350 METAR ESMX 031350Z 31007KT 280V340 CAVOK 20/07 Q1021=
201309031320 METAR ESMX 031320Z 27006KT 200V320 CAVOK 20/07 Q1021=
201309031250 METAR ESMX 031250Z 28004KT 200V320 CAVOK 20/07 Q1021=
201309031220 METAR ESMX 031220Z 30007KT 260V340 CAVOK 19/08 Q1021=
201309031150 METAR ESMX 031150Z 29006KT 260V350 CAVOK 19/06 Q1021=
201309031120 METAR ESMX 031120Z 34007KT CAVOK 19/06 Q1021=
201309031050 METAR ESMX 031050Z 32006KT 280V360 CAVOK 18/06 Q1021=
201309031020 METAR ESMX 031020Z 29006KT 250V340 CAVOK 18/08 Q1021=
201309030950 METAR ESMX 030950Z 30005KT 250V350 CAVOK 17/08 Q1021=
201309030920 METAR ESMX 030920Z 30006KT 250V340 CAVOK 16/09 Q1021=
201309030850 METAR ESMX 030850Z 28004KT 240V330 CAVOK 16/08 Q1020=
201309030820 METAR ESMX 030820Z VRB02KT CAVOK 15/07 Q1020=
201309030750 METAR ESMX 030750Z 31003KT 250V010 CAVOK 14/07 Q1020=
201309030720 METAR ESMX 030720Z VRB02KT CAVOK 13/08 Q1020=
201309030650 METAR ESMX 030650Z 33002KT CAVOK 11/08 Q1019=
201309030620 METAR ESMX 030620Z VRB01KT CAVOK 10/09 Q1019=
201309030550 METAR ESMX 030550Z 00000KT CAVOK 07/06 Q1018=
201309030520 METAR ESMX 030520Z 00000KT CAVOK 04/03 Q1018=
201309030450 METAR ESMX 030450Z 00000KT 9999 MIFG SKC 03/02 Q1018=
201309030420 METAR ESMX 030420Z 19002KT 9999 MIFG SKC 03/02 Q1017=
201309030350 METAR ESMX 030350Z 00000KT 9999 MIFG NSC 05/04 Q1017=
201309030320 METAR ESMX 030320Z AUTO 00000KT 9999NDV NCD 04/03 Q1017=
201309030250 METAR ESMX 030250Z AUTO VRB02KT 9999NDV NCD 05/04 Q1016=
201309030220 METAR ESMX 030220Z AUTO 28003KT 9999NDV NCD 05/04 Q1016=
201309030150 METAR ESMX 030150Z AUTO 28004KT 9999NDV NCD 05/04 Q1015=
201309030120 METAR ESMX 030120Z AUTO 31003KT 290V350 9999NDV NCD 06/05 Q1015=
201309030050 METAR ESMX 030050Z AUTO 34002KT 9999NDV NCD 07/06 Q1015=
201309030020 METAR ESMX 030020Z AUTO 00000KT 9999NDV NCD 07/06 Q1014=
201309022350 METAR ESMX 022350Z 31004KT 270V340 CAVOK 07/05 Q1014=
201309022320 METAR ESMX 022320Z VRB02KT CAVOK 07/06 Q1013=
201309022250 METAR ESMX 022250Z 28004KT CAVOK 08/06 Q1013=
201309022220 METAR ESMX 022220Z 31006KT CAVOK 09/06 Q1013=
201309022150 METAR ESMX 022150Z 31005KT CAVOK 09/06 Q1012=
201309022120 METAR ESMX 022120Z 31006KT CAVOK 08/06 Q1012=
201309022050 METAR ESMX 022050Z 31005KT CAVOK 09/06 Q1011=
201309022020 METAR ESMX 022020Z 31006KT CAVOK 10/06 Q1011=
201309021950 METAR ESMX 021950Z 32006KT CAVOK 11/06 Q1010=
201309021920 METAR ESMX 021920Z 31006KT CAVOK 11/06 Q1010=
201309021850 METAR ESMX 021850Z 31006KT CAVOK 12/06 Q1009=
201309021820 METAR ESMX 021820Z 31007KT CAVOK 13/05 Q1009=
201309021750 METAR ESMX 021750Z 32011KT CAVOK 14/05 Q1008=
201309021720 METAR ESMX 021720Z 32009KT CAVOK 15/06 Q1008=
201309021650 METAR ESMX 021650Z 31009KT CAVOK 16/07 Q1007=
201309021620 METAR ESMX 021620Z 32012KT CAVOK 17/05 Q1006=
201309021550 METAR ESMX 021550Z 32012KT CAVOK 17/05 Q1006=
201309021520 METAR ESMX 021520Z 31012KT CAVOK 17/06 Q1005=
201309021450 METAR ESMX 021450Z 33012KT 9999 SCT048 18/06 Q1005=
201309021420 METAR ESMX 021420Z 31013KT 9999 SCT048 17/06 Q1005=
201309021350 METAR ESMX 021350Z 33013KT 9999 FEW045 17/06 Q1005=
201309021320 METAR ESMX 021320Z 33013KT 9999 FEW045 18/08 Q1004=
201309021250 METAR ESMX 021250Z 33013KT 9999 SCT044 18/08 Q1004=
201309021220 METAR ESMX 021220Z 32013G24KT 290V350 9999 SCT039 17/08 Q1004=
201309021150 METAR ESMX 021150Z 32011KT 280V350 9999 SCT030 15/09 Q1003=
201309021120 METAR ESMX 021120Z 31012KT 9999 FEW024 SCT035 16/11 Q1003=
201309021050 METAR ESMX 021050Z 30011KT 280V340 9999 FEW020 SCT026 BKN037 15/11 Q1003=
201309021020 METAR ESMX 021020Z 32010KT 280V340 9999 SCT014 15/11 Q1002=
201309020950 METAR ESMX 020950Z 29007KT 9999 FEW017 13/11 Q1002=
201309020920 METAR ESMX 020920Z 29007KT 9999 FEW048 SCT054 13/11 Q1002=
201309020850 METAR ESMX 020850Z 32006KT 9999 FEW009 BKN044 12/10 Q1002=
201309020820 METAR ESMX 020820Z 32011KT 7000 RA FEW013 SCT021 BKN035 12/10 Q1002=
201309020750 METAR ESMX 020750Z 30008KT 9000 DZ FEW011 SCT020 12/11 Q1002=
201309020720 METAR ESMX 020720Z 30008KT 280V350 7000 -RA FEW005 SCT013 BKN020 12/11 Q1001=
201309020650 METAR ESMX 020650Z 25009KT 9999 RA FEW005 SCT008 BKN010 12/11 Q1001=
201309020620 METAR ESMX 020620Z 25005KT 8000 RA FEW008 BKN032 12/11 Q1001=
201309020550 METAR ESMX 020550Z 30005KT 250V340 7000 -RA FEW005 SCT026 BKN033 12/11 Q1002=
201309020520 METAR ESMX 020520Z 23008KT 2600 +RA FEW004 BKN006 12/11 Q1002=
201309020450 METAR ESMX 020450Z 23009KT 7000 RA FEW004 SCT007 BKN008 12/11 Q1002=
201309020420 METAR ESMX 020420Z 23007KT 4800 -RA FEW006 SCT009 BKN012 11/10 Q1003=
201309020350 METAR ESMX 020350Z 24009KT 9999 -RA FEW007 BKN010 11/10 Q1003=
201309020320 METAR ESMX 020320Z AUTO 23010KT 5000NDV DZ FEW009/// SCT014/// BKN017/// 11/10 Q1004=
201309020250 METAR ESMX 020250Z AUTO 24009KT 9999NDV FEW009/// SCT012/// BKN014/// 11/10 Q1004=
201309020220 METAR ESMX 020220Z AUTO 22007KT 9999NDV FEW011/// SCT019/// BKN022/// 11/10 Q1005 REDZ=
201309020150 METAR ESMX 020150Z AUTO 23008KT 210V270 9999NDV FEW013/// SCT018/// BKN021/// 11/10 Q1005=
201309020120 METAR ESMX 020120Z AUTO 25008KT 9999NDV FEW012/// SCT015/// BKN017/// 11/10 Q1006=
201309020050 METAR ESMX 020050Z AUTO 24010KT 9999NDV FEW010/// SCT016/// BKN019/// 11/10 Q1006=
201309020020 METAR ESMX 020020Z AUTO 24009KT 9999NDV FEW012/// SCT016/// OVC020/// 11/10 Q1006=
201309012350 METAR ESMX 012350Z AUTO 24007KT 9999NDV FEW012/// SCT018/// BKN025/// 11/10 Q1007=
201309012320 METAR ESMX 012320Z 22009KT 9999 -RA FEW014 SCT024 BKN030 11/10 Q1007=
201309012250 METAR ESMX 012250Z 23007KT 9999 -RA FEW022 SCT030 11/10 Q1007 REDZ=
201309012220 METAR ESMX 012220Z 23007KT 9999 FEW016 SCT031 11/10 Q1008 REDZ=
201309012150 METAR ESMX 012150Z 23008KT 9999 -SHRA FEW020 SCT026 BKN093 11/10 Q1008=
201309012120 METAR ESMX 012120Z 23008KT 9999 FEW017 SCT021 BKN025 11/10 Q1008=
201309012050 METAR ESMX 012050Z 21008KT 9999 FEW018 BKN025 11/10 Q1008=
201309012020 METAR ESMX 012020Z 23008KT 9999 FEW014 SCT025 BKN041 12/10 Q1009=
201309011950 METAR ESMX 011950Z 22009KT 9999 FEW015 SCT020 12/10 Q1009=
201309011920 METAR ESMX 011920Z 23008KT 9999 FEW043 BKN051 11/10 Q1009=
201309011850 METAR ESMX 011850Z 23009KT 9999 FEW021 11/10 Q1009=
201309011820 METAR ESMX 011820Z 23008KT 9999 FEW017 SCT032 BKN036 12/10 Q1009=
201309011750 METAR ESMX 011750Z 22009KT 9999 FEW013 SCT031 12/10 Q1009 REDZ=
201309011650 METAR ESMX 011650Z 23008KT 9999 -SHRA FEW024CB BKN046 12/10 Q1010=
201309011620 METAR ESMX 011620Z 22013KT 9999 -SHRA FEW019CB SCT048 12/10 Q1010=
201309011550 METAR ESMX 011550Z 21007KT 9999 VCSH FEW025CB SCT051 12/10 Q1010=
201309011520 METAR ESMX 011520Z 22010KT 190V250 9999 VCSH FEW023CB SCT048 13/11 Q1010 RESHRA=
201309011450 METAR ESMX 011450Z 23009KT 9999 VCSH FEW021 SCT025CB 13/10 Q1011=
201309011420 METAR ESMX 011420Z 22010KT 9999 VCSH FEW020 SCT030CB BKN052 13/10 Q1011 RESHRA=
201309011350 METAR ESMX 011350Z 25009KT 9999 VCSH SCT020CB BKN030 13/10 Q1011=
201309011320 METAR COR ESMX 011320Z 23007KT 200V260 9999 SHRA SCT032CB BKN035 13/09 Q1011=
201309011250 METAR ESMX 011250Z 25010KT 220V280 9999 VCSH BKN028CB 14/08 Q1012=
201309011220 METAR ESMX 011220Z 26012KT 9999 VCSH FEW028CB SCT035 14/08 Q1012=
