##########################################################
# Query made at 04/19/2024 21:32:46 UTC
# Time interval: from 03/01/2013 12:00  to 03/31/2013 12:59  UTC
##########################################################

##########################################################
# ESMX, Vaxjo (Sweden)
# WMO index: 02641. WIGOS ID: 0-20000-0-02648
# Latitude 56-51N. Longitude 014-50E. Altitude 199 m.
##########################################################

201303311250 METAR ESMX 311250Z AUTO VRB05KT 9999NDV NCD 04/M13 Q1013=
201303311220 METAR ESMX 311220Z AUTO 33006KT 260V020 9999NDV NCD 04/M13 Q1013=
201303311150 METAR ESMX 311150Z AUTO 36007KT 320V040 9999NDV NCD 04/M13 Q1013=
201303311120 METAR ESMX 311120Z AUTO 34007KT 9999NDV NCD 04/M12 Q1013=
201303311050 METAR ESMX 311050Z AUTO 02006KT 320V080 9999NDV NCD 03/M12 Q1013=
201303311020 METAR ESMX 311020Z AUTO 02005KT 340V060 9999NDV NCD 03/M12 Q1013=
201303310950 METAR ESMX 310950Z AUTO 01007KT 330V060 9999NDV NCD 03/M12 Q1013=
201303310920 METAR ESMX 310920Z AUTO 02006KT 330V070 9999NDV NCD 02/M11 Q1013=
201303310850 METAR ESMX 310850Z AUTO 35006KT 9999NDV NCD 01/M09 Q1013=
201303310820 METAR ESMX 310820Z AUTO 36006KT 9999NDV NCD M00/M08 Q1013=
201303310750 METAR ESMX 310750Z AUTO 36006KT 9999NDV NCD M01/M08 Q1013=
201303310720 METAR ESMX 310720Z AUTO 01005KT 9999NDV NCD M03/M09 Q1013=
201303310650 METAR ESMX 310650Z AUTO 02005KT 9999NDV NCD M04/M09 Q1013=
201303310620 METAR ESMX 310620Z AUTO 01003KT 9999NDV NCD M06/M10 Q1013=
201303310550 METAR ESMX 310550Z AUTO 35003KT 9999NDV NCD M08/M10 Q1013=
201303310520 METAR ESMX 310520Z AUTO 35002KT 9999NDV NCD M11/M12 Q1013=
201303310450 METAR ESMX 310450Z AUTO 30001KT 9999NDV NCD M11/M12 Q1013=
201303310420 METAR ESMX 310420Z AUTO 00000KT 9999NDV NCD M11/M13 Q1012=
201303310350 METAR ESMX 310350Z AUTO VRB01KT 9999NDV NCD M10/M12 Q1012=
201303310320 METAR ESMX 310320Z AUTO 00000KT 9999NDV NCD M10/M12 Q1012=
201303310250 METAR ESMX 310250Z AUTO 29002KT 9999NDV NCD M10/M12 Q1012=
201303310220 METAR ESMX 310220Z AUTO 34002KT 9999NDV NCD M10/M12 Q1012=
201303310150 METAR ESMX 310150Z AUTO 34004KT 9999NDV NCD M10/M13 Q1012=
201303310120 METAR ESMX 310120Z AUTO 02003KT 9999NDV NCD M09/M11 Q1012=
201303310050 METAR ESMX 310050Z AUTO 00000KT 9999NDV NCD M08/M11 Q1012=
201303310020 METAR ESMX 310020Z AUTO 00000KT 9999NDV NCD M08/M11 Q1012=
201303302350 METAR ESMX 302350Z AUTO 00000KT 9999NDV NCD M08/M11 Q1012=
201303302320 METAR ESMX 302320Z AUTO 00000KT 9999NDV NCD M08/M11 Q1012=
201303302250 METAR ESMX 302250Z AUTO 02001KT 9999NDV NCD M06/M10 Q1011=
201303302220 METAR ESMX 302220Z AUTO 00000KT 9999NDV NCD M07/M10 Q1011=
201303302150 METAR ESMX 302150Z AUTO 33001KT 9999NDV NCD M07/M10 Q1011=
201303302120 METAR ESMX 302120Z AUTO 33001KT 9999NDV NCD M07/M10 Q1011=
201303302050 METAR ESMX 302050Z AUTO 00000KT 9999NDV NCD M06/M09 Q1011=
201303302020 METAR ESMX 302020Z AUTO 03001KT 9999NDV NCD M05/M09 Q1011=
201303301950 METAR ESMX 301950Z AUTO VRB01KT 9999NDV NCD M05/M10 Q1010=
201303301920 METAR ESMX 301920Z AUTO 26001KT 9999NDV NCD M05/M10 Q1010=
201303301850 METAR ESMX 301850Z AUTO 00000KT 9999NDV NCD M04/M10 Q1010=
201303301820 METAR ESMX 301820Z AUTO 08002KT 9999NDV NCD M02/M11 Q1010=
201303301750 METAR ESMX 301750Z AUTO 06004KT 9999NDV NCD M00/M11 Q1009=
201303301720 METAR ESMX 301720Z AUTO 05007KT 030V090 9999NDV NCD 01/M12 Q1009=
201303301650 METAR ESMX 301650Z AUTO 05009KT 030V090 9999NDV NCD 02/M12 Q1009=
201303301620 METAR ESMX 301620Z AUTO 05008KT 020V080 9999NDV NCD 03/M12 Q1008=
201303301550 METAR ESMX 301550Z AUTO 04011KT 010V080 9999NDV NCD 03/M12 Q1008=
201303301520 METAR ESMX 301520Z AUTO 03011KT 9999NDV NCD 03/M12 Q1008=
201303301450 METAR ESMX 301450Z AUTO 01010KT 9999NDV NCD 04/M11 Q1008=
201303301420 METAR ESMX 301420Z AUTO 02010KT 9999NDV NCD 04/M11 Q1008=
201303301350 METAR ESMX 301350Z AUTO 02010KT 9999NDV FEW052/// 03/M10 Q1008=
201303301320 METAR ESMX 301320Z AUTO 04010KT 010V070 9999NDV NCD 04/M10 Q1007=
201303301250 METAR ESMX 301250Z AUTO 02011KT 9999NDV SCT046/// 03/M09 Q1007=
201303301220 METAR ESMX 301220Z AUTO 04012KT 9999NDV FEW043/// 02/M08 Q1007=
201303301150 METAR ESMX 301150Z AUTO 01010KT 9999NDV BKN039/// 02/M06 Q1007=
201303301120 METAR ESMX 301120Z AUTO 01011KT 9999NDV BKN037/// 02/M07 Q1007=
201303301050 METAR ESMX 301050Z AUTO 04012KT 020V080 9999NDV BKN038/// 02/M08 Q1007=
201303301020 METAR ESMX 301020Z AUTO 04010KT 020V080 9999NDV FEW035/// BKN040/// 02/M07 Q1007=
201303300950 METAR ESMX 300950Z AUTO 04011KT 020V090 9999NDV BKN030/// 01/M07 Q1007=
201303300920 METAR ESMX 300920Z AUTO 01011KT 9999NDV FEW027/// BKN030/// 01/M05 Q1006=
201303300850 METAR ESMX 300850Z AUTO 03011KT 9999NDV FEW024/// SCT032/// 01/M05 Q1006=
201303300820 METAR ESMX 300820Z AUTO 02010KT 9999NDV FEW020/// SCT028/// BKN058/// M00/M05 Q1006=
201303300750 METAR ESMX 300750Z AUTO 02009KT 9999NDV FEW016/// SCT019/// BKN022/// M01/M04 Q1006=
201303300720 METAR ESMX 300720Z AUTO 36010KT 9999NDV BKN014/// OVC020/// M02/M04 Q1006=
201303300650 METAR ESMX 300650Z AUTO 36010KT 9999NDV OVC013/// M02/M04 Q1006=
201303300620 METAR ESMX 300620Z AUTO 01010KT 9999NDV SG SCT012/// BKN016/// BKN019/// M02/M04 Q1006=
201303300550 METAR ESMX 300550Z AUTO 01008KT 9999NDV FEW014/// BKN017/// M03/M04 Q1006=
201303300520 METAR ESMX 300520Z AUTO 01008KT 9999NDV -SN FEW013/// BKN016/// M03/M04 Q1006=
201303300450 METAR ESMX 300450Z AUTO 36008KT 9999NDV -SN FEW011/// SCT016/// BKN018/// M03/M04 Q1006=
201303300420 METAR ESMX 300420Z AUTO 02007KT 8000NDV -SN FEW011/// BKN015/// M03/M04 Q1006=
201303300350 METAR ESMX 300350Z AUTO 02007KT 7000NDV -SN FEW014/// BKN017/// M03/M04 Q1006=
201303300320 METAR ESMX 300320Z AUTO 02008KT 3600NDV -SN FEW016/// M03/M04 Q1006=
201303300250 METAR ESMX 300250Z AUTO 02007KT 5000NDV -SN SCT012/// BKN017/// M03/M04 Q1006=
201303300220 METAR ESMX 300220Z AUTO 02007KT 5000NDV -SN OVC011/// M03/M04 Q1006=
201303300150 METAR ESMX 300150Z AUTO 03008KT 5000NDV -SN FEW006/// M03/M04 Q1006=
201303300120 METAR ESMX 300120Z AUTO 01008KT 7000NDV -SN FEW011/// SCT032/// BKN037/// M02/M04 Q1006=
201303300050 METAR ESMX 300050Z AUTO 03008KT 2300NDV -SN SCT006/// BKN011/// M03/M04 Q1006=
201303300020 METAR ESMX 300020Z AUTO 01009KT 3900NDV SG FEW009/// SCT015/// BKN031/// M03/M04 Q1007=
201303292350 METAR ESMX 292350Z AUTO 01010KT 4200NDV -SN FEW009/// M03/M04 Q1007=
201303292320 METAR ESMX 292320Z AUTO 02009KT 4000NDV -SN FEW007/// M03/M04 Q1007=
201303292250 METAR ESMX 292250Z AUTO 02010KT 2900NDV -SN BKN005/// M03/M04 Q1007=
201303292220 METAR ESMX 292220Z AUTO 01010KT 2100NDV -SN SCT006/// M03/M04 Q1007=
201303292150 METAR ESMX 292150Z AUTO 04011KT 3700NDV -SN FEW006/// SCT008/// M03/M04 Q1007=
201303292120 METAR ESMX 292120Z AUTO 03010KT 3900NDV -SN FEW007/// M02/M04 Q1008=
201303292050 METAR ESMX 292050Z AUTO 03011KT 9999NDV SG FEW016/// M02/M05 Q1008=
201303292020 METAR ESMX 292020Z AUTO 04011KT 010V070 8000NDV -SN NCD M02/M05 Q1008=
201303291950 METAR ESMX 291950Z AUTO 04010KT 9999NDV SCT016/// BKN020/// M02/M05 Q1008=
201303291920 METAR ESMX 291920Z AUTO 04012KT 9999NDV SCT016/// BKN020/// M02/M05 Q1009=
201303291850 METAR ESMX 291850Z AUTO 04011KT 9999NDV -SN FEW017/// SCT020/// M02/M05 Q1009=
201303291820 METAR ESMX 291820Z AUTO 04011KT 9999NDV FEW013/// BKN080/// M02/M05 Q1009=
201303291750 METAR ESMX 291750Z AUTO 04009KT 9999NDV SG FEW012/// SCT016/// BKN022/// M02/M04 Q1009=
201303291720 METAR ESMX 291720Z 05010KT 020V080 9000 -SN FEW016 SCT021 M01/M05 Q1009=
201303291650 METAR ESMX 291650Z 05011KT 030V090 7000 -SN FEW019 SCT022 BKN026 M01/M05 Q1009=
201303291620 METAR ESMX 291620Z 05011KT 9999 SCT020 BKN035 M00/M06 Q1009=
201303291550 METAR ESMX 291550Z 04011KT 020V090 9999 -SN FEW019 SCT027 M00/M06 Q1009=
201303291520 METAR ESMX 291520Z 06011KT 020V110 9999 -SN FEW019 BKN038 01/M07 Q1009=
201303291450 METAR ESMX 291450Z 07010KT 030V110 9999 -SN FEW024 SCT042 01/M08 Q1010=
201303291420 METAR ESMX 291420Z 06010KT 020V120 9999 FEW025 BKN039 01/M08 Q1010=
201303291350 METAR ESMX 291350Z 04011KT 9999 FEW023 BKN035 01/M07 Q1010=
201303291320 METAR ESMX 291320Z 08010KT 030V140 9999 FEW027 BKN040 02/M07 Q1010=
201303291250 METAR ESMX 291250Z 07010KT 030V130 9999 FEW027 BKN040 01/M07 Q1010=
201303291220 METAR ESMX 291220Z 07010KT 040V120 9999 FEW026 BKN037 01/M07 Q1011=
201303291150 METAR ESMX 291150Z 07010KT 020V110 9999 BKN034 01/M07 Q1011=
201303291120 METAR ESMX 291120Z 06010KT 030V110 9999 FEW019 SCT033 BKN038 01/M07 Q1011=
201303291050 METAR ESMX 291050Z 07010KT 040V100 9999 FEW015 SCT030 BKN036 01/M06 Q1012=
201303291020 METAR ESMX 291020Z 07010KT 040V120 9999 FEW019 SCT025 BKN029 00/M06 Q1012=
201303290950 METAR ESMX 290950Z 06008KT 030V110 9999 BKN020 00/M04 Q1012=
201303290920 METAR ESMX 290920Z 06009KT 030V100 9999 FEW019 SCT023 BKN029 00/M04 Q1012=
201303290850 METAR ESMX 290850Z 06010KT 030V100 9999 FEW018 BKN020 00/M04 Q1012=
201303290820 METAR ESMX 290820Z 07010KT 9999 FEW017 BKN020 M00/M04 Q1013=
201303290750 METAR ESMX 290750Z 07009KT 030V100 9999 FEW015 SCT019 M00/M04 Q1013=
201303290720 METAR ESMX 290720Z AUTO 07008KT 030V110 9999NDV FEW011/// SCT014/// BKN017/// M01/M04 Q1013=
201303290650 METAR ESMX 290650Z AUTO 07007KT 030V100 9999NDV BKN010/// M02/M04 Q1013=
201303290620 METAR ESMX 290620Z AUTO 04007KT 9999NDV SCT008/// BKN011/// M03/M04 Q1014=
201303290550 METAR ESMX 290550Z AUTO 04006KT 9999NDV SCT009/// M03/M05 Q1014=
201303290520 METAR ESMX 290520Z AUTO 05006KT 9999NDV NCD M03/M05 Q1014=
201303290450 METAR ESMX 290450Z AUTO 05005KT 9999NDV FEW053/// M03/M05 Q1014=
201303290420 METAR ESMX 290420Z AUTO 05007KT 9999NDV NCD M03/M05 Q1014=
201303290350 METAR ESMX 290350Z AUTO 05006KT 9999NDV FEW068/// M03/M05 Q1015=
201303290320 METAR ESMX 290320Z AUTO 06006KT 020V080 9999NDV FEW072/// M03/M05 Q1015=
201303290250 METAR ESMX 290250Z AUTO 06006KT 020V090 9999NDV NCD M03/M05 Q1015=
201303290220 METAR ESMX 290220Z AUTO 05006KT 9999NDV NCD M04/M06 Q1015=
201303290150 METAR ESMX 290150Z AUTO 05005KT 9999NDV NCD M04/M06 Q1016=
201303290120 METAR ESMX 290120Z AUTO 05004KT 010V080 9999NDV NCD M04/M06 Q1016=
201303290050 METAR ESMX 290050Z AUTO 04005KT 9999NDV NCD M04/M07 Q1016=
201303290020 METAR ESMX 290020Z AUTO 04005KT 9999NDV NCD M04/M07 Q1017=
201303282350 METAR ESMX 282350Z AUTO 04005KT 9999NDV NCD M04/M07 Q1017=
201303282320 METAR ESMX 282320Z AUTO 04005KT 9999NDV NCD M04/M07 Q1017=
201303282250 METAR ESMX 282250Z AUTO 04005KT 9999NDV NCD M04/M07 Q1018=
201303282220 METAR ESMX 282220Z AUTO 05004KT 020V080 9999NDV NCD M04/M07 Q1018=
201303282150 METAR ESMX 282150Z AUTO 04004KT 010V080 9999NDV NCD M03/M06 Q1018=
201303282120 METAR ESMX 282120Z AUTO 07004KT 9999NDV NCD M03/M06 Q1018=
201303282050 METAR ESMX 282050Z AUTO 09004KT 060V140 9999NDV NCD M03/M06 Q1018=
201303282020 METAR ESMX 282020Z AUTO 10005KT 060V130 9999NDV NCD M02/M07 Q1019=
201303281950 METAR ESMX 281950Z AUTO 10004KT 070V130 9999NDV NCD M02/M07 Q1019=
201303281920 METAR ESMX 281920Z 09004KT 050V120 CAVOK M02/M07 Q1019=
201303281850 METAR ESMX 281850Z 10004KT 050V140 CAVOK M01/M08 Q1019=
201303281820 METAR ESMX 281820Z 11004KT 060V160 CAVOK M01/M08 Q1019=
201303281750 METAR ESMX 281750Z 11005KT 050V150 CAVOK 00/M09 Q1019=
201303281720 METAR ESMX 281720Z 12005KT 070V170 CAVOK 01/M09 Q1019=
201303281650 METAR ESMX 281650Z 12006KT 070V170 CAVOK 02/M09 Q1018=
201303281620 METAR ESMX 281620Z 12007KT 070V170 CAVOK 02/M09 Q1018=
201303281550 METAR ESMX 281550Z 13006KT 100V170 CAVOK 03/M09 Q1018=
201303281520 METAR ESMX 281520Z 11006KT 060V150 CAVOK 03/M10 Q1019=
201303281450 METAR ESMX 281450Z 10006KT 030V150 CAVOK 04/M10 Q1019=
201303281420 METAR ESMX 281420Z 10008KT 060V150 CAVOK 04/M09 Q1019=
201303281350 METAR ESMX 281350Z 12006KT 060V150 CAVOK 04/M09 Q1019=
201303281320 METAR ESMX 281320Z 12007KT 080V190 CAVOK 04/M08 Q1019=
201303281250 METAR ESMX 281250Z 11007KT 050V180 9999 FEW045 04/M09 Q1020=
201303281220 METAR ESMX 281220Z 13008KT 080V190 9999 FEW040 03/M09 Q1020=
201303281150 METAR ESMX 281150Z 10005KT 020V150 9999 SCT040 04/M08 Q1020=
201303281120 METAR ESMX 281120Z 15007KT 070V200 9999 SCT039 03/M07 Q1020=
201303281050 METAR ESMX 281050Z 13007KT 090V180 9999 SCT037 02/M08 Q1020=
201303281020 METAR ESMX 281020Z 10005KT 010V170 9999 SCT036 02/M07 Q1021=
201303280950 METAR ESMX 280950Z 12007KT 060V170 9999 FEW031 BKN038 02/M07 Q1021=
201303280920 METAR ESMX 280920Z 06005KT 020V110 9999 FEW030 02/M05 Q1021=
201303280850 METAR ESMX 280850Z 12006KT 070V170 CAVOK 01/M05 Q1021=
201303280820 METAR ESMX 280820Z 06004KT 360V100 CAVOK 00/M04 Q1021=
201303280750 METAR ESMX 280750Z 06004KT 020V100 9999 FEW026 M01/M05 Q1021=
201303280720 METAR ESMX 280720Z 01003KT CAVOK M03/M06 Q1021=
201303280650 METAR ESMX 280650Z 36003KT CAVOK M04/M05 Q1021=
201303280620 METAR ESMX 280620Z 36003KT CAVOK M06/M07 Q1021=
201303280550 METAR ESMX 280550Z 01003KT CAVOK M08/M09 Q1021=
201303280520 METAR ESMX 280520Z 01003KT CAVOK M09/M10 Q1021=
201303280450 METAR ESMX 280450Z 36003KT CAVOK M09/M10 Q1021=
201303280420 METAR ESMX 280420Z AUTO 03003KT 9999NDV NCD M09/M10 Q1021=
201303280350 METAR ESMX 280350Z AUTO 01003KT 9999NDV NCD M09/M10 Q1021=
201303280320 METAR ESMX 280320Z AUTO 01003KT 9999NDV NCD M09/M10 Q1021=
201303280250 METAR ESMX 280250Z AUTO 01003KT 9999NDV NCD M09/M10 Q1021=
201303280220 METAR ESMX 280220Z AUTO 01002KT 9999NDV NCD M09/M10 Q1021=
201303280150 METAR ESMX 280150Z AUTO 35001KT 9999NDV NCD M09/M10 Q1021=
201303280120 METAR ESMX 280120Z 02002KT CAVOK M08/M09 Q1021=
201303280050 METAR ESMX 280050Z 36003KT CAVOK M08/M09 Q1022=
201303280020 METAR ESMX 280020Z 00000KT CAVOK M08/M09 Q1022=
201303272350 METAR ESMX 272350Z 00000KT CAVOK M07/M08 Q1022=
201303272320 METAR ESMX 272320Z 00000KT CAVOK M07/M08 Q1022=
201303272250 METAR ESMX 272250Z 14001KT CAVOK M07/M08 Q1022=
201303272220 METAR ESMX 272220Z VRB01KT CAVOK M06/M08 Q1021=
201303272150 METAR ESMX 272150Z 14001KT CAVOK M05/M07 Q1021=
201303272120 METAR ESMX 272120Z 14002KT CAVOK M04/M07 Q1021=
201303272050 METAR ESMX 272050Z 14003KT 100V170 CAVOK M03/M07 Q1021=
201303272020 METAR ESMX 272020Z VRB01KT CAVOK M03/M08 Q1021=
201303271950 METAR ESMX 271950Z 13003KT 100V160 CAVOK M03/M08 Q1021=
201303271920 METAR ESMX 271920Z 14004KT CAVOK M02/M08 Q1021=
201303271850 METAR ESMX 271850Z 14005KT CAVOK M01/M08 Q1021=
201303271820 METAR ESMX 271820Z 15004KT CAVOK M00/M08 Q1021=
201303271750 METAR ESMX 271750Z 14004KT CAVOK 00/M08 Q1021=
201303271720 METAR ESMX 271720Z 14006KT 100V170 CAVOK 01/M09 Q1020=
201303271650 METAR ESMX 271650Z 15004KT CAVOK 03/M11 Q1020=
201303271620 METAR ESMX 271620Z 15004KT 120V200 CAVOK 03/M12 Q1020=
201303271550 METAR ESMX 271550Z 16005KT 120V210 CAVOK 03/M12 Q1020=
201303271520 METAR ESMX 271520Z 16005KT 110V200 CAVOK 04/M12 Q1020=
201303271450 METAR ESMX 271450Z 16006KT 140V200 CAVOK 04/M12 Q1020=
201303271420 METAR ESMX 271420Z 07004KT 020V140 CAVOK 04/M11 Q1021=
201303271350 METAR ESMX 271350Z 05005KT 020V080 CAVOK 04/M10 Q1021=
201303271320 METAR ESMX 271320Z 06004KT 010V150 CAVOK 04/M10 Q1021=
201303271250 METAR ESMX 271250Z 05003KT 300V100 CAVOK 04/M11 Q1021=
201303271220 METAR ESMX 271220Z 04008KT 360V070 CAVOK 03/M11 Q1021=
201303271150 METAR ESMX 271150Z VRB05KT CAVOK 04/M10 Q1021=
201303271120 METAR ESMX 271120Z 08005KT 010V160 CAVOK 03/M11 Q1022=
201303271050 METAR ESMX 271050Z 03007KT 360V070 CAVOK 03/M10 Q1022=
201303271020 METAR ESMX 271020Z 05004KT 010V120 CAVOK 02/M09 Q1022=
201303270950 METAR ESMX 270950Z 03005KT 340V070 CAVOK 01/M09 Q1022=
201303270920 METAR ESMX 270920Z 04005KT 010V080 CAVOK 01/M09 Q1022=
201303270850 METAR ESMX 270850Z 06003KT 340V120 CAVOK 00/M09 Q1022=
201303270820 METAR ESMX 270820Z 09004KT 030V150 CAVOK M00/M10 Q1022=
201303270750 METAR ESMX 270750Z 35002KT CAVOK M02/M10 Q1022=
201303270720 METAR ESMX 270720Z 33003KT 300V010 CAVOK M05/M10 Q1022=
201303270650 METAR ESMX 270650Z 35002KT CAVOK M06/M10 Q1022=
201303270620 METAR ESMX 270620Z 35002KT CAVOK M08/M10 Q1022=
201303270550 METAR ESMX 270550Z 35002KT CAVOK M11/M13 Q1022=
201303270520 METAR ESMX 270520Z 36001KT CAVOK M12/M14 Q1022=
201303270450 METAR ESMX 270450Z 01001KT CAVOK M12/M13 Q1022=
201303270420 METAR ESMX 270420Z AUTO 00000KT 9999NDV NCD M12/M13 Q1022=
201303270350 METAR ESMX 270350Z AUTO 00000KT 9999NDV NCD M12/M13 Q1022=
201303270320 METAR ESMX 270320Z AUTO 01003KT 9999NDV NCD M11/M12 Q1022=
201303270250 METAR ESMX 270250Z AUTO 02002KT 9999NDV NCD M11/M13 Q1022=
201303270220 METAR ESMX 270220Z AUTO 36002KT 9999NDV NCD M11/M13 Q1022=
201303270150 METAR ESMX 270150Z AUTO 36002KT 9999NDV NCD M10/M12 Q1022=
201303270120 METAR ESMX 270120Z AUTO 00000KT 9999NDV NCD M10/M12 Q1022=
201303270050 METAR ESMX 270050Z AUTO 00000KT 9999NDV NCD M10/M12 Q1022=
201303270020 METAR ESMX 270020Z 00000KT CAVOK M09/M11 Q1022=
201303262350 METAR ESMX 262350Z 00000KT CAVOK M09/M11 Q1022=
201303262320 METAR ESMX 262320Z 00000KT CAVOK M09/M11 Q1022=
201303262250 METAR ESMX 262250Z 36002KT CAVOK M08/M11 Q1022=
201303262220 METAR ESMX 262220Z 02002KT CAVOK M07/M10 Q1022=
201303262150 METAR ESMX 262150Z 00000KT CAVOK M07/M11 Q1022=
201303262120 METAR ESMX 262120Z 01001KT CAVOK M06/M11 Q1022=
201303262050 METAR ESMX 262050Z 00000KT CAVOK M05/M11 Q1022=
201303262020 METAR ESMX 262020Z 00000KT CAVOK M04/M12 Q1022=
201303261950 METAR ESMX 261950Z VRB01KT CAVOK M04/M12 Q1022=
201303261920 METAR ESMX 261920Z VRB01KT CAVOK M03/M11 Q1022=
201303261850 METAR ESMX 261850Z VRB02KT CAVOK M01/M11 Q1022=
201303261820 METAR ESMX 261820Z VRB02KT CAVOK M01/M11 Q1022=
201303261750 METAR ESMX 261750Z 11003KT 060V150 CAVOK 00/M11 Q1022=
201303261720 METAR ESMX 261720Z 08005KT 060V130 CAVOK 01/M11 Q1021=
201303261650 METAR ESMX 261650Z 07005KT 030V110 CAVOK 02/M12 Q1021=
201303261620 METAR ESMX 261620Z 06006KT 030V090 CAVOK 03/M12 Q1021=
201303261550 METAR ESMX 261550Z 05007KT 020V080 CAVOK 04/M11 Q1021=
201303261520 METAR ESMX 261520Z 04008KT CAVOK 04/M11 Q1022=
201303261450 METAR ESMX 261450Z 05009KT CAVOK 04/M11 Q1022=
201303261420 METAR ESMX 261420Z 05010KT 020V080 CAVOK 04/M11 Q1022=
201303261350 METAR ESMX 261350Z 04011KT 350V070 CAVOK 05/M11 Q1022=
201303261320 METAR ESMX 261320Z 05008KT 020V080 CAVOK 05/M11 Q1022=
201303261250 METAR ESMX 261250Z 05011KT 360V100 CAVOK 04/M11 Q1023=
201303261220 METAR ESMX 261220Z 02010KT CAVOK 04/M11 Q1023=
201303261150 METAR ESMX 261150Z 04010KT 360V070 9999 FEW045 04/M11 Q1023=
201303261120 METAR ESMX 261120Z 04010KT 010V070 CAVOK 03/M11 Q1023=
201303261050 METAR ESMX 261050Z 02010KT CAVOK 04/M11 Q1023=
201303261020 METAR ESMX 261020Z 04009KT 010V070 CAVOK 03/M10 Q1024=
201303260950 METAR ESMX 260950Z 01009KT 340V050 CAVOK 03/M10 Q1024=
201303260920 METAR ESMX 260920Z 01008KT 330V050 CAVOK 02/M09 Q1024=
201303260850 METAR ESMX 260850Z 01008KT CAVOK 01/M09 Q1024=
201303260820 METAR ESMX 260820Z 02006KT CAVOK M01/M09 Q1024=
201303260750 METAR ESMX 260750Z 03008KT CAVOK M02/M09 Q1024=
201303260720 METAR ESMX 260720Z 36005KT CAVOK M03/M09 Q1024=
201303260650 METAR ESMX 260650Z 36006KT CAVOK M06/M10 Q1024=
201303260620 METAR ESMX 260620Z 36005KT CAVOK M08/M10 Q1024=
201303260550 METAR ESMX 260550Z 36003KT CAVOK M11/M12 Q1024=
201303260520 METAR ESMX 260520Z 36002KT CAVOK M12/M14 Q1024=
201303260450 METAR ESMX 260450Z 02002KT CAVOK M12/M14 Q1024=
201303260420 METAR ESMX 260420Z AUTO 00000KT 9999NDV NCD M12/M14 Q1024=
201303260350 METAR ESMX 260350Z AUTO 00000KT 9999NDV NCD M11/M13 Q1024=
201303260320 METAR ESMX 260320Z AUTO 00000KT 9999NDV NCD M11/M13 Q1024=
201303260250 METAR ESMX 260250Z AUTO 00000KT 9999NDV NCD M12/M13 Q1024=
201303260220 METAR ESMX 260220Z AUTO 16001KT 9999NDV NCD M10/M12 Q1024=
201303260150 METAR ESMX 260150Z AUTO 00000KT 9999NDV NCD M10/M12 Q1024=
201303260120 METAR ESMX 260120Z AUTO 36002KT 9999NDV NCD M11/M12 Q1025=
201303260050 METAR ESMX 260050Z 03001KT CAVOK M10/M12 Q1025=
201303260020 METAR ESMX 260020Z 00000KT CAVOK M10/M12 Q1025=
201303252350 METAR ESMX 252350Z 01001KT CAVOK M09/M12 Q1025=
201303252320 METAR ESMX 252320Z 34001KT CAVOK M09/M12 Q1025=
201303252250 METAR ESMX 252250Z 35001KT CAVOK M09/M11 Q1025=
201303252220 METAR ESMX 252220Z 35001KT CAVOK M08/M11 Q1026=
201303252150 METAR ESMX 252150Z 36001KT CAVOK M07/M10 Q1026=
201303252120 METAR ESMX 252120Z 36001KT CAVOK M07/M10 Q1026=
201303252050 METAR ESMX 252050Z 36003KT CAVOK M06/M10 Q1026=
201303252020 METAR ESMX 252020Z 00000KT CAVOK M06/M11 Q1026=
201303251950 METAR ESMX 251950Z 00000KT CAVOK M05/M10 Q1026=
201303251920 METAR ESMX 251920Z 00000KT CAVOK M05/M10 Q1026=
201303251850 METAR ESMX 251850Z 00000KT CAVOK M04/M10 Q1026=
201303251820 METAR ESMX 251820Z 00000KT CAVOK M03/M11 Q1026=
201303251750 METAR ESMX 251750Z 06003KT CAVOK M01/M12 Q1026=
201303251720 METAR ESMX 251720Z 05003KT 360V070 CAVOK 01/M12 Q1026=
201303251650 METAR ESMX 251650Z 04005KT CAVOK 03/M12 Q1026=
201303251620 METAR ESMX 251620Z 04005KT CAVOK 02/M12 Q1026=
201303251550 METAR ESMX 251550Z 04007KT CAVOK 04/M12 Q1026=
201303251520 METAR ESMX 251520Z 06006KT 010V100 CAVOK 04/M12 Q1026=
201303251450 METAR ESMX 251450Z 04007KT CAVOK 03/M12 Q1026=
201303251420 METAR ESMX 251420Z 04010KT 020V080 CAVOK 04/M11 Q1027=
201303251350 METAR ESMX 251350Z 04007KT CAVOK 04/M12 Q1027=
201303251320 METAR ESMX 251320Z 04009KT 010V070 CAVOK 04/M12 Q1027=
201303251250 METAR ESMX 251250Z 01009KT 340V050 CAVOK 04/M11 Q1028=
201303251220 METAR ESMX 251220Z 05008KT 020V100 CAVOK 04/M11 Q1028=
201303251150 METAR ESMX 251150Z 02009KT 350V060 CAVOK 03/M10 Q1028=
201303251120 METAR ESMX 251120Z 03009KT 350V070 CAVOK 03/M10 Q1029=
201303251050 METAR ESMX 251050Z 04009KT 010V080 9999 FEW040 02/M11 Q1029=
201303251020 METAR ESMX 251020Z 03006KT 340V080 9999 FEW040 01/M09 Q1029=
201303250950 METAR ESMX 250950Z 02007KT 340V050 CAVOK 01/M09 Q1029=
201303250920 METAR ESMX 250920Z 01006KT 340V050 CAVOK 00/M09 Q1030=
201303250850 METAR ESMX 250850Z 04005KT 350V080 CAVOK M01/M09 Q1030=
201303250820 METAR ESMX 250820Z 03006KT 350V080 CAVOK M02/M08 Q1030=
201303250750 METAR ESMX 250750Z 36005KT CAVOK M04/M08 Q1030=
201303250720 METAR ESMX 250720Z 01004KT CAVOK M05/M09 Q1030=
201303250650 METAR ESMX 250650Z 35004KT CAVOK M07/M09 Q1030=
201303250620 METAR ESMX 250620Z 02004KT CAVOK M09/M10 Q1030=
201303250550 METAR ESMX 250550Z 01004KT CAVOK M10/M11 Q1030=
201303250520 METAR ESMX 250520Z 01005KT CAVOK M10/M12 Q1030=
201303250450 METAR ESMX 250450Z 01006KT CAVOK M10/M12 Q1030=
201303250420 METAR ESMX 250420Z AUTO 36005KT 9999NDV FEW024/// M10/M11 Q1030=
201303250350 METAR ESMX 250350Z AUTO 36005KT 9999NDV BKN027/// M09/M11 Q1030=
201303250320 METAR ESMX 250320Z AUTO 01006KT 9999NDV FEW026/// SCT029/// M09/M10 Q1030=
201303250250 METAR ESMX 250250Z AUTO 02005KT 9999NDV NCD M08/M10 Q1030=
201303250220 METAR ESMX 250220Z AUTO 02004KT 9999NDV FEW021/// SCT033/// M07/M09 Q1030=
201303250150 METAR ESMX 250150Z AUTO 04003KT 9999NDV FEW020/// OVC030/// M06/M09 Q1030=
201303250120 METAR ESMX 250120Z AUTO 04004KT 9999NDV FEW023/// OVC031/// M06/M09 Q1030=
201303250050 METAR ESMX 250050Z AUTO 02004KT 350V060 9999NDV OVC029/// M06/M09 Q1030=
201303250020 METAR ESMX 250020Z 03004KT 9999 OVC027 M07/M09 Q1030=
201303242350 METAR ESMX 242350Z 02003KT 9999 BKN026 M08/M09 Q1030=
201303242320 METAR ESMX 242320Z 02004KT 9999 FEW033 M09/M10 Q1030=
201303242250 METAR ESMX 242250Z 02001KT CAVOK M09/M11 Q1030=
201303242220 METAR ESMX 242220Z 00000KT CAVOK M09/M11 Q1030=
201303242150 METAR ESMX 242150Z 00000KT 9999 FEW032 M08/M09 Q1031=
201303242120 METAR ESMX 242120Z 00000KT 9999 BKN037 M07/M09 Q1030=
201303242050 METAR ESMX 242050Z 02001KT 9999 BKN039 M06/M09 Q1030=
201303242020 METAR ESMX 242020Z VRB01KT CAVOK M06/M08 Q1031=
201303241950 METAR ESMX 241950Z 05003KT 020V090 CAVOK M04/M08 Q1031=
201303241920 METAR ESMX 241920Z 06006KT CAVOK M03/M08 Q1031=
201303241850 METAR ESMX 241850Z 06005KT 030V100 CAVOK M03/M09 Q1030=
201303241820 METAR ESMX 241820Z 07006KT 030V100 9999 FEW036 M03/M09 Q1030=
201303241750 METAR ESMX 241750Z 07005KT 020V100 9999 FEW034 M02/M09 Q1030=
201303241720 METAR ESMX 241720Z 04005KT 9999 FEW030 M02/M09 Q1030=
201303241650 METAR ESMX 241650Z 05005KT 020V080 9999 FEW032 M01/M09 Q1030=
201303241620 METAR ESMX 241620Z 09005KT 060V140 9999 FEW035 SCT040 M01/M07 Q1030 REFZRA=
201303241550 METAR ESMX 241550Z 07006KT 040V100 9999 SCT040 M00/M08 Q1030=
201303241520 METAR ESMX 241520Z 07007KT 040V110 9999 FEW029 BKN044 M00/M08 Q1030=
201303241450 METAR ESMX 241450Z 04007KT 9999 FEW031 BKN050 M01/M07 Q1030=
201303241420 METAR ESMX 241420Z 05010KT 9999 FEW022 SCT041 M00/M07 Q1030=
201303241350 METAR ESMX 241350Z 08007KT 050V110 9999 FEW029 SCT042 M00/M08 Q1030=
201303241320 METAR ESMX 241320Z 05007KT 9999 FEW037 BKN041 00/M09 Q1030=
201303241250 METAR ESMX 241250Z AUTO 06006KT 020V100 9999NDV FEW027/// SCT039/// BKN045/// 00/M09 Q1030=
201303241220 METAR ESMX 241220Z AUTO 05007KT 360V120 9999NDV FEW036/// BKN041/// 01/M09 Q1030=
201303241150 METAR ESMX 241150Z AUTO 04007KT 350V070 9999NDV FEW029/// SCT035/// BKN042/// M00/M10 Q1030=
201303241120 METAR ESMX 241120Z AUTO 02008KT 350V100 9999NDV FEW034/// BKN039/// 00/M10 Q1030=
201303241050 METAR ESMX 241050Z AUTO 04008KT 010V070 9999NDV FEW037/// M00/M10 Q1030=
201303241020 METAR ESMX 241020Z AUTO 02011KT 9999NDV NCD M01/M10 Q1031=
201303240950 METAR ESMX 240950Z AUTO 05009KT 030V100 9999NDV FEW032/// SCT044/// M00/M09 Q1031=
201303240920 METAR ESMX 240920Z AUTO 04008KT 010V080 9999NDV FEW030/// SCT037/// M01/M09 Q1031=
201303240850 METAR ESMX 240850Z AUTO 06008KT 010V090 9999NDV FEW036/// M02/M08 Q1031=
201303240820 METAR ESMX 240820Z AUTO 04008KT 010V080 9999NDV NCD M03/M09 Q1031=
201303240750 METAR ESMX 240750Z AUTO 04009KT 9999NDV NCD M04/M09 Q1031=
201303240720 METAR ESMX 240720Z AUTO 36008KT 9999NDV FEW017/// M06/M10 Q1031=
201303240650 METAR ESMX 240650Z AUTO 01008KT 9999NDV SCT023/// M07/M11 Q1031=
201303240620 METAR ESMX 240620Z AUTO 02006G69KT 9999NDV NCD M09/M12 Q1031=
201303240550 METAR ESMX 240550Z AUTO 01005KT 9999NDV FEW040/// M10/M13 Q1030=
201303240520 METAR ESMX 240520Z AUTO 36005KT 9999NDV SCT041/// M11/M13 Q1030=
201303240450 METAR ESMX 240450Z AUTO 01005KT 9999NDV SCT043/// M11/M13 Q1030=
201303240420 METAR ESMX 240420Z AUTO 00000KT 9999NDV NCD M13/M15 Q1030=
201303240350 METAR ESMX 240350Z AUTO 02004KT 9999NDV FEW044/// SCT051/// M13/M15 Q1030=
201303240320 METAR ESMX 240320Z AUTO 00000KT 9999NDV FEW045/// BKN054/// M13/M15 Q1030=
201303240250 METAR ESMX 240250Z AUTO 00000KT 9999NDV FEW054/// M12/M14 Q1030=
201303240220 METAR ESMX 240220Z AUTO 00000KT 9999NDV NCD M13/M14 Q1031=
201303240150 METAR ESMX 240150Z AUTO 00000KT 9999NDV NCD M12/M14 Q1031=
201303240120 METAR ESMX 240120Z AUTO 00000KT 9999NDV NCD M12/M14 Q1031=
201303240050 METAR ESMX 240050Z AUTO 00000KT 9999NDV NCD M11/M13 Q1031=
201303240020 METAR ESMX 240020Z AUTO 36002KT 9999NDV FEW044/// M10/M12 Q1031=
201303232350 METAR ESMX 232350Z AUTO 36002KT 9999NDV NCD M11/M13 Q1031=
201303232320 METAR ESMX 232320Z AUTO 01002KT 9999NDV NCD M10/M13 Q1031=
201303232250 METAR ESMX 232250Z AUTO 02002KT 9999NDV NCD M10/M12 Q1031=
201303232220 METAR ESMX 232220Z AUTO 01001KT 9999NDV NCD M09/M12 Q1031=
201303232150 METAR ESMX 232150Z AUTO 02002KT 9999NDV NCD M08/M12 Q1031=
201303232120 METAR ESMX 232120Z AUTO 34003KT 9999NDV NCD M08/M12 Q1031=
201303232050 METAR ESMX 232050Z AUTO 01002KT 9999NDV NCD M08/M11 Q1031=
201303232020 METAR ESMX 232020Z AUTO 36003KT 9999NDV NCD M08/M11 Q1031=
201303231950 METAR ESMX 231950Z AUTO 01002KT 9999NDV NCD M07/M11 Q1031=
201303231920 METAR ESMX 231920Z AUTO 00000KT 9999NDV NCD M06/M10 Q1031=
201303231850 METAR ESMX 231850Z AUTO 00000KT 9999NDV NCD M05/M10 Q1031=
201303231820 METAR ESMX 231820Z AUTO 35002KT 9999NDV NCD M04/M10 Q1031=
201303231750 METAR ESMX 231750Z AUTO 01005KT 9999NDV NCD M03/M10 Q1031=
201303231720 METAR ESMX 231720Z AUTO 02006KT 9999NDV FEW047/// M02/M10 Q1031=
201303231650 METAR ESMX 231650Z AUTO 36007KT 9999NDV BKN044/// M00/M10 Q1031=
201303231620 METAR ESMX 231620Z AUTO 03008KT 9999NDV FEW036/// BKN049/// M00/M11 Q1030=
201303231550 METAR ESMX 231550Z AUTO 02007KT 350V050 9999NDV FEW039/// SCT054/// 01/M11 Q1030=
201303231520 METAR ESMX 231520Z AUTO 05007KT 9999NDV FEW039/// BKN048/// 01/M11 Q1031=
201303231450 METAR ESMX 231450Z AUTO 02006KT 340V080 9999NDV FEW038/// SCT052/// 00/M10 Q1031=
201303231420 METAR ESMX 231420Z AUTO 03008KT 350V060 9999NDV FEW039/// SCT046/// BKN058/// M00/M10 Q1031=
201303231350 METAR ESMX 231350Z AUTO 05007KT 020V080 9999NDV BKN046/// 01/M11 Q1031=
201303231320 METAR ESMX 231320Z AUTO 03008KT 350V060 9999NDV FEW031/// SCT053/// 00/M10 Q1031=
201303231250 METAR ESMX 231250Z AUTO VRB08KT 9999NDV FEW031/// BKN044/// BKN055/// 00/M10 Q1031=
201303231220 METAR ESMX 231220Z AUTO 05007KT 010V100 9999NDV FEW047/// M00/M11 Q1032=
201303231150 METAR ESMX 231150Z AUTO 02010KT 9999NDV FEW040/// M00/M11 Q1032=
201303231120 METAR ESMX 231120Z AUTO 01008KT 340V050 9999NDV NCD M01/M11 Q1032=
201303231050 METAR ESMX 231050Z AUTO 01010KT 9999NDV FEW036/// M02/M10 Q1032=
201303231020 METAR ESMX 231020Z 02010KT 350V060 9999 SCT034 M02/M11 Q1033=
201303230950 METAR ESMX 230950Z 36007KT 9999 FEW032 M03/M12 Q1033=
201303230920 METAR ESMX 230920Z 36007KT CAVOK M04/M13 Q1033=
201303230850 METAR ESMX 230850Z 35007KT CAVOK M05/M12 Q1033=
201303230820 METAR ESMX 230820Z 36007KT CAVOK M06/M13 Q1033=
201303230750 METAR ESMX 230750Z AUTO 36007KT 9999NDV NCD M08/M13 Q1033=
201303230720 METAR ESMX 230720Z AUTO 36007KT 9999NDV NCD M10/M13 Q1033=
201303230650 METAR ESMX 230650Z AUTO 36006KT 9999NDV NCD M11/M14 Q1033=
201303230620 METAR ESMX 230620Z AUTO 01004KT 9999NDV NCD M13/M15 Q1033=
201303230550 METAR ESMX 230550Z AUTO 35002KT 9999NDV NCD M15/M16 Q1033=
201303230520 METAR ESMX 230520Z AUTO 02004KT 9999NDV NCD M14/M15 Q1033=
201303230450 METAR ESMX 230450Z AUTO 01005KT 9999NDV NCD M14/M16 Q1033=
201303230420 METAR ESMX 230420Z AUTO 02006KT 9999NDV NCD M13/M15 Q1032=
201303230350 METAR ESMX 230350Z AUTO 01005KT 9999NDV NCD M14/M16 Q1032=
201303230320 METAR ESMX 230320Z AUTO 01006KT 9999NDV NCD M13/M15 Q1032=
201303230250 METAR ESMX 230250Z AUTO 01006KT 9999NDV NCD M13/M15 Q1032=
201303230220 METAR ESMX 230220Z AUTO 01006KT 9999NDV NCD M14/M16 Q1032=
201303230150 METAR ESMX 230150Z AUTO 36005KT 9999NDV NCD M14/M16 Q1033=
201303230120 METAR ESMX 230120Z AUTO 36004KT 9999NDV NCD M13/M15 Q1033=
201303230050 METAR ESMX 230050Z AUTO 36003KT 9999NDV NCD M14/M16 Q1033=
201303230020 METAR ESMX 230020Z AUTO 35002KT 9999NDV NCD M14/M16 Q1033=
201303222350 METAR ESMX 222350Z AUTO 01006KT 9999NDV NCD M12/M14 Q1033=
201303222320 METAR ESMX 222320Z AUTO 01005KT 9999NDV NCD M12/M14 Q1033=
201303222250 METAR ESMX 222250Z AUTO 01005KT 9999NDV NCD M12/M14 Q1033=
201303222220 METAR ESMX 222220Z AUTO 02006KT 9999NDV NCD M11/M14 Q1033=
201303222150 METAR ESMX 222150Z AUTO 36006KT 9999NDV NCD M11/M13 Q1032=
201303222120 METAR ESMX 222120Z AUTO 01007KT 9999NDV NCD M11/M13 Q1032=
201303222050 METAR ESMX 222050Z AUTO 02007KT 9999NDV NCD M10/M13 Q1032=
201303222020 METAR ESMX 222020Z AUTO 03006KT 9999NDV NCD M09/M12 Q1033=
201303221950 METAR ESMX 221950Z 03007KT 9999 FEW043 M09/M12 Q1032=
201303221920 METAR ESMX 221920Z 03008KT CAVOK M08/M11 Q1032=
201303221850 METAR ESMX 221850Z 04008KT 9999 FEW019 M08/M11 Q1032=
201303221820 METAR ESMX 221820Z 04008KT 9999 FEW019 M07/M11 Q1032=
201303221750 METAR ESMX 221750Z 04009KT 9999 FEW016 M07/M11 Q1031=
201303221720 METAR ESMX 221720Z 05010KT 020V080 9999 FEW023 M06/M12 Q1031=
201303221650 METAR ESMX 221650Z 04011KT 9999 FEW025 M05/M12 Q1031=
201303221620 METAR ESMX 221620Z 05011KT 020V080 9999 FEW022 M05/M12 Q1030=
201303221550 METAR ESMX 221550Z 04012KT 9999 -SN FEW020 SCT032 M04/M11 Q1030=
201303221520 METAR ESMX 221520Z 06010KT 020V080 9999 FEW022 SCT029 M03/M11 Q1030=
201303221450 METAR ESMX 221450Z 04015KT 9999 -SN FEW020 SCT025 M04/M10 Q1030=
201303221420 METAR ESMX 221420Z 04013KT 9999 -SHSN FEW019 SCT026 M03/M10 Q1029=
201303221350 METAR ESMX 221350Z 04013KT 9999 -SHSN FEW006 BKN028 M04/M08 Q1029=
201303221320 METAR ESMX 221320Z 05011KT 010V080 9000 -SN FEW005 SCT025 BKN036 M04/M09 Q1029=
201303221250 METAR ESMX 221250Z 04012KT 9999 -SN FEW020 SCT025 BKN032 M02/M09 Q1029=
201303221220 METAR ESMX 221220Z 02013KT 9999 -SN FEW015 SCT028 BKN056 M04/M09 Q1029=
201303221150 METAR ESMX 221150Z 03011KT 9999 VCSN FEW008 SCT023 M04/M08 Q1029=
201303221120 METAR ESMX 221120Z 04009KT 9999 5000N -SN FEW015 BKN025 M04/M10 Q1029=
201303221050 METAR ESMX 221050Z 06007KT 030V100 5000 1500S SHSN FEW005 SCT015 BKN035 M05/M07 Q1029=
201303221020 METAR ESMX 221020Z 02008KT 350V060 9999 FEW005 SCT017 BKN048 M04/M09 Q1029=
201303220950 METAR ESMX 220950Z 03010KT 1900 SN FEW004 SCT006 BKN009 M04/M07 Q1029=
201303220920 METAR COR ESMX 220920Z 02009KT 5000 SHSN FEW017 BKN020 M05/M09 Q1029=
201303220850 METAR ESMX 220850Z 02010KT 9999 FEW017 BKN021 M06/M09 Q1029=
201303220820 METAR ESMX 220820Z 02009KT 9999 FEW011 SCT020 M06/M10 Q1029=
201303220750 METAR ESMX 220750Z 02009KT 9999 FEW010 M06/M10 Q1028=
201303220720 METAR ESMX 220720Z 36009KT 9999 FEW044 M07/M10 Q1028=
201303220650 METAR ESMX 220650Z 36007KT CAVOK M08/M10 Q1028=
201303220620 METAR ESMX 220620Z 01007KT 9999 FEW028 SCT039 M10/M12 Q1028=
201303220550 METAR ESMX 220550Z 01006KT 9999 -SN FEW005 SCT019 M10/M12 Q1028=
201303220520 METAR ESMX 220520Z 01007KT 4100 -SN FEW007 SCT027 M10/M11 Q1028=
201303220450 METAR ESMX 220450Z 36006KT 7000 -SN FEW012 SCT023 BKN031 M10/M11 Q1027=
201303220420 METAR ESMX 220420Z AUTO 01008KT 9999NDV -SN FEW003/// SCT012/// BKN023/// M10/M12 Q1027=
201303220350 METAR ESMX 220350Z AUTO 36007KT 9999NDV -SN FEW005/// SCT010/// BKN024/// M10/M12 Q1027=
201303220320 METAR ESMX 220320Z AUTO 01008KT 9999NDV FEW007/// SCT027/// M10/M11 Q1027=
201303220250 METAR ESMX 220250Z AUTO 01009KT 9999NDV FEW008/// SCT020/// M09/M11 Q1026=
201303220220 METAR ESMX 220220Z AUTO 36008KT 9999NDV -SN FEW008/// SCT010/// BKN019/// M09/M11 Q1026=
201303220150 METAR ESMX 220150Z AUTO 01007KT 9999NDV -SN FEW005/// BKN012/// BKN027/// M09/M11 Q1026=
201303220120 METAR ESMX 220120Z 01008KT 8000 -SN FEW006 SCT023 BKN028 M09/M11 Q1026=
201303220050 METAR ESMX 220050Z 01009KT 9999 -SN FEW010 SCT015 BKN027 M08/M10 Q1026=
201303220020 METAR ESMX 220020Z 02008KT 9999 -SN BKN012 M08/M10 Q1026=
201303212350 METAR ESMX 212350Z 01009KT 9999 BKN012 M08/M10 Q1026=
201303212320 METAR ESMX 212320Z 01010KT 9999 OVC012 M08/M10 Q1026=
201303212250 METAR ESMX 212250Z 01008KT 9999 BKN012 M08/M10 Q1026=
201303212220 METAR ESMX 212220Z 01008KT 9999 -SN OVC012 M08/M10 Q1025=
201303212150 METAR ESMX 212150Z 01009KT 9999 -SN FEW009 BKN013 M08/M10 Q1026=
201303212120 METAR ESMX 212120Z 02009KT 9999 -SN FEW006 BKN016 M07/M10 Q1025=
201303212050 METAR ESMX 212050Z 01010KT 9999 -SN FEW016 SCT025 BKN035 M07/M10 Q1025 RESG=
201303212020 METAR ESMX 212020Z 02011KT 9999 -SN FEW015 SCT025 BKN030 M07/M10 Q1025=
201303211950 METAR ESMX 211950Z 02011KT 9999 -SN FEW018 M06/M09 Q1025=
201303211920 METAR ESMX 211920Z 04010KT 9999 -SN FEW014 BKN021 M06/M10 Q1025=
201303211850 METAR ESMX 211850Z 03012KT 9999 -SN FEW013 BKN021 M06/M10 Q1025=
201303211820 METAR ESMX 211820Z 03013KT 9999 -SN FEW015 SCT024 M06/M09 Q1024=
201303211750 METAR ESMX 211750Z 03012KT 9999 FEW014 SCT021 M05/M09 Q1024=
201303211720 METAR ESMX 211720Z 03014KT 360V060 9999 -SN FEW006 SCT026 M05/M07 Q1024 RESN=
201303211650 METAR ESMX 211650Z 04013KT 010V080 1800 SN FEW002 BKN012 M04/M06 Q1023=
201303211550 METAR ESMX 211550Z 04009KT 010V070 9999 FEW021 BKN035 M03/M08 Q1022=
201303211520 METAR ESMX 211520Z 05010KT 020V100 9999 FEW006 SCT033 BKN074 M03/M08 Q1022=
201303211450 METAR ESMX 211450Z 05013KT 030V100 9000 -SN FEW019 SCT028 BKN047 M03/M08 Q1022=
201303211420 METAR ESMX 211420Z 05012KT 010V100 9999 FEW028 BKN041 M03/M09 Q1022=
201303211350 METAR ESMX 211350Z 06010G20KT 020V080 9999 -SN FEW015 SCT072 M03/M08 Q1022=
201303211320 METAR ESMX 211320Z 05012KT 6000 -SN FEW007 SCT030 M03/M07 Q1021=
201303211250 METAR ESMX 211250Z 04013KT 010V080 9000 -SN FEW015 SCT031 M02/M07 Q1021=
201303211220 METAR ESMX 211220Z 06009KT 020V100 8000 -SN SCT013 BKN046 M03/M06 Q1021=
201303211150 METAR ESMX 211150Z 04010KT 020V080 4000 -SN SCT007 BKN014 M03/M05 Q1021 RESHRA=
201303211120 METAR ESMX 211120Z 05009KT 020V100 4000 SHSN FEW009 SCT022 BKN035 M02/M07 Q1021=
201303211050 METAR ESMX 211050Z 05010G20KT 360V100 8000 -SN FEW020 SCT048 M02/M05 Q1020=
201303211020 METAR ESMX 211020Z 05012KT 4100 -SN FEW005 SCT017 BKN027 M03/M05 Q1020=
201303210950 METAR ESMX 210950Z 05012KT 0900 R01/P2000N R19/0300VP2000D SN FEW005 SCT011 BKN016 M03/M05 Q1020=
201303210920 METAR ESMX 210920Z 04010KT 010V080 0750 R01/0800VP2000U R19/P2000 SN FEW005 SCT011 BKN018 M04/M05 Q1019=
201303210850 METAR ESMX 210850Z 06011KT 010V110 2000 -SHSN FEW005 SCT017 BKN020 M03/M07 Q1019=
201303210820 METAR ESMX 210820Z 04009KT 360V110 8000 -SN FEW017 BKN020 M03/M07 Q1019=
201303210750 METAR ESMX 210750Z 04008KT 8000 -SN FEW013 BKN019 M04/M07 Q1019=
201303210720 METAR ESMX 210720Z 04008KT 8000 -SN FEW015 SCT018 BKN020 M04/M07 Q1019=
201303210650 METAR ESMX 210650Z 04008KT 8000 -SN FEW015 SCT022 M04/M06 Q1019=
201303210620 METAR ESMX 210620Z 04009KT 4600 -SN FEW019 SCT034 M05/M06 Q1018=
201303210550 METAR ESMX 210550Z 02007KT 5000 -SN SCT015 SCT021 BKN041 M05/M07 Q1018=
201303210520 METAR ESMX 210520Z 02007KT 9000 -SN FEW016 BKN019 M06/M07 Q1018=
201303210450 METAR ESMX 210450Z 01007KT 9999 -SN FEW015 SCT021 BKN027 M06/M07 Q1018=
201303210420 METAR ESMX 210420Z AUTO 01008KT 6000NDV -SN FEW011/// SCT020/// BKN023/// M06/M07 Q1017=
201303210350 METAR ESMX 210350Z AUTO 36007KT 9000NDV IC FEW010/// SCT017/// BKN020/// M06/M07 Q1017=
201303210320 METAR ESMX 210320Z AUTO 01007KT 9999NDV -SN FEW011/// SCT015/// BKN017/// M06/M07 Q1017=
201303210250 METAR ESMX 210250Z AUTO 36008KT 6000NDV -SN FEW009/// SCT015/// BKN023/// M06/M07 Q1017=
201303210220 METAR ESMX 210220Z AUTO 01008KT 2700NDV -SN FEW015/// M06/M07 Q1017=
201303210150 METAR ESMX 210150Z AUTO 01008KT 5000NDV -SN FEW010/// SCT012/// M06/M07 Q1017=
201303210120 METAR ESMX 210120Z AUTO 01007KT 9999NDV -SN FEW011/// SCT016/// BKN034/// M05/M07 Q1017=
201303210050 METAR ESMX 210050Z 01008KT 9999 FEW009 BKN038 M05/M07 Q1017=
201303210020 METAR ESMX 210020Z 02006KT 5000 -SN FEW016 SCT028 BKN034 M05/M07 Q1017=
201303202350 METAR ESMX 202350Z 03006KT 9999 -SN FEW025 M06/M08 Q1016=
201303202320 METAR ESMX 202320Z 02006KT 9999 -SN FEW008 M06/M08 Q1016=
201303202250 METAR ESMX 202250Z 03008KT 9999 -SN BKN014 BKN082 M05/M08 Q1016=
201303202220 METAR ESMX 202220Z 04008KT 9999 FEW015 SCT018 BKN020 M05/M08 Q1016=
201303202150 METAR ESMX 202150Z 04008KT 9999 -SN FEW015 BKN018 M05/M08 Q1016=
201303202120 METAR ESMX 202120Z 04009KT 9999 -SN FEW017 SCT019 BKN022 M05/M07 Q1016=
201303202050 METAR ESMX 202050Z 04007KT 9999 -SN FEW014 BKN020 M05/M07 Q1016=
201303202020 METAR ESMX 202020Z 04007KT 4900 -SN FEW013 SCT017 BKN019 M05/M07 Q1015=
201303201950 METAR ESMX 201950Z 04006KT 4100 -SN FEW013 SCT017 BKN021 M05/M07 Q1015=
201303201920 METAR ESMX 201920Z 05008KT 020V080 8000 -SN FEW019 M05/M07 Q1015=
201303201850 METAR ESMX 201850Z 04009KT 5000 -SN FEW017 M05/M07 Q1015=
201303201820 METAR ESMX 201820Z 03009KT 350V060 9999 -SN FEW006 SCT034 M05/M07 Q1015=
201303201750 METAR ESMX 201750Z 06007KT 350V090 4000 -SN FEW009 SCT020 BKN025 M05/M08 Q1014=
201303201720 METAR ESMX 201720Z 06009KT 030V100 9999 -SN FEW013 SCT025 BKN037 M04/M08 Q1014=
201303201650 METAR ESMX 201650Z 04009KT 010V080 9999 -SN FEW017 SCT054 M04/M07 Q1013=
201303201620 METAR ESMX 201620Z 05010KT 030V090 4400 -SN FEW006 SCT025 M04/M08 Q1013=
201303201550 METAR ESMX 201550Z 05010KT 010V080 6000 -SN FEW018 BKN022 M04/M07 Q1013=
201303201520 METAR ESMX 201520Z 04010KT 020V080 4000 -SN FEW007 SCT037 M03/M07 Q1012=
201303201450 METAR ESMX 201450Z 05008KT 020V090 9999 -SN FEW010 SCT030 M03/M07 Q1012=
201303201420 METAR ESMX 201420Z 05011KT 030V090 9999 -SN FEW011 SCT031 M03/M08 Q1012=
201303201350 METAR ESMX 201350Z 04010KT 5000 R01/P2000N R19/P2000N -SN FEW006 SCT023 BKN057 M03/M06 Q1012=
201303201320 METAR ESMX 201320Z 05011KT 020V080 5000 -SN FEW008 SCT026 BKN033 M03/M08 Q1011=
201303201250 METAR ESMX 201250Z 05010KT 020V100 9999 FEW008 SCT025 M03/M08 Q1011=
201303201220 METAR COR ESMX 201220Z 05011KT 020V090 5000 R01/P2000N R19/P2000 -SN FEW005 SCT010 M03/M06 Q1011=
201303201150 METAR ESMX 201150Z 04012KT 2000 SN FEW006 BKN015 M03/M06 Q1011=
201303201120 METAR ESMX 201120Z 04012KT 010V090 5000 -SN FEW005 SCT017 BKN020 M03/M07 Q1010=
201303201050 METAR ESMX 201050Z 04011KT 9999 -SN FEW007 SCT015 BKN024 M03/M07 Q1010=
201303201020 METAR ESMX 201020Z 04013KT 8000 -SN BKN015 OVC021 M03/M07 Q1010=
201303200950 METAR ESMX 200950Z 04012KT 9999 -SN BKN016 OVC021 M03/M07 Q1010=
201303200920 METAR ESMX 200920Z 04012KT 9999 -SN OVC015 M04/M07 Q1009=
201303200850 METAR ESMX 200850Z 04013KT 9999 -SN BKN015 BKN040 M04/M08 Q1009=
201303200820 METAR ESMX 200820Z 04011KT 9999 -SN BKN015 BKN045 M04/M07 Q1009=
201303200750 METAR ESMX 200750Z 01010KT 9999 -SN BKN013 BKN040 M05/M07 Q1009=
201303200720 METAR ESMX 200720Z 01009KT 9000 -SN SCT014 BKN037 M05/M07 Q1008=
201303200650 METAR ESMX 200650Z 02009KT 3500 -SN FEW014 BKN037 M05/M07 Q1008=
201303200620 METAR ESMX 200620Z 01009KT 3500 -SN FEW012 BKN025 M06/M07 Q1008=
201303200550 METAR ESMX 200550Z 01010KT 5000 -SN FEW015 BKN025 M06/M08 Q1008=
201303200520 METAR ESMX 200520Z 02012KT 7000 -SN FEW013 SCT016 BKN018 M05/M08 Q1008=
201303200450 METAR ESMX 200450Z 02012KT 7000 -SN FEW012 OVC014 M05/M07 Q1007=
201303200420 METAR ESMX 200420Z AUTO 01013KT 6000NDV -SN FEW010/// OVC013/// M05/M07 Q1007=
201303200350 METAR ESMX 200350Z AUTO 03012KT 9999NDV -SN OVC012/// M04/M06 Q1007=
201303200320 METAR ESMX 200320Z AUTO 04010KT 9999NDV SG OVC012/// M04/M06 Q1007=
201303200250 METAR ESMX 200250Z AUTO 04010KT 9999NDV SG FEW015/// OVC019/// M04/M07 Q1007=
201303200220 METAR ESMX 200220Z AUTO 04011KT 9999NDV SG OVC018/// M04/M07 Q1007=
201303200150 METAR ESMX 200150Z AUTO 04012KT 010V070 9999NDV -SN OVC018/// M04/M07 Q1007=
201303200120 METAR ESMX 200120Z AUTO 04011KT 9999NDV OVC018/// M04/M07 Q1007=
201303200050 METAR ESMX 200050Z 04011KT 9999 -SN FEW017 OVC021 M04/M07 Q1007=
201303200020 METAR ESMX 200020Z 04012KT 9999 -SN FEW017 OVC021 M04/M07 Q1006 RESG=
201303192350 METAR ESMX 192350Z 04010KT 9999 -SN FEW014 SCT019 OVC023 M04/M07 Q1006=
201303192320 METAR ESMX 192320Z 04010KT 9999 -SN FEW015 BKN017 OVC025 M04/M07 Q1006=
201303192250 METAR ESMX 192250Z 04009KT 9999 -SN FEW013 OVC016 M04/M07 Q1007=
201303192220 METAR ESMX 192220Z 04011KT 9999 -SN OVC013 M04/M07 Q1007=
201303192150 METAR ESMX 192150Z 04010KT 9000 -SN OVC014 M04/M07 Q1007=
201303192120 METAR ESMX 192120Z 04011KT 9000 -SN OVC014 M04/M07 Q1006=
201303192050 METAR ESMX 192050Z 04013KT 9999 -SN OVC015 M04/M07 Q1006=
201303192020 METAR ESMX 192020Z 04012KT 9000 -SN FEW014 OVC017 M04/M07 Q1006=
201303191950 METAR ESMX 191950Z 04015KT 9999 -SN OVC016 M04/M07 Q1006=
201303191920 METAR ESMX 191920Z 04014KT 9999 -SN SCT018 BKN022 M04/M08 Q1006=
201303191850 METAR ESMX 191850Z 04014KT 9999 -SN OVC016 M04/M07 Q1006=
201303191820 METAR ESMX 191820Z 04013KT 9000 -SN BKN015 OVC021 M04/M07 Q1006=
201303191750 METAR ESMX 191750Z 04015KT 9999 -SN FEW016 BKN020 M04/M08 Q1005=
201303191720 METAR ESMX 191720Z 04016KT 9999 -SN BKN019 M04/M08 Q1005=
201303191650 METAR ESMX 191650Z 04018KT 9999 -SN FEW016 BKN020 M04/M08 Q1005=
201303191620 METAR ESMX 191620Z 04016KT 9999 FEW014 SCT020 M04/M08 Q1005=
201303191550 METAR ESMX 191550Z 04014G24KT 9999 -SN FEW015 BKN021 M04/M08 Q1005=
201303191520 METAR ESMX 191520Z 04014KT 9999 -SN FEW015 BKN024 M03/M08 Q1005=
201303191450 METAR ESMX 191450Z 04014KT 9999 -SN FEW016 BKN024 M03/M08 Q1005=
201303191420 METAR ESMX 191420Z 04013KT 020V080 9999 -SN FEW022 BKN025 M03/M09 Q1005=
201303191350 METAR ESMX 191350Z 03011KT 360V080 9999 -SN FEW015 BKN025 M03/M09 Q1005=
201303191320 METAR ESMX 191320Z 05012KT 030V090 9999 -SN FEW019 BKN025 M03/M08 Q1005=
201303191250 METAR ESMX 191250Z 05011KT 030V100 9999 FEW019 BKN025 M03/M09 Q1005=
201303191220 METAR ESMX 191220Z 06012KT 020V100 9999 BKN024 M03/M09 Q1005=
201303191150 METAR ESMX 191150Z 05013G24KT 020V100 9999 FEW028 SCT100 M03/M09 Q1005=
201303191120 METAR ESMX 191120Z 05015KT 020V090 9999 FEW029 M03/M10 Q1005=
201303191050 METAR ESMX 191050Z 06012G23KT 9999 FEW032 M03/M10 Q1005=
201303191020 METAR ESMX 191020Z 06013KT 030V110 9999 FEW031 M03/M10 Q1005=
201303190950 METAR ESMX 190950Z 06013G26KT 030V100 9999 FEW030 M03/M10 Q1005=
201303190920 METAR ESMX 190920Z 05011KT 010V080 9999 FEW028 M03/M10 Q1005=
201303190850 METAR ESMX 190850Z 06013KT 9999 FEW028 M03/M10 Q1006=
201303190820 METAR ESMX 190820Z 06012G22KT 020V100 9999 FEW026 SCT068 M04/M10 Q1006=
201303190750 METAR ESMX 190750Z 05012KT 020V080 9999 FEW027 M04/M10 Q1006=
201303190720 METAR ESMX 190720Z 04012KT 9999 FEW026 M04/M10 Q1006=
201303190650 METAR ESMX 190650Z 06011KT 030V090 9999 BKN025 M04/M10 Q1006=
201303190620 METAR ESMX 190620Z 05012KT 020V100 9999 SCT023 M05/M09 Q1006=
201303190550 METAR ESMX 190550Z 03010KT 010V070 9999 SCT022 M05/M09 Q1006=
201303190520 METAR ESMX 190520Z 05012KT 9999 SCT022 M05/M09 Q1005=
201303190450 METAR ESMX 190450Z 04014KT 9999 SCT022 M05/M09 Q1006=
201303190420 METAR ESMX 190420Z AUTO 05012KT 9999NDV NCD M05/M10 Q1006=
201303190350 METAR ESMX 190350Z AUTO 05014KT 9999NDV NCD M05/M10 Q1006=
201303190320 METAR ESMX 190320Z AUTO 06011G21KT 020V090 9999NDV NCD M05/M10 Q1006=
201303190250 METAR ESMX 190250Z AUTO 06011KT 030V100 9999NDV NCD M05/M10 Q1006=
201303190220 METAR ESMX 190220Z AUTO 05010KT 9999NDV FEW025/// M05/M10 Q1006=
201303190150 METAR ESMX 190150Z AUTO 04010G21KT 350V090 9999NDV NCD M05/M09 Q1007=
201303190120 METAR ESMX 190120Z AUTO 05010KT 010V090 9999NDV NCD M05/M09 Q1007=
201303190050 METAR ESMX 190050Z 06009KT 020V080 CAVOK M05/M09 Q1007=
201303190020 METAR ESMX 190020Z 05009KT 020V100 CAVOK M05/M09 Q1007=
201303182350 METAR ESMX 182350Z 04011KT 020V090 CAVOK M06/M10 Q1008=
201303182320 METAR ESMX 182320Z 04010KT 360V070 CAVOK M06/M10 Q1008=
201303182250 METAR ESMX 182250Z 05009KT 010V080 CAVOK M06/M10 Q1008=
201303182220 METAR ESMX 182220Z 05011KT 350V080 CAVOK M06/M10 Q1009=
201303182150 METAR ESMX 182150Z 06010KT 020V080 CAVOK M05/M10 Q1009=
201303182120 METAR ESMX 182120Z 06010KT 030V110 CAVOK M05/M10 Q1009=
201303182050 METAR ESMX 182050Z 05010KT 010V100 CAVOK M05/M10 Q1010=
201303182020 METAR ESMX 182020Z 07010KT 030V110 CAVOK M05/M10 Q1010=
201303181950 METAR ESMX 181950Z 05010G20KT 010V090 9999 FEW028 M05/M10 Q1010=
201303181920 METAR ESMX 181920Z 06010G20KT 010V100 9999 FEW028 M05/M11 Q1010=
201303181850 METAR ESMX 181850Z 07011KT 030V110 9999 FEW029 M05/M11 Q1011=
201303181820 METAR ESMX 181820Z 07010KT 020V110 9999 FEW030 M05/M11 Q1011=
201303181750 METAR ESMX 181750Z 07010KT 030V100 CAVOK M05/M11 Q1011=
201303181720 METAR ESMX 181720Z 08010G20KT 040V110 CAVOK M04/M12 Q1011=
201303181650 METAR ESMX 181650Z 07011KT 030V100 CAVOK M04/M13 Q1010=
201303181620 METAR ESMX 181620Z 07010KT 030V110 CAVOK M04/M13 Q1011=
201303181550 METAR ESMX 181550Z 08010KT 050V110 9999 FEW041 M03/M12 Q1011=
201303181520 METAR ESMX 181520Z 06010KT 020V110 9999 FEW041 M03/M12 Q1011=
201303181450 METAR ESMX 181450Z 09012KT 040V130 9999 FEW040 M02/M12 Q1011=
201303181420 METAR ESMX 181420Z 08012KT 010V120 9999 FEW044 M02/M12 Q1012=
201303181350 METAR ESMX 181350Z 09010G21KT 050V140 9999 FEW041 M01/M13 Q1012=
201303181320 METAR ESMX 181320Z 08013G23KT 060V120 9999 FEW044 M01/M13 Q1012=
201303181250 METAR ESMX 181250Z 09014G24KT 060V120 9999 FEW044 M00/M11 Q1012=
201303181220 METAR ESMX 181220Z 06012G25KT 020V100 9999 FEW044 00/M11 Q1013=
201303181150 METAR ESMX 181150Z 08010G20KT 030V140 9999 FEW045 00/M12 Q1013=
201303181120 METAR ESMX 181120Z 09012G22KT 040V150 9999 SCT040 00/M11 Q1013=
201303181050 METAR ESMX 181050Z 08013G23KT 040V110 9999 FEW030 BKN038 M00/M10 Q1014=
201303181020 METAR ESMX 181020Z 09010KT 030V150 9999 FEW030 SCT035 M01/M09 Q1014=
201303180950 METAR ESMX 180950Z 08012G22KT 040V120 9999 FEW027 SCT035 M02/M09 Q1014=
201303180920 METAR ESMX 180920Z 08013G25KT 050V140 9999 FEW038 M01/M10 Q1014=
201303180850 METAR ESMX 180850Z 09012G25KT 050V120 9999 FEW038 M01/M11 Q1014=
201303180820 METAR ESMX 180820Z 08011G24KT 050V120 9999 FEW040 M01/M10 Q1015=
201303180750 METAR ESMX 180750Z 08008KT 050V110 CAVOK M02/M09 Q1015=
201303180720 METAR ESMX 180720Z 06006KT 330V100 CAVOK M03/M09 Q1016=
201303180650 METAR ESMX 180650Z 07006KT 030V120 CAVOK M04/M09 Q1016=
201303180620 METAR ESMX 180620Z 07006KT 040V110 CAVOK M05/M09 Q1016=
201303180550 METAR ESMX 180550Z 07006KT 040V100 CAVOK M06/M09 Q1016=
201303180520 METAR ESMX 180520Z 07006KT 030V110 CAVOK M06/M09 Q1016=
201303180450 METAR ESMX 180450Z 07006KT 030V110 CAVOK M06/M08 Q1016=
201303180420 METAR ESMX 180420Z AUTO 07007KT 030V100 9999NDV NCD M05/M08 Q1016=
201303180350 METAR ESMX 180350Z AUTO 08007KT 040V120 9999NDV NCD M05/M08 Q1016=
201303180320 METAR ESMX 180320Z AUTO 07007KT 040V100 9999NDV FEW028/// SCT034/// M05/M08 Q1016=
201303180250 METAR ESMX 180250Z AUTO 07007KT 040V100 9999NDV FEW029/// M05/M08 Q1016=
201303180220 METAR ESMX 180220Z AUTO 07009KT 010V100 9999NDV FEW027/// M05/M08 Q1017=
201303180150 METAR ESMX 180150Z AUTO 08007KT 040V110 9999NDV NCD M05/M08 Q1017=
201303180120 METAR ESMX 180120Z AUTO 08007KT 040V120 9999NDV NCD M05/M07 Q1017=
201303180050 METAR ESMX 180050Z AUTO 08007KT 050V120 9999NDV NCD M05/M07 Q1017=
201303180020 METAR COR ESMX 180020Z 09006KT 050V150 CAVOK M05/M08 Q1017=
201303172350 METAR ESMX 172350Z 09007KT 050V120 CAVOK M05/M07 Q1017=
201303172320 METAR ESMX 172320Z 09007KT 050V140 CAVOK M05/M08 Q1018=
201303172250 METAR ESMX 172250Z 09006KT 360V130 9999 FEW020 M04/M08 Q1018=
201303172220 METAR ESMX 172220Z 09007KT 030V130 9999 FEW020 M04/M08 Q1018=
201303172150 METAR ESMX 172150Z 10008KT 060V140 9999 FEW022 M04/M08 Q1018=
201303172120 METAR ESMX 172120Z 10007KT 060V150 CAVOK M04/M08 Q1018=
201303172050 METAR ESMX 172050Z 10006KT 060V150 9999 FEW023 M04/M08 Q1018=
201303172020 METAR ESMX 172020Z 10007KT 050V190 9999 FEW024 M04/M08 Q1018=
201303171950 METAR ESMX 171950Z 10007KT 070V150 9999 FEW023 M04/M08 Q1018=
201303171920 METAR ESMX 171920Z 10006KT 060V150 9999 FEW024 M03/M08 Q1018=
201303171850 METAR ESMX 171850Z 11007KT 060V160 CAVOK M03/M08 Q1018=
201303171820 METAR ESMX 171820Z 10008KT 060V160 CAVOK M03/M09 Q1017=
201303171750 METAR ESMX 171750Z 10007KT 060V140 CAVOK M02/M10 Q1017=
201303171720 METAR ESMX 171720Z 11008KT 060V150 CAVOK M02/M11 Q1017=
201303171650 METAR ESMX 171650Z 12007KT 070V170 CAVOK M01/M11 Q1017=
201303171620 METAR ESMX 171620Z 12008KT 090V170 CAVOK 00/M12 Q1017=
201303171550 METAR ESMX 171550Z 13009KT 080V160 CAVOK 01/M12 Q1017=
201303171520 METAR ESMX 171520Z 13008KT 090V170 CAVOK 01/M11 Q1017=
201303171450 METAR ESMX 171450Z 13009KT 100V170 CAVOK 01/M13 Q1017=
201303171420 METAR ESMX 171420Z 13010KT 100V180 CAVOK 02/M12 Q1017=
201303171350 METAR ESMX 171350Z 12009KT 080V160 CAVOK 02/M10 Q1017=
201303171320 METAR ESMX 171320Z 13009KT 070V200 CAVOK 02/M11 Q1017=
201303171250 METAR ESMX 171250Z AUTO 15009KT 110V180 9999NDV NCD 02/M11 Q1017=
201303171220 METAR ESMX 171220Z AUTO 15010KT 110V180 9999NDV NCD 02/M12 Q1018=
201303171150 METAR ESMX 171150Z AUTO 14009KT 100V170 9999NDV NCD 02/M12 Q1018=
201303171120 METAR ESMX 171120Z AUTO 13010KT 090V180 9999NDV NCD 02/M12 Q1018=
201303171050 METAR ESMX 171050Z AUTO 11008KT 050V170 9999NDV NCD 01/M11 Q1017=
201303171020 METAR ESMX 171020Z AUTO 14009KT 070V180 9999NDV NCD 01/M09 Q1018=
201303170950 METAR ESMX 170950Z AUTO 14009KT 110V170 9999NDV NCD 01/M09 Q1018=
201303170920 METAR ESMX 170920Z AUTO 15009KT 110V170 9999NDV NCD 00/M09 Q1018=
201303170850 METAR ESMX 170850Z AUTO 15008KT 110V190 9999NDV NCD M00/M08 Q1018=
201303170820 METAR ESMX 170820Z AUTO 15007KT 120V190 9999NDV NCD M01/M07 Q1018=
201303170750 METAR ESMX 170750Z AUTO 14008KT 9999NDV NCD M02/M07 Q1018=
201303170720 METAR ESMX 170720Z AUTO 14008KT 100V200 9999NDV NCD M03/M07 Q1017=
201303170650 METAR ESMX 170650Z AUTO 14005KT 100V170 9999NDV NCD M03/M07 Q1017=
201303170620 METAR ESMX 170620Z AUTO 14004KT 100V170 9999NDV NCD M05/M07 Q1017=
201303170550 METAR ESMX 170550Z AUTO 14003KT 110V170 9999NDV NCD M05/M07 Q1017=
201303170520 METAR ESMX 170520Z AUTO 14005KT 9999NDV NCD M05/M07 Q1017=
201303170450 METAR ESMX 170450Z AUTO 14005KT 9999NDV NCD M05/M07 Q1017=
201303170420 METAR ESMX 170420Z AUTO 14006KT 100V170 9999NDV NCD M05/M07 Q1017=
201303170350 METAR ESMX 170350Z AUTO 14006KT 110V170 9999NDV NCD M05/M07 Q1017=
201303170320 METAR ESMX 170320Z AUTO 14006KT 100V170 9999NDV NCD M05/M07 Q1017=
201303170250 METAR ESMX 170250Z AUTO 15006KT 120V190 9999NDV NCD M05/M07 Q1017=
201303170220 METAR ESMX 170220Z AUTO 14007KT 9999NDV NCD M06/M07 Q1017=
201303170150 METAR ESMX 170150Z AUTO 14006KT 110V170 9999NDV NCD M06/M07 Q1017=
201303170120 METAR ESMX 170120Z AUTO 14006KT 9999NDV NCD M06/M07 Q1017=
201303170050 METAR ESMX 170050Z AUTO 13005KT 100V170 9999NDV NCD M05/M07 Q1017=
201303170020 METAR ESMX 170020Z AUTO 13005KT 100V160 9999NDV NCD M06/M07 Q1017=
201303162350 METAR ESMX 162350Z AUTO 13004KT 9999NDV NCD M06/M07 Q1017=
201303162320 METAR ESMX 162320Z AUTO 14004KT 9999NDV NCD M06/M07 Q1017=
201303162250 METAR ESMX 162250Z AUTO 13004KT 9999NDV NCD M06/M07 Q1017=
201303162220 METAR ESMX 162220Z AUTO 14005KT 9999NDV NCD M05/M07 Q1017=
201303162150 METAR ESMX 162150Z AUTO 14004KT 100V160 9999NDV NCD M05/M07 Q1017=
201303162120 METAR ESMX 162120Z AUTO 14004KT 100V170 9999NDV NCD M05/M07 Q1017=
201303162050 METAR ESMX 162050Z AUTO 13004KT 100V160 9999NDV NCD M05/M07 Q1017=
201303162020 METAR ESMX 162020Z AUTO 14004KT 9999NDV NCD M05/M07 Q1017=
201303161950 METAR ESMX 161950Z AUTO 14004KT 9999NDV NCD M05/M08 Q1017=
201303161920 METAR ESMX 161920Z AUTO 15003KT 9999NDV NCD M04/M08 Q1017=
201303161850 METAR ESMX 161850Z AUTO 16005KT 9999NDV NCD M03/M08 Q1017=
201303161820 METAR ESMX 161820Z AUTO 15005KT 9999NDV NCD M03/M08 Q1017=
201303161750 METAR ESMX 161750Z AUTO 15005KT 9999NDV NCD M02/M08 Q1017=
201303161720 METAR ESMX 161720Z AUTO 17007KT 9999NDV NCD M02/M08 Q1017=
201303161650 METAR ESMX 161650Z AUTO 16007KT 130V190 9999NDV NCD M01/M08 Q1017=
201303161620 METAR ESMX 161620Z AUTO 15007KT 120V190 9999NDV NCD M01/M07 Q1017=
201303161550 METAR ESMX 161550Z AUTO 15009KT 9999NDV NCD M00/M07 Q1016=
201303161520 METAR ESMX 161520Z AUTO 16009KT 130V190 9999NDV NCD 00/M08 Q1017=
201303161450 METAR ESMX 161450Z AUTO 17009KT 9999NDV NCD 01/M08 Q1017=
201303161420 METAR ESMX 161420Z AUTO 17010KT 9999NDV NCD 01/M07 Q1017=
201303161350 METAR ESMX 161350Z AUTO 17010KT 9999NDV FEW110/// 00/M08 Q1017=
201303161320 METAR ESMX 161320Z AUTO 17009KT 9999NDV NCD 00/M08 Q1017=
201303161250 METAR ESMX 161250Z AUTO 15008KT 120V180 9999NDV NCD 01/M08 Q1017=
201303161220 METAR ESMX 161220Z AUTO 17009KT 9999NDV FEW032/// 01/M08 Q1017=
201303161150 METAR ESMX 161150Z AUTO 16008KT 140V200 9999NDV FEW031/// SCT057/// 01/M08 Q1017=
201303161120 METAR ESMX 161120Z AUTO 17007KT 110V200 9999NDV FEW031/// 01/M07 Q1017=
201303161050 METAR ESMX 161050Z AUTO 18006KT 120V220 9999NDV FEW087/// 01/M08 Q1017=
201303161020 METAR ESMX 161020Z 20008KT CAVOK M00/M07 Q1017=
201303160950 METAR ESMX 160950Z 21006KT 170V250 CAVOK M01/M08 Q1017=
201303160920 METAR ESMX 160920Z 15004KT 050V200 CAVOK M02/M07 Q1017=
201303160850 METAR ESMX 160850Z VRB02KT CAVOK M03/M07 Q1017=
201303160820 METAR ESMX 160820Z 14003KT 110V230 CAVOK M04/M08 Q1017=
201303160750 METAR ESMX 160750Z AUTO 15004KT 9999NDV BKN002/// M07/M09 Q1017=
201303160720 METAR ESMX 160720Z AUTO VRB01KT 9999NDV FEW002/// M11/M12 Q1017=
201303160650 METAR ESMX 160650Z AUTO 35002KT 9999NDV NCD M14/M15 Q1017=
201303160620 METAR ESMX 160620Z AUTO 00000KT 9999NDV NCD M15/M17 Q1016=
201303160550 METAR ESMX 160550Z AUTO 00000KT 9999NDV NCD M16/M18 Q1016=
201303160520 METAR ESMX 160520Z AUTO 00000KT 9999NDV NCD M16/M18 Q1017=
201303160450 METAR ESMX 160450Z AUTO 00000KT 9999NDV NCD M16/M18 Q1016=
201303160420 METAR ESMX 160420Z AUTO 00000KT 9999NDV NCD M16/M18 Q1016=
201303160350 METAR ESMX 160350Z AUTO 00000KT 9999NDV NCD M16/M18 Q1016=
201303160320 METAR ESMX 160320Z AUTO 06001KT 9999NDV FEW080/// M16/M17 Q1016=
201303160250 METAR ESMX 160250Z AUTO 00000KT 9999NDV NCD M16/M17 Q1016=
201303160220 METAR ESMX 160220Z AUTO VRB01KT 9999NDV NCD M15/M16 Q1016=
201303160150 METAR ESMX 160150Z AUTO VRB01KT 9999NDV NCD M15/M16 Q1016=
201303160120 METAR ESMX 160120Z AUTO 36001KT 9999NDV NCD M14/M16 Q1016=
201303160050 METAR ESMX 160050Z AUTO 02002KT 9999NDV NCD M14/M15 Q1016=
201303160020 METAR ESMX 160020Z AUTO 00000KT 9999NDV NCD M14/M15 Q1016=
201303152350 METAR ESMX 152350Z AUTO 00000KT 9999NDV NCD M13/M15 Q1016=
201303152320 METAR ESMX 152320Z AUTO 00000KT 9999NDV NCD M13/M14 Q1015=
201303152250 METAR ESMX 152250Z AUTO VRB02KT 9999NDV NCD M12/M13 Q1015=
201303152220 METAR ESMX 152220Z AUTO 14004KT 9999NDV NCD M11/M13 Q1015=
201303152150 METAR ESMX 152150Z AUTO 14004KT 9999NDV SCT100/// M11/M12 Q1015=
201303152120 METAR ESMX 152120Z AUTO 12004KT 9999NDV FEW100/// M10/M12 Q1015=
201303152050 METAR ESMX 152050Z AUTO 00000KT 9999NDV NCD M11/M12 Q1015=
201303152020 METAR ESMX 152020Z AUTO 00000KT 9999NDV FEW110/// M10/M12 Q1015=
201303151950 METAR ESMX 151950Z 27002KT CAVOK M09/M12 Q1015=
201303151920 METAR ESMX 151920Z 26002KT CAVOK M08/M11 Q1015=
201303151850 METAR ESMX 151850Z 26003KT CAVOK M08/M11 Q1015=
201303151820 METAR ESMX 151820Z 27003KT CAVOK M06/M11 Q1014=
201303151750 METAR ESMX 151750Z VRB01KT CAVOK M05/M11 Q1014=
201303151720 METAR ESMX 151720Z 29003KT CAVOK M04/M12 Q1014=
201303151650 METAR ESMX 151650Z 29003KT CAVOK M02/M12 Q1014=
201303151620 METAR ESMX 151620Z 27004KT CAVOK M01/M12 Q1013=
201303151550 METAR ESMX 151550Z 28005KT CAVOK M01/M12 Q1013=
201303151520 METAR ESMX 151520Z 32004KT 280V360 CAVOK M01/M13 Q1013=
201303151450 METAR ESMX 151450Z 36005KT 320V030 9999 FEW047 00/M12 Q1013=
201303151420 METAR ESMX 151420Z 35004KT 240V020 9999 FEW045 M00/M13 Q1013=
201303151350 METAR ESMX 151350Z 01004KT 330V130 9999 SCT044 M01/M11 Q1013=
201303151320 METAR ESMX 151320Z 01003KT 320V040 9999 FEW040 SCT046 M01/M13 Q1013=
201303151250 METAR ESMX 151250Z VRB02KT 9999 SCT040 M01/M11 Q1014=
201303151220 METAR ESMX 151220Z VRB03KT 9999 SCT034 M00/M12 Q1014=
201303151150 METAR ESMX 151150Z 02003KT 350V080 9999 FEW033 M02/M11 Q1014=
201303151120 METAR ESMX 151120Z VRB02KT 9999 FEW032 M01/M10 Q1014=
201303151050 METAR ESMX 151050Z 35003KT 320V050 9999 FEW030 SCT036 M02/M09 Q1014=
201303151020 METAR ESMX 151020Z 02004KT 340V060 9999 FEW017 M02/M07 Q1014=
201303150950 METAR ESMX 150950Z 02003KT CAVOK M03/M05 Q1014=
201303150920 METAR ESMX 150920Z 03003KT CAVOK M04/M06 Q1014=
201303150850 METAR ESMX 150850Z 33002KT CAVOK M06/M07 Q1014=
201303150820 METAR ESMX 150820Z 00000KT CAVOK M08/M09 Q1014=
201303150750 METAR COR ESMX 150750Z 36001KT 9999 FEW002 M10/M11 Q1014=
201303150720 METAR ESMX 150720Z 35002KT 9000 BR M11/M13 Q1014=
201303150650 METAR ESMX 150650Z 00000KT 1500 BR FEW005 M12/M14 Q1013=
201303150620 METAR ESMX 150620Z 36001KT 0150 R01/0250V0325 R19/0350V0600U FZFG VV002 M13/M15 Q1013=
201303150550 METAR ESMX 150550Z 36001KT 0350 R01/0700N R19/0900 FZFG VV002 M14/M16 Q1013=
201303150520 METAR ESMX 150520Z 01002KT 0200 R01/0750 R19/0500N FZFG VV002 M15/M16 Q1013=
201303150450 METAR ESMX 150450Z 36002KT 0150 R01/0500V0700 R19/0800V1300 FZFG VV001 M14/M16 Q1013=
201303150420 METAR ESMX 150420Z AUTO 35002KT 0200NDV R01/0800V1200U R19/0700=
201303150350 METAR ESMX 150350Z AUTO 01001KT 0150NDV R01/0800VP2000D R19/0650N=
201303150320 METAR ESMX 150320Z AUTO 00000KT 0100NDV R01/0325V0500N R19/P2000N BCFG VV001 M14/M16 Q1012=
201303150250 METAR ESMX 150250Z AUTO 00000KT 9999NDV FEW000/// M14/M15 Q1012=
201303150220 METAR ESMX 150220Z AUTO 16002KT 0400NDV R01/P2000N R19/P2000N BCFG FEW036/// M13/M14 Q1012=
201303150150 METAR ESMX 150150Z AUTO 00000KT 9999NDV SCT000/// M13/M15 Q1012=
201303150120 METAR ESMX 150120Z 00000KT CAVOK M13/M14 Q1012=
201303150050 METAR ESMX 150050Z 00000KT CAVOK M12/M13 Q1012=
201303150020 METAR ESMX 150020Z 00000KT 9999 FEW042 M11/M13 Q1012=
201303142350 METAR ESMX 142350Z 00000KT 9999 FEW042 M10/M11 Q1012=
201303142320 METAR ESMX 142320Z 04001KT 9999 FEW028 BKN041 M09/M10 Q1012=
201303142250 METAR ESMX 142250Z 14001KT 9000 -SN OVC015 M09/M10 Q1012=
201303142220 METAR ESMX 142220Z 18001KT 9999 -SN FEW009 BKN013 M08/M09 Q1012=
201303142150 METAR ESMX 142150Z 18001KT 9999 -SN FEW012 BKN043 M09/M10 Q1012=
201303142120 METAR ESMX 142120Z 00000KT 9999 -SN FEW025 SCT040 OVC043 M09/M10 Q1012=
201303142050 METAR ESMX 142050Z 00000KT 9999 -SN FEW017 SCT032 OVC040 M09/M10 Q1012=
201303142020 METAR ESMX 142020Z 00000KT 9999 -SN FEW026 BKN045 M08/M09 Q1012=
201303141950 METAR ESMX 141950Z 00000KT 9999 -SN FEW025 SCT030 M09/M10 Q1012=
201303141920 METAR ESMX 141920Z 00000KT 9999 -SN FEW020 BKN030 M09/M10 Q1011=
201303141850 METAR ESMX 141850Z 00000KT 9999 FEW019 BKN045 M08/M09 Q1011=
201303141820 METAR ESMX 141820Z 00000KT 9999 FEW035 M07/M09 Q1011=
201303141750 METAR ESMX 141750Z 06002KT 9999 FEW025 M06/M08 Q1011=
201303141720 METAR ESMX 141720Z 07002KT 9999 FEW025 SCT035 M04/M07 Q1010=
201303141650 METAR ESMX 141650Z 03003KT 010V070 9999 FEW033 SCT037 M03/M07 Q1010=
201303141620 METAR ESMX 141620Z 02004KT 9999 FEW016 BKN043 M03/M06 Q1010=
201303141550 METAR ESMX 141550Z 36006KT 9999 FEW018 BKN035 M03/M07 Q1010=
201303141520 METAR ESMX 141520Z 36006KT 9999 -SN FEW029 BKN036 M03/M06 Q1009=
201303141450 METAR ESMX 141450Z 04005KT 9999 FEW027 BKN044 M02/M07 Q1009=
201303141420 METAR ESMX 141420Z 35006KT 9999 FEW027 BKN039 M02/M06 Q1009=
201303141350 METAR ESMX 141350Z 04007KT 9999 OVC035 M02/M07 Q1009=
201303141320 METAR ESMX 141320Z 05007KT 020V080 9999 FEW024 BKN036 M02/M07 Q1009=
201303141250 METAR ESMX 141250Z 04005KT 010V110 9999 FEW023 BKN034 M01/M08 Q1009=
201303141220 METAR ESMX 141220Z 07005KT 020V130 9999 FEW021 BKN030 M01/M07 Q1009=
201303141150 METAR ESMX 141150Z 06005KT 020V100 9999 FEW018 SCT020 BKN025 M01/M07 Q1009=
201303141120 METAR ESMX 141120Z 05005KT 010V100 9999 FEW017 BKN020 M02/M07 Q1009=
201303141050 METAR ESMX 141050Z 03005KT 010V070 9999 BKN015 M02/M06 Q1009=
201303141020 METAR ESMX 141020Z 07005KT 030V120 9999 BKN012 M02/M06 Q1009=
201303140950 METAR ESMX 140950Z 04005KT 9999 BKN011 M03/M07 Q1009=
201303140920 METAR ESMX 140920Z 04006KT 9999 FEW010 M04/M07 Q1009=
201303140850 METAR ESMX 140850Z 03005KT 9999 FEW039 M04/M07 Q1008=
201303140820 METAR ESMX 140820Z 05004KT 9999 FEW040 M04/M07 Q1008=
201303140750 METAR ESMX 140750Z 36005KT 9999 FEW010 M06/M08 Q1008=
201303140720 METAR ESMX 140720Z 36004KT 9999 FEW009 M06/M08 Q1007=
201303140650 METAR ESMX 140650Z 36004KT 9999 SCT017 M08/M09 Q1007=
201303140620 METAR ESMX 140620Z 01003KT 9999 FEW011 M09/M09 Q1007=
201303140550 METAR ESMX 140550Z 02003KT 350V060 9999 -SN FEW011 M08/M09 Q1007=
201303140520 METAR ESMX 140520Z 04004KT 9999 -SN FEW007 BKN014 M07/M08 Q1006=
201303140450 METAR ESMX 140450Z 05004KT 020V080 9999 -SN BKN014 M06/M07 Q1006=
201303140420 METAR ESMX 140420Z AUTO 04003KT 9999NDV -SN OVC021/// M06/M07 Q1006=
201303140350 METAR ESMX 140350Z AUTO 06004KT 4400NDV -SN FEW010/// SCT018/// BKN021/// M05/M07 Q1006=
201303140320 METAR ESMX 140320Z AUTO 03004KT 350V060 2700NDV -SN SCT014/// BKN027/// M05/M06 Q1006=
201303140250 METAR ESMX 140250Z AUTO 04004KT 2500NDV -SN FEW009/// OVC014/// M05/M06 Q1006=
201303140220 METAR ESMX 140220Z AUTO 05005KT 6000NDV -SN FEW008/// OVC012/// M05/M06 Q1006=
201303140150 METAR ESMX 140150Z AUTO 07003KT 030V100 2600NDV -SN FEW006/// SCT012/// BKN015/// M05/M06 Q1006=
201303140120 METAR ESMX 140120Z 05003KT 350V080 2000 -SN BKN010 M05/M05 Q1006=
201303140050 METAR ESMX 140050Z 09003KT 060V160 1500 R01/P2000N R19/P2000N -SN FEW005 BKN011 M04/M05 Q1006=
201303140020 METAR ESMX 140020Z 07003KT 010V110 3000 -SN BKN010 M04/M05 Q1006=
201303132350 METAR ESMX 132350Z 06003KT 030V100 2700 -SN FEW007 OVC009 M04/M05 Q1006=
201303132320 METAR ESMX 132320Z 04003KT 8000 -SN OVC008 M04/M05 Q1006=
201303132250 METAR ESMX 132250Z 06004KT 030V090 3600 -SN BKN008 M04/M05 Q1005=
201303132220 METAR ESMX 132220Z 07003KT 030V100 1500 R01/P2000N R19/P2000N SN BKN006 M04/M05 Q1005=
201303132150 METAR ESMX 132150Z 06005KT 1600 -SN FEW006 BKN015 M04/M05 Q1005=
201303132120 METAR ESMX 132120Z 07004KT 030V110 2000 -SN FEW005 BKN015 M04/M05 Q1005=
201303132050 METAR ESMX 132050Z 07005KT 020V110 2800 SN FEW004 BKN008 M04/M05 Q1005=
201303132020 METAR ESMX 132020Z 11004KT 050V140 8000 -SN OVC007 M04/M05 Q1005=
201303131950 METAR ESMX 131950Z 06004KT 010V120 4000 -SN FEW005 BKN011 M04/M05 Q1005=
201303131920 METAR ESMX 131920Z 06004KT 020V100 2100 -SN FEW005 BKN010 M03/M05 Q1005=
201303131850 METAR ESMX 131850Z 08005KT 050V110 3500 -SN FEW005 BKN016 M03/M04 Q1005=
201303131820 METAR ESMX 131820Z 07004KT 2000 SN FEW006 BKN010 M03/M04 Q1004=
201303131750 METAR ESMX 131750Z 07003KT 4400 -SN FEW012 BKN025 M03/M05 Q1004=
201303131720 METAR ESMX 131720Z 04002KT 3100 -SN FEW006 SCT012 M03/M05 Q1004 RESG=
201303131650 METAR ESMX 131650Z VRB02KT 4700 -SN FEW010 SCT040 M03/M05 Q1004=
201303131620 METAR ESMX 131620Z VRB01KT 9999 -SN FEW010 SCT045 M02/M05 Q1003=
201303131550 METAR ESMX 131550Z VRB02KT 9999 FEW040 M02/M05 Q1003 RESN=
201303131520 METAR ESMX 131520Z 10003KT 050V170 2900 -SN FEW010 SCT040 M02/M05 Q1003 RESG=
201303131450 METAR ESMX 131450Z VRB02KT 4700 -SN FEW006 M02/M05 Q1003=
201303131420 METAR ESMX 131420Z 05003KT 020V110 6000 -SN FEW011 BKN040 M02/M05 Q1003 REFZRA=
201303131350 METAR ESMX 131350Z 08004KT 9999 -SN SCT011 BKN025 M02/M06 Q1003=
201303131320 METAR ESMX 131320Z 16003KT 110V220 4000 -SN FEW005 SCT010 M01/M06 Q1003=
201303131250 METAR ESMX 131250Z 17005KT 140V220 4700 -SN FEW009 SCT054 M02/M06 Q1003=
201303131220 METAR ESMX 131220Z 12005KT 080V150 6000 -FZRA FEW017 BKN025 M02/M06 Q1003=
201303131150 METAR ESMX 131150Z 14006KT 100V190 4100 -SN FEW008 BKN020 M02/M06 Q1003=
201303131120 METAR ESMX 131120Z 14005KT 110V180 7000 -SN FEW016 SCT018 BKN025 M02/M06 Q1003=
201303131050 METAR ESMX 131050Z 15007KT 120V190 7000 -SN SCT013 BKN020 M02/M05 Q1003 REFZRA=
201303131020 METAR ESMX 131020Z 15007KT 120V180 9999 -FZRA SCT012 BKN016 M03/M06 Q1003=
201303130950 METAR ESMX 130950Z 16006KT 4000 -SN FEW025 BKN040 M03/M06 Q1003=
201303130920 METAR ESMX 130920Z 15006KT 4000 -SN FEW011 SCT027 BKN065 M03/M07 Q1003=
201303130850 METAR ESMX 130850Z 15005KT 110V200 6000 -SN FEW020 BKN035 M03/M07 Q1003=
201303130820 METAR ESMX 130820Z 14004KT 100V170 7000 -SN FEW025 SCT029 M04/M07 Q1002=
201303130750 METAR ESMX 130750Z 16005KT 9999 FEW025 BKN040 M04/M07 Q1002=
201303130720 METAR ESMX 130720Z 13003KT 080V180 9999 FEW025 SCT040 M05/M08 Q1002=
201303130650 METAR ESMX 130650Z 13003KT 9999 -SN FEW025 BKN040 M06/M08 Q1002=
201303130620 METAR ESMX 130620Z VRB01KT 9999 -SN BKN040 M07/M09 Q1002=
201303130550 METAR ESMX 130550Z VRB01KT 9999 -SN BKN040 M08/M09 Q1002=
201303130520 METAR ESMX 130520Z VRB01KT 9999 BKN041 M08/M10 Q1002=
201303130450 METAR ESMX 130450Z VRB02KT 9999 FEW049 OVC073 M08/M09 Q1001=
201303130420 METAR ESMX 130420Z AUTO VRB01KT 9999NDV OVC074/// M08/M10 Q1002=
201303130350 METAR ESMX 130350Z AUTO 36001KT 9999NDV OVC076/// M08/M09 Q1001=
201303130320 METAR ESMX 130320Z AUTO VRB01KT 9999NDV FEW029/// SCT034/// OVC080/// M08/M09 Q1002=
201303130250 METAR ESMX 130250Z AUTO VRB02KT 9999NDV FEW031/// BKN083/// M09/M10 Q1002=
201303130220 METAR ESMX 130220Z AUTO 15002KT 9999NDV NCD M09/M10 Q1002=
201303130150 METAR ESMX 130150Z AUTO VRB01KT 9999NDV NCD M09/M11 Q1002=
201303130120 METAR ESMX 130120Z AUTO 00000KT 9999NDV NCD M09/M10 Q1002=
201303130050 METAR ESMX 130050Z AUTO 17003KT 9999NDV NCD M08/M10 Q1002=
201303130020 METAR ESMX 130020Z 17003KT CAVOK M08/M10 Q1002=
201303122350 METAR ESMX 122350Z 17003KT CAVOK M08/M10 Q1002=
201303122320 METAR ESMX 122320Z VRB01KT CAVOK M07/M10 Q1002=
201303122250 METAR ESMX 122250Z 16001KT CAVOK M07/M09 Q1002=
201303122220 METAR ESMX 122220Z 17003KT CAVOK M07/M09 Q1002=
201303122150 METAR ESMX 122150Z 15001KT CAVOK M06/M09 Q1002=
201303122120 METAR ESMX 122120Z 15003KT CAVOK M05/M09 Q1002=
201303122050 METAR ESMX 122050Z 16004KT CAVOK M04/M10 Q1002=
201303122020 METAR ESMX 122020Z 19004KT CAVOK M04/M09 Q1002=
201303121950 METAR ESMX 121950Z 24003KT CAVOK M04/M10 Q1002=
201303121920 METAR ESMX 121920Z 25004KT CAVOK M03/M10 Q1002=
201303121850 METAR ESMX 121850Z 26005KT CAVOK M03/M09 Q1002=
201303121820 METAR ESMX 121820Z 23004KT 9999 FEW038 M03/M09 Q1002=
201303121750 METAR ESMX 121750Z 22006KT 9999 FEW040 SCT065 M02/M09 Q1002=
201303121720 METAR ESMX 121720Z 19004KT 9999 FEW034 BKN062 M03/M08 Q1002=
201303121650 METAR ESMX 121650Z 20007KT 9999 SCT040 M01/M08 Q1002=
201303121620 METAR ESMX 121620Z 22008KT 9999 FEW041 BKN061 M01/M09 Q1002=
201303121550 METAR ESMX 121550Z 29003KT 9999 SCT045 M00/M10 Q1002=
201303121520 METAR ESMX 121520Z 27006KT 9999 FEW040 SCT050 M00/M11 Q1002=
201303121450 METAR ESMX 121450Z 26007KT 230V300 9999 BKN048 00/M10 Q1003=
201303121420 METAR ESMX 121420Z 28005KT 250V320 CAVOK 00/M11 Q1003=
201303121350 METAR ESMX 121350Z 22008KT 170V250 9999 BKN045 00/M10 Q1003=
201303121320 METAR ESMX 121320Z 24007KT 9999 FEW045 M00/M10 Q1003=
201303121250 METAR ESMX 121250Z 31004KT 270V350 9999 FEW040 M00/M10 Q1004=
201303121220 METAR ESMX 121220Z 29006KT 9999 FEW040 M01/M10 Q1004=
201303121150 METAR ESMX 121150Z 30005KT 250V330 9999 FEW037 00/M09 Q1004=
201303121120 METAR ESMX 121120Z 24005KT 150V320 CAVOK 00/M09 Q1005=
201303121050 METAR ESMX 121050Z 24006KT 210V290 CAVOK M00/M10 Q1005=
201303121020 METAR ESMX 121020Z 28005KT 240V340 CAVOK M01/M11 Q1005=
201303120950 METAR ESMX 120950Z VRB04KT CAVOK M02/M11 Q1006=
201303120920 METAR ESMX 120920Z 26004KT 200V310 CAVOK M02/M11 Q1006=
201303120850 METAR ESMX 120850Z 25006KT CAVOK M03/M11 Q1006=
201303120820 METAR ESMX 120820Z 00000KT CAVOK M04/M11 Q1006=
201303120750 METAR ESMX 120750Z VRB01KT CAVOK M08/M12 Q1007=
201303120720 METAR ESMX 120720Z VRB01KT CAVOK M10/M13 Q1007=
201303120650 METAR ESMX 120650Z 35001KT CAVOK M14/M16 Q1007=
201303120620 METAR ESMX 120620Z VRB01KT CAVOK M15/M17 Q1007=
201303120550 METAR ESMX 120550Z 16002KT CAVOK M16/M17 Q1007=
201303120520 METAR ESMX 120520Z 16002KT CAVOK M16/M18 Q1007=
201303120450 METAR ESMX 120450Z 00000KT CAVOK M16/M18 Q1007=
201303120420 METAR ESMX 120420Z AUTO 00000KT 9999NDV NCD M16/M18 Q1008=
201303120350 METAR ESMX 120350Z AUTO VRB02KT 9999NDV NCD M16/M18 Q1008=
201303120320 METAR ESMX 120320Z AUTO 00000KT 9999NDV NCD M16/M18 Q1008=
201303120250 METAR ESMX 120250Z AUTO 00000KT 9999NDV NCD M16/M17 Q1008=
201303120220 METAR ESMX 120220Z AUTO 00000KT 9999NDV NCD M15/M17 Q1009=
201303120150 METAR ESMX 120150Z AUTO 00000KT 9999NDV NCD M15/M17 Q1009=
201303120120 METAR ESMX 120120Z AUTO 00000KT 9999NDV NCD M15/M17 Q1009=
201303120050 METAR ESMX 120050Z 17002KT CAVOK M15/M17 Q1009=
201303120020 METAR ESMX 120020Z 32001KT CAVOK M14/M16 Q1010=
201303112350 METAR ESMX 112350Z 00000KT CAVOK M14/M16 Q1010=
201303112320 METAR ESMX 112320Z 00000KT CAVOK M14/M16 Q1010=
201303112250 METAR ESMX 112250Z 00000KT CAVOK M14/M16 Q1010=
201303112220 METAR ESMX 112220Z 00000KT CAVOK M14/M16 Q1010=
201303112150 METAR ESMX 112150Z 00000KT CAVOK M13/M16 Q1010=
201303112120 METAR ESMX 112120Z VRB02KT CAVOK M13/M16 Q1011=
201303112050 METAR ESMX 112050Z 01001KT CAVOK M12/M15 Q1011=
201303112020 METAR ESMX 112020Z VRB02KT CAVOK M12/M15 Q1011=
201303111950 METAR ESMX 111950Z 17002KT CAVOK M11/M15 Q1011=
201303111920 METAR ESMX 111920Z 18003KT CAVOK M11/M14 Q1011=
201303111850 METAR ESMX 111850Z 17003KT CAVOK M10/M14 Q1011=
201303111820 METAR ESMX 111820Z 16001KT CAVOK M09/M14 Q1011=
201303111750 METAR ESMX 111750Z 00000KT CAVOK M07/M14 Q1011=
201303111720 METAR ESMX 111720Z 01002KT CAVOK M05/M15 Q1011=
201303111650 METAR ESMX 111650Z 03004KT CAVOK M04/M16 Q1011=
201303111620 METAR ESMX 111620Z 03005KT CAVOK M03/M16 Q1011=
201303111550 METAR ESMX 111550Z 05006KT 010V080 CAVOK M02/M14 Q1011=
201303111520 METAR ESMX 111520Z 36006KT 320V030 CAVOK M02/M14 Q1011=
201303111450 METAR ESMX 111450Z 04008KT CAVOK M02/M13 Q1011=
201303111420 METAR ESMX 111420Z 02008KT CAVOK M03/M14 Q1012=
201303111350 METAR ESMX 111350Z 03008KT 340V060 9999 FEW040 M03/M13 Q1012=
201303111320 METAR ESMX 111320Z 36007KT 320V020 9999 FEW036 M03/M12 Q1012=
201303111250 METAR ESMX 111250Z 05008KT 020V090 9999 FEW025 M03/M12 Q1012=
201303111220 METAR ESMX 111220Z 05008KT 020V080 9999 FEW025 M03/M12 Q1013=
201303111150 METAR ESMX 111150Z 01008KT 9999 FEW018 M04/M12 Q1013=
201303111120 METAR ESMX 111120Z 02008KT 9999 FEW018 M04/M12 Q1013=
201303111050 METAR ESMX 111050Z 04011KT 9999 SCT025 M05/M11 Q1013=
201303111020 METAR ESMX 111020Z 02010KT 9999 FEW025 M04/M11 Q1014=
201303110950 METAR ESMX 110950Z 02012KT 350V050 9999 FEW025 M05/M11 Q1014=
201303110920 METAR COR ESMX 110920Z 02012KT 9999 FEW025 M06/M12 Q1014=
201303110850 METAR ESMX 110850Z 03010KT 360V060 CAVOK M07/M12 Q1014=
201303110820 METAR ESMX 110820Z 02010KT CAVOK M08/M12 Q1014=
201303110750 METAR ESMX 110750Z 36007KT CAVOK M08/M12 Q1014=
201303110720 METAR ESMX 110720Z 36008KT CAVOK M10/M12 Q1014=
201303110650 METAR ESMX 110650Z 36007KT CAVOK M11/M13 Q1014=
201303110620 METAR ESMX 110620Z 01007KT CAVOK M12/M14 Q1014=
201303110550 METAR ESMX 110550Z 36006KT CAVOK M12/M14 Q1014=
201303110520 METAR ESMX 110520Z 01007KT CAVOK M12/M14 Q1014=
201303110450 METAR ESMX 110450Z 01008KT 9999 FEW008 M11/M13 Q1014=
201303110420 METAR ESMX 110420Z AUTO 01008KT 9999NDV NCD M11/M13 Q1014=
201303110350 METAR ESMX 110350Z AUTO 01008KT 9999NDV FEW005/// M11/M13 Q1014=
201303110320 METAR ESMX 110320Z AUTO 01009KT 9999NDV FEW005/// SCT008/// BKN018/// M11/M13 Q1014=
201303110250 METAR ESMX 110250Z AUTO 01008KT 9999NDV FEW021/// M11/M13 Q1014=
201303110220 METAR ESMX 110220Z AUTO 01009KT 9999NDV FEW009/// M11/M13 Q1014=
201303110150 METAR ESMX 110150Z AUTO 36009KT 9999NDV -SN FEW005/// SCT008/// BKN023/// M10/M12 Q1014=
201303110120 METAR ESMX 110120Z AUTO 01009KT 9999NDV -SN FEW004/// SCT017/// M10/M12 Q1014=
201303110050 METAR ESMX 110050Z AUTO 02008KT 9999NDV -SN FEW005/// SCT026/// M10/M12 Q1014=
201303110020 METAR ESMX 110020Z 36009KT 9999 FEW006 SCT027 M10/M12 Q1015=
201303102350 METAR ESMX 102350Z 01008KT 9999 FEW008 M10/M11 Q1015=
201303102320 METAR ESMX 102320Z 01008KT 9999 SCT007 M10/M11 Q1015 RESG=
201303102250 METAR ESMX 102250Z 01008KT 9999 FEW005 SCT008 BKN010 M09/M11 Q1015=
201303102220 METAR ESMX 102220Z 01008KT 9999 -SN FEW005 SCT008 BKN010 M09/M10 Q1015=
201303102150 METAR ESMX 102150Z 01007KT 9999 -SN FEW005 SCT017 BKN022 M09/M10 Q1015=
201303102120 METAR ESMX 102120Z 03009KT 5000 -SHSN FEW008 SCT026 M08/M10 Q1015=
201303102050 METAR ESMX 102050Z 03010KT 5000 -SHSN FEW011 SCT023 BKN033 M08/M10 Q1015=
201303102020 METAR ESMX 102020Z 04010KT 4000 -SHSN FEW003 SCT015 BKN024 M08/M10 Q1015=
201303101950 METAR ESMX 101950Z 03008KT 9999 -SNSH FEW010 SCT014 BKN018 M08/M10 Q1015=
201303101920 METAR ESMX 101920Z 03010KT 7000 -SNSH FEW009 SCT024 BKN056 M07/M11 Q1015=
201303101850 METAR ESMX 101850Z 03011KT 9999 FEW029 SCT047 BKN056 M07/M13 Q1015=
201303101820 METAR ESMX 101820Z 02008KT 9999 FEW038 SCT046 M07/M15 Q1015=
201303101750 METAR ESMX 101750Z 06008KT 010V110 9999 FEW048 M06/M15 Q1015=
201303101720 METAR ESMX 101720Z 06011KT 020V100 9999 FEW049 M06/M16 Q1015=
201303101650 METAR ESMX 101650Z 03009G19KT 360V070 9999 SCT046 M05/M15 Q1014=
201303101620 METAR ESMX 101620Z 07011KT 040V140 9999 FEW040 SCT048 M05/M15 Q1014=
201303101550 METAR ESMX 101550Z 06010KT 020V100 9999 FEW012 SCT035 M05/M11 Q1014=
201303101520 METAR ESMX 101520Z 06009KT 030V100 9999 FEW014 M05/M12 Q1014=
201303101450 METAR ESMX 101450Z 02011KT 9999 FEW027 SCT054 M04/M10 Q1014=
201303101420 METAR ESMX 101420Z 04013KT 350V080 9999 SCT035 M04/M09 Q1014=
201303101350 METAR ESMX 101350Z 06010KT 020V090 9999 VCSH FEW015CB SCT030 M04/M12 Q1014=
201303101320 METAR COR ESMX 101320Z 08010KT 030V120 9999 -SN FEW015CB SCT032 M04/M11 Q1014=
201303101250 METAR ESMX 101250Z AUTO 05013G26KT 020V100 9999NDV FEW020/// SCT038/// BKN045/// M04/M11 Q1014=
201303101220 METAR ESMX 101220Z AUTO 04014KT 010V070 9999NDV FEW011/// SCT056/// M04/M12 Q1014=
201303101150 METAR ESMX 101150Z AUTO 04015KT 9999NDV SG FEW020/// SCT047/// M04/M10 Q1015=
201303101120 METAR ESMX 101120Z AUTO 04013KT 010V080 9999NDV FEW029/// SCT044/// BKN065/// M04/M11 Q1015=
201303101050 METAR ESMX 101050Z AUTO 07012G23KT 020V100 9999NDV FEW053/// M04/M15 Q1015=
201303101020 METAR ESMX 101020Z AUTO 05012KT 020V080 9999NDV FEW025/// SCT059/// M05/M14 Q1015=
201303100950 METAR ESMX 100950Z AUTO 05014KT 9999NDV -SN FEW017/// SCT034/// BKN044/// M04/M12 Q1015=
201303100920 METAR ESMX 100920Z AUTO 06012KT 020V100 9999NDV FEW003/// SCT015/// BKN030/// M04/M12 Q1015=
201303100850 METAR ESMX 100850Z AUTO 05012KT 020V080 9999NDV FEW022/// SCT037/// BKN058/// M04/M12 Q1015=
201303100820 METAR ESMX 100820Z AUTO 04011G21KT 350V110 9999NDV FEW042/// M04/M14 Q1015=
201303100750 METAR ESMX 100750Z AUTO 04013KT 9999NDV FEW039/// M05/M11 Q1015=
201303100720 METAR ESMX 100720Z AUTO 04011KT 9999NDV SCT100/// M06/M11 Q1015=
201303100650 METAR ESMX 100650Z AUTO 04010KT 9999NDV NCD M07/M12 Q1015=
201303100620 METAR ESMX 100620Z AUTO 02010KT 9999NDV FEW098/// M07/M12 Q1015=
201303100550 METAR ESMX 100550Z AUTO 02010KT 350V060 9999NDV FEW059/// SCT099/// M07/M12 Q1015=
201303100520 METAR ESMX 100520Z AUTO 04011KT 360V080 9999NDV SCT057/// M06/M14 Q1015=
201303100450 METAR ESMX 100450Z AUTO 06011G21KT 020V100 9999NDV BKN056/// M06/M13 Q1015=
201303100420 METAR ESMX 100420Z AUTO 06011KT 030V100 9999NDV OVC055/// M06/M13 Q1015=
201303100350 METAR ESMX 100350Z AUTO 05010KT 020V080 9999NDV OVC055/// M06/M13 Q1015=
201303100320 METAR ESMX 100320Z AUTO 05009KT 020V090 9999NDV FEW030/// BKN058/// M06/M13 Q1015=
201303100250 METAR ESMX 100250Z AUTO 04009KT 020V090 9999NDV FEW033/// SCT056/// BKN110/// M06/M13 Q1015=
201303100220 METAR ESMX 100220Z AUTO 04008KT 9999NDV FEW029/// BKN054/// M06/M13 Q1015=
201303100150 METAR ESMX 100150Z AUTO 05009KT 9999NDV FEW031/// M06/M13 Q1015=
201303100120 METAR ESMX 100120Z AUTO 04010KT 9999NDV FEW110/// M06/M13 Q1015=
201303100050 METAR ESMX 100050Z AUTO 05010KT 020V100 9999NDV NCD M06/M13 Q1015=
201303100020 METAR ESMX 100020Z AUTO 06011KT 030V090 9999NDV NCD M06/M13 Q1015=
201303092350 METAR ESMX 092350Z AUTO 05012KT 020V090 9999NDV NCD M06/M13 Q1015=
201303092320 METAR ESMX 092320Z AUTO 05010G21KT 020V090 9999NDV SCT047/// M06/M14 Q1016=
201303092250 METAR ESMX 092250Z AUTO 06010KT 020V100 9999NDV FEW047/// M06/M14 Q1016=
201303092220 METAR ESMX 092220Z AUTO 07009G20KT 050V110 9999NDV FEW031/// M06/M13 Q1016=
201303092150 METAR ESMX 092150Z AUTO 08009KT 050V120 9999NDV FEW023/// SCT035/// BKN042/// M06/M12 Q1016=
201303092120 METAR ESMX 092120Z AUTO 08011G21KT 050V110 9999NDV FEW028/// OVC037/// M05/M12 Q1016=
201303092050 METAR ESMX 092050Z AUTO 08011G22KT 030V110 9999NDV BKN035/// M05/M12 Q1016=
201303092020 METAR ESMX 092020Z AUTO 07008KT 030V100 9999NDV FEW032/// BKN041/// M05/M12 Q1016=
201303091950 METAR ESMX 091950Z AUTO 04009KT 010V080 9999NDV BKN042/// M05/M12 Q1016=
201303091920 METAR ESMX 091920Z AUTO 06007KT 030V100 9999NDV FEW027/// SCT040/// BKN045/// M05/M12 Q1016=
201303091850 METAR ESMX 091850Z AUTO 07009KT 030V100 9999NDV FEW031/// BKN046/// M04/M11 Q1016=
201303091820 METAR ESMX 091820Z AUTO 04008KT 360V090 9999NDV FEW035/// OVC046/// M04/M12 Q1016=
201303091750 METAR ESMX 091750Z AUTO 07009KT 040V110 9999NDV OVC045/// M04/M12 Q1016=
201303091720 METAR ESMX 091720Z AUTO 06010G21KT 030V100 9999NDV BKN045/// M04/M12 Q1016=
201303091650 METAR ESMX 091650Z AUTO 08009KT 030V120 9999NDV FEW028/// BKN043/// M04/M10 Q1016=
201303091620 METAR ESMX 091620Z AUTO 07011KT 030V110 4900NDV FZUP FEW006/// BKN026/// BKN038/// M04/M09 Q1016=
201303091550 METAR ESMX 091550Z AUTO 07010KT 030V100 9999NDV FEW014/// SCT033/// BKN044/// M03/M09 Q1016=
201303091520 METAR ESMX 091520Z AUTO 08011KT 040V110 9999NDV FEW026/// BKN033/// BKN043/// M03/M10 Q1016=
201303091450 METAR ESMX 091450Z AUTO 09011KT 050V140 9999NDV SCT034/// OVC042/// M03/M10 Q1016=
201303091420 METAR ESMX 091420Z AUTO 07009KT 030V130 9999NDV BKN039/// M02/M11 Q1016=
201303091350 METAR ESMX 091350Z AUTO 08011G21KT 030V110 9999NDV FEW038/// OVC047/// M02/M11 Q1016=
201303091320 METAR ESMX 091320Z AUTO 07010KT 040V110 9999NDV OVC035/// M02/M10 Q1016=
201303091250 METAR ESMX 091250Z AUTO 07010KT 040V110 9999NDV BKN028/// BKN048/// M02/M09 Q1016=
201303091220 METAR ESMX 091220Z AUTO 07011G21KT 030V100 9999NDV -SN FEW024/// SCT029/// BKN033/// M02/M08 Q1016=
201303091150 METAR ESMX 091150Z AUTO 06012KT 030V110 9999NDV -SN FEW021/// SCT027/// BKN041/// M02/M07 Q1016=
201303091120 METAR ESMX 091120Z AUTO 07011KT 030V100 9999NDV -SN FEW020/// SCT029/// BKN035/// M01/M08 Q1016 RESG=
201303091050 METAR ESMX 091050Z AUTO 07009KT 040V110 9999NDV -SN FEW022/// OVC028/// M02/M06 Q1016=
201303091020 METAR ESMX 091020Z 07009KT 030V110 9999 -SN OVC022 M02/M06 Q1016=
201303090950 METAR ESMX 090950Z 08010KT 030V110 9999 -SN FEW018 BKN020 OVC027 M02/M06 Q1017=
201303090920 METAR ESMX 090920Z 06008KT 010V110 9999 BKN016 BKN023 M02/M06 Q1017=
201303090850 METAR ESMX 090850Z 07010KT 030V120 9999 -SN BKN015 OVC020 M02/M06 Q1017 RESG=
201303090820 METAR ESMX 090820Z 07009KT 030V100 9999 SCT017 BKN020 M02/M07 Q1017=
201303090750 METAR ESMX 090750Z AUTO 06009KT 020V110 9999NDV NCD M03/M07 Q1017=
201303090720 METAR ESMX 090720Z AUTO 06008KT 040V100 9999NDV NCD M04/M07 Q1016=
201303090650 METAR ESMX 090650Z AUTO 07008KT 030V110 9999NDV NCD M04/M07 Q1016=
201303090620 METAR ESMX 090620Z AUTO 07007KT 040V100 9999NDV NCD M05/M08 Q1016=
201303090550 METAR ESMX 090550Z AUTO 07006KT 030V100 9999NDV NCD M05/M08 Q1016=
201303090520 METAR ESMX 090520Z AUTO 07006KT 030V120 9999NDV NCD M05/M08 Q1016=
201303090450 METAR ESMX 090450Z AUTO 07007KT 020V090 9999NDV NCD M05/M08 Q1016=
201303090420 METAR ESMX 090420Z AUTO 07007KT 030V100 9999NDV NCD M05/M08 Q1016=
201303090350 METAR ESMX 090350Z AUTO 06007KT 030V090 9999NDV NCD M06/M09 Q1016=
201303090320 METAR ESMX 090320Z AUTO 05006KT 9999NDV NCD M06/M09 Q1017=
201303090250 METAR ESMX 090250Z AUTO 05006KT 020V100 9999NDV NCD M06/M09 Q1017=
201303090220 METAR ESMX 090220Z AUTO 06006KT 020V100 9999NDV NCD M06/M08 Q1017=
201303090150 METAR ESMX 090150Z AUTO 06005KT 020V100 9999NDV NCD M06/M08 Q1017=
201303090120 METAR ESMX 090120Z AUTO 01005KT 9999NDV NCD M06/M08 Q1017=
201303090050 METAR ESMX 090050Z AUTO 04005KT 020V080 9999NDV NCD M06/M08 Q1017=
201303090020 METAR ESMX 090020Z AUTO 05006KT 9999NDV NCD M06/M08 Q1017=
201303082350 METAR ESMX 082350Z AUTO 05005KT 9999NDV NCD M05/M08 Q1017=
201303082320 METAR ESMX 082320Z AUTO 06005KT 9999NDV NCD M05/M08 Q1017=
201303082250 METAR ESMX 082250Z AUTO 06004KT 020V100 9999NDV NCD M05/M08 Q1018=
201303082220 METAR ESMX 082220Z AUTO 07004KT 020V090 9999NDV NCD M05/M08 Q1018=
201303082150 METAR ESMX 082150Z AUTO 03004KT 9999NDV NCD M05/M08 Q1018=
201303082120 METAR ESMX 082120Z AUTO 06005KT 030V090 9999NDV NCD M04/M08 Q1018=
201303082050 METAR ESMX 082050Z AUTO 04006KT 010V070 9999NDV NCD M04/M08 Q1018=
201303082020 METAR ESMX 082020Z AUTO 06005KT 030V110 9999NDV NCD M04/M07 Q1018=
201303081950 METAR ESMX 081950Z 06005KT 020V090 CAVOK M04/M08 Q1018=
201303081920 METAR ESMX 081920Z 07006KT CAVOK M03/M08 Q1018=
201303081850 METAR ESMX 081850Z 07006KT 030V100 CAVOK M03/M08 Q1018=
201303081820 METAR ESMX 081820Z 07006KT 040V110 CAVOK M02/M08 Q1018=
201303081750 METAR ESMX 081750Z 07005KT CAVOK M02/M08 Q1018=
201303081720 METAR ESMX 081720Z 07006KT 030V100 CAVOK M02/M08 Q1018=
201303081650 METAR ESMX 081650Z 07006KT 030V110 CAVOK M01/M09 Q1018=
201303081620 METAR ESMX 081620Z 08005KT 040V120 CAVOK M00/M10 Q1018=
201303081550 METAR COR ESMX 081550Z 08008KT 040V110 CAVOK 01/M11 Q1018=
201303081520 METAR ESMX 081520Z 07007KT 020V110 CAVOK 01/M10 Q1018=
201303081450 METAR ESMX 081450Z 08008KT 030V120 CAVOK 02/M11 Q1018=
201303081420 METAR ESMX 081420Z 10007KT 050V140 CAVOK 02/M12 Q1018=
201303081350 METAR ESMX 081350Z 10009KT 030V140 CAVOK 02/M11 Q1019=
201303081320 METAR ESMX 081320Z 09006KT 060V120 CAVOK 02/M10 Q1019=
201303081250 METAR ESMX 081250Z 08008KT 030V140 CAVOK 02/M10 Q1019=
201303081220 METAR ESMX 081220Z 08008KT 030V120 CAVOK 02/M10 Q1019=
201303081150 METAR ESMX 081150Z 08008KT 050V150 CAVOK 02/M10 Q1020=
201303081120 METAR ESMX 081120Z 09007KT 010V140 CAVOK 01/M10 Q1020=
201303081050 METAR ESMX 081050Z 09008KT 030V150 CAVOK 01/M08 Q1020=
201303081020 METAR ESMX 081020Z 10008KT 060V140 CAVOK 01/M08 Q1020=
201303080950 METAR ESMX 080950Z 08008KT 040V120 CAVOK 00/M08 Q1020=
201303080920 METAR ESMX 080920Z 08007KT 030V120 CAVOK M00/M07 Q1020=
201303080850 METAR ESMX 080850Z 09010KT 040V130 CAVOK M01/M07 Q1020=
201303080820 METAR ESMX 080820Z 08009KT 040V120 CAVOK M01/M07 Q1020=
201303080750 METAR ESMX 080750Z 06006KT 030V100 CAVOK M02/M07 Q1020=
201303080720 METAR ESMX 080720Z 07005KT CAVOK M03/M07 Q1020=
201303080650 METAR ESMX 080650Z 06005KT 030V100 CAVOK M04/M07 Q1019=
201303080620 METAR ESMX 080620Z 06006KT 020V100 CAVOK M05/M07 Q1019=
201303080550 METAR ESMX 080550Z 06006KT CAVOK M05/M07 Q1019=
201303080520 METAR ESMX 080520Z 06005KT CAVOK M05/M07 Q1019=
201303080450 METAR COR ESMX 080450Z 06005KT CAVOK M05/M07 Q1019=
201303080420 METAR ESMX 080420Z AUTO 06005KT 020V100 9999NDV NCD M05/M07 Q1019=
201303080350 METAR ESMX 080350Z AUTO 06004KT 020V100 9999NDV NCD M05/M07 Q1019=
201303080320 METAR ESMX 080320Z AUTO 06005KT 9999NDV NCD M05/M08 Q1019=
201303080250 METAR ESMX 080250Z AUTO 06005KT 030V100 9999NDV NCD M04/M08 Q1019=
201303080220 METAR ESMX 080220Z AUTO 07005KT 040V100 9999NDV NCD M04/M08 Q1019=
201303080150 METAR ESMX 080150Z AUTO 07006KT 9999NDV NCD M04/M08 Q1019=
201303080120 METAR ESMX 080120Z 07006KT 040V100 CAVOK M04/M08 Q1019=
201303080050 METAR ESMX 080050Z 07006KT 030V110 CAVOK M04/M08 Q1019=
201303080020 METAR ESMX 080020Z 07007KT 040V100 CAVOK M04/M08 Q1019=
201303072350 METAR ESMX 072350Z 07006KT 040V110 CAVOK M04/M08 Q1019=
201303072320 METAR ESMX 072320Z 06007KT 030V110 CAVOK M04/M08 Q1019=
201303072250 METAR ESMX 072250Z 07006KT CAVOK M03/M08 Q1019=
201303072220 METAR ESMX 072220Z 06006KT CAVOK M03/M08 Q1019=
201303072150 METAR ESMX 072150Z 05005KT 010V120 CAVOK M03/M08 Q1019=
201303072120 METAR ESMX 072120Z 07005KT 050V110 CAVOK M03/M08 Q1019=
201303072050 METAR ESMX 072050Z 07004KT 030V120 CAVOK M03/M09 Q1019=
201303072020 METAR ESMX 072020Z 07005KT 030V110 CAVOK M03/M09 Q1019=
201303071950 METAR ESMX 071950Z 08004KT 030V110 CAVOK M03/M10 Q1019=
201303071920 METAR ESMX 071920Z 08004KT 030V110 CAVOK M02/M11 Q1019=
201303071850 METAR ESMX 071850Z 07005KT 030V120 CAVOK M02/M12 Q1018=
201303071820 METAR ESMX 071820Z VRB05KT CAVOK M01/M13 Q1018=
201303071750 METAR ESMX 071750Z 08005KT 040V110 CAVOK M01/M14 Q1018=
201303071720 METAR ESMX 071720Z 09004KT 030V140 CAVOK M01/M14 Q1018=
201303071650 METAR ESMX 071650Z 10004KT 070V150 CAVOK 00/M13 Q1017=
201303071620 METAR ESMX 071620Z 05006KT 010V080 CAVOK 01/M14 Q1017=
201303071550 METAR ESMX 071550Z 05005KT 010V080 CAVOK 02/M14 Q1017=
201303071520 METAR ESMX 071520Z 06007KT 030V100 CAVOK 02/M15 Q1017=
201303071450 METAR ESMX 071450Z 05009KT 020V080 CAVOK 03/M14 Q1017=
201303071420 METAR ESMX 071420Z 04010KT CAVOK 02/M14 Q1017=
201303071350 METAR ESMX 071350Z 04010KT CAVOK 02/M14 Q1017=
201303071320 METAR ESMX 071320Z 04010KT 010V070 CAVOK 03/M14 Q1017=
201303071250 METAR ESMX 071250Z 03012KT CAVOK 02/M13 Q1017=
201303071220 METAR ESMX 071220Z 06009KT 020V100 CAVOK 03/M14 Q1017=
201303071150 METAR ESMX 071150Z 04010KT 020V080 CAVOK 03/M14 Q1017=
201303071120 METAR ESMX 071120Z 04009KT CAVOK 03/M13 Q1018=
201303071050 METAR ESMX 071050Z 05009KT 020V100 CAVOK 02/M14 Q1018=
201303071020 METAR ESMX 071020Z 05009KT 010V100 CAVOK 02/M14 Q1018=
201303070950 METAR ESMX 070950Z 05009KT 020V100 CAVOK 02/M13 Q1018=
201303070920 METAR ESMX 070920Z 04008KT 010V070 CAVOK 00/M10 Q1018=
201303070820 METAR ESMX 070820Z 05008KT CAVOK M00/M07 Q1018=
201303070750 METAR ESMX 070750Z 04007KT 360V090 CAVOK M00/M06 Q1017=
201303070650 METAR ESMX 070650Z 04008KT CAVOK M01/M06 Q1016=
201303070620 METAR ESMX 070620Z 04008KT CAVOK M01/M06 Q1016=
201303070550 METAR ESMX 070550Z 04008KT CAVOK M02/M05 Q1016=
201303070520 METAR ESMX 070520Z 04007KT CAVOK M01/M05 Q1016=
201303070450 METAR ESMX 070450Z 06005KT 030V090 CAVOK M01/M06 Q1015=
201303070420 METAR ESMX 070420Z AUTO 05006KT 020V100 9999NDV OVC110/// M00/M06 Q1015=
201303070350 METAR ESMX 070350Z AUTO 06007KT 030V100 9999NDV BKN110/// 00/M06 Q1015=
201303070320 METAR ESMX 070320Z AUTO 04007KT 010V080 9999NDV BKN110/// 01/M07 Q1015=
201303070250 METAR ESMX 070250Z AUTO 05008KT 9999NDV BKN110/// 01/M07 Q1015=
201303070220 METAR ESMX 070220Z AUTO 06006KT 9999NDV BKN100/// 01/M08 Q1015=
201303070150 METAR ESMX 070150Z AUTO 06008KT 020V090 9999NDV BKN100/// 02/M08 Q1014=
201303070120 METAR ESMX 070120Z AUTO 06010KT 020V090 9999NDV OVC100/// 02/M09 Q1014=
201303070050 METAR ESMX 070050Z 05007KT 010V090 CAVOK 02/M08 Q1014=
201303070020 METAR ESMX 070020Z 05008KT 030V100 CAVOK 02/M08 Q1014=
201303062350 METAR ESMX 062350Z 06007KT 030V090 CAVOK 03/M08 Q1014=
201303062250 METAR ESMX 062250Z 04008KT CAVOK 03/M07 Q1013=
201303062220 METAR ESMX 062220Z 05007KT 020V080 CAVOK 03/M07 Q1013=
201303062150 METAR ESMX 062150Z 04007KT CAVOK 03/M07 Q1013=
201303062120 METAR ESMX 062120Z 03007KT CAVOK 03/M06 Q1013=
201303062050 METAR ESMX 062050Z 01003KT 340V060 CAVOK 03/M06 Q1012=
201303062020 METAR ESMX 062020Z 04004KT CAVOK 03/M06 Q1012=
201303061950 METAR ESMX 061950Z 02005KT CAVOK 04/M06 Q1012=
201303061920 METAR ESMX 061920Z 02007KT CAVOK 04/M06 Q1011=
201303061850 METAR ESMX 061850Z 02008KT CAVOK 04/M07 Q1011=
201303061820 METAR ESMX 061820Z 01007KT CAVOK 05/M07 Q1011=
201303061750 METAR ESMX 061750Z 02007KT CAVOK 05/M06 Q1010=
201303061720 METAR ESMX 061720Z 01007KT CAVOK 05/M06 Q1010=
201303061650 METAR ESMX 061650Z 01007KT CAVOK 05/M03 Q1010=
201303061620 METAR ESMX 061620Z 01006KT CAVOK 05/M03 Q1009=
201303061550 METAR ESMX 061550Z 01007KT CAVOK 06/M03 Q1009=
201303061520 METAR ESMX 061520Z 01008KT CAVOK 06/M03 Q1008=
201303061450 METAR ESMX 061450Z 01007KT CAVOK 07/M03 Q1008=
201303061420 METAR ESMX 061420Z 01010KT CAVOK 08/M03 Q1008=
201303061350 METAR ESMX 061350Z 36007KT CAVOK 09/M00 Q1008=
201303061320 METAR ESMX 061320Z 33006KT CAVOK 08/M00 Q1008=
201303061250 METAR ESMX 061250Z 36003KT CAVOK 07/M00 Q1008=
201303061220 METAR ESMX 061220Z 30004KT 270V330 CAVOK 08/00 Q1008=
201303061150 METAR ESMX 061150Z 33006KT CAVOK 08/00 Q1007=
201303061120 METAR ESMX 061120Z 29005KT CAVOK 08/00 Q1007=
201303061050 METAR ESMX 061050Z 30004KT 9000 BR SCT085 07/00 Q1007=
201303061020 METAR ESMX 061020Z VRB01KT CAVOK 09/00 Q1007=
201303060950 METAR ESMX 060950Z VRB01KT CAVOK 06/M00 Q1007=
201303060920 METAR ESMX 060920Z VRB02KT 9000 BR NSC 04/M00 Q1007=
201303060850 METAR ESMX 060850Z 00000KT 9000 BR NSC 04/M01 Q1007=
201303060820 METAR ESMX 060820Z VRB01KT 7000 BR NSC 01/M01 Q1007=
201303060750 METAR ESMX 060750Z 01001KT 4700 BR NSC M01/M02 Q1007=
201303060720 METAR ESMX 060720Z 19001KT 4200 BR NSC M03/M04 Q1006=
201303060650 METAR ESMX 060650Z 19002KT 4600 BR NSC M05/M05 Q1006=
201303060620 METAR ESMX 060620Z 00000KT 4800 BR NSC M05/M06 Q1006=
201303060550 METAR ESMX 060550Z 00000KT 4500 BR NSC M06/M07 Q1006=
201303060520 METAR ESMX 060520Z 19001KT 3700 BR NSC M05/M06 Q1006=
201303060450 METAR ESMX 060450Z 19002KT 3100 BR NSC M05/M06 Q1006=
201303060420 METAR ESMX 060420Z AUTO 17003KT 3400NDV BR NCD M05/M05 Q1006=
201303060350 METAR ESMX 060350Z AUTO 00000KT 6000NDV BR NCD M05/M06 Q1006=
201303060320 METAR ESMX 060320Z AUTO 00000KT 2900NDV BR NCD M04/M05 Q1006=
201303060250 METAR ESMX 060250Z AUTO 15001KT 2600NDV BR NCD M04/M05 Q1007=
201303060220 METAR ESMX 060220Z AUTO 00000KT 0700NDV R01/P2000N R19/P2000 BR NCD M04/M05 Q1007=
201303060150 METAR ESMX 060150Z AUTO 00000KT 1300NDV R01/P2000N R19/P2000N BR NCD M05/M05 Q1007=
201303060120 METAR ESMX 060120Z AUTO 00000KT 2700NDV BR NCD M04/M05 Q1007=
201303060050 METAR ESMX 060050Z 25002KT 4300 BR NSC M04/M05 Q1007=
201303060020 METAR ESMX 060020Z 00000KT 4000 BR NSC M03/M04 Q1007=
201303052350 METAR ESMX 052350Z 21004KT 5000 BR NSC M02/M03 Q1007=
201303052320 METAR ESMX 052320Z 20004KT 6000 BR NSC M02/M03 Q1008=
201303052250 METAR ESMX 052250Z 18003KT 7000 BR NSC M02/M03 Q1008=
201303052220 METAR ESMX 052220Z 18002KT 8000 BR NSC M02/M04 Q1008=
201303052150 METAR ESMX 052150Z 17003KT 9000 BR NSC M01/M03 Q1008=
201303052120 METAR ESMX 052120Z 18004KT CAVOK M01/M03 Q1008=
201303052050 METAR ESMX 052050Z 18005KT CAVOK M00/M03 Q1008=
201303052020 METAR ESMX 052020Z 17006KT CAVOK 00/M03 Q1008=
201303051950 METAR ESMX 051950Z 17005KT CAVOK 00/M03 Q1008=
201303051920 METAR ESMX 051920Z 16006KT CAVOK 01/M03 Q1009=
201303051850 METAR ESMX 051850Z 16005KT CAVOK 02/M03 Q1009=
201303051820 METAR ESMX 051820Z 17006KT CAVOK 03/M03 Q1009=
201303051750 METAR ESMX 051750Z 16007KT CAVOK 04/M03 Q1009=
201303051720 METAR ESMX 051720Z 17006KT CAVOK 04/M03 Q1009=
201303051650 METAR ESMX 051650Z 17007KT CAVOK 05/M04 Q1009=
201303051620 METAR ESMX 051620Z 17007KT CAVOK 06/M04 Q1009=
201303051550 METAR ESMX 051550Z 17007KT CAVOK 07/M04 Q1009=
201303051520 METAR ESMX 051520Z 17008KT CAVOK 07/M03 Q1009=
201303051450 METAR ESMX 051450Z 17009KT CAVOK 08/M04 Q1009=
201303051420 METAR ESMX 051420Z 17008KT CAVOK 08/M04 Q1010=
201303051350 METAR ESMX 051350Z 17009KT CAVOK 08/M04 Q1010=
201303051320 METAR ESMX 051320Z 17009KT CAVOK 07/M04 Q1011=
201303051250 METAR ESMX 051250Z 16009KT CAVOK 07/M03 Q1011=
201303051220 METAR ESMX 051220Z 18009KT CAVOK 07/M03 Q1011=
201303051150 METAR COR ESMX 051150Z 17009KT CAVOK 06/M02 Q1012=
201303051120 METAR ESMX 051120Z 17009KT CAVOK 06/M02 Q1012=
201303051050 METAR ESMX 051050Z 16007KT CAVOK 05/M01 Q1013=
201303051020 METAR ESMX 051020Z 16006KT CAVOK 05/M01 Q1013=
201303050950 METAR ESMX 050950Z 17003KT 140V200 CAVOK 03/M01 Q1014=
201303050920 METAR ESMX 050920Z 16005KT CAVOK 02/M01 Q1014=
201303050850 METAR ESMX 050850Z 15004KT 110V190 CAVOK 01/M02 Q1014=
201303050820 METAR ESMX 050820Z 16004KT 120V200 CAVOK M00/M02 Q1014=
201303050750 METAR ESMX 050750Z 16004KT CAVOK M02/M03 Q1014=
201303050720 METAR ESMX 050720Z 15003KT 120V190 CAVOK M02/M03 Q1015=
201303050650 METAR ESMX 050650Z 11002KT 7000 BCFG BKN200 M04/M04 Q1015=
201303050620 METAR ESMX 050620Z 00000KT 9999 R19/P2000 BCFG BKN200 M04/M05 Q1015=
201303050550 METAR ESMX 050550Z 00000KT CAVOK M04/M05 Q1015=
201303050520 METAR ESMX 050520Z 21003KT CAVOK M04/M04 Q1015=
201303050450 METAR ESMX 050450Z 20005KT CAVOK M04/M04 Q1015=
201303050420 METAR ESMX 050420Z AUTO 20005KT 9999NDV NCD M04/M05 Q1015=
201303050350 METAR ESMX 050350Z AUTO 18004KT 9999NDV NCD M03/M04 Q1016=
201303050320 METAR ESMX 050320Z AUTO 17003KT 9999NDV NCD M02/M03 Q1016=
201303050250 METAR ESMX 050250Z AUTO 19003KT 9999NDV NCD M03/M03 Q1016=
201303050220 METAR ESMX 050220Z AUTO 22005KT 9999NDV NCD M02/M03 Q1016=
201303050150 METAR ESMX 050150Z AUTO 22005KT 9999NDV NCD M02/M03 Q1016=
201303050120 METAR ESMX 050120Z AUTO 22005KT 9999NDV NCD M02/M03 Q1016=
201303050050 METAR ESMX 050050Z 22005KT CAVOK M02/M03 Q1017=
201303050020 METAR ESMX 050020Z 20005KT CAVOK M01/M03 Q1017=
201303042350 METAR ESMX 042350Z 22006KT CAVOK M01/M03 Q1017=
201303042320 METAR ESMX 042320Z 20005KT CAVOK M01/M03 Q1017=
201303042250 METAR ESMX 042250Z 23006KT CAVOK M01/M02 Q1017=
201303042220 METAR ESMX 042220Z 22008KT CAVOK M00/M02 Q1017=
201303042150 METAR ESMX 042150Z 20007KT 9999 FEW031 00/M02 Q1017=
201303042120 METAR ESMX 042120Z 22008KT 9999 OVC031 01/M02 Q1017=
201303042050 METAR ESMX 042050Z 21007KT 9999 OVC030 01/M01 Q1018=
201303042020 METAR ESMX 042020Z 23007KT 9999 OVC029 02/M01 Q1018=
201303041950 METAR ESMX 041950Z 24007KT 9999 FEW018 OVC029 02/M01 Q1017=
201303041920 METAR ESMX 041920Z 22007KT 9999 SCT017 BKN024 OVC029 02/M00 Q1017=
201303041850 METAR ESMX 041850Z 21007KT 9999 FEW014 SCT020 OVC029 02/M00 Q1017=
201303041820 METAR ESMX 041820Z 23006KT 200V270 9999 BKN024 OVC031 02/M00 Q1017=
201303041750 METAR ESMX 041750Z 22006KT 9999 OVC025 02/M00 Q1017=
201303041720 METAR ESMX 041720Z 24006KT 9999 OVC024 02/M00 Q1017=
201303041650 METAR ESMX 041650Z 24007KT 9999 FEW015 OVC019 03/M00 Q1017=
201303041620 METAR ESMX 041620Z 25007KT 9999 OVC017 03/M00 Q1017=
201303041550 METAR ESMX 041550Z 26009KT 9999 OVC015 03/M00 Q1017=
201303041520 METAR ESMX 041520Z 26009KT 230V290 9999 OVC015 03/M01 Q1017=
201303041450 METAR ESMX 041450Z 25009KT 200V280 9999 OVC016 03/M01 Q1017=
201303041420 METAR ESMX 041420Z 26010KT 9999 OVC015 03/M01 Q1017=
201303041350 METAR ESMX 041350Z 26011KT 9999 OVC013 03/M01 Q1017=
201303041320 METAR ESMX 041320Z 26013KT 9999 OVC013 03/M01 Q1017=
201303041250 METAR ESMX 041250Z 26010KT 9999 OVC013 02/M01 Q1017=
201303041220 METAR ESMX 041220Z 26013KT 9999 OVC014 02/M01 Q1017=
201303041150 METAR ESMX 041150Z 26012KT 9999 SCT016 BKN020 02/M02 Q1017=
201303041120 METAR ESMX 041120Z 25014KT 9999 SCT020 03/M02 Q1017=
201303041050 METAR ESMX 041050Z 23010KT 200V260 CAVOK 03/M03 Q1017=
201303041020 METAR ESMX 041020Z 23009KT 200V290 CAVOK 02/M03 Q1018=
201303040950 METAR ESMX 040950Z 24007KT CAVOK 02/M03 Q1018=
201303040920 METAR ESMX 040920Z 23007KT CAVOK 01/M03 Q1018=
201303040850 METAR ESMX 040850Z 20007KT CAVOK M00/M04 Q1018=
201303040820 METAR ESMX 040820Z 21006KT CAVOK M02/M05 Q1018=
201303040720 METAR ESMX 040720Z 21006KT CAVOK M03/M06 Q1018=
201303040650 METAR ESMX 040650Z 21006KT CAVOK M04/M06 Q1018=
201303040620 METAR ESMX 040620Z 19006KT CAVOK M04/M07 Q1018=
201303040550 METAR ESMX 040550Z 21005KT CAVOK M05/M07 Q1018=
201303040520 METAR ESMX 040520Z 17004KT CAVOK M05/M08 Q1018=
201303040450 METAR ESMX 040450Z 20004KT CAVOK M05/M08 Q1018=
201303040420 METAR ESMX 040420Z AUTO 22006KT 9999NDV NCD M07/M09 Q1018=
201303040350 METAR ESMX 040350Z AUTO 16003KT 9999NDV NCD M07/M08 Q1018=
201303040320 METAR ESMX 040320Z AUTO 19002KT 9999NDV NCD M08/M09 Q1019=
201303040250 METAR ESMX 040250Z AUTO 20002KT 9999NDV NCD M07/M09 Q1019=
201303040220 METAR ESMX 040220Z AUTO 16003KT 9999NDV NCD M05/M08 Q1019=
201303040150 METAR ESMX 040150Z AUTO 17002KT 9999NDV NCD M06/M08 Q1019=
201303040120 METAR ESMX 040120Z AUTO 23003KT 9999NDV NCD M05/M07 Q1019=
201303040050 METAR ESMX 040050Z 25002KT CAVOK M04/M07 Q1019=
201303040020 METAR ESMX 040020Z 25005KT CAVOK M04/M07 Q1019=
201303032350 METAR ESMX 032350Z 25004KT CAVOK M04/M08 Q1019=
201303032320 METAR ESMX 032320Z 25004KT CAVOK M04/M08 Q1019=
201303032220 METAR ESMX 032220Z 24006KT CAVOK M04/M08 Q1019=
201303032150 METAR ESMX 032150Z 24003KT CAVOK M04/M08 Q1018=
201303032120 METAR ESMX 032120Z 16002KT CAVOK M04/M08 Q1018=
201303032050 METAR ESMX 032050Z 25003KT CAVOK M05/M08 Q1018=
201303032020 METAR ESMX 032020Z VRB01KT CAVOK M04/M08 Q1018=
201303031950 METAR ESMX 031950Z 29003KT CAVOK M03/M08 Q1017=
201303031920 METAR ESMX 031920Z VRB02KT CAVOK M02/M08 Q1017=
201303031850 METAR ESMX 031850Z 31005KT CAVOK 00/M08 Q1017=
201303031750 METAR ESMX 031750Z 30004KT CAVOK M00/M08 Q1016=
201303031720 METAR ESMX 031720Z 33004KT CAVOK 01/M08 Q1016=
201303031650 METAR ESMX 031650Z 29006KT CAVOK 03/M08 Q1016=
201303031620 METAR ESMX 031620Z 31006KT CAVOK 04/M08 Q1015=
201303031550 METAR ESMX 031550Z 30010KT CAVOK 04/M08 Q1015=
201303031520 METAR ESMX 031520Z 30009KT CAVOK 05/M08 Q1014=
201303031450 METAR ESMX 031450Z 30012KT CAVOK 05/M08 Q1014=
201303031420 METAR ESMX 031420Z 30012KT CAVOK 05/M08 Q1014=
201303031350 METAR ESMX 031350Z 28011KT CAVOK 05/M08 Q1014=
201303031320 METAR ESMX 031320Z 29012KT 270V360 CAVOK 05/M08 Q1013=
201303031250 METAR ESMX 031250Z AUTO 31013KT 9999NDV NCD 04/M08 Q1013=
201303031220 METAR ESMX 031220Z AUTO 31013KT 9999NDV NCD 04/M09 Q1013=
201303031150 METAR ESMX 031150Z AUTO 30012KT 270V340 9999NDV NCD 04/M07 Q1013=
201303031120 METAR ESMX 031120Z AUTO 31013KT 9999NDV NCD 04/M08 Q1012=
201303031050 METAR ESMX 031050Z AUTO 32012KT 9999NDV NCD 03/M08 Q1012=
201303031020 METAR ESMX 031020Z AUTO 31013KT 280V340 9999NDV NCD 03/M08 Q1012=
201303030950 METAR ESMX 030950Z AUTO 32013KT 9999NDV NCD 03/M08 Q1011=
201303030920 METAR ESMX 030920Z AUTO 31014KT 9999NDV NCD 02/M08 Q1011=
201303030850 METAR ESMX 030850Z AUTO 32014KT 9999NDV NCD 02/M08 Q1011=
201303030820 METAR ESMX 030820Z AUTO 30012KT 9999NDV NCD 01/M08 Q1010=
201303030750 METAR ESMX 030750Z AUTO 30010KT 260V330 9999NDV NCD 01/M08 Q1010=
201303030720 METAR ESMX 030720Z AUTO 30010KT 9999NDV NCD 00/M08 Q1009=
201303030650 METAR ESMX 030650Z AUTO 29011KT 9999NDV NCD M00/M08 Q1009=
201303030620 METAR ESMX 030620Z AUTO 30010KT 9999NDV NCD M01/M08 Q1008=
201303030550 METAR ESMX 030550Z AUTO 30011KT 9999NDV NCD M01/M08 Q1008=
201303030520 METAR ESMX 030520Z AUTO 30011KT 9999NDV NCD M00/M07 Q1007=
201303030450 METAR ESMX 030450Z AUTO 31010KT 9999NDV NCD M00/M07 Q1007=
201303030420 METAR ESMX 030420Z AUTO 31012KT 9999NDV NCD M00/M07 Q1006=
201303030350 METAR ESMX 030350Z AUTO 30012KT 9999NDV NCD 00/M07 Q1006=
201303030320 METAR ESMX 030320Z AUTO 30012KT 9999NDV NCD 00/M07 Q1005=
201303030250 METAR ESMX 030250Z AUTO 29013KT 9999NDV NCD 01/M07 Q1005=
201303030220 METAR ESMX 030220Z AUTO 30015KT 9999NDV NCD 01/M07 Q1005=
201303030150 METAR ESMX 030150Z AUTO 29013KT 9999NDV NCD 01/M07 Q1004=
201303030120 METAR ESMX 030120Z AUTO 29012KT 9999NDV NCD 01/M06 Q1004=
201303030050 METAR ESMX 030050Z AUTO 29014KT 9999NDV NCD 01/M06 Q1004=
201303030020 METAR ESMX 030020Z AUTO 29013KT 9999NDV NCD 01/M06 Q1004=
201303022350 METAR ESMX 022350Z AUTO 29013G23KT 9999NDV NCD 01/M05 Q1004=
201303022320 METAR ESMX 022320Z AUTO 29013KT 9999NDV NCD 01/M05 Q1004=
201303022250 METAR ESMX 022250Z AUTO 29012KT 9999NDV NCD 01/M05 Q1004=
201303022220 METAR ESMX 022220Z AUTO 28013KT 9999NDV NCD 02/M04 Q1003=
201303022150 METAR ESMX 022150Z AUTO 28011KT 9999NDV NCD 02/M03 Q1003=
201303022120 METAR ESMX 022120Z AUTO 28012KT 9999NDV NCD 02/M01 Q1003=
201303022050 METAR ESMX 022050Z AUTO 28011KT 9999NDV NCD 02/M01 Q1003=
201303022020 METAR ESMX 022020Z AUTO 27010KT 9999NDV NCD 02/00 Q1003=
201303021950 METAR ESMX 021950Z AUTO 27010KT 9999NDV NCD 03/01 Q1002=
201303021920 METAR ESMX 021920Z AUTO 27010KT 9999NDV FEW010/// 03/01 Q1002=
201303021850 METAR ESMX 021850Z AUTO 27011KT 9999NDV FEW006/// SCT009/// BKN011/// 03/02 Q1002=
201303021820 METAR ESMX 021820Z AUTO 27014KT 9999NDV BKN005/// OVC008/// 03/02 Q1002 REDZ=
201303021750 METAR ESMX 021750Z AUTO 27014KT 7000NDV BR OVC004/// 03/02 Q1002=
201303021720 METAR ESMX 021720Z AUTO 27014G24KT 6000NDV BR OVC004/// 03/02 Q1002=
201303021650 METAR ESMX 021650Z AUTO 26014KT 4000NDV -DZ OVC005/// 03/02 Q1002=
201303021620 METAR ESMX 021620Z AUTO 26016KT 2500NDV DZ OVC005/// 03/02 Q1002=
201303021550 METAR ESMX 021550Z AUTO 26016KT 3600NDV BR OVC005/// 03/01 Q1002=
201303021520 METAR ESMX 021520Z AUTO 25018G31KT 5000NDV BR OVC005/// 02/01 Q1003=
201303021450 METAR ESMX 021450Z AUTO 24016G26KT 9999NDV OVC005/// 02/01 Q1004=
201303021420 METAR ESMX 021420Z AUTO 25017G29KT 220V280 9999NDV OVC005/// 02/01 Q1005=
201303021350 METAR ESMX 021350Z AUTO 25015G26KT 7000NDV BR OVC006/// 02/01 Q1006=
201303021320 METAR ESMX 021320Z AUTO 26015KT 210V280 7000NDV BR OVC006/// 02/01 Q1007=
201303021250 METAR ESMX 021250Z AUTO 26015KT 210V290 9999NDV OVC007/// 02/00 Q1007=
201303021220 METAR ESMX 021220Z AUTO 24014G24KT 200V260 9999NDV BKN011/// OVC017/// 02/M01 Q1008=
201303021150 METAR ESMX 021150Z AUTO 25016KT 9999NDV SCT015/// BKN074/// 02/M01 Q1009=
201303021120 METAR ESMX 021120Z AUTO 24015KT 9999NDV FEW015/// BKN084/// 02/M02 Q1009=
201303021050 METAR ESMX 021050Z 23012KT 200V270 9999 FEW012 SCT015 BKN039 02/M02 Q1010=
201303021020 METAR ESMX 021020Z 24012KT 9999 BKN011 01/M02 Q1011=
201303020950 METAR ESMX 020950Z 23013KT 9999 OVC010 00/M02 Q1011=
201303020920 METAR ESMX 020920Z 24011KT 9999 FEW011 BKN013 00/M03 Q1012=
201303020850 METAR ESMX 020850Z 23013KT 200V270 9999 FEW037 SCT089 01/M04 Q1012=
201303020820 METAR ESMX 020820Z 22011KT 9999 BKN039 M00/M05 Q1013=
201303020750 METAR ESMX 020750Z AUTO 20010KT 9999NDV FEW049/// M01/M06 Q1014=
201303020720 METAR ESMX 020720Z AUTO 21008KT 9999NDV FEW059/// M02/M06 Q1015=
201303020650 METAR ESMX 020650Z AUTO 21008KT 9999NDV SCT061/// M02/M06 Q1015=
201303020620 METAR ESMX 020620Z AUTO 19006KT 9999NDV BKN065/// M03/M06 Q1015=
201303020550 METAR ESMX 020550Z AUTO 21006KT 9999NDV BKN069/// M04/M06 Q1016=
201303020520 METAR ESMX 020520Z AUTO 16004KT 9999NDV BKN074/// M04/M06 Q1016=
201303020450 METAR ESMX 020450Z AUTO 17004KT 9999NDV BKN078/// M04/M07 Q1017=
201303020420 METAR ESMX 020420Z AUTO 17004KT 9999NDV FEW081/// M04/M07 Q1017=
201303020350 METAR ESMX 020350Z AUTO 22003KT 9999NDV NCD M04/M07 Q1018=
201303020320 METAR ESMX 020320Z AUTO 24004KT 9999NDV FEW100/// M04/M07 Q1018=
201303020250 METAR ESMX 020250Z AUTO 25003KT 9999NDV FEW110/// M03/M07 Q1019=
201303020220 METAR ESMX 020220Z AUTO 25003KT 9999NDV NCD M04/M07 Q1019=
201303020150 METAR ESMX 020150Z AUTO 26003KT 9999NDV NCD M03/M07 Q1019=
201303020120 METAR ESMX 020120Z AUTO 26003KT 9999NDV NCD M03/M07 Q1019=
201303020050 METAR ESMX 020050Z AUTO 27004KT 9999NDV NCD M04/M07 Q1020=
201303020020 METAR ESMX 020020Z AUTO 26005KT 9999NDV NCD M03/M07 Q1020=
201303012350 METAR ESMX 012350Z AUTO 27004KT 9999NDV NCD M04/M07 Q1020=
201303012320 METAR ESMX 012320Z AUTO 28004KT 250V330 9999NDV NCD M03/M07 Q1019=
201303012250 METAR ESMX 012250Z AUTO 28005KT 9999NDV NCD M02/M07 Q1020=
201303012220 METAR ESMX 012220Z AUTO 29006KT 260V360 9999NDV NCD M01/M06 Q1019=
201303012150 METAR ESMX 012150Z AUTO 29008KT 9999NDV NCD M01/M06 Q1019=
201303012120 METAR ESMX 012120Z AUTO 29007KT 9999NDV NCD M00/M06 Q1019=
201303012050 METAR ESMX 012050Z AUTO 30006KT 9999NDV NCD M00/M06 Q1019=
201303012020 METAR ESMX 012020Z AUTO 29007KT 9999NDV NCD 00/M06 Q1019=
201303011950 METAR ESMX 011950Z 30006KT CAVOK 00/M06 Q1019=
201303011920 METAR ESMX 011920Z 32008KT CAVOK 01/M06 Q1018=
201303011850 METAR ESMX 011850Z 32008KT CAVOK 02/M06 Q1018=
201303011820 METAR ESMX 011820Z 33010KT CAVOK 03/M06 Q1018=
201303011750 METAR ESMX 011750Z 32011KT CAVOK 03/M06 Q1018=
201303011720 METAR ESMX 011720Z 33011KT CAVOK 03/M06 Q1017=
201303011650 METAR ESMX 011650Z 33011KT CAVOK 04/M06 Q1017=
201303011620 METAR ESMX 011620Z 33011KT CAVOK 04/M06 Q1017=
201303011550 METAR ESMX 011550Z 34011KT CAVOK 04/M06 Q1016=
201303011520 METAR ESMX 011520Z 34015G25KT CAVOK 05/M06 Q1016=
201303011450 METAR ESMX 011450Z 33016KT CAVOK 05/M06 Q1016=
201303011420 METAR ESMX 011420Z 33016KT CAVOK 05/M06 Q1016=
201303011350 METAR ESMX 011350Z 34016G28KT CAVOK 05/M06 Q1016=
201303011320 METAR ESMX 011320Z 34018G29KT CAVOK 05/M05 Q1015=
201303011250 METAR ESMX 011250Z 34018KT CAVOK 05/M06 Q1015=
201303011220 METAR ESMX 011220Z 33016KT CAVOK 05/M06 Q1015=
