##########################################################
# Query made at 04/19/2024 21:36:06 UTC
# Time interval: from 10/01/2013 12:00  to 10/31/2013 12:59  UTC
##########################################################

##########################################################
# ESMX, Vaxjo (Sweden)
# WMO index: 02641. WIGOS ID: 0-20000-0-02648
# Latitude 56-51N. Longitude 014-50E. Altitude 199 m.
##########################################################

201310311250 METAR ESMX 311250Z 19015KT 9999 OVC014 10/07 Q1015=
201310311220 METAR ESMX 311220Z 19015KT 9999 FEW014 SCT018 BKN031 10/07 Q1015=
201310311150 METAR ESMX 311150Z 19014KT 9999 BKN015 10/07 Q1016=
201310311120 METAR ESMX 311120Z 19014KT 9999 FEW014 BKN016 10/07 Q1016=
201310311050 METAR ESMX 311050Z 19014KT 9999 FEW011 SCT014 BKN045 09/07 Q1016=
201310311020 METAR ESMX 311020Z 19012KT 9999 BKN011 09/06 Q1017=
201310310950 METAR ESMX 310950Z 18012KT 9999 BKN011 09/06 Q1017=
201310310920 METAR ESMX 310920Z 19013KT 9999 BKN011 08/06 Q1017=
201310310850 METAR ESMX 310850Z 19013KT 9999 FEW012 BKN018 08/06 Q1017=
201310310820 METAR ESMX 310820Z 19012KT 9999 FEW012 SCT017 BKN020 08/06 Q1017=
201310310750 METAR ESMX 310750Z 20012KT 9999 FEW010 BKN013 08/06 Q1017=
201310310720 METAR ESMX 310720Z 19012KT 9999 FEW009 SCT012 08/06 Q1017=
201310310650 METAR ESMX 310650Z 19010KT 9999 FEW007 BKN008 07/06 Q1018=
201310310620 METAR ESMX 310620Z 19011KT 9999 FEW007 BKN008 07/06 Q1018=
201310310550 METAR ESMX 310550Z 20009KT 9999 FEW008 BKN010 07/06 Q1018=
201310310520 METAR ESMX 310520Z 21009KT 9999 BKN010 08/06 Q1018=
201310310450 METAR ESMX 310450Z 20010KT 9999 FEW009 BKN011 BKN016 08/07 Q1018=
201310310420 METAR ESMX 310420Z AUTO 20008KT 9999NDV FEW008/// SCT011/// 08/07 Q1018=
201310310350 METAR ESMX 310350Z AUTO 22008KT 9999NDV FEW009/// BKN041/// 08/07 Q1018=
201310310320 METAR ESMX 310320Z AUTO 22009KT 9999NDV FEW006/// SCT009/// BKN010/// 08/07 Q1018=
201310310250 METAR ESMX 310250Z AUTO 21008KT 9999NDV FEW005/// SCT008/// OVC045/// 08/07 Q1018=
201310310220 METAR ESMX 310220Z AUTO 21007KT 9999NDV BKN005/// OVC019/// 08/07 Q1017=
201310310150 METAR ESMX 310150Z AUTO 22008KT 9999NDV FEW004/// OVC005/// 07/06 Q1017=
201310310120 METAR ESMX 310120Z AUTO 22007KT 9999NDV SCT004/// BKN007/// OVC039/// 07/06 Q1017=
201310310050 METAR ESMX 310050Z 21006KT 9999 FEW007 SCT012 07/06 Q1017=
201310310020 METAR ESMX 310020Z 23006KT 9999 FEW012 07/06 Q1017=
201310302350 METAR ESMX 302350Z 23006KT 9999 FEW013 SCT019 07/06 Q1017=
201310302320 METAR ESMX 302320Z 23006KT 9999 FEW003 06/06 Q1016=
201310302250 METAR ESMX 302250Z 21007KT 9999 SCT002 BKN005 07/06 Q1016=
201310302220 METAR ESMX 302220Z 23007KT 9999 SCT003 07/06 Q1016=
201310302150 METAR ESMX 302150Z 22006KT 9999 SCT022 06/05 Q1016=
201310302120 METAR ESMX 302120Z 23006KT 9999 FEW021 SCT044 07/06 Q1016=
201310302020 METAR ESMX 302020Z 23007KT 9999 FEW027 SCT039 BKN049 07/06 Q1015=
201310301950 METAR ESMX 301950Z 23007KT 9999 FEW006 SCT047 06/05 Q1015=
201310301920 METAR ESMX 301920Z 21006KT 9999 FEW006 BKN045 06/05 Q1014=
201310301850 METAR ESMX 301850Z 22006KT 9999 FEW018 BKN048 07/06 Q1014=
201310301820 METAR ESMX 301820Z 20007KT 9999 FEW005 BKN045 07/06 Q1014=
201310301750 METAR ESMX 301750Z 21006KT 9999 BKN045 06/06 Q1013=
201310301720 METAR ESMX 301720Z 23006KT 9999 FEW045 06/05 Q1013=
201310301650 METAR ESMX 301650Z 22006KT 9999 FEW009 SCT015 06/05 Q1012=
201310301620 METAR ESMX 301620Z 22005KT 9999 SCT016 06/05 Q1012=
201310301550 METAR ESMX 301550Z 22006KT 9999 FEW013 SCT020 07/06 Q1012=
201310301520 METAR ESMX 301520Z 20005KT 9999 SCT014 07/06 Q1011=
201310301450 METAR ESMX 301450Z 23006KT 9999 FEW010 SCT014 08/06 Q1011=
201310301420 METAR ESMX 301420Z 23006KT 9999 -SHRA FEW014 SCT044 09/07 Q1011=
201310301350 METAR ESMX 301350Z 22007KT 190V250 9999 FEW009 BKN016 08/06 Q1010=
201310301320 METAR ESMX 301320Z 22008KT 9999 FEW009 BKN012 08/06 Q1010=
201310301250 METAR ESMX 301250Z 21007KT 9999 FEW008 BKN010 08/07 Q1010=
201310301220 METAR ESMX 301220Z 20008KT 9999 FEW009 BKN011 08/07 Q1010=
201310301150 METAR ESMX 301150Z 23008KT 9999 BKN012 09/06 Q1010=
201310301120 METAR ESMX 301120Z 23009KT 9999 SCT013 09/06 Q1010=
201310301050 METAR ESMX 301050Z 21009KT 9999 FEW011 SCT037 BKN050 08/06 Q1010=
201310301020 METAR ESMX 301020Z 22009KT 9999 FEW007 SCT010 BKN015 08/06 Q1010=
201310300950 METAR ESMX 300950Z 22009KT 9999 FEW006CB SCT008 BKN010 08/07 Q1009 RESHRA=
201310300920 METAR ESMX 300920Z 22007KT 9999 FEW005 SCT007 BKN009 08/06 Q1009=
201310300850 METAR ESMX 300850Z 21006KT 9999 FEW005 SCT008 BKN011 07/06 Q1009 RESHRA=
201310300820 METAR ESMX 300820Z 22008KT 9999 FEW006 SCT013 BKN016 07/06 Q1008 REDZ=
201310300750 METAR ESMX 300750Z 22007KT 9999 FEW015 SCT020 BKN024 06/05 Q1008 RERA=
201310300720 METAR ESMX 300720Z 21007KT 9999 -RA BKN022 06/05 Q1008=
201310300650 METAR ESMX 300650Z 21008KT 9999 -RA FEW007 SCT022 06/05 Q1007=
201310300620 METAR ESMX 300620Z 21007KT 9999 -RA BKN010 07/05 Q1007=
201310300550 METAR ESMX 300550Z 21008KT 9999 -RA BKN006 BKN030 07/06 Q1007=
201310300520 METAR ESMX 300520Z 21005KT 9999 SCT008 BKN022 07/06 Q1006=
201310300450 METAR ESMX 300450Z 19008KT 9999 BKN020 07/06 Q1006=
201310300420 METAR ESMX 300420Z AUTO 21007KT 9999NDV FEW038/// BKN043/// BKN050/// 07/05 Q1006 REDZ=
201310300350 METAR ESMX 300350Z AUTO 21009KT 9999NDV FEW009/// SCT011/// BKN040/// 07/06 Q1006=
201310300320 METAR ESMX 300320Z AUTO 22010KT 9999NDV FEW008/// SCT011/// BKN022/// 08/06 Q1006=
201310300250 METAR ESMX 300250Z AUTO 20010KT 9999NDV FEW009/// SCT014/// BKN018/// 08/06 Q1005=
201310300220 METAR ESMX 300220Z AUTO 21010KT 9999NDV FEW013/// OVC017/// 08/06 Q1005=
201310300150 METAR ESMX 300150Z AUTO 21008KT 9999NDV FEW016/// OVC020/// 08/06 Q1005=
201310300120 METAR ESMX 300120Z AUTO 20007KT 9999NDV BKN017/// BKN024/// 08/06 Q1005=
201310300050 METAR ESMX 300050Z 23007KT 9999 FEW015 BKN020 08/06 Q1005=
201310300020 METAR ESMX 300020Z 22008KT 9999 FEW016 SCT022 BKN045 08/06 Q1004=
201310292350 METAR ESMX 292350Z 22009KT 9999 SCT015 BKN036 08/06 Q1004 REDZ=
201310292320 METAR ESMX 292320Z 22011KT 9999 FEW020 SCT026 BKN038 09/06 Q1004=
201310292250 METAR ESMX 292250Z 23011KT 9999 FEW020 BKN043 09/06 Q1003=
201310292220 METAR ESMX 292220Z 23009KT 9999 SCT021 BKN046 09/07 Q1003=
201310292150 METAR ESMX 292150Z 23010KT 9999 SCT020 BKN040 09/07 Q1003=
201310292120 METAR ESMX 292120Z 23013KT 9999 FEW020 BKN045 09/07 Q1002=
201310292050 METAR ESMX 292050Z 21012KT 9999 FEW010 BKN045 09/07 Q1002=
201310292020 METAR ESMX 292020Z 21013KT 9999 -DZ FEW010CB SCT030 BKN040 08/07 Q1001=
201310291950 METAR ESMX 291950Z 22013KT 9999 -DZ SCT016CB BKN050 09/06 Q1001=
201310291920 METAR ESMX 291920Z 22013KT 9999 FEW015 SCT018 BKN025 09/06 Q1001=
201310291850 METAR ESMX 291850Z 21014KT 9999 SCT018 BKN030 09/06 Q1000=
201310291820 METAR ESMX 291820Z 23014KT 9999 FEW017 BKN021 BKN034 09/06 Q1000=
201310291750 METAR ESMX 291750Z 21014KT 9999 SCT018 BKN040 09/06 Q1000=
201310291720 METAR ESMX 291720Z 21015KT 9999 SCT020 BKN035 09/06 Q1000=
201310291650 METAR ESMX 291650Z 20014KT 9999 FEW010 SCT020 BKN045 09/06 Q0999=
201310291620 METAR ESMX 291620Z 20015KT 9999 FEW010 SCT020 BKN045 09/06 Q0999=
201310291550 METAR ESMX 291550Z 20016KT 9999 -RA SCT020 BKN035 09/06 Q0999=
201310291520 METAR ESMX 291520Z 20015KT 9999 SCT025 BKN050 09/05 Q0999=
201310291450 METAR ESMX 291450Z 21013KT 9999 FEW030 BKN050 10/05 Q0999=
201310291420 METAR ESMX 291420Z 21013G23KT 9999 SCT025 BKN045 10/05 Q0998=
201310291350 METAR ESMX 291350Z 22014KT 9999 SCT020 BKN040 10/05 Q0998=
201310291320 METAR ESMX 291320Z 21013KT 9999 SCT030 BKN050 10/05 Q0998=
201310291250 METAR ESMX 291250Z 21014KT 9999 SCT025 BKN040 10/05 Q0998=
201310291220 METAR ESMX 291220Z 22015KT 9999 SCT020 BKN030 10/05 Q0998=
201310291150 METAR ESMX 291150Z 22016KT 9999 FEW024 SCT028 BKN034 10/05 Q0998=
201310291120 METAR ESMX 291120Z 21015G25KT 9999 SCT015 BKN040 10/05 Q0998=
201310291050 METAR ESMX 291050Z 21017KT 9999 FEW020 BKN025 10/06 Q0997=
201310291020 METAR ESMX 291020Z 22014KT 9999 FEW021 SCT026 BKN034 11/07 Q0997=
201310290950 METAR ESMX 290950Z 23014KT 9999 FEW015 SCT020 BKN024 10/07 Q0997=
201310290920 METAR ESMX 290920Z 21013KT 9999 FEW012 SCT014 BKN018 10/07 Q0997=
201310290850 METAR ESMX 290850Z 22015KT 180V250 9999 FEW010 SCT014 BKN019 10/08 Q0997=
201310290820 METAR ESMX 290820Z 23009KT 9999 FEW011 SCT014 BKN025 09/07 Q0997=
201310290750 METAR ESMX 290750Z 21015KT 9999 -RA FEW011 SCT013 BKN017 09/07 Q0996=
201310290720 METAR ESMX 290720Z 20013KT 9999 SCT010 BKN015 09/08 Q0995=
201310290650 METAR ESMX 290650Z 21011KT 9999 FEW009 SCT017 BKN029 09/08 Q0995=
201310290620 METAR ESMX 290620Z 22013KT 9999 SCT010 BKN015 09/07 Q0995=
201310290550 METAR ESMX 290550Z 22012KT 9999 SCT020 09/07 Q0994=
201310290520 METAR ESMX 290520Z 21011KT 9999 FEW010 SCT020 09/07 Q0994=
201310290450 METAR ESMX 290450Z 22010KT 9999 DZ FEW015 BKN020CB 09/07 Q0993=
201310290420 METAR ESMX 290420Z AUTO 22011KT 9999NDV ////// 09/07 Q0993=
201310290350 METAR ESMX 290350Z AUTO 23010KT 9000NDV DZ ////// 09/07 Q0993=
201310290320 METAR ESMX 290320Z AUTO 22012KT 9999NDV ////// 09/07 Q0992=
201310290250 METAR ESMX 290250Z AUTO 23012KT 200V260 9999NDV ////// 09/07 Q0992=
201310290220 METAR ESMX 290220Z AUTO 24014KT 9999NDV ////// 09/07 Q0991=
201310290150 METAR ESMX 290150Z AUTO 24012KT 9999NDV ////// 09/07 Q0990=
201310290120 METAR ESMX 290120Z AUTO 23012KT 9999NDV -RA ////// 09/07 Q0990=
201310290050 METAR ESMX 290050Z 25015G28KT 9000 -RA FEW030CB SCT055 10/07 Q0990=
201310290020 METAR ESMX 290020Z 24016KT 9999 FEW015 SCT050 10/07 Q0989=
201310282350 METAR ESMX 282350Z 22014G28KT 9000 -RA FEW016 BKN024 09/07 Q0988=
201310282320 METAR ESMX 282320Z 23017G27KT 200V260 9999 FEW015 BKN020 10/07 Q0987=
201310282250 METAR ESMX 282250Z 24019G30KT 9999 FEW015 BKN020 10/07 Q0986=
201310282220 METAR ESMX 282220Z 24018G28KT 9999 BKN014 10/07 Q0985=
201310282150 METAR ESMX 282150Z 25020G34KT 9999 FEW017 BKN020 10/06 Q0983=
201310282120 METAR ESMX 282120Z 25024G40KT 9999 FEW021 BKN025 10/06 Q0982=
201310282050 METAR ESMX 282050Z 25027G44KT 9999 FEW015 BKN025 10/06 Q0980=
201310282020 METAR ESMX 282020Z 24027G44KT 5000 -RA FEW011 BKN015 09/07 Q0978=
201310281950 METAR ESMX 281950Z 22028G49KT 5000 -RA FEW010 BKN015 09/07 Q0977=
201310281920 METAR ESMX 281920Z 21029G44KT 5000 -RA FEW011 BKN014 09/07 Q0975=
201310281850 METAR ESMX 281850Z 20025G47KT 5000 -RA FEW010 BKN014 09/08 Q0974=
201310281820 METAR ESMX 281820Z 21027G39KT 160V230 6000 -RA FEW013 BKN017 10/08 Q0974=
201310281750 METAR ESMX 281750Z 19027G39KT 6000 -RA SCT014 BKN018 10/08 Q0974=
201310281720 METAR ESMX 281720Z 19030G41KT 9999 FEW022 SCT030 BKN034 11/08 Q0975=
201310281650 METAR ESMX 281650Z 19028G45KT 9999 FEW009 SCT026 BKN033 13/09 Q0976=
201310281620 METAR ESMX 281620Z 16015G28KT 9000 -RA FEW012 SCT018 BKN023 12/11 Q0976=
201310281550 METAR ESMX 281550Z 17016G27KT 9999 -RA FEW012 SCT015 BKN018 13/11 Q0978=
201310281520 METAR ESMX 281520Z 18016KT 9999 FEW007 SCT010 BKN013 12/11 Q0979=
201310281450 METAR ESMX 281450Z 17017KT 9999 FEW006 BKN008 OVC012 12/11 Q0980 RERA=
201310281420 METAR ESMX 281420Z 17013KT 9000 RA FEW006 SCT007 OVC009 12/10 Q0981=
201310281350 METAR ESMX 281350Z 16012KT 9000 RA FEW004 BKN006 OVC009 11/10 Q0982=
201310281320 METAR ESMX 281320Z 16010KT 6000 -RA FEW005 OVC006 11/10 Q0982 REDZ=
201310281250 METAR ESMX 281250Z 15010KT 110V180 9999 -RA FEW005 OVC006 11/09 Q0984=
201310281220 METAR ESMX 281220Z 15010KT 120V190 9999 -RA FEW005 SCT007 BKN008 10/09 Q0985=
201310281150 METAR ESMX 281150Z 17011G21KT 9999 DZ FEW006 BKN008 OVC011 11/09 Q0986=
201310281120 METAR ESMX 281120Z 16009KT 9000 -RA FEW007 BKN010 BKN015 11/09 Q0987=
201310281050 METAR ESMX 281050Z 16010KT 9999 -RA FEW012 SCT015 BKN055 11/09 Q0988 REDZ=
201310281020 METAR ESMX 281020Z 18011KT 9999 DZ SCT009 BKN015 11/09 Q0989=
201310280950 METAR ESMX 280950Z 19013KT 9000 -DZ FEW009 BKN010 BKN014 11/09 Q0989=
201310280920 METAR ESMX 280920Z 18014KT 9999 -DZ FEW009 OVC011 11/09 Q0989=
201310280850 METAR ESMX 280850Z 19014KT 9999 -DZ SCT011 BKN015 BKN022 11/09 Q0990=
201310280820 METAR ESMX 280820Z 20015KT 9999 DZ FEW009 BKN011 OVC015 12/09 Q0990 REDZ=
201310280750 METAR ESMX 280750Z 19014KT 9999 DZ SCT010 BKN016 BKN026 11/09 Q0990=
201310280720 METAR ESMX 280720Z 20013KT 9999 FEW013 SCT016 BKN019 11/09 Q0990=
201310280650 METAR ESMX 280650Z 21013KT 9999 FEW013 SCT016 BKN018 11/09 Q0990=
201310280620 METAR ESMX 280620Z 20014KT 9999 BKN012 11/09 Q0991=
201310280550 METAR ESMX 280550Z 20013KT 9999 FEW013 OVC016 11/09 Q0990=
201310280520 METAR ESMX 280520Z 21013KT 9999 OVC012 11/09 Q0991=
201310280450 METAR ESMX 280450Z 20015KT 9999 BKN014 OVC021 11/08 Q0991=
201310280420 METAR ESMX 280420Z AUTO 21015KT 9999NDV FEW012/// BKN015/// 11/09 Q0991=
201310280350 METAR ESMX 280350Z AUTO 20015KT 9999NDV FEW013/// SCT016/// BKN018/// 11/09 Q0991=
201310280320 METAR ESMX 280320Z AUTO 20014KT 9999NDV FEW012/// SCT015/// BKN021/// 11/09 Q0991=
201310280250 METAR ESMX 280250Z AUTO 19014KT 9999NDV FEW012/// SCT015/// BKN018/// 11/09 Q0991=
201310280220 METAR ESMX 280220Z AUTO 20015KT 9999NDV FEW012/// BKN015/// BKN030/// 11/09 Q0991=
201310280150 METAR ESMX 280150Z AUTO 21014KT 9999NDV FEW012/// BKN015/// OVC022/// 11/09 Q0991=
201310280120 METAR ESMX 280120Z AUTO 21012KT 9999NDV FEW011/// BKN014/// OVC020/// 10/09 Q0991=
201310280050 METAR ESMX 280050Z AUTO 19013KT 9999NDV FEW010/// SCT013/// BKN015/// 10/09 Q0992=
201310280020 METAR ESMX 280020Z 20014KT 9999 RA BKN015 OVC024 10/08 Q0992=
201310272350 METAR ESMX 272350Z 20012KT 9999 FEW016 SCT020 BKN024 10/08 Q0992=
201310272320 METAR ESMX 272320Z 20011KT 9999 FEW017 SCT022 BKN026 10/08 Q0992=
201310272250 METAR ESMX 272250Z 20012KT 9999 FEW013 SCT022 BKN034 10/08 Q0992=
201310272220 METAR ESMX 272220Z 22012KT 9999 FEW011 SCT014 BKN019 10/09 Q0992=
201310272150 METAR ESMX 272150Z 22011KT 9999 FEW008 SCT014 BKN020 10/09 Q0992=
201310272120 METAR ESMX 272120Z 22011KT 9999 FEW013 SCT024 BKN061 10/08 Q0991 REDZ=
201310272050 METAR ESMX 272050Z AUTO 22013KT 9999NDV -RA FEW013/// SCT016/// BKN019/// 10/08 Q0991 REDZ=
201310272020 METAR ESMX 272020Z 24015G26KT 200V260 9999 FEW016 BKN020 11/08 Q0991=
201310271950 METAR ESMX 271950Z 22018KT 200V260 9999 SCT014 BKN019 11/09 Q0990=
201310271920 METAR ESMX 271920Z 21014KT 9999 FEW011 SCT016 BKN024 12/10 Q0990=
201310271850 METAR ESMX 271850Z 19014KT 9999 FEW011 BKN014 OVC020 12/10 Q0990=
201310271820 METAR ESMX 271820Z 19015KT 9999 FEW010 SCT013 BKN016 12/11 Q0990=
201310271750 METAR ESMX 271750Z 19013KT 9999 FEW010 SCT014 BKN016 12/11 Q0991=
201310271720 METAR ESMX 271720Z 19013KT 9999 FEW010 SCT015 BKN018 12/11 Q0991=
201310271650 METAR ESMX 271650Z 17015KT 9999 -RA FEW009 SCT012 BKN017 13/11 Q0991 REDZ=
201310271620 METAR ESMX 271620Z 15009KT 130V190 9999 DZ FEW012 SCT025 BKN046 13/11 Q0991=
201310271550 METAR ESMX 271550Z 15009KT 9999 SCT013 BKN045 13/11 Q0992=
201310271520 METAR ESMX 271520Z 17009KT 9999 FEW015 SCT028 BKN039 14/11 Q0992=
201310271450 METAR ESMX 271450Z 16009KT 9999 FEW021 SCT037 BKN053 14/11 Q0993=
201310271420 METAR ESMX 271420Z 17011KT 9999 FEW016 SCT021 BKN045 14/11 Q0994=
201310271350 METAR ESMX 271350Z 18010KT 9999 FEW016 SCT020 BKN025 15/11 Q0994=
201310271320 METAR ESMX 271320Z AUTO 17008KT 140V200 9999NDV FEW013/// SCT016/// BKN020/// 14/12 Q0995=
201310271250 METAR ESMX 271250Z AUTO 17010KT 9999NDV FEW011/// SCT014/// BKN018/// 15/12 Q0995=
201310271220 METAR ESMX 271220Z AUTO 16010KT 9999NDV FEW011/// BKN013/// OVC018/// 14/12 Q0996=
201310271150 METAR ESMX 271150Z AUTO 16007KT 130V200 9999NDV SCT011/// BKN016/// BKN052/// 14/12 Q0996=
201310271120 METAR ESMX 271120Z AUTO 16010KT 9999NDV BKN011/// OVC030/// 14/11 Q0997=
201310271050 METAR ESMX 271050Z AUTO 17009KT 9999NDV FEW038/// BKN044/// BKN055/// 14/11 Q0997=
201310271020 METAR ESMX 271020Z AUTO 17010KT 140V200 9999NDV FEW036/// BKN066/// 14/11 Q0998=
201310270950 METAR ESMX 270950Z AUTO 17010KT 9999NDV BKN071/// 14/11 Q0998=
201310270920 METAR ESMX 270920Z AUTO 19012KT 9999NDV NCD 15/11 Q0999=
201310270850 METAR ESMX 270850Z AUTO 18010KT 9999NDV FEW013/// SCT073/// 14/11 Q0999=
201310270820 METAR ESMX 270820Z AUTO 18010KT 9999NDV FEW012/// SCT069/// 13/11 Q1000=
201310270750 METAR ESMX 270750Z AUTO 19013KT 9999NDV FEW009/// OVC011/// 13/11 Q1000=
201310270720 METAR ESMX 270720Z AUTO 19012KT 9999NDV OVC008/// 13/11 Q1000=
201310270650 METAR ESMX 270650Z 19008KT 9999 BKN008 OVC011 12/11 Q1001=
201310270620 METAR ESMX 270620Z 18008KT 9999 FEW010 SCT014 BKN024 12/11 Q1001=
201310270550 METAR ESMX 270550Z 18009KT 9999 FEW011 OVC064 12/11 Q1001=
201310270520 METAR ESMX 270520Z AUTO 20008KT 9999NDV FEW008/// BKN010/// OVC014/// 12/11 Q1001=
201310270450 METAR ESMX 270450Z AUTO 19009KT 9999NDV FEW012/// SCT015/// BKN024/// 12/11 Q1001=
201310270420 METAR ESMX 270420Z AUTO 19010KT 9999NDV FEW010/// SCT014/// BKN023/// 12/11 Q1001=
201310270350 METAR ESMX 270350Z AUTO 20010KT 9999NDV FEW012/// SCT015/// BKN031/// 12/11 Q1001=
201310270320 METAR ESMX 270320Z AUTO 20011KT 9999NDV FEW013/// SCT016/// BKN020/// 13/11 Q1002=
201310270250 METAR ESMX 270250Z AUTO 21010KT 9999NDV FEW011/// SCT016/// BKN018/// 12/11 Q1002=
201310270220 METAR ESMX 270220Z AUTO 19010KT 9999NDV FEW016/// BKN020/// OVC028/// 12/11 Q1002=
201310270150 METAR ESMX 270150Z AUTO 20010KT 9999NDV FEW016/// SCT026/// BKN037/// 12/11 Q1002=
201310270120 METAR ESMX 270120Z AUTO 19010KT 9999NDV FEW008/// SCT011/// BKN013/// 12/11 Q1002=
201310270050 METAR ESMX 270050Z AUTO 20010KT 9999NDV FEW008/// BKN011/// OVC020/// 12/11 Q1002=
201310270020 METAR ESMX 270020Z AUTO 19010KT 9000NDV BR FEW007/// SCT009/// OVC010/// 12/11 Q1002=
201310262350 METAR ESMX 262350Z AUTO 21011KT 9999NDV FEW009/// BKN011/// OVC016/// 12/11 Q1003=
201310262320 METAR ESMX 262320Z 19009KT 9999 BKN010 OVC019 12/11 Q1003 REDZ=
201310262250 METAR ESMX 262250Z 19011KT 6000 DZ FEW011 SCT019 BKN023 12/11 Q1003=
201310262220 METAR ESMX 262220Z 19009KT 9999 FEW014 OVC018 12/11 Q1003=
201310262150 METAR ESMX 262150Z 19009KT 9999 FEW020 OVC077 12/11 Q1003=
201310262120 METAR ESMX 262120Z AUTO 20009KT 9999NDV FEW028/// SCT042/// BKN056/// 12/11 Q1003=
201310262050 METAR ESMX 262050Z AUTO 21010KT 7000NDV BR FEW013/// BKN020/// BKN049/// 12/11 Q1003=
201310262020 METAR ESMX 262020Z AUTO 20009KT 9999NDV BKN016/// 12/11 Q1003=
201310261950 METAR ESMX 261950Z AUTO 21009KT 9000NDV DZ FEW009/// SCT019/// BKN024/// 12/11 Q1003=
201310261920 METAR ESMX 261920Z AUTO 20010KT 6000NDV BR FEW005/// SCT007/// BKN008/// 12/11 Q1004=
201310261850 METAR ESMX 261850Z AUTO 20011KT 5000NDV -RA FEW004/// SCT007/// BKN008/// 12/11 Q1003=
201310261820 METAR ESMX 261820Z AUTO 20008KT 5000NDV RA FEW006/// SCT012/// BKN016/// 12/11 Q1003=
201310261750 METAR ESMX 261750Z AUTO 20008KT 9999NDV FEW011/// BKN014/// OVC064/// 13/11 Q1003=
201310261720 METAR ESMX 261720Z AUTO 21009KT 9999NDV FEW013/// SCT017/// BKN019/// 13/11 Q1003=
201310261650 METAR ESMX 261650Z AUTO 20010KT 9999NDV FEW011/// SCT015/// BKN018/// 13/11 Q1003=
201310261620 METAR ESMX 261620Z AUTO 22009KT 9999NDV FEW008/// BKN012/// OVC016/// 13/11 Q1003=
201310261550 METAR ESMX 261550Z AUTO 23009KT 9000NDV FEW010/// BKN012/// BKN020/// 13/11 Q1003=
201310261520 METAR ESMX 261520Z AUTO 23010KT 9999NDV BKN011/// OVC018/// 13/11 Q1003=
201310261450 METAR ESMX 261450Z AUTO 21011KT 9999NDV FEW009/// SCT011/// BKN014/// 13/11 Q1003=
201310261420 METAR ESMX 261420Z AUTO 23010KT 9999NDV -DZ FEW009/// SCT012/// BKN014/// 13/12 Q1003=
201310261350 METAR ESMX 261350Z AUTO 24010KT 9999NDV FEW013/// BKN017/// BKN026/// 13/11 Q1003 REDZ=
201310261320 METAR ESMX 261320Z AUTO 24012KT 9999NDV -RA FEW019/// BKN022/// BKN033/// 14/11 Q1002=
201310261250 METAR ESMX 261250Z AUTO 23011KT 9999NDV FEW016/// BKN020/// BKN041/// 14/11 Q1002=
201310261220 METAR ESMX 261220Z AUTO 22012KT 9999NDV FEW011/// SCT017/// BKN021/// 14/11 Q1003 REDZ=
201310261150 METAR ESMX 261150Z AUTO 22013KT 9999NDV FEW015/// SCT018/// BKN020/// 14/11 Q1002=
201310261120 METAR ESMX 261120Z AUTO 21012KT 9999NDV OVC016/// 14/11 Q1002=
201310261050 METAR ESMX 261050Z AUTO 21013KT 9999NDV FEW016/// BKN020/// OVC026/// 14/11 Q1003=
201310261020 METAR ESMX 261020Z AUTO 20015KT 9999NDV FEW017/// BKN021/// BKN035/// 14/11 Q1003=
201310260950 METAR ESMX 260950Z AUTO 21014KT 9999NDV FEW014/// BKN019/// 14/11 Q1003=
201310260920 METAR ESMX 260920Z AUTO 22014KT 9999NDV FEW012/// SCT015/// BKN017/// 14/12 Q1003=
201310260850 METAR ESMX 260850Z AUTO 20014KT 9999NDV FEW013/// SCT018/// BKN021/// 14/12 Q1003=
201310260820 METAR ESMX 260820Z AUTO 20012KT 9999NDV FEW010/// SCT014/// BKN017/// 13/12 Q1004=
201310260750 METAR ESMX 260750Z AUTO 20012KT 9000NDV BR FEW010/// SCT014/// BKN018/// 13/12 Q1004=
201310260720 METAR ESMX 260720Z AUTO 20012KT 8000NDV BR FEW010/// SCT015/// BKN018/// 13/12 Q1004=
201310260650 METAR ESMX 260650Z AUTO 20012KT 6000NDV BR FEW006/// SCT011/// BKN014/// 13/12 Q1004=
201310260620 METAR ESMX 260620Z AUTO 20012KT 6000NDV BR FEW006/// BKN011/// BKN026/// 13/12 Q1004=
201310260550 METAR ESMX 260550Z AUTO 19011KT 5000NDV BR FEW005/// SCT006/// BKN009/// 13/12 Q1004=
201310260520 METAR ESMX 260520Z AUTO 20010KT 4400NDV BR FEW004/// SCT006/// BKN008/// 13/12 Q1004=
201310260450 METAR ESMX 260450Z AUTO 21010KT 4000NDV BR FEW002/// OVC004/// 12/12 Q1004=
201310260420 METAR ESMX 260420Z AUTO 22011KT 2900NDV BR BKN001/// OVC003/// 12/12 Q1004=
201310260350 METAR ESMX 260350Z AUTO 21011KT 1700NDV BR OVC001/// 12/11 Q1005=
201310260320 METAR ESMX 260320Z AUTO 22009KT 2500NDV BR OVC001/// 12/11 Q1005=
201310260250 METAR ESMX 260250Z AUTO 20009KT 1200NDV R01/P2000N R19/P2000N BR OVC001/// 11/11 Q1005 REDZ=
201310260220 METAR ESMX 260220Z AUTO 20012KT 1400NDV R01/P2000N R19/P2000N DZ OVC001/// 11/11 Q1005=
201310260150 METAR ESMX 260150Z AUTO 19011KT 2200NDV BR OVC001/// 11/10 Q1005=
201310260120 METAR ESMX 260120Z AUTO 18010KT 4500NDV BR OVC002/// 11/10 Q1006=
201310260050 METAR ESMX 260050Z AUTO 17009KT 4500NDV BR OVC002/// 10/09 Q1006=
201310260020 METAR ESMX 260020Z AUTO 17008KT 4000NDV DZ OVC002/// 10/09 Q1007=
201310252350 METAR ESMX 252350Z AUTO 16009KT 5000NDV DZ FEW004/// OVC005/// 09/08 Q1007=
201310252320 METAR ESMX 252320Z AUTO 15008KT 7000NDV DZ FEW006/// SCT008/// BKN009/// 09/08 Q1007=
201310252250 METAR ESMX 252250Z AUTO 14008KT 110V170 9000NDV -DZ SCT012/// BKN049/// 09/07 Q1008=
201310252220 METAR ESMX 252220Z AUTO 15008KT 120V180 9999NDV BKN049/// 08/07 Q1009=
201310252150 METAR ESMX 252150Z AUTO 14008KT 9999NDV RA NCD 08/07 Q1009=
201310252120 METAR ESMX 252120Z AUTO 15009KT 9999NDV -RA FEW020/// BKN077/// 09/06 Q1010=
201310252050 METAR ESMX 252050Z AUTO 15006KT 120V190 9999NDV -DZ FEW100/// 08/06 Q1011=
201310252020 METAR ESMX 252020Z AUTO 15007KT 9999NDV FEW100/// 08/06 Q1011=
201310251950 METAR ESMX 251950Z AUTO 15007KT 9999NDV FEW052/// BKN110/// 08/06 Q1012=
201310251920 METAR ESMX 251920Z AUTO 16007KT 9999NDV FEW110/// 08/06 Q1012=
201310251850 METAR ESMX 251850Z AUTO 15006KT 110V190 9999NDV NCD 08/06 Q1013=
201310251820 METAR ESMX 251820Z AUTO 16005KT 9999NDV NCD 08/05 Q1013=
201310251750 METAR ESMX 251750Z AUTO 14005KT 9999NDV NCD 08/05 Q1014=
201310251720 METAR ESMX 251720Z 16005KT CAVOK 08/04 Q1014=
201310251650 METAR ESMX 251650Z 15004KT CAVOK 08/04 Q1014=
201310251620 METAR ESMX 251620Z 18004KT CAVOK 08/04 Q1015=
201310251550 METAR ESMX 251550Z 18004KT CAVOK 08/04 Q1015=
201310251520 METAR ESMX 251520Z 19004KT CAVOK 08/04 Q1015=
201310251450 METAR ESMX 251450Z 21003KT CAVOK 09/04 Q1015=
201310251420 METAR COR ESMX 251420Z 22005KT CAVOK 10/05 Q1015=
201310251350 METAR ESMX 251350Z 24004KT 210V290 9999 FEW028 11/04 Q1015=
201310251320 METAR ESMX 251320Z 25006KT 220V290 9999 SCT026 10/04 Q1016=
201310251250 METAR ESMX 251250Z 23009KT 9999 BKN025 10/04 Q1016=
201310251220 METAR ESMX 251220Z 23008KT 9999 BKN025 11/05 Q1016=
201310251150 METAR ESMX 251150Z 24008KT 9999 BKN025 10/04 Q1016=
201310251120 METAR ESMX 251120Z 24007KT 210V280 9999 BKN025 10/04 Q1016=
201310251050 METAR ESMX 251050Z 24008KT 210V280 9999 OVC025 10/04 Q1016=
201310251020 METAR ESMX 251020Z 26009KT 9999 OVC026 10/04 Q1017=
201310250950 METAR ESMX 250950Z 25008KT 210V290 9999 OVC026 10/04 Q1017=
201310250920 METAR ESMX 250920Z 26009KT 220V290 9999 OVC026 09/04 Q1017=
201310250850 METAR ESMX 250850Z 25008KT 210V290 9999 OVC026 09/04 Q1017=
201310250820 METAR ESMX 250820Z 27008KT 210V300 9999 OVC026 09/04 Q1017=
201310250750 METAR ESMX 250750Z 25007KT 210V280 9999 OVC028 09/04 Q1016=
201310250720 METAR ESMX 250720Z 25007KT 9999 OVC030 08/04 Q1015=
201310250650 METAR ESMX 250650Z 25005KT 9999 SCT031 07/03 Q1015=
201310250620 METAR ESMX 250620Z 26005KT 9999 FEW029 07/03 Q1015=
201310250550 METAR ESMX 250550Z 26006KT 220V290 9999 SCT027 08/04 Q1015=
201310250520 METAR ESMX 250520Z 26007KT 9999 FEW033 07/03 Q1014=
201310250450 METAR ESMX 250450Z 25007KT 9999 BKN032 07/04 Q1014=
201310250420 METAR ESMX 250420Z 24006KT 9999 BKN032 07/05 Q1014=
201310250350 METAR ESMX 250350Z 24007KT 9999 FEW022 BKN032 07/04 Q1014=
201310250320 METAR ESMX 250320Z AUTO 25009KT 9999NDV FEW033/// 08/04 Q1013=
201310250250 METAR ESMX 250250Z AUTO 25011KT 9999NDV FEW024/// BKN029/// 08/05 Q1013=
201310250220 METAR ESMX 250220Z AUTO 26011KT 9999NDV FEW021/// BKN025/// 09/05 Q1013=
201310250150 METAR ESMX 250150Z AUTO 26010KT 230V290 9999NDV FEW020/// OVC026/// 09/05 Q1012=
201310250120 METAR ESMX 250120Z AUTO 25010KT 9999NDV OVC023/// 08/05 Q1012=
201310250050 METAR ESMX 250050Z AUTO 25011KT 9999NDV FEW020/// OVC023/// 08/05 Q1012=
201310250020 METAR ESMX 250020Z AUTO 25010KT 9999NDV FEW022/// BKN025/// 08/05 Q1012=
201310242350 METAR ESMX 242350Z 25011KT 9999 BKN021 08/05 Q1011=
201310242320 METAR ESMX 242320Z 25010KT 9999 BKN022 08/05 Q1011=
201310242250 METAR ESMX 242250Z 25010KT 9999 BKN022 08/05 Q1011=
201310242220 METAR ESMX 242220Z 24012KT 9999 FEW021 SCT025 BKN029 08/05 Q1011=
201310242150 METAR ESMX 242150Z 23012KT 9999 FEW023 BKN026 08/05 Q1011=
201310242120 METAR ESMX 242120Z 24010KT 9999 FEW021 BKN026 08/05 Q1011=
201310242050 METAR ESMX 242050Z 24011KT 9999 FEW024 SCT040 08/05 Q1011=
201310242020 METAR ESMX 242020Z 24010KT 9999 FEW042 08/05 Q1010=
201310241950 METAR ESMX 241950Z 23010KT CAVOK 08/05 Q1010=
201310241920 METAR ESMX 241920Z 24013KT 9999 FEW017 SCT046 08/06 Q1010=
201310241850 METAR ESMX 241850Z 24011KT 9999 FEW016 08/06 Q1009=
201310241750 METAR ESMX 241750Z 22010KT 9999 FEW029 08/05 Q1009=
201310241720 METAR ESMX 241720Z 22011G21KT CAVOK 08/05 Q1009=
201310241650 METAR ESMX 241650Z 24013G23KT 9999 FEW028 08/06 Q1009=
201310241620 METAR ESMX 241620Z 22008KT 170V250 9999 FEW029CB BKN076 08/06 Q1008 RESHRA=
201310241550 METAR ESMX 241550Z 24011G22KT 210V270 9999 -SHRA FEW014 SCT027CB BKN046 10/06 Q1008=
201310241520 METAR ESMX 241520Z 23012KT 9999 FEW031CB SCT065 10/05 Q1008=
201310241450 METAR ESMX 241450Z 23011KT 200V260 9999 FEW030CB 10/05 Q1008=
201310241420 METAR ESMX 241420Z 23011KT 9999 FEW033 10/05 Q1008=
201310241350 METAR ESMX 241350Z 25011G21KT 9999 FEW034 10/05 Q1008=
201310241320 METAR ESMX 241320Z 23013KT 9999 FEW035CB 11/05 Q1008=
201310241250 METAR ESMX 241250Z 24012KT 9999 FEW033CB 10/06 Q1007=
201310241220 METAR ESMX 241220Z 23015KT 9999 FEW023CB SCT030 BKN057 10/05 Q1007=
201310241150 METAR ESMX 241150Z 23011KT 210V270 9999 FEW033CB 10/06 Q1007=
201310241120 METAR ESMX 241120Z 24014KT 210V280 9999 FEW021 SCT030 BKN041 11/06 Q1007=
201310241050 METAR ESMX 241050Z 24011KT 200V260 9999 FEW023 10/07 Q1007 RERA=
201310241020 METAR ESMX 241020Z 24012KT 9000 -RA FEW021 SCT024 BKN028 10/07 Q1007=
201310240950 METAR ESMX 240950Z 22014KT 9999 FEW019 SCT023 BKN030 11/07 Q1006=
201310240920 METAR ESMX 240920Z 24012KT 9999 FEW016 SCT020 BKN025 10/08 Q1006=
201310240850 METAR ESMX 240850Z 22012KT 9999 FEW016 SCT022 10/07 Q1006=
201310240820 METAR ESMX 240820Z 22010KT 9999 FEW030 09/07 Q1006=
201310240750 METAR ESMX 240750Z 23011KT 9999 FEW041 SCT047 09/06 Q1005=
201310240720 METAR ESMX 240720Z 26014G24KT 220V290 7000 -SHRA FEW016CB SCT034 09/06 Q1005=
201310240650 METAR ESMX 240650Z 21012KT 9999 -SHRA SCT020 10/08 Q1004=
201310240620 METAR ESMX 240620Z 23013KT 9999 FEW016 SCT020 BKN032 10/08 Q1004=
201310240550 METAR ESMX 240550Z 22012KT 9999 FEW017 SCT020 BKN023 11/08 Q1003=
201310240520 METAR ESMX 240520Z 23013KT 9999 FEW018 SCT021 BKN027 11/08 Q1003=
201310240450 METAR ESMX 240450Z 22014KT 9999 FEW015 SCT021 BKN027 11/08 Q1003=
201310240420 METAR ESMX 240420Z 23012KT 9999 FEW012 SCT017 BKN026 11/09 Q1003=
201310240350 METAR ESMX 240350Z 23012KT 9999 FEW012 SCT018 BKN023 12/10 Q1002=
201310240320 METAR ESMX 240320Z AUTO 22013KT 9999NDV FEW011/// SCT016/// BKN020/// 12/10 Q1002=
201310240250 METAR ESMX 240250Z AUTO 22013KT 9999NDV BR FEW009/// BKN013/// BKN020/// 13/11 Q1002 REDZ=
201310240220 METAR ESMX 240220Z AUTO 21010KT 8000NDV -DZ FEW012/// SCT015/// BKN017/// 13/11 Q1002=
201310240150 METAR ESMX 240150Z AUTO 20011KT 9999NDV FEW014/// SCT020/// BKN024/// 13/11 Q1002=
201310240120 METAR ESMX 240120Z AUTO 20011KT 9999NDV FEW016/// SCT021/// BKN034/// 13/11 Q1002=
201310240050 METAR ESMX 240050Z AUTO 20012KT 9999NDV FEW023/// SCT036/// BKN043/// 13/11 Q1002=
201310240020 METAR ESMX 240020Z AUTO 22013G23KT 9999NDV FEW014/// SCT029/// BKN033/// 13/11 Q1002=
201310232350 METAR ESMX 232350Z 20013KT 9999 FEW016 SCT033 13/11 Q1002=
201310232320 METAR ESMX 232320Z 20012KT 9999 FEW014 SCT021 BKN033 13/12 Q1002=
201310232250 METAR ESMX 232250Z 20012KT 9999 FEW019 SCT074 13/12 Q1002=
201310232220 METAR ESMX 232220Z 19011KT 9999 FEW010 SCT045 13/12 Q1002=
201310232150 METAR ESMX 232150Z 19012KT 9999 FEW007 SCT015 13/12 Q1002=
201310232120 METAR ESMX 232120Z 19012KT 8000 -RA FEW006 SCT028 14/13 Q1002=
201310232050 METAR ESMX 232050Z 18011KT 9999 FEW007 SCT010 BKN013 14/12 Q1002=
201310232020 METAR ESMX 232020Z 18009KT 9999 FEW007 BKN011 14/13 Q1002=
201310231950 METAR ESMX 231950Z 18009KT 9999 FEW008 OVC010 14/13 Q1002=
201310231920 METAR ESMX 231920Z 18009KT 9999 FEW007 OVC009 14/13 Q1002=
201310231850 METAR ESMX 231850Z 18010KT 9999 FEW007 BKN009 14/13 Q1002=
201310231820 METAR ESMX 231820Z 17008KT 140V200 9000 DZ SCT007 OVC010 14/13 Q1002=
201310231750 METAR ESMX 231750Z 18006KT 9999 -RA BKN009 14/13 Q1002=
201310231720 METAR ESMX 231720Z 16007KT 9999 -RA BKN009 14/13 Q1002=
201310231650 METAR ESMX 231650Z 18007KT 140V210 9999 SCT009 BKN015 14/13 Q1002=
201310231620 METAR ESMX 231620Z 16006KT 9000 -RA SCT011 BKN015 BKN023 14/13 Q1002=
201310231550 METAR ESMX 231550Z 18007KT 9999 -DZ FEW013 BKN027 14/13 Q1002 REDZ=
201310231520 METAR ESMX 231520Z 19006KT 9999 -RA OVC011 15/13 Q1002=
201310231450 METAR ESMX 231450Z 18007KT 9999 BKN010 OVC015 15/13 Q1002=
201310231420 METAR ESMX 231420Z 20009KT 9999 OVC012 15/13 Q1001=
201310231350 METAR ESMX 231350Z 19010KT 9999 OVC011 15/13 Q1001=
201310231320 METAR ESMX 231320Z 20009KT 9999 OVC009 15/13 Q1001=
201310231250 METAR ESMX 231250Z 20009KT 9999 OVC008 15/13 Q1001=
201310231220 METAR ESMX 231220Z 21011KT 9999 OVC008 15/13 Q1001=
201310231150 METAR ESMX 231150Z 20011KT 9999 OVC007 14/12 Q1001=
201310231120 METAR ESMX 231120Z 19012KT 8000 BR OVC007 14/12 Q1001=
201310231020 METAR ESMX 231020Z 18011KT 9999 OVC007 13/12 Q1001=
201310230950 METAR ESMX 230950Z 17009KT 9999 OVC006 13/12 Q1001=
201310230920 METAR ESMX 230920Z 19008KT 9000 BR OVC005 13/12 Q1001=
201310230850 METAR ESMX 230850Z 16007KT 120V190 7000 BR OVC004 13/11 Q1000=
201310230820 METAR ESMX 230820Z 17009KT 6000 BR OVC004 12/11 Q1001=
201310230720 METAR ESMX 230720Z 17009KT 5000 BR OVC003 12/11 Q1001=
201310230650 METAR ESMX 230650Z 16006KT 4500 -DZ BR OVC003 12/11 Q1001=
201310230550 METAR ESMX 230550Z 16006KT 5000 -RA OVC003 12/11 Q1002=
201310230520 METAR ESMX 230520Z 17006KT 5000 BR OVC003 12/11 Q1002=
201310230450 METAR ESMX 230450Z 15008KT 4000 BR SCT002 OVC003 12/11 Q1002=
201310230420 METAR ESMX 230420Z 16007KT 120V180 4600 BR OVC003 12/11 Q1002=
201310230350 METAR ESMX 230350Z 16007KT 120V190 5000 BR OVC003 12/11 Q1002=
201310230320 METAR ESMX 230320Z AUTO 16008KT 6000NDV BR SCT004/// 12/11 Q1003=
201310230250 METAR ESMX 230250Z AUTO 16008KT 7000NDV BR FEW004/// 12/11 Q1003=
201310230220 METAR ESMX 230220Z AUTO 16007KT 8000NDV BR NCD 12/11 Q1004=
201310230150 METAR ESMX 230150Z AUTO 16008KT 8000NDV BR NCD 12/11 Q1004=
201310230120 METAR ESMX 230120Z AUTO 16007KT 8000NDV BR NCD 12/11 Q1004=
201310230050 METAR ESMX 230050Z AUTO 15008KT 120V180 8000NDV BR BKN040/// 12/11 Q1005=
201310230020 METAR ESMX 230020Z 16007KT 8000 BR FEW005 SCT040 BKN052 12/11 Q1005=
201310222350 METAR ESMX 222350Z 16009KT 8000 BR BKN005 13/11 Q1006=
201310222320 METAR ESMX 222320Z 17009KT 9000 BR OVC005 13/11 Q1006=
201310222250 METAR ESMX 222250Z 17008KT 9999 FEW006 BKN008 13/11 Q1006=
201310222220 METAR ESMX 222220Z 16008KT 9999 SCT007 13/11 Q1006=
201310222150 METAR ESMX 222150Z 17010KT 9999 SCT009 13/11 Q1006=
201310222120 METAR ESMX 222120Z 17010KT 150V210 9999 SCT009 13/11 Q1007=
201310222050 METAR ESMX 222050Z 16009KT 9999 FEW007 13/11 Q1007=
201310222020 METAR ESMX 222020Z 16008KT CAVOK 13/11 Q1007=
201310221950 METAR ESMX 221950Z 16009KT 9999 FEW010 SCT100 13/11 Q1008=
201310221920 METAR ESMX 221920Z 16009KT 9999 FEW009 BKN096 13/11 Q1008=
201310221850 METAR ESMX 221850Z 15009KT 9999 FEW008 BKN093 13/11 Q1008=
201310221820 METAR ESMX 221820Z 16008KT 9999 FEW006 SCT092 12/11 Q1008=
201310221750 METAR ESMX 221750Z 16009KT 9999 FEW006 SCT099 12/11 Q1009=
201310221720 METAR ESMX 221720Z 15008KT 9999 FEW007 SCT078 BKN098 12/11 Q1009=
201310221650 METAR ESMX 221650Z 16008KT 100V190 9999 BKN005 12/11 Q1009=
201310221620 METAR ESMX 221620Z 15009KT 9999 SCT005 12/11 Q1009=
201310221550 METAR ESMX 221550Z 15009KT 9999 SCT005 13/11 Q1009=
201310221520 METAR ESMX 221520Z 14008KT 110V170 CAVOK 13/11 Q1009=
201310221450 METAR ESMX 221450Z 16009KT CAVOK 14/11 Q1009=
201310221420 METAR ESMX 221420Z 16008KT CAVOK 14/12 Q1009=
201310221350 METAR ESMX 221350Z 16009KT 9999 FEW012 14/12 Q1010=
201310221320 METAR ESMX 221320Z 16010KT 9999 FEW010 14/12 Q1010=
201310221250 METAR ESMX 221250Z 17008KT 9999 FEW011 14/12 Q1010=
201310221220 METAR ESMX 221220Z 17009KT 140V200 9999 FEW008 SCT096 14/12 Q1011=
201310221150 METAR ESMX 221150Z 17010KT 9999 SCT006 BKN008 13/12 Q1011=
201310221120 METAR ESMX 221120Z 17010KT 9999 SCT006 OVC009 13/12 Q1011=
201310221050 METAR ESMX 221050Z 17010KT 9000 BR OVC005 13/11 Q1011=
201310221020 METAR ESMX 221020Z 17010KT 8000 BR OVC004 13/11 Q1011=
201310220950 METAR ESMX 220950Z 17011KT 8000 BR OVC004 12/11 Q1011=
201310220920 METAR ESMX 220920Z 17011KT 8000 BR OVC004 12/11 Q1011=
201310220850 METAR ESMX 220850Z 16011KT 6000 BR OVC003 12/11 Q1011=
201310220820 METAR ESMX 220820Z 16011KT 8000 BR OVC003 12/11 Q1012=
201310220750 METAR COR ESMX 220750Z 17011KT 140V200 9000 BR OVC004 12/11 Q1012 REDZ=
201310220720 METAR ESMX 220720Z 15009KT 120V180 9000 BR FEW002 OVC004 11/10 Q1012=
201310220650 METAR ESMX 220650Z 15008KT 7000 -RA BKN002 OVC004 11/10 Q1012=
201310220620 METAR ESMX 220620Z 15009KT 110V170 7000 -RA OVC003 10/10 Q1012=
201310220550 METAR ESMX 220550Z 15008KT 110V180 6000 BR OVC002 10/10 Q1012 REDZ=
201310220520 METAR ESMX 220520Z 14008KT 100V160 5000 DZ OVC002 09/09 Q1012=
201310220450 METAR ESMX 220450Z 15007KT 110V190 3200 DZ OVC002 09/08 Q1013=
201310220420 METAR ESMX 220420Z 14007KT 080V180 4100 -RA OVC002 09/08 Q1013=
201310220350 METAR ESMX 220350Z 14006KT 110V170 1400 R01/P2000N R19/P2000N -RA OVC001 09/08 Q1013=
201310220320 METAR ESMX 220320Z AUTO 14006KT 100V160 0900NDV R01/P2000N R19/P2000N -RA VV002 08/08 Q1013=
201310220250 METAR ESMX 220250Z AUTO 13005KT 080V160 1600NDV BR OVC001/// 08/07 Q1014=
201310220220 METAR ESMX 220220Z AUTO 14006KT 100V170 2500NDV -DZ OVC001/// 08/07 Q1014=
201310220150 METAR ESMX 220150Z AUTO 13006KT 090V170 2200NDV BR OVC002/// 08/07 Q1014=
201310220120 METAR ESMX 220120Z AUTO 11006KT 070V160 3300NDV BR OVC002/// 08/07 Q1014=
201310220050 METAR ESMX 220050Z AUTO 13006KT 090V170 7000NDV BR OVC003/// 07/07 Q1015=
201310220020 METAR ESMX 220020Z AUTO 13005KT 100V180 6000NDV BR OVC002/// 07/07 Q1015=
201310212350 METAR COR ESMX 212350Z 13006KT 080V170 4500 BR OVC003 07/06 Q1015=
201310212320 METAR ESMX 212320Z 13005KT 070V190 3900 BR OVC003 07/06 Q1015=
201310212250 METAR ESMX 212250Z 11005KT 070V190 7000 BR FEW002 OVC003 07/06 Q1015=
201310212220 METAR ESMX 212220Z 11006KT 070V180 3000 +DZ OVC002 07/06 Q1015=
201310212150 METAR ESMX 212150Z 11005KT 040V150 4700 -DZ OVC003 07/06 Q1015=
201310212120 METAR ESMX 212120Z 11005KT 050V210 7000 DZ OVC004 07/06 Q1015=
201310212050 METAR ESMX 212050Z 11005KT 070V150 5000 DZ OVC005 06/06 Q1015=
201310212020 METAR ESMX 212020Z 10006KT 060V160 4800 BR OVC005 06/05 Q1015 REDZ=
201310211950 METAR ESMX 211950Z 10007KT 050V140 3800 DZ OVC006 06/05 Q1015=
201310211920 METAR ESMX 211920Z 11006KT 070V160 9000 BR OVC006 06/05 Q1015=
201310211850 METAR ESMX 211850Z 10006KT 050V140 7000 BR OVC007 06/05 Q1015=
201310211820 METAR ESMX 211820Z 09006KT 050V120 9000 BR OVC008 06/05 Q1015=
201310211750 METAR ESMX 211750Z 10006KT 050V130 9999 OVC007 06/05 Q1015=
201310211720 METAR ESMX 211720Z 09005KT 050V140 9999 FEW007 OVC008 06/05 Q1015=
201310211650 METAR ESMX 211650Z 08006KT 040V120 9999 FEW005 BKN007 06/05 Q1014=
201310211620 METAR ESMX 211620Z 09008KT 050V120 9999 FEW006 OVC008 06/05 Q1014=
201310211550 METAR ESMX 211550Z 08006KT 020V130 9000 BR FEW006 BKN007 06/05 Q1014=
201310211520 METAR ESMX 211520Z 07006KT 020V120 7000 BR FEW006 BKN008 06/05 Q1014=
201310211450 METAR ESMX 211450Z 08007KT 030V130 9999 FEW007 SCT008 BKN009 06/05 Q1014=
201310211420 METAR ESMX 211420Z 08006KT 020V110 7000 BR FEW007 SCT008 OVC010 06/05 Q1013=
201310211350 METAR ESMX 211350Z 08007KT 020V120 7000 BR FEW006 SCT008 BKN010 06/05 Q1013=
201310211320 METAR ESMX 211320Z 08007KT 040V110 6000 DZ FEW007 OVC011 06/05 Q1013=
201310211250 METAR ESMX 211250Z 07007KT 040V110 6000 DZ FEW007 SCT009 OVC011 06/05 Q1013=
201310211220 METAR ESMX 211220Z 07008KT 030V110 9999 FEW007 SCT009 OVC012 06/05 Q1013=
201310211150 METAR ESMX 211150Z 07007KT 040V120 7000 -RA FEW007 BKN011 07/06 Q1012=
201310211120 METAR ESMX 211120Z 05007KT 360V080 7000 -RA FEW007 BKN010 07/06 Q1012=
201310211050 METAR ESMX 211050Z 07006KT 030V120 7000 -RA FEW006 OVC009 07/06 Q1012=
201310211020 METAR ESMX 211020Z 06006KT 020V100 8000 -RA FEW006 BKN009 07/06 Q1012=
201310210950 METAR ESMX 210950Z 05006KT 360V100 6000 RA FEW006 BKN008 07/06 Q1011=
201310210850 METAR ESMX 210850Z 07007KT 010V100 8000 RA FEW006 BKN009 07/06 Q1011=
201310210820 METAR ESMX 210820Z 07007KT 020V110 8000 RA FEW006 BKN009 07/06 Q1011=
201310210750 METAR ESMX 210750Z 06008KT 020V080 9000 -RA FEW006 BKN009 07/06 Q1011 RERA=
201310210720 METAR ESMX 210720Z 07007KT 030V110 7000 RA FEW006 OVC008 06/06 Q1011=
201310210650 METAR ESMX 210650Z 08005KT 020V140 8000 RA FEW006 BKN008 07/06 Q1010=
201310210620 METAR ESMX 210620Z 07007KT 030V120 9000 -RA OVC006 07/06 Q1010=
201310210550 METAR ESMX 210550Z 08007KT 030V150 9999 -RA OVC006 07/06 Q1010=
201310210520 METAR ESMX 210520Z 07007KT 010V120 9999 -DZ OVC006 07/06 Q1010=
201310210450 METAR ESMX 210450Z 08007KT 040V130 9999 -DZ FEW006 OVC008 07/06 Q1010=
201310210420 METAR ESMX 210420Z 08008KT 020V120 9999 -DZ OVC006 07/06 Q1010=
201310210350 METAR ESMX 210350Z 08008KT 030V150 9999 -DZ OVC006 07/06 Q1010=
201310210320 METAR ESMX 210320Z AUTO 08008KT 050V120 9999NDV DZ OVC006/// 07/06 Q1010=
201310210250 METAR ESMX 210250Z AUTO 08006KT 050V120 9999NDV DZ OVC005/// 07/06 Q1010=
201310210220 METAR ESMX 210220Z AUTO 08007KT 030V140 9999NDV OVC006/// 07/06 Q1011=
201310210150 METAR ESMX 210150Z AUTO 08006KT 050V120 9999NDV OVC006/// 07/06 Q1011=
201310210120 METAR ESMX 210120Z AUTO 08006KT 040V120 9999NDV -RA FEW005/// SCT007/// OVC008/// 07/06 Q1011=
201310210050 METAR ESMX 210050Z AUTO 06005KT 010V110 9999NDV -RA BKN005/// OVC008/// 07/07 Q1011 RESHRA=
201310210020 METAR ESMX 210020Z AUTO 07005KT 030V140 8000NDV RA OVC004/// 08/07 Q1011=
201310202350 METAR ESMX 202350Z 08005KT 040V130 6000 -RA OVC004 08/07 Q1011=
201310202320 METAR ESMX 202320Z 09004KT 040V120 5000 -RA FEW003 OVC005 07/07 Q1011=
201310202250 METAR ESMX 202250Z 08005KT 050V120 3200 -DZ BR OVC004 07/07 Q1012=
201310202220 METAR ESMX 202220Z 08005KT 050V110 6000 -DZ OVC005 07/07 Q1012=
201310202150 METAR ESMX 202150Z 08005KT 010V150 9999 OVC005 07/06 Q1011=
201310202120 METAR ESMX 202120Z 10009KT 6000 -DZ BR SCT004 BKN006 OVC016 07/06 Q1011=
201310202050 METAR ESMX 202050Z 09004KT 060V120 3500 DZ FEW003 OVC005 07/06 Q1011=
201310202020 METAR ESMX 202020Z 09004KT 040V120 3900 DZ OVC005 07/06 Q1011=
201310201950 METAR ESMX 201950Z 02004KT 340V070 9000 -DZ FEW003 OVC004 06/06 Q1011=
201310201920 METAR ESMX 201920Z 07004KT 040V100 6000 -DZ FEW003 OVC005 06/06 Q1011=
201310201850 METAR ESMX 201850Z 08004KT 040V110 7000 DZ FEW003 OVC005 06/06 Q1011=
201310201820 METAR ESMX 201820Z 08004KT 040V120 4000 RA FEW003 OVC005 06/06 Q1011=
201310201750 METAR ESMX 201750Z 04004KT 360V060 7000 DZ FEW003 OVC005 06/06 Q1011=
201310201720 METAR ESMX 201720Z 08005KT 050V120 5000 RA FEW003 OVC005 06/06 Q1011=
201310201650 METAR ESMX 201650Z 08004KT 030V120 5000 -RA FEW003 SCT005 OVC006 06/06 Q1011 RERA=
201310201620 METAR ESMX 201620Z 08005KT 030V120 4500 -RA BKN004 OVC005 06/06 Q1011=
201310201550 METAR ESMX 201550Z 10006KT 060V160 4300 -RA FEW004 OVC005 06/05 Q1011=
201310201520 METAR ESMX 201520Z 09006KT 040V120 5000 -RA FEW003 BKN005 OVC007 06/05 Q1011=
201310201450 METAR ESMX 201450Z 09006KT 060V120 5000 -RA SCT004 BKN006 06/05 Q1011=
201310201420 METAR ESMX 201420Z 09005KT 050V140 6000 -RA SCT004 BKN007 06/05 Q1011=
201310201350 METAR ESMX 201350Z 09006KT 030V120 5000 -RA FEW005 SCT007 BKN008 06/05 Q1011=
201310201320 METAR ESMX 201320Z 08006KT 050V110 9000 -RA FEW005 BKN008 06/05 Q1011=
201310201250 METAR ESMX 201250Z 07005KT 030V090 5000 -RA SCT005 BKN007 06/05 Q1011=
201310201220 METAR ESMX 201220Z AUTO 08004KT 040V120 9999NDV FEW005/// SCT007/// BKN008/// 06/05 Q1011=
201310201150 METAR ESMX 201150Z AUTO 09004KT 050V140 9999NDV DZ FEW005/// SCT006/// OVC008/// 06/05 Q1011=
201310201120 METAR ESMX 201120Z AUTO 07006KT 030V110 6000NDV -RA FEW002/// BKN004/// OVC007/// 06/05 Q1011=
201310201050 METAR ESMX 201050Z AUTO 05005KT 360V080 4300NDV DZ FEW003/// BKN005/// OVC007/// 06/05 Q1011=
201310201020 METAR ESMX 201020Z AUTO 07005KT 030V100 3100NDV -RA FEW004/// SCT005/// BKN007/// 05/05 Q1011=
201310200950 METAR ESMX 200950Z AUTO 08005KT 050V110 5000NDV BR FEW004/// BKN006/// OVC008/// 05/05 Q1011=
201310200920 METAR ESMX 200920Z AUTO 07005KT 040V110 7000NDV BR FEW004/// BKN005/// OVC007/// 05/04 Q1011=
201310200850 METAR ESMX 200850Z AUTO 07005KT 020V130 8000NDV DZ FEW004/// SCT005/// BKN008/// 05/04 Q1011=
201310200820 METAR ESMX 200820Z AUTO 06005KT 030V090 6000NDV DZ FEW004/// BKN006/// BKN008/// 05/04 Q1011=
201310200750 METAR ESMX 200750Z AUTO 06005KT 8000NDV DZ FEW004/// BKN006/// OVC010/// 05/04 Q1011=
201310200720 METAR ESMX 200720Z AUTO 07004KT 030V110 7000NDV -RA FEW006/// SCT009/// BKN016/// 05/04 Q1011=
201310200650 METAR ESMX 200650Z AUTO 06004KT 030V100 9999NDV -DZ FEW006/// SCT017/// BKN020/// 04/03 Q1011=
201310200620 METAR ESMX 200620Z AUTO 07005KT 040V100 9999NDV DZ FEW006/// BKN025/// 04/03 Q1011=
201310200550 METAR ESMX 200550Z 08003KT 050V110 9999 -RA FEW005 SCT008 OVC020 04/03 Q1011=
201310200520 METAR ESMX 200520Z 08004KT 050V120 9000 -RA FEW009 OVC022 04/03 Q1011=
201310200450 METAR ESMX 200450Z 08005KT 050V120 9999 -RA FEW006 SCT022 BKN029 04/03 Q1011=
201310200420 METAR ESMX 200420Z 09004KT 050V160 9999 -RA FEW008 BKN025 04/03 Q1011=
201310200350 METAR ESMX 200350Z 08005KT 050V120 9999 -RA FEW010 SCT034 04/03 Q1011=
201310200320 METAR ESMX 200320Z AUTO 07005KT 040V110 6000NDV -RA BKN009/// 05/03 Q1011=
201310200250 METAR ESMX 200250Z AUTO 07003KT 050V110 8000NDV -RA FEW009/// 05/03 Q1011=
201310200220 METAR ESMX 200220Z AUTO 07004KT 050V110 9999NDV -RA FEW010/// 05/03 Q1011=
201310200150 METAR ESMX 200150Z AUTO 10004KT 060V140 9999NDV -RA FEW009/// SCT023/// BKN041/// 05/03 Q1011=
201310200120 METAR ESMX 200120Z AUTO 10004KT 060V140 9999NDV -RA FEW013/// 05/03 Q1012=
201310200050 METAR ESMX 200050Z AUTO 10003KT 070V150 9999NDV -DZ FEW050/// 05/03 Q1012=
201310200020 METAR ESMX 200020Z AUTO VRB02KT 9999NDV OVC050/// 05/03 Q1012 REDZ=
201310192350 METAR ESMX 192350Z AUTO 12005KT 080V160 9999NDV BKN051/// 05/02 Q1013=
201310192320 METAR ESMX 192320Z AUTO 09004KT 050V130 9999NDV OVC051/// 05/02 Q1013=
201310192250 METAR ESMX 192250Z AUTO 09004KT 050V130 9999NDV OVC053/// 05/02 Q1013=
201310192220 METAR ESMX 192220Z AUTO VRB02KT 9999NDV FEW023/// OVC057/// 05/02 Q1014=
201310192150 METAR ESMX 192150Z AUTO VRB02KT 9999NDV FEW024/// OVC061/// 05/02 Q1014=
201310192120 METAR ESMX 192120Z AUTO VRB02KT 9999NDV BKN066/// 05/02 Q1014=
201310192050 METAR ESMX 192050Z AUTO 11003KT 070V140 9999NDV OVC070/// 05/02 Q1014=
201310192020 METAR ESMX 192020Z VRB02KT 9999 FEW021 OVC073 05/02 Q1014=
201310191950 METAR ESMX 191950Z 09003KT 060V120 9999 FEW022 SCT076 04/02 Q1014=
201310191920 METAR ESMX 191920Z VRB02KT CAVOK 05/02 Q1015=
201310191850 METAR ESMX 191850Z VRB02KT CAVOK 04/02 Q1015=
201310191820 METAR ESMX 191820Z 12003KT CAVOK 04/02 Q1015=
201310191750 METAR ESMX 191750Z 11003KT CAVOK 04/02 Q1015=
201310191720 METAR ESMX 191720Z AUTO 13002KT 9999NDV NCD 04/02 Q1015=
201310191650 METAR ESMX 191650Z AUTO 13003KT 9999NDV NCD 04/02 Q1015=
201310191620 METAR ESMX 191620Z AUTO 15003KT 9999NDV NCD 04/02 Q1016=
201310191550 METAR ESMX 191550Z AUTO 15003KT 9999NDV NCD 05/02 Q1016=
201310191520 METAR ESMX 191520Z AUTO 17003KT 9999NDV NCD 06/02 Q1016=
201310191450 METAR ESMX 191450Z AUTO 15002KT 9999NDV NCD 07/01 Q1016=
201310191420 METAR ESMX 191420Z AUTO 19005KT 150V210 9999NDV NCD 07/01 Q1017=
201310191350 METAR ESMX 191350Z AUTO 21005KT 9999NDV NCD 07/02 Q1017=
201310191320 METAR ESMX 191320Z AUTO 21007KT 9999NDV FEW023/// 07/02 Q1017=
201310191250 METAR ESMX 191250Z AUTO 23008KT 9999NDV NCD 07/02 Q1017=
201310191220 METAR ESMX 191220Z AUTO 21010KT 9999NDV FEW022/// SCT075/// 08/02 Q1017=
201310191150 METAR ESMX 191150Z AUTO 21011KT 9999NDV FEW090/// 08/03 Q1018=
201310191120 METAR ESMX 191120Z AUTO 21008KT 9999NDV NCD 07/03 Q1018=
201310191050 METAR ESMX 191050Z AUTO 20007KT 9999NDV NCD 07/02 Q1018=
201310191020 METAR ESMX 191020Z 19007KT CAVOK 05/02 Q1018=
201310190950 METAR ESMX 190950Z 20009KT CAVOK 05/02 Q1019=
201310190920 METAR ESMX 190920Z 22010KT CAVOK 04/02 Q1018=
201310190850 METAR ESMX 190850Z 19009KT CAVOK 04/02 Q1018=
201310190820 METAR ESMX 190820Z AUTO 19006KT 9999NDV SCT037/// 02/01 Q1018=
201310190750 METAR ESMX 190750Z AUTO 22006KT 9999NDV BKN039/// 01/00 Q1018=
201310190720 METAR ESMX 190720Z AUTO 21007KT 9999NDV FEW040/// 01/M00 Q1018=
201310190650 METAR ESMX 190650Z AUTO 22006KT 9999NDV NCD 00/M01 Q1019=
201310190620 METAR ESMX 190620Z AUTO 19009KT 9999NDV FEW037/// M00/M01 Q1019=
201310190550 METAR ESMX 190550Z AUTO 21007KT 9999NDV NCD M01/M02 Q1019=
201310190520 METAR ESMX 190520Z AUTO 21006KT 9999NDV NCD M02/M02 Q1018=
201310190450 METAR ESMX 190450Z AUTO 21007KT 9999NDV NCD M02/M02 Q1018=
201310190420 METAR ESMX 190420Z AUTO 21007KT 9999NDV NCD M02/M03 Q1019=
201310190350 METAR ESMX 190350Z AUTO 21006KT 9999NDV NCD M03/M04 Q1019=
201310190320 METAR ESMX 190320Z AUTO 22006KT 9999NDV NCD M03/M04 Q1019=
201310190250 METAR ESMX 190250Z AUTO 22006KT 9999NDV NCD M03/M03 Q1019=
201310190220 METAR ESMX 190220Z AUTO 22006KT 9999NDV NCD M03/M04 Q1019=
201310190150 METAR ESMX 190150Z AUTO 22006KT 9999NDV NCD M03/M03 Q1019=
201310190120 METAR ESMX 190120Z AUTO 16004KT 9999NDV NCD M02/M02 Q1019=
201310190050 METAR ESMX 190050Z AUTO 22006KT 9999NDV NCD M02/M03 Q1019=
201310190020 METAR ESMX 190020Z AUTO 22005KT 9999NDV NCD M03/M03 Q1019=
201310182350 METAR ESMX 182350Z AUTO 23005KT 9999NDV NCD M03/M03 Q1019=
201310182320 METAR ESMX 182320Z AUTO 23005KT 9999NDV NCD M03/M04 Q1019=
201310182250 METAR ESMX 182250Z AUTO 23003KT 9999NDV NCD M03/M04 Q1019=
201310182220 METAR ESMX 182220Z AUTO 24003KT 9999NDV NCD M03/M04 Q1019=
201310182150 METAR ESMX 182150Z AUTO 21002KT 9999NDV NCD M04/M04 Q1019=
201310182120 METAR ESMX 182120Z AUTO 23004KT 9999NDV NCD M03/M03 Q1019=
201310182050 METAR ESMX 182050Z AUTO 23003KT 9999NDV NCD M02/M03 Q1019=
201310182020 METAR ESMX 182020Z AUTO 25003KT 9999NDV NCD M01/M03 Q1019=
201310181950 METAR ESMX 181950Z AUTO 25004KT 9999NDV NCD M02/M03 Q1019=
201310181920 METAR ESMX 181920Z AUTO 23002KT 9999NDV NCD M03/M04 Q1019=
201310181850 METAR ESMX 181850Z AUTO 26001KT 9999NDV NCD M01/M03 Q1019=
201310181820 METAR ESMX 181820Z 27003KT CAVOK M01/M03 Q1019=
201310181750 METAR ESMX 181750Z 26004KT CAVOK M01/M04 Q1018=
201310181720 METAR ESMX 181720Z 26003KT CAVOK M00/M03 Q1018=
201310181650 METAR ESMX 181650Z 27004KT CAVOK 01/M03 Q1018=
201310181620 METAR ESMX 181620Z 26004KT CAVOK 01/M03 Q1018=
201310181550 METAR ESMX 181550Z 27003KT CAVOK 03/M04 Q1017=
201310181520 METAR ESMX 181520Z 32005KT CAVOK 06/M04 Q1017=
201310181450 METAR ESMX 181450Z 32007KT CAVOK 06/M03 Q1017=
201310181420 METAR ESMX 181420Z 31008KT CAVOK 07/M03 Q1016=
201310181350 METAR ESMX 181350Z 34009KT CAVOK 07/M03 Q1016=
201310181320 METAR ESMX 181320Z 33011KT CAVOK 06/M04 Q1016=
201310181250 METAR ESMX 181250Z 32010KT CAVOK 07/M02 Q1015=
201310181220 METAR ESMX 181220Z 33012KT 290V350 CAVOK 07/M02 Q1015=
201310181150 METAR ESMX 181150Z 34010KT 300V010 9999 FEW020 06/M02 Q1015=
201310181120 METAR ESMX 181120Z 33012KT 9999 FEW020 06/M01 Q1014=
201310181020 METAR ESMX 181020Z 33013KT 9999 FEW022 05/M00 Q1013=
201310180950 METAR ESMX 180950Z 32012KT 9999 SCT020 04/M00 Q1013=
201310180920 METAR ESMX 180920Z 32011KT 9999 FEW015 SCT020 05/01 Q1012=
201310180850 METAR ESMX 180850Z 33014G25KT 9999 FEW016 SCT020 05/01 Q1012=
201310180820 METAR ESMX 180820Z 32011KT 9999 FEW015 SCT020 04/01 Q1011=
201310180750 METAR ESMX 180750Z 34015G26KT 9999 FEW019 OVC021 04/00 Q1010=
201310180720 METAR ESMX 180720Z 33015KT 9999 FEW016 BKN019 04/01 Q1009=
201310180650 METAR ESMX 180650Z 34014KT 9999 FEW015 BKN018 04/01 Q1009=
201310180620 METAR ESMX 180620Z 33011KT 9999 FEW016 BKN020 03/01 Q1008=
201310180550 METAR ESMX 180550Z 33012KT 9999 FEW012 BKN020 03/01 Q1007=
201310180520 METAR ESMX 180520Z 34012KT 9999 FEW012 BKN015 OVC018 03/01 Q1006=
201310180450 METAR ESMX 180450Z 34012KT 9999 FEW013 BKN015 03/01 Q1005=
201310180420 METAR ESMX 180420Z 36016KT 9999 FEW010 OVC013 03/01 Q1005=
201310180350 METAR ESMX 180350Z 35015KT 9999 FEW011 SCT013 OVC017 04/02 Q1004=
201310180320 METAR ESMX 180320Z AUTO 34014KT 9999NDV FEW011/// BKN016/// 04/02 Q1003=
201310180250 METAR ESMX 180250Z AUTO 33011KT 9999NDV -DZ FEW009/// BKN012/// BKN019/// 06/04 Q1002=
201310180220 METAR ESMX 180220Z AUTO 30009KT 270V330 9999NDV -RA FEW012/// SCT016/// BKN033/// 06/05 Q1001 RERA=
201310180150 METAR ESMX 180150Z AUTO 32010KT 9999NDV -RA FEW007/// SCT021/// 07/05 Q1001=
201310180120 METAR ESMX 180120Z AUTO 27005KT 9999NDV FEW008/// OVC016/// 08/06 Q1000=
201310180050 METAR ESMX 180050Z AUTO 28005KT 9999NDV FEW011/// OVC015/// 08/06 Q1000=
201310180020 METAR ESMX 180020Z AUTO 27008KT 9999NDV FEW005/// SCT012/// OVC014/// 08/07 Q1000=
201310172350 METAR ESMX 172350Z 28006KT 9999 FEW005 BKN006 OVC009 08/07 Q1000=
201310172320 METAR ESMX 172320Z 30007KT 9999 FEW003 OVC005 08/07 Q0999=
201310172250 METAR ESMX 172250Z 28006KT 7000 BR FEW001 SCT005 08/07 Q0999=
201310172220 METAR ESMX 172220Z AUTO VRB02KT 7000NDV BR FEW007/// SCT008/// BKN010/// 08/07 Q0999=
201310172150 METAR ESMX 172150Z 30004KT 5000 BR FEW005 SCT011 BKN060 08/07 Q0999 RESHRA=
201310172120 METAR ESMX 172120Z 32004KT 7000 BR FEW002 SCT010 BKN048 09/08 Q0999 RERA=
201310172050 METAR ESMX 172050Z 27003KT 2800 -RA OVC002 09/08 Q0999 REDZ=
201310172020 METAR ESMX 172020Z 27003KT 4500 -RA OVC002 09/08 Q0999=
201310171950 METAR ESMX 171950Z 24001KT 2700 BR OVC002 09/08 Q0999=
201310171920 METAR ESMX 171920Z 00000KT 2900 BR BKN004 OVC011 09/08 Q0998=
201310171850 METAR ESMX 171850Z 00000KT 4700 BR FEW004 BKN005 OVC012 09/08 Q0998=
201310171820 METAR ESMX 171820Z 00000KT 4900 BR BKN005 OVC012 09/08 Q0998=
201310171750 METAR ESMX 171750Z 16002KT 6000 BR FEW007 BKN012 09/08 Q0998=
201310171720 METAR ESMX 171720Z 16003KT 6000 BR FEW004 BKN012 OVC033 09/08 Q0999=
201310171650 METAR ESMX 171650Z 16004KT 8000 BR FEW004 SCT026 BKN037 09/08 Q0999=
201310171620 METAR ESMX 171620Z 15003KT 9999 FEW006 SCT013 OVC037 09/08 Q0999=
201310171550 METAR ESMX 171550Z 17002KT 9999 FEW007 SCT031 OVC038 10/08 Q0999=
201310171520 METAR ESMX 171520Z 17003KT 9999 FEW018 BKN022 OVC045 10/08 Q0999=
201310171450 METAR ESMX 171450Z 18005KT 9999 FEW010 SCT015 BKN018 10/08 Q0999=
201310171420 METAR ESMX 171420Z 19004KT 9999 FEW006 SCT008 BKN011 10/09 Q0999=
201310171350 METAR ESMX 171350Z 18004KT 150V210 9999 FEW006 SCT011 BKN014 10/08 Q1000=
201310171320 METAR ESMX 171320Z 16004KT 110V190 9000 BR SCT007 BKN020 10/09 Q1000=
201310171250 METAR ESMX 171250Z 18004KT 140V210 8000 BR FEW006 SCT007 BKN012 10/09 Q1000=
201310171220 METAR ESMX 171220Z 17005KT 6000 -RA FEW006 SCT007 BKN009 10/09 Q1001=
201310171150 METAR ESMX 171150Z 16005KT 5000 BR FEW005 BKN007 OVC010 10/08 Q1001 REDZ=
201310171120 METAR ESMX 171120Z 17006KT 3500 DZ BKN005 OVC008 09/08 Q1001=
201310171050 METAR ESMX 171050Z 16006KT 3900 DZ FEW004 BKN006 09/08 Q1002=
201310171020 METAR ESMX 171020Z 16006KT 120V200 5000 BR FEW003 OVC005 09/08 Q1002=
201310170950 METAR ESMX 170950Z 16004KT 130V190 5000 -DZ BR SCT005 BKN010 09/08 Q1003=
201310170920 METAR ESMX 170920Z 17007KT 4700 -DZ BR BKN005 OVC008 08/07 Q1003=
201310170850 METAR ESMX 170850Z 18007KT 5000 BR BKN005 OVC008 09/07 Q1003=
201310170750 METAR ESMX 170750Z 16005KT 120V190 4300 BR FEW003 BKN004 08/07 Q1004=
201310170720 METAR ESMX 170720Z 15004KT 110V190 3000 BR BKN002 OVC005 08/07 Q1004=
201310170650 METAR ESMX 170650Z 16003KT 3300 BR OVC002 08/07 Q1005=
201310170620 METAR ESMX 170620Z 17005KT 3000 -DZ BR SCT002 BKN004 08/07 Q1005 REDZ=
201310170605 METAR ESMX 170605Z 16005KT 3000 DZ SCT002 BKN004 07/07 Q1005=
201310170520 METAR ESMX 170520Z 15004KT 6000 BR FEW002 OVC004 07/06 Q1005 REDZ=
201310170450 METAR ESMX 170450Z 15004KT 120V180 8000 -DZ BKN005 07/06 Q1006=
201310170420 METAR ESMX 170420Z 16004KT 9999 SCT025 OVC040 07/05 Q1006=
201310170350 METAR ESMX 170350Z 16005KT 9999 SCT030 OVC042 07/05 Q1007=
201310170320 METAR ESMX 170320Z AUTO 16005KT 140V200 9999NDV FEW012/// OVC033/// 07/05 Q1007=
201310170250 METAR ESMX 170250Z AUTO 17004KT 9999NDV SCT028/// OVC035/// 07/05 Q1007=
201310170220 METAR ESMX 170220Z AUTO 17004KT 9999NDV SCT033/// OVC054/// 07/05 Q1007=
201310170150 METAR ESMX 170150Z AUTO 17005KT 9999NDV OVC031/// 07/05 Q1008=
201310170120 METAR ESMX 170120Z AUTO 18005KT 9999NDV OVC029/// 06/05 Q1008=
201310170050 METAR ESMX 170050Z AUTO 18006KT 9999NDV BKN028/// OVC051/// 06/04 Q1009=
201310170020 METAR ESMX 170020Z AUTO 18006KT 9999NDV OVC025/// 06/04 Q1009=
201310162350 METAR ESMX 162350Z 18004KT 9999 BKN025 OVC050 06/04 Q1009=
201310162320 METAR ESMX 162320Z 18004KT 9999 FEW025 OVC044 06/04 Q1009=
201310162250 METAR ESMX 162250Z 19004KT 9999 OVC040 06/04 Q1010=
201310162220 METAR ESMX 162220Z 19004KT 9999 FEW030 OVC039 06/04 Q1010=
201310162150 METAR ESMX 162150Z 16002KT 9999 FEW023 OVC039 06/04 Q1010=
201310162120 METAR ESMX 162120Z 19004KT 9999 SCT022 OVC036 06/04 Q1010=
201310162050 METAR ESMX 162050Z 20004KT 9999 SCT025 OVC031 06/04 Q1011=
201310162020 METAR ESMX 162020Z 18002KT 9999 OVC031 06/04 Q1011=
201310161950 METAR ESMX 161950Z VRB01KT 9999 OVC033 06/04 Q1011=
201310161920 METAR ESMX 161920Z 13002KT 9999 FEW018 BKN022 OVC032 06/04 Q1011=
201310161850 METAR ESMX 161850Z 23002KT 9999 OVC018 06/04 Q1011=
201310161820 METAR ESMX 161820Z 22001KT 9999 FEW016 OVC019 06/04 Q1011=
201310161750 METAR ESMX 161750Z 23003KT 9999 OVC016 06/04 Q1012=
201310161720 METAR ESMX 161720Z 25002KT 9999 OVC016 06/04 Q1012=
201310161650 METAR ESMX 161650Z VRB02KT 9999 OVC020 06/04 Q1011=
201310161620 METAR ESMX 161620Z 00000KT 9999 OVC019 06/04 Q1011=
201310161550 METAR ESMX 161550Z 00000KT 9999 OVC018 07/04 Q1011=
201310161520 METAR ESMX 161520Z 25002KT 9999 OVC018 07/04 Q1011=
201310161450 METAR ESMX 161450Z 23004KT 9999 OVC018 07/04 Q1011=
201310161420 METAR ESMX 161420Z 23004KT 9999 OVC019 07/04 Q1011=
201310161350 METAR ESMX 161350Z 25004KT 9999 OVC018 07/03 Q1011=
201310161320 METAR ESMX 161320Z 23004KT 9999 OVC017 07/03 Q1012=
201310161250 METAR ESMX 161250Z 22005KT 9999 OVC018 07/04 Q1012=
201310161220 METAR ESMX 161220Z VRB02KT 9999 OVC017 07/03 Q1012=
201310161150 METAR ESMX 161150Z 28003KT 9999 OVC016 07/03 Q1012=
201310161120 METAR ESMX 161120Z 30005KT 9999 OVC018 07/03 Q1012=
201310161050 METAR ESMX 161050Z 30005KT 9999 FEW012 OVC017 07/04 Q1012=
201310161020 METAR ESMX 161020Z VRB02KT 9999 FEW011 SCT015 BKN019 07/04 Q1012=
201310160950 METAR ESMX 160950Z 35003KT 300V020 9999 SCT010 BKN020 07/05 Q1012=
201310160920 METAR ESMX 160920Z 01004KT 9999 SCT007 OVC020 07/05 Q1012=
201310160850 METAR ESMX 160850Z 01004KT 340V070 9999 FEW006 OVC022 06/05 Q1012=
201310160820 METAR ESMX 160820Z 05005KT 9999 SCT005 BKN022 06/05 Q1011=
201310160750 METAR ESMX 160750Z 36003KT 340V060 9999 SCT006 BKN020 05/05 Q1012=
201310160720 METAR ESMX 160720Z 01004KT 9999 SCT020 04/04 Q1011=
201310160650 METAR ESMX 160650Z 32001KT 9999 BKN026 02/01 Q1011=
201310160620 METAR ESMX 160620Z 01003KT 9999 BCFG FEW019 01/00 Q1010=
201310160550 METAR ESMX 160550Z 01003KT 9999 FEW025 02/02 Q1010=
201310160520 METAR ESMX 160520Z 02004KT 9999 FEW021 03/02 Q1010=
201310160450 METAR ESMX 160450Z 01003KT 9999 FEW020 03/02 Q1010=
201310160420 METAR ESMX 160420Z 01003KT 9999 FEW020 03/03 Q1010=
201310160350 METAR ESMX 160350Z 02003KT 9999 FEW022 04/03 Q1009=
201310160320 METAR ESMX 160320Z AUTO 01005KT 9999NDV NCD 04/03 Q1009=
201310160250 METAR ESMX 160250Z AUTO 02005KT 9999NDV NCD 04/03 Q1009=
201310160220 METAR ESMX 160220Z AUTO 01006KT 0800NDV R01/P2000N R19/P2000N FG NCD 04/03 Q1009=
201310160150 METAR ESMX 160150Z AUTO 01004KT 3500NDV BR NCD 05/04 Q1009=
201310160120 METAR ESMX 160120Z AUTO 02006KT 9999NDV NCD 06/04 Q1009=
201310160050 METAR ESMX 160050Z AUTO 03005KT 9999NDV SCT059/// 06/05 Q1009=
201310160020 METAR ESMX 160020Z AUTO 04005KT 9999NDV BKN058/// 07/05 Q1008=
201310152350 METAR ESMX 152350Z 04007KT CAVOK 07/05 Q1008=
201310152320 METAR ESMX 152320Z 03008KT CAVOK 08/06 Q1008=
201310152250 METAR ESMX 152250Z 03006KT CAVOK 08/06 Q1008=
201310152220 METAR ESMX 152220Z 03004KT 8000 BR OVC062 07/07 Q1008=
201310152150 METAR ESMX 152150Z 02004KT 6000 BR OVC061 08/07 Q1008=
201310152120 METAR ESMX 152120Z 01003KT 3900 BR OVC053 07/07 Q1008=
201310152050 METAR ESMX 152050Z 02003KT 2500 BR FEW005 BKN049 07/06 Q1008=
201310152020 METAR ESMX 152020Z 01003KT 4800 BR FEW049 BKN062 07/06 Q1008=
201310151950 METAR ESMX 151950Z 06002KT 8000 BR OVC051 08/07 Q1008=
201310151920 METAR ESMX 151920Z 04001KT 8000 BR BKN051 OVC070 08/07 Q1008=
201310151850 METAR ESMX 151850Z 04002KT 9000 BR FEW011 OVC051 08/07 Q1008=
201310151820 METAR ESMX 151820Z 05002KT 9999 BKN011 OVC049 08/07 Q1008=
201310151750 METAR ESMX 151750Z 04004KT 9999 OVC012 08/07 Q1008=
201310151720 METAR ESMX 151720Z 02006KT 9999 OVC011 09/07 Q1008=
201310151650 METAR ESMX 151650Z 36005KT 9999 OVC010 09/07 Q1008=
201310151620 METAR ESMX 151620Z 02004KT 9999 OVC010 09/07 Q1008=
201310151550 METAR ESMX 151550Z 03002KT 9999 OVC010 09/07 Q1008=
201310151520 METAR ESMX 151520Z 01004KT 9999 OVC010 09/07 Q1008=
201310151450 METAR ESMX 151450Z 36003KT 9999 OVC010 10/08 Q1009=
201310151420 METAR ESMX 151420Z 36004KT 9999 OVC010 09/07 Q1009=
201310151350 METAR ESMX 151350Z 36005KT 9999 OVC009 09/08 Q1009=
201310151320 METAR ESMX 151320Z 04003KT 020V080 9999 OVC008 09/08 Q1010=
201310151250 METAR ESMX 151250Z 35004KT 9000 BR OVC006 09/08 Q1010=
201310151220 METAR ESMX 151220Z 03004KT 360V060 8000 BR OVC003 09/08 Q1010=
201310151150 METAR ESMX 151150Z 05003KT 020V100 5000 BR OVC002 09/08 Q1011=
201310151120 METAR ESMX 151120Z 04003KT 3400 BR OVC002 08/07 Q1011=
201310151050 METAR ESMX 151050Z 04003KT 350V070 1000 R01/1000V1600U R19/P2000N VV002 08/07 Q1011=
201310151020 METAR ESMX 151020Z 04003KT 0550 R01/0900 R19/0900V1600D FG VV002 07/07 Q1012=
201310150950 METAR ESMX 150950Z 07003KT 040V100 0500 R01/0900N R19/0800V1200U FG VV002 07/06 Q1012=
201310150920 METAR ESMX 150920Z 07003KT 040V140 0350 R01/0700 R19/0750 FG VV002 07/06 Q1013=
201310150850 METAR ESMX 150850Z 07003KT 030V110 0200 R01/0375V0550N R19/0600 FG VV002 06/06 Q1013=
201310150820 METAR ESMX 150820Z 05004KT 0400 R01/0750 R19/0650 FG VV001 06/06 Q1013=
201310150750 METAR ESMX 150750Z 06003KT 0250 R01/0750V1400D R19/0550N FG VV002 06/05 Q1013=
201310150720 METAR ESMX 150720Z 06004KT 0150 R01/0325 R19/0375V0550 FG VV002 06/05 Q1013=
201310150650 METAR ESMX 150650Z VRB02KT 0150 R01/0350 R19/0400N FG VV002 06/05 Q1013=
201310150620 METAR ESMX 150620Z 06003KT 030V100 0100 R01/0250N R19/0400N FG VV002 06/05 Q1014=
201310150550 METAR ESMX 150550Z VRB02KT 0100 R01/0250N R19/0550N FG VV002 06/05 Q1014=
201310150520 METAR ESMX 150520Z VRB02KT 0050 R01/0275N R19/0450N FG VV002 06/05 Q1014=
201310150450 METAR ESMX 150450Z VRB02KT 0050 R01/0300N R19/0450N FG VV001 06/05 Q1014=
201310150420 METAR ESMX 150420Z VRB02KT 0100 R01/0350N R19/0650N FG VV002 06/05 Q1014=
201310150350 METAR ESMX 150350Z 00000KT 0400 R01/1900D R19/1000V1600D FG VV002 06/05 Q1015=
201310150320 METAR ESMX 150320Z AUTO 10002KT 0900NDV R01/P2000N R19/P2000N FG OVC001/// 05/05 Q1015=
201310150250 METAR ESMX 150250Z AUTO 15002KT 0100NDV R01/0250V0900N R19/P2000N BCFG VV001 05/05 Q1016=
201310150220 METAR ESMX 150220Z AUTO 00000KT 0200NDV R01/0800 R19/0900N BCFG BKN001/// OVC005/// 05/04 Q1016=
201310150150 METAR ESMX 150150Z AUTO 03002KT 0200NDV R01/1000 R19/1100V1600U FG VV001 04/03 Q1016=
201310150120 METAR ESMX 150120Z AUTO 00000KT 0150NDV R01/1000 R19/0700 BCFG VV000 04/04 Q1017=
201310150050 METAR ESMX 150050Z AUTO 16002KT 0050NDV R01/0250V0600 R19/0200V0325N FG VV000 04/03 Q1017=
201310150020 METAR ESMX 150020Z AUTO 16002KT 0050NDV R01/M0150 R19/0250N BCFG VV000 04/04 Q1018=
201310142320 METAR ESMX 142320Z 18003KT 0100 R01/0450 R19/0225V0325 BCFG FEW018 05/04 Q1018=
201310142250 METAR ESMX 142250Z 16003KT 1900 BR BKN016 08/07 Q1018=
201310142220 METAR ESMX 142220Z 16004KT 4900 BR OVC016 08/08 Q1018=
201310142150 METAR ESMX 142150Z 15003KT 5000 BR FEW012 OVC017 08/07 Q1019=
201310142120 METAR ESMX 142120Z 14003KT 6000 BR OVC016 08/07 Q1019=
201310142050 METAR ESMX 142050Z VRB02KT 7000 BR OVC015 07/07 Q1019=
201310142020 METAR ESMX 142020Z 00000KT 6000 BR OVC016 07/06 Q1019=
201310141950 METAR ESMX 141950Z 00000KT 9999 BCFG FEW011 BKN014 06/06 Q1019=
201310141920 METAR ESMX 141920Z 00000KT 8000 BCFG FEW005 BKN014 06/05 Q1019=
201310141850 METAR ESMX 141850Z 17002KT 1100 R01/P2000N R19/P2000 BCFG FEW008 05/04 Q1020=
201310141820 METAR ESMX 141820Z 00000KT 0500 R01/0800VP2000 R19/0900VP2000U BCFG NSC 05/04 Q1019=
201310141750 METAR ESMX 141750Z 00000KT 9999 R01/0900 R19/0800V1800U BCFG SCT020 05/04 Q1019=
201310141720 METAR ESMX 141720Z 00000KT 9999 MIFG SCT021 07/06 Q1019=
201310141650 METAR ESMX 141650Z 21003KT 9999 MIFG SCT040 08/07 Q1019=
201310141620 METAR ESMX 141620Z 24004KT 9999 FEW009 SCT020 BKN040 10/08 Q1019=
201310141550 METAR ESMX 141550Z 25005KT 9999 FEW008 SCT016 11/09 Q1019=
201310141520 METAR ESMX 141520Z 20003KT 9999 FEW011 SCT016 BKN040 12/10 Q1019=
201310141450 METAR ESMX 141450Z 00000KT 9999 FEW010 BKN045 12/10 Q1020=
201310141420 METAR ESMX 141420Z VRB01KT 9999 SCT017 BKN045 12/10 Q1020=
201310141350 METAR ESMX 141350Z 14003KT 9999 FEW008 BKN012 12/09 Q1020=
201310141320 METAR ESMX 141320Z VRB01KT 9999 FEW005 BKN010 12/10 Q1020=
201310141250 METAR ESMX 141250Z 16003KT 120V200 9999 FEW005 BKN008 11/10 Q1020=
201310141220 METAR ESMX 141220Z 12003KT 070V170 9999 BKN004 OVC007 11/10 Q1020=
201310141150 METAR ESMX 141150Z 11003KT 070V140 9999 OVC004 11/10 Q1021=
201310141120 METAR ESMX 141120Z VRB02KT 9999 OVC004 10/09 Q1021=
201310141050 METAR ESMX 141050Z 06003KT 020V110 9999 OVC003 10/09 Q1021=
201310141020 METAR ESMX 141020Z 06004KT 030V100 9999 OVC004 10/09 Q1021=
201310140950 METAR ESMX 140950Z 08004KT 050V110 9000 BR FEW003 OVC005 10/09 Q1021=
201310140920 METAR ESMX 140920Z 07004KT 040V110 6000 BR OVC003 10/09 Q1021=
201310140850 METAR ESMX 140850Z 07004KT 040V110 4400 BR OVC003 10/09 Q1021=
201310140820 METAR ESMX 140820Z 07004KT 040V100 4100 BR OVC004 10/09 Q1021=
201310140750 METAR ESMX 140750Z 05004KT 010V120 3100 BR OVC003 09/09 Q1021=
201310140720 METAR ESMX 140720Z 07005KT 020V100 5000 BR OVC004 09/08 Q1021=
201310140650 METAR ESMX 140650Z 07004KT 030V110 6000 BR OVC004 09/08 Q1021=
201310140620 METAR ESMX 140620Z 05005KT 9999 OVC004 09/08 Q1020=
201310140550 METAR ESMX 140550Z 05006KT 7000 BR FEW002 OVC004 09/08 Q1020 REDZ=
201310140520 METAR ESMX 140520Z 04005KT 4900 -DZ OVC003 09/08 Q1020=
201310140450 METAR ESMX 140450Z 05006KT 7000 BR OVC005 09/08 Q1020=
201310140420 METAR ESMX 140420Z 06004KT 030V110 8000 BR OVC005 09/08 Q1020=
201310140350 METAR ESMX 140350Z 06005KT 9999 OVC005 09/08 Q1020=
201310140320 METAR ESMX 140320Z AUTO 06005KT 020V080 9999NDV OVC006/// 09/08 Q1020=
201310140250 METAR ESMX 140250Z AUTO 06005KT 030V110 9999NDV OVC007/// 09/08 Q1020=
201310140220 METAR ESMX 140220Z AUTO 06004KT 020V090 9999NDV OVC008/// 09/08 Q1020=
201310140150 METAR ESMX 140150Z AUTO 04003KT 9999NDV OVC009/// 09/08 Q1020=
201310140120 METAR ESMX 140120Z AUTO 08003KT 050V110 9999NDV OVC008/// 09/08 Q1020 REDZ=
201310140050 METAR ESMX 140050Z AUTO 09004KT 050V120 9999NDV DZ OVC009/// 10/08 Q1020=
201310140020 METAR ESMX 140020Z AUTO 05006KT 9999NDV SCT010/// OVC021/// 10/07 Q1020=
201310132350 METAR ESMX 132350Z AUTO 04007KT 9999NDV FEW011/// OVC019/// 10/07 Q1020=
201310132320 METAR ESMX 132320Z 05006KT 020V100 9999 FEW014 OVC018 10/07 Q1020=
201310132250 METAR ESMX 132250Z 05007KT 9999 OVC017 09/07 Q1020=
201310132220 METAR ESMX 132220Z 05006KT 020V080 9999 FEW018 BKN022 09/07 Q1021=
201310132150 METAR ESMX 132150Z 04007KT 9999 FEW014 SCT023 BKN026 09/07 Q1021=
201310132120 METAR ESMX 132120Z 04004KT 010V070 9999 FEW011 SCT014 BKN018 09/07 Q1021=
201310132050 METAR ESMX 132050Z 03003KT 350V070 9999 FEW011 SCT014 BKN019 09/07 Q1021=
201310132020 METAR ESMX 132020Z 04004KT 9999 OVC011 09/07 Q1021=
201310131950 METAR ESMX 131950Z 05004KT 9999 BKN011 OVC020 09/07 Q1021=
201310131920 METAR ESMX 131920Z 05005KT 9999 FEW011 SCT015 BKN020 09/07 Q1021=
201310131850 METAR ESMX 131850Z 04004KT 360V060 9999 BKN020 09/07 Q1021=
201310131820 METAR ESMX 131820Z 05003KT 010V100 9999 FEW014 BKN020 09/07 Q1021=
201310131750 METAR ESMX 131750Z 06002KT 9999 FEW015 SCT020 08/07 Q1021=
201310131720 METAR ESMX 131720Z 07003KT 9999 BKN020 09/07 Q1021=
201310131650 METAR ESMX 131650Z VRB02KT 9999 SCT021 09/07 Q1021=
201310131620 METAR ESMX 131620Z 10003KT 060V140 9999 FEW021 09/07 Q1021=
201310131550 METAR ESMX 131550Z 08004KT 040V110 CAVOK 10/07 Q1021=
201310131450 METAR ESMX 131450Z 07006KT 030V110 9999 SCT017 11/07 Q1021=
201310131420 METAR ESMX 131420Z 07006KT 030V130 9999 OVC014 11/08 Q1021=
201310131350 METAR ESMX 131350Z 05007KT 010V100 9999 OVC015 11/08 Q1021=
201310131320 METAR ESMX 131320Z 06007KT 010V100 9999 OVC015 11/07 Q1021=
201310131250 METAR COR ESMX 131250Z 08006KT 030V120 9999 OVC016 11/07 Q1021=
201310131220 METAR ESMX 131220Z AUTO 06006KT 350V100 9999NDV OVC014/// 11/07 Q1021=
201310131150 METAR ESMX 131150Z AUTO 08006KT 040V140 9999NDV OVC014/// 11/08 Q1022=
201310131120 METAR ESMX 131120Z AUTO 07006KT 020V110 9999NDV OVC013/// 11/08 Q1022=
201310131050 METAR ESMX 131050Z AUTO 08007KT 030V110 9999NDV OVC013/// 11/08 Q1022=
201310131020 METAR ESMX 131020Z AUTO 07005KT 030V140 9999NDV OVC013/// 11/08 Q1022=
201310130950 METAR ESMX 130950Z AUTO 08006KT 030V140 9999NDV OVC013/// 11/08 Q1022=
201310130920 METAR ESMX 130920Z AUTO 08007KT 9999NDV OVC012/// 11/08 Q1022=
201310130850 METAR ESMX 130850Z AUTO 08005KT 040V140 9999NDV OVC010/// 11/08 Q1023=
201310130820 METAR ESMX 130820Z AUTO 08004KT 030V150 9999NDV OVC010/// 10/08 Q1023=
201310130750 METAR ESMX 130750Z AUTO 08005KT 040V110 9999NDV OVC010/// 10/08 Q1023=
201310130720 METAR ESMX 130720Z AUTO 07006KT 030V120 9999NDV OVC010/// 10/08 Q1023=
201310130650 METAR ESMX 130650Z AUTO 07005KT 030V110 9999NDV OVC010/// 10/08 Q1023=
201310130620 METAR ESMX 130620Z AUTO 05006KT 360V110 9999NDV OVC011/// 10/08 Q1023=
201310130550 METAR ESMX 130550Z AUTO 07005KT 040V110 9999NDV OVC010/// 10/08 Q1023=
201310130520 METAR ESMX 130520Z AUTO 07005KT 9999NDV OVC011/// 09/08 Q1023=
201310130450 METAR ESMX 130450Z AUTO 08004KT 030V120 9999NDV OVC010/// 09/07 Q1023=
201310130420 METAR ESMX 130420Z AUTO 09005KT 040V130 9999NDV OVC010/// 09/07 Q1023=
201310130350 METAR ESMX 130350Z AUTO 07005KT 040V110 9999NDV FEW009/// OVC011/// 09/07 Q1023=
201310130320 METAR ESMX 130320Z AUTO 06005KT 010V100 9999NDV OVC010/// 09/07 Q1023=
201310130250 METAR ESMX 130250Z AUTO 07005KT 040V110 9999NDV OVC011/// 09/07 Q1024=
201310130220 METAR ESMX 130220Z AUTO 07006KT 030V100 9999NDV OVC010/// 09/07 Q1024=
201310130150 METAR ESMX 130150Z AUTO 08005KT 020V120 9999NDV OVC011/// 09/07 Q1024=
201310130120 METAR ESMX 130120Z AUTO 08005KT 030V110 9999NDV OVC010/// 08/07 Q1024=
201310130050 METAR ESMX 130050Z AUTO 07005KT 020V120 9999NDV OVC009/// 08/06 Q1025=
201310130020 METAR ESMX 130020Z AUTO 08005KT 050V120 9999NDV OVC010/// 08/06 Q1025=
201310122350 METAR ESMX 122350Z AUTO 06005KT 010V110 9999NDV BKN010/// 08/06 Q1025=
201310122320 METAR ESMX 122320Z AUTO 06006KT 020V100 9999NDV FEW009/// SCT011/// 07/06 Q1025=
201310122250 METAR ESMX 122250Z AUTO 07007KT 040V110 9999NDV FEW008/// SCT010/// 07/06 Q1025=
201310122220 METAR ESMX 122220Z AUTO 08005KT 050V130 9999NDV FEW007/// BKN009/// BKN011/// 07/06 Q1026=
201310122150 METAR ESMX 122150Z AUTO 07005KT 030V120 9999NDV BKN007/// 07/06 Q1026=
201310122120 METAR ESMX 122120Z 04005KT 350V070 9999 FEW012 07/06 Q1026=
201310122050 METAR ESMX 122050Z 06004KT 020V100 9999 FEW015 07/06 Q1026=
201310122020 METAR ESMX 122020Z AUTO 04004KT 010V080 9999NDV FEW015/// 07/05 Q1027=
201310121950 METAR ESMX 121950Z AUTO 06005KT 030V100 9999NDV FEW014/// 07/05 Q1027=
201310121920 METAR ESMX 121920Z AUTO 07004KT 040V100 9999NDV NCD 07/05 Q1027=
201310121850 METAR ESMX 121850Z AUTO 04005KT 360V080 9999NDV NCD 07/05 Q1028=
201310121820 METAR ESMX 121820Z AUTO 07006KT 030V100 9999NDV NCD 08/05 Q1028=
201310121750 METAR ESMX 121750Z 05005KT 020V080 CAVOK 08/05 Q1028=
201310121720 METAR ESMX 121720Z 06005KT 010V100 CAVOK 08/05 Q1028=
201310121650 METAR ESMX 121650Z 07004KT CAVOK 09/05 Q1029=
201310121620 METAR ESMX 121620Z 08007KT 050V110 CAVOK 10/05 Q1029=
201310121550 METAR ESMX 121550Z AUTO 07005KT 040V100 9999NDV NCD 11/05 Q1029=
201310121520 METAR ESMX 121520Z AUTO 05006KT 350V100 9999NDV NCD 11/05 Q1029=
201310121450 METAR ESMX 121450Z AUTO 08007KT 030V110 9999NDV NCD 12/05 Q1029=
201310121420 METAR ESMX 121420Z AUTO 09006KT 050V150 9999NDV NCD 13/05 Q1029=
201310121350 METAR ESMX 121350Z AUTO 08007KT 050V120 9999NDV FEW032/// 13/05 Q1029=
201310121320 METAR ESMX 121320Z AUTO 09006KT 050V130 9999NDV FEW031/// 13/05 Q1029=
201310121250 METAR ESMX 121250Z 07006KT 010V120 9999 FEW030 12/05 Q1030=
201310121220 METAR ESMX 121220Z 08008KT 030V110 CAVOK 13/05 Q1030=
201310121150 METAR ESMX 121150Z 09008KT 050V120 CAVOK 13/04 Q1030=
201310121120 METAR ESMX 121120Z AUTO 06008KT 030V110 9999NDV NCD 13/04 Q1030=
201310121050 METAR ESMX 121050Z AUTO 07008KT 030V110 9999NDV NCD 13/05 Q1030=
201310121020 METAR ESMX 121020Z AUTO 05008KT 010V090 9999NDV NCD 12/05 Q1030=
201310120950 METAR ESMX 120950Z AUTO 08006KT 030V150 9999NDV NCD 11/05 Q1030=
201310120920 METAR ESMX 120920Z AUTO 06008KT 030V110 9999NDV NCD 11/06 Q1031=
201310120850 METAR ESMX 120850Z AUTO 05006KT 020V080 9999NDV NCD 10/05 Q1031=
201310120820 METAR ESMX 120820Z AUTO 05005KT 020V080 9999NDV NCD 08/05 Q1031=
201310120750 METAR ESMX 120750Z AUTO 05005KT 010V100 9999NDV NCD 07/05 Q1031=
201310120720 METAR ESMX 120720Z AUTO 04005KT 9999NDV NCD 06/04 Q1031=
201310120650 METAR ESMX 120650Z AUTO 03005KT 9999NDV NCD 05/03 Q1031=
201310120620 METAR ESMX 120620Z AUTO 03006KT 9999NDV NCD 04/03 Q1031=
201310120550 METAR ESMX 120550Z AUTO 03005KT 9999NDV NCD 04/03 Q1031=
201310120520 METAR ESMX 120520Z AUTO 03006KT 9999NDV NCD 04/03 Q1031=
201310120450 METAR ESMX 120450Z AUTO 03004KT 9999NDV NCD 04/03 Q1030=
201310120420 METAR ESMX 120420Z AUTO 04007KT 9999NDV NCD 04/03 Q1031=
201310120350 METAR ESMX 120350Z AUTO 04007KT 9999NDV NCD 05/03 Q1030=
201310120320 METAR ESMX 120320Z AUTO 04007KT 9999NDV NCD 05/03 Q1030=
201310120250 METAR ESMX 120250Z AUTO 04007KT 9999NDV NCD 04/03 Q1030=
201310120220 METAR ESMX 120220Z AUTO 04007KT 9999NDV NCD 04/02 Q1030=
201310120150 METAR ESMX 120150Z AUTO 04006KT 9999NDV NCD 04/02 Q1030=
201310120120 METAR ESMX 120120Z AUTO 04005KT 9999NDV NCD 04/02 Q1031=
201310120050 METAR ESMX 120050Z AUTO 04006KT 9999NDV NCD 05/03 Q1030=
201310120020 METAR ESMX 120020Z AUTO 04007KT 9999NDV NCD 05/03 Q1030=
201310112350 METAR ESMX 112350Z AUTO 04009KT 9999NDV NCD 05/03 Q1030=
201310112320 METAR ESMX 112320Z AUTO 04007KT 9999NDV NCD 06/03 Q1030=
201310112250 METAR ESMX 112250Z AUTO 04007KT 9999NDV NCD 06/04 Q1030=
201310112220 METAR ESMX 112220Z AUTO 03006KT 9999NDV NCD 06/04 Q1030=
201310112150 METAR ESMX 112150Z AUTO 03006KT 9999NDV NCD 05/04 Q1030=
201310112120 METAR ESMX 112120Z AUTO 03005KT 9999NDV NCD 05/03 Q1030=
201310112050 METAR ESMX 112050Z AUTO 02005KT 9999NDV NCD 05/04 Q1030=
201310112020 METAR ESMX 112020Z AUTO 04005KT 9999NDV NCD 06/04 Q1030=
201310111950 METAR ESMX 111950Z AUTO 04005KT 020V090 9999NDV NCD 07/04 Q1030=
201310111920 METAR ESMX 111920Z AUTO 03004KT 9999NDV NCD 07/05 Q1029=
201310111850 METAR ESMX 111850Z AUTO 07005KT 030V100 9999NDV NCD 08/06 Q1029=
201310111820 METAR ESMX 111820Z AUTO 06003KT 9999NDV NCD 08/06 Q1029=
201310111750 METAR ESMX 111750Z AUTO 02004KT 9999NDV NCD 07/06 Q1029=
201310111720 METAR ESMX 111720Z 05002KT 9999 FEW015 07/06 Q1029=
201310111650 METAR ESMX 111650Z 06003KT 9999 FEW015 07/06 Q1028=
201310111620 METAR ESMX 111620Z 07003KT 9999 FEW015 08/06 Q1028=
201310111550 METAR ESMX 111550Z 06003KT 020V100 9999 FEW015 10/07 Q1028=
201310111520 METAR ESMX 111520Z 06006KT 020V100 9999 FEW013 BKN017 10/07 Q1028=
201310111450 METAR ESMX 111450Z 04009KT 9999 BKN011 10/07 Q1028=
201310111420 METAR ESMX 111420Z 04006KT 010V070 9999 OVC011 10/08 Q1028=
201310111350 METAR ESMX 111350Z 04008KT 9999 OVC010 10/07 Q1028=
201310111320 METAR ESMX 111320Z 04009KT 9999 OVC009 10/08 Q1028=
201310111250 METAR ESMX 111250Z 04008KT 9999 OVC010 11/08 Q1027=
201310111220 METAR ESMX 111220Z 04008KT 020V080 9999 OVC010 11/08 Q1027=
201310111150 METAR ESMX 111150Z 04007KT 020V090 9999 FEW011 OVC014 11/08 Q1027=
201310111120 METAR ESMX 111120Z 04007KT 9999 FEW009 OVC011 11/08 Q1027=
201310111050 METAR ESMX 111050Z 04006KT 9999 FEW008 OVC010 11/08 Q1027=
201310111020 METAR ESMX 111020Z 04008KT 9999 OVC007 10/08 Q1027=
201310110950 METAR ESMX 110950Z 04008KT 9999 OVC007 10/08 Q1027=
201310110920 METAR ESMX 110920Z 02007KT 350V050 9999 BKN008 OVC010 10/08 Q1027=
201310110850 METAR ESMX 110850Z 04009KT 020V100 9999 BKN005 OVC008 09/08 Q1027=
201310110820 METAR ESMX 110820Z 03010KT 9999 BKN005 OVC009 09/07 Q1026=
201310110750 METAR ESMX 110750Z 03009KT 9999 OVC004 09/08 Q1026=
201310110720 METAR ESMX 110720Z 03009KT 9999 OVC004 09/08 Q1025=
201310110650 METAR ESMX 110650Z 03008KT 9999 OVC004 09/08 Q1025=
201310110620 METAR ESMX 110620Z 03008KT 9999 OVC003 09/08 Q1025=
201310110550 METAR ESMX 110550Z 03008KT 4500 BR OVC003 09/08 Q1024=
201310110520 METAR ESMX 110520Z 03008KT 9999 OVC005 09/08 Q1024=
201310110450 METAR ESMX 110450Z 03009KT 9999 OVC005 09/08 Q1024=
201310110420 METAR ESMX 110420Z 03008KT 9999 OVC004 09/08 Q1023=
201310110350 METAR ESMX 110350Z 03012KT 9999 OVC004 09/08 Q1023=
201310110320 METAR ESMX 110320Z AUTO 03009KT 9999NDV OVC005/// 09/08 Q1023=
201310110250 METAR ESMX 110250Z AUTO 03010KT 9999NDV OVC005/// 09/08 Q1022=
201310110220 METAR ESMX 110220Z AUTO 03009KT 9999NDV OVC004/// 09/08 Q1022=
201310110150 METAR ESMX 110150Z AUTO 03009KT 9999NDV OVC004/// 09/08 Q1021=
201310110120 METAR ESMX 110120Z AUTO 03009KT 360V080 9999NDV OVC004/// 10/08 Q1021=
201310110050 METAR ESMX 110050Z AUTO 04012KT 9999NDV OVC004/// 10/08 Q1021=
201310110020 METAR ESMX 110020Z AUTO 03010KT 9999NDV OVC004/// 10/09 Q1021=
201310102350 METAR ESMX 102350Z 03011KT 9999 OVC004 10/09 Q1021=
201310102320 METAR ESMX 102320Z 03009KT 9999 OVC005 11/09 Q1020=
201310102250 METAR ESMX 102250Z 03010KT 9999 OVC006 11/09 Q1020=
201310102220 METAR ESMX 102220Z 02007KT 9999 OVC006 11/09 Q1019=
201310102150 METAR ESMX 102150Z 04007KT 9999 OVC008 11/09 Q1019=
201310102120 METAR ESMX 102120Z 04007KT 9999 OVC009 11/09 Q1018=
201310102050 METAR ESMX 102050Z 03007KT 9999 OVC010 11/09 Q1018=
201310102020 METAR ESMX 102020Z 03007KT 9999 BKN011 OVC040 11/09 Q1017=
201310101950 METAR ESMX 101950Z 04007KT 9999 FEW020 BKN034 OVC041 11/09 Q1016=
201310101920 METAR ESMX 101920Z 03007KT 9999 FEW015 OVC037 11/09 Q1016=
201310101850 METAR ESMX 101850Z 04006KT 9999 BKN013 OVC041 12/09 Q1015=
201310101820 METAR ESMX 101820Z 04006KT 9999 BKN040 OVC052 12/09 Q1015=
201310101750 METAR ESMX 101750Z 05005KT 9999 FEW020 OVC045 12/09 Q1014=
201310101720 METAR ESMX 101720Z 04006KT 9999 FEW019 OVC052 12/09 Q1014=
201310101650 METAR ESMX 101650Z 03005KT 9999 FEW020 BKN055 12/08 Q1013=
201310101620 METAR ESMX 101620Z 03006KT 9999 FEW030 12/08 Q1012 REDZ=
201310101550 METAR ESMX 101550Z 03006KT 9999 SCT021 BKN027 13/08 Q1012=
201310101520 METAR ESMX 101520Z 03006KT 9999 FEW024 SCT027 BKN068 13/08 Q1011=
201310101450 METAR ESMX 101450Z 02006KT 9999 FEW024 SCT036 BKN055 13/08 Q1011=
201310101420 METAR ESMX 101420Z 04005KT 020V080 9999 FEW023 OVC057 13/08 Q1010=
201310101350 METAR ESMX 101350Z 06004KT 020V100 9999 FEW020 OVC058 13/09 Q1010=
201310101320 METAR ESMX 101320Z 06005KT 020V100 9999 FEW019 OVC057 13/09 Q1009=
201310101250 METAR ESMX 101250Z 03005KT 9999 FEW025 OVC061 13/09 Q1009=
201310101220 METAR ESMX 101220Z 04004KT 9999 FEW045 BKN066 13/08 Q1009=
201310101150 METAR ESMX 101150Z 03004KT 360V070 9999 FEW023 SCT049 BKN072 12/08 Q1008=
201310101120 METAR ESMX 101120Z 05003KT 020V090 9999 SCT024 BKN070 12/08 Q1008=
201310101050 METAR ESMX 101050Z 08003KT 030V110 9999 BKN021 12/09 Q1007=
201310101020 METAR ESMX 101020Z VRB02KT 9999 SCT012 BKN023 12/09 Q1007=
201310100950 METAR ESMX 100950Z VRB02KT 9999 FEW010 12/09 Q1006=
201310100920 METAR ESMX 100920Z 00000KT 9999 FEW012 SCT016 BKN018 11/08 Q1006=
201310100850 METAR ESMX 100850Z VRB02KT 9999 SCT010 BKN013 11/09 Q1006=
201310100820 METAR ESMX 100820Z 19003KT 150V220 9999 BKN008 10/09 Q1005=
201310100750 METAR ESMX 100750Z VRB02KT 9999 FEW005 BKN007 OVC010 10/09 Q1005=
201310100720 METAR ESMX 100720Z VRB02KT 9999 BKN006 10/09 Q1005=
201310100650 METAR ESMX 100650Z VRB02KT 7000 BR BKN006 09/08 Q1004=
201310100620 METAR ESMX 100620Z 16003KT 8000 BR BKN007 10/09 Q1004=
201310100550 METAR ESMX 100550Z 13002KT 9999 BKN006 OVC009 09/08 Q1003=
201310100520 METAR ESMX 100520Z 19004KT 160V230 9999 BKN008 OVC010 10/09 Q1003=
201310100450 METAR ESMX 100450Z 20004KT 9999 OVC005 10/09 Q1003=
201310100420 METAR ESMX 100420Z 15004KT 110V180 9999 OVC005 10/09 Q1003=
201310100350 METAR ESMX 100350Z 16005KT 9999 OVC005 10/09 Q1003=
201310100320 METAR ESMX 100320Z AUTO 14004KT 9999NDV FEW005/// OVC007/// 10/08 Q1003=
201310100250 METAR ESMX 100250Z AUTO 16005KT 120V190 9999NDV OVC007/// 10/09 Q1003=
201310100220 METAR ESMX 100220Z AUTO 17005KT 9999NDV FEW005/// SCT008/// OVC046/// 10/08 Q1003=
201310100150 METAR ESMX 100150Z AUTO 15005KT 9999NDV BKN041/// 10/08 Q1003=
201310100120 METAR ESMX 100120Z AUTO 16004KT 9999NDV FEW009/// BKN051/// 09/08 Q1003=
201310100050 METAR ESMX 100050Z AUTO 16006KT 9999NDV SCT010/// BKN035/// OVC054/// 10/08 Q1003=
201310100020 METAR ESMX 100020Z AUTO 18006KT 9999NDV FEW010/// OVC034/// 10/08 Q1003=
201310092350 METAR ESMX 092350Z 18008KT 9999 OVC010 10/09 Q1003=
201310092320 METAR ESMX 092320Z 17006KT 9999 SCT010 BKN050 10/08 Q1003=
201310092250 METAR ESMX 092250Z 18008KT 9999 BKN012 BKN045 10/09 Q1003=
201310092220 METAR ESMX 092220Z 18008KT 9999 OVC011 11/09 Q1003=
201310092150 METAR ESMX 092150Z 17009KT 9999 OVC011 11/09 Q1003=
201310092120 METAR ESMX 092120Z 17009KT 9999 BKN010 11/09 Q1003=
201310092050 METAR ESMX 092050Z 17007KT 9999 BKN005 BKN075 11/10 Q1003=
201310092020 METAR ESMX 092020Z 17006KT 9999 SCT007 BKN065 11/10 Q1004=
201310091950 METAR ESMX 091950Z 16006KT 9999 SCT010 BKN045 11/10 Q1004=
201310091920 METAR ESMX 091920Z 17007KT 9999 FEW013 BKN050 11/10 Q1004=
201310091850 METAR ESMX 091850Z 19009KT 9999 FEW010 SCT015 BKN054 12/10 Q1004=
201310091820 METAR ESMX 091820Z 16007KT 9999 FEW010 SCT025 BKN060 12/10 Q1005=
201310091750 METAR ESMX 091750Z 17007KT 9999 FEW018 SCT029 BKN054 12/10 Q1005=
201310091720 METAR ESMX 091720Z 14005KT 9999 FEW015 SCT022 BKN057 12/10 Q1005=
201310091650 METAR ESMX 091650Z 17005KT 9999 FEW029 12/09 Q1005=
201310091620 METAR ESMX 091620Z 17007KT 9999 FEW030 12/09 Q1005=
201310091550 METAR ESMX 091550Z 18008KT 9999 FEW022 12/10 Q1006=
201310091520 METAR ESMX 091520Z 20007KT 9999 FEW025 13/10 Q1006=
201310091450 METAR ESMX 091450Z 20010KT 9999 FEW035 BKN069 13/10 Q1006=
201310091420 METAR ESMX 091420Z 20010KT 9999 FEW016 13/10 Q1006=
201310091350 METAR ESMX 091350Z 20009KT 9999 FEW017 SCT071 14/11 Q1007=
201310091320 METAR ESMX 091320Z 21009KT 9999 FEW015 SCT021 BKN060 14/11 Q1007=
201310091250 METAR ESMX 091250Z 21009KT 9999 FEW011 BKN055 13/11 Q1007=
201310091220 METAR ESMX 091220Z 20009KT 9999 FEW012 BKN028 13/11 Q1008=
201310091150 METAR ESMX 091150Z 21008KT 190V260 9999 FEW009 SCT014 BKN017 13/11 Q1008=
201310091120 METAR ESMX 091120Z 21010KT 9999 SCT008 BKN015 13/11 Q1009=
201310091050 METAR ESMX 091050Z 20010KT 9999 SCT008 BKN015 13/11 Q1009=
201310091020 METAR ESMX 091020Z 21010KT 9000 -RA FEW010 BKN013 OVC021 13/11 Q1009=
201310090950 METAR ESMX 090950Z 23008KT 200V260 9999 -RA FEW012 BKN014 OVC021 13/11 Q1010=
201310090920 METAR ESMX 090920Z 21010KT 9999 FEW009 BKN011 BKN017 13/11 Q1010=
201310090850 METAR ESMX 090850Z 23010KT 9999 SCT008 OVC015 12/11 Q1010=
201310090820 METAR ESMX 090820Z 21010KT 9999 FEW008 OVC010 12/11 Q1010=
201310090750 METAR ESMX 090750Z 22010KT 9999 SCT006 BKN010 12/11 Q1011=
201310090720 METAR ESMX 090720Z 21009KT 9000 -DZ FEW006 SCT008 BKN010 12/11 Q1011 REDZ=
201310090650 METAR ESMX 090650Z 23009KT 9999 SCT006 BKN012 12/11 Q1011=
201310090620 METAR ESMX 090620Z 21008KT 9999 FEW005 SCT007 BKN009 12/11 Q1011=
201310090550 METAR ESMX 090550Z 21010KT 8000 -DZ FEW005 BKN006 OVC018 12/11 Q1011 REDZ=
201310090520 METAR ESMX 090520Z 21009KT 6000 DZ SCT006 BKN030 12/11 Q1011=
201310090450 METAR ESMX 090450Z 20010KT 7000 BR FEW006 SCT008 BKN013 12/11 Q1011=
201310090420 METAR ESMX 090420Z 22008KT 4100 -DZ FEW005 SCT007 BKN010 12/11 Q1012=
201310090350 METAR ESMX 090350Z 20008KT 3000 BR FEW005 SCT006 BKN007 12/11 Q1012=
201310090320 METAR ESMX 090320Z AUTO 21008KT 2400NDV BR BKN002/// OVC005/// 12/11 Q1012 REDZ=
201310090250 METAR ESMX 090250Z AUTO 19007KT 1600NDV +DZ OVC002/// 11/11 Q1013=
201310090220 METAR ESMX 090220Z AUTO 20009KT 2000NDV BR OVC003/// 11/10 Q1013=
201310090150 METAR ESMX 090150Z AUTO 20008KT 2200NDV BR OVC003/// 11/10 Q1013=
201310090120 METAR ESMX 090120Z AUTO 20009KT 2400NDV BR OVC003/// 11/10 Q1014=
201310090050 METAR ESMX 090050Z AUTO 21008KT 2700NDV BR OVC004/// 11/10 Q1014=
201310090020 METAR ESMX 090020Z AUTO 20008KT 2500NDV BR FEW005/// BKN006/// OVC008/// 11/10 Q1014 REDZ=
201310082350 METAR ESMX 082350Z 20010KT 2100 DZ FEW007 OVC010 11/09 Q1015=
201310082320 METAR ESMX 082320Z 19010KT 7000 BR OVC012 11/09 Q1015=
201310082250 METAR ESMX 082250Z 19010KT 8000 BR OVC014 11/09 Q1015=
201310082220 METAR ESMX 082220Z 19009KT 9000 BR FEW016 OVC020 11/08 Q1016=
201310082150 METAR ESMX 082150Z 19009KT 9999 OVC020 11/08 Q1016=
201310082120 METAR ESMX 082120Z 19009KT 9999 BKN022 OVC030 11/08 Q1016=
201310082050 METAR ESMX 082050Z 20007KT 9999 BKN027 10/08 Q1017=
201310082020 METAR ESMX 082020Z 19008KT 9999 BKN028 11/08 Q1017=
201310081950 METAR ESMX 081950Z 19007KT 9999 OVC029 11/08 Q1018=
201310081920 METAR ESMX 081920Z 19008KT 9999 OVC030 11/08 Q1018=
201310081850 METAR ESMX 081850Z 19008KT 9999 BKN031 12/09 Q1018=
201310081820 METAR ESMX 081820Z 19008KT 9999 BKN030 12/09 Q1019=
201310081750 METAR ESMX 081750Z 20007KT 9999 OVC029 12/09 Q1019=
201310081720 METAR ESMX 081720Z 19007KT 9999 BKN027 13/09 Q1019=
201310081650 METAR ESMX 081650Z 19008KT 9999 BKN025 13/09 Q1019=
201310081620 METAR ESMX 081620Z 20009KT 9999 OVC023 14/10 Q1019=
201310081550 METAR ESMX 081550Z 19009KT 9999 OVC020 14/10 Q1019=
201310081520 METAR ESMX 081520Z 22007KT 9999 OVC020 14/10 Q1019=
201310081450 METAR ESMX 081450Z 23007KT 9999 OVC020 14/10 Q1020=
201310081420 METAR ESMX 081420Z 24008KT 9999 OVC021 15/10 Q1020=
201310081350 METAR ESMX 081350Z 22012KT 9999 BKN025 15/10 Q1020=
201310081320 METAR ESMX 081320Z 23008KT 200V260 9999 SCT028 16/10 Q1020=
201310081250 METAR ESMX 081250Z 23008KT 200V260 CAVOK 17/09 Q1020=
201310081220 METAR ESMX 081220Z 25008KT 210V280 9999 FEW025 17/10 Q1021=
201310081150 METAR ESMX 081150Z 21010KT CAVOK 16/10 Q1021=
201310081120 METAR ESMX 081120Z 22008KT 180V240 CAVOK 15/10 Q1022=
201310081050 METAR ESMX 081050Z 22009KT 9999 BKN030 OVC055 14/10 Q1022=
201310081020 METAR ESMX 081020Z 23007KT 9999 BKN026 OVC056 14/10 Q1022=
201310080950 METAR ESMX 080950Z 23008KT 9999 OVC025 14/11 Q1022=
201310080920 METAR ESMX 080920Z 22009KT 9999 FEW016 OVC020 14/11 Q1022=
201310080850 METAR ESMX 080850Z 22008KT 9999 FEW002 SCT005 OVC018 13/12 Q1022=
201310080820 METAR ESMX 080820Z 21008KT 170V240 4300 BR OVC002 12/12 Q1023=
201310080750 METAR ESMX 080750Z 21008KT 1400 R01/1800U R19/1900U OVC002 12/11 Q1022=
201310080720 METAR ESMX 080720Z 20009KT 1300 R01/1500VP2000D R19/P2000N BR OVC002 12/11 Q1022=
201310080650 METAR ESMX 080650Z 21009KT 1400 R01/P2000N R19/P2000N BR OVC002 12/11 Q1022=
201310080620 METAR ESMX 080620Z 21009KT 1100 R01/1900N R19/P2000N BR VV002 12/11 Q1022=
201310080550 METAR ESMX 080550Z 22008KT 1200 R01/P2000N R19/P2000N BR VV002 12/11 Q1022=
201310080520 METAR ESMX 080520Z 20008KT 0650 R01/1700N R19/P2000N FG VV002 12/11 Q1022=
201310080450 METAR ESMX 080450Z 21007KT 0900 R19/P2000N -DZ FG VV002 12/11 Q1022=
201310080420 METAR ESMX 080420Z 20007KT 2700 BR OVC002 12/11 Q1022=
201310080350 METAR ESMX 080350Z 20008KT 6000 BR OVC004 12/11 Q1022=
201310080320 METAR ESMX 080320Z AUTO 21006KT 7000NDV BR FEW005/// SCT009/// BKN012/// 12/11 Q1022=
201310080250 METAR ESMX 080250Z AUTO 25007KT 220V290 8000NDV BR FEW005/// OVC007/// 12/11 Q1022=
201310080220 METAR ESMX 080220Z AUTO 25008KT 6000NDV BR OVC003/// 12/11 Q1023=
201310080150 METAR ESMX 080150Z AUTO 24007KT 6000NDV BR OVC003/// 12/11 Q1023=
201310080120 METAR ESMX 080120Z AUTO 24008KT 8000NDV BR OVC003/// 12/11 Q1023=
201310080050 METAR ESMX 080050Z AUTO 22007KT 9000NDV BR OVC005/// 12/11 Q1023=
201310080020 METAR ESMX 080020Z AUTO 22007KT 9999NDV OVC005/// 12/11 Q1023=
201310072350 METAR ESMX 072350Z 24007KT 9999 FEW006 12/10 Q1023=
201310072320 METAR ESMX 072320Z 24006KT 9999 FEW008 SCT026 12/11 Q1023=
201310072250 METAR ESMX 072250Z 22007KT 9999 SCT025 12/11 Q1023=
201310072120 METAR ESMX 072120Z 24006KT 9999 SCT029 12/11 Q1023=
201310072050 METAR ESMX 072050Z 24007KT 9999 BKN027 13/11 Q1023=
201310072020 METAR ESMX 072020Z 24008KT 9999 OVC025 13/11 Q1023=
201310071950 METAR ESMX 071950Z 24008KT 9999 FEW008 BKN022 13/12 Q1023=
201310071920 METAR ESMX 071920Z 24006KT 9000 BR FEW006 OVC024 13/12 Q1023=
201310071850 METAR ESMX 071850Z 24007KT 220V290 8000 BR OVC005 13/12 Q1023=
201310071820 METAR ESMX 071820Z 23006KT 9000 BR OVC005 13/12 Q1023=
201310071750 METAR ESMX 071750Z 22007KT 9999 OVC005 13/12 Q1023=
201310071720 METAR ESMX 071720Z 24006KT 9999 BKN005 OVC023 13/12 Q1023=
201310071650 METAR ESMX 071650Z 24007KT 9999 FEW006 SCT007 BKN014 13/12 Q1022=
201310071620 METAR ESMX 071620Z 24006KT 200V260 9999 SCT006 OVC018 13/12 Q1022=
201310071550 METAR ESMX 071550Z 25007KT 9000 BR FEW006 SCT009 BKN012 13/12 Q1022=
201310071520 METAR ESMX 071520Z 26008KT 6000 BR OVC010 13/12 Q1022=
201310071450 METAR ESMX 071450Z 26007KT 220V280 3600 -DZ BKN005 OVC008 13/12 Q1022=
201310071420 METAR ESMX 071420Z 26009KT 230V300 9999 BKN007 OVC009 13/12 Q1022=
201310071350 METAR ESMX 071350Z 23009KT 200V260 9999 BKN007 OVC009 14/12 Q1022=
201310071320 METAR ESMX 071320Z 25008KT 210V290 9999 OVC008 14/12 Q1022=
201310071250 METAR ESMX 071250Z 25010KT 220V290 9999 BKN008 OVC012 14/12 Q1022=
201310071220 METAR ESMX 071220Z 24009KT 200V260 9999 BKN008 OVC011 14/11 Q1022=
201310071150 METAR ESMX 071150Z 23011KT 9999 OVC009 14/11 Q1022=
201310071120 METAR ESMX 071120Z 23011KT 9999 FEW008 OVC010 14/12 Q1022=
201310071050 METAR ESMX 071050Z 25008KT 9999 SCT007 OVC009 14/12 Q1022 REDZ=
201310071020 METAR ESMX 071020Z 24009KT 210V280 4000 SHDZ OVC009 14/12 Q1022=
201310070950 METAR ESMX 070950Z 24008KT 210V280 9999 OVC009 14/11 Q1022=
201310070920 METAR ESMX 070920Z 25008KT 9999 OVC007 13/11 Q1022=
201310070850 METAR ESMX 070850Z 24008KT 210V270 9999 OVC007 13/11 Q1021=
201310070820 METAR ESMX 070820Z 23008KT 200V260 9999 OVC006 13/11 Q1021=
201310070750 METAR ESMX 070750Z 26008KT 9999 OVC006 12/10 Q1021=
201310070720 METAR ESMX 070720Z 24009KT 9999 OVC006 12/10 Q1021=
201310070650 METAR ESMX 070650Z 24009KT 9999 OVC007 12/10 Q1021=
201310070620 METAR ESMX 070620Z 24007KT 9999 OVC009 12/10 Q1021=
201310070550 METAR ESMX 070550Z 24008KT 9999 OVC010 12/09 Q1021=
201310070520 METAR ESMX 070520Z 25008KT 9999 OVC010 11/10 Q1020=
201310070450 METAR ESMX 070450Z 24006KT 9999 FEW009 OVC011 11/10 Q1021=
201310070420 METAR ESMX 070420Z 24008KT 9999 BKN009 11/10 Q1020=
201310070350 METAR ESMX 070350Z 24009KT 9999 BKN009 BKN038 11/10 Q1020=
201310070320 METAR ESMX 070320Z AUTO 25006KT 9999NDV OVC009/// 12/10 Q1020=
201310070250 METAR ESMX 070250Z AUTO 24006KT 9999NDV FEW009/// OVC011/// 12/10 Q1020=
201310070220 METAR ESMX 070220Z AUTO 25007KT 9999NDV FEW009/// SCT012/// OVC033/// 12/10 Q1020=
201310070150 METAR ESMX 070150Z AUTO 23007KT 9999NDV FEW009/// OVC033/// 12/10 Q1020=
201310070120 METAR ESMX 070120Z AUTO 22008KT 9999NDV FEW011/// OVC032/// 12/10 Q1020=
201310070050 METAR ESMX 070050Z AUTO 23008KT 9999NDV FEW010/// OVC032/// 12/10 Q1020=
201310070020 METAR ESMX 070020Z AUTO 23008KT 9999NDV OVC029/// 12/10 Q1020=
201310062350 METAR ESMX 062350Z 23006KT 9999 FEW009 OVC032 12/10 Q1020=
201310062320 METAR ESMX 062320Z 23007KT 9999 FEW009 SCT028 BKN035 11/10 Q1020=
201310062250 METAR ESMX 062250Z 21007KT 9999 FEW008 OVC028 12/10 Q1020=
201310062220 METAR ESMX 062220Z 23007KT 9999 SCT009 OVC031 12/10 Q1020=
201310062150 METAR ESMX 062150Z 22008KT 9999 SCT009 OVC031 12/10 Q1020=
201310062120 METAR ESMX 062120Z 21007KT 9999 FEW009 OVC034 12/10 Q1021=
201310062020 METAR ESMX 062020Z 22009KT 9999 BKN028 12/10 Q1021=
201310061950 METAR ESMX 061950Z 22008KT 9999 FEW012 BKN028 12/10 Q1021=
201310061920 METAR ESMX 061920Z 22007KT 9999 BKN027 11/09 Q1021=
201310061820 METAR ESMX 061820Z 23008KT 9999 BKN026 12/09 Q1021=
201310061720 METAR ESMX 061720Z 25006KT 210V280 9999 BKN026 13/08 Q1020=
201310061650 METAR ESMX 061650Z 27008KT 230V290 9999 BKN029 13/08 Q1020=
201310061620 METAR ESMX 061620Z 24007KT 9999 BKN028 13/08 Q1020=
201310061550 METAR ESMX 061550Z 26005KT 9999 BKN030 13/08 Q1020=
201310061520 METAR ESMX 061520Z 27007KT 240V300 9999 OVC027 13/08 Q1020=
201310061450 METAR ESMX 061450Z 28006KT 230V320 9999 OVC026 13/08 Q1020=
201310061420 METAR ESMX 061420Z 27009KT 230V310 9999 BKN026 13/08 Q1020=
201310061350 METAR ESMX 061350Z 27011KT 9999 BKN026 13/07 Q1020=
201310061320 METAR ESMX 061320Z 28011KT 9999 BKN026 14/08 Q1020=
201310061250 METAR ESMX 061250Z 25010KT 210V280 9999 BKN025 14/08 Q1020=
201310061220 METAR ESMX 061220Z AUTO 28013KT 9999NDV BKN026/// 14/08 Q1020=
201310061150 METAR ESMX 061150Z AUTO 26011KT 230V290 9999NDV SCT024/// 15/08 Q1020=
201310061120 METAR ESMX 061120Z AUTO 26010KT 210V290 9999NDV FEW021/// 15/09 Q1020=
201310061050 METAR ESMX 061050Z AUTO 25009KT 230V290 9999NDV NCD 14/09 Q1020=
201310061020 METAR ESMX 061020Z AUTO 25008KT 210V290 9999NDV FEW018/// 14/09 Q1019=
201310060950 METAR ESMX 060950Z AUTO 24009KT 9999NDV FEW014/// 14/09 Q1019=
201310060920 METAR ESMX 060920Z AUTO 24008KT 9999NDV FEW013/// 13/09 Q1020=
201310060850 METAR ESMX 060850Z AUTO 25008KT 9999NDV SCT010/// 12/09 Q1019=
201310060820 METAR ESMX 060820Z AUTO 24007KT 9999NDV FEW009/// BKN010/// 12/09 Q1019=
201310060750 METAR ESMX 060750Z AUTO 26007KT 230V300 9999NDV OVC008/// 11/08 Q1019=
201310060720 METAR ESMX 060720Z AUTO 25004KT 9999NDV BKN009/// 10/08 Q1019=
201310060650 METAR ESMX 060650Z AUTO 25006KT 9999NDV NCD 10/08 Q1019=
201310060620 METAR ESMX 060620Z AUTO 23005KT 9999NDV FEW011/// 09/08 Q1018=
201310060550 METAR ESMX 060550Z AUTO 26005KT 9999NDV BKN008/// OVC011/// 10/08 Q1018=
201310060520 METAR ESMX 060520Z AUTO 25005KT 9999NDV OVC008/// 10/08 Q1018=
201310060450 METAR ESMX 060450Z AUTO 27006KT 9999NDV OVC006/// 10/09 Q1018=
201310060420 METAR ESMX 060420Z AUTO 28005KT 240V300 9999NDV OVC005/// 10/09 Q1018=
201310060350 METAR ESMX 060350Z AUTO 27005KT 220V310 9999NDV OVC005/// 10/09 Q1017=
201310060320 METAR ESMX 060320Z AUTO 27007KT 9999NDV OVC006/// 10/09 Q1017=
201310060250 METAR ESMX 060250Z AUTO 28008KT 9999NDV OVC006/// 11/09 Q1017=
201310060220 METAR ESMX 060220Z AUTO 28007KT 9999NDV OVC005/// 11/09 Q1017=
201310060150 METAR ESMX 060150Z AUTO 29007KT 250V310 9999NDV OVC005/// 11/09 Q1016=
201310060120 METAR ESMX 060120Z AUTO 27007KT 9999NDV OVC006/// 11/09 Q1016=
201310060050 METAR ESMX 060050Z AUTO 27007KT 9999NDV OVC006/// 11/09 Q1016=
201310060020 METAR ESMX 060020Z AUTO 27005KT 240V300 9999NDV FEW006/// BKN007/// OVC009/// 10/09 Q1016=
201310052350 METAR ESMX 052350Z AUTO 28005KT 8000NDV BR FEW007/// SCT009/// OVC010/// 10/09 Q1016=
201310052320 METAR ESMX 052320Z AUTO 27005KT 240V300 9999NDV OVC011/// 11/09 Q1016=
201310052250 METAR ESMX 052250Z AUTO 26008KT 230V290 9999NDV OVC011/// 10/09 Q1016=
201310052220 METAR ESMX 052220Z AUTO 27009KT 9999NDV FEW007/// OVC010/// 11/09 Q1015=
201310052150 METAR ESMX 052150Z AUTO 28008KT 240V310 9999NDV BKN006/// OVC010/// 11/10 Q1015=
201310052120 METAR ESMX 052120Z AUTO 26008KT 230V290 9999NDV FEW005/// SCT008/// BKN009/// 12/10 Q1015=
201310052050 METAR ESMX 052050Z AUTO 25007KT 9999NDV FEW013/// SCT019/// OVC022/// 12/10 Q1015=
201310052020 METAR ESMX 052020Z AUTO 24008KT 9999NDV FEW022/// OVC025/// 12/10 Q1015=
201310051950 METAR ESMX 051950Z AUTO 25007KT 9999NDV FEW010/// SCT013/// OVC021/// 12/11 Q1015=
201310051920 METAR ESMX 051920Z AUTO 26008KT 230V290 9999NDV FEW008/// BKN012/// OVC016/// 13/11 Q1015=
201310051850 METAR ESMX 051850Z AUTO 25006KT 9000NDV BR FEW005/// SCT009/// OVC012/// 12/12 Q1014=
201310051820 METAR ESMX 051820Z 23008KT 3500 BR BKN001 OVC010 12/12 Q1014=
201310051750 METAR ESMX 051750Z 20008KT 2600 BR OVC002 12/11 Q1014=
201310051720 METAR ESMX 051720Z 19009KT 2300 DZ OVC003 12/11 Q1014=
201310051650 METAR ESMX 051650Z 19008KT 2000 BR SCT003 OVC004 12/11 Q1014 REDZ=
201310051620 METAR ESMX 051620Z 19008KT 2200 -DZ SCT003 OVC005 12/11 Q1014=
201310051550 METAR ESMX 051550Z AUTO 18008KT 2300NDV BR OVC004/// 12/11 Q1014=
201310051520 METAR ESMX 051520Z AUTO 18007KT 8000NDV BR OVC007/// 12/11 Q1014=
201310051450 METAR ESMX 051450Z AUTO 19006KT 8000NDV BR OVC008/// 12/10 Q1014 REDZ=
201310051420 METAR ESMX 051420Z AUTO 18010KT 9999NDV OVC009/// 12/10 Q1014=
201310051350 METAR ESMX 051350Z AUTO 18010KT 9999NDV OVC009/// 12/10 Q1013=
201310051320 METAR ESMX 051320Z AUTO 18007KT 9999NDV OVC008/// 12/10 Q1014=
201310051250 METAR ESMX 051250Z AUTO 17008KT 9999NDV OVC008/// 12/10 Q1014=
201310051220 METAR ESMX 051220Z AUTO 17010KT 9999NDV OVC009/// 12/09 Q1014=
201310051150 METAR ESMX 051150Z AUTO 17009KT 9999NDV OVC010/// 12/09 Q1014=
201310051120 METAR ESMX 051120Z AUTO 17010KT 9999NDV OVC011/// 12/09 Q1014=
201310051050 METAR ESMX 051050Z AUTO 18010KT 9999NDV FEW008/// OVC014/// 12/09 Q1014=
201310051020 METAR ESMX 051020Z AUTO 17008KT 9999NDV FEW008/// OVC015/// 10/08 Q1015=
201310050950 METAR ESMX 050950Z AUTO 19010KT 9999NDV FEW008/// SCT009/// OVC014/// 10/08 Q1015=
201310050920 METAR ESMX 050920Z AUTO 18009KT 140V200 9999NDV FEW007/// SCT009/// BKN015/// 10/08 Q1015=
201310050850 METAR ESMX 050850Z AUTO 17009KT 9999NDV FEW006/// SCT008/// BKN015/// 10/08 Q1015=
201310050820 METAR ESMX 050820Z AUTO 16010KT 9999NDV FEW006/// BKN014/// OVC019/// 09/08 Q1015=
201310050750 METAR ESMX 050750Z AUTO 17009KT 9000NDV BR FEW004/// SCT006/// BKN007/// 09/08 Q1015=
201310050720 METAR ESMX 050720Z AUTO 17008KT 8000NDV BR FEW005/// BKN006/// OVC010/// 09/08 Q1015=
201310050650 METAR ESMX 050650Z AUTO 17007KT 7000NDV BR OVC004/// 08/07 Q1015=
201310050620 METAR ESMX 050620Z AUTO 17007KT 6000NDV BR OVC004/// 08/07 Q1016=
201310050550 METAR ESMX 050550Z AUTO 17008KT 8000NDV BR OVC004/// 08/07 Q1016=
201310050520 METAR ESMX 050520Z AUTO 17007KT 9000NDV BR OVC006/// 08/07 Q1016=
201310050450 METAR ESMX 050450Z AUTO 17006KT 8000NDV BR FEW006/// OVC007/// 08/07 Q1016=
201310050420 METAR ESMX 050420Z AUTO 17007KT 9999NDV FEW008/// OVC010/// 08/07 Q1016=
201310050350 METAR ESMX 050350Z AUTO 17006KT 9999NDV UP OVC024/// 08/07 Q1016 RERA=
201310050320 METAR ESMX 050320Z AUTO 17006KT 120V190 7000NDV -RA FEW017/// BKN026/// OVC030/// 08/07 Q1016 RESHRA=
201310050250 METAR ESMX 050250Z AUTO 16004KT 9999NDV -RA BKN030/// 08/06 Q1016=
201310050220 METAR ESMX 050220Z AUTO 16004KT 9999NDV RA FEW030/// SCT067/// 08/06 Q1017=
201310050150 METAR ESMX 050150Z AUTO 16005KT 9999NDV -RA FEW040/// SCT099/// 08/06 Q1017=
201310050120 METAR ESMX 050120Z AUTO 13004KT 100V160 9999NDV FEW057/// SCT069/// BKN084/// 08/06 Q1017 RERA=
201310050050 METAR ESMX 050050Z AUTO 17007KT 9999NDV -RA FEW061/// SCT080/// 08/05 Q1017=
201310050020 METAR ESMX 050020Z AUTO 17009KT 9999NDV SCT075/// 09/04 Q1018=
201310042350 METAR ESMX 042350Z AUTO 17008KT 9999NDV SCT076/// 09/04 Q1018=
201310042320 METAR ESMX 042320Z AUTO 17008KT 9999NDV BKN075/// 09/04 Q1018=
201310042250 METAR ESMX 042250Z AUTO 17008KT 9999NDV FEW081/// 09/04 Q1019=
201310042220 METAR ESMX 042220Z AUTO 17006KT 9999NDV NCD 08/04 Q1019=
201310042150 METAR ESMX 042150Z AUTO 15006KT 9999NDV NCD 08/04 Q1019=
201310042120 METAR ESMX 042120Z AUTO 16005KT 9999NDV NCD 08/04 Q1020=
201310042050 METAR ESMX 042050Z AUTO 16006KT 9999NDV NCD 07/04 Q1020=
201310042020 METAR ESMX 042020Z AUTO 15007KT 110V180 9999NDV NCD 07/04 Q1020=
201310041950 METAR ESMX 041950Z AUTO 16009KT 140V200 9999NDV NCD 08/04 Q1020=
201310041920 METAR ESMX 041920Z AUTO 15008KT 9999NDV NCD 08/04 Q1020=
201310041850 METAR ESMX 041850Z AUTO 15007KT 120V180 9999NDV NCD 08/04 Q1021=
201310041820 METAR ESMX 041820Z AUTO 14008KT 100V170 9999NDV NCD 08/04 Q1021=
201310041750 METAR ESMX 041750Z 15008KT 120V190 CAVOK 08/04 Q1021=
201310041720 METAR ESMX 041720Z 15008KT 100V190 CAVOK 08/04 Q1021=
201310041650 METAR ESMX 041650Z 16009KT 120V200 CAVOK 08/03 Q1022=
201310041620 METAR ESMX 041620Z 16009KT 110V190 CAVOK 09/03 Q1022=
201310041550 METAR ESMX 041550Z 16008KT CAVOK 10/03 Q1022=
201310041520 METAR ESMX 041520Z 15009KT CAVOK 10/03 Q1022=
201310041450 METAR ESMX 041450Z 16010KT CAVOK 10/03 Q1023=
201310041420 METAR ESMX 041420Z 17010KT 140V200 CAVOK 11/02 Q1023=
201310041350 METAR ESMX 041350Z 16010KT CAVOK 12/02 Q1023=
201310041320 METAR ESMX 041320Z 16011KT 130V200 CAVOK 12/02 Q1024=
201310041250 METAR ESMX 041250Z 15009KT CAVOK 12/02 Q1024=
201310041220 METAR ESMX 041220Z 15010KT CAVOK 12/01 Q1024=
201310041150 METAR ESMX 041150Z 16011KT 120V190 CAVOK 12/02 Q1025=
201310041120 METAR ESMX 041120Z 15012KT CAVOK 12/01 Q1025=
201310041050 METAR ESMX 041050Z 16012KT 110V190 CAVOK 12/02 Q1025=
201310041020 METAR ESMX 041020Z 16010KT 140V210 CAVOK 11/02 Q1026=
201310040920 METAR ESMX 040920Z 16013KT 120V200 CAVOK 10/02 Q1026=
201310040850 METAR ESMX 040850Z 15009KT 120V190 CAVOK 09/04 Q1026=
201310040820 METAR ESMX 040820Z 16009KT 120V190 CAVOK 08/04 Q1026=
201310040750 METAR ESMX 040750Z 16009KT 120V200 CAVOK 08/04 Q1027=
201310040720 METAR ESMX 040720Z 16007KT 130V200 CAVOK 07/03 Q1027=
201310040650 METAR ESMX 040650Z 16007KT 130V200 CAVOK 06/03 Q1026=
201310040620 METAR ESMX 040620Z 15006KT 120V190 CAVOK 05/02 Q1027=
201310040550 METAR ESMX 040550Z 16005KT CAVOK 04/02 Q1027=
201310040520 METAR ESMX 040520Z 15004KT 120V190 CAVOK 04/02 Q1027=
201310040450 METAR ESMX 040450Z 14005KT CAVOK 03/02 Q1027=
201310040420 METAR ESMX 040420Z 13004KT 100V170 CAVOK 03/02 Q1027=
201310040350 METAR ESMX 040350Z 13005KT CAVOK 04/02 Q1028=
201310040320 METAR ESMX 040320Z AUTO 14005KT 9999NDV NCD 03/02 Q1028=
201310040250 METAR ESMX 040250Z AUTO 14004KT 9999NDV NCD 04/02 Q1028=
201310040220 METAR ESMX 040220Z AUTO 14005KT 9999NDV NCD 04/02 Q1028=
201310040150 METAR ESMX 040150Z AUTO 16005KT 9999NDV NCD 04/02 Q1028=
201310040120 METAR ESMX 040120Z AUTO 16006KT 9999NDV NCD 05/02 Q1029=
201310040050 METAR ESMX 040050Z AUTO 16007KT 9999NDV NCD 05/02 Q1029=
201310040020 METAR ESMX 040020Z 16006KT CAVOK 05/02 Q1029=
201310032350 METAR COR ESMX 032350Z 15005KT CAVOK 04/02 Q1029=
201310032320 METAR COR ESMX 032320Z 15005KT CAVOK 04/02 Q1029=
201310032220 METAR ESMX 032220Z 13004KT 090V160 CAVOK 03/01 Q1030=
201310032150 METAR ESMX 032150Z 13004KT CAVOK 03/01 Q1030=
201310032120 METAR ESMX 032120Z 12003KT CAVOK 04/01 Q1030=
201310032050 METAR ESMX 032050Z 14004KT CAVOK 03/01 Q1030=
201310032020 METAR ESMX 032020Z 15004KT 120V190 CAVOK 04/01 Q1030=
201310031950 METAR ESMX 031950Z 13004KT CAVOK 04/01 Q1030=
201310031920 METAR ESMX 031920Z 14004KT CAVOK 05/01 Q1031=
201310031850 METAR ESMX 031850Z 14004KT CAVOK 04/01 Q1031=
201310031820 METAR ESMX 031820Z 14003KT CAVOK 04/01 Q1030=
201310031750 METAR ESMX 031750Z 15003KT CAVOK 05/01 Q1030=
201310031720 METAR ESMX 031720Z 17005KT CAVOK 07/01 Q1031=
201310031650 METAR ESMX 031650Z 15005KT 110V190 CAVOK 07/01 Q1031=
201310031620 METAR ESMX 031620Z 17006KT CAVOK 08/01 Q1031=
201310031550 METAR ESMX 031550Z 17007KT 140V200 CAVOK 09/01 Q1031=
201310031520 METAR ESMX 031520Z 18010KT 140V200 CAVOK 10/01 Q1031=
201310031450 METAR ESMX 031450Z 17009KT 9999 FEW037 10/01 Q1031=
201310031420 METAR ESMX 031420Z 16010KT 130V190 9999 FEW037 10/00 Q1031=
201310031350 METAR ESMX 031350Z 19012KT 9999 FEW037 11/01 Q1031=
201310031320 METAR ESMX 031320Z 18011KT 9999 SCT038 11/01 Q1032=
201310031250 METAR ESMX 031250Z 16009KT 120V200 9999 SCT036 10/01 Q1032=
201310031220 METAR ESMX 031220Z 17012KT 9999 BKN035 10/01 Q1032=
201310031150 METAR ESMX 031150Z 15009KT 110V190 9999 BKN031 10/02 Q1032=
201310031120 METAR ESMX 031120Z 16010KT 120V190 9999 BKN030 09/02 Q1032=
201310031050 METAR ESMX 031050Z 17009KT 120V200 9999 OVC032 09/02 Q1032=
201310031020 METAR ESMX 031020Z 15007KT 110V200 9999 OVC031 09/03 Q1032=
201310030950 METAR ESMX 030950Z 16006KT 9999 OVC031 08/03 Q1033=
201310030920 METAR ESMX 030920Z 17005KT 110V200 9999 OVC034 08/03 Q1033=
201310030850 METAR ESMX 030850Z 13005KT 090V170 9999 BKN034 07/03 Q1033=
201310030820 METAR ESMX 030820Z 13005KT 100V160 9999 BKN034 07/03 Q1032=
201310030750 METAR ESMX 030750Z 14005KT 100V170 9999 BKN035 06/02 Q1032=
201310030720 METAR ESMX 030720Z 14005KT 9999 BKN034 05/04 Q1032=
201310030650 METAR ESMX 030650Z VRB02KT 9999 BKN030 02/01 Q1032=
201310030620 METAR ESMX 030620Z 12003KT 9999 BKN036 M00/M01 Q1032=
201310030550 METAR ESMX 030550Z 11004KT 9999 BKN034 M01/M01 Q1032=
201310030520 METAR ESMX 030520Z 00000KT 9999 BCFG SCT035 M04/M04 Q1032=
201310030450 METAR ESMX 030450Z 00000KT 9000 R19/2000 BCFG FEW100 M03/M03 Q1032=
201310030420 METAR ESMX 030420Z 00000KT 0500 R01/P2000N R19/P2000N BCFG NSC M03/M04 Q1032=
201310030350 METAR ESMX 030350Z 00000KT 0600 R01/P2000 R19/P2000N BCFG NSC M03/M03 Q1032=
201310030320 METAR ESMX 030320Z AUTO VRB02KT 4300NDV BR NCD M03/M03 Q1032=
201310030250 METAR ESMX 030250Z AUTO 13003KT 9999NDV NCD M03/M03 Q1032=
201310030220 METAR ESMX 030220Z AUTO 00000KT 9999NDV NCD M03/M03 Q1032=
201310030150 METAR ESMX 030150Z AUTO 00000KT 1800NDV BCFG NCD M03/M03 Q1032=
201310030120 METAR ESMX 030120Z AUTO 00000KT 2100NDV NCD M03/M03 Q1032=
201310030050 METAR ESMX 030050Z AUTO 00000KT 2000NDV BR NCD M02/M02 Q1032=
201310030020 METAR ESMX 030020Z AUTO 00000KT 7000NDV NCD M03/M03 Q1032=
201310022350 METAR ESMX 022350Z AUTO 00000KT 9999NDV NCD M02/M02 Q1032=
201310022320 METAR ESMX 022320Z VRB01KT 0800 R01/P2000D R19/P2000N MIFG NSC M01/M02 Q1032=
201310022250 METAR ESMX 022250Z 13003KT CAVOK M01/M01 Q1032=
201310022120 METAR ESMX 022120Z 14003KT CAVOK M00/M01 Q1031=
201310022050 METAR ESMX 022050Z 15004KT CAVOK 00/M00 Q1031=
201310022020 METAR ESMX 022020Z 15004KT CAVOK M00/M01 Q1031=
201310021950 METAR ESMX 021950Z 13003KT CAVOK 01/M00 Q1031=
201310021920 METAR ESMX 021920Z 12001KT CAVOK 01/00 Q1031=
201310021850 METAR ESMX 021850Z 00000KT CAVOK 01/00 Q1031=
201310021820 METAR ESMX 021820Z 16003KT CAVOK 02/01 Q1031=
201310021750 METAR ESMX 021750Z 14003KT 9999 SCT045 03/01 Q1030=
201310021720 METAR ESMX 021720Z 17005KT 9999 SCT045 04/02 Q1030=
201310021650 METAR ESMX 021650Z 17004KT 9999 FEW045 05/02 Q1030=
201310021620 METAR ESMX 021620Z 20002KT 9999 FEW046 08/03 Q1030=
201310021550 METAR ESMX 021550Z 20004KT 9999 SCT044 10/02 Q1030=
201310021520 METAR ESMX 021520Z VRB01KT 9999 SCT044 12/02 Q1030=
201310021450 METAR ESMX 021450Z 26002KT 9999 SCT042 10/01 Q1030=
201310021420 METAR ESMX 021420Z 22006KT 180V240 9999 SCT042 12/01 Q1030=
201310021350 METAR ESMX 021350Z 16005KT 090V240 9999 SCT042 12/01 Q1030=
201310021320 METAR ESMX 021320Z 17005KT 120V200 9999 SCT042 11/01 Q1030=
201310021250 METAR ESMX 021250Z 08003KT 020V160 9999 FEW041 12/01 Q1030=
201310021220 METAR ESMX 021220Z 14005KT 080V200 9999 FEW041 11/00 Q1030=
201310021150 METAR ESMX 021150Z 16006KT 110V190 9999 FEW040 11/01 Q1030=
201310021120 METAR ESMX 021120Z 10004KT 010V180 9999 FEW037 11/00 Q1030=
201310021050 METAR ESMX 021050Z 17004KT 140V200 9999 FEW035 10/01 Q1030=
201310021020 METAR ESMX 021020Z 18006KT 130V240 9999 SCT033 10/01 Q1030=
201310020950 METAR ESMX 020950Z 14005KT 060V200 9999 FEW035 10/03 Q1030=
201310020920 METAR ESMX 020920Z 12004KT 060V200 CAVOK 10/03 Q1030=
201310020850 METAR ESMX 020850Z 08004KT 030V160 CAVOK 08/03 Q1030=
201310020820 METAR ESMX 020820Z 06004KT 030V110 CAVOK 08/03 Q1030=
201310020750 METAR ESMX 020750Z 07004KT 030V110 CAVOK 07/03 Q1030=
201310020720 METAR ESMX 020720Z 07004KT 040V100 CAVOK 05/02 Q1030=
201310020650 METAR ESMX 020650Z 05003KT CAVOK 03/03 Q1029=
201310020620 METAR ESMX 020620Z VRB01KT CAVOK M02/M02 Q1029=
201310020550 METAR ESMX 020550Z 04003KT CAVOK M03/M03 Q1029=
201310020520 METAR ESMX 020520Z 03003KT CAVOK M03/M04 Q1029=
201310020450 METAR ESMX 020450Z 04003KT CAVOK M03/M04 Q1028=
201310020420 METAR ESMX 020420Z 35002KT CAVOK M03/M03 Q1028=
201310020350 METAR ESMX 020350Z VRB02KT CAVOK M03/M03 Q1028=
201310020320 METAR ESMX 020320Z AUTO VRB01KT 9999NDV NCD M02/M03 Q1028=
201310020250 METAR ESMX 020250Z AUTO VRB01KT 9999NDV NCD M02/M03 Q1028=
201310020220 METAR ESMX 020220Z AUTO 05002KT 9999NDV NCD M01/M02 Q1028=
201310020150 METAR ESMX 020150Z AUTO 07005KT 9999NDV NCD 01/M00 Q1028=
201310020120 METAR ESMX 020120Z 07004KT CAVOK 02/01 Q1028=
201310020050 METAR ESMX 020050Z 08004KT CAVOK 01/00 Q1028=
201310020020 METAR ESMX 020020Z 07004KT CAVOK 02/00 Q1028=
201310012350 METAR ESMX 012350Z 09004KT CAVOK 03/01 Q1027=
201310012320 METAR ESMX 012320Z 08004KT 9999 BKN042 04/01 Q1027=
201310012220 METAR ESMX 012220Z VRB02KT 9999 BKN042 04/01 Q1027=
201310012150 METAR ESMX 012150Z 05004KT 010V090 9999 BKN043 05/01 Q1027=
201310012120 METAR ESMX 012120Z 03005KT 9999 OVC042 05/01 Q1027=
201310012050 METAR ESMX 012050Z 06005KT 030V100 9999 BKN043 05/01 Q1027=
201310012020 METAR ESMX 012020Z 07004KT 030V110 9999 OVC044 06/01 Q1026=
201310011950 METAR ESMX 011950Z 05005KT 020V080 9999 OVC045 06/02 Q1026=
201310011920 METAR ESMX 011920Z 06004KT 010V100 9999 OVC046 06/02 Q1026=
201310011850 METAR ESMX 011850Z 08003KT 050V110 9999 OVC048 06/03 Q1025=
201310011820 METAR ESMX 011820Z 07003KT 9999 OVC048 05/03 Q1025=
201310011750 METAR ESMX 011750Z VRB02KT 9999 BKN048 06/02 Q1025=
201310011720 METAR ESMX 011720Z 06005KT 9999 FEW042 06/02 Q1025=
201310011650 METAR ESMX 011650Z 05007KT 020V090 9999 SCT040 07/02 Q1024=
201310011620 METAR ESMX 011620Z 07005KT 030V110 9999 BKN040 07/03 Q1024=
201310011550 METAR ESMX 011550Z 07007KT 010V100 9999 FEW020 SCT040 08/02 Q1024=
201310011520 METAR ESMX 011520Z 05008KT 020V100 9999 FEW020 BKN035 08/03 Q1024=
201310011450 METAR ESMX 011450Z 04011KT 9999 FEW020 BKN034 09/04 Q1024=
201310011420 METAR ESMX 011420Z 03009KT 9999 FEW025 SCT030 09/04 Q1024=
201310011350 METAR ESMX 011350Z 04008KT 010V070 9999 FEW023 BKN041 09/03 Q1024=
201310011320 METAR ESMX 011320Z 04009KT 9999 FEW022 BKN045 09/04 Q1024=
201310011250 METAR ESMX 011250Z 03010KT 010V070 9999 FEW027 OVC040 10/04 Q1024=
201310011220 METAR ESMX 011220Z 04008KT 9999 FEW031 OVC039 09/04 Q1024=
