##########################################################
# Query made at 04/19/2024 21:31:45 UTC
# Time interval: from 01/01/2013 12:00  to 01/31/2013 12:59  UTC
##########################################################

##########################################################
# ESMX, Vaxjo (Sweden)
# WMO index: 02641. WIGOS ID: 0-20000-0-02648
# Latitude 56-51N. Longitude 014-50E. Altitude 199 m.
##########################################################

201301311250 METAR ESMX 311250Z 28016G26KT 9999 OVC011 03/01 Q0987=
201301311220 METAR ESMX 311220Z 28016G28KT 9999 BKN011 BKN015 04/02 Q0986=
201301311150 METAR ESMX 311150Z 28018KT 9999 SCT012 BKN018 04/02 Q0985=
201301311120 METAR ESMX 311120Z 27018G28KT 9999 FEW012 BKN015 04/02 Q0985=
201301311050 METAR ESMX 311050Z 26016G26KT 9999 FEW011 OVC013 04/02 Q0984=
201301311020 METAR ESMX 311020Z 26015KT 9999 FEW009 OVC011 04/02 Q0984=
201301310950 METAR ESMX 310950Z 26015KT 9999 FEW008 OVC010 04/02 Q0983=
201301310920 METAR ESMX 310920Z 25013KT 9999 FEW007 OVC009 04/02 Q0982=
201301310850 METAR ESMX 310850Z 26012KT 230V290 6000 -RA BR FEW007 BKN008 OVC010 04/02 Q0982=
201301310820 METAR ESMX 310820Z 26014KT 9999 FEW006 OVC009 04/03 Q0981=
201301310750 METAR ESMX 310750Z 26012KT 8000 BR FEW006 BKN008 04/03 Q0980=
201301310650 METAR ESMX 310650Z 24013KT 5000 -RA FEW006 BKN009 04/03 Q0980=
201301310620 METAR ESMX 310620Z 23013KT 5000 -RA FEW006 BKN009 04/03 Q0980=
201301310550 METAR ESMX 310550Z 22011KT 3000 -RA FEW005 BKN008 03/02 Q0980=
201301310520 METAR ESMX 310520Z 22012KT 5000 -RASN SCT005 BKN008 02/01 Q0980=
201301310450 METAR ESMX 310450Z 20014KT 6000 -RASN FEW006 BKN007 BKN010 01/00 Q0980=
201301310420 METAR ESMX 310420Z AUTO 22015KT 6000NDV -RA FEW006/// SCT009/// BKN010/// 03/02 Q0980 REDZ=
201301310350 METAR ESMX 310350Z AUTO 22014KT 4500NDV DZ FEW006/// BKN008/// OVC012/// 03/02 Q0981=
201301310320 METAR ESMX 310320Z AUTO 20013KT 5000NDV DZ FEW005/// SCT007/// BKN009/// 02/02 Q0981=
201301310250 METAR ESMX 310250Z AUTO 21014KT 3900NDV -RA FEW005/// SCT006/// BKN008/// 03/02 Q0982=
201301310220 METAR ESMX 310220Z AUTO 20014KT 4900NDV -RA SCT005/// BKN008/// OVC012/// 03/02 Q0983 REDZ=
201301310150 METAR ESMX 310150Z AUTO 20014KT 4600NDV DZ FEW005/// SCT009/// BKN011/// 03/02 Q0983=
201301310120 METAR ESMX 310120Z AUTO 21013KT 9999NDV OVC012/// 03/02 Q0983=
201301310050 METAR ESMX 310050Z 21014KT 7000 -RA FEW011 SCT016 BKN018 03/01 Q0984=
201301310020 METAR ESMX 310020Z 21011KT 9999 FEW014 BKN019 03/01 Q0984=
201301302350 METAR ESMX 302350Z 24011KT 9999 FEW010 SCT015 BKN017 03/02 Q0985=
201301302320 METAR ESMX 302320Z 25010KT 9999 FEW007 SCT010 BKN012 03/02 Q0985=
201301302250 METAR ESMX 302250Z 21011KT 6000 -RA FEW007 BKN012 03/02 Q0985=
201301302220 METAR ESMX 302220Z 21011KT 9999 FEW012 SCT014 BKN017 03/02 Q0985=
201301302150 METAR ESMX 302150Z 23013KT 9999 FEW011 BKN013 OVC040 04/02 Q0985=
201301302120 METAR ESMX 302120Z 24011KT 8000 FEW008 SCT012 OVC014 04/02 Q0986=
201301302020 METAR ESMX 302020Z 22012KT 7000 -RA FEW009 BKN011 04/02 Q0985=
201301301950 METAR ESMX 301950Z 25013KT 8000 -RA FEW009 BKN012 BKN019 04/02 Q0986=
201301301920 METAR ESMX 301920Z 24014KT 7000 FEW007 SCT009 BKN012 04/03 Q0986=
201301301850 METAR ESMX 301850Z 22011KT 9000 -RA FEW006 BKN008 OVC011 04/03 Q0986=
201301301820 METAR ESMX 301820Z 22012KT 9000 FEW008 SCT009 OVC011 04/03 Q0986 REDZ=
201301301750 METAR ESMX 301750Z 23013KT 9000 -RA OVC009 04/03 Q0986=
201301301720 METAR ESMX 301720Z 22012KT 9999 OVC010 04/03 Q0986=
201301301650 METAR ESMX 301650Z 23013KT 9999 BKN010 OVC016 05/03 Q0987=
201301301620 METAR ESMX 301620Z 22013KT 9999 BKN012 OVC015 05/03 Q0987=
201301301550 METAR ESMX 301550Z 22012KT 9999 BKN013 05/02 Q0987=
201301301520 METAR ESMX 301520Z 22013KT 9999 OVC012 05/03 Q0988=
201301301450 METAR ESMX 301450Z 22012KT 9999 BKN012 BKN018 05/03 Q0988=
201301301420 METAR ESMX 301420Z 22012KT 9999 SCT011 BKN030 05/03 Q0988=
201301301350 METAR ESMX 301350Z 22011KT 9999 SCT012 BKN031 05/03 Q0988=
201301301320 METAR ESMX 301320Z 24012KT 9999 FEW011 BKN030 05/03 Q0988=
201301301220 METAR ESMX 301220Z 23013KT 9999 FEW010 BKN014 BKN017 05/03 Q0988=
201301301150 METAR ESMX 301150Z 25014KT 9999 FEW009 BKN014 05/04 Q0989=
201301301120 METAR ESMX 301120Z 23011KT 9999 FEW006 BKN010 05/04 Q0988=
201301301050 METAR ESMX 301050Z 23009KT 9999 FEW006 BKN010 05/04 Q0989=
201301300950 METAR ESMX 300950Z 23010KT 9999 FEW003 OVC005 05/05 Q0989=
201301300920 METAR ESMX 300920Z 21009KT 8000 BR BKN002 OVC004 05/04 Q0989=
201301300850 METAR ESMX 300850Z 22008KT 6000 BR OVC002 04/04 Q0989=
201301300820 METAR ESMX 300820Z 23007KT 190V290 4600 BR OVC002 04/04 Q0989=
201301300750 METAR ESMX 300750Z 23008KT 3200 BR OVC002 04/04 Q0989=
201301300720 METAR ESMX 300720Z 19009KT 2100 BR OVC002 04/03 Q0989=
201301300650 METAR ESMX 300650Z 19009KT 5000 BR OVC002 03/03 Q0989=
201301300620 METAR ESMX 300620Z 18009KT 6000 -RA OVC002 03/03 Q0989 REDZ=
201301300550 METAR ESMX 300550Z 17011KT 9999 -DZ OVC002 03/03 Q0990=
201301300520 METAR ESMX 300520Z 17012KT 6000 -DZ OVC002 03/03 Q0990=
201301300450 METAR ESMX 300450Z 16010KT 3300 -RA OVC002 03/02 Q0990=
201301300420 METAR ESMX 300420Z AUTO 14009KT 6000NDV -RA OVC002/// 02/02 Q0991 REDZ=
201301300350 METAR ESMX 300350Z AUTO 14008KT 9000NDV DZ BKN001/// BKN004/// 02/02 Q0992=
201301300320 METAR ESMX 300320Z AUTO 17009KT 4200NDV -RA OVC001/// 02/02 Q0993 REDZ=
201301300250 METAR ESMX 300250Z AUTO 17008KT 1100NDV R01/P2000N R19/P2000N VV002 02/02 Q0994=
201301300220 METAR ESMX 300220Z AUTO 16008KT 0800NDV R01/P2000N R19/P2000N FG VV002 02/02 Q0995=
201301300150 METAR ESMX 300150Z AUTO 17008KT 0900NDV R01/P2000N R19/P2000N VV002 02/02 Q0996=
201301300120 METAR ESMX 300120Z AUTO 18008KT 1100NDV R01/P2000N R19/P2000N VV002 02/02 Q0996=
201301300050 METAR ESMX 300050Z 18008KT 0500 R01/1200VP2000U R19/1300V1800U FG VV002 03/02 Q0996=
201301300020 METAR ESMX 300020Z 18007KT 0650 R01/1900D R19/P2000N FG VV002 03/02 Q0996=
201301292350 METAR ESMX 292350Z 18007KT 0700 R01/P2000N R19/P2000D FG VV002 03/02 Q0997=
201301292320 METAR ESMX 292320Z 20008KT 0500 R01/1500N R19/1500N FG VV002 03/02 Q0997=
201301292250 METAR ESMX 292250Z 20007KT 0500 R01/1600N R19/P2000D FG VV002 03/02 Q0997=
201301292220 METAR ESMX 292220Z 21009KT 1100 R01/P2000N R19/P2000N BR OVC002 03/03 Q0998=
201301292150 METAR ESMX 292150Z 19009KT 2600 BR OVC002 03/03 Q0998=
201301292120 METAR ESMX 292120Z 20009KT 1600 BR OVC002 03/03 Q0998=
201301292050 METAR ESMX 292050Z 21008KT 5000 BR OVC002 03/03 Q0998=
201301292020 METAR ESMX 292020Z 19008KT 1500 BR OVC002 03/02 Q0998=
201301291950 METAR ESMX 291950Z 19008KT 1600 BR OVC002 03/02 Q0997=
201301291920 METAR ESMX 291920Z 19007KT 0400 R01/1300U R19/1300N FG VV002 03/02 Q0997=
201301291850 METAR ESMX 291850Z 19007KT 0400 R01/1300N R19/1400D FG VV002 03/02 Q0997=
201301291820 METAR ESMX 291820Z 19008KT 0900 R01/P2000N R19/P2000N FG VV002 03/02 Q0997=
201301291750 METAR ESMX 291750Z 19008KT 2800 OVC002 02/02 Q0997=
201301291720 METAR ESMX 291720Z 17006KT 1100 R01/P2000N R19/P2000N DZ VV002 02/02 Q0997=
201301291650 METAR ESMX 291650Z 17006KT 0600 R01/1800N R19/1800N FG VV002 02/02 Q0996=
201301291620 METAR ESMX 291620Z 17005KT 0450 R01/1500N R19/1700N FG VV002 02/01 Q0996=
201301291550 METAR ESMX 291550Z 17006KT 0650 R01/1700N R19/1900N -DZ VV002 02/01 Q0996=
201301291520 METAR ESMX 291520Z 15005KT 0800 R01/1600N R19/P2000U -DZ VV002 02/01 Q0996=
201301291450 METAR ESMX 291450Z 16005KT 0900 R01/1700N R19/1900N FG VV002 01/01 Q0995=
201301291420 METAR ESMX 291420Z 16005KT 1000 R01/1700N R19/1900N BR VV002 01/01 Q0995 REDZ=
201301291350 METAR ESMX 291350Z 17005KT 020V190 1000 R01/1600D R19/1800D -RA VV002 01/01 Q0995=
201301291320 METAR ESMX 291320Z 16004KT 2200 BR OVC002 01/01 Q0995=
201301291250 METAR ESMX 291250Z 17005KT 2000 -RA OVC002 01/00 Q0995 REDZ=
201301291220 METAR ESMX 291220Z 17007KT 3000 BR OVC002 01/00 Q0995=
201301291150 METAR ESMX 291150Z 17007KT 5000 BR OVC002 01/00 Q0995=
201301291120 METAR ESMX 291120Z 16008KT 4900 BR OVC003 01/M00 Q0995=
201301291050 METAR ESMX 291050Z 18008KT 9999 -RA FEW003 OVC005 01/M00 Q0995=
201301291020 METAR ESMX 291020Z 18010KT 9999 -RASN OVC004 01/M00 Q0995=
201301290950 METAR ESMX 290950Z 17009KT 9999 OVC003 01/M00 Q0995=
201301290920 METAR ESMX 290920Z 17009KT 9999 OVC003 01/M00 Q0995=
201301290850 METAR ESMX 290850Z 16011G22KT 9999 OVC003 01/M00 Q0996=
201301290820 METAR ESMX 290820Z 15011KT 9999 OVC004 01/M00 Q0996 RESHRA=
201301290750 METAR ESMX 290750Z 16009KT 8000 -RASN FEW005 BKN007 OVC009 01/M00 Q0996=
201301290720 METAR ESMX 290720Z 15010KT 8000 -RASN OVC005 01/M00 Q0996=
201301290650 METAR ESMX 290650Z 16008KT 6000 -RASN OVC003 01/00 Q0997=
201301290620 METAR ESMX 290620Z 16009KT 3600 -RASN OVC003 01/00 Q0998=
201301290550 METAR ESMX 290550Z 16011KT 6000 BR OVC004 01/M00 Q0998=
201301290520 METAR ESMX 290520Z 16011KT 8000 BR OVC006 01/M00 Q0999=
201301290450 METAR ESMX 290450Z 17010KT 150V210 9000 BR FEW006 OVC008 01/M00 Q0999=
201301290420 METAR ESMX 290420Z AUTO 16011KT 7000NDV BR BKN005/// 01/M00 Q1000=
201301290350 METAR ESMX 290350Z AUTO 17010KT 6000NDV BR OVC005/// 01/M00 Q1000=
201301290320 METAR ESMX 290320Z AUTO 17010KT 7000NDV BR OVC006/// 01/M00 Q1001=
201301290250 METAR ESMX 290250Z AUTO 17011KT 8000NDV BR OVC007/// 01/M01 Q1001=
201301290220 METAR ESMX 290220Z AUTO 16009KT 9000NDV BR SCT008/// BKN020/// 01/M01 Q1001=
201301290150 METAR ESMX 290150Z AUTO 17007KT 9000NDV BR FEW008/// SCT015/// OVC019/// 01/M01 Q1002=
201301290120 METAR ESMX 290120Z AUTO 17009KT 9999NDV FEW010/// SCT013/// BKN015/// 01/M01 Q1002=
201301290050 METAR ESMX 290050Z 17009KT 9999 OVC011 01/M01 Q1003=
201301290020 METAR ESMX 290020Z 18009KT 9999 OVC013 01/M01 Q1003=
201301282350 METAR ESMX 282350Z 19011KT 9999 FEW013 OVC016 01/M01 Q1004=
201301282320 METAR ESMX 282320Z 18009KT 9999 FEW013 BKN018 01/M01 Q1004=
201301282250 METAR ESMX 282250Z 19012KT 9999 FEW008 SCT011 BKN019 01/M01 Q1004=
201301282220 METAR ESMX 282220Z 19012KT 9999 FEW006 BKN008 OVC012 01/M00 Q1005=
201301282150 METAR ESMX 282150Z 19011KT 9000 BR BKN006 OVC008 01/M00 Q1005=
201301282120 METAR ESMX 282120Z 21010KT 8000 BR OVC005 01/00 Q1005=
201301282050 METAR ESMX 282050Z 19009KT 9000 BR BKN006 OVC010 01/00 Q1005=
201301282020 METAR ESMX 282020Z 21009KT 9000 BKN006 OVC009 01/00 Q1005=
201301281950 METAR ESMX 281950Z 20011KT 9000 BR OVC006 01/00 Q1005=
201301281920 METAR ESMX 281920Z 20009KT 9000 BR FEW005 SCT007 BKN008 01/00 Q1005=
201301281850 METAR ESMX 281850Z 20009KT 5000 -RA OVC004 01/01 Q1005=
201301281820 METAR ESMX 281820Z 20010KT 6000 BR OVC003 02/01 Q1005=
201301281750 METAR ESMX 281750Z 22010KT 5000 BR OVC003 01/01 Q1005 RERA=
201301281720 METAR ESMX 281720Z 21011KT 5000 -RA OVC003 02/01 Q1004=
201301281650 METAR ESMX 281650Z 20010KT 6000 BR OVC004 02/01 Q1004=
201301281620 METAR ESMX 281620Z 20010KT 7000 BR OVC004 02/01 Q1004=
201301281550 METAR ESMX 281550Z 20009KT 7000 BR OVC005 02/01 Q1004=
201301281520 METAR ESMX 281520Z 20009KT 9000 BR OVC006 02/01 Q1004=
201301281450 METAR ESMX 281450Z 21008KT 8000 BR FEW007 OVC008 02/01 Q1004=
201301281420 METAR ESMX 281420Z 20008KT 9999 FEW006 OVC009 02/01 Q1004=
201301281350 METAR ESMX 281350Z 20008KT 9000 BR OVC006 02/01 Q1003=
201301281320 METAR ESMX 281320Z 21008KT 9000 BR FEW006 BKN007 OVC011 02/01 Q1003=
201301281250 METAR ESMX 281250Z 20009KT 8000 BR FEW005 BKN007 OVC009 02/01 Q1003=
201301281220 METAR ESMX 281220Z /////KT //// BKN004 OVC008 ///// Q1003=
201301281150 METAR ESMX 281150Z 20011KT 7000 FEW004 BKN005 OVC008 02/01 Q1003=
201301281120 METAR ESMX 281120Z 20011KT 5000 OVC002 02/01 Q1002 REDZ=
201301281050 METAR ESMX 281050Z 19012KT 3900 BR OVC002 01/01 Q1002=
201301281020 METAR ESMX 281020Z 19012KT 4000 BR OVC002 01/01 Q1002=
201301280950 METAR ESMX 280950Z 19010KT 1500 BR OVC002 01/01 Q1002=
201301280920 METAR ESMX 280920Z 19011KT 2000 BR OVC002 01/01 Q1001=
201301280850 METAR ESMX 280850Z 21011KT 2100 BR OVC001 01/01 Q1001=
201301280820 METAR ESMX 280820Z 19012KT 3700 BR OVC002 01/01 Q1001=
201301280750 METAR ESMX 280750Z 19012KT 5000 BR OVC003 01/01 Q1000=
201301280720 METAR ESMX 280720Z 19011KT 6000 BR OVC003 01/01 Q1000=
201301280650 METAR ESMX 280650Z 20010KT 5000 BR OVC002 01/01 Q1000=
201301280620 METAR ESMX 280620Z 19011KT 3100 BR OVC002 01/01 Q0999=
201301280550 METAR ESMX 280550Z 19011KT 4400 BR OVC002 01/01 Q0999=
201301280520 METAR ESMX 280520Z 18011KT 4200 BR OVC002 01/01 Q0999=
201301280450 METAR ESMX 280450Z 19009KT 4500 BR OVC002 01/01 Q0998=
201301280420 METAR ESMX 280420Z AUTO 17008KT 2600NDV BR OVC001/// 01/01 Q0998=
201301280350 METAR ESMX 280350Z AUTO 18008KT 3500NDV BR OVC002/// 01/00 Q0998=
201301280320 METAR ESMX 280320Z AUTO 18008KT 5000NDV BR OVC001/// 01/00 Q0998=
201301280250 METAR ESMX 280250Z AUTO 18008KT 3400NDV BR OVC001/// 01/00 Q0997=
201301280220 METAR ESMX 280220Z AUTO 18008KT 3900NDV BR OVC001/// 01/00 Q0997=
201301280150 METAR ESMX 280150Z AUTO 18009KT 4000NDV BR OVC001/// 01/00 Q0997=
201301280120 METAR ESMX 280120Z AUTO 17009KT 5000NDV BR OVC002/// 01/00 Q0997=
201301280050 METAR ESMX 280050Z 19010KT 5000 BR OVC002 00/M00 Q0996=
201301280020 METAR ESMX 280020Z 19010KT 4000 -RASN OVC003 00/M00 Q0996=
201301272350 METAR ESMX 272350Z 19011KT 3500 -RASN OVC003 00/M00 Q0996=
201301272150 METAR ESMX 272150Z 17012KT 6000 -SN BKN006 OVC008 M00/M01 Q0995=
201301272120 METAR ESMX 272120Z 17011KT 3600 SN FEW004 BKN007 M00/M01 Q0995=
201301272050 METAR ESMX 272050Z 17012KT 1800 SN FEW004 BKN007 M00/M01 Q0995=
201301272020 METAR ESMX 272020Z 16011KT 1700 SN FEW003 BKN005 M00/M01 Q0995=
201301271950 METAR ESMX 271950Z 15010KT 110V180 2000 SN SCT003 OVC005 M01/M01 Q0995=
201301271920 METAR ESMX 271920Z 16010KT 3000 -SN OVC004 M01/M02 Q0995=
201301271850 METAR ESMX 271850Z 15011KT 110V170 3500 SN FEW003 OVC004 M01/M02 Q0996=
201301271820 METAR ESMX 271820Z 16011KT 4000 -SN OVC003 M01/M02 Q0996=
201301271750 METAR ESMX 271750Z 16011KT 5000 -SNRA OVC003 M01/M01 Q0996=
201301271720 METAR ESMX 271720Z 17011KT 110V200 2100 BR OVC002 M01/M02 Q0996=
201301271650 METAR ESMX 271650Z 16011KT 6000 BR OVC002 M01/M02 Q0997=
201301271620 METAR ESMX 271620Z 15012G22KT 130V190 6000 BR OVC002 M01/M02 Q0997=
201301271550 METAR ESMX 271550Z 16014KT 120V190 6000 BR OVC002 M01/M02 Q0998=
201301271520 METAR ESMX 271520Z 16013KT 3800 BR OVC002 M01/M02 Q0998=
201301271450 METAR ESMX 271450Z 16012KT 120V190 3200 BR OVC002 M01/M01 Q0999=
201301271420 METAR ESMX 271420Z 17013G23KT 4000 BR OVC002 M01/M01 Q0999=
201301271350 METAR ESMX 271350Z 16010G20KT 120V190 3700 BR OVC002 M01/M01 Q0999=
201301271320 METAR ESMX 271320Z 17009KT 3900 BR OVC002 M01/M01 Q1000=
201301271250 METAR ESMX 271250Z AUTO 15009KT 110V180 2000NDV BR OVC001/// M01/M01 Q1000=
201301271220 METAR ESMX 271220Z AUTO 17009KT 130V190 1400NDV R01/1700U R19/1800U BR OVC001/// M01/M02 Q1000=
201301271150 METAR ESMX 271150Z AUTO 17009KT 2000NDV OVC001/// M01/M02 Q1001=
201301271120 METAR ESMX 271120Z AUTO 17009KT 1700NDV OVC001/// M02/M02 Q1001=
201301271050 METAR ESMX 271050Z AUTO 15009KT 0650NDV R01/1000N R19/1200N FZFG OVC001/// M02/M02 Q1001=
201301271020 METAR ESMX 271020Z AUTO 16010KT 1100NDV R01/1400N R19/1700D BR OVC001/// M02/M03 Q1002=
201301270950 METAR ESMX 270950Z AUTO 17009KT 4000NDV SG FEW004/// SCT005/// OVC006/// M02/M03 Q1002=
201301270920 METAR ESMX 270920Z AUTO 16007KT 120V190 1400NDV R01/1300VP2000N R19/1800D -SN BKN005/// BKN009/// M03/M04 Q1002=
201301270850 METAR ESMX 270850Z AUTO 15007KT 110V190 1400NDV R01/1900N R19/1500VP2000D -SN FEW002/// BKN005/// OVC007/// M03/M04 Q1002=
201301270820 METAR ESMX 270820Z AUTO 15007KT 2600NDV -SN OVC003/// M03/M04 Q1002 RESG=
201301270750 METAR ESMX 270750Z AUTO 14006KT 110V170 3200NDV SG OVC003/// M04/M04 Q1002=
201301270720 METAR ESMX 270720Z AUTO 13006KT 3600NDV BR OVC003/// M04/M05 Q1003=
201301270650 METAR ESMX 270650Z AUTO 15005KT 110V170 4600NDV BR OVC004/// M04/M05 Q1003=
201301270620 METAR ESMX 270620Z AUTO 15006KT 4600NDV BR OVC005/// M04/M05 Q1003=
201301270550 METAR ESMX 270550Z AUTO 15006KT 120V190 5000NDV BR OVC005/// M04/M05 Q1003=
201301270520 METAR ESMX 270520Z AUTO 15007KT 5000NDV BR OVC005/// M04/M05 Q1004=
201301270450 METAR ESMX 270450Z AUTO 15007KT 5000NDV BR OVC006/// M04/M05 Q1004=
201301270420 METAR ESMX 270420Z AUTO 17007KT 6000NDV BR OVC006/// M04/M05 Q1004=
201301270350 METAR ESMX 270350Z AUTO 17006KT 130V200 7000NDV BR OVC007/// M04/M06 Q1004=
201301270320 METAR ESMX 270320Z AUTO 16006KT 8000NDV BR OVC008/// M04/M06 Q1004=
201301270250 METAR ESMX 270250Z AUTO 16007KT 8000NDV BR OVC008/// M04/M06 Q1005=
201301270220 METAR ESMX 270220Z AUTO 17009KT 8000NDV BR OVC008/// M04/M06 Q1004=
201301270150 METAR ESMX 270150Z AUTO 17010KT 8000NDV BR OVC008/// M04/M06 Q1005=
201301270120 METAR ESMX 270120Z AUTO 17008KT 140V200 8000NDV BR OVC009/// M04/M06 Q1005=
201301270050 METAR ESMX 270050Z AUTO 17010KT 9000NDV BR OVC009/// M04/M06 Q1005=
201301270020 METAR ESMX 270020Z AUTO 17012KT 9000NDV BR OVC010/// M04/M07 Q1005=
201301262350 METAR ESMX 262350Z AUTO 16010KT 130V190 8000NDV BR OVC010/// M04/M07 Q1005=
201301262320 METAR ESMX 262320Z AUTO 16010KT 9000NDV BR OVC010/// M04/M07 Q1006=
201301262250 METAR ESMX 262250Z AUTO 17009KT 8000NDV BR OVC009/// M04/M06 Q1006=
201301262220 METAR ESMX 262220Z AUTO 17011KT 8000NDV BR OVC009/// M05/M07 Q1006=
201301262150 METAR ESMX 262150Z AUTO 17010KT 8000NDV BR OVC010/// M05/M07 Q1007=
201301262120 METAR ESMX 262120Z AUTO 17011KT 9000NDV BR OVC010/// M05/M07 Q1007=
201301262050 METAR ESMX 262050Z AUTO 17010KT 9000NDV BR OVC011/// M05/M07 Q1007=
201301262020 METAR ESMX 262020Z AUTO 16009KT 130V200 9000NDV BR OVC012/// M05/M08 Q1007=
201301261950 METAR ESMX 261950Z AUTO 16009KT 9000NDV BR OVC012/// M05/M08 Q1007=
201301261920 METAR ESMX 261920Z AUTO 17011KT 9999NDV OVC010/// M05/M07 Q1008=
201301261850 METAR ESMX 261850Z AUTO 18012KT 9999NDV OVC010/// M05/M07 Q1008=
201301261820 METAR ESMX 261820Z AUTO 17011KT 9999NDV OVC011/// M05/M07 Q1008=
201301261750 METAR ESMX 261750Z AUTO VRB11KT 9999NDV OVC011/// M05/M07 Q1008=
201301261720 METAR ESMX 261720Z AUTO 17011KT 9999NDV OVC013/// M05/M07 Q1008=
201301261650 METAR ESMX 261650Z AUTO 16011KT 9999NDV OVC014/// M05/M08 Q1008=
201301261620 METAR ESMX 261620Z AUTO 17012KT 9999NDV OVC015/// M05/M08 Q1009=
201301261550 METAR ESMX 261550Z AUTO 16010KT 9999NDV OVC016/// M05/M08 Q1009=
201301261520 METAR ESMX 261520Z AUTO 18010KT 9999NDV SCT016/// OVC020/// M04/M08 Q1009=
201301261450 METAR ESMX 261450Z AUTO 16009KT 9999NDV BKN016/// BKN021/// M04/M08 Q1010=
201301261420 METAR ESMX 261420Z AUTO 18009KT 9999NDV BKN016/// BKN021/// M04/M07 Q1010=
201301261350 METAR ESMX 261350Z AUTO 18010KT 140V210 9999NDV BKN018/// M04/M08 Q1010=
201301261320 METAR ESMX 261320Z AUTO 17012KT 9999NDV BKN018/// M04/M08 Q1011=
201301261250 METAR ESMX 261250Z AUTO 17011KT 140V200 9999NDV FEW019/// SCT022/// M04/M07 Q1011=
201301261220 METAR ESMX 261220Z AUTO 19011KT 9999NDV FEW016/// SCT020/// BKN023/// M04/M07 Q1012=
201301261150 METAR ESMX 261150Z AUTO 18013KT 9999NDV SCT016/// BKN020/// M04/M07 Q1012=
201301261120 METAR ESMX 261120Z AUTO 17013KT 9999NDV SCT016/// BKN020/// M04/M07 Q1012=
201301261050 METAR ESMX 261050Z AUTO 19012KT 9999NDV SCT016/// BKN020/// M04/M07 Q1013=
201301261020 METAR ESMX 261020Z AUTO 18014KT 9999NDV FEW013/// BKN016/// M04/M07 Q1013=
201301260950 METAR ESMX 260950Z AUTO 18012KT 9999NDV BKN011/// BKN017/// M04/M07 Q1013=
201301260920 METAR ESMX 260920Z AUTO 18008KT 9999NDV FEW008/// SCT011/// BKN014/// M04/M06 Q1013=
201301260850 METAR ESMX 260850Z AUTO 17005KT 9999NDV OVC022/// M05/M06 Q1013=
201301260820 METAR ESMX 260820Z AUTO 16005KT 9999NDV FEW013/// BKN028/// M05/M06 Q1013=
201301260750 METAR ESMX 260750Z AUTO 16006KT 9999NDV SCT011/// BKN028/// M05/M06 Q1013=
201301260720 METAR ESMX 260720Z AUTO 15004KT 9999NDV BKN028/// M05/M07 Q1013=
201301260650 METAR ESMX 260650Z AUTO 17005KT 9999NDV FEW021/// BKN031/// M05/M06 Q1013=
201301260620 METAR ESMX 260620Z AUTO 17005KT 9999NDV OVC022/// M05/M06 Q1014=
201301260550 METAR ESMX 260550Z AUTO 16005KT 9999NDV FEW017/// OVC030/// M05/M07 Q1014=
201301260520 METAR ESMX 260520Z AUTO 15005KT 9999NDV FEW022/// OVC033/// M05/M07 Q1014=
201301260450 METAR ESMX 260450Z AUTO 16004KT 9999NDV SCT036/// M05/M07 Q1014=
201301260420 METAR ESMX 260420Z AUTO 17005KT 9999NDV FEW039/// M05/M07 Q1014=
201301260350 METAR ESMX 260350Z AUTO 17005KT 9999NDV FEW016/// OVC031/// M05/M07 Q1015=
201301260320 METAR ESMX 260320Z AUTO 17006KT 9999NDV FEW019/// OVC030/// M05/M07 Q1015=
201301260250 METAR ESMX 260250Z AUTO 17005KT 9999NDV IC SCT016/// OVC027/// M05/M07 Q1015=
201301260220 METAR ESMX 260220Z AUTO 17006KT 9999NDV FEW020/// OVC026/// M05/M07 Q1015=
201301260150 METAR ESMX 260150Z AUTO 17005KT 9999NDV OVC028/// M05/M07 Q1015=
201301260120 METAR ESMX 260120Z AUTO 16006KT 9999NDV OVC030/// M05/M07 Q1015=
201301260050 METAR ESMX 260050Z AUTO 15005KT 9999NDV OVC027/// M05/M07 Q1016=
201301260020 METAR ESMX 260020Z AUTO 16004KT 9999NDV OVC022/// M06/M07 Q1016=
201301252350 METAR ESMX 252350Z AUTO 17004KT 9999NDV OVC023/// M06/M07 Q1017=
201301252320 METAR ESMX 252320Z AUTO 17005KT 9999NDV FEW024/// OVC027/// M06/M07 Q1017 RESG=
201301252250 METAR ESMX 252250Z AUTO 17005KT 9999NDV IC FEW016/// OVC026/// M06/M07 Q1017=
201301252220 METAR ESMX 252220Z AUTO 19005KT 9999NDV -SN FEW014/// OVC025/// M06/M07 Q1017 RESG=
201301252150 METAR ESMX 252150Z 19005KT 9999 OVC022 M06/M07 Q1017=
201301252120 METAR ESMX 252120Z 18006KT 9999 OVC022 M06/M08 Q1017=
201301252050 METAR ESMX 252050Z 18005KT 9999 FEW009 SCT011 OVC020 M07/M08 Q1017=
201301252020 METAR ESMX 252020Z 18005KT 9999 FEW010 SCT013 OVC018 M07/M08 Q1017=
201301251950 METAR ESMX 251950Z 18005KT 9999 FEW005 OVC013 M07/M08 Q1018=
201301251920 METAR ESMX 251920Z 17005KT 9999 OVC013 M07/M08 Q1018=
201301251850 METAR ESMX 251850Z 18004KT 9999 FEW005 OVC013 M07/M08 Q1018=
201301251820 METAR ESMX 251820Z 18006KT 9999 OVC012 M07/M09 Q1018=
201301251750 METAR ESMX 251750Z 17006KT 9999 OVC011 M07/M09 Q1018=
201301251720 METAR ESMX 251720Z 18006KT 9999 OVC011 M08/M09 Q1018=
201301251650 METAR ESMX 251650Z 19006KT 9999 OVC010 M08/M09 Q1018=
201301251620 METAR ESMX 251620Z 18005KT 9999 BKN012 M08/M10 Q1018=
201301251550 METAR ESMX 251550Z 17004KT 9999 FEW011 SCT015 M08/M10 Q1019=
201301251520 METAR ESMX 251520Z 20004KT CAVOK M09/M10 Q1019=
201301251450 METAR ESMX 251450Z 20004KT CAVOK M08/M10 Q1019=
201301251420 METAR ESMX 251420Z 21003KT CAVOK M08/M10 Q1019=
201301251350 METAR ESMX 251350Z 21004KT CAVOK M08/M11 Q1019=
201301251320 METAR ESMX 251320Z 21003KT CAVOK M08/M10 Q1019=
201301251250 METAR ESMX 251250Z 20004KT CAVOK M08/M10 Q1019=
201301251220 METAR ESMX 251220Z 33001KT CAVOK M10/M12 Q1020=
201301251150 METAR ESMX 251150Z VRB01KT 9999 FEW031 M11/M13 Q1020=
201301251120 METAR ESMX 251120Z 00000KT 9999 FEW001 M12/M14 Q1020=
201301251050 METAR ESMX 251050Z 00000KT 9999 FEW001 M12/M14 Q1021=
201301251020 METAR ESMX 251020Z 00000KT 9999 SCT001 M15/M17 Q1021=
201301250950 METAR ESMX 250950Z VRB01KT 9999 SCT001 M16/M18 Q1021=
201301250920 METAR ESMX 250920Z VRB01KT 9999 FEW001 M17/M20 Q1021=
201301250850 METAR ESMX 250850Z 00000KT 9999 SCT001 M18/M20 Q1021=
201301250820 METAR ESMX 250820Z 14001KT 9999 FEW001 M19/M21 Q1021=
201301250750 METAR ESMX 250750Z 00000KT CAVOK M20/M22 Q1021=
201301250720 METAR ESMX 250720Z 00000KT CAVOK M21/M23 Q1020=
201301250650 METAR ESMX 250650Z 00000KT CAVOK M21/M23 Q1020=
201301250620 METAR ESMX 250620Z 20001KT CAVOK M21/M23 Q1020=
201301250550 METAR ESMX 250550Z 00000KT CAVOK M21/M23 Q1020=
201301250520 METAR ESMX 250520Z 02002KT CAVOK M21/M23 Q1020=
201301250450 METAR ESMX 250450Z 36001KT CAVOK M20/M23 Q1020=
201301250420 METAR ESMX 250420Z AUTO 00000KT 9999NDV NCD M20/M22 Q1020=
201301250350 METAR ESMX 250350Z AUTO 00000KT 9999NDV NCD M20/M23 Q1020=
201301250320 METAR ESMX 250320Z AUTO 00000KT 9999NDV NCD M20/M22 Q1020=
201301250250 METAR ESMX 250250Z AUTO 00000KT 9999NDV NCD M20/M23 Q1020=
201301250220 METAR ESMX 250220Z AUTO 00000KT 9999NDV NCD M20/M22 Q1020=
201301250150 METAR ESMX 250150Z AUTO 00000KT 4000NDV NCD M20/M22 Q1020=
201301250120 METAR ESMX 250120Z 00000KT CAVOK M20/M22 Q1020=
201301250050 METAR ESMX 250050Z 00000KT CAVOK M20/M22 Q1020=
201301250020 METAR ESMX 250020Z 00000KT CAVOK M19/M21 Q1020=
201301242350 METAR ESMX 242350Z 00000KT CAVOK M19/M21 Q1020=
201301242320 METAR ESMX 242320Z 04001KT CAVOK M19/M21 Q1020=
201301242250 METAR ESMX 242250Z 02001KT CAVOK M19/M21 Q1020=
201301242220 METAR ESMX 242220Z 04001KT CAVOK M18/M20 Q1020=
201301242150 METAR ESMX 242150Z 00000KT CAVOK M18/M20 Q1020=
201301242120 METAR ESMX 242120Z 24001KT CAVOK M18/M20 Q1020=
201301242050 METAR ESMX 242050Z 00000KT CAVOK M18/M19 Q1019=
201301242020 METAR ESMX 242020Z 00000KT CAVOK M17/M18 Q1019=
201301241950 METAR ESMX 241950Z 00000KT CAVOK M16/M18 Q1019=
201301241920 METAR ESMX 241920Z 21001KT CAVOK M16/M18 Q1019=
201301241850 METAR ESMX 241850Z 00000KT CAVOK M15/M17 Q1019=
201301241820 METAR ESMX 241820Z 18002KT CAVOK M15/M17 Q1018=
201301241750 METAR ESMX 241750Z 00000KT 9999 R01/P2000N R19/P2000N VCBCFG NSC M13/M15 Q1018=
201301241720 METAR ESMX 241720Z 33001KT CAVOK M13/M15 Q1018=
201301241650 METAR ESMX 241650Z 00000KT CAVOK M13/M14 Q1018=
201301241620 METAR ESMX 241620Z 33002KT CAVOK M11/M12 Q1018=
201301241550 METAR ESMX 241550Z 02001KT CAVOK M11/M12 Q1018=
201301241520 METAR ESMX 241520Z 36003KT CAVOK M08/M10 Q1017=
201301241450 METAR ESMX 241450Z 35002KT CAVOK M06/M09 Q1017=
201301241420 METAR ESMX 241420Z 01003KT CAVOK M05/M09 Q1017=
201301241350 METAR ESMX 241350Z 36004KT CAVOK M05/M09 Q1017=
201301241320 METAR ESMX 241320Z 01005KT CAVOK M05/M09 Q1017=
201301241250 METAR ESMX 241250Z 36005KT CAVOK M06/M09 Q1016=
201301241220 METAR ESMX 241220Z 36005KT CAVOK M07/M09 Q1016=
201301241150 METAR ESMX 241150Z 36005KT CAVOK M07/M09 Q1016=
201301241120 METAR ESMX 241120Z 36005KT CAVOK M08/M10 Q1016=
201301241050 METAR ESMX 241050Z 01005KT CAVOK M09/M10 Q1016=
201301241020 METAR ESMX 241020Z 36003KT CAVOK M11/M12 Q1016=
201301240950 METAR ESMX 240950Z 36003KT CAVOK M12/M13 Q1016=
201301240920 METAR ESMX 240920Z 01003KT CAVOK M13/M14 Q1016=
201301240850 METAR ESMX 240850Z 01004KT CAVOK M14/M15 Q1015=
201301240820 METAR ESMX 240820Z 36003KT CAVOK M16/M18 Q1015=
201301240750 METAR ESMX 240750Z 35003KT CAVOK M17/M19 Q1015=
201301240720 METAR ESMX 240720Z 02003KT CAVOK M18/M19 Q1015=
201301240650 METAR ESMX 240650Z 36003KT CAVOK M19/M21 Q1014=
201301240620 METAR ESMX 240620Z 35002KT CAVOK M18/M20 Q1014=
201301240550 METAR ESMX 240550Z 01002KT CAVOK M18/M20 Q1014=
201301240520 METAR ESMX 240520Z 36002KT CAVOK M18/M20 Q1014=
201301240450 METAR ESMX 240450Z 01003KT CAVOK M18/M19 Q1014=
201301240420 METAR ESMX 240420Z AUTO 36002KT 9999NDV NCD M18/M21 Q1013=
201301240350 METAR ESMX 240350Z AUTO 36003KT 9999NDV NCD M17/M19 Q1013=
201301240320 METAR ESMX 240320Z AUTO 36003KT 9999NDV NCD M18/M20 Q1013=
201301240250 METAR ESMX 240250Z AUTO 01002KT 9999NDV NCD M18/M20 Q1013=
201301240220 METAR ESMX 240220Z AUTO 35001KT 9999NDV NCD M18/M20 Q1013=
201301240150 METAR ESMX 240150Z AUTO 01002KT 9999NDV NCD M17/M19 Q1013=
201301240120 METAR ESMX 240120Z AUTO 01001KT 9999NDV NCD M17/M19 Q1013=
201301240050 METAR ESMX 240050Z 33001KT CAVOK M17/M19 Q1013=
201301240020 METAR ESMX 240020Z 01002KT CAVOK M17/M19 Q1013=
201301232350 METAR ESMX 232350Z 02001KT CAVOK M16/M18 Q1013=
201301232320 METAR ESMX 232320Z 01002KT CAVOK M16/M17 Q1013=
201301232250 METAR ESMX 232250Z 36003KT CAVOK M15/M17 Q1013=
201301232220 METAR ESMX 232220Z 36003KT CAVOK M15/M17 Q1013=
201301232150 METAR ESMX 232150Z 01001KT CAVOK M16/M17 Q1013=
201301232120 METAR ESMX 232120Z 36002KT CAVOK M15/M17 Q1013=
201301232050 METAR ESMX 232050Z 36002KT CAVOK M15/M16 Q1013=
201301232020 METAR ESMX 232020Z 01002KT CAVOK M14/M16 Q1013=
201301231950 METAR ESMX 231950Z 01003KT CAVOK M13/M15 Q1013=
201301231920 METAR ESMX 231920Z 36003KT CAVOK M13/M15 Q1013=
201301231850 METAR ESMX 231850Z 01003KT CAVOK M13/M14 Q1013=
201301231820 METAR ESMX 231820Z 01002KT CAVOK M13/M14 Q1013=
201301231750 METAR ESMX 231750Z 01002KT CAVOK M13/M14 Q1013=
201301231720 METAR ESMX 231720Z 02003KT CAVOK M12/M13 Q1013=
201301231650 METAR ESMX 231650Z 36002KT CAVOK M12/M13 Q1013=
201301231620 METAR ESMX 231620Z 36002KT CAVOK M10/M12 Q1013=
201301231550 METAR ESMX 231550Z 36003KT CAVOK M09/M10 Q1013=
201301231520 METAR ESMX 231520Z 01004KT CAVOK M08/M10 Q1013=
201301231450 METAR ESMX 231450Z 36003KT CAVOK M08/M10 Q1013=
201301231420 METAR ESMX 231420Z 36003KT CAVOK M07/M09 Q1013=
201301231350 METAR ESMX 231350Z 36004KT CAVOK M07/M10 Q1013=
201301231320 METAR ESMX 231320Z 01005KT CAVOK M06/M09 Q1013=
201301231250 METAR ESMX 231250Z 02005KT CAVOK M06/M09 Q1013=
201301231220 METAR ESMX 231220Z 01005KT CAVOK M07/M09 Q1013=
201301231150 METAR ESMX 231150Z 01004KT 9999 FEW020 M08/M10 Q1013=
201301231120 METAR ESMX 231120Z 36005KT 9999 FEW018 M09/M11 Q1013=
201301231050 METAR ESMX 231050Z 01006KT 9999 FEW014 M08/M11 Q1014=
201301231020 METAR ESMX 231020Z 01005KT 9999 BKN016 M09/M10 Q1014=
201301230950 METAR ESMX 230950Z 35004KT 9999 BKN017 M09/M11 Q1014=
201301230920 METAR ESMX 230920Z 36005KT 9999 BKN017 M09/M11 Q1014=
201301230850 METAR ESMX 230850Z 01005KT 9999 BKN017 M09/M10 Q1014=
201301230820 METAR ESMX 230820Z 36004KT 9999 BKN017 M10/M11 Q1014=
201301230750 METAR ESMX 230750Z 02002KT 9999 BKN017 M11/M13 Q1013=
201301230720 METAR ESMX 230720Z VRB01KT 9999 BKN017 M12/M14 Q1013=
201301230650 METAR ESMX 230650Z 01003KT 9999 BKN017 M11/M13 Q1013=
201301230620 METAR ESMX 230620Z 01004KT 9999 BKN018 M11/M12 Q1013=
201301230550 METAR ESMX 230550Z 02004KT 9999 BKN018 M12/M13 Q1013=
201301230520 METAR ESMX 230520Z 36002KT 9999 BKN018 M12/M13 Q1013=
201301230450 METAR ESMX 230450Z 36003KT 9999 SCT018 M11/M12 Q1013=
201301230420 METAR ESMX 230420Z AUTO 35003KT 9999NDV BKN018/// M10/M11 Q1013=
201301230350 METAR ESMX 230350Z AUTO 35003KT 9999NDV BKN018/// M09/M11 Q1013=
201301230320 METAR ESMX 230320Z AUTO 36003KT 9999NDV BKN018/// M09/M10 Q1014=
201301230250 METAR ESMX 230250Z AUTO 02003KT 350V060 9999NDV OVC018/// M08/M10 Q1014=
201301230220 METAR ESMX 230220Z AUTO 36004KT 9999NDV OVC018/// M08/M09 Q1014=
201301230150 METAR ESMX 230150Z AUTO 01004KT 9999NDV OVC018/// M08/M09 Q1014=
201301230120 METAR ESMX 230120Z AUTO VRB02KT 9999NDV OVC019/// M09/M10 Q1014=
201301230050 METAR ESMX 230050Z 36003KT 9999 BKN020 M08/M10 Q1014=
201301230020 METAR ESMX 230020Z 36004KT 9999 OVC019 M08/M10 Q1014=
201301222350 METAR ESMX 222350Z 36003KT 9999 OVC020 M08/M09 Q1014=
201301222320 METAR ESMX 222320Z 02001KT 9999 OVC021 M08/M10 Q1014=
201301222250 METAR ESMX 222250Z 05002KT 9999 BKN021 M07/M09 Q1014=
201301222220 METAR ESMX 222220Z 05002KT 9999 OVC021 M06/M09 Q1014=
201301222150 METAR ESMX 222150Z 09004KT 050V130 9999 OVC020 M05/M09 Q1014=
201301222120 METAR ESMX 222120Z VRB04KT 9999 OVC020 M05/M09 Q1014=
201301222050 METAR ESMX 222050Z 08004KT 010V140 9999 OVC020 M05/M09 Q1015=
201301222020 METAR ESMX 222020Z 08004KT 030V120 9999 OVC020 M05/M09 Q1015=
201301221950 METAR ESMX 221950Z 08004KT 030V120 9999 OVC020 M05/M09 Q1015=
201301221920 METAR ESMX 221920Z 05004KT 020V090 9999 OVC019 M05/M09 Q1015=
201301221850 METAR ESMX 221850Z 08005KT 030V120 9999 OVC018 M05/M09 Q1015=
201301221820 METAR ESMX 221820Z 06005KT 020V120 9999 OVC019 M05/M09 Q1015=
201301221750 METAR ESMX 221750Z 04004KT 010V070 9999 OVC019 M05/M08 Q1014=
201301221720 METAR ESMX 221720Z 06004KT 010V110 9999 OVC019 M05/M09 Q1015=
201301221650 METAR ESMX 221650Z 07003KT 020V090 9999 OVC019 M05/M09 Q1015=
201301221620 METAR ESMX 221620Z 08004KT 350V140 9999 OVC019 M05/M09 Q1015=
201301221550 METAR ESMX 221550Z 07006KT 040V110 9999 OVC020 M05/M09 Q1014=
201301221520 METAR ESMX 221520Z 05004KT 010V100 9999 OVC021 M04/M09 Q1014=
201301221450 METAR ESMX 221450Z 06006KT 030V100 9999 OVC020 M04/M09 Q1014=
201301221420 METAR ESMX 221420Z 08006KT 030V110 9999 BKN021 M04/M09 Q1014=
201301221350 METAR ESMX 221350Z 07005KT 340V100 9999 BKN021 M04/M09 Q1014=
201301221320 METAR ESMX 221320Z 08007KT 050V130 9999 BKN022 M04/M09 Q1014=
201301221250 METAR ESMX 221250Z 09005KT 020V150 9999 BKN022 M04/M08 Q1014=
201301221220 METAR ESMX 221220Z 08006KT 030V130 9999 BKN020 M04/M08 Q1015=
201301221150 METAR ESMX 221150Z VRB06KT 9999 OVC021 M03/M08 Q1015=
201301221120 METAR ESMX 221120Z 07004KT 020V120 9999 OVC024 M04/M08 Q1015=
201301221050 METAR ESMX 221050Z 04004KT 9999 OVC027 M04/M07 Q1015=
201301221020 METAR ESMX 221020Z 05005KT 9999 OVC027 M04/M07 Q1015=
201301220950 METAR ESMX 220950Z 05005KT 9999 OVC025 M04/M07 Q1015=
201301220920 METAR ESMX 220920Z 05005KT 9999 OVC026 M05/M07 Q1015=
201301220850 METAR ESMX 220850Z 04004KT 350V080 9999 OVC025 M05/M07 Q1015=
201301220820 METAR ESMX 220820Z 05006KT 9999 OVC025 M05/M08 Q1015=
201301220750 METAR ESMX 220750Z 03006KT 360V070 9999 OVC025 M05/M08 Q1015=
201301220720 METAR ESMX 220720Z 05006KT 010V070 9999 OVC027 M05/M08 Q1014 RESG=
201301220650 METAR ESMX 220650Z 04008KT 9999 -SN FEW020 BKN027 M05/M07 Q1014=
201301220620 METAR ESMX 220620Z 03005KT 360V060 9999 -SN OVC027 M05/M07 Q1014=
201301220550 METAR ESMX 220550Z 04008KT 9999 -SN OVC026 M05/M07 Q1014=
201301220520 METAR ESMX 220520Z 05007KT 020V090 9999 -SN OVC027 M05/M07 Q1014=
201301220450 METAR ESMX 220450Z 04007KT 9999 -SN OVC026 M05/M07 Q1014=
201301220420 METAR ESMX 220420Z AUTO 04008KT 9999NDV -SN FEW024/// BKN031/// M06/M07 Q1014=
201301220350 METAR ESMX 220350Z AUTO 04008KT 9999NDV -SN FEW023/// BKN031/// M06/M07 Q1014=
201301220320 METAR ESMX 220320Z AUTO 04007KT 9999NDV -SN BKN034/// M06/M07 Q1014=
201301220250 METAR ESMX 220250Z AUTO 04007KT 9999NDV -SN FEW018/// BKN035/// M06/M07 Q1014=
201301220220 METAR ESMX 220220Z AUTO 04006KT 9999NDV -SN FEW026/// BKN037/// M06/M07 Q1014=
201301220150 METAR ESMX 220150Z AUTO 04007KT 9999NDV -SN FEW008/// BKN038/// M06/M07 Q1014=
201301220120 METAR ESMX 220120Z AUTO 04007KT 9999NDV -SN FEW027/// OVC039/// M06/M08 Q1014=
201301220050 METAR ESMX 220050Z 05007KT 9999 -SN FEW023 BKN040 M06/M07 Q1014=
201301220020 METAR ESMX 220020Z 03007KT 9999 -SN FEW024 BKN039 M06/M08 Q1014=
201301212350 METAR ESMX 212350Z 04007KT 9999 -SN FEW025 OVC032 M06/M07 Q1014=
201301212320 METAR ESMX 212320Z 04007KT 9999 -SN FEW020 OVC033 M06/M07 Q1014=
201301212250 METAR ESMX 212250Z 04007KT 9999 -SN FEW019 OVC031 M06/M07 Q1014=
201301212220 METAR ESMX 212220Z 04007KT 9999 -SN FEW021 OVC034 M06/M07 Q1014=
201301212150 METAR ESMX 212150Z 03007KT 9999 -SN FEW010 OVC034 M06/M07 Q1014=
201301212120 METAR ESMX 212120Z 04009KT 9999 -SN BKN010 BKN040 M06/M07 Q1014=
201301212050 METAR ESMX 212050Z 04006KT 9999 -SN BKN011 OVC039 M06/M07 Q1014=
201301212020 METAR ESMX 212020Z 04008KT 9999 -SN BKN011 BKN029 M06/M07 Q1014=
201301211950 METAR ESMX 211950Z 04008KT 9999 -SN BKN015 BKN030 M05/M07 Q1014=
201301211920 METAR ESMX 211920Z 04007KT 9000 -SN SCT010 BKN041 M05/M07 Q1014=
201301211850 METAR ESMX 211850Z 04009KT 9999 -SN SCT012 BKN020 OVC041 M05/M07 Q1013=
201301211820 METAR ESMX 211820Z 04010KT 010V070 9000 -SN BKN010 OVC015 M05/M06 Q1013=
201301211750 METAR COR ESMX 211750Z 02009KT 6000 -SN FEW005 SCT012 BKN019 M05/M06 Q1013=
201301211720 METAR ESMX 211720Z 04010KT 020V080 4600 -SN FEW007 BKN012 OVC020 M05/M06 Q1013=
201301211650 METAR ESMX 211650Z 04008KT 020V080 9999 -SN BKN010 M05/M07 Q1013=
201301211620 METAR ESMX 211620Z 04008KT 8000 -SN BKN011 OVC019 M05/M06 Q1013=
201301211550 METAR ESMX 211550Z 03009KT 9999 -SN FEW008 SCT012 BKN020 M05/M07 Q1013=
201301211520 METAR ESMX 211520Z 03010KT 9999 -SN SCT013 BKN017 M05/M07 Q1013=
201301211450 METAR ESMX 211450Z 04009KT 9999 FEW013 SCT018 BKN022 M04/M07 Q1013=
201301211420 METAR ESMX 211420Z 04008KT 9999 -SN FEW010 SCT015 BKN024 M05/M07 Q1013=
201301211350 METAR ESMX 211350Z 04007KT 6000 -SN FEW007 SCT019 BKN028 M05/M07 Q1013=
201301211320 METAR ESMX 211320Z 03008KT 010V070 9999 -SN FEW013 OVC029 M05/M07 Q1013=
201301211250 METAR ESMX 211250Z 03008KT 9999 -SN FEW010 OVC023 M05/M07 Q1013=
201301211220 METAR ESMX 211220Z 04008KT 9999 -SN FEW010 BKN030 M05/M07 Q1013=
201301211150 METAR ESMX 211150Z 03009KT 9999 -SN FEW019 BKN029 OVC036 M05/M07 Q1013=
201301211120 METAR ESMX 211120Z 04008KT 9999 -SN FEW015 OVC025 M05/M07 Q1013=
201301211050 METAR ESMX 211050Z 04008KT 9999 -SN FEW013 OVC025 M05/M07 Q1013=
201301211020 METAR ESMX 211020Z 05008KT 9999 -SN FEW015 OVC024 M05/M07 Q1013=
201301210950 METAR ESMX 210950Z 04008KT 9999 -SN FEW019 OVC027 M05/M08 Q1013=
201301210920 METAR ESMX 210920Z 04008KT 9999 FEW013 OVC030 M05/M08 Q1013=
201301210850 METAR ESMX 210850Z 04009KT 9999 -SN BKN012 OVC029 M06/M08 Q1012=
201301210820 METAR ESMX 210820Z 03008KT 9999 -SN FEW012 SCT026 OVC033 M06/M08 Q1012=
201301210750 METAR ESMX 210750Z 03007KT 9999 -SN SCT012 BKN033 M06/M08 Q1012=
201301210720 METAR ESMX 210720Z 02009KT 9999 BKN033 M07/M09 Q1011=
201301210650 METAR ESMX 210650Z 01008KT 9999 -SN FEW025 BKN034 M07/M09 Q1011=
201301210620 METAR ESMX 210620Z 03009KT 9999 -SN BKN034 M07/M09 Q1011=
201301210550 METAR ESMX 210550Z 03010KT 9999 -SN FEW015 OVC030 M07/M09 Q1011=
201301210520 METAR ESMX 210520Z 03010KT 9999 -SN FEW017 BKN033 M07/M09 Q1011=
201301210450 METAR ESMX 210450Z 02009KT 9999 BKN037 M07/M09 Q1011=
201301210420 METAR ESMX 210420Z AUTO 36007KT 9999NDV BKN039/// M07/M09 Q1011=
201301210350 METAR ESMX 210350Z AUTO 01008KT 9999NDV OVC038/// M07/M09 Q1011=
201301210320 METAR ESMX 210320Z AUTO 01008KT 9999NDV SG OVC038/// M07/M09 Q1011=
201301210250 METAR ESMX 210250Z AUTO 02008KT 9999NDV -SN FEW026/// OVC040/// M07/M09 Q1011=
201301210220 METAR ESMX 210220Z AUTO 01007KT 9999NDV -SN OVC041/// M07/M09 Q1011=
201301210150 METAR ESMX 210150Z AUTO 36006KT 9999NDV FEW013/// BKN047/// M08/M09 Q1011=
201301210120 METAR ESMX 210120Z AUTO 35005KT 9999NDV OVC046/// M08/M09 Q1011=
201301210050 METAR ESMX 210050Z AUTO 01005KT 9999NDV SCT045/// M07/M09 Q1011=
201301210020 METAR ESMX 210020Z 02007KT 9999 FEW015 SCT046 M07/M09 Q1011=
201301202350 METAR ESMX 202350Z 02007KT 9999 SCT014 M07/M09 Q1010=
201301202320 METAR COR ESMX 202320Z 02008KT 9999 -SN FEW015 SCT046 M07/M08 Q1010=
201301202250 METAR ESMX 202250Z AUTO 02009KT 9999NDV -SN FEW038/// M07/M09 Q1010=
201301202220 METAR ESMX 202220Z 02008KT CAVOK M08/M09 Q1010=
201301202150 METAR ESMX 202150Z 01007KT CAVOK M08/M09 Q1010=
201301202120 METAR ESMX 202120Z 02007KT CAVOK M07/M08 Q1010=
201301202050 METAR ESMX 202050Z 01007KT CAVOK M07/M08 Q1010=
201301202020 METAR ESMX 202020Z 01009KT 9999 FEW014 M06/M08 Q1010=
201301201950 METAR ESMX 201950Z 02009KT 9999 SCT014 M05/M07 Q1009=
201301201920 METAR ESMX 201920Z 03011KT 9999 BKN013 M04/M07 Q1009=
201301201850 METAR ESMX 201850Z 03012KT 010V070 9999 BKN013 M04/M06 Q1009=
201301201820 METAR ESMX 201820Z 02013KT 9999 OVC013 M04/M06 Q1009=
201301201750 METAR ESMX 201750Z 03010KT 9999 OVC012 M04/M06 Q1008=
201301201720 METAR ESMX 201720Z 02011KT 9999 OVC013 M04/M06 Q1008=
201301201650 METAR ESMX 201650Z 03011KT 9999 OVC012 M04/M06 Q1008=
201301201620 METAR ESMX 201620Z 03011KT 9999 BKN014 M03/M06 Q1008=
201301201550 METAR ESMX 201550Z 03011KT 9999 FEW016 SCT018 BKN020 M03/M06 Q1008=
201301201520 METAR ESMX 201520Z 03009KT 9999 OVC014 M03/M06 Q1008=
201301201450 METAR ESMX 201450Z 03007G17KT 9999 OVC012 M04/M05 Q1008=
201301201420 METAR ESMX 201420Z 01005KT 9999 OVC011 M05/M06 Q1007=
201301201350 METAR ESMX 201350Z 01006KT 9999 -SN SCT012 BKN018 M06/M07 Q1007 RESG=
201301201320 METAR ESMX 201320Z 35004KT 4100 -SN BKN013 OVC020 M07/M08 Q1007=
201301201250 METAR ESMX 201250Z 36005KT 5000 -SN SCT008 BKN013 M07/M09 Q1007=
201301201220 METAR ESMX 201220Z AUTO 36003KT 6000NDV -SN FEW009/// OVC012/// M08/M10 Q1007=
201301201150 METAR ESMX 201150Z AUTO 36003KT 9999NDV -SN FEW009/// BKN010/// OVC019/// M09/M10 Q1007=
201301201120 METAR ESMX 201120Z AUTO VRB02KT 9999NDV OVC008/// M09/M11 Q1007=
201301201050 METAR ESMX 201050Z AUTO 35004KT 9999NDV OVC008/// M10/M12 Q1007=
201301201020 METAR ESMX 201020Z AUTO 36004KT 9999NDV FEW006/// SCT016/// OVC036/// M11/M13 Q1006=
201301200950 METAR ESMX 200950Z AUTO 36003KT 9999NDV FEW005/// SCT008/// BKN042/// M12/M14 Q1006=
201301200920 METAR ESMX 200920Z AUTO 01003KT 6000NDV -SN NCD M13/M15 Q1006=
201301200850 METAR ESMX 200850Z AUTO 01002KT 9999NDV FEW067/// M14/M15 Q1006=
201301200820 METAR ESMX 200820Z AUTO 35002KT 9999NDV NCD M14/M16 Q1006=
201301200750 METAR ESMX 200750Z AUTO 34001KT 9999NDV NCD M14/M16 Q1006=
201301200720 METAR ESMX 200720Z AUTO 32002KT 9999NDV FEW013/// M14/M16 Q1006=
201301200650 METAR ESMX 200650Z AUTO 36003KT 9999NDV FEW004/// M15/M17 Q1006=
201301200620 METAR ESMX 200620Z AUTO 36002KT 9999NDV NCD M16/M18 Q1006=
201301200550 METAR ESMX 200550Z AUTO 01002KT 9999NDV NCD M16/M17 Q1006=
201301200520 METAR ESMX 200520Z AUTO 01002KT 9999NDV NCD M15/M16 Q1006=
201301200450 METAR ESMX 200450Z AUTO 01003KT 9999NDV NCD M14/M15 Q1006=
201301200420 METAR ESMX 200420Z AUTO 01004KT 9999NDV FEW014/// M13/M14 Q1006=
201301200350 METAR ESMX 200350Z AUTO 01001KT 9999NDV FEW014/// M12/M14 Q1006=
201301200320 METAR ESMX 200320Z AUTO 01001KT 9999NDV -SN BKN014/// M11/M12 Q1006=
201301200250 METAR ESMX 200250Z AUTO 36005KT 9999NDV OVC014/// M10/M11 Q1006=
201301200220 METAR ESMX 200220Z AUTO 35004KT 9999NDV SG BKN014/// M09/M11 Q1006=
201301200150 METAR ESMX 200150Z AUTO 35005KT 9999NDV IC OVC015/// M09/M10 Q1006=
201301200120 METAR ESMX 200120Z 35004KT 9999 OVC014 M08/M10 Q1007=
201301200050 METAR ESMX 200050Z 35004KT 9999 OVC014 M08/M10 Q1007=
201301200020 METAR ESMX 200020Z 36003KT 9999 OVC014 M08/M10 Q1007=
201301192350 METAR ESMX 192350Z AUTO 36003KT 9999NDV OVC015/// M08/M10 Q1007=
201301192320 METAR ESMX 192320Z AUTO 36006KT 9999NDV OVC015/// M08/M10 Q1007=
201301192250 METAR ESMX 192250Z AUTO 34005KT 9999NDV OVC014/// M08/M10 Q1008=
201301192220 METAR ESMX 192220Z AUTO 34005KT 9999NDV OVC015/// M08/M10 Q1008=
201301192150 METAR ESMX 192150Z AUTO 36004KT 9999NDV OVC015/// M08/M10 Q1008=
201301192120 METAR ESMX 192120Z 35005KT 9999 -SN OVC016 M08/M10 Q1008=
201301192050 METAR ESMX 192050Z 35004KT 9999 -SN OVC016 M08/M10 Q1008=
201301192020 METAR ESMX 192020Z 01004KT 9999 -SN OVC016 M08/M10 Q1008=
201301191950 METAR ESMX 191950Z 36005KT 9999 -SN OVC017 M08/M10 Q1008=
201301191920 METAR ESMX 191920Z 02005KT 9999 -SN OVC017 M08/M10 Q1008=
201301191850 METAR ESMX 191850Z AUTO 36005KT 9999NDV -SN OVC018/// M08/M10 Q1008=
201301191820 METAR ESMX 191820Z AUTO 01005KT 9999NDV -SN OVC019/// M08/M10 Q1009 RESG=
201301191750 METAR ESMX 191750Z AUTO 02005KT 9999NDV IC OVC020/// M08/M10 Q1009=
201301191720 METAR ESMX 191720Z AUTO 36006KT 9999NDV IC OVC020/// M08/M10 Q1009=
201301191650 METAR ESMX 191650Z AUTO 01005KT 9999NDV SG OVC021/// M08/M09 Q1009=
201301191620 METAR ESMX 191620Z AUTO 01004KT 9999NDV -SN OVC022/// M08/M09 Q1009=
201301191550 METAR ESMX 191550Z AUTO 01005KT 9999NDV -SN OVC023/// M08/M09 Q1009=
201301191520 METAR ESMX 191520Z AUTO 01005KT 9999NDV -SN OVC024/// M07/M09 Q1010=
201301191450 METAR ESMX 191450Z AUTO 04005KT 010V080 9999NDV -SN OVC024/// M07/M09 Q1010=
201301191420 METAR ESMX 191420Z AUTO 01005KT 9999NDV -SN FEW018/// BKN024/// M07/M10 Q1010=
201301191350 METAR ESMX 191350Z AUTO 01007KT 9999NDV -SN FEW014/// OVC024/// M07/M10 Q1010=
201301191320 METAR ESMX 191320Z AUTO 36006KT 9999NDV -SN OVC023/// M08/M10 Q1010=
201301191250 METAR ESMX 191250Z AUTO 01005KT 9999NDV -SN OVC023/// M08/M10 Q1010=
201301191220 METAR ESMX 191220Z AUTO 01006KT 9999NDV -SN OVC024/// M08/M10 Q1010=
201301191150 METAR ESMX 191150Z AUTO 01006KT 9999NDV SG OVC025/// M08/M10 Q1011=
201301191120 METAR ESMX 191120Z AUTO 36006KT 9999NDV SG FEW021/// OVC027/// M09/M11 Q1011=
201301191050 METAR ESMX 191050Z AUTO 01006KT 8000NDV -SN FEW021/// OVC025/// M09/M11 Q1011=
201301191020 METAR ESMX 191020Z AUTO 01007KT 9999NDV -SN OVC024/// M10/M11 Q1012=
201301190950 METAR ESMX 190950Z 36007KT 9999 -SN FEW023 OVC027 M10/M12 Q1012=
201301190920 METAR ESMX 190920Z 01006KT 9999 -SN OVC028 M10/M12 Q1012=
201301190850 METAR ESMX 190850Z 02007KT 9999 -SN OVC028 M11/M12 Q1012=
201301190820 METAR ESMX 190820Z AUTO 01007KT 9999NDV -SN OVC027/// M11/M13 Q1012=
201301190750 METAR ESMX 190750Z AUTO 02006KT 9999NDV -SN FEW023/// OVC029/// M11/M12 Q1012=
201301190720 METAR ESMX 190720Z AUTO 02006KT 9999NDV -SN FEW021/// OVC030/// M11/M13 Q1012=
201301190650 METAR ESMX 190650Z AUTO 01006KT 9999NDV -SN FEW025/// OVC031/// M11/M13 Q1012=
201301190620 METAR ESMX 190620Z AUTO 01006KT 9999NDV -SN FEW027/// OVC032/// M11/M13 Q1012=
201301190550 METAR ESMX 190550Z AUTO 02006KT 9999NDV -SN FEW025/// OVC032/// M11/M13 Q1013=
201301190520 METAR ESMX 190520Z AUTO 02006KT 9999NDV -SN FEW024/// OVC032/// M12/M13 Q1013=
201301190450 METAR ESMX 190450Z AUTO 02006KT 9999NDV -SN FEW024/// OVC031/// M12/M13 Q1013=
201301190420 METAR ESMX 190420Z AUTO 03007KT 9999NDV -SN SCT025/// OVC032/// M12/M14 Q1013=
201301190350 METAR ESMX 190350Z AUTO 02006KT 9999NDV -SN FEW022/// OVC031/// M12/M14 Q1014=
201301190320 METAR ESMX 190320Z AUTO 02006KT 9999NDV -SN FEW027/// OVC032/// M12/M14 Q1014=
201301190250 METAR ESMX 190250Z AUTO 02006KT 9999NDV -SN FEW021/// OVC030/// M12/M14 Q1014=
201301190220 METAR ESMX 190220Z AUTO 01005KT 9999NDV -SN FEW024/// BKN033/// M13/M14 Q1014=
201301190150 METAR ESMX 190150Z AUTO 01007KT 9999NDV -SN FEW024/// BKN035/// M13/M15 Q1014=
201301190120 METAR ESMX 190120Z AUTO 02006KT 9999NDV -SN FEW031/// OVC037/// M13/M15 Q1014=
201301190050 METAR ESMX 190050Z AUTO 01007KT 9999NDV -SN FEW026/// OVC038/// M13/M15 Q1015=
201301190020 METAR ESMX 190020Z AUTO 02006KT 9999NDV FEW028/// SCT033/// BKN038/// M14/M15 Q1015=
201301182350 METAR ESMX 182350Z AUTO 02004KT 9999NDV FEW025/// SCT030/// M14/M16 Q1016=
201301182320 METAR ESMX 182320Z AUTO 36004KT 330V040 9999NDV NCD M15/M17 Q1015=
201301182250 METAR ESMX 182250Z AUTO 01004KT 9999NDV NCD M14/M15 Q1016=
201301182220 METAR ESMX 182220Z AUTO 02004KT 9999NDV FEW034/// M13/M15 Q1016=
201301182150 METAR ESMX 182150Z AUTO 03005KT 9999NDV NCD M13/M14 Q1016=
201301182120 METAR ESMX 182120Z AUTO 03004KT 010V070 9999NDV NCD M13/M14 Q1016=
201301182050 METAR ESMX 182050Z AUTO 01007KT 9999NDV SCT036/// M12/M14 Q1016=
201301182020 METAR ESMX 182020Z AUTO 02006KT 9999NDV FEW037/// M12/M14 Q1017=
201301181950 METAR ESMX 181950Z 01007KT CAVOK M13/M14 Q1017=
201301181920 METAR ESMX 181920Z 02005KT 9999 FEW027 M12/M13 Q1017=
201301181850 METAR ESMX 181850Z 02005KT 9999 FEW028 M12/M13 Q1017=
201301181820 METAR ESMX 181820Z 01006KT 9999 FEW039 M11/M13 Q1017=
201301181750 METAR ESMX 181750Z 03006KT 9999 FEW029 SCT039 M09/M11 Q1017=
201301181720 METAR ESMX 181720Z 02007KT 9999 FEW030 BKN038 M09/M11 Q1017=
201301181650 METAR ESMX 181650Z 36007KT 9999 -SN FEW021 SCT030 BKN036 M09/M10 Q1017=
201301181620 METAR ESMX 181620Z 36007KT 9999 -SN FEW020 BKN032 M09/M10 Q1018=
201301181550 METAR ESMX 181550Z 01006KT 9999 -SN FEW022 SCT033 BKN038 M08/M10 Q1018=
201301181520 METAR ESMX 181520Z 02007KT 9999 FEW032 BKN038 M08/M10 Q1018=
201301181450 METAR ESMX 181450Z 02007KT 9999 FEW031 BKN037 M07/M10 Q1018=
201301181420 METAR ESMX 181420Z 03007KT 9999 FEW028 BKN036 M06/M10 Q1018=
201301181350 METAR ESMX 181350Z 01008KT 9999 FEW027 BKN035 M06/M09 Q1018=
201301181320 METAR ESMX 181320Z 04006KT 9999 FEW027 BKN036 M05/M09 Q1018=
201301181250 METAR ESMX 181250Z 04006KT 9999 FEW031 BKN036 M05/M08 Q1019=
201301181220 METAR ESMX 181220Z 04007KT 9999 FEW020 OVC035 M05/M08 Q1019=
201301181150 METAR ESMX 181150Z 02007KT 9999 BKN035 M05/M08 Q1019=
201301181120 METAR ESMX 181120Z 01008KT 9999 BKN035 M05/M07 Q1019=
201301181050 METAR ESMX 181050Z 02008KT 9999 BKN035 M04/M07 Q1019=
201301181020 METAR ESMX 181020Z 03007KT 9999 FEW010 BKN035 M04/M07 Q1020=
201301180950 METAR ESMX 180950Z 04008KT 9999 FEW011 OVC035 M05/M07 Q1020=
201301180920 METAR ESMX 180920Z 03007KT 9999 -SN SCT011 BKN035 M05/M07 Q1020=
201301180850 METAR ESMX 180850Z 03007KT 9999 -SN SCT012 BKN028 OVC032 M05/M07 Q1020=
201301180820 METAR ESMX 180820Z 01007KT 9999 -SN FEW011 BKN020 OVC029 M05/M07 Q1020=
201301180750 METAR ESMX 180750Z 03006KT 9999 -SN FEW011 BKN020 M05/M07 Q1020 RESG=
201301180720 METAR ESMX 180720Z 03006KT 9999 -SN FEW011 OVC015 M05/M07 Q1020=
201301180620 METAR ESMX 180620Z 03007KT 9999 -SN OVC009 M06/M07 Q1020=
201301180550 METAR ESMX 180550Z 02006KT 9999 -SN OVC010 M06/M07 Q1020=
201301180520 METAR ESMX 180520Z 02006KT 9999 -SN FEW011 BKN015 OVC032 M06/M07 Q1020=
201301180450 METAR ESMX 180450Z 02006KT 9999 -SN BKN011 OVC015 M06/M07 Q1020=
201301180420 METAR ESMX 180420Z AUTO 03006KT 9999NDV -SN OVC010/// M06/M07 Q1020=
201301180350 METAR ESMX 180350Z AUTO 02005KT 9999NDV -SN OVC011/// M06/M07 Q1021=
201301180320 METAR ESMX 180320Z AUTO 03006KT 9999NDV -SN SCT012/// OVC030/// M05/M07 Q1021=
201301180250 METAR ESMX 180250Z AUTO 01007KT 9999NDV -SN BKN013/// OVC031/// M05/M07 Q1021 RESG=
201301180220 METAR ESMX 180220Z AUTO 02007KT 9999NDV -SN SCT013/// BKN018/// OVC034/// M05/M07 Q1021=
201301180150 METAR ESMX 180150Z 02006KT 9999 -SN BKN016 OVC020 M06/M07 Q1021=
201301180050 METAR ESMX 180050Z 36006KT 9999 -SN BKN014 M06/M08 Q1021=
201301180020 METAR ESMX 180020Z 01005KT 9999 FEW016 BKN037 M08/M09 Q1021=
201301172350 METAR ESMX 172350Z 01006KT 9999 FEW034 M08/M09 Q1021=
201301172250 METAR ESMX 172250Z 01006KT 9999 OVC017 M07/M08 Q1022=
201301172220 METAR ESMX 172220Z 01006KT 9999 BKN021 M07/M10 Q1022=
201301172150 METAR ESMX 172150Z 02007KT 9999 BKN024 M06/M08 Q1022=
201301172120 METAR ESMX 172120Z 01008KT 9999 SCT024 M06/M08 Q1022=
201301172050 METAR ESMX 172050Z 03008KT 9999 BKN025 M05/M07 Q1022=
201301172020 METAR ESMX 172020Z 03006KT 9999 FEW014 BKN025 M05/M07 Q1022=
201301171950 METAR ESMX 171950Z 04009KT 010V070 9999 BKN016 OVC020 M04/M07 Q1022=
201301171920 METAR ESMX 171920Z 03010KT 9999 -SN BKN013 OVC019 M04/M06 Q1022=
201301171850 METAR ESMX 171850Z 03010KT 360V070 9999 -SN FEW013 OVC020 M04/M05 Q1022=
201301171820 METAR ESMX 171820Z 36008KT 8000 -SN FEW011 OVC014 M04/M05 Q1021=
201301171750 METAR ESMX 171750Z 36007KT 9000 -SN OVC014 M04/M05 Q1021=
201301171720 METAR ESMX 171720Z 01007KT 9000 -SN OVC015 M04/M05 Q1021=
201301171650 METAR ESMX 171650Z 02008KT 9999 -SN OVC015 M04/M05 Q1021=
201301171620 METAR ESMX 171620Z 01006KT 9999 -SN OVC013 M04/M05 Q1021=
201301171550 METAR ESMX 171550Z 02006KT 9999 SCT013 BKN015 M04/M05 Q1021=
201301171520 METAR ESMX 171520Z 36006KT 9999 OVC014 M04/M04 Q1021=
201301171450 METAR ESMX 171450Z 36004KT 9999 FEW009 OVC025 M04/M04 Q1021=
201301171420 METAR ESMX 171420Z 02005KT 9999 SCT010 BKN022 M04/M05 Q1020=
201301171350 METAR ESMX 171350Z 02004KT 9999 SCT029 M05/M06 Q1020=
201301171320 METAR ESMX 171320Z 02003KT CAVOK M05/M06 Q1020=
201301171250 METAR ESMX 171250Z 01004KT CAVOK M05/M06 Q1020=
201301171220 METAR ESMX 171220Z 36006KT CAVOK M05/M06 Q1020=
201301171150 METAR ESMX 171150Z 36005KT 9999 BKN005 M05/M06 Q1020=
201301171120 METAR ESMX 171120Z 36005KT 9999 SCT005 M06/M07 Q1020=
201301171050 METAR ESMX 171050Z 36004KT 9999 -SN BKN054 M06/M07 Q1020=
201301171020 METAR ESMX 171020Z 36004KT 9999 -SN BKN053 M06/M07 Q1020 RESG=
201301170950 METAR ESMX 170950Z 36004KT 8000 -SN FEW017 SCT039 M07/M08 Q1020=
201301170920 METAR ESMX 170920Z 36003KT 9999 BKN047 M07/M08 Q1020=
201301170850 METAR ESMX 170850Z 36004KT CAVOK M08/M09 Q1020=
201301162350 METAR ESMX 162350Z 01001KT 9999 FEW009 BKN030 M08/M09 Q1017=
201301162320 METAR ESMX 162320Z 34002KT 9999 BKN007 OVC009 M07/M08 Q1017=
201301162250 METAR ESMX 162250Z VRB02KT 9999 OVC007 M07/M08 Q1017=
201301162150 METAR ESMX 162150Z 00000KT 9999 OVC032 M08/M09 Q1016=
201301162120 METAR ESMX 162120Z 03001KT 8000 -SN OVC030 M08/M09 Q1016=
201301162050 METAR ESMX 162050Z 00000KT 7000 -SN OVC027 M08/M09 Q1016=
201301162020 METAR ESMX 162020Z 00000KT 8000 -SN FEW008 OVC030 M08/M09 Q1015=
201301161950 METAR ESMX 161950Z 36002KT 8000 -SN BKN012 OVC032 M08/M09 Q1015=
201301161920 METAR ESMX 161920Z 00000KT 8000 -SN BKN012 OVC030 M08/M09 Q1015=
201301161850 METAR ESMX 161850Z 00000KT 9999 -SN OVC030 M09/M10 Q1015=
201301161820 METAR ESMX 161820Z 00000KT 8000 BR FEW025 OVC032 M10/M11 Q1015=
201301161750 METAR ESMX 161750Z 00000KT 7000 BR BKN032 M11/M13 Q1015=
201301161720 METAR ESMX 161720Z 04001KT 7000 BR BKN034 M12/M14 Q1014=
201301161650 METAR ESMX 161650Z 00000KT 8000 BR NSC M12/M13 Q1014=
201301161620 METAR ESMX 161620Z 00000KT 3000 BCFG NSC M12/M13 Q1014=
201301161550 METAR ESMX 161550Z 00000KT 1000 R01/0275V0500N R19/0500V1600 FZFG NSC M12/M14 Q1014=
201301161520 METAR ESMX 161520Z 00000KT 4000 MIFG NSC M09/M10 Q1013=
201301161450 METAR ESMX 161450Z 04001KT 4000 BR NSC M09/M10 Q1013=
201301161420 METAR ESMX 161420Z 00000KT 5000 BR NSC M06/M07 Q1013=
201301161350 METAR ESMX 161350Z 04001KT 5000 BR NSC M06/M07 Q1013=
201301161320 METAR ESMX 161320Z 00000KT 6000 BR NSC M05/M06 Q1013=
201301161250 METAR ESMX 161250Z 36003KT 6000 BR NSC M06/M07 Q1013=
201301161220 METAR ESMX 161220Z 02001KT 7000 BR NSC M06/M08 Q1013=
201301161150 METAR ESMX 161150Z 11001KT 7000 BR FEW042 M07/M08 Q1013=
201301161120 METAR ESMX 161120Z 00000KT 7000 BR NSC M07/M08 Q1013=
201301161050 METAR ESMX 161050Z 12001KT 5000 BR FEW022 SCT037 M09/M10 Q1013=
201301161020 METAR ESMX 161020Z 00000KT 7000 BR FEW021 SCT026 M09/M10 Q1013=
201301160950 METAR ESMX 160950Z 28001KT 5000 BR FEW022 SCT031 BKN037 M09/M10 Q1013=
201301160920 METAR ESMX 160920Z 01002KT 4900 BR FEW023 SCT030 M11/M12 Q1012=
201301160850 METAR ESMX 160850Z 00000KT 5000 BR FEW024 BKN028 M13/M14 Q1012=
201301160820 METAR ESMX 160820Z 00000KT 2800 BR FEW028 M13/M15 Q1012=
201301160750 METAR ESMX 160750Z 00000KT 6000 BR SCT035 M13/M15 Q1012=
201301160720 METAR ESMX 160720Z 36002KT 4500 BR BKN033 M12/M14 Q1012=
201301160650 METAR ESMX 160650Z 06001KT 7000 BR BKN035 M12/M13 Q1011=
201301160620 METAR ESMX 160620Z 03001KT 8000 BR BKN037 M11/M12 Q1011=
201301160550 METAR ESMX 160550Z 34002KT 8000 -SN FEW015 BKN030 M11/M12 Q1011=
201301160520 METAR ESMX 160520Z VRB01KT 6000 BR FEW015 BKN035 M11/M12 Q1011=
201301160450 METAR ESMX 160450Z 00000KT 8000 BR FEW017 BKN035 M11/M13 Q1011 RESG=
201301160420 METAR ESMX 160420Z AUTO 00000KT 1000NDV R01/P2000N R19/P2000N -SN FEW000/// SCT017/// BKN036/// M11/M12 Q1011=
201301160350 METAR ESMX 160350Z AUTO 20002KT 2200NDV IC FEW020/// BKN027/// M10/M11 Q1011=
201301160320 METAR ESMX 160320Z AUTO 00000KT 8000NDV BR OVC026/// M11/M12 Q1011=
201301160250 METAR ESMX 160250Z AUTO VRB02KT 5000NDV BR OVC031/// M11/M12 Q1011=
201301160220 METAR ESMX 160220Z AUTO 17003KT 7000NDV BR OVC033/// M12/M13 Q1011=
201301160150 METAR ESMX 160150Z AUTO 18003KT 8000NDV BR SCT033/// M14/M16 Q1011=
201301160120 METAR ESMX 160120Z AUTO 16002KT 6000NDV NCD M13/M14 Q1011=
201301160050 METAR ESMX 160050Z 18001KT 1200 R01/P2000N R19/P2000N BR NSC M14/M15 Q1011=
201301160020 METAR ESMX 160020Z 00000KT 0400 R01/P2000N R19/0800VP2000D BR NSC M12/M13 Q1011=
201301152350 METAR ESMX 152350Z 15002KT 7000 BR NSC M11/M12 Q1010=
201301152320 METAR ESMX 152320Z 20002KT 3300 BR NSC M10/M11 Q1010=
201301152250 METAR ESMX 152250Z 22005KT 2900 BR NSC M09/M10 Q1010=
201301152220 METAR ESMX 152220Z 19004KT 2700 BR SCT030 M08/M09 Q1010=
201301152150 METAR ESMX 152150Z 21004KT 4800 BR BKN030 M08/M09 Q1010=
201301152120 METAR ESMX 152120Z 24003KT 8000 BR BKN030 M06/M08 Q1010=
201301152050 METAR ESMX 152050Z 21004KT 9000 BR BKN030 M06/M07 Q1010=
201301152020 METAR ESMX 152020Z 20005KT 8000 BR SCT015 BKN030 M06/M07 Q1010=
201301151950 METAR ESMX 151950Z 21004KT 9000 BR SCT015 BKN030 M05/M07 Q1010=
201301151920 METAR ESMX 151920Z 21004KT 9000 BR FEW006 SCT015 BKN030 M05/M07 Q1010=
201301151850 METAR ESMX 151850Z 21004KT 6000 SG FEW005 BKN017 M05/M06 Q1010=
201301151820 METAR ESMX 151820Z 22005KT 8000 -SN FEW006 OVC015 M05/M06 Q1010=
201301151750 METAR ESMX 151750Z 23005KT 8000 -SN FEW007 OVC015 M05/M06 Q1009=
201301151720 METAR ESMX 151720Z 22006KT 5000 -SN FEW009 OVC015 M05/M06 Q1009=
201301151650 METAR ESMX 151650Z 20007KT 4400 -SN SCT008 OVC016 M05/M06 Q1009=
201301151620 METAR ESMX 151620Z 22006KT 6000 -SN OVC011 M05/M06 Q1009=
201301151550 METAR ESMX 151550Z 21007KT 4600 -SN FEW007 OVC011 M04/M06 Q1009=
201301151520 METAR ESMX 151520Z 21006KT 7000 -SN FEW008 BKN010 OVC015 M04/M05 Q1009=
201301151450 METAR ESMX 151450Z 23007KT 8000 -SN BKN013 M04/M05 Q1008=
201301151420 METAR ESMX 151420Z 21006KT 8000 -SN FEW007 BKN010 M03/M04 Q1008=
201301151350 METAR ESMX 151350Z 21005KT 8000 -SN SCT005 BKN009 M03/M04 Q1008=
201301151320 METAR ESMX 151320Z 21005KT 9000 -SN SCT006 BKN010 M03/M04 Q1008=
201301151250 METAR ESMX 151250Z 21006KT 8000 -SN SCT007 BKN014 M03/M04 Q1008=
201301151220 METAR ESMX 151220Z 18006KT 7000 -SN SCT006 BKN009 M03/M04 Q1008=
201301151150 METAR ESMX 151150Z 15004KT 2000 -SN FEW006 SCT007 BKN009 M03/M04 Q1008=
201301151120 METAR ESMX 151120Z 13003KT 080V150 2000 -SN SCT005 M03/M04 Q1008=
201301151050 METAR ESMX 151050Z VRB02KT 1800 -SN BKN006 M03/M04 Q1008=
201301151020 METAR ESMX 151020Z VRB02KT 3100 -SN BKN008 M03/M04 Q1008=
201301150950 METAR ESMX 150950Z VRB01KT 9999 -SN FEW008 BKN009 M03/M04 Q1008=
201301150920 METAR ESMX 150920Z VRB01KT 4600 -SN FEW008 BKN019 M03/M04 Q1008=
201301150850 METAR ESMX 150850Z VRB02KT 5000 -SN FEW017 M04/M04 Q1008=
201301150820 METAR ESMX 150820Z 04003KT 4800 -SN FEW025 M04/M04 Q1008=
201301150750 METAR ESMX 150750Z 03004KT 4600 -SN FEW027 M04/M05 Q1008=
201301150720 METAR ESMX 150720Z 03005KT 4000 -SN FEW026 M04/M05 Q1008=
201301150650 METAR ESMX 150650Z 03005KT 3500 -SN FEW025 M04/M05 Q1008=
201301150620 METAR ESMX 150620Z 03005KT 3800 -SN FEW017 M04/M05 Q1008=
201301150550 METAR ESMX 150550Z 03005KT 2600 -SN SCT010 BKN015 M04/M05 Q1008=
201301150520 METAR ESMX 150520Z 03004KT 3000 -SN BKN015 M04/M05 Q1008=
201301150450 METAR ESMX 150450Z 02004KT 3700 -SN SCT012 BKN015 M04/M05 Q1009=
201301150420 METAR ESMX 150420Z AUTO 05005KT 7000NDV -SN FEW010/// SCT021/// BKN026/// M04/M05 Q1009=
201301150350 METAR ESMX 150350Z AUTO 04005KT 010V080 6000NDV -SN FEW010/// SCT020/// BKN032/// M04/M05 Q1009=
201301150320 METAR ESMX 150320Z AUTO 05005KT 020V080 3600NDV -SN FEW013/// M04/M05 Q1010=
201301150250 METAR ESMX 150250Z AUTO 05006KT 4700NDV -SN FEW011/// BKN013/// M04/M05 Q1010=
201301150220 METAR ESMX 150220Z AUTO 05005KT 020V080 6000NDV -SN FEW010/// SCT016/// BKN018/// M04/M05 Q1010=
201301150150 METAR ESMX 150150Z AUTO 06005KT 030V100 3000NDV -SN FEW010/// SCT013/// BKN015/// M04/M05 Q1011=
201301150120 METAR ESMX 150120Z AUTO 06005KT 030V100 9000NDV -SN FEW011/// M04/M05 Q1011=
201301150050 METAR ESMX 150050Z 06006KT 040V110 5000 -SN SCT005 BKN010 M04/M05 Q1011=
201301150020 METAR ESMX 150020Z 06007KT 020V080 2800 -SN SCT005 BKN010 M04/M05 Q1012=
201301142350 METAR ESMX 142350Z 03005KT 350V070 1800 -SN SCT005 BKN010 M04/M05 Q1012=
201301142320 METAR ESMX 142320Z 05005KT 020V080 1000 R01/P2000N R19/P2000 -SN SCT005 BKN010 M04/M05 Q1012=
201301142250 METAR ESMX 142250Z 07005KT 030V110 0750 R01/P2000N R19/P2000 SN SCT006 BKN010 M04/M05 Q1013=
201301142220 METAR ESMX 142220Z 07005KT 030V100 0750 R01/P2000N R19/P2000 -SN FEW006 BKN012 M04/M05 Q1014=
201301142150 METAR ESMX 142150Z 06005KT 010V090 0650 R01/P2000N R19/P2000 -SN FEW005 BKN010 M04/M05 Q1014=
201301142120 METAR ESMX 142120Z 05005KT 360V100 0750 R01/P2000N R19/P2000N SN FEW006 BKN015 M04/M05 Q1014=
201301142050 METAR ESMX 142050Z 05006KT 020V090 1100 R01/P2000N R19/P2000N -SN SCT005 BKN015 M04/M05 Q1014=
201301142020 METAR ESMX 142020Z 04006KT 010V080 4000 -SN FEW013 SCT016 BKN027 M04/M06 Q1014 RESG=
201301141950 METAR ESMX 141950Z 06006KT 020V090 9999 FEW016 OVC019 M04/M06 Q1015=
201301141920 METAR ESMX 141920Z 06005KT 9999 SCT013 BKN020 M04/M06 Q1015=
201301141850 METAR ESMX 141850Z 07005KT 9999 FEW013 BKN025 M04/M06 Q1016=
201301141820 METAR ESMX 141820Z 08005KT 050V110 9999 FEW013 SCT020 OVC026 M04/M06 Q1016=
201301141750 METAR ESMX 141750Z 09005KT 060V130 9999 FEW013 BKN023 M04/M06 Q1017=
201301141720 METAR ESMX 141720Z 10005KT 050V160 9999 FEW016 BKN025 M04/M06 Q1017=
201301141650 METAR ESMX 141650Z 11006KT 060V150 9999 BKN013 M04/M06 Q1017=
201301141620 METAR ESMX 141620Z 10006KT 030V120 9999 BKN013 BKN018 M04/M06 Q1017=
201301141550 METAR ESMX 141550Z 10004KT 040V130 9999 -SN SCT013 BKN036 M04/M06 Q1018=
201301141520 METAR ESMX 141520Z 10004KT 060V150 9999 -SN FEW015 OVC038 M04/M06 Q1018=
201301141450 METAR ESMX 141450Z 10003KT 060V140 9999 -SN FEW014 BKN039 M03/M06 Q1018=
201301141420 METAR ESMX 141420Z 11005KT 080V150 9999 -SN FEW015 BKN037 M03/M06 Q1019=
201301141350 METAR ESMX 141350Z 11005KT 050V150 8000 -SN FEW014 SCT018 BKN035 M03/M06 Q1019=
201301141320 METAR ESMX 141320Z 11005KT 080V180 9999 -SN FEW018 BKN035 M03/M06 Q1019=
201301141250 METAR ESMX 141250Z 13004KT 070V190 9999 -SN FEW017 BKN021 M03/M07 Q1019=
201301141220 METAR ESMX 141220Z 12004KT 030V160 9999 -SN FEW018 BKN043 M03/M06 Q1019=
201301141150 METAR ESMX 141150Z 13005KT 090V190 8000 -SN SCT016 BKN021 M03/M06 Q1020=
201301141120 METAR ESMX 141120Z 13005KT 100V200 9999 -SN FEW018 SCT022 BKN045 M03/M06 Q1020=
201301141050 METAR ESMX 141050Z 12005KT 070V160 9999 -SN FEW023 SCT040 BKN046 M03/M06 Q1021=
201301141020 METAR ESMX 141020Z 11004KT 060V150 9999 -SN FEW016 BKN041 BKN050 M03/M05 Q1021=
201301140920 METAR ESMX 140920Z 11004KT 070V140 8000 -SN FEW022 SCT037 BKN050 M03/M05 Q1021=
201301140850 METAR ESMX 140850Z 11004KT 070V150 9999 -SN FEW024 SCT031 BKN036 M03/M05 Q1021=
201301140820 METAR ESMX 140820Z 11004KT 070V180 9999 -SN OVC024 M03/M05 Q1021=
201301140750 METAR ESMX 140750Z 11004KT 060V160 9999 -SN FEW015 BKN025 M03/M05 Q1022=
201301140720 METAR ESMX 140720Z 11004KT 060V170 9999 -SN FEW020 OVC038 M03/M05 Q1022=
201301140650 METAR ESMX 140650Z 10004KT 030V150 9999 -SN OVC032 M03/M05 Q1022=
201301140620 METAR ESMX 140620Z 09004KT 040V130 9999 -SN FEW015 BKN033 M03/M05 Q1021=
201301140550 METAR ESMX 140550Z 10005KT 060V140 9999 -SN FEW015 OVC039 M03/M06 Q1022=
201301140520 METAR ESMX 140520Z 10005KT 050V140 9999 -SN FEW014 SCT019 OVC030 M03/M06 Q1022=
201301140450 METAR ESMX 140450Z VRB05KT 9999 -SN FEW015 OVC023 M03/M06 Q1022=
201301140420 METAR ESMX 140420Z AUTO 09005KT 040V150 9999NDV SG FEW022/// BKN026/// OVC030/// M03/M06 Q1022=
201301140350 METAR ESMX 140350Z AUTO 08005KT 030V130 9999NDV -SN FEW024/// OVC029/// M03/M06 Q1022=
201301140320 METAR ESMX 140320Z AUTO 06004KT 030V110 9999NDV SG FEW018/// OVC030/// M04/M06 Q1023=
201301140250 METAR ESMX 140250Z AUTO 08004KT 040V100 9999NDV -SN FEW017/// OVC026/// M04/M06 Q1023=
201301140220 METAR ESMX 140220Z AUTO 08004KT 050V120 9999NDV FZUP FEW021/// SCT027/// OVC031/// M03/M06 Q1023=
201301140150 METAR ESMX 140150Z AUTO 05004KT 020V080 9999NDV OVC027/// M04/M06 Q1023=
201301140120 METAR ESMX 140120Z AUTO 07004KT 9999NDV OVC028/// M03/M06 Q1023=
201301140050 METAR ESMX 140050Z 07004KT 040V110 9999 OVC028 M04/M06 Q1023=
201301140020 METAR ESMX 140020Z 01004KT 9999 -SN FEW018 OVC027 M04/M07 Q1024=
201301132350 METAR ESMX 132350Z 06003KT 020V110 9999 -SN OVC022 M04/M07 Q1024=
201301132320 METAR ESMX 132320Z 36003KT 9999 -SN OVC023 M04/M06 Q1024=
201301132250 METAR ESMX 132250Z 03004KT 9999 OVC022 M04/M06 Q1024=
201301132220 METAR ESMX 132220Z VRB02KT 9999 OVC021 M04/M07 Q1025=
201301132150 METAR ESMX 132150Z 06003KT 9999 OVC022 M04/M06 Q1025=
201301132120 METAR ESMX 132120Z VRB02KT 9999 OVC023 M04/M06 Q1025=
201301132050 METAR ESMX 132050Z 06003KT 030V100 9999 OVC024 M04/M07 Q1025=
201301132020 METAR ESMX 132020Z VRB02KT 9999 OVC026 M04/M07 Q1025=
201301131950 METAR ESMX 131950Z 05003KT 9999 OVC025 M04/M07 Q1025=
201301131920 METAR ESMX 131920Z VRB02KT 9999 OVC025 M04/M06 Q1025=
201301131850 METAR ESMX 131850Z 07002KT 9999 OVC024 M04/M06 Q1025=
201301131820 METAR ESMX 131820Z 05004KT 020V090 9999 OVC022 M04/M06 Q1025=
201301131750 METAR ESMX 131750Z 04003KT 9999 OVC023 M04/M06 Q1025=
201301131720 METAR ESMX 131720Z 07003KT 030V110 9999 OVC023 M04/M07 Q1025=
201301131650 METAR ESMX 131650Z 03004KT 9999 OVC024 M04/M07 Q1025=
201301131620 METAR ESMX 131620Z 04004KT 9999 OVC025 M04/M07 Q1025=
201301131550 METAR ESMX 131550Z 02003KT 9999 OVC026 M04/M06 Q1025=
201301131450 METAR ESMX 131450Z 03004KT 9999 OVC025 M03/M06 Q1025 RESG=
201301131420 METAR ESMX 131420Z 02003KT 9999 -SN OVC025 M03/M06 Q1025=
201301131350 METAR ESMX 131350Z 01004KT 9999 -SN OVC020 M03/M06 Q1025=
201301131320 METAR ESMX 131320Z 36003KT 9999 -SN OVC021 M03/M06 Q1025=
201301131250 METAR ESMX 131250Z AUTO VRB02KT 9999NDV OVC021/// M03/M06 Q1025=
201301131220 METAR ESMX 131220Z AUTO VRB02KT 9999NDV SG OVC021/// M03/M06 Q1025=
201301131150 METAR ESMX 131150Z AUTO 03004KT 9999NDV SG OVC021/// M03/M06 Q1025=
201301131120 METAR ESMX 131120Z AUTO 02003KT 350V060 9999NDV SG OVC022/// M04/M06 Q1025=
201301131050 METAR ESMX 131050Z AUTO 04004KT 9999NDV SG OVC020/// M04/M06 Q1025=
201301131020 METAR ESMX 131020Z AUTO 02004KT 9999NDV -SN OVC021/// M04/M06 Q1025=
201301130950 METAR ESMX 130950Z AUTO 04004KT 9999NDV SG OVC021/// M04/M06 Q1025=
201301130920 METAR ESMX 130920Z AUTO 05004KT 9999NDV SG OVC021/// M04/M06 Q1025=
201301130850 METAR ESMX 130850Z AUTO 04004KT 010V070 9999NDV -SN FEW019/// OVC021/// M04/M06 Q1025 RESG=
201301130820 METAR ESMX 130820Z AUTO 06003KT 9999NDV OVC018/// M04/M06 Q1024=
201301130750 METAR ESMX 130750Z AUTO 05003KT 010V090 9999NDV OVC019/// M04/M06 Q1024=
201301130720 METAR ESMX 130720Z AUTO 02003KT 9999NDV OVC018/// M04/M06 Q1024=
201301130650 METAR ESMX 130650Z AUTO 02003KT 350V050 9999NDV OVC017/// M04/M06 Q1024=
201301130620 METAR ESMX 130620Z AUTO 03003KT 9999NDV -SN FEW014/// OVC017/// M04/M06 Q1024=
201301130550 METAR ESMX 130550Z AUTO 04005KT 020V080 9000NDV SG OVC016/// M04/M06 Q1024=
201301130520 METAR ESMX 130520Z AUTO 06003KT 010V100 9999NDV -SN FEW013/// OVC016/// M04/M06 Q1023=
201301130450 METAR ESMX 130450Z AUTO 05004KT 020V080 9000NDV -SN FEW017/// OVC020/// M04/M06 Q1023=
201301130420 METAR ESMX 130420Z AUTO 01005KT 4000NDV -SN FEW010/// SCT014/// OVC019/// M04/M06 Q1023=
201301130350 METAR ESMX 130350Z AUTO 01005KT 7000NDV -SN FEW017/// OVC022/// M04/M06 Q1023=
201301130320 METAR ESMX 130320Z AUTO 01005KT 4900NDV -SN FEW008/// OVC020/// M04/M06 Q1023=
201301130250 METAR ESMX 130250Z AUTO 35005KT 9999NDV SG FEW009/// OVC022/// M04/M06 Q1023=
201301130220 METAR ESMX 130220Z AUTO 02005KT 8000NDV -SN FEW010/// SCT021/// OVC024/// M04/M06 Q1023=
201301130150 METAR ESMX 130150Z AUTO 03005KT 010V070 6000NDV -SN FEW010/// OVC026/// M04/M06 Q1023=
201301130120 METAR ESMX 130120Z AUTO 02004KT 6000NDV -SN FEW013/// OVC024/// M04/M06 Q1023=
201301130050 METAR ESMX 130050Z AUTO 01005KT 7000NDV -SN SCT011/// BKN023/// OVC028/// M04/M06 Q1023=
201301130020 METAR ESMX 130020Z AUTO 01005KT 7000NDV -SN SCT011/// OVC025/// M04/M06 Q1023=
201301122350 METAR ESMX 122350Z AUTO 03006KT 9999NDV -SN SCT011/// OVC026/// M04/M06 Q1022=
201301122320 METAR ESMX 122320Z AUTO 01007KT 9999NDV OVC027/// M04/M06 Q1022=
201301122250 METAR ESMX 122250Z AUTO 01007KT 9999NDV FEW022/// OVC028/// M04/M06 Q1022=
201301122220 METAR ESMX 122220Z AUTO 36008KT 9999NDV -SN FEW017/// OVC028/// M04/M06 Q1022=
201301122150 METAR ESMX 122150Z AUTO 01007KT 9999NDV -SN FEW022/// OVC029/// M04/M06 Q1022=
201301122120 METAR ESMX 122120Z AUTO 01007KT 9999NDV -SN FEW021/// OVC028/// M04/M06 Q1022=
201301122050 METAR ESMX 122050Z AUTO 02007KT 9999NDV -SN FEW013/// OVC032/// M04/M06 Q1022=
201301122020 METAR ESMX 122020Z AUTO 01007KT 9999NDV SG FEW011/// BKN013/// OVC031/// M04/M06 Q1022=
201301121950 METAR ESMX 121950Z AUTO 36008KT 9000NDV -SN OVC012/// M04/M06 Q1022=
201301121920 METAR ESMX 121920Z AUTO 36007KT 9999NDV SG OVC012/// M04/M06 Q1022=
201301121850 METAR ESMX 121850Z AUTO 36008KT 9999NDV -SN BKN013/// OVC020/// M04/M06 Q1022=
201301121820 METAR ESMX 121820Z AUTO 02007KT 9999NDV SG OVC013/// M04/M06 Q1021=
201301121750 METAR ESMX 121750Z AUTO 36009KT 9999NDV -SN FEW012/// OVC014/// M04/M06 Q1021=
201301121720 METAR ESMX 121720Z AUTO 01010KT 9999NDV -SN OVC013/// M04/M06 Q1021=
201301121650 METAR ESMX 121650Z AUTO 36010KT 9999NDV -SN FEW012/// BKN015/// OVC035/// M04/M06 Q1021=
201301121620 METAR ESMX 121620Z AUTO 01011KT 9999NDV -SN FEW013/// OVC034/// M04/M06 Q1021=
201301121550 METAR ESMX 121550Z AUTO 01010KT 9999NDV -SN OVC012/// M04/M06 Q1021 RESG=
201301121520 METAR ESMX 121520Z AUTO 36009KT 9999NDV FZUP OVC012/// M04/M06 Q1021=
201301121450 METAR ESMX 121450Z AUTO 01011KT 9999NDV OVC013/// M04/M06 Q1021=
201301121420 METAR ESMX 121420Z AUTO 36010KT 9999NDV OVC013/// M04/M06 Q1020=
201301121350 METAR ESMX 121350Z AUTO 36010KT 9999NDV OVC012/// M03/M06 Q1020=
201301121320 METAR ESMX 121320Z AUTO 01010KT 9999NDV -SN OVC012/// M03/M06 Q1020 RESG=
201301121250 METAR ESMX 121250Z AUTO 01010KT 340V040 9999NDV -SN OVC012/// M03/M06 Q1020=
201301121220 METAR ESMX 121220Z AUTO 02010KT 9999NDV OVC011/// M03/M06 Q1020=
201301121150 METAR ESMX 121150Z AUTO 02009KT 9999NDV OVC011/// M03/M06 Q1020=
201301121120 METAR ESMX 121120Z AUTO 01010KT 9999NDV OVC010/// M04/M06 Q1019=
201301121050 METAR ESMX 121050Z AUTO 01011KT 9999NDV OVC010/// M04/M06 Q1019=
201301121020 METAR ESMX 121020Z AUTO 01011KT 9999NDV OVC009/// M04/M06 Q1019=
201301120950 METAR ESMX 120950Z AUTO 36012KT 9999NDV OVC008/// M04/M06 Q1019=
201301120920 METAR ESMX 120920Z AUTO 02011KT 9999NDV OVC008/// M04/M06 Q1019=
201301120850 METAR ESMX 120850Z AUTO 02012KT 9999NDV OVC008/// M04/M06 Q1019=
201301120820 METAR ESMX 120820Z AUTO 01011KT 9999NDV OVC008/// M04/M06 Q1018=
201301120750 METAR ESMX 120750Z AUTO 01011KT 9999NDV OVC008/// M04/M06 Q1018=
201301120720 METAR ESMX 120720Z AUTO 35012KT 9999NDV OVC009/// M04/M06 Q1018=
201301120650 METAR ESMX 120650Z AUTO 01013KT 9999NDV OVC009/// M04/M06 Q1018=
201301120620 METAR ESMX 120620Z AUTO 01013KT 9999NDV SG OVC008/// M04/M06 Q1018=
201301120550 METAR ESMX 120550Z AUTO 36013KT 9999NDV -SN OVC008/// M04/M06 Q1017=
201301120520 METAR ESMX 120520Z AUTO 36012KT 9999NDV -SN OVC008/// M04/M06 Q1017=
201301120450 METAR ESMX 120450Z AUTO 36012KT 9999NDV -SN OVC009/// M04/M06 Q1017=
201301120420 METAR ESMX 120420Z AUTO 36012KT 9999NDV -SN OVC010/// M04/M06 Q1017=
201301120350 METAR ESMX 120350Z AUTO 01012KT 9999NDV -SN OVC010/// M04/M06 Q1017=
201301120320 METAR ESMX 120320Z AUTO 01013KT 9999NDV -SN OVC011/// M04/M06 Q1017=
201301120250 METAR ESMX 120250Z AUTO 01011KT 9999NDV -SN OVC011/// M04/M06 Q1017=
201301120220 METAR ESMX 120220Z AUTO 35012KT 9999NDV -SN BKN011/// OVC016/// M04/M06 Q1017=
201301120150 METAR ESMX 120150Z AUTO 36012KT 9999NDV OVC012/// M04/M06 Q1016 RESG=
201301120120 METAR ESMX 120120Z AUTO 35013KT 9999NDV OVC011/// M04/M06 Q1017=
201301120050 METAR ESMX 120050Z AUTO 36014KT 9999NDV OVC011/// M04/M06 Q1016=
201301120020 METAR ESMX 120020Z AUTO 01014KT 9999NDV -SN OVC011/// M04/M06 Q1016=
201301112350 METAR ESMX 112350Z AUTO 35012KT 8000NDV -SN BKN011/// OVC016/// M04/M06 Q1016=
201301112320 METAR ESMX 112320Z AUTO 35014KT 6000NDV -SN BKN010/// OVC018/// M04/M06 Q1016=
201301112250 METAR ESMX 112250Z AUTO 01015KT 9999NDV SG OVC010/// M04/M06 Q1016=
201301112220 METAR ESMX 112220Z AUTO 01015KT 9999NDV -SN OVC011/// M04/M06 Q1015=
201301112150 METAR ESMX 112150Z AUTO 02014KT 9999NDV -SN OVC011/// M04/M06 Q1015=
201301112120 METAR ESMX 112120Z AUTO 01014KT 9999NDV -SN OVC012/// M04/M06 Q1015=
201301112050 METAR ESMX 112050Z AUTO 35014KT 9999NDV FZUP OVC012/// M04/M06 Q1015=
201301112020 METAR ESMX 112020Z AUTO 36014KT 9999NDV OVC012/// M04/M06 Q1015=
201301111950 METAR ESMX 111950Z 36013KT 9999 -SN OVC012 M04/M06 Q1014=
201301111920 METAR ESMX 111920Z 36014KT 9999 -SN OVC012 M04/M06 Q1014=
201301111850 METAR ESMX 111850Z 35014KT 9999 -SN OVC012 M04/M06 Q1014=
201301111820 METAR ESMX 111820Z 36011KT 5000 -SN OVC012 M04/M06 Q1014=
201301111750 METAR ESMX 111750Z 36011KT 5000 -SN OVC012 M04/M06 Q1014=
201301111720 METAR ESMX 111720Z 36013KT 9999 -SN OVC012 M04/M06 Q1014=
201301111650 METAR ESMX 111650Z 35014KT 9000 -SN OVC015 M04/M06 Q1013=
201301111620 METAR ESMX 111620Z 36014KT 8000 -SN OVC015 M04/M06 Q1013=
201301111550 METAR ESMX 111550Z 35014KT 9999 -SN FEW015 BKN021 M04/M07 Q1013=
201301111520 METAR ESMX 111520Z 35014KT 9999 -SN FEW015 BKN020 M04/M07 Q1013=
201301111450 METAR ESMX 111450Z 01014KT 9999 FEW015 BKN019 M04/M06 Q1013=
201301111420 METAR ESMX 111420Z 36013KT 9999 BKN015 M03/M06 Q1012=
201301111350 METAR ESMX 111350Z 36013KT 9000 -SG FEW006 BKN019 M03/M06 Q1012=
201301111320 METAR ESMX 111320Z 35013KT 3400 -SN FEW007 BKN020 M03/M05 Q1012=
201301111250 METAR ESMX 111250Z 01015KT 9999 -SN FEW017 SCT020 M03/M06 Q1012=
201301111220 METAR ESMX 111220Z 36015KT 9999 -SG FEW017 BKN020 M03/M06 Q1011=
201301111150 METAR ESMX 111150Z 01014KT 9999 FEW019 SCT024 M03/M06 Q1011=
201301111120 METAR ESMX 111120Z 36014KT 9999 FEW015 M03/M06 Q1011=
201301111050 METAR ESMX 111050Z 01015KT 9999 FEW016 SCT055 M03/M06 Q1011=
201301111020 METAR ESMX 111020Z 36013KT 9999 FEW015 SCT018 M03/M06 Q1011=
201301110950 METAR ESMX 110950Z 01014KT 9999 FEW018 SCT025 M03/M06 Q1011=
201301110920 METAR ESMX 110920Z 01013KT 9999 FEW018 BKN090 M03/M06 Q1011=
201301110850 METAR ESMX 110850Z 01013KT 9999 FEW019 SCT093 M03/M06 Q1010=
201301110820 METAR ESMX 110820Z 36012KT 9999 FEW016 SCT023 M03/M06 Q1010=
201301110750 METAR ESMX 110750Z 36012KT 9999 FEW017 SCT020 BKN025 M03/M06 Q1010=
201301110720 METAR ESMX 110720Z 02014KT 9999 FEW019 SCT032 BKN040 M03/M06 Q1010=
201301110650 METAR ESMX 110650Z 36011KT 9999 -SN FEW015 BKN021 M03/M06 Q1009=
201301110620 METAR ESMX 110620Z 01012KT 9999 -SN FEW015 SCT021 BKN024 M03/M05 Q1009=
201301110550 METAR ESMX 110550Z 36012KT 9999 -SN FEW015 BKN023 M03/M05 Q1008=
201301110520 METAR ESMX 110520Z 35011KT 9999 -SN FEW014 BKN019 M03/M05 Q1008=
201301110450 METAR ESMX 110450Z 34013KT 9999 -SN FEW014 BKN018 BKN024 M03/M05 Q1008=
201301110420 METAR ESMX 110420Z AUTO 35012KT 9000NDV -SN FEW016/// SCT019/// OVC021/// M03/M05 Q1008=
201301110350 METAR ESMX 110350Z AUTO 34012KT 9999NDV FEW014/// BKN017/// OVC020/// M03/M05 Q1008=
201301110320 METAR ESMX 110320Z AUTO 36014KT 9999NDV FEW014/// BKN017/// OVC021/// M03/M05 Q1008=
201301110250 METAR ESMX 110250Z AUTO 35013KT 9000NDV -SN FEW015/// OVC020/// M03/M05 Q1008=
201301110220 METAR ESMX 110220Z AUTO 34012KT 9999NDV -SN FEW016/// SCT019/// BKN025/// M03/M05 Q1008 RESG=
201301110150 METAR ESMX 110150Z 34012KT 9999 -SN FEW016 OVC018 M03/M05 Q1008=
201301110120 METAR ESMX 110120Z 35013KT 9999 -SN FEW015 SCT018 BKN022 M03/M05 Q1007=
201301110050 METAR ESMX 110050Z 34012KT 9999 -SN FEW014 BKN020 M03/M05 Q1007=
201301110020 METAR ESMX 110020Z 34012KT 9999 -SN FEW016 BKN022 M03/M05 Q1008=
201301102350 METAR ESMX 102350Z 35011KT 9999 -SN FEW015 SCT020 BKN025 M03/M05 Q1008=
201301102320 METAR ESMX 102320Z 36011KT 9999 -SN FEW015 BKN018 M03/M05 Q1008=
201301102250 METAR ESMX 102250Z 35010KT 9999 FEW016 SCT021 BKN024 M03/M05 Q1008=
201301102220 METAR ESMX 102220Z 35012KT 9999 -SN FEW027 BKN042 M03/M06 Q1008=
201301102150 METAR ESMX 102150Z 01012KT 9999 -SN FEW024 BKN040 M03/M06 Q1008=
201301102120 METAR ESMX 102120Z 01013KT 9999 -SN FEW020 SCT027 BKN031 M03/M06 Q1008=
201301102050 METAR ESMX 102050Z 36015KT 9999 FEW020 BKN037 M02/M06 Q1007=
201301102020 METAR ESMX 102020Z 36014KT 9999 -SN FEW016 SCT025 BKN041 M02/M05 Q1007=
201301101950 METAR ESMX 101950Z 35009KT 9999 FEW013 SCT016 BKN020 M03/M04 Q1007=
201301101920 METAR ESMX 101920Z 35008KT 9999 FEW012 SCT015 BKN018 M03/M04 Q1007=
201301101850 METAR ESMX 101850Z 01010KT 9999 -SN FEW014 SCT017 BKN020 M03/M05 Q1007=
201301101820 METAR ESMX 101820Z 02011KT 9999 -SN FEW015 BKN018 M03/M05 Q1007=
201301101750 METAR ESMX 101750Z 36011KT 9999 -SN FEW018 BKN022 M03/M06 Q1007=
201301101720 METAR ESMX 101720Z 01013KT 9999 -SN FEW020 SCT023 BKN029 M03/M06 Q1007=
201301101650 METAR ESMX 101650Z 01014KT 9999 -SN FEW018 BKN022 M03/M06 Q1006=
201301101620 METAR ESMX 101620Z 01014KT 9999 -SN BKN016 OVC022 M03/M06 Q1006=
201301101550 METAR ESMX 101550Z 35013KT 9999 -SN FEW014 BKN017 M03/M05 Q1006=
201301101520 METAR ESMX 101520Z 35012KT 9999 -SN FEW016 BKN019 M03/M05 Q1006=
201301101450 METAR ESMX 101450Z 35012KT 7000 -SN FEW017 BKN021 M02/M05 Q1006=
201301101420 METAR ESMX 101420Z 01012KT 6000 -SN FEW005 SCT017 BKN020 M03/M04 Q1006=
201301101350 METAR ESMX 101350Z 36012KT 9000 -SN FEW007 BKN021 M02/M05 Q1005=
201301101320 METAR ESMX 101320Z 35014KT 9999 -SN FEW018 BKN023 M02/M05 Q1005=
201301101250 METAR ESMX 101250Z 35015KT 9999 -SN FEW017 BKN020 M02/M05 Q1005=
201301101220 METAR ESMX 101220Z 35013KT 9999 FEW020 SCT035 M02/M05 Q1005=
201301101150 METAR ESMX 101150Z 35014KT 9999 -SN FEW016 BKN020 M02/M05 Q1005=
201301101120 METAR ESMX 101120Z 35012KT 9999 -SN FEW015 OVC020 M02/M05 Q1005=
201301101050 METAR ESMX 101050Z 35012KT 9999 FEW012 BKN016 M02/M04 Q1005=
201301101020 METAR ESMX 101020Z 35014KT 9999 FEW013 BKN019 M02/M05 Q1005=
201301100950 METAR ESMX 100950Z 34012KT 9999 FEW014 BKN018 M03/M05 Q1005=
201301100920 METAR ESMX 100920Z 01012KT 9999 FEW015 BKN018 M03/M05 Q1005=
201301100850 METAR ESMX 100850Z 36014KT 9999 FEW013 BKN016 M03/M05 Q1005 RESG=
201301100820 METAR ESMX 100820Z 02012KT 9999 OVC011 M03/M05 Q1005=
201301100750 METAR ESMX 100750Z 01018KT 9999 BKN013 M03/M05 Q1005=
201301100720 METAR ESMX 100720Z 36016KT 9999 BKN015 OVC020 M03/M05 Q1005=
201301100650 METAR ESMX 100650Z 01013KT 9999 SCT013 BKN018 M02/M05 Q1004=
201301100620 METAR ESMX 100620Z 01014KT 9999 FEW015 OVC018 M02/M05 Q1004=
201301100550 METAR ESMX 100550Z 01013KT 9999 FEW015 OVC018 M02/M05 Q1004=
201301100520 METAR ESMX 100520Z 02014KT 9999 FEW017 SCT021 BKN025 M02/M04 Q1004=
201301100450 METAR ESMX 100450Z 01012KT 9999 SCT017 BKN023 M01/M04 Q1004=
201301100420 METAR ESMX 100420Z AUTO 36014KT 9999NDV FEW017/// SCT023/// BKN027/// M01/M04 Q1003=
201301100350 METAR ESMX 100350Z AUTO 02013KT 9999NDV FEW015/// SCT018/// OVC020/// M01/M03 Q1003=
201301100320 METAR ESMX 100320Z AUTO 02013KT 9999NDV FEW013/// OVC018/// M01/M03 Q1003=
201301100250 METAR ESMX 100250Z AUTO 01016KT 9999NDV FEW011/// SCT013/// BKN016/// M01/M02 Q1003=
201301100220 METAR ESMX 100220Z AUTO 02016KT 3700NDV -SN FEW007/// SCT011/// BKN014/// M01/M02 Q1003=
201301100150 METAR ESMX 100150Z AUTO 01014KT 9999NDV FEW009/// SCT011/// BKN015/// 00/M01 Q1003=
201301100120 METAR ESMX 100120Z AUTO 01013KT 9999NDV FEW009/// BKN011/// BKN039/// 00/00 Q1003=
201301100050 METAR ESMX 100050Z 03013KT 9999 DZ FEW007 SCT011 BKN015 01/00 Q1003=
201301100020 METAR ESMX 100020Z 03011KT 9999 -DZ FEW007 BKN010 OVC013 01/01 Q1002=
201301092350 METAR ESMX 092350Z 02010KT 9999 DZ FEW005 BKN006 OVC010 02/02 Q1002=
201301092320 METAR ESMX 092320Z 01007KT 2400 DZ BKN001 OVC004 02/02 Q1002=
201301092250 METAR ESMX 092250Z 01005KT 0350 R01/1200N R19/1900U FG VV002 02/02 Q1002=
201301092220 METAR ESMX 092220Z 36005KT 0400 R01/1300D R19/1400V1900U FG VV002 02/02 Q1002=
201301092150 METAR ESMX 092150Z 01004KT 0450 R01/1300VP2000U R19/P2000N FG VV002 02/02 Q1003=
201301092120 METAR ESMX 092120Z 36003KT 0300 R01/1000N R19/1100N FG VV002 02/02 Q1003 REDZ=
201301092050 METAR ESMX 092050Z 01002KT 0500 R01/P2000N R19/1600N -RA VV002 03/02 Q1003=
201301092020 METAR ESMX 092020Z 05002KT 1200 R01/P2000N R19/P2000N -RA VV002 03/03 Q1004=
201301091950 METAR ESMX 091950Z 03002KT 1200 R01/P2000N R19/P2000N -RA OVC002 03/03 Q1004=
201301091920 METAR ESMX 091920Z VRB01KT 4000 -RA VV002 03/03 Q1005=
201301091850 METAR ESMX 091850Z VRB02KT 4200 -RA VV002 03/03 Q1005=
201301091820 METAR ESMX 091820Z 13003KT 100V160 4400 -RA VV002 03/03 Q1005=
201301091750 METAR ESMX 091750Z VRB02KT 2600 DZ OVC002 03/03 Q1006=
201301091720 METAR ESMX 091720Z VRB02KT 2000 -RA OVC002 03/03 Q1006=
201301091650 METAR ESMX 091650Z 14003KT 110V180 2200 -RA OVC002 03/03 Q1007=
201301091620 METAR ESMX 091620Z 16004KT 2700 -RA OVC002 03/03 Q1007 REDZ=
201301091550 METAR ESMX 091550Z 17005KT 1500 DZ OVC002 03/03 Q1008=
201301091520 METAR ESMX 091520Z 17005KT 2500 BR OVC002 03/03 Q1008=
201301091450 METAR ESMX 091450Z 17005KT 2200 BR OVC002 03/03 Q1009=
201301091420 METAR ESMX 091420Z 16005KT 3500 OVC002 03/03 Q1009=
201301091350 METAR ESMX 091350Z 18006KT 1400 R01/P2000N R19/P2000N BR OVC002 03/03 Q1010=
201301091320 METAR ESMX 091320Z 17008KT 0500 R01/1000N R19/1200N FG VV002 03/03 Q1010=
201301091250 METAR ESMX 091250Z 18008KT 0750 R01/1100V1600D R19/P2000D FG OVC002 03/03 Q1011=
201301091220 METAR ESMX 091220Z 17007KT 1300 R01/1900N R19/P2000N OVC002 03/03 Q1011=
201301091150 METAR ESMX 091150Z 17008KT 1300 R01/P2000D R19/P2000N BR OVC002 03/03 Q1012=
201301091120 METAR ESMX 091120Z 18008KT 4000 -DZ OVC002 03/02 Q1012=
201301091050 METAR ESMX 091050Z 17007KT 8000 BR OVC001 03/02 Q1013=
201301091020 METAR ESMX 091020Z 18007KT 7000 BR OVC001 03/02 Q1013=
201301090950 METAR ESMX 090950Z 18006KT 4000 BR OVC002 02/02 Q1014=
201301090920 METAR ESMX 090920Z 17006KT 3400 BR OVC001 02/02 Q1014=
201301090850 METAR ESMX 090850Z 17005KT 2200 BR VV002 02/01 Q1014=
201301090820 METAR ESMX 090820Z 18005KT 1600 BR VV002 02/01 Q1015=
201301090750 METAR ESMX 090750Z 18005KT 0900 R01/P2000N R19/P2000N FG VV002 01/01 Q1015=
201301090720 METAR ESMX 090720Z 17005KT 0550 R01/1500N R19/1900D FG VV002 01/01 Q1015=
201301090650 METAR ESMX 090650Z 17004KT 0400 R01/1300U R19/1400U FG VV002 01/01 Q1015=
201301090620 METAR ESMX 090620Z 18004KT 0400 R01/1300N R19/1500U FG VV002 01/01 Q1016=
201301090550 METAR ESMX 090550Z 19003KT 0600 R01/1900D R19/P2000D FG VV002 01/01 Q1016=
201301090520 METAR ESMX 090520Z 17003KT 0900 R01/P2000N R19/P2000N FG VV002 01/01 Q1016=
201301090450 METAR ESMX 090450Z 23004KT 0600 R01/P2000N R19/1400VP2000N FG VV002 01/01 Q1017=
201301090420 METAR ESMX 090420Z AUTO 23003KT 0500NDV R01/1600N R19/1700U FG VV002 01/00 Q1017=
201301090350 METAR ESMX 090350Z AUTO 26003KT 0400NDV R01/1300N R19/1200V1600N FG VV002 01/00 Q1017=
201301090320 METAR ESMX 090320Z AUTO 23003KT 0500NDV R01/1500D R19/1900D FG VV002 00/00 Q1018=
201301090250 METAR ESMX 090250Z AUTO 25007KT 0900NDV R01/P2000N R19/P2000N VV002 00/M00 Q1018=
201301090220 METAR ESMX 090220Z AUTO 24006KT 0350NDV R01/1100V1900U R19/1100U FG VV001 00/M00 Q1018=
201301090150 METAR ESMX 090150Z AUTO 26004KT 220V290 0250NDV R01/0900 R19/0900N FG VV001 00/M00 Q1018=
201301090120 METAR ESMX 090120Z AUTO 26005KT 0200NDV R01/0900N R19/0800 FG VV001 00/M00 Q1018=
201301090050 METAR ESMX 090050Z 24005KT 210V280 0300 R01/1100N R19/1100N FG VV002 00/M00 Q1018=
201301090020 METAR ESMX 090020Z 25005KT 0350 R01/1100U R19/1100V1900N FG VV002 00/00 Q1019=
201301082350 METAR ESMX 082350Z 26005KT 240V320 0350 R01/1300N R19/1000V1700D FG VV002 00/00 Q1019=
201301082320 METAR ESMX 082320Z 28003KT 230V300 0500 R01/1200V1900D R19/P2000N FG VV002 01/00 Q1019=
201301082250 METAR ESMX 082250Z 28005KT 0650 R01/P2000D R19/P2000N FG VV002 01/00 Q1019=
201301082220 METAR ESMX 082220Z VRB02KT 9999 OVC002 01/00 Q1019=
201301082150 METAR ESMX 082150Z 29003KT 260V350 9999 OVC002 01/01 Q1019=
201301082120 METAR ESMX 082120Z 29004KT 9999 OVC002 01/01 Q1019=
201301082050 METAR ESMX 082050Z 34004KT 310V010 9999 OVC004 01/01 Q1019=
201301082020 METAR ESMX 082020Z 31004KT 9999 OVC004 01/01 Q1019=
201301081950 METAR ESMX 081950Z 32004KT 9999 OVC004 02/01 Q1019=
201301081920 METAR ESMX 081920Z 33005KT 300V010 9999 OVC005 02/01 Q1018=
201301081850 METAR ESMX 081850Z 33005KT 9999 OVC003 02/01 Q1018=
201301081820 METAR ESMX 081820Z 34004KT 9999 OVC004 02/01 Q1018=
201301081750 METAR ESMX 081750Z 35005KT 9999 OVC004 02/01 Q1018=
201301081720 METAR ESMX 081720Z 35007KT 9999 OVC004 02/01 Q1018=
201301081650 METAR ESMX 081650Z 33008KT 9999 OVC004 02/02 Q1018=
201301081620 METAR ESMX 081620Z 33009KT 9999 OVC003 02/02 Q1018=
201301081550 METAR ESMX 081550Z 35005KT 1600 BR VV002 02/02 Q1018=
201301081520 METAR ESMX 081520Z 33004KT 3300 BR VV002 02/02 Q1017=
201301081450 METAR ESMX 081450Z 30004KT 3000 BR OVC002 02/02 Q1017=
201301081420 METAR ESMX 081420Z 31004KT 1500 BR VV002 02/02 Q1017=
201301081350 METAR ESMX 081350Z 28003KT 240V300 2000 BR VV002 02/02 Q1016=
201301081320 METAR ESMX 081320Z 27003KT 2300 BR OVC001 02/02 Q1016=
201301081250 METAR ESMX 081250Z 26004KT 2000 BR VV002 02/02 Q1016=
201301081220 METAR ESMX 081220Z 25004KT 2000 BR VV002 02/02 Q1016=
201301081150 METAR ESMX 081150Z 23005KT 1200 R01/1700U R19/1800U VV002 02/01 Q1016=
201301081120 METAR ESMX 081120Z 20005KT 0500 R01/0900N R19/1000N FG VV002 02/01 Q1016=
201301081050 METAR ESMX 081050Z VRB02KT 0400 R01/0800N R19/0900U FG VV002 01/01 Q1017=
201301081020 METAR ESMX 081020Z 21003KT 0250 R01/0650N R19/0650N FG VV002 01/01 Q1017=
201301080950 METAR ESMX 080950Z 19003KT 0200 R01/0550N R19/0550N FG VV002 01/01 Q1017=
201301080920 METAR ESMX 080920Z 16004KT 0200 R01/0600N R19/0600N FG VV002 01/01 Q1017=
201301080850 METAR ESMX 080850Z 17003KT 0250 R01/0700N R19/0700N FG VV002 01/01 Q1017=
201301080820 METAR ESMX 080820Z 18004KT 0350 R01/0900N R19/0900N FG VV002 01/01 Q1017=
201301080750 METAR ESMX 080750Z 19004KT 0450 R01/1200D R19/1300N FG VV002 01/01 Q1017=
201301080720 METAR ESMX 080720Z 18004KT 0400 R01/1400N R19/1200N FG VV002 01/01 Q1017=
201301080650 METAR ESMX 080650Z 17004KT 0400 R01/1300N R19/1300D FG VV002 01/01 Q1017=
201301080620 METAR ESMX 080620Z 17007KT 0400 R01/1400N R19/1600U FG VV002 01/00 Q1017=
201301080550 METAR ESMX 080550Z 17007KT 0550 R01/1700D R19/1900N FG VV002 01/00 Q1017=
201301080520 METAR ESMX 080520Z 18007KT 0500 R01/1600N R19/1900D FG VV002 01/00 Q1018=
201301080450 METAR ESMX 080450Z 17007KT 0500 R01/1600N R19/1700N FG VV002 01/00 Q1018=
201301080420 METAR ESMX 080420Z AUTO 17006KT 0700NDV R01/P2000D R19/P2000N FG VV002 01/00 Q1018=
201301080350 METAR ESMX 080350Z AUTO 18008KT 1600NDV BR OVC001/// 01/00 Q1019=
201301080320 METAR ESMX 080320Z AUTO 17008KT 1600NDV BR OVC001/// 00/00 Q1019=
201301080250 METAR ESMX 080250Z AUTO 16007KT 130V200 1600NDV OVC001/// 00/M00 Q1019=
201301080220 METAR ESMX 080220Z AUTO 16007KT 140V200 1000NDV R01/P2000N R19/P2000N OVC001/// 00/M00 Q1020=
201301080150 METAR ESMX 080150Z AUTO 17008KT 0800NDV R01/P2000N R19/P2000N FG VV002 00/M00 Q1021=
201301080120 METAR ESMX 080120Z AUTO 17007KT 1700NDV BR OVC001/// 00/M00 Q1021=
201301080050 METAR ESMX 080050Z 16007KT 2000 -DZ OVC002 00/M00 Q1021=
201301080020 METAR ESMX 080020Z 16007KT 4300 BR OVC002 M00/M01 Q1022=
201301072350 METAR ESMX 072350Z 17006KT 7000 BR OVC004 M00/M01 Q1022=
201301072320 METAR ESMX 072320Z 17006KT 9999 OVC005 M00/M01 Q1022=
201301072250 METAR ESMX 072250Z 17007KT 9999 OVC005 M00/M01 Q1023=
201301072220 METAR ESMX 072220Z 17006KT 140V200 9999 OVC006 M00/M01 Q1023=
201301072150 METAR ESMX 072150Z 17006KT 9999 FEW006 BKN008 OVC009 M00/M01 Q1023=
201301072120 METAR ESMX 072120Z 18006KT 9999 FEW007 OVC008 M00/M01 Q1024=
201301072050 METAR ESMX 072050Z 18003KT 9999 FEW008 OVC054 M00/M01 Q1024=
201301072020 METAR ESMX 072020Z 18006KT 9999 FEW008 BKN055 M00/M01 Q1024=
201301071950 METAR ESMX 071950Z 17006KT 9999 FEW005 SCT008 OVC010 00/M01 Q1024=
201301071920 METAR ESMX 071920Z 18006KT 9999 OVC004 00/M01 Q1025=
201301071850 METAR ESMX 071850Z 18006KT 9999 OVC003 00/M01 Q1025=
201301071820 METAR ESMX 071820Z 18006KT 9999 OVC003 M00/M01 Q1025=
201301071750 METAR ESMX 071750Z 17006KT 9999 BKN002 OVC004 M00/M01 Q1025=
201301071720 METAR ESMX 071720Z 18006KT 9999 BKN002 OVC004 M00/M01 Q1025=
201301071650 METAR ESMX 071650Z 18006KT 9999 OVC002 M00/M01 Q1025=
201301071620 METAR ESMX 071620Z 17005KT 8000 BR OVC002 M00/M01 Q1025=
201301071550 METAR ESMX 071550Z 17004KT 8000 BR OVC002 M00/M01 Q1026=
201301071520 METAR ESMX 071520Z 18006KT 9999 BKN002 M00/M01 Q1026=
201301071450 METAR ESMX 071450Z 17005KT 9999 BKN002 M00/M01 Q1026=
201301071420 METAR ESMX 071420Z 18004KT 9999 BKN003 OVC076 M00/M01 Q1026=
201301071350 METAR ESMX 071350Z 18004KT 9999 SCT003 BKN076 00/M01 Q1026=
201301071320 METAR ESMX 071320Z 16004KT 140V200 9999 SCT003 BKN028 OVC076 M00/M01 Q1026=
201301071250 METAR ESMX 071250Z 15005KT 120V180 9999 FEW003 SCT048 BKN078 M00/M01 Q1026=
201301071220 METAR ESMX 071220Z 16004KT 9999 FEW005 BKN024 OVC080 M00/M01 Q1026=
201301071150 METAR ESMX 071150Z 17003KT 9999 BKN024 M00/M01 Q1027=
201301071120 METAR ESMX 071120Z 18004KT 9999 FEW019 BKN022 M01/M01 Q1027=
201301071050 METAR ESMX 071050Z 18005KT 9999 FEW017 OVC020 M01/M01 Q1027=
201301071020 METAR ESMX 071020Z VRB03KT 9999 FEW002 BKN020 M01/M01 Q1027=
201301070950 METAR ESMX 070950Z 18003KT 9999 BKN020 M01/M02 Q1027=
201301070920 METAR ESMX 070920Z 18003KT 9999 BKN020 M02/M02 Q1027=
201301070850 METAR ESMX 070850Z 17003KT 9999 SCT020 BKN086 M02/M02 Q1027=
201301070820 METAR ESMX 070820Z VRB01KT 9999 SCT019 BKN085 M03/M04 Q1027=
201301070750 METAR ESMX 070750Z VRB01KT 9999 BKN019 M04/M04 Q1027=
201301070720 METAR ESMX 070720Z 12001KT 9999 BKN019 M04/M05 Q1027=
201301070650 METAR ESMX 070650Z 09001KT 9999 BCFG BKN019 M05/M05 Q1027=
201301070620 METAR ESMX 070620Z 00000KT 0150 R01/0200V1100 R19/1000V1800N FZFG BKN002 M05/M05 Q1027=
201301070550 METAR ESMX 070550Z 36001KT 0200 R01/0900U R19/0750 FZFG VV002 M05/M05 Q1027=
201301070520 METAR ESMX 070520Z 00000KT 0300 R01/0900 R19/0800 FZFG VV002 M04/M05 Q1027=
201301070450 METAR ESMX 070450Z 00000KT 0350 R01/1000V1600U R19/P2000N FZFG VV002 M05/M05 Q1027=
201301070420 METAR ESMX 070420Z AUTO 00000KT 0450NDV R01/0900VP2000D R19/P2000N=
201301070350 METAR ESMX 070350Z AUTO 00000KT 0800NDV R01/P2000N R19/P2000N BCFG NCD M04/M05 Q1027=
201301070320 METAR ESMX 070320Z AUTO 00000KT 2800NDV NCD M04/M04 Q1027=
201301070250 METAR ESMX 070250Z AUTO 25001KT 1900NDV BR NCD M04/M04 Q1027=
201301070220 METAR ESMX 070220Z AUTO 00000KT 7000NDV NCD M03/M04 Q1027=
201301070150 METAR ESMX 070150Z AUTO VRB01KT 9999NDV NCD M03/M03 Q1027=
201301070120 METAR ESMX 070120Z AUTO 31002KT 8000NDV BCFG FEW099/// M03/M03 Q1027=
201301070050 METAR ESMX 070050Z AUTO 00000KT 0400NDV R01/P2000N R19/P2000D BR NCD M02/M03 Q1026=
201301070020 METAR ESMX 070020Z AUTO 00000KT 9000NDV NCD M02/M02 Q1026=
201301062350 METAR ESMX 062350Z 02001KT CAVOK M01/M02 Q1026=
201301062320 METAR ESMX 062320Z 07003KT 030V100 CAVOK M00/M01 Q1026=
201301062250 METAR ESMX 062250Z VRB02KT CAVOK M00/M01 Q1026=
201301062220 METAR ESMX 062220Z 06002KT CAVOK M00/M01 Q1026=
201301062150 METAR ESMX 062150Z 04002KT 9999 SCT015 BKN080 00/M01 Q1026=
201301062120 METAR ESMX 062120Z 08001KT 9999 SCT015 BKN090 00/M01 Q1026=
201301062050 METAR ESMX 062050Z 08003KT 050V110 9999 SCT015 BKN097 00/M01 Q1025=
201301062020 METAR ESMX 062020Z 08004KT 050V120 9999 OVC014 00/M01 Q1025=
201301061950 METAR ESMX 061950Z 08003KT 040V120 9999 FEW008 BKN016 01/M01 Q1025=
201301061920 METAR ESMX 061920Z 08003KT 9999 SCT007 OVC012 01/M01 Q1024=
201301061850 METAR ESMX 061850Z 08005KT 020V110 9999 BKN005 OVC008 01/M00 Q1024=
201301061820 METAR ESMX 061820Z 07005KT 030V120 9999 OVC006 01/M00 Q1024=
201301061750 METAR ESMX 061750Z 08004KT 040V120 9999 BKN007 OVC010 01/M00 Q1023=
201301061720 METAR ESMX 061720Z 08005KT 040V110 9999 BKN006 OVC009 01/00 Q1023=
201301061650 METAR ESMX 061650Z 06005KT 010V120 9999 FEW005 OVC007 01/00 Q1022=
201301061620 METAR ESMX 061620Z 04004KT 9999 FEW006 OVC008 01/00 Q1022=
201301061550 METAR ESMX 061550Z 03003KT 9999 FEW007 OVC008 01/01 Q1022=
201301061520 METAR ESMX 061520Z 05003KT 020V080 9999 SCT005 OVC007 01/01 Q1022=
201301061450 METAR ESMX 061450Z 03004KT 350V060 9999 OVC005 01/01 Q1021=
201301061420 METAR ESMX 061420Z 04004KT 9999 OVC006 01/01 Q1021=
201301061350 METAR ESMX 061350Z 03004KT 350V070 9999 OVC006 01/01 Q1020=
201301061320 METAR ESMX 061320Z 05004KT 020V080 9999 OVC006 01/01 Q1020=
201301061250 METAR ESMX 061250Z 05004KT 030V100 9999 OVC006 01/00 Q1019=
201301061220 METAR ESMX 061220Z AUTO 03004KT 9999NDV FEW009/// BKN017/// OVC025/// 01/00 Q1020=
201301061150 METAR ESMX 061150Z AUTO 04003KT 9999NDV FEW003/// SCT005/// BKN032/// 01/00 Q1019=
201301061120 METAR ESMX 061120Z AUTO 04004KT 9999NDV OVC003/// 01/00 Q1019=
201301061050 METAR ESMX 061050Z AUTO 04006KT 9999NDV OVC002/// 00/00 Q1019=
201301061020 METAR ESMX 061020Z AUTO 03005KT 9999NDV OVC002/// 00/00 Q1019=
201301060950 METAR ESMX 060950Z AUTO 02005KT 8000NDV OVC001/// 00/00 Q1019=
201301060920 METAR ESMX 060920Z AUTO 01005KT 0900NDV R01/1100VP2000N R19/P2000N FG VV002 00/00 Q1019=
201301060850 METAR ESMX 060850Z AUTO 02002KT 0450NDV R01/1000N R19/0900V1200N FG VV002 00/M00 Q1019=
201301060820 METAR ESMX 060820Z AUTO 02003KT 0300NDV R01/0900N R19/0800 FG VV003 00/M00 Q1019=
201301060750 METAR ESMX 060750Z AUTO 02003KT 0200NDV R01/0650N R19/0800 FG VV001 00/M00 Q1019=
201301060720 METAR ESMX 060720Z AUTO 33001KT 0150NDV R01/0650N R19/0700N FG VV001 00/M00 Q1019=
201301060650 METAR ESMX 060650Z AUTO 23001KT 0250NDV R01/0900N R19/0900N FG VV001 00/M00 Q1019=
201301060620 METAR ESMX 060620Z AUTO 00000KT 0150NDV R01/0600N R19/0550N FG VV000 00/M00 Q1019=
201301060550 METAR ESMX 060550Z AUTO 00000KT 0200NDV R01/0750N R19/0800N FG VV001 00/M00 Q1019=
201301060520 METAR ESMX 060520Z AUTO VRB01KT 0200NDV R01/1100N R19/0800N FG VV001 00/M00 Q1019=
201301060450 METAR ESMX 060450Z AUTO VRB01KT 0250NDV R01/0900D R19/0900N FG VV001 00/M00 Q1019=
201301060420 METAR ESMX 060420Z AUTO 16001KT 0200NDV R01/1000U R19/0800N FG VV001 00/M00 Q1020=
201301060350 METAR ESMX 060350Z AUTO 00000KT 0200NDV R01/0800N R19/0800N FG VV001 00/M00 Q1020=
201301060320 METAR ESMX 060320Z AUTO VRB01KT 0250NDV R01/0900N R19/1000N FG VV002 00/M00 Q1021=
201301060250 METAR ESMX 060250Z AUTO 18003KT 1000NDV R01/P2000N R19/P2000N BR VV002 00/M00 Q1021=
201301060220 METAR ESMX 060220Z AUTO 21003KT 9999NDV OVC001/// M00/M00 Q1021=
201301060150 METAR ESMX 060150Z AUTO VRB02KT 9999NDV OVC005/// M00/M01 Q1022=
201301060120 METAR ESMX 060120Z AUTO 21003KT 9999NDV OVC048/// M00/M01 Q1022=
201301060050 METAR ESMX 060050Z AUTO 14001KT 9999NDV OVC045/// M00/M01 Q1022=
201301060020 METAR ESMX 060020Z AUTO 15002KT 9999NDV OVC041/// M00/M01 Q1023=
201301052350 METAR ESMX 052350Z AUTO VRB02KT 9999NDV FEW039/// SCT044/// OVC055/// M00/M01 Q1023=
201301052320 METAR ESMX 052320Z AUTO 20001KT 9999NDV OVC047/// M00/M01 Q1023=
201301052250 METAR ESMX 052250Z AUTO 17002KT 9999NDV FEW046/// OVC057/// M00/M01 Q1024=
201301052220 METAR ESMX 052220Z AUTO 19002KT 9999NDV OVC057/// M01/M01 Q1024=
201301052150 METAR ESMX 052150Z AUTO 16001KT 9999NDV BKN047/// OVC063/// M01/M01 Q1024=
201301052120 METAR ESMX 052120Z AUTO 00000KT 9999NDV OVC043/// M01/M01 Q1025=
201301052050 METAR ESMX 052050Z 11002KT 9999 OVC045 M01/M01 Q1025=
201301052020 METAR ESMX 052020Z AUTO 00000KT 9999NDV OVC043/// M01/M01 Q1025=
201301051950 METAR ESMX 051950Z AUTO 00000KT 9999NDV BKN044/// M01/M01 Q1025=
201301051920 METAR ESMX 051920Z AUTO 25002KT 9999NDV FEW002/// BKN046/// BKN088/// M01/M01 Q1025=
201301051850 METAR ESMX 051850Z AUTO 26002KT 9999NDV OVC001/// M01/M02 Q1026=
201301051820 METAR ESMX 051820Z AUTO VRB02KT 6000NDV BR OVC001/// M01/M02 Q1026=
201301051750 METAR ESMX 051750Z AUTO 25003KT 7000NDV BKN001/// M02/M02 Q1026=
201301051720 METAR ESMX 051720Z AUTO 26003KT 8000NDV VV001 M02/M02 Q1026=
201301051650 METAR ESMX 051650Z AUTO 17002KT 0350NDV R01/P2000N R19/1100N FZFG VV001 M02/M02 Q1026=
201301051620 METAR ESMX 051620Z AUTO 25001KT 0400NDV R01/1200V1800D R19/1400VP2000D FZFG VV001 M02/M02 Q1026=
201301051550 METAR ESMX 051550Z AUTO 30002KT 0650NDV R01/P2000N R19/P2000D FZFG VV001 M01/M02 Q1026=
201301051520 METAR ESMX 051520Z AUTO VRB02KT 4700NDV BR VV002 M01/M02 Q1026=
201301051450 METAR ESMX 051450Z AUTO 29004KT 4600NDV BR VV001 M01/M01 Q1026=
201301051420 METAR ESMX 051420Z 28004KT 2500 BR OVC002 M01/M01 Q1027=
201301051350 METAR ESMX 051350Z 28005KT 1700 OVC002 M01/M01 Q1027=
201301051320 METAR ESMX 051320Z 28003KT 1100 R01/1100VP2000N R19/1300VP2000U BR OVC002 M01/M01 Q1027=
201301051250 METAR ESMX 051250Z 30005KT 4000 OVC002 M01/M01 Q1027=
201301051220 METAR ESMX 051220Z AUTO 30005KT 1700NDV BKN001/// M01/M01 Q1026=
201301051150 METAR ESMX 051150Z AUTO 29005KT 0650NDV R01/1000V1700D R19/0800V1600N FZFG OVC001/// M01/M01 Q1027=
201301051120 METAR ESMX 051120Z AUTO 28004KT 0700NDV R01/1000U R19/P2000N FZFG VV001 M01/M01 Q1026=
201301051050 METAR ESMX 051050Z AUTO 28005KT 4800NDV VV001 M01/M02 Q1026=
201301051020 METAR ESMX 051020Z AUTO 28006KT 0800NDV R01/0900V1600N R19/P2000N=
201301050950 METAR ESMX 050950Z AUTO 27003KT 6000NDV NCD M01/M02 Q1026=
201301050920 METAR ESMX 050920Z AUTO 28004KT 0500NDV R01/0800N R19/1300VP2000D=
201301050850 METAR ESMX 050850Z AUTO 28004KT 0450NDV R01/0900D R19/0900V1500=
201301050820 METAR ESMX 050820Z AUTO VRB02KT 1300NDV R01/P2000N R19/P2000N NCD M02/M03 Q1026=
201301050750 METAR ESMX 050750Z AUTO 29006KT 2900NDV NCD M03/M03 Q1025=
201301050720 METAR ESMX 050720Z AUTO 29005KT 9999NDV NCD M02/M03 Q1025=
201301050650 METAR ESMX 050650Z AUTO 30003KT 9999NDV NCD M02/M03 Q1025=
201301050620 METAR ESMX 050620Z AUTO 28003KT 9999NDV NCD M01/M02 Q1024=
201301050550 METAR ESMX 050550Z AUTO 34005KT 9999NDV NCD M01/M01 Q1024=
201301050520 METAR ESMX 050520Z AUTO 34007KT 9999NDV NCD M01/M01 Q1023=
201301050450 METAR ESMX 050450Z AUTO 31006KT 9999NDV NCD M01/M02 Q1023=
201301050420 METAR ESMX 050420Z AUTO 31003KT 290V350 9999NDV NCD M01/M01 Q1023=
201301050350 METAR ESMX 050350Z AUTO 34003KT 9999NDV NCD M01/M01 Q1022=
201301050320 METAR ESMX 050320Z AUTO 36004KT 2300NDV BR NCD M01/M01 Q1022=
201301050250 METAR ESMX 050250Z AUTO 01005KT 1500NDV NCD M00/M01 Q1022=
201301050220 METAR ESMX 050220Z AUTO 36005KT 9999NDV NCD M00/M01 Q1021=
201301050150 METAR ESMX 050150Z AUTO 35007KT 9999NDV NCD 00/M00 Q1021=
201301050120 METAR ESMX 050120Z AUTO 35005KT 9999NDV NCD 00/M00 Q1021=
201301050050 METAR ESMX 050050Z AUTO 01007KT 9999NDV NCD 01/00 Q1021=
201301050020 METAR ESMX 050020Z AUTO 36007KT 9999NDV NCD 01/01 Q1020=
201301042350 METAR ESMX 042350Z AUTO 34006KT 9999NDV NCD 02/01 Q1020=
201301042320 METAR ESMX 042320Z AUTO 36006KT 9999NDV NCD 02/01 Q1019=
201301042250 METAR ESMX 042250Z AUTO 35005KT 9999NDV NCD 02/01 Q1019=
201301042220 METAR ESMX 042220Z AUTO 35006KT 310V010 9999NDV BKN010/// 04/03 Q1018=
201301042150 METAR ESMX 042150Z AUTO 33007KT 9999NDV FEW004/// BKN005/// OVC011/// 04/03 Q1018=
201301042120 METAR ESMX 042120Z AUTO 33004KT 9999NDV FEW006/// OVC030/// 03/03 Q1018=
201301042050 METAR ESMX 042050Z AUTO 32005KT 9999NDV FEW004/// BKN029/// OVC048/// 04/03 Q1018=
201301042020 METAR ESMX 042020Z AUTO 31004KT 9999NDV -RA OVC003/// 04/04 Q1017=
201301041950 METAR ESMX 041950Z AUTO 29004KT 9999NDV -DZ OVC003/// 04/04 Q1017 REDZ=
201301041920 METAR ESMX 041920Z AUTO 28004KT 9999NDV OVC002/// 04/04 Q1016=
201301041850 METAR ESMX 041850Z 28003KT 9999 OVC003 05/04 Q1016=
201301041820 METAR ESMX 041820Z 28004KT 5000 BR SCT002 OVC007 05/04 Q1016=
201301041750 METAR ESMX 041750Z 28004KT 8000 BR SCT003 BKN010 05/04 Q1016=
201301041720 METAR ESMX 041720Z 26004KT 6000 -DZ FEW011 SCT036 04/04 Q1016=
201301041650 METAR ESMX 041650Z 28003KT 7000 BR OVC011 05/04 Q1015 REDZ=
201301041620 METAR ESMX 041620Z 27004KT 9999 -DZ OVC011 05/04 Q1015=
201301041550 METAR ESMX 041550Z 27003KT 9999 OVC013 05/03 Q1015=
201301041520 METAR ESMX 041520Z 25003KT 220V290 9999 OVC010 05/03 Q1015=
201301041450 METAR ESMX 041450Z 27004KT 9999 OVC011 05/03 Q1015=
201301041420 METAR ESMX 041420Z 28004KT 9999 FEW014 OVC018 05/03 Q1015=
201301041350 METAR ESMX 041350Z 28004KT 9999 OVC014 06/03 Q1015=
201301041320 METAR ESMX 041320Z 29006KT 9999 OVC013 06/03 Q1015=
201301041250 METAR ESMX 041250Z AUTO 29006KT 250V330 9999NDV OVC014/// 06/03 Q1015=
201301041220 METAR ESMX 041220Z AUTO 28007KT 250V320 9999NDV OVC015/// 06/03 Q1014=
201301041150 METAR ESMX 041150Z AUTO 27006KT 9999NDV FEW017/// 05/02 Q1015=
201301041120 METAR ESMX 041120Z AUTO 28007KT 9999NDV NCD 05/02 Q1015=
201301041050 METAR ESMX 041050Z AUTO 28007KT 9999NDV NCD 05/02 Q1015=
201301041020 METAR ESMX 041020Z AUTO 28009KT 9999NDV SCT015/// 05/02 Q1015=
201301040950 METAR ESMX 040950Z AUTO 25007KT 9000NDV BR SCT016/// 04/02 Q1016=
201301040920 METAR ESMX 040920Z AUTO 27007KT 9000NDV BR NCD 03/01 Q1015=
201301040850 METAR ESMX 040850Z AUTO 27007KT 9999NDV NCD 03/01 Q1016=
201301040820 METAR ESMX 040820Z AUTO 28006KT 9999NDV NCD 03/01 Q1015=
201301040750 METAR ESMX 040750Z AUTO 28008KT 9999NDV NCD 03/01 Q1016=
201301040720 METAR ESMX 040720Z AUTO 25005KT 9999NDV NCD 02/00 Q1016=
201301040650 METAR ESMX 040650Z AUTO 28005KT 9999NDV NCD 02/00 Q1016=
201301040620 METAR ESMX 040620Z AUTO 28007KT 9999NDV NCD 02/00 Q1015=
201301040550 METAR ESMX 040550Z AUTO 28006KT 9999NDV NCD 02/00 Q1016=
201301040520 METAR ESMX 040520Z AUTO 28006KT 9999NDV NCD 03/00 Q1016=
201301040450 METAR ESMX 040450Z AUTO 27008KT 9999NDV NCD 03/00 Q1015=
201301040420 METAR ESMX 040420Z AUTO 27009KT 9999NDV NCD 03/00 Q1015=
201301040350 METAR ESMX 040350Z AUTO 27009KT 9999NDV NCD 03/00 Q1014=
201301040320 METAR ESMX 040320Z AUTO 28009KT 9999NDV NCD 03/00 Q1015=
201301040250 METAR ESMX 040250Z AUTO 28010KT 9999NDV NCD 03/00 Q1014=
201301040220 METAR ESMX 040220Z AUTO 28012KT 9999NDV NCD 03/01 Q1014=
201301040150 METAR ESMX 040150Z 28012KT CAVOK 04/01 Q1014=
201301040120 METAR ESMX 040120Z 28013KT CAVOK 04/01 Q1014=
201301040050 METAR ESMX 040050Z 28011KT CAVOK 04/01 Q1013=
201301040020 METAR ESMX 040020Z 28011KT CAVOK 04/01 Q1013=
201301032350 METAR ESMX 032350Z 28011KT CAVOK 04/01 Q1012=
201301032320 METAR ESMX 032320Z 28013KT CAVOK 04/01 Q1012=
201301032250 METAR ESMX 032250Z 28012KT CAVOK 04/01 Q1012=
201301032220 METAR ESMX 032220Z 28012KT CAVOK 04/01 Q1012=
201301032150 METAR ESMX 032150Z 29013KT CAVOK 04/01 Q1012=
201301032120 METAR ESMX 032120Z 28012KT CAVOK 04/02 Q1011=
201301032050 METAR ESMX 032050Z 28012KT CAVOK 04/02 Q1010=
201301032020 METAR ESMX 032020Z 28013KT CAVOK 04/02 Q1009=
201301031950 METAR ESMX 031950Z 27013KT CAVOK 05/02 Q1009=
201301031920 METAR ESMX 031920Z 28014KT CAVOK 05/02 Q1009=
201301031850 METAR ESMX 031850Z 28014KT CAVOK 05/02 Q1008=
201301031820 METAR ESMX 031820Z 28015KT 9999 FEW018 05/02 Q1008=
201301031750 METAR ESMX 031750Z 28014KT 9999 FEW019 05/03 Q1008=
201301031720 METAR ESMX 031720Z 28015KT 9999 SCT015 05/03 Q1007=
201301031650 METAR ESMX 031650Z 28014KT 9999 FEW017 SCT019 06/03 Q1006=
201301031620 METAR ESMX 031620Z 28014KT 9999 FEW017 SCT018 06/03 Q1006=
201301031550 METAR ESMX 031550Z 27013KT 240V300 9999 FEW017 BKN020 06/04 Q1005=
201301031520 METAR ESMX 031520Z 27014KT 9999 FEW016 OVC020 06/04 Q1005=
201301031450 METAR ESMX 031450Z 28012G22KT 9999 FEW016 SCT019 OVC021 06/04 Q1005=
201301031420 METAR ESMX 031420Z 28015KT 250V310 9999 FEW015 SCT019 OVC021 06/04 Q1005=
201301031350 METAR ESMX 031350Z 28018G33KT 240V300 9999 BKN015 07/04 Q1004=
201301031320 METAR ESMX 031320Z 27020G30KT 9999 FEW011 OVC014 07/05 Q1004=
201301031250 METAR ESMX 031250Z 26013G26KT 210V290 9999 FEW007 SCT010 BKN013 07/05 Q1004=
201301031220 METAR ESMX 031220Z 27014KT 9999 BKN006 07/05 Q1004=
201301031150 METAR ESMX 031150Z 27014KT 250V310 5000 BR OVC005 06/05 Q1004=
201301031120 METAR ESMX 031120Z 27013KT 5000 BR OVC006 07/05 Q1004=
201301031050 METAR ESMX 031050Z 26012G22KT 4700 BR OVC004 07/06 Q1004=
201301031020 METAR ESMX 031020Z 26013KT 3900 BR OVC004 06/05 Q1004=
201301030950 METAR ESMX 030950Z 26011KT 3900 BR FEW003 OVC005 06/05 Q1004=
201301030920 METAR ESMX 030920Z 25008KT 2500 BR OVC002 04/04 Q1004=
201301030850 METAR ESMX 030850Z 21009KT 2100 BR BKN002 OVC005 04/03 Q1004=
201301030820 METAR ESMX 030820Z 20009G19KT 2300 BR SCT002 BKN004 OVC007 03/03 Q1005=
201301030750 METAR ESMX 030750Z 19011KT 2900 BR FEW002 BKN003 OVC006 03/02 Q1005=
201301030720 METAR ESMX 030720Z 17009KT 2800 DZ BKN002 OVC006 02/02 Q1006=
201301030650 METAR ESMX 030650Z AUTO 16007KT 4000NDV -DZ OVC003/// 02/02 Q1006=
201301030620 METAR ESMX 030620Z AUTO 17006KT 2700NDV DZ FEW003/// BKN005/// OVC007/// 02/02 Q1007=
201301030550 METAR ESMX 030550Z AUTO 19007KT 6000NDV DZ FEW004/// OVC005/// 02/01 Q1007=
201301030520 METAR ESMX 030520Z AUTO 19007KT 7000NDV -RA SCT005/// BKN007/// BKN010/// 02/01 Q1008=
201301030450 METAR ESMX 030450Z AUTO 21009KT 8000NDV -RA FEW005/// SCT007/// BKN011/// 02/01 Q1008=
201301030420 METAR ESMX 030420Z AUTO 22011KT 6000NDV RA FEW008/// BKN009/// 02/01 Q1009=
201301030350 METAR ESMX 030350Z AUTO 23009KT 8000NDV -RA BKN007/// OVC010/// 03/02 Q1009=
201301030320 METAR ESMX 030320Z AUTO 23007KT 9999NDV FEW007/// BKN008/// OVC012/// 04/02 Q1009=
201301030250 METAR ESMX 030250Z AUTO 22009KT 9999NDV FEW009/// BKN011/// OVC015/// 04/02 Q1010=
201301030220 METAR ESMX 030220Z AUTO 24009KT 8000NDV BR BKN010/// OVC016/// 04/02 Q1010=
201301030150 METAR ESMX 030150Z AUTO 24010KT 9999NDV FEW011/// BKN014/// OVC021/// 04/02 Q1011=
201301030120 METAR ESMX 030120Z AUTO 24009KT 210V270 9999NDV SCT011/// BKN015/// OVC029/// 04/02 Q1011=
201301030050 METAR ESMX 030050Z 24010KT 9999 SCT010 BKN030 04/02 Q1011=
201301030020 METAR ESMX 030020Z 23009KT 9999 SCT011 BKN025 04/02 Q1011=
201301022350 METAR ESMX 022350Z 24009KT 9999 FEW016 OVC022 04/01 Q1011=
201301022320 METAR ESMX 022320Z 25010KT 9999 FEW015 BKN021 04/01 Q1011=
201301022250 METAR ESMX 022250Z 26009KT 230V290 9999 FEW015 OVC020 04/01 Q1011=
201301022220 METAR ESMX 022220Z 25010KT 9999 FEW016 OVC020 03/01 Q1011=
201301022150 METAR ESMX 022150Z 26009KT 9999 FEW013 OVC015 03/01 Q1011=
201301022120 METAR ESMX 022120Z 25009KT 9999 OVC013 03/01 Q1011=
201301022050 METAR ESMX 022050Z 25009G19KT 9999 OVC012 03/01 Q1011=
201301022020 METAR ESMX 022020Z 26010KT 230V300 9999 OVC011 03/01 Q1011=
201301021950 METAR ESMX 021950Z 24009KT 9999 OVC011 03/01 Q1011=
201301021920 METAR ESMX 021920Z 23009KT 180V280 9999 BKN012 03/01 Q1011=
201301021850 METAR ESMX 021850Z 25007KT 9999 OVC012 03/01 Q1011=
201301021820 METAR ESMX 021820Z 25007KT 9999 BKN012 03/01 Q1010=
201301021750 METAR ESMX 021750Z 26007KT 9999 BKN011 03/01 Q1010=
201301021720 METAR ESMX 021720Z 26008KT 230V290 9999 OVC012 02/01 Q1010=
201301021650 METAR ESMX 021650Z 26007KT 9999 OVC012 02/00 Q1010=
201301021620 METAR ESMX 021620Z 26008KT 9999 BKN010 02/00 Q1009=
201301021550 METAR ESMX 021550Z 26010KT 230V290 9999 BKN010 02/00 Q1009=
201301021520 METAR ESMX 021520Z 26007KT 9999 BKN011 02/M00 Q1009=
201301021450 METAR ESMX 021450Z 26007KT 9999 BKN011 02/M00 Q1009=
201301021420 METAR ESMX 021420Z 26010KT 9999 BKN010 02/M00 Q1008=
201301021350 METAR ESMX 021350Z 25012KT 9999 BKN012 02/M00 Q1008=
201301021320 METAR ESMX 021320Z 26011KT 9999 BKN011 03/00 Q1007=
201301021250 METAR ESMX 021250Z 23008KT 200V260 9999 FEW013 BKN017 03/01 Q1007=
201301021220 METAR ESMX 021220Z 25007KT 9999 FEW014 BKN016 03/01 Q1007=
201301021150 METAR ESMX 021150Z 27008KT 9999 FEW010 SCT014 BKN017 03/01 Q1007=
201301021120 METAR ESMX 021120Z 29006KT 9999 FEW009 OVC011 03/01 Q1006=
201301021050 METAR ESMX 021050Z 27008KT 9999 OVC009 03/01 Q1006=
201301021020 METAR ESMX 021020Z 24007KT 200V260 9999 FEW009 BKN015 OVC020 03/01 Q1006=
201301020950 METAR ESMX 020950Z 23007KT 9999 FEW006 SCT007 BKN009 03/02 Q1006=
201301020920 METAR ESMX 020920Z 23007KT 9999 BKN005 OVC010 03/02 Q1005=
201301020850 METAR ESMX 020850Z 22008KT 9999 OVC005 03/02 Q1005=
201301020820 METAR ESMX 020820Z 22008KT 9000 BR OVC003 02/02 Q1004=
201301020750 METAR ESMX 020750Z 20008KT 8000 BR OVC003 02/02 Q1004 REDZ=
201301020720 METAR ESMX 020720Z 20008KT 9000 OVC003 02/01 Q1004=
201301020650 METAR ESMX 020650Z 22007KT 7000 BR FEW004 OVC005 02/01 Q1003=
201301020620 METAR ESMX 020620Z 22007KT 5000 BR OVC005 02/01 Q1003=
201301020550 METAR ESMX 020550Z 21008KT 9999 OVC007 02/01 Q1003=
201301020520 METAR ESMX 020520Z 20008KT 9999 OVC006 02/01 Q1002=
201301020450 METAR ESMX 020450Z 21009KT 9999 BKN006 02/01 Q1002=
201301020420 METAR ESMX 020420Z AUTO 21007KT 9999NDV SCT005/// BKN011/// OVC014/// 02/01 Q1002=
201301020350 METAR ESMX 020350Z AUTO 20008KT 9999NDV OVC005/// 02/01 Q1002=
201301020320 METAR ESMX 020320Z AUTO 21008KT 9999NDV FEW008/// BKN010/// OVC037/// 02/01 Q1002=
201301020250 METAR ESMX 020250Z AUTO 22007KT 9999NDV FEW005/// SCT007/// BKN009/// 02/01 Q1001=
201301020220 METAR ESMX 020220Z AUTO 22008KT 9999NDV OVC006/// 03/01 Q1001=
201301020150 METAR ESMX 020150Z AUTO 22007KT 9999NDV BKN006/// OVC009/// 03/01 Q1001=
201301020120 METAR ESMX 020120Z AUTO 21006KT 9999NDV FEW007/// OVC009/// 02/01 Q1001=
201301020050 METAR ESMX 020050Z AUTO 21006KT 9999NDV FEW007/// SCT009/// BKN012/// 02/01 Q1000=
201301020020 METAR ESMX 020020Z 22006KT 9999 BKN006 BKN035 02/01 Q1000=
201301012350 METAR ESMX 012350Z 22007KT 9999 FEW009 BKN020 02/01 Q1000=
201301012320 METAR ESMX 012320Z 22006KT 9999 FEW010 BKN025 02/01 Q1000=
201301012250 METAR ESMX 012250Z 23006KT 9999 FEW009 BKN014 02/01 Q1000=
201301012220 METAR ESMX 012220Z 23005KT 9999 FEW006 SCT028 02/01 Q0999=
201301012150 METAR ESMX 012150Z 23006KT 9999 SCT008 BKN026 02/01 Q0999=
201301012120 METAR ESMX 012120Z 23006KT 9999 SCT005 BKN031 02/01 Q0999=
201301012050 METAR ESMX 012050Z 23007KT 9999 SCT008 SCT032 02/01 Q0998=
201301012020 METAR ESMX 012020Z 23007KT 9999 SCT005 BKN021 03/02 Q0998=
201301011950 METAR ESMX 011950Z 23007KT 9999 FEW006 BKN018 03/02 Q0998=
201301011920 METAR ESMX 011920Z 22007KT 9999 SCT005 BKN042 03/02 Q0997=
201301011850 METAR ESMX 011850Z 22006KT 9999 BKN004 BKN035 03/02 Q0997=
201301011820 METAR ESMX 011820Z 22006KT 9999 BKN035 03/02 Q0997=
201301011750 METAR ESMX 011750Z 23006KT 9999 FEW008 OVC027 03/02 Q0997=
201301011720 METAR ESMX 011720Z 22005KT 9999 FEW007 BKN025 03/02 Q0997=
201301011650 METAR ESMX 011650Z 22006KT 9999 FEW007 SCT031 03/02 Q0996=
201301011550 METAR ESMX 011550Z 22005KT 9999 OVC011 04/03 Q0996=
201301011520 METAR ESMX 011520Z 24007KT 9999 FEW009 BKN012 OVC018 04/03 Q0995=
201301011450 METAR ESMX 011450Z 24004KT 9999 FEW010 SCT021 04/03 Q0995=
201301011420 METAR ESMX 011420Z 20004KT 9999 FEW006 SCT050 04/03 Q0995=
201301011350 METAR ESMX 011350Z 22003KT 9999 FEW006 SCT051 BKN064 05/04 Q0995=
201301011320 METAR ESMX 011320Z 21004KT 9999 FEW008 BKN055 05/04 Q0995=
201301011250 METAR ESMX 011250Z AUTO 22003KT 200V260 9999NDV FEW008/// SCT012/// BKN044/// 05/04 Q0995=
201301011220 METAR ESMX 011220Z AUTO 24004KT 9999NDV FEW007/// BKN009/// OVC011/// 05/04 Q0995=
