##########################################################
# Query made at 04/19/2024 21:33:15 UTC
# Time interval: from 04/01/2013 12:00  to 04/30/2013 12:59  UTC
##########################################################

##########################################################
# ESMX, Vaxjo (Sweden)
# WMO index: 02641. WIGOS ID: 0-20000-0-02648
# Latitude 56-51N. Longitude 014-50E. Altitude 199 m.
##########################################################

201304301250 METAR ESMX 301250Z 24014G24KT 200V280 9999 FEW036 SCT041 BKN047 09/01 Q1016=
201304301220 METAR ESMX 301220Z 25016G26KT 9999 FEW034 SCT041 BKN047 09/M00 Q1016=
201304301150 METAR ESMX 301150Z 24016G26KT 9999 SCT033 BKN042 BKN048 09/01 Q1015=
201304301120 METAR ESMX 301120Z 23017G30KT 9999 FEW034 BKN038 09/M00 Q1015=
201304301050 METAR ESMX 301050Z 24019G29KT 9999 FEW038 BKN042 09/00 Q1015=
201304301020 METAR ESMX 301020Z 25019G29KT 9999 FEW028 SCT034 BKN041 08/01 Q1015=
201304300950 METAR ESMX 300950Z 24018G29KT 210V270 9999 FEW029 SCT035 BKN039 09/01 Q1014=
201304300920 METAR ESMX 300920Z 22018G28KT 9999 FEW029 SCT034 BKN053 08/01 Q1014=
201304300850 METAR ESMX 300850Z 24017KT 9999 FEW026 SCT033 BKN041 08/01 Q1013=
201304300820 METAR ESMX 300820Z 22019G29KT 9999 FEW023 SCT034 09/03 Q1013=
201304300750 METAR ESMX 300750Z 23016KT 9999 FEW015 SCT021 08/03 Q1013=
201304300720 METAR ESMX 300720Z 22015KT 9999 FEW011 SCT014 BKN017 07/04 Q1012=
201304300650 METAR ESMX 300650Z 21014KT 190V250 9999 FEW011 SCT016 BKN020 06/04 Q1012=
201304300620 METAR ESMX 300620Z 22014KT 180V240 9999 FEW010 SCT013 BKN015 06/04 Q1012=
201304300550 METAR ESMX 300550Z 21013KT 9999 FEW010 BKN014 OVC025 06/04 Q1012 RERA=
201304300520 METAR ESMX 300520Z 21012KT 9999 -RA FEW009 SCT012 BKN015 05/03 Q1012=
201304300450 METAR ESMX 300450Z 21012KT 9999 SCT009 BKN017 05/03 Q1012=
201304300420 METAR ESMX 300420Z 21011KT 9999 -SHRA SCT010 BKN015 04/03 Q1011=
201304300350 METAR ESMX 300350Z 22012KT 9999 -RA SCT012 OVC020 04/03 Q1011 REDZ=
201304300320 METAR ESMX 300320Z AUTO 21013KT 9999NDV SCT015/// BKN019/// OVC021/// 05/02 Q1011=
201304300250 METAR ESMX 300250Z AUTO 20012KT 9999NDV FEW017/// SCT019/// BKN022/// 05/02 Q1011=
201304300220 METAR ESMX 300220Z AUTO 21013KT 9999NDV FEW017/// SCT019/// BKN022/// 05/02 Q1011=
201304300150 METAR ESMX 300150Z AUTO 21012KT 9999NDV SCT017/// BKN020/// 05/02 Q1010=
201304300120 METAR ESMX 300120Z AUTO 21012KT 9999NDV OVC016/// 05/02 Q1010=
201304300050 METAR ESMX 300050Z 21012KT 9999 SCT017 BKN020 05/02 Q1010=
201304300020 METAR ESMX 300020Z 21014KT 9999 FEW019 SCT063 05/02 Q1010=
201304292350 METAR ESMX 292350Z 22012KT 9999 SCT017 BKN020 05/02 Q1010=
201304292320 METAR ESMX 292320Z 21012KT 9999 FEW020 OVC055 05/02 Q1010=
201304292250 METAR ESMX 292250Z 21012KT 9999 FEW020 SCT053 05/02 Q1010=
201304292220 METAR ESMX 292220Z 20011KT 9999 FEW030 BKN053 05/02 Q1010=
201304292150 METAR ESMX 292150Z 21011KT 9999 FEW040 BKN050 05/01 Q1010=
201304292120 METAR ESMX 292120Z 21012KT CAVOK 05/01 Q1010=
201304292050 METAR ESMX 292050Z 21011KT CAVOK 05/01 Q1010=
201304292020 METAR ESMX 292020Z 23012KT 9999 SCT040 05/01 Q1010=
201304291950 METAR ESMX 291950Z 23010KT 9999 FEW035 SCT043 BKN062 06/02 Q1009=
201304291920 METAR ESMX 291920Z 23010KT 9999 FEW030 BKN060 06/02 Q1009=
201304291850 METAR ESMX 291850Z 21010KT 9999 SCT044 06/03 Q1009=
201304291820 METAR ESMX 291820Z 21011KT 9999 FEW030TCU 06/03 Q1008=
201304291750 METAR ESMX 291750Z 22011KT 9999 SCT020 06/03 Q1008=
201304291720 METAR ESMX 291720Z 22013KT 9999 FEW020 FEW030CB 07/04 Q1008=
201304291650 METAR ESMX 291650Z 21010KT 9999 FEW012 SCT025 06/04 Q1008 RERA=
201304291620 METAR ESMX 291620Z 23010KT 9000 -RA FEW015 BKN021 07/03 Q1008=
201304291550 METAR ESMX 291550Z 22011KT 190V250 9999 FEW020 BKN023 07/03 Q1008=
201304291520 METAR ESMX 291520Z 22015KT 9999 FEW026 BKN030 08/02 Q1008=
201304291450 METAR ESMX 291450Z 20015KT 9999 FEW028 SCT034 BKN041 08/02 Q1008=
201304291420 METAR ESMX 291420Z 21016KT 9999 FEW023 09/01 Q1008=
201304291350 METAR ESMX 291350Z 23016KT 9999 FEW029 BKN050 09/01 Q1008 RERA=
201304291320 METAR ESMX 291320Z 22017KT 190V250 CAVOK 10/M01 Q1007=
201304291250 METAR ESMX 291250Z 23017KT CAVOK 11/M03 Q1007=
201304291220 METAR ESMX 291220Z 22018G30KT 200V260 CAVOK 11/M04 Q1007=
201304291150 METAR ESMX 291150Z 20018KT CAVOK 12/M03 Q1007=
201304291120 METAR ESMX 291120Z 19021KT CAVOK 12/M03 Q1007=
201304291050 METAR ESMX 291050Z 20017KT 160V240 9999 FEW032 13/M02 Q1007=
201304291020 METAR ESMX 291020Z 20018KT 9999 FEW045 12/M01 Q1007=
201304290950 METAR ESMX 290950Z 19015KT 9999 FEW044 11/M01 Q1007=
201304290920 METAR ESMX 290920Z 16011KT 110V200 9999 FEW035 11/01 Q1007=
201304290850 METAR ESMX 290850Z 18014KT 140V200 CAVOK 10/02 Q1008=
201304290820 METAR ESMX 290820Z 17012KT CAVOK 09/01 Q1008=
201304290750 METAR ESMX 290750Z 17011KT CAVOK 09/02 Q1008=
201304290720 METAR ESMX 290720Z 19011KT CAVOK 08/01 Q1009=
201304290650 METAR ESMX 290650Z 18011KT CAVOK 08/01 Q1009=
201304290620 METAR ESMX 290620Z 18010KT CAVOK 08/01 Q1009=
201304290550 METAR ESMX 290550Z 17009KT CAVOK 06/01 Q1009=
201304290520 METAR ESMX 290520Z 17009KT 150V210 CAVOK 06/01 Q1009=
201304290450 METAR ESMX 290450Z 17008KT CAVOK 05/01 Q1009=
201304290420 METAR ESMX 290420Z 15008KT CAVOK 04/00 Q1010=
201304290350 METAR ESMX 290350Z 15007KT CAVOK 04/01 Q1010=
201304290320 METAR ESMX 290320Z AUTO 14006KT 9999NDV SCT053/// BKN100/// 04/01 Q1010=
201304290250 METAR ESMX 290250Z AUTO 17006KT 9999NDV SCT100/// 04/01 Q1011=
201304290220 METAR ESMX 290220Z AUTO 16007KT 9999NDV BKN100/// 04/01 Q1011=
201304290150 METAR ESMX 290150Z AUTO 16007KT 9999NDV FEW049/// BKN100/// 04/01 Q1012=
201304290120 METAR ESMX 290120Z AUTO 16006KT 9999NDV FEW049/// SCT093/// 04/01 Q1012=
201304290050 METAR ESMX 290050Z AUTO 18008KT 9999NDV NCD 04/01 Q1012=
201304290020 METAR ESMX 290020Z AUTO 18008KT 9999NDV NCD 04/01 Q1012=
201304282350 METAR ESMX 282350Z 18008KT CAVOK 03/00 Q1012=
201304282320 METAR ESMX 282320Z 19007KT CAVOK 03/M00 Q1012=
201304282250 METAR ESMX 282250Z 20007KT CAVOK 02/M01 Q1012=
201304282220 METAR ESMX 282220Z 20007KT CAVOK 03/M01 Q1012=
201304282150 METAR ESMX 282150Z 19007KT CAVOK 03/M02 Q1013=
201304282120 METAR ESMX 282120Z 21009KT CAVOK 05/M01 Q1013=
201304282050 METAR ESMX 282050Z 19008KT CAVOK 05/M00 Q1012=
201304282020 METAR ESMX 282020Z 19006KT CAVOK 04/M01 Q1012=
201304281950 METAR ESMX 281950Z 21005KT CAVOK 05/M01 Q1012=
201304281920 METAR ESMX 281920Z 22004KT CAVOK 05/M01 Q1012=
201304281850 METAR ESMX 281850Z 25003KT CAVOK 07/M02 Q1012=
201304281820 METAR ESMX 281820Z 26004KT 230V290 CAVOK 09/M02 Q1012=
201304281750 METAR ESMX 281750Z 24008KT CAVOK 10/M02 Q1012=
201304281720 METAR ESMX 281720Z 23008KT 200V260 CAVOK 10/M02 Q1012=
201304281650 METAR ESMX 281650Z 22009KT 190V250 CAVOK 11/M04 Q1012=
201304281620 METAR ESMX 281620Z 23008KT 190V270 CAVOK 11/M03 Q1012=
201304281550 METAR ESMX 281550Z 22010KT CAVOK 11/M03 Q1012=
201304281520 METAR ESMX 281520Z 23010KT 200V260 CAVOK 12/M02 Q1012=
201304281450 METAR ESMX 281450Z 23010KT 190V270 CAVOK 11/M02 Q1012=
201304281420 METAR ESMX 281420Z 27009KT 230V310 CAVOK 12/M03 Q1012=
201304281350 METAR ESMX 281350Z 24010KT 210V280 CAVOK 12/M01 Q1012=
201304281320 METAR ESMX 281320Z 27011KT 210V290 CAVOK 12/M02 Q1012=
201304281250 METAR ESMX 281250Z 22010KT 190V280 CAVOK 12/M02 Q1012=
201304281220 METAR ESMX 281220Z 24009KT 200V300 CAVOK 12/M02 Q1012=
201304281150 METAR ESMX 281150Z AUTO 27010KT 230V300 9999NDV FEW048/// SCT058/// 11/M01 Q1012=
201304281120 METAR ESMX 281120Z AUTO 28010KT 240V300 9999NDV FEW049/// 10/M02 Q1012=
201304281050 METAR ESMX 281050Z AUTO 31009KT 270V350 9999NDV FEW042/// SCT052/// 11/M01 Q1012=
201304281020 METAR ESMX 281020Z AUTO 25010KT 200V290 9999NDV SCT041/// BKN054/// 09/M02 Q1012=
201304280950 METAR ESMX 280950Z AUTO 27008KT 210V340 9999NDV FEW038/// 10/M02 Q1012=
201304280920 METAR ESMX 280920Z AUTO 26006KT 220V290 9999NDV FEW033/// 10/01 Q1011=
201304280850 METAR ESMX 280850Z AUTO 27007KT 210V320 9999NDV FEW026/// SCT039/// 09/01 Q1011=
201304280820 METAR ESMX 280820Z AUTO 29006KT 260V320 9999NDV FEW029/// 07/01 Q1011=
201304280750 METAR ESMX 280750Z AUTO 29006KT 260V330 9999NDV FEW017/// 08/02 Q1011=
201304280720 METAR ESMX 280720Z AUTO 27004KT 240V320 9999NDV NCD 07/02 Q1011=
201304280650 METAR ESMX 280650Z AUTO 29005KT 9999NDV NCD 06/03 Q1011=
201304280620 METAR ESMX 280620Z AUTO 29005KT 9999NDV NCD 05/02 Q1010=
201304280550 METAR ESMX 280550Z AUTO 27003KT 240V300 9999NDV NCD 04/03 Q1010=
201304280520 METAR ESMX 280520Z AUTO 26003KT 9999NDV NCD 02/02 Q1010=
201304280450 METAR ESMX 280450Z AUTO 26003KT 9999NDV NCD 00/M00 Q1010=
201304280420 METAR ESMX 280420Z AUTO 27003KT 3200NDV NCD M01/M02 Q1010=
201304280350 METAR ESMX 280350Z AUTO 26003KT 2500NDV NCD M01/M01 Q1009=
201304280320 METAR ESMX 280320Z AUTO 26004KT 9999NDV NCD M01/M02 Q1009=
201304280250 METAR ESMX 280250Z AUTO 25003KT 9999NDV NCD M01/M01 Q1009=
201304280220 METAR ESMX 280220Z AUTO 20003KT 3800NDV NCD M01/M01 Q1009=
201304280150 METAR ESMX 280150Z AUTO 30002KT 9999NDV NCD M01/M01 Q1009=
201304280120 METAR ESMX 280120Z AUTO VRB01KT 9999NDV FEW038/// 00/M00 Q1009=
201304280050 METAR ESMX 280050Z AUTO 24004KT 9999NDV NCD 00/M00 Q1009=
201304280020 METAR ESMX 280020Z AUTO 26003KT 9999NDV NCD M00/M01 Q1009=
201304272350 METAR ESMX 272350Z AUTO 25005KT 9999NDV SCT051/// M00/M01 Q1009=
201304272320 METAR ESMX 272320Z AUTO 26003KT 9999NDV NCD 00/M00 Q1009=
201304272250 METAR ESMX 272250Z AUTO 27003KT 9999NDV NCD 00/M01 Q1009=
201304272220 METAR ESMX 272220Z AUTO 25003KT 2500NDV NCD 02/01 Q1009=
201304272150 METAR ESMX 272150Z AUTO 26003KT 2400NDV NCD 02/01 Q1009=
201304272120 METAR ESMX 272120Z AUTO 26003KT 9999NDV SCT100/// 03/02 Q1009=
201304272050 METAR ESMX 272050Z AUTO 28001KT 2800NDV BKN100/// 03/02 Q1009=
201304272020 METAR ESMX 272020Z AUTO VRB02KT 9999NDV FEW046/// BKN100/// 04/03 Q1009=
201304271950 METAR ESMX 271950Z AUTO VRB02KT 9999NDV BKN099/// 04/03 Q1009=
201304271920 METAR ESMX 271920Z AUTO 13003KT 9999NDV FEW027/// SCT032/// BKN037/// 05/04 Q1009=
201304271850 METAR ESMX 271850Z AUTO 15003KT 9999NDV FEW019/// SCT021/// BKN025/// 05/04 Q1009=
201304271820 METAR ESMX 271820Z AUTO 03004KT 9999NDV SCT005/// BKN007/// BKN075/// 05/04 Q1008=
201304271750 METAR ESMX 271750Z AUTO 02004KT 9999NDV FEW023/// BKN055/// 06/04 Q1008=
201304271720 METAR ESMX 271720Z AUTO 34003KT 9999NDV FEW015/// SCT047/// BKN062/// 06/04 Q1008=
201304271650 METAR ESMX 271650Z AUTO 01003KT 9999NDV DZ FEW026/// BKN034/// BKN052/// 06/03 Q1008=
201304271620 METAR ESMX 271620Z AUTO 32006KT 9999NDV -DZ FEW022/// BKN026/// BKN033/// 06/04 Q1008 REDZ=
201304271550 METAR ESMX 271550Z AUTO 30009KT 270V340 9999NDV DZ FEW023/// OVC028/// 06/03 Q1008=
201304271520 METAR ESMX 271520Z AUTO 22006G20KT 160V320 9999NDV FEW029/// BKN033/// OVC041/// 08/02 Q1007=
201304271450 METAR ESMX 271450Z AUTO 15007KT 9999NDV FEW035/// SCT070/// 10/02 Q1007=
201304271420 METAR ESMX 271420Z AUTO 17007KT 9999NDV FEW059/// SCT084/// 10/01 Q1007=
201304271350 METAR ESMX 271350Z AUTO 15008KT 100V180 9999NDV FEW053/// SCT069/// BKN082/// 10/02 Q1007=
201304271320 METAR ESMX 271320Z AUTO 14006KT 100V190 9999NDV FEW062/// SCT082/// 10/02 Q1007=
201304271250 METAR ESMX 271250Z AUTO 19006KT 130V210 9999NDV BKN031/// 10/02 Q1007=
201304271220 METAR ESMX 271220Z AUTO 20007KT 150V260 9999NDV FEW033/// SCT040/// BKN097/// 11/03 Q1007=
201304271150 METAR ESMX 271150Z AUTO 20005KT 150V240 9999NDV FEW029/// SCT037/// 09/01 Q1007=
201304271120 METAR ESMX 271120Z AUTO 18004KT 120V230 9999NDV FEW029/// BKN036/// BKN052/// 09/02 Q1007=
201304271050 METAR ESMX 271050Z AUTO 18004KT 130V220 9999NDV SCT026/// BKN043/// OVC058/// 08/02 Q1007=
201304271020 METAR ESMX 271020Z AUTO 36004KT 320V030 9999NDV BKN027/// BKN041/// 09/02 Q1007=
201304270950 METAR ESMX 270950Z AUTO 01006KT 330V030 9999NDV BKN029/// BKN076/// 08/02 Q1006=
201304270920 METAR ESMX 270920Z 36006KT 9999 SCT027 BKN053 08/03 Q1006=
201304270850 METAR ESMX 270850Z 26003KT 160V330 9999 FEW025 SCT052 BKN081 09/01 Q1006=
201304270820 METAR ESMX 270820Z VRB03KT 9999 FEW048 BKN075 08/01 Q1005=
201304270750 METAR ESMX 270750Z 19004KT 140V240 9999 FEW047 BKN075 07/01 Q1005=
201304270720 METAR ESMX 270720Z 18003KT 080V220 9999 SCT042 BKN065 06/01 Q1005=
201304270650 METAR ESMX 270650Z AUTO 17003KT 9999NDV NCD 06/01 Q1005=
201304270620 METAR ESMX 270620Z AUTO VRB01KT 9999NDV FEW083/// 05/01 Q1005=
201304270550 METAR ESMX 270550Z AUTO 30003KT 9999NDV NCD 04/01 Q1004=
201304270520 METAR ESMX 270520Z AUTO 19003KT 9999NDV FEW056/// 04/01 Q1004=
201304270450 METAR ESMX 270450Z AUTO 19001KT 9999NDV SCT052/// 04/01 Q1004=
201304270420 METAR ESMX 270420Z AUTO 19003KT 9999NDV FEW056/// BKN082/// 03/01 Q1004=
201304270350 METAR ESMX 270350Z AUTO 17002KT 9999NDV OVC079/// 03/01 Q1004=
201304270320 METAR ESMX 270320Z AUTO 00000KT 9999NDV OVC077/// 03/00 Q1003=
201304270250 METAR ESMX 270250Z AUTO 17001KT 9999NDV OVC076/// 03/00 Q1003=
201304270220 METAR ESMX 270220Z AUTO 18002KT 9999NDV OVC069/// 04/00 Q1003=
201304270150 METAR ESMX 270150Z AUTO 22003KT 9999NDV FEW056/// BKN073/// 04/00 Q1003=
201304270120 METAR ESMX 270120Z AUTO 22003KT 9999NDV FEW057/// SCT073/// OVC083/// 04/00 Q1003=
201304270050 METAR ESMX 270050Z AUTO 23005KT 9999NDV OVC081/// 04/00 Q1004=
201304270020 METAR ESMX 270020Z AUTO 22004KT 9999NDV OVC080/// 04/00 Q1003=
201304262350 METAR ESMX 262350Z AUTO 22005KT 9999NDV FEW081/// 04/00 Q1003=
201304262320 METAR ESMX 262320Z AUTO 21004KT 9999NDV NCD 05/01 Q1003=
201304262250 METAR ESMX 262250Z AUTO 20004KT 9999NDV NCD 05/01 Q1003=
201304262220 METAR ESMX 262220Z AUTO 21004KT 9999NDV SCT074/// 06/01 Q1003=
201304262150 METAR ESMX 262150Z AUTO 19005KT 9999NDV BKN060/// 06/01 Q1004=
201304262120 METAR ESMX 262120Z AUTO 21004KT 190V250 9999NDV BKN049/// 07/01 Q1004=
201304262050 METAR ESMX 262050Z AUTO 24005KT 9999NDV OVC048/// 07/01 Q1004=
201304262020 METAR ESMX 262020Z AUTO 28006KT 9999NDV SCT053/// BKN068/// 07/01 Q1004=
201304261950 METAR ESMX 261950Z AUTO 25004KT 9999NDV FEW057/// 07/02 Q1003=
201304261920 METAR ESMX 261920Z AUTO 22002KT 9999NDV FEW056/// 08/02 Q1004=
201304261850 METAR ESMX 261850Z AUTO 24003KT 9999NDV NCD 08/01 Q1004=
201304261820 METAR ESMX 261820Z 25003KT CAVOK 09/01 Q1004=
201304261750 METAR ESMX 261750Z 24003KT CAVOK 09/01 Q1004=
201304261720 METAR ESMX 261720Z 27003KT CAVOK 10/00 Q1004=
201304261650 METAR ESMX 261650Z 28005KT 260V320 CAVOK 11/00 Q1004=
201304261620 METAR ESMX 261620Z 26005KT 230V320 CAVOK 11/00 Q1004=
201304261550 METAR ESMX 261550Z 28006KT 9999 FEW041 SCT110 11/01 Q1005=
201304261520 METAR ESMX 261520Z 28007KT 240V340 CAVOK 11/01 Q1005=
201304261450 METAR ESMX 261450Z 25006KT 210V290 CAVOK 11/02 Q1005=
201304261420 METAR ESMX 261420Z 28007KT 220V330 CAVOK 10/02 Q1005=
201304261350 METAR ESMX 261350Z 29007KT 240V340 9999 FEW047 10/02 Q1006=
201304261320 METAR ESMX 261320Z 30009KT 9999 FEW029 10/02 Q1006=
201304261250 METAR ESMX 261250Z 29008KT 260V340 9999 SCT025 10/03 Q1006=
201304261220 METAR ESMX 261220Z 28008KT 250V330 9999 FEW020 BKN027 10/03 Q1006=
201304261150 METAR ESMX 261150Z 30008KT 250V340 9999 FEW016 BKN020 08/03 Q1006=
201304261120 METAR ESMX 261120Z 27008KT 9999 FEW015 OVC017 07/03 Q1006=
201304261050 METAR ESMX 261050Z 29009KT 9999 SCT010 OVC020 07/04 Q1006=
201304261020 METAR ESMX 261020Z 29010KT 9999 FEW010 BKN015 OVC020 07/04 Q1006=
201304260920 METAR ESMX 260920Z 32009KT 9999 FEW010 BKN018 07/05 Q1006=
201304260850 METAR ESMX 260850Z 28008KT 250V320 9999 FEW007 OVC017 08/06 Q1006=
201304260820 METAR ESMX 260820Z 31008KT 9999 FEW004 BKN007 07/06 Q1006=
201304260750 METAR ESMX 260750Z 28007KT 6000 BR SCT005 BKN008 07/06 Q1006=
201304260720 METAR ESMX 260720Z 28008KT 5000 BR FEW001 BKN003 07/07 Q1006=
201304260650 METAR ESMX 260650Z 27008KT 2000 BR OVC001 07/07 Q1006=
201304260550 METAR ESMX 260550Z 24007KT 2500 -DZ BR OVC001 07/07 Q1006=
201304260520 METAR ESMX 260520Z 22006KT 180V250 3000 -RADZ OVC001 07/06 Q1006=
201304260450 METAR ESMX 260450Z 22007KT 1400 R01/P2000N R19/P2000N -RA OVC002 07/06 Q1006=
201304260420 METAR ESMX 260420Z 19009KT 2400 BR OVC002 06/06 Q1006=
201304260350 METAR ESMX 260350Z 18009KT 2800 DZ OVC002 06/05 Q1007=
201304260320 METAR ESMX 260320Z AUTO 18010KT 2800NDV DZ OVC004/// 06/05 Q1007=
201304260250 METAR ESMX 260250Z AUTO 17011KT 8000NDV BR BKN005/// OVC009/// 06/05 Q1007=
201304260220 METAR ESMX 260220Z AUTO 17011KT 9999NDV FEW004/// SCT006/// BKN009/// 06/05 Q1008=
201304260150 METAR ESMX 260150Z AUTO 16010KT 8000NDV -RA OVC003/// 05/04 Q1008 REDZ=
201304260120 METAR ESMX 260120Z AUTO 17009KT 9999NDV DZ OVC004/// 05/04 Q1009=
201304260050 METAR ESMX 260050Z AUTO 16007KT 9999NDV DZ FEW005/// BKN007/// OVC011/// 05/03 Q1010=
201304260020 METAR ESMX 260020Z 17006KT 8000 -RA OVC012 05/03 Q1011=
201304252350 METAR ESMX 252350Z 16005KT 130V190 9999 -RA FEW014 OVC017 05/03 Q1012=
201304252320 METAR ESMX 252320Z 16005KT 9999 -RA FEW020 BKN023 04/02 Q1013=
201304252250 METAR ESMX 252250Z 15005KT 7000 -RA BKN025 04/02 Q1013=
201304252220 METAR ESMX 252220Z 18004KT 9999 -RA OVC027 05/02 Q1014=
201304252150 METAR ESMX 252150Z 17005KT 9999 -RA OVC029 05/01 Q1014=
201304252120 METAR ESMX 252120Z 18002KT 9999 -RA BKN034 06/01 Q1015=
201304252050 METAR ESMX 252050Z 19005KT 9999 -RA FEW043 06/00 Q1016=
201304252020 METAR ESMX 252020Z 20005KT 9999 -RA FEW044 SCT049 06/M01 Q1016=
201304251950 METAR ESMX 251950Z 23005KT CAVOK 07/M02 Q1016=
201304251920 METAR ESMX 251920Z 23006KT CAVOK 07/M01 Q1017=
201304251850 METAR ESMX 251850Z 23006KT CAVOK 07/M01 Q1017=
201304251820 METAR ESMX 251820Z 25005KT CAVOK 08/M01 Q1017=
201304251750 METAR ESMX 251750Z 25006KT CAVOK 09/M01 Q1017=
201304251720 METAR ESMX 251720Z 27010KT CAVOK 09/M02 Q1017=
201304251650 METAR ESMX 251650Z 25010KT CAVOK 10/M02 Q1018=
201304251620 METAR ESMX 251620Z 25011KT CAVOK 12/M00 Q1018=
201304251550 METAR ESMX 251550Z 22010KT CAVOK 12/M02 Q1018=
201304251520 METAR ESMX 251520Z 22011KT 200V260 CAVOK 12/M03 Q1018=
201304251450 METAR ESMX 251450Z 24009KT 210V290 CAVOK 13/M02 Q1019=
201304251420 METAR ESMX 251420Z 25011KT CAVOK 12/M02 Q1019=
201304251350 METAR ESMX 251350Z 23010KT CAVOK 13/M02 Q1019=
201304251320 METAR ESMX 251320Z 27010KT 230V300 CAVOK 13/01 Q1020=
201304251250 METAR ESMX 251250Z 21012KT CAVOK 13/M02 Q1020=
201304251220 METAR ESMX 251220Z 24009KT 190V280 CAVOK 13/00 Q1020=
201304251150 METAR ESMX 251150Z 22010KT CAVOK 13/M02 Q1020=
201304251120 METAR ESMX 251120Z 21009KT 160V250 CAVOK 13/M02 Q1020=
201304251050 METAR ESMX 251050Z 23009KT CAVOK 12/M00 Q1020=
201304251020 METAR ESMX 251020Z 26009KT 220V300 CAVOK 12/M00 Q1020=
201304250950 METAR ESMX 250950Z 27007KT CAVOK 11/01 Q1020=
201304250920 METAR ESMX 250920Z 22006KT 170V260 CAVOK 10/01 Q1021=
201304250850 METAR ESMX 250850Z 26005KT 210V300 9999 NSC 09/01 Q1021=
201304250820 METAR ESMX 250820Z 27007KT 240V310 CAVOK 09/01 Q1021=
201304250750 METAR ESMX 250750Z 25006KT 230V310 CAVOK 08/01 Q1021=
201304250720 METAR ESMX 250720Z 27005KT 220V310 CAVOK 07/02 Q1020=
201304250650 METAR ESMX 250650Z 27006KT CAVOK 06/01 Q1020=
201304250620 METAR ESMX 250620Z 28005KT 230V330 CAVOK 05/02 Q1020=
201304250550 METAR ESMX 250550Z 28005KT 240V310 CAVOK 04/02 Q1019=
201304250520 METAR ESMX 250520Z 27005KT 240V310 CAVOK 04/02 Q1019=
201304250450 METAR ESMX 250450Z 26005KT CAVOK 03/02 Q1018=
201304250420 METAR ESMX 250420Z 28004KT CAVOK 02/01 Q1018=
201304250350 METAR ESMX 250350Z 27006KT CAVOK 02/01 Q1018=
201304250320 METAR ESMX 250320Z AUTO 27006KT 9999NDV NCD 03/01 Q1018=
201304250250 METAR ESMX 250250Z AUTO 28005KT 250V320 9999NDV NCD 03/02 Q1017=
201304250220 METAR ESMX 250220Z AUTO 27007KT 240V300 9999NDV NCD 03/02 Q1017=
201304250150 METAR ESMX 250150Z AUTO 27007KT 9999NDV FEW012/// 04/02 Q1017=
201304250120 METAR ESMX 250120Z AUTO 27007KT 9999NDV NCD 04/02 Q1016=
201304250050 METAR ESMX 250050Z AUTO 29010KT 9999NDV FEW014/// 05/02 Q1016=
201304250020 METAR ESMX 250020Z AUTO 28011KT 9999NDV BKN015/// 05/03 Q1016=
201304242350 METAR ESMX 242350Z 29012G24KT 270V330 9999 FEW015 OVC019 06/03 Q1015=
201304242320 METAR ESMX 242320Z 28013G26KT 9999 FEW018 BKN023 06/03 Q1015=
201304242250 METAR ESMX 242250Z 27011KT 9999 FEW010 SCT013 BKN016 07/05 Q1014=
201304242220 METAR ESMX 242220Z 27012KT 9999 FEW010 BKN013 07/05 Q1014=
201304242150 METAR ESMX 242150Z 27014KT 9999 FEW009 SCT012 BKN015 08/06 Q1013=
201304242120 METAR ESMX 242120Z 26013G23KT 9000 BR FEW006 BKN008 OVC011 08/06 Q1013=
201304242050 METAR ESMX 242050Z 25013KT 5000 BR FEW006 OVC008 08/07 Q1012=
201304242020 METAR ESMX 242020Z 23012KT 4100 BR FEW006 OVC008 08/07 Q1012 REDZ=
201304241950 METAR ESMX 241950Z 24014KT 9999 -DZ FEW008 OVC010 09/07 Q1012=
201304241920 METAR ESMX 241920Z 22013KT 8000 -DZ FEW009 BKN011 OVC016 09/07 Q1012=
201304241850 METAR ESMX 241850Z 22014G24KT 8000 -RA FEW010 BKN013 OVC016 09/07 Q1012 REDZ=
201304241820 METAR ESMX 241820Z 21010KT 8000 DZ FEW014 BKN019 09/07 Q1013=
201304241750 METAR ESMX 241750Z 23007KT 9000 DZ SCT021 BKN028 09/07 Q1013=
201304241720 METAR ESMX 241720Z 23006KT 9000 -RA FEW027 BKN031 09/07 Q1013=
201304241650 METAR ESMX 241650Z 24009KT 9999 -RA FEW026 BKN032 09/07 Q1014=
201304241620 METAR ESMX 241620Z 21006KT 9999 -RA FEW028 SCT033 09/07 Q1014=
201304241550 METAR ESMX 241550Z 23006KT 9999 -RA FEW033 SCT038 09/07 Q1014=
201304241520 METAR ESMX 241520Z 22009KT 9999 -RA FEW028 SCT036 10/06 Q1015=
201304241450 METAR ESMX 241450Z 23006KT 190V260 9999 -RA FEW027 SCT035 10/05 Q1015=
201304241420 METAR ESMX 241420Z 26010KT 9999 -RA FEW026 SCT041 10/05 Q1016=
201304241350 METAR ESMX 241350Z 26011KT 9999 -RA FEW020 SCT044 11/04 Q1016=
201304241320 METAR ESMX 241320Z 25014G24KT 9999 -RA FEW037 SCT044 11/03 Q1016=
201304241250 METAR ESMX 241250Z 25015KT 9999 -RA FEW023 SCT051 12/02 Q1016=
201304241220 METAR ESMX 241220Z 24015KT 9999 FEW043 SCT049 12/01 Q1016=
201304241150 METAR ESMX 241150Z 24015KT 9999 FEW043 SCT078 12/01 Q1017=
201304241120 METAR ESMX 241120Z 24016KT CAVOK 12/01 Q1017=
201304241050 METAR ESMX 241050Z 24015KT 200V270 9999 FEW033 SCT044 BKN090 12/00 Q1017=
201304241020 METAR ESMX 241020Z 25016KT 9999 FEW030 SCT048 BKN091 13/01 Q1017=
201304240950 METAR ESMX 240950Z 24013G23KT 210V280 9999 FEW030 SCT054 BKN084 12/01 Q1016=
201304240920 METAR ESMX 240920Z 26014KT 9999 FEW020 SCT054 BKN085 11/M01 Q1017=
201304240850 METAR ESMX 240850Z 26015G25KT 9999 FEW020 11/00 Q1017=
201304240820 METAR ESMX 240820Z 25015G25KT 9999 FEW020 11/01 Q1017=
201304240750 METAR ESMX 240750Z 26014KT 9999 FEW020 10/00 Q1017=
201304240720 METAR ESMX 240720Z 27012KT 230V300 CAVOK 09/00 Q1017=
201304240650 METAR ESMX 240650Z 26012KT 230V290 CAVOK 09/01 Q1017=
201304240620 METAR ESMX 240620Z 26012KT 210V280 CAVOK 08/01 Q1016=
201304240550 METAR ESMX 240550Z 24009KT CAVOK 07/01 Q1016=
201304240520 METAR ESMX 240520Z 25010KT CAVOK 06/01 Q1016=
201304240450 METAR ESMX 240450Z 23009KT 190V250 CAVOK 05/01 Q1015=
201304240420 METAR ESMX 240420Z 22008KT CAVOK 04/01 Q1015=
201304240350 METAR ESMX 240350Z 24008KT CAVOK 04/01 Q1015=
201304240320 METAR ESMX 240320Z AUTO 25007KT 9999NDV NCD 04/00 Q1015=
201304240250 METAR ESMX 240250Z AUTO 23006KT 200V260 9999NDV NCD 04/00 Q1014=
201304240220 METAR ESMX 240220Z AUTO 25008KT 9999NDV NCD 04/00 Q1014=
201304240150 METAR ESMX 240150Z AUTO 25009KT 9999NDV NCD 04/00 Q1014=
201304240120 METAR ESMX 240120Z AUTO 25011KT 9999NDV NCD 05/00 Q1013=
201304240050 METAR ESMX 240050Z AUTO 26013KT 9999NDV NCD 05/01 Q1013=
201304240020 METAR ESMX 240020Z AUTO 26011KT 9999NDV NCD 05/01 Q1013=
201304232350 METAR ESMX 232350Z 25010G20KT CAVOK 05/00 Q1012=
201304232320 METAR ESMX 232320Z 26011KT CAVOK 05/00 Q1012=
201304232250 METAR ESMX 232250Z 26012G22KT CAVOK 05/00 Q1012=
201304232220 METAR ESMX 232220Z 25013KT CAVOK 05/00 Q1012=
201304232150 METAR ESMX 232150Z 26014KT CAVOK 06/00 Q1011=
201304232120 METAR ESMX 232120Z 25014KT CAVOK 06/01 Q1011=
201304232050 METAR ESMX 232050Z 26015KT 240V300 CAVOK 06/01 Q1011=
201304232020 METAR ESMX 232020Z 26012G24KT CAVOK 07/01 Q1010=
201304231950 METAR ESMX 231950Z 26014KT CAVOK 07/01 Q1010=
201304231920 METAR ESMX 231920Z 26012KT CAVOK 08/02 Q1010=
201304231850 METAR ESMX 231850Z 26015KT 9999 FEW040 08/02 Q1009=
201304231820 METAR ESMX 231820Z 26016KT 9999 SCT040 09/02 Q1009=
201304231750 METAR ESMX 231750Z 26018G31KT 9999 FEW041 SCT050 09/02 Q1009=
201304231720 METAR ESMX 231720Z 27016G29KT 230V290 9999 FEW040 10/01 Q1008=
201304231650 METAR ESMX 231650Z 26018G29KT 9999 SCT040 10/01 Q1008=
201304231620 METAR ESMX 231620Z 26018G31KT 9999 FEW041 BKN062 10/02 Q1008=
201304231550 METAR ESMX 231550Z 25015KT 9999 SCT039 BKN068 10/01 Q1008=
201304231520 METAR ESMX 231520Z 27018KT 9999 FEW035 SCT054 BKN072 10/01 Q1007=
201304231450 METAR ESMX 231450Z 25016KT 220V300 9999 FEW032 SCT038 BKN062 10/02 Q1007=
201304231420 METAR ESMX 231420Z 24014KT 9999 -RASH FEW030 SCT039 BKN066 10/03 Q1007=
201304231350 METAR ESMX 231350Z 24015KT 9999 -RA FEW030 SCT043 BKN070 10/04 Q1007=
201304231320 METAR ESMX 231320Z 24015KT 9999 FEW019 SCT032 BKN046 10/04 Q1007=
201304231250 METAR ESMX 231250Z 24014KT 9999 VCSH FEW029 SCT035 BKN045 10/03 Q1006=
201304231220 METAR ESMX 231220Z 24011G24KT 200V280 9999 FEW027 SCT041 BKN048 10/04 Q1006=
201304231150 METAR ESMX 231150Z 24011KT 9999 FEW024 SCT027 BKN031 10/04 Q1006=
201304231120 METAR ESMX 231120Z 23013KT 200V280 9999 FEW020 SCT033 BKN084 11/05 Q1006=
201304231050 METAR ESMX 231050Z 24015KT 9999 FEW017 SCT020 BKN024 09/05 Q1006=
201304231020 METAR ESMX 231020Z 25014G24KT 9999 FEW011 SCT016 BKN029 09/06 Q1005=
201304230950 METAR ESMX 230950Z 25010KT 9999 FEW009 BKN011 OVC018 08/05 Q1005=
201304230920 METAR ESMX 230920Z 24011KT 9999 FEW008 BKN010 07/06 Q1005=
201304230850 METAR ESMX 230850Z 24009KT 5000 -RA FEW007 SCT009 BKN011 07/06 Q1005=
201304230820 METAR ESMX 230820Z 23010KT 5000 -RA BKN005 OVC009 07/06 Q1005=
201304230750 METAR ESMX 230750Z 21011KT 4100 -DZ OVC005 07/05 Q1005=
201304230720 METAR ESMX 230720Z 23013G23KT 6000 BR OVC006 07/05 Q1004=
201304230650 METAR ESMX 230650Z 23013KT 9999 OVC008 07/05 Q1004=
201304230620 METAR ESMX 230620Z 20012KT 8000 BR FEW010 BKN012 OVC016 07/05 Q1004 REDZ=
201304230550 METAR ESMX 230550Z 19014KT 6000 -DZ SCT014 BKN020 06/05 Q1004=
201304230520 METAR ESMX 230520Z 19013KT 6000 -RA OVC014 06/04 Q1004 REDZ=
201304230450 METAR ESMX 230450Z 19016KT 9999 -RA FEW014 SCT019 OVC021 07/03 Q1004=
201304230420 METAR ESMX 230420Z 19015KT 9999 FEW018 SCT027 BKN048 07/03 Q1005=
201304230350 METAR ESMX 230350Z 19016KT 9999 FEW030 SCT065 06/02 Q1005=
201304230320 METAR ESMX 230320Z AUTO 19015KT 9999NDV BKN071/// 06/02 Q1005=
201304230250 METAR ESMX 230250Z AUTO 19015KT 9999NDV SCT080/// BKN100/// 06/02 Q1006=
201304230220 METAR ESMX 230220Z AUTO 19014KT 9999NDV BKN092/// BKN110/// 06/02 Q1006=
201304230150 METAR ESMX 230150Z AUTO 21013KT 9999NDV BKN100/// 05/02 Q1007=
201304230120 METAR ESMX 230120Z AUTO 19011KT 9999NDV FEW100/// 05/02 Q1007=
201304230050 METAR ESMX 230050Z AUTO 20010KT 9999NDV SCT110/// 05/02 Q1008=
201304230020 METAR ESMX 230020Z AUTO 18009KT 9999NDV NCD 05/02 Q1008=
201304222350 METAR ESMX 222350Z 18008KT CAVOK 04/02 Q1008=
201304222320 METAR ESMX 222320Z 18007KT CAVOK 04/02 Q1009=
201304222250 METAR ESMX 222250Z 19008KT CAVOK 04/02 Q1009=
201304222220 METAR ESMX 222220Z 19008KT CAVOK 03/01 Q1009=
201304222150 METAR ESMX 222150Z 20009KT CAVOK 04/01 Q1009=
201304222120 METAR ESMX 222120Z 19008KT CAVOK 04/01 Q1010=
201304222050 METAR ESMX 222050Z 18008KT CAVOK 04/01 Q1010=
201304222020 METAR ESMX 222020Z 18008KT CAVOK 04/01 Q1010=
201304221950 METAR ESMX 221950Z 18007KT 9999 FEW026 05/01 Q1010=
201304221920 METAR ESMX 221920Z 18006KT 9999 FEW025 07/02 Q1010=
201304221850 METAR ESMX 221850Z 17006KT CAVOK 06/02 Q1010=
201304221820 METAR ESMX 221820Z 18006KT CAVOK 07/02 Q1010=
201304221750 METAR ESMX 221750Z 18007KT CAVOK 08/02 Q1010=
201304221720 METAR ESMX 221720Z 18008KT CAVOK 09/02 Q1010=
201304221650 METAR ESMX 221650Z 20009KT 9999 SCT041 BKN048 09/02 Q1010=
201304221620 METAR ESMX 221620Z 19010KT 9999 SCT043 BKN053 09/02 Q1011=
201304221550 METAR ESMX 221550Z 18006KT 9999 FEW046 BKN053 09/04 Q1011 RERA=
201304221520 METAR ESMX 221520Z 18006KT 9999 -RA SCT045 09/03 Q1011 REDZ=
201304221450 METAR ESMX 221450Z 19008KT 9999 OVC044 10/02 Q1011=
201304221420 METAR ESMX 221420Z 18009KT 9999 -RA OVC046 11/01 Q1011=
201304221350 METAR ESMX 221350Z 17008KT CAVOK 11/01 Q1012=
201304221320 METAR ESMX 221320Z 17009KT CAVOK 11/00 Q1012=
201304221250 METAR ESMX 221250Z 18008KT 9999 FEW040 12/01 Q1012=
201304221220 METAR ESMX 221220Z 18009KT CAVOK 12/01 Q1012=
201304221150 METAR ESMX 221150Z 18010KT CAVOK 12/M00 Q1013=
201304221120 METAR ESMX 221120Z 18009KT CAVOK 12/01 Q1013=
201304221050 METAR ESMX 221050Z 18010KT 150V210 9999 FEW035 BKN055 12/01 Q1013=
201304221020 METAR ESMX 221020Z 16009KT 110V190 CAVOK 13/01 Q1013=
201304220950 METAR ESMX 220950Z 16006KT 110V190 CAVOK 13/01 Q1013=
201304220920 METAR ESMX 220920Z 14007KT 110V170 CAVOK 11/01 Q1014=
201304220850 METAR ESMX 220850Z 16005KT 110V200 CAVOK 10/01 Q1014=
201304220820 METAR ESMX 220820Z 15007KT CAVOK 09/01 Q1015=
201304220750 METAR ESMX 220750Z 16007KT CAVOK 08/00 Q1015=
201304220720 METAR ESMX 220720Z 16006KT 120V180 CAVOK 07/00 Q1015=
201304220650 METAR ESMX 220650Z 16006KT CAVOK 06/M00 Q1015=
201304220620 METAR ESMX 220620Z 15007KT CAVOK 06/M00 Q1015=
201304220550 METAR ESMX 220550Z 16006KT 130V190 CAVOK 05/M01 Q1015=
201304220520 METAR ESMX 220520Z 15007KT CAVOK 04/M01 Q1015=
201304220450 METAR ESMX 220450Z 15007KT CAVOK 04/M01 Q1016=
201304220420 METAR ESMX 220420Z 15008KT CAVOK 04/M01 Q1016=
201304220350 METAR ESMX 220350Z 15007KT 110V180 CAVOK 04/M01 Q1016=
201304220320 METAR ESMX 220320Z AUTO 15007KT 120V180 9999NDV BKN077/// 04/M02 Q1016=
201304220250 METAR ESMX 220250Z AUTO 15007KT 100V190 9999NDV OVC073/// 04/M02 Q1017=
201304220220 METAR ESMX 220220Z AUTO 15007KT 110V180 9999NDV BKN075/// 04/M02 Q1017=
201304220150 METAR ESMX 220150Z AUTO 14007KT 100V190 9999NDV NCD 03/M02 Q1017=
201304220120 METAR ESMX 220120Z AUTO 13006KT 070V170 9999NDV FEW092/// 03/M03 Q1018=
201304220050 METAR ESMX 220050Z AUTO 13005KT 080V170 9999NDV FEW090/// SCT100/// 03/M03 Q1018=
201304220020 METAR ESMX 220020Z AUTO 13005KT 080V150 9999NDV BKN100/// 03/M03 Q1018=
201304212350 METAR ESMX 212350Z AUTO 14006KT 100V170 9999NDV BKN100/// 03/M04 Q1019=
201304212320 METAR ESMX 212320Z 14007KT CAVOK 03/M04 Q1019=
201304212250 METAR COR ESMX 212250Z 14006KT CAVOK 03/M05 Q1019=
201304212220 METAR ESMX 212220Z 14006KT 090V170 CAVOK 03/M06 Q1020=
201304212150 METAR ESMX 212150Z 14006KT 100V180 CAVOK 03/M06 Q1020=
201304212120 METAR ESMX 212120Z 14005KT CAVOK 04/M07 Q1020=
201304212050 METAR ESMX 212050Z 13006KT 080V160 CAVOK 04/M07 Q1021=
201304212020 METAR ESMX 212020Z 14007KT CAVOK 05/M06 Q1021=
201304211950 METAR ESMX 211950Z 14006KT 100V160 CAVOK 06/M05 Q1021=
201304211920 METAR ESMX 211920Z 16006KT CAVOK 07/M05 Q1021=
201304211850 METAR ESMX 211850Z 15006KT CAVOK 07/M05 Q1021=
201304211820 METAR ESMX 211820Z 17006KT CAVOK 08/M06 Q1021=
201304211750 METAR ESMX 211750Z 17008KT CAVOK 09/M06 Q1021=
201304211720 METAR ESMX 211720Z 16009KT 130V190 CAVOK 10/M06 Q1021=
201304211650 METAR ESMX 211650Z 18008KT CAVOK 10/M04 Q1021=
201304211620 METAR ESMX 211620Z 17009KT CAVOK 10/M05 Q1022=
201304211550 METAR ESMX 211550Z 17010KT 140V210 CAVOK 11/M05 Q1022=
201304211520 METAR ESMX 211520Z 18010KT 150V220 CAVOK 12/M05 Q1022=
201304211450 METAR ESMX 211450Z 16009KT 120V190 CAVOK 13/M03 Q1023=
201304211420 METAR ESMX 211420Z 18009KT 140V200 CAVOK 13/M03 Q1023=
201304211350 METAR ESMX 211350Z 17010KT CAVOK 13/M02 Q1023=
201304211320 METAR ESMX 211320Z 17008KT 120V210 CAVOK 13/M03 Q1024=
201304211250 METAR ESMX 211250Z 16006KT 100V230 CAVOK 13/M04 Q1024=
201304211220 METAR COR ESMX 211220Z 15007KT 120V180 CAVOK 13/M04 Q1025=
201304211150 METAR ESMX 211150Z AUTO 15006KT 100V230 9999NDV NCD 13/M03 Q1025=
201304211120 METAR ESMX 211120Z AUTO 23005KT 140V290 9999NDV NCD 13/M03 Q1026=
201304211050 METAR ESMX 211050Z AUTO 18007KT 140V230 9999NDV NCD 12/M04 Q1026=
201304211020 METAR ESMX 211020Z AUTO 20008KT 170V240 9999NDV NCD 12/M03 Q1026=
201304210950 METAR ESMX 210950Z AUTO 19007KT 150V220 9999NDV NCD 12/M02 Q1027=
201304210920 METAR ESMX 210920Z AUTO 20007KT 160V230 9999NDV NCD 11/M04 Q1027=
201304210850 METAR ESMX 210850Z AUTO 24006KT 210V290 9999NDV NCD 10/M05 Q1028=
201304210820 METAR ESMX 210820Z AUTO 18007KT 150V220 9999NDV NCD 09/M05 Q1028=
201304210750 METAR ESMX 210750Z AUTO VRB03KT 9999NDV NCD 08/M05 Q1028=
201304210720 METAR ESMX 210720Z AUTO VRB02KT 9999NDV NCD 07/M05 Q1028=
201304210650 METAR ESMX 210650Z AUTO 30003KT 250V330 9999NDV NCD 06/M04 Q1028=
201304210620 METAR ESMX 210620Z AUTO 00000KT 9999NDV NCD 05/M03 Q1028=
201304210550 METAR ESMX 210550Z AUTO VRB02KT 9999NDV NCD 03/M02 Q1028=
201304210520 METAR ESMX 210520Z AUTO 00000KT 9999NDV NCD 01/M01 Q1028=
201304210450 METAR ESMX 210450Z AUTO 20003KT 9999NDV NCD M01/M03 Q1028=
201304210420 METAR ESMX 210420Z AUTO 17003KT 9999NDV NCD M03/M04 Q1028=
201304210350 METAR ESMX 210350Z AUTO 19002KT 9999NDV NCD M02/M04 Q1029=
201304210320 METAR ESMX 210320Z AUTO VRB01KT 9999NDV NCD M02/M03 Q1029=
201304210250 METAR ESMX 210250Z AUTO 18003KT 9999NDV NCD M03/M05 Q1029=
201304210220 METAR ESMX 210220Z AUTO 20002KT 9999NDV NCD M02/M04 Q1029=
201304210150 METAR ESMX 210150Z AUTO 17003KT 9999NDV NCD M02/M04 Q1029=
201304210120 METAR ESMX 210120Z AUTO 18002KT 9999NDV NCD M02/M04 Q1029=
201304210050 METAR ESMX 210050Z AUTO 17003KT 9999NDV NCD M02/M04 Q1029=
201304210020 METAR ESMX 210020Z AUTO 17002KT 9999NDV NCD M02/M04 Q1029=
201304202350 METAR ESMX 202350Z AUTO 17002KT 9999NDV NCD M01/M04 Q1029=
201304202320 METAR ESMX 202320Z AUTO 19003KT 9999NDV NCD M01/M04 Q1029=
201304202250 METAR ESMX 202250Z AUTO 19004KT 9999NDV NCD 00/M04 Q1029=
201304202220 METAR ESMX 202220Z AUTO 19004KT 9999NDV NCD 00/M03 Q1029=
201304202150 METAR ESMX 202150Z AUTO VRB02KT 9999NDV NCD 02/M03 Q1029=
201304202120 METAR ESMX 202120Z AUTO VRB01KT 9999NDV NCD 04/M03 Q1029=
201304202050 METAR ESMX 202050Z AUTO 29005KT 9999NDV NCD 05/M03 Q1029=
201304202020 METAR ESMX 202020Z AUTO 27005KT 9999NDV NCD 06/M03 Q1029=
201304201950 METAR ESMX 201950Z AUTO 26005KT 9999NDV NCD 06/M02 Q1029=
201304201920 METAR ESMX 201920Z AUTO 27004KT 9999NDV NCD 07/M02 Q1029=
201304201850 METAR ESMX 201850Z AUTO 26002KT 9999NDV NCD 06/M02 Q1029=
201304201820 METAR ESMX 201820Z AUTO 26002KT 9999NDV NCD 09/M04 Q1028=
201304201750 METAR ESMX 201750Z AUTO 26003KT 9999NDV NCD 11/M05 Q1028=
201304201720 METAR ESMX 201720Z AUTO 26004KT 9999NDV NCD 12/M05 Q1028=
201304201650 METAR ESMX 201650Z AUTO 30004KT 240V350 9999NDV NCD 12/M05 Q1028=
201304201620 METAR ESMX 201620Z AUTO 36004KT 330V040 9999NDV NCD 13/M06 Q1028=
201304201550 METAR ESMX 201550Z AUTO 35005KT 290V030 9999NDV NCD 13/M06 Q1028=
201304201520 METAR ESMX 201520Z AUTO 33004KT 260V010 9999NDV NCD 13/M06 Q1028=
201304201450 METAR ESMX 201450Z AUTO 32005KT 290V010 9999NDV NCD 13/M06 Q1028=
201304201420 METAR ESMX 201420Z AUTO 36005KT 320V040 9999NDV NCD 13/M07 Q1028=
201304201350 METAR ESMX 201350Z AUTO 04007KT 7000NDV NCD 13/M06 Q1029=
201304201320 METAR ESMX 201320Z AUTO 36008KT 320V030 9999NDV NCD 13/M05 Q1029=
201304201250 METAR ESMX 201250Z AUTO 02008KT 340V060 9999NDV NCD 12/M07 Q1029=
201304201220 METAR ESMX 201220Z AUTO 36008KT 9999NDV NCD 12/M07 Q1029=
201304201150 METAR ESMX 201150Z AUTO 01008KT 300V030 9999NDV NCD 12/M06 Q1029=
201304201120 METAR ESMX 201120Z AUTO 36008KT 9999NDV NCD 12/M06 Q1029=
201304201050 METAR ESMX 201050Z AUTO 35006KT 280V050 9999NDV NCD 12/M05 Q1029=
201304201020 METAR ESMX 201020Z AUTO 33008KT 280V010 9999NDV NCD 11/M06 Q1029=
201304200950 METAR ESMX 200950Z AUTO 01008KT 9999NDV NCD 11/M05 Q1029=
201304200920 METAR ESMX 200920Z 01007KT 340V040 CAVOK 10/M04 Q1028=
201304200850 METAR ESMX 200850Z 32006KT 280V010 CAVOK 09/M03 Q1028=
201304200820 METAR ESMX 200820Z 03006KT CAVOK 09/M02 Q1028=
201304200750 METAR ESMX 200750Z 36005KT 330V030 CAVOK 08/M02 Q1028=
201304200720 METAR ESMX 200720Z 01005KT 340V050 CAVOK 06/M01 Q1027=
201304200650 METAR ESMX 200650Z AUTO 36006KT 9999NDV NCD 06/M01 Q1027=
201304200620 METAR ESMX 200620Z AUTO 32006KT 290V350 9999NDV NCD 05/01 Q1026=
201304200550 METAR ESMX 200550Z AUTO 33004KT 300V010 9999NDV NCD 03/01 Q1026=
201304200520 METAR ESMX 200520Z AUTO 29003KT 9999NDV NCD 02/01 Q1026=
201304200450 METAR ESMX 200450Z AUTO 28003KT 9999NDV NCD 00/M00 Q1025=
201304200420 METAR ESMX 200420Z AUTO 29003KT 210V330 9999NDV NCD M00/M01 Q1024=
201304200350 METAR ESMX 200350Z AUTO VRB01KT 9999NDV NCD M00/M01 Q1024=
201304200320 METAR ESMX 200320Z AUTO VRB01KT 9999NDV NCD 01/M00 Q1023=
201304200250 METAR ESMX 200250Z AUTO 28004KT 9999NDV NCD 01/00 Q1023=
201304200220 METAR ESMX 200220Z AUTO 28005KT 9999NDV NCD 01/00 Q1022=
201304200150 METAR ESMX 200150Z AUTO 28006KT 9999NDV NCD 02/01 Q1022=
201304200120 METAR ESMX 200120Z AUTO 27005KT 9999NDV NCD 02/01 Q1021=
201304200050 METAR ESMX 200050Z AUTO 26005KT 9999NDV NCD 02/01 Q1021=
201304200020 METAR ESMX 200020Z AUTO 27005KT 9999NDV NCD 03/01 Q1021=
201304192350 METAR ESMX 192350Z AUTO 27005KT 9999NDV NCD 03/01 Q1020=
201304192320 METAR ESMX 192320Z AUTO 28004KT 9999NDV FEW022/// 04/02 Q1019=
201304192250 METAR ESMX 192250Z AUTO 30007KT 9999NDV BKN019/// 05/02 Q1019=
201304192220 METAR ESMX 192220Z AUTO 28009KT 9999NDV FEW014/// SCT021/// BKN028/// 05/02 Q1018=
201304192150 METAR ESMX 192150Z AUTO 27009KT 9999NDV FEW018/// OVC024/// 05/02 Q1017=
201304192120 METAR ESMX 192120Z AUTO 27010KT 230V290 9999NDV BKN026/// 05/01 Q1017=
201304192050 METAR ESMX 192050Z AUTO 26010KT 9999NDV BKN027/// 05/01 Q1016=
201304192020 METAR ESMX 192020Z AUTO 25011KT 9999NDV SCT025/// 05/01 Q1016=
201304191950 METAR ESMX 191950Z AUTO 25012KT 9999NDV NCD 05/01 Q1015=
201304191920 METAR ESMX 191920Z AUTO 23012G22KT 200V260 9999NDV NCD 05/01 Q1014=
201304191850 METAR ESMX 191850Z AUTO 23012KT 210V270 9999NDV NCD 06/01 Q1014=
201304191820 METAR ESMX 191820Z 24013KT CAVOK 06/01 Q1013=
201304191750 METAR ESMX 191750Z 23014KT 9999 FEW030 06/01 Q1013=
201304191720 METAR ESMX 191720Z 24013KT 9999 FEW030 BKN061 07/01 Q1013=
201304191650 METAR ESMX 191650Z 25016KT 9999 FEW020 BKN050 07/01 Q1012=
201304191620 METAR ESMX 191620Z 23016G27KT 9999 FEW026 SCT030 08/01 Q1012=
201304191550 METAR ESMX 191550Z 23017G28KT 200V260 9999 SCT015 BKN030 08/01 Q1012=
201304191520 METAR ESMX 191520Z 23018G31KT 210V270 9999 SCT015 BKN030 09/02 Q1011=
201304191450 METAR ESMX 191450Z 25016G27KT 210V280 9999 SCT010 BKN027 09/03 Q1011=
201304191420 METAR ESMX 191420Z 23016KT 9999 FEW015 BKN020 08/04 Q1011=
201304191350 METAR ESMX 191350Z 24013KT 200V270 9999 DZ FEW013 BKN017 07/04 Q1011 REDZ=
201304191320 METAR ESMX 191320Z 24014G29KT 210V280 9000 -RA SCT012 BKN016 OVC020 07/05 Q1011=
201304191250 METAR ESMX 191250Z 22015KT 9999 FEW010 OVC013 07/05 Q1010=
201304191220 METAR ESMX 191220Z 23018G28KT 9999 -RA OVC013 07/04 Q1010=
201304191150 METAR ESMX 191150Z 23017KT 9999 SCT012 BKN020 07/04 Q1010=
201304191120 METAR ESMX 191120Z 22017G28KT 180V250 9999 BKN014 07/03 Q1010=
201304191050 METAR ESMX 191050Z 23016KT 9999 BKN014 07/04 Q1010=
201304191020 METAR ESMX 191020Z 24015KT 9999 BKN017 OVC026 07/04 Q1010=
201304190950 METAR ESMX 190950Z 24013KT 9999 -RA FEW021 BKN025 08/03 Q1009=
201304190920 METAR ESMX 190920Z 22018G28KT 9999 BKN028 09/03 Q1009=
201304190850 METAR ESMX 190850Z 22015KT 190V250 9999 FEW027 BKN031 09/03 Q1008=
201304190820 METAR ESMX 190820Z 21017KT 9999 BKN029 09/03 Q1008=
201304190750 METAR ESMX 190750Z 21016KT 9999 FEW024 BKN029 09/03 Q1008=
201304190720 METAR ESMX 190720Z 23016KT 190V260 9999 FEW022 BKN025 09/04 Q1008=
201304190650 METAR ESMX 190650Z 22015KT 9999 FEW022 09/04 Q1008=
201304190620 METAR ESMX 190620Z 22013KT 9999 FEW018 08/04 Q1008=
201304190550 METAR ESMX 190550Z 20015KT 9999 FEW015 07/04 Q1008=
201304190522 METAR ESMX 190522Z 20016KT 9999 FEW014 06/04 Q1007=
201304190450 METAR ESMX 190450Z 21014KT 9999 SCT011 06/04 Q1007=
201304190420 METAR ESMX 190420Z 22012KT 9999 SCT013 06/03 Q1007=
201304190350 METAR ESMX 190350Z 21013KT 9999 SCT014 06/03 Q1007=
201304190320 METAR ESMX 190320Z AUTO 22013KT 9999NDV FEW013/// SCT015/// 06/03 Q1007=
201304190250 METAR ESMX 190250Z AUTO 21012KT 9999NDV BKN013/// 06/03 Q1007=
201304190220 METAR ESMX 190220Z AUTO 20013KT 9999NDV SCT013/// 05/03 Q1007=
201304190150 METAR ESMX 190150Z AUTO 22013KT 9999NDV SCT014/// 05/03 Q1007=
201304190120 METAR ESMX 190120Z AUTO 20014KT 9999NDV FEW015/// 05/03 Q1007=
201304190050 METAR ESMX 190050Z 22013KT CAVOK 06/03 Q1007=
201304190020 METAR ESMX 190020Z 20014KT CAVOK 06/03 Q1007=
201304182350 METAR ESMX 182350Z 20014KT CAVOK 06/03 Q1007=
201304182320 METAR ESMX 182320Z 20014KT CAVOK 06/03 Q1007=
201304182250 METAR ESMX 182250Z 20012KT CAVOK 06/03 Q1007=
201304182220 METAR ESMX 182220Z 20013KT 9999 FEW021 06/02 Q1007=
201304182150 METAR ESMX 182150Z 21014KT 9999 FEW021 06/03 Q1008=
201304182120 METAR ESMX 182120Z 21016KT 190V250 9999 BKN021 07/03 Q1007=
201304182050 METAR ESMX 182050Z 23015KT 200V260 9999 FEW023 BKN026 07/03 Q1007=
201304182020 METAR ESMX 182020Z 23015KT 9999 BKN025 07/03 Q1007=
201304181950 METAR ESMX 181950Z 24018KT 9999 BKN024 08/03 Q1007=
201304181920 METAR ESMX 181920Z 22017KT 9999 OVC024 08/03 Q1007=
201304181850 METAR ESMX 181850Z 23018G28KT 9999 OVC023 08/03 Q1007=
201304181820 METAR ESMX 181820Z 22020G36KT 9999 BKN028 09/03 Q1006=
201304181750 METAR ESMX 181750Z 21022G35KT 9999 BKN035 10/02 Q1006=
201304181720 METAR ESMX 181720Z 22017KT 9999 BKN048 10/02 Q1006=
201304181650 METAR ESMX 181650Z 22018G28KT 9999 BKN046 10/02 Q1006=
201304181620 METAR ESMX 181620Z 23017G27KT 9999 SCT044 10/02 Q1006=
201304181550 METAR ESMX 181550Z 22021G31KT 9999 FEW030 SCT045 11/01 Q1006=
201304181520 METAR ESMX 181520Z 24019G30KT 190V260 9999 FEW045 12/03 Q1005=
201304181450 METAR ESMX 181450Z 25020KT 9999 FEW046 12/03 Q1005=
201304181420 METAR ESMX 181420Z 24016G26KT CAVOK 13/01 Q1005=
201304181350 METAR ESMX 181350Z 23017G32KT CAVOK 13/02 Q1005=
201304181320 METAR ESMX 181320Z 22017KT CAVOK 12/03 Q1005=
201304181250 METAR ESMX 181250Z 23019G31KT 200V260 9999 FEW047 12/04 Q1005=
201304181220 METAR ESMX 181220Z 23015G31KT 9999 FEW030 SCT091 13/07 Q1004=
201304181150 METAR ESMX 181150Z 25017KT 9999 FEW010 BKN038 11/09 Q1004=
201304181120 METAR ESMX 181120Z 22020KT 9999 -RA FEW015 BKN028 14/10 Q1003=
201304181050 METAR ESMX 181050Z 19015KT 9999 BKN030 15/10 Q1003=
201304181020 METAR ESMX 181020Z 19015KT CAVOK 16/11 Q1003=
201304180950 METAR ESMX 180950Z 18018KT CAVOK 15/10 Q1003=
201304180920 METAR ESMX 180920Z 17013KT CAVOK 14/10 Q1003=
201304180850 METAR ESMX 180850Z 17013KT 9999 NSC 13/09 Q1004=
201304180820 METAR ESMX 180820Z 17012KT 130V190 9000 NSC 12/09 Q1004=
201304180750 METAR ESMX 180750Z 16012KT 7000 BR NSC 10/09 Q1005=
201304180720 METAR ESMX 180720Z 15012KT 5000 BR NSC 10/08 Q1006=
201304180650 METAR ESMX 180650Z 16011KT 4500 BR FEW005 BKN060 09/08 Q1006 RERA=
201304180620 METAR ESMX 180620Z 15010KT 110V170 3500 -RA SCT005 BKN065 09/08 Q1007=
201304180550 METAR ESMX 180550Z 15009KT 2700 -RA SCT003 BKN005 09/08 Q1008=
201304180520 METAR ESMX 180520Z 16008KT 2500 RA BKN002 BKN005 08/07 Q1009=
201304180450 METAR ESMX 180450Z 16008KT 2100 RA BKN002 OVC004 08/07 Q1009=
201304180420 METAR ESMX 180420Z 15008KT 3100 -RA OVC004 08/07 Q1009=
201304180350 METAR ESMX 180350Z 15008KT 120V190 4300 -RA OVC005 07/06 Q1010=
201304180320 METAR ESMX 180320Z AUTO 15008KT 5000NDV -RA FEW013/// SCT018/// BKN025/// 07/06 Q1011=
201304180250 METAR ESMX 180250Z AUTO 16009KT 7000NDV -RA FEW012/// OVC025/// 07/06 Q1012=
201304180220 METAR ESMX 180220Z AUTO 16008KT 9000NDV -RA FEW015/// SCT029/// BKN033/// 08/05 Q1012=
201304180150 METAR ESMX 180150Z AUTO 16009KT 9999NDV -RA FEW021/// SCT030/// BKN067/// 08/05 Q1013=
201304180120 METAR ESMX 180120Z AUTO 17009KT 9999NDV -RA FEW023/// SCT034/// BKN057/// 09/05 Q1013 REDZ=
201304180050 METAR ESMX 180050Z AUTO 17009KT 9999NDV OVC035/// 09/04 Q1014=
201304180020 METAR ESMX 180020Z AUTO 17008KT 9999NDV OVC036/// 09/04 Q1014=
201304172350 METAR ESMX 172350Z 16007KT 9999 OVC040 09/03 Q1014=
201304172320 METAR ESMX 172320Z 17007KT 9999 OVC041 09/03 Q1015=
201304172250 METAR ESMX 172250Z 16005KT 9999 SCT044 OVC071 08/01 Q1015=
201304172220 METAR ESMX 172220Z 17005KT CAVOK 08/00 Q1015=
201304172150 METAR ESMX 172150Z 16007KT CAVOK 08/M02 Q1015=
201304172120 METAR ESMX 172120Z 17005KT CAVOK 08/M02 Q1016=
201304172050 METAR ESMX 172050Z 16005KT CAVOK 07/M02 Q1016=
201304172020 METAR ESMX 172020Z 18005KT CAVOK 09/M02 Q1016=
201304171950 METAR ESMX 171950Z 22004KT CAVOK 06/M02 Q1017=
201304171920 METAR ESMX 171920Z 19005KT CAVOK 07/M02 Q1017=
201304171850 METAR ESMX 171850Z 16004KT CAVOK 06/M01 Q1016=
201304171820 METAR ESMX 171820Z 22004KT CAVOK 08/M01 Q1017=
201304171750 METAR ESMX 171750Z 23005KT CAVOK 10/M02 Q1017=
201304171720 METAR ESMX 171720Z 26008KT CAVOK 12/M02 Q1017=
201304171650 METAR ESMX 171650Z 27010KT CAVOK 12/M02 Q1017=
201304171550 METAR ESMX 171550Z 26012KT CAVOK 13/M03 Q1017=
201304171520 METAR ESMX 171520Z 25014KT CAVOK 13/M02 Q1017=
201304171450 METAR ESMX 171450Z 26014KT CAVOK 13/M03 Q1017=
201304171420 METAR ESMX 171420Z 24014G24KT 210V280 CAVOK 13/M01 Q1017=
201304171350 METAR ESMX 171350Z 26016KT CAVOK 13/M02 Q1017=
201304171320 METAR ESMX 171320Z 27014KT CAVOK 14/M03 Q1017=
201304171250 METAR ESMX 171250Z 26017G32KT 220V290 CAVOK 13/M03 Q1017=
201304171220 METAR ESMX 171220Z 25015G25KT CAVOK 14/M02 Q1017=
201304171150 METAR ESMX 171150Z 25017KT 9999 FEW040 13/M02 Q1017=
201304171120 METAR ESMX 171120Z 24017KT 9999 FEW040 14/00 Q1017=
201304171050 METAR ESMX 171050Z 24019KT 9999 FEW049 13/01 Q1016=
201304171020 METAR ESMX 171020Z 23017G27KT 9999 FEW045 12/01 Q1016=
201304170950 METAR ESMX 170950Z 25017G28KT 210V270 9999 FEW045 13/01 Q1016=
201304170920 METAR ESMX 170920Z 24016G26KT 200V280 9999 FEW035 12/01 Q1016=
201304170850 METAR ESMX 170850Z 22015KT 9999 FEW030 11/03 Q1016=
201304170820 METAR ESMX 170820Z 23013KT 200V260 9999 FEW020 11/04 Q1016=
201304170750 METAR ESMX 170750Z 22011KT 9999 FEW015 10/05 Q1016=
201304170720 METAR ESMX 170720Z 22011KT CAVOK 09/05 Q1016=
201304170650 METAR ESMX 170650Z 23011KT 9999 SCT010 BKN017 08/05 Q1015=
201304170620 METAR ESMX 170620Z 24009KT 9999 SCT007 BKN015 08/05 Q1015=
201304170550 METAR ESMX 170550Z 23011KT 9999 FEW005 SCT007 BKN009 07/05 Q1015=
201304170520 METAR ESMX 170520Z 22009KT 6000 BR SCT003 OVC006 06/05 Q1015=
201304170450 METAR ESMX 170450Z 19007KT 3900 BR SCT002 BKN004 06/05 Q1015=
201304170420 METAR ESMX 170420Z 19007KT 6000 BR FEW003 BKN007 06/05 Q1014=
201304170350 METAR ESMX 170350Z 20007KT 7000 BR OVC007 06/05 Q1014=
201304170320 METAR ESMX 170320Z AUTO 22008KT 9000NDV BR BKN009/// 06/05 Q1014=
201304170250 METAR ESMX 170250Z AUTO 22008KT 9999NDV SCT010/// 07/05 Q1014=
201304170220 METAR ESMX 170220Z AUTO 21010KT 9999NDV SCT012/// 07/05 Q1014=
201304170150 METAR ESMX 170150Z AUTO 23009KT 9999NDV FEW013/// SCT015/// 07/05 Q1014=
201304170120 METAR ESMX 170120Z AUTO 22008KT 9999NDV FEW019/// 08/06 Q1014=
201304170050 METAR ESMX 170050Z AUTO 19008KT 9999NDV FEW019/// SCT023/// 08/06 Q1014=
201304170020 METAR ESMX 170020Z AUTO 21008KT 9999NDV FEW016/// SCT020/// BKN027/// 08/06 Q1014=
201304162350 METAR ESMX 162350Z 19008KT 9999 SCT022 08/06 Q1014=
201304162320 METAR ESMX 162320Z 18009KT 9999 FEW020 BKN084 09/06 Q1014=
201304162250 METAR ESMX 162250Z 18010KT CAVOK 10/06 Q1014=
201304162220 METAR ESMX 162220Z 18009KT CAVOK 10/06 Q1014=
201304162150 METAR ESMX 162150Z 20009KT 9999 FEW023 SCT036 BKN046 09/07 Q1014=
201304162120 METAR ESMX 162120Z 18009KT 9999 DZ FEW014 BKN047 10/06 Q1014=
201304162050 METAR ESMX 162050Z 18009KT 9999 SCT048 BKN060 BKN072 10/07 Q1014=
201304162020 METAR ESMX 162020Z 17007KT 9999 SCT048 BKN074 10/07 Q1014=
201304161950 METAR ESMX 161950Z 17007KT CAVOK 10/08 Q1014=
201304161920 METAR ESMX 161920Z 17008KT CAVOK 11/08 Q1014=
201304161850 METAR ESMX 161850Z 17008KT CAVOK 11/08 Q1014=
201304161820 METAR ESMX 161820Z 17008KT CAVOK 12/08 Q1014=
201304161750 METAR ESMX 161750Z 16008KT 9999 FEW037 SCT056 12/08 Q1014=
201304161720 METAR ESMX 161720Z 16007KT 9999 FEW042 SCT061 13/08 Q1014=
201304161650 METAR ESMX 161650Z 18009KT 9999 FEW033 14/08 Q1014=
201304161620 METAR ESMX 161620Z 18011KT 9999 FEW026 14/08 Q1014=
201304161550 METAR ESMX 161550Z 19010KT CAVOK 14/08 Q1015=
201304161520 METAR ESMX 161520Z 19009KT CAVOK 14/08 Q1015=
201304161450 METAR ESMX 161450Z 18010KT 150V210 CAVOK 14/09 Q1015=
201304161420 METAR ESMX 161420Z 21010KT 9999 FEW006 SCT020 14/10 Q1015=
201304161350 METAR ESMX 161350Z 20008KT 7000 BR OVC005 12/10 Q1015=
201304161320 METAR ESMX 161320Z 21008KT 8000 BR OVC006 12/10 Q1015=
201304161250 METAR ESMX 161250Z 20006KT 8000 BR OVC006 12/10 Q1015=
201304161220 METAR ESMX 161220Z 22006KT 190V250 9999 OVC008 12/10 Q1016=
201304161150 METAR ESMX 161150Z 20008KT 9999 OVC010 12/10 Q1016=
201304161120 METAR ESMX 161120Z 20008KT 9999 FEW013 BKN015 13/10 Q1016=
201304161050 METAR ESMX 161050Z 17005KT 140V200 9999 FEW007 SCT026 BKN087 12/10 Q1016=
201304161020 METAR ESMX 161020Z 15004KT 090V190 7000 BR FEW006 OVC042 11/09 Q1017=
201304160950 METAR ESMX 160950Z 15004KT 100V180 6000 BR FEW006 OVC037 10/08 Q1017=
201304160920 METAR ESMX 160920Z 15004KT 120V180 7000 BR SCT006 BKN035 10/08 Q1017=
201304160850 METAR ESMX 160850Z 14006KT 100V170 6000 BR SCT005 BKN037 09/07 Q1017=
201304160820 METAR ESMX 160820Z 13006KT 090V160 5000 BR FEW003 SCT017 OVC039 08/07 Q1017=
201304160750 METAR ESMX 160750Z 15005KT 4300 BR SCT002 BKN040 08/07 Q1017=
201304160720 METAR ESMX 160720Z 13004KT 090V150 2200 BR SCT002 BKN045 07/07 Q1017 REDZ=
201304160650 METAR ESMX 160650Z 12003KT 100V160 2000 -DZ BKN002 07/06 Q1018=
201304160620 METAR ESMX 160620Z 00000KT 2400 DZ SCT002 BKN040 06/06 Q1018=
201304160550 METAR ESMX 160550Z VRB01KT 3500 DZ FEW027 BKN068 06/06 Q1018=
201304160520 METAR ESMX 160520Z 04003KT 0900 R01/P2000N R19/0800V1400U OVC002 06/05 Q1017=
201304160450 METAR ESMX 160450Z VRB02KT 0900 R01/0800V1800 R19/0750V1200 -RA BR FEW021 SCT040 06/05 Q1018=
201304160420 METAR ESMX 160420Z 00000KT 2500 -RA SCT043 06/05 Q1018=
201304160350 METAR ESMX 160350Z 00000KT 3000 -RA FEW062 SCT077 06/05 Q1018=
201304160320 METAR ESMX 160320Z AUTO 14004KT 110V170 3400NDV DZ SCT069/// 06/05 Q1018=
201304160250 METAR ESMX 160250Z AUTO 15005KT 120V180 3500NDV -RA SCT069/// 06/05 Q1018=
201304160220 METAR ESMX 160220Z AUTO 15006KT 3600NDV -RA FEW041/// SCT060/// 06/06 Q1019=
201304160150 METAR ESMX 160150Z AUTO 16002KT 1200NDV R01/P2000N R19/P2000N -DZ VV000 07/06 Q1018=
201304160120 METAR ESMX 160120Z AUTO VRB02KT 3900NDV -RA FEW000/// SCT076/// 07/06 Q1018=
201304160050 METAR ESMX 160050Z AUTO VRB02KT 3800NDV -RA SCT055/// 07/06 Q1018=
201304160020 METAR ESMX 160020Z AUTO 14004KT 5000NDV -DZ FEW048/// OVC056/// 07/06 Q1019=
201304152350 METAR ESMX 152350Z VRB01KT 4200 BR OVC052 07/06 Q1019 REDZ=
201304152320 METAR ESMX 152320Z VRB02KT 7000 -DZ BKN052 07/06 Q1019=
201304152250 METAR ESMX 152250Z 15003KT 8000 -RA SCT065 07/06 Q1019=
201304152220 METAR ESMX 152220Z 16004KT 9999 DZ FEW024 SCT067 08/05 Q1019=
201304152150 METAR ESMX 152150Z 16004KT 9999 -RA FEW044 SCT079 BKN091 09/05 Q1019=
201304152120 METAR ESMX 152120Z 17005KT 9999 -DZ SCT076 09/05 Q1019=
201304152050 METAR ESMX 152050Z 16005KT 130V190 9999 -DZ SCT085 09/05 Q1019=
201304152020 METAR ESMX 152020Z 15005KT 9999 -DZ FEW055 SCT080 10/05 Q1019=
201304151950 METAR ESMX 151950Z 15006KT CAVOK 10/05 Q1019=
201304151920 METAR ESMX 151920Z 15006KT CAVOK 10/05 Q1019=
201304151850 METAR ESMX 151850Z 15006KT CAVOK 11/04 Q1019=
201304151820 METAR ESMX 151820Z 14007KT CAVOK 11/05 Q1019=
201304151750 METAR ESMX 151750Z 15006KT CAVOK 11/05 Q1019=
201304151720 METAR ESMX 151720Z 15007KT CAVOK 12/05 Q1019=
201304151650 METAR ESMX 151650Z 15006KT CAVOK 12/05 Q1019=
201304151620 METAR ESMX 151620Z 15006KT CAVOK 13/05 Q1019=
201304151550 METAR ESMX 151550Z 16009KT CAVOK 13/05 Q1018=
201304151520 METAR ESMX 151520Z 15008KT 110V170 CAVOK 13/05 Q1018=
201304151450 METAR ESMX 151450Z 17010KT 140V200 9999 FEW030 SCT060 13/05 Q1019=
201304151420 METAR ESMX 151420Z 17013KT 9999 FEW040 BKN070 13/05 Q1019=
201304151350 METAR ESMX 151350Z 17013KT 9999 FEW030 BKN070 12/05 Q1018=
201304151320 METAR ESMX 151320Z 17013KT 9999 FEW030 BKN070 12/04 Q1019=
201304151250 METAR ESMX 151250Z 17014KT 9999 FEW030 BKN070 12/05 Q1019=
201304151220 METAR ESMX 151220Z 18013KT 9999 FEW025 BKN060 12/05 Q1019=
201304151150 METAR ESMX 151150Z 17013KT 9999 -SHRA FEW020CB BKN070 12/05 Q1019=
201304151120 METAR ESMX 151120Z 17011KT 9999 -SHRA FEW020CB BKN080 12/05 Q1019=
201304151050 METAR ESMX 151050Z 16013KT 9999 -RA FEW023 SCT089 12/05 Q1019=
201304151020 METAR ESMX 151020Z 17015KT CAVOK 12/04 Q1019=
201304150950 METAR ESMX 150950Z 16010KT 110V200 CAVOK 11/04 Q1019=
201304150920 METAR ESMX 150920Z 15010KT CAVOK 10/04 Q1019=
201304150850 METAR ESMX 150850Z 16010KT CAVOK 09/04 Q1020=
201304150820 METAR ESMX 150820Z 16009KT CAVOK 08/04 Q1020=
201304150750 METAR ESMX 150750Z 16010KT CAVOK 08/04 Q1020=
201304150720 METAR ESMX 150720Z 15010KT 9999 FEW035 BKN067 08/04 Q1020=
201304150650 METAR ESMX 150650Z 16010KT 9999 -RA FEW038 BKN064 07/04 Q1021=
201304150620 METAR ESMX 150620Z 16009KT 9999 BKN068 07/04 Q1021=
201304150550 METAR ESMX 150550Z 16010KT 9999 FEW035 BKN072 07/03 Q1021=
201304150520 METAR ESMX 150520Z 16009KT 9999 -RA SCT071 07/03 Q1021=
201304150450 METAR ESMX 150450Z 16009KT CAVOK 06/03 Q1021=
201304150420 METAR ESMX 150420Z 16008KT 9999 OVC065 06/03 Q1021 RERA=
201304150350 METAR ESMX 150350Z 17008KT 9999 -RA BKN065 06/03 Q1022=
201304150320 METAR ESMX 150320Z AUTO 17010KT 9999NDV DZ FEW046/// SCT051/// BKN065/// 06/03 Q1022=
201304150250 METAR ESMX 150250Z AUTO 17008KT 9999NDV -RA OVC044/// 06/02 Q1022=
201304150220 METAR ESMX 150220Z AUTO 16008KT 9999NDV -RA OVC034/// 06/02 Q1022=
201304150150 METAR ESMX 150150Z AUTO 15008KT 9999NDV -DZ BKN030/// 06/02 Q1023 REUP=
201304150120 METAR ESMX 150120Z AUTO 16009KT 9999NDV OVC030/// 06/02 Q1023=
201304150050 METAR ESMX 150050Z AUTO 16009KT 9999NDV BKN034/// OVC084/// 05/01 Q1023=
201304150020 METAR ESMX 150020Z AUTO 16009KT 9999NDV SCT036/// BKN083/// 05/01 Q1024=
201304142350 METAR ESMX 142350Z 17008KT 9999 SCT041 BKN065 OVC085 05/01 Q1024=
201304142320 METAR ESMX 142320Z 16008KT 9999 FEW036 SCT042 OVC082 05/01 Q1024=
201304142250 METAR ESMX 142250Z 16008KT 9999 BKN033 OVC065 05/01 Q1024=
201304142220 METAR ESMX 142220Z 17008KT 9999 FEW030 SCT040 OVC071 05/01 Q1024=
201304142150 METAR ESMX 142150Z 17009KT 9999 FEW043 BKN077 05/02 Q1025=
201304142120 METAR ESMX 142120Z 16009KT 9999 SCT042 BKN052 05/02 Q1025 REDZ=
201304142050 METAR ESMX 142050Z 16007KT 9999 FEW034 BKN040 OVC056 06/02 Q1025=
201304142020 METAR ESMX 142020Z 17007KT 9999 SCT041 BKN072 06/02 Q1025=
201304141950 METAR ESMX 141950Z 17008KT CAVOK 06/02 Q1025=
201304141850 METAR ESMX 141850Z 16008KT CAVOK 07/01 Q1025=
201304141820 METAR ESMX 141820Z 16008KT CAVOK 07/01 Q1025=
201304141750 METAR ESMX 141750Z 16009KT CAVOK 08/01 Q1025=
201304141720 METAR ESMX 141720Z 16010KT CAVOK 09/01 Q1024=
201304141650 METAR ESMX 141650Z 17009KT CAVOK 10/02 Q1024=
201304141620 METAR ESMX 141620Z 16010KT CAVOK 11/03 Q1025=
201304141550 METAR ESMX 141550Z 16010KT CAVOK 11/02 Q1024=
201304141520 METAR ESMX 141520Z 18012KT CAVOK 11/02 Q1024=
201304141450 METAR ESMX 141450Z 17010KT CAVOK 12/02 Q1024=
201304141420 METAR ESMX 141420Z 18011KT CAVOK 12/02 Q1024=
201304141350 METAR ESMX 141350Z 16009KT 120V190 CAVOK 12/02 Q1024=
201304141320 METAR ESMX 141320Z 17009KT 9999 FEW040 12/03 Q1025=
201304141250 METAR ESMX 141250Z 18010KT 9999 FEW040 12/02 Q1025=
201304141220 METAR ESMX 141220Z 18010KT 150V220 9999 FEW040 12/02 Q1025=
201304141150 METAR ESMX 141150Z AUTO 19008KT 140V230 9999NDV FEW037/// 12/03 Q1025=
201304141120 METAR ESMX 141120Z AUTO 20009KT 9999NDV NCD 11/03 Q1025=
201304141050 METAR ESMX 141050Z AUTO 21008KT 150V240 9999NDV NCD 11/02 Q1025=
201304141020 METAR ESMX 141020Z AUTO 21008KT 190V250 9999NDV FEW027/// 10/02 Q1025=
201304140950 METAR ESMX 140950Z AUTO 19007KT 140V230 9999NDV FEW052/// 09/03 Q1025=
201304140920 METAR ESMX 140920Z AUTO 22007KT 190V260 9999NDV NCD 08/03 Q1025=
201304140850 METAR ESMX 140850Z AUTO 21006KT 160V270 9999NDV SCT020/// 07/02 Q1025=
201304140820 METAR ESMX 140820Z AUTO 17006KT 120V210 9999NDV SCT020/// 07/01 Q1025=
201304140750 METAR ESMX 140750Z AUTO 21006KT 170V240 9999NDV NCD 06/01 Q1025=
201304140720 METAR ESMX 140720Z AUTO 21004KT 180V240 9999NDV NCD 05/01 Q1024=
201304140650 METAR ESMX 140650Z AUTO 23004KT 210V280 9999NDV NCD 04/00 Q1024=
201304140620 METAR ESMX 140620Z AUTO 25003KT 210V290 9999NDV NCD 04/01 Q1024=
201304140550 METAR ESMX 140550Z AUTO 18002KT 9999NDV NCD 02/01 Q1023=
201304140520 METAR ESMX 140520Z AUTO 18003KT 6000NDV BR NCD 00/M00 Q1023=
201304140450 METAR ESMX 140450Z AUTO 24003KT 5000NDV BR NCD M01/M02 Q1023=
201304140420 METAR ESMX 140420Z AUTO 23002KT 6000NDV BR NCD M01/M02 Q1022=
201304140350 METAR ESMX 140350Z AUTO 25005KT 5000NDV NCD M01/M01 Q1022=
201304140320 METAR ESMX 140320Z AUTO 26005KT 9999NDV NCD M01/M02 Q1021=
201304140250 METAR ESMX 140250Z AUTO 23003KT 9999NDV FEW028/// 00/M01 Q1021=
201304140220 METAR ESMX 140220Z AUTO 27004KT 9999NDV BKN028/// 01/M00 Q1021=
201304140150 METAR ESMX 140150Z AUTO 25005KT 9999NDV OVC027/// 02/00 Q1021=
201304140120 METAR ESMX 140120Z AUTO 27005KT 9999NDV OVC028/// 01/M00 Q1020=
201304140050 METAR ESMX 140050Z AUTO 27005KT 9999NDV BKN030/// 01/M00 Q1020=
201304140020 METAR ESMX 140020Z AUTO 26006KT 9999NDV BKN028/// 01/M00 Q1019=
201304132350 METAR ESMX 132350Z AUTO 27006KT 9999NDV BKN027/// OVC038/// 02/M00 Q1019=
201304132320 METAR ESMX 132320Z AUTO 25006KT 9999NDV OVC027/// 02/M00 Q1019=
201304132250 METAR ESMX 132250Z AUTO 25006KT 9999NDV OVC028/// 02/M00 Q1018=
201304132220 METAR ESMX 132220Z AUTO 26006KT 9999NDV OVC028/// 02/00 Q1018=
201304132150 METAR ESMX 132150Z AUTO 27006KT 9999NDV OVC027/// 02/00 Q1017=
201304132120 METAR ESMX 132120Z AUTO 26006KT 9999NDV OVC026/// 03/00 Q1017=
201304132050 METAR ESMX 132050Z AUTO 25006KT 9999NDV OVC028/// 03/M00 Q1016=
201304132020 METAR ESMX 132020Z AUTO 23003KT 9999NDV OVC029/// 03/M00 Q1016=
201304131950 METAR ESMX 131950Z AUTO 27004KT 9999NDV OVC030/// 03/M00 Q1016=
201304131920 METAR ESMX 131920Z AUTO 28005KT 9999NDV SCT023/// OVC029/// 03/M01 Q1015=
201304131850 METAR ESMX 131850Z AUTO 29009KT 260V330 9999NDV OVC020/// 03/M00 Q1015=
201304131820 METAR ESMX 131820Z AUTO 28007KT 9999NDV OVC020/// 03/00 Q1014=
201304131750 METAR ESMX 131750Z AUTO 27007KT 9999NDV OVC019/// 03/00 Q1013=
201304131720 METAR ESMX 131720Z AUTO 27009KT 9999NDV OVC018/// 04/00 Q1013=
201304131650 METAR ESMX 131650Z AUTO 27009KT 9999NDV OVC019/// 03/01 Q1012=
201304131620 METAR ESMX 131620Z AUTO 26008KT 9999NDV FEW017/// OVC020/// 04/01 Q1012=
201304131550 METAR ESMX 131550Z AUTO 26009KT 9999NDV FEW018/// OVC020/// 04/01 Q1011=
201304131520 METAR ESMX 131520Z AUTO 27008KT 9999NDV BKN011/// OVC020/// 04/01 Q1011=
201304131450 METAR ESMX 131450Z AUTO 26008KT 9999NDV OVC011/// 03/01 Q1010=
201304131420 METAR ESMX 131420Z AUTO 27007KT 9999NDV FEW010/// OVC013/// 03/01 Q1010=
201304131350 METAR ESMX 131350Z AUTO 26009KT 230V300 9999NDV BKN009/// OVC012/// 03/01 Q1009=
201304131320 METAR ESMX 131320Z AUTO 27011KT 9999NDV FEW007/// OVC009/// 03/01 Q1009=
201304131250 METAR ESMX 131250Z AUTO 27008KT 9999NDV BKN006/// OVC009/// 03/01 Q1009=
201304131220 METAR ESMX 131220Z AUTO 26008KT 9999NDV OVC007/// 03/01 Q1008=
201304131150 METAR ESMX 131150Z AUTO 27009KT 9999NDV FEW004/// BKN006/// OVC008/// 02/01 Q1008=
201304131120 METAR ESMX 131120Z AUTO 26010KT 9999NDV BKN005/// OVC007/// 02/01 Q1007=
201304131050 METAR ESMX 131050Z AUTO 26008KT 220V300 9999NDV OVC006/// 02/01 Q1007=
201304131020 METAR ESMX 131020Z AUTO 25007KT 220V280 9999NDV OVC006/// 02/01 Q1007=
201304130950 METAR ESMX 130950Z AUTO 25009KT 9999NDV OVC007/// 03/01 Q1006=
201304130920 METAR ESMX 130920Z 25009KT 9999 BKN007 OVC011 03/01 Q1006=
201304130850 METAR ESMX 130850Z 26009KT 230V020 9999 OVC006 03/01 Q1005=
201304130820 METAR ESMX 130820Z 26007KT 9999 OVC006 02/01 Q1005=
201304130750 METAR ESMX 130750Z 24006KT 9999 FEW005 OVC007 02/01 Q1004=
201304130720 METAR ESMX 130720Z AUTO 24007KT 210V270 9999NDV OVC005/// 02/01 Q1004=
201304130650 METAR ESMX 130650Z AUTO 25008KT 210V280 9999NDV OVC003/// 02/01 Q1003=
201304130620 METAR ESMX 130620Z AUTO 25007KT 9000NDV BR SCT003/// OVC005/// 02/01 Q1003=
201304130550 METAR ESMX 130550Z AUTO 25007KT 210V280 7000NDV BR OVC002/// 02/01 Q1003=
201304130520 METAR ESMX 130520Z AUTO 23006KT 3500NDV BR OVC001/// 02/01 Q1002=
201304130450 METAR ESMX 130450Z AUTO 24006KT 5000NDV OVC001/// 02/01 Q1002=
201304130420 METAR ESMX 130420Z AUTO 24008KT 1100NDV R01/P2000N R19/P2000N OVC001/// 02/02 Q1002=
201304130350 METAR ESMX 130350Z AUTO 23008KT 190V250 0800NDV R01/P2000D R19/P2000N FG OVC001/// 02/02 Q1002=
201304130320 METAR ESMX 130320Z AUTO 24008KT 0900NDV R01/P2000N R19/P2000N FG OVC001/// 03/02 Q1001=
201304130250 METAR ESMX 130250Z AUTO 24008KT 1500NDV BR OVC001/// 03/02 Q1001=
201304130220 METAR ESMX 130220Z AUTO 24007KT 3800NDV OVC001/// 03/02 Q1001=
201304130150 METAR ESMX 130150Z AUTO 22007KT 1400NDV R01/P2000N R19/P2000N VV002 03/02 Q1001=
201304130120 METAR ESMX 130120Z AUTO 24007KT 0900NDV R01/P2000N R19/P2000N FG VV002 03/02 Q1001=
201304130050 METAR ESMX 130050Z AUTO 25006KT 230V290 1000NDV R01/P2000N R19/P2000N OVC001/// 03/02 Q1000=
201304130020 METAR ESMX 130020Z AUTO 24006KT 1700NDV OVC001/// 03/02 Q1000=
201304122350 METAR ESMX 122350Z AUTO 24005KT 1200NDV R01/P2000N R19/P2000N VV002 03/02 Q1000=
201304122320 METAR ESMX 122320Z AUTO 24004KT 0350NDV R01/1100V1700U R19/1200N FG VV001 02/02 Q1000=
201304122250 METAR ESMX 122250Z AUTO 23001KT 0350NDV R01/1300N R19/1100N FG VV002 02/02 Q1000=
201304122220 METAR ESMX 122220Z AUTO 00000KT 0250NDV R01/0800N R19/0900N FG VV001 02/02 Q0999=
201304122150 METAR ESMX 122150Z AUTO 00000KT 0250NDV R01/0800N R19/1000D FG VV001 02/02 Q0999=
201304122120 METAR ESMX 122120Z AUTO 00000KT 0350NDV R01/1300N R19/1100V1500D FG VV002 02/01 Q0999=
201304122050 METAR ESMX 122050Z AUTO 00000KT 0400NDV R01/P2000N R19/1300U FG VV002 02/02 Q0999=
201304122020 METAR ESMX 122020Z AUTO 00000KT 0400NDV R01/1500N R19/1400N FG VV001 02/02 Q0999=
201304121950 METAR ESMX 121950Z AUTO 00000KT 0800NDV R01/P2000N R19/P2000N FG VV002 02/02 Q0999=
201304121920 METAR ESMX 121920Z AUTO 01002KT 0750NDV R01/P2000D R19/P2000N FG FEW003/// OVC004/// 02/02 Q0999=
201304121850 METAR ESMX 121850Z AUTO 00000KT 1500NDV BR OVC004/// 02/02 Q0999=
201304121820 METAR ESMX 121820Z VRB02KT 5000 FEW003 OVC005 03/02 Q0999=
201304121750 METAR ESMX 121750Z 07001KT 9999 SCT003 OVC005 03/02 Q0999=
201304121720 METAR ESMX 121720Z VRB01KT 9000 BR SCT003 OVC005 03/02 Q0998=
201304121650 METAR ESMX 121650Z 04003KT 350V070 7000 -RA SCT003 OVC005 03/02 Q0998 REDZ=
201304121620 METAR ESMX 121620Z 06004KT 5000 -DZ OVC002 03/02 Q0998=
201304121550 METAR ESMX 121550Z 04003KT 010V080 3800 -RA OVC002 03/02 Q0998=
201304121520 METAR ESMX 121520Z 06004KT 030V100 3200 -RA OVC002 03/02 Q0998=
201304121450 METAR ESMX 121450Z 05005KT 010V090 2900 -RA OVC002 03/02 Q0998 REDZ=
201304121420 METAR ESMX 121420Z 06005KT 030V100 3100 BR OVC002 03/02 Q0998=
201304121350 METAR ESMX 121350Z 05005KT 010V090 4200 -DZ BKN003 OVC004 03/02 Q0999=
201304121320 METAR ESMX 121320Z 04005KT 010V080 3600 -RA BKN003 OVC005 03/02 Q0999=
201304121250 METAR ESMX 121250Z 07005KT 040V110 2300 -RA BKN003 OVC005 03/03 Q0999=
201304121220 METAR ESMX 121220Z 06004KT 030V110 5000 -RA FEW003 OVC004 03/02 Q0999=
201304121150 METAR ESMX 121150Z 06005KT 030V110 5000 -RA OVC004 03/02 Q0999=
201304121120 METAR ESMX 121120Z 07006KT 040V110 5000 BR FEW003 OVC005 03/02 Q0998=
201304121050 METAR ESMX 121050Z 07005KT 030V110 6000 BR OVC003 03/02 Q0999=
201304121020 METAR ESMX 121020Z 07006KT 030V110 3500 -RA OVC003 03/02 Q0999 REDZ=
201304120950 METAR ESMX 120950Z 06007KT 020V100 4000 DZ OVC003 03/02 Q0999=
201304120920 METAR ESMX 120920Z 06007KT 030V100 6000 BR OVC003 03/02 Q0999=
201304120850 METAR ESMX 120850Z 06006KT 020V100 3300 -RA OVC003 03/02 Q0999=
201304120820 METAR ESMX 120820Z 05007KT 6000 BR OVC004 02/02 Q0999=
201304120750 METAR ESMX 120750Z 06006KT 030V110 4400 -RA OVC004 02/02 Q0999=
201304120720 METAR ESMX 120720Z 05006KT 030V090 5000 -RA OVC003 02/01 Q0999=
201304120650 METAR ESMX 120650Z 05007KT 020V090 4700 -RA OVC003 02/01 Q0999=
201304120620 METAR ESMX 120620Z 04011KT 5000 -RA OVC004 02/01 Q0999=
201304120550 METAR ESMX 120550Z 05009KT 3300 RA OVC004 02/01 Q0999=
201304120520 METAR ESMX 120520Z 05008KT 030V110 5000 -RA OVC003 02/01 Q1000=
201304120450 METAR ESMX 120450Z 05007KT 5000 -DZ OVC004 02/01 Q1000 REDZ=
201304120420 METAR ESMX 120420Z 06007KT 020V090 7000 -DZ OVC005 02/01 Q1000=
201304120320 METAR COR ESMX 120320Z 05007KT 9999 -DZ OVC006 01/M00 Q1001=
201304120250 METAR ESMX 120250Z AUTO 05006KT 9999NDV -RA OVC006/// 01/M00 Q1001=
201304120220 METAR ESMX 120220Z AUTO 05008KT 9999NDV OVC007/// 01/M01 Q1001=
201304120150 METAR ESMX 120150Z AUTO 06007KT 020V110 9999NDV OVC008/// 01/M01 Q1002=
201304120120 METAR ESMX 120120Z AUTO 06007KT 030V110 5000NDV RA FEW008/// OVC010/// 00/M01 Q1002=
201304120050 METAR ESMX 120050Z 06008KT 5000 -SNRA BKN011 01/M01 Q1002=
201304120020 METAR ESMX 120020Z 05007KT 010V090 9999 -RASN FEW011 SCT015 OVC019 01/M01 Q1003=
201304112350 METAR ESMX 112350Z 07007KT 7000 -RASN FEW011 SCT014 OVC017 01/M01 Q1003=
201304112320 METAR ESMX 112320Z 07006KT 040V120 4400 -SNRA FEW013 OVC017 01/M01 Q1004=
201304112250 METAR ESMX 112250Z 07006KT 030V100 6000 -SNRA OVC017 01/M01 Q1004=
201304112220 METAR ESMX 112220Z 07007KT 010V110 7000 -RASN OVC013 01/M01 Q1004=
201304112150 METAR ESMX 112150Z 07006KT 030V100 9999 -DZ OVC013 01/M02 Q1004=
201304112120 METAR ESMX 112120Z 10006KT 050V140 9999 -DZ OVC015 02/M02 Q1005=
201304112050 METAR ESMX 112050Z 09006KT 060V130 9999 OVC017 02/M03 Q1005=
201304112020 METAR ESMX 112020Z 08006KT 030V120 9999 OVC019 02/M03 Q1005=
201304111950 METAR ESMX 111950Z 08008KT 040V110 9999 OVC022 02/M03 Q1005=
201304111920 METAR ESMX 111920Z 09008KT 050V120 9999 SCT022 BKN080 02/M03 Q1006=
201304111850 METAR ESMX 111850Z 09007KT 050V140 9999 OVC024 03/M03 Q1006=
201304111820 METAR ESMX 111820Z 09008KT 050V130 9999 BKN027 OVC093 03/M03 Q1006=
201304111750 METAR ESMX 111750Z 09008KT 050V150 9999 SCT027 BKN084 BKN110 03/M03 Q1005=
201304111720 METAR ESMX 111720Z 10008KT 060V140 9999 BKN028 BKN110 04/M03 Q1005=
201304111650 METAR ESMX 111650Z 11010KT 080V150 9999 BKN028 04/M03 Q1006=
201304111620 METAR ESMX 111620Z 10008G18KT 060V170 9999 BKN029 04/M03 Q1006=
201304111550 METAR ESMX 111550Z 08008KT 050V130 9999 BKN029 05/M03 Q1006=
201304111520 METAR ESMX 111520Z 10008KT 070V140 9999 BKN029 05/M03 Q1006=
201304111450 METAR ESMX 111450Z 10008KT 040V150 9999 BKN029 05/M03 Q1006=
201304111420 METAR ESMX 111420Z 12008KT 060V170 9999 BKN028 05/M03 Q1006=
201304111350 METAR ESMX 111350Z 09007KT 050V150 9999 BKN029 05/M03 Q1007=
201304111320 METAR ESMX 111320Z 11008KT 060V150 9999 FEW026 BKN029 05/M02 Q1007=
201304111250 METAR ESMX 111250Z 12008KT 080V160 9999 BKN026 05/M02 Q1007=
201304111220 METAR ESMX 111220Z 09007KT 040V130 9999 SCT019 BKN025 05/M01 Q1007=
201304111150 METAR ESMX 111150Z 10006KT 060V140 9999 BKN020 04/M01 Q1008=
201304111120 METAR ESMX 111120Z 08006KT 050V120 9999 BKN018 03/M01 Q1008=
201304111050 METAR ESMX 111050Z 10007KT 050V140 9999 SCT016 OVC023 04/M01 Q1008=
201304111020 METAR ESMX 111020Z 09006KT 050V130 9999 BKN016 BKN024 04/M01 Q1008=
201304110950 METAR ESMX 110950Z 10008KT 060V150 9999 OVC016 03/M01 Q1008=
201304110920 METAR ESMX 110920Z 10006KT 030V150 9999 OVC015 03/M01 Q1009=
201304110850 METAR ESMX 110850Z 10007KT 060V140 9999 BKN015 OVC030 02/M01 Q1009=
201304110820 METAR ESMX 110820Z 10007KT 050V150 9999 BKN010 OVC035 02/M01 Q1009=
201304110750 METAR ESMX 110750Z 07007KT 050V110 9999 BKN009 OVC033 01/M01 Q1009=
201304110720 METAR ESMX 110720Z 08006KT 030V110 9999 BKN008 OVC029 01/M01 Q1009=
201304110650 METAR ESMX 110650Z 07006KT 030V110 9999 FEW009 OVC029 00/M02 Q1009=
201304110620 METAR ESMX 110620Z 08004KT 040V140 9999 OVC031 M00/M02 Q1009=
201304110550 METAR ESMX 110550Z 09003KT 030V160 9999 BKN030 M01/M03 Q1009=
201304110520 METAR ESMX 110520Z 06005KT 020V110 9999 BKN030 M02/M03 Q1009=
201304110450 METAR ESMX 110450Z 07005KT 030V100 9999 BKN030 M02/M04 Q1009=
201304110420 METAR ESMX 110420Z 06004KT 010V110 9999 BKN028 M02/M04 Q1009=
201304110350 METAR ESMX 110350Z 05004KT 010V090 9999 BKN029 M02/M04 Q1010=
201304110320 METAR ESMX 110320Z AUTO 07004KT 040V100 9999NDV NCD M02/M05 Q1010=
201304110250 METAR ESMX 110250Z AUTO 04003KT 010V080 9999NDV NCD M03/M05 Q1010=
201304110220 METAR ESMX 110220Z AUTO 01003KT 9999NDV NCD M03/M05 Q1010=
201304110150 METAR ESMX 110150Z AUTO 01003KT 9999NDV NCD M03/M05 Q1010=
201304110120 METAR ESMX 110120Z AUTO 01004KT 340V050 9999NDV NCD M03/M05 Q1011=
201304110050 METAR ESMX 110050Z AUTO 01004KT 9999NDV NCD M03/M05 Q1011=
201304110020 METAR ESMX 110020Z AUTO 01003KT 340V050 9999NDV NCD M02/M05 Q1011=
201304102350 METAR ESMX 102350Z 06003KT 030V110 9999 BKN030 M02/M05 Q1012=
201304102320 METAR ESMX 102320Z 07003KT 9999 SCT030 M02/M05 Q1012=
201304102150 METAR ESMX 102150Z 07004KT 030V100 9999 SCT025 M01/M05 Q1012=
201304102120 METAR ESMX 102120Z 07004KT 030V110 9999 SCT023 M01/M05 Q1012=
201304102050 METAR ESMX 102050Z 07005KT 040V120 9999 FEW030 M01/M06 Q1012=
201304102020 METAR ESMX 102020Z 08005KT 050V130 9999 FEW027 M00/M06 Q1012=
201304101950 METAR ESMX 101950Z 08005KT 050V140 9999 FEW040 00/M06 Q1012=
201304101920 METAR ESMX 101920Z 08005KT 040V110 CAVOK 00/M06 Q1012=
201304101850 METAR ESMX 101850Z 07004KT 010V110 9999 FEW034 01/M06 Q1012=
201304101820 METAR ESMX 101820Z 09006KT 050V130 CAVOK 02/M07 Q1012=
201304101750 METAR ESMX 101750Z 09007KT 050V130 CAVOK 03/M07 Q1012=
201304101720 METAR ESMX 101720Z 09007KT 050V130 CAVOK 04/M08 Q1012=
201304101650 METAR ESMX 101650Z 07006KT 350V110 CAVOK 05/M09 Q1012=
201304101620 METAR ESMX 101620Z 09008KT 050V140 CAVOK 05/M10 Q1012=
201304101550 METAR ESMX 101550Z 08008KT 050V120 CAVOK 06/M10 Q1011=
201304101520 METAR ESMX 101520Z 08007KT 040V140 CAVOK 06/M10 Q1011=
201304101450 METAR ESMX 101450Z 06007KT 020V110 CAVOK 07/M10 Q1011=
201304101420 METAR ESMX 101420Z 07007KT 030V110 CAVOK 06/M10 Q1011=
201304101350 METAR ESMX 101350Z 08008KT 030V120 CAVOK 06/M10 Q1011=
201304101320 METAR ESMX 101320Z 06009KT 030V100 CAVOK 06/M10 Q1012=
201304101250 METAR ESMX 101250Z 07007KT 010V120 CAVOK 06/M10 Q1012=
201304101220 METAR ESMX 101220Z 07008KT 030V110 CAVOK 06/M10 Q1012=
201304101150 METAR ESMX 101150Z 09008KT 020V140 CAVOK 06/M09 Q1012=
201304101120 METAR ESMX 101120Z 07010KT 030V110 CAVOK 05/M08 Q1012=
201304101050 METAR ESMX 101050Z 07008KT 030V120 9999 FEW045 05/M08 Q1012=
201304101020 METAR COR ESMX 101020Z 07009KT 030V120 9999 FEW035 05/M08 Q1012=
201304100950 METAR ESMX 100950Z 09007KT 030V150 9999 FEW035 04/M07 Q1013=
201304100920 METAR ESMX 100920Z 10008KT 050V150 9999 FEW035 04/M06 Q1013=
201304100850 METAR ESMX 100850Z 07007KT 020V140 9999 FEW033 03/M06 Q1013=
201304100820 METAR ESMX 100820Z 08007KT 020V150 9999 FEW031 03/M05 Q1013=
201304100750 METAR ESMX 100750Z 08008KT 030V120 CAVOK 02/M05 Q1013=
201304100720 METAR ESMX 100720Z 09006KT 040V120 CAVOK 01/M04 Q1013=
201304100650 METAR ESMX 100650Z 06007KT 030V110 CAVOK 00/M04 Q1013=
201304100620 METAR ESMX 100620Z 06006KT 030V090 CAVOK M01/M04 Q1013=
201304100550 METAR ESMX 100550Z 06006KT CAVOK M02/M05 Q1013=
201304100520 METAR ESMX 100520Z 06005KT 010V100 CAVOK M04/M05 Q1013=
201304100450 METAR ESMX 100450Z 06004KT 020V100 CAVOK M04/M06 Q1013=
201304100420 METAR ESMX 100420Z 04004KT CAVOK M05/M06 Q1013=
201304100350 METAR ESMX 100350Z 06004KT 030V100 CAVOK M04/M06 Q1013=
201304100320 METAR ESMX 100320Z AUTO 06004KT 030V110 9999NDV NCD M04/M07 Q1013=
201304100250 METAR ESMX 100250Z AUTO 06003KT 030V090 9999NDV FEW023/// M04/M07 Q1013=
201304100220 METAR ESMX 100220Z AUTO 06004KT 030V100 9999NDV NCD M04/M07 Q1013=
201304100150 METAR ESMX 100150Z AUTO 05003KT 9999NDV NCD M04/M07 Q1013=
201304100120 METAR ESMX 100120Z AUTO 06003KT 9999NDV NCD M04/M07 Q1013=
201304100050 METAR ESMX 100050Z AUTO 07004KT 9999NDV NCD M03/M07 Q1013=
201304100020 METAR ESMX 100020Z AUTO 06004KT 9999NDV NCD M03/M07 Q1013=
201304092350 METAR ESMX 092350Z 07004KT CAVOK M03/M06 Q1013=
201304092320 METAR ESMX 092320Z 07003KT 040V110 9999 FEW022 M02/M06 Q1014=
201304092250 METAR ESMX 092250Z 09004KT 050V140 9999 SCT029 M02/M07 Q1014=
201304092220 METAR ESMX 092220Z 11007KT 070V140 9999 BKN028 M01/M07 Q1014=
201304092150 METAR ESMX 092150Z 12005KT 060V160 9999 OVC028 M01/M07 Q1014=
201304092120 METAR ESMX 092120Z 10005KT 050V200 9999 OVC030 M01/M08 Q1014=
201304092050 METAR ESMX 092050Z 10005KT 070V150 9999 OVC030 M01/M07 Q1014=
201304092020 METAR ESMX 092020Z 11006KT 070V150 9999 OVC030 M01/M08 Q1014=
201304091950 METAR ESMX 091950Z 09007KT 020V150 9999 OVC030 M00/M08 Q1014=
201304091920 METAR ESMX 091920Z 10007KT 060V130 9999 OVC032 M00/M08 Q1014=
201304091850 METAR ESMX 091850Z 10007KT 050V140 9999 BKN033 M00/M08 Q1014=
201304091820 METAR ESMX 091820Z 10005KT 360V160 9999 BKN034 00/M08 Q1014=
201304091750 METAR ESMX 091750Z 09007KT 040V130 9999 BKN036 00/M08 Q1014=
201304091720 METAR ESMX 091720Z 09006KT 050V120 9999 BKN036 01/M08 Q1014=
201304091650 METAR ESMX 091650Z 08006KT 030V120 9999 SCT040 01/M08 Q1013=
201304091620 METAR ESMX 091620Z 12007KT 070V170 9999 SCT038 02/M08 Q1013=
201304091550 METAR ESMX 091550Z 11008KT 070V150 CAVOK 02/M08 Q1013=
201304091520 METAR ESMX 091520Z 11007KT 060V160 CAVOK 03/M08 Q1013=
201304091450 METAR ESMX 091450Z 09007KT 030V150 CAVOK 03/M09 Q1013=
201304091420 METAR ESMX 091420Z 10007KT 060V160 9999 BKN049 04/M09 Q1014=
201304091350 METAR ESMX 091350Z 10008KT 060V150 9999 FEW046 BKN052 04/M08 Q1014=
201304091320 METAR ESMX 091320Z 09007KT 040V140 9999 BKN048 03/M08 Q1014=
201304091250 METAR ESMX 091250Z 07007KT 030V120 CAVOK 04/M09 Q1014=
201304091220 METAR ESMX 091220Z 06006KT 030V100 CAVOK 04/M10 Q1014=
201304091150 METAR ESMX 091150Z 06008KT 020V100 CAVOK 04/M10 Q1014=
201304091120 METAR ESMX 091120Z 06007KT CAVOK 04/M10 Q1014=
201304091050 METAR ESMX 091050Z 10005KT 030V160 CAVOK 04/M11 Q1014=
201304091020 METAR ESMX 091020Z 09005KT 030V160 CAVOK 04/M11 Q1014=
201304090950 METAR ESMX 090950Z 07005KT 020V130 CAVOK 04/M10 Q1015=
201304090920 METAR ESMX 090920Z 08005KT 030V140 CAVOK 03/M10 Q1015=
201304090850 METAR ESMX 090850Z 12006KT 070V160 CAVOK 03/M10 Q1015=
201304090820 METAR ESMX 090820Z 15007KT 100V170 CAVOK 02/M10 Q1015=
201304090750 METAR ESMX 090750Z 12006KT 080V160 CAVOK 02/M09 Q1015=
201304090720 METAR ESMX 090720Z 11007KT 070V160 CAVOK 01/M09 Q1015=
201304090650 METAR ESMX 090650Z 12004KT 070V170 CAVOK 01/M08 Q1014=
201304090620 METAR ESMX 090620Z 03003KT 350V080 CAVOK M01/M07 Q1014=
201304090550 METAR ESMX 090550Z VRB02KT CAVOK M05/M07 Q1014=
201304090520 METAR ESMX 090520Z 01003KT CAVOK M06/M07 Q1014=
201304090450 METAR ESMX 090450Z 01004KT CAVOK M08/M09 Q1014=
201304090420 METAR ESMX 090420Z 01002KT CAVOK M09/M10 Q1014=
201304090350 METAR ESMX 090350Z 02001KT CAVOK M08/M09 Q1014=
201304090320 METAR ESMX 090320Z AUTO 01003KT 9999NDV NCD M08/M09 Q1014=
201304090250 METAR ESMX 090250Z AUTO 01002KT 9999NDV NCD M08/M10 Q1014=
201304090220 METAR ESMX 090220Z AUTO 36002KT 9999NDV NCD M08/M10 Q1014=
201304090150 METAR ESMX 090150Z AUTO 00000KT 9999NDV NCD M08/M10 Q1014=
201304090120 METAR ESMX 090120Z AUTO 00000KT 9999NDV NCD M08/M10 Q1014=
201304090050 METAR ESMX 090050Z AUTO VRB02KT 9999NDV NCD M08/M10 Q1014=
201304090020 METAR ESMX 090020Z AUTO 00000KT 9999NDV NCD M07/M09 Q1014=
201304082350 METAR ESMX 082350Z VRB01KT CAVOK M07/M10 Q1014=
201304082320 METAR ESMX 082320Z VRB02KT CAVOK M06/M09 Q1013=
201304082250 METAR ESMX 082250Z 09002KT CAVOK M04/M08 Q1013=
201304082220 METAR ESMX 082220Z 06003KT CAVOK M04/M09 Q1013=
201304082120 METAR ESMX 082120Z VRB02KT CAVOK M04/M10 Q1013=
201304082050 METAR ESMX 082050Z 09003KT 040V140 CAVOK M03/M10 Q1013=
201304082020 METAR ESMX 082020Z 07004KT CAVOK M03/M11 Q1013=
201304081950 METAR ESMX 081950Z 05001KT CAVOK M04/M10 Q1012=
201304081920 METAR ESMX 081920Z 00000KT CAVOK M04/M10 Q1012=
201304081850 METAR ESMX 081850Z 00000KT CAVOK M03/M11 Q1012=
201304081820 METAR ESMX 081820Z 00000KT CAVOK M02/M11 Q1012=
201304081750 METAR ESMX 081750Z VRB02KT CAVOK 01/M12 Q1011=
201304081720 METAR ESMX 081720Z 35005KT CAVOK 02/M12 Q1011=
201304081650 METAR ESMX 081650Z 33007KT CAVOK 04/M12 Q1011=
201304081620 METAR ESMX 081620Z 31006KT 280V360 CAVOK 05/M12 Q1011=
201304081550 METAR ESMX 081550Z 33008KT 9999 FEW060CB 04/M12 Q1011=
201304081520 METAR ESMX 081520Z 34005KT 290V030 9999 FEW040CB 05/M12 Q1011=
201304081450 METAR ESMX 081450Z 31012KT 9999 FEW038CB 04/M11 Q1011=
201304081420 METAR ESMX 081420Z 36008KT 9999 FEW050CB 05/M11 Q1011=
201304081350 METAR ESMX 081350Z 36010KT 9999 FEW037CB SCT050 04/M11 Q1011=
201304081320 METAR ESMX 081320Z 36010KT 9999 FEWCB050 SCT060 05/M11 Q1011=
201304081250 METAR ESMX 081250Z 01010KT 9999 FEW050TCU SCT060 04/M11 Q1011=
201304081220 METAR ESMX 081220Z 35010KT 9999 FEW050TCU SCT060 05/M11 Q1011=
201304081150 METAR ESMX 081150Z 29009KT 250V320 CAVOK 06/M11 Q1011=
201304081120 METAR ESMX 081120Z 33010KT 300V360 CAVOK 05/M12 Q1011=
201304081050 METAR ESMX 081050Z 32010KT 280V010 CAVOK 05/M11 Q1011=
201304081020 METAR ESMX 081020Z 30011KT CAVOK 05/M12 Q1011=
201304080950 METAR ESMX 080950Z 31009KT 280V350 CAVOK 04/M12 Q1011=
201304080920 METAR ESMX 080920Z 34010KT 300V010 CAVOK 04/M11 Q1011=
201304080850 METAR ESMX 080850Z 36010KT CAVOK 04/M11 Q1011=
201304080820 METAR ESMX 080820Z 34009KT CAVOK 03/M11 Q1011=
201304080750 METAR ESMX 080750Z 33007KT 280V360 CAVOK 02/M08 Q1011=
201304080720 METAR ESMX 080720Z 30005KT CAVOK 00/M07 Q1011=
201304080650 METAR ESMX 080650Z 30006KT CAVOK M01/M06 Q1011=
201304080620 METAR ESMX 080620Z 28005KT CAVOK M02/M06 Q1011=
201304080550 METAR ESMX 080550Z 25003KT CAVOK M03/M06 Q1011=
201304080520 METAR ESMX 080520Z 27003KT CAVOK M06/M07 Q1010=
201304080450 METAR ESMX 080450Z 17002KT CAVOK M08/M09 Q1010=
201304080350 METAR ESMX 080350Z VRB01KT CAVOK M08/M09 Q1010=
201304080320 METAR ESMX 080320Z AUTO VRB02KT 9999NDV NCD M07/M09 Q1010=
201304080250 METAR ESMX 080250Z AUTO 18003KT 9999NDV NCD M07/M09 Q1011=
201304080220 METAR ESMX 080220Z AUTO 27002KT 9999NDV NCD M06/M08 Q1011=
201304080150 METAR ESMX 080150Z AUTO 27002KT 9999NDV NCD M07/M08 Q1011=
201304080120 METAR ESMX 080120Z AUTO 26003KT 9999NDV NCD M07/M08 Q1011=
201304080050 METAR ESMX 080050Z AUTO 20003KT 9999NDV NCD M06/M08 Q1011=
201304080020 METAR ESMX 080020Z AUTO 18002KT 9999NDV NCD M05/M08 Q1011=
201304072350 METAR ESMX 072350Z AUTO 18002KT 9999NDV NCD M05/M08 Q1011=
201304072320 METAR ESMX 072320Z 30002KT CAVOK M04/M07 Q1011=
201304072250 METAR ESMX 072250Z 32003KT CAVOK M04/M07 Q1011=
201304072220 METAR ESMX 072220Z 30005KT CAVOK M04/M07 Q1011=
201304072150 METAR ESMX 072150Z 31005KT 280V020 CAVOK M02/M07 Q1011=
201304072120 METAR ESMX 072120Z 28005KT CAVOK M02/M07 Q1011=
201304072050 METAR ESMX 072050Z 26005KT CAVOK M01/M07 Q1011=
201304071950 METAR ESMX 071950Z 25004KT 9999 FEW040 SCT060 M00/M07 Q1011=
201304071920 METAR ESMX 071920Z 25006KT 9999 FEW041 SCT060 01/M07 Q1011=
201304071850 METAR ESMX 071850Z 24007KT CAVOK 01/M06 Q1011=
201304071820 METAR ESMX 071820Z 25008KT CAVOK 01/M06 Q1011=
201304071750 METAR ESMX 071750Z 24008KT CAVOK 02/M06 Q1010=
201304071720 METAR ESMX 071720Z 24009KT CAVOK 03/M06 Q1010=
201304071650 METAR ESMX 071650Z 25010KT 210V280 9999 VCSH FEW049CB 05/M07 Q1010=
201304071620 METAR ESMX 071620Z 25010KT 9999 VCSH FEW051CB 05/M07 Q1010=
201304071550 METAR ESMX 071550Z 26012KT 9999 FEW049 06/M06 Q1010=
201304071520 METAR ESMX 071520Z 26010KT 9999 FEW045 06/M05 Q1010=
201304071450 METAR ESMX 071450Z 27011KT 9999 SCT044 06/M06 Q1010=
201304071420 METAR ESMX 071420Z 28013KT 9999 FEW041 SCT050 06/M05 Q1010=
201304071350 METAR ESMX 071350Z 26012KT 9999 FEW036 SCT046 06/M04 Q1010=
201304071320 METAR ESMX 071320Z 26012KT 9999 FEW040 SCT052 05/M03 Q1011=
201304071250 METAR ESMX 071250Z 24012G22KT 210V270 9999 FEW042 SCT056 06/M04 Q1011=
201304071220 METAR ESMX 071220Z 26014KT 9999 VCSH FEW040CB SCT045 05/M04 Q1011=
201304071150 METAR ESMX 071150Z AUTO 31013KT 9999NDV -RA FEW005/// SCT035/// BKN049/// 04/M04 Q1011=
201304071120 METAR ESMX 071120Z AUTO 26011KT 230V320 9999NDV FEW008/// SCT034/// BKN042/// 05/M03 Q1011=
201304071050 METAR ESMX 071050Z AUTO 25013KT 230V290 9999NDV FEW006/// SCT049/// 04/M02 Q1011=
201304071020 METAR ESMX 071020Z AUTO 26013KT 210V290 9999NDV FEW038/// SCT058/// 06/M05 Q1011=
201304070950 METAR ESMX 070950Z AUTO 27014KT 240V310 9999NDV FEW038/// SCT043/// BKN050/// 04/M05 Q1012=
201304070920 METAR ESMX 070920Z AUTO 27014KT 240V310 9999NDV FEW030/// SCT038/// BKN049/// 04/M05 Q1012=
201304070850 METAR ESMX 070850Z AUTO 27013KT 240V310 9999NDV FEW032/// SCT040/// BKN047/// 03/M04 Q1012=
201304070820 METAR ESMX 070820Z AUTO 29013KT 9999NDV FEW022/// SCT029/// BKN039/// 04/M04 Q1012=
201304070750 METAR ESMX 070750Z AUTO 26012KT 230V300 9999NDV FEW021/// SCT024/// BKN030/// 02/M03 Q1012=
201304070720 METAR ESMX 070720Z AUTO 25011KT 9999NDV FEW019/// SCT040/// BKN045/// 02/M03 Q1012=
201304070650 METAR ESMX 070650Z AUTO 25010KT 9999NDV FEW016/// SCT038/// BKN044/// 01/M02 Q1012=
201304070620 METAR ESMX 070620Z AUTO 25010KT 9999NDV BKN042/// 01/M02 Q1012 REDZ=
201304070550 METAR ESMX 070550Z AUTO 23010KT 9999NDV -DZ FEW019/// SCT025/// BKN047/// 00/M02 Q1012 RESG=
201304070520 METAR ESMX 070520Z AUTO 23007KT 9999NDV SG FEW005/// SCT013/// BKN019/// M00/M03 Q1012=
201304070450 METAR ESMX 070450Z AUTO 22007KT 9999NDV FEW025/// OVC037/// M00/M03 Q1012=
201304070420 METAR ESMX 070420Z AUTO 22007KT 9999NDV OVC037/// M00/M03 Q1012=
201304070350 METAR ESMX 070350Z AUTO 24007KT 9999NDV BKN036/// M00/M02 Q1012=
201304070320 METAR ESMX 070320Z AUTO 24007KT 9999NDV BKN043/// M01/M03 Q1012=
201304070250 METAR ESMX 070250Z AUTO 23008KT 9999NDV BKN039/// M01/M03 Q1012=
201304070220 METAR ESMX 070220Z AUTO 23007KT 9999NDV NCD M01/M03 Q1013=
201304070150 METAR ESMX 070150Z AUTO 23007KT 9999NDV NCD M02/M03 Q1013=
201304070120 METAR ESMX 070120Z AUTO 23007KT 9999NDV NCD M01/M03 Q1013=
201304070050 METAR ESMX 070050Z AUTO 23006KT 9999NDV NCD M01/M03 Q1014=
201304070020 METAR ESMX 070020Z AUTO 23007KT 9999NDV FEW020/// M01/M03 Q1014=
201304062350 METAR ESMX 062350Z AUTO 22007KT 9999NDV FEW027/// M00/M02 Q1014=
201304062320 METAR ESMX 062320Z AUTO 21007KT 9999NDV FEW046/// M00/M02 Q1014=
201304062250 METAR ESMX 062250Z AUTO 21006KT 9999NDV NCD 00/M02 Q1014=
201304062220 METAR ESMX 062220Z AUTO 23007KT 9999NDV NCD 00/M02 Q1014=
201304062150 METAR ESMX 062150Z AUTO 23008KT 9999NDV FEW050/// SCT064/// 01/M02 Q1014=
201304062120 METAR ESMX 062120Z AUTO 23006KT 9999NDV FEW042/// SCT049/// BKN066/// 01/M03 Q1014=
201304062050 METAR ESMX 062050Z AUTO 22006KT 9999NDV -RA FEW026/// BKN042/// BKN051/// 01/M03 Q1015=
201304062020 METAR ESMX 062020Z AUTO 21007KT 9999NDV FEW031/// SCT072/// 01/M03 Q1015=
201304061950 METAR ESMX 061950Z AUTO 23006KT 9999NDV FEW045/// 01/M04 Q1015=
201304061920 METAR ESMX 061920Z AUTO 23006KT 9999NDV FEW044/// 01/M05 Q1015=
201304061850 METAR ESMX 061850Z AUTO 22006KT 9999NDV NCD 02/M06 Q1015=
201304061820 METAR ESMX 061820Z AUTO 24006KT 9999NDV NCD 03/M06 Q1015=
201304061750 METAR ESMX 061750Z AUTO 25008KT 9999NDV NCD 04/M07 Q1014=
201304061720 METAR ESMX 061720Z AUTO 25008KT 9999NDV FEW055/// 05/M08 Q1014=
201304061650 METAR ESMX 061650Z AUTO 23005KT 190V260 9999NDV BKN056/// 06/M07 Q1015=
201304061620 METAR ESMX 061620Z AUTO 24007KT 9999NDV FEW056/// SCT074/// 05/M06 Q1015=
201304061550 METAR ESMX 061550Z AUTO 26007KT 210V290 9999NDV FEW064/// SCT075/// 06/M07 Q1015=
201304061520 METAR ESMX 061520Z AUTO 25008KT 9999NDV BKN067/// 06/M07 Q1015=
201304061450 METAR ESMX 061450Z AUTO 26007KT 240V300 9999NDV FEW061/// SCT072/// 07/M07 Q1015=
201304061420 METAR ESMX 061420Z AUTO 25008KT 210V280 9999NDV BKN057/// 06/M08 Q1016=
201304061350 METAR ESMX 061350Z AUTO 25008KT 200V300 9999NDV BKN061/// 06/M09 Q1016=
201304061320 METAR ESMX 061320Z AUTO 24008KT 200V290 9999NDV BKN061/// 08/M08 Q1016=
201304061250 METAR ESMX 061250Z AUTO 31006KT 270V010 9999NDV SCT062/// 07/M10 Q1016=
201304061220 METAR ESMX 061220Z AUTO 34008KT 9999NDV OVC061/// 07/M08 Q1016=
201304061150 METAR ESMX 061150Z AUTO 26008KT 220V290 9999NDV BKN061/// 08/M09 Q1016=
201304061120 METAR ESMX 061120Z AUTO VRB06KT 9999NDV BKN056/// 07/M09 Q1017=
201304061050 METAR ESMX 061050Z AUTO 32006KT 9999NDV BKN057/// 05/M09 Q1017=
201304061020 METAR ESMX 061020Z AUTO 26004KT 200V310 9999NDV SCT056/// 06/M08 Q1017=
201304060950 METAR ESMX 060950Z AUTO 01006KT 320V040 9999NDV SCT049/// 05/M08 Q1017=
201304060920 METAR ESMX 060920Z VRB03KT CAVOK 06/M08 Q1017=
201304060850 METAR ESMX 060850Z VRB03KT CAVOK 05/M07 Q1017=
201304060820 METAR ESMX 060820Z VRB02KT CAVOK 05/M06 Q1017=
201304060750 METAR ESMX 060750Z VRB02KT CAVOK 04/M05 Q1017=
201304060720 METAR ESMX 060720Z VRB02KT CAVOK 02/M05 Q1017=
201304060650 METAR ESMX 060650Z AUTO VRB01KT 9999NDV NCD 00/M05 Q1017=
201304060620 METAR ESMX 060620Z AUTO VRB01KT 9999NDV NCD M02/M05 Q1017=
201304060550 METAR ESMX 060550Z AUTO 00000KT 9999NDV NCD M05/M06 Q1017=
201304060520 METAR ESMX 060520Z AUTO 00000KT 9999NDV NCD M08/M09 Q1017=
201304060450 METAR ESMX 060450Z AUTO 00000KT 9999NDV NCD M08/M09 Q1017=
201304060420 METAR ESMX 060420Z AUTO 00000KT 9999NDV NCD M08/M09 Q1017=
201304060350 METAR ESMX 060350Z AUTO 19002KT 9999NDV NCD M08/M09 Q1017=
201304060320 METAR ESMX 060320Z AUTO 17002KT 9999NDV NCD M07/M08 Q1017=
201304060250 METAR ESMX 060250Z AUTO 18001KT 9999NDV NCD M07/M07 Q1017=
201304060220 METAR ESMX 060220Z AUTO 00000KT 9999NDV NCD M07/M08 Q1017=
201304060150 METAR ESMX 060150Z AUTO 00000KT 9999NDV NCD M07/M08 Q1017=
201304060120 METAR ESMX 060120Z AUTO 00000KT 9999NDV NCD M06/M07 Q1017=
201304060050 METAR ESMX 060050Z AUTO 00000KT 9999NDV NCD M06/M07 Q1017=
201304060020 METAR ESMX 060020Z AUTO 01002KT 9999NDV NCD M06/M07 Q1017=
201304052350 METAR ESMX 052350Z AUTO 36001KT 9999NDV NCD M05/M07 Q1017=
201304052320 METAR ESMX 052320Z AUTO 36001KT 9999NDV NCD M05/M07 Q1017=
201304052250 METAR ESMX 052250Z AUTO 01001KT 9999NDV NCD M04/M07 Q1017=
201304052220 METAR ESMX 052220Z AUTO 01001KT 9999NDV NCD M04/M06 Q1017=
201304052150 METAR ESMX 052150Z AUTO 00000KT 9999NDV NCD M04/M06 Q1017=
201304052120 METAR ESMX 052120Z AUTO 00000KT 9999NDV NCD M04/M07 Q1017=
201304052050 METAR ESMX 052050Z AUTO 00000KT 9999NDV NCD M03/M07 Q1017=
201304052020 METAR ESMX 052020Z AUTO 02001KT 9999NDV NCD M02/M07 Q1017=
201304051950 METAR ESMX 051950Z AUTO VRB01KT 9999NDV NCD M01/M07 Q1016=
201304051920 METAR ESMX 051920Z AUTO 03003KT 9999NDV NCD 01/M07 Q1016=
201304051850 METAR ESMX 051850Z 04003KT CAVOK 01/M07 Q1016=
201304051820 METAR ESMX 051820Z 04004KT CAVOK 02/M07 Q1016=
201304051750 METAR ESMX 051750Z 04007KT CAVOK 03/M07 Q1015=
201304051720 METAR ESMX 051720Z 04007KT CAVOK 04/M07 Q1015=
201304051650 METAR ESMX 051650Z 04009KT CAVOK 04/M07 Q1015=
201304051620 METAR ESMX 051620Z 04011KT CAVOK 05/M07 Q1015=
201304051550 METAR ESMX 051550Z 04011KT 010V080 9999 FEW041 05/M06 Q1015=
201304051520 METAR ESMX 051520Z 04012KT 010V070 CAVOK 05/M06 Q1015=
201304051450 METAR ESMX 051450Z 04013KT CAVOK 05/M07 Q1015=
201304051420 METAR ESMX 051420Z 04013KT CAVOK 07/M07 Q1015=
201304051350 METAR ESMX 051350Z 04012KT 010V070 CAVOK 07/M08 Q1015=
201304051320 METAR ESMX 051320Z 02013KT 340V050 CAVOK 07/M08 Q1015=
201304051250 METAR ESMX 051250Z 05010KT CAVOK 08/M09 Q1015=
201304051220 METAR ESMX 051220Z 02011KT 340V060 CAVOK 06/M09 Q1015=
201304051150 METAR ESMX 051150Z 05012KT 020V080 CAVOK 06/M09 Q1015=
201304051120 METAR ESMX 051120Z 03012KT 010V070 CAVOK 06/M09 Q1015=
201304051050 METAR ESMX 051050Z 03013KT 350V060 CAVOK 05/M08 Q1016=
201304051020 METAR ESMX 051020Z 04013KT 010V070 CAVOK 05/M07 Q1016=
201304050950 METAR ESMX 050950Z 01013KT CAVOK 04/M08 Q1016=
201304050920 METAR ESMX 050920Z 04012KT 010V080 CAVOK 04/M08 Q1016=
201304050850 METAR ESMX 050850Z 02013KT CAVOK 04/M08 Q1016=
201304050820 METAR ESMX 050820Z 04011KT CAVOK 03/M08 Q1016=
201304050750 METAR ESMX 050750Z 02010KT CAVOK 03/M08 Q1016=
201304050720 METAR ESMX 050720Z 01009KT CAVOK 00/M08 Q1016=
201304050650 METAR ESMX 050650Z 02009KT CAVOK M01/M08 Q1016=
201304050620 METAR ESMX 050620Z 02008KT CAVOK M02/M08 Q1016=
201304050550 METAR ESMX 050550Z 36007KT CAVOK M03/M08 Q1016=
201304050520 METAR ESMX 050520Z 36007KT CAVOK M05/M08 Q1016=
201304050450 METAR ESMX 050450Z 36006KT CAVOK M05/M08 Q1016=
201304050420 METAR ESMX 050420Z 36007KT CAVOK M05/M08 Q1016=
201304050350 METAR ESMX 050350Z 36006KT CAVOK M05/M08 Q1016=
201304050320 METAR ESMX 050320Z AUTO 36006KT 9999NDV NCD M05/M08 Q1016=
201304050250 METAR ESMX 050250Z AUTO 36006KT 9999NDV NCD M05/M07 Q1016=
201304050220 METAR ESMX 050220Z AUTO 02006KT 9999NDV NCD M04/M07 Q1016=
201304050150 METAR ESMX 050150Z AUTO 02006KT 9999NDV NCD M04/M08 Q1017=
201304050120 METAR ESMX 050120Z AUTO 02006KT 9999NDV NCD M04/M08 Q1017=
201304050050 METAR ESMX 050050Z AUTO 01006KT 9999NDV NCD M05/M08 Q1017=
201304050020 METAR ESMX 050020Z 01005KT CAVOK M04/M08 Q1017=
201304042350 METAR ESMX 042350Z 01006KT CAVOK M04/M08 Q1017=
201304042320 METAR ESMX 042320Z 02006KT CAVOK M03/M08 Q1018=
201304042250 METAR ESMX 042250Z 03005KT CAVOK M02/M08 Q1018=
201304042220 METAR ESMX 042220Z 02006KT CAVOK M03/M09 Q1018=
201304042150 METAR ESMX 042150Z 02006KT CAVOK M02/M08 Q1018=
201304042050 METAR ESMX 042050Z 02005KT CAVOK M02/M09 Q1018=
201304042020 METAR ESMX 042020Z 04005KT CAVOK M00/M09 Q1018=
201304041950 METAR ESMX 041950Z 04004KT CAVOK M00/M09 Q1018=
201304041920 METAR ESMX 041920Z 06004KT CAVOK 00/M09 Q1018=
201304041850 METAR ESMX 041850Z 06004KT 030V090 CAVOK 01/M10 Q1018=
201304041820 METAR ESMX 041820Z 05005KT CAVOK 02/M11 Q1018=
201304041750 METAR ESMX 041750Z 05006KT 020V090 CAVOK 03/M11 Q1018=
201304041720 METAR ESMX 041720Z 04007KT CAVOK 04/M10 Q1018=
201304041650 METAR ESMX 041650Z 04008KT 020V090 CAVOK 05/M10 Q1018=
201304041620 METAR ESMX 041620Z 06008KT CAVOK 06/M11 Q1018=
201304041550 METAR ESMX 041550Z 06009KT 030V100 CAVOK 06/M11 Q1018=
201304041520 METAR ESMX 041520Z 04011KT 010V070 CAVOK 06/M11 Q1018=
201304041450 METAR ESMX 041450Z 04009KT 010V070 CAVOK 07/M10 Q1018=
201304041420 METAR ESMX 041420Z 01009KT CAVOK 07/M11 Q1018=
201304041350 METAR ESMX 041350Z 03011KT 010V080 CAVOK 07/M10 Q1018=
201304041320 METAR ESMX 041320Z 01010KT CAVOK 07/M10 Q1018=
201304041250 METAR ESMX 041250Z 03010KT 360V080 CAVOK 07/M10 Q1019=
201304041220 METAR ESMX 041220Z 03009KT 340V070 CAVOK 06/M10 Q1019=
201304041150 METAR ESMX 041150Z 02009KT 350V070 CAVOK 06/M10 Q1019=
201304041120 METAR ESMX 041120Z 01009KT 340V050 CAVOK 06/M10 Q1020=
201304041050 METAR ESMX 041050Z 05009KT CAVOK 06/M10 Q1020=
201304041020 METAR ESMX 041020Z 04009KT CAVOK 05/M10 Q1020=
201304040450 METAR ESMX 040450Z 02003KT CAVOK M09/M11 Q1022=
201304040420 METAR ESMX 040420Z 01002KT CAVOK M09/M11 Q1022=
201304040350 METAR ESMX 040350Z 35002KT CAVOK M09/M11 Q1022=
201304040320 METAR ESMX 040320Z AUTO 01002KT 9999NDV NCD M09/M11 Q1022=
201304040250 METAR ESMX 040250Z AUTO 01002KT 9999NDV NCD M09/M11 Q1022=
201304040220 METAR ESMX 040220Z AUTO 01002KT 9999NDV NCD M09/M11 Q1023=
201304040150 METAR ESMX 040150Z AUTO 02001KT 9999NDV NCD M08/M10 Q1023=
201304040120 METAR ESMX 040120Z AUTO 03001KT 9999NDV NCD M08/M10 Q1023=
201304040050 METAR ESMX 040050Z AUTO 36002KT 9999NDV NCD M08/M10 Q1023=
201304040020 METAR ESMX 040020Z 02002KT CAVOK M07/M09 Q1023=
201304032350 METAR ESMX 032350Z 01003KT CAVOK M07/M09 Q1024=
201304032320 METAR ESMX 032320Z 36002KT CAVOK M07/M10 Q1024=
201304032250 METAR ESMX 032250Z 36002KT CAVOK M06/M09 Q1024=
201304032220 METAR ESMX 032220Z 01003KT CAVOK M06/M09 Q1024=
201304032150 METAR ESMX 032150Z 02002KT CAVOK M05/M09 Q1024=
201304032120 METAR ESMX 032120Z 01003KT CAVOK M04/M09 Q1024=
201304032050 METAR ESMX 032050Z 00000KT CAVOK M04/M10 Q1024=
201304031950 METAR ESMX 031950Z 12002KT CAVOK M02/M09 Q1024=
201304031920 METAR ESMX 031920Z VRB01KT CAVOK M01/M10 Q1024=
201304031850 METAR ESMX 031850Z 12003KT CAVOK M00/M11 Q1024=
201304031820 METAR ESMX 031820Z 10003KT 070V150 CAVOK 02/M12 Q1024=
201304031750 METAR ESMX 031750Z 10004KT 070V140 CAVOK 03/M12 Q1024=
201304031720 METAR ESMX 031720Z 09006KT 050V120 CAVOK 04/M11 Q1024=
201304031650 METAR ESMX 031650Z 09006KT 040V140 CAVOK 05/M11 Q1023=
201304031620 METAR ESMX 031620Z 06007KT 030V100 CAVOK 06/M11 Q1023=
201304031550 METAR ESMX 031550Z 07007KT 030V120 CAVOK 06/M12 Q1023=
201304031520 METAR ESMX 031520Z 07006KT 030V120 CAVOK 07/M14 Q1023=
201304031450 METAR ESMX 031450Z 07007KT 010V120 CAVOK 07/M13 Q1023=
201304031420 METAR ESMX 031420Z 06007KT 010V100 CAVOK 07/M12 Q1024=
201304031350 METAR ESMX 031350Z 05008KT 020V080 CAVOK 08/M13 Q1024=
201304031320 METAR ESMX 031320Z 06008KT 030V120 CAVOK 08/M13 Q1024=
201304031250 METAR ESMX 031250Z 06008KT 020V100 CAVOK 07/M13 Q1024=
201304031220 METAR ESMX 031220Z 06008KT 030V120 CAVOK 07/M12 Q1024=
201304031150 METAR ESMX 031150Z 04008KT 010V110 CAVOK 08/M11 Q1024=
201304031120 METAR ESMX 031120Z 04008KT 010V080 CAVOK 07/M10 Q1024=
201304031050 METAR ESMX 031050Z 01007KT 330V050 CAVOK 07/M09 Q1025=
201304031020 METAR ESMX 031020Z 35006KT CAVOK 06/M09 Q1025=
201304030950 METAR ESMX 030950Z 34005KT 280V040 CAVOK 05/M09 Q1025=
201304030920 METAR ESMX 030920Z 33004KT 270V010 CAVOK 05/M09 Q1025=
201304030850 METAR ESMX 030850Z 04003KT 010V090 CAVOK 04/M07 Q1025=
201304030820 METAR ESMX 030820Z 03004KT 340V070 CAVOK 03/M07 Q1025=
201304030750 METAR ESMX 030750Z 01004KT CAVOK 01/M07 Q1025=
201304030720 METAR ESMX 030720Z VRB02KT CAVOK M01/M06 Q1025=
201304030650 METAR ESMX 030650Z 35004KT CAVOK M03/M06 Q1024=
201304030620 METAR ESMX 030620Z 36003KT CAVOK M04/M06 Q1024=
201304030550 METAR ESMX 030550Z 36002KT CAVOK M07/M08 Q1024=
201304030520 METAR ESMX 030520Z VRB01KT CAVOK M08/M09 Q1024=
201304030450 METAR ESMX 030450Z 02002KT CAVOK M09/M10 Q1024=
201304030420 METAR ESMX 030420Z 36003KT CAVOK M09/M10 Q1023=
201304030350 METAR ESMX 030350Z VRB01KT CAVOK M09/M10 Q1023=
201304030320 METAR ESMX 030320Z AUTO 00000KT 9999NDV NCD M09/M10 Q1023=
201304030250 METAR ESMX 030250Z AUTO 02002KT 9999NDV NCD M09/M10 Q1023=
201304030220 METAR ESMX 030220Z AUTO 00000KT 9999NDV NCD M08/M09 Q1023=
201304030150 METAR ESMX 030150Z AUTO 00000KT 9999NDV NCD M08/M09 Q1023=
201304030120 METAR ESMX 030120Z AUTO 17001KT 9999NDV NCD M07/M09 Q1023=
201304030050 METAR ESMX 030050Z AUTO 00000KT 9999NDV NCD M07/M08 Q1023=
201304030020 METAR ESMX 030020Z AUTO 02002KT 9999NDV NCD M07/M08 Q1023=
201304022350 METAR ESMX 022350Z 19003KT CAVOK M06/M08 Q1022=
201304022320 METAR ESMX 022320Z 36002KT CAVOK M06/M08 Q1022=
201304022250 METAR ESMX 022250Z 00000KT CAVOK M06/M08 Q1022=
201304022220 METAR ESMX 022220Z 00000KT CAVOK M05/M08 Q1022=
201304022150 METAR ESMX 022150Z 00000KT CAVOK M05/M07 Q1021=
201304022120 METAR ESMX 022120Z 00000KT CAVOK M05/M08 Q1021=
201304022050 METAR ESMX 022050Z 00000KT CAVOK M04/M08 Q1021=
201304022020 METAR ESMX 022020Z VRB02KT CAVOK M03/M08 Q1021=
201304021950 METAR ESMX 021950Z 15003KT CAVOK M01/M07 Q1021=
201304021920 METAR ESMX 021920Z 17005KT CAVOK 01/M08 Q1020=
201304021850 METAR ESMX 021850Z 16006KT CAVOK 02/M08 Q1020=
201304021820 METAR ESMX 021820Z 16006KT CAVOK 03/M08 Q1019=
201304021750 METAR ESMX 021750Z 09003KT CAVOK 03/M11 Q1019=
201304021720 METAR ESMX 021720Z 11002KT CAVOK 04/M11 Q1018=
201304021650 METAR ESMX 021650Z 06002KT CAVOK 04/M11 Q1018=
201304021620 METAR ESMX 021620Z 03005KT 350V070 CAVOK 05/M11 Q1018=
201304021550 METAR ESMX 021550Z 33003KT 260V040 CAVOK 07/M11 Q1017=
201304021520 METAR ESMX 021520Z 05004KT 360V090 CAVOK 06/M11 Q1017=
201304021420 METAR ESMX 021420Z 04004KT 310V110 CAVOK 07/M11 Q1017=
201304021350 METAR ESMX 021350Z 01008KT 330V060 CAVOK 05/M11 Q1017=
201304021320 METAR ESMX 021320Z VRB02KT CAVOK 07/M11 Q1017=
201304021250 METAR ESMX 021250Z 02005KT 280V070 9999 FEW046 SCT068 06/M11 Q1017=
201304021220 METAR ESMX 021220Z 35004KT 310V030 9999 FEW045 SCT062 06/M10 Q1017=
201304021150 METAR ESMX 021150Z 36005KT 300V050 9999 FEW045 06/M09 Q1017=
201304021120 METAR ESMX 021120Z 02005KT 340V080 9999 FEW047 BKN060 06/M09 Q1017=
201304021050 METAR ESMX 021050Z 05007KT 010V100 CAVOK 06/M09 Q1016=
201304021020 METAR ESMX 021020Z 04005KT 340V080 CAVOK 06/M09 Q1016=
201304020950 METAR ESMX 020950Z 03005KT 360V060 CAVOK 05/M09 Q1016=
201304020920 METAR ESMX 020920Z 29004KT 250V060 CAVOK 05/M09 Q1016=
201304020850 METAR ESMX 020850Z 27005KT 250V320 9999 FEW035 04/M10 Q1016=
201304020820 METAR ESMX 020820Z 01004KT 9999 FEW044 02/M08 Q1016=
201304020750 METAR ESMX 020750Z VRB02KT 9999 FEW040 02/M09 Q1016=
201304020720 METAR ESMX 020720Z VRB02KT CAVOK M01/M07 Q1016=
201304020650 METAR ESMX 020650Z 36004KT CAVOK M04/M08 Q1016=
201304020620 METAR ESMX 020620Z 36001KT CAVOK M05/M08 Q1015=
201304020550 METAR ESMX 020550Z 00000KT CAVOK M07/M09 Q1015=
201304020520 METAR ESMX 020520Z 00000KT CAVOK M10/M11 Q1015=
201304020450 METAR ESMX 020450Z 00000KT CAVOK M10/M12 Q1015=
201304020420 METAR ESMX 020420Z 00000KT CAVOK M10/M11 Q1015=
201304020350 METAR ESMX 020350Z 00000KT CAVOK M10/M12 Q1014=
201304020320 METAR ESMX 020320Z 00000KT CAVOK M10/M11 Q1014=
201304020250 METAR ESMX 020250Z AUTO 00000KT 9999NDV NCD M10/M11 Q1014=
201304020220 METAR ESMX 020220Z AUTO 00000KT 9999NDV NCD M09/M11 Q1014=
201304020150 METAR ESMX 020150Z AUTO 00000KT 9999NDV NCD M09/M11 Q1014=
201304020120 METAR ESMX 020120Z AUTO 00000KT 9999NDV NCD M09/M11 Q1014=
201304020050 METAR ESMX 020050Z AUTO 00000KT 9999NDV NCD M08/M11 Q1014=
201304020020 METAR ESMX 020020Z AUTO 36003KT 9999NDV NCD M07/M10 Q1014=
201304012350 METAR ESMX 012350Z AUTO 35002KT 9999NDV NCD M07/M10 Q1013=
201304012320 METAR ESMX 012320Z 16006KT CAVOK M05/M10 Q1013=
201304012250 METAR ESMX 012250Z 14005KT 100V160 CAVOK M06/M10 Q1013=
201304012220 METAR ESMX 012220Z VRB01KT CAVOK M06/M10 Q1013=
201304012150 METAR ESMX 012150Z VRB02KT CAVOK M06/M09 Q1013=
201304012120 METAR ESMX 012120Z VRB01KT CAVOK M06/M10 Q1013=
201304012050 METAR ESMX 012050Z 00000KT CAVOK M05/M09 Q1013=
201304012020 METAR ESMX 012020Z 00000KT CAVOK M05/M10 Q1012=
201304011950 METAR ESMX 011950Z 18002KT CAVOK M04/M10 Q1012=
201304011920 METAR ESMX 011920Z 00000KT CAVOK M03/M10 Q1012=
201304011850 METAR ESMX 011850Z 09002KT CAVOK M01/M10 Q1012=
201304011820 METAR ESMX 011820Z 05003KT CAVOK 01/M13 Q1012=
201304011750 METAR ESMX 011750Z 05005KT 020V080 CAVOK 03/M13 Q1011=
201304011720 METAR ESMX 011720Z 05004KT 020V080 CAVOK 04/M14 Q1011=
201304011650 METAR ESMX 011650Z 04006KT CAVOK 05/M13 Q1010=
201304011620 METAR ESMX 011620Z 04009KT CAVOK 06/M14 Q1010=
201304011550 METAR ESMX 011550Z 04009KT 360V080 CAVOK 06/M14 Q1010=
201304011520 METAR ESMX 011520Z 02011KT CAVOK 07/M14 Q1010=
201304011450 METAR ESMX 011450Z 01012KT CAVOK 06/M14 Q1010=
201304011420 METAR ESMX 011420Z 02013KT CAVOK 07/M14 Q1010=
201304011350 METAR ESMX 011350Z 01011KT CAVOK 07/M13 Q1010=
201304011320 METAR ESMX 011320Z 01013KT CAVOK 06/M12 Q1010=
201304011250 METAR ESMX 011250Z 03011G21KT 350V060 CAVOK 07/M13 Q1010=
201304011220 METAR ESMX 011220Z 01012KT CAVOK 06/M12 Q1010=
