##########################################################
# Query made at 04/19/2024 21:35:09 UTC
# Time interval: from 08/01/2013 12:00  to 08/31/2013 12:59  UTC
##########################################################

##########################################################
# ESMX, Vaxjo (Sweden)
# WMO index: 02641. WIGOS ID: 0-20000-0-02648
# Latitude 56-51N. Longitude 014-50E. Altitude 199 m.
##########################################################

201308311250 METAR ESMX 311250Z 22005KT 9999 FEW017 SCT029 BKN054 18/14 Q1010=
201308311220 METAR ESMX 311220Z 22006KT 200V260 9999 FEW017 BKN056 18/15 Q1010=
201308311150 METAR ESMX 311150Z 20006KT 9999 FEW026 BKN064 17/16 Q1011=
201308311120 METAR ESMX 311120Z 21006KT 9999 FEW016 SCT022 OVC046 16/14 Q1011 RESHRA=
201308311050 METAR ESMX 311050Z 20006KT 9999 -SHRA FEW017 SCT020CB 17/14 Q1011=
201308311020 METAR ESMX 311020Z AUTO 22006KT 9999NDV -RA FEW016/// SCT022/// BKN031/// 17/14 Q1011=
201308310950 METAR ESMX 310950Z AUTO 25006KT 210V290 9999NDV FEW011/// SCT016/// OVC058/// 18/15 Q1011=
201308310920 METAR ESMX 310920Z AUTO 23007KT 9999NDV FEW008/// SCT014/// OVC052/// 17/14 Q1011=
201308310850 METAR ESMX 310850Z AUTO 21007KT 9999NDV FEW008/// SCT012/// BKN015/// 16/14 Q1011=
201308310820 METAR ESMX 310820Z AUTO 22005KT 9999NDV FEW007/// SCT008/// BKN010/// 16/14 Q1011=
201308310750 METAR ESMX 310750Z AUTO 22006KT 9999NDV FEW005/// SCT007/// BKN008/// 16/14 Q1011=
201308310720 METAR ESMX 310720Z AUTO 22006KT 9999NDV FEW005/// SCT007/// BKN032/// 15/14 Q1011=
201308310650 METAR ESMX 310650Z AUTO 21006KT 9999NDV FEW006/// BKN057/// 15/14 Q1011=
201308310620 METAR ESMX 310620Z AUTO 23004KT 190V260 9999NDV BKN059/// 15/14 Q1011=
201308310550 METAR ESMX 310550Z AUTO 22004KT 9999NDV FEW002/// BKN004/// BKN061/// 15/14 Q1012=
201308310520 METAR ESMX 310520Z AUTO 24004KT 9999NDV FEW004/// OVC043/// 14/13 Q1012=
201308310450 METAR ESMX 310450Z AUTO 22004KT 9999NDV FEW002/// SCT004/// OVC044/// 14/13 Q1012=
201308310420 METAR ESMX 310420Z AUTO 24003KT 9999NDV FEW003/// BKN004/// OVC047/// 14/13 Q1012=
201308310350 METAR ESMX 310350Z AUTO 24003KT 9999NDV FEW002/// OVC004/// 14/13 Q1012=
201308310320 METAR ESMX 310320Z AUTO 23003KT 9999NDV FEW003/// SCT012/// OVC053/// 14/13 Q1012=
201308310250 METAR ESMX 310250Z AUTO 24003KT 7000NDV BR FEW012/// SCT061/// BKN110/// 13/13 Q1012=
201308310220 METAR ESMX 310220Z AUTO 25003KT 9000NDV BR FEW003/// BKN059/// 14/13 Q1012=
201308310150 METAR ESMX 310150Z AUTO 24004KT 9999NDV FEW003/// BKN047/// BKN061/// 14/13 Q1012=
201308310120 METAR ESMX 310120Z AUTO 22004KT 9999NDV FEW004/// BKN053/// 14/13 Q1012 RERA=
201308310050 METAR ESMX 310050Z AUTO 24008KT 6000NDV RA FEW003/// SCT005/// BKN007/// 15/14 Q1012 REDZ=
201308310020 METAR ESMX 310020Z AUTO 22006KT 6000NDV -DZ FEW004/// SCT005/// BKN007/// 15/14 Q1013 RESHRA=
201308302350 METAR ESMX 302350Z AUTO 22006KT 9000NDV BR FEW004/// BKN006/// OVC058/// 15/14 Q1013=
201308302320 METAR ESMX 302320Z AUTO 21005KT 8000NDV BR FEW003/// SCT006/// BKN007/// 15/14 Q1013=
201308302250 METAR ESMX 302250Z AUTO 22005KT 7000NDV RA FEW003/// SCT005/// BKN009/// 15/14 Q1013=
201308302220 METAR ESMX 302220Z AUTO 20006KT 9000NDV -RA FEW005/// BKN007/// BKN078/// 15/14 Q1013=
201308302150 METAR ESMX 302150Z AUTO 19008KT 9999NDV RA FEW009/// SCT026/// BKN054/// 15/14 Q1013=
201308302120 METAR ESMX 302120Z AUTO 17006KT 7000NDV -RA FEW009/// SCT042/// BKN060/// 15/14 Q1013=
201308302050 METAR ESMX 302050Z AUTO 19005KT 9999NDV -RA FEW026/// SCT049/// BKN078/// 15/14 Q1014=
201308302020 METAR ESMX 302020Z AUTO 16005KT 9999NDV -RA BKN023/// BKN078/// 15/14 Q1014=
201308301950 METAR ESMX 301950Z AUTO 17004KT 9999NDV FEW029/// SCT046/// OVC055/// 15/13 Q1014=
201308301920 METAR ESMX 301920Z AUTO 17003KT 9999NDV FEW048/// OVC059/// 15/13 Q1014=
201308301850 METAR ESMX 301850Z AUTO 21003KT 9999NDV BKN056/// 15/13 Q1014=
201308301820 METAR ESMX 301820Z AUTO 21004KT 9999NDV FEW019/// BKN069/// 15/13 Q1014=
201308301750 METAR ESMX 301750Z AUTO 22005KT 9999NDV FEW018/// SCT022/// BKN029/// 16/14 Q1014=
201308301720 METAR ESMX 301720Z 20005KT 9999 FEW025CB SCT040 16/14 Q1014=
201308301650 METAR ESMX 301650Z 19003KT 9999 FEW025CB SCT035 16/14 Q1014=
201308301620 METAR ESMX 301620Z 19005KT 9999 FEW028 BKN080 16/14 Q1014 RESHRA=
201308301550 METAR ESMX 301550Z 21006KT 170V250 9999 -SHRA SCT020CB BKN047 16/14 Q1014=
201308301520 METAR ESMX 301520Z 21007KT 170V250 9999 FEW019 SCT037 OVC047 18/13 Q1014=
201308301450 METAR ESMX 301450Z 20008KT 9999 FEW040 18/13 Q1014=
201308301420 METAR ESMX 301420Z 20009KT 9999 FEW024 BKN082 18/13 Q1015=
201308301350 METAR ESMX 301350Z 22010KT 9999 FEW021 BKN076 18/13 Q1015=
201308301320 METAR ESMX 301320Z 24009KT 9999 FEW017 SCT020 17/13 Q1015=
201308301250 METAR ESMX 301250Z 22009KT 180V250 9999 SCT020 BKN060 18/13 Q1015=
201308301220 METAR ESMX 301220Z 21008KT 9999 SCT018 BKN030 18/13 Q1015=
201308301150 METAR ESMX 301150Z 23009KT 9999 BKN020 18/13 Q1015=
201308301120 METAR ESMX 301120Z 23010KT 9999 VCSH FEW018CB BKN023 18/13 Q1015=
201308301050 METAR ESMX 301050Z 21009KT 160V230 9999 VCSH FEW019CB SCT020 BKN040 17/13 Q1015 RERA=
201308301020 METAR ESMX 301020Z 20006KT 9999 FEW018 BKN030 18/12 Q1015=
201308300950 METAR ESMX 300950Z 21007KT 9999 FEW020 SCT025 BKN030 17/12 Q1016=
201308300920 METAR ESMX 300920Z 22006KT 9999 SCT020 BKN036 17/12 Q1016=
201308300850 METAR ESMX 300850Z 19005KT 130V220 9999 SCT016 SCT025 16/11 Q1016=
201308300820 METAR ESMX 300820Z 21007KT 9999 BKN014 15/12 Q1016=
201308300750 METAR ESMX 300750Z 20007KT 9999 SCT014 BKN025 15/12 Q1016=
201308300720 METAR ESMX 300720Z 21007KT 9999 SCT010 BKN088 16/13 Q1016=
201308300650 METAR ESMX 300650Z 19007KT 9999 SCT010 BKN035 15/12 Q1016=
201308300620 METAR ESMX 300620Z 18006KT 9999 FEW017 BKN026 BKN034 14/12 Q1016=
201308300550 METAR ESMX 300550Z 18005KT 9999 FEW008 SCT010 BKN015 14/12 Q1016=
201308300520 METAR ESMX 300520Z 18005KT 9999 FEW010 BKN015 13/12 Q1016=
201308300450 METAR ESMX 300450Z 18005KT 9999 FEW013 BKN076 13/11 Q1016=
201308300420 METAR ESMX 300420Z 17004KT CAVOK 13/11 Q1016=
201308300350 METAR ESMX 300350Z 17004KT CAVOK 13/11 Q1016=
201308300320 METAR ESMX 300320Z AUTO 19004KT 9999NDV BKN087/// 12/11 Q1016=
201308300250 METAR ESMX 300250Z AUTO 17004KT 9999NDV FEW085/// 12/11 Q1016=
201308300220 METAR ESMX 300220Z AUTO 17003KT 9999NDV BKN085/// 13/11 Q1017=
201308300150 METAR ESMX 300150Z AUTO 17005KT 9999NDV BKN085/// 13/12 Q1017=
201308300120 METAR ESMX 300120Z AUTO 18006KT 9999NDV OVC084/// 13/12 Q1017=
201308300050 METAR ESMX 300050Z AUTO 17006KT 9999NDV BKN084/// 13/12 Q1017=
201308300020 METAR ESMX 300020Z 21004KT 9999 FEW035 BKN085 13/12 Q1017=
201308292350 METAR ESMX 292350Z 22004KT 9999 FEW035 OVC084 13/12 Q1017=
201308292320 METAR ESMX 292320Z 20004KT CAVOK 13/12 Q1017=
201308292250 METAR ESMX 292250Z 21004KT CAVOK 13/12 Q1018=
201308292220 METAR ESMX 292220Z 22004KT CAVOK 13/12 Q1018=
201308292150 METAR ESMX 292150Z 22004KT 9999 FEW025 BKN080 13/12 Q1018=
201308292120 METAR ESMX 292120Z 21005KT 9999 FEW025 BKN080 13/11 Q1018=
201308292050 METAR ESMX 292050Z 20005KT 9999 FEW015 SCT025 14/11 Q1018=
201308292020 METAR ESMX 292020Z 20004KT 9999 FEW015 SCT030 13/11 Q1017=
201308291950 METAR ESMX 291950Z 21004KT 9999 FEW025 14/11 Q1017=
201308291920 METAR ESMX 291920Z 21004KT 9999 FEW018 14/11 Q1017=
201308291850 METAR ESMX 291850Z 23004KT 9999 FEW030 14/11 Q1017=
201308291820 METAR ESMX 291820Z 24005KT CAVOK 15/11 Q1017=
201308291750 METAR ESMX 291750Z 24004KT CAVOK 15/10 Q1017=
201308291720 METAR ESMX 291720Z 25004KT CAVOK 16/10 Q1017=
201308291650 METAR ESMX 291650Z 25005KT CAVOK 16/10 Q1017=
201308291620 METAR ESMX 291620Z 26008KT 240V310 CAVOK 17/09 Q1017=
201308291550 METAR ESMX 291550Z 26008KT 9999 FEW048 17/08 Q1017=
201308291520 METAR ESMX 291520Z 25009KT 9999 FEW040 17/08 Q1017=
201308291450 METAR ESMX 291450Z 27010KT 230V290 9999 FEW038 18/08 Q1018=
201308291420 METAR ESMX 291420Z 27010KT 240V300 9999 SCT040 18/08 Q1017=
201308291350 METAR ESMX 291350Z 26010KT 210V300 9999 SCT041 18/08 Q1017=
201308291320 METAR ESMX 291320Z 26010KT 230V300 9999 FEW040 18/08 Q1018=
201308291250 METAR ESMX 291250Z 22010KT 9999 FEW040 19/09 Q1018=
201308291220 METAR ESMX 291220Z 25010KT 210V280 9999 SCT037 18/09 Q1018=
201308291150 METAR ESMX 291150Z 25009KT 210V320 9999 FEW034 18/09 Q1018=
201308291120 METAR ESMX 291120Z 24009KT 180V280 9999 FEW029 SCT037 17/10 Q1018=
201308291050 METAR ESMX 291050Z 23008KT 200V270 9999 FEW030 BKN035 16/10 Q1018=
201308291020 METAR ESMX 291020Z 24009KT 9999 FEW025 BKN030 16/10 Q1018=
201308290950 METAR ESMX 290950Z 26008KT 210V290 9999 FEW024 BKN029 16/09 Q1018=
201308290920 METAR ESMX 290920Z 24008KT 200V260 9999 FEW024 SCT029 15/10 Q1018=
201308290850 METAR ESMX 290850Z 24008KT 200V270 9999 SCT022 BKN090 15/10 Q1018=
201308290820 METAR ESMX 290820Z 24010KT 9999 SCT019 BKN098 15/10 Q1018=
201308290750 METAR ESMX 290750Z 24008KT 210V270 9999 SCT015 BKN080 15/11 Q1018=
201308290720 METAR ESMX 290720Z 24006KT 9999 SCT018 14/11 Q1018=
201308290650 METAR ESMX 290650Z 24007KT 210V280 9999 FEW013 SCT022 14/12 Q1018=
201308290620 METAR ESMX 290620Z 21004KT 9999 BKN019 13/12 Q1018=
201308290550 METAR ESMX 290550Z 22006KT 9999 BKN020 13/12 Q1018=
201308290520 METAR ESMX 290520Z 21004KT 9000 BR FEW014 12/11 Q1018=
201308290450 METAR ESMX 290450Z 22005KT 6000 BR FEW008 SCT025 11/10 Q1018=
201308290420 METAR COR ESMX 290420Z 21004KT 5000 R01/P2000N R19/0400VP2000 MIFG FEW015 10/10 Q1017=
201308290350 METAR ESMX 290350Z 20005KT 0700 R01/P2000N R19/P2000D MIFG FEW026 11/10 Q1017=
201308290320 METAR ESMX 290320Z AUTO 22005KT 9999NDV FEW028/// BKN044/// BKN055/// 12/11 Q1018=
201308290250 METAR ESMX 290250Z AUTO 20005KT 7000NDV FEW003/// BKN030/// BKN037/// 12/11 Q1018=
201308290220 METAR ESMX 290220Z AUTO 22005KT 6000NDV BR FEW003/// 11/10 Q1018=
201308290150 METAR ESMX 290150Z AUTO 22005KT 0600NDV R01/P2000N R19/P2000N NCD 09/08 Q1018=
201308290120 METAR ESMX 290120Z AUTO 22005KT 2800NDV NCD 09/08 Q1018=
201308290050 METAR ESMX 290050Z AUTO 21004KT 7000NDV BR NCD 09/08 Q1018=
201308290020 METAR ESMX 290020Z AUTO 22003KT 3500NDV NCD 10/09 Q1018=
201308282350 METAR ESMX 282350Z 22003KT CAVOK 10/09 Q1018=
201308282320 METAR ESMX 282320Z 24004KT CAVOK 10/09 Q1018=
201308282250 METAR ESMX 282250Z 24004KT CAVOK 11/09 Q1018=
201308282220 METAR ESMX 282220Z 25005KT CAVOK 10/09 Q1018=
201308282150 METAR ESMX 282150Z 25004KT CAVOK 11/09 Q1018=
201308282050 METAR ESMX 282050Z 25003KT CAVOK 12/09 Q1018=
201308282020 METAR ESMX 282020Z 25003KT CAVOK 14/10 Q1018=
201308281950 METAR ESMX 281950Z 26004KT CAVOK 15/10 Q1018=
201308281920 METAR ESMX 281920Z 25004KT CAVOK 15/10 Q1018=
201308281850 METAR ESMX 281850Z 25005KT CAVOK 15/10 Q1018=
201308281820 METAR ESMX 281820Z 25004KT 9999 NSC 15/11 Q1018=
201308281750 METAR ESMX 281750Z 27005KT CAVOK 18/11 Q1017=
201308281720 METAR ESMX 281720Z 26007KT CAVOK 19/11 Q1017=
201308281650 METAR ESMX 281650Z 26006KT 9999 FEW045 20/11 Q1017=
201308281620 METAR ESMX 281620Z 28009KT 9999 FEW046 21/10 Q1017=
201308281550 METAR ESMX 281550Z 29005KT 240V330 9999 FEW046 20/10 Q1017=
201308281520 METAR ESMX 281520Z 31008KT 9999 FEW045 21/09 Q1017=
201308281450 METAR ESMX 281450Z 31005KT 270V330 9999 FEW045 22/09 Q1017=
201308281420 METAR ESMX 281420Z 28006KT 9999 FEW045 21/08 Q1017=
201308281350 METAR ESMX 281350Z 30007KT 230V340 9999 SCT046 22/09 Q1017=
201308281320 METAR ESMX 281320Z 24006KT 200V350 9999 SCT045 23/08 Q1017=
201308281250 METAR ESMX 281250Z 28006KT 230V330 9999 FEW046 22/08 Q1017=
201308281220 METAR ESMX 281220Z 31009KT 9999 SCT045 21/08 Q1018=
201308281150 METAR ESMX 281150Z 32009KT 280V350 9999 FEW045 21/09 Q1018=
201308281120 METAR ESMX 281120Z 28008KT 240V330 9999 FEW042 21/09 Q1018=
201308281050 METAR ESMX 281050Z 27010KT 230V310 9999 FEW040 21/10 Q1018=
201308281020 METAR ESMX 281020Z 28007KT 240V320 9999 FEW036 20/11 Q1018=
201308280950 METAR ESMX 280950Z 31006KT 280V350 9999 FEW036 20/11 Q1018=
201308280920 METAR ESMX 280920Z 31006KT 280V340 CAVOK 20/12 Q1019=
201308280850 METAR ESMX 280850Z 28004KT 240V310 CAVOK 19/12 Q1019=
201308280820 METAR ESMX 280820Z 28006KT CAVOK 18/11 Q1019=
201308280720 METAR ESMX 280720Z 29003KT 240V320 CAVOK 17/13 Q1019=
201308280650 METAR ESMX 280650Z 00000KT CAVOK 16/13 Q1019=
201308280550 METAR ESMX 280550Z 00000KT CAVOK 11/10 Q1019=
201308280520 METAR ESMX 280520Z 00000KT CAVOK 09/08 Q1019=
201308280450 METAR ESMX 280450Z 00000KT 9999 BCFG NSC 08/07 Q1019=
201308280420 METAR ESMX 280420Z 21002KT 1300 R01/P2000 R19/P2000 BCFG NSC 08/07 Q1018=
201308280350 METAR ESMX 280350Z VRB02KT 7000 BCFG NSC 07/07 Q1018=
201308280320 METAR ESMX 280320Z AUTO 00000KT 5000NDV BR NCD 08/08 Q1018=
201308280250 METAR ESMX 280250Z AUTO 30002KT 4200NDV BR NCD 08/07 Q1018=
201308280220 METAR ESMX 280220Z AUTO 25002KT 9999NDV NCD 08/07 Q1019=
201308280150 METAR ESMX 280150Z AUTO VRB01KT 9999NDV FEW041/// 10/08 Q1019=
201308280120 METAR ESMX 280120Z AUTO 22002KT 9999NDV FEW041/// 11/10 Q1019=
201308280050 METAR ESMX 280050Z 21001KT 9999 BKN040 11/10 Q1019=
201308280020 METAR ESMX 280020Z 20003KT CAVOK 11/09 Q1019=
201308272350 METAR ESMX 272350Z 22006KT CAVOK 12/10 Q1019=
201308272320 METAR ESMX 272320Z 22006KT CAVOK 12/09 Q1019=
201308272250 METAR ESMX 272250Z 21006KT CAVOK 12/09 Q1019=
201308272220 METAR ESMX 272220Z 20006KT CAVOK 12/10 Q1019=
201308272150 METAR ESMX 272150Z 20007KT CAVOK 13/10 Q1019=
201308272120 METAR ESMX 272120Z 19006KT CAVOK 13/09 Q1019=
201308272050 METAR ESMX 272050Z 17006KT CAVOK 16/10 Q1019=
201308272020 METAR ESMX 272020Z 19004KT CAVOK 14/10 Q1019=
201308271950 METAR ESMX 271950Z 15005KT CAVOK 15/11 Q1019=
201308271920 METAR ESMX 271920Z 13003KT CAVOK 14/11 Q1019=
201308271850 METAR ESMX 271850Z 18002KT CAVOK 14/11 Q1019=
201308271820 METAR ESMX 271820Z 00000KT CAVOK 16/12 Q1019=
201308271750 METAR ESMX 271750Z 00000KT CAVOK 19/12 Q1019=
201308271720 METAR ESMX 271720Z 28003KT CAVOK 22/10 Q1019=
201308271650 METAR ESMX 271650Z 25003KT CAVOK 22/10 Q1019=
201308271620 METAR ESMX 271620Z 30005KT 260V320 CAVOK 23/09 Q1019=
201308271550 METAR ESMX 271550Z 27005KT 230V310 CAVOK 23/09 Q1019=
201308271520 METAR ESMX 271520Z 26004KT 150V300 CAVOK 23/09 Q1020=
201308271450 METAR ESMX 271450Z 27005KT 220V300 CAVOK 23/10 Q1020=
201308271420 METAR ESMX 271420Z 30004KT 240V360 CAVOK 23/09 Q1020=
201308271350 METAR ESMX 271350Z 18004KT 120V240 CAVOK 23/09 Q1020=
201308271320 METAR ESMX 271320Z 21004KT 180V280 CAVOK 23/09 Q1021=
201308271250 METAR ESMX 271250Z 18005KT 120V250 CAVOK 23/09 Q1021=
201308271220 METAR ESMX 271220Z 21005KT 130V260 CAVOK 23/10 Q1021=
201308271150 METAR ESMX 271150Z 19004KT 120V270 CAVOK 22/10 Q1021=
201308271120 METAR ESMX 271120Z 19005KT 120V260 CAVOK 22/10 Q1022=
201308271050 METAR ESMX 271050Z VRB03KT CAVOK 21/10 Q1022=
201308271020 METAR ESMX 271020Z 14004KT 100V210 CAVOK 21/10 Q1022=
201308270950 METAR ESMX 270950Z 19003KT CAVOK 20/10 Q1022=
201308270920 METAR ESMX 270920Z 16004KT 100V250 CAVOK 19/10 Q1023=
201308270850 METAR ESMX 270850Z 17004KT 070V220 CAVOK 19/10 Q1023=
201308270820 METAR ESMX 270820Z 15003KT 110V200 CAVOK 19/11 Q1023=
201308270750 METAR ESMX 270750Z VRB02KT CAVOK 18/12 Q1023=
201308270720 METAR ESMX 270720Z VRB02KT CAVOK 17/13 Q1023=
201308270650 METAR ESMX 270650Z VRB02KT CAVOK 15/13 Q1023=
201308270620 METAR ESMX 270620Z VRB02KT CAVOK 14/13 Q1023=
201308270550 METAR ESMX 270550Z 00000KT 9999 FEW001 SCT200 13/12 Q1023=
201308270520 METAR ESMX 270520Z 00000KT 9999 BCFG SCT200 09/09 Q1023=
201308270450 METAR ESMX 270450Z 25001KT 0100 R01/0150V0350N R19/P2000N FG SCT200 07/06 Q1023=
201308270420 METAR ESMX 270420Z 00000KT 0200 R01/0150V0275 R19/P2000N PRFG NSC 06/05 Q1023=
201308270350 METAR ESMX 270350Z 00000KT 0100 R01/0350V0550 R19/0150V0325 PRFG NSC 06/05 Q1023=
201308270320 METAR ESMX 270320Z AUTO 00000KT 0250NDV R01/0700 R19/P2000N FG NCD 06/05 Q1023=
201308270250 METAR ESMX 270250Z AUTO 00000KT 0100NDV R01/0275V0650N R19/0350V0500 BCFG FEW001/// 05/04 Q1023=
201308270220 METAR ESMX 270220Z AUTO 00000KT 3400NDV NCD 05/05 Q1023=
201308270150 METAR ESMX 270150Z AUTO 00000KT 9999NDV NCD 06/05 Q1023=
201308270120 METAR ESMX 270120Z AUTO 00000KT 9999NDV NCD 06/05 Q1023=
201308270050 METAR ESMX 270050Z AUTO 00000KT 3700NDV BR NCD 06/06 Q1024=
201308270020 METAR ESMX 270020Z AUTO 00000KT 9999NDV NCD 07/06 Q1024=
201308262350 METAR ESMX 262350Z 00000KT CAVOK 07/06 Q1024=
201308262320 METAR ESMX 262320Z 00000KT CAVOK 08/07 Q1024=
201308262250 METAR ESMX 262250Z 00000KT CAVOK 08/07 Q1024=
201308262220 METAR COR ESMX 262220Z 00000KT CAVOK 09/08 Q1024=
201308262150 METAR ESMX 262150Z 20001KT CAVOK 11/10 Q1024=
201308262050 METAR ESMX 262050Z 19003KT CAVOK 11/10 Q1024=
201308262020 METAR ESMX 262020Z 14004KT CAVOK 13/10 Q1024=
201308261950 METAR ESMX 261950Z 14005KT CAVOK 13/11 Q1024=
201308261920 METAR ESMX 261920Z 15003KT CAVOK 12/10 Q1024=
201308261850 METAR ESMX 261850Z 16003KT CAVOK 12/10 Q1023=
201308261820 METAR ESMX 261820Z 19003KT CAVOK 14/11 Q1023=
201308261750 METAR ESMX 261750Z 00000KT CAVOK 18/11 Q1023=
201308261720 METAR ESMX 261720Z 32001KT CAVOK 21/10 Q1023=
201308261650 METAR ESMX 261650Z 34003KT 300V020 CAVOK 21/09 Q1023=
201308261620 METAR ESMX 261620Z 32005KT CAVOK 21/09 Q1023=
201308261550 METAR ESMX 261550Z 30005KT CAVOK 21/09 Q1023=
201308261520 METAR ESMX 261520Z 31005KT CAVOK 21/09 Q1024=
201308261450 METAR ESMX 261450Z 34006KT 320V020 CAVOK 21/09 Q1024=
201308261420 METAR ESMX 261420Z 01004KT 300V100 CAVOK 22/08 Q1024=
201308261350 METAR ESMX 261350Z 04006KT 010V090 CAVOK 22/09 Q1024=
201308261320 METAR ESMX 261320Z 02005KT 330V080 CAVOK 21/08 Q1024=
201308261250 METAR ESMX 261250Z 34004KT 300V070 9999 FEW040 21/09 Q1024=
201308261220 METAR ESMX 261220Z 12003KT 050V210 9999 FEW040 21/08 Q1025=
201308261150 METAR ESMX 261150Z 36006KT 310V020 9999 FEW040 20/09 Q1025=
201308261120 METAR ESMX 261120Z 36004KT 320V060 9999 FEW039 21/10 Q1025=
201308261050 METAR ESMX 261050Z 36003KT 300V100 9999 FEW035 19/10 Q1025=
201308261020 METAR ESMX 261020Z 36004KT 290V040 9999 FEW030 19/10 Q1025=
201308260950 METAR ESMX 260950Z 03003KT 320V080 9999 FEW030 19/09 Q1026=
201308260920 METAR ESMX 260920Z 05003KT 010V160 9999 FEW030 18/10 Q1026=
201308260850 METAR ESMX 260850Z 04005KT 350V090 9999 FEW020 18/10 Q1026=
201308260820 METAR ESMX 260820Z 06005KT 020V120 9999 FEW020 17/11 Q1025=
201308260750 METAR ESMX 260750Z 05006KT 020V100 9999 FEW016 17/11 Q1025=
201308260720 METAR ESMX 260720Z 04004KT 010V080 CAVOK 16/12 Q1026=
201308260650 METAR ESMX 260650Z 06003KT 020V090 9999 FEW016 14/12 Q1025=
201308260620 METAR ESMX 260620Z 05003KT CAVOK 13/12 Q1025=
201308260550 METAR ESMX 260550Z 36003KT 9999 FEW002 11/11 Q1025=
201308260520 METAR ESMX 260520Z 01002KT 9999 FEW002 07/07 Q1025=
201308260450 METAR ESMX 260450Z 03003KT 9999 R01/0275V0500 R19/P2000N BCFG FEW003 06/05 Q1025=
201308260420 METAR ESMX 260420Z 04003KT 9999 R01/P2000U R19/P2000N BCFG FEW002 05/05 Q1025=
201308260350 METAR ESMX 260350Z 04002KT 9999 R01/0450 R19/P2000N BCFG FEW002 05/04 Q1025=
201308260320 METAR ESMX 260320Z AUTO 00000KT 0150NDV R01/0400V0700 R19/P2000N FG NCD 06/06 Q1024=
201308260250 METAR ESMX 260250Z AUTO 00000KT 0150NDV R01/0400V0800D R19/P2000N BCFG NCD 07/06 Q1024=
201308260220 METAR ESMX 260220Z AUTO 03003KT 0250NDV R01/P2000D R19/P2000N BCFG NCD 06/05 Q1024=
201308260150 METAR ESMX 260150Z AUTO 04004KT 0700NDV R01/P2000N R19/P2000N BCFG NCD 06/06 Q1024=
201308260120 METAR ESMX 260120Z AUTO 03001KT 9999NDV NCD 06/06 Q1024=
201308260050 METAR ESMX 260050Z AUTO 02001KT 0500NDV R01/P2000D R19/P2000N FG NCD 06/05 Q1024=
201308260020 METAR ESMX 260020Z AUTO 03003KT 9999NDV NCD 06/05 Q1024=
201308252350 METAR ESMX 252350Z AUTO 05003KT 1600NDV NCD 07/06 Q1024=
201308252320 METAR ESMX 252320Z VRB02KT CAVOK 07/06 Q1024=
201308252250 METAR ESMX 252250Z 36001KT CAVOK 06/05 Q1024=
201308252220 METAR ESMX 252220Z 00000KT CAVOK 07/06 Q1024=
201308252150 METAR ESMX 252150Z VRB02KT CAVOK 07/06 Q1024=
201308252120 METAR ESMX 252120Z 03002KT CAVOK 07/06 Q1024=
201308252050 METAR ESMX 252050Z 00000KT CAVOK 08/07 Q1024=
201308251950 METAR ESMX 251950Z VRB01KT CAVOK 10/08 Q1024=
201308251920 METAR ESMX 251920Z VRB02KT CAVOK 10/09 Q1023=
201308251850 METAR ESMX 251850Z 05001KT CAVOK 12/09 Q1023=
201308251820 METAR ESMX 251820Z 06002KT CAVOK 14/10 Q1023=
201308251750 METAR ESMX 251750Z VRB02KT CAVOK 15/10 Q1023=
201308251720 METAR ESMX 251720Z 09003KT 050V120 CAVOK 17/09 Q1023=
201308251650 METAR ESMX 251650Z 08006KT 040V120 CAVOK 18/09 Q1023=
201308251620 METAR ESMX 251620Z 05008KT CAVOK 20/09 Q1022=
201308251550 METAR ESMX 251550Z 04009KT 010V070 9999 FEW047 SCT057 19/09 Q1022=
201308251520 METAR ESMX 251520Z 08005KT 030V140 CAVOK 20/08 Q1022=
201308251450 METAR ESMX 251450Z 08005KT 040V130 CAVOK 18/09 Q1022=
201308251420 METAR ESMX 251420Z 04007KT 020V080 9999 FEW048 SCT057 19/10 Q1022=
201308251350 METAR ESMX 251350Z 04008KT 340V100 9999 FEW045 SCT060 19/09 Q1022=
201308251320 METAR ESMX 251320Z 07007KT 030V100 CAVOK 19/08 Q1023=
201308251250 METAR ESMX 251250Z 06008KT 020V110 9999 FEW047 SCT063 19/07 Q1023=
201308251220 METAR ESMX 251220Z 07009KT CAVOK 20/07 Q1023=
201308251150 METAR ESMX 251150Z 07006KT 020V120 CAVOK 19/07 Q1023=
201308251120 METAR ESMX 251120Z 05007KT 010V100 CAVOK 18/08 Q1023=
201308251050 METAR ESMX 251050Z 08006KT 040V110 9999 FEW048 19/07 Q1023=
201308251020 METAR ESMX 251020Z AUTO 05009KT 020V100 9999NDV FEW040/// SCT047/// BKN059/// 19/08 Q1023=
201308250950 METAR ESMX 250950Z AUTO 07007KT 030V140 9999NDV FEW041/// BKN050/// 19/08 Q1023=
201308250920 METAR ESMX 250920Z AUTO 06007KT 020V110 9999NDV SCT035/// BKN044/// 18/09 Q1023=
201308250850 METAR ESMX 250850Z AUTO 08007KT 040V130 9999NDV FEW030/// SCT044/// BKN052/// 18/10 Q1023=
201308250820 METAR ESMX 250820Z AUTO 08008KT 040V110 9999NDV FEW025/// 18/11 Q1023=
201308250750 METAR ESMX 250750Z AUTO 06007KT 020V110 9999NDV FEW019/// 17/11 Q1023=
201308250720 METAR ESMX 250720Z AUTO 07008KT 030V120 9999NDV FEW018/// 16/11 Q1022=
201308250650 METAR ESMX 250650Z AUTO 06008KT 030V100 9999NDV NCD 15/11 Q1022=
201308250620 METAR ESMX 250620Z AUTO 04007KT 9999NDV NCD 14/11 Q1022=
201308250550 METAR ESMX 250550Z AUTO 04007KT 020V080 9999NDV NCD 13/11 Q1022=
201308250520 METAR ESMX 250520Z AUTO 01004KT 330V040 9999NDV NCD 12/10 Q1022=
201308250450 METAR ESMX 250450Z AUTO 03004KT 350V060 9999NDV NCD 11/09 Q1022=
201308250420 METAR ESMX 250420Z AUTO 05003KT 350V100 9999NDV NCD 11/10 Q1022=
201308250350 METAR ESMX 250350Z AUTO 04005KT 9999NDV NCD 10/09 Q1022=
201308250320 METAR ESMX 250320Z AUTO 04004KT 020V080 9999NDV NCD 10/09 Q1022=
201308250250 METAR ESMX 250250Z AUTO 04004KT 9000NDV NCD 10/09 Q1022=
201308250220 METAR ESMX 250220Z AUTO 04003KT 010V080 7000NDV BR NCD 10/09 Q1022=
201308250150 METAR ESMX 250150Z AUTO 04002KT 9999NDV NCD 10/09 Q1022=
201308250120 METAR ESMX 250120Z AUTO 05003KT 9999NDV NCD 11/09 Q1022=
201308250050 METAR ESMX 250050Z AUTO 06003KT 9999NDV NCD 11/10 Q1022=
201308250020 METAR ESMX 250020Z AUTO 07004KT 030V100 9999NDV NCD 12/10 Q1022=
201308242350 METAR ESMX 242350Z AUTO 06004KT 9999NDV FEW061/// 12/10 Q1022=
201308242320 METAR ESMX 242320Z AUTO 06004KT 020V090 9999NDV BKN062/// 13/10 Q1022=
201308242250 METAR ESMX 242250Z AUTO 06004KT 030V090 9999NDV BKN062/// 13/10 Q1022=
201308242220 METAR ESMX 242220Z AUTO 06004KT 020V100 9999NDV BKN062/// 13/11 Q1022=
201308242150 METAR ESMX 242150Z AUTO 05003KT 010V090 9999NDV OVC062/// 13/10 Q1022=
201308242120 METAR ESMX 242120Z AUTO 06003KT 350V100 9999NDV BKN062/// 13/10 Q1022=
201308242050 METAR ESMX 242050Z AUTO 07004KT 030V100 9999NDV FEW061/// 13/10 Q1022=
201308242020 METAR ESMX 242020Z AUTO 07004KT 040V110 9999NDV NCD 13/09 Q1022=
201308241950 METAR ESMX 241950Z AUTO 08004KT 050V110 9999NDV NCD 14/09 Q1022=
201308241920 METAR ESMX 241920Z AUTO 08004KT 020V130 9999NDV FEW061/// 14/09 Q1022=
201308241850 METAR ESMX 241850Z AUTO 07004KT 9999NDV BKN060/// 15/09 Q1022=
201308241820 METAR ESMX 241820Z AUTO 09005KT 050V130 9999NDV FEW058/// 16/08 Q1022=
201308241750 METAR ESMX 241750Z AUTO 09005KT 050V120 9999NDV NCD 16/08 Q1021=
201308241720 METAR ESMX 241720Z AUTO 08004KT 030V150 9999NDV BKN053/// 17/07 Q1021=
201308241650 METAR ESMX 241650Z AUTO 10005KT 050V150 9999NDV FEW056/// 19/06 Q1021=
201308241620 METAR ESMX 241620Z AUTO 11006KT 070V160 9999NDV SCT055/// 19/06 Q1021=
201308241550 METAR ESMX 241550Z AUTO 07008KT 020V110 9999NDV FEW064/// 19/06 Q1021=
201308241520 METAR ESMX 241520Z AUTO 11007KT 060V160 9999NDV OVC053/// 19/06 Q1022=
201308241450 METAR ESMX 241450Z AUTO 08007KT 040V120 9999NDV BKN060/// 19/07 Q1022=
201308241420 METAR ESMX 241420Z AUTO 08008KT 030V120 9999NDV FEW048/// BKN057/// 19/06 Q1022=
201308241350 METAR ESMX 241350Z 07005KT 030V150 9999 SCT045 18/07 Q1022=
201308241320 METAR ESMX 241320Z 05007KT 020V090 9999 SCT048 20/07 Q1022=
201308241250 METAR ESMX 241250Z 12007KT 090V170 9999 SCT045 20/07 Q1022=
201308241220 METAR ESMX 241220Z 10008KT 060V160 9999 SCT042 20/07 Q1023=
201308241150 METAR ESMX 241150Z 10007KT 030V150 9999 SCT038 20/06 Q1023=
201308241120 METAR ESMX 241120Z 07006KT 360V130 9999 SCT035 18/07 Q1023=
201308241050 METAR ESMX 241050Z 05008KT 020V140 9999 SCT033 18/08 Q1023=
201308241020 METAR ESMX 241020Z AUTO 10006KT 030V160 9999NDV FEW032/// BKN040/// BKN049/// 19/08 Q1023=
201308240950 METAR ESMX 240950Z AUTO 06006KT 020V110 9999NDV FEW030/// BKN049/// 17/09 Q1024=
201308240920 METAR ESMX 240920Z AUTO 09006KT 060V150 9999NDV FEW029/// SCT036/// BKN043/// 18/09 Q1024=
201308240850 METAR ESMX 240850Z AUTO 09006KT 040V120 9999NDV BKN028/// OVC036/// 18/09 Q1024=
201308240820 METAR ESMX 240820Z AUTO 06007KT 020V140 9999NDV FEW026/// SCT041/// 16/09 Q1024=
201308240750 METAR ESMX 240750Z AUTO 05006KT 020V080 9999NDV NCD 16/09 Q1024=
201308240720 METAR ESMX 240720Z AUTO 05004KT 010V080 9999NDV NCD 15/11 Q1024=
201308240650 METAR ESMX 240650Z AUTO 04005KT 9999NDV BKN043/// 13/10 Q1024=
201308240620 METAR ESMX 240620Z AUTO 03005KT 9999NDV FEW022/// SCT030/// BKN042/// 11/10 Q1024=
201308240550 METAR ESMX 240550Z AUTO 03005KT 9999NDV FEW026/// BKN041/// 11/10 Q1025=
201308240520 METAR ESMX 240520Z AUTO 35002KT 9999NDV NCD 09/08 Q1024=
201308240450 METAR ESMX 240450Z AUTO 02003KT 0350NDV R01/P2000N R19/0500V1000N NCD 05/04 Q1025=
201308240420 METAR ESMX 240420Z AUTO 04002KT 2100NDV BCFG NCD 04/03 Q1025=
201308240350 METAR ESMX 240350Z AUTO 08002KT 0150NDV R01/0250V0400 R19/P2000N BCFG NCD 04/04 Q1025=
201308240320 METAR ESMX 240320Z AUTO 05003KT 010V080 0500NDV R01/P2000 R19/P2000N BCFG FEW044/// 05/05 Q1025=
201308240250 METAR ESMX 240250Z AUTO 04002KT 1200NDV R01/P2000N R19/P2000N NCD 05/05 Q1025=
201308240220 METAR ESMX 240220Z AUTO 00000KT 1000NDV R01/P2000N R19/P2000N NCD 05/04 Q1025=
201308240150 METAR ESMX 240150Z AUTO 35001KT 0400NDV R01/P2000N R19/P2000N BCFG NCD 06/05 Q1025=
201308240120 METAR ESMX 240120Z AUTO 00000KT 9999NDV NCD 06/05 Q1025=
201308240050 METAR ESMX 240050Z AUTO 00000KT 9999NDV NCD 06/05 Q1025=
201308240020 METAR ESMX 240020Z AUTO 00000KT 9999NDV NCD 08/07 Q1025=
201308232350 METAR ESMX 232350Z AUTO 00000KT 9999NDV FEW025/// 07/06 Q1025=
201308232320 METAR ESMX 232320Z AUTO 00000KT 3600NDV BCFG FEW023/// SCT026/// 08/07 Q1025=
201308232250 METAR ESMX 232250Z AUTO 18001KT 9999NDV BCFG FEW020/// 08/07 Q1025=
201308232220 METAR ESMX 232220Z AUTO 00000KT 1000NDV R01/P2000N R19/P2000N NCD 08/07 Q1025=
201308232150 METAR ESMX 232150Z AUTO 00000KT 9999NDV NCD 09/08 Q1025=
201308232120 METAR ESMX 232120Z AUTO VRB01KT 9999NDV NCD 10/09 Q1025=
201308232050 METAR ESMX 232050Z AUTO 14003KT 9999NDV NCD 11/09 Q1025=
201308232020 METAR ESMX 232020Z AUTO 16004KT 9999NDV NCD 13/10 Q1025=
201308231950 METAR ESMX 231950Z AUTO 14003KT 9999NDV NCD 14/08 Q1025=
201308231920 METAR ESMX 231920Z AUTO 13005KT 100V180 9999NDV NCD 15/08 Q1025=
201308231850 METAR ESMX 231850Z AUTO 09004KT 9999NDV NCD 14/08 Q1024=
201308231820 METAR ESMX 231820Z AUTO 09004KT 9999NDV NCD 16/08 Q1024=
201308231750 METAR ESMX 231750Z AUTO 07004KT 9999NDV NCD 18/07 Q1024=
201308231720 METAR ESMX 231720Z 05005KT CAVOK 18/07 Q1024=
201308231650 METAR ESMX 231650Z 04006KT 010V070 CAVOK 20/07 Q1024=
201308231620 METAR ESMX 231620Z 02005KT 350V060 CAVOK 20/08 Q1024=
201308231550 METAR ESMX 231550Z 03007KT 9999 FEW035 20/08 Q1024=
201308231520 METAR ESMX 231520Z 03007KT 360V060 9999 FEW040 21/07 Q1024=
201308231450 METAR ESMX 231450Z 36006KT 330V050 9999 FEW040 21/08 Q1024=
201308231420 METAR ESMX 231420Z 04008KT 010V100 9999 FEW040 21/09 Q1024=
201308231350 METAR ESMX 231350Z 03007KT 340V060 9999 SCT040 21/08 Q1024=
201308231320 METAR ESMX 231320Z 01006KT 340V040 9999 SCT040 21/09 Q1025=
201308231250 METAR ESMX 231250Z 06007KT 010V100 9999 SCT040 20/09 Q1025=
201308231220 METAR ESMX 231220Z 36006KT 300V030 9999 SCT037 20/10 Q1025=
201308231150 METAR ESMX 231150Z 01007KT 350V060 CAVOK 20/11 Q1025=
201308231120 METAR ESMX 231120Z 04004KT 350V080 CAVOK 19/10 Q1025=
201308231050 METAR ESMX 231050Z 07005KT 010V110 9999 FEW035 19/11 Q1025=
201308231020 METAR ESMX 231020Z 03006KT 9999 FEW024 SCT045 18/12 Q1025=
201308230950 METAR ESMX 230950Z 04004KT 340V110 9999 FEW026 SCT063 19/12 Q1025=
201308230920 METAR ESMX 230920Z 05004KT 350V090 9999 FEW025 SCT063 19/12 Q1025=
201308230850 METAR ESMX 230850Z 08003KT 350V140 9999 FEW017 SCT021 BKN041 18/11 Q1026=
201308230820 METAR ESMX 230820Z 04004KT 350V090 9999 FEW017 BKN035 17/13 Q1026=
201308230750 METAR ESMX 230750Z 03003KT 350V070 9999 BKN035 16/12 Q1025=
201308230720 METAR ESMX 230720Z 03004KT 9999 FEW009 SCT037 16/13 Q1025=
201308230650 METAR ESMX 230650Z VRB03KT CAVOK 15/13 Q1025=
201308230620 METAR ESMX 230620Z 06004KT 030V130 CAVOK 14/14 Q1025=
201308230550 METAR ESMX 230550Z 02004KT 340V060 CAVOK 13/12 Q1025=
201308230520 METAR ESMX 230520Z 00000KT 8000 BR FEW002 10/09 Q1025=
201308230450 METAR ESMX 230450Z 00000KT 9999 BCFG NSC 07/06 Q1025=
201308230420 METAR ESMX 230420Z 00000KT 9999 BCFG NSC 07/06 Q1025=
201308230350 METAR ESMX 230350Z 00000KT 0100 R01/0400 R19/0275 BCFG NSC 07/06 Q1025=
201308230320 METAR ESMX 230320Z AUTO 00000KT 0450NDV R01/P2000D R19/P2000 BCFG NCD 07/06 Q1025=
201308230250 METAR ESMX 230250Z AUTO 00000KT 0550NDV R01/P2000 R19/P2000N BCFG NCD 07/06 Q1025=
201308230220 METAR ESMX 230220Z AUTO 00000KT 0600NDV R01/P2000N R19/P2000N FG NCD 07/07 Q1025=
201308230150 METAR ESMX 230150Z AUTO 02001KT 9999NDV NCD 08/07 Q1025=
201308230120 METAR ESMX 230120Z AUTO 10002KT 9999NDV NCD 08/07 Q1025=
201308230050 METAR ESMX 230050Z AUTO 11002KT 9999NDV BCFG NCD 08/07 Q1024=
201308230020 METAR ESMX 230020Z 00000KT 9999 BCFG NSC 08/07 Q1024=
201308222350 METAR ESMX 222350Z 00000KT 9999 BCFG NSC 09/08 Q1024=
201308222320 METAR ESMX 222320Z 00000KT CAVOK 09/08 Q1024=
201308222250 METAR ESMX 222250Z 00000KT CAVOK 09/09 Q1024=
201308222220 METAR ESMX 222220Z 00000KT CAVOK 10/09 Q1024=
201308222150 METAR ESMX 222150Z 00000KT CAVOK 11/10 Q1024=
201308222120 METAR ESMX 222120Z 17002KT CAVOK 11/10 Q1024=
201308222050 METAR ESMX 222050Z 13002KT CAVOK 13/11 Q1024=
201308222020 METAR ESMX 222020Z VRB02KT CAVOK 14/12 Q1023=
201308221950 METAR ESMX 221950Z VRB02KT CAVOK 15/12 Q1023=
201308221820 METAR ESMX 221820Z 05004KT CAVOK 17/11 Q1022=
201308221750 METAR ESMX 221750Z 03003KT 350V060 CAVOK 17/12 Q1022=
201308221720 METAR ESMX 221720Z 08002KT CAVOK 18/12 Q1022=
201308221650 METAR ESMX 221650Z 07003KT 360V110 CAVOK 21/11 Q1021=
201308221620 METAR ESMX 221620Z VRB02KT CAVOK 19/11 Q1021=
201308221550 METAR ESMX 221550Z 01003KT 340V080 CAVOK 20/10 Q1021=
201308221520 METAR ESMX 221520Z 01004KT CAVOK 21/12 Q1021=
201308221450 METAR ESMX 221450Z 03004KT 9999 SCT050TCU 20/12 Q1021=
201308221420 METAR ESMX 221420Z 36005KT 9999 FEW050TCU 20/11 Q1021=
201308221350 METAR ESMX 221350Z 01005KT 310V030 CAVOK 21/09 Q1021=
201308221320 METAR ESMX 221320Z 36006KT 320V040 9999 FEW030 22/09 Q1021=
201308221220 METAR ESMX 221220Z 34004KT 290V020 9999 FEW045 21/10 Q1021=
201308221150 METAR ESMX 221150Z 01006KT 9999 SCT040 20/10 Q1021=
201308221120 METAR ESMX 221120Z 32006KT 250V030 9999 FEW035 SCT050 20/11 Q1021=
201308221050 METAR ESMX 221050Z 33006KT 280V020 9999 FEW033 SCT043 19/11 Q1021=
201308221020 METAR ESMX 221020Z 28006KT 220V320 9999 FEW029 SCT040 20/12 Q1021=
201308220950 METAR ESMX 220950Z 27006KT 210V320 9999 FEW031 19/12 Q1021=
201308220920 METAR ESMX 220920Z 27007KT 230V310 9999 FEW023 18/12 Q1021=
201308220850 METAR ESMX 220850Z 29006KT 230V330 9999 FEW017 17/13 Q1021=
201308220820 METAR ESMX 220820Z 29006KT 260V330 9999 FEW014 SCT017 17/13 Q1021=
201308220750 METAR ESMX 220750Z 30006KT 260V330 9999 FEW011 SCT014 16/13 Q1021=
201308220720 METAR ESMX 220720Z 29006KT 250V320 9999 FEW010 SCT018 15/13 Q1021=
201308220650 METAR ESMX 220650Z 29007KT 9999 FEW005 BKN015 15/13 Q1021=
201308220620 METAR ESMX 220620Z 28005KT 9999 FEW006 SCT017 15/13 Q1021=
201308220550 METAR ESMX 220550Z 27005KT 9999 FEW041 14/13 Q1021=
201308220520 METAR ESMX 220520Z 27004KT 8000 BR SCT023 BKN046 14/13 Q1021=
201308220450 METAR ESMX 220450Z 25004KT 8000 BR FEW034 BKN051 13/13 Q1021=
201308220420 METAR ESMX 220420Z 24003KT 9000 BR FEW005 SCT033 BKN051 13/12 Q1021=
201308220350 METAR ESMX 220350Z 23004KT 9000 BR FEW010 BKN045 13/12 Q1021 RERA=
201308220320 METAR ESMX 220320Z 25004KT 7000 -RA FEW014 BKN030 13/12 Q1021=
201308220250 METAR ESMX 220250Z AUTO 23004KT 9999NDV DZ FEW029/// SCT037/// OVC057/// 13/12 Q1021=
201308220220 METAR ESMX 220220Z AUTO 23004KT 9000NDV FEW033/// OVC058/// 13/12 Q1021=
201308220150 METAR ESMX 220150Z AUTO 22005KT 9000NDV BR FEW027/// BKN047/// 13/12 Q1021 REDZ=
201308220120 METAR ESMX 220120Z AUTO 24004KT 9000NDV SCT036/// BKN056/// BKN080/// 12/12 Q1021=
201308220050 METAR ESMX 220050Z AUTO 23003KT 5000NDV BR FEW080/// SCT100/// 12/11 Q1021=
201308220020 METAR ESMX 220020Z AUTO 23003KT 8000NDV NCD 12/11 Q1021=
201308212350 METAR ESMX 212350Z 24003KT 210V270 6000 BR NSC 12/11 Q1021=
201308212320 METAR ESMX 212320Z 23002KT 7000 BR NSC 12/11 Q1021=
201308212250 METAR ESMX 212250Z 25004KT CAVOK 12/11 Q1021=
201308212220 METAR ESMX 212220Z 26004KT CAVOK 12/11 Q1022=
201308212150 METAR ESMX 212150Z 24005KT CAVOK 12/11 Q1022=
201308212120 METAR ESMX 212120Z 24006KT CAVOK 12/10 Q1022=
201308212050 METAR ESMX 212050Z 24005KT CAVOK 13/10 Q1022=
201308212020 METAR ESMX 212020Z 24006KT CAVOK 13/10 Q1022=
201308211950 METAR ESMX 211950Z 24005KT CAVOK 13/10 Q1022=
201308211920 METAR ESMX 211920Z 23004KT CAVOK 14/10 Q1022=
201308211850 METAR ESMX 211850Z 25005KT CAVOK 15/10 Q1022=
201308211820 METAR ESMX 211820Z 25006KT CAVOK 16/11 Q1022=
201308211750 METAR ESMX 211750Z 26004KT CAVOK 17/10 Q1022=
201308211720 METAR ESMX 211720Z 27006KT CAVOK 17/10 Q1022=
201308211650 METAR ESMX 211650Z 27007KT CAVOK 18/10 Q1022=
201308211620 METAR ESMX 211620Z 27009KT 9999 FEW036 18/10 Q1022=
201308211550 METAR ESMX 211550Z 26011KT 9999 FEW033 BKN044 19/10 Q1022=
201308211520 METAR ESMX 211520Z 27008KT 9999 FEW036 SCT046 18/11 Q1022=
201308211450 METAR ESMX 211450Z 27011KT 9999 SCT040 19/10 Q1022=
201308211420 METAR ESMX 211420Z 28011KT 9999 BKN041 19/10 Q1022=
201308211350 METAR ESMX 211350Z 27010KT 9999 FEW041 SCT047 20/10 Q1022=
201308211320 METAR ESMX 211320Z 27009KT 230V290 9999 FEW034 BKN042 18/10 Q1022=
201308211250 METAR ESMX 211250Z 25010KT 210V290 9999 FEW031 BKN047 19/11 Q1022=
201308211220 METAR ESMX 211220Z 26011KT 9999 FEW034 BKN048 18/10 Q1023=
201308211150 METAR ESMX 211150Z 23008KT 200V280 9999 FEW030 BKN049 18/11 Q1023=
201308211120 METAR ESMX 211120Z 25008KT 9999 FEW029 BKN040 17/11 Q1023=
201308211050 METAR ESMX 211050Z 23008KT 200V280 9999 SCT025 18/11 Q1023=
201308211020 METAR ESMX 211020Z 24010KT 9999 FEW029 BKN046 17/11 Q1023=
201308210950 METAR ESMX 210950Z 24009KT 210V280 9999 FEW027 SCT037 BKN043 18/11 Q1023=
201308210920 METAR ESMX 210920Z 24009KT 210V280 9999 SCT025 BKN040 18/11 Q1023=
201308210850 METAR ESMX 210850Z 27008KT 9999 SCT023 BKN040 17/11 Q1023=
201308210820 METAR ESMX 210820Z 28009KT 9999 FEW018 SCT025 16/11 Q1023=
201308210750 METAR ESMX 210750Z 24008KT 210V270 9999 FEW014 SCT020 16/11 Q1023=
201308210720 METAR ESMX 210720Z 24007KT 9999 FEW012 SCT040 15/12 Q1023=
201308210650 METAR ESMX 210650Z 23006KT 9999 FEW035 14/12 Q1023=
201308210620 METAR ESMX 210620Z 21005KT 9999 FEW017 BKN040 13/12 Q1023=
201308210550 METAR ESMX 210550Z 20006KT 9999 SCT020 BKN040 12/11 Q1023=
201308210520 METAR ESMX 210520Z 21006KT 9999 FEW018 SCT023 BKN033 11/10 Q1023=
201308210450 METAR ESMX 210450Z 22005KT 9999 FEW020 SCT025 10/10 Q1023=
201308210420 METAR ESMX 210420Z 22005KT 9999 SCT035 09/08 Q1023=
201308210350 METAR ESMX 210350Z 21005KT 9999 FEW019 09/08 Q1023=
201308210320 METAR ESMX 210320Z AUTO 22005KT 2100NDV FEW022/// SCT026/// BKN043/// 08/08 Q1023=
201308210250 METAR ESMX 210250Z AUTO 22004KT 9999NDV FEW024/// 08/07 Q1023=
201308210220 METAR ESMX 210220Z AUTO 22003KT 0800NDV R01/P2000N R19/P2000N BR NCD 09/08 Q1023=
201308210150 METAR ESMX 210150Z AUTO 23004KT 0900NDV R01/P2000N R19/P2000N NCD 09/08 Q1023=
201308210120 METAR ESMX 210120Z AUTO 23005KT 5000NDV NCD 09/08 Q1023=
201308210050 METAR ESMX 210050Z AUTO 22004KT 5000NDV NCD 09/08 Q1023=
201308210020 METAR ESMX 210020Z AUTO 22006KT 9999NDV NCD 09/08 Q1024=
201308202350 METAR ESMX 202350Z 22005KT CAVOK 09/08 Q1024=
201308202320 METAR ESMX 202320Z 22005KT CAVOK 09/08 Q1024=
201308202250 METAR ESMX 202250Z 22004KT CAVOK 10/09 Q1024=
201308202220 METAR ESMX 202220Z 24004KT CAVOK 10/08 Q1024=
201308202150 METAR ESMX 202150Z 23004KT CAVOK 11/08 Q1024=
201308202120 METAR ESMX 202120Z 23004KT CAVOK 11/08 Q1024=
201308202050 METAR ESMX 202050Z 24004KT 210V270 CAVOK 11/08 Q1024=
201308202020 METAR ESMX 202020Z 25003KT CAVOK 11/08 Q1024=
201308201950 METAR ESMX 201950Z 24005KT CAVOK 11/08 Q1023=
201308201920 METAR ESMX 201920Z 27003KT CAVOK 12/08 Q1023=
201308201850 METAR ESMX 201850Z 26004KT CAVOK 13/08 Q1023=
201308201820 METAR ESMX 201820Z 26004KT CAVOK 15/08 Q1023=
201308201750 METAR ESMX 201750Z 28007KT 250V320 CAVOK 16/08 Q1023=
201308201720 METAR ESMX 201720Z 29009KT 9999 FEW045 17/08 Q1022=
201308201650 METAR ESMX 201650Z 28009KT 250V350 9999 SCT040 18/09 Q1022=
201308201620 METAR ESMX 201620Z 29008KT 9999 SCT040 18/10 Q1022=
201308201550 METAR ESMX 201550Z 29011KT 250V320 9999 SCT045 18/09 Q1022=
201308201520 METAR ESMX 201520Z 29011KT 9999 SCT045 19/09 Q1022=
201308201450 METAR ESMX 201450Z 28010KT 250V310 9999 SCT044 20/09 Q1022=
201308201420 METAR ESMX 201420Z 30010KT 250V330 9999 SCT045 19/08 Q1022=
201308201350 METAR ESMX 201350Z 28010KT 250V310 9999 SCT040 19/09 Q1022=
201308201320 METAR ESMX 201320Z 27009KT 240V300 9999 SCT040 19/08 Q1022=
201308201250 METAR ESMX 201250Z 30009KT 270V350 9999 SCT040 18/08 Q1022=
201308201220 METAR ESMX 201220Z 28009KT 240V310 9999 SCT035 19/08 Q1022=
201308201150 METAR ESMX 201150Z 29009KT 260V320 9999 SCT030 19/10 Q1022=
201308201120 METAR ESMX 201120Z 30009KT 260V330 9999 FEW039 17/09 Q1022=
201308201050 METAR ESMX 201050Z 29009KT 9999 SCT030 BKN040 18/10 Q1022=
201308201020 METAR ESMX 201020Z 26008KT 9999 FEW030 SCT040 17/10 Q1022=
201308200950 METAR ESMX 200950Z 29007KT 250V330 9999 SCT035 17/10 Q1022=
201308200920 METAR COR ESMX 200920Z 28006KT 240V310 9999 SCT027 17/10 Q1022=
201308200850 METAR ESMX 200850Z 27005KT 240V300 CAVOK 15/12 Q1022=
201308200820 METAR ESMX 200820Z 26004KT 230V290 9999 FEW010 14/11 Q1022=
201308200750 METAR ESMX 200750Z 27004KT CAVOK 14/12 Q1022=
201308200720 METAR ESMX 200720Z 27004KT CAVOK 13/12 Q1022=
201308200650 METAR ESMX 200650Z 24003KT 210V270 9999 FEW008 11/11 Q1022=
201308200620 METAR ESMX 200620Z 20003KT CAVOK 10/10 Q1021=
201308200550 METAR ESMX 200550Z 18002KT CAVOK 10/09 Q1021=
201308200520 METAR ESMX 200520Z 18003KT 9999 BCFG NSC 08/07 Q1021=
201308200450 METAR ESMX 200450Z 00000KT 1000 R01/P2000 R19/P2000N BCFG NSC 07/06 Q1020=
201308200420 METAR ESMX 200420Z 00000KT 0650 R01/0900 R19/P2000N BCFG NSC 06/06 Q1020=
201308200350 METAR ESMX 200350Z 00000KT 0550 R01/P2000 R19/P2000N BCFG NSC 07/06 Q1020=
201308200320 METAR ESMX 200320Z AUTO 00000KT 9000NDV NCD 07/06 Q1020=
201308200250 METAR ESMX 200250Z AUTO 00000KT 0900NDV R01/P2000N R19/P2000N FG NCD 07/06 Q1020=
201308200220 METAR ESMX 200220Z AUTO 00000KT 4100NDV BR NCD 07/06 Q1020=
201308200150 METAR ESMX 200150Z AUTO 00000KT 2600NDV BR NCD 08/07 Q1020=
201308200120 METAR ESMX 200120Z AUTO 00000KT 9999NDV NCD 08/07 Q1020=
201308200050 METAR ESMX 200050Z AUTO 18003KT 9000NDV NCD 09/08 Q1020=
201308200020 METAR ESMX 200020Z AUTO 26003KT 9999NDV NCD 09/08 Q1020=
201308192350 METAR ESMX 192350Z 29003KT CAVOK 09/08 Q1019=
201308192320 METAR ESMX 192320Z 27003KT CAVOK 09/08 Q1019=
201308192250 METAR ESMX 192250Z 32004KT CAVOK 12/10 Q1019=
201308192220 METAR ESMX 192220Z 31004KT CAVOK 12/09 Q1019=
201308192120 METAR ESMX 192120Z 30004KT CAVOK 13/10 Q1018=
201308192050 METAR ESMX 192050Z 27003KT CAVOK 12/10 Q1018=
201308192020 METAR ESMX 192020Z 25003KT CAVOK 12/10 Q1017=
201308191950 METAR ESMX 191950Z 25003KT CAVOK 12/10 Q1017=
201308191920 METAR ESMX 191920Z 22004KT CAVOK 13/10 Q1017=
201308191850 METAR ESMX 191850Z 22005KT CAVOK 14/10 Q1017=
201308191820 METAR ESMX 191820Z 25003KT CAVOK 16/10 Q1016=
201308191750 METAR ESMX 191750Z 28003KT 9999 FEW040 17/10 Q1016=
201308191720 METAR ESMX 191720Z 25003KT 9999 FEW040 16/10 Q1016=
201308191650 METAR ESMX 191650Z 27004KT 240V300 9999 SCT039 BKN055 18/10 Q1016=
201308191620 METAR ESMX 191620Z 24004KT 200V260 9999 FEW041 18/09 Q1015=
201308191550 METAR ESMX 191550Z 21007KT 9999 FEW043 19/10 Q1015=
201308191520 METAR ESMX 191520Z 22005KT 9999 FEW035 18/10 Q1015=
201308191450 METAR ESMX 191450Z 24006KT 9999 FEW040 18/09 Q1015=
201308191420 METAR ESMX 191420Z 27006KT 9999 FEW034 19/11 Q1015=
201308191350 METAR ESMX 191350Z 21006KT 9999 FEW036 SCT100 19/10 Q1014=
201308191320 METAR ESMX 191320Z 25007KT 230V300 9999 FEW040 19/11 Q1014=
201308191250 METAR ESMX 191250Z 29008KT 9999 SCT040 19/10 Q1014=
201308191220 METAR ESMX 191220Z 21007KT 190V260 9999 SCT040 19/09 Q1014=
201308191150 METAR ESMX 191150Z 21007KT 150V260 9999 SCT040 20/09 Q1014=
201308191120 METAR ESMX 191120Z 22006KT 160V250 9999 SCT040 19/10 Q1014=
201308191050 METAR ESMX 191050Z 21004KT 150V260 9999 FEW030 18/09 Q1014=
201308191020 METAR ESMX 191020Z 23007KT 190V280 9999 SCT040 19/08 Q1014=
201308190950 METAR ESMX 190950Z 27008KT 9999 SCT040 18/08 Q1014=
201308190920 METAR ESMX 190920Z 26007KT 170V290 9999 FEW020 18/10 Q1014=
201308190850 METAR ESMX 190850Z 23008KT 190V260 9999 FEW020 17/10 Q1014=
201308190820 METAR ESMX 190820Z 20006KT 180V250 9999 FEW022 17/10 Q1014=
201308190750 METAR ESMX 190750Z 25006KT 210V290 9999 FEW018 16/12 Q1013=
201308190720 METAR ESMX 190720Z 23006KT 9999 FEW013 16/12 Q1013=
201308190650 METAR ESMX 190650Z 22006KT CAVOK 15/13 Q1013=
201308190620 METAR ESMX 190620Z 23005KT CAVOK 14/12 Q1013=
201308190550 METAR ESMX 190550Z 21005KT CAVOK 13/12 Q1013=
201308190520 METAR ESMX 190520Z 21004KT CAVOK 12/12 Q1012=
201308190450 METAR ESMX 190450Z 20004KT 1300 R01/P2000N R19/0900VP2000D PRFG NSC 11/10 Q1012=
201308190420 METAR ESMX 190420Z 21005KT 0200 R01/P2000N R19/0350V0550N PRFG NSC 11/10 Q1012=
201308190350 METAR ESMX 190350Z 20004KT 0450 R01/P2000N R19/0750V1900 PRFG NSC 11/10 Q1012=
201308190320 METAR ESMX 190320Z AUTO 21005KT 0150NDV R01/P2000N R19/0600 BR NCD 11/10 Q1012=
201308190250 METAR ESMX 190250Z AUTO 22004KT 0150NDV R01/P2000N R19/0550 NCD 11/10 Q1011=
201308190220 METAR ESMX 190220Z AUTO 21004KT 0200NDV R01/P2000N R19/0900V1700 NCD 11/11 Q1011=
201308190150 METAR ESMX 190150Z AUTO 22005KT 1000NDV R01/P2000N R19/P2000N NCD 12/11 Q1011=
201308190120 METAR ESMX 190120Z AUTO 23005KT 9999NDV FEW044/// 13/12 Q1011=
201308190050 METAR ESMX 190050Z AUTO 23005KT 9999NDV SCT046/// 13/12 Q1011=
201308190020 METAR ESMX 190020Z AUTO 21005KT 9999NDV NCD 12/11 Q1010=
201308182350 METAR ESMX 182350Z AUTO 22005KT 9999NDV NCD 13/12 Q1010=
201308182320 METAR ESMX 182320Z 23004KT 9999 FEW048 SCT055 BKN074 14/12 Q1010=
201308182250 METAR ESMX 182250Z 25006KT 9999 FEW017 BKN040 15/13 Q1010 REDZ=
201308182220 METAR ESMX 182220Z 23004KT 9999 DZ FEW025 BKN035 OVC069 15/14 Q1009=
201308182150 METAR ESMX 182150Z 25004KT 210V280 9999 FEW033 SCT037 BKN042 15/13 Q1009=
201308182120 METAR ESMX 182120Z 27005KT 9999 BKN023 16/13 Q1009 REDZ=
201308182050 METAR ESMX 182050Z 20008KT 9999 FEW007 SCT023 BKN049 16/15 Q1009=
201308182020 METAR ESMX 182020Z 19009KT 9999 FEW015 BKN052 17/15 Q1008=
201308181950 METAR ESMX 181950Z 18008KT 9999 FEW011 SCT018 BKN020 17/15 Q1008=
201308181920 METAR ESMX 181920Z 19008KT 9999 FEW017 SCT020 BKN023 17/15 Q1008=
201308181850 METAR ESMX 181850Z 19008KT 9999 FEW016 SCT024 BKN028 17/15 Q1008=
201308181820 METAR ESMX 181820Z 19008KT 9999 FEW011 BKN016 17/15 Q1008=
201308181750 METAR ESMX 181750Z 18009KT 9999 FEW012 BKN014 17/15 Q1008=
201308181720 METAR ESMX 181720Z 18008KT 9999 SCT012 BKN023 17/15 Q1008=
201308181650 METAR ESMX 181650Z 20010KT 9999 FEW013 SCT016 BKN018 17/15 Q1008=
201308181620 METAR ESMX 181620Z 20011KT 9999 FEW012 BKN016 17/15 Q1007=
201308181550 METAR ESMX 181550Z 20010KT 9999 FEW010 BKN022 17/16 Q1007 RESHRA=
201308181520 METAR ESMX 181520Z 22011KT 9999 -SHRA SCT015 BKN040 18/15 Q1007=
201308181450 METAR ESMX 181450Z 21013KT 9999 FEW010 SCT020 BKN060 19/15 Q1007=
201308181420 METAR ESMX 181420Z 18011KT 9999 -SHRA SCT008 BKN040 20/16 Q1007=
201308181350 METAR ESMX 181350Z 17008KT 9999 FEW025 BKN060 21/16 Q1007=
201308181320 METAR ESMX 181320Z AUTO 17008KT 9999NDV FEW041/// BKN057/// 21/16 Q1007=
201308181250 METAR ESMX 181250Z AUTO 17011KT 130V200 9999NDV FEW053/// BKN065/// 21/15 Q1007=
201308181220 METAR ESMX 181220Z AUTO 16010KT 9999NDV FEW049/// OVC071/// 21/15 Q1007=
201308181150 METAR ESMX 181150Z AUTO 16011KT 120V190 9999NDV FEW050/// BKN079/// 21/15 Q1008=
201308181120 METAR ESMX 181120Z AUTO 15010KT 9999NDV FEW083/// 20/15 Q1008=
201308181050 METAR ESMX 181050Z AUTO 15010KT 9999NDV FEW043/// SCT082/// BKN097/// 20/16 Q1008=
201308181020 METAR ESMX 181020Z AUTO 16013KT 9999NDV DZ FEW041/// SCT055/// BKN074/// 20/15 Q1008=
201308180950 METAR ESMX 180950Z AUTO 17013KT 130V200 9999NDV FEW045/// SCT110/// 22/16 Q1008=
201308180920 METAR ESMX 180920Z AUTO 17014KT 9999NDV FEW036/// SCT046/// 21/16 Q1009=
201308180850 METAR ESMX 180850Z AUTO 17010KT 140V200 9999NDV FEW048/// 20/16 Q1009=
201308180820 METAR ESMX 180820Z AUTO 16008KT 120V190 9999NDV FEW043/// 19/16 Q1009=
201308180750 METAR ESMX 180750Z AUTO 16009KT 9999NDV FEW100/// 18/16 Q1009=
201308180720 METAR ESMX 180720Z AUTO 15008KT 120V190 9999NDV FEW052/// 17/15 Q1009=
201308180650 METAR ESMX 180650Z AUTO 15007KT 120V180 9999NDV FEW029/// SCT110/// 16/15 Q1010=
201308180620 METAR ESMX 180620Z AUTO 16008KT 130V190 6000NDV BR FEW004/// 15/14 Q1010=
201308180550 METAR ESMX 180550Z AUTO 16007KT 7000NDV BR FEW110/// 15/14 Q1010 RERA=
201308180520 METAR ESMX 180520Z AUTO 15007KT 9999NDV SCT110/// 15/14 Q1010=
201308180450 METAR ESMX 180450Z AUTO 16007KT 9999NDV FEW110/// 15/14 Q1011=
201308180420 METAR ESMX 180420Z AUTO 15006KT 9999NDV SCT100/// 15/14 Q1011=
201308180350 METAR ESMX 180350Z AUTO 15005KT 9999NDV FEW100/// 15/14 Q1011=
201308180320 METAR ESMX 180320Z AUTO 15005KT 9999NDV BKN100/// 15/14 Q1011=
201308180250 METAR ESMX 180250Z AUTO 16005KT 9999NDV SCT110/// 15/14 Q1011=
201308180220 METAR ESMX 180220Z AUTO 16006KT 9999NDV NCD 15/14 Q1011=
201308180150 METAR ESMX 180150Z AUTO 17005KT 9999NDV NCD 14/13 Q1011=
201308180120 METAR ESMX 180120Z AUTO 15004KT 9999NDV NCD 14/13 Q1012=
201308180050 METAR ESMX 180050Z AUTO 18005KT 9999NDV NCD 14/13 Q1012=
201308180020 METAR ESMX 180020Z AUTO 18005KT 9999NDV NCD 14/13 Q1012=
201308172350 METAR ESMX 172350Z AUTO 18006KT 9999NDV NCD 14/13 Q1012=
201308172320 METAR ESMX 172320Z AUTO 17005KT 9999NDV NCD 15/14 Q1012=
201308172250 METAR ESMX 172250Z AUTO 18006KT 9999NDV FEW034/// 15/14 Q1012=
201308172220 METAR ESMX 172220Z AUTO 19005KT 9999NDV FEW032/// BKN037/// 15/14 Q1012=
201308172150 METAR ESMX 172150Z AUTO 19005KT 9999NDV FEW024/// BKN037/// 16/14 Q1012=
201308172120 METAR ESMX 172120Z AUTO 18004KT 9999NDV FEW026/// SCT030/// OVC034/// 16/15 Q1012=
201308172050 METAR ESMX 172050Z AUTO 18004KT 9999NDV FEW022/// SCT028/// BKN093/// 14/13 Q1012=
201308172020 METAR ESMX 172020Z AUTO 17004KT 1500NDV FEW065/// 14/13 Q1012=
201308171950 METAR ESMX 171950Z AUTO 17003KT 6000NDV FEW039/// 15/14 Q1012=
201308171920 METAR ESMX 171920Z AUTO 19004KT 9999NDV SCT040/// 15/14 Q1012=
201308171850 METAR ESMX 171850Z AUTO 18004KT 9999NDV FEW036/// SCT043/// BKN068/// 16/15 Q1012=
201308171820 METAR ESMX 171820Z AUTO 19005KT 9999NDV FEW038/// BKN046/// 17/15 Q1012=
201308171750 METAR ESMX 171750Z AUTO 18004KT 9999NDV FEW044/// 17/15 Q1012=
201308171720 METAR ESMX 171720Z AUTO 21004KT 9999NDV BKN083/// 19/15 Q1012=
201308171650 METAR ESMX 171650Z AUTO 22005KT 9999NDV BKN088/// 18/15 Q1012=
201308171620 METAR ESMX 171620Z AUTO 22005KT 9999NDV BKN091/// 18/16 Q1012=
201308171550 METAR ESMX 171550Z AUTO 19004KT 9999NDV NCD 18/16 Q1012=
201308171520 METAR ESMX 171520Z AUTO 20005KT 9999NDV -DZ FEW046/// 18/15 Q1013=
201308171450 METAR ESMX 171450Z AUTO 19005KT 9999NDV -DZ FEW025/// SCT055/// 18/16 Q1013=
201308171420 METAR ESMX 171420Z AUTO 19005KT 9999NDV -RA FEW055/// 18/15 Q1013 REDZ=
201308171350 METAR ESMX 171350Z 19006KT 9999 FEW012 SCT022 BKN038 18/15 Q1013=
201308171320 METAR ESMX 171320Z 20007KT 9999 FEW011 SCT019 BKN021 18/15 Q1013=
201308171250 METAR ESMX 171250Z 18007KT 9999 FEW010 SCT014 BKN016 18/15 Q1013=
201308171220 METAR ESMX 171220Z 19007KT 9999 FEW008 SCT011 BKN017 18/16 Q1013=
201308171150 METAR ESMX 171150Z 19007KT 9999 FEW011 OVC016 17/15 Q1013=
201308171120 METAR ESMX 171120Z 19007KT 9999 FEW008 OVC015 17/15 Q1013=
201308171050 METAR ESMX 171050Z 19006KT 9999 FEW010 BKN016 17/15 Q1013=
201308171020 METAR ESMX 171020Z AUTO 20007KT 9999NDV FEW007/// SCT010/// BKN012/// 17/15 Q1013=
201308170950 METAR ESMX 170950Z AUTO 18008KT 9999NDV FEW007/// SCT013/// BKN062/// 17/15 Q1013 REDZ=
201308170920 METAR ESMX 170920Z AUTO 21006KT 9999NDV -DZ FEW009/// SCT016/// BKN066/// 17/15 Q1014=
201308170850 METAR ESMX 170850Z AUTO 19010KT 9999NDV -DZ FEW005/// SCT009/// BKN012/// 17/15 Q1014=
201308170820 METAR ESMX 170820Z AUTO 19007KT 7000NDV DZ FEW005/// SCT007/// BKN008/// 17/16 Q1014=
201308170750 METAR ESMX 170750Z AUTO 20006KT 8000NDV DZ FEW005/// SCT007/// BKN071/// 16/15 Q1014=
201308170720 METAR ESMX 170720Z AUTO 19007KT 7000NDV -RA FEW007/// 17/15 Q1014=
201308170650 METAR ESMX 170650Z AUTO 19006KT 8000NDV -RA FEW012/// SCT021/// 16/15 Q1014=
201308170620 METAR ESMX 170620Z AUTO 19004KT 7000NDV -DZ FEW016/// SCT019/// BKN072/// 16/15 Q1014=
201308170550 METAR ESMX 170550Z AUTO 20003KT 7000NDV BR FEW011/// BKN070/// 16/15 Q1014=
201308170520 METAR ESMX 170520Z AUTO VRB02KT 8000NDV -DZ OVC011/// 15/14 Q1013 REDZ=
201308170450 METAR ESMX 170450Z AUTO 00000KT 8000NDV -DZ FEW012/// SCT065/// BKN080/// 15/14 Q1014 REDZ=
201308170420 METAR ESMX 170420Z AUTO 15003KT 9999NDV -DZ BKN077/// 15/14 Q1014=
201308170350 METAR ESMX 170350Z AUTO 17004KT 9999NDV -DZ BKN078/// 15/14 Q1014=
201308170320 METAR ESMX 170320Z AUTO 21004KT 9999NDV -RA FEW053/// BKN087/// 15/14 Q1014=
201308170250 METAR ESMX 170250Z AUTO 20004KT 9999NDV -DZ BKN050/// 15/14 Q1014=
201308170220 METAR ESMX 170220Z AUTO 22005KT 9999NDV DZ FEW046/// SCT060/// 15/14 Q1014=
201308170150 METAR ESMX 170150Z AUTO 22008KT 190V250 9999NDV -RA FEW037/// BKN041/// 16/14 Q1014=
201308170120 METAR ESMX 170120Z AUTO 18006KT 9999NDV FEW023/// SCT046/// BKN061/// 16/14 Q1014 REDZ RERA=
201308170050 METAR ESMX 170050Z AUTO 19006KT 9999NDV DZ FEW032/// SCT043/// BKN049/// 16/15 Q1015=
201308170020 METAR ESMX 170020Z AUTO 16005KT 9999NDV SCT024/// BKN058/// BKN080/// 16/15 Q1015=
201308162350 METAR ESMX 162350Z AUTO 19004KT 9999NDV FEW024/// BKN064/// 16/15 Q1015 RESHRA=
201308162320 METAR ESMX 162320Z AUTO 22006KT 7000NDV -RA FEW022/// SCT043/// BKN061/// 16/14 Q1015=
201308162250 METAR ESMX 162250Z AUTO 15007KT 9999NDV -DZ BKN058/// 17/14 Q1015=
201308162220 METAR ESMX 162220Z AUTO 16006KT 9999NDV UP FEW035/// SCT066/// 17/14 Q1015=
201308162150 METAR ESMX 162150Z AUTO 18007KT 9999NDV -RA FEW040/// SCT064/// 17/14 Q1015=
201308162120 METAR ESMX 162120Z AUTO 18007KT 9999NDV BKN071/// 17/14 Q1015=
201308162050 METAR ESMX 162050Z AUTO 16008KT 130V190 9999NDV -RA BKN083/// 17/14 Q1015=
201308162020 METAR ESMX 162020Z AUTO 17008KT 9999NDV FEW068/// 17/14 Q1015=
201308161950 METAR ESMX 161950Z AUTO 16008KT 120V190 9999NDV BKN061/// BKN086/// 17/14 Q1015=
201308161920 METAR ESMX 161920Z AUTO 16007KT 9999NDV SCT088/// 17/14 Q1016=
201308161850 METAR ESMX 161850Z AUTO 17007KT 9999NDV FEW081/// 18/15 Q1016=
201308161820 METAR ESMX 161820Z AUTO 15006KT 9999NDV FEW053/// 18/15 Q1016=
201308161750 METAR ESMX 161750Z AUTO 16006KT 9999NDV FEW021/// SCT077/// 18/15 Q1016=
201308161720 METAR ESMX 161720Z 16007KT 9999 FEW023 SCT029 18/15 Q1015=
201308161650 METAR ESMX 161650Z 16006KT 9999 FEW021 SCT033 19/16 Q1016=
201308161620 METAR ESMX 161620Z 16007KT CAVOK 19/16 Q1016=
201308161550 METAR ESMX 161550Z 16005KT 9999 FEW017 SCT021 BKN063 18/16 Q1016=
201308161520 METAR ESMX 161520Z 19004KT 9999 FEW007 SCT020 BKN024 18/16 Q1016 RERA=
201308161450 METAR ESMX 161450Z 17008KT 6000 RA FEW014 SCT037 BKN070 18/16 Q1016=
201308161420 METAR ESMX 161420Z 16006KT 130V190 9999 FEW022 SCT066 BKN085 20/15 Q1016=
201308161350 METAR ESMX 161350Z 17007KT 9999 FEW020 SCT026 BKN064 19/15 Q1017=
201308161320 METAR ESMX 161320Z 18009KT 9999 FEW020 BKN025 19/14 Q1017=
201308161250 METAR ESMX 161250Z 20009KT 9999 FEW017 OVC037 20/15 Q1017=
201308161220 METAR ESMX 161220Z 19007KT 160V230 9999 FEW015 SCT021 BKN034 19/14 Q1017=
201308161150 METAR ESMX 161150Z 20008KT 9999 SCT009 BKN025 18/14 Q1017=
201308161120 METAR ESMX 161120Z 17006KT 9999 FEW008 BKN018 18/15 Q1017=
201308161050 METAR ESMX 161050Z 20008KT 9999 FEW006 SCT008 OVC010 17/15 Q1018=
201308161020 METAR ESMX 161020Z 20010KT 8000 BR OVC011 17/14 Q1018=
201308160950 METAR ESMX 160950Z 17009KT 9999 FEW013 SCT016 BKN018 17/14 Q1018=
201308160920 METAR ESMX 160920Z 17009KT 9999 -SHRA FEW019 BKN023 OVC041 18/13 Q1018=
201308160850 METAR ESMX 160850Z 17008KT 130V190 9999 FEW015 SCT026 BKN045 18/13 Q1018=
201308160820 METAR ESMX 160820Z 16006KT 9999 FEW016 SCT066 BKN084 18/14 Q1018=
201308160750 METAR ESMX 160750Z 14006KT 9999 FEW040 BKN070 17/14 Q1018=
201308160720 METAR ESMX 160720Z 16006KT 120V190 9999 FEW040 BKN070 16/13 Q1018=
201308160650 METAR ESMX 160650Z 15006KT 9999 BKN040 BKN070 15/13 Q1018=
201308160620 METAR ESMX 160620Z 16006KT 120V200 9999 FEW045 BKN070 14/12 Q1018=
201308160550 METAR ESMX 160550Z 15006KT 110V180 9999 SCT045 BKN100 14/12 Q1018=
201308160520 METAR ESMX 160520Z 15006KT 9999 SCT040 BKN086 13/11 Q1018=
201308160450 METAR ESMX 160450Z 15006KT 9999 FEW042 BKN100 12/11 Q1018=
201308160420 METAR ESMX 160420Z 14005KT CAVOK 12/10 Q1018=
201308160350 METAR COR ESMX 160350Z 14004KT 110V170 CAVOK 11/10 Q1019=
201308160320 METAR ESMX 160320Z AUTO 13002KT 9999NDV NCD 09/08 Q1019=
201308160250 METAR ESMX 160250Z AUTO 16004KT 9999NDV NCD 10/08 Q1019=
201308160220 METAR ESMX 160220Z AUTO 16005KT 9999NDV NCD 10/08 Q1019=
201308160150 METAR ESMX 160150Z AUTO 16004KT 9999NDV NCD 09/07 Q1019=
201308160120 METAR ESMX 160120Z AUTO 15003KT 9999NDV NCD 09/07 Q1019=
201308160050 METAR ESMX 160050Z AUTO 17004KT 9999NDV NCD 11/08 Q1019=
201308160020 METAR ESMX 160020Z 19006KT CAVOK 10/07 Q1020=
201308152350 METAR ESMX 152350Z 18003KT CAVOK 08/07 Q1020=
201308152320 METAR ESMX 152320Z 16004KT CAVOK 11/08 Q1020=
201308152220 METAR ESMX 152220Z 20006KT CAVOK 11/09 Q1020=
201308152150 METAR ESMX 152150Z 18006KT CAVOK 12/09 Q1019=
201308152120 METAR ESMX 152120Z 19005KT CAVOK 12/09 Q1019=
201308152050 METAR ESMX 152050Z VRB04KT CAVOK 12/09 Q1019=
201308152020 METAR ESMX 152020Z 21005KT CAVOK 13/09 Q1019=
201308151920 METAR ESMX 151920Z 22004KT CAVOK 14/09 Q1019=
201308151820 METAR ESMX 151820Z 24004KT 9999 FEW040 15/09 Q1019=
201308151750 METAR ESMX 151750Z 25005KT 9999 FEW040 16/09 Q1019=
201308151720 METAR ESMX 151720Z 26006KT 9999 FEW043 17/08 Q1019=
201308151650 METAR ESMX 151650Z 26006KT 9999 FEW049 18/07 Q1019=
201308151620 METAR ESMX 151620Z 26008KT 230V290 9999 FEW049 18/07 Q1019=
201308151550 METAR ESMX 151550Z 26009KT 230V320 9999 FEW045 19/07 Q1019=
201308151520 METAR ESMX 151520Z 25007KT 9999 FEW043 19/07 Q1019=
201308151450 METAR ESMX 151450Z 21011KT 190V250 9999 SCT048 19/07 Q1019=
201308151420 METAR ESMX 151420Z 24010KT 200V260 9999 SCT048 19/07 Q1019=
201308151350 METAR ESMX 151350Z 23011KT 9999 FEW042 SCT047 20/07 Q1019=
201308151320 METAR ESMX 151320Z 26007KT 9999 SCT040 BKN053 19/10 Q1019=
201308151250 METAR ESMX 151250Z 22008KT 200V260 9999 FEW040 BKN059 17/09 Q1019=
201308151220 METAR ESMX 151220Z 23009KT 9999 FEW028 BKN054 18/09 Q1019=
201308151150 METAR ESMX 151150Z 23008KT 200V270 9999 SCT028 17/09 Q1019=
201308151120 METAR ESMX 151120Z 23010KT 9999 FEW029 OVC047 17/10 Q1019=
201308151050 METAR ESMX 151050Z 23010KT 9999 FEW029 BKN047 17/11 Q1019=
201308151020 METAR ESMX 151020Z 26008KT 230V290 9999 SCT032 BKN052 18/10 Q1019=
201308150950 METAR ESMX 150950Z 23008KT 200V290 9999 FEW026 SCT043 OVC050 17/11 Q1019=
201308150920 METAR ESMX 150920Z 25007KT 9999 FEW025 SCT050 16/10 Q1019=
201308150850 METAR ESMX 150850Z 21008KT 9999 FEW025 SCT043 16/11 Q1019=
201308150820 METAR ESMX 150820Z 27006KT 200V320 9999 SCT020 17/11 Q1018=
201308150750 METAR ESMX 150750Z 25007KT 220V290 9999 FEW018 SCT020 16/11 Q1018=
201308150720 METAR ESMX 150720Z 26008KT 220V290 9999 SCT015 15/11 Q1018=
201308150650 METAR ESMX 150650Z 27007KT 230V300 9999 FEW009 SCT012 BKN058 14/12 Q1018=
201308150620 METAR ESMX 150620Z 27007KT 9999 FEW010 14/12 Q1018=
201308150550 METAR ESMX 150550Z 26007KT 9999 FEW010 OVC059 14/12 Q1018=
201308150520 METAR ESMX 150520Z 26006KT 9999 FEW010 BKN060 13/12 Q1018=
201308150450 METAR ESMX 150450Z 26005KT 9999 FEW008 OVC061 13/11 Q1018=
201308150420 METAR ESMX 150420Z 26006KT CAVOK 13/11 Q1017=
201308150350 METAR ESMX 150350Z 26005KT CAVOK 12/11 Q1017=
201308150320 METAR ESMX 150320Z AUTO 26004KT 9999NDV OVC057/// 12/10 Q1017=
201308150250 METAR ESMX 150250Z AUTO 25004KT 9999NDV OVC059/// 12/10 Q1017=
201308150220 METAR ESMX 150220Z AUTO 24005KT 9999NDV OVC059/// 12/10 Q1016=
201308150150 METAR ESMX 150150Z AUTO 26005KT 9999NDV NCD 11/10 Q1016=
201308150120 METAR ESMX 150120Z AUTO 25004KT 9999NDV BKN057/// 12/10 Q1016=
201308150050 METAR ESMX 150050Z AUTO 28005KT 9999NDV SCT056/// 12/10 Q1016=
201308150020 METAR ESMX 150020Z AUTO 29005KT 9999NDV SCT058/// 12/11 Q1016=
201308142350 METAR ESMX 142350Z 27005KT CAVOK 12/11 Q1016=
201308142250 METAR ESMX 142250Z 26005KT 9999 SCT045 BKN061 12/10 Q1016=
201308142220 METAR ESMX 142220Z 26005KT 9999 SCT035 BKN077 12/10 Q1015=
201308142150 METAR ESMX 142150Z 25004KT 9999 FEW022 BKN067 12/10 Q1015=
201308142120 METAR ESMX 142120Z 25003KT 9999 FEW021 BKN065 12/10 Q1015=
201308142050 METAR ESMX 142050Z 24005KT 9999 FEW021 SCT074 12/10 Q1015=
201308141920 METAR ESMX 141920Z 27004KT 9999 FEW035 14/09 Q1014=
201308141850 METAR ESMX 141850Z 27005KT 9999 FEW035 15/09 Q1014=
201308141820 METAR ESMX 141820Z 28005KT 240V300 9999 FEW035 16/09 Q1014=
201308141720 METAR ESMX 141720Z 29009KT 9999 FEW035 17/09 Q1013=
201308141650 METAR ESMX 141650Z 27008KT 9999 FEW037 18/10 Q1013=
201308141620 METAR ESMX 141620Z 28009KT 250V310 9999 FEW039 19/09 Q1012=
201308141550 METAR ESMX 141550Z 30009KT 260V330 9999 FEW045 19/08 Q1012=
201308141520 METAR ESMX 141520Z 31010KT 9999 FEW045 19/08 Q1012=
201308141420 METAR ESMX 141420Z 31010KT 260V340 9999 FEW045 19/08 Q1011=
201308141350 METAR ESMX 141350Z 30010KT 260V350 9999 FEW040 19/09 Q1011=
201308141320 METAR ESMX 141320Z 30010KT 250V350 9999 FEW047 20/09 Q1011=
201308141250 METAR ESMX 141250Z 28009KT 230V320 9999 FEW040 19/09 Q1011=
201308141220 METAR ESMX 141220Z 32008KT 290V360 9999 FEW040 18/09 Q1010=
201308141150 METAR ESMX 141150Z 27010KT 9999 FEW038 18/09 Q1010=
201308141120 METAR ESMX 141120Z 30008KT 270V340 9999 FEW038 18/09 Q1010=
201308141050 METAR ESMX 141050Z 31009KT 9999 FEW035 18/09 Q1010=
201308141020 METAR ESMX 141020Z 31008KT 270V340 9999 FEW027 17/09 Q1010=
201308140920 METAR ESMX 140920Z 27008KT 250V320 9999 FEW025 16/10 Q1010=
201308140850 METAR ESMX 140850Z 29008KT 9999 FEW014 16/11 Q1010=
201308140820 METAR ESMX 140820Z 28005KT 240V320 9999 FEW009 SCT013 14/11 Q1009=
201308140750 METAR ESMX 140750Z 27007KT 9999 FEW007 BKN010 13/11 Q1009=
201308140720 METAR ESMX 140720Z 26006KT 230V290 9999 FEW006 BKN010 13/11 Q1009=
201308140650 METAR ESMX 140650Z 30004KT 260V340 9999 BKN004 12/10 Q1008=
201308140620 METAR ESMX 140620Z 27005KT 230V300 9999 BKN004 11/10 Q1008=
201308140550 METAR ESMX 140550Z 26005KT 9999 OVC005 10/09 Q1008=
201308140520 METAR ESMX 140520Z 27005KT 240V300 9999 FEW002 OVC003 10/09 Q1008=
201308140450 METAR ESMX 140450Z 27004KT 240V320 9999 OVC003 09/09 Q1008=
201308140420 METAR ESMX 140420Z 26005KT 230V290 9999 BR BKN004 09/09 Q1007=
201308140350 METAR ESMX 140350Z AUTO 27006KT 9999NDV FEW002/// 09/08 Q1007=
201308140320 METAR ESMX 140320Z AUTO 28004KT 9999NDV FEW005/// 09/08 Q1007=
201308140250 METAR ESMX 140250Z AUTO 25004KT 230V290 9999NDV BKN006/// BKN051/// 10/09 Q1007=
201308140220 METAR ESMX 140220Z AUTO 25004KT 210V280 9999NDV FEW005/// SCT008/// BKN010/// 10/09 Q1007=
201308140150 METAR ESMX 140150Z AUTO 26005KT 9999NDV FEW005/// BKN010/// 10/09 Q1007=
201308140120 METAR ESMX 140120Z AUTO 25004KT 9999NDV FEW005/// BKN012/// 10/09 Q1007=
201308140050 METAR ESMX 140050Z AUTO 25004KT 9999NDV OVC013/// 11/10 Q1006=
201308140020 METAR ESMX 140020Z AUTO 21004KT 9999NDV FEW017/// SCT032/// BKN041/// 11/10 Q1006 RESHRA=
201308132350 METAR ESMX 132350Z 21006KT 9999 FEW005 SCT011 BKN020 11/10 Q1006 REDZ RERA=
201308132320 METAR ESMX 132320Z 24005KT 9999 DZ FEW006 SCT013 BKN020 11/10 Q1006=
201308132250 METAR ESMX 132250Z 23006KT 9999 FEW006 SCT040 BKN050 11/10 Q1006=
201308132220 METAR ESMX 132220Z 21007KT 9999 FEW007 BKN050 11/10 Q1006=
201308132150 METAR ESMX 132150Z 22008KT 9999 SCT004 BKN005 11/10 Q1006=
201308132120 METAR ESMX 132120Z 21007KT 9999 FEW003 BKN005 11/10 Q1006=
201308132050 METAR ESMX 132050Z 22008KT 9999 SCT004 BKN006 11/10 Q1006=
201308132020 METAR ESMX 132020Z 20007KT 9999 FEW025 BKN080 11/10 Q1006=
201308131950 METAR ESMX 131950Z 20006KT 9999 FEW025 BKN080 11/09 Q1006 REDZ=
201308131920 METAR ESMX 131920Z 20006KT 9999 FEW015 BKN080 11/10 Q1006=
201308131850 METAR ESMX 131850Z 21005KT 9999 FEW015 BKN080 11/10 Q1006=
201308131820 METAR ESMX 131820Z 18008KT 9999 FEW010 SCT080 13/11 Q1005=
201308131750 METAR ESMX 131750Z 21009KT 9999 FEW012 SCT040 13/11 Q1006=
201308131720 METAR ESMX 131720Z 18006KT 9999 FEW020 BKN080 13/11 Q1005=
201308131650 METAR ESMX 131650Z 19007KT 9999 FEW021 SCT073 13/11 Q1006=
201308131620 METAR ESMX 131620Z 18008KT 9999 -SHRA FEW025 13/11 Q1006=
201308131550 METAR ESMX 131550Z 17006KT 150V210 9999 FEW010 SCT040 13/11 Q1006=
201308131520 METAR ESMX 131520Z 15005KT 9999 FEW007 SCT035 13/11 Q1006=
201308131420 METAR ESMX 131420Z 20007KT 9999 -SHRA FEW030CB SCT035 12/10 Q1007=
201308131350 METAR ESMX 131350Z 24006KT 210V280 9999 -SHRA FEW027 SCT035 12/10 Q1006=
201308131320 METAR ESMX 131320Z 26013KT 1600 SHRA FEW019 SCT030CB BKN053 12/08 Q1006=
201308131250 METAR ESMX 131250Z 22010KT 190V250 9999 FEW033CB SCT070 18/09 Q1006=
201308131220 METAR ESMX 131220Z 22010KT 200V260 9999 FEW036 18/10 Q1006=
201308131150 METAR ESMX 131150Z 20014KT 9999 FEW033TCU 18/10 Q1006=
201308131120 METAR ESMX 131120Z 21013KT 9999 FEW027TCU SCT058 18/09 Q1006=
201308131050 METAR ESMX 131050Z 19011KT 9999 FEW029 SCT035 17/11 Q1006=
201308131020 METAR ESMX 131020Z 22012KT 9999 FEW024 16/10 Q1006=
201308130950 METAR ESMX 130950Z 21012KT 9999 FEW023CB 16/10 Q1006=
201308130920 METAR ESMX 130920Z 20010KT 9999 FEW032CB SCT061 15/11 Q1006=
201308130850 METAR ESMX 130850Z 25009KT 180V270 9999 FEW033CB SCT058 16/11 Q1006=
201308130820 METAR ESMX 130820Z 24007KT 190V270 9999 FEW014 SCT020 14/11 Q1007=
201308130750 METAR ESMX 130750Z 21007KT 9999 FEW009 BKN010 14/11 Q1007=
201308130720 METAR ESMX 130720Z 21008KT 9999 FEW007 14/12 Q1007=
201308130650 METAR ESMX 130650Z 21007KT 9999 FEW006 13/11 Q1006=
201308130620 METAR ESMX 130620Z 20009KT 9999 FEW004 12/11 Q1007=
201308130550 METAR ESMX 130550Z 22007KT 9999 SCT006 11/10 Q1007=
201308130520 METAR ESMX 130520Z 23006KT 9999 FEW004 BKN062 12/11 Q1007=
201308130450 METAR ESMX 130450Z 19006KT 9999 FEW005 BKN056 11/10 Q1006=
201308130420 METAR ESMX 130420Z 19004KT 9999 FEW005 BKN060 11/10 Q1007=
201308130350 METAR ESMX 130350Z 20005KT 9999 FEW005 BKN060 11/10 Q1006 RERA=
201308130320 METAR ESMX 130320Z AUTO 22007KT 9999NDV BKN055/// BKN082/// 10/10 Q1007=
201308130250 METAR ESMX 130250Z AUTO 21007KT 9999NDV FEW004/// BKN057/// 11/10 Q1007=
201308130220 METAR ESMX 130220Z AUTO 21007KT 9999NDV OVC065/// 11/10 Q1007=
201308130150 METAR ESMX 130150Z AUTO 21006KT 9999NDV FEW063/// BKN079/// 10/09 Q1007=
201308130120 METAR ESMX 130120Z AUTO 21005KT 9999NDV BKN078/// 10/09 Q1007=
201308130050 METAR ESMX 130050Z AUTO 22006KT 9999NDV FEW066/// 10/09 Q1007=
201308130020 METAR ESMX 130020Z 21006KT 9999 FEW030 10/09 Q1007=
201308122350 METAR ESMX 122350Z 20006KT 9999 FEW020 10/09 Q1007=
201308122250 METAR ESMX 122250Z 20007KT 9999 FEW010 BKN080 11/09 Q1007=
201308122220 METAR ESMX 122220Z 19009KT 9999 FEW047 SCT060 12/10 Q1008 RERA=
201308122150 METAR ESMX 122150Z 20007KT 9999 -SHRA FEW025 SCT070 11/10 Q1008=
201308122120 METAR ESMX 122120Z 20007KT 9999 FEW020 SCT070 11/10 Q1008=
201308122050 METAR ESMX 122050Z 20006KT 9999 FEW020 SCT070 10/09 Q1008=
201308122020 METAR ESMX 122020Z 20006KT 9999 FEW020 SCT070 11/10 Q1008=
201308121950 METAR ESMX 121950Z 19006KT 9999 FEW020 SCT070 11/10 Q1008=
201308121920 METAR ESMX 121920Z 19008KT 9999 FEW020 SCT080 12/10 Q1008 RESHRA=
201308121850 METAR ESMX 121850Z 21008KT 9999 FEW020CB SCT050 13/10 Q1008=
201308121820 METAR ESMX 121820Z 18003KT 9999 FEW015CB BKN035 13/11 Q1007=
201308121750 METAR ESMX 121750Z 24004KT 9999 FEW015 SCT040 13/10 Q1008=
201308121720 METAR ESMX 121720Z 29008KT 250V330 9999 FEW0015CB BKN035 14/10 Q1008=
201308121650 METAR ESMX 121650Z 29005KT 250V320 9999 -SHRA FEW037CB SCT047 BKN060 15/11 Q1007=
201308121620 METAR ESMX 121620Z 26008KT 210V300 9999 VCSH FEW029 SCT036 BKN046 16/12 Q1008=
201308121550 METAR ESMX 121550Z 23005KT 9999 VCSH FEW035 16/12 Q1007=
201308121520 METAR ESMX 121520Z 23008KT 200V260 9999 FEW025 SCT045 16/12 Q1007=
201308121450 METAR ESMX 121450Z 21007KT 9999 FEW021 SCT042 16/13 Q1007=
201308121420 METAR ESMX 121420Z 23007KT 9999 FEW026 SCT046 BKN060 14/12 Q1008 RESHRA=
201308121350 METAR ESMX 121350Z 27010KT 9999 SHRA SCT021CB 14/11 Q1008=
201308121320 METAR ESMX 121320Z 21012KT 9999 FEW026 16/11 Q1007=
201308121250 METAR ESMX 121250Z 23010KT CAVOK 16/12 Q1008 RERA RESHRA=
201308121220 METAR ESMX 121220Z 20012KT 9999 -SHRA FEW025CB 12/10 Q1007=
201308121150 METAR ESMX 121150Z 22015KT 9999 -SHRA FEW024CB 15/10 Q1008=
201308121120 METAR ESMX 121120Z 23013KT 9999 SCT024 16/10 Q1007=
201308121050 METAR ESMX 121050Z 22014KT 9999 FEW024 SCT029 17/12 Q1007=
201308121020 METAR ESMX 121020Z 21013KT 9999 FEW022 17/12 Q1007=
201308120950 METAR ESMX 120950Z 20013KT 180V240 9999 FEW013 SCT025 16/13 Q1007=
201308120920 METAR ESMX 120920Z 20009KT 9999 FEW015 SCT025 14/12 Q1008 RERA=
201308120850 METAR ESMX 120850Z 22010KT 9999 RA FEW010 SCT018 BKN027 13/11 Q1008=
201308120820 METAR ESMX 120820Z 25011KT 220V280 2600 +RA TS FEW019 SCT029 BKN042 12/10 Q1008 REDZ=
201308120750 METAR ESMX 120750Z 24009KT 9999 -RASH FEW016 SCT022 BKN027 15/11 Q1007=
201308120720 METAR ESMX 120720Z 22010KT 9999 FEW013 SCT016 BKN021 15/12 Q1008=
201308120650 METAR ESMX 120650Z 22011KT 9999 SCT013 BKN018 15/12 Q1008=
201308120620 METAR ESMX 120620Z 22010KT 9999 FEW009 SCT012 BKN016 14/12 Q1007=
201308120550 METAR ESMX 120550Z 21010KT 9999 FEW008 SCT010 BKN013 14/12 Q1007=
201308120520 METAR ESMX 120520Z 22009KT 9999 SCT007 BKN010 13/11 Q1007=
201308120450 METAR ESMX 120450Z 19009KT 9999 SCT008 12/11 Q1007=
201308120420 METAR ESMX 120420Z 20007KT 9999 SCT007 BKN060 12/11 Q1007 RERA=
201308120350 METAR ESMX 120350Z 19008KT 9999 FEW008 SCT030 11/10 Q1007=
201308120320 METAR ESMX 120320Z AUTO 19008KT 9999NDV FEW034/// 12/11 Q1007=
201308120250 METAR ESMX 120250Z AUTO 19009KT 9999NDV FEW100/// 12/11 Q1007=
201308120220 METAR ESMX 120220Z AUTO 20011KT 9999NDV -DZ FEW009/// SCT012/// BKN016/// 12/11 Q1007=
201308120150 METAR ESMX 120150Z AUTO 20008KT 9999NDV BKN010/// BKN100/// 12/11 Q1008=
201308120120 METAR ESMX 120120Z AUTO 20008KT 9999NDV FEW015/// SCT022/// 12/10 Q1008=
201308120050 METAR ESMX 120050Z AUTO 19008KT 9999NDV NCD 12/11 Q1008=
201308120020 METAR ESMX 120020Z AUTO 20009KT 9999NDV FEW059/// SCT074/// 12/11 Q1008=
201308112350 METAR ESMX 112350Z AUTO 19008KT 9999NDV -RA FEW031/// SCT050/// BKN061/// 13/11 Q1008 REDZ=
201308112320 METAR ESMX 112320Z AUTO 20008KT 9999NDV FEW034/// BKN055/// 13/11 Q1008=
201308112250 METAR ESMX 112250Z 18006KT 9999 FEW032 SCT039 12/10 Q1009=
201308112220 METAR ESMX 112220Z 18007KT CAVOK 11/10 Q1009=
201308112150 METAR ESMX 112150Z 18006KT CAVOK 12/10 Q1009=
201308112120 METAR ESMX 112120Z 20007KT CAVOK 12/10 Q1009=
201308112050 METAR ESMX 112050Z 20007KT 9999 FEW047 BKN067 13/10 Q1009=
201308112020 METAR ESMX 112020Z 23008KT 9999 FEW026 SCT038 14/10 Q1009=
201308111950 METAR ESMX 111950Z 22008KT 9999 FEW032 BKN048 14/10 Q1009=
201308111920 METAR ESMX 111920Z 21006KT 9999 FEW031 SCT047 14/11 Q1009 REDZ=
201308111850 METAR ESMX 111850Z 21006KT 9999 FEW030 SCT043 14/10 Q1009=
201308111820 METAR ESMX 111820Z 23006KT CAVOK 14/10 Q1008=
201308111750 METAR ESMX 111750Z 23008KT 200V260 CAVOK 15/11 Q1008=
201308111720 METAR ESMX 111720Z 25005KT CAVOK 14/11 Q1008=
201308111650 METAR ESMX 111650Z 24007KT CAVOK 14/11 Q1008=
201308111620 METAR ESMX 111620Z 25008KT 9999 FEW034 BKN048 14/11 Q1009=
201308111550 METAR ESMX 111550Z 25009KT 210V280 9999 RA FEW018 SCT024 BKN051 15/11 Q1009=
201308111520 METAR ESMX 111520Z 26009KT 9999 -RASH FEW023 SCT040 BKN046 15/11 Q1008 REDZ=
201308111450 METAR ESMX 111450Z 23012KT 9999 FEW030 SCT036 BKN047 16/10 Q1008=
201308111420 METAR ESMX 111420Z 24013KT 210V280 9999 FEW030 SCT044 BKN067 17/09 Q1008=
201308111350 METAR ESMX 111350Z 22012G22KT 9999 FEW030 BKN035 17/09 Q1008=
201308111320 METAR ESMX 111320Z AUTO 23012KT 9999NDV OVC060/// 17/09 Q1008=
201308111250 METAR ESMX 111250Z AUTO 25012KT 9999NDV BKN056/// 17/10 Q1008=
201308111220 METAR ESMX 111220Z AUTO 26012KT 240V300 9999NDV FEW029/// BKN051/// BKN074/// 16/10 Q1008=
201308111150 METAR ESMX 111150Z AUTO 25012KT 210V290 9999NDV FEW031/// SCT068/// 17/10 Q1008=
201308111120 METAR ESMX 111120Z AUTO 28013KT 9999NDV FEW015/// 18/11 Q1008=
201308111050 METAR ESMX 111050Z AUTO 26012KT 230V290 9999NDV FEW012/// BKN017/// 16/13 Q1009=
201308111020 METAR ESMX 111020Z AUTO 27014KT 9999NDV FEW017/// SCT022/// 17/13 Q1009=
201308110950 METAR ESMX 110950Z AUTO 28012KT 250V310 9999NDV FEW018/// SCT020/// BKN082/// 16/12 Q1008=
201308110920 METAR ESMX 110920Z AUTO 23011KT 190V250 9999NDV FEW018/// SCT020/// BKN039/// 16/13 Q1008=
201308110850 METAR ESMX 110850Z AUTO 24009KT 210V280 9999NDV FEW017/// SCT086/// 17/13 Q1008=
201308110820 METAR ESMX 110820Z AUTO 22009KT 9999NDV FEW016/// SCT025/// BKN044/// 17/12 Q1008=
201308110750 METAR ESMX 110750Z AUTO 22008KT 9999NDV FEW010/// SCT058/// 17/14 Q1008=
201308110720 METAR ESMX 110720Z AUTO 23006KT 9999NDV FEW007/// SCT008/// BKN013/// 15/13 Q1009=
201308110650 METAR ESMX 110650Z AUTO 20005KT 9999NDV BKN006/// BKN010/// 15/13 Q1009=
201308110620 METAR ESMX 110620Z AUTO 22006KT 9999NDV BKN005/// 15/13 Q1009=
201308110550 METAR ESMX 110550Z AUTO 23004KT 9999NDV BKN082/// 14/13 Q1008=
201308110520 METAR ESMX 110520Z AUTO 19003KT 9999NDV FEW063/// BKN076/// 14/13 Q1009=
201308110450 METAR ESMX 110450Z AUTO 22005KT 9999NDV FEW006/// SCT039/// BKN046/// 14/13 Q1009=
201308110420 METAR ESMX 110420Z AUTO 21004KT 9999NDV FEW036/// SCT048/// BKN085/// 14/12 Q1009=
201308110350 METAR ESMX 110350Z AUTO 22004KT 9999NDV FEW031/// SCT043/// OVC090/// 13/12 Q1009=
201308110320 METAR ESMX 110320Z AUTO 21003KT 9999NDV BKN041/// BKN055/// 13/12 Q1009=
201308110250 METAR ESMX 110250Z AUTO 17003KT 9999NDV SCT044/// BKN060/// BKN081/// 14/12 Q1010=
201308110220 METAR ESMX 110220Z AUTO 17003KT 9999NDV BKN042/// BKN078/// 15/12 Q1010=
201308110150 METAR ESMX 110150Z AUTO 17004KT 9999NDV FEW048/// SCT057/// BKN068/// 15/12 Q1010=
201308110120 METAR ESMX 110120Z AUTO 16004KT 9999NDV FEW059/// SCT095/// 14/12 Q1010=
201308110050 METAR ESMX 110050Z AUTO 15001KT 9999NDV BKN049/// 13/11 Q1011=
201308110020 METAR ESMX 110020Z AUTO 17003KT 9999NDV SCT048/// 13/11 Q1011=
201308102350 METAR ESMX 102350Z AUTO 16003KT 9999NDV FEW051/// 15/12 Q1011=
201308102320 METAR ESMX 102320Z AUTO 16005KT 9999NDV FEW075/// BKN094/// 15/12 Q1011=
201308102250 METAR ESMX 102250Z AUTO 15003KT 9999NDV SCT090/// BKN110/// 14/12 Q1012=
201308102220 METAR ESMX 102220Z AUTO 15005KT 9999NDV BKN091/// 15/12 Q1012=
201308102150 METAR ESMX 102150Z AUTO 17003KT 9999NDV FEW040/// 15/12 Q1012=
201308102120 METAR ESMX 102120Z AUTO 16004KT 9999NDV BKN040/// 16/12 Q1012=
201308102050 METAR ESMX 102050Z AUTO 17004KT 9999NDV BKN044/// BKN052/// 16/12 Q1012=
201308102020 METAR ESMX 102020Z AUTO 16004KT 9999NDV SCT049/// BKN072/// 16/12 Q1013=
201308101950 METAR ESMX 101950Z AUTO 16004KT 9999NDV SCT064/// 15/13 Q1013=
201308101920 METAR ESMX 101920Z AUTO 17002KT 9999NDV FEW064/// BKN074/// BKN096/// 15/14 Q1013=
201308101850 METAR ESMX 101850Z AUTO 16002KT 9999NDV BKN080/// OVC097/// 15/14 Q1013=
201308101820 METAR ESMX 101820Z AUTO 18001KT 9999NDV FEW062/// SCT076/// BKN100/// 16/14 Q1013=
201308101750 METAR ESMX 101750Z AUTO 22003KT 9999NDV FEW110/// 16/13 Q1013=
201308101720 METAR ESMX 101720Z AUTO 22004KT 9999NDV -RA FEW080/// 16/13 Q1014=
201308101650 METAR ESMX 101650Z AUTO 26003KT 9999NDV -RA FEW066/// 15/13 Q1014=
201308101620 METAR ESMX 101620Z AUTO 24012KT 9999NDV RA FEW034/// SCT044/// BKN052/// 16/13 Q1014=
201308101550 METAR ESMX 101550Z AUTO 17008KT 9999NDV FEW095/// SCT100/// 20/10 Q1013=
201308101520 METAR ESMX 101520Z AUTO 19014KT 9999NDV FEW091/// SCT100/// 21/10 Q1014=
201308101450 METAR ESMX 101450Z AUTO 22009KT 9999NDV FEW054/// 21/10 Q1014=
201308101420 METAR ESMX 101420Z AUTO 21011KT 190V260 9999NDV FEW054/// 23/10 Q1014=
201308101350 METAR ESMX 101350Z AUTO 20009KT 160V240 9999NDV FEW060/// SCT100/// 23/08 Q1014=
201308101320 METAR ESMX 101320Z AUTO 20009KT 9999NDV FEW061/// SCT100/// 21/10 Q1014=
201308101250 METAR ESMX 101250Z AUTO 19011KT 9999NDV FEW077/// 20/09 Q1014=
201308101220 METAR ESMX 101220Z AUTO 20007KT 9999NDV BKN076/// 21/11 Q1015=
201308101150 METAR ESMX 101150Z AUTO VRB02KT 9999NDV FEW050/// SCT069/// 21/13 Q1015=
201308101120 METAR ESMX 101120Z AUTO 28006KT 9999NDV FEW041/// SCT053/// 19/11 Q1015=
201308101050 METAR ESMX 101050Z AUTO 20009KT 9999NDV FEW049/// BKN087/// 23/10 Q1015=
201308101020 METAR ESMX 101020Z AUTO 20007KT 160V240 9999NDV FEW040/// 21/12 Q1015=
201308100950 METAR ESMX 100950Z AUTO 23007KT 9999NDV FEW036/// 21/11 Q1015=
201308100920 METAR ESMX 100920Z AUTO 21007KT 170V250 9999NDV NCD 20/12 Q1016=
201308100850 METAR ESMX 100850Z AUTO 22006KT 170V250 9999NDV NCD 19/12 Q1016=
201308100820 METAR ESMX 100820Z AUTO 22005KT 170V260 9999NDV FEW057/// SCT089/// 19/12 Q1016=
201308100750 METAR ESMX 100750Z AUTO 22003KT 150V250 9999NDV NCD 18/14 Q1016=
201308100720 METAR ESMX 100720Z AUTO 22003KT 9999NDV FEW077/// BKN087/// 16/13 Q1016=
201308100650 METAR ESMX 100650Z AUTO 19003KT 160V230 9999NDV FEW068/// BKN087/// 16/13 Q1016=
201308100620 METAR ESMX 100620Z AUTO VRB02KT 9999NDV FEW067/// 14/12 Q1016=
201308100550 METAR ESMX 100550Z AUTO 21004KT 9999NDV FEW091/// 14/12 Q1016=
201308100520 METAR ESMX 100520Z AUTO 21004KT 9999NDV NCD 12/11 Q1016=
201308100450 METAR ESMX 100450Z AUTO 22005KT 9999NDV NCD 12/11 Q1016=
201308100420 METAR ESMX 100420Z AUTO 22004KT 9999NDV FEW077/// 11/10 Q1016=
201308100350 METAR ESMX 100350Z AUTO 20006KT 9999NDV NCD 11/11 Q1017=
201308100320 METAR ESMX 100320Z AUTO 18004KT 9999NDV NCD 12/11 Q1017=
201308100250 METAR ESMX 100250Z AUTO 23005KT 9999NDV NCD 11/10 Q1017=
201308100220 METAR ESMX 100220Z AUTO 22004KT 9999NDV NCD 10/10 Q1017=
201308100150 METAR ESMX 100150Z AUTO 21004KT 9999NDV NCD 10/09 Q1017=
201308100120 METAR ESMX 100120Z AUTO 20003KT 9999NDV NCD 11/09 Q1017=
201308100050 METAR ESMX 100050Z AUTO 21004KT 9999NDV NCD 12/11 Q1017=
201308100020 METAR ESMX 100020Z AUTO 24003KT 9999NDV NCD 12/10 Q1018=
201308092350 METAR ESMX 092350Z AUTO 24003KT 9999NDV NCD 12/10 Q1017=
201308092320 METAR ESMX 092320Z AUTO 26004KT 9999NDV NCD 12/10 Q1017=
201308092250 METAR ESMX 092250Z AUTO 24005KT 9999NDV NCD 12/10 Q1017=
201308092220 METAR ESMX 092220Z AUTO 23004KT 9999NDV NCD 12/09 Q1018=
201308092150 METAR ESMX 092150Z AUTO 23004KT 9999NDV NCD 13/09 Q1017=
201308092120 METAR ESMX 092120Z AUTO 23004KT 9999NDV NCD 13/10 Q1017=
201308092050 METAR ESMX 092050Z AUTO 25004KT 9999NDV NCD 13/09 Q1017=
201308092020 METAR ESMX 092020Z AUTO 24004KT 9999NDV NCD 14/09 Q1017=
201308091950 METAR ESMX 091950Z AUTO 22004KT 9999NDV NCD 14/09 Q1017=
201308091920 METAR ESMX 091920Z AUTO 24004KT 9999NDV NCD 15/09 Q1017=
201308091850 METAR ESMX 091850Z AUTO 25004KT 9999NDV NCD 16/09 Q1017=
201308091820 METAR ESMX 091820Z AUTO 26005KT 9999NDV NCD 18/09 Q1017=
201308091750 METAR ESMX 091750Z AUTO 26006KT 9999NDV NCD 19/10 Q1016=
201308091720 METAR ESMX 091720Z AUTO 27008KT 9999NDV NCD 19/09 Q1016=
201308091650 METAR ESMX 091650Z 26009KT 9999 FEW045 20/09 Q1016=
201308091620 METAR ESMX 091620Z 26009KT 230V300 9999 FEW046 20/09 Q1016=
201308091550 METAR ESMX 091550Z 26008KT 230V290 9999 SCT044 21/09 Q1016=
201308091520 METAR ESMX 091520Z 26011KT 9999 SCT043 20/09 Q1016=
201308091450 METAR ESMX 091450Z 26010KT 220V290 9999 SCT042 21/11 Q1016=
201308091350 METAR ESMX 091350Z 25011KT 200V290 9999 FEW044 21/10 Q1016=
201308091320 METAR ESMX 091320Z 26012G22KT 230V300 9999 FEW041 21/10 Q1016=
201308091250 METAR ESMX 091250Z 24009KT 200V280 9999 SCT041 21/11 Q1016=
201308091220 METAR ESMX 091220Z 26009KT 220V280 9999 SCT040 21/11 Q1016=
201308091150 METAR ESMX 091150Z 26010KT 240V300 9999 FEW038 20/10 Q1016=
201308091120 METAR ESMX 091120Z 24011KT 210V280 9999 FEW035 21/11 Q1015=
201308091050 METAR ESMX 091050Z 26011KT 210V280 9999 SCT030 20/11 Q1015=
201308091020 METAR ESMX 091020Z 24011KT 210V280 9999 SCT030 20/13 Q1015=
201308090950 METAR ESMX 090950Z 26010KT 230V300 9999 SCT025 19/13 Q1015=
201308090920 METAR ESMX 090920Z 28012KT 9999 SCT020 18/12 Q1015=
201308090850 METAR ESMX 090850Z 25011KT 9999 FEW017 BKN022 18/13 Q1015=
201308090820 METAR ESMX 090820Z 25010KT 210V280 9999 FEW012 SCT020 18/13 Q1015=
201308090750 METAR ESMX 090750Z 25008KT 9999 FEW008 BKN018 17/13 Q1015=
201308090720 METAR ESMX 090720Z 26008KT 9999 FEW010 BKN014 BKN019 16/13 Q1015=
201308090650 METAR ESMX 090650Z 26008KT 230V300 9999 FEW006 BKN008 BKN012 16/14 Q1014=
201308090620 METAR ESMX 090620Z 25007KT 9999 SCT006 BKN008 15/14 Q1014=
201308090550 METAR ESMX 090550Z 25007KT 9999 SCT004 BKN007 15/13 Q1014 REDZ=
201308090520 METAR ESMX 090520Z 23006KT 9999 FEW006 SCT008 BKN010 15/14 Q1014=
201308090450 METAR ESMX 090450Z 23005KT 200V010 9999 FEW012 BKN017 15/13 Q1014=
201308090420 METAR ESMX 090420Z 26003KT 220V290 9999 FEW011 SCT016 14/13 Q1013=
201308090350 METAR ESMX 090350Z 24003KT 9999 FEW012 BKN017 14/13 Q1013=
201308090320 METAR ESMX 090320Z AUTO 26004KT 9999NDV FEW013/// SCT019/// 14/13 Q1013=
201308090250 METAR ESMX 090250Z AUTO 27007KT 220V300 9999NDV FEW010/// BKN014/// 14/13 Q1013=
201308090220 METAR ESMX 090220Z AUTO 27007KT 9999NDV FEW010/// SCT012/// BKN015/// 14/13 Q1013=
201308090150 METAR ESMX 090150Z AUTO 27006KT 9999NDV FEW009/// OVC024/// 14/13 Q1012=
201308090120 METAR ESMX 090120Z AUTO 28008KT 9999NDV FEW007/// BKN011/// OVC016/// 15/13 Q1012=
201308090050 METAR ESMX 090050Z AUTO 28007KT 9999NDV BKN006/// OVC011/// 15/14 Q1012=
201308090020 METAR ESMX 090020Z 27006KT 9999 FEW008 SCT013 OVC016 16/14 Q1012=
201308082350 METAR ESMX 082350Z 28008KT 9999 SCT006 BKN010 OVC024 16/14 Q1012=
201308082320 METAR ESMX 082320Z 29010KT 260V360 9999 SCT006 BKN008 16/15 Q1011 REDZ=
201308082250 METAR ESMX 082250Z 26007KT 7000 DZ SCT006 BKN008 17/16 Q1011=
201308082150 METAR ESMX 082150Z 26009KT 9999 FEW003 BKN004 17/16 Q1011=
201308082120 METAR ESMX 082120Z 24008KT 9999 BKN007 18/17 Q1011=
201308082050 METAR ESMX 082050Z 23007KT 9000 BR BKN004 18/17 Q1010=
201308082020 METAR ESMX 082020Z 22008KT 9999 FEW004 SCT014 BKN019 18/17 Q1010=
201308081950 METAR ESMX 081950Z 22006KT 9999 FEW039 BKN071 18/17 Q1010=
201308081920 METAR ESMX 081920Z 22006KT 9999 FEW005 SCT008 BKN013 19/18 Q1010 REDZ=
201308081850 METAR ESMX 081850Z 15001KT 7000 -RA FEW005 SCT014 BKN023 18/18 Q1010=
201308081820 METAR ESMX 081820Z 17003KT 140V210 9999 +DZ SCT026 OVC043 18/18 Q1010=
201308081750 METAR ESMX 081750Z 16004KT CAVOK 18/17 Q1010=
201308081720 METAR ESMX 081720Z 20003KT 160V230 9999 FEW010 SCT035 18/17 Q1010=
201308081650 METAR ESMX 081650Z 21008KT 1700 SHRA SCT005 BKN015 18/17 Q1010=
201308081620 METAR COR ESMX 081620Z 22008KT 180V240 9999 -SHRA FEW005 SCT007 BKN010 20/19 Q1010=
201308081550 METAR ESMX 081550Z 15006KT 110V190 9999 FEW006 SCT009 BKN012 20/19 Q1009=
201308081520 METAR ESMX 081520Z 15005KT 9999 FEW003 SCT006 BKN009 20/19 Q1010=
201308081450 METAR ESMX 081450Z 15006KT 9999 OVC004 20/18 Q1010=
201308081420 METAR ESMX 081420Z 14007KT 9999 RA OVC005 19/18 Q1010=
201308081350 METAR ESMX 081350Z 13005KT 100V170 9999 BKN004 OVC007 19/18 Q1010 RERA=
201308081320 METAR ESMX 081320Z 13005KT 100V170 7000 -RA BKN004 OVC010 19/18 Q1011=
201308081250 METAR ESMX 081250Z 14005KT 9000 -RA SCT005 BKN007 BKN010 19/18 Q1011=
201308081220 METAR ESMX 081220Z 13005KT 100V170 6000 RA FEW008 BKN012 19/17 Q1011=
201308081150 METAR ESMX 081150Z 13005KT 080V170 9999 -RA OVC013 19/17 Q1011 REDZ=
201308081120 METAR ESMX 081120Z 12005KT 080V160 9999 -RA OVC013 20/17 Q1011=
201308081050 METAR ESMX 081050Z 13006KT 060V180 9999 -RA BKN015 20/16 Q1011=
201308081020 METAR ESMX 081020Z 13006KT 080V210 9999 -DZ FEW020 BKN035 19/16 Q1012=
201308080950 METAR ESMX 080950Z 11005KT 070V160 9999 -DZ FEW015 BKN040 19/16 Q1012=
201308080920 METAR ESMX 080920Z 12007KT 080V160 9999 -RA FEW037 BKN087 19/15 Q1012=
201308080850 METAR ESMX 080850Z 13005KT 100V160 9999 FEW038 BKN110 20/15 Q1013=
201308080820 METAR ESMX 080820Z 11005KT 080V150 9999 FEW031 SCT049 BKN100 20/14 Q1012=
201308080750 METAR ESMX 080750Z 10005KT 060V140 9999 FEW026 BKN090 19/15 Q1012=
201308080720 METAR ESMX 080720Z 12004KT 080V160 9999 FEW035 BKN100 19/15 Q1013=
201308080650 METAR ESMX 080650Z 09004KT 9999 FEW032 BKN100 18/15 Q1013=
201308080620 METAR ESMX 080620Z VRB01KT 9999 FEW031 BKN100 17/15 Q1013=
201308080550 METAR ESMX 080550Z 13003KT 100V170 9999 FEW035 BKN100 17/15 Q1013=
201308080520 METAR ESMX 080520Z 14004KT 100V160 CAVOK 17/15 Q1013=
201308080450 METAR ESMX 080450Z 13002KT CAVOK 16/14 Q1013=
201308080420 METAR ESMX 080420Z VRB02KT CAVOK 15/14 Q1013=
201308080350 METAR ESMX 080350Z AUTO 10002KT 9999NDV -DZ FEW086/// SCT100/// 15/14 Q1013=
201308080320 METAR ESMX 080320Z AUTO 00000KT 9999NDV BKN088/// BKN110/// 14/13 Q1014=
201308080250 METAR ESMX 080250Z AUTO 00000KT 9999NDV -RA BKN092/// 14/12 Q1014=
201308080220 METAR ESMX 080220Z AUTO 00000KT 9999NDV BKN099/// 14/12 Q1014=
201308080150 METAR ESMX 080150Z AUTO VRB01KT 9999NDV SCT100/// 14/12 Q1014 REDZ=
201308080120 METAR ESMX 080120Z AUTO 00000KT 9999NDV BKN100/// 14/11 Q1014=
201308080050 METAR ESMX 080050Z AUTO 00000KT 9999NDV BKN100/// 14/10 Q1014=
201308080020 METAR ESMX 080020Z AUTO 19003KT 9999NDV SCT100/// 13/10 Q1014=
201308072350 METAR ESMX 072350Z 00000KT CAVOK 12/10 Q1014=
201308072250 METAR ESMX 072250Z 00000KT CAVOK 13/10 Q1014=
201308072150 METAR ESMX 072150Z 20003KT CAVOK 13/09 Q1014=
201308072120 METAR ESMX 072120Z 18004KT CAVOK 13/09 Q1014=
201308072050 METAR ESMX 072050Z VRB01KT CAVOK 14/10 Q1014=
201308072020 METAR ESMX 072020Z 09001KT CAVOK 15/11 Q1014=
201308071950 METAR ESMX 071950Z 01001KT CAVOK 16/10 Q1014=
201308071920 METAR ESMX 071920Z 29004KT CAVOK 17/10 Q1014=
201308071850 METAR ESMX 071850Z 31004KT CAVOK 19/10 Q1014=
201308071820 METAR ESMX 071820Z 24004KT CAVOK 21/11 Q1014=
201308071750 METAR ESMX 071750Z 24004KT CAVOK 23/10 Q1013=
201308071720 METAR ESMX 071720Z 21007KT CAVOK 24/10 Q1014=
201308071650 METAR ESMX 071650Z 20005KT 140V250 CAVOK 24/10 Q1013=
201308071620 METAR ESMX 071620Z 22005KT CAVOK 24/09 Q1013=
201308071550 METAR ESMX 071550Z 19007KT 160V230 CAVOK 23/10 Q1014=
201308071450 METAR ESMX 071450Z 22006KT 150V290 CAVOK 24/10 Q1014=
201308071420 METAR ESMX 071420Z 23007KT 190V280 CAVOK 24/11 Q1014=
201308071350 METAR ESMX 071350Z 23006KT 170V280 9999 FEW045 23/11 Q1014=
201308071320 METAR ESMX 071320Z 25006KT 210V320 9999 FEW045 24/11 Q1014=
201308071250 METAR ESMX 071250Z 19007KT 160V260 9999 FEW041 24/12 Q1014=
201308071220 METAR ESMX 071220Z 23007KT 190V270 9999 FEW038 23/12 Q1014=
201308071150 METAR ESMX 071150Z 22008KT 170V270 9999 BKN036 22/12 Q1014=
201308071120 METAR ESMX 071120Z 27008KT 210V310 9999 SCT030 23/13 Q1014=
201308071050 METAR ESMX 071050Z 23007KT 160V300 9999 FEW020 SCT035 22/13 Q1014=
201308071020 METAR ESMX 071020Z 26006KT 210V300 9999 SCT032 21/12 Q1014=
201308070950 METAR ESMX 070950Z 24005KT 160V300 9999 FEW010 SCT027 21/13 Q1014=
201308070920 METAR ESMX 070920Z 28007KT 230V330 9999 FEW008 SCT020 20/14 Q1014=
201308070850 METAR ESMX 070850Z 26006KT 230V310 9999 FEW006 SCT010 19/15 Q1014=
201308070820 METAR ESMX 070820Z 26004KT 160V320 9999 FEW006 BKN007 BKN009 18/15 Q1014=
201308070750 METAR ESMX 070750Z 21004KT 170V240 9999 BKN005 17/15 Q1014=
201308070720 METAR COR ESMX 070720Z 18006KT 9999 FEW005 BKN006 16/15 Q1014=
201308070650 METAR ESMX 070650Z 19006KT 9999 FEW010 BKN080 16/14 Q1014 REDZ=
201308070620 METAR ESMX 070620Z 20004KT 9999 FEW010 BKN090 16/14 Q1013=
201308070550 METAR ESMX 070550Z 19002KT 9999 FEW098 15/14 Q1013=
201308070520 METAR ESMX 070520Z VRB01KT 9999 -DZ FEW010 BKN090 15/14 Q1013=
201308070450 METAR ESMX 070450Z 20004KT 9999 -RA SCT090 BKN130 15/14 Q1014=
201308070420 METAR ESMX 070420Z 21006KT CAVOK 15/14 Q1014=
201308070350 METAR ESMX 070350Z 22005KT CAVOK 14/13 Q1014=
201308070320 METAR ESMX 070320Z AUTO 19005KT 9999NDV NCD 15/13 Q1014=
201308070250 METAR ESMX 070250Z AUTO 20005KT 9999NDV NCD 14/12 Q1013=
201308070220 METAR ESMX 070220Z AUTO 18004KT 9999NDV FEW029/// 15/14 Q1013=
201308070150 METAR ESMX 070150Z AUTO 18003KT 9999NDV FEW027/// 14/13 Q1013=
201308070120 METAR ESMX 070120Z AUTO 17003KT 9999NDV BKN027/// 15/13 Q1013=
201308070050 METAR ESMX 070050Z AUTO 20004KT 9999NDV OVC025/// 16/14 Q1013=
201308070020 METAR ESMX 070020Z 21004KT 9999 SCT025 15/13 Q1013=
201308062350 METAR ESMX 062350Z 22004KT CAVOK 14/13 Q1013=
201308062320 METAR ESMX 062320Z 22004KT CAVOK 15/13 Q1013=
201308062250 METAR ESMX 062250Z 24004KT CAVOK 16/14 Q1013=
201308062220 METAR ESMX 062220Z 24005KT CAVOK 16/14 Q1013=
201308062150 METAR ESMX 062150Z 23004KT CAVOK 16/13 Q1013=
201308062120 METAR ESMX 062120Z 24004KT CAVOK 17/14 Q1013=
201308062050 METAR ESMX 062050Z 25006KT 9999 FEW034 18/14 Q1013=
201308062020 METAR ESMX 062020Z 23005KT 9999 FEW030 18/14 Q1013=
201308061950 METAR ESMX 061950Z 25004KT 9999 FEW030 19/14 Q1013=
201308061920 METAR ESMX 061920Z 27007KT 9999 SCT030 21/15 Q1012=
201308061850 METAR ESMX 061850Z 30006KT 270V330 9999 FEW031 SCT037 23/16 Q1012=
201308061820 METAR ESMX 061820Z 20006KT 170V240 9999 FEW025 SCT036 BKN041 24/17 Q1012=
201308061750 METAR ESMX 061750Z 17009KT 9999 SCT040TCU 24/17 Q1011=
201308061720 METAR ESMX 061720Z 15010KT 9999 SCT050TCU 25/17 Q1011=
201308061650 METAR ESMX 061650Z 15010KT 9999 FEW040TCU 25/17 Q1011=
201308061620 METAR ESMX 061620Z 17012KT 9999 FEW040 26/17 Q1011=
201308061550 METAR ESMX 061550Z 16014KT 120V190 9999 FEW040 26/17 Q1012=
201308061520 METAR ESMX 061520Z 16014KT 9999 FEW045 27/17 Q1012=
201308061450 METAR ESMX 061450Z 17016KT 9999 FEW045 27/16 Q1012=
201308061420 METAR ESMX 061420Z 15015KT 120V180 9999 FEW040TCU SCT050 27/16 Q1012=
201308061350 METAR ESMX 061350Z 16014KT 9999 FEW040TCU SCT050 28/16 Q1012=
201308061320 METAR ESMX 061320Z 15013KT 120V190 9999 FEW030TCU SCT045 27/16 Q1012=
201308061250 METAR ESMX 061250Z 17013KT 9999 FEW040TCU SCT070 27/16 Q1013=
201308061220 METAR ESMX 061220Z 16012KT 120V200 9999 FEW036 SCT050TCU 27/17 Q1013=
201308061150 METAR ESMX 061150Z 17011KT 130V190 9999 FEW030TCU BKN040 27/17 Q1013=
201308061120 METAR ESMX 061120Z 14009KT 100V180 9999 FEW028 SCT040TCU 26/18 Q1013=
201308061050 METAR ESMX 061050Z 15010KT 110V180 9999 FEW026 26/18 Q1013=
201308061020 METAR ESMX 061020Z 12008KT 040V170 9999 FEW046 24/18 Q1014=
201308060950 METAR ESMX 060950Z 13007KT 070V160 9999 FEW039 23/18 Q1014=
201308060920 METAR ESMX 060920Z 13008KT 090V170 CAVOK 23/18 Q1014=
201308060850 METAR ESMX 060850Z 13008KT 110V170 9999 FEW025 21/17 Q1015=
201308060820 METAR ESMX 060820Z 13008KT 080V180 9999 FEW034 21/17 Q1015=
201308060750 METAR ESMX 060750Z 14008KT 110V180 9999 FEW033 20/16 Q1015=
201308060720 METAR ESMX 060720Z 14007KT 090V170 9999 FEW044 SCT052 20/16 Q1015=
201308060650 METAR ESMX 060650Z 12005KT 070V160 9999 BKN042 18/15 Q1015=
201308060620 METAR ESMX 060620Z 13004KT 070V170 9999 -RA BKN044 18/15 Q1016=
201308060550 METAR ESMX 060550Z 13005KT 080V180 CAVOK 18/15 Q1016=
201308060520 METAR ESMX 060520Z 12006KT 080V190 CAVOK 17/15 Q1016=
201308060450 METAR ESMX 060450Z 13005KT 100V160 CAVOK 16/14 Q1016=
201308060420 METAR ESMX 060420Z 11004KT 070V140 CAVOK 16/14 Q1017=
201308060350 METAR ESMX 060350Z 11004KT 070V160 CAVOK 15/13 Q1017=
201308060320 METAR ESMX 060320Z AUTO 12005KT 080V150 9999NDV FEW052/// SCT069/// 15/12 Q1017=
201308060250 METAR ESMX 060250Z AUTO 11004KT 9999NDV SCT053/// 14/11 Q1017=
201308060220 METAR ESMX 060220Z AUTO 11004KT 070V140 9999NDV NCD 14/11 Q1018=
201308060150 METAR ESMX 060150Z AUTO 13004KT 9999NDV NCD 14/11 Q1018=
201308060120 METAR ESMX 060120Z AUTO 14004KT 9999NDV NCD 15/12 Q1018=
201308060050 METAR ESMX 060050Z AUTO 14004KT 9999NDV NCD 13/12 Q1019=
201308060020 METAR ESMX 060020Z AUTO 14004KT 9999NDV NCD 13/12 Q1019=
201308052350 METAR ESMX 052350Z 14003KT CAVOK 12/11 Q1019=
201308052320 METAR ESMX 052320Z 13004KT CAVOK 13/11 Q1019=
201308052250 METAR ESMX 052250Z 14003KT CAVOK 14/12 Q1019=
201308052220 METAR ESMX 052220Z 14004KT CAVOK 15/12 Q1019=
201308052150 METAR ESMX 052150Z 15004KT CAVOK 16/13 Q1020=
201308052120 METAR ESMX 052120Z 15005KT CAVOK 17/12 Q1020=
201308052050 METAR ESMX 052050Z 15005KT CAVOK 19/12 Q1020=
201308052020 METAR ESMX 052020Z 15005KT CAVOK 18/13 Q1020=
201308051950 METAR ESMX 051950Z 16005KT CAVOK 18/12 Q1020=
201308051920 METAR ESMX 051920Z 00000KT CAVOK 17/12 Q1020=
201308051850 METAR ESMX 051850Z 00000KT CAVOK 19/12 Q1019=
201308051820 METAR ESMX 051820Z 34002KT CAVOK 22/11 Q1019=
201308051750 METAR ESMX 051750Z 30004KT CAVOK 23/10 Q1019=
201308051720 METAR ESMX 051720Z 30005KT CAVOK 24/10 Q1019=
201308051650 METAR ESMX 051650Z 27004KT 220V310 CAVOK 24/10 Q1020=
201308051620 METAR ESMX 051620Z 26006KT CAVOK 24/10 Q1020=
201308051450 METAR ESMX 051450Z 22005KT 170V270 CAVOK 25/08 Q1020=
201308051420 METAR ESMX 051420Z 21007KT CAVOK 25/08 Q1020=
201308051350 METAR ESMX 051350Z 25006KT 200V290 CAVOK 24/08 Q1020=
201308051320 METAR ESMX 051320Z 25005KT 170V320 CAVOK 25/08 Q1020=
201308051250 METAR ESMX 051250Z 19006KT 150V230 CAVOK 25/07 Q1020=
201308051220 METAR ESMX 051220Z 20008KT CAVOK 25/08 Q1021=
201308051150 METAR ESMX 051150Z 24004KT 210V280 CAVOK 23/09 Q1021=
201308051120 METAR ESMX 051120Z 21004KT 160V300 CAVOK 24/10 Q1021=
201308051050 METAR ESMX 051050Z 30005KT 260V340 9999 FEW045 23/10 Q1021=
201308051020 METAR ESMX 051020Z 24005KT 180V300 9999 FEW046 23/11 Q1021=
201308050950 METAR ESMX 050950Z 22005KT 9999 FEW040 22/11 Q1021=
201308050920 METAR ESMX 050920Z 25007KT 200V310 CAVOK 22/12 Q1021=
201308050850 METAR ESMX 050850Z 20005KT 150V230 9999 FEW040 22/12 Q1021=
201308050820 METAR ESMX 050820Z 20005KT 160V240 CAVOK 22/12 Q1021=
201308050750 METAR ESMX 050750Z 19003KT 120V240 CAVOK 21/12 Q1021=
201308050720 METAR ESMX 050720Z 17003KT 120V230 CAVOK 20/12 Q1021=
201308050650 METAR ESMX 050650Z 21004KT 170V240 CAVOK 19/10 Q1022=
201308050620 METAR ESMX 050620Z VRB02KT CAVOK 18/11 Q1022=
201308050550 METAR ESMX 050550Z 00000KT CAVOK 17/11 Q1021=
201308050520 METAR ESMX 050520Z 00000KT CAVOK 15/12 Q1021=
201308050450 METAR ESMX 050450Z 00000KT CAVOK 11/10 Q1021=
201308050420 METAR ESMX 050420Z 00000KT CAVOK 08/07 Q1021=
201308050350 METAR ESMX 050350Z 00000KT CAVOK 08/07 Q1021=
201308050320 METAR ESMX 050320Z AUTO 18001KT 9999NDV NCD 08/07 Q1021=
201308050250 METAR ESMX 050250Z AUTO 00000KT 9999NDV NCD 08/07 Q1021=
201308050220 METAR ESMX 050220Z AUTO 17002KT 9999NDV NCD 08/07 Q1021=
201308050150 METAR ESMX 050150Z AUTO 00000KT 9999NDV NCD 08/07 Q1021=
201308050120 METAR ESMX 050120Z AUTO 00000KT 9999NDV NCD 09/08 Q1021=
201308050050 METAR ESMX 050050Z AUTO 00000KT 9999NDV NCD 09/07 Q1021=
201308050020 METAR ESMX 050020Z AUTO 00000KT 9999NDV NCD 09/08 Q1021=
201308042350 METAR ESMX 042350Z AUTO 16002KT 9999NDV NCD 10/08 Q1021=
201308042320 METAR ESMX 042320Z 17003KT CAVOK 11/09 Q1021=
201308042250 METAR ESMX 042250Z 22004KT CAVOK 12/09 Q1021=
201308042220 METAR ESMX 042220Z 24004KT CAVOK 13/09 Q1021=
201308042150 METAR ESMX 042150Z 24004KT CAVOK 13/09 Q1021=
201308042120 METAR ESMX 042120Z 22003KT CAVOK 14/10 Q1021=
201308042050 METAR ESMX 042050Z 24004KT CAVOK 16/10 Q1021=
201308042020 METAR ESMX 042020Z 25004KT CAVOK 15/10 Q1020=
201308041950 METAR ESMX 041950Z 24004KT CAVOK 17/10 Q1020=
201308041920 METAR ESMX 041920Z 25004KT CAVOK 18/10 Q1020=
201308041850 METAR ESMX 041850Z 26004KT CAVOK 20/10 Q1020=
201308041820 METAR ESMX 041820Z 28006KT CAVOK 21/10 Q1020=
201308041750 METAR ESMX 041750Z 27006KT 230V010 CAVOK 22/09 Q1020=
201308041720 METAR ESMX 041720Z 29006KT 270V330 CAVOK 23/09 Q1020=
201308041650 METAR ESMX 041650Z 27007KT 230V300 CAVOK 23/09 Q1019=
201308041620 METAR ESMX 041620Z 25007KT CAVOK 24/10 Q1019=
201308041550 METAR ESMX 041550Z AUTO 29008KT 9999NDV SCT056/// 24/10 Q1019=
201308041520 METAR ESMX 041520Z AUTO 29007KT 250V330 9999NDV SCT056/// 24/10 Q1020=
201308041450 METAR ESMX 041450Z AUTO 31007KT 190V340 9999NDV NCD 24/10 Q1020=
201308041420 METAR ESMX 041420Z AUTO 31006KT 240V340 9999NDV FEW057/// 24/10 Q1020=
201308041350 METAR ESMX 041350Z AUTO 30006KT 210V340 9999NDV FEW053/// 24/10 Q1020=
201308041320 METAR ESMX 041320Z AUTO 28005KT 9999NDV NCD 23/10 Q1020=
201308041250 METAR ESMX 041250Z AUTO 29006KT 190V320 9999NDV FEW052/// 22/10 Q1020=
201308041220 METAR ESMX 041220Z AUTO 28006KT 240V330 9999NDV FEW045/// SCT056/// 22/10 Q1020=
201308041150 METAR ESMX 041150Z AUTO 25005KT 210V310 9999NDV FEW044/// SCT054/// 23/10 Q1020=
201308041120 METAR ESMX 041120Z AUTO 30006KT 9999NDV FEW046/// SCT054/// 22/12 Q1020=
201308041050 METAR ESMX 041050Z AUTO 27008KT 9999NDV FEW040/// SCT046/// BKN052/// 21/12 Q1021=
201308041020 METAR ESMX 041020Z AUTO 26006KT 210V300 9999NDV FEW036/// 21/11 Q1020=
201308040950 METAR ESMX 040950Z AUTO 26007KT 9999NDV FEW031/// 20/12 Q1021=
201308040920 METAR ESMX 040920Z AUTO 27007KT 230V300 9999NDV FEW027/// SCT034/// 20/13 Q1021=
201308040850 METAR ESMX 040850Z AUTO 24006KT 200V290 9999NDV FEW026/// SCT031/// 20/13 Q1021=
201308040820 METAR ESMX 040820Z AUTO 30006KT 9999NDV FEW022/// SCT046/// 20/14 Q1021=
201308040750 METAR ESMX 040750Z AUTO 29006KT 9999NDV FEW019/// SCT029/// BKN035/// 18/14 Q1021=
201308040720 METAR ESMX 040720Z AUTO 32005KT 280V360 9999NDV FEW017/// SCT019/// BKN021/// 19/14 Q1021=
201308040650 METAR ESMX 040650Z AUTO 32005KT 280V360 9999NDV SCT016/// 18/14 Q1020=
201308040620 METAR ESMX 040620Z AUTO 34005KT 290V360 9999NDV NCD 18/14 Q1020=
201308040550 METAR ESMX 040550Z AUTO 31004KT 9999NDV NCD 18/15 Q1020=
201308040520 METAR ESMX 040520Z AUTO 30004KT 9999NDV NCD 17/15 Q1020=
201308040450 METAR ESMX 040450Z AUTO 00000KT 9999NDV NCD 16/15 Q1019=
201308040420 METAR ESMX 040420Z AUTO 00000KT 0450NDV R01/0650V1800 R19/0800V1600 BCFG NCD 14/14 Q1019=
201308040350 METAR ESMX 040350Z AUTO 26001KT 0450NDV R01/P2000 R19/P2000N BCFG NCD 14/13 Q1019=
201308040320 METAR ESMX 040320Z AUTO 29003KT 3800NDV BR FEW006/// 15/14 Q1019=
201308040250 METAR ESMX 040250Z AUTO VRB02KT 7000NDV BR BKN002/// 17/16 Q1019=
201308040220 METAR ESMX 040220Z AUTO 30005KT 260V330 8000NDV BR OVC002/// 16/15 Q1019=
201308040150 METAR ESMX 040150Z AUTO 27004KT 9999NDV BKN003/// 15/14 Q1018=
201308040120 METAR ESMX 040120Z AUTO 25002KT 9999NDV NCD 15/14 Q1018=
201308040050 METAR ESMX 040050Z AUTO 25004KT 9999NDV NCD 15/13 Q1018=
201308040020 METAR ESMX 040020Z AUTO 24003KT 9999NDV NCD 15/14 Q1018=
201308032350 METAR ESMX 032350Z AUTO 22002KT 9999NDV NCD 16/14 Q1018=
201308032320 METAR ESMX 032320Z AUTO 21003KT 9999NDV NCD 16/14 Q1018=
201308032250 METAR ESMX 032250Z AUTO 24003KT 210V270 9999NDV NCD 17/15 Q1018=
201308032220 METAR ESMX 032220Z AUTO 22004KT 9999NDV NCD 17/15 Q1018=
201308032150 METAR ESMX 032150Z AUTO 23003KT 9999NDV NCD 17/15 Q1018=
201308032120 METAR ESMX 032120Z AUTO 22003KT 9999NDV NCD 18/16 Q1018=
201308032050 METAR ESMX 032050Z AUTO 26002KT 9999NDV NCD 19/16 Q1018=
201308032020 METAR ESMX 032020Z AUTO 25004KT 9999NDV NCD 19/16 Q1018=
201308031950 METAR ESMX 031950Z AUTO 22004KT 9999NDV FEW096/// 19/16 Q1017=
201308031920 METAR ESMX 031920Z AUTO 19004KT 9999NDV NCD 21/16 Q1017=
201308031850 METAR ESMX 031850Z AUTO 19006KT 9999NDV NCD 22/16 Q1017=
201308031820 METAR ESMX 031820Z AUTO 18006KT 9999NDV FEW033/// SCT063/// 23/16 Q1016=
201308031750 METAR ESMX 031750Z AUTO 17007KT 9999NDV FEW033/// SCT055/// 23/16 Q1016=
201308031720 METAR ESMX 031720Z AUTO 18007KT 9999NDV FEW035/// SCT045/// 24/16 Q1016=
201308031650 METAR ESMX 031650Z AUTO 18008KT 9999NDV OVC035/// 24/16 Q1016=
201308031620 METAR ESMX 031620Z AUTO 16010KT 9999NDV FEW040/// 24/15 Q1015=
201308031550 METAR ESMX 031550Z AUTO 16011KT 120V190 9999NDV FEW090/// 25/16 Q1015=
201308031520 METAR ESMX 031520Z AUTO 17014KT 9999NDV NCD 26/15 Q1015=
201308031450 METAR ESMX 031450Z AUTO 17014KT 9999NDV NCD 28/16 Q1015=
201308031420 METAR ESMX 031420Z AUTO 15010KT 120V180 9999NDV NCD 28/16 Q1015=
201308031350 METAR ESMX 031350Z AUTO 16011KT 120V190 9999NDV NCD 28/16 Q1015=
201308031320 METAR ESMX 031320Z AUTO 16011KT 120V190 9999NDV NCD 28/16 Q1015=
201308031250 METAR ESMX 031250Z AUTO 16012KT 120V200 9999NDV NCD 28/16 Q1015=
201308031220 METAR ESMX 031220Z AUTO 16010KT 110V190 9999NDV NCD 28/16 Q1015=
201308031150 METAR ESMX 031150Z AUTO 14010KT 090V170 9999NDV NCD 28/16 Q1015=
201308031120 METAR ESMX 031120Z AUTO 15010KT 100V180 9999NDV NCD 27/16 Q1015=
201308031050 METAR ESMX 031050Z AUTO 16009KT 110V210 9999NDV NCD 27/16 Q1015=
201308031020 METAR ESMX 031020Z AUTO 15008KT 100V190 9999NDV NCD 26/16 Q1016=
201308030950 METAR ESMX 030950Z AUTO 15009KT 120V180 9999NDV NCD 26/16 Q1016=
201308030920 METAR ESMX 030920Z AUTO 16010KT 090V190 9999NDV NCD 24/16 Q1016=
201308030850 METAR ESMX 030850Z AUTO 15008KT 100V180 9999NDV NCD 24/16 Q1016=
201308030820 METAR ESMX 030820Z AUTO 15008KT 110V180 9999NDV NCD 23/16 Q1016=
201308030750 METAR ESMX 030750Z AUTO 15008KT 110V180 9999NDV NCD 22/15 Q1016=
201308030720 METAR ESMX 030720Z AUTO 16008KT 130V190 9999NDV NCD 21/15 Q1016=
201308030650 METAR ESMX 030650Z AUTO 14007KT 090V170 9999NDV NCD 20/14 Q1016=
201308030620 METAR ESMX 030620Z AUTO 14006KT 110V170 9999NDV NCD 19/14 Q1016=
201308030550 METAR ESMX 030550Z AUTO 15006KT 110V170 9999NDV NCD 18/14 Q1016=
201308030520 METAR ESMX 030520Z AUTO 15006KT 120V180 9999NDV NCD 18/13 Q1016=
201308030450 METAR ESMX 030450Z AUTO 14005KT 100V160 9999NDV NCD 17/13 Q1016=
201308030420 METAR ESMX 030420Z AUTO 14004KT 080V170 9999NDV NCD 16/13 Q1016=
201308030350 METAR ESMX 030350Z AUTO 16005KT 9999NDV NCD 16/13 Q1017=
201308030320 METAR ESMX 030320Z AUTO 14005KT 9999NDV NCD 16/13 Q1017=
201308030250 METAR ESMX 030250Z AUTO 15004KT 120V180 9999NDV NCD 16/13 Q1017=
201308030220 METAR ESMX 030220Z AUTO 15006KT 9999NDV NCD 16/13 Q1017=
201308030150 METAR ESMX 030150Z AUTO 15005KT 9999NDV NCD 16/14 Q1017=
201308030120 METAR ESMX 030120Z AUTO 14006KT 9999NDV NCD 16/14 Q1017=
201308030050 METAR ESMX 030050Z AUTO 16005KT 9999NDV NCD 17/14 Q1017=
201308030020 METAR ESMX 030020Z AUTO 15005KT 100V160 9999NDV NCD 17/14 Q1017=
201308022350 METAR ESMX 022350Z AUTO 14006KT 9999NDV NCD 17/14 Q1017=
201308022320 METAR ESMX 022320Z AUTO 15005KT 9999NDV NCD 17/15 Q1017=
201308022250 METAR ESMX 022250Z AUTO 15004KT 110V180 9999NDV NCD 18/15 Q1018=
201308022220 METAR ESMX 022220Z AUTO 15004KT 9999NDV NCD 18/15 Q1018=
201308022150 METAR ESMX 022150Z AUTO 16005KT 9999NDV NCD 19/15 Q1018=
201308022120 METAR ESMX 022120Z AUTO 17006KT 9999NDV NCD 19/15 Q1017=
201308022050 METAR ESMX 022050Z AUTO 17005KT 9999NDV NCD 20/16 Q1017=
201308022020 METAR ESMX 022020Z AUTO 16006KT 9999NDV NCD 20/15 Q1017=
201308021950 METAR ESMX 021950Z AUTO 18004KT 9999NDV NCD 21/15 Q1017=
201308021920 METAR ESMX 021920Z AUTO 17005KT 9999NDV NCD 22/16 Q1017=
201308021850 METAR ESMX 021850Z AUTO 16006KT 9999NDV NCD 23/16 Q1017=
201308021820 METAR ESMX 021820Z AUTO 17004KT 9999NDV NCD 24/16 Q1017=
201308021750 METAR ESMX 021750Z AUTO 17005KT 130V200 9999NDV NCD 25/16 Q1017=
201308021720 METAR ESMX 021720Z AUTO 15006KT 9999NDV NCD 25/15 Q1016=
201308021650 METAR ESMX 021650Z AUTO 17004KT 120V200 9999NDV NCD 25/15 Q1016=
201308021620 METAR ESMX 021620Z AUTO 15005KT 110V190 9999NDV NCD 25/15 Q1016=
201308021550 METAR ESMX 021550Z AUTO 17005KT 140V200 9999NDV NCD 25/15 Q1016=
201308021520 METAR ESMX 021520Z AUTO 20005KT 160V250 9999NDV FEW038/// 25/15 Q1017=
201308021450 METAR ESMX 021450Z AUTO 16004KT 100V240 9999NDV FEW038/// 25/15 Q1017=
201308021420 METAR ESMX 021420Z 15005KT 110V190 9999 FEW037 25/15 Q1017=
201308021350 METAR ESMX 021350Z 17006KT 130V200 9999 SCT036 24/15 Q1017=
201308021320 METAR ESMX 021320Z 16004KT 110V210 9999 SCT035 24/14 Q1017=
201308021250 METAR ESMX 021250Z 12004KT 030V210 9999 SCT035 23/15 Q1017=
201308021220 METAR ESMX 021220Z 19005KT 150V220 9999 SCT034 25/14 Q1017=
201308021150 METAR ESMX 021150Z 23004KT 190V270 9999 FEW034 23/15 Q1017=
201308021120 METAR ESMX 021120Z 28005KT 180V330 9999 SCT034 23/14 Q1018=
201308021050 METAR ESMX 021050Z VRB04KT 9999 FEW035 22/14 Q1018=
201308020950 METAR ESMX 020950Z VRB02KT CAVOK 23/13 Q1018=
201308020920 METAR ESMX 020920Z VRB02KT CAVOK 22/13 Q1018=
201308020850 METAR ESMX 020850Z 05003KT 340V100 9999 FEW033 21/13 Q1018=
201308020820 METAR ESMX 020820Z VRB01KT 9999 BKN033 20/12 Q1018=
201308020750 METAR ESMX 020750Z 00000KT 9999 BKN033 19/11 Q1018=
201308020720 METAR ESMX 020720Z VRB01KT 9999 BKN032 18/12 Q1018=
201308020650 METAR ESMX 020650Z AUTO 00000KT 9999NDV OVC032/// 18/13 Q1018=
201308020620 METAR ESMX 020620Z AUTO 35003KT 9999NDV OVC032/// 17/14 Q1018=
201308020550 METAR ESMX 020550Z AUTO VRB01KT 9999NDV OVC033/// 17/14 Q1018=
201308020520 METAR ESMX 020520Z AUTO VRB02KT 9999NDV OVC035/// 16/14 Q1017=
201308020450 METAR ESMX 020450Z AUTO 00000KT 9999NDV OVC035/// 15/14 Q1017=
201308020420 METAR ESMX 020420Z AUTO 00000KT 9999NDV OVC036/// 13/12 Q1017=
201308020350 METAR ESMX 020350Z AUTO 00000KT 9999NDV FEW027/// OVC037/// 11/10 Q1017=
201308020320 METAR ESMX 020320Z AUTO 00000KT 9999NDV BKN028/// 10/09 Q1017=
201308020250 METAR ESMX 020250Z AUTO 20001KT 9999NDV FEW034/// 09/09 Q1017=
201308020220 METAR ESMX 020220Z AUTO 19001KT 9999NDV NCD 10/09 Q1017=
201308020150 METAR ESMX 020150Z AUTO 19003KT 9999NDV NCD 09/08 Q1017=
201308020120 METAR ESMX 020120Z AUTO 00000KT 9999NDV NCD 09/08 Q1017=
201308020050 METAR ESMX 020050Z AUTO 27001KT 9999NDV NCD 10/09 Q1017=
201308020020 METAR ESMX 020020Z 25001KT CAVOK 11/10 Q1017=
201308012350 METAR ESMX 012350Z 29001KT CAVOK 11/10 Q1017=
201308012320 METAR ESMX 012320Z 25001KT CAVOK 11/10 Q1017=
201308012250 METAR ESMX 012250Z 26003KT CAVOK 12/10 Q1017=
201308012220 METAR ESMX 012220Z 00000KT CAVOK 12/10 Q1016=
201308012150 METAR ESMX 012150Z VRB01KT CAVOK 13/11 Q1016=
201308012120 METAR ESMX 012120Z VRB02KT CAVOK 14/11 Q1016=
201308012050 METAR ESMX 012050Z 25005KT CAVOK 14/11 Q1016=
201308012020 METAR ESMX 012020Z 25005KT CAVOK 15/11 Q1016=
201308011950 METAR ESMX 011950Z 25004KT CAVOK 16/11 Q1016=
201308011920 METAR ESMX 011920Z 24004KT CAVOK 16/10 Q1016=
201308011850 METAR ESMX 011850Z AUTO 25004KT 9999NDV NCD 17/10 Q1015=
201308011820 METAR ESMX 011820Z AUTO 26005KT 9999NDV NCD 18/10 Q1015=
201308011750 METAR ESMX 011750Z AUTO 24008KT 220V290 9999NDV NCD 19/10 Q1015=
201308011720 METAR ESMX 011720Z AUTO 25008KT 9999NDV NCD 20/11 Q1015=
201308011650 METAR ESMX 011650Z AUTO 26009KT 9999NDV FEW042/// 20/11 Q1015=
201308011620 METAR ESMX 011620Z AUTO 26010KT 9999NDV FEW042/// 20/11 Q1015=
201308011550 METAR ESMX 011550Z AUTO 26010KT 9999NDV FEW046/// 21/11 Q1015=
201308011520 METAR ESMX 011520Z AUTO 24008KT 9999NDV FEW046/// 21/10 Q1015=
201308011450 METAR ESMX 011450Z AUTO 27008KT 220V300 9999NDV SCT045/// BKN055/// 22/10 Q1015=
201308011420 METAR ESMX 011420Z AUTO 25008KT 9999NDV FEW045/// BKN058/// 21/11 Q1015=
201308011350 METAR ESMX 011350Z AUTO 27008KT 220V300 9999NDV BKN051/// 22/11 Q1015=
201308011320 METAR ESMX 011320Z AUTO 26009KT 230V290 9999NDV FEW059/// 21/11 Q1015=
201308011250 METAR ESMX 011250Z AUTO 24008KT 9999NDV FEW047/// 21/10 Q1014=
201308011220 METAR ESMX 011220Z AUTO 27009KT 240V310 9999NDV SCT045/// BKN054/// 21/10 Q1014=
