##########################################################
# Query made at 04/19/2024 21:37:11 UTC
# Time interval: from 12/01/2013 12:00  to 12/31/2013 12:59  UTC
##########################################################

##########################################################
# ESMX, Vaxjo (Sweden)
# WMO index: 02641. WIGOS ID: 0-20000-0-02648
# Latitude 56-51N. Longitude 014-50E. Altitude 199 m.
##########################################################

201312311250 METAR ESMX 311250Z AUTO 18009KT 9999 FEW008/// SCT009/// BKN030/// 04/02 Q1017=
201312311220 METAR ESMX 311220Z AUTO 18012KT 9999 OVC008/// 04/02 Q1017=
201312311150 METAR ESMX 311150Z AUTO 17010KT 9999 BKN007/// BKN011/// 04/02 Q1017=
201312311120 METAR ESMX 311120Z AUTO 19011KT 9999 OVC006/// 04/02 Q1017=
201312311050 METAR ESMX 311050Z AUTO 19010KT 9999 OVC006/// 04/02 Q1017=
201312311020 METAR ESMX 311020Z AUTO 19010KT 9999 OVC005/// 03/02 Q1017=
201312310950 METAR ESMX 310950Z AUTO 18011KT 9999 OVC005/// 03/02 Q1017=
201312310920 METAR ESMX 310920Z AUTO 18010KT 9999 OVC005/// 03/02 Q1017=
201312310850 METAR ESMX 310850Z AUTO 19010KT 9999 OVC005/// 03/02 Q1017=
201312310820 METAR ESMX 310820Z AUTO 18010KT 9999 OVC004/// 03/02 Q1017=
201312310750 METAR ESMX 310750Z AUTO 19010KT 9999 OVC004/// 02/01 Q1017=
201312310720 METAR ESMX 310720Z AUTO 18010KT 9999 OVC005/// 02/01 Q1017=
201312310650 METAR ESMX 310650Z AUTO 17010KT 9999 OVC005/// 02/01 Q1016=
201312310620 METAR ESMX 310620Z 18010KT 9999 -DZ FEW005 OVC007 02/01 Q1016=
201312310550 METAR ESMX 310550Z 17010KT 9999 -DZ OVC006 02/01 Q1016=
201312310520 METAR ESMX 310520Z 18010KT 9000 -DZ BKN010 02/01 Q1016=
201312310450 METAR ESMX 310450Z AUTO 19011KT 4100 RA OVC011/// 02/00 Q1016 REDZ=
201312310420 METAR ESMX 310420Z AUTO 17010KT 9999 FEW014/// SCT016/// OVC024/// 02/00 Q1016=
201312310350 METAR ESMX 310350Z AUTO 18011KT 9999 FEW014/// SCT023/// 02/00 Q1016=
201312310320 METAR ESMX 310320Z AUTO 17011KT 9999 FEW014/// 02/M00 Q1016=
201312310250 METAR ESMX 310250Z AUTO 17010KT 9999 FEW014/// SCT092/// 02/M00 Q1017=
201312310220 METAR ESMX 310220Z AUTO 17010KT 9999 NCD 02/00 Q1017=
201312310150 METAR ESMX 310150Z AUTO 17010KT 9999 FEW010/// 02/00 Q1017=
201312310120 METAR ESMX 310120Z AUTO 16010KT 9999 FEW007/// SCT009/// 02/00 Q1017=
201312310050 METAR ESMX 310050Z AUTO 16011KT 9999 NCD 01/00 Q1017=
201312310020 METAR ESMX 310020Z AUTO 16008KT 9999 NCD 02/00 Q1017=
201312302350 METAR ESMX 302350Z AUTO 16009KT 9999 NCD 02/M00 Q1017=
201312302320 METAR ESMX 302320Z 16009KT CAVOK 02/00 Q1018=
201312302250 METAR ESMX 302250Z 16009KT CAVOK 02/00 Q1018=
201312302220 METAR ESMX 302220Z 17010KT 9999 FEW009 02/01 Q1018=
201312302150 METAR ESMX 302150Z AUTO 17009KT 9999 FEW010/// BKN012/// 02/01 Q1018=
201312302120 METAR ESMX 302120Z AUTO 17009KT 9999 BKN011/// BKN014/// 02/01 Q1018=
201312302050 METAR ESMX 302050Z AUTO 18011KT 9999 BKN010/// 03/01 Q1019=
201312302020 METAR ESMX 302020Z AUTO 17011KT 9999 FEW009/// OVC011/// 02/01 Q1019=
201312301950 METAR ESMX 301950Z AUTO 18012KT 9999 FEW008/// OVC010/// 02/01 Q1019=
201312301920 METAR ESMX 301920Z AUTO 17012KT 9999 BKN008/// OVC011/// 02/01 Q1019=
201312301850 METAR ESMX 301850Z AUTO 17011KT 9999 OVC006/// 02/01 Q1019=
201312301820 METAR ESMX 301820Z AUTO 16007KT 9999 SCT008/// BKN010/// 02/01 Q1019=
201312301750 METAR ESMX 301750Z AUTO 17009KT 9999 OVC008/// 02/01 Q1019=
201312301720 METAR ESMX 301720Z 18008KT 9999 OVC009 02/01 Q1019=
201312301650 METAR ESMX 301650Z 18009KT 9999 BKN009 02/01 Q1019=
201312301620 METAR ESMX 301620Z 18010KT 9999 BKN010 02/01 Q1019=
201312301550 METAR ESMX 301550Z 17008KT CAVOK 02/00 Q1019=
201312301520 METAR ESMX 301520Z 18006KT CAVOK 02/01 Q1019=
201312301450 METAR ESMX 301450Z 19007KT CAVOK 02/01 Q1019=
201312301420 METAR ESMX 301420Z 20009KT 9999 FEW015 03/01 Q1019=
201312301350 METAR ESMX 301350Z 21009KT 9999 FEW014 04/02 Q1019=
201312301320 METAR ESMX 301320Z 22009KT 9999 FEW012 SCT017 SCT037 04/02 Q1019=
201312301250 METAR ESMX 301250Z 23009KT 9999 SCT011 BKN021 BKN038 05/03 Q1019=
201312301220 METAR ESMX 301220Z 22010KT 9999 BKN010 BKN016 05/02 Q1019=
201312301150 METAR ESMX 301150Z AUTO 22010KT 7000 FEW012/// SCT019/// BKN033/// 05/03 Q1018=
201312301120 METAR ESMX 301120Z AUTO 22010KT 9999 FEW012/// BKN015/// 05/03 Q1018=
201312301050 METAR ESMX 301050Z AUTO 24010KT 9999 FEW009/// SCT012/// BKN015/// 05/03 Q1018 REDZ=
201312301020 METAR ESMX 301020Z AUTO 24008KT 200V260 6000 DZ FEW006/// SCT011/// BKN016/// 05/03 Q1018=
201312300950 METAR ESMX 300950Z AUTO 22007KT 7000 DZ FEW008/// SCT013/// BKN017/// 04/03 Q1018 REDZ=
201312300920 METAR ESMX 300920Z AUTO 23010KT 200V260 9999 FEW008/// BKN010/// BKN015/// 05/03 Q1017=
201312300850 METAR ESMX 300850Z AUTO 22008KT 9999 BKN010/// OVC016/// 04/03 Q1017=
201312300820 METAR ESMX 300820Z AUTO 23007KT 9999 FEW011/// BKN015/// 04/02 Q1017=
201312300750 METAR ESMX 300750Z AUTO 24007KT 9999 FEW011/// BKN015/// BKN023/// 04/02 Q1016=
201312300720 METAR ESMX 300720Z AUTO 23009KT 9999 FEW012/// SCT015/// BKN017/// 04/02 Q1016=
201312300650 METAR ESMX 300650Z AUTO 23008KT 9999 FEW016/// BKN021/// 04/02 Q1016=
201312300620 METAR ESMX 300620Z AUTO 24008KT 9999 FEW013/// BKN020/// 04/02 Q1015=
201312300550 METAR ESMX 300550Z AUTO 24009KT 9999 FEW008/// BKN012/// BKN033/// 04/02 Q1015=
201312300520 METAR ESMX 300520Z AUTO 24009KT 9999 FEW008/// OVC010/// 04/03 Q1014 REDZ=
201312300450 METAR ESMX 300450Z AUTO 24008KT 9999 FEW008/// BKN010/// OVC016/// 04/03 Q1014=
201312300420 METAR ESMX 300420Z AUTO 23007KT 9999 FEW009/// SCT012/// BKN015/// 04/03 Q1013=
201312300350 METAR ESMX 300350Z AUTO 23006KT 9999 FEW011/// SCT015/// BKN018/// 04/03 Q1013=
201312300320 METAR ESMX 300320Z AUTO 23010KT 210V280 9999 -RA FEW009/// SCT014/// BKN022/// 04/03 Q1013 REDZ=
201312300250 METAR ESMX 300250Z AUTO 21008KT 9999 FEW009/// SCT026/// OVC040/// 04/03 Q1013=
201312300220 METAR ESMX 300220Z AUTO 24010KT 9999 FEW008/// SCT013/// BKN018/// 04/03 Q1013 REDZ=
201312300150 METAR ESMX 300150Z AUTO 23008KT 9999 FEW012/// SCT019/// BKN026/// 04/03 Q1012=
201312300120 METAR ESMX 300120Z AUTO 25008KT 9999 FEW009/// SCT011/// BKN014/// 04/03 Q1012=
201312300050 METAR ESMX 300050Z AUTO 25010KT 9999 FEW009/// SCT012/// BKN015/// 05/03 Q1011=
201312300020 METAR ESMX 300020Z 23008KT 210V270 9999 FEW008 SCT011 BKN014 05/03 Q1011=
201312292350 METAR ESMX 292350Z 23008KT 9999 FEW007 BKN010 OVC018 04/03 Q1010=
201312292320 METAR ESMX 292320Z 22008KT 9999 FEW006 SCT009 BKN014 04/03 Q1010=
201312292250 METAR ESMX 292250Z AUTO 21009KT 9999 FEW005/// SCT006/// BKN007/// 04/03 Q1010 REDZ=
201312292220 METAR ESMX 292220Z 21009KT 9999 FEW005 BKN006 OVC008 04/03 Q1009=
201312292150 METAR ESMX 292150Z AUTO 21011KT 9999 FEW005/// BKN006/// OVC009/// 04/03 Q1009=
201312292120 METAR ESMX 292120Z 22014KT 9999 -RA FEW006 SCT008 BKN009 04/03 Q1008 REDZ=
201312292050 METAR ESMX 292050Z 23012KT 9999 FEW006 BKN008 OVC010 04/03 Q1008=
201312292020 METAR ESMX 292020Z 22013KT 7000 -DZ BKN006 OVC009 04/03 Q1008 REDZ=
201312291950 METAR ESMX 291950Z 22011KT 9999 OVC005 04/03 Q1008=
201312291920 METAR ESMX 291920Z 22011KT 8000 BR OVC006 04/03 Q1007=
201312291850 METAR ESMX 291850Z 20011KT 4900 -DZ FEW006 BKN008 OVC012 04/03 Q1007=
201312291820 METAR ESMX 291820Z 22010KT 6000 DZ FEW009 OVC010 04/03 Q1007=
201312291750 METAR ESMX 291750Z 21012KT 9999 OVC010 04/02 Q1007=
201312291720 METAR ESMX 291720Z AUTO 20012KT 9999 OVC011/// 04/02 Q1006=
201312291650 METAR ESMX 291650Z 20012KT 9999 FEW012 BKN016 OVC021 04/02 Q1006=
201312291620 METAR ESMX 291620Z 20012KT 9999 OVC013 04/02 Q1006=
201312291550 METAR ESMX 291550Z 21012KT 9999 BKN020 04/02 Q1006=
201312291520 METAR ESMX 291520Z 21009KT 9999 SCT013 BKN018 BKN042 04/02 Q1006=
201312291450 METAR COR ESMX 291450Z 19011KT 9999 FEW013 SCT016 BKN033 04/02 Q1005=
201312291420 METAR ESMX 291420Z AUTO 22010KT 9999 FEW014/// SCT021/// OVC029/// 04/02 Q1005=
201312291350 METAR ESMX 291350Z AUTO 20010KT 9999 FEW013/// SCT020/// BKN032/// 04/02 Q1005=
201312291320 METAR ESMX 291320Z AUTO 21009KT 9999 FEW013/// BKN032/// 04/02 Q1005=
201312291250 METAR ESMX 291250Z AUTO 21009KT 9999 FEW013/// SCT020/// BKN028/// 04/02 Q1004=
201312291220 METAR ESMX 291220Z AUTO 22008KT 180V250 9999 FEW015/// SCT019/// OVC021/// 04/02 Q1004=
201312291150 METAR ESMX 291150Z AUTO 22008KT 9999 FEW012/// SCT018/// OVC020/// 04/02 Q1004=
201312291120 METAR ESMX 291120Z AUTO 23008KT 200V260 9999 FEW012/// BKN015/// OVC019/// 04/02 Q1004=
201312291050 METAR ESMX 291050Z AUTO 20010KT 9999 FEW010/// OVC013/// 04/02 Q1004=
201312291020 METAR ESMX 291020Z AUTO 23010KT 9999 FEW009/// SCT013/// OVC016/// 04/02 Q1004=
201312290950 METAR ESMX 290950Z AUTO 22009KT 9999 FEW008/// SCT010/// OVC013/// 04/02 Q1004=
201312290920 METAR ESMX 290920Z AUTO 20011KT 9999 FEW009/// OVC010/// 04/02 Q1004=
201312290850 METAR ESMX 290850Z AUTO 20009KT 9999 FEW007/// BKN012/// OVC017/// 04/03 Q1004=
201312290820 METAR ESMX 290820Z AUTO 20007KT 9999 FEW007/// SCT009/// BKN014/// 04/03 Q1004=
201312290750 METAR ESMX 290750Z AUTO 20008KT 9000 BR FEW006/// SCT014/// BKN018/// 04/02 Q1004=
201312290720 METAR ESMX 290720Z AUTO 21009KT 9000 SCT005/// BKN008/// OVC016/// 04/03 Q1003=
201312290650 METAR ESMX 290650Z 20009KT 6000 BR FEW004 BKN005 OVC008 04/03 Q1003=
201312290620 METAR ESMX 290620Z 19010KT 9999 SCT005 BKN008 OVC014 04/03 Q1003=
201312290550 METAR ESMX 290550Z 19010KT 9999 OVC005 04/03 Q1003=
201312290520 METAR ESMX 290520Z AUTO 18009KT 9000 BR FEW004/// BKN006/// OVC008/// 03/03 Q1003=
201312290450 METAR ESMX 290450Z AUTO 18007KT 7000 BR BKN004/// OVC007/// 03/03 Q1002=
201312290420 METAR ESMX 290420Z AUTO 19009KT 9000 BR OVC005/// 03/02 Q1002=
201312290350 METAR ESMX 290350Z AUTO 20008KT 9999 FEW005/// SCT007/// BKN008/// 03/02 Q1002=
201312290320 METAR ESMX 290320Z AUTO 19007KT 9999 OVC006/// 03/02 Q1002=
201312290250 METAR ESMX 290250Z AUTO 18006KT 9999 FEW007/// SCT009/// BKN012/// 03/02 Q1002=
201312290220 METAR ESMX 290220Z AUTO 19005KT 9999 FEW006/// SCT008/// BKN010/// 03/02 Q1002=
201312290150 METAR ESMX 290150Z AUTO 20007KT 9999 OVC005/// 03/02 Q1002=
201312290120 METAR ESMX 290120Z AUTO 23006KT 9999 OVC004/// 03/02 Q1002=
201312290050 METAR ESMX 290050Z AUTO 22009KT 9999 OVC005/// 03/02 Q1001=
201312290020 METAR ESMX 290020Z AUTO 21010KT 9999 FEW006/// BKN007/// 04/02 Q1001=
201312282350 METAR ESMX 282350Z AUTO 19008KT 9999 FEW010/// BKN025/// 03/02 Q1001=
201312282320 METAR ESMX 282320Z AUTO 17008KT 9999 BKN022/// 03/02 Q1002=
201312282250 METAR ESMX 282250Z AUTO 20009KT 9999 FEW018/// SCT021/// 04/02 Q1001=
201312282220 METAR ESMX 282220Z AUTO 18008KT 9999 OVC018/// 04/03 Q1001=
201312282150 METAR ESMX 282150Z AUTO 16006KT 9999 FEW019/// SCT021/// 04/03 Q1000=
201312282120 METAR ESMX 282120Z 21007KT 9999 FEW009 BKN022 04/03 Q1000=
201312282050 METAR COR ESMX 282050Z 19008KT 9999 FEW016/// OVC020/// 04/03 Q1000=
201312282020 METAR ESMX 282020Z 18007KT 9999 BKN020 04/03 Q1000=
201312281950 METAR ESMX 281950Z 19007KT 9999 FEW020 BKN023 04/03 Q0999=
201312281920 METAR ESMX 281920Z 19010KT 9999 FEW006 BKN025 04/03 Q0999=
201312281850 METAR ESMX 281850Z AUTO 21008KT 9999 FEW007/// SCT012/// BKN027/// 04/03 Q0999=
201312281820 METAR ESMX 281820Z AUTO 20008KT 9999 FEW006/// SCT013/// BKN016/// 04/03 Q0998=
201312281750 METAR ESMX 281750Z AUTO 19007KT 9999 FEW007/// SCT009/// BKN011/// 04/03 Q0998=
201312281720 METAR ESMX 281720Z AUTO 21006KT 9999 FEW012/// BKN017/// 04/03 Q0998=
201312281650 METAR ESMX 281650Z AUTO 21008KT 9999 FEW008/// SCT018/// BKN021/// 05/04 Q0997=
201312281620 METAR ESMX 281620Z AUTO 20008KT 9999 FEW003/// SCT005/// BKN015/// 05/04 Q0997=
201312281550 METAR ESMX 281550Z AUTO 19008KT 9999 BKN003/// BKN006/// 05/04 Q0997=
201312281520 METAR ESMX 281520Z AUTO 19008KT 9999 FEW003/// OVC005/// 05/04 Q0997=
201312281450 METAR ESMX 281450Z AUTO 19007KT 9999 FEW003/// OVC004/// 05/04 Q0996=
201312281420 METAR ESMX 281420Z 20005KT 9999 -RA FEW003 OVC004 05/04 Q0996=
201312281350 METAR ESMX 281350Z 20007KT 9999 -RA OVC003 05/04 Q0996=
201312281320 METAR ESMX 281320Z AUTO 21006KT 9999 DZ FEW003/// OVC004/// 05/04 Q0996=
201312281250 METAR ESMX 281250Z AUTO 21008KT 9999 RA OVC003/// 05/04 Q0996 REDZ=
201312281220 METAR ESMX 281220Z AUTO 18007KT 9999 -DZ BKN004/// BKN006/// 05/04 Q0995=
201312281150 METAR ESMX 281150Z AUTO 17007KT 9999 -RA FEW003/// BKN005/// 05/04 Q0995=
201312281120 METAR ESMX 281120Z AUTO 15007KT 9999 -RA FEW003/// SCT004/// OVC006/// 05/04 Q0995=
201312281050 METAR ESMX 281050Z AUTO 17008KT 8000 RA FEW003/// BKN005/// BKN007/// 05/04 Q0996=
201312281020 METAR ESMX 281020Z AUTO 16008KT 4300 RA FEW003/// BKN005/// BKN011/// 05/04 Q0995=
201312280950 METAR ESMX 280950Z AUTO 16008KT 8000 -RA FEW002/// SCT004/// OVC006/// 05/04 Q0996=
201312280920 METAR ESMX 280920Z AUTO 15007KT 4900 -RA FEW003/// BKN005/// OVC008/// 05/04 Q0996=
201312280850 METAR ESMX 280850Z AUTO 15007KT 4100 -RA FEW004/// BKN007/// 05/04 Q0996 REDZ=
201312280820 METAR ESMX 280820Z AUTO 15006KT 9999 -RA FEW006/// BKN008/// 05/04 Q0995=
201312280750 METAR ESMX 280750Z AUTO 16009KT 5000 -RA FEW006/// SCT010/// 05/04 Q0995=
201312280720 METAR ESMX 280720Z AUTO 16009KT 8000 -RA FEW006/// SCT010/// BKN012/// 05/04 Q0995=
201312280650 METAR ESMX 280650Z AUTO 17008KT 9999 -RA FEW006/// BKN008/// OVC010/// 05/04 Q0995=
201312280620 METAR ESMX 280620Z AUTO 17008KT 9999 OVC005/// 05/04 Q0995=
201312280550 METAR ESMX 280550Z AUTO 17010KT 9999 OVC005/// 05/04 Q0995=
201312280520 METAR ESMX 280520Z AUTO 17011KT 9999 OVC005/// 05/04 Q0995=
201312280450 METAR ESMX 280450Z AUTO 17012KT 9999 OVC005/// 05/04 Q0995=
201312280420 METAR ESMX 280420Z AUTO 17011KT 9999 OVC003/// 05/04 Q0996=
201312280350 METAR ESMX 280350Z AUTO 18012KT 9999 OVC003/// 05/04 Q0996=
201312280320 METAR ESMX 280320Z AUTO 17014KT 9999 OVC003/// 05/04 Q0995=
201312280250 METAR ESMX 280250Z AUTO 17011KT 9999 OVC003/// 05/04 Q0995=
201312280220 METAR ESMX 280220Z AUTO 17014KT 9999 OVC004/// 05/04 Q0995=
201312280150 METAR ESMX 280150Z AUTO 17012KT 9999 OVC004/// 05/04 Q0995=
201312280120 METAR ESMX 280120Z AUTO 16013KT 9999 OVC005/// 05/04 Q0995=
201312280050 METAR ESMX 280050Z AUTO 17012KT 9999 BKN005/// BKN010/// 05/04 Q0995=
201312280020 METAR ESMX 280020Z AUTO 16012KT 9999 -DZ BKN005/// OVC009/// 05/04 Q0994 RERA=
201312272350 METAR ESMX 272350Z AUTO 16013KT 9999 BKN005/// OVC009/// 05/04 Q0995 REDZ=
201312272320 METAR ESMX 272320Z AUTO 17012KT 9999 BKN006/// OVC009/// 05/03 Q0995=
201312272250 METAR ESMX 272250Z AUTO 16011KT 9999 BKN005/// OVC008/// 04/03 Q0994=
201312272220 METAR ESMX 272220Z AUTO 17014KT 6000 DZ BKN005/// OVC008/// 04/03 Q0995=
201312272150 METAR ESMX 272150Z AUTO 17014KT 9999 -RA OVC005/// 04/03 Q0994=
201312272120 METAR ESMX 272120Z AUTO 17015KT 8000 -RA FEW005/// BKN007/// OVC009/// 04/03 Q0995=
201312272050 METAR ESMX 272050Z AUTO 17013KT 7000 -RA FEW006/// SCT008/// BKN009/// 04/03 Q0994=
201312272020 METAR ESMX 272020Z AUTO 17015KT 5000 -RA FEW006/// BKN008/// OVC010/// 04/03 Q0994 REDZ=
201312271950 METAR ESMX 271950Z AUTO 17014KT 9999 DZ FEW007/// SCT009/// OVC010/// 04/03 Q0994=
201312271920 METAR ESMX 271920Z AUTO 17014KT 7000 -RA FEW007/// SCT008/// OVC010/// 04/03 Q0994=
201312271850 METAR ESMX 271850Z AUTO 17016KT 8000 -RA FEW008/// SCT009/// BKN011/// 04/03 Q0994=
201312271820 METAR ESMX 271820Z AUTO 17015KT 9000 -RA FEW009/// BKN010/// OVC014/// 04/03 Q0994=
201312271750 METAR ESMX 271750Z 17016KT 8000 RA OVC010 04/03 Q0994=
201312271720 METAR ESMX 271720Z 17016KT 9999 -DZ OVC013 05/02 Q0994=
201312271650 METAR ESMX 271650Z 16014KT 9999 BKN013 OVC020 05/02 Q0994=
201312271620 METAR ESMX 271620Z 17017KT 9999 BKN011 04/02 Q0995=
201312271550 METAR ESMX 271550Z 16012KT 9999 FEW011 SCT014 04/02 Q0994=
201312271520 METAR ESMX 271520Z 15012KT 9999 FEW014 SCT017 04/02 Q0995=
201312271450 METAR ESMX 271450Z 15011KT 9999 FEW011 04/01 Q0996=
201312271420 METAR ESMX 271420Z 16013KT 9999 SCT012 BKN089 04/01 Q0996=
201312271350 METAR ESMX 271350Z 16012KT 9999 BKN011 04/02 Q0996=
201312271320 METAR ESMX 271320Z 16012KT 9999 BKN013 04/02 Q0996=
201312271250 METAR ESMX 271250Z 17009KT 9999 FEW009 SCT012 BKN015 04/02 Q0996=
201312271220 METAR ESMX 271220Z 16009KT 9999 FEW011 SCT016 BKN018 04/02 Q0996=
201312271150 METAR ESMX 271150Z 17009KT 9999 FEW014 BKN022 04/03 Q0997=
201312271120 METAR ESMX 271120Z 17010KT 9999 SCT006 BKN012 04/02 Q0997=
201312271050 METAR ESMX 271050Z 18010KT 9999 SCT004 BKN008 OVC010 03/03 Q0997=
201312271020 METAR ESMX 271020Z 20012KT 9999 OVC003 03/03 Q0998=
201312270950 METAR ESMX 270950Z 20008KT 9999 BKN003 OVC006 03/03 Q0998=
201312270920 METAR ESMX 270920Z 23010KT 9999 SCT003 BKN006 03/02 Q0998=
201312270850 METAR COR ESMX 270850Z 22010KT 9999 OVC002 03/02 Q0997=
201312270820 METAR ESMX 270820Z AUTO 21009KT 9999 OVC003/// 03/03 Q0997=
201312270750 METAR ESMX 270750Z AUTO 22008KT 9999 BKN002/// OVC004/// 03/03 Q0997=
201312270720 METAR ESMX 270720Z AUTO 22010KT 2800 OVC001/// 03/03 Q0997=
201312270650 METAR ESMX 270650Z AUTO 20010KT 0900 R01/P2000N R19/P2000N FG OVC001/// 03/03 Q0996 REDZ=
201312270620 METAR ESMX 270620Z AUTO 20008KT 1200 R01/P2000N R19/P2000N OVC001/// 03/03 Q0996=
201312270550 METAR ESMX 270550Z AUTO 18007KT 1500 DZ OVC001/// 03/03 Q0996=
201312270520 METAR ESMX 270520Z AUTO 19008KT 0650 R01/1200VP2000U R19/1300VP2000U -RA VV002 03/03 Q0997=
201312270450 METAR ESMX 270450Z AUTO 18005KT 0350 R01/0900V1000N R19/0900V1000N -RA VV001 03/03 Q0996=
201312270420 METAR ESMX 270420Z AUTO 17004KT 0450 R01/1100V1300N R19/1400V1600D FG VV001 03/02 Q0996=
201312270350 METAR ESMX 270350Z AUTO 00000KT 0450 R01/1200V1400N R19/1100V1400U -RA VV001 03/02 Q0997=
201312270320 METAR ESMX 270320Z AUTO VRB01KT 0500 R01/1300V1500N R19/1400V1900D FG VV001 03/02 Q0997=
201312270250 METAR ESMX 270250Z AUTO VRB02KT 2200 BR OVC001/// 03/02 Q0997=
201312270220 METAR ESMX 270220Z AUTO VRB03KT 9999 OVC001/// 03/02 Q0997=
201312270150 METAR ESMX 270150Z AUTO VRB03KT 9999 OVC002/// 03/02 Q0997=
201312270120 METAR ESMX 270120Z AUTO 04005KT 8000 -DZ OVC002/// 03/02 Q0997 REDZ=
201312270050 METAR ESMX 270050Z AUTO 01005KT 9999 DZ OVC002/// 03/02 Q0998=
201312270020 METAR ESMX 270020Z AUTO 03005KT 9999 OVC002/// 03/02 Q0998=
201312262350 METAR ESMX 262350Z 03005KT 9999 FEW002 SCT004 OVC005 02/02 Q0998=
201312262320 METAR ESMX 262320Z 01005KT 6000 -RA FEW002 OVC005 02/02 Q0998=
201312262250 METAR ESMX 262250Z 35005KT 5000 -RA BKN002 02/02 Q0999=
201312262220 METAR ESMX 262220Z 36005KT 3400 -RA FEW014 OVC017 02/02 Q0999=
201312262150 METAR ESMX 262150Z 01006KT 9000 -RA FEW002 SCT003 OVC020 02/02 Q0999 REDZ=
201312262120 METAR ESMX 262120Z AUTO 02005KT 7000 -RA SCT002/// BKN032/// BKN037/// 02/02 Q0999=
201312262050 METAR ESMX 262050Z 02006KT 8000 DZ BKN003 BKN007 02/02 Q0999 RESHUP=
201312262020 METAR ESMX 262020Z AUTO 36006KT 8000 BR OVC004/// 02/01 Q0999=
201312261950 METAR ESMX 261950Z 36006KT 9000 -DZ OVC004 02/01 Q1000=
201312261920 METAR ESMX 261920Z 03005KT 9999 BKN005 02/01 Q1000=
201312261850 METAR ESMX 261850Z 35003KT 9999 FEW006 OVC083 01/01 Q1000=
201312261820 METAR ESMX 261820Z AUTO 04003KT 9000 BR FEW092/// BKN100/// 01/01 Q1000=
201312261750 METAR ESMX 261750Z 03004KT 7000 BR FEW003 01/01 Q1000=
201312261720 METAR ESMX 261720Z VRB03KT 8000 BR SCT003 01/01 Q1000=
201312261650 METAR COR ESMX 261650Z 03004KT 6000 BR BKN002 01/00 Q1000=
201312261620 METAR ESMX 261620Z 05003KT 020V090 1500 R01/P2000N R19/P2000N BR VV003 01/00 Q1000=
201312261550 METAR COR ESMX 261550Z 01004KT 1200 R01/1300V1500N R19/P2000N BCFG VV003 01/00 Q1000=
201312261520 METAR ESMX 261520Z 01005KT 0400 R01/0900V1300U R19/1400V1700N FG VV002 01/00 Q1000=
201312261450 METAR ESMX 261450Z 01005KT 0250 R01/0350V0500N R19/0450V0600N FG VV002 00/M00 Q1000=
201312261420 METAR COR ESMX 261420Z 03003KT 0200 R01/0400N R19/0400N FG VV001 00/M00 Q1000=
201312261350 METAR COR ESMX 261350Z 02003KT 0200 R01/0450N R19/0450N FG VV001 01/00 Q1000=
201312261320 METAR ESMX 261320Z AUTO 01003KT 0250 R01/0550N R19/0500N FG VV001 01/00 Q1000=
201312261250 METAR ESMX 261250Z AUTO 03003KT 0250 R01/0600N R19/0600N FG VV001 01/00 Q1000=
201312261220 METAR ESMX 261220Z AUTO 01003KT 0150 R01/0400N R19/0350V0550U FG VV001 01/00 Q1000=
201312261150 METAR ESMX 261150Z AUTO VRB02KT 0200 R01/0450N R19/0375V0500N FG VV001 00/00 Q1000=
201312261120 METAR ESMX 261120Z AUTO VRB03KT 0200 R01/0450N R19/0450V0600N FG VV001 00/M00 Q1000=
201312261050 METAR ESMX 261050Z AUTO 02004KT 0100 R01/0300N R19/0350N FG VV000 00/M00 Q1000=
201312261020 METAR ESMX 261020Z AUTO 35004KT 0100 R01/0175V0275N R19/0300N FZFG VV000 M00/M00 Q1000=
201312260950 METAR ESMX 260950Z AUTO 00000KT 0100 R01/0375N R19/0250N FZFG VV001 M00/M01 Q1000=
201312260920 METAR ESMX 260920Z AUTO 00000KT 0300 R01/0500N R19/0650V0750N FZFG VV001 M01/M02 Q1000=
201312260850 METAR ESMX 260850Z AUTO VRB02KT 0250 R01/0600N R19/0500N FZFG VV000 M02/M02 Q1000=
201312260820 METAR ESMX 260820Z AUTO 00000KT 0100 R01/0250V0550N R19/0250V0325N BCFG VV000 M02/M02 Q0999=
201312260750 METAR ESMX 260750Z AUTO 00000KT 0200 R01/0400V0700N R19/0500N FZFG VV000 M02/M02 Q0999=
201312260720 METAR ESMX 260720Z AUTO 16002KT 0300 R01/0900V1800D R19/0800V0900U=
201312260650 METAR ESMX 260650Z AUTO 16004KT 0100 R01/0600N R19/0450N FG VV000 00/M00 Q0998=
201312260620 METAR ESMX 260620Z AUTO 16004KT 0150 R01/0600N R19/0550N FG VV000 00/00 Q0998=
201312260550 METAR ESMX 260550Z AUTO 15005KT 0600 R01/0700VP2000D R19/1200VP2000D FG NCD 00/M00 Q0998=
201312260520 METAR ESMX 260520Z AUTO 17003KT 2500 NCD M00/M01 Q0997=
201312260450 METAR ESMX 260450Z AUTO 20003KT 4900 BR NCD 00/M00 Q0997=
201312260420 METAR ESMX 260420Z AUTO 20005KT 7000 BR NCD 01/01 Q0997=
201312260350 METAR ESMX 260350Z AUTO 18005KT 3800 NCD 02/01 Q0997=
201312260320 METAR ESMX 260320Z AUTO 19004KT 2100 NCD 01/00 Q0997=
201312260250 METAR ESMX 260250Z AUTO 18005KT 9999 NCD 03/02 Q0997=
201312260220 METAR ESMX 260220Z AUTO 18005KT 9999 NCD 02/01 Q0996=
201312260150 METAR ESMX 260150Z AUTO 18005KT 9999 NCD 03/02 Q0996=
201312260120 METAR ESMX 260120Z AUTO 17005KT 9999 NCD 04/02 Q0996=
201312260050 METAR ESMX 260050Z AUTO 20005KT 9999 FEW016/// 03/02 Q0995=
201312260020 METAR ESMX 260020Z AUTO 20006KT 9999 NCD 04/02 Q0995=
201312252350 METAR ESMX 252350Z AUTO 18007KT 9999 SCT014/// 04/03 Q0995=
201312252320 METAR ESMX 252320Z AUTO 18007KT 9999 BKN016/// 04/03 Q0994=
201312252250 METAR ESMX 252250Z AUTO 19006KT 9999 BKN018/// 04/03 Q0994=
201312252220 METAR ESMX 252220Z AUTO 19006KT 9999 NCD 04/03 Q0994=
201312252150 METAR ESMX 252150Z AUTO 19006KT 9999 NCD 03/02 Q0994=
201312252120 METAR ESMX 252120Z AUTO 19006KT 9999 NCD 03/02 Q0993=
201312252050 METAR ESMX 252050Z AUTO 21006KT 9999 NCD 04/03 Q0993=
201312252020 METAR ESMX 252020Z AUTO 20006KT 9999 NCD 04/03 Q0992=
201312251950 METAR ESMX 251950Z AUTO 20008KT 9999 FEW025/// 05/03 Q0992=
201312251920 METAR ESMX 251920Z AUTO 21009KT 9999 NCD 05/03 Q0992=
201312251850 METAR ESMX 251850Z 19009KT 9999 SCT028 05/03 Q0991=
201312251820 METAR ESMX 251820Z 19010KT 9999 FEW021 SCT032 05/04 Q0991=
201312251750 METAR ESMX 251750Z 18008KT 9999 FEW022 SCT100 06/04 Q0990=
201312251720 METAR ESMX 251720Z 17008KT 9999 FEW024 SCT034 BKN110 06/04 Q0990=
201312251650 METAR ESMX 251650Z 18008KT 9999 BKN035 07/05 Q0989=
201312251620 METAR ESMX 251620Z AUTO 18008KT 9999 FEW022/// BKN037/// 07/05 Q0989=
201312251550 METAR ESMX 251550Z AUTO 18007KT 9999 FEW017/// SCT020/// BKN034/// 07/05 Q0989=
201312251520 METAR ESMX 251520Z AUTO 16006KT 9999 FEW019/// SCT022/// OVC030/// 07/05 Q0988=
201312251450 METAR ESMX 251450Z AUTO 17008KT 9999 FEW022/// OVC027/// 07/05 Q0988=
201312251420 METAR ESMX 251420Z AUTO 17009KT 9999 OVC021/// 07/05 Q0988=
201312251350 METAR ESMX 251350Z AUTO 16008KT 9999 BKN020/// OVC028/// 07/05 Q0987=
201312251320 METAR ESMX 251320Z AUTO 17009KT 9999 SCT019/// 07/05 Q0987=
201312251250 METAR ESMX 251250Z AUTO 17010KT 9999 FEW020/// SCT082/// 07/05 Q0986 REDZ=
201312251220 METAR ESMX 251220Z AUTO 17010KT 9999 -DZ FEW024/// BKN039/// 07/05 Q0987 REDZ=
201312251150 METAR ESMX 251150Z AUTO 17012KT 130V210 9999 FEW020/// SCT026/// OVC036/// 07/04 Q0987=
201312251120 METAR ESMX 251120Z AUTO 17011KT 090V200 9999 FEW016/// BKN041/// 06/04 Q0987=
201312251050 METAR ESMX 251050Z AUTO 16012KT 9999 FEW022/// SCT035/// BKN041/// 06/04 Q0987 RERA=
201312251020 METAR ESMX 251020Z AUTO 15009KT 9999 FEW012/// OVC036/// 06/04 Q0987=
201312250950 METAR ESMX 250950Z AUTO 16009KT 7000 -DZ FEW008/// SCT024/// BKN030/// 06/04 Q0987=
201312250920 METAR ESMX 250920Z AUTO 16010KT 120V180 9000 DZ FEW005/// SCT007/// BKN012/// 06/04 Q0987=
201312250850 METAR ESMX 250850Z AUTO 16010KT 6000 -RA BKN005/// OVC008/// 06/05 Q0988=
201312250820 METAR ESMX 250820Z AUTO 16010KT 4600 -RA FEW006/// BKN009/// OVC019/// 06/04 Q0988 REDZ=
201312250750 METAR ESMX 250750Z AUTO 16010KT 6000 DZ FEW005/// SCT007/// BKN011/// 06/04 Q0988=
201312250720 METAR ESMX 250720Z AUTO 15008KT 6000 -RA FEW006/// SCT007/// BKN009/// 05/04 Q0988 REDZ=
201312250650 METAR ESMX 250650Z AUTO 15009KT 8000 -RA FEW006/// SCT008/// BKN009/// 05/04 Q0988=
201312250620 METAR ESMX 250620Z AUTO 14010KT 110V170 8000 -RA FEW007/// SCT051/// 05/04 Q0989 REDZ=
201312250550 METAR ESMX 250550Z 14009KT 9999 -DZ FEW030 BKN050 05/04 Q0988=
201312250520 METAR ESMX 250520Z 16008KT 9999 DZ FEW025 BKN045 05/04 Q0989=
201312250450 METAR ESMX 250450Z AUTO 15009KT 9999 DZ BKN051/// 06/04 Q0989=
201312250420 METAR ESMX 250420Z AUTO 16009KT 9999 -RA BKN049/// 06/04 Q0989 REDZ=
201312250350 METAR ESMX 250350Z AUTO 16008KT 9999 -RA BKN050/// 06/04 Q0989=
201312250320 METAR ESMX 250320Z AUTO 15009KT 9999 -DZ FEW035/// BKN045/// BKN072/// 06/04 Q0989 REDZ=
201312250250 METAR ESMX 250250Z AUTO 16010KT 9999 FEW035/// SCT074/// 06/03 Q0989 RESHUP=
201312250220 METAR ESMX 250220Z AUTO 15011KT 9999 -DZ BKN030/// 07/04 Q0989=
201312250150 METAR ESMX 250150Z AUTO 17010KT 9999 OVC032/// 07/04 Q0989=
201312250120 METAR ESMX 250120Z AUTO 16012KT 9999 FEW027/// OVC031/// 07/04 Q0989=
201312250050 METAR ESMX 250050Z AUTO 16012KT 9999 BKN035/// 07/04 Q0989=
201312250020 METAR ESMX 250020Z AUTO 16011KT 9999 SCT033/// BKN041/// 07/03 Q0989=
201312242350 METAR ESMX 242350Z AUTO 16013KT 9999 BKN043/// OVC071/// 07/03 Q0989=
201312242320 METAR ESMX 242320Z AUTO 16012KT 9999 SCT042/// BKN066/// 07/03 Q0989=
201312242250 METAR ESMX 242250Z AUTO 17013KT 9999 FEW039/// OVC043/// 07/04 Q0989=
201312242220 METAR ESMX 242220Z AUTO 16012KT 9999 BKN042/// BKN058/// 07/04 Q0989=
201312242150 METAR ESMX 242150Z AUTO 16012KT 9999 BKN036/// OVC050/// 07/04 Q0989=
201312242120 METAR ESMX 242120Z AUTO 16012KT 9999 BKN041/// BKN062/// 07/04 Q0989=
201312242050 METAR ESMX 242050Z AUTO 17012KT 9999 FEW043/// SCT084/// BKN100/// 07/05 Q0989=
201312242020 METAR ESMX 242020Z AUTO 16012KT 9999 -RA FEW041/// 07/05 Q0989=
201312241950 METAR ESMX 241950Z AUTO 16013KT 9999 DZ FEW034/// OVC040/// 07/05 Q0989 REDZ=
201312241920 METAR ESMX 241920Z AUTO 17011KT 9999 FEW037/// OVC042/// 07/05 Q0989 REDZ=
201312241850 METAR ESMX 241850Z AUTO 17014KT 9999 FEW015/// BKN041/// BKN100/// 07/05 Q0989 REDZ=
201312241820 METAR ESMX 241820Z AUTO 17015KT 9999 FEW015/// BKN040/// 07/05 Q0989 REDZ=
201312241750 METAR ESMX 241750Z 17014KT 9999 -DZ FEW010 SCT014 07/05 Q0990 REDZ=
201312241720 METAR ESMX 241720Z 17014KT 9999 DZ BKN011 07/05 Q0990=
201312241650 METAR ESMX 241650Z 17017KT 9999 DZ FEW013 SCT045 07/05 Q0990 REDZ=
201312241620 METAR ESMX 241620Z AUTO 17016KT 9999 -DZ FEW020/// BKN044/// 07/05 Q0990 REDZ=
201312241550 METAR ESMX 241550Z AUTO 17014KT 9999 OVC020/// 08/05 Q0990=
201312241520 METAR ESMX 241520Z AUTO 17015KT 9999 FEW024/// SCT028/// BKN033/// 08/05 Q0990=
201312241450 METAR ESMX 241450Z AUTO 18015KT 9999 -DZ FEW033/// SCT039/// 08/05 Q0990=
201312241420 METAR ESMX 241420Z AUTO 19016KT 9999 FEW021/// BKN039/// 08/05 Q0990=
201312241350 METAR ESMX 241350Z AUTO 18016KT 9999 FEW020/// SCT041/// 07/05 Q0990=
201312241320 METAR ESMX 241320Z AUTO 18018KT 9999 BKN020/// BKN042/// 07/05 Q0990=
201312241250 METAR ESMX 241250Z AUTO 17016KT 9999 FEW017/// SCT069/// 07/05 Q0990=
201312241220 METAR ESMX 241220Z AUTO 17016KT 9999 -RA FEW013/// SCT044/// 07/05 Q0990 RERA=
201312241150 METAR ESMX 241150Z AUTO 17016KT 9999 FEW011/// BKN014/// OVC020/// 07/05 Q0991=
201312241120 METAR ESMX 241120Z AUTO 17016KT 9999 -RA FEW010/// SCT013/// BKN015/// 07/05 Q0991 REDZ=
201312241050 METAR ESMX 241050Z AUTO 17016KT 9999 DZ FEW009/// SCT012/// BKN017/// 07/05 Q0991=
201312241020 METAR ESMX 241020Z AUTO VRB16KT 360V200 9999 DZ FEW009/// BKN012/// BKN018/// 07/05 Q0991 REDZ=
201312240950 METAR ESMX 240950Z AUTO 18017KT 9999 DZ FEW009/// SCT011/// BKN014/// 07/05 Q0991=
201312240920 METAR ESMX 240920Z AUTO 17015KT 9999 DZ FEW008/// SCT011/// BKN015/// 07/05 Q0991=
201312240850 METAR ESMX 240850Z AUTO 17015KT 9999 -RA FEW008/// SCT010/// BKN013/// 06/05 Q0991 RERA=
201312240820 METAR ESMX 240820Z AUTO 17016KT 9999 -DZ FEW008/// BKN012/// OVC019/// 07/05 Q0991=
201312240750 METAR ESMX 240750Z AUTO 17015KT 9999 -RA FEW006/// SCT008/// BKN010/// 07/05 Q0992 REDZ=
201312240720 METAR ESMX 240720Z AUTO 17016G27KT 9000 DZ FEW006/// SCT008/// BKN009/// 07/05 Q0992=
201312240650 METAR ESMX 240650Z AUTO 17016KT 8000 DZ BKN006/// OVC010/// 07/05 Q0992 RERA REDZ=
201312240620 METAR ESMX 240620Z 17015G27KT 8000 DZ FEW006 BKN007 OVC010 06/05 Q0992=
201312240550 METAR ESMX 240550Z 17016KT 9000 -RA FEW006 SCT007 BKN009 06/05 Q0993=
201312240520 METAR ESMX 240520Z AUTO 17015KT 9999 -RA FEW006/// BKN008/// OVC010/// 06/05 Q0993=
201312240450 METAR ESMX 240450Z AUTO 17014KT 9999 -RA FEW006/// BKN007/// OVC010/// 06/05 Q0994=
201312240420 METAR ESMX 240420Z AUTO 17014KT 9999 -RA FEW006/// BKN008/// OVC010/// 06/05 Q0994 REDZ=
201312240350 METAR ESMX 240350Z AUTO 16014KT 9999 -RA FEW006/// BKN008/// OVC011/// 05/04 Q0994=
201312240320 METAR ESMX 240320Z AUTO 16013KT 9999 -RA FEW006/// BKN008/// OVC010/// 05/04 Q0995=
201312240250 METAR ESMX 240250Z AUTO 16012KT 9999 -RA FEW005/// SCT007/// BKN008/// 05/04 Q0995 REDZ=
201312240220 METAR ESMX 240220Z AUTO 17013G24KT 9999 -RA FEW005/// BKN006/// OVC008/// 05/04 Q0996=
201312240150 METAR ESMX 240150Z AUTO 17013KT 8000 DZ BKN005/// OVC008/// 05/04 Q0997 REDZ=
201312240120 METAR ESMX 240120Z AUTO 16013KT 7000 -RA FEW006/// OVC007/// 05/03 Q0997=
201312240050 METAR ESMX 240050Z AUTO 15013KT 120V190 9000 -RA OVC007/// 05/03 Q0998=
201312240020 METAR ESMX 240020Z AUTO 16013KT 9999 -RA OVC008/// 05/03 Q0998 REDZ=
201312232350 METAR ESMX 232350Z AUTO 15012KT 9999 FEW009/// SCT012/// 04/03 Q0999=
201312232320 METAR ESMX 232320Z AUTO 15014KT 9999 -DZ FEW009/// SCT012/// BKN016/// 04/02 Q1000=
201312232250 METAR ESMX 232250Z AUTO 14010KT 9999 FEW009/// SCT012/// 04/02 Q1001=
201312232220 METAR ESMX 232220Z AUTO 15009KT 9999 FEW008/// SCT010/// BKN015/// 04/02 Q1002=
201312232150 METAR ESMX 232150Z AUTO 17009KT 9999 FEW007/// BKN009/// OVC011/// 03/02 Q1003 REDZ=
201312232120 METAR ESMX 232120Z AUTO 15010KT 9999 OVC008/// 03/01 Q1004=
201312232050 METAR ESMX 232050Z AUTO 16009KT 9999 SCT008/// OVC010/// 02/01 Q1004=
201312232020 METAR ESMX 232020Z AUTO 16009KT 9999 BKN014/// 02/00 Q1004=
201312231950 METAR ESMX 231950Z AUTO 16009KT 9999 BKN015/// 02/00 Q1005=
201312231920 METAR ESMX 231920Z AUTO 18011KT 9999 FEW014/// SCT018/// 02/00 Q1005=
201312231850 METAR ESMX 231850Z 17012KT 9999 FEW011 SCT014 02/00 Q1005=
201312231820 METAR COR ESMX 231820Z 18011KT 9999 FEW016 02/00 Q1006=
201312231750 METAR ESMX 231750Z 18010KT 9999 FEW019 02/00 Q1006=
201312231720 METAR ESMX 231720Z AUTO 18010KT 9999 BKN020/// 02/00 Q1006=
201312231650 METAR ESMX 231650Z 19009KT 9999 SCT020 01/00 Q1006=
201312231620 METAR ESMX 231620Z 19009KT 9999 FEW018 SCT020 BKN023 02/00 Q1006=
201312231550 METAR ESMX 231550Z 21009KT 9999 FEW017 SCT019 BKN023 03/00 Q1006=
201312231520 METAR ESMX 231520Z 23011KT 9999 FEW016 BKN019 03/01 Q1006=
201312231450 METAR ESMX 231450Z 23010KT 9999 FEW018 03/01 Q1006=
201312231420 METAR ESMX 231420Z 22010KT 9999 BKN019 04/01 Q1006=
201312231350 METAR ESMX 231350Z 24011KT 9999 FEW017 BKN020 BKN027 04/01 Q1006=
201312231320 METAR ESMX 231320Z 24012KT 210V270 9999 BKN016 04/01 Q1005=
201312231250 METAR ESMX 231250Z AUTO 24011KT 9999 FEW013/// SCT018/// BKN020/// 04/01 Q1005=
201312231220 METAR ESMX 231220Z AUTO 22010KT 9999 FEW012/// BKN015/// OVC019/// 03/01 Q1005=
201312231150 METAR ESMX 231150Z AUTO 24010KT 9999 FEW011/// BKN013/// 03/01 Q1005=
201312231120 METAR ESMX 231120Z AUTO 24012KT 9999 FEW013/// BKN016/// OVC019/// 03/01 Q1004 REDZ=
201312231050 METAR ESMX 231050Z AUTO 24014KT 200V270 9999 DZ FEW012/// OVC016/// 04/01 Q1004 REDZ=
201312231020 METAR ESMX 231020Z AUTO 25013KT 210V280 9999 FEW017/// BKN020/// BKN043/// 04/01 Q1004 REDZ=
201312230950 METAR ESMX 230950Z AUTO 24013KT 9999 FEW019/// BKN021/// OVC027/// 04/01 Q1003=
201312230920 METAR ESMX 230920Z AUTO 23014KT 9999 FEW017/// SCT020/// BKN023/// 04/01 Q1003=
201312230850 METAR ESMX 230850Z AUTO 22012KT 200V260 9999 FEW014/// SCT019/// BKN021/// 04/01 Q1002=
201312230820 METAR ESMX 230820Z AUTO 23012KT 9999 FEW013/// SCT017/// BKN020/// 03/01 Q1002=
201312230750 METAR ESMX 230750Z AUTO 20013KT 9999 BKN010/// OVC022/// 03/01 Q1001=
201312230720 METAR ESMX 230720Z AUTO 22014KT 9999 FEW012/// SCT015/// BKN019/// 03/01 Q1001=
201312230650 METAR ESMX 230650Z AUTO 21012KT 9999 SCT012/// BKN016/// BKN027/// 03/01 Q1001=
201312230620 METAR ESMX 230620Z AUTO 20013KT 9999 FEW012/// SCT014/// OVC017/// 03/01 Q1001=
201312230550 METAR ESMX 230550Z AUTO 21012KT 9999 BKN015/// BKN023/// 03/01 Q1001=
201312230520 METAR ESMX 230520Z AUTO 21012KT 9999 FEW013/// SCT017/// BKN019/// 03/01 Q1001=
201312230450 METAR ESMX 230450Z AUTO 22011KT 190V260 9999 FEW014/// BKN017/// OVC020/// 04/01 Q1001=
201312230420 METAR ESMX 230420Z AUTO 22012KT 9999 FEW012/// BKN015/// BKN020/// 04/02 Q1000=
201312230350 METAR ESMX 230350Z AUTO 22013KT 9999 FEW012/// SCT015/// BKN019/// 04/02 Q1000=
201312230320 METAR ESMX 230320Z AUTO 22013KT 9999 BKN012/// BKN020/// 04/02 Q1000 REDZ=
201312230250 METAR ESMX 230250Z AUTO 20014KT 9999 SCT012/// BKN017/// OVC019/// 04/02 Q1001=
201312230220 METAR ESMX 230220Z AUTO 22013KT 9999 FEW016/// SCT019/// BKN022/// 04/01 Q1000=
201312230150 METAR ESMX 230150Z 23014KT 9999 FEW017 SCT022 BKN025 04/02 Q1000=
201312230120 METAR ESMX 230120Z 23013KT 9999 FEW018 SCT026 04/02 Q1000=
201312230050 METAR ESMX 230050Z 23014KT 9999 FEW015 SCT021 BKN025 05/02 Q1000=
201312230020 METAR ESMX 230020Z 20012KT 9999 FEW014 SCT020 BKN025 05/03 Q1000 REDZ=
201312222350 METAR ESMX 222350Z 21013KT 9999 FEW015 BKN020 05/02 Q1000=
201312222320 METAR ESMX 222320Z AUTO 22012KT 9999 FEW019/// SCT028/// BKN043/// 05/03 Q1000=
201312222250 METAR COR ESMX 222250Z 21013KT 9999 FEW016 SCT020 05/03 Q1000=
201312222220 METAR ESMX 222220Z 21014G25KT 9999 FEW009 SCT015 05/03 Q1000=
201312222150 METAR COR ESMX 222150Z 21012KT 9999 FEW009 SCT015 06/04 Q1000=
201312222120 METAR ESMX 222120Z 20013KT 9999 FEW007 BKN014 06/04 Q0999=
201312222050 METAR ESMX 222050Z 20014KT 9999 FEW010 SCT016 BKN019 05/04 Q0999=
201312222020 METAR ESMX 222020Z 19016KT 8000 -DZ FEW007 SCT009 BKN010 05/04 Q0999=
201312221950 METAR ESMX 221950Z 18014KT 8000 -RA FEW008 SCT009 BKN010 05/04 Q0999=
201312221920 METAR ESMX 221920Z 18016KT 9000 -RA FEW009 SCT012 OVC014 05/03 Q1000=
201312221850 METAR ESMX 221850Z 18014KT 9000 RA FEW012 OVC014 05/03 Q1000=
201312221820 METAR ESMX 221820Z 17013KT 9000 RA FEW012 BKN015 OVC020 05/03 Q1001 REDZ=
201312221750 METAR ESMX 221750Z 18014KT 9999 -RA SCT015 BKN033 05/03 Q1001=
201312221720 METAR COR ESMX 221720Z 19015KT 9999 BKN014 OVC036 05/03 Q1002=
201312221650 METAR COR ESMX 221650Z 19014KT 9999 FEW021 SCT036 05/03 Q1002=
201312221620 METAR ESMX 221620Z 19014KT 9999 FEW020 BKN038 06/03 Q1003=
201312221550 METAR COR ESMX 221550Z 20013KT 9999 FEW018 BKN037 06/02 Q1003=
201312221520 METAR ESMX 221520Z AUTO 22015KT 9999 FEW030/// OVC036/// 06/02 Q1003=
201312221450 METAR ESMX 221450Z 21012KT 9999 SCT018 BKN035 05/03 Q1003=
201312221420 METAR ESMX 221420Z 22014KT 9999 FEW014 BKN020 06/03 Q1004=
201312221350 METAR ESMX 221350Z 21011KT 9999 FEW016 BKN021 06/04 Q1004=
201312221320 METAR ESMX 221320Z 22013KT 9999 SCT018 BKN036 06/03 Q1004=
201312221250 METAR COR ESMX 221250Z 21013KT 9999 FEW019 BKN040 06/03 Q1004=
201312221220 METAR ESMX 221220Z AUTO 21014KT 9999 FEW020/// BKN040/// 06/03 Q1004=
201312221150 METAR ESMX 221150Z AUTO 21014KT 9999 FEW017/// SCT020/// BKN025/// 06/03 Q1004=
201312221120 METAR ESMX 221120Z AUTO 22013KT 9999 FEW016/// SCT019/// BKN022/// 06/04 Q1004=
201312221050 METAR ESMX 221050Z AUTO 22014KT 9999 FEW013/// SCT017/// BKN019/// 06/04 Q1004=
201312221020 METAR ESMX 221020Z AUTO 21013KT 9999 FEW011/// BKN014/// OVC021/// 06/04 Q1004=
201312220950 METAR ESMX 220950Z AUTO 22013KT 180V250 9999 FEW011/// SCT013/// BKN017/// 06/04 Q1004=
201312220920 METAR ESMX 220920Z AUTO 22014KT 9999 FEW009/// BKN010/// OVC014/// 06/04 Q1004=
201312220850 METAR ESMX 220850Z AUTO 21012KT 9999 FEW009/// BKN011/// OVC018/// 06/04 Q1003=
201312220820 METAR ESMX 220820Z AUTO 21015KT 9999 FEW008/// OVC010/// 05/04 Q1003=
201312220750 METAR ESMX 220750Z AUTO 20015KT 9999 FEW005/// SCT007/// BKN008/// 05/04 Q1003=
201312220720 METAR ESMX 220720Z AUTO 20015KT 8000 DZ OVC004/// 05/04 Q1003=
201312220650 METAR ESMX 220650Z 20014KT 7000 BR OVC003 04/03 Q1003=
201312220620 METAR ESMX 220620Z 19015KT 5000 -DZ OVC004 04/03 Q1003 RERA=
201312220550 METAR COR ESMX 220550Z 20014KT 4900 DZ OVC004 04/03 Q1003 RERA=
201312220520 METAR ESMX 220520Z 19016KT 5000 DZ OVC005 04/03 Q1003 REDZ=
201312220450 METAR ESMX 220450Z AUTO 19016KT 9000 DZ OVC005/// 04/03 Q1004=
201312220420 METAR ESMX 220420Z AUTO 19016G27KT 9999 OVC005/// 04/03 Q1004=
201312220350 METAR ESMX 220350Z AUTO 19016KT 3300 BR BKN005/// OVC008/// 04/03 Q1004=
201312220320 METAR ESMX 220320Z AUTO 19016KT 4600 -DZ FEW004/// BKN006/// OVC008/// 04/03 Q1004=
201312220250 METAR ESMX 220250Z AUTO 18015KT 4100 -RA OVC005/// 04/03 Q1005 REDZ=
201312220220 METAR ESMX 220220Z AUTO 18016KT 3800 -DZ OVC005/// 04/03 Q1005=
201312220150 METAR ESMX 220150Z AUTO 18013KT 5000 DZ OVC004/// 04/03 Q1006=
201312220120 METAR ESMX 220120Z AUTO 18014KT 9999 -DZ OVC005/// 05/03 Q1006=
201312220050 METAR ESMX 220050Z AUTO 18013KT 8000 -RA OVC004/// 05/04 Q1007 RERA=
201312220020 METAR ESMX 220020Z AUTO 19013KT 9999 OVC004/// 05/04 Q1007=
201312212350 METAR ESMX 212350Z AUTO 19013KT 9999 OVC004/// 05/04 Q1008=
201312212320 METAR ESMX 212320Z AUTO 20012KT 9999 OVC004/// 05/04 Q1008=
201312212250 METAR ESMX 212250Z AUTO 19012KT 9999 OVC004/// 05/04 Q1009=
201312212220 METAR ESMX 212220Z AUTO 20013KT 9999 OVC005/// 05/04 Q1009=
201312212150 METAR ESMX 212150Z AUTO 20014KT 9999 OVC005/// 05/04 Q1010 REDZ=
201312212120 METAR ESMX 212120Z AUTO 19013KT 6000 BR FEW005/// OVC006/// 05/04 Q1010=
201312212050 METAR ESMX 212050Z AUTO 19012KT 5000 BR FEW004/// SCT006/// BKN007/// 05/05 Q1010=
201312212020 METAR ESMX 212020Z 19013KT 2600 DZ FEW004 OVC006 05/04 Q1010 REDZ=
201312211950 METAR ESMX 211950Z 19012KT 5000 BR SCT004 BKN007 05/05 Q1010=
201312211920 METAR ESMX 211920Z 20014KT 5000 -DZ OVC004 06/05 Q1010 REDZ=
201312211850 METAR ESMX 211850Z AUTO 20013KT 5000 DZ FEW004/// BKN006/// OVC008/// 06/05 Q1010=
201312211820 METAR ESMX 211820Z AUTO 21014KT 9999 SCT005/// BKN007/// OVC010/// 06/05 Q1011=
201312211750 METAR ESMX 211750Z AUTO 22012KT 9000 BR BKN004/// OVC006/// 06/05 Q1011=
201312211720 METAR ESMX 211720Z AUTO 21014KT 4700 BR OVC003/// 06/05 Q1011=
201312211650 METAR ESMX 211650Z AUTO 21015KT 2900 BR OVC003/// 06/05 Q1011 REDZ=
201312211620 METAR ESMX 211620Z AUTO 20015KT 3600 -DZ FEW003/// OVC004/// 06/05 Q1011=
201312211550 METAR ESMX 211550Z AUTO 21015KT 2600 -DZ OVC003/// 06/05 Q1011 REDZ=
201312211520 METAR ESMX 211520Z AUTO 21014KT 3400 BR BKN002/// OVC005/// 06/05 Q1011 REDZ=
201312211450 METAR ESMX 211450Z AUTO 20015KT 5000 -DZ OVC003/// 06/05 Q1011=
201312211420 METAR ESMX 211420Z AUTO 22013KT 9000 BR OVC003/// 06/05 Q1011 REDZ=
201312211350 METAR ESMX 211350Z AUTO 22013KT 7000 BR OVC005/// 06/05 Q1011=
201312211320 METAR ESMX 211320Z AUTO 21013KT 2900 BR OVC005/// 05/04 Q1011 REDZ=
201312211250 METAR ESMX 211250Z AUTO 21015G28KT 5000 -DZ OVC005/// 05/04 Q1011=
201312211220 METAR ESMX 211220Z AUTO 22016KT 5000 BR OVC006/// 05/04 Q1011=
201312211150 METAR ESMX 211150Z AUTO 20016KT 9999 OVC006/// 05/04 Q1011=
201312211120 METAR ESMX 211120Z AUTO 21015KT 9999 FEW006/// OVC007/// 05/04 Q1011=
201312211050 METAR ESMX 211050Z AUTO 20015KT 6000 -DZ FEW006/// OVC007/// 05/03 Q1011 RERA=
201312211020 METAR ESMX 211020Z AUTO 20016KT 9999 -RA BKN006/// OVC010/// 05/03 Q1011 REDZ=
201312210950 METAR ESMX 210950Z AUTO 20015KT 7000 -RA FEW005/// SCT007/// BKN009/// 04/03 Q1011=
201312210920 METAR ESMX 210920Z AUTO 19017KT 5000 DZ SCT005/// BKN008/// OVC009/// 05/03 Q1012=
201312210850 METAR ESMX 210850Z AUTO 19016KT 3200 -DZ FEW005/// BKN006/// OVC009/// 04/03 Q1012 REDZ=
201312210820 METAR ESMX 210820Z AUTO 19017KT 7000 BR FEW006/// BKN008/// OVC010/// 04/03 Q1012=
201312210750 METAR ESMX 210750Z AUTO 19015KT 9000 DZ FEW006/// SCT008/// OVC010/// 04/03 Q1012=
201312210720 METAR ESMX 210720Z AUTO 19015KT 7000 -RA FEW007/// SCT008/// OVC010/// 04/03 Q1013 REDZ=
201312210650 METAR ESMX 210650Z AUTO 18015KT 8000 DZ FEW006/// OVC008/// 04/03 Q1013=
201312210620 METAR ESMX 210620Z AUTO 19015KT 9000 DZ OVC006/// 04/03 Q1013 RERA=
201312210550 METAR ESMX 210550Z AUTO 19014KT 9000 BR OVC006/// 04/03 Q1013=
201312210520 METAR ESMX 210520Z AUTO 19014KT 6000 -RA OVC007/// 04/03 Q1014 REUP=
201312210450 METAR ESMX 210450Z AUTO 19012KT 9999 OVC007/// 04/03 Q1014=
201312210420 METAR ESMX 210420Z AUTO 20012KT 9999 OVC007/// 04/03 Q1015=
201312210350 METAR ESMX 210350Z AUTO 21011KT 9999 FEW008/// OVC009/// 04/03 Q1015=
201312210320 METAR ESMX 210320Z AUTO 21012KT 9999 FEW008/// OVC010/// 04/03 Q1015=
201312210250 METAR ESMX 210250Z AUTO 22013KT 9999 FEW006/// OVC008/// 04/03 Q1015=
201312210220 METAR ESMX 210220Z AUTO 20012KT 9999 OVC005/// 04/03 Q1015=
201312210150 METAR ESMX 210150Z AUTO 23010KT 9999 FEW006/// BKN007/// OVC009/// 04/03 Q1015 RERA=
201312210120 METAR ESMX 210120Z AUTO 22011KT 9999 FEW006/// BKN008/// BKN011/// 04/03 Q1015=
201312210050 METAR ESMX 210050Z AUTO 21011KT 9000 -RA FEW009/// SCT011/// BKN017/// 04/02 Q1016 REDZ=
201312210020 METAR ESMX 210020Z AUTO 22012KT 9999 FEW008/// BKN009/// BKN013/// 04/02 Q1015=
201312202350 METAR ESMX 202350Z AUTO 22011KT 9999 FEW008/// OVC011/// 04/02 Q1015=
201312202320 METAR ESMX 202320Z AUTO 21010KT 9999 FEW008/// BKN010/// OVC015/// 04/02 Q1015=
201312202250 METAR ESMX 202250Z AUTO 21009KT 9999 FEW010/// BKN013/// BKN020/// 04/02 Q1015=
201312202220 METAR ESMX 202220Z AUTO 22010KT 9999 FEW012/// SCT017/// BKN023/// 04/02 Q1015=
201312202150 METAR ESMX 202150Z AUTO 23009KT 9999 FEW010/// SCT020/// BKN028/// 04/02 Q1015=
201312202120 METAR ESMX 202120Z AUTO 23010KT 9999 FEW010/// SCT013/// BKN015/// 04/02 Q1015=
201312202050 METAR ESMX 202050Z AUTO 23010KT 9999 FEW010/// BKN013/// OVC017/// 04/02 Q1015=
201312202020 METAR ESMX 202020Z AUTO 23009KT 9999 FEW011/// SCT016/// BKN021/// 04/02 Q1015=
201312201950 METAR ESMX 201950Z AUTO 20009KT 9000 BR FEW006/// SCT024/// BKN028/// 03/02 Q1014=
201312201920 METAR ESMX 201920Z AUTO 22008KT 9000 BR FEW008/// SCT009/// BKN011/// 03/02 Q1014=
201312201850 METAR ESMX 201850Z 21008KT 9000 BR FEW008 BKN018 03/02 Q1014=
201312201820 METAR ESMX 201820Z 21009KT 9999 FEW007 BKN018 03/02 Q1014=
201312201750 METAR ESMX 201750Z 21008KT 9999 FEW007 SCT016 BKN020 03/02 Q1014=
201312201720 METAR ESMX 201720Z 22008KT 190V250 9999 FEW004 BKN007 OVC010 03/02 Q1014=
201312201650 METAR ESMX 201650Z 21008KT 9999 FEW004 SCT006 BKN008 03/02 Q1014=
201312201620 METAR ESMX 201620Z 20009KT 9999 SCT005 BKN009 03/02 Q1014=
201312201550 METAR ESMX 201550Z 19008KT 9999 FEW006 SCT011 BKN015 03/02 Q1014 RERA=
201312201520 METAR ESMX 201520Z 19009KT 9999 FEW006 SCT011 BKN036 03/02 Q1014=
201312201450 METAR ESMX 201450Z AUTO 19013KT 6000 -RA FEW010/// 03/02 Q1014=
201312201420 METAR ESMX 201420Z 19014KT 7000 RA SCT007 BKN014 03/02 Q1014 REDZ=
201312201350 METAR ESMX 201350Z 19012KT 9999 FEW007 OVC009 04/02 Q1014=
201312201320 METAR ESMX 201320Z 19012KT 9999 FEW008 BKN010 04/02 Q1014=
201312201250 METAR ESMX 201250Z 19013KT 9999 FEW007 BKN008 03/02 Q1014=
201312201220 METAR COR ESMX 201220Z 18011KT 9999 SCT007 BKN010 03/02 Q1013=
201312201150 METAR ESMX 201150Z 17011KT 9999 OVC006 03/02 Q1014=
201312201120 METAR ESMX 201120Z 17011KT 9999 SCT006 OVC009 03/01 Q1014=
201312201050 METAR COR ESMX 201050Z 17011KT 9999 SCT006 BKN008 BKN010 03/01 Q1014=
201312201020 METAR ESMX 201020Z 18010KT 9999 FEW007 SCT008 02/01 Q1014=
201312200950 METAR ESMX 200950Z 17009KT 9999 FEW008 02/01 Q1014=
201312200920 METAR ESMX 200920Z 18011KT 9999 FEW006 BKN009 BKN013 02/01 Q1015=
201312200850 METAR ESMX 200850Z 19013KT 9999 FEW004 SCT006 BKN008 02/01 Q1015=
201312200820 METAR ESMX 200820Z AUTO 19013KT 9999 FEW003/// BKN004/// OVC006/// 02/01 Q1014=
201312200750 METAR ESMX 200750Z AUTO 20009KT 9999 OVC003/// 02/02 Q1014=
201312200720 METAR ESMX 200720Z AUTO 21008KT 9000 BR OVC003/// 02/01 Q1013=
201312200650 METAR ESMX 200650Z AUTO 21009KT 180V240 8000 BR BKN002/// OVC005/// 02/01 Q1013=
201312200620 METAR ESMX 200620Z AUTO 19008KT 160V220 7000 BR OVC002/// 02/01 Q1013=
201312200550 METAR ESMX 200550Z AUTO 17005KT 9000 BR BKN005/// 02/01 Q1012=
201312200520 METAR ESMX 200520Z AUTO 21005KT 9999 FEW006/// SCT007/// BKN008/// 02/01 Q1012=
201312200450 METAR ESMX 200450Z AUTO 22005KT 9999 FEW009/// SCT013/// 02/01 Q1012=
201312200420 METAR ESMX 200420Z AUTO 20007KT 9999 BKN012/// 03/02 Q1012=
201312200350 METAR ESMX 200350Z AUTO 22007KT 9999 FEW005/// OVC010/// 03/02 Q1012=
201312200320 METAR ESMX 200320Z AUTO 21007KT 9999 FEW006/// OVC008/// 04/03 Q1011=
201312200250 METAR ESMX 200250Z AUTO 22006KT 9999 FEW007/// OVC009/// 04/03 Q1011=
201312200220 METAR ESMX 200220Z 23007KT 9999 FEW009 BKN012 04/03 Q1010=
201312200150 METAR ESMX 200150Z 23007KT 9999 SCT014 03/03 Q1010=
201312200120 METAR ESMX 200120Z 22006KT 9999 FEW016 SCT022 03/02 Q1009=
201312200050 METAR ESMX 200050Z 23007KT 9999 FEW005 SCT022 03/02 Q1009=
201312200020 METAR ESMX 200020Z 23006KT 9999 FEW017 SCT024 03/02 Q1008=
201312192350 METAR ESMX 192350Z 23008KT 9999 FEW005 BKN030 04/03 Q1007=
201312192320 METAR ESMX 192320Z 21008KT 9999 SCT008 BKN015 04/03 Q1007=
201312192250 METAR ESMX 192250Z 19006KT 9999 SCT010 BKN015 04/03 Q1006=
201312192220 METAR ESMX 192220Z 19005KT 9999 FEW018 BKN024 04/03 Q1006=
201312192150 METAR ESMX 192150Z 22005KT 9999 FEW028 SCT085 04/03 Q1005=
201312192120 METAR ESMX 192120Z 26005KT 9999 FEW013 SCT080 04/03 Q1005=
201312192050 METAR ESMX 192050Z 24011KT 210V280 9999 -RADZ FEW003 SCT006 OVC010 05/04 Q1004=
201312192020 METAR ESMX 192020Z 20009KT 3700 DZ OVC003 05/04 Q1003=
201312191950 METAR ESMX 191950Z 18010KT 2300 DZ BR OVC002 05/04 Q1003=
201312191920 METAR ESMX 191920Z 17010KT 2500 DZ BR OVC002 04/04 Q1003=
201312191850 METAR ESMX 191850Z 17011KT 4200 BR OVC003 04/04 Q1002=
201312191820 METAR ESMX 191820Z 18011KT 8000 BR OVC004 04/03 Q1002=
201312191750 METAR COR ESMX 191750Z 17011KT 4900 -RA OVC004 04/03 Q1002 REDZ=
201312191720 METAR ESMX 191720Z 17011KT 5000 -DZ OVC003 04/03 Q1002=
201312191650 METAR ESMX 191650Z 16009KT 4200 -RA SCT003 BKN005 04/03 Q1002=
201312191620 METAR ESMX 191620Z 17009KT 4900 -RA OVC004 04/03 Q1002=
201312191550 METAR ESMX 191550Z 17010KT 5000 -RA OVC004 04/03 Q1002 REDZ=
201312191520 METAR ESMX 191520Z 17009KT 5000 -DZ FEW004 BKN006 OVC008 04/03 Q1001=
201312191450 METAR COR ESMX 191450Z 16008KT 5000 DZ FEW006 BKN009 04/03 Q1001=
201312191420 METAR ESMX 191420Z 15007KT 6000 -RA SCT007 OVC010 05/03 Q1002 REDZ=
201312191350 METAR ESMX 191350Z AUTO 16010KT 7000 -RA BKN008/// OVC010/// 05/03 Q1002=
201312191320 METAR ESMX 191320Z 15009KT 9999 -DZ SCT009 BKN013 05/03 Q1002 REDZ=
201312191250 METAR ESMX 191250Z AUTO 16008KT 9999 DZ FEW013/// 05/03 Q1002 REDZ=
201312191220 METAR ESMX 191220Z 16009KT 120V200 9999 BKN010 BKN080 05/03 Q1002=
201312191150 METAR ESMX 191150Z 15009KT 110V170 9000 BR SCT009 BKN011 05/03 Q1002=
201312191120 METAR ESMX 191120Z 15009KT 8000 BR BKN006 OVC009 05/03 Q1003=
201312191050 METAR ESMX 191050Z 14009KT 6000 BR OVC006 05/03 Q1003=
201312191020 METAR ESMX 191020Z 15010KT 110V180 5000 BR OVC005 05/03 Q1004=
201312190950 METAR ESMX 190950Z 14009KT 100V160 5000 BR OVC005 05/03 Q1004=
201312190920 METAR ESMX 190920Z 15009KT 5000 BR OVC005 05/03 Q1004=
201312190850 METAR ESMX 190850Z 14008KT 4500 BR OVC003 04/04 Q1005=
201312190820 METAR ESMX 190820Z 14008KT 110V170 2900 BR OVC003 04/04 Q1005=
201312190750 METAR ESMX 190750Z 14008KT 110V170 2700 BR OVC002 04/04 Q1005=
201312190720 METAR ESMX 190720Z 14008KT 2700 BR OVC002 04/04 Q1006=
201312190650 METAR ESMX 190650Z 15008KT 2300 BR OVC001 04/03 Q1006=
201312190620 METAR ESMX 190620Z 13008KT 1600 BR OVC001 04/03 Q1006=
201312190550 METAR ESMX 190550Z 14008KT 0900 R01/P2000N R19/P2000N FG VV002 04/03 Q1007=
201312190520 METAR ESMX 190520Z 15006KT 0450 R01/1100V1400U R19/1600VP2000U FG VV002 04/03 Q1007=
201312190450 METAR ESMX 190450Z 15007KT 0400 R01/1000V1200N R19/1300V1600U FG VV002 04/03 Q1008=
201312190420 METAR ESMX 190420Z AUTO 15006KT 110V190 0350 R01/0900V1100N R19/1100V1300N FG VV001 04/03 Q1008=
201312190350 METAR ESMX 190350Z AUTO 14006KT 0400 R01/1000V1100N R19/1400V1500N FG VV001 04/03 Q1008=
201312190320 METAR ESMX 190320Z AUTO 15006KT 0650 R01/1500V1600N R19/P2000N FG VV002 04/03 Q1009=
201312190250 METAR ESMX 190250Z AUTO 15006KT 120V180 0750 R01/1700V1900N R19/P2000N FG OVC001/// 04/03 Q1009=
201312190220 METAR ESMX 190220Z AUTO 15007KT 1100 R01/P2000N R19/P2000N BR OVC001/// 04/03 Q1009=
201312190150 METAR ESMX 190150Z AUTO 15006KT 2100 BR OVC002/// 04/03 Q1010=
201312190120 METAR ESMX 190120Z 16007KT 2700 BR OVC003 04/03 Q1010=
201312190050 METAR ESMX 190050Z 14006KT 3300 BR OVC004 04/03 Q1011=
201312190020 METAR ESMX 190020Z 16006KT 120V190 3900 BR OVC004 04/03 Q1011=
201312182350 METAR ESMX 182350Z 16006KT 5000 BR OVC005 04/02 Q1012=
201312182320 METAR ESMX 182320Z 15006KT 110V190 5000 BR OVC006 04/02 Q1012=
201312182250 METAR ESMX 182250Z 14006KT 5000 BR OVC005 04/02 Q1012=
201312182220 METAR ESMX 182220Z 16007KT 5000 BR OVC005 04/03 Q1012=
201312182150 METAR ESMX 182150Z 16007KT 110V190 5000 BR OVC005 04/03 Q1013=
201312182120 METAR ESMX 182120Z 15006KT 5000 BR OVC005 04/03 Q1013=
201312182050 METAR ESMX 182050Z 16008KT 110V190 5000 BR OVC005 04/03 Q1014=
201312182020 METAR ESMX 182020Z 16008KT 5000 BR OVC003 04/03 Q1014=
201312181950 METAR ESMX 181950Z 16008KT 4500 BR OVC002 04/03 Q1014=
201312181920 METAR ESMX 181920Z 14009KT 110V170 3300 BR OVC002 04/03 Q1014=
201312181850 METAR ESMX 181850Z 16008KT 110V180 0900 R01/P2000N R19/P2000N FG VV002 03/03 Q1015=
201312181820 METAR ESMX 181820Z 16007KT 1300 R01/P2000N R19/P2000N BR VV002 03/03 Q1015=
201312181750 METAR ESMX 181750Z 15006KT 120V180 2700 BR OVC001 03/03 Q1015=
201312181720 METAR ESMX 181720Z 15007KT 120V200 6000 BR OVC002 03/03 Q1015=
201312181650 METAR ESMX 181650Z 14007KT 100V190 9999 OVC002 03/02 Q1016=
201312181620 METAR ESMX 181620Z 15007KT 9999 OVC003 03/02 Q1016=
201312181550 METAR COR ESMX 181550Z 14008KT 110V170 9999 OVC002 03/02 Q1016=
201312181520 METAR ESMX 181520Z 15007KT 110V170 8000 BR OVC002 03/02 Q1017=
201312181450 METAR ESMX 181450Z 14007KT 110V170 5000 -DZ OVC002 03/02 Q1017=
201312181420 METAR ESMX 181420Z 15006KT 120V190 9000 BR OVC003 03/02 Q1017=
201312181350 METAR ESMX 181350Z 14006KT 100V170 8000 -RA OVC003 03/02 Q1018=
201312181320 METAR ESMX 181320Z 13005KT 080V170 6000 -RA OVC002 02/02 Q1018=
201312181250 METAR ESMX 181250Z 13005KT 080V160 4500 -RA OVC002 02/02 Q1019=
201312181220 METAR ESMX 181220Z 15005KT 120V200 6000 BR OVC003 02/02 Q1019=
201312181150 METAR ESMX 181150Z 16005KT 7000 BR OVC002 02/02 Q1019=
201312181120 METAR ESMX 181120Z 16005KT 6000 BR OVC002 02/01 Q1020=
201312181050 METAR ESMX 181050Z 15006KT 4800 BR OVC002 02/01 Q1020=
201312181020 METAR ESMX 181020Z 16007KT 4200 BR OVC003 02/01 Q1020=
201312180950 METAR COR ESMX 180950Z 16010KT 110V180 9999 OVC005 02/00 Q1021=
201312180850 METAR ESMX 180850Z 15005KT 9999 BKN010 01/00 Q1021=
201312180820 METAR ESMX 180820Z 15006KT 9999 FEW016 01/00 Q1021=
201312180750 METAR COR ESMX 180750Z 14005KT 9999 SCT017 01/00 Q1021=
201312180720 METAR ESMX 180720Z 17003KT 9999 BKN018 02/01 Q1021=
201312180650 METAR ESMX 180650Z 18006KT 9999 SCT022 02/01 Q1022=
201312180620 METAR ESMX 180620Z 18007KT 9999 SCT023 02/01 Q1022=
201312180550 METAR ESMX 180550Z 19005KT 9999 BKN020 01/00 Q1022=
201312180520 METAR ESMX 180520Z 18002KT 9999 OVC019 02/01 Q1022=
201312180450 METAR ESMX 180450Z 00000KT 9999 OVC017 03/01 Q1022=
201312180420 METAR ESMX 180420Z 21004KT 9999 OVC014 02/01 Q1022=
201312180350 METAR ESMX 180350Z AUTO 22004KT 200V260 9999 OVC013/// 03/01 Q1022=
201312180320 METAR ESMX 180320Z AUTO VRB02KT 9999 OVC013/// 03/01 Q1022=
201312180250 METAR ESMX 180250Z AUTO VRB02KT 9999 OVC012/// 03/01 Q1022=
201312180220 METAR ESMX 180220Z AUTO 24005KT 9999 OVC012/// 02/01 Q1022=
201312180150 METAR ESMX 180150Z AUTO 20005KT 9999 OVC012/// 02/01 Q1022=
201312180120 METAR ESMX 180120Z 21006KT 7000 BR OVC013 02/01 Q1022=
201312180050 METAR ESMX 180050Z 20004KT 5000 BR OVC013 01/01 Q1022=
201312180020 METAR COR ESMX 180020Z VRB03KT 7000 BR BKN013 00/M00 Q1022=
201312172350 METAR ESMX 172350Z 18003KT 3300 BR SCT017 01/00 Q1022=
201312172320 METAR ESMX 172320Z VRB03KT 8000 BR FEW015 01/00 Q1022=
201312172250 METAR ESMX 172250Z 25005KT 9999 FEW003 02/01 Q1022=
201312172220 METAR ESMX 172220Z 26004KT 9999 SCT003 BKN006 BKN007 02/02 Q1022=
201312172150 METAR ESMX 172150Z 24006KT 9999 FEW016 SCT019 02/02 Q1022=
201312172120 METAR ESMX 172120Z 25006KT 9999 SCT019 03/02 Q1022=
201312172050 METAR ESMX 172050Z 27006KT 9999 FEW018 OVC020 04/03 Q1022=
201312172020 METAR ESMX 172020Z 25006KT 9999 OVC020 04/03 Q1022=
201312171950 METAR ESMX 171950Z 25007KT 9999 BKN021 04/03 Q1022=
201312171920 METAR ESMX 171920Z 26005KT 9999 FEW010 BKN024 03/02 Q1021=
201312171820 METAR ESMX 171820Z 24005KT 9999 FEW010 OVC020 04/03 Q1021=
201312171720 METAR ESMX 171720Z 23007KT 9999 OVC021 04/02 Q1020=
201312171650 METAR ESMX 171650Z 24007KT 9999 FEW008 BKN011 OVC021 04/03 Q1020=
201312171620 METAR COR ESMX 171620Z 25006KT 9999 FEW008 BKN011 OVC015 04/02 Q1020=
201312171550 METAR COR ESMX 171550Z 25008KT 9999 FEW009 BKN012 OVC016 04/02 Q1020=
201312171520 METAR ESMX 171520Z AUTO 25006KT 9999 FEW010/// BKN013/// OVC018/// 04/02 Q1019=
201312171450 METAR ESMX 171450Z 27008KT 9999 BKN008 04/02 Q1019=
201312171420 METAR COR ESMX 171420Z 27008KT 9999 BKN010 04/02 Q1018=
201312171320 METAR ESMX 171320Z 25009KT 9999 FEW006 OVC015 04/03 Q1018=
201312171250 METAR ESMX 171250Z 26008KT 9999 FEW006 OVC015 04/03 Q1018=
201312171220 METAR ESMX 171220Z 26006KT 9999 FEW006 BKN074 04/03 Q1018=
201312171150 METAR ESMX 171150Z 25006KT 9999 FEW011 BKN039 04/03 Q1017=
201312171120 METAR ESMX 171120Z 25006KT 9999 FEW011 OVC056 04/03 Q1017=
201312171050 METAR ESMX 171050Z 26004KT 9999 - FEW005 BKN010 04/03 Q1017=
201312171020 METAR ESMX 171020Z 23008KT 9999 -RA FEW005 BKN010 04/03 Q1017=
201312170950 METAR ESMX 170950Z 23008KT 9999 -RA FEW005 BKN010 04/03 Q1017=
201312170920 METAR ESMX 170920Z 23008KT 9000 -RA FEW008 BKN015 04/03 Q1017=
201312170850 METAR ESMX 170850Z 23008KT 9999 -RA SCT012 BKN025 04/03 Q1017=
201312170820 METAR ESMX 170820Z 22008KT 9999 BKN010 05/04 Q1017=
201312170720 METAR ESMX 170720Z 17007KT 9999 BKN010 05/04 Q1016=
201312170650 METAR ESMX 170650Z 21005KT 9999 FEW009 BKN0020 05/04 Q1016=
201312170620 METAR ESMX 170620Z 21005KT 9999 BKN0010 05/04 Q1016=
201312170550 METAR ESMX 170550Z 25005KT 9999 FEW009 BKN0012 06/04 Q1016=
201312170520 METAR COR ESMX 170520Z 25005KT 9999 FEW009 BKN0012 06/04 Q1016=
201312170450 METAR ESMX 170450Z 25006KT 9999 FEW009 BKN0015 06/04 Q1016=
201312170320 METAR ESMX 170320Z AUTO 26008KT 9999 FEW012/// SCT082/// 06/04 Q1016=
201312170250 METAR ESMX 170250Z AUTO 25008KT 9999 FEW010/// SCT016/// BKN020/// 07/05 Q1016=
201312170220 METAR ESMX 170220Z AUTO 23007KT 9999 FEW010/// SCT013/// BKN023/// 07/06 Q1016=
201312170150 METAR ESMX 170150Z AUTO 25009KT 9999 FEW014/// BKN023/// 07/05 Q1015=
201312170120 METAR ESMX 170120Z 26014KT 9999 FEW005 BKN007 08/06 Q1015=
201312170050 METAR ESMX 170050Z 24011KT 5000 -RADZ FEW004 OVC006 08/07 Q1014=
201312170020 METAR ESMX 170020Z 22012G24KT 190V250 8000 BR OVC006 08/07 Q1014=
201312162350 METAR ESMX 162350Z 22013KT 9999 OVC005 08/07 Q1014=
201312162320 METAR ESMX 162320Z 23014G25KT 190V280 4900 BR OVC005 08/07 Q1014=
201312162250 METAR ESMX 162250Z 23014KT 9999 OVC006 08/07 Q1014=
201312162220 METAR ESMX 162220Z 22013KT 9000 BR OVC005 08/07 Q1014=
201312162150 METAR COR ESMX 162150Z 21014KT 5000 BR OVC005 08/07 Q1014=
201312162120 METAR COR ESMX 162120Z 21012KT 7000 BR FEW004 BKN006 08/07 Q1014 REDZ=
201312162050 METAR COR ESMX 162050Z 22013KT 3100 DZ BR BKN002 OVC005 08/07 Q1014=
201312162020 METAR ESMX 162020Z 20015KT 2100 BR OVC001 07/07 Q1014=
201312161950 METAR ESMX 161950Z AUTO 20015KT 2600 BR OVC002/// 07/07 Q1013=
201312161920 METAR ESMX 161920Z AUTO 21014KT 3300 BR OVC002/// 07/07 Q1013=
201312161850 METAR ESMX 161850Z 21014KT 3300 BR OVC002 07/06 Q1013=
201312161820 METAR ESMX 161820Z 20016KT 2800 BR OVC002 07/06 Q1013=
201312161750 METAR ESMX 161750Z 20016KT 3300 BR OVC002 07/06 Q1013 REDZ=
201312161720 METAR ESMX 161720Z 20015KT 4900 -RA OVC002 06/06 Q1013=
201312161650 METAR ESMX 161650Z 20015KT 3300 BR FEW002 OVC003 06/06 Q1013=
201312161620 METAR ESMX 161620Z 21016KT 2400 BR OVC001 06/05 Q1013=
201312161550 METAR ESMX 161550Z 20016KT 2900 BR OVC001 06/05 Q1013=
201312161520 METAR ESMX 161520Z 20015KT 2800 BR OVC001 06/05 Q1013=
201312161450 METAR ESMX 161450Z 20015KT 3100 BR OVC001 06/05 Q1014=
201312161420 METAR ESMX 161420Z 20013KT 3200 BR OVC002 06/05 Q1014=
201312161350 METAR ESMX 161350Z 20014KT 3000 BR OVC002 06/05 Q1014=
201312161320 METAR ESMX 161320Z 19014KT 3900 BR OVC002 05/05 Q1014=
201312161250 METAR ESMX 161250Z 21013KT 2400 BR OVC002 05/05 Q1014=
201312161220 METAR ESMX 161220Z 21014KT 2200 BR OVC002 05/05 Q1014=
201312161150 METAR ESMX 161150Z 20013KT 3300 BR OVC002 05/05 Q1015=
201312161120 METAR ESMX 161120Z 19015KT 8000 -DZ BR OVC003 06/05 Q1015=
201312161050 METAR ESMX 161050Z 18016KT 8000 BR OVC004 06/05 Q1014=
201312161020 METAR ESMX 161020Z 19015KT 6000 -DZ BR OVC004 06/05 Q1015=
201312160950 METAR ESMX 160950Z 18016KT 7000 BR OVC003 06/05 Q1015=
201312160920 METAR ESMX 160920Z 19015KT 3100 RA OVC002 06/05 Q1016=
201312160850 METAR ESMX 160850Z 18014KT 2300 RADZ OVC002 05/05 Q1016=
201312160820 METAR ESMX 160820Z 18014KT 2000 RADZ OVC002 05/05 Q1016=
201312160750 METAR ESMX 160750Z 17014KT 2300 DZ BR OVC002 05/04 Q1016=
201312160720 METAR ESMX 160720Z 17013KT 1200 R19/P2000N DZ BR OVC002 05/04 Q1016=
201312160650 METAR ESMX 160650Z 16012KT 1500 DZ BR OVC002 04/04 Q1016=
201312160620 METAR ESMX 160620Z 17012KT 2400 DZ BR OVC002 05/04 Q1017=
201312160550 METAR ESMX 160550Z AUTO 17012KT 4200 BR OVC003/// 05/04 Q1017=
201312160520 METAR ESMX 160520Z 17012KT 2400 -DZ FEW003 OVC005 04/04 Q1018=
201312160450 METAR ESMX 160450Z 17011KT 5000 BR OVC005 04/03 Q1018=
201312160420 METAR ESMX 160420Z AUTO 17011KT 130V190 4700 BR FEW005/// OVC007/// 05/03 Q1018=
201312160350 METAR ESMX 160350Z AUTO 18011KT 4000 BR OVC007/// 05/03 Q1018=
201312160320 METAR ESMX 160320Z AUTO 17012KT 9999 OVC009/// 05/03 Q1018=
201312160250 METAR ESMX 160250Z AUTO 18011KT 9999 OVC010/// 05/03 Q1019=
201312160220 METAR ESMX 160220Z AUTO 18009KT 9999 OVC013/// 05/03 Q1019=
201312160150 METAR ESMX 160150Z AUTO 20010KT 9999 OVC014/// 05/03 Q1020=
201312160120 METAR ESMX 160120Z 21010KT 9999 FEW011 OVC014 05/03 Q1020=
201312160050 METAR ESMX 160050Z 22012KT 9999 OVC010 05/03 Q1020=
201312160020 METAR ESMX 160020Z 22009KT 9999 OVC010 06/04 Q1020=
201312152350 METAR ESMX 152350Z 24010KT 9999 FEW008 OVC010 06/04 Q1020=
201312152320 METAR ESMX 152320Z 23009KT 9999 FEW007 SCT009 OVC011 06/04 Q1020=
201312152250 METAR ESMX 152250Z 22007KT 190V250 9999 FEW007 OVC009 06/04 Q1020=
201312152220 METAR COR ESMX 152220Z 22008KT 9999 OVC010 06/04 Q1020=
201312152150 METAR ESMX 152150Z 23006KT 9999 FEW010 SCT013 OVC016 06/04 Q1020=
201312152120 METAR ESMX 152120Z AUTO 23006KT 200V260 9999 FEW013/// BKN017/// 06/04 Q1020=
201312152050 METAR ESMX 152050Z 22008KT 9999 FEW010 SCT014 BKN018 06/05 Q1020=
201312152020 METAR COR ESMX 152020Z 22006KT 9999 FEW013 OVC020 06/05 Q1020=
201312151950 METAR ESMX 151950Z 24007KT 9999 FEW011 SCT015 BKN017 06/05 Q1020=
201312151920 METAR ESMX 151920Z 22005KT 9999 FEW011 SCT017 BKN022 06/05 Q1019=
201312151850 METAR ESMX 151850Z 22006KT 9999 BKN019 BKN024 06/05 Q1019=
201312151820 METAR ESMX 151820Z 23006KT 9999 BKN018 06/05 Q1019=
201312151750 METAR ESMX 151750Z 23006KT 9999 FEW005 OVC017 06/05 Q1018=
201312151720 METAR ESMX 151720Z 21006KT 9999 FEW013 OVC017 06/05 Q1018=
201312151650 METAR ESMX 151650Z 22006KT 9999 BKN003 BKN017 06/05 Q1017=
201312151620 METAR ESMX 151620Z 23006KT 9999 FEW002 BKN004 BKN020 06/05 Q1017=
201312151550 METAR ESMX 151550Z AUTO 21007KT 9999 BKN001/// OVC004/// 06/05 Q1017=
201312151520 METAR ESMX 151520Z 21008KT 2500 BR OVC001 05/05 Q1016=
201312151450 METAR ESMX 151450Z 21008KT 3900 -DZ BR OVC002 05/04 Q1016=
201312151420 METAR ESMX 151420Z 19009KT 4600 BR OVC002 05/04 Q1015=
201312151350 METAR ESMX 151350Z AUTO 20008KT 8000 BR OVC003/// 05/04 Q1015=
201312151320 METAR ESMX 151320Z AUTO 22010KT 5000 -RA OVC003/// 05/04 Q1015 REDZ=
201312151250 METAR ESMX 151250Z AUTO 21009KT 4100 BR OVC003/// 05/04 Q1015 REDZ=
201312151220 METAR ESMX 151220Z AUTO 20010KT 6000 BR OVC004/// 05/04 Q1014=
201312151150 METAR ESMX 151150Z AUTO 19011KT 9000 BR OVC004/// 04/04 Q1015 REDZ=
201312151120 METAR ESMX 151120Z AUTO 21011KT 3400 -DZ SCT003/// OVC005/// 04/03 Q1014=
201312151050 METAR ESMX 151050Z AUTO 19012KT 3000 BR OVC004/// 04/03 Q1014 REDZ=
201312151020 METAR ESMX 151020Z AUTO 18012KT 5000 BR OVC004/// 04/03 Q1014 REDZ=
201312150950 METAR ESMX 150950Z AUTO 18014KT 6000 -DZ OVC004/// 04/03 Q1015 REDZ=
201312150920 METAR ESMX 150920Z AUTO 18012KT 5000 DZ OVC004/// 04/03 Q1015=
201312150850 METAR ESMX 150850Z AUTO 17013KT 3200 RA OVC003/// 04/03 Q1015=
201312150820 METAR ESMX 150820Z AUTO 17012KT 5000 -RA OVC003/// 04/03 Q1015 REDZ=
201312150750 METAR ESMX 150750Z AUTO 18011KT 6000 BR OVC004/// 04/03 Q1015=
201312150720 METAR ESMX 150720Z AUTO 20011KT 7000 BR OVC003/// 03/03 Q1016=
201312150650 METAR ESMX 150650Z AUTO 17010KT 7000 BR OVC003/// 03/02 Q1016=
201312150620 METAR ESMX 150620Z 17010KT 9000 BR OVC004 03/02 Q1016=
201312150550 METAR ESMX 150550Z AUTO 16009KT 9999 OVC005/// 03/02 Q1016=
201312150520 METAR ESMX 150520Z AUTO 17010KT 9999 SCT006/// BKN008/// OVC011/// 03/02 Q1017=
201312150450 METAR ESMX 150450Z AUTO 18009KT 9999 FEW007/// BKN008/// 03/02 Q1017=
201312150420 METAR ESMX 150420Z AUTO 19008KT 9999 FEW006/// BKN009/// 03/02 Q1018=
201312150350 METAR ESMX 150350Z AUTO 20009KT 9999 FEW006/// BKN008/// OVC011/// 03/02 Q1018=
201312150320 METAR ESMX 150320Z AUTO 19008KT 9999 FEW006/// SCT007/// BKN009/// 03/03 Q1018=
201312150250 METAR ESMX 150250Z AUTO 19008KT 9999 BKN005/// OVC009/// 03/03 Q1017=
201312150220 METAR ESMX 150220Z AUTO 21008KT 9000 BR FEW004/// SCT006/// BKN009/// 03/03 Q1018=
201312150150 METAR ESMX 150150Z AUTO 22007KT 9000 BR FEW006/// BKN008/// OVC010/// 03/03 Q1019=
201312150120 METAR ESMX 150120Z AUTO 22008KT 6000 BR FEW004/// SCT009/// BKN011/// 03/03 Q1019=
201312150050 METAR ESMX 150050Z AUTO 21005KT 7000 FEW001/// SCT004/// BKN006/// 03/03 Q1019=
201312150020 METAR ESMX 150020Z AUTO 22007KT 180V250 2200 OVC001/// 03/03 Q1018=
201312142350 METAR ESMX 142350Z AUTO 21007KT 0550 R01/1200V1500U R19/1500V1700N FG VV001 03/03 Q1019=
201312142320 METAR ESMX 142320Z AUTO 22008KT 0600 R01/1400V1700N R19/P2000N FG VV002 04/03 Q1018=
201312142250 METAR ESMX 142250Z AUTO 21005KT 3300 BR OVC001/// 04/03 Q1018 REDZ=
201312142220 METAR ESMX 142220Z AUTO 23006KT 2000 BR OVC001/// 04/03 Q1019=
201312142150 METAR ESMX 142150Z AUTO 23006KT 200V260 5000 BR OVC002/// 04/04 Q1019=
201312142120 METAR ESMX 142120Z 22006KT 3800 -DZ BKN002 OVC010 04/04 Q1019 REDZ=
201312142050 METAR ESMX 142050Z 23006KT 3500 -RA FEW001 OVC003 04/04 Q1019=
201312142020 METAR ESMX 142020Z 23005KT 1500 R01/P2000N R19/P2000N -RA VV002 05/04 Q1019=
201312141950 METAR ESMX 141950Z 21006KT 0250 R01/0750V0900N R19/0900V1000N FG VV002 05/04 Q1018=
201312141920 METAR ESMX 141920Z 22006KT 0300 R01/0800V0900N R19/1000V1200D FG VV002 05/04 Q1019=
201312141850 METAR ESMX 141850Z AUTO 22005KT 0200 R01/0650N R19/0700N FG VV001 05/04 Q1018=
201312141820 METAR ESMX 141820Z AUTO 20004KT 0200 R01/0650N R19/0650N FG VV001 05/04 Q1018=
201312141750 METAR ESMX 141750Z AUTO 18005KT 150V210 0300 R01/0750V1600D R19/P2000N FG VV002 05/04 Q1018=
201312141720 METAR ESMX 141720Z AUTO 21006KT 0800 R01/P2000N R19/P2000N FG VV002 05/04 Q1018=
201312141650 METAR ESMX 141650Z AUTO 20005KT 0450 R01/1100V1300N R19/1200V1900U FG VV001 05/04 Q1018=
201312141620 METAR ESMX 141620Z AUTO 21006KT 0350 R01/0900V1100N R19/1100V1200N FG VV001 05/04 Q1018=
201312141550 METAR ESMX 141550Z AUTO 19007KT 0450 R01/1100V1300N R19/1200V1300N FG VV001 05/04 Q1018=
201312141520 METAR ESMX 141520Z AUTO 19006KT 0450 R01/1100V1400D R19/1300V1600D FG VV001 05/04 Q1018=
201312141450 METAR ESMX 141450Z AUTO 18006KT 150V210 0750 R01/1600V1800N R19/1800VP2000N FG VV001 04/04 Q1018=
201312141420 METAR ESMX 141420Z AUTO 17007KT 0750 R01/1400V1500N R19/1700VP2000D FG VV001 05/04 Q1018=
201312141350 METAR ESMX 141350Z AUTO 17006KT 0800 R01/1200V1500N R19/1300V1800U FG VV001 04/04 Q1017=
201312141320 METAR ESMX 141320Z AUTO 17008KT 0500 R01/0800V0900N R19/0900V1000N FG VV001 04/04 Q1018=
201312141250 METAR ESMX 141250Z AUTO 17007KT 0450 R01/0800V0900N R19/0900V1000N FG VV001 04/04 Q1018=
201312141220 METAR ESMX 141220Z AUTO 16008KT 0650 R01/0900V1100N R19/1100V1300N FG VV001 04/04 Q1018=
201312141150 METAR ESMX 141150Z AUTO 16007KT 0650 R01/0900V1100N R19/1100V1400N FG VV001 04/04 Q1018=
201312141120 METAR ESMX 141120Z AUTO 16007KT 0600 R01/0900V1100N R19/0900V1100N FG VV001 04/04 Q1018=
201312141050 METAR ESMX 141050Z AUTO 16007KT 0900 R01/1100V1400N R19/1300V1600N FG VV002 04/04 Q1018=
201312141020 METAR ESMX 141020Z AUTO 17007KT 140V200 0800 R01/1100V1300N R19/1200V1600N FG VV002 04/03 Q1018=
201312140950 METAR ESMX 140950Z AUTO 18008KT 0750 R01/1000V1200N R19/1200V1300N FG VV001 04/03 Q1018=
201312140920 METAR ESMX 140920Z AUTO 17007KT 0650 R01/0900V1100N R19/0900V1100N FG VV001 04/03 Q1018=
201312140850 METAR ESMX 140850Z AUTO 17004KT 140V200 0400 R01/0800N R19/0800V0900N FG VV001 03/03 Q1018=
201312140820 METAR ESMX 140820Z AUTO 15006KT 130V190 0450 R01/0800V1000D R19/1000V1400D FG VV001 03/03 Q1018=
201312140750 METAR ESMX 140750Z AUTO 16005KT 130V200 1200 R01/P2000N R19/P2000N BR VV002 03/03 Q1018=
201312140720 METAR ESMX 140720Z AUTO 15004KT 120V180 1500 BR VV002 03/02 Q1018=
201312140650 METAR ESMX 140650Z AUTO 15004KT 120V200 3000 BR OVC001/// 03/02 Q1018 REDZ=
201312140620 METAR ESMX 140620Z AUTO 14005KT 100V170 3300 BR OVC001/// 03/02 Q1018 REDZ=
201312140550 METAR ESMX 140550Z AUTO 14006KT 4300 BR OVC001/// 03/02 Q1018=
201312140520 METAR ESMX 140520Z AUTO 13006KT 110V170 2800 DZ OVC001/// 03/02 Q1018=
201312140450 METAR ESMX 140450Z AUTO 14005KT 100V160 2800 DZ OVC001/// 03/02 Q1018=
201312140420 METAR ESMX 140420Z AUTO 14006KT 2400 +DZ OVC001/// 02/02 Q1018=
201312140350 METAR ESMX 140350Z AUTO 14005KT 100V170 3000 DZ OVC002/// 02/02 Q1018=
201312140320 METAR ESMX 140320Z AUTO 13005KT 090V160 3300 DZ OVC002/// 02/01 Q1019=
201312140250 METAR ESMX 140250Z AUTO 13004KT 100V190 2800 -RA OVC003/// 02/01 Q1019 REDZ=
201312140220 METAR ESMX 140220Z AUTO 13004KT 090V160 3200 DZ FEW002/// OVC004/// 02/01 Q1019=
201312140150 METAR ESMX 140150Z AUTO 12004KT 080V160 2600 DZ OVC005/// 01/01 Q1020=
201312140120 METAR ESMX 140120Z AUTO 12004KT 080V160 4500 -DZ OVC006/// 01/00 Q1020=
201312140050 METAR ESMX 140050Z AUTO 13005KT 090V160 9999 OVC007/// 01/M00 Q1020=
201312140020 METAR ESMX 140020Z AUTO 13005KT 100V170 9000 OVC008/// 01/M00 Q1020=
201312132350 METAR ESMX 132350Z AUTO 14005KT 9999 OVC010/// 01/M01 Q1020=
201312132320 METAR ESMX 132320Z AUTO 14005KT 100V170 9999 OVC012/// 01/M01 Q1021=
201312132250 METAR ESMX 132250Z AUTO 14006KT 110V170 9999 FEW014/// BKN017/// OVC022/// 01/M01 Q1021=
201312132220 METAR ESMX 132220Z AUTO 13004KT 100V170 9999 SCT022/// BKN051/// 01/M02 Q1021=
201312132150 METAR ESMX 132150Z AUTO 13004KT 090V180 9999 FEW020/// SCT087/// 01/M02 Q1021=
201312132120 METAR ESMX 132120Z AUTO VRB03KT 9999 BKN087/// 01/M02 Q1021=
201312132050 METAR ESMX 132050Z AUTO VRB03KT 9999 BKN088/// 00/M02 Q1021=
201312132020 METAR ESMX 132020Z AUTO VRB03KT 9999 SCT097/// M01/M03 Q1022=
201312131950 METAR ESMX 131950Z AUTO VRB02KT 9999 FEW110/// M02/M03 Q1022=
201312131920 METAR ESMX 131920Z AUTO 07003KT 020V120 9999 FEW100/// M02/M03 Q1021=
201312131850 METAR ESMX 131850Z AUTO VRB01KT 9999 NCD M03/M04 Q1022=
201312131820 METAR ESMX 131820Z VRB02KT CAVOK M02/M04 Q1022=
201312131750 METAR ESMX 131750Z VRB03KT CAVOK M01/M03 Q1022=
201312131720 METAR ESMX 131720Z 09003KT CAVOK M01/M03 Q1022=
201312131650 METAR ESMX 131650Z 08004KT CAVOK M01/M03 Q1022=
201312131620 METAR ESMX 131620Z 06003KT CAVOK 00/M03 Q1022=
201312131520 METAR ESMX 131520Z 07003KT CAVOK M01/M02 Q1022=
201312131450 METAR ESMX 131450Z 07002KT CAVOK M00/M02 Q1022=
201312131420 METAR COR ESMX 131420Z 07003KT CAVOK 02/M01 Q1021=
201312131350 METAR ESMX 131350Z VRB01KT CAVOK 03/M00 Q1021=
201312131320 METAR ESMX 131320Z VRB02KT CAVOK 05/M01 Q1021=
201312131250 METAR ESMX 131250Z VRB03KT CAVOK 06/M01 Q1021=
201312131220 METAR ESMX 131220Z 05003KT 020V090 CAVOK 05/M00 Q1021=
201312131150 METAR COR ESMX 131150Z 04005KT CAVOK 05/00 Q1021=
201312131120 METAR ESMX 131120Z 04005KT 020V080 CAVOK 05/01 Q1021=
201312131050 METAR ESMX 131050Z 03004KT 010V070 CAVOK 05/04 Q1021=
201312131020 METAR ESMX 131020Z 01003KT CAVOK 05/04 Q1021=
201312130950 METAR ESMX 130950Z 00000KT 0200 R01/0400V0600N R19/0300V0500N FG NSC 03/03 Q1021=
201312130920 METAR ESMX 130920Z 01002KT 0300 R01/0325VP2000N R19/0350V0500N BCFG NSC 04/03 Q1020=
201312130850 METAR ESMX 130850Z AUTO 02004KT 9000 FEW004/// SCT005/// 04/04 Q1020=
201312130820 METAR ESMX 130820Z 35005KT 4400 BR BKN002 OVC004 05/04 Q1020=
201312130750 METAR ESMX 130750Z 34004KT 1100 R01/1100V1700U R19/1800VP2000N BR VV002 05/04 Q1020=
201312130720 METAR ESMX 130720Z 33003KT 0800 R01/P2000N R19/1300VP2000D FG VV002 05/05 Q1019=
201312130650 METAR ESMX 130650Z 29004KT 0900 R01/P2000N R19/P2000N FG VV002 05/05 Q1019=
201312130620 METAR ESMX 130620Z 28004KT 1100 R01/P2000N R19/P2000N BR VV002 05/05 Q1019=
201312130550 METAR ESMX 130550Z 29003KT 260V350 1800 BR VV002 05/05 Q1018=
201312130520 METAR ESMX 130520Z 30005KT 2200 BR VV002 05/05 Q1018=
201312130450 METAR ESMX 130450Z AUTO 26006KT 2900 BR OVC001/// 05/05 Q1017=
201312130420 METAR ESMX 130420Z AUTO 26006KT 5000 BR OVC001/// 05/04 Q1017=
201312130350 METAR ESMX 130350Z AUTO 27005KT 5000 BR OVC002/// 05/05 Q1018=
201312130320 METAR ESMX 130320Z AUTO 28006KT 2100 BR OVC002/// 05/05 Q1017=
201312130250 METAR ESMX 130250Z AUTO 29006KT 2100 BR OVC002/// 05/04 Q1017=
201312130220 METAR ESMX 130220Z AUTO 26006KT 230V300 2700 BR OVC002/// 05/04 Q1017=
201312130150 METAR ESMX 130150Z AUTO 27008KT 4000 BR OVC002/// 05/04 Q1016=
201312130120 METAR COR ESMX 130120Z 27010KT 3800 BR OVC002 05/04 Q1016=
201312130050 METAR ESMX 130050Z 24010KT 4900 BR OVC003 05/04 Q1015=
201312130020 METAR ESMX 130020Z 26012KT 230V300 7000 BR OVC004 05/04 Q1016=
201312122350 METAR COR ESMX 122350Z 27011KT 7000 BR OVC005 05/04 Q1015=
201312122320 METAR ESMX 122320Z 26012KT 7000 BR OVC006 05/03 Q1015=
201312122250 METAR ESMX 122250Z 26011KT 220V290 7000 BR OVC007 05/03 Q1015=
201312122220 METAR ESMX 122220Z 24012KT 9999 OVC008 05/03 Q1015=
201312122150 METAR ESMX 122150Z 24010KT 210V270 9999 OVC010 04/02 Q1015=
201312122120 METAR ESMX 122120Z 23012KT 9999 OVC012 04/01 Q1015=
201312122050 METAR ESMX 122050Z 24014KT 9999 BKN012 04/01 Q1015=
201312122020 METAR ESMX 122020Z 24012KT CAVOK 03/00 Q1015=
201312121950 METAR ESMX 121950Z 23010KT CAVOK 03/00 Q1015=
201312121920 METAR COR ESMX 121920Z 24011KT CAVOK 03/01 Q1015=
201312121850 METAR ESMX 121850Z 23012KT CAVOK 03/01 Q1015=
201312121820 METAR ESMX 121820Z 23012KT CAVOK 03/01 Q1016=
201312121750 METAR ESMX 121750Z 21012G25KT CAVOK 04/01 Q1016=
201312121720 METAR ESMX 121720Z 23012KT CAVOK 03/01 Q1017=
201312121650 METAR ESMX 121650Z 22012KT CAVOK 03/01 Q1017=
201312121620 METAR ESMX 121620Z 22012KT CAVOK 02/M00 Q1018=
201312121550 METAR ESMX 121550Z 21011KT CAVOK 02/M00 Q1018=
201312121520 METAR ESMX 121520Z 22010KT CAVOK 02/M01 Q1018=
201312121450 METAR ESMX 121450Z 22009KT CAVOK 02/M01 Q1019=
201312121420 METAR ESMX 121420Z VRB08KT 040V230 CAVOK 02/M01 Q1019=
201312121350 METAR ESMX 121350Z 21009KT CAVOK 02/M00 Q1020=
201312121320 METAR ESMX 121320Z 21010KT CAVOK 03/00 Q1020=
201312121250 METAR ESMX 121250Z 22008KT CAVOK 03/01 Q1020=
201312121220 METAR ESMX 121220Z 22008KT 9000 BR NSC 03/01 Q1021=
201312121150 METAR ESMX 121150Z 22008KT 7000 BR NSC 03/01 Q1021=
201312121120 METAR ESMX 121120Z 20007KT 7000 BR SCT005 02/01 Q1022=
201312121050 METAR ESMX 121050Z AUTO 23006KT 6000 BR BKN005/// 02/01 Q1022=
201312121020 METAR ESMX 121020Z 22008KT 6000 BR BKN005 02/01 Q1022=
201312120950 METAR ESMX 120950Z 22009KT 5000 BR BKN005 02/01 Q1023=
201312120920 METAR ESMX 120920Z AUTO 21008KT 6000 BR OVC005/// 02/01 Q1023=
201312120850 METAR ESMX 120850Z 24008KT 7000 BR BKN005 02/01 Q1023=
201312120820 METAR ESMX 120820Z 23007KT 200V260 7000 BR BKN005 02/01 Q1023=
201312120750 METAR ESMX 120750Z 24008KT 9000 BR BKN005 03/01 Q1023=
201312120720 METAR ESMX 120720Z 22008KT 9999 FEW006 BKN008 03/02 Q1023=
201312120650 METAR ESMX 120650Z 24008KT 210V010 9999 FEW006 BKN007 04/03 Q1023=
201312120620 METAR ESMX 120620Z 22007KT 9999 BKN006 04/03 Q1023=
201312120550 METAR ESMX 120550Z 23007KT 9999 BKN006 05/04 Q1023=
201312120520 METAR COR ESMX 120520Z 24009KT 9999 BKN006 OVC009 05/04 Q1024=
201312120450 METAR ESMX 120450Z 24009KT 190V260 8000 BR OVC002 05/05 Q1024=
201312120420 METAR ESMX 120420Z AUTO 25008KT 2000 VV002 05/05 Q1024=
201312120350 METAR ESMX 120350Z AUTO 24009KT 1200 R01/P2000N R19/P2000N BR OVC001/// 06/05 Q1024=
201312120320 METAR ESMX 120320Z AUTO 26008KT 2000 OVC001/// 06/05 Q1025=
201312120250 METAR ESMX 120250Z AUTO 24005KT 1600 OVC001/// 06/05 Q1025=
201312120220 METAR ESMX 120220Z AUTO 25007KT 0800 R01/1700VP2000N R19/P2000N FG VV001 06/05 Q1025=
201312120150 METAR ESMX 120150Z AUTO 26008KT 0650 R01/1400V1800U R19/1700V1900N FG VV001 06/05 Q1025=
201312120120 METAR ESMX 120120Z AUTO 27007KT 1200 R01/P2000N R19/P2000N OVC001/// 06/05 Q1025=
201312120050 METAR ESMX 120050Z 27006KT 240V030 0900 R01/P2000N R19/P2000N FG VV002 06/05 Q1025=
201312120020 METAR ESMX 120020Z 27008KT 1000 R01/P2000N R19/P2000N FG VV002 06/05 Q1025=
201312112350 METAR ESMX 112350Z 26009KT 0800 R01/1800VP2000N R19/P2000N FG VV002 06/05 Q1025=
201312112320 METAR ESMX 112320Z 24007KT 1000 R01/P2000N R19/P2000N BR OVC001 06/05 Q1025=
201312112250 METAR ESMX 112250Z 25006KT 1200 R01/P2000N R19/P2000N BR OVC001 06/05 Q1025=
201312112220 METAR ESMX 112220Z 26008KT 1300 R01/P2000N R19/P2000N BR OVC002 05/05 Q1025=
201312112150 METAR ESMX 112150Z 26008KT 1500 BR OVC002 05/05 Q1025=
201312112120 METAR ESMX 112120Z 25008KT 1600 BR OVC002 05/05 Q1025=
201312112050 METAR ESMX 112050Z 25007KT 1900 BR OVC002 05/05 Q1025=
201312112020 METAR ESMX 112020Z 25008KT 2200 BR OVC002 05/04 Q1025=
201312111950 METAR ESMX 111950Z 26008KT 2200 BR OVC002 05/04 Q1025=
201312111920 METAR ESMX 111920Z 26009KT 2400 BR OVC001 05/04 Q1025=
201312111850 METAR ESMX 111850Z 25009KT 2800 BR OVC002 05/04 Q1025=
201312111820 METAR ESMX 111820Z 26007KT 3300 BR OVC002 05/04 Q1025=
201312111750 METAR ESMX 111750Z 26007KT 240V300 3200 BR FEW003 OVC004 05/04 Q1025=
201312111720 METAR ESMX 111720Z 25007KT 6000 BR OVC005 05/04 Q1025=
201312111650 METAR ESMX 111650Z 25008KT 9999 FEW007 OVC008 05/03 Q1025=
201312111620 METAR ESMX 111620Z 24007KT 9999 OVC011 05/03 Q1025=
201312111550 METAR ESMX 111550Z 25008KT 9999 OVC011 05/03 Q1026=
201312111520 METAR ESMX 111520Z 26009KT 9999 FEW009 OVC010 05/03 Q1026=
201312111450 METAR ESMX 111450Z 26011KT 9000 BR OVC006 05/04 Q1026=
201312111420 METAR ESMX 111420Z AUTO 25010KT 230V290 9999 FEW006/// OVC007/// 05/04 Q1026=
201312111350 METAR ESMX 111350Z 26009KT 220V290 7000 BR OVC005 05/04 Q1026=
201312111320 METAR ESMX 111320Z 26008KT 5000 BR FEW004 OVC005 05/04 Q1026=
201312111250 METAR ESMX 111250Z 26008KT 5000 BR OVC003 05/04 Q1026=
201312111220 METAR ESMX 111220Z 24008KT 210V270 4600 BR OVC002 05/04 Q1026=
201312111150 METAR ESMX 111150Z 26009KT 5000 BR OVC002 05/04 Q1026=
201312111120 METAR ESMX 111120Z 26007KT 4800 BR OVC002 05/04 Q1026=
201312111050 METAR ESMX 111050Z 26009KT 230V290 3700 BR OVC001 05/04 Q1026=
201312111020 METAR ESMX 111020Z 26010KT 210V280 3200 BR OVC001 05/05 Q1026=
201312110950 METAR ESMX 110950Z 25008KT 3100 BR OVC002 05/05 Q1026=
201312110920 METAR ESMX 110920Z 25007KT 1200 R01/1400VP2000U R19/1500VP2000N BR VV002 05/05 Q1026=
201312110850 METAR ESMX 110850Z 24006KT 0600 R01/1000V1100N R19/1200V1300N FG VV002 05/04 Q1026=
201312110820 METAR ESMX 110820Z 24007KT 0400 R01/0800V0900N R19/0900V1200U FG VV002 05/04 Q1026=
201312110750 METAR ESMX 110750Z 23007KT 0300 R01/0750N R19/0800V0900N FG VV002 05/04 Q1026=
201312110720 METAR ESMX 110720Z 23007KT 0250 R01/0750N R19/0800V0900N FG VV002 05/04 Q1026=
201312110650 METAR ESMX 110650Z 23005KT 0250 R01/0700V0800N R19/1000V1200D FG VV002 05/04 Q1026=
201312110620 METAR ESMX 110620Z 24006KT 210V280 0350 R01/0900V1200N R19/1100VP2000U FG VV002 05/04 Q1026=
201312110550 METAR ESMX 110550Z 25007KT 0600 R01/1100V1700D R19/1400V1700D FG VV003 05/04 Q1026=
201312110520 METAR ESMX 110520Z 24008KT 0900 R01/P2000N R19/P2000N BCFG OVC002 05/04 Q1026=
201312110450 METAR ESMX 110450Z 25007KT 2000 BR OVC002 05/04 Q1026=
201312110420 METAR ESMX 110420Z AUTO 25007KT 2400 BR OVC001/// 05/04 Q1026=
201312110350 METAR ESMX 110350Z AUTO 26009KT 4500 BR OVC002/// 05/04 Q1026=
201312110320 METAR ESMX 110320Z AUTO 24008KT 8000 BR OVC004/// 04/03 Q1026=
201312110250 METAR ESMX 110250Z AUTO 25008KT 9000 BR OVC004/// 04/03 Q1026=
201312110220 METAR ESMX 110220Z AUTO 25007KT 9999 OVC006/// 04/03 Q1026=
201312110150 METAR ESMX 110150Z AUTO 24009KT 9999 FEW006/// BKN007/// OVC009/// 04/03 Q1027=
201312110120 METAR ESMX 110120Z AUTO 23009KT 9999 FEW010/// OVC016/// 04/03 Q1027=
201312110050 METAR ESMX 110050Z 22008KT 9999 OVC020 04/02 Q1027=
201312110020 METAR ESMX 110020Z 26008KT 9999 OVC013 04/03 Q1027=
201312102350 METAR ESMX 102350Z 26009KT 9999 OVC012 04/03 Q1027=
201312102320 METAR ESMX 102320Z 25011KT 9999 FEW010 OVC012 04/03 Q1027=
201312102250 METAR ESMX 102250Z 25009KT 9999 FEW010 OVC012 04/03 Q1027=
201312102220 METAR ESMX 102220Z 26008KT 220V300 9999 BKN010 OVC016 04/03 Q1027=
201312102150 METAR ESMX 102150Z 25009KT 9999 OVC012 04/04 Q1027=
201312102120 METAR ESMX 102120Z 26009KT 9999 OVC011 04/04 Q1027=
201312102050 METAR ESMX 102050Z 26008KT 9999 FEW009 BKN014 OVC018 04/04 Q1028=
201312102020 METAR COR ESMX 102020Z 26008KT 230V300 9999 FEW006 BKN013 04/04 Q1028=
201312101950 METAR ESMX 101950Z 24007KT 210V290 7000 BR SCT003 BKN006 05/04 Q1028=
201312101920 METAR COR ESMX 101920Z 24007KT 2300 BR OVC002 05/05 Q1028=
201312101850 METAR ESMX 101850Z 24007KT 210V270 1500 R01/P2000N R19/1000VP2000N BR VV002 05/05 Q1027=
201312101820 METAR COR ESMX 101820Z 24006KT 0250 R01/0750N R19/0800N FG VV002 05/05 Q1028=
201312101750 METAR ESMX 101750Z 23007KT 0200 R01/0750N R19/0750N FG VV002 05/04 Q1027=
201312101720 METAR ESMX 101720Z 24008KT 0200 R01/0700N R19/0750N FG VV002 05/04 Q1027=
201312101650 METAR ESMX 101650Z 24007KT 0200 R01/0550V0750N R19/0750N FG VV002 05/04 Q1028=
201312101620 METAR ESMX 101620Z 24007KT 0250 R01/0800N R19/0800V0900N FG VV002 05/04 Q1028=
201312101550 METAR ESMX 101550Z 23007KT 0250 R01/0800N R19/0800V1000N FG VV002 05/04 Q1028=
201312101520 METAR ESMX 101520Z 21007KT 0250 R01/0800V1400D R19/0700V1000N FG VV002 04/03 Q1028=
201312101450 METAR ESMX 101450Z 17006KT 0250 R01/0700N R19/0700N FG VV002 04/04 Q1028=
201312101420 METAR ESMX 101420Z 21007KT 0400 R01/0900V1700N R19/0800V1500U FG VV002 04/03 Q1028=
201312101350 METAR ESMX 101350Z 20006KT 0300 R01/0600V0800U R19/0700N FG VV002 04/03 Q1028=
201312101320 METAR ESMX 101320Z 18005KT 0200 R01/0500N R19/0450N FG VV001 04/03 Q1028=
201312101250 METAR ESMX 101250Z 19005KT 0250 R01/0450N R19/0450N FG VV001 03/03 Q1028=
201312101220 METAR ESMX 101220Z 18004KT 0150 R01/0375N R19/0350N FG VV002 04/03 Q1028=
201312101150 METAR ESMX 101150Z 19004KT 0150 R01/0350N R19/0375N FG VV002 04/03 Q1028=
201312101120 METAR ESMX 101120Z 21005KT 0150 R01/0375N R19/0350N FG VV002 03/03 Q1028=
201312101050 METAR ESMX 101050Z 20005KT 170V240 0200 R01/0400N R19/0400N FG VV002 03/03 Q1028=
201312101020 METAR ESMX 101020Z AUTO 21005KT 0200 R01/0450N R19/0400V0550N FG VV001 03/02 Q1028=
201312100950 METAR ESMX 100950Z 20008KT 0700 R01/0900V1000N R19/0900V1000U FG VV002 03/02 Q1028=
201312100920 METAR ESMX 100920Z 21007KT 0550 R01/0800V0900N R19/0800V1000N FG VV002 02/02 Q1028=
201312100850 METAR ESMX 100850Z 18005KT 0300 R01/0600N R19/0550N FG VV002 02/02 Q1028=
201312100820 METAR ESMX 100820Z 17005KT 0300 R01/0700N R19/0600V0750N FG VV002 02/02 Q1028=
201312100750 METAR ESMX 100750Z 18007KT 0350 R01/0750N R19/0800N FG VV002 02/02 Q1028=
201312100720 METAR ESMX 100720Z 18007KT 0500 R01/1000V1300N R19/1200V1300N FG VV002 02/02 Q1028=
201312100650 METAR ESMX 100650Z 18006KT 0800 R01/1700VP2000D R19/1900VP2000D FG VV002 02/02 Q1028=
201312100620 METAR ESMX 100620Z 18007KT 1200 R01/P2000N R19/P2000N BR VV002 02/02 Q1028=
201312100550 METAR ESMX 100550Z 17006KT 2100 BR OVC001 02/02 Q1028=
201312100520 METAR ESMX 100520Z 18007KT 2100 BR OVC002 02/02 Q1028=
201312100450 METAR ESMX 100450Z 17009KT 2000 DZ OVC002 02/01 Q1028=
201312100420 METAR ESMX 100420Z AUTO 17009KT 2300 BR OVC001/// 02/01 Q1028=
201312100350 METAR ESMX 100350Z AUTO 17007KT 2700 BR OVC001/// 02/01 Q1028=
201312092350 METAR ESMX 092350Z 14006KT 2100 BR OVC003 01/M00 Q1027=
201312092320 METAR ESMX 092320Z 15006KT 2300 BR OVC003 00/M00 Q1027=
201312092250 METAR ESMX 092250Z 13005KT 2300 BR FEW003 OVC005 00/M00 Q1027=
201312092220 METAR ESMX 092220Z 14005KT 4600 BR SCT003 OVC005 00/M00 Q1027=
201312092150 METAR ESMX 092150Z 13004KT 080V160 2800 BR OVC003 00/M00 Q1027=
201312092120 METAR ESMX 092120Z 13004KT 090V170 3100 BR FEW003 BKN005 00/M01 Q1027=
201312092050 METAR ESMX 092050Z 14004KT 100V170 5000 -DZ FEW004 BKN007 OVC009 00/M01 Q1027=
201312092020 METAR ESMX 092020Z 14005KT 5000 -DZ FEW006 OVC010 00/M01 Q1026=
201312091950 METAR ESMX 091950Z 14004KT 110V170 9999 OVC011 00/M01 Q1026=
201312091920 METAR ESMX 091920Z 13004KT 090V160 9999 OVC014 M00/M01 Q1025=
201312091850 METAR ESMX 091850Z 13003KT 080V160 7000 BR OVC013 M00/M01 Q1025=
201312091820 METAR ESMX 091820Z VRB03KT 9999 OVC014 M00/M01 Q1025=
201312091750 METAR ESMX 091750Z VRB03KT 9999 OVC015 M00/M01 Q1024=
201312091720 METAR ESMX 091720Z 12003KT 070V150 9999 SCT018 OVC021 M00/M01 Q1024=
201312091650 METAR ESMX 091650Z VRB03KT 9999 FEW002 BKN020 OVC037 M00/M01 Q1024=
201312091620 METAR ESMX 091620Z VRB02KT 9999 BKN002 M00/M01 Q1023=
201312091550 METAR ESMX 091550Z 08003KT 9999 BKN003 00/M01 Q1023=
201312091520 METAR ESMX 091520Z VRB02KT 9999 FEW019 BKN061 00/M01 Q1023=
201312091450 METAR ESMX 091450Z 10002KT 9999 FEW035 BKN067 00/M01 Q1022=
201312091420 METAR ESMX 091420Z 07002KT 9999 FEW036 00/M01 Q1021=
201312091350 METAR ESMX 091350Z VRB03KT CAVOK 00/M01 Q1021=
201312091320 METAR ESMX 091320Z 00000KT CAVOK 01/M01 Q1020=
201312091250 METAR ESMX 091250Z 00000KT CAVOK 01/M01 Q1020=
201312091220 METAR ESMX 091220Z 00000KT 9999 FEW006 01/M01 Q1019=
201312091150 METAR ESMX 091150Z VRB02KT 9999 FEW005 BKN062 01/M01 Q1019=
201312091120 METAR ESMX 091120Z 04003KT 9999 SCT004 BKN014 OVC062 01/M01 Q1019=
201312091050 METAR ESMX 091050Z 06003KT 9999 SCT004 BKN064 01/M01 Q1018=
201312091020 METAR ESMX 091020Z 00000KT 9999 FEW003 OVC065 00/M01 Q1018=
201312090950 METAR ESMX 090950Z 36002KT 9999 FEW003 SCT014 BKN074 M00/M01 Q1017=
201312090920 METAR ESMX 090920Z 00000KT 9999 FEW002 SCT004 BKN014 M00/M01 Q1017=
201312090850 METAR ESMX 090850Z 03003KT 9999 OVC002 M01/M01 Q1016=
201312090820 METAR ESMX 090820Z 32003KT 9999 OVC003 M01/M02 Q1015=
201312090750 METAR ESMX 090750Z 30003KT 9999 OVC003 M01/M02 Q1015=
201312090720 METAR ESMX 090720Z VRB02KT 9999 OVC003 M01/M02 Q1014=
201312090650 METAR ESMX 090650Z 31003KT 9999 OVC004 M01/M02 Q1013=
201312090620 METAR ESMX 090620Z 05004KT 030V100 9999 OVC004 M01/M02 Q1012=
201312090550 METAR ESMX 090550Z 02005KT 9999 OVC005 M01/M02 Q1012=
201312090520 METAR ESMX 090520Z 02005KT 9999 OVC006 M01/M02 Q1011=
201312090450 METAR ESMX 090450Z 02005KT 9999 OVC007 M01/M02 Q1011=
201312090420 METAR ESMX 090420Z AUTO 01006KT 9999 OVC007/// M01/M03 Q1010=
201312090350 METAR ESMX 090350Z AUTO 36009KT 9999 OVC008/// M01/M02 Q1010=
201312090320 METAR ESMX 090320Z AUTO 32007KT 9999 OVC008/// M01/M02 Q1009=
201312090250 METAR ESMX 090250Z AUTO 32005KT 9999 FEW010/// SCT013/// M01/M03 Q1009=
201312090220 METAR ESMX 090220Z AUTO 30005KT 9999 NCD M01/M02 Q1008=
201312090150 METAR ESMX 090150Z AUTO 31008KT 290V350 9999 FEW014/// BKN016/// M00/M02 Q1008=
201312090120 METAR ESMX 090120Z 32008KT 9999 FEW012 OVC016 M00/M02 Q1007=
201312090050 METAR ESMX 090050Z 34009KT 9999 BKN013 00/M02 Q1007=
201312082320 METAR ESMX 082320Z 32011KT 9999 FEW009 OVC010 01/M01 Q1005=
201312082250 METAR ESMX 082250Z 31010KT 9999 FEW007 OVC009 01/M00 Q1004=
201312082220 METAR ESMX 082220Z 31009KT 260V330 9999 FEW007 OVC009 02/00 Q1004=
201312082150 METAR ESMX 082150Z 30008KT 9999 FEW008 BKN010 02/01 Q1003=
201312082120 METAR ESMX 082120Z 30010KT 9999 FEW005 OVC009 02/01 Q1003=
201312082050 METAR ESMX 082050Z 30011KT 9999 BKN006 02/02 Q1002=
201312082020 METAR ESMX 082020Z 30011KT 9999 FEW005 OVC007 03/02 Q1002=
201312081950 METAR ESMX 081950Z 31007KT 9999 SCT002 BKN005 03/03 Q1001=
201312081920 METAR ESMX 081920Z 28007KT 7000 BR OVC002 04/03 Q1001 REDZ=
201312081850 METAR ESMX 081850Z 26008KT 6000 BR OVC001 03/03 Q1000=
201312081820 METAR ESMX 081820Z 26007KT 3500 -DZ BR OVC003 03/03 Q1000=
201312081750 METAR ESMX 081750Z 25008KT 4700 BR OVC002 03/02 Q1000 REDZ=
201312081720 METAR ESMX 081720Z 23008KT 5000 -DZ FEW003 OVC004 02/02 Q1000=
201312081650 METAR ESMX 081650Z 23008KT 9000 DZ SCT002 OVC004 02/01 Q1000=
201312081620 METAR ESMX 081620Z 22008KT 6000 DZ OVC002 01/01 Q1000=
201312081550 METAR ESMX 081550Z 20008KT 7000 DZ BKN004 OVC006 01/00 Q1001=
201312081520 METAR ESMX 081520Z 18010KT 8000 -RA OVC004 01/00 Q1001=
201312081450 METAR ESMX 081450Z 16011KT 4400 SNRA OVC004 00/M00 Q1002=
201312081420 METAR ESMX 081420Z 16011KT 2300 SN FEW004 SCT005 OVC007 M00/M01 Q1002=
201312081350 METAR ESMX 081350Z 16012KT 1400 R01/P2000N R19/1500VP2000N SN FEW001 OVC005 M01/M01 Q1003=
201312081320 METAR ESMX 081320Z AUTO 15011KT 0900 R01/P2000N R19/1100VP2000D +FZRA VV002 M01/M02 Q1004=
201312081250 METAR ESMX 081250Z AUTO 15010KT 1700 +FZRA FEW002/// OVC005/// M02/M03 Q1005=
201312081220 METAR ESMX 081220Z AUTO 16009KT 120V190 0700 R01/P2000N R19/1200V1400N +FZRA FEW001/// BKN005/// M03/M03 Q1007=
201312081150 METAR ESMX 081150Z AUTO 15007KT 0800 R01/P2000N R19/0900V1400D +FZRA VV002 M03/M04 Q1008=
201312081120 METAR ESMX 081120Z AUTO 15006KT 110V170 0750 R01/P2000N R19/0900V1300N +FZRA FEW002/// BKN004/// M04/M05 Q1010=
201312081050 METAR ESMX 081050Z AUTO 15006KT 0900 R01/P2000N R19/0900V1400N +FZRA FEW002/// SCT005/// BKN008/// M04/M05 Q1011=
201312081020 METAR ESMX 081020Z AUTO 18009KT 3000 HZ FEW005/// BKN007/// M04/M06 Q1013=
201312080950 METAR ESMX 080950Z AUTO 18008KT 9999 FEW039/// M05/M08 Q1014=
201312080920 METAR ESMX 080920Z AUTO 16006KT 9999 FEW031/// M05/M09 Q1014=
201312080850 METAR ESMX 080850Z AUTO 16006KT 9999 SCT054/// M06/M09 Q1014=
201312080820 METAR ESMX 080820Z AUTO 15006KT 9999 FEW069/// M07/M10 Q1014=
201312080750 METAR ESMX 080750Z AUTO 15005KT 9999 FEW073/// M07/M10 Q1015=
201312080720 METAR ESMX 080720Z AUTO 16005KT 9999 FEW077/// M08/M10 Q1015=
201312080650 METAR ESMX 080650Z VRB03KT CAVOK M09/M11 Q1015=
201312080620 METAR ESMX 080620Z VRB02KT CAVOK M11/M13 Q1016=
201312080550 METAR ESMX 080550Z VRB03KT CAVOK M10/M12 Q1016=
201312080520 METAR ESMX 080520Z AUTO 23003KT 9999 FEW110/// M10/M12 Q1016=
201312080450 METAR ESMX 080450Z AUTO VRB01KT 9999 NCD M11/M13 Q1016=
201312080420 METAR ESMX 080420Z AUTO 18004KT 9999 NCD M11/M13 Q1016=
201312080350 METAR ESMX 080350Z AUTO 25004KT 9999 NCD M11/M13 Q1016=
201312080320 METAR ESMX 080320Z AUTO 26004KT 9999 NCD M12/M14 Q1016=
201312080250 METAR ESMX 080250Z AUTO 25004KT 9999 NCD M12/M14 Q1016=
201312080220 METAR ESMX 080220Z AUTO 26005KT 9999 NCD M11/M13 Q1016=
201312080150 METAR ESMX 080150Z AUTO 26005KT 9999 NCD M11/M13 Q1016=
201312080120 METAR ESMX 080120Z AUTO 26003KT 9999 NCD M11/M13 Q1016=
201312080050 METAR ESMX 080050Z AUTO 26004KT 9999 NCD M10/M12 Q1016=
201312080020 METAR ESMX 080020Z AUTO 26005KT 9999 NCD M10/M12 Q1016=
201312072350 METAR ESMX 072350Z AUTO VRB02KT 9999 NCD M09/M12 Q1016=
201312072320 METAR ESMX 072320Z AUTO 25004KT 240V300 9999 NCD M09/M12 Q1015=
201312072250 METAR ESMX 072250Z AUTO 28006KT 9999 NCD M09/M12 Q1015=
201312072220 METAR ESMX 072220Z AUTO 30003KT 9999 NCD M09/M12 Q1015=
201312072150 METAR ESMX 072150Z AUTO 30005KT 9999 NCD M08/M12 Q1015=
201312072120 METAR ESMX 072120Z AUTO 30006KT 9999 NCD M08/M12 Q1014=
201312072050 METAR ESMX 072050Z 29007KT CAVOK M08/M12 Q1014=
201312072020 METAR ESMX 072020Z 29007KT CAVOK M07/M12 Q1014=
201312071950 METAR ESMX 071950Z 29007KT CAVOK M07/M12 Q1013=
201312071920 METAR ESMX 071920Z AUTO 29008KT 9999 NCD M07/M12 Q1013=
201312071850 METAR ESMX 071850Z AUTO 29008KT 9999 NCD M07/M12 Q1013=
201312071820 METAR ESMX 071820Z AUTO 29008KT 9999 NCD M06/M11 Q1012=
201312071750 METAR ESMX 071750Z AUTO 31008KT 9999 NCD M06/M11 Q1012=
201312071720 METAR ESMX 071720Z AUTO 30008KT 9999 NCD M06/M11 Q1012=
201312071650 METAR ESMX 071650Z AUTO 29010KT 9999 NCD M05/M11 Q1011=
201312071620 METAR ESMX 071620Z AUTO 30009KT 9999 NCD M05/M11 Q1011=
201312071550 METAR ESMX 071550Z AUTO 30009KT 9999 NCD M05/M10 Q1010=
201312071520 METAR ESMX 071520Z AUTO 30009KT 9999 NCD M05/M10 Q1010=
201312071450 METAR ESMX 071450Z AUTO 30009KT 9999 NCD M04/M09 Q1010=
201312071420 METAR ESMX 071420Z AUTO 29008KT 250V320 9999 FEW071/// M04/M10 Q1009=
201312071350 METAR ESMX 071350Z AUTO 30008KT 9999 NCD M04/M10 Q1009=
201312071320 METAR ESMX 071320Z AUTO 30009KT 9999 NCD M03/M10 Q1009=
201312071250 METAR ESMX 071250Z AUTO 30009KT 270V340 9999 NCD M03/M10 Q1008=
201312071220 METAR ESMX 071220Z AUTO 30012KT 9999 NCD M03/M10 Q1008=
201312071150 METAR ESMX 071150Z AUTO 30012KT 9999 NCD M03/M10 Q1007=
201312071120 METAR ESMX 071120Z AUTO 30013KT 280V340 9999 NCD M03/M10 Q1007=
201312071050 METAR ESMX 071050Z AUTO 31013KT 9999 NCD M03/M10 Q1007=
201312071020 METAR ESMX 071020Z 30013KT CAVOK M03/M10 Q1007=
201312070950 METAR ESMX 070950Z 31012KT 280V340 CAVOK M03/M10 Q1007=
201312070920 METAR ESMX 070920Z 30010KT CAVOK M04/M10 Q1007=
201312070850 METAR ESMX 070850Z 30013KT CAVOK M04/M10 Q1006=
201312070820 METAR ESMX 070820Z AUTO 31013KT 9999 NCD M04/M10 Q1006=
201312070750 METAR ESMX 070750Z AUTO 30012KT 9999 NCD M04/M09 Q1006=
201312070720 METAR ESMX 070720Z AUTO 31012KT 9999 NCD M04/M09 Q1005=
201312070650 METAR ESMX 070650Z AUTO 31013KT 9999 NCD M04/M09 Q1005=
201312070620 METAR ESMX 070620Z AUTO 30014KT 9999 BKN038/// M03/M08 Q1004=
201312070550 METAR ESMX 070550Z AUTO 30014KT 9999 OVC037/// M03/M08 Q1004=
201312070520 METAR ESMX 070520Z AUTO 30014KT 9999 BKN038/// M03/M08 Q1003=
201312070450 METAR ESMX 070450Z AUTO 30013KT 9999 SCT039/// M03/M08 Q1003=
201312070420 METAR ESMX 070420Z AUTO 30015KT 9999 NCD M03/M08 Q1002=
201312070350 METAR ESMX 070350Z AUTO 31014KT 9999 NCD M03/M08 Q1002=
201312070320 METAR ESMX 070320Z AUTO 30013KT 9999 NCD M03/M07 Q1001=
201312070250 METAR ESMX 070250Z AUTO 30014G26KT 280V340 9999 NCD M03/M07 Q1001=
201312070220 METAR ESMX 070220Z AUTO 30016KT 9999 BKN035/// M02/M06 Q1001=
201312070150 METAR ESMX 070150Z AUTO 30013KT 9999 BKN036/// M02/M06 Q1000=
201312070120 METAR ESMX 070120Z AUTO 31013KT 9999 BKN035/// M01/M05 Q0999=
201312070050 METAR ESMX 070050Z AUTO 30013KT 9999 BKN034/// M01/M05 Q0999=
201312070020 METAR ESMX 070020Z AUTO 31016KT 9999 FEW037/// M01/M05 Q0998=
201312062350 METAR ESMX 062350Z AUTO 31012KT 9999 FEW035/// M02/M05 Q0998=
201312062320 METAR ESMX 062320Z AUTO 31015KT 9999 FEW021/// M02/M05 Q0997=
201312062250 METAR ESMX 062250Z AUTO 32015KT 9999 FEW018/// BKN021/// BKN047/// M02/M04 Q0997=
201312062220 METAR ESMX 062220Z AUTO 31020G32KT 9999 FEW018/// SCT022/// BKN037/// M01/M04 Q0996=
201312062150 METAR ESMX 062150Z AUTO 32017KT 9999 FEW016/// BKN020/// OVC033/// M01/M04 Q0995=
201312062120 METAR ESMX 062120Z AUTO 30017KT 9999 FEW016/// BKN018/// OVC025/// M01/M04 Q0995=
201312062050 METAR ESMX 062050Z AUTO 31015G28KT 8000 BR FEW014/// SCT019/// OVC021/// M02/M04 Q0994=
201312062020 METAR ESMX 062020Z AUTO 31014KT 7000 BR FEW013/// SCT017/// OVC022/// M02/M04 Q0993=
201312061950 METAR ESMX 061950Z 31016KT 9999 FEW016 BKN022 OVC031 M02/M04 Q0993=
201312061920 METAR ESMX 061920Z 30016KT 9000 -SN FEW017 BKN029 M02/M05 Q0992=
201312061820 METAR ESMX 061820Z 30017G27KT 9999 FEW020 SCT026 M02/M05 Q0991=
201312061750 METAR ESMX 061750Z 30017G31KT 260V330 9999 FEW020 SCT028 M02/M05 Q0990=
201312061720 METAR ESMX 061720Z 30017KT 9999 SCT021 M02/M06 Q0990=
201312061650 METAR ESMX 061650Z 30019G33KT 9999 FEW022 BKN029 M02/M06 Q0989=
201312061620 METAR ESMX 061620Z 31019KT 9999 -SN FEW022 SCT028 BKN031 M02/M06 Q0989=
201312061520 METAR ESMX 061520Z 30019G31KT 9000 -SN FEW020 BKN023 BKN033 M02/M05 Q0987=
201312061450 METAR ESMX 061450Z 31018G33KT 6000 -SN BKN020 OVC027 M02/M05 Q0986=
201312061420 METAR ESMX 061420Z 31020G32KT 6000 -SN BKN019 OVC026 M02/M05 Q0986=
201312061350 METAR ESMX 061350Z 31022G34KT 5000 -SN BKN020 BKN029 M02/M05 Q0985=
201312061320 METAR ESMX 061320Z 30019G34KT 6000 -SN FEW019 BKN023 BKN036 M02/M05 Q0984=
201312061250 METAR ESMX 061250Z 30019KT 6000 -SN FEW020 BKN024 BKN031 M02/M05 Q0983=
201312061220 METAR ESMX 061220Z 31021G34KT 6000 -SN BKN022 BKN032 M02/M05 Q0982=
201312061150 METAR ESMX 061150Z 30023G34KT 6000 -SN BKN020 BKN031 M02/M05 Q0982=
201312061120 METAR COR ESMX 061120Z 29019G31KT 7000 -SN OVC020 M02/M05 Q0981=
201312061050 METAR ESMX 061050Z 30021G35KT 8000 -SN FEW019 BKN022 OVC028 M02/M05 Q0980=
201312061020 METAR ESMX 061020Z 30020G33KT 8000 -SN FEW021 BKN024 M02/M05 Q0979=
201312060950 METAR ESMX 060950Z 30022KT 5000 -SN OVC022 M02/M05 Q0979=
201312060920 METAR ESMX 060920Z 30021G38KT 270V330 6000 -SN BKN021 BKN030 M02/M05 Q0978=
201312060850 METAR ESMX 060850Z 30021G36KT 280V340 4500 -SN FEW020 SCT026 BKN032 M03/M05 Q0977=
201312060820 METAR ESMX 060820Z 30021G35KT 2500 SN FEW018 SCT024 BKN028 M03/M05 Q0976=
201312060750 METAR ESMX 060750Z 30021G33KT 2800 SN FEW019 SCT028 M03/M05 Q0975=
201312060720 METAR ESMX 060720Z 29019G30KT 2600 SN FEW018 SCT024 BKN027 M03/M05 Q0975=
201312060650 METAR COR ESMX 060650Z 29021G32KT 2500 SN FEW008 SCT026 BKN045 M03/M05 Q0974=
201312060620 METAR ESMX 060620Z 29024G37KT 1600 SN FEW007 SCT008 M03/M05 Q0973=
201312060550 METAR ESMX 060550Z 29023G36KT 1100 R01/P2000N R19/P2000N SN SCT005 BKN007 M03/M05 Q0973=
201312060520 METAR ESMX 060520Z 29022G35KT 1300 R01/P2000N R19/P2000N SN FEW005 SCT007 BKN014 M03/M04 Q0972=
201312060450 METAR ESMX 060450Z 29024G39KT 1400 R01/P2000N R19/P2000N +FZRA FEW005 SCT007 BKN011 M03/M04 Q0972=
201312052350 METAR ESMX 052350Z 30018G29KT 0300 R01/P2000N R19/0275VP2000D +FZRA BKN002 M01/M02 Q0966=
201312052320 METAR ESMX 052320Z 27020KT 230V290 0250 R01/P2000N R19/0200VP2000D +FZRA VV002 M01/M01 Q0966=
201312052250 METAR ESMX 052250Z 26019G29KT 2000 FZRA FEW005 SCT009 BKN015 M00/M01 Q0965=
201312052220 METAR ESMX 052220Z 25016G27KT 220V280 3100 -RASN FEW006 SCT011 BKN013 M00/M01 Q0966=
201312052150 METAR ESMX 052150Z 25016G28KT 8000 -RASN FEW007 SCT012 BKN016 00/M01 Q0966=
201312052120 METAR ESMX 052120Z 25015G28KT 210V280 5000 -RASN FEW006 SCT009 BKN013 00/M00 Q0966=
201312052050 METAR ESMX 052050Z 24014KT 0700 R01/P2000N R19/P2000N +RASN FEW006 SCT009 BKN011 00/M00 Q0965=
201312052020 METAR ESMX 052020Z 25019G29KT 3000 +RASN FEW006 SCT010 BKN013 01/M00 Q0965=
201312051950 METAR ESMX 051950Z 21012KT 5000 -RASN FEW005 SCT006 BKN008 01/00 Q0965=
201312051920 METAR ESMX 051920Z 17013KT 7000 RASN OVC005 01/00 Q0965=
201312051850 METAR ESMX 051850Z 16011KT 8000 RASN SCT007 BKN013 02/01 Q0966=
201312051820 METAR ESMX 051820Z 17016KT 9000 DZ SCT007 BKN013 02/01 Q0968=
201312051750 METAR ESMX 051750Z 18016KT 6000 -RASN SCT007 BKN010 02/01 Q0969=
201312051720 METAR COR ESMX 051720Z 18021KT 7000 -RASN FEW006 SCT007 BKN009 01/00 Q0971=
201312051650 METAR ESMX 051650Z 17021KT 7000 -RA FEW006 SCT008 OVC010 01/00 Q0972=
201312051620 METAR ESMX 051620Z 17021KT 7000 RASN FEW005 SCT007 BKN008 01/00 Q0974=
201312051550 METAR ESMX 051550Z 17021KT 7000 -RASN SCT007 BKN009 OVC011 02/00 Q0976=
201312051520 METAR ESMX 051520Z 18021G31KT 7000 -RASN SCT007 BKN010 02/01 Q0978=
201312051450 METAR ESMX 051450Z 18022KT 6000 -RA FEW007 BKN009 BKN013 02/01 Q0980=
201312051420 METAR ESMX 051420Z 18020KT 8000 -RA SCT006 BKN009 OVC011 02/01 Q0982=
201312051350 METAR COR ESMX 051350Z 18020KT 8000 -RA FEW007 SCT009 BKN010 03/01 Q0984=
201312051320 METAR COR ESMX 051320Z 18020KT 8000 -RA FEW008 OVC010 03/02 Q0986 REDZ=
201312051250 METAR ESMX 051250Z 18018G31KT 9000 DZ FEW009 BKN011 OVC016 03/02 Q0987 REDZ=
201312051220 METAR ESMX 051220Z 18021KT 8000 -RA FEW010 SCT014 BKN017 03/02 Q0988 REDZ=
201312051150 METAR ESMX 051150Z 20018G29KT 9999 FEW018 BKN021 05/01 Q0991=
201312051120 METAR ESMX 051120Z 20017KT 9999 BKN020 05/01 Q0993=
201312051050 METAR ESMX 051050Z 22017KT 9999 OVC019 04/01 Q0995=
201312051020 METAR ESMX 051020Z 21018KT 9999 FEW018 OVC020 04/01 Q0996=
201312050950 METAR ESMX 050950Z 22016KT 9999 FEW016 SCT019 BKN021 04/01 Q0997=
201312050920 METAR ESMX 050920Z 22016KT 9999 FEW016 BKN020 04/01 Q0998=
201312050850 METAR ESMX 050850Z 22014KT 9999 FEW016 BKN019 BKN025 04/01 Q0999=
201312050820 METAR ESMX 050820Z 23016KT 9999 FEW016 SCT018 BKN021 04/01 Q1000=
201312050750 METAR ESMX 050750Z 23013KT 9999 FEW015 SCT019 BKN021 04/01 Q1001=
201312050720 METAR ESMX 050720Z 23012KT 9999 FEW011 BKN015 OVC020 04/02 Q1001=
201312050650 METAR ESMX 050650Z 22012KT 9999 FEW010 BKN013 OVC018 04/02 Q1002=
201312050620 METAR ESMX 050620Z 22012KT 9999 -RA FEW014 SCT020 BKN028 04/02 Q1003=
201312050550 METAR ESMX 050550Z 24012KT 9999 FEW014 BKN038 03/02 Q1003=
201312050520 METAR ESMX 050520Z 23012KT 9999 FEW015 SCT020 BKN027 04/01 Q1004=
201312050450 METAR ESMX 050450Z 23012KT 9999 BKN022 04/00 Q1004=
201312050420 METAR ESMX 050420Z AUTO 24013KT 9999 FEW024/// SCT050/// 04/00 Q1004=
201312050350 METAR ESMX 050350Z AUTO 25013KT 9999 FEW021/// SCT045/// 04/00 Q1004=
201312050320 METAR ESMX 050320Z AUTO 25015KT 9999 FEW020/// SCT027/// BKN032/// 04/01 Q1005=
201312050250 METAR ESMX 050250Z AUTO 26018KT 9999 DZ FEW015/// SCT020/// BKN024/// 04/01 Q1005 REDZ=
201312050220 METAR ESMX 050220Z AUTO 25016KT 9999 FEW014/// SCT018/// BKN023/// 04/01 Q1005=
201312050150 METAR ESMX 050150Z AUTO 25014KT 9999 FEW016/// BKN022/// BKN028/// 03/01 Q1005 REDZ=
201312050120 METAR ESMX 050120Z AUTO 25014KT 9999 FEW019/// BKN024/// 04/00 Q1006=
201312050050 METAR ESMX 050050Z 25013KT 9999 FEW020 03/M00 Q1006=
201312050020 METAR ESMX 050020Z 25014KT 9999 FEW021 SCT027 03/M00 Q1006=
201312042350 METAR ESMX 042350Z 25013KT 9999 FEW021 03/M00 Q1007=
201312042320 METAR ESMX 042320Z 26011KT 9999 FEW019 SCT022 03/00 Q1007=
201312042250 METAR ESMX 042250Z 26011G22KT 9999 FEW016 BKN018 BKN023 03/00 Q1007=
201312042220 METAR ESMX 042220Z 26014KT 9999 BKN019 03/00 Q1007=
201312042150 METAR ESMX 042150Z 26012KT 9999 FEW023 03/00 Q1007=
201312042120 METAR ESMX 042120Z 24011KT CAVOK 03/00 Q1007=
201312042050 METAR ESMX 042050Z 25009KT CAVOK 03/01 Q1007=
201312042020 METAR ESMX 042020Z 24009KT CAVOK 02/00 Q1007=
201312041950 METAR ESMX 041950Z 26009KT CAVOK 02/00 Q1007=
201312041920 METAR ESMX 041920Z 26010KT CAVOK 02/00 Q1007=
201312041850 METAR ESMX 041850Z 26011KT 9999 FEW015 02/00 Q1007=
201312041820 METAR ESMX 041820Z 26012KT 9999 FEW015 02/00 Q1007=
201312041750 METAR ESMX 041750Z 25008KT 9999 FEW021 01/00 Q1007=
201312041720 METAR ESMX 041720Z 25007KT CAVOK 01/M01 Q1007=
201312041650 METAR ESMX 041650Z 24007KT CAVOK 01/M01 Q1007=
201312041620 METAR ESMX 041620Z 25007KT CAVOK 01/M01 Q1007=
201312041550 METAR ESMX 041550Z 26007KT CAVOK 01/M01 Q1007=
201312041520 METAR ESMX 041520Z 27005KT CAVOK 01/M01 Q1007=
201312041450 METAR ESMX 041450Z 27006KT CAVOK 02/M01 Q1007=
201312041420 METAR ESMX 041420Z 29009KT CAVOK 02/M01 Q1007=
201312041350 METAR ESMX 041350Z 29010KT CAVOK 03/M00 Q1007=
201312041320 METAR ESMX 041320Z 28009KT 9999 FEW025 04/01 Q1007=
201312041250 METAR ESMX 041250Z 28013KT 9999 FEW025 05/01 Q1007=
201312041220 METAR ESMX 041220Z 30012KT 9999 FEW038 05/02 Q1006=
201312041150 METAR ESMX 041150Z 28011KT 9999 FEW014 SCT020 06/03 Q1007=
201312041120 METAR ESMX 041120Z 29010KT 9999 FEW014 SCT017 BKN021 06/03 Q1007=
201312041050 METAR ESMX 041050Z 27012KT 9999 SCT010 BKN020 06/04 Q1006=
201312041020 METAR ESMX 041020Z 28010KT 9999 FEW017 BKN070 06/04 Q1007=
201312040950 METAR ESMX 040950Z 28010KT 9999 FEW010 SCT013 BKN017 06/04 Q1007=
201312040920 METAR ESMX 040920Z 28012KT 9999 FEW007 SCT010 BKN015 07/05 Q1007=
201312040850 METAR ESMX 040850Z 25010KT 7000 DZ FEW006 SCT008 BKN010 07/06 Q1007 REDZ=
201312040820 METAR ESMX 040820Z 24011KT 8000 DZ FEW006 BKN007 OVC010 07/06 Q1006=
201312040750 METAR ESMX 040750Z 24010KT 9999 -RA FEW006 SCT008 BKN009 07/06 Q1007 REDZ=
201312040720 METAR ESMX 040720Z 24011KT 9999 DZ FEW005 OVC007 07/06 Q1007=
201312040650 METAR ESMX 040650Z 22010KT 9000 DZ OVC005 06/05 Q1007=
201312040620 METAR ESMX 040620Z 23010KT 5000 DZ OVC004 06/05 Q1007 REDZ=
201312040550 METAR ESMX 040550Z 23010KT 2900 DZ BR OVC004 06/05 Q1008=
201312040520 METAR ESMX 040520Z 23010KT 6000 -DZ OVC004 06/05 Q1008=
201312040450 METAR ESMX 040450Z 22010KT 8000 -DZ OVC004 06/05 Q1009=
201312040420 METAR ESMX 040420Z AUTO 22010KT 4400 DZ OVC004/// 06/05 Q1009=
201312040350 METAR ESMX 040350Z AUTO 24010KT 4400 DZ SCT003/// OVC005/// 06/05 Q1010=
201312040320 METAR ESMX 040320Z AUTO 23010KT 5000 BR OVC003/// 06/05 Q1010=
201312040250 METAR ESMX 040250Z AUTO 22010KT 5000 BR OVC003/// 06/05 Q1011=
201312040220 METAR ESMX 040220Z AUTO 21012KT 4000 BR OVC003/// 06/05 Q1011=
201312040150 METAR ESMX 040150Z AUTO 23011KT 5000 BR BKN003/// OVC005/// 06/05 Q1012=
201312040120 METAR ESMX 040120Z AUTO 22010KT 2900 BR FEW002/// OVC004/// 06/05 Q1012=
201312040050 METAR ESMX 040050Z 24009KT 4200 -DZ BR OVC003 06/05 Q1013=
201312040020 METAR ESMX 040020Z 22008KT 4500 -DZ BR OVC003 06/05 Q1013=
201312032350 METAR ESMX 032350Z 22008KT 4500 -DZ BR OVC003 06/05 Q1014=
201312032320 METAR ESMX 032320Z 23007KT 4200 -DZ BR OVC003 06/05 Q1014=
201312032250 METAR ESMX 032250Z 24009KT 210V280 3200 DZ BR OVC003 06/05 Q1015=
201312032220 METAR ESMX 032220Z 24010KT 3200 DZ BR OVC004 06/05 Q1015=
201312032150 METAR ESMX 032150Z 23009KT 3700 DZ BR OVC004 06/05 Q1015=
201312032120 METAR ESMX 032120Z 25009KT 7000 BR OVC005 06/04 Q1015=
201312032050 METAR ESMX 032050Z 25011KT 9000 BR OVC006 06/04 Q1015=
201312032020 METAR ESMX 032020Z 25010KT 9000 BR OVC005 06/04 Q1016=
201312031950 METAR ESMX 031950Z 25009KT 9999 OVC007 06/04 Q1016=
201312031920 METAR ESMX 031920Z 26011KT 9999 OVC007 06/04 Q1016=
201312031850 METAR ESMX 031850Z 26011KT 9999 OVC007 06/04 Q1016=
201312031820 METAR ESMX 031820Z 26011KT 9999 OVC007 06/04 Q1016=
201312031750 METAR ESMX 031750Z 25010KT 9999 BKN008 06/04 Q1017=
201312031720 METAR ESMX 031720Z 26010KT 9999 BKN009 06/04 Q1017=
201312031650 METAR ESMX 031650Z 24010KT 210V270 9999 OVC008 06/04 Q1017=
201312031620 METAR ESMX 031620Z 25010KT 9999 BKN009 06/04 Q1017=
201312031550 METAR ESMX 031550Z 26011KT 9999 OVC010 06/04 Q1017=
201312031520 METAR ESMX 031520Z 26010KT 9999 OVC012 06/03 Q1018=
201312031450 METAR ESMX 031450Z 25011KT 9999 OVC011 06/03 Q1018=
201312031420 METAR ESMX 031420Z 26011G22KT 220V290 9999 OVC012 06/03 Q1018=
201312031350 METAR ESMX 031350Z 26011KT 9999 OVC013 06/03 Q1018=
201312031320 METAR ESMX 031320Z 25010KT 9999 OVC014 06/03 Q1018=
201312031250 METAR ESMX 031250Z 24009KT 9999 OVC015 06/03 Q1018=
201312031220 METAR ESMX 031220Z 25011KT 9999 OVC016 06/03 Q1019=
201312031150 METAR ESMX 031150Z 25009KT 9999 FEW015 BKN017 OVC022 06/03 Q1019=
201312031120 METAR ESMX 031120Z 25009KT 9999 FEW014 BKN017 OVC020 06/03 Q1019=
201312031050 METAR ESMX 031050Z 23009KT 9999 FEW014 SCT016 BKN019 06/03 Q1019=
201312030950 METAR ESMX 030950Z 25011KT 9999 FEW011 OVC014 05/03 Q1020=
201312030920 METAR ESMX 030920Z 25012KT 9999 OVC012 05/03 Q1019=
201312030850 METAR ESMX 030850Z 25012KT 9999 OVC012 05/02 Q1020=
201312030820 METAR ESMX 030820Z 23011KT 9999 FEW013 BKN016 OVC037 05/02 Q1020=
201312030750 METAR ESMX 030750Z 22010KT 9999 FEW015 SCT026 BKN037 05/02 Q1020=
201312030720 METAR ESMX 030720Z 23011KT 9999 BKN030 OVC038 05/02 Q1020=
201312030650 METAR ESMX 030650Z 23010KT 9999 OVC029 05/01 Q1021=
201312030620 METAR ESMX 030620Z 24009KT 200V270 9999 OVC030 05/01 Q1021=
201312030550 METAR ESMX 030550Z 24011KT 9999 OVC030 04/01 Q1021=
201312030520 METAR ESMX 030520Z 25010KT 9999 BKN018 OVC025 05/01 Q1022=
201312030450 METAR ESMX 030450Z 26012KT 9999 OVC015 05/02 Q1022=
201312030420 METAR ESMX 030420Z AUTO 26010KT 210V290 9999 BKN015/// OVC020/// 05/02 Q1023=
201312030350 METAR ESMX 030350Z AUTO 24012KT 9999 FEW011/// SCT015/// BKN017/// 05/02 Q1023=
201312030320 METAR ESMX 030320Z AUTO 24009KT 9999 BKN011/// OVC016/// 04/02 Q1023=
201312030250 METAR ESMX 030250Z AUTO 23009KT 210V270 9999 FEW010/// SCT015/// BKN018/// 04/02 Q1023=
201312030220 METAR ESMX 030220Z AUTO 24009KT 9999 FEW007/// SCT009/// BKN012/// 04/02 Q1024=
201312030150 METAR ESMX 030150Z AUTO 23008KT 9999 FEW007/// SCT011/// BKN016/// 04/02 Q1024=
201312030120 METAR ESMX 030120Z AUTO 22008KT 9999 FEW007/// SCT009/// BKN013/// 04/02 Q1025=
201312030050 METAR ESMX 030050Z 25009KT 9999 BKN005 OVC015 03/02 Q1025=
201312030020 METAR ESMX 030020Z 24008KT 9999 FEW004 BKN006 03/02 Q1026=
201312022350 METAR ESMX 022350Z 21008KT 9999 OVC004 02/02 Q1026=
201312022320 METAR ESMX 022320Z 25008KT 9999 OVC003 02/01 Q1026=
201312022250 METAR ESMX 022250Z AUTO 24008KT 9999 OVC004/// 02/01 Q1026=
201312022220 METAR ESMX 022220Z 24008KT 210V280 9999 OVC006 02/01 Q1026=
201312022150 METAR ESMX 022150Z 24006KT 9999 OVC008 02/01 Q1027=
201312022120 METAR ESMX 022120Z 22008KT 9999 FEW008 OVC010 02/00 Q1027=
201312022050 METAR ESMX 022050Z 24008KT 9999 BKN007 OVC011 02/01 Q1027=
201312022020 METAR ESMX 022020Z 23009KT 9999 OVC007 02/01 Q1027=
201312021950 METAR ESMX 021950Z 23008KT 9999 OVC008 02/00 Q1028=
201312021920 METAR ESMX 021920Z 22005KT 9999 OVC010 02/M00 Q1028=
201312021850 METAR ESMX 021850Z 22008KT 9999 FEW014 BKN018 01/M01 Q1028=
201312021820 METAR ESMX 021820Z 19007KT 9999 OVC018 01/M01 Q1028=
201312021750 METAR ESMX 021750Z 21008KT 9999 BKN019 01/M01 Q1028=
201312021720 METAR ESMX 021720Z 17007KT 9999 FEW019 SCT020 M00/M02 Q1029=
201312021650 METAR ESMX 021650Z 21005KT CAVOK M01/M03 Q1029=
201312021620 METAR ESMX 021620Z 18007KT CAVOK M00/M04 Q1029=
201312021550 METAR ESMX 021550Z 18007KT CAVOK 01/M04 Q1029=
201312021520 METAR ESMX 021520Z 16006KT CAVOK 01/M04 Q1030=
201312021450 METAR ESMX 021450Z 17006KT CAVOK 01/M04 Q1030=
201312021420 METAR ESMX 021420Z 18007KT CAVOK 01/M04 Q1031=
201312021350 METAR ESMX 021350Z 18007KT CAVOK 02/M04 Q1031=
201312021320 METAR ESMX 021320Z 18006KT CAVOK 02/M03 Q1031=
201312021250 METAR ESMX 021250Z 18007KT CAVOK 02/M03 Q1031=
201312021220 METAR ESMX 021220Z 19007KT CAVOK 02/M03 Q1032=
201312021150 METAR ESMX 021150Z 21008KT CAVOK 02/M03 Q1031=
201312021120 METAR ESMX 021120Z 21006KT CAVOK 02/M03 Q1032=
201312021050 METAR ESMX 021050Z 22005KT CAVOK 02/M03 Q1032=
201312021020 METAR ESMX 021020Z 22004KT CAVOK 01/M03 Q1032=
201312020950 METAR ESMX 020950Z 21003KT CAVOK 00/M04 Q1032=
201312020920 METAR ESMX 020920Z VRB03KT CAVOK M00/M04 Q1033=
201312020850 METAR ESMX 020850Z 20003KT CAVOK M01/M04 Q1032=
201312020820 METAR ESMX 020820Z 00000KT CAVOK M03/M05 Q1032=
201312020750 METAR ESMX 020750Z 22003KT CAVOK M04/M05 Q1032=
201312020720 METAR ESMX 020720Z 24001KT CAVOK M05/M06 Q1031=
201312020650 METAR ESMX 020650Z 17002KT CAVOK M04/M05 Q1031=
201312020620 METAR ESMX 020620Z 26001KT CAVOK M04/M06 Q1031=
201312020550 METAR ESMX 020550Z 22003KT CAVOK M03/M05 Q1030=
201312020520 METAR ESMX 020520Z 21003KT CAVOK M03/M05 Q1030=
201312020450 METAR ESMX 020450Z 26004KT CAVOK M03/M05 Q1030=
201312020420 METAR ESMX 020420Z AUTO 26006KT 9999 NCD M04/M06 Q1030=
201312020350 METAR ESMX 020350Z AUTO 35001KT 9999 NCD M02/M05 Q1029=
201312020320 METAR ESMX 020320Z AUTO 31005KT 9999 NCD M03/M05 Q1029=
201312020250 METAR ESMX 020250Z AUTO 32006KT 9999 NCD M02/M05 Q1028=
201312020220 METAR ESMX 020220Z AUTO 32006KT 9999 NCD M01/M05 Q1028=
201312020150 METAR ESMX 020150Z AUTO 32006KT 9999 NCD M00/M05 Q1027=
201312020120 METAR ESMX 020120Z AUTO 30005KT 9999 NCD M00/M05 Q1027=
201312020050 METAR ESMX 020050Z AUTO 30005KT 9999 NCD 00/M05 Q1027=
201312020020 METAR ESMX 020020Z 32007KT CAVOK 01/M05 Q1026=
201312012350 METAR ESMX 012350Z 31008KT CAVOK 01/M05 Q1026=
201312012320 METAR ESMX 012320Z 30007KT CAVOK 01/M05 Q1025=
201312012250 METAR ESMX 012250Z 29006KT CAVOK 01/M05 Q1025=
201312012220 METAR ESMX 012220Z 30008KT CAVOK 02/M05 Q1024=
201312012150 METAR ESMX 012150Z 30007KT CAVOK 01/M05 Q1024=
201312012120 METAR ESMX 012120Z 30008KT CAVOK 02/M05 Q1023=
201312012050 METAR ESMX 012050Z 31008KT CAVOK 02/M05 Q1022=
201312012020 METAR ESMX 012020Z 30008KT CAVOK 02/M05 Q1021=
201312011950 METAR ESMX 011950Z 29007KT CAVOK 02/M05 Q1020=
201312011920 METAR ESMX 011920Z 30008KT CAVOK 03/M05 Q1019=
201312011820 METAR ESMX 011820Z 31010KT CAVOK 04/M06 Q1017=
201312011750 METAR ESMX 011750Z 31011KT CAVOK 04/M06 Q1016=
201312011720 METAR ESMX 011720Z 31012G24KT CAVOK 05/M06 Q1015=
201312011650 METAR ESMX 011650Z 30014G25KT CAVOK 05/M06 Q1014=
201312011620 METAR ESMX 011620Z 30013KT CAVOK 05/M06 Q1013=
201312011550 METAR ESMX 011550Z 31013KT CAVOK 06/M06 Q1012=
201312011520 METAR ESMX 011520Z 30014KT CAVOK 06/M05 Q1011=
201312011450 METAR ESMX 011450Z 30014G26KT CAVOK 06/M05 Q1010=
201312011420 METAR ESMX 011420Z 30013G24KT CAVOK 07/M04 Q1009=
201312011350 METAR ESMX 011350Z 30015G27KT CAVOK 07/M04 Q1008=
201312011320 METAR ESMX 011320Z AUTO 30012KT 9999 NCD 08/M01 Q1008=
201312011250 METAR ESMX 011250Z AUTO 29015G26KT 260V330 9999 FEW049/// 08/M00 Q1008=
201312011220 METAR ESMX 011220Z AUTO 29014KT 260V330 9999 FEW046/// 08/01 Q1007=
