##########################################################
# Query made at 04/19/2024 21:39:09 UTC
# Time interval: from 04/01/2014 12:00  to 04/30/2014 12:59  UTC
##########################################################

##########################################################
# ESMX, Vaxjo (Sweden)
# WMO index: 02641. WIGOS ID: 0-20000-0-02648
# Latitude 56-51N. Longitude 014-50E. Altitude 199 m.
##########################################################

201404301250 METAR ESMX 301250Z 20006KT CAVOK 14/04 Q1007=
201404301220 METAR ESMX 301220Z 19009KT 160V230 CAVOK 14/04 Q1008=
201404301150 METAR ESMX 301150Z 16008KT CAVOK 14/03 Q1008=
201404301120 METAR ESMX 301120Z 17008KT CAVOK 14/03 Q1008=
201404301050 METAR ESMX 301050Z 15005KT 060V220 CAVOK 14/03 Q1008=
201404301020 METAR ESMX 301020Z 14006KT 080V180 CAVOK 13/04 Q1009=
201404300950 METAR ESMX 300950Z 15006KT 080V190 CAVOK 14/03 Q1009=
201404300920 METAR ESMX 300920Z 15006KT 110V220 CAVOK 13/02 Q1009=
201404300850 METAR ESMX 300850Z 15006KT 100V210 CAVOK 12/01 Q1009=
201404300820 METAR ESMX 300820Z AUTO 16004KT 080V210 9999 FEW100/// 11/01 Q1009=
201404300750 METAR ESMX 300750Z VRB03KT 070V260 CAVOK 11/M00 Q1010=
201404300720 METAR ESMX 300720Z 09004KT 040V150 CAVOK 09/M00 Q1010=
201404300650 METAR ESMX 300650Z 05004KT 010V120 CAVOK 08/00 Q1010=
201404300620 METAR ESMX 300620Z AUTO 04005KT 020V080 9999 SCT052/// 08/M00 Q1010=
201404300550 METAR ESMX 300550Z 04004KT 360V080 CAVOK 06/00 Q1010=
201404300520 METAR COR ESMX 300520Z 06004KT 030V100 CAVOK 05/01 Q1010=
201404300450 METAR ESMX 300450Z 04003KT 340V090 CAVOK 05/02 Q1010=
201404300420 METAR ESMX 300420Z 07004KT 030V110 CAVOK 05/02 Q1010=
201404300350 METAR ESMX 300350Z VRB03KT CAVOK 04/01 Q1010=
201404300320 METAR ESMX 300320Z AUTO 08004KT 020V110 9999 BKN090/// 04/01 Q1010=
201404300250 METAR ESMX 300250Z AUTO 09003KT 9999 NCD 04/01 Q1010=
201404300220 METAR ESMX 300220Z AUTO 08004KT 040V110 9999 NCD 04/01 Q1010=
201404300150 METAR ESMX 300150Z AUTO 07004KT 030V120 9999 NCD 04/01 Q1010=
201404300120 METAR ESMX 300120Z AUTO 06005KT 030V110 9999 NCD 04/01 Q1010=
201404300050 METAR ESMX 300050Z AUTO 03004KT 010V070 9999 NCD 05/02 Q1010=
201404300020 METAR ESMX 300020Z AUTO 03004KT 9999 NCD 04/02 Q1010=
201404292350 METAR ESMX 292350Z 04006KT 010V080 CAVOK 05/02 Q1010=
201404292320 METAR ESMX 292320Z 04008KT CAVOK 05/02 Q1010=
201404292250 METAR ESMX 292250Z 05010KT 020V080 CAVOK 06/02 Q1010=
201404292220 METAR COR ESMX 292220Z 03008KT CAVOK 06/02 Q1010=
201404292150 METAR ESMX 292150Z 04010KT 020V090 CAVOK 07/03 Q1010=
201404292120 METAR COR ESMX 292120Z 04011KT CAVOK 08/03 Q1009=
201404292050 METAR ESMX 292050Z 34010KT 310V030 CAVOK 10/03 Q1009=
201404292020 METAR COR ESMX 292020Z 25005KT CAVOK 10/02 Q1008=
201404291950 METAR ESMX 291950Z 25004KT CAVOK 11/01 Q1008=
201404291920 METAR ESMX 291920Z 25005KT CAVOK 12/01 Q1008=
201404291850 METAR ESMX 291850Z 27006KT CAVOK 14/01 Q1008=
201404291820 METAR ESMX 291820Z 27007KT CAVOK 15/01 Q1008=
201404291750 METAR ESMX 291750Z 27008KT CAVOK 16/00 Q1008=
201404291720 METAR COR ESMX 291720Z 27009KT CAVOK 17/00 Q1008=
201404291650 METAR ESMX 291650Z 27011KT 240V300 CAVOK 18/00 Q1008=
201404291620 METAR ESMX 291620Z 28010KT 250V320 CAVOK 19/M00 Q1008=
201404291550 METAR ESMX 291550Z 28011KT 240V320 CAVOK 19/01 Q1008=
201404291527 METAR ESMX 291527Z 28011KT CAVOK 19/01 Q1008=
201404291520 METAR ESMX 291520Z AUTO 27011KT 9999 NCD 19/01 Q1008=
201404291450 METAR ESMX 291450Z 26012KT CAVOK 20/M01 Q1008=
201404291420 METAR ESMX 291420Z 27011KT 240V310 CAVOK 21/01 Q1008=
201404291350 METAR ESMX 291350Z 24010KT 200V290 CAVOK 21/02 Q1008=
201404291320 METAR ESMX 291320Z 27011KT 240V310 CAVOK 20/02 Q1009=
201404291250 METAR ESMX 291250Z 29011KT 240V320 CAVOK 20/02 Q1009=
201404291220 METAR ESMX 291220Z 27011KT 230V310 CAVOK 20/02 Q1009=
201404291150 METAR ESMX 291150Z AUTO 25014KT 9999 NCD 20/01 Q1009=
201404291120 METAR ESMX 291120Z 26011KT 230V310 CAVOK 20/01 Q1009=
201404291050 METAR ESMX 291050Z 28010KT 240V320 CAVOK 20/02 Q1010=
201404291020 METAR ESMX 291020Z AUTO 26010KT 210V290 9999 NCD 20/02 Q1010=
201404290950 METAR ESMX 290950Z 29012KT CAVOK 19/02 Q1010=
201404290920 METAR ESMX 290920Z 29012KT CAVOK 19/02 Q1010=
201404290820 METAR COR ESMX 290820Z 28010KT CAVOK 18/04 Q1010=
201404290750 METAR ESMX 290750Z 25008KT CAVOK 17/04 Q1010=
201404290720 METAR ESMX 290720Z 24009KT 200V280 CAVOK 16/04 Q1011=
201404290650 METAR ESMX 290650Z 25007KT CAVOK 15/03 Q1011=
201404290620 METAR ESMX 290620Z 23006KT 210V270 CAVOK 13/03 Q1011=
201404290550 METAR ESMX 290550Z 21004KT 190V250 CAVOK 11/04 Q1011=
201404290520 METAR ESMX 290520Z AUTO 24003KT 210V270 9999 NCD 10/04 Q1011=
201404290450 METAR ESMX 290450Z 24004KT CAVOK 06/04 Q1011=
201404290420 METAR ESMX 290420Z 23005KT CAVOK 05/02 Q1011=
201404290350 METAR ESMX 290350Z 25003KT CAVOK 03/01 Q1011=
201404290320 METAR ESMX 290320Z AUTO VRB03KT 9999 NCD 03/01 Q1012=
201404290250 METAR ESMX 290250Z AUTO 18003KT 9999 NCD 02/M00 Q1012=
201404290220 METAR ESMX 290220Z AUTO 17004KT 9999 NCD 03/00 Q1012=
201404290150 METAR ESMX 290150Z AUTO 00000KT 9999 NCD 03/00 Q1012=
201404290120 METAR ESMX 290120Z AUTO 27002KT 9999 NCD 04/M00 Q1012=
201404290050 METAR ESMX 290050Z AUTO 24004KT 9999 NCD 05/00 Q1012=
201404290020 METAR ESMX 290020Z AUTO 25002KT 9999 NCD 05/M00 Q1013=
201404282350 METAR ESMX 282350Z 23003KT CAVOK 07/M00 Q1013=
201404282320 METAR ESMX 282320Z 23004KT CAVOK 07/M00 Q1013=
201404282250 METAR COR ESMX 282250Z 23005KT CAVOK 07/M01 Q1013=
201404282220 METAR COR ESMX 282220Z 22005KT CAVOK 09/M01 Q1013=
201404282150 METAR ESMX 282150Z 21007KT CAVOK 08/M01 Q1013=
201404282120 METAR ESMX 282120Z AUTO 20006KT 9999 NCD 10/M01 Q1013=
201404282050 METAR ESMX 282050Z 20007KT CAVOK 10/M01 Q1012=
201404282020 METAR ESMX 282020Z 18007KT CAVOK 11/M01 Q1012=
201404281950 METAR ESMX 281950Z 18008KT CAVOK 12/M01 Q1012=
201404281920 METAR ESMX 281920Z AUTO 18006KT 9999 NCD 14/M01 Q1012=
201404281850 METAR ESMX 281850Z 16006KT CAVOK 15/M01 Q1012=
201404281820 METAR ESMX 281820Z 17006KT CAVOK 16/M01 Q1012=
201404281750 METAR ESMX 281750Z 17008KT CAVOK 17/M01 Q1012=
201404281720 METAR ESMX 281720Z AUTO 19010KT 9999 NCD 18/M01 Q1012=
201404281650 METAR ESMX 281650Z 29006KT 260V320 CAVOK 20/M03 Q1012=
201404281620 METAR ESMX 281620Z 32007KT CAVOK 20/M03 Q1012=
201404281550 METAR ESMX 281550Z 23005KT 180V290 CAVOK 21/M02 Q1012=
201404281520 METAR ESMX 281520Z 26004KT 190V330 CAVOK 21/M03 Q1012=
201404281450 METAR ESMX 281450Z 02005KT 310V100 CAVOK 21/M07 Q1012=
201404281420 METAR ESMX 281420Z AUTO 04006KT 9999 NCD 21/M08 Q1012=
201404281350 METAR ESMX 281350Z 14005KT 060V190 CAVOK 21/M08 Q1012=
201404281320 METAR ESMX 281320Z 06004KT 010V140 CAVOK 21/M08 Q1013=
201404281250 METAR ESMX 281250Z 05005KT 010V100 CAVOK 21/M06 Q1013=
201404281220 METAR ESMX 281220Z 01004KT 290V090 CAVOK 20/M08 Q1013=
201404281150 METAR ESMX 281150Z 34006KT 320V020 CAVOK 20/M09 Q1013=
201404281120 METAR ESMX 281120Z 05005KT 350V110 CAVOK 19/M09 Q1014=
201404281059 METAR ESMX 281059Z 34005KT 300V020 CAVOK 19/M09 Q1014=
201404281050 METAR ESMX 281050Z AUTO 32005KT 200V010 9999 NCD 19/M08 Q1014=
201404281020 METAR COR ESMX 281020Z 03004KT 330V070 CAVOK 19/M07 Q1014=
201404280950 METAR ESMX 280950Z 35003KT 300V060 CAVOK 18/M09 Q1014=
201404280920 METAR ESMX 280920Z AUTO 06004KT 330V120 9999 NCD 17/M08 Q1014=
201404280850 METAR ESMX 280850Z VRB02KT CAVOK 16/M07 Q1014=
201404280820 METAR ESMX 280820Z AUTO VRB03KT 9999 NCD 16/M04 Q1014=
201404280750 METAR ESMX 280750Z 36003KT 310V050 CAVOK 14/00 Q1014=
201404280720 METAR ESMX 280720Z 34004KT 310V010 CAVOK 13/01 Q1014=
201404280650 METAR ESMX 280650Z VRB03KT CAVOK 11/03 Q1014=
201404280620 METAR ESMX 280620Z 01003KT CAVOK 09/04 Q1014=
201404280550 METAR ESMX 280550Z 36003KT CAVOK 07/04 Q1014=
201404280520 METAR ESMX 280520Z AUTO 36003KT 9999 NCD 05/04 Q1014=
201404280450 METAR ESMX 280450Z 00000KT CAVOK 01/00 Q1014=
201404280420 METAR ESMX 280420Z 00000KT 9999 FEW001 M01/M01 Q1014=
201404280350 METAR ESMX 280350Z 00000KT 9999 BCFG NSC M00/M01 Q1014=
201404280320 METAR ESMX 280320Z AUTO 00000KT 9999 NCD M01/M02 Q1014=
201404280250 METAR ESMX 280250Z AUTO 00000KT 9999 BCFG NCD 00/M01 Q1014=
201404280220 METAR ESMX 280220Z AUTO 00000KT 9999 NCD 00/M01 Q1014=
201404280150 METAR ESMX 280150Z AUTO 00000KT 9999 NCD 00/M02 Q1014=
201404280120 METAR ESMX 280120Z AUTO 00000KT 9999 NCD 00/M01 Q1014=
201404280050 METAR ESMX 280050Z AUTO 00000KT 9999 NCD 01/M02 Q1015=
201404280020 METAR ESMX 280020Z AUTO 00000KT 9999 NCD 01/M02 Q1015=
201404272350 METAR ESMX 272350Z AUTO 00000KT 9999 NCD 01/M02 Q1015=
201404272320 METAR ESMX 272320Z 00000KT CAVOK 03/M01 Q1015=
201404272250 METAR ESMX 272250Z 00000KT CAVOK 02/M01 Q1015=
201404272220 METAR ESMX 272220Z 00000KT CAVOK 04/M01 Q1015=
201404272150 METAR ESMX 272150Z 00000KT CAVOK 05/M01 Q1014=
201404272120 METAR ESMX 272120Z 00000KT CAVOK 05/M01 Q1014=
201404272050 METAR ESMX 272050Z 00000KT CAVOK 06/M01 Q1014=
201404272020 METAR ESMX 272020Z 17003KT CAVOK 07/M01 Q1014=
201404271950 METAR ESMX 271950Z 14003KT CAVOK 10/M01 Q1014=
201404271920 METAR ESMX 271920Z VRB03KT CAVOK 12/M02 Q1014=
201404271850 METAR ESMX 271850Z 12004KT 080V170 CAVOK 14/M03 Q1013=
201404271820 METAR ESMX 271820Z 12004KT 080V160 CAVOK 16/M03 Q1013=
201404271750 METAR COR ESMX 271750Z 11005KT 360V150 CAVOK 17/M04 Q1013=
201404271720 METAR ESMX 271720Z 10004KT 050V140 CAVOK 18/M05 Q1012=
201404271650 METAR ESMX 271650Z 07005KT 020V120 CAVOK 19/M05 Q1012=
201404271620 METAR ESMX 271620Z 05006KT 010V100 CAVOK 20/M07 Q1012=
201404271550 METAR ESMX 271550Z 04006KT 010V070 CAVOK 20/M06 Q1012=
201404271520 METAR ESMX 271520Z 03006KT 340V070 CAVOK 20/M07 Q1012=
201404271450 METAR ESMX 271450Z VRB06KT 010V200 CAVOK 20/M06 Q1012=
201404271420 METAR ESMX 271420Z 35007KT 330V040 CAVOK 20/M07 Q1012=
201404271350 METAR ESMX 271350Z 36008KT CAVOK 20/M06 Q1013=
201404271320 METAR ESMX 271320Z 06004KT 350V140 CAVOK 20/M06 Q1013=
201404271250 METAR ESMX 271250Z 07006KT 010V110 CAVOK 19/M05 Q1013=
201404271220 METAR ESMX 271220Z AUTO VRB06KT 280V120 9999 NCD 19/M06 Q1013=
201404271150 METAR ESMX 271150Z AUTO 01008KT 320V050 9999 NCD 19/M05 Q1013=
201404271120 METAR ESMX 271120Z AUTO 05005KT 010V140 9999 NCD 18/M05 Q1013=
201404271050 METAR ESMX 271050Z AUTO 03006KT 320V090 9999 NCD 18/M06 Q1014=
201404271020 METAR ESMX 271020Z AUTO 04006KT 340V090 9999 NCD 17/M04 Q1014=
201404270950 METAR ESMX 270950Z AUTO 04007KT 340V080 9999 NCD 17/M04 Q1014=
201404270920 METAR ESMX 270920Z AUTO 04007KT 010V100 9999 NCD 16/M02 Q1014=
201404270850 METAR ESMX 270850Z AUTO 06006KT 360V130 9999 NCD 16/M03 Q1014=
201404270820 METAR ESMX 270820Z AUTO 06007KT 020V100 9999 NCD 15/M03 Q1014=
201404270750 METAR ESMX 270750Z AUTO 05005KT 020V120 9999 NCD 15/M02 Q1014=
201404270720 METAR ESMX 270720Z AUTO 05005KT 020V110 9999 NCD 14/M00 Q1014=
201404270650 METAR ESMX 270650Z AUTO 04006KT 9999 NCD 11/M00 Q1014=
201404270620 METAR ESMX 270620Z AUTO 04005KT 9999 NCD 10/00 Q1014=
201404270550 METAR ESMX 270550Z AUTO 04004KT 010V070 9999 NCD 08/01 Q1014=
201404270520 METAR ESMX 270520Z AUTO 36005KT 9999 NCD 06/02 Q1014=
201404270450 METAR ESMX 270450Z AUTO 36004KT 9999 NCD 03/02 Q1014=
201404270420 METAR ESMX 270420Z AUTO 01002KT 9999 NCD 01/M00 Q1014=
201404270350 METAR ESMX 270350Z AUTO 01003KT 9999 NCD 00/M01 Q1014=
201404270320 METAR ESMX 270320Z AUTO 03003KT 9999 NCD 01/M01 Q1014=
201404270250 METAR ESMX 270250Z AUTO 03004KT 9999 NCD 01/M01 Q1014=
201404270220 METAR ESMX 270220Z AUTO VRB03KT 9999 NCD 02/M01 Q1014=
201404270150 METAR ESMX 270150Z AUTO VRB03KT 9999 NCD 02/M01 Q1014=
201404270120 METAR ESMX 270120Z AUTO VRB01KT 9999 NCD 02/M01 Q1015=
201404270050 METAR ESMX 270050Z AUTO VRB02KT 9999 NCD 02/M01 Q1015=
201404270020 METAR ESMX 270020Z AUTO 00000KT 9999 NCD 03/M01 Q1015=
201404262350 METAR ESMX 262350Z AUTO 04003KT 9999 NCD 02/M01 Q1015=
201404262320 METAR ESMX 262320Z AUTO 00000KT 9999 NCD 03/M01 Q1015=
201404262250 METAR ESMX 262250Z AUTO 00000KT 9999 NCD 03/M01 Q1015=
201404262220 METAR ESMX 262220Z AUTO 00000KT 9999 NCD 04/M01 Q1015=
201404262150 METAR ESMX 262150Z AUTO 00000KT 9999 NCD 05/M01 Q1015=
201404262120 METAR ESMX 262120Z AUTO 09003G23KT 9999 NCD 07/M01 Q1015=
201404262050 METAR ESMX 262050Z AUTO VRB03KT 9999 NCD 08/M01 Q1015=
201404262020 METAR ESMX 262020Z AUTO 14003KT 110V170 9999 NCD 10/M01 Q1015=
201404261950 METAR ESMX 261950Z AUTO 14004KT 080V160 9999 NCD 12/M01 Q1015=
201404261920 METAR ESMX 261920Z AUTO 14004KT 110V170 9999 NCD 13/M01 Q1015=
201404261850 METAR ESMX 261850Z AUTO 12004KT 080V180 9999 NCD 14/M01 Q1015=
201404261820 METAR ESMX 261820Z AUTO 12004KT 080V190 9999 NCD 15/M01 Q1015=
201404261750 METAR ESMX 261750Z AUTO 13004KT 090V170 9999 NCD 16/M00 Q1015=
201404261720 METAR ESMX 261720Z AUTO 12005KT 080V160 9999 NCD 18/M00 Q1014=
201404261650 METAR ESMX 261650Z AUTO 14006KT 110V180 9999 NCD 19/M01 Q1014=
201404261620 METAR ESMX 261620Z AUTO 14005KT 090V190 9999 NCD 19/M01 Q1014=
201404261550 METAR ESMX 261550Z AUTO 15005KT 120V200 9999 NCD 19/M01 Q1015=
201404261520 METAR ESMX 261520Z AUTO 17003KT 080V230 9999 NCD 20/M01 Q1015=
201404261450 METAR ESMX 261450Z AUTO 20003KT 9999 NCD 20/M02 Q1015=
201404261420 METAR ESMX 261420Z AUTO 13003KT 050V220 9999 NCD 20/M02 Q1015=
201404261350 METAR ESMX 261350Z AUTO 16006KT 120V210 9999 NCD 20/M01 Q1016=
201404261320 METAR ESMX 261320Z AUTO 14006KT 060V200 9999 NCD 20/M01 Q1016=
201404261250 METAR ESMX 261250Z AUTO 16007KT 130V240 9999 NCD 19/M01 Q1016=
201404261220 METAR ESMX 261220Z AUTO VRB04KT 060V040 9999 NCD 20/M00 Q1016=
201404261150 METAR ESMX 261150Z AUTO 16005KT 030V200 9999 NCD 19/M00 Q1017=
201404261120 METAR ESMX 261120Z AUTO 17007KT 130V230 9999 NCD 18/M01 Q1017=
201404261050 METAR ESMX 261050Z AUTO 15006KT 110V200 9999 NCD 19/00 Q1017=
201404261020 METAR ESMX 261020Z AUTO 04005KT 340V110 9999 NCD 18/00 Q1017=
201404260950 METAR ESMX 260950Z AUTO 05006KT 330V100 9999 NCD 17/M00 Q1018=
201404260920 METAR ESMX 260920Z AUTO 04006KT 010V120 9999 NCD 16/M01 Q1018=
201404260850 METAR ESMX 260850Z AUTO 04006KT 010V080 9999 NCD 16/M01 Q1018=
201404260820 METAR ESMX 260820Z AUTO 05006KT 010V080 9999 NCD 15/M02 Q1018=
201404260750 METAR ESMX 260750Z AUTO 05007KT 020V100 9999 NCD 14/M03 Q1018=
201404260720 METAR ESMX 260720Z AUTO 07006KT 030V100 9999 NCD 13/M03 Q1019=
201404260650 METAR ESMX 260650Z AUTO 05005KT 9999 NCD 11/M03 Q1019=
201404260620 METAR ESMX 260620Z AUTO 05005KT 020V080 9999 NCD 10/M03 Q1019=
201404260550 METAR ESMX 260550Z AUTO 07005KT 040V110 9999 NCD 08/M03 Q1019=
201404260520 METAR ESMX 260520Z AUTO 02004KT 9999 NCD 06/M01 Q1019=
201404260450 METAR ESMX 260450Z AUTO 03003KT 9999 NCD 01/M01 Q1019=
201404260420 METAR ESMX 260420Z AUTO 02004KT 9999 NCD M01/M03 Q1019=
201404260350 METAR ESMX 260350Z AUTO 02004KT 9999 NCD M02/M03 Q1019=
201404260320 METAR ESMX 260320Z AUTO 02004KT 9999 NCD M02/M04 Q1019=
201404260250 METAR ESMX 260250Z AUTO 01004KT 9999 NCD M02/M04 Q1019=
201404260220 METAR ESMX 260220Z AUTO 05003KT 9999 NCD M02/M04 Q1019=
201404260150 METAR ESMX 260150Z AUTO 04003KT 9999 NCD M01/M03 Q1020=
201404260120 METAR ESMX 260120Z AUTO 06003KT 9999 NCD M01/M03 Q1020=
201404260050 METAR ESMX 260050Z AUTO VRB02KT 9999 NCD M01/M02 Q1020=
201404260020 METAR ESMX 260020Z AUTO 09002KT 9999 NCD 00/M02 Q1020=
201404252350 METAR ESMX 252350Z AUTO VRB03KT 9999 NCD 00/M02 Q1020=
201404252320 METAR ESMX 252320Z AUTO VRB02KT 9999 NCD 00/M02 Q1021=
201404252250 METAR ESMX 252250Z AUTO VRB01KT 9999 NCD 01/M01 Q1021=
201404252220 METAR ESMX 252220Z AUTO VRB01KT 9999 NCD 02/M02 Q1021=
201404252150 METAR ESMX 252150Z AUTO 06003KT 9999 NCD 03/M01 Q1021=
201404252120 METAR ESMX 252120Z AUTO 10003KT 9999 NCD 06/M01 Q1021=
201404252050 METAR ESMX 252050Z AUTO 09004KT 050V110 9999 NCD 08/M01 Q1021=
201404252020 METAR ESMX 252020Z AUTO 10004KT 070V150 9999 NCD 09/M01 Q1021=
201404251950 METAR ESMX 251950Z AUTO 10004KT 070V140 9999 NCD 10/M01 Q1021=
201404251920 METAR ESMX 251920Z AUTO 10005KT 070V140 9999 NCD 11/M01 Q1020=
201404251850 METAR ESMX 251850Z AUTO 08005KT 040V120 9999 NCD 12/M01 Q1020=
201404251820 METAR ESMX 251820Z AUTO 11005KT 070V160 9999 NCD 13/M01 Q1020=
201404251750 METAR ESMX 251750Z AUTO 12005KT 080V150 9999 NCD 14/M01 Q1020=
201404251720 METAR ESMX 251720Z 12006KT 070V150 CAVOK 16/M02 Q1020=
201404251650 METAR ESMX 251650Z 10005KT 020V150 CAVOK 17/M02 Q1020=
201404251620 METAR ESMX 251620Z 13006KT 080V170 CAVOK 17/M02 Q1020=
201404251550 METAR ESMX 251550Z 09005KT 060V160 CAVOK 18/M03 Q1020=
201404251520 METAR ESMX 251520Z 13005KT 070V200 CAVOK 18/M03 Q1020=
201404251450 METAR ESMX 251450Z 11006KT 070V150 CAVOK 18/M03 Q1020=
201404251420 METAR ESMX 251420Z 12007KT 070V160 CAVOK 18/M03 Q1021=
201404251350 METAR ESMX 251350Z 14007KT 110V170 CAVOK 18/M03 Q1021=
201404251320 METAR ESMX 251320Z 13006KT 060V180 CAVOK 18/M03 Q1021=
201404251250 METAR ESMX 251250Z 15007KT 110V200 CAVOK 18/M03 Q1021=
201404251220 METAR ESMX 251220Z 10007KT 060V150 CAVOK 18/M02 Q1022=
201404251150 METAR ESMX 251150Z 08007KT 030V150 CAVOK 17/M03 Q1022=
201404251120 METAR ESMX 251120Z 06007KT 010V100 CAVOK 17/M03 Q1022=
201404251050 METAR ESMX 251050Z 06006KT 010V110 CAVOK 16/M03 Q1022=
201404251020 METAR ESMX 251020Z 09006KT 030V170 CAVOK 16/M03 Q1023=
201404250950 METAR ESMX 250950Z 08007KT 020V140 CAVOK 15/M04 Q1023=
201404250926 METAR ESMX 250926Z 07007KT 020V110 9999 NSC 15/M04 Q1023=
201404250920 METAR ESMX 250920Z AUTO 07007KT 030V130 9999 NCD 15/M04 Q1023=
201404250850 METAR ESMX 250850Z AUTO 08007KT 030V150 9999 NCD 14/M05 Q1023=
201404250820 METAR ESMX 250820Z 07006KT 020V130 CAVOK 13/M03 Q1024=
201404250750 METAR ESMX 250750Z 05006KT CAVOK 10/M00 Q1024=
201404250720 METAR ESMX 250720Z 05006KT 020V080 CAVOK 09/M01 Q1024=
201404250650 METAR ESMX 250650Z 04008KT CAVOK 07/M00 Q1024=
201404250620 METAR ESMX 250620Z AUTO 04007KT 9999 NCD 06/M01 Q1024=
201404250550 METAR ESMX 250550Z 05008KT CAVOK 05/M01 Q1024=
201404250525 METAR ESMX 250525Z 05007KT CAVOK 04/M01 Q1024=
201404250520 METAR ESMX 250520Z AUTO 05007KT 9999 NCD 04/M01 Q1024=
201404250450 METAR ESMX 250450Z 04007KT CAVOK 03/M02 Q1024=
201404250420 METAR ESMX 250420Z 04006KT CAVOK 02/M02 Q1024=
201404250350 METAR ESMX 250350Z AUTO 03006KT 9999 NCD 02/M02 Q1024=
201404250320 METAR ESMX 250320Z AUTO 03006KT 9999 NCD 02/M03 Q1024=
201404250250 METAR ESMX 250250Z AUTO 03005KT 9999 NCD 02/M03 Q1024=
201404250220 METAR ESMX 250220Z AUTO 03005KT 9999 NCD 02/M03 Q1024=
201404250150 METAR ESMX 250150Z AUTO 04007KT 9999 NCD 03/M03 Q1025=
201404250120 METAR ESMX 250120Z AUTO 05006KT 9999 NCD 03/M03 Q1025=
201404250050 METAR ESMX 250050Z AUTO 05005KT 9999 NCD 03/M02 Q1025=
201404250020 METAR ESMX 250020Z 06005KT 030V090 CAVOK 04/M02 Q1025=
201404242350 METAR ESMX 242350Z 03005KT 350V060 CAVOK 04/M02 Q1025=
201404242320 METAR ESMX 242320Z 04005KT CAVOK 04/M02 Q1026=
201404242250 METAR ESMX 242250Z AUTO 07005KT 030V100 9999 NCD 05/M01 Q1026=
201404242220 METAR ESMX 242220Z AUTO 07004KT 030V100 9999 NCD 05/M02 Q1026=
201404242150 METAR ESMX 242150Z 07005KT CAVOK 05/M02 Q1026=
201404242120 METAR ESMX 242120Z 07006KT 030V110 CAVOK 06/M02 Q1026=
201404242050 METAR ESMX 242050Z 07005KT 030V110 CAVOK 06/M03 Q1026=
201404242020 METAR ESMX 242020Z 08006KT 030V110 CAVOK 07/M02 Q1026=
201404241950 METAR COR ESMX 241950Z 08006KT CAVOK 07/M03 Q1026=
201404241920 METAR ESMX 241920Z 08007KT 030V120 CAVOK 08/M03 Q1026=
201404241850 METAR ESMX 241850Z 08006KT 050V110 CAVOK 08/M02 Q1026=
201404241820 METAR ESMX 241820Z 08006KT 040V110 CAVOK 09/M02 Q1026=
201404241750 METAR ESMX 241750Z 08005KT 010V120 CAVOK 10/M02 Q1026=
201404241720 METAR ESMX 241720Z AUTO 10007KT 070V150 9999 NCD 11/M02 Q1026=
201404241650 METAR ESMX 241650Z 08008KT 050V110 CAVOK 11/M01 Q1026=
201404241620 METAR ESMX 241620Z 08008KT 040V120 CAVOK 13/M02 Q1026=
201404241550 METAR ESMX 241550Z 10009KT 060V140 CAVOK 14/M02 Q1026=
201404241520 METAR ESMX 241520Z 09008KT 060V130 CAVOK 14/M02 Q1026=
201404241450 METAR ESMX 241450Z AUTO 07009KT 050V110 9999 NCD 14/M02 Q1026=
201404241420 METAR ESMX 241420Z 08009KT 040V130 CAVOK 15/M01 Q1026=
201404241350 METAR ESMX 241350Z 07010KT 040V110 CAVOK 14/M02 Q1026=
201404241320 METAR ESMX 241320Z 08009KT 010V120 CAVOK 15/M02 Q1027=
201404241251 METAR ESMX 241251Z 07010KT 030V110 CAVOK 15/M02 Q1027=
201404241220 METAR ESMX 241220Z AUTO 06009KT 020V110 9999 NCD 15/M02 Q1027=
201404241150 METAR ESMX 241150Z 05009KT 010V110 CAVOK 14/M03 Q1027=
201404241120 METAR ESMX 241120Z 06010KT 020V100 CAVOK 14/M03 Q1027=
201404241050 METAR ESMX 241050Z 06010KT 020V090 CAVOK 13/M03 Q1027=
201404241020 METAR ESMX 241020Z 06011KT 030V100 CAVOK 13/M03 Q1028=
201404240950 METAR ESMX 240950Z 07010KT CAVOK 13/M03 Q1028=
201404240920 METAR ESMX 240920Z 06010KT 010V110 CAVOK 12/M03 Q1028=
201404240850 METAR ESMX 240850Z 07010KT 030V100 CAVOK 11/M04 Q1028=
201404240820 METAR ESMX 240820Z 07011KT 030V100 CAVOK 10/M04 Q1028=
201404240750 METAR ESMX 240750Z 06009KT 020V110 CAVOK 10/M03 Q1028=
201404240720 METAR ESMX 240720Z 06009KT 020V100 CAVOK 08/M03 Q1028=
201404240650 METAR ESMX 240650Z 06008KT 020V100 CAVOK 07/M02 Q1028=
201404240620 METAR ESMX 240620Z 05009KT 020V090 CAVOK 06/M02 Q1028=
201404240550 METAR ESMX 240550Z 05007KT 020V080 CAVOK 05/M01 Q1028=
201404240520 METAR ESMX 240520Z AUTO 05008KT 9999 NCD 04/M02 Q1028=
201404240450 METAR ESMX 240450Z 04008KT CAVOK 03/M02 Q1028=
201404240420 METAR ESMX 240420Z AUTO 04008KT 9999 NCD 02/M02 Q1028=
201404240350 METAR ESMX 240350Z 05009KT CAVOK 02/M02 Q1028=
201404240320 METAR ESMX 240320Z AUTO 05008KT 9999 NCD 02/M02 Q1028=
201404240250 METAR ESMX 240250Z AUTO 04009KT 9999 NCD 02/M02 Q1028=
201404240220 METAR ESMX 240220Z AUTO 04008KT 9999 NCD 02/M02 Q1029=
201404240150 METAR ESMX 240150Z AUTO 04009KT 9999 NCD 02/M02 Q1029=
201404240120 METAR ESMX 240120Z AUTO 04010KT 9999 NCD 02/M02 Q1029=
201404240050 METAR ESMX 240050Z AUTO 05010KT 9999 NCD 02/M02 Q1029=
201404240020 METAR ESMX 240020Z AUTO 05008KT 020V080 9999 NCD 02/M03 Q1029=
201404232350 METAR ESMX 232350Z 04009KT 020V090 CAVOK 02/M03 Q1029=
201404232320 METAR ESMX 232320Z 03008KT 360V070 CAVOK 03/M04 Q1029=
201404232250 METAR ESMX 232250Z 04009KT CAVOK 03/M04 Q1029=
201404232220 METAR ESMX 232220Z 05008KT 020V090 CAVOK 03/M05 Q1029=
201404232150 METAR ESMX 232150Z 05008KT CAVOK 03/M05 Q1029=
201404232120 METAR ESMX 232120Z 05008KT 020V080 CAVOK 03/M06 Q1029=
201404232050 METAR ESMX 232050Z 04008KT 360V100 CAVOK 04/M06 Q1029=
201404232020 METAR ESMX 232020Z AUTO 06009KT 020V090 9999 NCD 04/M07 Q1029=
201404231950 METAR ESMX 231950Z AUTO 05009KT 020V110 9999 NCD 04/M07 Q1029=
201404231920 METAR ESMX 231920Z 05012KT 030V090 CAVOK 05/M07 Q1029=
201404231850 METAR ESMX 231850Z 06010KT 030V110 CAVOK 05/M08 Q1028=
201404231820 METAR ESMX 231820Z AUTO 05009KT 030V100 9999 NCD 06/M09 Q1028=
201404231750 METAR ESMX 231750Z 05012KT CAVOK 07/M09 Q1028=
201404231720 METAR ESMX 231720Z 05014G24KT CAVOK 07/M09 Q1028=
201404231650 METAR ESMX 231650Z 05013KT CAVOK 08/M08 Q1027=
201404231620 METAR ESMX 231620Z 05012KT 020V090 CAVOK 09/M07 Q1027=
201404231550 METAR ESMX 231550Z 05012KT 030V100 CAVOK 10/M07 Q1027=
201404231520 METAR ESMX 231520Z 04012KT CAVOK 11/M07 Q1027=
201404231450 METAR ESMX 231450Z 05012KT 020V090 CAVOK 12/M06 Q1027=
201404231420 METAR ESMX 231420Z 04015KT CAVOK 12/M05 Q1026=
201404231350 METAR ESMX 231350Z 05012KT 020V100 CAVOK 13/M04 Q1027=
201404231320 METAR ESMX 231320Z 05014KT 020V080 CAVOK 13/M03 Q1026=
201404231250 METAR ESMX 231250Z 05014KT CAVOK 13/M02 Q1026=
201404231220 METAR ESMX 231220Z 05014KT CAVOK 14/M02 Q1026=
201404231150 METAR ESMX 231150Z 05015KT 020V080 CAVOK 14/M01 Q1026=
201404231120 METAR ESMX 231120Z AUTO 05013KT 9999 FEW100/// 14/M01 Q1026=
201404231050 METAR ESMX 231050Z 05013KT CAVOK 14/M01 Q1026=
201404231020 METAR ESMX 231020Z 04011KT 010V080 CAVOK 13/M01 Q1026=
201404230950 METAR ESMX 230950Z 05015G25KT CAVOK 12/M01 Q1026=
201404230920 METAR ESMX 230920Z 05012KT 030V090 CAVOK 13/M00 Q1026=
201404230850 METAR ESMX 230850Z 04012G22KT 360V070 CAVOK 12/01 Q1025=
201404230820 METAR ESMX 230820Z 04013KT CAVOK 10/01 Q1025=
201404230750 METAR ESMX 230750Z 04011G22KT 020V080 CAVOK 10/01 Q1025=
201404230720 METAR ESMX 230720Z 03012KT 360V070 CAVOK 09/01 Q1025=
201404230650 METAR ESMX 230650Z 03010KT 350V080 CAVOK 08/01 Q1024=
201404230620 METAR ESMX 230620Z AUTO 04011KT 010V080 9999 NCD 08/00 Q1024=
201404230550 METAR ESMX 230550Z 04010KT CAVOK 07/M00 Q1024=
201404230523 METAR ESMX 230523Z 04010KT CAVOK 07/M01 Q1024=
201404230520 METAR ESMX 230520Z AUTO 04009KT 9999 NCD 07/M01 Q1024=
201404230450 METAR ESMX 230450Z 04010KT CAVOK 06/M01 Q1024=
201404230420 METAR ESMX 230420Z 04010KT CAVOK 06/M02 Q1023=
201404230350 METAR ESMX 230350Z 04009KT CAVOK 06/M02 Q1023=
201404230320 METAR ESMX 230320Z AUTO 03010KT 9999 BKN072/// 06/M03 Q1023=
201404230250 METAR ESMX 230250Z AUTO 04009KT 9999 SCT072/// 06/M02 Q1023=
201404230220 METAR ESMX 230220Z AUTO 04010KT 010V070 9999 BKN067/// BKN085/// 06/M01 Q1023=
201404230150 METAR ESMX 230150Z AUTO 04010KT 020V080 9999 BKN068/// BKN100/// 07/00 Q1023=
201404230120 METAR ESMX 230120Z AUTO 05008KT 020V080 9999 BKN066/// 07/01 Q1023=
201404230050 METAR ESMX 230050Z AUTO 04010KT 9999 SCT064/// 07/01 Q1022=
201404230020 METAR ESMX 230020Z AUTO 04010KT 9999 SCT079/// 07/00 Q1022=
201404222350 METAR ESMX 222350Z 05009KT 020V080 CAVOK 07/01 Q1022=
201404222320 METAR ESMX 222320Z 05007KT CAVOK 08/01 Q1022=
201404222250 METAR ESMX 222250Z 06009KT 030V100 CAVOK 08/01 Q1022=
201404222220 METAR ESMX 222220Z 06008KT 030V100 CAVOK 09/01 Q1022=
201404222150 METAR ESMX 222150Z 06009KT 030V100 CAVOK 09/01 Q1022=
201404222120 METAR ESMX 222120Z 05008KT 020V110 CAVOK 10/01 Q1021=
201404222050 METAR ESMX 222050Z 06007KT 020V090 CAVOK 10/01 Q1021=
201404222020 METAR ESMX 222020Z 06007KT 030V100 CAVOK 10/00 Q1021=
201404221950 METAR ESMX 221950Z 06008KT 020V090 CAVOK 11/00 Q1020=
201404221920 METAR ESMX 221920Z 04007KT 020V080 CAVOK 11/00 Q1020=
201404221850 METAR ESMX 221850Z 04008KT CAVOK 12/01 Q1020=
201404221820 METAR ESMX 221820Z 04008KT CAVOK 12/00 Q1019=
201404221750 METAR ESMX 221750Z 04009KT CAVOK 13/M00 Q1019=
201404221720 METAR ESMX 221720Z 05009KT CAVOK 14/M01 Q1019=
201404221650 METAR ESMX 221650Z 05008KT 030V100 CAVOK 15/M02 Q1019=
201404221620 METAR ESMX 221620Z 05011KT CAVOK 15/M03 Q1018=
201404221550 METAR ESMX 221550Z 05011KT CAVOK 16/M01 Q1018=
201404221520 METAR ESMX 221520Z 04010KT CAVOK 17/M00 Q1018=
201404221450 METAR ESMX 221450Z 04011KT CAVOK 18/01 Q1018=
201404221420 METAR ESMX 221420Z 04010KT 010V070 CAVOK 18/01 Q1018=
201404221350 METAR ESMX 221350Z 05012KT CAVOK 18/01 Q1018=
201404221320 METAR ESMX 221320Z 07010KT 020V110 CAVOK 18/01 Q1018=
201404221250 METAR ESMX 221250Z 06010KT 020V100 CAVOK 18/01 Q1018=
201404221220 METAR ESMX 221220Z 05010KT 020V090 CAVOK 17/02 Q1018=
201404221150 METAR ESMX 221150Z 05010KT 020V100 CAVOK 16/02 Q1018=
201404221120 METAR ESMX 221120Z 07010KT 040V110 CAVOK 16/03 Q1017=
201404221050 METAR ESMX 221050Z AUTO 05008KT 010V090 9999 FEW059/// SCT110/// 16/02 Q1018=
201404221020 METAR ESMX 221020Z 06008KT 360V110 CAVOK 16/02 Q1017=
201404220950 METAR ESMX 220950Z 07012KT 030V120 CAVOK 16/02 Q1017=
201404220920 METAR ESMX 220920Z 07009KT 040V120 CAVOK 16/03 Q1017=
201404220850 METAR COR ESMX 220850Z 07009KT 030V110 CAVOK 15/02 Q1017=
201404220820 METAR COR ESMX 220820Z 06009KT 010V120 CAVOK 16/02 Q1017=
201404220750 METAR COR ESMX 220750Z 04008KT 360V080 CAVOK 15/03 Q1016=
201404220720 METAR ESMX 220720Z 04008KT 010V080 CAVOK 14/03 Q1016=
201404220650 METAR ESMX 220650Z 05008KT 020V090 CAVOK 13/03 Q1016=
201404220620 METAR ESMX 220620Z 04009KT CAVOK 12/03 Q1016=
201404220550 METAR ESMX 220550Z 04010KT CAVOK 11/02 Q1016=
201404220520 METAR ESMX 220520Z 04009KT CAVOK 11/02 Q1016=
201404220450 METAR ESMX 220450Z 04008KT CAVOK 11/02 Q1015=
201404220420 METAR ESMX 220420Z 03010KT CAVOK 10/02 Q1015=
201404220350 METAR ESMX 220350Z 03011KT CAVOK 10/02 Q1015=
201404220320 METAR ESMX 220320Z AUTO 03011KT 9999 BKN072/// BKN089/// 10/02 Q1015=
201404220250 METAR ESMX 220250Z AUTO 01010KT 9999 BKN068/// 09/02 Q1015 RERA=
201404220220 METAR ESMX 220220Z AUTO 01008KT 9999 -DZ BKN068/// 09/03 Q1016 RERA=
201404220150 METAR ESMX 220150Z AUTO 02007KT 9999 SCT070/// 09/03 Q1016=
201404220120 METAR ESMX 220120Z AUTO 03008KT 9999 -DZ FEW069/// 08/03 Q1016=
201404220050 METAR ESMX 220050Z AUTO 03008KT 9999 -RA NCD 09/03 Q1016=
201404220020 METAR ESMX 220020Z AUTO 03009KT 9999 SCT078/// 09/02 Q1016=
201404212350 METAR ESMX 212350Z 03010KT CAVOK 09/02 Q1016=
201404212320 METAR ESMX 212320Z 03009KT CAVOK 09/02 Q1016=
201404212250 METAR ESMX 212250Z 03009KT CAVOK 10/02 Q1016=
201404212220 METAR ESMX 212220Z AUTO 03008KT 9999 BKN079/// 10/03 Q1016=
201404212150 METAR ESMX 212150Z 03005KT CAVOK 10/03 Q1016=
201404212120 METAR ESMX 212120Z 04009KT CAVOK 11/03 Q1016=
201404212050 METAR ESMX 212050Z 02007KT CAVOK 11/03 Q1016=
201404212020 METAR ESMX 212020Z AUTO 04009KT 9999 OVC082/// 12/03 Q1015=
201404211950 METAR ESMX 211950Z 04010KT CAVOK 12/04 Q1016=
201404211920 METAR ESMX 211920Z 04009KT CAVOK 13/04 Q1016=
201404211850 METAR ESMX 211850Z 05008KT 020V090 CAVOK 13/04 Q1016=
201404211820 METAR ESMX 211820Z 04010KT CAVOK 14/04 Q1015=
201404211750 METAR ESMX 211750Z 04008KT CAVOK 15/04 Q1015=
201404211720 METAR ESMX 211720Z 04007KT 010V090 CAVOK 16/04 Q1015=
201404211650 METAR ESMX 211650Z 03007KT 350V080 CAVOK 17/05 Q1015=
201404211620 METAR ESMX 211620Z 08005KT 040V120 CAVOK 17/04 Q1015=
201404211550 METAR COR ESMX 211550Z 08006KT 030V120 CAVOK 17/03 Q1015=
201404211520 METAR ESMX 211520Z 08006KT 040V110 CAVOK 18/03 Q1015=
201404211450 METAR ESMX 211450Z 06008KT 030V100 CAVOK 18/03 Q1015=
201404211420 METAR ESMX 211420Z 04009KT 010V080 CAVOK 18/03 Q1015=
201404211350 METAR ESMX 211350Z 05010KT 020V080 CAVOK 19/03 Q1015=
201404211320 METAR ESMX 211320Z 05010KT 030V100 CAVOK 20/03 Q1015=
201404211250 METAR ESMX 211250Z 06010KT 030V100 CAVOK 19/03 Q1015=
201404211230 METAR ESMX 211230Z 06011KT 020V100 CAVOK 20/03 Q1015=
201404211220 METAR ESMX 211220Z AUTO 06009KT 020V110 9999 FEW086/// 19/03 Q1015=
201404211150 METAR ESMX 211150Z 06009KT 360V100 CAVOK 19/03 Q1015=
201404211120 METAR ESMX 211120Z 05010G21KT 020V100 CAVOK 19/04 Q1015=
201404211050 METAR ESMX 211050Z 05012G25KT 010V080 CAVOK 19/03 Q1015=
201404211020 METAR ESMX 211020Z AUTO 05010KT 010V080 9999 BKN085/// 19/04 Q1016=
201404210950 METAR ESMX 210950Z 06011KT 020V100 CAVOK 18/03 Q1016=
201404210920 METAR ESMX 210920Z 04011KT 350V080 CAVOK 18/03 Q1016=
201404210850 METAR ESMX 210850Z 04010KT CAVOK 18/04 Q1016=
201404210820 METAR ESMX 210820Z 04010KT CAVOK 17/04 Q1016=
201404210750 METAR ESMX 210750Z 03009KT 360V060 CAVOK 15/04 Q1016=
201404210720 METAR ESMX 210720Z AUTO 01009KT 9999 NCD 14/04 Q1016=
201404210650 METAR ESMX 210650Z AUTO 03009KT 9999 FEW081/// 12/03 Q1016=
201404210620 METAR ESMX 210620Z AUTO 04009KT 9999 FEW081/// 11/03 Q1017=
201404210550 METAR ESMX 210550Z AUTO 04005KT 010V070 9999 SCT080/// 10/03 Q1017=
201404210520 METAR ESMX 210520Z AUTO 03009KT 9999 BKN077/// 09/02 Q1017=
201404210450 METAR ESMX 210450Z AUTO 02008KT 9999 BKN079/// 08/02 Q1017=
201404210420 METAR ESMX 210420Z AUTO 03008KT 9999 FEW078/// 07/02 Q1017=
201404210350 METAR ESMX 210350Z AUTO 03008KT 9999 FEW077/// 07/02 Q1017=
201404210320 METAR ESMX 210320Z AUTO 03007KT 9999 NCD 07/02 Q1017=
201404210250 METAR ESMX 210250Z AUTO 03007KT 9999 NCD 07/02 Q1017=
201404210220 METAR ESMX 210220Z AUTO 03007KT 9999 NCD 07/02 Q1017=
201404210150 METAR ESMX 210150Z AUTO 04006KT 9999 NCD 07/02 Q1018=
201404210120 METAR ESMX 210120Z AUTO 03006KT 9999 NCD 07/02 Q1018=
201404210050 METAR ESMX 210050Z AUTO 03007KT 9999 NCD 08/02 Q1018=
201404210020 METAR ESMX 210020Z AUTO 03008KT 9999 NCD 08/02 Q1018=
201404202350 METAR ESMX 202350Z AUTO 02008KT 9999 NCD 08/02 Q1018=
201404202320 METAR ESMX 202320Z AUTO 02007KT 9999 NCD 08/02 Q1019=
201404202250 METAR ESMX 202250Z AUTO 01006KT 9999 NCD 08/02 Q1019=
201404202220 METAR ESMX 202220Z AUTO 02006KT 9999 NCD 09/03 Q1019=
201404202150 METAR ESMX 202150Z AUTO 02006KT 9999 NCD 09/03 Q1019=
201404202120 METAR ESMX 202120Z AUTO 03005KT 9999 NCD 10/02 Q1019=
201404202050 METAR ESMX 202050Z AUTO 04006KT 9999 NCD 11/03 Q1019=
201404202020 METAR ESMX 202020Z AUTO 04005KT 9999 NCD 11/03 Q1019=
201404201950 METAR ESMX 201950Z AUTO 06004KT 9999 NCD 12/03 Q1019=
201404201920 METAR ESMX 201920Z AUTO 06003KT 9999 NCD 11/03 Q1019=
201404201850 METAR ESMX 201850Z AUTO 07003KT 9999 NCD 13/03 Q1019=
201404201820 METAR ESMX 201820Z AUTO 08004KT 9999 NCD 14/03 Q1019=
201404201750 METAR ESMX 201750Z AUTO 08004KT 050V110 9999 NCD 15/03 Q1019=
201404201720 METAR ESMX 201720Z AUTO 08005KT 050V120 9999 NCD 16/03 Q1019=
201404201650 METAR ESMX 201650Z 06006KT 030V100 CAVOK 18/03 Q1019=
201404201620 METAR ESMX 201620Z 08006KT 030V120 CAVOK 18/03 Q1019=
201404201550 METAR ESMX 201550Z 07006KT 030V120 CAVOK 19/03 Q1019=
201404201520 METAR ESMX 201520Z 09006KT 030V130 CAVOK 19/03 Q1019=
201404201450 METAR ESMX 201450Z 05006KT 010V100 CAVOK 19/03 Q1020=
201404201420 METAR ESMX 201420Z 08006KT 020V120 CAVOK 19/03 Q1020=
201404201350 METAR ESMX 201350Z 08007KT 020V120 CAVOK 19/03 Q1020=
201404201320 METAR ESMX 201320Z AUTO 08007KT 010V120 9999 FEW047/// SCT062/// 19/03 Q1020=
201404201250 METAR ESMX 201250Z AUTO 07007KT 020V140 9999 FEW042/// SCT050/// BKN061/// 19/03 Q1021=
201404201220 METAR ESMX 201220Z AUTO 08007KT 050V130 9999 FEW041/// SCT049/// 19/03 Q1021=
201404201150 METAR ESMX 201150Z AUTO 05007KT 360V100 9999 FEW041/// 19/03 Q1021=
201404201120 METAR ESMX 201120Z AUTO 05009KT 020V080 9999 NCD 18/02 Q1021=
201404201050 METAR ESMX 201050Z AUTO 07008KT 020V110 9999 NCD 18/02 Q1021=
201404201020 METAR ESMX 201020Z AUTO 05008KT 020V110 9999 NCD 17/01 Q1022=
201404200950 METAR ESMX 200950Z AUTO 06007KT 030V110 9999 NCD 17/01 Q1022=
201404200920 METAR ESMX 200920Z AUTO 05008KT 010V080 9999 NCD 16/02 Q1022=
201404200850 METAR ESMX 200850Z AUTO 05008KT 020V080 9999 NCD 15/01 Q1022=
201404200820 METAR ESMX 200820Z AUTO 04009KT 9999 NCD 14/01 Q1022=
201404200750 METAR ESMX 200750Z AUTO 07008KT 020V130 9999 NCD 13/00 Q1022=
201404200720 METAR ESMX 200720Z AUTO 06008KT 020V100 9999 NCD 13/01 Q1022=
201404200650 METAR ESMX 200650Z AUTO 04006KT 9999 NCD 11/02 Q1022=
201404200620 METAR ESMX 200620Z AUTO 04005KT 9999 NCD 09/02 Q1022=
201404200550 METAR ESMX 200550Z AUTO 04005KT 9999 NCD 08/02 Q1022=
201404200520 METAR ESMX 200520Z AUTO 04005KT 9999 NCD 06/02 Q1022=
201404200450 METAR ESMX 200450Z AUTO 03005KT 9999 NCD 04/02 Q1022=
201404200420 METAR ESMX 200420Z AUTO 04005KT 9999 NCD 04/02 Q1022=
201404200350 METAR ESMX 200350Z AUTO 03005KT 9999 NCD 04/02 Q1022=
201404200320 METAR ESMX 200320Z AUTO 03003KT 9999 NCD 04/02 Q1022=
201404200250 METAR ESMX 200250Z AUTO 36002KT 9999 NCD 03/02 Q1022=
201404200220 METAR ESMX 200220Z AUTO 02003KT 9999 NCD 02/01 Q1022=
201404200150 METAR ESMX 200150Z AUTO 04003KT 9999 NCD 01/00 Q1023=
201404200120 METAR ESMX 200120Z AUTO 03003KT 9999 NCD 01/00 Q1023=
201404200050 METAR ESMX 200050Z AUTO 01001KT 9999 NCD 01/00 Q1023=
201404200020 METAR ESMX 200020Z AUTO 02004KT 9999 NCD 02/00 Q1023=
201404192350 METAR ESMX 192350Z AUTO 02002KT 9999 NCD 02/00 Q1023=
201404192320 METAR ESMX 192320Z AUTO 01002KT 9999 NCD 02/01 Q1023=
201404192250 METAR ESMX 192250Z AUTO 00000KT 9999 NCD 03/00 Q1023=
201404192220 METAR ESMX 192220Z AUTO VRB01KT 9999 NCD 03/01 Q1023=
201404192150 METAR ESMX 192150Z AUTO 07003KT 9999 NCD 06/02 Q1023=
201404192120 METAR ESMX 192120Z AUTO 08003KT 9999 NCD 07/02 Q1023=
201404192050 METAR ESMX 192050Z AUTO 08003KT 9999 NCD 08/02 Q1024=
201404192020 METAR ESMX 192020Z AUTO 09002KT 9999 NCD 09/02 Q1024=
201404191950 METAR ESMX 191950Z AUTO 11004KT 070V150 9999 NCD 11/02 Q1024=
201404191920 METAR ESMX 191920Z AUTO 11004KT 060V150 9999 NCD 12/02 Q1024=
201404191850 METAR ESMX 191850Z AUTO 11004KT 060V140 9999 NCD 12/02 Q1023=
201404191820 METAR ESMX 191820Z AUTO 14004KT 100V170 9999 NCD 13/03 Q1023=
201404191750 METAR ESMX 191750Z AUTO 09004KT 9999 NCD 15/02 Q1023=
201404191720 METAR ESMX 191720Z AUTO 08003KT 050V140 9999 NCD 16/02 Q1023=
201404191650 METAR ESMX 191650Z AUTO 07004KT 030V100 9999 NCD 17/01 Q1023=
201404191620 METAR ESMX 191620Z AUTO 06005KT 010V080 9999 NCD 17/01 Q1023=
201404191550 METAR ESMX 191550Z AUTO 04006KT 360V070 9999 NCD 18/01 Q1023=
201404191520 METAR ESMX 191520Z AUTO 04007KT 360V080 9999 NCD 18/01 Q1023=
201404191450 METAR ESMX 191450Z AUTO 36006KT 330V070 9999 NCD 18/01 Q1023=
201404191420 METAR ESMX 191420Z AUTO 02007KT 340V080 9999 NCD 18/01 Q1024=
201404191350 METAR ESMX 191350Z AUTO 04007KT 010V080 9999 NCD 18/01 Q1024=
201404191320 METAR ESMX 191320Z AUTO 07005KT 020V190 9999 NCD 17/01 Q1024=
201404191250 METAR ESMX 191250Z AUTO 04006KT 340V080 9999 NCD 17/01 Q1024=
201404191220 METAR ESMX 191220Z AUTO 06005KT 360V140 9999 NCD 17/01 Q1024=
201404191150 METAR ESMX 191150Z AUTO VRB04KT 320V240 9999 NCD 17/01 Q1024=
201404191120 METAR ESMX 191120Z AUTO 35007KT 9999 NCD 16/03 Q1025=
201404191050 METAR ESMX 191050Z AUTO VRB06KT 070V030 9999 NCD 16/02 Q1025=
201404191020 METAR ESMX 191020Z AUTO 05007KT 010V100 9999 NCD 16/02 Q1025=
201404190950 METAR ESMX 190950Z AUTO 04006KT 350V100 9999 NCD 16/02 Q1025=
201404190920 METAR ESMX 190920Z AUTO 05006KT 020V100 9999 NCD 15/03 Q1025=
201404190850 METAR ESMX 190850Z AUTO 08005KT 040V120 9999 NCD 15/04 Q1025=
201404190820 METAR ESMX 190820Z AUTO 04005KT 350V080 9999 NCD 13/03 Q1025=
201404190750 METAR ESMX 190750Z AUTO 36003KT 310V070 9999 NCD 13/04 Q1025=
201404190720 METAR ESMX 190720Z AUTO 05003KT 020V100 9999 NCD 12/04 Q1024=
201404190650 METAR ESMX 190650Z AUTO VRB03KT 9999 NCD 10/03 Q1024=
201404190620 METAR ESMX 190620Z AUTO VRB03KT 9999 NCD 08/03 Q1024=
201404190550 METAR ESMX 190550Z AUTO 01003KT 9999 NCD 06/02 Q1024=
201404190520 METAR ESMX 190520Z AUTO 03004KT 010V070 9999 NCD 05/02 Q1024=
201404190450 METAR ESMX 190450Z AUTO 02003KT 340V060 6000 NCD 02/01 Q1024=
201404190420 METAR ESMX 190420Z AUTO 03004KT 4100 BR NCD 00/M01 Q1023=
201404190350 METAR ESMX 190350Z AUTO 08003KT 040V110 5000 NCD 02/01 Q1023=
201404190320 METAR ESMX 190320Z AUTO 05004KT 9999 NCD 03/02 Q1023=
201404190250 METAR ESMX 190250Z AUTO 03004KT 7000 NCD 03/02 Q1023=
201404190220 METAR ESMX 190220Z AUTO 06004KT 020V100 4100 NCD 03/02 Q1022=
201404190150 METAR ESMX 190150Z AUTO 04004KT 7000 BR NCD 02/01 Q1022=
201404190120 METAR ESMX 190120Z AUTO 03005KT 7000 BR NCD 03/02 Q1022=
201404190050 METAR ESMX 190050Z AUTO 03004KT 6000 BR NCD 03/02 Q1022=
201404190020 METAR ESMX 190020Z AUTO 04004KT 8000 NCD 04/02 Q1022=
201404182350 METAR ESMX 182350Z AUTO 07003KT 050V110 7000 NCD 04/03 Q1022=
201404182320 METAR ESMX 182320Z AUTO 03004KT 9000 NCD 04/03 Q1022=
201404182250 METAR ESMX 182250Z AUTO 07005KT 030V120 9999 NCD 05/03 Q1021=
201404182220 METAR ESMX 182220Z AUTO 05005KT 020V080 9999 NCD 05/03 Q1021=
201404182150 METAR ESMX 182150Z AUTO 05006KT 020V100 9999 NCD 06/04 Q1021=
201404182120 METAR ESMX 182120Z AUTO 05004KT 020V090 9000 BR FEW010/// 06/04 Q1020=
201404182050 METAR ESMX 182050Z AUTO 07005KT 9999 BKN011/// 07/05 Q1020=
201404182020 METAR ESMX 182020Z AUTO 05005KT 020V100 9999 BKN012/// 07/05 Q1019=
201404181950 METAR ESMX 181950Z AUTO 07005KT 040V110 9999 BKN027/// 07/05 Q1019=
201404181920 METAR ESMX 181920Z AUTO 05005KT 020V100 9999 SCT020/// BKN027/// OVC032/// 07/05 Q1018=
201404181850 METAR ESMX 181850Z AUTO 07005KT 040V110 9999 FEW012/// SCT024/// OVC028/// 08/05 Q1017=
201404181820 METAR ESMX 181820Z AUTO 07005KT 030V110 9999 FEW015/// SCT023/// OVC030/// 08/05 Q1017=
201404181750 METAR ESMX 181750Z AUTO 06005KT 360V090 9999 OVC029/// 08/05 Q1016=
201404181720 METAR ESMX 181720Z AUTO 08006KT 040V120 9999 SCT014/// BKN029/// 08/05 Q1015=
201404181650 METAR ESMX 181650Z AUTO 06006KT 030V100 9999 SCT014/// BKN019/// OVC028/// 08/06 Q1015=
201404181620 METAR ESMX 181620Z AUTO 07005KT 040V110 9999 FEW013/// OVC022/// 08/05 Q1014=
201404181550 METAR ESMX 181550Z AUTO 05005KT 020V100 9999 BKN023/// OVC036/// 08/06 Q1014=
201404181520 METAR ESMX 181520Z AUTO 09004KT 040V140 9999 FEW011/// SCT021/// BKN031/// 08/06 Q1013=
201404181450 METAR ESMX 181450Z AUTO 06004KT 030V110 9999 FEW013/// SCT015/// BKN022/// 08/06 Q1013=
201404181420 METAR ESMX 181420Z AUTO 03005KT 9999 DZ FEW009/// SCT027/// BKN031/// 08/06 Q1012=
201404181350 METAR ESMX 181350Z AUTO 06005KT 020V130 5000 RA FEW020/// SCT025/// BKN029/// 08/06 Q1012 REDZ=
201404181320 METAR ESMX 181320Z AUTO 01007KT 9999 FEW024/// SCT031/// BKN041/// 08/05 Q1011=
201404181250 METAR ESMX 181250Z AUTO 04006KT 9999 FEW018/// BKN023/// OVC034/// 08/06 Q1011=
201404181220 METAR ESMX 181220Z AUTO 06003KT 020V100 9999 -RA BKN019/// BKN028/// 07/05 Q1010=
201404181150 METAR ESMX 181150Z 06005KT 020V100 9999 RA BKN022 07/05 Q1009 REDZ=
201404181120 METAR ESMX 181120Z 06007KT 030V100 9999 -SHRA FEW018 BKN030 08/04 Q1009=
201404181050 METAR ESMX 181050Z 01004KT 340V040 9999 FEW017 OVC030 08/01 Q1008=
201404181020 METAR ESMX 181020Z 02005KT 9999 BKN030 08/01 Q1008=
201404180950 METAR ESMX 180950Z 36005KT 9999 FEW035 BKN040 08/01 Q1007=
201404180920 METAR ESMX 180920Z AUTO 01005KT 330V050 9999 NCD 08/02 Q1007=
201404180850 METAR ESMX 180850Z 07006KT 020V120 9999 SCT020 BKN077 08/02 Q1006=
201404180820 METAR ESMX 180820Z 01005KT 340V050 9999 FEW022 SCT026 07/01 Q1006=
201404180750 METAR COR ESMX 180750Z 34004KT 310V020 9999 SCT020 06/01 Q1005=
201404180720 METAR ESMX 180720Z AUTO 31004KT 260V340 9999 NCD 06/02 Q1005=
201404180650 METAR ESMX 180650Z 30004KT 260V330 9999 FEW023 05/02 Q1004=
201404180620 METAR ESMX 180620Z AUTO 30003KT 250V350 9999 FEW089/// 05/02 Q1004=
201404180550 METAR ESMX 180550Z AUTO 30004KT 9999 FEW022/// 05/03 Q1004=
201404180520 METAR ESMX 180520Z AUTO 31002KT 9999 FEW022/// SCT090/// 04/03 Q1003=
201404180450 METAR ESMX 180450Z AUTO 31003KT 9999 FEW074/// 04/03 Q1003=
201404180420 METAR ESMX 180420Z AUTO 31004KT 9999 FEW007/// BKN013/// 04/03 Q1003=
201404180350 METAR ESMX 180350Z AUTO 27005KT 9999 FEW004/// OVC014/// 05/04 Q1003=
201404180320 METAR ESMX 180320Z AUTO 21003KT 9999 -DZ FEW010/// SCT013/// OVC016/// 05/04 Q1002=
201404180250 METAR ESMX 180250Z AUTO 22004KT 9999 DZ FEW017/// OVC026/// 05/04 Q1002=
201404180220 METAR ESMX 180220Z AUTO 19005KT 9999 DZ BKN028/// BKN055/// 05/04 Q1002=
201404180150 METAR ESMX 180150Z AUTO 18004KT 9999 -RA FEW028/// SCT037/// 05/04 Q1002=
201404180120 METAR ESMX 180120Z AUTO 20006KT 9999 -RA FEW019/// SCT024/// BKN029/// 05/04 Q1002=
201404180050 METAR ESMX 180050Z AUTO 21006KT 6000 -RA FEW008/// SCT018/// BKN021/// 05/05 Q1002 REDZ=
201404180020 METAR ESMX 180020Z AUTO 19007KT 9999 DZ FEW016/// 05/04 Q1002=
201404172350 METAR ESMX 172350Z AUTO 21010KT 9999 DZ FEW007/// SCT014/// 06/04 Q1002=
201404172320 METAR ESMX 172320Z AUTO 20010KT 7000 DZ FEW007/// SCT010/// BKN013/// 06/05 Q1003=
201404172250 METAR ESMX 172250Z AUTO 20012KT 5000 -RA FEW005/// SCT006/// BKN008/// 06/05 Q1003=
201404172220 METAR ESMX 172220Z AUTO 19012KT 8000 -RA FEW008/// BKN011/// BKN018/// 06/05 Q1003=
201404172150 METAR ESMX 172150Z AUTO 18015KT 8000 DZ FEW007/// SCT009/// BKN011/// 06/05 Q1004=
201404172120 METAR ESMX 172120Z AUTO 17014KT 7000 -RA FEW008/// SCT011/// BKN013/// 06/05 Q1004=
201404172050 METAR ESMX 172050Z AUTO 17014KT 8000 -RA FEW010/// SCT017/// BKN022/// 06/05 Q1004=
201404172020 METAR ESMX 172020Z AUTO 17013KT 8000 -RA FEW023/// BKN027/// 06/05 Q1005=
201404171950 METAR ESMX 171950Z AUTO 18012KT 8000 -RA FEW014/// SCT021/// BKN025/// 06/05 Q1005=
201404171920 METAR ESMX 171920Z AUTO 19014KT 9000 -RA BKN025/// 07/05 Q1006 REDZ=
201404171850 METAR ESMX 171850Z 20015KT 9999 -RA FEW018 BKN030 BKN041 08/04 Q1006=
201404171820 METAR ESMX 171820Z AUTO 21016KT 9999 DZ FEW015/// SCT021/// BKN039/// 08/03 Q1006=
201404171750 METAR ESMX 171750Z AUTO 20018KT 9999 DZ FEW022/// SCT044/// BKN066/// 10/01 Q1006=
201404171720 METAR ESMX 171720Z 19017KT 9999 SCT046 BKN063 10/00 Q1007=
201404171650 METAR ESMX 171650Z 20019KT 9999 BKN048 10/00 Q1007=
201404171620 METAR ESMX 171620Z 19020KT 9999 FEW045 11/00 Q1008=
201404171550 METAR ESMX 171550Z 19022KT 9999 FEW045 11/00 Q1008=
201404171520 METAR ESMX 171520Z 19022KT 9999 FEW045 12/00 Q1009=
201404171450 METAR ESMX 171450Z 21021KT CAVOK 13/M00 Q1009=
201404171420 METAR ESMX 171420Z 19021G32KT CAVOK 13/00 Q1009=
201404171350 METAR ESMX 171350Z AUTO 19020KT 9999 NCD 14/M00 Q1010=
201404171320 METAR ESMX 171320Z 19022G34KT CAVOK 14/M00 Q1011=
201404171250 METAR ESMX 171250Z 19019KT CAVOK 13/M00 Q1012=
201404171220 METAR ESMX 171220Z 18019KT CAVOK 12/M02 Q1013=
201404171150 METAR ESMX 171150Z 18019G29KT CAVOK 13/M01 Q1013=
201404171120 METAR ESMX 171120Z 20019G29KT CAVOK 12/M00 Q1014=
201404171050 METAR ESMX 171050Z 19020KT CAVOK 12/00 Q1015=
201404171020 METAR ESMX 171020Z 19020KT CAVOK 11/00 Q1016=
201404170950 METAR ESMX 170950Z 20015KT CAVOK 11/00 Q1017=
201404170920 METAR ESMX 170920Z 21016KT CAVOK 11/M00 Q1017=
201404170850 METAR ESMX 170850Z 20013KT CAVOK 10/M00 Q1018=
201404170820 METAR ESMX 170820Z 21014KT CAVOK 09/M00 Q1018=
201404170750 METAR ESMX 170750Z 21013KT CAVOK 08/M01 Q1019=
201404170720 METAR ESMX 170720Z 20011KT CAVOK 07/M01 Q1019=
201404170650 METAR ESMX 170650Z 21009KT CAVOK 06/M01 Q1020=
201404170620 METAR ESMX 170620Z 20010KT CAVOK 05/M01 Q1020=
201404170550 METAR ESMX 170550Z 19008KT CAVOK 04/M01 Q1020=
201404170520 METAR ESMX 170520Z AUTO 18008KT 9999 NCD 03/M02 Q1021=
201404170450 METAR ESMX 170450Z 18007KT CAVOK 03/M02 Q1021=
201404170420 METAR ESMX 170420Z 18007KT CAVOK 02/M02 Q1021=
201404170350 METAR ESMX 170350Z 20007KT CAVOK 01/M03 Q1022=
201404170320 METAR ESMX 170320Z 21006KT CAVOK 02/M03 Q1022=
201404170250 METAR ESMX 170250Z AUTO 21006KT 9999 NCD 02/M03 Q1022=
201404170220 METAR ESMX 170220Z AUTO 20006KT 9999 NCD 02/M04 Q1023=
201404170150 METAR ESMX 170150Z AUTO 20006KT 9999 NCD 02/M04 Q1023=
201404170120 METAR ESMX 170120Z AUTO 20007KT 9999 NCD 02/M04 Q1023=
201404170050 METAR ESMX 170050Z 22006KT CAVOK 02/M04 Q1024=
201404170020 METAR ESMX 170020Z 22006KT CAVOK 03/M04 Q1024=
201404162350 METAR ESMX 162350Z 23006KT CAVOK 03/M04 Q1024=
201404162320 METAR ESMX 162320Z 23005KT CAVOK 03/M04 Q1025=
201404162250 METAR ESMX 162250Z 23006KT CAVOK 04/M04 Q1025=
201404162220 METAR ESMX 162220Z 22005KT CAVOK 04/M04 Q1025=
201404162150 METAR ESMX 162150Z 21006KT CAVOK 05/M04 Q1025=
201404162120 METAR ESMX 162120Z 21005KT CAVOK 05/M04 Q1025=
201404162050 METAR ESMX 162050Z 20005KT CAVOK 06/M04 Q1026=
201404162020 METAR ESMX 162020Z 24006KT CAVOK 07/M05 Q1026=
201404161950 METAR ESMX 161950Z 26008KT CAVOK 07/M05 Q1026=
201404161920 METAR ESMX 161920Z 26007KT CAVOK 07/M05 Q1026=
201404161850 METAR COR ESMX 161850Z 25006KT CAVOK 07/M05 Q1026=
201404161820 METAR ESMX 161820Z 26006KT CAVOK 08/M05 Q1026=
201404161750 METAR ESMX 161750Z 27006KT CAVOK 09/M05 Q1026=
201404161720 METAR ESMX 161720Z 27008KT CAVOK 10/M04 Q1026=
201404161650 METAR ESMX 161650Z 28009KT CAVOK 11/M04 Q1026=
201404161620 METAR ESMX 161620Z 27008KT 230V300 CAVOK 12/M05 Q1026=
201404161550 METAR ESMX 161550Z 28009KT 240V300 CAVOK 12/M05 Q1026=
201404161520 METAR ESMX 161520Z 24006KT 200V290 CAVOK 13/M05 Q1026=
201404161450 METAR ESMX 161450Z 25006G17KT 200V330 CAVOK 13/M06 Q1026=
201404161420 METAR ESMX 161420Z AUTO 28007KT 230V320 9999 NCD 13/M07 Q1026=
201404161350 METAR ESMX 161350Z 28006KT 200V320 CAVOK 13/M06 Q1026=
201404161320 METAR ESMX 161320Z 24006KT 190V300 CAVOK 13/M06 Q1027=
201404161250 METAR ESMX 161250Z 30008KT 270V330 CAVOK 13/M06 Q1027=
201404161220 METAR ESMX 161220Z 36005KT 260V080 CAVOK 13/M07 Q1027=
201404161150 METAR ESMX 161150Z VRB05KT 130V330 CAVOK 12/M06 Q1028=
201404161120 METAR ESMX 161120Z AUTO 01007KT 350V060 9999 NCD 12/M08 Q1028=
201404161050 METAR ESMX 161050Z 33006KT 300V010 CAVOK 12/M08 Q1028=
201404161020 METAR ESMX 161020Z AUTO 01008KT 9999 NCD 11/M08 Q1028=
201404160950 METAR ESMX 160950Z 33008KT 260V020 CAVOK 11/M06 Q1028=
201404160920 METAR ESMX 160920Z 35008KT 300V020 CAVOK 10/M07 Q1028=
201404160850 METAR ESMX 160850Z 36008KT CAVOK 10/M06 Q1028=
201404160820 METAR ESMX 160820Z 32007KT 260V010 CAVOK 10/M05 Q1028=
201404160750 METAR ESMX 160750Z 31007KT 270V340 CAVOK 08/M03 Q1028=
201404160720 METAR ESMX 160720Z VRB02KT CAVOK 07/M02 Q1028=
201404160650 METAR ESMX 160650Z VRB02KT CAVOK 07/M01 Q1028=
201404160620 METAR ESMX 160620Z VRB02KT CAVOK 04/M02 Q1028=
201404160550 METAR ESMX 160550Z 00000KT CAVOK 03/M01 Q1028=
201404160520 METAR ESMX 160520Z 00000KT CAVOK M01/M03 Q1028=
201404160450 METAR ESMX 160450Z 00000KT CAVOK M03/M05 Q1027=
201404160420 METAR ESMX 160420Z 00000KT CAVOK M04/M05 Q1027=
201404160351 METAR ESMX 160351Z 27002KT CAVOK M04/M05 Q1027=
201404160320 METAR ESMX 160320Z AUTO 29002KT 9999 NCD M03/M04 Q1027=
201404160250 METAR ESMX 160250Z AUTO 28003KT 9999 NCD M03/M05 Q1027=
201404160220 METAR ESMX 160220Z AUTO 28001KT 9999 NCD M03/M05 Q1026=
201404160150 METAR ESMX 160150Z AUTO 29003KT 9999 NCD M03/M05 Q1026=
201404160120 METAR ESMX 160120Z AUTO 30003KT 9999 NCD M02/M04 Q1026=
201404160050 METAR ESMX 160050Z AUTO 27003KT 9999 NCD M02/M05 Q1026=
201404160020 METAR ESMX 160020Z AUTO 28003KT 9999 NCD M03/M05 Q1026=
201404152350 METAR ESMX 152350Z 29003KT CAVOK M01/M04 Q1025=
201404152320 METAR ESMX 152320Z 30003KT CAVOK M01/M04 Q1025=
201404152250 METAR ESMX 152250Z 32003KT CAVOK 00/M04 Q1025=
201404152220 METAR ESMX 152220Z 31002KT CAVOK 00/M04 Q1025=
201404152150 METAR ESMX 152150Z 34002KT CAVOK 00/M04 Q1025=
201404152120 METAR ESMX 152120Z 36002KT CAVOK 02/M04 Q1025=
201404152050 METAR ESMX 152050Z 31003KT 240V330 CAVOK 02/M04 Q1024=
201404152020 METAR ESMX 152020Z AUTO 32006KT 9999 NCD 03/M04 Q1024=
201404151957 METAR ESMX 151957Z 33006KT CAVOK 03/M04 Q1024=
201404151950 METAR ESMX 151950Z AUTO 32006KT 9999 FEW081/// 03/M04 Q1024=
201404151920 METAR ESMX 151920Z AUTO 32006KT 9999 SCT069/// 04/M04 Q1023=
201404151850 METAR ESMX 151850Z 33003G67KT 320V020 CAVOK 06/M04 Q1023=
201404151823 METAR ESMX 151823Z 35004KT CAVOK 06/M04 Q1023=
201404151820 METAR ESMX 151820Z AUTO 35004KT 9999 FEW077/// 06/M04 Q1022=
201404151750 METAR COR ESMX 151750Z 35007KT CAVOK 07/M05 Q1022=
201404151720 METAR ESMX 151720Z AUTO 01010KT 9999 NCD 09/M06 Q1021=
201404151650 METAR ESMX 151650Z 01011KT CAVOK 10/M06 Q1021=
201404151620 METAR ESMX 151620Z AUTO 36013KT 9999 NCD 10/M07 Q1020=
201404151550 METAR ESMX 151550Z 01012KT CAVOK 11/M05 Q1020=
201404151520 METAR ESMX 151520Z 01013KT CAVOK 11/M05 Q1019=
201404151450 METAR ESMX 151450Z AUTO 34014KT 9999 FEW062/// 11/M05 Q1019=
201404151420 METAR ESMX 151420Z AUTO 01013KT 9999 SCT059/// 11/M04 Q1019=
201404151350 METAR ESMX 151350Z 01012KT CAVOK 10/M03 Q1018=
201404151320 METAR ESMX 151320Z 01013KT 9999 FEW035 SCT060 10/M03 Q1018=
201404151250 METAR ESMX 151250Z 01011KT 9999 FEW046 BKN053 10/M02 Q1018=
201404151220 METAR ESMX 151220Z 36011KT 9999 BKN042 09/M01 Q1017=
201404151150 METAR ESMX 151150Z 35011KT 9999 SCT035 09/M00 Q1017=
201404151120 METAR COR ESMX 151120Z 35013KT 9999 FEW036 09/00 Q1017=
201404151050 METAR ESMX 151050Z 35012KT 9999 FEW034 09/M00 Q1016=
201404151020 METAR ESMX 151020Z 01013KT 9999 SCT033 09/M00 Q1016=
201404150950 METAR ESMX 150950Z 35014KT 9999 BKN033 09/01 Q1015=
201404150920 METAR ESMX 150920Z AUTO 01013KT 9999 BKN029/// 08/00 Q1015=
201404150850 METAR ESMX 150850Z 34013KT 9999 BKN027 08/00 Q1014=
201404150820 METAR ESMX 150820Z 36014KT 9999 SCT027 07/01 Q1014=
201404150750 METAR ESMX 150750Z 34013KT CAVOK 07/01 Q1013=
201404150720 METAR ESMX 150720Z 36014KT CAVOK 07/01 Q1013=
201404150650 METAR ESMX 150650Z 36013KT 9999 FEW043 BKN072 05/00 Q1012=
201404150620 METAR ESMX 150620Z 34011KT 9999 FEW025 SCT047 05/00 Q1012=
201404150550 METAR ESMX 150550Z 33007KT CAVOK 04/M00 Q1011=
201404150520 METAR ESMX 150520Z 32007KT CAVOK 03/M00 Q1011=
201404150450 METAR ESMX 150450Z 32008KT CAVOK 03/M01 Q1011=
201404150420 METAR COR ESMX 150420Z 33007KT CAVOK 03/M01 Q1010=
201404150350 METAR ESMX 150350Z 34008KT CAVOK 03/M01 Q1010=
201404150320 METAR ESMX 150320Z AUTO 33008KT 9999 NCD 03/M01 Q1009=
201404150250 METAR ESMX 150250Z AUTO 33008KT 9999 NCD 03/M01 Q1009=
201404150220 METAR ESMX 150220Z AUTO 32007KT 9999 NCD 02/M01 Q1009=
201404150150 METAR ESMX 150150Z AUTO 32007KT 9999 NCD 02/M01 Q1008=
201404150120 METAR ESMX 150120Z AUTO 31005KT 9999 NCD 02/M01 Q1008=
201404150050 METAR ESMX 150050Z AUTO 30006KT 9999 NCD 02/M01 Q1008=
201404150020 METAR ESMX 150020Z AUTO 32007KT 9999 NCD 02/M01 Q1007=
201404142350 METAR ESMX 142350Z 31006KT CAVOK 02/M01 Q1007=
201404142320 METAR ESMX 142320Z 28005KT CAVOK 03/M01 Q1006=
201404142250 METAR ESMX 142250Z 30005KT CAVOK 03/M01 Q1006=
201404142220 METAR ESMX 142220Z 30005KT CAVOK 03/M01 Q1005=
201404142151 METAR ESMX 142151Z 29006KT CAVOK 04/M01 Q1005=
201404142120 METAR ESMX 142120Z 29006KT CAVOK 03/M01 Q1005=
201404142050 METAR ESMX 142050Z 30005KT CAVOK 04/M01 Q1004=
201404142020 METAR ESMX 142020Z 29005KT CAVOK 03/M01 Q1004=
201404141950 METAR COR ESMX 141950Z 32005KT CAVOK 04/M01 Q1004=
201404141920 METAR ESMX 141920Z 32006KT 9999 FEW040 05/M01 Q1004=
201404141850 METAR COR ESMX 141850Z 32008KT 9999 FEW040 06/M01 Q1003=
201404141820 METAR ESMX 141820Z 32008KT 9999 FEW040 07/M02 Q1003=
201404141750 METAR COR ESMX 141750Z 32008KT 9999 FEW040 08/M02 Q1002=
201404141720 METAR COR ESMX 141720Z 34010KT 9999 FEW040 09/M02 Q1001=
201404141650 METAR ESMX 141650Z 34008KT 9999 FEW030CB 10/M00 Q1001=
201404141620 METAR ESMX 141620Z 24006KT 9999 FEW040 09/05 Q1000=
201404141550 METAR ESMX 141550Z 25005KT CAVOK 09/05 Q1000=
201404141520 METAR ESMX 141520Z 25005KT 210V290 CAVOK 10/04 Q1000=
201404141450 METAR ESMX 141450Z 23004KT 200V260 9999 FEW020 09/04 Q0999=
201404141420 METAR ESMX 141420Z 22004KT 180V250 9999 FEW020CB 09/03 Q0999=
201404141350 METAR COR ESMX 141350Z 21003KT 180V240 9999 SCT020CB 06/04 Q0999 RESHRA=
201404141320 METAR ESMX 141320Z 31008KT 270V340 9999 SHRA FEW022 SCT039CB 06/03 Q0999=
201404141250 METAR ESMX 141250Z 33007KT 9999 SCT025CB BKN030 06/04 Q0999 RESHRA=
201404141220 METAR ESMX 141220Z 33017KT 7000 SHRA FEW014 SCT023CB BKN028 06/04 Q0998=
201404141150 METAR ESMX 141150Z AUTO 29006KT 250V330 9999 BKN027/// 10/03 Q0998=
201404141120 METAR ESMX 141120Z AUTO 26005KT 230V300 9999 FEW025/// SCT034/// 09/04 Q0998 REDZ=
201404141050 METAR ESMX 141050Z 26005KT 210V300 9999 FEW024 SCT048 10/03 Q0998=
201404141020 METAR ESMX 141020Z 27004KT 200V310 9999 FEW022 SCT025 08/03 Q0998=
201404140950 METAR COR ESMX 140950Z 25003KT 190V300 9999 SCT021 BKN029 08/02 Q0998=
201404140920 METAR ESMX 140920Z 26005KT 9999 FEW020 BKN023 07/02 Q0998=
201404140850 METAR ESMX 140850Z 20006KT 9999 BKN018 07/02 Q0997=
201404140820 METAR ESMX 140820Z 25004KT 200V290 9999 FEW019 OVC020 07/02 Q0997=
201404140750 METAR ESMX 140750Z AUTO 22005KT 9999 FEW013/// OVC020/// 07/03 Q0997=
201404140720 METAR ESMX 140720Z 22005KT 9999 BKN011 06/03 Q0997=
201404140650 METAR ESMX 140650Z 21007KT 190V250 9999 FEW009 BKN011 OVC017 06/04 Q0997=
201404140620 METAR ESMX 140620Z 23008KT 200V260 9999 OVC008 06/03 Q0997=
201404140550 METAR ESMX 140550Z 23008KT 9999 OVC008 05/04 Q0997=
201404140520 METAR ESMX 140520Z 23008KT 9999 OVC008 05/04 Q0997=
201404140450 METAR ESMX 140450Z 22007KT 9999 FEW008 BKN010 05/03 Q0997=
201404140420 METAR ESMX 140420Z 22009KT 9999 SCT008 OVC035 05/03 Q0997=
201404140350 METAR ESMX 140350Z 22007KT 9999 FEW009 OVC035 05/03 Q0997=
201404140320 METAR ESMX 140320Z AUTO 22006KT 9999 FEW012/// SCT016/// BKN030/// 05/03 Q0998=
201404140250 METAR ESMX 140250Z AUTO 21005KT 9999 FEW014/// SCT018/// OVC037/// 05/03 Q0998=
201404140220 METAR ESMX 140220Z AUTO 25007KT 9999 FEW023/// BKN037/// 05/03 Q0998=
201404140150 METAR ESMX 140150Z AUTO 24007KT 9999 FEW022/// BKN039/// 05/02 Q0998=
201404140120 METAR ESMX 140120Z AUTO 25008KT 9999 FEW020/// SCT027/// BKN039/// 05/02 Q0999=
201404140050 METAR ESMX 140050Z AUTO 24007KT 9999 FEW019/// SCT024/// BKN041/// 05/03 Q0999=
201404140020 METAR ESMX 140020Z AUTO 26009KT 210V280 9999 FEW010/// SCT022/// BKN042/// 05/03 Q0999 RERA=
201404132350 METAR ESMX 132350Z AUTO 24007KT 200V270 9999 FEW010/// SCT022/// BKN027/// 05/03 Q1000=
201404132320 METAR ESMX 132320Z 25009KT 210V280 9999 SCT023 OVC042 06/03 Q1000=
201404132250 METAR ESMX 132250Z 24009KT 210V270 9999 FEW020 BKN045 05/03 Q1000=
201404132220 METAR ESMX 132220Z 26014KT 9999 SCT020 BKN029 06/02 Q1000 RERA=
201404132150 METAR ESMX 132150Z 25011KT 9999 FEW022 SCT032 BKN038 06/02 Q1000=
201404132120 METAR ESMX 132120Z 25010KT 220V280 9999 FEW022 OVC032 06/02 Q1001=
201404132050 METAR ESMX 132050Z 25012KT 9999 FEW025 OVC036 06/02 Q1001=
201404132020 METAR ESMX 132020Z 24012KT 9999 FEW026 OVC040 06/01 Q1001=
201404131950 METAR ESMX 131950Z 24013G24KT 9999 FEW028 OVC038 06/01 Q1001=
201404131920 METAR ESMX 131920Z 26016KT 9999 FEW028 OVC045 07/01 Q1001=
201404131850 METAR ESMX 131850Z 25013KT 9999 FEW013 SCT033 BKN046 06/02 Q1001 RERA=
201404131820 METAR ESMX 131820Z 26013KT 230V290 9999 FEW029 SCT036 BKN041 07/01 Q1002=
201404131750 METAR ESMX 131750Z 25014KT 9999 SCT030 OVC046 07/01 Q1002=
201404131720 METAR ESMX 131720Z 24014KT 9999 SCT033 BKN047 08/01 Q1002=
201404131650 METAR ESMX 131650Z 24012G23KT 210V280 9999 FEW032 SCT042 BKN054 08/01 Q1002 REDZ=
201404131620 METAR ESMX 131620Z 26016KT 220V280 9999 FEW033 SCT040 08/01 Q1002=
201404131550 METAR ESMX 131550Z 26017KT 9999 FEW033 SCT044 08/01 Q1002=
201404131520 METAR ESMX 131520Z 26015KT 230V290 9999 FEW032 SCT037 08/02 Q1002=
201404131450 METAR ESMX 131450Z 26016G29KT 210V290 9999 FEW031 BKN060 09/02 Q1002=
201404131420 METAR ESMX 131420Z 26018G28KT 9999 FEW030 SCT035 09/02 Q1002=
201404131350 METAR ESMX 131350Z 27020KT 230V290 9999 FEW019 SCT031 BKN054 09/02 Q1002=
201404131320 METAR ESMX 131320Z 26020G34KT 230V300 9999 FEW023CB SCT032 07/04 Q1003=
201404131250 METAR ESMX 131250Z 26017G28KT 9999 FEW022 SCT039 09/03 Q1002 RERA=
201404131220 METAR ESMX 131220Z AUTO 25016KT 9999 FEW020/// SCT045/// 08/04 Q1003=
201404131150 METAR ESMX 131150Z AUTO 24017G29KT 9999 -RA FEW015/// BKN033/// 09/03 Q1003=
201404131120 METAR ESMX 131120Z AUTO 26018G31KT 9999 FEW025/// SCT032/// BKN037/// 10/02 Q1003=
201404131050 METAR ESMX 131050Z AUTO 26017G28KT 9999 FEW028/// SCT040/// BKN058/// 10/03 Q1002=
201404131020 METAR ESMX 131020Z AUTO 26020KT 230V290 9999 FEW013/// BKN026/// 09/03 Q1003=
201404130950 METAR ESMX 130950Z AUTO 26017G28KT 230V290 9999 FEW027/// SCT032/// BKN041/// 09/03 Q1003=
201404130920 METAR ESMX 130920Z AUTO 26018G30KT 230V290 9999 FEW016/// SCT027/// BKN042/// 09/04 Q1003 REDZ=
201404130850 METAR ESMX 130850Z AUTO 23013KT 190V260 9999 FEW016/// SCT027/// BKN043/// 08/04 Q1003=
201404130820 METAR ESMX 130820Z AUTO 24012KT 210V270 9999 FEW014/// SCT019/// BKN021/// 08/05 Q1003=
201404130750 METAR ESMX 130750Z AUTO 24011KT 220V020 9999 FEW011/// BKN014/// OVC019/// 07/05 Q1003=
201404130720 METAR ESMX 130720Z AUTO 22010KT 9999 BKN010/// OVC017/// 07/05 Q1003=
201404130650 METAR ESMX 130650Z AUTO 22009KT 9999 OVC009/// 07/05 Q1003=
201404130620 METAR ESMX 130620Z AUTO 22009KT 9999 FEW011/// SCT014/// BKN021/// 07/05 Q1003=
201404130550 METAR ESMX 130550Z 25008KT 9999 FEW008 SCT012 BKN015 06/05 Q1004=
201404130520 METAR ESMX 130520Z 23007KT 9999 FEW007 BKN010 OVC015 06/05 Q1004=
201404130450 METAR ESMX 130450Z 23009KT 9999 FEW006 SCT008 BKN010 06/05 Q1003=
201404130420 METAR ESMX 130420Z 22009KT 9999 DZ FEW005 SCT007 BKN009 06/05 Q1003=
201404130350 METAR ESMX 130350Z 22009KT 9999 -DZ FEW005 SCT006 BKN007 06/05 Q1003 REDZ=
201404130320 METAR ESMX 130320Z AUTO 20010KT 9999 OVC005/// 06/05 Q1003 REDZ=
201404130250 METAR ESMX 130250Z AUTO 20010KT 8000 -RA SCT005/// BKN007/// OVC009/// 05/04 Q1004=
201404130220 METAR ESMX 130220Z AUTO 20011KT 6000 -RA FEW004/// BKN005/// OVC008/// 05/04 Q1004 REDZ=
201404130150 METAR ESMX 130150Z AUTO 20012KT 4300 BR FEW005/// SCT007/// BKN008/// 05/04 Q1004 RESHUP=
201404130120 METAR ESMX 130120Z AUTO 20011KT 9999 FEW005/// SCT008/// BKN010/// 05/04 Q1005 REDZ=
201404130050 METAR ESMX 130050Z AUTO 20011KT 6000 DZ SCT005/// BKN008/// OVC010/// 05/04 Q1005=
201404130020 METAR ESMX 130020Z AUTO 19010KT 9999 FEW007/// OVC009/// 05/04 Q1005=
201404122350 METAR ESMX 122350Z AUTO 20012KT 9999 FEW008/// OVC010/// 05/04 Q1006 RESHUP=
201404122320 METAR ESMX 122320Z AUTO 22013KT 9999 -DZ FEW011/// BKN014/// OVC018/// 05/04 Q1006 REDZ=
201404122250 METAR ESMX 122250Z AUTO 23011KT 9999 -DZ FEW009/// SCT012/// BKN014/// 05/04 Q1007 REDZ=
201404122220 METAR ESMX 122220Z AUTO 23011KT 200V270 9999 DZ FEW010/// SCT012/// OVC015/// 05/04 Q1007=
201404122150 METAR ESMX 122150Z AUTO 21013KT 180V240 9999 DZ FEW008/// SCT011/// BKN014/// 06/04 Q1007 REDZ=
201404122120 METAR ESMX 122120Z AUTO 20009KT 9999 -RA FEW013/// SCT021/// BKN032/// 06/04 Q1008=
201404122050 METAR ESMX 122050Z AUTO 21007KT 9999 DZ FEW017/// BKN022/// BKN029/// 06/04 Q1008=
201404122020 METAR ESMX 122020Z AUTO 22011KT 9999 -RA FEW018/// BKN023/// 06/04 Q1008 REDZ=
201404121950 METAR ESMX 121950Z AUTO 20010KT 9999 -RA FEW018/// SCT028/// BKN038/// 07/03 Q1008 REDZ=
201404121920 METAR ESMX 121920Z AUTO 22008KT 9999 FEW037/// 07/02 Q1009=
201404121850 METAR ESMX 121850Z AUTO 22008KT 190V250 9999 NCD 07/02 Q1009=
201404121820 METAR ESMX 121820Z AUTO 23010KT 180V260 9999 NCD 08/02 Q1009=
201404121750 METAR ESMX 121750Z AUTO 23010KT 210V270 9999 FEW027/// SCT031/// 08/03 Q1009=
201404121720 METAR ESMX 121720Z AUTO 21012KT 9999 FEW033/// SCT039/// BKN048/// 09/02 Q1009=
201404121650 METAR ESMX 121650Z AUTO 22012KT 9999 FEW037/// SCT049/// BKN099/// 09/02 Q1009=
201404121620 METAR ESMX 121620Z AUTO 22010KT 9999 FEW041/// SCT054/// 09/02 Q1010=
201404121550 METAR ESMX 121550Z AUTO 21013KT 9999 NCD 10/01 Q1010=
201404121520 METAR ESMX 121520Z AUTO 21014KT 9999 FEW043/// SCT052/// 10/00 Q1010=
201404121450 METAR ESMX 121450Z AUTO 22015KT 9999 FEW052/// 10/00 Q1010=
201404121420 METAR ESMX 121420Z AUTO 21013KT 9999 BKN050/// 11/01 Q1011=
201404121350 METAR ESMX 121350Z AUTO 22016KT 9999 BKN048/// 11/00 Q1011=
201404121320 METAR ESMX 121320Z AUTO 21016KT 9999 BKN049/// 12/01 Q1011=
201404121250 METAR ESMX 121250Z AUTO 21013KT 190V250 9999 FEW046/// 11/01 Q1012=
201404121220 METAR ESMX 121220Z AUTO 23013KT 9999 FEW041/// BKN047/// 11/02 Q1012=
201404121150 METAR ESMX 121150Z 24013KT 9999 FEW039 SCT045 10/01 Q1013=
201404121120 METAR ESMX 121120Z 20012KT 180V240 9999 SCT036 10/01 Q1013=
201404121050 METAR COR ESMX 121050Z 22012KT 190V250 9999 FEW036 10/01 Q1014=
201404121020 METAR ESMX 121020Z AUTO 20012KT 9999 FEW036/// 10/02 Q1014=
201404120950 METAR ESMX 120950Z AUTO 20011KT 9999 FEW033/// 10/02 Q1014=
201404120920 METAR ESMX 120920Z AUTO 24009KT 210V280 9999 FEW089/// 09/01 Q1015=
201404120850 METAR ESMX 120850Z AUTO 22007KT 170V270 9999 FEW019/// 08/03 Q1015=
201404120820 METAR ESMX 120820Z AUTO 24007KT 170V270 9999 NCD 07/02 Q1015=
201404120750 METAR ESMX 120750Z AUTO 24008KT 9999 BKN014/// 06/03 Q1015=
201404120720 METAR ESMX 120720Z AUTO 23008KT 200V260 9999 BKN010/// OVC016/// 06/03 Q1015=
201404120650 METAR ESMX 120650Z AUTO 23006KT 9999 FEW008/// BKN010/// 05/03 Q1015=
201404120620 METAR ESMX 120620Z AUTO 22004KT 180V240 9999 SCT006/// OVC009/// 04/03 Q1015=
201404120550 METAR ESMX 120550Z AUTO 24004KT 9999 FEW006/// OVC007/// 03/02 Q1015=
201404120520 METAR ESMX 120520Z AUTO 24004KT 210V340 9999 FEW006/// OVC008/// 03/02 Q1015=
201404120450 METAR ESMX 120450Z AUTO 25004KT 9999 FEW004/// OVC006/// 03/02 Q1015=
201404120420 METAR ESMX 120420Z AUTO 27004KT 240V310 8000 BR BKN002/// OVC005/// 02/02 Q1015=
201404120350 METAR ESMX 120350Z AUTO 26005KT 8000 BR OVC003/// 02/02 Q1015=
201404120320 METAR ESMX 120320Z AUTO VRB03KT 8000 BR OVC003/// 02/01 Q1015=
201404120250 METAR ESMX 120250Z AUTO 19003KT 5000 BR FEW003/// OVC005/// 01/01 Q1015=
201404120220 METAR ESMX 120220Z AUTO 23003KT 4300 BR FEW002/// SCT006/// BKN008/// 01/01 Q1015=
201404120150 METAR ESMX 120150Z AUTO 23005KT 3100 BR NCD 01/00 Q1015=
201404120120 METAR ESMX 120120Z AUTO 23005KT 1500 BR NCD 01/00 Q1015=
201404120050 METAR ESMX 120050Z AUTO 21006KT 4200 BR NCD 01/00 Q1015=
201404120020 METAR ESMX 120020Z AUTO 22006KT 4500 BR NCD 01/01 Q1015=
201404112350 METAR ESMX 112350Z AUTO 22005KT 8000 BR NCD 02/01 Q1015=
201404112320 METAR ESMX 112320Z 21005KT CAVOK 02/01 Q1015=
201404112250 METAR ESMX 112250Z 22005KT CAVOK 02/01 Q1015=
201404112220 METAR ESMX 112220Z 23006KT CAVOK 03/01 Q1016=
201404112150 METAR COR ESMX 112150Z 24006KT CAVOK 03/01 Q1016=
201404112120 METAR ESMX 112120Z 24006KT CAVOK 03/01 Q1016=
201404112050 METAR ESMX 112050Z 23005KT CAVOK 03/01 Q1016=
201404112020 METAR ESMX 112020Z 24005KT CAVOK 04/01 Q1016=
201404111950 METAR ESMX 111950Z 24006KT CAVOK 03/01 Q1016=
201404111920 METAR ESMX 111920Z 24005KT CAVOK 04/01 Q1015=
201404111850 METAR ESMX 111850Z 23004KT CAVOK 05/01 Q1015=
201404111820 METAR ESMX 111820Z 24005KT 9999 FEW030 05/01 Q1015=
201404111750 METAR ESMX 111750Z 24004KT 9999 FEW040 07/02 Q1015=
201404111720 METAR COR ESMX 111720Z 25005KT 9999 FEW035 08/02 Q1014=
201404111650 METAR ESMX 111650Z 27003KT 240V310 9999 FEW025 SCT030 09/04 Q1014=
201404111620 METAR ESMX 111620Z 29005KT 230V320 9999 FEW017 SCT023 08/05 Q1014=
201404111550 METAR ESMX 111550Z 22006KT 9999 VCSH FEW025 SCT035 09/06 Q1014=
201404111520 METAR ESMX 111520Z 21006KT 180V240 9999 FEW014 SCT024 BKN033 09/07 Q1014=
201404111450 METAR ESMX 111450Z 20007KT 9999 FEW012 SCT033 08/06 Q1014 REDZ=
201404111420 METAR ESMX 111420Z 22005KT 190V250 9999 FEW005 SCT008 BKN044 08/06 Q1015=
201404111350 METAR ESMX 111350Z 19006KT 9999 FEW005 SCT007 BKN009 08/07 Q1015 REDZ RERA=
201404111320 METAR ESMX 111320Z 21007KT 9999 SCT005 BKN007 OVC009 07/06 Q1015=
201404111250 METAR ESMX 111250Z 21006KT 9999 FEW003 BKN005 OVC008 07/06 Q1015 RERA=
201404111220 METAR ESMX 111220Z 20007KT 5000 DZ OVC005 06/05 Q1015=
201404111150 METAR ESMX 111150Z 21007KT 9999 FEW004 SCT006 BKN007 07/05 Q1015=
201404111120 METAR ESMX 111120Z 20008KT 9999 -DZ BKN005 OVC007 06/05 Q1015=
201404111050 METAR ESMX 111050Z 19009KT 9999 -RA OVC005 06/05 Q1016=
201404111020 METAR ESMX 111020Z 19008KT 9000 -RA OVC005 06/05 Q1016=
201404110950 METAR ESMX 110950Z 20008KT 9000 -RA OVC004 06/05 Q1016=
201404110920 METAR ESMX 110920Z 19008KT 8000 -RA FEW004 BKN006 OVC008 05/04 Q1016=
201404110850 METAR ESMX 110850Z 17008KT 4000 -RADZ OVC004 05/04 Q1016=
201404110820 METAR ESMX 110820Z 18008KT 4200 RADZ OVC004 05/04 Q1016=
201404110750 METAR ESMX 110750Z 17008KT 4000 -DZ BR OVC004 05/04 Q1016=
201404110720 METAR ESMX 110720Z 17008KT 3000 DZ BR OVC003 04/03 Q1016=
201404110650 METAR ESMX 110650Z 17009KT 5000 BR OVC004 04/03 Q1016=
201404110620 METAR ESMX 110620Z 17008KT 7000 BR OVC005 04/03 Q1016=
201404110550 METAR ESMX 110550Z 19010KT 9999 OVC005 04/03 Q1017=
201404110520 METAR ESMX 110520Z 17008KT 9999 BKN006 04/03 Q1016=
201404110450 METAR ESMX 110450Z 18008KT 9999 BKN005 BKN019 04/03 Q1017=
201404110420 METAR ESMX 110420Z AUTO 19007KT 9999 FEW006/// SCT007/// BKN009/// 04/03 Q1017=
201404110350 METAR ESMX 110350Z AUTO 17006KT 9999 FEW006/// SCT008/// BKN010/// 04/03 Q1017=
201404110320 METAR ESMX 110320Z AUTO 17007KT 9999 FEW007/// SCT009/// BKN011/// 04/03 Q1017=
201404110250 METAR ESMX 110250Z AUTO 17007KT 9999 FEW007/// SCT008/// BKN011/// 04/03 Q1017=
201404110220 METAR ESMX 110220Z AUTO 17006KT 9999 FEW006/// SCT007/// BKN010/// 04/03 Q1017=
201404110150 METAR ESMX 110150Z AUTO 17006KT 9999 BKN006/// OVC009/// 05/03 Q1017=
201404110120 METAR ESMX 110120Z AUTO 17006KT 9999 FEW006/// SCT007/// BKN008/// 05/03 Q1017=
201404110050 METAR ESMX 110050Z AUTO 17007KT 9999 FEW006/// SCT007/// BKN009/// 05/03 Q1018=
201404110020 METAR ESMX 110020Z 17008KT 9999 BKN007 OVC028 05/03 Q1018=
201404102350 METAR ESMX 102350Z 17008KT 9999 FEW007 SCT009 BKN011 05/03 Q1018=
201404102320 METAR ESMX 102320Z 18007KT 9999 FEW008 BKN010 OVC022 05/03 Q1018=
201404102250 METAR ESMX 102250Z 17007KT 9999 FEW009 SCT020 OVC026 05/03 Q1019=
201404102220 METAR COR ESMX 102220Z 17007KT 9999 FEW013 OVC026 05/03 Q1019=
201404102150 METAR ESMX 102150Z 18008KT 9999 FEW013 SCT016 OVC024 05/03 Q1019=
201404102120 METAR ESMX 102120Z AUTO 17008KT 9999 FEW024/// OVC027/// 05/03 Q1019=
201404102050 METAR COR ESMX 102050Z 18007KT 9999 FEW014 SCT018 BKN021 06/03 Q1019=
201404102020 METAR ESMX 102020Z 17007KT 9999 FEW017 OVC030 06/03 Q1019=
201404101950 METAR ESMX 101950Z 18006KT 9999 OVC030 06/03 Q1019=
201404101920 METAR ESMX 101920Z 17005KT 9999 OVC030 06/03 Q1019=
201404101850 METAR COR ESMX 101850Z 17004KT 9999 OVC032 06/03 Q1019=
201404101820 METAR ESMX 101820Z 14004KT 9999 OVC033 06/03 Q1019=
201404101750 METAR ESMX 101750Z 17004KT 9999 FEW022 OVC036 07/03 Q1019=
201404101720 METAR ESMX 101720Z 16005KT 9999 FEW020 SCT030 OVC036 07/03 Q1019=
201404101650 METAR ESMX 101650Z 17005KT 9999 OVC030 07/03 Q1019=
201404101620 METAR ESMX 101620Z 17005KT 9999 OVC030 07/02 Q1019=
201404101550 METAR ESMX 101550Z 18005KT 9999 OVC027 07/02 Q1019=
201404101520 METAR ESMX 101520Z 18006KT 9999 OVC024 07/03 Q1019=
201404101450 METAR ESMX 101450Z 20007KT 9999 FEW016 BKN026 07/03 Q1019=
201404101420 METAR ESMX 101420Z AUTO 19006KT 9999 OVC027/// 07/03 Q1020=
201404101350 METAR ESMX 101350Z 19008KT 9999 FEW018 OVC026 07/03 Q1020=
201404101323 METAR ESMX 101323Z 21006KT 9999 SCT016 BKN025 07/03 Q1020=
201404101320 METAR ESMX 101320Z AUTO 20006KT 9999 FEW017/// SCT020/// OVC027/// 07/03 Q1020=
201404101250 METAR ESMX 101250Z 18003KT 150V210 9999 FEW017 OVC020 07/03 Q1020=
201404101220 METAR ESMX 101220Z 17004KT 130V200 9999 FEW015 BKN023 07/03 Q1020=
201404101154 METAR ESMX 101154Z 17004KT 140V210 9999 FEW012 BKN020 07/03 Q1020=
201404101150 METAR ESMX 101150Z AUTO 17004KT 140V210 9999 OVC019/// 07/03 Q1020=
201404101120 METAR ESMX 101120Z AUTO 17006KT 9999 FEW015/// OVC025/// 07/03 Q1020=
201404101050 METAR ESMX 101050Z 16004KT 140V210 9999 FEW014 BKN019 06/03 Q1020=
201404101020 METAR ESMX 101020Z 16003KT 130V230 9999 SCT010 BKN017 06/03 Q1020=
201404100950 METAR ESMX 100950Z VRB03KT 9999 FEW007 SCT009 BKN011 06/04 Q1020=
201404100920 METAR ESMX 100920Z VRB02KT 9999 OVC006 05/03 Q1020=
201404100850 METAR ESMX 100850Z VRB02KT 9999 OVC005 05/03 Q1019=
201404100820 METAR ESMX 100820Z VRB03KT 9999 OVC004 05/03 Q1019=
201404100750 METAR ESMX 100750Z 06003KT 010V110 9999 OVC003 04/03 Q1019=
201404100720 METAR ESMX 100720Z VRB03KT 9999 OVC003 04/02 Q1019=
201404100652 METAR ESMX 100652Z 04004KT 010V070 9999 OVC004 04/02 Q1019=
201404100650 METAR ESMX 100650Z AUTO 03004KT 9999 OVC004/// 04/02 Q1019=
201404100620 METAR ESMX 100620Z 07004KT 020V120 9999 OVC004 03/02 Q1018=
201404100550 METAR ESMX 100550Z AUTO VRB04KT 360V360 9999 OVC003/// 03/02 Q1018=
201404100520 METAR ESMX 100520Z 04006KT 9999 OVC003 03/02 Q1018=
201404100450 METAR ESMX 100450Z 04008KT 9999 OVC004 03/02 Q1017=
201404100420 METAR ESMX 100420Z 03007KT 9999 OVC005 03/01 Q1017=
201404100350 METAR ESMX 100350Z 04008KT 020V080 9999 OVC005 03/01 Q1017=
201404100320 METAR ESMX 100320Z AUTO 02008KT 340V050 9999 OVC006/// 03/01 Q1017=
201404100250 METAR ESMX 100250Z AUTO 01010KT 9999 OVC007/// 03/01 Q1017=
201404100220 METAR ESMX 100220Z AUTO 02009KT 9999 OVC006/// 03/02 Q1016=
201404100150 METAR ESMX 100150Z AUTO 02010KT 9999 OVC005/// 03/02 Q1016=
201404100120 METAR ESMX 100120Z AUTO 02010KT 9999 OVC005/// 03/02 Q1016=
201404100050 METAR ESMX 100050Z AUTO 01010KT 9999 OVC006/// 03/02 Q1016=
201404100020 METAR ESMX 100020Z AUTO 02010KT 9999 OVC006/// 03/02 Q1015=
201404092350 METAR ESMX 092350Z 02009KT 9999 OVC007 03/02 Q1015=
201404092320 METAR ESMX 092320Z 01009KT 9999 FEW006 OVC009 04/02 Q1015=
201404092250 METAR ESMX 092250Z 02010KT 9999 BKN004 OVC009 04/02 Q1015=
201404092220 METAR ESMX 092220Z 02012KT 9999 BKN005 OVC008 04/03 Q1014=
201404092150 METAR ESMX 092150Z 36010KT 9999 FEW005 BKN006 OVC009 04/03 Q1014=
201404092120 METAR ESMX 092120Z 36010KT 9999 FEW006 BKN007 OVC010 04/03 Q1014=
201404092050 METAR ESMX 092050Z 35009KT 9999 FEW006 SCT008 BKN010 04/03 Q1013=
201404092020 METAR ESMX 092020Z 35009KT 9999 FEW005 BKN007 OVC012 04/03 Q1013=
201404091950 METAR ESMX 091950Z 35010KT 9999 OVC005 04/03 Q1012=
201404091920 METAR ESMX 091920Z 36010KT 9999 BKN006 OVC009 04/03 Q1012=
201404091850 METAR COR ESMX 091850Z 35011KT 9999 OVC005 04/03 Q1012 REDZ=
201404091820 METAR ESMX 091820Z 36012KT 9999 BKN006 OVC009 04/03 Q1011=
201404091750 METAR ESMX 091750Z AUTO 35012KT 9999 OVC006/// 04/03 Q1010=
201404091720 METAR ESMX 091720Z 36010KT 9999 OVC006 04/03 Q1010=
201404091650 METAR ESMX 091650Z 35011KT 9999 SCT007 OVC009 04/03 Q1009=
201404091620 METAR ESMX 091620Z 35011KT 9999 BKN005 OVC009 04/03 Q1009=
201404091550 METAR ESMX 091550Z 35012KT 9999 OVC005 04/03 Q1008=
201404091520 METAR ESMX 091520Z 34010KT 9000 BR FEW006 BKN007 04/03 Q1008=
201404091450 METAR ESMX 091450Z 34010KT 9000 BR BKN006 OVC009 04/03 Q1007=
201404091420 METAR ESMX 091420Z 35011KT 9999 OVC006 04/03 Q1007=
201404091350 METAR ESMX 091350Z 35013KT 9999 FEW006 SCT008 OVC010 05/03 Q1006=
201404091320 METAR ESMX 091320Z 35011KT 9999 FEW007 BKN009 05/04 Q1006=
201404091250 METAR ESMX 091250Z 36012KT 9999 FEW005 BKN010 05/04 Q1005=
201404091220 METAR ESMX 091220Z 36012KT 4300 BR FEW004 BKN005 05/04 Q1005=
201404091150 METAR ESMX 091150Z 01012KT 3600 BR FEW004 BKN007 06/05 Q1004 REDZ=
201404091120 METAR ESMX 091120Z 29008KT 2900 DZ FEW004 BKN007 06/05 Q1004=
201404091050 METAR ESMX 091050Z 27007KT 7000 -RA SCT004 BKN008 06/05 Q1004=
201404091020 METAR ESMX 091020Z 28009KT 6000 -RA BKN006 OVC009 05/04 Q1003=
201404090950 METAR COR ESMX 090950Z 29011KT 9999 FEW006 BKN007 05/04 Q1003=
201404090920 METAR ESMX 090920Z 28009KT 250V320 9000 -RA SCT006 BKN008 05/04 Q1003=
201404090850 METAR ESMX 090850Z 27009KT 9999 FEW007 SCT009 OVC010 06/04 Q1002=
201404090820 METAR ESMX 090820Z AUTO 29010KT 9999 FEW007/// OVC009/// 05/04 Q1002=
201404090750 METAR ESMX 090750Z 29010KT 260V330 9999 FEW007 OVC009 05/04 Q1002=
201404090720 METAR ESMX 090720Z 27011KT 9999 FEW006 OVC007 05/04 Q1002=
201404090650 METAR ESMX 090650Z 28009KT 9999 SCT005 BKN007 05/04 Q1001=
201404090620 METAR ESMX 090620Z 26009KT 3000 BR FEW004 OVC005 05/04 Q1001=
201404090550 METAR COR ESMX 090550Z 27007KT 230V300 2900 BR SCT004 BKN007 05/04 Q1001=
201404090520 METAR ESMX 090520Z 25006KT 4200 -DZ SCT004 BKN009 05/04 Q1001 REDZ=
201404090450 METAR ESMX 090450Z 26006KT 4100 DZ FEW006 SCT008 BKN010 05/04 Q1001=
201404090420 METAR ESMX 090420Z 26008KT 8000 BR FEW006 BKN007 OVC011 05/04 Q1001=
201404090350 METAR ESMX 090350Z 26008KT 5000 BR FEW005 SCT007 BKN008 05/04 Q1001=
201404090320 METAR ESMX 090320Z AUTO 26007KT 6000 BR FEW007/// BKN010/// OVC020/// 05/04 Q1001=
201404090250 METAR ESMX 090250Z AUTO 26008KT 9999 FEW011/// SCT014/// BKN017/// 06/04 Q1001=
201404090220 METAR ESMX 090220Z AUTO 25009KT 210V280 9999 FEW009/// SCT013/// BKN016/// 06/04 Q1001=
201404090150 METAR ESMX 090150Z AUTO 24007KT 9999 FEW007/// SCT011/// BKN014/// 06/05 Q1001=
201404090120 METAR ESMX 090120Z AUTO 24007KT 9999 FEW004/// BKN006/// OVC008/// 06/05 Q1001=
201404090050 METAR ESMX 090050Z AUTO 22008KT 5000 BR FEW003/// OVC005/// 06/05 Q1001 REDZ=
201404090020 METAR ESMX 090020Z AUTO 22010KT 8000 BR FEW003/// BKN004/// OVC006/// 06/05 Q1001=
201404082350 METAR ESMX 082350Z 23009KT 3400 BR FEW004 BKN006 OVC008 06/05 Q1001 REDZ=
201404082320 METAR ESMX 082320Z 23008KT 5000 RA FEW005 BKN007 OVC009 06/05 Q1002=
201404082250 METAR ESMX 082250Z 23009KT 9999 BKN005 OVC008 06/05 Q1002=
201404082220 METAR ESMX 082220Z 23008KT 6000 BR FEW005 SCT006 BKN008 06/05 Q1002 REDZ=
201404082150 METAR COR ESMX 082150Z 22009KT 5000 BR FEW006 BKN009 06/05 Q1002=
201404082120 METAR ESMX 082120Z 24008KT 9999 FEW008 SCT010 BKN012 06/04 Q1002 REDZ=
201404082050 METAR ESMX 082050Z 25009KT 210V280 9999 FEW014 BKN021 OVC027 06/04 Q1002=
201404082020 METAR ESMX 082020Z 24009KT 200V280 9999 FEW008 SCT011 BKN015 06/05 Q1002=
201404081950 METAR ESMX 081950Z 25011KT 220V280 9999 FEW006 SCT008 BKN010 07/05 Q1002=
201404081920 METAR ESMX 081920Z AUTO VRB10KT 220V080 9999 FEW008/// BKN010/// OVC015/// 07/05 Q1002=
201404081850 METAR ESMX 081850Z 24011KT 9999 FEW005 SCT007 BKN009 07/05 Q1002=
201404081820 METAR ESMX 081820Z 25011KT 9999 FEW007 SCT008 BKN009 07/06 Q1002=
201404081750 METAR ESMX 081750Z 25014G24KT 9999 BKN005 OVC009 08/06 Q1001=
201404081720 METAR ESMX 081720Z 24012G23KT 200V270 7000 BR BKN004 OVC006 08/07 Q1001=
201404081650 METAR ESMX 081650Z 23012KT 9999 BKN004 09/08 Q1000=
201404081620 METAR ESMX 081620Z 22012KT 9000 VCSH BKN005 BKN012CB 11/09 Q1000=
201404081550 METAR ESMX 081550Z 20007KT 9999 VCSH FEW010 SCT015CB BKN061 11/10 Q1000=
201404081520 METAR ESMX 081520Z 20009KT 8000 -SHRA FEW005 SCT015CB 11/09 Q1000=
201404081450 METAR COR ESMX 081450Z 14007KT 5000 -SHRA FEW005 BKN011CB 12/11 Q1000=
201404081420 METAR ESMX 081420Z 13006KT 010V160 8000 -SHRA FEW006 BKN014CB 12/11 Q1000=
201404081350 METAR COR ESMX 081350Z 13005KT 100V160 6000 BR FEW008 BKN012 12/11 Q1000 RERA=
201404081320 METAR ESMX 081320Z 13006KT 7000 BR SCT004 BKN010 12/10 Q1001=
201404081250 METAR ESMX 081250Z 14005KT 100V180 5000 BR BKN005 12/10 Q1001=
201404081220 METAR ESMX 081220Z 16007KT 5000 BR OVC004 11/10 Q1002=
201404081150 METAR ESMX 081150Z 18008KT 7000 BR OVC004 11/10 Q1002=
201404081120 METAR ESMX 081120Z 16008KT 7000 BR FEW004 SCT005 BKN006 11/10 Q1001=
201404081050 METAR ESMX 081050Z 15008KT 9999 FEW004 BKN005 OVC010 11/10 Q1002=
201404081020 METAR ESMX 081020Z 15008KT 9999 BKN005 OVC009 11/10 Q1002=
201404080950 METAR ESMX 080950Z 13008KT 100V160 6000 -RA FEW004 SCT006 BKN008 11/10 Q1002=
201404080920 METAR ESMX 080920Z 17010KT 3700 RA BKN005 OVC007 11/10 Q1002=
201404080850 METAR ESMX 080850Z 13007KT 090V200 6000 -RA OVC005 11/10 Q1002=
201404080820 METAR ESMX 080820Z 14009KT 100V170 5000 BR OVC003 11/10 Q1002 REDZ=
201404080750 METAR ESMX 080750Z 13008KT 3100 BR OVC002 11/10 Q1003=
201404080720 METAR ESMX 080720Z 14008KT 100V170 2800 BR OVC002 10/10 Q1003=
201404080650 METAR COR ESMX 080650Z 13008KT 090V170 3500 -RA BR OVC003 10/10 Q1003=
201404080620 METAR ESMX 080620Z 13007KT 1200 R01/1300V1700N R19/1700VP2000N BR OVC002 10/10 Q1004=
201404080550 METAR ESMX 080550Z 12007KT 060V150 0800 R01/1000V1200N R19/1500V1800N FG VV002 10/10 Q1004=
201404080520 METAR ESMX 080520Z 13006KT 080V170 0500 R01/0800V0900N R19/1200V1400N FG VV002 10/10 Q1005=
201404080450 METAR ESMX 080450Z 14006KT 110V170 0350 R01/0800V0900N R19/1000V1200N FG VV002 10/10 Q1005=
201404080420 METAR ESMX 080420Z 14005KT 110V170 0900 R01/1100V1200N R19/1600VP2000D FG VV002 10/10 Q1005=
201404080350 METAR ESMX 080350Z 14005KT 110V180 1000 R01/1500V1700N R19/P2000N FG VV002 10/10 Q1006=
201404080320 METAR ESMX 080320Z AUTO 14004KT 0550 R01/1300V1500N R19/P2000N FG VV001 10/10 Q1006=
201404080250 METAR ESMX 080250Z AUTO 14004KT 1200 R01/P2000N R19/P2000N DZ VV002 10/10 Q1007 REDZ=
201404080220 METAR ESMX 080220Z AUTO 15005KT 1000 R01/P2000N R19/P2000N VV002 10/10 Q1007=
201404080150 METAR ESMX 080150Z AUTO 14004KT 0500 R01/1100V1900U R19/P2000N FG VV001 10/09 Q1008=
201404080120 METAR ESMX 080120Z AUTO 14004KT 0650 R01/1400V1900N R19/P2000N FG VV001 10/09 Q1008=
201404080050 METAR ESMX 080050Z AUTO 14004KT 0250 R01/0800V0900N R19/0900V1000N FG VV001 10/09 Q1008=
201404080020 METAR ESMX 080020Z AUTO 13003KT 0350 R01/0800V1400D R19/1200V1300N FG VV001 10/09 Q1008=
201404072350 METAR ESMX 072350Z 17004KT 0750 R01/1600VP2000N R19/1800VP2000D FG VV002 10/09 Q1008=
201404072320 METAR ESMX 072320Z 16003KT 1000 R01/1400VP2000U R19/P2000N FG VV002 10/09 Q1009 REDZ=
201404072250 METAR ESMX 072250Z 15003KT 0650 R01/1400V1800N R19/P2000N FG VV002 10/09 Q1009=
201404072220 METAR ESMX 072220Z 19003KT 0700 R01/1600VP2000D R19/1500VP2000D FG VV002 10/09 Q1009 REDZ=
201404072150 METAR ESMX 072150Z 21003KT 1700 BR OVC002 10/09 Q1009=
201404072120 METAR ESMX 072120Z AUTO 20002KT 2700 BR OVC003/// 10/09 Q1009=
201404072050 METAR ESMX 072050Z 20004KT 3800 BR SCT006 BKN008 OVC022 10/08 Q1009=
201404072020 METAR ESMX 072020Z 22004KT 9999 FEW016 OVC020 10/08 Q1009=
201404071950 METAR ESMX 071950Z 24005KT 9999 OVC015 10/08 Q1010=
201404071920 METAR ESMX 071920Z AUTO 26005KT 9999 FEW013/// OVC016/// 10/08 Q1009=
201404071850 METAR ESMX 071850Z 27007KT 9999 FEW008 SCT009 BKN011 10/08 Q1009=
201404071820 METAR ESMX 071820Z AUTO 26010KT 9999 FEW008/// OVC010/// 10/08 Q1009=
201404071750 METAR ESMX 071750Z 25007KT 9999 BKN007 OVC010 10/08 Q1009=
201404071720 METAR ESMX 071720Z 25008KT 9999 BKN008 OVC010 10/09 Q1009=
201404071650 METAR ESMX 071650Z 25007KT 210V280 9999 OVC009 11/09 Q1009=
201404071620 METAR ESMX 071620Z 24009KT 210V270 9999 SCT008 BKN011 OVC014 11/09 Q1009=
201404071550 METAR ESMX 071550Z AUTO 24009KT 9999 OVC008/// 11/09 Q1009=
201404071520 METAR ESMX 071520Z 25011KT 9999 OVC007 11/09 Q1009=
201404071450 METAR ESMX 071450Z 25010KT 9999 BKN007 OVC011 11/09 Q1009=
201404071420 METAR ESMX 071420Z 26009KT 220V280 9999 OVC006 11/09 Q1009=
201404071350 METAR ESMX 071350Z 23010KT 9999 OVC005 11/10 Q1009=
201404071320 METAR ESMX 071320Z 24009KT 8000 BR OVC005 11/09 Q1009=
201404071250 METAR ESMX 071250Z 23010KT 7000 BR OVC004 11/09 Q1009=
201404071220 METAR ESMX 071220Z 23009KT 6000 BR OVC004 11/09 Q1009=
201404071150 METAR ESMX 071150Z 24009KT 8000 BR OVC004 11/10 Q1009=
201404071120 METAR ESMX 071120Z 25010KT 9999 BKN003 OVC005 11/10 Q1009=
201404071050 METAR ESMX 071050Z 25009KT 9999 FEW004 OVC005 11/10 Q1009=
201404071020 METAR ESMX 071020Z 24010KT 9000 BR BKN004 OVC007 11/10 Q1009=
201404070950 METAR ESMX 070950Z 25010KT 9999 BKN002 OVC005 11/10 Q1009=
201404070920 METAR ESMX 070920Z 23009KT 210V270 8000 BR OVC003 11/10 Q1009=
201404070850 METAR ESMX 070850Z 23009KT 9999 SCT002 OVC004 11/10 Q1009=
201404070820 METAR ESMX 070820Z 24007KT 200V280 9999 BKN002 OVC005 11/10 Q1009=
201404070750 METAR ESMX 070750Z 24009KT 9999 OVC002 11/10 Q1009 REDZ=
201404070720 METAR ESMX 070720Z 22010KT 6000 BR OVC002 11/10 Q1009=
201404070650 METAR ESMX 070650Z 23007KT 9999 -DZ FEW003 OVC004 11/10 Q1009=
201404070620 METAR ESMX 070620Z 21007KT 190V250 9999 BKN002 OVC003 10/10 Q1009=
201404070550 METAR ESMX 070550Z 22007KT 4900 BR OVC002 10/10 Q1009=
201404070520 METAR ESMX 070520Z 20007KT 1800 -DZ OVC002 10/10 Q1009=
201404070450 METAR ESMX 070450Z 19008KT 0700 R01/1100V1400N R19/1100V1300N FG VV002 10/09 Q1009=
201404070420 METAR ESMX 070420Z 20008KT 0800 R01/1300V1700D R19/1500V1800D FG VV002 10/09 Q1009=
201404070350 METAR ESMX 070350Z 18006KT 1500 BR VV002 10/09 Q1009=
201404070320 METAR ESMX 070320Z AUTO 17005KT 0500 R01/1300V1400N R19/1400V1800D FG VV001 10/09 Q1010=
201404070250 METAR ESMX 070250Z AUTO 18005KT 0350 R01/1000V1300N R19/0800V1200U FG VV001 10/09 Q1010=
201404070220 METAR ESMX 070220Z AUTO 18006KT 0300 R01/0900V1000N R19/0900V1000N FG VV001 10/09 Q1010=
201404070150 METAR ESMX 070150Z AUTO 18006KT 1300 R01/P2000N R19/P2000N OVC001/// 10/09 Q1010 REDZ=
201404070120 METAR ESMX 070120Z AUTO 18005KT 1100 R01/P2000N R19/P2000N OVC001/// 09/09 Q1010 RERA=
201404070050 METAR ESMX 070050Z AUTO 17004KT 1300 R01/P2000N R19/P2000N BR OVC002/// 10/09 Q1011 RESHUP=
201404070020 METAR ESMX 070020Z AUTO 18005KT 1600 -RA OVC001/// 10/09 Q1011=
201404062350 METAR COR ESMX 062350Z 18005KT 1500 BR OVC003 10/09 Q1011=
201404062320 METAR COR ESMX 062320Z 20004KT 3000 BR OVC005 10/08 Q1011 REDZ=
201404062250 METAR ESMX 062250Z 20005KT 3400 BR SCT007 OVC018 10/08 Q1011=
201404062220 METAR ESMX 062220Z 20005KT 3600 BR BKN020 09/08 Q1011 RERA=
201404062150 METAR ESMX 062150Z 19004KT 5000 BR OVC016 10/08 Q1011=
201404062120 METAR ESMX 062120Z 21005KT 9999 OVC016 10/08 Q1012=
201404062050 METAR ESMX 062050Z 20005KT 9999 OVC018 10/07 Q1012=
201404062020 METAR ESMX 062020Z 21003KT 9999 OVC019 10/07 Q1012=
201404061950 METAR ESMX 061950Z 19003KT 9999 OVC020 10/07 Q1012=
201404061920 METAR ESMX 061920Z 21003KT 9999 OVC020 10/07 Q1012=
201404061850 METAR ESMX 061850Z 21005KT 9999 OVC019 11/07 Q1012=
201404061820 METAR ESMX 061820Z 21005KT 9999 OVC020 11/08 Q1012=
201404061750 METAR COR ESMX 061750Z 20003KT 9999 OVC020 11/08 Q1012=
201404061720 METAR ESMX 061720Z 18004KT 9999 OVC019 11/08 Q1012=
201404061650 METAR ESMX 061650Z VRB02KT 9999 OVC020 11/08 Q1012=
201404061620 METAR ESMX 061620Z 23003KT 9999 OVC023 11/07 Q1012=
201404061550 METAR COR ESMX 061550Z 20003KT 170V240 9999 OVC024 11/07 Q1012=
201404061520 METAR ESMX 061520Z AUTO 23005KT 9999 FEW028/// OVC032/// 11/07 Q1012=
201404061450 METAR ESMX 061450Z 23008KT 9999 SCT022 BKN035 12/07 Q1012=
201404061420 METAR ESMX 061420Z 23008KT 9999 BKN027 12/06 Q1012=
201404061350 METAR COR ESMX 061350Z 25009KT 200V280 9999 -SHRA BKN030 12/07 Q1012=
201404061320 METAR ESMX 061320Z 27009KT 220V290 9999 SCT030 BKN060 14/05 Q1012=
201404061250 METAR ESMX 061250Z 25009KT 210V290 9999 FEW030 SCT070 14/06 Q1012=
201404061220 METAR ESMX 061220Z AUTO 23008KT 190V280 9999 FEW026/// SCT030/// 13/06 Q1013=
201404061150 METAR ESMX 061150Z AUTO 24009KT 210V270 9999 FEW023/// SCT026/// BKN081/// 12/06 Q1013=
201404061120 METAR ESMX 061120Z AUTO 24010KT 9999 BKN020/// 12/06 Q1013=
201404061050 METAR ESMX 061050Z AUTO 24009KT 190V260 9999 FEW017/// SCT022/// BKN026/// 11/06 Q1013=
201404061020 METAR ESMX 061020Z AUTO 23008KT 210V270 9999 FEW011/// BKN015/// BKN020/// 11/07 Q1013=
201404060950 METAR ESMX 060950Z AUTO 25007KT 8000 BR FEW008/// BKN009/// OVC013/// 09/07 Q1013=
201404060920 METAR ESMX 060920Z AUTO 22007KT 5000 BR SCT004/// OVC007/// 08/06 Q1013=
201404060850 METAR ESMX 060850Z AUTO 22007KT 4100 BR OVC004/// 08/07 Q1013=
201404060820 METAR ESMX 060820Z AUTO 22008KT 4000 BR OVC004/// 08/07 Q1013=
201404060750 METAR ESMX 060750Z AUTO 22008KT 4300 BR OVC003/// 07/07 Q1013=
201404060720 METAR ESMX 060720Z AUTO 23007KT 3400 BR FEW002/// BKN004/// OVC006/// 07/06 Q1013=
201404060650 METAR ESMX 060650Z AUTO 22007KT 2600 BR OVC002/// 07/06 Q1013=
201404060620 METAR ESMX 060620Z AUTO 23007KT 2400 BR OVC001/// 07/06 Q1013=
201404060550 METAR ESMX 060550Z 24006KT 210V280 1700 BR OVC002 06/06 Q1013=
201404060520 METAR ESMX 060520Z 23006KT 200V260 1100 R01/1600VP2000N R19/1800VP2000N BR OVC002 06/05 Q1013=
201404060450 METAR ESMX 060450Z 24006KT 1300 R01/1700VP2000D R19/P2000N BR OVC002 06/05 Q1013=
201404060420 METAR ESMX 060420Z 24006KT 210V280 1800 BR OVC002 06/05 Q1013=
201404060350 METAR ESMX 060350Z 23006KT 1200 R01/P2000N R19/P2000N BR OVC002 06/05 Q1013=
201404060320 METAR ESMX 060320Z 23006KT 0900 R01/P2000N R19/P2000N FG VV002 06/05 Q1013=
201404060250 METAR ESMX 060250Z AUTO 23006KT 0550 R01/1300V1700N R19/1500V1700N FG VV001 05/05 Q1013=
201404060220 METAR ESMX 060220Z AUTO 24006KT 0300 R01/0900V1000N R19/1000V1100N FG VV001 05/05 Q1013=
201404060150 METAR ESMX 060150Z AUTO 23006KT 0400 R01/1000V1200N R19/1100V1200N FG VV001 05/05 Q1013=
201404060120 METAR ESMX 060120Z AUTO 22005KT 0450 R01/1200V1400D R19/1300V1700D FG VV001 05/04 Q1013=
201404060050 METAR ESMX 060050Z AUTO 22006KT 0600 R01/1400V1600N R19/1500V1700N FG VV001 05/04 Q1014=
201404060020 METAR ESMX 060020Z AUTO 20006KT 0700 R01/1600V1700N R19/1700VP2000D FG VV002 05/04 Q1014=
201404052350 METAR ESMX 052350Z AUTO 20007KT 0600 R01/1400V1600N R19/1600VP2000U FG VV002 05/04 Q1014=
201404052320 METAR ESMX 052320Z AUTO 21005KT 0400 R01/1000V1100N R19/1100V1300N FG VV002 05/04 Q1014=
201404052250 METAR ESMX 052250Z AUTO 22006KT 0400 R01/1000V1100N R19/1200V1300N FG VV001 04/04 Q1014=
201404052220 METAR ESMX 052220Z AUTO 22006KT 0600 R01/1300V1800D R19/1400VP2000D FG VV002 04/04 Q1014=
201404052150 METAR ESMX 052150Z AUTO 20007KT 1500 BR OVC001/// 04/03 Q1014=
201404052120 METAR ESMX 052120Z AUTO 20007KT 2600 BR OVC002/// 04/03 Q1014 REDZ=
201404052050 METAR ESMX 052050Z AUTO 19008KT 2300 BR OVC003/// 04/03 Q1014=
201404052020 METAR ESMX 052020Z AUTO 19007KT 4700 BR OVC005/// 04/03 Q1014=
201404051950 METAR ESMX 051950Z AUTO 19007KT 4600 -RA OVC010/// 04/03 Q1014 REDZ=
201404051920 METAR ESMX 051920Z AUTO 17007KT 8000 BR FEW011/// SCT014/// OVC017/// 05/02 Q1014 REDZ=
201404051850 METAR ESMX 051850Z AUTO 16007KT 9999 DZ FEW019/// SCT047/// 05/01 Q1014=
201404051820 METAR ESMX 051820Z AUTO 17007KT 9999 DZ FEW040/// SCT055/// 06/00 Q1014=
201404051750 METAR ESMX 051750Z AUTO 17007KT 140V200 9999 NCD 06/M01 Q1014=
201404051720 METAR ESMX 051720Z AUTO 17009KT 9999 NCD 07/M01 Q1015=
201404051650 METAR ESMX 051650Z AUTO 17010KT 9999 NCD 07/M01 Q1015=
201404051620 METAR ESMX 051620Z AUTO 16009KT 9999 NCD 08/M01 Q1015=
201404051550 METAR ESMX 051550Z AUTO 17008KT 9999 SCT057/// 09/M02 Q1015=
201404051520 METAR ESMX 051520Z AUTO 18009KT 9999 FEW077/// 09/M02 Q1015=
201404051450 METAR ESMX 051450Z AUTO 17009KT 140V200 9999 NCD 10/M02 Q1015=
201404051420 METAR ESMX 051420Z AUTO 17011KT 9999 NCD 10/M02 Q1016=
201404051350 METAR ESMX 051350Z AUTO 17014KT 9999 NCD 11/M02 Q1016=
201404051320 METAR ESMX 051320Z AUTO 19012KT 9999 NCD 11/M02 Q1016=
201404051250 METAR ESMX 051250Z AUTO 15010KT 9999 NCD 10/M03 Q1016=
201404051220 METAR ESMX 051220Z AUTO 15010KT 110V170 9999 FEW087/// 10/M05 Q1017=
201404051150 METAR ESMX 051150Z AUTO 16010KT 9999 FEW057/// 10/M05 Q1017=
201404051120 METAR ESMX 051120Z AUTO 16013KT 9999 FEW045/// 10/M05 Q1017=
201404051050 METAR ESMX 051050Z AUTO 17011KT 120V200 9999 FEW088/// 09/M04 Q1017=
201404051020 METAR ESMX 051020Z AUTO 17009KT 120V190 9999 FEW066/// 09/M03 Q1017=
201404050950 METAR ESMX 050950Z AUTO 16010KT 9999 FEW058/// 08/M02 Q1017=
201404050920 METAR ESMX 050920Z AUTO 16009KT 9999 FEW060/// 07/M02 Q1018=
201404050850 METAR ESMX 050850Z AUTO 15007KT 110V180 9999 NCD 07/M02 Q1018=
201404050820 METAR ESMX 050820Z AUTO 15007KT 110V190 9999 FEW059/// 07/M02 Q1018=
201404050750 METAR ESMX 050750Z AUTO 14005KT 100V170 9999 NCD 06/M02 Q1018=
201404050720 METAR ESMX 050720Z AUTO 12006KT 080V160 9999 NCD 04/M02 Q1018=
201404050650 METAR ESMX 050650Z AUTO 13005KT 080V170 9999 NCD 03/M02 Q1018=
201404050620 METAR ESMX 050620Z AUTO 14006KT 9999 NCD 02/M02 Q1018=
201404050550 METAR ESMX 050550Z AUTO 12003KT 070V160 9999 NCD M00/M03 Q1019=
201404050520 METAR ESMX 050520Z AUTO 08003KT 060V130 9999 NCD M02/M03 Q1019=
201404050450 METAR ESMX 050450Z AUTO 09003KT 070V130 9999 NCD M03/M04 Q1019=
201404050420 METAR ESMX 050420Z AUTO VRB03KT 9999 NCD M03/M04 Q1019=
201404050350 METAR ESMX 050350Z AUTO VRB03KT 9999 NCD M03/M04 Q1019=
201404050320 METAR ESMX 050320Z AUTO VRB02KT 9999 NCD M03/M04 Q1019=
201404050250 METAR ESMX 050250Z AUTO VRB02KT 9999 NCD M02/M04 Q1019=
201404050220 METAR ESMX 050220Z AUTO 10003KT 060V150 9999 NCD M02/M04 Q1020=
201404050150 METAR ESMX 050150Z AUTO VRB03KT 9999 NCD M02/M03 Q1020=
201404050120 METAR ESMX 050120Z AUTO 10004KT 060V130 9999 NCD M02/M03 Q1020=
201404050050 METAR ESMX 050050Z AUTO 09003KT 070V130 9999 NCD M02/M03 Q1020=
201404050020 METAR ESMX 050020Z AUTO 10004KT 9999 NCD M02/M03 Q1020=
201404042350 METAR ESMX 042350Z AUTO VRB02KT 9999 NCD M02/M03 Q1020=
201404042320 METAR ESMX 042320Z AUTO VRB03KT 9999 NCD M02/M04 Q1020=
201404042250 METAR ESMX 042250Z AUTO 10004KT 060V140 9999 NCD M02/M04 Q1020=
201404042220 METAR ESMX 042220Z AUTO 09004KT 050V130 9999 NCD M01/M05 Q1020=
201404042150 METAR ESMX 042150Z AUTO 11003KT 070V150 9999 NCD M01/M05 Q1020=
201404042120 METAR ESMX 042120Z AUTO 12003KT 070V160 9999 NCD M00/M05 Q1020=
201404042050 METAR ESMX 042050Z AUTO 10004KT 070V140 9999 NCD M00/M05 Q1020=
201404042020 METAR ESMX 042020Z AUTO 11003KT 070V160 9999 NCD 00/M05 Q1020=
201404041950 METAR ESMX 041950Z AUTO 12004KT 080V180 9999 NCD 01/M06 Q1020=
201404041920 METAR ESMX 041920Z AUTO 12005KT 090V160 9999 NCD 02/M07 Q1020=
201404041850 METAR ESMX 041850Z AUTO 13005KT 100V170 9999 NCD 03/M09 Q1020=
201404041820 METAR ESMX 041820Z AUTO 11004KT 050V150 9999 NCD 03/M11 Q1019=
201404041750 METAR ESMX 041750Z AUTO 11006KT 060V150 9999 NCD 04/M11 Q1019=
201404041720 METAR COR ESMX 041720Z 11006KT 080V150 CAVOK 06/M10 Q1019=
201404041650 METAR ESMX 041650Z 11006KT 070V150 CAVOK 07/M08 Q1019=
201404041620 METAR COR ESMX 041620Z 07006KT 010V140 CAVOK 08/M07 Q1018=
201404041550 METAR ESMX 041550Z 08007KT 020V140 CAVOK 08/M06 Q1018=
201404041520 METAR ESMX 041520Z AUTO 08008KT 020V130 9999 NCD 09/M06 Q1018=
201404041450 METAR ESMX 041450Z 07007KT 020V100 CAVOK 09/M06 Q1018=
201404041420 METAR ESMX 041420Z 07006KT 020V140 CAVOK 10/M07 Q1018=
201404041350 METAR COR ESMX 041350Z 07007KT 020V110 CAVOK 10/M07 Q1018=
201404041320 METAR ESMX 041320Z 09006KT 030V150 CAVOK 09/M07 Q1018=
201404041250 METAR ESMX 041250Z 06008KT 030V110 9999 FEW045 09/M07 Q1019=
201404041220 METAR ESMX 041220Z 08006KT 030V140 9999 FEW045 08/M06 Q1019=
201404041150 METAR ESMX 041150Z 10005KT 030V190 9999 FEW045 08/M05 Q1019=
201404041120 METAR COR ESMX 041120Z 08007KT 010V160 9999 FEW040 08/M05 Q1019=
201404041050 METAR ESMX 041050Z 07008KT 030V140 9999 FEW043 08/M05 Q1019=
201404041020 METAR ESMX 041020Z 10006KT 050V150 9999 FEW040 08/M05 Q1019=
201404040950 METAR ESMX 040950Z 06006KT 360V140 9999 FEW038 07/M05 Q1019=
201404040920 METAR ESMX 040920Z 09004KT 350V140 9999 FEW040 06/M04 Q1019=
201404040850 METAR ESMX 040850Z 04006KT 010V080 CAVOK 06/M04 Q1019=
201404040820 METAR ESMX 040820Z 05005KT CAVOK 05/M04 Q1019=
201404040750 METAR ESMX 040750Z 04003KT 360V080 CAVOK 04/M03 Q1019=
201404040720 METAR ESMX 040720Z 06004KT CAVOK 03/M02 Q1019=
201404040650 METAR ESMX 040650Z 05003KT CAVOK 02/M02 Q1018=
201404040620 METAR ESMX 040620Z 01002KT CAVOK M00/M01 Q1018=
201404040550 METAR ESMX 040550Z 00000KT CAVOK M03/M03 Q1018=
201404040520 METAR ESMX 040520Z 04003KT CAVOK M05/M05 Q1017=
201404040450 METAR ESMX 040450Z 02003KT CAVOK M05/M06 Q1017=
201404040420 METAR ESMX 040420Z AUTO 00000KT 9999 NCD M06/M07 Q1017=
201404040350 METAR ESMX 040350Z AUTO 00000KT 9999 NCD M06/M06 Q1017=
201404040320 METAR ESMX 040320Z AUTO 00000KT 9999 NCD M06/M06 Q1017=
201404040250 METAR ESMX 040250Z AUTO 00000KT 9999 NCD M06/M06 Q1016=
201404040220 METAR ESMX 040220Z AUTO 00000KT 9999 NCD M06/M06 Q1016=
201404040150 METAR ESMX 040150Z AUTO 00000KT 9999 NCD M05/M06 Q1016=
201404040120 METAR ESMX 040120Z AUTO 00000KT 9999 NCD M05/M06 Q1016=
201404040050 METAR ESMX 040050Z AUTO 00000KT 9999 NCD M05/M06 Q1016=
201404040020 METAR ESMX 040020Z 00000KT CAVOK M04/M05 Q1015=
201404032350 METAR ESMX 032350Z 00000KT CAVOK M04/M06 Q1015=
201404032320 METAR ESMX 032320Z 00000KT CAVOK M04/M05 Q1015=
201404032250 METAR ESMX 032250Z 00000KT CAVOK M03/M06 Q1015=
201404032220 METAR ESMX 032220Z AUTO 07002KT 9999 NCD M02/M05 Q1015=
201404032150 METAR ESMX 032150Z 09002KT CAVOK M01/M05 Q1014=
201404032120 METAR ESMX 032120Z 10003KT CAVOK 00/M05 Q1014=
201404032050 METAR ESMX 032050Z VRB03KT CAVOK 01/M05 Q1014=
201404032020 METAR ESMX 032020Z 11004KT 080V150 CAVOK 02/M05 Q1014=
201404031950 METAR ESMX 031950Z 10005KT 070V140 CAVOK 03/M05 Q1013=
201404031920 METAR ESMX 031920Z 10006KT 050V150 CAVOK 04/M04 Q1013=
201404031850 METAR ESMX 031850Z 09005KT 050V150 CAVOK 04/M04 Q1012=
201404031820 METAR ESMX 031820Z 05002KT CAVOK 05/M04 Q1012=
201404031750 METAR ESMX 031750Z 04005KT CAVOK 07/M05 Q1011=
201404031720 METAR ESMX 031720Z 03007KT CAVOK 08/M05 Q1011=
201404031650 METAR ESMX 031650Z 03006KT 010V070 CAVOK 09/M06 Q1011=
201404031620 METAR ESMX 031620Z 03007KT 360V060 CAVOK 09/M06 Q1010=
201404031550 METAR ESMX 031550Z 01007KT 340V050 CAVOK 10/M06 Q1010=
201404031520 METAR ESMX 031520Z AUTO 03008KT 350V080 9999 NCD 10/M06 Q1010=
201404031450 METAR ESMX 031450Z 01007KT 330V050 CAVOK 10/M06 Q1010=
201404031420 METAR ESMX 031420Z 36005KT 320V070 CAVOK 10/M06 Q1010=
201404031350 METAR ESMX 031350Z 01004KT 320V050 CAVOK 10/M06 Q1010=
201404031320 METAR ESMX 031320Z 36004KT 300V100 CAVOK 10/M06 Q1010=
201404031250 METAR ESMX 031250Z VRB06KT 260V090 CAVOK 10/M06 Q1010=
201404031220 METAR ESMX 031220Z 01010KT 340V060 CAVOK 08/M06 Q1010=
201404031150 METAR ESMX 031150Z 02010KT CAVOK 08/M06 Q1010=
201404031120 METAR ESMX 031120Z 36010KT 320V040 CAVOK 10/M05 Q1010=
201404031050 METAR ESMX 031050Z 02008KT 340V070 CAVOK 10/M06 Q1009=
201404031020 METAR ESMX 031020Z 36010KT CAVOK 09/M06 Q1009=
201404030950 METAR ESMX 030950Z 02010KT CAVOK 08/M06 Q1009=
201404030920 METAR ESMX 030920Z 02010KT 350V050 CAVOK 08/M06 Q1009=
201404030850 METAR ESMX 030850Z 04010KT 340V070 CAVOK 08/M05 Q1009=
201404030820 METAR ESMX 030820Z 02007KT CAVOK 06/M03 Q1009=
201404030750 METAR ESMX 030750Z 01007KT CAVOK 05/M02 Q1009=
201404030720 METAR ESMX 030720Z 36006KT CAVOK 04/M01 Q1009=
201404030650 METAR ESMX 030650Z 01005KT CAVOK 03/M02 Q1009=
201404030620 METAR ESMX 030620Z 01004KT CAVOK 01/M01 Q1009=
201404030550 METAR ESMX 030550Z VRB03KT CAVOK M00/M02 Q1009=
201404030520 METAR ESMX 030520Z 01004KT CAVOK M01/M02 Q1009=
201404030450 METAR ESMX 030450Z 02006KT CAVOK M02/M02 Q1009=
201404030420 METAR ESMX 030420Z 01005KT CAVOK M03/M04 Q1008=
201404030350 METAR ESMX 030350Z 01002KT CAVOK M03/M04 Q1009=
201404030320 METAR ESMX 030320Z AUTO 01002KT 9999 NCD M03/M04 Q1009=
201404030250 METAR ESMX 030250Z AUTO 35001KT 9999 NCD M03/M04 Q1009=
201404030220 METAR ESMX 030220Z AUTO 36002KT 9999 NCD M02/M03 Q1009=
201404030150 METAR ESMX 030150Z AUTO 00000KT 9999 NCD M02/M03 Q1009=
201404030120 METAR ESMX 030120Z AUTO VRB01KT 9999 FEW048/// M02/M03 Q1009=
201404030050 METAR ESMX 030050Z AUTO 03002KT 9999 OVC049/// M00/M02 Q1009=
201404030020 METAR ESMX 030020Z AUTO VRB03KT 9999 OVC051/// 01/M02 Q1010=
201404022350 METAR ESMX 022350Z 00000KT CAVOK 01/M02 Q1010=
201404022320 METAR ESMX 022320Z VRB03KT CAVOK 01/M02 Q1010=
201404022250 METAR ESMX 022250Z 19004KT 9999 FEW047 OVC058 01/M02 Q1011=
201404022220 METAR ESMX 022220Z 18006KT 9999 FEW042 SCT058 02/M02 Q1011=
201404022150 METAR ESMX 022150Z 16006KT 9999 -SHSN FEW040CB BKN058 02/M04 Q1011=
201404022120 METAR ESMX 022120Z 15006KT 110V200 9999 FEW030 BKN076 03/M04 Q1011=
201404022050 METAR ESMX 022050Z 17005KT 120V200 9999 -SHSN FEW011 SCT041CB BKN085 03/M02 Q1011=
201404022020 METAR COR ESMX 022020Z 16006KT 120V190 9999 -SN FEW040CB BKN081 03/M02 Q1011=
201404021950 METAR ESMX 021950Z 15007KT 120V190 9999 FEW017 SCT068 BKN078 03/M02 Q1011=
201404021920 METAR ESMX 021920Z 16005KT 9999 FEW040CB SCT078 04/M02 Q1011=
201404021850 METAR ESMX 021850Z 16006KT 9999 FEW040CB SCT079 04/M02 Q1012=
201404021820 METAR ESMX 021820Z 18003KT 9999 FEW040CB SCT067 04/M02 Q1012=
201404021750 METAR ESMX 021750Z 18007KT 9999 FEW044CB SCT068 04/M02 Q1012=
201404021720 METAR ESMX 021720Z 20006KT 9999 SCT042CB 05/M02 Q1012=
201404021650 METAR ESMX 021650Z 19007KT 9999 FEW040CB 05/M03 Q1012=
201404021620 METAR ESMX 021620Z VRB10KT 020V210 9999 FEW040 06/M03 Q1012=
201404021550 METAR ESMX 021550Z AUTO 20008KT 160V230 9999 FEW085/// 06/M02 Q1012=
201404021520 METAR ESMX 021520Z AUTO 19008KT 150V230 9999 NCD 08/M02 Q1012=
201404021450 METAR ESMX 021450Z 18008KT 9999 FEW045 08/M02 Q1012=
201404021420 METAR ESMX 021420Z 16007KT 120V180 9999 FEW044 09/M03 Q1013=
201404021350 METAR ESMX 021350Z 17007KT 120V200 9999 FEW043 08/M04 Q1013=
201404021320 METAR ESMX 021320Z AUTO 11006KT 030V190 9999 NCD 08/M03 Q1013=
201404021250 METAR ESMX 021250Z AUTO 14006KT 100V190 9999 FEW042/// 08/M03 Q1014=
201404021220 METAR ESMX 021220Z AUTO 16008KT 120V190 9999 SCT039/// 07/M03 Q1014=
201404021150 METAR ESMX 021150Z AUTO 13007KT 090V160 9999 BKN038/// 07/M03 Q1015=
201404021120 METAR ESMX 021120Z 18006KT 130V220 9999 FEW039 07/M02 Q1015=
201404021050 METAR ESMX 021050Z 15008KT 110V190 9999 SCT040 07/M03 Q1016=
201404021020 METAR COR ESMX 021020Z 16008KT 120V190 9999 FEW035 07/M03 Q1016=
201404020950 METAR ESMX 020950Z 14007KT 080V170 CAVOK 06/M01 Q1016=
201404020920 METAR COR ESMX 020920Z 16008KT 110V190 9999 FEW015 06/M01 Q1016=
201404020850 METAR COR ESMX 020850Z 16008KT 9999 FEW015 05/M00 Q1017=
201404020820 METAR ESMX 020820Z 15007KT 120V190 9999 FEW013 SCT050 03/M01 Q1017=
201404020750 METAR ESMX 020750Z 18009KT 9999 FEW008 SCT012 BKN052 03/M00 Q1017=
201404020720 METAR ESMX 020720Z 16008KT 9999 BKN006 02/M00 Q1017=
201404020650 METAR ESMX 020650Z 14007KT 110V180 9999 BKN006 01/M00 Q1017=
201404020620 METAR ESMX 020620Z 17006KT 9999 BKN006 01/M00 Q1017=
201404020550 METAR COR ESMX 020550Z 17006KT 9999 BKN005 01/M00 Q1017=
201404020520 METAR COR ESMX 020520Z 16004KT 120V190 9999 OVC004 00/M01 Q1017=
201404020450 METAR ESMX 020450Z 17004KT 9000 BR OVC003 00/M01 Q1017=
201404020420 METAR ESMX 020420Z 15005KT 120V180 8000 BR OVC003 00/M00 Q1018=
201404020350 METAR ESMX 020350Z 15005KT 9000 BR OVC003 00/M01 Q1018=
201404020320 METAR ESMX 020320Z AUTO 16007KT 8000 OVC001/// 00/M01 Q1017=
201404020250 METAR ESMX 020250Z AUTO 14006KT 110V170 7000 OVC003/// M00/M01 Q1017=
201404020220 METAR ESMX 020220Z AUTO 15007KT 9999 FEW002/// BKN003/// M00/M01 Q1017=
201404020150 METAR ESMX 020150Z AUTO 15006KT 0700 R01/P2000D R19/P2000N FG BKN001/// OVC003/// 00/M00 Q1018=
201404020120 METAR ESMX 020120Z AUTO 15007KT 9000 BR OVC003/// 00/M00 Q1018=
201404020050 METAR ESMX 020050Z AUTO 14007KT 9999 SCT003/// BKN006/// 01/M00 Q1018=
201404020020 METAR ESMX 020020Z AUTO 15006KT 110V170 9999 BKN004/// 01/M00 Q1018=
201404012350 METAR ESMX 012350Z 14007KT 110V170 9999 OVC004 01/M00 Q1018=
201404012320 METAR ESMX 012320Z 12004KT 080V150 9999 BKN005 00/M01 Q1018=
201404012250 METAR ESMX 012250Z 12004KT 090V160 9999 FEW005 M00/M01 Q1018=
201404012220 METAR ESMX 012220Z AUTO 12003KT 080V150 9999 NCD 00/M01 Q1018=
201404012150 METAR ESMX 012150Z 11004KT 050V150 CAVOK 00/M02 Q1018=
201404012120 METAR ESMX 012120Z 11005KT 080V150 CAVOK 01/M02 Q1018=
201404012050 METAR ESMX 012050Z 12005KT 090V160 CAVOK 02/M02 Q1018=
201404012020 METAR COR ESMX 012020Z 12005KT 080V170 CAVOK 02/M01 Q1017=
201404011950 METAR ESMX 011950Z 12006KT 080V160 CAVOK 03/M01 Q1017=
201404011920 METAR COR ESMX 011920Z 12006KT 080V160 CAVOK 03/M00 Q1017=
201404011850 METAR ESMX 011850Z 13006KT 100V170 CAVOK 04/M01 Q1017=
201404011820 METAR ESMX 011820Z 10006KT 060V150 CAVOK 05/M02 Q1017=
201404011750 METAR ESMX 011750Z AUTO 06004KT 9999 NCD 05/M03 Q1016=
201404011720 METAR ESMX 011720Z 08003KT CAVOK 07/M03 Q1016=
201404011650 METAR ESMX 011650Z 05004KT 030V090 CAVOK 08/M04 Q1016=
201404011620 METAR COR ESMX 011620Z 03006KT CAVOK 08/M05 Q1016=
201404011550 METAR ESMX 011550Z VRB03KT CAVOK 09/M05 Q1016=
201404011520 METAR ESMX 011520Z 04005KT CAVOK 08/M04 Q1016=
201404011450 METAR ESMX 011450Z 01006KT CAVOK 08/M04 Q1016=
201404011420 METAR ESMX 011420Z 03008KT 360V070 9999 SCT048 08/M05 Q1016=
201404011350 METAR ESMX 011350Z 33005KT 260V030 9999 FEW035 BKN056 09/M05 Q1016=
201404011320 METAR ESMX 011320Z 36006KT 310V040 9999 SCT047 09/M04 Q1016=
201404011250 METAR ESMX 011250Z 02007KT 340V080 9999 FEW026 BKN052 08/M05 Q1016=
201404011220 METAR ESMX 011220Z 35007KT 320V050 9999 FEW026 BKN045 09/M05 Q1016=
