##########################################################
# Query made at 04/19/2024 21:40:34 UTC
# Time interval: from 07/01/2014 12:00  to 07/31/2014 12:59  UTC
##########################################################

##########################################################
# ESMX, Vaxjo (Sweden)
# WMO index: 02641. WIGOS ID: 0-20000-0-02648
# Latitude 56-51N. Longitude 014-50E. Altitude 199 m.
##########################################################

201407311250 METAR ESMX 311250Z 25010KT 9999 FEW042 22/11 Q1009=
201407311220 METAR ESMX 311220Z 26011KT 9999 SCT035 21/12 Q1009=
201407311150 METAR ESMX 311150Z AUTO 25012KT 210V280 9999 FEW039/// 21/12 Q1009=
201407311120 METAR ESMX 311120Z AUTO 24011KT 200V260 9999 FEW041/// SCT088/// 22/12 Q1009=
201407311050 METAR ESMX 311050Z AUTO 23013KT 9999 FEW040/// SCT056/// BKN087/// 22/13 Q1009=
201407311020 METAR ESMX 311020Z AUTO 23009KT 190V250 9999 FEW042/// 22/14 Q1009=
201407310950 METAR ESMX 310950Z AUTO 25010KT 210V300 9999 FEW039/// 21/12 Q1009=
201407310920 METAR ESMX 310920Z AUTO 25009KT 220V300 9999 FEW030/// 21/13 Q1009=
201407310850 METAR ESMX 310850Z AUTO 24007KT 210V280 9999 FEW046/// 20/13 Q1009=
201407310820 METAR ESMX 310820Z AUTO 26008KT 9999 FEW022/// SCT028/// BKN043/// 19/14 Q1009=
201407310750 METAR ESMX 310750Z AUTO 28007KT 240V300 9999 FEW024/// 18/14 Q1009=
201407310720 METAR ESMX 310720Z AUTO 22008KT 190V260 9999 SCT020/// BKN032/// 19/14 Q1009=
201407310650 METAR ESMX 310650Z AUTO 24006KT 9999 FEW017/// SCT026/// 18/14 Q1009=
201407310620 METAR ESMX 310620Z AUTO 28005KT 260V330 9999 NCD 18/14 Q1009=
201407310550 METAR ESMX 310550Z AUTO 25005KT 9999 NCD 17/14 Q1009=
201407310520 METAR ESMX 310520Z 22005KT CAVOK 16/14 Q1009=
201407310450 METAR COR ESMX 310450Z 22005KT CAVOK 15/14 Q1009=
201407310420 METAR ESMX 310420Z 24004KT CAVOK 13/13 Q1008=
201407310350 METAR ESMX 310350Z 26003KT 9999 MIFG NSC 12/12 Q1008=
201407310320 METAR ESMX 310320Z AUTO 26003KT 9999 NCD 13/12 Q1008=
201407310250 METAR ESMX 310250Z AUTO 28002KT 9999 SCT062/// 14/13 Q1008=
201407310220 METAR ESMX 310220Z AUTO 27004KT 9999 NCD 14/13 Q1008=
201407310150 METAR ESMX 310150Z AUTO 28004KT 9999 FEW072/// 14/13 Q1008=
201407310120 METAR ESMX 310120Z AUTO 27004KT 9999 NCD 15/13 Q1008=
201407310050 METAR ESMX 310050Z AUTO VRB02KT 9999 NCD 14/13 Q1007=
201407310020 METAR ESMX 310020Z 28003KT CAVOK 15/14 Q1007=
201407302350 METAR ESMX 302350Z 26005KT CAVOK 16/14 Q1007=
201407302320 METAR ESMX 302320Z 27005KT CAVOK 16/14 Q1007=
201407302250 METAR COR ESMX 302250Z 27006KT CAVOK 17/14 Q1007=
201407302220 METAR ESMX 302220Z AUTO 26004KT 9999 BKN093/// 17/15 Q1007=
201407302150 METAR ESMX 302150Z 26004KT CAVOK 17/15 Q1007=
201407302120 METAR COR ESMX 302120Z 25004KT CAVOK 17/16 Q1007=
201407302050 METAR ESMX 302050Z 23004KT CAVOK 17/16 Q1007=
201407302020 METAR ESMX 302020Z 22004KT CAVOK 17/16 Q1007=
201407301950 METAR ESMX 301950Z 21004KT CAVOK 18/16 Q1007 RERA=
201407301920 METAR ESMX 301920Z AUTO 20004KT 9999 FEW088/// SCT100/// 18/16 Q1007=
201407301850 METAR ESMX 301850Z AUTO 22003KT 9999 -DZ SCT089/// 19/16 Q1007=
201407301820 METAR ESMX 301820Z AUTO 25003KT 9999 FEW053/// BKN088/// 19/16 Q1007=
201407301750 METAR ESMX 301750Z AUTO VRB02KT 9999 BKN074/// BKN100/// 20/16 Q1007=
201407301720 METAR ESMX 301720Z AUTO VRB02KT 9999 FEW077/// 20/16 Q1007=
201407301650 METAR ESMX 301650Z AUTO 26003KT 9999 FEW097/// SCT110/// 20/16 Q1007=
201407301620 METAR ESMX 301620Z AUTO 26003KT 9999 FEW093/// 20/16 Q1007=
201407301550 METAR ESMX 301550Z AUTO 26003KT 9999 FEW095/// 20/16 Q1007=
201407301520 METAR ESMX 301520Z AUTO VRB02KT 9999 FEW089/// 20/16 Q1007=
201407301450 METAR ESMX 301450Z AUTO 27004KT 9999 FEW036/// 20/15 Q1007=
201407301420 METAR ESMX 301420Z AUTO 30005KT 9999 FEW086/// 20/15 Q1007=
201407301350 METAR ESMX 301350Z AUTO 31005KT 9999 -RA FEW089/// 19/16 Q1007=
201407301320 METAR ESMX 301320Z AUTO 29005KT 9999 -RA FEW023/// SCT036/// 20/17 Q1008=
201407301250 METAR ESMX 301250Z AUTO 29005KT 9999 -RA FEW029/// 20/17 Q1008=
201407301220 METAR ESMX 301220Z AUTO 30003KT 270V350 9999 -RA SCT027/// BKN075/// 21/16 Q1008=
201407301150 METAR ESMX 301150Z AUTO 32003KT 260V350 9999 FEW060/// 21/16 Q1008=
201407301120 METAR ESMX 301120Z AUTO 31005KT 9999 FEW035/// SCT083/// 21/16 Q1008=
201407301050 METAR ESMX 301050Z AUTO 32005KT 300V010 9999 FEW017/// 21/18 Q1008=
201407301020 METAR ESMX 301020Z AUTO 31005KT 250V350 9999 FEW008/// OVC010/// 21/18 Q1008=
201407300950 METAR ESMX 300950Z 27004KT 240V310 9999 BKN005 20/18 Q1008=
201407300920 METAR ESMX 300920Z VRB02KT 9999 SCT004 BKN030 19/18 Q1008=
201407300850 METAR ESMX 300850Z 28004KT 250V320 9000 BR SCT004 BKN035 19/18 Q1008 RERA=
201407300820 METAR ESMX 300820Z 27003KT 5000 SHRA FEW002 BKN040CB 19/18 Q1007=
201407300750 METAR ESMX 300750Z 31004KT 5000 SHRA FEW004 SCT040CB BKN059 19/18 Q1007=
201407300720 METAR COR ESMX 300720Z 20005KT 4000 SHRA FEW004 SCT045CB BKN060 19/18 Q1008=
201407300650 METAR ESMX 300650Z 19003KT 170V320 8000 -SHRA BKN004CB 19/18 Q1008=
201407300620 METAR ESMX 300620Z AUTO 31005KT 7000 BR SCT002/// BKN110/// 19/18 Q1007=
201407300550 METAR ESMX 300550Z AUTO 34005KT 6000 BR SCT002/// BKN004/// 19/18 Q1006=
201407300520 METAR ESMX 300520Z 36004KT 9000 BR FEW003 BKN080 19/18 Q1007=
201407300450 METAR ESMX 300450Z VRB02KT 5000 BR SCT003 BKN080 18/17 Q1007=
201407300420 METAR ESMX 300420Z VRB02KT 2500 BCFG FEW003 BKN080 18/17 Q1007=
201407300350 METAR ESMX 300350Z 01002KT 5000 BCFG SCT003 BKN080 17/17 Q1007=
201407300320 METAR ESMX 300320Z AUTO VRB01KT 2100 FEW002/// SCT092/// 17/16 Q1008=
201407300250 METAR ESMX 300250Z AUTO 00000KT 2800 FEW088/// SCT110/// 16/15 Q1007=
201407300220 METAR ESMX 300220Z AUTO 00000KT 6000 SCT084/// BKN110/// 15/15 Q1008=
201407300150 METAR ESMX 300150Z AUTO 00000KT 0900 R01/P2000N R19/P2000N BCFG BKN099/// 15/15 Q1008=
201407300120 METAR ESMX 300120Z AUTO 00000KT 8000 BCFG FEW100/// 15/14 Q1008=
201407300050 METAR ESMX 300050Z 00000KT 1100 R01/P2000N R19/P2000N BCFG FEW100 16/15 Q1008=
201407300020 METAR ESMX 300020Z 00000KT 9999 BCFG NSC 16/15 Q1008=
201407292350 METAR ESMX 292350Z 00000KT 9999 BCFG NSC 16/15 Q1008=
201407292320 METAR ESMX 292320Z 00000KT 9999 BCFG NSC 16/15 Q1008=
201407292251 METAR ESMX 292251Z 00000KT 9999 BCFG NSC 16/15 Q1008=
201407292221 METAR ESMX 292221Z 21001KT 7000 BCFG NSC 17/16 Q1009=
201407292153 METAR ESMX 292153Z 20001KT 8000 BCFG NSC 17/16 Q1009=
201407292150 METAR ESMX 292150Z AUTO 20002KT 7000 NCD 17/16 Q1009=
201407292120 METAR ESMX 292120Z 16002KT 2000 R01/P2000N R19/0600V1300N BCFG NSC 18/17 Q1009=
201407292050 METAR ESMX 292050Z 00000KT 7000 R01/P2000N R19/P2000N BCFG NSC 18/17 Q1009=
201407292020 METAR ESMX 292020Z VRB02KT 8000 BCFG NSC 19/17 Q1009=
201407291950 METAR ESMX 291950Z 00000KT 9999 BCFG NSC 19/18 Q1009=
201407291920 METAR ESMX 291920Z VRB02KT 9999 BCFG FEW100 20/18 Q1009=
201407291850 METAR ESMX 291850Z AUTO VRB02KT 9999 NCD 21/18 Q1009=
201407291820 METAR ESMX 291820Z AUTO VRB03KT 9999 NCD 22/19 Q1009=
201407291750 METAR ESMX 291750Z AUTO 15004KT 9999 FEW100/// 23/18 Q1009=
201407291720 METAR ESMX 291720Z AUTO 18008KT 9999 ////// 24/19 Q1009=
201407291650 METAR ESMX 291650Z 08005KT 030V150 CAVOK 24/19 Q1009=
201407291620 METAR ESMX 291620Z 11004KT 060V140 9999 VCSH FEW050CB 23/20 Q1009=
201407291550 METAR ESMX 291550Z VRB03KT 9999 VCSH FEW049CB BKN075 22/20 Q1010=
201407291520 METAR ESMX 291520Z 21003KT 5000 TSRA BKN050CB 21/19 Q1010=
201407291450 METAR ESMX 291450Z 08007KT 030V130 9999 -SHRA FEW049CB BKN061 24/18 Q1010=
201407291420 METAR ESMX 291420Z 30008KT 260V330 9999 -SHRA SCT049CB BKN062 25/16 Q1010=
201407291350 METAR ESMX 291350Z 01004KT 330V040 9999 FEW050TCU 28/17 Q1010=
201407291320 METAR ESMX 291320Z AUTO VRB02KT 9999 FEW051/// 28/15 Q1010=
201407291250 METAR ESMX 291250Z AUTO 24005KT 210V280 9999 FEW046/// SCT058/// 28/16 Q1010=
201407291220 METAR ESMX 291220Z AUTO 26003KT 230V350 9999 BKN046/// 27/15 Q1010=
201407291150 METAR ESMX 291150Z AUTO 25006KT 9999 FEW045/// SCT055/// 28/16 Q1010=
201407291120 METAR ESMX 291120Z AUTO 31002KT 9999 FEW044/// 27/17 Q1011=
201407291050 METAR ESMX 291050Z AUTO 30002KT 9999 NCD 27/17 Q1011=
201407291020 METAR ESMX 291020Z AUTO 01004KT 270V040 9999 NCD 27/17 Q1011=
201407290950 METAR ESMX 290950Z AUTO VRB03KT 120V350 9999 NCD 27/17 Q1011=
201407290920 METAR ESMX 290920Z AUTO 21002KT 9999 FEW054/// 26/18 Q1011=
201407290850 METAR ESMX 290850Z AUTO VRB03KT 9999 NCD 25/18 Q1012=
201407290820 METAR ESMX 290820Z AUTO 02004KT 340V060 9999 NCD 25/18 Q1012=
201407290750 METAR ESMX 290750Z AUTO VRB03KT 9999 NCD 24/18 Q1012=
201407290720 METAR ESMX 290720Z AUTO VRB03KT 9999 NCD 23/18 Q1012=
201407290650 METAR ESMX 290650Z AUTO 33003KT 9999 FEW060/// 22/17 Q1012=
201407290620 METAR ESMX 290620Z AUTO 35003KT 9999 NCD 21/17 Q1012=
201407290550 METAR ESMX 290550Z AUTO 35003KT 320V020 9999 NCD 21/17 Q1012=
201407290520 METAR ESMX 290520Z AUTO VRB03KT 9999 BKN062/// 19/17 Q1012=
201407290450 METAR ESMX 290450Z AUTO 00000KT 9999 FEW062/// 18/17 Q1012=
201407290420 METAR ESMX 290420Z AUTO VRB02KT 9000 BR NCD 16/15 Q1012=
201407290350 METAR ESMX 290350Z AUTO 00000KT 9999 FEW100/// 15/14 Q1012=
201407290320 METAR ESMX 290320Z AUTO 00000KT 5000 BR NCD 16/15 Q1012=
201407290250 METAR ESMX 290250Z AUTO 00000KT 9999 NCD 15/15 Q1012=
201407290220 METAR ESMX 290220Z AUTO VRB02KT 4600 BR NCD 16/15 Q1012=
201407290150 METAR ESMX 290150Z AUTO 00000KT 9999 NCD 15/14 Q1012=
201407290120 METAR ESMX 290120Z AUTO 00000KT 9999 NCD 16/15 Q1012=
201407290050 METAR ESMX 290050Z AUTO 32003KT 9999 NCD 16/15 Q1012=
201407290020 METAR ESMX 290020Z 30003KT CAVOK 17/16 Q1012=
201407282350 METAR ESMX 282350Z 28003KT CAVOK 17/16 Q1012=
201407282320 METAR ESMX 282320Z VRB01KT CAVOK 17/16 Q1013=
201407282250 METAR ESMX 282250Z VRB01KT CAVOK 18/16 Q1013=
201407282220 METAR ESMX 282220Z 00000KT CAVOK 17/16 Q1013=
201407282150 METAR ESMX 282150Z VRB01KT CAVOK 18/16 Q1013=
201407282120 METAR ESMX 282120Z VRB02KT CAVOK 19/16 Q1013=
201407282050 METAR ESMX 282050Z 29004KT CAVOK 19/16 Q1013=
201407282024 METAR ESMX 282024Z 29003KT CAVOK 19/16 Q1013=
201407282020 METAR ESMX 282020Z AUTO 29003KT 9999 NCD 19/16 Q1013=
201407281950 METAR ESMX 281950Z 27003KT CAVOK 20/17 Q1012=
201407281920 METAR ESMX 281920Z 29003KT CAVOK 22/17 Q1012=
201407281850 METAR ESMX 281850Z AUTO 28003KT 9999 NCD 23/18 Q1012=
201407281820 METAR ESMX 281820Z AUTO 26004KT 9999 FEW100/// 23/19 Q1012=
201407281750 METAR ESMX 281750Z AUTO 21002KT 9999 NCD 24/19 Q1012=
201407281720 METAR ESMX 281720Z AUTO 26002KT 9999 NCD 26/19 Q1012=
201407281650 METAR ESMX 281650Z AUTO VRB02KT 9999 NCD 27/18 Q1012=
201407281620 METAR ESMX 281620Z VRB03KT CAVOK 28/14 Q1012=
201407281550 METAR ESMX 281550Z 25003KT 160V330 CAVOK 28/14 Q1012=
201407281520 METAR ESMX 281520Z 34003KT 300V030 CAVOK 28/14 Q1012=
201407281450 METAR ESMX 281450Z 02005KT 350V050 CAVOK 29/14 Q1012=
201407281420 METAR ESMX 281420Z 30004KT 250V340 CAVOK 29/14 Q1012=
201407281350 METAR ESMX 281350Z 35005KT 320V030 CAVOK 28/14 Q1013=
201407281320 METAR ESMX 281320Z 34006KT 310V010 CAVOK 27/15 Q1013=
201407281250 METAR ESMX 281250Z 01006KT CAVOK 29/14 Q1013=
201407281220 METAR ESMX 281220Z AUTO 01005KT 340V050 9999 NCD 28/14 Q1013=
201407281150 METAR ESMX 281150Z AUTO 33004KT 260V050 9999 NCD 27/13 Q1014=
201407281120 METAR ESMX 281120Z AUTO 35003KT 9999 NCD 27/16 Q1014=
201407281050 METAR ESMX 281050Z 34005KT 310V010 CAVOK 26/16 Q1014=
201407281020 METAR ESMX 281020Z VRB02KT CAVOK 27/17 Q1014=
201407280950 METAR ESMX 280950Z 35003KT 290V020 CAVOK 26/16 Q1014=
201407280920 METAR ESMX 280920Z 33004KT 280V010 CAVOK 25/17 Q1014=
201407280850 METAR ESMX 280850Z 35004KT 310V040 CAVOK 25/17 Q1014=
201407280820 METAR ESMX 280820Z 06005KT 010V110 CAVOK 24/16 Q1014=
201407280750 METAR ESMX 280750Z 01004KT 340V050 CAVOK 23/17 Q1014=
201407280720 METAR ESMX 280720Z 36005KT CAVOK 22/17 Q1014=
201407280650 METAR ESMX 280650Z 04004KT 010V070 CAVOK 22/18 Q1014=
201407280620 METAR ESMX 280620Z AUTO 01004KT 9999 NCD 20/17 Q1014=
201407280550 METAR ESMX 280550Z AUTO 02003KT 330V050 9999 NCD 20/17 Q1014=
201407280520 METAR ESMX 280520Z AUTO 36004KT 9999 NCD 18/17 Q1014=
201407280450 METAR ESMX 280450Z 01003KT CAVOK 17/16 Q1014=
201407280420 METAR ESMX 280420Z 02002KT CAVOK 15/14 Q1014=
201407280350 METAR ESMX 280350Z 01003KT 9999 R01/P2000N R19/P2000N BCFG NSC 15/14 Q1014=
201407280320 METAR ESMX 280320Z AUTO 36003KT 0350 R01/P2000D R19/P2000N BCFG NCD 13/12 Q1014=
201407280250 METAR ESMX 280250Z AUTO 34003KT 0500 R01/P2000N R19/P2000D BCFG NCD 15/14 Q1014=
201407280220 METAR ESMX 280220Z AUTO 06002KT 0250 R01/P2000N R19/P2000N FG NCD 14/13 Q1014=
201407280150 METAR ESMX 280150Z AUTO 02002KT 0100 R01/0350V0500N R19/P2000N BCFG NCD 13/12 Q1014=
201407280120 METAR ESMX 280120Z AUTO 04002KT 0250 R01/P2000N R19/P2000N BR NCD 14/14 Q1014=
201407280050 METAR ESMX 280050Z AUTO VRB02KT 3400 NCD 13/13 Q1014=
201407280020 METAR ESMX 280020Z AUTO 00000KT 1800 BCFG NCD 14/13 Q1015=
201407272350 METAR ESMX 272350Z AUTO 36001KT 9999 NCD 15/14 Q1015=
201407272320 METAR ESMX 272320Z VRB02KT 8000 MIFG NSC 15/14 Q1015=
201407272250 METAR ESMX 272250Z 00000KT 7000 MIFG NSC 15/14 Q1015=
201407272220 METAR ESMX 272220Z 00000KT 9000 MIFG NSC 16/15 Q1015=
201407272151 METAR ESMX 272151Z 00000KT 9000 R01/P2000N R19/P2000N MIFG SCT090 16/15 Q1015=
201407272120 METAR COR ESMX 272120Z 00000KT 9000 BR SCT080 16/15 Q1015=
201407272050 METAR ESMX 272050Z AUTO VRB02KT 9999 NCD 17/16 Q1015=
201407272020 METAR ESMX 272020Z VRB01KT CAVOK 18/16 Q1015=
201407271950 METAR ESMX 271950Z VRB03KT CAVOK 19/17 Q1015=
201407271930 METAR ESMX 271930Z 07004KT CAVOK 20/17 Q1015=
201407271920 METAR ESMX 271920Z AUTO 07004KT 9999 NCD 20/17 Q1015=
201407271850 METAR ESMX 271850Z 05004KT CAVOK 20/17 Q1015=
201407271820 METAR ESMX 271820Z 02003KT 9999 FEW040 SCT100 20/17 Q1015=
201407271750 METAR ESMX 271750Z AUTO 02005KT 9999 ////// 21/16 Q1015=
201407271720 METAR ESMX 271720Z 36007KT 9999 FEW040 BKN100 21/16 Q1015=
201407271650 METAR ESMX 271650Z 35007KT 9999 FEW040 BKN100 21/16 Q1015=
201407271620 METAR COR ESMX 271620Z 33005KT 9999 FEW040 BKN080 22/16 Q1015=
201407271550 METAR COR ESMX 271550Z 28006KT 170V330 9999 FEW040 BKN080 23/16 Q1015=
201407271520 METAR ESMX 271520Z 17005KT 150V210 9999 FEW040 BKN100 25/16 Q1015=
201407271450 METAR COR ESMX 271450Z 15008KT 9999 FEW040 BKN100 25/16 Q1015=
201407271420 METAR ESMX 271420Z AUTO 16008KT 9999 ////// 26/16 Q1014=
201407271350 METAR ESMX 271350Z AUTO 12006KT 080V170 9999 ////// 25/17 Q1014=
201407271320 METAR ESMX 271320Z AUTO 12006KT 060V170 9999 ////// 25/17 Q1014=
201407271250 METAR ESMX 271250Z AUTO 12009KT 070V160 9999 ////// 25/17 Q1015=
201407271220 METAR ESMX 271220Z AUTO 12006KT 100V160 9999 ////// 26/17 Q1015=
201407271150 METAR ESMX 271150Z AUTO 14006KT 100V170 9999 ////// 27/18 Q1015=
201407271120 METAR ESMX 271120Z AUTO 17004KT 120V280 9999 ////// 25/17 Q1016=
201407271050 METAR ESMX 271050Z AUTO 15005KT 110V200 9999 ////// 26/18 Q1016=
201407271020 METAR ESMX 271020Z AUTO 14005KT 090V170 9999 ////// 25/17 Q1016=
201407270950 METAR ESMX 270950Z AUTO 09006KT 040V170 9999 ////// 25/18 Q1016=
201407270920 METAR ESMX 270920Z AUTO 12004KT 070V160 9999 ////// 25/17 Q1016=
201407270850 METAR ESMX 270850Z AUTO 14005KT 070V190 9999 ////// 23/17 Q1016=
201407270820 METAR ESMX 270820Z AUTO 13004KT 060V170 9999 ////// 23/17 Q1016=
201407270750 METAR ESMX 270750Z AUTO 13006KT 080V190 9999 ////// 23/17 Q1016=
201407270720 METAR ESMX 270720Z AUTO 13004KT 070V160 9999 ////// 22/17 Q1016=
201407270650 METAR ESMX 270650Z AUTO 10004KT 050V150 9999 ////// 22/17 Q1017=
201407270620 METAR ESMX 270620Z AUTO 12003KT 070V150 9999 ////// 21/17 Q1017=
201407270550 METAR ESMX 270550Z AUTO VRB03KT 9999 ////// 19/17 Q1017=
201407270520 METAR ESMX 270520Z AUTO VRB02KT 9999 ////// 19/18 Q1017=
201407270450 METAR ESMX 270450Z AUTO VRB02KT 4500 ////// 16/16 Q1017=
201407270420 METAR ESMX 270420Z AUTO 06002KT 0150 R01/P2000N R19/0300N BR ////// 16/15 Q1016=
201407270350 METAR ESMX 270350Z AUTO 06002KT 4900 BR ////// 16/15 Q1016=
201407270320 METAR ESMX 270320Z AUTO VRB02KT 4000 BR ////// 16/16 Q1016=
201407270250 METAR ESMX 270250Z AUTO 10003KT 6000 BR ////// 17/16 Q1017=
201407270220 METAR ESMX 270220Z AUTO 11003KT 9999 ////// 17/16 Q1017=
201407270150 METAR ESMX 270150Z AUTO 10004KT 9999 ////// 17/16 Q1017=
201407270120 METAR ESMX 270120Z AUTO 09003KT 9999 ////// 17/16 Q1017=
201407270050 METAR ESMX 270050Z AUTO 07003KT 4300 BR ////// 15/15 Q1017=
201407270020 METAR ESMX 270020Z AUTO VRB03KT 5000 ////// 15/14 Q1017=
201407262350 METAR ESMX 262350Z AUTO 11003KT 080V150 9999 ////// 16/15 Q1017=
201407262320 METAR ESMX 262320Z AUTO 07003KT 040V130 9999 ////// 17/16 Q1017=
201407262250 METAR ESMX 262250Z AUTO 06004KT 9999 ////// 17/15 Q1017=
201407262220 METAR ESMX 262220Z AUTO 08004KT 9999 ////// 17/16 Q1017=
201407262150 METAR ESMX 262150Z AUTO 07004KT 6000 ////// 17/16 Q1017=
201407262120 METAR ESMX 262120Z AUTO 06003KT 020V110 9999 ////// 17/16 Q1017=
201407262050 METAR ESMX 262050Z AUTO 08003KT 060V130 9999 ////// 17/16 Q1017=
201407262020 METAR ESMX 262020Z AUTO 07003KT 040V100 9999 ////// 17/16 Q1017=
201407261950 METAR ESMX 261950Z AUTO 09003KT 9999 ////// 17/16 Q1017=
201407261920 METAR ESMX 261920Z AUTO 07002KT 9999 ////// 17/16 Q1017=
201407261850 METAR ESMX 261850Z AUTO 04002KT 9999 ////// 18/16 Q1017=
201407261820 METAR ESMX 261820Z AUTO 04003KT 9999 ////// 18/17 Q1017=
201407261750 METAR ESMX 261750Z AUTO 03005KT 9999 ////// 19/17 Q1017=
201407261720 METAR ESMX 261720Z AUTO 04004KT 9999 ////// 19/17 Q1017=
201407261650 METAR ESMX 261650Z AUTO 02006KT 9999 ////// 18/17 Q1017=
201407261620 METAR ESMX 261620Z AUTO 02008KT 9999 ////// 19/17 Q1018=
201407261550 METAR ESMX 261550Z AUTO 01007KT 9999 ////// 19/17 Q1018=
201407261520 METAR ESMX 261520Z AUTO 01008KT 9999 ////// 19/17 Q1018=
201407261450 METAR ESMX 261450Z AUTO 01008KT 9999 ////// 19/17 Q1018=
201407261420 METAR ESMX 261420Z AUTO 02006KT 330V060 9999 -RA ////// 18/17 Q1018=
201407261350 METAR ESMX 261350Z AUTO 02004KT 330V100 9999 -RA ////// 17/16 Q1019=
201407261320 METAR ESMX 261320Z AUTO 32009KT 3100 -RA ////// 17/16 Q1019=
201407261250 METAR ESMX 261250Z AUTO 23008KT 200V260 9999 +RA ////// 18/16 Q1019=
201407261220 METAR ESMX 261220Z AUTO VRB03KT 210V120 1300 R01/P2000N R19/P2000N RA FEW002/// BKN052/// 18/17 Q1018=
201407261150 METAR ESMX 261150Z AUTO 36006G17KT 280V050 3100 +RA ////// 20/17 Q1018=
201407261120 METAR ESMX 261120Z AUTO 29009KT 9999 FEW011/// BKN053/// 22/15 Q1018=
201407261050 METAR ESMX 261050Z AUTO 30010KT 9999 BKN050/// BKN087/// 22/15 Q1018=
201407261020 METAR ESMX 261020Z AUTO VRB06G19KT 210V130 9999 FEW006/// 25/15 Q1018=
201407260950 METAR ESMX 260950Z AUTO 10006KT 060V140 9999 SCT055/// 26/13 Q1018=
201407260920 METAR ESMX 260920Z AUTO 05007KT 020V080 9999 NCD 27/14 Q1018=
201407260850 METAR ESMX 260850Z AUTO 06006KT 030V120 9999 NCD 27/14 Q1018=
201407260820 METAR ESMX 260820Z AUTO 05006KT 020V080 9999 NCD 26/15 Q1018=
201407260750 METAR ESMX 260750Z AUTO 05007KT 020V110 9999 NCD 26/16 Q1019=
201407260720 METAR ESMX 260720Z AUTO 05007KT 020V080 9999 NCD 24/16 Q1019=
201407260650 METAR ESMX 260650Z AUTO 04007KT 9999 NCD 23/16 Q1019=
201407260620 METAR ESMX 260620Z AUTO 04007KT 9999 NCD 22/16 Q1019=
201407260550 METAR ESMX 260550Z AUTO 04006KT 9999 NCD 21/16 Q1019=
201407260520 METAR ESMX 260520Z AUTO 03007KT 9999 NCD 20/16 Q1019=
201407260450 METAR ESMX 260450Z AUTO 03007KT 9999 NCD 19/16 Q1019=
201407260420 METAR ESMX 260420Z AUTO 02007KT 9999 NCD 18/16 Q1019=
201407260350 METAR ESMX 260350Z AUTO 02005KT 9999 NCD 18/16 Q1019=
201407260320 METAR ESMX 260320Z AUTO 03005KT 9999 NCD 17/16 Q1019=
201407260250 METAR ESMX 260250Z AUTO 02005KT 9999 NCD 17/15 Q1019=
201407260220 METAR ESMX 260220Z AUTO 03004KT 9999 NCD 17/15 Q1019=
201407260150 METAR ESMX 260150Z AUTO 03005KT 9999 NCD 17/15 Q1019=
201407260120 METAR ESMX 260120Z AUTO 04005KT 9999 NCD 18/15 Q1019=
201407260050 METAR ESMX 260050Z AUTO 03004KT 9999 NCD 17/15 Q1020=
201407260020 METAR ESMX 260020Z AUTO 01003KT 9999 NCD 17/15 Q1020=
201407252350 METAR ESMX 252350Z AUTO 06004KT 9999 NCD 18/15 Q1020=
201407252320 METAR ESMX 252320Z AUTO 04003KT 320V090 9999 NCD 19/15 Q1020=
201407252250 METAR ESMX 252250Z AUTO 07004KT 9999 NCD 20/15 Q1020=
201407252220 METAR ESMX 252220Z AUTO 07004KT 9999 NCD 19/14 Q1020=
201407252150 METAR ESMX 252150Z AUTO 05003KT 9999 NCD 20/14 Q1020=
201407252120 METAR ESMX 252120Z AUTO 06004KT 9999 NCD 19/14 Q1020=
201407252050 METAR ESMX 252050Z AUTO 05003KT 9999 NCD 19/14 Q1020=
201407252020 METAR ESMX 252020Z 05003KT CAVOK 21/14 Q1020=
201407251950 METAR ESMX 251950Z 07003KT CAVOK 21/14 Q1020=
201407251920 METAR ESMX 251920Z 09003KT 060V130 CAVOK 23/14 Q1020=
201407251850 METAR ESMX 251850Z VRB02KT CAVOK 25/13 Q1020=
201407251820 METAR ESMX 251820Z 11004KT 070V160 CAVOK 26/12 Q1019=
201407251750 METAR ESMX 251750Z AUTO 10005KT 060V150 9999 NCD 27/12 Q1019=
201407251724 METAR ESMX 251724Z 11005KT 050V180 CAVOK 27/11 Q1019=
201407251720 METAR ESMX 251720Z AUTO 11006KT 060V150 9999 NCD 27/11 Q1019=
201407251650 METAR ESMX 251650Z 10006KT 070V160 CAVOK 28/11 Q1019=
201407251620 METAR ESMX 251620Z AUTO 10006KT 050V150 9999 FEW076/// 28/11 Q1019=
201407251550 METAR ESMX 251550Z AUTO 09007KT 050V120 9999 FEW070/// 28/11 Q1019=
201407251520 METAR ESMX 251520Z 09008KT 050V140 CAVOK 29/11 Q1019=
201407251450 METAR ESMX 251450Z AUTO 08007KT 030V140 9999 FEW072/// 28/11 Q1020=
201407251420 METAR ESMX 251420Z AUTO VRB07KT 020V240 9999 FEW072/// SCT083/// 29/10 Q1020=
201407251350 METAR ESMX 251350Z AUTO 05007KT 020V100 9999 NCD 29/11 Q1020=
201407251320 METAR ESMX 251320Z AUTO 10006KT 060V230 9999 FEW069/// 29/10 Q1020=
201407251250 METAR ESMX 251250Z AUTO 07007KT 030V110 9999 FEW068/// 29/12 Q1020=
201407251220 METAR ESMX 251220Z AUTO 08007KT 030V140 9999 SCT066/// 29/11 Q1020=
201407251150 METAR ESMX 251150Z AUTO VRB07KT 040V250 9999 FEW054/// 28/12 Q1021=
201407251120 METAR ESMX 251120Z AUTO 07007KT 030V110 9999 FEW066/// 28/12 Q1021=
201407251050 METAR ESMX 251050Z AUTO 07006KT 020V120 9999 FEW063/// 28/12 Q1021=
201407251020 METAR ESMX 251020Z AUTO 07008KT 020V110 9999 NCD 27/11 Q1021=
201407250950 METAR ESMX 250950Z 05008KT 020V100 CAVOK 28/12 Q1021=
201407250920 METAR ESMX 250920Z 05008KT CAVOK 27/11 Q1021=
201407250850 METAR ESMX 250850Z 04009KT CAVOK 27/11 Q1022=
201407250820 METAR ESMX 250820Z 04008KT CAVOK 26/11 Q1022=
201407250750 METAR ESMX 250750Z 04006KT CAVOK 25/12 Q1022=
201407250720 METAR ESMX 250720Z 04007KT CAVOK 24/13 Q1021=
201407250650 METAR ESMX 250650Z 04006KT CAVOK 23/12 Q1022=
201407250620 METAR ESMX 250620Z AUTO 03007KT 9999 NCD 22/13 Q1022=
201407250550 METAR ESMX 250550Z AUTO 04004KT 360V080 9999 NCD 21/13 Q1022=
201407250520 METAR ESMX 250520Z AUTO 01005KT 9999 NCD 20/13 Q1021=
201407250450 METAR ESMX 250450Z AUTO 02005KT 9999 NCD 19/13 Q1021=
201407250420 METAR ESMX 250420Z AUTO 01006KT 9999 NCD 17/14 Q1021=
201407250350 METAR ESMX 250350Z AUTO 01006KT 9999 NCD 16/14 Q1021=
201407250320 METAR ESMX 250320Z AUTO 02004KT 9999 NCD 16/14 Q1021=
201407250250 METAR ESMX 250250Z AUTO 03002KT 9999 NCD 12/11 Q1021=
201407250220 METAR ESMX 250220Z AUTO 03002KT 9999 NCD 12/11 Q1021=
201407250150 METAR ESMX 250150Z AUTO 02003KT 9999 NCD 12/10 Q1021=
201407250120 METAR ESMX 250120Z AUTO 02003KT 9999 NCD 12/10 Q1021=
201407250050 METAR ESMX 250050Z AUTO 36002KT 9999 NCD 13/11 Q1021=
201407250020 METAR ESMX 250020Z AUTO VRB01KT 9999 NCD 14/12 Q1021=
201407242350 METAR ESMX 242350Z VRB02KT CAVOK 14/12 Q1022=
201407242320 METAR ESMX 242320Z 00000KT CAVOK 14/12 Q1022=
201407242250 METAR ESMX 242250Z VRB01KT CAVOK 15/12 Q1022=
201407242220 METAR ESMX 242220Z 06003KT CAVOK 18/13 Q1022=
201407242150 METAR ESMX 242150Z 07004KT 040V110 CAVOK 18/13 Q1022=
201407242120 METAR ESMX 242120Z 08003KT 050V110 CAVOK 19/13 Q1022=
201407242050 METAR ESMX 242050Z VRB03KT CAVOK 19/13 Q1022=
201407242020 METAR COR ESMX 242020Z 07003KT CAVOK 19/13 Q1022=
201407241950 METAR ESMX 241950Z 06003KT CAVOK 21/13 Q1021=
201407241920 METAR ESMX 241920Z 07003KT 040V100 CAVOK 22/13 Q1021=
201407241850 METAR ESMX 241850Z 08005KT 050V110 CAVOK 24/12 Q1021=
201407241820 METAR ESMX 241820Z 08004KT 020V110 CAVOK 25/11 Q1021=
201407241750 METAR ESMX 241750Z 08005KT 040V140 CAVOK 26/11 Q1021=
201407241720 METAR ESMX 241720Z 07004KT 340V110 CAVOK 27/12 Q1021=
201407241650 METAR ESMX 241650Z 08005KT 050V160 CAVOK 27/12 Q1021=
201407241620 METAR ESMX 241620Z 09005KT 020V140 CAVOK 27/11 Q1021=
201407241550 METAR ESMX 241550Z 09005KT 050V140 CAVOK 27/11 Q1021=
201407241520 METAR ESMX 241520Z 08004KT 030V140 CAVOK 27/11 Q1021=
201407241450 METAR ESMX 241450Z 12005KT 070V180 CAVOK 28/11 Q1021=
201407241420 METAR ESMX 241420Z 15006KT 110V190 CAVOK 28/10 Q1021=
201407241350 METAR ESMX 241350Z 11006KT 070V170 CAVOK 27/09 Q1022=
201407241320 METAR ESMX 241320Z 12005KT 070V210 9999 FEW028 SCT071 28/10 Q1022=
201407241250 METAR ESMX 241250Z 10006KT 020V140 9999 FEW025 SCT078 27/10 Q1022=
201407241220 METAR ESMX 241220Z 12006KT 070V160 9999 SCT025 28/09 Q1022=
201407241150 METAR ESMX 241150Z AUTO 11006KT 060V170 9999 FEW032/// 28/09 Q1022=
201407241050 METAR ESMX 241050Z AUTO 10007KT 030V140 9999 FEW055/// 26/10 Q1022=
201407241020 METAR ESMX 241020Z AUTO 05009KT 020V110 9999 NCD 27/10 Q1022=
201407240950 METAR ESMX 240950Z AUTO 07007KT 020V120 9999 NCD 27/10 Q1022=
201407240920 METAR ESMX 240920Z AUTO 06008KT 030V110 9999 FEW054/// 26/11 Q1022=
201407240850 METAR ESMX 240850Z AUTO 07009KT 030V140 9999 NCD 26/12 Q1022=
201407240820 METAR ESMX 240820Z AUTO 04008KT 010V080 9999 NCD 25/13 Q1022=
201407240750 METAR ESMX 240750Z AUTO 05007KT 010V110 9999 NCD 25/13 Q1022=
201407240720 METAR ESMX 240720Z AUTO 04006KT 020V080 9999 NCD 23/14 Q1023=
201407240650 METAR ESMX 240650Z AUTO 03008KT 9999 NCD 22/14 Q1023=
201407240620 METAR ESMX 240620Z AUTO 04007KT 9999 NCD 21/13 Q1022=
201407240550 METAR ESMX 240550Z AUTO 04006KT 9999 NCD 20/13 Q1023=
201407240520 METAR ESMX 240520Z 03005KT CAVOK 19/12 Q1023=
201407240450 METAR ESMX 240450Z 02005KT CAVOK 17/12 Q1023=
201407240420 METAR ESMX 240420Z VRB02KT CAVOK 14/12 Q1022=
201407240350 METAR ESMX 240350Z 35003KT CAVOK 12/10 Q1023=
201407240320 METAR ESMX 240320Z AUTO 02003KT 9999 NCD 12/11 Q1022=
201407240250 METAR ESMX 240250Z AUTO 02002KT 9999 NCD 13/11 Q1022=
201407240220 METAR ESMX 240220Z 03003KT CAVOK 13/12 Q1022=
201407240150 METAR ESMX 240150Z AUTO 01003KT 9999 NCD 13/12 Q1022=
201407240120 METAR ESMX 240120Z AUTO 02004KT 9999 NCD 13/12 Q1023=
201407240050 METAR ESMX 240050Z AUTO 02002KT 9999 NCD 13/11 Q1023=
201407240020 METAR ESMX 240020Z 36002KT CAVOK 13/12 Q1023=
201407232350 METAR ESMX 232350Z 01003KT CAVOK 13/12 Q1023=
201407232320 METAR ESMX 232320Z 36003KT CAVOK 14/12 Q1023=
201407232250 METAR ESMX 232250Z 01002KT CAVOK 13/11 Q1023=
201407232220 METAR ESMX 232220Z 01003KT CAVOK 14/11 Q1023=
201407232150 METAR ESMX 232150Z 01001KT CAVOK 14/11 Q1024=
201407232120 METAR COR ESMX 232120Z 06001KT CAVOK 15/11 Q1023=
201407232050 METAR ESMX 232050Z VRB02KT CAVOK 17/12 Q1024=
201407232020 METAR ESMX 232020Z 05003KT CAVOK 19/12 Q1024=
201407231950 METAR ESMX 231950Z VRB02KT CAVOK 20/11 Q1023=
201407231920 METAR ESMX 231920Z 07003KT CAVOK 21/13 Q1023=
201407231850 METAR ESMX 231850Z AUTO 07004KT 050V110 9999 NCD 23/12 Q1023=
201407231820 METAR ESMX 231820Z AUTO 07004KT 040V110 9999 NCD 24/10 Q1023=
201407231750 METAR ESMX 231750Z AUTO 08005KT 030V120 9999 NCD 25/11 Q1023=
201407231720 METAR ESMX 231720Z AUTO 05007KT 020V100 9999 NCD 26/10 Q1023=
201407231650 METAR ESMX 231650Z AUTO 04006KT 010V100 9999 NCD 26/10 Q1023=
201407231620 METAR ESMX 231620Z AUTO 05009KT 020V080 9999 FEW068/// 26/10 Q1023=
201407231550 METAR ESMX 231550Z AUTO 05006KT 020V110 9999 FEW064/// 27/10 Q1023=
201407231520 METAR ESMX 231520Z AUTO 03005KT 350V070 9999 FEW064/// 27/11 Q1023=
201407231450 METAR ESMX 231450Z AUTO 05007KT 010V090 9999 FEW063/// 27/10 Q1023=
201407231420 METAR ESMX 231420Z AUTO 06006KT 020V100 9999 FEW062/// 26/12 Q1024=
201407231350 METAR ESMX 231350Z AUTO 06005KT 020V100 9999 FEW067/// 25/11 Q1024=
201407231320 METAR ESMX 231320Z AUTO 04007KT 010V080 9999 FEW054/// SCT089/// 27/10 Q1024=
201407231250 METAR ESMX 231250Z AUTO 06006KT 010V120 9999 FEW060/// 27/10 Q1024=
201407231220 METAR ESMX 231220Z AUTO 06007KT 020V090 9999 FEW073/// 27/10 Q1024=
201407231150 METAR ESMX 231150Z AUTO 06007KT 010V100 9999 FEW061/// 25/12 Q1025=
201407231120 METAR ESMX 231120Z 07009KT 030V110 CAVOK 26/10 Q1025=
201407231050 METAR ESMX 231050Z 05007KT 340V080 CAVOK 25/10 Q1025=
201407231020 METAR ESMX 231020Z 04010KT 010V070 CAVOK 25/10 Q1025=
201407230950 METAR ESMX 230950Z 05009KT 360V100 CAVOK 25/10 Q1025=
201407230920 METAR COR ESMX 230920Z 04010KT CAVOK 25/11 Q1025=
201407230850 METAR ESMX 230850Z 05009KT 020V080 CAVOK 24/10 Q1025=
201407230820 METAR ESMX 230820Z 04008KT 010V100 CAVOK 23/11 Q1026=
201407230750 METAR ESMX 230750Z 02008KT CAVOK 22/11 Q1026=
201407230720 METAR ESMX 230720Z 01007KT CAVOK 22/12 Q1026=
201407230650 METAR ESMX 230650Z 04006KT 010V070 CAVOK 21/12 Q1026=
201407230620 METAR ESMX 230620Z AUTO 01006KT 9999 NCD 20/12 Q1026=
201407230550 METAR ESMX 230550Z AUTO 02005KT 9999 NCD 19/12 Q1026=
201407230520 METAR ESMX 230520Z 01005KT CAVOK 18/13 Q1026=
201407230450 METAR ESMX 230450Z 36004KT CAVOK 16/13 Q1026=
201407230420 METAR ESMX 230420Z 02003KT CAVOK 13/12 Q1026=
201407230350 METAR ESMX 230350Z 01003KT CAVOK 13/12 Q1026=
201407230320 METAR ESMX 230320Z VRB02KT CAVOK 11/10 Q1026=
201407230250 METAR ESMX 230250Z 04003KT CAVOK 11/10 Q1025=
201407230220 METAR ESMX 230220Z AUTO 04002KT 9999 NCD 10/09 Q1025=
201407230150 METAR ESMX 230150Z AUTO 03003KT 9999 NCD 11/10 Q1026=
201407230120 METAR ESMX 230120Z AUTO 04002KT 9999 NCD 13/11 Q1025=
201407230050 METAR ESMX 230050Z 03003KT CAVOK 12/10 Q1026=
201407230020 METAR ESMX 230020Z 02003KT CAVOK 13/11 Q1026=
201407222350 METAR ESMX 222350Z 00000KT CAVOK 13/10 Q1026=
201407222320 METAR ESMX 222320Z 06003KT CAVOK 16/11 Q1025=
201407222250 METAR ESMX 222250Z 04004KT CAVOK 17/11 Q1025=
201407222220 METAR ESMX 222220Z 04004KT CAVOK 17/11 Q1025=
201407222150 METAR ESMX 222150Z 05003KT CAVOK 14/12 Q1025=
201407222120 METAR ESMX 222120Z VRB02KT CAVOK 15/12 Q1025=
201407222050 METAR ESMX 222050Z 06003KT 030V100 CAVOK 18/12 Q1025=
201407222020 METAR ESMX 222020Z 06003KT CAVOK 19/12 Q1025=
201407221950 METAR ESMX 221950Z 08003KT CAVOK 21/12 Q1024=
201407221920 METAR ESMX 221920Z 05004KT 020V100 CAVOK 22/12 Q1024=
201407221850 METAR ESMX 221850Z AUTO 08004KT 030V110 9999 NCD 23/11 Q1024=
201407221820 METAR ESMX 221820Z AUTO 06005KT 030V110 9999 NCD 24/11 Q1023=
201407221750 METAR ESMX 221750Z AUTO 05008KT 020V100 9999 NCD 25/10 Q1023=
201407221720 METAR ESMX 221720Z AUTO 06007KT 020V110 9999 NCD 26/10 Q1023=
201407221650 METAR ESMX 221650Z 05007KT 020V100 CAVOK 26/10 Q1023=
201407221620 METAR ESMX 221620Z 04007KT CAVOK 27/10 Q1023=
201407221550 METAR ESMX 221550Z 04005KT 350V100 CAVOK 27/09 Q1023=
201407221520 METAR ESMX 221520Z 04007KT 360V060 CAVOK 27/09 Q1023=
201407221450 METAR ESMX 221450Z 06008KT 020V090 CAVOK 27/10 Q1023=
201407221420 METAR ESMX 221420Z 05008KT 020V080 CAVOK 27/09 Q1023=
201407221350 METAR ESMX 221350Z 05008KT 020V110 CAVOK 27/10 Q1023=
201407221320 METAR ESMX 221320Z AUTO 07007KT 020V140 9999 FEW070/// 26/09 Q1023=
201407221250 METAR ESMX 221250Z AUTO 05009KT 020V090 9999 FEW073/// 26/09 Q1023=
201407221220 METAR ESMX 221220Z AUTO 07008KT 030V120 9999 NCD 27/10 Q1023=
201407221150 METAR ESMX 221150Z AUTO 04010KT 020V090 9999 FEW063/// 27/10 Q1023=
201407221120 METAR ESMX 221120Z AUTO 05009KT 020V100 9999 NCD 26/10 Q1023=
201407221050 METAR ESMX 221050Z AUTO 06008KT 010V120 9999 FEW062/// 26/10 Q1023=
201407221020 METAR ESMX 221020Z AUTO 05010KT 020V100 9999 NCD 26/09 Q1023=
201407220950 METAR ESMX 220950Z AUTO 04012KT 9999 NCD 26/10 Q1024=
201407220920 METAR ESMX 220920Z AUTO 04011KT 010V070 9999 NCD 25/09 Q1023=
201407220850 METAR ESMX 220850Z AUTO 04009KT 010V070 9999 NCD 25/10 Q1023=
201407220820 METAR ESMX 220820Z AUTO 03010KT 010V070 9999 NCD 24/10 Q1023=
201407220750 METAR ESMX 220750Z AUTO 04010KT 9999 NCD 23/11 Q1023=
201407220720 METAR ESMX 220720Z AUTO 02008KT 350V070 9999 NCD 23/12 Q1023=
201407220650 METAR ESMX 220650Z AUTO 03008KT 010V070 9999 NCD 22/12 Q1023=
201407220620 METAR ESMX 220620Z AUTO 03007KT 9999 NCD 21/13 Q1023=
201407220550 METAR ESMX 220550Z AUTO 03007KT 9999 NCD 20/13 Q1023=
201407220520 METAR ESMX 220520Z AUTO 02007KT 9999 NCD 19/12 Q1023=
201407220450 METAR ESMX 220450Z AUTO 01005KT 9999 NCD 17/13 Q1022=
201407220420 METAR ESMX 220420Z AUTO 01006KT 9999 NCD 15/13 Q1022=
201407220350 METAR ESMX 220350Z AUTO 34003KT 9999 NCD 13/12 Q1022=
201407220320 METAR ESMX 220320Z AUTO 33003KT 9999 NCD 13/12 Q1022=
201407220250 METAR ESMX 220250Z AUTO 33004KT 9999 NCD 12/11 Q1022=
201407220220 METAR ESMX 220220Z AUTO 02004KT 9999 NCD 14/12 Q1021=
201407220150 METAR ESMX 220150Z AUTO 01005KT 9999 NCD 15/12 Q1021=
201407220120 METAR ESMX 220120Z AUTO 01006KT 9999 NCD 13/11 Q1021=
201407220050 METAR ESMX 220050Z AUTO 01005KT 9999 NCD 13/11 Q1021=
201407220020 METAR ESMX 220020Z AUTO 02003KT 9999 NCD 12/11 Q1021=
201407212350 METAR ESMX 212350Z 02002KT CAVOK 13/12 Q1021=
201407212320 METAR ESMX 212320Z 36002KT CAVOK 14/12 Q1021=
201407212250 METAR ESMX 212250Z 02004KT CAVOK 16/12 Q1021=
201407212220 METAR ESMX 212220Z 04003KT CAVOK 17/12 Q1021=
201407212150 METAR ESMX 212150Z 05003KT 360V070 CAVOK 18/12 Q1021=
201407212120 METAR ESMX 212120Z 06004KT 030V100 CAVOK 19/12 Q1021=
201407212050 METAR ESMX 212050Z 04004KT 360V070 CAVOK 19/12 Q1021=
201407212020 METAR ESMX 212020Z 06003KT CAVOK 19/12 Q1020=
201407211950 METAR ESMX 211950Z 06004KT CAVOK 20/12 Q1020=
201407211920 METAR ESMX 211920Z 03004KT 010V070 CAVOK 21/12 Q1020=
201407211850 METAR ESMX 211850Z AUTO 06005KT 020V100 9999 NCD 23/11 Q1020=
201407211820 METAR ESMX 211820Z AUTO 07005KT 040V100 9999 NCD 23/12 Q1019=
201407211750 METAR ESMX 211750Z AUTO 07005KT 030V120 9999 NCD 24/12 Q1019=
201407211720 METAR ESMX 211720Z AUTO 06006KT 020V110 9999 FEW055/// 25/12 Q1019=
201407211650 METAR ESMX 211650Z AUTO 07008KT 030V110 9999 FEW056/// 25/11 Q1019=
201407211620 METAR ESMX 211620Z 04010KT 010V080 CAVOK 26/10 Q1019=
201407211550 METAR ESMX 211550Z 06007KT 020V100 CAVOK 26/11 Q1019=
201407211520 METAR ESMX 211520Z 05008KT 020V110 CAVOK 26/10 Q1018=
201407211450 METAR ESMX 211450Z 06008KT 030V110 CAVOK 26/11 Q1018=
201407211420 METAR ESMX 211420Z 05008KT 010V090 CAVOK 26/11 Q1018=
201407211350 METAR ESMX 211350Z 05009KT 020V090 CAVOK 25/12 Q1018=
201407211320 METAR ESMX 211320Z 05009KT 020V100 CAVOK 26/12 Q1018=
201407211250 METAR ESMX 211250Z 06010KT 020V100 CAVOK 27/12 Q1018=
201407211220 METAR ESMX 211220Z 06007KT 020V100 9999 FEW045 26/12 Q1018=
201407211150 METAR ESMX 211150Z AUTO 05010KT 020V080 9999 FEW047/// 25/13 Q1018=
201407211120 METAR ESMX 211120Z AUTO 04010KT 020V080 9999 FEW042/// SCT047/// 25/14 Q1018=
201407211050 METAR ESMX 211050Z AUTO 05010KT 9999 BKN038/// 25/14 Q1018=
201407211020 METAR ESMX 211020Z 03010KT 9999 FEW035 24/14 Q1018=
201407210950 METAR ESMX 210950Z 02010KT 9999 SCT031 23/15 Q1018=
201407210920 METAR ESMX 210920Z 02010KT 9999 SCT026 22/15 Q1019=
201407210850 METAR ESMX 210850Z 03010KT 350V060 9999 SCT024 22/16 Q1019=
201407210820 METAR ESMX 210820Z 02010KT 350V060 9999 FEW024 21/15 Q1019=
201407210750 METAR ESMX 210750Z 02009KT 350V050 9999 SCT016 20/15 Q1018=
201407210720 METAR ESMX 210720Z 03009KT 350V070 9999 FEW009 SCT013 19/15 Q1018=
201407210650 METAR ESMX 210650Z 03009KT 010V070 9999 FEW007 BKN008 18/15 Q1018=
201407210620 METAR ESMX 210620Z AUTO 04011KT 9999 SCT008/// BKN011/// 17/14 Q1018=
201407210550 METAR ESMX 210550Z AUTO 04009KT 020V080 9999 FEW011/// 18/14 Q1018=
201407210520 METAR ESMX 210520Z AUTO 05008KT 9999 NCD 17/14 Q1018=
201407210450 METAR ESMX 210450Z 04008KT 9999 SCT007 16/14 Q1018=
201407210420 METAR ESMX 210420Z 04007KT 020V080 9999 FEW006 BKN008 15/13 Q1018=
201407210350 METAR ESMX 210350Z 05009KT 9999 BKN006 15/13 Q1018=
201407210320 METAR ESMX 210320Z AUTO 04005KT 020V080 9999 FEW009/// 15/13 Q1018=
201407210250 METAR ESMX 210250Z AUTO VRB03KT 9999 NCD 14/12 Q1018=
201407210220 METAR ESMX 210220Z AUTO VRB02KT 9999 NCD 14/12 Q1018=
201407210150 METAR ESMX 210150Z AUTO 03006KT 9999 NCD 15/12 Q1018=
201407210120 METAR ESMX 210120Z AUTO 03004KT 9999 NCD 15/13 Q1018=
201407210050 METAR ESMX 210050Z AUTO 03003KT 9999 NCD 13/12 Q1018=
201407210020 METAR ESMX 210020Z AUTO 02003KT 9999 NCD 13/12 Q1018=
201407202350 METAR ESMX 202350Z AUTO 02003KT 9999 NCD 13/11 Q1018=
201407202320 METAR ESMX 202320Z 01002KT CAVOK 14/12 Q1018=
201407202250 METAR ESMX 202250Z 03003KT CAVOK 15/13 Q1018=
201407202224 METAR ESMX 202224Z 05003KT 360V090 9999 NSC 16/13 Q1018=
201407202220 METAR ESMX 202220Z AUTO 06004KT 030V100 9999 NCD 16/13 Q1018=
201407202150 METAR ESMX 202150Z 05004KT CAVOK 17/13 Q1018=
201407202120 METAR ESMX 202120Z 06003KT CAVOK 17/13 Q1018=
201407202050 METAR ESMX 202050Z 08003KT 050V120 CAVOK 18/14 Q1018=
201407202020 METAR ESMX 202020Z 08004KT 030V130 CAVOK 18/14 Q1018=
201407201950 METAR ESMX 201950Z 07005KT 040V120 CAVOK 20/14 Q1018=
201407201920 METAR ESMX 201920Z 06005KT 360V100 CAVOK 21/13 Q1017=
201407201850 METAR ESMX 201850Z 07006KT 030V100 CAVOK 22/12 Q1017=
201407201820 METAR ESMX 201820Z 07007KT 030V110 CAVOK 23/12 Q1017=
201407201750 METAR ESMX 201750Z AUTO 08006KT 030V150 9999 NCD 23/11 Q1017=
201407201720 METAR ESMX 201720Z AUTO 07008KT 040V120 9999 NCD 24/12 Q1017=
201407201650 METAR ESMX 201650Z 05009KT CAVOK 25/12 Q1017=
201407201620 METAR ESMX 201620Z 05009KT 020V090 CAVOK 25/12 Q1017=
201407201550 METAR ESMX 201550Z 05010KT 020V080 CAVOK 25/12 Q1017=
201407201520 METAR ESMX 201520Z 05009KT 360V080 CAVOK 25/12 Q1016=
201407201450 METAR ESMX 201450Z 05009KT 020V090 CAVOK 26/12 Q1017=
201407201420 METAR ESMX 201420Z AUTO 04010KT 9999 FEW058/// 25/11 Q1016=
201407201350 METAR ESMX 201350Z AUTO 03009KT 350V060 9999 NCD 26/10 Q1017=
201407201320 METAR ESMX 201320Z AUTO 05007KT 010V110 9999 NCD 26/11 Q1017=
201407201250 METAR ESMX 201250Z AUTO 04008KT 020V080 9999 FEW050/// 26/12 Q1017=
201407201220 METAR ESMX 201220Z AUTO 04008KT 010V100 9999 NCD 25/13 Q1017=
201407201150 METAR ESMX 201150Z AUTO 06007KT 010V100 9999 FEW077/// 25/13 Q1017=
201407201120 METAR ESMX 201120Z AUTO 04010KT 9999 FEW082/// 23/13 Q1017=
201407201050 METAR ESMX 201050Z AUTO 04009KT 020V080 9999 FEW041/// 23/13 Q1017=
201407201020 METAR ESMX 201020Z AUTO 05007KT 350V100 9999 FEW045/// 25/13 Q1017=
201407200950 METAR ESMX 200950Z AUTO 07007KT 030V110 9999 FEW044/// 24/13 Q1017=
201407200920 METAR ESMX 200920Z AUTO 04007KT 360V100 9999 FEW047/// 24/12 Q1018=
201407200850 METAR ESMX 200850Z AUTO 05007KT 010V100 9999 NCD 24/12 Q1018=
201407200820 METAR ESMX 200820Z AUTO 07006KT 040V120 9999 NCD 23/13 Q1018=
201407200750 METAR ESMX 200750Z AUTO 06006KT 010V110 9999 NCD 22/13 Q1018=
201407200720 METAR ESMX 200720Z AUTO 06007KT 030V110 9999 NCD 21/14 Q1018=
201407200650 METAR ESMX 200650Z AUTO 03007KT 9999 NCD 20/15 Q1018=
201407200620 METAR ESMX 200620Z AUTO 04007KT 9999 NCD 19/15 Q1018=
201407200550 METAR ESMX 200550Z AUTO 02007KT 9999 NCD 19/14 Q1018=
201407200520 METAR ESMX 200520Z AUTO 04004KT 360V070 9999 NCD 18/14 Q1018=
201407200450 METAR ESMX 200450Z AUTO 01003KT 9999 NCD 17/14 Q1018=
201407200420 METAR ESMX 200420Z AUTO 02002KT 9999 NCD 14/13 Q1018=
201407200350 METAR ESMX 200350Z AUTO 01003KT 9999 NCD 12/12 Q1018=
201407200320 METAR ESMX 200320Z AUTO 00000KT 9999 NCD 11/10 Q1018=
201407200250 METAR ESMX 200250Z AUTO VRB03KT 9999 NCD 12/12 Q1018=
201407200220 METAR ESMX 200220Z AUTO 14003KT 9999 FEW074/// 11/10 Q1018=
201407200150 METAR ESMX 200150Z AUTO 00000KT 9999 FEW074/// 11/10 Q1018=
201407200120 METAR ESMX 200120Z AUTO 06002KT 9999 NCD 11/10 Q1018=
201407200050 METAR ESMX 200050Z AUTO VRB02KT 9999 NCD 13/12 Q1018=
201407200020 METAR ESMX 200020Z AUTO 08003KT 9999 NCD 14/12 Q1018=
201407192350 METAR ESMX 192350Z AUTO VRB02KT 9999 NCD 12/11 Q1018=
201407192320 METAR ESMX 192320Z AUTO 02002KT 9999 NCD 12/10 Q1018=
201407192250 METAR ESMX 192250Z AUTO VRB02KT 9999 NCD 13/11 Q1018=
201407192220 METAR ESMX 192220Z AUTO 02003KT 9999 NCD 13/10 Q1018=
201407192150 METAR ESMX 192150Z AUTO VRB02KT 9999 NCD 14/11 Q1018=
201407192120 METAR ESMX 192120Z AUTO 03001KT 9999 NCD 14/11 Q1018=
201407192050 METAR ESMX 192050Z AUTO VRB02KT 9999 NCD 16/11 Q1018=
201407192020 METAR ESMX 192020Z AUTO 24003KT 9999 NCD 16/09 Q1018=
201407191950 METAR ESMX 191950Z AUTO 17003KT 9999 NCD 17/10 Q1018=
201407191920 METAR ESMX 191920Z AUTO 24003KT 9999 NCD 20/11 Q1018=
201407191850 METAR ESMX 191850Z AUTO 23003KT 9999 NCD 23/10 Q1018=
201407191820 METAR ESMX 191820Z AUTO 24004KT 9999 NCD 24/08 Q1018=
201407191750 METAR ESMX 191750Z AUTO 28003KT 9999 NCD 26/06 Q1018=
201407191720 METAR ESMX 191720Z AUTO VRB03KT 9999 NCD 26/07 Q1018=
201407191650 METAR ESMX 191650Z AUTO 34005KT 9999 NCD 26/07 Q1017=
201407191620 METAR ESMX 191620Z AUTO VRB03KT 9999 NCD 27/07 Q1017=
201407191550 METAR ESMX 191550Z AUTO 01003KT 330V070 9999 NCD 26/09 Q1018=
201407191520 METAR ESMX 191520Z AUTO 11004KT 080V150 9999 NCD 26/09 Q1018=
201407191450 METAR ESMX 191450Z AUTO VRB03KT 360V360 9999 NCD 25/07 Q1018=
201407191420 METAR ESMX 191420Z AUTO VRB03KT 9999 NCD 26/09 Q1018=
201407191350 METAR ESMX 191350Z AUTO VRB03KT 170V080 9999 NCD 25/08 Q1019=
201407191320 METAR ESMX 191320Z AUTO 32004KT 270V030 9999 NCD 26/09 Q1019=
201407191250 METAR ESMX 191250Z AUTO VRB03KT 240V070 9999 NCD 26/09 Q1019=
201407191220 METAR ESMX 191220Z AUTO 17004KT 120V190 9999 NCD 26/10 Q1019=
201407191150 METAR ESMX 191150Z AUTO 31005KT 260V010 9999 NCD 25/10 Q1020=
201407191120 METAR ESMX 191120Z AUTO 35006KT 320V020 9999 NCD 24/10 Q1020=
201407191050 METAR ESMX 191050Z AUTO 02005KT 350V060 9999 NCD 24/11 Q1020=
201407191020 METAR ESMX 191020Z AUTO 02006KT 330V070 9999 NCD 24/10 Q1020=
201407190950 METAR ESMX 190950Z AUTO 03006KT 9999 NCD 23/12 Q1020=
201407190920 METAR ESMX 190920Z AUTO 01005KT 330V050 9999 NCD 23/12 Q1020=
201407190850 METAR ESMX 190850Z AUTO VRB04KT 360V360 9999 NCD 22/12 Q1020=
201407190820 METAR ESMX 190820Z AUTO VRB03KT 250V070 9999 NCD 22/13 Q1020=
201407190750 METAR ESMX 190750Z AUTO VRB04KT 240V070 9999 NCD 21/13 Q1020=
201407190720 METAR ESMX 190720Z AUTO 29004KT 220V320 9999 NCD 20/13 Q1020=
201407190650 METAR ESMX 190650Z AUTO VRB03KT 9999 NCD 19/13 Q1020=
201407190620 METAR ESMX 190620Z AUTO 32004KT 290V360 9999 NCD 17/13 Q1020=
201407190550 METAR ESMX 190550Z AUTO 31003KT 280V350 9999 NCD 16/12 Q1020=
201407190520 METAR ESMX 190520Z AUTO 29003KT 9999 NCD 15/12 Q1020=
201407190450 METAR ESMX 190450Z AUTO 28003KT 9999 NCD 14/12 Q1020=
201407190420 METAR ESMX 190420Z AUTO 27002KT 9999 NCD 13/12 Q1020=
201407190350 METAR ESMX 190350Z AUTO 26003KT 9999 NCD 11/10 Q1021=
201407190320 METAR ESMX 190320Z AUTO 17002KT 9999 NCD 10/09 Q1020=
201407190250 METAR ESMX 190250Z AUTO 20003KT 4400 BR NCD 10/09 Q1020=
201407190220 METAR ESMX 190220Z AUTO 17003KT 9999 NCD 10/09 Q1020=
201407190150 METAR ESMX 190150Z AUTO 18003KT 9999 NCD 10/09 Q1020=
201407190120 METAR ESMX 190120Z AUTO 17002KT 9999 NCD 11/10 Q1020=
201407190050 METAR ESMX 190050Z AUTO 20002KT 9999 NCD 11/10 Q1020=
201407190020 METAR ESMX 190020Z AUTO 22004KT 9999 NCD 12/11 Q1021=
201407182350 METAR ESMX 182350Z AUTO 19002KT 9999 NCD 12/11 Q1020=
201407182320 METAR ESMX 182320Z AUTO 25003KT 9999 NCD 12/10 Q1020=
201407182250 METAR ESMX 182250Z AUTO 25002KT 9999 NCD 13/11 Q1020=
201407182220 METAR ESMX 182220Z AUTO 22003KT 9999 NCD 13/11 Q1020=
201407182150 METAR ESMX 182150Z AUTO 22003KT 9999 NCD 13/11 Q1020=
201407182120 METAR ESMX 182120Z AUTO 23003KT 9999 NCD 14/11 Q1020=
201407182050 METAR ESMX 182050Z AUTO 23003KT 9999 NCD 15/12 Q1020=
201407182020 METAR ESMX 182020Z 24003KT CAVOK 16/12 Q1020=
201407181950 METAR ESMX 181950Z 23003KT CAVOK 18/12 Q1020=
201407181920 METAR COR ESMX 181920Z 24003KT CAVOK 20/12 Q1020=
201407181850 METAR ESMX 181850Z 27004KT CAVOK 22/12 Q1019=
201407181820 METAR ESMX 181820Z 28005KT CAVOK 23/11 Q1019=
201407181750 METAR COR ESMX 181750Z 27006KT CAVOK 23/12 Q1019=
201407181720 METAR ESMX 181720Z 28006KT 240V310 CAVOK 24/11 Q1019=
201407181650 METAR COR ESMX 181650Z 26007KT CAVOK 24/11 Q1019=
201407181620 METAR ESMX 181620Z 28008KT 240V320 CAVOK 25/11 Q1019=
201407181550 METAR ESMX 181550Z 27007KT 230V290 CAVOK 25/12 Q1019=
201407181520 METAR COR ESMX 181520Z 26008KT 210V300 CAVOK 25/11 Q1019=
201407181450 METAR ESMX 181450Z AUTO 27008KT 230V300 9999 FEW048/// 25/12 Q1020=
201407181420 METAR ESMX 181420Z AUTO 28009KT 240V320 9999 FEW047/// SCT059/// 25/12 Q1020=
201407181350 METAR ESMX 181350Z AUTO 25008KT 210V280 9999 FEW046/// SCT081/// 25/13 Q1020=
201407181320 METAR ESMX 181320Z AUTO 28008KT 250V320 9999 FEW046/// SCT062/// 25/12 Q1020=
201407181250 METAR ESMX 181250Z AUTO 25004KT 200V320 9999 FEW085/// 25/13 Q1020=
201407181220 METAR ESMX 181220Z AUTO 28007KT 200V310 9999 FEW056/// 23/13 Q1021=
201407181150 METAR ESMX 181150Z AUTO 24009KT 9999 FEW041/// 23/13 Q1021=
201407181120 METAR ESMX 181120Z AUTO 24005KT 210V280 9999 FEW059/// 23/13 Q1021=
201407181050 METAR ESMX 181050Z AUTO 30006KT 260V330 9999 FEW038/// SCT044/// BKN066/// 22/13 Q1021=
201407181020 METAR ESMX 181020Z AUTO 22006KT 170V260 9999 FEW034/// 23/14 Q1021=
201407180950 METAR ESMX 180950Z 22008KT 190V300 9999 FEW031 SCT047 23/14 Q1021=
201407180920 METAR ESMX 180920Z VRB04KT 140V350 9999 FEW027 SCT037 22/14 Q1021=
201407180850 METAR ESMX 180850Z 20008KT 9999 FEW027 SCT037 21/14 Q1021=
201407180820 METAR ESMX 180820Z 23007KT 180V280 9999 FEW025 SCT032 21/13 Q1022=
201407180750 METAR ESMX 180750Z 21006KT 150V250 9999 FEW025 BKN031 20/14 Q1022=
201407180720 METAR ESMX 180720Z 23004KT 200V260 9999 SCT033 19/13 Q1022=
201407180650 METAR ESMX 180650Z 23003KT 9999 FEW028 SCT035 19/12 Q1021=
201407180620 METAR ESMX 180620Z AUTO 15002KT 9999 BKN028/// 19/12 Q1022=
201407180550 METAR ESMX 180550Z AUTO 00000KT 9999 NCD 18/13 Q1022=
201407180520 METAR ESMX 180520Z AUTO 00000KT 9999 NCD 15/13 Q1021=
201407180450 METAR ESMX 180450Z AUTO 00000KT 9999 NCD 14/12 Q1021=
201407180420 METAR ESMX 180420Z AUTO 20002KT 9999 NCD 13/12 Q1021=
201407180350 METAR ESMX 180350Z AUTO 12001KT 9999 FEW052/// 11/10 Q1021=
201407180320 METAR ESMX 180320Z AUTO 15001KT 9999 NCD 10/09 Q1022=
201407180250 METAR ESMX 180250Z AUTO 18002KT 9999 NCD 09/08 Q1022=
201407180220 METAR ESMX 180220Z AUTO 20002KT 9999 NCD 10/09 Q1022=
201407180150 METAR ESMX 180150Z AUTO 22002KT 9999 NCD 11/09 Q1021=
201407180120 METAR ESMX 180120Z AUTO 24003KT 9999 NCD 10/09 Q1021=
201407180050 METAR ESMX 180050Z AUTO 24003KT 9999 NCD 11/10 Q1022=
201407180020 METAR ESMX 180020Z AUTO 25003KT 9999 NCD 12/10 Q1022=
201407172350 METAR ESMX 172350Z 23004KT CAVOK 12/10 Q1022=
201407172320 METAR ESMX 172320Z 24004KT CAVOK 11/10 Q1022=
201407172250 METAR ESMX 172250Z 24004KT CAVOK 12/10 Q1022=
201407172224 METAR ESMX 172224Z 18003KT CAVOK 12/10 Q1021=
201407172220 METAR ESMX 172220Z AUTO 18003KT 9999 NCD 12/10 Q1021=
201407172150 METAR ESMX 172150Z 25003KT CAVOK 14/11 Q1021=
201407172120 METAR ESMX 172120Z 23004KT CAVOK 14/11 Q1021=
201407172050 METAR ESMX 172050Z 24004KT CAVOK 15/11 Q1021=
201407172020 METAR ESMX 172020Z 24004KT CAVOK 14/11 Q1021=
201407171950 METAR ESMX 171950Z 24003KT CAVOK 15/11 Q1021=
201407171920 METAR ESMX 171920Z VRB02KT CAVOK 18/11 Q1021=
201407171850 METAR ESMX 171850Z AUTO 26003KT 9999 NCD 20/10 Q1021=
201407171820 METAR ESMX 171820Z AUTO 28006KT 250V320 9999 NCD 21/10 Q1021=
201407171750 METAR ESMX 171750Z AUTO 27007KT 240V310 9999 NCD 21/11 Q1021=
201407171720 METAR ESMX 171720Z AUTO 27006KT 240V310 9999 NCD 22/10 Q1021=
201407171650 METAR ESMX 171650Z AUTO 29009KT 9999 NCD 22/10 Q1021=
201407171620 METAR ESMX 171620Z 27009KT CAVOK 22/10 Q1021=
201407171550 METAR ESMX 171550Z 29009KT 250V320 CAVOK 23/10 Q1021=
201407171520 METAR ESMX 171520Z 26006KT 220V290 9999 FEW048 22/10 Q1021=
201407171450 METAR COR ESMX 171450Z 23007KT 190V250 9999 SCT049 23/10 Q1021=
201407171420 METAR ESMX 171420Z 24008KT 190V290 9999 SCT048 23/10 Q1021=
201407171350 METAR ESMX 171350Z 26008KT 9999 FEW048 23/10 Q1021=
201407171320 METAR ESMX 171320Z 26009KT 220V290 9999 FEW046 SCT056 23/11 Q1021=
201407171250 METAR ESMX 171250Z 24009KT 220V290 9999 SCT043 22/10 Q1022=
201407171220 METAR ESMX 171220Z 24008KT 170V280 9999 FEW044 SCT052 21/10 Q1022=
201407171150 METAR ESMX 171150Z AUTO 22010KT 180V260 9999 FEW041/// SCT055/// 22/11 Q1022=
201407171120 METAR ESMX 171120Z AUTO 25006KT 210V290 9999 FEW039/// BKN046/// 20/10 Q1022=
201407171050 METAR ESMX 171050Z AUTO 22005KT 170V300 9999 FEW040/// BKN051/// 21/11 Q1022=
201407171020 METAR ESMX 171020Z AUTO 24008KT 200V270 9999 SCT035/// BKN047/// 19/11 Q1022=
201407170950 METAR ESMX 170950Z AUTO 22008KT 190V260 9999 FEW035/// SCT048/// 20/11 Q1022=
201407170920 METAR ESMX 170920Z AUTO 26006KT 220V300 9999 SCT046/// 19/10 Q1022=
201407170850 METAR ESMX 170850Z AUTO 25007KT 210V300 9999 FEW031/// BKN044/// 19/11 Q1022=
201407170820 METAR ESMX 170820Z AUTO 24006KT 210V280 9999 FEW028/// SCT036/// BKN041/// 18/11 Q1022=
201407170750 METAR ESMX 170750Z AUTO 23007KT 200V270 9999 FEW026/// SCT032/// BKN040/// 18/11 Q1022=
201407170720 METAR ESMX 170720Z AUTO 26008KT 9999 NCD 18/11 Q1022=
201407170650 METAR ESMX 170650Z AUTO 24006KT 9999 SCT037/// 17/11 Q1022=
201407170620 METAR ESMX 170620Z AUTO 22004KT 170V250 9999 SCT037/// 16/11 Q1022=
201407170550 METAR ESMX 170550Z AUTO 22005KT 9999 BKN038/// 15/11 Q1022=
201407170520 METAR ESMX 170520Z 22004KT 9999 FEW032 SCT037 14/11 Q1022=
201407170450 METAR ESMX 170450Z 23004KT 9999 SCT037 13/12 Q1022=
201407170420 METAR ESMX 170420Z 23003KT CAVOK 11/10 Q1022=
201407170350 METAR ESMX 170350Z 22003KT 9000 BR SCT039 09/09 Q1022=
201407170320 METAR ESMX 170320Z AUTO 22004KT 9999 NCD 09/08 Q1022=
201407170250 METAR ESMX 170250Z AUTO 22004KT 9999 NCD 08/08 Q1022=
201407170220 METAR ESMX 170220Z AUTO 18003KT 8000 NCD 09/08 Q1022=
201407170150 METAR ESMX 170150Z AUTO 23003KT 2700 NCD 09/08 Q1021=
201407170120 METAR ESMX 170120Z AUTO 23004KT 9999 NCD 09/08 Q1021=
201407170050 METAR ESMX 170050Z AUTO 23004KT 9999 NCD 09/08 Q1021=
201407170020 METAR ESMX 170020Z AUTO 22004KT 9999 NCD 10/09 Q1021=
201407162350 METAR ESMX 162350Z AUTO 22004KT 9999 NCD 10/09 Q1021=
201407162320 METAR ESMX 162320Z 22004KT CAVOK 10/09 Q1021=
201407162250 METAR ESMX 162250Z 23004KT CAVOK 11/09 Q1021=
201407162220 METAR ESMX 162220Z 23004KT CAVOK 11/09 Q1021=
201407162150 METAR ESMX 162150Z 24003KT CAVOK 12/10 Q1021=
201407162120 METAR ESMX 162120Z 23004KT CAVOK 11/09 Q1021=
201407162050 METAR ESMX 162050Z 23004KT CAVOK 13/10 Q1021=
201407162020 METAR ESMX 162020Z 25003KT CAVOK 13/10 Q1020=
201407161950 METAR ESMX 161950Z 23004KT 9999 SCT035 15/10 Q1020=
201407161920 METAR ESMX 161920Z 25004KT 9999 SCT036 15/10 Q1020=
201407161850 METAR ESMX 161850Z AUTO 26005KT 9999 BKN034/// 17/10 Q1020=
201407161820 METAR ESMX 161820Z AUTO 27007KT 9999 BKN035/// 17/10 Q1020=
201407161750 METAR ESMX 161750Z AUTO 25007KT 210V280 9999 BKN037/// 17/10 Q1020=
201407161720 METAR ESMX 161720Z AUTO 26007KT 230V290 9999 BKN036/// 18/10 Q1020=
201407161650 METAR ESMX 161650Z AUTO 27009KT 9999 OVC036/// 18/10 Q1020=
201407161620 METAR ESMX 161620Z AUTO 26009KT 9999 OVC039/// 19/09 Q1020=
201407161550 METAR ESMX 161550Z AUTO 24009KT 9999 BKN037/// 18/10 Q1020=
201407161520 METAR ESMX 161520Z AUTO 28010KT 9999 BKN037/// 19/10 Q1020=
201407161450 METAR ESMX 161450Z AUTO 25010KT 9999 BKN039/// 19/10 Q1020=
201407161420 METAR ESMX 161420Z AUTO 28010KT 240V320 9999 BKN041/// 19/10 Q1020=
201407161350 METAR ESMX 161350Z AUTO 26009KT 230V290 9999 SCT040/// 19/10 Q1020=
201407161320 METAR ESMX 161320Z AUTO 27009KT 240V300 9999 FEW039/// SCT044/// 20/10 Q1019=
201407161250 METAR ESMX 161250Z AUTO 24010KT 210V290 9999 OVC040/// 20/10 Q1019=
201407161220 METAR ESMX 161220Z AUTO 24011KT 210V280 9999 BKN039/// 20/09 Q1019=
201407161150 METAR ESMX 161150Z AUTO 26011KT 230V300 9999 SCT038/// 19/10 Q1019=
201407161120 METAR ESMX 161120Z AUTO 25010KT 210V280 9999 BKN038/// 19/10 Q1019=
201407161050 METAR ESMX 161050Z AUTO 24009KT 190V290 9999 SCT038/// 19/10 Q1019=
201407161020 METAR ESMX 161020Z AUTO 25010KT 230V290 9999 BKN037/// 18/10 Q1019=
201407160950 METAR ESMX 160950Z 22011KT 190V280 9999 BKN036 19/10 Q1019=
201407160920 METAR ESMX 160920Z 24010KT 200V260 9999 BKN033 19/10 Q1019=
201407160850 METAR ESMX 160850Z 25011KT 210V290 9999 FEW033 BKN035 18/11 Q1019=
201407160820 METAR ESMX 160820Z 25009KT 210V280 9999 FEW032 BKN037 18/10 Q1019=
201407160750 METAR ESMX 160750Z 26011KT 220V290 9999 FEW027 BKN032 17/10 Q1019=
201407160720 METAR ESMX 160720Z 25010KT 9999 BKN026 18/11 Q1018=
201407160650 METAR ESMX 160650Z 24009KT 210V290 9999 FEW019 SCT023 BKN027 16/11 Q1018=
201407160620 METAR ESMX 160620Z AUTO 26010KT 220V290 9999 FEW018/// SCT020/// BKN023/// 16/11 Q1018=
201407160550 METAR ESMX 160550Z AUTO 25010KT 210V280 9999 FEW018/// 16/11 Q1018=
201407160520 METAR ESMX 160520Z AUTO 24009KT 210V280 9999 FEW028/// 15/12 Q1018=
201407160450 METAR ESMX 160450Z 23008KT 9999 FEW021 SCT025 15/12 Q1018=
201407160420 METAR ESMX 160420Z 23006KT 9999 FEW009 15/13 Q1018=
201407160357 METAR ESMX 160357Z 23006KT 9999 FEW018 14/13 Q1017=
201407160350 METAR ESMX 160350Z AUTO 22007KT 9999 FEW018/// 14/13 Q1017=
201407160320 METAR ESMX 160320Z AUTO 22005KT 9999 NCD 14/13 Q1017=
201407160250 METAR ESMX 160250Z AUTO 22006KT 9999 FEW031/// 14/13 Q1017=
201407160220 METAR ESMX 160220Z AUTO 22006KT 9999 FEW015/// BKN032/// 14/13 Q1017=
201407160150 METAR ESMX 160150Z AUTO 21005KT 9999 FEW011/// BKN031/// 14/13 Q1017=
201407160120 METAR ESMX 160120Z AUTO 23005KT 9999 NCD 15/13 Q1017=
201407160050 METAR ESMX 160050Z 25006KT 9999 FEW010 SCT023 16/14 Q1017=
201407160020 METAR ESMX 160020Z 24006KT 9999 FEW010 SCT012 BKN022 17/15 Q1017=
201407152350 METAR ESMX 152350Z 21010KT 9999 FEW009 BKN011 BKN016 17/15 Q1017=
201407152320 METAR ESMX 152320Z AUTO 22009KT 9999 BKN010/// 17/15 Q1017=
201407152250 METAR ESMX 152250Z 22009KT 9999 FEW009 SCT031 17/15 Q1017=
201407152220 METAR ESMX 152220Z 21008KT 9999 BKN010 OVC015 17/15 Q1017=
201407152150 METAR ESMX 152150Z 21008KT 9999 BKN010 BKN014 17/15 Q1017=
201407152120 METAR ESMX 152120Z 22008KT 9999 FEW009 SCT011 BKN014 16/14 Q1017=
201407152050 METAR ESMX 152050Z 21009KT 9999 BKN010 OVC019 17/14 Q1017=
201407152020 METAR ESMX 152020Z 21010KT 9999 FEW011 BKN014 OVC018 16/14 Q1016=
201407151950 METAR ESMX 151950Z 22010KT 9999 SCT017 OVC019 18/14 Q1016=
201407151920 METAR ESMX 151920Z 24009KT 210V270 9999 SCT022 BKN029 18/13 Q1016=
201407151850 METAR ESMX 151850Z AUTO 23008KT 9999 FEW022/// BKN026/// BKN100/// 18/13 Q1016=
201407151820 METAR ESMX 151820Z AUTO 23008KT 200V260 9999 BKN025/// BKN035/// 18/13 Q1016=
201407151750 METAR ESMX 151750Z AUTO 24010KT 200V280 9999 SCT027/// BKN049/// BKN058/// 19/13 Q1016=
201407151720 METAR ESMX 151720Z AUTO 25008KT 9999 FEW039/// BKN055/// 19/12 Q1016=
201407151650 METAR ESMX 151650Z 25010KT 210V280 9999 BKN036 OVC051 19/12 Q1016=
201407151620 METAR ESMX 151620Z 25011KT 200V270 9999 FEW039 SCT044 BKN052 20/11 Q1016=
201407151550 METAR ESMX 151550Z 24010KT 9999 BKN045 21/11 Q1015=
201407151520 METAR ESMX 151520Z 22012KT 9999 FEW046 22/10 Q1015=
201407151450 METAR ESMX 151450Z 24011KT 9999 SCT043 22/10 Q1015=
201407151420 METAR ESMX 151420Z 22013KT 200V260 9999 FEW043 SCT061 23/12 Q1015=
201407151350 METAR COR ESMX 151350Z 24011KT 9999 FEW038 SCT050 21/12 Q1015=
201407151320 METAR ESMX 151320Z AUTO 23013KT 9999 FEW041/// 22/14 Q1015=
201407151250 METAR ESMX 151250Z AUTO 24010KT 9999 FEW041/// SCT061/// 22/14 Q1015=
201407151220 METAR ESMX 151220Z AUTO 26010KT 9999 FEW034/// 21/13 Q1015=
201407151150 METAR ESMX 151150Z AUTO 25010KT 9999 FEW031/// SCT060/// 22/14 Q1015=
201407151120 METAR ESMX 151120Z AUTO 21011KT 180V250 9999 FEW022/// SCT053/// 21/14 Q1015=
201407151050 METAR ESMX 151050Z AUTO 24010KT 9999 FEW017/// SCT021/// BKN047/// 20/15 Q1015=
201407151020 METAR ESMX 151020Z AUTO 21011KT 9999 FEW015/// SCT026/// BKN041/// 19/15 Q1015=
201407150950 METAR ESMX 150950Z AUTO 22010KT 190V260 9999 FEW015/// SCT037/// BKN055/// 19/15 Q1014=
201407150920 METAR ESMX 150920Z AUTO 22009KT 180V260 9999 FEW014/// SCT020/// 19/16 Q1014=
201407150850 METAR ESMX 150850Z AUTO 22006KT 170V240 9999 FEW017/// SCT033/// 18/16 Q1014=
201407150820 METAR ESMX 150820Z AUTO 22010KT 4900 RA FEW009/// SCT021/// BKN059/// 17/15 Q1014 REDZ=
201407150750 METAR ESMX 150750Z AUTO 20008KT 9999 FEW018/// SCT058/// 19/15 Q1013=
201407150720 METAR ESMX 150720Z AUTO 21008KT 9999 -DZ FEW017/// SCT025/// BKN033/// 18/15 Q1013=
201407150650 METAR ESMX 150650Z AUTO 22008KT 9999 FEW011/// SCT019/// 19/15 Q1013=
201407150620 METAR ESMX 150620Z AUTO 22007KT 190V250 9999 FEW007/// SCT011/// BKN018/// 18/15 Q1013=
201407150550 METAR ESMX 150550Z AUTO 23006KT 200V260 9999 FEW005/// BKN008/// 17/15 Q1013=
201407150520 METAR ESMX 150520Z AUTO 25005KT 8000 BR BKN003/// OVC007/// 16/15 Q1012=
201407150450 METAR ESMX 150450Z AUTO 24005KT 8000 BR OVC003/// 16/15 Q1012=
201407150420 METAR ESMX 150420Z AUTO 24005KT 6000 BR FEW001/// SCT003/// BKN004/// 15/15 Q1012=
201407150350 METAR ESMX 150350Z AUTO 24005KT 4800 OVC001/// 15/14 Q1012=
201407150320 METAR ESMX 150320Z AUTO 22006KT 2300 OVC001/// 15/14 Q1012=
201407150250 METAR ESMX 150250Z AUTO 23006KT 0550 R01/0900V1300U R19/0800V1500U FG VV001 14/14 Q1011=
201407150220 METAR ESMX 150220Z AUTO 22005KT 0650 R01/1200VP2000D R19/P2000N FG VV002 14/13 Q1011=
201407150150 METAR ESMX 150150Z AUTO 23003KT 0900 R01/P2000N R19/P2000N BR NCD 13/12 Q1011=
201407150120 METAR ESMX 150120Z AUTO 22006KT 9999 NCD 13/12 Q1011=
201407150050 METAR ESMX 150050Z AUTO 22008KT 9999 NCD 12/12 Q1010=
201407150020 METAR ESMX 150020Z AUTO 22004KT 2600 NCD 13/12 Q1010=
201407142350 METAR ESMX 142350Z 22005KT 9999 VCFG NSC 13/12 Q1010=
201407142320 METAR COR ESMX 142320Z 22005KT MIFG NSC 13/12 Q1010=
201407142250 METAR ESMX 142250Z 22005KT CAVOK 12/11 Q1009=
201407142220 METAR ESMX 142220Z 23003KT CAVOK 12/11 Q1009=
201407142150 METAR ESMX 142150Z 18004KT 9999 VCFG NSC 12/12 Q1009=
201407142120 METAR ESMX 142120Z 16002KT 9999 MIFG NSC 12/11 Q1008=
201407142050 METAR ESMX 142050Z 16002KT 4500 VCFG FEW050 13/12 Q1008=
201407142024 METAR ESMX 142024Z 23002KT 9999 FEW040 14/12 Q1008=
201407142020 METAR ESMX 142020Z AUTO 23002KT 9999 FEW041/// 14/13 Q1008=
201407141950 METAR ESMX 141950Z VRB01KT 9999 FEW030 SCT042 15/13 Q1007=
201407141920 METAR ESMX 141920Z VRB02KT 9999 SCT030 BKN100 16/14 Q1007=
201407141850 METAR ESMX 141850Z AUTO 03002KT 9999 FEW030/// BKN100/// 17/14 Q1007=
201407141820 METAR ESMX 141820Z AUTO VRB03KT 9999 FEW016/// SCT033/// BKN100/// 17/14 Q1006=
201407141750 METAR ESMX 141750Z AUTO VRB02KT 9999 FEW014/// BKN099/// 18/14 Q1006=
201407141720 METAR ESMX 141720Z AUTO 09004KT 040V130 9999 SCT099/// 17/13 Q1006=
201407141650 METAR ESMX 141650Z AUTO 10005KT 050V170 9999 FEW016/// SCT022/// BKN100/// 18/14 Q1006=
201407141620 METAR ESMX 141620Z 10004KT 050V160 9999 FEW017 BKN042 18/13 Q1006=
201407141550 METAR ESMX 141550Z 11006KT 080V150 9999 FEW015CB BKN037 18/14 Q1006=
201407141520 METAR ESMX 141520Z 10005KT 050V140 9999 FEW024 BKN035 17/14 Q1006=
201407141450 METAR ESMX 141450Z 13006KT 080V170 9999 FEW020 BKN043 18/13 Q1006=
201407141420 METAR ESMX 141420Z 13006KT 100V170 9999 FEW019 BKN046 18/13 Q1006=
201407141350 METAR ESMX 141350Z 12006KT 090V170 9999 SCT020 BKN049 18/13 Q1006=
201407141320 METAR ESMX 141320Z 14008KT 100V170 9999 SCT025 BKN048 19/13 Q1006=
201407141250 METAR ESMX 141250Z 15006KT 080V190 9999 FEW026 BKN080 20/12 Q1006=
201407141220 METAR ESMX 141220Z AUTO 14008KT 090V190 9999 FEW024/// BKN065/// 19/13 Q1006=
201407141150 METAR ESMX 141150Z AUTO 15006KT 100V190 9999 FEW025/// SCT054/// BKN079/// 18/12 Q1006=
201407141120 METAR ESMX 141120Z AUTO 16009KT 110V190 9999 SCT024/// BKN032/// BKN088/// 18/13 Q1006=
201407141050 METAR ESMX 141050Z AUTO 14007KT 070V180 9999 SCT022/// BKN030/// 19/12 Q1006=
201407141020 METAR ESMX 141020Z AUTO 13008KT 100V170 9999 FEW023/// BKN076/// 18/12 Q1006=
201407140950 METAR ESMX 140950Z 15009KT 9999 SCT024 BKN085 18/12 Q1006=
201407140920 METAR ESMX 140920Z 12009KT 070V170 9999 SCT021 BKN031 19/13 Q1006=
201407140850 METAR ESMX 140850Z 14008KT 080V170 9999 SCT025 BKN035 18/12 Q1006=
201407140820 METAR ESMX 140820Z 15009KT 110V180 9999 SCT020 BKN024 19/13 Q1006=
201407140750 METAR ESMX 140750Z 12007KT 050V160 9999 FEW020 SCT026 18/13 Q1006=
201407140720 METAR ESMX 140720Z 13007KT 060V160 9999 SCT020 18/13 Q1006=
201407140650 METAR ESMX 140650Z 15006KT 100V190 9999 FEW012 SCT025 18/13 Q1006=
201407140620 METAR ESMX 140620Z AUTO 13006KT 070V180 9999 FEW009/// SCT013/// BKN079/// 17/14 Q1005=
201407140550 METAR ESMX 140550Z AUTO 14006KT 080V170 9999 FEW008/// SCT010/// BKN013/// 16/14 Q1006=
201407140520 METAR ESMX 140520Z AUTO 13006KT 080V160 9999 FEW005/// SCT007/// BKN009/// 16/14 Q1006=
201407140450 METAR ESMX 140450Z 14004KT 100V170 9999 BKN005 15/14 Q1006=
201407140420 METAR ESMX 140420Z 13004KT 020V170 9999 SCT005 BKN070 15/14 Q1005=
201407140350 METAR ESMX 140350Z 12004KT 080V160 9999 FEW006 SCT025 BKN100 14/13 Q1006=
201407140320 METAR ESMX 140320Z AUTO 13004KT 080V160 9999 FEW005/// OVC070/// 14/13 Q1006=
201407140250 METAR ESMX 140250Z AUTO 12004KT 060V160 9999 FEW004/// SCT057/// BKN071/// 14/13 Q1005=
201407140220 METAR ESMX 140220Z AUTO 13005KT 080V170 9999 FEW004/// SCT007/// BKN073/// 14/13 Q1005=
201407140150 METAR ESMX 140150Z AUTO 12004KT 090V160 9000 BR FEW004/// SCT007/// BKN073/// 15/13 Q1005=
201407140120 METAR ESMX 140120Z AUTO 13005KT 090V170 9999 FEW005/// BKN006/// OVC072/// 15/14 Q1005=
201407140050 METAR ESMX 140050Z AUTO 15007KT 100V190 9999 BKN005/// OVC010/// 15/14 Q1005=
201407140020 METAR ESMX 140020Z AUTO 14007KT 110V180 8000 BR BKN004/// OVC007/// 15/14 Q1005=
201407132350 METAR ESMX 132350Z AUTO 15006KT 9000 BR FEW004/// BKN005/// BKN009/// 15/14 Q1005=
201407132320 METAR ESMX 132320Z 15006KT 9000 BR SCT003 BKN006 15/14 Q1005=
201407132250 METAR ESMX 132250Z 14005KT 9999 FEW005 BKN010 15/14 Q1005=
201407132220 METAR ESMX 132220Z 16007KT 9999 SCT006 BKN009 15/14 Q1004=
201407132150 METAR ESMX 132150Z 14006KT 100V160 9999 SCT005 OVC008 15/14 Q1004=
201407132120 METAR ESMX 132120Z 13005KT 9999 FEW007 SCT012 BKN025 15/14 Q1004=
201407132050 METAR ESMX 132050Z AUTO 14005KT 100V170 9999 FEW036/// BKN041/// 15/13 Q1004=
201407132029 METAR ESMX 132029Z 16005KT 120V190 9999 FEW010 BKN026 15/13 Q1004=
201407132020 METAR ESMX 132020Z 16007KT 9999 SCT008 BKN025 15/13 Q1004=
201407131950 METAR ESMX 131950Z 16007KT 9999 FEW009 SCT015 BKN033 15/14 Q1004=
201407131920 METAR ESMX 131920Z 18008KT 9999 FEW008 SCT013 OVC026 16/14 Q1003=
201407131850 METAR ESMX 131850Z 17008KT 9999 FEW008 SCT013 BKN022 16/14 Q1003=
201407131820 METAR ESMX 131820Z 16007KT 9999 FEW006 SCT010 BKN013 16/14 Q1003=
201407131750 METAR COR ESMX 131750Z 17008KT 9999 FEW010 SCT027 BKN034 16/15 Q1002 REDZ=
201407131720 METAR ESMX 131720Z 19008KT 9999 FEW012 SCT020 BKN030 17/15 Q1002=
201407131650 METAR ESMX 131650Z 18009KT 9999 FEW007 SCT009 BKN010 17/15 Q1002=
201407131620 METAR ESMX 131620Z 18008KT 9999 FEW005 SCT009 BKN014 17/15 Q1001=
201407131550 METAR ESMX 131550Z 20009KT 9999 -DZ FEW010 SCT013 BKN021 17/15 Q1001=
201407131520 METAR ESMX 131520Z 20007KT 9999 -RA FEW007 SCT021 BKN028 17/16 Q1001 RESHRA=
201407131450 METAR ESMX 131450Z 18008KT 140V210 5000 RA FEW005 SCT010 BKN020 17/16 Q1001=
201407131420 METAR ESMX 131420Z 16006KT 130V190 5000 RA FEW008 SCT010 BKN015 18/17 Q1000 RERA=
201407131350 METAR ESMX 131350Z AUTO 11004KT 060V150 9999 FEW007/// SCT008/// BKN010/// 19/17 Q1000=
201407131320 METAR ESMX 131320Z AUTO 13005KT 100V160 9999 FEW006/// BKN008/// BKN013/// 18/17 Q1000 RERA=
201407131250 METAR ESMX 131250Z AUTO 10003KT 020V160 9999 FEW004/// SCT007/// BKN011/// 18/17 Q1000=
201407131220 METAR ESMX 131220Z AUTO 09003KT 050V120 9999 -RA FEW003/// BKN005/// OVC014/// 17/16 Q1000=
201407131150 METAR ESMX 131150Z AUTO 07004KT 010V110 5000 RA FEW003/// SCT005/// BKN007/// 17/16 Q1000=
201407131120 METAR ESMX 131120Z AUTO 05005KT 020V100 9000 DZ FEW004/// SCT007/// BKN010/// 17/16 Q1000 RESHRA=
201407131050 METAR ESMX 131050Z AUTO 06005KT 3500 RA FEW005/// BKN006/// OVC008/// 17/16 Q1000=
201407131020 METAR ESMX 131020Z AUTO 04005KT 9999 RA FEW006/// BKN007/// OVC009/// 17/16 Q1001 REDZ=
201407130950 METAR ESMX 130950Z AUTO 03007KT 9999 +DZ FEW006/// BKN009/// OVC012/// 17/16 Q1001=
201407130920 METAR ESMX 130920Z AUTO 01009KT 9999 FEW009/// BKN010/// OVC013/// 17/16 Q1001=
201407130850 METAR ESMX 130850Z AUTO 01009KT 9999 FEW006/// BKN008/// OVC010/// 17/16 Q1002=
201407130820 METAR ESMX 130820Z AUTO 02008KT 9999 -DZ FEW005/// SCT008/// BKN009/// 17/16 Q1002=
201407130750 METAR ESMX 130750Z AUTO 03009KT 7000 -RA BKN005/// OVC009/// 17/16 Q1002=
201407130720 METAR ESMX 130720Z AUTO 03010KT 350V060 7000 RA BKN005/// OVC008/// 17/16 Q1003=
201407130650 METAR ESMX 130650Z AUTO 03010KT 9000 BR OVC005/// 16/15 Q1003=
201407130620 METAR ESMX 130620Z AUTO 03009KT 8000 BR OVC004/// 16/15 Q1004=
201407130550 METAR ESMX 130550Z AUTO 03010KT 8000 BR OVC004/// 16/15 Q1004=
201407130520 METAR ESMX 130520Z AUTO 03009KT 5000 BR BKN003/// OVC006/// 16/15 Q1004 REDZ=
201407130450 METAR ESMX 130450Z AUTO 03011KT 7000 BR OVC003/// 16/15 Q1005=
201407130420 METAR ESMX 130420Z AUTO 04009KT 020V080 8000 BR OVC003/// 16/15 Q1005=
201407130350 METAR ESMX 130350Z AUTO 03009KT 5000 RA BKN003/// OVC007/// 16/15 Q1005 REDZ=
201407130320 METAR ESMX 130320Z AUTO 04009KT 7000 BR OVC003/// 16/15 Q1006 RERA=
201407130250 METAR ESMX 130250Z AUTO 04009KT 6000 BR OVC003/// 16/15 Q1006=
201407130220 METAR ESMX 130220Z AUTO 04009KT 9999 OVC004/// 15/14 Q1006 RERA=
201407130150 METAR ESMX 130150Z AUTO 02008KT 7000 RA OVC004/// 15/14 Q1006=
201407130120 METAR ESMX 130120Z AUTO 03008KT 360V060 6000 BR FEW003/// BKN005/// OVC007/// 15/14 Q1007=
201407130050 METAR ESMX 130050Z AUTO 04009KT 010V080 9999 FEW004/// OVC005/// 15/14 Q1007=
201407130020 METAR ESMX 130020Z AUTO 04008KT 7000 BR OVC005/// 15/14 Q1008=
201407122350 METAR ESMX 122350Z AUTO 03010KT 9999 OVC007/// 15/13 Q1008=
201407122320 METAR ESMX 122320Z AUTO 02009KT 350V060 9999 FEW007/// BKN008/// OVC010/// 15/13 Q1008=
201407122250 METAR ESMX 122250Z AUTO 04010KT 010V070 9999 FEW009/// OVC010/// 15/13 Q1009=
201407122220 METAR ESMX 122220Z AUTO 04010KT 9999 OVC011/// 15/13 Q1009=
201407122150 METAR ESMX 122150Z AUTO 03010KT 9999 OVC015/// 15/12 Q1010=
201407122120 METAR ESMX 122120Z AUTO 03010KT 9999 OVC017/// 15/12 Q1010 RERA=
201407122050 METAR ESMX 122050Z AUTO 02008KT 9999 OVC020/// 14/12 Q1010=
201407122020 METAR ESMX 122020Z AUTO 02008KT 9999 -RA SCT023/// BKN029/// OVC048/// 14/12 Q1011=
201407121950 METAR ESMX 121950Z AUTO 35009KT 9999 -DZ BKN041/// 14/12 Q1011=
201407121920 METAR ESMX 121920Z AUTO 02010KT 9999 RA FEW037/// 14/11 Q1011=
201407121850 METAR ESMX 121850Z AUTO 36010KT 9999 -RA SCT034/// BKN040/// BKN057/// 14/11 Q1011=
201407121820 METAR ESMX 121820Z AUTO 36009KT 9999 -RA OVC033/// 15/11 Q1012=
201407121750 METAR ESMX 121750Z AUTO 02008KT 9999 -RA OVC034/// 16/10 Q1012=
201407121720 METAR ESMX 121720Z AUTO 03010KT 9999 -DZ BKN042/// BKN054/// 16/09 Q1012=
201407121650 METAR ESMX 121650Z AUTO 03011KT 9999 DZ BKN050/// 17/09 Q1012 REDZ=
201407121620 METAR ESMX 121620Z AUTO 03009KT 9999 OVC050/// 18/08 Q1013=
201407121550 METAR ESMX 121550Z AUTO 04009KT 9999 -DZ SCT051/// 18/08 Q1013=
201407121520 METAR ESMX 121520Z AUTO 05008KT 020V110 9999 FEW054/// 19/07 Q1013=
201407121450 METAR ESMX 121450Z AUTO 04011KT 350V060 9999 FEW059/// 19/07 Q1013=
201407121420 METAR ESMX 121420Z AUTO 03010KT 360V060 9999 FEW047/// 19/08 Q1013=
201407121350 METAR ESMX 121350Z AUTO 05010KT 020V110 9999 SCT051/// 19/08 Q1014=
201407121320 METAR ESMX 121320Z AUTO 04010KT 020V080 9999 BKN047/// 19/08 Q1014=
201407121250 METAR ESMX 121250Z AUTO 03013KT 9999 FEW048/// SCT056/// 19/08 Q1014=
201407121220 METAR ESMX 121220Z AUTO 03010KT 350V060 9999 SCT050/// 21/07 Q1014=
201407121150 METAR ESMX 121150Z AUTO 05011KT 020V100 9999 FEW051/// 21/08 Q1014=
201407121120 METAR ESMX 121120Z AUTO 02011KT 350V060 9999 FEW048/// SCT053/// 19/08 Q1014=
201407121050 METAR ESMX 121050Z AUTO 04012KT 9999 SCT049/// BKN110/// 20/08 Q1014=
201407121020 METAR ESMX 121020Z AUTO 05011KT 020V080 9999 FEW046/// 20/09 Q1015=
201407120950 METAR ESMX 120950Z AUTO 04009KT 340V090 9999 BKN041/// 21/09 Q1015=
201407120920 METAR ESMX 120920Z AUTO 05008KT 010V110 9999 FEW037/// 19/09 Q1015=
201407120850 METAR ESMX 120850Z AUTO 05009KT 020V080 9999 FEW036/// 19/10 Q1015=
201407120820 METAR ESMX 120820Z AUTO 02008KT 350V060 9999 FEW024/// SCT033/// 18/10 Q1016=
201407120750 METAR ESMX 120750Z AUTO 03008KT 9999 FEW020/// SCT027/// 17/11 Q1016=
201407120720 METAR ESMX 120720Z AUTO 03011KT 9999 FEW017/// SCT019/// 15/10 Q1016=
201407120650 METAR ESMX 120650Z AUTO 04010KT 010V100 9999 FEW015/// 15/10 Q1016=
201407120620 METAR ESMX 120620Z AUTO 04010KT 010V080 9999 BKN012/// 14/10 Q1016=
201407120550 METAR ESMX 120550Z AUTO 05008KT 020V080 9999 BKN012/// OVC017/// 14/10 Q1016=
201407120520 METAR ESMX 120520Z AUTO 04009KT 9999 SCT012/// BKN016/// 14/10 Q1016=
201407120450 METAR ESMX 120450Z AUTO 04009KT 010V080 9999 FEW009/// BKN010/// BKN015/// 14/11 Q1016=
201407120420 METAR ESMX 120420Z AUTO 04010KT 9999 BKN008/// 13/10 Q1017=
201407120350 METAR ESMX 120350Z AUTO 04010KT 020V080 9999 BKN007/// BKN011/// 12/10 Q1016=
201407120320 METAR ESMX 120320Z AUTO 03009KT 9999 OVC007/// 12/10 Q1017=
201407120250 METAR ESMX 120250Z AUTO 02008KT 9999 SCT008/// 12/10 Q1017=
201407120220 METAR ESMX 120220Z AUTO 02007KT 9999 FEW008/// 12/10 Q1017=
201407120150 METAR ESMX 120150Z AUTO 01007KT 9999 NCD 12/10 Q1017=
201407120120 METAR ESMX 120120Z AUTO 02008KT 9999 NCD 12/10 Q1017=
201407120050 METAR ESMX 120050Z AUTO 04010KT 9999 FEW010/// 12/10 Q1018=
201407120020 METAR ESMX 120020Z AUTO 04008KT 9999 NCD 12/10 Q1018=
201407112350 METAR ESMX 112350Z AUTO 04005KT 360V110 9999 NCD 13/09 Q1018=
201407112320 METAR ESMX 112320Z AUTO 03006KT 9999 NCD 13/09 Q1018=
201407112250 METAR ESMX 112250Z AUTO 05005KT 020V090 9999 NCD 13/09 Q1018=
201407112220 METAR ESMX 112220Z AUTO 04007KT 010V080 9999 NCD 14/09 Q1018=
201407112150 METAR ESMX 112150Z AUTO 04005KT 360V080 9999 NCD 14/09 Q1018=
201407112120 METAR ESMX 112120Z AUTO 06007KT 020V100 9999 NCD 15/09 Q1018=
201407112050 METAR ESMX 112050Z AUTO 07006KT 030V110 9999 NCD 15/09 Q1018=
201407112020 METAR ESMX 112020Z 05009KT 020V100 CAVOK 16/08 Q1018=
201407111950 METAR ESMX 111950Z 07007KT 030V110 9999 FEW043 17/08 Q1018=
201407111920 METAR ESMX 111920Z 04009KT 020V080 9999 FEW042 17/08 Q1018=
201407111850 METAR ESMX 111850Z 04008KT 350V070 9999 FEW043 18/08 Q1018=
201407111820 METAR ESMX 111820Z 04009KT 010V070 9999 FEW045 19/08 Q1018=
201407111750 METAR ESMX 111750Z 06010KT 030V090 CAVOK 19/07 Q1018=
201407111720 METAR COR ESMX 111720Z 05009KT 020V090 CAVOK 19/08 Q1018=
201407111650 METAR ESMX 111650Z 05010KT 360V100 CAVOK 20/07 Q1017=
201407111620 METAR COR ESMX 111620Z 03012KT CAVOK 20/07 Q1018=
201407111550 METAR COR ESMX 111550Z 04011KT 010V080 CAVOK 21/07 Q1018=
201407111520 METAR ESMX 111520Z 04011KT 010V070 CAVOK 21/08 Q1018=
201407111451 METAR ESMX 111451Z 06009KT 020V120 CAVOK 21/08 Q1018=
201407111420 METAR ESMX 111420Z AUTO 04009KT 010V110 9999 FEW051/// 22/08 Q1018=
201407111350 METAR ESMX 111350Z AUTO 05010KT 020V110 9999 FEW051/// 21/08 Q1018=
201407111320 METAR ESMX 111320Z AUTO 04011KT 010V100 9999 FEW051/// 22/07 Q1018=
201407111250 METAR ESMX 111250Z AUTO 05010KT 020V100 9999 FEW047/// SCT090/// 21/08 Q1018=
201407111220 METAR ESMX 111220Z AUTO 05011KT 020V110 9999 SCT049/// 21/09 Q1018=
201407111150 METAR ESMX 111150Z AUTO 05010KT 010V110 9999 FEW050/// 21/09 Q1018=
201407111120 METAR ESMX 111120Z AUTO 05011KT 350V090 9999 FEW049/// 21/08 Q1018=
201407111050 METAR ESMX 111050Z AUTO 04011KT 360V080 9999 FEW047/// 21/09 Q1018=
201407111020 METAR ESMX 111020Z AUTO 05009KT 9999 FEW045/// 21/10 Q1019=
201407110950 METAR ESMX 110950Z AUTO 05011KT 010V090 9999 FEW038/// SCT049/// 21/10 Q1019=
201407110920 METAR ESMX 110920Z 04011KT 010V070 9999 SCT025 20/10 Q1019=
201407110850 METAR ESMX 110850Z 01009KT 9999 FEW027 SCT034 19/12 Q1019=
201407110820 METAR ESMX 110820Z 04010KT 9999 SCT020 19/12 Q1019=
201407110751 METAR ESMX 110751Z 04013KT CAVOK 17/12 Q1020=
201407110720 METAR ESMX 110720Z AUTO 05010KT 020V090 9999 FEW023/// 19/13 Q1019=
201407110650 METAR ESMX 110650Z 03009KT 010V070 9999 NSC 19/13 Q1019=
201407110620 METAR ESMX 110620Z 02008KT CAVOK 18/13 Q1019=
201407110550 METAR ESMX 110550Z 03008KT 350V060 CAVOK 17/12 Q1019=
201407110520 METAR ESMX 110520Z AUTO 05007KT 010V080 9999 NCD 17/12 Q1019=
201407110450 METAR ESMX 110450Z AUTO 03008KT 9999 NCD 16/12 Q1019=
201407110420 METAR ESMX 110420Z AUTO 04008KT 010V080 9999 NCD 16/13 Q1019=
201407110350 METAR ESMX 110350Z AUTO 04007KT 9999 FEW010/// 15/13 Q1019=
201407110320 METAR ESMX 110320Z AUTO 04007KT 9999 SCT007/// 15/13 Q1019=
201407110250 METAR ESMX 110250Z AUTO 04008KT 020V080 9999 SCT008/// 15/14 Q1019=
201407110220 METAR ESMX 110220Z AUTO 03007KT 9999 FEW009/// 15/13 Q1019=
201407110150 METAR ESMX 110150Z AUTO 03008KT 9999 NCD 16/13 Q1018=
201407110120 METAR ESMX 110120Z AUTO 03007KT 9999 NCD 16/13 Q1019=
201407110050 METAR ESMX 110050Z AUTO 03007KT 9999 NCD 16/13 Q1019=
201407110020 METAR ESMX 110020Z AUTO 03006KT 360V060 9999 NCD 17/13 Q1018=
201407102350 METAR ESMX 102350Z 04006KT CAVOK 17/13 Q1018=
201407102320 METAR ESMX 102320Z 04007KT CAVOK 18/13 Q1018=
201407102250 METAR ESMX 102250Z 04007KT CAVOK 18/13 Q1018=
201407102221 METAR ESMX 102221Z 04006KT 010V070 CAVOK 19/13 Q1018=
201407102150 METAR ESMX 102150Z 05005KT 020V100 CAVOK 20/12 Q1018=
201407102120 METAR ESMX 102120Z AUTO 04006KT 010V090 9999 NCD 20/12 Q1018=
201407102050 METAR ESMX 102050Z AUTO 02004KT 9999 NCD 20/12 Q1018=
201407102020 METAR ESMX 102020Z 04006KT CAVOK 21/12 Q1018=
201407101950 METAR ESMX 101950Z 04006KT CAVOK 22/12 Q1017=
201407101920 METAR ESMX 101920Z 04007KT 010V070 CAVOK 23/12 Q1017=
201407101850 METAR ESMX 101850Z AUTO 04008KT 9999 NCD 24/12 Q1017=
201407101820 METAR ESMX 101820Z AUTO 04007KT 010V070 9999 NCD 24/12 Q1017=
201407101750 METAR ESMX 101750Z AUTO 04009KT 020V080 9999 NCD 25/12 Q1016=
201407101720 METAR ESMX 101720Z AUTO 07007KT 030V100 9999 NCD 26/12 Q1016=
201407101650 METAR ESMX 101650Z AUTO 05010KT 030V090 9999 NCD 26/11 Q1016=
201407101629 METAR ESMX 101629Z 06007KT 020V100 CAVOK 26/10 Q1016=
201407101620 METAR ESMX 101620Z AUTO 05010KT 9999 NCD 26/10 Q1016=
201407101550 METAR ESMX 101550Z 06009KT 030V110 CAVOK 27/10 Q1016=
201407101523 METAR ESMX 101523Z 05010KT 020V080 CAVOK 27/10 Q1016=
201407101520 METAR ESMX 101520Z AUTO 05010KT 030V100 9999 FEW068/// 26/10 Q1016=
201407101450 METAR ESMX 101450Z 07008KT 040V110 CAVOK 27/10 Q1016=
201407101420 METAR ESMX 101420Z 08009KT 030V120 CAVOK 27/10 Q1016=
201407101350 METAR ESMX 101350Z 05009KT 010V110 CAVOK 27/10 Q1016=
201407101320 METAR ESMX 101320Z 08010KT 050V120 CAVOK 27/09 Q1016=
201407101250 METAR ESMX 101250Z 08009KT 030V120 CAVOK 28/09 Q1016=
201407101220 METAR ESMX 101220Z 06010KT CAVOK 27/10 Q1016=
201407101150 METAR ESMX 101150Z AUTO 06011KT 030V100 9999 FEW066/// 27/10 Q1016=
201407101120 METAR ESMX 101120Z AUTO 05010KT 020V100 9999 FEW066/// 27/10 Q1016=
201407101050 METAR ESMX 101050Z AUTO 06009KT 030V110 9999 FEW063/// 27/11 Q1015=
201407101020 METAR ESMX 101020Z AUTO 06011KT 040V120 9999 NCD 27/10 Q1015=
201407100950 METAR ESMX 100950Z AUTO 07010KT 030V110 9999 FEW076/// 26/11 Q1015=
201407100920 METAR ESMX 100920Z AUTO 06010KT 020V110 9999 NCD 26/12 Q1015=
201407100850 METAR ESMX 100850Z AUTO 06011KT 020V080 9999 NCD 25/13 Q1015=
201407100820 METAR ESMX 100820Z AUTO 05009KT 030V090 9999 NCD 24/13 Q1015=
201407100750 METAR ESMX 100750Z 04009KT CAVOK 24/14 Q1015=
201407100722 METAR ESMX 100722Z 04008KT 010V080 CAVOK 23/14 Q1015=
201407100650 METAR ESMX 100650Z 04008KT CAVOK 21/14 Q1015=
201407100620 METAR ESMX 100620Z 02009KT CAVOK 20/14 Q1015=
201407100550 METAR ESMX 100550Z 03009KT CAVOK 19/13 Q1015=
201407100520 METAR ESMX 100520Z VRB06KT 360V180 CAVOK 19/13 Q1015=
201407100450 METAR ESMX 100450Z 02007KT 350V060 CAVOK 18/13 Q1015=
201407100420 METAR ESMX 100420Z 02007KT CAVOK 17/13 Q1014=
201407100350 METAR ESMX 100350Z 02007KT CAVOK 16/13 Q1014=
201407100320 METAR ESMX 100320Z AUTO 02008KT 9999 NCD 16/12 Q1014=
201407100250 METAR ESMX 100250Z AUTO 02008KT 9999 NCD 16/12 Q1014=
201407100220 METAR ESMX 100220Z AUTO 03009KT 9999 NCD 16/12 Q1014=
201407100150 METAR ESMX 100150Z AUTO 03008KT 9999 NCD 16/12 Q1014=
201407100120 METAR ESMX 100120Z AUTO 03008KT 9999 NCD 16/12 Q1014=
201407100050 METAR ESMX 100050Z AUTO 02008KT 9999 NCD 17/12 Q1015=
201407100020 METAR ESMX 100020Z AUTO 02009KT 9999 NCD 17/12 Q1015=
201407092350 METAR ESMX 092350Z 03007KT CAVOK 17/12 Q1015=
201407092320 METAR ESMX 092320Z 02008KT CAVOK 18/12 Q1015=
201407092250 METAR ESMX 092250Z 03007KT CAVOK 18/12 Q1015=
201407092220 METAR ESMX 092220Z 04008KT CAVOK 19/13 Q1015=
201407092150 METAR ESMX 092150Z AUTO 04007KT 020V090 9999 NCD 19/13 Q1015=
201407092120 METAR ESMX 092120Z 04007KT CAVOK 20/13 Q1015=
201407092050 METAR ESMX 092050Z 05006KT 020V080 CAVOK 21/14 Q1015=
201407092020 METAR ESMX 092020Z 05008KT 020V090 CAVOK 22/13 Q1015=
201407091950 METAR ESMX 091950Z 04008KT 010V080 CAVOK 22/14 Q1015=
201407091920 METAR ESMX 091920Z 07007KT 030V100 CAVOK 23/14 Q1014=
201407091850 METAR ESMX 091850Z AUTO 06009KT 030V100 9999 NCD 23/13 Q1014=
201407091820 METAR ESMX 091820Z AUTO 06009KT 9999 NCD 24/14 Q1014=
201407091750 METAR ESMX 091750Z AUTO 05007KT 9999 FEW082/// 24/14 Q1014=
201407091720 METAR ESMX 091720Z AUTO 06008KT 020V100 9999 FEW064/// 25/14 Q1014=
201407091650 METAR ESMX 091650Z AUTO 07007KT 030V110 9999 FEW054/// 26/13 Q1013=
201407091620 METAR ESMX 091620Z 07010KT 030V100 CAVOK 27/11 Q1013=
201407091550 METAR ESMX 091550Z 05012KT 020V080 CAVOK 27/10 Q1013=
201407091520 METAR ESMX 091520Z 05010KT 030V100 CAVOK 27/11 Q1013=
201407091450 METAR ESMX 091450Z 04012KT 020V080 CAVOK 27/11 Q1014=
201407091420 METAR ESMX 091420Z 06010KT 020V120 CAVOK 27/12 Q1014=
201407091350 METAR COR ESMX 091350Z 05011KT 020V080 CAVOK 27/13 Q1014=
201407091320 METAR COR ESMX 091320Z 07009KT 030V130 CAVOK 28/12 Q1014=
201407091250 METAR ESMX 091250Z 05012KT 020V090 CAVOK 28/13 Q1014=
201407091220 METAR ESMX 091220Z AUTO 04010KT 010V070 9999 SCT053/// 28/14 Q1014=
201407091150 METAR ESMX 091150Z AUTO 07010KT 030V120 9999 SCT054/// 27/13 Q1014=
201407091120 METAR ESMX 091120Z AUTO 05011KT 020V080 9999 FEW055/// 27/14 Q1014=
201407091050 METAR ESMX 091050Z AUTO 06011KT 030V110 9999 NCD 28/13 Q1014=
201407091020 METAR ESMX 091020Z 07012KT 030V120 9999 FEW030 27/13 Q1014=
201407090950 METAR ESMX 090950Z 07013KT 030V110 9999 FEW030 27/12 Q1014=
201407090920 METAR ESMX 090920Z 05011G22KT 020V120 9999 FEW028 27/13 Q1014=
201407090850 METAR ESMX 090850Z 06012G22KT 030V090 CAVOK 26/14 Q1014=
201407090820 METAR ESMX 090820Z 05011KT 020V100 CAVOK 26/15 Q1014=
201407090750 METAR COR ESMX 090750Z 06010KT 020V100 CAVOK 26/16 Q1014=
201407090720 METAR ESMX 090720Z 04010KT CAVOK 24/16 Q1014=
201407090650 METAR ESMX 090650Z 04010KT 020V080 CAVOK 23/16 Q1014=
201407090620 METAR ESMX 090620Z 04010KT CAVOK 22/16 Q1014=
201407090550 METAR ESMX 090550Z 05009KT 020V080 CAVOK 21/16 Q1014=
201407090520 METAR ESMX 090520Z 05009KT CAVOK 21/16 Q1013=
201407090450 METAR ESMX 090450Z 04010KT CAVOK 20/16 Q1013=
201407090420 METAR ESMX 090420Z 04008KT 010V070 CAVOK 20/16 Q1013=
201407090350 METAR ESMX 090350Z 04007KT CAVOK 19/16 Q1013=
201407090320 METAR ESMX 090320Z AUTO 04008KT 9999 NCD 19/16 Q1013=
201407090250 METAR ESMX 090250Z AUTO 05008KT 9999 NCD 19/16 Q1013=
201407090220 METAR ESMX 090220Z AUTO 05007KT 020V090 9999 NCD 20/16 Q1013=
201407090150 METAR ESMX 090150Z AUTO 06007KT 9999 NCD 20/16 Q1013=
201407090120 METAR ESMX 090120Z 05007KT 010V080 CAVOK 20/15 Q1013=
201407090050 METAR ESMX 090050Z 05006KT CAVOK 20/15 Q1013=
201407090020 METAR ESMX 090020Z 06007KT CAVOK 20/15 Q1013=
201407082350 METAR ESMX 082350Z 04007KT 010V070 CAVOK 20/15 Q1013=
201407082320 METAR ESMX 082320Z 06008KT CAVOK 21/15 Q1013=
201407082250 METAR ESMX 082250Z 04007KT 360V080 CAVOK 21/15 Q1013=
201407082220 METAR ESMX 082220Z 06007KT CAVOK 21/15 Q1013=
201407082150 METAR ESMX 082150Z AUTO 06007KT 020V080 9999 NCD 21/15 Q1013=
201407082120 METAR ESMX 082120Z 06007KT 030V090 CAVOK 21/15 Q1013=
201407082050 METAR ESMX 082050Z 06006KT 030V090 CAVOK 22/15 Q1013=
201407082020 METAR ESMX 082020Z 06006KT 020V100 CAVOK 22/15 Q1014=
201407081950 METAR ESMX 081950Z 06006KT 030V100 CAVOK 22/15 Q1014=
201407081920 METAR ESMX 081920Z 07006KT 030V100 CAVOK 23/15 Q1014=
201407081850 METAR ESMX 081850Z AUTO 08007KT 040V110 9999 NCD 23/14 Q1014=
201407081820 METAR ESMX 081820Z AUTO 07007KT 030V110 9999 NCD 24/15 Q1013=
201407081750 METAR ESMX 081750Z AUTO 08007KT 050V130 9999 NCD 25/15 Q1013=
201407081720 METAR ESMX 081720Z AUTO 09010KT 050V120 9999 NCD 25/14 Q1013=
201407081650 METAR ESMX 081650Z AUTO VRB08KT 320V140 9999 FEW035/// 25/16 Q1013=
201407081620 METAR ESMX 081620Z 10008KT 050V170 9999 FEW037 26/17 Q1013=
201407081550 METAR ESMX 081550Z 08008KT 030V140 9999 SCT038 26/17 Q1013=
201407081520 METAR COR ESMX 081520Z 09008KT 050V140 9999 SCT047 26/16 Q1012=
201407081450 METAR ESMX 081450Z 09010KT 040V160 CAVOK 27/15 Q1013=
201407081420 METAR ESMX 081420Z 08011KT 020V140 CAVOK 27/15 Q1013=
201407081350 METAR COR ESMX 081350Z 09010KT 050V120 9999 FEW045 28/13 Q1013=
201407081320 METAR ESMX 081320Z 09010KT 030V150 9999 FEW040 SCT048 26/15 Q1013=
201407081250 METAR ESMX 081250Z 09010KT 050V140 9999 SCT040 27/16 Q1013=
201407081220 METAR ESMX 081220Z 09010G21KT 050V140 9999 SCT037 27/17 Q1013=
201407081150 METAR ESMX 081150Z AUTO 09009KT 040V140 9999 FEW110/// 26/17 Q1014=
201407081120 METAR ESMX 081120Z AUTO 08010KT 050V130 9999 FEW039/// 26/17 Q1014=
201407081050 METAR ESMX 081050Z AUTO 09009KT 040V140 9999 FEW040/// 27/17 Q1014=
201407081020 METAR ESMX 081020Z AUTO 09008KT 050V160 9999 FEW040/// SCT049/// 27/17 Q1014=
201407080950 METAR ESMX 080950Z AUTO 07008KT 030V150 9999 FEW041/// 26/17 Q1014=
201407080920 METAR ESMX 080920Z 07008KT 030V120 9999 FEW025 SCT037 27/17 Q1014=
201407080850 METAR ESMX 080850Z 08009KT 050V150 9999 FEW035 27/17 Q1014=
201407080820 METAR COR ESMX 080820Z 07007KT 030V120 CAVOK 26/18 Q1014=
201407080750 METAR ESMX 080750Z 05007KT 020V100 CAVOK 25/17 Q1015=
201407080720 METAR ESMX 080720Z 05005KT 010V110 CAVOK 24/17 Q1015=
201407080650 METAR ESMX 080650Z 03007KT 010V070 CAVOK 23/16 Q1015=
201407080620 METAR ESMX 080620Z 03006KT CAVOK 21/16 Q1015=
201407080550 METAR ESMX 080550Z 05006KT 020V080 CAVOK 20/16 Q1015=
201407080520 METAR ESMX 080520Z AUTO 05006KT 030V100 9999 NCD 20/16 Q1016=
201407080450 METAR ESMX 080450Z AUTO 04006KT 9999 NCD 19/16 Q1016=
201407080420 METAR ESMX 080420Z AUTO 04006KT 9999 NCD 18/16 Q1016=
201407080350 METAR ESMX 080350Z AUTO 05005KT 9999 NCD 17/16 Q1016=
201407080320 METAR ESMX 080320Z AUTO 04005KT 9999 NCD 17/15 Q1016=
201407080250 METAR ESMX 080250Z AUTO 04004KT 9000 BR NCD 17/16 Q1016=
201407080220 METAR ESMX 080220Z AUTO 03004KT 9000 BR NCD 17/16 Q1016=
201407080150 METAR ESMX 080150Z AUTO 06003KT 6000 NCD 17/16 Q1017=
201407080120 METAR ESMX 080120Z AUTO 07005KT 9999 NCD 18/16 Q1017=
201407080050 METAR ESMX 080050Z AUTO 08004KT 9999 NCD 18/16 Q1017=
201407080020 METAR ESMX 080020Z AUTO 08005KT 9999 NCD 18/17 Q1017=
201407072350 METAR ESMX 072350Z 07004KT CAVOK 18/16 Q1017=
201407072320 METAR ESMX 072320Z 07003KT CAVOK 18/16 Q1017=
201407072251 METAR ESMX 072251Z 08003KT CAVOK 19/17 Q1017=
201407072220 METAR ESMX 072220Z 07003KT CAVOK 19/17 Q1017=
201407072150 METAR ESMX 072150Z 00000KT CAVOK 18/16 Q1017=
201407072120 METAR ESMX 072120Z VRB02KT CAVOK 19/18 Q1017=
201407072050 METAR ESMX 072050Z VRB02KT 9999 VCFG NSC 19/18 Q1017=
201407072020 METAR ESMX 072020Z AUTO 34002KT 9999 NCD 19/18 Q1017=
201407071950 METAR ESMX 071950Z 04005KT CAVOK 21/18 Q1017=
201407071920 METAR ESMX 071920Z 01004KT CAVOK 22/18 Q1017=
201407071850 METAR ESMX 071850Z AUTO 36003KT 9999 NCD 22/18 Q1017=
201407071820 METAR ESMX 071820Z AUTO 31004KT 9999 NCD 23/18 Q1017=
201407071750 METAR ESMX 071750Z AUTO 31007KT 9999 NCD 23/18 Q1017=
201407071720 METAR ESMX 071720Z AUTO 28007KT 9999 NCD 24/18 Q1017=
201407071650 METAR ESMX 071650Z AUTO 26007KT 9999 NCD 24/18 Q1017=
201407071620 METAR ESMX 071620Z 19007KT CAVOK 26/16 Q1016=
201407071550 METAR ESMX 071550Z 18008KT CAVOK 26/16 Q1016=
201407071520 METAR ESMX 071520Z 18010KT 120V200 CAVOK 28/15 Q1016=
201407071450 METAR ESMX 071450Z 15008KT 9999 SCT048 28/15 Q1016=
201407071420 METAR ESMX 071420Z 15009KT 110V190 CAVOK 29/16 Q1016=
201407071350 METAR ESMX 071350Z 17009KT 130V190 9999 FEW046 SCT067 28/15 Q1016=
201407071320 METAR ESMX 071320Z 16007KT 140V200 CAVOK 27/15 Q1016=
201407071250 METAR ESMX 071250Z 17009KT CAVOK 28/15 Q1016=
201407071220 METAR COR ESMX 071220Z 16008KT CAVOK 28/15 Q1016=
201407071150 METAR ESMX 071150Z AUTO 16008KT 9999 FEW046/// 28/15 Q1016=
201407071120 METAR ESMX 071120Z AUTO 17008KT 120V200 9999 FEW044/// 28/15 Q1016=
201407071050 METAR ESMX 071050Z AUTO 18008KT 140V210 9999 NCD 28/16 Q1016=
201407071020 METAR ESMX 071020Z 17008KT 120V200 CAVOK 27/16 Q1016=
201407070950 METAR ESMX 070950Z 15008KT 110V190 CAVOK 27/16 Q1016=
201407070920 METAR ESMX 070920Z 15006KT 080V210 CAVOK 26/17 Q1016=
201407070850 METAR ESMX 070850Z 14005KT 080V220 CAVOK 25/16 Q1016=
201407070820 METAR ESMX 070820Z 15006KT 100V190 CAVOK 25/16 Q1016=
201407070750 METAR ESMX 070750Z 14007KT 080V160 CAVOK 24/16 Q1016=
201407070720 METAR ESMX 070720Z 14006KT 080V170 CAVOK 23/15 Q1015=
201407070650 METAR ESMX 070650Z 12006KT 070V170 CAVOK 22/15 Q1015=
201407070620 METAR ESMX 070620Z 13004KT 070V170 CAVOK 21/15 Q1015=
201407070550 METAR COR ESMX 070550Z 15004KT 110V190 CAVOK 21/15 Q1015=
201407070520 METAR ESMX 070520Z 13002KT CAVOK 20/15 Q1015=
201407070450 METAR ESMX 070450Z VRB03KT 050V230 CAVOK 20/15 Q1015=
201407070420 METAR ESMX 070420Z VRB03KT CAVOK 18/15 Q1015=
201407070350 METAR ESMX 070350Z 12003KT 090V180 CAVOK 16/15 Q1015=
201407070320 METAR ESMX 070320Z AUTO 09003KT 9999 NCD 16/15 Q1015=
201407070250 METAR ESMX 070250Z AUTO VRB02KT 9999 NCD 15/14 Q1015=
201407070220 METAR ESMX 070220Z AUTO VRB02KT 9999 NCD 15/13 Q1015=
201407070150 METAR ESMX 070150Z AUTO 13003KT 9999 NCD 16/15 Q1015=
201407070120 METAR ESMX 070120Z AUTO 13003G17KT 090V160 9999 NCD 17/15 Q1015=
201407070050 METAR ESMX 070050Z AUTO 14005KT 9999 NCD 18/15 Q1014=
201407070020 METAR ESMX 070020Z AUTO 14004KT 9999 NCD 18/15 Q1014=
201407062350 METAR ESMX 062350Z AUTO 13004KT 9999 NCD 18/15 Q1014=
201407062320 METAR ESMX 062320Z 12003KT CAVOK 18/15 Q1014=
201407062250 METAR ESMX 062250Z 14004KT CAVOK 18/15 Q1014=
201407062220 METAR ESMX 062220Z 14004KT CAVOK 19/16 Q1014=
201407062150 METAR ESMX 062150Z 14005KT CAVOK 19/16 Q1013=
201407062120 METAR ESMX 062120Z 15005KT CAVOK 20/16 Q1013=
201407062050 METAR COR ESMX 062050Z 14006KT CAVOK 21/16 Q1013=
201407062023 METAR ESMX 062023Z 15005KT CAVOK 22/16 Q1013=
201407061950 METAR ESMX 061950Z 15005KT 9999 FEW050TCU 22/17 Q1013=
201407061920 METAR ESMX 061920Z 16007KT 9999 FEW050TCU 23/17 Q1013=
201407061850 METAR ESMX 061850Z 18007KT 9999 FEW050TCU 24/17 Q1012=
201407061820 METAR ESMX 061820Z 18007KT 9999 FEW050TCU 25/16 Q1012=
201407061750 METAR ESMX 061750Z 17008KT 9999 FEW050TCU 26/15 Q1012=
201407061720 METAR ESMX 061720Z 17005KT 130V200 9999 FEW050TCU 27/14 Q1012=
201407061650 METAR ESMX 061650Z 19005KT 140V220 9999 FEW045 27/14 Q1011=
201407061620 METAR ESMX 061620Z AUTO 18004KT 130V230 9999 FEW100/// 27/14 Q1011=
201407061550 METAR ESMX 061550Z 21006KT 9999 FEW045TCU SCT080 26/15 Q1011=
201407061520 METAR ESMX 061520Z 18006KT 150V240 9999 SCT045TCU SCT080 27/13 Q1011=
201407061450 METAR ESMX 061450Z 22004KT 160V260 9999 FEW045TCU SCT090 28/14 Q1011=
201407061420 METAR COR ESMX 061420Z 16002KT 9999 FEW045TCU SCT090 26/15 Q1011=
201407061350 METAR ESMX 061350Z 16004KT 9999 FEW045TCU SCT060 26/15 Q1011=
201407061320 METAR ESMX 061320Z AUTO 16005KT 110V210 9999 FEW045/// SCT070/// 27/14 Q1011=
201407061250 METAR ESMX 061250Z AUTO 14005KT 070V170 9999 FEW083/// 27/14 Q1011=
201407061220 METAR ESMX 061220Z AUTO 14005KT 080V160 9999 FEW083/// 27/15 Q1011=
201407061150 METAR ESMX 061150Z AUTO 17005KT 120V210 9999 FEW046/// 26/15 Q1011=
201407061120 METAR ESMX 061120Z AUTO 17007KT 100V210 9999 FEW043/// SCT090/// 27/15 Q1011=
201407061050 METAR ESMX 061050Z AUTO 18007KT 120V230 9999 FEW066/// 26/15 Q1011=
201407061020 METAR ESMX 061020Z AUTO 17004KT 110V210 9999 FEW057/// 24/15 Q1011=
201407060950 METAR ESMX 060950Z AUTO 17005KT 9999 FEW070/// 24/15 Q1011=
201407060920 METAR ESMX 060920Z AUTO VRB03KT 9999 FEW057/// SCT100/// 23/15 Q1011=
201407060850 METAR ESMX 060850Z AUTO 09004KT 050V160 9999 FEW054/// 24/15 Q1011=
201407060820 METAR ESMX 060820Z AUTO 09003KT 9999 FEW062/// SCT100/// 23/15 Q1011=
201407060750 METAR ESMX 060750Z AUTO 11004KT 070V190 9999 FEW100/// 23/14 Q1010=
201407060720 METAR ESMX 060720Z AUTO 15003KT 070V230 9999 FEW055/// 22/14 Q1010=
201407060650 METAR ESMX 060650Z AUTO 13002KT 9999 FEW056/// 21/15 Q1010=
201407060620 METAR ESMX 060620Z AUTO 06003KT 020V090 9999 NCD 20/14 Q1010=
201407060550 METAR ESMX 060550Z AUTO 04003KT 010V110 9999 NCD 19/14 Q1010=
201407060520 METAR ESMX 060520Z AUTO 08003KT 9999 NCD 17/14 Q1010=
201407060450 METAR ESMX 060450Z AUTO 09003KT 050V110 9999 FEW062/// 17/14 Q1009=
201407060420 METAR ESMX 060420Z AUTO 09003KT 020V130 9999 NCD 17/13 Q1010=
201407060350 METAR ESMX 060350Z AUTO 08003KT 050V120 9999 NCD 16/13 Q1009=
201407060320 METAR ESMX 060320Z AUTO 10004KT 060V140 9999 NCD 16/13 Q1009=
201407060250 METAR ESMX 060250Z AUTO 10004KT 9999 NCD 16/13 Q1009=
201407060220 METAR ESMX 060220Z AUTO 08005KT 030V130 9999 NCD 17/13 Q1009=
201407060150 METAR ESMX 060150Z AUTO 09005KT 9999 NCD 17/13 Q1009=
201407060120 METAR ESMX 060120Z AUTO 07004KT 040V110 9999 NCD 17/13 Q1009=
201407060050 METAR ESMX 060050Z AUTO 10004KT 050V150 9999 NCD 17/13 Q1009=
201407060020 METAR ESMX 060020Z AUTO 12003KT 060V170 9999 NCD 18/13 Q1009=
201407052350 METAR ESMX 052350Z AUTO 09003KT 020V120 9999 NCD 17/13 Q1009=
201407052320 METAR ESMX 052320Z AUTO 06004KT 020V130 9999 NCD 18/13 Q1009=
201407052250 METAR ESMX 052250Z AUTO 08004KT 020V120 9999 NCD 18/13 Q1009=
201407052220 METAR ESMX 052220Z AUTO 08003KT 030V120 9999 NCD 17/13 Q1009=
201407052150 METAR ESMX 052150Z AUTO 08004KT 050V140 9999 NCD 18/13 Q1010=
201407052120 METAR ESMX 052120Z AUTO 10003KT 060V140 9999 NCD 18/13 Q1010=
201407052050 METAR ESMX 052050Z AUTO 10004KT 050V170 9999 NCD 19/13 Q1010=
201407052020 METAR ESMX 052020Z AUTO 11004KT 060V160 9999 NCD 20/13 Q1010=
201407051950 METAR ESMX 051950Z AUTO 11004KT 060V170 9999 NCD 21/12 Q1009=
201407051920 METAR ESMX 051920Z AUTO 10004KT 060V150 9999 NCD 21/13 Q1009=
201407051850 METAR ESMX 051850Z AUTO 10004KT 050V150 9999 NCD 22/13 Q1009=
201407051820 METAR ESMX 051820Z AUTO 11006KT 080V150 9999 NCD 23/12 Q1009=
201407051750 METAR ESMX 051750Z AUTO 12007KT 080V180 9999 NCD 24/13 Q1009=
201407051720 METAR ESMX 051720Z AUTO 13007KT 080V170 9999 NCD 24/12 Q1009=
201407051650 METAR ESMX 051650Z AUTO 13009KT 100V160 9999 NCD 25/12 Q1009=
201407051620 METAR ESMX 051620Z AUTO 12008KT 060V170 9999 NCD 26/12 Q1009=
201407051550 METAR ESMX 051550Z AUTO 13008KT 080V170 9999 NCD 26/12 Q1009=
201407051520 METAR ESMX 051520Z AUTO 13007KT 080V170 9999 NCD 26/12 Q1009=
201407051450 METAR ESMX 051450Z AUTO 13009KT 100V170 9999 NCD 26/12 Q1009=
201407051420 METAR ESMX 051420Z AUTO 14007KT 070V180 9999 NCD 27/12 Q1009=
201407051350 METAR ESMX 051350Z AUTO 12008KT 060V170 9999 NCD 27/12 Q1009=
201407051320 METAR ESMX 051320Z AUTO 12007KT 070V170 9999 NCD 27/12 Q1009=
201407051250 METAR ESMX 051250Z AUTO 13006KT 030V200 9999 FEW076/// 27/12 Q1009=
201407051220 METAR ESMX 051220Z AUTO 12008KT 080V170 9999 FEW077/// 26/12 Q1009=
201407051150 METAR ESMX 051150Z AUTO 15008KT 100V170 9999 FEW078/// 25/11 Q1009=
201407051120 METAR ESMX 051120Z AUTO 12007KT 060V170 9999 FEW053/// 25/12 Q1009=
201407051050 METAR ESMX 051050Z AUTO 13007KT 080V160 9999 FEW064/// 24/12 Q1009=
201407051020 METAR ESMX 051020Z AUTO 12008KT 060V160 9999 FEW051/// 24/12 Q1009=
201407050950 METAR ESMX 050950Z AUTO 13009KT 070V170 9999 FEW080/// 25/12 Q1009=
201407050920 METAR ESMX 050920Z AUTO 12008KT 080V170 9999 FEW110/// 26/12 Q1009=
201407050850 METAR ESMX 050850Z AUTO 11007KT 060V160 9999 FEW059/// 24/11 Q1009=
201407050820 METAR ESMX 050820Z AUTO 09007KT 020V140 9999 FEW082/// 24/10 Q1009=
201407050750 METAR ESMX 050750Z AUTO 11006KT 060V150 9999 NCD 24/12 Q1010=
201407050720 METAR ESMX 050720Z AUTO 10006KT 050V150 9999 NCD 23/11 Q1010=
201407050650 METAR ESMX 050650Z AUTO 08004KT 020V110 9999 NCD 21/13 Q1010=
201407050620 METAR ESMX 050620Z AUTO 05003KT 020V090 9999 NCD 20/13 Q1010=
201407050550 METAR ESMX 050550Z AUTO VRB03KT 9999 FEW059/// 20/12 Q1010=
201407050520 METAR ESMX 050520Z AUTO 09004KT 060V140 9999 NCD 18/12 Q1010=
201407050450 METAR ESMX 050450Z AUTO 08004KT 050V120 9999 NCD 16/11 Q1011=
201407050420 METAR ESMX 050420Z AUTO VRB02KT 9999 NCD 13/12 Q1011=
201407050350 METAR ESMX 050350Z AUTO 07002KT 9999 NCD 11/10 Q1011=
201407050320 METAR ESMX 050320Z AUTO 35002KT 9999 NCD 10/09 Q1011=
201407050250 METAR ESMX 050250Z AUTO 35002KT 9999 NCD 10/09 Q1011=
201407050220 METAR ESMX 050220Z AUTO VRB02KT 6000 NCD 10/09 Q1011=
201407050150 METAR ESMX 050150Z AUTO VRB02KT 9999 NCD 09/08 Q1012=
201407050120 METAR ESMX 050120Z AUTO VRB02KT 9999 NCD 11/09 Q1012=
201407050050 METAR ESMX 050050Z AUTO 14004KT 9999 NCD 11/09 Q1012=
201407050020 METAR ESMX 050020Z AUTO 14005KT 9999 NCD 12/10 Q1012=
201407042350 METAR ESMX 042350Z AUTO 14004KT 9999 NCD 12/10 Q1012=
201407042320 METAR ESMX 042320Z AUTO 14003KT 9999 NCD 13/10 Q1012=
201407042250 METAR ESMX 042250Z AUTO 15004KT 9999 NCD 15/11 Q1012=
201407042220 METAR ESMX 042220Z AUTO 16005KT 9999 NCD 16/11 Q1013=
201407042150 METAR ESMX 042150Z AUTO 15006KT 9999 NCD 17/11 Q1013=
201407042120 METAR ESMX 042120Z AUTO 15006KT 9999 NCD 17/10 Q1013=
201407042050 METAR ESMX 042050Z AUTO 15005KT 9999 NCD 18/11 Q1013=
201407042020 METAR ESMX 042020Z 15006KT CAVOK 18/11 Q1012=
201407041950 METAR ESMX 041950Z 15006KT CAVOK 19/12 Q1012=
201407041920 METAR ESMX 041920Z 16006KT 120V190 CAVOK 20/13 Q1012=
201407041850 METAR ESMX 041850Z 16007KT CAVOK 21/13 Q1012=
201407041826 METAR ESMX 041826Z 16007KT CAVOK 22/13 Q1012=
201407041820 METAR ESMX 041820Z AUTO 16008KT 9999 FEW059/// 22/13 Q1012=
201407041750 METAR ESMX 041750Z 17007KT 9999 FEW045 23/12 Q1012=
201407041720 METAR ESMX 041720Z AUTO 13003KT 9999 NCD 23/12 Q1012=
201407041650 METAR ESMX 041650Z 20006KT 9999 FEW045 23/11 Q1012=
201407041623 METAR ESMX 041623Z 21006KT 9999 SCT048 23/12 Q1012=
201407041550 METAR ESMX 041550Z 19008KT 9999 FEW043 SCT069 23/11 Q1012=
201407041520 METAR ESMX 041520Z 21008KT 9999 SCT042 BKN059 24/12 Q1013=
201407041450 METAR ESMX 041450Z 21007KT 160V260 9999 FEW040 SCT047 BKN069 23/12 Q1013=
201407041420 METAR ESMX 041420Z 19008KT 160V220 9999 FEW040 SCT050 BKN068 22/12 Q1013=
201407041350 METAR ESMX 041350Z 20008KT 160V230 9999 FEW040 SCT047 BKN059 22/12 Q1013=
201407041320 METAR ESMX 041320Z 20007KT 170V260 9999 SCT040 BKN074 22/12 Q1013=
201407041250 METAR ESMX 041250Z 21008KT 9999 SCT040 BKN071 21/11 Q1014=
201407041220 METAR ESMX 041220Z AUTO 22009KT 9999 FEW041/// BKN050/// 22/12 Q1014=
201407041150 METAR ESMX 041150Z 21008KT 160V260 9999 FEW037 SCT046 BKN052 21/12 Q1014=
201407041120 METAR ESMX 041120Z 21006KT 160V240 9999 SCT031 BKN044 20/12 Q1014=
201407041050 METAR ESMX 041050Z 22008KT 170V270 9999 SCT032 BKN044 21/12 Q1014=
201407041020 METAR ESMX 041020Z 22008KT 190V270 9999 FEW030 SCT036 BKN042 21/12 Q1014=
201407040950 METAR ESMX 040950Z 22007KT 190V260 9999 FEW027 BKN040 20/13 Q1014=
201407040920 METAR ESMX 040920Z 23008KT 200V280 9999 FEW026 SCT039 BKN044 19/12 Q1015=
201407040850 METAR ESMX 040850Z 22008KT 190V250 9999 FEW018 SCT035 BKN047 19/13 Q1015=
201407040820 METAR ESMX 040820Z 23007KT 190V260 9999 FEW016 SCT020 BKN045 18/13 Q1015=
201407040750 METAR ESMX 040750Z 20008KT 9999 FEW014 SCT020 BKN033 16/13 Q1015=
201407040720 METAR ESMX 040720Z 21009KT 9999 FEW015 SCT020 BKN034 17/13 Q1015=
201407040650 METAR ESMX 040650Z AUTO 21009KT 9999 FEW016/// SCT025/// 16/13 Q1015=
201407040620 METAR ESMX 040620Z AUTO 23007KT 9999 FEW011/// SCT018/// 16/13 Q1015=
201407040550 METAR ESMX 040550Z AUTO 23006KT 200V280 9999 FEW010/// BKN050/// 16/13 Q1015=
201407040520 METAR ESMX 040520Z AUTO 22006KT 9999 FEW008/// SCT011/// BKN023/// 15/13 Q1015=
201407040450 METAR ESMX 040450Z AUTO 22005KT 180V260 9999 FEW006/// SCT011/// BKN014/// 15/13 Q1015=
201407040420 METAR ESMX 040420Z AUTO 20007KT 9999 FEW006/// SCT008/// BKN009/// 15/13 Q1015=
201407040350 METAR ESMX 040350Z AUTO 20007KT 9999 FEW007/// SCT009/// BKN010/// 15/13 Q1015=
201407040320 METAR ESMX 040320Z AUTO 19006KT 9999 FEW009/// SCT015/// BKN051/// 15/13 Q1015=
201407040250 METAR ESMX 040250Z AUTO 21006KT 9999 FEW009/// SCT011/// BKN015/// 14/13 Q1015=
201407040220 METAR ESMX 040220Z AUTO 22007KT 9999 FEW012/// SCT016/// BKN022/// 15/13 Q1014=
201407040150 METAR ESMX 040150Z AUTO 22007KT 9999 FEW009/// SCT020/// BKN025/// 14/13 Q1014=
201407040120 METAR ESMX 040120Z AUTO 22007KT 9999 FEW008/// SCT012/// BKN014/// 15/13 Q1014=
201407040050 METAR ESMX 040050Z AUTO 20007KT 9999 FEW010/// SCT012/// BKN015/// 15/13 Q1015=
201407040020 METAR ESMX 040020Z AUTO 22007KT 9999 FEW010/// SCT012/// BKN015/// 15/13 Q1015=
201407032350 METAR ESMX 032350Z 21007KT 9999 FEW010 BKN013 OVC018 15/13 Q1015=
201407032320 METAR ESMX 032320Z 22007KT 9999 SCT010 BKN035 15/13 Q1015=
201407032250 METAR ESMX 032250Z 23007KT 9999 FEW012 SCT036 OVC071 15/13 Q1015=
201407032220 METAR ESMX 032220Z 23006KT 9999 FEW011 BKN014 15/13 Q1015=
201407032150 METAR ESMX 032150Z 23006KT 9999 BKN011 15/13 Q1015=
201407032120 METAR ESMX 032120Z 23006KT 9999 BKN012 15/13 Q1015=
201407032050 METAR ESMX 032050Z 24006KT 9999 FEW016 BKN020 BKN037 15/13 Q1015 RESHRA=
201407032020 METAR ESMX 032020Z 28007KT 220V320 9999 -SHRA FEW006 SCT019CB BKN033 15/13 Q1015=
201407031950 METAR ESMX 031950Z 23011KT 9999 SCT018CB BKN022 16/12 Q1014=
201407031920 METAR ESMX 031920Z 22011KT 9999 SCT021 BKN035 16/12 Q1014=
201407031850 METAR ESMX 031850Z 22010KT 9999 SCT022 BKN032 16/12 Q1014=
201407031820 METAR COR ESMX 031820Z 23008KT 200V260 9999 FEW015 BKN022 16/12 Q1014=
201407031750 METAR ESMX 031750Z 22011KT 9999 OVC022 16/12 Q1014=
201407031720 METAR COR ESMX 031720Z 22011KT 9999 OVC024 16/12 Q1014=
201407031650 METAR ESMX 031650Z 22013KT 9999 FEW015 BKN025 16/12 Q1015=
201407031620 METAR ESMX 031620Z 21012KT 9999 FEW015 BKN025 16/12 Q1015=
201407031550 METAR ESMX 031550Z 22010KT 9999 FEW019 SCT026 BKN031 16/12 Q1015=
201407031520 METAR ESMX 031520Z 22011KT 9999 FEW020 BKN027 16/12 Q1015=
201407031450 METAR ESMX 031450Z 21014KT 9999 SCT020 BKN025 17/12 Q1015=
201407031420 METAR ESMX 031420Z 22012KT 9999 OVC019 16/11 Q1016=
201407031350 METAR ESMX 031350Z 22014KT 9999 SCT015 BKN020 16/11 Q1016=
201407031320 METAR ESMX 031320Z 20014KT 9999 SCT015 BKN020 15/11 Q1016=
201407031250 METAR ESMX 031250Z 20014KT 9999 SCT015 BKN035 15/11 Q1016=
201407031220 METAR ESMX 031220Z 20015KT 9999 SCT015 BKN035 15/11 Q1016=
201407031150 METAR ESMX 031150Z AUTO 20014KT 9999 FEW017/// SCT020/// BKN024/// 15/12 Q1016=
201407031120 METAR ESMX 031120Z 21013KT 170V240 9999 FEW017 SCT020 BKN023 16/12 Q1016=
201407031050 METAR ESMX 031050Z 20012KT 9999 FEW014 SCT018 BKN024 15/12 Q1016=
201407031020 METAR ESMX 031020Z 20010KT 9999 FEW009 SCT016 BKN018 15/13 Q1016=
201407030950 METAR ESMX 030950Z 22009KT 9999 FEW009 SCT015 BKN045 14/13 Q1016=
201407030920 METAR COR ESMX 030920Z 22010KT 9999 -RA FEW011 SCT014 BKN018 14/12 Q1016 REDZ=
201407030850 METAR ESMX 030850Z 23010KT 9999 -RA FEW010 SCT014 BKN020 15/12 Q1016 REDZ=
201407030820 METAR ESMX 030820Z 23011KT 9999 RA FEW017 SCT019 BKN021 15/12 Q1016=
201407030750 METAR COR ESMX 030750Z 24010KT 200V260 9999 FEW017 BKN020 15/11 Q1016=
201407030720 METAR ESMX 030720Z 23012KT 210V280 9999 BKN014 15/11 Q1016=
201407030650 METAR ESMX 030650Z 23010KT 9999 OVC014 14/11 Q1016=
201407030620 METAR ESMX 030620Z 25010KT 9999 FEW014 BKN017 14/10 Q1016=
201407030550 METAR ESMX 030550Z 24010KT 210V280 9999 SCT013 BKN023 14/10 Q1016=
201407030520 METAR ESMX 030520Z 23009KT 9999 FEW013 BKN023 13/10 Q1016=
201407030450 METAR ESMX 030450Z 23008KT 9999 FEW014 BKN023 13/10 Q1016=
201407030420 METAR ESMX 030420Z 23009KT 200V260 9999 FEW015 13/10 Q1016=
201407030350 METAR ESMX 030350Z 23007KT 190V250 9999 FEW019 BKN025 12/10 Q1016=
201407030320 METAR ESMX 030320Z AUTO 24007KT 9999 OVC023/// 12/10 Q1016=
201407030250 METAR ESMX 030250Z AUTO 22006KT 9999 OVC024/// 12/11 Q1016=
201407030220 METAR ESMX 030220Z AUTO 23005KT 9999 OVC024/// 12/11 Q1016=
201407030150 METAR ESMX 030150Z AUTO 23004KT 180V260 9999 FEW009/// OVC025/// 11/10 Q1016=
201407030120 METAR ESMX 030120Z AUTO 23004KT 9999 SCT028/// 11/10 Q1016=
201407030050 METAR ESMX 030050Z AUTO 24005KT 210V280 9999 FEW024/// 12/10 Q1016=
201407030020 METAR ESMX 030020Z AUTO 27008KT 9999 NCD 12/10 Q1016=
201407022350 METAR ESMX 022350Z 25007KT 9999 FEW009 12/11 Q1016=
201407022320 METAR ESMX 022320Z 23006KT CAVOK 11/10 Q1016=
201407022250 METAR ESMX 022250Z 22006KT CAVOK 11/10 Q1016=
201407022220 METAR ESMX 022220Z 23006KT CAVOK 11/10 Q1015=
201407022150 METAR ESMX 022150Z 23005KT CAVOK 11/10 Q1015=
201407022120 METAR ESMX 022120Z 23006KT CAVOK 12/10 Q1015=
201407022050 METAR ESMX 022050Z 24005KT CAVOK 12/10 Q1015=
201407022020 METAR ESMX 022020Z 23005KT CAVOK 12/10 Q1015=
201407021950 METAR ESMX 021950Z 24006KT CAVOK 13/10 Q1015=
201407021920 METAR ESMX 021920Z 25005KT CAVOK 14/11 Q1015=
201407021850 METAR ESMX 021850Z 26005KT CAVOK 14/11 Q1015=
201407021820 METAR ESMX 021820Z 27008KT 240V300 CAVOK 15/11 Q1015=
201407021750 METAR ESMX 021750Z 26008KT CAVOK 15/11 Q1015=
201407021720 METAR ESMX 021720Z 24008KT 200V270 CAVOK 16/11 Q1014=
201407021650 METAR ESMX 021650Z 23007KT 200V260 9999 FEW027 SCT062 BKN079 14/12 Q1015 RESHRA=
201407021620 METAR ESMX 021620Z 21008KT 9999 FEW031 SCT069 14/11 Q1014=
201407021550 METAR ESMX 021550Z 19010KT 9999 FEW040CB 16/12 Q1014=
201407021520 METAR ESMX 021520Z 19009KT 9999 FEW045 16/11 Q1015=
201407021450 METAR ESMX 021450Z 16006KT 140V200 9999 FEW032 SCT054 BKN087 15/12 Q1015=
201407021420 METAR COR ESMX 021420Z 18006KT 9999 FEW038CB 15/12 Q1015=
201407021350 METAR ESMX 021350Z VRB03KT 9999 FEW025CB SCT070 15/11 Q1014=
201407021320 METAR ESMX 021320Z 05005KT 9999 FEW017CB SCT044 OVC054 13/12 Q1014 RESHRA=
201407021250 METAR COR ESMX 021250Z 02008KT 340V060 8000 SHRA FEW032CB SCT061 BKN097 16/10 Q1014=
201407021220 METAR ESMX 021220Z 36007KT 9999 -SHRA FEW036 17/08 Q1014=
201407021150 METAR ESMX 021150Z 28007KT 240V320 9999 FEW027CB SCT065 18/09 Q1014 RESHRA=
201407021120 METAR COR ESMX 021120Z 27006KT 9999 -SHRA FEW034CB SCT070 15/09 Q1014=
201407021050 METAR ESMX 021050Z 26004KT 230V300 9999 VCTS FEW025 SCT050 16/10 Q1014=
201407021020 METAR ESMX 021020Z 29009KT 9999 FEW025 SCT040CB 16/08 Q1014=
201407020950 METAR ESMX 020950Z AUTO 31007KT 280V340 9999 FEW030/// SCT100/// 17/07 Q1014=
201407020920 METAR ESMX 020920Z 28006KT 210V330 9999 FEW025CB BKN035TCU 18/10 Q1014=
201407020850 METAR COR ESMX 020850Z 29006KT 250V330 9999 FEW025TCU BKN050 17/10 Q1014=
201407020820 METAR ESMX 020820Z 29007KT 250V320 CAVOK 16/09 Q1014=
201407020750 METAR ESMX 020750Z AUTO 29006KT 230V320 9999 SCT095/// 16/10 Q1014=
201407020720 METAR ESMX 020720Z 27005KT 240V310 CAVOK 15/11 Q1014=
201407020650 METAR ESMX 020650Z 29004KT 260V340 CAVOK 15/11 Q1014=
201407020620 METAR ESMX 020620Z AUTO VRB03KT 9999 BKN091/// 14/11 Q1014=
201407020550 METAR ESMX 020550Z 27003KT 250V310 CAVOK 13/10 Q1014=
201407020520 METAR ESMX 020520Z VRB02KT CAVOK 12/10 Q1014=
201407020450 METAR ESMX 020450Z VRB01KT CAVOK 11/10 Q1014=
201407020420 METAR ESMX 020420Z VRB03KT CAVOK 11/10 Q1014=
201407020350 METAR ESMX 020350Z 28002KT CAVOK 10/09 Q1014=
201407020320 METAR ESMX 020320Z AUTO VRB02KT 9999 BKN077/// 09/08 Q1014=
201407020250 METAR ESMX 020250Z AUTO 17002KT 9999 OVC080/// 08/08 Q1014=
201407020220 METAR ESMX 020220Z AUTO 21003KT 9999 BKN077/// 07/06 Q1014=
201407020150 METAR ESMX 020150Z AUTO VRB02KT 9999 BKN085/// 08/07 Q1014=
201407020120 METAR ESMX 020120Z VRB02KT CAVOK 08/07 Q1014=
201407020050 METAR ESMX 020050Z 00000KT CAVOK 07/06 Q1014=
201407020020 METAR ESMX 020020Z 27003KT CAVOK 08/07 Q1014=
201407012350 METAR ESMX 012350Z 19003KT 9999 MIFG SCT063 07/06 Q1014=
201407012320 METAR ESMX 012320Z AUTO 00000KT 4400 BR NCD 08/07 Q1014=
201407012250 METAR ESMX 012250Z 16002KT CAVOK 09/08 Q1014=
201407012220 METAR ESMX 012220Z 00000KT CAVOK 09/08 Q1014=
201407012150 METAR ESMX 012150Z 00000KT CAVOK 10/08 Q1014=
201407012120 METAR ESMX 012120Z 20003KT CAVOK 10/09 Q1014=
201407012050 METAR ESMX 012050Z 21003KT CAVOK 09/08 Q1014=
201407012020 METAR ESMX 012020Z 17003KT CAVOK 11/09 Q1014=
201407011950 METAR ESMX 011950Z 00000KT CAVOK 12/09 Q1014=
201407011920 METAR COR ESMX 011920Z 00000KT CAVOK 14/10 Q1013=
201407011850 METAR ESMX 011850Z 06004KT 030V110 9999 SCT045 15/10 Q1013=
201407011820 METAR ESMX 011820Z 10005KT 070V140 9999 FEW047 14/10 Q1013=
201407011750 METAR COR ESMX 011750Z 09005KT 040V120 9999 FEW045 15/11 Q1013=
201407011720 METAR COR ESMX 011720Z 03012KT 9999 FEW034CB 14/10 Q1013=
201407011650 METAR ESMX 011650Z 03003KT 330V090 9999 SCT040CB SCT060 16/08 Q1013=
201407011620 METAR ESMX 011620Z 19009KT 9999 FEW040CB SCT060 17/08 Q1012=
201407011550 METAR ESMX 011550Z 22008KT 9999 FEW040CB SCT060 19/07 Q1012=
201407011520 METAR ESMX 011520Z 23008KT 190V260 9999 FEW045CB SCT060 19/07 Q1012=
201407011454 METAR ESMX 011454Z 25008KT 200V290 9999 BKN045CB BKN060 20/07 Q1012=
201407011450 METAR ESMX 011450Z AUTO 23009KT 9999 BKN047/// 20/06 Q1012=
201407011420 METAR ESMX 011420Z 24010KT 200V280 9999 FEW030CB BKN050 20/07 Q1012=
201407011350 METAR ESMX 011350Z 29006KT 260V010 9999 FEW040CB SCT060 19/07 Q1012=
201407011320 METAR ESMX 011320Z 22005KT 190V250 9999 FEW040CB SCT100 18/06 Q1012=
201407011250 METAR ESMX 011250Z 27007KT 9999 FEW040CB SCT070 19/06 Q1012=
201407011220 METAR ESMX 011220Z 24006KT 200V280 9999 FEW040 SCT053 BKN093 19/06 Q1012=
