##########################################################
# Query made at 04/19/2024 21:40:07 UTC
# Time interval: from 06/01/2014 12:00  to 06/30/2014 12:59  UTC
##########################################################

##########################################################
# ESMX, Vaxjo (Sweden)
# WMO index: 02641. WIGOS ID: 0-20000-0-02648
# Latitude 56-51N. Longitude 014-50E. Altitude 199 m.
##########################################################

201406301250 METAR ESMX 301250Z 28005KT 240V330 9999 SCT049 BKN077 18/09 Q1007=
201406301220 METAR ESMX 301220Z 27008KT 240V310 9999 FEW038 SCT043 BKN076 18/09 Q1008=
201406301150 METAR ESMX 301150Z 28007KT 9999 FEW046 SCT058 BKN068 18/08 Q1008=
201406301120 METAR ESMX 301120Z 30007KT 250V320 9999 SCT035 BKN061 18/09 Q1008=
201406301050 METAR ESMX 301050Z 27008KT 220V310 9999 FEW026 SCT041 BKN071 18/08 Q1008=
201406301020 METAR ESMX 301020Z 29007KT 250V010 9999 FEW026 SCT033 BKN069 18/09 Q1008=
201406300950 METAR ESMX 300950Z 29007KT 240V320 9999 FEW024 SCT030 17/10 Q1008=
201406300920 METAR ESMX 300920Z 28008KT 250V330 9999 FEW020 SCT023 16/11 Q1007=
201406300850 METAR ESMX 300850Z 26007KT 9999 FEW017 SCT035 BKN050 15/11 Q1007=
201406300820 METAR ESMX 300820Z 25008KT 230V290 9999 FEW020 SCT027 BKN030 15/11 Q1007=
201406300750 METAR ESMX 300750Z 33005KT 290V020 9999 SCT017 16/11 Q1007=
201406300720 METAR ESMX 300720Z 28006KT 240V350 9999 SCT016 15/11 Q1007=
201406300650 METAR ESMX 300650Z 30007KT 260V330 9999 SCT024 14/11 Q1006=
201406300620 METAR ESMX 300620Z 28006KT 9999 SCT010 14/11 Q1006=
201406300550 METAR ESMX 300550Z 27006KT 9999 FEW005 SCT015 14/11 Q1006=
201406300520 METAR ESMX 300520Z 29006KT 9999 BKN006 13/12 Q1006=
201406300450 METAR ESMX 300450Z 28006KT 9999 BKN005 13/12 Q1006=
201406300420 METAR ESMX 300420Z 27004KT 230V290 9999 SCT004 BKN030 12/12 Q1006=
201406300350 METAR ESMX 300350Z 31004KT 9999 SCT004 BKN030 12/12 Q1006=
201406300320 METAR ESMX 300320Z AUTO 31005KT 280V340 9999 R01///// R19/P2000N ////// 12/11 Q1005=
201406300250 METAR ESMX 300250Z AUTO 30005KT 260V330 0650 R01///// R19/0900V1500U ////// 12/11 Q1005=
201406300220 METAR ESMX 300220Z AUTO 29003KT 250V330 0750 R01///// R19/1200V1900N ////// 11/11 Q1005=
201406300150 METAR ESMX 300150Z AUTO 28004KT 1000 R01///// R19/P2000N ////// 12/11 Q1005=
201406300120 METAR ESMX 300120Z AUTO 26005KT 6000 R01///// R19/P2000N ////// 12/12 Q1005=
201406300050 METAR ESMX 300050Z AUTO 22003KT 3700 R01///// R19/P2000N ////// 12/11 Q1005=
201406300020 METAR ESMX 300020Z AUTO 23004KT 9999 R01///// R19/P2000N ////// 12/11 Q1005=
201406292350 METAR ESMX 292350Z AUTO 24003KT 9999 R01///// R19/P2000N ////// 12/11 Q1005=
201406292320 METAR ESMX 292320Z 18003KT 9999 FEW004 SCT010 12/11 Q1005=
201406292250 METAR ESMX 292250Z 16004KT 9999 FEW004 SCT010 13/12 Q1005=
201406292220 METAR ESMX 292220Z 18004KT 9999 SCT004 BKN010 13/12 Q1005=
201406292150 METAR ESMX 292150Z 16003KT 8000 BR FEW004 BKN006 13/12 Q1005=
201406292120 METAR ESMX 292120Z 12002KT 9999 BKN004 13/12 Q1004=
201406292050 METAR ESMX 292050Z VRB03KT 9999 SCT004 BKN006 13/12 Q1004=
201406292020 METAR ESMX 292020Z VRB03KT 9999 SCT010 BKN060 13/12 Q1004=
201406291956 METAR ESMX 291956Z 18004KT 9999 FEW030 BKN060 13/12 Q1004=
201406291950 METAR ESMX 291950Z AUTO 18005KT 9999 R01///// R19/P2000N ////// 13/12 Q1004=
201406291920 METAR ESMX 291920Z 17004KT 9999 FEW030 BKN070 13/12 Q1004=
201406291850 METAR ESMX 291850Z 20004KT 9999 FEW030 BKN070 13/12 Q1004=
201406291820 METAR ESMX 291820Z 19004KT 9999 FEW030 BKN070 13/11 Q1004=
201406291750 METAR ESMX 291750Z 20005KT 9999 FEW030 BKN070 14/11 Q1004=
201406291720 METAR ESMX 291720Z AUTO 20006KT 9999 R01///// R19/P2000N ////// 14/11 Q1004=
201406291650 METAR ESMX 291650Z 18004KT CAVOK 15/12 Q1004=
201406291620 METAR COR ESMX 291620Z 20003KT CAVOK 16/12 Q1004=
201406291550 METAR ESMX 291550Z VRB03KT 9999 FEW049 15/12 Q1004=
201406291520 METAR ESMX 291520Z VRB03KT 9999 BKN047 14/12 Q1004 RESHRA=
201406291450 METAR ESMX 291450Z 25006KT 9999 -SHRA FEW025CB BKN030 15/12 Q1004=
201406291420 METAR ESMX 291420Z VRB02KT 9999 BKN025 18/11 Q1004=
201406291350 METAR ESMX 291350Z 35005KT 310V020 9999 BKN030 17/12 Q1004=
201406291320 METAR ESMX 291320Z 35004KT 320V060 9999 FEW024 SCT048 17/11 Q1004=
201406291250 METAR ESMX 291250Z 04004KT 330V100 9999 FEW020 17/11 Q1004=
201406291220 METAR ESMX 291220Z AUTO 06004KT 020V120 9999 ////// 17/12 Q1004=
201406291150 METAR ESMX 291150Z AUTO 08004KT 020V120 9999 ////// 17/12 Q1004=
201406291120 METAR ESMX 291120Z AUTO 07004KT 010V120 9999 ////// 17/12 Q1004=
201406291050 METAR ESMX 291050Z AUTO 07002KT 9999 ////// 17/12 Q1004=
201406291020 METAR ESMX 291020Z AUTO VRB03KT 9999 ////// 16/12 Q1004=
201406290950 METAR ESMX 290950Z AUTO 01004KT 9999 ////// 15/12 Q1005=
201406290920 METAR ESMX 290920Z AUTO 35004KT 9999 ////// 15/12 Q1005=
201406290850 METAR ESMX 290850Z AUTO 01006KT 9999 ////// 15/12 Q1005=
201406290820 METAR ESMX 290820Z AUTO 36005KT 9999 ////// 14/12 Q1005=
201406290750 METAR ESMX 290750Z AUTO 02003KT 340V070 9999 ////// 14/12 Q1004=
201406290720 METAR ESMX 290720Z AUTO 07003KT 9999 ////// 14/12 Q1005=
201406290650 METAR ESMX 290650Z AUTO VRB02KT 9999 ////// 14/12 Q1005=
201406290620 METAR ESMX 290620Z AUTO 10003KT 050V120 9999 ////// 13/12 Q1005=
201406290550 METAR ESMX 290550Z AUTO VRB01KT 9999 ////// 13/12 Q1005=
201406290520 METAR ESMX 290520Z AUTO VRB01KT 9999 ////// 13/12 Q1005=
201406290450 METAR ESMX 290450Z AUTO VRB01KT 9000 ////// 12/11 Q1006=
201406290420 METAR ESMX 290420Z AUTO VRB01KT 0200 R01/0800V1100N R19/0400N FG ////// 11/11 Q1006=
201406290350 METAR ESMX 290350Z AUTO 00000KT 1200 R01/P2000N R19/0800VP2000N BR ////// 10/10 Q1006=
201406290320 METAR ESMX 290320Z AUTO 00000KT 6000 BR ////// 10/09 Q1006=
201406290250 METAR ESMX 290250Z AUTO VRB02KT 6000 ////// 09/09 Q1006=
201406290220 METAR ESMX 290220Z AUTO 17003KT 0250 R01/P2000N R19/0800V1200N BCFG ////// 09/09 Q1006=
201406290150 METAR ESMX 290150Z AUTO 00000KT 0200 R01/0600N R19/P2000N FG ////// 08/07 Q1006=
201406290120 METAR ESMX 290120Z AUTO 15003KT 4500 BR ////// 09/08 Q1006=
201406290050 METAR ESMX 290050Z AUTO 00000KT 1000 R01/P2000N R19/P2000N BCFG ////// 09/08 Q1006=
201406290020 METAR ESMX 290020Z AUTO 00000KT 0350 R01/P2000N R19/0750V1800D BCFG ////// 08/07 Q1006=
201406282350 METAR ESMX 282350Z AUTO 17003KT 0150 R01/P2000N R19/0400V0900N BCFG ////// 08/08 Q1006=
201406282320 METAR ESMX 282320Z AUTO 18003KT 0300 R01/0800VP2000N R19/0800V1300U FG ////// 09/09 Q1007=
201406282250 METAR ESMX 282250Z AUTO VRB01KT 0500 R01/P2000N R19/0900VP2000N BR ////// 10/09 Q1007=
201406282220 METAR ESMX 282220Z AUTO 18004KT 5000 ////// 11/10 Q1007=
201406282150 METAR ESMX 282150Z AUTO 19003KT 9999 ////// 11/10 Q1007=
201406282120 METAR ESMX 282120Z AUTO 18004KT 8000 BR ////// 12/11 Q1007=
201406282050 METAR ESMX 282050Z AUTO 19004KT 9999 ////// 12/11 Q1008=
201406282020 METAR ESMX 282020Z AUTO 16005KT 9999 ////// 12/11 Q1008=
201406281950 METAR ESMX 281950Z AUTO 17006KT 9999 ////// 12/11 Q1008=
201406281920 METAR ESMX 281920Z AUTO 16006KT 9999 ////// 13/11 Q1007=
201406281850 METAR ESMX 281850Z AUTO 15004KT 9999 ////// 13/11 Q1007=
201406281820 METAR ESMX 281820Z AUTO 16007KT 9999 ////// 14/11 Q1008=
201406281750 METAR ESMX 281750Z AUTO 18005KT 150V210 9999 ////// 14/11 Q1008=
201406281720 METAR ESMX 281720Z AUTO 14004KT 100V170 9999 ////// 14/11 Q1008=
201406281650 METAR ESMX 281650Z AUTO 16004KT 130V210 9999 ////// 13/11 Q1008=
201406281620 METAR ESMX 281620Z AUTO 16005KT 110V190 9999 ////// 12/11 Q1008=
201406281550 METAR ESMX 281550Z AUTO 16006KT 110V190 9999 -RA ////// 12/10 Q1008=
201406281520 METAR ESMX 281520Z AUTO 15011KT 9999 -RA ////// 12/10 Q1008=
201406281450 METAR ESMX 281450Z AUTO 16004KT 100V190 4300 RA ////// 14/12 Q1008=
201406281420 METAR ESMX 281420Z AUTO 14005KT 090V160 9999 -RA ////// 15/12 Q1008=
201406281350 METAR ESMX 281350Z AUTO 15008KT 120V180 9999 FEW012/// SCT015/// BKN017/// 15/12 Q1009=
201406281320 METAR ESMX 281320Z AUTO 15007KT 110V210 9999 BKN010/// OVC017/// 15/12 Q1008=
201406281250 METAR ESMX 281250Z AUTO 14008KT 100V180 9999 BKN010/// OVC017/// 15/12 Q1008=
201406281220 METAR ESMX 281220Z AUTO 14008KT 110V170 9999 FEW008/// BKN010/// OVC015/// 14/12 Q1009=
201406281150 METAR ESMX 281150Z AUTO 13008KT 090V170 9999 FEW007/// OVC009/// 14/12 Q1009=
201406281120 METAR ESMX 281120Z AUTO 14007KT 100V170 9999 BKN006/// OVC009/// 14/12 Q1009=
201406281050 METAR ESMX 281050Z AUTO 14006KT 100V180 9999 OVC006/// 13/11 Q1010=
201406281020 METAR ESMX 281020Z AUTO 14008KT 110V190 9999 OVC004/// 13/11 Q1010=
201406280950 METAR ESMX 280950Z AUTO 13007KT 080V180 9999 OVC004/// 12/11 Q1010=
201406280920 METAR ESMX 280920Z AUTO 13008KT 090V170 9999 OVC006/// 12/11 Q1010=
201406280850 METAR ESMX 280850Z AUTO 13007KT 070V160 9999 ////// 12/11 Q1011=
201406280820 METAR ESMX 280820Z 12006KT 070V170 9999 -DZ OVC005 12/11 Q1011 RERA=
201406280750 METAR ESMX 280750Z 12008KT 080V160 9999 OVC005 12/11 Q1011=
201406280720 METAR ESMX 280720Z 13007KT 090V160 9999 -RA OVC005 12/11 Q1011=
201406280650 METAR ESMX 280650Z 13007KT 080V180 9999 -RA OVC005 12/10 Q1012=
201406280620 METAR ESMX 280620Z 12008KT 090V170 9999 -DZ OVC005 11/10 Q1012=
201406280550 METAR ESMX 280550Z VRB07KT 310V160 9999 -RA OVC005 11/10 Q1012=
201406280520 METAR ESMX 280520Z AUTO 12006KT 070V170 9999 RA ////// 11/10 Q1012=
201406280450 METAR ESMX 280450Z AUTO 12005KT 050V160 9999 RA ////// 11/10 Q1013=
201406280420 METAR ESMX 280420Z AUTO 13006KT 070V160 9999 RA ////// 11/10 Q1013 RESHRA=
201406280350 METAR ESMX 280350Z AUTO 12007KT 080V160 9999 -RA ////// 11/10 Q1013=
201406280320 METAR ESMX 280320Z AUTO 14009KT 9999 -RA ////// 11/09 Q1014 REDZ=
201406280250 METAR ESMX 280250Z AUTO 13007KT 100V170 9999 ////// 11/09 Q1014 RESHUP=
201406280220 METAR ESMX 280220Z AUTO 13006KT 080V170 9999 ////// 11/09 Q1014=
201406280150 METAR ESMX 280150Z AUTO 12005KT 100V170 9999 ////// 11/09 Q1014=
201406280120 METAR ESMX 280120Z AUTO VRB05KT 340V170 9999 ////// 10/08 Q1014=
201406280050 METAR ESMX 280050Z AUTO 12005KT 090V150 9999 ////// 10/08 Q1015=
201406280020 METAR ESMX 280020Z AUTO 13005KT 100V160 9999 ////// 11/09 Q1015=
201406272350 METAR ESMX 272350Z AUTO 13005KT 090V170 9999 ////// 11/09 Q1015=
201406272320 METAR ESMX 272320Z AUTO 14006KT 110V170 9999 ////// 11/09 Q1016=
201406272250 METAR ESMX 272250Z AUTO 15005KT 110V180 9999 ////// 11/09 Q1016=
201406272220 METAR ESMX 272220Z AUTO 14006KT 9999 ////// 12/09 Q1016=
201406272150 METAR ESMX 272150Z AUTO 14005KT 9999 ////// 12/10 Q1016=
201406272120 METAR ESMX 272120Z AUTO 14004KT 9999 ////// 11/10 Q1016=
201406272050 METAR ESMX 272050Z AUTO 13003KT 100V170 9999 ////// 11/10 Q1016=
201406272020 METAR ESMX 272020Z 11002KT CAVOK 11/10 Q1016=
201406271950 METAR ESMX 271950Z 10003KT 030V140 CAVOK 11/10 Q1016=
201406271920 METAR ESMX 271920Z VRB03KT CAVOK 12/10 Q1016=
201406271850 METAR ESMX 271850Z 10004KT 070V130 CAVOK 12/10 Q1016=
201406271820 METAR ESMX 271820Z 10004KT CAVOK 12/10 Q1016=
201406271750 METAR COR ESMX 271750Z 10003KT CAVOK 12/10 Q1017=
201406271720 METAR ESMX 271720Z 10004KT 9999 -RA FEW033CB BKN077 11/10 Q1017 RERA=
201406271650 METAR ESMX 271650Z 25005KT 9999 -SHRA VCTS SCT030CB 11/10 Q1017=
201406271620 METAR ESMX 271620Z 15003KT 9999 -TSRA SCT030CB 12/11 Q1016=
201406271550 METAR ESMX 271550Z 16013KT 120V190 1000 +TSRA FEW010 BKN030CB 13/10 Q1017=
201406271530 METAR ESMX 271530Z 15012KT 9999 -TSRA SCT030CB SCT070 16/09 Q1016=
201406271520 METAR ESMX 271520Z AUTO 15007KT 100V170 9999 FEW045/// 17/09 Q1016=
201406271450 METAR ESMX 271450Z 14007KT 100V170 9999 FEW040CB BKN100 18/09 Q1016=
201406271420 METAR ESMX 271420Z AUTO 13008KT 090V160 9999 FEW047/// SCT069/// BKN081/// 17/09 Q1016=
201406271350 METAR ESMX 271350Z 13007KT 100V160 9999 FEW020 SCT040CB BKN080 16/09 Q1016=
201406271320 METAR ESMX 271320Z 15008KT 110V190 9999 TSRA FEW020 BKN050CB 16/09 Q1016=
201406271250 METAR ESMX 271250Z 15010KT 120V180 9999 VCTS SCT035CB SCT070 17/08 Q1016=
201406271220 METAR ESMX 271220Z 15008KT 110V180 9999 TS SCT030CB SCT050 19/09 Q1016=
201406271150 METAR ESMX 271150Z 14008KT 100V170 9999 TS FEW045CB SCT100 18/08 Q1016=
201406271120 METAR ESMX 271120Z 20007KT 9999 TSRA SCT028CB SCT060 17/07 Q1016=
201406271055 METAR ESMX 271055Z 21012KT 9999 TSRA SCT030CB SCT060 16/07 Q1016=
201406271050 METAR ESMX 271050Z AUTO 21012KT 9999 R01///// R19/P2000N FEW043/// SCT067/// BKN093/// 17/08 Q1016=
201406271020 METAR ESMX 271020Z 18007KT 150V220 9999 SCT035TCU 19/07 Q1017=
201406270950 METAR ESMX 270950Z 20006KT 150V250 9999 FEW035TCU SCT050 18/08 Q1017=
201406270920 METAR ESMX 270920Z 23004KT 160V260 9999 FEW035TCU SCT040 17/09 Q1017=
201406270850 METAR ESMX 270850Z 20005KT 130V240 9999 FEW031 SCT039 17/09 Q1017=
201406270820 METAR ESMX 270820Z 21004KT 140V280 9999 SCT031 18/08 Q1017=
201406270750 METAR ESMX 270750Z 24003KT 200V290 9999 FEW022 16/08 Q1017=
201406270720 METAR ESMX 270720Z 20005KT 160V270 9999 FEW022 15/09 Q1017=
201406270650 METAR ESMX 270650Z 18004KT 140V210 CAVOK 15/10 Q1017=
201406270621 METAR ESMX 270621Z 20003KT 150V250 CAVOK 14/10 Q1017=
201406270550 METAR ESMX 270550Z 18003KT CAVOK 14/10 Q1017=
201406270520 METAR ESMX 270520Z 19004KT 150V220 CAVOK 13/10 Q1017=
201406270450 METAR ESMX 270450Z VRB01KT CAVOK 12/10 Q1017=
201406270420 METAR ESMX 270420Z VRB02KT CAVOK 11/10 Q1017=
201406270350 METAR ESMX 270350Z 15002KT CAVOK 08/08 Q1017=
201406270320 METAR ESMX 270320Z AUTO 15003KT 3800 BCFG NCD 06/06 Q1017=
201406270250 METAR ESMX 270250Z AUTO 00000KT 0150 R01/P2000D R19/0450N FG NCD 07/06 Q1017=
201406270220 METAR ESMX 270220Z AUTO 20001KT 0200 R01/P2000N R19/0375V0700N FEW080/// 08/07 Q1017=
201406270150 METAR ESMX 270150Z AUTO VRB02KT 9999 OVC080/// 08/07 Q1017=
201406270120 METAR ESMX 270120Z AUTO 17003KT 9999 OVC080/// 08/07 Q1017=
201406270050 METAR ESMX 270050Z AUTO VRB01KT 9999 BKN085/// 09/08 Q1017=
201406270020 METAR COR ESMX 270020Z 05003KT CAVOK 10/08 Q1016=
201406262350 METAR COR ESMX 262350Z VRB02KT CAVOK 10/08 Q1016=
201406262320 METAR ESMX 262320Z 20008KT CAVOK 11/08 Q1016=
201406262250 METAR COR ESMX 262250Z 23006KT CAVOK 11/09 Q1016=
201406262220 METAR ESMX 262220Z 23006KT 9999 FEW018 BKN060 11/09 Q1017=
201406262150 METAR ESMX 262150Z 26006KT 9999 -DZ FEW023 SCT058 BKN062 11/10 Q1017=
201406262120 METAR COR ESMX 262120Z 25004KT CAVOK 10/09 Q1017=
201406262050 METAR ESMX 262050Z 25004KT 9999 FEW028 SCT032 BKN065 10/09 Q1017=
201406262020 METAR ESMX 262020Z 21002KT 9999 FEW026 SCT031 BKN100 11/09 Q1016=
201406261950 METAR ESMX 261950Z 10003KT 9999 FEW028 SCT045 BKN068 11/09 Q1016=
201406261920 METAR ESMX 261920Z 03004KT 9999 -RA FEW010 SCT024 BKN057 12/10 Q1016=
201406261850 METAR ESMX 261850Z 14003KT 9999 VCSH FEW023 SCT048 13/09 Q1016=
201406261820 METAR ESMX 261820Z VRB03KT 9999 VCSH SCT072CB BKN096 14/10 Q1016=
201406261750 METAR ESMX 261750Z VRB03KT CAVOK 15/09 Q1016=
201406261720 METAR ESMX 261720Z 15003KT CAVOK 15/09 Q1016=
201406261650 METAR ESMX 261650Z VRB02KT CAVOK 15/09 Q1016=
201406261620 METAR ESMX 261620Z 31003KT CAVOK 15/08 Q1016=
201406261550 METAR ESMX 261550Z 32005KT CAVOK 15/08 Q1016=
201406261520 METAR ESMX 261520Z 26005KT 9999 FEW025 16/09 Q1016=
201406261450 METAR ESMX 261450Z 26008KT 240V310 CAVOK 16/10 Q1016=
201406261420 METAR ESMX 261420Z AUTO 25007KT 9999 FEW045/// 15/09 Q1016=
201406261350 METAR ESMX 261350Z 27006KT 9999 FEW043 15/11 Q1016=
201406261320 METAR ESMX 261320Z 24008KT 9999 FEW045 SCT060 15/10 Q1016=
201406261250 METAR ESMX 261250Z 27008KT 9999 -RA FEW020 SCT045 13/10 Q1016=
201406261220 METAR ESMX 261220Z VRB05KT 060V290 9999 -RA FEW018 SCT040CB 11/09 Q1016=
201406261150 METAR ESMX 261150Z 21006KT 150V270 8000 SHRA FEW027 BKN049 11/08 Q1016=
201406261123 METAR ESMX 261123Z 26007KT 8000 TSRA BKN040CB 10/08 Q1016=
201406261050 METAR ESMX 261050Z 24010KT 9999 TS VCSH SCT034 BKN048 13/05 Q1016=
201406261020 METAR ESMX 261020Z 04004KT 290V090 9999 TS VCSH SCT035CB 19/07 Q1015=
201406260950 METAR ESMX 260950Z 07005KT 020V120 9999 SCT035CB 17/08 Q1015=
201406260920 METAR ESMX 260920Z 05003KT 020V110 9999 FEW040 17/09 Q1015=
201406260850 METAR COR ESMX 260850Z 08004KT 330V130 CAVOK 17/09 Q1015=
201406260820 METAR ESMX 260820Z VRB02KT CAVOK 15/09 Q1016=
201406260750 METAR COR ESMX 260750Z 36003KT 290V050 CAVOK 14/09 Q1016=
201406260720 METAR COR ESMX 260720Z VRB03KT CAVOK 14/10 Q1016=
201406260650 METAR ESMX 260650Z 36003KT 320V040 CAVOK 14/10 Q1015=
201406260620 METAR COR ESMX 260620Z 01004KT CAVOK 13/10 Q1015=
201406260550 METAR ESMX 260550Z VRB03KT CAVOK 11/10 Q1015=
201406260520 METAR COR ESMX 260520Z VRB02KT CAVOK 10/09 Q1015=
201406260450 METAR ESMX 260450Z 00000KT CAVOK 08/08 Q1015=
201406260420 METAR ESMX 260420Z 18002KT CAVOK 07/06 Q1015=
201406260350 METAR ESMX 260350Z 19002KT CAVOK 06/05 Q1015=
201406260320 METAR ESMX 260320Z 17002KT CAVOK 05/05 Q1015=
201406260250 METAR ESMX 260250Z AUTO 17002KT 2000 BR NCD 05/05 Q1015=
201406260220 METAR ESMX 260220Z AUTO 16002KT 9999 NCD 06/06 Q1015=
201406260150 METAR ESMX 260150Z AUTO 15002KT 7000 BR NCD 06/06 Q1015=
201406260120 METAR ESMX 260120Z AUTO 16003KT 9000 BR NCD 06/05 Q1015=
201406260050 METAR ESMX 260050Z 16002KT CAVOK 07/06 Q1015=
201406260020 METAR ESMX 260020Z 22003KT CAVOK 07/06 Q1015=
201406252350 METAR ESMX 252350Z 27003KT CAVOK 07/06 Q1015=
201406252320 METAR ESMX 252320Z VRB02KT CAVOK 08/07 Q1016=
201406252250 METAR ESMX 252250Z 23005KT CAVOK 09/07 Q1015=
201406252220 METAR ESMX 252220Z 22004KT CAVOK 09/08 Q1015=
201406252150 METAR ESMX 252150Z 19003KT CAVOK 09/07 Q1016=
201406252120 METAR ESMX 252120Z 14003KT CAVOK 10/08 Q1015=
201406252050 METAR ESMX 252050Z 18003KT CAVOK 11/09 Q1015=
201406252020 METAR ESMX 252020Z 23004KT CAVOK 11/09 Q1016=
201406251950 METAR ESMX 251950Z 23005KT CAVOK 11/09 Q1016=
201406251920 METAR COR ESMX 251920Z 22004KT CAVOK 12/09 Q1015=
201406251850 METAR ESMX 251850Z 19005KT 9999 FEW043 SCT100 13/09 Q1015=
201406251820 METAR ESMX 251820Z 16004KT 9999 SCT045 13/08 Q1015=
201406251750 METAR ESMX 251750Z 15004KT 030V170 9999 FEW040CB SCT045 13/09 Q1015=
201406251720 METAR ESMX 251720Z 20004KT 9999 SCT027 SCT040CB 13/10 Q1015=
201406251650 METAR ESMX 251650Z 27005KT 240V300 9999 -SHRA FEW027 SCT040CB 12/09 Q1015=
201406251620 METAR ESMX 251620Z 33012KT 300V010 9999 -SHRA FEW020 SCT040CB 14/07 Q1015=
201406251550 METAR ESMX 251550Z 08004KT 040V120 9999 VCSH SCT040CB 17/05 Q1014=
201406251520 METAR ESMX 251520Z 05008KT 020V110 CAVOK 18/04 Q1014=
201406251450 METAR ESMX 251450Z 04004KT 340V090 CAVOK 19/05 Q1014=
201406251420 METAR ESMX 251420Z 02003KT 340V080 CAVOK 19/04 Q1014=
201406251350 METAR ESMX 251350Z VRB04KT 290V200 CAVOK 20/04 Q1014=
201406251320 METAR COR ESMX 251320Z VRB03KT CAVOK 18/04 Q1015=
201406251250 METAR COR ESMX 251250Z 03006KT 360V100 CAVOK 20/04 Q1014=
201406251220 METAR COR ESMX 251220Z 02005KT 320V110 CAVOK 20/04 Q1015=
201406251150 METAR ESMX 251150Z 04005KT 360V110 CAVOK 19/04 Q1015=
201406251120 METAR ESMX 251120Z 05007KT 010V090 CAVOK 19/04 Q1015=
201406251050 METAR ESMX 251050Z 02007KT 360V060 CAVOK 19/05 Q1015=
201406251020 METAR ESMX 251020Z 02007KT 340V060 CAVOK 18/06 Q1015=
201406250950 METAR ESMX 250950Z 05008KT 010V100 CAVOK 18/06 Q1015=
201406250920 METAR ESMX 250920Z 04009KT 360V070 CAVOK 18/06 Q1015=
201406250850 METAR ESMX 250850Z 02009KT 350V050 CAVOK 17/06 Q1015=
201406250820 METAR ESMX 250820Z 03008KT 010V070 9999 FEW037 17/07 Q1015=
201406250750 METAR ESMX 250750Z 01008KT 340V050 CAVOK 16/07 Q1015=
201406250720 METAR ESMX 250720Z 01008KT 350V070 CAVOK 15/07 Q1015=
201406250650 METAR ESMX 250650Z 03007KT 360V060 CAVOK 15/08 Q1015=
201406250620 METAR ESMX 250620Z 04006KT CAVOK 14/08 Q1015=
201406250550 METAR ESMX 250550Z 03007KT 010V070 CAVOK 13/08 Q1015=
201406250520 METAR ESMX 250520Z 04006KT 010V070 CAVOK 12/07 Q1015=
201406250450 METAR ESMX 250450Z 02006KT CAVOK 11/08 Q1015=
201406250420 METAR ESMX 250420Z AUTO 35004KT 9999 NCD 10/09 Q1015=
201406250350 METAR ESMX 250350Z 01003KT CAVOK 05/05 Q1015=
201406250320 METAR ESMX 250320Z AUTO 01002KT 9999 NCD 03/03 Q1015=
201406250250 METAR ESMX 250250Z AUTO VRB01KT 0900 R01/P2000N R19/0800V1400N NCD 03/03 Q1015=
201406250220 METAR ESMX 250220Z AUTO 00000KT 9999 NCD 04/03 Q1015=
201406250150 METAR ESMX 250150Z AUTO 11001KT 9999 NCD 04/04 Q1015=
201406250120 METAR ESMX 250120Z AUTO 17002KT 9999 NCD 04/03 Q1015=
201406250050 METAR ESMX 250050Z AUTO 00000KT 9999 NCD 04/03 Q1015=
201406250020 METAR ESMX 250020Z AUTO 18002KT 9999 NCD 05/04 Q1015=
201406242350 METAR ESMX 242350Z 18003KT CAVOK 06/05 Q1015=
201406242320 METAR ESMX 242320Z VRB02KT CAVOK 06/05 Q1015=
201406242250 METAR ESMX 242250Z 16002KT CAVOK 07/06 Q1015=
201406242220 METAR ESMX 242220Z 00000KT CAVOK 07/06 Q1015=
201406242150 METAR ESMX 242150Z AUTO 00000KT 9999 NCD 07/06 Q1015=
201406242120 METAR ESMX 242120Z VRB02KT CAVOK 09/07 Q1015=
201406242050 METAR ESMX 242050Z 27003KT CAVOK 09/07 Q1015=
201406242020 METAR ESMX 242020Z 16002KT CAVOK 10/07 Q1015=
201406241950 METAR ESMX 241950Z 18004KT 9999 FEW030CB SCT090 11/07 Q1015=
201406241920 METAR ESMX 241920Z 19005KT CAVOK 13/07 Q1015=
201406241850 METAR ESMX 241850Z 15003KT 110V170 CAVOK 14/07 Q1015=
201406241820 METAR ESMX 241820Z AUTO 17007KT 9999 SCT063/// BKN098/// 14/07 Q1014=
201406241750 METAR ESMX 241750Z 11006KT 080V150 CAVOK 15/06 Q1014=
201406241720 METAR ESMX 241720Z 36005KT 330V050 CAVOK 19/03 Q1014=
201406241650 METAR ESMX 241650Z 35006KT CAVOK 17/05 Q1014=
201406241620 METAR ESMX 241620Z 04005KT 010V070 CAVOK 18/04 Q1014=
201406241550 METAR ESMX 241550Z 36006KT 330V040 CAVOK 18/04 Q1014=
201406241520 METAR ESMX 241520Z 35004KT 310V050 CAVOK 18/03 Q1014=
201406241450 METAR ESMX 241450Z 01007KT CAVOK 18/03 Q1014=
201406241420 METAR ESMX 241420Z 01003KT 320V050 CAVOK 18/04 Q1014=
201406241350 METAR ESMX 241350Z 02007KT 340V080 CAVOK 18/04 Q1014=
201406241320 METAR ESMX 241320Z 01007KT 330V060 9999 FEW026 BKN092 19/04 Q1014=
201406241250 METAR ESMX 241250Z 35010KT CAVOK 19/05 Q1014=
201406241220 METAR ESMX 241220Z 36007KT 330V030 CAVOK 19/05 Q1014=
201406241150 METAR ESMX 241150Z 35007KT 310V020 9999 FEW048 BKN078 18/05 Q1014=
201406241120 METAR ESMX 241120Z 02006KT 330V100 CAVOK 17/05 Q1014=
201406241050 METAR ESMX 241050Z 35008KT 9999 FEW046 SCT058 16/05 Q1014=
201406241020 METAR ESMX 241020Z 36008KT 330V050 9999 FEW046 SCT061 16/05 Q1014=
201406240950 METAR ESMX 240950Z 35008KT 320V030 CAVOK 17/06 Q1014=
201406240920 METAR ESMX 240920Z 01009KT 340V060 CAVOK 17/06 Q1014=
201406240851 METAR ESMX 240851Z 01010KT 340V050 CAVOK 16/05 Q1014=
201406240820 METAR ESMX 240820Z 01009KT 9999 SCT047 16/07 Q1014=
201406240750 METAR COR ESMX 240750Z 02011KT SCT035 16/06 Q1014=
201406240720 METAR ESMX 240720Z 36009KT 320V030 CAVOK 15/06 Q1014=
201406240650 METAR ESMX 240650Z 34010KT 320V020 CAVOK 14/07 Q1014=
201406240620 METAR ESMX 240620Z 35009KT CAVOK 14/07 Q1014=
201406240550 METAR ESMX 240550Z 33007KT CAVOK 11/07 Q1014=
201406240520 METAR ESMX 240520Z AUTO 31007KT 9999 BKN094/// 11/06 Q1014=
201406240450 METAR ESMX 240450Z 32007KT CAVOK 11/06 Q1014=
201406240420 METAR ESMX 240420Z 32005KT CAVOK 08/06 Q1014=
201406240353 METAR ESMX 240353Z VRB02KT CAVOK 07/05 Q1014=
201406240320 METAR ESMX 240320Z AUTO 31003KT 9999 SCT088/// 04/02 Q1014=
201406240250 METAR ESMX 240250Z AUTO 30003KT 9999 FEW053/// 04/03 Q1014=
201406240220 METAR ESMX 240220Z AUTO 34005KT 9999 FEW091/// 05/03 Q1013=
201406240150 METAR ESMX 240150Z AUTO 33004KT 9999 NCD 05/03 Q1013=
201406240120 METAR ESMX 240120Z AUTO 31005KT 9999 NCD 05/03 Q1014=
201406240050 METAR ESMX 240050Z AUTO 34005KT 9999 NCD 06/04 Q1014=
201406240020 METAR ESMX 240020Z 34006KT CAVOK 06/05 Q1014=
201406232357 METAR ESMX 232357Z 35003KT 9999 NSC 05/04 Q1014=
201406232350 METAR ESMX 232350Z 31003KT 9999 NSC 05/03 Q1014=
201406232320 METAR ESMX 232320Z 28002KT 9999 NSC 05/04 Q1014=
201406232257 METAR ESMX 232257Z VRB01KT 9999 NSC 05/04 Q1014=
201406232250 METAR ESMX 232250Z AUTO VRB02KT 9999 NCD 05/04 Q1014=
201406232220 METAR ESMX 232220Z 21002KT CAVOK 06/04 Q1013=
201406232150 METAR ESMX 232150Z 00000KT CAVOK 06/05 Q1013=
201406232120 METAR ESMX 232120Z 25003KT CAVOK 07/05 Q1013=
201406232050 METAR ESMX 232050Z 27003KT CAVOK 08/05 Q1013=
201406232020 METAR ESMX 232020Z 28004KT CAVOK 10/05 Q1013=
201406231950 METAR ESMX 231950Z 29005KT CAVOK 12/05 Q1013=
201406231920 METAR ESMX 231920Z 27005KT CAVOK 13/05 Q1013=
201406231850 METAR ESMX 231850Z 28007KT CAVOK 14/04 Q1013=
201406231820 METAR ESMX 231820Z 30007KT CAVOK 15/03 Q1013=
201406231750 METAR ESMX 231750Z AUTO 29009KT 9999 NCD 15/03 Q1013=
201406231720 METAR ESMX 231720Z 29009KT CAVOK 16/03 Q1012=
201406231650 METAR ESMX 231650Z 30010KT 270V340 CAVOK 16/03 Q1012=
201406231620 METAR ESMX 231620Z 30011KT CAVOK 16/01 Q1012=
201406231550 METAR ESMX 231550Z 30010KT 280V350 CAVOK 16/04 Q1012=
201406231520 METAR ESMX 231520Z 34011KT CAVOK 16/03 Q1013=
201406231450 METAR ESMX 231450Z 32011KT 290V350 CAVOK 16/02 Q1013=
201406231420 METAR ESMX 231420Z 30009KT 270V340 CAVOK 14/03 Q1013=
201406231350 METAR ESMX 231350Z 31008KT 280V350 9999 FEW046CB SCT061 14/05 Q1013=
201406231320 METAR ESMX 231320Z 32008KT 290V350 9999 FEW049CB BKN066 14/05 Q1013=
201406231250 METAR ESMX 231250Z 36007KT 300V030 9999 FEW033CB SCT110 13/06 Q1013=
201406231220 METAR ESMX 231220Z 02011KT 9999 FEW043CB SCT056 BKN077 12/06 Q1013=
201406231150 METAR ESMX 231150Z 07004KT 020V120 9999 FEW048CB SCT067 BKN079 14/07 Q1012=
201406231120 METAR ESMX 231120Z 03008KT 9999 FEW006 FEW045CB 14/05 Q1012=
201406231050 METAR ESMX 231050Z 33008KT 300V030 9999 FEW042CB SCT072 14/05 Q1012=
201406231020 METAR ESMX 231020Z 26010KT 9999 FEW058CB 16/06 Q1012=
201406230950 METAR ESMX 230950Z 29007KT 250V350 9999 -SHRA FEW047CB SCT056 BKN069 14/04 Q1012=
201406230920 METAR ESMX 230920Z 29006KT 240V350 9999 FEW035 SCT045 15/04 Q1012=
201406230850 METAR ESMX 230850Z 29005KT 240V350 9999 FEW045 15/05 Q1012=
201406230820 METAR ESMX 230820Z 28005KT 250V330 CAVOK 14/06 Q1013=
201406230750 METAR ESMX 230750Z 25004KT 210V280 CAVOK 12/07 Q1012=
201406230720 METAR ESMX 230720Z 25003KT CAVOK 11/06 Q1012=
201406230650 METAR ESMX 230650Z 28003KT 240V320 CAVOK 10/06 Q1012=
201406230620 METAR ESMX 230620Z 28003KT CAVOK 09/06 Q1012=
201406230550 METAR ESMX 230550Z 27003KT CAVOK 09/06 Q1012=
201406230520 METAR ESMX 230520Z 27002KT CAVOK 09/06 Q1012=
201406230450 METAR ESMX 230450Z VRB03KT CAVOK 08/06 Q1012=
201406230420 METAR ESMX 230420Z 17003KT CAVOK 07/05 Q1012=
201406230350 METAR ESMX 230350Z 00000KT CAVOK 06/05 Q1012=
201406230320 METAR ESMX 230320Z AUTO 00000KT 9999 NCD 04/03 Q1011=
201406230250 METAR ESMX 230250Z AUTO VRB02KT 9999 NCD 04/03 Q1011=
201406230220 METAR ESMX 230220Z AUTO 23003KT 9999 NCD 03/02 Q1011=
201406230150 METAR ESMX 230150Z AUTO 00000KT 9999 NCD 04/03 Q1011=
201406230120 METAR ESMX 230120Z AUTO 25002KT 9999 NCD 05/03 Q1011=
201406230050 METAR ESMX 230050Z AUTO 24002KT 9999 FEW100/// 05/04 Q1011=
201406230020 METAR ESMX 230020Z AUTO 24003KT 9999 NCD 05/03 Q1011=
201406222350 METAR ESMX 222350Z AUTO 26003KT 9999 NCD 05/03 Q1011=
201406222320 METAR ESMX 222320Z 25002KT CAVOK 05/04 Q1011=
201406222250 METAR ESMX 222250Z 26004KT CAVOK 06/04 Q1011=
201406222220 METAR COR ESMX 222220Z 26005KT CAVOK 06/03 Q1011=
201406222150 METAR COR ESMX 222150Z 27003KT CAVOK 07/04 Q1011=
201406222120 METAR ESMX 222120Z 27004KT CAVOK 06/05 Q1011=
201406222050 METAR ESMX 222050Z 26003KT CAVOK 08/05 Q1011=
201406222020 METAR ESMX 222020Z AUTO 25004KT 9999 FEW074/// 09/06 Q1011=
201406221950 METAR ESMX 221950Z 25003KT 9999 FEW030 11/05 Q1011=
201406221920 METAR ESMX 221920Z 29004KT 270V330 9999 FEW025 12/05 Q1011=
201406221850 METAR ESMX 221850Z 33008KT 300V360 9999 FEW028CB 13/05 Q1010=
201406221820 METAR COR ESMX 221820Z 25004KT 9999 FEW027CB 12/06 Q1010=
201406221750 METAR ESMX 221750Z 26006KT 9999 FEW049 13/06 Q1010 RESHRA=
201406221720 METAR ESMX 221720Z 27010KT 9999 -SHRA FEW027CB 14/06 Q1009=
201406221650 METAR ESMX 221650Z 26010KT CAVOK 15/06 Q1009=
201406221620 METAR ESMX 221620Z 24010KT CAVOK 14/06 Q1009=
201406221550 METAR ESMX 221550Z 22009KT CAVOK 15/07 Q1009=
201406221520 METAR ESMX 221520Z 25009KT 210V280 9999 VCTS NSC 14/06 Q1009=
201406221450 METAR ESMX 221450Z 26006KT 230V320 CAVOK 15/06 Q1009=
201406221420 METAR ESMX 221420Z 25009KT 210V280 CAVOK 14/06 Q1009=
201406221350 METAR ESMX 221350Z 27009KT 250V310 CAVOK 15/03 Q1008=
201406221320 METAR ESMX 221320Z 29009KT CAVOK 16/02 Q1008=
201406221250 METAR ESMX 221250Z 32013KT CAVOK 17/03 Q1008=
201406221220 METAR ESMX 221220Z AUTO 29012KT 260V330 9999 FEW065/// SCT076/// BKN100/// 15/01 Q1008=
201406221150 METAR ESMX 221150Z AUTO 31012KT 280V350 9999 FEW058/// SCT100/// 17/02 Q1008=
201406221120 METAR ESMX 221120Z AUTO 29012G22KT 250V320 9999 FEW064/// BKN077/// 15/01 Q1008=
201406221050 METAR ESMX 221050Z AUTO 29011KT 9999 FEW053/// SCT089/// 15/02 Q1008=
201406221020 METAR ESMX 221020Z AUTO 29013KT 9999 FEW058/// SCT075/// 16/02 Q1008=
201406220950 METAR ESMX 220950Z AUTO 28011KT 9999 BKN068/// 16/05 Q1008=
201406220920 METAR ESMX 220920Z AUTO 29010KT 9999 SCT050/// BKN070/// 15/05 Q1008=
201406220850 METAR ESMX 220850Z AUTO 28012KT 250V320 9999 SCT050/// 15/04 Q1008=
201406220820 METAR ESMX 220820Z AUTO 29011KT 9999 FEW065/// 14/05 Q1008=
201406220750 METAR ESMX 220750Z AUTO 27007KT 240V320 9999 NCD 14/05 Q1008=
201406220720 METAR ESMX 220720Z AUTO 27007KT 240V300 9999 NCD 13/07 Q1008=
201406220650 METAR ESMX 220650Z AUTO 28007KT 9999 FEW089/// 12/08 Q1008=
201406220620 METAR ESMX 220620Z AUTO 26008KT 9999 BKN086/// 11/07 Q1008=
201406220550 METAR ESMX 220550Z AUTO 27008KT 9999 BKN086/// 10/07 Q1008=
201406220520 METAR ESMX 220520Z AUTO 26007KT 9999 BKN086/// 09/07 Q1007=
201406220450 METAR ESMX 220450Z AUTO 25005KT 9999 FEW088/// 08/06 Q1007=
201406220420 METAR ESMX 220420Z AUTO 25005KT 9999 NCD 07/06 Q1007=
201406220350 METAR ESMX 220350Z AUTO 25004KT 9999 NCD 06/05 Q1007=
201406220320 METAR ESMX 220320Z AUTO 25005KT 9999 NCD 05/04 Q1007=
201406220250 METAR ESMX 220250Z AUTO 26005KT 9999 NCD 05/04 Q1007=
201406220220 METAR ESMX 220220Z AUTO 26004KT 9999 NCD 05/04 Q1007=
201406220150 METAR ESMX 220150Z AUTO 25006KT 9999 NCD 05/03 Q1007=
201406220120 METAR ESMX 220120Z AUTO 26005KT 9999 NCD 06/04 Q1007=
201406220050 METAR ESMX 220050Z AUTO 27005KT 9999 NCD 06/04 Q1007=
201406220020 METAR ESMX 220020Z AUTO 26005KT 9999 SCT090/// 06/05 Q1007=
201406212350 METAR ESMX 212350Z AUTO 26004KT 9999 BKN090/// 07/05 Q1007=
201406212320 METAR ESMX 212320Z AUTO 25004KT 9999 FEW092/// 07/05 Q1007=
201406212250 METAR ESMX 212250Z AUTO 26006KT 9999 BKN096/// 08/07 Q1007=
201406212220 METAR ESMX 212220Z AUTO 25005KT 9999 BKN090/// 08/07 Q1007=
201406212150 METAR ESMX 212150Z AUTO 26005KT 9999 BKN093/// 08/07 Q1007=
201406212120 METAR ESMX 212120Z AUTO 26006KT 9999 FEW094/// 08/07 Q1007=
201406212050 METAR ESMX 212050Z AUTO 26005KT 9999 NCD 08/07 Q1007=
201406212020 METAR ESMX 212020Z AUTO 26006KT 9999 NCD 09/07 Q1007=
201406211950 METAR ESMX 211950Z AUTO 27006KT 9999 FEW098/// 09/08 Q1007=
201406211920 METAR ESMX 211920Z AUTO 26007KT 9999 FEW100/// 10/08 Q1006=
201406211850 METAR ESMX 211850Z AUTO 25005KT 220V290 9999 SCT089/// 10/09 Q1006=
201406211820 METAR ESMX 211820Z AUTO 26004KT 9999 SCT084/// 10/08 Q1006=
201406211750 METAR ESMX 211750Z AUTO 28003KT 9999 SCT082/// 11/08 Q1006=
201406211720 METAR ESMX 211720Z AUTO 30003KT 270V350 9999 BKN072/// 12/08 Q1006=
201406211650 METAR ESMX 211650Z AUTO 33006KT 9999 FEW012/// SCT073/// 11/08 Q1006=
201406211620 METAR ESMX 211620Z AUTO 35007KT 9999 FEW010/// SCT017/// 11/08 Q1006=
201406211550 METAR ESMX 211550Z AUTO 02008KT 9999 FEW008/// SCT010/// 10/08 Q1006=
201406211520 METAR ESMX 211520Z AUTO 03005KT 9999 -RA FEW046/// 10/09 Q1006=
201406211450 METAR ESMX 211450Z AUTO 03007KT 9999 -RA FEW006/// SCT008/// BKN012/// 10/08 Q1006=
201406211420 METAR ESMX 211420Z AUTO 02009KT 9999 -RA BKN006/// OVC009/// 09/08 Q1006=
201406211350 METAR ESMX 211350Z AUTO 02010KT 4600 RA FEW008/// SCT009/// BKN011/// 09/08 Q1006=
201406211320 METAR ESMX 211320Z AUTO 02008KT 8000 RA FEW011/// SCT017/// 10/09 Q1005 RESHRA=
201406211250 METAR ESMX 211250Z AUTO 02007KT 5000 +RA BKN012/// BKN039/// 11/10 Q1005=
201406211220 METAR ESMX 211220Z AUTO 04003KT 010V080 9000 +RA FEW013/// SCT015/// BKN057/// 11/10 Q1005=
201406211150 METAR ESMX 211150Z AUTO 03006KT 9999 -RA FEW043/// 12/10 Q1005=
201406211120 METAR ESMX 211120Z AUTO 04007KT 9999 DZ FEW008/// BKN017/// 11/10 Q1005=
201406211050 METAR ESMX 211050Z AUTO 03007KT 9999 -RA FEW010/// SCT060/// 12/10 Q1005=
201406211020 METAR ESMX 211020Z AUTO 03005KT 010V070 3100 -RA FEW007/// SCT014/// BKN032/// 11/10 Q1006=
201406210950 METAR ESMX 210950Z AUTO 03003KT 340V090 9999 FEW029/// SCT046/// BKN058/// 13/09 Q1006=
201406210920 METAR ESMX 210920Z AUTO VRB02KT 9999 OVC049/// 12/09 Q1006=
201406210850 METAR ESMX 210850Z AUTO 15004KT 9000 FEW021/// SCT032/// BKN036/// 11/08 Q1006=
201406210820 METAR ESMX 210820Z 19013KT 9999 FEW021 SCT030 BKN036 12/06 Q1006=
201406210750 METAR ESMX 210750Z 21006KT 130V290 9999 SCT035 BKN069 15/06 Q1006=
201406210720 METAR ESMX 210720Z 20008KT 170V240 9999 FEW040 SCT065 14/04 Q1006=
201406210650 METAR ESMX 210650Z 20007KT 170V250 CAVOK 15/06 Q1006=
201406210620 METAR ESMX 210620Z 22007KT CAVOK 13/06 Q1007=
201406210550 METAR ESMX 210550Z 21007KT CAVOK 13/05 Q1007=
201406210520 METAR ESMX 210520Z 18004KT CAVOK 12/05 Q1007=
201406210450 METAR ESMX 210450Z AUTO 19003KT 9999 BKN085/// 11/06 Q1007=
201406210420 METAR ESMX 210420Z AUTO 20002KT 9999 NCD 10/07 Q1007=
201406210350 METAR ESMX 210350Z AUTO 20002KT 9999 NCD 06/05 Q1007=
201406210320 METAR ESMX 210320Z AUTO VRB01KT 9999 FEW088/// 04/02 Q1007=
201406210250 METAR ESMX 210250Z AUTO 19003KT 9999 NCD 02/01 Q1007=
201406210220 METAR ESMX 210220Z AUTO 17002KT 9999 NCD 03/01 Q1007=
201406210150 METAR ESMX 210150Z AUTO 17002KT 9999 NCD 03/02 Q1007=
201406210120 METAR ESMX 210120Z AUTO 16002KT 9999 NCD 03/02 Q1007=
201406210050 METAR ESMX 210050Z AUTO 19003KT 9999 NCD 04/02 Q1008=
201406210020 METAR ESMX 210020Z AUTO 17002KT 9999 FEW100/// 05/02 Q1008=
201406202350 METAR ESMX 202350Z AUTO 19002KT 9999 NCD 05/03 Q1008=
201406202320 METAR ESMX 202320Z AUTO 19002KT 9999 FEW085/// 06/03 Q1008=
201406202250 METAR ESMX 202250Z AUTO 19003KT 9999 FEW083/// 08/04 Q1008=
201406202220 METAR ESMX 202220Z AUTO 00000KT 9999 FEW062/// BKN081/// 09/05 Q1008=
201406202150 METAR ESMX 202150Z AUTO 04003KT 9999 BKN058/// OVC076/// 11/03 Q1008=
201406202120 METAR ESMX 202120Z AUTO 05003KT 9999 OVC059/// 12/03 Q1008=
201406202050 METAR ESMX 202050Z AUTO 04004KT 010V100 9999 FEW061/// OVC074/// 12/02 Q1008=
201406202020 METAR ESMX 202020Z AUTO 04004KT 9999 SCT061/// BKN074/// 11/02 Q1008=
201406201950 METAR ESMX 201950Z AUTO 04003KT 9999 BKN075/// 12/02 Q1008=
201406201920 METAR ESMX 201920Z AUTO 02006KT 9999 OVC075/// 13/02 Q1008=
201406201850 METAR ESMX 201850Z AUTO 02007KT 9999 BKN075/// 13/01 Q1008=
201406201820 METAR ESMX 201820Z AUTO 01006KT 9999 NCD 13/01 Q1008=
201406201750 METAR ESMX 201750Z AUTO 35008KT 9999 NCD 15/01 Q1008=
201406201720 METAR ESMX 201720Z AUTO 35009KT 9999 NCD 15/01 Q1008=
201406201650 METAR ESMX 201650Z AUTO 34010KT 9999 NCD 15/00 Q1008=
201406201620 METAR ESMX 201620Z AUTO 33009KT 300V010 9999 FEW069/// 16/00 Q1007=
201406201550 METAR ESMX 201550Z AUTO 32011KT 290V350 9999 FEW067/// 16/00 Q1007=
201406201520 METAR ESMX 201520Z AUTO 33010KT 290V010 9999 SCT065/// 16/00 Q1007=
201406201450 METAR ESMX 201450Z AUTO 32011KT 9999 SCT068/// 17/00 Q1007=
201406201420 METAR ESMX 201420Z AUTO 32011KT 290V350 9999 SCT064/// 17/02 Q1007=
201406201350 METAR ESMX 201350Z AUTO 32011KT 9999 FEW067/// 17/01 Q1007=
201406201320 METAR ESMX 201320Z AUTO 32011KT 280V350 9999 FEW057/// SCT069/// 17/02 Q1007=
201406201250 METAR ESMX 201250Z AUTO 32012KT 9999 SCT058/// 18/03 Q1007=
201406201220 METAR ESMX 201220Z AUTO 32010KT 280V350 9999 SCT059/// 16/02 Q1007=
201406201150 METAR ESMX 201150Z AUTO 31009KT 9999 SCT059/// 16/03 Q1007=
201406201120 METAR ESMX 201120Z AUTO 32010G20KT 270V010 9999 FEW055/// 17/03 Q1007=
201406201050 METAR ESMX 201050Z AUTO 31009KT 270V340 9999 NCD 16/03 Q1007=
201406201020 METAR ESMX 201020Z AUTO 33012KT 9999 NCD 15/03 Q1007=
201406200950 METAR ESMX 200950Z AUTO 31010KT 260V360 9999 NCD 15/02 Q1007=
201406200920 METAR ESMX 200920Z 30012KT 280V340 CAVOK 14/04 Q1007=
201406200850 METAR ESMX 200850Z 31011KT CAVOK 14/05 Q1007=
201406200820 METAR ESMX 200820Z 34010KT 300V010 CAVOK 14/06 Q1007=
201406200750 METAR ESMX 200750Z 34008KT CAVOK 13/06 Q1007=
201406200720 METAR ESMX 200720Z 35007KT 320V020 CAVOK 14/06 Q1007=
201406200650 METAR ESMX 200650Z AUTO 34009KT 310V010 9999 SCT090/// 13/05 Q1006=
201406200620 METAR ESMX 200620Z AUTO 34010KT 9999 NCD 12/06 Q1006=
201406200550 METAR ESMX 200550Z AUTO 34010KT 9999 NCD 12/06 Q1006=
201406200520 METAR ESMX 200520Z AUTO 36012KT 9999 NCD 11/07 Q1005=
201406200450 METAR ESMX 200450Z AUTO 35010KT 9999 NCD 11/08 Q1005=
201406200420 METAR ESMX 200420Z AUTO 34010KT 9999 NCD 11/08 Q1005=
201406200350 METAR ESMX 200350Z AUTO 35010KT 9999 NCD 10/08 Q1005=
201406200320 METAR ESMX 200320Z AUTO 33011KT 9999 NCD 10/08 Q1005=
201406200250 METAR ESMX 200250Z AUTO 34008KT 9999 NCD 10/08 Q1004=
201406200220 METAR ESMX 200220Z AUTO 32007KT 9999 NCD 10/08 Q1004=
201406200150 METAR ESMX 200150Z AUTO 31006KT 9999 FEW069/// 09/08 Q1004=
201406200120 METAR ESMX 200120Z AUTO 30005KT 9999 FEW069/// 09/08 Q1004=
201406200050 METAR ESMX 200050Z AUTO 30004KT 9999 SCT062/// 10/09 Q1004=
201406200020 METAR ESMX 200020Z AUTO 30005KT 9999 FEW047/// OVC060/// 10/09 Q1003=
201406192350 METAR ESMX 192350Z AUTO VRB03KT 9999 FEW014/// SCT036/// BKN043/// 11/09 Q1003=
201406192320 METAR ESMX 192320Z 29004KT 9999 FEW032 SCT039 OVC047 10/09 Q1003=
201406192250 METAR ESMX 192250Z 30004KT 9999 FEW038 OVC045 10/09 Q1003=
201406192220 METAR ESMX 192220Z 30004KT 9999 BKN041 10/09 Q1003=
201406192150 METAR ESMX 192150Z 31005KT 9999 FEW007 10/08 Q1003=
201406192120 METAR ESMX 192120Z 33008KT 9999 FEW015 10/09 Q1003=
201406192050 METAR ESMX 192050Z 33010KT 9999 SCT009 11/09 Q1002=
201406192020 METAR ESMX 192020Z 33010KT 9999 FEW014 SCT017 BKN020 12/10 Q1002=
201406191950 METAR ESMX 191950Z 33010KT 9999 FEW008 OVC012 12/11 Q1002=
201406191920 METAR ESMX 191920Z 31008KT 9000 -RA FEW006 SCT009 OVC011 12/11 Q1002=
201406191850 METAR ESMX 191850Z 30007KT 280V340 9999 -RA SCT010 BKN015 BKN032 12/11 Q1001=
201406191820 METAR ESMX 191820Z 31007KT 9000 RA FEW007 SCT012 BKN034 12/11 Q1001=
201406191750 METAR ESMX 191750Z 29008KT 260V330 9999 -RA FEW009 SCT033 BKN058 12/11 Q1001=
201406191720 METAR COR ESMX 191720Z 30008KT 260V330 9999 SHRA FEW010 SCT016CB BKN038 13/11 Q1001=
201406191650 METAR COR ESMX 191650Z 30007KT FEW011CB SCT015 13/11 Q1001=
201406191620 METAR ESMX 191620Z 29008KT 260V330 CAVOK 13/11 Q1001=
201406191550 METAR ESMX 191550Z 29003KT 250V330 CAVOK 13/11 Q1001=
201406191520 METAR ESMX 191520Z 32009KT 290V350 6000 SHRA FEW009 SCT023CB BKN028 12/11 Q1001=
201406191450 METAR ESMX 191450Z 28010KT 9999 DZ FEW010 SCT032 14/11 Q1001 RESHRA=
201406191420 METAR ESMX 191420Z 26014KT 9999 SCT033CB BKN042 17/09 Q1000=
201406191350 METAR ESMX 191350Z 26012KT 230V290 9999 FEW042CB SCT055 17/09 Q1000=
201406191320 METAR ESMX 191320Z 27015KT 9999 FEW039 SCT043 20/09 Q1000=
201406191250 METAR ESMX 191250Z 25015KT 220V280 9999 FEW038 SCT047 19/09 Q1000=
201406191220 METAR ESMX 191220Z 25014KT 9999 FEW041 SCT047 19/10 Q1000=
201406191150 METAR ESMX 191150Z 26015KT 9999 FEW039 SCT073 20/09 Q1000=
201406191120 METAR ESMX 191120Z 24014KT 9999 FEW025CB BKN035 19/09 Q1000=
201406191050 METAR ESMX 191050Z 26014KT 9999 FEW020CB SCT035 19/09 Q1001=
201406191020 METAR ESMX 191020Z 22012KT 190V260 9999 FEW020 SCT030 19/12 Q1001=
201406190950 METAR ESMX 190950Z 22014KT 190V260 9999 FEW020 SCT060 18/12 Q1001=
201406190920 METAR ESMX 190920Z 22013KT 9999 FEW022 BKN028 17/12 Q1002=
201406190850 METAR ESMX 190850Z 22014KT 200V260 9999 FEW015 BKN035 17/12 Q1002=
201406190823 METAR ESMX 190823Z 26012KT 9999 FEW013 BKN030 16/12 Q1003=
201406190820 METAR ESMX 190820Z AUTO 26012KT 9999 FEW017/// BKN034/// 16/12 Q1003=
201406190753 METAR ESMX 190753Z 25011KT 9999 FEW012 BKN017 16/12 Q1003=
201406190720 METAR ESMX 190720Z 21010KT 9999 FEW010 BKN013 15/12 Q1003=
201406190653 METAR ESMX 190653Z 21009KT 9999 OVC010 15/12 Q1003=
201406190650 METAR ESMX 190650Z AUTO 22009KT 9999 OVC010/// 15/12 Q1003=
201406190620 METAR ESMX 190620Z 21011KT 9999 OVC010 14/12 Q1004=
201406190550 METAR ESMX 190550Z 22012KT 9999 FEW010 BKN012 14/11 Q1005=
201406190520 METAR ESMX 190520Z 23010KT 200V260 9999 FEW005 BKN010 14/12 Q1005=
201406190450 METAR ESMX 190450Z 21008KT 9999 BKN003 14/13 Q1005=
201406190420 METAR ESMX 190420Z 22009KT CAVOK 13/12 Q1006=
201406190350 METAR ESMX 190350Z 21005KT CAVOK 12/11 Q1006=
201406190320 METAR ESMX 190320Z AUTO 21006KT 9999 NCD 12/11 Q1007=
201406190250 METAR ESMX 190250Z AUTO 21006KT 9999 NCD 11/10 Q1007=
201406190220 METAR ESMX 190220Z AUTO 22005KT 9999 NCD 11/10 Q1008=
201406190150 METAR ESMX 190150Z AUTO 19003KT 9999 NCD 12/11 Q1008=
201406190120 METAR ESMX 190120Z AUTO VRB02KT 9999 NCD 12/11 Q1008=
201406190050 METAR ESMX 190050Z 23003KT CAVOK 12/11 Q1009=
201406190020 METAR COR ESMX 190020Z 23004KT CAVOK 12/10 Q1009=
201406182350 METAR ESMX 182350Z 24005KT CAVOK 12/10 Q1010=
201406182320 METAR ESMX 182320Z 23005KT CAVOK 13/11 Q1010=
201406182250 METAR ESMX 182250Z 22004KT CAVOK 13/11 Q1010=
201406182220 METAR ESMX 182220Z 24004KT CAVOK 14/11 Q1011=
201406182150 METAR ESMX 182150Z 23005KT CAVOK 14/11 Q1011=
201406182120 METAR ESMX 182120Z 24005KT CAVOK 15/11 Q1011=
201406182050 METAR ESMX 182050Z 24005KT CAVOK 15/11 Q1011=
201406182020 METAR ESMX 182020Z 24006KT CAVOK 17/11 Q1011=
201406181950 METAR ESMX 181950Z 25006KT CAVOK 17/11 Q1011=
201406181920 METAR ESMX 181920Z 25008KT CAVOK 18/10 Q1011=
201406181850 METAR ESMX 181850Z 25010KT CAVOK 19/10 Q1011=
201406181820 METAR ESMX 181820Z 25008KT CAVOK 20/10 Q1012=
201406181750 METAR COR ESMX 181750Z 26008KT 230V290 CAVOK 20/09 Q1012=
201406181720 METAR ESMX 181720Z 28010KT CAVOK 21/09 Q1012=
201406181650 METAR ESMX 181650Z 27010KT 240V300 CAVOK 21/10 Q1012=
201406181620 METAR ESMX 181620Z 27010KT CAVOK 21/09 Q1012=
201406181550 METAR ESMX 181550Z 26006KT 230V300 CAVOK 23/08 Q1012=
201406181521 METAR ESMX 181521Z 27009KT CAVOK 22/09 Q1012=
201406181450 METAR ESMX 181450Z 27009KT 250V320 CAVOK 22/08 Q1013=
201406181420 METAR ESMX 181420Z 28010KT CAVOK 21/08 Q1013=
201406181350 METAR ESMX 181350Z AUTO 26010KT 230V290 9999 SCT076/// 22/08 Q1013=
201406181320 METAR ESMX 181320Z 30009KT 270V340 CAVOK 21/07 Q1013=
201406181250 METAR ESMX 181250Z 25009KT 200V290 9999 SCT040 22/07 Q1013=
201406181220 METAR ESMX 181220Z 30010KT 9999 FEW030 SCT070 23/06 Q1014=
201406181150 METAR ESMX 181150Z 29011KT 230V320 CAVOK 23/07 Q1014=
201406181120 METAR ESMX 181120Z 29012KT 260V330 CAVOK 22/06 Q1014=
201406181050 METAR ESMX 181050Z 26010KT 230V300 CAVOK 22/06 Q1014=
201406181020 METAR ESMX 181020Z 30010KT 260V340 CAVOK 21/06 Q1014=
201406180950 METAR ESMX 180950Z /////KT CAVOK 21/06 Q1015=
201406180920 METAR COR ESMX 180920Z 28010KT 250V310 CAVOK 21/04 Q1015=
201406180850 METAR ESMX 180850Z 30009KT 260V330 CAVOK 20/04 Q1015=
201406180820 METAR ESMX 180820Z 29010KT 260V330 CAVOK 20/04 Q1015=
201406180750 METAR ESMX 180750Z 30007KT 270V350 CAVOK 19/03 Q1015=
201406180720 METAR ESMX 180720Z 28006KT 250V330 CAVOK 18/06 Q1015=
201406180650 METAR ESMX 180650Z 30005KT 270V340 CAVOK 17/07 Q1016=
201406180620 METAR ESMX 180620Z 28005KT CAVOK 16/05 Q1016=
201406180550 METAR ESMX 180550Z 28003KT 250V340 CAVOK 15/05 Q1016=
201406180520 METAR ESMX 180520Z 30005KT CAVOK 14/06 Q1016=
201406180450 METAR ESMX 180450Z 28003KT 250V320 CAVOK 12/05 Q1016=
201406180420 METAR ESMX 180420Z 28003KT 210V320 CAVOK 11/05 Q1016=
201406180350 METAR ESMX 180350Z 27003KT CAVOK 08/04 Q1016=
201406180320 METAR ESMX 180320Z AUTO 28002KT 9999 NCD 06/04 Q1016=
201406180250 METAR ESMX 180250Z AUTO 25002KT 9999 NCD 06/04 Q1016=
201406180220 METAR ESMX 180220Z AUTO 24002KT 9999 NCD 06/04 Q1016=
201406180150 METAR ESMX 180150Z AUTO 26003KT 9999 NCD 07/04 Q1016=
201406180120 METAR ESMX 180120Z 26004KT CAVOK 07/04 Q1016=
201406180050 METAR ESMX 180050Z 26004KT CAVOK 07/04 Q1016=
201406180020 METAR COR ESMX 180020Z 26003KT CAVOK 08/04 Q1016=
201406172350 METAR ESMX 172350Z 24004KT CAVOK 08/04 Q1016=
201406172320 METAR ESMX 172320Z 26003KT CAVOK 07/04 Q1016=
201406172250 METAR ESMX 172250Z 19003KT CAVOK 07/04 Q1017=
201406172220 METAR ESMX 172220Z VRB02KT CAVOK 07/05 Q1017=
201406172150 METAR ESMX 172150Z 18002KT CAVOK 08/05 Q1017=
201406172120 METAR ESMX 172120Z 21002KT CAVOK 09/06 Q1017=
201406172050 METAR ESMX 172050Z 18002KT CAVOK 09/06 Q1017=
201406172020 METAR ESMX 172020Z AUTO 00000KT 9999 NCD 10/07 Q1017=
201406171950 METAR ESMX 171950Z 18002KT CAVOK 12/07 Q1016=
201406171920 METAR ESMX 171920Z 34003KT CAVOK 14/07 Q1016=
201406171850 METAR COR ESMX 171850Z 34004KT CAVOK 16/06 Q1016=
201406171820 METAR ESMX 171820Z AUTO 33005KT 9999 NCD 18/04 Q1016=
201406171750 METAR ESMX 171750Z 33005KT CAVOK 18/04 Q1016=
201406171720 METAR ESMX 171720Z 32006KT CAVOK 18/04 Q1016=
201406171650 METAR ESMX 171650Z 33007KT 9999 FEW040 18/04 Q1016=
201406171620 METAR ESMX 171620Z 32007KT 270V350 9999 SCT040 19/03 Q1017=
201406171550 METAR ESMX 171550Z 33009KT 300V010 9999 SCT045 BKN078 19/03 Q1017=
201406171520 METAR ESMX 171520Z 32008KT 9999 SCT045 19/03 Q1017=
201406171450 METAR ESMX 171450Z 34007KT 310V010 CAVOK 18/02 Q1017=
201406171420 METAR ESMX 171420Z 29007KT 240V330 CAVOK 18/01 Q1017=
201406171350 METAR ESMX 171350Z 32008KT 280V010 CAVOK 20/01 Q1018=
201406171320 METAR ESMX 171320Z 33008G20KT 280V050 CAVOK 19/01 Q1018=
201406171250 METAR ESMX 171250Z 35012KT CAVOK 19/00 Q1018=
201406171220 METAR ESMX 171220Z 31010KT CAVOK 19/02 Q1018=
201406171150 METAR ESMX 171150Z 34009KT CAVOK 18/01 Q1019=
201406171120 METAR ESMX 171120Z 32009KT 280V010 CAVOK 18/01 Q1019=
201406171050 METAR ESMX 171050Z 34008KT 270V030 CAVOK 18/02 Q1019=
201406171020 METAR ESMX 171020Z 34007KT 300V020 CAVOK 18/01 Q1019=
201406170950 METAR ESMX 170950Z 31008KT 250V360 CAVOK 16/00 Q1019=
201406170920 METAR ESMX 170920Z 34006KT 280V030 CAVOK 16/M00 Q1020=
201406170850 METAR ESMX 170850Z 33010KT CAVOK 16/M00 Q1020=
201406170820 METAR COR ESMX 170820Z 34008KT 310V010 CAVOK 15/01 Q1020=
201406170750 METAR ESMX 170750Z 35006KT 290V020 CAVOK 14/01 Q1020=
201406170720 METAR ESMX 170720Z 36007KT CAVOK 14/01 Q1020=
201406170650 METAR ESMX 170650Z 02008KT 340V060 CAVOK 14/01 Q1020=
201406170620 METAR ESMX 170620Z 02008KT CAVOK 13/01 Q1020=
201406170550 METAR ESMX 170550Z 02007KT CAVOK 12/02 Q1020=
201406170520 METAR ESMX 170520Z AUTO 36007KT 9999 NCD 12/03 Q1020=
201406170450 METAR ESMX 170450Z 02010KT CAVOK 11/03 Q1020=
201406170420 METAR ESMX 170420Z 01007KT CAVOK 10/04 Q1020=
201406170350 METAR ESMX 170350Z 35007KT CAVOK 10/04 Q1020=
201406170320 METAR ESMX 170320Z AUTO 01008KT 9999 NCD 09/05 Q1019=
201406170250 METAR ESMX 170250Z AUTO 35007KT 9999 NCD 05/03 Q1019=
201406170220 METAR ESMX 170220Z AUTO VRB01KT 9999 NCD 05/03 Q1019=
201406170150 METAR ESMX 170150Z AUTO 00000KT 9999 NCD 04/03 Q1019=
201406170120 METAR ESMX 170120Z AUTO VRB01KT 9999 NCD 04/02 Q1018=
201406170050 METAR ESMX 170050Z AUTO 00000KT 9999 NCD 06/04 Q1018=
201406170020 METAR ESMX 170020Z AUTO VRB02KT 9999 NCD 06/04 Q1018=
201406162350 METAR ESMX 162350Z 34004KT 320V020 CAVOK 08/04 Q1018=
201406162320 METAR ESMX 162320Z VRB02KT CAVOK 08/05 Q1018=
201406162250 METAR COR ESMX 162250Z VRB03KT CAVOK 08/05 Q1018=
201406162220 METAR COR ESMX 162220Z VRB02KT CAVOK 08/04 Q1018=
201406162150 METAR ESMX 162150Z 32006KT CAVOK 08/05 Q1018=
201406162120 METAR ESMX 162120Z 31005KT CAVOK 09/05 Q1018=
201406162050 METAR ESMX 162050Z 31005KT CAVOK 11/05 Q1018=
201406162020 METAR ESMX 162020Z 33006KT CAVOK 12/05 Q1018=
201406161950 METAR ESMX 161950Z 34008KT CAVOK 14/05 Q1017=
201406161920 METAR ESMX 161920Z 35010KT CAVOK 15/04 Q1017=
201406161850 METAR COR ESMX 161850Z 35009KT CAVOK 16/05 Q1017=
201406161820 METAR ESMX 161820Z 36011KT CAVOK 17/03 Q1016=
201406161750 METAR ESMX 161750Z 36012KT CAVOK 18/04 Q1016=
201406161720 METAR ESMX 161720Z AUTO 01010KT 9999 FEW046/// SCT055/// 18/07 Q1016=
201406161650 METAR ESMX 161650Z 35006KT CAVOK 17/10 Q1016=
201406161620 METAR ESMX 161620Z 01005KT 340V060 CAVOK 18/10 Q1016=
201406161550 METAR ESMX 161550Z 01007KT 330V060 CAVOK 18/10 Q1016=
201406161520 METAR COR ESMX 161520Z 34008KT 290V010 CAVOK 19/10 Q1015=
201406161450 METAR COR ESMX 161450Z 32007KT 290V350 CAVOK 17/11 Q1015=
201406161420 METAR ESMX 161420Z 35009KT CAVOK 16/10 Q1015=
201406161350 METAR ESMX 161350Z 01008KT 330V040 9999 FEW025 BKN065 18/10 Q1015=
201406161320 METAR ESMX 161320Z 01008KT 9999 FEW027 SCT061 BKN073 17/11 Q1015=
201406161250 METAR ESMX 161250Z 01010KT 9999 SCT026 BKN034 17/11 Q1015=
201406161220 METAR COR ESMX 161220Z 01006KT 340V060 9999 FEW027 BKN070 18/10 Q1015=
201406161150 METAR ESMX 161150Z AUTO 02006KT 340V050 9999 FEW028/// 18/11 Q1015=
201406161120 METAR ESMX 161120Z 34006KT 280V020 9999 FEW025 BKN060 18/09 Q1015=
201406161050 METAR ESMX 161050Z 33006KT 290V010 CAVOK 18/08 Q1015=
201406161020 METAR ESMX 161020Z 29008KT 9999 FEW025 18/09 Q1016=
201406160950 METAR ESMX 160950Z 33008KT 290V010 9999 FEW025 BKN040 18/08 Q1016=
201406160920 METAR ESMX 160920Z 33008KT 290V360 9999 FEW025 BKN040 17/08 Q1016=
201406160859 METAR ESMX 160859Z 34007KT 300V010 9999 FEW040 BKN060 17/09 Q1016=
201406160850 METAR ESMX 160850Z AUTO 34008KT 9999 FEW051/// 18/10 Q1016=
201406160820 METAR ESMX 160820Z 31008KT 280V340 9999 FEW025 SCT040 17/10 Q1016=
201406160759 METAR ESMX 160759Z 32008KT 270V340 9999 FEW025 SCT060 BKN200 17/10 Q1016=
201406160750 METAR ESMX 160750Z AUTO 29008KT 260V330 9999 FEW024/// 18/10 Q1016=
201406160723 METAR ESMX 160723Z 29007KT 250V330 9999 FEW040 SCT060 BKN200 17/11 Q1015=
201406160720 METAR ESMX 160720Z AUTO 29007KT 250V320 9999 NCD 17/11 Q1015=
201406160650 METAR ESMX 160650Z 29006KT 9999 FEW040 SCT060 16/12 Q1016=
201406160620 METAR ESMX 160620Z 28006KT 240V300 CAVOK 16/11 Q1016=
201406160550 METAR ESMX 160550Z 28007KT CAVOK 16/11 Q1016=
201406160520 METAR ESMX 160520Z 30004KT CAVOK 14/11 Q1016=
201406160450 METAR ESMX 160450Z 26005KT CAVOK 13/10 Q1016=
201406160423 METAR ESMX 160423Z 25004KT CAVOK 11/09 Q1016=
201406160420 METAR ESMX 160420Z AUTO 25004KT 9999 NCD 11/09 Q1016=
201406160350 METAR ESMX 160350Z 26003KT CAVOK 09/08 Q1016=
201406160320 METAR ESMX 160320Z AUTO 25004KT 9999 NCD 07/06 Q1017=
201406160250 METAR ESMX 160250Z AUTO 00000KT 9999 NCD 07/06 Q1017=
201406160220 METAR ESMX 160220Z AUTO 00000KT 9999 NCD 08/07 Q1017=
201406160150 METAR ESMX 160150Z AUTO 27003KT 9999 NCD 09/07 Q1017=
201406160120 METAR ESMX 160120Z AUTO 24003KT 9999 NCD 10/07 Q1017=
201406160050 METAR ESMX 160050Z AUTO 24003KT 9999 NCD 10/07 Q1017=
201406160020 METAR ESMX 160020Z AUTO 25004KT 9999 NCD 11/07 Q1017=
201406152350 METAR ESMX 152350Z AUTO 26003KT 9999 NCD 11/06 Q1018=
201406152320 METAR ESMX 152320Z 24004KT 200V270 CAVOK 12/06 Q1018=
201406152250 METAR ESMX 152250Z 27004KT CAVOK 12/06 Q1018=
201406152220 METAR ESMX 152220Z 26005KT CAVOK 13/06 Q1018=
201406152150 METAR ESMX 152150Z AUTO 26005KT 9999 FEW110/// 13/06 Q1018=
201406152120 METAR ESMX 152120Z 25004KT CAVOK 13/06 Q1018=
201406152050 METAR ESMX 152050Z 23005KT CAVOK 13/07 Q1018=
201406152020 METAR ESMX 152020Z 27007KT CAVOK 15/07 Q1018=
201406151950 METAR ESMX 151950Z 27007KT CAVOK 16/07 Q1018=
201406151920 METAR ESMX 151920Z 27008KT CAVOK 17/07 Q1017=
201406151850 METAR ESMX 151850Z 27010KT CAVOK 18/08 Q1017=
201406151820 METAR ESMX 151820Z 28008KT CAVOK 18/08 Q1017=
201406151750 METAR ESMX 151750Z 29010KT CAVOK 19/08 Q1017=
201406151720 METAR ESMX 151720Z 28006KT 240V310 CAVOK 21/05 Q1017=
201406151650 METAR ESMX 151650Z 23007KT 190V250 CAVOK 22/04 Q1017=
201406151620 METAR COR ESMX 151620Z 25006KT 210V290 9999 SCT044 22/05 Q1017=
201406151550 METAR ESMX 151550Z 26007KT 210V290 9999 FEW025 SCT049 22/04 Q1018=
201406151520 METAR COR ESMX 151520Z 27006KT 230V300 CAVOK 22/04 Q1018=
201406151450 METAR ESMX 151450Z 33006KT 300V360 CAVOK 21/03 Q1018=
201406151420 METAR ESMX 151420Z VRB02KT CAVOK 21/04 Q1018=
201406151350 METAR ESMX 151350Z 31008KT 280V350 CAVOK 21/04 Q1018=
201406151320 METAR ESMX 151320Z VRB05KT 360V360 CAVOK 23/05 Q1018=
201406151250 METAR ESMX 151250Z 35003KT 290V030 CAVOK 21/03 Q1019=
201406151220 METAR ESMX 151220Z 01003KT 290V080 9999 SCT040 21/04 Q1019=
201406151150 METAR ESMX 151150Z AUTO 35006KT 290V050 9999 BKN065/// 21/04 Q1019=
201406151120 METAR ESMX 151120Z AUTO 01006KT 320V050 9999 FEW072/// 22/05 Q1019=
201406151050 METAR ESMX 151050Z AUTO 36007KT 290V030 9999 FEW058/// SCT071/// 21/05 Q1019=
201406151020 METAR ESMX 151020Z AUTO 36005KT 290V060 9999 FEW067/// 20/04 Q1019=
201406150950 METAR ESMX 150950Z AUTO 34006KT 320V020 9999 SCT063/// 20/04 Q1019=
201406150920 METAR ESMX 150920Z AUTO 01006KT 300V050 9999 FEW063/// 20/04 Q1020=
201406150850 METAR ESMX 150850Z AUTO 36007KT 9999 NCD 19/04 Q1020=
201406150820 METAR ESMX 150820Z AUTO VRB04KT 260V100 9999 NCD 19/04 Q1020=
201406150750 METAR ESMX 150750Z AUTO 31007KT 270V020 9999 NCD 18/02 Q1020=
201406150720 METAR ESMX 150720Z AUTO 29007KT 250V350 9999 NCD 17/01 Q1020=
201406150650 METAR ESMX 150650Z AUTO 31007KT 290V350 9999 NCD 16/01 Q1020=
201406150620 METAR ESMX 150620Z AUTO 29006KT 9999 NCD 16/02 Q1020=
201406150550 METAR ESMX 150550Z AUTO 30006KT 9999 NCD 14/01 Q1020=
201406150520 METAR ESMX 150520Z AUTO 30005KT 9999 NCD 13/01 Q1020=
201406150450 METAR ESMX 150450Z AUTO 32002KT 9999 NCD 12/04 Q1020=
201406150420 METAR ESMX 150420Z AUTO 00000KT 9999 NCD 10/06 Q1020=
201406150350 METAR ESMX 150350Z AUTO 27002KT 9999 NCD 05/04 Q1020=
201406150320 METAR ESMX 150320Z AUTO 17002KT 9999 NCD 03/02 Q1020=
201406150250 METAR ESMX 150250Z AUTO 18002KT 9999 NCD 02/01 Q1020=
201406150220 METAR ESMX 150220Z AUTO 00000KT 9999 NCD 02/00 Q1020=
201406150150 METAR ESMX 150150Z AUTO 17002KT 9999 NCD 02/00 Q1020=
201406150120 METAR ESMX 150120Z AUTO VRB01KT 9999 NCD 03/01 Q1020=
201406150050 METAR ESMX 150050Z AUTO 18002KT 9999 NCD 03/01 Q1020=
201406150020 METAR ESMX 150020Z AUTO 00000KT 9999 NCD 04/02 Q1020=
201406142350 METAR ESMX 142350Z AUTO 16002KT 9999 NCD 04/01 Q1020=
201406142320 METAR ESMX 142320Z AUTO 00000KT 9999 NCD 04/01 Q1020=
201406142250 METAR ESMX 142250Z AUTO 00000KT 9999 NCD 05/02 Q1020=
201406142220 METAR ESMX 142220Z AUTO 12004KT 9999 NCD 08/03 Q1020=
201406142150 METAR ESMX 142150Z AUTO 04003KT 9999 NCD 08/03 Q1019=
201406142120 METAR ESMX 142120Z AUTO 04004KT 9999 NCD 11/01 Q1019=
201406142050 METAR ESMX 142050Z AUTO 03006KT 9999 NCD 12/02 Q1019=
201406142020 METAR ESMX 142020Z AUTO 03006KT 9999 NCD 13/01 Q1019=
201406141950 METAR ESMX 141950Z AUTO 01009KT 9999 NCD 14/01 Q1018=
201406141920 METAR ESMX 141920Z AUTO 01008KT 9999 NCD 15/01 Q1018=
201406141850 METAR ESMX 141850Z AUTO 02009KT 9999 NCD 16/01 Q1018=
201406141820 METAR ESMX 141820Z AUTO 02008KT 9999 NCD 17/01 Q1017=
201406141750 METAR ESMX 141750Z AUTO 01009KT 9999 NCD 17/01 Q1017=
201406141720 METAR ESMX 141720Z AUTO 01010KT 9999 NCD 18/01 Q1017=
201406141650 METAR ESMX 141650Z AUTO 01010KT 9999 NCD 18/01 Q1017=
201406141620 METAR ESMX 141620Z AUTO 01009KT 340V050 9999 NCD 18/01 Q1017=
201406141550 METAR ESMX 141550Z AUTO 36011KT 9999 NCD 18/01 Q1017=
201406141520 METAR ESMX 141520Z AUTO 36010KT 9999 NCD 18/03 Q1017=
201406141450 METAR ESMX 141450Z AUTO 02011KT 9999 NCD 18/02 Q1017=
201406141420 METAR ESMX 141420Z AUTO 01009KT 330V040 9999 FEW060/// 18/02 Q1017=
201406141350 METAR ESMX 141350Z AUTO 36009KT 320V050 9999 FEW058/// 18/03 Q1016=
201406141320 METAR ESMX 141320Z AUTO 01010KT 320V030 9999 FEW057/// 18/03 Q1017=
201406141250 METAR ESMX 141250Z AUTO 02012KT 9999 FEW056/// 17/03 Q1016=
201406141220 METAR ESMX 141220Z AUTO 36012KT 9999 FEW055/// 17/03 Q1016=
201406141154 METAR ESMX 141154Z 36011KT CAVOK 17/03 Q1016=
201406141150 METAR ESMX 141150Z AUTO 35012KT 9999 FEW056/// 17/04 Q1016=
201406141120 METAR ESMX 141120Z 02016KT 340V070 CAVOK 17/03 Q1016=
201406141050 METAR ESMX 141050Z 01014KT 9999 FEW040 16/02 Q1016=
201406141020 METAR ESMX 141020Z 34014KT 9999 FEW040 16/03 Q1016=
201406140950 METAR ESMX 140950Z 35013G23KT 9999 FEW040 16/03 Q1016=
201406140920 METAR ESMX 140920Z 35017G27KT 9999 FEW030 15/03 Q1016=
201406140850 METAR ESMX 140850Z 36014KT 9999 FEW030 15/03 Q1016=
201406140820 METAR ESMX 140820Z 34015KT 9999 FEW030 15/04 Q1015=
201406140750 METAR ESMX 140750Z 34015G25KT 9999 FEW040 14/04 Q1015=
201406140720 METAR ESMX 140720Z 35013G23KT 9999 FEW040 14/05 Q1015=
201406140650 METAR ESMX 140650Z 36019KT 9999 FEW030 13/03 Q1015=
201406140620 METAR ESMX 140620Z 01017KT 9999 FEW035 12/05 Q1015=
201406140550 METAR ESMX 140550Z 35015G25KT 9999 FEW025 13/06 Q1015=
201406140520 METAR ESMX 140520Z AUTO 02017KT 9999 FEW025/// 12/06 Q1015=
201406140450 METAR ESMX 140450Z AUTO 35014KT 9999 BKN066/// 12/07 Q1015=
201406140420 METAR ESMX 140420Z AUTO 36012KT 9999 FEW069/// 12/07 Q1015=
201406140350 METAR ESMX 140350Z AUTO 35012KT 9999 FEW065/// BKN081/// 11/08 Q1015=
201406140320 METAR ESMX 140320Z AUTO 35010KT 9999 OVC056/// 11/08 Q1015=
201406140250 METAR ESMX 140250Z AUTO 35010KT 9999 OVC057/// 11/09 Q1014=
201406140220 METAR ESMX 140220Z AUTO 35011KT 9999 OVC052/// 11/08 Q1014=
201406140150 METAR ESMX 140150Z AUTO 35009KT 9999 OVC051/// 11/09 Q1014=
201406140120 METAR ESMX 140120Z AUTO 02009KT 9999 FEW037/// BKN070/// 11/08 Q1014=
201406140050 METAR ESMX 140050Z AUTO 01009KT 9999 FEW013/// SCT016/// BKN074/// 12/09 Q1014=
201406140020 METAR ESMX 140020Z AUTO 01008KT 9999 FEW014/// SCT024/// BKN027/// 12/09 Q1014=
201406132350 METAR ESMX 132350Z AUTO 36010KT 9999 FEW016/// SCT025/// OVC071/// 12/09 Q1014=
201406132320 METAR ESMX 132320Z AUTO 02008KT 9999 FEW025/// BKN032/// OVC073/// 12/10 Q1013=
201406132250 METAR ESMX 132250Z AUTO 02007KT 9999 FEW023/// BKN031/// OVC074/// 12/10 Q1013=
201406132220 METAR ESMX 132220Z AUTO 35007KT 9999 BKN041/// OVC074/// 12/10 Q1013=
201406132150 METAR ESMX 132150Z AUTO 35004KT 320V020 9999 FEW032/// SCT039/// OVC074/// 11/10 Q1013=
201406132120 METAR ESMX 132120Z AUTO 00000KT 9999 FEW036/// SCT042/// OVC075/// 11/10 Q1012=
201406132050 METAR ESMX 132050Z AUTO 31002KT 9999 FEW040/// OVC068/// 12/10 Q1012=
201406132020 METAR ESMX 132020Z 01003KT 340V040 9999 FEW020 BKN060 12/10 Q1012=
201406131950 METAR ESMX 131950Z 01006KT 9999 FEW020CB BKN050 13/10 Q1012=
201406131920 METAR ESMX 131920Z 02005KT 9999 FEW020CB BKN050 13/10 Q1012 RERA=
201406131850 METAR ESMX 131850Z 34004KT 310V010 9999 FEW030CB BKN050 13/11 Q1012=
201406131823 METAR ESMX 131823Z 08003KT 040V100 9999 -SHRA FEW020CB BKN050 13/11 Q1011=
201406131750 METAR ESMX 131750Z VRB03KT 280V160 9999 -SHRA FEW019 SCT030CB BKN040 15/11 Q1011=
201406131720 METAR ESMX 131720Z 27003KT 9999 FEW030CB SCT060 14/11 Q1011=
201406131650 METAR ESMX 131650Z 35002KT 9999 FEW030CB SCT060 14/11 Q1011=
201406131627 METAR ESMX 131627Z 02004KT 9999 FEW030CB SCT060 14/11 Q1010=
201406131620 METAR ESMX 131620Z AUTO 02006KT 9999 -RA FEW027/// SCT070/// 14/11 Q1010=
201406131550 METAR ESMX 131550Z 01011KT 9999 FEW030 SCT050CB 15/10 Q1011=
201406131530 METAR ESMX 131530Z 31008G20KT 250V360 9999 FEW010 SCT030CB BKN060 16/10 Q1010=
201406131520 METAR ESMX 131520Z AUTO 30007KT 9999 FEW023/// SCT057/// BKN068/// 15/09 Q1010 RERA=
201406131450 METAR ESMX 131450Z 32006KT 280V340 9999 VCTS FEW018 15/11 Q1010=
201406131420 METAR COR ESMX 131420Z 34007KT 9999 -SHRA FEW020 16/10 Q1010=
201406131350 METAR ESMX 131350Z 02006KT 340V060 9999 FEW021 15/10 Q1010=
201406131320 METAR ESMX 131320Z 04005KT 010V070 9999 FEW047CB 14/10 Q1010=
201406131250 METAR ESMX 131250Z 03010KT 9999 FEW028 SCT035CB 13/09 Q1010 RESHRA=
201406131220 METAR ESMX 131220Z 33009KT 9999 TS SHRA SCT042CB 17/10 Q1009=
201406131150 METAR ESMX 131150Z 33016KT 280V350 9999 SHRA VCTS FEW006 FEW035CB SCT051 15/09 Q1009=
201406131120 METAR ESMX 131120Z 30014KT 250V330 9999 VCTS FEW038CB 18/08 Q1009=
201406131050 METAR ESMX 131050Z 30011KT 260V340 9999 FEW038 SCT083 19/09 Q1009=
201406131020 METAR ESMX 131020Z 31015KT 9999 FEW030CB SCT040 18/10 Q1009 RESHRA=
201406130950 METAR ESMX 130950Z 32008KT 280V350 9999 FEW037 SCT046 18/10 Q1009=
201406130920 METAR ESMX 130920Z 31010KT 9999 FEW037 SCT042 18/08 Q1009=
201406130850 METAR ESMX 130850Z 31012KT 280V350 9999 FEW035 SCT042 18/09 Q1009=
201406130820 METAR ESMX 130820Z 27011KT 230V310 9999 SCT032 17/09 Q1010=
201406130750 METAR ESMX 130750Z 29011KT 250V320 9999 FEW030 16/08 Q1010=
201406130720 METAR ESMX 130720Z 29011KT 250V330 9999 FEW032 SCT074 15/08 Q1010=
201406130650 METAR ESMX 130650Z 29012KT 9999 FEW025 SCT029 16/09 Q1010=
201406130620 METAR ESMX 130620Z 29013KT 9999 SCT023 15/09 Q1010=
201406130550 METAR ESMX 130550Z 27012KT 9999 SCT020 14/09 Q1010=
201406130520 METAR ESMX 130520Z 27012KT 9999 FEW022 14/09 Q1010=
201406130450 METAR ESMX 130450Z 27010KT CAVOK 14/10 Q1011=
201406130420 METAR ESMX 130420Z 26010KT CAVOK 13/10 Q1011=
201406130350 METAR ESMX 130350Z 28009KT CAVOK 13/10 Q1011=
201406130320 METAR ESMX 130320Z 28008KT CAVOK 12/10 Q1012=
201406130250 METAR ESMX 130250Z AUTO 26007KT 9999 NCD 12/09 Q1012=
201406130220 METAR ESMX 130220Z AUTO 27007KT 9999 NCD 12/09 Q1012=
201406130150 METAR ESMX 130150Z AUTO 27008KT 9999 FEW015/// SCT019/// 12/10 Q1012=
201406130120 METAR ESMX 130120Z AUTO 27008KT 9999 FEW028/// 13/10 Q1013=
201406130050 METAR ESMX 130050Z AUTO 26008KT 9999 FEW032/// BKN041/// BKN095/// 13/10 Q1013=
201406130020 METAR ESMX 130020Z 26008KT 9999 FEW019 SCT034 13/10 Q1014=
201406122350 METAR ESMX 122350Z 26007KT 9999 SCT014 BKN020 13/10 Q1014=
201406122320 METAR ESMX 122320Z 27008KT 9999 BKN017 13/10 Q1014=
201406122250 METAR ESMX 122250Z 27009KT 9999 BKN019 13/10 Q1015=
201406122220 METAR ESMX 122220Z 27010KT 9999 SCT023 BKN065 14/09 Q1015=
201406122150 METAR ESMX 122150Z 27009KT 240V300 CAVOK 14/09 Q1015=
201406122120 METAR ESMX 122120Z 26011KT 230V290 CAVOK 14/08 Q1015=
201406122050 METAR ESMX 122050Z 27010KT CAVOK 15/08 Q1015=
201406122020 METAR ESMX 122020Z 28012KT CAVOK 15/08 Q1015=
201406121950 METAR ESMX 121950Z 26009KT CAVOK 15/08 Q1016=
201406121920 METAR ESMX 121920Z AUTO 28011KT 9999 FEW042/// 15/07 Q1016=
201406121850 METAR ESMX 121850Z 28014KT 9999 FEW045 16/07 Q1016=
201406121820 METAR ESMX 121820Z 28013KT 250V320 9999 FEW045 17/07 Q1016=
201406121750 METAR ESMX 121750Z 26014KT 9999 FEW044 16/06 Q1016=
201406121720 METAR ESMX 121720Z 28017G28KT 9999 SCT043 18/07 Q1016=
201406121650 METAR ESMX 121650Z 28014KT 9999 SCT045 18/07 Q1017=
201406121620 METAR ESMX 121620Z 27011KT 230V300 9999 SCT045 18/07 Q1017=
201406121550 METAR ESMX 121550Z 26016KT 9999 SCT045 18/08 Q1017=
201406121520 METAR ESMX 121520Z 26016KT CAVOK 20/07 Q1017=
201406121450 METAR ESMX 121450Z 26015KT CAVOK 20/08 Q1017=
201406121420 METAR ESMX 121420Z 26013KT 230V290 CAVOK 19/07 Q1017=
201406121350 METAR ESMX 121350Z 27014KT 240V300 CAVOK 21/08 Q1017=
201406121320 METAR ESMX 121320Z 26014KT CAVOK 21/08 Q1018=
201406121250 METAR ESMX 121250Z 29013KT 250V320 CAVOK 20/08 Q1018=
201406121220 METAR ESMX 121220Z 27014KT 9999 FEW047 SCT053 21/09 Q1018=
201406121150 METAR ESMX 121150Z 28014KT 250V320 9999 SCT048 20/10 Q1018=
201406121120 METAR ESMX 121120Z AUTO 28012KT 240V330 9999 SCT044/// 19/09 Q1018=
201406121050 METAR ESMX 121050Z 28014KT 9999 SCT042 19/09 Q1018=
201406121020 METAR ESMX 121020Z 29012KT 9999 FEW041 BKN047 20/10 Q1018=
201406120950 METAR ESMX 120950Z 29013KT 9999 SCT039 20/11 Q1018=
201406120920 METAR ESMX 120920Z 29013KT 260V320 9999 FEW033 19/10 Q1018=
201406120850 METAR ESMX 120850Z 27014KT 9999 FEW032 18/10 Q1018=
201406120820 METAR ESMX 120820Z 28012KT 9999 FEW030 18/12 Q1018=
201406120750 METAR ESMX 120750Z 28012KT 240V320 9999 FEW020 17/11 Q1018=
201406120720 METAR ESMX 120720Z 29013KT 9999 FEW017 SCT022 16/11 Q1019=
201406120650 METAR ESMX 120650Z 29010KT 250V330 9999 FEW016 SCT018 BKN021 15/11 Q1019=
201406120620 METAR ESMX 120620Z 27008KT 9999 FEW015 BKN019 15/12 Q1019=
201406120550 METAR ESMX 120550Z 27010KT 250V310 9999 FEW013 SCT017 BKN019 14/12 Q1019=
201406120520 METAR ESMX 120520Z 27010KT 9999 FEW010 BKN015 14/12 Q1019=
201406120450 METAR ESMX 120450Z 26008KT 9999 BKN011 13/12 Q1019=
201406120420 METAR ESMX 120420Z 26007KT 9999 FEW006 BKN011 13/12 Q1019=
201406120350 METAR ESMX 120350Z 25005KT 220V290 9999 BKN006 12/11 Q1019=
201406120320 METAR ESMX 120320Z 26005KT CAVOK 13/12 Q1019=
201406120250 METAR ESMX 120250Z 26006KT CAVOK 13/12 Q1019=
201406120220 METAR ESMX 120220Z AUTO 27005KT 8000 BR NCD 13/12 Q1019=
201406120150 METAR ESMX 120150Z AUTO 28007KT 230V300 8000 BR FEW006/// SCT013/// 14/13 Q1019=
201406120120 METAR ESMX 120120Z AUTO 27007KT 5000 BR BKN005/// 14/13 Q1020=
201406120050 METAR ESMX 120050Z AUTO 25005KT 5000 BR FEW004/// SCT006/// 14/13 Q1020=
201406120020 METAR ESMX 120020Z AUTO 27007KT 6000 BR BKN006/// 14/13 Q1020=
201406112350 METAR ESMX 112350Z 27007KT 6000 BR BKN005 14/14 Q1020=
201406112320 METAR ESMX 112320Z 26006KT 6000 BR BKN003 15/14 Q1020=
201406112250 METAR ESMX 112250Z 23005KT 4500 BR BKN002 15/14 Q1020=
201406112220 METAR ESMX 112220Z 25005KT 5000 BR BKN003 15/14 Q1020=
201406112150 METAR ESMX 112150Z AUTO 21005KT 5000 OVC001/// 15/14 Q1020=
201406112120 METAR ESMX 112120Z 21006KT 0650 R01/1500V1900N R19/P2000N FG VV002 15/14 Q1020=
201406112050 METAR ESMX 112050Z 21006KT 0900 R01/P2000N R19/P2000N FG VV002 15/14 Q1020=
201406112020 METAR ESMX 112020Z 18006KT 9000 BR OVC003 14/14 Q1021=
201406111950 METAR ESMX 111950Z 18008KT 9999 OVC004 15/13 Q1021=
201406111920 METAR ESMX 111920Z 17007KT 9999 SCT004 BKN008 15/13 Q1021=
201406111850 METAR ESMX 111850Z 16006KT 9999 SCT006 BKN014 15/13 Q1021=
201406111820 METAR ESMX 111820Z 17008KT 9999 FEW004 BKN017 15/13 Q1021=
201406111750 METAR ESMX 111750Z 17008KT 9999 -RA FEW006 SCT020 BKN035 15/14 Q1021=
201406111720 METAR ESMX 111720Z 17009KT 9999 -RA SCT005 BKN035 15/14 Q1021=
201406111650 METAR ESMX 111650Z 16008KT 9999 -DZ FEW006 SCT039 BKN045 16/14 Q1022=
201406111620 METAR ESMX 111620Z 16009KT 9999 -DZ FEW037 16/14 Q1022=
201406111550 METAR ESMX 111550Z 17008KT 9000 RA FEW030 16/14 Q1022=
201406111520 METAR ESMX 111520Z 16007KT 5000 RA FEW006 SCT029 BKN056 16/14 Q1022=
201406111450 METAR ESMX 111450Z 21007KT 7000 -RA BKN036 16/14 Q1022=
201406111420 METAR ESMX 111420Z 17007KT 9999 BKN039 OVC085 18/14 Q1022=
201406111350 METAR ESMX 111350Z 19006KT 9999 FEW040 18/15 Q1022=
201406111320 METAR ESMX 111320Z 19006KT CAVOK 18/14 Q1022=
201406111250 METAR ESMX 111250Z 17006KT CAVOK 18/14 Q1022=
201406111220 METAR ESMX 111220Z 15005KT 110V170 CAVOK 17/14 Q1022 RERA=
201406111150 METAR ESMX 111150Z 21004KT 9999 -RA FEW030 18/15 Q1023=
201406111120 METAR ESMX 111120Z 16003KT 120V250 8000 SHRA FEW030 BKN080 17/15 Q1023=
201406111050 METAR ESMX 111050Z 20007KT 9999 -SHRA FEW030 BKN080 18/14 Q1023=
201406111020 METAR COR ESMX 111020Z 18007KT CAVOK 19/13 Q1023 RERA=
201406110950 METAR ESMX 110950Z 17010KT 9999 -RA FEW082 BKN097 20/12 Q1023=
201406110920 METAR ESMX 110920Z AUTO 18010KT 9999 FEW051/// SCT096/// 21/11 Q1023=
201406110850 METAR ESMX 110850Z 16008KT 140V200 CAVOK 21/12 Q1023=
201406110820 METAR ESMX 110820Z 17009KT 120V200 CAVOK 21/12 Q1022=
201406110750 METAR ESMX 110750Z 15007KT 110V190 CAVOK 20/12 Q1023=
201406110720 METAR ESMX 110720Z 14006KT 100V190 CAVOK 19/12 Q1023=
201406110650 METAR ESMX 110650Z 15007KT 120V190 CAVOK 19/12 Q1023=
201406110620 METAR ESMX 110620Z 15006KT 120V190 CAVOK 18/12 Q1023=
201406110550 METAR ESMX 110550Z 15007KT CAVOK 17/12 Q1023=
201406110520 METAR ESMX 110520Z 15007KT CAVOK 16/12 Q1023=
201406110450 METAR ESMX 110450Z 15007KT CAVOK 15/11 Q1023=
201406110420 METAR ESMX 110420Z 16005KT CAVOK 15/11 Q1023=
201406110350 METAR ESMX 110350Z 15004KT 110V170 CAVOK 15/11 Q1023=
201406110320 METAR ESMX 110320Z AUTO 14005KT 100V180 9999 NCD 15/11 Q1023=
201406110250 METAR ESMX 110250Z 15004KT 110V180 CAVOK 14/11 Q1023=
201406110120 METAR ESMX 110120Z 15005KT CAVOK 15/11 Q1023=
201406110050 METAR ESMX 110050Z 13004KT 110V170 CAVOK 16/11 Q1023=
201406110020 METAR ESMX 110020Z 15005KT CAVOK 16/11 Q1023=
201406102350 METAR ESMX 102350Z 14005KT 100V170 CAVOK 16/11 Q1022=
201406102320 METAR ESMX 102320Z 14004KT 100V170 CAVOK 17/11 Q1022=
201406102250 METAR ESMX 102250Z 15005KT CAVOK 17/11 Q1022=
201406102220 METAR ESMX 102220Z 15005KT CAVOK 18/12 Q1022=
201406102150 METAR ESMX 102150Z 14004KT 110V170 CAVOK 18/12 Q1022=
201406102120 METAR ESMX 102120Z 14005KT 110V180 CAVOK 19/12 Q1022=
201406102050 METAR ESMX 102050Z 15005KT CAVOK 19/12 Q1022=
201406102020 METAR ESMX 102020Z 16004KT CAVOK 21/11 Q1022=
201406101950 METAR ESMX 101950Z 15006KT CAVOK 22/11 Q1022=
201406101920 METAR ESMX 101920Z 16006KT CAVOK 23/10 Q1022=
201406101850 METAR ESMX 101850Z 15007KT 120V190 CAVOK 23/10 Q1022=
201406101820 METAR ESMX 101820Z 18008KT CAVOK 24/11 Q1021=
201406101750 METAR ESMX 101750Z 16008KT 120V190 CAVOK 25/11 Q1021=
201406101720 METAR ESMX 101720Z 16008KT 110V210 CAVOK 25/12 Q1021=
201406101650 METAR ESMX 101650Z 17009KT 130V200 CAVOK 26/11 Q1020=
201406101620 METAR ESMX 101620Z 18010KT 130V210 CAVOK 26/11 Q1020=
201406101550 METAR ESMX 101550Z 17010KT CAVOK 26/11 Q1020=
201406101520 METAR ESMX 101520Z 17007KT 110V230 CAVOK 28/10 Q1020=
201406101450 METAR ESMX 101450Z 16005KT 100V210 CAVOK 28/09 Q1020=
201406101420 METAR ESMX 101420Z VRB04KT 040V230 CAVOK 28/09 Q1020=
201406101350 METAR ESMX 101350Z 17007KT 120V200 CAVOK 27/07 Q1020=
201406101320 METAR ESMX 101320Z 18007KT 140V220 CAVOK 27/09 Q1020=
201406101250 METAR ESMX 101250Z 16007KT 110V250 CAVOK 27/08 Q1021=
201406101220 METAR ESMX 101220Z 18006KT 120V220 CAVOK 27/09 Q1021=
201406101150 METAR ESMX 101150Z 21005KT 150V260 CAVOK 27/09 Q1021=
201406101120 METAR ESMX 101120Z 18006KT 140V230 CAVOK 27/09 Q1021=
201406101050 METAR ESMX 101050Z 18005KT 120V260 CAVOK 26/10 Q1021=
201406101020 METAR ESMX 101020Z 15004KT 080V200 CAVOK 26/08 Q1021=
201406100950 METAR ESMX 100950Z 35006KT 300V010 CAVOK 25/09 Q1021=
201406100920 METAR ESMX 100920Z 04005KT CAVOK 25/09 Q1022=
201406100850 METAR ESMX 100850Z 04004KT 350V120 CAVOK 25/11 Q1021=
201406100750 METAR ESMX 100750Z 05005KT 010V080 CAVOK 22/11 Q1021=
201406100720 METAR ESMX 100720Z 03004KT 350V070 CAVOK 22/11 Q1022=
201406100650 METAR ESMX 100650Z 04006KT CAVOK 21/10 Q1021=
201406100620 METAR ESMX 100620Z 04006KT CAVOK 19/10 Q1021=
201406100550 METAR ESMX 100550Z 06004KT 030V100 CAVOK 19/10 Q1021=
201406100520 METAR ESMX 100520Z 36003KT CAVOK 18/10 Q1021=
201406100450 METAR ESMX 100450Z 02003KT 350V060 CAVOK 16/11 Q1021=
201406100420 METAR ESMX 100420Z 36003KT CAVOK 15/11 Q1021=
201406100350 METAR ESMX 100350Z 00000KT CAVOK 11/09 Q1021=
201406100320 METAR ESMX 100320Z AUTO 00000KT 9999 NCD 09/08 Q1020=
201406100250 METAR ESMX 100250Z AUTO 00000KT 9999 NCD 08/07 Q1021=
201406100220 METAR ESMX 100220Z AUTO 00000KT 9999 NCD 08/06 Q1021=
201406100150 METAR ESMX 100150Z AUTO 00000KT 9999 NCD 09/07 Q1021=
201406100120 METAR ESMX 100120Z AUTO 18002KT 9999 NCD 09/07 Q1021=
201406100050 METAR ESMX 100050Z AUTO 00000KT 9999 NCD 10/07 Q1021=
201406100020 METAR ESMX 100020Z VRB02KT CAVOK 11/08 Q1021=
201406092350 METAR ESMX 092350Z 28004KT CAVOK 11/08 Q1021=
201406092320 METAR ESMX 092320Z 28003KT CAVOK 11/08 Q1020=
201406092250 METAR ESMX 092250Z 00000KT CAVOK 12/08 Q1020=
201406092220 METAR ESMX 092220Z 29005KT CAVOK 13/08 Q1020=
201406092150 METAR ESMX 092150Z 28004KT CAVOK 14/08 Q1020=
201406092120 METAR ESMX 092120Z 30004KT CAVOK 15/08 Q1020=
201406092050 METAR ESMX 092050Z 29004KT CAVOK 17/07 Q1020=
201406092020 METAR ESMX 092020Z 28004KT CAVOK 18/07 Q1020=
201406091950 METAR ESMX 091950Z 27005KT CAVOK 19/07 Q1020=
201406091920 METAR ESMX 091920Z 28007KT CAVOK 20/07 Q1020=
201406091850 METAR ESMX 091850Z 27008KT CAVOK 22/07 Q1019=
201406091820 METAR ESMX 091820Z AUTO 25007KT 9999 NCD 23/07 Q1019=
201406091750 METAR ESMX 091750Z 26008KT CAVOK 24/07 Q1019=
201406091720 METAR ESMX 091720Z 28008KT CAVOK 24/06 Q1019=
201406091650 METAR ESMX 091650Z 27009KT CAVOK 25/06 Q1018=
201406091620 METAR ESMX 091620Z 27010KT 220V320 CAVOK 25/06 Q1018=
201406091550 METAR ESMX 091550Z 29010KT CAVOK 25/06 Q1018=
201406091527 METAR ESMX 091527Z 28010KT 230V300 CAVOK 25/07 Q1018=
201406091520 METAR ESMX 091520Z AUTO 28010KT 240V340 9999 NCD 25/06 Q1019=
201406091450 METAR ESMX 091450Z 28010KT 240V310 CAVOK 25/06 Q1018=
201406091420 METAR ESMX 091420Z 27009KT 210V320 CAVOK 26/08 Q1018=
201406091350 METAR ESMX 091350Z 29009KT 260V350 CAVOK 25/07 Q1019=
201406091323 METAR ESMX 091323Z 30010KT 250V350 CAVOK 26/07 Q1019=
201406091320 METAR ESMX 091320Z AUTO 26010KT 9999 NCD 25/07 Q1019=
201406091258 METAR ESMX 091258Z 29010KT 260V340 CAVOK 25/07 Q1019=
201406091250 METAR ESMX 091250Z AUTO 29010KT 260V330 9999 NCD 25/07 Q1019=
201406091220 METAR ESMX 091220Z AUTO 28009KT 250V330 9999 NCD 24/08 Q1019=
201406091150 METAR ESMX 091150Z 29010KT CAVOK 24/09 Q1019=
201406091120 METAR ESMX 091120Z 27011G22KT 220V300 CAVOK 24/09 Q1019=
201406091050 METAR ESMX 091050Z 30012KT 280V340 CAVOK 24/08 Q1019=
201406091020 METAR ESMX 091020Z 29010KT 250V330 CAVOK 23/07 Q1019=
201406090950 METAR ESMX 090950Z 29011KT CAVOK 23/07 Q1019=
201406090920 METAR ESMX 090920Z 28009KT 250V330 CAVOK 22/09 Q1019=
201406090850 METAR ESMX 090850Z 29010KT 250V320 CAVOK 22/09 Q1019=
201406090820 METAR COR ESMX 090820Z 28009KT CAVOK 21/11 Q1019=
201406090750 METAR ESMX 090750Z 27010KT 240V300 CAVOK 20/13 Q1019=
201406090720 METAR ESMX 090720Z 29009KT CAVOK 20/12 Q1019=
201406090650 METAR ESMX 090650Z 29008KT CAVOK 20/12 Q1019=
201406090620 METAR COR ESMX 090620Z 28008KT 240V310 CAVOK 19/11 Q1019=
201406090550 METAR ESMX 090550Z 27006KT 240V300 CAVOK 18/11 Q1018=
201406090520 METAR ESMX 090520Z 27005KT CAVOK 17/12 Q1018=
201406090450 METAR ESMX 090450Z 26004KT 240V300 CAVOK 16/13 Q1018=
201406090420 METAR ESMX 090420Z VRB03KT CAVOK 15/13 Q1018=
201406090350 METAR ESMX 090350Z 17002KT CAVOK 14/12 Q1018=
201406090320 METAR ESMX 090320Z AUTO 24003KT 9999 OVC062/// 14/12 Q1018=
201406090250 METAR ESMX 090250Z AUTO 22003KT 9999 BKN063/// 13/11 Q1018=
201406090220 METAR ESMX 090220Z AUTO 24003KT 9999 FEW064/// 13/11 Q1018=
201406090150 METAR ESMX 090150Z AUTO 23003KT 9999 BKN065/// 14/11 Q1018=
201406090120 METAR ESMX 090120Z AUTO 28003KT 9999 BKN065/// 15/11 Q1018=
201406090050 METAR ESMX 090050Z AUTO 26002KT 9999 FEW070/// BKN096/// 16/11 Q1018=
201406082320 METAR ESMX 082320Z 25003KT CAVOK 16/11 Q1019=
201406082250 METAR ESMX 082250Z 20003KT CAVOK 17/10 Q1019=
201406082220 METAR ESMX 082220Z AUTO 22003KT 9999 BKN066/// OVC097/// 17/10 Q1019=
201406082150 METAR ESMX 082150Z 19003KT CAVOK 16/10 Q1019=
201406082120 METAR ESMX 082120Z 19004KT CAVOK 17/09 Q1019=
201406082050 METAR ESMX 082050Z AUTO 24003KT 9999 BKN100/// 18/09 Q1019=
201406082020 METAR ESMX 082020Z AUTO 26003KT 9999 SCT110/// 17/10 Q1019=
201406081950 METAR ESMX 081950Z 22003KT 190V250 CAVOK 19/09 Q1019=
201406081920 METAR ESMX 081920Z 27003KT CAVOK 19/08 Q1019=
201406081850 METAR ESMX 081850Z 26004KT CAVOK 20/09 Q1018=
201406081820 METAR ESMX 081820Z 27005KT CAVOK 20/08 Q1019=
201406081750 METAR ESMX 081750Z 27005KT CAVOK 21/08 Q1018=
201406081720 METAR ESMX 081720Z 28009KT CAVOK 23/07 Q1019=
201406081650 METAR COR ESMX 081650Z 26006KT CAVOK 23/06 Q1018=
201406081620 METAR ESMX 081620Z 27007KT CAVOK 24/06 Q1018=
201406081550 METAR ESMX 081550Z 28007KT 220V320 CAVOK 24/08 Q1018=
201406081520 METAR ESMX 081520Z AUTO 22008KT 190V250 9999 NCD 25/08 Q1019=
201406081450 METAR ESMX 081450Z 22008KT 190V300 CAVOK 24/08 Q1019=
201406081420 METAR ESMX 081420Z 25009KT CAVOK 24/10 Q1019=
201406081350 METAR ESMX 081350Z 26007KT CAVOK 24/10 Q1018=
201406081320 METAR ESMX 081320Z 24005KT 210V280 CAVOK 23/09 Q1018=
201406081250 METAR ESMX 081250Z 27006KT 240V300 9999 FEW027 23/09 Q1019=
201406081220 METAR ESMX 081220Z AUTO 24007KT 200V280 9999 FEW084/// 24/09 Q1019=
201406081150 METAR ESMX 081150Z AUTO 22009KT 9999 NCD 24/10 Q1019=
201406081120 METAR ESMX 081120Z AUTO 21010KT 170V240 9999 NCD 23/10 Q1019=
201406081050 METAR ESMX 081050Z AUTO 24009KT 9999 FEW059/// 22/09 Q1019=
201406081020 METAR ESMX 081020Z AUTO 23009KT 190V260 9999 NCD 23/09 Q1019=
201406080950 METAR ESMX 080950Z AUTO 24008KT 200V280 9999 NCD 22/09 Q1019=
201406080920 METAR ESMX 080920Z AUTO 26007KT 200V300 9999 NCD 22/11 Q1019=
201406080850 METAR ESMX 080850Z AUTO 26008KT 220V290 9999 NCD 21/11 Q1019=
201406080820 METAR ESMX 080820Z AUTO 24008KT 9999 NCD 20/10 Q1019=
201406080750 METAR ESMX 080750Z AUTO 23008KT 190V250 9999 NCD 19/12 Q1019=
201406080720 METAR ESMX 080720Z AUTO 23008KT 200V260 9999 NCD 18/12 Q1019=
201406080650 METAR ESMX 080650Z AUTO 24006KT 200V280 9999 NCD 17/12 Q1019=
201406080620 METAR ESMX 080620Z AUTO 26007KT 230V290 9999 NCD 16/12 Q1019=
201406080550 METAR ESMX 080550Z AUTO 22006KT 9999 NCD 15/12 Q1019=
201406080520 METAR ESMX 080520Z AUTO 20003KT 160V240 9999 NCD 13/11 Q1018=
201406080450 METAR ESMX 080450Z AUTO 27003KT 230V310 2500 BR SCT000/// 12/11 Q1018=
201406080420 METAR ESMX 080420Z AUTO 25004KT 9999 FEW001/// 12/11 Q1018=
201406080350 METAR ESMX 080350Z AUTO 26003KT 9999 NCD 11/10 Q1018=
201406080320 METAR ESMX 080320Z AUTO 28002KT 8000 NCD 09/09 Q1018=
201406080250 METAR ESMX 080250Z AUTO 24005KT 9999 NCD 07/06 Q1018=
201406080220 METAR ESMX 080220Z AUTO 31002KT 1000 R01/P2000D R19/P2000N BCFG NCD 07/06 Q1017=
201406080150 METAR ESMX 080150Z AUTO 26004KT 9999 NCD 07/07 Q1018=
201406080120 METAR ESMX 080120Z AUTO 25004KT 1200 R01/P2000N R19/P2000D NCD 09/08 Q1018=
201406080050 METAR ESMX 080050Z AUTO 25004KT 6000 NCD 08/07 Q1018=
201406080020 METAR ESMX 080020Z AUTO 26003KT 9999 NCD 09/08 Q1018=
201406072350 METAR ESMX 072350Z AUTO 26003KT 9999 NCD 09/08 Q1017=
201406072320 METAR ESMX 072320Z AUTO 24003KT 9999 NCD 10/09 Q1017=
201406072250 METAR ESMX 072250Z AUTO 25004KT 9999 NCD 10/09 Q1017=
201406072220 METAR ESMX 072220Z AUTO 26004KT 9999 NCD 11/09 Q1017=
201406072150 METAR ESMX 072150Z AUTO 25005KT 9999 NCD 11/08 Q1017=
201406072120 METAR ESMX 072120Z AUTO 25006KT 9999 NCD 12/09 Q1017=
201406072050 METAR ESMX 072050Z AUTO 25005KT 9999 NCD 11/08 Q1017=
201406072020 METAR ESMX 072020Z AUTO 26003KT 9999 NCD 13/09 Q1016=
201406071950 METAR ESMX 071950Z AUTO 27004KT 9999 NCD 14/09 Q1016=
201406071920 METAR ESMX 071920Z AUTO 25003KT 9999 NCD 15/09 Q1016=
201406071850 METAR ESMX 071850Z AUTO 26004KT 9999 NCD 17/09 Q1016=
201406071820 METAR ESMX 071820Z AUTO 27006KT 9999 NCD 18/08 Q1016=
201406071750 METAR ESMX 071750Z AUTO 30006KT 9999 NCD 18/09 Q1016=
201406071720 METAR ESMX 071720Z AUTO 29009KT 9999 FEW043/// 19/08 Q1016=
201406071650 METAR ESMX 071650Z AUTO 29007KT 240V350 9999 FEW046/// 19/08 Q1015=
201406071620 METAR ESMX 071620Z AUTO 27008KT 240V310 9999 FEW045/// SCT056/// 19/07 Q1015=
201406071550 METAR ESMX 071550Z AUTO 27007KT 240V310 9999 SCT054/// 18/08 Q1015=
201406071520 METAR ESMX 071520Z AUTO 26009KT 230V300 9999 FEW060/// 19/08 Q1015=
201406071450 METAR ESMX 071450Z AUTO 24006KT 200V290 9999 FEW059/// 19/09 Q1015=
201406071420 METAR ESMX 071420Z AUTO 29009KT 9999 FEW041/// BKN062/// 19/09 Q1015=
201406071350 METAR ESMX 071350Z AUTO 27008KT 230V320 9999 FEW038/// BKN060/// 19/09 Q1015=
201406071320 METAR ESMX 071320Z AUTO 26009KT 9999 FEW039/// BKN059/// 19/09 Q1015=
201406071250 METAR ESMX 071250Z 24008KT 200V270 9999 FEW037 BKN059 18/09 Q1015=
201406071220 METAR ESMX 071220Z 27007KT 230V320 9999 FEW028 BKN052 18/09 Q1015=
201406071150 METAR ESMX 071150Z 28008KT 250V310 9999 FEW037 18/09 Q1015=
201406071120 METAR ESMX 071120Z 25010KT 210V280 9999 SCT036 17/08 Q1015=
201406071050 METAR ESMX 071050Z 23012KT 9999 FEW035 SCT041 BKN058 17/08 Q1015=
201406071020 METAR ESMX 071020Z 26010KT 230V290 9999 FEW031 SCT037 17/08 Q1015=
201406070950 METAR ESMX 070950Z 22011KT 190V270 9999 SCT028 BKN045 17/09 Q1015=
201406070920 METAR COR ESMX 070920Z 23008KT 200V260 9999 SCT028 16/09 Q1015=
201406070850 METAR ESMX 070850Z 24008KT 9999 FEW029 SCT040 15/09 Q1015=
201406070820 METAR ESMX 070820Z AUTO 23009KT 9999 FEW028/// SCT033/// BKN041/// 15/09 Q1015=
201406070750 METAR ESMX 070750Z 23010KT 200V280 9999 FEW026 SCT034 BKN041 16/08 Q1015=
201406070720 METAR ESMX 070720Z 20012KT 170V240 9999 FEW026 SCT044 16/10 Q1015=
201406070650 METAR ESMX 070650Z 20010KT 9999 SCT015 13/09 Q1015=
201406070620 METAR COR ESMX 070620Z 22009KT 190V250 9999 SCT029 14/10 Q1015=
201406070550 METAR ESMX 070550Z 21010KT 9999 SCT017 14/10 Q1015=
201406070520 METAR ESMX 070520Z AUTO 21010KT 9999 BKN051/// 14/10 Q1015=
201406070450 METAR ESMX 070450Z AUTO 19009KT 9999 FEW022/// SCT061/// 13/10 Q1015=
201406070420 METAR ESMX 070420Z AUTO 20008KT 9999 FEW041/// BKN065/// 13/09 Q1015=
201406070350 METAR ESMX 070350Z AUTO 18007KT 9999 FEW040/// SCT063/// 12/09 Q1015=
201406070320 METAR ESMX 070320Z AUTO 18006KT 9999 FEW041/// OVC063/// 12/09 Q1015=
201406070250 METAR ESMX 070250Z AUTO 20005KT 9999 OVC057/// 12/09 Q1015=
201406070220 METAR ESMX 070220Z AUTO 16007KT 9999 FEW028/// OVC062/// 12/08 Q1015=
201406070150 METAR ESMX 070150Z AUTO 16006KT 9999 FEW030/// SCT045/// BKN062/// 13/08 Q1016=
201406070120 METAR ESMX 070120Z AUTO 16007KT 9999 SCT043/// BKN053/// 13/09 Q1016=
201406070050 METAR ESMX 070050Z AUTO 15007KT 9999 BKN029/// OVC065/// 13/09 Q1016=
201406070020 METAR ESMX 070020Z AUTO 15006KT 9999 OVC030/// 13/09 Q1016=
201406062350 METAR ESMX 062350Z AUTO 16006KT 9999 FEW034/// SCT042/// BKN052/// 13/09 Q1017=
201406062320 METAR ESMX 062320Z AUTO 16007KT 9999 FEW033/// BKN044/// BKN057/// 13/09 Q1017=
201406062250 METAR ESMX 062250Z AUTO 15007KT 9999 FEW041/// SCT047/// BKN054/// 13/09 Q1017=
201406062220 METAR ESMX 062220Z AUTO 16008KT 9999 FEW050/// SCT062/// BKN080/// 13/09 Q1017=
201406062150 METAR ESMX 062150Z AUTO 16007KT 9999 FEW054/// BKN069/// 13/09 Q1017=
201406062120 METAR ESMX 062120Z AUTO 16007KT 9999 FEW051/// BKN068/// BKN088/// 14/09 Q1017=
201406062050 METAR ESMX 062050Z AUTO 15007KT 120V180 9999 FEW046/// SCT070/// BKN086/// 14/09 Q1017=
201406062020 METAR ESMX 062020Z AUTO 16007KT 9999 OVC047/// 14/09 Q1017=
201406061950 METAR ESMX 061950Z AUTO 16005KT 9999 OVC047/// 14/09 Q1017=
201406061920 METAR ESMX 061920Z AUTO 12003KT 100V170 9999 OVC049/// 13/10 Q1017=
201406061850 METAR ESMX 061850Z AUTO 00000KT 9999 OVC053/// 13/10 Q1017=
201406061820 METAR ESMX 061820Z AUTO 00000KT 9999 OVC058/// 13/10 Q1017 RERA=
201406061750 METAR ESMX 061750Z AUTO VRB02KT 9999 BKN063/// 14/09 Q1017=
201406061720 METAR ESMX 061720Z AUTO 24006KT 9999 -RA SCT059/// 14/09 Q1017=
201406061650 METAR ESMX 061650Z AUTO 22005KT 9999 BKN061/// 15/08 Q1017=
201406061620 METAR ESMX 061620Z AUTO 21013KT 9999 FEW078/// 16/07 Q1017=
201406061550 METAR ESMX 061550Z AUTO 18008KT 9999 BKN077/// 18/08 Q1017=
201406061520 METAR ESMX 061520Z 20010KT 9999 FEW045 BKN080 17/08 Q1017=
201406061450 METAR ESMX 061450Z 20010KT 9999 FEW045 BKN083 18/07 Q1017=
201406061420 METAR ESMX 061420Z AUTO 20012KT 9999 FEW051/// BKN081/// 18/07 Q1017=
201406061350 METAR ESMX 061350Z AUTO 20012KT 9999 FEW047/// BKN074/// 18/07 Q1017=
201406061320 METAR ESMX 061320Z AUTO 17011KT 9999 FEW044/// SCT053/// BKN077/// 18/08 Q1017=
201406061250 METAR ESMX 061250Z AUTO 17009KT 140V200 9999 FEW042/// BKN067/// 18/07 Q1017=
201406061220 METAR ESMX 061220Z AUTO 21008KT 170V230 9999 FEW041/// 18/09 Q1017=
201406061150 METAR ESMX 061150Z AUTO 19011KT 9999 FEW041/// SCT057/// BKN085/// 17/09 Q1017=
201406061120 METAR ESMX 061120Z 20010KT 9999 FEW040 BKN070 17/09 Q1017=
201406061050 METAR ESMX 061050Z 16008KT 120V200 9999 FEW040 SCT070 19/08 Q1017=
201406061020 METAR ESMX 061020Z 15007KT 120V190 9999 SCT041 SCT070 18/08 Q1017=
201406060950 METAR ESMX 060950Z 16009KT 9999 SCT040 18/07 Q1017=
201406060920 METAR ESMX 060920Z 16009KT 130V190 9999 SCT035 18/09 Q1017=
201406060850 METAR COR ESMX 060850Z 18009KT 9999 SCT033 16/08 Q1017=
201406060820 METAR ESMX 060820Z 18011KT 9999 SCT030 16/09 Q1017=
201406060750 METAR COR ESMX 060750Z 16011KT 120V190 9999 SCT033 16/09 Q1017=
201406060720 METAR COR ESMX 060720Z 15010KT 9999 SCT025 17/09 Q1017=
201406060650 METAR ESMX 060650Z AUTO 19009KT 9999 FEW018/// SCT021/// 16/10 Q1017=
201406060620 METAR ESMX 060620Z AUTO 16008KT 110V210 9999 NCD 15/11 Q1017=
201406060550 METAR ESMX 060550Z AUTO 16007KT 130V190 9999 NCD 14/11 Q1017=
201406060520 METAR ESMX 060520Z AUTO 16006KT 9999 NCD 13/11 Q1017=
201406060450 METAR ESMX 060450Z AUTO 14005KT 9999 NCD 12/10 Q1017=
201406060420 METAR ESMX 060420Z AUTO 13004KT 100V160 9999 NCD 11/11 Q1017=
201406060350 METAR ESMX 060350Z AUTO 13004KT 9999 FEW003/// 11/10 Q1016=
201406060320 METAR ESMX 060320Z AUTO 16005KT 2400 NCD 11/10 Q1016=
201406060250 METAR ESMX 060250Z AUTO 16004KT 0450 R01/P2000N R19/0500V1400D NCD 10/09 Q1016=
201406060220 METAR ESMX 060220Z AUTO 17004KT 0550 R01/P2000N R19/0800VP2000N NCD 09/08 Q1016=
201406060150 METAR ESMX 060150Z AUTO 19005KT 0550 R01/0800V1700N R19/P2000N BCFG NCD 09/08 Q1016=
201406060120 METAR ESMX 060120Z AUTO 17003KT 0150 R01/0275V1000U R19/0650VP2000D BCFG NCD 09/08 Q1016=
201406060050 METAR ESMX 060050Z 20004KT 9999 R01/P2000N R19/0550V0900N BCFG FEW200 10/09 Q1016=
201406060020 METAR COR ESMX 060020Z 19004KT 8000 R01/0900V1700N R19/0250V0500N BCFG NSC 09/08 Q1016=
201406052350 METAR ESMX 052350Z 21004KT 6000 R01/P2000N R19/0400V0550N BCFG NSC 10/09 Q1015=
201406052320 METAR ESMX 052320Z 21005KT 8000 R01/P2000N R19/0800V1600U BCFG NSC 09/09 Q1015=
201406052250 METAR COR ESMX 052250Z 19003KT 8000 R01/0800VP2000D R19/0600N MIFG NSC 10/09 Q1015=
201406052220 METAR ESMX 052220Z 16003KT 8000 BR FEW010 11/10 Q1015=
201406052150 METAR ESMX 052150Z 20004KT 9999 FEW010 11/11 Q1014=
201406052120 METAR ESMX 052120Z 20004KT 9999 FEW007 SCT040 12/11 Q1014=
201406052050 METAR ESMX 052050Z 21005KT 9999 SCT008 BKN025 13/12 Q1014=
201406052023 METAR ESMX 052023Z 22006KT 9999 FEW010 SCT027 BKN030 13/12 Q1014=
201406052020 METAR ESMX 052020Z AUTO 23007KT 9999 FEW010/// SCT020/// OVC030/// 13/12 Q1013=
201406051950 METAR ESMX 051950Z 17007KT 150V210 7000 -SHRA SCT010 BKN020 15/13 Q1013=
201406051920 METAR ESMX 051920Z AUTO 16008KT 9999 FEW011/// SCT017/// BKN021/// 15/13 Q1013=
201406051850 METAR ESMX 051850Z 16007KT 9999 FEW012 SCT017 BKN027 15/13 Q1012=
201406051822 METAR ESMX 051822Z 15009KT 110V170 9999 SCT015 BKN030 15/13 Q1012=
201406051820 METAR ESMX 051820Z AUTO 16009KT 9999 FEW017/// SCT023/// BKN045/// 15/12 Q1012=
201406051750 METAR ESMX 051750Z 15008KT 9999 SCT019 BKN035 16/12 Q1011=
201406051721 METAR ESMX 051721Z 16007KT 9999 SCT019 BKN033 16/13 Q1011=
201406051650 METAR ESMX 051650Z 18007KT 9999 FEW027 SCT068 15/13 Q1011 RERA=
201406051620 METAR ESMX 051620Z 16011KT 9999 -RA FEW030 16/13 Q1011=
201406051550 METAR ESMX 051550Z 16009KT 9999 FEW045 19/11 Q1010=
201406051520 METAR ESMX 051520Z 15009KT 120V190 9999 FEW039 20/10 Q1010=
201406051450 METAR ESMX 051450Z AUTO 16011KT 9999 FEW038/// SCT053/// BKN064/// 19/11 Q1010=
201406051420 METAR ESMX 051420Z 16010KT 9999 FEW036 SCT059 20/10 Q1010=
201406051350 METAR ESMX 051350Z 16008KT 120V190 9999 FEW031 19/11 Q1010=
201406051320 METAR ESMX 051320Z 15009KT 9999 FEW027 SCT036 BKN053 19/12 Q1010=
201406051250 METAR ESMX 051250Z 16008KT 120V200 9999 FEW026 SCT034 BKN064 19/11 Q1010=
201406051220 METAR ESMX 051220Z 16007KT 110V190 9999 FEW027 BKN058 18/12 Q1010=
201406051150 METAR ESMX 051150Z 15008KT 9999 FEW028 BKN050 18/11 Q1010=
201406051120 METAR ESMX 051120Z 15006KT 110V180 9999 SCT026 BKN039 18/12 Q1010=
201406051050 METAR ESMX 051050Z 15005KT 100V190 9999 FEW024 SCT035 BKN051 18/12 Q1009=
201406051020 METAR ESMX 051020Z 17006KT 130V190 9999 FEW024 BKN028 17/12 Q1009=
201406050950 METAR ESMX 050950Z 17007KT 9999 FEW026 17/12 Q1009=
201406050920 METAR ESMX 050920Z 15007KT 120V190 9999 FEW013 SCT018 17/12 Q1009=
201406050850 METAR ESMX 050850Z 14005KT 080V190 9999 FEW013 BKN026 BKN032 16/12 Q1010=
201406050820 METAR ESMX 050820Z 16004KT 130V200 9999 FEW007 SCT010 BKN015 15/12 Q1010=
201406050750 METAR ESMX 050750Z AUTO 13004KT 100V180 9999 FEW006/// SCT008/// BKN010/// 14/12 Q1010=
201406050720 METAR ESMX 050720Z VRB02KT 9999 FEW004 SCT007 BKN009 14/12 Q1010=
201406050650 METAR ESMX 050650Z 09003KT 9999 BKN004 14/13 Q1010=
201406050620 METAR ESMX 050620Z VRB02KT 9999 FEW002 BKN004 13/12 Q1010=
201406050550 METAR ESMX 050550Z VRB03KT 9999 FEW003 SCT018 BKN025 13/12 Q1010=
201406050520 METAR ESMX 050520Z 04005KT 9999 FEW002 SCT004 BKN018 13/12 Q1010=
201406050450 METAR ESMX 050450Z 04006KT 9999 FEW003 BKN005 13/12 Q1010=
201406050420 METAR ESMX 050420Z 02004KT 9999 FEW004 SCT026 OVC033 13/12 Q1010=
201406050350 METAR ESMX 050350Z 02004KT 9999 SCT006 BKN035 13/12 Q1011=
201406050320 METAR ESMX 050320Z AUTO 06003KT 030V100 9999 FEW005/// SCT007/// BKN028/// 12/12 Q1011 REDZ=
201406050250 METAR ESMX 050250Z AUTO 06004KT 020V100 9999 -DZ BKN005/// OVC009/// 13/12 Q1011=
201406050220 METAR ESMX 050220Z AUTO 06004KT 020V100 8000 DZ FEW003/// SCT005/// OVC007/// 13/12 Q1011=
201406050150 METAR ESMX 050150Z AUTO 04004KT 350V070 7000 -RA BKN004/// BKN008/// 13/12 Q1011=
201406050120 METAR ESMX 050120Z AUTO 08004KT 040V110 9999 -RA FEW004/// OVC005/// 13/12 Q1012=
201406042320 METAR ESMX 042320Z 04004KT 9999 -RA FEW005 SCT007 BKN009 13/12 Q1012=
201406042250 METAR ESMX 042250Z 08003KT 030V110 9999 -DZ SCT006 BKN009 13/12 Q1012=
201406042226 METAR ESMX 042226Z 08003KT 050V120 9999 DZ FEW006 BKN009 13/12 Q1012 REDZ=
201406042220 METAR ESMX 042220Z AUTO 09003KT 050V170 9999 DZ FEW006/// SCT008/// OVC010/// 13/12 Q1012 REDZ=
201406042150 METAR ESMX 042150Z 07003KT 010V150 9999 -DZ SCT006 OVC010 13/12 Q1012=
201406042120 METAR ESMX 042120Z 10005KT 040V160 9999 OVC006 13/12 Q1013=
201406042100 METAR ESMX 042100Z 10005KT 060V150 9999 BKN006 OVC009 13/12 Q1013=
201406042050 METAR ESMX 042050Z AUTO 09006KT 050V150 9999 SCT006/// BKN009/// OVC012/// 13/12 Q1013=
201406042020 METAR ESMX 042020Z 10005KT 050V140 9999 SCT007 BKN012 14/12 Q1013=
201406041950 METAR ESMX 041950Z 08004KT 030V120 9999 FEW009 OVC011 14/12 Q1013=
201406041920 METAR ESMX 041920Z 09006KT 040V150 9999 FEW009 BKN015 14/12 Q1013=
201406041850 METAR ESMX 041850Z 07007KT 040V110 9999 FEW011 SCT014 BKN018 15/12 Q1013=
201406041820 METAR ESMX 041820Z 08005KT 040V120 9999 FEW011 BKN021 15/12 Q1012=
201406041750 METAR ESMX 041750Z AUTO 09005KT 030V130 9999 FEW027/// BKN032/// 15/12 Q1012=
201406041721 METAR ESMX 041721Z 08005KT 020V170 9999 FEW015 BKN025 15/12 Q1012=
201406041650 METAR ESMX 041650Z 08007KT 040V120 9999 FEW013 BKN032 15/12 Q1012=
201406041620 METAR ESMX 041620Z 08007KT 020V120 9999 FEW016 BKN028 16/12 Q1013=
201406041550 METAR ESMX 041550Z 08008KT 030V120 9999 FEW016 BKN029 16/12 Q1013=
201406041520 METAR ESMX 041520Z 09006KT 050V170 9999 FEW014 SCT020 BKN025 16/12 Q1013=
201406041450 METAR ESMX 041450Z 10006KT 060V150 9999 FEW020 BKN029 16/11 Q1013=
201406041420 METAR ESMX 041420Z 09006KT 030V140 9999 FEW013 SCT017 BKN019 15/12 Q1013=
201406041350 METAR ESMX 041350Z 12005KT 070V180 9999 FEW014 SCT020 BKN024 16/11 Q1013=
201406041320 METAR ESMX 041320Z 11006KT 070V150 9999 FEW015 SCT019 BKN024 15/11 Q1013=
201406041250 METAR ESMX 041250Z 13005KT 080V190 9999 FEW013 SCT016 BKN019 15/11 Q1013=
201406041220 METAR ESMX 041220Z 13006KT 070V170 9999 FEW013 BKN016 15/11 Q1013=
201406041150 METAR ESMX 041150Z 13007KT 080V170 9999 OVC016 15/11 Q1013=
201406041120 METAR ESMX 041120Z 12004KT 070V160 9999 FEW021 OVC026 15/11 Q1013=
201406041050 METAR ESMX 041050Z 13004KT 070V210 9999 FEW013 OVC021 15/11 Q1013=
201406041020 METAR ESMX 041020Z 13005KT 090V170 9999 FEW010 SCT013 BKN015 14/11 Q1013=
201406040950 METAR ESMX 040950Z 13004KT 080V170 9999 FEW008 BKN011 OVC016 14/12 Q1013=
201406040920 METAR ESMX 040920Z 12005KT 080V160 9999 FEW007 SCT009 BKN013 14/12 Q1013=
201406040850 METAR ESMX 040850Z AUTO 09004KT 060V130 9999 SCT005/// BKN007/// OVC008/// 13/11 Q1013=
201406040820 METAR ESMX 040820Z 12004KT 080V160 9999 OVC005 13/11 Q1013=
201406040750 METAR ESMX 040750Z 12004KT 090V170 6000 BR OVC004 12/11 Q1013=
201406040720 METAR ESMX 040720Z 14004KT 090V170 9999 OVC005 12/11 Q1013=
201406040650 METAR ESMX 040650Z 13004KT 090V160 9999 FEW006 SCT007 BKN009 12/11 Q1013=
201406040620 METAR ESMX 040620Z 16005KT 9999 FEW003 SCT005 BKN007 12/11 Q1013=
201406040550 METAR COR ESMX 040550Z 13004KT 100V160 9999 OVC003 12/11 Q1013=
201406040520 METAR ESMX 040520Z 15005KT 110V170 9999 SCT002 BKN004 OVC006 12/11 Q1013=
201406040450 METAR ESMX 040450Z 14004KT 9999 FEW003 SCT006 BKN008 12/11 Q1013=
201406040420 METAR ESMX 040420Z 15004KT 9999 FEW003 SCT005 OVC014 12/11 Q1013=
201406040350 METAR ESMX 040350Z 14004KT 9999 BKN002 12/11 Q1013=
201406040320 METAR ESMX 040320Z AUTO 17004KT 7000 BR FEW002/// SCT003/// BKN005/// 12/11 Q1012=
201406040250 METAR ESMX 040250Z AUTO 16004KT 5000 BR NCD 12/12 Q1012=
201406040220 METAR ESMX 040220Z AUTO 17004KT 5000 BR FEW002/// 12/12 Q1012=
201406040150 METAR ESMX 040150Z AUTO 19003KT 3700 BR FEW001/// 12/12 Q1012=
201406040120 METAR ESMX 040120Z AUTO 18004KT 2900 BR FEW001/// SCT003/// BKN005/// 12/12 Q1012 REDZ=
201406040050 METAR ESMX 040050Z AUTO 17003KT 2500 BR FEW002/// SCT005/// BKN007/// 12/12 Q1012 REDZ=
201406040020 METAR ESMX 040020Z AUTO 17003KT 4800 BR OVC004/// 12/12 Q1012=
201406032350 METAR ESMX 032350Z 18003KT 9999 FEW005 SCT017 OVC020 12/12 Q1012=
201406032320 METAR ESMX 032320Z 14001KT 9999 FEW014 SCT016 OVC021 12/11 Q1013=
201406032250 METAR ESMX 032250Z 00000KT 9999 FEW014 SCT016 BKN019 12/11 Q1012=
201406032220 METAR ESMX 032220Z 21002KT 4700 BR FEW007 BKN011 OVC017 12/11 Q1013=
201406032150 METAR ESMX 032150Z 21002KT 9999 FEW006 SCT009 OVC010 12/12 Q1013=
201406032120 METAR COR ESMX 032120Z 20002KT 9999 BKN005 OVC010 12/11 Q1013=
201406032050 METAR ESMX 032050Z 36002KT 9999 FEW006 BKN011 OVC020 12/11 Q1013=
201406032020 METAR ESMX 032020Z VRB02KT 9999 FEW009 OVC019 12/11 Q1013 REDZ=
201406031950 METAR ESMX 031950Z AUTO 04002KT 4100 DZ FEW013/// OVC019/// 12/11 Q1013=
201406031920 METAR ESMX 031920Z 03003KT 9999 FEW007 SCT010 BKN014 13/12 Q1013=
201406031850 METAR ESMX 031850Z AUTO VRB03KT 6000 BR FEW007/// SCT010/// OVC012/// 13/12 Q1013=
201406031820 METAR ESMX 031820Z VRB02KT 9999 FEW007 SCT011 BKN018 13/12 Q1013=
201406031750 METAR COR ESMX 031750Z 01002KT 8000 -DZ FEW006 SCT008 BKN018 13/12 Q1013=
201406031720 METAR ESMX 031720Z 05004KT 010V110 5000 -DZ FEW003 SCT018 BKN021 13/12 Q1013=
201406031650 METAR ESMX 031650Z 02004KT 4800 -DZ FEW002 SCT007 BKN009 13/12 Q1013=
201406031620 METAR ESMX 031620Z 35004KT 4800 DZ FEW003 SCT006 BKN007 13/12 Q1013=
201406031550 METAR ESMX 031550Z 03004KT 3800 DZ FEW006 SCT008 BKN017 13/12 Q1013=
201406031520 METAR ESMX 031520Z 04007KT 5000 -DZ FEW007 SCT012 BKN018 13/12 Q1013=
201406031450 METAR ESMX 031450Z 04004KT 4100 DZ FEW008 BKN010 13/12 Q1013 REDZ=
201406031420 METAR ESMX 031420Z 01004KT 7000 DZ FEW009 OVC014 13/12 Q1013=
201406031350 METAR ESMX 031350Z 02005KT 360V060 7000 BR BKN010 OVC016 13/12 Q1014 REDZ=
201406031320 METAR ESMX 031320Z 03006KT 9999 OVC011 13/11 Q1014=
201406031250 METAR ESMX 031250Z 03006KT 9999 OVC010 13/11 Q1014=
201406031220 METAR ESMX 031220Z 03007KT 9999 OVC009 13/11 Q1014=
201406031150 METAR ESMX 031150Z 01007KT 9999 FEW008 OVC009 13/11 Q1014=
201406031120 METAR ESMX 031120Z 02007KT 9999 FEW008 OVC009 13/11 Q1014=
201406031050 METAR ESMX 031050Z 03008KT 9999 BKN007 OVC010 13/11 Q1014=
201406031020 METAR ESMX 031020Z 01008KT 9999 OVC006 12/11 Q1015=
201406030950 METAR ESMX 030950Z 02009KT 9999 -DZ FEW006 OVC008 12/11 Q1015=
201406030920 METAR ESMX 030920Z 02007KT 9999 -RA BKN006 OVC010 12/11 Q1015=
201406030850 METAR ESMX 030850Z 03008KT 9999 OVC006 12/11 Q1015=
201406030820 METAR ESMX 030820Z 02008KT 9999 -RA FEW005 OVC006 11/10 Q1015=
201406030750 METAR ESMX 030750Z 02008KT 9999 -RA OVC004 11/10 Q1015=
201406030720 METAR ESMX 030720Z 01009KT 6000 BR FEW005 SCT006 OVC008 11/10 Q1015=
201406030650 METAR ESMX 030650Z 01008KT 5000 -RA FEW005 SCT007 BKN008 11/10 Q1016=
201406030620 METAR ESMX 030620Z 35010KT 9999 -RA OVC011 10/09 Q1016=
201406030550 METAR ESMX 030550Z 35009KT 8000 RA OVC013 10/09 Q1016 REDZ=
201406030520 METAR ESMX 030520Z 34009KT 9999 -RA FEW015 SCT018 BKN021 11/09 Q1016=
201406030450 METAR ESMX 030450Z 34009KT 9999 -RA FEW026 BKN031 11/09 Q1016=
201406030420 METAR ESMX 030420Z 01009KT 9999 -DZ FEW016 OVC030 11/08 Q1017=
201406030350 METAR ESMX 030350Z 01008KT 9999 OVC031 12/07 Q1017=
201406030320 METAR ESMX 030320Z AUTO 02007KT 9999 OVC034/// 12/07 Q1017=
201406030250 METAR ESMX 030250Z AUTO 01007KT 9999 OVC036/// 12/07 Q1017=
201406030220 METAR ESMX 030220Z AUTO 02006KT 9999 OVC045/// 12/07 Q1017=
201406030150 METAR ESMX 030150Z AUTO 01005KT 9999 BKN045/// 11/07 Q1017=
201406030120 METAR ESMX 030120Z AUTO 36006KT 9999 NCD 11/08 Q1018=
201406030050 METAR ESMX 030050Z AUTO 01007KT 9999 NCD 11/07 Q1018=
201406030020 METAR ESMX 030020Z AUTO 02006KT 9999 NCD 11/07 Q1018=
201406022350 METAR ESMX 022350Z 02004KT 340V050 CAVOK 11/07 Q1019=
201406022320 METAR ESMX 022320Z AUTO 04005KT 9999 NCD 11/07 Q1019=
201406022250 METAR ESMX 022250Z 07005KT 030V100 CAVOK 11/07 Q1019=
201406022220 METAR ESMX 022220Z 07004KT CAVOK 12/07 Q1019=
201406022150 METAR ESMX 022150Z 06004KT 030V100 CAVOK 12/07 Q1019=
201406022120 METAR ESMX 022120Z AUTO 09003KT 9999 NCD 11/07 Q1019=
201406022050 METAR ESMX 022050Z 07002KT CAVOK 13/07 Q1019=
201406022020 METAR ESMX 022020Z 08004KT 060V120 CAVOK 14/07 Q1020=
201406021950 METAR ESMX 021950Z VRB05KT 260V110 CAVOK 15/07 Q1019=
201406021920 METAR ESMX 021920Z AUTO 08005KT 040V110 9999 NCD 16/06 Q1019=
201406021850 METAR ESMX 021850Z 06006KT 030V110 CAVOK 17/06 Q1019=
201406021820 METAR ESMX 021820Z 06007KT 020V090 CAVOK 17/07 Q1019=
201406021750 METAR ESMX 021750Z 05007KT 010V080 CAVOK 18/07 Q1019=
201406021720 METAR ESMX 021720Z 05007KT 020V090 CAVOK 19/06 Q1019=
201406021650 METAR ESMX 021650Z 08007KT 020V120 CAVOK 20/06 Q1019=
201406021620 METAR ESMX 021620Z 04009KT CAVOK 20/04 Q1019=
201406021550 METAR ESMX 021550Z 05009KT 360V090 CAVOK 21/05 Q1019=
201406021520 METAR ESMX 021520Z 04008KT CAVOK 21/05 Q1019=
201406021450 METAR ESMX 021450Z 07007KT 040V110 CAVOK 21/03 Q1019=
201406021420 METAR ESMX 021420Z 04008KT 010V080 CAVOK 21/03 Q1019=
201406021350 METAR ESMX 021350Z 04007KT 350V110 CAVOK 22/04 Q1019=
201406021320 METAR ESMX 021320Z 04008KT 350V100 CAVOK 21/04 Q1019=
201406021250 METAR ESMX 021250Z 03009KT 360V070 CAVOK 21/04 Q1019=
201406021220 METAR ESMX 021220Z 03008KT 350V070 CAVOK 21/05 Q1019=
201406021150 METAR ESMX 021150Z 05010KT CAVOK 21/04 Q1020=
201406021120 METAR ESMX 021120Z 05009KT 020V080 CAVOK 21/05 Q1020=
201406021050 METAR ESMX 021050Z 03008KT 350V070 CAVOK 21/05 Q1020=
201406021020 METAR ESMX 021020Z 03006KT 340V070 9999 FEW040 21/05 Q1020=
201406020950 METAR ESMX 020950Z 04008KT 020V100 CAVOK 20/05 Q1020=
201406020920 METAR ESMX 020920Z 04006KT 350V140 CAVOK 20/05 Q1020=
201406020850 METAR COR ESMX 020850Z 07005KT 010V110 CAVOK 19/05 Q1020=
201406020820 METAR ESMX 020820Z AUTO 05006KT 350V150 9999 NCD 19/05 Q1020=
201406020750 METAR ESMX 020750Z AUTO 07007KT 030V120 9999 NCD 19/06 Q1021=
201406020720 METAR COR ESMX 020720Z 05006KT 010V100 CAVOK 18/09 Q1021=
201406020650 METAR ESMX 020650Z 05005KT 010V080 CAVOK 16/10 Q1021=
201406020620 METAR ESMX 020620Z 06004KT 030V100 CAVOK 16/10 Q1021=
201406020550 METAR ESMX 020550Z 06005KT 020V110 CAVOK 14/10 Q1021=
201406020520 METAR ESMX 020520Z 06003KT 350V090 CAVOK 14/10 Q1021=
201406020450 METAR ESMX 020450Z VRB01KT CAVOK 13/11 Q1021=
201406020420 METAR COR ESMX 020420Z 00000KT CAVOK 11/10 Q1021=
201406020350 METAR ESMX 020350Z 19001KT CAVOK 08/07 Q1021=
201406020320 METAR ESMX 020320Z AUTO 15002KT 9999 NCD 06/06 Q1021=
201406020250 METAR ESMX 020250Z AUTO 07001KT 3700 BR NCD 06/05 Q1021=
201406020220 METAR ESMX 020220Z AUTO 08001KT 9999 NCD 06/05 Q1021=
201406020150 METAR ESMX 020150Z AUTO 18002KT 9999 BCFG NCD 05/05 Q1021=
201406020120 METAR ESMX 020120Z AUTO 14001KT 9999 BCFG NCD 07/06 Q1021=
201406020050 METAR ESMX 020050Z AUTO 00000KT 0300 R01/P2000N R19/P2000N FG NCD 07/07 Q1020=
201406020020 METAR ESMX 020020Z AUTO 00000KT 1700 NCD 08/07 Q1021=
201406012350 METAR ESMX 012350Z 23002KT 7000 BCFG NSC 09/08 Q1021=
201406012320 METAR ESMX 012320Z 22004KT CAVOK 09/08 Q1021=
201406012250 METAR ESMX 012250Z 15003KT 120V190 CAVOK 10/09 Q1021=
201406012220 METAR ESMX 012220Z 17004KT CAVOK 10/09 Q1021=
201406012150 METAR ESMX 012150Z VRB03KT CAVOK 10/09 Q1021=
201406012120 METAR COR ESMX 012120Z 19004KT CAVOK 10/08 Q1021=
201406012050 METAR ESMX 012050Z 18005KT CAVOK 12/09 Q1021=
201406012020 METAR ESMX 012020Z 21004KT CAVOK 12/09 Q1021=
201406011950 METAR ESMX 011950Z 20004KT CAVOK 13/10 Q1021=
201406011920 METAR ESMX 011920Z 20005KT CAVOK 14/10 Q1020=
201406011850 METAR ESMX 011850Z 21005KT CAVOK 15/10 Q1020=
201406011820 METAR COR ESMX 011820Z 20006KT CAVOK 16/10 Q1020=
201406011750 METAR ESMX 011750Z 19009KT CAVOK 18/10 Q1020=
201406011720 METAR ESMX 011720Z AUTO 18008KT 150V210 9999 BKN063/// BKN100/// 19/09 Q1020=
201406011650 METAR ESMX 011650Z 16004KT CAVOK 20/05 Q1019=
201406011620 METAR ESMX 011620Z 12004KT 060V190 CAVOK 20/05 Q1019=
201406011550 METAR ESMX 011550Z 09006KT 010V160 CAVOK 21/05 Q1019=
201406011520 METAR ESMX 011520Z 17006KT 130V200 CAVOK 21/05 Q1019=
201406011450 METAR COR ESMX 011450Z 17005KT 090V210 CAVOK 21/05 Q1019=
201406011420 METAR ESMX 011420Z 03003KT 320V090 CAVOK 22/05 Q1019=
201406011350 METAR ESMX 011350Z AUTO 06005KT 020V150 9999 FEW098/// 21/05 Q1019=
201406011320 METAR ESMX 011320Z VRB03KT 290V200 CAVOK 22/04 Q1019=
201406011250 METAR ESMX 011250Z 03006KT 350V100 CAVOK 22/06 Q1019=
201406011220 METAR ESMX 011220Z AUTO 06005KT 020V140 9999 FEW091/// 21/05 Q1019=
