##########################################################
# Query made at 04/19/2024 21:38:41 UTC
# Time interval: from 03/01/2014 12:00  to 03/31/2014 12:59  UTC
##########################################################

##########################################################
# ESMX, Vaxjo (Sweden)
# WMO index: 02641. WIGOS ID: 0-20000-0-02648
# Latitude 56-51N. Longitude 014-50E. Altitude 199 m.
##########################################################

201403311250 METAR COR ESMX 311250Z 02010KT CAVOK 11/01 Q1012=
201403311220 METAR ESMX 311220Z 36008KT CAVOK 11/M03 Q1013=
201403311150 METAR ESMX 311150Z 36004KT 300V030 CAVOK 12/M00 Q1013=
201403311120 METAR ESMX 311120Z AUTO 02006KT 9999 FEW062/// 11/M00 Q1013=
201403311050 METAR ESMX 311050Z 35008KT CAVOK 11/M00 Q1013=
201403311020 METAR ESMX 311020Z 02003KT 320V100 CAVOK 11/01 Q1013=
201403310950 METAR ESMX 310950Z 06004KT 030V100 CAVOK 10/03 Q1013=
201403310920 METAR ESMX 310920Z 02005KT CAVOK 09/02 Q1013=
201403310850 METAR ESMX 310850Z 02003KT 330V070 CAVOK 10/02 Q1013=
201403310820 METAR ESMX 310820Z 35005KT CAVOK 08/02 Q1013=
201403310750 METAR ESMX 310750Z 34003KT 320V020 CAVOK 07/02 Q1013=
201403310720 METAR ESMX 310720Z 00000KT CAVOK 04/01 Q1013=
201403310650 METAR ESMX 310650Z 00000KT CAVOK 01/01 Q1013=
201403310620 METAR ESMX 310620Z VRB01KT CAVOK M00/M01 Q1013=
201403310550 METAR ESMX 310550Z 00000KT CAVOK M02/M03 Q1013=
201403310520 METAR COR ESMX 310520Z 00000KT CAVOK M02/M03 Q1013=
201403310450 METAR COR ESMX 310450Z VRB02KT CAVOK M03/M03 Q1013=
201403310420 METAR ESMX 310420Z 00000KT CAVOK M03/M03 Q1013=
201403310350 METAR COR ESMX 310350Z 00000KT CAVOK M03/M04 Q1014=
201403310320 METAR ESMX 310320Z AUTO 00000KT 9999 NCD M03/M03 Q1014=
201403310250 METAR ESMX 310250Z AUTO 00000KT 9999 NCD M03/M03 Q1014=
201403310220 METAR ESMX 310220Z AUTO 00000KT 9999 NCD M02/M03 Q1014=
201403310150 METAR ESMX 310150Z AUTO 00000KT 9999 NCD M02/M03 Q1014=
201403310120 METAR ESMX 310120Z AUTO 00000KT 9999 NCD M02/M03 Q1014=
201403310050 METAR ESMX 310050Z AUTO 00000KT 9999 NCD M02/M03 Q1014=
201403310020 METAR ESMX 310020Z AUTO 00000KT 9999 NCD M01/M03 Q1014=
201403302350 METAR ESMX 302350Z AUTO 00000KT 9999 NCD M00/M02 Q1014=
201403302320 METAR ESMX 302320Z 36002KT CAVOK 01/M01 Q1015=
201403302250 METAR ESMX 302250Z 01003KT CAVOK 02/M00 Q1015=
201403302220 METAR ESMX 302220Z AUTO 02006KT 9999 NCD 03/M00 Q1015=
201403302150 METAR ESMX 302150Z 02004KT CAVOK 03/M00 Q1015=
201403302120 METAR ESMX 302120Z 02003KT CAVOK 04/M00 Q1015=
201403302050 METAR ESMX 302050Z 34003KT CAVOK 05/00 Q1015=
201403302020 METAR ESMX 302020Z VRB03KT CAVOK 05/00 Q1015=
201403301950 METAR ESMX 301950Z AUTO 29005KT 9999 NCD 07/00 Q1015=
201403301920 METAR ESMX 301920Z 25005KT CAVOK 05/M01 Q1015=
201403301850 METAR ESMX 301850Z 24004KT CAVOK 06/M01 Q1015=
201403301820 METAR ESMX 301820Z 25003KT CAVOK 07/M01 Q1015=
201403301750 METAR ESMX 301750Z 25004KT CAVOK 09/M01 Q1015=
201403301720 METAR COR ESMX 301720Z 25004KT CAVOK 11/M02 Q1015=
201403301650 METAR ESMX 301650Z 26004KT CAVOK 14/M03 Q1016=
201403301620 METAR COR ESMX 301620Z 26005KT CAVOK 14/M04 Q1016=
201403301550 METAR ESMX 301550Z 30005KT 260V330 CAVOK 15/M04 Q1016=
201403301520 METAR ESMX 301520Z 25003KT 200V310 CAVOK 15/M04 Q1016=
201403301450 METAR ESMX 301450Z 31005KT 290V010 CAVOK 15/M04 Q1016=
201403301420 METAR ESMX 301420Z 29005KT 210V330 CAVOK 15/M04 Q1017=
201403301350 METAR ESMX 301350Z 30006KT CAVOK 15/M03 Q1017=
201403301320 METAR ESMX 301320Z 29005KT 250V010 CAVOK 16/M03 Q1017=
201403301250 METAR ESMX 301250Z 30005KT 260V330 CAVOK 15/M03 Q1018=
201403301220 METAR ESMX 301220Z AUTO 33006KT 290V360 9999 NCD 15/M03 Q1018=
201403301150 METAR ESMX 301150Z AUTO 30004KT 240V340 9999 NCD 15/M02 Q1018=
201403301120 METAR ESMX 301120Z AUTO 28005KT 200V330 9999 NCD 15/M02 Q1019=
201403301050 METAR ESMX 301050Z AUTO 27004KT 230V320 9999 NCD 14/M03 Q1019=
201403301020 METAR ESMX 301020Z AUTO VRB04KT 230V070 9999 NCD 13/M02 Q1019=
201403300950 METAR ESMX 300950Z AUTO 30003KT 250V360 9999 NCD 13/M03 Q1020=
201403300920 METAR ESMX 300920Z AUTO 00000KT 9999 NCD 13/M03 Q1020=
201403300850 METAR ESMX 300850Z AUTO VRB02KT 9999 NCD 12/M01 Q1020=
201403300820 METAR ESMX 300820Z AUTO 28003KT 9999 NCD 10/M01 Q1020=
201403300750 METAR ESMX 300750Z AUTO 28004KT 9999 NCD 08/M01 Q1020=
201403300720 METAR ESMX 300720Z AUTO 00000KT 9999 NCD 06/00 Q1021=
201403300650 METAR ESMX 300650Z AUTO 00000KT 9999 NCD 03/02 Q1021=
201403300620 METAR ESMX 300620Z AUTO 00000KT 9999 NCD 01/00 Q1021=
201403300550 METAR ESMX 300550Z 00000KT CAVOK M03/M04 Q1021=
201403300520 METAR ESMX 300520Z AUTO 00000KT 7000 BCFG NCD M04/M05 Q1021=
201403300450 METAR ESMX 300450Z 00000KT 9999 BCFG NSC M04/M04 Q1021=
201403300420 METAR ESMX 300420Z AUTO 00000KT 9999 NCD M04/M05 Q1021=
201403300350 METAR ESMX 300350Z AUTO 00000KT 9999 NCD M04/M05 Q1022=
201403300320 METAR ESMX 300320Z AUTO 00000KT 9999 NCD M04/M05 Q1022=
201403300250 METAR ESMX 300250Z AUTO 00000KT 9999 NCD M03/M04 Q1022=
201403300220 METAR ESMX 300220Z AUTO 17001KT 9999 NCD M03/M04 Q1022=
201403300150 METAR ESMX 300150Z AUTO 20003KT 9999 NCD M03/M04 Q1023=
201403300120 METAR ESMX 300120Z AUTO 00000KT 9999 NCD M03/M04 Q1023=
201403300050 METAR ESMX 300050Z AUTO 00000KT 9999 NCD M03/M04 Q1023=
201403300020 METAR ESMX 300020Z AUTO 00000KT 9999 NCD M02/M04 Q1023=
201403292350 METAR ESMX 292350Z AUTO 00000KT 9999 NCD M02/M03 Q1023=
201403292320 METAR ESMX 292320Z AUTO 00000KT 9999 NCD M02/M03 Q1024=
201403292250 METAR ESMX 292250Z AUTO 20002KT 9999 NCD M00/M02 Q1024=
201403292220 METAR ESMX 292220Z AUTO 19002KT 9999 NCD 00/M02 Q1024=
201403292150 METAR ESMX 292150Z AUTO 00000KT 9999 NCD 01/M02 Q1024=
201403292120 METAR ESMX 292120Z AUTO 17004KT 9999 NCD 01/M03 Q1024=
201403292050 METAR ESMX 292050Z 17003KT CAVOK 04/M01 Q1024=
201403292020 METAR ESMX 292020Z AUTO 17004KT 9999 NCD 05/M01 Q1024=
201403291950 METAR ESMX 291950Z 17003KT CAVOK 04/M01 Q1024=
201403291920 METAR COR ESMX 291920Z 18004KT CAVOK 05/M01 Q1024=
201403291850 METAR ESMX 291850Z AUTO 16005KT 9000 NCD 07/M01 Q1024=
201403291820 METAR ESMX 291820Z AUTO 00000KT 9999 NCD 05/M01 Q1024=
201403291750 METAR ESMX 291750Z AUTO 17002KT 9999 NCD 08/M01 Q1024=
201403291720 METAR ESMX 291720Z AUTO 00000KT 9999 NCD 09/M02 Q1024=
201403291650 METAR ESMX 291650Z AUTO 00000KT 9999 NCD 13/M04 Q1024=
201403291620 METAR ESMX 291620Z AUTO 34002KT 9999 NCD 14/M04 Q1025=
201403291550 METAR ESMX 291550Z AUTO 22002KT 9999 NCD 14/M05 Q1025=
201403291520 METAR ESMX 291520Z AUTO VRB02KT 9999 NCD 15/M05 Q1025=
201403291450 METAR ESMX 291450Z AUTO 12003KT 9000 NCD 14/M06 Q1025=
201403291420 METAR ESMX 291420Z AUTO 17004KT 120V210 9999 NCD 15/M06 Q1026=
201403291350 METAR ESMX 291350Z AUTO 18005KT 120V230 9999 NCD 15/M06 Q1026=
201403291320 METAR ESMX 291320Z AUTO 18004KT 070V230 9999 NCD 15/M05 Q1026=
201403291250 METAR ESMX 291250Z AUTO 19004KT 140V230 9999 NCD 14/M05 Q1026=
201403291220 METAR ESMX 291220Z AUTO 36005KT 310V050 9999 NCD 14/M05 Q1027=
201403291150 METAR ESMX 291150Z AUTO 36006KT 9999 NCD 14/M05 Q1027=
201403291120 METAR ESMX 291120Z AUTO 01004KT 310V100 9999 NCD 13/M05 Q1027=
201403291050 METAR ESMX 291050Z AUTO VRB03KT 330V150 9999 NCD 12/M05 Q1027=
201403291020 METAR ESMX 291020Z AUTO VRB03KT 260V190 9999 NCD 11/M04 Q1028=
201403290950 METAR ESMX 290950Z AUTO 03005KT 9999 NCD 10/M03 Q1028=
201403290920 METAR ESMX 290920Z AUTO 03006KT 360V070 9999 NCD 09/M02 Q1028=
201403290850 METAR ESMX 290850Z AUTO 04007KT 9999 NCD 08/M02 Q1028=
201403290820 METAR ESMX 290820Z AUTO 05005KT 020V100 9999 NCD 07/M03 Q1029=
201403290750 METAR ESMX 290750Z AUTO 35006KT 9999 NCD 06/M02 Q1029=
201403290720 METAR ESMX 290720Z AUTO 04005KT 9999 NCD 04/M03 Q1029=
201403290650 METAR ESMX 290650Z AUTO 04004KT 9999 NCD 03/M03 Q1029=
201403290620 METAR ESMX 290620Z AUTO 04003KT 020V080 9999 NCD 02/M03 Q1029=
201403290550 METAR ESMX 290550Z AUTO 03005KT 9999 NCD M01/M03 Q1029=
201403290520 METAR ESMX 290520Z AUTO 02002KT 9999 NCD M02/M05 Q1029=
201403290450 METAR ESMX 290450Z AUTO 03004KT 9999 NCD M02/M04 Q1029=
201403290420 METAR ESMX 290420Z AUTO 03004KT 9999 NCD M02/M04 Q1029=
201403290350 METAR ESMX 290350Z AUTO 04003KT 9999 NCD M03/M04 Q1029=
201403290320 METAR ESMX 290320Z AUTO 04004KT 9999 NCD M03/M04 Q1029=
201403290250 METAR ESMX 290250Z AUTO 00000KT 9999 NCD M04/M06 Q1029=
201403290220 METAR ESMX 290220Z AUTO 00000KT 9999 NCD M04/M06 Q1029=
201403290150 METAR ESMX 290150Z AUTO 00000KT 9999 NCD M04/M06 Q1029=
201403290120 METAR ESMX 290120Z AUTO 00000KT 9999 NCD M03/M05 Q1029=
201403290050 METAR ESMX 290050Z AUTO VRB01KT 9999 NCD M01/M05 Q1030=
201403290020 METAR ESMX 290020Z AUTO 03004KT 9999 NCD M00/M05 Q1029=
201403282350 METAR ESMX 282350Z AUTO 04004KT 9999 NCD 01/M05 Q1029=
201403282320 METAR ESMX 282320Z AUTO 03004KT 9999 NCD 00/M05 Q1029=
201403282250 METAR ESMX 282250Z AUTO 05004KT 9999 NCD 01/M05 Q1029=
201403282220 METAR ESMX 282220Z AUTO 05003KT 9999 NCD 01/M05 Q1029=
201403282150 METAR ESMX 282150Z AUTO 06003KT 9999 NCD 02/M05 Q1029=
201403282120 METAR ESMX 282120Z AUTO 05003KT 9999 NCD 03/M05 Q1029=
201403282050 METAR ESMX 282050Z AUTO 02004KT 9999 NCD 04/M05 Q1029=
201403282020 METAR ESMX 282020Z AUTO 04004KT 9999 NCD 05/M06 Q1029=
201403281950 METAR ESMX 281950Z AUTO 05004KT 020V080 9999 NCD 05/M05 Q1029=
201403281920 METAR ESMX 281920Z AUTO 06003KT 020V080 9999 NCD 06/M05 Q1029=
201403281850 METAR ESMX 281850Z AUTO 06005KT 020V100 9999 NCD 07/M06 Q1029=
201403281820 METAR ESMX 281820Z AUTO 07005KT 9999 NCD 08/M06 Q1029=
201403281750 METAR ESMX 281750Z 08006KT CAVOK 09/M07 Q1028=
201403281720 METAR ESMX 281720Z AUTO 08005KT 050V110 9999 NCD 10/M07 Q1028=
201403281650 METAR ESMX 281650Z 07006KT 030V110 CAVOK 12/M08 Q1028=
201403281620 METAR ESMX 281620Z 07007KT 030V110 CAVOK 13/M09 Q1028=
201403281550 METAR ESMX 281550Z 06008KT 030V100 CAVOK 14/M08 Q1028=
201403281520 METAR ESMX 281520Z 07007KT 040V120 CAVOK 15/M08 Q1028=
201403281450 METAR ESMX 281450Z 07007KT 020V120 CAVOK 15/M06 Q1028=
201403281420 METAR ESMX 281420Z 05008KT 010V100 CAVOK 15/M05 Q1028=
201403281350 METAR ESMX 281350Z 07008KT 030V110 CAVOK 15/M05 Q1028=
201403281320 METAR ESMX 281320Z 06009KT 020V110 CAVOK 15/M04 Q1028=
201403281250 METAR ESMX 281250Z 07009KT 030V110 CAVOK 15/M04 Q1028=
201403281220 METAR ESMX 281220Z 06008KT 030V100 CAVOK 15/M03 Q1028=
201403281150 METAR ESMX 281150Z 06009KT 030V110 CAVOK 15/M03 Q1028=
201403281120 METAR COR ESMX 281120Z 07009KT 040V120 CAVOK 14/M02 Q1028=
201403281050 METAR ESMX 281050Z 05008KT CAVOK 14/00 Q1028=
201403281020 METAR ESMX 281020Z 06008KT CAVOK 13/01 Q1028=
201403280950 METAR ESMX 280950Z 04008KT CAVOK 12/01 Q1028=
201403280920 METAR ESMX 280920Z 04008KT CAVOK 10/00 Q1027=
201403280850 METAR ESMX 280850Z 03009KT CAVOK 09/00 Q1027=
201403280820 METAR ESMX 280820Z 01008KT CAVOK 07/M01 Q1027=
201403280750 METAR ESMX 280750Z 01006KT CAVOK 06/M01 Q1027=
201403280720 METAR ESMX 280720Z 04008KT CAVOK 05/M01 Q1027=
201403280650 METAR ESMX 280650Z 04007KT CAVOK 03/M02 Q1027=
201403280620 METAR ESMX 280620Z 04008KT CAVOK 02/M02 Q1027=
201403280550 METAR ESMX 280550Z 04006KT CAVOK 02/M02 Q1027=
201403280520 METAR ESMX 280520Z 04006KT CAVOK 01/M02 Q1026=
201403280450 METAR COR ESMX 280450Z 04007KT CAVOK 01/M02 Q1026=
201403280420 METAR ESMX 280420Z AUTO 04007KT 9999 NCD 01/M02 Q1026=
201403280350 METAR ESMX 280350Z AUTO 04008KT 9999 NCD 01/M01 Q1026=
201403280320 METAR ESMX 280320Z AUTO 04008KT 9999 NCD 01/M01 Q1026=
201403280250 METAR ESMX 280250Z AUTO 03006KT 9999 NCD 01/M01 Q1026=
201403280220 METAR ESMX 280220Z AUTO 03006KT 9999 NCD 01/M01 Q1026=
201403280150 METAR ESMX 280150Z 02004KT CAVOK 01/M01 Q1026=
201403280120 METAR ESMX 280120Z 01004KT CAVOK 00/M01 Q1025=
201403280050 METAR ESMX 280050Z 36002KT CAVOK M00/M02 Q1025=
201403280020 METAR ESMX 280020Z 02002KT CAVOK 01/M02 Q1025=
201403272350 METAR ESMX 272350Z 03004KT CAVOK 01/M01 Q1025=
201403272320 METAR ESMX 272320Z 04004KT 020V080 CAVOK 02/M01 Q1025=
201403272250 METAR ESMX 272250Z 03005KT CAVOK 02/M01 Q1025=
201403272220 METAR ESMX 272220Z AUTO 04005KT 9999 NCD 02/M01 Q1025=
201403272150 METAR ESMX 272150Z 05005KT CAVOK 03/M01 Q1024=
201403272120 METAR ESMX 272120Z 05004KT 020V090 CAVOK 03/M01 Q1024=
201403272050 METAR ESMX 272050Z 05005KT 020V090 CAVOK 03/M01 Q1024=
201403272020 METAR COR ESMX 272020Z 04006KT CAVOK 04/M01 Q1024=
201403271950 METAR ESMX 271950Z 04007KT CAVOK 04/M00 Q1024=
201403271920 METAR ESMX 271920Z 05007KT 020V080 9999 SCT023 05/M00 Q1023=
201403271850 METAR ESMX 271850Z 04007KT 9999 BKN022 06/01 Q1023=
201403271820 METAR COR ESMX 271820Z 03007KT 9999 OVC022 07/01 Q1023=
201403271750 METAR ESMX 271750Z 06008KT 030V130 9999 BKN024 07/01 Q1023=
201403271720 METAR ESMX 271720Z 05007KT 020V080 9999 BKN022 08/02 Q1022=
201403271650 METAR ESMX 271650Z 04008KT 010V080 9999 BKN022 09/02 Q1022=
201403271620 METAR ESMX 271620Z 06010KT 030V100 9999 BKN023 09/03 Q1022=
201403271550 METAR ESMX 271550Z 06008KT 010V100 9999 OVC024 09/03 Q1022=
201403271520 METAR ESMX 271520Z 06008KT 030V110 9999 OVC024 09/03 Q1022=
201403271450 METAR ESMX 271450Z 07008KT 040V100 9999 OVC027 10/04 Q1022=
201403271420 METAR ESMX 271420Z 07009KT 030V100 9999 BKN029 10/04 Q1022=
201403271350 METAR ESMX 271350Z 04006KT 350V090 9999 SCT029 BKN042 10/04 Q1022=
201403271320 METAR ESMX 271320Z 07007KT 040V120 9999 BKN034 09/04 Q1022=
201403271250 METAR ESMX 271250Z 06008KT 030V100 9999 BKN035 09/04 Q1022=
201403271220 METAR ESMX 271220Z 05007KT 020V090 9999 SCT038 BKN081 09/03 Q1022=
201403271152 METAR ESMX 271152Z 06007KT 020V100 9999 SCT049 BKN069 09/03 Q1022=
201403271150 METAR ESMX 271150Z AUTO 06007KT 020V100 9999 FEW052/// BKN066/// 09/03 Q1022=
201403271120 METAR ESMX 271120Z 05008KT 010V080 CAVOK 09/03 Q1022=
201403271050 METAR ESMX 271050Z 05008KT CAVOK 08/03 Q1022=
201403271020 METAR ESMX 271020Z 04010KT CAVOK 08/03 Q1022=
201403270950 METAR ESMX 270950Z 03010KT 9999 SCT034 06/02 Q1022=
201403270920 METAR ESMX 270920Z 04009KT 9999 OVC031 05/01 Q1022=
201403270850 METAR ESMX 270850Z 03010KT 9999 BKN028 04/01 Q1023=
201403270820 METAR ESMX 270820Z 01009KT 9999 BKN028 04/01 Q1023=
201403270750 METAR ESMX 270750Z 02009KT 9999 FEW010 BKN027 03/01 Q1023=
201403270720 METAR ESMX 270720Z 02007KT 9999 FEW008 BKN009 03/01 Q1023=
201403270650 METAR ESMX 270650Z 02008KT 9999 FEW007 BKN008 03/01 Q1023=
201403270620 METAR ESMX 270620Z 02010KT 9999 OVC006 02/01 Q1023 REDZ=
201403270550 METAR ESMX 270550Z 01009KT 9999 BKN005 OVC008 02/01 Q1023 REDZ=
201403270520 METAR ESMX 270520Z 01008KT 9999 DZ FEW005 BKN007 02/01 Q1023=
201403270450 METAR COR ESMX 270450Z 01008KT 9999 -DZ BKN004 02/01 Q1023=
201403270420 METAR ESMX 270420Z AUTO 35008KT 9999 -DZ OVC004/// 02/01 Q1023=
201403270350 METAR ESMX 270350Z AUTO 35009KT 9999 OVC004/// 02/01 Q1023=
201403270320 METAR ESMX 270320Z AUTO 35007KT 9999 OVC004/// 02/01 Q1024=
201403270250 METAR ESMX 270250Z AUTO 35007KT 9999 OVC004/// 02/01 Q1024=
201403270220 METAR ESMX 270220Z AUTO 35008KT 9999 OVC004/// 02/01 Q1024=
201403270150 METAR ESMX 270150Z AUTO 34009KT 9999 OVC005/// 02/01 Q1024=
201403270120 METAR ESMX 270120Z AUTO 36008KT 9999 OVC006/// 02/01 Q1025=
201403270050 METAR ESMX 270050Z 36007KT 9999 OVC005 02/01 Q1025=
201403270020 METAR ESMX 270020Z 35010KT 9999 OVC005 02/01 Q1025=
201403262350 METAR ESMX 262350Z 36007KT 9999 FEW005 SCT007 BKN009 02/01 Q1025=
201403262320 METAR ESMX 262320Z 34007KT 9999 FEW003 BKN005 OVC011 03/01 Q1025=
201403262250 METAR ESMX 262250Z 36007KT 9999 SCT004 OVC011 03/01 Q1025=
201403262220 METAR ESMX 262220Z 36006KT 9999 FEW004 SCT005 OVC011 03/02 Q1025=
201403262150 METAR ESMX 262150Z 01006KT 9999 FEW004 OVC010 03/02 Q1025=
201403262120 METAR ESMX 262120Z 04005KT 010V070 9999 SCT003 BKN005 OVC013 03/02 Q1025=
201403262050 METAR ESMX 262050Z 05006KT 9999 SCT003 BKN006 OVC017 03/02 Q1025=
201403262020 METAR ESMX 262020Z 03006KT 9999 OVC004 04/02 Q1025=
201403261950 METAR ESMX 261950Z 04006KT 9999 SCT004 BKN020 04/02 Q1025=
201403261920 METAR ESMX 261920Z 04006KT 9999 FEW006 OVC023 04/02 Q1025=
201403261850 METAR COR ESMX 261850Z 03004KT 9999 OVC020 04/02 Q1025=
201403261820 METAR ESMX 261820Z 03005KT 9999 OVC020 05/02 Q1025=
201403261750 METAR ESMX 261750Z 04005KT 9999 BKN019 05/01 Q1024=
201403261720 METAR ESMX 261720Z 05004KT 020V100 9999 BKN023 05/01 Q1024=
201403261650 METAR ESMX 261650Z 06005KT 020V100 9999 BKN023 05/01 Q1024=
201403261620 METAR ESMX 261620Z 06006KT 9999 BKN024 05/00 Q1024=
201403261550 METAR ESMX 261550Z 08005KT 030V110 9999 BKN023 06/00 Q1024=
201403261520 METAR ESMX 261520Z 04005KT 010V070 9999 BKN024 06/00 Q1023=
201403261450 METAR ESMX 261450Z 05006KT 020V100 9999 BKN021 06/01 Q1023=
201403261420 METAR ESMX 261420Z 07005KT 030V120 9999 FEW019 BKN024 06/00 Q1023=
201403261350 METAR ESMX 261350Z 09006KT 030V130 9999 FEW021 BKN025 06/01 Q1023=
201403261320 METAR ESMX 261320Z 08006KT 030V120 9999 OVC019 06/01 Q1023=
201403261250 METAR ESMX 261250Z AUTO 09006KT 040V120 9999 FEW020/// OVC025/// 06/01 Q1023=
201403261220 METAR ESMX 261220Z 06007KT 9999 BKN018 OVC022 06/01 Q1022=
201403261150 METAR ESMX 261150Z 07007KT 040V120 9999 BKN019 06/01 Q1022=
201403261120 METAR ESMX 261120Z 08006KT 030V120 9999 FEW017 BKN024 06/01 Q1022=
201403261050 METAR ESMX 261050Z 05008KT 020V080 9999 FEW016 BKN020 05/01 Q1022=
201403261020 METAR ESMX 261020Z 08007KT 030V120 9999 FEW015 BKN017 OVC020 05/01 Q1022=
201403260950 METAR COR ESMX 260950Z 08006KT 020V130 9999 FEW014 SCT017 BKN019 04/00 Q1021=
201403260920 METAR ESMX 260920Z 07006KT 030V130 9999 OVC012 04/00 Q1021=
201403260850 METAR ESMX 260850Z AUTO 07006KT 040V120 9999 BKN015/// OVC021/// 03/M00 Q1021=
201403260820 METAR ESMX 260820Z 08006KT 040V120 9999 OVC019 03/M00 Q1020=
201403260750 METAR ESMX 260750Z 08005KT 020V130 9999 FEW012 OVC018 03/M00 Q1020=
201403260720 METAR ESMX 260720Z 07005KT 030V120 9999 FEW013 OVC017 02/M00 Q1019=
201403260650 METAR COR ESMX 260650Z 08006KT 040V120 9999 OVC012 02/M00 Q1019=
201403260620 METAR ESMX 260620Z 10006KT 070V150 9999 OVC012 02/M00 Q1018=
201403260550 METAR ESMX 260550Z 09007KT 050V130 9999 OVC013 02/M00 Q1017=
201403260520 METAR ESMX 260520Z 08007KT 040V120 9999 OVC012 02/M00 Q1017=
201403260450 METAR ESMX 260450Z 07006KT 360V140 9999 OVC012 02/M01 Q1016=
201403260420 METAR ESMX 260420Z 09008KT 050V140 9999 OVC011 02/M01 Q1015=
201403260350 METAR ESMX 260350Z AUTO 09008KT 060V120 9999 OVC012/// 02/M01 Q1015=
201403260320 METAR ESMX 260320Z AUTO 09009KT 050V150 9999 OVC013/// 02/M01 Q1014=
201403260250 METAR ESMX 260250Z AUTO 09008KT 050V140 9999 OVC012/// 02/M01 Q1013=
201403260220 METAR ESMX 260220Z AUTO 09010KT 050V130 9999 FEW015/// OVC019/// 02/M01 Q1012=
201403260150 METAR ESMX 260150Z AUTO 09012KT 040V120 9999 FEW017/// OVC021/// 02/M01 Q1012=
201403260120 METAR ESMX 260120Z AUTO 07010G21KT 020V120 9999 FEW017/// OVC023/// 02/M00 Q1011=
201403260050 METAR ESMX 260050Z 08010KT 030V150 9999 FEW013 SCT017 BKN020 02/00 Q1010=
201403260020 METAR ESMX 260020Z 09013KT 030V130 9999 FEW016 BKN018 OVC025 02/M00 Q1010=
201403252350 METAR ESMX 252350Z 05013G24KT 020V100 9999 FEW014 SCT017 BKN019 02/00 Q1009=
201403252320 METAR ESMX 252320Z 05012KT 020V100 9999 FEW009 SCT011 BKN016 02/01 Q1008=
201403252250 METAR COR ESMX 252250Z 05011G24KT 020V080 4100 -RA FEW008 SCT009 OVC011 02/01 Q1008 REDZ=
201403252220 METAR ESMX 252220Z 06013KT 030V090 8000 -RA BKN007 OVC010 02/01 Q1008=
201403252150 METAR ESMX 252150Z 04013KT 9999 BKN007 OVC010 02/01 Q1007=
201403252120 METAR ESMX 252120Z 04016KT 9999 BKN008 OVC010 02/01 Q1007=
201403252050 METAR ESMX 252050Z 04017G29KT 010V070 9999 SCT008 OVC010 02/01 Q1007=
201403252020 METAR ESMX 252020Z 03020G33KT 9999 -DZ FEW008 OVC010 02/01 Q1007=
201403251950 METAR ESMX 251950Z 03018KT 9999 -DZ FEW008 OVC010 02/00 Q1007=
201403251920 METAR ESMX 251920Z 03018KT 9999 -RA FEW008 BKN010 OVC013 02/00 Q1007=
201403251850 METAR ESMX 251850Z 02018KT 6000 -RA FEW007 BKN008 OVC012 01/00 Q1007=
201403251820 METAR ESMX 251820Z 02018G30KT 5000 RASN FEW005 BKN007 OVC009 01/00 Q1007=
201403251750 METAR ESMX 251750Z 01019KT 5000 -RA FEW005 BKN007 02/00 Q1007=
201403251720 METAR ESMX 251720Z 35017KT 5000 -RA OVC006 02/01 Q1008=
201403251650 METAR ESMX 251650Z 35015KT 9999 -RA SCT006 BKN008 OVC009 01/00 Q1008=
201403251620 METAR ESMX 251620Z 35014KT 7000 -RA FEW006 BKN007 02/00 Q1009=
201403251550 METAR ESMX 251550Z 01016KT 9000 -RA FEW006 SCT008 BKN010 02/01 Q1009=
201403251520 METAR ESMX 251520Z 01015KT 9999 -RA SCT006 BKN009 02/00 Q1009=
201403251450 METAR ESMX 251450Z 02017KT 9000 -RASN FEW006 SCT007 BKN011 02/00 Q1009=
201403251420 METAR ESMX 251420Z 01017G28KT 9999 -DZ FEW010 SCT020 BKN027 04/M02 Q1009=
201403251350 METAR ESMX 251350Z 01016KT 9999 FEW020 BKN080 05/M03 Q1009=
201403251320 METAR ESMX 251320Z 01017KT 9999 FEW025 BKN080 05/M04 Q1010=
201403251250 METAR ESMX 251250Z 36016KT 9999 FEW025 BKN080 05/M04 Q1010=
201403251220 METAR ESMX 251220Z 01016KT 9999 FEW025 BKN080 05/M04 Q1010=
201403251150 METAR ESMX 251150Z 02016KT 9999 FEW025 BKN080 05/M04 Q1011=
201403251120 METAR ESMX 251120Z 02015KT 9999 FEW035 05/M03 Q1010=
201403251050 METAR ESMX 251050Z 01013KT 9999 FEW037 05/M03 Q1011=
201403251020 METAR ESMX 251020Z 02013KT 9999 FEW023 05/M02 Q1011=
201403250950 METAR ESMX 250950Z 02013KT 9999 FEW027 04/M00 Q1011=
201403250920 METAR ESMX 250920Z AUTO 03013KT 9999 FEW027/// 04/M00 Q1011=
201403250850 METAR ESMX 250850Z AUTO 36010KT 9999 FEW056/// 04/00 Q1011=
201403250820 METAR ESMX 250820Z 01010KT CAVOK 03/00 Q1012=
201403250750 METAR ESMX 250750Z 35009KT CAVOK 02/00 Q1012=
201403250720 METAR ESMX 250720Z 01007KT CAVOK 02/M00 Q1012=
201403250650 METAR ESMX 250650Z 35007KT CAVOK 01/M01 Q1012=
201403250620 METAR ESMX 250620Z 36007KT 9999 FEW033 01/M01 Q1012=
201403250550 METAR ESMX 250550Z 36005KT 9999 BKN029 00/M01 Q1012=
201403250520 METAR ESMX 250520Z 35006KT 9999 BKN027 M01/M01 Q1012=
201403250450 METAR ESMX 250450Z 34008KT 9999 SCT027 M02/M02 Q1012=
201403250420 METAR ESMX 250420Z AUTO 35006KT 9999 NCD M02/M03 Q1012=
201403250350 METAR ESMX 250350Z AUTO 36006KT 9999 SCT029/// M01/M02 Q1012=
201403250320 METAR ESMX 250320Z AUTO 36004KT 9999 NCD M02/M03 Q1012=
201403250250 METAR ESMX 250250Z AUTO 01007KT 9999 NCD M01/M02 Q1012=
201403250220 METAR ESMX 250220Z AUTO 35004KT 9999 NCD M03/M04 Q1012=
201403250150 METAR ESMX 250150Z AUTO 34004KT 9999 NCD M03/M03 Q1012=
201403250120 METAR ESMX 250120Z AUTO 34002KT 9999 NCD M03/M03 Q1012=
201403250050 METAR ESMX 250050Z 01003KT CAVOK M03/M03 Q1012=
201403250020 METAR ESMX 250020Z 34003KT CAVOK M03/M04 Q1012=
201403242350 METAR ESMX 242350Z 35004KT CAVOK M02/M03 Q1012=
201403242320 METAR ESMX 242320Z 02002KT CAVOK M02/M03 Q1012=
201403242250 METAR ESMX 242250Z 36002KT CAVOK M02/M03 Q1012=
201403242220 METAR ESMX 242220Z 02002KT CAVOK M03/M03 Q1012=
201403242150 METAR ESMX 242150Z 01003KT CAVOK M03/M04 Q1012=
201403242120 METAR ESMX 242120Z VRB02KT CAVOK M02/M03 Q1012=
201403242050 METAR ESMX 242050Z 00000KT CAVOK M02/M02 Q1012=
201403242020 METAR ESMX 242020Z 00000KT CAVOK M02/M03 Q1012=
201403241950 METAR ESMX 241950Z 00000KT CAVOK M01/M02 Q1011=
201403241920 METAR ESMX 241920Z 00000KT CAVOK M01/M02 Q1011=
201403241850 METAR ESMX 241850Z 00000KT CAVOK M00/M01 Q1011=
201403241820 METAR ESMX 241820Z 00000KT CAVOK 01/M01 Q1011=
201403241750 METAR ESMX 241750Z 00000KT CAVOK 03/M00 Q1010=
201403241720 METAR ESMX 241720Z 33004KT CAVOK 05/M01 Q1010=
201403241650 METAR ESMX 241650Z 30005KT CAVOK 07/00 Q1010=
201403241620 METAR ESMX 241620Z 32004KT 270V340 CAVOK 07/00 Q1010=
201403241550 METAR ESMX 241550Z VRB03KT CAVOK 08/M00 Q1010=
201403241520 METAR ESMX 241520Z 01003KT 320V050 CAVOK 08/00 Q1010=
201403241450 METAR ESMX 241450Z 36005KT 320V050 CAVOK 07/00 Q1010=
201403241420 METAR ESMX 241420Z 36005KT CAVOK 07/00 Q1010=
201403241350 METAR ESMX 241350Z 36006KT 9999 FEW019 06/01 Q1010=
201403241320 METAR ESMX 241320Z 36006KT 330V050 9999 BKN018 06/00 Q1010=
201403241250 METAR ESMX 241250Z AUTO 35007KT 9999 BKN017/// 06/01 Q1010=
201403241220 METAR ESMX 241220Z 35007KT 9999 FEW012 BKN015 06/02 Q1010=
201403241150 METAR ESMX 241150Z 36006KT 9999 FEW008 OVC010 05/03 Q1010=
201403241120 METAR ESMX 241120Z 35006KT 9999 SCT005 OVC007 04/03 Q1010=
201403241050 METAR ESMX 241050Z 29004KT 260V330 9999 OVC004 03/03 Q1010=
201403241020 METAR COR ESMX 241020Z 01005KT 9999 OVC003 03/03 Q1010=
201403240950 METAR ESMX 240950Z VRB03KT 4000 BR OVC003 03/02 Q1010=
201403240920 METAR ESMX 240920Z 01003KT 0550 R01/0800V1000N R19/0800V1300N FG VV002 02/02 Q1009=
201403240850 METAR ESMX 240850Z 32004KT 0200 R01/0400N R19/0400V0650N FG VV002 01/01 Q1009=
201403240820 METAR ESMX 240820Z 35004KT 0150 R01/0350N R19/0350V0550N FG VV002 01/01 Q1009=
201403240750 METAR ESMX 240750Z 32003KT 270V010 0150 R01/0350N R19/0250V0400N FG VV001 01/00 Q1009=
201403240720 METAR ESMX 240720Z VRB02KT 0100 R01/0250N R19/0250N FG VV000 01/00 Q1009=
201403240650 METAR ESMX 240650Z VRB03KT 0100 R01/0250N R19/0275N FG VV000 01/00 Q1008=
201403240620 METAR COR ESMX 240620Z 00000KT 0100 R01/0225N R19/0275N FG VV001 01/00 Q1008=
201403240550 METAR ESMX 240550Z VRB01KT 0150 R01/0250N R19/0275N FG VV001 00/M00 Q1008=
201403240520 METAR ESMX 240520Z AUTO VRB01KT 0100 R01/0275N R19/0275N FG VV000 00/M00 Q1008=
201403240450 METAR ESMX 240450Z 00000KT 0200 R01/0250N R19/0275V0400N FZFG VV001 M00/M01 Q1007=
201403240420 METAR ESMX 240420Z AUTO 00000KT 0050 R01/0250N R19/0300N FZFG VV000 M00/M01 Q1007=
201403240350 METAR ESMX 240350Z AUTO 00000KT 0100 R01/0325N R19/0450N FZFG VV001 M01/M02 Q1007=
201403240320 METAR ESMX 240320Z AUTO 00000KT 0050 R01/0225V0325N R19/0350N FZFG VV001 M02/M03 Q1007=
201403240250 METAR ESMX 240250Z AUTO 00000KT 0100 R01/0200V0300N R19/0275V0550N=
201403240220 METAR ESMX 240220Z AUTO 00000KT 0250 R01/0900VP2000D R19/0500V0750N BCFG NCD M01/M02 Q1006=
201403240150 METAR ESMX 240150Z AUTO 24002KT 0050 R01/0325V0550N R19/0200V0275N BCFG NCD M01/M01 Q1006=
201403240120 METAR ESMX 240120Z AUTO 23004KT 0550 R01/P2000N R19/0800VP2000D NCD M01/M01 Q1006=
201403240050 METAR ESMX 240050Z 21004KT 4500 BR MIFG NSC M01/M01 Q1006=
201403240020 METAR COR ESMX 240020Z 21003KT 5000 BR MIFG NSC 01/00 Q1006=
201403232350 METAR ESMX 232350Z 22003KT 6000 BR NSC 01/00 Q1005=
201403232320 METAR ESMX 232320Z 20005KT 8000 BR NSC 01/01 Q1005=
201403232250 METAR COR ESMX 232250Z 19005KT 9999 SCT031 02/01 Q1005=
201403232220 METAR COR ESMX 232220Z 21004KT 9000 BR SCT024 02/01 Q1005=
201403232150 METAR ESMX 232150Z 18005KT 8000 BR NSC 02/01 Q1005=
201403232120 METAR ESMX 232120Z AUTO 17004KT 9999 FEW053/// SCT067/// 03/02 Q1005=
201403232050 METAR ESMX 232050Z AUTO 17005KT 9999 NCD 03/02 Q1005=
201403232020 METAR ESMX 232020Z 18004KT 9999 FEW021 BKN029 03/02 Q1005=
201403231950 METAR ESMX 231950Z 19005KT 9999 BKN024 03/01 Q1004=
201403231920 METAR ESMX 231920Z 17004KT 9999 FEW026 03/02 Q1004=
201403231850 METAR ESMX 231850Z 18005KT 9999 FEW036 SCT061 04/02 Q1004=
201403231820 METAR ESMX 231820Z 22007KT 9999 -SHRA FEW007 BKN025 05/02 Q1004=
201403231750 METAR ESMX 231750Z 20003KT 9999 VCSH SCT027CB BKN030 06/01 Q1003=
201403231720 METAR ESMX 231720Z 21002KT 9999 SCT030 BKN039 06/01 Q1003=
201403231650 METAR ESMX 231650Z AUTO 22004KT 9999 FEW034/// 05/01 Q1003=
201403231620 METAR ESMX 231620Z 24006KT 200V260 9999 FEW030 07/01 Q1002=
201403231550 METAR ESMX 231550Z 24007KT 9999 FEW030 07/00 Q1002=
201403231520 METAR ESMX 231520Z 23008KT 9999 FEW032 BKN055 08/00 Q1002=
201403231450 METAR ESMX 231450Z 23009KT 9999 FEW031 BKN048 08/00 Q1002=
201403231420 METAR ESMX 231420Z 24009KT 9999 FEW031 SCT035 BKN053 08/M00 Q1002=
201403231350 METAR ESMX 231350Z 24010KT 9999 FEW036 BKN051 08/00 Q1002=
201403231320 METAR ESMX 231320Z AUTO 21013KT 9999 FEW036/// BKN051/// 08/00 Q1001=
201403231250 METAR ESMX 231250Z AUTO 22010KT 190V250 9999 FEW044/// BKN056/// 08/M00 Q1001=
201403231220 METAR ESMX 231220Z AUTO 21011KT 9999 FEW055/// 08/M00 Q1001=
201403231150 METAR ESMX 231150Z AUTO 26010KT 9999 FEW039/// 07/M01 Q1001=
201403231120 METAR ESMX 231120Z AUTO 23012KT 9999 FEW035/// SCT042/// BKN053/// 09/M00 Q1001=
201403231050 METAR ESMX 231050Z AUTO 21013KT 9999 FEW034/// SCT039/// BKN058/// 08/M00 Q1000=
201403231020 METAR ESMX 231020Z AUTO 23010KT 9999 FEW034/// 07/00 Q1000=
201403230950 METAR ESMX 230950Z AUTO 26011KT 9999 FEW025/// SCT031/// BKN046/// 06/00 Q1000=
201403230920 METAR ESMX 230920Z AUTO 20011KT 170V240 9999 FEW023/// 06/01 Q1000=
201403230850 METAR ESMX 230850Z AUTO 22010KT 9999 BKN017/// 05/01 Q1000=
201403230820 METAR ESMX 230820Z AUTO 23011KT 9999 FEW014/// SCT027/// BKN039/// 05/02 Q1000=
201403230750 METAR ESMX 230750Z AUTO 22009KT 9999 FEW009/// SCT012/// 05/02 Q0999=
201403230720 METAR ESMX 230720Z AUTO 22010KT 200V260 9999 FEW007/// SCT009/// BKN011/// 04/02 Q0999=
201403230650 METAR COR ESMX 230650Z 22008KT 9999 BKN006 04/02 Q0999=
201403230620 METAR ESMX 230620Z AUTO 20008KT 9999 OVC005/// 03/02 Q0999=
201403230550 METAR ESMX 230550Z 20006KT 9999 FEW006 BKN012 03/02 Q0998=
201403230520 METAR ESMX 230520Z AUTO 20006KT 9999 SCT010/// BKN016/// BKN022/// 03/02 Q0998=
201403230450 METAR ESMX 230450Z AUTO 19007KT 9999 FEW016/// BKN021/// 03/02 Q0998=
201403230420 METAR ESMX 230420Z AUTO 19005KT 9999 FEW014/// SCT017/// BKN019/// 03/02 Q0998=
201403230350 METAR ESMX 230350Z AUTO 20007KT 8000 BR FEW008/// SCT016/// BKN019/// 03/02 Q0997 REDZ=
201403230320 METAR ESMX 230320Z AUTO 17006KT 9999 BKN019/// BKN024/// 04/02 Q0997=
201403230250 METAR ESMX 230250Z AUTO 18005KT 9999 FEW020/// SCT036/// 03/02 Q0997 REDZ=
201403230220 METAR ESMX 230220Z AUTO 16005KT 8000 DZ NCD 04/02 Q0997=
201403230150 METAR ESMX 230150Z AUTO 19006KT 6000 -RA FEW019/// 04/02 Q0997=
201403230120 METAR ESMX 230120Z AUTO 22007KT 7000 DZ FEW005/// SCT010/// BKN016/// 04/03 Q0997=
201403230050 METAR ESMX 230050Z AUTO 22006KT 5000 -RA OVC006/// 04/03 Q0998=
201403230020 METAR ESMX 230020Z AUTO 17005KT 140V210 6000 BR OVC006/// 04/03 Q0998=
201403222350 METAR ESMX 222350Z AUTO 18007KT 6000 BR OVC006/// 04/03 Q0998=
201403222320 METAR ESMX 222320Z AUTO 17007KT 6000 BR BKN005/// OVC007/// 04/03 Q0998=
201403222250 METAR ESMX 222250Z AUTO 16006KT 6000 BR OVC005/// 04/02 Q0998=
201403222220 METAR ESMX 222220Z AUTO 16007KT 8000 BR BKN005/// OVC039/// 04/02 Q0998=
201403222150 METAR ESMX 222150Z 16006KT 9999 FEW006 BKN049 04/02 Q0998=
201403222120 METAR ESMX 222120Z 16007KT 9999 SCT007 BKN020 04/02 Q0998=
201403222050 METAR ESMX 222050Z 16008KT 9999 BKN007 OVC024 04/02 Q0999=
201403222020 METAR ESMX 222020Z 17008KT 9999 OVC008 04/02 Q0999=
201403221950 METAR COR ESMX 221950Z 16008KT 9999 BKN009 04/01 Q0999=
201403221920 METAR ESMX 221920Z AUTO 15007KT 110V170 9999 SCT050/// 04/01 Q0999=
201403221850 METAR ESMX 221850Z AUTO 17008KT 9999 FEW014/// SCT018/// BKN060/// 04/01 Q0999=
201403221820 METAR ESMX 221820Z AUTO 16010KT 9999 BKN016/// BKN022/// 04/01 Q1000=
201403221750 METAR ESMX 221750Z AUTO 16010KT 9999 FEW019/// BKN022/// 04/00 Q1000=
201403221720 METAR ESMX 221720Z AUTO 17009KT 9999 FEW074/// 04/00 Q1000=
201403221650 METAR ESMX 221650Z AUTO 15009KT 9999 NCD 05/00 Q0999=
201403221620 METAR ESMX 221620Z AUTO 15010KT 9999 NCD 05/M00 Q1000=
201403221550 METAR ESMX 221550Z AUTO 15010KT 9999 NCD 06/M00 Q1000=
201403221520 METAR ESMX 221520Z AUTO 17011KT 140V200 9999 FEW032/// SCT048/// 06/00 Q1000=
201403221450 METAR ESMX 221450Z AUTO 16010KT 9999 FEW032/// SCT037/// 07/M01 Q1001=
201403221420 METAR ESMX 221420Z AUTO 17010KT 9999 FEW036/// 07/M02 Q1001=
201403221350 METAR ESMX 221350Z AUTO 15010KT 9999 BKN033/// 08/M01 Q1001=
201403221320 METAR ESMX 221320Z AUTO 16011KT 9999 FEW032/// SCT052/// 07/M01 Q1001=
201403221250 METAR ESMX 221250Z 16011KT 9999 SCT032 07/M01 Q1002=
201403221220 METAR ESMX 221220Z 16011KT 130V190 9999 FEW033 08/M01 Q1002=
201403221150 METAR ESMX 221150Z 20013KT 160V230 9999 FEW032 08/M01 Q1002=
201403221120 METAR ESMX 221120Z 17011KT 9999 FEW028 07/M01 Q1003=
201403221050 METAR ESMX 221050Z AUTO 17011KT 9999 FEW028/// 07/M00 Q1003=
201403221020 METAR ESMX 221020Z AUTO 17010KT 140V220 9999 FEW025/// SCT029/// BKN036/// 07/01 Q1003=
201403220950 METAR ESMX 220950Z AUTO 17011KT 140V200 9999 FEW022/// 07/01 Q1003=
201403220920 METAR ESMX 220920Z AUTO 18010KT 140V210 9999 FEW016/// 06/01 Q1004=
201403220850 METAR ESMX 220850Z AUTO 18008KT 9999 SCT013/// BKN019/// 05/01 Q1004=
201403220820 METAR ESMX 220820Z AUTO 20010KT 9999 BKN012/// 04/01 Q1004=
201403220750 METAR ESMX 220750Z AUTO 20010KT 9999 FEW008/// OVC010/// 04/01 Q1004=
201403220720 METAR ESMX 220720Z AUTO 18009KT 9999 FEW008/// OVC009/// 03/01 Q1004=
201403220650 METAR ESMX 220650Z AUTO 20005KT 9999 SCT005/// BKN009/// OVC012/// 03/02 Q1004=
201403220620 METAR ESMX 220620Z AUTO 21006KT 180V250 9999 OVC005/// 03/01 Q1004=
201403220550 METAR ESMX 220550Z AUTO 18007KT 9999 OVC006/// 02/01 Q1003=
201403220520 METAR ESMX 220520Z AUTO 18006KT 9999 FEW005/// OVC006/// 02/01 Q1003=
201403220450 METAR ESMX 220450Z AUTO 19006KT 9999 SCT007/// BKN033/// 01/00 Q1003=
201403220350 METAR ESMX 220350Z AUTO 20006KT 9999 BKN014/// OVC020/// 02/01 Q1003=
201403220150 METAR ESMX 220150Z AUTO 20007KT 9999 FEW013/// 01/00 Q1003=
201403220120 METAR ESMX 220120Z AUTO 21006KT 9999 NCD 01/00 Q1003=
201403220050 METAR ESMX 220050Z AUTO 22006KT 9999 NCD 01/00 Q1003=
201403220020 METAR ESMX 220020Z AUTO 23006KT 9999 NCD 02/01 Q1003=
201403212350 METAR ESMX 212350Z AUTO 23007KT 9999 NCD 02/01 Q1003=
201403212320 METAR ESMX 212320Z AUTO 20006KT 9999 NCD 02/00 Q1003=
201403212250 METAR ESMX 212250Z AUTO 23005KT 9999 NCD 02/01 Q1003=
201403212220 METAR ESMX 212220Z AUTO 24005KT 9999 NCD 03/01 Q1002=
201403212150 METAR ESMX 212150Z AUTO 25007KT 9999 NCD 04/02 Q1002=
201403212120 METAR ESMX 212120Z AUTO 25008KT 9999 NCD 04/02 Q1002=
201403212050 METAR ESMX 212050Z AUTO 22008KT 9999 FEW032/// 05/02 Q1001=
201403212020 METAR ESMX 212020Z AUTO 23008KT 9999 FEW027/// SCT032/// BKN040/// 05/03 Q1001=
201403211950 METAR ESMX 211950Z AUTO 22007KT 9999 FEW017/// BKN100/// 05/03 Q1001=
201403211920 METAR ESMX 211920Z AUTO 23007KT 9999 FEW019/// SCT028/// 05/03 Q1000=
201403211850 METAR ESMX 211850Z 23006KT 9999 FEW049 06/02 Q1000=
201403211820 METAR ESMX 211820Z 24006KT CAVOK 06/02 Q1000=
201403211750 METAR ESMX 211750Z 24007KT CAVOK 06/02 Q0999=
201403211720 METAR ESMX 211720Z 23006KT 200V260 9999 FEW044 07/02 Q0999=
201403211650 METAR ESMX 211650Z 22006KT 9999 FEW035 07/02 Q0999=
201403211620 METAR ESMX 211620Z 23008KT 9999 FEW033 07/02 Q0999=
201403211550 METAR ESMX 211550Z 23008KT 9999 SCT035 08/02 Q0999=
201403211520 METAR ESMX 211520Z 23009KT 9999 SCT033 08/01 Q0999=
201403211450 METAR ESMX 211450Z 23010KT 9999 SCT039 08/01 Q0999=
201403211420 METAR ESMX 211420Z 23011KT 9999 SCT032 09/01 Q0999=
201403211350 METAR COR ESMX 211350Z 23011KT 200V260 9999 SCT030 BKN038 09/01 Q0999=
201403211320 METAR ESMX 211320Z 24010KT 210V280 9999 FEW033 SCT038 09/02 Q0999=
201403211250 METAR ESMX 211250Z 22011KT 9999 SCT032 09/02 Q0999=
201403211220 METAR ESMX 211220Z 24013KT 9999 FEW031 SCT036 09/01 Q0999=
201403211150 METAR ESMX 211150Z AUTO 24013G23KT 9999 FEW037/// 10/02 Q0999=
201403211120 METAR ESMX 211120Z 24013KT 210V280 9999 FEW032 10/02 Q0999=
201403211050 METAR ESMX 211050Z 25014G24KT 9999 FEW027 SCT040 10/03 Q0999=
201403211020 METAR ESMX 211020Z 25015KT 9999 FEW027 SCT039 09/02 Q0999=
201403210950 METAR COR ESMX 210950Z 25015KT 9999 FEW040 09/02 Q0998=
201403210920 METAR ESMX 210920Z 25011KT 220V280 9999 FEW020 SCT024 BKN031 09/04 Q0998=
201403210850 METAR ESMX 210850Z 24012KT 9999 FEW017 SCT021 BKN025 09/05 Q0998=
201403210820 METAR ESMX 210820Z 24013G23KT 200V270 9999 FEW016 SCT019 BKN022 08/04 Q0997=
201403210750 METAR ESMX 210750Z 25014KT 9999 FEW012 SCT018 BKN026 08/05 Q0997=
201403210720 METAR ESMX 210720Z 24013G24KT 9999 FEW010 BKN013 OVC016 08/06 Q0996=
201403210650 METAR ESMX 210650Z 22013KT 9999 BKN011 OVC017 08/06 Q0996=
201403210620 METAR ESMX 210620Z 21015KT 9999 FEW011 SCT014 BKN017 08/06 Q0995=
201403210550 METAR ESMX 210550Z 22014KT 9999 -DZ FEW011 OVC013 08/06 Q0995=
201403210520 METAR ESMX 210520Z AUTO 21012KT 9999 -DZ OVC014/// 08/06 Q0995=
201403210450 METAR ESMX 210450Z AUTO 23014KT 9999 -DZ OVC017/// 09/05 Q0995=
201403210420 METAR ESMX 210420Z AUTO 23016KT 9999 OVC019/// 09/05 Q0995=
201403210350 METAR ESMX 210350Z AUTO 22015KT 9999 FEW024/// 09/04 Q0995=
201403210320 METAR ESMX 210320Z AUTO 22015KT 9999 NCD 10/04 Q0994=
201403210250 METAR ESMX 210250Z AUTO 21015KT 9999 NCD 10/03 Q0994=
201403210220 METAR ESMX 210220Z AUTO 20015KT 9999 NCD 10/03 Q0995=
201403210150 METAR ESMX 210150Z 20011KT CAVOK 10/03 Q0995=
201403210120 METAR ESMX 210120Z 18011KT CAVOK 09/03 Q0995=
201403210050 METAR ESMX 210050Z 18014KT CAVOK 09/03 Q0996=
201403210020 METAR ESMX 210020Z 18014KT CAVOK 10/03 Q0996=
201403202350 METAR ESMX 202350Z 18015KT CAVOK 10/03 Q0997=
201403202320 METAR ESMX 202320Z 17014KT CAVOK 10/03 Q0998=
201403202250 METAR ESMX 202250Z 17015KT CAVOK 10/03 Q0999=
201403202220 METAR ESMX 202220Z 17013KT CAVOK 10/03 Q0999=
201403202150 METAR ESMX 202150Z 17013KT CAVOK 09/03 Q1000=
201403202120 METAR ESMX 202120Z 17014KT CAVOK 10/03 Q1001=
201403202050 METAR ESMX 202050Z 18014KT CAVOK 10/03 Q1002=
201403202020 METAR ESMX 202020Z AUTO 18014KT 9999 NCD 10/04 Q1003=
201403201950 METAR ESMX 201950Z 19015KT CAVOK 10/03 Q1003=
201403201920 METAR ESMX 201920Z 19013KT CAVOK 09/03 Q1004=
201403201850 METAR ESMX 201850Z 19014KT CAVOK 10/04 Q1004=
201403201820 METAR ESMX 201820Z 19013KT CAVOK 10/04 Q1004=
201403201750 METAR ESMX 201750Z 19014KT CAVOK 11/03 Q1004=
201403201720 METAR ESMX 201720Z 20011KT CAVOK 12/03 Q1004=
201403201650 METAR ESMX 201650Z 22014KT CAVOK 13/03 Q1004=
201403201620 METAR ESMX 201620Z 22015KT CAVOK 15/03 Q1004=
201403201550 METAR ESMX 201550Z 21014KT CAVOK 15/03 Q1004=
201403201520 METAR ESMX 201520Z 20013KT CAVOK 16/04 Q1004=
201403201450 METAR ESMX 201450Z 23013KT CAVOK 16/03 Q1004=
201403201420 METAR ESMX 201420Z 23016KT CAVOK 15/04 Q1005=
201403201350 METAR ESMX 201350Z AUTO 23016KT 9999 NCD 15/05 Q1005=
201403201320 METAR COR ESMX 201320Z 23015KT CAVOK 15/05 Q1005=
201403201250 METAR COR ESMX 201250Z 21015KT CAVOK 14/06 Q1005=
201403201220 METAR ESMX 201220Z 21015KT 9999 NSC 13/06 Q1006=
201403201150 METAR ESMX 201150Z 22016KT 190V260 9999 FEW021 12/07 Q1006=
201403201120 METAR ESMX 201120Z 22014KT 9999 FEW014 BKN018 12/07 Q1006=
201403201050 METAR COR ESMX 201050Z 20012KT 160V230 9999 BKN011 11/07 Q1007=
201403201020 METAR ESMX 201020Z 22011KT 9999 OVC009 09/07 Q1007=
201403200950 METAR ESMX 200950Z 21012KT 9000 BR SCT007 OVC009 09/06 Q1007=
201403200920 METAR ESMX 200920Z 23011KT 9000 BR OVC006 08/06 Q1007=
201403200850 METAR ESMX 200850Z 23012KT 9000 BR OVC006 08/06 Q1007=
201403200820 METAR ESMX 200820Z 22011KT 7000 BR OVC006 08/06 Q1007=
201403200750 METAR ESMX 200750Z AUTO 23011KT 200V260 7000 BR OVC006/// 07/06 Q1007=
201403200720 METAR ESMX 200720Z 22009KT 9000 BR OVC008 07/06 Q1007=
201403200650 METAR ESMX 200650Z 24009KT 9000 BR OVC008 07/05 Q1006=
201403200620 METAR ESMX 200620Z 24009KT 7000 BR OVC007 07/05 Q1006=
201403200550 METAR ESMX 200550Z 22009KT 7000 BR OVC007 07/05 Q1006=
201403200520 METAR ESMX 200520Z 24010KT 210V280 8000 BR OVC008 07/05 Q1006=
201403200450 METAR ESMX 200450Z 24008KT 8000 BR OVC008 07/05 Q1006=
201403200420 METAR ESMX 200420Z AUTO 26009KT 220V290 8000 BR OVC008/// 07/05 Q1006=
201403200350 METAR ESMX 200350Z AUTO 25010KT 8000 BR OVC008/// 07/05 Q1006=
201403200320 METAR ESMX 200320Z AUTO 26010KT 230V290 8000 BR OVC008/// 07/05 Q1005=
201403200250 METAR ESMX 200250Z AUTO 26010KT 220V280 9000 BR OVC009/// 07/05 Q1005=
201403200220 METAR ESMX 200220Z AUTO 26009KT 9999 OVC010/// 07/04 Q1005=
201403200150 METAR ESMX 200150Z 26010KT 9999 OVC011 07/04 Q1004=
201403200120 METAR ESMX 200120Z 27012KT 9999 OVC011 07/04 Q1004=
201403200050 METAR ESMX 200050Z 26012KT 9999 OVC012 07/04 Q1004=
201403200020 METAR ESMX 200020Z 27009KT 9999 OVC012 07/04 Q1004=
201403192350 METAR ESMX 192350Z 27011KT 9999 OVC012 07/04 Q1003=
201403192320 METAR ESMX 192320Z 27013KT 9999 OVC011 07/05 Q1003=
201403192250 METAR COR ESMX 192250Z 27014G24KT 9999 OVC011 07/05 Q1003=
201403192220 METAR ESMX 192220Z 27014KT 9999 OVC012 07/05 Q1002=
201403192150 METAR ESMX 192150Z 27013KT 9999 OVC011 07/05 Q1002=
201403192120 METAR ESMX 192120Z 26014G25KT 210V300 9999 OVC011 07/05 Q1002=
201403192050 METAR ESMX 192050Z AUTO 27014KT 9999 OVC012/// 08/05 Q1001=
201403192020 METAR ESMX 192020Z 25016KT 9999 OVC013 08/05 Q1001=
201403191950 METAR ESMX 191950Z 26015KT 9999 FEW013 BKN015 OVC020 08/05 Q1001=
201403191920 METAR ESMX 191920Z 25013KT 9999 FEW013 BKN016 OVC021 08/06 Q1000=
201403191850 METAR ESMX 191850Z 26018G30KT 9999 SCT011 OVC017 08/06 Q1000=
201403191820 METAR ESMX 191820Z AUTO 26018KT 230V290 9999 FEW010/// OVC013/// 08/06 Q1000=
201403191750 METAR ESMX 191750Z 27017G27KT 9999 SCT007 BKN012 08/06 Q0999=
201403191720 METAR ESMX 191720Z 26015G26KT 9999 FEW006 SCT008 BKN009 07/06 Q0999=
201403191650 METAR ESMX 191650Z 24014KT 210V280 3900 -RA SCT006 BKN010 07/06 Q0999 REDZ=
201403191620 METAR ESMX 191620Z 25014KT 200V270 4000 DZ FEW007 OVC009 07/05 Q0999=
201403191550 METAR ESMX 191550Z 24014KT 3200 DZ FEW007 SCT009 OVC010 07/05 Q0999 REDZ=
201403191520 METAR ESMX 191520Z 22015KT 7000 -RA FEW009 SCT011 BKN013 07/05 Q0999=
201403191450 METAR COR ESMX 191450Z 22013KT 9999 DZ FEW009 OVC011 07/05 Q0999=
201403191420 METAR ESMX 191420Z 25013KT 9999 -DZ FEW008 OVC010 07/05 Q1000 REDZ=
201403191350 METAR COR ESMX 191350Z 25013KT 9999 FEW009 OVC011 07/05 Q1000=
201403191320 METAR ESMX 191320Z 26014KT 9999 -DZ FEW008 OVC011 07/05 Q1001=
201403191250 METAR ESMX 191250Z 25015KT 9999 -RA FEW009 BKN011 OVC017 07/05 Q1001=
201403191220 METAR ESMX 191220Z 25012KT 210V280 9999 -DZ FEW009 OVC012 07/05 Q1001=
201403191150 METAR COR ESMX 191150Z 24013KT 9999 -DZ FEW008 OVC010 06/05 Q1001=
201403191120 METAR ESMX 191120Z 21012KT 9999 DZ FEW008 OVC012 06/05 Q1001=
201403191050 METAR ESMX 191050Z 23013KT 9999 -RA FEW008 OVC010 06/04 Q1001=
201403191020 METAR ESMX 191020Z 23012KT 9999 -RA FEW007 SCT009 BKN011 06/04 Q1002=
201403190950 METAR ESMX 190950Z 23011KT 9999 DZ FEW008 SCT010 OVC013 06/04 Q1002=
201403190920 METAR ESMX 190920Z 21010KT 9000 RA FEW007 SCT009 BKN012 06/04 Q1002=
201403190850 METAR ESMX 190850Z 23008KT 9999 FEW007 BKN011 OVC016 06/05 Q1002=
201403190820 METAR COR ESMX 190820Z 24009KT 200V270 9999 -RA FEW005 SCT008 OVC010 06/04 Q1002 REDZ=
201403190750 METAR ESMX 190750Z 23008KT 5000 RA FEW006 SCT007 BKN009 05/04 Q1002 REDZ=
201403190720 METAR ESMX 190720Z 25008KT 9999 FEW004 SCT006 BKN008 05/04 Q1002=
201403190650 METAR ESMX 190650Z 24006KT 7000 BR SCT002 BKN004 OVC005 05/04 Q1002 REDZ=
201403190620 METAR ESMX 190620Z VRB03KT 4800 -DZ SCT001 OVC004 04/04 Q1002=
201403190550 METAR ESMX 190550Z 17002KT 5000 -DZ FEW002 OVC005 04/03 Q1002=
201403190520 METAR ESMX 190520Z 00000KT 9000 -DZ SCT002 BKN006 04/03 Q1002=
201403190450 METAR ESMX 190450Z VRB02KT 4000 DZ BKN003 04/03 Q1002=
201403190420 METAR ESMX 190420Z AUTO 00000KT 2600 +DZ OVC001/// 04/03 Q1002=
201403190350 METAR ESMX 190350Z AUTO 01003KT 4200 -DZ VV002 03/03 Q1002=
201403190320 METAR ESMX 190320Z AUTO 00000KT 4200 -RA SCT001/// OVC006/// 04/03 Q1001 RERA=
201403190250 METAR ESMX 190250Z AUTO 02001KT 2400 BR SCT001/// OVC006/// 04/03 Q1001=
201403190220 METAR ESMX 190220Z AUTO VRB02KT 3900 -RA SCT001/// OVC006/// 04/03 Q1001=
201403190150 METAR ESMX 190150Z AUTO VRB03KT 3000 DZ SCT001/// OVC005/// 04/03 Q1001 REDZ=
201403190120 METAR ESMX 190120Z AUTO VRB03KT 1600 DZ FEW001/// OVC004/// 04/03 Q1001=
201403190050 METAR ESMX 190050Z 26005KT 230V290 3300 DZ OVC003 05/04 Q1000=
201403190020 METAR ESMX 190020Z 26005KT 3500 RADZ FEW002 BKN004 05/04 Q1000=
201403182350 METAR ESMX 182350Z 25006KT 3500 RADZ OVC004 05/04 Q1000=
201403182320 METAR ESMX 182320Z 26005KT 7000 -DZ BR OVC004 05/04 Q1000=
201403182250 METAR ESMX 182250Z 26007KT 7000 -RA BKN004 05/04 Q1000=
201403182220 METAR ESMX 182220Z 26007KT 2500 RADZ OVC004 05/04 Q1000=
201403182150 METAR ESMX 182150Z 26007KT 4000 RADZ OVC004 05/04 Q1000=
201403182120 METAR ESMX 182120Z 25007KT 9999 -DZ FEW006 BKN011 05/04 Q1000=
201403182050 METAR ESMX 182050Z 25008KT 230V290 5000 RADZ FEW009 BKN012 06/04 Q1000=
201403182020 METAR COR ESMX 182020Z 25008KT 9999 BKN010 BKN030 06/04 Q1000=
201403181950 METAR ESMX 181950Z 25009KT 9999 SCT011 BKN030 06/04 Q1000=
201403181920 METAR ESMX 181920Z AUTO 26009KT 9999 FEW011/// BKN015/// OVC024/// 06/04 Q1000=
201403181850 METAR ESMX 181850Z 25010KT 9999 FEW010 OVC015 06/04 Q1000=
201403181820 METAR ESMX 181820Z 23008KT 9999 SCT011 BKN015 06/04 Q1000=
201403181750 METAR ESMX 181750Z 24009KT 210V270 9999 SCT011 BKN016 06/04 Q1000=
201403181720 METAR COR ESMX 181720Z 25009KT 9999 FEW013 SCT017 BKN025 06/04 Q1000=
201403181650 METAR ESMX 181650Z 25010KT 9999 FEW012 SCT015 OVC035 07/04 Q1000=
201403181620 METAR ESMX 181620Z 24009KT 9000 -DZ FEW013 BKN020 07/04 Q1000=
201403181550 METAR ESMX 181550Z 25011KT 9999 FEW012 BKN017 07/04 Q1000=
201403181520 METAR ESMX 181520Z AUTO 23011KT 190V260 9999 FEW012/// BKN015/// OVC019/// 07/04 Q1000=
201403181450 METAR ESMX 181450Z 25011KT 9999 BKN013 07/04 Q1000=
201403181420 METAR ESMX 181420Z 25010KT 9999 FEW012 BKN015 07/04 Q1000=
201403181350 METAR ESMX 181350Z AUTO 25012KT 220V280 9999 BKN012/// OVC016/// 07/05 Q1000=
201403181320 METAR ESMX 181320Z AUTO 25012KT 9999 OVC012/// 07/05 Q1000=
201403181250 METAR ESMX 181250Z AUTO 25011KT 9999 FEW012/// OVC014/// 07/05 Q1000 REDZ=
201403181220 METAR ESMX 181220Z 25012KT 5000 -DZ FEW007 BKN011 07/05 Q1000=
201403181150 METAR ESMX 181150Z 25011KT 9999 OVC011 07/05 Q1001=
201403181120 METAR ESMX 181120Z 24010KT 210V280 9999 FEW009 SCT012 BKN015 07/05 Q1001=
201403181050 METAR ESMX 181050Z 26013KT 9999 FEW007 SCT009 OVC010 07/05 Q1001=
201403181021 METAR ESMX 181021Z 23010KT 8000 BR FEW004 BKN007 07/05 Q1001=
201403180950 METAR ESMX 180950Z 22008KT 4600 BR FEW003 OVC005 06/05 Q1001=
201403180920 METAR COR ESMX 180920Z 20010KT 2200 -DZ FEW002 BKN004 05/04 Q1001=
201403180850 METAR ESMX 180850Z 20008KT 2000 DZ SCT003 OVC005 05/04 Q1001=
201403180820 METAR ESMX 180820Z 19009KT 2200 BR FEW003 BKN004 04/03 Q1002=
201403180750 METAR ESMX 180750Z 19007KT 5000 BR SCT005 BKN018 04/03 Q1002=
201403180720 METAR ESMX 180720Z 20007KT 8000 BR FEW005 SCT006 BKN024 04/03 Q1002=
201403180650 METAR ESMX 180650Z AUTO 20008KT 9999 FEW005/// SCT009/// OVC036/// 04/03 Q1002 REDZ=
201403180620 METAR ESMX 180620Z AUTO 22007KT 9999 DZ FEW011/// SCT044/// 04/02 Q1002 REDZ=
201403180550 METAR ESMX 180550Z 20005KT 9999 -RA SCT010 03/02 Q1003=
201403180520 METAR ESMX 180520Z 20005KT 9999 -RA SCT016 03/02 Q1003=
201403180450 METAR ESMX 180450Z 22005KT 9999 -RA FEW020 04/02 Q1003=
201403180420 METAR ESMX 180420Z AUTO 22005KT 9999 FEW063/// 04/02 Q1003=
201403180350 METAR ESMX 180350Z AUTO 25005KT 9999 FEW067/// 04/01 Q1003=
201403180320 METAR ESMX 180320Z AUTO 26005KT 9999 FEW020/// SCT074/// 04/01 Q1003=
201403180250 METAR ESMX 180250Z AUTO 26006KT 9999 FEW015/// SCT018/// BKN023/// 04/01 Q1004=
201403180220 METAR ESMX 180220Z AUTO 26007KT 9999 SCT029/// BKN082/// 04/01 Q1004=
201403180150 METAR ESMX 180150Z AUTO 26008KT 9999 FEW030/// 04/01 Q1004=
201403180120 METAR ESMX 180120Z AUTO 25007KT 9999 FEW017/// 04/01 Q1004=
201403180050 METAR ESMX 180050Z 26009KT 9999 FEW018 BKN021 04/02 Q1004=
201403180020 METAR ESMX 180020Z 26008KT 230V290 9999 FEW017 BKN021 04/01 Q1004=
201403172350 METAR ESMX 172350Z 26006KT 9999 FEW018 BKN023 04/01 Q1004=
201403172320 METAR ESMX 172320Z 26008KT 9999 SCT014 BKN020 04/01 Q1004=
201403172250 METAR ESMX 172250Z 27009KT 9999 OVC014 04/02 Q1004=
201403172220 METAR ESMX 172220Z 26009KT 9999 SCT014 04/02 Q1004=
201403172150 METAR ESMX 172150Z 26011KT 9999 SCT014 04/01 Q1004=
201403172120 METAR ESMX 172120Z 26009KT 9999 FEW016 04/01 Q1004=
201403172050 METAR ESMX 172050Z 26010KT CAVOK 04/01 Q1003=
201403172020 METAR ESMX 172020Z 27012KT CAVOK 04/01 Q1003=
201403171950 METAR ESMX 171950Z 25010KT CAVOK 04/01 Q1003=
201403171920 METAR ESMX 171920Z 26010KT CAVOK 04/M00 Q1003=
201403171850 METAR ESMX 171850Z 26010KT CAVOK 04/M01 Q1003=
201403171820 METAR ESMX 171820Z 26012KT CAVOK 05/M02 Q1003=
201403171750 METAR ESMX 171750Z 26013KT 220V280 CAVOK 05/M03 Q1002=
201403171720 METAR ESMX 171720Z 27013KT CAVOK 05/M04 Q1002=
201403171650 METAR ESMX 171650Z 28014G24KT CAVOK 05/M05 Q1002=
201403171620 METAR ESMX 171620Z 28015G26KT CAVOK 06/M06 Q1001=
201403171550 METAR ESMX 171550Z 28018G30KT CAVOK 06/M08 Q1000=
201403171520 METAR ESMX 171520Z 28018G28KT CAVOK 07/M09 Q1000=
201403171450 METAR ESMX 171450Z 30020G34KT CAVOK 07/M10 Q0999=
201403171420 METAR ESMX 171420Z 28017KT CAVOK 07/M10 Q0998=
201403171350 METAR ESMX 171350Z 29017KT CAVOK 08/M09 Q0998=
201403171320 METAR ESMX 171320Z 30020G31KT 9999 FEW045 08/M08 Q0997=
201403171250 METAR ESMX 171250Z 30019G30KT 9999 FEW040 BKN100 07/M08 Q0997=
201403171220 METAR ESMX 171220Z 29021KT 9999 SCT040 BKN100 09/M08 Q0996=
201403171150 METAR ESMX 171150Z 30022G33KT CAVOK 08/M06 Q0995=
201403171120 METAR ESMX 171120Z 28020G35KT 250V320 9999 FEW044 BKN055 08/M04 Q0995=
201403171050 METAR ESMX 171050Z 29018G29KT 9999 FEW025 BKN040 07/M02 Q0994=
201403171020 METAR COR ESMX 171020Z 28019G31KT 9999 FEW030 BKN040 08/M01 Q0994=
201403170950 METAR COR ESMX 170950Z 27019G32KT 240V300 9999 FEW025 BKN035 08/M00 Q0994=
201403170920 METAR COR ESMX 170920Z 29018G29KT 260V320 9999 FEW025 BKN035 08/M00 Q0994=
201403170850 METAR ESMX 170850Z 28020G33KT 9999 FEW027 SCT033 BKN039 07/00 Q0994=
201403170820 METAR ESMX 170820Z 28017G30KT 9999 BKN025 07/01 Q0993=
201403170750 METAR ESMX 170750Z 27016KT 9999 SCT025 BKN100 07/01 Q0993=
201403170720 METAR ESMX 170720Z 27016KT 9999 SCT025 BKN100 06/01 Q0993=
201403170650 METAR ESMX 170650Z 27016KT 9999 SCT025 BKN100 06/01 Q0993=
201403170620 METAR COR ESMX 170620Z 27017G27KT 9999 FEW020 BKN025 06/01 Q0993=
201403170550 METAR COR ESMX 170550Z 27017G28KT 9999 FEW020 BKN025 06/01 Q0993=
201403170520 METAR ESMX 170520Z 27018G32KT 9999 FEW024 SCT028 06/01 Q0992=
201403170450 METAR ESMX 170450Z 27017KT 9999 SCT024 06/02 Q0992=
201403170420 METAR ESMX 170420Z AUTO 27016G29KT 9999 FEW023/// SCT026/// 06/02 Q0992=
201403170350 METAR ESMX 170350Z AUTO 27016G29KT 240V300 9999 FEW021/// SCT024/// BKN028/// 06/03 Q0992=
201403170320 METAR ESMX 170320Z AUTO 27015KT 9999 FEW019/// BKN022/// BKN029/// 07/03 Q0992=
201403170250 METAR ESMX 170250Z AUTO 27017G28KT 9999 FEW018/// BKN020/// OVC026/// 07/04 Q0992=
201403170220 METAR ESMX 170220Z AUTO 27015KT 9999 OVC018/// 07/04 Q0992=
201403170150 METAR ESMX 170150Z AUTO 26014G26KT 9999 FEW015/// OVC018/// 07/04 Q0992=
201403170120 METAR ESMX 170120Z AUTO 26014KT 9999 FEW015/// OVC017/// 07/04 Q0992=
201403170050 METAR ESMX 170050Z AUTO 27011G22KT 9999 OVC014/// 06/04 Q0993=
201403170020 METAR ESMX 170020Z AUTO 27013KT 9999 FEW010/// OVC013/// 06/05 Q0993=
201403162350 METAR ESMX 162350Z 27012KT 9999 FEW008 OVC009 06/05 Q0993=
201403162320 METAR ESMX 162320Z 26009KT 9999 FEW003 SCT006 BKN007 05/05 Q0993=
201403162250 METAR ESMX 162250Z 20006KT 7000 BR OVC002 04/03 Q0993=
201403162220 METAR ESMX 162220Z AUTO 18007KT 5000 BR BKN001/// OVC004/// 03/02 Q0993=
201403162150 METAR ESMX 162150Z 17006KT 3700 -DZ SCT005 BKN007 OVC009 02/01 Q0994=
201403162120 METAR ESMX 162120Z 15004KT 5000 RA FEW009 SCT011 OVC015 02/01 Q0995=
201403162050 METAR ESMX 162050Z 20005KT 9000 -RASN FEW017 OVC020 03/00 Q0995=
201403162020 METAR ESMX 162020Z 21005KT 9999 -RA OVC023 04/M00 Q0996=
201403161950 METAR ESMX 161950Z 24005KT 9999 DZ FEW010 BKN026 04/M00 Q0996=
201403161920 METAR ESMX 161920Z VRB03KT 9999 FEW020 BKN032 04/M01 Q0997=
201403161850 METAR ESMX 161850Z 23006KT 190V260 9999 FEW033 BKN047 04/M05 Q0997=
201403161820 METAR ESMX 161820Z 22003KT CAVOK 03/M04 Q0997=
201403161750 METAR ESMX 161750Z 00000KT CAVOK 04/M07 Q0997=
201403161720 METAR COR ESMX 161720Z VRB02KT CAVOK 05/M08 Q0997=
201403161650 METAR ESMX 161650Z 31005KT CAVOK 06/M08 Q0997=
201403161620 METAR ESMX 161620Z 30006KT 9999 FEW090 06/M09 Q0997=
201403161550 METAR COR ESMX 161550Z 31008KT CAVOK 07/M09 Q0997=
201403161520 METAR ESMX 161520Z 31008KT CAVOK 07/M09 Q0997=
201403161450 METAR ESMX 161450Z 31010KT 280V340 9999 NSC 08/M09 Q0997=
201403161420 METAR COR ESMX 161420Z 32010KT 280V350 CAVOK 08/M09 Q0996=
201403161350 METAR COR ESMX 161350Z 32012KT CAVOK 08/M09 Q0996=
201403161320 METAR ESMX 161320Z 32013KT CAVOK 08/M09 Q0996=
201403161250 METAR ESMX 161250Z 31012KT 290V350 CAVOK 07/M09 Q0996=
201403161220 METAR ESMX 161220Z AUTO 32013KT 290V360 9999 NCD 07/M09 Q0996=
201403161150 METAR ESMX 161150Z AUTO 32016KT 9999 FEW059/// 08/M08 Q0995=
201403161120 METAR ESMX 161120Z AUTO 33012G25KT 280V350 9999 FEW052/// SCT064/// 07/M06 Q0995=
201403161050 METAR ESMX 161050Z AUTO 32013KT 270V360 9999 FEW055/// 07/M07 Q0994=
201403161020 METAR ESMX 161020Z AUTO 34012KT 9999 FEW054/// 06/M05 Q0994=
201403160950 METAR ESMX 160950Z AUTO 33011KT 9999 FEW043/// 06/M05 Q0993=
201403160920 METAR ESMX 160920Z AUTO 34011KT 9999 FEW041/// 05/M05 Q0993=
201403160850 METAR ESMX 160850Z AUTO 33011KT 290V360 9999 NCD 05/M04 Q0993=
201403160820 METAR ESMX 160820Z AUTO 32009KT 9999 SCT100/// 04/M03 Q0992=
201403160750 METAR ESMX 160750Z AUTO 32009KT 280V350 9999 NCD 04/M02 Q0993=
201403160720 METAR ESMX 160720Z AUTO 30006KT 250V320 9999 FEW080/// 03/00 Q0992=
201403160650 METAR ESMX 160650Z AUTO 30005KT 9999 NCD 03/M00 Q0992=
201403160620 METAR ESMX 160620Z 29005KT CAVOK 02/M00 Q0992=
201403160550 METAR ESMX 160550Z 29006KT 250V310 CAVOK 02/M00 Q0992=
201403160520 METAR ESMX 160520Z AUTO 29005KT 250V320 9999 NCD 02/M01 Q0992=
201403160450 METAR ESMX 160450Z AUTO 29006KT 9999 NCD 02/M01 Q0992=
201403160420 METAR ESMX 160420Z AUTO 30006KT 9999 NCD 02/M01 Q0992=
201403160350 METAR ESMX 160350Z AUTO 29007KT 260V330 9999 NCD 02/M01 Q0991=
201403160320 METAR ESMX 160320Z AUTO 30008KT 9999 NCD 02/M01 Q0992=
201403160250 METAR ESMX 160250Z AUTO 29009KT 9999 NCD 03/M01 Q0992=
201403160220 METAR ESMX 160220Z AUTO 29010KT 9999 NCD 03/M01 Q0992=
201403160150 METAR ESMX 160150Z AUTO 29011KT 9999 NCD 03/M01 Q0992=
201403160120 METAR ESMX 160120Z AUTO 29010KT 9999 NCD 03/M00 Q0992=
201403160050 METAR ESMX 160050Z AUTO 29012KT 9999 NCD 04/M00 Q0993=
201403160020 METAR ESMX 160020Z AUTO 28011KT 9999 FEW021/// 04/00 Q0993=
201403152350 METAR ESMX 152350Z AUTO 27010KT 9999 FEW027/// 04/01 Q0993=
201403152320 METAR ESMX 152320Z AUTO 26010KT 9999 FEW020/// 04/01 Q0994=
201403152250 METAR ESMX 152250Z AUTO 27009KT 9999 FEW018/// BKN021/// 04/01 Q0994=
201403152220 METAR ESMX 152220Z AUTO 27011KT 9999 FEW017/// BKN020/// BKN026/// 04/01 Q0994=
201403152150 METAR ESMX 152150Z AUTO 27011KT 9999 FEW018/// SCT020/// BKN023/// 04/01 Q0995=
201403152120 METAR ESMX 152120Z AUTO 27012KT 9999 SCT017/// BKN021/// 04/01 Q0996 REDZ=
201403152050 METAR ESMX 152050Z 26012KT 9999 BKN020 04/M01 Q0996=
201403152020 METAR ESMX 152020Z 26011KT 230V290 CAVOK 04/M02 Q0997=
201403151950 METAR ESMX 151950Z 26010KT CAVOK 04/M03 Q0997=
201403151920 METAR ESMX 151920Z AUTO 26010KT 9999 NCD 04/M03 Q0998=
201403151850 METAR ESMX 151850Z AUTO 27011KT 240V300 9999 NCD 04/M04 Q0998=
201403151820 METAR ESMX 151820Z AUTO 27010KT 9999 NCD 04/M04 Q0999=
201403151750 METAR ESMX 151750Z AUTO 27010KT 9999 NCD 04/M05 Q0999=
201403151720 METAR ESMX 151720Z AUTO 27010KT 9999 NCD 04/M06 Q0999=
201403151650 METAR ESMX 151650Z AUTO 27010KT 9999 NCD 05/M06 Q0998=
201403151620 METAR ESMX 151620Z AUTO 28015KT 9999 FEW054/// 05/M05 Q0999=
201403151550 METAR ESMX 151550Z AUTO 29013KT 9999 FEW068/// 06/M06 Q0998=
201403151520 METAR ESMX 151520Z AUTO 30010KT 9999 FEW075/// SCT086/// 06/M08 Q0998=
201403151450 METAR ESMX 151450Z AUTO 31016G27KT 9999 FEW068/// SCT083/// 06/M09 Q0999=
201403151420 METAR ESMX 151420Z AUTO 32017KT 290V360 9999 SCT068/// 07/M08 Q0999=
201403151350 METAR ESMX 151350Z AUTO 31020KT 280V340 9999 FEW067/// 07/M08 Q0998=
201403151320 METAR ESMX 151320Z AUTO 31020G32KT 9999 FEW056/// 08/M07 Q0998=
201403151250 METAR ESMX 151250Z AUTO 32019G35KT 290V350 9999 FEW057/// 06/M06 Q0998=
201403151220 METAR ESMX 151220Z AUTO 32022G32KT 9999 FEW050/// 05/M06 Q0998=
201403151150 METAR ESMX 151150Z AUTO 32021G31KT 280V340 9999 FEW043/// SCT048/// BKN060/// 06/M05 Q0997=
201403151120 METAR ESMX 151120Z AUTO 32019G32KT 9999 FEW040/// BKN045/// 06/M04 Q0997=
201403151050 METAR ESMX 151050Z AUTO 32022G32KT 9999 FEW036/// SCT045/// BKN053/// 05/M03 Q0996=
201403151020 METAR ESMX 151020Z AUTO 33024G34KT 9999 FEW032/// SCT045/// 05/M02 Q0995=
201403150950 METAR ESMX 150950Z AUTO 33021G36KT 9999 FEW029/// SCT037/// BKN041/// 04/M02 Q0994=
201403150920 METAR ESMX 150920Z AUTO 32018G32KT 9999 FEW006/// SCT024/// BKN029/// 03/M00 Q0994=
201403150850 METAR ESMX 150850Z AUTO 31018G30KT 9999 FEW015/// BKN022/// OVC029/// 03/M01 Q0992=
201403150820 METAR ESMX 150820Z AUTO 31018G30KT 9999 -DZ FEW008/// SCT014/// BKN018/// 03/01 Q0991 REDZ=
201403150750 METAR ESMX 150750Z AUTO 31021G32KT 9999 FEW014/// SCT018/// BKN024/// 03/00 Q0990=
201403150720 METAR ESMX 150720Z AUTO 31019G31KT 9999 -DZ FEW015/// SCT018/// BKN020/// 03/00 Q0988=
201403150650 METAR ESMX 150650Z AUTO 32020G34KT 9999 -DZ FEW015/// SCT018/// BKN020/// 03/00 Q0986 RESHUP REDZ=
201403150620 METAR ESMX 150620Z AUTO 32020G33KT 280V340 9999 FEW016/// BKN020/// BKN029/// 03/00 Q0985 RESHUP=
201403150550 METAR ESMX 150550Z AUTO 30017G30KT 9999 -RA FEW014/// SCT018/// OVC020/// 04/01 Q0983 RERA=
201403150520 METAR ESMX 150520Z AUTO 29016KT 9999 -DZ FEW013/// BKN016/// OVC020/// 04/02 Q0982 REDZ=
201403150450 METAR ESMX 150450Z AUTO 28015KT 9999 FEW012/// BKN017/// OVC022/// 04/02 Q0982 RERA REDZ=
201403150420 METAR ESMX 150420Z AUTO 27015KT 9999 FEW008/// BKN012/// OVC025/// 03/02 Q0981=
201403150350 METAR ESMX 150350Z AUTO 26015G27KT 6000 -RA FEW009/// SCT011/// BKN014/// 03/01 Q0981=
201403150320 METAR ESMX 150320Z AUTO 25017G36KT 7000 DZ FEW014/// SCT016/// BKN019/// 03/01 Q0982 REDZ=
201403150250 METAR ESMX 150250Z AUTO 24018G30KT 9000 BR FEW018/// BKN022/// 04/01 Q0982=
201403150220 METAR ESMX 150220Z AUTO 23014G27KT 9999 FEW018/// BKN022/// OVC031/// 04/01 Q0983=
201403150150 METAR ESMX 150150Z AUTO 24015G26KT 200V280 9999 BKN017/// OVC024/// 04/02 Q0985=
201403150120 METAR ESMX 150120Z AUTO 26017KT 8000 BR FEW014/// SCT018/// OVC021/// 04/02 Q0986 REDZ=
201403150050 METAR ESMX 150050Z AUTO 25016G26KT 9999 FEW019/// BKN022/// OVC031/// 04/02 Q0987=
201403150020 METAR ESMX 150020Z AUTO 26016KT 9999 FEW017/// SCT023/// BKN029/// 04/02 Q0988=
201403142350 METAR ESMX 142350Z AUTO 25014G24KT 9999 FEW007/// SCT025/// 04/02 Q0989 RERA=
201403142320 METAR ESMX 142320Z AUTO 23015G33KT 3700 RA FEW007/// SCT009/// BKN012/// 05/03 Q0991=
201403142250 METAR ESMX 142250Z AUTO 22016KT 9000 -RA FEW008/// BKN011/// OVC014/// 05/03 Q0992 REDZ=
201403142220 METAR ESMX 142220Z AUTO 23017G31KT 6000 -RA FEW009/// BKN012/// 05/03 Q0993=
201403142150 METAR ESMX 142150Z AUTO 22018KT 6000 RA FEW007/// SCT009/// BKN011/// 05/04 Q0994=
201403142120 METAR ESMX 142120Z AUTO 22018G30KT 4400 RA FEW005/// SCT008/// BKN009/// 05/04 Q0996=
201403142050 METAR ESMX 142050Z AUTO 20016KT 170V240 5000 -RA FEW006/// SCT009/// BKN011/// 04/03 Q0997=
201403142020 METAR ESMX 142020Z AUTO 19018KT 7000 -RA FEW009/// SCT014/// BKN017/// 04/03 Q0999=
201403141950 METAR ESMX 141950Z AUTO 19018KT 7000 -RA FEW022/// SCT044/// 04/02 Q1001=
201403141920 METAR ESMX 141920Z AUTO 20016KT 9999 DZ FEW033/// 04/02 Q1003=
201403141850 METAR ESMX 141850Z AUTO 20015KT 9000 DZ FEW038/// SCT047/// BKN057/// 04/02 Q1004 RERA=
201403141820 METAR ESMX 141820Z 22015KT 5000 -RA FEW017 SCT063 04/02 Q1006=
201403141750 METAR ESMX 141750Z 21011KT 9999 FEW042 SCT061 BKN099 04/01 Q1007 REDZ=
201403141720 METAR ESMX 141720Z 24011KT 9999 -DZ FEW036 05/01 Q1008=
201403141650 METAR ESMX 141650Z AUTO 23011G22KT 200V260 9999 FEW036/// 06/00 Q1009=
201403141620 METAR ESMX 141620Z 23011KT CAVOK 06/M01 Q1010=
201403141550 METAR ESMX 141550Z 24013KT CAVOK 07/M00 Q1011=
201403141520 METAR ESMX 141520Z 24013KT 190V260 CAVOK 07/M00 Q1012=
201403141450 METAR ESMX 141450Z 25012KT 210V280 CAVOK 08/M01 Q1013=
201403141420 METAR ESMX 141420Z 23014KT CAVOK 08/M02 Q1013=
201403141350 METAR ESMX 141350Z 23014KT CAVOK 09/M01 Q1014=
201403141320 METAR ESMX 141320Z 22013KT CAVOK 09/M01 Q1014=
201403141250 METAR ESMX 141250Z AUTO 23015KT 210V270 9999 NCD 10/M01 Q1015=
201403141220 METAR ESMX 141220Z AUTO 22013KT 200V260 9999 NCD 09/M01 Q1016=
201403141150 METAR ESMX 141150Z 24011KT CAVOK 09/M01 Q1017=
201403141120 METAR COR ESMX 141120Z 24011KT CAVOK 09/M01 Q1018=
201403141050 METAR ESMX 141050Z 22010KT CAVOK 08/00 Q1018=
201403141020 METAR ESMX 141020Z 23006KT 200V260 CAVOK 08/01 Q1019=
201403140950 METAR ESMX 140950Z 23007KT CAVOK 07/01 Q1019=
201403140920 METAR ESMX 140920Z 24009KT CAVOK 06/02 Q1020=
201403140850 METAR ESMX 140850Z AUTO 26006KT 9999 FEW080/// 05/01 Q1020=
201403140820 METAR ESMX 140820Z AUTO 27004KT 230V290 9999 NCD 04/01 Q1020=
201403140750 METAR ESMX 140750Z 25003KT 210V300 CAVOK 03/02 Q1020=
201403140720 METAR ESMX 140720Z 23006KT 9999 FEW005 02/01 Q1021=
201403140650 METAR ESMX 140650Z AUTO 25004KT 210V270 9000 NCD 01/00 Q1021=
201403140620 METAR ESMX 140620Z 24005KT 4700 BR NSC 00/M00 Q1020=
201403140550 METAR ESMX 140550Z 26005KT 0800 R01/0550N R19/P2000N FZFG FEW001 M00/M01 Q1020=
201403140520 METAR ESMX 140520Z AUTO 25004KT 230V290 5000 BR FEW001/// 00/M00 Q1021=
201403140450 METAR ESMX 140450Z AUTO 24006KT 6000 BR NCD 01/M00 Q1020=
201403140420 METAR ESMX 140420Z AUTO 26005KT 6000 BR NCD 01/00 Q1020=
201403140350 METAR ESMX 140350Z AUTO 25005KT 8000 BR NCD 01/00 Q1020=
201403140320 METAR ESMX 140320Z AUTO 27004KT 7000 BR NCD 01/01 Q1020=
201403140250 METAR ESMX 140250Z AUTO 25004KT 9000 BR NCD 02/01 Q1020=
201403140220 METAR ESMX 140220Z AUTO 27006KT 9000 BR NCD 03/01 Q1020=
201403140150 METAR ESMX 140150Z AUTO 27009KT 9000 BR NCD 03/02 Q1019=
201403140120 METAR ESMX 140120Z 28007KT 8000 BR NSC 03/02 Q1019=
201403140050 METAR ESMX 140050Z AUTO 29005KT 250V330 7000 BR NCD 03/02 Q1019=
201403140020 METAR ESMX 140020Z 26008KT CAVOK 03/02 Q1019=
201403132350 METAR ESMX 132350Z 28009KT 240V320 CAVOK 04/02 Q1019=
201403132320 METAR ESMX 132320Z 28010KT CAVOK 04/02 Q1019=
201403132250 METAR ESMX 132250Z 27009KT CAVOK 04/02 Q1019=
201403132220 METAR COR ESMX 132220Z 27008KT CAVOK 04/01 Q1018=
201403132150 METAR ESMX 132150Z 27008KT CAVOK 04/01 Q1018=
201403132120 METAR COR ESMX 132120Z 26009KT CAVOK 04/01 Q1019=
201403132050 METAR ESMX 132050Z 26009KT CAVOK 04/00 Q1019=
201403132020 METAR COR ESMX 132020Z 26011KT CAVOK 05/M00 Q1019=
201403131950 METAR COR ESMX 131950Z 26009KT CAVOK 05/M00 Q1019=
201403131920 METAR COR ESMX 131920Z 26009KT CAVOK 05/M00 Q1019=
201403131850 METAR COR ESMX 131850Z 24011KT CAVOK 05/M01 Q1019=
201403131820 METAR COR ESMX 131820Z 25010KT CAVOK 05/M01 Q1019=
201403131750 METAR ESMX 131750Z 25009KT CAVOK 06/M01 Q1019=
201403131720 METAR ESMX 131720Z 25009KT CAVOK 07/M02 Q1019=
201403131650 METAR ESMX 131650Z AUTO 25009KT 9999 NCD 08/M03 Q1020=
201403131620 METAR ESMX 131620Z AUTO 25011KT 9999 NCD 09/M03 Q1019=
201403131550 METAR ESMX 131550Z 25011KT CAVOK 10/M04 Q1019=
201403131520 METAR ESMX 131520Z 26014KT CAVOK 11/M04 Q1020=
201403131450 METAR ESMX 131450Z 25010KT CAVOK 12/M04 Q1020=
201403131420 METAR ESMX 131420Z 25012KT CAVOK 12/M04 Q1020=
201403131350 METAR ESMX 131350Z 25012KT CAVOK 12/M05 Q1020=
201403131320 METAR ESMX 131320Z 26014KT CAVOK 12/M06 Q1021=
201403131250 METAR ESMX 131250Z 26010KT 230V300 CAVOK 12/M07 Q1021=
201403131220 METAR ESMX 131220Z 26013KT CAVOK 12/M06 Q1022=
201403131150 METAR ESMX 131150Z 26012KT 210V280 CAVOK 12/M06 Q1022=
201403131120 METAR ESMX 131120Z 25013KT CAVOK 11/M05 Q1023=
201403131050 METAR ESMX 131050Z AUTO 25011KT 9999 NCD 11/M04 Q1023=
201403131020 METAR ESMX 131020Z 25011KT CAVOK 10/M04 Q1023=
201403130950 METAR ESMX 130950Z 25011KT CAVOK 09/M03 Q1023=
201403130920 METAR ESMX 130920Z 27013KT CAVOK 08/M03 Q1024=
201403130850 METAR ESMX 130850Z 26010KT CAVOK 06/M03 Q1024=
201403130820 METAR ESMX 130820Z 26010KT CAVOK 05/M03 Q1024=
201403130750 METAR ESMX 130750Z 25008KT CAVOK 04/M02 Q1024=
201403130720 METAR ESMX 130720Z 25006KT CAVOK 02/M01 Q1024=
201403130650 METAR ESMX 130650Z 26005KT 230V300 CAVOK 01/M02 Q1024=
201403130620 METAR ESMX 130620Z 25005KT 220V290 CAVOK M00/M02 Q1024=
201403130550 METAR ESMX 130550Z 23005KT CAVOK M02/M04 Q1024=
201403130520 METAR ESMX 130520Z 23003KT CAVOK M02/M04 Q1025=
201403130450 METAR ESMX 130450Z 19003KT CAVOK M02/M04 Q1025=
201403130420 METAR ESMX 130420Z AUTO VRB03KT 9999 NCD M01/M04 Q1025=
201403130350 METAR ESMX 130350Z AUTO 22004KT 190V250 9999 NCD M01/M04 Q1025=
201403130320 METAR ESMX 130320Z AUTO 20004KT 9999 NCD M01/M04 Q1025=
201403130250 METAR ESMX 130250Z AUTO 21003KT 9999 NCD M01/M03 Q1025=
201403130220 METAR ESMX 130220Z AUTO 21004KT 9999 NCD M00/M03 Q1025=
201403130150 METAR ESMX 130150Z AUTO 23004KT 9999 NCD 00/M03 Q1026=
201403130120 METAR ESMX 130120Z AUTO 21003KT 180V250 9999 NCD 00/M03 Q1026=
201403130050 METAR ESMX 130050Z VRB02KT CAVOK 01/M03 Q1027=
201403130020 METAR ESMX 130020Z VRB02KT CAVOK 01/M03 Q1027=
201403122350 METAR ESMX 122350Z VRB03KT CAVOK 01/M02 Q1027=
201403122320 METAR ESMX 122320Z 25004KT 210V280 CAVOK 02/M01 Q1027=
201403122250 METAR ESMX 122250Z 25004KT 220V290 CAVOK 02/M01 Q1027=
201403122220 METAR ESMX 122220Z 27004KT 240V300 CAVOK 03/M01 Q1027=
201403122150 METAR ESMX 122150Z 27007KT CAVOK 04/M01 Q1028=
201403122120 METAR ESMX 122120Z 26009KT CAVOK 04/M00 Q1028=
201403122050 METAR ESMX 122050Z 26007KT 220V290 CAVOK 04/M00 Q1028=
201403122020 METAR COR ESMX 122020Z 25007KT 220V280 CAVOK 04/00 Q1028=
201403121950 METAR ESMX 121950Z 26008KT CAVOK 05/00 Q1028=
201403121920 METAR ESMX 121920Z 25005KT 200V280 CAVOK 05/01 Q1028=
201403121850 METAR ESMX 121850Z 26006KT CAVOK 05/01 Q1029=
201403121820 METAR ESMX 121820Z 26008KT CAVOK 06/01 Q1029=
201403121750 METAR ESMX 121750Z 25006KT 220V290 CAVOK 07/00 Q1029=
201403121720 METAR ESMX 121720Z 24007KT 200V270 CAVOK 08/M01 Q1029=
201403121650 METAR ESMX 121650Z 25009KT CAVOK 09/M01 Q1029=
201403121620 METAR ESMX 121620Z 24008KT CAVOK 10/M01 Q1029=
201403121550 METAR ESMX 121550Z 25010KT CAVOK 11/M01 Q1029=
201403121520 METAR ESMX 121520Z 26010KT CAVOK 12/M01 Q1030=
201403121450 METAR ESMX 121450Z 25010KT CAVOK 12/M03 Q1030=
201403121420 METAR ESMX 121420Z 26012KT CAVOK 13/M04 Q1030=
201403121350 METAR ESMX 121350Z 26011KT CAVOK 13/M03 Q1030=
201403121320 METAR ESMX 121320Z 27011KT CAVOK 13/M04 Q1030=
201403121250 METAR ESMX 121250Z 26011KT CAVOK 13/M04 Q1031=
201403121220 METAR ESMX 121220Z 23011KT CAVOK 12/M03 Q1031=
201403121150 METAR ESMX 121150Z 24010KT CAVOK 12/M02 Q1031=
201403121120 METAR ESMX 121120Z 25011KT CAVOK 11/M02 Q1032=
201403121050 METAR ESMX 121050Z 27009KT 240V300 CAVOK 11/M03 Q1032=
201403121020 METAR ESMX 121020Z 27008KT 240V310 CAVOK 10/M04 Q1033=
201403120950 METAR ESMX 120950Z 27009KT 240V300 CAVOK 09/M04 Q1033=
201403120920 METAR ESMX 120920Z 25008KT 230V290 CAVOK 08/M02 Q1033=
201403120850 METAR ESMX 120850Z 24007KT CAVOK 07/M01 Q1033=
201403120820 METAR ESMX 120820Z 24007KT 200V260 CAVOK 06/M02 Q1033=
201403120750 METAR ESMX 120750Z 26005KT 230V300 CAVOK 04/M02 Q1033=
201403120720 METAR ESMX 120720Z 25005KT CAVOK 02/M03 Q1033=
201403120650 METAR ESMX 120650Z 24003KT CAVOK 01/M03 Q1033=
201403120620 METAR ESMX 120620Z 21003KT CAVOK M01/M04 Q1033=
201403120550 METAR ESMX 120550Z AUTO 22005KT 9999 NCD M02/M05 Q1033=
201403120520 METAR COR ESMX 120520Z 24003KT CAVOK M01/M04 Q1034=
201403120450 METAR COR ESMX 120450Z 23004KT CAVOK M02/M04 Q1034=
201403120420 METAR ESMX 120420Z AUTO 25004KT 9999 NCD M03/M04 Q1034=
201403120350 METAR ESMX 120350Z AUTO 25003KT 9999 NCD M02/M05 Q1034=
201403120320 METAR ESMX 120320Z AUTO 29002KT 9999 NCD M03/M05 Q1034=
201403120250 METAR ESMX 120250Z AUTO 25003KT 9999 NCD M02/M04 Q1034=
201403120220 METAR ESMX 120220Z AUTO 24003KT 9999 NCD M02/M04 Q1034=
201403120150 METAR ESMX 120150Z AUTO 00000KT 9999 NCD M01/M04 Q1034=
201403120120 METAR ESMX 120120Z AUTO 25003KT 9999 NCD M02/M04 Q1034=
201403120050 METAR ESMX 120050Z 22003KT CAVOK M01/M04 Q1034=
201403120020 METAR ESMX 120020Z 26002KT CAVOK M02/M05 Q1034=
201403112350 METAR ESMX 112350Z 17003KT CAVOK M01/M05 Q1034=
201403112320 METAR ESMX 112320Z 25003KT CAVOK M01/M05 Q1034=
201403112250 METAR ESMX 112250Z 00000KT CAVOK M00/M05 Q1035=
201403112220 METAR ESMX 112220Z VRB01KT CAVOK M01/M05 Q1034=
201403112150 METAR ESMX 112150Z 00000KT CAVOK M01/M05 Q1035=
201403112120 METAR ESMX 112120Z 25004KT CAVOK 01/M05 Q1034=
201403112050 METAR ESMX 112050Z 26004KT CAVOK 01/M05 Q1035=
201403112020 METAR ESMX 112020Z 29004KT CAVOK 01/M04 Q1035=
201403111950 METAR ESMX 111950Z 27003KT CAVOK 00/M04 Q1035=
201403111920 METAR COR ESMX 111920Z 28004KT CAVOK 01/M04 Q1035=
201403111850 METAR ESMX 111850Z 25004KT CAVOK 03/M04 Q1035=
201403111820 METAR COR ESMX 111820Z 28003KT CAVOK 03/M04 Q1035=
201403111750 METAR ESMX 111750Z 28003KT CAVOK 05/M05 Q1035=
201403111720 METAR ESMX 111720Z 28003KT CAVOK 07/M06 Q1035=
201403111650 METAR ESMX 111650Z 28004KT CAVOK 08/M06 Q1034=
201403111620 METAR ESMX 111620Z 25005KT CAVOK 10/M06 Q1034=
201403111550 METAR ESMX 111550Z 29006KT 260V330 CAVOK 11/M06 Q1034=
201403111520 METAR ESMX 111520Z 29006KT 260V320 CAVOK 11/M06 Q1034=
201403111450 METAR ESMX 111450Z AUTO 32007KT 270V340 9999 NCD 11/M06 Q1034=
201403111420 METAR ESMX 111420Z 30005KT 260V340 CAVOK 11/M07 Q1034=
201403111350 METAR ESMX 111350Z 29005KT 250V350 CAVOK 12/M07 Q1034=
201403111320 METAR ESMX 111320Z 33004KT 280V060 CAVOK 11/M06 Q1034=
201403111250 METAR ESMX 111250Z 01003KT 300V070 CAVOK 12/M05 Q1035=
201403111220 METAR ESMX 111220Z 27005KT 220V340 CAVOK 11/M06 Q1035=
201403111150 METAR ESMX 111150Z 25005KT 200V330 CAVOK 11/M06 Q1035=
201403111120 METAR ESMX 111120Z 01003KT 330V060 CAVOK 10/M04 Q1035=
201403111050 METAR ESMX 111050Z 35004KT 290V030 CAVOK 09/M04 Q1035=
201403111020 METAR COR ESMX 111020Z VRB02KT CAVOK 08/M03 Q1035=
201403110950 METAR ESMX 110950Z 05004KT CAVOK 08/M02 Q1035=
201403110920 METAR ESMX 110920Z 35004KT CAVOK 06/M02 Q1035=
201403110850 METAR ESMX 110850Z 36005KT CAVOK 05/M01 Q1034=
201403110820 METAR ESMX 110820Z AUTO 01004KT 9999 NCD 04/M01 Q1034=
201403110750 METAR ESMX 110750Z VRB02KT CAVOK 02/01 Q1034=
201403110720 METAR ESMX 110720Z 00000KT CAVOK 00/M00 Q1034=
201403110650 METAR ESMX 110650Z 36002KT CAVOK M02/M02 Q1034=
201403110620 METAR ESMX 110620Z 29002KT CAVOK M03/M04 Q1033=
201403110550 METAR ESMX 110550Z 34001KT 9999 R01/P2000 BCFG SCT200 M04/M05 Q1033=
201403110520 METAR COR ESMX 110520Z 36003KT 9999 R01/P2000N R19/P2000D BCFG NSC M03/M04 Q1032=
201403110450 METAR COR ESMX 110450Z 31002KT 9999 R01/P2000N R19/P2000N BCFG NSC M05/M05 Q1032=
201403110420 METAR ESMX 110420Z AUTO VRB01KT 9999 NCD M04/M04 Q1032=
201403110350 METAR ESMX 110350Z AUTO 00000KT 3500 BR NCD M02/M03 Q1032=
201403110320 METAR ESMX 110320Z AUTO 26003KT 6000 NCD M03/M03 Q1031=
201403110250 METAR ESMX 110250Z AUTO 30003KT 0900 R01/P2000N R19/P2000N NCD M02/M03 Q1031=
201403110220 METAR ESMX 110220Z AUTO 31003KT 2800 NCD M02/M02 Q1031=
201403110150 METAR ESMX 110150Z AUTO 32003KT 8000 BR NCD M02/M03 Q1030=
201403110120 METAR ESMX 110120Z AUTO VRB02KT 9999 NCD M01/M02 Q1030=
201403110050 METAR ESMX 110050Z 00000KT CAVOK M01/M01 Q1030=
201403110020 METAR ESMX 110020Z VRB01KT CAVOK 00/M00 Q1030=
201403102350 METAR ESMX 102350Z 30004KT CAVOK 01/M00 Q1029=
201403102320 METAR ESMX 102320Z 31004KT CAVOK 01/M00 Q1029=
201403102250 METAR ESMX 102250Z 32006KT CAVOK 01/00 Q1028=
201403102220 METAR ESMX 102220Z 32006KT CAVOK 02/01 Q1028=
201403102150 METAR COR ESMX 102150Z 33006KT CAVOK 02/00 Q1028=
201403102120 METAR COR ESMX 102120Z 34005KT CAVOK 03/01 Q1028=
201403102050 METAR ESMX 102050Z 31006KT CAVOK 03/01 Q1027=
201403102020 METAR ESMX 102020Z 33005KT CAVOK 04/02 Q1027=
201403101950 METAR COR ESMX 101950Z 31005KT CAVOK 05/02 Q1027=
201403101920 METAR ESMX 101920Z 32005KT CAVOK 06/02 Q1026=
201403101850 METAR COR ESMX 101850Z 32008KT 9999 FEW020 06/03 Q1026=
201403101820 METAR ESMX 101820Z 31011KT 9999 SCT020 08/03 Q1025=
201403101750 METAR ESMX 101750Z 30010KT 9999 FEW021 08/04 Q1024=
201403101720 METAR ESMX 101720Z 30011KT 9999 FEW035 09/04 Q1024=
201403101650 METAR COR ESMX 101650Z 28009KT 250V320 9999 FEW035 10/04 Q1023=
201403101620 METAR ESMX 101620Z 29008KT 9999 BKN034 11/05 Q1023=
201403101550 METAR ESMX 101550Z 29010KT 9999 FEW042 12/05 Q1022=
201403101520 METAR ESMX 101520Z 27009KT CAVOK 13/05 Q1022=
201403101450 METAR ESMX 101450Z 28010KT 250V320 CAVOK 13/04 Q1022=
201403101420 METAR ESMX 101420Z 27011KT CAVOK 14/03 Q1021=
201403101350 METAR ESMX 101350Z 28011KT 250V320 CAVOK 15/03 Q1021=
201403101320 METAR ESMX 101320Z 25014KT CAVOK 15/03 Q1021=
201403101250 METAR ESMX 101250Z 24013KT 210V270 CAVOK 16/04 Q1021=
201403101220 METAR ESMX 101220Z AUTO 24012KT 9999 NCD 15/04 Q1021=
201403101150 METAR ESMX 101150Z AUTO 25014KT 9999 NCD 15/04 Q1021=
201403101120 METAR ESMX 101120Z 26012KT CAVOK 15/04 Q1022=
201403101050 METAR ESMX 101050Z 23010KT 210V280 CAVOK 15/04 Q1022=
201403101020 METAR ESMX 101020Z 23014KT CAVOK 14/04 Q1022=
201403100950 METAR ESMX 100950Z 22011KT 9999 NSC 13/04 Q1022=
201403100920 METAR ESMX 100920Z 21009KT 9000 BR NSC 12/04 Q1022=
201403100820 METAR COR ESMX 100820Z 19011KT 7000 BR NSC 08/03 Q1022=
201403100750 METAR ESMX 100750Z 20010KT 6000 BR NSC 07/03 Q1022=
201403100720 METAR ESMX 100720Z 20009KT 5000 BR NSC 05/03 Q1022=
201403100650 METAR ESMX 100650Z AUTO 20008KT 4300 BR NCD 04/02 Q1022=
201403100620 METAR ESMX 100620Z 19008KT 3400 BR NSC 03/01 Q1022=
201403100550 METAR ESMX 100550Z 19007KT 4000 BR NSC 02/00 Q1022=
201403100520 METAR ESMX 100520Z 16005KT 4000 BR NSC 02/00 Q1023=
201403100450 METAR ESMX 100450Z 20006KT 4000 BR NSC 02/01 Q1023=
201403100420 METAR ESMX 100420Z AUTO 20006KT 3400 BR NCD 02/00 Q1023=
201403100350 METAR ESMX 100350Z AUTO 20005KT 4100 BR NCD 03/01 Q1023=
201403100320 METAR ESMX 100320Z AUTO 17007KT 4400 BR NCD 04/02 Q1023=
201403100250 METAR ESMX 100250Z AUTO 18007KT 4400 BR NCD 03/01 Q1023=
201403100220 METAR ESMX 100220Z AUTO 18008KT 4900 BR NCD 04/01 Q1024=
201403100150 METAR ESMX 100150Z AUTO 18008KT 5000 BR NCD 04/01 Q1024=
201403100120 METAR ESMX 100120Z AUTO 17008KT 6000 BR NCD 05/02 Q1024=
201403100050 METAR COR ESMX 100050Z 18008KT 6000 BR NSC 05/02 Q1024=
201403100020 METAR ESMX 100020Z 20008KT 6000 BR NSC 04/01 Q1024=
201403092350 METAR ESMX 092350Z 18009KT 6000 BR NSC 04/01 Q1024=
201403092320 METAR ESMX 092320Z 19008KT 6000 BR NSC 03/01 Q1024=
201403092250 METAR ESMX 092250Z 19008KT 6000 BR NSC 04/01 Q1025=
201403092220 METAR ESMX 092220Z 20007KT 7000 BR NSC 04/01 Q1025=
201403092150 METAR ESMX 092150Z 19009KT 7000 BR NSC 04/01 Q1025=
201403092120 METAR COR ESMX 092120Z 18009KT 7000 BR NSC 05/01 Q1025=
201403092050 METAR COR ESMX 092050Z 19008KT 7000 BR NSC 05/01 Q1025=
201403092020 METAR ESMX 092020Z 18008KT 8000 BR NSC 05/01 Q1025=
201403091950 METAR ESMX 091950Z 18008KT CAVOK 07/01 Q1025=
201403091920 METAR ESMX 091920Z 18009KT CAVOK 07/01 Q1025=
201403091850 METAR ESMX 091850Z 18009KT CAVOK 08/01 Q1025=
201403091820 METAR ESMX 091820Z 18009KT CAVOK 08/01 Q1025=
201403091750 METAR ESMX 091750Z 19009KT CAVOK 09/01 Q1025=
201403091720 METAR ESMX 091720Z 19012KT CAVOK 11/00 Q1025=
201403091650 METAR ESMX 091650Z 19013KT CAVOK 12/00 Q1025=
201403091620 METAR COR ESMX 091620Z 19011KT CAVOK 13/01 Q1025=
201403091550 METAR COR ESMX 091550Z 19011KT CAVOK 14/02 Q1025=
201403091520 METAR COR ESMX 091520Z 19012KT CAVOK 14/03 Q1025=
201403091450 METAR ESMX 091450Z 18013KT CAVOK 15/04 Q1025=
201403091420 METAR ESMX 091420Z 17014KT CAVOK 14/04 Q1025=
201403091350 METAR ESMX 091350Z 19013KT CAVOK 14/04 Q1025=
201403091320 METAR ESMX 091320Z AUTO 20014KT 9999 NCD 14/04 Q1026=
201403091250 METAR ESMX 091250Z AUTO 19014KT 9999 NCD 13/04 Q1026=
201403091220 METAR ESMX 091220Z AUTO 20013KT 9999 NCD 13/04 Q1026=
201403091150 METAR ESMX 091150Z AUTO 19013KT 9999 NCD 12/04 Q1026=
201403091120 METAR ESMX 091120Z AUTO 20013KT 9999 NCD 12/03 Q1026=
201403091050 METAR ESMX 091050Z AUTO 19015KT 9999 NCD 11/03 Q1027=
201403091020 METAR ESMX 091020Z AUTO 21014KT 9999 NCD 10/03 Q1027=
201403090950 METAR ESMX 090950Z AUTO 20013KT 9999 NCD 09/03 Q1027=
201403090920 METAR ESMX 090920Z AUTO 21013KT 9999 NCD 09/03 Q1027=
201403090850 METAR ESMX 090850Z AUTO 20012KT 9999 NCD 08/02 Q1027=
201403090820 METAR ESMX 090820Z AUTO 20011KT 9999 NCD 07/02 Q1027=
201403090750 METAR ESMX 090750Z AUTO 19012KT 9999 NCD 07/01 Q1027=
201403090720 METAR ESMX 090720Z AUTO 21011KT 9999 NCD 05/01 Q1027=
201403090650 METAR ESMX 090650Z 20011KT CAVOK 05/00 Q1027=
201403090620 METAR ESMX 090620Z 18010KT CAVOK 04/M00 Q1027=
201403090550 METAR COR ESMX 090550Z 19008KT CAVOK 03/M01 Q1027=
201403090520 METAR ESMX 090520Z AUTO 19008KT 9999 NCD 03/M01 Q1027=
201403090450 METAR ESMX 090450Z AUTO 16006KT 9999 NCD 03/M02 Q1027=
201403090420 METAR ESMX 090420Z AUTO 19009KT 9999 NCD 03/M02 Q1027=
201403090350 METAR ESMX 090350Z AUTO 19009KT 9999 NCD 03/M02 Q1027=
201403090320 METAR ESMX 090320Z AUTO 18009KT 9999 NCD 03/M01 Q1027=
201403090250 METAR ESMX 090250Z AUTO 19010KT 9999 NCD 03/M01 Q1028=
201403090220 METAR ESMX 090220Z AUTO 19011KT 9999 NCD 03/M01 Q1028=
201403090150 METAR ESMX 090150Z AUTO 19011KT 9999 NCD 03/M01 Q1028=
201403090120 METAR ESMX 090120Z AUTO 19011KT 9999 NCD 03/M01 Q1028=
201403090050 METAR ESMX 090050Z AUTO 20010KT 9999 NCD 03/M01 Q1029=
201403090020 METAR ESMX 090020Z AUTO 19010KT 9999 NCD 04/M01 Q1029=
201403082350 METAR ESMX 082350Z AUTO 20010KT 9999 NCD 04/M01 Q1029=
201403082320 METAR ESMX 082320Z AUTO 19009KT 9999 NCD 04/M01 Q1029=
201403082250 METAR ESMX 082250Z AUTO 21008KT 9999 NCD 03/M01 Q1030=
201403082220 METAR ESMX 082220Z AUTO 17007KT 9999 NCD 03/M01 Q1029=
201403082150 METAR ESMX 082150Z AUTO 18007KT 9999 NCD 04/M01 Q1030=
201403082120 METAR ESMX 082120Z AUTO 19007KT 9999 NCD 03/M01 Q1030=
201403082050 METAR ESMX 082050Z 18004KT CAVOK 03/M02 Q1030=
201403082020 METAR ESMX 082020Z 17004KT CAVOK 03/M01 Q1030=
201403081950 METAR ESMX 081950Z 18005KT CAVOK 03/M01 Q1031=
201403081920 METAR ESMX 081920Z 19006KT CAVOK 03/M01 Q1031=
201403081850 METAR ESMX 081850Z AUTO 19006KT 9999 NCD 02/M01 Q1031=
201403081820 METAR ESMX 081820Z AUTO 18005KT 9999 NCD 03/M02 Q1031=
201403081750 METAR ESMX 081750Z AUTO 22005KT 9999 NCD 03/M01 Q1031=
201403081720 METAR ESMX 081720Z AUTO 23006KT 9999 NCD 03/M02 Q1031=
201403081650 METAR ESMX 081650Z AUTO 24008KT 9999 NCD 05/M01 Q1031=
201403081620 METAR ESMX 081620Z AUTO 24007KT 9999 NCD 05/M02 Q1030=
201403081550 METAR ESMX 081550Z AUTO 23007KT 200V270 9999 NCD 07/M02 Q1030=
201403081520 METAR ESMX 081520Z AUTO 25010KT 230V290 9999 NCD 07/M02 Q1030=
201403081450 METAR ESMX 081450Z AUTO 25010KT 9999 NCD 08/M02 Q1030=
201403081420 METAR ESMX 081420Z AUTO 24011KT 9999 NCD 08/M02 Q1030=
201403081350 METAR ESMX 081350Z AUTO 24011KT 210V280 9999 NCD 08/M02 Q1030=
201403081320 METAR ESMX 081320Z AUTO 23011KT 9999 NCD 08/M02 Q1030=
201403081250 METAR ESMX 081250Z AUTO 27012KT 230V310 9999 FEW044/// 09/M01 Q1030=
201403081220 METAR ESMX 081220Z AUTO 24013KT 9999 NCD 09/M01 Q1030=
201403081150 METAR ESMX 081150Z AUTO 26011KT 230V290 9999 NCD 09/M00 Q1030=
201403081120 METAR ESMX 081120Z 25011KT 9999 FEW030 08/M00 Q1029=
201403081050 METAR ESMX 081050Z AUTO 24010KT 200V280 9999 FEW027/// 08/00 Q1029=
201403081020 METAR ESMX 081020Z 28012KT 9999 FEW025 07/01 Q1029=
201403080950 METAR ESMX 080950Z 26011KT 230V290 9999 FEW028 06/00 Q1029=
201403080920 METAR ESMX 080920Z AUTO 26011KT 230V310 9999 FEW020/// 06/01 Q1028=
201403080850 METAR ESMX 080850Z AUTO 27014KT 240V300 9999 NCD 05/01 Q1028=
201403080820 METAR ESMX 080820Z AUTO 26012KT 230V290 9999 NCD 05/01 Q1027=
201403080750 METAR ESMX 080750Z AUTO 26012KT 9999 NCD 04/01 Q1026=
201403080720 METAR ESMX 080720Z AUTO 26011KT 9999 NCD 03/00 Q1026=
201403080650 METAR ESMX 080650Z AUTO 26010KT 9999 NCD 03/00 Q1026=
201403080620 METAR ESMX 080620Z AUTO 26010KT 9999 NCD 02/00 Q1025=
201403080550 METAR ESMX 080550Z AUTO 26009KT 9999 NCD 02/00 Q1025=
201403080520 METAR ESMX 080520Z AUTO 25009KT 9999 NCD 02/00 Q1024=
201403080450 METAR ESMX 080450Z AUTO 26008KT 9999 NCD 03/00 Q1024=
201403080420 METAR ESMX 080420Z AUTO 27010KT 9999 FEW019/// 03/00 Q1023=
201403080350 METAR ESMX 080350Z AUTO 27013KT 9999 FEW020/// SCT024/// 03/00 Q1022=
201403080320 METAR ESMX 080320Z AUTO 27013KT 240V300 9999 FEW019/// BKN022/// 04/00 Q1022=
201403080250 METAR ESMX 080250Z AUTO 26013KT 9999 FEW018/// OVC021/// 04/01 Q1021=
201403080220 METAR ESMX 080220Z AUTO 26013KT 9999 FEW019/// OVC021/// 04/01 Q1020=
201403080150 METAR ESMX 080150Z AUTO 25012KT 9999 FEW020/// SCT031/// 03/01 Q1020=
201403080120 METAR ESMX 080120Z AUTO 24011KT 9999 FEW020/// 03/01 Q1019=
201403080050 METAR ESMX 080050Z AUTO 23011KT 9999 FEW024/// 03/01 Q1019=
201403080020 METAR ESMX 080020Z AUTO 26011KT 220V280 9999 FEW020/// 03/01 Q1019=
201403072350 METAR ESMX 072350Z AUTO 26010KT 9999 FEW100/// 04/01 Q1018=
201403072320 METAR ESMX 072320Z AUTO 26012KT 9999 FEW048/// SCT070/// BKN081/// 04/02 Q1018=
201403072250 METAR ESMX 072250Z AUTO 27015KT 9999 FEW009/// SCT012/// BKN015/// 05/03 Q1017=
201403072220 METAR ESMX 072220Z AUTO 24014KT 210V280 3600 DZ FEW007/// BKN009/// OVC013/// 06/05 Q1016 REDZ=
201403072150 METAR ESMX 072150Z AUTO 20014KT 2500 DZ FEW007/// SCT009/// OVC011/// 06/04 Q1016=
201403072120 METAR ESMX 072120Z AUTO 21015KT 3200 -RA BKN011/// OVC017/// 06/04 Q1016=
201403072050 METAR ESMX 072050Z AUTO 19017KT 5000 -DZ FEW017/// SCT021/// BKN024/// 06/03 Q1016 REDZ=
201403072020 METAR ESMX 072020Z AUTO 18015KT 6000 BR FEW026/// SCT030/// BKN036/// 06/03 Q1016 REDZ=
201403071950 METAR ESMX 071950Z AUTO 18015KT 6000 -DZ FEW036/// SCT042/// BKN049/// 06/02 Q1017=
201403071920 METAR ESMX 071920Z AUTO 18015KT 7000 BR FEW078/// BKN096/// 06/02 Q1017=
201403071850 METAR ESMX 071850Z AUTO 18018KT 7000 BR SCT081/// 06/02 Q1017=
201403071820 METAR ESMX 071820Z 18016KT 7000 BR NSC 06/02 Q1018=
201403071750 METAR ESMX 071750Z 18017KT 8000 BR NSC 06/02 Q1018=
201403071720 METAR ESMX 071720Z 17015KT 8000 BR NSC 06/01 Q1018=
201403071650 METAR ESMX 071650Z 18013KT 9000 BR NSC 07/01 Q1018=
201403071620 METAR ESMX 071620Z 17013KT CAVOK 07/01 Q1018=
201403071550 METAR ESMX 071550Z 18017KT CAVOK 08/01 Q1019=
201403071520 METAR ESMX 071520Z 17015KT CAVOK 08/02 Q1019=
201403071450 METAR ESMX 071450Z 17016KT 9000 BR NSC 08/02 Q1019=
201403071420 METAR ESMX 071420Z 17013KT 9000 BR NSC 08/02 Q1020=
201403071350 METAR ESMX 071350Z 17012KT 9000 BR NSC 08/02 Q1020=
201403071320 METAR ESMX 071320Z 17013KT 9000 BR NSC 09/02 Q1020=
201403071250 METAR ESMX 071250Z 18012KT 9000 BR NSC 10/02 Q1021=
201403071220 METAR ESMX 071220Z 16010KT 8000 BR NSC 09/03 Q1021=
201403071150 METAR COR ESMX 071150Z 17011KT 140V200 8000 BR NSC 09/03 Q1021=
201403071120 METAR ESMX 071120Z 17010KT 8000 BR NSC 08/02 Q1022=
201403071050 METAR ESMX 071050Z 17012KT 7000 BR NSC 08/03 Q1022=
201403071020 METAR COR ESMX 071020Z 18009KT 8000 BR NSC 07/03 Q1022=
201403070950 METAR ESMX 070950Z 16010KT 5000 BR NSC 06/02 Q1023=
201403070920 METAR ESMX 070920Z 16012KT 5000 BR NSC 05/02 Q1023=
201403070850 METAR ESMX 070850Z 17010KT 5000 BR FEW007 SCT070 05/02 Q1023=
201403070820 METAR ESMX 070820Z 16009KT 4500 BR FEW006 BKN083 05/02 Q1024=
201403070750 METAR COR ESMX 070750Z 17009KT 3300 BR FEW005 04/02 Q1024=
201403070720 METAR ESMX 070720Z 16007KT 3000 BR FEW004 03/01 Q1024=
201403070650 METAR ESMX 070650Z 17008KT 140V200 3000 BR NSC 03/01 Q1024=
201403070620 METAR ESMX 070620Z 17008KT 2800 BR NSC 02/01 Q1024=
201403070550 METAR ESMX 070550Z 18008KT 2300 BR NSC 02/01 Q1024=
201403070520 METAR ESMX 070520Z 17008KT 2200 BR NSC 02/01 Q1024=
201403070450 METAR ESMX 070450Z 17008KT 2400 BR NSC 02/01 Q1024=
201403070420 METAR ESMX 070420Z AUTO 17008KT 2500 BR NCD 02/01 Q1024=
201403070350 METAR ESMX 070350Z AUTO 17008KT 2400 BR NCD 02/01 Q1024=
201403070320 METAR ESMX 070320Z AUTO 16007KT 2000 BR NCD 02/01 Q1024=
201403070250 METAR ESMX 070250Z AUTO 16007KT 2000 BR NCD 02/01 Q1025=
201403070220 METAR ESMX 070220Z AUTO 17007KT 2200 BR FEW007/// 02/01 Q1025=
201403070150 METAR ESMX 070150Z AUTO 17006KT 2400 BR NCD 02/01 Q1025=
201403070120 METAR ESMX 070120Z 17007KT 2500 BR FEW007 02/01 Q1025=
201403070050 METAR ESMX 070050Z 18007KT 2300 BR FEW007 02/01 Q1025=
201403070020 METAR ESMX 070020Z 17006KT 2600 BR BKN005 02/01 Q1026=
201403062350 METAR ESMX 062350Z 17007KT 3100 BR OVC005 02/01 Q1026=
201403062320 METAR ESMX 062320Z 18008KT 3700 BR SCT006 BKN093 02/01 Q1026=
201403062250 METAR ESMX 062250Z 18009KT 4900 BR FEW011 BKN093 03/01 Q1026=
201403062220 METAR ESMX 062220Z 17008KT 5000 BR FEW007 BKN081 03/01 Q1026=
201403062150 METAR ESMX 062150Z 18008KT 6000 BR FEW010 03/01 Q1026=
201403062120 METAR ESMX 062120Z 18008KT 6000 BR NSC 03/01 Q1026=
201403062050 METAR ESMX 062050Z 18008KT 7000 BR NSC 03/01 Q1026=
201403062020 METAR ESMX 062020Z 18007KT 7000 BR NSC 03/01 Q1026=
201403061950 METAR ESMX 061950Z 17008KT 8000 BR NSC 04/01 Q1026=
201403061920 METAR ESMX 061920Z 17008KT 8000 BR NSC 04/02 Q1026=
201403061850 METAR ESMX 061850Z 18009KT 8000 BR NSC 04/01 Q1026=
201403061820 METAR ESMX 061820Z 18009KT 8000 BR NSC 04/02 Q1026=
201403061750 METAR COR ESMX 061750Z 19009KT CAVOK 04/02 Q1026=
201403061720 METAR ESMX 061720Z 20008KT CAVOK 04/01 Q1026=
201403061650 METAR COR ESMX 061650Z 20009KT CAVOK 05/02 Q1026=
201403061620 METAR ESMX 061620Z 21008KT CAVOK 07/02 Q1026=
201403061550 METAR ESMX 061550Z 20009KT CAVOK 07/02 Q1026=
201403061520 METAR ESMX 061520Z 20010KT CAVOK 07/02 Q1026=
201403061450 METAR ESMX 061450Z 22009KT 9999 FEW028 SCT110 08/02 Q1026=
201403061420 METAR ESMX 061420Z 20011KT 9999 FEW110 08/01 Q1026=
201403061350 METAR ESMX 061350Z 22010KT 9999 FEW028 08/02 Q1026=
201403061320 METAR ESMX 061320Z AUTO 20010KT 9999 FEW024/// SCT110/// 08/01 Q1026=
201403061250 METAR ESMX 061250Z 19010KT 9999 FEW022 SCT110 07/02 Q1026=
201403061220 METAR COR ESMX 061220Z 20010KT 170V240 9999 FEW018 SCT023 06/01 Q1026=
201403061150 METAR ESMX 061150Z 20009KT 9999 SCT013 BKN017 06/01 Q1027=
201403061120 METAR ESMX 061120Z 19009KT 9999 BKN012 BKN016 05/01 Q1027=
201403061050 METAR ESMX 061050Z 23007KT 190V260 9999 BKN011 04/01 Q1027=
201403061020 METAR ESMX 061020Z 24007KT 210V280 9999 OVC012 04/01 Q1027=
201403060950 METAR ESMX 060950Z 22009KT 9999 OVC014 04/01 Q1027=
201403060920 METAR ESMX 060920Z 21009KT 9999 OVC015 04/01 Q1026=
201403060850 METAR ESMX 060850Z 21008KT 9999 OVC018 04/00 Q1026=
201403060820 METAR ESMX 060820Z 19006KT 9999 OVC021 03/M00 Q1026=
201403060750 METAR ESMX 060750Z 19005KT 9999 OVC021 03/M00 Q1026=
201403060720 METAR ESMX 060720Z 20004KT 9999 OVC021 02/M00 Q1026=
201403060650 METAR ESMX 060650Z AUTO 21005KT 9999 OVC021/// 01/M01 Q1026=
201403060620 METAR ESMX 060620Z 21005KT 9999 OVC023 01/M01 Q1026=
201403060550 METAR ESMX 060550Z 19004KT 9999 OVC023 01/M01 Q1026=
201403060520 METAR ESMX 060520Z 20003KT 9999 OVC024 01/M01 Q1025=
201403060450 METAR ESMX 060450Z 20003KT 9999 OVC024 01/M01 Q1025=
201403060420 METAR ESMX 060420Z AUTO 22003KT 8000 OVC025/// 01/M01 Q1025=
201403060350 METAR ESMX 060350Z AUTO 21003KT 6000 BR OVC027/// 01/M00 Q1025=
201403060320 METAR ESMX 060320Z AUTO 22003KT 8000 BR OVC027/// 01/M00 Q1025=
201403060250 METAR ESMX 060250Z AUTO 22003KT 8000 BR OVC026/// 01/00 Q1025=
201403060220 METAR ESMX 060220Z AUTO 22003KT 7000 BR OVC026/// 01/00 Q1025=
201403060150 METAR ESMX 060150Z AUTO 23003KT 6000 BR OVC026/// 01/00 Q1024=
201403060120 METAR ESMX 060120Z AUTO 26003KT 8000 BR OVC026/// 01/01 Q1024=
201403060050 METAR ESMX 060050Z 25002KT 6000 BR OVC025 01/00 Q1024=
201403060020 METAR ESMX 060020Z 00000KT 7000 BR OVC024 01/00 Q1024=
201403052350 METAR ESMX 052350Z 00000KT 6000 BR OVC026 01/01 Q1024=
201403052320 METAR ESMX 052320Z AUTO 00000KT 7000 BR OVC025/// 01/01 Q1024=
201403052250 METAR ESMX 052250Z 00000KT 8000 BR OVC026 01/00 Q1024=
201403052220 METAR ESMX 052220Z 25002KT 7000 BR OVC028 01/00 Q1023=
201403052150 METAR ESMX 052150Z 00000KT 8000 BR OVC028 01/01 Q1023=
201403052120 METAR ESMX 052120Z 00000KT 8000 BR FEW009 OVC029 01/00 Q1023=
201403052050 METAR ESMX 052050Z 00000KT 8000 BR OVC026 02/01 Q1023=
201403052020 METAR ESMX 052020Z 00000KT 8000 BR OVC026 02/01 Q1023=
201403051950 METAR ESMX 051950Z 36001KT 9000 BR OVC026 02/01 Q1022=
201403051920 METAR ESMX 051920Z 03003KT 9999 OVC026 02/01 Q1022=
201403051850 METAR ESMX 051850Z 03002KT 9999 OVC026 02/01 Q1022=
201403051820 METAR ESMX 051820Z VRB02KT 9999 OVC027 02/01 Q1022=
201403051750 METAR ESMX 051750Z 35004KT 8000 BR OVC025 02/01 Q1022=
201403051720 METAR ESMX 051720Z 01003KT 9000 BR OVC025 02/01 Q1021=
201403051650 METAR ESMX 051650Z 32003KT 9999 OVC025 02/01 Q1021=
201403051620 METAR ESMX 051620Z 35003KT 8000 BR OVC028 02/01 Q1020=
201403051550 METAR ESMX 051550Z 03003KT 8000 BR OVC027 02/01 Q1020=
201403051520 METAR ESMX 051520Z 02004KT 8000 BR FEW010 BKN015 02/01 Q1019=
201403051450 METAR ESMX 051450Z 36004KT 6000 -DZ SCT012 BKN016 02/01 Q1020=
201403051420 METAR ESMX 051420Z 36003KT 7000 BR OVC012 03/01 Q1019=
201403051350 METAR ESMX 051350Z 01004KT 8000 BR OVC012 03/00 Q1019=
201403051320 METAR ESMX 051320Z 03003KT 9999 OVC011 03/00 Q1019=
201403051250 METAR ESMX 051250Z VRB02KT 9999 FEW013 OVC016 03/M00 Q1019=
201403051220 METAR ESMX 051220Z 00000KT 9999 BKN012 OVC015 03/M00 Q1018=
201403051150 METAR ESMX 051150Z VRB02KT 9999 OVC012 03/M00 Q1018=
201403051120 METAR ESMX 051120Z 12004KT 070V160 9999 OVC013 03/M00 Q1018=
201403051050 METAR ESMX 051050Z 11004KT 040V160 9999 OVC015 03/M01 Q1018=
201403051020 METAR ESMX 051020Z 09004KT 050V150 9999 FEW017 OVC019 03/M01 Q1018=
201403050950 METAR ESMX 050950Z 13003KT 060V170 9999 FEW015 OVC020 03/M01 Q1018=
201403050920 METAR COR ESMX 050920Z 11004KT 070V160 9999 OVC015 02/M01 Q1017=
201403050850 METAR ESMX 050850Z 09006KT 050V120 9999 OVC015 02/M02 Q1017=
201403050820 METAR ESMX 050820Z 10003KT 060V140 9999 OVC014 02/M01 Q1017=
201403050750 METAR ESMX 050750Z 09004KT 050V140 9999 OVC014 02/M01 Q1017=
201403050720 METAR ESMX 050720Z 08004KT 030V120 9999 BKN010 OVC013 01/M01 Q1016=
201403050650 METAR ESMX 050650Z 10007KT 070V160 9999 OVC010 01/M01 Q1016=
201403050620 METAR ESMX 050620Z 09005KT 050V120 9999 OVC010 01/M01 Q1016=
201403050550 METAR ESMX 050550Z 09006KT 020V130 9999 OVC010 01/M01 Q1015=
201403050520 METAR COR ESMX 050520Z 09004KT 020V150 9999 OVC010 01/M01 Q1015=
201403050450 METAR ESMX 050450Z 09004KT 050V140 9000 BR OVC008 01/M01 Q1015=
201403050420 METAR ESMX 050420Z AUTO 09006KT 050V140 8000 BR OVC008/// 01/M01 Q1015=
201403050350 METAR ESMX 050350Z AUTO 10006KT 050V150 8000 BR OVC007/// 01/M01 Q1014=
201403050320 METAR ESMX 050320Z AUTO 09005KT 050V120 8000 BR OVC007/// 01/M01 Q1014=
201403050250 METAR ESMX 050250Z AUTO 10006KT 050V140 7000 BR OVC007/// 01/M00 Q1014=
201403050220 METAR ESMX 050220Z AUTO 10006KT 060V150 7000 BR OVC007/// 02/M00 Q1014=
201403050150 METAR ESMX 050150Z AUTO 09006KT 060V120 7000 BR OVC007/// 02/M00 Q1013=
201403050120 METAR ESMX 050120Z AUTO 10006KT 060V140 7000 BR OVC007/// 02/M00 Q1013=
201403050050 METAR ESMX 050050Z 09004KT 050V160 8000 BR OVC007 02/M00 Q1013=
201403050020 METAR COR ESMX 050020Z 11003KT 010V170 8000 BR OVC007 02/M00 Q1013=
201403042350 METAR ESMX 042350Z AUTO 10006KT 060V140 8000 BR BKN007/// OVC009/// 02/M00 Q1013=
201403042320 METAR ESMX 042320Z 10006KT 050V150 8000 BR OVC008 02/M00 Q1013=
201403042250 METAR ESMX 042250Z AUTO 10006KT 060V140 9000 BR OVC008/// 02/M00 Q1013=
201403042220 METAR COR ESMX 042220Z 10006KT 050V160 9000 BR OVC008 02/M00 Q1013=
201403042150 METAR ESMX 042150Z VRB05KT 350V170 9000 BR OVC008 02/M00 Q1013=
201403042120 METAR ESMX 042120Z AUTO 11005KT 070V150 8000 BR OVC008/// 01/M00 Q1012=
201403042050 METAR ESMX 042050Z 10005KT 060V160 8000 BR BKN008 01/M00 Q1012=
201403042020 METAR COR ESMX 042020Z 10005KT 060V150 8000 BR BKN008 01/M00 Q1012=
201403041950 METAR ESMX 041950Z AUTO 10005KT 060V130 8000 BR SCT009/// 01/M00 Q1012=
201403041920 METAR ESMX 041920Z AUTO 10005KT 060V150 9000 BR BKN009/// 02/M00 Q1011=
201403041850 METAR ESMX 041850Z 10006KT 030V140 9999 FEW009 02/00 Q1011=
201403041820 METAR ESMX 041820Z 11005KT 050V150 CAVOK 03/01 Q1011=
201403041750 METAR ESMX 041750Z 11005KT 050V140 CAVOK 03/01 Q1010=
201403041720 METAR ESMX 041720Z 10005KT 050V160 CAVOK 04/01 Q1010=
201403041650 METAR ESMX 041650Z 11006KT 040V160 CAVOK 05/00 Q1010=
201403041620 METAR ESMX 041620Z 11007KT 050V170 CAVOK 05/00 Q1009=
201403041550 METAR COR ESMX 041550Z 12008KT 070V170 CAVOK 06/00 Q1009=
201403041520 METAR ESMX 041520Z 11007KT 060V150 CAVOK 07/01 Q1009=
201403041450 METAR ESMX 041450Z 11008KT 070V150 CAVOK 07/02 Q1009=
201403041420 METAR ESMX 041420Z 11007KT 070V160 9999 FEW016 06/02 Q1009=
201403041350 METAR ESMX 041350Z VRB07KT 330V150 9999 FEW016 SCT034 06/02 Q1009=
201403041320 METAR ESMX 041320Z 11006KT 070V150 9999 BKN013 05/02 Q1009=
201403041250 METAR ESMX 041250Z 10006KT 060V150 9999 BKN012 05/02 Q1009=
201403041220 METAR ESMX 041220Z 11006KT 070V150 9999 BKN012 05/02 Q1009=
201403041150 METAR ESMX 041150Z 12007KT 070V170 9999 OVC011 05/02 Q1008=
201403041120 METAR ESMX 041120Z 12006KT 070V160 9000 BR OVC010 04/01 Q1008=
201403041050 METAR ESMX 041050Z 13008KT 090V160 9000 BR OVC010 04/01 Q1008=
201403041020 METAR ESMX 041020Z 13005KT 070V190 9000 BR FEW008 OVC010 04/01 Q1008=
201403040950 METAR COR ESMX 040950Z 11006KT 070V150 8000 BR OVC007 04/01 Q1008=
201403040920 METAR COR ESMX 040920Z 11006KT 050V150 8000 BR OVC007 03/01 Q1008=
201403040850 METAR ESMX 040850Z 12006KT 080V170 7000 BR OVC007 03/01 Q1008=
201403040820 METAR ESMX 040820Z 11006KT 070V150 7000 BR OVC006 03/01 Q1008=
201403040750 METAR ESMX 040750Z 11004KT 070V170 7000 BR OVC006 03/01 Q1007=
201403040720 METAR ESMX 040720Z 11004KT 050V150 7000 BR OVC006 03/01 Q1007=
201403040650 METAR ESMX 040650Z 10004KT 010V140 7000 BR OVC006 02/01 Q1007=
201403040620 METAR ESMX 040620Z AUTO VRB03KT 7000 BR OVC006/// 02/01 Q1007=
201403040550 METAR ESMX 040550Z 10005KT 020V140 6000 BR OVC006 02/01 Q1006=
201403040520 METAR ESMX 040520Z 08003KT 040V140 6000 BR OVC007 02/01 Q1006=
201403040450 METAR ESMX 040450Z VRB03KT 6000 BR FEW008 BKN032 02/01 Q1006=
201403040420 METAR ESMX 040420Z AUTO 11003KT 050V160 7000 BR NCD 02/01 Q1005=
201403040350 METAR ESMX 040350Z AUTO 10003KT 050V150 7000 BR NCD 02/01 Q1005=
201403040320 METAR ESMX 040320Z AUTO 10003KT 030V150 8000 BR NCD 02/01 Q1005=
201403040250 METAR ESMX 040250Z AUTO 11004KT 060V170 8000 BR NCD 02/01 Q1004=
201403040220 METAR ESMX 040220Z AUTO 11004KT 070V150 8000 BR BKN027/// 03/01 Q1004=
201403040150 METAR ESMX 040150Z AUTO 11005KT 050V160 9000 BR BKN029/// 03/01 Q1004=
201403040120 METAR ESMX 040120Z 11005KT 060V160 9000 BR FEW012 OVC025 03/01 Q1005=
201403040050 METAR ESMX 040050Z 11005KT 070V170 9000 BR FEW011 BKN025 03/01 Q1004=
201403040020 METAR ESMX 040020Z 10005KT 030V150 9000 BR FEW011 OVC027 03/01 Q1004=
201403032350 METAR ESMX 032350Z AUTO 10005KT 040V140 9000 BR FEW014/// OVC027/// 03/01 Q1004=
201403032320 METAR ESMX 032320Z 10006KT 050V140 9000 BR OVC027 03/01 Q1004=
201403032250 METAR ESMX 032250Z 11006KT 070V150 9000 BR OVC027 03/01 Q1004=
201403032220 METAR ESMX 032220Z 09005KT 030V140 8000 BR FEW010 OVC028 03/01 Q1004=
201403032150 METAR ESMX 032150Z 10004KT 050V150 7000 BR FEW008 BKN029 03/01 Q1004=
201403032120 METAR ESMX 032120Z 10005KT 070V140 7000 BR OVC008 02/01 Q1004=
201403032050 METAR COR ESMX 032050Z 10006KT 050V180 7000 BR BKN008 03/01 Q1004=
201403032020 METAR ESMX 032020Z AUTO 10006KT 010V180 7000 BR OVC007/// 03/01 Q1004=
201403031950 METAR ESMX 031950Z 12007KT 070V170 6000 BR OVC005 02/01 Q1004=
201403031920 METAR ESMX 031920Z 10007KT 060V140 5000 BR OVC005 02/01 Q1004=
201403031850 METAR ESMX 031850Z 11007KT 070V150 5000 BR OVC005 02/01 Q1003=
201403031820 METAR ESMX 031820Z 10008KT 050V140 6000 BR OVC006 02/00 Q1003=
201403031750 METAR ESMX 031750Z 11007KT 060V160 6000 BR OVC006 02/00 Q1003=
201403031720 METAR ESMX 031720Z 11008KT 070V160 7000 BR OVC007 02/M00 Q1003=
201403031650 METAR ESMX 031650Z 11008KT 050V160 7000 BR FEW009 BKN010 OVC013 02/M00 Q1003=
201403031620 METAR ESMX 031620Z 11008KT 050V160 8000 BR FEW009 BKN010 02/00 Q1002=
201403031550 METAR ESMX 031550Z AUTO 10007KT 050V160 7000 BR OVC009/// 03/00 Q1002=
201403031520 METAR ESMX 031520Z 10008KT 060V150 7000 BR SCT009 BKN011 03/01 Q1002=
201403031450 METAR ESMX 031450Z 09007KT 020V140 7000 BR FEW008 SCT010 03/01 Q1002=
201403031420 METAR ESMX 031420Z 09007KT 030V150 8000 BR FEW008 SCT009 BKN011 04/01 Q1002=
201403031350 METAR ESMX 031350Z 10007KT 050V150 7000 BR FEW008 BKN009 04/01 Q1003=
201403031320 METAR ESMX 031320Z 13006KT 050V160 5000 BR FEW006 BKN008 04/02 Q1003=
201403031250 METAR ESMX 031250Z 10006KT 060V150 4000 BR OVC006 04/02 Q1003=
201403031220 METAR ESMX 031220Z AUTO 12005KT 060V160 3400 BR BKN004/// OVC007/// 03/02 Q1003=
201403031150 METAR ESMX 031150Z 10007KT 060V150 2200 BR OVC002 03/02 Q1003=
201403031120 METAR ESMX 031120Z 13008KT 090V170 1700 BR OVC002 03/02 Q1003=
201403031050 METAR ESMX 031050Z 10006KT 060V150 1500 BR OVC002 03/02 Q1003=
201403031020 METAR ESMX 031020Z 11006KT 080V140 2000 BR OVC002 03/02 Q1003=
201403030950 METAR ESMX 030950Z 11006KT 070V170 2000 BR OVC003 03/02 Q1003=
201403030920 METAR ESMX 030920Z 10007KT 070V140 2100 BR OVC003 02/01 Q1003=
201403030850 METAR ESMX 030850Z 11005KT 060V150 2300 BR OVC003 02/01 Q1003=
201403030820 METAR ESMX 030820Z 09005KT 060V130 2000 BR OVC003 02/01 Q1003=
201403030750 METAR ESMX 030750Z 10004KT 070V150 1500 BR OVC002 02/01 Q1003=
201403030720 METAR ESMX 030720Z 10005KT 060V150 0900 R01/1200V1400N R19/1600VP2000U FG OVC002 02/01 Q1003=
201403030650 METAR ESMX 030650Z 12005KT 080V170 0900 R01/1300V1500N R19/1700VP2000D FG OVC002 02/01 Q1003=
201403030620 METAR ESMX 030620Z 10004KT 070V140 0900 R01/1400V1800D R19/P2000N FG OVC002 02/01 Q1003=
201403030550 METAR ESMX 030550Z 11004KT 080V150 1300 R01/P2000N R19/P2000N BR OVC002 02/01 Q1003=
201403030520 METAR ESMX 030520Z 10004KT 070V140 1700 BR OVC003 02/01 Q1003=
201403030450 METAR ESMX 030450Z VRB03KT 1600 BR OVC002 02/02 Q1003=
201403030420 METAR ESMX 030420Z AUTO 12004KT 080V160 1000 R01/P2000N R19/P2000N OVC002/// 02/02 Q1003=
201403030350 METAR ESMX 030350Z AUTO VRB02KT 0900 R01/P2000N R19/P2000N FG BKN001/// OVC004/// 02/02 Q1003=
201403030320 METAR ESMX 030320Z AUTO 17005KT 120V200 1400 R01/P2000N R19/P2000N OVC001/// 02/01 Q1003=
201403030250 METAR ESMX 030250Z AUTO 17006KT 1100 R01/P2000N R19/P2000N OVC001/// 02/02 Q1003=
201403030220 METAR ESMX 030220Z AUTO 17006KT 0900 R01/P2000N R19/P2000N FG OVC001/// 02/01 Q1003=
201403030150 METAR ESMX 030150Z AUTO 16005KT 0800 R01/1700VP2000N R19/P2000N FG OVC001/// 02/02 Q1003=
201403030120 METAR ESMX 030120Z AUTO 16005KT 1300 R01/P2000N R19/P2000N BR OVC002/// 02/02 Q1003=
201403030050 METAR ESMX 030050Z AUTO 14004KT 110V190 1600 BR BKN003/// OVC009/// 02/02 Q1003=
201403030020 METAR ESMX 030020Z 15003KT 1700 BR FEW008 SCT010 BKN014 02/01 Q1003=
201403022350 METAR ESMX 022350Z 14005KT 1900 BR FEW009 OVC011 02/01 Q1003=
201403022320 METAR ESMX 022320Z 17004KT 2200 BR BKN013 BKN043 02/01 Q1003=
201403022250 METAR ESMX 022250Z 19004KT 2300 BR FEW009 OVC011 02/01 Q1003=
201403022220 METAR ESMX 022220Z 17004KT 2200 BR FEW007 OVC010 02/02 Q1003=
201403022150 METAR ESMX 022150Z 16004KT 2400 BR BKN010 02/02 Q1002=
201403022120 METAR ESMX 022120Z 17004KT 2800 BR FEW005 OVC010 02/02 Q1002=
201403022050 METAR ESMX 022050Z 19006KT 140V210 3400 BR FEW007 OVC010 02/02 Q1002=
201403022020 METAR COR ESMX 022020Z 18006KT 3500 BR FEW008 OVC013 02/02 Q1002=
201403021950 METAR ESMX 021950Z 18006KT 3100 BR FEW003 SCT005 BKN009 02/02 Q1002=
201403021920 METAR ESMX 021920Z 19006KT 2200 BR SCT002 BKN003 OVC005 02/02 Q1002=
201403021850 METAR ESMX 021850Z 17007KT 1200 R01/P2000N R19/P2000N BR VV002 02/02 Q1002=
201403021820 METAR ESMX 021820Z 17006KT 0500 R01/1100V1700N R19/1400V1900D FG VV002 02/02 Q1002=
201403021750 METAR ESMX 021750Z 17006KT 0900 R01/P2000N R19/P2000N FG VV002 02/01 Q1002=
201403021720 METAR ESMX 021720Z AUTO 16004KT 0600 R01/1400V1600N R19/1600V1900N FG VV002 02/01 Q1002=
201403021650 METAR COR ESMX 021650Z 15005KT 120V190 0800 R19/1700V1900N FG VV002 02/01 Q1002=
201403021620 METAR ESMX 021620Z AUTO 15005KT 0900 R01/1500V1800D R19/1800VP2000N FG OVC001/// 02/01 Q1002=
201403021550 METAR ESMX 021550Z 16005KT 120V190 1400 R19/1800VP2000N DZ BR OVC001 02/01 Q1002=
201403021520 METAR ESMX 021520Z 13005KT 090V160 5000 BR OVC002 02/01 Q1002=
201403021450 METAR ESMX 021450Z 15005KT 100V190 9999 BKN003 01/01 Q1002=
201403021420 METAR ESMX 021420Z 16005KT 120V200 9999 OVC003 01/01 Q1002=
201403021350 METAR ESMX 021350Z 13005KT 090V160 9999 FEW002 OVC003 01/01 Q1002=
201403021320 METAR ESMX 021320Z AUTO 12004KT 070V170 3600 -RA BKN002/// OVC005/// 01/00 Q1002=
201403021250 METAR ESMX 021250Z AUTO 11005KT 070V160 2200 +RA OVC002/// 01/00 Q1003=
201403021220 METAR ESMX 021220Z AUTO 11004KT 060V160 2800 RA OVC001/// 01/01 Q1003=
201403021150 METAR ESMX 021150Z AUTO 12007KT 080V160 0800 R01/1000V1300N R19/1200V1500N RA OVC001/// 01/01 Q1003 REDZ=
201403021120 METAR ESMX 021120Z AUTO 10007KT 050V140 0900 R01/1100V1300N R19/1300VP2000D -RA OVC001/// 01/00 Q1003=
201403021050 METAR ESMX 021050Z AUTO 10007KT 070V150 1300 R01/1200V1700N R19/P2000N BR OVC001/// 01/00 Q1004=
201403021020 METAR ESMX 021020Z AUTO 10007KT 060V150 1700 BR OVC001/// 01/00 Q1004=
201403020950 METAR ESMX 020950Z AUTO 10006KT 060V150 1900 BR OVC001/// 01/M00 Q1005=
201403020920 METAR ESMX 020920Z AUTO 11006KT 060V160 2900 BR OVC002/// 00/M00 Q1005=
201403020850 METAR ESMX 020850Z AUTO 11006KT 030V160 6000 BR OVC002/// M00/M01 Q1005=
201403020820 METAR ESMX 020820Z 11007KT 080V150 2700 BR OVC002 M00/M01 Q1005=
201403020750 METAR ESMX 020750Z 10006KT 050V140 3000 BR OVC002 M00/M01 Q1005=
201403020720 METAR ESMX 020720Z 10006KT 070V140 3500 BR OVC002 M00/M01 Q1005=
201403020650 METAR ESMX 020650Z 10004KT 060V170 5000 BR OVC002 M00/M01 Q1005=
201403020620 METAR ESMX 020620Z 09004KT 050V120 6000 BR OVC002 M00/M01 Q1005=
201403020550 METAR ESMX 020550Z 10005KT 060V160 6000 BR OVC002 M00/M01 Q1005=
201403020520 METAR ESMX 020520Z AUTO 10005KT 060V140 6000 BR OVC003/// 00/M01 Q1005=
201403020450 METAR ESMX 020450Z AUTO 11004KT 070V170 6000 BR FEW002/// OVC003/// 00/M00 Q1005=
201403020420 METAR ESMX 020420Z AUTO 10005KT 020V140 4500 BR OVC002/// 00/M00 Q1005=
201403020350 METAR ESMX 020350Z AUTO 10004KT 070V140 3100 BR BKN002/// OVC004/// 01/00 Q1006=
201403020320 METAR ESMX 020320Z AUTO VRB02KT 3700 BR OVC002/// 01/00 Q1006=
201403020250 METAR ESMX 020250Z AUTO 11004KT 070V160 3800 BR OVC003/// 01/00 Q1006=
201403020220 METAR ESMX 020220Z AUTO 16005KT 5000 BR FEW002/// OVC004/// 01/00 Q1006=
201403020150 METAR ESMX 020150Z AUTO 11004KT 080V150 3600 BR OVC003/// 01/00 Q1006=
201403020120 METAR ESMX 020120Z AUTO 13003KT 070V160 5000 BR OVC003/// 01/01 Q1006=
201403020050 METAR ESMX 020050Z AUTO 15004KT 120V190 5000 BR OVC002/// 01/01 Q1006=
201403020020 METAR ESMX 020020Z AUTO VRB03KT 4100 BR OVC002/// 01/01 Q1006=
201403012350 METAR ESMX 012350Z AUTO VRB03KT 4700 BR OVC002/// 01/01 Q1006=
201403012320 METAR ESMX 012320Z AUTO VRB03KT 4800 BR OVC004/// 02/01 Q1006=
201403012250 METAR ESMX 012250Z AUTO 14003KT 5000 BR FEW001/// OVC002/// 02/01 Q1006=
201403012220 METAR ESMX 012220Z AUTO VRB03KT 3600 BR OVC000/// 02/01 Q1006=
201403012150 METAR ESMX 012150Z AUTO VRB02KT 1700 BR VV002 02/01 Q1006=
201403012120 METAR ESMX 012120Z AUTO 15003KT 100V190 1100 R01/P2000N R19/P2000N OVC001/// 02/01 Q1006=
201403012050 METAR ESMX 012050Z AUTO VRB03KT 1800 OVC001/// 02/01 Q1006=
201403012020 METAR ESMX 012020Z 12003KT 090V150 0800 R01/P2000N R19/1700VP2000D FG VV002 02/01 Q1006=
201403011950 METAR ESMX 011950Z 11003KT 080V160 0900 R01/1900VP2000D R19/P2000N FG VV002 02/01 Q1006=
201403011920 METAR ESMX 011920Z 10003KT 060V130 1200 R01/P2000N R19/P2000N BR OVC002 02/01 Q1006=
201403011850 METAR ESMX 011850Z AUTO VRB03KT 1200 R01/P2000N R19/P2000N BR BKN002/// OVC005/// 02/01 Q1006=
201403011820 METAR ESMX 011820Z AUTO 11004KT 080V150 1500 BR SCT002/// BKN004/// OVC007/// 02/02 Q1006=
201403011750 METAR ESMX 011750Z AUTO 11003KT 070V140 1300 R01/P2000N R19/P2000N BR FEW002/// OVC004/// 02/02 Q1006=
201403011720 METAR ESMX 011720Z AUTO 12003KT 080V150 2700 BR OVC002/// 03/02 Q1006=
201403011650 METAR ESMX 011650Z AUTO VRB02KT 3800 BR OVC003/// 03/02 Q1006=
201403011620 METAR ESMX 011620Z AUTO VRB03KT 3700 BR OVC004/// 03/02 Q1006=
201403011550 METAR ESMX 011550Z AUTO VRB03KT 3400 BR FEW003/// OVC004/// 03/02 Q1006=
201403011520 METAR ESMX 011520Z AUTO VRB02KT 2200 BR SCT002/// OVC004/// 03/02 Q1006=
201403011450 METAR ESMX 011450Z AUTO 12003KT 080V150 1900 BR OVC002/// 03/02 Q1006 REDZ=
201403011420 METAR ESMX 011420Z AUTO VRB03KT 2300 BR SCT002/// BKN005/// OVC006/// 03/02 Q1006=
201403011350 METAR ESMX 011350Z AUTO VRB02KT 2000 BR OVC001/// 03/02 Q1006 REDZ=
201403011320 METAR ESMX 011320Z VRB03KT 2900 BR FEW003 BKN005 OVC007 03/02 Q1006=
201403011250 METAR ESMX 011250Z VRB03KT 2500 DZ BR FEW004 OVC005 03/02 Q1006=
201403011220 METAR ESMX 011220Z 14004KT 110V170 2700 -DZ BR OVC004 03/02 Q1006=
