##########################################################
# Query made at 04/19/2024 21:37:42 UTC
# Time interval: from 01/01/2014 12:00  to 01/31/2014 12:59  UTC
##########################################################

##########################################################
# ESMX, Vaxjo (Sweden)
# WMO index: 02641. WIGOS ID: 0-20000-0-02648
# Latitude 56-51N. Longitude 014-50E. Altitude 199 m.
##########################################################

201401311250 METAR ESMX 311250Z 05004KT 020V090 1900 -SN FEW005 BKN017 M04/M05 Q1013=
201401311220 METAR ESMX 311220Z 07005KT 040V120 0900 R01/P2000N R19/0900V1400N -SN FEW005 SCT008 M04/M04 Q1014=
201401311150 METAR COR ESMX 311150Z 07006KT 030V120 0800 R01/P2000N R19/0800V1000N SN VV002 M04/M05 Q1014=
201401311120 METAR COR ESMX 311120Z 09007KT 050V140 1200 R01/P2000N R19/1100V1900D +SN BKN005 OVC008 M04/M05 Q1015=
201401311050 METAR ESMX 311050Z 09008KT 050V140 9999 OVC005 M04/M05 Q1015=
201401311020 METAR ESMX 311020Z 09008KT 050V120 9999 BR OVC005 M04/M05 Q1016=
201401310950 METAR ESMX 310950Z 08007KT 020V120 4900 -FZDZ OVC003 M04/M05 Q1016=
201401310920 METAR ESMX 310920Z 10008KT 060V140 3400 -FZDZ OVC002 M04/M05 Q1017=
201401310820 METAR ESMX 310820Z 10008KT 050V140 4900 -SG OVC003 M04/M05 Q1017=
201401310750 METAR ESMX 310750Z 10008KT 040V160 5000 -FZDZ OVC003 M04/M05 Q1018=
201401310720 METAR ESMX 310720Z 10007KT 060V140 5000 -FZDZ OVC003 M04/M05 Q1018=
201401310650 METAR ESMX 310650Z 09006KT 050V140 3400 -FZDZ OVC003 M05/M05 Q1018=
201401310620 METAR ESMX 310620Z 08006KT 040V130 3000 -FZDZ OVC002 M05/M06 Q1019=
201401310550 METAR ESMX 310550Z 09006KT 040V140 2600 BR OVC002 M05/M06 Q1019=
201401310520 METAR ESMX 310520Z 11007KT 050V130 3100 FZDZ OVC002 M05/M06 Q1019=
201401310450 METAR ESMX 310450Z 11005KT 050V150 4700 BR OVC002 M05/M06 Q1020=
201401310120 METAR ESMX 310120Z 11006KT 060V170 5000 -SN BR OVC002 M06/M07 Q1021=
201401310050 METAR ESMX 310050Z 11007KT 060V170 5000 -SN BR OVC003 M06/M07 Q1021=
201401310020 METAR ESMX 310020Z 11007KT 060V170 4300 -SN BR OVC002 M06/M07 Q1021=
201401302350 METAR ESMX 302350Z 11007KT 080V160 3500 -SN BR OVC002 M06/M07 Q1021=
201401302320 METAR ESMX 302320Z 11007KT 080V160 3500 -SN BR OVC002 M06/M07 Q1021=
201401302250 METAR ESMX 302250Z 12009KT 080V160 5000 -SN BR OVC002 M06/M06 Q1020=
201401302220 METAR ESMX 302220Z 12008KT 080V160 3600 -SN BR OVC002 M05/M06 Q1020=
201401302150 METAR ESMX 302150Z 12008KT 060V160 5000 -SN OVC003 M05/M06 Q1020=
201401302120 METAR ESMX 302120Z 11007KT 060V160 7000 -SN OVC003 M05/M06 Q1020=
201401302050 METAR ESMX 302050Z 11008KT 060V160 7000 -SN OVC003 M05/M06 Q1020=
201401302020 METAR ESMX 302020Z 12007KT 070V160 7000 -SN OVC003 M05/M06 Q1020=
201401301950 METAR ESMX 301950Z 13008KT 100V160 7000 -SN OVC003 M05/M06 Q1020=
201401301920 METAR ESMX 301920Z 13007KT 090V170 9999 -SN OVC006 M05/M06 Q1020=
201401301850 METAR ESMX 301850Z 11007KT 050V160 9999 -SN OVC007 M05/M06 Q1020=
201401301820 METAR ESMX 301820Z 10007KT 060V150 9999 -SN OVC010 M05/M06 Q1020=
201401301750 METAR ESMX 301750Z 10006KT 070V140 4600 -SN OVC013 M05/M07 Q1020=
201401301720 METAR ESMX 301720Z 09005KT 040V130 5000 -SN OVC011 M05/M06 Q1020=
201401301650 METAR ESMX 301650Z 10005KT 030V150 9999 -SN OVC010 M05/M07 Q1020=
201401301620 METAR COR ESMX 301620Z 11007KT 020V190 9999 -SN OVC010 M05/M07 Q1020=
201401301550 METAR COR ESMX 301550Z 10008KT 050V160 9999 -SN OVC010 M05/M07 Q1020=
201401301520 METAR ESMX 301520Z 10008KT 060V170 9999 OVC010 M05/M07 Q1020=
201401301450 METAR ESMX 301450Z 10007KT 060V150 9999 OVC012 M05/M07 Q1020=
201401301420 METAR ESMX 301420Z 10008KT 070V150 9999 OVC013 M05/M07 Q1020=
201401301350 METAR ESMX 301350Z 09007KT 030V150 9999 -SN OVC013 M04/M07 Q1020=
201401301320 METAR ESMX 301320Z 10008KT 060V130 9999 OVC013 M04/M07 Q1020=
201401301250 METAR ESMX 301250Z 10008KT 060V150 9999 OVC013 M04/M07 Q1020=
201401301220 METAR ESMX 301220Z 10008KT 060V150 9999 OVC013 M04/M07 Q1020=
201401301150 METAR ESMX 301150Z 10007KT 060V150 9999 OVC013 M04/M07 Q1020=
201401301120 METAR ESMX 301120Z 11006KT 9999 FEW010 BKN015 M04/M07 Q1020=
201401301050 METAR ESMX 301050Z 11006KT 9999 FEW010 BKN015 M04/M07 Q1021=
201401301020 METAR ESMX 301020Z 08006KT 9999 FEW010 BKN015 M05/M07 Q1021=
201401300950 METAR ESMX 300950Z 11005KT 4000 -SN BKN010 M04/M07 Q1021=
201401300920 METAR ESMX 300920Z 11005KT 9999 SCT006 BKN008 M04/M06 Q1021=
201401300850 METAR ESMX 300850Z 08005KT 4000 -SN SCT006 BKN009 M04/M06 Q1021=
201401300820 METAR COR ESMX 300820Z 09006KT 4000 -SN SCT006 BKN009 M05/M06 Q1021=
201401300750 METAR ESMX 300750Z 11006KT 9999 OVC006 M05/M06 Q1021=
201401300720 METAR ESMX 300720Z 11009KT 9999 OVC006 M05/M06 Q1020=
201401300650 METAR ESMX 300650Z 110086KT 9999 OVC006 M05/M06 Q1020=
201401300620 METAR ESMX 300620Z 11008KT 9999 -SN OVC006 M05/M06 Q1020=
201401300550 METAR ESMX 300550Z 11008KT 9999 -SN OVC006 M05/M06 Q1020=
201401300520 METAR ESMX 300520Z 10008KT 9999 -SN OVC005 M05/M06 Q1020=
201401300450 METAR ESMX 300450Z 11010KT 9999 -SN OVC005 M05/M06 Q1020=
201401300420 METAR ESMX 300420Z 11009KT 9999 -SN OVC005 M50/M51 Q1020=
201401300150 METAR ESMX 300150Z 11010KT 9999 -SN OVC005 M05/M06 Q1020=
201401300120 METAR ESMX 300120Z 11010KT 9999 -SN OVC005 M05/M06 Q1020=
201401300050 METAR ESMX 300050Z 11008KT 9999 -SN OVC005 M05/M06 Q1020=
201401300020 METAR ESMX 300020Z 12008KT 9999 -SN OVC005 M05/M07 Q1020=
201401292350 METAR ESMX 292350Z 11009KT 9999 -SN OVC006 M05/M07 Q1020=
201401292320 METAR ESMX 292320Z 11006KT 9999 -SN OVC006 M05/M07 Q1020=
201401292250 METAR ESMX 292250Z 11008 9999 -SN OVC006 M05/M07 Q1020=
201401292150 METAR ESMX 292150Z 11008KT 9999 -SN OVC007 M05/M07 Q1019=
201401292120 METAR ESMX 292120Z 10010KT 9999 -SN OVC007 M05/M07 Q1019=
201401292050 METAR ESMX 292050Z 10010KT 9999 -SN OVC010 M05/M07 Q1019=
201401292020 METAR ESMX 292020Z 09007KT 9999 -SN OVC013 M05/M07 Q1018=
201401291950 METAR ESMX 291950Z 09009KT 9999 -SN BKN014 OVC020 M06/M08 Q1018=
201401291920 METAR ESMX 291920Z 08007KT 9999 -SN FEW006 SCT016 BKN051 M06/M08 Q1018=
201401291850 METAR ESMX 291850Z 08007KT 2800 SN FEW006 BKN016 M06/M08 Q1018=
201401291820 METAR ESMX 291820Z 08007KT 5000 -SN FEW006 BKN016 M06/M08 Q1018=
201401291750 METAR ESMX 291750Z 09008G16KT 050V190 5000 -SN FEW006 BKN015 M06/M08 Q1018=
201401291720 METAR COR ESMX 291720Z 07006G15KT 5000 -SN FEW008 BKN015 M06/M08 Q1018=
201401291620 METAR ESMX 291620Z 06010G20KT 9999 -SN FEW006 BKN010 M06/M09 Q1018=
201401291550 METAR ESMX 291550Z 07008G16KT 6000 SN FEW006 BKN010 M05/M07 Q1018=
201401291520 METAR ESMX 291520Z 07008G17KT 030V110 5000 SN SCT006 BKN010 M05/M07 Q1018=
201401291450 METAR ESMX 291450Z 07008G21KT 030V110 8000 -SN SCT005 BKN010 M05/M07 Q1018=
201401291420 METAR ESMX 291420Z 06010KT 030V110 3000 SN SCT006 BKN009 M05/M06 Q1018=
201401291350 METAR ESMX 291350Z 08010G24KT 040V130 1000 R01/P2000N R19/P2000D SN FEW006 BKN010 M05/M06 Q1018=
201401291320 METAR ESMX 291320Z 08010G21KT 040V120 4000 -SN FEW008 OVC009 M05/M06 Q1018=
201401291250 METAR COR ESMX 291250Z 08012KT 6000 -SN OVC009 M05/M07 Q1018=
201401291220 METAR COR ESMX 291220Z 08010G21KT 030V110 6000 -SN OVC009 M05/M07 Q1018=
201401291150 METAR ESMX 291150Z 08009G21KT 030V120 6000 -SN OVC010 M05/M06 Q1018=
201401291120 METAR ESMX 291120Z 08010G21KT 030V110 9999 SN OVC009 M05/M07 Q1018=
201401291050 METAR ESMX 291050Z 05010KT 010V110 9999 OVC010 M05/M07 Q1018=
201401291020 METAR ESMX 291020Z 07010KT 030V120 9999 -SN OVC015 M05/M08 Q1018=
201401290950 METAR ESMX 290950Z 08010G21KT 040V120 5000 -SN OVC015 M05/M08 Q1019=
201401290920 METAR ESMX 290920Z 10008G18KT 040V130 9999 OVC015 M05/M07 Q1019=
201401290850 METAR COR ESMX 290850Z 09009KT 050V160 9999 OVC014 M05/M07 Q1018=
201401290820 METAR ESMX 290820Z 08012G23KT 030V140 9999 OVC015 M05/M08 Q1018=
201401290750 METAR ESMX 290750Z 07009KT 020V110 9999 OVC014 M05/M07 Q1018=
201401290720 METAR ESMX 290720Z 09010KT 050V120 9999 OVC014 M04/M07 Q1018=
201401290650 METAR ESMX 290650Z 08013G25KT 040V120 9999 -SN OVC012 M04/M07 Q1018=
201401290620 METAR ESMX 290620Z 07011G23KT 030V120 9999 -SN BKN007 OVC010 M04/M06 Q1018=
201401290550 METAR ESMX 290550Z 09011G22KT 050V130 9999 OVC006 M04/M05 Q1017=
201401290520 METAR ESMX 290520Z 09013KT 040V120 9999 OVC005 M04/M05 Q1017=
201401290450 METAR ESMX 290450Z 09010G20KT 050V120 9999 OVC005 M04/M05 Q1017=
201401290420 METAR ESMX 290420Z AUTO 07010KT 010V120 9999 OVC006/// M04/M05 Q1017=
201401290350 METAR ESMX 290350Z AUTO 09011G22KT 050V140 9999 OVC006/// M03/M05 Q1016=
201401290320 METAR ESMX 290320Z AUTO 09011G23KT 060V120 9999 OVC005/// M03/M04 Q1016=
201401290250 METAR ESMX 290250Z AUTO 09014G24KT 060V150 9999 OVC006/// M03/M04 Q1016=
201401290220 METAR ESMX 290220Z AUTO 09012KT 050V140 9999 OVC006/// M03/M04 Q1016=
201401290150 METAR ESMX 290150Z AUTO 09013KT 040V130 9999 OVC007/// M03/M04 Q1016=
201401290120 METAR ESMX 290120Z 09010G21KT 060V140 9999 OVC008 M02/M04 Q1016=
201401290050 METAR ESMX 290050Z AUTO 10011KT 050V150 9999 OVC009/// M02/M04 Q1015=
201401290020 METAR COR ESMX 290020Z 10010G22KT 060V140 9999 OVC010 M02/M04 Q1015=
201401282350 METAR ESMX 282350Z AUTO 10010KT 060V140 9999 OVC011/// M02/M04 Q1015=
201401282320 METAR ESMX 282320Z VRB10G23KT 330V150 9999 OVC012 M02/M04 Q1015=
201401282250 METAR ESMX 282250Z 10012G22KT 040V180 9999 OVC013 M02/M04 Q1015=
201401282220 METAR ESMX 282220Z 10011KT 050V150 9999 OVC013 M02/M04 Q1014=
201401282150 METAR ESMX 282150Z 11010KT 070V150 9999 -SN OVC014 M02/M03 Q1014=
201401282120 METAR ESMX 282120Z 10011G23KT 060V140 9999 -SN BKN015 M02/M03 Q1014=
201401282050 METAR COR ESMX 282050Z 10010KT 040V140 5000 SN BKN016 M02/M03 Q1014=
201401282020 METAR ESMX 282020Z 09009G21KT 040V190 2100 SN FEW005 BKN013 M02/M03 Q1013=
201401281950 METAR ESMX 281950Z 09009KT 030V140 1300 R01/P2000N R19/P2000N SN FEW005 BKN008 M02/M03 Q1013=
201401281920 METAR COR ESMX 281920Z 09010G23KT 030V120 0300 R01/P2000N R19/P2000N SN FEW003 BKN005 BKN010 M03/M03 Q1013=
201401281850 METAR ESMX 281850Z 07011KT 030V100 2200 R01/P2000N R19/P2000N SN FEW002 BKN005 BKN010 M02/M03 Q1012=
201401281820 METAR ESMX 281820Z 06013KT 030V100 1000 R01/P2000N R19/P2000N SN FEW002 BKN005 M02/M03 Q1013=
201401281750 METAR ESMX 281750Z 06011KT 040V100 4000 SN FEW009 OVC015 M02/M04 Q1013=
201401281720 METAR ESMX 281720Z 04010KT 020V080 9000 -SN OVC009 M02/M03 Q1013=
201401281650 METAR ESMX 281650Z 08008KT 010V130 5000 -SN OVC009 M01/M03 Q1014=
201401281620 METAR ESMX 281620Z 07008KT 050V130 9999 -SN SCT008 OVC010 M01/M03 Q1013=
201401281550 METAR ESMX 281550Z 08007KT 040V150 3000 SN FEW006 OVC009 M01/M03 Q1014=
201401281520 METAR ESMX 281520Z 09006KT 050V130 9999 -SN OVC009 M01/M03 Q1013=
201401281450 METAR ESMX 281450Z 10007KT 060V150 4500 -SN OVC007 M02/M03 Q1013=
201401281420 METAR ESMX 281420Z 10008KT 070V140 9999 OVC008 M02/M04 Q1013=
201401281350 METAR ESMX 281350Z 09007G17KT 030V150 9000 -SN OVC009 M02/M03 Q1013=
201401281320 METAR ESMX 281320Z 10007KT 060V140 3000 SN FEW006 OVC010 M02/M03 Q1013=
201401281250 METAR ESMX 281250Z 11008KT 060V160 3000 SN SCT006 OVC012 M01/M04 Q1013=
201401281220 METAR ESMX 281220Z 11007KT 060V140 9999 OVC012 M01/M04 Q1012=
201401281150 METAR ESMX 281150Z 11009KT 050V150 9999 OVC011 M01/M04 Q1012=
201401281120 METAR ESMX 281120Z 11008KT 070V200 9999 OVC010 M01/M04 Q1012=
201401281050 METAR ESMX 281050Z 11008KT 050V150 9999 -SN OVC011 M01/M04 Q1012=
201401281020 METAR ESMX 281020Z 12007KT 070V170 9999 FEW010 OVC013 M01/M04 Q1011=
201401280950 METAR ESMX 280950Z 11008KT 060V150 9999 OVC011 M02/M04 Q1011=
201401280920 METAR ESMX 280920Z 11008KT 070V150 9999 FEW010 OVC012 M02/M04 Q1011=
201401280850 METAR ESMX 280850Z 11008KT 070V150 9999 OVC008 M02/M04 Q1011=
201401280820 METAR ESMX 280820Z 11007KT 080V160 9999 OVC008 M02/M04 Q1010=
201401280750 METAR ESMX 280750Z 12007KT 050V160 9999 OVC008 M02/M04 Q1010=
201401280720 METAR ESMX 280720Z AUTO 13008KT 090V170 9999 OVC007/// M02/M04 Q1010=
201401280650 METAR ESMX 280650Z 12009KT 070V160 9999 -SN OVC006 M02/M04 Q1009=
201401280620 METAR ESMX 280620Z 12007KT 070V170 9999 -SN OVC007 M02/M04 Q1009=
201401280550 METAR ESMX 280550Z 12007G19KT 070V200 9999 -SN OVC008 M02/M04 Q1009=
201401280520 METAR ESMX 280520Z 11008KT 060V150 9999 -SN OVC009 M02/M04 Q1008=
201401280450 METAR COR ESMX 280450Z 11007KT 070V170 9999 -SN OVC009 M02/M04 Q1008=
201401280420 METAR ESMX 280420Z AUTO 11007KT 060V150 8000 -FZRA OVC010/// M02/M04 Q1008=
201401280350 METAR ESMX 280350Z AUTO 10006KT 050V150 9999 -FZRA OVC011/// M03/M05 Q1008=
201401280320 METAR ESMX 280320Z AUTO 10007KT 060V160 9999 FZRA OVC011/// M03/M05 Q1007=
201401280250 METAR ESMX 280250Z AUTO 12008KT 070V170 9999 -FZDZ OVC010/// M03/M05 Q1007=
201401280220 METAR ESMX 280220Z AUTO 11006KT 060V150 9999 -FZRA FEW009/// BKN012/// OVC016/// M03/M05 Q1007=
201401280150 METAR ESMX 280150Z AUTO 11007KT 060V150 5000 -FZRA FEW009/// OVC012/// M03/M04 Q1007=
201401280120 METAR ESMX 280120Z 11007KT 060V160 3600 BR OVC009 M03/M04 Q1007=
201401280050 METAR ESMX 280050Z 11010KT 060V160 9999 OVC009 M02/M05 Q1007=
201401280020 METAR ESMX 280020Z AUTO 11007G17KT 070V160 9999 OVC010/// M02/M05 Q1006=
201401272350 METAR ESMX 272350Z 11008G18KT 070V200 9999 OVC012 M02/M05 Q1006=
201401272320 METAR ESMX 272320Z 11007KT 040V170 9999 OVC014 M02/M05 Q1006=
201401272250 METAR ESMX 272250Z 09007KT 050V140 9999 OVC012 M02/M05 Q1006=
201401272220 METAR ESMX 272220Z 11008KT 060V150 9999 FEW010 OVC013 M02/M05 Q1006=
201401272150 METAR ESMX 272150Z 11010KT 050V150 9999 BKN009 OVC011 M02/M04 Q1006=
201401272120 METAR ESMX 272120Z 11009KT 060V170 9999 OVC009 M02/M04 Q1005=
201401272050 METAR ESMX 272050Z 09008KT 030V160 9999 SCT007 OVC009 M02/M04 Q1005=
201401272020 METAR ESMX 272020Z 11009KT 060V170 9999 OVC007 M02/M04 Q1005=
201401271950 METAR ESMX 271950Z 11008KT 070V150 9999 OVC007 M02/M04 Q1005=
201401271920 METAR ESMX 271920Z 11007KT 050V160 9999 OVC006 M02/M04 Q1005=
201401271850 METAR ESMX 271850Z AUTO 11007KT 030V170 9999 OVC006/// M02/M04 Q1005=
201401271820 METAR ESMX 271820Z 11007KT 060V180 9999 OVC007 M02/M04 Q1005=
201401271750 METAR ESMX 271750Z 11008KT 060V160 9999 OVC009 M02/M05 Q1005=
201401271720 METAR ESMX 271720Z 10008KT 070V150 9999 OVC012 M03/M05 Q1004=
201401271650 METAR ESMX 271650Z 11007KT 060V150 9999 OVC013 M03/M05 Q1004=
201401271620 METAR ESMX 271620Z 11008KT 060V180 9999 OVC013 M03/M06 Q1004=
201401271550 METAR ESMX 271550Z 11009G21KT 060V150 9999 OVC014 M03/M06 Q1004=
201401271520 METAR ESMX 271520Z AUTO 11009KT 060V150 9999 OVC015/// M03/M06 Q1004=
201401271450 METAR ESMX 271450Z 12008G19KT 060V160 9999 OVC016 M03/M06 Q1003=
201401271420 METAR ESMX 271420Z 11008KT 060V170 9999 OVC017 M03/M07 Q1003=
201401271350 METAR ESMX 271350Z 10009G21KT 070V150 9999 OVC017 M03/M07 Q1003=
201401271320 METAR ESMX 271320Z 11010G21KT 070V170 9999 OVC016 M03/M07 Q1003=
201401271250 METAR ESMX 271250Z 11011KT 060V160 9999 BKN014 OVC017 M03/M07 Q1003=
201401271220 METAR ESMX 271220Z 11010G20KT 070V150 9999 OVC013 M03/M06 Q1003=
201401271150 METAR ESMX 271150Z 11009KT 060V150 9999 OVC013 M03/M06 Q1003=
201401271120 METAR ESMX 271120Z 11009KT 060V150 9999 OVC013 M04/M06 Q1003=
201401271050 METAR ESMX 271050Z 11010G20KT 060V160 9999 OVC015 M04/M07 Q1003=
201401271020 METAR ESMX 271020Z 11010G20KT 070V160 9999 OVC015 M04/M07 Q1003=
201401270950 METAR ESMX 270950Z 11010KT 070V160 9999 OVC015 M04/M08 Q1003=
201401270920 METAR ESMX 270920Z 12010KT 070V160 9999 OVC016 M05/M08 Q1003=
201401270850 METAR ESMX 270850Z 11009G20KT 060V160 9999 OVC015 M05/M08 Q1003=
201401270820 METAR ESMX 270820Z 11009G19KT 060V160 9999 OVC014 M05/M08 Q1003=
201401270750 METAR ESMX 270750Z 11009G21KT 030V150 9999 OVC012 M05/M08 Q1003=
201401270720 METAR ESMX 270720Z 11009KT 060V160 9999 OVC012 M05/M08 Q1003=
201401270650 METAR ESMX 270650Z 11008G19KT 060V150 9999 OVC011 M05/M08 Q1003=
201401270620 METAR ESMX 270620Z 12008KT 070V160 9999 -SN OVC009 M06/M08 Q1003=
201401270550 METAR ESMX 270550Z 12009KT 360V160 9999 OVC008 M06/M08 Q1003=
201401270520 METAR ESMX 270520Z 13010G20KT 070V170 9999 OVC009 M06/M08 Q1003=
201401270450 METAR COR ESMX 270450Z 13009KT 070V190 9999 OVC008 M06/M08 Q1003=
201401270420 METAR ESMX 270420Z AUTO 12012G23KT 080V160 9999 OVC008/// M06/M08 Q1003=
201401270350 METAR ESMX 270350Z AUTO 12009KT 070V170 9999 OVC008/// M06/M08 Q1003=
201401270320 METAR ESMX 270320Z AUTO 12009KT 070V180 9999 OVC009/// M06/M08 Q1004=
201401270250 METAR ESMX 270250Z AUTO 12009KT 060V200 9999 OVC009/// M06/M08 Q1004=
201401270220 METAR ESMX 270220Z AUTO 13009KT 060V170 9999 -FZRA OVC010/// M06/M08 Q1004=
201401270150 METAR ESMX 270150Z AUTO 12009KT 060V150 9999 -FZRA OVC010/// M06/M08 Q1004=
201401270120 METAR ESMX 270120Z AUTO 13008G20KT 070V170 9999 -FZRA OVC010/// M06/M08 Q1005=
201401270050 METAR ESMX 270050Z 12009KT 070V160 9999 -SN OVC013 M06/M09 Q1005=
201401270020 METAR ESMX 270020Z 12007KT 080V190 9999 -SN OVC015 M06/M08 Q1006=
201401262350 METAR ESMX 262350Z 11008KT 050V160 6000 -SN SCT016 BKN019 M06/M08 Q1006=
201401262320 METAR ESMX 262320Z 11008KT 060V160 9999 -SN SCT015 BKN020 OVC025 M06/M08 Q1006=
201401262250 METAR ESMX 262250Z 12009G19KT 080V160 9999 -SN FEW015 OVC017 M06/M08 Q1007=
201401262220 METAR ESMX 262220Z 12010KT 070V160 9999 -SN FEW013 OVC017 M06/M08 Q1007=
201401262150 METAR ESMX 262150Z 12007KT 070V160 9999 -SN FEW014 OVC019 M06/M08 Q1008=
201401262120 METAR ESMX 262120Z 14007KT 100V200 3300 SN OVC012 M06/M07 Q1008=
201401262050 METAR ESMX 262050Z 15008KT 110V170 9999 -SN FEW009 OVC013 M05/M08 Q1008=
201401262020 METAR ESMX 262020Z 15009KT 5000 -SN BKN011 OVC017 M05/M07 Q1009=
201401261950 METAR ESMX 261950Z 13008KT 070V180 9999 -SN OVC012 M04/M06 Q1009=
201401261920 METAR ESMX 261920Z 12009KT 070V170 9999 -SN OVC013 M04/M06 Q1009=
201401261850 METAR ESMX 261850Z 11008KT 050V150 9999 -SN BKN013 OVC030 M04/M06 Q1009=
201401261820 METAR ESMX 261820Z 11009G20KT 070V160 9999 -SN SCT012 BKN018 M04/M06 Q1010=
201401261750 METAR ESMX 261750Z 10009KT 050V130 9999 -SN OVC012 M04/M06 Q1010=
201401261720 METAR ESMX 261720Z 10007KT 050V140 9999 -SN OVC012 M04/M06 Q1011=
201401261650 METAR ESMX 261650Z 08007KT 030V130 6000 -SN FEW013 SCT015 BKN019 M04/M06 Q1011=
201401261620 METAR ESMX 261620Z 08006KT 050V120 7000 -SN FEW013 SCT016 BKN020 M04/M06 Q1012=
201401261550 METAR ESMX 261550Z 08008KT 040V120 6000 -SN FEW014 SCT019 BKN023 M04/M06 Q1012=
201401261520 METAR ESMX 261520Z 08008KT 050V120 6000 -SN FEW011 SCT016 BKN019 M04/M06 Q1013=
201401261450 METAR ESMX 261450Z 08008KT 040V110 4300 -SN FEW005 SCT014 BKN018 M04/M06 Q1013=
201401261420 METAR ESMX 261420Z 08009KT 050V110 1900 SN FEW006 BKN016 M04/M06 Q1014=
201401261350 METAR ESMX 261350Z 08008KT 030V110 4500 -SN FEW015 OVC018 M04/M07 Q1015=
201401261320 METAR ESMX 261320Z AUTO 09007KT 050V130 9999 OVC018/// M03/M07 Q1015=
201401261250 METAR ESMX 261250Z AUTO 09009KT 050V120 9999 BKN018/// OVC027/// M03/M07 Q1016=
201401261220 METAR ESMX 261220Z AUTO 11007KT 070V150 9999 FEW017/// OVC020/// M03/M07 Q1016=
201401261150 METAR ESMX 261150Z AUTO 10009KT 050V150 9999 FEW017/// BKN020/// OVC024/// M03/M07 Q1016=
201401261120 METAR ESMX 261120Z AUTO 09006KT 050V120 9999 BKN019/// OVC028/// M04/M08 Q1017=
201401261050 METAR ESMX 261050Z AUTO 09007KT 050V130 9999 OVC020/// M04/M08 Q1017=
201401261020 METAR ESMX 261020Z AUTO 09007KT 050V130 9999 OVC019/// M04/M08 Q1018=
201401260950 METAR ESMX 260950Z AUTO 08006KT 050V110 9999 OVC018/// M04/M08 Q1019=
201401260920 METAR ESMX 260920Z AUTO 10007KT 060V150 9999 OVC018/// M04/M08 Q1019=
201401260850 METAR ESMX 260850Z AUTO 09005KT 040V160 9999 OVC018/// M05/M08 Q1019=
201401260820 METAR ESMX 260820Z AUTO 09007KT 060V150 9999 OVC018/// M05/M09 Q1020=
201401260750 METAR ESMX 260750Z AUTO 10008KT 050V130 9999 OVC017/// M05/M09 Q1020=
201401260720 METAR ESMX 260720Z AUTO 10007KT 040V140 9999 OVC017/// M05/M09 Q1019=
201401260650 METAR ESMX 260650Z AUTO 10007KT 060V140 9999 OVC018/// M05/M09 Q1020=
201401260620 METAR ESMX 260620Z 10006KT 050V150 9999 OVC017 M05/M09 Q1020=
201401260550 METAR ESMX 260550Z 10006KT 030V150 9999 OVC017 M05/M09 Q1020=
201401260520 METAR ESMX 260520Z 10006KT 060V160 9999 OVC020 M06/M09 Q1020=
201401260450 METAR ESMX 260450Z AUTO 09006KT 040V130 9999 OVC020/// M06/M10 Q1020=
201401260420 METAR ESMX 260420Z AUTO 10005KT 050V140 9999 OVC021/// M06/M10 Q1020=
201401260350 METAR ESMX 260350Z AUTO 10005KT 040V150 9999 OVC020/// M07/M10 Q1020=
201401260320 METAR ESMX 260320Z AUTO 10005KT 030V160 9999 OVC019/// M07/M11 Q1020=
201401260250 METAR ESMX 260250Z AUTO 12007KT 080V160 9999 OVC020/// M07/M12 Q1020=
201401260220 METAR ESMX 260220Z AUTO 12007KT 060V170 9999 BKN021/// M07/M12 Q1020=
201401260150 METAR ESMX 260150Z AUTO 14009KT 110V170 9999 OVC020/// M07/M12 Q1020=
201401260120 METAR ESMX 260120Z AUTO 12008KT 070V180 9999 -FZRA FEW016/// OVC021/// M07/M12 Q1021=
201401260050 METAR ESMX 260050Z AUTO 14008KT 100V190 9999 -FZRA OVC016/// M06/M10 Q1021=
201401260020 METAR ESMX 260020Z AUTO 12008KT 080V190 9999 -FZRA OVC019/// M06/M10 Q1021=
201401252350 METAR ESMX 252350Z AUTO 12009KT 070V150 9999 -FZRA OVC018/// M06/M10 Q1021=
201401252320 METAR ESMX 252320Z AUTO 12008KT 070V160 9999 -FZRA OVC018/// M06/M10 Q1021=
201401252250 METAR ESMX 252250Z AUTO 13009KT 060V180 9999 FZRA OVC018/// M06/M10 Q1021=
201401252220 METAR ESMX 252220Z AUTO 13008KT 090V180 9999 -FZRA OVC019/// M06/M10 Q1021=
201401252150 METAR ESMX 252150Z AUTO 12010KT 070V170 9999 -FZRA OVC019/// M06/M10 Q1022=
201401252120 METAR ESMX 252120Z AUTO 14008KT 090V160 9999 -FZRA OVC018/// M06/M10 Q1022=
201401252050 METAR ESMX 252050Z AUTO 12008KT 070V200 9999 -FZRA OVC018/// M06/M10 Q1022=
201401252020 METAR ESMX 252020Z 12008KT 080V170 9999 -SN OVC016 M06/M10 Q1022=
201401251950 METAR ESMX 251950Z 13009G24KT 090V160 9999 -SN OVC016 M06/M09 Q1023=
201401251920 METAR COR ESMX 251920Z 13009KT 080V160 9999 -SN SCT017 OVC020 M06/M09 Q1023=
201401251850 METAR ESMX 251850Z AUTO 11007KT 070V160 9999 -FZRA OVC017/// M06/M09 Q1023=
201401251820 METAR ESMX 251820Z AUTO 11006KT 070V170 9999 -FZRA OVC020/// M06/M10 Q1024=
201401251750 METAR ESMX 251750Z AUTO 11006KT 060V150 9999 -FZRA OVC021/// M06/M10 Q1024=
201401251720 METAR ESMX 251720Z AUTO 11006KT 070V150 9999 -FZRA FEW022/// OVC026/// M06/M10 Q1025=
201401251650 METAR ESMX 251650Z AUTO 12006KT 070V160 9999 -FZRA FEW017/// BKN020/// OVC026/// M06/M10 Q1025=
201401251620 METAR ESMX 251620Z AUTO 14008KT 090V170 9999 -FZRA OVC020/// M06/M10 Q1025=
201401251550 METAR ESMX 251550Z AUTO 12009KT 070V160 9999 OVC022/// M06/M11 Q1025=
201401251520 METAR ESMX 251520Z AUTO 13005KT 080V170 9999 OVC021/// M05/M10 Q1026=
201401251450 METAR ESMX 251450Z AUTO 12008KT 080V160 9999 OVC021/// M05/M10 Q1026=
201401251420 METAR ESMX 251420Z AUTO 13007KT 070V170 9999 OVC020/// M05/M10 Q1026=
201401251350 METAR ESMX 251350Z AUTO 13009KT 080V170 9999 OVC019/// M05/M10 Q1026=
201401251320 METAR ESMX 251320Z AUTO 13008KT 070V170 9999 OVC019/// M05/M09 Q1026=
201401251250 METAR ESMX 251250Z AUTO 14008KT 120V180 9999 OVC019/// M05/M10 Q1027=
201401251220 METAR ESMX 251220Z AUTO 15008KT 110V180 9999 OVC020/// M05/M09 Q1027=
201401251150 METAR ESMX 251150Z AUTO 15007KT 110V200 9999 OVC019/// M05/M09 Q1028=
201401251120 METAR ESMX 251120Z AUTO 14007KT 080V190 9999 OVC019/// M05/M09 Q1028=
201401251050 METAR ESMX 251050Z AUTO 12006KT 050V160 9999 OVC017/// M05/M09 Q1028=
201401251020 METAR ESMX 251020Z AUTO 13008KT 080V180 9999 OVC016/// M05/M09 Q1028=
201401250950 METAR ESMX 250950Z AUTO 13009KT 100V170 9999 OVC017/// M05/M09 Q1029=
201401250920 METAR ESMX 250920Z AUTO 15008KT 100V180 9999 OVC017/// M05/M09 Q1029=
201401250850 METAR ESMX 250850Z AUTO 14007KT 100V180 9999 OVC018/// M05/M09 Q1029=
201401250820 METAR ESMX 250820Z AUTO 13007KT 070V160 9999 OVC019/// M05/M09 Q1029=
201401250750 METAR ESMX 250750Z AUTO 14007KT 100V170 9999 OVC020/// M05/M09 Q1029=
201401250720 METAR ESMX 250720Z AUTO 14006KT 100V160 9999 OVC020/// M05/M10 Q1029=
201401250650 METAR ESMX 250650Z AUTO 13006KT 090V170 9999 OVC020/// M05/M10 Q1029=
201401250620 METAR ESMX 250620Z AUTO 13007KT 070V180 9999 OVC020/// M05/M10 Q1029=
201401250550 METAR ESMX 250550Z AUTO 13006KT 070V180 9999 OVC020/// M05/M10 Q1029=
201401250520 METAR ESMX 250520Z AUTO 12007KT 080V160 9999 OVC020/// M05/M10 Q1030=
201401250450 METAR ESMX 250450Z AUTO 12006KT 080V160 9999 OVC021/// M05/M10 Q1030=
201401250420 METAR ESMX 250420Z AUTO 11007KT 060V150 9999 -FZDZ OVC020/// M05/M10 Q1030=
201401250350 METAR ESMX 250350Z AUTO 12006KT 080V160 9999 -FZRA OVC021/// M05/M10 Q1030=
201401250320 METAR ESMX 250320Z AUTO 12006KT 070V180 2300 -FZRA OVC021/// M06/M09 Q1030=
201401250250 METAR ESMX 250250Z AUTO 11005KT 070V160 9999 -FZRA OVC022/// M06/M09 Q1030=
201401250220 METAR ESMX 250220Z AUTO 10004KT 070V160 9999 -FZRA OVC023/// M06/M09 Q1030=
201401250150 METAR ESMX 250150Z AUTO 11004KT 070V160 9999 -FZRA OVC024/// M06/M08 Q1030=
201401250120 METAR ESMX 250120Z AUTO 10004KT 050V140 9000 -FZRA OVC023/// M06/M08 Q1030=
201401250050 METAR ESMX 250050Z AUTO 11003KT 060V150 9999 -FZRA OVC025/// M06/M08 Q1030=
201401250020 METAR ESMX 250020Z AUTO 11004KT 060V150 9999 -FZRA FEW021/// OVC027/// M06/M08 Q1030=
201401242350 METAR ESMX 242350Z AUTO 09004KT 060V130 6000 -FZRA FEW020/// OVC027/// M06/M08 Q1030=
201401242320 METAR ESMX 242320Z AUTO 11003KT 060V150 1800 FZRA FEW022/// OVC028/// M06/M08 Q1030=
201401242250 METAR ESMX 242250Z AUTO 09004KT 050V130 9000 FZRA OVC025/// M06/M09 Q1030=
201401242220 METAR ESMX 242220Z AUTO 09003KT 060V130 9999 FZRA FEW011/// SCT023/// BKN029/// M07/M09 Q1030=
201401242150 METAR ESMX 242150Z AUTO 10004KT 070V160 9999 -FZRA FEW015/// SCT022/// BKN029/// M07/M09 Q1030=
201401242120 METAR ESMX 242120Z AUTO 11005KT 070V150 9999 FEW017/// OVC028/// M06/M09 Q1030=
201401242050 METAR ESMX 242050Z AUTO 11005KT 070V140 9999 FEW021/// OVC028/// M06/M10 Q1030=
201401242020 METAR ESMX 242020Z AUTO 11006KT 050V160 9999 FEW021/// OVC027/// M06/M11 Q1030=
201401241950 METAR ESMX 241950Z AUTO 11006KT 020V160 9999 OVC024/// M05/M10 Q1030=
201401241920 METAR ESMX 241920Z AUTO 12008KT 070V170 9999 OVC020/// M05/M10 Q1030=
201401241850 METAR ESMX 241850Z AUTO 11007KT 060V190 9999 OVC020/// M05/M10 Q1030=
201401241820 METAR ESMX 241820Z 10005KT 050V160 9999 -SN FEW018 OVC024 M05/M09 Q1029=
201401241750 METAR ESMX 241750Z 09004KT 030V150 9999 -SN FEW020 OVC026 M05/M09 Q1030=
201401241720 METAR ESMX 241720Z 08006KT 040V140 9999 -SN FEW021 OVC027 M05/M09 Q1029=
201401241650 METAR ESMX 241650Z 09006KT 040V120 9999 -SN FEW023 OVC028 M05/M09 Q1029=
201401241620 METAR COR ESMX 241620Z 08006KT 050V120 9999 -SN FEW021 OVC026 M05/M10 Q1029=
201401241550 METAR ESMX 241550Z 09006KT 050V140 9999 -SN OVC024 M05/M10 Q1029=
201401241520 METAR COR ESMX 241520Z 08005KT 030V140 9999 OVC025 M05/M10 Q1029=
201401241450 METAR ESMX 241450Z 09007KT 050V140 9999 -SN OVC022 M05/M10 Q1028=
201401241420 METAR ESMX 241420Z 09007KT 050V120 9999 -SN OVC023 M05/M10 Q1028=
201401241350 METAR COR ESMX 241350Z 08008KT 040V120 9999 -SN OVC020 M05/M10 Q1028=
201401241320 METAR ESMX 241320Z 09006KT 050V140 9999 -SN OVC021 M05/M09 Q1028=
201401241250 METAR ESMX 241250Z AUTO 07005KT 030V120 9999 OVC021/// M05/M10 Q1028=
201401241220 METAR COR ESMX 241220Z 09007KT 050V120 9999 OVC021 M05/M10 Q1028=
201401241150 METAR ESMX 241150Z VRB06KT 360V360 9999 OVC020 M05/M10 Q1028=
201401241120 METAR ESMX 241120Z 10007KT 050V150 9999 OVC020 M05/M09 Q1028=
201401241050 METAR ESMX 241050Z 08009KT 050V120 9999 OVC019 M05/M10 Q1028=
201401241020 METAR ESMX 241020Z 08006KT 030V130 9999 OVC019 M05/M09 Q1028=
201401240950 METAR ESMX 240950Z 08008KT 050V130 9999 OVC020 M05/M09 Q1028=
201401240920 METAR ESMX 240920Z 08009KT 050V130 9999 OVC020 M04/M09 Q1027=
201401240850 METAR ESMX 240850Z 09006KT 040V140 9999 OVC021 M04/M09 Q1027=
201401240820 METAR ESMX 240820Z 10006KT 060V150 9999 OVC021 M05/M09 Q1027=
201401240750 METAR ESMX 240750Z 07007KT 020V140 9999 OVC022 M05/M09 Q1027=
201401240720 METAR ESMX 240720Z 09006KT 040V120 9999 OVC022 M05/M09 Q1026=
201401240650 METAR ESMX 240650Z 09007KT 050V140 9999 OVC021 M05/M09 Q1026=
201401240620 METAR ESMX 240620Z 09008KT 040V130 9999 OVC021 M05/M09 Q1026=
201401240550 METAR ESMX 240550Z 08006KT 050V120 9999 OVC022 M05/M09 Q1025=
201401240520 METAR ESMX 240520Z 09006KT 020V140 9999 OVC023 M05/M09 Q1025=
201401240450 METAR ESMX 240450Z AUTO 08006KT 050V120 9999 OVC023/// M05/M09 Q1025=
201401240420 METAR ESMX 240420Z AUTO 08006KT 040V110 9999 OVC024/// M05/M09 Q1025=
201401240350 METAR ESMX 240350Z AUTO 08006KT 050V120 9999 OVC024/// M05/M10 Q1025=
201401240320 METAR ESMX 240320Z AUTO 08007KT 040V110 9999 OVC024/// M05/M10 Q1025=
201401240250 METAR ESMX 240250Z AUTO 08006KT 040V130 9999 OVC023/// M05/M10 Q1025=
201401240220 METAR ESMX 240220Z AUTO 10006KT 060V130 9999 OVC023/// M05/M10 Q1025=
201401240150 METAR ESMX 240150Z AUTO 09006KT 050V140 9999 OVC023/// M05/M10 Q1025=
201401240120 METAR ESMX 240120Z 08005KT 060V120 9999 -SN OVC024 M05/M10 Q1024=
201401240050 METAR ESMX 240050Z 09006KT 030V140 9999 -SN OVC024 M05/M10 Q1024=
201401240020 METAR ESMX 240020Z 10006KT 050V160 9999 -SN OVC023 M05/M10 Q1025=
201401232350 METAR ESMX 232350Z 09007KT 060V140 9999 -SN OVC023 M05/M10 Q1024=
201401232320 METAR ESMX 232320Z 09007KT 050V140 9999 -SN OVC023 M05/M10 Q1024=
201401232250 METAR ESMX 232250Z 08006KT 030V120 9999 -SN OVC023 M05/M10 Q1025=
201401232220 METAR ESMX 232220Z 09006KT 050V150 9999 -SN OVC022 M06/M10 Q1025=
201401232150 METAR ESMX 232150Z 09006KT 050V120 9999 -SN OVC021 M06/M10 Q1025=
201401232120 METAR ESMX 232120Z 09007KT 050V150 9999 -SN OVC019 M06/M10 Q1024=
201401232050 METAR ESMX 232050Z 09007KT 050V140 9999 -SN OVC018 M06/M10 Q1024=
201401232020 METAR ESMX 232020Z 10007KT 060V150 9999 -SN OVC018 M06/M10 Q1024=
201401231950 METAR ESMX 231950Z 11008KT 040V160 9999 -SN OVC018 M06/M10 Q1024=
201401231920 METAR ESMX 231920Z 10008KT 050V130 9999 -SN OVC020 M06/M10 Q1024=
201401231850 METAR ESMX 231850Z 10009KT 070V140 9999 -SN OVC018 M06/M10 Q1024=
201401231820 METAR ESMX 231820Z 10008KT 060V140 9999 -SN OVC019 M06/M10 Q1024=
201401231750 METAR ESMX 231750Z 10008KT 050V160 9999 -SN OVC019 M05/M10 Q1024=
201401231720 METAR COR ESMX 231720Z 10007KT 050V150 9999 -SN OVC019 M05/M10 Q1024=
201401231650 METAR ESMX 231650Z 11008KT 060V160 9999 -SN FEW017 BKN021 M05/M10 Q1024=
201401231620 METAR COR ESMX 231620Z 09007KT 050V120 9999 -SN FEW016 SCT025 OVC031 M05/M09 Q1024=
201401231550 METAR ESMX 231550Z 09007KT 060V120 9999 -SN FEW015 OVC029 M05/M08 Q1024=
201401231520 METAR ESMX 231520Z 09006KT 050V120 9999 -SN FEW015 OVC029 M04/M07 Q1024=
201401231450 METAR ESMX 231450Z 09008KT 060V120 9999 -SN FEW017 BKN032 M04/M08 Q1023=
201401231420 METAR ESMX 231420Z 09007KT 050V140 9999 FEW024 BKN032 M04/M08 Q1023=
201401231350 METAR ESMX 231350Z 08006KT 030V120 9999 FEW024 BKN032 M04/M09 Q1023=
201401231320 METAR ESMX 231320Z 09005KT 030V160 9999 BKN031 M04/M09 Q1024=
201401231250 METAR ESMX 231250Z 09006KT 030V140 9999 FEW026 BKN031 M04/M09 Q1024=
201401231220 METAR ESMX 231220Z 08006KT 050V130 9999 FEW024 OVC029 M04/M09 Q1024=
201401231150 METAR ESMX 231150Z AUTO 09006KT 050V120 9999 -FZRA FEW021/// OVC028/// M04/M09 Q1024=
201401231120 METAR ESMX 231120Z 11006KT 060V150 9999 -SNRA FEW013 BKN020 M05/M09 Q1024=
201401231050 METAR ESMX 231050Z 10007KT 060V150 9999 -SN OVC021 M05/M08 Q1024=
201401231020 METAR COR ESMX 231020Z 09006KT 050V160 9999 -SN OVC024 M05/M09 Q1024=
201401230950 METAR ESMX 230950Z 10007KT 040V140 9999 -SN OVC020 M05/M09 Q1024=
201401230920 METAR ESMX 230920Z AUTO 11007KT 040V160 9999 FEW020/// BKN024/// M05/M09 Q1024=
201401230850 METAR ESMX 230850Z 10009KT 060V150 9999 BKN016 OVC023 M05/M09 Q1025=
201401230820 METAR ESMX 230820Z 09006KT 060V140 9999 OVC015 M04/M08 Q1024=
201401230750 METAR ESMX 230750Z 09005KT 040V130 9999 OVC017 M04/M08 Q1024=
201401230720 METAR ESMX 230720Z 06006KT 010V100 9999 OVC019 M04/M08 Q1024=
201401230650 METAR ESMX 230650Z 07006KT 040V120 9999 FEW017 OVC019 M04/M07 Q1024=
201401230620 METAR ESMX 230620Z 07004KT 030V110 9999 OVC017 M04/M07 Q1024=
201401230550 METAR ESMX 230550Z 06004KT 020V110 9999 -SN OVC016 M04/M07 Q1024=
201401230520 METAR ESMX 230520Z 08005KT 030V140 9999 -SN OVC017 M05/M07 Q1024=
201401230450 METAR ESMX 230450Z 08004KT 040V130 9999 -SN OVC019 M05/M07 Q1024=
201401230420 METAR ESMX 230420Z AUTO 07004KT 9999 OVC020/// M05/M07 Q1024=
201401230350 METAR ESMX 230350Z AUTO VRB03KT 9999 OVC020/// M05/M08 Q1024=
201401230320 METAR ESMX 230320Z AUTO 04004KT 010V070 9999 OVC022/// M05/M08 Q1024=
201401230250 METAR ESMX 230250Z AUTO 04005KT 9999 OVC025/// M05/M08 Q1024=
201401230220 METAR ESMX 230220Z AUTO 08003KT 020V120 9999 OVC026/// M05/M09 Q1024=
201401230150 METAR ESMX 230150Z AUTO VRB03KT 9999 OVC024/// M05/M09 Q1024=
201401230120 METAR ESMX 230120Z AUTO 07004KT 040V120 9999 OVC026/// M05/M09 Q1024=
201401230050 METAR ESMX 230050Z 09004KT 050V140 9999 -SN FEW023 OVC027 M05/M09 Q1024=
201401230020 METAR ESMX 230020Z 09004KT 040V120 9999 -SN OVC025 M05/M09 Q1024=
201401222350 METAR ESMX 222350Z 09004KT 050V140 9999 -SN OVC025 M05/M09 Q1024=
201401222320 METAR ESMX 222320Z 09005KT 060V120 9999 -SN OVC024 M05/M09 Q1025=
201401222250 METAR ESMX 222250Z 09003KT 050V140 9999 -SN OVC025 M05/M10 Q1025=
201401222220 METAR ESMX 222220Z 10004KT 050V190 9999 -SN OVC025 M05/M10 Q1025=
201401222150 METAR ESMX 222150Z 10005KT 060V140 9999 -SN OVC024 M05/M10 Q1025=
201401222120 METAR ESMX 222120Z 09005KT 050V140 9999 -SN OVC025 M05/M11 Q1025=
201401222050 METAR ESMX 222050Z 09006KT 040V150 9999 -SN OVC026 M05/M10 Q1025=
201401222020 METAR ESMX 222020Z 08006KT 020V130 9999 -SN OVC022 M05/M10 Q1025=
201401221950 METAR ESMX 221950Z 09006KT 050V140 9999 -SN OVC023 M05/M10 Q1024=
201401221920 METAR ESMX 221920Z 07006KT 030V120 9999 -SN OVC022 M05/M09 Q1024=
201401221850 METAR ESMX 221850Z 10006KT 050V150 9999 OVC021 M05/M09 Q1024=
201401221820 METAR ESMX 221820Z 07008KT 040V110 9999 -SN OVC021 M05/M09 Q1024=
201401221750 METAR ESMX 221750Z 08005KT 010V120 9999 OVC020 M04/M09 Q1024=
201401221720 METAR ESMX 221720Z 08007KT 030V130 9999 OVC021 M05/M09 Q1024=
201401221650 METAR ESMX 221650Z AUTO 07008KT 030V110 9999 OVC020/// M05/M09 Q1024=
201401221620 METAR ESMX 221620Z 08007KT 030V110 9999 OVC020 M05/M09 Q1024=
201401221550 METAR ESMX 221550Z 08007KT 030V120 9999 OVC020 M05/M09 Q1023=
201401221520 METAR ESMX 221520Z 08007KT 030V140 9999 OVC021 M04/M09 Q1023=
201401221450 METAR ESMX 221450Z 06007KT 030V110 9999 OVC021 M04/M09 Q1023=
201401221420 METAR ESMX 221420Z 06007KT 350V140 9999 OVC021 M04/M09 Q1023=
201401221350 METAR ESMX 221350Z 05008KT 020V100 9999 OVC021 M04/M09 Q1023=
201401221320 METAR ESMX 221320Z 07008KT 040V120 9999 BKN022 M04/M09 Q1023=
201401221250 METAR ESMX 221250Z 05008KT 010V090 9999 OVC020 M04/M09 Q1023=
201401221220 METAR ESMX 221220Z AUTO 07008KT 030V120 9999 OVC019/// M04/M09 Q1023=
201401221150 METAR ESMX 221150Z 06008KT 020V120 9999 OVC018 M04/M08 Q1023=
201401221120 METAR ESMX 221120Z 07008KT 030V110 9999 OVC018 M04/M08 Q1023=
201401221050 METAR ESMX 221050Z 09008KT 060V130 9999 BKN020 M04/M08 Q1023=
201401221020 METAR ESMX 221020Z 09010KT 050V120 9999 BKN020 M04/M09 Q1023=
201401220950 METAR ESMX 220950Z AUTO 09010KT 040V140 9999 OVC020/// M04/M08 Q1023=
201401220920 METAR ESMX 220920Z 08008KT 050V130 9999 BKN017 M04/M08 Q1023=
201401220850 METAR ESMX 220850Z 08007KT 050V120 9999 BKN018 M04/M08 Q1023=
201401220820 METAR COR ESMX 220820Z 08007KT 050V120 9999 BKN020 M04/M08 Q1023=
201401220750 METAR ESMX 220750Z 06008KT 020V110 9999 BKN020 M04/M08 Q1022=
201401220720 METAR ESMX 220720Z 08009KT 040V110 9999 BKN020 M04/M08 Q1022=
201401220650 METAR ESMX 220650Z 06009KT 020V090 9999 BKN020 M04/M08 Q1022=
201401220620 METAR ESMX 220620Z 08007KT 050V120 9999 OVC019 M04/M08 Q1022=
201401220550 METAR ESMX 220550Z 07008KT 030V110 9999 -SN OVC018 M04/M08 Q1022=
201401220520 METAR COR ESMX 220520Z 06007KT 010V120 9999 -SN OVC019 M04/M08 Q1022=
201401220450 METAR ESMX 220450Z 08008KT 030V110 9999 OVC019 M04/M08 Q1022=
201401220420 METAR ESMX 220420Z AUTO 05009KT 020V100 9999 OVC019/// M04/M08 Q1022=
201401220350 METAR ESMX 220350Z AUTO 08008KT 040V120 9999 OVC019/// M04/M08 Q1022=
201401220320 METAR ESMX 220320Z AUTO 08009KT 050V110 9999 OVC019/// M04/M08 Q1022=
201401220250 METAR ESMX 220250Z AUTO 07009KT 030V130 9999 OVC020/// M04/M08 Q1021=
201401220220 METAR ESMX 220220Z AUTO 07010KT 030V120 9999 OVC020/// M04/M08 Q1021=
201401220150 METAR ESMX 220150Z AUTO 07009G20KT 020V120 9999 OVC021/// M04/M09 Q1021=
201401220120 METAR ESMX 220120Z AUTO 08009KT 050V120 9999 OVC020/// M05/M08 Q1021=
201401220050 METAR ESMX 220050Z 05007KT 360V090 CAVOK M05/M08 Q1021=
201401220020 METAR ESMX 220020Z 06008KT CAVOK M05/M08 Q1021=
201401212350 METAR ESMX 212350Z 06008KT CAVOK M05/M08 Q1021=
201401212320 METAR ESMX 212320Z 06007KT 030V100 CAVOK M05/M08 Q1021=
201401212250 METAR ESMX 212250Z 06007KT 030V090 CAVOK M06/M08 Q1021=
201401212220 METAR ESMX 212220Z 05007KT 020V080 CAVOK M06/M08 Q1021=
201401212150 METAR ESMX 212150Z 05008KT 030V090 CAVOK M06/M08 Q1021=
201401212120 METAR ESMX 212120Z 06007KT 030V100 CAVOK M05/M07 Q1021=
201401212050 METAR ESMX 212050Z AUTO 06008KT 9999 NCD M05/M07 Q1021=
201401212020 METAR ESMX 212020Z 05007KT 010V080 CAVOK M05/M07 Q1021=
201401211950 METAR ESMX 211950Z 07007KT 030V100 CAVOK M05/M07 Q1020=
201401211920 METAR ESMX 211920Z 05007KT 020V100 CAVOK M05/M07 Q1020=
201401211850 METAR ESMX 211850Z 05007KT 020V100 CAVOK M05/M07 Q1020=
201401211820 METAR ESMX 211820Z 07007KT 030V100 CAVOK M05/M07 Q1020=
201401211750 METAR COR ESMX 211750Z 05007KT 020V100 9999 FEW020 M04/M07 Q1020=
201401211720 METAR COR ESMX 211720Z 05006KT 010V090 9999 SCT020 M05/M07 Q1020=
201401211650 METAR ESMX 211650Z 04007KT 010V080 9999 FEW019 M05/M07 Q1020=
201401211620 METAR ESMX 211620Z 06007KT 030V090 9999 SCT018 M05/M07 Q1020=
201401211550 METAR ESMX 211550Z 06007KT 9999 BKN017 M04/M07 Q1020=
201401211520 METAR ESMX 211520Z 06008KT 030V100 9999 SCT017 M04/M08 Q1020=
201401211450 METAR COR ESMX 211450Z 07009KT 9999 FEW020 M04/M08 Q1019=
201401211420 METAR COR ESMX 211420Z 05009KT 010V120 9999 FEW020 M04/M08 Q1019=
201401211350 METAR ESMX 211350Z 06008KT 030V100 9999 FEW020 M03/M07 Q1019=
201401211320 METAR ESMX 211320Z 06008KT 020V120 9999 FEW020 M02/M07 Q1019=
201401211250 METAR ESMX 211250Z 07010KT 040V110 9999 FEW020 M02/M08 Q1019=
201401211220 METAR ESMX 211220Z 06010KT 030V090 9999 FEW019 M02/M07 Q1019=
201401211150 METAR ESMX 211150Z 07009KT 030V110 9999 FEW019 M02/M07 Q1019=
201401211120 METAR COR ESMX 211120Z 07009KT 040V100 9999 FEW017 M02/M07 Q1019=
201401211050 METAR ESMX 211050Z 07010KT 040V110 9999 FEW018 M03/M07 Q1019=
201401211020 METAR ESMX 211020Z 06009KT 030V100 9999 FEW017 M03/M07 Q1019=
201401210950 METAR ESMX 210950Z 05009KT 010V100 9999 SCT017 M03/M07 Q1019=
201401210920 METAR ESMX 210920Z 05008KT 010V100 9999 SCT016 M03/M07 Q1019=
201401210850 METAR ESMX 210850Z 06008KT 030V100 9999 BKN016 M04/M07 Q1019=
201401210820 METAR ESMX 210820Z 05007KT 010V080 9999 BKN016 M04/M07 Q1019=
201401210750 METAR ESMX 210750Z 07009KT 040V110 9999 BKN015 M04/M07 Q1019=
201401210720 METAR ESMX 210720Z 05007KT 010V080 9999 BKN016 M04/M07 Q1019=
201401210650 METAR ESMX 210650Z 05007KT 360V090 9999 BKN017 M04/M07 Q1018=
201401210620 METAR ESMX 210620Z 08006KT 020V110 9999 BKN017 M04/M07 Q1018=
201401210550 METAR ESMX 210550Z 07008KT 030V110 9999 BKN017 M04/M07 Q1018=
201401210520 METAR ESMX 210520Z 08009KT 030V130 9999 BKN017 M04/M07 Q1018=
201401210450 METAR ESMX 210450Z 07008KT 040V110 9999 BKN017 M04/M07 Q1018=
201401210420 METAR ESMX 210420Z AUTO 07010KT 030V110 9999 OVC017/// M04/M07 Q1018=
201401210350 METAR ESMX 210350Z AUTO 08008KT 030V120 9999 OVC015/// M03/M07 Q1018=
201401210320 METAR ESMX 210320Z AUTO 07010KT 040V110 9999 OVC013/// M03/M06 Q1018=
201401210250 METAR ESMX 210250Z AUTO 07010KT 040V120 9999 OVC012/// M03/M06 Q1018=
201401210220 METAR ESMX 210220Z AUTO 07008KT 030V110 9999 OVC012/// M03/M06 Q1018=
201401210150 METAR ESMX 210150Z AUTO 05009KT 020V100 9999 OVC012/// M03/M06 Q1019=
201401210120 METAR ESMX 210120Z 07010KT 040V110 9999 OVC012 M03/M06 Q1018=
201401210050 METAR ESMX 210050Z 07009G19KT 030V120 9999 OVC012 M03/M06 Q1018=
201401210020 METAR COR ESMX 210020Z 07009KT 020V110 9999 OVC012 M03/M06 Q1018=
201401202350 METAR COR ESMX 202350Z 06009KT 010V110 9999 OVC012 M03/M06 Q1019=
201401202320 METAR ESMX 202320Z 07008KT 020V110 9999 OVC013 M03/M06 Q1018=
201401202250 METAR ESMX 202250Z 07009G19KT 030V120 9999 BKN014 M03/M06 Q1019=
201401202220 METAR ESMX 202220Z 07009KT 040V120 9999 BKN014 M03/M06 Q1019=
201401202150 METAR ESMX 202150Z 06008G18KT 020V120 9999 BKN015 M03/M07 Q1019=
201401202120 METAR COR ESMX 202120Z 06007KT 020V100 9999 BKN016 M04/M07 Q1019=
201401202050 METAR ESMX 202050Z 08008KT 050V140 9999 BKN017 M04/M07 Q1019=
201401202020 METAR ESMX 202020Z 07009KT 030V110 9999 SCT018 M04/M07 Q1019=
201401201950 METAR ESMX 201950Z 07009KT 030V120 9999 BKN017 M04/M07 Q1019=
201401201920 METAR ESMX 201920Z 05010G20KT 020V110 9999 BKN017 M04/M07 Q1019=
201401201850 METAR COR ESMX 201850Z 07009KT 040V110 9999 BKN017 M04/M07 Q1019=
201401201820 METAR ESMX 201820Z 07010KT 040V100 9999 FEW017 M04/M07 Q1018=
201401201750 METAR ESMX 201750Z 07010KT 040V120 9999 SCT017 M04/M07 Q1019=
201401201720 METAR ESMX 201720Z 07010G22KT 020V110 9999 FEW017 M04/M07 Q1019=
201401201650 METAR ESMX 201650Z 08010KT 040V110 9999 SCT017 M04/M07 Q1019=
201401201620 METAR ESMX 201620Z 07009KT 020V110 9999 SCT018 M04/M07 Q1019=
201401201550 METAR COR ESMX 201550Z 07010G20KT 040V100 9999 FEW018 M04/M07 Q1019=
201401201520 METAR ESMX 201520Z 06008KT 020V110 9999 FEW018 M04/M07 Q1019=
201401201450 METAR ESMX 201450Z 06008KT 020V100 9999 FEW020 M03/M07 Q1019=
201401201420 METAR ESMX 201420Z 05010KT 010V100 CAVOK M03/M07 Q1019=
201401201350 METAR ESMX 201350Z 08010G21KT 030V110 9999 FEW020 M03/M07 Q1019=
201401201320 METAR ESMX 201320Z 08013G25KT 030V120 9999 FEW020 M03/M08 Q1019=
201401201250 METAR ESMX 201250Z 07010G21KT 010V110 9999 FEW020 M03/M07 Q1019=
201401201220 METAR ESMX 201220Z 06010KT 020V100 9999 FEW020 M02/M07 Q1019=
201401201150 METAR ESMX 201150Z 06012KT 020V110 9999 FEW022 M02/M07 Q1019=
201401201120 METAR ESMX 201120Z 08011KT 030V110 9999 FEW022 M02/M07 Q1019=
201401201050 METAR ESMX 201050Z 08011G23KT 050V120 9999 FEW020 M02/M07 Q1019=
201401201020 METAR ESMX 201020Z 08011KT 030V120 9999 FEW022 M03/M07 Q1020=
201401200950 METAR ESMX 200950Z 08012G24KT 040V110 9999 FEW021 M03/M07 Q1020=
201401200920 METAR ESMX 200920Z 08010KT 030V130 9999 FEW019 M03/M07 Q1020=
201401200850 METAR ESMX 200850Z 08011G22KT 030V120 9999 FEW018 SCT020 M03/M07 Q1020=
201401200820 METAR ESMX 200820Z 08011G22KT 030V130 9999 SCT019 M04/M07 Q1020=
201401200750 METAR ESMX 200750Z 08010G20KT 040V150 9999 BKN018 M04/M07 Q1020=
201401200720 METAR ESMX 200720Z 08010G22KT 020V150 9999 SCT019 M04/M07 Q1020=
201401200650 METAR ESMX 200650Z 08010G22KT 040V110 9999 BKN018 M04/M07 Q1020=
201401200620 METAR ESMX 200620Z 08009KT 030V130 9999 BKN018 M04/M07 Q1019=
201401200550 METAR ESMX 200550Z 08010KT 050V120 9999 FEW019 M04/M07 Q1019=
201401200520 METAR ESMX 200520Z 08010KT 030V130 9999 FEW020 M04/M07 Q1019=
201401200450 METAR ESMX 200450Z 07011KT 030V100 9999 FEW019 M04/M07 Q1019=
201401200420 METAR ESMX 200420Z AUTO 07011G22KT 040V110 9999 FEW020/// M04/M07 Q1019=
201401200350 METAR ESMX 200350Z AUTO 07012KT 050V110 9999 FEW020/// M04/M07 Q1019=
201401200320 METAR ESMX 200320Z AUTO 08011G21KT 050V120 9999 FEW020/// M03/M07 Q1020=
201401200250 METAR ESMX 200250Z AUTO 08010G22KT 020V120 9999 FEW020/// M03/M07 Q1020=
201401200220 METAR ESMX 200220Z AUTO 08011G21KT 050V110 9999 FEW020/// M03/M07 Q1020=
201401200150 METAR ESMX 200150Z AUTO 08012KT 9999 FEW020/// M03/M07 Q1020=
201401200120 METAR ESMX 200120Z AUTO 08011KT 050V120 9999 SCT020/// M03/M07 Q1020=
201401200050 METAR ESMX 200050Z 09010KT 040V130 9999 BKN020 M03/M07 Q1020=
201401200020 METAR ESMX 200020Z 08010KT 050V120 9999 SCT020 M03/M07 Q1020=
201401192350 METAR ESMX 192350Z 08010KT 050V120 9999 FEW019 SCT022 M03/M07 Q1020=
201401192320 METAR ESMX 192320Z 08011G23KT 020V110 9999 SCT020 M03/M07 Q1020=
201401192250 METAR ESMX 192250Z AUTO 08010KT 040V120 9999 FEW020/// SCT023/// M03/M07 Q1020=
201401192220 METAR ESMX 192220Z 08010G21KT 040V120 9999 BKN019 M03/M07 Q1020=
201401192150 METAR ESMX 192150Z AUTO 08011G22KT 040V160 9999 BKN019/// M03/M07 Q1021=
201401192120 METAR ESMX 192120Z 09011KT 050V130 9999 BKN020 M03/M07 Q1021=
201401192050 METAR ESMX 192050Z AUTO 08010G20KT 030V130 9999 BKN020/// M03/M07 Q1021=
201401192020 METAR ESMX 192020Z AUTO 09010KT 050V120 9999 BKN020/// M03/M07 Q1021=
201401191950 METAR ESMX 191950Z 08011G21KT 050V110 9999 BKN020 M03/M07 Q1021=
201401191920 METAR ESMX 191920Z 08011KT 040V140 9999 BKN020 M03/M07 Q1021=
201401191850 METAR ESMX 191850Z 07010KT 020V120 9999 BKN020 M03/M07 Q1021=
201401191820 METAR ESMX 191820Z 08010G21KT 040V150 9999 SCT021 BKN027 M03/M08 Q1021=
201401191750 METAR ESMX 191750Z 08010G23KT 030V130 9999 BKN021 M03/M08 Q1021=
201401191720 METAR ESMX 191720Z 08011KT 030V120 9999 BKN021 M03/M08 Q1021=
201401191650 METAR ESMX 191650Z 09010G24KT 030V150 9999 BKN021 M03/M08 Q1021=
201401191620 METAR ESMX 191620Z 09012KT 050V140 9999 OVC020 M03/M07 Q1021=
201401191550 METAR ESMX 191550Z 09011KT 040V120 9999 OVC020 M03/M07 Q1021=
201401191520 METAR ESMX 191520Z 09010G20KT 040V130 9999 OVC021 M03/M07 Q1021=
201401191450 METAR ESMX 191450Z 08013KT 030V110 9999 BKN021 M03/M07 Q1021=
201401191420 METAR ESMX 191420Z 09010KT 040V120 9999 BKN021 M03/M07 Q1020=
201401191350 METAR ESMX 191350Z VRB11G24KT 360V360 9999 BKN022 M03/M08 Q1020=
201401191320 METAR ESMX 191320Z AUTO 10010G21KT 060V140 9999 BKN021/// M02/M07 Q1020=
201401191250 METAR ESMX 191250Z AUTO 08012G25KT 360V110 9999 OVC022/// M02/M07 Q1020=
201401191220 METAR ESMX 191220Z AUTO 09010KT 050V130 9999 OVC022/// M02/M07 Q1020=
201401191150 METAR ESMX 191150Z AUTO 08009KT 040V130 9999 OVC023/// M02/M07 Q1020=
201401191120 METAR ESMX 191120Z AUTO 09010KT 050V130 9999 BKN022/// M02/M07 Q1021=
201401191050 METAR ESMX 191050Z AUTO 10011G24KT 060V140 9999 BKN023/// M02/M07 Q1021=
201401191020 METAR ESMX 191020Z AUTO 09010G22KT 020V160 9999 BKN023/// M02/M07 Q1021=
201401190950 METAR ESMX 190950Z AUTO 08009KT 050V110 9999 OVC022/// M02/M07 Q1021=
201401190920 METAR ESMX 190920Z AUTO 09011KT 050V130 9999 OVC021/// M03/M07 Q1021=
201401190850 METAR ESMX 190850Z AUTO 08009KT 050V120 9999 OVC020/// M03/M07 Q1021=
201401190820 METAR ESMX 190820Z AUTO 08009KT 030V120 9999 OVC019/// M03/M07 Q1021=
201401190750 METAR ESMX 190750Z AUTO 07011KT 030V110 9999 OVC019/// M03/M07 Q1021=
201401190720 METAR ESMX 190720Z AUTO 08010G20KT 050V120 9999 OVC019/// M03/M07 Q1021=
201401190650 METAR ESMX 190650Z 09010KT 060V130 9999 OVC019 M03/M07 Q1021=
201401190620 METAR ESMX 190620Z 09010G23KT 050V120 9999 OVC018 M03/M07 Q1020=
201401190550 METAR ESMX 190550Z AUTO 09010G20KT 050V130 9999 OVC018/// M03/M07 Q1020=
201401190520 METAR ESMX 190520Z 08011KT 040V120 9999 OVC018 M03/M07 Q1020=
201401190450 METAR ESMX 190450Z AUTO 09011KT 050V110 9999 OVC017/// M03/M06 Q1020=
201401190420 METAR ESMX 190420Z AUTO 08010KT 030V120 9999 OVC015/// M03/M06 Q1020=
201401190350 METAR ESMX 190350Z AUTO 09010KT 040V120 9999 OVC013/// M02/M06 Q1020=
201401190320 METAR ESMX 190320Z AUTO 09010KT 020V150 9999 OVC012/// M02/M05 Q1020=
201401190250 METAR ESMX 190250Z AUTO VRB08KT 030V260 9999 OVC011/// M02/M05 Q1020=
201401190220 METAR ESMX 190220Z AUTO 07009KT 020V120 9999 OVC011/// M02/M05 Q1020=
201401190150 METAR ESMX 190150Z AUTO 09010KT 050V140 9999 OVC012/// M02/M05 Q1020=
201401190120 METAR ESMX 190120Z AUTO 09011KT 050V120 9999 OVC013/// M02/M05 Q1020=
201401190050 METAR ESMX 190050Z AUTO VRB09G19KT 050V250 9999 OVC015/// M02/M05 Q1020=
201401190020 METAR ESMX 190020Z AUTO 10010KT 060V140 9999 OVC016/// M02/M05 Q1020=
201401182350 METAR ESMX 182350Z AUTO 10008KT 060V160 9999 OVC016/// M02/M05 Q1019=
201401182320 METAR ESMX 182320Z AUTO 09009G19KT 040V120 9999 OVC016/// M02/M05 Q1019=
201401182250 METAR ESMX 182250Z AUTO 09008KT 040V130 9999 OVC016/// M02/M06 Q1019=
201401182220 METAR ESMX 182220Z AUTO 09008KT 050V130 9999 OVC016/// M02/M06 Q1019=
201401182150 METAR ESMX 182150Z AUTO 08010KT 050V130 9999 OVC016/// M02/M06 Q1019=
201401182120 METAR ESMX 182120Z 08009KT 050V110 9999 OVC016 M03/M06 Q1019=
201401182050 METAR ESMX 182050Z 08009KT 030V120 9999 OVC016 M03/M06 Q1019=
201401182020 METAR ESMX 182020Z 09008KT 030V130 9999 OVC016 M03/M06 Q1019=
201401181950 METAR ESMX 181950Z 07009KT 040V110 9999 OVC016 M03/M06 Q1018=
201401181920 METAR ESMX 181920Z 08012KT 050V110 9999 OVC016 M03/M06 Q1018=
201401181850 METAR ESMX 181850Z AUTO 09010KT 050V130 9999 OVC016/// M03/M06 Q1018=
201401181820 METAR ESMX 181820Z AUTO 09009KT 350V150 9999 OVC016/// M03/M06 Q1018=
201401181750 METAR ESMX 181750Z AUTO 09010KT 050V130 9999 OVC015/// M03/M06 Q1018=
201401181720 METAR ESMX 181720Z AUTO 09011KT 060V130 9999 OVC015/// M03/M06 Q1017=
201401181650 METAR ESMX 181650Z AUTO 08009KT 040V120 9999 OVC015/// M03/M06 Q1017=
201401181620 METAR ESMX 181620Z AUTO 07009G20KT 020V110 9999 OVC017/// M02/M06 Q1017=
201401181550 METAR ESMX 181550Z AUTO 09010G21KT 050V130 9999 OVC017/// M02/M06 Q1017=
201401181520 METAR ESMX 181520Z AUTO 09009KT 040V140 9999 OVC015/// M02/M06 Q1017=
201401181450 METAR ESMX 181450Z AUTO 09009KT 030V120 9999 OVC014/// M02/M05 Q1017=
201401181420 METAR ESMX 181420Z AUTO 09010KT 060V130 9999 OVC014/// M02/M05 Q1016=
201401181350 METAR ESMX 181350Z AUTO 06008KT 020V100 9999 OVC014/// M02/M05 Q1016=
201401181320 METAR ESMX 181320Z AUTO 08009G19KT 030V130 9999 OVC014/// M02/M06 Q1016=
201401181250 METAR ESMX 181250Z AUTO 08007KT 040V140 9999 OVC015/// M02/M06 Q1016=
201401181220 METAR ESMX 181220Z AUTO 08009KT 050V120 9999 OVC015/// M03/M06 Q1016=
201401181150 METAR ESMX 181150Z AUTO 08008KT 040V120 9999 OVC016/// M03/M06 Q1015=
201401181120 METAR ESMX 181120Z AUTO 06007KT 020V100 9999 OVC017/// M03/M06 Q1016=
201401181050 METAR ESMX 181050Z AUTO 07008KT 020V120 9999 OVC017/// M03/M06 Q1015=
201401181020 METAR ESMX 181020Z AUTO 07008KT 030V110 9999 OVC018/// M03/M07 Q1015=
201401180950 METAR ESMX 180950Z AUTO 07008KT 020V110 9999 OVC019/// M03/M07 Q1015=
201401180920 METAR ESMX 180920Z AUTO 07008KT 030V110 9999 OVC019/// M03/M07 Q1015=
201401180850 METAR ESMX 180850Z AUTO 07009KT 040V110 9999 OVC020/// M03/M07 Q1015=
201401180820 METAR ESMX 180820Z AUTO 07009KT 030V110 9999 FEW020/// OVC023/// M03/M07 Q1015=
201401180750 METAR ESMX 180750Z AUTO 07010KT 040V110 9999 OVC022/// M03/M07 Q1014=
201401180720 METAR ESMX 180720Z AUTO 07008KT 030V100 9999 OVC022/// M04/M07 Q1014=
201401180650 METAR ESMX 180650Z AUTO 07006KT 040V120 9999 OVC022/// M04/M07 Q1014=
201401180620 METAR ESMX 180620Z AUTO 05009KT 010V080 9999 OVC022/// M04/M07 Q1014=
201401180550 METAR ESMX 180550Z AUTO 06010KT 030V120 9999 OVC023/// M04/M07 Q1013=
201401180520 METAR ESMX 180520Z AUTO 07008KT 9999 OVC020/// M04/M07 Q1013=
201401180450 METAR ESMX 180450Z AUTO 06008KT 020V120 9999 FEW019/// OVC023/// M04/M07 Q1013=
201401180420 METAR ESMX 180420Z AUTO 06007KT 030V100 9999 FEW019/// OVC021/// M04/M07 Q1013=
201401180350 METAR ESMX 180350Z AUTO 08008KT 040V110 9999 OVC019/// M04/M07 Q1013=
201401180320 METAR ESMX 180320Z AUTO 07008KT 040V110 9000 BR OVC020/// M04/M07 Q1013=
201401180250 METAR ESMX 180250Z AUTO 07009KT 030V110 9999 OVC020/// M03/M07 Q1013=
201401180220 METAR ESMX 180220Z AUTO 05009KT 020V100 9999 OVC019/// M03/M07 Q1013=
201401180150 METAR ESMX 180150Z AUTO 07009KT 050V110 9999 OVC019/// M03/M07 Q1013=
201401180120 METAR ESMX 180120Z AUTO 07008KT 050V110 9999 OVC019/// M03/M07 Q1012=
201401180050 METAR ESMX 180050Z AUTO 08007KT 040V120 9999 FEW018/// OVC020/// M03/M07 Q1012=
201401180020 METAR ESMX 180020Z AUTO 08008KT 030V110 9999 FEW019/// OVC021/// M03/M07 Q1012=
201401172350 METAR ESMX 172350Z AUTO 06009KT 020V120 9999 OVC018/// M03/M07 Q1012=
201401172320 METAR ESMX 172320Z AUTO 08009KT 040V120 9999 OVC018/// M03/M07 Q1011=
201401172250 METAR ESMX 172250Z AUTO 06009KT 020V100 9999 OVC019/// M03/M07 Q1011=
201401172220 METAR ESMX 172220Z AUTO 07010KT 040V110 9999 OVC019/// M03/M07 Q1011=
201401172150 METAR ESMX 172150Z AUTO 06008KT 020V110 9999 OVC019/// M03/M06 Q1011=
201401172120 METAR ESMX 172120Z AUTO 06009KT 360V140 9999 FEW019/// OVC021/// M03/M06 Q1011=
201401172050 METAR ESMX 172050Z AUTO 08008KT 050V110 9999 OVC018/// M03/M06 Q1011=
201401172020 METAR ESMX 172020Z AUTO 07007KT 020V100 9999 OVC019/// M03/M06 Q1011=
201401171950 METAR ESMX 171950Z AUTO 08008KT 050V120 9999 OVC019/// M03/M07 Q1011=
201401171920 METAR ESMX 171920Z AUTO 08009KT 040V130 9999 OVC019/// M03/M07 Q1010=
201401171850 METAR ESMX 171850Z AUTO 08008G19KT 050V110 9999 OVC019/// M03/M07 Q1010=
201401171820 METAR ESMX 171820Z 09008KT 030V140 9999 -SN OVC019 M03/M07 Q1010=
201401171750 METAR ESMX 171750Z 08009G20KT 030V120 9999 OVC020 M03/M07 Q1010=
201401171720 METAR ESMX 171720Z 08010KT 050V130 9999 -SN FEW017 BKN021 OVC062 M03/M07 Q1010=
201401171650 METAR ESMX 171650Z 08009KT 030V140 9999 -SN FEW017 BKN020 OVC030 M03/M07 Q1010=
201401171620 METAR ESMX 171620Z 08010KT 030V130 9999 -SN BKN017 OVC025 M03/M07 Q1010=
201401171550 METAR ESMX 171550Z 09010KT 050V120 9999 -SN FEW018 BKN020 BKN070 M03/M07 Q1009=
201401171520 METAR ESMX 171520Z VRB10G23KT 340V170 9000 -SN BKN017 M03/M06 Q1009=
201401171450 METAR ESMX 171450Z 08010KT 050V110 9999 -SN FEW014 SCT017 BKN020 M03/M06 Q1009=
201401171420 METAR ESMX 171420Z 07009KT 040V120 9999 -SN FEW016 M03/M06 Q1009=
201401171350 METAR ESMX 171350Z 08008KT 040V120 9999 -SN FEW018 M03/M06 Q1009=
201401171320 METAR ESMX 171320Z 08011KT 030V110 9999 -SN FEW017 SCT022 M03/M06 Q1009=
201401171250 METAR ESMX 171250Z 07011KT 030V110 9999 -SN FEW017 SCT083 M03/M05 Q1009=
201401171220 METAR ESMX 171220Z 08010KT 050V130 9000 -SN FEW016 SCT024 M03/M05 Q1009=
201401171150 METAR ESMX 171150Z VRB10KT 280V110 5000 -SN FEW013 SCT019 M03/M05 Q1009=
201401171120 METAR ESMX 171120Z 08011G21KT 040V120 9999 -SN BKN015 M03/M05 Q1009=
201401171050 METAR ESMX 171050Z 08010KT 040V110 4500 -SN BKN014 M03/M05 Q1010=
201401171020 METAR ESMX 171020Z 06009KT 030V110 3200 SN SCT005 BKN015 M04/M05 Q1010=
201401170950 METAR ESMX 170950Z 08010KT 020V110 1500 SN SCT005 BKN014 M04/M05 Q1010=
201401170920 METAR ESMX 170920Z 08011G22KT 050V120 2000 SN SCT005 OVC007 M04/M05 Q1010=
201401170850 METAR ESMX 170850Z 08010G20KT 040V130 2500 SN SCT005 OVC014 M04/M05 Q1010=
201401170820 METAR ESMX 170820Z 09011KT 060V120 3000 SN FEW010 BKN020 M03/M06 Q1010=
201401170750 METAR ESMX 170750Z 09012KT 050V130 9999 -SN BKN020 M03/M06 Q1010=
201401170720 METAR ESMX 170720Z 09014G25KT 050V120 9999 -SN OVC020 M03/M07 Q1009=
201401170650 METAR COR ESMX 170650Z 09011KT 050V120 9999 -SN OVC020 M03/M07 Q1009=
201401170620 METAR ESMX 170620Z 09011G26KT 060V150 9999 OVC020 M03/M07 Q1010=
201401170550 METAR ESMX 170550Z 10012G23KT 060V150 9999 BKN020 OVC080 M03/M07 Q1010=
201401170520 METAR ESMX 170520Z AUTO 09012G23KT 050V120 9999 OVC020/// M03/M07 Q1009=
201401170450 METAR COR ESMX 170450Z 09012G22KT 060V130 9999 BKN020 M03/M07 Q1009=
201401170420 METAR ESMX 170420Z AUTO VRB10KT 360V360 9999 BKN020/// M03/M07 Q1009=
201401170350 METAR ESMX 170350Z AUTO 09011G22KT 060V130 9999 OVC020/// M03/M07 Q1010=
201401170320 METAR ESMX 170320Z AUTO 10010G21KT 040V150 9999 OVC020/// M03/M07 Q1010=
201401170250 METAR ESMX 170250Z AUTO 10011KT 060V140 9999 OVC020/// M03/M07 Q1010=
201401170220 METAR ESMX 170220Z AUTO 09011G26KT 050V120 9999 OVC019/// M03/M07 Q1010=
201401170150 METAR ESMX 170150Z AUTO 09010G21KT 040V120 9999 OVC019/// M03/M07 Q1011=
201401170120 METAR ESMX 170120Z AUTO 10010KT 030V140 9999 OVC019/// M03/M07 Q1011=
201401170050 METAR ESMX 170050Z 10010G21KT 060V150 9999 OVC018 M03/M07 Q1011=
201401170020 METAR ESMX 170020Z 10010KT 050V150 9999 OVC017 M03/M06 Q1011=
201401162350 METAR ESMX 162350Z 09011G23KT 060V130 9999 OVC017 M03/M06 Q1011=
201401162320 METAR ESMX 162320Z 10011G21KT 330V140 9999 OVC016 M03/M06 Q1011=
201401162250 METAR ESMX 162250Z 10010G25KT 060V150 9999 OVC017 M03/M06 Q1011=
201401162220 METAR ESMX 162220Z 10009G19KT 050V160 9999 OVC017 M03/M06 Q1012=
201401162150 METAR ESMX 162150Z 10009G20KT 050V150 9999 OVC016 M03/M06 Q1012=
201401162120 METAR ESMX 162120Z 10010KT 050V210 9999 OVC015 M03/M06 Q1012=
201401162050 METAR ESMX 162050Z 09010KT 030V130 9999 OVC016 M03/M06 Q1012=
201401162020 METAR ESMX 162020Z 09009KT 040V120 9999 OVC016 M03/M06 Q1012=
201401161950 METAR ESMX 161950Z 10008KT 050V180 9999 OVC016 M02/M06 Q1012=
201401161920 METAR ESMX 161920Z 10010G20KT 070V150 9999 OVC016 M02/M06 Q1012=
201401161850 METAR ESMX 161850Z 09011G23KT 050V140 9999 OVC018 M02/M06 Q1012=
201401161820 METAR ESMX 161820Z AUTO 10011KT 040V140 9999 OVC018/// M02/M06 Q1012=
201401161750 METAR ESMX 161750Z 09011KT 050V150 9999 OVC016 M02/M06 Q1012=
201401161720 METAR ESMX 161720Z 11010G23KT 050V150 9999 OVC017 M01/M05 Q1012=
201401161650 METAR ESMX 161650Z 09010KT 020V180 9999 OVC018 M01/M05 Q1012=
201401161620 METAR ESMX 161620Z 10010KT 060V150 9999 OVC017 M01/M05 Q1012=
201401161550 METAR ESMX 161550Z 10010KT 060V140 9999 OVC018 M01/M05 Q1012=
201401161520 METAR ESMX 161520Z 10008KT 050V140 9999 FEW016 BKN018 OVC021 M01/M04 Q1012=
201401161450 METAR ESMX 161450Z 10009G22KT 060V140 9999 BKN016 OVC020 M01/M04 Q1012=
201401161420 METAR ESMX 161420Z 09009KT 030V130 9999 OVC016 M01/M04 Q1013=
201401161350 METAR COR ESMX 161350Z 10010G21KT 050V140 9999 OVC016 M01/M04 Q1013=
201401161320 METAR ESMX 161320Z VRB06KT 290V140 9999 OVC017 M01/M05 Q1013=
201401161250 METAR ESMX 161250Z 09008G20KT 360V130 9999 OVC018 M01/M05 Q1013=
201401161220 METAR ESMX 161220Z 10009G21KT 060V140 9999 OVC018 M01/M05 Q1013=
201401161150 METAR ESMX 161150Z 10011G22KT 060V140 9999 OVC019 M01/M05 Q1013=
201401161120 METAR COR ESMX 161120Z 10009KT 050V150 9999 BKN016 OVC021 M01/M05 Q1013=
201401161050 METAR ESMX 161050Z 09009KT 340V150 9999 OVC017 M01/M05 Q1014=
201401161020 METAR ESMX 161020Z AUTO 10010KT 050V160 9999 OVC017/// M01/M05 Q1014=
201401160950 METAR ESMX 160950Z 11009G20KT 050V160 9999 OVC016 M01/M05 Q1014=
201401160920 METAR ESMX 160920Z 10010G21KT 060V150 9999 OVC016 M01/M05 Q1014=
201401160850 METAR ESMX 160850Z 10008KT 050V150 9999 OVC016 M01/M05 Q1014=
201401160820 METAR ESMX 160820Z 10008KT 060V140 9999 OVC017 M01/M05 Q1014=
201401160750 METAR ESMX 160750Z AUTO 09008KT 050V140 9999 OVC016/// M01/M05 Q1014=
201401160720 METAR ESMX 160720Z 09007KT 050V150 9999 OVC016 M01/M05 Q1014=
201401160649 METAR ESMX 160649Z 10007KT 020V140 9999 OVC017 M01/M05 Q1013=
201401160620 METAR ESMX 160620Z 09007KT 030V140 9999 -SN FEW016 OVC020 M01/M05 Q1013=
201401160550 METAR ESMX 160550Z 10006KT 030V160 9999 OVC017 M01/M05 Q1013=
201401160520 METAR ESMX 160520Z 09009KT 050V130 9999 OVC020 M01/M05 Q1013=
201401160450 METAR ESMX 160450Z 09008KT 050V130 9999 OVC020 M01/M05 Q1013=
201401160420 METAR ESMX 160420Z AUTO 09007KT 010V140 9999 OVC027/// M01/M05 Q1013=
201401160350 METAR ESMX 160350Z AUTO 09007KT 060V150 9999 OVC026/// M01/M04 Q1014=
201401160320 METAR ESMX 160320Z AUTO 09007KT 060V150 9999 FEW013/// OVC024/// M01/M04 Q1014=
201401160250 METAR ESMX 160250Z AUTO 09006KT 060V130 9999 BKN010/// OVC017/// M01/M03 Q1013=
201401160220 METAR ESMX 160220Z AUTO 09007KT 050V120 9999 FEW010/// OVC021/// M01/M03 Q1014=
201401160150 METAR ESMX 160150Z AUTO VRB04KT 300V150 9999 OVC023/// M01/M04 Q1014=
201401160120 METAR ESMX 160120Z AUTO 10006KT 040V160 9999 OVC020/// M01/M04 Q1014=
201401160050 METAR ESMX 160050Z 10005KT 050V170 9999 OVC020 M01/M04 Q1014=
201401160020 METAR ESMX 160020Z 12006KT 070V170 9999 OVC022 M01/M05 Q1014=
201401152350 METAR ESMX 152350Z AUTO 11005KT 070V150 9999 OVC020/// M01/M04 Q1014=
201401152320 METAR ESMX 152320Z 10004KT 060V140 9999 OVC020 M01/M04 Q1014=
201401152250 METAR ESMX 152250Z 10004KT 060V140 9999 OVC019 M01/M04 Q1014=
201401152220 METAR ESMX 152220Z VRB03KT 9999 OVC020 M01/M04 Q1014=
201401152150 METAR ESMX 152150Z 12003KT 080V170 9999 OVC021 M01/M04 Q1014=
201401152120 METAR COR ESMX 152120Z 12004KT 090V180 9999 OVC020 M01/M04 Q1014=
201401152050 METAR ESMX 152050Z 11004KT 060V150 9999 OVC022 M01/M04 Q1014=
201401152020 METAR COR ESMX 152020Z 13004KT 080V190 9999 OVC022 M01/M04 Q1014=
201401151950 METAR ESMX 151950Z AUTO 11003KT 060V150 9999 OVC023/// M01/M04 Q1014=
201401151920 METAR ESMX 151920Z 11005KT 060V160 9999 FEW015 BKN025 M00/M04 Q1013=
201401151850 METAR ESMX 151850Z 12005KT 060V160 9999 FEW015 BKN030 M00/M04 Q1014=
201401151820 METAR COR ESMX 151820Z 12004KT 060V160 9999 FEW015 BKN030 M00/M04 Q1013=
201401151750 METAR ESMX 151750Z 14005KT 100V190 9999 FEW015 BKN031 M00/M03 Q1013=
201401151720 METAR ESMX 151720Z 10003KT 060V160 9999 OVC027 M00/M03 Q1013=
201401151650 METAR ESMX 151650Z VRB03KT 9999 OVC027 M00/M03 Q1013=
201401151620 METAR ESMX 151620Z VRB02KT 9999 FEW020 BKN025 M00/M03 Q1013=
201401151550 METAR ESMX 151550Z VRB03KT 9999 BKN018 OVC026 M00/M04 Q1013=
201401151520 METAR ESMX 151520Z VRB03KT 9999 FEW021 OVC028 M00/M04 Q1013=
201401151450 METAR ESMX 151450Z VRB01KT 9999 BKN028 M00/M04 Q1013=
201401151420 METAR ESMX 151420Z 15004KT 100V210 9999 SCT020 00/M04 Q1013=
201401151349 METAR ESMX 151349Z 13007KT 080V160 9999 BKN020 00/M04 Q1013=
201401151320 METAR COR ESMX 151320Z 10003KT 050V180 9999 BKN020 00/M04 Q1013=
201401151250 METAR ESMX 151250Z 11004KT 060V180 9999 BKN019 00/M04 Q1013=
201401151220 METAR ESMX 151220Z 13006KT 080V160 9999 SCT020 01/M03 Q1012=
201401151150 METAR ESMX 151150Z 13006KT 080V160 9999 SCT021 00/M03 Q1012=
201401151120 METAR ESMX 151120Z 13006KT 090V160 9999 SCT024 M00/M03 Q1012=
201401151050 METAR ESMX 151050Z 12004KT 080V160 9999 BKN024 M00/M03 Q1013=
201401151020 METAR ESMX 151020Z 08004KT 050V110 9999 OVC023 M00/M03 Q1013=
201401150950 METAR ESMX 150950Z 07004KT 9999 OVC025 M01/M03 Q1013=
201401150920 METAR ESMX 150920Z AUTO 06003KT 9999 OVC023/// M01/M03 Q1013=
201401150850 METAR COR ESMX 150850Z 00000KT 9999 OVC021 M01/M03 Q1013=
201401150820 METAR ESMX 150820Z VRB02KT 9999 OVC021 M02/M03 Q1013=
201401150750 METAR ESMX 150750Z 00000KT 9999 OVC022 M02/M03 Q1013=
201401150720 METAR ESMX 150720Z AUTO VRB02KT 9999 OVC022/// M02/M03 Q1013=
201401150650 METAR ESMX 150650Z 08003KT 030V120 9999 OVC022 M02/M03 Q1012=
201401150620 METAR COR ESMX 150620Z 09003KT 060V150 9999 SCT024 OVC053 M02/M03 Q1012=
201401150550 METAR ESMX 150550Z 06003KT 9999 SCT024 OVC053 M02/M03 Q1012=
201401150520 METAR ESMX 150520Z 07003KT 030V100 9999 FEW021 OVC051 M02/M03 Q1012=
201401150450 METAR ESMX 150450Z 08003KT 040V110 9999 BKN020 M01/M03 Q1012=
201401150420 METAR ESMX 150420Z AUTO 07003KT 020V110 9999 OVC050/// M01/M03 Q1012=
201401150350 METAR ESMX 150350Z AUTO 07003KT 030V120 9999 BKN022/// OVC050/// M01/M02 Q1012=
201401150320 METAR ESMX 150320Z AUTO 09003KT 050V170 9999 BKN020/// M01/M02 Q1012=
201401150250 METAR ESMX 150250Z AUTO 07003KT 360V110 9999 OVC017/// M01/M02 Q1012=
201401150220 METAR ESMX 150220Z AUTO 07004KT 9999 FEW023/// M01/M03 Q1012=
201401150150 METAR ESMX 150150Z AUTO 06004KT 020V090 9999 OVC021/// M01/M02 Q1012=
201401150120 METAR ESMX 150120Z AUTO 07004KT 040V120 9999 OVC020/// M01/M02 Q1012=
201401150050 METAR ESMX 150050Z 07004KT 030V100 9999 OVC019 M01/M02 Q1012=
201401150020 METAR ESMX 150020Z 04004KT 9999 BKN018 M01/M02 Q1012=
201401142350 METAR ESMX 142350Z AUTO 04004KT 9999 BKN019/// M01/M02 Q1012=
201401142320 METAR ESMX 142320Z 03005KT 9999 FEW018 M01/M03 Q1012=
201401142250 METAR ESMX 142250Z 04004KT 9999 FEW019 BKN058 M00/M02 Q1012=
201401142220 METAR ESMX 142220Z AUTO 05003KT 020V080 9999 OVC058/// M00/M02 Q1012=
201401142150 METAR ESMX 142150Z 06003KT 030V110 9999 FEW039 OVC062 M00/M02 Q1012=
201401142120 METAR ESMX 142120Z VRB03KT 9999 FEW020 OVC039 00/M01 Q1013=
201401142050 METAR ESMX 142050Z VRB03KT 9999 FEW011 OVC019 00/M01 Q1013=
201401142020 METAR ESMX 142020Z 08004KT 030V120 9999 FEW009 OVC017 00/M01 Q1012=
201401141950 METAR ESMX 141950Z VRB02KT 9999 OVC007 00/M01 Q1013=
201401141920 METAR ESMX 141920Z 08004KT 050V120 9999 SCT007 OVC012 00/M01 Q1012=
201401141850 METAR ESMX 141850Z 08005KT 040V120 9999 BKN006 OVC011 00/M01 Q1012=
201401141820 METAR ESMX 141820Z 08004KT 050V120 9999 SCT006 OVC015 00/M01 Q1012=
201401141750 METAR ESMX 141750Z 07004KT 040V100 9999 FEW015 SCT026 OVC029 00/M01 Q1012=
201401141720 METAR ESMX 141720Z 06004KT 9999 OVC022 00/M02 Q1012=
201401141650 METAR ESMX 141650Z 07004KT 030V110 9999 OVC021 00/M02 Q1012=
201401141620 METAR ESMX 141620Z AUTO 06004KT 9999 OVC019/// 00/M02 Q1012=
201401141550 METAR ESMX 141550Z AUTO 07004KT 030V100 9999 FEW009/// OVC018/// 00/M01 Q1012=
201401141520 METAR ESMX 141520Z VRB03KT 9999 FEW008 OVC015 00/M01 Q1012=
201401141450 METAR ESMX 141450Z 09004KT 060V120 9999 FEW008 OVC012 00/M01 Q1012=
201401141420 METAR ESMX 141420Z VRB03KT 9999 SCT008 OVC011 00/M01 Q1011=
201401141350 METAR ESMX 141350Z 09003KT 060V140 9999 OVC009 00/M01 Q1011=
201401141320 METAR ESMX 141320Z 09004KT 050V120 9999 FEW007 BKN010 00/M01 Q1011=
201401141250 METAR ESMX 141250Z AUTO 09004KT 060V150 9999 FEW008/// OVC010/// 00/M01 Q1011=
201401141220 METAR ESMX 141220Z 10003KT 070V140 9999 FEW006 BKN008 00/M01 Q1011=
201401141150 METAR ESMX 141150Z 09003KT 050V120 9999 OVC006 M00/M01 Q1011=
201401141120 METAR ESMX 141120Z 08003KT 050V120 9999 OVC006 M00/M01 Q1011=
201401141050 METAR ESMX 141050Z 10003KT 030V140 9999 OVC006 M00/M01 Q1011=
201401141020 METAR ESMX 141020Z 10004KT 060V140 5000 -FZDZ OVC006 M01/M02 Q1011=
201401140950 METAR ESMX 140950Z 10004KT 050V160 8000 -FZDZ OVC006 M01/M02 Q1011=
201401140920 METAR COR ESMX 140920Z 09004KT 050V130 4700 -FZDZ OVC007 M01/M02 Q1011=
201401140850 METAR ESMX 140850Z 08004KT 030V120 6000 -FZDZ OVC006 M01/M02 Q1011=
201401140820 METAR ESMX 140820Z 08004KT 360V120 8000 -FZDZ OVC004 M01/M02 Q1011=
201401140750 METAR COR ESMX 140750Z 09004KT 060V130 3200 -FZDZ OVC005 M01/M02 Q1011=
201401140720 METAR COR ESMX 140720Z 07004KT 040V120 4500 -FZDZ OVC009 M01/M02 Q1011=
201401140650 METAR COR ESMX 140650Z 08004KT 050V110 9999 OVC012 M01/M03 Q1011=
201401140620 METAR ESMX 140620Z 08004KT 040V140 9999 FEW010 BKN013 M01/M03 Q1010=
201401140550 METAR ESMX 140550Z 08004KT 050V110 9999 OVC014 M01/M03 Q1010=
201401140520 METAR ESMX 140520Z 09005KT 050V140 9999 OVC016 M01/M03 Q1010=
201401140450 METAR ESMX 140450Z VRB05KT 280V120 9999 OVC016 M01/M03 Q1010=
201401140420 METAR ESMX 140420Z AUTO 09004KT 050V130 9999 OVC018/// M02/M03 Q1010=
201401140350 METAR ESMX 140350Z AUTO 10006KT 060V140 9999 OVC019/// M02/M03 Q1010 REFZDZ=
201401140320 METAR ESMX 140320Z AUTO 09005KT 050V120 9999 -FZRA FEW010/// BKN021/// OVC026/// M02/M03 Q1010=
201401140250 METAR ESMX 140250Z AUTO 09005KT 040V140 9000 BR FEW007/// SCT008/// BKN021/// M02/M03 Q1010=
201401140220 METAR ESMX 140220Z AUTO 10005KT 050V130 9999 FEW007/// SCT010/// BKN022/// M02/M03 Q1010=
201401140150 METAR ESMX 140150Z AUTO 09005KT 040V140 9999 FEW007/// OVC022/// M02/M04 Q1010=
201401140120 METAR ESMX 140120Z 08004KT 020V120 9999 BKN007 OVC024 M02/M04 Q1010=
201401140050 METAR ESMX 140050Z 08005KT 020V140 9999 OVC007 M02/M04 Q1010=
201401140020 METAR ESMX 140020Z 10004KT 060V140 9999 -SN OVC007 M02/M04 Q1011=
201401132350 METAR ESMX 132350Z 10005KT 060V150 9999 OVC008 M03/M04 Q1011=
201401132320 METAR ESMX 132320Z 10005KT 050V210 9999 OVC008 M03/M04 Q1011=
201401132250 METAR ESMX 132250Z AUTO 10006KT 070V140 9999 FEW007/// OVC009/// M03/M04 Q1011=
201401132220 METAR ESMX 132220Z 11005KT 060V150 9000 -SN OVC008 M03/M05 Q1011=
201401132150 METAR ESMX 132150Z 09005KT 050V130 9999 -SN OVC008 M03/M05 Q1011=
201401132120 METAR COR ESMX 132120Z 09005KT 030V130 9999 -SN OVC008 M03/M05 Q1011=
201401132050 METAR ESMX 132050Z 10005KT 010V140 9999 -SN OVC008 M04/M05 Q1011=
201401132020 METAR ESMX 132020Z 10007KT 060V140 9999 -SN OVC007 M04/M05 Q1011=
201401131950 METAR ESMX 131950Z 10006KT 060V140 9999 -SN OVC007 M04/M06 Q1011=
201401131920 METAR ESMX 131920Z 10007KT 060V140 9999 OVC008 M04/M06 Q1012=
201401131850 METAR ESMX 131850Z 10005KT 060V150 9999 OVC008 M04/M06 Q1012=
201401131820 METAR ESMX 131820Z 10004KT 060V150 9999 -SN SCT010 BKN015 M04/M06 Q1012=
201401131750 METAR ESMX 131750Z VRB04KT 020V220 9999 -SN SCT010 BKN017 M05/M07 Q1012=
201401131720 METAR ESMX 131720Z 10005KT 040V150 9999 FEW011 OVC017 M05/M07 Q1012=
201401131650 METAR COR ESMX 131650Z 10006KT 050V140 9999 FEW010 BKN016 M05/M07 Q1012=
201401131620 METAR ESMX 131620Z 09006KT 040V140 9999 FEW015 BKN018 BKN023 M06/M08 Q1013=
201401131550 METAR COR ESMX 131550Z 09006KT 040V140 9999 -SN FEW013 BKN070 M06/M08 Q1013=
201401131520 METAR ESMX 131520Z 11005KT 070V160 9999 FEW013 BKN100 M05/M08 Q1014=
201401131450 METAR ESMX 131450Z 13005KT 080V150 9999 FEW020 BKN100 M05/M08 Q1014=
201401131420 METAR ESMX 131420Z 12004KT 080V170 9999 FEW020 BKN100 M05/M08 Q1014=
201401131350 METAR ESMX 131350Z AUTO 12005KT 070V160 9999 NCD M05/M08 Q1013=
201401131320 METAR ESMX 131320Z 10005KT 060V150 CAVOK M05/M08 Q1013=
201401131250 METAR ESMX 131250Z 09005KT 060V140 CAVOK M05/M08 Q1013=
201401131220 METAR ESMX 131220Z 08005KT 030V160 CAVOK M05/M09 Q1014=
201401131150 METAR ESMX 131150Z 09006KT 030V120 CAVOK M06/M09 Q1014=
201401131120 METAR ESMX 131120Z 08005KT 040V120 CAVOK M06/M09 Q1014=
201401131050 METAR ESMX 131050Z 08003KT CAVOK M06/M09 Q1015=
201401131020 METAR ESMX 131020Z VRB03KT CAVOK M07/M09 Q1015=
201401130950 METAR ESMX 130950Z VRB02KT CAVOK M07/M09 Q1015=
201401130920 METAR ESMX 130920Z 04005KT CAVOK M08/M10 Q1015=
201401130850 METAR ESMX 130850Z 05003KT CAVOK M08/M10 Q1015=
201401130820 METAR ESMX 130820Z VRB02KT CAVOK M08/M10 Q1016=
201401130750 METAR ESMX 130750Z 03005KT CAVOK M09/M10 Q1015=
201401130720 METAR ESMX 130720Z 03004KT CAVOK M09/M11 Q1015=
201401130650 METAR ESMX 130650Z 02003KT 350V060 CAVOK M10/M11 Q1015=
201401130620 METAR ESMX 130620Z 01005KT CAVOK M11/M12 Q1015=
201401130550 METAR ESMX 130550Z 36001KT 9999 FEW008 M11/M12 Q1016=
201401130520 METAR ESMX 130520Z 28003KT 9999 FEW008 M11/M12 Q1016=
201401130450 METAR ESMX 130450Z 33002KT CAVOK M10/M11 Q1015=
201401130420 METAR ESMX 130420Z AUTO 28004KT 9999 NCD M10/M12 Q1016=
201401130350 METAR ESMX 130350Z AUTO 29004KT 9999 NCD M10/M12 Q1016=
201401130320 METAR ESMX 130320Z AUTO 30004KT 9999 NCD M10/M11 Q1016=
201401130250 METAR ESMX 130250Z AUTO 33006KT 290V350 9999 NCD M09/M11 Q1016=
201401130220 METAR ESMX 130220Z AUTO 32005KT 9999 NCD M10/M11 Q1016=
201401130150 METAR ESMX 130150Z AUTO 30005KT 9999 NCD M10/M11 Q1016=
201401130120 METAR ESMX 130120Z AUTO 28005KT 9999 NCD M10/M11 Q1016=
201401130050 METAR ESMX 130050Z 30005KT 9999 FEW012 M10/M11 Q1015=
201401130020 METAR ESMX 130020Z 29005KT 9999 FEW012 M09/M11 Q1015=
201401122350 METAR ESMX 122350Z AUTO 29006KT 9999 FEW012/// M09/M11 Q1015=
201401122320 METAR ESMX 122320Z 31005KT 9999 FEW013 M09/M11 Q1015=
201401122250 METAR ESMX 122250Z 30008KT 9999 FEW014 M09/M10 Q1014=
201401122220 METAR ESMX 122220Z AUTO 30006KT 9999 NCD M09/M11 Q1014=
201401122150 METAR ESMX 122150Z 31007KT 9999 FEW015 M09/M11 Q1014=
201401122120 METAR COR ESMX 122120Z 31008KT 9999 FEW014 SCT024 M08/M11 Q1014=
201401122050 METAR ESMX 122050Z 33011KT 9999 FEW010 SCT018 M08/M11 Q1014=
201401122020 METAR ESMX 122020Z 32010KT 9999 FEW016 SCT020 M08/M11 Q1013=
201401121950 METAR COR ESMX 121950Z 33013KT 9999 FEW018 M08/M11 Q1013=
201401121920 METAR ESMX 121920Z 32011KT 9999 FEW015 SCT019 M07/M10 Q1012=
201401121850 METAR ESMX 121850Z 31011KT 9999 -SN FEW013 BKN019 M07/M10 Q1012=
201401121820 METAR ESMX 121820Z 31014KT 9999 -SN FEW012 BKN018 M07/M10 Q1012=
201401121750 METAR ESMX 121750Z 32016KT 9999 FEW012 SCT016 M07/M10 Q1011=
201401121720 METAR ESMX 121720Z 31017KT 9999 -SNRA FEW012 BKN015 M06/M10 Q1011=
201401121650 METAR ESMX 121650Z 32013KT 9999 FEW015 SCT026 M05/M08 Q1010=
201401121620 METAR ESMX 121620Z 31011KT 9999 -SNRA BKN015 M05/M07 Q1010=
201401121550 METAR ESMX 121550Z 32011KT 9999 FEW015 M05/M08 Q1010=
201401121520 METAR ESMX 121520Z 33015KT 9999 SCT017 M05/M07 Q1010=
201401121450 METAR ESMX 121450Z 31017KT 9999 FEW015 BKN020 M04/M07 Q1009=
201401121420 METAR ESMX 121420Z 32019G30KT 9999 FEW015 BKN025 M03/M07 Q1008=
201401121350 METAR ESMX 121350Z 32017KT 280V340 9999 -FZDZ FEW014 BKN018 M02/M04 Q1007=
201401121320 METAR ESMX 121320Z AUTO 33018KT 9000 FZRA FEW011/// OVC015/// M02/M04 Q1006 RERA=
201401121250 METAR ESMX 121250Z AUTO 32020G33KT 9999 SCT010/// BKN016/// OVC020/// M01/M03 Q1005 RESHRA REFZRA=
201401121220 METAR ESMX 121220Z AUTO 31020G31KT 270V330 9999 -FZRA FEW005/// BKN010/// BKN018/// M00/M01 Q1004 RERA RESHRA=
201401121150 METAR ESMX 121150Z AUTO 27014KT 2500 +RA FEW005/// SCT008/// BKN021/// 02/00 Q1002 RERA=
201401121120 METAR ESMX 121120Z AUTO 27014G26KT 240V300 9999 FEW008/// SCT011/// BKN015/// 02/01 Q1002=
201401121050 METAR ESMX 121050Z AUTO 24012KT 9999 -RA FEW010/// SCT015/// BKN019/// 03/02 Q1002 RERA=
201401121020 METAR ESMX 121020Z AUTO 23011KT 9999 FEW009/// BKN012/// OVC019/// 03/02 Q1002 REDZ=
201401120950 METAR ESMX 120950Z AUTO 22010KT 8000 BR FEW010/// BKN012/// BKN020/// 03/02 Q1003=
201401120920 METAR ESMX 120920Z AUTO 23011KT 9999 BKN039/// 02/01 Q1003=
201401120850 METAR ESMX 120850Z AUTO 21008KT 9999 BKN040/// 02/01 Q1003=
201401120820 METAR ESMX 120820Z AUTO 22007KT 9999 FEW006/// SCT036/// BKN041/// 01/00 Q1004=
201401120750 METAR ESMX 120750Z AUTO 23007KT 9999 FEW004/// BKN005/// OVC024/// 01/00 Q1004=
201401120720 METAR ESMX 120720Z AUTO 21005KT 7000 DZ FEW009/// SCT013/// BKN016/// 00/M00 Q1004=
201401120650 METAR COR ESMX 120650Z 23005KT 4000 SN FEW008 BKN018 00/M01 Q1005=
201401120620 METAR ESMX 120620Z 27005KT 9999 FEW008 SCT021 OVC032 01/M01 Q1005=
201401120550 METAR ESMX 120550Z 30007KT 260V330 9999 FEW005 SCT012 BKN025 01/M01 Q1005=
201401120520 METAR ESMX 120520Z 27006KT 240V320 9999 FEW004 SCT007 BKN012 01/M00 Q1005=
201401120450 METAR ESMX 120450Z AUTO 31004KT 9999 RA FEW010/// SCT018/// BKN025/// 01/M00 Q1004=
201401120420 METAR ESMX 120420Z AUTO 29006KT 9999 FEW013/// SCT026/// BKN030/// 01/M00 Q1004 RERA=
201401120350 METAR ESMX 120350Z AUTO 31007KT 9999 FEW011/// SCT018/// BKN025/// 02/00 Q1003=
201401120320 METAR ESMX 120320Z AUTO 31009KT 9999 -RA FEW008/// SCT011/// BKN015/// 02/01 Q1003 REDZ=
201401120250 METAR ESMX 120250Z AUTO 31006KT 270V330 4900 DZ FEW006/// SCT007/// BKN009/// 02/01 Q1003=
201401120220 METAR ESMX 120220Z AUTO 30006KT 9999 FEW009/// SCT012/// BKN021/// 03/02 Q1002=
201401120150 METAR ESMX 120150Z AUTO 29007KT 9999 FEW014/// OVC023/// 03/02 Q1001=
201401120120 METAR ESMX 120120Z AUTO 29007KT 9999 FEW008/// SCT024/// OVC048/// 02/02 Q1001=
201401120050 METAR ESMX 120050Z AUTO 29008KT 9999 FEW006/// SCT009/// BKN016/// 02/01 Q1001=
201401120020 METAR ESMX 120020Z AUTO 27008KT 9999 DZ FEW006/// SCT007/// BKN008/// 03/02 Q1000=
201401112350 METAR ESMX 112350Z AUTO 27008KT 9999 -DZ FEW006/// OVC008/// 03/02 Q1000=
201401112320 METAR ESMX 112320Z 25008KT 220V280 9999 FEW007 BKN011 03/02 Q1000=
201401112250 METAR COR ESMX 112250Z 27007KT 9999 FEW008 BKN012 03/02 Q1000=
201401112220 METAR COR ESMX 112220Z 27009KT 9999 -RA FEW008 BKN011 03/02 Q0999=
201401112150 METAR ESMX 112150Z 27008KT 9999 FEW008 BKN012 03/02 Q0999=
201401112120 METAR ESMX 112120Z 27008KT 9999 SCT008 BKN013 03/02 Q0999=
201401112050 METAR COR ESMX 112050Z 28006KT 9999 FEW009 BKN015 03/02 Q0999=
201401112020 METAR ESMX 112020Z AUTO 29007KT 9999 FEW007/// SCT011/// BKN017/// 03/02 Q0999=
201401111950 METAR ESMX 111950Z 26007KT 9999 FEW006 BKN008 03/02 Q0999=
201401111920 METAR ESMX 111920Z AUTO 27007KT 9999 FEW007/// SCT009/// BKN011/// 03/02 Q0999=
201401111850 METAR ESMX 111850Z AUTO 27007KT 9999 FEW007/// SCT011/// BKN063/// 03/02 Q0999=
201401111820 METAR ESMX 111820Z AUTO 25005KT 210V280 9999 FEW011/// SCT042/// OVC048/// 03/02 Q0998=
201401111750 METAR ESMX 111750Z AUTO 27004KT 9999 FEW017/// SCT033/// BKN058/// 03/02 Q0998 RERA REDZ=
201401111720 METAR ESMX 111720Z AUTO 30005KT 9999 FEW021/// SCT029/// BKN035/// 03/02 Q0998 REDZ=
201401111650 METAR ESMX 111650Z AUTO 32009KT 7000 DZ FEW006/// SCT009/// BKN011/// 03/02 Q0998=
201401111620 METAR ESMX 111620Z AUTO 23007KT 210V270 3200 -RA FEW004/// BKN005/// OVC009/// 04/03 Q0998=
201401111550 METAR ESMX 111550Z AUTO 20007KT 9999 RA FEW005/// SCT007/// BKN009/// 04/03 Q0998 REDZ=
201401111520 METAR ESMX 111520Z AUTO 21008KT 9000 DZ FEW008/// SCT012/// BKN015/// 04/03 Q0998=
201401111450 METAR ESMX 111450Z AUTO 23009KT 9999 DZ FEW006/// SCT008/// BKN010/// 04/03 Q0999 REDZ=
201401111420 METAR ESMX 111420Z AUTO 22010KT 8000 DZ FEW006/// BKN008/// OVC010/// 05/03 Q0999 REDZ=
201401111350 METAR ESMX 111350Z AUTO 20010KT 6000 DZ FEW005/// SCT008/// BKN010/// 05/03 Q0999 REDZ=
201401111320 METAR ESMX 111320Z AUTO 21010KT 9999 DZ FEW006/// SCT009/// BKN011/// 05/03 Q1000=
201401111250 METAR ESMX 111250Z 21009KT 9999 -DZ FEW006 OVC009 05/04 Q1000=
201401111220 METAR ESMX 111220Z 21010KT 7000 -RA FEW005 BKN008 OVC012 05/04 Q1000=
201401111150 METAR ESMX 111150Z 22010KT 7000 DZ FEW006 SCT008 OVC010 05/04 Q1000=
201401111120 METAR ESMX 111120Z 22010KT 9999 DZ FEW006 SCT007 BKN009 05/04 Q1001 REDZ=
201401111050 METAR ESMX 111050Z AUTO 22010KT 9999 DZ BKN006/// OVC010/// 05/04 Q1001=
201401111020 METAR ESMX 111020Z AUTO 22010KT 9000 -DZ BKN005/// OVC008/// 05/04 Q1001=
201401110950 METAR ESMX 110950Z AUTO 21010KT 9999 OVC005/// 05/04 Q1001=
201401110920 METAR ESMX 110920Z AUTO 23010KT 9999 OVC005/// 05/04 Q1002=
201401110850 METAR ESMX 110850Z AUTO 22010KT 190V250 9000 BR FEW006/// BKN008/// OVC011/// 05/04 Q1002=
201401110820 METAR ESMX 110820Z AUTO 22010KT 6000 BR FEW005/// SCT006/// BKN008/// 04/03 Q1002=
201401110750 METAR ESMX 110750Z AUTO 21010KT 9000 DZ FEW004/// SCT007/// BKN008/// 04/03 Q1002=
201401110720 METAR ESMX 110720Z AUTO 23009KT 7000 -RA FEW005/// BKN007/// OVC010/// 04/03 Q1002=
201401110650 METAR ESMX 110650Z AUTO 22009KT 5000 -DZ FEW006/// OVC008/// 04/03 Q1002=
201401110620 METAR ESMX 110620Z AUTO 23008KT 9999 -RA FEW006/// SCT007/// BKN009/// 04/03 Q1002 REDZ=
201401110550 METAR ESMX 110550Z AUTO 23008KT 8000 DZ FEW007/// SCT009/// OVC010/// 04/03 Q1002=
201401110520 METAR ESMX 110520Z AUTO 23009KT 9999 FEW007/// SCT009/// BKN010/// 04/03 Q1002 RERA=
201401110450 METAR ESMX 110450Z AUTO 22009KT 200V260 7000 BR FEW007/// SCT009/// BKN011/// 04/03 Q1002=
201401110420 METAR ESMX 110420Z AUTO 24009KT 9999 FEW007/// SCT009/// BKN011/// 04/03 Q1002=
201401110350 METAR ESMX 110350Z AUTO 24009KT 9999 -RA FEW006/// BKN009/// 04/03 Q1002 REDZ=
201401110320 METAR ESMX 110320Z AUTO 23009KT 9999 FEW006/// SCT008/// BKN010/// 04/03 Q1002=
201401110250 METAR ESMX 110250Z AUTO 24009KT 9999 -DZ FEW006/// SCT008/// BKN010/// 04/03 Q1002 RERA=
201401110220 METAR ESMX 110220Z AUTO 24009KT 9999 FEW006/// SCT008/// BKN009/// 04/03 Q1003=
201401110150 METAR ESMX 110150Z AUTO 23008KT 4100 BR FEW006/// SCT008/// BKN009/// 04/03 Q1003=
201401110120 METAR ESMX 110120Z AUTO 22008KT 9999 DZ FEW007/// SCT008/// OVC010/// 04/03 Q1003 REDZ=
201401110050 METAR ESMX 110050Z AUTO 22006KT 9999 FEW007/// SCT009/// BKN010/// 03/02 Q1002=
201401110020 METAR ESMX 110020Z AUTO 18006KT 7000 BR FEW007/// SCT009/// BKN024/// 03/02 Q1003=
201401102350 METAR ESMX 102350Z AUTO 20005KT 9999 FEW006/// SCT010/// OVC026/// 02/02 Q1003=
201401102320 METAR ESMX 102320Z AUTO 22005KT 9999 FEW007/// SCT009/// BKN011/// 02/01 Q1003 REDZ=
201401102250 METAR ESMX 102250Z AUTO 20004KT 9999 FEW009/// SCT014/// OVC026/// 01/00 Q1003=
201401102220 METAR ESMX 102220Z AUTO 18004KT 9999 OVC022/// 01/00 Q1003=
201401102150 METAR ESMX 102150Z 17004KT 9999 FEW012 OVC021 01/00 Q1003=
201401102120 METAR ESMX 102120Z VRB02KT 9999 FEW012 OVC022 01/M00 Q1003=
201401102050 METAR COR ESMX 102050Z VRB02KT 9999 FEW008 SCT012 BKN018 01/M00 Q1002=
201401102020 METAR COR ESMX 102020Z 27003KT 9999 FEW008 BKN019 01/M00 Q1002=
201401101950 METAR ESMX 101950Z AUTO 29006KT 260V320 9999 SCT007/// BKN010/// OVC019/// 01/M00 Q1002=
201401101920 METAR ESMX 101920Z AUTO 27007KT 9999 FEW008/// BKN009/// OVC012/// 01/M01 Q1002=
201401101850 METAR ESMX 101850Z 26005KT 9999 FEW010 BKN013 01/M01 Q1002=
201401101820 METAR ESMX 101820Z 28009KT 9999 FEW009 OVC011 01/M01 Q1001=
201401101750 METAR ESMX 101750Z 27006KT 9999 FEW008 BKN010 01/M00 Q1001=
201401101720 METAR ESMX 101720Z 29004KT 9999 OVC010 01/M00 Q1001=
201401101650 METAR ESMX 101650Z 28004KT 250V340 9999 FEW006 OVC011 01/M00 Q1001=
201401101620 METAR ESMX 101620Z 28006KT 260V320 9999 FEW005 BKN012 01/M00 Q1000=
201401101550 METAR ESMX 101550Z 29006KT 9999 BKN015 01/M00 Q1000=
201401101520 METAR ESMX 101520Z 27006KT 9999 FEW010 01/M01 Q1000=
201401101450 METAR COR ESMX 101450Z 28007KT 9999 FEW010 SCT025 01/M01 Q0999=
201401101420 METAR ESMX 101420Z 28007KT 250V310 9999 SCT009 BKN022 01/M00 Q0999=
201401101350 METAR ESMX 101350Z 29007KT 9999 FEW008 BKN023 02/M00 Q0999=
201401101320 METAR ESMX 101320Z 29009KT 9999 SCT006 BKN018 02/M00 Q0998=
201401101250 METAR ESMX 101250Z 27008KT 9999 FEW017 BKN023 02/M00 Q0998 RERA=
201401101220 METAR ESMX 101220Z 26009KT 9999 SCT010 BKN025 02/00 Q0997=
201401101150 METAR ESMX 101150Z 28009KT 250V310 9999 -RA FEW008 SCT010 BKN013 02/00 Q0997=
201401101120 METAR ESMX 101120Z 28010KT 240V310 9999 FEW009 BKN011 OVC016 02/00 Q0997=
201401101050 METAR ESMX 101050Z 29009KT 9999 FEW009 OVC011 01/M00 Q0996=
201401101020 METAR ESMX 101020Z 30010KT 9999 SCT009 OVC011 01/M00 Q0996=
201401100950 METAR ESMX 100950Z 30012KT 9999 FEW009 OVC010 01/M00 Q0995=
201401100920 METAR ESMX 100920Z 29011KT 9999 FEW009 BKN012 BKN016 01/00 Q0995=
201401100850 METAR ESMX 100850Z 30010KT 9000 -DZ FEW008 BKN012 BKN018 01/00 Q0994 RERA=
201401100820 METAR ESMX 100820Z 30013KT 9999 FEW008 SCT012 BKN017 01/M00 Q0993=
201401100750 METAR ESMX 100750Z 30013KT 260V320 9999 FEW009 OVC011 02/00 Q0993=
201401100720 METAR ESMX 100720Z 30014G27KT 9999 FEW010 OVC013 02/00 Q0992=
201401100650 METAR ESMX 100650Z 29013KT 9999 FEW008 BKN011 BKN016 02/00 Q0991=
201401100620 METAR ESMX 100620Z 29013KT 9999 DZ FEW007 SCT009 BKN012 02/01 Q0990=
201401100550 METAR ESMX 100550Z AUTO 29013KT 9999 -DZ FEW008/// BKN011/// OVC015/// 02/01 Q0989=
201401100520 METAR ESMX 100520Z 29014KT 9999 -RASN FEW008 BKN011 BKN016 02/01 Q0988=
201401100450 METAR ESMX 100450Z AUTO 29015KT 9999 -RA FEW008/// OVC012/// 02/00 Q0988=
201401100420 METAR ESMX 100420Z AUTO 29017KT 9999 -RA FEW009/// SCT012/// BKN015/// 02/00 Q0987=
201401100350 METAR ESMX 100350Z AUTO 29014KT 9999 -RA FEW007/// BKN009/// OVC014/// 01/00 Q0986=
201401100320 METAR ESMX 100320Z AUTO 29017KT 8000 -RA FEW007/// SCT009/// BKN010/// 01/00 Q0985=
201401100250 METAR ESMX 100250Z AUTO 29016G26KT 9999 -RA FEW006/// BKN008/// BKN012/// 02/01 Q0984 REDZ=
201401100220 METAR ESMX 100220Z AUTO 28018G32KT 2400 -DZ FEW004/// BKN006/// OVC008/// 03/02 Q0983=
201401100150 METAR ESMX 100150Z 25009KT 3500 -RA OVC003 04/03 Q0982=
201401100120 METAR ESMX 100120Z 25009KT 4700 -RA BKN005 OVC008 04/03 Q0982 REDZ=
201401100050 METAR ESMX 100050Z 26009KT 9999 OVC007 04/02 Q0981=
201401100020 METAR ESMX 100020Z 26012KT 9999 FEW009 OVC010 04/02 Q0981=
201401092350 METAR ESMX 092350Z 25010KT 210V280 9999 FEW008 SCT009 BKN012 04/03 Q0981=
201401092320 METAR ESMX 092320Z 24010KT 9000 BR FEW006 SCT008 BKN010 05/04 Q0981=
201401092250 METAR ESMX 092250Z 19007KT 9999 FEW007 SCT011 BKN019 05/04 Q0981=
201401092220 METAR ESMX 092220Z 18009KT 9999 FEW007 SCT015 BKN018 06/04 Q0982=
201401092150 METAR ESMX 092150Z 19009KT 9999 FEW009 SCT015 BKN021 06/05 Q0982 REDZ=
201401092120 METAR ESMX 092120Z 19010KT 9999 FEW011 SCT018 BKN022 06/05 Q0982 REDZ=
201401092050 METAR ESMX 092050Z 21010KT 9999 FEW024 BKN037 06/04 Q0983=
201401092020 METAR ESMX 092020Z 22012KT 9999 DZ FEW011 BKN034 BKN043 06/05 Q0983 RERA=
201401091950 METAR ESMX 091950Z 22013KT 7000 FEW010 SCT017 BKN020 06/05 Q0984=
201401091920 METAR ESMX 091920Z 17014KT 9999 FEW004 SCT006 BKN008 07/06 Q0984=
201401091850 METAR ESMX 091850Z 15007KT 9000 -RA FEW005 SCT006 BKN009 06/05 Q0985=
201401091820 METAR ESMX 091820Z 17009KT 9999 FEW005 SCT008 BKN011 06/05 Q0985=
201401091750 METAR COR ESMX 091750Z 17009KT 9999 SCT004 BKN007 06/05 Q0986=
201401091720 METAR ESMX 091720Z 16010KT 9999 OVC002 06/05 Q0987 RERA=
201401091650 METAR ESMX 091650Z 16008KT 9999 FEW003 SCT006 BKN010 05/04 Q0988=
201401091620 METAR ESMX 091620Z 15006KT 110V180 9999 -DZ SCT004 BKN008 05/04 Q0989=
201401091550 METAR ESMX 091550Z 16009KT 120V200 4200 RA FEW004 BKN005 OVC007 05/04 Q0990=
201401091520 METAR ESMX 091520Z 14009KT 110V170 9000 RA OVC004 05/04 Q0991=
201401091450 METAR COR ESMX 091450Z 14007KT 110V170 6000 RA OVC004 05/04 Q0991=
201401091420 METAR ESMX 091420Z 13006KT 100V170 6000 RA OVC005 04/03 Q0993=
201401091350 METAR ESMX 091350Z 10006KT 060V160 5000 -RA FEW005 BKN006 04/03 Q0994=
201401091320 METAR ESMX 091320Z 11005KT 060V150 7000 -RA BKN004 OVC008 03/03 Q0995=
201401091250 METAR ESMX 091250Z 10005KT 060V140 7000 -RA FEW005 SCT008 BKN010 03/02 Q0996=
201401091220 METAR COR ESMX 091220Z 12004KT 080V160 8000 -RA FEW006 SCT016 03/02 Q0997=
201401091150 METAR ESMX 091150Z 17010KT 6000 -RA SCT006 BKN009 BKN016 04/02 Q0999=
201401091120 METAR ESMX 091120Z 16008KT 9999 -RA FEW004 SCT010 BKN013 04/03 Q1000=
201401091050 METAR ESMX 091050Z 16006KT 7000 -RA FEW005 SCT007 BKN009 05/04 Q1001=
201401091020 METAR ESMX 091020Z 16007KT 9000 -RA FEW005 BKN008 05/04 Q1002=
201401090950 METAR ESMX 090950Z 18010KT 9999 BKN005 OVC008 05/04 Q1003=
201401090920 METAR ESMX 090920Z 19009KT 9999 BKN006 OVC009 05/04 Q1003=
201401090850 METAR ESMX 090850Z 21009KT 9999 SCT006 BKN008 05/04 Q1003=
201401090820 METAR ESMX 090820Z 19009KT 9999 FEW006 BKN008 OVC025 05/04 Q1004=
201401090750 METAR ESMX 090750Z 21007KT 9999 FEW007 OVC023 05/04 Q1004=
201401090720 METAR ESMX 090720Z 23009KT 9999 FEW007 BKN011 05/04 Q1004=
201401090650 METAR ESMX 090650Z 21009KT 9999 FEW005 BKN008 05/04 Q1004=
201401090620 METAR ESMX 090620Z 21008KT 6000 BR FEW005 BKN007 05/04 Q1004=
201401090550 METAR ESMX 090550Z 22008KT 6000 BR FEW005 BKN007 05/04 Q1004=
201401090520 METAR ESMX 090520Z 21008KT 9999 FEW006 SCT008 05/04 Q1005=
201401090450 METAR ESMX 090450Z AUTO 22009KT 9999 FEW006/// SCT007/// BKN009/// 05/04 Q1005=
201401090420 METAR ESMX 090420Z AUTO 24009KT 210V360 7000 BR FEW005/// OVC007/// 05/04 Q1005=
201401090350 METAR ESMX 090350Z AUTO 24009KT 5000 BR FEW005/// SCT006/// BKN007/// 05/04 Q1005 REDZ=
201401090320 METAR ESMX 090320Z AUTO 24007KT 9999 FEW005/// SCT011/// BKN021/// 05/04 Q1005=
201401090250 METAR ESMX 090250Z AUTO 25007KT 2900 DZ FEW005/// SCT008/// BKN010/// 05/05 Q1005 REDZ=
201401090220 METAR ESMX 090220Z AUTO 24009KT 4400 +DZ FEW008/// SCT012/// BKN019/// 06/04 Q1005=
201401090150 METAR ESMX 090150Z AUTO 23010KT 9999 FEW010/// BKN028/// 06/04 Q1005=
201401090120 METAR ESMX 090120Z 23010KT 9999 FEW009 SCT013 BKN018 06/04 Q1005 REDZ=
201401090050 METAR ESMX 090050Z 24010KT 6000 -RADZ FEW008 BKN010 OVC016 06/05 Q1005 REDZ=
201401090020 METAR ESMX 090020Z AUTO 23009KT 9999 FEW008/// BKN010/// OVC017/// 06/05 Q1005=
201401082350 METAR ESMX 082350Z 23010KT 9999 FEW008 BKN012 BKN017 06/05 Q1005 REDZ=
201401082320 METAR ESMX 082320Z 23009KT 8000 BR FEW009 BKN013 BKN019 06/05 Q1005=
201401082250 METAR ESMX 082250Z 22008KT 9999 FEW008 SCT012 BKN014 06/05 Q1005 RERA=
201401082220 METAR ESMX 082220Z 24010KT 9999 FEW007 BKN011 BKN023 06/05 Q1005=
201401082150 METAR ESMX 082150Z 23008KT 9999 FEW008 OVC010 06/05 Q1005=
201401082120 METAR ESMX 082120Z 23010KT 8000 DZ FEW009 SCT012 BKN014 06/05 Q1005=
201401082050 METAR ESMX 082050Z 22011KT 9999 FEW008 SCT015 BKN028 06/05 Q1005=
201401082020 METAR ESMX 082020Z 22009KT 9999 FEW011 SCT017 OVC032 06/04 Q1005=
201401081950 METAR ESMX 081950Z 23010KT 200V270 6000 -RA FEW011 BKN014 BKN022 06/05 Q1005 REDZ=
201401081920 METAR ESMX 081920Z 21011KT 9999 SCT012 BKN018 BKN023 06/04 Q1005=
201401081850 METAR ESMX 081850Z AUTO 22010KT 9999 BKN012/// OVC020/// 06/04 Q1005=
201401081820 METAR ESMX 081820Z 24010KT 210V270 9999 BKN011 OVC019 07/05 Q1005=
201401081750 METAR ESMX 081750Z 24009KT 9999 FEW012 BKN014 OVC021 07/05 Q1005=
201401081720 METAR ESMX 081720Z 23009KT 180V260 9999 FEW010 BKN012 07/05 Q1005=
201401081650 METAR ESMX 081650Z 23009KT 9999 FEW009 BKN012 06/05 Q1005=
201401081620 METAR ESMX 081620Z 22010KT 9999 OVC011 07/05 Q1005=
201401081550 METAR ESMX 081550Z 22009KT 9999 FEW011 BKN014 07/05 Q1005=
201401081520 METAR ESMX 081520Z 24010KT 9999 FEW011 BKN014 07/05 Q1004=
201401081450 METAR ESMX 081450Z 22010KT 9999 FEW010 BKN014 07/05 Q1004 RERA=
201401081420 METAR ESMX 081420Z 22009KT 9999 FEW011 SCT017 07/05 Q1004=
201401081350 METAR ESMX 081350Z AUTO 22009KT 9999 SCT012/// BKN017/// OVC024/// 07/05 Q1004=
201401081320 METAR ESMX 081320Z 24007KT 210V270 9999 FEW011 SCT014 07/05 Q1004=
201401081250 METAR ESMX 081250Z 24008KT 9999 FEW008 SCT012 BKN015 07/05 Q1004=
201401081220 METAR ESMX 081220Z AUTO 23010KT 9999 FEW007/// SCT012/// BKN015/// 07/06 Q1004=
201401081150 METAR ESMX 081150Z AUTO 23009KT 7000 DZ FEW007/// SCT008/// OVC011/// 07/06 Q1004 REDZ=
201401081120 METAR ESMX 081120Z 21010KT 9000 BR FEW008 BKN011 07/05 Q1004=
201401081050 METAR ESMX 081050Z 22011KT 9999 -RA SCT009 BKN012 07/05 Q1004 RERA=
201401081020 METAR COR ESMX 081020Z 20010KT 9999 SCT009 BKN012 07/05 Q1004=
201401080950 METAR ESMX 080950Z 21011KT 9999 OVC010 07/05 Q1005=
201401080920 METAR ESMX 080920Z 20012KT 9999 BKN010 07/05 Q1005=
201401080850 METAR COR ESMX 080850Z 21012KT 9999 SCT010 BKN015 07/05 Q1005=
201401080820 METAR ESMX 080820Z 20011KT 9999 -DZ FEW009 SCT012 BKN016 07/05 Q1005 REDZ=
201401080750 METAR ESMX 080750Z 20013KT 9999 SCT008 BKN010 07/05 Q1004=
201401080720 METAR ESMX 080720Z 21011KT 9999 SCT008 BKN010 07/05 Q1004=
201401080650 METAR COR ESMX 080650Z 21011KT 9999 SCT008 BKN010 06/05 Q1004=
201401080620 METAR ESMX 080620Z 20012KT 9999 SCT008 OVC010 06/05 Q1004=
201401080550 METAR ESMX 080550Z 21013KT 9999 -DZ FEW009 BKN010 OVC025 06/05 Q1004=
201401080520 METAR ESMX 080520Z 21013KT 9999 FEW009 OVC011 06/05 Q1004=
201401080450 METAR ESMX 080450Z 21013KT 9999 FEW009 OVC012 06/05 Q1004=
201401080420 METAR ESMX 080420Z AUTO 21012KT 9999 BKN010/// BKN015/// 06/05 Q1004=
201401080350 METAR ESMX 080350Z AUTO 21012KT 9999 OVC010/// 06/05 Q1004=
201401080320 METAR ESMX 080320Z AUTO 21012KT 9999 -RA FEW009/// BKN011/// BKN015/// 06/05 Q1004 RERA=
201401080250 METAR ESMX 080250Z AUTO 22011KT 9999 FEW010/// BKN013/// OVC037/// 06/05 Q1005=
201401080220 METAR ESMX 080220Z AUTO 21011KT 9999 SCT010/// BKN014/// OVC019/// 07/05 Q1005=
201401080150 METAR ESMX 080150Z AUTO 23012KT 200V260 9999 FEW009/// SCT011/// BKN014/// 07/05 Q1005=
201401080120 METAR ESMX 080120Z AUTO 21013KT 8000 BR BKN010/// OVC018/// 07/05 Q1004=
201401080050 METAR ESMX 080050Z 20015KT 9999 FEW009 OVC015 07/05 Q1004=
201401080020 METAR ESMX 080020Z 20015KT 9999 FEW008 BKN011 07/06 Q1004=
201401072350 METAR ESMX 072350Z 20015KT 9999 -DZ FEW007 OVC010 07/06 Q1004=
201401072320 METAR ESMX 072320Z 21013KT 8000 -RA FEW006 OVC010 07/06 Q1004=
201401072250 METAR ESMX 072250Z 19015KT 9000 -RA FEW008 BKN011 BKN019 07/06 Q1004=
201401072220 METAR ESMX 072220Z 20011KT 8000 -RA FEW007 BKN010 07/06 Q1004=
201401072150 METAR ESMX 072150Z 19016KT 5000 RA FEW007 OVC011 07/06 Q1004=
201401072120 METAR ESMX 072120Z 19015KT 9999 BKN010 BKN016 07/06 Q1004 REDZ=
201401072050 METAR ESMX 072050Z 19016KT 9999 FEW009 OVC011 07/06 Q1005=
201401072020 METAR ESMX 072020Z 19014KT 9999 FEW007 BKN009 07/06 Q1005=
201401071950 METAR ESMX 071950Z 19015KT 9999 OVC006 07/06 Q1005=
201401071920 METAR ESMX 071920Z 19014KT 9999 -RA OVC006 07/06 Q1005=
201401071850 METAR ESMX 071850Z 19014KT 7000 -DZ OVC005 07/06 Q1005=
201401071820 METAR ESMX 071820Z 19013KT 9000 -RA OVC006 07/06 Q1005=
201401071750 METAR ESMX 071750Z 19014KT 9999 SCT008 BKN010 07/06 Q1005 REDZ=
201401071720 METAR ESMX 071720Z 20012KT 9999 SCT006 BKN010 07/06 Q1005 RERA=
201401071650 METAR ESMX 071650Z 19012KT 9999 SCT006 BKN009 07/06 Q1005=
201401071620 METAR ESMX 071620Z AUTO 19011KT 9000 BR FEW007/// SCT009/// BKN015/// 07/06 Q1005=
201401071550 METAR ESMX 071550Z 19009KT 9999 FEW011 SCT015 BKN018 07/06 Q1006=
201401071520 METAR ESMX 071520Z 20010KT 9999 FEW011 SCT015 BKN022 07/06 Q1005=
201401071450 METAR ESMX 071450Z 20011KT 9999 FEW011 SCT017 BKN019 07/06 Q1005=
201401071420 METAR ESMX 071420Z 21011KT 9000 BR SCT006 BKN010 07/06 Q1005 REDZ=
201401071350 METAR ESMX 071350Z 22011KT 9999 SCT009 BKN010 07/06 Q1005=
201401071320 METAR ESMX 071320Z 22012KT 9999 FEW007 BKN010 OVC017 08/06 Q1005 REDZ=
201401071250 METAR ESMX 071250Z 22011KT 9999 FEW009 SCT011 BKN014 08/06 Q1004 REDZ=
201401071220 METAR ESMX 071220Z 21011KT 9999 BKN010 OVC020 08/06 Q1004=
201401071150 METAR ESMX 071150Z 22010KT 9999 SCT010 BKN013 08/06 Q1004=
201401071120 METAR ESMX 071120Z 21009KT 9999 FEW008 BKN011 OVC015 07/06 Q1003=
201401071050 METAR ESMX 071050Z 22010KT 9999 FEW005 BKN006 07/06 Q1003=
201401071020 METAR ESMX 071020Z 22010KT 5000 BR OVC004 07/06 Q1003 REDZ=
201401070950 METAR ESMX 070950Z 22009KT 6000 -RA BKN005 07/06 Q1003=
201401070920 METAR ESMX 070920Z 21009KT 5000 BR FEW008 OVC010 07/06 Q1003=
201401070850 METAR ESMX 070850Z 22010KT 7000 BR BKN004 OVC006 07/06 Q1002=
201401070820 METAR ESMX 070820Z 21008KT 9999 BKN005 06/06 Q1002=
201401070750 METAR ESMX 070750Z 18009KT 9000 BR FEW005 BKN010 06/05 Q1002=
201401070720 METAR ESMX 070720Z 18008KT 9999 -DZ SCT004 BKN035 06/05 Q1001 RERA=
201401070650 METAR ESMX 070650Z 20008KT 9999 -DZ FEW004 BKN007 06/05 Q1001=
201401070620 METAR ESMX 070620Z 19008KT 9999 -RA FEW002 BKN003 06/05 Q1001=
201401070550 METAR ESMX 070550Z AUTO 19008KT 9999 -RA BKN002/// 06/05 Q1001=
201401070520 METAR ESMX 070520Z 18008KT 7000 -RA OVC002 06/05 Q1000=
201401070450 METAR ESMX 070450Z 18008KT 9000 -DZ OVC002 06/05 Q1000=
201401070420 METAR ESMX 070420Z AUTO 17007KT 8000 -RA OVC002/// 06/05 Q1000=
201401070350 METAR ESMX 070350Z AUTO 17008KT 6000 -DZ OVC002/// 06/05 Q1000=
201401070320 METAR ESMX 070320Z AUTO 17008KT 5000 -RA OVC001/// 06/05 Q1001 REDZ=
201401070250 METAR ESMX 070250Z AUTO 17007KT 1900 DZ VV002 06/05 Q1001=
201401070220 METAR ESMX 070220Z AUTO 17008KT 1200 R01/P2000N R19/P2000N DZ VV002 06/05 Q1001=
201401070150 METAR ESMX 070150Z AUTO 17007KT 1300 R01/P2000N R19/P2000N BR VV002 06/05 Q1002=
201401070120 METAR ESMX 070120Z AUTO 17008KT 1100 R01/P2000N R19/P2000N BR VV002 06/05 Q1002=
201401070050 METAR ESMX 070050Z 17010KT 1300 R01/P2000N R19/P2000N RA OVC002 06/05 Q1002=
201401070020 METAR ESMX 070020Z 17012KT 1200 R01/P2000N R19/P2000N DZ BR OVC002 06/05 Q1002=
201401062350 METAR ESMX 062350Z 16009KT 2200 DZ BR OVC002 06/06 Q1002=
201401062320 METAR ESMX 062320Z 17010KT 3000 BR OVC002 06/06 Q1002=
201401062250 METAR ESMX 062250Z 18010KT 5000 BR OVC002 06/06 Q1002=
201401062220 METAR ESMX 062220Z 18013KT 4100 BR OVC002 06/06 Q1002=
201401062150 METAR ESMX 062150Z 17012KT 1900 DZ BR OVC001 06/06 Q1002=
201401062120 METAR ESMX 062120Z 17010KT 1000 R01/P2000N R19/P2000N FG VV002 06/05 Q1002=
201401062050 METAR ESMX 062050Z 17009KT 1000 R01/P2000N R19/P2000N FG VV002 05/05 Q1002=
201401062020 METAR ESMX 062020Z 17008KT 0900 R01/1800VP2000N R19/P2000N FG VV002 05/04 Q1002=
201401061950 METAR ESMX 061950Z 16009KT 1200 R01/P2000N R19/P2000N DZ BR VV002 05/04 Q1002=
201401061920 METAR ESMX 061920Z 16008KT 2500 DZ BR OVC002 05/04 Q1002=
201401061850 METAR ESMX 061850Z 16008KT 4500 -DZ BR OVC002 04/04 Q1002=
201401061820 METAR ESMX 061820Z 17010KT 2900 BR OVC002 04/04 Q1002=
201401061750 METAR ESMX 061750Z 18011KT 3900 BR SCT002 OVC003 04/03 Q1002=
201401061720 METAR ESMX 061720Z 19011KT 9999 SCT003 BKN004 04/03 Q1002=
201401061650 METAR ESMX 061650Z 18013KT 9999 OVC004 04/03 Q1002=
201401061620 METAR ESMX 061620Z 17012KT 9999 SCT004 OVC005 04/03 Q1002=
201401061550 METAR ESMX 061550Z 17011KT 9999 -RA OVC004 03/02 Q1002 REDZ=
201401061520 METAR ESMX 061520Z 17013KT 4100 -RA OVC004 03/02 Q1002 REDZ=
201401061450 METAR ESMX 061450Z 17013KT 8000 -RA OVC005 03/02 Q1002=
201401061420 METAR ESMX 061420Z AUTO 17012KT 3400 BR FEW007/// SCT009/// OVC010/// 03/02 Q1002=
201401061350 METAR ESMX 061350Z 17012KT 9999 -RA FEW011 BKN037 04/02 Q1002=
201401061320 METAR ESMX 061320Z 15012KT 130V200 9999 -RA FEW012 SCT021 BKN048 04/02 Q1003=
201401061250 METAR ESMX 061250Z 17013KT 9999 SCT013 BKN048 04/02 Q1003=
201401061220 METAR ESMX 061220Z AUTO 17014KT 9999 SCT014/// BKN018/// OVC051/// 04/01 Q1003=
201401061150 METAR ESMX 061150Z AUTO 16015KT 9999 FEW015/// SCT018/// BKN058/// 04/01 Q1003=
201401061120 METAR ESMX 061120Z AUTO 16011KT 9999 FEW010/// BKN060/// 04/02 Q1003=
201401061050 METAR ESMX 061050Z AUTO 16011KT 9999 FEW009/// BKN011/// BKN071/// 04/02 Q1004=
201401061020 METAR ESMX 061020Z AUTO 16010KT 9999 FEW008/// SCT009/// BKN012/// 03/02 Q1005=
201401060950 METAR ESMX 060950Z AUTO 16009KT 9999 FEW006/// OVC007/// 03/02 Q1005=
201401060920 METAR ESMX 060920Z AUTO 17010KT 140V200 9999 OVC006/// 03/01 Q1005=
201401060850 METAR ESMX 060850Z AUTO 16010KT 9999 BKN006/// BKN094/// 02/01 Q1006=
201401060820 METAR ESMX 060820Z AUTO 16007KT 9999 SCT007/// BKN095/// 02/01 Q1006=
201401060750 METAR ESMX 060750Z AUTO 17008KT 140V200 9999 BKN007/// 02/01 Q1006=
201401060720 METAR ESMX 060720Z AUTO 16008KT 9999 OVC007/// 03/01 Q1006=
201401060650 METAR ESMX 060650Z AUTO 16008KT 9999 FEW007/// OVC009/// 02/01 Q1005=
201401060620 METAR ESMX 060620Z AUTO 17007KT 9999 BKN006/// OVC009/// 02/01 Q1006=
201401060550 METAR ESMX 060550Z AUTO 17006KT 9999 FEW005/// SCT007/// OVC011/// 02/01 Q1006=
201401060520 METAR ESMX 060520Z AUTO 18005KT 9999 FEW012/// OVC015/// 02/01 Q1006=
201401060450 METAR ESMX 060450Z AUTO 19005KT 8000 BR FEW013/// OVC015/// 01/01 Q1006=
201401060420 METAR ESMX 060420Z AUTO 19005KT 8000 BR SCT004/// 01/00 Q1006=
201401060350 METAR ESMX 060350Z AUTO 20005KT 9999 FEW005/// SCT007/// BKN008/// 01/00 Q1006=
201401060320 METAR ESMX 060320Z AUTO 22004KT 9999 FEW008/// 02/01 Q1006=
201401060250 METAR ESMX 060250Z AUTO 23008KT 190V260 9999 FEW008/// SCT013/// BKN025/// 03/02 Q1006=
201401060220 METAR ESMX 060220Z AUTO 21006KT 9999 FEW009/// BKN026/// 03/02 Q1006=
201401060150 METAR ESMX 060150Z AUTO 23005KT 9999 FEW026/// SCT029/// 03/01 Q1006=
201401060120 METAR ESMX 060120Z AUTO 23008KT 9999 FEW015/// OVC024/// 04/02 Q1006=
201401060050 METAR ESMX 060050Z AUTO 24007KT 9999 FEW010/// OVC027/// 03/02 Q1005=
201401060020 METAR ESMX 060020Z AUTO 24008KT 9999 FEW007/// SCT011/// BKN027/// 03/02 Q1005=
201401052350 METAR ESMX 052350Z AUTO 24009KT 9999 FEW007/// SCT008/// BKN010/// 04/03 Q1005=
201401052320 METAR ESMX 052320Z AUTO 23009KT 9999 FEW006/// BKN008/// OVC010/// 04/03 Q1004=
201401052250 METAR ESMX 052250Z AUTO 25008KT 9999 BKN005/// OVC009/// 04/03 Q1004=
201401052220 METAR ESMX 052220Z AUTO 25008KT 9999 FEW004/// OVC005/// 04/03 Q1003=
201401052150 METAR ESMX 052150Z AUTO 24009KT 210V270 9999 FEW005/// OVC007/// 04/03 Q1003=
201401052120 METAR ESMX 052120Z AUTO 24008KT 9999 OVC006/// 04/03 Q1002=
201401052050 METAR ESMX 052050Z AUTO 24008KT 210V270 9999 FEW006/// BKN008/// OVC014/// 04/03 Q1002=
201401052020 METAR ESMX 052020Z AUTO 23006KT 9999 FEW004/// SCT007/// BKN009/// 04/03 Q1002=
201401051950 METAR ESMX 051950Z AUTO 22005KT 4900 -RA FEW002/// SCT003/// BKN004/// 04/03 Q1002=
201401051920 METAR ESMX 051920Z AUTO 17004KT 3800 BR OVC001/// 04/03 Q1002=
201401051850 METAR ESMX 051850Z AUTO VRB03KT 1900 DZ BKN001/// OVC004/// 04/03 Q1002=
201401051820 METAR ESMX 051820Z 14004KT 100V170 2500 -RA OVC002 04/03 Q1002 REDZ=
201401051750 METAR COR ESMX 051750Z 14003KT 100V170 1600 -DZ OVC002 04/03 Q1001=
201401051720 METAR ESMX 051720Z 13003KT 080V190 4600 BR OVC002 04/03 Q1001=
201401051650 METAR COR ESMX 051650Z VRB03KT 3500 BR OVC002 04/03 Q1001 REDZ=
201401051620 METAR ESMX 051620Z 11004KT 050V150 4000 BR OVC003 04/03 Q1001=
201401051550 METAR ESMX 051550Z 10004KT 060V150 4400 -DZ OVC005 04/03 Q1001=
201401051520 METAR ESMX 051520Z 08004KT 030V150 5000 DZ SCT003 BKN005 04/03 Q1001 REDZ=
201401051450 METAR ESMX 051450Z 10003KT 040V140 5000 -DZ SCT003 BKN005 04/03 Q1001=
201401051420 METAR ESMX 051420Z AUTO 10005KT 070V130 3900 DZ OVC001/// 04/03 Q1001=
201401051350 METAR ESMX 051350Z AUTO 09005KT 020V140 3700 BR OVC002/// 04/03 Q1001=
201401051320 METAR ESMX 051320Z AUTO 08006KT 050V120 6000 BR OVC003/// 04/03 Q1001=
201401051250 METAR ESMX 051250Z AUTO 09006KT 050V120 9999 OVC004/// 04/03 Q1001=
201401051220 METAR ESMX 051220Z AUTO 07005KT 040V110 9999 OVC005/// 05/03 Q1001=
201401051150 METAR ESMX 051150Z AUTO 09007KT 030V140 9999 OVC006/// 05/03 Q1001=
201401051120 METAR ESMX 051120Z AUTO 10006KT 050V140 9999 OVC008/// 05/03 Q1001=
201401051050 METAR ESMX 051050Z AUTO 10006KT 030V150 9999 OVC009/// 05/03 Q1001=
201401051020 METAR ESMX 051020Z AUTO 10006KT 060V150 9999 FEW011/// 05/03 Q1001=
201401050950 METAR ESMX 050950Z AUTO 10005KT 050V150 9999 NCD 04/02 Q1002=
201401050920 METAR ESMX 050920Z AUTO 11004KT 040V150 9999 NCD 04/02 Q1002=
201401050850 METAR ESMX 050850Z AUTO 08003KT 030V140 9999 NCD 04/02 Q1001=
201401050820 METAR ESMX 050820Z AUTO 07004KT 040V110 9999 NCD 04/02 Q1001=
201401050750 METAR ESMX 050750Z AUTO 07004KT 030V120 9999 NCD 03/02 Q1002=
201401050720 METAR ESMX 050720Z AUTO 08004KT 030V120 9999 NCD 04/02 Q1002=
201401050650 METAR ESMX 050650Z 10003KT 050V140 CAVOK 04/02 Q1002=
201401050620 METAR ESMX 050620Z 11003KT 070V150 CAVOK 04/02 Q1002=
201401050550 METAR ESMX 050550Z 08005KT 040V110 CAVOK 03/03 Q1002=
201401050520 METAR ESMX 050520Z 08005KT 040V140 9999 FEW045 03/03 Q1002=
201401050450 METAR ESMX 050450Z AUTO 08004KT 020V170 9999 FEW100/// 03/02 Q1003=
201401050420 METAR ESMX 050420Z AUTO 11004KT 060V200 9999 NCD 02/02 Q1003=
201401050350 METAR ESMX 050350Z AUTO VRB03KT 9999 NCD 02/02 Q1003=
201401050320 METAR ESMX 050320Z AUTO 12004KT 070V160 9999 NCD 02/02 Q1003=
201401050250 METAR ESMX 050250Z AUTO 12005KT 070V160 9999 NCD 02/02 Q1004=
201401050220 METAR ESMX 050220Z AUTO 09004KT 060V120 9999 NCD 02/01 Q1004=
201401050150 METAR ESMX 050150Z AUTO VRB03KT 9999 NCD 01/01 Q1004=
201401050120 METAR ESMX 050120Z AUTO VRB03KT 9999 FEW003/// 01/01 Q1004=
201401050050 METAR ESMX 050050Z AUTO VRB02KT 8000 NCD 01/00 Q1004=
201401050020 METAR ESMX 050020Z AUTO VRB01KT 3400 BKN001/// 01/01 Q1004=
201401042350 METAR ESMX 042350Z AUTO VRB03KT 1800 VV002 02/01 Q1004=
201401042320 METAR ESMX 042320Z AUTO 11003KT 070V170 0800 R01/1500VP2000N R19/P2000N FG VV002 02/01 Q1005=
201401042250 METAR ESMX 042250Z AUTO 13003KT 070V180 0400 R01/1000V1200N R19/1700VP2000D FG VV001 02/01 Q1005=
201401042220 METAR ESMX 042220Z AUTO 15005KT 110V170 0500 R01/1100V1500N R19/1700VP2000N FG VV002 02/01 Q1005=
201401042150 METAR ESMX 042150Z 15006KT 0500 R01/1000V1300N R19/1300V1700U FG VV002 02/01 Q1006=
201401042120 METAR ESMX 042120Z 15007KT 0550 R01/1000V1300U R19/1200V1700U FG VV002 02/01 Q1006=
201401042050 METAR ESMX 042050Z 15008KT 120V190 0500 R01/1200V1400N R19/1100VP2000D FG VV002 02/01 Q1006=
201401042020 METAR ESMX 042020Z 13005KT 3800 BR FEW002 02/01 Q1005=
201401041950 METAR ESMX 041950Z 14005KT 5000 BR NSC 02/01 Q1005=
201401041920 METAR ESMX 041920Z 15004KT 5000 BR NSC 02/01 Q1005=
201401041850 METAR ESMX 041850Z AUTO 16003KT 7000 BR NCD 02/01 Q1005=
201401041820 METAR ESMX 041820Z AUTO 18007KT 9000 BR SCT010/// 02/01 Q1005=
201401041750 METAR ESMX 041750Z AUTO 19008KT 9999 BKN009/// 03/02 Q1005=
201401041720 METAR ESMX 041720Z AUTO 19008KT 9999 SCT010/// 03/02 Q1005=
201401041650 METAR ESMX 041650Z AUTO 19007KT 9999 FEW032/// 03/02 Q1005=
201401041620 METAR ESMX 041620Z AUTO 21007KT 9999 BKN031/// 04/03 Q1005=
201401041550 METAR ESMX 041550Z AUTO 20009KT 9999 FEW014/// SCT016/// BKN040/// 04/02 Q1005=
201401041520 METAR ESMX 041520Z AUTO 20010KT 9999 FEW013/// SCT015/// BKN039/// 05/03 Q1005=
201401041450 METAR ESMX 041450Z AUTO 19011KT 9999 FEW013/// BKN015/// 05/03 Q1004=
201401041420 METAR ESMX 041420Z AUTO 21011KT 9999 FEW016/// 05/03 Q1004=
201401041350 METAR ESMX 041350Z AUTO 22012KT 9999 FEW014/// SCT017/// BKN020/// 05/03 Q1003=
201401041320 METAR ESMX 041320Z AUTO 21012KT 9999 FEW013/// SCT015/// BKN018/// 06/03 Q1003=
201401041250 METAR ESMX 041250Z AUTO 22011KT 9999 SCT014/// BKN019/// OVC023/// 06/03 Q1003=
201401041220 METAR ESMX 041220Z AUTO 20014KT 9999 FEW012/// OVC015/// 05/03 Q1003=
201401041150 METAR ESMX 041150Z AUTO 20011KT 9999 FEW012/// BKN015/// OVC020/// 05/04 Q1002=
201401041120 METAR ESMX 041120Z AUTO 21013KT 9999 FEW011/// OVC013/// 05/04 Q1002=
201401041050 METAR ESMX 041050Z AUTO 20012KT 9999 FEW009/// OVC011/// 05/04 Q1002 REDZ=
201401041020 METAR ESMX 041020Z AUTO 20012KT 9999 BKN010/// OVC016/// 05/04 Q1002=
201401040950 METAR ESMX 040950Z AUTO 21012KT 9999 FEW009/// BKN012/// OVC016/// 05/04 Q1002 RERA=
201401040920 METAR ESMX 040920Z AUTO 20012KT 9999 -DZ FEW007/// SCT009/// OVC012/// 05/04 Q1002 REDZ=
201401040850 METAR ESMX 040850Z AUTO 21011KT 8000 BR FEW007/// OVC010/// 05/04 Q1001 RERA=
201401040820 METAR ESMX 040820Z AUTO 20012KT 9999 FEW008/// SCT010/// OVC013/// 05/03 Q1001=
201401040750 METAR ESMX 040750Z AUTO 21010KT 9999 -RA FEW008/// BKN010/// OVC013/// 05/03 Q1001 REDZ=
201401040720 METAR ESMX 040720Z AUTO 20011KT 9999 FEW009/// BKN011/// BKN015/// 05/03 Q1001 RERA=
201401040650 METAR ESMX 040650Z AUTO 20012KT 180V240 9999 FEW007/// SCT010/// BKN013/// 05/04 Q1000=
201401040620 METAR ESMX 040620Z AUTO 22012KT 9999 FEW007/// SCT011/// BKN015/// 05/04 Q1000 REDZ=
201401040550 METAR ESMX 040550Z AUTO 21011KT 9999 FEW007/// SCT011/// BKN013/// 05/04 Q1000 RERA=
201401040520 METAR ESMX 040520Z AUTO 20010KT 9999 FEW006/// SCT009/// BKN013/// 05/04 Q0999=
201401040450 METAR ESMX 040450Z AUTO 22010KT 9999 FEW006/// BKN010/// OVC017/// 05/04 Q0999 REDZ=
201401040420 METAR ESMX 040420Z AUTO 20009KT 9999 -DZ FEW005/// SCT010/// BKN013/// 05/04 Q0999=
201401040350 METAR ESMX 040350Z AUTO 19008KT 8000 DZ FEW009/// SCT014/// BKN018/// 05/04 Q0999=
201401040320 METAR ESMX 040320Z AUTO 19013KT 7000 -RA FEW002/// SCT008/// BKN017/// 05/04 Q0999=
201401040250 METAR ESMX 040250Z AUTO 16009KT 3400 -RA OVC001/// 05/05 Q0999 REDZ=
201401040220 METAR ESMX 040220Z AUTO 17009KT 0800 R01/1600VP2000U R19/P2000N -RA VV001 05/05 Q0999=
201401040150 METAR ESMX 040150Z AUTO 14006KT 110V170 0700 R01/1600V1900N R19/P2000N FG VV001 05/05 Q0999=
201401040120 METAR ESMX 040120Z AUTO 16007KT 1000 R01/P2000N R19/P2000N BR VV002 05/05 Q1000=
201401040050 METAR ESMX 040050Z AUTO 15006KT 1200 R01/P2000N R19/P2000N BR VV002 05/05 Q1000=
201401040020 METAR ESMX 040020Z AUTO 15006KT 2400 BR OVC001/// 05/04 Q1000 REDZ=
201401032350 METAR ESMX 032350Z AUTO 15007KT 3100 BR OVC001/// 05/04 Q1000 RERA=
201401032320 METAR ESMX 032320Z AUTO 16007KT 5000 BR OVC001/// 05/04 Q1000=
201401032250 METAR ESMX 032250Z AUTO 15008KT 2400 -RA OVC001/// 05/04 Q1000 REDZ=
201401032220 METAR ESMX 032220Z AUTO 15008KT 2200 BR OVC001/// 05/04 Q1001=
201401032150 METAR ESMX 032150Z AUTO 17008KT 2900 BR OVC001/// 05/04 Q1001=
201401032120 METAR ESMX 032120Z AUTO 15009KT 8000 BR OVC003/// 05/04 Q1001 REDZ=
201401032050 METAR ESMX 032050Z AUTO 17009KT 9999 OVC004/// 05/04 Q1001 REDZ=
201401032020 METAR ESMX 032020Z AUTO 16008KT 6000 -DZ FEW003/// OVC005/// 05/04 Q1001 REDZ=
201401031950 METAR ESMX 031950Z AUTO 16010KT 5000 DZ BKN003/// OVC007/// 05/04 Q1002=
201401031920 METAR ESMX 031920Z AUTO 16011KT 4400 RA OVC004/// 05/04 Q1002=
201401031850 METAR ESMX 031850Z AUTO 16011KT 8000 BR OVC004/// 05/04 Q1002=
201401031820 METAR ESMX 031820Z AUTO 15010KT 100V180 9999 OVC006/// 05/03 Q1002=
201401031750 METAR ESMX 031750Z 15010KT 100V180 9999 OVC007 05/03 Q1002=
201401031720 METAR ESMX 031720Z 15011KT 120V180 9999 BKN007 OVC009 05/03 Q1002=
201401031650 METAR ESMX 031650Z 16010KT 120V180 9999 OVC007 05/03 Q1003=
201401031620 METAR ESMX 031620Z 16010KT 9999 SCT007 OVC009 05/04 Q1003=
201401031550 METAR ESMX 031550Z 15009KT 120V190 9999 OVC007 05/04 Q1003=
201401031520 METAR ESMX 031520Z 17009KT 9999 BKN006 OVC009 05/04 Q1004=
201401031450 METAR ESMX 031450Z 16007KT 9999 OVC007 05/04 Q1004=
201401031420 METAR ESMX 031420Z 14006KT 9999 FEW007 BKN008 OVC011 05/03 Q1004=
201401031350 METAR ESMX 031350Z 17008KT 9999 FEW008 OVC010 05/03 Q1005=
201401031320 METAR ESMX 031320Z 17008KT 9999 FEW009 OVC012 05/03 Q1005=
201401031250 METAR COR ESMX 031250Z 16006KT 9999 OVC014 05/03 Q1005=
201401031220 METAR ESMX 031220Z AUTO 17006KT 140V200 9999 FEW013/// OVC016/// 05/03 Q1005=
201401031150 METAR ESMX 031150Z 17007KT 9999 OVC016 05/03 Q1005=
201401031120 METAR ESMX 031120Z 17008KT 9999 BKN015 05/03 Q1005=
201401031050 METAR COR ESMX 031050Z 18008KT 9999 FEW004/// SCT011/// BKN015/// 05/03 Q1006=
201401031020 METAR ESMX 031020Z AUTO 18008KT 9000 BR FEW004/// OVC005/// 05/04 Q1006=
201401030950 METAR ESMX 030950Z 19007KT 7000 BR OVC003 05/04 Q1006=
201401030920 METAR ESMX 030920Z 18007KT 6000 BR OVC001 05/04 Q1006=
201401030850 METAR ESMX 030850Z 19007KT 3300 BR OVC002 05/04 Q1006=
201401030820 METAR ESMX 030820Z 17007KT 4300 BR OVC001 05/04 Q1005=
201401030750 METAR ESMX 030750Z 17006KT 3400 BR OVC002 04/04 Q1005=
201401030720 METAR ESMX 030720Z 16005KT 2500 BR OVC001 04/04 Q1005=
201401030650 METAR ESMX 030650Z 16007KT 1100 R01/P2000N R19/P2000N BR VV002 04/04 Q1005=
201401030620 METAR ESMX 030620Z 16006KT 1800 BR OVC001 04/03 Q1004 REDZ=
201401030550 METAR ESMX 030550Z AUTO 16006KT 2600 BR OVC001/// 04/03 Q1004=
201401030520 METAR ESMX 030520Z AUTO 17008KT 2800 BR OVC001/// 04/03 Q1004 REDZ=
201401030450 METAR ESMX 030450Z AUTO 17007KT 1600 DZ OVC001/// 04/03 Q1004 REDZ=
201401030420 METAR ESMX 030420Z AUTO 16008KT 1700 BR OVC001/// 04/03 Q1004 REDZ=
201401030350 METAR ESMX 030350Z AUTO 15008KT 1900 BR OVC001/// 04/03 Q1004 REDZ=
201401030320 METAR ESMX 030320Z AUTO 16008KT 1300 R01/P2000N R19/P2000N DZ OVC001/// 04/03 Q1004=
201401030250 METAR ESMX 030250Z AUTO 15008KT 120V180 2100 BR OVC001/// 04/03 Q1004=
201401030220 METAR ESMX 030220Z AUTO 16008KT 2200 BR OVC001/// 04/03 Q1004=
201401030150 METAR ESMX 030150Z AUTO 15008KT 3300 BR OVC002/// 04/03 Q1004=
201401030120 METAR ESMX 030120Z 17008KT 7000 BR OVC004 04/03 Q1004=
201401030050 METAR ESMX 030050Z 16009KT 120V190 7000 BR OVC003 04/03 Q1003 REDZ=
201401030020 METAR COR ESMX 030020Z 15007KT 110V180 7000 BR OVC004 03/03 Q1003=
201401022350 METAR ESMX 022350Z 14006KT 110V170 6000 BR OVC004 03/02 Q1003=
201401022320 METAR ESMX 022320Z AUTO 14006KT 100V170 3900 DZ OVC003/// 03/02 Q1003 REDZ=
201401022250 METAR ESMX 022250Z 13006KT 100V170 6000 DZ OVC004 03/02 Q1004=
201401022220 METAR ESMX 022220Z 14008KT 110V170 6000 DZ OVC005 03/02 Q1004 REDZ=
201401022150 METAR ESMX 022150Z 14007KT 100V190 6000 DZ OVC005 03/02 Q1004=
201401022120 METAR ESMX 022120Z 14008KT 6000 DZ OVC005 03/02 Q1004=
201401022050 METAR ESMX 022050Z 14008KT 100V180 5000 DZ OVC005 03/02 Q1004 REDZ=
201401022020 METAR ESMX 022020Z 14008KT 110V170 5000 -DZ OVC005 03/02 Q1004=
201401021950 METAR COR ESMX 021950Z 15008KT 110V170 5000 DZ OVC006 03/02 Q1004=
201401021920 METAR ESMX 021920Z 14008KT 080V170 5000 -RA OVC007 03/02 Q1004=
201401021850 METAR ESMX 021850Z 14008KT 070V170 5000 -DZ OVC007 03/02 Q1004 REDZ=
201401021820 METAR ESMX 021820Z 13009KT 100V170 6000 DZ OVC008 03/02 Q1004=
201401021750 METAR ESMX 021750Z 13009KT 100V160 7000 DZ OVC008 04/02 Q1004 REDZ=
201401021720 METAR ESMX 021720Z 13008KT 100V160 9000 BR OVC009 04/02 Q1004=
201401021650 METAR ESMX 021650Z 13009KT 080V170 9999 OVC010 04/02 Q1004 REDZ=
201401021620 METAR ESMX 021620Z 13008KT 090V160 9999 DZ BKN011 04/02 Q1004=
201401021550 METAR ESMX 021550Z 14008KT 100V170 9999 BKN011 04/02 Q1004=
201401021520 METAR ESMX 021520Z 14007KT 030V190 9999 OVC011 04/02 Q1004=
201401021450 METAR ESMX 021450Z 15008KT 110V180 9999 OVC012 04/02 Q1004=
201401021420 METAR ESMX 021420Z AUTO 14008KT 100V170 9999 BKN011/// OVC051/// 04/02 Q1004=
201401021350 METAR ESMX 021350Z AUTO 14009KT 110V180 9999 BKN011/// BKN066/// 04/02 Q1005=
201401021320 METAR ESMX 021320Z 15009KT 110V170 9999 BKN011 OVC016 04/02 Q1005=
201401021250 METAR ESMX 021250Z 15007KT 100V190 9999 SCT012 BKN015 BKN080 04/02 Q1005=
201401021220 METAR ESMX 021220Z 15009KT 100V190 9999 OVC010 04/02 Q1005=
201401021150 METAR ESMX 021150Z 15010KT 9999 OVC009 04/02 Q1005=
201401021120 METAR ESMX 021120Z 13010KT 100V160 9999 OVC009 04/02 Q1005=
201401021050 METAR ESMX 021050Z 14009KT 060V170 9999 OVC009 04/02 Q1006=
201401021020 METAR ESMX 021020Z 14008KT 110V190 9999 OVC009 04/01 Q1006=
201401020950 METAR ESMX 020950Z 13009KT 080V160 9999 OVC010 04/01 Q1006=
201401020920 METAR ESMX 020920Z 14010KT 100V170 9999 FEW009 OVC011 04/01 Q1006=
201401020850 METAR ESMX 020850Z 15010KT 100V190 9999 OVC009 04/01 Q1006=
201401020820 METAR ESMX 020820Z 15010KT 110V190 9999 OVC009 04/02 Q1006=
201401020750 METAR ESMX 020750Z AUTO 15008KT 110V170 9999 BKN008/// OVC011/// 04/02 Q1007=
201401020720 METAR ESMX 020720Z 14007KT 090V190 7000 BR BKN006 OVC009 03/02 Q1007=
201401020650 METAR ESMX 020650Z 13008KT 080V160 5000 BR OVC005 03/02 Q1007=
201401020620 METAR ESMX 020620Z 13007KT 090V170 5000 BR OVC005 03/02 Q1007=
201401020550 METAR ESMX 020550Z AUTO 13007KT 090V170 4600 BR BKN004/// OVC007/// 03/02 Q1007=
201401020520 METAR ESMX 020520Z AUTO 14006KT 110V190 3500 BR FEW003/// OVC004/// 03/02 Q1007=
201401020450 METAR ESMX 020450Z AUTO 13006KT 100V170 2400 BR OVC002/// 03/02 Q1007=
201401020420 METAR ESMX 020420Z AUTO 13005KT 090V180 2700 BR OVC003/// 02/02 Q1007=
201401020350 METAR ESMX 020350Z AUTO 13006KT 100V170 2800 BR OVC002/// 02/02 Q1008=
201401020320 METAR ESMX 020320Z AUTO 14005KT 100V180 1900 BR OVC002/// 02/02 Q1008=
201401020250 METAR ESMX 020250Z AUTO 14006KT 110V170 2200 BR OVC002/// 02/02 Q1008=
201401020220 METAR ESMX 020220Z AUTO 14005KT 110V180 2800 BR OVC003/// 02/01 Q1008=
201401020150 METAR ESMX 020150Z AUTO 13006KT 080V170 2600 BR OVC003/// 02/01 Q1008=
201401020120 METAR ESMX 020120Z AUTO 13006KT 100V180 2000 BR OVC003/// 02/01 Q1009=
201401020050 METAR ESMX 020050Z AUTO 14006KT 100V170 1800 BR OVC004/// 02/01 Q1009=
201401020020 METAR ESMX 020020Z 14006KT 2600 BR OVC005 02/01 Q1009=
201401012350 METAR ESMX 012350Z 13006KT 2300 BR OVC004 02/01 Q1009=
201401012320 METAR ESMX 012320Z 14005KT 100V170 3000 BR OVC006 02/01 Q1009=
201401012250 METAR ESMX 012250Z 14005KT 4200 BR OVC006 02/01 Q1009=
201401012220 METAR ESMX 012220Z 14005KT 110V170 4700 BR OVC006 02/01 Q1010=
201401012150 METAR ESMX 012150Z 15006KT 5000 BR OVC007 02/01 Q1010=
201401012120 METAR ESMX 012120Z 15006KT 110V180 5000 BR OVC007 02/01 Q1010=
201401012050 METAR ESMX 012050Z 15006KT 100V180 6000 BR OVC007 02/01 Q1010=
201401012020 METAR ESMX 012020Z 15006KT 6000 BR OVC008 02/00 Q1010=
201401011950 METAR ESMX 011950Z 16007KT 7000 BR OVC009 02/00 Q1010=
201401011920 METAR ESMX 011920Z 15006KT 7000 BR OVC009 02/00 Q1010=
201401011850 METAR ESMX 011850Z AUTO 16006KT 7000 BR OVC009/// 02/01 Q1010=
201401011820 METAR ESMX 011820Z 16006KT 8000 BR OVC009 02/00 Q1010=
201401011750 METAR ESMX 011750Z 16008KT 9000 BR OVC010 03/00 Q1010=
201401011720 METAR ESMX 011720Z 16007KT 9000 BR OVC010 03/00 Q1010=
201401011650 METAR ESMX 011650Z 16007KT 9000 BR OVC010 03/01 Q1010=
201401011620 METAR ESMX 011620Z 15007KT 9000 BR OVC010 03/00 Q1010=
201401011550 METAR ESMX 011550Z 15008KT 9000 BR OVC009 02/01 Q1010=
201401011520 METAR COR ESMX 011520Z 15007KT 120V200 9000 BR OVC009 02/01 Q1010=
201401011450 METAR ESMX 011450Z AUTO 16006KT 120V190 8000 BR BKN006/// OVC010/// 02/01 Q1010=
201401011420 METAR ESMX 011420Z 14007KT 100V170 7000 BR OVC005 02/01 Q1010=
201401011350 METAR ESMX 011350Z 16009KT 6000 BR OVC005 02/01 Q1011=
201401011320 METAR ESMX 011320Z AUTO 16008KT 8000 BR OVC006/// 02/01 Q1011=
201401011250 METAR ESMX 011250Z AUTO 15008KT 100V170 8000 BR OVC005/// 02/01 Q1011=
201401011220 METAR ESMX 011220Z AUTO 15010KT 6000 BR OVC003/// 02/01 Q1011=
