##########################################################
# Query made at 04/19/2024 21:41:58 UTC
# Time interval: from 10/01/2014 12:00  to 10/31/2014 12:59  UTC
##########################################################

##########################################################
# ESMX, Vaxjo (Sweden)
# WMO index: 02641. WIGOS ID: 0-20000-0-02648
# Latitude 56-51N. Longitude 014-50E. Altitude 199 m.
##########################################################

201410311250 METAR ESMX 311250Z 17005KT 120V200 9999 FEW044 SCT072 09/05 Q1024=
201410311220 METAR ESMX 311220Z 18004KT 9999 FEW020 09/05 Q1025=
201410311150 METAR ESMX 311150Z 19006KT 9999 FEW020 09/05 Q1025=
201410311120 METAR ESMX 311120Z 15005KT 120V190 9999 FEW015 09/05 Q1025=
201410311050 METAR ESMX 311050Z 17005KT 140V200 9999 FEW014 09/05 Q1025=
201410311020 METAR ESMX 311020Z VRB03KT 9999 FEW005 SCT100 08/05 Q1025=
201410310950 METAR ESMX 310950Z 05002KT 9999 FEW005 SCT100 07/05 Q1025=
201410310920 METAR ESMX 310920Z VRB02KT 9999 FEW003 SCT085 06/05 Q1025=
201410310850 METAR ESMX 310850Z VRB02KT 9999 FEW004 BKN057 06/05 Q1025=
201410310820 METAR ESMX 310820Z 05002KT 9999 FEW004 SCT063 06/05 Q1025=
201410310750 METAR ESMX 310750Z VRB02KT 9999 FEW040 SCT062 BKN080 05/05 Q1025=
201410310720 METAR ESMX 310720Z AUTO 00000KT 7000 BR FEW062/// SCT073/// BKN087/// 05/04 Q1025=
201410310650 METAR ESMX 310650Z VRB02KT 8000 BR FEW040 SCT073 BKN100 04/04 Q1025=
201410310620 METAR ESMX 310620Z 16003KT 9000 BR FEW064 04/04 Q1025=
201410310550 METAR ESMX 310550Z 17004KT 7000 BR FEW049 BKN060 04/04 Q1024=
201410310520 METAR ESMX 310520Z 20002KT 7000 BR FEW035 SCT060 04/03 Q1025=
201410310450 METAR ESMX 310450Z AUTO 19003KT 6000 BR OVC070/// 04/03 Q1024=
201410310420 METAR ESMX 310420Z AUTO VRB01KT 6000 BR BKN068/// 03/03 Q1024=
201410310350 METAR ESMX 310350Z AUTO 00000KT 4600 BR FEW016/// BKN071/// 03/03 Q1025 REDZ=
201410310320 METAR ESMX 310320Z AUTO 00000KT 6000 BR SCT001/// BKN073/// BKN083/// 03/03 Q1025=
201410310250 METAR ESMX 310250Z AUTO VRB02KT 6000 BR VV001 03/02 Q1025=
201410310220 METAR ESMX 310220Z AUTO VRB02KT 6000 -RA OVC001/// 02/02 Q1025=
201410310150 METAR ESMX 310150Z AUTO 19002KT 7000 OVC001/// 02/01 Q1025=
201410310120 METAR ESMX 310120Z AUTO 19003KT 8000 VV002 02/01 Q1025=
201410310050 METAR ESMX 310050Z 18002KT 6000 BCFG BR VV002 01/01 Q1025=
201410310020 METAR ESMX 310020Z 00000KT 7000 BR SCT002 01/01 Q1025=
201410302350 METAR ESMX 302350Z 19002KT 6000 BCFG BR NSC 01/00 Q1025=
201410302320 METAR ESMX 302320Z 20003KT 8000 BCFG BR NSC 00/M00 Q1025=
201410302250 METAR ESMX 302250Z 00000KT 6000 BR NSC M00/M01 Q1025=
201410302220 METAR ESMX 302220Z 00000KT 2000 BCFG NSC M01/M02 Q1025=
201410302150 METAR ESMX 302150Z 00000KT 5000 BR NSC M00/M01 Q1025=
201410302120 METAR ESMX 302120Z 21002KT 9999 NSC M00/M01 Q1025=
201410302050 METAR COR ESMX 302050Z 19002KT 4000 BR NSC 00/M00 Q1024=
201410302020 METAR ESMX 302020Z 17002KT 4500 BR NSC M00/M01 Q1024=
201410301950 METAR ESMX 301950Z 18002KT CAVOK 01/01 Q1025=
201410301920 METAR ESMX 301920Z 10001KT CAVOK 00/M00 Q1024=
201410301850 METAR ESMX 301850Z 00000KT CAVOK 01/01 Q1024=
201410301820 METAR ESMX 301820Z 00000KT CAVOK 01/00 Q1024=
201410301750 METAR ESMX 301750Z 17003KT CAVOK 01/00 Q1024=
201410301720 METAR ESMX 301720Z 18003KT CAVOK 01/00 Q1024=
201410301650 METAR ESMX 301650Z 19003KT CAVOK 03/01 Q1024=
201410301620 METAR ESMX 301620Z 25003KT CAVOK 03/02 Q1024=
201410301550 METAR ESMX 301550Z 24002KT CAVOK 05/02 Q1024=
201410301520 METAR ESMX 301520Z 25003KT CAVOK 06/03 Q1023=
201410301450 METAR ESMX 301450Z 30002KT CAVOK 07/03 Q1023=
201410301420 METAR ESMX 301420Z 29003KT CAVOK 08/03 Q1023=
201410301350 METAR ESMX 301350Z 31004KT CAVOK 08/03 Q1023=
201410301320 METAR ESMX 301320Z 29005KT CAVOK 09/03 Q1023=
201410301250 METAR ESMX 301250Z 29006KT 260V330 CAVOK 09/03 Q1023=
201410301220 METAR COR ESMX 301220Z 28006KT 9999 FEW040 BKN200 09/03 Q1022=
201410301150 METAR ESMX 301150Z 28005KT 240V310 9999 FEW035 09/05 Q1023=
201410301120 METAR ESMX 301120Z 27004KT 240V320 CAVOK 08/05 Q1022=
201410301050 METAR COR ESMX 301050Z 25003KT 210V290 9999 FEW005 BKN200 07/06 Q1023=
201410301020 METAR ESMX 301020Z 28004KT 9999 FEW003 05/05 Q1023=
201410300950 METAR ESMX 300950Z 29004KT 260V320 9000 BCFG FEW003 SCT200 05/04 Q1023=
201410300920 METAR ESMX 300920Z VRB02KT 0450 R01/0600V1000U R19/0650V0800N FG VV002 04/03 Q1022=
201410300850 METAR ESMX 300850Z 25003KT 0200 R01/0400N R19/0375N FG VV002 02/02 Q1022=
201410300820 METAR ESMX 300820Z 26002KT 0100 R01/0350V0500N R19/0250N FG VV002 01/01 Q1022=
201410300750 METAR ESMX 300750Z VRB02KT 0200 R01/0350N R19/0400N FG VV001 01/00 Q1022=
201410300720 METAR ESMX 300720Z 00000KT 0150 R01/0400N R19/0800V1000N FG VV002 01/00 Q1021=
201410300650 METAR ESMX 300650Z 18004KT 0050 R01/0325N R19/0150V0250N FG VV000 01/00 Q1021=
201410300620 METAR ESMX 300620Z 19003KT 0100 R01/0225N R19/0250N FG VV001 00/M00 Q1021=
201410300550 METAR ESMX 300550Z 16002KT 0100 R01/0500N R19/0325N FZFG VV002 M00/M01 Q1021=
201410300520 METAR ESMX 300520Z VRB02KT 0200 R01/0800V1400D R19/0600V0800N FZFG VV002 M01/M01 Q1020=
201410300450 METAR ESMX 300450Z 16002KT 0150 R01/0700VP2000D R19/0375V0550N FZFG VV002 M01/M01 Q1020=
201410300420 METAR ESMX 300420Z AUTO 17003KT 0100 R01/P2000N R19/0250V0450N NCD M01/M01 Q1020=
201410300350 METAR ESMX 300350Z AUTO 18002KT 0150 R01/0800VP2000N R19/0250V0550D BCFG NCD M01/M02 Q1020=
201410300320 METAR ESMX 300320Z AUTO VRB02KT 0450 R01/0800VP2000N R19/P2000N FZFG NCD M00/M01 Q1020=
201410300250 METAR ESMX 300250Z AUTO 21002KT 1100 R01/P2000N R19/P2000N BR NCD 01/00 Q1019=
201410300220 METAR ESMX 300220Z AUTO 26003KT 0600 R01/P2000N R19/P2000N BR NCD 02/01 Q1019=
201410300150 METAR ESMX 300150Z AUTO 26004KT 9999 NCD 01/M00 Q1019=
201410300120 METAR ESMX 300120Z AUTO 21003KT 5000 BR NCD 01/00 Q1019=
201410300050 METAR ESMX 300050Z 00000KT 4000 BCFG NSC 02/01 Q1019=
201410300020 METAR ESMX 300020Z 28003KT CAVOK 02/01 Q1019=
201410292350 METAR ESMX 292350Z 29003KT CAVOK 02/01 Q1018=
201410292320 METAR ESMX 292320Z VRB02KT CAVOK 03/02 Q1018=
201410292250 METAR COR ESMX 292250Z 30002KT CAVOK 03/02 Q1018=
201410292220 METAR ESMX 292220Z 27003KT CAVOK 02/01 Q1018=
201410292150 METAR ESMX 292150Z 27003KT CAVOK 02/01 Q1017=
201410292120 METAR ESMX 292120Z VRB03KT CAVOK 03/02 Q1017=
201410292050 METAR ESMX 292050Z VRB03KT CAVOK 02/01 Q1017=
201410292020 METAR ESMX 292020Z 25003KT CAVOK 04/03 Q1017=
201410291950 METAR ESMX 291950Z 25003KT CAVOK 04/02 Q1017=
201410291920 METAR COR ESMX 291920Z 27003KT CAVOK 06/03 Q1016=
201410291850 METAR ESMX 291850Z 29004KT CAVOK 06/03 Q1016=
201410291820 METAR ESMX 291820Z 29004KT 260V320 CAVOK 06/03 Q1016=
201410291750 METAR ESMX 291750Z 30004KT CAVOK 06/03 Q1016=
201410291720 METAR ESMX 291720Z 27005KT CAVOK 05/03 Q1015=
201410291650 METAR ESMX 291650Z 25003KT CAVOK 06/03 Q1015=
201410291620 METAR ESMX 291620Z 26003KT CAVOK 06/03 Q1015=
201410291550 METAR ESMX 291550Z 25003KT CAVOK 07/03 Q1014=
201410291520 METAR ESMX 291520Z 28004KT CAVOK 08/04 Q1014=
201410291450 METAR ESMX 291450Z 25005KT CAVOK 09/04 Q1013=
201410291420 METAR ESMX 291420Z 27007KT 9999 FEW025 10/04 Q1013=
201410291350 METAR ESMX 291350Z 25008KT 9999 FEW025 10/04 Q1013=
201410291320 METAR ESMX 291320Z 25005KT 9999 FEW025 10/07 Q1012=
201410291250 METAR ESMX 291250Z 27007KT 9999 FEW013 10/07 Q1012=
201410291220 METAR ESMX 291220Z 23006KT 9999 FEW006 SCT008 10/08 Q1012=
201410291150 METAR ESMX 291150Z 21009KT 190V250 6000 BR OVC005 09/08 Q1012=
201410291120 METAR ESMX 291120Z 21009KT 4400 BR OVC004 08/07 Q1011=
201410291050 METAR ESMX 291050Z 19009KT 3000 BR OVC004 08/07 Q1011=
201410291020 METAR ESMX 291020Z 19009KT 4000 BR OVC006 08/07 Q1011=
201410290950 METAR ESMX 290950Z AUTO 18010KT 4800 BR OVC005/// 08/06 Q1011=
201410290920 METAR ESMX 290920Z 18010KT 4200 BR OVC005 07/06 Q1010=
201410290850 METAR ESMX 290850Z 19010KT 4000 -DZ OVC008 08/06 Q1010=
201410290820 METAR ESMX 290820Z 19013KT 9000 BR OVC010 08/06 Q1010=
201410290750 METAR ESMX 290750Z 18013KT 9999 OVC010 08/06 Q1009=
201410290720 METAR ESMX 290720Z 19010KT 8000 BR OVC012 08/06 Q1009=
201410290650 METAR ESMX 290650Z AUTO 21011KT 8000 BR FEW009/// OVC011/// 08/06 Q1010=
201410290620 METAR ESMX 290620Z AUTO 20010KT 6000 BR OVC008/// 08/06 Q1010=
201410290550 METAR ESMX 290550Z 20010KT 5000 BR OVC005 07/06 Q1009=
201410290520 METAR ESMX 290520Z 19011KT 4400 BR OVC005 07/06 Q1009=
201410290450 METAR ESMX 290450Z 19010KT 3500 BR SCT005 06/05 Q1009=
201410290420 METAR ESMX 290420Z AUTO 17010KT 3700 BR NCD 06/05 Q1008=
201410290350 METAR ESMX 290350Z AUTO 18009KT 3800 BR FEW008/// 06/05 Q1009=
201410290320 METAR ESMX 290320Z AUTO 18010KT 4800 BR FEW008/// 07/05 Q1009=
201410290250 METAR ESMX 290250Z AUTO 18014KT 5000 BR FEW008/// SCT011/// 07/05 Q1009=
201410290220 METAR ESMX 290220Z AUTO 19014KT 5000 BR FEW007/// BKN009/// BKN011/// 07/06 Q1010=
201410290150 METAR ESMX 290150Z AUTO 19013KT 5000 BR BKN007/// BKN010/// 07/06 Q1010=
201410290120 METAR ESMX 290120Z AUTO 17011KT 4500 BR BKN007/// 07/06 Q1010=
201410290050 METAR ESMX 290050Z 17011KT 4500 BR OVC006 08/06 Q1011=
201410290020 METAR ESMX 290020Z 17010KT 4600 BR OVC007 08/06 Q1011=
201410282350 METAR ESMX 282350Z 17010KT 5000 BR OVC007 08/06 Q1011=
201410282320 METAR ESMX 282320Z 18012KT 5000 BR BKN007 OVC010 08/06 Q1012=
201410282250 METAR ESMX 282250Z 17011KT 4900 BR OVC007 08/07 Q1012=
201410282220 METAR ESMX 282220Z 18010KT 4900 BR FEW007 08/06 Q1012=
201410282150 METAR ESMX 282150Z 17010KT 4800 BR SCT006 BKN008 08/07 Q1013=
201410282120 METAR ESMX 282120Z 17011KT 6000 BR BKN005 08/07 Q1013=
201410282050 METAR ESMX 282050Z 18009KT CAVOK 08/07 Q1013=
201410282020 METAR ESMX 282020Z 17009KT CAVOK 09/07 Q1013=
201410281950 METAR ESMX 281950Z 17009KT CAVOK 09/07 Q1014=
201410281920 METAR COR ESMX 281920Z 18010KT CAVOK 09/07 Q1014=
201410281850 METAR COR ESMX 281850Z 18009KT CAVOK 10/07 Q1014=
201410281820 METAR ESMX 281820Z 17009KT CAVOK 10/07 Q1014=
201410281750 METAR ESMX 281750Z 18009KT CAVOK 11/08 Q1015=
201410281720 METAR ESMX 281720Z 17008KT CAVOK 11/08 Q1015=
201410281650 METAR COR ESMX 281650Z 17008KT CAVOK 12/07 Q1015=
201410281620 METAR ESMX 281620Z 18008KT CAVOK 13/08 Q1015=
201410281550 METAR ESMX 281550Z 19010KT CAVOK 13/08 Q1015=
201410281520 METAR ESMX 281520Z 19015KT CAVOK 14/08 Q1015=
201410281450 METAR ESMX 281450Z 19014KT CAVOK 14/08 Q1015=
201410281420 METAR ESMX 281420Z 19015KT CAVOK 15/09 Q1015=
201410281350 METAR ESMX 281350Z 20015KT CAVOK 15/09 Q1016=
201410281320 METAR ESMX 281320Z 20014KT CAVOK 15/10 Q1016=
201410281250 METAR ESMX 281250Z 20016KT CAVOK 15/10 Q1016=
201410281220 METAR ESMX 281220Z 20017KT CAVOK 15/10 Q1016=
201410281150 METAR ESMX 281150Z 19016KT CAVOK 15/10 Q1016=
201410281120 METAR ESMX 281120Z 19015KT 9999 FEW017 14/10 Q1017=
201410281050 METAR ESMX 281050Z 20015KT 9999 FEW015 14/10 Q1017=
201410281020 METAR ESMX 281020Z 19015KT CAVOK 13/10 Q1017=
201410280950 METAR ESMX 280950Z 19015KT CAVOK 13/10 Q1018=
201410280920 METAR ESMX 280920Z AUTO 19013KT 9999 NCD 13/10 Q1018=
201410280850 METAR ESMX 280850Z 20012KT 8000 BR FEW008 12/10 Q1018=
201410280820 METAR ESMX 280820Z 20012KT 7000 BR BKN008 11/09 Q1018=
201410280750 METAR ESMX 280750Z 21010KT 7000 BR BKN007 11/09 Q1018=
201410280720 METAR ESMX 280720Z 20010KT 5000 BR BKN006 11/09 Q1018=
201410280650 METAR ESMX 280650Z 21011KT 5000 BR OVC006 11/09 Q1018=
201410280620 METAR ESMX 280620Z 21010KT 5000 BR BKN006 OVC008 11/09 Q1018=
201410280550 METAR ESMX 280550Z 21009KT 5000 BR OVC007 10/09 Q1018=
201410280520 METAR ESMX 280520Z 22009KT 6000 BR BKN007 11/09 Q1018=
201410280450 METAR ESMX 280450Z 21012KT 6000 BR BKN007 11/09 Q1018=
201410280420 METAR ESMX 280420Z AUTO 22010KT 6000 BR OVC008/// 11/09 Q1018=
201410280350 METAR ESMX 280350Z AUTO 21010KT 8000 BR OVC009/// 10/09 Q1018=
201410280320 METAR ESMX 280320Z AUTO 21012KT 9999 OVC009/// 10/08 Q1018=
201410280250 METAR ESMX 280250Z AUTO 19012KT 9999 FEW012/// BKN015/// BKN018/// 11/09 Q1018=
201410280220 METAR ESMX 280220Z AUTO 20011KT 9999 FEW016/// BKN021/// 11/09 Q1018=
201410280150 METAR ESMX 280150Z AUTO 20013KT 9999 OVC015/// 12/09 Q1018=
201410280120 METAR ESMX 280120Z AUTO 20011KT 9999 OVC012/// 12/09 Q1018=
201410280050 METAR ESMX 280050Z 21012KT 9999 BKN012 12/09 Q1018=
201410280020 METAR ESMX 280020Z 21012KT 9999 FEW009 OVC011 12/10 Q1018=
201410272350 METAR ESMX 272350Z 22013KT 9999 OVC009 12/10 Q1018=
201410272320 METAR ESMX 272320Z 21011KT 9999 OVC009 12/10 Q1019=
201410272250 METAR ESMX 272250Z 22012KT 9999 OVC009 12/10 Q1019=
201410272220 METAR COR ESMX 272220Z 21013KT 9999 OVC010 12/10 Q1019=
201410272150 METAR COR ESMX 272150Z 21014KT 9999 OVC011 12/10 Q1019=
201410272120 METAR ESMX 272120Z 21012KT 9999 OVC011 12/10 Q1019=
201410272050 METAR ESMX 272050Z 21013KT 9999 OVC011 12/10 Q1019=
201410272020 METAR ESMX 272020Z 22011KT 9999 BKN011 OVC017 12/10 Q1019=
201410271950 METAR ESMX 271950Z 21012KT 9999 BKN011 OVC019 12/10 Q1019=
201410271920 METAR ESMX 271920Z 21012KT 9999 FEW011 SCT015 OVC020 12/10 Q1019=
201410271850 METAR ESMX 271850Z 21013KT 9999 SCT010 OVC020 12/10 Q1019=
201410271820 METAR ESMX 271820Z 21013KT 9999 OVC008 12/10 Q1019=
201410271750 METAR ESMX 271750Z 21013KT 9999 OVC008 12/10 Q1019=
201410271720 METAR ESMX 271720Z 21012KT 9999 OVC008 12/10 Q1019=
201410271650 METAR ESMX 271650Z 21011KT 9999 BKN008 12/11 Q1019=
201410271620 METAR ESMX 271620Z 20013KT 9999 BKN008 12/11 Q1019=
201410271550 METAR ESMX 271550Z 20012KT 9999 BKN009 BKN024 12/10 Q1019=
201410271520 METAR ESMX 271520Z 21014KT 9999 BKN012 13/10 Q1019=
201410271450 METAR ESMX 271450Z 20013KT 9999 BKN014 13/10 Q1018=
201410271420 METAR ESMX 271420Z 21012KT 9999 BKN015 BKN040 13/10 Q1018=
201410271350 METAR ESMX 271350Z 22012KT 9999 OVC014 13/10 Q1018=
201410271320 METAR ESMX 271320Z 22013KT 9999 OVC015 13/10 Q1018=
201410271250 METAR ESMX 271250Z 21013KT 9999 OVC015 13/10 Q1018=
201410271220 METAR ESMX 271220Z 23012KT 9999 OVC014 13/10 Q1018=
201410271150 METAR ESMX 271150Z 23013KT 9999 OVC013 13/10 Q1018=
201410271120 METAR ESMX 271120Z 22013KT 9999 OVC013 13/10 Q1018=
201410271050 METAR ESMX 271050Z 22013KT 9999 OVC013 12/10 Q1018=
201410271020 METAR ESMX 271020Z 22013KT 9999 OVC013 12/09 Q1018=
201410270950 METAR ESMX 270950Z 21014KT 9999 OVC012 12/09 Q1018=
201410270920 METAR ESMX 270920Z 21015KT 9999 OVC012 12/09 Q1018=
201410270850 METAR ESMX 270850Z 21015KT 9999 OVC013 12/09 Q1017=
201410270820 METAR ESMX 270820Z 22014KT 9999 OVC013 12/09 Q1017=
201410270750 METAR ESMX 270750Z 21015KT 9999 OVC015 12/09 Q1017=
201410270720 METAR ESMX 270720Z 21016KT 9999 FEW012 OVC015 12/09 Q1017=
201410270650 METAR ESMX 270650Z 21014KT 7000 BR BKN014 OVC020 12/09 Q1016=
201410270620 METAR ESMX 270620Z 21014KT 9999 BKN014 OVC022 12/09 Q1016=
201410270550 METAR ESMX 270550Z 21014KT 9999 FEW013 SCT016 BKN019 12/09 Q1016=
201410270520 METAR ESMX 270520Z 21015G27KT 9999 BKN014 12/09 Q1016=
201410270450 METAR ESMX 270450Z 21014KT 9999 SCT014 BKN019 12/09 Q1016=
201410270420 METAR ESMX 270420Z AUTO 20015KT 9999 FEW014/// BKN017/// OVC020/// 12/09 Q1016=
201410270350 METAR ESMX 270350Z AUTO 21014KT 9999 BKN014/// OVC021/// 12/09 Q1016=
201410270320 METAR ESMX 270320Z AUTO 20014KT 9999 OVC014/// 12/09 Q1016=
201410270250 METAR ESMX 270250Z AUTO 20014KT 9999 FEW014/// BKN017/// OVC021/// 12/09 Q1016=
201410270220 METAR ESMX 270220Z AUTO 21014KT 9999 BKN014/// OVC022/// 12/09 Q1016=
201410270150 METAR ESMX 270150Z AUTO 21014KT 9999 FEW014/// SCT018/// BKN021/// 11/09 Q1016=
201410270120 METAR ESMX 270120Z AUTO 20014KT 9999 FEW013/// BKN015/// OVC019/// 11/09 Q1016=
201410270050 METAR ESMX 270050Z AUTO 19014KT 9999 FEW012/// BKN015/// OVC020/// 11/09 Q1016=
201410270020 METAR ESMX 270020Z 20014KT 9999 BKN014 OVC033 11/09 Q1017=
201410262350 METAR ESMX 262350Z 19015KT 9999 SCT013 BKN017 OVC020 11/09 Q1017=
201410262320 METAR ESMX 262320Z AUTO 20014KT 9999 BKN013/// OVC019/// 11/09 Q1017=
201410262250 METAR ESMX 262250Z 20016KT 9999 OVC012 11/09 Q1017=
201410262220 METAR ESMX 262220Z 20014KT 9999 BKN013 OVC018 11/09 Q1017=
201410262150 METAR ESMX 262150Z AUTO 19015KT 9999 OVC012/// 11/09 Q1017=
201410262120 METAR ESMX 262120Z 19014KT 9999 OVC013 11/09 Q1017=
201410262050 METAR ESMX 262050Z 20013KT 9999 BKN012 OVC019 11/09 Q1018=
201410262020 METAR ESMX 262020Z 20015KT 9999 OVC013 11/09 Q1018=
201410261950 METAR ESMX 261950Z 20013KT 9999 OVC012 11/09 Q1018=
201410261920 METAR ESMX 261920Z 19013KT 9999 OVC012 11/09 Q1018=
201410261850 METAR ESMX 261850Z 19013KT 9999 FEW015 SCT017 BKN019 11/09 Q1018=
201410261820 METAR ESMX 261820Z 20013KT 9999 OVC014 11/09 Q1018=
201410261750 METAR ESMX 261750Z 19014KT 9999 BKN014 OVC020 11/09 Q1018=
201410261720 METAR ESMX 261720Z 19012KT 9999 BKN016 OVC021 11/09 Q1018=
201410261650 METAR COR ESMX 261650Z 19014KT 9999 FEW018 SCT024 BKN035 11/08 Q1018=
201410261620 METAR ESMX 261620Z 19013KT 9999 FEW025 BKN030 OVC052 11/08 Q1018=
201410261550 METAR ESMX 261550Z 19012KT 9999 FEW029 SCT048 BKN055 12/08 Q1017=
201410261520 METAR ESMX 261520Z 19013KT 9999 FEW043 BKN054 12/08 Q1018=
201410261450 METAR ESMX 261450Z 19013KT 9999 FEW040 BKN057 12/08 Q1017=
201410261420 METAR ESMX 261420Z 20013KT 9999 FEW025 12/08 Q1018=
201410261350 METAR ESMX 261350Z 19014KT 9999 FEW023 12/08 Q1018=
201410261320 METAR ESMX 261320Z 21016KT 9999 FEW020 SCT024 13/09 Q1018=
201410261250 METAR ESMX 261250Z 20015KT 9999 SCT021 13/08 Q1018=
201410261220 METAR ESMX 261220Z 20014KT 9999 FEW021 12/09 Q1018=
201410261150 METAR ESMX 261150Z 20014KT 9999 FEW020 12/09 Q1018=
201410261120 METAR ESMX 261120Z AUTO 19015KT 9999 FEW045/// 12/08 Q1018=
201410261050 METAR ESMX 261050Z AUTO 20014KT 9999 FEW016/// BKN045/// 11/09 Q1018=
201410261020 METAR ESMX 261020Z AUTO 19012KT 9999 FEW014/// SCT047/// 11/08 Q1019=
201410260950 METAR ESMX 260950Z AUTO 21013KT 9999 BKN011/// BKN061/// 11/08 Q1019=
201410260920 METAR ESMX 260920Z AUTO 20011KT 9999 FEW011/// 11/09 Q1019=
201410260850 METAR ESMX 260850Z AUTO 19011KT 9999 FEW009/// 11/08 Q1019=
201410260820 METAR ESMX 260820Z AUTO 19012KT 9999 FEW006/// SCT009/// BKN011/// 10/08 Q1019=
201410260750 METAR ESMX 260750Z AUTO 19013KT 9999 BKN006/// BKN009/// 10/09 Q1018=
201410260720 METAR ESMX 260720Z AUTO 20011KT 9999 SCT005/// OVC007/// 10/08 Q1018=
201410260650 METAR ESMX 260650Z 18010KT 9999 FEW004 BKN005 OVC007 09/08 Q1018=
201410260620 METAR ESMX 260620Z 20009KT 9000 BR OVC004 09/08 Q1018=
201410260550 METAR ESMX 260550Z 21010KT 8000 BR OVC003 09/08 Q1018=
201410260520 METAR ESMX 260520Z AUTO 20011KT 7000 BR OVC003/// 09/08 Q1018=
201410260450 METAR ESMX 260450Z AUTO 21010KT 8000 BR OVC003/// 09/08 Q1018=
201410260420 METAR ESMX 260420Z AUTO 19009KT 6000 BR OVC002/// 09/08 Q1018=
201410260350 METAR ESMX 260350Z AUTO 17008KT 6000 BR BKN004/// 08/08 Q1018=
201410260320 METAR ESMX 260320Z AUTO 18008KT 6000 BR SCT005/// BKN008/// 09/08 Q1018=
201410260250 METAR ESMX 260250Z AUTO 19007KT 6000 BR FEW006/// SCT012/// 09/08 Q1018=
201410260220 METAR ESMX 260220Z AUTO 20009KT 7000 BR FEW005/// SCT008/// BKN010/// 10/09 Q1018=
201410260150 METAR ESMX 260150Z AUTO 20009KT 5000 BR FEW003/// BKN005/// OVC007/// 10/09 Q1018=
201410260120 METAR ESMX 260120Z AUTO 19009KT 4600 BR OVC003/// 10/09 Q1018=
201410260050 METAR ESMX 260050Z AUTO 19008KT 5000 BR FEW003/// SCT005/// BKN007/// 10/09 Q1018=
201410260020 METAR ESMX 260020Z AUTO 19008KT 5000 BR FEW002/// SCT003/// BKN005/// 10/09 Q1018=
201410252350 METAR ESMX 252350Z AUTO 19008KT 4100 BR OVC002/// 10/09 Q1017=
201410252320 METAR ESMX 252320Z AUTO 20007KT 5000 BR SCT003/// OVC005/// 10/09 Q1017 REDZ=
201410252250 METAR ESMX 252250Z AUTO 21007KT 4400 BR BKN001/// OVC004/// 10/09 Q1017=
201410252220 METAR ESMX 252220Z AUTO 20009KT 4300 BR OVC001/// 10/09 Q1017=
201410252150 METAR ESMX 252150Z AUTO 20009KT 1400 R01/P2000N R19/P2000N -DZ OVC001/// 09/09 Q1017 REDZ=
201410252120 METAR ESMX 252120Z AUTO 19010KT 1500 BR OVC001/// 09/09 Q1017 REDZ=
201410252050 METAR ESMX 252050Z AUTO 18009KT 1200 R01/P2000N R19/P2000N -DZ OVC001/// 09/08 Q1017=
201410252020 METAR ESMX 252020Z AUTO 18008KT 1200 R01/P2000N R19/P2000N BR OVC001/// 09/08 Q1017=
201410251950 METAR ESMX 251950Z 18008KT 2500 BR OVC002 09/08 Q1017=
201410251920 METAR ESMX 251920Z 17008KT 2300 BR OVC002 09/08 Q1017=
201410251850 METAR ESMX 251850Z 18009KT 2400 BR OVC002 09/08 Q1016=
201410251820 METAR ESMX 251820Z 17009KT 3300 -DZ OVC003 09/08 Q1016=
201410251750 METAR ESMX 251750Z AUTO 17008KT 3600 BR OVC003/// 09/08 Q1016=
201410251720 METAR ESMX 251720Z AUTO 17008KT 4300 BR BKN003/// OVC006/// 09/08 Q1016=
201410251650 METAR ESMX 251650Z AUTO 16007KT 120V180 3000 DZ OVC003/// 09/08 Q1016=
201410251620 METAR ESMX 251620Z AUTO 18008KT 2700 -RA OVC003/// 09/08 Q1016 REDZ=
201410251550 METAR ESMX 251550Z AUTO 16008KT 3000 DZ OVC003/// 09/08 Q1016 RERA REDZ=
201410251520 METAR ESMX 251520Z AUTO 17009KT 3400 DZ BKN003/// OVC006/// 09/08 Q1016 REDZ=
201410251450 METAR ESMX 251450Z AUTO 17007KT 3000 -DZ OVC003/// 09/08 Q1016 REDZ=
201410251420 METAR ESMX 251420Z AUTO 16008KT 2200 BR SCT004/// OVC006/// 09/08 Q1016=
201410251350 METAR ESMX 251350Z AUTO 17009KT 3400 BR OVC005/// 09/08 Q1016 REDZ=
201410251320 METAR ESMX 251320Z AUTO 18009KT 4600 BR FEW006/// BKN008/// OVC010/// 09/08 Q1016=
201410251250 METAR ESMX 251250Z AUTO 17010KT 6000 BR FEW007/// OVC009/// 09/08 Q1016 REDZ=
201410251220 METAR ESMX 251220Z AUTO 17010KT 7000 BR FEW007/// BKN008/// OVC011/// 09/08 Q1016=
201410251150 METAR ESMX 251150Z AUTO 17012KT 5000 BR FEW005/// BKN007/// OVC009/// 09/08 Q1016=
201410251120 METAR ESMX 251120Z AUTO 17011KT 4300 -DZ BKN006/// OVC010/// 09/08 Q1016=
201410251050 METAR ESMX 251050Z AUTO 17011KT 6000 -RA FEW006/// BKN007/// OVC009/// 09/08 Q1016 REDZ=
201410251020 METAR ESMX 251020Z AUTO 17011KT 5000 BR FEW005/// BKN007/// OVC009/// 09/08 Q1016=
201410250950 METAR ESMX 250950Z AUTO 17011KT 5000 DZ OVC005/// 09/08 Q1016=
201410250920 METAR ESMX 250920Z AUTO 17011KT 6000 DZ FEW005/// OVC006/// 09/08 Q1016=
201410250850 METAR ESMX 250850Z AUTO 17011KT 6000 DZ OVC006/// 09/08 Q1016 REDZ=
201410250820 METAR ESMX 250820Z AUTO 16013KT 6000 -DZ OVC006/// 09/07 Q1016=
201410250750 METAR ESMX 250750Z AUTO 17011KT 6000 DZ OVC006/// 09/07 Q1016 REDZ=
201410250720 METAR ESMX 250720Z AUTO 17013KT 5000 DZ OVC006/// 09/07 Q1016=
201410250650 METAR ESMX 250650Z AUTO 17012KT 140V200 4900 -RA BKN005/// OVC007/// 09/07 Q1016 REDZ=
201410250620 METAR ESMX 250620Z AUTO 17012KT 3800 -RA OVC005/// 08/07 Q1016=
201410250550 METAR ESMX 250550Z AUTO 17011KT 3700 -RA OVC005/// 08/07 Q1016 REDZ=
201410250520 METAR ESMX 250520Z AUTO 17012KT 4700 DZ OVC006/// 09/07 Q1016=
201410250450 METAR ESMX 250450Z AUTO 17013KT 140V200 5000 -DZ OVC006/// 09/07 Q1016=
201410250420 METAR ESMX 250420Z AUTO 16009KT 7000 -RA FEW007/// BKN009/// OVC011/// 09/07 Q1016=
201410250350 METAR ESMX 250350Z AUTO 17012KT 9999 -RA OVC009/// 09/07 Q1016=
201410250320 METAR ESMX 250320Z AUTO 17011KT 140V200 9999 OVC010/// 09/07 Q1017=
201410250250 METAR ESMX 250250Z AUTO 16010KT 140V200 9999 OVC010/// 09/07 Q1017=
201410250220 METAR ESMX 250220Z AUTO 17010KT 9999 OVC011/// 09/07 Q1017=
201410250150 METAR ESMX 250150Z AUTO 17013KT 9999 OVC013/// 09/07 Q1017=
201410250120 METAR ESMX 250120Z AUTO 17013KT 9999 BKN013/// OVC018/// 09/07 Q1017=
201410250050 METAR ESMX 250050Z AUTO 18012KT 9999 OVC012/// 09/07 Q1018=
201410250020 METAR ESMX 250020Z AUTO 17011KT 9999 OVC013/// 09/07 Q1018=
201410242350 METAR ESMX 242350Z AUTO 18012KT 9999 BKN010/// OVC016/// 09/07 Q1018=
201410242320 METAR ESMX 242320Z AUTO 18011KT 9999 OVC009/// 09/07 Q1018=
201410242250 METAR ESMX 242250Z AUTO 17012KT 9999 OVC009/// 09/07 Q1018=
201410242220 METAR ESMX 242220Z AUTO 18011KT 9999 FEW006/// OVC009/// 09/08 Q1019=
201410242150 METAR ESMX 242150Z AUTO 18010KT 8000 BR OVC005/// 09/08 Q1019=
201410242120 METAR ESMX 242120Z AUTO 17012KT 8000 BR OVC005/// 09/08 Q1019 REUP=
201410242050 METAR ESMX 242050Z AUTO 17010KT 9000 BR OVC006/// 09/08 Q1019=
201410242020 METAR ESMX 242020Z AUTO 18010KT 9000 BR OVC006/// 09/08 Q1019 RESHUP=
201410241950 METAR ESMX 241950Z AUTO 18010KT 9999 DZ OVC006/// 09/08 Q1019 RERA=
201410241920 METAR ESMX 241920Z AUTO 16010KT 9000 BR BKN007/// OVC011/// 09/08 Q1019=
201410241850 METAR ESMX 241850Z AUTO 17010KT 9000 -RA OVC006/// 10/08 Q1019 REDZ=
201410241820 METAR ESMX 241820Z AUTO 16010KT 9999 OVC006/// 10/08 Q1019=
201410241750 METAR ESMX 241750Z 17011KT 9000 BR OVC006 10/08 Q1019=
201410241720 METAR ESMX 241720Z 17010KT 8000 BR OVC005 10/08 Q1019=
201410241650 METAR ESMX 241650Z 17012KT 130V190 7000 BR OVC005 10/08 Q1019=
201410241620 METAR ESMX 241620Z 17010KT 6000 BR OVC005 10/08 Q1019=
201410241550 METAR ESMX 241550Z 17011KT 5000 BR BKN006 OVC009 10/09 Q1019=
201410241520 METAR ESMX 241520Z 17010KT 7000 BR OVC006 10/09 Q1019 REDZ=
201410241450 METAR ESMX 241450Z 17009KT 6000 BR OVC004 10/09 Q1020=
201410241420 METAR ESMX 241420Z 16010KT 4800 BR OVC004 10/09 Q1020=
201410241350 METAR ESMX 241350Z 16009KT 4900 BR BKN005 OVC008 10/09 Q1020=
201410241320 METAR ESMX 241320Z 17013KT 9000 BR OVC006 10/09 Q1020=
201410241250 METAR ESMX 241250Z 17012KT 8000 BR BKN006 OVC008 10/09 Q1020=
201410241220 METAR ESMX 241220Z 17010KT 5000 BR BKN008 OVC010 10/09 Q1020=
201410241150 METAR ESMX 241150Z 17010KT 6000 BR FEW009 OVC011 10/08 Q1020=
201410241120 METAR ESMX 241120Z 17010KT 9000 BR FEW010 OVC013 10/08 Q1020=
201410241050 METAR ESMX 241050Z 17010KT 9000 BR FEW007 SCT009 BKN011 10/09 Q1021=
201410241020 METAR ESMX 241020Z 17008KT 8000 BR FEW005 SCT007 BKN008 10/08 Q1021=
201410240950 METAR ESMX 240950Z 15007KT 8000 BR SCT003 OVC005 09/08 Q1021=
201410240920 METAR ESMX 240920Z 15007KT 8000 BR OVC003 09/08 Q1021=
201410240850 METAR ESMX 240850Z 15007KT 8000 BR OVC002 08/07 Q1021=
201410240820 METAR ESMX 240820Z 15008KT 3700 BR OVC003 08/07 Q1021=
201410240750 METAR ESMX 240750Z 15007KT 5000 BR OVC004 08/07 Q1021=
201410240720 METAR ESMX 240720Z 15009KT 7000 BR SCT004 BKN007 08/06 Q1021=
201410240650 METAR ESMX 240650Z 15007KT 100V180 9999 SCT004 BKN007 07/06 Q1021=
201410240620 METAR COR ESMX 240620Z 15008KT 110V170 9999 SCT004 BKN006 07/06 Q1021=
201410240550 METAR ESMX 240550Z 15007KT 100V180 9999 SCT006 BKN008 07/06 Q1021=
201410240520 METAR ESMX 240520Z 15007KT 9999 FEW007 BKN012 07/05 Q1021=
201410240450 METAR ESMX 240450Z 16007KT 9999 FEW009 BKN010 07/05 Q1021=
201410240420 METAR ESMX 240420Z AUTO 16007KT 120V180 9999 OVC013/// 07/05 Q1021=
201410240350 METAR ESMX 240350Z AUTO 15007KT 9999 SCT015/// OVC019/// 07/05 Q1021=
201410240320 METAR ESMX 240320Z AUTO 14007KT 100V170 9999 BKN020/// OVC032/// 07/04 Q1021=
201410240250 METAR ESMX 240250Z AUTO 15007KT 9999 BKN014/// OVC019/// 07/04 Q1021=
201410240220 METAR ESMX 240220Z AUTO 14008KT 110V170 9999 OVC014/// 06/04 Q1022=
201410240150 METAR ESMX 240150Z AUTO 14008KT 9999 OVC014/// 06/04 Q1022=
201410240120 METAR ESMX 240120Z AUTO 14008KT 110V170 9999 OVC015/// 06/04 Q1022=
201410240050 METAR ESMX 240050Z AUTO 14008KT 100V190 9999 OVC014/// 06/04 Q1022=
201410240020 METAR ESMX 240020Z AUTO 15006KT 110V180 9999 OVC015/// 06/04 Q1023=
201410232350 METAR ESMX 232350Z 14006KT 100V170 9999 OVC015 06/03 Q1023=
201410232320 METAR ESMX 232320Z 13006KT 110V170 9999 OVC015 06/03 Q1023=
201410232250 METAR ESMX 232250Z 14005KT 100V190 9999 OVC016 06/03 Q1023=
201410232220 METAR ESMX 232220Z 14005KT 110V170 9999 BKN016 06/03 Q1023=
201410232150 METAR ESMX 232150Z 15007KT 9999 BKN017 06/03 Q1023=
201410232120 METAR ESMX 232120Z 14006KT 100V180 9999 BKN017 06/03 Q1023=
201410232050 METAR ESMX 232050Z 16007KT 120V180 9999 OVC016 06/03 Q1024=
201410232020 METAR ESMX 232020Z 14006KT 110V170 9999 FEW011 OVC015 06/03 Q1024=
201410231950 METAR ESMX 231950Z 14005KT 090V170 9999 FEW009 SCT012 OVC015 06/03 Q1023=
201410231920 METAR COR ESMX 231920Z 14005KT 100V190 9999 BKN009 05/03 Q1023=
201410231850 METAR ESMX 231850Z 13005KT 080V170 9999 BKN008 OVC011 05/03 Q1023=
201410231820 METAR ESMX 231820Z 12005KT 070V160 9999 BKN008 05/03 Q1023=
201410231750 METAR ESMX 231750Z 13006KT 100V170 9999 FEW009 BKN018 06/03 Q1023=
201410231720 METAR COR ESMX 231720Z 12004KT 060V190 9999 BKN018 06/03 Q1023=
201410231650 METAR ESMX 231650Z 11004KT 070V160 9999 BKN018 06/03 Q1023=
201410231620 METAR ESMX 231620Z 14004KT 110V170 9999 FEW014 BKN018 06/03 Q1023=
201410231550 METAR ESMX 231550Z 15005KT 110V200 9999 FEW013 BKN016 06/03 Q1023=
201410231520 METAR COR ESMX 231520Z 12005KT 090V170 9999 FEW012 BKN016 06/03 Q1023=
201410231450 METAR ESMX 231450Z 14005KT 100V170 9999 FEW012 BKN018 06/03 Q1023=
201410231420 METAR ESMX 231420Z 14006KT 100V180 9999 FEW011 OVC017 06/03 Q1023=
201410231350 METAR ESMX 231350Z 13005KT 090V170 9999 FEW009 OVC011 06/03 Q1023=
201410231320 METAR COR ESMX 231320Z 14007KT 9999 OVC010 06/03 Q1023=
201410231250 METAR ESMX 231250Z 13006KT 9999 OVC011 06/03 Q1023=
201410231220 METAR ESMX 231220Z 13006KT 080V160 9999 OVC011 06/03 Q1023=
201410231150 METAR ESMX 231150Z 14006KT 080V170 9999 OVC011 06/03 Q1023=
201410231122 METAR ESMX 231122Z 11006KT 060V160 9999 OVC011 06/03 Q1023=
201410231050 METAR ESMX 231050Z 13006KT 100V160 9999 OVC010 06/03 Q1023=
201410231020 METAR ESMX 231020Z 12006KT 040V160 9999 FEW009 OVC012 05/03 Q1023=
201410230950 METAR ESMX 230950Z 10006KT 050V160 9999 SCT007 BKN010 05/03 Q1023=
201410230920 METAR ESMX 230920Z 11006KT 030V150 9999 BKN006 05/03 Q1023=
201410230850 METAR ESMX 230850Z 12006KT 050V150 9999 BKN008 05/03 Q1022=
201410230820 METAR ESMX 230820Z 12006KT 080V210 9999 OVC005 05/03 Q1022=
201410230751 METAR ESMX 230751Z 11007KT 080V150 9999 OVC005 05/04 Q1022=
201410230720 METAR ESMX 230720Z 12007KT 080V170 9999 OVC005 05/04 Q1022=
201410230650 METAR ESMX 230650Z 10008KT 070V170 9999 OVC005 05/04 Q1022=
201410230620 METAR ESMX 230620Z 10006KT 060V140 9999 OVC005 05/04 Q1021=
201410230550 METAR ESMX 230550Z 11005KT 060V150 9999 OVC005 05/04 Q1021=
201410230520 METAR ESMX 230520Z 09005KT 060V140 9999 OVC005 05/04 Q1021=
201410230450 METAR ESMX 230450Z 10005KT 060V140 9999 OVC004 05/04 Q1021=
201410230420 METAR ESMX 230420Z 09003KT 360V150 5000 BR OVC003 05/04 Q1020=
201410230350 METAR ESMX 230350Z 08005KT 040V120 3200 BR FEW003 BKN005 OVC007 05/04 Q1020=
201410230320 METAR ESMX 230320Z AUTO 07004KT 030V110 2300 BR FEW004/// OVC005/// 05/04 Q1020=
201410230250 METAR ESMX 230250Z AUTO 06004KT 020V110 2500 BR FEW004/// OVC005/// 05/04 Q1020=
201410230220 METAR ESMX 230220Z AUTO 04005KT 020V080 5000 BR OVC004/// 05/04 Q1020=
201410230150 METAR ESMX 230150Z AUTO 07003KT 030V110 6000 BR BKN005/// OVC007/// 05/04 Q1020=
201410230120 METAR ESMX 230120Z AUTO 09004KT 050V160 4300 BR OVC005/// 05/04 Q1019=
201410230050 METAR ESMX 230050Z AUTO 08005KT 060V120 8000 BR OVC006/// 05/04 Q1019=
201410230020 METAR ESMX 230020Z AUTO 08005KT 030V130 9999 BR OVC005/// 05/04 Q1019 RESHUP=
201410222350 METAR COR ESMX 222350Z 08006KT 040V110 9000 -DZ FEW005 SCT007 BKN008 05/04 Q1019=
201410222320 METAR ESMX 222320Z 05005KT 360V080 9999 -DZ BKN007 OVC010 06/04 Q1019=
201410222250 METAR ESMX 222250Z 05006KT 010V080 9999 FEW007 OVC009 06/04 Q1019=
201410222220 METAR ESMX 222220Z 08006KT 050V120 9999 OVC007 06/04 Q1018=
201410222150 METAR ESMX 222150Z 09006KT 050V120 9999 OVC008 06/04 Q1018=
201410222120 METAR ESMX 222120Z 08006KT 040V140 9999 OVC007 06/04 Q1018=
201410222050 METAR ESMX 222050Z 07005KT 020V110 9999 OVC007 06/04 Q1017=
201410222020 METAR ESMX 222020Z 08007KT 050V110 9999 OVC008 06/04 Q1017=
201410221950 METAR ESMX 221950Z 08006KT 040V120 9999 OVC009 06/04 Q1017=
201410221920 METAR ESMX 221920Z 08007KT 030V120 9999 FEW009 OVC010 06/04 Q1016=
201410221850 METAR ESMX 221850Z 08007KT 040V110 9999 OVC009 06/04 Q1016=
201410221820 METAR ESMX 221820Z 07006KT 030V100 9999 OVC009 06/04 Q1016=
201410221750 METAR COR ESMX 221750Z 07007KT 040V100 9999 FEW009 OVC010 06/04 Q1016=
201410221720 METAR ESMX 221720Z 06008KT 030V100 9999 FEW009 OVC010 06/04 Q1015=
201410221650 METAR ESMX 221650Z 05008KT 010V090 9999 BKN009 06/04 Q1015=
201410221620 METAR COR ESMX 221620Z 06009KT 030V100 9999 BKN009 06/04 Q1015=
201410221550 METAR ESMX 221550Z 05009KT 020V090 9999 BKN007 06/04 Q1014=
201410221520 METAR ESMX 221520Z 05007KT 010V100 9999 BKN008 06/04 Q1013=
201410221450 METAR ESMX 221450Z 07010KT 030V100 9999 BKN009 06/04 Q1013=
201410221420 METAR ESMX 221420Z 06010KT 020V100 9999 BKN009 07/05 Q1013=
201410221350 METAR ESMX 221350Z 06010G22KT 9999 BKN008 07/05 Q1012=
201410221320 METAR ESMX 221320Z 04011G21KT 010V080 9999 BKN008 07/05 Q1011=
201410221250 METAR ESMX 221250Z 05011KT 9999 BKN009 07/05 Q1011=
201410221220 METAR ESMX 221220Z 05011KT 020V100 9999 BKN010 07/05 Q1010=
201410221150 METAR ESMX 221150Z 06010KT 020V110 9999 BKN010 07/05 Q1010=
201410221120 METAR ESMX 221120Z 05011KT 010V100 9999 BKN009 08/05 Q1009=
201410221050 METAR ESMX 221050Z 05012KT 020V100 9999 BKN008 08/06 Q1009=
201410221020 METAR ESMX 221020Z 05011KT 010V090 9999 BKN009 08/06 Q1009=
201410220950 METAR ESMX 220950Z 06010KT 030V100 9999 BKN009 08/06 Q1009=
201410220920 METAR ESMX 220920Z 05010KT 9999 BKN010 08/06 Q1008=
201410220850 METAR ESMX 220850Z 05010KT 020V090 9999 FEW009 BKN011 08/06 Q1008=
201410220820 METAR COR ESMX 220820Z 06010KT 030V100 9999 FEW009 BKN010 08/06 Q1007=
201410220750 METAR ESMX 220750Z 05009KT 020V100 9999 FEW009 BKN011 OVC016 08/07 Q1007=
201410220720 METAR ESMX 220720Z 06010KT 030V090 9999 FEW008 OVC010 08/07 Q1005=
201410220650 METAR ESMX 220650Z 06010KT 020V100 9999 FEW007 BKN010 08/07 Q1005=
201410220620 METAR ESMX 220620Z 06010KT 030V100 9999 FEW007 BKN008 09/07 Q1004=
201410220550 METAR ESMX 220550Z 06010KT 020V100 9999 FEW007 SCT008 BKN009 09/08 Q1003=
201410220520 METAR ESMX 220520Z 05010KT 6000 BR FEW006 BKN009 09/08 Q1002 REDZ=
201410220450 METAR COR ESMX 220450Z 06009KT 030V120 9999 -DZ FEW007 OVC010 09/08 Q1002=
201410220420 METAR ESMX 220420Z AUTO 06008KT 020V100 9999 BKN007/// OVC010/// 09/08 Q1002=
201410220353 METAR ESMX 220353Z 05007KT 020V080 9999 BKN006 OVC009 10/09 Q1001 REDZ=
201410220350 METAR ESMX 220350Z AUTO 05007KT 010V080 9999 FEW006/// OVC007/// 10/09 Q1001 REDZ=
201410220320 METAR ESMX 220320Z AUTO 06006KT 9999 FEW005/// SCT009/// OVC011/// 10/09 Q1001=
201410220250 METAR ESMX 220250Z AUTO 06005KT 9000 -RA FEW005/// BKN006/// OVC009/// 10/09 Q1001=
201410220220 METAR ESMX 220220Z AUTO 07004KT 030V110 8000 -RA BKN004/// OVC008/// 09/09 Q1001=
201410220150 METAR ESMX 220150Z AUTO 08005KT 030V120 6000 RA FEW005/// OVC006/// 09/08 Q1001=
201410220120 METAR ESMX 220120Z AUTO 09005KT 050V120 5000 -RA OVC006/// 09/08 Q1000=
201410220050 METAR ESMX 220050Z AUTO 08006KT 030V140 5000 -RA OVC006/// 09/08 Q1000=
201410220020 METAR ESMX 220020Z AUTO 09007KT 060V140 7000 -RA FEW006/// BKN007/// OVC009/// 10/08 Q1000=
201410212350 METAR ESMX 212350Z AUTO 09007KT 020V130 9000 -RA FEW005/// SCT007/// BKN009/// 10/09 Q0999=
201410212320 METAR ESMX 212320Z 08006KT 050V120 8000 -RA BKN006 OVC009 10/09 Q0999=
201410212250 METAR ESMX 212250Z 08006KT 050V120 7000 DZ FEW005 BKN007 OVC009 10/09 Q0999=
201410212220 METAR ESMX 212220Z AUTO 09005KT 020V150 6000 -DZ OVC005/// 10/08 Q0999 REDZ=
201410212150 METAR ESMX 212150Z 09006KT 040V120 9999 OVC006 10/08 Q0999=
201410212120 METAR ESMX 212120Z 09007KT 060V140 7000 BR OVC006 10/08 Q0999=
201410212050 METAR ESMX 212050Z AUTO 09006KT 050V140 9000 BR OVC006/// 10/08 Q0999=
201410212020 METAR ESMX 212020Z 09006KT 050V160 8000 BR FEW007 OVC008 10/08 Q0998 REDZ=
201410211950 METAR ESMX 211950Z 09006KT 040V140 8000 BR FEW008 OVC010 09/08 Q0999=
201410211920 METAR ESMX 211920Z 10006KT 030V140 6000 BR FEW009 OVC011 10/08 Q0999 REDZ=
201410211854 METAR ESMX 211854Z 10007KT 070V150 6000 BR OVC010 10/08 Q0999=
201410211850 METAR ESMX 211850Z AUTO 10007KT 070V160 8000 BR OVC010/// 10/08 Q0999=
201410211820 METAR ESMX 211820Z 11005KT 010V150 9999 SCT011 OVC018 10/08 Q0999=
201410211750 METAR ESMX 211750Z 11005KT 060V150 9999 FEW012 OVC020 10/07 Q0999=
201410211720 METAR COR ESMX 211720Z 11005KT 060V160 9999 -DZ BKN013 10/07 Q0999=
201410211650 METAR ESMX 211650Z 11004KT 030V160 9999 FEW018 OVC022 10/07 Q0999=
201410211620 METAR ESMX 211620Z 11003KT 070V160 9999 OVC023 10/07 Q1000=
201410211550 METAR ESMX 211550Z 11003KT 060V160 9999 SCT032 10/07 Q1000=
201410211520 METAR ESMX 211520Z 13004KT 080V190 9999 FEW030 11/07 Q1000=
201410211450 METAR ESMX 211450Z 13004KT 100V160 9999 FEW028 BKN099 11/07 Q1000=
201410211420 METAR ESMX 211420Z 14003KT 100V170 9999 FEW021 BKN049 11/06 Q1000=
201410211350 METAR ESMX 211350Z 16004KT 9999 FEW019 BKN027 11/06 Q1001=
201410211320 METAR ESMX 211320Z 13004KT 080V170 9999 FEW016 SCT023 11/07 Q1001=
201410211250 METAR ESMX 211250Z 13005KT 060V160 9999 FEW020 SCT058 11/07 Q1001=
201410211220 METAR COR ESMX 211220Z 12004KT 060V200 9999 FEW015 SCT058 11/07 Q1001=
201410211150 METAR ESMX 211150Z 13005KT 080V170 9999 FEW016 SCT020 BKN070 12/07 Q1002=
201410211120 METAR COR ESMX 211120Z 12005KT 080V170 9999 FEW012 BKN020 11/07 Q1002=
201410211050 METAR ESMX 211050Z 14004KT 090V180 9999 BKN004 10/08 Q1003=
201410211020 METAR ESMX 211020Z 11004KT 080V150 8000 BR BKN002 10/09 Q1003=
201410210950 METAR ESMX 210950Z 07004KT 030V110 6000 BR BKN002 09/08 Q1003=
201410210920 METAR ESMX 210920Z VRB02KT 5000 BR BKN002 09/08 Q1003=
201410210850 METAR COR ESMX 210850Z VRB03KT 2000 BR VV002 08/08 Q1003=
201410210820 METAR ESMX 210820Z VRB02KT 0600 R01/0450V1300U R19/1000V1400U FG VV002 08/08 Q1004=
201410210750 METAR ESMX 210750Z VRB03KT 0600 R01/0600V0800N R19/0800V0900N FG VV002 08/07 Q1004=
201410210720 METAR ESMX 210720Z 23004KT 0400 R01/0600N R19/0800N FG VV002 08/07 Q1004=
201410210650 METAR ESMX 210650Z 23005KT 0500 R01/0600 R19/0750 FG VV002 08/07 Q1004=
201410210620 METAR ESMX 210620Z 25006KT 1000 R19/0800 R19/1300 FG VV002 08/07 Q1004=
201410210550 METAR ESMX 210550Z 24004KT 5000 BR BKN025 07/06 Q1004=
201410210520 METAR ESMX 210520Z 22004KT 5000 BR BKN026 08/07 Q1003=
201410210450 METAR ESMX 210450Z 20005KT 5000 BR BKN028 08/07 Q1003=
201410210420 METAR ESMX 210420Z 22004KT 6000 BR OVC029 08/07 Q1003=
201410210350 METAR ESMX 210350Z 21005KT 7000 BR OVC030 09/07 Q1003=
201410210320 METAR ESMX 210320Z AUTO 22005KT 7000 BR OVC029/// 09/07 Q1004=
201410210250 METAR ESMX 210250Z AUTO 24004KT 8000 BR BKN027/// OVC042/// 09/07 Q1004=
201410210220 METAR ESMX 210220Z AUTO 22005KT 8000 BR OVC026/// 09/08 Q1004=
201410210150 METAR ESMX 210150Z AUTO 23006KT 8000 BR OVC026/// 09/08 Q1004=
201410210120 METAR ESMX 210120Z AUTO 22006KT 8000 BR OVC028/// 10/08 Q1004=
201410210050 METAR ESMX 210050Z AUTO 23007KT 9000 BR OVC029/// 09/08 Q1004=
201410210020 METAR ESMX 210020Z AUTO 24007KT 9000 BR OVC032/// 10/08 Q1004=
201410202350 METAR ESMX 202350Z AUTO 23008KT 9000 BR OVC036/// 10/08 Q1004=
201410202320 METAR ESMX 202320Z 23007KT 9000 BR OVC041 10/08 Q1003=
201410202250 METAR ESMX 202250Z 24009KT 9000 BR OVC040 10/08 Q1003=
201410202220 METAR ESMX 202220Z 25008KT 8000 BR BKN042 10/08 Q1003=
201410202150 METAR ESMX 202150Z 25009KT 8000 BR BKN043 10/09 Q1003=
201410202120 METAR ESMX 202120Z AUTO 24009KT 8000 BR FEW010/// BKN057/// 10/09 Q1003=
201410202050 METAR ESMX 202050Z 25008KT 7000 BR SCT006 BKN009 BKN011 10/09 Q1003=
201410202020 METAR ESMX 202020Z 26009KT 6000 BR FEW006 BKN008 OVC012 10/09 Q1003 REDZ=
201410201950 METAR ESMX 201950Z 26010KT 220V290 8000 BR FEW008 BKN010 BKN056 10/09 Q1003=
201410201920 METAR ESMX 201920Z AUTO 25008KT 6000 BR FEW007/// BKN009/// 10/09 Q1003=
201410201850 METAR ESMX 201850Z 26010KT 3400 DZ FEW006 SCT009 BKN013 10/09 Q1003=
201410201820 METAR ESMX 201820Z 25011KT 4300 DZ FEW005 SCT008 BKN011 10/09 Q1002=
201410201750 METAR ESMX 201750Z 26010KT 5000 -DZ FEW006 SCT008 BKN009 11/09 Q1002=
201410201720 METAR ESMX 201720Z 26010KT 4500 -RA FEW005 BKN007 OVC011 11/09 Q1002=
201410201650 METAR ESMX 201650Z 26010KT 5000 -DZ FEW005 BKN008 11/10 Q1001=
201410201620 METAR ESMX 201620Z 25010KT 4000 RA FEW006 BKN013 11/10 Q1001=
201410201550 METAR ESMX 201550Z 25009KT 8000 BR -DZ FEW007 BKN012 11/10 Q1001=
201410201520 METAR COR ESMX 201520Z 25009KT 5000 DZ BR FEW008 BKN010 11/10 Q1001=
201410201450 METAR ESMX 201450Z 24009KT 9999 FEW008 SCT010 BKN012 11/10 Q1000 REDZ=
201410201420 METAR ESMX 201420Z 25010KT 9999 BKN010 11/10 Q1000 REDZ=
201410201350 METAR ESMX 201350Z 25011KT 9999 FEW007 SCT010 BKN013 11/10 Q1000=
201410201320 METAR COR ESMX 201320Z 25011KT 210V280 4600 DZ FEW007 BKN010 11/10 Q1000 REDZ=
201410201250 METAR ESMX 201250Z 25011KT 210V290 5000 BR -DZ FEW007 BKN010 11/10 Q1000=
201410201220 METAR ESMX 201220Z 24011G21KT 5000 BR FEW008 BKN012 11/09 Q1000 REDZ=
201410201150 METAR ESMX 201150Z 26011KT 8000 -RA FEW009 BKN011 OVC015 11/09 Q1000=
201410201120 METAR ESMX 201120Z 25012KT 220V290 9000 -RA BKN011 BKN017 11/09 Q1000=
201410201050 METAR ESMX 201050Z 26014KT 9999 SCT014 BKN019 12/09 Q1000=
201410201020 METAR ESMX 201020Z 26014KT 9999 FEW016 SCT020 BKN027 12/09 Q0999=
201410200950 METAR ESMX 200950Z 24011KT 9999 FEW018 BKN021 OVC031 12/09 Q0999=
201410200920 METAR ESMX 200920Z 25013KT 210V280 9999 FEW019 SCT022 BKN026 12/09 Q0999=
201410200850 METAR ESMX 200850Z 25011KT 230V290 9999 FEW015 SCT023 BKN037 12/09 Q0999=
201410200820 METAR ESMX 200820Z 25010KT 7000 -SHRA FEW010 BKN015 12/09 Q0999=
201410200750 METAR ESMX 200750Z 26011KT 9999 FEW011 SCT015 BKN018 12/10 Q0999=
201410200720 METAR COR ESMX 200720Z 26009KT 9999 FEW010 BKN014 12/10 Q0999=
201410200650 METAR ESMX 200650Z 25009KT 9999 FEW010 SCT013 BKN016 11/10 Q0998=
201410200620 METAR ESMX 200620Z 23011KT 200V260 7000 BR FEW009 SCT013 BKN018 12/10 Q0998 REDZ=
201410200550 METAR ESMX 200550Z 24009KT 9999 FEW015 SCT020 BKN040 12/10 Q0998=
201410200520 METAR ESMX 200520Z 23011KT 9999 FEW011 SCT014 BKN018 12/10 Q0998=
201410200450 METAR ESMX 200450Z 23010KT 9999 -RA FEW010 BKN013 12/11 Q0998=
201410200420 METAR ESMX 200420Z AUTO 22010KT 9999 FEW008/// SCT012/// BKN015/// 12/11 Q0998=
201410200350 METAR ESMX 200350Z 23010KT 9999 FEW010 BKN013 12/11 Q0999=
201410200320 METAR ESMX 200320Z AUTO 23009KT 9999 -RA BKN013/// OVC018/// 12/10 Q0999=
201410200250 METAR ESMX 200250Z AUTO 22008KT 9999 FEW015/// BKN020/// OVC039/// 12/10 Q0999=
201410200220 METAR ESMX 200220Z AUTO 23010KT 9999 FEW013/// SCT016/// BKN045/// 12/10 Q0999=
201410200150 METAR ESMX 200150Z AUTO 23009KT 9999 FEW014/// SCT022/// BKN047/// 12/10 Q0999=
201410200120 METAR ESMX 200120Z AUTO 23010KT 9999 FEW011/// SCT017/// BKN021/// 12/11 Q1000=
201410200050 METAR ESMX 200050Z AUTO 23010KT 9999 FEW011/// SCT016/// BKN035/// 12/10 Q1000=
201410200020 METAR ESMX 200020Z AUTO 22009KT 9999 FEW009/// SCT014/// BKN018/// 12/11 Q1000=
201410192350 METAR ESMX 192350Z AUTO 23010KT 190V250 9999 FEW011/// SCT016/// BKN021/// 12/11 Q1000=
201410192320 METAR ESMX 192320Z 23009KT 9999 FEW011 SCT015 BKN024 12/11 Q1001=
201410192250 METAR ESMX 192250Z 23010KT 9999 FEW012 SCT037 BKN050 12/11 Q1001=
201410192220 METAR ESMX 192220Z 24009KT 9999 FEW013 SCT015 BKN018 13/11 Q1001=
201410192150 METAR ESMX 192150Z 23010KT 9999 FEW013 SCT017 13/11 Q1001=
201410192120 METAR ESMX 192120Z 22010KT 9999 FEW009 SCT012 BKN015 13/12 Q1001=
201410192050 METAR ESMX 192050Z 23010KT 9999 FEW010 SCT013 BKN016 13/12 Q1001=
201410192020 METAR ESMX 192020Z 24009KT 9999 FEW009 SCT014 BKN017 14/12 Q1002=
201410191950 METAR ESMX 191950Z 22009KT 9999 FEW009 SCT011 BKN013 14/12 Q1001=
201410191920 METAR ESMX 191920Z 24008KT 9999 FEW009 SCT013 BKN017 14/12 Q1002=
201410191850 METAR ESMX 191850Z 21010KT 9999 FEW007 SCT009 BKN011 14/13 Q1002=
201410191820 METAR ESMX 191820Z 20012KT 9999 -RA FEW005 SCT009 BKN010 14/13 Q1002=
201410191750 METAR ESMX 191750Z 20011KT 9999 FEW009 SCT012 BKN015 14/13 Q1002=
201410191720 METAR ESMX 191720Z 21012KT 9999 FEW006 SCT009 BKN010 14/13 Q1003=
201410191650 METAR ESMX 191650Z 20011KT 9999 FEW005 BKN008 14/13 Q1003=
201410191620 METAR ESMX 191620Z 20011KT 9999 FEW005 BKN007 BKN010 14/13 Q1003 REDZ=
201410191550 METAR COR ESMX 191550Z 18013KT 9999 SCT005 BKN008 14/13 Q1003=
201410191520 METAR ESMX 191520Z 20011KT 9999 DZ FEW004 SCT005 BKN006 14/13 Q1004=
201410191450 METAR ESMX 191450Z 20012KT 9999 -RA FEW004 SCT006 BKN015 14/13 Q1005=
201410191420 METAR ESMX 191420Z AUTO 19014KT 9999 -RA FEW004/// 14/13 Q1005=
201410191350 METAR ESMX 191350Z 20012KT 9999 DZ FEW005 BKN007 BKN013 15/14 Q1005=
201410191320 METAR ESMX 191320Z 21011KT 9999 -DZ SCT005 BKN007 15/14 Q1006=
201410191250 METAR COR ESMX 191250Z 20008KT 9999 SCT004 BKN007 15/14 Q1006=
201410191220 METAR ESMX 191220Z 19012KT 9999 -RA SCT006 BKN008 15/14 Q1006=
201410191150 METAR ESMX 191150Z 22010KT 9999 -RA FEW007 BKN010 BKN015 15/14 Q1007=
201410191120 METAR COR ESMX 191120Z 21010KT 9999 FEW008 BKN010 15/14 Q1007=
201410191050 METAR ESMX 191050Z 22008KT 190V260 9999 FEW006 SCT008 BKN010 15/14 Q1008=
201410191020 METAR ESMX 191020Z AUTO 20012KT 9000 BR FEW004/// BKN006/// OVC010/// 15/14 Q1007=
201410190950 METAR ESMX 190950Z AUTO 21011KT 5000 BR FEW004/// BKN006/// OVC009/// 15/14 Q1008=
201410190920 METAR ESMX 190920Z AUTO 22010KT 7000 BR BKN004/// OVC007/// 15/14 Q1009=
201410190850 METAR ESMX 190850Z AUTO 21010KT 7000 BR SCT001/// BKN004/// OVC005/// 15/14 Q1008 REUP=
201410190820 METAR ESMX 190820Z AUTO 21010KT 3200 BR OVC001/// 14/14 Q1009=
201410190750 METAR ESMX 190750Z AUTO 21010KT 3600 BR OVC001/// 14/14 Q1009 RESHUP RERA=
201410190720 METAR ESMX 190720Z AUTO 20010KT 3900 BR OVC001/// 14/13 Q1009=
201410190650 METAR ESMX 190650Z AUTO 21008KT 2500 -RA OVC001/// 14/13 Q1009=
201410190620 METAR ESMX 190620Z AUTO 21009KT 2400 -DZ OVC001/// 14/13 Q1010=
201410190550 METAR ESMX 190550Z 22010KT 3000 -RA OVC003 14/13 Q1010 RESHUP REDZ=
201410190520 METAR ESMX 190520Z 21010KT 5000 BR OVC004 14/13 Q1010=
201410190450 METAR ESMX 190450Z 21012KT 3000 -RA OVC003 14/13 Q1010=
201410190420 METAR ESMX 190420Z AUTO 21011KT 2600 DZ OVC002/// 14/13 Q1010=
201410190350 METAR ESMX 190350Z AUTO 19012KT 3500 -RA OVC002/// 13/13 Q1010 REDZ=
201410190320 METAR ESMX 190320Z AUTO 19012KT 5000 BR OVC003/// 13/12 Q1011=
201410190250 METAR ESMX 190250Z AUTO 18013KT 5000 BR OVC004/// 13/12 Q1011 RERA=
201410190220 METAR ESMX 190220Z AUTO 19014KT 6000 BR OVC004/// 13/12 Q1012=
201410190150 METAR ESMX 190150Z AUTO 18013KT 8000 DZ OVC004/// 13/12 Q1012=
201410190120 METAR ESMX 190120Z AUTO 18011KT 4600 -RA FEW004/// BKN005/// BKN007/// 13/12 Q1012 RESHRA=
201410190050 METAR ESMX 190050Z AUTO 20010KT 4600 -RA FEW004/// OVC005/// 13/12 Q1014=
201410190020 METAR ESMX 190020Z AUTO 20009KT 160V230 4700 RA OVC004/// 13/12 Q1014 RERA=
201410182350 METAR ESMX 182350Z AUTO 17009KT 5000 -RA FEW004/// OVC005/// 12/11 Q1014=
201410182320 METAR ESMX 182320Z AUTO 16010KT 5000 +DZ FEW003/// BKN004/// OVC006/// 12/11 Q1014=
201410182250 METAR ESMX 182250Z AUTO 17010KT 4000 -RA BKN002/// OVC005/// 12/11 Q1015 RESHRA=
201410182220 METAR ESMX 182220Z AUTO 17010KT 130V190 2600 RA OVC002/// 11/11 Q1016 REDZ=
201410182150 METAR ESMX 182150Z AUTO 16008KT 3900 BR OVC002/// 11/10 Q1016 REDZ=
201410182120 METAR ESMX 182120Z AUTO 17010KT 3500 DZ OVC001/// 11/10 Q1017 REDZ REUP=
201410182050 METAR ESMX 182050Z AUTO 16011KT 5000 BR OVC002/// 10/09 Q1017=
201410182020 METAR ESMX 182020Z AUTO 16010KT 7000 BR OVC003/// 10/09 Q1018=
201410181950 METAR ESMX 181950Z AUTO 15011KT 7000 -DZ OVC004/// 10/09 Q1018 REDZ=
201410181920 METAR ESMX 181920Z AUTO 14010KT 9999 -DZ OVC005/// 10/08 Q1018=
201410181850 METAR ESMX 181850Z AUTO 15009KT 120V180 9999 -RA OVC006/// 10/08 Q1019=
201410181820 METAR ESMX 181820Z 15009KT 110V180 9999 OVC007 10/08 Q1020=
201410181750 METAR ESMX 181750Z 15008KT 9999 OVC006 09/08 Q1020=
201410181720 METAR ESMX 181720Z 15008KT 9999 BKN006 09/08 Q1021=
201410181650 METAR ESMX 181650Z 14007KT 100V170 9999 FEW005 BKN012 09/08 Q1021=
201410181620 METAR ESMX 181620Z AUTO 14006KT 9999 FEW005/// OVC015/// 09/08 Q1021=
201410181550 METAR ESMX 181550Z AUTO 14007KT 9999 BKN005/// OVC017/// 09/08 Q1021=
201410181520 METAR ESMX 181520Z AUTO 15007KT 120V190 9999 OVC005/// 09/08 Q1022=
201410181450 METAR ESMX 181450Z AUTO 14007KT 110V180 7000 BR OVC007/// 09/08 Q1022=
201410181420 METAR ESMX 181420Z AUTO 15009KT 9999 OVC008/// 09/07 Q1022=
201410181350 METAR ESMX 181350Z AUTO 16008KT 9999 OVC009/// 09/07 Q1022=
201410181320 METAR ESMX 181320Z AUTO 15009KT 120V190 9999 OVC009/// 10/07 Q1022=
201410181250 METAR ESMX 181250Z AUTO 16009KT 9999 OVC010/// 10/07 Q1022=
201410181220 METAR ESMX 181220Z AUTO 16007KT 130V200 9999 OVC010/// 10/07 Q1022=
201410181150 METAR ESMX 181150Z AUTO 15008KT 100V170 9999 OVC010/// 09/07 Q1023=
201410181120 METAR ESMX 181120Z AUTO 16008KT 120V190 9999 FEW009/// OVC011/// 09/07 Q1023=
201410181050 METAR ESMX 181050Z AUTO 16008KT 9999 FEW009/// SCT010/// OVC013/// 09/07 Q1023=
201410181020 METAR ESMX 181020Z AUTO 15007KT 120V180 9999 FEW009/// OVC015/// 09/07 Q1023=
201410180950 METAR ESMX 180950Z AUTO 15007KT 9999 FEW008/// OVC015/// 08/07 Q1023=
201410180920 METAR ESMX 180920Z AUTO 15008KT 110V190 9999 FEW010/// SCT019/// OVC023/// 08/06 Q1023=
201410180850 METAR ESMX 180850Z AUTO 15007KT 120V180 9999 OVC023/// 08/06 Q1023=
201410180820 METAR ESMX 180820Z AUTO 14007KT 110V170 9999 OVC024/// 08/05 Q1023=
201410180750 METAR ESMX 180750Z AUTO 14004KT 110V180 9999 OVC021/// 08/05 Q1023=
201410180720 METAR ESMX 180720Z AUTO 14005KT 110V170 9999 OVC027/// 07/04 Q1023=
201410180650 METAR ESMX 180650Z AUTO 13004KT 100V170 9999 FEW019/// OVC028/// 07/05 Q1023=
201410180620 METAR ESMX 180620Z AUTO 14003KT 110V170 9999 OVC023/// 07/05 Q1023=
201410180550 METAR ESMX 180550Z AUTO 14004KT 070V190 9999 BKN024/// OVC030/// 07/05 Q1022=
201410180520 METAR ESMX 180520Z AUTO VRB03KT 9999 OVC024/// 07/05 Q1022=
201410180450 METAR ESMX 180450Z AUTO 13003KT 080V180 9999 OVC021/// 07/05 Q1022 REDZ=
201410180420 METAR ESMX 180420Z AUTO VRB03KT 9999 DZ OVC023/// 06/05 Q1022=
201410180350 METAR ESMX 180350Z AUTO VRB03KT 9999 DZ OVC023/// 06/05 Q1022=
201410180320 METAR ESMX 180320Z AUTO VRB03KT 9999 -DZ OVC025/// 06/05 Q1022=
201410180250 METAR ESMX 180250Z AUTO VRB02KT 9999 OVC026/// 06/05 Q1021=
201410180220 METAR ESMX 180220Z AUTO 10003KT 060V210 9999 OVC027/// 06/05 Q1021=
201410180150 METAR ESMX 180150Z AUTO 09003KT 060V130 9999 OVC027/// 06/05 Q1021=
201410180120 METAR ESMX 180120Z AUTO 07003KT 9999 SCT029/// BKN053/// 06/05 Q1021=
201410180050 METAR ESMX 180050Z AUTO 10003KT 060V130 9999 -DZ SCT021/// BKN051/// 06/05 Q1021 REDZ=
201410180020 METAR ESMX 180020Z AUTO 10003KT 030V150 9999 BKN021/// OVC054/// 07/05 Q1021 REDZ=
201410172350 METAR ESMX 172350Z AUTO 08003KT 050V120 9999 DZ OVC021/// 07/05 Q1020=
201410172320 METAR ESMX 172320Z AUTO 08004KT 050V130 9999 FEW022/// SCT026/// OVC036/// 07/05 Q1020=
201410172250 METAR ESMX 172250Z AUTO 08004KT 050V120 9999 SCT037/// OVC068/// 07/05 Q1020=
201410172220 METAR ESMX 172220Z AUTO 08003KT 060V120 9999 BKN037/// OVC070/// 07/05 Q1020=
201410172150 METAR ESMX 172150Z AUTO VRB02KT 9999 BKN038/// BKN059/// 07/05 Q1020=
201410172120 METAR ESMX 172120Z AUTO VRB03KT 9999 BKN059/// 07/05 Q1019=
201410172050 METAR ESMX 172050Z AUTO VRB03KT 9999 SCT036/// BKN063/// 07/05 Q1019=
201410172020 METAR ESMX 172020Z AUTO VRB03KT 9999 FEW008/// SCT056/// OVC066/// 07/05 Q1019=
201410171950 METAR ESMX 171950Z AUTO 09003KT 060V130 9999 FEW011/// OVC057/// 07/05 Q1018=
201410171920 METAR ESMX 171920Z AUTO 08004KT 050V110 9999 -DZ FEW012/// OVC058/// 07/05 Q1018=
201410171850 METAR ESMX 171850Z AUTO 09004KT 060V140 9999 -RA FEW062/// 07/05 Q1018=
201410171820 METAR ESMX 171820Z AUTO 08004KT 030V110 9999 -RA FEW034/// SCT063/// 07/05 Q1017=
201410171750 METAR ESMX 171750Z AUTO 07004KT 030V120 9999 DZ SCT023/// BKN062/// 07/05 Q1017 REDZ=
201410171720 METAR ESMX 171720Z 09005KT 030V130 9999 -DZ FEW023 BKN061 07/05 Q1017=
201410171650 METAR ESMX 171650Z 08004KT 040V130 9999 FEW033 BKN060 07/06 Q1016=
201410171620 METAR ESMX 171620Z VRB03KT 360V360 9999 SCT027 BKN088 07/06 Q1016=
201410171550 METAR ESMX 171550Z 10004KT 070V150 9999 FEW041 BKN087 08/06 Q1015=
201410171520 METAR ESMX 171520Z 09004KT 050V140 9999 SCT027 BKN042 08/06 Q1015=
201410171450 METAR ESMX 171450Z 09004KT 040V120 9999 SCT025 BKN037 08/06 Q1015=
201410171420 METAR ESMX 171420Z 09005KT 050V150 9999 FEW025 BKN044 08/06 Q1014=
201410171350 METAR ESMX 171350Z 09004KT 050V130 9999 SCT026 BKN034 08/06 Q1014 REDZ=
201410171320 METAR ESMX 171320Z 10003KT 040V140 9999 -DZ SCT034 BKN055 08/06 Q1014=
201410171250 METAR ESMX 171250Z 10003KT 050V140 9999 -DZ BKN030 08/06 Q1014=
201410171220 METAR ESMX 171220Z 10003KT 050V160 9999 -DZ BKN025 08/06 Q1014=
201410171150 METAR ESMX 171150Z 07004KT 040V120 9999 -RA SCT024 BKN046 08/06 Q1013 REDZ=
201410171120 METAR ESMX 171120Z 07004KT 030V110 9999 -DZ FEW020 BKN042 08/06 Q1013=
201410171050 METAR ESMX 171050Z 07003KT 040V140 9999 -RA SCT023 BKN029 08/06 Q1013=
201410171020 METAR COR ESMX 171020Z 05004KT 010V080 9999 -DZ FEW015 BKN027 08/06 Q1013=
201410170950 METAR ESMX 170950Z 07004KT 040V110 9999 FEW018 OVC029 08/06 Q1013=
201410170920 METAR ESMX 170920Z 09005KT 050V120 9999 FEW022 BKN027 08/06 Q1012=
201410170920 METAR ESMX 170920Z 09005KT 050V120 9999 FEW022 BKN027 08/06 Q1012=
201410170850 SPECI METAR ESMX 170850Z 08006KT 050V130 9999 FEW009 BKN030 08/06 Q1012=
201410170850 METAR ESMX 170850Z 08006KT 050V130 9999 FEW009 BKN030 08/06 Q1012=
201410170821 METAR ESMX 170821Z 08006KT 9999 FEW007 BKN010 BKN048 08/07 Q1012=
201410170821 SPECI METAR ESMX 170821Z 08006KT 9999 FEW007 BKN010 BKN048 08/07 Q1012=
201410170750 METAR ESMX 170750Z 07006KT 030V110 9999 -RA FEW009 SCT059 08/07 Q1011=
201410170720 METAR COR ESMX 170720Z 07005KT 030V110 9999 -RA SCT010 BKN041 07/06 Q1011=
201410170650 METAR ESMX 170650Z 07004KT 030V110 9999 -RA FEW007 SCT009 BKN011 07/06 Q1011=
201410170620 METAR ESMX 170620Z 06004KT 020V100 9999 -RA FEW008 SCT011 BKN035 07/06 Q1011=
201410170550 METAR ESMX 170550Z 07005KT 020V130 9999 -RA FEW007 SCT010 OVC034 07/06 Q1010=
201410170520 SPECI METAR ESMX 170520Z 08005KT 030V120 9999 -RA FEW005 BKN007 OVC011 07/06 Q1010=
201410170520 METAR ESMX 170520Z 08005KT 030V120 9999 -RA FEW005 BKN007 OVC011 07/06 Q1010=
201410170450 METAR ESMX 170450Z 09004KT 030V130 9999 RA FEW005 BKN007 08/06 Q1010=
201410170420 METAR COR ESMX 170420Z 09005KT 050V130 9000 -RA BKN006 08/07 Q1009=
201410170350 METAR ESMX 170350Z 09005KT 060V120 9000 -RA BKN007 08/07 Q1009=
201410170320 METAR ESMX 170320Z AUTO 09005KT 050V130 9999 -DZ FEW005/// BKN007/// OVC009/// 08/07 Q1009=
201410170250 METAR ESMX 170250Z AUTO 09005KT 050V130 9999 -DZ FEW005/// BKN007/// OVC009/// 08/07 Q1009 REDZ=
201410170220 METAR ESMX 170220Z AUTO 09004KT 050V130 9999 BKN006/// OVC010/// 08/07 Q1009 RESHUP=
201410170150 METAR ESMX 170150Z AUTO 09004KT 040V130 9999 -DZ BKN005/// OVC010/// 08/07 Q1009=
201410170120 METAR ESMX 170120Z AUTO 08004KT 010V120 9999 -DZ FEW005/// BKN006/// BKN012/// 08/07 Q1009=
201410170050 METAR ESMX 170050Z AUTO 09005KT 060V130 9999 DZ FEW006/// BKN007/// OVC011/// 08/07 Q1009=
201410170020 METAR ESMX 170020Z AUTO 08004KT 050V120 9999 RA BKN006/// OVC010/// 08/07 Q1009 RERA=
201410162350 METAR ESMX 162350Z 08004KT 030V110 7000 RA FEW005 SCT008 OVC010 08/07 Q1009=
201410162320 METAR ESMX 162320Z 09003KT 360V140 9999 -RA SCT005 BKN008 OVC009 08/07 Q1009=
201410162250 METAR COR ESMX 162250Z 07004KT 030V120 8000 -RA BKN006 08/07 Q1009=
201410162220 METAR COR ESMX 162220Z 09004KT 050V140 9999 BKN008 08/07 Q1009 REDZ=
201410162150 METAR COR ESMX 162150Z 09004KT 040V150 9999 -RA BKN008 08/07 Q1009=
201410162120 METAR ESMX 162120Z AUTO 10004KT 070V150 9999 -RA FEW008/// OVC011/// 08/07 Q1009=
201410162050 METAR ESMX 162050Z 09005KT 050V140 9999 -RA OVC009 08/07 Q1009=
201410162020 METAR COR ESMX 162020Z 09004KT 060V140 9999 -RA OVC010 08/07 Q1009=
201410161950 METAR ESMX 161950Z 09005KT 050V130 9999 FEW009 OVC012 08/07 Q1009=
201410161920 METAR ESMX 161920Z 09004KT 050V160 9999 FEW009 OVC011 08/07 Q1009=
201410161850 METAR ESMX 161850Z 09004KT 050V140 9999 FEW009 BKN011 OVC045 08/07 Q1008=
201410161820 METAR ESMX 161820Z 09005KT 340V150 9999 FEW010 OVC051 08/07 Q1008=
201410161750 METAR ESMX 161750Z 07006KT 030V110 9999 FEW008 SCT011 OVC052 08/07 Q1008=
201410161720 METAR COR ESMX 161720Z 08004KT 040V120 9999 -RA FEW009 SCT012 BKN055 08/07 Q1008=
201410161650 METAR ESMX 161650Z 07005KT 040V110 9999 -RA BKN014 08/07 Q1008=
201410161620 METAR ESMX 161620Z 09004KT 060V120 9999 -RA BKN040 09/07 Q1008=
201410161550 METAR ESMX 161550Z 08005KT 050V140 9000 -RA FEW017 SCT038 09/07 Q1008=
201410161520 METAR COR ESMX 161520Z 07006KT 030V110 9999 -SHRA FEW019 10/06 Q1008=
201410161450 METAR COR ESMX 161450Z 07005KT 030V120 9999 FEW018 BKN063 10/06 Q1008=
201410161420 METAR ESMX 161420Z 07006KT 030V110 9999 SCT017 BKN049 10/07 Q1007=
201410161350 METAR ESMX 161350Z 07006KT 030V120 9999 SCT026 BKN048 11/06 Q1007=
201410161320 METAR ESMX 161320Z 09007KT 050V120 9999 FEW023 BKN048 11/06 Q1007=
201410161250 METAR ESMX 161250Z 11006KT 060V150 9999 SCT024 BKN045 11/06 Q1007=
201410161220 METAR COR ESMX 161220Z 09005KT 050V130 9999 FEW022 BKN048 11/06 Q1007=
201410161150 METAR ESMX 161150Z 08006KT 030V130 9999 FEW028 BKN036 11/06 Q1007=
201410161120 METAR ESMX 161120Z 09006KT 050V140 9999 SCT021 BKN037 11/06 Q1007=
201410161050 METAR COR ESMX 161050Z 09007KT 040V140 9999 FEW020 BKN035 11/06 Q1008=
201410161020 METAR ESMX 161020Z 09006KT 040V130 9999 BKN023 11/06 Q1008=
201410160950 METAR COR ESMX 160950Z 08006KT 040V120 9999 FEW019 BKN025 10/06 Q1008=
201410160920 METAR COR ESMX 160920Z 08008KT 050V120 9999 SCT015 BKN023 10/06 Q1008=
201410160850 METAR ESMX 160850Z 08007KT 020V150 9999 FEW016 BKN020 10/06 Q1008=
201410160820 METAR ESMX 160820Z 09007KT 050V120 9999 FEW011 BKN014 10/07 Q1008=
201410160750 METAR ESMX 160750Z 09006KT 050V140 9999 BKN010 09/07 Q1008=
201410160720 METAR ESMX 160720Z 08006KT 040V130 9999 FEW009 SCT011 BKN014 09/07 Q1008=
201410160650 METAR ESMX 160650Z 08006KT 040V120 9999 FEW012 SCT044 09/07 Q1007=
201410160620 METAR ESMX 160620Z 08006KT 050V120 9999 FEW010 SCT015 BKN044 08/07 Q1007=
201410160550 METAR ESMX 160550Z 08004KT 020V170 9999 SCT009 BKN015 09/07 Q1007=
201410160520 METAR ESMX 160520Z 07004KT 040V110 9999 FEW008 BKN015 09/07 Q1007=
201410160450 METAR ESMX 160450Z 06005KT 010V100 9999 FEW009 BKN010 OVC015 08/07 Q1007=
201410160420 METAR ESMX 160420Z VRB04KT 360V220 9999 FEW009 BKN011 OVC014 08/07 Q1008=
201410160350 METAR ESMX 160350Z 09003KT 060V150 9999 FEW009 OVC011 08/06 Q1008=
201410160320 METAR ESMX 160320Z AUTO 09005KT 050V120 9999 OVC009/// 08/06 Q1008=
201410160250 METAR ESMX 160250Z AUTO 05004KT 020V090 9999 BKN010/// OVC026/// 08/06 Q1008=
201410160220 METAR ESMX 160220Z AUTO 06005KT 030V110 9999 FEW007/// BKN009/// OVC012/// 08/06 Q1008=
201410160150 METAR ESMX 160150Z AUTO 06006KT 010V110 9999 BKN007/// 08/06 Q1008=
201410160120 METAR ESMX 160120Z AUTO 04007KT 010V080 9999 BKN007/// 08/06 Q1008=
201410160050 METAR ESMX 160050Z AUTO 05006KT 010V080 9999 BKN007/// BKN008/// 07/06 Q1008=
201410160020 METAR ESMX 160020Z AUTO 06005KT 040V110 9999 FEW007/// SCT009/// 07/06 Q1008=
201410152350 METAR ESMX 152350Z AUTO 05006KT 010V110 9999 BKN036/// 07/06 Q1008=
201410152320 METAR ESMX 152320Z 06006KT 9999 FEW009 SCT011 08/06 Q1009=
201410152250 METAR ESMX 152250Z 05006KT 020V090 9999 OVC009 08/06 Q1009=
201410152220 METAR ESMX 152220Z 06005KT 030V100 9999 BKN009 OVC064 08/06 Q1009=
201410152150 METAR ESMX 152150Z 05005KT 010V090 9999 BKN012 OVC064 08/06 Q1009=
201410152120 METAR ESMX 152120Z 07006KT 030V120 9999 SCT011 OVC064 08/06 Q1009=
201410152050 METAR ESMX 152050Z 07006KT 030V130 9999 FEW010 OVC065 08/06 Q1009=
201410152020 METAR ESMX 152020Z 05007KT 020V100 9999 FEW010 BKN064 08/06 Q1009=
201410151950 METAR ESMX 151950Z 05008KT 360V070 9999 FEW015 BKN070 08/06 Q1009=
201410151920 METAR ESMX 151920Z 06007KT 030V090 9999 FEW031 BKN068 08/06 Q1009=
201410151850 METAR ESMX 151850Z 04005KT 360V070 9999 FEW021 BKN029 08/06 Q1009=
201410151820 METAR ESMX 151820Z 04005KT 360V090 9999 FEW016 08/06 Q1009=
201410151750 METAR ESMX 151750Z 06005KT 010V100 9999 FEW013 08/06 Q1009=
201410151720 METAR COR ESMX 151720Z 05005KT 350V110 CAVOK 08/06 Q1009=
201410151650 METAR ESMX 151650Z 07006KT 050V110 9999 FEW015 BKN054 09/06 Q1009=
201410151620 METAR ESMX 151620Z 07006KT 050V130 9999 FEW015 BKN052 09/06 Q1009=
201410151550 METAR ESMX 151550Z 08006KT 040V110 9999 FEW015 BKN045 10/06 Q1009=
201410151520 METAR ESMX 151520Z 07006KT 030V110 9999 FEW015 BKN040 10/06 Q1009=
201410151450 METAR COR ESMX 151450Z 07006KT 030V110 9999 FEW015 SCT025 BKN035 10/06 Q1009=
201410151420 METAR ESMX 151420Z 09008KT 050V150 9999 FEW022 SCT032 BKN037 10/06 Q1009=
201410151350 METAR ESMX 151350Z 06008KT 020V120 9999 SCT017 BKN021 10/06 Q1009=
201410151320 METAR ESMX 151320Z 08006KT 040V120 9999 FEW020 SCT027 BKN031 11/07 Q1009=
201410151250 METAR ESMX 151250Z 08006KT 050V130 9999 FEW022 BKN060 11/06 Q1009=
201410151220 METAR ESMX 151220Z 08006KT 020V130 9999 -DZ FEW022 BKN062 11/06 Q1009=
201410151150 METAR ESMX 151150Z 08006KT 040V140 9999 SCT023 BKN049 11/06 Q1009=
201410151120 METAR ESMX 151120Z 07006KT 030V130 9999 FEW022 SCT049 BKN067 11/07 Q1010=
201410151050 METAR COR ESMX 151050Z 08005KT 050V130 9999 FEW018 SCT033 BKN059 11/07 Q1010=
201410151020 METAR ESMX 151020Z 08005KT 030V130 9999 FEW015 SCT019 BKN023 11/07 Q1010=
201410150950 METAR ESMX 150950Z 08006KT 020V120 9999 FEW014 SCT017 BKN021 10/07 Q1010=
201410150920 METAR ESMX 150920Z 07005KT 040V110 9999 FEW016 SCT019 BKN023 10/07 Q1010=
201410150850 METAR ESMX 150850Z 07005KT 030V110 9999 FEW012 SCT014 BKN017 10/07 Q1010=
201410150820 METAR ESMX 150820Z 04004KT 020V090 9999 FEW010 SCT013 BKN017 10/07 Q1010=
201410150750 METAR ESMX 150750Z 06005KT 020V110 9999 FEW010 BKN013 09/07 Q1010=
201410150720 METAR ESMX 150720Z 05006KT 9999 FEW011 SCT013 BKN016 09/07 Q1010=
201410150650 METAR ESMX 150650Z 05006KT 020V090 9999 FEW008 BKN055 09/07 Q1010=
201410150620 METAR ESMX 150620Z 06006KT 020V100 9999 SCT008 BKN057 08/07 Q1010=
201410150550 METAR ESMX 150550Z 04006KT 360V080 9999 BKN007 OVC011 08/07 Q1010=
201410150520 METAR ESMX 150520Z 05006KT 020V080 9999 OVC006 08/07 Q1010=
201410150450 METAR ESMX 150450Z 03006KT 360V070 9999 BKN006 BKN044 08/07 Q1010 REDZ=
201410150420 METAR ESMX 150420Z 05007KT 010V080 9999 FEW008 OVC037 08/06 Q1010=
201410150350 METAR ESMX 150350Z 06005KT 030V090 9999 FEW007 BKN029 08/07 Q1010=
201410150320 METAR ESMX 150320Z AUTO 04005KT 350V100 9999 OVC006/// 08/07 Q1010=
201410150250 METAR ESMX 150250Z AUTO 06004KT 020V090 9999 BKN007/// OVC051/// 08/06 Q1010=
201410150220 METAR ESMX 150220Z AUTO 04006KT 9999 FEW007/// SCT010/// OVC050/// 08/06 Q1010=
201410150150 METAR ESMX 150150Z AUTO 04007KT 9999 FEW008/// BKN053/// BKN100/// 08/06 Q1010=
201410150120 METAR ESMX 150120Z AUTO 04007KT 010V070 9999 SCT054/// BKN100/// 07/06 Q1010=
201410150050 METAR ESMX 150050Z AUTO 03005KT 9999 FEW009/// OVC056/// 08/06 Q1010=
201410150020 METAR ESMX 150020Z AUTO 06005KT 020V110 9999 OVC051/// 08/06 Q1010=
201410142350 METAR ESMX 142350Z 05004KT 360V080 9999 FEW012 OVC052 07/05 Q1011=
201410142320 METAR ESMX 142320Z 01003KT 9999 FEW013 BKN054 07/05 Q1011=
201410142250 METAR ESMX 142250Z 02006KT CAVOK 07/05 Q1010=
201410142220 METAR ESMX 142220Z 03006KT 010V070 CAVOK 08/05 Q1010=
201410142150 METAR ESMX 142150Z 04006KT 9999 OVC048 08/05 Q1010=
201410142120 METAR ESMX 142120Z 02005KT 360V060 9999 BKN049 08/05 Q1010=
201410142050 METAR ESMX 142050Z 03005KT 9999 OVC049 08/05 Q1011=
201410142020 METAR ESMX 142020Z 02006KT 9999 FEW014 OVC050 08/05 Q1011=
201410141950 METAR ESMX 141950Z 03005KT 9999 SCT012 BKN051 08/06 Q1010=
201410141920 METAR ESMX 141920Z 02006KT 350V050 9999 SCT010 BKN051 08/06 Q1010=
201410141850 METAR ESMX 141850Z 01006KT 9999 FEW012 BKN041 08/06 Q1010=
201410141820 METAR ESMX 141820Z 01006KT 9999 SCT011 BKN049 08/06 Q1010=
201410141750 METAR ESMX 141750Z 01007KT 9999 BKN011 08/06 Q1010=
201410141720 METAR ESMX 141720Z 01008KT 9999 OVC011 08/06 Q1010=
201410141650 METAR ESMX 141650Z 01008KT 9999 FEW007 SCT009 BKN016 08/06 Q1010=
201410141620 METAR ESMX 141620Z 01009KT 9999 FEW009 SCT014 08/06 Q1010=
201410141550 METAR ESMX 141550Z 01008KT 9999 FEW006 BKN010 OVC014 08/07 Q1010=
201410141520 METAR ESMX 141520Z 01008KT 9999 FEW006 SCT009 OVC010 08/07 Q1010=
201410141450 METAR ESMX 141450Z 02008KT 9999 FEW007 SCT009 OVC011 08/07 Q1010=
201410141420 METAR ESMX 141420Z 03009KT 9999 OVC010 09/06 Q1010=
201410141350 METAR COR ESMX 141350Z 02010KT 9999 FEW009 OVC012 09/07 Q1010=
201410141320 METAR ESMX 141320Z 02008KT 9999 OVC011 09/07 Q1009=
201410141250 METAR ESMX 141250Z 03010KT 9999 OVC010 09/07 Q1009=
201410141220 METAR COR ESMX 141220Z 01009KT 340V050 9999 OVC010 09/07 Q1009=
201410141150 METAR ESMX 141150Z 02009KT 9999 BKN010 09/07 Q1009=
201410141120 METAR ESMX 141120Z 02009KT 350V060 9999 OVC010 09/07 Q1009=
201410141050 METAR ESMX 141050Z 01009KT 9999 FEW009 BKN010 09/07 Q1009=
201410141020 METAR ESMX 141020Z 03009KT 9999 FEW009 BKN010 09/08 Q1009=
201410140950 METAR ESMX 140950Z 01010KT 9999 FEW008 BKN010 10/08 Q1009=
201410140920 METAR ESMX 140920Z 36010KT 9999 SCT007 BKN010 09/08 Q1009=
201410140850 METAR ESMX 140850Z 01009KT 9999 FEW006 SCT009 OVC010 09/08 Q1009=
201410140820 METAR COR ESMX 140820Z 03007KT 9999 FEW007 BKN010 09/08 Q1009=
201410140750 METAR ESMX 140750Z 03008KT 9999 FEW006 SCT008 BKN009 09/08 Q1009=
201410140720 METAR ESMX 140720Z 03006KT 350V070 9999 OVC007 09/07 Q1009=
201410140650 METAR ESMX 140650Z 02007KT 9999 FEW008 BKN010 OVC016 08/07 Q1009=
201410140620 METAR ESMX 140620Z 01008KT 9999 FEW006 SCT013 BKN018 08/07 Q1008=
201410140550 METAR ESMX 140550Z 01008KT 9999 FEW007 BKN012 OVC045 08/07 Q1008=
201410140520 METAR ESMX 140520Z 01008KT 9999 FEW005 SCT008 BKN015 08/07 Q1008=
201410140450 METAR ESMX 140450Z 02009KT 9999 FEW007 SCT016 BKN025 08/07 Q1008=
201410140420 METAR ESMX 140420Z 01007KT 9999 BKN008 08/07 Q1008=
201410140350 METAR ESMX 140350Z 01008KT 9999 SCT008 BKN034 08/07 Q1008=
201410140320 METAR ESMX 140320Z AUTO 03009KT 9999 FEW009/// BKN011/// OVC028/// 08/07 Q1008=
201410132150 METAR ESMX 132150Z 03007KT 010V070 9999 -RA FEW008 OVC033 08/07 Q1009=
201410132120 METAR ESMX 132120Z 05008KT 9999 -RA OVC033 08/07 Q1010=
201410132050 METAR ESMX 132050Z 03008KT 9999 -RA OVC034 08/07 Q1010=
201410132020 METAR ESMX 132020Z 04007KT 9999 -RA OVC036 08/07 Q1010=
201410131950 METAR ESMX 131950Z 05007KT 020V080 9999 -RA BKN040 08/07 Q1010=
201410131920 METAR ESMX 131920Z 05006KT 9999 -RA BKN042 08/07 Q1011=
201410131850 METAR ESMX 131850Z 05006KT 9999 -RA BKN047 08/07 Q1011=
201410131820 METAR ESMX 131820Z 07004KT 040V110 9000 -RA FEW025 BKN054 08/07 Q1011=
201410131750 METAR ESMX 131750Z 07005KT 030V110 9999 -RA FEW025 BKN055 09/07 Q1011=
201410131720 METAR COR ESMX 131720Z 06006KT 030V100 9999 -RA FEW024 BKN057 09/08 Q1011=
201410131650 METAR ESMX 131650Z 05005KT 020V090 9999 -RA FEW020 BKN060 09/08 Q1011=
201410131620 METAR ESMX 131620Z 05004KT 010V090 9999 -RA OVC060 09/08 Q1011=
201410131550 METAR ESMX 131550Z 04006KT 9999 -RA FEW020 BKN065 09/08 Q1011=
201410131520 METAR ESMX 131520Z 04005KT 9999 -RA FEW010 BKN061 09/08 Q1012=
201410131450 METAR ESMX 131450Z 04005KT 9999 -RA FEW010 BKN045 09/09 Q1012=
201410131420 METAR ESMX 131420Z 06003KT 030V100 9999 -RA FEW011 BKN036 10/09 Q1012 REDZ=
201410131350 METAR ESMX 131350Z 06004KT 9999 FEW010 BKN036 09/09 Q1012=
201410131320 METAR COR ESMX 131320Z 06004KT 030V090 9999 -DZ FEW006 BKN060 09/09 Q1013 RERA=
201410131250 METAR ESMX 131250Z 04004KT 010V080 9999 FEW008 09/09 Q1013=
201410131220 METAR ESMX 131220Z 04004KT 9999 -RA SCT005 BKN008 09/09 Q1013=
201410131150 METAR ESMX 131150Z 03004KT 9999 -DZ BKN004 09/09 Q1014=
201410131120 METAR ESMX 131120Z 02003KT 9999 -RA FEW002 OVC004 09/09 Q1014 REDZ=
201410131050 METAR ESMX 131050Z AUTO VRB03KT 9999 BKN002/// 09/08 Q1014=
201410131020 METAR ESMX 131020Z VRB03KT 9999 OVC002 09/08 Q1014=
201410130950 METAR ESMX 130950Z VRB02KT 9999 BR BKN002 08/08 Q1014=
201410130920 METAR ESMX 130920Z 21002KT 8000 BR BKN002 08/07 Q1015=
201410130850 METAR ESMX 130850Z VRB03KT 5000 BR BKN002 08/07 Q1014=
201410130820 METAR ESMX 130820Z 16005KT 130V190 3000 BR VV002 08/07 Q1014=
201410130750 METAR ESMX 130750Z 00000KT 0900 R01/0800V1600U R19/1000VP2000D FG VV002 08/07 Q1014=
201410130720 METAR ESMX 130720Z 14004KT 110V170 0700 R01/0800V0900N R19/0800V0900N FG VV002 07/07 Q1014=
201410130650 METAR ESMX 130650Z VRB03KT 0300 R01/0400V0550N R19/0700N FG VV002 07/07 Q1014=
201410130620 METAR ESMX 130620Z 16004KT 130V190 0300 R01/0550V0700N R19/0375V0500N FG VV002 07/07 Q1014=
201410130550 METAR ESMX 130550Z VRB03KT 0300 R01/0650N R19/0400N FG VV002 07/07 Q1014=
201410130520 METAR ESMX 130520Z 00000KT 0200 R01/0400N R19/0500N FG VV002 07/06 Q1014=
201410130450 METAR ESMX 130450Z VRB01KT 0150 R01/0550N R19/0500N FG VV002 07/06 Q1014=
201410130420 METAR ESMX 130420Z 00000KT 0150 R01/0600N R19/0500N FG VV001 07/06 Q1014=
201410130350 METAR ESMX 130350Z VRB01KT 0250 R01/0750V0900N R19/0750V0900N FG VV001 06/06 Q1014=
201410130320 METAR ESMX 130320Z AUTO VRB02KT 0150 R01/0500V0600N R19/0450V0600N FG VV000 07/06 Q1014=
201410130250 METAR ESMX 130250Z AUTO 00000KT 0100 R01/0400N R19/0550N FG VV000 07/06 Q1014=
201410130220 METAR ESMX 130220Z AUTO 30002KT 0100 R01/0500N R19/0400N FG VV001 07/06 Q1014=
201410130150 METAR ESMX 130150Z AUTO VRB02KT 0150 R01/0550N R19/0600V0800N FG VV001 07/07 Q1014=
201410130120 METAR ESMX 130120Z AUTO 19004KT 0150 R01/0650N R19/0500N FG VV001 07/07 Q1014=
201410130050 METAR ESMX 130050Z AUTO VRB03KT 0150 R01/0550N R19/0600V0750N FG VV001 08/07 Q1014=
201410130020 METAR ESMX 130020Z AUTO 26003KT 230V290 0200 R01/0700N R19/0900V1300D FG VV001 08/07 Q1014=
201410122350 METAR ESMX 122350Z AUTO VRB03KT 0400 R01/1000V1300N R19/1000V1900D FG VV001 08/08 Q1014=
201410122320 METAR ESMX 122320Z 22004KT 190V250 0800 R01/P2000N R19/P2000N FG VV002 08/08 Q1014=
201410122250 METAR ESMX 122250Z 25003KT 210V280 0550 R01/0900VP2000U R19/1200VP2000U FG VV002 08/08 Q1014=
201410122220 METAR ESMX 122220Z 25003KT 190V290 0400 R01/1000V1400D R19/1000V1200N FG VV002 09/08 Q1014=
201410122150 METAR ESMX 122150Z 27004KT 230V300 0300 R01/0800V0900N R19/1100VP2000D FG VV002 09/08 Q1014=
201410122120 METAR ESMX 122120Z 26005KT 1000 R01/P2000N R19/P2000N BR OVC002 09/08 Q1014=
201410122050 METAR ESMX 122050Z 24006KT 5000 BR BKN004 08/08 Q1013=
201410122020 METAR ESMX 122020Z AUTO 22006KT 5000 BR NCD 07/07 Q1013=
201410121950 METAR ESMX 121950Z 22005KT CAVOK 08/07 Q1013=
201410121920 METAR ESMX 121920Z 23005KT CAVOK 08/07 Q1013=
201410121850 METAR ESMX 121850Z 24006KT CAVOK 08/07 Q1013=
201410121820 METAR ESMX 121820Z 23005KT CAVOK 08/07 Q1012=
201410121750 METAR ESMX 121750Z 24005KT CAVOK 09/07 Q1012=
201410121720 METAR ESMX 121720Z 23005KT CAVOK 09/07 Q1012=
201410121650 METAR ESMX 121650Z 24005KT CAVOK 10/08 Q1012=
201410121620 METAR ESMX 121620Z 23005KT 9999 FEW020 10/08 Q1012=
201410121550 METAR ESMX 121550Z 26005KT 230V290 9999 SCT044 12/08 Q1011=
201410121520 METAR ESMX 121520Z 26007KT 230V300 9999 FEW037 BKN044 12/08 Q1011=
201410121450 METAR ESMX 121450Z 26006KT 9999 SCT044 13/09 Q1011=
201410121420 METAR ESMX 121420Z 25009KT 9999 FEW020 SCT027 BKN057 13/09 Q1011=
201410121350 METAR COR ESMX 121350Z 26009KT 240V300 9999 FEW022 BKN052 14/09 Q1011=
201410121320 METAR ESMX 121320Z 25010KT 210V280 9999 FEW021 SCT040 BKN050 14/09 Q1010=
201410121250 METAR ESMX 121250Z 25009KT 9999 FEW020 14/09 Q1010=
201410121220 METAR ESMX 121220Z 23010KT 190V250 9999 FEW015 SCT021 14/10 Q1010=
201410121150 METAR ESMX 121150Z 23008KT 9999 FEW013 SCT026 BKN033 14/11 Q1010=
201410121120 METAR ESMX 121120Z 22011KT 9999 FEW014 SCT017 BKN042 14/11 Q1010=
201410121050 METAR ESMX 121050Z 21008KT 170V230 9999 FEW008 SCT010 BKN015 14/11 Q1010=
201410121020 METAR ESMX 121020Z AUTO 23010KT 9999 FEW005/// SCT008/// BKN010/// 13/11 Q1010=
201410120950 METAR ESMX 120950Z AUTO 19009KT 9999 FEW004/// SCT008/// BKN010/// 13/12 Q1010=
201410120920 METAR ESMX 120920Z AUTO 18007KT 9999 -RA SCT003/// BKN005/// OVC008/// 12/11 Q1010 REDZ=
201410120850 METAR ESMX 120850Z AUTO 16008KT 8000 DZ OVC003/// 12/11 Q1010=
201410120820 METAR ESMX 120820Z AUTO 16006KT 8000 DZ BKN002/// OVC005/// 12/11 Q1010=
201410120750 METAR ESMX 120750Z AUTO 15005KT 110V170 8000 DZ SCT002/// OVC005/// 11/11 Q1010 REDZ=
201410120720 METAR ESMX 120720Z AUTO 15005KT 110V190 5000 DZ OVC003/// 11/11 Q1010=
201410120650 METAR ESMX 120650Z AUTO 14004KT 3600 DZ FEW002/// OVC004/// 11/11 Q1010 REDZ=
201410120620 METAR ESMX 120620Z AUTO 15004KT 110V190 5000 DZ OVC003/// 11/10 Q1010=
201410120550 METAR ESMX 120550Z AUTO 11004KT 070V160 4300 BR OVC003/// 11/10 Q1010=
201410120520 METAR ESMX 120520Z AUTO 12004KT 090V170 6000 BR OVC003/// 11/10 Q1010=
201410120450 METAR ESMX 120450Z AUTO 12004KT 070V180 6000 BR OVC003/// 11/10 Q1010=
201410120420 METAR ESMX 120420Z AUTO VRB02KT 6000 BR OVC004/// 11/10 Q1010=
201410120350 METAR ESMX 120350Z AUTO VRB03KT 7000 BR OVC005/// 11/10 Q1011=
201410120320 METAR ESMX 120320Z AUTO 10003KT 050V130 5000 BR BKN004/// OVC008/// 11/10 Q1011=
201410120250 METAR ESMX 120250Z AUTO VRB02KT 5000 BR FEW003/// SCT004/// BKN007/// 11/10 Q1011=
201410120220 METAR ESMX 120220Z AUTO 12004KT 070V170 2300 BR OVC002/// 11/10 Q1012=
201410120150 METAR ESMX 120150Z AUTO VRB03KT 4600 BR FEW002/// SCT004/// OVC005/// 11/10 Q1012=
201410120120 METAR ESMX 120120Z AUTO 11003KT 080V150 3800 BKN001/// OVC003/// 11/10 Q1012=
201410120050 METAR ESMX 120050Z AUTO VRB03KT 1000 R01/P2000N R19/P2000N OVC001/// 11/10 Q1012=
201410120020 METAR ESMX 120020Z AUTO VRB02KT 0700 R01/1600V1900D R19/1700VP2000D FG VV002 11/10 Q1013=
201410112350 METAR ESMX 112350Z AUTO 13004KT 070V160 1500 VV001 11/10 Q1013=
201410112320 METAR ESMX 112320Z AUTO 15004KT 110V240 0700 R01/P2000N R19/1600V1900N FG VV001 11/10 Q1013=
201410112250 METAR ESMX 112250Z AUTO 14005KT 060V180 0550 R01/1200V1900U R19/1200V1800U FG VV001 10/10 Q1013=
201410112220 METAR ESMX 112220Z AUTO 13005KT 070V160 1200 R01/P2000N R19/P2000N VV002 10/10 Q1014=
201410112150 METAR ESMX 112150Z AUTO 13004KT 080V160 0550 R01/1200V1700U R19/1600VP2000N FG VV001 10/09 Q1014=
201410112120 METAR ESMX 112120Z AUTO 13004KT 090V170 0350 R01/0900V1100U R19/1400VP2000D FG VV001 10/09 Q1014=
201410112050 METAR ESMX 112050Z AUTO 12004KT 080V150 6000 BR FEW002/// SCT045/// BKN051/// 09/09 Q1014=
201410112020 METAR ESMX 112020Z AUTO 12003KT 090V150 9999 FEW033/// BKN050/// 09/08 Q1015=
201410111950 METAR ESMX 111950Z AUTO 09003KT 9999 FEW036/// 09/08 Q1015=
201410111920 METAR ESMX 111920Z AUTO VRB03KT 9999 FEW040/// 09/08 Q1015=
201410111850 METAR ESMX 111850Z AUTO 09002KT 7000 NCD 08/07 Q1015=
201410111820 METAR ESMX 111820Z 07002KT 9999 BCFG NSC 07/06 Q1015=
201410111750 METAR ESMX 111750Z VRB02KT 9999 4000S BCFG NSC 07/06 Q1015=
201410111720 METAR ESMX 111720Z 01002KT 9999 0800N R01/P2000N R19/P2000N MIFG NSC 07/06 Q1015=
201410111650 METAR ESMX 111650Z 08002KT 9999 MIFG NSC 08/07 Q1016=
201410111620 METAR ESMX 111620Z 06003KT 9999 MIFG NSC 10/08 Q1015=
201410111550 METAR ESMX 111550Z 06003KT CAVOK 11/09 Q1016=
201410111520 METAR ESMX 111520Z AUTO VRB02KT 9999 NCD 12/09 Q1016=
201410111450 METAR ESMX 111450Z AUTO VRB03KT 9999 NCD 13/09 Q1016=
201410111420 METAR ESMX 111420Z AUTO VRB03KT 9999 NCD 14/08 Q1016=
201410111350 METAR ESMX 111350Z AUTO 15003KT 120V200 9999 BKN015/// 13/09 Q1016=
201410111320 METAR ESMX 111320Z AUTO 14003KT 080V180 9999 FEW015/// 14/09 Q1016=
201410111250 METAR ESMX 111250Z AUTO VRB02KT 9999 BKN012/// 14/10 Q1016=
201410111220 METAR ESMX 111220Z AUTO 19004KT 9999 OVC010/// 12/09 Q1017=
201410111150 METAR ESMX 111150Z AUTO 20004KT 160V260 9999 FEW008/// BKN009/// 12/09 Q1017=
201410111120 METAR ESMX 111120Z AUTO 21005KT 9999 OVC007/// 12/09 Q1017=
201410111050 METAR ESMX 111050Z AUTO 21005KT 9999 BKN005/// OVC008/// 12/10 Q1017=
201410111020 METAR ESMX 111020Z AUTO 21005KT 9999 BKN003/// OVC006/// 11/10 Q1017=
201410110950 METAR ESMX 110950Z AUTO 18005KT 140V200 9999 OVC001/// 11/10 Q1017=
201410110920 METAR ESMX 110920Z AUTO 21005KT 4400 BR BKN001/// OVC003/// 11/10 Q1017=
201410110850 METAR ESMX 110850Z AUTO 17004KT 3500 BR OVC001/// 10/10 Q1017=
201410110820 METAR ESMX 110820Z AUTO 17004KT 5000 BR OVC001/// 10/09 Q1017=
201410110750 METAR ESMX 110750Z AUTO 18004KT 4400 BR OVC001/// 10/09 Q1017=
201410110720 METAR ESMX 110720Z AUTO 20004KT 2600 OVC001/// 10/10 Q1017=
201410110650 METAR ESMX 110650Z AUTO 18003KT 160V230 1800 VV001 10/09 Q1017=
201410110620 METAR ESMX 110620Z AUTO 20003KT 0750 R01/1100V1300N R19/1300V1600N FG VV002 10/09 Q1016=
201410110550 METAR ESMX 110550Z AUTO 20005KT 2100 OVC001/// 10/09 Q1016=
201410110520 METAR ESMX 110520Z AUTO 17005KT 140V200 1300 R01/P2000N R19/P2000N BKN001/// OVC003/// 10/09 Q1016=
201410110450 METAR ESMX 110450Z AUTO 18005KT 2900 BR OVC001/// 10/10 Q1016=
201410110420 METAR ESMX 110420Z AUTO 18004KT 4500 BR OVC002/// 10/10 Q1016=
201410110350 METAR ESMX 110350Z AUTO VRB02KT 4000 BR OVC003/// 10/10 Q1015=
201410110320 METAR ESMX 110320Z AUTO VRB03KT 5000 BR SCT003/// OVC005/// 11/10 Q1016=
201410110250 METAR ESMX 110250Z AUTO 24004KT 200V270 6000 BR BKN002/// 11/10 Q1016=
201410110220 METAR ESMX 110220Z AUTO VRB03KT 7000 BR OVC002/// 11/10 Q1015=
201410110150 METAR ESMX 110150Z AUTO 23006KT 5000 BR OVC002/// 11/10 Q1016=
201410110120 METAR ESMX 110120Z AUTO 22005KT 6000 BR OVC003/// 11/10 Q1015=
201410110050 METAR ESMX 110050Z AUTO 22006KT 6000 BR OVC003/// 11/10 Q1015=
201410110020 METAR ESMX 110020Z AUTO 18006KT 1500 BR FEW005/// SCT015/// 10/09 Q1015=
201410102350 METAR ESMX 102350Z AUTO 19006KT 5000 BR BKN012/// 10/09 Q1015=
201410102320 METAR ESMX 102320Z AUTO 20008KT 7000 BR FEW006/// SCT008/// BKN013/// 11/10 Q1015=
201410102250 METAR ESMX 102250Z AUTO 20008KT 7000 BR FEW005/// SCT007/// BKN009/// 11/10 Q1015=
201410102220 METAR ESMX 102220Z AUTO 20007KT 5000 BR SCT005/// BKN009/// BKN010/// 11/10 Q1015=
201410102150 METAR ESMX 102150Z AUTO 19008KT 4300 BR FEW005/// SCT007/// 10/09 Q1015=
201410102120 METAR ESMX 102120Z AUTO 19006KT 3900 BR NCD 10/09 Q1014=
201410102050 METAR ESMX 102050Z AUTO 21006KT 4900 BR NCD 10/09 Q1014=
201410102020 METAR ESMX 102020Z AUTO 21006KT 6000 BR NCD 10/09 Q1014=
201410101950 METAR ESMX 101950Z AUTO 22006KT 8000 BR NCD 10/09 Q1014=
201410101920 METAR ESMX 101920Z AUTO 20008KT 9000 BR FEW020/// 11/10 Q1013=
201410101850 METAR ESMX 101850Z AUTO 21007KT 9999 FEW018/// SCT021/// 12/10 Q1013=
201410101820 METAR ESMX 101820Z AUTO 19008KT 9999 FEW019/// SCT021/// 12/11 Q1013=
201410101750 METAR ESMX 101750Z AUTO 19008KT 9999 FEW018/// SCT035/// 12/10 Q1013=
201410101720 METAR ESMX 101720Z 18006KT 9000 BR SCT021 BKN029 11/10 Q1012=
201410101650 METAR ESMX 101650Z 20007KT 9999 FEW025 12/10 Q1012=
201410101620 METAR ESMX 101620Z 21007KT 9999 FEW025 12/10 Q1012=
201410101550 METAR ESMX 101550Z 22009KT 9999 FEW030 13/11 Q1011=
201410101520 METAR ESMX 101520Z 20011KT 9999 -SHRA SCT020CB BKN030 14/11 Q1011=
201410101450 METAR ESMX 101450Z 20011KT 9999 FEW030 BKN043 14/10 Q1011=
201410101420 METAR ESMX 101420Z 21010KT 9999 SCT026 SCT041 15/10 Q1010=
201410101350 METAR ESMX 101350Z 20012KT 9999 SCT025 15/11 Q1010=
201410101320 METAR ESMX 101320Z 20010KT 9999 FEW020 BKN024 15/11 Q1010=
201410101250 METAR ESMX 101250Z 22012KT 9999 FEW024 SCT031 BKN036 15/10 Q1010=
201410101220 METAR COR ESMX 101220Z 20012KT 9999 FEW031 BKN044 15/10 Q1010=
201410101150 METAR ESMX 101150Z 21013KT 9999 FEW023 SCT042 15/10 Q1010=
201410101120 METAR ESMX 101120Z 21012KT 9999 FEW021 SCT038 16/11 Q1009=
201410101050 METAR ESMX 101050Z 21013KT 9999 FEW018 BKN024 15/11 Q1009=
201410101020 METAR ESMX 101020Z 21013KT 9999 BKN015 14/11 Q1009=
201410100950 METAR ESMX 100950Z 21014KT 9999 BKN014 14/11 Q1009=
201410100920 METAR COR ESMX 100920Z 21014KT 9999 SCT012 BKN016 BKN021 13/10 Q1009=
201410100850 METAR ESMX 100850Z 21011KT 9999 FEW012 SCT015 BKN017 13/11 Q1009=
201410100820 METAR ESMX 100820Z 20012KT 9999 FEW008 SCT012 12/11 Q1008=
201410100750 METAR ESMX 100750Z 20010KT 9999 FEW009 SCT012 12/11 Q1008=
201410100720 METAR ESMX 100720Z 21009KT 9000 BR FEW010 12/10 Q1008=
201410100650 METAR ESMX 100650Z 19010KT 9000 BR NSC 11/10 Q1007=
201410100620 METAR ESMX 100620Z 18008KT 8000 BR NSC 11/10 Q1007=
201410100550 METAR COR ESMX 100550Z 18008KT 7000 BR NSC 11/10 Q1007=
201410100520 METAR COR ESMX 100520Z 19009KT 8000 BR NSC 11/10 Q1007=
201410100450 METAR ESMX 100450Z 17007KT 6000 BR NSC 11/10 Q1006=
201410100420 METAR ESMX 100420Z AUTO 18007KT 4000 BR NCD 11/10 Q1006=
201410100350 METAR ESMX 100350Z AUTO 19007KT 4400 BR NCD 11/10 Q1006=
201410100320 METAR ESMX 100320Z AUTO 19007KT 3700 BR FEW005/// SCT066/// 12/11 Q1006=
201410100250 METAR ESMX 100250Z AUTO 17006KT 6000 BR FEW005/// SCT010/// BKN016/// 13/12 Q1006=
201410100220 METAR ESMX 100220Z AUTO 17007KT 6000 BR FEW005/// SCT006/// BKN008/// 13/12 Q1006=
201410100150 METAR ESMX 100150Z AUTO 17007KT 5000 BR BKN004/// OVC008/// 13/12 Q1006=
201410100120 METAR ESMX 100120Z AUTO 17006KT 5000 BR OVC004/// 13/12 Q1006 RERA=
201410100050 METAR ESMX 100050Z AUTO 17007KT 5000 BR SCT002/// BKN005/// 13/12 Q1006=
201410100020 METAR ESMX 100020Z AUTO 17006KT 4800 BR FEW002/// SCT004/// BKN042/// 13/12 Q1006=
201410092350 METAR ESMX 092350Z 18005KT 5000 BR BKN005 OVC016 13/12 Q1006=
201410092320 METAR ESMX 092320Z 16005KT 5000 BR FEW005 SCT026 BKN054 12/12 Q1006=
201410092250 METAR ESMX 092250Z 16005KT 5000 BR FEW004 SCT079 BKN095 12/12 Q1006=
201410092220 METAR ESMX 092220Z 17006KT 6000 BR FEW004 SCT027 12/11 Q1006=
201410092150 METAR ESMX 092150Z 17006KT 6000 BR FEW027 SCT093 12/11 Q1006=
201410092120 METAR ESMX 092120Z 17005KT CAVOK 12/11 Q1006=
201410092050 METAR ESMX 092050Z AUTO 16006KT 8000 BR NCD 12/11 Q1006=
201410092020 METAR ESMX 092020Z AUTO 17007KT 9999 NCD 13/11 Q1006=
201410091950 METAR ESMX 091950Z 17006KT CAVOK 13/11 Q1006=
201410091920 METAR ESMX 091920Z 18006KT CAVOK 13/11 Q1006=
201410091850 METAR ESMX 091850Z 17007KT CAVOK 13/11 Q1006=
201410091820 METAR ESMX 091820Z 17007KT CAVOK 13/11 Q1006=
201410091750 METAR ESMX 091750Z 18007KT CAVOK 13/11 Q1006=
201410091720 METAR ESMX 091720Z 17006KT 9999 FEW020 13/11 Q1005=
201410091650 METAR ESMX 091650Z 18006KT 9999 FEW022 13/11 Q1005=
201410091620 METAR ESMX 091620Z 18005KT 9999 FEW023 14/11 Q1005=
201410091550 METAR ESMX 091550Z 19006KT 9999 FEW020 14/11 Q1005=
201410091520 METAR ESMX 091520Z 20006KT 9999 FEW020 15/12 Q1004=
201410091450 METAR ESMX 091450Z 20008KT 9999 FEW020 16/12 Q1004=
201410091420 METAR ESMX 091420Z 22009KT 9999 FEW017 SCT025 16/12 Q1004=
201410091350 METAR ESMX 091350Z 20010KT 9999 FEW014 SCT021 16/13 Q1004=
201410091320 METAR ESMX 091320Z 21008KT 9999 FEW013 SCT080 16/13 Q1004=
201410091250 METAR COR ESMX 091250Z 21010KT 9999 FEW012 SCT018 BKN024 16/13 Q1004=
201410091220 METAR ESMX 091220Z 20012KT 9999 FEW010 SCT015 BKN020 16/14 Q1003=
201410091150 METAR ESMX 091150Z 20011KT 9999 SCT006 BKN010 15/14 Q1003=
201410091120 METAR ESMX 091120Z 18011KT 4000 SHRA FEW006 BKN012 15/13 Q1003 RERA=
201410091050 METAR ESMX 091050Z 17010KT 6000 -SHRA FEW007 SCT010 BKN013 15/13 Q1003 RERA=
201410091020 METAR COR ESMX 091020Z 18011KT 9000 RA FEW006 SCT009 BKN012 14/13 Q1003=
201410090950 METAR ESMX 090950Z 17011KT 7000 -SHRA SCT010 BKN015 14/13 Q1003=
201410090920 METAR ESMX 090920Z 17010KT 9999 FEW009 SCT013 BKN016 15/13 Q1003=
201410090850 METAR ESMX 090850Z 17011KT 9999 FEW007 BKN009 OVC014 14/13 Q1003=
201410090820 METAR ESMX 090820Z 17008KT 8000 BR SCT006 BKN009 14/13 Q1002=
201410090750 METAR ESMX 090750Z 17009KT 150V210 8000 BR BKN006 14/13 Q1002=
201410090720 METAR ESMX 090720Z 16008KT 7000 -RA SCT005 BKN008 14/13 Q1002 REUP=
201410090650 METAR ESMX 090650Z 16009KT 7000 BR SCT003 BKN006 14/13 Q1002=
201410090620 METAR COR ESMX 090620Z 16009KT 120V190 6000 -DZ OVC003 13/13 Q1002 RESHUP RERA=
201410090550 METAR ESMX 090550Z 16007KT 120V200 3100 -DZ OVC002 13/12 Q1002=
201410090520 METAR ESMX 090520Z 15006KT 110V190 3000 -DZ OVC003 13/12 Q1002=
201410090450 METAR ESMX 090450Z 14005KT 100V170 2900 -DZ OVC003 13/12 Q1002=
201410090420 METAR COR ESMX 090420Z 14006KT 100V160 2600 -DZ OVC003 12/12 Q1002=
201410090350 METAR ESMX 090350Z 14005KT 090V160 7000 BR BKN004 12/12 Q1002=
201410090320 METAR ESMX 090320Z AUTO 14005KT 5000 BR OVC001/// 12/11 Q1002=
201410090250 METAR ESMX 090250Z AUTO 14007KT 090V170 3100 BR OVC001/// 12/11 Q1003=
201410090220 METAR ESMX 090220Z AUTO 15006KT 100V170 4100 BR OVC002/// 12/11 Q1003=
201410090150 METAR ESMX 090150Z AUTO 14005KT 100V170 5000 BR OVC001/// 12/11 Q1003 REDZ=
201410090120 METAR ESMX 090120Z AUTO 13006KT 090V170 5000 BR OVC002/// 12/11 Q1004 RERA=
201410090050 METAR ESMX 090050Z AUTO 12004KT 080V170 8000 BR OVC003/// 11/10 Q1004=
201410090020 METAR ESMX 090020Z AUTO 10004KT 070V150 7000 DZ OVC004/// 11/10 Q1004 REDZ=
201410082350 METAR ESMX 082350Z AUTO 12005KT 070V150 8000 DZ OVC005/// 11/10 Q1005=
201410082320 METAR ESMX 082320Z 12005KT 090V170 9999 FEW007 SCT028 10/09 Q1005=
201410082250 METAR ESMX 082250Z 12004KT 080V150 9999 FEW027 SCT035 OVC040 10/09 Q1005 REDZ=
201410082220 METAR ESMX 082220Z 12005KT 070V160 9999 -RA FEW037 SCT043 10/09 Q1006=
201410082150 METAR ESMX 082150Z 09004KT 060V140 CAVOK 10/09 Q1006=
201410082120 METAR ESMX 082120Z 13003KT 090V160 9999 FEW006 BKN060 10/09 Q1007 REDZ=
201410082050 METAR ESMX 082050Z 13004KT 090V160 CAVOK 10/09 Q1007=
201410082020 METAR ESMX 082020Z 12004KT 080V160 CAVOK 10/09 Q1007=
201410081950 METAR ESMX 081950Z VRB03KT CAVOK 10/09 Q1007=
201410081920 METAR ESMX 081920Z 14005KT 9999 FEW010 SCT076 10/09 Q1008=
201410081850 METAR ESMX 081850Z 16006KT 9999 FEW012 SCT100 11/09 Q1008=
201410081820 METAR ESMX 081820Z 16007KT 9999 FEW009 11/09 Q1008=
201410081750 METAR ESMX 081750Z AUTO 16008KT 9999 FEW011/// 11/09 Q1008=
201410081720 METAR ESMX 081720Z 16006KT 9999 FEW019 11/08 Q1008=
201410081650 METAR ESMX 081650Z 15005KT 9999 FEW024 SCT029 11/08 Q1008=
201410081620 METAR ESMX 081620Z AUTO 15005KT 9999 NCD 12/07 Q1008=
201410081550 METAR ESMX 081550Z 17006KT CAVOK 12/08 Q1008=
201410081520 METAR COR ESMX 081520Z 16006KT 9999 FEW028 SCT034 13/08 Q1008=
201410081450 METAR ESMX 081450Z 18010KT 9999 FEW033 13/07 Q1008=
201410081420 METAR ESMX 081420Z 18012KT 9999 FEW030 14/07 Q1008=
201410081350 METAR COR ESMX 081350Z 18010KT 150V210 9999 FEW030 14/08 Q1008=
201410081320 METAR ESMX 081320Z 19011KT 9999 SCT030 14/08 Q1007=
201410081250 METAR ESMX 081250Z 19011KT 9999 FEW028 14/07 Q1008=
201410081220 METAR COR ESMX 081220Z 20012KT 9999 FEW024 13/07 Q1008=
201410081150 METAR ESMX 081150Z 19014KT 9999 SCT021 13/09 Q1008=
201410081120 METAR ESMX 081120Z 19013KT 9999 FEW023 SCT026 13/09 Q1008=
201410081050 METAR ESMX 081050Z 20012KT 9999 FEW022 12/08 Q1008=
201410081020 METAR ESMX 081020Z 20014KT 9999 FEW020 SCT025 12/08 Q1008=
201410080950 METAR ESMX 080950Z 20014KT 9999 FEW015 SCT021 BKN025 12/09 Q1007=
201410080920 METAR COR ESMX 080920Z 20014G24KT 9999 FEW015 BKN019 12/08 Q1007=
201410080850 METAR COR ESMX 080850Z 20012KT 9999 FEW016 BKN019 11/08 Q1007=
201410080820 METAR ESMX 080820Z 20014KT 9999 FEW013 SCT017 BKN020 11/08 Q1007=
201410080750 METAR ESMX 080750Z 19014KT 9999 FEW011 BKN014 BKN018 11/08 Q1006=
201410080720 METAR COR ESMX 080720Z 19013KT 9999 FEW011 BKN015 11/09 Q1006=
201410080650 METAR ESMX 080650Z AUTO 19012KT 9999 FEW011/// BKN021/// BKN028/// 10/08 Q1006=
201410080620 METAR COR ESMX 080620Z 19012KT 9999 FEW008 BKN011 BKN016 10/08 Q1005=
201410080550 METAR COR ESMX 080550Z 19012KT 9999 FEW007 BKN009 10/09 Q1005=
201410080520 METAR ESMX 080520Z 18010KT 9999 FEW007 BKN009 OVC012 10/08 Q1005=
201410080450 METAR ESMX 080450Z 18012KT 9999 FEW008 SCT009 BKN011 10/08 Q1004=
201410080420 METAR ESMX 080420Z 19012KT 9999 FEW007 BKN009 BKN017 10/08 Q1005=
201410080350 METAR ESMX 080350Z 18010KT 9999 FEW008 BKN011 BKN021 10/08 Q1005=
201410080320 METAR ESMX 080320Z 18010KT 9999 FEW009 SCT013 BKN016 10/08 Q1004=
201410080250 METAR ESMX 080250Z AUTO 17010KT 9999 FEW010/// SCT036/// BKN058/// 10/08 Q1004=
201410080220 METAR ESMX 080220Z AUTO 17008KT 9999 FEW011/// 10/09 Q1004=
201410080150 METAR ESMX 080150Z AUTO 17007KT 9999 -RA FEW008/// 10/09 Q1004=
201410080120 METAR ESMX 080120Z AUTO 18007KT 9999 -RA FEW035/// 10/09 Q1004=
201410080050 METAR ESMX 080050Z AUTO 16007KT 9999 -RA NCD 10/09 Q1004=
201410080020 METAR ESMX 080020Z AUTO 17009KT 9999 -RA FEW059/// 11/09 Q1004=
201410072350 METAR ESMX 072350Z 18013KT 9999 -RA FEW010 SCT035 12/09 Q1004=
201410072320 METAR ESMX 072320Z 19010KT 4700 -RA FEW006 SCT011 BKN020 13/12 Q1004 RERA=
201410072250 METAR ESMX 072250Z 16009KT 6000 BR FEW008 SCT014 BKN022 13/12 Q1003 REDZ=
201410072220 METAR ESMX 072220Z 15009KT 6000 BR FEW008 SCT011 BKN015 13/12 Q1003=
201410072150 METAR ESMX 072150Z 16011KT 7000 BR FEW007 SCT009 BKN012 13/12 Q1003 REDZ=
201410072120 METAR ESMX 072120Z 16010KT 7000 BR FEW008 BKN010 OVC017 13/12 Q1003=
201410072050 METAR ESMX 072050Z 16010KT 9999 FEW006 SCT009 BKN011 13/12 Q1003=
201410072020 METAR ESMX 072020Z 16009KT 130V190 9999 -RA BKN005 OVC008 12/11 Q1003=
201410071950 METAR ESMX 071950Z 15010KT 5000 -RA FEW006 OVC007 12/11 Q1003 REDZ=
201410071920 METAR ESMX 071920Z 14011G22KT 7000 -RA BKN005 OVC009 12/11 Q1003=
201410071850 METAR ESMX 071850Z 13009G19KT 090V170 6000 -RA FEW006 BKN007 OVC009 11/10 Q1003=
201410071820 METAR ESMX 071820Z 13009G21KT 050V170 7000 -RA SCT007 BKN009 OVC011 11/10 Q1004=
201410071750 METAR ESMX 071750Z 11009KT 060V170 5000 RA FEW007 BKN010 OVC015 11/10 Q1005=
201410071720 METAR ESMX 071720Z 12009KT 070V160 5000 RA SCT010 BKN014 OVC017 11/10 Q1006=
201410071650 METAR ESMX 071650Z 11009KT 340V160 8000 -RA BKN011 OVC019 11/09 Q1006=
201410071620 METAR ESMX 071620Z 11009KT 070V160 9999 -RA OVC011 12/09 Q1006=
201410071550 METAR ESMX 071550Z 11009KT 030V150 9999 BKN010 OVC015 11/09 Q1007=
201410071520 METAR ESMX 071520Z 11008KT 070V170 9999 BKN010 11/09 Q1008=
201410071450 METAR ESMX 071450Z 11008KT 060V150 9000 BR FEW008 OVC010 11/09 Q1008=
201410071420 METAR ESMX 071420Z 09008KT 050V120 6000 BR SCT008 BKN010 11/09 Q1009 RERA=
201410071350 METAR ESMX 071350Z 10009KT 050V150 5000 -RA BKN006 11/09 Q1010=
201410071320 METAR ESMX 071320Z 10008KT 060V150 6000 BR BKN006 11/09 Q1010=
201410071250 METAR ESMX 071250Z 09010KT 050V140 7000 BR OVC007 10/09 Q1011=
201410071220 METAR ESMX 071220Z 09009G21KT 030V140 8000 BR BKN008 10/08 Q1011=
201410071154 METAR ESMX 071154Z 09010KT 050V120 8000 BR BKN008 OVC010 10/08 Q1012=
201410071150 METAR ESMX 071150Z AUTO 09009KT 050V130 8000 BR OVC008/// 10/08 Q1012=
201410071120 METAR ESMX 071120Z 09009KT 040V130 9000 BR BKN008 10/08 Q1013 REDZ=
201410071050 METAR ESMX 071050Z 10007KT 050V170 8000 BR BKN008 10/08 Q1014 REDZ=
201410071020 METAR ESMX 071020Z 10007KT 030V150 8000 BR BKN008 10/08 Q1014=
201410070950 METAR ESMX 070950Z 10009KT 030V140 7000 -DZ SCT009 OVC011 09/08 Q1014 RERA=
201410070920 METAR ESMX 070920Z 09009KT 050V140 7000 BR FEW010 SCT015 BKN020 09/08 Q1015 REDZ=
201410070850 METAR ESMX 070850Z 09008KT 050V140 7000 -RA FEW013 BKN016 OVC040 09/07 Q1015=
201410070820 METAR ESMX 070820Z 09010KT 050V140 9999 BKN014 BKN021 10/07 Q1016=
201410070750 METAR ESMX 070750Z 08009G20KT 040V120 9999 OVC013 10/07 Q1016=
201410070720 METAR ESMX 070720Z 07007KT 020V120 9999 BKN011 09/07 Q1016=
201410070650 METAR ESMX 070650Z 09006KT 040V130 9999 BKN011 BKN016 09/07 Q1017=
201410070620 METAR ESMX 070620Z 08006KT 040V110 9999 BKN011 BKN017 09/07 Q1017=
201410070550 METAR ESMX 070550Z 08006KT 040V140 9999 FEW013 08/06 Q1017=
201410070520 METAR ESMX 070520Z 07006KT 030V120 9999 FEW015 SCT080 08/06 Q1018=
201410070450 METAR ESMX 070450Z 07007KT 020V110 9999 FEW013 SCT080 08/06 Q1018=
201410070420 METAR ESMX 070420Z 08007KT 9999 FEW011 SCT018 BKN045 08/06 Q1018=
201410070350 METAR ESMX 070350Z 07007KT 030V110 9999 FEW011 SCT018 BKN025 08/06 Q1019 REDZ=
201410070320 METAR ESMX 070320Z AUTO 07009KT 030V110 9000 -RA FEW013/// SCT018/// BKN036/// 08/06 Q1019=
201410070250 METAR ESMX 070250Z AUTO 08008KT 040V120 9999 FEW014/// BKN064/// 08/06 Q1019=
201410070220 METAR ESMX 070220Z AUTO 05010G22KT 010V090 9999 FEW017/// OVC065/// 08/06 Q1020=
201410070150 METAR ESMX 070150Z AUTO 07010KT 040V130 9999 FEW016/// SCT058/// BKN071/// 08/06 Q1020=
201410070120 METAR ESMX 070120Z AUTO 04013KT 9999 BKN015/// OVC055/// 08/05 Q1020 REDZ=
201410070050 METAR ESMX 070050Z AUTO 05008KT 010V080 9999 OVC017/// 08/05 Q1021 RERA=
201410070020 METAR ESMX 070020Z AUTO 05007KT 9999 FEW018/// SCT029/// BKN034/// 08/05 Q1021=
201410062350 METAR ESMX 062350Z 06007KT 030V100 9999 FEW020 BKN066 08/05 Q1022=
201410062320 METAR ESMX 062320Z 08007KT 050V110 9999 FEW021 SCT064 08/05 Q1022=
201410062250 METAR ESMX 062250Z 05007KT 010V090 9999 FEW030 BKN064 08/05 Q1022=
201410062220 METAR ESMX 062220Z 05009KT 020V100 9999 FEW027 SCT032 BKN039 08/05 Q1023=
201410062150 METAR ESMX 062150Z 07006KT 030V120 9999 -RA FEW025 SCT028 BKN032 08/05 Q1023=
201410062120 METAR COR ESMX 062120Z 07008KT 040V130 9999 -DZ FEW034 BKN044 BKN057 08/05 Q1023=
201410062050 METAR ESMX 062050Z 07007KT 030V110 9999 FEW030 SCT037 BKN047 08/05 Q1024=
201410062020 METAR ESMX 062020Z 07007KT 020V120 CAVOK 07/05 Q1024=
201410061950 METAR COR ESMX 061950Z 08007KT 040V120 CAVOK 07/05 Q1024=
201410061920 METAR ESMX 061920Z 07006KT 020V120 CAVOK 08/05 Q1024=
201410061850 METAR ESMX 061850Z 08008KT 040V120 9999 FEW020 SCT060 08/05 Q1024=
201410061820 METAR ESMX 061820Z 08006KT 020V140 9999 FEW021 SCT038 OVC058 08/05 Q1025=
201410061750 METAR ESMX 061750Z 08008KT 030V120 9999 -RA FEW020 SCT048 BKN054 08/06 Q1025=
201410061720 METAR COR ESMX 061720Z 07007KT 040V110 9999 FEW021 SCT025 BKN050 09/05 Q1024=
201410061650 METAR ESMX 061650Z 06008KT 010V100 9999 FEW025 SCT030 BKN048 09/05 Q1025=
201410061620 METAR ESMX 061620Z 07009KT 040V110 9999 FEW024 SCT029 BKN042 10/04 Q1024=
201410061550 METAR ESMX 061550Z 05008KT 010V110 9999 FEW029 SCT036 SCT043 10/04 Q1025=
201410061520 METAR ESMX 061520Z VRB08KT 360V360 9999 FEW028 BKN043 10/04 Q1025=
201410061450 METAR ESMX 061450Z 09007KT 040V140 9999 FEW027 OVC040 10/04 Q1025=
201410061420 METAR ESMX 061420Z 08009KT 040V130 9999 FEW028 SCT037 BKN045 11/04 Q1025=
201410061350 METAR ESMX 061350Z 09009KT 040V140 9999 FEW030 SCT040 BKN090 11/04 Q1025=
201410061320 METAR ESMX 061320Z 07010KT 040V110 9999 FEW029 BKN036 10/04 Q1025=
201410061250 METAR ESMX 061250Z 08009KT 050V130 9999 FEW029 BKN035 10/04 Q1026=
201410061220 METAR ESMX 061220Z 08010KT 050V120 9999 OVC030 11/04 Q1026=
201410061150 METAR ESMX 061150Z 08011G22KT 040V120 9999 FEW031 BKN036 11/03 Q1026=
201410061120 METAR ESMX 061120Z 08009KT 050V130 9999 FEW036 SCT041 11/04 Q1026=
201410061050 METAR ESMX 061050Z 07011KT 040V120 9999 FEW030 BKN038 12/04 Q1026=
201410061020 METAR ESMX 061020Z 08010KT 040V120 9999 FEW032 BKN041 11/04 Q1027=
201410060950 METAR ESMX 060950Z 08009KT 040V120 9999 FEW022 SCT029 11/06 Q1027=
201410060920 METAR ESMX 060920Z 06008KT 020V110 9999 FEW021 BKN032 11/06 Q1027=
201410060850 METAR ESMX 060850Z AUTO 08008KT 050V140 9999 FEW020/// SCT024/// BKN035/// 12/07 Q1027=
201410060820 METAR ESMX 060820Z 07008KT 030V110 9999 FEW023 SCT037 11/06 Q1027=
201410060750 METAR ESMX 060750Z 08009KT 050V120 9999 FEW024 SCT037 10/07 Q1027=
201410060721 METAR ESMX 060721Z 06009KT 020V100 9999 FEW015 SCT042 10/07 Q1027=
201410060650 METAR ESMX 060650Z 08008KT 050V110 9999 SCT032 11/07 Q1027=
201410060620 METAR ESMX 060620Z 08007KT 010V130 9999 FEW045 10/07 Q1026=
201410060550 METAR ESMX 060550Z 06006KT 010V110 9999 FEW014 SCT019 11/08 Q1026=
201410060520 METAR ESMX 060520Z 07004KT 030V120 9999 FEW014 SCT018 10/09 Q1026=
201410060450 METAR ESMX 060450Z 08004KT 030V120 9999 FEW016 10/08 Q1026=
201410060420 METAR ESMX 060420Z 09003KT 030V150 9999 SCT014 10/09 Q1026=
201410060350 METAR ESMX 060350Z 09005KT 040V130 CAVOK 11/09 Q1026=
201410060320 METAR ESMX 060320Z AUTO 08006KT 030V120 9999 NCD 11/09 Q1026=
201410060250 METAR ESMX 060250Z AUTO 08005KT 040V120 9999 FEW049/// 11/09 Q1026=
201410060220 METAR ESMX 060220Z AUTO 09005KT 050V140 9999 FEW048/// 11/09 Q1026=
201410060150 METAR ESMX 060150Z AUTO 08004KT 030V120 9999 FEW011/// SCT015/// BKN019/// 11/09 Q1026=
201410060120 METAR ESMX 060120Z AUTO 08004KT 050V130 9999 FEW015/// SCT021/// 11/09 Q1026=
201410060050 METAR ESMX 060050Z AUTO 07004KT 020V100 9999 FEW014/// SCT020/// BKN049/// 11/09 Q1026=
201410060020 METAR ESMX 060020Z AUTO 07004KT 030V110 9999 FEW027/// BKN047/// 10/09 Q1026=
201410052350 METAR ESMX 052350Z AUTO 08005KT 030V120 9999 FEW042/// 10/08 Q1026=
201410052320 METAR ESMX 052320Z 09006KT 050V130 9999 FEW014 SCT018 BKN021 10/08 Q1026=
201410052250 METAR ESMX 052250Z 10006KT 050V130 9999 FEW015 BKN017 11/08 Q1026=
201410052220 METAR ESMX 052220Z 09005KT 050V140 9999 FEW015 BKN018 11/08 Q1026=
201410052150 METAR COR ESMX 052150Z 08003KT 030V120 9999 FEW015 BKN019 10/09 Q1026=
201410052120 METAR ESMX 052120Z 09004KT 050V130 9999 FEW015 BKN017 10/08 Q1026=
201410052050 METAR ESMX 052050Z 08004KT 040V120 9999 FEW013 SCT018 10/08 Q1026=
201410052020 METAR ESMX 052020Z 08005KT 050V120 9999 FEW012 SCT019 10/08 Q1026=
201410051950 METAR ESMX 051950Z 07005KT 040V100 9999 FEW023 SCT038 BKN044 10/07 Q1026=
201410051920 METAR ESMX 051920Z 07005KT 050V110 9999 FEW026 SCT036 BKN040 10/07 Q1025=
201410051850 METAR ESMX 051850Z 08005KT 050V120 9999 BKN039 11/07 Q1025=
201410051820 METAR ESMX 051820Z 05004KT 010V110 9999 SCT041 10/07 Q1025=
201410051750 METAR ESMX 051750Z 07004KT CAVOK 10/07 Q1025=
201410051720 METAR ESMX 051720Z 09005KT 060V130 CAVOK 11/07 Q1025=
201410051650 METAR ESMX 051650Z 09006KT 050V120 CAVOK 12/07 Q1025=
201410051620 METAR ESMX 051620Z 10005KT 020V160 9999 SCT030 BKN045 13/07 Q1025=
201410051550 METAR ESMX 051550Z 11004KT 080V170 9999 BKN044 13/07 Q1024=
201410051520 METAR ESMX 051520Z 10005KT 050V150 9999 SCT035 14/06 Q1024=
201410051450 METAR ESMX 051450Z 11008KT 070V150 9999 BKN040 15/06 Q1024=
201410051420 METAR COR ESMX 051420Z 11007KT 060V160 9999 BKN045 15/06 Q1024=
201410051350 METAR ESMX 051350Z 10006KT 050V160 9999 BKN042 16/06 Q1024=
201410051320 METAR ESMX 051320Z 14009KT 100V180 9999 FEW045 16/05 Q1024=
201410051250 METAR ESMX 051250Z 15009KT 100V180 CAVOK 16/05 Q1024=
201410051220 METAR ESMX 051220Z 11008KT 080V170 CAVOK 15/05 Q1024=
201410051150 METAR ESMX 051150Z 13009KT 100V190 9999 FEW042 15/05 Q1024=
201410051120 METAR ESMX 051120Z 12007KT 070V160 9999 FEW037 15/05 Q1024=
201410051050 METAR ESMX 051050Z 12008KT 060V170 9999 FEW037 15/05 Q1024=
201410051020 METAR ESMX 051020Z AUTO 12007KT 050V190 9999 NCD 14/06 Q1024=
201410050950 METAR ESMX 050950Z AUTO 12009KT 080V160 9999 FEW033/// 14/05 Q1024=
201410050920 METAR ESMX 050920Z AUTO 12007KT 080V160 9999 NCD 14/07 Q1024=
201410050850 METAR ESMX 050850Z AUTO 12006KT 070V190 9999 NCD 13/08 Q1024=
201410050820 METAR ESMX 050820Z AUTO 11005KT 060V170 9999 NCD 12/09 Q1024=
201410050750 METAR ESMX 050750Z AUTO 12006KT 080V160 9999 FEW009/// 11/09 Q1024=
201410050720 METAR ESMX 050720Z AUTO 11005KT 060V150 9999 FEW008/// SCT011/// 11/09 Q1024=
201410050650 METAR ESMX 050650Z AUTO 12004KT 070V170 9000 BR FEW007/// BKN008/// BKN010/// 10/09 Q1024=
201410050620 METAR ESMX 050620Z AUTO 12004KT 070V160 8000 BR FEW006/// SCT008/// BKN010/// 10/09 Q1024=
201410050550 METAR ESMX 050550Z AUTO 09004KT 050V120 6000 BR FEW005/// BKN007/// OVC009/// 10/09 Q1024=
201410050520 METAR ESMX 050520Z AUTO 10003KT 050V140 5000 BR FEW005/// BKN006/// BKN008/// 10/09 Q1024=
201410050450 METAR ESMX 050450Z AUTO 10005KT 070V150 4100 SCT003/// BKN005/// BKN007/// 10/09 Q1024=
201410050420 METAR ESMX 050420Z AUTO 12003KT 060V160 2200 OVC001/// 10/09 Q1023=
201410050350 METAR ESMX 050350Z AUTO 10004KT 050V150 1500 BCFG OVC002/// 09/09 Q1023=
201410050320 METAR ESMX 050320Z AUTO VRB02KT 1500 BR SCT004/// 08/08 Q1024=
201410050250 METAR ESMX 050250Z AUTO VRB03KT 3300 BR FEW005/// 09/08 Q1024=
201410050220 METAR ESMX 050220Z AUTO VRB02KT 4500 BR NCD 09/08 Q1024=
201410050150 METAR ESMX 050150Z AUTO VRB03KT 5000 BR NCD 09/08 Q1024=
201410050120 METAR ESMX 050120Z AUTO VRB03KT 4700 BR NCD 09/09 Q1024=
201410050050 METAR ESMX 050050Z AUTO 12003KT 4300 BR NCD 09/08 Q1024=
201410050020 METAR ESMX 050020Z AUTO VRB03KT 3200 BR FEW003/// 09/08 Q1024=
201410042350 METAR ESMX 042350Z AUTO VRB03KT 3100 BKN003/// 09/08 Q1024=
201410042320 METAR ESMX 042320Z AUTO VRB03KT 3000 BCFG FEW006/// 08/08 Q1024=
201410042250 METAR ESMX 042250Z AUTO VRB03KT 3100 BR NCD 08/07 Q1024=
201410042220 METAR ESMX 042220Z AUTO VRB03KT 6000 BR NCD 08/07 Q1024=
201410042150 METAR ESMX 042150Z AUTO VRB03KT 9000 BR NCD 08/07 Q1024=
201410042120 METAR ESMX 042120Z AUTO VRB03KT 9999 NCD 09/08 Q1024=
201410042050 METAR ESMX 042050Z AUTO VRB03KT 9999 NCD 09/08 Q1024=
201410042020 METAR ESMX 042020Z AUTO VRB03KT 9999 NCD 09/07 Q1024=
201410041950 METAR ESMX 041950Z 12003KT 070V150 CAVOK 10/08 Q1024=
201410041920 METAR ESMX 041920Z 11003KT CAVOK 09/07 Q1024=
201410041850 METAR ESMX 041850Z 12003KT CAVOK 09/07 Q1024=
201410041820 METAR ESMX 041820Z 12003KT CAVOK 09/08 Q1024=
201410041750 METAR ESMX 041750Z 14004KT CAVOK 10/08 Q1024=
201410041720 METAR ESMX 041720Z 14003KT CAVOK 10/08 Q1024=
201410041650 METAR ESMX 041650Z 15004KT CAVOK 11/09 Q1024=
201410041620 METAR ESMX 041620Z 16004KT CAVOK 14/09 Q1024=
201410041550 METAR ESMX 041550Z 16006KT CAVOK 16/09 Q1024=
201410041520 METAR ESMX 041520Z AUTO 16005KT 9999 NCD 16/09 Q1024=
201410041450 METAR ESMX 041450Z AUTO 15006KT 110V190 9999 FEW043/// 17/09 Q1024=
201410041420 METAR ESMX 041420Z AUTO 15007KT 9999 FEW041/// 17/10 Q1024=
201410041350 METAR ESMX 041350Z AUTO 16006KT 9999 FEW027/// SCT034/// BKN044/// 17/10 Q1024=
201410041320 METAR ESMX 041320Z AUTO 13005KT 070V160 9999 FEW027/// SCT034/// BKN039/// 17/11 Q1025=
201410041250 METAR ESMX 041250Z AUTO 12005KT 080V180 9999 FEW023/// SCT027/// BKN040/// 17/12 Q1025=
201410041220 METAR ESMX 041220Z AUTO 14005KT 100V190 9999 FEW021/// BKN036/// 17/11 Q1025=
201410041150 METAR ESMX 041150Z AUTO 14005KT 070V190 9999 FEW015/// SCT020/// BKN035/// 16/11 Q1025=
201410041120 METAR ESMX 041120Z AUTO 12005KT 070V160 9999 FEW014/// SCT016/// BKN020/// 15/12 Q1026=
201410041050 METAR ESMX 041050Z AUTO 14004KT 090V200 9000 BR FEW009/// BKN015/// 16/12 Q1026=
201410041020 METAR ESMX 041020Z AUTO 14005KT 090V180 8000 BR SCT009/// OVC013/// 14/12 Q1026=
201410040950 METAR ESMX 040950Z 16007KT 9000 BR FEW009 OVC011 14/11 Q1026=
201410040920 METAR ESMX 040920Z 16006KT 120V190 8000 BR FEW008 OVC010 15/12 Q1026=
201410040850 METAR COR ESMX 040850Z 15005KT 6000 BR BKN006 15/12 Q1026=
201410040820 METAR ESMX 040820Z 16006KT 6000 BR BKN006 14/12 Q1026=
201410040750 METAR ESMX 040750Z AUTO 16005KT 120V190 4100 BR OVC006/// 14/12 Q1026=
201410040720 METAR ESMX 040720Z AUTO 16005KT 130V190 3700 BR BKN005/// OVC007/// 14/12 Q1026=
201410040650 METAR ESMX 040650Z AUTO 15005KT 110V170 3200 BR OVC005/// 14/12 Q1026=
201410040620 METAR ESMX 040620Z AUTO 15004KT 2900 BR SCT004/// OVC006/// 13/12 Q1026=
201410040550 METAR ESMX 040550Z AUTO 15005KT 3000 BR OVC004/// 13/12 Q1026=
201410040520 METAR ESMX 040520Z AUTO 16004KT 2900 BR OVC003/// 13/12 Q1025=
201410040450 METAR ESMX 040450Z AUTO 15005KT 3000 BR OVC004/// 13/12 Q1025=
201410040420 METAR ESMX 040420Z AUTO 16005KT 3500 BR OVC004/// 13/12 Q1026=
201410040350 METAR ESMX 040350Z AUTO 15004KT 4100 BR OVC005/// 13/12 Q1026=
201410040320 METAR ESMX 040320Z AUTO 17005KT 4600 BR OVC005/// 13/12 Q1026=
201410040250 METAR ESMX 040250Z AUTO 17006KT 140V210 3800 BR OVC004/// 14/12 Q1026=
201410040220 METAR ESMX 040220Z AUTO 17005KT 3600 BR OVC005/// 14/12 Q1026=
201410040150 METAR ESMX 040150Z AUTO 16005KT 120V190 3200 BR OVC003/// 14/12 Q1026=
201410040120 METAR ESMX 040120Z AUTO 17006KT 140V210 2800 BR OVC002/// 14/13 Q1026=
201410040050 METAR ESMX 040050Z AUTO 16005KT 2400 BR OVC002/// 14/13 Q1026=
201410040020 METAR ESMX 040020Z AUTO 16005KT 120V200 2200 BR OVC002/// 13/12 Q1026=
201410032350 METAR ESMX 032350Z AUTO 16005KT 2900 BR OVC003/// 14/12 Q1026=
201410032320 METAR ESMX 032320Z AUTO 16005KT 2900 BR OVC002/// 14/12 Q1026=
201410032250 METAR ESMX 032250Z AUTO 17005KT 130V190 2800 BR OVC002/// 14/13 Q1026=
201410032220 METAR ESMX 032220Z AUTO 17005KT 3700 BR OVC003/// 14/12 Q1026=
201410032150 METAR ESMX 032150Z AUTO 17006KT 4300 BR OVC004/// 14/12 Q1026=
201410032120 METAR ESMX 032120Z AUTO 17005KT 4900 BR OVC004/// 13/12 Q1026=
201410032050 METAR ESMX 032050Z AUTO 16006KT 6000 BR BKN005/// 13/12 Q1027=
201410032020 METAR ESMX 032020Z AUTO 16006KT 8000 BR FEW005/// BKN021/// OVC087/// 14/12 Q1027=
201410031950 METAR ESMX 031950Z AUTO 16005KT 9999 FEW020/// SCT058/// BKN086/// 14/12 Q1026=
201410031920 METAR ESMX 031920Z AUTO 15003KT 9999 BKN022/// BKN059/// 13/11 Q1027=
201410031850 METAR ESMX 031850Z AUTO 15003KT 9999 BKN087/// 12/11 Q1027=
201410031820 METAR ESMX 031820Z AUTO 17003KT 9999 FEW021/// OVC092/// 12/10 Q1027=
201410031750 METAR ESMX 031750Z 00000KT CAVOK 13/10 Q1027=
201410031720 METAR ESMX 031720Z 15003KT CAVOK 13/10 Q1026=
201410031650 METAR ESMX 031650Z 17004KT 9999 FEW034 SCT041 BKN078 15/10 Q1027=
201410031620 METAR ESMX 031620Z 17002KT 9999 FEW021 SCT034 BKN051 14/10 Q1027=
201410031550 METAR ESMX 031550Z 25004KT 9999 FEW014 BKN042 15/10 Q1027 REDZ=
201410031520 METAR ESMX 031520Z 26003KT 9999 OVC045 15/10 Q1027=
201410031450 METAR ESMX 031450Z VRB02KT 9999 BKN046 16/09 Q1027=
201410031420 METAR ESMX 031420Z 07002KT CAVOK 16/09 Q1027=
201410031350 METAR ESMX 031350Z VRB02KT CAVOK 17/08 Q1027=
201410031320 METAR ESMX 031320Z 36003KT CAVOK 17/07 Q1027=
201410031250 METAR ESMX 031250Z 34005KT CAVOK 17/07 Q1028=
201410031220 METAR COR ESMX 031220Z 14004KT 080V220 CAVOK 17/05 Q1027=
201410031150 METAR ESMX 031150Z 15002KT CAVOK 19/05 Q1028=
201410031120 METAR ESMX 031120Z 10003KT 050V150 CAVOK 18/05 Q1028=
201410031050 METAR ESMX 031050Z 29002KT CAVOK 18/06 Q1028=
201410031020 METAR ESMX 031020Z 21004KT 190V260 CAVOK 17/07 Q1028=
201410030950 METAR ESMX 030950Z VRB03KT CAVOK 17/09 Q1028=
201410030920 METAR ESMX 030920Z 17003KT 120V210 CAVOK 16/09 Q1029=
201410030850 METAR ESMX 030850Z 24004KT CAVOK 15/07 Q1029=
201410030820 METAR ESMX 030820Z VRB03KT 9999 FEW004 13/10 Q1029=
201410030750 METAR ESMX 030750Z 18002KT 9000 BR FEW001 SCT003 12/11 Q1028=
201410030720 METAR ESMX 030720Z VRB02KT 0250 R01/0450V0700N R19/0400V0800U FG VV001 12/11 Q1028=
201410030650 METAR ESMX 030650Z VRB02KT 0100 R01/0350N R19/0175V0250N FG VV001 11/11 Q1028=
201410030620 METAR ESMX 030620Z 18002KT 0200 R01/0650VP2000D R19/0350V0550N FG VV002 11/10 Q1028=
201410030550 METAR ESMX 030550Z 20002KT 9000 BR BKN047 11/10 Q1028=
201410030520 METAR ESMX 030520Z 18002KT 9000 BR BKN051 11/10 Q1028=
201410030450 METAR ESMX 030450Z VRB01KT 9000 BR FEW040 OVC051 11/10 Q1028=
201410030420 METAR ESMX 030420Z 23003KT 9999 SCT037 OVC051 11/10 Q1028=
201410030350 METAR COR ESMX 030350Z 18003KT 9999 BKN047 12/10 Q1028=
201410030320 METAR ESMX 030320Z AUTO 19003KT 9999 FEW023/// OVC049/// 12/10 Q1028=
201410030250 METAR ESMX 030250Z AUTO 19002KT 9999 SCT010/// BKN023/// OVC048/// 12/10 Q1028=
201410030220 METAR ESMX 030220Z AUTO 21003KT 9999 OVC010/// 12/11 Q1028=
201410030150 METAR ESMX 030150Z AUTO 20003KT 9999 SCT010/// BKN016/// OVC020/// 12/11 Q1028=
201410030120 METAR ESMX 030120Z AUTO 22002KT 3800 BR FEW004/// SCT010/// BKN017/// 13/12 Q1028=
201410030050 METAR ESMX 030050Z AUTO 18003KT 2700 BR FEW011/// OVC014/// 13/12 Q1028=
201410030020 METAR ESMX 030020Z AUTO 20003KT 2800 BR SCT002/// BKN009/// OVC011/// 13/13 Q1028=
201410022350 METAR ESMX 022350Z 17003KT 1600 BR OVC002 13/13 Q1028=
201410022320 METAR ESMX 022320Z 21003KT 1900 BR OVC002 13/13 Q1028=
201410022250 METAR ESMX 022250Z 19004KT 1600 BR OVC002 14/13 Q1028=
201410022220 METAR ESMX 022220Z 17004KT 1600 BR OVC002 14/13 Q1029=
201410022150 METAR ESMX 022150Z AUTO 16004KT 0900 R01/P2000N R19/P2000N BR VV002 14/13 Q1028=
201410022120 METAR ESMX 022120Z 16005KT 1300 R01/P2000N R19/P2000N BR OVC002 14/13 Q1028=
201410022050 METAR ESMX 022050Z 16006KT 1900 BR OVC002 14/13 Q1028=
201410022020 METAR ESMX 022020Z 15006KT 2300 BR OVC003 14/13 Q1028=
201410021950 METAR ESMX 021950Z 16006KT 2600 BR BKN003 OVC024 14/13 Q1028=
201410021920 METAR ESMX 021920Z 17005KT 3100 BR BKN004 14/13 Q1028=
201410021850 METAR ESMX 021850Z 16005KT 3700 BR SCT023 OVC030 14/13 Q1028=
201410021820 METAR ESMX 021820Z 15005KT 4300 BR FEW013 SCT024 BKN027 14/13 Q1028=
201410021750 METAR ESMX 021750Z 15005KT 5000 BR SCT012 BKN016 OVC021 14/13 Q1028=
201410021720 METAR ESMX 021720Z 16004KT 5000 BR OVC020 14/13 Q1028=
201410021650 METAR ESMX 021650Z 15004KT 5000 BR FEW011 OVC016 15/13 Q1028=
201410021620 METAR ESMX 021620Z 15004KT 5000 BR FEW006 OVC015 15/13 Q1028=
201410021550 METAR COR ESMX 021550Z 15004KT 3500 BR FEW006 SCT014 OVC017 15/13 Q1028=
201410021520 METAR ESMX 021520Z 14004KT 5000 BR FEW012 SCT016 BKN018 15/13 Q1028 REDZ=
201410021450 METAR ESMX 021450Z 15004KT 110V180 4300 BR FEW015 SCT019 15/13 Q1028=
201410021420 METAR ESMX 021420Z 15004KT 3900 BR FEW009 SCT016 15/13 Q1028 REDZ=
201410021350 METAR COR ESMX 021350Z 18004KT 140V200 4800 BR BKN009 15/13 Q1028=
201410021320 METAR ESMX 021320Z 17004KT 3700 DZ BKN006 BKN010 15/13 Q1028 RERA=
201410021250 METAR ESMX 021250Z 15004KT 4000 BR OVC008 15/13 Q1028=
201410021220 METAR ESMX 021220Z AUTO 14005KT 7000 BR OVC007/// 15/13 Q1028=
201410021150 METAR ESMX 021150Z AUTO 15004KT 7000 BR OVC006/// 14/13 Q1028=
201410021120 METAR ESMX 021120Z 15004KT 7000 BR OVC005 14/13 Q1028=
201410021050 METAR ESMX 021050Z 15004KT 7000 BR OVC005 14/13 Q1028 REDZ RERA=
201410021020 METAR ESMX 021020Z 15004KT 120V180 6000 BR OVC004 14/13 Q1028=
201410020950 METAR ESMX 020950Z 15004KT 5000 BR BKN004 14/12 Q1028=
201410020920 METAR ESMX 020920Z 16005KT 6000 RA OVC004 13/12 Q1028=
201410020850 METAR ESMX 020850Z 17004KT 140V210 6000 BR OVC004 13/12 Q1028=
201410020820 METAR ESMX 020820Z 18004KT 5000 BR OVC003 13/12 Q1028=
201410020750 METAR COR ESMX 020750Z 17005KT 4500 BR OVC002 12/12 Q1028=
201410020720 METAR ESMX 020720Z 17004KT 2000 R01/0800V1800U R19/0800VP2000N BR VV001 12/12 Q1028=
201410020650 METAR ESMX 020650Z VRB03KT 1000 R01/0800V1800D R19/1200VP2000D FG OVC002 12/11 Q1027=
201410020620 METAR COR ESMX 020620Z 18004KT 4800 BR OVC002 12/11 Q1027=
201410020550 METAR ESMX 020550Z 17003KT 4000 BR OVC002 12/11 Q1027=
201410020520 METAR ESMX 020520Z 16003KT 3300 BR OVC002 11/11 Q1027=
201410020450 METAR ESMX 020450Z 17003KT 2500 BR VV002 11/11 Q1027=
201410020420 METAR ESMX 020420Z 16003KT 130V200 1300 R01/P2000N R19/P2000N BR OVC002 11/11 Q1027=
201410020350 METAR ESMX 020350Z 17003KT 0750 R01/1700VP2000N R19/P2000N FG VV002 11/11 Q1027=
201410020320 METAR ESMX 020320Z AUTO 17003KT 0450 R01/1300V1700U R19/1100V1400U FG VV001 11/11 Q1027=
201410020250 METAR ESMX 020250Z AUTO VRB03KT 0300 R01/0900V1000N R19/1000V1200N FG VV001 11/11 Q1027=
201410020220 METAR ESMX 020220Z AUTO 16003KT 0350 R01/0900V1000N R19/1200V1600D FG VV002 11/11 Q1027=
201410020150 METAR ESMX 020150Z AUTO 15003KT 0400 R01/1100V1200N R19/1300V1400N FG VV001 11/10 Q1027=
201410020120 METAR ESMX 020120Z AUTO 15004KT 110V170 0500 R01/1200V1800D R19/P2000D FG VV002 11/10 Q1027=
201410020050 METAR ESMX 020050Z AUTO VRB03KT 7000 BR OVC002/// 11/10 Q1027=
201410020020 METAR ESMX 020020Z AUTO VRB03KT 9999 OVC004/// 11/10 Q1027=
201410012350 METAR ESMX 012350Z 14004KT 110V170 9999 OVC006 11/10 Q1027=
201410012320 METAR ESMX 012320Z 14005KT 100V170 9999 OVC007 11/09 Q1027=
201410012250 METAR ESMX 012250Z 15005KT 9999 OVC009 11/09 Q1027=
201410012220 METAR ESMX 012220Z 14005KT 9999 FEW009 OVC012 11/09 Q1027=
201410012150 METAR ESMX 012150Z 15005KT 120V180 9999 FEW009 OVC013 11/09 Q1027=
201410012120 METAR COR ESMX 012120Z 14005KT 9999 FEW013 OVC016 11/09 Q1027=
201410012050 METAR ESMX 012050Z 13004KT 100V170 9999 BKN008 OVC019 11/09 Q1027=
201410012020 METAR ESMX 012020Z 14004KT 9999 BKN009 BKN022 11/09 Q1027=
201410011950 METAR ESMX 011950Z 13003KT 060V170 9999 SCT009 BKN025 11/09 Q1027=
201410011920 METAR ESMX 011920Z VRB03KT 9999 BKN010 SCT025 SCT030 11/09 Q1027 REDZ=
201410011850 METAR ESMX 011850Z 08003KT 030V140 9999 DZ SCT011 BKN021 BKN032 11/09 Q1027=
201410011820 METAR ESMX 011820Z VRB02KT 9999 SCT012 BKN046 11/08 Q1027=
201410011750 METAR ESMX 011750Z VRB03KT 9999 SCT016 BKN025 OVC048 11/08 Q1027=
201410011720 METAR ESMX 011720Z VRB02KT 9999 -RA FEW019 OVC029 11/08 Q1027 REDZ=
201410011650 METAR ESMX 011650Z VRB03KT CAVOK 11/08 Q1027=
201410011620 METAR ESMX 011620Z 10003KT 060V140 CAVOK 11/07 Q1027=
201410011550 METAR ESMX 011550Z 11004KT 070V160 CAVOK 12/07 Q1027=
201410011520 METAR ESMX 011520Z 11004KT 060V160 CAVOK 12/07 Q1027=
201410011450 METAR ESMX 011450Z 14006KT 100V170 9999 FEW030 12/07 Q1027=
201410011420 METAR ESMX 011420Z 15007KT 110V180 9999 FEW030 13/06 Q1028=
201410011350 METAR ESMX 011350Z 15007KT 120V190 CAVOK 14/06 Q1028=
201410011320 METAR COR ESMX 011320Z 12008KT 080V170 9999 FEW030 14/06 Q1028=
201410011250 METAR COR ESMX 011250Z 13007KT 080V190 9999 FEW030 14/06 Q1028=
201410011220 METAR ESMX 011220Z 13007KT 090V180 9999 FEW028 SCT086 13/05 Q1028=
