##########################################################
# Query made at 04/19/2024 21:41:01 UTC
# Time interval: from 08/01/2014 12:00  to 08/31/2014 12:59  UTC
##########################################################

##########################################################
# ESMX, Vaxjo (Sweden)
# WMO index: 02641. WIGOS ID: 0-20000-0-02648
# Latitude 56-51N. Longitude 014-50E. Altitude 199 m.
##########################################################

201408311250 METAR ESMX 311250Z 07008KT 030V110 9999 BKN024 16/11 Q1016=
201408311220 METAR ESMX 311220Z 07008KT 030V110 9999 FEW020 BKN032 16/11 Q1016=
201408311150 METAR ESMX 311150Z 05009KT 020V110 9999 FEW024 BKN030 17/11 Q1016=
201408311120 METAR ESMX 311120Z 07008KT 030V110 9999 SCT024 BKN031 16/11 Q1016=
201408311050 METAR ESMX 311050Z 08008KT 040V110 9999 FEW025 BKN033 16/11 Q1016=
201408311020 METAR ESMX 311020Z AUTO 06007KT 360V100 9999 FEW020/// SCT024/// BKN030/// 16/11 Q1016=
201408310950 METAR ESMX 310950Z AUTO 05008KT 020V100 9999 FEW018/// SCT021/// BKN042/// 15/11 Q1016=
201408310920 METAR ESMX 310920Z AUTO 07008KT 040V100 9999 FEW016/// SCT066/// BKN090/// 15/11 Q1016=
201408310850 METAR ESMX 310850Z AUTO 06008KT 020V110 9999 FEW012/// BKN062/// 14/11 Q1016=
201408310820 METAR ESMX 310820Z AUTO 07006KT 040V110 9999 FEW010/// BKN066/// 14/11 Q1016=
201408310750 METAR ESMX 310750Z AUTO 06007KT 010V100 9999 FEW009/// SCT048/// BKN077/// 13/11 Q1016=
201408310720 METAR ESMX 310720Z AUTO 06006KT 020V100 9999 FEW008/// SCT044/// BKN068/// 13/11 Q1016=
201408310650 METAR ESMX 310650Z AUTO 06006KT 030V090 9999 -DZ FEW007/// SCT058/// BKN069/// 12/11 Q1016 REDZ=
201408310620 METAR ESMX 310620Z AUTO 05007KT 9999 FEW008/// SCT011/// BKN065/// 12/11 Q1016=
201408310550 METAR ESMX 310550Z AUTO 06005KT 030V100 9999 -DZ FEW007/// SCT009/// BKN012/// 12/11 Q1016=
201408310520 METAR ESMX 310520Z AUTO 05005KT 020V080 9999 -RA FEW008/// SCT011/// 12/11 Q1016=
201408310450 METAR ESMX 310450Z AUTO 06005KT 020V120 9999 -RA FEW009/// 12/11 Q1016=
201408310420 METAR ESMX 310420Z AUTO 04005KT 010V080 9999 -RA FEW073/// 12/11 Q1016 REDZ=
201408310350 METAR ESMX 310350Z AUTO 04006KT 9999 DZ FEW010/// SCT078/// 12/11 Q1015=
201408310320 METAR ESMX 310320Z AUTO 07005KT 9999 -RA FEW010/// BKN046/// 12/11 Q1016 REDZ=
201408310250 METAR ESMX 310250Z AUTO 07005KT 030V110 9999 DZ FEW010/// OVC045/// 13/11 Q1016=
201408310220 METAR ESMX 310220Z AUTO 05003KT 020V120 9999 -DZ FEW009/// BKN011/// OVC016/// 13/11 Q1016=
201408310150 METAR ESMX 310150Z AUTO VRB04KT 020V210 9999 -DZ BKN008/// OVC047/// 13/11 Q1016 REDZ=
201408310120 METAR ESMX 310120Z AUTO 08004KT 050V140 9999 SCT008/// OVC045/// 13/11 Q1016=
201408310050 METAR ESMX 310050Z AUTO 08004KT 050V120 9999 -RA FEW008/// SCT010/// BKN014/// 13/11 Q1016=
201408310020 METAR ESMX 310020Z AUTO 09004KT 060V140 9999 BKN008/// OVC013/// 13/11 Q1016=
201408302350 METAR ESMX 302350Z AUTO 09004KT 040V140 9999 FEW009/// SCT012/// BKN036/// 13/11 Q1016=
201408302320 METAR ESMX 302320Z AUTO 09004KT 060V140 9999 FEW009/// BKN011/// OVC034/// 13/11 Q1016=
201408302250 METAR ESMX 302250Z AUTO 09005KT 060V120 9999 FEW008/// BKN010/// OVC033/// 13/11 Q1016=
201408302220 METAR ESMX 302220Z AUTO 10004KT 060V150 9999 FEW009/// SCT010/// OVC030/// 13/11 Q1016=
201408302150 METAR ESMX 302150Z AUTO 09004KT 040V140 9999 FEW009/// SCT012/// BKN030/// 13/11 Q1016=
201408302120 METAR ESMX 302120Z AUTO 09004KT 050V150 9999 FEW011/// BKN045/// OVC069/// 13/11 Q1016=
201408302050 METAR ESMX 302050Z AUTO 09004KT 030V140 9999 FEW009/// OVC041/// 13/11 Q1016=
201408302020 METAR ESMX 302020Z AUTO 09004KT 050V130 9999 FEW010/// SCT016/// BKN036/// 13/11 Q1016 RESHUP=
201408301950 METAR ESMX 301950Z AUTO 10003KT 050V150 9999 SCT012/// OVC033/// 13/11 Q1016=
201408301920 METAR ESMX 301920Z AUTO VRB03KT 9999 BKN033/// BKN053/// 13/11 Q1016=
201408301850 METAR ESMX 301850Z AUTO 10003KT 060V150 9999 OVC034/// 13/11 Q1015=
201408301820 METAR ESMX 301820Z AUTO 10004KT 060V140 9999 FEW026/// OVC031/// 13/11 Q1015=
201408301750 METAR ESMX 301750Z AUTO 10004KT 060V160 9999 OVC029/// 14/11 Q1015=
201408301720 METAR ESMX 301720Z AUTO 10004KT 060V150 9999 OVC025/// 14/11 Q1015=
201408301650 METAR ESMX 301650Z AUTO 10005KT 060V140 9999 OVC028/// 14/11 Q1015=
201408301620 METAR ESMX 301620Z AUTO 12004KT 080V160 9999 BKN024/// OVC039/// 14/10 Q1015=
201408301550 METAR ESMX 301550Z AUTO 11006KT 080V170 9999 SCT038/// 15/10 Q1015=
201408301520 METAR ESMX 301520Z AUTO 09006KT 060V150 9999 BKN039/// BKN051/// 15/10 Q1015=
201408301450 METAR ESMX 301450Z AUTO 10005KT 060V170 9999 OVC039/// 15/10 Q1016=
201408301420 METAR ESMX 301420Z AUTO 09005KT 050V140 9999 OVC035/// 14/10 Q1016=
201408301350 METAR ESMX 301350Z AUTO 11005KT 050V150 9999 FEW025/// OVC034/// 14/10 Q1016=
201408301320 METAR ESMX 301320Z AUTO 11004KT 070V170 9999 SCT022/// BKN029/// OVC036/// 14/10 Q1016=
201408301250 METAR ESMX 301250Z AUTO 11004KT 080V170 9999 OVC034/// 14/09 Q1016=
201408301220 METAR ESMX 301220Z AUTO 10005KT 050V160 9999 OVC036/// 15/10 Q1016=
201408301150 METAR ESMX 301150Z AUTO 12005KT 070V170 9999 OVC036/// 15/10 Q1016=
201408301120 METAR ESMX 301120Z AUTO 11005KT 070V140 9999 OVC036/// 15/10 Q1016=
201408301050 METAR ESMX 301050Z AUTO 10004KT 070V140 9999 OVC032/// 15/10 Q1016=
201408301020 METAR ESMX 301020Z AUTO 09003KT 030V160 9999 OVC033/// 14/11 Q1016=
201408300950 METAR ESMX 300950Z AUTO 08004KT 050V140 9999 OVC035/// 14/10 Q1016=
201408300920 METAR ESMX 300920Z AUTO 11004KT 060V160 9999 FEW029/// BKN036/// 14/10 Q1016=
201408300850 METAR ESMX 300850Z AUTO VRB03KT 9999 BKN031/// BKN040/// 13/10 Q1016=
201408300820 METAR ESMX 300820Z AUTO VRB03KT 9999 SCT030/// BKN040/// 13/10 Q1016=
201408300750 METAR ESMX 300750Z AUTO 12004KT 080V160 9999 FEW031/// BKN036/// OVC041/// 13/10 Q1015=
201408300720 METAR ESMX 300720Z AUTO VRB03KT 9999 FEW034/// BKN041/// 13/10 Q1015=
201408300650 METAR ESMX 300650Z AUTO VRB03KT 9999 OVC042/// 13/10 Q1015=
201408300620 METAR ESMX 300620Z AUTO VRB02KT 9999 OVC042/// 12/10 Q1015=
201408300550 METAR ESMX 300550Z AUTO VRB03KT 9999 OVC043/// 12/10 Q1015=
201408300520 METAR ESMX 300520Z AUTO 07003KT 040V110 9999 OVC046/// 12/10 Q1014=
201408300450 METAR ESMX 300450Z AUTO VRB03KT 9999 OVC050/// 12/10 Q1014=
201408300420 METAR ESMX 300420Z AUTO VRB02KT 9999 OVC050/// 11/10 Q1014=
201408300350 METAR ESMX 300350Z AUTO VRB03KT 9999 OVC050/// 11/10 Q1014=
201408300320 METAR ESMX 300320Z AUTO 10003KT 060V140 9999 OVC048/// 11/10 Q1014=
201408300250 METAR ESMX 300250Z AUTO VRB02KT 9999 OVC051/// 11/10 Q1014=
201408300220 METAR ESMX 300220Z AUTO VRB02KT 9999 FEW027/// BKN051/// 11/10 Q1014=
201408300150 METAR ESMX 300150Z AUTO 10003KT 060V130 9999 SCT046/// BKN053/// 11/10 Q1014=
201408300120 METAR ESMX 300120Z AUTO VRB02KT 9999 DZ BKN057/// 11/10 Q1014 RERA=
201408300050 METAR ESMX 300050Z AUTO VRB03KT 9999 BKN060/// 12/10 Q1014=
201408300020 METAR ESMX 300020Z AUTO 05003KT 9999 -RA BKN061/// 12/10 Q1014 REDZ=
201408292350 METAR ESMX 292350Z AUTO 05002KT 9999 OVC055/// 12/10 Q1015=
201408292320 METAR ESMX 292320Z AUTO 14003KT 9999 OVC065/// 12/10 Q1015=
201408292250 METAR ESMX 292250Z AUTO 11003KT 9999 -DZ BKN069/// 12/10 Q1014=
201408292220 METAR ESMX 292220Z AUTO 07003KT 9999 OVC073/// 12/10 Q1014=
201408292150 METAR ESMX 292150Z AUTO VRB03KT 9999 FEW066/// BKN079/// 12/10 Q1014=
201408292120 METAR ESMX 292120Z AUTO 05004KT 9999 -DZ FEW074/// 12/10 Q1014=
201408292050 METAR ESMX 292050Z AUTO 15004KT 110V170 9999 -DZ NCD 13/11 Q1014=
201408292020 METAR ESMX 292020Z AUTO 14004KT 090V170 9999 -RA BKN063/// BKN083/// 13/11 Q1014 REDZ=
201408291950 METAR ESMX 291950Z AUTO 17005KT 9999 FEW064/// BKN075/// 13/11 Q1014=
201408291920 METAR ESMX 291920Z AUTO 16005KT 9999 -DZ SCT070/// 13/11 Q1014=
201408291850 METAR ESMX 291850Z AUTO 14004KT 9999 -DZ FEW061/// 13/11 Q1014=
201408291820 METAR ESMX 291820Z AUTO 16007KT 9000 -RA FEW038/// SCT052/// 14/11 Q1015=
201408291750 METAR ESMX 291750Z AUTO 16006KT 9999 -RA NCD 16/10 Q1014=
201408291720 METAR ESMX 291720Z 18005KT 9999 FEW030CB BKN100 16/11 Q1014=
201408291650 METAR ESMX 291650Z 17006KT 140V210 CAVOK 17/10 Q1014=
201408291620 METAR ESMX 291620Z 20002KT 9999 FEW035 18/10 Q1014=
201408291550 METAR ESMX 291550Z AUTO VRB02KT 9999 NCD 18/09 Q1014=
201408291520 METAR COR ESMX 291520Z 19004KT 9999 FEW035 18/09 Q1014=
201408291450 METAR ESMX 291450Z 18005KT 160V220 CAVOK 18/09 Q1014=
201408291420 METAR ESMX 291420Z AUTO 18005KT 9999 NCD 19/09 Q1014=
201408291350 METAR ESMX 291350Z 17005KT 140V200 CAVOK 19/07 Q1014=
201408291320 METAR ESMX 291320Z 19005KT 140V230 CAVOK 19/07 Q1014=
201408291250 METAR ESMX 291250Z 18004KT 140V210 CAVOK 19/07 Q1015=
201408291220 METAR ESMX 291220Z 17005KT 130V190 CAVOK 20/06 Q1015=
201408291150 METAR ESMX 291150Z 10004KT 050V160 CAVOK 20/06 Q1015=
201408291120 METAR ESMX 291120Z 04005KT 010V070 CAVOK 19/06 Q1015=
201408291050 METAR ESMX 291050Z 13003KT 060V180 CAVOK 20/07 Q1015=
201408291020 METAR ESMX 291020Z 07004KT 330V120 CAVOK 20/07 Q1015=
201408290950 METAR ESMX 290950Z 05003KT 340V130 CAVOK 19/07 Q1015=
201408290920 METAR ESMX 290920Z 05003KT 330V120 CAVOK 19/08 Q1015=
201408290850 METAR ESMX 290850Z 05003KT 350V140 CAVOK 18/08 Q1015=
201408290820 METAR ESMX 290820Z VRB03KT CAVOK 17/09 Q1015=
201408290750 METAR ESMX 290750Z 04004KT CAVOK 16/09 Q1015=
201408290720 METAR ESMX 290720Z VRB03KT CAVOK 16/10 Q1016=
201408290650 METAR ESMX 290650Z 01003KT CAVOK 13/11 Q1016=
201408290620 METAR ESMX 290620Z VRB02KT CAVOK 12/11 Q1016=
201408290550 METAR ESMX 290550Z 01002KT CAVOK 10/09 Q1015=
201408290520 METAR ESMX 290520Z 00000KT CAVOK 06/05 Q1015=
201408290450 METAR ESMX 290450Z 02002KT CAVOK 05/04 Q1015=
201408290420 METAR ESMX 290420Z 00000KT 9999 BCFG NSC 05/04 Q1015=
201408290350 METAR COR ESMX 290350Z 17003KT 1000 R01/P2000N R19/P2000D BCFG NCD 05/04 Q1015=
201408290320 METAR ESMX 290320Z AUTO 00000KT 0500 R01/P2000N R19/0800VP2000D NCD 05/05 Q1015=
201408290250 METAR ESMX 290250Z AUTO 23002KT 1200 R01/P2000N R19/P2000N BCFG NCD 05/04 Q1016=
201408290220 METAR ESMX 290220Z AUTO 19002KT 6000 BR NCD 06/05 Q1015=
201408290150 METAR ESMX 290150Z AUTO 00000KT 4300 NCD 06/05 Q1015=
201408290120 METAR ESMX 290120Z AUTO 05001KT 1600 BCFG NCD 06/05 Q1015=
201408290050 METAR ESMX 290050Z AUTO 00000KT 2000 BCFG NCD 06/05 Q1015=
201408290020 METAR ESMX 290020Z 00000KT CAVOK 07/06 Q1016=
201408282350 METAR COR ESMX 282350Z 00000KT CAVOK 07/06 Q1016=
201408282320 METAR ESMX 282320Z 04001KT CAVOK 08/07 Q1016=
201408282250 METAR ESMX 282250Z VRB01KT CAVOK 09/08 Q1016=
201408282220 METAR ESMX 282220Z 16002KT CAVOK 09/08 Q1016=
201408282150 METAR ESMX 282150Z 00000KT CAVOK 08/07 Q1015=
201408282120 METAR ESMX 282120Z 18002KT CAVOK 08/07 Q1015=
201408282050 METAR ESMX 282050Z 18002KT CAVOK 08/07 Q1015=
201408282020 METAR ESMX 282020Z 00000KT CAVOK 10/08 Q1015=
201408281950 METAR ESMX 281950Z 16002KT CAVOK 11/09 Q1015=
201408281920 METAR ESMX 281920Z 00000KT CAVOK 12/10 Q1015=
201408281850 METAR ESMX 281850Z 36002KT CAVOK 13/10 Q1015=
201408281820 METAR ESMX 281820Z 00000KT CAVOK 14/10 Q1014=
201408281750 METAR ESMX 281750Z 00000KT CAVOK 14/10 Q1014=
201408281720 METAR ESMX 281720Z 36002KT CAVOK 16/09 Q1014=
201408281650 METAR ESMX 281650Z 33005KT CAVOK 18/08 Q1014=
201408281620 METAR ESMX 281620Z 34005KT CAVOK 18/08 Q1014=
201408281550 METAR ESMX 281550Z 35005KT CAVOK 18/08 Q1014=
201408281520 METAR ESMX 281520Z 35007KT CAVOK 20/07 Q1014=
201408281450 METAR ESMX 281450Z 30008KT 260V330 CAVOK 20/07 Q1014=
201408281420 METAR ESMX 281420Z 28009KT 240V340 9999 FEW042 SCT050 20/08 Q1014=
201408281350 METAR ESMX 281350Z 28007KT 250V320 CAVOK 19/07 Q1014=
201408281320 METAR ESMX 281320Z 27006KT 230V320 CAVOK 19/08 Q1014=
201408281250 METAR ESMX 281250Z 29008KT CAVOK 18/08 Q1014=
201408281220 METAR ESMX 281220Z 28007KT 250V320 9999 FEW040 BKN063 19/09 Q1014=
201408281150 METAR COR ESMX 281150Z 31009KT 290V350 9999 FEW044 SCT060 18/08 Q1014=
201408281120 METAR ESMX 281120Z 27009KT 240V310 9999 FEW030 SCT044 19/10 Q1014=
201408281050 METAR ESMX 281050Z 30010KT 9999 SCT030 18/10 Q1014=
201408281020 METAR ESMX 281020Z 27010KT 9999 FEW030 18/10 Q1014=
201408280950 METAR ESMX 280950Z 28009KT 9999 FEW030 SCT077 17/11 Q1014=
201408280920 METAR ESMX 280920Z AUTO 27008KT 9999 BKN075/// 16/10 Q1014=
201408280850 METAR ESMX 280850Z 29007KT CAVOK 15/11 Q1014=
201408280820 METAR ESMX 280820Z 29007KT 250V320 CAVOK 15/10 Q1014=
201408280750 METAR ESMX 280750Z 28008KT CAVOK 15/10 Q1014=
201408280720 METAR ESMX 280720Z 30006KT 280V010 CAVOK 14/10 Q1014=
201408280650 METAR ESMX 280650Z 28006KT 250V320 CAVOK 14/10 Q1013=
201408280620 METAR ESMX 280620Z 29006KT 250V320 CAVOK 12/10 Q1013=
201408280550 METAR ESMX 280550Z 29005KT CAVOK 11/09 Q1013=
201408280520 METAR ESMX 280520Z 28005KT 240V300 CAVOK 10/09 Q1013=
201408280450 METAR ESMX 280450Z 27007KT CAVOK 09/08 Q1013=
201408280420 METAR ESMX 280420Z 26005KT CAVOK 09/07 Q1013=
201408280350 METAR ESMX 280350Z 25004KT CAVOK 10/08 Q1013=
201408280320 METAR ESMX 280320Z AUTO 25004KT 9999 BKN077/// 10/07 Q1013=
201408280250 METAR ESMX 280250Z AUTO 26004KT 9999 BKN075/// 10/08 Q1013=
201408280220 METAR ESMX 280220Z AUTO 26003KT 230V290 9999 BKN078/// 10/08 Q1013=
201408280150 METAR ESMX 280150Z AUTO 26004KT 230V330 9999 FEW061/// BKN074/// 10/07 Q1013=
201408280120 METAR ESMX 280120Z AUTO 26003KT 9999 SCT070/// 09/07 Q1013=
201408280050 METAR ESMX 280050Z AUTO 29005KT 9999 BKN069/// 09/07 Q1013=
201408280020 METAR ESMX 280020Z AUTO 29005KT 9999 NCD 09/07 Q1013=
201408272350 METAR ESMX 272350Z 29005KT CAVOK 09/07 Q1013=
201408272320 METAR ESMX 272320Z 29005KT CAVOK 10/07 Q1013=
201408272250 METAR ESMX 272250Z 28004KT CAVOK 09/07 Q1013=
201408272220 METAR ESMX 272220Z 27004KT CAVOK 08/06 Q1013=
201408272150 METAR ESMX 272150Z VRB03KT CAVOK 08/06 Q1013=
201408272120 METAR ESMX 272120Z 26003KT CAVOK 07/06 Q1013=
201408272050 METAR ESMX 272050Z 15001KT CAVOK 08/06 Q1012=
201408272020 METAR ESMX 272020Z 25003KT CAVOK 08/06 Q1012=
201408271950 METAR ESMX 271950Z 26002KT CAVOK 09/07 Q1012=
201408271920 METAR ESMX 271920Z VRB02KT CAVOK 10/07 Q1012=
201408271850 METAR ESMX 271850Z 00000KT CAVOK 10/07 Q1012=
201408271820 METAR ESMX 271820Z 33003KT 300V050 CAVOK 13/08 Q1012=
201408271750 METAR ESMX 271750Z 32006KT CAVOK 15/07 Q1012=
201408271720 METAR ESMX 271720Z 31004KT CAVOK 17/08 Q1011=
201408271650 METAR ESMX 271650Z 33006KT CAVOK 17/07 Q1011=
201408271620 METAR COR ESMX 271620Z 33009KT CAVOK 18/08 Q1011=
201408271550 METAR ESMX 271550Z 33008KT CAVOK 18/07 Q1011=
201408271520 METAR ESMX 271520Z 35011KT CAVOK 19/07 Q1011=
201408271450 METAR ESMX 271450Z 34010KT CAVOK 18/07 Q1011=
201408271420 METAR ESMX 271420Z 33009KT 300V010 CAVOK 18/07 Q1011=
201408271350 METAR ESMX 271350Z 34010KT CAVOK 19/07 Q1011=
201408271320 METAR COR ESMX 271320Z 34009KT CAVOK 19/07 Q1011=
201408271250 METAR ESMX 271250Z 31010KT 280V340 9999 SCT047 20/07 Q1011=
201408271220 METAR ESMX 271220Z 32010KT 290V360 9999 SCT045 20/07 Q1010=
201408271150 METAR ESMX 271150Z 32010KT 290V350 CAVOK 19/07 Q1011=
201408271120 METAR ESMX 271120Z 35011KT CAVOK 19/07 Q1010=
201408271050 METAR ESMX 271050Z 32009KT 290V350 CAVOK 18/08 Q1010=
201408271020 METAR ESMX 271020Z 32010KT 280V350 CAVOK 18/08 Q1010=
201408270950 METAR ESMX 270950Z 31011KT CAVOK 18/08 Q1010=
201408270920 METAR ESMX 270920Z 33010KT 290V360 CAVOK 18/08 Q1010=
201408270850 METAR ESMX 270850Z 31011KT CAVOK 17/08 Q1010=
201408270820 METAR ESMX 270820Z AUTO 31009KT 280V350 9999 NCD 16/10 Q1010=
201408270750 METAR ESMX 270750Z 32007KT 280V350 CAVOK 15/10 Q1010=
201408270720 METAR ESMX 270720Z 32007KT CAVOK 14/10 Q1009=
201408270650 METAR ESMX 270650Z 31007KT CAVOK 13/10 Q1009=
201408270620 METAR ESMX 270620Z 33006KT 290V360 CAVOK 12/09 Q1009=
201408270550 METAR ESMX 270550Z 31005KT 280V340 CAVOK 11/09 Q1009=
201408270520 METAR ESMX 270520Z 31004KT 290V350 CAVOK 10/09 Q1009=
201408270450 METAR ESMX 270450Z 30004KT CAVOK 08/07 Q1009=
201408270420 METAR ESMX 270420Z 27004KT CAVOK 08/07 Q1008=
201408270350 METAR ESMX 270350Z 29005KT CAVOK 08/07 Q1008=
201408270320 METAR ESMX 270320Z AUTO 29006KT 9999 NCD 08/07 Q1008=
201408270250 METAR ESMX 270250Z AUTO 29006KT 9999 NCD 09/08 Q1008=
201408270220 METAR ESMX 270220Z AUTO 30004KT 9999 NCD 09/08 Q1008=
201408270150 METAR ESMX 270150Z AUTO 28004KT 9999 NCD 09/08 Q1008=
201408270120 METAR ESMX 270120Z 29005KT CAVOK 10/08 Q1008=
201408270050 METAR ESMX 270050Z 31005KT CAVOK 10/08 Q1008=
201408270020 METAR ESMX 270020Z 31005KT CAVOK 10/08 Q1008=
201408262350 METAR ESMX 262350Z 31005KT CAVOK 10/09 Q1008=
201408262320 METAR ESMX 262320Z 31005KT CAVOK 11/09 Q1008=
201408262250 METAR ESMX 262250Z 30006KT CAVOK 11/09 Q1008=
201408262220 METAR ESMX 262220Z 29005KT CAVOK 11/09 Q1007=
201408262150 METAR ESMX 262150Z 29006KT CAVOK 11/09 Q1007=
201408262120 METAR ESMX 262120Z 29005KT CAVOK 11/09 Q1007=
201408262050 METAR ESMX 262050Z AUTO 27004KT 9999 FEW066/// 11/09 Q1007=
201408262020 METAR ESMX 262020Z 26004KT CAVOK 11/09 Q1007=
201408261950 METAR COR ESMX 261950Z 25004KT CAVOK 11/09 Q1007=
201408261920 METAR ESMX 261920Z 24004KT CAVOK 11/09 Q1007=
201408261850 METAR ESMX 261850Z 21004KT 9999 -SHRA FEW046 12/10 Q1007=
201408261820 METAR ESMX 261820Z 33007KT 9999 -SHRA FEW030CB SCT061 13/09 Q1007=
201408261750 METAR ESMX 261750Z 32005KT 9999 FEW030 SCT081 14/10 Q1007=
201408261720 METAR ESMX 261720Z 33004KT CAVOK 14/09 Q1007=
201408261650 METAR ESMX 261650Z 32005KT CAVOK 15/09 Q1006=
201408261620 METAR ESMX 261620Z 32005KT 9999 FEW035 15/09 Q1006=
201408261550 METAR ESMX 261550Z 33006KT CAVOK 16/08 Q1006=
201408261520 METAR ESMX 261520Z 35008KT 9999 FEW025 16/07 Q1006=
201408261450 METAR ESMX 261450Z 34009KT 9999 VCTS SCT044 17/05 Q1006=
201408261420 METAR ESMX 261420Z 36007KT 330V040 CAVOK 18/07 Q1006=
201408261350 METAR ESMX 261350Z 35010KT CAVOK 16/07 Q1006=
201408261320 METAR ESMX 261320Z 36008KT 320V030 CAVOK 18/06 Q1005=
201408261250 METAR ESMX 261250Z 35008KT 300V010 CAVOK 18/07 Q1006=
201408261220 METAR ESMX 261220Z 35008KT 290V020 9999 FEW045 17/08 Q1005=
201408261150 METAR ESMX 261150Z 34008KT 300V010 9999 FEW027 SCT037 17/08 Q1005=
201408261120 METAR ESMX 261120Z 31009KT 270V350 9999 FEW035 SCT046 16/09 Q1006=
201408261050 METAR ESMX 261050Z 31006KT 260V340 9999 FEW028 SCT046 BKN091 15/09 Q1006=
201408261020 METAR COR ESMX 261020Z 28006KT 260V350 9999 FEW030 15/10 Q1006=
201408260950 METAR ESMX 260950Z 02005KT 320V060 9999 FEW027 16/09 Q1006=
201408260920 METAR ESMX 260920Z 31004KT 260V340 9999 FEW028 15/09 Q1006=
201408260850 METAR ESMX 260850Z 32004KT 260V020 9999 SCT017 15/10 Q1006=
201408260820 METAR ESMX 260820Z 34003KT 280V030 9999 FEW011 SCT018 13/11 Q1006=
201408260750 METAR ESMX 260750Z 36004KT 9999 FEW008 BKN010 12/10 Q1005=
201408260720 METAR ESMX 260720Z 36005KT 9999 SCT007 BKN009 12/10 Q1005=
201408260650 METAR ESMX 260650Z 33007KT 9999 FEW006 SCT008 BKN009 11/10 Q1005=
201408260620 METAR ESMX 260620Z 34006KT 9999 BKN005 11/10 Q1005=
201408260550 METAR ESMX 260550Z 36007KT 9999 OVC005 10/10 Q1005=
201408260520 METAR ESMX 260520Z AUTO 33005KT 9999 FEW004/// SCT006/// OVC007/// 10/10 Q1005=
201408260450 METAR ESMX 260450Z 28003KT 2500 BR FEW002 BKN011 10/09 Q1005=
201408260420 METAR ESMX 260420Z 30002KT 1900 BR SCT002 OVC010 10/09 Q1005=
201408260350 METAR ESMX 260350Z 30003KT 1800 BR OVC002 10/09 Q1005=
201408260320 METAR ESMX 260320Z AUTO 26003KT 230V290 4200 VV001 10/09 Q1005=
201408260250 METAR ESMX 260250Z AUTO VRB03KT 9999 OVC001/// 10/09 Q1005=
201408260220 METAR ESMX 260220Z AUTO 24002KT 9999 SCT003/// BKN008/// OVC009/// 10/09 Q1005=
201408260150 METAR ESMX 260150Z AUTO 22002KT 9999 FEW003/// BKN008/// OVC015/// 09/09 Q1005 REDZ=
201408260120 METAR ESMX 260120Z AUTO 22003KT 9999 DZ FEW002/// SCT004/// BKN047/// 09/08 Q1005=
201408260050 METAR ESMX 260050Z AUTO 22003KT 9999 FEW012/// SCT021/// BKN027/// 09/09 Q1006=
201408260020 METAR ESMX 260020Z AUTO 23003KT 9999 SCT038/// BKN046/// BKN054/// 09/09 Q1005=
201408252350 METAR ESMX 252350Z AUTO 23004KT 9999 FEW034/// OVC056/// 10/09 Q1006=
201408252320 METAR ESMX 252320Z 22004KT CAVOK 10/09 Q1006=
201408252250 METAR ESMX 252250Z 21005KT 9999 -SHRA FEW020 10/09 Q1006 REDZ=
201408252220 METAR ESMX 252220Z 25003KT 210V280 9999 -SHRA FEW016 SCT053 10/09 Q1006 REDZ=
201408252150 METAR ESMX 252150Z 24003KT 8000 BR FEW018 SCT023 10/09 Q1006=
201408252120 METAR ESMX 252120Z 21005KT 9999 FEW021 OVC065 10/09 Q1006=
201408252050 METAR ESMX 252050Z 21005KT CAVOK 10/09 Q1007=
201408252020 METAR ESMX 252020Z 21005KT CAVOK 11/09 Q1007=
201408251950 METAR COR ESMX 251950Z 21004KT CAVOK 10/09 Q1007=
201408251920 METAR ESMX 251920Z 22003KT 9999 FEW020 11/09 Q1007=
201408251850 METAR ESMX 251850Z 23005KT 9999 FEW020 SCT035 11/09 Q1007=
201408251820 METAR ESMX 251820Z 22006KT 9999 SCT021 BKN027 11/09 Q1007=
201408251750 METAR COR ESMX 251750Z 23004KT 9999 -SHRA FEW023 SCT033CB 11/09 Q1007=
201408251720 METAR ESMX 251720Z 22005KT 9999 -SHRA FEW033CB SCT047 10/09 Q1007=
201408251650 METAR ESMX 251650Z 24004KT 200V270 9999 -RA FEW041CB SCT056 BKN072 11/10 Q1007=
201408251620 METAR ESMX 251620Z 26005KT 9999 -RA FEW041CB SCT054 11/09 Q1007=
201408251550 METAR ESMX 251550Z 27009KT 9999 -RA FEW032CB SCT047 BKN067 12/09 Q1007=
201408251520 METAR ESMX 251520Z 27009KT 9999 SCT031 BKN070 14/08 Q1007=
201408251450 METAR COR ESMX 251450Z 25009KT 220V290 9999 FEW030 15/09 Q1007=
201408251420 METAR ESMX 251420Z 26011KT 220V290 9999 FEW008 FEW030CB SCT032 15/08 Q1007=
201408251350 METAR COR ESMX 251350Z 24009KT 9999 -SHRA FEW033 SCT048 BKN061 15/07 Q1007=
201408251320 METAR ESMX 251320Z 22010KT 190V260 9999 SCT033 BKN041 16/08 Q1007=
201408251250 METAR ESMX 251250Z 21010KT 9999 SCT026 BKN043 16/08 Q1007=
201408251220 METAR ESMX 251220Z 22010KT 9999 FEW033 SCT047 15/09 Q1007 RESHRA=
201408251150 METAR ESMX 251150Z 24010KT 200V280 9999 -SHRA FEW022CB BKN066 14/09 Q1007=
201408251120 METAR ESMX 251120Z 24010KT 9999 FEW036 BKN064 14/09 Q1007=
201408251050 METAR ESMX 251050Z 25010KT 220V280 9999 FEW017 SCT035 BKN046 13/08 Q1007=
201408251020 METAR ESMX 251020Z 26009KT 9999 VCSH FEW023 SCT032 BKN042 14/08 Q1007=
201408250950 METAR ESMX 250950Z 23009KT 9999 SCT035 BKN055 14/09 Q1008=
201408250920 METAR ESMX 250920Z 24007KT 200V260 9999 FEW022 SCT040 BKN050 13/09 Q1008=
201408250850 METAR ESMX 250850Z 24009KT 9999 FEW016 SCT027 BKN031 12/09 Q1008=
201408250820 METAR COR ESMX 250820Z 25008KT 230V290 9999 FEW016 SCT021 BKN026 12/08 Q1007=
201408250750 METAR ESMX 250750Z 23009KT 200V280 9999 FEW014 BKN018 13/09 Q1007=
201408250720 METAR ESMX 250720Z 24010KT 9999 FEW013 BKN015 12/09 Q1007=
201408250650 METAR ESMX 250650Z 24010KT 9999 SCT012 12/09 Q1007=
201408250620 METAR ESMX 250620Z 22008KT 9999 FEW008 SCT010 11/09 Q1007=
201408250550 METAR ESMX 250550Z 22006KT 9999 FEW006 SCT008 10/09 Q1007=
201408250520 METAR ESMX 250520Z 21005KT 9999 FEW007 09/08 Q1007=
201408250450 METAR ESMX 250450Z 19006KT 9999 FEW008 SCT046 09/08 Q1007=
201408250420 METAR ESMX 250420Z 22004KT 9999 FEW007 SCT013 09/08 Q1007=
201408250350 METAR ESMX 250350Z 23005KT 9999 FEW007 SCT009 BKN010 09/08 Q1007=
201408250320 METAR ESMX 250320Z AUTO 23006KT 9999 FEW007/// SCT009/// OVC010/// 10/09 Q1007=
201408250250 METAR ESMX 250250Z AUTO 23006KT 9999 FEW008/// SCT013/// BKN061/// 10/09 Q1007=
201408250220 METAR ESMX 250220Z AUTO 24009KT 9999 FEW010/// BKN012/// 10/09 Q1007=
201408250150 METAR ESMX 250150Z AUTO 25008KT 9999 FEW007/// SCT010/// BKN013/// 10/09 Q1007=
201408250120 METAR ESMX 250120Z AUTO 24008KT 9999 FEW006/// BKN008/// OVC011/// 11/09 Q1007=
201408250050 METAR ESMX 250050Z AUTO 22008KT 9999 FEW008/// OVC012/// 10/09 Q1007=
201408250020 METAR ESMX 250020Z AUTO 23009KT 9999 FEW008/// BKN011/// OVC014/// 10/09 Q1007=
201408242350 METAR ESMX 242350Z AUTO 22009KT 9999 FEW009/// OVC012/// 10/09 Q1007=
201408242320 METAR ESMX 242320Z 22008KT 9999 -RA FEW006 BKN020 10/09 Q1007=
201408242250 METAR ESMX 242250Z 23008KT 9999 -RA FEW007 SCT011 BKN014 11/10 Q1007=
201408242220 METAR ESMX 242220Z 21007KT 9999 -RA FEW005 SCT009 BKN014 11/10 Q1007=
201408242150 METAR ESMX 242150Z AUTO 22007KT 9999 FEW008/// SCT015/// BKN019/// 10/09 Q1007=
201408242120 METAR ESMX 242120Z 19007KT 9999 SCT018 BKN026 11/09 Q1007 RERA=
201408242050 METAR ESMX 242050Z AUTO 20007KT 9999 RA FEW020/// 11/10 Q1008 RERA=
201408242020 METAR ESMX 242020Z 21008KT 9999 -RA FEW005 SCT023 11/10 Q1007 RERA=
201408241950 METAR ESMX 241950Z 19008KT 9999 FEW007 SCT015 11/10 Q1007 RERA=
201408241927 METAR ESMX 241927Z 18009KT 9999 -RA FEW007 SCT015 11/10 Q1007=
201408241920 METAR ESMX 241920Z AUTO 18009KT 9999 -DZ FEW010/// SCT065/// 11/10 Q1007=
201408241850 METAR ESMX 241850Z 20007KT 9999 -RA FEW010 SCT025 11/10 Q1007=
201408241820 METAR ESMX 241820Z 19009KT 9999 -RA FEW010 SCT025 12/10 Q1007=
201408241750 METAR ESMX 241750Z 22009KT 9999 FEW016 SCT020 12/09 Q1007=
201408241720 METAR ESMX 241720Z 20008KT 9999 FEW018 SCT065 12/10 Q1007=
201408241650 METAR ESMX 241650Z 19009KT 9999 FEW015 SCT051 13/10 Q1007=
201408241620 METAR ESMX 241620Z 20010KT 9999 FEW014 SCT041 12/10 Q1007=
201408241550 METAR ESMX 241550Z 19010KT 9999 FEW043 BKN053 BKN090 13/10 Q1008=
201408241520 METAR COR ESMX 241520Z 20009KT 9999 -RA FEW040 SCT051 12/10 Q1008=
201408241450 METAR ESMX 241450Z 23007KT 9999 -RA FEW035 SCT043 BKN053 12/09 Q1008 RERA=
201408241420 METAR ESMX 241420Z 21012KT 9999 FEW019 SCT048 BKN057 13/09 Q1008=
201408241350 METAR COR ESMX 241350Z 20014KT 9999 FEW040 SCT047 BKN055 15/06 Q1008=
201408241320 METAR ESMX 241320Z 19014KT 9999 SCT043 BKN052 16/06 Q1007=
201408241250 METAR ESMX 241250Z 20014KT 9999 FEW039 SCT044 15/07 Q1008=
201408241220 METAR ESMX 241220Z 20014KT 9999 FEW027 SCT040 16/07 Q1008=
201408241150 METAR ESMX 241150Z 19013KT 9999 FEW036 SCT041 BKN057 15/08 Q1008=
201408241120 METAR ESMX 241120Z 19016KT 9999 FEW022 SCT035 16/09 Q1008=
201408241050 METAR ESMX 241050Z 20014KT 170V240 9999 FEW030 SCT057 15/08 Q1008 REDZ=
201408241020 METAR ESMX 241020Z AUTO 21009KT 9999 FEW028/// SCT048/// OVC053/// 14/10 Q1008 REDZ=
201408240950 METAR ESMX 240950Z AUTO 20011KT 170V240 9999 FEW023/// BKN060/// 14/08 Q1008=
201408240920 METAR ESMX 240920Z AUTO 21012KT 9999 FEW022/// SCT036/// BKN053/// 13/08 Q1008=
201408240850 METAR ESMX 240850Z AUTO 20010KT 9999 FEW020/// SCT025/// BKN041/// 14/09 Q1008=
201408240820 METAR ESMX 240820Z AUTO 20010KT 9999 FEW012/// SCT018/// 14/10 Q1008=
201408240750 METAR ESMX 240750Z AUTO 21009KT 9999 FEW043/// 13/10 Q1008=
201408240720 METAR ESMX 240720Z AUTO 21007KT 9999 BKN050/// 12/09 Q1008=
201408240650 METAR ESMX 240650Z AUTO 20008KT 9999 FEW049/// BKN061/// 11/09 Q1008=
201408240620 METAR ESMX 240620Z AUTO 21007KT 9999 FEW028/// BKN059/// 10/09 Q1008=
201408240550 METAR ESMX 240550Z AUTO 19006KT 9999 FEW002/// OVC058/// 10/09 Q1008=
201408240520 METAR ESMX 240520Z AUTO 19008KT 9999 OVC001/// 09/08 Q1008=
201408240450 METAR ESMX 240450Z AUTO 20007KT 9999 SCT001/// 08/08 Q1008=
201408240420 METAR ESMX 240420Z AUTO 19006KT 9999 BKN053/// 08/07 Q1007=
201408240350 METAR ESMX 240350Z AUTO 19006KT 9999 FEW051/// 08/07 Q1007=
201408240320 METAR ESMX 240320Z AUTO 19007KT 9999 FEW017/// 08/07 Q1007=
201408240250 METAR ESMX 240250Z AUTO 19006KT 9999 FEW017/// 07/07 Q1007=
201408240220 METAR ESMX 240220Z AUTO 19006KT 9999 NCD 08/07 Q1007=
201408240150 METAR ESMX 240150Z AUTO 19006KT 9999 NCD 08/07 Q1007=
201408240120 METAR ESMX 240120Z AUTO 20006KT 9999 FEW022/// 08/07 Q1007=
201408240050 METAR ESMX 240050Z AUTO 19006KT 9999 FEW049/// 09/08 Q1007=
201408240020 METAR ESMX 240020Z AUTO 20007KT 9999 -RA FEW068/// 09/08 Q1007 RERA=
201408232350 METAR ESMX 232350Z AUTO 19007KT 9999 -RA FEW049/// BKN057/// 10/09 Q1007=
201408232320 METAR ESMX 232320Z AUTO 21007KT 9999 -RA NCD 10/08 Q1007=
201408232250 METAR ESMX 232250Z AUTO 21006KT 9999 FEW080/// 09/08 Q1007=
201408232220 METAR ESMX 232220Z AUTO 20006KT 9999 NCD 09/07 Q1007=
201408232150 METAR ESMX 232150Z AUTO 20006KT 9999 FEW058/// 08/07 Q1007=
201408232120 METAR ESMX 232120Z AUTO 18007KT 9999 FEW061/// SCT081/// 09/08 Q1007=
201408232050 METAR ESMX 232050Z AUTO 20006KT 9999 FEW028/// 09/08 Q1007=
201408232020 METAR ESMX 232020Z AUTO 19006KT 9999 NCD 09/07 Q1007=
201408231950 METAR ESMX 231950Z AUTO 20006KT 9999 NCD 09/07 Q1007=
201408231920 METAR ESMX 231920Z AUTO 20004KT 9999 FEW034/// 10/08 Q1007=
201408231850 METAR ESMX 231850Z AUTO 20006KT 9999 FEW032/// SCT067/// 10/08 Q1007=
201408231820 METAR ESMX 231820Z AUTO 19007KT 9999 NCD 11/08 Q1007=
201408231750 METAR ESMX 231750Z AUTO 22007KT 9999 FEW014/// 13/08 Q1006=
201408231720 METAR ESMX 231720Z AUTO 23008KT 9999 NCD 14/07 Q1006=
201408231650 METAR ESMX 231650Z AUTO 22010KT 9999 FEW041/// 15/07 Q1006=
201408231620 METAR ESMX 231620Z AUTO 23011KT 9999 FEW047/// 15/07 Q1006=
201408231550 METAR ESMX 231550Z AUTO 23008KT 9999 SCT037/// BKN045/// 16/08 Q1006=
201408231520 METAR ESMX 231520Z AUTO 26009KT 9999 FEW040/// 16/08 Q1006=
201408231450 METAR ESMX 231450Z AUTO 23010KT 190V270 9999 FEW039/// 16/08 Q1006=
201408231420 METAR ESMX 231420Z AUTO 23012G23KT 200V270 9999 -RA FEW015/// SCT033/// BKN047/// 14/08 Q1006=
201408231350 METAR ESMX 231350Z AUTO 19010KT 9999 FEW034/// 14/09 Q1006=
201408231320 METAR ESMX 231320Z AUTO 23010KT 9999 FEW034/// 15/09 Q1005=
201408231250 METAR ESMX 231250Z AUTO 22009KT 9999 FEW011/// SCT059/// 15/09 Q1005=
201408231220 METAR ESMX 231220Z AUTO 22010KT 9999 FEW028/// SCT032/// BKN047/// 15/09 Q1005=
201408231150 METAR ESMX 231150Z AUTO 24013G23KT 9999 FEW028/// SCT033/// BKN096/// 16/08 Q1005=
201408231120 METAR ESMX 231120Z AUTO 22013KT 190V250 9999 FEW023/// SCT037/// BKN065/// 16/10 Q1005=
201408231050 METAR ESMX 231050Z AUTO 21013KT 9999 FEW023/// SCT028/// 14/08 Q1005=
201408231020 METAR ESMX 231020Z AUTO 23011KT 9999 FEW066/// 15/10 Q1005=
201408230950 METAR ESMX 230950Z AUTO 21010KT 9999 FEW018/// SCT058/// BKN071/// 15/10 Q1005=
201408230920 METAR ESMX 230920Z AUTO 21010KT 9999 FEW015/// SCT067/// BKN082/// 14/10 Q1005=
201408230850 METAR ESMX 230850Z AUTO 21010KT 9999 SCT010/// BKN015/// BKN057/// 13/10 Q1005=
201408230820 METAR ESMX 230820Z AUTO 22009KT 190V250 9999 FEW008/// SCT012/// BKN016/// 12/10 Q1005=
201408230750 METAR ESMX 230750Z AUTO 22009KT 9999 FEW010/// BKN059/// 12/10 Q1005=
201408230720 METAR ESMX 230720Z AUTO 23009KT 9999 FEW005/// SCT009/// 12/10 Q1004=
201408230650 METAR ESMX 230650Z AUTO 21008KT 9999 -DZ FEW005/// SCT008/// BKN033/// 11/10 Q1004=
201408230620 METAR ESMX 230620Z AUTO 22008KT 9000 -RA FEW004/// BKN005/// BKN008/// 11/10 Q1004=
201408230550 METAR ESMX 230550Z AUTO 22007KT 9999 RA FEW002/// SCT006/// BKN012/// 11/10 Q1004 REDZ=
201408230520 METAR ESMX 230520Z AUTO 19005KT 3500 -RA FEW002/// SCT005/// BKN007/// 11/10 Q1004=
201408230450 METAR ESMX 230450Z AUTO VRB02KT 7000 -RA FEW003/// SCT004/// BKN006/// 11/10 Q1004 REDZ=
201408230420 METAR ESMX 230420Z AUTO 15003KT 9999 -DZ BKN007/// 11/10 Q1004=
201408230350 METAR ESMX 230350Z AUTO 15004KT 130V190 7000 RA FEW015/// 11/10 Q1004=
201408230320 METAR ESMX 230320Z AUTO 17006KT 9000 RA FEW010/// SCT025/// BKN039/// 11/10 Q1004=
201408230250 METAR ESMX 230250Z AUTO 15006KT 9999 FEW054/// SCT069/// OVC084/// 11/10 Q1004=
201408230220 METAR ESMX 230220Z AUTO 15006KT 9999 BKN085/// 11/09 Q1005=
201408230150 METAR ESMX 230150Z AUTO 14005KT 9999 NCD 10/09 Q1005=
201408230120 METAR ESMX 230120Z AUTO 16005KT 9999 FEW058/// 11/09 Q1005=
201408230050 METAR ESMX 230050Z AUTO 16006KT 9999 BKN045/// 12/09 Q1005=
201408230020 METAR ESMX 230020Z AUTO 16005KT 9999 BKN042/// BKN076/// 12/09 Q1006=
201408222350 METAR ESMX 222350Z AUTO 16006KT 9999 FEW048/// SCT056/// OVC075/// 12/09 Q1006=
201408222320 METAR ESMX 222320Z AUTO 17007KT 9999 FEW060/// BKN080/// 11/09 Q1006=
201408222250 METAR ESMX 222250Z AUTO 16007KT 9999 FEW053/// BKN065/// OVC083/// 11/09 Q1006=
201408222220 METAR ESMX 222220Z AUTO 16008KT 9999 BKN055/// 12/09 Q1007=
201408222150 METAR ESMX 222150Z AUTO 16005KT 9999 FEW056/// BKN066/// 12/09 Q1007=
201408222120 METAR ESMX 222120Z AUTO 16005KT 9999 BKN063/// 12/09 Q1007 REDZ=
201408222050 METAR ESMX 222050Z AUTO 19008KT 9999 BKN058/// 12/09 Q1007=
201408222020 METAR ESMX 222020Z AUTO 19010KT 9999 SCT042/// BKN055/// BKN070/// 13/09 Q1007=
201408221950 METAR ESMX 221950Z AUTO 18007KT 9999 FEW036/// SCT069/// 13/09 Q1007=
201408221920 METAR ESMX 221920Z AUTO 17007KT 9999 FEW055/// BKN073/// 13/10 Q1007=
201408221850 METAR ESMX 221850Z AUTO 17007KT 9999 FEW071/// SCT110/// 13/10 Q1007=
201408221820 METAR ESMX 221820Z AUTO 16006KT 9999 BKN066/// 13/11 Q1007=
201408221750 METAR ESMX 221750Z AUTO 16005KT 9999 FEW060/// SCT072/// BKN088/// 13/11 Q1007=
201408221720 METAR ESMX 221720Z 16004KT 9999 FEW035 OVC076 13/11 Q1007=
201408221650 METAR ESMX 221650Z 17006KT 9999 FEW035 BKN075 13/11 Q1007=
201408221620 METAR COR ESMX 221620Z 16007KT 9999 FEW040 BKN075 13/11 Q1007=
201408221550 METAR ESMX 221550Z 15005KT 9999 FEW040 SCT077 14/11 Q1007=
201408221520 METAR COR ESMX 221520Z 14006KT 110V170 9999 FEW035 14/11 Q1008=
201408221450 METAR ESMX 221450Z 19006KT 160V230 9999 TS FEW010 SCT046 12/10 Q1008=
201408221420 METAR ESMX 221420Z 23010KT 9999 VCSH FEW028CB BKN039 12/09 Q1008=
201408221350 METAR ESMX 221350Z 17010KT 9999 FEW035 15/10 Q1008=
201408221320 METAR ESMX 221320Z 16008KT 120V190 9999 FEW035 15/10 Q1008=
201408221250 METAR COR ESMX 221250Z 15007KT 120V190 9999 FEW035 15/11 Q1009=
201408221220 METAR ESMX 221220Z 16007KT 9999 FEW027CB SCT035 12/09 Q1009 RESHRA=
201408221150 METAR ESMX 221150Z 19021KT 8000 SHRA FEW027CB SCT038 14/10 Q1009=
201408221120 METAR ESMX 221120Z 18008KT 160V250 9999 FEW035 17/09 Q1009=
201408221050 METAR ESMX 221050Z 18009KT 9999 FEW034 SCT060 15/09 Q1009=
201408221020 METAR ESMX 221020Z 21010KT 180V240 9999 FEW034 15/08 Q1009=
201408220950 METAR ESMX 220950Z 20013KT 9999 FEW031 SCT048 16/09 Q1009=
201408220920 METAR ESMX 220920Z 20012KT 9999 FEW029 SCT039 15/08 Q1009=
201408220850 METAR ESMX 220850Z 21012KT 9999 FEW033 15/08 Q1009=
201408220820 METAR ESMX 220820Z 20011KT CAVOK 14/08 Q1010=
201408220750 METAR ESMX 220750Z 19011KT CAVOK 14/09 Q1010=
201408220720 METAR ESMX 220720Z 20011KT CAVOK 13/09 Q1010=
201408220650 METAR ESMX 220650Z 19010KT CAVOK 12/09 Q1010=
201408220620 METAR ESMX 220620Z 19008KT CAVOK 12/09 Q1010=
201408220550 METAR ESMX 220550Z 19008KT CAVOK 11/09 Q1010=
201408220520 METAR ESMX 220520Z 19006KT 9999 FEW045 09/08 Q1010=
201408220450 METAR ESMX 220450Z 18006KT 9999 FEW042 09/07 Q1010=
201408220420 METAR ESMX 220420Z AUTO 19006KT 9999 FEW039/// SCT046/// BKN053/// 09/07 Q1010=
201408220350 METAR ESMX 220350Z AUTO 20005KT 9999 FEW035/// OVC044/// 09/08 Q1010=
201408220320 METAR ESMX 220320Z AUTO 22005KT 9999 FEW023/// SCT028/// BKN032/// 09/08 Q1010=
201408220250 METAR ESMX 220250Z AUTO 20007KT 9999 FEW028/// SCT037/// BKN042/// 09/08 Q1010=
201408220220 METAR ESMX 220220Z AUTO 19007KT 9999 FEW021/// SCT028/// BKN038/// 09/08 Q1010=
201408220150 METAR ESMX 220150Z AUTO 20007KT 9999 FEW020/// 09/08 Q1010=
201408220120 METAR ESMX 220120Z AUTO 20008KT 9999 FEW046/// 09/08 Q1010=
201408220050 METAR ESMX 220050Z AUTO 19008KT 9999 FEW045/// 09/08 Q1010=
201408220020 METAR ESMX 220020Z AUTO 19007KT 9999 NCD 09/08 Q1010=
201408212350 METAR ESMX 212350Z 18007KT 9999 FEW040 SCT060 10/08 Q1010=
201408212320 METAR ESMX 212320Z 19007KT 9999 FEW045 SCT060 10/08 Q1010=
201408212250 METAR ESMX 212250Z 19006KT 9999 -SHRA FEW045 SCT080 09/08 Q1010=
201408212220 METAR COR ESMX 212220Z 20006KT 9999 FEW045 SCT082 10/08 Q1010=
201408212150 METAR ESMX 212150Z 22007KT 9999 -SHRA FEW045CB BKN068 10/08 Q1010=
201408212120 METAR COR ESMX 212120Z 21007KT 9999 FEW044 SCT090 10/08 Q1010=
201408212050 METAR ESMX 212050Z 21008KT CAVOK 10/08 Q1010=
201408212020 METAR COR ESMX 212020Z 21007KT CAVOK 10/07 Q1010=
201408211950 METAR COR ESMX 211950Z 22009KT 9999 -SHRA FEW045CB SCT070 11/08 Q1010=
201408211920 METAR COR ESMX 211920Z 19006KT CAVOK 10/08 Q1010=
201408211850 METAR ESMX 211850Z AUTO 19006KT 9999 NCD 10/08 Q1009=
201408211820 METAR ESMX 211820Z 22006KT CAVOK 12/08 Q1009=
201408211750 METAR COR ESMX 211750Z 23008KT 9999 FEW045 SCT060 13/08 Q1009=
201408211720 METAR ESMX 211720Z 22010KT CAVOK 13/08 Q1009=
201408211650 METAR ESMX 211650Z 22013KT CAVOK 14/07 Q1009=
201408211620 METAR ESMX 211620Z 23011KT 190V250 CAVOK 14/08 Q1009=
201408211550 METAR ESMX 211550Z 25009KT CAVOK 14/09 Q1009=
201408211520 METAR ESMX 211520Z 26007KT 9999 FEW030 12/09 Q1009 RESHRA=
201408211450 METAR ESMX 211450Z 25014G32KT 230V290 9999 SHRA FEW023 SCT040CB 11/08 Q1009=
201408211420 METAR ESMX 211420Z 25012KT 9999 VCSH FEW039CB 15/07 Q1008=
201408211350 METAR ESMX 211350Z 23013KT 200V260 9999 FEW036 SCT064 16/08 Q1008=
201408211320 METAR ESMX 211320Z 24014KT 9999 FEW040 16/07 Q1008=
201408211250 METAR ESMX 211250Z AUTO 24010KT 210V270 9999 FEW062/// 15/10 Q1008 RERA=
201408211220 METAR ESMX 211220Z 24010G21KT 9999 FEW015 15/10 Q1008 RESHRA=
201408211150 METAR ESMX 211150Z 21014KT 9999 FEW026 SCT032 15/10 Q1008=
201408211120 METAR ESMX 211120Z 23016KT 190V260 9999 FEW029CB SCT037 15/08 Q1008=
201408211050 METAR ESMX 211050Z 21016KT 9999 FEW030 16/09 Q1008=
201408211020 METAR ESMX 211020Z 22014G24KT 9999 FEW028 15/09 Q1008=
201408210950 METAR ESMX 210950Z 24014KT 9999 FEW025 14/09 Q1008=
201408210920 METAR COR ESMX 210920Z 22012KT 190V260 9999 SCT025 14/10 Q1008=
201408210850 METAR ESMX 210850Z 23014KT 9999 -SHRA FEW021CB SCT030 13/08 Q1008=
201408210820 METAR ESMX 210820Z 21014KT 9999 SCT021 14/09 Q1008=
201408210750 METAR ESMX 210750Z 21013KT 9999 SCT020 13/09 Q1008=
201408210720 METAR COR ESMX 210720Z 21012KT 9999 BKN017 13/10 Q1008=
201408210650 METAR ESMX 210650Z 21011KT 9999 FEW011 BKN013 12/10 Q1008=
201408210620 METAR ESMX 210620Z 21010KT 9999 BKN011 11/09 Q1007=
201408210550 METAR ESMX 210550Z 19010KT 9999 FEW007 SCT010 11/09 Q1007=
201408210520 METAR ESMX 210520Z 20010KT 9999 FEW005 SCT007 10/09 Q1007=
201408210450 METAR ESMX 210450Z 20011KT 9999 FEW004 BKN006 10/09 Q1007=
201408210420 METAR ESMX 210420Z 20010KT 9999 FEW006 09/08 Q1007=
201408210350 METAR ESMX 210350Z 21010KT 9999 FEW005 09/08 Q1007=
201408210320 METAR ESMX 210320Z AUTO 20009KT 9999 FEW005/// 09/08 Q1007=
201408210250 METAR ESMX 210250Z AUTO 19009KT 9999 NCD 09/08 Q1007=
201408210220 METAR ESMX 210220Z AUTO 20009KT 9999 NCD 09/08 Q1007=
201408210150 METAR ESMX 210150Z AUTO 21009KT 9999 NCD 10/08 Q1007=
201408210120 METAR ESMX 210120Z AUTO 20009KT 9999 NCD 10/08 Q1007=
201408210050 METAR ESMX 210050Z AUTO 20009KT 9999 NCD 10/08 Q1007=
201408210020 METAR ESMX 210020Z AUTO 19010KT 9999 NCD 10/08 Q1007=
201408202350 METAR ESMX 202350Z AUTO 19009KT 9999 NCD 10/09 Q1006=
201408202320 METAR ESMX 202320Z 20009KT 9999 FEW030 10/09 Q1006=
201408202250 METAR ESMX 202250Z 20009KT 9999 FEW025 10/09 Q1006=
201408202220 METAR ESMX 202220Z 20009KT 9999 FEW025 SCT035 11/09 Q1006=
201408202150 METAR ESMX 202150Z 20009KT 9999 FEW025 11/09 Q1006=
201408202120 METAR ESMX 202120Z 20010KT 9999 FEW025 11/09 Q1006=
201408202050 METAR ESMX 202050Z 20009KT 9999 FEW025 11/09 Q1006=
201408202020 METAR ESMX 202020Z 21009KT CAVOK 11/09 Q1006=
201408201950 METAR ESMX 201950Z 21009KT 9999 FEW049 11/09 Q1006=
201408201920 METAR ESMX 201920Z 22010KT 9999 FEW037 12/09 Q1005=
201408201850 METAR ESMX 201850Z 22010KT CAVOK 12/09 Q1005=
201408201820 METAR ESMX 201820Z 22008KT 9999 FEW040 12/10 Q1005=
201408201750 METAR ESMX 201750Z 20010KT 9999 FEW034 SCT074 13/10 Q1005=
201408201720 METAR ESMX 201720Z 22012KT 9999 FEW038 14/10 Q1004=
201408201650 METAR ESMX 201650Z 22011KT 9999 FEW044 15/09 Q1004=
201408201620 METAR COR ESMX 201620Z 22012KT 9999 FEW031 SCT069 14/10 Q1004=
201408201550 METAR ESMX 201550Z 22012KT 190V250 9999 FEW035 15/11 Q1003=
201408201520 METAR ESMX 201520Z 23017KT 9999 -SHRA FEW025CB SCT034 15/10 Q1003=
201408201450 METAR COR ESMX 201450Z 24016G26KT 9999 SCT034 16/09 Q1003=
201408201420 METAR ESMX 201420Z 24013KT 9999 FEW025 SCT034 16/10 Q1003=
201408201350 METAR ESMX 201350Z 24013KT 9999 FEW023 SCT029 15/11 Q1002=
201408201320 METAR ESMX 201320Z 24014KT 9999 FEW018 SCT022 BKN028 15/12 Q1002=
201408201250 METAR ESMX 201250Z 24011G23KT 200V260 9999 -SHRA FEW013CB SCT020 BKN042 14/12 Q1002=
201408201220 METAR COR ESMX 201220Z 24014KT 9000 -SHRA FEW013 SCT015CB BKN020 14/12 Q1001=
201408201150 METAR ESMX 201150Z 25012KT 210V280 8000 -SHRA FEW011 SCT016 BKN056 14/12 Q1001=
201408201120 METAR COR ESMX 201120Z 24010KT 9999 -RA FEW009 SCT015 BKN017 15/13 Q1001=
201408201050 METAR ESMX 201050Z 22013KT 9999 RA FEW011 SCT015 BKN019 14/12 Q1000=
201408201020 METAR COR ESMX 201020Z 21015KT 9999 FEW012 BKN016 14/12 Q1000=
201408200950 METAR ESMX 200950Z 22012KT 9999 FEW006 SCT008 BKN011 14/13 Q1000=
201408200920 METAR ESMX 200920Z AUTO 22014KT 9999 FEW009/// BKN012/// BKN021/// 14/12 Q1000=
201408200850 METAR ESMX 200850Z AUTO 22013KT 9999 FEW007/// BKN010/// OVC017/// 14/12 Q1000=
201408200820 METAR ESMX 200820Z 20012KT 9999 FEW006 BKN008 OVC012 12/11 Q1000 RERA=
201408200750 METAR ESMX 200750Z 19015KT 9999 -DZ FEW005 SCT008 BKN009 12/11 Q1000=
201408200720 METAR ESMX 200720Z 21013KT 7000 -RA FEW004 SCT007 BKN010 11/10 Q0999 RESHRA=
201408200650 METAR ESMX 200650Z 20013KT 7000 RA FEW005 SCT007 BKN011 11/10 Q0999=
201408200620 METAR ESMX 200620Z 21014KT 9999 RA FEW008 BKN011 BKN016 11/10 Q0999=
201408200550 METAR ESMX 200550Z 20012KT 9999 -RA FEW008 SCT012 BKN015 11/10 Q0999=
201408200520 METAR ESMX 200520Z 21012KT 9999 FEW006 SCT007 BKN009 11/09 Q0999=
201408200450 METAR ESMX 200450Z 18011KT 9999 BKN006 11/09 Q0999=
201408200420 METAR ESMX 200420Z 19012KT 9999 FEW006 BKN007 11/09 Q0999=
201408200350 METAR ESMX 200350Z 19011KT 9999 FEW006 SCT008 BKN011 10/09 Q0999=
201408200320 METAR ESMX 200320Z AUTO 20009KT 9999 FEW006/// OVC064/// 10/09 Q0999=
201408200250 METAR ESMX 200250Z AUTO 19010KT 9999 BKN006/// 10/09 Q0999=
201408200220 METAR ESMX 200220Z AUTO 19010KT 9999 FEW007/// 10/08 Q0999=
201408200150 METAR ESMX 200150Z AUTO 19010KT 9999 FEW009/// SCT059/// 10/08 Q0999=
201408200120 METAR ESMX 200120Z AUTO 19010KT 9999 FEW058/// 10/08 Q0999=
201408200050 METAR ESMX 200050Z 19010KT CAVOK 10/08 Q1000=
201408200020 METAR ESMX 200020Z 19011KT 9999 FEW035 10/08 Q1000=
201408192350 METAR ESMX 192350Z 18012KT 9999 FEW027 SCT039 10/08 Q1000=
201408192320 METAR ESMX 192320Z 18010KT 9999 FEW032 10/08 Q1000=
201408192250 METAR ESMX 192250Z 19011KT CAVOK 10/08 Q1000=
201408192220 METAR ESMX 192220Z 18010KT CAVOK 11/08 Q1001=
201408192150 METAR ESMX 192150Z 18011KT 9999 FEW045 11/08 Q1001=
201408192120 METAR ESMX 192120Z 19011KT 9999 FEW035 11/08 Q1001=
201408192050 METAR ESMX 192050Z 19012KT 9999 FEW034 SCT043 BKN055 12/09 Q1001=
201408192020 METAR ESMX 192020Z 19010KT 9999 FEW031 BKN049 12/09 Q1001 REDZ=
201408191950 METAR ESMX 191950Z 19014KT 9999 -DZ FEW028 SCT037 BKN050 13/09 Q1001=
201408191920 METAR ESMX 191920Z 18011KT 9999 FEW037 BKN041 OVC052 13/09 Q1001=
201408191850 METAR ESMX 191850Z 18010KT 9999 BKN038 13/09 Q1001=
201408191820 METAR ESMX 191820Z 19008KT 9999 FEW036 SCT045 BKN072 13/10 Q1000=
201408191750 METAR ESMX 191750Z 19008KT 9999 FEW011 SCT051 13/10 Q1000 RESHRA=
201408191720 METAR COR ESMX 191720Z 22009KT 190V250 8000 +SHRA FEW026 SCT041 BKN051 14/10 Q1000=
201408191650 METAR ESMX 191650Z 19009KT 9999 FEW042 SCT053 BKN071 15/10 Q1000=
201408191620 METAR ESMX 191620Z 20012KT 9999 SCT045 BKN069 15/07 Q1000=
201408191550 METAR ESMX 191550Z 22016KT 9999 FEW038 SCT057 BKN078 15/07 Q1000=
201408191520 METAR ESMX 191520Z 22015G31KT 9999 -RA BKN047 BKN078 15/07 Q1000=
201408191450 METAR ESMX 191450Z 21017KT 9999 FEW043 SCT050 BKN069 15/07 Q1000=
201408191420 METAR ESMX 191420Z 22019G29KT 9999 FEW037 SCT042 16/07 Q0999=
201408191350 METAR ESMX 191350Z 22017KT 9999 FEW040 SCT048 16/07 Q0999=
201408191320 METAR ESMX 191320Z 21014KT 9999 SCT036 16/09 Q0999=
201408191250 METAR ESMX 191250Z 20018KT 9999 FEW025 SCT035 14/09 Q1000=
201408191220 METAR ESMX 191220Z 20020KT 9999 SCT036 15/08 Q0999=
201408191150 METAR ESMX 191150Z 21017KT 9999 SCT034 16/09 Q0999=
201408191120 METAR ESMX 191120Z 20015KT 9999 FEW047 15/10 Q0999=
201408191050 METAR ESMX 191050Z 22014KT 9999 FEW024 12/09 Q1000 RERA=
201408191020 METAR ESMX 191020Z 22015KT 9999 SCT025 BKN037 14/10 Q0999=
201408190950 METAR ESMX 190950Z AUTO 22016G28KT 9999 FEW014/// SCT048/// 13/10 Q0999=
201408190920 METAR ESMX 190920Z 22012KT 9999 FEW005 SCT023 12/10 Q0999 RERA=
201408190850 METAR ESMX 190850Z 21012KT 9999 -SHRA FEW022CB BKN025 13/10 Q0998=
201408190820 METAR ESMX 190820Z 21017G28KT 9999 FEW017 SCT020 BKN025 14/10 Q0998=
201408190750 METAR ESMX 190750Z 22016KT 9999 FEW015 SCT019 BKN023 13/10 Q0998=
201408190720 METAR ESMX 190720Z 22013KT 9999 FEW012 SCT016 BKN020 13/10 Q0997=
201408190650 METAR ESMX 190650Z 22012KT 9999 FEW011 SCT014 BKN021 13/11 Q0997=
201408190620 METAR ESMX 190620Z 20014KT 9999 FEW010 BKN013 OVC022 12/10 Q0997=
201408190550 METAR ESMX 190550Z 21012KT 9999 FEW010 SCT014 BKN018 12/10 Q0997=
201408190520 METAR ESMX 190520Z 22012KT 9999 FEW008 BKN013 BKN019 12/10 Q0997=
201408190450 METAR ESMX 190450Z 21011KT 9999 FEW008 SCT010 BKN013 12/10 Q0996=
201408190420 METAR ESMX 190420Z 20012KT 9999 FEW007 SCT009 BKN011 11/10 Q0996=
201408190350 METAR ESMX 190350Z 22012KT 9999 FEW008 SCT010 BKN013 11/10 Q0996=
201408190320 METAR ESMX 190320Z AUTO 21012KT 9999 FEW007/// SCT010/// BKN013/// 11/10 Q0996=
201408190250 METAR ESMX 190250Z AUTO 22011KT 9999 FEW008/// SCT011/// BKN014/// 11/10 Q0995=
201408190220 METAR ESMX 190220Z AUTO 23009KT 200V260 9999 FEW008/// BKN011/// BKN015/// 12/10 Q0995=
201408190150 METAR ESMX 190150Z AUTO 23010KT 9999 FEW008/// BKN011/// OVC016/// 12/10 Q0995=
201408190120 METAR ESMX 190120Z AUTO 23010KT 9999 FEW010/// BKN013/// OVC019/// 12/11 Q0995=
201408190050 METAR ESMX 190050Z AUTO 21012KT 9999 FEW009/// BKN015/// BKN078/// 12/11 Q0994=
201408190020 METAR ESMX 190020Z AUTO 20011KT 9000 FEW004/// SCT016/// BKN019/// 12/11 Q0994=
201408182350 METAR ESMX 182350Z 20011KT 9999 RA FEW004 BKN006 OVC008 12/11 Q0994=
201408182320 METAR ESMX 182320Z 20011KT 9999 -RA FEW006 SCT007 BKN009 11/10 Q0994=
201408182250 METAR COR ESMX 182250Z 19009KT 9999 -RA FEW007 SCT011 11/10 Q0994=
201408182220 METAR ESMX 182220Z 20009KT 9999 -RA FEW041 SCT061 BKN075 11/10 Q0994=
201408182150 METAR ESMX 182150Z 20010KT 9999 FEW008 11/10 Q0994=
201408182120 METAR ESMX 182120Z 20009KT 9999 FEW005 10/09 Q0994=
201408182050 METAR ESMX 182050Z AUTO 20008KT 9999 NCD 10/09 Q0994=
201408182020 METAR ESMX 182020Z 20009KT 9999 SCT004 BKN006 11/10 Q0994=
201408181950 METAR ESMX 181950Z 20009KT 9999 -RA SCT006 11/10 Q0994=
201408181920 METAR ESMX 181920Z 20009KT 9999 -DZ FEW062 10/09 Q0994=
201408181850 METAR ESMX 181850Z 20009KT 9999 RA FEW031 11/10 Q0994=
201408181820 METAR ESMX 181820Z 20010KT 9999 RA FEW009 SCT023 11/09 Q0994=
201408181750 METAR ESMX 181750Z 23005KT 9999 -RA FEW007 SCT013 BKN028 11/10 Q0993=
201408181720 METAR ESMX 181720Z VRB02KT 9999 FEW019 BKN041 11/09 Q0993 RERA=
201408181650 METAR ESMX 181650Z 22005KT 9999 -RA FEW016 SCT027 11/09 Q0993=
201408181620 METAR ESMX 181620Z 19008KT 9999 -RA FEW014CB SCT018 13/11 Q0993=
201408181550 METAR ESMX 181550Z 18011KT 9999 FEW013CB SCT019 13/11 Q0993=
201408181520 METAR ESMX 181520Z 25004KT 170V290 9999 FEW015CB SCT019 BKN022 13/09 Q0994=
201408181450 METAR ESMX 181450Z 19011KT 9999 FEW017 SCT028 BKN053 14/12 Q0994 RERA=
201408181420 METAR ESMX 181420Z 20010KT 9999 FEW019 SCT037 14/11 Q0994=
201408181350 METAR ESMX 181350Z 19010KT 9999 SCT027 13/11 Q0994=
201408181320 METAR ESMX 181320Z 20011KT 9999 -SHRA FEW016CB SCT024 13/11 Q0994=
201408181250 METAR ESMX 181250Z 18009KT 150V210 9999 TS FEW017CB SCT024 14/11 Q0994=
201408181220 METAR ESMX 181220Z 18008KT 9999 SCT025 14/11 Q0994 RERA=
201408181150 METAR ESMX 181150Z 21013KT 9999 SHRA FEW013 SCT031CB 13/10 Q0994=
201408181120 METAR ESMX 181120Z 17016KT 9999 FEW022 SCT028CB 16/09 Q0994=
201408181050 METAR ESMX 181050Z 17013KT 9999 FEW014CB SCT032 15/10 Q0994=
201408181020 METAR ESMX 181020Z 18011KT 9999 SCT027 15/10 Q0994=
201408180950 METAR ESMX 180950Z 21008G20KT 9999 FEW017 SCT045 16/12 Q0994=
201408180920 METAR COR ESMX 180920Z 19014KT 9999 FEW024 SCT040 15/09 Q0994=
201408180850 METAR ESMX 180850Z 18014KT 9999 -SHRA FEW019 SCT023 14/10 Q0994=
201408180820 METAR ESMX 180820Z 19014KT 9999 FEW017 SCT024 15/11 Q0994=
201408180750 METAR ESMX 180750Z 19012KT 9999 FEW016 SCT019 BKN024 13/10 Q0995=
201408180720 METAR ESMX 180720Z 20011KT 9999 FEW014 SCT018 BKN020 13/11 Q0995=
201408180650 METAR ESMX 180650Z 20013KT 9999 FEW012 BKN015 13/10 Q0995=
201408180620 METAR ESMX 180620Z AUTO 19012KT 9999 FEW011/// BKN014/// 13/11 Q0995=
201408180550 METAR ESMX 180550Z 19011KT 9999 FEW008 BKN011 13/11 Q0995=
201408180520 METAR COR ESMX 180520Z 18010KT 9999 FEW007 BKN010 12/11 Q0995=
201408180450 METAR ESMX 180450Z 18010KT 9999 FEW006 SCT009 BKN011 12/10 Q0995=
201408180420 METAR ESMX 180420Z 17008KT 9999 FEW007 SCT015 11/10 Q0995=
201408180350 METAR ESMX 180350Z 17008KT 9999 FEW007 SCT015 11/10 Q0995=
201408180320 METAR ESMX 180320Z 18010KT 9999 FEW006 SCT013 11/10 Q0996=
201408180250 METAR ESMX 180250Z AUTO 18009KT 9999 FEW010/// SCT016/// BKN020/// 11/10 Q0996=
201408180220 METAR ESMX 180220Z AUTO 18009KT 9999 FEW009/// SCT012/// BKN015/// 11/10 Q0996=
201408180150 METAR ESMX 180150Z AUTO 19009KT 9999 FEW008/// SCT012/// BKN022/// 11/10 Q0996=
201408180120 METAR ESMX 180120Z AUTO 19011KT 9999 FEW009/// SCT012/// BKN026/// 11/10 Q0996=
201408180050 METAR ESMX 180050Z AUTO 18012KT 9999 FEW009/// SCT011/// BKN013/// 12/10 Q0996=
201408180020 METAR ESMX 180020Z AUTO 18010KT 9999 FEW011/// SCT016/// OVC071/// 12/10 Q0996=
201408172350 METAR ESMX 172350Z AUTO 18009KT 9999 -DZ SCT070/// 12/10 Q0996 RERA=
201408172320 METAR ESMX 172320Z 20007KT 9999 FEW070 SCT086 12/11 Q0996=
201408172250 METAR ESMX 172250Z 19009KT 9999 -RA FEW006 SCT010 12/11 Q0997=
201408172220 METAR ESMX 172220Z 18011KT 9999 -DZ FEW004 SCT006 BKN011 13/12 Q0997=
201408172150 METAR ESMX 172150Z 17007KT 9999 -RA FEW003 SCT005 BKN006 13/12 Q0997=
201408172120 METAR ESMX 172120Z 19007KT 9999 -RA FEW005 SCT012 BKN057 13/12 Q0997=
201408172050 METAR ESMX 172050Z 20006KT 9000 -RA FEW006 SCT014 BKN026 13/12 Q0997=
201408172020 METAR ESMX 172020Z 19011KT 9999 RA SCT005 BKN009 13/12 Q0998=
201408171950 METAR ESMX 171950Z 18010KT 8000 RA FEW005 OVC006 13/12 Q0998=
201408171920 METAR ESMX 171920Z 17011KT 9999 -RA FEW005 SCT007 BKN008 13/12 Q0998=
201408171850 METAR ESMX 171850Z 17010KT 9999 -RA FEW005 SCT007 BKN008 13/12 Q0998=
201408171820 METAR COR ESMX 171820Z 18010KT 9999 RA FEW006 SCT008 BKN010 13/12 Q0999=
201408171750 METAR ESMX 171750Z 18009KT 9999 -RA FEW007 SCT010 BKN012 13/12 Q0999=
201408171720 METAR ESMX 171720Z 18010KT 9999 -RA FEW006 SCT007 BKN010 14/12 Q0999=
201408171650 METAR ESMX 171650Z 19011KT 9999 -RA FEW006 SCT008 BKN009 14/12 Q0999=
201408171620 METAR ESMX 171620Z 18010KT 9999 -RA FEW006 SCT008 BKN009 14/12 Q1000=
201408171550 METAR ESMX 171550Z 19010KT 9999 -RA FEW007 SCT012 BKN015 14/12 Q1000=
201408171520 METAR ESMX 171520Z 19012KT 9999 -RA FEW007 SCT009 BKN012 14/13 Q1000=
201408171450 METAR ESMX 171450Z 19011KT 9999 -RA FEW008 BKN010 BKN015 14/13 Q1000=
201408171420 METAR COR ESMX 171420Z 18011KT 9999 -RA FEW009 BKN012 15/13 Q1000=
201408171350 METAR ESMX 171350Z 18013KT 9999 -RA FEW006 SCT009 BKN012 14/13 Q1001=
201408171320 METAR ESMX 171320Z 18011KT 8000 -RA FEW009 OVC010 14/13 Q1001 REDZ=
201408171250 METAR ESMX 171250Z 18011KT 9999 -RA FEW008 BKN012 15/13 Q1001=
201408171220 METAR ESMX 171220Z 18010KT 9999 -RA FEW010 BKN016 14/13 Q1001=
201408171150 METAR ESMX 171150Z AUTO 18012KT 9999 FEW008/// SCT012/// BKN015/// 14/13 Q1002=
201408171120 METAR ESMX 171120Z AUTO 17009KT 9999 -RA OVC011/// 14/12 Q1002=
201408171050 METAR ESMX 171050Z AUTO 17008KT 9999 FEW012/// SCT015/// BKN018/// 14/12 Q1002=
201408171020 METAR ESMX 171020Z AUTO 18009KT 9999 FEW015/// BKN018/// BKN022/// 15/13 Q1002=
201408170950 METAR ESMX 170950Z AUTO 18010KT 9999 RA FEW014/// SCT018/// BKN020/// 14/12 Q1003=
201408170920 METAR ESMX 170920Z AUTO 18009KT 9999 FEW015/// OVC018/// 14/12 Q1003=
201408170850 METAR ESMX 170850Z AUTO 19010KT 9999 SCT018/// BKN045/// BKN058/// 14/12 Q1003=
201408170820 METAR ESMX 170820Z AUTO 19010KT 9999 -RA FEW038/// BKN043/// 13/12 Q1003=
201408170750 METAR ESMX 170750Z AUTO 17008KT 9999 FEW007/// SCT012/// BKN037/// 12/11 Q1003 RESHRA=
201408170720 METAR ESMX 170720Z AUTO 18007KT 8000 RA FEW006/// SCT008/// BKN010/// 12/11 Q1004=
201408170650 METAR ESMX 170650Z AUTO 19008KT 9999 -DZ FEW006/// BKN008/// OVC011/// 12/11 Q1004 REDZ=
201408170620 METAR ESMX 170620Z AUTO 19010KT 8000 BR SCT004/// BKN007/// BKN016/// 12/11 Q1004 REDZ=
201408170550 METAR ESMX 170550Z AUTO 20009KT 9999 FEW005/// BKN007/// OVC010/// 12/11 Q1004=
201408170520 METAR ESMX 170520Z AUTO 19009KT 9999 FEW005/// SCT009/// OVC010/// 12/11 Q1004=
201408170450 METAR ESMX 170450Z AUTO 19007KT 9999 FEW002/// SCT006/// BKN008/// 12/11 Q1004=
201408170420 METAR ESMX 170420Z AUTO 18006KT 4100 DZ FEW003/// SCT006/// BKN009/// 11/10 Q1004=
201408170350 METAR ESMX 170350Z AUTO 20006KT 5000 DZ FEW004/// SCT007/// BKN017/// 11/10 Q1004 REDZ=
201408170320 METAR ESMX 170320Z AUTO 21006KT 9999 FEW007/// SCT012/// BKN022/// 11/10 Q1005=
201408170250 METAR ESMX 170250Z AUTO 21007KT 9999 DZ FEW025/// BKN036/// 11/10 Q1005=
201408170220 METAR ESMX 170220Z AUTO 20008KT 9999 FEW039/// OVC045/// 11/09 Q1005=
201408170150 METAR ESMX 170150Z AUTO 20007KT 9999 SCT039/// OVC053/// 11/09 Q1005=
201408170120 METAR ESMX 170120Z AUTO 21006KT 9999 BKN049/// 10/09 Q1006=
201408170050 METAR ESMX 170050Z AUTO 18006KT 9999 NCD 09/08 Q1006=
201408170020 METAR ESMX 170020Z AUTO 20006KT 9999 NCD 09/07 Q1006=
201408162350 METAR ESMX 162350Z AUTO 20005KT 9999 NCD 09/08 Q1006=
201408162320 METAR ESMX 162320Z AUTO 20006KT 9999 NCD 09/07 Q1006=
201408162250 METAR ESMX 162250Z AUTO 22005KT 9999 NCD 10/08 Q1006=
201408162220 METAR ESMX 162220Z AUTO 22005KT 9999 NCD 10/08 Q1006=
201408162150 METAR ESMX 162150Z AUTO 22006KT 9999 NCD 10/08 Q1006=
201408162120 METAR ESMX 162120Z AUTO 20006KT 9999 SCT060/// 11/08 Q1006=
201408162050 METAR ESMX 162050Z AUTO 20005KT 9999 FEW060/// 11/08 Q1006=
201408162020 METAR ESMX 162020Z AUTO 22005KT 9999 SCT057/// 12/09 Q1007=
201408161950 METAR ESMX 161950Z AUTO 22004KT 9999 OVC055/// 13/09 Q1006=
201408161920 METAR ESMX 161920Z AUTO 24005KT 9999 OVC054/// 13/09 Q1007=
201408161850 METAR ESMX 161850Z AUTO 25006KT 9999 OVC052/// 14/09 Q1007=
201408161820 METAR ESMX 161820Z AUTO 26007KT 220V290 9999 OVC054/// 14/09 Q1006=
201408161750 METAR ESMX 161750Z AUTO 26007KT 230V290 9999 SCT056/// 14/08 Q1006=
201408161720 METAR ESMX 161720Z AUTO 25011KT 210V280 9999 BKN056/// 15/08 Q1006=
201408161650 METAR ESMX 161650Z AUTO 26008KT 9999 FEW028/// 15/09 Q1006=
201408161620 METAR ESMX 161620Z AUTO 25012KT 210V280 9999 NCD 16/09 Q1006=
201408161550 METAR ESMX 161550Z AUTO 26011KT 9999 NCD 17/09 Q1006=
201408161520 METAR ESMX 161520Z AUTO 25012KT 220V280 9999 BKN052/// 17/09 Q1006=
201408161450 METAR ESMX 161450Z AUTO 26012KT 9999 BKN045/// 16/09 Q1006=
201408161420 METAR ESMX 161420Z AUTO 27011KT 240V300 9999 FEW032/// BKN043/// 17/09 Q1006=
201408161350 METAR ESMX 161350Z AUTO 25010KT 220V290 9999 FEW035/// SCT044/// 17/09 Q1006=
201408161320 METAR ESMX 161320Z AUTO 25013KT 9999 FEW041/// 19/10 Q1006=
201408161250 METAR ESMX 161250Z 24014KT 9999 SCT035 19/10 Q1006=
201408161220 METAR ESMX 161220Z 24012KT 200V270 9999 SCT035 18/10 Q1006=
201408161150 METAR ESMX 161150Z AUTO 26013KT 210V280 9999 FEW034/// SCT056/// 18/10 Q1006=
201408161120 METAR ESMX 161120Z AUTO 24012KT 9999 FEW035/// 20/10 Q1006=
201408161050 METAR ESMX 161050Z AUTO 27007KT 230V320 9999 FEW060/// 18/11 Q1006=
201408161020 METAR ESMX 161020Z AUTO 26011KT 9999 -RA FEW032/// SCT072/// 18/11 Q1006 RERA=
201408160950 METAR ESMX 160950Z AUTO 27008KT 9999 FEW050/// 16/12 Q1006=
201408160920 METAR ESMX 160920Z AUTO 24008G19KT 200V280 9999 FEW020/// SCT025/// BKN077/// 17/12 Q1006=
201408160850 METAR ESMX 160850Z AUTO 24008KT 210V280 9999 FEW017/// SCT023/// 16/11 Q1006=
201408160820 METAR ESMX 160820Z AUTO 25007KT 220V280 9999 FEW012/// SCT023/// 17/13 Q1006=
201408160750 METAR ESMX 160750Z AUTO 28009KT 9999 FEW006/// SCT008/// BKN012/// 16/14 Q1006=
201408160720 METAR ESMX 160720Z AUTO 26005KT 9999 FEW002/// BKN004/// OVC007/// 15/14 Q1006=
201408160650 METAR ESMX 160650Z AUTO 26007KT 9999 OVC001/// 14/13 Q1006=
201408160620 METAR ESMX 160620Z AUTO 25004KT 1800 VV002 13/12 Q1006=
201408160550 METAR ESMX 160550Z AUTO 28003KT 0300 R01/0800V1000N R19/0450V0700U FG VV001 12/12 Q1006=
201408160520 METAR ESMX 160520Z AUTO VRB03KT 0200 R01/0350V0500N R19/0375N FG VV001 12/11 Q1006=
201408160450 METAR ESMX 160450Z AUTO 25004KT 0150 R01/0300N R19/0375N FG VV001 11/11 Q1006=
201408160420 METAR ESMX 160420Z AUTO 26004KT 0100 R01/0325N R19/0375N FG VV001 11/11 Q1006=
201408160350 METAR ESMX 160350Z AUTO 23003KT 0200 R01/0650N R19/0400V0550N FG VV001 11/10 Q1006=
201408160320 METAR ESMX 160320Z AUTO 24003KT 1200 R01/P2000N R19/P2000D VV001 10/09 Q1006=
201408160250 METAR ESMX 160250Z AUTO 18004KT 0750 R01/P2000N R19/P2000N BCFG NCD 10/09 Q1006=
201408160220 METAR ESMX 160220Z AUTO 23004KT 1000 R01/P2000N R19/P2000N NCD 10/09 Q1006=
201408160150 METAR ESMX 160150Z AUTO 24004KT 4100 NCD 09/09 Q1006=
201408160120 METAR ESMX 160120Z AUTO 23003KT 0250 R01/P2000N R19/P2000N NCD 10/10 Q1006=
201408160050 METAR ESMX 160050Z AUTO 23005KT 9999 NCD 10/09 Q1006=
201408160020 METAR ESMX 160020Z AUTO 23004KT 9999 NCD 10/09 Q1006=
201408152350 METAR ESMX 152350Z AUTO 22004KT 9999 NCD 11/10 Q1006=
201408152320 METAR ESMX 152320Z AUTO 21005KT 9999 NCD 11/10 Q1006=
201408152250 METAR ESMX 152250Z AUTO 22004KT 9999 FEW021/// 11/10 Q1006=
201408152220 METAR ESMX 152220Z AUTO 21005KT 9999 NCD 12/10 Q1006=
201408152150 METAR ESMX 152150Z AUTO 22005KT 9999 NCD 11/10 Q1006=
201408152120 METAR ESMX 152120Z AUTO 18005KT 9999 NCD 12/10 Q1006=
201408152050 METAR ESMX 152050Z AUTO 21004KT 9999 NCD 13/11 Q1006=
201408152020 METAR ESMX 152020Z AUTO 22004KT 9999 NCD 13/10 Q1006=
201408151950 METAR ESMX 151950Z AUTO 22005KT 9999 NCD 13/10 Q1006=
201408151920 METAR ESMX 151920Z AUTO 21004KT 9999 NCD 13/10 Q1006=
201408151850 METAR ESMX 151850Z AUTO 24004KT 9999 NCD 14/11 Q1006=
201408151820 METAR ESMX 151820Z AUTO 22004KT 9999 NCD 15/12 Q1006=
201408151750 METAR COR ESMX 151750Z 26003KT 230V300 9999 FEW035 17/12 Q1006=
201408151720 METAR ESMX 151720Z 28004KT 250V330 9999 FEW035 17/12 Q1005=
201408151650 METAR ESMX 151650Z 28006KT 9999 FEW030 SCT090 17/12 Q1005=
201408151620 METAR ESMX 151620Z 27009KT 230V300 9999 SCT028 SCT080 18/11 Q1005=
201408151550 METAR ESMX 151550Z 25010KT 9999 FEW027 SCT070 19/11 Q1005=
201408151520 METAR ESMX 151520Z 27006KT 200V310 9999 FEW027 SCT062 18/12 Q1005=
201408151450 METAR ESMX 151450Z 25012KT 9999 FEW025 SCT080 19/12 Q1005=
201408151420 METAR ESMX 151420Z 27008KT 9999 FEW031CB SCT080 17/14 Q1005=
201408151350 METAR ESMX 151350Z 26008KT 230V290 9999 VCSH FEW033CB SCT084 16/12 Q1005 RERA=
201408151320 METAR ESMX 151320Z 28008KT 240V320 9999 FEW028 BKN081 19/11 Q1005=
201408151250 METAR COR ESMX 151250Z 26010KT 210V300 9999 VCSH FEW030CB SCT060 18/12 Q1005=
201408151220 METAR COR ESMX 151220Z 24010KT 220V290 9999 FEW030 SCT090 19/12 Q1005=
201408151150 METAR COR ESMX 151150Z 28007KT 250V310 9999 VCSH SCT027CB SCT080 16/13 Q1005 RERA=
201408151120 METAR ESMX 151120Z 21010KT 170V240 9999 VCSH FEW025CB SCT028 BKN080 19/13 Q1005=
201408151050 METAR ESMX 151050Z 21011KT 9999 VCSH FEW023CB SCT027 19/13 Q1005=
201408151020 METAR ESMX 151020Z AUTO 20012KT 9999 FEW023/// 18/13 Q1005=
201408150950 METAR ESMX 150950Z AUTO 21012KT 9999 FEW052/// 17/12 Q1006=
201408150920 METAR ESMX 150920Z AUTO 21010KT 9999 FEW027/// SCT053/// 19/12 Q1005=
201408150850 METAR ESMX 150850Z 23009KT 190V290 9999 SCT025 17/11 Q1005=
201408150820 METAR ESMX 150820Z AUTO 23010KT 9999 FEW025/// 17/12 Q1005=
201408150750 METAR ESMX 150750Z 21010KT 9999 SCT017 17/13 Q1005=
201408150720 METAR ESMX 150720Z 20009KT 160V220 9999 FEW012 16/13 Q1005=
201408150650 METAR COR ESMX 150650Z 22008KT 9999 FEW006 SCT060 15/13 Q1005=
201408150620 METAR ESMX 150620Z 21007KT 9999 BKN003 13/13 Q1005=
201408150550 METAR ESMX 150550Z 20007KT 2800 BR VV002 13/12 Q1005=
201408150520 METAR ESMX 150520Z 20006KT 0400 R01/0800N R19/0450V0600N FG VV002 13/12 Q1005=
201408150450 METAR ESMX 150450Z 19005KT 0150 R01/0450N R19/0350N FG VV001 12/11 Q1005=
201408150420 METAR ESMX 150420Z AUTO 22005KT 0250 R01/0400V0550N R19/0500N FG VV001 12/11 Q1005=
201408150350 METAR ESMX 150350Z AUTO 17005KT 0700 R01/0800VP2000D R19/P2000D FG VV001 12/11 Q1005=
201408150320 METAR ESMX 150320Z AUTO 18005KT 5000 BR FEW041/// BKN069/// 11/11 Q1005=
201408150250 METAR ESMX 150250Z AUTO 19005KT 7000 BR FEW023/// SCT069/// 11/10 Q1005=
201408150220 METAR ESMX 150220Z AUTO 21006KT 9999 NCD 11/10 Q1005=
201408150150 METAR ESMX 150150Z AUTO 20005KT 9999 NCD 11/10 Q1005=
201408150120 METAR ESMX 150120Z AUTO 20006KT 9999 NCD 11/10 Q1005=
201408150050 METAR ESMX 150050Z AUTO 18007KT 9999 NCD 12/10 Q1005=
201408150020 METAR ESMX 150020Z AUTO 18007KT 9999 NCD 13/11 Q1005=
201408142350 METAR ESMX 142350Z 18007KT CAVOK 12/11 Q1005=
201408142320 METAR ESMX 142320Z 18006KT CAVOK 13/11 Q1005=
201408142250 METAR ESMX 142250Z 21006KT CAVOK 13/11 Q1005=
201408142220 METAR ESMX 142220Z 21005KT CAVOK 12/11 Q1005=
201408142150 METAR ESMX 142150Z 19005KT CAVOK 12/10 Q1005=
201408142120 METAR ESMX 142120Z 17003KT CAVOK 14/11 Q1005=
201408142050 METAR ESMX 142050Z 19005KT CAVOK 14/11 Q1005=
201408142020 METAR ESMX 142020Z 21004KT CAVOK 14/11 Q1005=
201408141950 METAR ESMX 141950Z 21006KT CAVOK 15/11 Q1005=
201408141920 METAR ESMX 141920Z 20007KT 9999 FEW040 16/11 Q1005=
201408141850 METAR COR ESMX 141850Z 18004KT 9999 SCT041 16/10 Q1005=
201408141820 METAR ESMX 141820Z 21005KT 9999 FEW025 16/10 Q1005=
201408141750 METAR ESMX 141750Z AUTO 23006KT 9999 NCD 18/10 Q1004=
201408141720 METAR ESMX 141720Z 24007KT 9999 FEW040 19/10 Q1004=
201408141650 METAR ESMX 141650Z 23008KT 200V260 CAVOK 20/09 Q1004=
201408141620 METAR ESMX 141620Z 23009KT 9999 BKN045 19/10 Q1004=
201408141550 METAR COR ESMX 141550Z 24009KT 190V270 9999 FEW045 20/10 Q1004=
201408141520 METAR COR ESMX 141520Z 22009KT 9999 FEW045 20/09 Q1004=
201408141450 METAR ESMX 141450Z 25007KT 9999 FEW045 20/10 Q1004=
201408141420 METAR ESMX 141420Z 24008KT 200V290 9999 FEW040 21/11 Q1004=
201408141350 METAR COR ESMX 141350Z 27008KT 210V310 9999 FEW038 20/11 Q1004=
201408141320 METAR ESMX 141320Z 23008KT 200V260 9999 FEW035 20/11 Q1004=
201408141250 METAR ESMX 141250Z 24008KT 200V280 9999 FEW030 20/12 Q1003=
201408141220 METAR ESMX 141220Z 25007KT 210V300 9999 FEW038 BKN072 18/12 Q1004=
201408141150 METAR ESMX 141150Z 24006KT 9999 FEW035 SCT070 19/13 Q1003=
201408141120 METAR COR ESMX 141120Z 25005KT 210V310 9999 FEW010 SCT064 17/13 Q1003=
201408141050 METAR ESMX 141050Z 25009KT 230V290 9999 -SHRA FEW033CB BKN062 18/11 Q1003=
201408141020 METAR ESMX 141020Z 23009KT 200V260 9999 SCT041 20/10 Q1003=
201408140950 METAR ESMX 140950Z 22009KT 9999 FEW038 20/11 Q1003=
201408140920 METAR ESMX 140920Z 22007KT 170V260 9999 FEW033 19/10 Q1003=
201408140850 METAR ESMX 140850Z 22007KT 180V240 9999 FEW027 18/10 Q1002=
201408140820 METAR COR ESMX 140820Z 22007KT 180V250 9999 FEW025 18/10 Q1002=
201408140750 METAR ESMX 140750Z 22007KT 190V270 9999 FEW013 17/12 Q1002=
201408140720 METAR COR ESMX 140720Z 21005KT 180V290 9999 FEW009 17/12 Q1002=
201408140650 METAR COR ESMX 140650Z 19006KT 170V230 9999 SCT008 15/13 Q1002=
201408140620 METAR ESMX 140620Z 19004KT 9999 FEW008 SCT150 14/13 Q1002=
201408140550 METAR ESMX 140550Z 20005KT CAVOK 14/12 Q1002=
201408140520 METAR ESMX 140520Z 18003KT CAVOK 14/12 Q1002=
201408140450 METAR COR ESMX 140450Z 17003KT CAVOK 14/12 Q1002=
201408140420 METAR ESMX 140420Z 17006KT CAVOK 14/12 Q1002=
201408140350 METAR ESMX 140350Z 18005KT CAVOK 14/12 Q1002=
201408140320 METAR ESMX 140320Z AUTO 17007KT 9999 FEW016/// SCT024/// 14/12 Q1002=
201408140250 METAR ESMX 140250Z AUTO 16005KT 9999 NCD 14/12 Q1002=
201408140220 METAR ESMX 140220Z AUTO 14006KT 9999 NCD 14/12 Q1002=
201408140150 METAR ESMX 140150Z AUTO 14005KT 9999 NCD 14/12 Q1003=
201408140120 METAR ESMX 140120Z AUTO 13004KT 9999 NCD 14/12 Q1003=
201408140050 METAR ESMX 140050Z AUTO 16003KT 9999 NCD 13/11 Q1003=
201408140020 METAR ESMX 140020Z AUTO 14004KT 9999 NCD 14/12 Q1003=
201408132350 METAR ESMX 132350Z 13004KT CAVOK 13/12 Q1003=
201408132320 METAR ESMX 132320Z 15005KT CAVOK 13/12 Q1003=
201408132250 METAR ESMX 132250Z 14004KT CAVOK 14/12 Q1003=
201408132220 METAR ESMX 132220Z 15005KT CAVOK 14/12 Q1003=
201408132150 METAR ESMX 132150Z 15006KT CAVOK 14/12 Q1004=
201408132120 METAR ESMX 132120Z 15006KT CAVOK 14/11 Q1004=
201408132050 METAR ESMX 132050Z 13005KT CAVOK 12/11 Q1004=
201408132020 METAR ESMX 132020Z 10004KT CAVOK 11/10 Q1004=
201408131950 METAR ESMX 131950Z VRB02KT CAVOK 11/10 Q1004=
201408131920 METAR ESMX 131920Z 05003KT CAVOK 12/10 Q1004=
201408131850 METAR ESMX 131850Z VRB02KT CAVOK 13/11 Q1004=
201408131820 METAR ESMX 131820Z 34005KT CAVOK 14/11 Q1004=
201408131750 METAR ESMX 131750Z 33003KT 290V360 CAVOK 15/11 Q1004=
201408131720 METAR ESMX 131720Z 31005KT 290V360 CAVOK 16/10 Q1004=
201408131650 METAR ESMX 131650Z 20010KT CAVOK 18/07 Q1003=
201408131620 METAR COR ESMX 131620Z 20011KT 170V230 CAVOK 19/07 Q1003=
201408131550 METAR ESMX 131550Z 18014KT CAVOK 20/05 Q1004=
201408131520 METAR ESMX 131520Z 18014KT CAVOK 21/07 Q1004=
201408131450 METAR COR ESMX 131450Z 17014KT 9999 FEW047 21/07 Q1003=
201408131420 METAR COR ESMX 131420Z 19014KT 9999 FEW040 21/07 Q1003=
201408131350 METAR ESMX 131350Z 18011KT 9999 SCT038 20/10 Q1003=
201408131320 METAR ESMX 131320Z 19009KT 150V240 9999 TS VCSH FEW037CB SCT078 20/10 Q1004=
201408131250 METAR COR ESMX 131250Z 20011KT 9999 VCTS FEW038CB SCT050 19/10 Q1004=
201408131220 METAR ESMX 131220Z 20011KT 9999 FEW040 SCT066 19/10 Q1004=
201408131150 METAR COR ESMX 131150Z 18010KT 140V220 9999 FEW045 19/10 Q1004=
201408131120 METAR ESMX 131120Z 20011KT 9999 SCT033 19/09 Q1004=
201408131050 METAR ESMX 131050Z AUTO 19013KT 9999 FEW032/// 19/11 Q1004=
201408131020 METAR COR ESMX 131020Z 20009KT 160V230 9999 FEW029 SCT060 19/12 Q1004=
201408130950 METAR ESMX 130950Z 18009KT 9999 SCT030 18/11 Q1004=
201408130920 METAR ESMX 130920Z AUTO 20012KT 9999 FEW028/// SCT040/// BKN067/// 17/11 Q1004=
201408130850 METAR ESMX 130850Z 20011KT 9999 SCT028 18/11 Q1005=
201408130820 METAR COR ESMX 130820Z 19012KT 9999 FEW027 17/11 Q1005=
201408130750 METAR ESMX 130750Z 19010KT 9999 FEW021 17/12 Q1005=
201408130720 METAR ESMX 130720Z 18010KT 9999 FEW019 16/12 Q1005=
201408130650 METAR ESMX 130650Z 18006KT 9999 FEW017 15/12 Q1005=
201408130620 METAR ESMX 130620Z 16006KT 9999 FEW032 14/11 Q1005=
201408130550 METAR ESMX 130550Z AUTO 16005KT 9999 FEW040/// 14/11 Q1005=
201408130520 METAR COR ESMX 130520Z 16006KT 9999 FEW040 13/11 Q1005=
201408130450 METAR ESMX 130450Z 16006KT CAVOK 12/11 Q1005=
201408130420 METAR ESMX 130420Z 16006KT CAVOK 12/10 Q1005=
201408130350 METAR ESMX 130350Z 16006KT CAVOK 12/10 Q1005=
201408130320 METAR ESMX 130320Z AUTO 17006KT 9999 NCD 11/10 Q1005=
201408130250 METAR ESMX 130250Z AUTO 17006KT 9999 NCD 11/10 Q1005=
201408130220 METAR ESMX 130220Z AUTO 18008KT 9999 NCD 10/09 Q1005=
201408130150 METAR ESMX 130150Z AUTO 18006KT 9999 NCD 10/09 Q1006=
201408130120 METAR ESMX 130120Z AUTO 18006KT 9999 NCD 10/09 Q1006=
201408130050 METAR ESMX 130050Z AUTO 19006KT 9999 NCD 10/09 Q1006=
201408130020 METAR ESMX 130020Z 18007KT CAVOK 10/09 Q1006=
201408122350 METAR ESMX 122350Z 17006KT CAVOK 11/10 Q1006=
201408122320 METAR ESMX 122320Z 19007KT CAVOK 11/09 Q1006=
201408122250 METAR ESMX 122250Z 18003KT CAVOK 10/09 Q1006=
201408122220 METAR ESMX 122220Z 18003KT CAVOK 10/08 Q1006=
201408122150 METAR ESMX 122150Z 17004KT CAVOK 12/10 Q1006=
201408122120 METAR ESMX 122120Z 19005KT 9999 FEW032 10/09 Q1006=
201408122050 METAR ESMX 122050Z 17006KT 9999 FEW034 12/10 Q1006=
201408122020 METAR ESMX 122020Z 17005KT 9999 FEW037 12/10 Q1006=
201408121950 METAR ESMX 121950Z 18005KT CAVOK 12/10 Q1006=
201408121920 METAR ESMX 121920Z 17006KT CAVOK 13/10 Q1006=
201408121850 METAR ESMX 121850Z 17004KT CAVOK 13/10 Q1005=
201408121820 METAR ESMX 121820Z 18005KT CAVOK 14/10 Q1005=
201408121750 METAR ESMX 121750Z 17005KT 9999 VCSH FEW040CB SCT100 14/10 Q1005=
201408121720 METAR ESMX 121720Z 20005KT 9999 -SHRA SCT025CB 13/11 Q1006=
201408121650 METAR ESMX 121650Z 24009KT 9999 SHRA SCT030CB 13/10 Q1006=
201408121620 METAR ESMX 121620Z 22009KT 9999 VCSH SCT030CB 16/10 Q1005=
201408121550 METAR ESMX 121550Z 20010KT 9999 SCT035 17/10 Q1005=
201408121520 METAR ESMX 121520Z 21011KT 9999 FEW036 18/09 Q1005=
201408121450 METAR ESMX 121450Z 20010KT 180V250 9999 FEW036 18/10 Q1005=
201408121420 METAR ESMX 121420Z 20012KT 9999 FEW030 18/11 Q1005=
201408121350 METAR ESMX 121350Z 20012KT 9999 FEW030 17/11 Q1005=
201408121320 METAR COR ESMX 121320Z 21011G22KT 170V240 9999 SCT021 17/11 Q1005=
201408121250 METAR ESMX 121250Z 21008KT 170V230 9999 FEW044 SCT066 17/12 Q1005=
201408121220 METAR ESMX 121220Z AUTO 21006KT 9999 FEW031/// SCT077/// 16/12 Q1005=
201408121150 METAR ESMX 121150Z AUTO 20007KT 9999 FEW067/// 17/12 Q1005=
201408121120 METAR ESMX 121120Z AUTO 26005KT 9999 FEW040/// 15/12 Q1005=
201408121050 METAR ESMX 121050Z AUTO 23006KT 210V270 9999 -RA FEW021/// SCT054/// 15/11 Q1005 RERA=
201408121020 METAR ESMX 121020Z AUTO 17012KT 9999 FEW038/// SCT046/// 18/10 Q1005=
201408120950 METAR ESMX 120950Z AUTO 19014KT 9999 NCD 20/10 Q1005=
201408120920 METAR ESMX 120920Z AUTO 20014KT 9999 FEW036/// 18/10 Q1005=
201408120850 METAR ESMX 120850Z 18013KT 150V210 9999 SCT030 17/11 Q1005=
201408120820 METAR COR ESMX 120820Z 18014KT 9999 FEW030 18/11 Q1005=
201408120750 METAR ESMX 120750Z 17011KT 130V200 9999 FEW030 17/11 Q1006=
201408120720 METAR COR ESMX 120720Z 17008KT CAVOK 17/10 Q1006=
201408120650 METAR ESMX 120650Z 17007KT CAVOK 15/11 Q1006=
201408120620 METAR ESMX 120620Z 16006KT CAVOK 14/11 Q1006=
201408120550 METAR COR ESMX 120550Z 18007KT CAVOK 14/11 Q1006=
201408120520 METAR COR ESMX 120520Z 18006KT CAVOK 14/11 Q1006=
201408120450 METAR ESMX 120450Z 17006KT CAVOK 13/10 Q1006=
201408120320 METAR ESMX 120320Z AUTO 18005KT 9999 NCD 11/09 Q1007=
201408120250 METAR ESMX 120250Z AUTO 17005KT 9999 NCD 10/08 Q1007=
201408120220 METAR ESMX 120220Z AUTO 18006KT 9999 NCD 11/09 Q1007=
201408120150 METAR ESMX 120150Z AUTO 18004KT 9999 NCD 11/09 Q1007=
201408120120 METAR ESMX 120120Z AUTO 18006KT 9999 NCD 11/09 Q1007=
201408120050 METAR ESMX 120050Z AUTO 20005KT 9999 NCD 11/09 Q1007=
201408120020 METAR ESMX 120020Z AUTO 20006KT 9999 NCD 11/10 Q1007=
201408112350 METAR ESMX 112350Z 20005KT CAVOK 11/10 Q1007=
201408112320 METAR ESMX 112320Z 20006KT CAVOK 12/10 Q1008=
201408112250 METAR COR ESMX 112250Z 18006KT CAVOK 13/11 Q1008=
201408112220 METAR ESMX 112220Z 18005KT CAVOK 13/11 Q1008=
201408112150 METAR COR ESMX 112150Z 18004KT CAVOK 12/11 Q1008=
201408112120 METAR COR ESMX 112120Z 16005KT CAVOK 14/12 Q1008=
201408112050 METAR ESMX 112050Z 16006KT 9999 FEW047 SCT080 15/12 Q1008=
201408112020 METAR ESMX 112020Z 18006KT 9999 FEW033 BKN070 14/12 Q1008 RERA=
201408111950 METAR ESMX 111950Z AUTO 20005KT 9999 -RA FEW034/// SCT060/// BKN089/// 15/11 Q1008=
201408111920 METAR ESMX 111920Z 21006KT CAVOK 16/10 Q1007=
201408111850 METAR ESMX 111850Z 23008KT CAVOK 17/10 Q1007=
201408111820 METAR COR ESMX 111820Z 25007KT CAVOK 17/10 Q1007=
201408111750 METAR COR ESMX 111750Z 24006KT CAVOK 18/09 Q1007=
201408111720 METAR ESMX 111720Z 24008KT 210V280 CAVOK 19/09 Q1007=
201408111650 METAR ESMX 111650Z 23009KT CAVOK 19/10 Q1006=
201408111620 METAR ESMX 111620Z 24012KT 9999 FEW040 SCT062 20/11 Q1006=
201408111550 METAR ESMX 111550Z 25008KT 210V270 9999 FEW045 20/11 Q1006=
201408111520 METAR ESMX 111520Z 23012KT 9999 SCT047 20/10 Q1006=
201408111450 METAR ESMX 111450Z AUTO 22010KT 9999 FEW053/// SCT086/// 22/11 Q1006=
201408111420 METAR ESMX 111420Z 22007KT 190V250 CAVOK 21/10 Q1006=
201408111350 METAR ESMX 111350Z 25012KT 220V280 9999 FEW048 22/10 Q1006=
201408111320 METAR ESMX 111320Z 24013KT 9999 SCT045 22/11 Q1006=
201408111250 METAR ESMX 111250Z 23010KT 210V280 9999 FEW047 21/11 Q1006=
201408111220 METAR ESMX 111220Z 22011KT 190V250 9999 FEW044 21/11 Q1005=
201408111150 METAR COR ESMX 111150Z 23012KT 180V260 9999 FEW045 22/11 Q1005=
201408111120 METAR ESMX 111120Z AUTO 26011KT 230V290 9999 FEW035/// 22/11 Q1005=
201408111050 METAR ESMX 111050Z AUTO 23013KT 200V260 9999 FEW034/// 22/12 Q1005=
201408111020 METAR ESMX 111020Z 25011KT 220V280 9999 SCT030 20/13 Q1005=
201408110950 METAR ESMX 110950Z 22012KT 9999 SCT032 21/14 Q1004=
201408110920 METAR ESMX 110920Z 24010KT 9999 SCT024 20/13 Q1004=
201408110850 METAR ESMX 110850Z 24012KT 9999 SCT021 20/15 Q1004=
201408110820 METAR ESMX 110820Z 25012KT 9999 SCT017 19/15 Q1003=
201408110750 METAR ESMX 110750Z 25014KT 9999 SCT016 19/15 Q1003=
201408110720 METAR ESMX 110720Z 25010KT 220V280 9999 FEW010 SCT054 19/16 Q1002=
201408110650 METAR ESMX 110650Z 20011KT 9999 FEW006 SCT009 BKN010 19/18 Q1002=
201408110620 METAR ESMX 110620Z 19010KT 9999 FEW006 BKN007 OVC009 19/18 Q1002=
201408110550 METAR ESMX 110550Z 16008KT 9999 FEW005 SCT008 BKN010 19/18 Q1002=
201408110520 METAR ESMX 110520Z 16007KT 9999 -RA FEW003 OVC004 19/17 Q1001=
201408110450 METAR ESMX 110450Z 17007KT 140V210 9999 -RA SCT005 BKN008 18/17 Q1002 RERA=
201408110420 METAR COR ESMX 110420Z 14006KT 9000 RA SCT005 BKN012 18/17 Q1002=
201408110350 METAR ESMX 110350Z 14006KT 110V170 9999 -RA FEW005 BKN011 18/17 Q1002=
201408110320 METAR ESMX 110320Z AUTO 12005KT 080V170 9999 SCT005/// BKN007/// BKN010/// 18/17 Q1002=
201408110250 METAR ESMX 110250Z AUTO 12006KT 070V160 9999 -RA OVC005/// 17/16 Q1002=
201408110220 METAR ESMX 110220Z AUTO 13007KT 090V170 9999 RA BKN006/// OVC009/// 17/16 Q1003 RERA=
201408110150 METAR ESMX 110150Z AUTO 13007KT 080V170 9999 FEW007/// SCT009/// BKN012/// 17/16 Q1004=
201408110120 METAR ESMX 110120Z AUTO 11006KT 070V170 9999 FEW039/// SCT045/// BKN062/// 16/15 Q1004=
201408110050 METAR ESMX 110050Z AUTO 11006KT 050V150 9999 -RA FEW015/// SCT048/// 16/15 Q1004=
201408110020 METAR ESMX 110020Z AUTO 13006KT 100V160 9999 -RA FEW081/// SCT100/// 16/14 Q1005=
201408102350 METAR ESMX 102350Z AUTO 11007KT 060V160 9999 BKN049/// 16/13 Q1006=
201408102320 METAR ESMX 102320Z 11005KT 060V190 CAVOK 16/12 Q1006=
201408102250 METAR ESMX 102250Z 10005KT 060V190 CAVOK 15/12 Q1007=
201408102220 METAR ESMX 102220Z 10005KT 060V200 CAVOK 15/11 Q1008=
201408102150 METAR COR ESMX 102150Z 10004KT 060V160 CAVOK 14/12 Q1008=
201408102120 METAR ESMX 102120Z 11004KT 080V150 CAVOK 14/12 Q1009=
201408102050 METAR ESMX 102050Z 10004KT 050V160 CAVOK 15/12 Q1009=
201408102020 METAR COR ESMX 102020Z VRB03KT CAVOK 15/12 Q1009=
201408101950 METAR ESMX 101950Z 09004KT 040V140 CAVOK 15/12 Q1009=
201408101920 METAR ESMX 101920Z 15005KT 110V190 CAVOK 17/12 Q1010=
201408101850 METAR ESMX 101850Z 15009KT 130V190 CAVOK 18/12 Q1010=
201408101820 METAR ESMX 101820Z 15007KT 110V190 CAVOK 19/11 Q1010=
201408101750 METAR ESMX 101750Z 13005KT 080V170 CAVOK 20/11 Q1010=
201408101720 METAR ESMX 101720Z 12004KT 070V190 CAVOK 20/10 Q1010=
201408101650 METAR ESMX 101650Z 12005KT 070V160 CAVOK 20/10 Q1011=
201408101620 METAR ESMX 101620Z 10004KT 060V150 CAVOK 20/10 Q1011=
201408101550 METAR ESMX 101550Z AUTO 15006KT 100V190 9999 NCD 21/09 Q1012=
201408101520 METAR ESMX 101520Z AUTO 16006KT 100V200 9999 NCD 21/09 Q1012=
201408101450 METAR ESMX 101450Z VRB03KT CAVOK 22/10 Q1013=
201408101420 METAR ESMX 101420Z 09002KT CAVOK 21/09 Q1013=
201408101350 METAR ESMX 101350Z AUTO VRB03KT 9999 FEW064/// 20/10 Q1013=
201408101320 METAR ESMX 101320Z AUTO 18005KT 150V210 9999 FEW039/// 21/10 Q1013=
201408101250 METAR ESMX 101250Z AUTO 14003KT 9999 NCD 21/11 Q1013=
201408101220 METAR ESMX 101220Z AUTO VRB03KT 030V280 9999 FEW039/// 21/11 Q1014=
201408101150 METAR ESMX 101150Z AUTO 19005KT 100V240 9999 FEW037/// 21/11 Q1014=
201408101120 METAR ESMX 101120Z AUTO 22004KT 160V260 9999 FEW034/// SCT041/// 20/10 Q1014=
201408101050 METAR ESMX 101050Z AUTO 18007KT 9999 FEW031/// 20/11 Q1014=
201408101020 METAR ESMX 101020Z AUTO 20006KT 160V250 9999 FEW026/// SCT030/// BKN039/// 19/11 Q1015=
201408100950 METAR ESMX 100950Z AUTO 18007KT 140V210 9999 SCT023/// BKN029/// BKN036/// 19/12 Q1015=
201408100920 METAR ESMX 100920Z AUTO 19005KT 150V320 9999 FEW019/// SCT023/// 19/13 Q1015=
201408100850 METAR ESMX 100850Z AUTO 21004KT 180V260 9999 FEW037/// 18/13 Q1015=
201408100820 METAR ESMX 100820Z AUTO 19004KT 150V210 9999 NCD 17/13 Q1015=
201408100750 METAR ESMX 100750Z AUTO 17004KT 120V200 9999 NCD 17/14 Q1015=
201408100720 METAR ESMX 100720Z AUTO 21004KT 170V260 9999 NCD 17/14 Q1015=
201408100650 METAR ESMX 100650Z AUTO 25003KT 9999 NCD 16/14 Q1015=
201408100620 METAR ESMX 100620Z AUTO 20003KT 170V240 9999 NCD 14/13 Q1015=
201408100550 METAR ESMX 100550Z AUTO 18003KT 9999 NCD 14/13 Q1015=
201408100520 METAR ESMX 100520Z AUTO VRB03KT 9999 NCD 13/13 Q1014=
201408100450 METAR ESMX 100450Z AUTO 22002KT 9999 NCD 12/12 Q1014=
201408100420 METAR ESMX 100420Z AUTO 21002KT 0600 R01/P2000N R19/P2000D FG NCD 11/10 Q1014=
201408100350 METAR ESMX 100350Z AUTO 22003KT 0800 R01/P2000N R19/0600V0750N BR NCD 11/10 Q1014=
201408100320 METAR ESMX 100320Z AUTO 22004KT 0250 R01/P2000N R19/0400V0550N BR NCD 11/10 Q1014=
201408100250 METAR ESMX 100250Z AUTO 22003KT 0150 R01/P2000N R19/0400V1300U NCD 11/10 Q1014=
201408100220 METAR ESMX 100220Z AUTO 22004KT 1900 NCD 12/11 Q1014=
201408100150 METAR ESMX 100150Z AUTO 21006KT 9999 NCD 12/11 Q1013=
201408100120 METAR ESMX 100120Z AUTO 22006KT 4400 NCD 12/11 Q1013=
201408100050 METAR ESMX 100050Z AUTO 20005KT 0550 R01/P2000N R19/P2000N NCD 12/12 Q1013=
201408100020 METAR ESMX 100020Z AUTO 22005KT 0250 R01/P2000N R19/0650V1200N NCD 12/12 Q1013=
201408092350 METAR ESMX 092350Z AUTO 21004KT 0200 R01/P2000N R19/0650N BR FEW029/// 13/12 Q1013=
201408092320 METAR ESMX 092320Z AUTO 20005KT 0650 R01/P2000N R19/P2000N FEW032/// SCT036/// 13/13 Q1013=
201408092250 METAR ESMX 092250Z AUTO 21005KT 0450 R01/P2000N R19/0800VP2000D BR FEW032/// 14/13 Q1013=
201408092220 METAR ESMX 092220Z AUTO 21006KT 0200 R01/P2000N R19/0500V0800U NCD 13/13 Q1012=
201408092150 METAR ESMX 092150Z AUTO 21005KT 0400 R01/P2000N R19/0800V1500D NCD 14/13 Q1012=
201408092120 METAR ESMX 092120Z AUTO 22004KT 0700 R01/P2000N R19/P2000D NCD 14/13 Q1012=
201408092050 METAR ESMX 092050Z AUTO 22004KT 9000 FEW015/// 14/14 Q1012=
201408092020 METAR ESMX 092020Z AUTO 22005KT 0300 R01/P2000N R19/0750V1400N FEW015/// 14/14 Q1011=
201408091950 METAR ESMX 091950Z AUTO 21003KT 9999 NCD 16/14 Q1011=
201408091920 METAR ESMX 091920Z AUTO 26003KT 9999 NCD 16/15 Q1010=
201408091850 METAR ESMX 091850Z AUTO 25006KT 230V290 9999 FEW034/// SCT041/// BKN068/// 17/15 Q1010=
201408091820 METAR ESMX 091820Z AUTO 24010KT 9999 -RA FEW010/// SCT018/// BKN020/// 18/16 Q1009 RERA=
201408091750 METAR ESMX 091750Z AUTO 16009KT 9999 FEW009/// SCT021/// BKN027/// 19/17 Q1009=
201408091720 METAR ESMX 091720Z AUTO 16008KT 3800 RA FEW005/// SCT037/// 18/16 Q1009=
201408091650 METAR ESMX 091650Z AUTO 15007KT 9999 -RA FEW037/// SCT050/// 20/16 Q1008=
201408091620 METAR ESMX 091620Z AUTO 17007KT 9999 RA FEW055/// SCT073/// 21/15 Q1009=
201408091550 METAR ESMX 091550Z AUTO 16010KT 9999 DZ SCT064/// 22/14 Q1008=
201408091520 METAR ESMX 091520Z AUTO 15010KT 110V190 9999 FEW059/// 23/14 Q1008=
201408091450 METAR ESMX 091450Z AUTO 14008KT 100V170 9999 NCD 24/13 Q1008=
201408091420 METAR ESMX 091420Z AUTO 15009KT 110V190 9999 NCD 23/12 Q1008=
201408091350 METAR ESMX 091350Z AUTO 15011KT 110V200 9999 FEW040/// 25/14 Q1008=
201408091320 METAR ESMX 091320Z AUTO 16011KT 120V190 9999 FEW038/// 24/13 Q1008=
201408091250 METAR ESMX 091250Z AUTO 14009KT 100V180 9999 NCD 24/14 Q1009=
201408091220 METAR ESMX 091220Z AUTO 15010KT 110V200 9999 FEW060/// 24/13 Q1009=
201408091150 METAR ESMX 091150Z AUTO 17010KT 9999 FEW039/// 24/13 Q1009=
201408091120 METAR ESMX 091120Z AUTO 15010KT 100V190 9999 FEW035/// 23/14 Q1009=
201408091050 METAR ESMX 091050Z AUTO 16010KT 120V210 9999 FEW030/// SCT056/// 23/14 Q1010=
201408091020 METAR ESMX 091020Z AUTO 16008KT 130V190 9999 FEW026/// SCT032/// BKN072/// 23/15 Q1010=
201408090950 METAR ESMX 090950Z AUTO 12007KT 070V160 9999 FEW024/// 22/15 Q1010=
201408090920 METAR ESMX 090920Z AUTO 15007KT 110V190 9999 FEW017/// 21/16 Q1010=
201408090850 METAR ESMX 090850Z AUTO 14006KT 100V170 9999 FEW011/// SCT015/// BKN020/// 21/16 Q1010=
201408090820 METAR ESMX 090820Z AUTO 16006KT 110V190 9999 FEW010/// BKN015/// BKN021/// 19/16 Q1011=
201408090750 METAR ESMX 090750Z AUTO 14006KT 100V160 9999 FEW004/// SCT007/// BKN009/// 19/17 Q1011=
201408090720 METAR ESMX 090720Z AUTO 13005KT 070V170 9999 FEW003/// OVC005/// 18/17 Q1011=
201408090650 METAR ESMX 090650Z AUTO 12003KT 060V150 9999 BKN002/// OVC005/// 18/17 Q1011=
201408090620 METAR ESMX 090620Z AUTO VRB03KT 9999 FEW001/// SCT018/// OVC020/// 17/16 Q1011=
201408090550 METAR ESMX 090550Z AUTO VRB02KT 1200 R01/P2000N R19/1100V1600N VV001 16/16 Q1011=
201408090520 METAR ESMX 090520Z AUTO VRB03KT 0300 R01/0800VP2000N R19/0450V0650N FG VV001 16/15 Q1011=
201408090450 METAR ESMX 090450Z AUTO VRB02KT 0100 R01/0250N R19/0375V0600U FG VV000 15/15 Q1012=
201408090420 METAR ESMX 090420Z AUTO 00000KT 0100 R01/0250N R19/0325N FG VV000 15/15 Q1012=
201408090350 METAR ESMX 090350Z AUTO VRB02KT 0100 R01/0275N R19/0300N FG VV000 15/14 Q1012=
201408090320 METAR ESMX 090320Z AUTO VRB03KT 0400 R01/0650VP2000U R19/P2000N BCFG FEW002/// 13/13 Q1012=
201408090250 METAR ESMX 090250Z AUTO VRB02KT 5000 BCFG NCD 11/10 Q1012=
201408090220 METAR ESMX 090220Z AUTO 14001KT 0250 R01/P2000N R19/0400V0550N BCFG NCD 11/10 Q1012=
201408090150 METAR ESMX 090150Z AUTO 16001KT 0200 R01/0350V0700N R19/P2000N BCFG NCD 12/11 Q1012=
201408090120 METAR ESMX 090120Z AUTO 00000KT 0150 R01/0350VP2000N R19/P2000N BCFG NCD 11/10 Q1012=
201408090050 METAR ESMX 090050Z AUTO 00000KT 0300 R01/P2000N R19/P2000N BCFG NCD 12/11 Q1012=
201408090020 METAR ESMX 090020Z AUTO 00000KT 0400 R01/P2000N R19/P2000N BCFG NCD 12/11 Q1012=
201408082350 METAR ESMX 082350Z AUTO VRB01KT 6000 BR NCD 13/12 Q1013=
201408082320 METAR ESMX 082320Z AUTO 00000KT 0600 R01/P2000N R19/P2000N NCD 13/12 Q1013=
201408082250 METAR ESMX 082250Z AUTO 19002KT 9999 NCD 13/13 Q1013=
201408082220 METAR ESMX 082220Z AUTO 12003KT 0900 R01/P2000N R19/P2000N FG NCD 14/13 Q1013=
201408082150 METAR ESMX 082150Z AUTO 18002KT 9999 NCD 15/14 Q1013=
201408082120 METAR ESMX 082120Z AUTO 18002KT 8000 FEW036/// 15/14 Q1013=
201408082050 METAR ESMX 082050Z AUTO 12002KT 9999 BKN100/// 15/14 Q1013=
201408082020 METAR ESMX 082020Z AUTO 13002KT 9999 BKN100/// 16/15 Q1013=
201408081950 METAR ESMX 081950Z 15002KT CAVOK 16/15 Q1013=
201408081920 METAR ESMX 081920Z VRB01KT CAVOK 16/15 Q1013=
201408081850 METAR ESMX 081850Z 10002KT CAVOK 18/15 Q1013=
201408081820 METAR ESMX 081820Z 00000KT CAVOK 19/15 Q1013=
201408081750 METAR ESMX 081750Z 23003KT 200V260 CAVOK 20/16 Q1013=
201408081720 METAR ESMX 081720Z VRB03KT CAVOK 19/15 Q1013=
201408081650 METAR ESMX 081650Z 29004KT 260V330 9999 VCSH FEW042CB SCT060 19/15 Q1013=
201408081620 METAR ESMX 081620Z 25007KT 9999 -SHRA SCT043CB BKN060 20/14 Q1013=
201408081550 METAR ESMX 081550Z 16004KT 9999 VCSH SCT044CB BKN064 22/13 Q1013=
201408081520 METAR ESMX 081520Z 17004KT 9999 VCSH FEW042CB BKN054 22/13 Q1013=
201408081450 METAR COR ESMX 081450Z 20007KT 160V240 9999 FEW044TCU SCT065 22/12 Q1014=
201408081420 METAR ESMX 081420Z 18007KT CAVOK 23/11 Q1014=
201408081350 METAR ESMX 081350Z 18007KT 150V210 9999 FEW030 23/12 Q1014=
201408081320 METAR ESMX 081320Z 19006KT 150V230 9999 FEW029 23/13 Q1014=
201408081250 METAR ESMX 081250Z 16006KT 110V200 9999 FEW035 22/13 Q1014=
201408081220 METAR ESMX 081220Z AUTO 15008KT 9999 FEW088/// 22/13 Q1014=
201408081150 METAR ESMX 081150Z AUTO 16007KT 130V190 9999 FEW036/// 23/14 Q1014=
201408081120 METAR ESMX 081120Z AUTO 16006KT 110V210 9999 FEW079/// 23/14 Q1014=
201408081050 METAR ESMX 081050Z AUTO 11004KT 060V190 9999 FEW024/// 22/14 Q1014=
201408081020 METAR ESMX 081020Z AUTO 15005KT 110V200 9999 FEW057/// 22/15 Q1015=
201408080950 METAR ESMX 080950Z 13004KT 090V170 9999 FEW020 SCT075 21/15 Q1015=
201408080920 METAR ESMX 080920Z 12002KT 9999 FEW017 SCT071 21/15 Q1015=
201408080850 METAR ESMX 080850Z 07003KT 020V110 9999 FEW040 BKN070 20/16 Q1015=
201408080820 METAR ESMX 080820Z VRB03KT 9999 FEW005 BKN072 19/16 Q1015=
201408080750 METAR ESMX 080750Z VRB02KT 9999 FEW005 BKN071 18/16 Q1015=
201408080720 METAR ESMX 080720Z VRB02KT 9999 SCT004 BKN071 18/16 Q1015=
201408080650 METAR ESMX 080650Z 00000KT 9999 BKN004 17/16 Q1015=
201408080620 METAR ESMX 080620Z 00000KT 8000 BR OVC003 17/16 Q1015=
201408080550 METAR ESMX 080550Z VRB02KT 2000 BR VV002 16/16 Q1015=
201408080520 METAR ESMX 080520Z VRB02KT 0450 R01/0600V0750N R19/1200VP2000U FG VV002 16/15 Q1015=
201408080450 METAR ESMX 080450Z VRB02KT 0250 R01/0375V0550N R19/0600N FG VV001 16/16 Q1015=
201408080420 METAR ESMX 080420Z VRB02KT 0150 R01/0350N R19/0325N FG VV001 16/15 Q1015=
201408080350 METAR ESMX 080350Z AUTO 00000KT 0100 R01/0275N R19/0300N FG VV001 16/15 Q1015=
201408080320 METAR ESMX 080320Z AUTO VRB02KT 0050 R01/0225N R19/0300N FG VV000 15/14 Q1015=
201408080250 METAR ESMX 080250Z AUTO VRB01KT 0700 R01/P2000N R19/P2000N BCFG OVC001/// 15/14 Q1015=
201408080220 METAR ESMX 080220Z AUTO 00000KT 1600 BR OVC001/// 14/13 Q1015=
201408080150 METAR ESMX 080150Z AUTO 15003KT 6000 BR SCT001/// OVC003/// 16/15 Q1015=
201408080120 METAR ESMX 080120Z AUTO VRB02KT 1000 R01/P2000N R19/P2000N FEW004/// SCT006/// 14/13 Q1015=
201408080050 METAR ESMX 080050Z AUTO 14003KT 0550 R01/P2000N R19/P2000N BR NCD 14/13 Q1015=
201408080020 METAR ESMX 080020Z AUTO 14004KT 9999 NCD 15/14 Q1015=
201408072350 METAR ESMX 072350Z 15004KT CAVOK 16/14 Q1015=
201408072320 METAR ESMX 072320Z 17004KT CAVOK 17/15 Q1015=
201408072250 METAR ESMX 072250Z 15005KT CAVOK 17/15 Q1015=
201408072220 METAR COR ESMX 072220Z 17004KT CAVOK 16/15 Q1015=
201408072150 METAR ESMX 072150Z 15004KT CAVOK 15/14 Q1015=
201408072120 METAR ESMX 072120Z 17004KT CAVOK 15/13 Q1015=
201408072050 METAR ESMX 072050Z 16003KT CAVOK 15/14 Q1015=
201408072020 METAR ESMX 072020Z 17003KT CAVOK 16/13 Q1015=
201408071950 METAR ESMX 071950Z 17004KT CAVOK 17/13 Q1015=
201408071920 METAR ESMX 071920Z 16004KT CAVOK 20/13 Q1015=
201408071850 METAR ESMX 071850Z AUTO 15004KT 9999 NCD 18/14 Q1015=
201408071820 METAR ESMX 071820Z AUTO 16004KT 9999 FEW075/// 21/13 Q1014=
201408071750 METAR ESMX 071750Z AUTO 16005KT 9999 NCD 21/12 Q1014=
201408071720 METAR ESMX 071720Z AUTO 18006KT 9999 NCD 21/12 Q1014=
201408071650 METAR ESMX 071650Z 18008KT CAVOK 22/11 Q1014=
201408071620 METAR ESMX 071620Z 19007KT 150V210 CAVOK 23/11 Q1014=
201408071550 METAR COR ESMX 071550Z 18008KT CAVOK 23/10 Q1014=
201408071520 METAR ESMX 071520Z 17007KT CAVOK 23/11 Q1014=
201408071450 METAR ESMX 071450Z 18007KT 150V210 CAVOK 23/11 Q1014=
201408071420 METAR ESMX 071420Z 17007KT 140V200 9999 FEW045 24/10 Q1014=
201408071350 METAR ESMX 071350Z 17007KT 130V200 9999 FEW044 23/11 Q1015=
201408071320 METAR ESMX 071320Z 16007KT 9999 FEW030 23/11 Q1015=
201408071250 METAR ESMX 071250Z 17006KT 140V210 CAVOK 23/09 Q1015=
201408071220 METAR ESMX 071220Z 16004KT 080V200 9999 FEW049 SCT068 23/09 Q1015=
201408071150 METAR ESMX 071150Z AUTO 17007KT 100V210 9999 FEW047/// SCT054/// BKN076/// 24/09 Q1015=
201408071120 METAR ESMX 071120Z AUTO 18006KT 120V240 9999 FEW048/// 23/11 Q1015=
201408071050 METAR ESMX 071050Z AUTO 17006KT 130V200 9999 NCD 23/10 Q1015=
201408071020 METAR ESMX 071020Z AUTO 13004KT 050V210 9999 NCD 22/11 Q1015=
201408070950 METAR ESMX 070950Z AUTO 15005KT 100V200 9999 NCD 22/12 Q1016=
201408070920 METAR ESMX 070920Z AUTO 15004KT 070V200 9999 NCD 21/11 Q1016=
201408070850 METAR ESMX 070850Z AUTO 13003KT 070V190 9999 NCD 21/11 Q1016=
201408070820 METAR ESMX 070820Z AUTO 18004KT 060V220 9999 NCD 21/11 Q1016=
201408070750 METAR ESMX 070750Z 15003KT 110V260 CAVOK 20/13 Q1016=
201408070720 METAR ESMX 070720Z VRB02KT CAVOK 19/11 Q1016=
201408070650 METAR ESMX 070650Z VRB02KT CAVOK 18/13 Q1016=
201408070620 METAR ESMX 070620Z 18001KT CAVOK 17/14 Q1016=
201408070550 METAR ESMX 070550Z VRB02KT CAVOK 16/14 Q1016=
201408070520 METAR COR ESMX 070520Z 00000KT CAVOK 15/14 Q1015=
201408070450 METAR ESMX 070450Z 00000KT CAVOK 11/11 Q1015=
201408070420 METAR ESMX 070420Z 16001KT 9999 BCFG NSC 10/09 Q1016=
201408070350 METAR ESMX 070350Z 18002KT 9999 BCFG NSC 09/08 Q1015=
201408070320 METAR ESMX 070320Z AUTO 17002KT 9999 NCD 09/08 Q1015=
201408070250 METAR ESMX 070250Z AUTO 17003KT 9999 NCD 09/08 Q1015=
201408070220 METAR ESMX 070220Z AUTO 18002KT 9999 NCD 09/08 Q1015=
201408070150 METAR ESMX 070150Z AUTO 16002KT 7000 BR NCD 11/10 Q1015=
201408070120 METAR ESMX 070120Z AUTO 00000KT 9999 NCD 10/09 Q1015=
201408070050 METAR ESMX 070050Z AUTO 29002KT 9999 NCD 11/10 Q1015=
201408070020 METAR ESMX 070020Z 18002KT CAVOK 11/10 Q1016=
201408062350 METAR ESMX 062350Z 00000KT CAVOK 12/10 Q1016=
201408062320 METAR ESMX 062320Z 29003KT CAVOK 12/11 Q1016=
201408062250 METAR ESMX 062250Z 27003KT CAVOK 12/10 Q1016=
201408062220 METAR ESMX 062220Z 26003KT CAVOK 13/11 Q1016=
201408062150 METAR ESMX 062150Z 27004KT CAVOK 13/11 Q1016=
201408062120 METAR ESMX 062120Z 26004KT CAVOK 13/11 Q1016=
201408062050 METAR COR ESMX 062050Z 25004KT CAVOK 14/11 Q1016=
201408062020 METAR ESMX 062020Z 25004KT CAVOK 15/11 Q1016=
201408061950 METAR ESMX 061950Z 25004KT CAVOK 16/11 Q1015=
201408061920 METAR ESMX 061920Z 25004KT CAVOK 17/12 Q1015=
201408061850 METAR ESMX 061850Z AUTO 24003KT 9999 NCD 18/12 Q1015=
201408061820 METAR ESMX 061820Z AUTO 25003KT 9999 NCD 19/11 Q1015=
201408061750 METAR ESMX 061750Z AUTO 25004KT 9999 NCD 20/11 Q1015=
201408061720 METAR ESMX 061720Z AUTO 27005KT 250V320 9999 NCD 21/11 Q1015=
201408061650 METAR ESMX 061650Z 28007KT CAVOK 22/10 Q1015=
201408061620 METAR ESMX 061620Z AUTO 29006KT 9999 NCD 22/11 Q1015=
201408061550 METAR ESMX 061550Z 29007KT CAVOK 22/10 Q1015=
201408061520 METAR ESMX 061520Z 28006KT CAVOK 22/10 Q1015=
201408061450 METAR COR ESMX 061450Z 28005KT 230V340 CAVOK 22/11 Q1015=
201408061420 METAR ESMX 061420Z 28005KT 240V320 9999 SCT047 22/11 Q1015=
201408061350 METAR COR ESMX 061350Z 29008KT 9999 FEW045 22/10 Q1015=
201408061320 METAR ESMX 061320Z 29006KT 240V340 9999 SCT040 21/11 Q1015=
201408061250 METAR COR ESMX 061250Z 26005KT 220V300 9999 SCT040 22/12 Q1016=
201408061220 METAR ESMX 061220Z AUTO 28006KT 240V320 9999 BKN037/// 21/11 Q1016=
201408061150 METAR ESMX 061150Z AUTO 25008KT 210V300 9999 SCT039/// 21/11 Q1016=
201408061120 METAR ESMX 061120Z AUTO 26008KT 9999 FEW032/// BKN037/// 20/12 Q1016=
201408061050 METAR ESMX 061050Z AUTO 30006KT 260V350 9999 FEW032/// SCT040/// 19/12 Q1016=
201408061020 METAR ESMX 061020Z AUTO 29008KT 9999 BKN029/// 20/13 Q1016=
201408060950 METAR COR ESMX 060950Z 29008KT 240V310 9999 SCT028 20/13 Q1016=
201408060920 METAR ESMX 060920Z 28008KT 240V340 9999 FEW027 19/13 Q1016=
201408060850 METAR ESMX 060850Z 28007KT 9999 FEW024 19/13 Q1016=
201408060820 METAR COR ESMX 060820Z 30007KT 260V340 9999 FEW020 19/13 Q1016=
201408060750 METAR ESMX 060750Z 31010KT 280V340 9999 FEW018 18/13 Q1016=
201408060720 METAR COR ESMX 060720Z 30008KT 260V330 9999 FEW017 18/14 Q1015=
201408060650 METAR COR ESMX 060650Z 29007KT 9999 FEW012 17/14 Q1015=
201408060620 METAR COR ESMX 060620Z 30006KT 280V340 9999 FEW010 16/14 Q1015=
201408060550 METAR ESMX 060550Z 29003KT 9999 FEW005 15/14 Q1015=
201408060520 METAR COR ESMX 060520Z 33003KT 300V020 0900 R01/0800V1400N R19/P2000N FG NSC 14/13 Q1015=
201408060450 METAR ESMX 060450Z 28004KT 0150 R01/0350N R19/0400V0550N FG NSC 13/12 Q1015=
201408060420 METAR ESMX 060420Z 29002KT 0250 R01/0400V0700U R19/0800VP2000N FG FEW004 11/10 Q1015=
201408060350 METAR ESMX 060350Z VRB03KT 0900 R01/P2000N R19/1000VP2000D BCFG NSC 12/11 Q1015=
201408060320 METAR ESMX 060320Z AUTO VRB01KT 2500 BR SCT099/// 12/11 Q1015=
201408060250 METAR ESMX 060250Z AUTO 26004KT 9999 BKN100/// 13/12 Q1015=
201408060220 METAR ESMX 060220Z AUTO 28003KT 9999 FEW088/// BKN100/// 12/11 Q1015=
201408060150 METAR ESMX 060150Z AUTO 31004KT 9999 BKN088/// BKN100/// 13/12 Q1015=
201408060120 METAR ESMX 060120Z AUTO 30004KT 9999 SCT083/// BKN100/// 13/12 Q1015=
201408060050 METAR ESMX 060050Z AUTO 34006KT 9999 FEW054/// SCT084/// 14/12 Q1015=
201408060020 METAR ESMX 060020Z AUTO 35008KT 9999 SCT048/// 14/12 Q1015=
201408052350 METAR ESMX 052350Z 34003KT 300V050 9999 -DZRA BKN047 14/12 Q1015=
201408052320 METAR ESMX 052320Z 33006KT 9999 -RA FEW048 SCT083 14/12 Q1015=
201408052250 METAR ESMX 052250Z 34008KT 9999 -RA FEW048 SCT080 14/12 Q1015=
201408052220 METAR ESMX 052220Z 35009KT 9999 -RA FEW048 SCT069 14/12 Q1015 REDZ=
201408052150 METAR ESMX 052150Z 34010KT 9999 -RA FEW025 14/12 Q1015=
201408052120 METAR ESMX 052120Z 32009KT 9999 -RA FEW025 14/13 Q1015=
201408052050 METAR ESMX 052050Z 34009KT 9999 -RA FEW020 14/12 Q1016=
201408052020 METAR ESMX 052020Z 35008KT 9999 -RA SCT020 14/13 Q1016=
201408051950 METAR ESMX 051950Z 34006KT 9000 RA BKN020 14/13 Q1016=
201408051920 METAR COR ESMX 051920Z 32005KT 9999 -RA BKN015 14/13 Q1016=
201408051850 METAR ESMX 051850Z AUTO 34006KT 9999 RA NCD 14/13 Q1016=
201408051820 METAR ESMX 051820Z AUTO 32005KT 9999 -RA NCD 14/13 Q1015 REDZ=
201408051750 METAR ESMX 051750Z AUTO 32006KT 9999 DZ FEW083/// 14/13 Q1016=
201408051720 METAR ESMX 051720Z AUTO 33006KT 9999 -RA FEW081/// 14/12 Q1016=
201408051650 METAR ESMX 051650Z AUTO 30009KT 9999 -RA NCD 14/12 Q1016=
201408051620 METAR ESMX 051620Z 31006KT 9000 RA NSC 14/12 Q1016=
201408051550 METAR COR ESMX 051550Z 33007KT 9000 RA FEW030 OVC085 13/12 Q1016=
201408051520 METAR ESMX 051520Z 30005KT 9000 RA FEW028 OVC085 13/12 Q1016=
201408051450 METAR COR ESMX 051450Z 30005KT 9999 -RA FEW045 BKN080 14/11 Q1016=
201408051420 METAR ESMX 051420Z 33011KT CAVOK 14/10 Q1016=
201408051350 METAR COR ESMX 051350Z 34011KT CAVOK 14/11 Q1016=
201408051320 METAR ESMX 051320Z 34011KT 9999 -RA FEW045 BKN090 14/11 Q1016=
201408051250 METAR ESMX 051250Z 33012KT 9999 -RA FEW023 BKN090 14/11 Q1016 RERA=
201408051220 METAR COR ESMX 051220Z 34010KT 9999 FEW025 BKN090 14/12 Q1016=
201408051150 METAR ESMX 051150Z AUTO 34011KT 9999 -RA FEW080/// 14/11 Q1016 RERA=
201408051120 METAR ESMX 051120Z AUTO 35010KT 9999 -DZ NCD 14/12 Q1016=
201408051050 METAR ESMX 051050Z AUTO 35011KT 9999 -RA SCT028/// 14/13 Q1016=
201408051020 METAR ESMX 051020Z AUTO 35010KT 9999 RA FEW002/// BKN029/// 14/13 Q1016=
201408050950 METAR ESMX 050950Z AUTO 01010KT 6000 +RA FEW006/// SCT011/// BKN025/// 13/13 Q1016=
201408050920 METAR ESMX 050920Z AUTO 35012KT 1500 +RA FEW008/// SCT014/// BKN021/// 13/12 Q1016=
201408050850 METAR ESMX 050850Z AUTO 34011KT 0900 R01/P2000N R19/P2000N +RA FEW006/// SCT024/// 13/11 Q1016=
201408050820 METAR ESMX 050820Z AUTO 32015KT 9999 -RA FEW018/// BKN026/// OVC031/// 14/12 Q1015=
201408050750 METAR ESMX 050750Z 31010KT 9999 -RA OVC023 14/12 Q1015=
201408050720 METAR ESMX 050720Z 30010KT 9999 -RA FEW012 OVC022 15/13 Q1015 RERA=
201408050650 METAR ESMX 050650Z 31005KT 6000 RA FEW010 SCT017 OVC025 16/15 Q1015=
201408050620 METAR COR ESMX 050620Z 31005KT 250V330 6000 RA SCT005 BKN018 16/15 Q1015=
201408050550 METAR ESMX 050550Z 32007KT 9999 SCT007 OVC020 16/15 Q1015=
201408050520 METAR ESMX 050520Z 32006KT 9999 SCT006 OVC020 16/15 Q1015=
201408050450 METAR ESMX 050450Z 32006KT 9999 -DZRA SCT006 BKN020 16/15 Q1015=
201408050420 METAR ESMX 050420Z 31005KT 9999 -RA SCT009 BKN018 16/15 Q1015=
201408050350 METAR ESMX 050350Z 30005KT 9999 -RA SCT009 BKN018 16/15 Q1015=
201408050320 METAR ESMX 050320Z AUTO 32006KT 9999 -RA FEW009/// SCT011/// OVC019/// 16/15 Q1015=
201408050250 METAR ESMX 050250Z AUTO 30005KT 9999 -RA FEW009/// OVC018/// 16/14 Q1015=
201408050220 METAR ESMX 050220Z AUTO 32006KT 9999 -RA OVC015/// 16/14 Q1014 REDZ=
201408050150 METAR ESMX 050150Z AUTO 31007KT 9999 -RA OVC015/// 17/14 Q1014=
201408050120 METAR ESMX 050120Z AUTO 31007KT 9999 OVC015/// 17/14 Q1014=
201408050050 METAR ESMX 050050Z AUTO 31007KT 9999 OVC015/// 17/15 Q1014=
201408050020 METAR ESMX 050020Z AUTO 32005KT 9999 OVC016/// 17/15 Q1015=
201408042350 METAR ESMX 042350Z 29005KT 9999 OVC016 17/15 Q1015=
201408042320 METAR ESMX 042320Z 29004KT 9999 FEW012 BKN018 17/15 Q1015=
201408042250 METAR ESMX 042250Z 30005KT 9999 FEW015 17/15 Q1015=
201408042220 METAR ESMX 042220Z 28008KT 9999 FEW008 OVC035 18/16 Q1014=
201408042150 METAR ESMX 042150Z 30006KT 9999 SCT007 BKN035 18/16 Q1014=
201408042120 METAR COR ESMX 042120Z 28007KT 9999 SCT006 BKN015 19/17 Q1014=
201408042050 METAR ESMX 042050Z 30008KT 9999 FEW007 SCT010 BKN035 19/17 Q1014=
201408042020 METAR COR ESMX 042020Z 26004KT 9999 BKN030 19/18 Q1014=
201408041950 METAR ESMX 041950Z 26004KT 9999 FEW034 BKN041 19/17 Q1014=
201408041920 METAR ESMX 041920Z 28005KT 9999 BKN032 19/17 Q1013=
201408041850 METAR ESMX 041850Z AUTO 26006KT 9999 FEW013/// OVC025/// 20/17 Q1013=
201408041820 METAR ESMX 041820Z 27004KT 9999 SCT018 BKN028TCU 20/17 Q1013=
201408041750 METAR ESMX 041750Z 27006KT 9999 FEW015 SCT027TCU 21/18 Q1013=
201408041720 METAR COR ESMX 041720Z 26005KT 240V300 9999 FEW015 BKN025 21/17 Q1012=
201408041650 METAR ESMX 041650Z 26008KT 9999 FEW021 SCT025TCU 22/18 Q1012=
201408041620 METAR ESMX 041620Z 26006KT 9999 SCT030TCU 23/18 Q1012=
201408041550 METAR COR ESMX 041550Z 24005G52KT 210V030 9999 FEW029 22/17 Q1012=
201408041520 METAR ESMX 041520Z 26006KT 9999 FEW041 23/18 Q1012=
201408041450 METAR COR ESMX 041450Z 25007KT 200V280 9999 FEW047 24/18 Q1012=
201408041420 METAR ESMX 041420Z 25007KT 230V290 9999 FEW047 25/18 Q1011=
201408041350 METAR ESMX 041350Z 16010KT 9999 FEW040 SCT045 26/15 Q1011=
201408041320 METAR COR ESMX 041320Z 14008KT 080V200 9999 FEW040 27/16 Q1011=
201408041250 METAR ESMX 041250Z AUTO 16009KT 120V210 9999 FEW073/// 26/15 Q1011=
201408041220 METAR ESMX 041220Z 16007KT 100V200 CAVOK 25/16 Q1011=
201408041150 METAR ESMX 041150Z 17006KT CAVOK 24/17 Q1012=
201408041120 METAR ESMX 041120Z 14006KT 090V190 CAVOK 24/17 Q1011=
201408041050 METAR ESMX 041050Z AUTO 14008KT 100V190 9999 FEW045/// SCT091/// 24/17 Q1012=
201408041020 METAR ESMX 041020Z 15006KT CAVOK 24/17 Q1012=
201408040950 METAR ESMX 040950Z 16006KT CAVOK 24/17 Q1012=
201408040920 METAR ESMX 040920Z 17008KT 130V190 CAVOK 24/18 Q1012=
201408040850 METAR ESMX 040850Z 17006KT CAVOK 24/17 Q1012=
201408040820 METAR ESMX 040820Z 16007KT CAVOK 24/17 Q1012=
201408040750 METAR COR ESMX 040750Z 16006KT 9999 -RA SCT095 24/18 Q1011=
201408040720 METAR COR ESMX 040720Z 14006KT CAVOK 23/17 Q1011=
201408040650 METAR ESMX 040650Z 14005KT 110V170 CAVOK 23/18 Q1011=
201408040620 METAR ESMX 040620Z 14004KT 070V190 CAVOK 22/18 Q1011=
201408040550 METAR ESMX 040550Z 12004KT 080V170 CAVOK 21/18 Q1011=
201408040520 METAR ESMX 040520Z 12004KT 100V160 CAVOK 20/18 Q1011=
201408040450 METAR ESMX 040450Z 13004KT 090V150 CAVOK 20/18 Q1011=
201408040420 METAR ESMX 040420Z 13004KT 060V160 CAVOK 19/17 Q1011=
201408040350 METAR ESMX 040350Z 15005KT 100V190 CAVOK 19/17 Q1011=
201408040320 METAR ESMX 040320Z AUTO 16003KT 130V200 9999 NCD 19/17 Q1011=
201408040250 METAR ESMX 040250Z AUTO 15003KT 100V180 9999 NCD 18/16 Q1011=
201408040220 METAR ESMX 040220Z AUTO 14003KT 110V170 9999 NCD 15/14 Q1011=
201408040150 METAR ESMX 040150Z AUTO VRB01KT 9999 NCD 16/15 Q1011=
201408040120 METAR ESMX 040120Z AUTO 22003KT 9999 NCD 16/14 Q1011=
201408040050 METAR ESMX 040050Z AUTO 21003KT 170V230 9999 NCD 18/15 Q1010=
201408040020 METAR ESMX 040020Z AUTO 07003KT 040V120 9999 NCD 20/16 Q1010=
201408032350 METAR ESMX 032350Z 06004KT CAVOK 20/15 Q1010=
201408032320 METAR COR ESMX 032320Z 05004KT CAVOK 19/15 Q1010=
201408032250 METAR ESMX 032250Z 04003KT CAVOK 19/15 Q1010=
201408032220 METAR ESMX 032220Z VRB03KT CAVOK 18/15 Q1011=
201408032150 METAR ESMX 032150Z VRB01KT CAVOK 17/15 Q1011=
201408032120 METAR ESMX 032120Z 03002KT CAVOK 19/15 Q1011=
201408032050 METAR ESMX 032050Z 01002KT CAVOK 19/15 Q1011=
201408032020 METAR ESMX 032020Z 00000KT CAVOK 20/15 Q1011=
201408031950 METAR ESMX 031950Z VRB03KT CAVOK 22/15 Q1011=
201408031920 METAR ESMX 031920Z VRB03KT CAVOK 24/15 Q1011=
201408031850 METAR COR ESMX 031850Z 12003KT 070V170 CAVOK 26/14 Q1011=
201408031820 METAR ESMX 031820Z 12004KT 070V170 CAVOK 27/14 Q1011=
201408031750 METAR ESMX 031750Z 15003KT 100V190 CAVOK 28/15 Q1011=
201408031720 METAR ESMX 031720Z 16005KT CAVOK 29/15 Q1011=
201408031650 METAR ESMX 031650Z 16007KT CAVOK 29/15 Q1011=
201408031620 METAR COR ESMX 031620Z 16008KT 130V200 CAVOK 29/15 Q1011=
201408031550 METAR ESMX 031550Z AUTO 16010KT 9999 NCD 29/15 Q1011=
201408031520 METAR ESMX 031520Z 16010KT CAVOK 29/15 Q1011=
201408031450 METAR ESMX 031450Z 14010KT 110V170 CAVOK 30/15 Q1011=
201408031420 METAR ESMX 031420Z AUTO 16011KT 120V200 9999 NCD 30/14 Q1011=
201408031350 METAR ESMX 031350Z AUTO 16012KT 120V190 9999 FEW110/// 30/14 Q1011=
201408031320 METAR ESMX 031320Z AUTO 16012KT 130V200 9999 NCD 31/13 Q1011=
201408031250 METAR ESMX 031250Z AUTO 16010KT 120V190 9999 NCD 31/13 Q1011=
201408031220 METAR ESMX 031220Z AUTO 15010KT 100V190 9999 NCD 31/14 Q1011=
201408031150 METAR ESMX 031150Z AUTO 15009KT 100V190 9999 NCD 31/14 Q1011=
201408031120 METAR ESMX 031120Z AUTO 13009KT 100V160 9999 FEW081/// 31/15 Q1011=
201408031050 METAR ESMX 031050Z AUTO 13009KT 080V170 9999 FEW100/// 30/16 Q1011=
201408031020 METAR ESMX 031020Z AUTO 13008KT 060V170 9999 FEW082/// 30/16 Q1011=
201408030950 METAR ESMX 030950Z AUTO 11006KT 040V170 9999 FEW110/// 29/17 Q1011=
201408030920 METAR ESMX 030920Z AUTO 12004KT 060V160 9999 NCD 28/18 Q1011=
201408030850 METAR ESMX 030850Z AUTO 08005KT 050V150 9999 NCD 27/19 Q1011=
201408030820 METAR ESMX 030820Z AUTO 16004KT 110V200 9999 NCD 26/18 Q1012=
201408030750 METAR ESMX 030750Z AUTO 16005KT 140V200 9999 NCD 26/18 Q1012=
201408030720 METAR ESMX 030720Z AUTO 17005KT 140V200 9999 NCD 25/18 Q1012=
201408030650 METAR ESMX 030650Z AUTO 21004KT 140V290 9999 FEW071/// 25/19 Q1012=
201408030620 METAR ESMX 030620Z AUTO 07004KT 020V130 9999 NCD 24/19 Q1012=
201408030550 METAR ESMX 030550Z AUTO 08005KT 040V110 9999 NCD 22/19 Q1012=
201408030520 METAR ESMX 030520Z AUTO 09005KT 9999 FEW004/// 21/19 Q1012=
201408030450 METAR ESMX 030450Z AUTO 07004KT 020V110 9999 BKN003/// 20/19 Q1012=
201408030420 METAR ESMX 030420Z AUTO 08004KT 9999 OVC004/// 20/18 Q1012=
201408030350 METAR ESMX 030350Z AUTO 06004KT 9999 BKN004/// BKN006/// 19/18 Q1012=
201408030320 METAR ESMX 030320Z AUTO 24003KT 9999 FEW004/// SCT006/// 19/18 Q1012=
201408030250 METAR ESMX 030250Z AUTO 04004KT 9999 NCD 19/18 Q1012=
201408030220 METAR ESMX 030220Z AUTO 07005KT 9999 NCD 19/18 Q1012=
201408030150 METAR ESMX 030150Z AUTO 07005KT 020V100 9999 FEW005/// 19/17 Q1012=
201408030120 METAR ESMX 030120Z AUTO 05006KT 020V090 9999 SCT006/// 18/17 Q1012=
201408030050 METAR ESMX 030050Z AUTO 04006KT 020V080 9999 FEW052/// 18/17 Q1012=
201408030020 METAR ESMX 030020Z AUTO 04005KT 9999 FEW064/// 18/17 Q1013=
201408022350 METAR ESMX 022350Z AUTO 03005KT 9999 FEW100/// 18/17 Q1013=
201408022320 METAR ESMX 022320Z AUTO 04005KT 9999 NCD 18/16 Q1013=
201408022250 METAR ESMX 022250Z AUTO 07004KT 030V110 9999 NCD 18/16 Q1014=
201408022220 METAR ESMX 022220Z AUTO 08004KT 030V120 9999 FEW020/// 18/16 Q1014=
201408022150 METAR ESMX 022150Z AUTO 06005KT 020V090 9999 SCT098/// BKN110/// 18/16 Q1014=
201408022120 METAR ESMX 022120Z AUTO 07005KT 030V130 9999 BKN100/// 18/16 Q1014=
201408022050 METAR ESMX 022050Z AUTO 07005KT 020V100 9999 FEW041/// 18/16 Q1014=
201408022020 METAR ESMX 022020Z AUTO 07005KT 030V100 9999 FEW009/// BKN100/// 19/16 Q1015=
201408021950 METAR ESMX 021950Z AUTO 07005KT 030V100 9999 BKN009/// BKN098/// 19/16 Q1014=
201408021920 METAR ESMX 021920Z AUTO 05006KT 020V100 9999 SCT010/// BKN034/// 19/16 Q1014=
201408021850 METAR ESMX 021850Z AUTO 07007KT 040V110 9999 SCT011/// BKN035/// BKN056/// 19/16 Q1014=
201408021820 METAR ESMX 021820Z AUTO 05008KT 020V080 9999 SCT012/// OVC044/// 19/16 Q1014=
201408021750 METAR ESMX 021750Z AUTO 07007KT 030V100 9999 BKN050/// 19/15 Q1015=
201408021720 METAR ESMX 021720Z AUTO 08006KT 020V130 9999 BKN083/// 19/15 Q1015=
201408021650 METAR ESMX 021650Z AUTO 08006KT 030V120 9999 BKN082/// 19/14 Q1015=
201408021620 METAR ESMX 021620Z AUTO 09005KT 040V130 9999 SCT083/// BKN098/// 19/13 Q1015 RESHUP=
201408021550 METAR ESMX 021550Z AUTO 11007KT 070V140 9999 SCT100/// BKN110/// 19/13 Q1015=
201408021520 METAR ESMX 021520Z AUTO 12008KT 070V150 9999 NCD 21/13 Q1015=
201408021450 METAR ESMX 021450Z AUTO 13008KT 100V170 9999 FEW043/// 22/13 Q1015=
201408021420 METAR ESMX 021420Z AUTO 12007KT 020V160 9999 SCT042/// 24/12 Q1015=
201408021350 METAR ESMX 021350Z AUTO 11008KT 070V150 9999 NCD 24/12 Q1015=
201408021320 METAR ESMX 021320Z AUTO 13008KT 070V170 9999 FEW037/// 24/12 Q1016=
201408021250 METAR ESMX 021250Z AUTO 13008KT 080V180 9999 FEW041/// SCT054/// 24/13 Q1016=
201408021220 METAR ESMX 021220Z AUTO 12007KT 080V190 9999 SCT043/// 24/12 Q1016=
201408021150 METAR ESMX 021150Z AUTO 13007KT 080V170 9999 FEW039/// SCT057/// 24/14 Q1016=
201408021120 METAR ESMX 021120Z AUTO 14008KT 080V170 9999 SCT036/// BKN058/// 24/14 Q1016=
201408021050 METAR ESMX 021050Z AUTO 13006KT 060V180 9999 FEW033/// SCT061/// 23/15 Q1016=
201408021020 METAR ESMX 021020Z AUTO 15007KT 090V170 9999 FEW034/// 23/14 Q1016=
201408020950 METAR ESMX 020950Z AUTO 13007KT 080V190 9999 FEW047/// 23/14 Q1016=
201408020920 METAR ESMX 020920Z AUTO 14008KT 110V190 9999 NCD 22/14 Q1016=
201408020850 METAR ESMX 020850Z AUTO 11006KT 060V140 9999 FEW056/// 22/13 Q1016=
201408020820 METAR ESMX 020820Z AUTO 11006KT 050V160 9999 FEW066/// 22/14 Q1016=
201408020750 METAR ESMX 020750Z AUTO 14006KT 100V180 9999 NCD 22/14 Q1016=
201408020720 METAR ESMX 020720Z AUTO 12005KT 080V160 9999 NCD 20/14 Q1017=
201408020650 METAR ESMX 020650Z AUTO 14006KT 100V170 9999 NCD 20/15 Q1017=
201408020620 METAR ESMX 020620Z AUTO 12005KT 080V160 9999 NCD 19/15 Q1016=
201408020550 METAR ESMX 020550Z AUTO 12004KT 050V150 9999 NCD 18/16 Q1016=
201408020520 METAR ESMX 020520Z AUTO VRB03KT 9999 NCD 17/16 Q1016=
201408020450 METAR ESMX 020450Z AUTO VRB02KT 8000 BR NCD 16/15 Q1016=
201408020420 METAR ESMX 020420Z AUTO VRB03KT 8000 BR NCD 16/15 Q1016=
201408020350 METAR ESMX 020350Z AUTO 13004KT 6000 BR NCD 15/14 Q1016=
201408020320 METAR ESMX 020320Z AUTO 14004KT 2800 NCD 15/15 Q1016=
201408020250 METAR ESMX 020250Z AUTO 14004KT 0400 R01/P2000N R19/0900VP2000N BCFG NCD 14/13 Q1017=
201408020220 METAR ESMX 020220Z AUTO VRB02KT 0100 R01/P2000N R19/0250V0800N BCFG NCD 12/11 Q1017=
201408020150 METAR ESMX 020150Z AUTO 00000KT 0400 R01/0400V0600N R19/P2000N BCFG NCD 12/11 Q1016=
201408020120 METAR ESMX 020120Z AUTO 00000KT 0650 R01/P2000D R19/P2000N BCFG NCD 12/12 Q1016=
201408020050 METAR ESMX 020050Z AUTO 14002KT 0200 R01/0325V0550N R19/P2000N FG NCD 14/13 Q1016=
201408020020 METAR ESMX 020020Z AUTO VRB02KT 0100 R01/P2000N R19/0350V0700U BR NCD 15/14 Q1016=
201408012350 METAR ESMX 012350Z AUTO 14004KT 0550 R01/P2000N R19/P2000N NCD 15/14 Q1016=
201408012320 METAR ESMX 012320Z AUTO 14004KT 3700 NCD 16/15 Q1016=
201408012250 METAR ESMX 012250Z AUTO 15005KT 9999 NCD 17/15 Q1016=
201408012220 METAR ESMX 012220Z AUTO 14004KT 9999 NCD 17/15 Q1016=
201408012150 METAR ESMX 012150Z AUTO 15005KT 9999 NCD 18/15 Q1016=
201408012120 METAR ESMX 012120Z AUTO 15006KT 9999 NCD 18/15 Q1016=
201408012050 METAR ESMX 012050Z AUTO 15006KT 9999 NCD 19/15 Q1016=
201408012020 METAR ESMX 012020Z 14005KT CAVOK 18/15 Q1016=
201408011950 METAR ESMX 011950Z 15004KT CAVOK 18/15 Q1015=
201408011920 METAR ESMX 011920Z 15003KT CAVOK 18/15 Q1015=
201408011850 METAR ESMX 011850Z 15003KT CAVOK 20/15 Q1015=
201408011820 METAR ESMX 011820Z 15005KT CAVOK 21/15 Q1015=
201408011750 METAR ESMX 011750Z 16006KT CAVOK 21/14 Q1015=
201408011720 METAR ESMX 011720Z 16005KT CAVOK 22/15 Q1015=
201408011650 METAR ESMX 011650Z 17004KT CAVOK 22/14 Q1015=
201408011620 METAR ESMX 011620Z 19005KT 160V220 CAVOK 22/12 Q1014=
201408011550 METAR ESMX 011550Z 19005KT CAVOK 22/14 Q1015=
201408011520 METAR ESMX 011520Z 21005KT 180V240 9999 FEW028 SCT088 21/15 Q1015=
201408011450 METAR ESMX 011450Z AUTO 21005KT 9999 -DZ FEW028/// 20/16 Q1014=
201408011420 METAR ESMX 011420Z AUTO 20010KT 9999 -RA FEW042/// BKN086/// 20/15 Q1014=
201408011350 METAR ESMX 011350Z AUTO 17009KT 9999 FEW044/// 24/13 Q1014=
201408011320 METAR ESMX 011320Z AUTO 20008KT 170V250 9999 FEW096/// 23/13 Q1014=
201408011250 METAR ESMX 011250Z AUTO 23009KT 190V250 9999 FEW044/// SCT100/// 23/13 Q1014=
201408011220 METAR ESMX 011220Z AUTO 26006KT 230V320 9999 FEW042/// 23/13 Q1014=
