##########################################################
# Query made at 04/19/2024 21:39:39 UTC
# Time interval: from 05/01/2014 12:00  to 05/31/2014 12:59  UTC
##########################################################

##########################################################
# ESMX, Vaxjo (Sweden)
# WMO index: 02641. WIGOS ID: 0-20000-0-02648
# Latitude 56-51N. Longitude 014-50E. Altitude 199 m.
##########################################################

201405311250 METAR ESMX 311250Z AUTO 23007KT 210V270 9999 FEW056/// 19/07 Q1014=
201405311220 METAR ESMX 311220Z 26006KT 9999 VCSH FEW055CB SCT110 20/06 Q1014=
201405311150 METAR ESMX 311150Z AUTO 35003KT 9999 FEW064/// 20/06 Q1014=
201405311120 METAR COR ESMX 311120Z 24005KT 200V300 CAVOK 21/07 Q1014=
201405311050 METAR ESMX 311050Z 22006KT 190V260 CAVOK 21/08 Q1014=
201405311020 METAR ESMX 311020Z 26006KT 210V300 CAVOK 21/08 Q1014=
201405310950 METAR ESMX 310950Z 19006KT 140V240 CAVOK 19/06 Q1014=
201405310920 METAR ESMX 310920Z AUTO 27006KT 230V300 9999 NCD 19/07 Q1014=
201405310850 METAR ESMX 310850Z AUTO 23003KT 140V300 9999 NCD 19/07 Q1014=
201405310820 METAR ESMX 310820Z 13003KT 070V220 CAVOK 18/07 Q1014=
201405310750 METAR ESMX 310750Z 16004KT 080V210 CAVOK 17/07 Q1014=
201405310720 METAR COR ESMX 310720Z 00000KT CAVOK 17/07 Q1014=
201405310650 METAR COR ESMX 310650Z 06004KT 350V110 CAVOK 16/06 Q1014=
201405310620 METAR ESMX 310620Z VRB02KT CAVOK 15/06 Q1014=
201405310550 METAR ESMX 310550Z VRB02KT CAVOK 15/07 Q1014=
201405310520 METAR ESMX 310520Z AUTO VRB02KT 9999 NCD 14/07 Q1014=
201405310450 METAR ESMX 310450Z AUTO VRB02KT 9999 NCD 13/08 Q1014=
201405310420 METAR ESMX 310420Z AUTO 20001KT 9999 NCD 11/09 Q1014=
201405310350 METAR ESMX 310350Z AUTO 00000KT 9999 NCD 07/07 Q1014=
201405310320 METAR ESMX 310320Z AUTO 00000KT 9999 NCD 06/05 Q1014=
201405310250 METAR ESMX 310250Z AUTO 01001KT 9999 NCD 06/05 Q1014=
201405310220 METAR ESMX 310220Z AUTO 00000KT 9999 NCD 07/05 Q1014=
201405310150 METAR ESMX 310150Z AUTO VRB02KT 9999 NCD 08/06 Q1014=
201405310120 METAR ESMX 310120Z AUTO VRB02KT 9999 NCD 09/06 Q1014=
201405310050 METAR ESMX 310050Z AUTO 22003KT 9999 NCD 09/06 Q1014=
201405310020 METAR ESMX 310020Z AUTO 23003KT 9999 NCD 08/06 Q1014=
201405302350 METAR ESMX 302350Z AUTO 21003KT 9999 FEW095/// 09/07 Q1015=
201405302320 METAR ESMX 302320Z AUTO 00000KT 9999 BKN083/// 09/07 Q1015=
201405302250 METAR ESMX 302250Z AUTO VRB02KT 9999 FEW083/// BKN095/// 10/07 Q1015=
201405302220 METAR ESMX 302220Z AUTO 15004KT 9999 BKN085/// 10/07 Q1014=
201405302150 METAR ESMX 302150Z AUTO 12003KT 9999 BKN083/// 09/07 Q1015=
201405302120 METAR ESMX 302120Z AUTO 13003KT 9999 FEW081/// 09/07 Q1015=
201405302050 METAR ESMX 302050Z AUTO 13003KT 9999 NCD 12/07 Q1015=
201405302020 METAR ESMX 302020Z 10003KT 050V150 CAVOK 13/07 Q1015=
201405301950 METAR COR ESMX 301950Z 08005KT 050V120 CAVOK 14/07 Q1015=
201405301920 METAR COR ESMX 301920Z 07007KT 050V110 CAVOK 14/07 Q1014=
201405301850 METAR ESMX 301850Z 00000KT CAVOK 16/07 Q1014=
201405301820 METAR COR ESMX 301820Z 33002KT CAVOK 17/07 Q1014=
201405301750 METAR COR ESMX 301750Z 35003KT CAVOK 17/05 Q1014=
201405301720 METAR ESMX 301720Z 34005KT CAVOK 17/05 Q1014=
201405301650 METAR ESMX 301650Z 34008KT CAVOK 18/05 Q1014=
201405301620 METAR ESMX 301620Z 35009KT CAVOK 18/05 Q1014=
201405301550 METAR ESMX 301550Z 36010KT CAVOK 18/04 Q1014=
201405301520 METAR ESMX 301520Z 35012KT CAVOK 18/03 Q1014=
201405301450 METAR ESMX 301450Z 34013KT CAVOK 20/02 Q1014=
201405301420 METAR ESMX 301420Z AUTO 34010KT 9999 FEW056/// 19/03 Q1014=
201405301350 METAR ESMX 301350Z AUTO 34012KT 9999 FEW031/// SCT078/// BKN092/// 20/02 Q1014=
201405301320 METAR ESMX 301320Z AUTO 35011KT 9999 BKN073/// 20/02 Q1014=
201405301250 METAR ESMX 301250Z AUTO 35011KT 9999 FEW055/// 19/02 Q1013=
201405301220 METAR ESMX 301220Z AUTO 34014KT 9999 FEW069/// 21/03 Q1013=
201405301150 METAR ESMX 301150Z 35011KT 310V030 CAVOK 20/03 Q1013=
201405301120 METAR ESMX 301120Z 34013KT 310V020 CAVOK 20/01 Q1013=
201405301050 METAR ESMX 301050Z 32014KT 270V340 CAVOK 20/01 Q1013=
201405301020 METAR COR ESMX 301020Z 33013KT 300V010 CAVOK 20/02 Q1014=
201405300950 METAR ESMX 300950Z 30010KT CAVOK 19/04 Q1014=
201405300920 METAR ESMX 300920Z 34011KT 300V020 CAVOK 19/02 Q1014=
201405300850 METAR ESMX 300850Z 28009KT 230V330 CAVOK 18/03 Q1014=
201405300820 METAR ESMX 300820Z 33006KT 290V110 CAVOK 18/05 Q1015=
201405300750 METAR ESMX 300750Z VRB03KT 360V360 CAVOK 16/06 Q1015=
201405300720 METAR ESMX 300720Z 35005KT 320V040 CAVOK 15/06 Q1015=
201405300650 METAR ESMX 300650Z AUTO 02005KT 350V050 9999 NCD 14/05 Q1015=
201405300620 METAR ESMX 300620Z AUTO 01005KT 330V050 9999 NCD 13/06 Q1016=
201405300550 METAR ESMX 300550Z AUTO 34005KT 320V020 9999 NCD 12/04 Q1016=
201405300520 METAR ESMX 300520Z AUTO 29004KT 260V330 9999 NCD 11/04 Q1016=
201405300450 METAR ESMX 300450Z AUTO VRB03KT 9999 NCD 11/04 Q1016=
201405300420 METAR ESMX 300420Z AUTO 00000KT 9999 NCD 08/04 Q1016=
201405300350 METAR ESMX 300350Z AUTO 22003KT 9999 NCD 05/04 Q1016=
201405300320 METAR ESMX 300320Z AUTO 17001KT 9999 NCD 04/02 Q1016=
201405300250 METAR ESMX 300250Z AUTO VRB02KT 9999 NCD 03/01 Q1016=
201405300220 METAR ESMX 300220Z AUTO 25005KT 9999 NCD 04/02 Q1017=
201405300150 METAR ESMX 300150Z AUTO 17003KT 9999 NCD 03/02 Q1017=
201405300120 METAR ESMX 300120Z AUTO 26003KT 9999 NCD 03/01 Q1017=
201405300050 METAR ESMX 300050Z AUTO 18002KT 9999 NCD 04/02 Q1017=
201405300020 METAR ESMX 300020Z AUTO 28002KT 9999 NCD 04/02 Q1017=
201405292350 METAR ESMX 292350Z AUTO 19002KT 9999 NCD 05/03 Q1018=
201405292320 METAR ESMX 292320Z AUTO VRB02KT 9999 NCD 06/03 Q1018=
201405292250 METAR ESMX 292250Z VRB01KT CAVOK 08/04 Q1018=
201405292220 METAR ESMX 292220Z VRB02KT CAVOK 10/04 Q1018=
201405292150 METAR ESMX 292150Z 03005KT CAVOK 13/03 Q1018=
201405292120 METAR ESMX 292120Z 01006KT CAVOK 12/04 Q1018=
201405292050 METAR ESMX 292050Z AUTO 32006KT 9999 NCD 11/03 Q1018=
201405292020 METAR ESMX 292020Z 33005KT CAVOK 12/04 Q1017=
201405291950 METAR ESMX 291950Z 33005KT CAVOK 13/03 Q1017=
201405291920 METAR ESMX 291920Z 32008KT CAVOK 15/03 Q1017=
201405291850 METAR ESMX 291850Z 34008KT CAVOK 15/03 Q1017=
201405291820 METAR ESMX 291820Z 33008KT CAVOK 17/03 Q1017=
201405291750 METAR ESMX 291750Z 35009KT CAVOK 17/02 Q1017=
201405291720 METAR ESMX 291720Z AUTO 35010KT 9999 FEW069/// 17/01 Q1017=
201405291650 METAR ESMX 291650Z AUTO 35010KT 320V020 9999 FEW070/// 18/01 Q1017=
201405291620 METAR ESMX 291620Z AUTO 34011KT 9999 FEW067/// 18/01 Q1017=
201405291550 METAR ESMX 291550Z 01010KT CAVOK 18/02 Q1017=
201405291529 METAR ESMX 291529Z 36010KT CAVOK 18/01 Q1017=
201405291520 METAR ESMX 291520Z AUTO 01010KT 9999 FEW064/// 18/02 Q1017=
201405291450 METAR ESMX 291450Z 34010KT CAVOK 18/02 Q1017=
201405291420 METAR ESMX 291420Z 36011KT CAVOK 18/03 Q1017=
201405291350 METAR ESMX 291350Z 36010KT CAVOK 18/02 Q1017=
201405291320 METAR ESMX 291320Z 01011KT CAVOK 18/02 Q1017=
201405291257 METAR ESMX 291257Z 01010G20KT 300V050 CAVOK 17/02 Q1017=
201405291250 METAR ESMX 291250Z AUTO 01009G20KT 300V050 9999 SCT056/// 17/02 Q1018=
201405291220 METAR ESMX 291220Z 36011KT CAVOK 17/03 Q1018=
201405291156 METAR ESMX 291156Z 35010KT 320V030 CAVOK 17/03 Q1018=
201405291150 METAR ESMX 291150Z AUTO 35010KT 320V030 9999 FEW053/// 17/02 Q1018=
201405291120 METAR ESMX 291120Z 36010KT 330V060 CAVOK 17/03 Q1018=
201405291050 METAR ESMX 291050Z 02012KT 9999 FEW045 16/02 Q1018=
201405291020 METAR ESMX 291020Z 36012KT 9999 SCT045 16/03 Q1018=
201405290950 METAR ESMX 290950Z 36011KT 9999 SCT047 BKN070 15/03 Q1018=
201405290920 METAR ESMX 290920Z 01013KT 340V060 9999 FEW045 SCT052 14/02 Q1018=
201405290850 METAR ESMX 290850Z 35014KT 9999 BKN044 15/02 Q1019=
201405290820 METAR ESMX 290820Z 01015KT 9999 FEW041 SCT048 13/03 Q1019=
201405290750 METAR ESMX 290750Z 01013KT 9999 FEW039 13/03 Q1019=
201405290720 METAR ESMX 290720Z 01014KT CAVOK 12/02 Q1019=
201405290650 METAR COR ESMX 290650Z 01012KT CAVOK 11/03 Q1019=
201405290620 METAR ESMX 290620Z AUTO 01012KT 9999 NCD 11/03 Q1019=
201405290550 METAR ESMX 290550Z 36010KT CAVOK 09/03 Q1019=
201405290520 METAR ESMX 290520Z 36010KT CAVOK 08/03 Q1019=
201405290450 METAR ESMX 290450Z 36010KT 9999 SCT047 07/02 Q1020=
201405290420 METAR ESMX 290420Z 36010KT CAVOK 06/02 Q1020=
201405290350 METAR ESMX 290350Z 35010KT CAVOK 06/02 Q1020=
201405290320 METAR ESMX 290320Z AUTO 35010KT 9999 NCD 05/02 Q1020=
201405290250 METAR ESMX 290250Z AUTO 35011KT 9999 NCD 05/02 Q1020=
201405290220 METAR ESMX 290220Z AUTO 35010KT 9999 NCD 05/02 Q1020=
201405290150 METAR ESMX 290150Z AUTO 35010KT 9999 NCD 05/02 Q1020=
201405290120 METAR ESMX 290120Z AUTO 35010KT 9999 NCD 06/01 Q1020=
201405290050 METAR ESMX 290050Z AUTO 01010KT 9999 NCD 06/01 Q1020=
201405290020 METAR ESMX 290020Z AUTO 36010KT 9999 FEW029/// 07/02 Q1021=
201405282350 METAR ESMX 282350Z AUTO 03010KT 9999 FEW023/// OVC026/// 07/02 Q1021=
201405282320 METAR ESMX 282320Z AUTO 02009KT 9999 FEW027/// BKN031/// 07/02 Q1021=
201405282250 METAR ESMX 282250Z AUTO 01009KT 9999 FEW035/// 07/01 Q1021=
201405282220 METAR ESMX 282220Z AUTO 01010KT 9999 BKN034/// 08/01 Q1021=
201405282150 METAR ESMX 282150Z AUTO 03007KT 9999 BKN035/// 08/02 Q1021=
201405282120 METAR ESMX 282120Z AUTO 03007KT 9999 BKN034/// 07/02 Q1021=
201405282050 METAR ESMX 282050Z AUTO 05007KT 020V100 9999 NCD 07/02 Q1021=
201405282020 METAR ESMX 282020Z 05010KT 020V100 CAVOK 08/03 Q1021=
201405281950 METAR ESMX 281950Z 05008KT 020V080 CAVOK 08/03 Q1021=
201405281920 METAR ESMX 281920Z 07008KT 030V100 CAVOK 09/03 Q1021=
201405281850 METAR ESMX 281850Z 07008KT 040V110 CAVOK 10/03 Q1020=
201405281820 METAR ESMX 281820Z 06009KT 030V100 CAVOK 12/03 Q1020=
201405281750 METAR ESMX 281750Z 06009KT 010V100 CAVOK 12/03 Q1020=
201405281720 METAR ESMX 281720Z 06009KT 350V110 CAVOK 14/02 Q1019=
201405281650 METAR ESMX 281650Z 04010KT CAVOK 14/02 Q1019=
201405281620 METAR ESMX 281620Z 04011KT CAVOK 14/01 Q1019=
201405281550 METAR ESMX 281550Z 05010KT 030V120 CAVOK 15/02 Q1019=
201405281520 METAR ESMX 281520Z 04010KT 360V090 CAVOK 15/01 Q1019=
201405281450 METAR ESMX 281450Z 05011KT 020V090 CAVOK 15/01 Q1019=
201405281420 METAR ESMX 281420Z 05010KT 020V080 CAVOK 15/01 Q1019=
201405281350 METAR ESMX 281350Z 03009KT 350V060 CAVOK 15/00 Q1020=
201405281320 METAR ESMX 281320Z 04011KT 010V070 CAVOK 14/M00 Q1020=
201405281250 METAR ESMX 281250Z 04012KT 010V080 CAVOK 14/01 Q1020=
201405281220 METAR ESMX 281220Z 05013KT 020V080 CAVOK 13/M01 Q1020=
201405281150 METAR ESMX 281150Z 05014G24KT 020V080 CAVOK 14/00 Q1020=
201405281120 METAR ESMX 281120Z 02013KT 350V060 CAVOK 13/00 Q1020=
201405281050 METAR ESMX 281050Z 04013KT 010V080 CAVOK 13/01 Q1020=
201405281020 METAR ESMX 281020Z 04012KT 010V080 CAVOK 12/02 Q1020=
201405280950 METAR ESMX 280950Z 04014KT 010V070 9999 FEW036 11/01 Q1020=
201405280920 METAR ESMX 280920Z 02013KT 9999 FEW036 11/02 Q1021=
201405280850 METAR ESMX 280850Z 03014KT 9999 FEW030 10/02 Q1021=
201405280820 METAR ESMX 280820Z 05012KT 030V110 9999 SCT033 10/02 Q1021=
201405280750 METAR ESMX 280750Z 02012G23KT 9999 SCT028 09/01 Q1021=
201405280720 METAR ESMX 280720Z AUTO 05013KT 020V080 9999 OVC025/// 09/01 Q1021=
201405280650 METAR ESMX 280650Z 04014KT 010V080 9999 OVC023 07/01 Q1021=
201405280623 METAR ESMX 280623Z 04014KT 010V070 9999 OVC023 07/01 Q1021=
201405280620 METAR ESMX 280620Z AUTO 05012KT 020V100 9999 OVC023/// 07/01 Q1021=
201405280550 METAR ESMX 280550Z AUTO 04013KT 010V070 9999 OVC022/// 07/01 Q1021=
201405280520 METAR ESMX 280520Z 02014KT 9999 OVC023 07/01 Q1021=
201405280454 METAR ESMX 280454Z 04013KT 020V080 9999 OVC023 07/01 Q1021=
201405280450 METAR ESMX 280450Z AUTO 03012KT 010V070 9999 OVC023/// 07/01 Q1021=
201405280420 METAR ESMX 280420Z 05012KT 020V080 9999 OVC022 06/01 Q1021=
201405280350 METAR ESMX 280350Z 04014KT 010V070 9999 OVC021 06/01 Q1021=
201405280320 METAR ESMX 280320Z AUTO 04014KT 010V080 9999 OVC022/// 06/01 Q1021=
201405280250 METAR ESMX 280250Z AUTO 04011KT 9999 OVC021/// 06/01 Q1021=
201405280220 METAR ESMX 280220Z AUTO 05014KT 020V090 9999 OVC022/// 06/01 Q1021=
201405280150 METAR ESMX 280150Z AUTO 06010KT 030V100 9999 OVC024/// 07/01 Q1021=
201405280120 METAR ESMX 280120Z AUTO 06011KT 9999 OVC024/// 07/01 Q1021=
201405280050 METAR ESMX 280050Z AUTO 05012KT 020V090 9999 BKN024/// 07/01 Q1021=
201405280020 METAR ESMX 280020Z 05013KT 020V090 9999 OVC022 07/01 Q1021=
201405272350 METAR ESMX 272350Z 04017KT 9999 OVC022 07/02 Q1022=
201405272320 METAR ESMX 272320Z 05014G25KT 020V080 9999 OVC022 07/02 Q1022=
201405272250 METAR ESMX 272250Z 05014G24KT 020V110 9999 BKN023 07/02 Q1022=
201405272220 METAR ESMX 272220Z AUTO 04015KT 020V080 9999 BKN020/// BKN027/// 07/02 Q1022=
201405272150 METAR ESMX 272150Z 05013KT 020V080 9999 FEW022 SCT026 08/03 Q1022=
201405272120 METAR ESMX 272120Z 06010G21KT 030V100 9999 FEW020 SCT024 08/04 Q1022=
201405272050 METAR ESMX 272050Z AUTO 07011KT 030V100 9999 NCD 08/03 Q1022=
201405272020 METAR ESMX 272020Z 04010KT 360V070 CAVOK 09/03 Q1022=
201405271950 METAR ESMX 271950Z 06010KT 030V110 CAVOK 10/03 Q1021=
201405271920 METAR ESMX 271920Z 06010KT 030V100 CAVOK 11/03 Q1021=
201405271850 METAR ESMX 271850Z 05013KT CAVOK 11/04 Q1020=
201405271820 METAR ESMX 271820Z 05013KT 020V080 CAVOK 12/04 Q1020=
201405271750 METAR ESMX 271750Z 05013G25KT 020V100 CAVOK 13/03 Q1020=
201405271720 METAR ESMX 271720Z 04012KT CAVOK 13/03 Q1020=
201405271650 METAR ESMX 271650Z 04014KT CAVOK 14/03 Q1020=
201405271620 METAR ESMX 271620Z 05011KT 020V080 CAVOK 15/04 Q1020=
201405271550 METAR ESMX 271550Z 05012KT 020V100 CAVOK 14/03 Q1020=
201405271520 METAR ESMX 271520Z 04013KT CAVOK 15/04 Q1020=
201405271450 METAR ESMX 271450Z 06011KT 030V100 CAVOK 15/04 Q1020=
201405271420 METAR ESMX 271420Z 03014KT CAVOK 15/04 Q1021=
201405271350 METAR ESMX 271350Z 05012KT 020V080 CAVOK 15/05 Q1021=
201405271320 METAR ESMX 271320Z 05011KT 020V100 CAVOK 15/04 Q1021=
201405271250 METAR ESMX 271250Z 04014KT CAVOK 15/04 Q1021=
201405271220 METAR ESMX 271220Z 04014KT CAVOK 14/04 Q1021=
201405271150 METAR ESMX 271150Z 05011KT 020V090 9999 FEW043 14/04 Q1021=
201405271120 METAR ESMX 271120Z 04012KT 010V090 9999 FEW028 13/05 Q1021=
201405271050 METAR ESMX 271050Z 05012KT 020V080 9999 FEW028 14/04 Q1022=
201405271020 METAR ESMX 271020Z 07010KT 030V110 9999 FEW029 13/04 Q1022=
201405270950 METAR ESMX 270950Z 04013KT 9999 FEW025 12/04 Q1022=
201405270920 METAR ESMX 270920Z 03014KT 9999 SCT021 10/04 Q1022=
201405270850 METAR ESMX 270850Z 01013KT 340V040 9999 BKN019 10/04 Q1022=
201405270820 METAR ESMX 270820Z AUTO 02011KT 350V070 9999 SCT019/// 10/04 Q1022=
201405270750 METAR ESMX 270750Z 01013KT 9999 BKN018 10/04 Q1022=
201405270720 METAR ESMX 270720Z 03014KT 360V060 9999 FEW019 10/04 Q1022=
201405270650 METAR ESMX 270650Z 01014KT 9999 FEW020 11/05 Q1022=
201405270620 METAR ESMX 270620Z AUTO 04013KT 9999 NCD 11/05 Q1022=
201405270550 METAR ESMX 270550Z 03012KT 9999 SCT015 10/05 Q1022=
201405270520 METAR ESMX 270520Z 04012KT 010V070 9999 OVC014 10/06 Q1022=
201405270450 METAR ESMX 270450Z 02011KT 9999 BKN013 10/06 Q1021=
201405270420 METAR ESMX 270420Z 01012KT 9999 BKN012 10/06 Q1021=
201405270350 METAR ESMX 270350Z 04013KT 9999 BKN012 10/06 Q1022=
201405270320 METAR ESMX 270320Z AUTO 04011KT 020V080 9999 OVC012/// 09/06 Q1022=
201405270250 METAR ESMX 270250Z AUTO 03011KT 010V070 9999 OVC012/// 10/06 Q1022=
201405270220 METAR ESMX 270220Z AUTO 05011KT 9999 BKN012/// 10/07 Q1022=
201405270150 METAR ESMX 270150Z AUTO 04011KT 9999 SCT014/// 10/07 Q1022=
201405270120 METAR ESMX 270120Z AUTO 05009KT 020V090 9999 NCD 10/07 Q1022=
201405270050 METAR ESMX 270050Z AUTO 04009KT 360V100 9999 NCD 10/07 Q1022=
201405270020 METAR ESMX 270020Z AUTO 05012KT 020V090 9999 NCD 11/06 Q1022=
201405262350 METAR ESMX 262350Z 05011KT 020V090 CAVOK 12/08 Q1021=
201405262320 METAR ESMX 262320Z 05012KT 010V080 CAVOK 13/08 Q1021=
201405262250 METAR ESMX 262250Z 05013KT CAVOK 15/08 Q1020=
201405262220 METAR ESMX 262220Z 04012KT 350V070 CAVOK 17/08 Q1020=
201405262150 METAR ESMX 262150Z 04008KT CAVOK 17/07 Q1019=
201405262120 METAR ESMX 262120Z 03007KT CAVOK 17/07 Q1019=
201405262050 METAR ESMX 262050Z 03007KT CAVOK 18/07 Q1019=
201405262020 METAR ESMX 262020Z 03007KT CAVOK 18/07 Q1019=
201405261950 METAR ESMX 261950Z 01004KT CAVOK 16/08 Q1019=
201405261920 METAR ESMX 261920Z 02005KT CAVOK 19/07 Q1018=
201405261850 METAR ESMX 261850Z 32002KT CAVOK 20/08 Q1018=
201405261820 METAR ESMX 261820Z 31004KT CAVOK 22/05 Q1018=
201405261750 METAR ESMX 261750Z 33005KT CAVOK 23/05 Q1018=
201405261720 METAR ESMX 261720Z 35005KT 320V020 CAVOK 23/05 Q1018=
201405261650 METAR ESMX 261650Z 30005KT CAVOK 23/04 Q1018=
201405261620 METAR ESMX 261620Z 33003G14KT 250V030 CAVOK 23/05 Q1019=
201405261550 METAR ESMX 261550Z 28005KT 240V330 CAVOK 23/05 Q1019=
201405261520 METAR ESMX 261520Z 01004KT 320V060 CAVOK 23/06 Q1019=
201405261450 METAR ESMX 261450Z 33005KT 270V050 CAVOK 23/05 Q1019=
201405261420 METAR ESMX 261420Z 35006KT 300V050 CAVOK 23/05 Q1020=
201405261350 METAR ESMX 261350Z 36005KT 310V070 CAVOK 22/05 Q1020=
201405261320 METAR ESMX 261320Z AUTO 31006KT 280V020 9999 NCD 23/07 Q1020=
201405261250 METAR ESMX 261250Z VRB05KT 210V080 CAVOK 22/07 Q1020=
201405261220 METAR ESMX 261220Z 29006KT 250V330 CAVOK 22/07 Q1020=
201405261150 METAR ESMX 261150Z 31006KT 280V340 CAVOK 21/07 Q1021=
201405261120 METAR ESMX 261120Z VRB05KT 170V030 CAVOK 21/07 Q1021=
201405261050 METAR ESMX 261050Z VRB07KT 360V360 CAVOK 21/07 Q1021=
201405261020 METAR ESMX 261020Z 32006KT 240V030 CAVOK 20/07 Q1021=
201405260950 METAR ESMX 260950Z 26008KT 230V290 CAVOK 20/07 Q1021=
201405260920 METAR ESMX 260920Z 28008KT 250V320 CAVOK 20/08 Q1022=
201405260850 METAR ESMX 260850Z 28009KT 240V300 CAVOK 19/06 Q1022=
201405260820 METAR ESMX 260820Z 26008KT 230V300 CAVOK 19/07 Q1022=
201405260750 METAR ESMX 260750Z 27009KT CAVOK 18/08 Q1022=
201405260720 METAR ESMX 260720Z 28007KT 230V320 CAVOK 17/08 Q1022=
201405260650 METAR ESMX 260650Z 30008KT 260V330 CAVOK 16/09 Q1022=
201405260620 METAR ESMX 260620Z 30007KT CAVOK 16/09 Q1022=
201405260550 METAR ESMX 260550Z 29007KT CAVOK 15/09 Q1022=
201405260520 METAR COR ESMX 260520Z 29007KT 260V330 CAVOK 14/09 Q1021=
201405260450 METAR ESMX 260450Z 26004KT 220V300 CAVOK 13/10 Q1022=
201405260420 METAR ESMX 260420Z 27004KT CAVOK 12/11 Q1021=
201405260350 METAR ESMX 260350Z 25003KT CAVOK 10/09 Q1021=
201405260320 METAR ESMX 260320Z AUTO 25003KT 8000 NCD 10/09 Q1021=
201405260250 METAR ESMX 260250Z AUTO 20003KT 7000 NCD 10/09 Q1021=
201405260220 METAR ESMX 260220Z AUTO 26004KT 9999 NCD 09/08 Q1021=
201405260150 METAR ESMX 260150Z AUTO 26004KT 9999 NCD 10/09 Q1021=
201405260120 METAR ESMX 260120Z AUTO 26004KT 9999 NCD 10/09 Q1021=
201405260050 METAR ESMX 260050Z AUTO 26003KT 9999 NCD 09/08 Q1021=
201405260020 METAR ESMX 260020Z AUTO 27002KT 9999 NCD 10/08 Q1021=
201405252350 METAR ESMX 252350Z AUTO 25003KT 9999 NCD 11/08 Q1021=
201405252325 METAR ESMX 252325Z 26003KT CAVOK 12/09 Q1021=
201405252320 METAR ESMX 252320Z AUTO 25003KT 9999 NCD 12/08 Q1021=
201405252250 METAR ESMX 252250Z 25005KT CAVOK 13/09 Q1021=
201405252220 METAR ESMX 252220Z 25005KT CAVOK 13/08 Q1021=
201405252150 METAR ESMX 252150Z 25004KT CAVOK 13/08 Q1020=
201405252120 METAR ESMX 252120Z 22004KT CAVOK 13/07 Q1020=
201405252050 METAR ESMX 252050Z 26003KT CAVOK 14/07 Q1020=
201405252020 METAR ESMX 252020Z 25004KT CAVOK 15/06 Q1020=
201405251950 METAR ESMX 251950Z AUTO 26005KT 9999 NCD 16/06 Q1019=
201405251923 METAR ESMX 251923Z 26006KT CAVOK 17/06 Q1019=
201405251920 METAR ESMX 251920Z AUTO 26006KT 9999 NCD 17/06 Q1019=
201405251850 METAR ESMX 251850Z AUTO 26005KT 9999 NCD 18/05 Q1019=
201405251827 METAR ESMX 251827Z 26007KT CAVOK 19/05 Q1018=
201405251820 METAR ESMX 251820Z AUTO 26007KT 230V300 9999 NCD 19/05 Q1018=
201405251750 METAR ESMX 251750Z 26008KT CAVOK 20/05 Q1018=
201405251720 METAR ESMX 251720Z AUTO 24010KT 9999 NCD 20/05 Q1018=
201405251650 METAR ESMX 251650Z 29011KT CAVOK 21/05 Q1018=
201405251620 METAR ESMX 251620Z 26010KT CAVOK 21/05 Q1018=
201405251550 METAR ESMX 251550Z 25009KT 220V290 CAVOK 22/05 Q1018=
201405251520 METAR ESMX 251520Z 25010KT 210V280 CAVOK 22/05 Q1018=
201405251450 METAR ESMX 251450Z AUTO 25010KT 230V290 9999 NCD 22/04 Q1018=
201405251420 METAR COR ESMX 251420Z 28012KT CAVOK 22/04 Q1018=
201405251350 METAR ESMX 251350Z 25011KT 210V280 CAVOK 22/05 Q1018=
201405251320 METAR ESMX 251320Z 24012KT CAVOK 22/04 Q1018=
201405251250 METAR ESMX 251250Z 27012KT CAVOK 22/05 Q1018=
201405251220 METAR ESMX 251220Z AUTO 25011KT 9999 NCD 22/06 Q1017=
201405251150 METAR ESMX 251150Z AUTO 25012KT 220V280 9999 NCD 22/06 Q1017=
201405251120 METAR ESMX 251120Z AUTO 24011KT 200V270 9999 NCD 22/05 Q1017=
201405251050 METAR ESMX 251050Z AUTO 26013KT 230V290 9999 NCD 21/05 Q1017=
201405251020 METAR ESMX 251020Z AUTO 22012KT 9999 NCD 21/05 Q1017=
201405250950 METAR ESMX 250950Z AUTO 23011KT 190V270 9999 NCD 20/05 Q1017=
201405250920 METAR ESMX 250920Z AUTO 25011KT 9999 NCD 20/05 Q1017=
201405250850 METAR ESMX 250850Z AUTO 25010KT 220V290 9999 NCD 20/07 Q1017=
201405250820 METAR ESMX 250820Z AUTO 24010KT 9999 NCD 19/09 Q1017=
201405250750 METAR ESMX 250750Z AUTO 25009KT 220V280 9999 NCD 18/08 Q1017=
201405250720 METAR ESMX 250720Z AUTO 23010KT 200V280 9999 NCD 18/09 Q1017=
201405250650 METAR ESMX 250650Z AUTO 26008KT 210V290 9999 NCD 17/09 Q1016=
201405250620 METAR ESMX 250620Z AUTO 24009KT 9999 FEW110/// 16/10 Q1016=
201405250550 METAR ESMX 250550Z AUTO 24008KT 200V270 9999 BKN110/// 16/11 Q1016=
201405250520 METAR ESMX 250520Z AUTO 23006KT 200V270 9999 FEW110/// 15/11 Q1016=
201405250450 METAR ESMX 250450Z AUTO 20005KT 160V230 9999 NCD 14/12 Q1016=
201405250420 METAR ESMX 250420Z AUTO 21004KT 9999 NCD 13/12 Q1016=
201405250350 METAR ESMX 250350Z AUTO VRB03KT 9999 NCD 13/12 Q1015=
201405250320 METAR ESMX 250320Z AUTO 18004KT 9999 NCD 12/11 Q1015=
201405250250 METAR ESMX 250250Z AUTO 23003KT 9999 NCD 12/11 Q1015=
201405250220 METAR ESMX 250220Z AUTO 17003KT 9999 NCD 12/11 Q1015=
201405250150 METAR ESMX 250150Z AUTO 22003KT 9999 NCD 12/11 Q1015=
201405250120 METAR ESMX 250120Z AUTO 20003KT 9999 BKN100/// 12/11 Q1015=
201405250050 METAR ESMX 250050Z AUTO 23003KT 9999 FEW093/// BKN100/// 13/11 Q1015=
201405250020 METAR ESMX 250020Z AUTO 28003KT 9999 FEW096/// 13/11 Q1014=
201405242350 METAR ESMX 242350Z AUTO 26004KT 9999 NCD 13/11 Q1014=
201405242320 METAR ESMX 242320Z AUTO 28007KT 9999 SCT099/// 13/11 Q1014=
201405242250 METAR ESMX 242250Z AUTO 26006KT 9999 FEW072/// SCT088/// 13/11 Q1014=
201405242220 METAR ESMX 242220Z AUTO 26006KT 9999 OVC087/// 14/11 Q1014=
201405242150 METAR ESMX 242150Z AUTO 26005KT 9999 FEW030/// BKN088/// 14/12 Q1014=
201405242120 METAR ESMX 242120Z AUTO 25005KT 9999 FEW029/// 15/12 Q1014=
201405242050 METAR ESMX 242050Z AUTO 27005KT 9999 OVC031/// 15/12 Q1014=
201405242020 METAR ESMX 242020Z AUTO 26005KT 9999 OVC029/// 16/13 Q1014=
201405241950 METAR ESMX 241950Z AUTO 25006KT 9999 OVC023/// 16/13 Q1014=
201405241920 METAR ESMX 241920Z AUTO 25005KT 9999 BKN020/// BKN035/// 17/14 Q1014=
201405241850 METAR ESMX 241850Z AUTO 26006KT 9999 SCT018/// BKN029/// OVC033/// 17/14 Q1013=
201405241820 METAR ESMX 241820Z AUTO 22005KT 9999 FEW017/// SCT020/// OVC028/// 18/14 Q1013=
201405241750 METAR ESMX 241750Z AUTO 22005KT 9999 FEW022/// BKN026/// 18/14 Q1013=
201405241720 METAR ESMX 241720Z AUTO 26004KT 9999 BKN020/// BKN029/// 19/14 Q1013=
201405241650 METAR ESMX 241650Z AUTO VRB03KT 9999 FEW019/// BKN022/// 19/14 Q1013=
201405241620 METAR ESMX 241620Z AUTO 27006KT 250V320 9999 FEW019/// 19/14 Q1012=
201405241550 METAR ESMX 241550Z AUTO 27006KT 210V320 9999 FEW017/// 19/14 Q1012=
201405241520 METAR ESMX 241520Z AUTO 26006KT 230V300 9999 FEW012/// SCT016/// BKN063/// 19/15 Q1012=
201405241450 METAR ESMX 241450Z AUTO 23006KT 9999 BKN011/// OVC016/// 17/14 Q1013=
201405241420 METAR ESMX 241420Z AUTO 25007KT 210V300 9999 SCT009/// BKN011/// 18/15 Q1013=
201405241350 METAR ESMX 241350Z AUTO 25007KT 9999 BKN009/// 17/15 Q1013=
201405241320 METAR ESMX 241320Z AUTO 26007KT 230V290 9999 SCT011/// BKN017/// BKN022/// 18/15 Q1013=
201405241250 METAR ESMX 241250Z 27007KT 230V290 9999 FEW009 SCT022 BKN026 19/15 Q1012=
201405241220 METAR ESMX 241220Z 27005KT 9999 FEW011 BKN024 19/16 Q1012=
201405241150 METAR ESMX 241150Z 26006KT 240V300 9999 FEW009 SCT015 BKN021 19/16 Q1012=
201405241120 METAR ESMX 241120Z 25004KT 220V290 9999 FEW008 SCT010 BKN015 19/16 Q1012=
201405241050 METAR ESMX 241050Z 30005KT 260V340 9999 FEW007 SCT009 OVC011 19/16 Q1012=
201405241020 METAR ESMX 241020Z 28005KT 230V300 9999 SCT005 OVC010 18/16 Q1012=
201405240950 METAR ESMX 240950Z 26005KT 230V290 9999 FEW005 SCT006 BKN008 18/16 Q1012=
201405240920 METAR ESMX 240920Z 25005KT 9999 FEW005 SCT006 BKN009 18/16 Q1012=
201405240850 METAR ESMX 240850Z AUTO 25005KT 9999 -DZ FEW003/// SCT006/// BKN007/// 18/16 Q1012=
201405240820 METAR ESMX 240820Z 27004KT 230V330 5000 -RA FEW008 SCT020 17/16 Q1011=
201405240750 METAR ESMX 240750Z 17003KT 5000 RA FEW020 17/16 Q1011=
201405240720 METAR ESMX 240720Z 16004KT 8000 RA FEW021 SCT080 18/15 Q1011=
201405240650 METAR ESMX 240650Z 20006KT CAVOK 18/15 Q1011=
201405240620 METAR ESMX 240620Z 26005KT 230V300 CAVOK 19/15 Q1010=
201405240550 METAR ESMX 240550Z VRB03KT CAVOK 19/15 Q1010=
201405240520 METAR ESMX 240520Z AUTO 00000KT 9999 FEW069/// 18/14 Q1010=
201405240450 METAR ESMX 240450Z AUTO 24002KT 9999 NCD 17/14 Q1010=
201405240420 METAR ESMX 240420Z AUTO 27001KT 9999 NCD 17/14 Q1010=
201405240350 METAR ESMX 240350Z AUTO 03005KT 010V070 9999 NCD 17/14 Q1009=
201405240320 METAR ESMX 240320Z AUTO 02005KT 9999 NCD 16/14 Q1009=
201405240250 METAR ESMX 240250Z AUTO 01005KT 9999 NCD 16/14 Q1010=
201405240220 METAR ESMX 240220Z AUTO 32006KT 290V350 9999 FEW110/// 17/14 Q1010=
201405240150 METAR ESMX 240150Z AUTO 26008KT 9999 FEW061/// 17/14 Q1010=
201405240120 METAR ESMX 240120Z AUTO 20009KT 9999 FEW059/// SCT077/// 17/13 Q1011=
201405240050 METAR ESMX 240050Z AUTO VRB08KT 360V240 9999 FEW059/// SCT072/// 17/12 Q1010=
201405240020 METAR ESMX 240020Z AUTO VRB02KT 9999 NCD 16/12 Q1010=
201405232350 METAR ESMX 232350Z AUTO VRB03KT 9999 NCD 17/12 Q1010=
201405232320 METAR ESMX 232320Z AUTO 09004KT 060V120 9999 NCD 17/12 Q1010=
201405232250 METAR ESMX 232250Z AUTO 09003KT 9999 NCD 17/13 Q1010=
201405232220 METAR ESMX 232220Z AUTO VRB02KT 9999 NCD 17/13 Q1010=
201405232150 METAR ESMX 232150Z AUTO 10004KT 080V150 9999 FEW057/// 19/13 Q1010=
201405232120 METAR ESMX 232120Z AUTO 12004KT 070V160 9999 FEW056/// 20/13 Q1010=
201405232050 METAR ESMX 232050Z AUTO 12004KT 9999 NCD 20/13 Q1010=
201405232020 METAR ESMX 232020Z 11004KT 070V140 CAVOK 20/13 Q1010=
201405231950 METAR ESMX 231950Z VRB03KT CAVOK 21/13 Q1010=
201405231920 METAR ESMX 231920Z VRB03KT CAVOK 22/13 Q1010=
201405231850 METAR ESMX 231850Z 12004KT 080V150 CAVOK 23/13 Q1010=
201405231820 METAR ESMX 231820Z 11004KT 070V160 CAVOK 24/13 Q1009=
201405231750 METAR ESMX 231750Z 13005KT 060V180 CAVOK 25/12 Q1009=
201405231720 METAR ESMX 231720Z 13006KT 070V180 CAVOK 26/13 Q1009=
201405231650 METAR ESMX 231650Z 14008KT 100V170 CAVOK 26/12 Q1009=
201405231620 METAR ESMX 231620Z 15010KT 110V190 CAVOK 26/12 Q1009=
201405231550 METAR ESMX 231550Z 14010KT 080V170 CAVOK 26/12 Q1010=
201405231520 METAR ESMX 231520Z 16012KT CAVOK 26/12 Q1010=
201405231454 METAR ESMX 231454Z 16012KT 120V190 CAVOK 26/12 Q1010=
201405231450 METAR ESMX 231450Z AUTO 16011KT 120V190 9999 NCD 26/12 Q1010=
201405231424 METAR ESMX 231424Z 15012KT 110V190 CAVOK 26/12 Q1010=
201405231420 METAR ESMX 231420Z AUTO 15012G23KT 130V190 9999 NCD 26/12 Q1010=
201405231350 METAR ESMX 231350Z 16013KT 120V190 CAVOK 27/11 Q1010=
201405231320 METAR ESMX 231320Z AUTO 16012KT 120V190 9999 FEW053/// 28/11 Q1010=
201405231250 METAR ESMX 231250Z 16010KT 110V190 CAVOK 27/11 Q1010=
201405231223 METAR ESMX 231223Z 16010G20KT 110V200 CAVOK 28/12 Q1010=
201405231220 METAR ESMX 231220Z AUTO VRB09G19KT 020V200 9999 FEW060/// 28/11 Q1010=
201405231150 METAR ESMX 231150Z 16010KT CAVOK 27/13 Q1010=
201405231120 METAR ESMX 231120Z 15009KT 090V190 CAVOK 27/12 Q1010=
201405231050 METAR ESMX 231050Z AUTO 16010KT 110V190 9999 NCD 26/13 Q1010=
201405231023 METAR ESMX 231023Z 14010KT 100V160 CAVOK 26/13 Q1010=
201405231020 METAR ESMX 231020Z AUTO 14009KT 100V170 9999 NCD 26/14 Q1010=
201405230950 METAR ESMX 230950Z 13009KT 070V180 CAVOK 25/13 Q1010=
201405230920 METAR ESMX 230920Z 12008KT 080V160 CAVOK 24/14 Q1011=
201405230850 METAR ESMX 230850Z AUTO 14007KT 080V190 9999 NCD 23/14 Q1011=
201405230820 METAR ESMX 230820Z AUTO 12008KT 9999 NCD 23/13 Q1011=
201405230750 METAR ESMX 230750Z 12008KT 080V170 CAVOK 22/13 Q1011=
201405230720 METAR ESMX 230720Z AUTO 14007KT 080V170 9999 FEW084/// 21/13 Q1011=
201405230650 METAR ESMX 230650Z 14007G17KT 090V170 CAVOK 20/13 Q1011=
201405230620 METAR ESMX 230620Z AUTO 12006KT 060V160 9999 FEW073/// BKN086/// 19/13 Q1011=
201405230550 METAR ESMX 230550Z 13006KT 070V180 CAVOK 19/12 Q1011=
201405230520 METAR ESMX 230520Z 13006KT 090V170 CAVOK 19/12 Q1011=
201405230450 METAR ESMX 230450Z 14006KT 090V160 CAVOK 18/12 Q1011=
201405230420 METAR COR ESMX 230420Z 12005KT 060V190 CAVOK 18/12 Q1011=
201405230350 METAR ESMX 230350Z AUTO 12004KT 080V160 9999 FEW079/// 17/12 Q1011=
201405230320 METAR ESMX 230320Z AUTO 11004KT 080V150 9999 SCT073/// 17/11 Q1011=
201405230250 METAR ESMX 230250Z AUTO 12004KT 080V150 9999 FEW072/// 17/11 Q1011=
201405230220 METAR ESMX 230220Z AUTO 11004KT 080V140 9999 NCD 16/11 Q1011=
201405230150 METAR ESMX 230150Z AUTO 11004KT 080V150 9999 NCD 17/11 Q1012=
201405230120 METAR ESMX 230120Z AUTO 10004KT 070V130 9999 NCD 17/11 Q1012=
201405230050 METAR ESMX 230050Z AUTO 12004KT 090V150 9999 NCD 17/10 Q1012=
201405230020 METAR ESMX 230020Z 12004KT 090V160 CAVOK 18/10 Q1012=
201405222350 METAR ESMX 222350Z 12004KT 070V160 CAVOK 18/10 Q1013=
201405222320 METAR COR ESMX 222320Z 13004KT 090V170 CAVOK 18/10 Q1013=
201405222250 METAR ESMX 222250Z 11004KT 070V140 CAVOK 17/10 Q1013=
201405222220 METAR COR ESMX 222220Z 10003KT CAVOK 17/10 Q1013=
201405222150 METAR ESMX 222150Z VRB03KT CAVOK 18/10 Q1013=
201405222120 METAR ESMX 222120Z 10004KT 050V150 CAVOK 19/11 Q1013=
201405222050 METAR ESMX 222050Z 12004KT 060V160 CAVOK 20/11 Q1013=
201405222020 METAR COR ESMX 222020Z 11004KT 080V150 CAVOK 20/11 Q1013=
201405221950 METAR ESMX 221950Z 11004KT 060V150 CAVOK 21/11 Q1013=
201405221920 METAR ESMX 221920Z 11005KT 070V150 CAVOK 22/11 Q1013=
201405221850 METAR ESMX 221850Z 12006KT 080V160 CAVOK 23/11 Q1013=
201405221820 METAR ESMX 221820Z 14006KT 070V170 CAVOK 24/11 Q1013=
201405221750 METAR COR ESMX 221750Z 15009KT 110V190 CAVOK 25/11 Q1013=
201405221720 METAR COR ESMX 221720Z 15010KT 110V180 CAVOK 25/10 Q1013=
201405221650 METAR ESMX 221650Z 15011KT 100V180 CAVOK 26/09 Q1013=
201405221620 METAR ESMX 221620Z 16014KT 120V180 CAVOK 26/09 Q1013=
201405221550 METAR ESMX 221550Z 17014KT 140V200 CAVOK 26/09 Q1014=
201405221520 METAR ESMX 221520Z 16013G24KT CAVOK 26/09 Q1014=
201405221450 METAR ESMX 221450Z AUTO 17014KT 120V190 9999 NCD 26/09 Q1014=
201405221420 METAR ESMX 221420Z 16015G25KT CAVOK 26/08 Q1014=
201405221350 METAR ESMX 221350Z 16012KT CAVOK 27/08 Q1014=
201405221320 METAR ESMX 221320Z AUTO 14014G25KT 110V170 9999 FEW071/// 27/09 Q1014=
201405221250 METAR ESMX 221250Z AUTO 15013KT 120V190 9999 FEW068/// 26/09 Q1014=
201405221220 METAR ESMX 221220Z 16015KT CAVOK 26/09 Q1014=
201405221150 METAR ESMX 221150Z 16015KT 120V190 9999 FEW043 SCT062 27/10 Q1014=
201405221120 METAR ESMX 221120Z 16015G25KT 120V190 9999 FEW028 SCT032 27/10 Q1014=
201405221050 METAR ESMX 221050Z 16013KT 110V190 9999 FEW030 26/10 Q1014=
201405221020 METAR ESMX 221020Z 17011KT 9999 FEW030 26/11 Q1015=
201405220950 METAR ESMX 220950Z 15012KT 9999 SCT030 25/11 Q1015=
201405220920 METAR ESMX 220920Z 16011KT 110V190 CAVOK 25/11 Q1015=
201405220850 METAR ESMX 220850Z 15011KT 070V180 CAVOK 24/12 Q1015=
201405220820 METAR ESMX 220820Z 14009KT 110V170 CAVOK 24/12 Q1015=
201405220750 METAR ESMX 220750Z 12007KT 080V160 CAVOK 22/12 Q1015=
201405220720 METAR ESMX 220720Z 13006KT 060V170 CAVOK 21/12 Q1015=
201405220650 METAR ESMX 220650Z 12006KT 070V170 CAVOK 20/12 Q1015=
201405220620 METAR ESMX 220620Z 12004KT CAVOK 19/12 Q1015=
201405220550 METAR ESMX 220550Z 12005KT 090V150 CAVOK 18/11 Q1015=
201405220520 METAR ESMX 220520Z 12006KT 100V170 CAVOK 17/11 Q1015=
201405220450 METAR COR ESMX 220450Z 13006KT 100V160 CAVOK 16/11 Q1015=
201405220420 METAR ESMX 220420Z 13005KT 100V170 CAVOK 16/10 Q1015=
201405220350 METAR ESMX 220350Z 12005KT 080V150 CAVOK 15/09 Q1015=
201405220320 METAR ESMX 220320Z AUTO 13004KT 9999 NCD 14/09 Q1015=
201405220250 METAR ESMX 220250Z AUTO 14004KT 9999 NCD 14/08 Q1015=
201405220220 METAR ESMX 220220Z AUTO 13005KT 100V160 9999 NCD 13/08 Q1015=
201405220150 METAR ESMX 220150Z AUTO 12004KT 9999 NCD 13/09 Q1015=
201405220120 METAR ESMX 220120Z AUTO 12003KT 9999 NCD 14/09 Q1016=
201405220050 METAR ESMX 220050Z AUTO 13004KT 9999 NCD 14/09 Q1016=
201405220020 METAR ESMX 220020Z AUTO 14005KT 9999 NCD 15/09 Q1016=
201405212350 METAR ESMX 212350Z 14006KT 110V170 CAVOK 15/09 Q1017=
201405212320 METAR ESMX 212320Z 14006KT CAVOK 15/09 Q1016=
201405212250 METAR ESMX 212250Z 14006KT CAVOK 16/10 Q1016=
201405212220 METAR ESMX 212220Z 14006KT CAVOK 16/10 Q1016=
201405212150 METAR ESMX 212150Z 14004KT CAVOK 15/10 Q1017=
201405212120 METAR ESMX 212120Z 15004KT CAVOK 14/11 Q1017=
201405212050 METAR ESMX 212050Z 15003KT CAVOK 15/11 Q1017=
201405212020 METAR ESMX 212020Z 15003KT CAVOK 14/11 Q1017=
201405211950 METAR ESMX 211950Z 19004KT CAVOK 16/11 Q1017=
201405211920 METAR ESMX 211920Z 16005KT CAVOK 19/11 Q1016=
201405211850 METAR ESMX 211850Z 15006KT CAVOK 20/11 Q1016=
201405211820 METAR ESMX 211820Z 16005KT CAVOK 20/11 Q1016=
201405211750 METAR ESMX 211750Z 16006KT CAVOK 21/11 Q1016=
201405211720 METAR ESMX 211720Z 16008KT CAVOK 21/11 Q1016=
201405211650 METAR ESMX 211650Z 16008KT 130V200 CAVOK 22/11 Q1016=
201405211620 METAR COR ESMX 211620Z 17007KT 130V210 CAVOK 22/11 Q1016=
201405211550 METAR ESMX 211550Z 17008KT CAVOK 22/11 Q1016=
201405211520 METAR ESMX 211520Z 16009KT 120V190 CAVOK 22/11 Q1016=
201405211450 METAR ESMX 211450Z 17010KT 9999 SCT040 23/11 Q1016=
201405211420 METAR ESMX 211420Z 16010KT 130V190 9999 SCT039 24/11 Q1016=
201405211350 METAR ESMX 211350Z 20012KT 9999 FEW030 SCT049 24/12 Q1016=
201405211320 METAR ESMX 211320Z 17008KT 9999 FEW046 SCT052 24/11 Q1016=
201405211250 METAR ESMX 211250Z 16008KT 100V190 9999 SCT049 24/11 Q1016=
201405211220 METAR ESMX 211220Z 16007KT 110V190 9999 SCT049 23/10 Q1016=
201405211150 METAR ESMX 211150Z 13007KT 080V180 CAVOK 24/11 Q1017=
201405211120 METAR ESMX 211120Z 17007KT 120V210 CAVOK 23/10 Q1017=
201405211050 METAR ESMX 211050Z 21007KT 160V260 CAVOK 23/09 Q1017=
201405211020 METAR ESMX 211020Z 16007KT 130V200 CAVOK 22/08 Q1017=
201405210950 METAR ESMX 210950Z 17006KT 110V220 CAVOK 22/09 Q1017=
201405210920 METAR ESMX 210920Z 15005KT 070V200 CAVOK 21/09 Q1017=
201405210853 METAR ESMX 210853Z VRB05KT 330V210 CAVOK 21/10 Q1017=
201405210850 METAR ESMX 210850Z AUTO 15006KT 090V200 9999 NCD 21/09 Q1017=
201405210820 METAR ESMX 210820Z 14004KT 070V220 CAVOK 20/11 Q1017=
201405210750 METAR ESMX 210750Z 15005KT 110V190 CAVOK 19/11 Q1017=
201405210720 METAR ESMX 210720Z 13004KT 090V200 CAVOK 19/12 Q1017=
201405210650 METAR ESMX 210650Z VRB03KT CAVOK 18/12 Q1017=
201405210620 METAR ESMX 210620Z AUTO VRB01KT 9999 NCD 17/12 Q1017=
201405210550 METAR ESMX 210550Z AUTO 00000KT 9999 NCD 15/12 Q1017=
201405210520 METAR COR ESMX 210520Z 00000KT CAVOK 14/12 Q1017=
201405210450 METAR ESMX 210450Z 00000KT 9999 VCFG NSC 12/11 Q1017=
201405210420 METAR ESMX 210420Z 00000KT 1900 R01/P2000 R19/P2000 BCFG SCT002 09/09 Q1017=
201405210350 METAR ESMX 210350Z AUTO 00000KT 0100 R01/0350V0700U R19/0175V0275N BCFG VV000 07/07 Q1017=
201405210320 METAR ESMX 210320Z AUTO 00000KT 0100 R01/0350V1100U R19/0200V0750U BCFG VV000 06/06 Q1017=
201405210250 METAR ESMX 210250Z AUTO 17002KT 0100 R01/0250V0350N R19/0400V0650N BCFG SCT000/// 07/06 Q1017=
201405210220 METAR ESMX 210220Z AUTO 00000KT 0250 R01/0375V0550N R19/P2000N BCFG FEW001/// 06/06 Q1017=
201405210150 METAR ESMX 210150Z AUTO 18002KT 0150 R01/0300V0900U R19/0450V0750N BCFG NCD 07/06 Q1017=
201405210120 METAR ESMX 210120Z AUTO 18002KT 0250 R01/P2000N R19/P2000N BCFG NCD 07/07 Q1017=
201405210050 METAR ESMX 210050Z AUTO 36002KT 0800 R01/P2000N R19/P2000N BCFG NCD 07/06 Q1017=
201405210020 METAR ESMX 210020Z AUTO 00000KT 0650 R01/P2000N R19/P2000N BCFG NCD 07/07 Q1017=
201405202350 METAR ESMX 202350Z 00000KT 1100 R01/P2000N R19/P2000N BCFG NSC 08/07 Q1017=
201405202320 METAR ESMX 202320Z AUTO 00000KT 1100 R01/P2000N R19/P2000N BR NCD 08/07 Q1017=
201405202250 METAR ESMX 202250Z AUTO VRB01KT 4200 NCD 09/08 Q1017=
201405202220 METAR ESMX 202220Z 19003KT CAVOK 09/09 Q1017=
201405202150 METAR ESMX 202150Z 00000KT CAVOK 09/08 Q1017=
201405202120 METAR ESMX 202120Z 00000KT CAVOK 10/09 Q1017=
201405202050 METAR ESMX 202050Z 21002KT CAVOK 11/09 Q1016=
201405202020 METAR ESMX 202020Z 18002KT 9999 MIFG NSC 11/10 Q1016=
201405201950 METAR ESMX 201950Z 17002KT 9999 MIFG FEW080 13/11 Q1016=
201405201920 METAR ESMX 201920Z 00000KT CAVOK 13/11 Q1016=
201405201850 METAR ESMX 201850Z 00000KT CAVOK 16/11 Q1016=
201405201820 METAR ESMX 201820Z 00000KT CAVOK 18/11 Q1016=
201405201750 METAR ESMX 201750Z 05002KT CAVOK 18/11 Q1016=
201405201720 METAR ESMX 201720Z AUTO 03002KT 9999 NCD 17/11 Q1016=
201405201650 METAR ESMX 201650Z 11003KT 9999 FEW040 19/09 Q1016=
201405201620 METAR ESMX 201620Z AUTO 36004KT 9999 FEW076/// 19/09 Q1016=
201405201550 METAR ESMX 201550Z VRB03KT 9999 SCT040 20/10 Q1016=
201405201520 METAR COR ESMX 201520Z 32004KT 280V350 9999 FEW040 19/09 Q1016=
201405201450 METAR ESMX 201450Z 36004KT 9999 FEW040 18/10 Q1016=
201405201420 METAR ESMX 201420Z 36005KT 9999 SCT035 19/10 Q1016=
201405201350 METAR ESMX 201350Z 36006KT 330V030 9999 FEW040 18/10 Q1017=
201405201320 METAR ESMX 201320Z 01006KT 9999 FEW038 17/10 Q1017=
201405201250 METAR ESMX 201250Z 36006KT 9999 FEW039 17/11 Q1017=
201405201220 METAR ESMX 201220Z 30005KT 250V030 9999 SCT027 17/11 Q1017=
201405201150 METAR ESMX 201150Z 29004KT 240V340 9999 SCT026 16/10 Q1017=
201405201120 METAR ESMX 201120Z 01003KT 320V040 9999 FEW024 SCT028 BKN052 16/10 Q1017=
201405201050 METAR ESMX 201050Z 35005KT 310V020 9999 FEW021 SCT025 15/10 Q1017=
201405201020 METAR ESMX 201020Z AUTO 34005KT 9999 BKN018/// 16/11 Q1017=
201405200950 METAR ESMX 200950Z 20004KT 150V290 9999 BKN015 BKN020 15/10 Q1017=
201405200920 METAR ESMX 200920Z 06003KT 330V140 9999 BKN012 14/10 Q1017=
201405200850 METAR ESMX 200850Z 03001KT 9999 OVC011 14/10 Q1017=
201405200820 METAR ESMX 200820Z VRB02KT 9999 OVC010 13/10 Q1016=
201405200750 METAR ESMX 200750Z VRB02KT 9999 OVC010 12/09 Q1016=
201405200720 METAR ESMX 200720Z VRB03KT 9999 OVC008 12/10 Q1016=
201405200650 METAR ESMX 200650Z VRB02KT 9999 OVC008 12/09 Q1016=
201405200620 METAR ESMX 200620Z 25004KT 220V280 9999 FEW005 BKN007 OVC009 11/10 Q1016=
201405200550 METAR ESMX 200550Z 25004KT 9999 FEW005 BKN006 OVC009 11/10 Q1016=
201405200520 METAR ESMX 200520Z VRB03KT 9999 OVC005 11/10 Q1015=
201405200450 METAR ESMX 200450Z AUTO 21006KT 9999 FEW006/// OVC007/// 11/09 Q1015=
201405200420 METAR ESMX 200420Z 23005KT 8000 BR OVC008 11/10 Q1015=
201405200350 METAR ESMX 200350Z 21003KT 170V240 4000 BR FEW003 BKN010 10/09 Q1015=
201405200320 METAR ESMX 200320Z AUTO 17003KT 0400 R01/0900VP2000N R19/0800VP2000N BR FEW014/// 09/08 Q1015=
201405200250 METAR ESMX 200250Z AUTO 19005KT 2900 BR NCD 10/09 Q1015=
201405200220 METAR ESMX 200220Z AUTO 14006KT 5000 BR FEW004/// SCT017/// 11/10 Q1014=
201405200150 METAR ESMX 200150Z AUTO 17005KT 2500 BR FEW005/// 11/10 Q1014=
201405200120 METAR ESMX 200120Z AUTO 16004KT 8000 BR BKN029/// 11/10 Q1014=
201405200050 METAR ESMX 200050Z AUTO 17003KT 8000 BR OVC029/// 11/10 Q1014=
201405200020 METAR ESMX 200020Z AUTO 19004KT 140V200 7000 BR FEW006/// SCT008/// BKN028/// 11/10 Q1014=
201405192350 METAR ESMX 192350Z 17005KT 9999 FEW007 BKN022 11/10 Q1013=
201405192320 METAR ESMX 192320Z 16006KT 9999 SCT007 BKN023 12/10 Q1013=
201405192250 METAR ESMX 192250Z 16006KT 9000 BR FEW006 SCT008 BKN024 12/11 Q1013=
201405192220 METAR ESMX 192220Z 16006KT 9999 FEW006 SCT014 BKN016 12/11 Q1013=
201405192150 METAR ESMX 192150Z 15006KT 9999 FEW006 SCT010 OVC020 12/11 Q1013=
201405192120 METAR ESMX 192120Z 16006KT 120V190 9999 SCT007 BKN012 12/11 Q1013=
201405192050 METAR ESMX 192050Z 15004KT 9999 SCT007 BKN016 12/11 Q1013=
201405192023 METAR ESMX 192023Z 16006KT 9999 FEW005 SCT008 BKN015 12/11 Q1013=
201405192020 METAR ESMX 192020Z AUTO 16006KT 9999 FEW005/// SCT007/// BKN010/// 12/11 Q1013=
201405191950 METAR ESMX 191950Z 17005KT 9999 SCT006 BKN008 12/11 Q1013=
201405191920 METAR ESMX 191920Z VRB03KT 9999 FEW009 SCT014 BKN031 12/11 Q1013=
201405191850 METAR ESMX 191850Z VRB03KT 9999 FEW030 BKN090 12/11 Q1012=
201405191820 METAR ESMX 191820Z 08002KT CAVOK 12/11 Q1012=
201405191750 METAR ESMX 191750Z 00000KT CAVOK 12/11 Q1012 RESHRA=
201405191720 METAR ESMX 191720Z 20006KT 9999 -RA FEW007 SCT039 BKN050 12/11 Q1012=
201405191650 METAR ESMX 191650Z 16008KT 100V190 6000 TS SHRA FEW005 SCT015 BKN042 12/11 Q1013=
201405191620 METAR ESMX 191620Z 18006KT 140V210 6000 TS SHRA FEW002 SCT030 BKN038 13/12 Q1012=
201405191550 METAR ESMX 191550Z VRB02KT 9999 TS BKN031 BKN088 14/12 Q1012 RERA=
201405191520 METAR ESMX 191520Z 22004KT 190V260 9999 TS -SHRA FEW025 BKN037 14/12 Q1012=
201405191450 METAR ESMX 191450Z 19010KT 9999 TS SCT033 BKN041 14/12 Q1012=
201405191420 METAR ESMX 191420Z 16010KT 9999 TS SHRA SCT033 BKN043 15/12 Q1012=
201405191350 METAR ESMX 191350Z 08006KT 040V120 9999 SCT045CB 19/11 Q1011=
201405191320 METAR ESMX 191320Z 03006KT 360V080 9999 FEW041 SCT056 19/12 Q1012=
201405191250 METAR ESMX 191250Z VRB04KT 260V140 9999 SCT042 BKN048 21/11 Q1012=
201405191220 METAR ESMX 191220Z 03004KT 350V070 9999 SCT040 19/11 Q1012=
201405191150 METAR ESMX 191150Z 03008KT 9999 FEW025 SCT037 19/11 Q1013=
201405191120 METAR ESMX 191120Z 04004KT 360V100 9999 SCT037 19/11 Q1013=
201405191050 METAR ESMX 191050Z 02004KT 330V080 9999 FEW030 SCT045 20/11 Q1013=
201405191020 METAR ESMX 191020Z VRB04KT 330V150 CAVOK 19/13 Q1013=
201405190950 METAR ESMX 190950Z 07003KT 340V120 9999 SCT020 18/12 Q1014=
201405190920 METAR ESMX 190920Z 03002KT 9999 SCT015 18/12 Q1014=
201405190850 METAR ESMX 190850Z 01004KT 330V080 9999 FEW009 16/12 Q1014=
201405190820 METAR ESMX 190820Z 34006KT 300V020 9999 SCT004 15/12 Q1014=
201405190750 METAR ESMX 190750Z 06004KT 020V090 9999 BKN004 14/12 Q1015=
201405190720 METAR COR ESMX 190720Z 03005KT 360V070 9999 OVC003 13/11 Q1015=
201405190650 METAR ESMX 190650Z 07004KT 040V120 9999 OVC002 12/11 Q1015=
201405190620 METAR ESMX 190620Z 08005KT 050V120 9000 BR OVC002 12/11 Q1015=
201405190550 METAR ESMX 190550Z 05005KT 020V080 3900 BR OVC002 11/10 Q1015=
201405190520 METAR ESMX 190520Z 05005KT 020V080 4300 BR OVC002 11/10 Q1015=
201405190450 METAR ESMX 190450Z 07004KT 040V110 2700 BR OVC001 11/10 Q1015=
201405190420 METAR ESMX 190420Z 07004KT 020V100 2400 BR OVC001 10/10 Q1015=
201405190350 METAR ESMX 190350Z 06005KT 020V110 3400 BR OVC001 10/10 Q1015=
201405190320 METAR ESMX 190320Z AUTO 06005KT 020V110 2900 BR VV002 10/10 Q1015=
201405190250 METAR ESMX 190250Z AUTO 06004KT 020V120 2600 BR OVC001/// 11/10 Q1015=
201405190220 METAR ESMX 190220Z AUTO 09005KT 040V130 1700 BR VV002 11/10 Q1015=
201405190150 METAR ESMX 190150Z AUTO 06004KT 010V100 1900 BR VV002 11/10 Q1015=
201405190120 METAR ESMX 190120Z AUTO 08003KT 040V110 1200 R01/P2000N R19/P2000N VV002 11/10 Q1015=
201405190050 METAR ESMX 190050Z AUTO 04004KT 1500 VV001 11/10 Q1015=
201405190020 METAR ESMX 190020Z AUTO 08004KT 050V110 0750 R01/1700VP2000N R19/P2000N FG VV001 11/10 Q1015=
201405182350 METAR ESMX 182350Z AUTO VRB03KT 0400 R01/1000V1300D R19/P2000N FG OVC001/// 11/10 Q1015=
201405182320 METAR ESMX 182320Z 09004KT 040V140 0800 R01/1600VP2000N R19/P2000N FG VV002 11/10 Q1015=
201405182250 METAR ESMX 182250Z 09004KT 050V140 0900 R01/P2000N R19/P2000N FG VV002 11/10 Q1016=
201405182220 METAR ESMX 182220Z 07004KT 030V120 0750 R01/1700VP2000N R19/P2000N FG VV002 11/10 Q1016=
201405182150 METAR ESMX 182150Z 11005KT 070V150 0800 R01/P2000N R19/P2000N FG VV002 11/10 Q1016=
201405182120 METAR ESMX 182120Z AUTO 10004KT 070V150 1600 BR OVC001/// 11/10 Q1016=
201405182050 METAR ESMX 182050Z 10004KT 050V120 3400 BR OVC002 11/10 Q1016=
201405182020 METAR ESMX 182020Z 10007KT 070V130 7000 BR OVC003 11/10 Q1016=
201405181950 METAR ESMX 181950Z 09005KT 060V140 9999 OVC004 12/10 Q1015=
201405181920 METAR ESMX 181920Z 09005KT 050V110 9999 OVC006 12/10 Q1015=
201405181850 METAR ESMX 181850Z 09004KT 050V120 9999 SCT008 BKN011 12/10 Q1015=
201405181820 METAR ESMX 181820Z 08004KT 040V110 9999 BKN014 12/10 Q1015=
201405181750 METAR ESMX 181750Z 06005KT 030V100 9999 SCT015 13/10 Q1015=
201405181720 METAR ESMX 181720Z 06005KT 360V110 9999 SCT021 13/10 Q1015=
201405181650 METAR ESMX 181650Z 04007KT 020V080 9999 SCT021 13/10 Q1015=
201405181620 METAR ESMX 181620Z 05007KT 9999 FEW041 13/10 Q1015=
201405181550 METAR ESMX 181550Z 02005KT 9999 BKN036 11/10 Q1015=
201405181520 METAR ESMX 181520Z VRB02KT 6000 RA FEW033 BKN040 11/10 Q1016=
201405181450 METAR ESMX 181450Z 01008KT 9000 RA FEW025 BKN040 11/10 Q1015=
201405181420 METAR ESMX 181420Z 34006KT 9000 RA BKN045 11/10 Q1015=
201405181350 METAR ESMX 181350Z 36005KT 8000 -RA FEW036 BKN045 11/10 Q1016=
201405181320 METAR ESMX 181320Z 36007KT 9000 -RA BKN045 12/10 Q1016=
201405181250 METAR ESMX 181250Z 02010KT 9999 -RA BKN044 12/09 Q1016=
201405181220 METAR ESMX 181220Z AUTO 03008KT 9999 RA BKN050/// 13/09 Q1016=
201405181150 METAR ESMX 181150Z AUTO 06010KT 020V090 9999 -RA FEW056/// 14/08 Q1016=
201405181120 METAR ESMX 181120Z AUTO 05009KT 010V090 9999 FEW059/// SCT100/// 18/05 Q1016=
201405181050 METAR ESMX 181050Z AUTO 04009KT 010V070 9999 FEW092/// 17/05 Q1016=
201405181020 METAR ESMX 181020Z AUTO 04011KT 9999 SCT100/// 17/04 Q1017=
201405180950 METAR ESMX 180950Z AUTO 04010KT 9999 NCD 18/03 Q1017=
201405180920 METAR ESMX 180920Z AUTO 01009KT 9999 NCD 17/04 Q1017=
201405180850 METAR ESMX 180850Z AUTO 03009KT 9999 FEW050/// 17/03 Q1017=
201405180820 METAR ESMX 180820Z AUTO 03009KT 360V080 9999 FEW097/// 17/03 Q1017=
201405180750 METAR ESMX 180750Z AUTO 04009KT 9999 FEW085/// 16/03 Q1017=
201405180720 METAR ESMX 180720Z AUTO 04008KT 9999 NCD 15/04 Q1017=
201405180650 METAR ESMX 180650Z AUTO 03007KT 9999 NCD 14/05 Q1017=
201405180620 METAR ESMX 180620Z AUTO 03006KT 9999 NCD 13/06 Q1018=
201405180550 METAR ESMX 180550Z AUTO 02006KT 9999 NCD 13/06 Q1018=
201405180520 METAR ESMX 180520Z AUTO 03005KT 9999 NCD 12/07 Q1018=
201405180450 METAR ESMX 180450Z AUTO 01005KT 9999 NCD 11/08 Q1017=
201405180420 METAR ESMX 180420Z AUTO 06003KT 9999 NCD 09/07 Q1018=
201405180350 METAR ESMX 180350Z AUTO 34006KT 9999 NCD 07/05 Q1018=
201405180320 METAR ESMX 180320Z AUTO VRB02KT 9999 NCD 05/04 Q1018=
201405180250 METAR ESMX 180250Z AUTO 01002KT 9999 NCD 06/04 Q1018=
201405180220 METAR ESMX 180220Z AUTO 36003KT 9999 NCD 05/04 Q1018=
201405180150 METAR ESMX 180150Z AUTO 02003KT 9999 NCD 05/04 Q1019=
201405180120 METAR ESMX 180120Z AUTO VRB02KT 9999 NCD 06/04 Q1019=
201405180050 METAR ESMX 180050Z AUTO 00000KT 9999 NCD 06/03 Q1019=
201405180020 METAR ESMX 180020Z AUTO 00000KT 9999 NCD 07/04 Q1019=
201405172350 METAR ESMX 172350Z AUTO 00000KT 9999 NCD 07/05 Q1019=
201405172320 METAR ESMX 172320Z AUTO VRB01KT 9999 NCD 08/04 Q1019=
201405172250 METAR ESMX 172250Z AUTO 13002KT 9999 NCD 09/05 Q1019=
201405172220 METAR ESMX 172220Z AUTO 14003KT 9999 NCD 11/04 Q1019=
201405172150 METAR ESMX 172150Z AUTO 17004KT 9999 NCD 13/04 Q1019=
201405172120 METAR ESMX 172120Z AUTO 18006KT 9999 NCD 13/04 Q1019=
201405172050 METAR ESMX 172050Z AUTO 18008KT 9999 NCD 14/05 Q1019=
201405172020 METAR ESMX 172020Z AUTO 16009KT 9999 NCD 16/06 Q1019=
201405171950 METAR ESMX 171950Z AUTO 16007KT 9999 SCT063/// 17/08 Q1019=
201405171920 METAR ESMX 171920Z AUTO 13006KT 100V160 9999 BKN062/// 19/08 Q1019=
201405171850 METAR ESMX 171850Z AUTO 00000KT 9999 SCT061/// 18/10 Q1019=
201405171820 METAR ESMX 171820Z AUTO 31003KT 9999 NCD 21/08 Q1019=
201405171750 METAR ESMX 171750Z AUTO 32004KT 290V360 9999 FEW065/// 21/07 Q1019=
201405171720 METAR ESMX 171720Z AUTO 34004KT 310V010 9999 NCD 22/07 Q1019=
201405171650 METAR ESMX 171650Z AUTO 30004KT 260V330 9999 NCD 22/07 Q1019=
201405171620 METAR ESMX 171620Z AUTO 30004KT 250V360 9999 NCD 22/06 Q1019=
201405171550 METAR ESMX 171550Z AUTO 26006KT 9999 NCD 22/06 Q1019=
201405171520 METAR ESMX 171520Z AUTO 36004KT 330V030 9999 NCD 22/06 Q1020=
201405171450 METAR ESMX 171450Z AUTO VRB03KT 9999 NCD 22/07 Q1020=
201405171420 METAR ESMX 171420Z AUTO 05004KT 010V080 9999 NCD 20/07 Q1020=
201405171350 METAR ESMX 171350Z AUTO VRB04KT 170V030 9999 NCD 22/06 Q1020=
201405171320 METAR ESMX 171320Z AUTO 06003KT 9999 NCD 21/06 Q1020=
201405171250 METAR ESMX 171250Z AUTO 01007KT 320V080 9999 NCD 20/07 Q1021=
201405171220 METAR ESMX 171220Z AUTO 03004KT 260V070 9999 NCD 21/07 Q1021=
201405171150 METAR ESMX 171150Z AUTO 34005KT 300V360 9999 NCD 20/07 Q1021=
201405171120 METAR ESMX 171120Z AUTO VRB03KT 140V070 9999 NCD 21/08 Q1021=
201405171050 METAR ESMX 171050Z AUTO 35002KT 9999 NCD 19/08 Q1022=
201405171020 METAR ESMX 171020Z AUTO 35004KT 310V050 9999 NCD 18/09 Q1022=
201405170950 METAR ESMX 170950Z AUTO 03004KT 350V070 9999 NCD 20/08 Q1022=
201405170920 METAR ESMX 170920Z AUTO 03004KT 320V120 9999 NCD 19/09 Q1022=
201405170850 METAR ESMX 170850Z AUTO VRB03KT 9999 NCD 19/09 Q1023=
201405170820 METAR ESMX 170820Z 35003KT 290V030 CAVOK 19/09 Q1023=
201405170750 METAR ESMX 170750Z VRB03KT CAVOK 17/09 Q1023=
201405170720 METAR ESMX 170720Z VRB03KT CAVOK 16/09 Q1024=
201405170650 METAR ESMX 170650Z VRB01KT CAVOK 15/08 Q1023=
201405170620 METAR ESMX 170620Z VRB03KT CAVOK 14/08 Q1024=
201405170550 METAR ESMX 170550Z 34004KT 290V010 CAVOK 13/07 Q1023=
201405170520 METAR ESMX 170520Z AUTO 36004KT 320V030 9999 NCD 12/07 Q1023=
201405170450 METAR ESMX 170450Z AUTO 35003KT 9999 NCD 11/08 Q1023=
201405170420 METAR ESMX 170420Z AUTO VRB02KT 9999 NCD 08/08 Q1023=
201405170350 METAR ESMX 170350Z AUTO 33003KT 9999 NCD 06/05 Q1023=
201405170320 METAR ESMX 170320Z AUTO 00000KT 9999 NCD 05/04 Q1023=
201405170250 METAR ESMX 170250Z AUTO 00000KT 9999 NCD 05/04 Q1023=
201405170220 METAR ESMX 170220Z AUTO 00000KT 9999 NCD 06/05 Q1024=
201405170150 METAR ESMX 170150Z AUTO 29003KT 9999 NCD 06/05 Q1024=
201405170120 METAR ESMX 170120Z AUTO 30002KT 9999 NCD 07/06 Q1024=
201405170050 METAR ESMX 170050Z AUTO 31003KT 9999 NCD 07/06 Q1024=
201405170020 METAR ESMX 170020Z AUTO 32004KT 9999 NCD 08/06 Q1024=
201405162350 METAR ESMX 162350Z AUTO VRB03KT 9999 NCD 09/06 Q1024=
201405162320 METAR ESMX 162320Z AUTO 31003KT 9999 NCD 10/07 Q1025=
201405162250 METAR ESMX 162250Z AUTO 29005KT 9999 NCD 11/07 Q1025=
201405162220 METAR ESMX 162220Z AUTO 29006KT 9999 FEW050/// 11/08 Q1025=
201405162150 METAR ESMX 162150Z AUTO 27006KT 9999 FEW050/// 12/08 Q1025=
201405162120 METAR ESMX 162120Z AUTO 27007KT 9999 FEW048/// 13/09 Q1025=
201405162050 METAR ESMX 162050Z AUTO 26006KT 9999 SCT050/// 13/09 Q1025=
201405162020 METAR ESMX 162020Z 25004KT 220V290 CAVOK 14/09 Q1025=
201405161950 METAR ESMX 161950Z 25004KT CAVOK 15/09 Q1025=
201405161920 METAR ESMX 161920Z 25003KT CAVOK 16/09 Q1025=
201405161850 METAR ESMX 161850Z 28003KT CAVOK 17/09 Q1025=
201405161820 METAR ESMX 161820Z VRB03KT CAVOK 17/09 Q1025=
201405161750 METAR ESMX 161750Z VRB03KT CAVOK 18/08 Q1025=
201405161720 METAR ESMX 161720Z 02003KT 350V080 9999 SCT045 17/09 Q1025=
201405161650 METAR ESMX 161650Z 30004KT 270V340 9999 SCT048 18/08 Q1025=
201405161620 METAR ESMX 161620Z 29007KT 9999 SCT042 19/08 Q1025=
201405161550 METAR ESMX 161550Z 32007KT 280V360 9999 FEW043 19/08 Q1025=
201405161520 METAR ESMX 161520Z 32005KT 280V010 9999 FEW045 18/07 Q1025=
201405161450 METAR ESMX 161450Z 30008KT 250V340 9999 FEW041 18/08 Q1025=
201405161420 METAR ESMX 161420Z AUTO 29007KT 250V350 9999 SCT037/// 18/08 Q1026=
201405161350 METAR ESMX 161350Z 30007KT 260V350 9999 SCT037 18/07 Q1026=
201405161320 METAR ESMX 161320Z AUTO 30008KT 260V330 9999 SCT035/// 18/08 Q1026=
201405161250 METAR ESMX 161250Z 32007KT 260V350 9999 BKN033 16/08 Q1027=
201405161220 METAR ESMX 161220Z AUTO 28007KT 240V320 9999 BKN032/// 17/08 Q1027=
201405161150 METAR ESMX 161150Z 29005KT 240V350 9999 BKN030 17/09 Q1027=
201405161123 METAR ESMX 161123Z 28006KT 250V320 9999 BKN030 17/08 Q1028=
201405161120 METAR ESMX 161120Z AUTO 28007KT 250V310 9999 OVC030/// 17/08 Q1028=
201405161050 METAR ESMX 161050Z 29005KT 250V360 9999 FEW025 BKN030 16/08 Q1028=
201405161020 METAR ESMX 161020Z AUTO 29007KT 9999 FEW026/// SCT031/// 15/08 Q1028=
201405160950 METAR ESMX 160950Z AUTO 31005KT 250V010 9999 BKN024/// 15/08 Q1028=
201405160926 METAR ESMX 160926Z 30006KT 210V340 9999 BKN025 13/07 Q1029=
201405160920 METAR ESMX 160920Z AUTO 27006KT 230V320 9999 FEW022/// 14/07 Q1029=
201405160850 METAR ESMX 160850Z 28007KT 240V330 9999 FEW017 SCT020 13/07 Q1029=
201405160820 METAR ESMX 160820Z 27007KT 240V310 9999 BKN014 11/07 Q1029=
201405160750 METAR ESMX 160750Z 26005KT 210V290 9999 OVC012 10/07 Q1030=
201405160720 METAR ESMX 160720Z AUTO 25005KT 210V300 9999 OVC010/// 10/07 Q1030=
201405160650 METAR ESMX 160650Z 28006KT 9999 FEW009 OVC011 09/07 Q1030=
201405160620 METAR ESMX 160620Z 26007KT 230V290 9999 OVC010 09/07 Q1030=
201405160550 METAR ESMX 160550Z 28007KT 9999 BKN011 10/07 Q1030=
201405160520 METAR ESMX 160520Z 28007KT 250V310 CAVOK 10/07 Q1030=
201405160450 METAR ESMX 160450Z 27006KT CAVOK 09/06 Q1029=
201405160420 METAR ESMX 160420Z 27006KT CAVOK 08/07 Q1030=
201405160350 METAR ESMX 160350Z AUTO 24005KT 9999 NCD 07/06 Q1030=
201405160320 METAR ESMX 160320Z AUTO 24004KT 9999 NCD 06/05 Q1030=
201405160250 METAR ESMX 160250Z AUTO 24004KT 9999 FEW110/// 05/04 Q1030=
201405160220 METAR ESMX 160220Z AUTO 22004KT 9999 FEW110/// 06/04 Q1030=
201405160150 METAR ESMX 160150Z AUTO 23004KT 9999 NCD 05/04 Q1030=
201405160120 METAR ESMX 160120Z AUTO 22004KT 9999 NCD 05/03 Q1031=
201405160050 METAR ESMX 160050Z AUTO 25003KT 9999 NCD 06/04 Q1031=
201405160020 METAR ESMX 160020Z 22004KT CAVOK 06/04 Q1031=
201405152350 METAR ESMX 152350Z 23004KT CAVOK 06/04 Q1031=
201405152320 METAR ESMX 152320Z 22005KT CAVOK 06/04 Q1032=
201405152250 METAR ESMX 152250Z 23006KT CAVOK 07/05 Q1032=
201405152220 METAR ESMX 152220Z AUTO 22006KT 9999 NCD 07/05 Q1032=
201405152150 METAR ESMX 152150Z 22005KT CAVOK 08/06 Q1032=
201405152120 METAR ESMX 152120Z AUTO 21006KT 9999 NCD 08/06 Q1032=
201405152050 METAR ESMX 152050Z 20006KT CAVOK 08/06 Q1032=
201405152020 METAR ESMX 152020Z 20006KT CAVOK 09/06 Q1032=
201405151950 METAR ESMX 151950Z 20006KT 9999 FEW038 11/07 Q1032=
201405151920 METAR ESMX 151920Z AUTO 20005KT 9999 NCD 12/07 Q1032=
201405151850 METAR ESMX 151850Z 23004KT CAVOK 12/06 Q1031=
201405151820 METAR ESMX 151820Z 27005KT CAVOK 14/06 Q1031=
201405151750 METAR ESMX 151750Z 29007KT CAVOK 14/06 Q1031=
201405151720 METAR ESMX 151720Z 29007KT 260V330 CAVOK 16/05 Q1031=
201405151650 METAR ESMX 151650Z 27008KT CAVOK 16/05 Q1031=
201405151620 METAR ESMX 151620Z 29007KT 260V330 CAVOK 16/06 Q1031=
201405151550 METAR ESMX 151550Z 28009KT CAVOK 15/05 Q1031=
201405151520 METAR ESMX 151520Z 19006KT CAVOK 15/04 Q1031=
201405151450 METAR COR ESMX 151450Z 21007KT CAVOK 16/03 Q1031=
201405151420 METAR ESMX 151420Z 20008KT 170V260 9999 FEW045 BKN079 16/04 Q1031=
201405151350 METAR ESMX 151350Z 18008KT 9999 FEW045 BKN073 16/04 Q1031=
201405151320 METAR ESMX 151320Z 23005KT 170V290 9999 FEW043 SCT070 17/04 Q1031=
201405151250 METAR ESMX 151250Z AUTO 20006KT 140V220 9999 FEW057/// 16/03 Q1031=
201405151220 METAR COR ESMX 151220Z 17005KT 080V210 9999 SCT040 17/01 Q1032=
201405151150 METAR ESMX 151150Z 24005KT 170V280 9999 FEW025 SCT045 16/00 Q1032=
201405151120 METAR ESMX 151120Z VRB05KT 360V360 9999 FEW030 SCT050 16/02 Q1032=
201405151050 METAR ESMX 151050Z 18004KT 120V240 9999 FEW025 SCT075 14/03 Q1032=
201405151020 METAR ESMX 151020Z VRB03KT 9999 FEW033 SCT040 15/03 Q1032=
201405150950 METAR ESMX 150950Z 03004KT 340V060 9999 FEW030 SCT050 13/05 Q1032=
201405150926 METAR ESMX 150926Z 34006KT 310V010 9999 FEW033 SCT050 13/05 Q1032=
201405150920 METAR ESMX 150920Z AUTO 01003KT 310V090 9999 FEW078/// 14/05 Q1032=
201405150850 METAR ESMX 150850Z AUTO VRB03KT 300V120 9999 NCD 14/05 Q1032=
201405150820 METAR ESMX 150820Z 20003KT 160V290 CAVOK 13/05 Q1032=
201405150750 METAR ESMX 150750Z 01004KT 290V060 CAVOK 13/04 Q1032=
201405150720 METAR ESMX 150720Z 16003KT CAVOK 12/05 Q1031=
201405150650 METAR ESMX 150650Z 15003KT 080V200 CAVOK 11/05 Q1031=
201405150620 METAR ESMX 150620Z VRB02KT CAVOK 09/06 Q1031=
201405150550 METAR ESMX 150550Z AUTO VRB02KT 9999 NCD 08/08 Q1031=
201405150520 METAR ESMX 150520Z AUTO 35004KT 0750 R01/0750V1000N R19/P2000N FG BKN000/// 07/06 Q1030=
201405150450 METAR ESMX 150450Z VRB02KT 0100 R01/0125V0650U R19/0400V0550N FG VV002 05/04 Q1030=
201405150420 METAR ESMX 150420Z 00000KT 0050 R01/0125V0200N R19/0250N FG VV002 02/02 Q1030=
201405150350 METAR ESMX 150350Z 17002KT 0200 R01/0375V0550N R19/0375V0500N FG VV002 02/01 Q1029=
201405150320 METAR ESMX 150320Z AUTO VRB01KT 0100 R01/P2000N R19/0150V0300N BCFG VV000 01/01 Q1029=
201405150250 METAR ESMX 150250Z AUTO 00000KT 0100 R01/P2000N R19/0250N BCFG VV000 M00/M01 Q1029=
201405150220 METAR ESMX 150220Z AUTO 00000KT 0350 R01/0800V1600U R19/P2000N BCFG NCD 01/00 Q1028=
201405150150 METAR ESMX 150150Z AUTO 17002KT 3400 NCD 01/01 Q1028=
201405150120 METAR ESMX 150120Z AUTO 16002KT 0750 R01/P2000N R19/P2000N BCFG NCD 02/01 Q1028=
201405150050 METAR ESMX 150050Z AUTO 00000KT 0700 R01/P2000N R19/P2000D BCFG NCD 02/02 Q1028=
201405150020 METAR ESMX 150020Z AUTO 00000KT 1100 R01/P2000N R19/P2000N BR NCD 02/01 Q1028=
201405142350 METAR ESMX 142350Z 00000KT CAVOK 03/02 Q1027=
201405142320 METAR ESMX 142320Z 12002KT CAVOK 03/02 Q1027=
201405142250 METAR ESMX 142250Z 18002KT CAVOK 05/04 Q1027=
201405142220 METAR ESMX 142220Z AUTO VRB02KT 6000 NCD 05/04 Q1026=
201405142150 METAR ESMX 142150Z 00000KT CAVOK 05/04 Q1026=
201405142120 METAR ESMX 142120Z 00000KT 9999 FEW046 06/05 Q1026=
201405142050 METAR ESMX 142050Z 00000KT 9999 FEW047 BKN058 08/06 Q1025=
201405142020 METAR ESMX 142020Z 00000KT 9999 FEW018 SCT021 BKN044 09/07 Q1025=
201405141950 METAR ESMX 141950Z AUTO 20004KT 170V230 9999 FEW021/// SCT025/// BKN030/// 09/07 Q1025=
201405141920 METAR COR ESMX 141920Z 17006KT 130V200 9999 FEW018CB BKN025 10/07 Q1024=
201405141850 METAR ESMX 141850Z 25002KT 9999 SCT035CB BKN049 12/07 Q1024=
201405141820 METAR ESMX 141820Z 25003KT 9999 SCT041 BKN050 12/07 Q1023=
201405141750 METAR ESMX 141750Z 23004KT 9999 BKN043 12/07 Q1023=
201405141720 METAR ESMX 141720Z VRB03KT 9999 FEW048CB SCT070 BKN097 12/07 Q1023=
201405141650 METAR ESMX 141650Z VRB03KT 9999 FEW020 SCT040CB 12/07 Q1022=
201405141620 METAR ESMX 141620Z 35004KT 9999 FEW020 SCT040CB 12/06 Q1022=
201405141553 METAR ESMX 141553Z 03005KT 9999 FEW025 FEW030CB BKN070 12/06 Q1021=
201405141550 METAR ESMX 141550Z AUTO 02006KT 9999 BKN073/// 12/06 Q1021=
201405141520 METAR ESMX 141520Z AUTO 36005KT 9999 FEW053/// 12/07 Q1021=
201405141450 METAR ESMX 141450Z AUTO 36007KT 9999 BKN046/// 11/07 Q1021=
201405141420 METAR ESMX 141420Z AUTO VRB02KT 9999 FEW046/// 11/06 Q1021=
201405141350 METAR ESMX 141350Z 30003KT 9999 -SHRA FEW025 BKN040CB 11/08 Q1020=
201405141320 METAR ESMX 141320Z 10004KT 9999 -SHRA FEW025 BKN040CB 10/08 Q1020=
201405141250 METAR ESMX 141250Z 05008KT 9999 VCTS FEW020 BKN040CB 12/05 Q1020=
201405141223 METAR ESMX 141223Z 08009KT 020V120 9999 TS FEW020 BKN040CB 13/06 Q1019=
201405141220 METAR ESMX 141220Z AUTO 08007KT 020V130 9999 SCT052/// BKN082/// 14/06 Q1019=
201405141150 METAR ESMX 141150Z 10006KT 060V150 9999 VCTS FEW025 SCT030CB SCT060 12/06 Q1018=
201405141120 METAR ESMX 141120Z 10003KT 020V150 9999 VCTS FEW025 SCT030CB SCT060 14/06 Q1018=
201405141050 METAR ESMX 141050Z AUTO VRB05KT 100V330 9999 SCT031/// 15/06 Q1018=
201405141020 METAR ESMX 141020Z 19006KT 150V250 9999 FEW030 14/06 Q1018=
201405140950 METAR ESMX 140950Z 16005KT 140V200 CAVOK 13/06 Q1017=
201405140920 METAR ESMX 140920Z 10005KT 060V170 CAVOK 13/07 Q1017=
201405140850 METAR ESMX 140850Z 15005KT 100V190 CAVOK 12/05 Q1017=
201405140820 METAR ESMX 140820Z 09005KT 050V120 9999 FEW031 11/06 Q1016=
201405140750 METAR ESMX 140750Z 10005KT 060V130 9999 FEW029 SCT063 11/06 Q1016=
201405140720 METAR ESMX 140720Z 06003KT 020V120 CAVOK 10/07 Q1015=
201405140650 METAR ESMX 140650Z 04005KT 010V080 CAVOK 09/07 Q1015=
201405140620 METAR ESMX 140620Z 04005KT CAVOK 09/08 Q1014=
201405140550 METAR ESMX 140550Z 04004KT 9999 SCT048 BKN061 08/08 Q1014=
201405140520 METAR ESMX 140520Z 01003KT 9999 FEW006 BKN046 08/08 Q1014=
201405140450 METAR ESMX 140450Z AUTO 02004KT 9999 FEW005/// SCT006/// BKN041/// 08/07 Q1013=
201405140420 METAR ESMX 140420Z 04003KT 9999 FEW008 OVC044 08/07 Q1013=
201405140350 METAR ESMX 140350Z 04003KT 9000 BR FEW008 BKN042 08/07 Q1012=
201405140320 METAR ESMX 140320Z AUTO 04002KT 7000 BR FEW007/// SCT010/// OVC044/// 07/06 Q1012=
201405140250 METAR ESMX 140250Z AUTO 05002KT 2400 BR FEW009/// SCT012/// OVC049/// 07/06 Q1012=
201405140220 METAR ESMX 140220Z AUTO 02001KT 8000 FEW006/// SCT008/// OVC051/// 07/07 Q1012=
201405140150 METAR ESMX 140150Z AUTO 00000KT 3800 OVC054/// 07/06 Q1011=
201405140120 METAR ESMX 140120Z AUTO 00000KT 1500 FEW006/// BKN012/// OVC055/// 07/06 Q1011=
201405140050 METAR ESMX 140050Z AUTO 00000KT 2800 FEW005/// OVC010/// 07/06 Q1011=
201405140020 METAR ESMX 140020Z AUTO 00000KT 0650 R01/P2000N R19/1100VP2000U FG FEW010/// SCT013/// OVC053/// 07/07 Q1011=
201405132350 METAR ESMX 132350Z 00000KT 9999 BCFG FEW052 BKN095 08/07 Q1010=
201405132320 METAR ESMX 132320Z 05002KT 8000 BR BKN094 08/07 Q1010=
201405132250 METAR ESMX 132250Z AUTO 10002KT 9999 FEW009/// OVC094/// 08/08 Q1010=
201405132220 METAR ESMX 132220Z 03002KT 9999 FEW007 SCT011 BKN013 08/08 Q1009=
201405132150 METAR ESMX 132150Z 00000KT 9999 FEW007 SCT010 BKN013 08/07 Q1009=
201405132120 METAR ESMX 132120Z AUTO 00000KT 9999 FEW005/// BKN011/// BKN058/// 08/07 Q1009=
201405132050 METAR ESMX 132050Z VRB01KT 9999 FEW006 OVC038 08/07 Q1009=
201405132020 METAR COR ESMX 132020Z 00000KT 9999 FEW009 SCT023 08/07 Q1008=
201405131950 METAR ESMX 131950Z 32003KT 9999 FEW039 BKN047 08/07 Q1008 RERA=
201405131920 METAR COR ESMX 131920Z 02004KT 9999 FEW010 SCT035 09/08 Q1008 RERA=
201405131850 METAR ESMX 131850Z AUTO 04003KT 9999 -DZ FEW006/// SCT031/// BKN037/// 09/08 Q1008=
201405131820 METAR ESMX 131820Z 03006KT 9999 -SHRA FEW005 SCT020CB 09/08 Q1007=
201405131750 METAR ESMX 131750Z 33003KT 9999 FEW013 SCT034 OVC041 10/08 Q1007=
201405131720 METAR ESMX 131720Z 33003KT 9999 FEW007 SCT040 10/08 Q1006=
201405131650 METAR ESMX 131650Z 30003KT 270V350 9999 FEW005 SCT012CB SCT040 10/09 Q1006=
201405131623 METAR ESMX 131623Z 28004KT 9999 -SHRA FEW012 SCT015CB BKN040 10/08 Q1006 RERA=
201405131620 METAR ESMX 131620Z AUTO 28004KT 9999 -DZ FEW010/// SCT040/// 10/08 Q1006 RERA=
201405131600 METAR ESMX 131600Z 32006KT 3900 +SHRA FEW007 SCT013CB BKN016 09/08 Q1006 RERA=
201405131550 METAR ESMX 131550Z AUTO 29006KT 9999 FEW007/// BKN013/// OVC025/// 10/08 Q1006=
201405131520 METAR ESMX 131520Z 28004KT 9999 -SHRA FEW013 SCT015CB BKN035 10/09 Q1005 RERA=
201405131450 METAR ESMX 131450Z 27006KT 9999 FEW015 SCT025CB BKN045 11/09 Q1005=
201405131420 METAR ESMX 131420Z 28003KT 240V310 9999 -SHRA FEW012 SCT025CB 10/08 Q1005=
201405131350 METAR ESMX 131350Z 27003KT 8000 SHRA FEW008 BKN012CB 09/08 Q1005=
201405131320 METAR ESMX 131320Z 25007KT 7000 -SHRA FEW004 BKN015CB 10/08 Q1005=
201405131250 METAR ESMX 131250Z 21008KT 7000 -SHRA SCT011CB BKN035 10/08 Q1004=
201405131220 METAR ESMX 131220Z 19009KT 9999 SCT012CB BKN045 12/08 Q1004=
201405131150 METAR ESMX 131150Z 02004KT 340V050 9999 FEW015 SCT020CB SCT040 12/07 Q1004=
201405131120 METAR ESMX 131120Z 35008KT 9999 FEW010 SCT020CB SCT040 12/08 Q1003=
201405131050 METAR COR ESMX 131050Z 33006KT 290V010 9999 FEW025CB 12/09 Q1003=
201405131020 METAR ESMX 131020Z 32006KT 290V350 9000 -SHRA FEW006 SCT025CB BKN036 09/08 Q1003 RERA=
201405130950 METAR ESMX 130950Z 27004KT 240V330 9999 SHRA FEW011 SCT020CB BKN023 11/09 Q1003=
201405130920 METAR ESMX 130920Z 29006KT 9999 FEW010 SCT036CB BKN048 11/09 Q1003 RESHRA=
201405130850 METAR COR ESMX 130850Z 27007KT 240V300 9999 FEW008 SCT020CB BKN054 11/09 Q1003 RESHRA=
201405130820 METAR ESMX 130820Z 27006KT 9999 FEW015 SCT021CB BKN041 10/09 Q1002 RESHRA=
201405130750 METAR ESMX 130750Z 25004KT 9999 FEW006 SCT012CB BKN017 10/08 Q1002 RESHRA=
201405130720 METAR ESMX 130720Z 22004KT 190V260 9999 FEW006 SCT011CB BKN017 10/09 Q1002=
201405130650 METAR ESMX 130650Z 25004KT 220V300 9999 FEW004 SCT006 BKN009 09/08 Q1002=
201405130620 METAR ESMX 130620Z 24003KT 9999 BKN004 OVC006 09/08 Q1002=
201405130550 METAR ESMX 130550Z AUTO 25003KT 220V290 9999 BKN002/// OVC005/// 09/08 Q1002=
201405130520 METAR ESMX 130520Z 25003KT 230V290 9999 BKN004 08/08 Q1002 RESHRA=
201405130450 METAR ESMX 130450Z 26004KT 6000 -SHRA BKN002 08/08 Q1001=
201405130420 METAR ESMX 130420Z 24004KT 9000 BR BKN002 08/07 Q1001 REDZ=
201405130350 METAR ESMX 130350Z 23003KT 9000 BR FEW003 BKN034 07/07 Q1001=
201405130320 METAR ESMX 130320Z AUTO 18003KT 8000 FEW036/// SCT045/// BKN052/// 07/07 Q1001=
201405130250 METAR ESMX 130250Z AUTO 25003KT 5000 -RA FEW010/// SCT021/// BKN037/// 07/07 Q1001 REDZ=
201405130220 METAR ESMX 130220Z AUTO 25003KT 6000 -RA SCT023/// BKN028/// OVC039/// 07/06 Q1001=
201405130150 METAR ESMX 130150Z AUTO 22003KT 0550 R01/1300VP2000N R19/0900VP2000N FG OVC040/// 06/05 Q1001=
201405130120 METAR ESMX 130120Z AUTO VRB01KT 0150 R01/0500N R19/0600V0750N FG FEW015/// SCT020/// BKN044/// 06/06 Q1001=
201405130050 METAR ESMX 130050Z AUTO 23003KT 0450 R01/P2000N R19/0900VP2000U FEW015/// BKN018/// 06/06 Q1001=
201405130020 METAR ESMX 130020Z AUTO 19002KT 0600 R01/0800VP2000N R19/P2000N FG FEW015/// BKN082/// 06/06 Q1001=
201405122350 METAR ESMX 122350Z 17003KT 6000 BR FEW017 BKN042 08/07 Q1001=
201405122320 METAR ESMX 122320Z 16003KT 8000 BR SCT016 BKN064 07/07 Q1001=
201405122250 METAR ESMX 122250Z 19003KT 3700 BR FEW062 BKN091 07/06 Q1001=
201405122220 METAR ESMX 122220Z 16003KT 9999 FEW004 BKN058 08/07 Q1001=
201405122150 METAR COR ESMX 122150Z 15005KT 9999 FEW045 BKN053 08/07 Q1001=
201405122120 METAR ESMX 122120Z 12002KT 9999 -SHRA FEW041 09/08 Q1001=
201405122050 METAR ESMX 122050Z 21004KT 6000 -SHRA FEW006 SCT019 BKN035 09/08 Q1001=
201405122020 METAR ESMX 122020Z 16006KT 9999 FEW005 SCT043 09/08 Q1001=
201405121950 METAR ESMX 121950Z AUTO 16005KT 9999 FEW007/// OVC065/// 09/08 Q1001=
201405121920 METAR ESMX 121920Z AUTO 17006KT 9999 FEW007/// SCT012/// BKN018/// 10/08 Q1001=
201405121850 METAR ESMX 121850Z VRB02KT 9999 FEW009 SCT016 BKN048 10/08 Q1000=
201405121820 METAR ESMX 121820Z 15004KT 9999 FEW010 SCT045 10/08 Q1000=
201405121750 METAR ESMX 121750Z 15004KT 9999 FEW010 SCT040 10/08 Q1000=
201405121720 METAR ESMX 121720Z AUTO 16007KT 9999 NCD 10/08 Q1000=
201405121650 METAR ESMX 121650Z 17005KT 9999 FEW020 10/08 Q1000=
201405121620 METAR ESMX 121620Z 16006KT 9999 FEW025CB SCT044 10/08 Q1000=
201405121550 METAR ESMX 121550Z 18005KT 9999 FEW037 BKN044 10/08 Q1000 RESHRA=
201405121520 METAR ESMX 121520Z 17006KT 9999 -SHRA FEW017CB SCT031 09/07 Q1000=
201405121450 METAR ESMX 121450Z 18005KT 9999 FEW028CB SCT046 09/07 Q1000 RESHRA=
201405121420 METAR ESMX 121420Z 17013KT 9999 RA FEW018 SCT027CB BKN033 10/07 Q1000=
201405121350 METAR ESMX 121350Z 15010KT 9999 FEW023CB SCT031 BKN053 13/07 Q1000=
201405121320 METAR ESMX 121320Z 17008KT 9999 FEW024CB SCT044 BKN055 13/07 Q1000=
201405121250 METAR ESMX 121250Z AUTO 18010KT 9999 FEW023/// SCT031/// BKN041/// 12/07 Q1000=
201405121220 METAR ESMX 121220Z 14005KT 9999 FEW020 SCT028 BKN049 11/08 Q1000 RERA=
201405121150 METAR ESMX 121150Z 19013KT 140V210 3300 SHRA FEW019 SCT025CB BKN042 09/06 Q1000=
201405121120 METAR ESMX 121120Z AUTO 15006KT 120V190 9999 FEW020/// SCT046/// BKN051/// 12/07 Q1000=
201405121050 METAR ESMX 121050Z 15008KT 110V190 9999 FEW029 BKN052 12/08 Q0999=
201405121020 METAR ESMX 121020Z 15008KT 9999 FEW018CB BKN041 10/08 Q1000 RESHRA=
201405120950 METAR ESMX 120950Z 18011KT 9999 SCT023 BKN035 12/07 Q0999=
201405120920 METAR ESMX 120920Z 17009KT 120V210 9999 FEW019 SCT026 OVC055 12/06 Q0999=
201405120850 METAR ESMX 120850Z AUTO 17010KT 9999 FEW018/// SCT027/// BKN058/// 11/06 Q0999=
201405120820 METAR ESMX 120820Z 16009KT 9999 SCT016 SCT025 OVC060 11/07 Q0999=
201405120750 METAR COR ESMX 120750Z 20008KT 9999 SCT014 BKN025 11/07 Q0999=
201405120720 METAR ESMX 120720Z 18009KT 9999 SCT010 BKN025 10/08 Q0999=
201405120650 METAR COR ESMX 120650Z 18008KT 9999 SCT008 BKN023 10/08 Q0999=
201405120620 METAR ESMX 120620Z 20008KT 9999 SCT008 BKN018 10/08 Q0998=
201405120550 METAR ESMX 120550Z AUTO 19007KT 9999 FEW007/// SCT012/// OVC053/// 10/08 Q0998=
201405120520 METAR ESMX 120520Z 19009KT 9999 SCT008 BKN025 09/08 Q0998 REDZ=
201405120450 METAR ESMX 120450Z 19009KT 9999 FEW004 SCT007 BKN009 09/08 Q0998=
201405120420 METAR ESMX 120420Z 17006KT 9999 FEW004 SCT006 BKN007 09/08 Q0998=
201405120350 METAR ESMX 120350Z 16006KT 9999 FEW005 SCT007 BKN009 09/08 Q0997=
201405120320 METAR ESMX 120320Z AUTO 17005KT 9999 BKN005/// OVC010/// 09/08 Q0997=
201405120250 METAR ESMX 120250Z AUTO 16006KT 9999 SCT005/// BKN007/// OVC009/// 09/08 Q0997=
201405120220 METAR ESMX 120220Z AUTO 19006KT 9999 OVC006/// 09/08 Q0997 REDZ=
201405120150 METAR ESMX 120150Z AUTO 18007KT 9999 BKN005/// OVC008/// 09/08 Q0997=
201405120120 METAR ESMX 120120Z AUTO 18007KT 9999 OVC006/// 09/08 Q0997=
201405120050 METAR ESMX 120050Z AUTO 18007KT 9999 FEW006/// BKN008/// OVC011/// 09/08 Q0997=
201405120020 METAR ESMX 120020Z AUTO 18007KT 9999 FEW006/// SCT007/// BKN009/// 09/08 Q0997=
201405112350 METAR ESMX 112350Z AUTO 18006KT 9999 FEW006/// SCT008/// BKN009/// 09/08 Q0997=
201405112320 METAR ESMX 112320Z AUTO 18008KT 9999 FEW007/// SCT009/// OVC011/// 09/08 Q0997=
201405112250 METAR ESMX 112250Z 18007KT 9999 -RA FEW008 SCT028 OVC035 09/08 Q0997=
201405112220 METAR ESMX 112220Z 19008KT 9999 -RA FEW015 SCT026 BKN035 09/08 Q0997=
201405112150 METAR ESMX 112150Z 18008KT 9999 -RA FEW017 BKN054 09/08 Q0997=
201405112120 METAR ESMX 112120Z 17007KT 9999 -RA FEW008 BKN044 OVC053 09/08 Q0996=
201405112050 METAR ESMX 112050Z 18007KT 9999 -RA FEW041 BKN058 09/08 Q0996=
201405112020 METAR ESMX 112020Z 19007KT 9999 FEW041 SCT047 BKN059 09/08 Q0996=
201405111950 METAR ESMX 111950Z 20009KT 9999 FEW008 SCT040 09/08 Q0996=
201405111920 METAR ESMX 111920Z 19006KT CAVOK 09/08 Q0996=
201405111850 METAR ESMX 111850Z 21007KT CAVOK 10/08 Q0995=
201405111820 METAR ESMX 111820Z 20009KT 9999 FEW030 SCT048 10/08 Q0995=
201405111750 METAR ESMX 111750Z 20006KT 9999 FEW041 10/08 Q0995=
201405111720 METAR ESMX 111720Z 21010KT 9999 FEW010CB SCT016 BKN051 10/08 Q0994=
201405111650 METAR ESMX 111650Z 21006KT 9999 -SHRA SCT012CB BKN035 11/09 Q0994 RERA=
201405111620 METAR ESMX 111620Z 19008KT 9999 -SHRA FEW015 SCT030CB BKN066 11/09 Q0994 RERA=
201405111550 METAR ESMX 111550Z 22010KT 200V260 9999 FEW018 SCT023CB BKN040 12/09 Q0994=
201405111521 METAR ESMX 111521Z 22011KT 9999 FEW010 SCT024CB SCT030 13/10 Q0993=
201405111450 METAR ESMX 111450Z 16006KT 120V190 9999 -SHRA FEW012 SCT017CB BKN070 12/09 Q0993=
201405111424 METAR ESMX 111424Z 20008KT 9999 FEW013 SCT015CB BKN030 12/09 Q0993=
201405111420 METAR ESMX 111420Z AUTO 19008KT 9999 FEW013/// SCT020/// BKN041/// 12/09 Q0993=
201405111350 METAR ESMX 111350Z 19010KT 9999 FEW020 SCT040CB 12/10 Q0993 RERA=
201405111320 METAR ESMX 111320Z AUTO 21008KT 9999 -RA FEW021/// SCT025/// BKN045/// 12/09 Q0993=
201405111250 METAR ESMX 111250Z 19010KT 160V230 9999 FEW015 SCT035CB BKN070 14/08 Q0993=
201405111220 METAR ESMX 111220Z AUTO 18010KT 160V230 9999 FEW017/// SCT025/// 13/09 Q0993=
201405111150 METAR ESMX 111150Z AUTO 20009KT 160V230 9999 FEW015/// SCT078/// 14/09 Q0993=
201405111120 METAR ESMX 111120Z AUTO 17008KT 9999 FEW057/// 12/09 Q0993=
201405111050 METAR ESMX 111050Z AUTO 16008KT 9999 FEW020/// SCT055/// 11/09 Q0993=
201405111020 METAR ESMX 111020Z AUTO 16005KT 130V200 9999 -RA FEW011/// SCT030/// BKN052/// 11/09 Q0993=
201405110950 METAR ESMX 110950Z AUTO 19007KT 9999 -RA FEW011/// SCT030/// BKN044/// 11/09 Q0993=
201405110920 METAR ESMX 110920Z AUTO 14004KT 120V180 9999 FEW012/// SCT021/// BKN032/// 11/09 Q0993=
201405110850 METAR ESMX 110850Z AUTO 15005KT 100V190 9999 FEW009/// SCT011/// BKN018/// 12/09 Q0993=
201405110820 METAR ESMX 110820Z AUTO 16005KT 130V200 9999 FEW007/// SCT013/// OVC017/// 11/09 Q0993=
201405110750 METAR ESMX 110750Z AUTO 16004KT 120V190 9999 FEW003/// BKN006/// BKN010/// 11/09 Q0993 REDZ=
201405110720 METAR ESMX 110720Z AUTO 16006KT 9999 FEW002/// SCT004/// BKN005/// 10/09 Q0994=
201405110650 METAR ESMX 110650Z AUTO 17006KT 140V200 4400 -DZ OVC002/// 09/08 Q0994=
201405110620 METAR ESMX 110620Z AUTO 14006KT 120V190 2900 DZ FEW003/// OVC004/// 09/08 Q0994 RERA REDZ=
201405110550 METAR ESMX 110550Z AUTO 14004KT 080V200 3600 -DZ OVC003/// 09/08 Q0994=
201405110520 METAR ESMX 110520Z AUTO 12004KT 070V180 9999 -DZ BKN004/// OVC007/// 09/08 Q0994 RERA=
201405110450 METAR ESMX 110450Z AUTO 14004KT 070V180 9999 OVC003/// 09/08 Q0995=
201405110420 METAR ESMX 110420Z AUTO 11004KT 060V140 7000 -RA FEW003/// BKN004/// OVC007/// 09/08 Q0995=
201405110350 METAR ESMX 110350Z AUTO 12004KT 080V160 7000 -RA OVC003/// 08/08 Q0995=
201405110320 METAR ESMX 110320Z AUTO 12004KT 070V160 8000 -RA OVC003/// 08/08 Q0996=
201405110250 METAR ESMX 110250Z AUTO 13004KT 070V160 7000 -RA FEW004/// BKN005/// OVC007/// 08/07 Q0996=
201405110220 METAR ESMX 110220Z AUTO 13003KT 080V160 8000 -RA FEW005/// SCT007/// BKN033/// 09/08 Q0997=
201405110150 METAR ESMX 110150Z AUTO 13004KT 100V160 8000 -RA FEW035/// BKN040/// 09/08 Q0997=
201405110120 METAR ESMX 110120Z AUTO 15007KT 8000 -RA FEW015/// SCT030/// BKN053/// 09/07 Q0997 REDZ=
201405110050 METAR ESMX 110050Z AUTO 14006KT 9999 -RA OVC052/// 09/07 Q0998 REUP REDZ=
201405110020 METAR ESMX 110020Z AUTO 14005KT 9999 BKN069/// 09/07 Q0998=
201405102350 METAR ESMX 102350Z AUTO 13004KT 9999 OVC076/// 09/07 Q0999=
201405102320 METAR ESMX 102320Z AUTO 12003KT 9999 FEW055/// BKN082/// 09/07 Q0999=
201405102250 METAR ESMX 102250Z AUTO 14005KT 9999 FEW065/// BKN097/// 09/07 Q1000=
201405102220 METAR ESMX 102220Z AUTO 16005KT 9999 FEW065/// SCT081/// 09/07 Q1000=
201405102150 METAR ESMX 102150Z AUTO 15003KT 9999 OVC067/// 09/07 Q1001=
201405102120 METAR ESMX 102120Z AUTO 16004KT 9999 FEW071/// 09/07 Q1001=
201405102050 METAR ESMX 102050Z AUTO 17005KT 9999 FEW057/// SCT074/// 09/07 Q1001=
201405102020 METAR ESMX 102020Z AUTO 17005KT 9999 BKN046/// 10/07 Q1002 REDZ=
201405101950 METAR ESMX 101950Z AUTO 18006KT 9999 DZ BKN045/// OVC054/// 10/07 Q1002=
201405101920 METAR ESMX 101920Z AUTO 19006KT 9999 FEW046/// 09/05 Q1002=
201405101850 METAR ESMX 101850Z AUTO 19004KT 9999 NCD 11/05 Q1002=
201405101820 METAR ESMX 101820Z AUTO 21007KT 9999 SCT047/// 12/05 Q1002=
201405101750 METAR ESMX 101750Z AUTO 24005KT 190V280 9999 NCD 13/04 Q1002=
201405101720 METAR ESMX 101720Z AUTO 24007KT 190V300 9999 BKN068/// 14/04 Q1002=
201405101650 METAR ESMX 101650Z AUTO 23008KT 9999 FEW041/// SCT049/// BKN056/// 14/05 Q1002=
201405101620 METAR ESMX 101620Z AUTO 20008KT 9999 BKN041/// BKN051/// 14/06 Q1003=
201405101550 METAR ESMX 101550Z AUTO 21008KT 9999 FEW039/// SCT047/// BKN074/// 14/06 Q1003=
201405101520 METAR ESMX 101520Z AUTO 22007KT 190V250 9999 FEW063/// OVC077/// 14/06 Q1003=
201405101450 METAR ESMX 101450Z AUTO 26008KT 220V290 9999 BKN074/// 13/05 Q1003=
201405101420 METAR ESMX 101420Z AUTO 26008KT 9999 FEW043/// BKN076/// 14/05 Q1003=
201405101350 METAR ESMX 101350Z AUTO 24007KT 210V280 9999 FEW050/// BKN063/// 14/06 Q1003=
201405101320 METAR ESMX 101320Z AUTO 26010KT 9999 FEW046/// OVC055/// 14/04 Q1003=
201405101250 METAR ESMX 101250Z AUTO 25010KT 9999 SCT041/// BKN059/// 15/06 Q1003=
201405101220 METAR ESMX 101220Z AUTO 25008G51KT 220V040 9999 FEW041/// SCT056/// BKN067/// 15/05 Q1004=
201405101150 METAR ESMX 101150Z AUTO 27007KT 9999 FEW032/// SCT044/// BKN064/// 15/06 Q1004=
201405101120 METAR ESMX 101120Z AUTO 30006KT 260V330 9999 FEW024/// SCT029/// BKN034/// 13/05 Q1004=
201405101050 METAR ESMX 101050Z AUTO 33004KT 260V020 9999 FEW021/// BKN067/// 13/08 Q1004=
201405101020 METAR ESMX 101020Z AUTO 30007KT 9999 FEW027/// OVC036/// 11/08 Q1004=
201405100950 METAR ESMX 100950Z AUTO 30010KT 260V330 9999 FEW013/// SCT029/// OVC036/// 11/08 Q1004=
201405100920 METAR ESMX 100920Z AUTO 28006KT 240V340 9999 FEW010/// SCT013/// BKN023/// 12/08 Q1004=
201405100850 METAR ESMX 100850Z AUTO 28006KT 9999 FEW006/// SCT011/// OVC034/// 11/08 Q1004=
201405100820 METAR ESMX 100820Z AUTO 28007KT 9000 BR FEW005/// SCT006/// BKN021/// 10/08 Q1004 REDZ=
201405100750 METAR ESMX 100750Z 28006KT 9000 DZ FEW002 BKN005 09/08 Q1004=
201405100720 METAR ESMX 100720Z AUTO 28005KT 9999 OVC004/// 10/08 Q1003=
201405100650 METAR ESMX 100650Z AUTO 28005KT 9999 FEW002/// OVC006/// 09/08 Q1003=
201405100620 METAR ESMX 100620Z 25005KT 9999 SCT003 BKN006 09/08 Q1003=
201405100550 METAR ESMX 100550Z 22006KT 9999 -RA SCT003 BKN005 09/08 Q1003=
201405100520 METAR ESMX 100520Z AUTO 20007KT 9999 -RA FEW002/// BKN004/// OVC006/// 09/08 Q1003=
201405100450 METAR ESMX 100450Z AUTO 21004KT 9000 -RA FEW001/// OVC003/// 09/08 Q1002=
201405100420 METAR ESMX 100420Z AUTO 21004KT 9000 -RA FEW003/// SCT004/// BKN006/// 09/08 Q1002=
201405100350 METAR ESMX 100350Z AUTO 22003KT 9999 -RA FEW002/// SCT006/// BKN009/// 09/08 Q1002=
201405100320 METAR ESMX 100320Z AUTO 19004KT 8000 -RA SCT001/// BKN003/// OVC005/// 09/08 Q1002=
201405100250 METAR ESMX 100250Z AUTO 18002KT 6000 RA BKN004/// OVC017/// 09/08 Q1002=
201405100220 METAR ESMX 100220Z AUTO 17002KT 7000 -RA FEW005/// SCT008/// BKN009/// 09/08 Q1002=
201405100150 METAR ESMX 100150Z AUTO VRB02KT 7000 -RA FEW005/// SCT007/// BKN011/// 09/08 Q1002=
201405100120 METAR ESMX 100120Z AUTO 16003KT 4900 -RA FEW002/// SCT004/// BKN006/// 09/08 Q1002=
201405100050 METAR ESMX 100050Z AUTO 14002KT 4900 RA FEW003/// SCT005/// BKN006/// 09/08 Q1002=
201405100020 METAR ESMX 100020Z AUTO VRB02KT 4700 DZ FEW012/// BKN016/// BKN020/// 09/08 Q1002=
201405092350 METAR ESMX 092350Z AUTO 15003KT 4400 -RA FEW024/// BKN045/// 09/08 Q1002 REDZ=
201405092320 METAR ESMX 092320Z AUTO 13003KT 6000 BR FEW008/// SCT016/// OVC049/// 09/08 Q1002 RESHUP=
201405092250 METAR ESMX 092250Z AUTO 14003KT 5000 -DZ FEW004/// SCT007/// BKN013/// 09/08 Q1003=
201405092220 METAR ESMX 092220Z AUTO 15004KT 110V180 6000 BR FEW023/// OVC046/// 09/09 Q1003=
201405092150 METAR ESMX 092150Z AUTO 14004KT 7000 BR FEW009/// BKN047/// OVC059/// 10/09 Q1003 REDZ=
201405092120 METAR ESMX 092120Z 14004KT 8000 BR FEW007 OVC045 10/09 Q1003=
201405092050 METAR ESMX 092050Z 16005KT 9999 -DZ SCT007 BKN040 10/09 Q1003=
201405092020 METAR ESMX 092020Z AUTO 14004KT 9999 FEW029/// BKN041/// BKN053/// 10/09 Q1003 RERA REDZ=
201405091950 METAR ESMX 091950Z 16004KT 9999 -SHRA SCT007 BKN012 OVC026 10/09 Q1004=
201405091920 METAR ESMX 091920Z 16004KT 5000 -SHRA FEW012 SCT030 BKN045 10/09 Q1004=
201405091850 METAR ESMX 091850Z 16007KT 9999 -SHRA FEW012 BKN045 10/09 Q1004 RERA=
201405091820 METAR ESMX 091820Z 17007KT 9999 -SHRA FEW046 BKN055 11/09 Q1003=
201405091750 METAR ESMX 091750Z 17007KT 9999 -SHRA FEW013 SCT068 BKN095 11/09 Q1003=
201405091730 METAR ESMX 091730Z 18010KT 9999 FEW030 BKN095 12/08 Q1003=
201405091720 METAR ESMX 091720Z AUTO 17008KT 9999 BKN094/// 12/08 Q1003=
201405091650 METAR ESMX 091650Z 16007KT 9999 FEW034 BKN060 13/08 Q1003=
201405091620 METAR COR ESMX 091620Z 14006KT 110V180 9999 FEW035 BKN100 13/07 Q1003=
201405091550 METAR ESMX 091550Z AUTO 15007KT 100V180 9999 BKN062/// 13/07 Q1003=
201405091520 METAR ESMX 091520Z 15006KT 120V190 9999 FEW040 SCT070 13/07 Q1003=
201405091450 METAR ESMX 091450Z 15007KT 120V190 9999 FEW030 SCT072 14/08 Q1003=
201405091420 METAR COR ESMX 091420Z 19008KT 9999 FEW030 BKN060 14/06 Q1003=
201405091350 METAR ESMX 091350Z 23005KT 170V280 9999 FEW030 BKN060 14/06 Q1003=
201405091320 METAR ESMX 091320Z 20007KT 160V250 9999 FEW030 BKN045 13/06 Q1003=
201405091250 METAR ESMX 091250Z 23007KT 180V280 9999 FEW030 BKN040 13/06 Q1003=
201405091220 METAR ESMX 091220Z AUTO 22007KT 150V260 9999 SCT040/// BKN065/// 14/06 Q1003=
201405091150 METAR ESMX 091150Z 19009KT 9999 FEW025 SCT037 12/06 Q1003=
201405091120 METAR COR ESMX 091120Z 21007KT 9999 FEW037 BKN060 13/06 Q1003=
201405091050 METAR ESMX 091050Z 23006KT 9999 BKN039 12/05 Q1003 REDZ=
201405091020 METAR ESMX 091020Z 25006KT 210V280 9999 FEW018 BKN035 12/07 Q1003=
201405090950 METAR ESMX 090950Z AUTO 20007KT 9999 FEW029/// BKN038/// BKN045/// 12/07 Q1003=
201405090920 METAR ESMX 090920Z 23006KT 9999 FEW018 BKN053 11/08 Q1003=
201405090850 METAR ESMX 090850Z 23005KT 190V250 9999 SCT014 BKN019 BKN033 11/07 Q1003=
201405090820 METAR ESMX 090820Z 21007KT 190V260 9999 SCT013 11/08 Q1003=
201405090750 METAR ESMX 090750Z 22004KT 9999 FEW010 SCT040 09/07 Q1003=
201405090720 METAR ESMX 090720Z 23004KT 190V260 9999 FEW007 BKN046 09/07 Q1003=
201405090650 METAR ESMX 090650Z 24006KT 6000 -SHRA FEW004 BKN007 09/07 Q1003 RERA=
201405090620 METAR ESMX 090620Z 19006KT 9999 FEW005 BKN008 09/08 Q1003=
201405090550 METAR COR ESMX 090550Z 18005KT 9999 -DZ FEW005 BKN008 09/08 Q1003=
201405090520 METAR COR ESMX 090520Z 19005KT 9999 -DZ SCT003 BKN007 09/08 Q1003 RERA=
201405090450 METAR ESMX 090450Z 19005KT 9000 BR BKN003 OVC007 08/07 Q1003=
201405090420 METAR ESMX 090420Z AUTO 19004KT 9000 -RA FEW003/// OVC004/// 08/07 Q1003=
201405090350 METAR ESMX 090350Z AUTO 18004KT 140V220 7000 DZ SCT002/// OVC005/// 08/07 Q1003=
201405090320 METAR ESMX 090320Z AUTO 18004KT 8000 -RA OVC003/// 08/07 Q1003 REDZ=
201405090250 METAR ESMX 090250Z AUTO 17005KT 9999 -DZ OVC003/// 08/07 Q1003 REDZ=
201405090220 METAR ESMX 090220Z AUTO 17005KT 9999 DZ OVC004/// 07/07 Q1003=
201405090150 METAR ESMX 090150Z AUTO 17005KT 9999 BKN006/// OVC061/// 07/06 Q1003=
201405090120 METAR ESMX 090120Z AUTO 16005KT 9999 OVC006/// 07/06 Q1003=
201405090050 METAR ESMX 090050Z AUTO 16005KT 9999 SCT007/// BKN087/// 07/06 Q1004=
201405090020 METAR ESMX 090020Z 14005KT 9999 FEW031 07/06 Q1003=
201405082350 METAR ESMX 082350Z 18006KT 9999 FEW026 06/05 Q1004=
201405082320 METAR ESMX 082320Z 18007KT 9999 FEW046 07/06 Q1004=
201405082250 METAR ESMX 082250Z 18007KT 9999 FEW044 SCT060 08/06 Q1004=
201405082220 METAR ESMX 082220Z 18008KT 9999 FEW005 BKN058 08/07 Q1004=
201405082150 METAR ESMX 082150Z 18007KT 9999 FEW005 SCT089 08/07 Q1004=
201405082120 METAR ESMX 082120Z 16007KT 9999 BKN005 09/08 Q1004=
201405082050 METAR ESMX 082050Z 16007KT 9999 SCT005 09/08 Q1004=
201405082020 METAR ESMX 082020Z AUTO 17007KT 9999 FEW030/// 09/08 Q1004=
201405081950 METAR ESMX 081950Z 17007KT 9999 FEW007 BKN035 09/08 Q1005=
201405081920 METAR ESMX 081920Z 16010KT 8000 RA SCT006 BKN016 10/08 Q1005=
201405081850 METAR ESMX 081850Z 17007KT 9999 -DZ FEW012 BKN018 10/08 Q1005=
201405081820 METAR ESMX 081820Z 16006KT 9999 DZ SCT012 BKN021 10/08 Q1005=
201405081750 METAR ESMX 081750Z 16006KT 9999 SCT014 BKN061 11/08 Q1005=
201405081720 METAR COR ESMX 081720Z 17006KT 140V200 9999 FEW016 BKN060 11/08 Q1005=
201405081650 METAR ESMX 081650Z 17006KT 9999 FEW015 BKN040 10/08 Q1005=
201405081620 METAR ESMX 081620Z 19006KT 9999 FEW020CB SCT035 10/08 Q1005=
201405081550 METAR ESMX 081550Z 20011KT 9999 -SHRA FEW019CB SCT033 10/08 Q1005=
201405081520 METAR ESMX 081520Z 16011KT 9999 FEW022CB SCT036 12/07 Q1005=
201405081450 METAR ESMX 081450Z 16009KT 120V200 9999 FEW015 SCT030 13/08 Q1005 RESHRA=
201405081420 METAR ESMX 081420Z 17008KT 9999 -SHRA FEW025CB SCT032 12/09 Q1005=
201405081350 METAR ESMX 081350Z 19010KT 9999 FEW030CB SCT040 13/06 Q1005=
201405081320 METAR ESMX 081320Z 23010KT 9999 FEW025 SCT040 14/06 Q1005=
201405081250 METAR COR ESMX 081250Z 20010KT 160V230 9999 SCT036 BKN043 13/05 Q1005=
201405081220 METAR COR ESMX 081220Z 21008KT 150V250 9999 FEW036 SCT043 13/05 Q1005=
201405081150 METAR ESMX 081150Z 27006KT 230V310 9999 FEW022 BKN047 12/05 Q1005=
201405081120 METAR ESMX 081120Z AUTO 20011KT 170V240 9999 FEW024/// BKN028/// BKN039/// 13/05 Q1005=
201405081050 METAR ESMX 081050Z 21010KT 9999 FEW022 SCT030 BKN082 12/07 Q1005=
201405081020 METAR COR ESMX 081020Z 21010KT 180V240 9999 SCT020 BKN035 12/07 Q1005=
201405080950 METAR ESMX 080950Z 19010KT 9999 SCT019 BKN024 11/07 Q1005=
201405080920 METAR ESMX 080920Z 19009KT 9999 FEW010 SCT024 10/08 Q1006=
201405080850 METAR ESMX 080850Z 19008KT 9999 -RA FEW008 SCT030 BKN039 10/08 Q1006=
201405080820 METAR ESMX 080820Z 19009KT 9999 -RA FEW008 SCT011 BKN015 10/08 Q1006=
201405080750 METAR ESMX 080750Z 18009KT 9999 FEW008 SCT011 BKN016 09/08 Q1006 RERA=
201405080720 METAR ESMX 080720Z 19009KT 9000 -RA SCT007 BKN027 09/08 Q1005=
201405080650 METAR ESMX 080650Z 17006KT 140V200 9999 BKN005 OVC008 09/08 Q1005=
201405080620 METAR ESMX 080620Z 17005KT 9999 BKN005 OVC014 09/07 Q1005=
201405080550 METAR ESMX 080550Z 19006KT 9999 SCT004 OVC043 09/07 Q1006=
201405080520 METAR ESMX 080520Z 16004KT 120V200 7000 BR SCT012 BKN042 08/07 Q1005=
201405080450 METAR ESMX 080450Z 17004KT 9999 SCT014 08/06 Q1005=
201405080420 METAR ESMX 080420Z 17003KT 9999 FEW014 SCT064 07/06 Q1005=
201405080350 METAR ESMX 080350Z 17003KT 9999 FEW013 SCT060 07/06 Q1005=
201405080320 METAR ESMX 080320Z AUTO VRB03KT 9999 BKN012/// 07/06 Q1005=
201405080250 METAR ESMX 080250Z AUTO 20003KT 9999 OVC013/// 07/06 Q1005=
201405080220 METAR ESMX 080220Z AUTO VRB03KT 9999 OVC013/// 08/06 Q1005=
201405080150 METAR ESMX 080150Z AUTO 24004KT 200V280 9999 OVC013/// 08/06 Q1005=
201405080120 METAR ESMX 080120Z AUTO 25006KT 9999 FEW006/// OVC015/// 08/07 Q1005=
201405080050 METAR ESMX 080050Z AUTO 23005KT 9999 FEW013/// OVC018/// 08/07 Q1005=
201405080020 METAR ESMX 080020Z AUTO 25006KT 9999 FEW017/// OVC020/// 08/07 Q1005=
201405072350 METAR ESMX 072350Z 24009KT 9999 FEW006 BKN016 08/07 Q1004=
201405072320 METAR ESMX 072320Z 25007KT 9999 FEW004 SCT007 BKN021 09/08 Q1005=
201405072250 METAR ESMX 072250Z 23005KT 9999 FEW002 SCT005 BKN020 09/08 Q1004=
201405072220 METAR ESMX 072220Z 26005KT 240V300 9999 OVC002 09/08 Q1004=
201405072150 METAR ESMX 072150Z 26004KT 6000 DZ SCT002 BKN004 09/08 Q1004=
201405072120 METAR COR ESMX 072120Z 26004KT 8000 -RA OVC002 09/08 Q1004=
201405072050 METAR ESMX 072050Z 26005KT 9999 OVC002 09/08 Q1004=
201405072020 METAR ESMX 072020Z 25004KT 9999 SCT002 BKN004 09/08 Q1004=
201405071950 METAR ESMX 071950Z 25003KT 9999 FEW002 SCT010 BKN019 08/08 Q1004=
201405071920 METAR ESMX 071920Z 26003KT 9000 BR SCT002 BKN015 08/08 Q1003=
201405071850 METAR ESMX 071850Z 25002KT 9999 BKN004 09/08 Q1003=
201405071820 METAR ESMX 071820Z 00000KT 9999 BKN004 OVC007 09/07 Q1003 RERA=
201405071750 METAR ESMX 071750Z 28001KT 9999 OVC004 09/07 Q1003=
201405071720 METAR ESMX 071720Z 31003KT 9999 SCT004 BKN006 BKN008 09/08 Q1003=
201405071650 METAR ESMX 071650Z 02004KT 9999 SCT005 BKN048 09/08 Q1003 RERA=
201405071620 METAR ESMX 071620Z 02004KT 9999 -RA FEW004 SCT007 BKN008 09/08 Q1003=
201405071550 METAR ESMX 071550Z 01004G70KT 330V050 9000 -RA FEW003 SCT006 OVC008 09/08 Q1003=
201405071520 METAR ESMX 071520Z 36004KT 9000 -RA FEW003 SCT005 BKN007 09/08 Q1003=
201405071450 METAR ESMX 071450Z AUTO 36004KT 5000 RA FEW002/// SCT004/// BKN006/// 09/08 Q1003=
201405071420 METAR ESMX 071420Z 36003KT 7000 RA FEW006 OVC007 09/08 Q1003=
201405071350 METAR ESMX 071350Z 35003KT 5000 RA FEW004 OVC006 09/08 Q1003=
201405071320 METAR ESMX 071320Z 02003KT 5000 RA FEW004 OVC005 09/08 Q1003=
201405071250 METAR ESMX 071250Z VRB03KT 8000 -RA FEW005 OVC007 09/08 Q1003=
201405071220 METAR ESMX 071220Z VRB03KT 8000 -RA FEW005 OVC007 09/07 Q1003=
201405071150 METAR ESMX 071150Z 07004KT 050V110 9999 -RA OVC006 08/07 Q1003=
201405071121 METAR ESMX 071121Z 08005KT 030V120 9999 -RA OVC006 08/07 Q1003 RERA=
201405071050 METAR ESMX 071050Z 10004KT 060V160 9999 OVC007 08/06 Q1003 RERA=
201405071020 METAR ESMX 071020Z 10005KT 060V150 9999 OVC007 08/06 Q1003=
201405070959 METAR ESMX 070959Z 08005KT 040V130 9999 OVC007 08/06 Q1003=
201405070950 METAR ESMX 070950Z AUTO 08006KT 040V140 9999 OVC007/// 08/06 Q1003=
201405070920 METAR ESMX 070920Z 07006KT 020V130 9999 OVC009 08/06 Q1003=
201405070850 METAR ESMX 070850Z 08006KT 020V120 9999 OVC010 08/06 Q1003=
201405070823 METAR ESMX 070823Z 09004KT 050V130 9999 OVC010 08/05 Q1003=
201405070820 METAR ESMX 070820Z AUTO 09005KT 030V150 9999 OVC010/// 08/05 Q1003=
201405070750 METAR ESMX 070750Z AUTO 10007KT 070V130 9999 OVC010/// 08/05 Q1003=
201405070720 METAR ESMX 070720Z 09006KT 060V130 9999 OVC009 07/05 Q1004=
201405070650 METAR ESMX 070650Z 08007KT 050V120 9999 OVC008 07/05 Q1004=
201405070620 METAR ESMX 070620Z 10007KT 040V120 9999 OVC007 07/04 Q1004=
201405070550 METAR ESMX 070550Z 10005KT 060V130 9999 OVC007 06/04 Q1004=
201405070520 METAR ESMX 070520Z 09007KT 050V120 9999 OVC007 06/04 Q1004=
201405070450 METAR ESMX 070450Z 10007KT 060V130 9999 OVC008 06/04 Q1005=
201405070420 METAR ESMX 070420Z 10007KT 070V140 9999 OVC008 06/04 Q1005=
201405070350 METAR ESMX 070350Z 10007KT 060V160 9999 OVC008 06/04 Q1005=
201405070320 METAR ESMX 070320Z 10006KT 050V150 9999 OVC008 06/03 Q1005=
201405070250 METAR ESMX 070250Z AUTO 11007KT 060V160 9999 OVC009/// 06/03 Q1006=
201405070220 METAR ESMX 070220Z AUTO 11007KT 060V150 9999 OVC009/// 05/03 Q1006=
201405070150 METAR ESMX 070150Z AUTO 11008KT 070V140 9999 OVC010/// 05/03 Q1006=
201405070120 METAR ESMX 070120Z AUTO 12007KT 030V160 9999 BKN011/// BKN024/// 05/03 Q1006=
201405070050 METAR ESMX 070050Z AUTO 12009KT 070V150 9999 FEW013/// SCT100/// 05/02 Q1007=
201405070020 METAR ESMX 070020Z AUTO 12008KT 070V170 9999 BKN045/// 05/02 Q1007=
201405062350 METAR ESMX 062350Z 12006KT 050V170 9999 SCT044 BKN088 05/02 Q1007=
201405062320 METAR ESMX 062320Z 12009KT 060V170 CAVOK 05/02 Q1008=
201405062250 METAR ESMX 062250Z 13009KT 050V170 9999 SCT045 BKN087 05/02 Q1008=
201405062220 METAR ESMX 062220Z 13010KT 080V170 9999 OVC045 05/02 Q1009=
201405062150 METAR ESMX 062150Z 12007KT 050V180 9999 OVC046 05/02 Q1009=
201405062120 METAR ESMX 062120Z 12007KT 050V170 9999 FEW023 BKN063 05/02 Q1010 REDZ=
201405062050 METAR ESMX 062050Z 12007KT 9999 -RA FEW028 SCT067 05/02 Q1010=
201405062020 METAR ESMX 062020Z 13008KT 080V170 CAVOK 06/02 Q1010=
201405061950 METAR ESMX 061950Z 12007G17KT 050V170 CAVOK 06/02 Q1011=
201405061920 METAR ESMX 061920Z 12006KT 060V170 CAVOK 06/02 Q1011=
201405061850 METAR ESMX 061850Z 12007KT 070V160 CAVOK 06/02 Q1011=
201405061820 METAR ESMX 061820Z 10006KT 060V160 CAVOK 06/02 Q1011=
201405061750 METAR COR ESMX 061750Z 12008KT 080V170 CAVOK 06/03 Q1011=
201405061720 METAR ESMX 061720Z 12008KT 050V170 9999 -RA SCT026 BKN044 06/03 Q1012=
201405061650 METAR ESMX 061650Z 12008KT 080V150 9999 -RA FEW012 BKN025 06/03 Q1012 REDZ=
201405061620 METAR ESMX 061620Z 13007KT 080V160 9999 -RA BKN025 06/03 Q1013=
201405061550 METAR ESMX 061550Z AUTO 13008KT 080V160 9999 DZ FEW014/// SCT025/// 06/03 Q1013=
201405061520 METAR ESMX 061520Z 16009KT 9999 -RA FEW016 BKN030 07/04 Q1013=
201405061450 METAR ESMX 061450Z AUTO 14009KT 110V170 9999 -RA FEW016/// SCT027/// BKN032/// 08/03 Q1014 REDZ=
201405061420 METAR ESMX 061420Z 14009KT 9999 DZ FEW016 BKN031 BKN037 08/03 Q1014=
201405061350 METAR ESMX 061350Z 15010KT 120V180 9999 -DZ FEW017 BKN032 08/03 Q1014=
201405061320 METAR ESMX 061320Z 15010KT 110V180 9999 -DZ SCT012 BKN030 08/03 Q1014 REDZ=
201405061250 METAR ESMX 061250Z 15010KT 120V190 9999 -DZ FEW016 BKN026 08/03 Q1015=
201405061220 METAR ESMX 061220Z 15009KT 100V180 9999 -DZ FEW015 BKN023 08/03 Q1015=
201405061150 METAR ESMX 061150Z 15010KT 110V170 9999 -RA FEW015 SCT020 BKN025 07/04 Q1015=
201405061120 METAR ESMX 061120Z 14008KT 100V180 9999 DZ FEW010 SCT020 BKN025 07/04 Q1016=
201405061050 METAR ESMX 061050Z AUTO 16010KT 120V190 9999 DZ FEW015/// SCT017/// BKN031/// 07/04 Q1016=
201405061020 METAR ESMX 061020Z 14010G22KT 100V170 9999 DZ FEW015 BKN025 08/03 Q1016=
201405060950 METAR ESMX 060950Z 16011KT 120V180 9999 -RA FEW019 BKN025 BKN038 08/03 Q1016 REDZ=
201405060920 METAR ESMX 060920Z 15011KT 110V190 9999 -RA FEW015 BKN028 08/03 Q1016=
201405060850 METAR ESMX 060850Z 15011KT 9999 -RA FEW014 SCT030 BKN034 08/02 Q1016=
201405060820 METAR ESMX 060820Z 16010KT 110V190 9999 -RA FEW011 BKN032 08/01 Q1016=
201405060750 METAR ESMX 060750Z 17012KT 9999 -RA FEW021 SCT035 08/00 Q1016=
201405060720 METAR ESMX 060720Z 14010KT 100V170 9999 -DZ FEW022 07/M00 Q1017=
201405060650 METAR ESMX 060650Z 15008KT 120V190 9999 FEW024 SCT050 07/00 Q1017=
201405060620 METAR ESMX 060620Z 15005KT 9999 FEW037 07/02 Q1017=
201405060550 METAR ESMX 060550Z 15006KT 100V170 9999 BR FEW035 06/02 Q1017=
201405060520 METAR ESMX 060520Z 14006KT 110V170 CAVOK 06/03 Q1017=
201405060450 METAR ESMX 060450Z 14005KT 100V180 CAVOK 06/03 Q1017=
201405060420 METAR ESMX 060420Z 14006KT 100V170 CAVOK 06/03 Q1017=
201405060350 METAR ESMX 060350Z 14007KT CAVOK 05/03 Q1017=
201405060320 METAR ESMX 060320Z 14006KT CAVOK 05/03 Q1017=
201405060250 METAR ESMX 060250Z AUTO 14006KT 110V170 9999 FEW069/// 05/03 Q1017=
201405060220 METAR ESMX 060220Z AUTO 14006KT 9999 SCT051/// BKN071/// 05/04 Q1017=
201405060150 METAR ESMX 060150Z AUTO 14007KT 9999 OVC051/// 05/04 Q1017=
201405060120 METAR ESMX 060120Z AUTO 15006KT 9999 FEW050/// SCT063/// 05/03 Q1017=
201405060050 METAR ESMX 060050Z AUTO 15007KT 9999 FEW044/// BKN057/// 05/03 Q1017=
201405060020 METAR ESMX 060020Z AUTO 15006KT 9999 FEW054/// SCT075/// 05/02 Q1017=
201405052350 METAR ESMX 052350Z 14007KT CAVOK 05/02 Q1017=
201405052320 METAR ESMX 052320Z AUTO 14007KT 9999 SCT074/// 05/02 Q1017=
201405052250 METAR ESMX 052250Z 14007KT CAVOK 05/01 Q1017=
201405052220 METAR ESMX 052220Z 14007KT CAVOK 05/00 Q1017=
201405052150 METAR ESMX 052150Z 14007KT CAVOK 06/M00 Q1017=
201405052120 METAR ESMX 052120Z 14006KT CAVOK 06/M00 Q1017=
201405052050 METAR ESMX 052050Z 15007KT CAVOK 07/M00 Q1017=
201405052020 METAR ESMX 052020Z 15007KT CAVOK 07/00 Q1017=
201405051950 METAR ESMX 051950Z 14006KT CAVOK 09/00 Q1016=
201405051920 METAR ESMX 051920Z 15004KT CAVOK 09/M00 Q1016=
201405051850 METAR ESMX 051850Z 16005KT CAVOK 08/M03 Q1016=
201405051820 METAR ESMX 051820Z 00000KT CAVOK 08/M04 Q1016=
201405051750 METAR ESMX 051750Z 00000KT CAVOK 08/M04 Q1016=
201405051720 METAR ESMX 051720Z 25001KT CAVOK 10/M07 Q1016=
201405051650 METAR ESMX 051650Z 22004KT CAVOK 11/M07 Q1016=
201405051620 METAR ESMX 051620Z 22005KT CAVOK 12/M08 Q1016=
201405051550 METAR ESMX 051550Z 30003KT CAVOK 12/M08 Q1016=
201405051520 METAR ESMX 051520Z 28005KT 250V350 CAVOK 12/M08 Q1016=
201405051450 METAR ESMX 051450Z 29005KT 250V330 CAVOK 12/M08 Q1016=
201405051420 METAR COR ESMX 051420Z 25005KT 210V320 CAVOK 12/M08 Q1016=
201405051350 METAR ESMX 051350Z VRB05KT 200V080 CAVOK 12/M09 Q1017=
201405051320 METAR ESMX 051320Z 05006KT 020V110 CAVOK 13/M09 Q1017=
201405051250 METAR ESMX 051250Z VRB03KT 360V360 CAVOK 12/M09 Q1017=
201405051220 METAR ESMX 051220Z 10005KT 010V160 CAVOK 13/M09 Q1017=
201405051150 METAR ESMX 051150Z AUTO 07005KT 360V130 9999 FEW082/// 12/M10 Q1017=
201405051120 METAR ESMX 051120Z 10005KT 050V160 CAVOK 12/M10 Q1017=
201405051050 METAR ESMX 051050Z 08004KT 030V170 CAVOK 12/M10 Q1017=
201405051020 METAR ESMX 051020Z 02006KT 350V070 CAVOK 12/M10 Q1017=
201405050950 METAR ESMX 050950Z 05006KT 340V110 CAVOK 12/M11 Q1018=
201405050920 METAR ESMX 050920Z 01005KT 330V040 CAVOK 11/M10 Q1018=
201405050850 METAR ESMX 050850Z 03005KT 330V130 CAVOK 10/M09 Q1018=
201405050820 METAR COR ESMX 050820Z 06005KT 330V100 CAVOK 10/M07 Q1018=
201405050750 METAR ESMX 050750Z 34001KT CAVOK 10/M06 Q1018=
201405050720 METAR ESMX 050720Z VRB01KT CAVOK 08/00 Q1018=
201405050650 METAR ESMX 050650Z 00000KT CAVOK 06/02 Q1018=
201405050620 METAR ESMX 050620Z VRB02KT CAVOK 05/02 Q1018=
201405050550 METAR ESMX 050550Z 00000KT CAVOK 04/02 Q1018=
201405050520 METAR ESMX 050520Z AUTO 00000KT 5000 VV001 03/02 Q1018=
201405050450 METAR ESMX 050450Z 00000KT 0100 R01/P2000N R19/0200N BCFG VV002 01/00 Q1018=
201405050420 METAR ESMX 050420Z 00000KT 0150 R01/0325N R19/0275N FZFG VV002 M03/M03 Q1018=
201405050350 METAR ESMX 050350Z 00000KT 0050 R01/0150V0225N R19/0800D FZFG VV002 M04/M04 Q1018=
201405050320 METAR ESMX 050320Z AUTO 00000KT 0150 R01/P2000N R19/0250N BCFG VV000 M04/M05 Q1018=
201405050250 METAR ESMX 050250Z AUTO 00000KT 9999 SCT000/// M05/M06 Q1018=
201405050220 METAR ESMX 050220Z AUTO 00000KT 9999 NCD M04/M05 Q1018=
201405050150 METAR ESMX 050150Z AUTO 00000KT 9999 NCD M04/M05 Q1018=
201405050120 METAR ESMX 050120Z AUTO 00000KT 9999 NCD M04/M05 Q1018=
201405050050 METAR ESMX 050050Z AUTO 00000KT 9999 NCD M03/M04 Q1018=
201405050020 METAR ESMX 050020Z AUTO 00000KT 9999 NCD M03/M05 Q1018=
201405042350 METAR ESMX 042350Z AUTO 16001KT 9999 NCD M02/M04 Q1018=
201405042320 METAR ESMX 042320Z 17002KT CAVOK M02/M03 Q1018=
201405042250 METAR ESMX 042250Z 16004KT CAVOK M02/M04 Q1018=
201405042220 METAR ESMX 042220Z 16004KT CAVOK M02/M06 Q1018=
201405042150 METAR ESMX 042150Z 13004KT CAVOK M01/M05 Q1018=
201405042120 METAR ESMX 042120Z 00000KT CAVOK M01/M06 Q1018=
201405042050 METAR ESMX 042050Z 18003KT CAVOK M01/M07 Q1018=
201405042020 METAR ESMX 042020Z 00000KT CAVOK 01/M06 Q1018=
201405041950 METAR ESMX 041950Z VRB02KT CAVOK 03/M07 Q1018=
201405041920 METAR ESMX 041920Z 02003KT CAVOK 05/M07 Q1018=
201405041850 METAR ESMX 041850Z 35007KT CAVOK 07/M08 Q1018=
201405041820 METAR ESMX 041820Z 03007KT CAVOK 08/M08 Q1017=
201405041750 METAR ESMX 041750Z 01008KT CAVOK 09/M08 Q1017=
201405041720 METAR COR ESMX 041720Z 36009KT CAVOK 10/M08 Q1017=
201405041650 METAR ESMX 041650Z 36010KT CAVOK 09/M09 Q1017=
201405041620 METAR ESMX 041620Z 01010KT CAVOK 10/M09 Q1017=
201405041550 METAR COR ESMX 041550Z 34010KT CAVOK 11/M08 Q1017=
201405041520 METAR ESMX 041520Z 35011KT 320V030 CAVOK 10/M10 Q1017=
201405041450 METAR ESMX 041450Z 33011KT CAVOK 11/M08 Q1017=
201405041420 METAR COR ESMX 041420Z 36011KT 330V030 CAVOK 10/M08 Q1017=
201405041350 METAR ESMX 041350Z 36010KT CAVOK 10/M09 Q1016=
201405041320 METAR ESMX 041320Z 33010KT CAVOK 11/M09 Q1016=
201405041250 METAR ESMX 041250Z 31008KT 290V360 CAVOK 11/M09 Q1017=
201405041220 METAR ESMX 041220Z AUTO 34010KT 300V020 9999 SCT077/// 10/M09 Q1017=
201405041150 METAR ESMX 041150Z AUTO 33010KT 290V010 9999 FEW077/// 11/M09 Q1017=
201405041120 METAR ESMX 041120Z AUTO 35010KT 9999 FEW069/// 10/M09 Q1017=
201405041050 METAR ESMX 041050Z AUTO 34010KT 310V010 9999 FEW068/// 10/M09 Q1017=
201405041020 METAR ESMX 041020Z AUTO 31011KT 9999 FEW067/// 09/M08 Q1017=
201405040950 METAR ESMX 040950Z AUTO 32011KT 290V350 9999 FEW062/// 09/M08 Q1017=
201405040920 METAR ESMX 040920Z AUTO 31012KT 280V350 9999 FEW064/// 10/M08 Q1017=
201405040850 METAR ESMX 040850Z AUTO 31014KT 280V340 9999 NCD 09/M08 Q1016=
201405040820 METAR ESMX 040820Z AUTO 34013KT 9999 NCD 09/M07 Q1016=
201405040750 METAR ESMX 040750Z AUTO 33011KT 300V360 9999 NCD 09/M07 Q1016=
201405040720 METAR ESMX 040720Z AUTO 31010KT 270V350 9999 NCD 09/M06 Q1016=
201405040650 METAR ESMX 040650Z AUTO 35009KT 300V020 9999 NCD 07/M05 Q1016=
201405040620 METAR ESMX 040620Z AUTO 34008KT 9999 NCD 07/M02 Q1016=
201405040550 METAR ESMX 040550Z AUTO 33007KT 9999 NCD 06/M02 Q1016=
201405040520 METAR ESMX 040520Z AUTO 32007KT 9999 NCD 05/M01 Q1016=
201405040450 METAR ESMX 040450Z AUTO 32004KT 290V350 9999 SCT081/// 03/M01 Q1016=
201405040420 METAR ESMX 040420Z AUTO 30004KT 9999 SCT082/// 01/M01 Q1015=
201405040350 METAR ESMX 040350Z AUTO 27005KT 9999 SCT084/// M00/M02 Q1015=
201405040320 METAR ESMX 040320Z AUTO 29004KT 9999 BKN088/// M00/M02 Q1015=
201405040250 METAR ESMX 040250Z AUTO 30004KT 9999 NCD M00/M03 Q1015=
201405040220 METAR ESMX 040220Z AUTO 29005KT 9999 NCD 01/M02 Q1015=
201405040150 METAR ESMX 040150Z AUTO 31003KT 9999 NCD 01/M02 Q1015=
201405040120 METAR ESMX 040120Z AUTO 29005KT 9999 NCD 02/M02 Q1015=
201405040050 METAR ESMX 040050Z AUTO 28005KT 9999 NCD 02/M02 Q1015=
201405040020 METAR ESMX 040020Z AUTO 28004KT 250V320 9999 NCD 02/M03 Q1015=
201405032350 METAR ESMX 032350Z AUTO 27005KT 9999 NCD 02/M03 Q1015=
201405032320 METAR ESMX 032320Z AUTO 27006KT 9999 NCD 03/M03 Q1015=
201405032250 METAR ESMX 032250Z AUTO 28005KT 9999 NCD 03/M02 Q1015=
201405032220 METAR ESMX 032220Z AUTO 27006KT 9999 NCD 04/M02 Q1015=
201405032150 METAR ESMX 032150Z AUTO 27005KT 9999 NCD 04/M00 Q1015=
201405032120 METAR ESMX 032120Z AUTO 27005KT 9999 NCD 05/00 Q1015=
201405032050 METAR ESMX 032050Z AUTO 22005KT 9999 NCD 05/00 Q1015=
201405032020 METAR ESMX 032020Z AUTO 23006KT 9999 NCD 05/00 Q1015=
201405031950 METAR ESMX 031950Z AUTO 22006KT 9999 FEW100/// 06/00 Q1015=
201405031920 METAR ESMX 031920Z AUTO 24007KT 210V270 9999 SCT042/// 08/00 Q1015=
201405031850 METAR ESMX 031850Z AUTO 25007KT 230V290 9999 FEW041/// 08/00 Q1016=
201405031820 METAR ESMX 031820Z AUTO 25009KT 9999 FEW100/// 08/00 Q1016=
201405031750 METAR ESMX 031750Z 24007KT CAVOK 09/M01 Q1016=
201405031720 METAR ESMX 031720Z 24010KT CAVOK 09/M02 Q1016=
201405031650 METAR ESMX 031650Z 27010KT CAVOK 09/M02 Q1016=
201405031620 METAR ESMX 031620Z AUTO 25010KT 210V280 9999 NCD 10/M03 Q1016=
201405031550 METAR ESMX 031550Z 25010KT 220V290 CAVOK 11/M04 Q1016=
201405031520 METAR ESMX 031520Z AUTO 25012KT 230V290 9999 FEW098/// 11/M05 Q1016=
201405031450 METAR ESMX 031450Z AUTO 25012G24KT 200V280 9999 SCT060/// 11/M05 Q1017=
201405031420 METAR ESMX 031420Z AUTO 22013G24KT 9999 BKN057/// 11/M04 Q1017=
201405031350 METAR ESMX 031350Z AUTO 24014KT 210V280 9999 FEW059/// SCT075/// 12/M03 Q1017=
201405031320 METAR ESMX 031320Z AUTO 23014KT 200V270 9999 SCT051/// BKN074/// 12/M03 Q1017=
201405031250 METAR ESMX 031250Z AUTO 25014KT 9999 FEW041/// SCT056/// BKN069/// 11/M03 Q1018=
201405031220 METAR ESMX 031220Z AUTO 24011KT 200V270 9999 FEW059/// BKN070/// 11/M04 Q1018=
201405031150 METAR ESMX 031150Z AUTO 25012KT 9999 BKN059/// 13/M04 Q1018=
201405031120 METAR ESMX 031120Z AUTO 24011KT 210V280 9999 FEW035/// BKN068/// 11/M05 Q1019=
201405031050 METAR ESMX 031050Z AUTO 25012KT 9999 BKN063/// 12/M04 Q1019=
201405031020 METAR ESMX 031020Z AUTO 26009KT 210V300 9999 BKN063/// 12/M05 Q1019=
201405030950 METAR ESMX 030950Z AUTO 23010KT 200V280 9999 SCT063/// 12/M04 Q1019=
201405030920 METAR ESMX 030920Z AUTO 29008KT 250V340 9999 BKN060/// 11/M06 Q1020=
201405030850 METAR ESMX 030850Z AUTO 23010KT 9999 BKN058/// 10/M05 Q1020=
201405030820 METAR ESMX 030820Z AUTO VRB10KT 360V360 9999 FEW059/// 10/M06 Q1020=
201405030750 METAR ESMX 030750Z AUTO 23010KT 210V270 9999 NCD 10/M04 Q1020=
201405030720 METAR ESMX 030720Z AUTO 28009KT 250V320 9999 NCD 10/M02 Q1021=
201405030650 METAR ESMX 030650Z AUTO 27009KT 9999 NCD 09/M01 Q1021=
201405030620 METAR ESMX 030620Z AUTO 25006KT 9999 NCD 08/M01 Q1021=
201405030550 METAR ESMX 030550Z AUTO 26003KT 230V300 9999 NCD 06/M02 Q1021=
201405030520 METAR ESMX 030520Z AUTO VRB02KT 9999 NCD 04/M03 Q1022=
201405030450 METAR ESMX 030450Z AUTO 00000KT 9999 NCD 01/M02 Q1022=
201405030420 METAR ESMX 030420Z AUTO 00000KT 9999 NCD M01/M03 Q1022=
201405030350 METAR ESMX 030350Z AUTO 00000KT 9999 NCD M01/M04 Q1022=
201405030320 METAR ESMX 030320Z AUTO 00000KT 9999 FEW067/// M01/M04 Q1022=
201405030250 METAR ESMX 030250Z AUTO 00000KT 9999 FEW069/// M01/M04 Q1022=
201405030220 METAR ESMX 030220Z AUTO 00000KT 9999 BKN068/// M00/M03 Q1022=
201405030150 METAR ESMX 030150Z AUTO 00000KT 9999 BKN070/// M00/M03 Q1022=
201405030120 METAR ESMX 030120Z AUTO 17002KT 9999 BKN074/// 00/M03 Q1022=
201405030050 METAR ESMX 030050Z AUTO VRB02KT 9999 BKN069/// M01/M04 Q1022=
201405030020 METAR ESMX 030020Z AUTO 00000KT 9999 BKN067/// M01/M03 Q1022=
201405022350 METAR ESMX 022350Z AUTO 00000KT 9999 SCT068/// M01/M04 Q1022=
201405022320 METAR ESMX 022320Z AUTO 00000KT 9999 NCD M01/M04 Q1022=
201405022250 METAR ESMX 022250Z AUTO 00000KT 9999 SCT078/// M00/M03 Q1022=
201405022220 METAR ESMX 022220Z AUTO 00000KT 9999 BKN077/// M00/M03 Q1022=
201405022150 METAR ESMX 022150Z AUTO 00000KT 9999 FEW075/// M01/M04 Q1022=
201405022120 METAR ESMX 022120Z AUTO 00000KT 9999 NCD M00/M04 Q1022=
201405022050 METAR ESMX 022050Z AUTO 00000KT 9999 NCD 01/M04 Q1022=
201405022020 METAR ESMX 022020Z AUTO 00000KT 9999 NCD 02/M04 Q1022=
201405021950 METAR ESMX 021950Z AUTO 00000KT 9999 NCD 03/M04 Q1021=
201405021920 METAR ESMX 021920Z AUTO 00000KT 9999 BKN078/// 04/M03 Q1021=
201405021850 METAR ESMX 021850Z AUTO 32001KT 9999 BKN078/// 06/M04 Q1021=
201405021820 METAR ESMX 021820Z AUTO 34006KT 9999 FEW078/// 08/M06 Q1021=
201405021750 METAR ESMX 021750Z AUTO 01006KT 9999 FEW073/// SCT094/// 10/M06 Q1021=
201405021720 METAR ESMX 021720Z AUTO 35005KT 9999 FEW090/// 10/M07 Q1020=
201405021650 METAR ESMX 021650Z AUTO 32006KT 280V350 9999 SCT087/// 10/M07 Q1020=
201405021620 METAR ESMX 021620Z AUTO 02007KT 350V060 9999 FEW065/// 10/M07 Q1020=
201405021550 METAR ESMX 021550Z AUTO 35004KT 9999 SCT088/// 11/M08 Q1020=
201405021520 METAR ESMX 021520Z AUTO 33006KT 290V020 9999 SCT086/// 11/M08 Q1020=
201405021450 METAR ESMX 021450Z AUTO 35008KT 9999 BKN081/// 11/M09 Q1020=
201405021420 METAR ESMX 021420Z AUTO 32005KT 280V360 9999 BKN081/// 11/M09 Q1020=
201405021350 METAR ESMX 021350Z AUTO 02008KT 340V050 9999 SCT083/// 11/M10 Q1020=
201405021320 METAR ESMX 021320Z 35004KT 300V020 CAVOK 11/M09 Q1020=
201405021250 METAR ESMX 021250Z 01006KT 320V060 CAVOK 10/M09 Q1020=
201405021220 METAR ESMX 021220Z VRB03KT 280V160 CAVOK 11/M08 Q1021=
201405021150 METAR ESMX 021150Z 36010KT CAVOK 10/M08 Q1021=
201405021120 METAR ESMX 021120Z 01007KT 300V050 9999 FEW045 BKN090 12/M08 Q1021=
201405021050 METAR ESMX 021050Z 33005KT 280V360 9999 FEW045 BKN075 10/M09 Q1021=
201405021020 METAR ESMX 021020Z 31007KT 260V030 9999 FEW030 BKN070 10/M09 Q1021=
201405020950 METAR ESMX 020950Z 33007KT 290V010 9999 FEW030 BKN080 09/M09 Q1020=
201405020920 METAR ESMX 020920Z AUTO VRB06KT 030V020 9999 SCT067/// 10/M08 Q1020=
201405020850 METAR ESMX 020850Z 02006KT 350V050 9999 FEW040 10/M07 Q1020=
201405020820 METAR ESMX 020820Z 34006KT 300V030 9999 FEW040 09/M07 Q1020=
201405020750 METAR ESMX 020750Z 36007KT 320V020 CAVOK 09/M06 Q1020=
201405020720 METAR ESMX 020720Z 31005KT 260V010 CAVOK 08/M04 Q1020=
201405020650 METAR ESMX 020650Z AUTO 33004KT 250V010 9999 NCD 07/M03 Q1020=
201405020620 METAR ESMX 020620Z AUTO 32004KT 290V350 9999 NCD 06/M01 Q1020=
201405020550 METAR ESMX 020550Z AUTO 30003KT 9999 NCD 04/00 Q1020=
201405020520 METAR ESMX 020520Z AUTO VRB02KT 9999 NCD 02/01 Q1020=
201405020450 METAR ESMX 020450Z AUTO 00000KT 9999 NCD M00/M01 Q1019=
201405020420 METAR ESMX 020420Z AUTO 00000KT 9999 NCD M03/M04 Q1019=
201405020350 METAR ESMX 020350Z AUTO 00000KT 9999 NCD M04/M05 Q1019=
201405020320 METAR ESMX 020320Z AUTO 00000KT 9999 NCD M04/M05 Q1019=
201405020250 METAR ESMX 020250Z AUTO 17002KT 9999 NCD M04/M05 Q1019=
201405020220 METAR ESMX 020220Z AUTO 23002KT 9999 NCD M04/M05 Q1018=
201405020150 METAR ESMX 020150Z AUTO 00000KT 9999 NCD M04/M05 Q1018=
201405020120 METAR ESMX 020120Z AUTO VRB01KT 9999 NCD M03/M04 Q1018=
201405020050 METAR ESMX 020050Z AUTO 00000KT 9999 NCD M03/M04 Q1018=
201405020020 METAR ESMX 020020Z AUTO 00000KT 9999 NCD M03/M04 Q1018=
201405012350 METAR ESMX 012350Z AUTO VRB02KT 9999 NCD M02/M04 Q1018=
201405012320 METAR ESMX 012320Z AUTO VRB02KT 9999 NCD M02/M04 Q1018=
201405012250 METAR ESMX 012250Z 00000KT CAVOK M02/M05 Q1018=
201405012220 METAR ESMX 012220Z AUTO 20001KT 9999 NCD M01/M04 Q1018=
201405012150 METAR COR ESMX 012150Z 11002KT CAVOK M01/M04 Q1017=
201405012120 METAR ESMX 012120Z 00000KT CAVOK M00/M04 Q1017=
201405012050 METAR ESMX 012050Z AUTO 00000KT 9999 NCD M00/M04 Q1017=
201405012020 METAR ESMX 012020Z 02004KT CAVOK 02/M04 Q1017=
201405011950 METAR COR ESMX 011950Z 01004KT CAVOK 02/M04 Q1016=
201405011920 METAR COR ESMX 011920Z 03005KT CAVOK 05/M05 Q1016=
201405011850 METAR ESMX 011850Z 01007KT CAVOK 06/M05 Q1016=
201405011820 METAR ESMX 011820Z 02008KT CAVOK 07/M06 Q1015=
201405011750 METAR ESMX 011750Z 35006KT CAVOK 08/M06 Q1015=
201405011720 METAR ESMX 011720Z AUTO 33005KT 9999 NCD 08/M05 Q1015=
201405011650 METAR ESMX 011650Z AUTO 36007KT 9999 NCD 08/M07 Q1014=
201405011620 METAR ESMX 011620Z AUTO 36008KT 9999 SCT061/// 10/M07 Q1014=
201405011550 METAR ESMX 011550Z AUTO 35009KT 310V020 9999 NCD 10/M07 Q1014=
201405011520 METAR ESMX 011520Z AUTO 36011KT 330V030 9999 FEW059/// 09/M07 Q1014=
201405011450 METAR ESMX 011450Z AUTO 34011KT 9999 NCD 09/M06 Q1014=
201405011420 METAR ESMX 011420Z AUTO 01009KT 9999 NCD 09/M06 Q1014=
201405011350 METAR ESMX 011350Z AUTO 01010KT 340V060 9999 FEW055/// 09/M05 Q1013=
201405011320 METAR ESMX 011320Z AUTO 36010KT 330V040 9999 FEW053/// 09/M06 Q1013=
201405011250 METAR ESMX 011250Z AUTO 01012KT 320V030 9999 FEW052/// 09/M06 Q1013=
201405011220 METAR ESMX 011220Z AUTO 34012KT 9999 FEW048/// 09/M04 Q1013=
