##########################################################
# Query made at 04/19/2024 21:43:27 UTC
# Time interval: from 01/01/2015 12:00  to 01/31/2015 12:59  UTC
##########################################################

##########################################################
# ESMX, Vaxjo (Sweden)
# WMO index: 02641. WIGOS ID: 0-20000-0-02648
# Latitude 56-51N. Longitude 014-50E. Altitude 199 m.
##########################################################

201501311250 METAR ESMX 311250Z 30003KT 9999 OVC006 00/M00 Q0973=
201501311220 METAR ESMX 311220Z 34003KT 9999 FEW004 OVC005 00/M00 Q0973=
201501311150 METAR ESMX 311150Z 33003KT 9999 FEW002 OVC004 00/M00 Q0973=
201501311120 METAR ESMX 311120Z 31004KT 9999 BKN003 OVC006 00/M00 Q0973=
201501311050 METAR ESMX 311050Z 31003KT 9999 FEW002 SCT004 OVC007 M00/M01 Q0973=
201501311020 METAR ESMX 311020Z AUTO 33003KT 9999 SCT004/// OVC008/// M00/M01 Q0973=
201501310950 METAR ESMX 310950Z AUTO 36005KT 9999 OVC004/// M00/M01 Q0973=
201501310920 METAR ESMX 310920Z AUTO 35004KT 9999 OVC004/// M00/M01 Q0973=
201501310850 METAR ESMX 310850Z AUTO 33004KT 9999 BKN003/// OVC006/// M01/M01 Q0973=
201501310820 METAR ESMX 310820Z AUTO 33003KT 9999 OVC003/// M01/M01 Q0973=
201501310750 METAR ESMX 310750Z AUTO VRB01KT 9000 BR OVC005/// M01/M01 Q0973=
201501310720 METAR ESMX 310720Z AUTO 00000KT 5000 -FZRA BKN005/// OVC008/// M02/M02 Q0973=
201501310650 METAR ESMX 310650Z AUTO 29003KT 3600 -FZRA FEW007/// SCT009/// M02/M02 Q0972=
201501310620 METAR ESMX 310620Z AUTO 30003KT 3700 FZRA BKN006/// BKN022/// M02/M02 Q0972=
201501310550 METAR ESMX 310550Z AUTO 29003KT 4100 -FZRA OVC004/// M01/M01 Q0972=
201501310520 METAR ESMX 310520Z AUTO 31003KT 3000 -FZRA FEW003/// OVC005/// M01/M01 Q0972 REFZDZ=
201501310450 METAR ESMX 310450Z AUTO 34004KT 9999 FEW004/// SCT005/// M01/M02 Q0972=
201501310420 METAR ESMX 310420Z AUTO 36005KT 9999 SCT003/// M01/M01 Q0972=
201501310350 METAR ESMX 310350Z AUTO 36005KT 9999 SCT003/// M01/M01 Q0972=
201501310320 METAR ESMX 310320Z AUTO 02006KT 9999 FEW004/// M01/M01 Q0972=
201501310250 METAR ESMX 310250Z AUTO 36006KT 9000 -FZDZ BKN003/// M01/M01 Q0972=
201501310220 METAR ESMX 310220Z AUTO 34005KT 8000 FZDZ OVC003/// M01/M01 Q0972 REFZDZ=
201501310150 METAR ESMX 310150Z AUTO 36004KT 9000 FZDZ SCT003/// OVC008/// M00/M01 Q0973=
201501310120 METAR ESMX 310120Z AUTO 01005KT 9999 -FZDZ FEW005/// SCT006/// OVC008/// M00/M01 Q0973=
201501310050 METAR ESMX 310050Z AUTO 01003KT 9999 -FZDZ FEW005/// BKN006/// OVC008/// M01/M01 Q0973=
201501310020 METAR ESMX 310020Z AUTO 02003KT 9999 OVC004/// M01/M01 Q0973=
201501302350 METAR ESMX 302350Z AUTO 03005KT 9999 OVC003/// M01/M01 Q0973=
201501302320 METAR ESMX 302320Z AUTO 03005KT 9999 OVC003/// M01/M01 Q0973=
201501302250 METAR ESMX 302250Z AUTO 03004KT 9999 OVC003/// M01/M01 Q0973=
201501302220 METAR ESMX 302220Z AUTO 01004KT 7000 OVC003/// M01/M01 Q0973=
201501302150 METAR ESMX 302150Z 01003KT 2200 -SN OVC002 M01/M01 Q0973 REFZDZ=
201501302120 METAR ESMX 302120Z 03003KT 4000 -SN BKN002 M01/M01 Q0973=
201501302050 METAR ESMX 302050Z 03003KT 6000 -SN FEW001 BKN004 M00/M01 Q0973=
201501302020 METAR ESMX 302020Z 04003KT 6000 -SN FEW002 BKN009 M00/M00 Q0974=
201501301950 METAR ESMX 301950Z 04003KT 4000 -SN FEW005 BKN013 M00/M00 Q0974=
201501301920 METAR COR ESMX 301920Z 06003KT 030V100 4000 -SN FEW005 SCT013 M00/M00 Q0974=
201501301850 METAR ESMX 301850Z VRB03KT 5000 -SN FEW003 BKN006 M00/M00 Q0974 RERA=
201501301820 METAR COR ESMX 301820Z 05003KT 020V080 4000 -SN SCT002 OVC007 00/M00 Q0974=
201501301750 METAR ESMX 301750Z 05003KT 020V080 4000 -SN FEW002 SCT009 BKN013 00/M00 Q0974=
201501301720 METAR ESMX 301720Z 06003KT 3000 SN FEW005 BKN009 00/M00 Q0974=
201501301650 METAR ESMX 301650Z VRB03KT 4000 -SN FEW003 BKN006 OVC009 00/M00 Q0974=
201501301620 METAR COR ESMX 301620Z 07003KT 040V100 8000 -SN FEW007 OVC011 00/M00 Q0974=
201501301550 METAR ESMX 301550Z 04005KT 360V070 9999 FEW009 SCT012 OVC019 00/M00 Q0974=
201501301520 METAR ESMX 301520Z 06005KT 030V100 9999 -SN FEW005 SCT007 BKN010 00/M00 Q0974=
201501301450 METAR ESMX 301450Z 06004KT 010V100 3000 SN FEW005 BKN009 00/00 Q0974=
201501301420 METAR ESMX 301420Z 06004KT 040V100 4000 SN FEW003 SCT005 BKN008 00/00 Q0975=
201501301350 METAR ESMX 301350Z 05004KT 010V100 3000 -SN FEW005 BKN010 00/00 Q0975=
201501301320 METAR ESMX 301320Z 07005KT 020V110 3000 -SN FEW005 BKN009 01/00 Q0975=
201501301250 METAR ESMX 301250Z 08004KT 030V140 5000 -SN FEW003 BKN007 01/00 Q0976=
201501301220 METAR ESMX 301220Z 07004KT 040V120 4500 -SN FEW003 OVC007 01/00 Q0976=
201501301150 METAR ESMX 301150Z 06003KT 020V100 2200 SN FEW003 SCT005 BKN011 01/00 Q0976=
201501301120 METAR ESMX 301120Z 09004KT 060V120 3400 SN FEW005 SCT007 BKN009 01/00 Q0976=
201501301050 METAR ESMX 301050Z 09004KT 020V120 7000 -SN FEW005 BKN009 01/M00 Q0977=
201501301020 METAR ESMX 301020Z 09003KT 030V130 2300 SN FEW006 BKN007 OVC009 00/M00 Q0977=
201501300950 METAR ESMX 300950Z 11004KT 070V150 9000 -SN OVC005 00/M00 Q0977 RERA=
201501300920 METAR ESMX 300920Z 12004KT 060V170 9000 -SN BKN005 OVC008 00/M00 Q0977=
201501300850 METAR ESMX 300850Z 14003KT 110V280 1500 R01/P2000N R19/0900VP2000N SN OVC005 M00/M01 Q0977=
201501300820 METAR ESMX 300820Z VRB03KT 9999 -SN FEW006 BKN008 M00/M01 Q0977=
201501300750 METAR ESMX 300750Z 11004KT 070V160 9999 SCT004 BKN020 M00/M01 Q0977=
201501300720 METAR ESMX 300720Z 11004KT 060V150 9999 BKN004 M01/M01 Q0976=
201501300650 METAR ESMX 300650Z VRB02KT 9999 FEW004 BKN008 M01/M01 Q0976=
201501300619 METAR ESMX 300619Z 12004KT 070V150 9000 -SN FEW005 SCT015 BKN024 M00/M01 Q0976=
201501300550 METAR ESMX 300550Z AUTO 14005KT 110V180 9999 FEW011/// SCT019/// BKN024/// M00/M01 Q0976=
201501300523 METAR ESMX 300523Z 14005KT 100V160 9999 -SN FEW006 SCT008 BKN020 M00/M01 Q0976=
201501300520 METAR ESMX 300520Z AUTO 14005KT 110V170 8000 FEW006/// SCT008/// BKN020/// M00/M01 Q0976=
201501300450 METAR ESMX 300450Z AUTO 13003KT 100V170 9999 -FZRA FEW006/// SCT012/// OVC016/// M00/M01 Q0976=
201501300420 METAR ESMX 300420Z AUTO 14003KT 100V190 9999 FEW005/// SCT008/// BKN012/// M01/M01 Q0976=
201501300350 METAR ESMX 300350Z AUTO 15004KT 110V190 9999 SCT005/// BKN010/// OVC048/// M00/M01 Q0976=
201501300320 METAR ESMX 300320Z AUTO 14004KT 110V180 9999 FEW009/// SCT020/// OVC048/// M01/M01 Q0976=
201501300250 METAR ESMX 300250Z AUTO 14005KT 9999 FEW005/// SCT006/// BKN021/// M01/M01 Q0976=
201501300220 METAR ESMX 300220Z AUTO 15005KT 110V170 9999 FEW005/// BKN052/// M01/M01 Q0976=
201501300150 METAR ESMX 300150Z AUTO 14005KT 9999 FEW006/// BKN054/// M00/M01 Q0975=
201501300120 METAR ESMX 300120Z AUTO 15006KT 9999 FEW006/// SCT008/// BKN010/// M00/M01 Q0975=
201501300050 METAR ESMX 300050Z 15005KT 9999 FEW009 BKN010 OVC054 00/M01 Q0976=
201501300020 METAR ESMX 300020Z 15007KT 9999 BKN050 00/M01 Q0975=
201501292350 METAR ESMX 292350Z 17008KT 9999 OVC049 00/M01 Q0975=
201501292320 METAR ESMX 292320Z 17010KT 9999 FEW011 OVC050 00/M01 Q0975=
201501292250 METAR ESMX 292250Z 17011KT 130V190 9999 FEW010 BKN012 BKN049 00/M01 Q0975=
201501292220 METAR ESMX 292220Z 17012KT 9999 FEW010 BKN013 OVC017 01/M01 Q0975=
201501292150 METAR ESMX 292150Z 17012KT 9999 FEW010 BKN015 BKN021 00/M01 Q0975=
201501292120 METAR ESMX 292120Z 17012KT 9999 FEW005 BKN010 00/M01 Q0976=
201501292050 METAR ESMX 292050Z 17012KT 9999 -SN FEW005 SCT012 BKN022 00/M01 Q0976=
201501292020 METAR ESMX 292020Z 16012KT 3900 SN FEW002 SCT011 BKN016 00/M01 Q0976=
201501291950 METAR ESMX 291950Z 17011KT 9999 -SN FEW010 SCT015 BKN018 00/M01 Q0976=
201501291920 METAR ESMX 291920Z 17010KT 9999 -SN FEW009 SCT013 BKN016 00/M01 Q0976=
201501291850 METAR ESMX 291850Z 16009KT 9999 -SN FEW008 SCT011 BKN016 00/M01 Q0976=
201501291820 METAR ESMX 291820Z 17009KT 9999 -SN FEW005 SCT010 BKN015 00/M01 Q0976=
201501291750 METAR ESMX 291750Z 17007KT 2700 SHSN FEW002 BKN007 00/M01 Q0976=
201501291720 METAR ESMX 291720Z 17008KT 9999 -SN FEW014 SCT018 BKN036 00/M01 Q0976=
201501291650 METAR ESMX 291650Z 17011KT 9999 -SN FEW015 BKN044 OVC054 00/M01 Q0976=
201501291620 METAR ESMX 291620Z 17010KT 130V200 9999 FEW011 SCT017 BKN020 00/M01 Q0976=
201501291550 METAR ESMX 291550Z 18010KT 150V210 7000 -SN FEW004 SCT007 BKN011 00/M00 Q0976=
201501291520 METAR ESMX 291520Z 18009KT 9000 -SN FEW002 SCT013 BKN015 01/M01 Q0976=
201501291450 METAR ESMX 291450Z 19014KT 9999 -SHSN FEW008 SCT013 BKN027 01/M01 Q0976=
201501291420 METAR ESMX 291420Z 17010KT 9999 -SN FEW007 SCT012 BKN015 01/M00 Q0976=
201501291350 METAR ESMX 291350Z 17009KT 9999 FEW012 SCT019 BKN037 01/M01 Q0976=
201501291320 METAR ESMX 291320Z 19014KT 9999 -SN FEW008 SCT029 BKN034 01/M01 Q0976=
201501291250 METAR ESMX 291250Z 19013KT 9999 -SN FEW009 BKN027 01/M01 Q0977=
201501291220 METAR ESMX 291220Z 19010KT 4000 -DZ FEW005 BKN013 01/M01 Q0976=
201501291150 METAR ESMX 291150Z 19014KT 9999 FEW008 BKN021 01/M01 Q0977=
201501291120 METAR ESMX 291120Z 19014KT 9999 FEW012 SCT015 BKN026 01/M01 Q0977=
201501291050 METAR ESMX 291050Z 19016KT 9999 FEW014 SCT020 BKN027 01/M01 Q0977=
201501291020 METAR ESMX 291020Z 20017KT 9999 FEW012 BKN015 01/M01 Q0977=
201501290950 METAR ESMX 290950Z 20016KT 9999 -DZ FEW009 BKN012 01/M00 Q0976=
201501290850 METAR ESMX 290850Z 19015KT 3100 -SN FEW005 BKN007 00/M00 Q0976=
201501290820 METAR ESMX 290820Z 19014KT 3700 SN FEW005 BKN009 00/M00 Q0976=
201501290750 METAR ESMX 290750Z 20015KT 4000 -RASN FEW005 BKN011 01/M00 Q0975=
201501290720 METAR ESMX 290720Z 20015KT 5000 -SN FEW007 BKN010 01/M00 Q0975=
201501290650 METAR ESMX 290650Z 20015KT 9000 -SN FEW007 BKN009 01/M00 Q0975=
201501290620 METAR ESMX 290620Z 20016KT 5000 -SN FEW006 BKN009 01/M00 Q0975=
201501290550 METAR ESMX 290550Z 19016KT 8000 -RASN FEW006 SCT009 BKN012 01/M00 Q0975=
201501290520 METAR ESMX 290520Z 19014KT 4000 BR -SNRA FEW007 SCT009 BKN012 01/M00 Q0975=
201501290450 METAR ESMX 290450Z 19014KT 6000 -DZ BR FEW008 SCT011 OVC016 01/00 Q0975=
201501290420 METAR ESMX 290420Z AUTO 19014KT 9999 FEW008/// OVC010/// 01/M00 Q0975=
201501290350 METAR ESMX 290350Z AUTO 19016KT 9999 FEW007/// BKN009/// OVC013/// 01/00 Q0975=
201501290320 METAR ESMX 290320Z AUTO 19013KT 9999 FEW007/// SCT008/// BKN010/// 01/00 Q0975=
201501290250 METAR ESMX 290250Z AUTO 19013KT 9999 FEW006/// BKN007/// OVC009/// 01/01 Q0975=
201501290220 METAR ESMX 290220Z AUTO 18013KT 9999 FEW006/// SCT008/// BKN009/// 01/01 Q0975=
201501290150 METAR ESMX 290150Z AUTO 17011KT 9999 OVC005/// 01/01 Q0975=
201501290120 METAR ESMX 290120Z AUTO 17011KT 8000 -RA OVC005/// 01/00 Q0975=
201501290050 METAR ESMX 290050Z 17011KT 8000 -RASN FEW005 OVC009 01/00 Q0976=
201501290020 METAR ESMX 290020Z 17012KT 4000 RASN FEW004 BKN008 01/00 Q0976=
201501282350 METAR ESMX 282350Z 16011KT 4000 RASN FEW004 BKN008 01/00 Q0977=
201501282320 METAR ESMX 282320Z 16012KT 4000 RASN FEW003 BKN007 01/00 Q0977=
201501282250 METAR ESMX 282250Z 16014KT 7000 -RASN SCT005 OVC009 01/01 Q0978=
201501282220 METAR ESMX 282220Z 16013KT 8000 -RASN SCT005 OVC009 02/01 Q0978=
201501282150 METAR ESMX 282150Z 16013KT 8000 -DZ FEW006 OVC010 02/01 Q0979=
201501282120 METAR ESMX 282120Z 16013KT 8000 -DZ FEW005 OVC008 02/01 Q0980 REDZ=
201501282050 METAR ESMX 282050Z 16015KT 7000 -DZ SCT005 OVC008 02/01 Q0981=
201501282020 METAR ESMX 282020Z 17014KT 7000 -DZ FEW005 OVC007 02/02 Q0982=
201501281950 METAR ESMX 281950Z 16015KT 7000 -DZ BKN005 OVC009 02/02 Q0982=
201501281920 METAR ESMX 281920Z 16015KT 5000 -DZ SCT004 OVC008 02/02 Q0983=
201501281850 METAR ESMX 281850Z 16015KT 3500 DZ SCT005 OVC008 02/02 Q0984=
201501281820 METAR ESMX 281820Z 16014KT 8000 BR OVC007 02/01 Q0985=
201501281750 METAR ESMX 281750Z 17013KT 9999 FEW007 BKN008 OVC011 02/01 Q0986=
201501281720 METAR ESMX 281720Z 16012KT 9999 BR FEW006 SCT008 OVC010 02/01 Q0987=
201501281650 METAR ESMX 281650Z 17013KT 9999 -RA FEW005 SCT007 BKN008 02/01 Q0988 RERA=
201501281620 METAR COR ESMX 281620Z 17013KT 9999 -DZ BKN005 OVC008 02/02 Q0989=
201501281550 METAR ESMX 281550Z 17012KT 5000 -RA BKN005 OVC008 02/02 Q0990=
201501281520 METAR ESMX 281520Z 17014KT 7000 DZ FEW003 OVC005 02/02 Q0991=
201501281450 METAR ESMX 281450Z 17013KT 5000 -RA OVC004 02/02 Q0992=
201501281420 METAR ESMX 281420Z 18014KT 6000 -RA OVC002 02/02 Q0993 REDZ=
201501281350 METAR ESMX 281350Z 18015KT 4500 DZ OVC001 02/02 Q0993=
201501281320 METAR ESMX 281320Z 18014KT 1900 -RADZ OVC001 02/02 Q0994=
201501281250 METAR ESMX 281250Z 17013KT 2600 BR OVC001 02/02 Q0994=
201501281220 METAR ESMX 281220Z 17012KT 4100 BR OVC001 02/02 Q0996=
201501281150 METAR ESMX 281150Z 17012KT 9000 BR OVC001 02/02 Q0997=
201501281120 METAR ESMX 281120Z 18014KT 9000 BR OVC002 02/02 Q0997=
201501281050 METAR ESMX 281050Z 18013KT 4700 BR OVC002 02/02 Q0998=
201501281020 METAR ESMX 281020Z 17011KT 5000 -DZ BR OVC002 02/02 Q0999=
201501280950 METAR ESMX 280950Z 18012KT 2100 BR OVC001 02/02 Q1000=
201501280920 METAR ESMX 280920Z 19013KT 2000 BR OVC001 01/01 Q1000=
201501280850 METAR ESMX 280850Z 18012KT 2300 BR OVC001 01/01 Q1001=
201501280820 METAR ESMX 280820Z 18012KT 1900 BR OVC001 01/01 Q1001=
201501280750 METAR ESMX 280750Z 18011KT 1900 BR OVC001 01/01 Q1002=
201501280720 METAR ESMX 280720Z 19010KT 3500 BR OVC001 01/01 Q1002=
201501280650 METAR ESMX 280650Z 19010KT 2300 BR OVC001 01/01 Q1003=
201501280620 METAR ESMX 280620Z 20008KT 1800 BR VV002 01/01 Q1003=
201501280550 METAR ESMX 280550Z 18008KT 2200 BR OVC001 01/01 Q1004=
201501280520 METAR ESMX 280520Z 19008KT 1400 R01/P2000N R19/P2000N BR VV002 01/01 Q1004=
201501280450 METAR ESMX 280450Z 20008KT 2500 BR VV002 01/01 Q1005=
201501280420 METAR ESMX 280420Z AUTO 19009KT 1800 BR VV002 00/00 Q1005=
201501280350 METAR ESMX 280350Z AUTO 18009KT 2200 BR OVC001/// 00/00 Q1006=
201501280320 METAR ESMX 280320Z AUTO 19008KT 2900 BR OVC001/// M00/M00 Q1006=
201501280250 METAR ESMX 280250Z AUTO 19008KT 1300 R01/P2000N R19/P2000N BR VV002 M01/M01 Q1006=
201501280220 METAR ESMX 280220Z AUTO 20007KT 1300 R01/P2000N R19/P2000N BR OVC001/// M01/M01 Q1007=
201501280150 METAR ESMX 280150Z AUTO 23007KT 6000 BR OVC001/// M01/M01 Q1008=
201501280120 METAR ESMX 280120Z AUTO 22007KT 9999 OVC002/// M01/M02 Q1008=
201501280050 METAR ESMX 280050Z 21007KT 9999 OVC003 M01/M02 Q1008=
201501280020 METAR ESMX 280020Z 24006KT 9999 BKN003 M01/M02 Q1008=
201501272350 METAR ESMX 272350Z 23005KT 200V280 9999 BKN003 OVC005 M01/M02 Q1009=
201501272320 METAR ESMX 272320Z 25004KT 210V290 9999 OVC002 M01/M01 Q1009=
201501272250 METAR ESMX 272250Z 27005KT 9999 SCT001 OVC002 M01/M01 Q1009=
201501272220 METAR ESMX 272220Z 26006KT 7000 BR OVC002 M01/M01 Q1010=
201501272150 METAR ESMX 272150Z 28007KT 9999 OVC002 M01/M01 Q1010=
201501272120 METAR ESMX 272120Z 25007KT 9999 BKN002 OVC003 M01/M01 Q1010=
201501272050 METAR ESMX 272050Z 29006KT 250V320 9999 OVC003 M00/M01 Q1010=
201501272020 METAR ESMX 272020Z 28007KT 250V320 9999 OVC004 M00/M01 Q1011=
201501271950 METAR ESMX 271950Z 29007KT 250V320 9999 OVC005 M00/M01 Q1010=
201501271920 METAR ESMX 271920Z 29005KT 9999 OVC006 M00/M01 Q1010=
201501271850 METAR ESMX 271850Z 30005KT 9999 OVC007 00/M01 Q1011=
201501271820 METAR ESMX 271820Z 30006KT 9999 BKN009 00/M01 Q1010=
201501271750 METAR ESMX 271750Z 30005KT 9999 OVC009 01/M00 Q1010=
201501271720 METAR ESMX 271720Z 31005KT 9999 OVC010 01/M00 Q1010=
201501271650 METAR ESMX 271650Z 31007KT 9999 OVC009 01/M00 Q1010=
201501271620 METAR ESMX 271620Z 32007KT 9999 OVC008 01/00 Q1010=
201501271550 METAR ESMX 271550Z 34007KT 9999 FEW007 OVC009 01/M00 Q1010=
201501271520 METAR ESMX 271520Z 33008KT 9999 OVC008 01/M00 Q1009=
201501271450 METAR ESMX 271450Z 32007KT 9999 FEW013 BKN016 01/M00 Q1009=
201501271420 METAR ESMX 271420Z 32008KT 9999 SCT011 BKN018 01/M00 Q1009=
201501271350 METAR ESMX 271350Z 32010KT 9999 SCT011 BKN018 01/M00 Q1009=
201501271320 METAR ESMX 271320Z 32009KT 9999 SCT009 BKN019 02/00 Q1008=
201501271250 METAR ESMX 271250Z 33009KT 9999 SCT009 BKN023 02/M00 Q1008=
201501271220 METAR ESMX 271220Z 32011KT 9999 FEW009 BKN022 02/00 Q1008=
201501271150 METAR ESMX 271150Z 32010KT 9999 SCT012 02/00 Q1007=
201501271120 METAR ESMX 271120Z 33010KT 9999 BKN009 01/00 Q1007=
201501271050 METAR ESMX 271050Z 34009KT 9999 SCT007 OVC026 01/01 Q1007=
201501271020 METAR ESMX 271020Z 33009KT 9999 SCT004 BKN026 01/01 Q1007=
201501270950 METAR ESMX 270950Z 34008KT 9999 BKN004 BKN028 01/01 Q1007=
201501270920 METAR ESMX 270920Z 32007KT 9999 -SHRA SCT004 BKN030 01/01 Q1006=
201501270850 METAR COR ESMX 270850Z 31006KT 9999 OVC003 01/01 Q1006=
201501270820 METAR ESMX 270820Z 32006KT 6000 BR OVC003 01/01 Q1006=
201501270750 METAR ESMX 270750Z 32007KT 3700 BR BKN003 01/01 Q1006=
201501270720 METAR ESMX 270720Z 32006KT 3000 BR OVC002 01/01 Q1005=
201501270650 METAR ESMX 270650Z 31005KT 2900 BR OVC003 01/01 Q1005=
201501270620 METAR ESMX 270620Z 30004KT 4700 BR OVC004 01/01 Q1004=
201501270550 METAR ESMX 270550Z 33006KT 9999 OVC006 01/01 Q1004=
201501270520 METAR ESMX 270520Z AUTO 33007KT 9999 FEW003/// OVC005/// 01/01 Q1003=
201501270450 METAR ESMX 270450Z 33006KT 9999 OVC003 01/01 Q1003=
201501270420 METAR ESMX 270420Z AUTO 33005KT 6000 BR OVC002/// 01/01 Q1003=
201501270350 METAR ESMX 270350Z AUTO 32005KT 4000 BR OVC001/// 01/01 Q1003 REDZ=
201501270320 METAR ESMX 270320Z AUTO 32004KT 1600 BR OVC001/// 01/01 Q1003=
201501270250 METAR ESMX 270250Z AUTO 30003KT 1500 BR VV002 01/01 Q1003=
201501270220 METAR ESMX 270220Z AUTO 27003KT 4200 DZ OVC001/// 01/01 Q1003 REDZ=
201501270150 METAR ESMX 270150Z AUTO 26003KT 4100 DZ OVC001/// 01/00 Q1003=
201501270120 METAR ESMX 270120Z AUTO 24003KT 7000 -RA OVC001/// 01/00 Q1003 REDZ=
201501270050 METAR ESMX 270050Z 23003KT 6000 -SNRA OVC002 00/00 Q1003=
201501270020 METAR ESMX 270020Z 21003KT 6000 -SNRA OVC002 00/00 Q1003=
201501262350 METAR ESMX 262350Z 18004KT 6000 -SNRA OVC003 01/00 Q1003=
201501262320 METAR ESMX 262320Z AUTO 19004KT 3200 RA OVC001/// 01/00 Q1003=
201501262250 METAR ESMX 262250Z 18005KT 4500 -SNRA OVC003 01/00 Q1003=
201501262220 METAR ESMX 262220Z 16006KT 9999 -SNRA OVC003 01/00 Q1003=
201501262150 METAR ESMX 262150Z 16006KT 9999 -SNRA OVC003 01/00 Q1003=
201501262120 METAR ESMX 262120Z 16006KT 9000 -SNRA OVC004 01/00 Q1004=
201501262053 METAR ESMX 262053Z 16006KT 9999 -SNRA OVC004 01/00 Q1004=
201501262050 METAR ESMX 262050Z AUTO 17006KT 9999 -RA BKN003/// OVC006/// 01/00 Q1004=
201501262020 METAR ESMX 262020Z 16007KT 3500 -SN OVC004 01/00 Q1004=
201501261950 METAR ESMX 261950Z 16007KT 4600 -SN BKN004 OVC006 01/00 Q1004=
201501261920 METAR ESMX 261920Z 16008KT 4600 -SN SCT003 OVC005 01/00 Q1005=
201501261850 METAR ESMX 261850Z 17007KT 2900 -SN FEW003 BKN004 01/00 Q1005=
201501261820 METAR ESMX 261820Z 16008KT 7000 -SN OVC005 01/00 Q1005=
201501261750 METAR ESMX 261750Z 17008KT 9999 -SN BKN004 OVC006 01/01 Q1006 RESN=
201501261720 METAR ESMX 261720Z 16009KT 3100 SN BKN003 OVC005 01/00 Q1006=
201501261650 METAR ESMX 261650Z 17008G33KT 3000 SN OVC003 01/00 Q1007=
201501261620 METAR ESMX 261620Z 17010KT 6000 -SNRA OVC004 01/01 Q1007=
201501261550 METAR ESMX 261550Z 17009KT 7000 -RASN BR OVC004 01/01 Q1007=
201501261520 METAR ESMX 261520Z 16010KT 5000 -RASN BR OVC004 01/01 Q1008=
201501261450 METAR ESMX 261450Z 16010KT 9000 -RASN OVC004 01/01 Q1008=
201501261420 METAR ESMX 261420Z 17011KT 6000 -RA BR OVC003 01/01 Q1009=
201501261350 METAR ESMX 261350Z 17012KT 5000 -RA BR OVC003 02/01 Q1009=
201501261320 METAR ESMX 261320Z 17012KT 4700 BR OVC003 02/01 Q1010=
201501261250 METAR ESMX 261250Z 17011KT 9999 OVC002 01/01 Q1010=
201501261220 METAR ESMX 261220Z 17010KT 9000 BR OVC002 01/01 Q1011=
201501261150 METAR ESMX 261150Z 17011KT 3000 -RA OVC002 01/01 Q1012=
201501261120 METAR ESMX 261120Z 17010KT 2300 BR OVC002 01/01 Q1012=
201501261050 METAR ESMX 261050Z 17011KT 1700 BR OVC002 01/01 Q1013=
201501261020 METAR ESMX 261020Z 17011KT 1700 R01///// R19/P2000N BR OVC001 01/01 Q1014=
201501260950 METAR ESMX 260950Z 18009KT 2900 BR OVC001 01/01 Q1014=
201501260920 METAR ESMX 260920Z 17010KT 3600 BR OVC002 00/00 Q1015=
201501260850 METAR ESMX 260850Z 17009KT 2300 BR OVC001 00/M00 Q1015=
201501260820 METAR ESMX 260820Z 17008KT 1200 R01/1100V1800U R19/1300V1800U BR VV002 M00/M00 Q1015=
201501260750 METAR ESMX 260750Z 17009KT 0800 R01/1100V1300U R19/1100V1400N FZFG VV002 M01/M01 Q1016=
201501260720 METAR ESMX 260720Z 17008KT 0750 R01/1200V1500N R19/1200V1600D FZFG VV002 M01/M01 Q1016=
201501260650 METAR ESMX 260650Z 16008KT 0900 R01/1600VP2000N R19/P2000N FZFG VV002 M01/M01 Q1017=
201501260620 METAR ESMX 260620Z 18008KT 1400 R01/P2000N R19/P2000N BR VV002 M01/M01 Q1017=
201501260550 METAR ESMX 260550Z 18007KT 1300 R01/P2000N R19/P2000N BR VV002 M01/M01 Q1017=
201501260520 METAR ESMX 260520Z 18007KT 3000 BR OVC002 M01/M02 Q1018=
201501260450 METAR ESMX 260450Z AUTO 16008KT 6000 BR OVC002/// M01/M02 Q1018=
201501260420 METAR ESMX 260420Z AUTO 19010KT 9999 OVC003/// M01/M02 Q1018=
201501260350 METAR ESMX 260350Z AUTO 17008KT 9999 OVC003/// M01/M02 Q1018=
201501260320 METAR ESMX 260320Z AUTO 19007KT 9999 OVC004/// M01/M02 Q1019=
201501260250 METAR ESMX 260250Z AUTO 19008KT 9999 OVC002/// M02/M02 Q1019=
201501260220 METAR ESMX 260220Z AUTO 20008KT 9999 OVC003/// M01/M02 Q1019=
201501260150 METAR ESMX 260150Z AUTO 19008KT 160V230 9999 OVC002/// M01/M02 Q1019=
201501260120 METAR ESMX 260120Z AUTO 20006KT 5000 OVC001/// M01/M01 Q1020=
201501260050 METAR ESMX 260050Z 21007KT 0750 R01/P2000N R19/1300VP2000U FZFG VV002 M02/M02 Q1020=
201501260020 METAR ESMX 260020Z 22006KT 0300 R01/0800V1000N R19/0900V1200U FZFG VV002 M01/M02 Q1020=
201501252350 METAR ESMX 252350Z 20005KT 0250 R01/0750N R19/0800V1600D FZFG VV002 M01/M02 Q1020=
201501252320 METAR ESMX 252320Z 20006KT 2700 BR OVC004 M01/M02 Q1020=
201501252250 METAR ESMX 252250Z 15004KT 9999 OVC009 M02/M02 Q1021=
201501252220 METAR ESMX 252220Z 13003KT 9999 OVC010 M02/M03 Q1021=
201501252150 METAR ESMX 252150Z 00000KT 9999 OVC008 M02/M02 Q1021=
201501252120 METAR ESMX 252120Z 00000KT 9999 OVC009 M02/M02 Q1021=
201501252050 METAR COR ESMX 252050Z 19005KT 9999 OVC005 M01/M02 Q1021=
201501252020 METAR ESMX 252020Z 23003KT 200V260 9999 OVC007 M01/M02 Q1021=
201501251950 METAR ESMX 251950Z 21004KT 170V240 9999 OVC008 M01/M02 Q1021=
201501251920 METAR ESMX 251920Z 22005KT 9999 OVC009 M01/M02 Q1021=
201501251850 METAR ESMX 251850Z 22003KT 180V260 9999 OVC009 M01/M02 Q1021=
201501251820 METAR ESMX 251820Z 22005KT 9999 OVC009 M01/M02 Q1021=
201501251750 METAR ESMX 251750Z VRB02KT 9999 OVC009 M00/M02 Q1021=
201501251720 METAR ESMX 251720Z 23003KT 190V270 9999 OVC009 M00/M02 Q1021=
201501251650 METAR ESMX 251650Z VRB03KT 9999 OVC010 M00/M02 Q1021=
201501251620 METAR ESMX 251620Z 29004KT 240V330 9999 OVC008 M00/M02 Q1021=
201501251550 METAR ESMX 251550Z 24004KT 9999 FEW008 OVC009 00/M02 Q1021=
201501251520 METAR ESMX 251520Z VRB03KT 9999 FEW006 OVC008 00/M01 Q1020=
201501251450 METAR ESMX 251450Z 21003KT 9999 OVC007 00/M01 Q1020=
201501251420 METAR ESMX 251420Z 26004KT 9999 OVC007 00/M01 Q1020=
201501251350 METAR ESMX 251350Z 30004KT 250V340 9999 OVC007 00/M01 Q1019=
201501251320 METAR COR ESMX 251320Z 31004KT 220V020 9999 SCT006 OVC008 00/M01 Q1019=
201501251250 METAR ESMX 251250Z 27006KT 9999 OVC006 00/M01 Q1019=
201501251220 METAR ESMX 251220Z 27004KT 230V310 9999 OVC006 00/M00 Q1019=
201501251150 METAR ESMX 251150Z 29004KT 260V330 9999 FEW006 OVC008 00/00 Q1019=
201501251120 METAR ESMX 251120Z AUTO 30005KT 260V330 9999 FEW004/// BKN006/// OVC009/// 00/00 Q1019=
201501251050 METAR ESMX 251050Z AUTO 29006KT 260V330 9999 OVC002/// 00/00 Q1019=
201501251020 METAR ESMX 251020Z AUTO 27004KT 5000 BR OVC001/// 00/00 Q1019=
201501250950 METAR ESMX 250950Z AUTO 24003KT 200V260 4200 OVC001/// 00/00 Q1019=
201501250920 METAR ESMX 250920Z AUTO 21003KT 1700 OVC001/// 00/00 Q1018=
201501250850 METAR ESMX 250850Z AUTO 21004KT 0550 R01/0800V0900N R19/0700V0800N -FZRA VV002 M00/M00 Q1018=
201501250820 METAR ESMX 250820Z AUTO 20004KT 0400 R01/0600V0750N R19/0800V0900N=
201501250750 METAR ESMX 250750Z AUTO 19005KT 3500 BKN001/// OVC003/// M01/M01 Q1018=
201501250720 METAR ESMX 250720Z AUTO 20005KT 0800 R01/P2000N R19/0900VP2000U -FZRA BKN001/// OVC014/// M00/M00 Q1017=
201501250650 METAR ESMX 250650Z 16003KT 1300 R01/P2000N R19/P2000N BR SCT001 BKN016 OVC019 M00/M00 Q1017=
201501250620 METAR ESMX 250620Z 19003KT 2700 BR OVC002 M00/M00 Q1016=
201501250550 METAR ESMX 250550Z 20004KT 2900 BR BKN002 OVC016 00/M00 Q1016=
201501250520 METAR ESMX 250520Z 22004KT 2600 BR OVC002 M00/M00 Q1016=
201501250450 METAR ESMX 250450Z AUTO 19004KT 2600 BR BKN001/// BKN020/// M00/M00 Q1016=
201501250420 METAR ESMX 250420Z AUTO 22004KT 2500 BR BKN001/// OVC019/// M00/M00 Q1016=
201501250350 METAR ESMX 250350Z AUTO 21004KT 1500 OVC001/// M00/M00 Q1016=
201501250320 METAR ESMX 250320Z AUTO 19005KT 1100 R01/P2000N R19/P2000N VV002 M00/M00 Q1016=
201501250250 METAR ESMX 250250Z AUTO 21004KT 0550 R01/1400V1500N R19/1200V1700U=
201501250220 METAR ESMX 250220Z AUTO 21005KT 0500 R01/1100V1800D R19/1000V1500U=
201501250150 METAR ESMX 250150Z AUTO 18006KT 0300 R01/0900V1000N R19/0900V1000N=
201501250120 METAR ESMX 250120Z AUTO 18006KT 0550 R01/1200V1900D R19/1500VP2000N=
201501250050 METAR ESMX 250050Z AUTO 19006KT 020V200 0500 R01/1200V1500U R19/1100V1500U FZFG VV001 M01/M01 Q1015=
201501250020 METAR ESMX 250020Z AUTO 18006KT 0400 R01/1000V1200N R19/1000V1200N=
201501242350 METAR ESMX 242350Z AUTO 19006KT 0650 R01/1400V1800N R19/1600V1800N=
201501242320 METAR ESMX 242320Z AUTO 17005KT 1100 R01/P2000N R19/P2000N BR OVC001/// M01/M01 Q1014=
201501242250 METAR ESMX 242250Z AUTO 18006KT 2100 BR OVC001/// M01/M01 Q1014=
201501242220 METAR ESMX 242220Z AUTO 19006KT 3900 BR OVC003/// M01/M01 Q1014 REDZ=
201501242150 METAR ESMX 242150Z AUTO 18006KT 4800 BR OVC003/// M01/M02 Q1014=
201501242120 METAR ESMX 242120Z AUTO 21007KT 5000 BR OVC004/// M01/M02 Q1014=
201501242050 METAR COR ESMX 242050Z 20008KT 4200 -SN BKN005 M01/M02 Q1014=
201501242020 METAR COR ESMX 242020Z 19007KT 5000 SN BKN005 M01/M02 Q1014=
201501241950 METAR ESMX 241950Z 17007KT 4000 SN FEW003 BKN005 M02/M02 Q1014=
201501241920 METAR ESMX 241920Z AUTO 17007KT 3500 +FZRA FEW006/// SCT008/// M02/M02 Q1014=
201501241850 METAR ESMX 241850Z AUTO 17006KT 3800 FZRA FEW006/// BKN007/// BKN017/// M02/M02 Q1014=
201501241820 METAR ESMX 241820Z AUTO 18007KT 2000 FZRA SCT006/// BKN010/// BKN015/// M02/M02 Q1014=
201501241750 METAR ESMX 241750Z AUTO 16006KT 6000 -FZRA FEW006/// SCT008/// BKN011/// M02/M02 Q1013=
201501241720 METAR ESMX 241720Z AUTO 17008KT 3800 -FZRA FEW006/// SCT008/// M02/M02 Q1014=
201501241650 METAR ESMX 241650Z AUTO 17008KT 4400 +FZRA FEW006/// M02/M03 Q1013=
201501241620 METAR ESMX 241620Z AUTO 17008KT 3900 FZRA FEW007/// M02/M03 Q1013=
201501241550 METAR ESMX 241550Z AUTO 17008KT 2300 +FZRA FEW006/// SCT012/// M02/M03 Q1013=
201501241520 METAR ESMX 241520Z AUTO 18009KT 5000 -FZRA FEW005/// OVC011/// M02/M03 Q1013=
201501241450 METAR ESMX 241450Z AUTO 17010KT 9999 OVC010/// M02/M03 Q1013=
201501241420 METAR ESMX 241420Z AUTO 18011KT 9999 FEW009/// OVC010/// M02/M03 Q1013=
201501241350 METAR ESMX 241350Z AUTO 19012KT 9999 OVC011/// M02/M04 Q1013=
201501241320 METAR ESMX 241320Z AUTO 19015KT 9999 OVC011/// M02/M04 Q1013=
201501241250 METAR ESMX 241250Z AUTO 19014KT 9999 OVC011/// M01/M03 Q1013=
201501241220 METAR ESMX 241220Z AUTO 19016KT 9999 OVC011/// M01/M03 Q1013=
201501241150 METAR ESMX 241150Z AUTO 19012KT 9999 OVC011/// M01/M03 Q1013=
201501241120 METAR ESMX 241120Z AUTO 19015KT 9999 OVC012/// M01/M03 Q1014=
201501241050 METAR ESMX 241050Z AUTO 17015KT 9999 OVC011/// M01/M03 Q1013=
201501241020 METAR ESMX 241020Z AUTO 18015KT 9999 OVC012/// M01/M03 Q1014=
201501240950 METAR ESMX 240950Z AUTO 17016KT 9999 OVC011/// M01/M03 Q1014=
201501240920 METAR ESMX 240920Z AUTO 18014KT 9999 OVC011/// M02/M03 Q1014=
201501240850 METAR ESMX 240850Z AUTO 17015KT 9999 OVC011/// M02/M04 Q1014=
201501240820 METAR ESMX 240820Z AUTO 18015KT 9999 FEW011/// OVC014/// M02/M04 Q1015=
201501240750 METAR ESMX 240750Z AUTO 17014KT 9999 OVC012/// M02/M04 Q1015=
201501240720 METAR ESMX 240720Z AUTO 17016KT 9999 OVC013/// M02/M04 Q1015=
201501240650 METAR ESMX 240650Z AUTO 18014KT 9999 OVC013/// M02/M04 Q1015=
201501240620 METAR ESMX 240620Z AUTO 18014KT 9999 OVC012/// M02/M04 Q1015=
201501240550 METAR ESMX 240550Z AUTO 18014KT 9999 OVC013/// M02/M04 Q1016=
201501240520 METAR ESMX 240520Z AUTO 17011KT 9999 OVC013/// M02/M04 Q1016=
201501240450 METAR ESMX 240450Z AUTO 16010KT 9999 OVC016/// M02/M04 Q1016=
201501240420 METAR ESMX 240420Z AUTO 16010KT 9999 OVC016/// M02/M04 Q1017=
201501240350 METAR ESMX 240350Z AUTO 17008KT 9999 OVC017/// M02/M04 Q1017=
201501240320 METAR ESMX 240320Z AUTO 16008KT 9999 OVC017/// M02/M04 Q1017=
201501240250 METAR ESMX 240250Z AUTO 17007KT 9999 FEW012/// OVC016/// M03/M04 Q1018=
201501240220 METAR ESMX 240220Z AUTO 20011KT 9999 BKN008/// OVC010/// M02/M04 Q1018=
201501240150 METAR ESMX 240150Z AUTO 20010KT 9999 OVC007/// M03/M04 Q1019=
201501240120 METAR ESMX 240120Z AUTO 20010KT 9999 OVC007/// M03/M04 Q1019=
201501240050 METAR ESMX 240050Z AUTO 18011KT 9999 OVC006/// M03/M04 Q1019=
201501240020 METAR ESMX 240020Z AUTO 19010KT 9999 BKN006/// OVC009/// M03/M04 Q1020=
201501232350 METAR ESMX 232350Z AUTO 18007KT 9999 OVC003/// M03/M04 Q1020=
201501232320 METAR ESMX 232320Z AUTO 17007KT 9999 OVC002/// M03/M04 Q1020=
201501232250 METAR ESMX 232250Z AUTO 16006KT 8000 BR OVC001/// M04/M04 Q1021=
201501232220 METAR ESMX 232220Z 19009KT 8000 BR OVC001 M04/M04 Q1021=
201501232150 METAR COR ESMX 232150Z 20011KT 6000 BR OVC001 M04/M04 Q1021=
201501232120 METAR ESMX 232120Z AUTO 18008KT 9999 OVC002/// M04/M04 Q1021=
201501232050 METAR ESMX 232050Z 18008KT 9999 OVC002 M04/M04 Q1022=
201501232020 METAR ESMX 232020Z 17005KT 9999 OVC003 M04/M05 Q1022=
201501231950 METAR ESMX 231950Z 16006KT 9999 OVC003 M04/M05 Q1022=
201501231920 METAR ESMX 231920Z 17004KT 130V190 9999 OVC003 M04/M05 Q1023=
201501231850 METAR COR ESMX 231850Z 20006KT 9999 OVC003 M04/M05 Q1023=
201501231820 METAR ESMX 231820Z 20005KT 9999 OVC003 M04/M05 Q1023=
201501231750 METAR ESMX 231750Z 18007KT 9999 OVC003 M04/M05 Q1023=
201501231720 METAR ESMX 231720Z 20007KT 9999 BKN004 OVC030 M04/M05 Q1023=
201501231650 METAR ESMX 231650Z 19005KT 9999 BKN005 OVC030 M04/M05 Q1023=
201501231620 METAR ESMX 231620Z 18005KT 9999 BKN005 OVC028 M04/M05 Q1023=
201501231550 METAR ESMX 231550Z 20003KT 9999 OVC006 M04/M05 Q1023=
201501231520 METAR ESMX 231520Z VRB02KT 9999 OVC006 M04/M05 Q1023=
201501231450 METAR ESMX 231450Z 29003KT 9999 BKN006 M04/M05 Q1023=
201501231420 METAR ESMX 231420Z 25004KT 9999 BKN007 M04/M05 Q1023=
201501231350 METAR ESMX 231350Z 29004KT 260V320 9999 BKN006 M04/M05 Q1023=
201501231320 METAR ESMX 231320Z 26004KT 230V300 9999 BKN006 M04/M05 Q1023=
201501231250 METAR ESMX 231250Z 26004KT 9999 BKN006 M04/M05 Q1023=
201501231220 METAR ESMX 231220Z 26005KT 9999 OVC006 M04/M05 Q1023=
201501231150 METAR ESMX 231150Z 28005KT 250V310 9999 OVC005 M04/M05 Q1023=
201501231120 METAR ESMX 231120Z 27004KT 210V320 9999 OVC005 M04/M05 Q1023=
201501231050 METAR ESMX 231050Z 29006KT 9999 OVC005 M04/M05 Q1023=
201501231020 METAR ESMX 231020Z 28004KT 230V320 9999 OVC005 M04/M05 Q1023=
201501230950 METAR ESMX 230950Z 25004KT 200V280 9999 OVC005 M04/M05 Q1023=
201501230920 METAR ESMX 230920Z 25001KT 9999 OVC005 M04/M05 Q1023=
201501230850 METAR ESMX 230850Z 36003KT 330V040 9999 OVC005 M04/M05 Q1023=
201501230820 METAR ESMX 230820Z 33005KT 290V350 9999 OVC005 M04/M05 Q1023=
201501230750 METAR ESMX 230750Z 32006KT 9999 OVC004 M04/M05 Q1023=
201501230720 METAR ESMX 230720Z 29005KT 9999 OVC006 M03/M04 Q1022=
201501230650 METAR ESMX 230650Z 30005KT 270V330 9999 OVC006 M03/M05 Q1022=
201501230620 METAR ESMX 230620Z 29005KT 9999 OVC006 M03/M04 Q1022=
201501230550 METAR ESMX 230550Z AUTO 28004KT 9999 OVC007/// M03/M04 Q1022=
201501230520 METAR ESMX 230520Z 31005KT 280V340 9999 OVC005 M03/M04 Q1022=
201501230450 METAR ESMX 230450Z AUTO 29005KT 9999 OVC006/// M03/M04 Q1022=
201501230420 METAR ESMX 230420Z AUTO 33004KT 300V010 9999 OVC005/// M03/M03 Q1021=
201501230350 METAR ESMX 230350Z AUTO VRB02KT 9999 OVC005/// M03/M03 Q1021=
201501230320 METAR ESMX 230320Z AUTO 28005KT 9999 BKN001/// OVC004/// M03/M03 Q1021=
201501230250 METAR ESMX 230250Z AUTO 32004KT 280V350 7000 BR OVC001/// M03/M03 Q1021=
201501230220 METAR ESMX 230220Z AUTO 32005KT 2400 OVC001/// M03/M03 Q1021=
201501230150 METAR ESMX 230150Z AUTO 35004KT 1200 R01/P2000N R19/P2000N VV002 M02/M02 Q1021=
201501230120 METAR ESMX 230120Z AUTO VRB03KT 0700 R01/1100VP2000N R19/P2000N FZFG VV002 M02/M03 Q1021=
201501230050 METAR ESMX 230050Z 00000KT 4600 BR OVC002 M03/M03 Q1021=
201501230020 METAR ESMX 230020Z 27005KT 7000 BR BKN002 M02/M03 Q1021=
201501222350 METAR ESMX 222350Z 29004KT 1700 BR VV003 M02/M03 Q1021=
201501222320 METAR ESMX 222320Z AUTO 28004KT 9999 SCT001/// BKN004/// M03/M03 Q1021=
201501222250 METAR ESMX 222250Z 29004KT 9999 SCT017 M03/M03 Q1021=
201501222220 METAR ESMX 222220Z 27004KT 9999 BKN016 M02/M02 Q1021=
201501222150 METAR ESMX 222150Z 28005KT 9999 FEW005 BKN019 M01/M01 Q1021=
201501222120 METAR ESMX 222120Z 30003KT 9999 FEW004 BKN006 M01/M01 Q1020=
201501222050 METAR ESMX 222050Z 23003KT 8000 -SN FEW004 BKN016 M01/M01 Q1020=
201501222020 METAR ESMX 222020Z 22003KT 3700 -SN FEW004 BKN019 M01/M01 Q1020=
201501221950 METAR ESMX 221950Z 22003KT 5000 BR BKN004 OVC014 M01/M01 Q1020=
201501221920 METAR ESMX 221920Z 20003KT 9000 BR FEW002 BKN004 M01/M01 Q1020=
201501221850 METAR ESMX 221850Z 17004KT 8000 -SN BKN003 M00/M01 Q1020=
201501221820 METAR ESMX 221820Z 18004KT 9999 FEW003 BKN006 M00/M01 Q1020=
201501221750 METAR ESMX 221750Z 17004KT 9999 -SN FEW003 OVC018 M00/M01 Q1020=
201501221720 METAR ESMX 221720Z 18004KT 5000 -SN SCT003 OVC019 M00/M01 Q1020=
201501221650 METAR ESMX 221650Z 18003KT 6000 -SN BR BKN002 OVC020 M00/M01 Q1020=
201501221620 METAR ESMX 221620Z 17003KT 9000 BR BKN002 OVC021 M00/M01 Q1020=
201501221550 METAR COR ESMX 221550Z 18005KT 9000 BR FEW003 BKN021 OVC047 M00/M01 Q1020=
201501221520 METAR ESMX 221520Z VRB02KT 9999 FEW003 OVC020 M00/M01 Q1019=
201501221450 METAR ESMX 221450Z VRB03KT 9000 -SN BKN002 OVC020 M00/M01 Q1019=
201501221420 METAR ESMX 221420Z 18004KT 9999 -SN OVC003 M00/M01 Q1019=
201501221350 METAR ESMX 221350Z 18004KT 9999 -SN OVC003 M00/M01 Q1019=
201501221320 METAR ESMX 221320Z 17004KT 9999 FEW004 BKN005 M00/M01 Q1019=
201501221250 METAR ESMX 221250Z VRB02KT 9999 BKN003 BKN012 M00/M01 Q1019=
201501221220 METAR COR ESMX 221220Z 18001KT 9000 BR OVC002 M00/M01 Q1019=
201501221150 METAR ESMX 221150Z VRB03KT 5000 BR OVC002 M01/M01 Q1019=
201501221120 METAR ESMX 221120Z VRB03KT 2200 BR OVC002 M01/M01 Q1019=
201501221050 METAR ESMX 221050Z 13003KT 080V170 2800 BR FEW001 SCT002 BKN004 OVC005 M01/M01 Q1019=
201501221020 METAR ESMX 221020Z 12003KT 080V160 1500 BR VCFG VV002 M01/M01 Q1019=
201501220950 METAR ESMX 220950Z 00000KT 0350 R01/0800V1700U R19/0600N FZFG VV002 M01/M01 Q1020=
201501220920 METAR ESMX 220920Z VRB02KT 0150 R01/0325V0700U R19/0325N FZFG VV002 M01/M01 Q1019=
201501220850 METAR ESMX 220850Z 18003KT 0100 R01/0225V0325N R19/0500N FZFG FEW002 SCT005 M01/M02 Q1019=
201501220820 METAR ESMX 220820Z 00000KT 9999 R01/0600V1600N R19/0350V1100N BCFG SCT003 BKN020 M02/M02 Q1019=
201501220750 METAR ESMX 220750Z 00000KT 9999 R01/P2000N R19/P2000D BCFG FEW003 BKN020 M01/M01 Q1019=
201501220720 METAR ESMX 220720Z VRB02KT 9000 BR SCT003 BKN019 M01/M01 Q1019=
201501220650 METAR ESMX 220650Z VRB03KT 9999 BKN003 BKN019 M00/M01 Q1018=
201501220620 METAR COR ESMX 220620Z 02002KT 9999 OVC003 M01/M01 Q1018=
201501220550 METAR ESMX 220550Z VRB02KT 9999 BKN005 BKN020 M00/M01 Q1018=
201501220520 METAR ESMX 220520Z 00000KT 9999 BKN005 BKN020 M00/M01 Q1018=
201501220450 METAR ESMX 220450Z VRB01KT 9999 -SN OVC004 M00/M01 Q1018=
201501220420 METAR ESMX 220420Z AUTO VRB02KT 9999 OVC005/// M00/M00 Q1018=
201501220350 METAR ESMX 220350Z AUTO VRB02KT 9999 FEW003/// OVC004/// M00/M00 Q1018=
201501220320 METAR ESMX 220320Z AUTO VRB02KT 9999 -FZRA SCT002/// OVC004/// M00/M01 Q1018=
201501220250 METAR ESMX 220250Z AUTO 04003KT 020V080 2900 -FZRA SCT001/// BKN004/// OVC006/// M00/M00 Q1018=
201501220220 METAR ESMX 220220Z AUTO 05003KT 9000 -FZRA SCT003/// BKN002/// OVC005/// M00/M00 Q1018=
201501220150 METAR ESMX 220150Z AUTO 05003KT 010V070 0300 R01/P2000N R19/0800V1200N +FZRA VV005 M00/M00 Q1018=
201501220120 METAR ESMX 220120Z AUTO 04003KT 9999 -FZRA FEW007/// OVC011/// M00/M00 Q1018=
201501220050 METAR ESMX 220050Z 03003KT 9999 -SN OVC005 00/M00 Q1018=
201501220020 METAR ESMX 220020Z 06003KT 9999 -SN OVC004 00/M00 Q1018=
201501212350 METAR ESMX 212350Z 06003KT 030V110 9999 -SN FEW003 OVC005 00/M00 Q1018=
201501212320 METAR COR ESMX 212320Z 07003KT 030V100 9999 -SN OVC003 00/M00 Q1017=
201501212250 METAR ESMX 212250Z 05006KT 9999 -SN OVC003 00/00 Q1017=
201501212220 METAR ESMX 212220Z 04004KT 9999 OVC004 00/00 Q1017=
201501212150 METAR ESMX 212150Z 04004KT 020V080 9999 OVC004 00/00 Q1017=
201501212120 METAR ESMX 212120Z VRB03KT 9999 OVC004 00/00 Q1017=
201501212050 METAR ESMX 212050Z VRB03KT 9999 OVC005 00/00 Q1017=
201501212020 METAR ESMX 212020Z 03003KT 9999 OVC004 00/00 Q1017=
201501211950 METAR ESMX 211950Z 03003KT 9999 OVC005 00/00 Q1017=
201501211920 METAR ESMX 211920Z VRB02KT 9999 OVC005 00/00 Q1017=
201501211850 METAR ESMX 211850Z VRB02KT 9999 OVC005 00/00 Q1016=
201501211820 METAR COR ESMX 211820Z 04003KT 9999 OVC005 00/00 Q1016=
201501211750 METAR ESMX 211750Z 03003KT 9999 BKN006 00/00 Q1016=
201501211720 METAR COR ESMX 211720Z 03003KT 9999 -SN BKN005 00/00 Q1016=
201501211650 METAR ESMX 211650Z 03003KT 9999 -SN FEW002 BKN008 00/00 Q1015=
201501211620 METAR ESMX 211620Z 03003KT 9999 -SN FEW002 BKN006 00/00 Q1015=
201501211550 METAR ESMX 211550Z 04003KT 010V070 9999 -SN SCT002 BKN008 00/00 Q1015=
201501211520 METAR ESMX 211520Z 03004KT 7000 -SN BKN002 BKN008 00/00 Q1015=
201501211450 METAR ESMX 211450Z 03003KT 7000 -SN BKN002 BKN014 01/00 Q1015=
201501211420 METAR ESMX 211420Z 02003KT 6000 -SN BKN002 BKN016 01/00 Q1015=
201501211350 METAR ESMX 211350Z 04005KT 9999 -SN BKN002 BKN016 01/00 Q1015=
201501211320 METAR ESMX 211320Z 03004KT 8000 -SN BKN003 BKN023 01/00 Q1015=
201501211250 METAR COR ESMX 211250Z 04003KT 9999 -SN FEW003 BKN007 BKN018 01/00 Q1015=
201501211220 METAR COR ESMX 211220Z 04004KT 5000 -SN SCT004 BKN007 01/00 Q1015=
201501211150 METAR ESMX 211150Z 04004KT 6000 -SN FEW006 OVC007 01/00 Q1015=
201501211120 METAR ESMX 211120Z 05004KT 010V100 8000 -SN SCT003 BKN007 01/00 Q1015=
201501211050 METAR ESMX 211050Z 04004KT 5000 -SN FEW003 BKN005 01/00 Q1015=
201501211020 METAR ESMX 211020Z 04004KT 4900 -SN FEW002 BKN004 01/00 Q1015=
201501210950 METAR ESMX 210950Z 04005KT 3600 -SN FEW003 BKN005 00/M00 Q1014=
201501210920 METAR ESMX 210920Z 04004KT 4200 -SN FEW003 BKN005 00/M00 Q1014=
201501210850 METAR ESMX 210850Z 04004KT 3000 -SN FEW002 BKN005 M00/M00 Q1014=
201501210820 METAR ESMX 210820Z 04004KT 3000 -SN FEW003 BKN006 M00/M00 Q1014=
201501210750 METAR ESMX 210750Z 04004KT 8000 -SN FEW004 BKN006 M00/M01 Q1014=
201501210720 METAR COR ESMX 210720Z 04004KT 3100 -SN FEW005 BKN007 M00/M01 Q1014=
201501210650 METAR ESMX 210650Z 05005KT 4000 -SN FEW005 BKN008 M00/M01 Q1013=
201501210620 METAR COR ESMX 210620Z 04005KT 2700 -SN FEW006 BKN009 M00/M01 Q1013=
201501210550 METAR ESMX 210550Z 05005KT 3200 -SN FEW004 BKN009 M00/M01 Q1013=
201501210520 METAR ESMX 210520Z 06004KT 030V090 2100 SN FEW005 BKN009 M00/M01 Q1013=
201501210450 METAR ESMX 210450Z 06005KT 030V100 6000 -SN FEW005 BKN011 M00/M01 Q1013=
201501210420 METAR ESMX 210420Z AUTO 04005KT 010V080 3500 -FZRA FEW005/// SCT008/// BKN011/// M01/M01 Q1013=
201501210350 METAR ESMX 210350Z AUTO 06005KT 2100 FZRA FEW005/// SCT010/// M01/M01 Q1013=
201501210320 METAR ESMX 210320Z AUTO 06005KT 030V090 2100 FZRA FEW005/// SCT008/// M01/M01 Q1013=
201501210250 METAR ESMX 210250Z AUTO 05005KT 020V090 4100 FZRA FEW006/// M01/M01 Q1013=
201501210220 METAR ESMX 210220Z AUTO 06005KT 030V100 2300 FZRA FEW005/// SCT008/// BKN009/// M01/M01 Q1013=
201501210150 METAR ESMX 210150Z AUTO 06005KT 3000 FZRA FEW006/// BKN008/// M01/M01 Q1013=
201501210120 METAR ESMX 210120Z AUTO 04005KT 010V070 4300 FZRA FEW006/// SCT009/// BKN011/// M01/M01 Q1013=
201501210050 METAR ESMX 210050Z 06005KT 030V090 5000 -SN FEW007 BKN009 M01/M01 Q1013=
201501210020 METAR ESMX 210020Z 06006KT 030V100 7000 -SN FEW005 BKN007 M01/M01 Q1014=
201501202350 METAR ESMX 202350Z 04005KT 020V080 3800 SN FEW006 BKN008 M01/M01 Q1014=
201501202320 METAR ESMX 202320Z 04005KT 010V100 3100 SN BKN005 M00/M01 Q1014=
201501202250 METAR ESMX 202250Z 05005KT 010V080 3300 SN BKN005 M00/M01 Q1014=
201501202220 METAR ESMX 202220Z 04005KT 020V080 2200 SN BKN005 M00/M01 Q1014=
201501202150 METAR ESMX 202150Z 07005KT 040V100 3800 SN BKN006 M00/M01 Q1014=
201501202120 METAR ESMX 202120Z 07005KT 2000 SN BKN005 M00/M01 Q1014=
201501202050 METAR ESMX 202050Z 06005KT 4900 SN BKN005 M00/M01 Q1014=
201501202020 METAR ESMX 202020Z 05005KT 010V090 2700 SN BKN005 M00/M01 Q1014=
201501201950 METAR ESMX 201950Z 06006KT 360V110 3700 SN BKN007 M00/M01 Q1014=
201501201920 METAR ESMX 201920Z 07006KT 030V110 9999 -SN FEW005 BKN008 M01/M01 Q1014=
201501201850 METAR ESMX 201850Z 07006KT 030V110 5000 -SN BKN006 M01/M01 Q1014=
201501201820 METAR ESMX 201820Z 07006KT 020V120 4800 SN FEW008 BKN010 M01/M01 Q1014=
201501201750 METAR ESMX 201750Z AUTO 07006KT 020V120 5000 -FZRA FEW007/// SCT010/// M01/M01 Q1014=
201501201720 METAR ESMX 201720Z 07006KT 020V150 3200 SN FEW007 BKN010 M01/M01 Q1014=
201501201650 METAR ESMX 201650Z 07005KT 020V110 2700 SN FEW007 BKN011 M00/M01 Q1015=
201501201620 METAR ESMX 201620Z 08006KT 030V120 4300 SN FEW009 BKN010 M00/M01 Q1015=
201501201550 METAR ESMX 201550Z 08005KT 020V120 3200 SN SCT007 BKN011 M00/M01 Q1015=
201501201520 METAR ESMX 201520Z 07006KT 040V110 3200 SN FEW008 BKN011 OVC014 M00/M01 Q1015=
201501201450 METAR ESMX 201450Z 08006KT 040V130 9000 SN OVC010 M00/M01 Q1015=
201501201420 METAR ESMX 201420Z 08006KT 030V120 9999 -SN OVC011 M00/M02 Q1015=
201501201350 METAR ESMX 201350Z 07007KT 020V110 9000 -SN BKN010 OVC017 M00/M01 Q1015=
201501201320 METAR ESMX 201320Z 08008KT 050V130 4000 -SN OVC010 M00/M01 Q1015=
201501201250 METAR ESMX 201250Z 09007KT 050V140 4600 -SN OVC010 M00/M01 Q1015=
201501201220 METAR ESMX 201220Z 09009G19KT 050V120 8000 -SN OVC010 M00/M02 Q1015=
201501201150 METAR ESMX 201150Z 09009KT 050V140 9999 BKN012 00/M02 Q1015=
201501201120 METAR COR ESMX 201120Z 09008KT 050V160 9999 SCT017 BKN023 00/M02 Q1016=
201501201050 METAR ESMX 201050Z 09008KT 050V150 9999 FEW016 BKN023 01/M02 Q1016=
201501201020 METAR ESMX 201020Z 10008KT 060V160 9999 SCT012 BKN020 01/M02 Q1016=
201501200950 METAR ESMX 200950Z 09009KT 050V120 9999 -SN BKN014 OVC020 01/M01 Q1016=
201501200920 METAR ESMX 200920Z 08007KT 040V130 9999 SCT012 BKN025 01/M01 Q1016=
201501200850 METAR COR ESMX 200850Z 08007KT 030V140 9999 FEW011 BKN015 OVC030 01/M01 Q1016=
201501200820 METAR ESMX 200820Z 09008KT 050V120 9999 SCT010 BKN015 01/M01 Q1016=
201501200750 METAR ESMX 200750Z 08007KT 030V140 9999 SCT011 BKN018 00/M01 Q1016=
201501200720 METAR ESMX 200720Z 08006KT 040V140 9999 SCT012 OVC025 00/M01 Q1016=
201501200650 METAR ESMX 200650Z 08007KT 050V150 9999 SCT010 BKN027 00/M01 Q1016=
201501200620 METAR ESMX 200620Z 09006KT 050V140 9999 BKN011 OVC019 00/M01 Q1016=
201501200550 METAR ESMX 200550Z 08006KT 050V140 9999 SCT012 BKN017 OVC024 00/M02 Q1016=
201501200520 METAR ESMX 200520Z 10006KT 360V160 9999 FEW012 SCT018 OVC021 00/M01 Q1016=
201501200450 METAR ESMX 200450Z 10006KT 050V200 9999 FEW012 SCT016 OVC020 01/M01 Q1016=
201501200420 METAR ESMX 200420Z AUTO 10008KT 070V140 9999 OVC010/// 01/M01 Q1016=
201501200350 METAR ESMX 200350Z AUTO 10007KT 070V160 9999 FEW009/// BKN011/// OVC014/// 01/M00 Q1016=
201501200320 METAR ESMX 200320Z AUTO 10005KT 060V150 9999 SCT006/// BKN009/// OVC013/// 01/M00 Q1016=
201501200250 METAR ESMX 200250Z AUTO 09005KT 050V150 8000 BR OVC006/// 01/00 Q1016=
201501200220 METAR ESMX 200220Z AUTO 10005KT 040V140 8000 BR FEW006/// BKN008/// OVC010/// 01/M00 Q1016=
201501200150 METAR ESMX 200150Z AUTO 10005KT 060V140 9999 FEW007/// OVC009/// 01/M00 Q1016=
201501200120 METAR ESMX 200120Z 09005KT 040V140 9000 BR BKN006 OVC010 01/M00 Q1016 REDZ=
201501200050 METAR ESMX 200050Z 08004KT 040V130 9999 OVC007 00/M00 Q1016=
201501200020 METAR ESMX 200020Z 09004KT 010V140 9000 -DZ FEW007 SCT009 BKN011 00/M01 Q1016=
201501192350 METAR ESMX 192350Z 08004KT 060V120 9999 BKN014 OVC040 00/M01 Q1016=
201501192320 METAR ESMX 192320Z 08004KT 040V120 9999 FEW018 BKN027 OVC036 00/M01 Q1016=
201501192250 METAR ESMX 192250Z AUTO 09003KT 050V140 9999 OVC028/// 00/M01 Q1016=
201501192220 METAR ESMX 192220Z 10004KT 060V150 9999 FEW024 SCT029 OVC036 00/M01 Q1016=
201501192150 METAR COR ESMX 192150Z 10004KT 060V140 9999 BKN023 BKN038 00/M01 Q1016=
201501192120 METAR ESMX 192120Z 10004KT 060V140 9999 BKN031 00/M01 Q1016=
201501192050 METAR ESMX 192050Z 11004KT 050V150 9999 BKN025 00/M01 Q1016=
201501192020 METAR ESMX 192020Z 12005KT 080V160 9999 FEW008 OVC022 01/M00 Q1016=
201501191950 METAR ESMX 191950Z 12005KT 070V160 9999 FEW008 SCT010 OVC024 01/M00 Q1016=
201501191920 METAR ESMX 191920Z 12005KT 070V170 9999 FEW006 SCT008 BKN010 01/M00 Q1015=
201501191850 METAR ESMX 191850Z 11005KT 070V160 9000 BR FEW006 SCT009 BKN011 01/00 Q1015=
201501191820 METAR ESMX 191820Z 12005KT 070V170 9999 FEW007 OVC019 01/00 Q1015=
201501191750 METAR ESMX 191750Z 13005KT 090V160 9999 FEW008 BKN012 OVC019 01/00 Q1015=
201501191720 METAR ESMX 191720Z 13005KT 090V180 9999 FEW007 BKN008 OVC011 01/00 Q1015=
201501191650 METAR ESMX 191650Z 13005KT 090V170 8000 BR FEW005 OVC007 01/00 Q1015=
201501191620 METAR ESMX 191620Z 13006KT 100V190 6000 BR BKN004 OVC008 01/00 Q1015=
201501191550 METAR ESMX 191550Z 14005KT 100V170 7000 BR BKN003 OVC007 01/00 Q1015=
201501191520 METAR ESMX 191520Z 12004KT 080V200 5000 BR OVC004 01/00 Q1015 REDZ=
201501191450 METAR ESMX 191450Z 13003KT 090V180 5000 BR FEW005 OVC013 01/00 Q1015=
201501191420 METAR ESMX 191420Z 14004KT 100V170 6000 BR FEW003 SCT005 OVC012 01/00 Q1015=
201501191350 METAR ESMX 191350Z 15003KT 110V170 3500 -SNRA FEW002 SCT004 OVC006 01/00 Q1015=
201501191320 METAR ESMX 191320Z 14004KT 110V180 1000 R01/P2000N R19/1100V1700D SN VV004 01/00 Q1015=
201501191250 METAR ESMX 191250Z 14003KT 070V180 1700 SN BKN001 OVC005 01/00 Q1014=
201501191220 METAR ESMX 191220Z 12003KT 080V160 2100 SN OVC002 01/00 Q1014=
201501191150 METAR ESMX 191150Z VRB03KT 3400 SN FEW002 OVC004 01/00 Q1014=
201501191120 METAR ESMX 191120Z VRB03KT 2700 SN OVC002 01/00 Q1014=
201501191050 METAR ESMX 191050Z VRB03KT 4500 RA OVC003 01/00 Q1015=
201501191020 METAR COR ESMX 191020Z 11003KT 080V170 3500 -SN FEW003 OVC005 01/00 Q1015=
201501190950 METAR ESMX 190950Z VRB02KT 5000 -SN OVC004 00/00 Q1015=
201501190920 METAR ESMX 190920Z VRB02KT 3400 -SN FEW002 OVC005 00/00 Q1015=
201501190850 METAR ESMX 190850Z VRB02KT 3100 SN SCT002 OVC005 00/M00 Q1014=
201501190820 METAR ESMX 190820Z VRB02KT 2000 SN FEW002 OVC004 00/M00 Q1014=
201501190750 METAR ESMX 190750Z 07002KT 2600 SN OVC003 M00/M00 Q1014=
201501190720 METAR ESMX 190720Z VRB02KT 6000 -SN OVC003 M00/M00 Q1014=
201501190650 METAR ESMX 190650Z 07003KT 5000 -SN OVC003 M00/M00 Q1014=
201501190620 METAR ESMX 190620Z 08003KT 050V110 8000 -SN OVC004 M00/M00 Q1014=
201501190550 METAR ESMX 190550Z 07003KT 030V100 8000 -SN BR OVC004 M00/M01 Q1014=
201501190520 METAR ESMX 190520Z 06003KT 030V090 7000 -SN OVC004 M00/M01 Q1014=
201501190450 METAR ESMX 190450Z 06003KT 030V110 6000 -SN OVC005 M00/M01 Q1014=
201501190420 METAR ESMX 190420Z AUTO 05003KT 030V110 4700 -FZRA FEW004/// SCT007/// BKN008/// M00/M01 Q1014=
201501190350 METAR ESMX 190350Z AUTO 05003KT 2700 -FZRA FEW013/// M00/M01 Q1014=
201501190320 METAR ESMX 190320Z AUTO VRB03KT 2400 FZRA FEW009/// SCT011/// M01/M01 Q1014=
201501190250 METAR ESMX 190250Z AUTO VRB03KT 2500 FZRA SCT006/// BKN007/// OVC010/// M01/M01 Q1014=
201501190220 METAR ESMX 190220Z AUTO 07003KT 3100 -FZRA FEW005/// M01/M01 Q1014=
201501190150 METAR ESMX 190150Z AUTO 05003KT 2800 FZRA FEW006/// M01/M01 Q1014=
201501190120 METAR ESMX 190120Z AUTO 05002KT 2200 -FZRA FEW010/// M01/M02 Q1014 REFZDZ=
201501190050 METAR ESMX 190050Z AUTO 00000KT 5000 BR FEW029/// SCT052/// M02/M02 Q1014=
201501190020 METAR ESMX 190020Z VRB01KT 5000 BR SCT052 M02/M03 Q1014=
201501182350 METAR ESMX 182350Z VRB02KT 5000 BR NSC M02/M03 Q1014=
201501182320 METAR ESMX 182320Z VRB02KT 1800 BR SCT053 M02/M03 Q1014=
201501182250 METAR ESMX 182250Z VRB01KT 5000 BR SCT053 M02/M03 Q1014=
201501182220 METAR ESMX 182220Z VRB03KT 6000 BR FEW054 M02/M02 Q1014=
201501182150 METAR ESMX 182150Z 15003KT 7000 BR NSC M01/M02 Q1014=
201501182120 METAR ESMX 182120Z 14003KT 7000 BR NSC M01/M01 Q1013=
201501182050 METAR ESMX 182050Z 16004KT 9000 BR FEW056 M01/M02 Q1013=
201501182020 METAR ESMX 182020Z 16005KT 9999 SCT011 00/M01 Q1013=
201501181950 METAR ESMX 181950Z 17005KT 9000 BR FEW012 BKN044 00/M01 Q1013=
201501181920 METAR ESMX 181920Z 17006KT 9999 OVC039 01/M01 Q1013=
201501181850 METAR ESMX 181850Z 17005KT 9999 OVC034 01/M01 Q1013=
201501181820 METAR ESMX 181820Z 17005KT 9999 FEW015 OVC037 01/M01 Q1013=
201501181750 METAR ESMX 181750Z 16006KT 9999 OVC032 01/M01 Q1012=
201501181720 METAR ESMX 181720Z 17006KT 9999 OVC037 01/M01 Q1012=
201501181650 METAR ESMX 181650Z 17004KT 9999 FEW012 BKN030 01/M01 Q1012=
201501181620 METAR ESMX 181620Z 16005KT 9999 FEW011 BKN032 01/M01 Q1012=
201501181550 METAR ESMX 181550Z 16006KT 9999 FEW010 BKN032 01/M01 Q1012=
201501181520 METAR ESMX 181520Z 17006KT 9999 SCT012 BKN030 01/M01 Q1012=
201501181450 METAR ESMX 181450Z 17007KT 9999 FEW013 BKN032 01/M01 Q1012=
201501181420 METAR ESMX 181420Z 18008KT 9999 SCT011 BKN033 01/M01 Q1011=
201501181350 METAR ESMX 181350Z 19007KT 9999 FEW010 SCT013 BKN015 01/M00 Q1011=
201501181320 METAR ESMX 181320Z 19008KT 9999 SCT008 BKN011 01/M00 Q1011=
201501181250 METAR COR ESMX 181250Z 19008KT 9000 BR FEW008 BKN010 01/M00 Q1011=
201501181220 METAR ESMX 181220Z 19009KT 7000 BR OVC009 01/M01 Q1012=
201501181150 METAR ESMX 181150Z 18009KT 9999 OVC009 01/M01 Q1012=
201501181120 METAR ESMX 181120Z AUTO 18008KT 9999 BKN010/// OVC016/// 01/M01 Q1011=
201501181050 METAR ESMX 181050Z AUTO 18009KT 9999 FEW009/// BKN011/// 01/M01 Q1011=
201501181020 METAR ESMX 181020Z AUTO 18008KT 9999 FEW009/// SCT010/// BKN020/// 01/M01 Q1012=
201501180950 METAR ESMX 180950Z AUTO 20009KT 9999 OVC010/// 01/M01 Q1012=
201501180920 METAR ESMX 180920Z AUTO 21007KT 9999 OVC010/// 00/M01 Q1011=
201501180850 METAR ESMX 180850Z AUTO 18008KT 9999 FEW011/// OVC013/// 00/M01 Q1011=
201501180820 METAR ESMX 180820Z AUTO 20007KT 9999 FEW010/// BKN013/// BKN018/// 00/M02 Q1011=
201501180750 METAR ESMX 180750Z AUTO 20009KT 9999 FEW009/// BKN012/// BKN016/// M00/M01 Q1011=
201501180720 METAR ESMX 180720Z AUTO 21008KT 9999 FEW009/// BKN010/// 00/M02 Q1011=
201501180650 METAR ESMX 180650Z 19007KT 9999 FEW010 BKN013 00/M01 Q1011=
201501180620 METAR ESMX 180620Z 20009KT 9999 FEW012 SCT014 00/M01 Q1010=
201501180550 METAR ESMX 180550Z 22010KT 9999 FEW012 BKN016 01/M01 Q1010=
201501180520 METAR ESMX 180520Z 21008KT 9999 BKN017 01/M01 Q1010=
201501180450 METAR ESMX 180450Z 21007KT 9999 FEW014 SCT019 01/M01 Q1010=
201501180420 METAR ESMX 180420Z AUTO 22007KT 9999 FEW016/// 01/M01 Q1010=
201501180350 METAR ESMX 180350Z AUTO 21011KT 9999 FEW013/// SCT018/// BKN021/// 01/M01 Q1010=
201501180320 METAR ESMX 180320Z AUTO 22010KT 9999 OVC013/// 02/M00 Q1010=
201501180250 METAR ESMX 180250Z AUTO 21009KT 9999 FEW013/// SCT026/// 02/00 Q1010=
201501180220 METAR ESMX 180220Z AUTO 22009KT 9999 FEW007/// SCT012/// BKN014/// 02/01 Q1010=
201501180150 METAR ESMX 180150Z AUTO 22010KT 9999 -RA FEW008/// SCT013/// BKN016/// 02/01 Q1010=
201501180120 METAR ESMX 180120Z AUTO 22011KT 9999 FEW012/// SCT015/// BKN029/// 02/00 Q1009=
201501180050 METAR ESMX 180050Z AUTO 21009KT 9999 FEW010/// SCT014/// BKN017/// 02/01 Q1009 REDZ=
201501180020 METAR ESMX 180020Z AUTO 22008KT 9999 FEW008/// SCT014/// BKN027/// 02/01 Q1009=
201501172350 METAR ESMX 172350Z AUTO 22009KT 9999 FEW009/// BKN012/// OVC018/// 02/01 Q1009=
201501172320 METAR ESMX 172320Z AUTO 23010KT 9999 FEW012/// SCT017/// BKN022/// 03/01 Q1009=
201501172250 METAR ESMX 172250Z AUTO 22011KT 9999 FEW010/// BKN012/// BKN016/// 02/01 Q1008=
201501172220 METAR ESMX 172220Z AUTO 22010KT 8000 -RA FEW009/// OVC011/// 02/01 Q1008 REDZ=
201501172150 METAR ESMX 172150Z 21010KT 9999 SCT010 BKN016 BKN022 02/01 Q1008=
201501172120 METAR ESMX 172120Z 23010KT 8000 BR FEW013 SCT018 BKN041 02/01 Q1007 REDZ=
201501172050 METAR ESMX 172050Z 22010KT 9999 FEW014 SCT017 BKN020 03/01 Q1007=
201501172020 METAR ESMX 172020Z 21010KT 9999 FEW016 BKN039 03/00 Q1007=
201501171950 METAR ESMX 171950Z 23010KT 9999 FEW016 BKN036 03/00 Q1007=
201501171920 METAR ESMX 171920Z 21011KT 190V360 9999 FEW018 SCT036 BKN042 03/00 Q1006=
201501171850 METAR ESMX 171850Z 22010KT 9999 FEW018 SCT026 BKN035 03/00 Q1006=
201501171820 METAR ESMX 171820Z 22011KT 9999 FEW020 SCT030 BKN036 03/00 Q1006=
201501171750 METAR ESMX 171750Z 23010KT 9999 FEW020 SCT029 BKN036 02/00 Q1005=
201501171720 METAR ESMX 171720Z AUTO 22010KT 9999 FEW018/// 02/M00 Q1005=
201501171650 METAR ESMX 171650Z AUTO 22010KT 9999 FEW019/// SCT031/// 02/M00 Q1005=
201501171620 METAR ESMX 171620Z AUTO 23011KT 9999 FEW019/// SCT026/// BKN035/// 02/00 Q1005=
201501171550 METAR ESMX 171550Z AUTO 23011KT 9999 FEW017/// SCT021/// 02/00 Q1004=
201501171520 METAR ESMX 171520Z AUTO 22012KT 190V260 9999 FEW017/// SCT023/// BKN030/// 03/00 Q1004=
201501171450 METAR ESMX 171450Z AUTO 23011KT 9999 FEW017/// BKN020/// 02/00 Q1003=
201501171420 METAR ESMX 171420Z AUTO 22012KT 9999 FEW014/// SCT016/// BKN019/// 02/00 Q1003=
201501171350 METAR ESMX 171350Z AUTO 22011KT 9999 FEW016/// SCT019/// BKN024/// 02/00 Q1003=
201501171320 METAR ESMX 171320Z AUTO 23012KT 9999 BKN019/// BKN027/// 03/M00 Q1003=
201501171250 METAR ESMX 171250Z AUTO 23012KT 9999 SCT016/// OVC020/// 03/00 Q1002=
201501171220 METAR ESMX 171220Z AUTO 21013KT 9999 FEW010/// BKN019/// 03/M00 Q1002=
201501171150 METAR ESMX 171150Z AUTO 22011KT 9999 FEW015/// SCT017/// BKN021/// 02/M00 Q1002=
201501171120 METAR ESMX 171120Z AUTO 22012KT 190V250 9999 FEW015/// SCT018/// BKN021/// 02/M00 Q1002=
201501171050 METAR ESMX 171050Z 22013KT 9999 FEW014 SCT017 BKN020 02/M00 Q1002=
201501171020 METAR ESMX 171020Z AUTO 23013KT 190V270 9999 FEW011/// SCT014/// OVC016/// 02/00 Q1002=
201501170950 METAR ESMX 170950Z 22012KT 9999 FEW010 SCT013 BKN016 02/00 Q1002=
201501170920 METAR ESMX 170920Z 22012KT 9999 BKN010 02/00 Q1002=
201501170850 METAR ESMX 170850Z 21010KT 9999 FEW010 SCT012 BKN016 02/01 Q1002=
201501170820 METAR ESMX 170820Z AUTO 21011KT 190V250 9999 FEW009/// BKN013/// BKN018/// 02/01 Q1001=
201501170750 METAR ESMX 170750Z AUTO 22009KT 9999 FEW008/// SCT009/// BKN011/// 02/01 Q1001=
201501170720 METAR ESMX 170720Z AUTO 22010KT 9999 SCT009/// BKN013/// BKN018/// 02/01 Q1001 RERA=
201501170650 METAR ESMX 170650Z AUTO 21011KT 7000 RA FEW007/// SCT013/// BKN042/// 02/01 Q1001=
201501170620 METAR ESMX 170620Z AUTO 20011KT 9999 SCT006/// BKN009/// OVC010/// 02/01 Q1000=
201501170550 METAR ESMX 170550Z AUTO 20010KT 9999 FEW006/// SCT010/// BKN015/// 02/02 Q1000=
201501170520 METAR ESMX 170520Z AUTO 19010KT 9999 SCT005/// BKN007/// OVC010/// 02/02 Q1000=
201501170450 METAR ESMX 170450Z AUTO 19008KT 9999 BKN006/// 02/01 Q1000=
201501170420 METAR ESMX 170420Z AUTO 20006KT 9999 BKN007/// BKN015/// 02/01 Q1000=
201501170350 METAR ESMX 170350Z AUTO 21008KT 9999 FEW009/// SCT018/// BKN020/// 02/01 Q1001=
201501170320 METAR ESMX 170320Z AUTO 19010KT 9999 FEW012/// SCT021/// BKN031/// 02/01 Q1001=
201501170250 METAR ESMX 170250Z AUTO 18008KT 9999 FEW012/// BKN031/// BKN091/// 02/01 Q1001=
201501170220 METAR ESMX 170220Z AUTO 19008KT 9999 FEW011/// BKN028/// 02/01 Q1001=
201501170150 METAR ESMX 170150Z AUTO 19010KT 9999 FEW013/// SCT022/// BKN025/// 03/01 Q1001=
201501170120 METAR ESMX 170120Z AUTO 19010KT 9999 FEW016/// SCT025/// 03/01 Q1001=
201501170050 METAR ESMX 170050Z AUTO 19009KT 9999 FEW016/// BKN024/// 03/01 Q1001=
201501170020 METAR ESMX 170020Z AUTO 19008KT 9999 FEW015/// SCT019/// BKN022/// 02/01 Q1001=
201501162350 METAR ESMX 162350Z AUTO 19009KT 9999 NCD 02/01 Q1002=
201501162320 METAR ESMX 162320Z AUTO 20008KT 9999 FEW016/// 03/01 Q1002=
201501162250 METAR ESMX 162250Z AUTO 20009KT 9999 FEW017/// 03/01 Q1002=
201501162220 METAR ESMX 162220Z AUTO 19009KT 9999 FEW015/// SCT019/// BKN025/// 03/02 Q1002=
201501162150 METAR ESMX 162150Z AUTO 21010KT 9999 FEW018/// OVC041/// 04/02 Q1002=
201501162120 METAR ESMX 162120Z AUTO 19014KT 9999 FEW016/// SCT023/// BKN032/// 04/02 Q1002=
201501162050 METAR ESMX 162050Z AUTO 19010KT 9999 FEW019/// SCT022/// BKN034/// 04/02 Q1001=
201501162020 METAR ESMX 162020Z AUTO 19011KT 9999 FEW018/// SCT022/// BKN029/// 04/02 Q1001=
201501161950 METAR ESMX 161950Z AUTO 20010KT 9999 FEW020/// SCT025/// BKN031/// 04/02 Q1001=
201501161920 METAR ESMX 161920Z AUTO 20010KT 9999 FEW020/// SCT024/// BKN030/// 05/02 Q1001=
201501161850 METAR ESMX 161850Z AUTO 19012KT 9999 SCT021/// BKN028/// OVC038/// 05/02 Q1000=
201501161820 METAR ESMX 161820Z 20012KT 9999 SCT023 BKN029 OVC040 05/02 Q1000=
201501161750 METAR ESMX 161750Z 21011KT 9999 FEW020 BKN024 BKN029 05/02 Q1000=
201501161720 METAR ESMX 161720Z 20013G25KT 9999 FEW015 OVC022 05/02 Q1000 REDZ=
201501161650 METAR ESMX 161650Z 19012KT 9999 FEW024 SCT027 BKN032 05/02 Q1000=
201501161620 METAR ESMX 161620Z 19010KT 9999 FEW012 SCT029 BKN038 04/02 Q0999=
201501161550 METAR ESMX 161550Z 20012KT 9000 -RA FEW020 OVC024 05/02 Q0999=
201501161520 METAR ESMX 161520Z 20012KT 9999 FEW019 BKN022 BKN030 05/02 Q0999=
201501161450 METAR ESMX 161450Z 20014KT 9999 -RA FEW017 SCT026 BKN030 05/01 Q0998=
201501161420 METAR ESMX 161420Z 20016KT 9999 FEW027 SCT031 06/01 Q0998=
201501161350 METAR ESMX 161350Z 20016KT 9999 BKN029 06/01 Q0997=
201501161320 METAR ESMX 161320Z 21015KT 9999 BKN029 06/01 Q0997=
201501161250 METAR ESMX 161250Z 23016KT 9999 BKN026 BKN040 06/01 Q0996=
201501161220 METAR COR ESMX 161220Z 21015KT 9999 BKN028 BKN040 06/01 Q0997=
201501161150 METAR COR ESMX 161150Z 20017KT 9999 FEW020 BKN025 05/02 Q0996=
201501161120 METAR ESMX 161120Z 21015G25KT 9999 FEW021 BKN026 BKN039 05/02 Q0996=
201501161050 METAR ESMX 161050Z 20017G27KT 9999 FEW021 BKN040 05/02 Q0996=
201501161020 METAR ESMX 161020Z 19017KT 9999 FEW015 BKN043 05/02 Q0995=
201501160950 METAR ESMX 160950Z 19019KT 9999 FEW008 SCT015 BKN042 04/02 Q0995=
201501160920 METAR ESMX 160920Z 20017KT 9999 -SHRA FEW007 SCT014CB BKN016 04/02 Q0995=
201501160850 METAR ESMX 160850Z 20018KT 9999 -SHRA FEW014 BKN020CB 04/02 Q0994=
201501160820 METAR ESMX 160820Z 20018G31KT 9999 FEW018 BKN035 05/01 Q0994=
201501160750 METAR ESMX 160750Z 20018KT 9999 BKN025 05/01 Q0993=
201501160720 METAR ESMX 160720Z 20020G30KT 9999 SCT026 BKN038 05/01 Q0993=
201501160650 METAR ESMX 160650Z 19017KT 9999 SCT021 BKN044 05/02 Q0993=
201501160620 METAR ESMX 160620Z 19016KT 9999 SCT023 BKN050 04/02 Q0992=
201501160550 METAR ESMX 160550Z 19015KT 9999 FEW029 OVC044 05/02 Q0992=
201501160520 METAR ESMX 160520Z 19014KT 9999 FEW022 SCT026 BKN042 05/02 Q0992=
201501160450 METAR ESMX 160450Z 19015KT 9999 FEW024 OVC046 05/02 Q0992=
201501160420 METAR ESMX 160420Z AUTO 19014KT 9999 FEW022/// SCT030/// BKN044/// 05/02 Q0992=
201501160350 METAR ESMX 160350Z AUTO 21015KT 9999 FEW023/// SCT033/// BKN049/// 05/03 Q0992=
201501160320 METAR ESMX 160320Z AUTO 19014KT 9999 FEW018/// SCT024/// BKN028/// 05/03 Q0992=
201501160250 METAR ESMX 160250Z AUTO 20013KT 9999 FEW023/// BKN048/// 05/04 Q0991=
201501160220 METAR ESMX 160220Z AUTO 20015KT 9999 FEW010/// SCT013/// BKN016/// 05/04 Q0991 REDZ=
201501160150 METAR ESMX 160150Z AUTO 18015KT 9999 FEW007/// SCT010/// BKN012/// 05/04 Q0991=
201501160120 METAR ESMX 160120Z AUTO 19014KT 9999 FEW007/// BKN009/// OVC012/// 05/04 Q0991=
201501160050 METAR ESMX 160050Z 19013KT 9999 FEW007 SCT008 OVC010 05/05 Q0991=
201501160020 METAR ESMX 160020Z 18011KT 9999 FEW007 OVC009 05/05 Q0991=
201501152350 METAR ESMX 152350Z 18009KT 9999 FEW007 SCT010 BKN014 05/05 Q0991=
201501152320 METAR ESMX 152320Z 19012KT 9999 FEW006 OVC009 05/05 Q0991=
201501152250 METAR ESMX 152250Z 18012KT 9999 FEW006 SCT007 BKN009 05/05 Q0991 REDZ=
201501152220 METAR ESMX 152220Z 17011KT 150V210 9999 FEW006 BKN011 05/05 Q0991=
201501152150 METAR ESMX 152150Z 18011KT 6000 RA FEW005 BKN007 BKN012 05/05 Q0991=
201501152120 METAR ESMX 152120Z 17012KT 9999 -RA SCT006 BKN008 OVC009 05/04 Q0991=
201501152050 METAR ESMX 152050Z 16012KT 9999 -RA FEW006 BKN007 OVC013 05/04 Q0991=
201501152020 METAR ESMX 152020Z 16012KT 9000 -RA FEW005 SCT008 BKN010 05/04 Q0991=
201501151950 METAR ESMX 151950Z 16012KT 6000 RA FEW006 BKN008 OVC014 04/04 Q0991=
201501151920 METAR ESMX 151920Z 16011KT 6000 RA FEW005 SCT007 BKN008 04/04 Q0992=
201501151850 METAR ESMX 151850Z 16012KT 6000 RA FEW005 SCT009 OVC010 04/03 Q0992=
201501151820 METAR ESMX 151820Z 16011KT 6000 RA FEW006 BKN008 OVC011 03/03 Q0992=
201501151750 METAR ESMX 151750Z 16012G23KT 7000 RA BKN006 03/02 Q0993=
201501151720 METAR ESMX 151720Z 16014KT 8000 RA BKN006 03/02 Q0993=
201501151650 METAR ESMX 151650Z 16015KT 9000 RASN BKN006 03/02 Q0993=
201501151620 METAR COR ESMX 151620Z 16016KT 8000 RA BKN006 03/02 Q0993=
201501151550 METAR ESMX 151550Z 16015KT 9999 RASN BKN006 02/02 Q0994=
201501151520 METAR ESMX 151520Z 16014KT 8000 RASN BKN005 02/02 Q0994=
201501151450 METAR ESMX 151450Z AUTO 15014KT 9000 -RA BKN005/// OVC007/// 02/01 Q0995 REDZ=
201501151420 METAR ESMX 151420Z 16014G24KT 110V180 5000 RASN BKN005 OVC008 02/01 Q0995=
201501151350 METAR COR ESMX 151350Z 16015KT 5000 RA BKN006 BKN080 02/01 Q0995=
201501151320 METAR ESMX 151320Z 15013G26KT 9999 -RASN FEW007 BKN010 02/01 Q0996=
201501151250 METAR ESMX 151250Z 15016G26KT 9999 -RASN FEW012 BKN017 02/00 Q0997=
201501151220 METAR ESMX 151220Z 16013G26KT 9999 FEW017 SCT070 BKN150 03/M01 Q0998=
201501151150 METAR ESMX 151150Z 15014KT 9999 FEW019 BKN150 02/M01 Q0999=
201501151120 METAR ESMX 151120Z 16015KT 9999 BKN015 02/M00 Q1000=
201501151050 METAR ESMX 151050Z 16014KT 140V200 9999 FEW013 BKN015 02/M00 Q1000=
201501151020 METAR ESMX 151020Z 16014KT 9999 BKN013 02/M00 Q1001=
201501150950 METAR ESMX 150950Z 16014KT 120V190 9999 BKN012 02/M00 Q1001=
201501150920 METAR ESMX 150920Z 16015KT 9999 BKN011 02/M00 Q1002=
201501150850 METAR ESMX 150850Z 17014KT 9999 FEW009 BKN011 02/M00 Q1002=
201501150820 METAR ESMX 150820Z 17012KT 9999 BKN009 01/M00 Q1003=
201501150750 METAR ESMX 150750Z 16010KT 9999 BKN010 01/M00 Q1003=
201501150720 METAR ESMX 150720Z 16011KT 9999 BKN008 01/M00 Q1003=
201501150650 METAR ESMX 150650Z 17010KT 9999 FEW008 OVC009 01/M00 Q1004=
201501150620 METAR ESMX 150620Z 16008KT 9999 FEW008 BKN013 01/M00 Q1004=
201501150550 METAR ESMX 150550Z 17010KT 9999 BKN007 01/M00 Q1004=
201501150520 METAR ESMX 150520Z 17010KT 9999 BKN007 01/M00 Q1004=
201501150450 METAR ESMX 150450Z 18011KT 9999 OVC006 01/M00 Q1004=
201501150420 METAR ESMX 150420Z AUTO 18010KT 9999 BKN006/// OVC011/// 01/M00 Q1005=
201501150350 METAR ESMX 150350Z AUTO 20007KT 9999 SCT007/// BKN009/// OVC012/// 01/M00 Q1005=
201501150320 METAR ESMX 150320Z AUTO 19008KT 9999 FEW009/// SCT011/// OVC013/// 01/M00 Q1005=
201501150250 METAR ESMX 150250Z AUTO 22010KT 9999 FEW008/// BKN010/// OVC014/// 01/M00 Q1005=
201501150220 METAR ESMX 150220Z AUTO 21009KT 170V240 9999 OVC010/// 01/M00 Q1005=
201501150150 METAR ESMX 150150Z AUTO 20010KT 9999 SCT016/// 01/00 Q1005=
201501150120 METAR ESMX 150120Z AUTO 21010KT 9999 FEW011/// 01/00 Q1005=
201501150050 METAR ESMX 150050Z 22010KT 9999 BKN007 OVC011 01/00 Q1004=
201501150020 METAR ESMX 150020Z 21009KT 9999 BKN006 OVC010 01/01 Q1004=
201501142350 METAR ESMX 142350Z 23010KT 9999 SCT006 BKN009 01/01 Q1004=
201501142320 METAR ESMX 142320Z 22009KT 9999 FEW006 SCT007 BKN009 01/01 Q1003=
201501142250 METAR ESMX 142250Z 22009KT 9999 SCT007 BKN010 02/01 Q1003=
201501142220 METAR ESMX 142220Z 22010KT 9999 FEW007 BKN008 OVC012 01/01 Q1003=
201501142150 METAR ESMX 142150Z AUTO 22010KT 9999 FEW006/// OVC008/// 01/01 Q1002=
201501142120 METAR ESMX 142120Z 22011KT 9999 SCT006 OVC009 01/00 Q1002=
201501142050 METAR ESMX 142050Z 22008KT 9999 SCT007 OVC009 01/00 Q1001=
201501142020 METAR ESMX 142020Z 24008KT 9999 FEW009 BKN010 01/00 Q1001=
201501141950 METAR ESMX 141950Z 22008KT 9999 FEW006 SCT009 OVC011 01/00 Q1001=
201501141920 METAR ESMX 141920Z 23009KT 4500 -RA FEW006 BKN010 01/00 Q1000=
201501141850 METAR ESMX 141850Z 23009KT 200V260 9999 SCT009 BKN012 01/00 Q1000=
201501141820 METAR ESMX 141820Z 24009KT 9999 FEW006 SCT012 BKN016 01/00 Q0999=
201501141750 METAR ESMX 141750Z 23010KT 9999 -SN FEW002 SCT010 BKN013 01/01 Q0999=
201501141720 METAR ESMX 141720Z 21008KT 9999 -SG FEW004 SCT009 BKN013 01/01 Q0999=
201501141650 METAR ESMX 141650Z 23010KT 9999 FEW008 SCT012 BKN033 01/00 Q0998=
201501141620 METAR ESMX 141620Z 24009KT 9999 -SN FEW007 BKN008 OVC012 01/00 Q0998=
201501141550 METAR ESMX 141550Z 22009KT 190V250 9000 -SN FEW005 BKN010 01/00 Q0998=
201501141520 METAR ESMX 141520Z 23008KT 9999 FEW006 BKN009 01/00 Q0997=
201501141450 METAR ESMX 141450Z 23009KT 7000 -SHSN FEW008 OVC010 01/00 Q0997=
201501141420 METAR COR ESMX 141420Z 23012KT 7000 -RASN OVC010 01/00 Q0997=
201501141350 METAR ESMX 141350Z 23010KT 9999 SCT007 BKN013 02/01 Q0996=
201501141320 METAR ESMX 141320Z 21009KT 9999 FEW005 BKN008 02/01 Q0996=
201501141250 METAR COR ESMX 141250Z 21010KT 8000 -RASN FEW007 SCT010 BKN014 02/01 Q0995=
201501141220 METAR ESMX 141220Z 18008KT 9999 FEW007 SCT018 BKN023 02/01 Q0996=
201501141150 METAR ESMX 141150Z 19008KT 9999 FEW008 SCT011 BKN017 02/01 Q0996=
201501141120 METAR ESMX 141120Z 19008KT 9999 FEW008 BKN014 02/01 Q0996=
201501141050 METAR ESMX 141050Z 18008KT 9999 FEW008 SCT015 02/01 Q0996=
201501141020 METAR COR ESMX 141020Z 19010KT 9999 FEW007 SCT008 BKN010 02/01 Q0996=
201501140950 METAR ESMX 140950Z 21009KT 9999 FEW006 BKN008 BKN011 02/01 Q0996=
201501140920 METAR COR ESMX 140920Z 22008KT 9999 FEW006 SCT007 BKN009 02/01 Q0996=
201501140850 METAR ESMX 140850Z 19010KT 9999 FEW005 SCT007 BKN009 02/01 Q0996=
201501140820 METAR ESMX 140820Z 19009KT 9999 FEW007 BKN011 02/01 Q0996=
201501140750 METAR ESMX 140750Z 20009KT 9999 FEW007 OVC009 02/01 Q0996=
201501140720 METAR ESMX 140720Z 20008KT 9999 BKN011 02/01 Q0995=
201501140650 METAR ESMX 140650Z 20007KT 9999 FEW008 BKN010 OVC016 01/01 Q0995=
201501140620 METAR ESMX 140620Z 20007KT 9999 FEW007 SCT011 BKN019 01/01 Q0995=
201501140550 METAR ESMX 140550Z 20008KT 9999 OVC010 02/01 Q0995=
201501140520 METAR ESMX 140520Z 19007KT 9999 BKN010 OVC017 01/01 Q0995=
201501140450 METAR ESMX 140450Z 22006KT 9999 BKN010 BKN077 01/01 Q0996=
201501140420 METAR ESMX 140420Z AUTO 21008KT 9999 FEW025/// BKN071/// 01/01 Q0995 RERA=
201501140350 METAR ESMX 140350Z AUTO 22011KT 1600 -RA FEW006/// SCT008/// BKN009/// 01/01 Q0995=
201501140320 METAR ESMX 140320Z AUTO 20009KT 9999 FEW006/// BKN007/// BKN013/// 03/02 Q0995=
201501140250 METAR ESMX 140250Z AUTO 20010KT 9999 BKN005/// OVC011/// 02/02 Q0995=
201501140220 METAR ESMX 140220Z AUTO 21009KT 9999 OVC003/// 02/02 Q0996=
201501140150 METAR ESMX 140150Z AUTO 19009KT 9999 OVC002/// 02/02 Q0996=
201501140120 METAR ESMX 140120Z AUTO 19009KT 9999 OVC003/// 02/01 Q0996=
201501140050 METAR ESMX 140050Z 17008KT 9999 SCT005 OVC007 02/01 Q0996=
201501140020 METAR COR ESMX 140020Z 18007KT 9999 BKN007 01/01 Q0996=
201501132350 METAR ESMX 132350Z 20005KT 160V230 9999 FEW008 BKN009 01/00 Q0996=
201501132320 METAR ESMX 132320Z 21007KT 9999 BKN012 01/00 Q0996=
201501132250 METAR ESMX 132250Z 23008KT CAVOK 01/00 Q0996=
201501132220 METAR ESMX 132220Z 23008KT CAVOK 01/00 Q0995=
201501132150 METAR ESMX 132150Z AUTO 23009KT 9999 NCD 01/00 Q0995=
201501132120 METAR COR ESMX 132120Z 22009KT CAVOK 02/00 Q0995=
201501132050 METAR ESMX 132050Z 23008KT CAVOK 02/00 Q0995=
201501132020 METAR ESMX 132020Z 25008KT 9999 FEW019 03/00 Q0994=
201501131950 METAR ESMX 131950Z 26010KT 9999 FEW018 SCT025 BKN028 04/01 Q0994=
201501131920 METAR ESMX 131920Z AUTO 26014G24KT 9999 FEW016/// 04/02 Q0993=
201501131850 METAR ESMX 131850Z 23010KT 9999 FEW009 SCT014 BKN017 04/03 Q0993=
201501131820 METAR ESMX 131820Z 22010KT 9999 -RA FEW008 OVC010 04/03 Q0993=
201501131750 METAR COR ESMX 131750Z 23009KT 9999 BKN009 04/03 Q0992=
201501131720 METAR ESMX 131720Z 23011KT 9999 FEW005 BKN007 04/04 Q0992=
201501131650 METAR ESMX 131650Z 23012KT 9999 FEW002 OVC005 04/04 Q0992=
201501131620 METAR ESMX 131620Z 21010KT 5000 BR OVC002 04/04 Q0992=
201501131550 METAR ESMX 131550Z 20009KT 5000 BR BKN002 04/04 Q0992=
201501131520 METAR ESMX 131520Z 19008KT 7000 BR OVC002 03/03 Q0992=
201501131450 METAR ESMX 131450Z 21006KT 8000 BR BKN004 03/03 Q0992=
201501131420 METAR ESMX 131420Z 18005KT 150V230 9999 BKN004 BKN016 03/03 Q0992=
201501131350 METAR ESMX 131350Z 19005KT 9999 BKN004 BKN015 03/03 Q0992=
201501131320 METAR ESMX 131320Z 18007KT 9999 DZ BKN005 03/02 Q0992=
201501131250 METAR ESMX 131250Z 17010KT 8000 -RA BKN005 03/02 Q0993=
201501131220 METAR ESMX 131220Z 17010KT 9999 DZ SCT005 BKN027 03/02 Q0994=
201501131150 METAR ESMX 131150Z 17012KT 8000 -RA FEW006 SCT008 03/02 Q0994=
201501131120 METAR ESMX 131120Z 17013KT 9999 -DZ FEW006 OVC010 03/02 Q0995=
201501131050 METAR ESMX 131050Z 17010KT 9999 -DZ FEW009 BKN011 03/02 Q0995=
201501131020 METAR ESMX 131020Z 17010KT 9999 SCT009 03/02 Q0996=
201501130950 METAR ESMX 130950Z 16009KT 9999 FEW010 03/01 Q0996=
201501130920 METAR ESMX 130920Z 15008KT 9999 SCT010 03/01 Q0996=
201501130850 METAR ESMX 130850Z 17007KT CAVOK 02/01 Q0997=
201501130820 METAR ESMX 130820Z 18009KT 9999 SCT013 02/01 Q0998=
201501130750 METAR ESMX 130750Z 18007KT CAVOK 02/01 Q0998=
201501130720 METAR ESMX 130720Z 20008KT CAVOK 02/01 Q0997=
201501130650 METAR ESMX 130650Z 20009KT CAVOK 02/01 Q0998=
201501130620 METAR ESMX 130620Z 22010KT CAVOK 02/01 Q0998=
201501130550 METAR ESMX 130550Z 22011KT CAVOK 02/01 Q0998=
201501130520 METAR ESMX 130520Z 22011KT 9999 FEW023 03/01 Q0998=
201501130450 METAR ESMX 130450Z 22009KT 8000 BR FEW021 03/00 Q0997=
201501130420 METAR ESMX 130420Z AUTO 23010KT 9999 NCD 03/00 Q0997=
201501130350 METAR ESMX 130350Z AUTO 25010KT 9999 NCD 03/M00 Q0997=
201501130320 METAR ESMX 130320Z AUTO 25012KT 9999 FEW027/// 04/00 Q0997=
201501130250 METAR ESMX 130250Z AUTO 25012KT 9999 FEW025/// SCT038/// BKN049/// 04/01 Q0997=
201501130220 METAR ESMX 130220Z AUTO 25013G24KT 9999 FEW025/// BKN029/// 04/01 Q0996=
201501130150 METAR ESMX 130150Z AUTO 26015KT 9999 FEW025/// BKN029/// 04/01 Q0995=
201501130120 METAR ESMX 130120Z 26015G26KT 9999 FEW026 BKN031 BKN044 04/01 Q0995=
201501130050 METAR ESMX 130050Z 25014KT 200V270 9999 FEW024 SCT028 BKN034 04/01 Q0995=
201501130020 METAR ESMX 130020Z 26013KT 230V290 9999 FEW023 OVC029 04/02 Q0994=
201501122350 METAR ESMX 122350Z 25013KT 220V280 9999 FEW023 SCT030 BKN041 04/02 Q0994=
201501122320 METAR ESMX 122320Z 25010KT 9999 FEW025 03/02 Q0994=
201501122250 METAR ESMX 122250Z 26016G28KT 9999 FEW011 SCT034 03/02 Q0993=
201501122220 METAR ESMX 122220Z 28018G30KT 2300 +RA FEW006 SCT016 BKN020 03/02 Q0993=
201501122150 METAR ESMX 122150Z 25013G24KT 9999 FEW020 SCT030 BKN040 06/03 Q0992=
201501122120 METAR ESMX 122120Z 25017G28KT 9999 FEW023 SCT031 BKN042 06/03 Q0992=
201501122050 METAR ESMX 122050Z 24017G30KT 9999 FEW016 SCT026 BKN036 06/03 Q0991=
201501122020 METAR ESMX 122020Z 24014KT 9999 FEW017 BKN022 BKN041 06/04 Q0991=
201501121950 METAR ESMX 121950Z 25013KT 220V290 9999 -RA FEW015 SCT018 BKN021 06/05 Q0990=
201501121920 METAR COR ESMX 121920Z 24015KT 9999 DZ FEW018 SCT021 06/04 Q0990=
201501121850 METAR ESMX 121850Z 25018G33KT 9999 FEW015 SCT021 07/04 Q0990=
201501121820 METAR ESMX 121820Z 23018G32KT 9999 -DZ FEW007 OVC010 07/06 Q0990=
201501121750 METAR ESMX 121750Z 22016KT 9999 FEW006 OVC008 06/05 Q0990=
201501121720 METAR ESMX 121720Z 21015KT 9999 -DZ OVC006 06/05 Q0990=
201501121650 METAR ESMX 121650Z 21015KT 8000 -RA OVC006 05/05 Q0990=
201501121620 METAR ESMX 121620Z 21015KT 9999 -DZ OVC007 05/05 Q0991=
201501121550 METAR ESMX 121550Z 21014KT 4200 DZ OVC005 05/05 Q0991=
201501121520 METAR ESMX 121520Z 22014KT 8000 -RA FEW007 OVC009 05/05 Q0992=
201501121450 METAR ESMX 121450Z 22014KT 190V250 8000 -RA FEW007 OVC009 05/05 Q0992=
201501121420 METAR ESMX 121420Z 22013KT 6000 -RA FEW005 OVC007 05/04 Q0992=
201501121350 METAR ESMX 121350Z 21014KT 9999 -RA SCT008 OVC010 05/04 Q0992=
201501121320 METAR COR ESMX 121320Z 21014KT 6000 -RA SCT008 BKN010 OVC013 05/04 Q0993=
201501121250 METAR COR ESMX 121250Z 21014KT 8000 -RA FEW008 BKN010 05/04 Q0993=
201501121220 METAR ESMX 121220Z 23013KT 9999 FEW008 BKN010 05/04 Q0993=
201501121150 METAR ESMX 121150Z 23014KT 9999 FEW007 BKN011 05/04 Q0993=
201501121120 METAR COR ESMX 121120Z 23012KT 9999 -DZ BKN008 05/04 Q0994=
201501121050 METAR ESMX 121050Z 23013KT 8000 BR FEW009 BKN011 05/04 Q0994=
201501121020 METAR ESMX 121020Z 22013KT 9999 FEW007 BKN009 05/04 Q0994=
201501120950 METAR ESMX 120950Z 23011KT 6000 -RA FEW007 BKN008 04/04 Q0995=
201501120920 METAR COR ESMX 120920Z 22011KT 9999 -DZ BKN007 04/03 Q0995=
201501120850 METAR COR ESMX 120850Z 22011KT 6000 DZ SCT005 BKN007 OVC009 03/03 Q0995=
201501120820 METAR COR ESMX 120820Z 19012KT 9999 DZ OVC003 03/02 Q0995=
201501120750 METAR COR ESMX 120750Z 19012KT 6000 DZ OVC004 02/02 Q0996=
201501120720 METAR COR ESMX 120720Z 19012KT 9000 -RA OVC004 02/01 Q0996=
201501120650 METAR COR ESMX 120650Z 18012KT 7000 -RA OVC004 01/01 Q0997=
201501120620 METAR COR ESMX 120620Z 17013KT 7000 -RA BKN003 BKN006 01/01 Q0997=
201501120550 METAR ESMX 120550Z 18009KT 6000 FBLSN SCT004 BKN006 01/00 Q0998=
201501120515 METAR ESMX 120515Z 18006KT 9999 BKN006 M00/M00 Q0998=
201501120450 METAR ESMX 120450Z 18006KT CAVOK M01/M02 Q0999=
201501112350 METAR ESMX 112350Z 29003KT 9999 BKN009 M02/M03 Q0999=
201501112320 METAR ESMX 112320Z 30006KT 9999 BKN010 M02/M03 Q0999=
201501112250 METAR ESMX 112250Z 30006KT 9999 OVC010 M02/M03 Q0999=
201501112220 METAR ESMX 112220Z 32008KT 9999 BKN010 M01/M02 Q0998=
201501112150 METAR ESMX 112150Z 32008KT 9999 FEW008 BKN010 M01/M02 Q0997=
201501112120 METAR ESMX 112120Z 32008KT 9999 FEW008 BKN010 M01/M02 Q0996=
201501112050 METAR ESMX 112050Z 32008KT 9999 FEW008 BKN010 M01/M02 Q0995=
201501112020 METAR ESMX 112020Z 32008KT 9999 BKN010 M01/M02 Q0995=
201501111950 METAR ESMX 111950Z 32008KT 9000 FBLSN FEW015 BKN025 00/M00 Q0994=
201501111920 METAR ESMX 111920Z 32008KT 9000 FBLSN FEW015 BKN025 00/M00 Q0993=
201501111850 METAR ESMX 111850Z 32007KT 9999 FEW007 SCT011 BKN016 00/00 Q0992=
201501111820 METAR ESMX 111820Z 32008KT 9999 FEW003 BKN005 02/00 Q0991=
201501111750 METAR ESMX 111750Z 32008KT 3000 SN FEW003 BKN005 02/00 Q0990=
201501111720 METAR ESMX 111720Z 32008KT 3000 SN FEW003 BKN005 02/00 Q0989=
201501111650 METAR ESMX 111650Z 28009KT 9999 SCT007 BKN015 02/00 Q0989=
201501111620 METAR ESMX 111620Z 28013KT 9999 -RA BKN013 02/00 Q0988=
201501111550 METAR ESMX 111550Z 28014KT 9999 -RASN BKN015 02/01 Q0987=
201501111520 METAR ESMX 111520Z 27014KT 9999 -RASN BKN010 02/01 Q0987=
201501111450 METAR ESMX 111450Z 28014G24KT 9999 -RA BKN014 02/01 Q0986=
201501111420 METAR ESMX 111420Z 28020KT 9999 -RA BKN010 02/01 Q0986=
201501111350 METAR ESMX 111350Z 27014KT 9999 -RA FEW006 BKN015 01/00 Q0985=
201501111250 METAR ESMX 111250Z 27020G37KT 9999 5000N -RA FEW006 BKN020 04/M01 Q0984=
201501111220 METAR ESMX 111220Z 26017G31KT 230V300 9999 BKN020 04/M01 Q0983=
201501111020 METAR ESMX 111020Z AUTO 26018G30KT 9999 FEW027/// BKN036/// BKN048/// 04/M01 Q0982=
201501110950 METAR ESMX 110950Z AUTO 26017G28KT 9999 FEW030/// BKN035/// BKN048/// 04/M01 Q0982=
201501110920 METAR ESMX 110920Z AUTO 26018G29KT 230V290 9999 SCT030/// BKN038/// BKN044/// 04/M02 Q0982=
201501110850 METAR ESMX 110850Z AUTO 26017G33KT 9999 FEW027/// SCT031/// BKN037/// 03/M02 Q0981=
201501110820 METAR ESMX 110820Z AUTO 26020G39KT 9999 FEW029/// SCT040/// 03/M01 Q0981=
201501110750 METAR ESMX 110750Z 26019G31KT 9999 SCT030 BKN038 03/M01 Q0981=
201501110720 METAR ESMX 110720Z 25019G30KT 9999 BKN030 03/M02 Q0980=
201501110650 METAR ESMX 110650Z 26021G36KT 230V290 9999 FEW030 BKN034 04/M02 Q0980=
201501110620 METAR ESMX 110620Z 26022G41KT 230V290 9999 BKN030 04/M02 Q0980=
201501110550 METAR ESMX 110550Z 26023G36KT 9999 FEW026 BKN030 03/M02 Q0980=
201501110520 METAR ESMX 110520Z 25020G34KT 9999 FEW020 BKN025 03/M01 Q0980=
201501110450 METAR ESMX 110450Z 26021G35KT 220V290 9999 BKN033 04/M02 Q0980=
201501110420 METAR ESMX 110420Z AUTO 26020G38KT 9999 FEW032/// SCT038/// BKN042/// 04/M02 Q0979=
201501110350 METAR ESMX 110350Z AUTO 26023G40KT 9999 FEW031/// BKN037/// BKN050/// 03/M02 Q0980=
201501110320 METAR ESMX 110320Z AUTO 26021G32KT 9999 ////// 03/M02 Q0980=
201501110250 METAR ESMX 110250Z AUTO 25024G38KT 9999 ////// 03/M02 Q0980=
201501110220 METAR ESMX 110220Z AUTO 25023G35KT 210V270 9999 ////// 04/M02 Q0979=
201501110150 METAR ESMX 110150Z AUTO 26023G35KT 220V280 9999 ////// 04/M02 Q0979=
201501110120 METAR ESMX 110120Z AUTO 26023G37KT 230V290 9999 ////// 04/M02 Q0978=
201501110050 METAR ESMX 110050Z AUTO 25026G43KT 9999 ////// 04/M02 Q0978=
201501110020 METAR ESMX 110020Z AUTO 26025G39KT 9999 ////// 04/M02 Q0977=
201501102350 METAR ESMX 102350Z AUTO 26028G48KT 9999 ////// 04/M02 Q0977=
201501102320 METAR ESMX 102320Z AUTO 25025G46KT 210V270 9999 OVC031/// 04/M02 Q0976=
201501102250 METAR ESMX 102250Z AUTO 26025G44KT 230V290 9999 BKN028/// OVC038/// 04/M01 Q0976=
201501102220 METAR ESMX 102220Z AUTO 26025G44KT 9999 BKN030/// BKN042/// 04/M01 Q0975=
201501102150 METAR ESMX 102150Z AUTO 26027G43KT 9999 FEW028/// BKN033/// OVC042/// 04/M01 Q0975=
201501102050 METAR ESMX 102050Z 24025G39KT 9999 BKN029 OVC039 04/M01 Q0975=
201501102020 METAR ESMX 102020Z 25023G45KT 9999 FEW021 BKN027 04/M01 Q0975=
201501101950 METAR ESMX 101950Z 25023G38KT 9999 -DZ BKN026 OVC038 04/M00 Q0975 REDZ=
201501101920 METAR ESMX 101920Z AUTO 25021G38KT 9999 -DZ FEW023/// BKN029/// BKN037/// 04/M00 Q0976=
201501101850 METAR ESMX 101850Z AUTO 24020G37KT 9999 FEW024/// SCT028/// BKN032/// 04/M00 Q0976=
201501101820 METAR ESMX 101820Z AUTO 25020G32KT 9999 FEW023/// SCT027/// BKN032/// 04/00 Q0976=
201501101750 METAR ESMX 101750Z AUTO 25018G34KT 9999 SCT024/// BKN030/// OVC036/// 04/00 Q0976=
201501101720 METAR ESMX 101720Z AUTO 26021G38KT 9999 FEW021/// BKN027/// BKN036/// 04/01 Q0976=
201501101650 METAR ESMX 101650Z AUTO 24016G26KT 200V260 9999 FEW021/// SCT025/// BKN035/// 04/01 Q0976=
201501101620 METAR ESMX 101620Z AUTO 26015G26KT 9999 FEW021/// SCT027/// BKN031/// 04/01 Q0976=
201501101550 METAR ESMX 101550Z AUTO 24015G25KT 210V280 9999 FEW025/// SCT055/// 04/02 Q0976=
201501101520 METAR ESMX 101520Z AUTO 26018G29KT 9999 FEW013/// SCT021/// BKN028/// 04/02 Q0975 REDZ=
201501101450 METAR ESMX 101450Z AUTO 25015KT 9999 FEW018/// SCT021/// BKN025/// 04/03 Q0975 RESHUP=
201501101420 METAR ESMX 101420Z AUTO 26017G27KT 220V280 9999 DZ FEW014/// SCT029/// BKN065/// 05/03 Q0975 RERA=
201501101350 METAR ESMX 101350Z AUTO 25029G45KT 5000 -RA FEW010/// BKN020/// BKN029/// 05/05 Q0974=
201501101320 METAR ESMX 101320Z AUTO 21011KT 9999 RA FEW003/// SCT006/// BKN013/// 03/03 Q0974=
201501101250 METAR ESMX 101250Z AUTO 18011KT 6000 -RA FEW004/// SCT005/// BKN006/// 02/02 Q0975=
201501101220 METAR ESMX 101220Z AUTO 17011KT 120V210 3200 RA FEW003/// BKN004/// OVC006/// 01/01 Q0976=
201501101150 METAR ESMX 101150Z AUTO 16014KT 4100 -RA OVC003/// 01/01 Q0977=
201501101120 METAR ESMX 101120Z AUTO 16014KT 4600 -RA BKN004/// OVC007/// 01/01 Q0979=
201501101050 METAR ESMX 101050Z AUTO 15013KT 4400 -RA OVC004/// 00/00 Q0981=
201501101020 METAR ESMX 101020Z AUTO 16011KT 5000 RA FEW003/// OVC005/// 00/00 Q0982=
201501100950 METAR ESMX 100950Z AUTO 15010KT 2200 +RA SCT003/// OVC005/// 00/00 Q0984=
201501100920 METAR ESMX 100920Z AUTO 15010KT 1800 RA FEW002/// OVC003/// 00/00 Q0986=
201501100850 METAR ESMX 100850Z AUTO 15008KT 1100 R01/P2000N R19/1100VP2000U +RA VV004 00/00 Q0987=
201501100820 METAR ESMX 100820Z AUTO 15007KT 2000 +RA BKN002/// OVC004/// 00/00 Q0988=
201501100750 METAR ESMX 100750Z AUTO 16006KT 2300 +RA OVC001/// 00/00 Q0990=
201501100720 METAR ESMX 100720Z AUTO 15005KT 2900 RA BKN001/// OVC004/// 00/00 Q0991=
201501100650 METAR ESMX 100650Z AUTO 15005KT 3200 RA OVC001/// 00/00 Q0992=
201501100620 METAR ESMX 100620Z AUTO 17005KT 9000 BR BKN002/// OVC005/// 00/00 Q0993=
201501100550 METAR ESMX 100550Z AUTO 19004KT 9999 OVC003/// 00/00 Q0993=
201501100520 METAR ESMX 100520Z AUTO 22003KT 9999 OVC002/// 00/00 Q0993=
201501100450 METAR ESMX 100450Z AUTO 24004KT 190V290 9999 OVC001/// 00/00 Q0993=
201501100420 METAR ESMX 100420Z AUTO 22004KT 6000 OVC001/// 00/00 Q0993=
201501100350 METAR ESMX 100350Z AUTO 23002KT 3500 BR OVC002/// 00/00 Q0994=
201501100320 METAR ESMX 100320Z AUTO 28004KT 9999 OVC002/// 00/00 Q0995=
201501100250 METAR ESMX 100250Z AUTO 32006KT 9999 OVC003/// 00/00 Q0995=
201501100220 METAR ESMX 100220Z AUTO 31005KT 9999 FEW001/// OVC003/// 00/00 Q0994=
201501100150 METAR ESMX 100150Z AUTO 32006KT 4300 BR OVC001/// 00/00 Q0994=
201501100120 METAR ESMX 100120Z AUTO 29006KT 9999 SCT002/// BKN004/// OVC017/// 00/00 Q0994=
201501100050 METAR ESMX 100050Z AUTO 34008KT 8000 OVC001/// 00/00 Q0993=
201501100020 METAR ESMX 100020Z AUTO 33009KT 1000 R01/P2000N R19/P2000N OVC001/// 00/00 Q0993=
201501092350 METAR ESMX 092350Z AUTO 29004KT 1400 R01/P2000N R19/P2000N VV002 01/01 Q0992=
201501092320 METAR ESMX 092320Z AUTO 31003KT 0700 R01/1500V1900D R19/P2000N FG OVC001/// 01/01 Q0992=
201501092250 METAR ESMX 092250Z AUTO 32003KT 0700 R01/1600V1900U R19/P2000N FG VV002 01/01 Q0991=
201501092220 METAR ESMX 092220Z AUTO 35004KT 1000 R01/P2000N R19/P2000N BR VV002 01/01 Q0990=
201501092150 METAR ESMX 092150Z AUTO 36004KT 1600 BR VV002 01/01 Q0989=
201501092120 METAR ESMX 092120Z AUTO 00000KT 4900 BR FEW002/// OVC006/// 00/00 Q0989 REDZ=
201501092050 METAR ESMX 092050Z AUTO VRB02KT 5000 BR FEW005/// SCT007/// BKN008/// 00/00 Q0989=
201501092020 METAR ESMX 092020Z AUTO 17002KT 4000 BR FEW007/// SCT008/// OVC010/// 00/00 Q0988 REDZ=
201501091950 METAR ESMX 091950Z AUTO 18003KT 4000 BR FEW001/// SCT003/// BKN005/// 01/01 Q0988=
201501091920 METAR ESMX 091920Z AUTO 00000KT 6000 DZ OVC001/// 01/01 Q0988 RERA=
201501091850 METAR ESMX 091850Z AUTO 14004KT 100V180 5000 -DZ FEW001/// SCT003/// BKN006/// 01/01 Q0988=
201501091820 METAR ESMX 091820Z AUTO 13003KT 3400 -RA FEW001/// SCT009/// 00/00 Q0988=
201501091750 METAR ESMX 091750Z 18004KT 4000 SN FEW001 SCT007 01/01 Q0988=
201501091720 METAR ESMX 091720Z 18004KT 0800 SN OVC005 01/01 Q0988=
201501091650 METAR ESMX 091650Z 16003KT 2400 -RASN FEW004 OVC005 00/00 Q0988=
201501091620 METAR ESMX 091620Z 00000KT 6000 -RASN FEW003 SCT004 OVC006 00/00 Q0988 RERA=
201501091550 METAR ESMX 091550Z VRB02KT 4000 -RASN FEW003 BKN005 OVC007 01/00 Q0989=
201501091520 METAR ESMX 091520Z 27004KT 240V320 4000 SN FEW004 SCT006 OVC008 01/01 Q0988 RERA=
201501091450 METAR ESMX 091450Z 25004KT 7000 BR FEW007 SCT009 BKN015 01/00 Q0988=
201501091420 METAR ESMX 091420Z 25003KT 8000 -SN FEW002 SCT020 BKN027 00/00 Q0988=
201501091350 METAR ESMX 091350Z VRB02KT 3900 SN FEW003 SCT005 BKN011 00/00 Q0987=
201501091320 METAR ESMX 091320Z VRB03KT 3500 SN FEW002 SCT004 BKN006 00/00 Q0987=
201501091250 METAR ESMX 091250Z 12003KT 070V160 1600 SN FEW002 SCT003 OVC005 01/00 Q0986=
201501091220 METAR ESMX 091220Z 15005KT 110V190 1100 R01/P2000N R19/1200V1800N SN FEW002 SCT003 OVC005 01/00 Q0987=
201501091150 METAR ESMX 091150Z 13005KT 090V170 2300 SN FEW001 SCT002 BKN004 01/00 Q0988=
201501091120 METAR ESMX 091120Z 13004KT 090V160 2000 SN SCT003 OVC005 01/00 Q0989=
201501091050 METAR ESMX 091050Z 14005KT 3700 SN BKN004 BKN007 01/01 Q0990=
201501091020 METAR ESMX 091020Z 16007KT 5000 SN FEW006 BKN011 01/01 Q0991=
201501090950 METAR ESMX 090950Z 19010KT 9999 -RA SCT010 BKN017 02/01 Q0993=
201501090920 METAR ESMX 090920Z 19009KT 9999 SCT010 BKN013 02/01 Q0994=
201501090850 METAR ESMX 090850Z 19010KT 9999 -DZ FEW007 BKN009 02/02 Q0995=
201501090820 METAR ESMX 090820Z 20008KT 9999 SCT009 BKN017 02/01 Q0997=
201501090750 METAR ESMX 090750Z 21009KT 9999 SCT017 BKN021 02/01 Q0997=
201501090720 METAR ESMX 090720Z 23010KT 9999 SCT013 02/01 Q0998=
201501090650 METAR ESMX 090650Z 23010KT 9999 FEW014 SCT016 BKN019 03/01 Q0998=
201501090620 METAR ESMX 090620Z 25013KT 210V270 9999 SCT015 BKN020 03/01 Q1000=
201501090550 METAR ESMX 090550Z 23013KT 9999 FEW015 BKN018 OVC024 03/01 Q1001=
201501090520 METAR ESMX 090520Z 25014KT 9999 FEW017 SCT020 BKN024 03/01 Q1001=
201501090450 METAR ESMX 090450Z AUTO 25013KT 9999 FEW016/// SCT019/// BKN022/// 03/01 Q1001=
201501090420 METAR ESMX 090420Z AUTO 25012KT 9999 FEW014/// SCT018/// BKN021/// 03/01 Q1001 REDZ=
201501090350 METAR ESMX 090350Z AUTO 25011KT 9999 DZ FEW013/// SCT022/// BKN026/// 03/02 Q1002=
201501090320 METAR ESMX 090320Z AUTO 25012KT 9999 FEW011/// SCT015/// BKN029/// 03/02 Q1002=
201501090250 METAR ESMX 090250Z AUTO 26013KT 230V290 9999 BKN014/// OVC020/// 03/01 Q1002=
201501090220 METAR ESMX 090220Z AUTO 26014KT 9999 FEW012/// BKN016/// OVC021/// 03/02 Q1003=
201501090150 METAR ESMX 090150Z AUTO 26013KT 230V300 9999 OVC013/// 03/02 Q1003=
201501090120 METAR ESMX 090120Z AUTO 25011KT 9999 FEW010/// BKN013/// BKN018/// 03/02 Q1003=
201501090050 METAR ESMX 090050Z 25010KT 210V280 9999 FEW011 SCT015 BKN020 04/02 Q1003=
201501090020 METAR ESMX 090020Z 26011KT 9999 SCT014 BKN021 03/02 Q1003=
201501082350 METAR ESMX 082350Z 26010KT 9999 FEW014 SCT019 BKN022 03/02 Q1003=
201501082320 METAR ESMX 082320Z 26011KT 9999 FEW012 SCT015 BKN020 04/02 Q1003=
201501082250 METAR ESMX 082250Z 26013KT 9999 SCT014 BKN022 04/03 Q1003=
201501082220 METAR ESMX 082220Z 26010KT 9999 FEW011 BKN016 04/03 Q1003=
201501082150 METAR ESMX 082150Z 26008KT 9999 FEW010 BKN018 04/04 Q1003=
201501082120 METAR ESMX 082120Z VRB09KT 090V280 9999 FEW006 SCT009 BKN014 04/03 Q1003=
201501082050 METAR ESMX 082050Z 25008KT 9999 FEW006 BKN009 04/04 Q1003=
201501082020 METAR ESMX 082020Z 23007KT 200V260 9999 FEW006 BKN010 04/04 Q1003=
201501081950 METAR ESMX 081950Z 23006KT 9999 FEW010 SCT012 BKN019 04/03 Q1004=
201501081920 METAR ESMX 081920Z 22006KT 9999 FEW012 SCT027 BKN042 04/03 Q1004=
201501081850 METAR ESMX 081850Z 24006KT 9999 FEW022 BKN037 04/03 Q1004=
201501081820 METAR ESMX 081820Z 25009KT 9999 -RA FEW006 BKN013 04/04 Q1005=
201501081750 METAR ESMX 081750Z AUTO 23005KT 8000 -RA FEW004/// SCT006/// BKN008/// 04/04 Q1005=
201501081720 METAR ESMX 081720Z 22006KT 3800 BR OVC003 04/04 Q1005=
201501081650 METAR ESMX 081650Z 21007KT 1700 BR OVC002 04/04 Q1006=
201501081620 METAR ESMX 081620Z 21008KT 3800 BR OVC002 04/04 Q1006=
201501081550 METAR ESMX 081550Z AUTO 19007KT 3200 BR OVC001/// 04/04 Q1005=
201501081520 METAR ESMX 081520Z 20006KT 1000 R01/P2000N R19/P2000N -DZ BR VV002 04/04 Q1006=
201501081450 METAR ESMX 081450Z 21008KT 1100 R01/P2000N R19/P2000N DZ BR VV002 04/04 Q1006=
201501081420 METAR ESMX 081420Z 19010KT 1600 -DZ BR OVC002 04/04 Q1006=
201501081350 METAR ESMX 081350Z 19009KT 3300 -DZ BR OVC002 04/04 Q1007=
201501081320 METAR ESMX 081320Z 20009KT 6000 -DZ BR OVC002 04/03 Q1006=
201501081250 METAR ESMX 081250Z 21009KT 6000 -DZ BR OVC002 03/03 Q1007=
201501081220 METAR COR ESMX 081220Z 20010KT 4700 -DZ BR OVC002 03/03 Q1007=
201501081150 METAR ESMX 081150Z 20010KT 2900 -DZ BR OVC003 03/03 Q1007=
201501081120 METAR ESMX 081120Z 20012KT 2800 -RA BR OVC003 03/03 Q1007=
201501081050 METAR COR ESMX 081050Z 20012KT 2200 -RA BR OVC003 03/03 Q1007=
201501081020 METAR ESMX 081020Z 20012KT 7000 -DZ BR OVC004 03/03 Q1008=
201501080950 METAR ESMX 080950Z 20014KT 2800 -DZ BR OVC004 03/03 Q1008=
201501080920 METAR ESMX 080920Z 20015KT 2800 -DZ BR OVC004 03/03 Q1008=
201501080850 METAR ESMX 080850Z 21015KT 3500 DZ OVC004 03/03 Q1008=
201501080820 METAR ESMX 080820Z 20015KT 3500 -DZ BR OVC005 03/02 Q1008=
201501080750 METAR ESMX 080750Z 20015KT 6000 -DZ OVC005 03/02 Q1008=
201501080720 METAR ESMX 080720Z 19017KT 3000 DZ OVC005 03/02 Q1008=
201501080650 METAR ESMX 080650Z 19017KT 6000 DZ OVC005 03/02 Q1009=
201501080620 METAR ESMX 080620Z 19017KT 3300 DZ OVC005 03/02 Q1009=
201501080550 METAR ESMX 080550Z 19016KT 5000 DZ OVC006 03/02 Q1009=
201501080520 METAR ESMX 080520Z 19016KT 9999 -DZ SCT006 BKN008 03/03 Q1010 REDZ=
201501080450 METAR ESMX 080450Z 20016KT 9000 DZ SCT005 BKN008 03/03 Q1009=
201501080420 METAR ESMX 080420Z AUTO 19017KT 5000 DZ FEW005/// BKN007/// OVC009/// 03/03 Q1010 REDZ=
201501080350 METAR ESMX 080350Z AUTO 19016KT 4600 DZ FEW004/// BKN005/// OVC007/// 04/03 Q1011 REDZ=
201501080320 METAR ESMX 080320Z AUTO 19016KT 5000 BR OVC003/// 03/03 Q1011=
201501080250 METAR ESMX 080250Z AUTO 18013KT 6000 BR OVC002/// 03/03 Q1012=
201501080220 METAR ESMX 080220Z AUTO 19014KT 4700 -RA OVC002/// 03/03 Q1012 REDZ=
201501080150 METAR ESMX 080150Z AUTO 19013KT 4500 BR OVC001/// 03/03 Q1013=
201501080120 METAR ESMX 080120Z AUTO 19013KT 1800 BR OVC001/// 03/03 Q1013=
201501080050 METAR ESMX 080050Z 19013KT 2000 BR OVC002 03/02 Q1014=
201501080020 METAR ESMX 080020Z 19012KT 1600 BR OVC002 02/02 Q1014=
201501072350 METAR ESMX 072350Z 19012KT 3800 BR OVC003 02/02 Q1014=
201501072320 METAR ESMX 072320Z 19012KT 7000 BR OVC004 03/02 Q1015=
201501072250 METAR ESMX 072250Z 19010KT 9999 OVC004 03/02 Q1015=
201501072220 METAR ESMX 072220Z 19009KT 9999 BKN005 OVC008 03/02 Q1015=
201501072150 METAR ESMX 072150Z 20010KT 9999 SCT004 BKN008 03/02 Q1016=
201501072120 METAR ESMX 072120Z 19009KT 9000 BR BKN004 03/02 Q1016=
201501072050 METAR ESMX 072050Z 21008KT 9000 BR OVC004 02/02 Q1016=
201501072020 METAR ESMX 072020Z 19008KT 6000 -RA SCT003 BKN007 02/02 Q1016=
201501071950 METAR ESMX 071950Z 19007KT 9999 SCT004 BKN006 02/02 Q1016=
201501071920 METAR ESMX 071920Z AUTO 20007KT 9999 FEW005/// BKN006/// OVC010/// 02/02 Q1016=
201501071850 METAR ESMX 071850Z AUTO 22007KT 9999 FEW005/// SCT007/// BKN009/// 03/02 Q1016=
201501071820 METAR ESMX 071820Z 23006KT 200V260 9999 SCT007 BKN020 03/02 Q1016=
201501071750 METAR ESMX 071750Z 22007KT 9999 BKN005 BKN025 03/02 Q1016=
201501071720 METAR ESMX 071720Z 22006KT 9999 SCT009 BKN021 OVC025 02/02 Q1016=
201501071650 METAR ESMX 071650Z 22005KT 9999 FEW008 OVC022 02/02 Q1016=
201501071620 METAR ESMX 071620Z 22006KT 9999 FEW020 OVC025 02/02 Q1016=
201501071550 METAR COR ESMX 071550Z 22005KT 9999 FEW017 OVC023 02/02 Q1016=
201501071520 METAR ESMX 071520Z 20006KT 9999 FEW015 BKN023 02/02 Q1016=
201501071450 METAR ESMX 071450Z 21006KT 8000 BR FEW010 OVC024 02/02 Q1016=
201501071420 METAR ESMX 071420Z 19007KT 5000 BR FEW008 OVC023 02/02 Q1016=
201501071350 METAR ESMX 071350Z 20006KT 4800 BR FEW002 OVC015 02/01 Q1015=
201501071320 METAR ESMX 071320Z 21007KT 5000 BR BKN002 OVC005 01/01 Q1015=
201501071250 METAR ESMX 071250Z 20007KT 4500 BR OVC002 01/01 Q1015=
201501071220 METAR ESMX 071220Z 21008KT 3000 BR OVC002 01/01 Q1015=
201501071150 METAR ESMX 071150Z 20010KT 2800 -DZ BR OVC002 01/01 Q1015=
201501071120 METAR ESMX 071120Z 18010KT 4000 -DZ BR OVC002 00/00 Q1015=
201501071050 METAR ESMX 071050Z 18010KT 3200 -DZ OVC002 00/00 Q1015=
201501071020 METAR ESMX 071020Z 17009KT 6000 -FZDZ OVC003 00/M00 Q1015=
201501070950 METAR ESMX 070950Z 16008KT 6000 -FZDZ OVC003 M00/M00 Q1015=
201501070920 METAR COR ESMX 070920Z 17009KT 7000 -FZDZ OVC004 M00/M01 Q1015=
201501070850 METAR COR ESMX 070850Z 17009KT 7000 -SN BKN004 M00/M01 Q1015=
201501070820 METAR COR ESMX 070820Z 18008KT 3100 FZRASN BKN005 M01/M01 Q1015=
201501070750 METAR COR ESMX 070750Z 16009KT 2500 FZRASN BKN004 M01/M01 Q1015=
201501070720 METAR ESMX 070720Z 16008KT 3600 FZRASN BKN005 M01/M01 Q1016=
201501070650 METAR ESMX 070650Z 18008KT 2900 FZRASN BKN005 M01/M01 Q1016=
201501070620 METAR ESMX 070620Z 17009KT 3700 SN BKN008 M01/M02 Q1016=
201501070550 METAR ESMX 070550Z 16009KT 9999 -SN OVC008 M01/M02 Q1016 REDZ=
201501070520 METAR ESMX 070520Z 17009KT 9999 OVC008 M01/M02 Q1017=
201501070450 METAR ESMX 070450Z 16009KT 9999 -SN FEW008 BKN010 BKN020 M01/M02 Q1017=
201501070420 METAR ESMX 070420Z 17009KT 5000 -SN FEW006 M01/M02 Q1017=
201501070350 METAR ESMX 070350Z AUTO 17010KT 3100 -FZRA SCT005/// BKN009/// M01/M02 Q1017=
201501070320 METAR ESMX 070320Z AUTO 17011KT 9999 BKN024/// 00/M04 Q1017=
201501070250 METAR ESMX 070250Z AUTO 16010KT 9999 OVC024/// 00/M04 Q1017=
201501070220 METAR ESMX 070220Z AUTO 16010KT 9999 FEW027/// BKN099/// 00/M04 Q1018=
201501070150 METAR ESMX 070150Z AUTO 16011KT 9999 FEW060/// SCT077/// 00/M04 Q1018 RESHUP=
201501070120 METAR ESMX 070120Z AUTO 16011KT 9999 -RA FEW011/// 00/M03 Q1019=
201501070050 METAR ESMX 070050Z AUTO 17011KT 9999 FEW014/// SCT020/// 00/M03 Q1019=
201501070020 METAR ESMX 070020Z 16012KT 9999 FEW014 BKN017 BKN020 00/M02 Q1020=
201501062350 METAR ESMX 062350Z 16011KT 9999 BKN014 00/M02 Q1020=
201501062320 METAR ESMX 062320Z 15012KT 120V190 9999 FEW015 SCT018 00/M02 Q1020=
201501062250 METAR ESMX 062250Z 17012KT 9999 SCT016 BKN020 01/M02 Q1020=
201501062220 METAR ESMX 062220Z 16011KT 9999 BKN015 OVC023 01/M02 Q1021=
201501062150 METAR ESMX 062150Z 16010KT 9999 SCT015 OVC020 01/M02 Q1021=
201501062120 METAR ESMX 062120Z 16010KT 120V180 9999 FEW018 OVC021 01/M02 Q1022=
201501062050 METAR ESMX 062050Z 15010KT 9999 FEW016 OVC020 01/M02 Q1022=
201501062020 METAR ESMX 062020Z 16009KT 130V200 9999 FEW015 BKN017 OVC026 01/M02 Q1022=
201501061950 METAR ESMX 061950Z 15010KT 9999 SCT016 OVC025 01/M02 Q1023=
201501061920 METAR ESMX 061920Z 15010KT 9999 FEW016 OVC020 01/M02 Q1023=
201501061850 METAR ESMX 061850Z 15010KT 120V180 9999 FEW014 OVC023 01/M02 Q1023=
201501061820 METAR ESMX 061820Z 17008KT 130V200 9999 FEW013 SCT016 BKN026 01/M01 Q1023=
201501061750 METAR ESMX 061750Z 16007KT 120V190 9999 FEW007 BKN017 BKN024 00/M01 Q1024=
201501061720 METAR ESMX 061720Z 14007KT 9999 FEW006 SCT024 M00/M01 Q1024=
201501061650 METAR ESMX 061650Z 15007KT 9999 FEW007 SCT024 00/M01 Q1024=
201501061620 METAR ESMX 061620Z 15007KT 9999 FEW008 BKN010 00/M01 Q1024=
201501061550 METAR ESMX 061550Z 15008KT 9999 -SN BKN008 OVC021 00/M01 Q1024=
201501061520 METAR ESMX 061520Z 15008KT 9999 BKN008 00/M02 Q1024=
201501061450 METAR ESMX 061450Z 15007KT 9999 SCT009 BKN032 M00/M02 Q1025=
201501061422 METAR ESMX 061422Z 14007KT 9999 SCT010 BKN070 M00/M02 Q1025=
201501061350 METAR ESMX 061350Z 14008KT 110V170 9999 SCT009 BKN077 00/M02 Q1025=
201501061320 METAR ESMX 061320Z 14007KT 9999 SCT010 BKN065 00/M02 Q1025=
201501061250 METAR ESMX 061250Z 14006KT 9999 SCT020 BKN067 00/M02 Q1026=
201501061220 METAR ESMX 061220Z 14007KT 9999 SCT020 BKN067 00/M01 Q1026=
201501061150 METAR ESMX 061150Z 14006KT 110V170 9999 SCT018 BKN070 00/M01 Q1026=
201501061120 METAR ESMX 061120Z AUTO 16005KT 120V190 9999 SCT020/// OVC067/// M00/M02 Q1026=
201501061050 METAR ESMX 061050Z AUTO 14006KT 9999 BKN066/// M00/M02 Q1027=
201501061020 METAR ESMX 061020Z AUTO 13005KT 100V170 9999 FEW065/// SCT100/// M01/M02 Q1027=
201501060950 METAR ESMX 060950Z AUTO 15006KT 110V190 9999 BKN065/// M01/M03 Q1027=
201501060920 METAR ESMX 060920Z AUTO 15006KT 9999 FEW018/// SCT020/// BKN066/// M02/M04 Q1027=
201501060850 METAR ESMX 060850Z AUTO 16006KT 9999 BKN065/// M03/M05 Q1027=
201501060820 METAR ESMX 060820Z AUTO 15006KT 9999 OVC067/// M03/M05 Q1027=
201501060750 METAR ESMX 060750Z AUTO 14006KT 9999 BKN066/// M03/M05 Q1027=
201501060720 METAR ESMX 060720Z AUTO 14005KT 100V160 9999 BKN067/// M03/M05 Q1027=
201501060650 METAR ESMX 060650Z 13005KT CAVOK M04/M06 Q1027=
201501060620 METAR ESMX 060620Z 14005KT CAVOK M04/M06 Q1026=
201501060550 METAR ESMX 060550Z 13005KT 100V160 CAVOK M04/M06 Q1026=
201501060520 METAR ESMX 060520Z AUTO 14005KT 9999 BKN086/// M04/M06 Q1026=
201501060450 METAR ESMX 060450Z AUTO 14004KT 9999 OVC088/// M04/M05 Q1027=
201501060420 METAR ESMX 060420Z AUTO 13004KT 9999 OVC091/// M05/M06 Q1027=
201501060350 METAR ESMX 060350Z AUTO 12003KT 9999 FEW075/// OVC093/// M06/M07 Q1027=
201501060320 METAR ESMX 060320Z AUTO 00000KT 9999 SCT094/// M07/M07 Q1027=
201501060250 METAR ESMX 060250Z AUTO 27001KT 9999 NCD M07/M08 Q1027=
201501060220 METAR ESMX 060220Z AUTO VRB03KT 9999 SCT095/// M07/M07 Q1027=
201501060150 METAR ESMX 060150Z AUTO VRB03KT 9999 BKN096/// M06/M06 Q1027=
201501060120 METAR ESMX 060120Z AUTO 12003KT 9999 BKN096/// M06/M06 Q1027=
201501060050 METAR ESMX 060050Z AUTO 12002KT 9999 FEW100/// M05/M06 Q1027=
201501060020 METAR ESMX 060020Z AUTO 00000KT 9999 NCD M06/M06 Q1027=
201501052350 METAR ESMX 052350Z AUTO 00000KT 9999 FEW100/// M05/M06 Q1026=
201501052320 METAR ESMX 052320Z AUTO 00000KT 9999 BKN100/// M06/M06 Q1026=
201501052250 METAR ESMX 052250Z AUTO 00000KT 9999 NCD M06/M07 Q1026=
201501052220 METAR ESMX 052220Z AUTO 00000KT 9999 NCD M06/M07 Q1026=
201501052150 METAR ESMX 052150Z AUTO 00000KT 9999 NCD M06/M07 Q1026=
201501052120 METAR ESMX 052120Z AUTO 08001KT 9999 NCD M06/M07 Q1026=
201501052050 METAR ESMX 052050Z AUTO VRB01KT 9999 NCD M07/M07 Q1026=
201501052020 METAR ESMX 052020Z AUTO 00000KT 9999 NCD M06/M07 Q1026=
201501051950 METAR ESMX 051950Z AUTO 00000KT 9999 NCD M05/M06 Q1026=
201501051920 METAR ESMX 051920Z AUTO VRB02KT 9999 NCD M05/M06 Q1025=
201501051850 METAR ESMX 051850Z AUTO VRB01KT 9999 NCD M05/M06 Q1025=
201501051820 METAR ESMX 051820Z AUTO 00000KT 9999 NCD M04/M06 Q1025=
201501051750 METAR ESMX 051750Z AUTO 00000KT 9999 NCD M04/M06 Q1025=
201501051720 METAR ESMX 051720Z 00000KT CAVOK M03/M05 Q1025=
201501051650 METAR ESMX 051650Z 30002KT CAVOK M03/M05 Q1025=
201501051620 METAR COR ESMX 051620Z 33003KT CAVOK M03/M06 Q1025=
201501051550 METAR ESMX 051550Z VRB02KT CAVOK M02/M05 Q1024=
201501051520 METAR ESMX 051520Z VRB02KT CAVOK M01/M05 Q1024=
201501051450 METAR ESMX 051450Z 29004KT CAVOK M01/M05 Q1024=
201501051420 METAR COR ESMX 051420Z 30004KT CAVOK M01/M05 Q1024=
201501051350 METAR ESMX 051350Z 30004KT CAVOK M01/M05 Q1023=
201501051320 METAR ESMX 051320Z 31005KT CAVOK M01/M06 Q1023=
201501051250 METAR ESMX 051250Z 33006KT CAVOK 01/M05 Q1023=
201501051220 METAR ESMX 051220Z 33007KT CAVOK 01/M05 Q1023=
201501051150 METAR ESMX 051150Z 34008KT CAVOK 00/M05 Q1023=
201501051120 METAR ESMX 051120Z AUTO 33008KT 9999 NCD M00/M06 Q1022=
201501051050 METAR ESMX 051050Z AUTO 34007KT 9999 NCD M00/M05 Q1022=
201501051020 METAR ESMX 051020Z AUTO 32006KT 9999 NCD M01/M05 Q1022=
201501050950 METAR ESMX 050950Z AUTO 33005KT 9999 NCD M02/M05 Q1022=
201501050920 METAR ESMX 050920Z AUTO 31007KT 9999 NCD M02/M06 Q1022=
201501050850 METAR ESMX 050850Z AUTO 34005KT 9999 NCD M04/M06 Q1022=
201501050820 METAR ESMX 050820Z AUTO 33005KT 9999 NCD M04/M07 Q1022=
201501050750 METAR ESMX 050750Z AUTO 29005KT 9999 NCD M04/M07 Q1021=
201501050720 METAR ESMX 050720Z AUTO 33004KT 9999 NCD M05/M07 Q1021=
201501050650 METAR ESMX 050650Z AUTO 33003KT 280V010 9999 NCD M07/M09 Q1021=
201501050620 METAR ESMX 050620Z AUTO 36004KT 320V060 9999 NCD M04/M07 Q1020=
201501050550 METAR ESMX 050550Z AUTO 29003KT 260V320 9999 NCD M06/M08 Q1020=
201501050520 METAR ESMX 050520Z AUTO 30001KT 9999 NCD M05/M07 Q1020=
201501050450 METAR ESMX 050450Z AUTO 29005KT 9999 NCD M04/M07 Q1020=
201501050420 METAR ESMX 050420Z AUTO 35003KT 310V070 9999 NCD M04/M06 Q1020=
201501050350 METAR ESMX 050350Z AUTO 29004KT 9999 NCD M05/M06 Q1020=
201501050320 METAR ESMX 050320Z AUTO 29004KT 9999 NCD M05/M07 Q1020=
201501050250 METAR ESMX 050250Z AUTO 26006KT 9999 NCD M06/M07 Q1020=
201501050220 METAR ESMX 050220Z AUTO VRB03G26KT 9999 NCD M05/M06 Q1020=
201501050150 METAR ESMX 050150Z AUTO VRB03KT 9999 NCD M07/M09 Q1020=
201501050120 METAR ESMX 050120Z AUTO 26004KT 9999 NCD M05/M07 Q1020=
201501050050 METAR ESMX 050050Z AUTO 30004KT 9999 NCD M03/M06 Q1020=
201501050020 METAR ESMX 050020Z AUTO 29003KT 9999 NCD M03/M06 Q1020=
201501042350 METAR COR ESMX 042350Z 29004KT CAVOK M03/M06 Q1020=
201501042320 METAR ESMX 042320Z 27004KT CAVOK M03/M06 Q1020=
201501042250 METAR ESMX 042250Z 28005KT CAVOK M02/M06 Q1020=
201501042220 METAR COR ESMX 042220Z 26005KT CAVOK M03/M07 Q1020=
201501042150 METAR ESMX 042150Z 28004KT CAVOK M03/M07 Q1020=
201501042120 METAR COR ESMX 042120Z 27005KT CAVOK M03/M07 Q1020=
201501042050 METAR COR ESMX 042050Z 29005KT CAVOK M02/M07 Q1019=
201501042020 METAR ESMX 042020Z 29006KT CAVOK M02/M08 Q1019=
201501041950 METAR ESMX 041950Z 30006KT CAVOK M02/M07 Q1019=
201501041920 METAR ESMX 041920Z 28006KT CAVOK M02/M08 Q1019=
201501041850 METAR ESMX 041850Z 27007KT CAVOK M02/M08 Q1019=
201501041820 METAR COR ESMX 041820Z 26007KT CAVOK M02/M08 Q1019=
201501041750 METAR ESMX 041750Z 29007KT CAVOK M01/M08 Q1018=
201501041720 METAR ESMX 041720Z 29008KT CAVOK M01/M08 Q1018=
201501041653 METAR ESMX 041653Z 28009KT CAVOK M01/M08 Q1018=
201501041650 METAR ESMX 041650Z AUTO 28010KT 9999 NCD M01/M08 Q1018=
201501041622 METAR ESMX 041622Z 28007KT CAVOK M01/M08 Q1017=
201501041550 METAR ESMX 041550Z 30010KT CAVOK M01/M08 Q1017=
201501041520 METAR ESMX 041520Z 29009KT CAVOK M00/M08 Q1017=
201501041450 METAR ESMX 041450Z 29010KT CAVOK M00/M08 Q1016=
201501041420 METAR ESMX 041420Z 30009KT CAVOK 00/M08 Q1016=
201501041350 METAR ESMX 041350Z 30010KT CAVOK 01/M07 Q1016=
201501041325 METAR ESMX 041325Z 30012KT CAVOK 01/M07 Q1015=
201501041320 METAR ESMX 041320Z AUTO 30011KT 9999 NCD 01/M07 Q1015=
201501041250 METAR ESMX 041250Z 30012KT CAVOK 01/M07 Q1015=
201501041220 METAR ESMX 041220Z 30012KT CAVOK 01/M07 Q1014=
201501041150 METAR ESMX 041150Z 30012KT CAVOK 01/M07 Q1014=
201501041120 METAR ESMX 041120Z AUTO 30013KT 9999 NCD 01/M07 Q1013=
201501041050 METAR ESMX 041050Z AUTO 30014KT 9999 NCD 01/M07 Q1013=
201501041020 METAR ESMX 041020Z AUTO 31014KT 280V350 9999 NCD 00/M07 Q1012=
201501040950 METAR ESMX 040950Z AUTO 30013KT 9999 NCD M00/M07 Q1012=
201501040920 METAR ESMX 040920Z AUTO 30013KT 9999 NCD M01/M07 Q1011=
201501040850 METAR ESMX 040850Z AUTO 30011KT 9999 NCD M01/M07 Q1011=
201501040820 METAR ESMX 040820Z AUTO 29012KT 9999 NCD M01/M07 Q1010=
201501040750 METAR ESMX 040750Z AUTO 29011KT 9999 NCD M02/M07 Q1010=
201501040720 METAR ESMX 040720Z AUTO 29010KT 9999 NCD M01/M06 Q1010=
201501040650 METAR ESMX 040650Z 29010KT CAVOK M01/M06 Q1009=
201501040620 METAR ESMX 040620Z 29009KT CAVOK M02/M06 Q1008=
201501040600 METAR ESMX 040600Z 29010KT CAVOK M01/M06 Q1008=
201501040550 METAR ESMX 040550Z AUTO 29009KT 9999 NCD M01/M06 Q1008=
201501040520 METAR ESMX 040520Z AUTO 29009KT 9999 NCD M01/M06 Q1008=
201501040450 METAR ESMX 040450Z AUTO 29008KT 9999 NCD M02/M06 Q1008=
201501040420 METAR ESMX 040420Z AUTO 29009KT 9999 FEW090/// M01/M06 Q1007=
201501040350 METAR ESMX 040350Z AUTO 29009KT 9999 NCD M02/M06 Q1007=
201501040320 METAR ESMX 040320Z AUTO 29009KT 9999 NCD M01/M06 Q1006=
201501040250 METAR ESMX 040250Z AUTO 29008KT 9999 NCD M01/M06 Q1006=
201501040220 METAR ESMX 040220Z AUTO 29010KT 9999 NCD M01/M05 Q1005=
201501040150 METAR ESMX 040150Z AUTO 29010KT 9999 NCD M01/M05 Q1005=
201501040120 METAR ESMX 040120Z AUTO 30011KT 9999 NCD M01/M05 Q1004=
201501040050 METAR ESMX 040050Z AUTO 29010KT 260V340 9999 NCD M01/M04 Q1004=
201501040020 METAR ESMX 040020Z AUTO 29009KT 9999 NCD M01/M04 Q1003=
201501032350 METAR ESMX 032350Z AUTO 29009KT 9999 NCD M01/M04 Q1003=
201501032320 METAR ESMX 032320Z AUTO 28010KT 9999 NCD M00/M03 Q1002=
201501032250 METAR ESMX 032250Z AUTO 29010KT 9999 NCD M00/M03 Q1002=
201501032220 METAR ESMX 032220Z AUTO 28008KT 9999 NCD M00/M02 Q1002=
201501032150 METAR ESMX 032150Z AUTO 27007KT 9999 NCD M00/M02 Q1001=
201501032120 METAR ESMX 032120Z AUTO 28007KT 9999 NCD M00/M02 Q1001=
201501032050 METAR ESMX 032050Z AUTO 28008KT 9999 NCD 00/M02 Q1001=
201501032020 METAR ESMX 032020Z AUTO 28008KT 9999 NCD 01/M01 Q1000=
201501031950 METAR ESMX 031950Z AUTO 28008KT 9999 NCD 01/M01 Q1000=
201501031920 METAR ESMX 031920Z 28007KT 9999 FEW020 01/M01 Q1000=
201501031850 METAR ESMX 031850Z 28007KT 9999 FEW018 02/M00 Q1000=
201501031820 METAR ESMX 031820Z 29007KT 9999 SCT018 02/M00 Q0999=
201501031750 METAR ESMX 031750Z 30007KT 270V340 9999 BKN018 03/00 Q0999=
201501031720 METAR ESMX 031720Z AUTO 30006KT 9999 FEW020/// SCT024/// BKN028/// 03/00 Q0999=
201501031650 METAR ESMX 031650Z AUTO 29006KT 9999 SCT024/// BKN030/// OVC038/// 03/01 Q0998=
201501031620 METAR ESMX 031620Z AUTO 28008KT 9999 BKN024/// OVC038/// 03/01 Q0998=
201501031550 METAR ESMX 031550Z AUTO 26009KT 9999 FEW026/// OVC031/// 03/01 Q0998=
201501031520 METAR ESMX 031520Z AUTO 26010KT 9999 OVC033/// 03/01 Q0998=
201501031450 METAR ESMX 031450Z AUTO 26009KT 230V290 9999 SCT021/// OVC038/// 03/01 Q0998=
201501031420 METAR ESMX 031420Z AUTO 27010KT 240V300 3200 RA FEW012/// BKN016/// BKN021/// 03/01 Q0998=
201501031350 METAR ESMX 031350Z AUTO 26011KT 6000 -DZ FEW010/// SCT019/// BKN022/// 03/01 Q0998 REDZ=
201501031320 METAR ESMX 031320Z AUTO 23013KT 9999 FEW011/// SCT052/// 04/00 Q0998=
201501031250 METAR ESMX 031250Z AUTO 25014KT 220V280 8000 -DZ FEW014/// SCT041/// 03/01 Q0998 REDZ=
201501031220 METAR ESMX 031220Z AUTO 24012KT 210V290 8000 -DZ FEW023/// BKN030/// BKN041/// 04/01 Q0999=
201501031150 METAR ESMX 031150Z AUTO 25011KT 210V280 9999 FEW022/// OVC028/// 04/M00 Q0999=
201501031120 METAR ESMX 031120Z AUTO 25012KT 9999 SCT021/// BKN027/// OVC032/// 04/M00 Q0999=
201501031050 METAR ESMX 031050Z AUTO 25013KT 9999 BKN021/// OVC029/// 04/00 Q1000=
201501031020 METAR ESMX 031020Z AUTO 26010KT 9999 BKN021/// OVC031/// 04/M00 Q1000=
201501030950 METAR ESMX 030950Z AUTO 26013G23KT 9999 BKN022/// OVC032/// 04/M00 Q1001=
201501030920 METAR ESMX 030920Z AUTO 26013G26KT 230V300 9999 FEW025/// BKN029/// 04/M01 Q1001=
201501030850 METAR ESMX 030850Z AUTO 27014KT 9999 FEW024/// SCT028/// BKN032/// 04/M01 Q1001=
201501030820 METAR ESMX 030820Z AUTO 26013KT 9999 FEW025/// SCT028/// BKN032/// 04/M01 Q1001=
201501030750 METAR ESMX 030750Z AUTO 26013G23KT 9999 SCT023/// BKN031/// 03/M01 Q1000=
201501030720 METAR ESMX 030720Z AUTO 26015G25KT 220V290 9999 FEW024/// BKN027/// BKN036/// 04/M01 Q1000=
201501030650 METAR ESMX 030650Z AUTO 26016G28KT 9999 FEW028/// SCT032/// BKN042/// 04/M01 Q1000=
201501030620 METAR ESMX 030620Z AUTO 26015KT 9999 FEW028/// SCT036/// BKN041/// 04/M01 Q1000=
201501030550 METAR ESMX 030550Z AUTO 26016G26KT 9999 FEW029/// SCT033/// BKN043/// 04/M01 Q1000=
201501030520 METAR ESMX 030520Z AUTO 26017G27KT 9999 FEW029/// SCT033/// BKN038/// 04/M01 Q1000=
201501030450 METAR ESMX 030450Z AUTO 27018KT 240V300 9999 FEW029/// SCT034/// BKN038/// 04/M01 Q1000=
201501030420 METAR ESMX 030420Z AUTO 26018G31KT 9999 FEW026/// BKN030/// BKN042/// 04/M01 Q1000=
201501030350 METAR ESMX 030350Z AUTO 27017G28KT 240V300 9999 FEW029/// BKN034/// OVC043/// 04/M01 Q1001=
201501030320 METAR ESMX 030320Z AUTO 26018G34KT 9999 FEW026/// BKN030/// BKN039/// 04/M01 Q1000=
201501030250 METAR ESMX 030250Z AUTO 25016G26KT 210V280 9999 FEW026/// SCT032/// BKN037/// 04/M00 Q1000=
201501030220 METAR ESMX 030220Z AUTO 26018KT 9999 FEW026/// SCT030/// BKN034/// 04/M00 Q1000=
201501030150 METAR ESMX 030150Z AUTO 24017KT 210V280 9999 BKN025/// BKN053/// 04/M00 Q1000=
201501030120 METAR ESMX 030120Z AUTO 25017G30KT 9999 FEW027/// SCT032/// 04/M00 Q1001=
201501030050 METAR ESMX 030050Z AUTO 26019G34KT 230V290 9999 BKN027/// OVC044/// 04/M01 Q1001=
201501030020 METAR ESMX 030020Z AUTO 25017G27KT 220V290 9999 SCT027/// BKN032/// 05/M00 Q1001=
201501022350 METAR ESMX 022350Z AUTO 27018G30KT 9999 BKN025/// 04/M00 Q1001=
201501022320 METAR ESMX 022320Z AUTO 26020G34KT 9999 SCT026/// BKN032/// 05/M00 Q1000=
201501022250 METAR ESMX 022250Z AUTO 26017G29KT 9999 SCT027/// 04/M00 Q1000=
201501022220 METAR ESMX 022220Z AUTO 26018G36KT 9999 FEW020/// BKN025/// 04/00 Q0999=
201501022150 METAR ESMX 022150Z AUTO 26017KT 9999 -RA FEW023/// SCT027/// BKN031/// 04/01 Q0999=
201501022120 METAR ESMX 022120Z AUTO 25014G25KT 9999 FEW019/// SCT024/// BKN028/// 04/02 Q0999=
201501022050 METAR ESMX 022050Z AUTO 25015KT 9999 BKN019/// BKN029/// 04/02 Q0999=
201501022020 METAR ESMX 022020Z AUTO 25015G26KT 9999 SCT018/// BKN021/// OVC026/// 04/02 Q0999 REDZ=
201501021950 METAR ESMX 021950Z AUTO 25014G27KT 9999 FEW019/// BKN022/// BKN029/// 04/01 Q0999=
201501021920 METAR ESMX 021920Z AUTO 25015G26KT 9999 FEW023/// BKN027/// BKN043/// 04/01 Q0999=
201501021850 METAR ESMX 021850Z AUTO 27016KT 9999 FEW024/// SCT030/// BKN035/// 04/M00 Q0999=
201501021820 METAR ESMX 021820Z AUTO 26017KT 9999 FEW026/// BKN031/// BKN039/// 04/00 Q0999=
201501021750 METAR ESMX 021750Z AUTO 26016KT 9999 FEW026/// BKN039/// 04/00 Q0998=
201501021720 METAR ESMX 021720Z AUTO 26018G31KT 9999 FEW026/// BKN029/// OVC038/// 04/00 Q0998=
201501021650 METAR ESMX 021650Z AUTO 26019G32KT 9999 FEW023/// BKN027/// 04/00 Q0998=
201501021620 METAR ESMX 021620Z 26017G28KT 9999 FEW025 BKN029 04/00 Q0997=
201501021550 METAR ESMX 021550Z 26016KT 9999 BKN025 OVC036 04/00 Q0997=
201501021520 METAR ESMX 021520Z 26017G29KT 9999 FEW025 SCT028 BKN032 04/00 Q0997=
201501021450 METAR ESMX 021450Z 26021G32KT 9999 FEW025 OVC031 05/00 Q0996=
201501021420 METAR ESMX 021420Z 24017G30KT 9999 FEW024 BKN028 OVC037 05/01 Q0996=
201501021350 METAR ESMX 021350Z 25018G28KT 9999 FEW022 BKN026 OVC033 05/01 Q0995=
201501021320 METAR ESMX 021320Z 26019G34KT 9999 FEW020 SCT026 BKN030 05/02 Q0994=
201501021250 METAR ESMX 021250Z 26019G31KT 6000 BR FEW018 SCT025 BKN029 05/03 Q0994 REDZ=
201501021220 METAR ESMX 021220Z 26017G31KT 9999 FEW017 BKN020 BKN028 05/03 Q0994=
201501021150 METAR ESMX 021150Z 25019G35KT 9000 -DZ FEW013 BKN017 OVC022 06/04 Q0993 REDZ=
201501021120 METAR ESMX 021120Z 25017G29KT 9999 -DZ FEW013 SCT017 OVC020 06/04 Q0993 RERA=
201501021050 METAR ESMX 021050Z 25016G28KT 210V280 9999 FEW015 SCT019 BKN022 06/04 Q0993=
201501021020 METAR ESMX 021020Z AUTO 26017G30KT 9999 -RA FEW013/// BKN017/// BKN025/// 06/05 Q0992=
201501020950 METAR ESMX 020950Z AUTO 26020G32KT 230V290 9999 RA FEW010/// SCT013/// BKN015/// 07/06 Q0992=
201501020920 METAR ESMX 020920Z AUTO 25019G32KT 6000 -DZ FEW009/// BKN014/// BKN021/// 07/06 Q0991=
201501020850 METAR ESMX 020850Z AUTO 24021G32KT 6000 RA FEW013/// SCT016/// BKN019/// 08/07 Q0991=
201501020820 METAR ESMX 020820Z AUTO 24019G31KT 9999 BKN011/// OVC017/// 08/07 Q0991=
201501020750 METAR ESMX 020750Z AUTO 22017G28KT 9999 FEW007/// BKN010/// OVC016/// 08/07 Q0991 REDZ=
201501020720 METAR ESMX 020720Z AUTO 22017G27KT 9999 OVC006/// 08/07 Q0992=
201501020650 METAR ESMX 020650Z AUTO 22018G28KT 3600 DZ BKN005/// OVC008/// 07/07 Q0993=
201501020620 METAR ESMX 020620Z AUTO 21016KT 3200 DZ OVC004/// 06/06 Q0993 RERA=
201501020550 METAR ESMX 020550Z AUTO 20018KT 6000 BR FEW005/// BKN006/// OVC008/// 06/05 Q0994=
201501020520 METAR ESMX 020520Z AUTO 21018KT 2900 -RA BKN006/// OVC009/// 06/05 Q0995 RERA REDZ=
201501020450 METAR ESMX 020450Z AUTO 20018KT 8000 -DZ FEW006/// BKN008/// OVC011/// 05/05 Q0996 RESHRA=
201501020420 METAR ESMX 020420Z AUTO 21018KT 6000 DZ OVC005/// 05/04 Q0997 RERA=
201501020350 METAR ESMX 020350Z AUTO 21017KT 6000 BR OVC004/// 05/04 Q0998 REDZ=
201501020320 METAR ESMX 020320Z AUTO 21018KT 9999 OVC006/// 04/04 Q0999 REDZ=
201501020250 METAR ESMX 020250Z AUTO 21018KT 9999 OVC006/// 04/04 Q1000=
201501020220 METAR ESMX 020220Z AUTO 20017KT 9999 BKN006/// OVC009/// 04/03 Q1001=
201501020150 METAR ESMX 020150Z AUTO 21018KT 7000 -DZ BKN005/// OVC008/// 04/03 Q1002=
201501020120 METAR ESMX 020120Z AUTO 20017KT 4800 -DZ OVC005/// 04/03 Q1003 RERA=
201501020050 METAR ESMX 020050Z AUTO 20016KT 9999 OVC005/// 04/03 Q1004=
201501020020 METAR COR ESMX 020020Z 20016G26KT 9999 BKN005 OVC008 04/03 Q1005=
201501012350 METAR ESMX 012350Z 20015KT 8000 RA BKN005 04/04 Q1006=
201501012320 METAR ESMX 012320Z 20016KT 9999 -RA BKN005 OVC007 04/04 Q1007=
201501012250 METAR ESMX 012250Z AUTO 20016KT 9000 -DZ BKN005/// OVC007/// 05/04 Q1008=
201501012220 METAR ESMX 012220Z 22013KT 7000 BR OVC003 05/04 Q1009=
201501012150 METAR ESMX 012150Z 21014KT 9999 OVC003 05/05 Q1010=
201501012120 METAR COR ESMX 012120Z 21013KT 9999 OVC004 05/05 Q1010=
201501012050 METAR ESMX 012050Z AUTO 20012KT 3000 DZ OVC004/// 05/05 Q1011=
201501012020 METAR ESMX 012020Z 21014KT 6000 -RA BR FEW002 OVC004 05/05 Q1012=
201501011950 METAR ESMX 011950Z 21012KT 2300 -RA BR OVC001 05/05 Q1012=
201501011920 METAR ESMX 011920Z 21011KT 1500 R19/P2000N BR OVC001 05/05 Q1013=
201501011850 METAR ESMX 011850Z 23010KT 2000 -DZ BR OVC001 06/06 Q1014=
201501011820 METAR ESMX 011820Z AUTO 24011KT 1600 BR OVC001/// 06/06 Q1014=
201501011750 METAR ESMX 011750Z AUTO 23010KT 3200 BR OVC002/// 06/05 Q1014=
201501011720 METAR ESMX 011720Z AUTO 23010KT 2400 -DZ FEW002/// OVC004/// 06/05 Q1015=
201501011650 METAR ESMX 011650Z AUTO 23010KT 2300 BR OVC002/// 06/05 Q1015=
201501011620 METAR ESMX 011620Z 24010KT 2300 DZ BR OVC002 06/06 Q1016=
201501011550 METAR ESMX 011550Z 24010KT 2200 DZ BR OVC002 06/06 Q1016=
201501011520 METAR ESMX 011520Z AUTO 25010KT 3500 BR BKN002/// OVC005/// 06/05 Q1017=
201501011450 METAR ESMX 011450Z 24012KT 3500 DZ BR OVC003 06/05 Q1017=
201501011420 METAR ESMX 011420Z 24014G24KT 2400 DZ BR OVC002 06/05 Q1017=
201501011350 METAR ESMX 011350Z 25013KT 3100 DZ BR OVC003 06/05 Q1017=
201501011320 METAR ESMX 011320Z 24012KT 2600 DZ BR OVC003 06/05 Q1017=
201501011250 METAR ESMX 011250Z 24011KT 2500 DZ BR OVC004 05/05 Q1017=
201501011220 METAR ESMX 011220Z 24011KT 3000 DZ BR OVC003 05/05 Q1018=
