##########################################################
# Query made at 04/19/2024 21:44:56 UTC
# Time interval: from 04/01/2015 12:00  to 04/30/2015 12:59  UTC
##########################################################

##########################################################
# ESMX, Vaxjo (Sweden)
# WMO index: 02641. WIGOS ID: 0-20000-0-02648
# Latitude 56-51N. Longitude 014-50E. Altitude 199 m.
##########################################################

201504301250 METAR ESMX 301250Z 15014KT 110V180 CAVOK 10/02 Q1010=
201504301220 METAR ESMX 301220Z 16016KT CAVOK 11/02 Q1010=
201504301150 METAR ESMX 301150Z 16015KT CAVOK 10/02 Q1010=
201504301120 METAR COR ESMX 301120Z 15015G25KT 110V170 CAVOK 11/01 Q1010=
201504301050 METAR ESMX 301050Z 16014G24KT 140V200 CAVOK 11/01 Q1010=
201504301020 METAR ESMX 301020Z 15014G24KT 110V170 CAVOK 12/M00 Q1010=
201504300950 METAR ESMX 300950Z AUTO 15013KT 100V190 9999 FEW050/// 12/M00 Q1011=
201504300920 METAR ESMX 300920Z AUTO 16016KT 9999 FEW088/// 12/M01 Q1011=
201504300850 METAR ESMX 300850Z AUTO 15014KT 120V190 9999 FEW057/// 12/M00 Q1011=
201504300820 METAR ESMX 300820Z AUTO 15016KT 9999 NCD 11/M01 Q1012=
201504300750 METAR ESMX 300750Z AUTO 16015KT 110V190 9999 FEW092/// 12/01 Q1012=
201504300720 METAR ESMX 300720Z AUTO 16013KT 120V190 9999 NCD 10/01 Q1012=
201504300650 METAR ESMX 300650Z AUTO 15011KT 9999 NCD 10/01 Q1013=
201504300620 METAR ESMX 300620Z AUTO 16011KT 9999 NCD 09/01 Q1013=
201504300550 METAR ESMX 300550Z AUTO 15010KT 9999 NCD 08/02 Q1013=
201504300520 METAR ESMX 300520Z AUTO 14010KT 9999 FEW061/// 07/02 Q1013=
201504300450 METAR ESMX 300450Z AUTO 14008KT 9999 SCT060/// BKN082/// 07/02 Q1014=
201504300420 METAR ESMX 300420Z AUTO 14009KT 080V170 9999 FEW060/// SCT079/// 06/02 Q1014=
201504300350 METAR ESMX 300350Z AUTO 14008KT 9999 FEW069/// 06/02 Q1014=
201504300320 METAR ESMX 300320Z AUTO 14008KT 9999 NCD 06/02 Q1014=
201504300250 METAR ESMX 300250Z AUTO 14008KT 9999 SCT100/// 06/01 Q1014=
201504300220 METAR ESMX 300220Z AUTO 15007KT 9999 BKN100/// 05/01 Q1015=
201504300150 METAR ESMX 300150Z AUTO 15008KT 9999 BKN100/// 06/01 Q1015=
201504300120 METAR ESMX 300120Z AUTO 14008KT 9999 FEW100/// 05/01 Q1015=
201504300050 METAR ESMX 300050Z AUTO 14007KT 9999 FEW088/// 05/01 Q1015=
201504300020 METAR ESMX 300020Z AUTO 16006KT 9999 BKN082/// 06/02 Q1015=
201504292350 METAR ESMX 292350Z AUTO 16006KT 9999 SCT082/// 06/01 Q1015=
201504292320 METAR ESMX 292320Z 17007KT CAVOK 06/01 Q1015=
201504292250 METAR ESMX 292250Z 17006KT CAVOK 05/01 Q1015=
201504292220 METAR ESMX 292220Z 16005KT CAVOK 05/00 Q1015=
201504292150 METAR ESMX 292150Z 18005KT 9999 FEW049 04/00 Q1015=
201504292120 METAR ESMX 292120Z 18007KT CAVOK 04/00 Q1016=
201504292050 METAR ESMX 292050Z 18007KT CAVOK 04/00 Q1015=
201504292020 METAR ESMX 292020Z 19006KT CAVOK 05/00 Q1016=
201504291950 METAR ESMX 291950Z 19004KT CAVOK 05/00 Q1015=
201504291920 METAR ESMX 291920Z 18005KT CAVOK 07/00 Q1015=
201504291850 METAR ESMX 291850Z 22004KT CAVOK 07/00 Q1015=
201504291820 METAR COR ESMX 291820Z 23006KT CAVOK 08/00 Q1015=
201504291750 METAR ESMX 291750Z 23007KT 9999 FEW046 09/M00 Q1015=
201504291720 METAR ESMX 291720Z 26006KT 230V300 CAVOK 09/M00 Q1015=
201504291650 METAR ESMX 291650Z 26008KT 9999 FEW048 09/M01 Q1015=
201504291620 METAR ESMX 291620Z 25011KT 220V290 9999 FEW049 10/M02 Q1014=
201504291550 METAR COR ESMX 291550Z 24011G21KT 200V270 9999 FEW049 11/M01 Q1014=
201504291520 METAR ESMX 291520Z 25014KT 210V280 CAVOK 11/M01 Q1014=
201504291450 METAR ESMX 291450Z 25012KT 220V290 CAVOK 10/M02 Q1014=
201504291420 METAR ESMX 291420Z 24015G29KT 210V300 CAVOK 12/M02 Q1014=
201504291350 METAR ESMX 291350Z 24017KT 220V290 9999 SCT047 12/M02 Q1014=
201504291320 METAR ESMX 291320Z 26011KT 210V290 9999 FEW045 SCT060 10/M01 Q1014=
201504291250 METAR ESMX 291250Z 24016KT 9999 FEW045 SCT058 11/M01 Q1013=
201504291220 METAR ESMX 291220Z 22019KT 9999 FEW032 SCT047 11/M00 Q1013=
201504291150 METAR COR ESMX 291150Z 24013KT 210V280 9999 FEW032 SCT048 10/M00 Q1013=
201504291120 METAR ESMX 291120Z 23013KT 9999 VCSH FEW032 SCT052 09/00 Q1013=
201504291050 METAR ESMX 291050Z 22013KT 9999 VCSH SCT035CB BKN044 10/M00 Q1013=
201504291020 METAR ESMX 291020Z 26012KT 220V290 9999 BKN045 10/M02 Q1013=
201504290950 METAR ESMX 290950Z 22010KT 9999 SCT035 08/01 Q1013=
201504290920 METAR ESMX 290920Z 28007KT 9999 FEW035CB SCT042 06/01 Q1013 RESHRA=
201504290850 METAR ESMX 290850Z 24011KT 210V280 9999 VCSH FEW035CB SCT043 08/M02 Q1013=
201504290820 METAR ESMX 290820Z 24011KT 210V280 9999 SCT032 08/00 Q1013=
201504290750 METAR ESMX 290750Z 26009KT 210V290 9999 SCT028 08/M00 Q1013=
201504290720 METAR COR ESMX 290720Z 26009KT 230V290 9999 SCT023 07/01 Q1013=
201504290650 METAR ESMX 290650Z 26009KT 230V290 9999 SCT018 07/02 Q1013=
201504290620 METAR ESMX 290620Z 26009KT 220V280 9999 FEW014 06/02 Q1012=
201504290550 METAR COR ESMX 290550Z 25008KT 210V280 9999 FEW025 05/02 Q1012=
201504290520 METAR COR ESMX 290520Z 24005KT 9999 FEW025 03/02 Q1012=
201504290450 METAR ESMX 290450Z 22005KT 9999 FEW030TCU SCT080 01/00 Q1012=
201504290420 METAR ESMX 290420Z 24004KT 9999 FEW030 SCT080 00/M00 Q1012=
201504290350 METAR ESMX 290350Z 24005KT 9999 FEW025 SCT080 00/M00 Q1012=
201504290320 METAR ESMX 290320Z AUTO 25006KT 9999 NCD 00/M01 Q1012=
201504290250 METAR ESMX 290250Z AUTO 25005KT 9999 FEW062/// 00/M00 Q1012=
201504290220 METAR ESMX 290220Z AUTO 23006KT 9999 FEW060/// M01/M01 Q1012=
201504290150 METAR ESMX 290150Z AUTO 23005KT 9999 NCD M00/M01 Q1011=
201504290120 METAR ESMX 290120Z AUTO 25004KT 9999 NCD M00/M01 Q1011=
201504290050 METAR ESMX 290050Z AUTO 25005KT 9999 NCD 00/M01 Q1012=
201504290020 METAR ESMX 290020Z AUTO 25004KT 9999 FEW032/// 01/M00 Q1012=
201504282350 METAR ESMX 282350Z AUTO 26003KT 9999 NCD 02/M00 Q1012=
201504282320 METAR ESMX 282320Z 27005KT CAVOK 03/00 Q1012=
201504282250 METAR ESMX 282250Z 26005KT CAVOK 04/00 Q1012=
201504282220 METAR ESMX 282220Z 27007KT CAVOK 05/00 Q1012=
201504282150 METAR ESMX 282150Z 27007KT CAVOK 05/M00 Q1011=
201504282120 METAR ESMX 282120Z 26007KT CAVOK 06/M01 Q1011=
201504282050 METAR ESMX 282050Z 26007KT CAVOK 06/M01 Q1011=
201504282020 METAR ESMX 282020Z 25007KT CAVOK 07/M01 Q1011=
201504281950 METAR ESMX 281950Z 25007KT CAVOK 07/M00 Q1011=
201504281920 METAR COR ESMX 281920Z 25007KT CAVOK 07/M00 Q1011=
201504281850 METAR ESMX 281850Z 25007KT CAVOK 08/M00 Q1010=
201504281820 METAR ESMX 281820Z 26008KT CAVOK 08/00 Q1010=
201504281750 METAR ESMX 281750Z 26008KT CAVOK 08/00 Q1010=
201504281720 METAR COR ESMX 281720Z 26010KT CAVOK 09/M00 Q1009=
201504281650 METAR ESMX 281650Z 27005KT CAVOK 10/M01 Q1009=
201504281620 METAR ESMX 281620Z 22005KT 180V260 CAVOK 10/M02 Q1009=
201504281550 METAR COR ESMX 281550Z 27003KT 240V300 CAVOK 11/M02 Q1009=
201504281520 METAR ESMX 281520Z 26006KT CAVOK 11/M02 Q1009=
201504281450 METAR ESMX 281450Z 24005KT CAVOK 11/M02 Q1009=
201504281420 METAR ESMX 281420Z 23005KT 190V290 CAVOK 11/M03 Q1009=
201504281350 METAR COR ESMX 281350Z 20004KT 170V280 CAVOK 11/M04 Q1009=
201504281320 METAR ESMX 281320Z 30003KT 200V020 CAVOK 11/M02 Q1009=
201504281250 METAR COR ESMX 281250Z VRB04KT 140V340 CAVOK 11/M02 Q1009=
201504281220 METAR ESMX 281220Z 29004KT 230V020 9999 FEW048 11/M01 Q1009=
201504281150 METAR ESMX 281150Z VRB05KT 360V360 9999 FEW048 12/00 Q1009=
201504281120 METAR ESMX 281120Z 32006KT 230V030 9999 FEW043 11/M02 Q1009=
201504281050 METAR ESMX 281050Z VRB05KT 360V360 9999 FEW041 10/M01 Q1009=
201504281020 METAR ESMX 281020Z 30005KT 260V340 9999 FEW039 10/M01 Q1009=
201504280950 METAR ESMX 280950Z 28006KT 210V320 9999 FEW033 08/M01 Q1009=
201504280920 METAR ESMX 280920Z 28007KT 200V340 9999 SCT033 09/M01 Q1009=
201504280850 METAR ESMX 280850Z 28007KT 220V340 9999 SCT030 07/M00 Q1009=
201504280820 METAR ESMX 280820Z VRB04KT 110V290 9999 SCT029 07/M00 Q1009=
201504280750 METAR ESMX 280750Z VRB04KT 220V040 9999 SCT026 07/M01 Q1009=
201504280720 METAR ESMX 280720Z 30007KT 270V340 9999 SCT025 06/M00 Q1008=
201504280650 METAR ESMX 280650Z 29006KT 250V330 CAVOK 07/00 Q1008=
201504280620 METAR ESMX 280620Z 28005KT CAVOK 06/01 Q1008=
201504280550 METAR ESMX 280550Z 26003KT CAVOK 04/01 Q1008=
201504280520 METAR ESMX 280520Z VRB01KT CAVOK 03/02 Q1008=
201504280450 METAR ESMX 280450Z 18002KT CAVOK M00/M00 Q1007=
201504280420 METAR ESMX 280420Z VRB01KT CAVOK M01/M01 Q1007=
201504280350 METAR ESMX 280350Z 22001KT CAVOK M02/M02 Q1007=
201504280320 METAR ESMX 280320Z VRB02KT CAVOK M01/M01 Q1007=
201504280250 METAR ESMX 280250Z AUTO VRB02KT 9999 NCD M01/M01 Q1007=
201504280220 METAR ESMX 280220Z AUTO 31003KT 9999 NCD M01/M01 Q1007=
201504280150 METAR ESMX 280150Z AUTO 00000KT 9999 NCD 00/M00 Q1007=
201504280120 METAR ESMX 280120Z AUTO 27002KT 9999 NCD 01/M00 Q1007=
201504280050 METAR ESMX 280050Z AUTO 18003KT 9999 NCD 01/00 Q1007=
201504280020 METAR ESMX 280020Z AUTO 00000KT 9999 NCD 02/00 Q1006=
201504272350 METAR ESMX 272350Z 27002KT CAVOK 03/01 Q1006=
201504272320 METAR ESMX 272320Z 27003KT CAVOK 03/00 Q1006=
201504272250 METAR ESMX 272250Z AUTO 28003KT 9999 NCD 03/M00 Q1006=
201504272220 METAR ESMX 272220Z 28003KT 250V310 CAVOK 04/M00 Q1006=
201504272150 METAR COR ESMX 272150Z 28004KT CAVOK 04/M00 Q1006=
201504272120 METAR ESMX 272120Z 27005KT CAVOK 04/M01 Q1005=
201504272050 METAR ESMX 272050Z 28005KT CAVOK 05/M02 Q1005=
201504272020 METAR COR ESMX 272020Z 27005KT CAVOK 05/M02 Q1005=
201504271950 METAR ESMX 271950Z 27006KT CAVOK 06/M03 Q1005=
201504271920 METAR COR ESMX 271920Z 26006KT CAVOK 07/M03 Q1005=
201504271850 METAR ESMX 271850Z 27006KT CAVOK 08/M04 Q1005=
201504271820 METAR ESMX 271820Z 27008KT CAVOK 09/M06 Q1004=
201504271750 METAR ESMX 271750Z 27010KT CAVOK 10/M06 Q1004=
201504271720 METAR ESMX 271720Z 27010KT CAVOK 11/M04 Q1004=
201504271650 METAR ESMX 271650Z 26010KT CAVOK 12/M05 Q1003=
201504271620 METAR ESMX 271620Z 26008KT 220V290 CAVOK 12/M04 Q1003=
201504271550 METAR ESMX 271550Z VRB06KT 170V030 CAVOK 13/M01 Q1003=
201504271520 METAR ESMX 271520Z 25004KT 210V300 CAVOK 12/M02 Q1003=
201504271450 METAR ESMX 271450Z 29008KT 260V330 CAVOK 11/M01 Q1003=
201504271425 METAR ESMX 271425Z 26010KT 230V300 CAVOK 13/M00 Q1004=
201504271420 METAR ESMX 271420Z AUTO 27010KT 230V290 9999 FEW053/// 13/M00 Q1004=
201504271350 METAR ESMX 271350Z 28006G17KT 200V350 CAVOK 12/M00 Q1004=
201504271320 METAR ESMX 271320Z 28007KT 210V340 CAVOK 12/00 Q1004=
201504271250 METAR ESMX 271250Z AUTO 29005KT 240V330 9999 FEW069/// 11/M01 Q1004=
201504271220 METAR ESMX 271220Z 29003KT CAVOK 10/M00 Q1004=
201504271150 METAR ESMX 271150Z 27003KT 170V320 9999 FEW033 09/00 Q1004=
201504271120 METAR ESMX 271120Z AUTO 31004KT 240V010 9999 NCD 09/01 Q1005=
201504271050 METAR ESMX 271050Z VRB03KT 9999 FEW023 BKN080 08/02 Q1005=
201504271020 METAR COR ESMX 271020Z 31003KT 270V010 9999 FEW020 BKN080 08/03 Q1005=
201504270950 METAR ESMX 270950Z VRB03KT 360V360 9999 FEW026 08/04 Q1005=
201504270920 METAR ESMX 270920Z VRB02KT CAVOK 08/03 Q1005=
201504270850 METAR ESMX 270850Z 02003KT CAVOK 07/02 Q1005=
201504270820 METAR COR ESMX 270820Z VRB03KT CAVOK 07/02 Q1005=
201504270750 METAR ESMX 270750Z 32004KT CAVOK 07/02 Q1005=
201504270720 METAR ESMX 270720Z 36003KT 320V030 CAVOK 06/03 Q1005=
201504270650 METAR ESMX 270650Z 34004KT CAVOK 05/03 Q1005=
201504270620 METAR ESMX 270620Z 35004KT CAVOK 05/03 Q1005=
201504270550 METAR ESMX 270550Z 36004KT CAVOK 05/04 Q1005=
201504270520 METAR ESMX 270520Z 36004KT CAVOK 04/03 Q1005=
201504270450 METAR ESMX 270450Z 36004KT CAVOK 03/03 Q1004=
201504270420 METAR ESMX 270420Z 34002KT CAVOK 03/02 Q1004=
201504270350 METAR ESMX 270350Z 32003KT CAVOK 03/02 Q1004=
201504270320 METAR ESMX 270320Z AUTO 33002KT 9999 BKN100/// 03/03 Q1005=
201504270250 METAR ESMX 270250Z AUTO 31003KT 9999 SCT110/// 03/02 Q1005=
201504270220 METAR ESMX 270220Z AUTO 34003KT 9999 SCT100/// 03/03 Q1005=
201504270150 METAR ESMX 270150Z AUTO 31004KT 280V350 9999 BKN099/// 03/03 Q1005=
201504270120 METAR ESMX 270120Z AUTO 33003KT 9999 FEW081/// 03/03 Q1005=
201504270050 METAR ESMX 270050Z AUTO 30004KT 9999 NCD 03/02 Q1005=
201504270020 METAR ESMX 270020Z AUTO 30004KT 9999 NCD 03/02 Q1005=
201504262350 METAR ESMX 262350Z AUTO 29005KT 9999 FEW036/// 04/02 Q1005=
201504262320 METAR ESMX 262320Z 26005KT 9999 OVC036 04/03 Q1005=
201504262250 METAR ESMX 262250Z 27004KT 9999 BKN036 04/03 Q1005=
201504262220 METAR COR ESMX 262220Z 26003KT 9999 OVC039 04/04 Q1005=
201504262150 METAR ESMX 262150Z 25002KT 9999 OVC038 05/04 Q1005=
201504262120 METAR COR ESMX 262120Z 25003KT 9999 OVC038 05/04 Q1005=
201504262050 METAR COR ESMX 262050Z 24003KT 9999 BKN036 05/04 Q1005=
201504262020 METAR ESMX 262020Z 00000KT 9999 -RA BKN037 05/04 Q1005=
201504261950 METAR ESMX 261950Z VRB02KT 9999 -RA FEW027 BKN033 05/04 Q1005=
201504261920 METAR ESMX 261920Z 25002KT 9999 -RA BKN027 05/04 Q1005=
201504261850 METAR ESMX 261850Z VRB02KT 9999 -RA BKN026 05/04 Q1005=
201504261820 METAR ESMX 261820Z VRB02KT 9999 -RA BKN031 05/04 Q1005=
201504261750 METAR ESMX 261750Z VRB03KT 9999 -RA BKN037 05/04 Q1005=
201504261720 METAR COR ESMX 261720Z 31004KT 9999 -RA BKN040 05/04 Q1005 RERA=
201504261650 METAR COR ESMX 261650Z 30006KT 280V340 5000 RA FEW023 BKN040 06/04 Q1005=
201504261620 METAR ESMX 261620Z 30011KT 9999 -RA FEW027 BKN040 07/03 Q1005=
201504261550 METAR ESMX 261550Z 30010KT 9999 -RA SCT034 BKN045 09/03 Q1005=
201504261520 METAR ESMX 261520Z 26007KT 230V300 9999 BKN046 10/02 Q1005=
201504261450 METAR ESMX 261450Z 27007KT 9999 BKN045 11/02 Q1004=
201504261420 METAR ESMX 261420Z 25007KT 9999 BKN045 11/02 Q1004=
201504261350 METAR ESMX 261350Z 23006KT 190V290 9999 BKN038 11/02 Q1004=
201504261320 METAR ESMX 261320Z 25008KT 210V280 9999 FEW032 BKN060 12/02 Q1004=
201504261250 METAR ESMX 261250Z 19007KT 150V250 9999 FEW020 SCT025 BKN060 11/06 Q1004=
201504261220 METAR ESMX 261220Z 19006KT 140V230 9999 BKN020 10/05 Q1005=
201504261150 METAR ESMX 261150Z 25008KT 210V280 9999 BKN019 10/05 Q1005=
201504261120 METAR ESMX 261120Z 22006KT 150V290 9999 BKN018 09/05 Q1004=
201504261050 METAR ESMX 261050Z 26006KT 230V300 9999 SCT015 BKN025 08/05 Q1005=
201504261020 METAR ESMX 261020Z AUTO 28006KT 210V320 9999 OVC020/// 08/05 Q1004 RESHUP REUP=
201504260950 METAR ESMX 260950Z AUTO 25004KT 220V280 9999 OVC019/// 07/05 Q1005=
201504260920 METAR ESMX 260920Z AUTO 29005KT 9999 FEW005/// OVC018/// 06/05 Q1005=
201504260850 METAR ESMX 260850Z AUTO 31008KT 3900 BR FEW005/// BKN007/// OVC011/// 06/05 Q1004 RERA=
201504260820 METAR ESMX 260820Z AUTO 31010KT 7000 BR FEW005/// BKN006/// OVC009/// 06/05 Q1004=
201504260750 METAR ESMX 260750Z AUTO 28007KT 250V320 3800 -RA FEW005/// SCT008/// BKN010/// 08/07 Q1004 REDZ=
201504260720 METAR ESMX 260720Z AUTO 23008KT 9999 FEW008/// OVC010/// 09/08 Q1003=
201504260650 METAR ESMX 260650Z AUTO 22008KT 7000 BR FEW009/// BKN010/// OVC013/// 09/08 Q1003=
201504260620 METAR ESMX 260620Z AUTO 22007KT 9999 OVC009/// 09/08 Q1003=
201504260550 METAR ESMX 260550Z AUTO 22008KT 9999 FEW007/// SCT008/// BKN010/// 09/07 Q1003=
201504260520 METAR ESMX 260520Z AUTO 22006KT 200V260 8000 BR SCT007/// BKN009/// OVC055/// 09/08 Q1003=
201504260450 METAR ESMX 260450Z AUTO 22006KT 190V260 6000 BR FEW007/// SCT008/// BKN010/// 09/08 Q1003 REUP=
201504260420 METAR ESMX 260420Z AUTO 22006KT 9999 FEW015/// BKN018/// OVC021/// 09/08 Q1003=
201504260350 METAR ESMX 260350Z AUTO 24005KT 9999 FEW010/// BKN022/// 09/08 Q1002=
201504260320 METAR ESMX 260320Z AUTO 24007KT 9999 OVC022/// 09/08 Q1002=
201504260250 METAR ESMX 260250Z AUTO 22006KT 9000 BR FEW012/// SCT022/// BKN027/// 09/08 Q1002=
201504260220 METAR ESMX 260220Z AUTO 21006KT 8000 BR SCT025/// BKN080/// 09/08 Q1002=
201504260150 METAR ESMX 260150Z AUTO 22006KT 7000 BR FEW020/// SCT024/// OVC027/// 10/09 Q1002=
201504260120 METAR ESMX 260120Z AUTO 23006KT 7000 BR FEW007/// SCT013/// BKN022/// 10/09 Q1002 RERA=
201504260050 METAR ESMX 260050Z AUTO 22006KT 5000 BR FEW006/// SCT008/// BKN010/// 10/09 Q1002=
201504260020 METAR ESMX 260020Z AUTO 22007KT 5000 BR FEW005/// BKN006/// OVC013/// 10/09 Q1002 REDZ=
201504252350 METAR ESMX 252350Z AUTO 20007KT 4200 BR FEW005/// BKN006/// OVC008/// 10/09 Q1002 REDZ=
201504252320 METAR ESMX 252320Z AUTO 20007KT 5000 BR BKN005/// OVC009/// 10/09 Q1002 REDZ=
201504252250 METAR ESMX 252250Z AUTO 20008KT 4800 BR BKN005/// OVC008/// 10/09 Q1002 REDZ=
201504252220 METAR ESMX 252220Z AUTO 19009KT 4800 BR BKN005/// OVC010/// 10/09 Q1002=
201504252150 METAR ESMX 252150Z AUTO 19008KT 5000 -DZ FEW007/// SCT009/// BKN010/// 10/09 Q1002=
201504252120 METAR ESMX 252120Z AUTO 19009KT 4600 DZ FEW006/// SCT009/// BKN011/// 10/09 Q1002=
201504252050 METAR ESMX 252050Z AUTO 20008KT 3400 DZ FEW005/// SCT007/// BKN009/// 10/10 Q1002=
201504252020 METAR ESMX 252020Z AUTO 19009KT 3300 DZ FEW005/// BKN007/// OVC011/// 10/10 Q1002=
201504251950 METAR ESMX 251950Z AUTO 18007KT 3200 DZ FEW005/// SCT009/// BKN014/// 10/10 Q1003=
201504251920 METAR ESMX 251920Z AUTO 19005KT 3800 DZ FEW008/// SCT010/// BKN012/// 10/10 Q1003 REDZ=
201504251850 METAR ESMX 251850Z AUTO 20005KT 3700 DZ FEW019/// SCT022/// BKN028/// 10/09 Q1003=
201504251820 METAR ESMX 251820Z AUTO 20003KT 3100 DZ BKN037/// BKN049/// 10/10 Q1003=
201504251750 METAR ESMX 251750Z AUTO 22006KT 5000 -DZ SCT041/// OVC050/// 10/09 Q1003=
201504251720 METAR ESMX 251720Z AUTO 23008KT 4800 -RA SCT033/// OVC040/// 11/09 Q1003 REDZ=
201504251650 METAR ESMX 251650Z AUTO 24010KT 5000 DZ FEW025/// OVC035/// 12/09 Q1003=
201504251620 METAR ESMX 251620Z AUTO 23012KT 9999 FEW033/// OVC038/// 14/07 Q1002=
201504251550 METAR ESMX 251550Z AUTO 22012KT 9999 FEW045/// BKN052/// 14/07 Q1002=
201504251520 METAR ESMX 251520Z AUTO 22012KT 9999 FEW048/// 15/07 Q1002=
201504251450 METAR ESMX 251450Z AUTO 22014KT 6000 BR FEW026/// SCT042/// 14/08 Q1002 REDZ=
201504251420 METAR ESMX 251420Z AUTO 19010KT 9999 FEW034/// SCT055/// 16/09 Q1002=
201504251350 METAR ESMX 251350Z AUTO 18012KT 9000 BR FEW034/// SCT039/// BKN054/// 15/08 Q1002=
201504251320 METAR ESMX 251320Z AUTO 18011KT 9999 SCT035/// 15/08 Q1002=
201504251250 METAR ESMX 251250Z AUTO 19013KT 9999 FEW036/// 15/08 Q1003=
201504251220 METAR ESMX 251220Z AUTO 17010KT 140V200 9999 FEW037/// 14/08 Q1003=
201504251150 METAR ESMX 251150Z AUTO 15010KT 9999 FEW039/// 14/07 Q1003=
201504251120 METAR ESMX 251120Z AUTO 15008KT 110V170 9999 FEW036/// SCT079/// 13/07 Q1003=
201504251050 METAR ESMX 251050Z AUTO 15008KT 120V190 9999 BKN041/// 12/08 Q1004=
201504251020 METAR ESMX 251020Z AUTO 15007KT 9999 BKN044/// 11/08 Q1004=
201504250950 METAR ESMX 250950Z AUTO 18007KT 9999 BKN051/// 12/07 Q1004=
201504250920 METAR ESMX 250920Z AUTO 17006KT 120V190 9999 -DZ FEW032/// BKN051/// 11/07 Q1004 REDZ=
201504250850 METAR ESMX 250850Z AUTO 20009KT 9999 DZ SCT060/// 11/07 Q1005=
201504250820 METAR ESMX 250820Z AUTO 21011KT 9999 FEW067/// 11/07 Q1005=
201504250750 METAR ESMX 250750Z AUTO 18007KT 150V210 9999 NCD 11/07 Q1005=
201504250720 METAR ESMX 250720Z AUTO 16007KT 120V190 9999 FEW005/// 09/07 Q1005=
201504250650 METAR ESMX 250650Z AUTO 16007KT 130V190 7000 BR BKN003/// BKN005/// 07/06 Q1005=
201504250620 METAR ESMX 250620Z AUTO 16006KT 120V190 4600 BR OVC003/// 06/06 Q1005=
201504250550 METAR ESMX 250550Z AUTO 16007KT 4100 BR BKN003/// 06/05 Q1005=
201504250520 METAR ESMX 250520Z AUTO 15005KT 110V170 3800 BR FEW003/// 05/05 Q1005=
201504250450 METAR ESMX 250450Z AUTO 15005KT 120V190 2800 BR FEW003/// 05/05 Q1005=
201504250420 METAR ESMX 250420Z AUTO 15004KT 120V190 3500 BR FEW002/// 05/05 Q1006=
201504250350 METAR ESMX 250350Z AUTO 15005KT 4500 BR NCD 05/04 Q1006=
201504250320 METAR ESMX 250320Z AUTO 16004KT 5000 BR NCD 05/04 Q1006=
201504250250 METAR ESMX 250250Z AUTO 16003KT 130V190 8000 BR NCD 05/04 Q1006=
201504250220 METAR ESMX 250220Z AUTO 15005KT 9999 NCD 05/04 Q1006=
201504250150 METAR ESMX 250150Z AUTO 16006KT 9999 NCD 06/05 Q1006=
201504250120 METAR ESMX 250120Z AUTO 16006KT 9999 NCD 06/04 Q1006=
201504250050 METAR ESMX 250050Z AUTO 15005KT 9999 NCD 06/05 Q1006=
201504250020 METAR ESMX 250020Z AUTO 15004KT 9999 NCD 05/03 Q1006=
201504242350 METAR ESMX 242350Z AUTO 15004KT 9999 NCD 06/04 Q1007=
201504242320 METAR ESMX 242320Z AUTO 16004KT 9999 NCD 06/04 Q1007=
201504242250 METAR ESMX 242250Z AUTO 16004KT 9999 BKN070/// 06/04 Q1007=
201504242220 METAR ESMX 242220Z AUTO 16004KT 9999 FEW041/// BKN056/// OVC071/// 07/05 Q1007=
201504242150 METAR ESMX 242150Z AUTO 17004KT 9999 OVC035/// 07/05 Q1007=
201504242120 METAR ESMX 242120Z AUTO 18004KT 9999 BKN030/// OVC059/// 07/05 Q1007=
201504242050 METAR ESMX 242050Z AUTO 19003KT 9999 FEW020/// SCT033/// BKN051/// 07/05 Q1007 REUP=
201504242020 METAR ESMX 242020Z AUTO 19005KT 9999 -DZ FEW051/// SCT068/// BKN091/// 07/04 Q1008 REUP=
201504241950 METAR ESMX 241950Z AUTO 21004KT 9999 BKN040/// BKN110/// 07/04 Q1008=
201504241920 METAR ESMX 241920Z AUTO 23003KT 9999 SCT070/// OVC100/// 07/03 Q1008=
201504241850 METAR ESMX 241850Z AUTO 24005KT 9999 BKN100/// 07/03 Q1008=
201504241820 METAR ESMX 241820Z AUTO 24005KT 200V280 9999 BKN049/// OVC100/// 09/03 Q1007=
201504241750 METAR ESMX 241750Z 24007KT 200V270 CAVOK 09/03 Q1008=
201504241720 METAR ESMX 241720Z 25008KT CAVOK 09/02 Q1008=
201504241650 METAR ESMX 241650Z 25012KT CAVOK 10/M01 Q1008=
201504241620 METAR ESMX 241620Z 25010KT 210V280 CAVOK 10/M00 Q1007=
201504241550 METAR ESMX 241550Z 27012KT CAVOK 11/M01 Q1007=
201504241520 METAR ESMX 241520Z 23012KT CAVOK 12/M02 Q1007=
201504241450 METAR ESMX 241450Z 26013KT CAVOK 13/M01 Q1007=
201504241420 METAR ESMX 241420Z 28014KT 240V320 CAVOK 13/M01 Q1007=
201504241350 METAR ESMX 241350Z 25014KT 220V290 CAVOK 13/M03 Q1007=
201504241320 METAR ESMX 241320Z 25013KT CAVOK 13/M02 Q1007=
201504241250 METAR ESMX 241250Z 24013G25KT 210V280 CAVOK 14/M02 Q1007=
201504241220 METAR COR ESMX 241220Z 25013KT 220V280 CAVOK 14/M02 Q1007=
201504241150 METAR ESMX 241150Z 27013G23KT 240V300 9999 FEW045 13/M02 Q1007=
201504241120 METAR ESMX 241120Z 27012KT 230V300 9999 FEW045 12/M02 Q1007=
201504241050 METAR ESMX 241050Z 24011KT 200V290 9999 FEW048 12/M00 Q1007=
201504241020 METAR ESMX 241020Z 25013KT 220V280 9999 FEW041 12/00 Q1007=
201504240950 METAR ESMX 240950Z 26011KT 210V300 9999 FEW037 11/00 Q1007=
201504240920 METAR ESMX 240920Z 25010G21KT 220V290 9999 FEW038 10/00 Q1007=
201504240850 METAR ESMX 240850Z 27011KT 240V320 9999 SCT033 10/01 Q1007=
201504240820 METAR COR ESMX 240820Z 25012KT 9999 FEW028 SCT032 10/01 Q1007=
201504240750 METAR ESMX 240750Z 26012KT 210V290 9999 FEW026 09/02 Q1007=
201504240720 METAR ESMX 240720Z 27012KT 9999 R01///// R19/P2000N SCT025 08/01 Q1007=
201504240650 METAR ESMX 240650Z 28013KT 9999 SCT024 BKN060 08/01 Q1007=
201504240620 METAR ESMX 240620Z 28011KT 240V300 9999 FEW021 SCT025 BKN029 07/02 Q1007=
201504240550 METAR ESMX 240550Z 26013KT 9999 FEW020 BKN023 07/02 Q1007=
201504240520 METAR ESMX 240520Z 26009KT 9999 FEW021 BKN027 07/02 Q1007=
201504240450 METAR ESMX 240450Z 26009KT 9999 BKN023 06/02 Q1007=
201504240420 METAR ESMX 240420Z 27008KT 230V290 9999 BKN020 06/02 Q1007=
201504240350 METAR ESMX 240350Z AUTO 27008KT 9999 FEW020/// SCT025/// 06/02 Q1006=
201504240320 METAR ESMX 240320Z AUTO 26008KT 9999 FEW023/// 06/03 Q1006=
201504240250 METAR ESMX 240250Z AUTO 26008KT 9999 FEW031/// 06/02 Q1006=
201504240220 METAR ESMX 240220Z AUTO 26009KT 9999 FEW024/// BKN030/// 07/03 Q1006=
201504240150 METAR ESMX 240150Z AUTO 26010KT 9999 FEW020/// SCT025/// BKN029/// 07/03 Q1006=
201504240120 METAR ESMX 240120Z AUTO 27012KT 9999 FEW020/// BKN027/// 07/03 Q1006=
201504240050 METAR ESMX 240050Z AUTO 26013KT 9999 BKN024/// 07/04 Q1006=
201504240020 METAR ESMX 240020Z AUTO 26011KT 9999 FEW017/// SCT020/// BKN023/// 08/04 Q1006=
201504232350 METAR ESMX 232350Z 26012KT 9999 FEW015 BKN025 08/04 Q1006=
201504232320 METAR COR ESMX 232320Z 26011KT 240V300 9999 FEW017 BKN025 08/04 Q1006=
201504232250 METAR ESMX 232250Z 25010KT 220V290 9999 FEW017 BKN020 08/04 Q1007=
201504232220 METAR ESMX 232220Z 27009KT 9999 SCT017 BKN020 08/04 Q1007=
201504232150 METAR ESMX 232150Z 27010KT 9999 OVC020 08/04 Q1007=
201504232120 METAR ESMX 232120Z 27013KT 9999 FEW020 BKN028 08/04 Q1007=
201504232050 METAR COR ESMX 232050Z 26009KT 9999 FEW020 BKN025 08/05 Q1007=
201504232020 METAR ESMX 232020Z 27011KT 9999 FEW020 BKN025 09/05 Q1007=
201504231950 METAR ESMX 231950Z 26012KT 9999 FEW020 SCT025 08/05 Q1007=
201504231920 METAR ESMX 231920Z 26010KT 9999 FEW020 SCT030 09/05 Q1007=
201504231850 METAR ESMX 231850Z 26011KT 9999 SCT030 09/04 Q1007=
201504231820 METAR ESMX 231820Z 26013KT 9999 SCT030 10/04 Q1007=
201504231750 METAR ESMX 231750Z 26013G24KT 9999 SCT030 11/04 Q1007=
201504231720 METAR ESMX 231720Z 25015KT 9999 FEW030 SCT035 11/04 Q1007=
201504231650 METAR ESMX 231650Z 27015KT 9999 SCT036 11/04 Q1007=
201504231620 METAR COR ESMX 231620Z 26014G25KT 230V290 9999 SCT032 11/04 Q1007=
201504231550 METAR ESMX 231550Z 26013KT 9999 FEW027 SCT035 BKN041 11/04 Q1007=
201504231520 METAR ESMX 231520Z 27015KT 9999 FEW029 BKN035 11/05 Q1007=
201504231450 METAR ESMX 231450Z 25016KT 210V280 9999 FEW027 BKN037 12/05 Q1007=
201504231420 METAR ESMX 231420Z 25016KT 9999 SCT027 BKN038 13/06 Q1007=
201504231350 METAR ESMX 231350Z 26017KT 230V290 9999 SCT027 BKN036 12/05 Q1007=
201504231320 METAR ESMX 231320Z 26014KT 220V280 9999 FEW023 BKN030 BKN038 13/06 Q1008=
201504231250 METAR ESMX 231250Z 26017KT 9999 FEW024 SCT029 BKN039 12/06 Q1008=
201504231220 METAR COR ESMX 231220Z 26017KT 220V280 9999 FEW025 SCT032 BKN041 13/06 Q1008=
201504231150 METAR ESMX 231150Z 24016KT 9999 FEW027 SCT034 BKN039 13/07 Q1008=
201504231120 METAR ESMX 231120Z 26016KT 9999 SCT027 13/06 Q1008=
201504231050 METAR ESMX 231050Z 26015KT 230V300 9999 SCT031 14/05 Q1008=
201504231020 METAR ESMX 231020Z 26014KT 9999 SCT031 14/06 Q1008=
201504230950 METAR COR ESMX 230950Z 28013KT 9999 SCT031 13/05 Q1008=
201504230920 METAR ESMX 230920Z 27013KT CAVOK 13/05 Q1008=
201504230850 METAR ESMX 230850Z 28013KT 250V310 CAVOK 12/05 Q1009=
201504230820 METAR ESMX 230820Z 27012KT 240V310 CAVOK 12/05 Q1009=
201504230750 METAR ESMX 230750Z 27012KT CAVOK 12/05 Q1008=
201504230720 METAR ESMX 230720Z 28011KT 250V320 CAVOK 11/04 Q1008=
201504230650 METAR ESMX 230650Z 27013KT CAVOK 11/04 Q1008=
201504230620 METAR ESMX 230620Z 27013KT CAVOK 10/05 Q1008=
201504230550 METAR ESMX 230550Z 27012KT CAVOK 10/04 Q1008=
201504230520 METAR ESMX 230520Z 26011KT CAVOK 09/04 Q1008=
201504230450 METAR ESMX 230450Z 26010KT CAVOK 09/04 Q1008=
201504230420 METAR COR ESMX 230420Z 27010KT CAVOK 09/04 Q1008=
201504230350 METAR ESMX 230350Z 26012KT CAVOK 08/04 Q1008=
201504230320 METAR ESMX 230320Z AUTO 27010KT 9999 NCD 08/05 Q1009=
201504230250 METAR ESMX 230250Z AUTO 23007KT 200V260 9999 NCD 06/04 Q1009=
201504230220 METAR ESMX 230220Z AUTO 23008KT 9999 NCD 06/04 Q1010=
201504230150 METAR ESMX 230150Z AUTO 25008KT 9999 NCD 07/04 Q1010=
201504230120 METAR ESMX 230120Z AUTO 26010KT 9999 NCD 07/04 Q1011=
201504230050 METAR ESMX 230050Z AUTO 24008KT 9999 NCD 07/04 Q1011=
201504230020 METAR ESMX 230020Z AUTO 24009KT 9999 NCD 06/04 Q1012=
201504222350 METAR ESMX 222350Z 23009KT CAVOK 06/04 Q1013=
201504222320 METAR COR ESMX 222320Z 23009KT CAVOK 07/04 Q1013=
201504222250 METAR ESMX 222250Z AUTO 24010KT 9999 NCD 07/03 Q1014=
201504222220 METAR ESMX 222220Z 24008KT 210V280 CAVOK 07/02 Q1015=
201504222150 METAR COR ESMX 222150Z 24008KT CAVOK 07/02 Q1015=
201504222120 METAR ESMX 222120Z 23007KT CAVOK 07/03 Q1016=
201504222050 METAR ESMX 222050Z 24007KT CAVOK 08/03 Q1016=
201504222020 METAR ESMX 222020Z 24007KT CAVOK 09/03 Q1016=
201504221950 METAR ESMX 221950Z 24008KT CAVOK 10/03 Q1017=
201504221920 METAR COR ESMX 221920Z 24009KT CAVOK 10/03 Q1017=
201504221850 METAR ESMX 221850Z 23008KT CAVOK 11/03 Q1017=
201504221820 METAR ESMX 221820Z 25009KT CAVOK 13/03 Q1017=
201504221750 METAR ESMX 221750Z 25009KT CAVOK 14/02 Q1017=
201504221720 METAR ESMX 221720Z 27011KT CAVOK 15/03 Q1018=
201504221650 METAR ESMX 221650Z 26013KT CAVOK 16/03 Q1018=
201504221620 METAR ESMX 221620Z 25011KT 210V280 CAVOK 17/04 Q1018=
201504221550 METAR ESMX 221550Z 26010KT CAVOK 18/02 Q1018=
201504221520 METAR ESMX 221520Z 28010KT CAVOK 18/01 Q1018=
201504221450 METAR ESMX 221450Z 25009KT CAVOK 18/02 Q1019=
201504221420 METAR ESMX 221420Z 29009KT 250V320 CAVOK 19/02 Q1019=
201504221350 METAR ESMX 221350Z 27007KT 210V300 CAVOK 18/02 Q1020=
201504221320 METAR ESMX 221320Z 28008KT 210V310 CAVOK 18/02 Q1020=
201504221250 METAR ESMX 221250Z 27007KT 230V310 CAVOK 17/02 Q1020=
201504221220 METAR ESMX 221220Z 26008KT 230V310 CAVOK 18/02 Q1021=
201504221150 METAR ESMX 221150Z 28008KT 230V340 CAVOK 17/02 Q1021=
201504221120 METAR ESMX 221120Z VRB06KT 210V040 CAVOK 17/02 Q1021=
201504221050 METAR ESMX 221050Z 26006KT 190V340 CAVOK 16/02 Q1022=
201504221020 METAR ESMX 221020Z 31007KT CAVOK 15/02 Q1022=
201504220950 METAR ESMX 220950Z 29006KT 260V060 CAVOK 15/02 Q1022=
201504220920 METAR ESMX 220920Z 29004KT 210V340 CAVOK 14/03 Q1023=
201504220850 METAR ESMX 220850Z 29004KT 230V340 CAVOK 13/02 Q1023=
201504220820 METAR ESMX 220820Z 25006KT CAVOK 13/02 Q1023=
201504220750 METAR ESMX 220750Z 25004KT 220V290 CAVOK 11/03 Q1023=
201504220720 METAR ESMX 220720Z 24001KT CAVOK 09/03 Q1023=
201504220650 METAR ESMX 220650Z VRB03KT CAVOK 08/04 Q1023=
201504220620 METAR COR ESMX 220620Z VRB02KT CAVOK 06/03 Q1023=
201504220550 METAR ESMX 220550Z AUTO 35003KT 9999 NCD 05/04 Q1023=
201504220520 METAR ESMX 220520Z VRB02KT CAVOK 03/03 Q1023=
201504220450 METAR ESMX 220450Z 36002KT CAVOK 00/00 Q1023=
201504220420 METAR ESMX 220420Z 17002KT 9999 BCFG NSC M01/M01 Q1022=
201504220350 METAR ESMX 220350Z 17002KT 1200 R01/P2000N R19/P2000D BCFG NSC M02/M02 Q1022=
201504220320 METAR ESMX 220320Z 00000KT 0600 R01/P2000D R19/P2000N FZFG NSC M02/M02 Q1022=
201504220250 METAR ESMX 220250Z AUTO 00000KT 9999 NCD M01/M01 Q1022=
201504220220 METAR ESMX 220220Z AUTO VRB02KT 9999 NCD M00/M00 Q1022=
201504220150 METAR ESMX 220150Z AUTO VRB01KT 1900 BR NCD M00/M01 Q1022=
201504220120 METAR ESMX 220120Z AUTO 04002KT 3600 NCD 01/00 Q1022=
201504220050 METAR ESMX 220050Z AUTO VRB01KT 9999 NCD 02/02 Q1022=
201504220020 METAR ESMX 220020Z AUTO 16003KT 9999 NCD 03/02 Q1022=
201504212350 METAR ESMX 212350Z 16005KT CAVOK 04/03 Q1022=
201504212320 METAR ESMX 212320Z 15006KT CAVOK 04/03 Q1022=
201504212250 METAR ESMX 212250Z 14006KT 110V170 CAVOK 05/02 Q1022=
201504212220 METAR ESMX 212220Z 15005KT 110V180 CAVOK 05/02 Q1022=
201504212150 METAR ESMX 212150Z 14006KT CAVOK 05/02 Q1022=
201504212120 METAR ESMX 212120Z 15007KT CAVOK 06/02 Q1022=
201504212050 METAR ESMX 212050Z 15007KT CAVOK 07/01 Q1022=
201504212020 METAR ESMX 212020Z 16007KT CAVOK 07/01 Q1022=
201504211950 METAR ESMX 211950Z 16006KT CAVOK 08/02 Q1022=
201504211920 METAR ESMX 211920Z 16008KT CAVOK 09/02 Q1022=
201504211850 METAR ESMX 211850Z 16008KT CAVOK 10/02 Q1022=
201504211820 METAR ESMX 211820Z 17009KT CAVOK 11/03 Q1021=
201504211750 METAR ESMX 211750Z 18012KT CAVOK 13/03 Q1021=
201504211720 METAR COR ESMX 211720Z 19010KT 080V230 CAVOK 14/03 Q1021=
201504211650 METAR ESMX 211650Z AUTO 08003KT 040V120 9999 NCD 16/00 Q1021=
201504211620 METAR ESMX 211620Z 07004KT 030V110 CAVOK 16/01 Q1021=
201504211550 METAR ESMX 211550Z 07005KT 020V100 CAVOK 16/M00 Q1021=
201504211520 METAR ESMX 211520Z 09004KT 030V170 CAVOK 16/M00 Q1022=
201504211450 METAR ESMX 211450Z 05004KT 350V150 CAVOK 15/M00 Q1022=
201504211420 METAR ESMX 211420Z 05003KT 330V140 CAVOK 15/00 Q1023=
201504211350 METAR ESMX 211350Z 36007KT CAVOK 15/00 Q1022=
201504211320 METAR ESMX 211320Z 36005KT CAVOK 15/M00 Q1023=
201504211250 METAR ESMX 211250Z 07006KT 020V130 CAVOK 15/M00 Q1023=
201504211220 METAR ESMX 211220Z 07005KT 040V120 CAVOK 14/M00 Q1023=
201504211150 METAR ESMX 211150Z 33005KT 250V030 CAVOK 14/01 Q1023=
201504211120 METAR ESMX 211120Z VRB05KT 350V180 CAVOK 14/00 Q1023=
201504211050 METAR ESMX 211050Z 01005KT 290V060 CAVOK 13/00 Q1023=
201504211020 METAR ESMX 211020Z 36008KT CAVOK 13/00 Q1023=
201504210950 METAR ESMX 210950Z 02006KT 290V080 CAVOK 13/01 Q1023=
201504210920 METAR ESMX 210920Z 01006KT 330V040 CAVOK 12/01 Q1023=
201504210850 METAR ESMX 210850Z 35007KT 320V030 CAVOK 11/01 Q1023=
201504210820 METAR ESMX 210820Z 04005KT 330V080 CAVOK 11/01 Q1023=
201504210750 METAR COR ESMX 210750Z 01008KT CAVOK 10/01 Q1023=
201504210720 METAR ESMX 210720Z 04008KT 360V070 CAVOK 09/01 Q1023=
201504210650 METAR ESMX 210650Z 04009KT CAVOK 10/00 Q1023=
201504210620 METAR ESMX 210620Z 02010KT CAVOK 09/M00 Q1022=
201504210550 METAR ESMX 210550Z 02009KT CAVOK 08/M01 Q1022=
201504210520 METAR ESMX 210520Z 36008KT CAVOK 07/M00 Q1022=
201504210450 METAR COR ESMX 210450Z 01007KT CAVOK 05/M02 Q1021=
201504210420 METAR ESMX 210420Z 35003KT CAVOK 01/M02 Q1021=
201504210350 METAR ESMX 210350Z 30003KT CAVOK 01/M03 Q1021=
201504210320 METAR ESMX 210320Z 32002KT CAVOK 01/M03 Q1020=
201504210250 METAR ESMX 210250Z AUTO 31003KT 9999 NCD 02/M03 Q1020=
201504210220 METAR ESMX 210220Z AUTO 31003KT 9999 NCD 03/M03 Q1020=
201504210150 METAR ESMX 210150Z AUTO VRB03KT 9999 NCD 03/M03 Q1020=
201504210120 METAR ESMX 210120Z AUTO 28004KT 9999 NCD 02/M03 Q1020=
201504210050 METAR ESMX 210050Z AUTO 28004KT 9999 NCD 01/M03 Q1020=
201504210020 METAR ESMX 210020Z AUTO 27003KT 9999 NCD 03/M03 Q1021=
201504202350 METAR ESMX 202350Z VRB03KT CAVOK 05/M02 Q1021=
201504202320 METAR ESMX 202320Z 28004KT CAVOK 07/M03 Q1021=
201504202250 METAR ESMX 202250Z 27006KT CAVOK 07/M03 Q1021=
201504202220 METAR ESMX 202220Z 26005KT CAVOK 07/M03 Q1021=
201504202150 METAR ESMX 202150Z 27005KT CAVOK 09/M03 Q1022=
201504202120 METAR ESMX 202120Z 27005KT CAVOK 09/M04 Q1022=
201504202050 METAR ESMX 202050Z 25004KT CAVOK 06/M02 Q1022=
201504202020 METAR ESMX 202020Z 19003KT CAVOK 05/M02 Q1023=
201504201950 METAR ESMX 201950Z 25003KT CAVOK 07/M03 Q1023=
201504201920 METAR ESMX 201920Z 27002KT CAVOK 08/M03 Q1023=
201504201850 METAR ESMX 201850Z 29003KT CAVOK 10/M03 Q1023=
201504201820 METAR ESMX 201820Z 32005KT CAVOK 12/M04 Q1023=
201504201750 METAR ESMX 201750Z 32008KT CAVOK 14/M04 Q1023=
201504201720 METAR ESMX 201720Z 34007KT CAVOK 15/M03 Q1023=
201504201650 METAR ESMX 201650Z 34009KT CAVOK 15/M04 Q1023=
201504201620 METAR ESMX 201620Z 33010KT CAVOK 16/M05 Q1023=
201504201550 METAR ESMX 201550Z 32012KT CAVOK 16/M03 Q1023=
201504201520 METAR COR ESMX 201520Z 33012KT CAVOK 16/M02 Q1023=
201504201450 METAR ESMX 201450Z 34008KT 290V350 CAVOK 17/00 Q1023=
201504201420 METAR COR ESMX 201420Z 34011KT CAVOK 17/01 Q1024=
201504201350 METAR ESMX 201350Z 35011KT CAVOK 16/00 Q1024=
201504201320 METAR ESMX 201320Z 33012KT CAVOK 16/01 Q1024=
201504201250 METAR ESMX 201250Z 33011KT 300V360 CAVOK 16/01 Q1024=
201504201220 METAR ESMX 201220Z 35011KT CAVOK 16/00 Q1024=
201504201150 METAR ESMX 201150Z 34010KT 300V010 CAVOK 16/00 Q1024=
201504201120 METAR ESMX 201120Z 36010KT CAVOK 16/00 Q1024=
201504201050 METAR ESMX 201050Z 34011KT CAVOK 15/00 Q1024=
201504201020 METAR ESMX 201020Z 34012KT CAVOK 14/M00 Q1024=
201504200950 METAR COR ESMX 200950Z 35011KT 320V020 CAVOK 14/00 Q1024=
201504200920 METAR COR ESMX 200920Z 34011KT CAVOK 13/00 Q1024=
201504200850 METAR ESMX 200850Z 01012KT CAVOK 13/00 Q1025=
201504200820 METAR ESMX 200820Z 36014KT CAVOK 12/M00 Q1024=
201504200750 METAR ESMX 200750Z 01011KT CAVOK 11/M01 Q1024=
201504200720 METAR COR ESMX 200720Z 01011KT CAVOK 11/M00 Q1024=
201504200650 METAR ESMX 200650Z 01013KT CAVOK 09/M01 Q1024=
201504200620 METAR ESMX 200620Z 01011KT CAVOK 09/M01 Q1024=
201504200550 METAR ESMX 200550Z 36009KT CAVOK 08/M01 Q1023=
201504200520 METAR ESMX 200520Z 35009KT CAVOK 07/M01 Q1023=
201504200450 METAR ESMX 200450Z 35008KT CAVOK 06/M01 Q1023=
201504200420 METAR ESMX 200420Z 35009KT CAVOK 05/M01 Q1022=
201504200350 METAR ESMX 200350Z 35008KT CAVOK 04/M01 Q1022=
201504200323 METAR ESMX 200323Z 34007KT CAVOK 04/M02 Q1022=
201504200250 METAR ESMX 200250Z AUTO 34009KT 9999 NCD 05/M02 Q1022=
201504200220 METAR ESMX 200220Z AUTO 35008KT 9999 NCD 06/M02 Q1021=
201504200150 METAR ESMX 200150Z AUTO 35010KT 9999 NCD 06/M01 Q1021=
201504200120 METAR ESMX 200120Z AUTO 35010KT 9999 NCD 06/M01 Q1021=
201504200050 METAR ESMX 200050Z AUTO 36009KT 9999 NCD 06/M01 Q1021=
201504200020 METAR ESMX 200020Z AUTO 34009KT 9999 NCD 05/M01 Q1021=
201504192350 METAR ESMX 192350Z AUTO 34007KT 9999 NCD 06/M00 Q1020=
201504192320 METAR ESMX 192320Z AUTO 33006KT 9999 NCD 05/01 Q1020=
201504192250 METAR ESMX 192250Z 32006KT 270V340 CAVOK 05/02 Q1020=
201504192220 METAR ESMX 192220Z 31007KT CAVOK 06/02 Q1020=
201504192150 METAR ESMX 192150Z 30006KT CAVOK 07/03 Q1020=
201504192120 METAR ESMX 192120Z 30007KT 270V330 CAVOK 07/03 Q1020=
201504192050 METAR ESMX 192050Z 29008KT CAVOK 08/03 Q1020=
201504192020 METAR ESMX 192020Z 28008KT CAVOK 09/02 Q1019=
201504191950 METAR ESMX 191950Z 27005KT CAVOK 08/02 Q1019=
201504191920 METAR ESMX 191920Z 28004KT CAVOK 09/02 Q1020=
201504191850 METAR ESMX 191850Z AUTO 30005KT 9999 NCD 09/02 Q1020=
201504191820 METAR ESMX 191820Z 32008KT CAVOK 10/02 Q1020=
201504191754 METAR ESMX 191754Z 33010KT CAVOK 11/02 Q1020=
201504191750 METAR ESMX 191750Z AUTO 32011KT 9999 NCD 11/02 Q1020=
201504191724 METAR ESMX 191724Z 32010KT CAVOK 12/02 Q1020=
201504191720 METAR ESMX 191720Z AUTO 32010KT 9999 NCD 12/02 Q1020=
201504191652 METAR ESMX 191652Z 30010KT CAVOK 13/02 Q1020=
201504191620 METAR ESMX 191620Z 30011KT CAVOK 14/02 Q1019=
201504191550 METAR COR ESMX 191550Z 29011KT CAVOK 14/02 Q1019=
201504191520 METAR ESMX 191520Z 31013KT 280V350 CAVOK 14/01 Q1020=
201504191450 METAR ESMX 191450Z 29012KT CAVOK 13/01 Q1020=
201504191420 METAR COR ESMX 191420Z 30011KT CAVOK 13/01 Q1021=
201504191350 METAR ESMX 191350Z 31012KT CAVOK 12/01 Q1021=
201504191320 METAR COR ESMX 191320Z 30012KT CAVOK 12/01 Q1021=
201504191250 METAR ESMX 191250Z 32011KT 300V360 CAVOK 11/01 Q1022=
201504191220 METAR ESMX 191220Z 32012KT 280V350 CAVOK 11/00 Q1022=
201504191150 METAR ESMX 191150Z 34010KT 300V010 CAVOK 11/01 Q1022=
201504191120 METAR ESMX 191120Z 33010KT 290V350 9999 FEW036 SCT200 12/01 Q1022=
201504191050 METAR ESMX 191050Z AUTO 34009KT 300V020 9999 FEW040/// 11/01 Q1023=
201504191020 METAR COR ESMX 191020Z 34011KT 9999 BKN041 11/00 Q1023=
201504190950 METAR ESMX 190950Z 34010KT 9999 BKN039 11/01 Q1023=
201504190920 METAR ESMX 190920Z 35009KT 9999 BKN040 11/M00 Q1023=
201504190850 METAR ESMX 190850Z 34009KT 310V030 9999 BKN038 10/01 Q1023=
201504190820 METAR ESMX 190820Z AUTO 34010KT 9999 SCT040/// 10/00 Q1023=
201504190750 METAR ESMX 190750Z AUTO 35010KT 9999 FEW037/// 08/00 Q1023=
201504190720 METAR ESMX 190720Z AUTO 35010KT 9999 FEW034/// 09/00 Q1023=
201504190650 METAR ESMX 190650Z AUTO 01006KT 9999 NCD 08/01 Q1023=
201504190620 METAR ESMX 190620Z AUTO 34007KT 9999 NCD 07/01 Q1023=
201504190550 METAR ESMX 190550Z AUTO 35006KT 9999 NCD 07/01 Q1023=
201504190520 METAR ESMX 190520Z AUTO 36007KT 9999 NCD 06/01 Q1023=
201504190450 METAR ESMX 190450Z AUTO 35004KT 9999 NCD 04/01 Q1022=
201504190420 METAR ESMX 190420Z AUTO 36003KT 9999 BKN059/// 04/01 Q1022=
201504190350 METAR ESMX 190350Z AUTO 36003KT 9999 OVC060/// 04/01 Q1022=
201504190320 METAR ESMX 190320Z AUTO VRB01KT 9999 OVC061/// 04/01 Q1022=
201504190250 METAR ESMX 190250Z AUTO 02003KT 9999 OVC061/// 04/01 Q1022=
201504190220 METAR ESMX 190220Z AUTO 01004KT 9999 OVC059/// 04/01 Q1022=
201504190150 METAR ESMX 190150Z AUTO 01003KT 9999 OVC059/// 04/01 Q1022=
201504190120 METAR ESMX 190120Z AUTO 01005KT 9999 OVC058/// 03/01 Q1021=
201504190050 METAR ESMX 190050Z AUTO VRB03KT 9999 BKN058/// 02/M00 Q1021=
201504190020 METAR ESMX 190020Z AUTO VRB02KT 9999 NCD 02/M01 Q1021=
201504182350 METAR ESMX 182350Z AUTO 02004KT 9999 SCT062/// 03/M00 Q1020=
201504182320 METAR ESMX 182320Z AUTO 02003KT 9999 FEW066/// 03/01 Q1020=
201504182250 METAR ESMX 182250Z AUTO VRB02KT 9999 NCD 02/M00 Q1020=
201504182220 METAR ESMX 182220Z AUTO VRB01KT 9999 NCD 03/M00 Q1020=
201504182150 METAR ESMX 182150Z AUTO VRB03KT 9999 NCD 05/M00 Q1019=
201504182120 METAR ESMX 182120Z AUTO 34004KT 9999 FEW066/// 05/00 Q1019=
201504182050 METAR ESMX 182050Z AUTO 36003KT 9999 OVC062/// 07/00 Q1019=
201504182020 METAR ESMX 182020Z AUTO 36003KT 9999 BKN060/// 05/01 Q1019=
201504181950 METAR ESMX 181950Z AUTO 01004KT 3000 SCT065/// 06/00 Q1019=
201504181920 METAR ESMX 181920Z AUTO 36002KT 9999 BKN055/// 06/M00 Q1019=
201504181850 METAR ESMX 181850Z AUTO 01002KT 9999 BKN057/// 06/M01 Q1018=
201504181820 METAR ESMX 181820Z AUTO 35003KT 9999 SCT061/// 07/M01 Q1018=
201504181750 METAR ESMX 181750Z AUTO 34006KT 9999 NCD 08/M02 Q1018=
201504181720 METAR ESMX 181720Z AUTO 33009KT 9999 NCD 10/M02 Q1018=
201504181650 METAR ESMX 181650Z AUTO 33012KT 9999 NCD 12/M02 Q1018=
201504181620 METAR ESMX 181620Z AUTO 32010KT 9999 FEW060/// 12/M01 Q1018=
201504181550 METAR ESMX 181550Z AUTO 30011KT 280V340 9999 SCT058/// 13/M01 Q1018=
201504181520 METAR ESMX 181520Z AUTO 30011KT 260V330 9999 FEW057/// 13/M00 Q1018=
201504181450 METAR ESMX 181450Z AUTO 29009KT 250V320 9999 BKN057/// 12/M01 Q1019=
201504181420 METAR ESMX 181420Z AUTO 28011KT 9999 BKN056/// 13/M01 Q1019=
201504181350 METAR ESMX 181350Z AUTO 28009KT 230V330 9999 FEW055/// 14/M00 Q1019=
201504181320 METAR ESMX 181320Z AUTO 29007KT 240V010 9999 FEW055/// 14/M00 Q1019=
201504181250 METAR ESMX 181250Z AUTO 29010KT 260V350 9999 SCT053/// 12/M01 Q1020=
201504181220 METAR ESMX 181220Z AUTO 32009KT 9999 SCT052/// 12/M01 Q1021=
201504181150 METAR ESMX 181150Z AUTO 32009KT 290V010 9999 BKN051/// 12/00 Q1021=
201504181120 METAR ESMX 181120Z AUTO 34009KT 300V020 9999 BKN048/// 12/00 Q1021=
201504181050 METAR ESMX 181050Z AUTO 35012KT 9999 BKN046/// 12/M01 Q1021=
201504181020 METAR ESMX 181020Z AUTO 34014KT 9999 FEW044/// SCT058/// 12/00 Q1022=
201504180950 METAR ESMX 180950Z AUTO 32010KT 290V350 9999 NCD 10/01 Q1022=
201504180920 METAR ESMX 180920Z AUTO 32012KT 290V350 9999 FEW040/// 10/01 Q1022=
201504180850 METAR ESMX 180850Z AUTO 32011KT 290V350 9999 NCD 09/00 Q1022=
201504180820 METAR ESMX 180820Z AUTO 31010KT 9999 NCD 08/00 Q1022=
201504180750 METAR ESMX 180750Z AUTO 32008KT 9999 NCD 08/00 Q1022=
201504180720 METAR ESMX 180720Z AUTO 31009KT 9999 SCT045/// 06/M00 Q1023=
201504180650 METAR ESMX 180650Z AUTO 32010KT 290V350 9999 NCD 05/M00 Q1023=
201504180620 METAR ESMX 180620Z AUTO 33007KT 9999 FEW048/// 04/M01 Q1023=
201504180550 METAR ESMX 180550Z AUTO 31006KT 9999 NCD 02/M01 Q1023=
201504180520 METAR ESMX 180520Z AUTO 31003KT 9999 NCD 01/M01 Q1023=
201504180450 METAR ESMX 180450Z AUTO 31004KT 270V340 9999 NCD M00/M02 Q1023=
201504180420 METAR ESMX 180420Z AUTO 32003KT 9999 NCD M00/M02 Q1023=
201504180350 METAR ESMX 180350Z AUTO 32004KT 9999 NCD M01/M02 Q1023=
201504180320 METAR ESMX 180320Z AUTO 32004KT 9999 NCD M01/M02 Q1023=
201504180250 METAR ESMX 180250Z AUTO 32006KT 9999 NCD M00/M02 Q1023=
201504180220 METAR ESMX 180220Z AUTO 33006KT 9999 NCD M00/M02 Q1023=
201504180150 METAR ESMX 180150Z AUTO 34006KT 9999 NCD M00/M02 Q1022=
201504180120 METAR ESMX 180120Z AUTO 34005KT 9999 NCD M00/M02 Q1022=
201504180050 METAR ESMX 180050Z AUTO 33007KT 9999 NCD 00/M02 Q1022=
201504180020 METAR ESMX 180020Z AUTO 30004KT 9999 NCD M00/M02 Q1022=
201504172350 METAR ESMX 172350Z AUTO 34007KT 9999 NCD 01/M02 Q1022=
201504172320 METAR ESMX 172320Z AUTO 32005KT 9999 BKN030/// 01/M01 Q1022=
201504172250 METAR ESMX 172250Z AUTO 34007KT 9999 OVC032/// 02/M01 Q1021=
201504172220 METAR ESMX 172220Z AUTO 31005KT 9999 OVC034/// 01/M01 Q1021=
201504172150 METAR ESMX 172150Z AUTO 34007KT 9999 FEW036/// 02/M02 Q1021=
201504172120 METAR ESMX 172120Z AUTO 33008KT 9999 FEW044/// 02/M02 Q1020=
201504172050 METAR ESMX 172050Z AUTO 34008KT 9999 BKN044/// 03/M01 Q1020=
201504172020 METAR ESMX 172020Z AUTO 35007KT 9999 SCT047/// 03/M01 Q1020=
201504171950 METAR ESMX 171950Z AUTO 33009KT 9999 NCD 03/M01 Q1020=
201504171920 METAR ESMX 171920Z AUTO 34009KT 9999 FEW059/// 03/M01 Q1019=
201504171850 METAR ESMX 171850Z AUTO 34008KT 9999 NCD 03/M00 Q1019=
201504171820 METAR ESMX 171820Z AUTO 35012KT 9999 SCT056/// OVC075/// 05/M02 Q1018=
201504171750 METAR ESMX 171750Z AUTO 36011KT 9999 FEW035/// SCT042/// BKN056/// 05/M00 Q1018=
201504171720 METAR ESMX 171720Z 34005KT 9999 FEW032 FEW035CB SCT081 05/01 Q1017=
201504171650 METAR ESMX 171650Z 35005KT 9999 FEW030 BKN080 05/01 Q1017=
201504171620 METAR ESMX 171620Z 36005KT 9999 FEW025 BKN072 04/01 Q1017=
201504171550 METAR ESMX 171550Z 03006KT 9999 FEW009 FEW020CB SCT037 BKN056 04/01 Q1016=
201504171520 METAR ESMX 171520Z 01008KT 330V050 9999 FEW035 SCT040CB 08/M00 Q1016=
201504171450 METAR ESMX 171450Z 36010KT 9999 FEW022 SCT073 07/00 Q1015=
201504171420 METAR ESMX 171420Z 01011KT 9999 FEW024 06/01 Q1015=
201504171350 METAR ESMX 171350Z 02011KT 9999 FEW013 FEW020CB SCT046 BKN090 05/01 Q1015=
201504171320 METAR ESMX 171320Z 36020KT 9999 -SHRA FEW032 FEW033CB SCT045 06/01 Q1014=
201504171250 METAR ESMX 171250Z 34011KT 9999 FEW010 FEW015CB 06/02 Q1014=
201504171220 METAR ESMX 171220Z 01018KT 9999 -RA FEW008 SCT027 BKN050 04/02 Q1014=
201504171150 METAR ESMX 171150Z 33016KT 9999 FEW040 FEW041CB SCT049 05/02 Q1013=
201504171120 METAR ESMX 171120Z 36009KT 9999 FEW010 SCT030CB 08/01 Q1012=
201504171050 METAR ESMX 171050Z 36006KT 320V040 9999 FEW028CB SCT050 06/02 Q1012=
201504171020 METAR ESMX 171020Z 04005KT 9999 FEW008 SCT032 04/03 Q1012=
201504170950 METAR COR ESMX 170950Z 01012KT 9999 RA FEW009 SCT039 BKN060 05/01 Q1012=
201504170920 METAR ESMX 170920Z 35007KT 9999 FEW010 BKN020CB 04/03 Q1012 RESHRA=
201504170850 METAR ESMX 170850Z 34013KT 9999 -SHRA FEW008 BKN020CB 03/02 Q1011=
201504170820 METAR ESMX 170820Z 33009KT 290V010 9999 SCT020 BKN025 05/01 Q1011=
201504170750 METAR ESMX 170750Z 33010KT 9999 SCT020 BKN048 05/01 Q1010=
201504170720 METAR ESMX 170720Z 33009KT 9999 SCT020 BKN060 05/02 Q1010=
201504170650 METAR ESMX 170650Z 33009KT 9999 FEW038 05/01 Q1010=
201504170620 METAR ESMX 170620Z 33007KT 9999 FEW040 SCT070 04/01 Q1009=
201504170550 METAR ESMX 170550Z 31006KT CAVOK 03/00 Q1009=
201504170520 METAR ESMX 170520Z 32006KT CAVOK 02/M01 Q1008=
201504170450 METAR ESMX 170450Z 32008KT CAVOK 01/M01 Q1008=
201504170420 METAR ESMX 170420Z 33005KT CAVOK 01/M01 Q1008=
201504170350 METAR ESMX 170350Z AUTO 31005KT 9999 NCD 01/M01 Q1008=
201504170320 METAR ESMX 170320Z AUTO 30005KT 9999 NCD 01/M01 Q1007=
201504170250 METAR ESMX 170250Z AUTO 29005KT 9999 NCD 01/M01 Q1007=
201504170220 METAR ESMX 170220Z AUTO 28007KT 9999 NCD 01/M00 Q1007=
201504170150 METAR ESMX 170150Z AUTO 28007KT 9999 NCD 01/M00 Q1007=
201504170120 METAR ESMX 170120Z AUTO 28005KT 9999 BKN064/// 01/M00 Q1007=
201504170050 METAR ESMX 170050Z AUTO 27004KT 9999 BKN067/// 01/M00 Q1007=
201504170020 METAR ESMX 170020Z AUTO 26004KT 9999 BKN070/// 01/M00 Q1007=
201504162350 METAR ESMX 162350Z 28003KT CAVOK 01/M00 Q1007=
201504162320 METAR ESMX 162320Z 26005KT CAVOK 02/00 Q1007=
201504162250 METAR ESMX 162250Z 26005KT CAVOK 02/01 Q1006=
201504162220 METAR ESMX 162220Z 25005KT CAVOK 02/01 Q1006=
201504162150 METAR ESMX 162150Z 25005KT CAVOK 02/01 Q1006=
201504162120 METAR ESMX 162120Z 27007KT CAVOK 04/01 Q1006=
201504162050 METAR ESMX 162050Z 27008KT CAVOK 04/02 Q1006=
201504162020 METAR ESMX 162020Z 29008KT 260V330 9999 FEW014 BKN068 04/02 Q1006=
201504161950 METAR ESMX 161950Z 31010KT 260V330 9999 -DZ FEW024CB SCT043 BKN050 04/02 Q1006=
201504161920 METAR ESMX 161920Z 24003KT 9999 FEW016CB BKN047 04/03 Q1006=
201504161850 METAR ESMX 161850Z 31005KT 280V010 9999 FEW022CB BKN047 04/03 Q1006=
201504161820 METAR ESMX 161820Z 26005KT 9999 FEW025CB SCT055 05/02 Q1005 REDZ=
201504161750 METAR ESMX 161750Z 26009G20KT 220V300 9999 -SHRA FEW015CB SCT018 05/02 Q1005=
201504161720 METAR ESMX 161720Z 34011G21KT 7000 -SHRA FEW020CB BKN040 04/02 Q1006=
201504161650 METAR ESMX 161650Z 27004KT 9999 VCSH FEW023CB SCT045 05/03 Q1005=
201504161620 METAR ESMX 161620Z 34006KT 9999 VCSH FEW022CB SCT045 05/03 Q1005=
201504161550 METAR ESMX 161550Z 28014KT 9999 -SHRA FEW020CB SCT035 06/03 Q1005=
201504161520 METAR COR ESMX 161520Z 27014KT 9999 SHRA FEW020CB SCT042 06/03 Q1005=
201504161450 METAR ESMX 161450Z 34013KT 9999 VCSH FEW020CB SCT043 07/03 Q1004=
201504161420 METAR ESMX 161420Z 31008KT 9999 VCSH SCT025 07/04 Q1004=
201504161350 METAR ESMX 161350Z 29006KT 9999 VCSH FEW020CB SCT035 07/05 Q1004=
201504161320 METAR ESMX 161320Z 31013KT 280V340 9999 -SHRA FEW020CB SCT027 06/02 Q1004=
201504161250 METAR ESMX 161250Z 27007KT 230V300 9999 -SHRA FEW020CB SCT027 08/04 Q1004=
201504161220 METAR ESMX 161220Z 23010G20KT 210V270 9999 VCSH SCT025CB 06/05 Q1004=
201504161150 METAR ESMX 161150Z 33009KT 9999 SHRA SCT007CB BKN030 07/03 Q1004=
201504161120 METAR ESMX 161120Z 27010KT 220V310 9999 FEW030 SCT048 BKN063 09/01 Q1004=
201504161050 METAR ESMX 161050Z 25012KT 210V300 9999 FEW028 SCT062 10/02 Q1004=
201504161020 METAR ESMX 161020Z 26012KT 230V290 9999 FEW027 BKN035 09/02 Q1004=
201504160950 METAR ESMX 160950Z 26010KT 220V300 9999 FEW028 BKN035 08/02 Q1004=
201504160920 METAR COR ESMX 160920Z 27011KT 240V310 9999 FEW022 BKN028 08/02 Q1004=
201504160850 METAR ESMX 160850Z 28011KT 250V310 9999 BKN020 07/02 Q1004=
201504160820 METAR ESMX 160820Z 27012KT 240V300 9999 FEW018 BKN020 07/03 Q1004=
201504160750 METAR ESMX 160750Z 27011KT 230V290 9999 BKN015 06/02 Q1004=
201504160720 METAR ESMX 160720Z 27011KT 240V300 9999 BKN013 05/02 Q1004=
201504160650 METAR ESMX 160650Z 27010KT 250V320 9999 BKN011 05/02 Q1004=
201504160620 METAR ESMX 160620Z 27012KT 240V300 9999 BKN010 04/02 Q1004=
201504160550 METAR ESMX 160550Z 26010KT 9999 FEW009 04/02 Q1003=
201504160520 METAR ESMX 160520Z 26010KT CAVOK 03/01 Q1003=
201504160450 METAR ESMX 160450Z 27010KT CAVOK 02/01 Q1003=
201504160420 METAR ESMX 160420Z 27009KT CAVOK 02/01 Q1003=
201504160350 METAR ESMX 160350Z 27009KT CAVOK 02/01 Q1002=
201504160320 METAR ESMX 160320Z AUTO 27008KT 9999 NCD 02/01 Q1003=
201504160250 METAR ESMX 160250Z AUTO 27009KT 9999 NCD 03/01 Q1003=
201504160220 METAR ESMX 160220Z AUTO 27007KT 9999 NCD 03/01 Q1003=
201504160150 METAR ESMX 160150Z AUTO 27010KT 9999 NCD 03/01 Q1002=
201504160120 METAR ESMX 160120Z AUTO 27010KT 9999 NCD 03/01 Q1002=
201504160050 METAR ESMX 160050Z AUTO 27010KT 9999 NCD 03/01 Q1002=
201504160020 METAR ESMX 160020Z AUTO 28010KT 9999 NCD 03/01 Q1002=
201504152350 METAR ESMX 152350Z 28011KT CAVOK 04/01 Q1001=
201504152320 METAR ESMX 152320Z 27011KT CAVOK 04/01 Q1001=
201504152250 METAR ESMX 152250Z 27012KT CAVOK 04/01 Q1001=
201504152220 METAR COR ESMX 152220Z 28012KT 250V310 CAVOK 04/02 Q1000=
201504152150 METAR ESMX 152150Z 28012KT 9999 FEW022 BKN027 05/03 Q1000=
201504152120 METAR ESMX 152120Z 28013KT 9999 FEW014 SCT018 BKN022 06/04 Q1000=
201504152050 METAR ESMX 152050Z 27013KT 240V300 9999 FEW014 SCT018 BKN021 06/04 Q0999=
201504152020 METAR ESMX 152020Z 28015KT 9999 FEW015 SCT020 BKN026 07/05 Q0999=
201504151950 METAR ESMX 151950Z 27015G29KT 9999 -RA FEW013 SCT017 BKN028 07/05 Q0999=
201504151920 METAR ESMX 151920Z 26017G27KT 9999 -DZ FEW011 SCT014 BKN018 07/05 Q0998 RERA=
201504151850 METAR ESMX 151850Z 26016KT 9999 -DZ FEW012 SCT014 BKN017 07/06 Q0998 RERA=
201504151820 METAR ESMX 151820Z 26017G27KT 9999 -RA FEW007 BKN013 08/06 Q0998 RERA=
201504151750 METAR ESMX 151750Z 25014KT 8000 -DZ FEW008 BKN010 08/07 Q0998=
201504151720 METAR ESMX 151720Z 25012G22KT 9999 -RA FEW008 BKN010 08/07 Q0998=
201504151650 METAR ESMX 151650Z 25012KT 210V280 9999 FEW007 BKN010 08/07 Q0999=
201504151620 METAR ESMX 151620Z 26013KT 9999 -RA FEW008 BKN010 09/07 Q0999=
201504151550 METAR ESMX 151550Z 25013KT 7000 -RA FEW004 BKN008 09/08 Q0999=
201504151520 METAR ESMX 151520Z 24012KT 5000 -RA FEW006 BKN008 09/08 Q0999=
201504151450 METAR ESMX 151450Z 22014KT 7000 RA FEW006 BKN008 09/08 Q1000=
201504151420 METAR ESMX 151420Z 24013KT 210V280 9999 RA FEW006 BKN009 09/08 Q1000=
201504151350 METAR ESMX 151350Z 22012KT 9999 RA FEW004 BKN007 09/08 Q1001=
201504151320 METAR ESMX 151320Z 24013KT 9999 RA FEW006 BKN008 09/08 Q1001=
201504151250 METAR ESMX 151250Z 23012KT 9999 RA FEW005 BKN008 09/09 Q1002=
201504151220 METAR ESMX 151220Z 22010KT 9999 RA FEW005 BKN009 10/09 Q1002=
201504151150 METAR ESMX 151150Z 21009KT 9999 RA SCT005 BKN009 09/09 Q1003=
201504151120 METAR ESMX 151120Z 21010KT 5000 RA SCT005 BKN008 09/09 Q1003=
201504151050 METAR ESMX 151050Z 22010KT 5000 RA SCT004 BKN008 09/08 Q1004=
201504151020 METAR ESMX 151020Z 19008KT 3000 RA FEW003 BKN005 08/08 Q1005=
201504150950 METAR ESMX 150950Z 20007KT 9000 -RA SCT005 BKN009 08/07 Q1005=
201504150920 METAR ESMX 150920Z 21007KT 9999 -RA SCT007 BKN015 07/06 Q1006=
201504150850 METAR ESMX 150850Z 23007KT 5000 -RA SCT006 BKN012 07/06 Q1007=
201504150820 METAR ESMX 150820Z 22006KT 7000 -DZ SCT006 BKN011 07/06 Q1007=
201504150750 METAR ESMX 150750Z 25006KT 220V280 9999 -RA FEW006 SCT010 BKN025 07/06 Q1007=
201504150720 METAR ESMX 150720Z 26006KT 8000 -RA FEW009 BKN013 07/06 Q1007=
201504150650 METAR ESMX 150650Z 24006KT 9999 FEW007 SCT015 BKN038 07/05 Q1008=
201504150620 METAR COR ESMX 150620Z 26007KT 9000 -RA FEW010 BKN017 06/05 Q1008=
201504150550 METAR COR ESMX 150550Z 27007KT 9000 -RA FEW010 BKN015 06/05 Q1008=
201504150520 METAR ESMX 150520Z 26008KT 9999 -RA SCT009 BKN014 06/05 Q1008=
201504150450 METAR ESMX 150450Z 25008KT 9999 -RA FEW010 BKN014 06/04 Q1008=
201504150420 METAR ESMX 150420Z 26007KT 9999 FEW014 BKN017 06/04 Q1008=
201504150350 METAR ESMX 150350Z 26007KT 9999 FEW013 BKN018 05/04 Q1008=
201504150320 METAR ESMX 150320Z 26008KT 9999 BKN015 06/04 Q1008=
201504150250 METAR ESMX 150250Z AUTO 27009KT 9999 FEW016/// BKN018/// 06/04 Q1008=
201504150220 METAR ESMX 150220Z AUTO 27010KT 9999 FEW015/// BKN020/// 06/04 Q1008=
201504150150 METAR ESMX 150150Z AUTO 27011KT 9999 FEW014/// BKN018/// BKN023/// 07/04 Q1008=
201504150120 METAR ESMX 150120Z AUTO 28013KT 9999 FEW015/// BKN019/// OVC024/// 07/04 Q1008=
201504150050 METAR ESMX 150050Z AUTO 27011KT 9999 FEW014/// SCT017/// BKN019/// 07/05 Q1008=
201504150020 METAR ESMX 150020Z AUTO 27011KT 9999 FEW013/// SCT016/// BKN019/// 07/05 Q1008=
201504142350 METAR ESMX 142350Z 27010KT 9999 BKN012 07/05 Q1008=
201504142320 METAR ESMX 142320Z 26011KT 9999 BKN012 BKN016 07/05 Q1008=
201504142250 METAR ESMX 142250Z 28013KT 9999 SCT014 BKN020 08/06 Q1008=
201504142220 METAR ESMX 142220Z 27013KT 9999 BKN010 BKN014 08/06 Q1008=
201504142150 METAR ESMX 142150Z 27014KT 9999 OVC008 08/07 Q1008=
201504142120 METAR ESMX 142120Z 28013KT 9000 BR OVC005 08/07 Q1008=
201504142050 METAR ESMX 142050Z 27012KT 230V300 6000 -RA OVC005 08/07 Q1008=
201504142020 METAR ESMX 142020Z 27013G23KT 9999 OVC006 08/07 Q1008=
201504141950 METAR ESMX 141950Z 26011KT 8000 BR OVC005 08/07 Q1008=
201504141920 METAR ESMX 141920Z 27013KT 5000 -RA OVC005 08/07 Q1008=
201504141850 METAR ESMX 141850Z 27013KT 7000 -RA OVC005 08/07 Q1008=
201504141820 METAR ESMX 141820Z 26014G26KT 9999 OVC005 08/07 Q1008=
201504141750 METAR ESMX 141750Z 26014KT 220V280 9999 OVC006 08/07 Q1008=
201504141720 METAR ESMX 141720Z 26012KT 9999 FEW005 BKN007 08/07 Q1008=
201504141650 METAR ESMX 141650Z 25013KT 9999 FEW005 BKN007 08/07 Q1008=
201504141620 METAR ESMX 141620Z 23009KT 200V260 6000 -DZ BKN003 07/06 Q1009=
201504141550 METAR ESMX 141550Z 23010KT 4000 -RADZ BKN002 06/06 Q1009=
201504141520 METAR COR ESMX 141520Z 22011KT 5000 DZ BKN003 06/05 Q1009=
201504141450 METAR ESMX 141450Z 21011KT 9999 FEW003 BKN004 05/05 Q1010=
201504141420 METAR ESMX 141420Z 20010KT 6000 -RADZ SCT004 BKN007 05/04 Q1011=
201504141350 METAR COR ESMX 141350Z 20010KT 6000 RA SCT005 BKN009 04/04 Q1011=
201504141320 METAR ESMX 141320Z 19011KT 8000 RA SCT005 BKN009 04/03 Q1012=
201504141250 METAR ESMX 141250Z 19011KT 8000 RA SCT004 BKN010 04/03 Q1013=
201504141220 METAR ESMX 141220Z 19013KT 6000 RA SCT006 BKN010 04/03 Q1014=
201504141150 METAR ESMX 141150Z 19012KT 8000 -RA FEW005 BKN009 04/03 Q1014=
201504141120 METAR ESMX 141120Z 20010KT 9999 -RA FEW006 BKN009 03/02 Q1015=
201504141050 METAR ESMX 141050Z 21009KT 8000 -RA FEW007 BKN013 03/02 Q1016=
201504141020 METAR ESMX 141020Z 23009KT 8000 -RA FEW009 SCT012 03/02 Q1016=
201504140950 METAR ESMX 140950Z 24012KT 7000 -RA FEW012 SCT017 04/02 Q1017=
201504140920 METAR ESMX 140920Z 24009KT 210V270 9999 -RA FEW019 05/01 Q1017=
201504140850 METAR ESMX 140850Z 25008KT 220V280 CAVOK 05/M00 Q1017=
201504140820 METAR ESMX 140820Z 25010KT 9999 FEW047 05/M00 Q1018=
201504140750 METAR ESMX 140750Z 25009KT 210V280 CAVOK 04/00 Q1018=
201504140720 METAR ESMX 140720Z 26008KT 220V290 CAVOK 04/01 Q1018=
201504140650 METAR ESMX 140650Z 25008KT CAVOK 03/00 Q1018=
201504140620 METAR ESMX 140620Z 26008KT CAVOK 02/00 Q1018=
201504140550 METAR ESMX 140550Z 26008KT CAVOK 02/00 Q1018=
201504140520 METAR ESMX 140520Z 26006KT CAVOK 01/M00 Q1018=
201504140450 METAR ESMX 140450Z 26005KT CAVOK 00/M00 Q1018=
201504140420 METAR ESMX 140420Z 25005KT CAVOK M00/M01 Q1018=
201504140350 METAR ESMX 140350Z AUTO 25006KT 9999 NCD M00/M01 Q1019=
201504140320 METAR ESMX 140320Z AUTO 26006KT 9999 NCD M00/M01 Q1018=
201504140250 METAR ESMX 140250Z AUTO 25006KT 9999 NCD M00/M01 Q1019=
201504140220 METAR ESMX 140220Z AUTO 26007KT 9999 NCD M00/M01 Q1018=
201504140150 METAR ESMX 140150Z AUTO 25006KT 9999 NCD 00/M02 Q1018=
201504140120 METAR ESMX 140120Z AUTO 27006KT 9999 NCD 01/M01 Q1019=
201504140050 METAR ESMX 140050Z AUTO 26008KT 9999 NCD 01/M02 Q1019=
201504140020 METAR ESMX 140020Z AUTO 26008KT 9999 NCD 01/M02 Q1019=
201504132350 METAR ESMX 132350Z 26007KT CAVOK 01/M02 Q1019=
201504132320 METAR ESMX 132320Z 26008KT CAVOK 01/M01 Q1019=
201504132250 METAR ESMX 132250Z 26008KT 230V290 CAVOK 02/M01 Q1019=
201504132220 METAR ESMX 132220Z 26009KT CAVOK 02/M01 Q1019=
201504132150 METAR ESMX 132150Z 26009KT CAVOK 03/M01 Q1019=
201504132120 METAR ESMX 132120Z 25009KT CAVOK 02/M01 Q1019=
201504132050 METAR ESMX 132050Z 23007KT CAVOK 02/M01 Q1019=
201504132020 METAR ESMX 132020Z 22005KT CAVOK 01/M01 Q1019=
201504131950 METAR ESMX 131950Z 25004KT CAVOK 02/M00 Q1018=
201504131920 METAR ESMX 131920Z 31003KT 9999 FEW039 BKN100 03/01 Q1018=
201504131850 METAR ESMX 131850Z 01012KT 9999 FEW025 SCT100 05/01 Q1018=
201504131820 METAR ESMX 131820Z 31013KT 9999 FEW018 SCT035 06/M00 Q1018=
201504131750 METAR ESMX 131750Z 35011KT 310V020 9999 -RA FEW016 BKN048 06/01 Q1017=
201504131720 METAR ESMX 131720Z 26010KT 9999 FEW030CB 08/M02 Q1017=
201504131650 METAR COR ESMX 131650Z 27015KT 9999 FEW015CB SCT037 09/M02 Q1016=
201504131620 METAR ESMX 131620Z 28013KT 250V320 9999 FEW023CB 10/M02 Q1016=
201504131550 METAR ESMX 131550Z 28014G24KT CAVOK 10/M02 Q1015=
201504131520 METAR COR ESMX 131520Z 28014KT CAVOK 10/M02 Q1015=
201504131450 METAR ESMX 131450Z 29017KT 260V330 CAVOK 10/M02 Q1015=
201504131420 METAR ESMX 131420Z 27014KT CAVOK 10/M02 Q1014=
201504131350 METAR ESMX 131350Z 27015KT 240V300 CAVOK 10/M03 Q1014=
201504131320 METAR ESMX 131320Z 28013KT 250V320 CAVOK 09/M03 Q1014=
201504131250 METAR ESMX 131250Z 28015KT 9999 SCT045 10/M03 Q1014=
201504131220 METAR ESMX 131220Z 27014G25KT 240V300 9999 SCT045 09/M03 Q1014=
201504131150 METAR ESMX 131150Z 27015KT 9999 SCT048 09/M02 Q1013=
201504131120 METAR ESMX 131120Z 29014KT 9999 SCT043 09/M02 Q1013=
201504131050 METAR ESMX 131050Z 27015KT 9999 SCT039 09/M00 Q1012=
201504131020 METAR ESMX 131020Z 27016KT 9999 SCT039 08/M02 Q1012=
201504130950 METAR ESMX 130950Z 30016KT 9999 BKN036 07/M01 Q1012=
201504130920 METAR COR ESMX 130920Z 28016KT 250V320 9999 BKN037 07/M02 Q1012=
201504130850 METAR COR ESMX 130850Z 29015G26KT 9999 BKN028 06/M00 Q1011=
201504130820 METAR ESMX 130820Z 28014KT 9999 FEW022 BKN025 06/01 Q1011=
201504130750 METAR ESMX 130750Z 27014KT 250V310 9999 FEW019 BKN023 05/01 Q1010=
201504130720 METAR ESMX 130720Z 28013KT 250V320 9999 FEW017 BKN027 04/01 Q1010=
201504130650 METAR ESMX 130650Z 27015KT 9999 FEW017 SCT023 04/01 Q1010=
201504130620 METAR ESMX 130620Z 28012KT 9999 SCT010 BKN021 04/02 Q1010=
201504130550 METAR ESMX 130550Z 27009KT 9999 SCT007 BKN022 03/02 Q1009=
201504130520 METAR ESMX 130520Z 27008KT 9999 FEW005 SCT015 BKN024 02/02 Q1009=
201504130450 METAR ESMX 130450Z 27009KT 9999 BKN005 01/01 Q1008=
201504130420 METAR ESMX 130420Z 26009KT 7000 -RA BKN003 OVC005 01/01 Q1008=
201504130350 METAR ESMX 130350Z 27009KT 9999 -RA OVC003 01/01 Q1008=
201504130320 METAR ESMX 130320Z AUTO 26006KT 9999 -RA FEW003/// OVC004/// 01/01 Q1008 RESHUP RESG=
201504130250 METAR ESMX 130250Z AUTO 25006KT 220V280 9999 UP OVC003/// 01/01 Q1008=
201504130220 METAR ESMX 130220Z AUTO 23005KT 9999 -SN BKN002/// OVC005/// 01/01 Q1008 RERASN=
201504130150 METAR ESMX 130150Z AUTO 23005KT 4800 -RASN FEW002/// SCT004/// OVC005/// 01/01 Q1009=
201504130120 METAR ESMX 130120Z AUTO 22007KT 4500 -RASN FEW003/// BKN005/// OVC008/// 01/01 Q1009 RERA=
201504130050 METAR ESMX 130050Z AUTO 20008KT 6000 -RA FEW004/// BKN006/// OVC009/// 02/01 Q1009=
201504130020 METAR ESMX 130020Z AUTO 21009KT 8000 -RA FEW005/// BKN007/// OVC009/// 03/02 Q1010=
201504122350 METAR ESMX 122350Z AUTO 21007KT 9000 -RA FEW006/// BKN008/// OVC010/// 03/02 Q1010 REDZ=
201504122320 METAR COR ESMX 122320Z 21008KT 9999 -RA SCT007 OVC010 03/02 Q1010=
201504122250 METAR ESMX 122250Z 19007KT 9999 -DZ SCT005 BKN010 03/03 Q1011=
201504122220 METAR ESMX 122220Z 20007KT 9999 -DZ FEW008 OVC010 03/03 Q1012=
201504122150 METAR ESMX 122150Z 22009KT 9999 -DZ SCT008 BKN016 03/02 Q1013=
201504122120 METAR COR ESMX 122120Z 20008KT 9999 -DZ FEW008 BKN012 03/02 Q1013=
201504122050 METAR ESMX 122050Z 22011KT 9000 -RA FEW009 BKN011 BKN022 03/03 Q1014=
201504122020 METAR ESMX 122020Z 21012KT 9999 -DZ FEW013 BKN017 BKN024 04/02 Q1015=
201504121950 METAR ESMX 121950Z 22012KT 9999 -SHRA FEW014 SCT018CB BKN023 04/03 Q1015=
201504121920 METAR ESMX 121920Z 23010KT 9999 -SHRA FEW018 SCT020 BKN030 05/02 Q1016=
201504121850 METAR ESMX 121850Z 23009KT 9999 SCT015 BKN040 05/03 Q1016=
201504121820 METAR ESMX 121820Z 23012KT 190V260 9999 FEW015 SCT025CB BKN040 05/03 Q1016=
201504121750 METAR ESMX 121750Z 23011KT 190V260 9999 -SHRA FEW012 SCT042 05/03 Q1016 REDZ=
201504121720 METAR ESMX 121720Z 22015G28KT 9999 SHRA SCT020 BKN040 05/03 Q1016=
201504121650 METAR ESMX 121650Z 24016KT 9999 FEW039 SCT054 BKN070 08/00 Q1016=
201504121620 METAR ESMX 121620Z 22016G26KT 9999 FEW039 SCT045 BKN059 09/00 Q1016=
201504121550 METAR ESMX 121550Z 23017G29KT 9999 FEW035CB SCT050 09/00 Q1016=
201504121520 METAR ESMX 121520Z 23017G27KT 9999 FEW038CB SCT056 09/01 Q1017=
201504121450 METAR ESMX 121450Z 24016KT 9999 FEW036CB 09/01 Q1017=
201504121420 METAR ESMX 121420Z 23014G25KT 200V260 9999 FEW019 SCT036CB BKN071 08/02 Q1017=
201504121350 METAR ESMX 121350Z 24014KT 200V270 9999 FEW025CB 09/02 Q1017=
201504121320 METAR ESMX 121320Z 25018G30KT 220V280 9999 FEW037CB 10/02 Q1017=
201504121250 METAR ESMX 121250Z 24014G26KT 200V260 9999 FEW020 SCTCB035 BKN052 07/04 Q1017=
201504121220 METAR ESMX 121220Z 24014G26KT 200V280 9999 FEW025 BKN035 BKN055 08/02 Q1017=
201504121150 METAR ESMX 121150Z 24017G31KT 9999 FEW035 SCT051 BKN065 09/M00 Q1017=
201504121120 METAR ESMX 121120Z 25020G30KT 220V280 9999 FEW036 SCT046 BKN059 09/01 Q1017=
201504121050 METAR ESMX 121050Z 25020G32KT 220V280 9999 SCT039 BKN051 10/00 Q1017=
201504121020 METAR ESMX 121020Z 27016G32KT 240V300 9999 FEW040 SCT045 BKN052 09/M00 Q1016=
201504120950 METAR ESMX 120950Z 26018G32KT 230V290 9999 FEW038 SCT050 09/00 Q1016=
201504120920 METAR ESMX 120920Z AUTO 27016G27KT 9999 FEW039/// 08/00 Q1016=
201504120850 METAR ESMX 120850Z AUTO 27018G35KT 230V300 9999 FEW007/// SCT033/// BKN039/// 08/00 Q1016 RESHUP REUP=
201504120820 METAR ESMX 120820Z AUTO 26020KT 9999 FEW030/// SCT046/// BKN066/// 07/01 Q1015=
201504120750 METAR ESMX 120750Z AUTO 26017KT 9999 SCT026/// BKN039/// 07/01 Q1015=
201504120720 METAR ESMX 120720Z AUTO 26017G30KT 230V290 9999 FEW026/// BKN031/// 07/01 Q1014=
201504120650 METAR ESMX 120650Z AUTO 26018G29KT 9999 FEW027/// BKN032/// 07/01 Q1014=
201504120620 METAR ESMX 120620Z AUTO 26015G25KT 220V290 9999 FEW029/// SCT033/// 06/01 Q1014=
201504120550 METAR ESMX 120550Z AUTO 26017KT 230V310 9999 FEW028/// SCT032/// BKN036/// 06/01 Q1013=
201504120520 METAR ESMX 120520Z AUTO 26016KT 9999 FEW029/// SCT039/// 05/00 Q1013=
201504120450 METAR ESMX 120450Z AUTO 26016G28KT 9999 FEW025/// SCT031/// BKN038/// 05/00 Q1013=
201504120420 METAR ESMX 120420Z AUTO 25016G30KT 230V290 9999 FEW023/// SCT029/// BKN036/// 05/01 Q1012=
201504120350 METAR ESMX 120350Z AUTO 26017G27KT 9999 FEW022/// SCT026/// BKN030/// 05/01 Q1012 REUP=
201504120320 METAR ESMX 120320Z AUTO 25015G30KT 9999 FEW020/// SCT025/// BKN028/// 05/01 Q1011=
201504120250 METAR ESMX 120250Z AUTO 26015KT 9999 BKN021/// OVC032/// 05/01 Q1011=
201504120220 METAR ESMX 120220Z AUTO 26016G28KT 9999 FEW018/// SCT023/// BKN026/// 05/01 Q1011=
201504120150 METAR ESMX 120150Z AUTO 26016KT 210V280 9999 FEW015/// SCT020/// BKN023/// 05/02 Q1010=
201504120120 METAR ESMX 120120Z AUTO 25015KT 9999 FEW009/// BKN014/// BKN022/// 05/03 Q1010=
201504120050 METAR ESMX 120050Z AUTO 25013G24KT 9999 FEW011/// SCT014/// BKN017/// 06/04 Q1010 RESHUP RERA REDZ=
201504120020 METAR ESMX 120020Z AUTO 24015G27KT 9999 FEW010/// SCT013/// BKN017/// 06/05 Q1009=
201504112350 METAR ESMX 112350Z AUTO 22010KT 9999 -RA FEW009/// BKN012/// 07/06 Q1009=
201504112320 METAR ESMX 112320Z AUTO 22012KT 9999 RA FEW009/// SCT017/// 07/06 Q1009=
201504112250 METAR ESMX 112250Z AUTO 24010KT 9999 -RA FEW013/// SCT016/// BKN046/// 08/07 Q1009=
201504112220 METAR ESMX 112220Z AUTO 23012KT 190V260 9999 DZ FEW013/// SCT020/// BKN027/// 09/08 Q1009 REDZ=
201504112150 METAR ESMX 112150Z AUTO 23010KT 9999 -DZ FEW018/// SCT025/// OVC036/// 10/08 Q1008 REDZ=
201504112120 METAR ESMX 112120Z AUTO 23016KT 9999 DZ FEW021/// SCT026/// BKN029/// 11/08 Q1008=
201504112050 METAR ESMX 112050Z AUTO 22008KT 8000 BR NCD 10/07 Q1008=
201504112020 METAR ESMX 112020Z AUTO 18010KT 9000 BR FEW031/// 10/07 Q1008=
201504111950 METAR ESMX 111950Z AUTO 17009KT 9000 BR NCD 11/07 Q1008=
201504111920 METAR ESMX 111920Z AUTO 17009KT 9999 NCD 12/07 Q1008=
201504111850 METAR ESMX 111850Z AUTO 16010KT 9999 NCD 12/07 Q1009=
201504111820 METAR ESMX 111820Z AUTO 15008KT 9999 NCD 13/06 Q1009=
201504111750 METAR ESMX 111750Z AUTO 15008KT 9999 NCD 13/06 Q1009=
201504111720 METAR ESMX 111720Z AUTO 16009KT 9999 NCD 14/06 Q1009=
201504111650 METAR ESMX 111650Z AUTO 16010KT 9999 NCD 15/06 Q1009=
201504111620 METAR ESMX 111620Z AUTO 16011KT 9999 NCD 16/06 Q1010=
201504111550 METAR ESMX 111550Z AUTO 16013KT 9999 NCD 17/05 Q1010=
201504111520 METAR ESMX 111520Z AUTO 16012KT 9999 NCD 17/05 Q1010=
201504111450 METAR ESMX 111450Z AUTO 16012KT 9999 NCD 17/05 Q1011=
201504111420 METAR ESMX 111420Z AUTO 16012KT 9999 NCD 17/05 Q1011=
201504111350 METAR ESMX 111350Z AUTO 17013KT 130V190 9999 NCD 18/06 Q1011=
201504111320 METAR ESMX 111320Z AUTO 17014KT 9999 FEW062/// 18/06 Q1012=
201504111250 METAR ESMX 111250Z AUTO 16015KT 9999 NCD 18/06 Q1012=
201504111220 METAR ESMX 111220Z AUTO 17012KT 9999 FEW056/// 17/06 Q1012=
201504111150 METAR ESMX 111150Z AUTO 16011KT 140V200 9999 NCD 17/06 Q1012=
201504111120 METAR ESMX 111120Z AUTO 16012KT 9999 NCD 17/05 Q1013=
201504111050 METAR ESMX 111050Z AUTO 17013KT 140V200 9999 FEW058/// 17/06 Q1013=
201504111020 METAR ESMX 111020Z AUTO 16011KT 9999 FEW058/// 16/05 Q1013=
201504110950 METAR ESMX 110950Z AUTO 15009KT 9999 FEW065/// 15/05 Q1014=
201504110920 METAR ESMX 110920Z AUTO 16011KT 9999 NCD 14/05 Q1014=
201504110850 METAR ESMX 110850Z AUTO 16009KT 110V190 9999 FEW061/// 13/05 Q1014=
201504110820 METAR ESMX 110820Z AUTO 15007KT 120V190 9999 NCD 11/05 Q1015=
201504110750 METAR ESMX 110750Z AUTO 15006KT 120V180 9999 FEW046/// 09/05 Q1015=
201504110720 METAR ESMX 110720Z AUTO 16005KT 9999 FEW044/// 08/04 Q1015=
201504110650 METAR ESMX 110650Z AUTO 14005KT 110V180 9999 BKN040/// 07/05 Q1015=
201504110620 METAR ESMX 110620Z AUTO 14004KT 100V190 9999 SCT043/// 06/05 Q1015=
201504110550 METAR ESMX 110550Z AUTO 13003KT 100V170 9000 BR NCD 03/03 Q1016=
201504110520 METAR ESMX 110520Z AUTO VRB01KT 9000 BR NCD M00/M00 Q1016=
201504110450 METAR ESMX 110450Z AUTO VRB01KT 0450 R01/P2000N R19/P2000N BR NCD M00/M01 Q1016=
201504110420 METAR ESMX 110420Z AUTO VRB02KT 1300 R01/P2000N R19/P2000N BR NCD M01/M01 Q1016=
201504110350 METAR ESMX 110350Z AUTO 15003KT 3800 BR NCD M00/M00 Q1016=
201504110320 METAR ESMX 110320Z AUTO 16004KT 7000 BR NCD 01/01 Q1017=
201504110250 METAR ESMX 110250Z AUTO 18003KT 6000 NCD 01/01 Q1017=
201504110220 METAR ESMX 110220Z AUTO VRB02G33KT 2400 BCFG NCD M01/M01 Q1017=
201504110150 METAR ESMX 110150Z AUTO 17002KT 1900 BCFG NCD M00/M00 Q1017=
201504110120 METAR ESMX 110120Z AUTO 20001KT 9999 NCD M00/M00 Q1017=
201504110050 METAR ESMX 110050Z AUTO 10001KT 1100 R01/P2000N R19/P2000N BCFG NCD 00/M00 Q1017=
201504110020 METAR ESMX 110020Z AUTO 00000KT 9000 BR NCD 00/00 Q1018=
201504102350 METAR ESMX 102350Z AUTO 00000KT 8000 BR NCD 01/00 Q1018=
201504102320 METAR ESMX 102320Z AUTO 21003KT 9999 NCD 03/02 Q1018=
201504102250 METAR ESMX 102250Z AUTO 23003KT 9999 NCD 04/02 Q1018=
201504102220 METAR ESMX 102220Z AUTO 23004KT 9999 NCD 02/01 Q1018=
201504102150 METAR ESMX 102150Z AUTO 18004KT 9999 NCD 05/02 Q1018=
201504102120 METAR ESMX 102120Z AUTO 22004KT 9999 NCD 05/01 Q1018=
201504102050 METAR ESMX 102050Z AUTO 21004KT 9999 NCD 05/01 Q1019=
201504102020 METAR ESMX 102020Z AUTO 22003KT 9999 NCD 06/00 Q1019=
201504101950 METAR ESMX 101950Z AUTO 23003KT 9999 NCD 06/00 Q1019=
201504101920 METAR ESMX 101920Z AUTO 24005KT 9999 NCD 07/01 Q1019=
201504101850 METAR ESMX 101850Z AUTO 23003KT 9999 NCD 07/01 Q1019=
201504101820 METAR ESMX 101820Z AUTO 25004KT 9999 NCD 09/01 Q1019=
201504101750 METAR ESMX 101750Z AUTO 27004KT 9999 NCD 11/01 Q1018=
201504101720 METAR ESMX 101720Z 25006KT CAVOK 12/01 Q1018=
201504101650 METAR ESMX 101650Z 27008KT CAVOK 13/01 Q1019=
201504101620 METAR ESMX 101620Z 27010KT CAVOK 14/01 Q1019=
201504101550 METAR ESMX 101550Z 25008KT 220V290 CAVOK 14/01 Q1019=
201504101520 METAR ESMX 101520Z 25010KT 210V280 CAVOK 15/02 Q1019=
201504101450 METAR ESMX 101450Z 26010KT CAVOK 15/02 Q1019=
201504101420 METAR ESMX 101420Z 26011KT CAVOK 15/01 Q1019=
201504101350 METAR ESMX 101350Z 27011KT CAVOK 15/02 Q1019=
201504101320 METAR ESMX 101320Z 24010KT CAVOK 15/01 Q1019=
201504101250 METAR ESMX 101250Z 25012KT 210V280 CAVOK 14/02 Q1019=
201504101220 METAR ESMX 101220Z 25011KT CAVOK 14/02 Q1019=
201504101150 METAR ESMX 101150Z 24012KT 210V280 CAVOK 14/02 Q1019=
201504101120 METAR ESMX 101120Z 27012KT 230V310 CAVOK 13/03 Q1020=
201504101050 METAR ESMX 101050Z 24010KT 210V280 CAVOK 12/03 Q1020=
201504101020 METAR ESMX 101020Z 26010KT 230V290 CAVOK 11/03 Q1020=
201504100950 METAR ESMX 100950Z 23009KT 210V290 CAVOK 10/03 Q1020=
201504100920 METAR ESMX 100920Z 25010KT CAVOK 09/04 Q1020=
201504100850 METAR ESMX 100850Z 25009KT 9999 FEW014 08/03 Q1020=
201504100820 METAR ESMX 100820Z 27009KT 9999 SCT010 BKN015 07/03 Q1021=
201504100750 METAR ESMX 100750Z 27008KT 230V300 9999 BKN008 06/03 Q1021=
201504100720 METAR ESMX 100720Z 27008KT 230V310 9999 OVC006 05/03 Q1021=
201504100650 METAR ESMX 100650Z 26007KT 9000 BR OVC004 05/03 Q1020=
201504100620 METAR ESMX 100620Z 27007KT 230V310 7000 BR OVC004 04/03 Q1020=
201504100550 METAR ESMX 100550Z 27006KT 240V300 7000 BR OVC004 04/03 Q1020=
201504100520 METAR ESMX 100520Z 27006KT 230V320 8000 BR OVC004 04/03 Q1020=
201504100450 METAR ESMX 100450Z 27007KT 7000 BR OVC004 04/03 Q1020=
201504100420 METAR ESMX 100420Z 27006KT 7000 BR OVC005 04/03 Q1020=
201504100350 METAR ESMX 100350Z AUTO 26006KT 230V290 7000 BR OVC004/// 04/03 Q1020=
201504100320 METAR ESMX 100320Z AUTO 27006KT 220V290 7000 BR OVC004/// 04/03 Q1020=
201504100250 METAR ESMX 100250Z AUTO 26006KT 5000 BR OVC003/// 03/03 Q1020=
201504100220 METAR ESMX 100220Z AUTO 26005KT 230V300 4900 BR OVC003/// 03/03 Q1020=
201504100150 METAR ESMX 100150Z AUTO 28007KT 4700 BR OVC003/// 03/03 Q1020=
201504100120 METAR ESMX 100120Z AUTO 24002KT 7000 BR FEW004/// BKN005/// OVC007/// 01/01 Q1020=
201504100050 METAR ESMX 100050Z AUTO VRB01KT 6000 BR NCD 00/M00 Q1020=
201504100020 METAR ESMX 100020Z AUTO 19003KT 8000 BR NCD 00/M00 Q1021=
201504092350 METAR ESMX 092350Z 22004KT CAVOK 02/01 Q1021=
201504092320 METAR ESMX 092320Z 23004KT CAVOK 03/01 Q1021=
201504092250 METAR ESMX 092250Z AUTO 22005KT 9999 NCD 03/01 Q1021=
201504092220 METAR ESMX 092220Z VRB02KT CAVOK 03/02 Q1022=
201504092150 METAR ESMX 092150Z AUTO 24004KT 9999 NCD 04/02 Q1022=
201504092120 METAR ESMX 092120Z 26007KT CAVOK 05/02 Q1022=
201504092050 METAR ESMX 092050Z 26006KT CAVOK 05/02 Q1022=
201504092020 METAR ESMX 092020Z 26007KT CAVOK 06/02 Q1021=
201504091950 METAR ESMX 091950Z 26007KT CAVOK 06/02 Q1022=
201504091920 METAR ESMX 091920Z 25008KT CAVOK 07/02 Q1021=
201504091850 METAR ESMX 091850Z 25007KT CAVOK 07/02 Q1021=
201504091820 METAR ESMX 091820Z 25008KT CAVOK 08/01 Q1021=
201504091750 METAR ESMX 091750Z 24009KT 210V270 CAVOK 09/00 Q1021=
201504091720 METAR ESMX 091720Z 26008KT CAVOK 11/M01 Q1021=
201504091650 METAR ESMX 091650Z 26013KT CAVOK 11/M01 Q1021=
201504091620 METAR ESMX 091620Z 24011KT CAVOK 13/M00 Q1021=
201504091550 METAR ESMX 091550Z 24011KT CAVOK 13/01 Q1021=
201504091520 METAR ESMX 091520Z 24011KT 200V280 CAVOK 14/M00 Q1021=
201504091450 METAR ESMX 091450Z 26011KT CAVOK 14/00 Q1021=
201504091420 METAR ESMX 091420Z 25012KT 230V290 CAVOK 15/02 Q1022=
201504091350 METAR ESMX 091350Z 25012KT CAVOK 15/02 Q1022=
201504091320 METAR ESMX 091320Z 24013KT CAVOK 15/02 Q1022=
201504091250 METAR ESMX 091250Z 25013KT CAVOK 14/01 Q1023=
201504091220 METAR ESMX 091220Z 25013KT CAVOK 14/01 Q1023=
201504091150 METAR ESMX 091150Z 25013KT 230V290 CAVOK 14/02 Q1023=
201504091120 METAR ESMX 091120Z 23013KT CAVOK 14/02 Q1024=
201504091050 METAR ESMX 091050Z 21015KT 170V250 CAVOK 13/02 Q1024=
201504091020 METAR ESMX 091020Z 22012KT 190V260 CAVOK 12/02 Q1024=
201504090950 METAR ESMX 090950Z 25011KT 210V280 CAVOK 12/03 Q1025=
201504090920 METAR ESMX 090920Z 23013KT CAVOK 12/03 Q1025=
201504090850 METAR ESMX 090850Z 24012KT CAVOK 11/03 Q1026=
201504090820 METAR ESMX 090820Z 21012KT CAVOK 10/04 Q1026=
201504090750 METAR ESMX 090750Z 22010KT CAVOK 09/04 Q1026=
201504090720 METAR ESMX 090720Z 22012KT CAVOK 08/04 Q1027=
201504090650 METAR ESMX 090650Z 21009KT CAVOK 07/04 Q1027=
201504090620 METAR ESMX 090620Z 21008KT CAVOK 05/04 Q1028=
201504090550 METAR ESMX 090550Z 22010KT CAVOK 05/03 Q1028=
201504090520 METAR ESMX 090520Z 21009KT CAVOK 03/02 Q1028=
201504090450 METAR ESMX 090450Z 21008KT CAVOK 02/02 Q1028=
201504090420 METAR ESMX 090420Z 21007KT CAVOK 02/01 Q1028=
201504090350 METAR ESMX 090350Z 18007KT CAVOK 02/01 Q1028=
201504090320 METAR ESMX 090320Z AUTO 18007KT 9999 NCD 02/01 Q1028=
201504090250 METAR ESMX 090250Z AUTO 19007KT 9999 NCD 02/01 Q1028=
201504090220 METAR ESMX 090220Z AUTO 18006KT 9999 NCD 02/00 Q1029=
201504090150 METAR ESMX 090150Z AUTO 18004KT 9999 NCD M01/M02 Q1029=
201504090120 METAR ESMX 090120Z AUTO 16004KT 9999 NCD 01/M00 Q1029=
201504090050 METAR ESMX 090050Z AUTO VRB03KT 9999 NCD 00/M00 Q1030=
201504090020 METAR ESMX 090020Z AUTO 16004KT 9999 NCD 01/M01 Q1030=
201504082350 METAR ESMX 082350Z 15004KT CAVOK 00/M01 Q1030=
201504082320 METAR ESMX 082320Z 13002KT CAVOK 01/M00 Q1030=
201504082250 METAR ESMX 082250Z VRB02KT CAVOK 01/M00 Q1030=
201504082220 METAR ESMX 082220Z 15002KT CAVOK 01/M00 Q1031=
201504082150 METAR ESMX 082150Z 00000KT CAVOK 02/M00 Q1031=
201504082120 METAR ESMX 082120Z 18002KT CAVOK 03/00 Q1031=
201504082050 METAR COR ESMX 082050Z 16002KT CAVOK 03/00 Q1031=
201504082020 METAR ESMX 082020Z 19004KT CAVOK 06/00 Q1031=
201504081950 METAR ESMX 081950Z 21008KT CAVOK 05/M00 Q1031=
201504081920 METAR ESMX 081920Z 16006KT 130V230 CAVOK 05/M02 Q1030=
201504081850 METAR ESMX 081850Z 00000KT CAVOK 05/M03 Q1030=
201504081820 METAR ESMX 081820Z VRB02KT CAVOK 06/M03 Q1030=
201504081750 METAR ESMX 081750Z 36003KT CAVOK 10/M04 Q1030=
201504081720 METAR COR ESMX 081720Z 36003KT CAVOK 12/M05 Q1030=
201504081650 METAR ESMX 081650Z 36005KT CAVOK 13/M06 Q1030=
201504081620 METAR ESMX 081620Z 35005KT CAVOK 13/M07 Q1029=
201504081550 METAR ESMX 081550Z 01007KT CAVOK 14/M06 Q1029=
201504081520 METAR ESMX 081520Z 36008KT CAVOK 14/M07 Q1029=
201504081450 METAR COR ESMX 081450Z 36009KT CAVOK 14/M06 Q1029=
201504081420 METAR ESMX 081420Z 36011KT CAVOK 15/M05 Q1029=
201504081350 METAR ESMX 081350Z 33012KT CAVOK 14/M05 Q1029=
201504081320 METAR ESMX 081320Z 01010KT 330V040 CAVOK 15/M04 Q1028=
201504081250 METAR ESMX 081250Z 36009KT 330V030 CAVOK 15/M04 Q1028=
201504081220 METAR ESMX 081220Z 01012KT CAVOK 15/M04 Q1028=
201504081150 METAR ESMX 081150Z 36011KT CAVOK 15/M02 Q1028=
201504081120 METAR ESMX 081120Z 35011KT CAVOK 13/M01 Q1027=
201504081050 METAR ESMX 081050Z 01013KT CAVOK 14/M02 Q1027=
201504081020 METAR ESMX 081020Z 01013KT CAVOK 13/M00 Q1026=
201504080950 METAR ESMX 080950Z 36011KT CAVOK 12/01 Q1026=
201504080920 METAR ESMX 080920Z 35010KT 320V020 CAVOK 11/02 Q1026=
201504080850 METAR ESMX 080850Z 35011KT CAVOK 10/02 Q1025=
201504080820 METAR ESMX 080820Z 34012KT CAVOK 09/03 Q1025=
201504080750 METAR ESMX 080750Z 32009KT CAVOK 08/04 Q1025=
201504080720 METAR ESMX 080720Z 31008KT CAVOK 07/04 Q1024=
201504080650 METAR ESMX 080650Z 30007KT CAVOK 06/04 Q1024=
201504080620 METAR ESMX 080620Z 29006KT 9999 FEW005 BKN150 06/05 Q1024=
201504080550 METAR COR ESMX 080550Z 28005KT 9999 BKN004 05/04 Q1023=
201504080520 METAR ESMX 080520Z 26007KT 9999 OVC004 05/04 Q1023=
201504080450 METAR ESMX 080450Z 28005KT 9000 BR OVC004 05/04 Q1023=
201504080420 METAR ESMX 080420Z 28005KT 8000 BR OVC003 05/04 Q1022=
201504080350 METAR ESMX 080350Z 26007KT 7000 BR OVC003 05/04 Q1022=
201504080320 METAR ESMX 080320Z AUTO 28007KT 250V310 6000 BR OVC001/// 05/04 Q1022=
201504080250 METAR ESMX 080250Z AUTO 26008KT 3600 BR OVC001/// 04/04 Q1022=
201504080220 METAR ESMX 080220Z AUTO 26009KT 5000 BR OVC001/// 04/04 Q1022=
201504080150 METAR ESMX 080150Z AUTO 25006KT 6000 BR OVC001/// 04/04 Q1021=
201504080120 METAR ESMX 080120Z AUTO 26008KT 230V290 8000 BR OVC002/// 04/04 Q1021=
201504080050 METAR ESMX 080050Z AUTO 26006KT 7000 BR OVC002/// 05/04 Q1022=
201504080020 METAR ESMX 080020Z AUTO 25005KT 7000 BR OVC002/// 05/04 Q1022=
201504072350 METAR ESMX 072350Z 24005KT 7000 BR BKN004 04/04 Q1022=
201504072320 METAR COR ESMX 072320Z 24006KT 9000 BR BKN004 04/04 Q1022=
201504072250 METAR COR ESMX 072250Z 24006KT CAVOK 04/03 Q1022=
201504072220 METAR ESMX 072220Z 25006KT CAVOK 04/03 Q1022=
201504072150 METAR ESMX 072150Z 26007KT CAVOK 04/04 Q1022=
201504072120 METAR ESMX 072120Z 26008KT CAVOK 05/04 Q1023=
201504072050 METAR ESMX 072050Z 26008KT CAVOK 05/04 Q1022=
201504072020 METAR ESMX 072020Z 25008KT CAVOK 05/04 Q1022=
201504071950 METAR ESMX 071950Z 25006KT CAVOK 06/04 Q1022=
201504071920 METAR ESMX 071920Z 25006KT CAVOK 06/03 Q1022=
201504071850 METAR COR ESMX 071850Z 24006KT CAVOK 06/03 Q1022=
201504071820 METAR COR ESMX 071820Z 24005KT CAVOK 07/03 Q1022=
201504071750 METAR ESMX 071750Z 24005KT 210V270 CAVOK 07/03 Q1022=
201504071720 METAR COR ESMX 071720Z 26006KT 220V280 CAVOK 08/04 Q1022=
201504071650 METAR ESMX 071650Z 26008KT 230V290 CAVOK 09/04 Q1022=
201504071620 METAR ESMX 071620Z 26010KT 220V290 9999 FEW025 09/04 Q1022=
201504071550 METAR ESMX 071550Z 25011KT 9999 FEW030 10/04 Q1022=
201504071520 METAR ESMX 071520Z 27011KT 230V290 9999 SCT024 10/04 Q1022=
201504071450 METAR ESMX 071450Z 26010KT 9999 SCT025 11/04 Q1022=
201504071420 METAR ESMX 071420Z 26011KT 220V290 9999 SCT027 10/04 Q1022=
201504071320 METAR COR ESMX 071320Z 26013KT 9999 SCT022 10/05 Q1022=
201504071250 METAR ESMX 071250Z 26013KT 9999 SCT019 BKN025 09/05 Q1022=
201504071220 METAR ESMX 071220Z 26010KT 210V290 9999 SCT017 BKN026 09/04 Q1022=
201504071150 METAR ESMX 071150Z 26012KT 9999 BKN015 09/04 Q1023=
201504071120 METAR ESMX 071120Z 27012KT 9999 BKN012 08/05 Q1023=
201504071050 METAR ESMX 071050Z 27009KT 240V300 9999 BKN008 08/05 Q1023=
201504071020 METAR ESMX 071020Z 28012KT 250V310 9999 OVC006 07/05 Q1023=
201504070950 METAR ESMX 070950Z 27009KT 240V300 9000 BR OVC005 06/05 Q1023=
201504070920 METAR ESMX 070920Z 28010KT 8000 BR OVC005 06/05 Q1023=
201504070850 METAR ESMX 070850Z 28012KT 6000 BR OVC004 06/05 Q1024=
201504070820 METAR ESMX 070820Z 28013G23KT 7000 BR OVC004 06/05 Q1023=
201504070750 METAR ESMX 070750Z 28011KT 8000 BR OVC004 05/04 Q1023=
201504070720 METAR ESMX 070720Z 27011KT 7000 BR OVC005 05/04 Q1023=
201504070650 METAR ESMX 070650Z 27012KT 5000 BR OVC005 05/04 Q1024=
201504070620 METAR ESMX 070620Z 27011KT 240V300 9999 OVC006 05/03 Q1024=
201504070550 METAR ESMX 070550Z 27011KT 240V310 9999 OVC007 04/03 Q1024=
201504070520 METAR ESMX 070520Z 26010KT 9999 OVC006 04/03 Q1024=
201504070450 METAR ESMX 070450Z 25010KT 220V280 9999 OVC005 04/03 Q1024=
201504070420 METAR ESMX 070420Z 24008KT 210V280 7000 BR OVC005 03/02 Q1024=
201504070350 METAR ESMX 070350Z 24010KT 9999 OVC007 03/01 Q1025=
201504070320 METAR ESMX 070320Z 23010KT 9999 OVC009 02/01 Q1025=
201504070250 METAR ESMX 070250Z AUTO 23008KT 9999 FEW013/// BKN015/// 02/00 Q1025=
201504070220 METAR ESMX 070220Z AUTO 23009KT 9999 BKN013/// 01/M01 Q1026=
201504070150 METAR ESMX 070150Z AUTO 22008KT 9999 NCD 01/M01 Q1026=
201504070120 METAR ESMX 070120Z AUTO 23009KT 9999 NCD 01/M01 Q1027=
201504070050 METAR ESMX 070050Z AUTO 21008KT 9999 NCD 01/M02 Q1027=
201504070020 METAR ESMX 070020Z AUTO 23008KT 9999 NCD 01/M02 Q1028=
201504062350 METAR ESMX 062350Z AUTO 21006KT 9999 NCD 00/M03 Q1028=
201504062320 METAR ESMX 062320Z 23006KT CAVOK 01/M03 Q1028=
201504062250 METAR ESMX 062250Z 23007KT CAVOK 01/M02 Q1029=
201504062220 METAR ESMX 062220Z 22006KT CAVOK 01/M02 Q1029=
201504062150 METAR ESMX 062150Z 22006KT CAVOK 02/M01 Q1029=
201504062120 METAR ESMX 062120Z 23005KT CAVOK 02/M01 Q1029=
201504062050 METAR ESMX 062050Z 22005KT CAVOK 03/M01 Q1029=
201504062020 METAR ESMX 062020Z 23005KT CAVOK 03/M01 Q1029=
201504061950 METAR ESMX 061950Z 24005KT CAVOK 04/M01 Q1029=
201504061920 METAR ESMX 061920Z 25006KT CAVOK 05/M01 Q1029=
201504061850 METAR ESMX 061850Z 25005KT 200V270 CAVOK 05/M01 Q1029=
201504061820 METAR ESMX 061820Z 26006KT CAVOK 06/M02 Q1029=
201504061750 METAR ESMX 061750Z 25003KT CAVOK 07/M03 Q1029=
201504061720 METAR COR ESMX 061720Z 25004KT CAVOK 07/M02 Q1029=
201504061650 METAR ESMX 061650Z 28007KT CAVOK 08/M02 Q1029=
201504061620 METAR ESMX 061620Z 28008KT CAVOK 09/M02 Q1029=
201504061550 METAR ESMX 061550Z 28007KT 230V320 CAVOK 10/M02 Q1029=
201504061520 METAR ESMX 061520Z 28009KT CAVOK 10/M01 Q1029=
201504061450 METAR ESMX 061450Z 26004KT 200V320 CAVOK 10/M02 Q1029=
201504061420 METAR ESMX 061420Z 20003KT 130V290 CAVOK 10/M02 Q1029=
201504061350 METAR ESMX 061350Z 22003KT 120V290 9999 FEW045 BKN200 10/M03 Q1029=
201504061320 METAR ESMX 061320Z 05004KT 350V100 9999 FEW045 09/M03 Q1030=
201504061250 METAR ESMX 061250Z 34004KT 310V020 9999 FEW045 10/M02 Q1030=
201504061220 METAR ESMX 061220Z 14003KT 080V210 9999 FEW045 09/M02 Q1030=
201504061150 METAR ESMX 061150Z 04003KT 310V110 9999 FEW037 09/M02 Q1030=
201504061120 METAR ESMX 061120Z AUTO 36004KT 280V030 9999 NCD 07/M02 Q1030=
201504061050 METAR ESMX 061050Z AUTO 35005KT 290V100 9999 NCD 08/M02 Q1030=
201504061020 METAR ESMX 061020Z AUTO VRB05KT 250V080 9999 NCD 07/M01 Q1030=
201504060950 METAR ESMX 060950Z 34006KT 310V020 9999 FEW023 06/M01 Q1029=
201504060920 METAR ESMX 060920Z 35005KT 320V030 9999 FEW021 05/M01 Q1029=
201504060850 METAR ESMX 060850Z 36007KT 340V050 9999 SCT019 05/M01 Q1029=
201504060820 METAR ESMX 060820Z 36006KT 320V050 9999 FEW015 SCT018 04/M01 Q1029=
201504060750 METAR ESMX 060750Z 36008KT 9999 SCT014 03/M01 Q1029=
201504060720 METAR ESMX 060720Z 01008KT 9999 SCT011 03/M01 Q1028=
201504060650 METAR ESMX 060650Z 02007KT 9999 SCT008 02/M01 Q1028=
201504060620 METAR ESMX 060620Z 36009KT 9999 BKN007 01/M00 Q1028=
201504060550 METAR ESMX 060550Z AUTO 02007KT 9999 OVC007/// 01/M00 Q1027=
201504060520 METAR ESMX 060520Z AUTO 35007KT 9999 OVC007/// 01/M00 Q1027=
201504060450 METAR ESMX 060450Z AUTO 34006KT 9999 OVC008/// 00/M01 Q1026=
201504060420 METAR ESMX 060420Z AUTO 01006KT 9999 FEW007/// BKN008/// 00/M01 Q1026=
201504060350 METAR ESMX 060350Z AUTO 02005KT 350V060 9999 OVC008/// 00/M01 Q1025=
201504060320 METAR ESMX 060320Z AUTO 01006KT 9999 BKN009/// BKN014/// 01/M01 Q1025=
201504060250 METAR ESMX 060250Z AUTO 35007KT 9999 FEW015/// M01/M02 Q1025=
201504060220 METAR ESMX 060220Z AUTO 35005KT 9999 NCD M01/M03 Q1025=
201504060150 METAR ESMX 060150Z AUTO 01005KT 9999 FEW017/// M00/M02 Q1024=
201504060120 METAR ESMX 060120Z AUTO 01006KT 9999 OVC018/// 01/M01 Q1024=
201504060050 METAR ESMX 060050Z AUTO 03005KT 9999 BKN017/// 01/M02 Q1024=
201504060020 METAR ESMX 060020Z AUTO 36006KT 9999 BKN015/// M01/M03 Q1024=
201504052350 METAR ESMX 052350Z AUTO 01005KT 9999 FEW014/// M01/M03 Q1023=
201504052320 METAR ESMX 052320Z AUTO 36004KT 9999 NCD M02/M05 Q1023=
201504052250 METAR ESMX 052250Z AUTO VRB02KT 9999 NCD M02/M05 Q1023=
201504052220 METAR ESMX 052220Z AUTO 01002KT 9999 NCD M02/M05 Q1023=
201504052150 METAR ESMX 052150Z AUTO 01003KT 9999 NCD M01/M05 Q1023=
201504052120 METAR ESMX 052120Z AUTO 02005KT 9999 NCD 00/M06 Q1022=
201504052050 METAR ESMX 052050Z AUTO 36004KT 9999 NCD M00/M05 Q1022=
201504052020 METAR ESMX 052020Z AUTO 35005KT 9999 NCD M01/M06 Q1021=
201504051950 METAR ESMX 051950Z AUTO 36003KT 9999 NCD 01/M06 Q1021=
201504051920 METAR ESMX 051920Z AUTO 35004KT 9999 NCD 01/M06 Q1021=
201504051850 METAR ESMX 051850Z AUTO 35005KT 9999 NCD 02/M06 Q1021=
201504051820 METAR ESMX 051820Z 33006KT CAVOK 02/M07 Q1020=
201504051750 METAR ESMX 051750Z 36007KT CAVOK 04/M07 Q1020=
201504051720 METAR ESMX 051720Z 01009KT CAVOK 06/M08 Q1020=
201504051650 METAR ESMX 051650Z 36010KT CAVOK 06/M08 Q1020=
201504051620 METAR ESMX 051620Z 01011KT CAVOK 07/M09 Q1019=
201504051550 METAR ESMX 051550Z 01011KT CAVOK 07/M10 Q1019=
201504051520 METAR ESMX 051520Z 02011KT CAVOK 08/M09 Q1019=
201504051450 METAR ESMX 051450Z 35010KT 320V030 CAVOK 08/M09 Q1019=
201504051420 METAR ESMX 051420Z 35013KT CAVOK 09/M10 Q1019=
201504051350 METAR ESMX 051350Z 01012KT CAVOK 09/M09 Q1019=
201504051320 METAR ESMX 051320Z AUTO 36012KT 9999 NCD 08/M10 Q1018=
201504051250 METAR ESMX 051250Z AUTO 34010KT 300V010 9999 FEW068/// 08/M09 Q1018=
201504051220 METAR ESMX 051220Z AUTO 36013KT 9999 FEW070/// 08/M10 Q1019=
201504051150 METAR ESMX 051150Z AUTO 35010KT 320V030 9999 FEW067/// 08/M09 Q1019=
201504051120 METAR ESMX 051120Z AUTO 31012KT 290V350 9999 FEW065/// 08/M09 Q1019=
201504051050 METAR ESMX 051050Z AUTO 33011KT 300V010 9999 NCD 08/M08 Q1019=
201504051020 METAR ESMX 051020Z AUTO 35010KT 9999 NCD 07/M09 Q1019=
201504050950 METAR ESMX 050950Z AUTO 33011KT 9999 NCD 07/M09 Q1019=
201504050920 METAR ESMX 050920Z AUTO 33012KT 290V010 9999 FEW058/// 06/M08 Q1019=
201504050850 METAR ESMX 050850Z AUTO 34011KT 310V020 9999 NCD 06/M08 Q1019=
201504050820 METAR ESMX 050820Z AUTO 33011KT 9999 NCD 06/M07 Q1019=
201504050750 METAR ESMX 050750Z AUTO 32010KT 300V360 9999 NCD 05/M07 Q1019=
201504050720 METAR ESMX 050720Z AUTO 30008KT 9999 NCD 04/M05 Q1019=
201504050650 METAR ESMX 050650Z AUTO 30007KT 9999 NCD 02/M05 Q1019=
201504050620 METAR ESMX 050620Z AUTO 30006KT 9999 FEW059/// 00/M04 Q1019=
201504050550 METAR ESMX 050550Z 27004KT 240V310 CAVOK M01/M05 Q1019=
201504050520 METAR ESMX 050520Z 28003KT CAVOK M03/M06 Q1019=
201504050450 METAR ESMX 050450Z 28002KT CAVOK M03/M05 Q1019=
201504050420 METAR ESMX 050420Z VRB02KT CAVOK M02/M06 Q1019=
201504050350 METAR ESMX 050350Z AUTO 31003KT 280V340 9999 NCD M02/M06 Q1019=
201504050320 METAR ESMX 050320Z AUTO 30004KT 9999 NCD M03/M06 Q1019=
201504050250 METAR ESMX 050250Z AUTO VRB02KT 9999 SCT063/// M02/M05 Q1018=
201504050220 METAR ESMX 050220Z AUTO 28003KT 9999 FEW063/// M03/M06 Q1018=
201504050150 METAR ESMX 050150Z AUTO VRB03KT 9999 NCD M01/M06 Q1018=
201504050120 METAR ESMX 050120Z AUTO 30003KT 9999 NCD M02/M06 Q1018=
201504050050 METAR ESMX 050050Z AUTO 31003KT 9999 NCD M01/M05 Q1018=
201504050020 METAR ESMX 050020Z AUTO 31004KT 9999 NCD M01/M06 Q1018=
201504042350 METAR ESMX 042350Z AUTO 29004KT 9999 FEW065/// M02/M05 Q1018=
201504042320 METAR ESMX 042320Z AUTO 32005KT 9999 BKN065/// M03/M06 Q1018=
201504042250 METAR ESMX 042250Z AUTO 33006KT 9999 SCT068/// M01/M06 Q1018=
201504042220 METAR ESMX 042220Z AUTO 34005KT 9999 SCT067/// 00/M06 Q1018=
201504042150 METAR ESMX 042150Z AUTO 35005KT 9999 BKN065/// 01/M06 Q1018=
201504042120 METAR ESMX 042120Z AUTO 32006KT 9999 SCT068/// 01/M06 Q1018=
201504042050 METAR ESMX 042050Z AUTO 32006KT 9999 SCT069/// 01/M06 Q1017=
201504042020 METAR ESMX 042020Z AUTO 33007KT 9999 FEW069/// 01/M06 Q1017=
201504041950 METAR ESMX 041950Z 33007KT CAVOK 02/M06 Q1017=
201504041920 METAR COR ESMX 041920Z 32006KT CAVOK 02/M06 Q1017=
201504041850 METAR ESMX 041850Z 32007KT CAVOK 03/M06 Q1017=
201504041820 METAR ESMX 041820Z AUTO 33009KT 9999 FEW059/// 04/M06 Q1017=
201504041750 METAR ESMX 041750Z AUTO 34009KT 9999 FEW075/// 04/M05 Q1016=
201504041720 METAR ESMX 041720Z AUTO 34010KT 9999 FEW065/// 06/M06 Q1016=
201504041650 METAR ESMX 041650Z AUTO 02009KT 9999 FEW065/// 06/M06 Q1016=
201504041620 METAR ESMX 041620Z AUTO 01007KT 330V050 9999 FEW057/// BKN067/// 07/M04 Q1015=
201504041550 METAR ESMX 041550Z AUTO 04005KT 010V100 9999 FEW029/// SCT058/// BKN076/// 06/M04 Q1015=
201504041520 METAR ESMX 041520Z AUTO 35009KT 9999 SCT082/// 08/M05 Q1015=
201504041450 METAR ESMX 041450Z AUTO 35012KT 9999 FEW043/// SCT060/// BKN088/// 06/M04 Q1015=
201504041420 METAR ESMX 041420Z AUTO 03008KT 350V070 9999 BKN042/// BKN087/// 07/M03 Q1015=
201504041350 METAR ESMX 041350Z AUTO 36005KT 320V040 9999 FEW010/// SCT046/// 06/M01 Q1015 RERA=
201504041320 METAR ESMX 041320Z AUTO 34014KT 9999 FEW027/// SCT071/// 07/M02 Q1015=
201504041250 METAR ESMX 041250Z AUTO 35006KT 300V020 9999 FEW007/// 06/M03 Q1015 RESHUP=
201504041220 METAR ESMX 041220Z AUTO 34011KT 9999 FEW022/// SCT044/// BKN056/// 06/M02 Q1015 RERA=
201504041150 METAR ESMX 041150Z AUTO 31014KT 9999 FEW038/// SCT051/// 07/M03 Q1015=
201504041120 METAR ESMX 041120Z AUTO 30007KT 9999 FEW019/// SCT080/// 06/M01 Q1015 REUP=
201504041050 METAR ESMX 041050Z AUTO 01011KT 330V040 9999 FEW037/// SCT063/// BKN080/// 06/M03 Q1015=
201504041020 METAR ESMX 041020Z AUTO 35010KT 9999 FEW033/// SCT077/// 05/M02 Q1015=
201504040950 METAR ESMX 040950Z AUTO 36012KT 9999 FEW033/// SCT084/// 06/M03 Q1015=
201504040920 METAR ESMX 040920Z AUTO 36011KT 9999 FEW031/// 06/M02 Q1015=
201504040850 METAR ESMX 040850Z AUTO 35009KT 9999 FEW074/// 05/M02 Q1014=
201504040820 METAR ESMX 040820Z AUTO 01009KT 9999 NCD 04/M01 Q1014=
201504040750 METAR ESMX 040750Z AUTO 36009KT 9999 NCD 04/M02 Q1014=
201504040720 METAR ESMX 040720Z AUTO 36009KT 9999 BKN072/// 03/M01 Q1014=
201504040650 METAR ESMX 040650Z AUTO 36009KT 9999 BKN073/// 01/M01 Q1014=
201504040620 METAR ESMX 040620Z AUTO 36007KT 9999 BKN076/// 01/M02 Q1014=
201504040550 METAR ESMX 040550Z AUTO 36008KT 9999 SCT079/// 01/M02 Q1014=
201504040520 METAR ESMX 040520Z AUTO 35006KT 9999 FEW050/// SCT078/// M00/M02 Q1014=
201504040450 METAR ESMX 040450Z AUTO 35006KT 9999 FEW075/// M02/M04 Q1014=
201504040420 METAR ESMX 040420Z AUTO 35007KT 9999 FEW078/// M02/M04 Q1014=
201504040350 METAR ESMX 040350Z AUTO 34006KT 9999 BKN072/// M03/M04 Q1013=
201504040320 METAR ESMX 040320Z AUTO 31003KT 9999 BKN067/// M03/M04 Q1013=
201504040250 METAR ESMX 040250Z AUTO 31004KT 9999 SCT070/// M04/M04 Q1013=
201504040220 METAR ESMX 040220Z AUTO 29002KT 9999 NCD M04/M05 Q1013=
201504040150 METAR ESMX 040150Z AUTO 31003KT 9999 NCD M03/M04 Q1013=
201504040120 METAR ESMX 040120Z AUTO 30004KT 9999 NCD M04/M04 Q1013=
201504040050 METAR ESMX 040050Z AUTO 29005KT 9999 NCD M04/M05 Q1013=
201504040020 METAR ESMX 040020Z AUTO 34004KT 9999 NCD M03/M04 Q1013=
201504032350 METAR ESMX 032350Z AUTO 33003KT 9999 NCD M03/M04 Q1013=
201504032320 METAR ESMX 032320Z AUTO 31003KT 9999 NCD M03/M03 Q1013=
201504032250 METAR ESMX 032250Z AUTO 30003KT 9999 NCD M03/M04 Q1013=
201504032220 METAR ESMX 032220Z AUTO VRB02KT 9999 NCD M02/M03 Q1013=
201504032150 METAR ESMX 032150Z AUTO 28004KT 9999 NCD M02/M03 Q1013=
201504032120 METAR ESMX 032120Z AUTO 28003KT 9999 FEW085/// M01/M03 Q1013=
201504032050 METAR ESMX 032050Z AUTO VRB01KT 9999 FEW054/// BKN086/// M00/M03 Q1013=
201504032020 METAR ESMX 032020Z AUTO 00000KT 9999 BKN047/// 01/M02 Q1013=
201504031950 METAR ESMX 031950Z AUTO 01003KT 9999 FEW037/// SCT071/// BKN100/// 02/M02 Q1013=
201504031920 METAR ESMX 031920Z AUTO 35004KT 9999 FEW058/// SCT086/// 01/M03 Q1013=
201504031850 METAR ESMX 031850Z AUTO 36007KT 320V020 9999 SCT051/// 02/M03 Q1013=
201504031820 METAR ESMX 031820Z AUTO 30003KT 9999 FEW049/// 01/M03 Q1012=
201504031750 METAR ESMX 031750Z AUTO 31003KT 9999 NCD 02/M03 Q1012=
201504031720 METAR ESMX 031720Z AUTO 32004KT 9999 NCD 04/M04 Q1012=
201504031650 METAR ESMX 031650Z AUTO 01005KT 320V050 9999 FEW049/// SCT083/// 06/M05 Q1012=
201504031620 METAR ESMX 031620Z AUTO 04007KT 010V080 9999 BKN048/// 07/M04 Q1011=
201504031550 METAR ESMX 031550Z 30005KT 260V330 9999 VCSH FEW045CB 06/M04 Q1011=
201504031520 METAR ESMX 031520Z 29011KT 9999 VCSH SCT045CB 06/M05 Q1011=
201504031450 METAR ESMX 031450Z 36014KT 9999 VCSH SCT045CB 06/M03 Q1011=
201504031420 METAR ESMX 031420Z 30012KT 9999 VCSH SCT040CB 08/M07 Q1011=
201504031350 METAR ESMX 031350Z 30008KT 260V350 9999 VCSH SCT040CB 10/M06 Q1010=
201504031320 METAR ESMX 031320Z 31010KT 280V360 9999 VCSH FEW040CB BKN060 08/M08 Q1011=
201504031250 METAR ESMX 031250Z 35011KT CAVOK 09/M05 Q1011=
201504031220 METAR ESMX 031220Z 34009KT 290V030 CAVOK 08/M05 Q1011=
201504031150 METAR ESMX 031150Z 34011KT 290V020 CAVOK 09/M05 Q1011=
201504031120 METAR ESMX 031120Z AUTO 34010KT 9999 FEW054/// 09/M06 Q1011=
201504031050 METAR ESMX 031050Z AUTO 34011KT 300V010 9999 FEW050/// 07/M06 Q1011=
201504031020 METAR ESMX 031020Z AUTO 32010KT 280V350 9999 FEW050/// 08/M04 Q1011=
201504030950 METAR ESMX 030950Z 34010KT 300V020 CAVOK 07/M04 Q1011=
201504030920 METAR ESMX 030920Z 34012KT CAVOK 07/M04 Q1010=
201504030850 METAR ESMX 030850Z 30010KT CAVOK 06/M04 Q1010=
201504030820 METAR ESMX 030820Z 30007KT 260V360 CAVOK 06/M03 Q1010=
201504030750 METAR ESMX 030750Z 33009KT 300V010 CAVOK 05/M02 Q1010=
201504030720 METAR ESMX 030720Z 33007KT CAVOK 04/M02 Q1010=
201504030650 METAR ESMX 030650Z 31006KT 280V350 CAVOK 02/M02 Q1010=
201504030620 METAR ESMX 030620Z 32006KT CAVOK 01/M02 Q1010=
201504030550 METAR ESMX 030550Z AUTO 31005KT 9999 NCD M00/M02 Q1010=
201504030520 METAR ESMX 030520Z AUTO 29004KT 9999 NCD M03/M03 Q1010=
201504030450 METAR ESMX 030450Z AUTO 29004KT 9999 NCD M03/M04 Q1009=
201504030420 METAR ESMX 030420Z AUTO 00000KT 9999 NCD M02/M03 Q1009=
201504030350 METAR ESMX 030350Z AUTO 27003KT 9999 NCD M02/M03 Q1009=
201504030320 METAR ESMX 030320Z AUTO VRB03KT 9999 FEW065/// M02/M03 Q1009=
201504030250 METAR ESMX 030250Z AUTO 29005KT 9999 FEW064/// M01/M03 Q1009=
201504030220 METAR ESMX 030220Z AUTO 29006KT 9999 NCD M01/M03 Q1008=
201504030150 METAR ESMX 030150Z AUTO 29006KT 9999 NCD M00/M03 Q1008=
201504030120 METAR ESMX 030120Z AUTO 28007KT 9999 NCD M00/M02 Q1008=
201504030050 METAR ESMX 030050Z AUTO 27005KT 9999 NCD M00/M02 Q1008=
201504030020 METAR ESMX 030020Z AUTO 28006KT 9999 NCD 00/M02 Q1007=
201504022350 METAR ESMX 022350Z AUTO 29006KT 9999 NCD 01/M02 Q1007=
201504022320 METAR ESMX 022320Z AUTO 29006KT 9999 NCD 01/M02 Q1007=
201504022250 METAR ESMX 022250Z AUTO 29006KT 9999 NCD 02/M02 Q1007=
201504022220 METAR ESMX 022220Z AUTO 27007KT 9999 NCD 02/M02 Q1007=
201504022150 METAR ESMX 022150Z AUTO 28008KT 9999 NCD 02/M02 Q1006=
201504022120 METAR ESMX 022120Z AUTO 28007KT 9999 FEW062/// 02/M02 Q1006=
201504022050 METAR ESMX 022050Z AUTO 26006KT 9999 FEW057/// 02/M01 Q1006=
201504022020 METAR ESMX 022020Z AUTO 25004KT 9999 SCT057/// 02/M01 Q1006=
201504021950 METAR ESMX 021950Z AUTO 24005KT 9999 FEW061/// 02/M01 Q1006=
201504021920 METAR ESMX 021920Z AUTO 24004KT 9999 FEW068/// 01/M00 Q1005=
201504021850 METAR ESMX 021850Z AUTO 22004KT 9999 FEW056/// 02/01 Q1005=
201504021820 METAR ESMX 021820Z VRB02KT 9999 VCSH FEW035 SCT060 02/00 Q1005=
201504021750 METAR ESMX 021750Z 05008KT 030V100 9999 SHRASN SCT035CB 02/01 Q1005=
201504021720 METAR COR ESMX 021720Z 03015KT 010V070 9999 VCSH FEW035CB SCT058 05/M03 Q1004=
201504021650 METAR ESMX 021650Z 35010KT 9999 VCSH FEW042CB SCT070 06/M04 Q1003=
201504021620 METAR ESMX 021620Z 34011KT 9999 VCSH FEW040CB 07/M06 Q1002=
201504021550 METAR ESMX 021550Z 35011KT 9999 FEW043 07/M06 Q1002=
201504021520 METAR ESMX 021520Z 35012KT 9999 FEW040 07/M06 Q1001=
201504021450 METAR ESMX 021450Z 35012KT 9999 FEW035 08/M06 Q1001=
201504021420 METAR ESMX 021420Z 35012KT 320V060 9999 FEW035CB SCT200 07/M05 Q1000=
201504021350 METAR ESMX 021350Z 35013KT 9999 FEW030CB SCT050 07/M05 Q1000=
201504021320 METAR COR ESMX 021320Z 36013KT 9999 FEW035CB SCT050 08/M07 Q0999=
201504021250 METAR ESMX 021250Z VRB06KT 360V360 9999 FEW025CB SCT050 08/M03 Q0999=
201504021220 METAR ESMX 021220Z 34008KT 9999 FEW030CB SCT040 07/M02 Q0998=
201504021150 METAR ESMX 021150Z 32018KT 9999 VCSH FEW025CB SCT035 08/M02 Q0998=
201504021120 METAR ESMX 021120Z 02006KT 340V050 9999 FEW025 07/M02 Q0998=
201504021050 METAR ESMX 021050Z 34006KT 320V020 9999 FEW025 06/M03 Q0998=
201504021020 METAR ESMX 021020Z 36007KT 9999 FEW024CB BKN027 06/M01 Q0998=
201504020950 METAR ESMX 020950Z 36008KT 9999 BKN025 05/M01 Q0997=
201504020920 METAR ESMX 020920Z 34010KT 9999 BKN025 05/M00 Q0997=
201504020850 METAR ESMX 020850Z 33010KT 290V360 9999 FEW020 SCT050 05/M01 Q0997=
201504020820 METAR ESMX 020820Z 33009KT 300V360 9999 FEW020 SCT050 04/M01 Q0997=
201504020750 METAR ESMX 020750Z 31007KT 260V350 9999 FEW020 03/M01 Q0997=
201504020720 METAR ESMX 020720Z 30007KT 260V330 9999 FEW030 03/M01 Q0996=
201504020650 METAR ESMX 020650Z 29006KT 250V320 9999 FEW050TCU 01/M01 Q0996=
201504020620 METAR ESMX 020620Z 28006KT 9999 FEW060CB 01/M02 Q0996=
201504020550 METAR ESMX 020550Z AUTO 26005KT 9999 SCT065/// M00/M02 Q0996=
201504020520 METAR ESMX 020520Z AUTO 26005KT 9999 FEW077/// M01/M02 Q0996=
201504020450 METAR ESMX 020450Z AUTO 22005KT 9999 SCT079/// M01/M02 Q0996 RESHUP REFZUP=
201504020420 METAR ESMX 020420Z AUTO 28005KT 250V310 9999 FZUP FEW050/// BKN077/// M01/M02 Q0996=
201504020350 METAR ESMX 020350Z AUTO 25007KT 9999 BKN070/// M00/M02 Q0995=
201504020320 METAR ESMX 020320Z AUTO 26007KT 9999 BKN068/// M00/M02 Q0995=
201504020250 METAR ESMX 020250Z AUTO 26006KT 9999 FEW067/// M01/M02 Q0996=
201504020220 METAR ESMX 020220Z AUTO 26005KT 9999 SCT063/// M01/M02 Q0996=
201504020150 METAR ESMX 020150Z AUTO 26007KT 220V280 9999 NCD M00/M02 Q0996=
201504020120 METAR ESMX 020120Z AUTO 26007KT 9999 NCD M00/M02 Q0996=
201504020050 METAR ESMX 020050Z AUTO 26006KT 9999 NCD 00/M02 Q0996=
201504020020 METAR ESMX 020020Z AUTO 26007KT 9999 NCD 00/M02 Q0996=
201504012350 METAR ESMX 012350Z 26008KT CAVOK 00/M02 Q0996=
201504012320 METAR ESMX 012320Z 26008KT CAVOK 01/M02 Q0996=
201504012250 METAR ESMX 012250Z 26008KT CAVOK 01/M02 Q0996=
201504012220 METAR ESMX 012220Z 26008KT CAVOK 01/M02 Q0996=
201504012150 METAR ESMX 012150Z 27009KT CAVOK 01/M02 Q0996=
201504012120 METAR ESMX 012120Z 26009KT CAVOK 01/M02 Q0996=
201504012050 METAR ESMX 012050Z 26009KT CAVOK 02/M02 Q0996=
201504012020 METAR ESMX 012020Z 26008KT CAVOK 02/M02 Q0996=
201504011950 METAR ESMX 011950Z 26008KT CAVOK 02/M02 Q0996=
201504011920 METAR ESMX 011920Z 27007KT CAVOK 03/M02 Q0995=
201504011851 METAR ESMX 011851Z 27006KT CAVOK 03/M02 Q0995=
201504011820 METAR ESMX 011820Z 27007KT CAVOK 04/M02 Q0995=
201504011750 METAR ESMX 011750Z 27010KT CAVOK 05/M02 Q0995=
201504011720 METAR ESMX 011720Z 27011KT CAVOK 06/M02 Q0994=
201504011650 METAR ESMX 011650Z 26012KT 9999 FEW020 FEW025CB BKN048 07/M01 Q0994=
201504011620 METAR ESMX 011620Z 34005KT 300V020 9999 FEW037CB OVC041 07/M00 Q0994=
201504011550 METAR ESMX 011550Z 34009KT 9999 FEW029 SCT040CB BKN043 06/M01 Q0994=
201504011520 METAR ESMX 011520Z 27014KT 240V300 9999 FEW030 SCT042 BKN054 08/M02 Q0993=
201504011450 METAR ESMX 011450Z 30006KT 260V340 9999 VCSH FEW038CB BKN040 07/M00 Q0993=
201504011420 METAR ESMX 011420Z 34012KT 290V010 9999 -SHRA FEW010 BKN038 BKN045 05/M01 Q0993=
201504011350 METAR ESMX 011350Z 27011KT 240V310 9999 VCSH FEW027CB SCT037 BKN069 08/M01 Q0993=
201504011320 METAR ESMX 011320Z 29012KT 9999 FEW031 FEW034CB SCT060 07/M01 Q0993=
201504011250 METAR ESMX 011250Z 25008KT 190V290 9999 FEW026 SCT033 07/01 Q0993=
201504011220 METAR ESMX 011220Z 26013KT 9999 VCSH FEW030CB SCT047 08/01 Q0993=
