##########################################################
# Query made at 04/19/2024 21:47:30 UTC
# Time interval: from 09/01/2015 12:00  to 09/30/2015 12:59  UTC
##########################################################

##########################################################
# ESMX, Vaxjo (Sweden)
# WMO index: 02641. WIGOS ID: 0-20000-0-02648
# Latitude 56-51N. Longitude 014-50E. Altitude 199 m.
##########################################################

201509301250 METAR ESMX 301250Z 27010KT CAVOK 16/08 Q1034=
201509301220 METAR ESMX 301220Z 27010KT CAVOK 16/09 Q1034=
201509301150 METAR COR ESMX 301150Z 28010KT 240V300 CAVOK 15/08 Q1034=
201509301120 METAR ESMX 301120Z 25009KT 220V280 CAVOK 15/09 Q1035=
201509301050 METAR ESMX 301050Z 26009KT CAVOK 15/09 Q1035=
201509301020 METAR ESMX 301020Z 28010KT 240V300 9999 FEW015 14/09 Q1035=
201509300950 METAR ESMX 300950Z 27007KT 230V320 9999 FEW011 14/10 Q1035=
201509300920 METAR ESMX 300920Z 25009KT 9999 BKN008 11/09 Q1036=
201509300850 METAR ESMX 300850Z 26009KT 230V300 9999 OVC008 11/09 Q1036=
201509300820 METAR ESMX 300820Z 27010KT 250V310 9999 BKN005 10/10 Q1036=
201509300750 METAR ESMX 300750Z 22005KT 8000 BR BKN002 10/10 Q1036=
201509300720 METAR COR ESMX 300720Z 23004KT 170V270 0900 R19/P2000N FG VV003 09/09 Q1036=
201509300650 METAR ESMX 300650Z 22004KT 0400 R01/0600V0800N R19/0800V1100N FG VV002 08/08 Q1036=
201509300620 METAR ESMX 300620Z 21004KT 0250 R01/0500N R19/0550N FG VV002 08/07 Q1036=
201509300550 METAR ESMX 300550Z 22006KT 0200 R01/0500N R19/0550N FG VV002 07/07 Q1036=
201509300520 METAR ESMX 300520Z 22005KT 0300 R01/0600V0750N R19/0700N FG VV002 06/06 Q1036=
201509300450 METAR ESMX 300450Z 21006KT 0800 R01/P2000N R19/0700N BCFG VV004 05/05 Q1036=
201509300420 METAR COR ESMX 300420Z 22004KT 9999 R01/P2000N R19/0800V1100N BCFG NSC 05/05 Q1036=
201509300350 METAR ESMX 300350Z 22005KT 0700 R01/P2000N R19/1000VP2000N FZFG NSC 05/05 Q1036=
201509300320 METAR ESMX 300320Z AUTO 23005KT 9999 NCD 05/05 Q1037=
201509300250 METAR ESMX 300250Z AUTO 21006KT 9999 NCD 05/04 Q1037=
201509300220 METAR ESMX 300220Z AUTO 22005KT 9999 NCD 05/04 Q1037=
201509300150 METAR ESMX 300150Z AUTO 23005KT 9999 NCD 05/04 Q1037=
201509300120 METAR ESMX 300120Z AUTO 23005KT 9999 NCD 05/04 Q1037=
201509300050 METAR ESMX 300050Z AUTO 22003KT 9999 NCD 05/05 Q1037=
201509300020 METAR ESMX 300020Z AUTO 22005KT 9999 NCD 05/04 Q1038=
201509292350 METAR ESMX 292350Z AUTO 20004KT 9000 NCD 06/05 Q1038=
201509292320 METAR ESMX 292320Z 21003KT CAVOK 04/04 Q1038=
201509292250 METAR ESMX 292250Z 23004KT CAVOK 05/04 Q1038=
201509292220 METAR ESMX 292220Z 24003KT CAVOK 05/05 Q1038=
201509292150 METAR ESMX 292150Z 23003KT CAVOK 06/05 Q1038=
201509292120 METAR ESMX 292120Z 25004KT CAVOK 07/05 Q1038=
201509292050 METAR ESMX 292050Z 25004KT CAVOK 07/05 Q1039=
201509292020 METAR ESMX 292020Z 25003KT CAVOK 07/05 Q1039=
201509291950 METAR ESMX 291950Z 24004KT CAVOK 07/05 Q1038=
201509291920 METAR ESMX 291920Z 22005KT CAVOK 07/05 Q1038=
201509291850 METAR ESMX 291850Z 22004KT CAVOK 06/05 Q1039=
201509291820 METAR COR ESMX 291820Z 20003KT CAVOK 06/05 Q1039=
201509291750 METAR ESMX 291750Z 20003KT CAVOK 07/06 Q1039=
201509291720 METAR ESMX 291720Z 24003KT CAVOK 09/06 Q1039=
201509291650 METAR ESMX 291650Z 00000KT CAVOK 10/07 Q1039=
201509291620 METAR ESMX 291620Z 24003KT CAVOK 14/06 Q1039=
201509291550 METAR ESMX 291550Z 24003KT CAVOK 15/06 Q1039=
201509291520 METAR ESMX 291520Z 23004KT CAVOK 16/05 Q1039=
201509291450 METAR COR ESMX 291450Z 25004KT CAVOK 16/04 Q1040=
201509291420 METAR ESMX 291420Z 22003KT 190V280 CAVOK 16/04 Q1040=
201509291350 METAR ESMX 291350Z VRB03KT CAVOK 15/04 Q1040=
201509291320 METAR COR ESMX 291320Z VRB03KT CAVOK 15/03 Q1040=
201509291250 METAR ESMX 291250Z 03002KT CAVOK 15/03 Q1041=
201509291220 METAR ESMX 291220Z VRB02KT CAVOK 15/04 Q1041=
201509291150 METAR ESMX 291150Z 00000KT CAVOK 15/03 Q1041=
201509291120 METAR ESMX 291120Z 04003KT 350V090 CAVOK 15/03 Q1041=
201509291051 METAR ESMX 291051Z VRB03KT 9999 NSC 14/05 Q1041=
201509291020 METAR ESMX 291020Z 33003KT CAVOK 14/04 Q1041=
201509290950 METAR ESMX 290950Z AUTO VRB03KT 9999 NCD 13/05 Q1041=
201509290920 METAR ESMX 290920Z 36003KT 330V050 CAVOK 12/06 Q1042=
201509290852 METAR ESMX 290852Z VRB03KT CAVOK 12/07 Q1042=
201509290820 METAR ESMX 290820Z 02003KT 320V050 CAVOK 09/08 Q1042=
201509290750 METAR COR ESMX 290750Z 36003KT CAVOK 07/07 Q1042=
201509290720 METAR ESMX 290720Z 35002KT 0150 R01/0375V0650N R19/0300V0400N FG VV002 07/06 Q1041=
201509290650 METAR ESMX 290650Z 05001KT 0400 R01/0450V0600N R19/P2000D FG VV001 05/04 Q1041=
201509290622 METAR ESMX 290622Z 00000KT CAVOK 03/02 Q1041=
201509290620 METAR ESMX 290620Z AUTO 00000KT 2600 NCD 02/02 Q1041=
201509290550 METAR ESMX 290550Z 00000KT 0050 R01/0125N R19/0175N FG VV001 00/00 Q1041=
201509290520 METAR ESMX 290520Z 00000KT 0050 R01/0400V0550N R19/0175N FG VV100 01/01 Q1041=
201509290450 METAR ESMX 290450Z 00000KT 0050 R01/0225V0350N R19/0175N FG VV000 00/00 Q1041=
201509290420 METAR ESMX 290420Z 00000KT 0050 R01/0175V0300N R19/0125V0225N FG VV000 00/00 Q1041=
201509290350 METAR ESMX 290350Z 00000KT 0050 R01/0700N R19/0250N FG VV001 00/M00 Q1041=
201509290320 METAR ESMX 290320Z AUTO 00000KT 0050 R01/0375V0550U R19/0300N FG BKN000/// 00/M00 Q1041=
201509290250 METAR ESMX 290250Z AUTO 00000KT 0200 R01/0500VP2000D R19/P2000D BCFG VV001 01/00 Q1040=
201509290220 METAR ESMX 290220Z AUTO 00000KT 0250 R01/0350V0550N R19/P2000N FG NCD 01/01 Q1040=
201509290150 METAR ESMX 290150Z AUTO 00000KT 0900 R01/P2000N R19/P2000N BCFG NCD 00/M00 Q1040=
201509290120 METAR ESMX 290120Z AUTO 00000KT 0800 R01/P2000N R19/P2000N NCD 00/00 Q1040=
201509290050 METAR ESMX 290050Z AUTO 00000KT 0350 R01/0550VP2000D R19/P2000N BCFG NCD 00/M00 Q1040=
201509290020 METAR ESMX 290020Z AUTO 00000KT 2400 BCFG NCD 01/00 Q1040=
201509282350 METAR ESMX 282350Z AUTO 00000KT 1200 R01/P2000N R19/P2000N BCFG NCD 01/01 Q1040=
201509282320 METAR ESMX 282320Z 00000KT 7000 BCFG NSC 01/01 Q1040=
201509282250 METAR ESMX 282250Z 00000KT 6000 R01/P2000N R19/P2000N BCFG NSC 02/02 Q1040=
201509282220 METAR ESMX 282220Z 00000KT CAVOK 02/02 Q1039=
201509282150 METAR ESMX 282150Z 00000KT CAVOK 03/03 Q1039=
201509282120 METAR ESMX 282120Z 00000KT CAVOK 03/02 Q1039=
201509282050 METAR ESMX 282050Z 00000KT CAVOK 03/02 Q1039=
201509282020 METAR ESMX 282020Z 00000KT CAVOK 04/04 Q1039=
201509281950 METAR ESMX 281950Z 00000KT CAVOK 04/04 Q1039=
201509281920 METAR ESMX 281920Z 00000KT CAVOK 05/04 Q1039=
201509281850 METAR ESMX 281850Z 00000KT CAVOK 06/05 Q1039=
201509281820 METAR ESMX 281820Z 00000KT CAVOK 06/05 Q1039=
201509281750 METAR ESMX 281750Z 00000KT CAVOK 07/06 Q1038=
201509281720 METAR ESMX 281720Z 35002KT CAVOK 09/06 Q1038=
201509281659 METAR ESMX 281659Z 36003KT CAVOK 10/06 Q1038=
201509281650 METAR ESMX 281650Z AUTO 01003KT 9999 FEW058/// 11/06 Q1038=
201509281620 METAR ESMX 281620Z 33003KT 290V350 CAVOK 12/08 Q1038=
201509281550 METAR ESMX 281550Z 33004KT CAVOK 12/06 Q1038=
201509281520 METAR ESMX 281520Z 33004KT 9999 FEW043 SCT051 13/06 Q1038=
201509281450 METAR ESMX 281450Z 32004KT 9999 FEW043 SCT054 13/06 Q1037=
201509281420 METAR ESMX 281420Z 36005KT 320V020 9999 FEW043 SCT050 14/05 Q1037=
201509281350 METAR ESMX 281350Z 34007KT CAVOK 15/05 Q1037=
201509281320 METAR ESMX 281320Z AUTO 01007KT 320V040 9999 FEW043/// BKN050/// 15/04 Q1037=
201509281250 METAR ESMX 281250Z 36009KT 9999 SCT045 15/05 Q1037=
201509281220 METAR ESMX 281220Z 34008KT 9999 SCT043 15/05 Q1037=
201509281150 METAR ESMX 281150Z 36008KT 9999 BKN043 15/05 Q1037=
201509281126 METAR ESMX 281126Z 34008KT 9999 OVC043 15/05 Q1037=
201509281120 METAR ESMX 281120Z AUTO 35009KT 9999 BKN043/// 14/05 Q1037=
201509281050 METAR ESMX 281050Z 36009KT 320V030 CAVOK 15/05 Q1036=
201509281020 METAR ESMX 281020Z 34009KT 300V360 CAVOK 15/05 Q1037=
201509280950 METAR ESMX 280950Z 34008KT 300V010 CAVOK 14/06 Q1037=
201509280920 METAR ESMX 280920Z 36007KT 330V030 CAVOK 14/07 Q1037=
201509280850 METAR COR ESMX 280850Z 34008KT CAVOK 13/07 Q1036=
201509280820 METAR ESMX 280820Z 35007KT CAVOK 12/07 Q1036=
201509280750 METAR ESMX 280750Z 36006KT CAVOK 11/07 Q1036=
201509280720 METAR ESMX 280720Z 01007KT CAVOK 10/07 Q1036=
201509280650 METAR ESMX 280650Z 36006KT CAVOK 08/07 Q1036=
201509280620 METAR ESMX 280620Z VRB02KT CAVOK 04/03 Q1035=
201509280550 METAR ESMX 280550Z 32002KT CAVOK 03/02 Q1035=
201509280520 METAR ESMX 280520Z 00000KT CAVOK 03/03 Q1035=
201509280450 METAR ESMX 280450Z VRB01KT CAVOK 02/02 Q1035=
201509280420 METAR ESMX 280420Z 30003KT CAVOK 03/03 Q1035=
201509280350 METAR ESMX 280350Z 32004KT CAVOK 03/03 Q1034=
201509280320 METAR ESMX 280320Z AUTO 33004KT 9999 NCD 04/03 Q1034=
201509280250 METAR ESMX 280250Z AUTO 32003KT 9999 NCD 04/04 Q1034=
201509280220 METAR ESMX 280220Z AUTO 31003KT 9999 FEW055/// 04/03 Q1034=
201509280150 METAR ESMX 280150Z AUTO 34004KT 9999 SCT055/// 05/05 Q1034=
201509280120 METAR ESMX 280120Z AUTO 31003KT 9999 NCD 05/05 Q1033=
201509280050 METAR ESMX 280050Z AUTO 00000KT 9999 NCD 05/05 Q1033=
201509280020 METAR ESMX 280020Z AUTO 32002KT 9999 FEW050/// 04/03 Q1033=
201509272350 METAR ESMX 272350Z AUTO 30003KT 9999 BKN049/// 04/03 Q1033=
201509272320 METAR ESMX 272320Z AUTO 29002KT 9999 NCD 05/04 Q1033=
201509272250 METAR ESMX 272250Z 00000KT CAVOK 06/05 Q1033=
201509272220 METAR ESMX 272220Z 00000KT CAVOK 05/04 Q1033=
201509272150 METAR ESMX 272150Z 33002KT CAVOK 07/06 Q1033=
201509272120 METAR ESMX 272120Z 33003KT CAVOK 07/06 Q1033=
201509272050 METAR ESMX 272050Z VRB01KT CAVOK 07/05 Q1032=
201509272020 METAR ESMX 272020Z 31003KT CAVOK 07/06 Q1032=
201509271950 METAR ESMX 271950Z 33005KT CAVOK 07/06 Q1032=
201509271920 METAR ESMX 271920Z 30004KT CAVOK 08/05 Q1032=
201509271850 METAR ESMX 271850Z 31006KT CAVOK 07/05 Q1032=
201509271820 METAR ESMX 271820Z 31003KT CAVOK 07/05 Q1032=
201509271750 METAR ESMX 271750Z 30004KT CAVOK 09/06 Q1031=
201509271720 METAR ESMX 271720Z 29004KT CAVOK 09/06 Q1031=
201509271650 METAR ESMX 271650Z 31005KT CAVOK 11/06 Q1031=
201509271620 METAR COR ESMX 271620Z 32005KT CAVOK 13/05 Q1030=
201509271550 METAR ESMX 271550Z 32008KT CAVOK 15/04 Q1030=
201509271520 METAR ESMX 271520Z 31009KT CAVOK 15/04 Q1030=
201509271450 METAR ESMX 271450Z 31009KT 280V350 CAVOK 16/04 Q1030=
201509271420 METAR ESMX 271420Z 29007KT 250V330 9999 FEW025 16/05 Q1030=
201509271350 METAR COR ESMX 271350Z 29007KT 260V340 9999 FEW020 16/05 Q1029=
201509271320 METAR ESMX 271320Z 29007KT 260V340 9999 FEW020 16/05 Q1029=
201509271250 METAR ESMX 271250Z 29007KT 260V330 9999 FEW020 16/05 Q1029=
201509271220 METAR ESMX 271220Z AUTO 32008KT 290V350 9999 NCD 16/04 Q1029=
201509271150 METAR ESMX 271150Z AUTO 32008KT 290V350 9999 NCD 16/02 Q1030=
201509271120 METAR ESMX 271120Z AUTO 33008KT 290V010 9999 NCD 15/04 Q1030=
201509271050 METAR ESMX 271050Z AUTO 32009KT 280V350 9999 NCD 15/05 Q1029=
201509271020 METAR ESMX 271020Z AUTO 31008KT 280V350 9999 NCD 15/05 Q1029=
201509270950 METAR ESMX 270950Z AUTO 34008KT 310V010 9999 NCD 15/05 Q1029=
201509270920 METAR ESMX 270920Z AUTO 32008KT 9999 NCD 14/07 Q1029=
201509270850 METAR ESMX 270850Z AUTO 32006KT 280V350 9999 NCD 13/07 Q1029=
201509270820 METAR ESMX 270820Z AUTO 31003KT 280V360 9999 NCD 12/08 Q1029=
201509270750 METAR ESMX 270750Z AUTO VRB03KT 9999 NCD 10/07 Q1029=
201509270720 METAR ESMX 270720Z AUTO 00000KT 9999 NCD 08/08 Q1029=
201509270650 METAR ESMX 270650Z AUTO 00000KT 9999 NCD 07/07 Q1028=
201509270620 METAR ESMX 270620Z AUTO 00000KT 9999 NCD 04/04 Q1028=
201509270550 METAR ESMX 270550Z AUTO VRB01KT 9999 NCD 03/02 Q1028=
201509270520 METAR ESMX 270520Z AUTO 28003KT 9999 NCD 01/01 Q1028=
201509270450 METAR ESMX 270450Z AUTO 29003KT 9999 NCD 01/01 Q1028=
201509270420 METAR ESMX 270420Z AUTO 00000KT 9999 NCD 01/01 Q1027=
201509270350 METAR ESMX 270350Z AUTO 31002KT 9999 NCD 02/01 Q1027=
201509270320 METAR ESMX 270320Z AUTO 31003KT 9999 NCD 02/01 Q1027=
201509270250 METAR ESMX 270250Z AUTO 31003KT 9999 NCD 03/03 Q1027=
201509270220 METAR ESMX 270220Z AUTO VRB03KT 9999 NCD 02/02 Q1026=
201509270150 METAR ESMX 270150Z AUTO 31003KT 9999 NCD 01/01 Q1026=
201509270050 METAR ESMX 270050Z AUTO 29003KT 9999 NCD 02/02 Q1026=
201509270020 METAR ESMX 270020Z AUTO 30003KT 9999 NCD 04/03 Q1026=
201509262350 METAR ESMX 262350Z AUTO 30002KT 9999 NCD 04/04 Q1025=
201509262250 METAR ESMX 262250Z AUTO VRB02KT 9999 NCD 06/05 Q1025=
201509262220 METAR ESMX 262220Z AUTO 30004KT 9999 NCD 07/06 Q1025=
201509262150 METAR ESMX 262150Z AUTO 27005KT 9999 NCD 07/06 Q1025=
201509262120 METAR ESMX 262120Z AUTO 27004KT 9999 NCD 07/06 Q1025=
201509262050 METAR ESMX 262050Z AUTO 28005KT 9999 NCD 07/06 Q1025=
201509262020 METAR ESMX 262020Z AUTO 28005KT 9999 NCD 08/06 Q1024=
201509261950 METAR ESMX 261950Z AUTO 29004KT 9999 NCD 08/06 Q1024=
201509261920 METAR ESMX 261920Z AUTO 28006KT 9999 NCD 09/06 Q1024=
201509261850 METAR ESMX 261850Z AUTO 27006KT 9999 NCD 09/06 Q1024=
201509261820 METAR ESMX 261820Z AUTO 27005KT 9999 NCD 09/06 Q1023=
201509261750 METAR ESMX 261750Z 26003KT CAVOK 10/06 Q1023=
201509261720 METAR ESMX 261720Z 27004KT CAVOK 11/06 Q1023=
201509261650 METAR ESMX 261650Z 27006KT CAVOK 12/06 Q1023=
201509261620 METAR ESMX 261620Z 27008KT CAVOK 13/07 Q1022=
201509261550 METAR ESMX 261550Z 27009KT CAVOK 14/06 Q1022=
201509261520 METAR ESMX 261520Z 27010KT 9999 FEW038 15/06 Q1022=
201509261450 METAR ESMX 261450Z AUTO 26008KT 9999 FEW037/// 15/07 Q1022=
201509261420 METAR ESMX 261420Z AUTO 26009KT 9999 FEW057/// 15/06 Q1021=
201509261350 METAR ESMX 261350Z AUTO 26008KT 200V300 9999 FEW043/// BKN049/// 15/07 Q1021=
201509261320 METAR ESMX 261320Z AUTO 27010KT 250V320 9999 FEW048/// SCT054/// 16/07 Q1021=
201509261250 METAR ESMX 261250Z AUTO 28009KT 250V320 9999 FEW040/// 15/07 Q1021=
201509261220 METAR ESMX 261220Z AUTO 31009KT 220V350 9999 NCD 16/07 Q1021=
201509261150 METAR ESMX 261150Z AUTO 28008KT 220V340 9999 FEW091/// 14/07 Q1021=
201509261120 METAR ESMX 261120Z AUTO 25010KT 220V280 9999 FEW034/// 15/07 Q1021=
201509261050 METAR ESMX 261050Z AUTO 28009KT 240V300 9999 FEW030/// 14/08 Q1021=
201509261020 METAR ESMX 261020Z AUTO 27010KT 250V310 9999 NCD 14/08 Q1021=
201509260950 METAR ESMX 260950Z AUTO 29012KT 9999 FEW018/// SCT030/// 14/08 Q1021=
201509260920 METAR ESMX 260920Z AUTO 29010KT 9999 FEW015/// SCT019/// BKN026/// 13/09 Q1021=
201509260850 METAR ESMX 260850Z AUTO 28009KT 240V300 9999 FEW015/// BKN020/// BKN026/// 12/09 Q1021=
201509260820 METAR ESMX 260820Z AUTO 28009KT 9999 FEW007/// SCT012/// BKN018/// 12/10 Q1021=
201509260750 METAR ESMX 260750Z AUTO 26008KT 9999 FEW005/// BKN006/// BKN010/// 11/10 Q1021=
201509260720 METAR ESMX 260720Z AUTO 25006KT 210V300 9999 BKN004/// 10/09 Q1021=
201509260650 METAR ESMX 260650Z AUTO 21005KT 9999 FEW003/// SCT005/// 09/08 Q1021=
201509260620 METAR ESMX 260620Z AUTO VRB03KT 9999 SCT008/// 08/08 Q1021=
201509260550 METAR ESMX 260550Z AUTO 22004KT 9000 BR FEW003/// BKN009/// 07/07 Q1020=
201509260520 METAR ESMX 260520Z AUTO 23003KT 9999 NCD 07/07 Q1020=
201509260450 METAR ESMX 260450Z AUTO 23005KT 9999 NCD 07/07 Q1020=
201509260420 METAR ESMX 260420Z AUTO 24006KT 9999 NCD 07/07 Q1020=
201509260350 METAR ESMX 260350Z AUTO 22005KT 9999 NCD 06/06 Q1020=
201509260320 METAR ESMX 260320Z AUTO 23004KT 2600 NCD 07/06 Q1020=
201509260250 METAR ESMX 260250Z AUTO 22006KT 9999 NCD 07/07 Q1020=
201509260220 METAR ESMX 260220Z AUTO 22007KT 9999 NCD 07/07 Q1020=
201509260150 METAR ESMX 260150Z AUTO 22006KT 9999 NCD 07/07 Q1020=
201509260120 METAR ESMX 260120Z AUTO 22006KT 3600 NCD 07/07 Q1019=
201509260050 METAR ESMX 260050Z AUTO 23005KT 9000 NCD 07/07 Q1020=
201509260020 METAR ESMX 260020Z AUTO 23005KT 2400 NCD 07/07 Q1019=
201509252350 METAR ESMX 252350Z AUTO 23005KT 9999 NCD 07/07 Q1019=
201509252320 METAR ESMX 252320Z AUTO 21004KT 9999 NCD 07/07 Q1019=
201509252250 METAR ESMX 252250Z AUTO 24006KT 9999 NCD 08/07 Q1019=
201509252220 METAR ESMX 252220Z AUTO 23006KT 9999 NCD 08/07 Q1019=
201509252150 METAR ESMX 252150Z AUTO 23006KT 9999 NCD 08/07 Q1019=
201509252120 METAR ESMX 252120Z AUTO 22005KT 9999 NCD 07/07 Q1019=
201509252050 METAR ESMX 252050Z AUTO 21004KT 9999 NCD 08/07 Q1019=
201509252020 METAR ESMX 252020Z AUTO 22005KT 9999 NCD 08/07 Q1019=
201509251950 METAR ESMX 251950Z AUTO 21006KT 9999 NCD 08/07 Q1019=
201509251920 METAR ESMX 251920Z AUTO 21005KT 9999 NCD 09/07 Q1018=
201509251850 METAR ESMX 251850Z AUTO 21006KT 9999 NCD 09/07 Q1018=
201509251820 METAR ESMX 251820Z AUTO 21005KT 9999 SCT095/// 09/07 Q1018=
201509251750 METAR ESMX 251750Z AUTO 22004KT 9999 SCT096/// 10/07 Q1018=
201509251720 METAR ESMX 251720Z 22004KT CAVOK 11/07 Q1018=
201509251650 METAR ESMX 251650Z 23007KT CAVOK 12/06 Q1017=
201509251620 METAR ESMX 251620Z 23007KT 9999 FEW027 14/07 Q1017=
201509251550 METAR ESMX 251550Z 23009KT 9999 FEW036 15/07 Q1017=
201509251520 METAR ESMX 251520Z 24006KT 200V280 9999 FEW037 14/08 Q1017=
201509251450 METAR ESMX 251450Z 22008KT 9999 FEW036 16/07 Q1017=
201509251420 METAR ESMX 251420Z 22010KT 9999 FEW039 SCT072 16/07 Q1017=
201509251350 METAR ESMX 251350Z 22010KT 9999 FEW040 SCT047 15/07 Q1017=
201509251320 METAR ESMX 251320Z 25009KT 210V280 9999 FEW037 SCT055 16/07 Q1017=
201509251250 METAR ESMX 251250Z 23009KT 9999 FEW038 SCT050 BKN064 16/07 Q1017=
201509251220 METAR ESMX 251220Z 21011KT 190V250 9999 FEW040 BKN058 16/07 Q1017=
201509251150 METAR ESMX 251150Z 23011KT 9999 FEW037 SCT059 16/08 Q1017=
201509251120 METAR ESMX 251120Z 22008KT 190V250 9999 FEW026 SCT032 BKN044 15/08 Q1017=
201509251050 METAR ESMX 251050Z 22010KT 9999 FEW030 SCT039 BKN046 16/09 Q1017=
201509251020 METAR ESMX 251020Z 22008KT 200V260 9999 FEW023 SCT027 14/08 Q1017=
201509250950 METAR ESMX 250950Z 20009KT 9999 SCT025 15/09 Q1017=
201509250920 METAR ESMX 250920Z 24008KT 9999 FEW015 SCT025 14/09 Q1017=
201509250850 METAR ESMX 250850Z 21009KT 9999 SCT016 BKN040 13/10 Q1017=
201509250820 METAR ESMX 250820Z 21007KT 9999 FEW013 BKN017 12/10 Q1017=
201509250750 METAR ESMX 250750Z 21007KT 170V250 9999 SCT010 12/10 Q1016=
201509250720 METAR ESMX 250720Z 21007KT 9999 SCT010 11/10 Q1016=
201509250650 METAR ESMX 250650Z 22007KT 9999 FEW005 11/10 Q1016=
201509250620 METAR ESMX 250620Z 20005KT 9999 FEW007 11/10 Q1016=
201509250550 METAR ESMX 250550Z 20005KT 9999 FEW012 10/10 Q1015=
201509250520 METAR ESMX 250520Z 22004KT 9999 FEW009 10/09 Q1015=
201509250450 METAR ESMX 250450Z 22005KT 9999 FEW011 SCT045 11/10 Q1015=
201509250420 METAR ESMX 250420Z AUTO 21006KT 9999 OVC046/// 11/11 Q1015=
201509250350 METAR ESMX 250350Z AUTO 22006KT 9999 FEW012/// OVC047/// 12/11 Q1014=
201509250320 METAR ESMX 250320Z AUTO 21007KT 9999 FEW006/// SCT038/// BKN042/// 12/11 Q1014=
201509250250 METAR ESMX 250250Z AUTO 20006KT 9999 FEW006/// SCT013/// BKN035/// 12/11 Q1014=
201509250220 METAR ESMX 250220Z AUTO 22008KT 9999 FEW006/// BKN008/// OVC011/// 12/12 Q1014=
201509250150 METAR ESMX 250150Z AUTO 19009KT 9999 BKN007/// OVC010/// 12/12 Q1014=
201509250120 METAR ESMX 250120Z AUTO 18009KT 9999 FEW008/// OVC009/// 12/12 Q1014 RERA=
201509250050 METAR ESMX 250050Z AUTO 18009KT 9999 OVC010/// 12/11 Q1014=
201509250020 METAR ESMX 250020Z AUTO 18010KT 9999 -RA OVC010/// 13/11 Q1014=
201509242350 METAR ESMX 242350Z 17009KT 9999 BKN010 13/11 Q1014=
201509242320 METAR ESMX 242320Z 17010KT 9999 SCT011 BKN015 13/11 Q1014=
201509242250 METAR ESMX 242250Z 17011KT 9999 SCT016 BKN024 12/11 Q1014=
201509242220 METAR COR ESMX 242220Z 17010KT 9999 FEW010 SCT028 12/10 Q1014=
201509242150 METAR ESMX 242150Z AUTO 17010KT 9999 FEW013/// BKN090/// 12/10 Q1014=
201509242120 METAR ESMX 242120Z AUTO 16009KT 9999 FEW011/// BKN081/// 12/10 Q1014=
201509242050 METAR ESMX 242050Z 17008KT 9999 SCT008 SCT070 11/10 Q1014=
201509242020 METAR ESMX 242020Z 16009KT 9999 SCT012 BKN072 12/10 Q1014=
201509241950 METAR ESMX 241950Z 17008KT 9999 SCT013 12/10 Q1015=
201509241920 METAR ESMX 241920Z 16008KT 9999 FEW012 12/10 Q1015=
201509241850 METAR ESMX 241850Z 17009KT 9999 FEW012 BKN018 13/10 Q1015=
201509241820 METAR ESMX 241820Z 17010KT 9999 BKN017 13/10 Q1014=
201509241750 METAR ESMX 241750Z 16008KT 9999 FEW020 SCT030 13/10 Q1014=
201509241720 METAR ESMX 241720Z 17010KT 9999 FEW020 SCT045 13/10 Q1014=
201509241650 METAR COR ESMX 241650Z 18009KT 9999 FEW020 SCT050 14/10 Q1014=
201509241620 METAR ESMX 241620Z 17009KT 9999 FEW020 SCT050 14/10 Q1014=
201509241550 METAR COR ESMX 241550Z 17010KT 150V210 9999 FEW020TCU SCT040 BKN050 15/11 Q1014=
201509241520 METAR ESMX 241520Z 17008KT 9999 FEW030TCU BKN050 15/10 Q1014=
201509241450 METAR ESMX 241450Z 17008KT 9999 SCT028TCU BKN036 16/10 Q1014=
201509241420 METAR ESMX 241420Z 19010KT 150V210 9999 FEW032TCU 16/10 Q1014=
201509241350 METAR ESMX 241350Z 19011KT 9999 FEW030TCU SCT045 16/09 Q1014=
201509241320 METAR ESMX 241320Z 18012KT 9999 FEW030TCU SCT045 16/10 Q1014=
201509241250 METAR ESMX 241250Z 19012KT 9999 FEW025TCU SCT035 17/10 Q1014=
201509241150 METAR ESMX 241150Z 19014KT 9999 FEW027 SCT058 16/10 Q1014=
201509241120 METAR ESMX 241120Z 20010KT 170V240 9999 FEW023TCU SCT035 15/10 Q1014=
201509241050 METAR ESMX 241050Z 19013KT 9999 FEW018TCU SCT029 BKN039 15/10 Q1014=
201509241020 METAR ESMX 241020Z 19011KT 9999 FEW017TCU SCT035 BKN080 14/11 Q1014=
201509240950 METAR COR ESMX 240950Z 20008KT 9999 FEW015 SCT025 BKN060 14/11 Q1014=
201509240920 METAR ESMX 240920Z 21009KT 9999 SCT015 14/11 Q1013=
201509240820 METAR COR ESMX 240820Z 18011KT 9999 SCT007 BKN013 13/11 Q1013=
201509240750 METAR ESMX 240750Z 18008KT 9999 FEW007 SCT075 12/11 Q1013=
201509240720 METAR ESMX 240720Z 20008KT 9999 BKN008 13/11 Q1013=
201509240650 METAR ESMX 240650Z 20007KT 180V240 9999 FEW005 SCT007 12/11 Q1013=
201509240620 METAR ESMX 240620Z 18008KT 9999 FEW007 SCT010 12/11 Q1013=
201509240550 METAR ESMX 240550Z 17006KT 9999 SCT003 BKN007 BKN062 12/11 Q1013=
201509240520 METAR COR ESMX 240520Z 17005KT 030V190 9999 -RA FEW004 BKN006 12/11 Q1012=
201509240450 METAR COR ESMX 240450Z 17005KT 030V190 9999 -RA FEW004 BKN006 12/11 Q1012=
201509240420 METAR ESMX 240420Z 19006KT 7000 RA FEW005 SCT021 BKN050 12/11 Q1012=
201509240350 METAR ESMX 240350Z 19005KT 5000 RA FEW006 SCT025 BKN035 12/11 Q1012=
201509240320 METAR ESMX 240320Z AUTO 18004KT 5000 RA FEW004/// SCT036/// BKN041/// 12/12 Q1012=
201509240250 METAR ESMX 240250Z AUTO 17003KT 3700 -RA BKN001/// OVC040/// 12/12 Q1012=
201509240220 METAR ESMX 240220Z AUTO 17003KT 3100 -RA OVC001/// 13/12 Q1012=
201509240120 METAR ESMX 240120Z AUTO 15003KT 2900 DZ BKN002/// BKN005/// 13/12 Q1012=
201509240050 METAR ESMX 240050Z AUTO 15004KT 2900 DZ BKN001/// 13/12 Q1012 REDZ=
201509240020 METAR ESMX 240020Z AUTO 15004KT 2200 DZ SCT002/// BKN076/// 13/12 Q1012=
201509232350 METAR ESMX 232350Z 17001KT 0750 R01/P2000N R19/P2000D FG FEW002 BKN082 12/12 Q1012=
201509232320 METAR ESMX 232320Z 16003KT 2800 BR FEW003 SCT081 13/12 Q1012=
201509232250 METAR ESMX 232250Z 16002KT 3700 BR NSC 13/12 Q1012=
201509232220 METAR ESMX 232220Z 15003KT 5000 BR NSC 13/12 Q1012=
201509232150 METAR ESMX 232150Z 16003KT 7000 BR NSC 13/12 Q1012=
201509232120 METAR ESMX 232120Z 19003KT CAVOK 12/11 Q1012=
201509232050 METAR ESMX 232050Z 14002KT CAVOK 12/11 Q1012=
201509232020 METAR ESMX 232020Z 15003KT CAVOK 13/12 Q1012=
201509231950 METAR ESMX 231950Z 17003KT CAVOK 14/12 Q1012=
201509231920 METAR ESMX 231920Z 18004KT CAVOK 14/12 Q1012=
201509231850 METAR ESMX 231850Z 16004KT CAVOK 13/12 Q1011=
201509231820 METAR ESMX 231820Z 16003KT CAVOK 13/11 Q1011=
201509231750 METAR ESMX 231750Z 17004KT CAVOK 15/11 Q1011=
201509231720 METAR ESMX 231720Z 17004KT CAVOK 14/11 Q1010=
201509231650 METAR ESMX 231650Z 17004KT CAVOK 13/11 Q1010=
201509231620 METAR ESMX 231620Z 14003KT CAVOK 14/11 Q1010=
201509231550 METAR ESMX 231550Z 15005KT CAVOK 17/10 Q1010=
201509231520 METAR ESMX 231520Z 17006KT CAVOK 17/10 Q1009=
201509231450 METAR COR ESMX 231450Z 17007KT 9999 FEW047 18/10 Q1009=
201509231420 METAR ESMX 231420Z 17007KT 140V200 9999 FEW031 18/10 Q1009=
201509231350 METAR ESMX 231350Z 19009KT 9999 FEW030 18/11 Q1008=
201509231320 METAR ESMX 231320Z 17008KT 9999 SCT031 17/11 Q1008=
201509231250 METAR ESMX 231250Z 16006KT 120V190 9999 SCT045 18/11 Q1008=
201509231220 METAR COR ESMX 231220Z 16006KT 110V190 9999 FEW031 BKN046 18/11 Q1008=
201509231150 METAR COR ESMX 231150Z 16006KT 9999 FEW025TCU SCT050 17/11 Q1008=
201509231120 METAR ESMX 231120Z 15006KT 110V190 9999 FEW020 SCT025 17/11 Q1008=
201509231050 METAR ESMX 231050Z 17005KT 9999 FEW022 17/11 Q1007=
201509231020 METAR ESMX 231020Z 16005KT 120V190 9999 FEW019 16/11 Q1007=
201509230950 METAR COR ESMX 230950Z 14007KT 100V170 9999 FEW015 16/12 Q1007=
201509230920 METAR ESMX 230920Z 15006KT 100V180 9999 FEW011 SCT068 15/12 Q1007=
201509230850 METAR ESMX 230850Z 12005KT 080V170 9999 FEW010 BKN060 14/12 Q1007=
201509230820 METAR COR ESMX 230820Z 11004KT 060V190 9999 SCT008 BKN050 14/12 Q1007=
201509230750 METAR ESMX 230750Z VRB03KT 9999 SCT007 BKN050 14/12 Q1007=
201509230720 METAR ESMX 230720Z VRB02KT 9999 BKN005 OVC050 13/12 Q1006=
201509230650 METAR ESMX 230650Z VRB03KT 9000 BR BKN005 13/12 Q1006=
201509230620 METAR COR ESMX 230620Z VRB03KT 9000 BR BKN006 OVC050 12/12 Q1006=
201509230550 METAR ESMX 230550Z VRB03KT 9000 BR SCT006 BKN050 12/11 Q1005=
201509230520 METAR COR ESMX 230520Z 10003KT 060V150 9999 SCT007 BKN050 12/11 Q1005=
201509230450 METAR ESMX 230450Z VRB03KT CAVOK 12/11 Q1005=
201509230420 METAR ESMX 230420Z VRB03KT CAVOK 12/11 Q1005=
201509230350 METAR ESMX 230350Z 10003KT 050V150 CAVOK 12/11 Q1005=
201509230320 METAR ESMX 230320Z AUTO 09003KT 040V130 9999 BKN068/// 12/11 Q1005=
201509230250 METAR ESMX 230250Z AUTO VRB03KT 9999 SCT054/// BKN072/// 12/11 Q1005=
201509230220 METAR ESMX 230220Z AUTO 11003KT 060V150 9999 FEW056/// BKN072/// 12/11 Q1005=
201509230150 METAR ESMX 230150Z AUTO 11003KT 060V150 9999 FEW065/// 12/11 Q1005=
201509230120 METAR ESMX 230120Z AUTO VRB03KT 9999 -DZ SCT055/// 12/11 Q1005=
201509230050 METAR ESMX 230050Z AUTO 12004KT 080V170 9999 -DZ BKN059/// 12/11 Q1005 REDZ=
201509230020 METAR ESMX 230020Z VRB02KT CAVOK 12/11 Q1005=
201509222350 METAR ESMX 222350Z VRB03KT CAVOK 12/11 Q1005=
201509222320 METAR ESMX 222320Z VRB03KT 9999 SCT051 12/11 Q1006=
201509222220 METAR COR ESMX 222220Z 15004KT 080V190 9999 -RA FEW027 BKN064 13/11 Q1006=
201509222150 METAR ESMX 222150Z 13005KT 090V170 9999 FEW049 BKN064 13/11 Q1006=
201509222120 METAR ESMX 222120Z 13005KT 080V170 9999 SCT043 BKN062 13/11 Q1006=
201509222050 METAR ESMX 222050Z 13005KT 080V170 9999 FEW044 BKN073 13/11 Q1006=
201509222020 METAR ESMX 222020Z 13005KT 090V170 9999 FEW007 BKN066 13/11 Q1006=
201509221950 METAR ESMX 221950Z 12005KT 080V160 9999 FEW007 BKN047 13/11 Q1006=
201509221920 METAR ESMX 221920Z 13005KT 070V160 9999 SCT010 BKN054 13/12 Q1006 RERA=
201509221850 METAR ESMX 221850Z 14007KT 9999 FEW006 BKN010 13/12 Q1006=
201509221820 METAR ESMX 221820Z 15006KT 110V190 9999 -RA FEW005 BKN010 13/12 Q1006 REDZ=
201509221750 METAR ESMX 221750Z 13006KT 100V170 9999 FEW008 BKN014 13/11 Q1006=
201509221720 METAR ESMX 221720Z 13006KT 090V180 9999 FEW009 SCT013 BKN062 13/11 Q1005=
201509221650 METAR COR ESMX 221650Z 12006KT 070V170 9999 FEW009 BKN019 13/11 Q1005=
201509221620 METAR ESMX 221620Z 13007KT 080V160 9999 FEW009 SCT013 BKN054 13/11 Q1006=
201509221520 METAR COR ESMX 221520Z 13006KT 090V190 9999 -DZ SCT008 BKN015 13/12 Q1006=
201509221450 METAR ESMX 221450Z 13005KT 080V180 9999 FEW010 SCT014 BKN036 13/12 Q1006=
201509221420 METAR ESMX 221420Z 14007KT 100V170 9999 FEW008 SCT009 OVC011 13/11 Q1006=
201509221350 METAR ESMX 221350Z 13006KT 070V160 9999 FEW008 BKN010 13/12 Q1006=
201509221320 METAR COR ESMX 221320Z 13005KT 060V170 9999 SCT007 BKN012 13/11 Q1006=
201509221250 METAR COR ESMX 221250Z 13006KT 110V170 9999 -DZ SCT010 BKN050 13/11 Q1007=
201509221150 METAR COR ESMX 221150Z 15007KT 100V190 9999 SCT008 BKN012 13/12 Q1007=
201509221120 METAR ESMX 221120Z 15007KT 9000 -RA SCT007 BKN050 13/12 Q1007=
201509221050 METAR ESMX 221050Z 15008KT 8000 -RA SCT007 BKN048 13/11 Q1007=
201509221020 METAR ESMX 221020Z 16008KT 5000 RA FEW005 SCT007 BKN009 13/12 Q1007=
201509220950 METAR ESMX 220950Z 15007KT 110V170 9000 -RA SCT005 BKN008 13/12 Q1007=
201509220920 METAR ESMX 220920Z 15007KT 110V170 5000 -RA FEW005 BKN007 12/12 Q1007=
201509220850 METAR COR ESMX 220850Z 16006KT 110V190 6000 -RA BKN004 OVC007 12/12 Q1007=
201509220820 METAR ESMX 220820Z 15006KT 6000 -RA FEW003 OVC004 12/12 Q1007=
201509220750 METAR ESMX 220750Z 16006KT 130V190 5000 -RA OVC003 12/11 Q1007=
201509220720 METAR ESMX 220720Z 15007KT 6000 -RA FEW002 OVC004 11/11 Q1007=
201509220650 METAR ESMX 220650Z 15006KT 7000 -RA FEW002 OVC004 11/11 Q1007=
201509220620 METAR ESMX 220620Z 14006KT 110V190 7000 -RA OVC002 11/10 Q1007=
201509220550 METAR ESMX 220550Z 15005KT 110V170 8000 DZ OVC002 10/10 Q1007=
201509220520 METAR ESMX 220520Z 15005KT 8000 DZ OVC002 10/10 Q1007=
201509220450 METAR ESMX 220450Z 14006KT 8000 DZ OVC003 10/09 Q1007=
201509220420 METAR ESMX 220420Z 14006KT 8000 DZ OVC003 10/09 Q1007=
201509220357 METAR ESMX 220357Z 14005KT 9999 DZ SCT004 BKN008 OVC012 10/09 Q1008=
201509220350 METAR ESMX 220350Z AUTO 13005KT 100V160 9999 DZ FEW004/// SCT009/// BKN012/// 09/09 Q1008 REDZ=
201509220320 METAR ESMX 220320Z AUTO 14005KT 9999 DZ OVC015/// 09/09 Q1008 REDZ=
201509220250 METAR ESMX 220250Z AUTO 14005KT 9999 DZ FEW019/// BKN022/// BKN032/// 09/09 Q1008=
201509220220 METAR ESMX 220220Z AUTO 13005KT 9999 DZ OVC027/// 09/09 Q1008=
201509220150 METAR ESMX 220150Z AUTO 13005KT 9999 BKN058/// 09/09 Q1008 REUP=
201509220120 METAR ESMX 220120Z AUTO 13004KT 9999 FEW076/// 08/08 Q1008=
201509220050 METAR ESMX 220050Z AUTO 13003KT 9999 FEW074/// 08/08 Q1008=
201509220020 METAR ESMX 220020Z AUTO 13002KT 9999 FEW096/// 07/07 Q1009=
201509212350 METAR ESMX 212350Z 13003KT CAVOK 07/06 Q1009=
201509212320 METAR ESMX 212320Z 15003KT CAVOK 06/05 Q1009=
201509212250 METAR ESMX 212250Z AUTO 16003KT 0400 R01/P2000N R19/P2000N FG NCD 06/06 Q1009=
201509212220 METAR ESMX 212220Z 17003KT CAVOK 07/07 Q1009=
201509212151 METAR ESMX 212151Z 21004KT CAVOK 08/07 Q1009=
201509212120 METAR ESMX 212120Z AUTO 21005KT 9999 NCD 08/07 Q1010=
201509212050 METAR ESMX 212050Z 20005KT CAVOK 08/07 Q1010=
201509212020 METAR ESMX 212020Z 20004KT CAVOK 07/06 Q1010=
201509211950 METAR ESMX 211950Z AUTO 17003KT 9999 SCT052/// 09/07 Q1010=
201509211920 METAR ESMX 211920Z VRB03KT 9999 BKN047 OVC062 10/09 Q1010=
201509211850 METAR ESMX 211850Z 17002KT 9999 FEW044 OVC057 09/08 Q1010=
201509211821 METAR ESMX 211821Z 00000KT CAVOK 09/08 Q1010=
201509211820 METAR ESMX 211820Z AUTO 00000KT 9999 BKN066/// 09/08 Q1010=
201509211750 METAR ESMX 211750Z 00000KT CAVOK 09/08 Q1010=
201509211720 METAR ESMX 211720Z 00000KT CAVOK 10/08 Q1010=
201509211650 METAR ESMX 211650Z 19001KT CAVOK 12/08 Q1010=
201509211620 METAR ESMX 211620Z 00000KT CAVOK 12/08 Q1010=
201509211550 METAR ESMX 211550Z 24002KT CAVOK 13/06 Q1010=
201509211520 METAR ESMX 211520Z 25004KT 210V280 CAVOK 13/06 Q1010=
201509211450 METAR ESMX 211450Z 28004KT 9999 FEW025 BKN100 13/07 Q1010=
201509211420 METAR ESMX 211420Z 26005KT 9999 FEW025 BKN100 14/07 Q1010=
201509211350 METAR ESMX 211350Z 28005KT 240V310 9999 FEW025 BKN100 13/06 Q1010=
201509211320 METAR ESMX 211320Z 26005KT 9999 FEW027 SCT043 BKN100 13/07 Q1010=
201509211250 METAR ESMX 211250Z 26005KT 9999 FEW025 BKN100 14/07 Q1010=
201509211220 METAR ESMX 211220Z 25006KT 220V290 9999 FEW025 SCT036 BKN110 14/07 Q1011=
201509211150 METAR ESMX 211150Z 28005KT 250V330 9999 FEW026 SCT031 BKN110 13/06 Q1011=
201509211120 METAR ESMX 211120Z 27005KT 230V320 9999 SCT028 BKN035 13/07 Q1011=
201509211050 METAR ESMX 211050Z 29005KT 260V330 9999 FEW030TCU BKN054 14/06 Q1011=
201509211020 METAR ESMX 211020Z 32005KT 270V010 9999 FEW022 SCT031 BKN053 14/07 Q1011=
201509210950 METAR COR ESMX 210950Z 34006KT 320V030 9999 FEW020 BKN025 12/08 Q1011=
201509210920 METAR ESMX 210920Z 01007KT 9999 SCT015 13/08 Q1011=
201509210850 METAR COR ESMX 210850Z 01006KT 320V040 9999 SCT008 SCT050 12/08 Q1011=
201509210820 METAR ESMX 210820Z 36006KT 9999 SCT008 SCT080 12/09 Q1011=
201509210750 METAR ESMX 210750Z 32005KT 9999 FEW007 SCT050 12/09 Q1012=
201509210720 METAR COR ESMX 210720Z 31004KT 290V360 9999 FEW007 SCT050 10/09 Q1012=
201509210650 METAR ESMX 210650Z 31003KT 260V340 9999 FEW007 SCT065 09/08 Q1011=
201509210620 METAR ESMX 210620Z 34004KT 9999 FEW030 SCT050 10/09 Q1011=
201509210550 METAR ESMX 210550Z 00000KT 9999 FEW015 SCT050 08/08 Q1011=
201509210520 METAR COR ESMX 210520Z 00000KT 9999 FEW010 SCT050 07/07 Q1011=
201509210450 METAR ESMX 210450Z 30003KT 9999 FEW007 07/07 Q1011=
201509210420 METAR ESMX 210420Z 28005KT 9999 FEW007 08/07 Q1012=
201509210350 METAR ESMX 210350Z 31004KT 9999 FEW008 09/08 Q1011=
201509210320 METAR ESMX 210320Z AUTO 35006KT 310V020 9999 NCD 10/08 Q1012=
201509210250 METAR ESMX 210250Z AUTO 35005KT 9999 NCD 09/08 Q1012=
201509210220 METAR ESMX 210220Z AUTO 36003KT 9999 FEW071/// 09/08 Q1012=
201509210150 METAR ESMX 210150Z AUTO 30005KT 9999 FEW088/// 09/08 Q1012=
201509210120 METAR ESMX 210120Z AUTO 32005KT 280V350 9999 FEW009/// BKN084/// BKN098/// 09/08 Q1012=
201509210050 METAR ESMX 210050Z AUTO 32005KT 290V360 9999 BKN081/// BKN097/// 10/08 Q1012=
201509210020 METAR ESMX 210020Z AUTO 32005KT 9999 BKN078/// BKN096/// 10/09 Q1012=
201509202350 METAR ESMX 202350Z AUTO 32004KT 9999 BKN076/// BKN089/// 10/09 Q1012=
201509202320 METAR ESMX 202320Z AUTO 32005KT 9999 BKN075/// 10/09 Q1012=
201509202250 METAR ESMX 202250Z 35003KT CAVOK 10/09 Q1012=
201509202220 METAR ESMX 202220Z 36004KT CAVOK 10/09 Q1013=
201509202150 METAR ESMX 202150Z VRB01KT CAVOK 10/09 Q1013=
201509202120 METAR ESMX 202120Z 32002KT CAVOK 10/09 Q1013=
201509202050 METAR ESMX 202050Z 30004KT CAVOK 10/09 Q1013=
201509202020 METAR ESMX 202020Z AUTO VRB02KT 9999 OVC062/// 09/09 Q1013=
201509201950 METAR ESMX 201950Z VRB01KT CAVOK 08/08 Q1013=
201509201920 METAR ESMX 201920Z 00000KT 0350 R01/0800V1400U R19/0900V1700D BCFG SCT080 08/08 Q1013=
201509201850 METAR ESMX 201850Z 00000KT 0400 R01/P2000N R19/P2000N BCFG SCT080 09/09 Q1013=
201509201820 METAR ESMX 201820Z 00000KT 9999 MIFG SCT046 BKN081 10/10 Q1013=
201509201750 METAR ESMX 201750Z 00000KT 9999 MIFG FEW020 SCT050 11/10 Q1013=
201509201720 METAR ESMX 201720Z 00000KT 9999 FEW020TCU SCT050 11/10 Q1013 REDZ=
201509201650 METAR ESMX 201650Z 00000KT 9999 FEW035TCU SCT070 11/10 Q1013=
201509201620 METAR ESMX 201620Z 10003KT 9999 FEW035CB BKN050 12/11 Q1013=
201509201550 METAR COR ESMX 201550Z 04006KT 9999 -SHRA FEW025CB SCT060 13/10 Q1013=
201509201520 METAR ESMX 201520Z AUTO 36004KT 9999 FEW067/// 14/09 Q1013=
201509201450 METAR COR ESMX 201450Z 33004KT 9999 FEW030CB SCT070 15/08 Q1013=
201509201420 METAR ESMX 201420Z 34005KT 9999 FEW025 SCT080 14/09 Q1013=
201509201350 METAR ESMX 201350Z 35003KT 300V040 9999 SCT025 BKN070 15/08 Q1013=
201509201320 METAR ESMX 201320Z 07004KT 030V100 9999 FEW025 SCT050 BKN070 15/07 Q1013=
201509201250 METAR ESMX 201250Z 03004KT 350V080 9999 FEW020 SCT070 15/08 Q1013=
201509201220 METAR ESMX 201220Z AUTO 09003KT 360V160 9999 FEW023/// 15/06 Q1013=
201509201150 METAR ESMX 201150Z AUTO 06004KT 340V110 9999 FEW049/// SCT055/// 15/08 Q1013=
201509201120 METAR ESMX 201120Z AUTO 08004KT 050V150 9999 SCT055/// 14/09 Q1013=
201509201050 METAR ESMX 201050Z AUTO 04007KT 9999 FEW019/// BKN057/// 14/09 Q1013=
201509201020 METAR ESMX 201020Z AUTO 12004G17KT 020V160 9999 FEW020/// OVC049/// 14/08 Q1013=
201509200950 METAR ESMX 200950Z AUTO VRB03KT 360V190 9999 FEW022/// SCT056/// 15/09 Q1013=
201509200920 METAR ESMX 200920Z AUTO 11003KT 9999 FEW016/// 14/09 Q1013=
201509200850 METAR ESMX 200850Z AUTO VRB04KT 030V250 9999 FEW016/// OVC087/// 13/08 Q1014=
201509200820 METAR ESMX 200820Z AUTO 17005KT 110V230 9999 FEW008/// SCT010/// BKN015/// 13/09 Q1013 REDZ=
201509200750 METAR ESMX 200750Z AUTO 15002KT 9999 FEW007/// BKN016/// 12/09 Q1013=
201509200720 METAR ESMX 200720Z AUTO VRB01KT 9999 FEW005/// SCT007/// BKN013/// 11/10 Q1013=
201509200650 METAR ESMX 200650Z AUTO 17004KT 9999 OVC004/// 11/10 Q1013=
201509200620 METAR ESMX 200620Z AUTO 18004KT 9999 OVC003/// 11/10 Q1013=
201509200550 METAR ESMX 200550Z AUTO 18005KT 150V220 9999 OVC003/// 10/10 Q1013=
201509200520 METAR ESMX 200520Z AUTO 19006KT 9999 OVC003/// 10/10 Q1013=
201509200450 METAR ESMX 200450Z AUTO 18005KT 9999 SCT004/// BKN008/// BKN059/// 10/09 Q1013=
201509200420 METAR ESMX 200420Z AUTO 19005KT 9999 FEW005/// OVC044/// 10/10 Q1013=
201509200350 METAR ESMX 200350Z AUTO 18005KT 9999 FEW005/// SCT044/// OVC059/// 10/10 Q1013=
201509200320 METAR ESMX 200320Z AUTO 18007KT 9999 FEW006/// OVC055/// 10/10 Q1013=
201509200250 METAR ESMX 200250Z AUTO 18007KT 9999 FEW015/// OVC053/// 10/09 Q1014=
201509200220 METAR ESMX 200220Z AUTO 17006KT 9999 FEW019/// SCT042/// BKN048/// 10/09 Q1014=
201509200150 METAR ESMX 200150Z AUTO 19007KT 9999 FEW013/// OVC050/// 10/09 Q1014=
201509200120 METAR ESMX 200120Z AUTO 19006KT 9999 FEW012/// SCT021/// BKN069/// 10/09 Q1014 REDZ REUP=
201509200050 METAR ESMX 200050Z AUTO 17006KT 9999 FEW070/// 10/09 Q1014=
201509200020 METAR ESMX 200020Z AUTO 19006KT 9999 BKN067/// 10/09 Q1014=
201509192350 METAR ESMX 192350Z AUTO 19006KT 9999 FEW022/// BKN062/// 11/10 Q1015 REDZ=
201509192320 METAR ESMX 192320Z AUTO 19005KT 9999 FEW030/// SCT057/// BKN069/// 11/10 Q1015 REDZ=
201509192250 METAR ESMX 192250Z AUTO 20006KT 9999 FEW043/// BKN075/// 10/09 Q1015=
201509192220 METAR ESMX 192220Z AUTO 21006KT 9999 FEW027/// SCT054/// OVC072/// 10/09 Q1015=
201509192150 METAR ESMX 192150Z AUTO 19007KT 9999 FEW030/// OVC068/// 11/09 Q1015=
201509192120 METAR ESMX 192120Z AUTO 20005KT 9999 OVC065/// 10/09 Q1015=
201509192050 METAR ESMX 192050Z AUTO 18006KT 9999 FEW031/// OVC065/// 10/09 Q1016=
201509192020 METAR ESMX 192020Z AUTO 20006KT 9999 FEW032/// BKN064/// 10/09 Q1016=
201509191950 METAR ESMX 191950Z AUTO 19006KT 9999 BKN058/// 10/09 Q1016=
201509191920 METAR ESMX 191920Z AUTO 22006KT 9999 FEW062/// 10/08 Q1016=
201509191850 METAR ESMX 191850Z AUTO 20006KT 9999 FEW033/// BKN062/// 11/08 Q1016=
201509191820 METAR ESMX 191820Z AUTO 20006KT 9999 BKN056/// 11/08 Q1016=
201509191750 METAR ESMX 191750Z 23006KT 9999 BKN052 12/08 Q1015=
201509191650 METAR COR ESMX 191650Z 23007KT 9999 FEW033 BKN051 13/08 Q1015=
201509191620 METAR ESMX 191620Z 24009KT 9999 SCT050 14/07 Q1015=
201509191550 METAR ESMX 191550Z 24009KT 9999 SCT049 14/07 Q1015=
201509191450 METAR COR ESMX 191450Z 23012KT 9999 SCT040 16/07 Q1015=
201509191420 METAR ESMX 191420Z 26010KT 230V290 9999 SCT047 16/07 Q1015=
201509191350 METAR ESMX 191350Z 25008KT 210V280 9999 SCT046 16/08 Q1015=
201509191320 METAR ESMX 191320Z AUTO 25010KT 9999 FEW049/// 16/08 Q1015=
201509191250 METAR ESMX 191250Z 26010KT 9999 FEW036 SCT043 BKN054 16/09 Q1015=
201509191220 METAR ESMX 191220Z 21013KT 170V240 9999 FEW035 SCT040 BKN052 18/08 Q1015=
201509191150 METAR ESMX 191150Z 22010KT 190V260 9999 FEW035 BKN052 17/09 Q1015=
201509191120 METAR ESMX 191120Z 22011KT 9999 FEW033 BKN051 16/08 Q1015=
201509191050 METAR ESMX 191050Z 22011KT 9999 FEW042 BKN054 17/09 Q1015=
201509191020 METAR ESMX 191020Z AUTO 22012KT 9999 FEW030/// 17/09 Q1015=
201509190950 METAR ESMX 190950Z AUTO 22012KT 9999 SCT028/// BKN035/// 16/10 Q1015=
201509190920 METAR ESMX 190920Z AUTO 22011KT 200V260 9999 FEW023/// 14/08 Q1015=
201509190820 METAR ESMX 190820Z AUTO 22011KT 200V260 9999 FEW018/// 14/10 Q1015=
201509190750 METAR ESMX 190750Z AUTO 23011KT 9999 FEW016/// 14/10 Q1015=
201509190720 METAR ESMX 190720Z AUTO 22009KT 9999 FEW013/// SCT074/// 13/11 Q1015=
201509190620 METAR ESMX 190620Z AUTO 22007KT 9999 FEW011/// 12/11 Q1014=
201509190550 METAR ESMX 190550Z AUTO 21007KT 9999 FEW007/// SCT012/// BKN020/// 12/11 Q1014=
201509190520 METAR ESMX 190520Z AUTO 21007KT 9999 FEW007/// SCT016/// BKN021/// 12/11 Q1014=
201509190450 METAR ESMX 190450Z AUTO 21007KT 9999 FEW007/// SCT012/// BKN020/// 12/11 Q1014=
201509190420 METAR ESMX 190420Z AUTO 21007KT 9999 BKN006/// BKN021/// 12/11 Q1014=
201509190350 METAR ESMX 190350Z AUTO 21005KT 9999 BKN006/// OVC011/// 12/11 Q1013=
201509190320 METAR ESMX 190320Z AUTO 21006KT 9999 FEW006/// SCT008/// BKN013/// 12/11 Q1013=
201509190250 METAR ESMX 190250Z AUTO 21007KT 9999 FEW006/// SCT008/// BKN011/// 12/11 Q1013=
201509190220 METAR ESMX 190220Z AUTO 21008KT 9999 FEW009/// SCT026/// BKN030/// 12/11 Q1013=
201509190150 METAR ESMX 190150Z AUTO 22007KT 9999 FEW007/// SCT014/// BKN022/// 11/11 Q1013=
201509190120 METAR ESMX 190120Z AUTO 21007KT 9999 FEW008/// SCT013/// 11/10 Q1013=
201509190050 METAR ESMX 190050Z AUTO 21008KT 9999 FEW008/// BKN011/// 11/10 Q1013=
201509190020 METAR ESMX 190020Z AUTO 20007KT 9999 SCT010/// BKN020/// 12/11 Q1013=
201509182350 METAR ESMX 182350Z AUTO 22008KT 9999 FEW010/// 11/10 Q1013=
201509182320 METAR ESMX 182320Z AUTO 20008KT 9999 FEW020/// 11/10 Q1013=
201509182250 METAR ESMX 182250Z AUTO 22007KT 9999 FEW020/// 11/10 Q1013=
201509182220 METAR ESMX 182220Z AUTO 22007KT 9999 NCD 11/10 Q1013=
201509182150 METAR ESMX 182150Z AUTO 22007KT 9999 NCD 11/10 Q1012=
201509182120 METAR ESMX 182120Z AUTO 22008KT 9999 NCD 11/10 Q1012=
201509182050 METAR ESMX 182050Z AUTO 21008KT 9999 NCD 12/10 Q1012=
201509182020 METAR ESMX 182020Z AUTO 22010KT 9999 NCD 12/10 Q1012=
201509181950 METAR ESMX 181950Z AUTO 22009KT 9999 FEW018/// 12/10 Q1011=
201509181920 METAR ESMX 181920Z AUTO 21009KT 9999 FEW026/// 12/10 Q1011=
201509181850 METAR ESMX 181850Z AUTO 22010KT 9999 NCD 13/10 Q1011=
201509181820 METAR ESMX 181820Z AUTO 21009KT 9999 NCD 13/10 Q1011=
201509181750 METAR ESMX 181750Z 23010KT 9999 FEW025 13/10 Q1010=
201509181720 METAR ESMX 181720Z 21011G24KT 9999 FEW026 13/10 Q1010=
201509181650 METAR ESMX 181650Z 23011G21KT 9999 SCT026 14/10 Q1010=
201509181620 METAR ESMX 181620Z 23014G24KT 9999 FEW027 SCT029 14/10 Q1009=
201509181550 METAR ESMX 181550Z 23012KT 190V260 9999 FEW027 SCT035 15/09 Q1009=
201509181520 METAR ESMX 181520Z 23012KT 9999 FEW027 SCT035 15/10 Q1009=
201509181450 METAR ESMX 181450Z 24014KT 9999 FEW025 SCT033 BKN062 15/10 Q1009=
201509181420 METAR ESMX 181420Z 24015G25KT 9999 FEW029 SCT033 BKN063 16/10 Q1008=
201509181350 METAR ESMX 181350Z 22014G25KT 190V260 9999 FEW027 SCT037 BKN061 16/10 Q1008=
201509181320 METAR ESMX 181320Z 24013G24KT 9999 FEW036 SCT041 17/09 Q1007=
201509181250 METAR ESMX 181250Z 23015G25KT 9999 FEW030 SCT041 BKN059 17/10 Q1007=
201509181220 METAR ESMX 181220Z 24014G27KT 210V270 9999 FEW030 BKN055 15/09 Q1007=
201509181150 METAR ESMX 181150Z 23015KT 9999 SCT030 BKN050 16/09 Q1007=
201509181120 METAR ESMX 181120Z 23017G27KT 9999 SCT042 BKN057 16/10 Q1006=
201509181050 METAR ESMX 181050Z 24016G27KT 9999 FEW027 SCT032 BKN045 15/09 Q1006=
201509181020 METAR ESMX 181020Z 23017G27KT 200V260 9999 FEW033 BKN042 16/09 Q1005=
201509180950 METAR ESMX 180950Z 23021G33KT 9999 FEW024 BKN035 16/09 Q1005=
201509180920 METAR ESMX 180920Z 22018G26KT 9999 SCT024 BKN030 15/10 Q1004=
201509180850 METAR ESMX 180850Z AUTO 22019G29KT 9999 FEW021/// SCT027/// BKN032/// 15/10 Q1004=
201509180820 METAR ESMX 180820Z 23014G25KT 9999 SCT020 BKN026 14/10 Q1003=
201509180750 METAR ESMX 180750Z 22018G28KT 9999 FEW015 SCT025 BKN035 14/10 Q1003=
201509180720 METAR ESMX 180720Z 23016G27KT 9999 FEW015 BKN020 13/10 Q1002=
201509180650 METAR ESMX 180650Z 23015KT 9999 SCT015 BKN020 13/11 Q1002=
201509180620 METAR ESMX 180620Z 21016KT 9999 FEW014 BKN020 13/11 Q1001=
201509180550 METAR COR ESMX 180550Z 21015KT 9999 FEW014 BKN023 12/10 Q1001 REDZ=
201509180520 METAR ESMX 180520Z 22015KT 9999 SCT012 12/10 Q1000=
201509180450 METAR ESMX 180450Z 22016G32KT 9999 -RA FEW012 BKN016 12/11 Q1000=
201509180420 METAR ESMX 180420Z 22017KT 9999 -DZ FEW011 SCT014 BKN017 13/11 Q0999=
201509180350 METAR ESMX 180350Z 22016G26KT 8000 -DZ FEW009 BKN014 OVC018 13/11 Q0999 REDZ=
201509180320 METAR ESMX 180320Z AUTO 20015KT 8000 FEW009/// SCT013/// BKN016/// 13/12 Q0998 REDZ=
201509180250 METAR ESMX 180250Z AUTO 19013KT 9999 BR FEW010/// BKN014/// OVC019/// 13/12 Q0998 REDZ=
201509180220 METAR ESMX 180220Z AUTO 20014KT 9999 FEW015/// OVC035/// 13/12 Q0998=
201509180150 METAR ESMX 180150Z AUTO 20012KT 9999 FEW010/// SCT013/// BKN034/// 13/12 Q0998 REDZ=
201509180120 METAR ESMX 180120Z AUTO 20011KT 9999 FEW010/// SCT013/// BKN016/// 14/12 Q0998=
201509180050 METAR ESMX 180050Z AUTO 21012KT 9999 -DZ FEW013/// SCT017/// BKN027/// 14/13 Q0998 RERA=
201509180020 METAR ESMX 180020Z AUTO 21012KT 3300 -RA FEW007/// SCT012/// BKN014/// 14/13 Q0997 REDZ=
201509172343 METAR ESMX 172343Z 18010KT 9999 BKN012 BKN034 15/13 Q0997=
201509172250 METAR COR ESMX 172250Z 17011KT 9999 FEW008 SCT014 BKN020 15/13 Q0998=
201509172220 METAR ESMX 172220Z 17010KT 9999 FEW010 SCT013 BKN038 15/13 Q0999=
201509172150 METAR ESMX 172150Z 17010KT 9999 FEW009 BKN011 15/13 Q0998=
201509172120 METAR ESMX 172120Z 17010KT 9999 BKN011 15/13 Q0998=
201509172050 METAR ESMX 172050Z 17009KT CAVOK 15/13 Q0998=
201509172020 METAR ESMX 172020Z 17010KT CAVOK 15/13 Q0999=
201509171920 METAR COR ESMX 171920Z 17009KT CAVOK 15/13 Q0998=
201509171850 METAR ESMX 171850Z 17009KT 150V210 CAVOK 15/13 Q0999=
201509171820 METAR ESMX 171820Z AUTO 17008KT 9999 -DZ NCD 15/13 Q0999=
201509171750 METAR ESMX 171750Z 17009KT 9999 -DZ NSC 15/13 Q0999=
201509171720 METAR ESMX 171720Z AUTO 18009KT 9999 -DZ FEW074/// 15/13 Q0999=
201509171650 METAR ESMX 171650Z 18010KT 9999 -DZ FEW035 BKN100 16/13 Q0999=
201509171620 METAR ESMX 171620Z 18010KT 9999 -RA FEW010 SCT035 BKN100 16/13 Q0999=
201509171550 METAR ESMX 171550Z 18009KT 9999 -RA FEW008 SCT035 BKN100 17/13 Q0998=
201509171520 METAR ESMX 171520Z 19010KT 9999 -RA BKN040 17/13 Q0998=
201509171450 METAR COR ESMX 171450Z 19012KT 9999 FEW035 BKN045 18/13 Q0998=
201509171420 METAR ESMX 171420Z 20013KT 9999 FEW038 SCT047 20/12 Q0997=
201509171350 METAR ESMX 171350Z 18017KT 9999 FEW038 SCT045 20/12 Q0997=
201509171320 METAR ESMX 171320Z 18014KT 9999 FEW030 SCT040 20/12 Q0997=
201509171250 METAR ESMX 171250Z 17014KT 9999 SCT030 21/13 Q0997=
201509171220 METAR ESMX 171220Z 18009KT 140V210 9999 SCT030 20/14 Q0997=
201509171157 METAR ESMX 171157Z 18011KT 150V210 9999 FEW030 20/14 Q0997=
201509171150 METAR ESMX 171150Z AUTO 17010KT 9999 NCD 20/14 Q0997=
201509171120 METAR ESMX 171120Z 17009KT 140V200 9999 FEW018 19/15 Q0997=
201509171050 METAR ESMX 171050Z 17011KT 140V200 9999 FEW015 SCT080 18/14 Q0997=
201509171020 METAR ESMX 171020Z 16010KT 9999 FEW012 SCT015 BKN070 18/15 Q0997=
201509170950 METAR ESMX 170950Z 16008KT 120V190 9999 SCT015 BKN060 17/15 Q0996=
201509170920 METAR ESMX 170920Z 16009KT 9999 FEW015 BKN063 17/15 Q0997=
201509170850 METAR ESMX 170850Z 16007KT 9999 FEW015 BKN070 17/15 Q0996=
201509170820 METAR ESMX 170820Z 15009KT CAVOK 17/15 Q0996=
201509170750 METAR ESMX 170750Z 16008KT CAVOK 16/15 Q0997=
201509170720 METAR ESMX 170720Z 14008KT 100V170 CAVOK 16/15 Q0996=
201509170650 METAR ESMX 170650Z 14007KT 110V170 7000 BR BKN078 16/15 Q0996 REDZ=
201509170620 METAR ESMX 170620Z 15007KT 7000 BR SCT007 BKN088 16/15 Q0996=
201509170550 METAR ESMX 170550Z 14008KT 5000 BR FEW007 SCT009 16/15 Q0996=
201509170520 METAR ESMX 170520Z 15008KT 6000 BR FEW008 SCT013 BKN016 17/15 Q0996=
201509170450 METAR ESMX 170450Z 15009KT 120V190 5000 BR FEW007 SCT012 BKN019 17/16 Q0996=
201509170420 METAR ESMX 170420Z 15008KT 4800 BR FEW005 16/16 Q0996=
201509170350 METAR ESMX 170350Z 13006KT 080V160 4500 BR FEW005 SCT006 16/15 Q0995=
201509170320 METAR ESMX 170320Z AUTO 14007KT 4800 BR FEW005/// BKN006/// BKN008/// 16/16 Q0996=
201509170250 METAR ESMX 170250Z AUTO 14006KT 100V180 4800 BR FEW005/// SCT006/// BKN008/// 16/16 Q0996 REDZ=
201509170220 METAR ESMX 170220Z AUTO 13006KT 100V170 4100 BR BKN005/// 16/16 Q0997=
201509170150 METAR ESMX 170150Z AUTO 14007KT 110V170 4400 -RA FEW004/// SCT006/// BKN007/// 16/16 Q0997 RERA=
201509170120 METAR ESMX 170120Z AUTO 14008KT 110V170 5000 BR OVC004/// 16/16 Q0998 REDZ=
201509170050 METAR ESMX 170050Z AUTO 16005KT 110V190 9000 OVC005/// 16/15 Q0998=
201509170020 METAR ESMX 170020Z AUTO 15005KT 110V180 9999 FEW004/// SCT005/// BKN007/// 16/15 Q0997 RERA=
201509162350 METAR ESMX 162350Z 13008KT 100V170 9999 OVC003 16/15 Q0998=
201509162320 METAR ESMX 162320Z 13007KT 070V170 4500 +DZ BR FEW003 SCT005 OVC006 15/15 Q0998=
201509162250 METAR ESMX 162250Z 11004KT 070V170 5000 RA BR BKN004 OVC007 15/14 Q0998=
201509162220 METAR ESMX 162220Z 11004KT 050V180 5000 RA BR FEW006 SCT010 BKN018 14/13 Q0999=
201509162150 METAR ESMX 162150Z 12005KT 060V190 9999 -RA FEW016 SCT029 BKN057 14/13 Q1000=
201509162120 METAR ESMX 162120Z 11005KT 040V160 9999 -RA FEW027 14/13 Q1000=
201509162050 METAR ESMX 162050Z 11005KT 070V150 9999 RA FEW027 SCT063 13/12 Q1001=
201509162020 METAR ESMX 162020Z 11005KT 070V160 9999 -RA FEW041 13/12 Q1001=
201509161950 METAR ESMX 161950Z 13005KT 060V190 9999 RA NSC 13/12 Q1002=
201509161920 METAR ESMX 161920Z 14005KT 070V190 9999 -RA FEW027 FEW059 13/12 Q1002=
201509161850 METAR COR ESMX 161850Z 12005KT 070V170 9999 -RA FEW027 SCT057 13/12 Q1002=
201509161820 METAR COR ESMX 161820Z 12005KT 070V170 9999 -RA FEW027 SCT059 14/11 Q1003=
201509161750 METAR COR ESMX 161750Z 11005KT 070V160 9999 -RA FEW024 SCT067 14/11 Q1003=
201509161720 METAR ESMX 161720Z AUTO VRB03KT 9999 -DZ SCT058/// 14/12 Q1003=
201509161650 METAR ESMX 161650Z VRB02KT CAVOK 14/12 Q1003=
201509161620 METAR ESMX 161620Z AUTO VRB03KT 9999 -RA SCT066/// 14/11 Q1003=
201509161550 METAR ESMX 161550Z VRB04KT 060V260 CAVOK 15/10 Q1003=
201509161520 METAR ESMX 161520Z 11003KT 070V160 CAVOK 15/10 Q1003=
201509161450 METAR ESMX 161450Z 13004KT 100V170 CAVOK 16/10 Q1004=
201509161420 METAR ESMX 161420Z 12003KT 070V160 CAVOK 16/10 Q1004=
201509161350 METAR ESMX 161350Z 15005KT 110V190 CAVOK 16/09 Q1004=
201509161320 METAR ESMX 161320Z 15005KT 9999 FEW047 BKN100 16/09 Q1004=
201509161250 METAR ESMX 161250Z 15005KT 9999 FEW040 16/10 Q1004=
201509161220 METAR ESMX 161220Z 16006KT 110V190 CAVOK 16/09 Q1005=
201509161150 METAR ESMX 161150Z 15009KT 9999 FEW048 SCT086 16/10 Q1005=
201509161120 METAR ESMX 161120Z 16009KT 9999 FEW025 SCT085 16/10 Q1005=
201509161050 METAR ESMX 161050Z 15008KT 120V210 9999 SCT026 17/11 Q1005=
201509161020 METAR ESMX 161020Z 15008KT 110V190 9999 FEW017 SCT020 16/11 Q1005=
201509160950 METAR ESMX 160950Z 15008KT 120V190 9999 FEW012 SCT015 16/11 Q1006=
201509160920 METAR ESMX 160920Z 16010KT 120V190 9999 FEW012 16/12 Q1006=
201509160850 METAR ESMX 160850Z 14008KT 110V180 9999 FEW009 SCT012 15/12 Q1006=
201509160820 METAR ESMX 160820Z 16008KT 130V190 9999 FEW008 SCT010 BKN013 15/12 Q1006=
201509160750 METAR ESMX 160750Z 17008KT 130V190 9999 SCT006 BKN011 14/12 Q1006=
201509160720 METAR ESMX 160720Z 17008KT 9999 FEW005 OVC006 13/12 Q1006=
201509160650 METAR ESMX 160650Z 17009KT 9999 FEW003 SCT005 BKN006 13/12 Q1006=
201509160620 METAR ESMX 160620Z 15007KT 110V180 9999 BKN002 OVC005 12/12 Q1006=
201509160550 METAR ESMX 160550Z 14006KT 010V170 9999 BKN003 BKN005 12/12 Q1005=
201509160520 METAR ESMX 160520Z 15008KT 9999 BKN002 OVC004 12/12 Q1005=
201509160450 METAR ESMX 160450Z 15008KT 8000 BR OVC002 12/12 Q1005=
201509160420 METAR ESMX 160420Z 15007KT 120V180 4200 BR OVC001 12/11 Q1005=
201509160350 METAR ESMX 160350Z 15007KT 1500 BR VV002 11/11 Q1005=
201509160320 METAR ESMX 160320Z AUTO 14007KT 0700 R01/1200VP2000D R19/P2000N FG VV002 11/11 Q1005=
201509160250 METAR ESMX 160250Z AUTO 14007KT 8000 BR NCD 11/10 Q1005=
201509160220 METAR ESMX 160220Z AUTO 14005KT 9999 NCD 10/10 Q1005=
201509160150 METAR ESMX 160150Z AUTO 13006KT 9999 NCD 10/10 Q1005=
201509160120 METAR ESMX 160120Z AUTO 13005KT 9999 NCD 10/10 Q1005=
201509160050 METAR ESMX 160050Z AUTO 13006KT 9999 NCD 10/10 Q1005=
201509160020 METAR ESMX 160020Z AUTO 14005KT 9999 NCD 10/09 Q1005=
201509152350 METAR ESMX 152350Z 15005KT 9999 FEW035 10/09 Q1005=
201509152320 METAR ESMX 152320Z 13004KT 9999 FEW027 SCT042 10/09 Q1006=
201509152250 METAR ESMX 152250Z 14004KT 9999 SCT026 BKN042 10/09 Q1006=
201509152220 METAR ESMX 152220Z 13005KT 9999 BKN048 10/09 Q1006=
201509152150 METAR ESMX 152150Z 14005KT 100V160 9999 SCT044 10/09 Q1006=
201509152120 METAR ESMX 152120Z 13005KT 100V160 9999 FEW036 10/09 Q1006 RERA=
201509152050 METAR ESMX 152050Z 17008KT 9999 SHRA FEW045CB 10/09 Q1006=
201509152020 METAR ESMX 152020Z 17014KT 140V200 8000 SHRA FEW011 SCT042CB BKN070 11/09 Q1006=
201509151950 METAR COR ESMX 151950Z 14008KT 110V190 9999 +SHRA SCT043CB BKN080 13/10 Q1006=
201509151920 METAR ESMX 151920Z 13006KT 090V170 CAVOK 12/10 Q1006=
201509151850 METAR ESMX 151850Z 14005KT 110V170 9999 FEW048 13/10 Q1006=
201509151820 METAR ESMX 151820Z 14006KT 100V170 CAVOK 13/09 Q1006=
201509151750 METAR ESMX 151750Z 15008KT CAVOK 13/09 Q1006=
201509151720 METAR ESMX 151720Z 15007KT CAVOK 14/09 Q1006=
201509151650 METAR ESMX 151650Z 17009KT CAVOK 14/09 Q1006=
201509151620 METAR ESMX 151620Z 16010KT 9999 FEW034 15/08 Q1006=
201509151550 METAR ESMX 151550Z 16009KT 9999 FEW038 15/09 Q1006=
201509151520 METAR ESMX 151520Z 18013KT 9999 FEW040 16/08 Q1006=
201509151450 METAR COR ESMX 151450Z 18016KT 9999 SCT040 16/07 Q1006=
201509151420 METAR ESMX 151420Z 18013KT 9999 FEW037 SCT046 BKN053 17/08 Q1006=
201509151350 METAR ESMX 151350Z 19014KT 9999 FEW027 SCT035 16/08 Q1005=
201509151320 METAR ESMX 151320Z 18014KT 150V210 9999 FEW026 SCT035 17/09 Q1005=
201509151250 METAR ESMX 151250Z 19017KT 9999 FEW025 SCT035 17/08 Q1005=
201509151220 METAR ESMX 151220Z 18016KT 9999 FEW035 SCT090 17/09 Q1005=
201509151150 METAR ESMX 151150Z 18015KT 9999 SCT035 18/10 Q1005=
201509151120 METAR ESMX 151120Z 20016KT 9999 FEW027 SCT041 17/10 Q1005=
201509151050 METAR ESMX 151050Z 21011KT 160V240 9999 FEW020TCU SCT045 16/11 Q1004=
201509151020 METAR ESMX 151020Z 19014KT 9999 FEW023 SCT047 16/11 Q1004=
201509150950 METAR ESMX 150950Z 19015KT 160V230 9999 FEW017 SCT028 17/12 Q1004=
201509150920 METAR ESMX 150920Z 21011KT 9999 FEW010 SCT030TCU 16/12 Q1004=
201509150850 METAR ESMX 150850Z 21011KT 9999 FEW010 SCT030TCU 14/12 Q1004=
201509150820 METAR ESMX 150820Z 21011KT 9999 SCT010 BKN040 15/13 Q1003=
201509150750 METAR ESMX 150750Z 21011KT 9999 FEW006 SCT015 BKN050 15/13 Q1003=
201509150720 METAR ESMX 150720Z 20011KT 9999 SCT006 BKN015 14/13 Q1002=
201509150650 METAR ESMX 150650Z 18010KT 9000 BR SCT005 BKN007 15/14 Q1002 REDZ=
201509150620 METAR ESMX 150620Z 18007KT 8000 BR BKN005 15/14 Q1002=
201509150550 METAR COR ESMX 150550Z 18008KT 9999 BKN005 15/14 Q1002=
201509150520 METAR COR ESMX 150520Z 19007KT 9999 FEW005 BKN006 15/14 Q1001=
201509142350 METAR ESMX 142350Z 10007KT 060V140 6000 DZ OVC006 14/14 Q1003=
201509142320 METAR ESMX 142320Z 09007KT 050V160 8000 BR FEW008 OVC009 14/13 Q1004=
201509142250 METAR ESMX 142250Z 10006KT 050V150 8000 -DZ FEW009 OVC011 14/13 Q1004=
201509142220 METAR ESMX 142220Z 10006KT 060V140 9999 -DZ FEW011 OVC015 14/13 Q1005=
201509142150 METAR ESMX 142150Z 10007KT 050V150 9999 OVC012 15/13 Q1005=
201509142120 METAR ESMX 142120Z VRB08G18KT 060V260 9999 OVC012 15/13 Q1005=
201509142050 METAR ESMX 142050Z 10009G19KT 060V170 9999 OVC012 15/13 Q1005=
201509142020 METAR ESMX 142020Z 10007KT 040V160 9999 OVC011 15/13 Q1006=
201509141950 METAR ESMX 141950Z AUTO 10009KT 020V140 9999 OVC011/// 15/13 Q1006=
201509141920 METAR ESMX 141920Z 10008KT 050V140 9999 OVC011 15/12 Q1007=
201509141850 METAR ESMX 141850Z 09008KT 050V140 9999 OVC010 15/12 Q1007=
201509141820 METAR ESMX 141820Z 10009KT 060V140 9999 OVC010 14/12 Q1007=
201509141750 METAR ESMX 141750Z 09008KT 050V150 9999 OVC010 14/12 Q1008=
201509141720 METAR ESMX 141720Z 10009KT 040V140 9999 BKN010 14/12 Q1008=
201509141650 METAR ESMX 141650Z 10009KT 060V150 9999 BKN012 14/12 Q1008=
201509141620 METAR ESMX 141620Z 09009G19KT 010V160 9999 BKN012 14/12 Q1008=
201509141550 METAR ESMX 141550Z 10008KT 050V150 9999 BKN012 15/12 Q1008=
201509141520 METAR COR ESMX 141520Z 10010KT 050V150 9999 BKN010 15/12 Q1008=
201509141450 METAR COR ESMX 141450Z 09008G19KT 040V140 9999 BKN012 15/12 Q1008=
201509141420 METAR COR ESMX 141420Z 09009G19KT 060V170 9999 BKN012 15/12 Q1009=
201509141350 METAR ESMX 141350Z 10010G21KT 050V160 9999 BKN015 16/12 Q1009=
201509141320 METAR ESMX 141320Z 10011G21KT 050V150 9999 BKN015 16/12 Q1009=
201509141250 METAR ESMX 141250Z 09011KT 050V150 9999 BKN016 16/12 Q1009=
201509141220 METAR COR ESMX 141220Z 10009KT 050V160 9999 BKN017 17/12 Q1010=
201509141150 METAR ESMX 141150Z 09009G20KT 050V140 9999 BKN017 BKN025 17/13 Q1010=
201509141120 METAR COR ESMX 141120Z 10011G21KT 050V150 9999 BKN015 17/13 Q1010=
201509141050 METAR COR ESMX 141050Z 10011G21KT 050V150 9999 BKN015 17/13 Q1010=
201509141020 METAR ESMX 141020Z 10009KT 060V220 9999 BKN014 16/13 Q1011=
201509140950 METAR ESMX 140950Z 10008KT 020V160 9999 BKN015 16/13 Q1011=
201509140920 METAR ESMX 140920Z 10009KT 050V140 9999 BKN012 16/13 Q1011=
201509140850 METAR ESMX 140850Z 09010G19KT 030V130 9999 BKN011 15/13 Q1011=
201509140820 METAR ESMX 140820Z 10008KT 050V150 9999 OVC010 15/13 Q1012=
201509140750 METAR ESMX 140750Z 09007KT 030V170 9999 OVC008 15/13 Q1012=
201509140720 METAR ESMX 140720Z 11007G17KT 060V160 9000 BR BKN007 OVC010 15/13 Q1012=
201509140650 METAR ESMX 140650Z 10008KT 050V140 6000 BR OVC006 15/13 Q1012=
201509140620 METAR ESMX 140620Z 10008KT 060V170 5000 BR OVC006 15/13 Q1012=
201509140550 METAR ESMX 140550Z 10007KT 020V170 5000 BR OVC006 14/13 Q1013=
201509140520 METAR ESMX 140520Z 10007KT 060V170 5000 BR OVC006 14/13 Q1013=
201509140450 METAR ESMX 140450Z 10007KT 040V200 5000 BR OVC006 14/13 Q1013=
201509140420 METAR ESMX 140420Z 10008KT 050V140 5000 BR OVC005 14/13 Q1013=
201509140350 METAR ESMX 140350Z 10007KT 050V150 5000 BR OVC006 14/13 Q1013=
201509140320 METAR ESMX 140320Z AUTO 10008KT 060V150 5000 BR OVC005/// 14/13 Q1013=
201509140250 METAR ESMX 140250Z AUTO 10006KT 070V130 6000 BR OVC005/// 14/13 Q1013=
201509140220 METAR ESMX 140220Z AUTO 10006KT 030V150 6000 BR OVC006/// 14/13 Q1014=
201509140150 METAR ESMX 140150Z AUTO 10006KT 030V150 6000 BR OVC005/// 14/13 Q1014=
201509140120 METAR ESMX 140120Z AUTO 10007KT 060V130 6000 BR OVC005/// 14/13 Q1014=
201509140050 METAR ESMX 140050Z AUTO 10006KT 030V150 6000 BR OVC005/// 14/13 Q1014=
201509140020 METAR ESMX 140020Z AUTO 11006KT 070V200 5000 BR OVC006/// 14/13 Q1015 REDZ=
201509132350 METAR ESMX 132350Z AUTO 11006KT 050V140 5000 BR OVC006/// 14/13 Q1015=
201509132320 METAR ESMX 132320Z 11005KT 060V150 5000 -RA OVC006 14/13 Q1015 REDZ=
201509132250 METAR ESMX 132250Z 11005KT 040V160 6000 BR OVC006 14/13 Q1015=
201509132220 METAR ESMX 132220Z 11005KT 030V160 7000 BR FEW007 OVC009 14/13 Q1016=
201509132150 METAR ESMX 132150Z 10005KT 060V150 6000 BR OVC008 14/13 Q1016=
201509132120 METAR ESMX 132120Z 11006KT 060V160 8000 -RA OVC007 14/13 Q1016=
201509132050 METAR ESMX 132050Z 12007KT 070V160 8000 BR OVC008 14/13 Q1016=
201509132021 METAR ESMX 132021Z 10007KT 060V160 9000 BR OVC008 14/12 Q1016=
201509131950 METAR ESMX 131950Z AUTO 10006KT 060V150 9999 OVC008/// 14/12 Q1017=
201509131920 METAR ESMX 131920Z VRB07KT 300V210 9000 BR OVC006 14/12 Q1017=
201509131850 METAR ESMX 131850Z 10008KT 050V150 8000 BR OVC006 14/12 Q1017=
201509131823 METAR ESMX 131823Z 10006KT 050V140 9000 BR OVC007 14/12 Q1017=
201509131820 METAR ESMX 131820Z AUTO 10007KT 050V210 9000 OVC007/// 14/12 Q1017=
201509131750 METAR COR ESMX 131750Z 10007KT 030V170 9999 OVC010 14/12 Q1017=
201509131720 METAR COR ESMX 131720Z 10007KT 070V180 9999 OVC011 14/12 Q1017=
201509131650 METAR ESMX 131650Z VRB06KT 360V360 9999 OVC012 14/11 Q1017=
201509131620 METAR COR ESMX 131620Z 09007KT 050V140 9999 OVC012 14/11 Q1017=
201509131550 METAR COR ESMX 131550Z 09008KT 050V120 9999 OVC012 14/11 Q1017=
201509131520 METAR ESMX 131520Z 10008KT 060V150 9999 OVC012 14/12 Q1018=
201509131450 METAR ESMX 131450Z 10007KT 050V160 9999 -RA OVC011 14/12 Q1018=
201509131420 METAR ESMX 131420Z 09007KT 020V120 9999 FEW013 BKN015 14/12 Q1018=
201509131350 METAR ESMX 131350Z 10004KT 060V170 9999 BKN015 14/12 Q1018=
201509131320 METAR ESMX 131320Z 11006KT 080V170 9999 -RA BKN014 14/12 Q1019=
201509131250 METAR COR ESMX 131250Z 12006KT 070V160 9999 OVC014 14/11 Q1019=
201509131220 METAR ESMX 131220Z AUTO 11007KT 060V170 9999 OVC014/// 14/11 Q1019=
201509131150 METAR ESMX 131150Z AUTO 11008KT 060V160 9999 BKN017/// BKN023/// 15/11 Q1019=
201509131120 METAR ESMX 131120Z AUTO 12009KT 080V160 9999 FEW017/// SCT020/// BKN025/// 15/11 Q1019=
201509131050 METAR ESMX 131050Z AUTO 11010KT 070V170 9999 FEW017/// SCT021/// BKN025/// 15/11 Q1019=
201509131020 METAR ESMX 131020Z AUTO 11009KT 060V160 9999 SCT016/// BKN020/// OVC023/// 15/11 Q1019=
201509130950 METAR ESMX 130950Z AUTO 11006KT 050V170 9999 FEW014/// SCT016/// BKN019/// 14/11 Q1019=
201509130920 METAR ESMX 130920Z AUTO 11008KT 040V160 9999 FEW015/// OVC021/// 15/11 Q1020=
201509130850 METAR ESMX 130850Z AUTO 11008KT 070V150 9999 FEW014/// SCT017/// BKN020/// 14/11 Q1020=
201509130820 METAR ESMX 130820Z AUTO 11007KT 060V160 9999 FEW015/// SCT019/// BKN021/// 14/11 Q1020=
201509130750 METAR ESMX 130750Z AUTO 12006KT 070V170 9999 FEW015/// SCT018/// OVC028/// 14/11 Q1020=
201509130720 METAR ESMX 130720Z AUTO 12007KT 040V160 9999 FEW012/// SCT015/// BKN018/// 14/11 Q1020=
201509130650 METAR ESMX 130650Z AUTO 10007KT 050V180 9999 OVC011/// 13/11 Q1020=
201509130620 METAR ESMX 130620Z AUTO 11006KT 040V170 9999 BKN010/// OVC016/// 13/11 Q1020=
201509130550 METAR ESMX 130550Z AUTO 11006KT 040V160 9999 FEW012/// SCT017/// OVC022/// 13/11 Q1020=
201509130520 METAR ESMX 130520Z AUTO 12006KT 080V190 9999 FEW011/// SCT013/// BKN016/// 13/11 Q1020=
201509130450 METAR ESMX 130450Z AUTO 11006KT 060V150 9999 FEW012/// OVC020/// 13/11 Q1020=
201509130420 METAR ESMX 130420Z AUTO 11005KT 030V180 9999 FEW009/// SCT011/// BKN016/// 13/11 Q1020=
201509130320 METAR ESMX 130320Z AUTO 12005KT 060V170 9999 FEW010/// SCT013/// BKN019/// 13/12 Q1021=
201509130250 METAR ESMX 130250Z AUTO 11004KT 060V150 9999 FEW009/// BKN011/// OVC016/// 13/11 Q1021=
201509130220 METAR ESMX 130220Z AUTO 12004KT 060V170 9999 SCT011/// BKN016/// OVC025/// 13/11 Q1021=
201509130150 METAR ESMX 130150Z AUTO 12005KT 080V160 9999 FEW015/// BKN026/// OVC032/// 14/11 Q1021=
201509130120 METAR ESMX 130120Z AUTO 13007KT 100V170 9999 FEW022/// OVC029/// 14/11 Q1021=
201509130050 METAR ESMX 130050Z AUTO 12006KT 080V160 9999 FEW010/// SCT018/// BKN032/// 14/12 Q1021=
201509122350 METAR ESMX 122350Z AUTO 13005KT 090V170 9999 -DZ OVC010/// 14/12 Q1021=
201509122320 METAR ESMX 122320Z AUTO 12006KT 050V160 9999 BKN010/// OVC016/// 14/12 Q1022=
201509122250 METAR ESMX 122250Z AUTO 12006KT 080V170 9999 BKN011/// OVC020/// 14/12 Q1022=
201509122220 METAR ESMX 122220Z AUTO 12006KT 040V170 9999 BKN011/// OVC016/// 14/12 Q1022=
201509122150 METAR ESMX 122150Z AUTO 13007KT 100V170 9999 SCT014/// BKN020/// OVC032/// 14/11 Q1022=
201509122120 METAR ESMX 122120Z AUTO 11007KT 040V210 9999 FEW016/// OVC033/// 14/11 Q1022=
201509122020 METAR ESMX 122020Z AUTO 11007KT 060V170 9999 SCT014/// BKN018/// OVC026/// 14/12 Q1022=
201509121950 METAR ESMX 121950Z AUTO 09008KT 030V130 9999 FEW013/// SCT016/// BKN020/// 14/12 Q1022=
201509121920 METAR ESMX 121920Z AUTO 09007KT 060V150 9999 BKN014/// OVC025/// 14/12 Q1022=
201509121850 METAR ESMX 121850Z AUTO 09006KT 030V130 9999 FEW013/// SCT016/// BKN030/// 14/12 Q1022=
201509121820 METAR ESMX 121820Z AUTO 09007KT 050V130 9000 BR BKN014/// OVC019/// 14/12 Q1022 REDZ=
201509121750 METAR ESMX 121750Z AUTO 10007KT 050V140 9999 OVC017/// 14/11 Q1022=
201509121720 METAR ESMX 121720Z 10006KT 050V150 9999 FEW018 SCT020 BKN029 15/11 Q1022=
201509121650 METAR ESMX 121650Z 09007KT 050V140 9999 FEW019 BKN022 OVC056 15/11 Q1022=
201509121620 METAR ESMX 121620Z 10008KT 060V160 9999 FEW021 SCT025 OVC050 15/11 Q1022=
201509121550 METAR ESMX 121550Z AUTO 10007KT 050V150 9999 FEW022/// SCT028/// OVC050/// 15/11 Q1023=
201509121520 METAR ESMX 121520Z 09006KT 060V140 9999 FEW022 SCT028 BKN031 15/11 Q1023=
201509121450 METAR ESMX 121450Z 11006KT 070V150 9999 BKN022 OVC057 16/11 Q1023=
201509121420 METAR ESMX 121420Z 10006KT 050V160 9999 FEW022 SCT026 BKN067 16/11 Q1023=
201509121350 METAR ESMX 121350Z 09010G20KT 050V150 9999 SCT024 BKN034 BKN068 16/11 Q1023=
201509121320 METAR ESMX 121320Z AUTO 11008KT 060V150 9999 FEW027/// SCT038/// BKN057/// 17/11 Q1023=
201509121250 METAR ESMX 121250Z AUTO 10009KT 060V150 9999 FEW028/// SCT035/// BKN071/// 17/10 Q1023=
201509121220 METAR ESMX 121220Z 10007G18KT 060V160 9999 FEW037 BKN070 17/10 Q1023=
201509121150 METAR ESMX 121150Z 09010KT 050V130 9999 FEW031 SCT036 BKN047 17/10 Q1024=
201509121120 METAR ESMX 121120Z AUTO 10010KT 060V190 9999 FEW034/// SCT038/// BKN054/// 17/09 Q1024=
201509121050 METAR ESMX 121050Z 12011G24KT 070V150 9999 FEW033 SCT044 18/10 Q1024=
201509121020 METAR ESMX 121020Z AUTO 10011KT 060V150 9999 FEW028/// SCT037/// BKN052/// 17/10 Q1024=
201509120950 METAR ESMX 120950Z AUTO 10010KT 070V150 9999 FEW030/// SCT038/// BKN056/// 17/10 Q1024=
201509120920 METAR ESMX 120920Z AUTO 10009KT 060V150 9999 FEW028/// SCT032/// BKN036/// 17/10 Q1024=
201509120850 METAR ESMX 120850Z AUTO 09008KT 060V160 9999 FEW025/// BKN059/// 16/11 Q1024=
201509120820 METAR ESMX 120820Z AUTO 09009KT 050V130 9999 FEW018/// 16/11 Q1024=
201509120750 METAR ESMX 120750Z AUTO 09008KT 050V140 9999 FEW017/// 15/11 Q1024=
201509120720 METAR ESMX 120720Z AUTO 08007KT 050V130 9999 FEW017/// 15/11 Q1024=
201509120650 METAR ESMX 120650Z AUTO 08007KT 030V130 9999 NCD 14/12 Q1024=
201509120620 METAR ESMX 120620Z AUTO 07008KT 040V120 9999 FEW063/// 14/12 Q1025=
201509120550 METAR ESMX 120550Z AUTO 08006KT 030V130 9999 FEW060/// 14/12 Q1025=
201509120520 METAR ESMX 120520Z AUTO 07005KT 040V110 9999 NCD 13/12 Q1025=
201509120450 METAR ESMX 120450Z AUTO 06005KT 020V100 9999 NCD 13/12 Q1025=
201509120420 METAR ESMX 120420Z AUTO 06005KT 020V100 9999 NCD 13/12 Q1025=
201509120350 METAR ESMX 120350Z AUTO 07005KT 030V110 9999 FEW062/// 13/12 Q1025=
201509120320 METAR ESMX 120320Z AUTO 07005KT 020V120 9999 FEW064/// 13/12 Q1025=
201509120250 METAR ESMX 120250Z AUTO 07005KT 030V110 9999 NCD 13/12 Q1025=
201509120220 METAR ESMX 120220Z AUTO 07006KT 030V110 9999 FEW057/// 13/12 Q1025=
201509120150 METAR ESMX 120150Z AUTO 06005KT 030V090 9999 NCD 13/12 Q1026=
201509120120 METAR ESMX 120120Z AUTO 06006KT 030V100 9999 FEW008/// 13/12 Q1026=
201509120050 METAR ESMX 120050Z AUTO 07005KT 030V100 9999 NCD 13/12 Q1026=
201509120020 METAR ESMX 120020Z AUTO 07006KT 030V110 9999 NCD 13/12 Q1027=
201509112350 METAR ESMX 112350Z AUTO 07004KT 030V130 9999 NCD 13/12 Q1027=
201509112320 METAR ESMX 112320Z AUTO 07006KT 030V110 9999 FEW012/// 13/12 Q1027=
201509112250 METAR ESMX 112250Z AUTO 06005KT 030V130 9999 NCD 13/12 Q1027=
201509112220 METAR ESMX 112220Z AUTO 07005KT 020V120 9999 NCD 13/11 Q1027=
201509112150 METAR ESMX 112150Z AUTO 06006KT 020V090 9999 FEW007/// 12/11 Q1028=
201509112120 METAR ESMX 112120Z AUTO VRB04KT 360V360 9999 NCD 12/11 Q1028=
201509112050 METAR ESMX 112050Z AUTO 07006KT 9999 NCD 12/10 Q1028=
201509112020 METAR ESMX 112020Z AUTO 07006KT 040V100 9999 NCD 12/10 Q1028=
201509111950 METAR ESMX 111950Z AUTO 06006KT 030V100 9999 NCD 12/09 Q1029=
201509111920 METAR ESMX 111920Z AUTO 07005KT 030V100 9999 NCD 13/09 Q1029=
201509111850 METAR ESMX 111850Z AUTO 08005KT 050V110 9999 NCD 13/09 Q1029=
201509111820 METAR ESMX 111820Z AUTO 08005KT 040V110 9999 NCD 13/08 Q1029=
201509111750 METAR ESMX 111750Z AUTO 09006KT 060V120 9999 NCD 14/08 Q1028=
201509111720 METAR ESMX 111720Z VRB05KT 300V140 CAVOK 15/07 Q1028=
201509111655 METAR ESMX 111655Z 10006KT 050V150 CAVOK 15/07 Q1028=
201509111650 METAR ESMX 111650Z AUTO 10005KT 050V150 9999 NCD 16/07 Q1028=
201509111620 METAR ESMX 111620Z 11007KT 050V160 CAVOK 17/07 Q1029=
201509111550 METAR ESMX 111550Z 11008KT 070V150 CAVOK 17/07 Q1029=
201509111521 METAR ESMX 111521Z 12007KT 080V160 CAVOK 17/07 Q1029=
201509111450 METAR ESMX 111450Z 11008KT 070V160 CAVOK 18/06 Q1029=
201509111420 METAR ESMX 111420Z 09009KT 050V150 CAVOK 17/07 Q1029=
201509111350 METAR ESMX 111350Z 09007KT 030V140 CAVOK 17/07 Q1029=
201509111320 METAR ESMX 111320Z 09007KT 040V140 CAVOK 18/07 Q1029=
201509111250 METAR ESMX 111250Z 12009KT 080V160 CAVOK 19/06 Q1029=
201509111224 METAR ESMX 111224Z 12007KT 010V170 CAVOK 19/07 Q1030=
201509111220 METAR ESMX 111220Z AUTO 11005KT 070V150 9999 FEW052/// SCT072/// 18/07 Q1030=
201509111150 METAR ESMX 111150Z 14006KT 070V230 9999 FEW049 OVC062 19/06 Q1030=
201509111120 METAR ESMX 111120Z 10006KT 040V150 9999 FEW043 BKN062 17/09 Q1030=
201509111050 METAR ESMX 111050Z 08006KT 020V140 9999 FEW055 BKN067 17/10 Q1030=
201509111020 METAR ESMX 111020Z 11008KT 050V150 9999 BKN045 17/09 Q1031=
201509110950 METAR ESMX 110950Z 08008KT 040V130 9999 SCT030 17/10 Q1031=
201509110920 METAR ESMX 110920Z 06006KT 030V100 9999 FEW015 17/11 Q1031=
201509110850 METAR ESMX 110850Z 07007KT 030V100 9999 FEW014 17/11 Q1031=
201509110820 METAR ESMX 110820Z 07007KT 030V120 9999 SCT010 15/12 Q1031=
201509110750 METAR ESMX 110750Z 07006KT 030V110 9999 BKN008 14/12 Q1031=
201509110720 METAR ESMX 110720Z 07006KT 020V110 9999 SCT005 BKN009 13/12 Q1031=
201509110650 METAR ESMX 110650Z 08006KT 050V150 9999 BKN005 13/12 Q1031=
201509110620 METAR ESMX 110620Z VRB05KT 030V240 9999 BKN004 12/12 Q1031=
201509110550 METAR ESMX 110550Z 09005KT 040V150 9999 BKN003 12/11 Q1031=
201509110520 METAR ESMX 110520Z 07007KT 030V110 9999 BKN004 12/11 Q1031=
201509110450 METAR ESMX 110450Z 07004KT 040V110 9999 BKN002 11/11 Q1031=
201509110420 METAR ESMX 110420Z AUTO VRB04KT 340V160 9999 OVC001/// 11/11 Q1031=
201509110350 METAR ESMX 110350Z AUTO 07003KT 010V110 3500 OVC001/// 11/11 Q1031=
201509110320 METAR ESMX 110320Z AUTO 01003KT 1300 R01/P2000N R19/P2000N BCFG FEW003/// BKN004/// 08/08 Q1031=
201509110250 METAR ESMX 110250Z AUTO VRB02KT 0600 R01/P2000N R19/P2000N BCFG NCD 10/10 Q1031=
201509110220 METAR ESMX 110220Z AUTO VRB02KT 2100 BCFG FEW008/// 10/10 Q1031=
201509110150 METAR ESMX 110150Z AUTO VRB02KT 9999 FEW003/// SCT005/// BKN006/// 10/10 Q1031=
201509110120 METAR ESMX 110120Z AUTO 07002KT 9999 BKN002/// 11/11 Q1031=
201509110050 METAR ESMX 110050Z AUTO 07003KT 020V130 9000 BR OVC001/// 11/11 Q1031=
201509110020 METAR ESMX 110020Z AUTO 05004KT 010V110 9999 BKN001/// 11/10 Q1031=
201509102350 METAR ESMX 102350Z 06003KT 020V080 9999 BKN002 11/11 Q1031=
201509102320 METAR COR ESMX 102320Z VRB03KT 9999 SCT004 11/10 Q1031=
201509102250 METAR ESMX 102250Z VRB01KT CAVOK 10/10 Q1031=
201509102220 METAR COR ESMX 102220Z VRB02KT CAVOK 10/10 Q1031=
201509102150 METAR COR ESMX 102150Z VRB02KT CAVOK 11/10 Q1031=
201509102120 METAR ESMX 102120Z 10003KT 030V150 CAVOK 11/10 Q1031=
201509102050 METAR ESMX 102050Z VRB03KT CAVOK 11/09 Q1031=
201509102020 METAR ESMX 102020Z VRB03KT CAVOK 11/09 Q1031=
201509101950 METAR ESMX 101950Z 09003KT 060V140 CAVOK 12/08 Q1031=
201509101920 METAR ESMX 101920Z VRB03KT CAVOK 13/08 Q1031=
201509101850 METAR ESMX 101850Z 09003KT 030V140 CAVOK 13/07 Q1031=
201509101820 METAR ESMX 101820Z 09003KT 040V120 CAVOK 13/07 Q1030=
201509101750 METAR ESMX 101750Z VRB03KT CAVOK 13/08 Q1030=
201509101720 METAR COR ESMX 101720Z VRB03KT CAVOK 14/08 Q1030=
201509101650 METAR ESMX 101650Z 08003KT 050V110 9999 FEW045 16/07 Q1030=
201509101620 METAR ESMX 101620Z 07004KT 020V120 9999 FEW045 16/07 Q1030=
201509101550 METAR ESMX 101550Z 07004KT 040V110 9999 FEW045 17/07 Q1030=
201509101520 METAR ESMX 101520Z 08004KT 040V120 9999 FEW047 16/08 Q1030=
201509101450 METAR ESMX 101450Z 07004KT 030V160 9999 FEW047 17/07 Q1030=
201509101420 METAR ESMX 101420Z 05005KT 010V120 9999 FEW045 17/06 Q1030=
201509101350 METAR ESMX 101350Z 05005KT 010V120 9999 FEW045 17/07 Q1030=
201509101320 METAR ESMX 101320Z 06006KT 020V080 9999 FEW045 17/07 Q1030=
201509101250 METAR ESMX 101250Z 06006KT 020V090 9999 FEW045 17/06 Q1030=
201509101220 METAR ESMX 101220Z 09004KT 020V150 9999 FEW044 17/05 Q1031=
201509101150 METAR COR ESMX 101150Z 05004KT 340V120 9999 FEW044 17/06 Q1031=
201509101120 METAR ESMX 101120Z 06004KT 360V100 CAVOK 17/05 Q1031=
201509101050 METAR ESMX 101050Z 09005KT 050V140 CAVOK 17/05 Q1031=
201509101020 METAR ESMX 101020Z 07005KT 020V110 CAVOK 16/07 Q1031=
201509100950 METAR ESMX 100950Z 03004KT 340V060 CAVOK 16/08 Q1031=
201509100920 METAR ESMX 100920Z 04005KT 360V070 CAVOK 15/08 Q1031=
201509100850 METAR ESMX 100850Z 03004KT 360V080 CAVOK 14/09 Q1031=
201509100820 METAR ESMX 100820Z 04005KT 020V080 CAVOK 13/10 Q1031=
201509100750 METAR ESMX 100750Z 04004KT 020V100 CAVOK 12/10 Q1031=
201509100720 METAR ESMX 100720Z 06004KT 030V100 CAVOK 11/10 Q1031=
201509100650 METAR ESMX 100650Z 03004KT CAVOK 10/09 Q1031=
201509100620 METAR ESMX 100620Z 02003KT CAVOK 09/09 Q1031=
201509100553 METAR ESMX 100553Z 03003KT 9999 FEW002 08/08 Q1031=
201509100520 METAR ESMX 100520Z 01003KT 9999 FEW003 SCT017 05/04 Q1031=
201509100450 METAR ESMX 100450Z 00000KT 0150 R01/0300N R19/0400V0550N BCFG FEW020 BKN200 05/04 Q1030=
201509100420 METAR COR ESMX 100420Z 00000KT 0350 R01/0750V1000N R19/P2000N BCFG BKN002 04/04 Q1030=
201509100350 METAR ESMX 100350Z 00000KT 0800 R01/P2000N R19/P2000N MIFG BKN002 03/03 Q1030=
201509100320 METAR ESMX 100320Z AUTO 01002KT 0350 R01/P2000N R19/P2000N FG BKN016/// 03/03 Q1030=
201509100250 METAR ESMX 100250Z AUTO 36002KT 0500 R01/0800VP2000D R19/P2000N BCFG BKN017/// 03/03 Q1030=
201509100220 METAR ESMX 100220Z AUTO 00000KT 2300 NCD 03/02 Q1030=
201509100150 METAR ESMX 100150Z AUTO 00000KT 0250 R01/0900V1800N R19/P2000N FG NCD 03/03 Q1030=
201509100120 METAR ESMX 100120Z AUTO 00000KT 1700 NCD 02/02 Q1030=
201509100050 METAR ESMX 100050Z AUTO 00000KT 9999 BCFG NCD 02/02 Q1030=
201509092350 METAR ESMX 092350Z AUTO 00000KT 9999 NCD 03/02 Q1030=
201509092320 METAR ESMX 092320Z 00000KT 9999 VCFG NSC 03/03 Q1030=
201509092250 METAR ESMX 092250Z 00000KT CAVOK 04/04 Q1030=
201509092220 METAR ESMX 092220Z 00000KT CAVOK 05/04 Q1029=
201509092150 METAR COR ESMX 092150Z 00000KT CAVOK 04/03 Q1029=
201509092120 METAR ESMX 092120Z 10003KT CAVOK 05/05 Q1029=
201509092050 METAR ESMX 092050Z AUTO 00000KT 9999 NCD 06/06 Q1029=
201509092020 METAR COR ESMX 092020Z VRB02KT CAVOK 05/05 Q1029=
201509091950 METAR ESMX 091950Z VRB02KT CAVOK 06/05 Q1029=
201509091920 METAR ESMX 091920Z 10003KT CAVOK 08/07 Q1029=
201509091850 METAR ESMX 091850Z 09002KT CAVOK 07/07 Q1028=
201509091820 METAR ESMX 091820Z VRB02KT CAVOK 09/08 Q1028=
201509091750 METAR COR ESMX 091750Z 00000KT CAVOK 09/08 Q1028=
201509091720 METAR ESMX 091720Z 06002KT CAVOK 12/08 Q1028=
201509091650 METAR ESMX 091650Z 06003KT CAVOK 13/07 Q1027=
201509091620 METAR ESMX 091620Z 03004KT 360V090 CAVOK 15/07 Q1027=
201509091550 METAR ESMX 091550Z 03005KT CAVOK 16/05 Q1027=
201509091520 METAR ESMX 091520Z 04003KT 350V140 CAVOK 16/05 Q1027=
201509091450 METAR ESMX 091450Z 05005KT 010V100 CAVOK 16/05 Q1027=
201509091420 METAR ESMX 091420Z AUTO 10004KT 060V140 9999 NCD 16/05 Q1027=
201509091350 METAR ESMX 091350Z 04004KT 350V110 CAVOK 16/05 Q1027=
201509091320 METAR ESMX 091320Z 01007KT 340V050 CAVOK 16/05 Q1027=
201509091250 METAR ESMX 091250Z AUTO 04007KT 010V080 9999 NCD 16/05 Q1027=
201509091220 METAR ESMX 091220Z 03007KT 360V070 CAVOK 16/05 Q1027=
201509091150 METAR ESMX 091150Z 35007KT 330V040 CAVOK 16/05 Q1027=
201509091120 METAR ESMX 091120Z AUTO 01006KT 320V060 9999 NCD 16/06 Q1027=
201509091050 METAR ESMX 091050Z 03008KT 360V080 CAVOK 15/05 Q1027=
201509091020 METAR ESMX 091020Z 02008KT 340V050 CAVOK 15/05 Q1027=
201509090950 METAR ESMX 090950Z 03007KT 350V070 CAVOK 15/05 Q1027=
201509090920 METAR ESMX 090920Z 01007KT CAVOK 14/05 Q1027=
201509090850 METAR ESMX 090850Z 03005KT 340V060 CAVOK 13/06 Q1027=
201509090820 METAR ESMX 090820Z 04007KT CAVOK 12/05 Q1027=
201509090750 METAR ESMX 090750Z 35005KT CAVOK 12/05 Q1027=
201509090720 METAR ESMX 090720Z VRB03KT CAVOK 10/06 Q1027=
201509090650 METAR ESMX 090650Z 00000KT CAVOK 09/07 Q1027=
201509090620 METAR ESMX 090620Z 00000KT CAVOK 04/04 Q1027=
201509090550 METAR COR ESMX 090550Z 00000KT CAVOK 02/02 Q1027=
201509090520 METAR ESMX 090520Z 00000KT CAVOK 01/01 Q1026=
201509090450 METAR ESMX 090450Z 00000KT CAVOK 01/01 Q1026=
201509090420 METAR ESMX 090420Z 00000KT 9999 R19/2000 BCFG NSC 01/01 Q1026=
201509090350 METAR ESMX 090350Z 00000KT 9999 BCFG NSC 01/01 Q1026=
201509090320 METAR ESMX 090320Z AUTO 00000KT 0350 R01/0900V1900D R19/P2000N FG NCD 01/01 Q1026=
201509090250 METAR ESMX 090250Z AUTO 00000KT 9999 NCD 01/01 Q1026=
201509090220 METAR ESMX 090220Z AUTO 00000KT 9999 NCD 01/01 Q1026=
201509090150 METAR ESMX 090150Z AUTO 00000KT 9999 NCD 02/02 Q1025=
201509090120 METAR ESMX 090120Z AUTO 00000KT 1900 NCD 02/01 Q1025=
201509090050 METAR ESMX 090050Z AUTO 00000KT 2900 BR NCD 03/02 Q1025=
201509090020 METAR ESMX 090020Z AUTO 00000KT 9999 NCD 03/03 Q1025=
201509082350 METAR ESMX 082350Z AUTO 00000KT 9999 NCD 03/02 Q1025=
201509082320 METAR COR ESMX 082320Z 00000KT CAVOK 04/04 Q1025=
201509082250 METAR ESMX 082250Z 00000KT CAVOK 04/04 Q1025=
201509082220 METAR ESMX 082220Z VRB02KT CAVOK 06/06 Q1025=
201509082150 METAR ESMX 082150Z VRB02KT CAVOK 05/04 Q1025=
201509082120 METAR ESMX 082120Z AUTO VRB02KT 9999 NCD 07/05 Q1024=
201509082050 METAR ESMX 082050Z 01005KT CAVOK 07/05 Q1024=
201509082020 METAR ESMX 082020Z 02006KT CAVOK 09/05 Q1024=
201509081950 METAR ESMX 081950Z 01006KT CAVOK 09/05 Q1024=
201509081920 METAR ESMX 081920Z 36004KT CAVOK 08/06 Q1023=
201509081850 METAR ESMX 081850Z 01004KT CAVOK 09/06 Q1023=
201509081820 METAR ESMX 081820Z 34004KT CAVOK 10/06 Q1023=
201509081750 METAR ESMX 081750Z 35007KT CAVOK 11/06 Q1023=
201509081720 METAR COR ESMX 081720Z 34008KT CAVOK 12/05 Q1023=
201509081650 METAR ESMX 081650Z 34009KT CAVOK 13/05 Q1022=
201509081620 METAR COR ESMX 081620Z 36010KT CAVOK 14/05 Q1022=
201509081550 METAR ESMX 081550Z 35010KT 9999 FEW045 13/06 Q1022=
201509081520 METAR COR ESMX 081520Z 34009KT 9999 FEW048 15/05 Q1022=
201509081450 METAR ESMX 081450Z 01008KT 9999 SCT042 BKN064 14/05 Q1022=
201509081420 METAR COR ESMX 081420Z 35009KT 9999 FEW042 SCT064 15/06 Q1022=
201509081350 METAR ESMX 081350Z 34009KT CAVOK 15/06 Q1022=
201509081250 METAR ESMX 081250Z AUTO 35010KT 320V020 9999 FEW039/// BKN053/// 15/07 Q1021=
201509081220 METAR ESMX 081220Z AUTO 33008KT 9999 FEW036/// SCT046/// 15/06 Q1021=
201509081150 METAR COR ESMX 081150Z 33011KT 9999 SCT037 15/07 Q1021=
201509081120 METAR COR ESMX 081120Z 33011KT 9999 SCT037 15/07 Q1021=
201509081050 METAR COR ESMX 081050Z 33009KT 300V020 9999 FEW038 16/08 Q1021=
201509081020 METAR COR ESMX 081020Z 34010KT 9999 FEW035 15/07 Q1021=
201509080950 METAR ESMX 080950Z 35010KT CAVOK 15/06 Q1021=
201509080920 METAR COR ESMX 080920Z 35008KT CAVOK 14/07 Q1020=
201509080850 METAR ESMX 080850Z 35012KT CAVOK 13/06 Q1020=
201509080820 METAR ESMX 080820Z 35009KT CAVOK 13/07 Q1020=
201509080750 METAR ESMX 080750Z 36011KT CAVOK 12/06 Q1020=
201509080720 METAR COR ESMX 080720Z 35013KT CAVOK 11/06 Q1020=
201509080650 METAR ESMX 080650Z 35010KT CAVOK 10/06 Q1019=
201509080620 METAR COR ESMX 080620Z 35011KT CAVOK 10/06 Q1019=
201509080550 METAR COR ESMX 080550Z 34008KT 300V010 CAVOK 09/06 Q1019=
201509080520 METAR ESMX 080520Z 31007KT CAVOK 07/06 Q1019=
201509080450 METAR ESMX 080450Z 31006KT CAVOK 07/05 Q1019=
201509080420 METAR ESMX 080420Z 31007KT CAVOK 07/06 Q1019=
201509080350 METAR ESMX 080350Z 31007KT CAVOK 07/06 Q1019=
201509080320 METAR ESMX 080320Z AUTO 31007KT 9999 NCD 08/06 Q1019=
201509080250 METAR ESMX 080250Z AUTO 32006KT 9999 NCD 07/06 Q1019=
201509080220 METAR ESMX 080220Z AUTO 32006KT 9999 NCD 08/07 Q1019=
201509080150 METAR ESMX 080150Z AUTO 31006KT 9999 NCD 08/07 Q1018=
201509080120 METAR ESMX 080120Z AUTO 31006KT 9999 NCD 09/07 Q1018=
201509080050 METAR ESMX 080050Z AUTO 30007KT 9999 NCD 09/07 Q1018=
201509080020 METAR ESMX 080020Z AUTO 30007KT 9999 NCD 09/07 Q1018=
201509072350 METAR ESMX 072350Z AUTO 29007KT 9999 NCD 09/07 Q1018=
201509072320 METAR ESMX 072320Z 30006KT 9999 SCT047 09/07 Q1018=
201509072250 METAR ESMX 072250Z 30006KT CAVOK 10/07 Q1018=
201509072220 METAR ESMX 072220Z 29007KT CAVOK 10/07 Q1018=
201509072150 METAR COR ESMX 072150Z 29007KT 9999 CAVOK 10/07 Q1018=
201509072120 METAR ESMX 072120Z AUTO 30005KT 270V330 9999 FEW062/// BKN078/// 10/07 Q1019=
201509072050 METAR ESMX 072050Z 29007KT CAVOK 10/06 Q1019=
201509072020 METAR ESMX 072020Z 28007KT CAVOK 10/06 Q1018=
201509071950 METAR ESMX 071950Z 29005KT CAVOK 10/06 Q1019=
201509071920 METAR ESMX 071920Z 28004KT CAVOK 10/05 Q1019=
201509071850 METAR ESMX 071850Z 29004KT CAVOK 10/05 Q1019=
201509071820 METAR ESMX 071820Z 29004KT CAVOK 10/04 Q1018=
201509071750 METAR ESMX 071750Z 31004KT CAVOK 11/04 Q1018=
201509071720 METAR COR ESMX 071720Z 31006KT CAVOK 12/04 Q1018=
201509071650 METAR ESMX 071650Z 30007KT CAVOK 13/04 Q1018=
201509071620 METAR COR ESMX 071620Z 32010KT CAVOK 15/03 Q1018=
201509071550 METAR ESMX 071550Z 32011KT CAVOK 16/04 Q1018=
201509071520 METAR ESMX 071520Z 32011KT CAVOK 16/03 Q1018=
201509071450 METAR COR ESMX 071450Z 32011KT CAVOK 16/04 Q1017=
201509071420 METAR ESMX 071420Z 33012KT CAVOK 16/03 Q1017=
201509071350 METAR ESMX 071350Z 33014KT 300V010 CAVOK 16/04 Q1017=
201509071320 METAR COR ESMX 071320Z 31012KT CAVOK 16/05 Q1017=
201509071250 METAR COR ESMX 071250Z 32011KT 9999 FEW043 16/06 Q1017=
201509071220 METAR ESMX 071220Z 33011KT 9999 FEW043 16/05 Q1017=
201509071150 METAR ESMX 071150Z 34013KT 9999 FEW042 16/05 Q1017=
201509071120 METAR ESMX 071120Z 34011KT 300V010 9999 FEW041 16/05 Q1017=
201509071050 METAR COR ESMX 071050Z 34013KT 9999 FEW039 15/06 Q1017=
201509071020 METAR ESMX 071020Z 32010KT 290V360 9999 FEW033 14/07 Q1017=
201509070950 METAR ESMX 070950Z 33012KT 9999 FEW035 14/07 Q1016=
201509070920 METAR ESMX 070920Z 33012KT 9999 FEW030 13/07 Q1016=
201509070850 METAR ESMX 070850Z 33012KT 9999 FEW026 12/07 Q1016=
201509070820 METAR ESMX 070820Z 34011KT CAVOK 12/07 Q1016=
201509070750 METAR COR ESMX 070750Z 34012KT CAVOK 11/06 Q1016=
201509070720 METAR ESMX 070720Z 33011KT CAVOK 10/07 Q1015=
201509070650 METAR ESMX 070650Z 33011KT CAVOK 09/06 Q1015=
201509070620 METAR ESMX 070620Z 33011KT CAVOK 09/06 Q1015=
201509070550 METAR ESMX 070550Z 31009KT CAVOK 08/05 Q1015=
201509070520 METAR ESMX 070520Z 32008KT CAVOK 07/05 Q1014=
201509070450 METAR ESMX 070450Z 30009KT CAVOK 06/05 Q1014=
201509070420 METAR ESMX 070420Z 31008KT CAVOK 06/04 Q1014=
201509070350 METAR ESMX 070350Z AUTO 32007KT 9999 FEW050/// 06/04 Q1014=
201509070320 METAR ESMX 070320Z AUTO 32008KT 9999 NCD 06/04 Q1013=
201509070250 METAR ESMX 070250Z AUTO 32008KT 9999 NCD 07/05 Q1013=
201509070220 METAR ESMX 070220Z AUTO 32008KT 9999 NCD 06/05 Q1013=
201509070150 METAR ESMX 070150Z AUTO 31010KT 9999 NCD 07/05 Q1013=
201509070120 METAR ESMX 070120Z AUTO 32009KT 9999 NCD 07/05 Q1012=
201509070050 METAR ESMX 070050Z AUTO 31009KT 9999 FEW044/// 07/05 Q1012=
201509070020 METAR ESMX 070020Z AUTO 31008KT 9999 FEW044/// 07/06 Q1012=
201509062350 METAR ESMX 062350Z AUTO 31009KT 9999 FEW044/// 08/06 Q1012=
201509062320 METAR ESMX 062320Z AUTO 31009KT 9999 NCD 08/06 Q1012=
201509062250 METAR ESMX 062250Z 32008KT 9999 SCT046 08/06 Q1012=
201509062220 METAR ESMX 062220Z 32008KT 9999 SCT047 09/07 Q1012=
201509062150 METAR ESMX 062150Z 31007KT 9999 SCT049 09/07 Q1011=
201509062120 METAR ESMX 062120Z 32008KT 9999 BKN049 09/08 Q1011=
201509062050 METAR ESMX 062050Z 31007KT CAVOK 10/08 Q1011=
201509062020 METAR ESMX 062020Z 31008KT CAVOK 10/08 Q1011=
201509061950 METAR ESMX 061950Z 31009KT 9999 BKN049 11/09 Q1011=
201509061920 METAR ESMX 061920Z 32010KT 9999 OVC048 11/09 Q1011=
201509061850 METAR ESMX 061850Z 31009KT CAVOK 11/09 Q1010=
201509061822 METAR ESMX 061822Z 31008KT CAVOK 11/09 Q1010=
201509061820 METAR ESMX 061820Z AUTO 32008KT 9999 BKN053/// 11/09 Q1010=
201509061750 METAR ESMX 061750Z 32010KT 9999 FEW020 SCT048 BKN083 11/09 Q1010=
201509061720 METAR ESMX 061720Z 33009KT 9999 FEW018 SCT025 BKN037 12/09 Q1009=
201509061650 METAR ESMX 061650Z 34012KT 9999 FEW018 BKN039 12/09 Q1009=
201509061620 METAR ESMX 061620Z 34014KT 9999 FEW038 BKN047 13/09 Q1009=
201509061550 METAR ESMX 061550Z 35015KT 9999 FEW020 BKN030 12/09 Q1008=
201509061520 METAR ESMX 061520Z 34015KT 9999 SCT019 BKN026 13/09 Q1008=
201509061450 METAR ESMX 061450Z 34015KT 9999 SCT021 BKN031 BKN055 13/09 Q1007=
201509061420 METAR ESMX 061420Z 36016KT 9999 SCT022 BKN036 13/09 Q1007=
201509061350 METAR ESMX 061350Z 35020KT 9999 BKN020 BKN030 13/08 Q1006=
201509061320 METAR ESMX 061320Z 36017KT 9999 FEW020 BKN025 13/09 Q1006=
201509061250 METAR ESMX 061250Z 36017KT 9999 FEW019 BKN028 13/09 Q1006=
201509061220 METAR ESMX 061220Z AUTO 35017G30KT 9999 FEW018/// SCT023/// BKN044/// 13/09 Q1005=
201509061150 METAR ESMX 061150Z AUTO 35017KT 9999 FEW013/// SCT017/// BKN022/// 13/10 Q1005=
201509061120 METAR ESMX 061120Z AUTO 34018KT 9999 FEW016/// SCT020/// BKN024/// 12/10 Q1004=
201509061050 METAR ESMX 061050Z AUTO 33014KT 9999 FEW016/// SCT019/// BKN024/// 13/10 Q1004 RERA=
201509061020 METAR ESMX 061020Z AUTO 34014KT 9999 FEW016/// SCT019/// BKN023/// 13/11 Q1003 RERA=
201509060950 METAR ESMX 060950Z AUTO 35013KT 9999 -RA FEW011/// SCT018/// BKN044/// 13/11 Q1003 RERA=
201509060920 METAR ESMX 060920Z AUTO 34014KT 9999 -RA FEW013/// SCT017/// BKN028/// 13/11 Q1002=
201509060850 METAR ESMX 060850Z AUTO 34015KT 9999 FEW012/// SCT018/// BKN027/// 13/11 Q1002=
201509060820 METAR ESMX 060820Z AUTO 35013KT 9999 FEW014/// SCT018/// OVC054/// 14/11 Q1001=
201509060750 METAR ESMX 060750Z AUTO 34013KT 9999 FEW011/// SCT019/// BKN060/// 12/11 Q1001=
201509060720 METAR ESMX 060720Z AUTO 35011KT 9999 FEW007/// BKN013/// BKN062/// 12/11 Q1001=
201509060650 METAR ESMX 060650Z AUTO 33009KT 9999 RA FEW007/// SCT012/// BKN026/// 11/10 Q1000 RERA=
201509060620 METAR ESMX 060620Z AUTO 34011KT 9999 -RA FEW008/// SCT011/// BKN020/// 11/10 Q1000=
201509060550 METAR ESMX 060550Z AUTO 31008KT 9999 SCT006/// BKN009/// OVC013/// 10/09 Q1000=
201509060520 METAR ESMX 060520Z AUTO 35010KT 9999 FEW006/// SCT008/// BKN011/// 10/09 Q1000=
201509060450 METAR ESMX 060450Z AUTO 32008KT 9999 FEW006/// SCT008/// BKN011/// 09/08 Q0999=
201509060420 METAR ESMX 060420Z AUTO 33009KT 9999 FEW005/// SCT007/// OVC043/// 09/08 Q0999=
201509060350 METAR ESMX 060350Z AUTO 34011KT 9999 OVC005/// 09/08 Q0999=
201509060320 METAR ESMX 060320Z AUTO 35009KT 9999 BKN005/// BKN056/// 09/08 Q0999=
201509060250 METAR ESMX 060250Z AUTO 36008KT 9999 FEW004/// SCT006/// OVC056/// 09/08 Q0998=
201509060220 METAR ESMX 060220Z AUTO 35006KT 9999 SCT004/// BKN006/// BKN060/// 09/08 Q0998=
201509060150 METAR ESMX 060150Z AUTO 35010KT 9999 OVC002/// 09/08 Q0998=
201509060120 METAR ESMX 060120Z AUTO 33006KT 9999 BKN002/// OVC006/// 09/09 Q0998 REUP REDZ=
201509060050 METAR ESMX 060050Z AUTO 34006KT 9999 FEW003/// OVC006/// 09/09 Q0998=
201509060020 METAR ESMX 060020Z AUTO 35005KT 8000 BR OVC003/// 08/08 Q0998=
201509052350 METAR ESMX 052350Z AUTO 00000KT 3400 BR OVC001/// 07/07 Q0998=
201509052320 METAR ESMX 052320Z AUTO VRB02KT 8000 BR FEW001/// SCT003/// BKN004/// 07/06 Q0997=
201509052250 METAR ESMX 052250Z AUTO 00000KT 0800 R01/P2000N R19/P2000N BCFG FEW003/// SCT004/// BKN007/// 06/06 Q0997=
201509052220 METAR ESMX 052220Z AUTO 00000KT 0400 R01/P2000N R19/0800VP2000D FEW046/// BKN076/// 06/06 Q0997=
201509052150 METAR ESMX 052150Z AUTO 00000KT 0700 R01/P2000N R19/P2000N BCFG FEW009/// SCT077/// 07/06 Q0997=
201509052120 METAR ESMX 052120Z AUTO 17003KT 9999 SCT053/// 08/07 Q0997=
201509052050 METAR ESMX 052050Z AUTO 24003KT 9999 OVC052/// 08/07 Q0996=
201509052020 METAR ESMX 052020Z AUTO 21003KT 9999 OVC050/// 08/08 Q0996=
201509051950 METAR ESMX 051950Z AUTO 17004KT 9999 SCT038/// BKN050/// 07/07 Q0996=
201509051920 METAR ESMX 051920Z AUTO 19003KT 4300 BR BKN050/// 09/08 Q0996=
201509051850 METAR ESMX 051850Z AUTO 18003KT 9999 FEW040/// BKN050/// BKN064/// 09/08 Q0996=
201509051820 METAR ESMX 051820Z AUTO 19005KT 9999 FEW053/// BKN065/// 09/08 Q0996=
201509051750 METAR ESMX 051750Z AUTO 18005KT 9999 FEW032/// BKN052/// OVC066/// 10/09 Q0996=
201509051720 METAR ESMX 051720Z 18004KT 9999 FEW010 BKN060 11/09 Q0996=
201509051650 METAR COR ESMX 051650Z 17004KT 140V200 9999 FEW007 BKN050 11/09 Q0996=
201509051620 METAR ESMX 051620Z 20004KT 9999 FEW010 BKN045 11/09 Q0996=
201509051550 METAR ESMX 051550Z 20007KT 9999 FEW010 BKN045 11/09 Q0997=
201509051520 METAR ESMX 051520Z 23006KT 9999 FEW012 SCT051 BKN120 11/09 Q0996=
201509051450 METAR ESMX 051450Z 25007KT 210V280 9999 FEW010 SCT052 BKN100 11/10 Q0997 RESHRA=
201509051420 METAR COR ESMX 051420Z 22009KT 9999 SHRA SCT010 SCT015CB BKN054 11/10 Q0996=
201509051350 METAR COR ESMX 051350Z 23009KT 4500 -SHRA FEW009 SCT017CB BKN058 10/09 Q0996 RERA=
201509051320 METAR COR ESMX 051320Z 19009KT 160V230 9999 VCSH FEW010 SCT015CB BKN050 12/11 Q0996 RERA=
201509051250 METAR ESMX 051250Z 20008KT 150V220 9999 SHRA FEW010 SCT015CB BKN025 13/11 Q0996=
201509051220 METAR ESMX 051220Z 21007KT 9999 SCT009 BKN015 13/11 Q0997=
201509051150 METAR ESMX 051150Z 21007KT 9999 SCT007 BKN079 13/11 Q0997=
201509051120 METAR COR ESMX 051120Z 19007KT 9999 FEW007 SCT026 BKN080 12/11 Q0997=
201509051050 METAR ESMX 051050Z 19004KT 9999 FEW015 BKN060 11/10 Q0997=
201509051020 METAR ESMX 051020Z AUTO 19004KT 140V210 9999 -DZ FEW053/// 11/10 Q0997=
201509050950 METAR ESMX 050950Z AUTO 18006KT 9000 RA FEW055/// 11/10 Q0997=
201509050920 METAR ESMX 050920Z AUTO 21008KT 9999 -RA FEW060/// 11/10 Q0998=
201509050850 METAR ESMX 050850Z AUTO 22004KT 8000 RA FEW016/// 11/10 Q0998=
201509050820 METAR ESMX 050820Z AUTO 19005KT 7000 RA FEW022/// SCT042/// 11/10 Q0998=
201509050750 METAR ESMX 050750Z AUTO 20010KT 5000 DZ FEW007/// SCT011/// BKN018/// 12/12 Q0998=
201509050720 METAR ESMX 050720Z AUTO 18011KT 9000 -RA FEW007/// BKN010/// BKN014/// 13/12 Q0998=
201509050650 METAR ESMX 050650Z AUTO 17009KT 8000 -DZ FEW009/// SCT011/// BKN022/// 13/12 Q0999 REDZ=
201509050620 METAR ESMX 050620Z AUTO 16009KT 8000 DZ FEW008/// BKN041/// 12/11 Q0999=
201509050550 METAR ESMX 050550Z AUTO 16008KT 7000 BR FEW005/// BKN068/// 12/11 Q0999=
201509050520 METAR ESMX 050520Z AUTO 15008KT 6000 BR FEW003/// SCT010/// BKN035/// 12/11 Q1000 RERA=
201509050450 METAR ESMX 050450Z AUTO 15007KT 6000 BR FEW003/// SCT005/// BKN007/// 11/11 Q1000=
201509050420 METAR ESMX 050420Z AUTO 14007KT 7000 BR SCT003/// BKN006/// BKN018/// 11/11 Q1000 RERA=
201509050350 METAR ESMX 050350Z AUTO 15006KT 120V180 6000 BR FEW002/// SCT003/// BKN005/// 11/11 Q1001=
201509050320 METAR ESMX 050320Z AUTO 15006KT 120V180 6000 DZ FEW003/// SCT005/// BKN008/// 11/11 Q1001=
201509050250 METAR ESMX 050250Z AUTO 15005KT 7000 -RA FEW018/// SCT030/// BKN036/// 11/11 Q1002 RERA=
201509050220 METAR ESMX 050220Z AUTO 14004KT 110V180 8000 DZ FEW008/// SCT018/// BKN026/// 11/10 Q1003 RERA=
201509050150 METAR ESMX 050150Z AUTO 16004KT 9999 FEW013/// SCT022/// BKN027/// 11/10 Q1003=
201509050120 METAR ESMX 050120Z AUTO 17005KT 8000 -RA BKN014/// OVC043/// 11/10 Q1004 REDZ=
201509050050 METAR ESMX 050050Z AUTO 16005KT 9999 FEW014/// 10/09 Q1004=
201509050020 METAR ESMX 050020Z AUTO 16004KT 9999 NCD 10/09 Q1005=
201509042350 METAR ESMX 042350Z AUTO 17003KT 9999 NCD 10/09 Q1005=
201509042320 METAR ESMX 042320Z AUTO 18003KT 9999 NCD 10/09 Q1005=
201509042250 METAR ESMX 042250Z AUTO 18004KT 9999 NCD 10/09 Q1006=
201509042220 METAR ESMX 042220Z AUTO 18005KT 9999 NCD 10/09 Q1006=
201509042150 METAR ESMX 042150Z AUTO 18004KT 9999 NCD 10/08 Q1007=
201509042120 METAR ESMX 042120Z AUTO 18005KT 9999 NCD 10/09 Q1007=
201509042050 METAR ESMX 042050Z AUTO 19005KT 9999 NCD 09/08 Q1007=
201509042020 METAR ESMX 042020Z AUTO 19004KT 9999 NCD 09/08 Q1007=
201509041950 METAR ESMX 041950Z AUTO 19005KT 9999 FEW030/// 10/09 Q1008=
201509041920 METAR ESMX 041920Z AUTO 17003KT 9999 NCD 09/09 Q1008=
201509041850 METAR ESMX 041850Z AUTO 21004KT 9999 NCD 10/08 Q1008=
201509041820 METAR ESMX 041820Z AUTO 18003KT 9999 NCD 11/08 Q1008=
201509041750 METAR ESMX 041750Z AUTO 20006KT 9999 FEW093/// 11/09 Q1008=
201509041720 METAR ESMX 041720Z 22005KT CAVOK 14/09 Q1008=
201509041650 METAR ESMX 041650Z 23006KT 9999 FEW025 SCT053 15/10 Q1008=
201509041620 METAR ESMX 041620Z 24005KT 9999 FEW025 15/09 Q1008=
201509041550 METAR ESMX 041550Z 23008KT 9999 FEW035 SCT053 15/09 Q1008=
201509041520 METAR ESMX 041520Z 20005KT 9999 FEW040 SCT047 16/08 Q1009=
201509041450 METAR ESMX 041450Z 19006KT 140V220 9999 SCT035 17/07 Q1009=
201509041420 METAR ESMX 041420Z 22004KT 170V250 9999 FEW030 BKN150 16/08 Q1009=
201509041350 METAR ESMX 041350Z 27002KT 9999 FEW030 BKN150 16/06 Q1009=
201509041320 METAR ESMX 041320Z 06004KT 020V090 9999 FEW027 SCT047 BKN069 15/09 Q1010=
201509041250 METAR ESMX 041250Z 34004KT 310V010 9999 FEW027 SCT039 BKN057 15/08 Q1010=
201509041220 METAR ESMX 041220Z 26004KT 210V310 9999 BKN027 17/08 Q1011=
201509041150 METAR ESMX 041150Z VRB03KT 190V020 9999 SCT026 16/09 Q1011=
201509041120 METAR ESMX 041120Z VRB04KT 150V020 CAVOK 15/08 Q1011=
201509041050 METAR ESMX 041050Z AUTO 30001KT 9999 FEW023/// 15/09 Q1011=
201509041020 METAR ESMX 041020Z 25004KT 210V280 9999 FEW021 SCT028 BKN078 15/09 Q1011=
201509040950 METAR ESMX 040950Z VRB03KT 9999 SCT015 15/10 Q1011=
201509040920 METAR ESMX 040920Z 25002KT 9999 FEW009 13/11 Q1011=
201509040850 METAR ESMX 040850Z VRB02KT 9999 SCT005 12/11 Q1012=
201509040820 METAR ESMX 040820Z 00000KT 9999 SCT002 BKN004 11/11 Q1012=
201509040750 METAR ESMX 040750Z 00000KT 6000 BR OVC003 11/10 Q1012=
201509040720 METAR ESMX 040720Z 00000KT 0500 R01/0650V0800N R19/0800V1000N FG OVC002 10/10 Q1012=
201509040650 METAR ESMX 040650Z 00000KT 0150 R01/0400V0550N R19/0350N FG VV001 09/09 Q1012=
201509040620 METAR ESMX 040620Z 00000KT 0150 R01/0250V0375N R19/0400N FG VV001 09/09 Q1011=
201509040550 METAR ESMX 040550Z AUTO 28003KT 0200 R01/0400N R19/0325V0550N FG VV000 09/09 Q1012=
201509040520 METAR ESMX 040520Z 27003KT 250V310 0100 R01/0175V0275N R19/0325N FG VV000 09/09 Q1012=
201509040450 METAR ESMX 040450Z VRB03KT 0100 R01/0250N R19/0300N FG VV002 09/09 Q1012=
201509040420 METAR ESMX 040420Z 30002KT 0100 R01/0300N R19/0150V0500D FG VV002 08/08 Q1012=
201509040350 METAR ESMX 040350Z AUTO 25003KT 0050 R01/0450V1500D R19/0200N FG VV000 08/08 Q1012=
201509040320 METAR ESMX 040320Z AUTO 23002KT 0100 R01/0450N R19/0400N FG VV000 08/08 Q1012=
201509040250 METAR ESMX 040250Z AUTO VRB03KT 0100 R01/0325V0500N R19/0400V0550N FG FEW000/// SCT005/// 08/07 Q1012=
201509040220 METAR ESMX 040220Z AUTO 18003KT 0150 R01/0800V1600N R19/0400V0550N FG NCD 08/07 Q1012=
201509040150 METAR ESMX 040150Z AUTO 00000KT 0250 R01/P2000N R19/0700V0900N BCFG FEW048/// 09/09 Q1012=
201509040120 METAR ESMX 040120Z AUTO VRB02KT 8000 BR BKN041/// BKN056/// 10/09 Q1012=
201509040050 METAR ESMX 040050Z AUTO 10002KT 5000 BR FEW028/// BKN043/// BKN058/// 10/10 Q1013=
201509040020 METAR ESMX 040020Z AUTO VRB03KT 9999 FEW027/// SCT030/// BKN035/// 11/10 Q1013=
201509032350 METAR ESMX 032350Z 00000KT 9999 FEW018 BKN036 11/10 Q1013=
201509032320 METAR ESMX 032320Z 07002KT 9999 -RA FEW011 OVC029 11/10 Q1013=
201509032250 METAR ESMX 032250Z 00000KT 9999 OVC030 11/10 Q1013=
201509032220 METAR ESMX 032220Z 34003KT 9999 OVC034 11/10 Q1013=
201509032150 METAR ESMX 032150Z 02004KT 9999 FEW038 BKN052 11/10 Q1013=
201509032120 METAR ESMX 032120Z 33004KT 9999 FEW043 BKN057 11/10 Q1013 RERA=
201509032050 METAR ESMX 032050Z 31004KT 9999 -RA BKN050 11/10 Q1013=
201509032020 METAR ESMX 032020Z AUTO 27005KT 9999 -RA FEW043/// SCT057/// 11/10 Q1014=
201509031950 METAR ESMX 031950Z AUTO 24005KT 9999 -RA FEW044/// SCT056/// BKN069/// 11/10 Q1014=
201509031920 METAR ESMX 031920Z 25003KT 9999 -RA FEW039 BKN054 12/11 Q1014=
201509031850 METAR ESMX 031850Z 21004KT 180V240 9000 -RA FEW047 BKN052 12/11 Q1014=
201509031820 METAR ESMX 031820Z 19007KT 9999 -RA BKN032 12/11 Q1013=
201509031750 METAR ESMX 031750Z 18003KT 9999 FEW042 BKN062 13/10 Q1013=
201509031720 METAR ESMX 031720Z 16003KT CAVOK 13/11 Q1013=
201509031650 METAR ESMX 031650Z 14004KT 9999 -DZ FEW065 13/10 Q1013=
201509031620 METAR ESMX 031620Z 16005KT 9999 -RA NSC 15/10 Q1013=
201509031550 METAR ESMX 031550Z AUTO 16005KT 9999 FEW073/// 15/10 Q1013=
201509031520 METAR ESMX 031520Z 19009KT 9999 -DZ FEW046 BKN066 16/10 Q1013=
201509031450 METAR ESMX 031450Z 19010KT 9999 SCT043 BKN055 BKN066 17/10 Q1013=
201509031420 METAR ESMX 031420Z 20006KT 9999 BKN049 BKN076 18/09 Q1013=
201509031353 METAR ESMX 031353Z 19005KT 150V220 9999 FEW048 SCT061 17/09 Q1013=
201509031350 METAR ESMX 031350Z AUTO 19005KT 150V220 9999 FEW045/// SCT059/// 17/08 Q1013=
201509031326 METAR ESMX 031326Z 20007KT 140V220 9999 FEW044 18/08 Q1013=
201509031320 METAR ESMX 031320Z AUTO 19007KT 150V220 9999 FEW045/// 18/08 Q1013=
201509031250 METAR ESMX 031250Z 18006KT 150V210 9999 FEW044 SCT053 17/08 Q1013=
201509031222 METAR ESMX 031222Z 18007KT 140V230 9999 FEW043 SCT055 18/08 Q1013=
201509031220 METAR ESMX 031220Z AUTO 17007KT 140V220 9999 FEW043/// SCT055/// 18/07 Q1013=
201509031150 METAR ESMX 031150Z AUTO 20010KT 170V240 9999 FEW041/// 17/08 Q1013=
201509031120 METAR ESMX 031120Z AUTO 20009KT 150V240 9999 FEW041/// 18/08 Q1013=
201509031050 METAR ESMX 031050Z 18008KT 150V210 9999 FEW044 16/08 Q1013=
201509031020 METAR ESMX 031020Z 19009KT 9999 FEW035 17/10 Q1013=
201509030950 METAR ESMX 030950Z 20010KT CAVOK 16/09 Q1014=
201509030920 METAR ESMX 030920Z 20008KT 9999 FEW021 SCT046 16/11 Q1014=
201509030850 METAR ESMX 030850Z 20011KT 170V230 9999 SCT017 BKN043 16/11 Q1014=
201509030820 METAR ESMX 030820Z 20010KT 9999 SCT012 15/11 Q1013=
201509030750 METAR ESMX 030750Z 20008KT 9999 FEW009 14/11 Q1013=
201509030720 METAR ESMX 030720Z 20008KT 9999 FEW007 13/12 Q1013=
201509030650 METAR ESMX 030650Z 19008KT 9999 FEW004 13/12 Q1013=
201509030620 METAR ESMX 030620Z 20007KT CAVOK 12/11 Q1013=
201509030550 METAR ESMX 030550Z 19007KT CAVOK 11/11 Q1013=
201509030520 METAR ESMX 030520Z 19007KT CAVOK 11/10 Q1013=
201509030450 METAR ESMX 030450Z 19006KT CAVOK 10/10 Q1013=
201509030420 METAR ESMX 030420Z 18006KT CAVOK 10/09 Q1012=
201509030350 METAR ESMX 030350Z AUTO 18006KT 5000 NCD 09/09 Q1012=
201509030320 METAR ESMX 030320Z AUTO 18005KT 0800 R01/P2000N R19/P2000N NCD 09/09 Q1012=
201509030250 METAR ESMX 030250Z AUTO 19005KT 2900 NCD 09/09 Q1012=
201509030220 METAR ESMX 030220Z AUTO 18006KT 3600 NCD 10/09 Q1012=
201509030150 METAR ESMX 030150Z 19006KT CAVOK 10/09 Q1012=
201509030130 METAR ESMX 030130Z 19006KT CAVOK 10/09 Q1012=
201509030120 METAR ESMX 030120Z AUTO 18005KT 9999 NCD 10/09 Q1012=
201509030050 METAR ESMX 030050Z 17003KT CAVOK 11/10 Q1012=
201509030020 METAR ESMX 030020Z 17006KT CAVOK 11/10 Q1012=
201509022350 METAR ESMX 022350Z 20005KT CAVOK 10/09 Q1012=
201509022320 METAR ESMX 022320Z 18005KT CAVOK 10/10 Q1012=
201509022250 METAR ESMX 022250Z 20005KT CAVOK 11/10 Q1012=
201509022220 METAR ESMX 022220Z 21006KT CAVOK 11/10 Q1012=
201509022150 METAR ESMX 022150Z 19007KT CAVOK 11/10 Q1011=
201509022120 METAR ESMX 022120Z 18005KT CAVOK 12/11 Q1011=
201509022050 METAR ESMX 022050Z 19006KT CAVOK 12/11 Q1011=
201509022020 METAR ESMX 022020Z AUTO 18006KT 9999 BKN077/// 12/11 Q1011=
201509021950 METAR ESMX 021950Z 18008KT 9999 FEW030 12/11 Q1011=
201509021920 METAR ESMX 021920Z 18007KT 9999 FEW035 13/10 Q1011=
201509021850 METAR ESMX 021850Z 19005KT CAVOK 13/10 Q1011=
201509021820 METAR ESMX 021820Z 22007KT CAVOK 14/10 Q1011=
201509021750 METAR ESMX 021750Z 22008KT CAVOK 15/10 Q1010=
201509021720 METAR ESMX 021720Z 22010KT CAVOK 15/10 Q1010=
201509021650 METAR ESMX 021650Z 23007KT 9999 SCT031 16/11 Q1010=
201509021620 METAR ESMX 021620Z 23010KT 190V250 9999 FEW042 17/11 Q1010=
201509021550 METAR ESMX 021550Z 25009KT 9999 FEW034 SCT057 17/11 Q1010=
201509021520 METAR ESMX 021520Z 22011KT 9999 FEW040 BKN062 17/10 Q1009=
201509021450 METAR ESMX 021450Z 22011KT 9999 FEW066 18/10 Q1009=
201509021420 METAR ESMX 021420Z 21013KT 9999 FEW034 SCT063 18/11 Q1009=
201509021350 METAR ESMX 021350Z 23013KT 9999 FEW041 BKN064 BKN082 18/10 Q1009=
201509021320 METAR ESMX 021320Z 23013KT 190V250 9999 FEW039 BKN059 18/10 Q1009=
201509021250 METAR ESMX 021250Z 22012KT 200V260 9999 SCT042 18/09 Q1009=
201509021220 METAR ESMX 021220Z 24012KT 200V280 9999 FEW035 SCT049 18/10 Q1009=
201509021150 METAR COR ESMX 021150Z 23013KT 200V260 9999 FEW025 SCT035 18/10 Q1009=
201509021120 METAR ESMX 021120Z 24011KT 210V280 9999 FEW029 SCT059 17/10 Q1009=
201509021050 METAR ESMX 021050Z 22011KT 190V260 9999 FEW025 BKN055 17/11 Q1008=
201509021020 METAR ESMX 021020Z 22012KT 9999 FEW023 BKN050 18/12 Q1008=
201509020950 METAR COR ESMX 020950Z 21010KT 9999 FEW026 BKN047 17/12 Q1008=
201509020920 METAR COR ESMX 020920Z 21011KT 9999 FEW016 BKN035 16/12 Q1008=
201509020850 METAR ESMX 020850Z AUTO 23011KT 9999 FEW014/// SCT019/// BKN023/// 16/13 Q1008=
201509020820 METAR ESMX 020820Z 22009KT 9999 FEW012 SCT017 BKN022 15/13 Q1008=
201509020750 METAR ESMX 020750Z 22009KT 9999 SCT013 BKN020 14/12 Q1007=
201509020720 METAR COR ESMX 020720Z 22010KT 9999 SCT010 BKN015 14/12 Q1007=
201509020650 METAR ESMX 020650Z 22009KT 9999 FEW008 BKN010 14/13 Q1007=
201509020620 METAR ESMX 020620Z 21008KT 9999 FEW007 SCT010 BKN015 14/12 Q1007=
201509020550 METAR ESMX 020550Z 22009KT 9999 SCT007 BKN010 13/12 Q1006=
201509020520 METAR COR ESMX 020520Z 23006KT 9999 FEW008 BKN015 13/12 Q1006=
201509020450 METAR COR ESMX 020450Z 22006KT 9999 FEW010 SCT013 BKN018 13/12 Q1006 RERA=
201509020420 METAR ESMX 020420Z 23007KT 9999 FEW005 SCT009 BKN013 13/13 Q1006 REDZ=
201509020350 METAR ESMX 020350Z 22007KT 190V260 9999 FEW008 SCT011 BKN020 13/13 Q1006=
201509020320 METAR ESMX 020320Z AUTO 24007KT 210V280 6000 BR FEW008/// SCT011/// BKN016/// 14/13 Q1006=
201509020250 METAR ESMX 020250Z AUTO 23006KT 9999 FEW008/// SCT011/// BKN014/// 14/13 Q1005 REDZ=
201509020220 METAR ESMX 020220Z AUTO 23005KT 9999 FEW010/// SCT014/// BKN017/// 14/13 Q1005=
201509020150 METAR ESMX 020150Z AUTO 23007KT 9999 FEW010/// SCT015/// BKN032/// 14/13 Q1005=
201509020120 METAR ESMX 020120Z AUTO 23008KT 200V270 9999 FEW011/// SCT016/// BKN021/// 14/13 Q1005=
201509020050 METAR ESMX 020050Z AUTO 24008KT 9999 FEW009/// SCT020/// BKN025/// 15/14 Q1004 REDZ=
201509020020 METAR ESMX 020020Z AUTO 23007KT 9999 FEW007/// BKN025/// BKN035/// 15/14 Q1004 REDZ=
201509012350 METAR ESMX 012350Z 24010KT 210V280 3900 DZ FEW005 SCT007 BKN008 15/15 Q1004=
201509012320 METAR ESMX 012320Z 22007KT 9999 FEW004 SCT006 BKN008 16/15 Q1004=
201509012250 METAR COR ESMX 012250Z 22010KT 9999 FEW004 SCT005 BKN006 16/15 Q1004 RERA=
201509012220 METAR ESMX 012220Z 22008KT 9999 -DZ FEW007 SCT009 BKN019 17/16 Q1004 RERA=
201509012150 METAR ESMX 012150Z 20011KT 9999 FEW005 SCT008 BKN013 17/16 Q1004 RESHRA RERA=
201509012120 METAR ESMX 012120Z 21010KT 170V230 6000 RA SCT002 BKN005 OVC010 17/17 Q1004 RESHRA=
201509012050 METAR ESMX 012050Z 12003KT 050V160 2800 +RA VV002 18/17 Q1004 REDZ=
201509012020 METAR ESMX 012020Z VRB03KT 4200 BR OVC002 18/17 Q1004=
201509011950 METAR ESMX 011950Z VRB02KT 4800 -DZ BKN002 OVC004 17/17 Q1004=
201509011920 METAR ESMX 011920Z VRB03KT 3900 RA OVC002 17/17 Q1004=
201509011850 METAR ESMX 011850Z 13003KT 4700 RA OVC002 17/17 Q1004=
201509011820 METAR ESMX 011820Z VRB03KT 5000 -DZ BKN002 OVC003 17/17 Q1004 REDZ=
201509011750 METAR ESMX 011750Z 08003KT 050V120 5000 BR BKN002 OVC005 17/17 Q1005 REDZ=
201509011720 METAR ESMX 011720Z VRB03KT 6000 BR BKN003 17/17 Q1004=
201509011650 METAR ESMX 011650Z 08003KT 3500 -DZ BR BKN003 17/17 Q1004=
201509011620 METAR COR ESMX 011620Z 09003KT 3500 BR VV002 17/17 Q1005=
201509011550 METAR ESMX 011550Z VRB03KT 2500 -DZ BR VV003 17/17 Q1005=
201509011520 METAR COR ESMX 011520Z VRB03KT 2300 BR VV002 17/17 Q1005=
201509011450 METAR ESMX 011450Z VRB02KT 2300 BR VV002 17/17 Q1005=
201509011420 METAR ESMX 011420Z VRB02KT 3000 BR BKN003 17/17 Q1005=
201509011350 METAR ESMX 011350Z VRB02KT 5000 BR BKN004 17/16 Q1005=
201509011320 METAR COR ESMX 011320Z 08004KT 030V110 9999 BKN004 17/17 Q1005=
201509011250 METAR ESMX 011250Z 05004KT 010V080 9999 BKN002 17/16 Q1005=
201509011220 METAR ESMX 011220Z 04005KT 7000 BR SCT002 BKN005 17/16 Q1004=
